94299KAAT AAT20160801000010908/01/16 00:00:31  5-MIN KAAT 010800Z AUTO 13005KT 10SM CLR 17/01 A3008 4230 33 5500 110/05 RMK AO2 T01720011
94299KAAT AAT20160801000510908/01/16 00:05:31  5-MIN KAAT 010805Z AUTO 15004KT 10SM CLR 17/01 A3008 4230 32 5500 140/04 RMK AO2 T01720006
94299KAAT AAT20160801001010908/01/16 00:10:31  5-MIN KAAT 010810Z AUTO 00000KT 10SM CLR 16/01 A3008 4230 34 5400 000/00 RMK AO2 T01610006
94299KAAT AAT20160801001510908/01/16 00:15:31  5-MIN KAAT 010815Z AUTO 00000KT 10SM CLR 15/01 A3008 4230 37 5200 000/00 RMK AO2 T01500006
94299KAAT AAT20160801002010908/01/16 00:20:31  5-MIN KAAT 010820Z AUTO 00000KT 10SM CLR 13/00 A3008 4230 40 5100 000/00 RMK AO2 T01330000
94299KAAT AAT20160801002510908/01/16 00:25:31  5-MIN KAAT 010825Z AUTO 00000KT 10SM CLR 14/00 A3008 4230 38 5100 000/00 RMK AO2 T01390000
94299KAAT AAT20160801003010908/01/16 00:30:31  5-MIN KAAT 010830Z AUTO 08004KT 10SM CLR 14/01 A3009 4230 40 5100 060/04 RMK AO2 T01390006
94299KAAT AAT20160801003510908/01/16 00:35:31  5-MIN KAAT 010835Z AUTO 20003KT 10SM CLR 13/01 A3009 4230 41 5000 190/03 RMK AO2 T01330006
94299KAAT AAT20160801004010908/01/16 00:40:31  5-MIN KAAT 010840Z AUTO 17005KT 10SM CLR 13/02 A3008 4230 46 5000 150/05 RMK AO2 T01330022
94299KAAT AAT20160801004510908/01/16 00:45:31  5-MIN KAAT 010845Z AUTO 13004KT 10SM CLR 14/03 A3008 4230 48 5100 120/04 RMK AO2 T01390033
94299KAAT AAT20160801005012208/01/16 00:50:31  5-MIN KAAT 010850Z AUTO 08005KT 10SM CLR 14/03 A3009 4230 48 5100 070/05 RMK AO2 SLP138 T01390033 51021
94299KAAT AAT20160801005512208/01/16 00:55:31  5-MIN KAAT 010855Z AUTO 06004KT 10SM CLR 14/03 A3009 4230 48 5100 050/04 RMK AO2 SLP138 T01390033 51007
94299KAAT AAT20160801010010908/01/16 01:00:31  5-MIN KAAT 010900Z AUTO VRB04KT 10SM CLR 14/02 A3009 4230 43 5200 VRB/04 RMK AO2 T01440022
94299KAAT AAT20160801010510908/01/16 01:05:31  5-MIN KAAT 010905Z AUTO 07005KT 10SM CLR 14/02 A3009 4230 43 5200 050/05 RMK AO2 T01440022
94299KAAT AAT20160801011010908/01/16 01:10:31  5-MIN KAAT 010910Z AUTO VRB04KT 10SM CLR 14/01 A3009 4230 40 5200 VRB/04 RMK AO2 T01440011
94299KAAT AAT20160801011510908/01/16 01:15:31  5-MIN KAAT 010915Z AUTO 00000KT 10SM CLR 13/02 A3009 4230 45 5000 000/00 RMK AO2 T01330017
94299KAAT AAT20160801012010908/01/16 01:20:31  5-MIN KAAT 010920Z AUTO VRB03KT 10SM CLR 14/01 A3009 4230 41 5100 VRB/03 RMK AO2 T01390011
94299KAAT AAT20160801012510908/01/16 01:25:31  5-MIN KAAT 010925Z AUTO 00000KT 10SM CLR 13/01 A3009 4230 43 5000 000/00 RMK AO2 T01280006
94299KAAT AAT20160801013010908/01/16 01:30:31  5-MIN KAAT 010930Z AUTO 00000KT 10SM CLR 12/01 A3009 4230 46 4900 000/00 RMK AO2 T01220011
94299KAAT AAT20160801013510908/01/16 01:35:31  5-MIN KAAT 010935Z AUTO 10003KT 10SM CLR 12/01 A3009 4230 48 4900 080/03 RMK AO2 T01170011
94299KAAT AAT20160801014010908/01/16 01:40:31  5-MIN KAAT 010940Z AUTO 00000KT 10SM CLR 11/01 A3009 4230 48 4800 000/00 RMK AO2 T01110006
94299KAAT AAT20160801014510908/01/16 01:45:31  5-MIN KAAT 010945Z AUTO 00000KT 10SM CLR 12/01 A3009 4220 48 4900 000/00 RMK AO2 T01170011
94299KAAT AAT20160801015011608/01/16 01:50:31  5-MIN KAAT 010950Z AUTO 00000KT 10SM CLR 10/00 A3009 4220 49 4700 000/00 RMK AO2 SLP144 T01000000
94299KAAT AAT20160801015511608/01/16 01:55:31  5-MIN KAAT 010955Z AUTO 10004KT 10SM CLR 11/01 A3009 4220 50 4700 080/04 RMK AO2 SLP143 T01060006
94299KAAT AAT20160801020010908/01/16 02:00:31  5-MIN KAAT 011000Z AUTO 00000KT 10SM CLR 11/00 A3009 4220 48 4700 000/00 RMK AO2 T01060000
94299KAAT AAT20160801020510908/01/16 02:05:31  5-MIN KAAT 011005Z AUTO 00000KT 10SM CLR 11/01 A3009 4220 48 4800 000/00 RMK AO2 T01110006
94299KAAT AAT20160801021010908/01/16 02:10:31  5-MIN KAAT 011010Z AUTO 00000KT 10SM CLR 11/01 A3009 4220 50 4800 000/00 RMK AO2 T01110011
94299KAAT AAT20160801021510908/01/16 02:15:31  5-MIN KAAT 011015Z AUTO 00000KT 10SM CLR 11/02 A3009 4220 52 4800 000/00 RMK AO2 T01110017
94299KAAT AAT20160801022010908/01/16 02:20:31  5-MIN KAAT 011020Z AUTO 05003KT 10SM CLR 11/02 A3009 4220 52 4800 040/03 RMK AO2 T01110017
94299KAAT AAT20160801022510908/01/16 02:25:31  5-MIN KAAT 011025Z AUTO 00000KT 10SM CLR 11/02 A3009 4220 52 4800 000/00 RMK AO2 T01110017
94299KAAT AAT20160801023010908/01/16 02:30:31  5-MIN KAAT 011030Z AUTO 00000KT 10SM CLR 11/01 A3009 4220 50 4800 000/00 RMK AO2 T01110011
94299KAAT AAT20160801023510908/01/16 02:35:31  5-MIN KAAT 011035Z AUTO 00000KT 10SM CLR 12/02 A3010 4220 50 4800 000/00 RMK AO2 T01170017
94299KAAT AAT20160801024010908/01/16 02:40:31  5-MIN KAAT 011040Z AUTO 00000KT 10SM CLR 12/01 A3010 4220 44 4900 000/00 RMK AO2 T01220006
94299KAAT AAT20160801024510908/01/16 02:45:31  5-MIN KAAT 011045Z AUTO 00000KT 10SM CLR 13/01 A3010 4220 43 5000 000/00 RMK AO2 T01280006
94299KAAT AAT20160801025011608/01/16 02:50:31  5-MIN KAAT 011050Z AUTO 00000KT 10SM CLR 11/00 A3010 4220 48 4700 000/00 RMK AO2 SLP146 T01060000
94299KAAT AAT20160801025511608/01/16 02:55:31  5-MIN KAAT 011055Z AUTO 00000KT 10SM CLR 10/00 A3010 4220 49 4600 000/00 RMK AO2 SLP146 T01000000
94299KAAT AAT20160801030010908/01/16 03:00:31  5-MIN KAAT 011100Z AUTO 00000KT 10SM CLR 11/01 A3010 4220 52 4700 000/00 RMK AO2 T01060011
94299KAAT AAT20160801030510908/01/16 03:05:31  5-MIN KAAT 011105Z AUTO 00000KT 10SM CLR 10/01 A3010 4220 52 4600 000/00 RMK AO2 T01000006
94299KAAT AAT20160801031010908/01/16 03:10:31  5-MIN KAAT 011110Z AUTO 00000KT 10SM CLR 09/01 A3010 4220 53 4600 000/00 RMK AO2 T00940006
94299KAAT AAT20160801031510908/01/16 03:15:31  5-MIN KAAT 011115Z AUTO 00000KT 10SM CLR 10/01 A3010 4220 52 4600 000/00 RMK AO2 T01000006
94299KAAT AAT20160801032010908/01/16 03:20:31  5-MIN KAAT 011120Z AUTO 00000KT 10SM CLR 09/01 A3010 4220 53 4600 000/00 RMK AO2 T00940006
94299KAAT AAT20160801032510908/01/16 03:25:31  5-MIN KAAT 011125Z AUTO 00000KT 10SM CLR 09/01 A3010 4210 56 4500 000/00 RMK AO2 T00890006
94299KAAT AAT20160801033010908/01/16 03:30:31  5-MIN KAAT 011130Z AUTO 00000KT 10SM CLR 09/01 A3010 4210 56 4500 000/00 RMK AO2 T00890006
94299KAAT AAT20160801033511008/01/16 03:35:31  5-MIN KAAT 011135Z AUTO 00000KT 10SM CLR 08/M01 A3010 4210 53 4400 000/00 RMK AO2 T00831006
94299KAAT AAT20160801034010908/01/16 03:40:31  5-MIN KAAT 011140Z AUTO 00000KT 10SM CLR 10/01 A3010 4210 52 4600 000/00 RMK AO2 T01000006
94299KAAT AAT20160801034510908/01/16 03:45:31  5-MIN KAAT 011145Z AUTO 00000KT 10SM CLR 09/00 A3010 4210 53 4500 000/00 RMK AO2 T00890000
94299KAAT AAT20160801035013408/01/16 03:50:31  5-MIN KAAT 011150Z AUTO 00000KT 10SM CLR 08/00 A3011 4210 55 4400 000/00 RMK AO2 SLP151 T00830000 10211 20078 51007
94299KAAT AAT20160801035513408/01/16 03:55:31  5-MIN KAAT 011155Z AUTO 00000KT 10SM CLR 09/00 A3011 4210 53 4500 000/00 RMK AO2 SLP151 T00890000 10211 20078 52006
94299KAAT AAT20160801040011008/01/16 04:00:31  5-MIN KAAT 011200Z AUTO 00000KT 10SM CLR 08/M01 A3011 4210 53 4400 000/00 RMK AO2 T00831006
94299KAAT AAT20160801040510908/01/16 04:05:31  5-MIN KAAT 011205Z AUTO 00000KT 10SM CLR 08/01 A3011 4210 58 4400 000/00 RMK AO2 T00830006
94299KAAT AAT20160801041010908/01/16 04:10:31  5-MIN KAAT 011210Z AUTO 00000KT 10SM CLR 09/01 A3011 4210 58 4500 000/00 RMK AO2 T00890011
94299KAAT AAT20160801041510908/01/16 04:15:31  5-MIN KAAT 011215Z AUTO 00000KT 10SM CLR 09/01 A3011 4210 56 4600 000/00 RMK AO2 T00940011
94299KAAT AAT20160801042010908/01/16 04:20:31  5-MIN KAAT 011220Z AUTO 00000KT 10SM CLR 09/02 A3011 4210 58 4600 000/00 RMK AO2 T00940017
94299KAAT AAT20160801042510908/01/16 04:25:31  5-MIN KAAT 011225Z AUTO 00000KT 10SM CLR 08/02 A3011 4210 63 4400 000/00 RMK AO2 T00830017
94299KAAT AAT20160801043010908/01/16 04:30:31  5-MIN KAAT 011230Z AUTO 00000KT 10SM CLR 08/01 A3011 4210 60 4400 000/00 RMK AO2 T00780006
94299KAAT AAT20160801043511008/01/16 04:35:31  5-MIN KAAT 011235Z AUTO 00000KT 10SM CLR 07/M01 A3011 4210 57 4200 000/00 RMK AO2 T00671011
94299KAAT AAT20160801044011008/01/16 04:40:31  5-MIN KAAT 011240Z AUTO 00000KT 10SM CLR 07/M01 A3011 4210 55 4300 000/00 RMK AO2 T00721011
94299KAAT AAT20160801044510908/01/16 04:45:31  5-MIN KAAT 011245Z AUTO 00000KT 10SM CLR 07/00 A3011 4210 60 4300 000/00 RMK AO2 T00720000
94299KAAT AAT20160801045011608/01/16 04:50:31  5-MIN KAAT 011250Z AUTO 00000KT 10SM CLR 07/01 A3011 4210 62 4300 000/00 RMK AO2 SLP157 T00720006
94299KAAT AAT20160801045511608/01/16 04:55:31  5-MIN KAAT 011255Z AUTO 00000KT 10SM CLR 07/01 A3011 4210 62 4300 000/00 RMK AO2 SLP156 T00720006
94299KAAT AAT20160801050010908/01/16 05:00:31  5-MIN KAAT 011300Z AUTO 00000KT 10SM CLR 07/01 A3011 4200 62 4300 000/00 RMK AO2 T00720006
94299KAAT AAT20160801050510908/01/16 05:05:31  5-MIN KAAT 011305Z AUTO 00000KT 10SM CLR 08/01 A3011 4200 60 4400 000/00 RMK AO2 T00780006
94299KAAT AAT20160801051010908/01/16 05:10:31  5-MIN KAAT 011310Z AUTO 00000KT 10SM CLR 07/00 A3011 4200 60 4300 000/00 RMK AO2 T00720000
94299KAAT AAT20160801051510908/01/16 05:15:31  5-MIN KAAT 011315Z AUTO 00000KT 10SM CLR 08/00 A3012 4200 58 4400 000/00 RMK AO2 T00780000
94299KAAT AAT20160801052010908/01/16 05:20:31  5-MIN KAAT 011320Z AUTO 00000KT 10SM CLR 08/01 A3011 4200 60 4400 000/00 RMK AO2 T00780006
94299KAAT AAT20160801052510908/01/16 05:25:31  5-MIN KAAT 011325Z AUTO 00000KT 10SM CLR 08/00 A3012 4200 58 4400 000/00 RMK AO2 T00780000
94299KAAT AAT20160801053010908/01/16 05:30:31  5-MIN KAAT 011330Z AUTO 00000KT 10SM CLR 08/01 A3012 4200 58 4400 000/00 RMK AO2 T00830006
94299KAAT AAT20160801053510908/01/16 05:35:31  5-MIN KAAT 011335Z AUTO 00000KT 10SM CLR 09/01 A3012 4200 58 4500 000/00 RMK AO2 T00890011
94299KAAT AAT20160801054010908/01/16 05:40:31  5-MIN KAAT 011340Z AUTO 00000KT 10SM CLR 09/01 A3012 4200 56 4600 000/00 RMK AO2 T00940011
94299KAAT AAT20160801054510908/01/16 05:45:31  5-MIN KAAT 011345Z AUTO 00000KT 10SM CLR 10/01 A3012 4200 54 4600 000/00 RMK AO2 T01000011
94299KAAT AAT20160801055011608/01/16 05:50:31  5-MIN KAAT 011350Z AUTO 00000KT 10SM CLR 11/01 A3012 4200 52 4700 000/00 RMK AO2 SLP156 T01060011
94299KAAT AAT20160801055511908/01/16 05:55:31  5-MIN KAAT 011355Z AUTO 00000KT 10SM FEW002 11/01 A3012 4200 50 4800 000/00 RMK AO2 SLP155 T01110011
94299KAAT AAT20160801060011208/01/16 06:00:31  5-MIN KAAT 011400Z AUTO 00000KT 10SM FEW002 12/02 A3012 4200 48 4900 000/00 RMK AO2 T01220017
94299KAAT AAT20160801060511208/01/16 06:05:31  5-MIN KAAT 011405Z AUTO 00000KT 10SM FEW002 12/02 A3012 4200 48 4900 000/00 RMK AO2 T01220017
94299KAAT AAT20160801061011208/01/16 06:10:31  5-MIN KAAT 011410Z AUTO 00000KT 10SM FEW002 13/02 A3012 4200 45 5000 000/00 RMK AO2 T01330017
94299KAAT AAT20160801061511208/01/16 06:15:31  5-MIN KAAT 011415Z AUTO 00000KT 10SM FEW002 14/02 A3012 4200 43 5100 000/00 RMK AO2 T01390017
94299KAAT AAT20160801062011208/01/16 06:20:31  5-MIN KAAT 011420Z AUTO 00000KT 10SM FEW002 14/02 A3012 4200 41 5100 000/00 RMK AO2 T01440017
94299KAAT AAT20160801062510908/01/16 06:25:31  5-MIN KAAT 011425Z AUTO 00000KT 10SM CLR 14/02 A3012 4200 41 5100 000/00 RMK AO2 T01440017
94299KAAT AAT20160801063010908/01/16 06:30:31  5-MIN KAAT 011430Z AUTO 00000KT 10SM CLR 15/02 A3012 4190 40 5200 000/00 RMK AO2 T01500017
94299KAAT AAT20160801063510908/01/16 06:35:31  5-MIN KAAT 011435Z AUTO 00000KT 10SM CLR 15/02 A3012 4190 40 5200 000/00 RMK AO2 T01500017
94299KAAT AAT20160801064010908/01/16 06:40:31  5-MIN KAAT 011440Z AUTO 00000KT 10SM CLR 16/02 A3012 4200 37 5300 000/00 RMK AO2 T01610017
94299KAAT AAT20160801064510908/01/16 06:45:31  5-MIN KAAT 011445Z AUTO 00000KT 10SM CLR 16/02 A3012 4200 37 5300 000/00 RMK AO2 T01610017
94299KAAT AAT20160801065012208/01/16 06:50:31  5-MIN KAAT 011450Z AUTO 00000KT 10SM CLR 16/02 A3012 4200 37 5300 000/00 RMK AO2 SLP153 T01610017 52006
94299KAAT AAT20160801065512208/01/16 06:55:31  5-MIN KAAT 011455Z AUTO 00000KT 10SM CLR 17/02 A3012 4200 36 5400 000/00 RMK AO2 SLP153 T01670017 51004
94299KAAT AAT20160801070010908/01/16 07:00:31  5-MIN KAAT 011500Z AUTO 00000KT 10SM CLR 17/01 A3012 4200 33 5500 000/00 RMK AO2 T01720011
94299KAAT AAT20160801070510908/01/16 07:05:31  5-MIN KAAT 011505Z AUTO 00000KT 10SM CLR 18/02 A3012 4200 33 5500 000/00 RMK AO2 T01780017
94299KAAT AAT20160801071010908/01/16 07:10:31  5-MIN KAAT 011510Z AUTO 00000KT 10SM CLR 18/02 A3012 4200 33 5500 000/00 RMK AO2 T01780017
94299KAAT AAT20160801071510908/01/16 07:15:31  5-MIN KAAT 011515Z AUTO 00000KT 10SM CLR 18/01 A3012 4200 31 5600 000/00 RMK AO2 T01830011
94299KAAT AAT20160801072010908/01/16 07:20:31  5-MIN KAAT 011520Z AUTO 00000KT 10SM CLR 18/01 A3012 4190 30 5600 000/00 RMK AO2 T01830006
94299KAAT AAT20160801072510908/01/16 07:25:31  5-MIN KAAT 011525Z AUTO 00000KT 10SM CLR 19/01 A3012 4190 29 5600 000/00 RMK AO2 T01890006
94299KAAT AAT20160801073010908/01/16 07:30:31  5-MIN KAAT 011530Z AUTO 00000KT 10SM CLR 19/01 A3012 4190 29 5600 000/00 RMK AO2 T01890006
94299KAAT AAT20160801073510908/01/16 07:35:31  5-MIN KAAT 011535Z AUTO 00000KT 10SM CLR 19/01 A3012 4190 28 5700 000/00 RMK AO2 T01940006
94299KAAT AAT20160801074010908/01/16 07:40:31  5-MIN KAAT 011540Z AUTO 00000KT 10SM CLR 19/01 A3012 4190 28 5700 000/00 RMK AO2 T01940006
94299KAAT AAT20160801074510908/01/16 07:45:31  5-MIN KAAT 011545Z AUTO 00000KT 10SM CLR 20/01 A3012 4190 27 5800 000/00 RMK AO2 T02000006
94299KAAT AAT20160801075011608/01/16 07:50:31  5-MIN KAAT 011550Z AUTO 00000KT 10SM CLR 20/01 A3012 4190 27 5800 000/00 RMK AO2 SLP154 T02000006
94299KAAT AAT20160801075511608/01/16 07:55:31  5-MIN KAAT 011555Z AUTO 00000KT 10SM CLR 21/01 A3012 4190 26 5800 000/00 RMK AO2 SLP153 T02060006
94299KAAT AAT20160801080010908/01/16 08:00:31  5-MIN KAAT 011600Z AUTO 00000KT 10SM CLR 21/00 A3012 4190 25 5800 000/00 RMK AO2 T02060000
94299KAAT AAT20160801080510908/01/16 08:05:31  5-MIN KAAT 011605Z AUTO 00000KT 10SM CLR 21/00 A3012 4190 24 5900 000/00 RMK AO2 T02110000
94299KAAT AAT20160801081010908/01/16 08:10:31  5-MIN KAAT 011610Z AUTO 00000KT 10SM CLR 22/00 A3012 4200 23 5900 000/00 RMK AO2 T02170000
94299KAAT AAT20160801081510908/01/16 08:15:31  5-MIN KAAT 011615Z AUTO 00000KT 10SM CLR 22/00 A3012 4200 23 6000 000/00 RMK AO2 T02170000
94299KAAT AAT20160801082010908/01/16 08:20:31  5-MIN KAAT 011620Z AUTO 18003KT 10SM CLR 22/00 A3012 4200 22 6000 160/03 RMK AO2 T02220000
94299KAAT AAT20160801082511008/01/16 08:25:31  5-MIN KAAT 011625Z AUTO 00000KT 10SM CLR 23/M01 A3012 4200 21 6100 000/00 RMK AO2 T02281006
94299KAAT AAT20160801083010908/01/16 08:30:31  5-MIN KAAT 011630Z AUTO VRB03KT 10SM CLR 22/00 A3012 4200 22 6000 VRB/03 RMK AO2 T02220000
94299KAAT AAT20160801083510908/01/16 08:35:31  5-MIN KAAT 011635Z AUTO 00000KT 10SM CLR 23/00 A3012 4200 22 6100 000/00 RMK AO2 T02280000
94299KAAT AAT20160801084010908/01/16 08:40:31  5-MIN KAAT 011640Z AUTO 00000KT 10SM CLR 23/00 A3012 4200 21 6100 000/00 RMK AO2 T02330000
94299KAAT AAT20160801084510908/01/16 08:45:31  5-MIN KAAT 011645Z AUTO 00000KT 10SM CLR 24/00 A3011 4200 20 6200 000/00 RMK AO2 T02390000
94299KAAT AAT20160801085011608/01/16 08:50:31  5-MIN KAAT 011650Z AUTO 00000KT 10SM CLR 24/00 A3011 4200 20 6200 000/00 RMK AO2 SLP148 T02390000
94299KAAT AAT20160801085511608/01/16 08:55:31  5-MIN KAAT 011655Z AUTO 00000KT 10SM CLR 24/01 A3011 4200 20 6300 000/00 RMK AO2 SLP147 T02440006
94299KAAT AAT20160801090010908/01/16 09:00:31  5-MIN KAAT 011700Z AUTO VRB03KT 10SM CLR 25/01 A3011 4210 20 6300 VRB/03 RMK AO2 T02500006
94299KAAT AAT20160801090510908/01/16 09:05:31  5-MIN KAAT 011705Z AUTO 00000KT 10SM CLR 25/00 A3011 4210 19 6300 000/00 RMK AO2 T02500000
94299KAAT AAT20160801091011008/01/16 09:10:31  5-MIN KAAT 011710Z AUTO 00000KT 10SM CLR 25/M01 A3011 4210 18 6300 000/00 RMK AO2 T02501006
94299KAAT AAT20160801091511008/01/16 09:15:31  5-MIN KAAT 011715Z AUTO 00000KT 10SM CLR 25/M02 A3011 4210 17 6300 000/00 RMK AO2 T02501017
94299KAAT AAT20160801092011008/01/16 09:20:31  5-MIN KAAT 011720Z AUTO 00000KT 10SM CLR 26/M01 A3011 4210 17 6400 000/00 RMK AO2 T02561011
94299KAAT AAT20160801092511008/01/16 09:25:31  5-MIN KAAT 011725Z AUTO 00000KT 10SM CLR 26/M01 A3011 4210 16 6500 000/00 RMK AO2 T02611011
94299KAAT AAT20160801093011008/01/16 09:30:31  5-MIN KAAT 011730Z AUTO 00000KT 10SM CLR 26/M01 A3011 4210 17 6500 000/00 RMK AO2 T02611006
94299KAAT AAT20160801093511008/01/16 09:35:31  5-MIN KAAT 011735Z AUTO 00000KT 10SM CLR 26/M01 A3011 4210 16 6500 000/00 RMK AO2 T02611011
94299KAAT AAT20160801094011008/01/16 09:40:31  5-MIN KAAT 011740Z AUTO 00000KT 10SM CLR 27/M01 A3011 4210 15 6600 000/00 RMK AO2 T02721011
94299KAAT AAT20160801094511008/01/16 09:45:31  5-MIN KAAT 011745Z AUTO 01003KT 10SM CLR 27/M01 A3011 4210 15 6600 350/03 RMK AO2 T02721011
94299KAAT AAT20160801095013508/01/16 09:50:31  5-MIN KAAT 011750Z AUTO 12004KT 10SM CLR 27/M01 A3011 4210 15 6600 100/04 RMK AO2 SLP143 T02721011 10272 20067 51004
94299KAAT AAT20160801095513508/01/16 09:55:31  5-MIN KAAT 011755Z AUTO VRB03KT 10SM CLR 27/M01 A3011 4210 15 6600 VRB/03 RMK AO2 SLP143 T02721011 10272 20067 58004
94299KAAT AAT20160801100011008/01/16 10:00:31  5-MIN KAAT 011800Z AUTO 00000KT 10SM CLR 28/M01 A3011 4210 15 6600 000/00 RMK AO2 T02781011
94299KAAT AAT20160801100511008/01/16 10:05:31  5-MIN KAAT 011805Z AUTO VRB04KT 10SM CLR 27/M02 A3011 4210 15 6600 VRB/04 RMK AO2 T02721017
94299KAAT AAT20160801101011008/01/16 10:10:31  5-MIN KAAT 011810Z AUTO 15004KT 10SM CLR 28/M02 A3011 4210 14 6700 140/04 RMK AO2 T02831017
94299KAAT AAT20160801101511008/01/16 10:15:31  5-MIN KAAT 011815Z AUTO 00000KT 10SM CLR 28/M02 A3011 4210 13 6600 000/00 RMK AO2 T02781022
94299KAAT AAT20160801102011008/01/16 10:20:31  5-MIN KAAT 011820Z AUTO VRB05KT 10SM CLR 29/M01 A3010 4210 14 6800 VRB/05 RMK AO2 T02891011
94299KAAT AAT20160801102511008/01/16 10:25:31  5-MIN KAAT 011825Z AUTO 16004KT 10SM CLR 28/M01 A3010 4210 15 6700 140/04 RMK AO2 T02831006
94299KAAT AAT20160801103010908/01/16 10:30:31  5-MIN KAAT 011830Z AUTO 00000KT 10SM CLR 29/00 A3010 4210 15 6800 000/00 RMK AO2 T02890000
94299KAAT AAT20160801103510908/01/16 10:35:31  5-MIN KAAT 011835Z AUTO VRB03KT 10SM CLR 28/01 A3010 4210 16 6700 VRB/03 RMK AO2 T02830006
94299KAAT AAT20160801104010908/01/16 10:40:31  5-MIN KAAT 011840Z AUTO 16006KT 10SM CLR 29/01 A3010 4220 16 6800 150/06 RMK AO2 T02890011
94299KAAT AAT20160801104510908/01/16 10:45:31  5-MIN KAAT 011845Z AUTO 19004KT 10SM CLR 28/01 A3010 4220 17 6700 180/04 RMK AO2 T02830011
94299KAAT AAT20160801105011608/01/16 10:50:31  5-MIN KAAT 011850Z AUTO 00000KT 10SM CLR 29/01 A3010 4220 16 6800 000/00 RMK AO2 SLP142 T02890011
94299KAAT AAT20160801105511608/01/16 10:55:31  5-MIN KAAT 011855Z AUTO VRB06KT 10SM CLR 29/01 A3010 4220 15 6800 VRB/06 RMK AO2 SLP142 T02890006
94299KAAT AAT20160801110010908/01/16 11:00:31  5-MIN KAAT 011900Z AUTO 00000KT 10SM CLR 29/01 A3010 4220 15 6800 000/00 RMK AO2 T02940006
94299KAAT AAT20160801110510908/01/16 11:05:31  5-MIN KAAT 011905Z AUTO 11004KT 10SM CLR 29/00 A3010 4220 14 6800 100/04 RMK AO2 T02940000
94299KAAT AAT20160801111010908/01/16 11:10:31  5-MIN KAAT 011910Z AUTO VRB05KT 10SM CLR 30/00 A3009 4220 14 6900 VRB/05 RMK AO2 T03000000
94299KAAT AAT20160801111510908/01/16 11:15:31  5-MIN KAAT 011915Z AUTO 00000KT 10SM CLR 30/00 A3009 4220 14 6900 000/00 RMK AO2 T03000000
94299KAAT AAT20160801112010908/01/16 11:20:31  5-MIN KAAT 011920Z AUTO 00000KT 10SM CLR 30/00 A3009 4220 14 6900 000/00 RMK AO2 T03000000
94299KAAT AAT20160801112510908/01/16 11:25:31  5-MIN KAAT 011925Z AUTO 00000KT 10SM CLR 30/00 A3009 4230 14 6900 000/00 RMK AO2 T03000000
94299KAAT AAT20160801113010908/01/16 11:30:31  5-MIN KAAT 011930Z AUTO 12005KT 10SM CLR 31/00 A3009 4230 13 7000 110/05 RMK AO2 T03110000
94299KAAT AAT20160801113511008/01/16 11:35:31  5-MIN KAAT 011935Z AUTO 09006KT 10SM CLR 31/M01 A3009 4230 13 7000 080/06 RMK AO2 T03061006
94299KAAT AAT20160801114011008/01/16 11:40:31  5-MIN KAAT 011940Z AUTO 11005KT 10SM CLR 31/M01 A3008 4230 13 7000 090/05 RMK AO2 T03111006
94299KAAT AAT20160801114511008/01/16 11:45:31  5-MIN KAAT 011945Z AUTO 00000KT 10SM CLR 31/M01 A3008 4230 13 7000 000/00 RMK AO2 T03111006
94299KAAT AAT20160801115011708/01/16 11:50:31  5-MIN KAAT 011950Z AUTO VRB05KT 10SM CLR 32/M01 A3008 4230 12 7100 VRB/05 RMK AO2 SLP134 T03221006
94299KAAT AAT20160801115511608/01/16 11:55:31  5-MIN KAAT 011955Z AUTO 35006KT 10SM CLR 32/00 A3008 4230 12 7100 340/06 RMK AO2 SLP134 T03220000
94299KAAT AAT20160801120011008/01/16 12:00:31  5-MIN KAAT 012000Z AUTO 34007KT 10SM CLR 31/M01 A3008 4240 13 7000 320/07 RMK AO2 T03111006
94299KAAT AAT20160801120511008/01/16 12:05:31  5-MIN KAAT 012005Z AUTO 04005KT 10SM CLR 32/M01 A3008 4240 12 7100 020/05 RMK AO2 T03221006
94299KAAT AAT20160801121011008/01/16 12:10:31  5-MIN KAAT 012010Z AUTO VRB03KT 10SM CLR 32/M01 A3008 4240 12 7100 VRB/03 RMK AO2 T03171006
94299KAAT AAT20160801121511008/01/16 12:15:31  5-MIN KAAT 012015Z AUTO VRB05KT 10SM CLR 31/M01 A3007 4240 12 7000 VRB/05 RMK AO2 T03111011
94299KAAT AAT20160801122011008/01/16 12:20:31  5-MIN KAAT 012020Z AUTO 27005KT 10SM CLR 32/M01 A3008 4240 12 7100 260/05 RMK AO2 T03171011
94299KAAT AAT20160801122511008/01/16 12:25:31  5-MIN KAAT 012025Z AUTO VRB04KT 10SM CLR 32/M01 A3007 4240 12 7100 VRB/04 RMK AO2 T03171011
94299KAAT AAT20160801123011008/01/16 12:30:31  5-MIN KAAT 012030Z AUTO 00000KT 10SM CLR 31/M02 A3007 4240 12 7000 000/00 RMK AO2 T03111017
94299KAAT AAT20160801123511008/01/16 12:35:31  5-MIN KAAT 012035Z AUTO 00000KT 10SM CLR 32/M02 A3007 4240 11 7100 000/00 RMK AO2 T03171017
94299KAAT AAT20160801124010008/01/16 12:40:31  5-MIN KAAT 012040Z AUTO 10SM CLR 31/M02 A3007 4240 12 7000 M /M RMK AO2 T03111017
94299KAAT AAT20160801124510008/01/16 12:45:31  5-MIN KAAT 012045Z AUTO 10SM CLR 32/M03 A3007 4250 10 7200 M /M RMK AO2 T03221033
94299KAAT AAT20160801125013908/01/16 12:50:31  5-MIN KAAT 012050Z AUTO 26009KT 230V290 10SM CLR 33/M06 A3007 4250 07 7200 240/09 220V280 RMK AO2 SLP132 T03281061 58004
94299KAAT AAT20160801125513908/01/16 12:55:31  5-MIN KAAT 012055Z AUTO 27007KT 230V320 10SM CLR 33/M06 A3007 4250 07 7200 260/07 220V310 RMK AO2 SLP131 T03281061 58013
94299KAAT AAT20160801130011608/01/16 13:00:31  5-MIN KAAT 012100Z AUTO 24012G18KT 10SM CLR 33/M09 A3007 4240 06 7300 230/12G18 RMK AO2 T03331089
94299KAAT AAT20160801130511608/01/16 13:05:31  5-MIN KAAT 012105Z AUTO 25011G18KT 10SM CLR 33/M12 A3007 4240 05 7300 240/11G18 RMK AO2 T03331117
94299KAAT AAT20160801131011608/01/16 13:10:31  5-MIN KAAT 012110Z AUTO 24011G19KT 10SM CLR 33/M12 A3007 4240 05 7300 220/11G19 RMK AO2 T03331117
94299KAAT AAT20160801131511608/01/16 13:15:31  5-MIN KAAT 012115Z AUTO 23011G19KT 10SM CLR 33/M13 A3007 4240 04 7300 210/11G19 RMK AO2 T03331128
94299KAAT AAT20160801132011608/01/16 13:20:31  5-MIN KAAT 012120Z AUTO 23013G19KT 10SM CLR 33/M13 A3007 4240 04 7300 210/13G19 RMK AO2 T03331128
94299KAAT AAT20160801132511608/01/16 13:25:31  5-MIN KAAT 012125Z AUTO VRB06G19KT 10SM CLR 33/M11 A3007 4250 05 7200 VRB/06G19 RMK AO2 T03281111
94299KAAT AAT20160801133010008/01/16 13:30:31  5-MIN KAAT 012130Z AUTO 10SM CLR 34/M12 A3006 4250 05 7300 M /M RMK AO2 T03391117
94299KAAT AAT20160801133511608/01/16 13:35:31  5-MIN KAAT 012135Z AUTO 22014G20KT 10SM CLR 34/M12 A3007 4250 05 7300 210/14G20 RMK AO2 T03391117
94299KAAT AAT20160801134011608/01/16 13:40:31  5-MIN KAAT 012140Z AUTO 23013G20KT 10SM CLR 33/M11 A3006 4250 05 7300 210/13G20 RMK AO2 T03331111
94299KAAT AAT20160801134511608/01/16 13:45:31  5-MIN KAAT 012145Z AUTO 21008G18KT 10SM CLR 33/M12 A3006 4250 05 7300 200/08G18 RMK AO2 T03331117
94299KAAT AAT20160801135012308/01/16 13:50:31  5-MIN KAAT 012150Z AUTO 21013G20KT 10SM CLR 34/M13 A3006 4250 04 7300 200/13G20 RMK AO2 SLP131 T03391128
94299KAAT AAT20160801135512308/01/16 13:55:31  5-MIN KAAT 012155Z AUTO 21012G20KT 10SM CLR 33/M14 A3006 4260 04 7300 200/12G20 RMK AO2 SLP130 T03331144
94299KAAT AAT20160801140011608/01/16 14:00:31  5-MIN KAAT 012200Z AUTO 27015G19KT 10SM CLR 34/M11 A3006 4250 05 7300 250/15G19 RMK AO2 T03391106
94299KAAT AAT20160801140511608/01/16 14:05:31  5-MIN KAAT 012205Z AUTO 28010G19KT 10SM CLR 34/M09 A3006 4250 05 7300 260/10G19 RMK AO2 T03391094
94299KAAT AAT20160801141013208/01/16 14:10:31  5-MIN KAAT 012210Z AUTO 26007G18KT 230V290 10SM CLR 33/M09 A3006 4260 06 7200 250/07G18 220V280 RMK AO2 T03281089
94299KAAT AAT20160801141512608/01/16 14:15:31  5-MIN KAAT 012215Z AUTO 25008KT 210V280 10SM CLR 34/M08 A3006 4260 06 7300 240/08 200V270 RMK AO2 T03391078
94299KAAT AAT20160801142011608/01/16 14:20:31  5-MIN KAAT 012220Z AUTO 26010G17KT 10SM CLR 34/M07 A3005 4260 07 7300 250/10G17 RMK AO2 T03391067
94299KAAT AAT20160801142513208/01/16 14:25:31  5-MIN KAAT 012225Z AUTO 28012G24KT 250V320 10SM CLR 34/M06 A3005 4260 07 7400 270/12G24 240V310 RMK AO2 T03441056
94299KAAT AAT20160801143011608/01/16 14:30:31  5-MIN KAAT 012230Z AUTO 28015G24KT 10SM CLR 34/M08 A3006 4250 06 7300 270/15G24 RMK AO2 T03391078
94299KAAT AAT20160801143511608/01/16 14:35:31  5-MIN KAAT 012235Z AUTO 26018G21KT 10SM CLR 34/M09 A3006 4250 06 7300 250/18G21 RMK AO2 T03391089
94299KAAT AAT20160801144011608/01/16 14:40:31  5-MIN KAAT 012240Z AUTO 26015G21KT 10SM CLR 34/M10 A3005 4260 05 7300 240/15G21 RMK AO2 T03391100
94299KAAT AAT20160801144511608/01/16 14:45:31  5-MIN KAAT 012245Z AUTO 25015G23KT 10SM CLR 34/M11 A3005 4260 05 7300 240/15G23 RMK AO2 T03391106
94299KAAT AAT20160801145012308/01/16 14:50:31  5-MIN KAAT 012250Z AUTO 26013G23KT 10SM CLR 33/M11 A3005 4260 05 7300 250/13G23 RMK AO2 SLP130 T03331106
94299KAAT AAT20160801145512308/01/16 14:55:31  5-MIN KAAT 012255Z AUTO 28013G21KT 10SM CLR 33/M11 A3005 4260 05 7300 270/13G21 RMK AO2 SLP131 T03331111
94299KAAT AAT20160801150011608/01/16 15:00:31  5-MIN KAAT 012300Z AUTO 27011G19KT 10SM CLR 34/M11 A3005 4260 05 7400 260/11G19 RMK AO2 T03391106
94299KAAT AAT20160801150511608/01/16 15:05:31  5-MIN KAAT 012305Z AUTO 28018G24KT 10SM CLR 33/M11 A3005 4260 05 7300 260/18G24 RMK AO2 T03331106
94299KAAT AAT20160801151011608/01/16 15:10:31  5-MIN KAAT 012310Z AUTO 28014G24KT 10SM CLR 33/M10 A3005 4260 05 7300 270/14G24 RMK AO2 T03331100
94299KAAT AAT20160801151511608/01/16 15:15:31  5-MIN KAAT 012315Z AUTO 27015G24KT 10SM CLR 34/M09 A3005 4260 05 7400 250/15G24 RMK AO2 T03391094
94299KAAT AAT20160801152011608/01/16 15:20:31  5-MIN KAAT 012320Z AUTO 28013G24KT 10SM CLR 33/M09 A3005 4260 06 7300 260/13G24 RMK AO2 T03331089
94299KAAT AAT20160801152511608/01/16 15:25:31  5-MIN KAAT 012325Z AUTO 26015G23KT 10SM CLR 34/M09 A3005 4260 06 7400 250/15G23 RMK AO2 T03391089
94299KAAT AAT20160801153011608/01/16 15:30:31  5-MIN KAAT 012330Z AUTO 26012G23KT 10SM CLR 34/M09 A3005 4260 06 7400 240/12G23 RMK AO2 T03391089
94299KAAT AAT20160801153511608/01/16 15:35:31  5-MIN KAAT 012335Z AUTO 28014G18KT 10SM CLR 33/M08 A3005 4260 06 7300 270/14G18 RMK AO2 T03331083
94299KAAT AAT20160801154011608/01/16 15:40:31  5-MIN KAAT 012340Z AUTO 25014G20KT 10SM CLR 33/M09 A3005 4270 06 7300 240/14G20 RMK AO2 T03331094
94299KAAT AAT20160801154511608/01/16 15:45:31  5-MIN KAAT 012345Z AUTO 25016G20KT 10SM CLR 33/M11 A3005 4260 05 7300 240/16G20 RMK AO2 T03331106
94299KAAT AAT20160801155014108/01/16 15:50:31  5-MIN KAAT 012350Z AUTO 26013G22KT 10SM CLR 33/M10 A3004 4270 05 7300 240/13G22 RMK AO2 SLP129 T03331100 10344 20272 58013
94299KAAT AAT20160801155514108/01/16 15:55:31  5-MIN KAAT 012355Z AUTO 27014G22KT 10SM CLR 33/M09 A3005 4260 06 7300 260/14G22 RMK AO2 SLP130 T03331094 10344 20272 56005
94299KAAT AAT20160801160011608/01/16 16:00:31  5-MIN KAAT 020000Z AUTO 27016G21KT 10SM CLR 33/M10 A3005 4260 06 7200 250/16G21 RMK AO2 T03281100
94299KAAT AAT20160801160511008/01/16 16:05:31  5-MIN KAAT 020005Z AUTO 27018KT 10SM CLR 33/M09 A3005 4260 06 7200 260/18 RMK AO2 T03281094
94299KAAT AAT20160801161011008/01/16 16:10:31  5-MIN KAAT 020010Z AUTO 25015KT 10SM CLR 33/M09 A3005 4260 06 7200 240/15 RMK AO2 T03281094
94299KAAT AAT20160801161511608/01/16 16:15:31  5-MIN KAAT 020015Z AUTO 28014G23KT 10SM CLR 33/M09 A3005 4260 06 7200 270/14G23 RMK AO2 T03281089
94299KAAT AAT20160801162011608/01/16 16:20:31  5-MIN KAAT 020020Z AUTO 28015G23KT 10SM CLR 33/M09 A3005 4270 06 7200 270/15G23 RMK AO2 T03281089
94299KAAT AAT20160801162511608/01/16 16:25:31  5-MIN KAAT 020025Z AUTO 26014G21KT 10SM CLR 33/M09 A3005 4260 06 7200 250/14G21 RMK AO2 T03281094
94299KAAT AAT20160801163011608/01/16 16:30:31  5-MIN KAAT 020030Z AUTO 27014G24KT 10SM CLR 32/M11 A3005 4260 05 7200 250/14G24 RMK AO2 T03221106
94299KAAT AAT20160801163511608/01/16 16:35:31  5-MIN KAAT 020035Z AUTO 28016G24KT 10SM CLR 32/M11 A3005 4260 05 7200 260/16G24 RMK AO2 T03221111
94299KAAT AAT20160801164011608/01/16 16:40:31  5-MIN KAAT 020040Z AUTO 28017G22KT 10SM CLR 32/M10 A3005 4260 06 7200 260/17G22 RMK AO2 T03221100
94299KAAT AAT20160801164511608/01/16 16:45:31  5-MIN KAAT 020045Z AUTO 28015G22KT 10SM CLR 32/M09 A3005 4260 06 7200 260/15G22 RMK AO2 T03221089
94299KAAT AAT20160801165011708/01/16 16:50:31  5-MIN KAAT 020050Z AUTO 28018KT 10SM CLR 32/M09 A3005 4260 06 7200 270/18 RMK AO2 SLP135 T03221094
94299KAAT AAT20160801165511708/01/16 16:55:31  5-MIN KAAT 020055Z AUTO 28017KT 10SM CLR 32/M10 A3005 4260 06 7200 270/17 RMK AO2 SLP134 T03221100
94299KAAT AAT20160801170011608/01/16 17:00:31  5-MIN KAAT 020100Z AUTO 27014G20KT 10SM CLR 32/M09 A3005 4260 06 7200 260/14G20 RMK AO2 T03221089
94299KAAT AAT20160801170511608/01/16 17:05:31  5-MIN KAAT 020105Z AUTO 27017G24KT 10SM CLR 32/M09 A3005 4260 06 7200 260/17G24 RMK AO2 T03221094
94299KAAT AAT20160801171011608/01/16 17:10:31  5-MIN KAAT 020110Z AUTO 26015G24KT 10SM CLR 32/M09 A3005 4260 06 7200 250/15G24 RMK AO2 T03221094
94299KAAT AAT20160801171511008/01/16 17:15:31  5-MIN KAAT 020115Z AUTO 27014KT 10SM CLR 32/M09 A3005 4260 06 7200 250/14 RMK AO2 T03221089
94299KAAT AAT20160801172011608/01/16 17:20:31  5-MIN KAAT 020120Z AUTO 28013G19KT 10SM CLR 32/M08 A3005 4260 07 7100 260/13G19 RMK AO2 T03171083
94299KAAT AAT20160801172511608/01/16 17:25:31  5-MIN KAAT 020125Z AUTO 27010G19KT 10SM CLR 32/M07 A3005 4260 08 7100 260/10G19 RMK AO2 T03171067
94299KAAT AAT20160801173011608/01/16 17:30:31  5-MIN KAAT 020130Z AUTO 27013G18KT 10SM CLR 32/M07 A3005 4260 07 7100 250/13G18 RMK AO2 T03171072
94299KAAT AAT20160801173511008/01/16 17:35:31  5-MIN KAAT 020135Z AUTO 27013KT 10SM CLR 31/M07 A3005 4260 08 7100 260/13 RMK AO2 T03111072
94299KAAT AAT20160801174011008/01/16 17:40:31  5-MIN KAAT 020140Z AUTO 27012KT 10SM CLR 31/M08 A3005 4260 07 7100 260/12 RMK AO2 T03111078
94299KAAT AAT20160801174511008/01/16 17:45:31  5-MIN KAAT 020145Z AUTO 27016KT 10SM CLR 31/M08 A3005 4260 07 7100 260/16 RMK AO2 T03111078
94299KAAT AAT20160801175011708/01/16 17:50:31  5-MIN KAAT 020150Z AUTO 27012KT 10SM CLR 31/M07 A3005 4260 08 7100 260/12 RMK AO2 SLP131 T03111072
94299KAAT AAT20160801175511708/01/16 17:55:31  5-MIN KAAT 020155Z AUTO 27013KT 10SM CLR 31/M07 A3005 4260 08 7000 260/13 RMK AO2 SLP131 T03061072
94299KAAT AAT20160801180011008/01/16 18:00:31  5-MIN KAAT 020200Z AUTO 27012KT 10SM CLR 31/M07 A3005 4260 08 7000 260/12 RMK AO2 T03061072
94299KAAT AAT20160801180511008/01/16 18:05:31  5-MIN KAAT 020205Z AUTO 28013KT 10SM CLR 31/M07 A3005 4260 08 7000 260/13 RMK AO2 T03061072
94299KAAT AAT20160801181011008/01/16 18:10:31  5-MIN KAAT 020210Z AUTO 27012KT 10SM CLR 30/M08 A3005 4260 08 6900 260/12 RMK AO2 T03001078
94299KAAT AAT20160801181511008/01/16 18:15:31  5-MIN KAAT 020215Z AUTO 28012KT 10SM CLR 30/M08 A3005 4260 07 6900 260/12 RMK AO2 T03001083
94299KAAT AAT20160801182011608/01/16 18:20:31  5-MIN KAAT 020220Z AUTO 26014G19KT 10SM CLR 30/M08 A3005 4260 07 6900 250/14G19 RMK AO2 T03001083
94299KAAT AAT20160801182511608/01/16 18:25:31  5-MIN KAAT 020225Z AUTO 26013G19KT 10SM CLR 29/M09 A3005 4260 07 6900 240/13G19 RMK AO2 T02941089
94299KAAT AAT20160801183011008/01/16 18:30:31  5-MIN KAAT 020230Z AUTO 26010KT 10SM CLR 29/M09 A3005 4260 07 6900 250/10 RMK AO2 T02941089
94299KAAT AAT20160801183511008/01/16 18:35:31  5-MIN KAAT 020235Z AUTO 26009KT 10SM CLR 29/M08 A3005 4260 08 6800 240/09 RMK AO2 T02891078
94299KAAT AAT20160801184011008/01/16 18:40:31  5-MIN KAAT 020240Z AUTO 25008KT 10SM CLR 29/M08 A3006 4260 08 6800 230/08 RMK AO2 T02891078
94299KAAT AAT20160801184511008/01/16 18:45:31  5-MIN KAAT 020245Z AUTO 25009KT 10SM CLR 28/M08 A3006 4250 09 6800 240/09 RMK AO2 T02831078
94299KAAT AAT20160801185012308/01/16 18:50:31  5-MIN KAAT 020250Z AUTO 26009KT 10SM CLR 28/M08 A3006 4250 09 6700 250/09 RMK AO2 SLP132 T02781078 56005
94299KAAT AAT20160801185512308/01/16 18:55:31  5-MIN KAAT 020255Z AUTO 27008KT 10SM CLR 28/M08 A3006 4250 09 6700 260/08 RMK AO2 SLP132 T02781078 53004
94299KAAT AAT20160801190011008/01/16 19:00:31  5-MIN KAAT 020300Z AUTO 26007KT 10SM CLR 27/M07 A3006 4250 10 6600 240/07 RMK AO2 T02721067
94299KAAT AAT20160801190511008/01/16 19:05:31  5-MIN KAAT 020305Z AUTO 26007KT 10SM CLR 26/M07 A3006 4250 10 6500 240/07 RMK AO2 T02611072
94299KAAT AAT20160801191011008/01/16 19:10:31  5-MIN KAAT 020310Z AUTO 27006KT 10SM CLR 26/M08 A3006 4250 10 6400 260/06 RMK AO2 T02561083
94299KAAT AAT20160801191511008/01/16 19:15:31  5-MIN KAAT 020315Z AUTO 27006KT 10SM CLR 25/M07 A3006 4250 11 6400 260/06 RMK AO2 T02501072
94299KAAT AAT20160801192011008/01/16 19:20:31  5-MIN KAAT 020320Z AUTO 26007KT 10SM CLR 24/M07 A3006 4250 12 6300 240/07 RMK AO2 T02441067
94299KAAT AAT20160801192511008/01/16 19:25:31  5-MIN KAAT 020325Z AUTO 25008KT 10SM CLR 24/M08 A3006 4250 11 6300 240/08 RMK AO2 T02391078
94299KAAT AAT20160801193011008/01/16 19:30:31  5-MIN KAAT 020330Z AUTO 25007KT 10SM CLR 23/M09 A3006 4250 11 6200 230/07 RMK AO2 T02331089
94299KAAT AAT20160801193511008/01/16 19:35:31  5-MIN KAAT 020335Z AUTO 25007KT 10SM CLR 23/M09 A3006 4250 10 6200 230/07 RMK AO2 T02331094
94299KAAT AAT20160801194011008/01/16 19:40:31  5-MIN KAAT 020340Z AUTO 26006KT 10SM CLR 23/M09 A3006 4250 11 6100 250/06 RMK AO2 T02281089
94299KAAT AAT20160801194511008/01/16 19:45:31  5-MIN KAAT 020345Z AUTO 26005KT 10SM CLR 22/M09 A3007 4250 11 6100 240/05 RMK AO2 T02221089
94299KAAT AAT20160801195011708/01/16 19:50:31  5-MIN KAAT 020350Z AUTO 27005KT 10SM CLR 22/M09 A3007 4240 12 6000 250/05 RMK AO2 SLP137 T02171089
94299KAAT AAT20160801195511708/01/16 19:55:31  5-MIN KAAT 020355Z AUTO 27004KT 10SM CLR 21/M08 A3007 4240 13 5900 260/04 RMK AO2 SLP138 T02111083
94299KAAT AAT20160801200011008/01/16 20:00:31  5-MIN KAAT 020400Z AUTO 00000KT 10SM CLR 22/M08 A3007 4240 12 6000 000/00 RMK AO2 T02171083
94299KAAT AAT20160801200511008/01/16 20:05:31  5-MIN KAAT 020405Z AUTO 12007KT 10SM CLR 21/M08 A3008 4240 13 5900 100/07 RMK AO2 T02111083
94299KAAT AAT20160801201011008/01/16 20:10:31  5-MIN KAAT 020410Z AUTO 12006KT 10SM CLR 21/M07 A3008 4230 15 5900 100/06 RMK AO2 T02061067
94299KAAT AAT20160801201511008/01/16 20:15:31  5-MIN KAAT 020415Z AUTO 12005KT 10SM CLR 21/M05 A3008 4230 17 5900 110/05 RMK AO2 T02111050
94299KAAT AAT20160801202011008/01/16 20:20:31  5-MIN KAAT 020420Z AUTO 11006KT 10SM CLR 21/M05 A3009 4230 17 5900 100/06 RMK AO2 T02111050
94299KAAT AAT20160801202511008/01/16 20:25:31  5-MIN KAAT 020425Z AUTO 13005KT 10SM CLR 22/M05 A3009 4230 16 6000 110/05 RMK AO2 T02171050
94299KAAT AAT20160801203011008/01/16 20:30:31  5-MIN KAAT 020430Z AUTO 11006KT 10SM CLR 22/M06 A3009 4220 15 6000 100/06 RMK AO2 T02171056
94299KAAT AAT20160801203511008/01/16 20:35:31  5-MIN KAAT 020435Z AUTO 13007KT 10SM CLR 21/M05 A3010 4220 17 5900 120/07 RMK AO2 T02111050
94299KAAT AAT20160801204011008/01/16 20:40:31  5-MIN KAAT 020440Z AUTO 14005KT 10SM CLR 22/M04 A3010 4220 17 6000 120/05 RMK AO2 T02171044
94299KAAT AAT20160801204511008/01/16 20:45:31  5-MIN KAAT 020445Z AUTO 17005KT 10SM CLR 22/M04 A3010 4210 16 6000 150/05 RMK AO2 T02221044
94299KAAT AAT20160801205011708/01/16 20:50:31  5-MIN KAAT 020450Z AUTO 19005KT 10SM CLR 23/M04 A3011 4210 15 6200 180/05 RMK AO2 SLP144 T02331044
94299KAAT AAT20160801205511708/01/16 20:55:31  5-MIN KAAT 020455Z AUTO VRB05KT 10SM CLR 24/M04 A3011 4210 14 6200 VRB/05 RMK AO2 SLP144 T02391044
94299KAAT AAT20160801210011008/01/16 21:00:31  5-MIN KAAT 020500Z AUTO 21005KT 10SM CLR 23/M04 A3011 4210 16 6100 190/05 RMK AO2 T02281044
94299KAAT AAT20160801210511008/01/16 21:05:31  5-MIN KAAT 020505Z AUTO VRB05KT 10SM CLR 21/M04 A3011 4210 17 5900 VRB/05 RMK AO2 T02111044
94299KAAT AAT20160801211011008/01/16 21:10:31  5-MIN KAAT 020510Z AUTO 21006KT 10SM CLR 22/M04 A3011 4200 17 6000 190/06 RMK AO2 T02171039
94299KAAT AAT20160801211511008/01/16 21:15:31  5-MIN KAAT 020515Z AUTO 21005KT 10SM CLR 22/M04 A3011 4200 17 6000 190/05 RMK AO2 T02171039
94299KAAT AAT20160801212011008/01/16 21:20:31  5-MIN KAAT 020520Z AUTO 19004KT 10SM CLR 22/M04 A3012 4200 17 6000 180/04 RMK AO2 T02171039
94299KAAT AAT20160801212511008/01/16 21:25:31  5-MIN KAAT 020525Z AUTO 19004KT 10SM CLR 21/M03 A3012 4200 19 5900 170/04 RMK AO2 T02111033
94299KAAT AAT20160801213011008/01/16 21:30:31  5-MIN KAAT 020530Z AUTO 17004KT 10SM CLR 21/M03 A3012 4200 20 5900 150/04 RMK AO2 T02111028
94299KAAT AAT20160801213511008/01/16 21:35:31  5-MIN KAAT 020535Z AUTO 13005KT 10SM CLR 21/M03 A3013 4190 20 5800 110/05 RMK AO2 T02061028
94299KAAT AAT20160801214011008/01/16 21:40:31  5-MIN KAAT 020540Z AUTO 13005KT 10SM CLR 21/M02 A3013 4190 21 5800 120/05 RMK AO2 T02061022
94299KAAT AAT20160801214511008/01/16 21:45:31  5-MIN KAAT 020545Z AUTO 15003KT 10SM CLR 21/M02 A3013 4190 20 5900 130/03 RMK AO2 T02111022
94299KAAT AAT20160801215013508/01/16 21:50:31  5-MIN KAAT 020550Z AUTO 19003KT 10SM CLR 22/M02 A3013 4190 20 5900 170/03 RMK AO2 SLP151 T02171017 10333 20200 53004
94299KAAT AAT20160801215513508/01/16 21:55:31  5-MIN KAAT 020555Z AUTO 20006KT 10SM CLR 22/M02 A3013 4190 20 5900 190/06 RMK AO2 SLP151 T02171017 10333 20200 53021
94299KAAT AAT20160801220011008/01/16 22:00:31  5-MIN KAAT 020600Z AUTO 22005KT 10SM CLR 22/M02 A3013 4190 20 5900 210/05 RMK AO2 T02171017
94299KAAT AAT20160801220511008/01/16 22:05:31  5-MIN KAAT 020605Z AUTO 23005KT 10SM CLR 21/M01 A3013 4190 23 5800 210/05 RMK AO2 T02061011
94299KAAT AAT20160801221011008/01/16 22:10:31  5-MIN KAAT 020610Z AUTO 24003KT 10SM CLR 19/M01 A3013 4190 25 5600 230/03 RMK AO2 T01891011
94299KAAT AAT20160801221511008/01/16 22:15:31  5-MIN KAAT 020615Z AUTO 22003KT 10SM CLR 19/M01 A3013 4190 25 5700 210/03 RMK AO2 T01941011
94299KAAT AAT20160801222011008/01/16 22:20:31  5-MIN KAAT 020620Z AUTO 00000KT 10SM CLR 18/M01 A3013 4190 26 5600 000/00 RMK AO2 T01831011
94299KAAT AAT20160801222511008/01/16 22:25:31  5-MIN KAAT 020625Z AUTO 00000KT 10SM CLR 19/M01 A3013 4180 25 5600 000/00 RMK AO2 T01891011
94299KAAT AAT20160801223011008/01/16 22:30:31  5-MIN KAAT 020630Z AUTO 00000KT 10SM CLR 19/M01 A3013 4180 25 5600 000/00 RMK AO2 T01891011
94299KAAT AAT20160801223511008/01/16 22:35:31  5-MIN KAAT 020635Z AUTO 21005KT 10SM CLR 19/M01 A3013 4190 25 5700 190/05 RMK AO2 T01941011
94299KAAT AAT20160801224011008/01/16 22:40:31  5-MIN KAAT 020640Z AUTO 19005KT 10SM CLR 20/M01 A3013 4190 25 5800 180/05 RMK AO2 T02001006
94299KAAT AAT20160801224511008/01/16 22:45:31  5-MIN KAAT 020645Z AUTO 17005KT 10SM CLR 20/M01 A3013 4190 25 5800 160/05 RMK AO2 T02001006
94299KAAT AAT20160801225011708/01/16 22:50:31  5-MIN KAAT 020650Z AUTO 17005KT 10SM CLR 20/M01 A3013 4190 25 5800 160/05 RMK AO2 SLP152 T02001006
94299KAAT AAT20160801225511608/01/16 22:55:31  5-MIN KAAT 020655Z AUTO 17006KT 10SM CLR 19/00 A3013 4180 27 5700 150/06 RMK AO2 SLP152 T01940000
94299KAAT AAT20160801230010908/01/16 23:00:31  5-MIN KAAT 020700Z AUTO 17006KT 10SM CLR 19/01 A3014 4180 30 5600 160/06 RMK AO2 T01890011
94299KAAT AAT20160801230510908/01/16 23:05:31  5-MIN KAAT 020705Z AUTO 17005KT 10SM CLR 18/01 A3014 4180 31 5600 160/05 RMK AO2 T01830011
94299KAAT AAT20160801231010908/01/16 23:10:31  5-MIN KAAT 020710Z AUTO 17005KT 10SM CLR 18/02 A3014 4180 33 5500 150/05 RMK AO2 T01780017
94299KAAT AAT20160801231510908/01/16 23:15:31  5-MIN KAAT 020715Z AUTO 00000KT 10SM CLR 17/02 A3014 4180 36 5400 000/00 RMK AO2 T01720022
94299KAAT AAT20160801232010908/01/16 23:20:31  5-MIN KAAT 020720Z AUTO 00000KT 10SM CLR 16/02 A3014 4180 37 5300 000/00 RMK AO2 T01610017
94299KAAT AAT20160801232510908/01/16 23:25:31  5-MIN KAAT 020725Z AUTO 05003KT 10SM CLR 17/02 A3014 4180 36 5400 030/03 RMK AO2 T01670017
94299KAAT AAT20160801233010908/01/16 23:30:31  5-MIN KAAT 020730Z AUTO 10004KT 10SM CLR 16/02 A3014 4180 37 5300 090/04 RMK AO2 T01610017
94299KAAT AAT20160801233510908/01/16 23:35:31  5-MIN KAAT 020735Z AUTO 07005KT 10SM CLR 17/02 A3014 4180 36 5400 060/05 RMK AO2 T01670017
94299KAAT AAT20160801234010908/01/16 23:40:31  5-MIN KAAT 020740Z AUTO 09003KT 10SM CLR 17/02 A3014 4180 36 5400 070/03 RMK AO2 T01670017
94299KAAT AAT20160801234510908/01/16 23:45:31  5-MIN KAAT 020745Z AUTO 12003KT 10SM CLR 17/02 A3014 4180 36 5400 100/03 RMK AO2 T01670017
94299KAAT AAT20160801235012608/01/16 23:50:31  5-MIN KAAT 020750Z AUTO 00000KT 10SM CLR 17/02 A3014 4180 36 5400 000/00 RMK AO2 SLP155 T01670017 403440067
94299KAAT AAT20160801235512608/01/16 23:55:31  5-MIN KAAT 020755Z AUTO 00000KT 10SM CLR 17/01 A3014 4180 33 5400 000/00 RMK AO2 SLP155 T01720011 403440067
94299KAAT AAT20160802000010908/02/16 00:00:31  5-MIN KAAT 020800Z AUTO 15003KT 10SM CLR 17/01 A3014 4180 33 5400 130/03 RMK AO2 T01720011
94299KAAT AAT20160802000510908/02/16 00:05:31  5-MIN KAAT 020805Z AUTO 17003KT 10SM CLR 16/01 A3014 4180 36 5300 160/03 RMK AO2 T01610011
94299KAAT AAT20160802001010908/02/16 00:10:31  5-MIN KAAT 020810Z AUTO 00000KT 10SM CLR 16/01 A3014 4180 36 5200 000/00 RMK AO2 T01560006
94299KAAT AAT20160802001510908/02/16 00:15:31  5-MIN KAAT 020815Z AUTO VRB04KT 10SM CLR 14/01 A3014 4180 38 5100 VRB/04 RMK AO2 T01440006
94299KAAT AAT20160802002010908/02/16 00:20:31  5-MIN KAAT 020820Z AUTO 07005KT 10SM CLR 15/01 A3014 4180 38 5200 060/05 RMK AO2 T01500011
94299KAAT AAT20160802002510908/02/16 00:25:31  5-MIN KAAT 020825Z AUTO 09004KT 10SM CLR 16/01 A3014 4180 36 5300 080/04 RMK AO2 T01610011
94299KAAT AAT20160802003010908/02/16 00:30:31  5-MIN KAAT 020830Z AUTO VRB03KT 10SM CLR 16/01 A3014 4180 36 5300 VRB/03 RMK AO2 T01610011
94299KAAT AAT20160802003510908/02/16 00:35:31  5-MIN KAAT 020835Z AUTO 00000KT 10SM CLR 16/01 A3014 4180 37 5200 000/00 RMK AO2 T01560011
94299KAAT AAT20160802004010908/02/16 00:40:31  5-MIN KAAT 020840Z AUTO 00000KT 10SM CLR 14/01 A3014 4180 40 5100 000/00 RMK AO2 T01440011
94299KAAT AAT20160802004510908/02/16 00:45:31  5-MIN KAAT 020845Z AUTO 00000KT 10SM CLR 14/01 A3014 4180 38 5100 000/00 RMK AO2 T01440006
94299KAAT AAT20160802005012208/02/16 00:50:31  5-MIN KAAT 020850Z AUTO 00000KT 10SM CLR 14/01 A3014 4180 40 5100 000/00 RMK AO2 SLP157 T01390006 53021
94299KAAT AAT20160802005512208/02/16 00:55:31  5-MIN KAAT 020855Z AUTO 00000KT 10SM CLR 15/00 A3014 4180 35 5200 000/00 RMK AO2 SLP156 T01500000 50003
94299KAAT AAT20160802010010908/02/16 01:00:31  5-MIN KAAT 020900Z AUTO 00000KT 10SM CLR 14/00 A3014 4180 37 5100 000/00 RMK AO2 T01440000
94299KAAT AAT20160802010510908/02/16 01:05:31  5-MIN KAAT 020905Z AUTO 08003KT 10SM CLR 13/01 A3014 4180 43 4900 070/03 RMK AO2 T01280006
94299KAAT AAT20160802011010908/02/16 01:10:31  5-MIN KAAT 020910Z AUTO 09003KT 10SM CLR 12/01 A3014 4180 46 4900 070/03 RMK AO2 T01220011
94299KAAT AAT20160802011510908/02/16 01:15:31  5-MIN KAAT 020915Z AUTO 00000KT 10SM CLR 13/01 A3014 4180 43 4900 000/00 RMK AO2 T01280006
94299KAAT AAT20160802012010908/02/16 01:20:31  5-MIN KAAT 020920Z AUTO 00000KT 10SM CLR 11/02 A3014 4180 52 4700 000/00 RMK AO2 T01110017
94299KAAT AAT20160802012510908/02/16 01:25:31  5-MIN KAAT 020925Z AUTO 00000KT 10SM CLR 11/02 A3014 4180 56 4700 000/00 RMK AO2 T01060022
94299KAAT AAT20160802013010908/02/16 01:30:31  5-MIN KAAT 020930Z AUTO 10003KT 10SM CLR 11/02 A3014 4180 52 4700 090/03 RMK AO2 T01110017
94299KAAT AAT20160802013510908/02/16 01:35:31  5-MIN KAAT 020935Z AUTO 00000KT 10SM CLR 12/02 A3014 4180 50 4800 000/00 RMK AO2 T01170017
94299KAAT AAT20160802014010908/02/16 01:40:31  5-MIN KAAT 020940Z AUTO 00000KT 10SM CLR 12/02 A3014 4180 48 4900 000/00 RMK AO2 T01220017
94299KAAT AAT20160802014510908/02/16 01:45:31  5-MIN KAAT 020945Z AUTO 09003KT 10SM CLR 13/02 A3014 4180 46 4900 070/03 RMK AO2 T01280017
94299KAAT AAT20160802015011608/02/16 01:50:31  5-MIN KAAT 020950Z AUTO 08003KT 10SM CLR 12/01 A3014 4180 46 4900 060/03 RMK AO2 SLP157 T01220011
94299KAAT AAT20160802015511608/02/16 01:55:31  5-MIN KAAT 020955Z AUTO 07003KT 10SM CLR 12/01 A3014 4180 48 4800 060/03 RMK AO2 SLP159 T01170011
94299KAAT AAT20160802020010908/02/16 02:00:31  5-MIN KAAT 021000Z AUTO 07004KT 10SM CLR 12/01 A3014 4180 44 4900 060/04 RMK AO2 T01220006
94299KAAT AAT20160802020510908/02/16 02:05:31  5-MIN KAAT 021005Z AUTO 08003KT 10SM CLR 13/01 A3014 4180 41 5000 060/03 RMK AO2 T01330006
94299KAAT AAT20160802021010908/02/16 02:10:31  5-MIN KAAT 021010Z AUTO 00000KT 10SM CLR 11/00 A3014 4180 46 4700 000/00 RMK AO2 T01110000
94299KAAT AAT20160802021510908/02/16 02:15:31  5-MIN KAAT 021015Z AUTO 00000KT 10SM CLR 11/01 A3014 4180 50 4700 000/00 RMK AO2 T01060006
94299KAAT AAT20160802022010908/02/16 02:20:31  5-MIN KAAT 021020Z AUTO 00000KT 10SM CLR 10/01 A3014 4180 52 4600 000/00 RMK AO2 T01000006
94299KAAT AAT20160802022510908/02/16 02:25:31  5-MIN KAAT 021025Z AUTO 00000KT 10SM CLR 10/01 A3014 4180 54 4600 000/00 RMK AO2 T01000011
94299KAAT AAT20160802023010908/02/16 02:30:31  5-MIN KAAT 021030Z AUTO 00000KT 10SM CLR 11/01 A3014 4180 50 4700 000/00 RMK AO2 T01110011
94299KAAT AAT20160802023510908/02/16 02:35:31  5-MIN KAAT 021035Z AUTO 00000KT 10SM CLR 10/01 A3014 4170 52 4600 000/00 RMK AO2 T01000006
94299KAAT AAT20160802024010908/02/16 02:40:31  5-MIN KAAT 021040Z AUTO 00000KT 10SM CLR 09/01 A3015 4170 56 4500 000/00 RMK AO2 T00940011
94299KAAT AAT20160802024510908/02/16 02:45:31  5-MIN KAAT 021045Z AUTO 00000KT 10SM CLR 09/01 A3015 4170 56 4500 000/00 RMK AO2 T00940011
94299KAAT AAT20160802025011608/02/16 02:50:31  5-MIN KAAT 021050Z AUTO 00000KT 10SM CLR 09/00 A3015 4170 53 4500 000/00 RMK AO2 SLP165 T00890000
94299KAAT AAT20160802025511608/02/16 02:55:31  5-MIN KAAT 021055Z AUTO 00000KT 10SM CLR 09/01 A3015 4170 56 4500 000/00 RMK AO2 SLP165 T00890006
94299KAAT AAT20160802030010908/02/16 03:00:31  5-MIN KAAT 021100Z AUTO 00000KT 10SM CLR 10/01 A3015 4170 54 4600 000/00 RMK AO2 T01000011
94299KAAT AAT20160802030510908/02/16 03:05:31  5-MIN KAAT 021105Z AUTO 00000KT 10SM CLR 10/01 A3015 4170 54 4600 000/00 RMK AO2 T01000011
94299KAAT AAT20160802031010908/02/16 03:10:31  5-MIN KAAT 021110Z AUTO 00000KT 10SM CLR 10/01 A3015 4170 54 4600 000/00 RMK AO2 T01000011
94299KAAT AAT20160802031510908/02/16 03:15:31  5-MIN KAAT 021115Z AUTO 00000KT 10SM CLR 11/01 A3015 4170 52 4700 000/00 RMK AO2 T01060011
94299KAAT AAT20160802032010908/02/16 03:20:31  5-MIN KAAT 021120Z AUTO 00000KT 10SM CLR 10/01 A3015 4170 52 4600 000/00 RMK AO2 T01000006
94299KAAT AAT20160802032510908/02/16 03:25:31  5-MIN KAAT 021125Z AUTO 00000KT 10SM CLR 09/00 A3015 4170 51 4500 000/00 RMK AO2 T00940000
94299KAAT AAT20160802033010908/02/16 03:30:31  5-MIN KAAT 021130Z AUTO 00000KT 10SM CLR 09/00 A3015 4170 53 4500 000/00 RMK AO2 T00890000
94299KAAT AAT20160802033510908/02/16 03:35:31  5-MIN KAAT 021135Z AUTO 00000KT 10SM CLR 08/00 A3015 4170 55 4400 000/00 RMK AO2 T00830000
94299KAAT AAT20160802034011008/02/16 03:40:31  5-MIN KAAT 021140Z AUTO 00000KT 10SM CLR 08/M01 A3015 4170 55 4300 000/00 RMK AO2 T00781006
94299KAAT AAT20160802034510908/02/16 03:45:31  5-MIN KAAT 021145Z AUTO 00000KT 10SM CLR 08/00 A3015 4170 58 4300 000/00 RMK AO2 T00780000
94299KAAT AAT20160802035013408/02/16 03:50:31  5-MIN KAAT 021150Z AUTO 01003KT 10SM CLR 09/01 A3015 4170 53 4500 360/03 RMK AO2 SLP165 T00940006 10217 20078 50003
94299KAAT AAT20160802035513408/02/16 03:55:31  5-MIN KAAT 021155Z AUTO 02003KT 10SM CLR 09/01 A3015 4170 56 4500 010/03 RMK AO2 SLP165 T00940011 10217 20078 53003
94299KAAT AAT20160802040010908/02/16 04:00:31  5-MIN KAAT 021200Z AUTO 02003KT 10SM CLR 09/01 A3015 4170 58 4500 010/03 RMK AO2 T00890011
94299KAAT AAT20160802040510908/02/16 04:05:31  5-MIN KAAT 021205Z AUTO 00000KT 10SM CLR 09/01 A3015 4170 58 4500 000/00 RMK AO2 T00890011
94299KAAT AAT20160802041010908/02/16 04:10:31  5-MIN KAAT 021210Z AUTO 00000KT 10SM CLR 08/01 A3015 4170 58 4400 000/00 RMK AO2 T00830006
94299KAAT AAT20160802041511008/02/16 04:15:31  5-MIN KAAT 021215Z AUTO 00000KT 10SM CLR 08/M01 A3015 4170 55 4300 000/00 RMK AO2 T00781006
94299KAAT AAT20160802042011008/02/16 04:20:31  5-MIN KAAT 021220Z AUTO 00000KT 10SM CLR 08/M01 A3015 4170 55 4300 000/00 RMK AO2 T00781006
94299KAAT AAT20160802042510908/02/16 04:25:31  5-MIN KAAT 021225Z AUTO 00000KT 10SM CLR 08/00 A3015 4170 55 4400 000/00 RMK AO2 T00830000
94299KAAT AAT20160802043010908/02/16 04:30:31  5-MIN KAAT 021230Z AUTO 00000KT 10SM CLR 08/00 A3015 4170 55 4400 000/00 RMK AO2 T00830000
94299KAAT AAT20160802043510908/02/16 04:35:31  5-MIN KAAT 021235Z AUTO 00000KT 10SM CLR 08/01 A3015 4170 60 4300 000/00 RMK AO2 T00780006
94299KAAT AAT20160802044010908/02/16 04:40:31  5-MIN KAAT 021240Z AUTO 00000KT 10SM CLR 08/01 A3015 4170 60 4400 000/00 RMK AO2 T00830011
94299KAAT AAT20160802044510908/02/16 04:45:31  5-MIN KAAT 021245Z AUTO 00000KT 10SM CLR 08/01 A3015 4170 60 4400 000/00 RMK AO2 T00830011
94299KAAT AAT20160802045011608/02/16 04:50:31  5-MIN KAAT 021250Z AUTO 00000KT 10SM CLR 09/01 A3015 4170 58 4500 000/00 RMK AO2 SLP168 T00890011
94299KAAT AAT20160802045511608/02/16 04:55:31  5-MIN KAAT 021255Z AUTO 00000KT 10SM CLR 08/01 A3015 4170 60 4400 000/00 RMK AO2 SLP168 T00830011
94299KAAT AAT20160802050010908/02/16 05:00:31  5-MIN KAAT 021300Z AUTO 00000KT 10SM CLR 09/01 A3015 4170 58 4500 000/00 RMK AO2 T00890011
94299KAAT AAT20160802050510908/02/16 05:05:31  5-MIN KAAT 021305Z AUTO 00000KT 10SM CLR 08/01 A3015 4170 60 4300 000/00 RMK AO2 T00780006
94299KAAT AAT20160802051010908/02/16 05:10:31  5-MIN KAAT 021310Z AUTO 00000KT 10SM CLR 07/00 A3015 4170 60 4300 000/00 RMK AO2 T00720000
94299KAAT AAT20160802051510908/02/16 05:15:31  5-MIN KAAT 021315Z AUTO 00000KT 10SM CLR 07/00 A3015 4170 60 4300 000/00 RMK AO2 T00720000
94299KAAT AAT20160802052011008/02/16 05:20:31  5-MIN KAAT 021320Z AUTO 00000KT 10SM CLR 07/M01 A3015 4170 60 4200 000/00 RMK AO2 T00671006
94299KAAT AAT20160802052510908/02/16 05:25:31  5-MIN KAAT 021325Z AUTO 00000KT 10SM CLR 07/00 A3015 4170 60 4300 000/00 RMK AO2 T00720000
94299KAAT AAT20160802053010908/02/16 05:30:31  5-MIN KAAT 021330Z AUTO 00000KT 10SM CLR 08/00 A3016 4160 55 4400 000/00 RMK AO2 T00830000
94299KAAT AAT20160802053510908/02/16 05:35:31  5-MIN KAAT 021335Z AUTO 00000KT 10SM CLR 08/00 A3016 4160 55 4400 000/00 RMK AO2 T00830000
94299KAAT AAT20160802054010908/02/16 05:40:31  5-MIN KAAT 021340Z AUTO 00000KT 10SM CLR 09/00 A3016 4160 53 4500 000/00 RMK AO2 T00890000
94299KAAT AAT20160802054511008/02/16 05:45:31  5-MIN KAAT 021345Z AUTO 00000KT 10SM CLR 09/M01 A3016 4160 49 4500 000/00 RMK AO2 T00891011
94299KAAT AAT20160802055011708/02/16 05:50:31  5-MIN KAAT 021350Z AUTO 00000KT 10SM CLR 09/M01 A3016 4160 49 4500 000/00 RMK AO2 SLP171 T00941006
94299KAAT AAT20160802055511608/02/16 05:55:31  5-MIN KAAT 021355Z AUTO 00000KT 10SM CLR 10/00 A3016 4160 49 4600 000/00 RMK AO2 SLP172 T01000000
94299KAAT AAT20160802060011008/02/16 06:00:31  5-MIN KAAT 021400Z AUTO 00000KT 10SM CLR 10/M01 A3016 4160 47 4600 000/00 RMK AO2 T01001006
94299KAAT AAT20160802060511008/02/16 06:05:31  5-MIN KAAT 021405Z AUTO 00000KT 10SM CLR 11/M01 A3016 4160 44 4700 000/00 RMK AO2 T01111006
94299KAAT AAT20160802061010908/02/16 06:10:31  5-MIN KAAT 021410Z AUTO 00000KT 10SM CLR 12/00 A3017 4160 44 4800 000/00 RMK AO2 T01170000
94299KAAT AAT20160802061510908/02/16 06:15:31  5-MIN KAAT 021415Z AUTO 00000KT 10SM CLR 12/01 A3017 4150 46 4800 000/00 RMK AO2 T01170006
94299KAAT AAT20160802062010908/02/16 06:20:31  5-MIN KAAT 021420Z AUTO 00000KT 10SM CLR 12/01 A3017 4150 46 4800 000/00 RMK AO2 T01220011
94299KAAT AAT20160802062510908/02/16 06:25:31  5-MIN KAAT 021425Z AUTO 00000KT 10SM CLR 13/01 A3017 4150 44 4900 000/00 RMK AO2 T01280011
94299KAAT AAT20160802063010908/02/16 06:30:31  5-MIN KAAT 021430Z AUTO 00000KT 10SM CLR 13/01 A3016 4160 43 5000 000/00 RMK AO2 T01330011
94299KAAT AAT20160802063510908/02/16 06:35:31  5-MIN KAAT 021435Z AUTO 00000KT 10SM CLR 14/01 A3016 4160 41 5000 000/00 RMK AO2 T01390011
94299KAAT AAT20160802064010908/02/16 06:40:31  5-MIN KAAT 021440Z AUTO 00000KT 10SM CLR 16/01 A3017 4160 37 5200 000/00 RMK AO2 T01560011
94299KAAT AAT20160802064510908/02/16 06:45:31  5-MIN KAAT 021445Z AUTO 00000KT 10SM CLR 16/02 A3016 4160 37 5300 000/00 RMK AO2 T01610017
94299KAAT AAT20160802065012208/02/16 06:50:31  5-MIN KAAT 021450Z AUTO 00000KT 10SM CLR 17/02 A3016 4160 36 5300 000/00 RMK AO2 SLP168 T01670017 53003
94299KAAT AAT20160802065512208/02/16 06:55:31  5-MIN KAAT 021455Z AUTO 00000KT 10SM CLR 16/02 A3016 4160 37 5300 000/00 RMK AO2 SLP168 T01610017 51005
94299KAAT AAT20160802070010908/02/16 07:00:31  5-MIN KAAT 021500Z AUTO 00000KT 10SM CLR 17/02 A3017 4150 36 5300 000/00 RMK AO2 T01670017
94299KAAT AAT20160802070510908/02/16 07:05:31  5-MIN KAAT 021505Z AUTO 00000KT 10SM CLR 17/02 A3017 4150 36 5300 000/00 RMK AO2 T01670017
94299KAAT AAT20160802071010908/02/16 07:10:31  5-MIN KAAT 021510Z AUTO 00000KT 10SM CLR 17/01 A3017 4150 33 5400 000/00 RMK AO2 T01720011
94299KAAT AAT20160802071510908/02/16 07:15:31  5-MIN KAAT 021515Z AUTO 00000KT 10SM CLR 17/01 A3017 4150 33 5400 000/00 RMK AO2 T01720011
94299KAAT AAT20160802072010908/02/16 07:20:31  5-MIN KAAT 021520Z AUTO 00000KT 10SM CLR 18/02 A3017 4150 33 5500 000/00 RMK AO2 T01780017
94299KAAT AAT20160802072510908/02/16 07:25:31  5-MIN KAAT 021525Z AUTO 00000KT 10SM CLR 18/01 A3017 4150 32 5500 000/00 RMK AO2 T01780011
94299KAAT AAT20160802073010908/02/16 07:30:31  5-MIN KAAT 021530Z AUTO 00000KT 10SM CLR 18/01 A3017 4150 30 5500 000/00 RMK AO2 T01830006
94299KAAT AAT20160802073510908/02/16 07:35:31  5-MIN KAAT 021535Z AUTO 00000KT 10SM CLR 19/01 A3017 4150 29 5600 000/00 RMK AO2 T01890006
94299KAAT AAT20160802074010908/02/16 07:40:31  5-MIN KAAT 021540Z AUTO 00000KT 10SM CLR 19/01 A3017 4150 29 5600 000/00 RMK AO2 T01890006
94299KAAT AAT20160802074510908/02/16 07:45:31  5-MIN KAAT 021545Z AUTO 15003KT 10SM CLR 19/01 A3017 4150 28 5700 140/03 RMK AO2 T01940006
94299KAAT AAT20160802075011608/02/16 07:50:31  5-MIN KAAT 021550Z AUTO 00000KT 10SM CLR 19/01 A3017 4150 28 5700 000/00 RMK AO2 SLP173 T01940006
94299KAAT AAT20160802075511608/02/16 07:55:31  5-MIN KAAT 021555Z AUTO 00000KT 10SM CLR 20/01 A3017 4160 27 5700 000/00 RMK AO2 SLP173 T02000006
94299KAAT AAT20160802080010908/02/16 08:00:31  5-MIN KAAT 021600Z AUTO 00000KT 10SM CLR 20/01 A3017 4160 27 5700 000/00 RMK AO2 T02000006
94299KAAT AAT20160802080510908/02/16 08:05:31  5-MIN KAAT 021605Z AUTO 00000KT 10SM CLR 21/01 A3017 4150 25 5800 000/00 RMK AO2 T02110006
94299KAAT AAT20160802081010908/02/16 08:10:31  5-MIN KAAT 021610Z AUTO 00000KT 10SM CLR 21/01 A3017 4150 25 5800 000/00 RMK AO2 T02110006
94299KAAT AAT20160802081510908/02/16 08:15:31  5-MIN KAAT 021615Z AUTO 00000KT 10SM CLR 21/01 A3017 4150 25 5800 000/00 RMK AO2 T02110006
94299KAAT AAT20160802082010908/02/16 08:20:31  5-MIN KAAT 021620Z AUTO VRB03KT 10SM CLR 22/01 A3017 4160 24 5900 VRB/03 RMK AO2 T02170006
94299KAAT AAT20160802082510908/02/16 08:25:31  5-MIN KAAT 021625Z AUTO 00000KT 10SM CLR 22/00 A3017 4160 22 6000 000/00 RMK AO2 T02220000
94299KAAT AAT20160802083010908/02/16 08:30:31  5-MIN KAAT 021630Z AUTO 00000KT 10SM CLR 23/01 A3017 4160 22 6000 000/00 RMK AO2 T02280006
94299KAAT AAT20160802083510908/02/16 08:35:31  5-MIN KAAT 021635Z AUTO 00000KT 10SM CLR 23/01 A3016 4160 22 6000 000/00 RMK AO2 T02280006
94299KAAT AAT20160802084010908/02/16 08:40:31  5-MIN KAAT 021640Z AUTO 00000KT 10SM CLR 23/00 A3016 4160 22 6000 000/00 RMK AO2 T02280000
94299KAAT AAT20160802084510908/02/16 08:45:31  5-MIN KAAT 021645Z AUTO 00000KT 10SM CLR 23/00 A3016 4160 21 6100 000/00 RMK AO2 T02330000
94299KAAT AAT20160802085011608/02/16 08:50:31  5-MIN KAAT 021650Z AUTO 00000KT 10SM CLR 24/00 A3016 4160 20 6200 000/00 RMK AO2 SLP163 T02390000
94299KAAT AAT20160802085511608/02/16 08:55:31  5-MIN KAAT 021655Z AUTO 00000KT 10SM CLR 24/01 A3016 4160 20 6200 000/00 RMK AO2 SLP161 T02440006
94299KAAT AAT20160802090010908/02/16 09:00:31  5-MIN KAAT 021700Z AUTO VRB03KT 10SM CLR 25/00 A3016 4160 19 6300 VRB/03 RMK AO2 T02500000
94299KAAT AAT20160802090510908/02/16 09:05:31  5-MIN KAAT 021705Z AUTO 00000KT 10SM CLR 26/01 A3016 4160 19 6300 000/00 RMK AO2 T02560006
94299KAAT AAT20160802091010908/02/16 09:10:31  5-MIN KAAT 021710Z AUTO VRB03KT 10SM CLR 25/00 A3016 4160 19 6300 VRB/03 RMK AO2 T02500000
94299KAAT AAT20160802091510908/02/16 09:15:31  5-MIN KAAT 021715Z AUTO VRB04KT 10SM CLR 25/01 A3016 4160 20 6300 VRB/04 RMK AO2 T02500006
94299KAAT AAT20160802092010908/02/16 09:20:31  5-MIN KAAT 021720Z AUTO 33003KT 10SM CLR 26/00 A3016 4160 18 6300 310/03 RMK AO2 T02560000
94299KAAT AAT20160802092510908/02/16 09:25:31  5-MIN KAAT 021725Z AUTO 33006KT 10SM CLR 26/00 A3016 4160 18 6300 310/06 RMK AO2 T02560000
94299KAAT AAT20160802093010908/02/16 09:30:31  5-MIN KAAT 021730Z AUTO 35006KT 10SM CLR 26/00 A3016 4160 18 6300 330/06 RMK AO2 T02560000
94299KAAT AAT20160802093510908/02/16 09:35:31  5-MIN KAAT 021735Z AUTO 34004KT 10SM CLR 26/00 A3016 4160 18 6400 330/04 RMK AO2 T02610000
94299KAAT AAT20160802094010908/02/16 09:40:31  5-MIN KAAT 021740Z AUTO 33005KT 10SM CLR 26/01 A3016 4160 18 6400 310/05 RMK AO2 T02610006
94299KAAT AAT20160802094510908/02/16 09:45:31  5-MIN KAAT 021745Z AUTO 30007KT 10SM CLR 27/01 A3016 4160 18 6500 280/07 RMK AO2 T02670006
94299KAAT AAT20160802095013408/02/16 09:50:31  5-MIN KAAT 021750Z AUTO VRB04KT 10SM CLR 27/00 A3016 4160 17 6500 VRB/04 RMK AO2 SLP162 T02670000 10267 20067 51005
94299KAAT AAT20160802095513408/02/16 09:55:31  5-MIN KAAT 021755Z AUTO VRB03KT 10SM CLR 27/00 A3016 4160 16 6500 VRB/03 RMK AO2 SLP162 T02720000 10272 20067 55001
94299KAAT AAT20160802100010908/02/16 10:00:31  5-MIN KAAT 021800Z AUTO 36004KT 10SM CLR 27/00 A3016 4160 17 6500 350/04 RMK AO2 T02670000
94299KAAT AAT20160802100510908/02/16 10:05:31  5-MIN KAAT 021805Z AUTO VRB03KT 10SM CLR 27/00 A3016 4160 16 6500 VRB/03 RMK AO2 T02720000
94299KAAT AAT20160802101010908/02/16 10:10:31  5-MIN KAAT 021810Z AUTO VRB03KT 10SM CLR 28/01 A3016 4160 17 6600 VRB/03 RMK AO2 T02780006
94299KAAT AAT20160802101510908/02/16 10:15:31  5-MIN KAAT 021815Z AUTO 00000KT 10SM CLR 27/01 A3016 4160 17 6500 000/00 RMK AO2 T02720006
94299KAAT AAT20160802102012508/02/16 10:20:31  5-MIN KAAT 021820Z AUTO 30007KT 260V340 10SM CLR 28/01 A3016 4160 17 6600 290/07 250V330 RMK AO2 T02780006
94299KAAT AAT20160802102510908/02/16 10:25:31  5-MIN KAAT 021825Z AUTO 27008KT 10SM CLR 28/01 A3016 4160 17 6600 260/08 RMK AO2 T02780006
94299KAAT AAT20160802103012508/02/16 10:30:31  5-MIN KAAT 021830Z AUTO 28007KT 260V320 10SM CLR 28/01 A3016 4160 16 6600 270/07 250V310 RMK AO2 T02830006
94299KAAT AAT20160802103510908/02/16 10:35:31  5-MIN KAAT 021835Z AUTO 29008KT 10SM CLR 28/01 A3016 4160 16 6600 280/08 RMK AO2 T02830006
94299KAAT AAT20160802104010908/02/16 10:40:31  5-MIN KAAT 021840Z AUTO 30007KT 10SM CLR 29/01 A3015 4170 15 6700 290/07 RMK AO2 T02890006
94299KAAT AAT20160802104511508/02/16 10:45:31  5-MIN KAAT 021845Z AUTO 28010G16KT 10SM CLR 29/01 A3016 4160 15 6800 270/10G16 RMK AO2 T02940006
94299KAAT AAT20160802105012208/02/16 10:50:31  5-MIN KAAT 021850Z AUTO 30008G16KT 10SM CLR 29/01 A3015 4160 15 6700 280/08G16 RMK AO2 SLP159 T02890006
94299KAAT AAT20160802105511608/02/16 10:55:31  5-MIN KAAT 021855Z AUTO 26008KT 10SM CLR 29/01 A3015 4170 16 6800 250/08 RMK AO2 SLP159 T02940011
94299KAAT AAT20160802110011508/02/16 11:00:31  5-MIN KAAT 021900Z AUTO 29009G16KT 10SM CLR 29/01 A3015 4170 15 6700 270/09G16 RMK AO2 T02890006
94299KAAT AAT20160802110511508/02/16 11:05:31  5-MIN KAAT 021905Z AUTO 28009G16KT 10SM CLR 29/01 A3015 4170 15 6700 260/09G16 RMK AO2 T02890006
94299KAAT AAT20160802111011508/02/16 11:10:31  5-MIN KAAT 021910Z AUTO 27006G14KT 10SM CLR 29/01 A3015 4170 15 6800 250/06G14 RMK AO2 T02940006
94299KAAT AAT20160802111511508/02/16 11:15:31  5-MIN KAAT 021915Z AUTO 22005G15KT 10SM CLR 29/00 A3015 4170 14 6800 210/05G15 RMK AO2 T02940000
94299KAAT AAT20160802112009908/02/16 11:20:31  5-MIN KAAT 021920Z AUTO 10SM CLR 29/01 A3015 4170 15 6800 M /M RMK AO2 T02940006
94299KAAT AAT20160802112510908/02/16 11:25:31  5-MIN KAAT 021925Z AUTO VRB05KT 10SM CLR 29/01 A3015 4170 15 6700 VRB/05 RMK AO2 T02890006
94299KAAT AAT20160802113010908/02/16 11:30:31  5-MIN KAAT 021930Z AUTO 27009KT 10SM CLR 29/01 A3015 4170 15 6800 250/09 RMK AO2 T02940006
94299KAAT AAT20160802113510908/02/16 11:35:31  5-MIN KAAT 021935Z AUTO 23007KT 10SM CLR 30/01 A3014 4180 14 6800 220/07 RMK AO2 T03000006
94299KAAT AAT20160802114010908/02/16 11:40:31  5-MIN KAAT 021940Z AUTO VRB06KT 10SM CLR 29/00 A3014 4180 15 6700 VRB/06 RMK AO2 T02890000
94299KAAT AAT20160802114510908/02/16 11:45:31  5-MIN KAAT 021945Z AUTO 23010KT 10SM CLR 30/01 A3014 4180 14 6800 220/10 RMK AO2 T03000006
94299KAAT AAT20160802115011608/02/16 11:50:31  5-MIN KAAT 021950Z AUTO VRB06KT 10SM CLR 30/01 A3014 4180 14 6800 VRB/06 RMK AO2 SLP157 T03000006
94299KAAT AAT20160802115513208/02/16 11:55:31  5-MIN KAAT 021955Z AUTO 25009KT 210V290 10SM CLR 31/00 A3014 4180 13 6900 230/09 200V280 RMK AO2 SLP155 T03060000
94299KAAT AAT20160802120010908/02/16 12:00:31  5-MIN KAAT 022000Z AUTO 19008KT 10SM CLR 31/00 A3013 4190 13 6900 170/08 RMK AO2 T03060000
94299KAAT AAT20160802120511508/02/16 12:05:31  5-MIN KAAT 022005Z AUTO 23010G15KT 10SM CLR 31/00 A3013 4190 13 6900 210/10G15 RMK AO2 T03060000
94299KAAT AAT20160802121011508/02/16 12:10:31  5-MIN KAAT 022010Z AUTO 28009G17KT 10SM CLR 31/00 A3013 4190 13 7000 260/09G17 RMK AO2 T03110000
94299KAAT AAT20160802121513208/02/16 12:15:31  5-MIN KAAT 022015Z AUTO 26013G20KT 220V290 10SM CLR 31/M01 A3013 4190 13 7000 250/13G20 210V280 RMK AO2 T03111006
94299KAAT AAT20160802122011608/02/16 12:20:31  5-MIN KAAT 022020Z AUTO 29010G20KT 10SM CLR 31/M01 A3013 4190 12 7000 270/10G20 RMK AO2 T03111011
94299KAAT AAT20160802122511608/02/16 12:25:31  5-MIN KAAT 022025Z AUTO 30011G17KT 10SM CLR 31/M02 A3013 4190 11 6900 290/11G17 RMK AO2 T03061022
94299KAAT AAT20160802123011008/02/16 12:30:31  5-MIN KAAT 022030Z AUTO 29015KT 10SM CLR 31/M02 A3013 4190 11 7000 280/15 RMK AO2 T03111022
94299KAAT AAT20160802123511608/02/16 12:35:31  5-MIN KAAT 022035Z AUTO 28013G18KT 10SM CLR 32/M03 A3013 4190 10 7100 260/13G18 RMK AO2 T03221028
94299KAAT AAT20160802124011608/02/16 12:40:31  5-MIN KAAT 022040Z AUTO 28011G19KT 10SM CLR 32/M03 A3013 4190 10 7000 270/11G19 RMK AO2 T03171028
94299KAAT AAT20160802124511608/02/16 12:45:31  5-MIN KAAT 022045Z AUTO 30015G22KT 10SM CLR 32/M04 A3012 4190 09 7000 280/15G22 RMK AO2 T03171044
94299KAAT AAT20160802125012908/02/16 12:50:31  5-MIN KAAT 022050Z AUTO 28014G22KT 10SM CLR 32/M04 A3012 4190 09 7000 270/14G22 RMK AO2 SLP153 T03171044 55001
94299KAAT AAT20160802125512908/02/16 12:55:31  5-MIN KAAT 022055Z AUTO 27012G18KT 10SM CLR 32/M04 A3012 4190 09 7000 260/12G18 RMK AO2 SLP151 T03171039 58012
94299KAAT AAT20160802130011608/02/16 13:00:31  5-MIN KAAT 022100Z AUTO 27011G18KT 10SM CLR 32/M04 A3012 4190 09 7000 260/11G18 RMK AO2 T03171039
94299KAAT AAT20160802130511608/02/16 13:05:31  5-MIN KAAT 022105Z AUTO 27013G18KT 10SM CLR 32/M05 A3012 4200 08 7100 250/13G18 RMK AO2 T03221050
94299KAAT AAT20160802131013208/02/16 13:10:31  5-MIN KAAT 022110Z AUTO 26010G18KT 230V300 10SM CLR 32/M05 A3012 4200 09 7000 250/10G18 220V290 RMK AO2 T03171050
94299KAAT AAT20160802131511608/02/16 13:15:31  5-MIN KAAT 022115Z AUTO 28016G19KT 10SM CLR 32/M05 A3012 4200 09 7000 270/16G19 RMK AO2 T03171050
94299KAAT AAT20160802132011608/02/16 13:20:31  5-MIN KAAT 022120Z AUTO 27014G22KT 10SM CLR 32/M05 A3012 4200 08 7100 250/14G22 RMK AO2 T03221050
94299KAAT AAT20160802132513208/02/16 13:25:31  5-MIN KAAT 022125Z AUTO 26011G22KT 220V310 10SM CLR 32/M06 A3012 4200 08 7100 250/11G22 210V300 RMK AO2 T03221056
94299KAAT AAT20160802133011608/02/16 13:30:31  5-MIN KAAT 022130Z AUTO 28016G22KT 10SM CLR 33/M06 A3012 4200 07 7200 270/16G22 RMK AO2 T03281061
94299KAAT AAT20160802133511608/02/16 13:35:31  5-MIN KAAT 022135Z AUTO 28014G22KT 10SM CLR 32/M07 A3011 4200 07 7100 270/14G22 RMK AO2 T03221067
94299KAAT AAT20160802134011608/02/16 13:40:31  5-MIN KAAT 022140Z AUTO 28014G20KT 10SM CLR 32/M07 A3011 4200 07 7100 270/14G20 RMK AO2 T03221067
94299KAAT AAT20160802134511608/02/16 13:45:31  5-MIN KAAT 022145Z AUTO 29012G20KT 10SM CLR 32/M07 A3011 4210 07 7100 270/12G20 RMK AO2 T03221072
94299KAAT AAT20160802135012308/02/16 13:50:31  5-MIN KAAT 022150Z AUTO 28011G21KT 10SM CLR 33/M07 A3011 4210 07 7200 260/11G21 RMK AO2 SLP147 T03281072
94299KAAT AAT20160802135512308/02/16 13:55:31  5-MIN KAAT 022155Z AUTO 29017G22KT 10SM CLR 32/M07 A3011 4210 07 7100 270/17G22 RMK AO2 SLP149 T03221072
94299KAAT AAT20160802140011608/02/16 14:00:31  5-MIN KAAT 022200Z AUTO 29016G23KT 10SM CLR 32/M07 A3011 4210 07 7100 280/16G23 RMK AO2 T03221067
94299KAAT AAT20160802140511608/02/16 14:05:31  5-MIN KAAT 022205Z AUTO 29015G23KT 10SM CLR 32/M06 A3011 4210 08 7100 280/15G23 RMK AO2 T03221056
94299KAAT AAT20160802141011608/02/16 14:10:31  5-MIN KAAT 022210Z AUTO 29015G24KT 10SM CLR 32/M06 A3011 4210 08 7100 270/15G24 RMK AO2 T03221061
94299KAAT AAT20160802141511608/02/16 14:15:31  5-MIN KAAT 022215Z AUTO 28016G24KT 10SM CLR 32/M06 A3011 4210 08 7100 260/16G24 RMK AO2 T03221061
94299KAAT AAT20160802142011608/02/16 14:20:31  5-MIN KAAT 022220Z AUTO 26013G23KT 10SM CLR 32/M06 A3010 4210 08 7100 250/13G23 RMK AO2 T03171056
94299KAAT AAT20160802142511608/02/16 14:25:31  5-MIN KAAT 022225Z AUTO 28013G23KT 10SM CLR 32/M04 A3010 4210 09 7100 260/13G23 RMK AO2 T03221044
94299KAAT AAT20160802143011608/02/16 14:30:31  5-MIN KAAT 022230Z AUTO 29010G21KT 10SM CLR 33/M05 A3010 4210 08 7200 270/10G21 RMK AO2 T03281050
94299KAAT AAT20160802143511608/02/16 14:35:31  5-MIN KAAT 022235Z AUTO 27017G24KT 10SM CLR 32/M04 A3010 4210 09 7100 250/17G24 RMK AO2 T03221044
94299KAAT AAT20160802144011608/02/16 14:40:31  5-MIN KAAT 022240Z AUTO 27012G24KT 10SM CLR 32/M04 A3010 4210 09 7100 260/12G24 RMK AO2 T03221039
94299KAAT AAT20160802144511608/02/16 14:45:31  5-MIN KAAT 022245Z AUTO 26015G23KT 10SM CLR 32/M04 A3010 4210 09 7100 240/15G23 RMK AO2 T03221039
94299KAAT AAT20160802145012308/02/16 14:50:31  5-MIN KAAT 022250Z AUTO 26013G23KT 10SM CLR 32/M03 A3010 4210 10 7100 250/13G23 RMK AO2 SLP150 T03221033
94299KAAT AAT20160802145512308/02/16 14:55:31  5-MIN KAAT 022255Z AUTO 26009G20KT 10SM CLR 32/M03 A3010 4220 10 7100 240/09G20 RMK AO2 SLP150 T03171033
94299KAAT AAT20160802150011608/02/16 15:00:31  5-MIN KAAT 022300Z AUTO 25013G17KT 10SM CLR 32/M03 A3010 4220 10 7100 240/13G17 RMK AO2 T03221028
94299KAAT AAT20160802150511608/02/16 15:05:31  5-MIN KAAT 022305Z AUTO 26012G17KT 10SM CLR 32/M03 A3010 4220 10 7100 240/12G17 RMK AO2 T03221028
94299KAAT AAT20160802151011608/02/16 15:10:31  5-MIN KAAT 022310Z AUTO 26008G16KT 10SM CLR 32/M04 A3010 4220 09 7100 250/08G16 RMK AO2 T03171039
94299KAAT AAT20160802151511608/02/16 15:15:31  5-MIN KAAT 022315Z AUTO 24016G20KT 10SM CLR 32/M04 A3010 4220 09 7100 220/16G20 RMK AO2 T03221044
94299KAAT AAT20160802152011608/02/16 15:20:31  5-MIN KAAT 022320Z AUTO 25017G23KT 10SM CLR 32/M06 A3010 4220 08 7100 240/17G23 RMK AO2 T03221056
94299KAAT AAT20160802152511608/02/16 15:25:31  5-MIN KAAT 022325Z AUTO 25012G23KT 10SM CLR 32/M06 A3010 4220 08 7100 240/12G23 RMK AO2 T03221061
94299KAAT AAT20160802153011008/02/16 15:30:31  5-MIN KAAT 022330Z AUTO 28009KT 10SM CLR 32/M06 A3010 4220 08 7100 260/09 RMK AO2 T03221056
94299KAAT AAT20160802153511608/02/16 15:35:31  5-MIN KAAT 022335Z AUTO 26014G21KT 10SM CLR 32/M06 A3009 4220 08 7100 250/14G21 RMK AO2 T03221056
94299KAAT AAT20160802154011608/02/16 15:40:31  5-MIN KAAT 022340Z AUTO 24016G21KT 10SM CLR 33/M06 A3009 4220 08 7200 220/16G21 RMK AO2 T03281056
94299KAAT AAT20160802154511008/02/16 15:45:31  5-MIN KAAT 022345Z AUTO 24016KT 10SM CLR 32/M06 A3009 4220 08 7100 230/16 RMK AO2 T03221056
94299KAAT AAT20160802155013508/02/16 15:50:31  5-MIN KAAT 022350Z AUTO 23012KT 10SM CLR 32/M06 A3009 4220 08 7100 220/12 RMK AO2 SLP147 T03171056 10328 20267 58012
94299KAAT AAT20160802155513508/02/16 15:55:31  5-MIN KAAT 022355Z AUTO 25010KT 10SM CLR 32/M06 A3009 4230 08 7100 230/10 RMK AO2 SLP144 T03221061 10328 20267 56010
94299KAAT AAT20160802160011608/02/16 16:00:31  5-MIN KAAT 030000Z AUTO 25013G20KT 10SM CLR 32/M06 A3009 4220 08 7100 230/13G20 RMK AO2 T03221056
94299KAAT AAT20160802160511608/02/16 16:05:31  5-MIN KAAT 030005Z AUTO 27011G21KT 10SM CLR 32/M05 A3009 4220 08 7100 250/11G21 RMK AO2 T03221050
94299KAAT AAT20160802161011608/02/16 16:10:31  5-MIN KAAT 030010Z AUTO 25011G21KT 10SM CLR 32/M04 A3009 4220 09 7100 230/11G21 RMK AO2 T03221044
94299KAAT AAT20160802161511608/02/16 16:15:31  5-MIN KAAT 030015Z AUTO 24010G16KT 10SM CLR 32/M04 A3009 4230 09 7100 220/10G16 RMK AO2 T03171044
94299KAAT AAT20160802162011608/02/16 16:20:31  5-MIN KAAT 030020Z AUTO 27011G16KT 10SM CLR 32/M05 A3009 4220 08 7100 250/11G16 RMK AO2 T03221050
94299KAAT AAT20160802162511008/02/16 16:25:31  5-MIN KAAT 030025Z AUTO 27011KT 10SM CLR 32/M04 A3009 4220 09 7100 260/11 RMK AO2 T03221039
94299KAAT AAT20160802163011608/02/16 16:30:31  5-MIN KAAT 030030Z AUTO 29013G16KT 10SM CLR 32/M04 A3009 4220 09 7100 280/13G16 RMK AO2 T03221039
94299KAAT AAT20160802163513208/02/16 16:35:31  5-MIN KAAT 030035Z AUTO 34007G16KT 280V010 10SM CLR 32/M02 A3009 4220 11 7100 320/07G16 270V360 RMK AO2 T03171022
94299KAAT AAT20160802164011608/02/16 16:40:31  5-MIN KAAT 030040Z AUTO 32012G16KT 10SM CLR 31/M01 A3009 4220 12 7000 310/12G16 RMK AO2 T03111011
94299KAAT AAT20160802164511608/02/16 16:45:31  5-MIN KAAT 030045Z AUTO 31014G19KT 10SM CLR 31/M01 A3009 4220 13 7000 290/14G19 RMK AO2 T03111006
94299KAAT AAT20160802165012308/02/16 16:50:31  5-MIN KAAT 030050Z AUTO 32016G20KT 10SM CLR 31/M02 A3009 4220 11 7000 310/16G20 RMK AO2 SLP149 T03111022
94299KAAT AAT20160802165511708/02/16 16:55:31  5-MIN KAAT 030055Z AUTO 32012KT 10SM CLR 31/M03 A3009 4220 11 7000 310/12 RMK AO2 SLP149 T03111028
94299KAAT AAT20160802170011608/02/16 17:00:31  5-MIN KAAT 030100Z AUTO 33016G21KT 10SM CLR 31/M03 A3009 4220 11 7000 310/16G21 RMK AO2 T03061028
94299KAAT AAT20160802170511608/02/16 17:05:31  5-MIN KAAT 030105Z AUTO 32014G21KT 10SM CLR 31/M03 A3009 4220 11 6900 310/14G21 RMK AO2 T03061028
94299KAAT AAT20160802171011008/02/16 17:10:31  5-MIN KAAT 030110Z AUTO 32014KT 10SM CLR 31/M03 A3009 4220 11 6900 310/14 RMK AO2 T03061033
94299KAAT AAT20160802171511008/02/16 17:15:31  5-MIN KAAT 030115Z AUTO 32011KT 10SM CLR 31/M03 A3009 4220 11 6900 310/11 RMK AO2 T03061028
94299KAAT AAT20160802172011008/02/16 17:20:31  5-MIN KAAT 030120Z AUTO 31012KT 10SM CLR 30/M03 A3009 4220 11 6900 290/12 RMK AO2 T03001028
94299KAAT AAT20160802172511008/02/16 17:25:31  5-MIN KAAT 030125Z AUTO 31017KT 10SM CLR 30/M02 A3009 4220 12 6900 290/17 RMK AO2 T03001022
94299KAAT AAT20160802173011608/02/16 17:30:31  5-MIN KAAT 030130Z AUTO 32016G20KT 10SM CLR 29/M04 A3009 4220 11 6800 310/16G20 RMK AO2 T02941039
94299KAAT AAT20160802173511008/02/16 17:35:31  5-MIN KAAT 030135Z AUTO 32017KT 10SM CLR 29/M04 A3010 4220 11 6800 300/17 RMK AO2 T02941039
94299KAAT AAT20160802174011008/02/16 17:40:31  5-MIN KAAT 030140Z AUTO 33014KT 10SM CLR 29/M04 A3010 4220 11 6800 320/14 RMK AO2 T02891039
94299KAAT AAT20160802174511008/02/16 17:45:31  5-MIN KAAT 030145Z AUTO 33014KT 10SM CLR 29/M03 A3010 4220 12 6800 320/14 RMK AO2 T02891033
94299KAAT AAT20160802175012308/02/16 17:50:31  5-MIN KAAT 030150Z AUTO 33016G19KT 10SM CLR 29/M04 A3010 4220 11 6800 310/16G19 RMK AO2 SLP152 T02891039
94299KAAT AAT20160802175512308/02/16 17:55:31  5-MIN KAAT 030155Z AUTO 32017G20KT 10SM CLR 29/M04 A3010 4210 11 6800 300/17G20 RMK AO2 SLP153 T02891044
94299KAAT AAT20160802180011008/02/16 18:00:31  5-MIN KAAT 030200Z AUTO 32013KT 10SM CLR 29/M05 A3010 4210 10 6800 310/13 RMK AO2 T02891050
94299KAAT AAT20160802180511008/02/16 18:05:31  5-MIN KAAT 030205Z AUTO 31014KT 10SM CLR 28/M05 A3011 4210 11 6700 300/14 RMK AO2 T02831050
94299KAAT AAT20160802181011008/02/16 18:10:31  5-MIN KAAT 030210Z AUTO 32017KT 10SM CLR 28/M05 A3011 4210 11 6700 310/17 RMK AO2 T02831050
94299KAAT AAT20160802181511008/02/16 18:15:31  5-MIN KAAT 030215Z AUTO 32012KT 10SM CLR 28/M06 A3011 4210 11 6600 310/12 RMK AO2 T02781056
94299KAAT AAT20160802182011608/02/16 18:20:31  5-MIN KAAT 030220Z AUTO 31016G19KT 10SM CLR 28/M06 A3011 4210 11 6600 300/16G19 RMK AO2 T02781056
94299KAAT AAT20160802182511608/02/16 18:25:31  5-MIN KAAT 030225Z AUTO 32016G22KT 10SM CLR 27/M06 A3011 4210 10 6600 310/16G22 RMK AO2 T02721061
94299KAAT AAT20160802183011608/02/16 18:30:31  5-MIN KAAT 030230Z AUTO 32014G22KT 10SM CLR 27/M07 A3011 4210 10 6600 310/14G22 RMK AO2 T02721067
94299KAAT AAT20160802183511608/02/16 18:35:31  5-MIN KAAT 030235Z AUTO 32012G20KT 10SM CLR 27/M06 A3011 4210 11 6500 310/12G20 RMK AO2 T02671061
94299KAAT AAT20160802184011608/02/16 18:40:31  5-MIN KAAT 030240Z AUTO 32015G20KT 10SM CLR 27/M07 A3011 4200 10 6600 300/15G20 RMK AO2 T02721072
94299KAAT AAT20160802184511608/02/16 18:45:31  5-MIN KAAT 030245Z AUTO 31011G20KT 10SM CLR 27/M07 A3011 4200 10 6500 300/11G20 RMK AO2 T02671072
94299KAAT AAT20160802185012908/02/16 18:50:31  5-MIN KAAT 030250Z AUTO 32014G18KT 10SM CLR 27/M07 A3011 4200 10 6500 310/14G18 RMK AO2 SLP152 T02671067 56010
94299KAAT AAT20160802185512908/02/16 18:55:31  5-MIN KAAT 030255Z AUTO 32012G18KT 10SM CLR 27/M06 A3012 4200 11 6500 310/12G18 RMK AO2 SLP153 T02671061 53008
94299KAAT AAT20160802190011008/02/16 19:00:31  5-MIN KAAT 030300Z AUTO 32012KT 10SM CLR 26/M06 A3012 4200 12 6400 310/12 RMK AO2 T02611056
94299KAAT AAT20160802190511008/02/16 19:05:31  5-MIN KAAT 030305Z AUTO 31012KT 10SM CLR 26/M06 A3012 4200 12 6400 300/12 RMK AO2 T02611056
94299KAAT AAT20160802191011008/02/16 19:10:31  5-MIN KAAT 030310Z AUTO 32010KT 10SM CLR 25/M05 A3012 4200 13 6300 310/10 RMK AO2 T02501050
94299KAAT AAT20160802191511608/02/16 19:15:31  5-MIN KAAT 030315Z AUTO 32012G18KT 10SM CLR 26/M05 A3012 4200 13 6400 310/12G18 RMK AO2 T02561050
94299KAAT AAT20160802192011008/02/16 19:20:31  5-MIN KAAT 030320Z AUTO 32011KT 10SM CLR 25/M05 A3012 4200 13 6300 310/11 RMK AO2 T02501050
94299KAAT AAT20160802192511008/02/16 19:25:31  5-MIN KAAT 030325Z AUTO 32010KT 10SM CLR 25/M05 A3012 4190 13 6300 300/10 RMK AO2 T02501050
94299KAAT AAT20160802193011608/02/16 19:30:31  5-MIN KAAT 030330Z AUTO 32011G18KT 10SM CLR 25/M05 A3012 4190 13 6300 300/11G18 RMK AO2 T02501050
94299KAAT AAT20160802193511608/02/16 19:35:31  5-MIN KAAT 030335Z AUTO 33011G18KT 10SM CLR 24/M05 A3012 4190 13 6300 310/11G18 RMK AO2 T02441050
94299KAAT AAT20160802194011008/02/16 19:40:31  5-MIN KAAT 030340Z AUTO 33010KT 10SM CLR 24/M05 A3013 4190 13 6200 310/10 RMK AO2 T02441050
94299KAAT AAT20160802194511008/02/16 19:45:31  5-MIN KAAT 030345Z AUTO 33010KT 10SM CLR 24/M06 A3013 4190 13 6200 310/10 RMK AO2 T02391061
94299KAAT AAT20160802195011708/02/16 19:50:31  5-MIN KAAT 030350Z AUTO 33010KT 10SM CLR 24/M06 A3013 4190 13 6200 320/10 RMK AO2 SLP159 T02391061
94299KAAT AAT20160802195511708/02/16 19:55:31  5-MIN KAAT 030355Z AUTO 32006KT 10SM CLR 24/M07 A3014 4180 12 6200 300/06 RMK AO2 SLP158 T02391067
94299KAAT AAT20160802200011008/02/16 20:00:31  5-MIN KAAT 030400Z AUTO 31006KT 10SM CLR 23/M07 A3014 4180 12 6100 290/06 RMK AO2 T02331072
94299KAAT AAT20160802200511008/02/16 20:05:31  5-MIN KAAT 030405Z AUTO 30007KT 10SM CLR 23/M08 A3014 4180 12 6100 280/07 RMK AO2 T02331078
94299KAAT AAT20160802201011008/02/16 20:10:31  5-MIN KAAT 030410Z AUTO 26006KT 10SM CLR 23/M08 A3015 4170 12 6000 240/06 RMK AO2 T02281083
94299KAAT AAT20160802201511008/02/16 20:15:31  5-MIN KAAT 030415Z AUTO 27006KT 10SM CLR 23/M07 A3015 4170 13 6000 250/06 RMK AO2 T02281072
94299KAAT AAT20160802202011008/02/16 20:20:31  5-MIN KAAT 030420Z AUTO 25006KT 10SM CLR 22/M07 A3015 4170 14 6000 240/06 RMK AO2 T02221067
94299KAAT AAT20160802202511008/02/16 20:25:31  5-MIN KAAT 030425Z AUTO 26004KT 10SM CLR 21/M07 A3015 4170 15 5900 250/04 RMK AO2 T02111067
94299KAAT AAT20160802203011008/02/16 20:30:31  5-MIN KAAT 030430Z AUTO 24006KT 10SM CLR 21/M07 A3015 4170 15 5900 230/06 RMK AO2 T02111067
94299KAAT AAT20160802203511008/02/16 20:35:31  5-MIN KAAT 030435Z AUTO 24007KT 10SM CLR 22/M07 A3016 4160 14 5900 220/07 RMK AO2 T02171067
94299KAAT AAT20160802204011008/02/16 20:40:31  5-MIN KAAT 030440Z AUTO 26005KT 10SM CLR 22/M07 A3016 4160 14 5900 250/05 RMK AO2 T02171067
94299KAAT AAT20160802204511008/02/16 20:45:31  5-MIN KAAT 030445Z AUTO 24005KT 10SM CLR 21/M07 A3016 4160 14 5800 230/05 RMK AO2 T02111072
94299KAAT AAT20160802205011708/02/16 20:50:31  5-MIN KAAT 030450Z AUTO VRB04KT 10SM CLR 22/M07 A3016 4160 13 5900 VRB/04 RMK AO2 SLP166 T02171072
94299KAAT AAT20160802205511708/02/16 20:55:31  5-MIN KAAT 030455Z AUTO 26004KT 10SM CLR 22/M07 A3017 4150 13 5900 240/04 RMK AO2 SLP166 T02171072
94299KAAT AAT20160802210011008/02/16 21:00:31  5-MIN KAAT 030500Z AUTO 25005KT 10SM CLR 21/M07 A3017 4150 15 5800 230/05 RMK AO2 T02111067
94299KAAT AAT20160802210511008/02/16 21:05:31  5-MIN KAAT 030505Z AUTO 26005KT 10SM CLR 21/M07 A3017 4150 15 5800 240/05 RMK AO2 T02111067
94299KAAT AAT20160802211011008/02/16 21:10:31  5-MIN KAAT 030510Z AUTO 26004KT 10SM CLR 21/M07 A3017 4150 15 5800 250/04 RMK AO2 T02111067
94299KAAT AAT20160802211511008/02/16 21:15:31  5-MIN KAAT 030515Z AUTO 27004KT 10SM CLR 21/M07 A3017 4150 15 5800 260/04 RMK AO2 T02111067
94299KAAT AAT20160802212011008/02/16 21:20:31  5-MIN KAAT 030520Z AUTO 28005KT 10SM CLR 21/M07 A3018 4150 15 5800 270/05 RMK AO2 T02111067
94299KAAT AAT20160802212511008/02/16 21:25:31  5-MIN KAAT 030525Z AUTO 28007KT 10SM CLR 21/M06 A3017 4150 16 5800 270/07 RMK AO2 T02061061
94299KAAT AAT20160802213011008/02/16 21:30:31  5-MIN KAAT 030530Z AUTO 29007KT 10SM CLR 21/M06 A3018 4150 16 5800 270/07 RMK AO2 T02061061
94299KAAT AAT20160802213511008/02/16 21:35:31  5-MIN KAAT 030535Z AUTO 28008KT 10SM CLR 21/M06 A3018 4140 16 5800 260/08 RMK AO2 T02061056
94299KAAT AAT20160802214011008/02/16 21:40:31  5-MIN KAAT 030540Z AUTO 28008KT 10SM CLR 21/M06 A3018 4140 16 5800 260/08 RMK AO2 T02061056
94299KAAT AAT20160802214511008/02/16 21:45:31  5-MIN KAAT 030545Z AUTO 27008KT 10SM CLR 20/M06 A3018 4140 17 5700 260/08 RMK AO2 T02001056
94299KAAT AAT20160802215013508/02/16 21:50:31  5-MIN KAAT 030550Z AUTO 26009KT 10SM CLR 19/M06 A3018 4140 18 5600 250/09 RMK AO2 SLP171 T01941056 10328 20194 53008
94299KAAT AAT20160802215513508/02/16 21:55:31  5-MIN KAAT 030555Z AUTO 27008KT 10SM CLR 20/M05 A3018 4140 18 5700 250/08 RMK AO2 SLP171 T02001050 10328 20194 51020
94299KAAT AAT20160802220011008/02/16 22:00:31  5-MIN KAAT 030600Z AUTO 28006KT 10SM CLR 20/M04 A3018 4140 18 5700 260/06 RMK AO2 T02001044
94299KAAT AAT20160802220511008/02/16 22:05:31  5-MIN KAAT 030605Z AUTO VRB04KT 10SM CLR 19/M04 A3018 4140 20 5600 VRB/04 RMK AO2 T01891044
94299KAAT AAT20160802221011008/02/16 22:10:31  5-MIN KAAT 030610Z AUTO 32006KT 10SM CLR 18/M04 A3018 4140 21 5500 310/06 RMK AO2 T01831039
94299KAAT AAT20160802221511008/02/16 22:15:31  5-MIN KAAT 030615Z AUTO VRB04KT 10SM CLR 18/M03 A3019 4140 24 5400 VRB/04 RMK AO2 T01781028
94299KAAT AAT20160802222011008/02/16 22:20:31  5-MIN KAAT 030620Z AUTO 00000KT 10SM CLR 18/M03 A3019 4140 24 5400 000/00 RMK AO2 T01781028
94299KAAT AAT20160802222511008/02/16 22:25:31  5-MIN KAAT 030625Z AUTO 06003KT 10SM CLR 18/M03 A3019 4130 23 5400 050/03 RMK AO2 T01781033
94299KAAT AAT20160802223011008/02/16 22:30:31  5-MIN KAAT 030630Z AUTO VRB03KT 10SM CLR 18/M03 A3019 4130 23 5400 VRB/03 RMK AO2 T01781033
94299KAAT AAT20160802223511008/02/16 22:35:31  5-MIN KAAT 030635Z AUTO 30003KT 10SM CLR 18/M03 A3019 4140 23 5400 290/03 RMK AO2 T01781033
94299KAAT AAT20160802224011008/02/16 22:40:31  5-MIN KAAT 030640Z AUTO 31003KT 10SM CLR 18/M03 A3019 4130 23 5400 300/03 RMK AO2 T01781033
94299KAAT AAT20160802224511008/02/16 22:45:31  5-MIN KAAT 030645Z AUTO 31003KT 10SM CLR 17/M03 A3019 4130 25 5300 290/03 RMK AO2 T01671033
94299KAAT AAT20160802225011708/02/16 22:50:31  5-MIN KAAT 030650Z AUTO 00000KT 10SM CLR 16/M03 A3019 4130 26 5300 000/00 RMK AO2 SLP176 T01611033
94299KAAT AAT20160802225511708/02/16 22:55:31  5-MIN KAAT 030655Z AUTO 00000KT 10SM CLR 17/M03 A3019 4130 24 5400 000/00 RMK AO2 SLP174 T01721033
94299KAAT AAT20160802230011008/02/16 23:00:31  5-MIN KAAT 030700Z AUTO 00000KT 10SM CLR 16/M03 A3019 4130 26 5200 000/00 RMK AO2 T01611033
94299KAAT AAT20160802230511008/02/16 23:05:31  5-MIN KAAT 030705Z AUTO 00000KT 10SM CLR 16/M03 A3019 4130 26 5200 000/00 RMK AO2 T01611033
94299KAAT AAT20160802231011008/02/16 23:10:31  5-MIN KAAT 030710Z AUTO 00000KT 10SM CLR 15/M03 A3019 4130 28 5100 000/00 RMK AO2 T01501033
94299KAAT AAT20160802231511008/02/16 23:15:31  5-MIN KAAT 030715Z AUTO 00000KT 10SM CLR 14/M02 A3019 4130 31 5100 000/00 RMK AO2 T01441022
94299KAAT AAT20160802232011008/02/16 23:20:31  5-MIN KAAT 030720Z AUTO 00000KT 10SM CLR 14/M02 A3019 4130 31 5100 000/00 RMK AO2 T01441022
94299KAAT AAT20160802232511008/02/16 23:25:31  5-MIN KAAT 030725Z AUTO 11003KT 10SM CLR 15/M02 A3019 4130 30 5100 100/03 RMK AO2 T01501022
94299KAAT AAT20160802233011008/02/16 23:30:31  5-MIN KAAT 030730Z AUTO 10004KT 10SM CLR 14/M02 A3020 4130 31 5100 080/04 RMK AO2 T01441022
94299KAAT AAT20160802233511008/02/16 23:35:31  5-MIN KAAT 030735Z AUTO 11003KT 10SM CLR 15/M02 A3020 4130 30 5100 100/03 RMK AO2 T01501022
94299KAAT AAT20160802234011008/02/16 23:40:31  5-MIN KAAT 030740Z AUTO 00000KT 10SM CLR 16/M03 A3020 4120 28 5200 000/00 RMK AO2 T01561028
94299KAAT AAT20160802234511008/02/16 23:45:31  5-MIN KAAT 030745Z AUTO 08003KT 10SM CLR 14/M02 A3020 4120 31 5000 060/03 RMK AO2 T01441022
94299KAAT AAT20160802235012708/02/16 23:50:31  5-MIN KAAT 030750Z AUTO 06004KT 10SM CLR 14/M03 A3020 4120 30 5000 050/04 RMK AO2 SLP181 T01441028 403280067
94299KAAT AAT20160802235512708/02/16 23:55:31  5-MIN KAAT 030755Z AUTO 02003KT 10SM CLR 14/M03 A3020 4120 31 5000 360/03 RMK AO2 SLP181 T01391028 403280067
94299KAAT AAT20160803000011008/03/16 00:00:31  5-MIN KAAT 030800Z AUTO 00000KT 10SM CLR 12/M03 A3020 4120 33 4800 000/00 RMK AO2 T01221033
94299KAAT AAT20160803000511008/03/16 00:05:31  5-MIN KAAT 030805Z AUTO VRB03KT 10SM CLR 12/M03 A3020 4120 35 4700 VRB/03 RMK AO2 T01171033
94299KAAT AAT20160803001011008/03/16 00:10:31  5-MIN KAAT 030810Z AUTO 03007KT 10SM CLR 14/M03 A3020 4120 30 5000 010/07 RMK AO2 T01441028
94299KAAT AAT20160803001511008/03/16 00:15:31  5-MIN KAAT 030815Z AUTO 01007KT 10SM CLR 17/M03 A3020 4120 26 5300 360/07 RMK AO2 T01671028
94299KAAT AAT20160803002011008/03/16 00:20:31  5-MIN KAAT 030820Z AUTO 35004KT 10SM CLR 16/M03 A3020 4120 26 5200 340/04 RMK AO2 T01611033
94299KAAT AAT20160803002511008/03/16 00:25:31  5-MIN KAAT 030825Z AUTO 34003KT 10SM CLR 14/M03 A3020 4120 30 5000 320/03 RMK AO2 T01441028
94299KAAT AAT20160803003011008/03/16 00:30:31  5-MIN KAAT 030830Z AUTO 34003KT 10SM CLR 13/M03 A3020 4120 32 4900 330/03 RMK AO2 T01331028
94299KAAT AAT20160803003511008/03/16 00:35:31  5-MIN KAAT 030835Z AUTO 00000KT 10SM CLR 12/M02 A3020 4120 36 4800 000/00 RMK AO2 T01221022
94299KAAT AAT20160803004011008/03/16 00:40:31  5-MIN KAAT 030840Z AUTO 00000KT 10SM CLR 12/M02 A3020 4120 38 4700 000/00 RMK AO2 T01171022
94299KAAT AAT20160803004511008/03/16 00:45:31  5-MIN KAAT 030845Z AUTO 00000KT 10SM CLR 12/M02 A3020 4120 36 4800 000/00 RMK AO2 T01221022
94299KAAT AAT20160803005012308/03/16 00:50:31  5-MIN KAAT 030850Z AUTO 00000KT 10SM CLR 13/M03 A3020 4120 32 4900 000/00 RMK AO2 SLP181 T01331028 51020
94299KAAT AAT20160803005512308/03/16 00:55:31  5-MIN KAAT 030855Z AUTO 00000KT 10SM CLR 14/M02 A3021 4120 31 5000 000/00 RMK AO2 SLP180 T01441022 51007
94299KAAT AAT20160803010011008/03/16 01:00:31  5-MIN KAAT 030900Z AUTO 00000KT 10SM CLR 14/M02 A3021 4120 31 5000 000/00 RMK AO2 T01441022
94299KAAT AAT20160803010511008/03/16 01:05:31  5-MIN KAAT 030905Z AUTO 02004KT 10SM CLR 15/M02 A3021 4120 30 5100 010/04 RMK AO2 T01501022
94299KAAT AAT20160803011011008/03/16 01:10:31  5-MIN KAAT 030910Z AUTO 02008KT 10SM CLR 15/M02 A3021 4120 31 5100 360/08 RMK AO2 T01501017
94299KAAT AAT20160803011511008/03/16 01:15:31  5-MIN KAAT 030915Z AUTO 02008KT 10SM CLR 16/M02 A3020 4120 30 5200 010/08 RMK AO2 T01561017
94299KAAT AAT20160803012011008/03/16 01:20:31  5-MIN KAAT 030920Z AUTO 01007KT 10SM CLR 16/M02 A3020 4120 30 5200 360/07 RMK AO2 T01561017
94299KAAT AAT20160803012511008/03/16 01:25:31  5-MIN KAAT 030925Z AUTO 02007KT 10SM CLR 16/M02 A3020 4120 30 5200 010/07 RMK AO2 T01561017
94299KAAT AAT20160803013011008/03/16 01:30:31  5-MIN KAAT 030930Z AUTO 02006KT 10SM CLR 16/M02 A3021 4120 30 5200 360/06 RMK AO2 T01561017
94299KAAT AAT20160803013511008/03/16 01:35:31  5-MIN KAAT 030935Z AUTO 02007KT 10SM CLR 15/M02 A3021 4120 31 5100 360/07 RMK AO2 T01501017
94299KAAT AAT20160803014011008/03/16 01:40:31  5-MIN KAAT 030940Z AUTO 02008KT 10SM CLR 15/M02 A3021 4120 31 5100 360/08 RMK AO2 T01501017
94299KAAT AAT20160803014511008/03/16 01:45:31  5-MIN KAAT 030945Z AUTO 02004KT 10SM CLR 16/M02 A3021 4120 30 5200 360/04 RMK AO2 T01561017
94299KAAT AAT20160803015011708/03/16 01:50:31  5-MIN KAAT 030950Z AUTO 03005KT 10SM CLR 15/M02 A3021 4110 31 5100 010/05 RMK AO2 SLP180 T01501017
94299KAAT AAT20160803015511708/03/16 01:55:31  5-MIN KAAT 030955Z AUTO VRB06KT 10SM CLR 15/M02 A3021 4110 31 5100 VRB/06 RMK AO2 SLP182 T01501017
94299KAAT AAT20160803020012608/03/16 02:00:31  5-MIN KAAT 031000Z AUTO 36007KT 330V040 10SM CLR 15/M02 A3021 4110 31 5100 340/07 320V030 RMK AO2 T01501017
94299KAAT AAT20160803020511008/03/16 02:05:31  5-MIN KAAT 031005Z AUTO 04006KT 10SM CLR 15/M02 A3021 4110 31 5100 030/06 RMK AO2 T01501017
94299KAAT AAT20160803021011008/03/16 02:10:31  5-MIN KAAT 031010Z AUTO 03008KT 10SM CLR 15/M02 A3022 4110 31 5100 010/08 RMK AO2 T01501017
94299KAAT AAT20160803021511008/03/16 02:15:31  5-MIN KAAT 031015Z AUTO 02007KT 10SM CLR 15/M02 A3022 4110 31 5100 360/07 RMK AO2 T01501017
94299KAAT AAT20160803022011008/03/16 02:20:31  5-MIN KAAT 031020Z AUTO VRB03KT 10SM CLR 15/M02 A3022 4110 31 5100 VRB/03 RMK AO2 T01501017
94299KAAT AAT20160803022510008/03/16 02:25:31  5-MIN KAAT 031025Z AUTO 10SM CLR 14/M01 A3022 4110 34 5000 M /M RMK AO2 T01441011
94299KAAT AAT20160803023011008/03/16 02:30:31  5-MIN KAAT 031030Z AUTO VRB04KT 10SM CLR 14/M01 A3022 4110 34 5000 VRB/04 RMK AO2 T01441011
94299KAAT AAT20160803023510008/03/16 02:35:31  5-MIN KAAT 031035Z AUTO 10SM CLR 14/M01 A3022 4110 34 5000 M /M RMK AO2 T01441011
94299KAAT AAT20160803024011008/03/16 02:40:31  5-MIN KAAT 031040Z AUTO VRB03KT 10SM CLR 14/M01 A3022 4110 34 5000 VRB/03 RMK AO2 T01441011
94299KAAT AAT20160803024511008/03/16 02:45:31  5-MIN KAAT 031045Z AUTO 00000KT 10SM CLR 15/M01 A3022 4100 33 5100 000/00 RMK AO2 T01501011
94299KAAT AAT20160803025011708/03/16 02:50:31  5-MIN KAAT 031050Z AUTO 00000KT 10SM CLR 14/M01 A3022 4100 35 5000 000/00 RMK AO2 SLP186 T01391011
94299KAAT AAT20160803025511708/03/16 02:55:31  5-MIN KAAT 031055Z AUTO 04003KT 10SM CLR 13/M01 A3022 4100 36 4900 020/03 RMK AO2 SLP188 T01331011
94299KAAT AAT20160803030011008/03/16 03:00:31  5-MIN KAAT 031100Z AUTO 00000KT 10SM CLR 14/M01 A3022 4100 35 5000 000/00 RMK AO2 T01391011
94299KAAT AAT20160803030511008/03/16 03:05:31  5-MIN KAAT 031105Z AUTO 00000KT 10SM CLR 13/M01 A3022 4100 36 4900 000/00 RMK AO2 T01331011
94299KAAT AAT20160803031010908/03/16 03:10:31  5-MIN KAAT 031110Z AUTO 00000KT 10SM CLR 12/01 A3022 4100 46 4700 000/00 RMK AO2 T01170006
94299KAAT AAT20160803031510908/03/16 03:15:31  5-MIN KAAT 031115Z AUTO 14004KT 10SM CLR 12/01 A3023 4100 48 4700 130/04 RMK AO2 T01170011
94299KAAT AAT20160803032010908/03/16 03:20:31  5-MIN KAAT 031120Z AUTO 13003KT 10SM CLR 11/01 A3023 4100 50 4600 110/03 RMK AO2 T01110011
94299KAAT AAT20160803032510908/03/16 03:25:31  5-MIN KAAT 031125Z AUTO 00000KT 10SM CLR 11/01 A3023 4100 50 4600 000/00 RMK AO2 T01110011
94299KAAT AAT20160803033010908/03/16 03:30:31  5-MIN KAAT 031130Z AUTO 14003KT 10SM CLR 10/01 A3023 4100 54 4500 130/03 RMK AO2 T01000011
94299KAAT AAT20160803033510908/03/16 03:35:31  5-MIN KAAT 031135Z AUTO 00000KT 10SM CLR 10/01 A3023 4100 54 4500 000/00 RMK AO2 T01000011
94299KAAT AAT20160803034010908/03/16 03:40:31  5-MIN KAAT 031140Z AUTO 00000KT 10SM CLR 10/01 A3023 4100 54 4500 000/00 RMK AO2 T01000011
94299KAAT AAT20160803034510908/03/16 03:45:31  5-MIN KAAT 031145Z AUTO 07003KT 10SM CLR 11/02 A3023 4100 54 4600 060/03 RMK AO2 T01060017
94299KAAT AAT20160803035013408/03/16 03:50:31  5-MIN KAAT 031150Z AUTO 03004KT 10SM CLR 11/01 A3023 4100 48 4600 020/04 RMK AO2 SLP193 T01110006 10206 20100 51007
94299KAAT AAT20160803035513408/03/16 03:55:31  5-MIN KAAT 031155Z AUTO 01003KT 10SM CLR 11/01 A3023 4090 50 4600 360/03 RMK AO2 SLP194 T01060006 10206 20100 52008
94299KAAT AAT20160803040010908/03/16 04:00:31  5-MIN KAAT 031200Z AUTO 00000KT 10SM CLR 08/01 A3023 4090 58 4300 000/00 RMK AO2 T00830006
94299KAAT AAT20160803040510908/03/16 04:05:31  5-MIN KAAT 031205Z AUTO 00000KT 10SM CLR 09/01 A3023 4100 58 4400 000/00 RMK AO2 T00890011
94299KAAT AAT20160803041010908/03/16 04:10:31  5-MIN KAAT 031210Z AUTO 00000KT 10SM CLR 11/01 A3023 4100 52 4600 000/00 RMK AO2 T01060011
94299KAAT AAT20160803041510908/03/16 04:15:31  5-MIN KAAT 031215Z AUTO 00000KT 10SM CLR 10/01 A3023 4100 52 4500 000/00 RMK AO2 T01000006
94299KAAT AAT20160803042010908/03/16 04:20:31  5-MIN KAAT 031220Z AUTO 15006KT 10SM CLR 08/01 A3023 4090 58 4300 140/06 RMK AO2 T00830006
94299KAAT AAT20160803042510908/03/16 04:25:31  5-MIN KAAT 031225Z AUTO 14005KT 10SM CLR 08/02 A3024 4090 63 4300 120/05 RMK AO2 T00830017
94299KAAT AAT20160803043010908/03/16 04:30:31  5-MIN KAAT 031230Z AUTO 13004KT 10SM CLR 09/02 A3023 4090 60 4400 120/04 RMK AO2 T00890017
94299KAAT AAT20160803043510908/03/16 04:35:31  5-MIN KAAT 031235Z AUTO 16003KT 10SM CLR 08/02 A3024 4090 63 4300 140/03 RMK AO2 T00830017
94299KAAT AAT20160803044010908/03/16 04:40:31  5-MIN KAAT 031240Z AUTO 15003KT 10SM CLR 07/01 A3024 4090 65 4200 130/03 RMK AO2 T00720011
94299KAAT AAT20160803044510908/03/16 04:45:31  5-MIN KAAT 031245Z AUTO 15003KT 10SM CLR 07/02 A3024 4090 68 4200 130/03 RMK AO2 T00720017
94299KAAT AAT20160803045011608/03/16 04:50:31  5-MIN KAAT 031250Z AUTO 00000KT 10SM CLR 08/02 A3024 4090 68 4200 000/00 RMK AO2 SLP201 T00780022
94299KAAT AAT20160803045511608/03/16 04:55:31  5-MIN KAAT 031255Z AUTO 00000KT 10SM CLR 08/02 A3024 4090 68 4200 000/00 RMK AO2 SLP201 T00780022
94299KAAT AAT20160803050010908/03/16 05:00:31  5-MIN KAAT 031300Z AUTO 00000KT 10SM CLR 08/02 A3024 4090 68 4200 000/00 RMK AO2 T00780022
94299KAAT AAT20160803050510908/03/16 05:05:31  5-MIN KAAT 031305Z AUTO 00000KT 10SM CLR 08/03 A3024 4090 68 4300 000/00 RMK AO2 T00830028
94299KAAT AAT20160803051010908/03/16 05:10:31  5-MIN KAAT 031310Z AUTO 00000KT 10SM CLR 08/02 A3024 4090 68 4200 000/00 RMK AO2 T00780022
94299KAAT AAT20160803051510908/03/16 05:15:31  5-MIN KAAT 031315Z AUTO 07003KT 10SM CLR 07/02 A3024 4090 70 4200 050/03 RMK AO2 T00720022
94299KAAT AAT20160803052010908/03/16 05:20:31  5-MIN KAAT 031320Z AUTO 07004KT 10SM CLR 08/02 A3024 4080 68 4200 050/04 RMK AO2 T00780022
94299KAAT AAT20160803052510908/03/16 05:25:31  5-MIN KAAT 031325Z AUTO 07005KT 10SM CLR 08/02 A3025 4080 65 4300 050/05 RMK AO2 T00830022
94299KAAT AAT20160803053010908/03/16 05:30:31  5-MIN KAAT 031330Z AUTO 07005KT 10SM CLR 09/02 A3025 4080 63 4300 060/05 RMK AO2 T00890022
94299KAAT AAT20160803053510908/03/16 05:35:31  5-MIN KAAT 031335Z AUTO 08004KT 10SM CLR 09/02 A3025 4080 60 4400 070/04 RMK AO2 T00940022
94299KAAT AAT20160803054010908/03/16 05:40:31  5-MIN KAAT 031340Z AUTO 08003KT 10SM CLR 09/02 A3025 4080 60 4400 060/03 RMK AO2 T00940022
94299KAAT AAT20160803054510908/03/16 05:45:31  5-MIN KAAT 031345Z AUTO 00000KT 10SM CLR 09/02 A3025 4080 58 4400 000/00 RMK AO2 T00940017
94299KAAT AAT20160803055011608/03/16 05:50:31  5-MIN KAAT 031350Z AUTO 09003KT 10SM CLR 09/02 A3025 4080 60 4300 070/03 RMK AO2 SLP207 T00890017
94299KAAT AAT20160803055510608/03/16 05:55:31  5-MIN KAAT 031355Z AUTO 10SM CLR 11/02 A3025 4080 56 4500 M /M RMK AO2 SLP204 T01060022
94299KAAT AAT20160803060009908/03/16 06:00:31  5-MIN KAAT 031400Z AUTO 10SM CLR 11/02 A3025 4080 56 4500 M /M RMK AO2 T01060022
94299KAAT AAT20160803060510908/03/16 06:05:31  5-MIN KAAT 031405Z AUTO 07004KT 10SM CLR 11/02 A3025 4080 54 4600 050/04 RMK AO2 T01110022
94299KAAT AAT20160803061010908/03/16 06:10:31  5-MIN KAAT 031410Z AUTO 07004KT 10SM CLR 11/02 A3025 4080 54 4600 050/04 RMK AO2 T01110022
94299KAAT AAT20160803061510908/03/16 06:15:31  5-MIN KAAT 031415Z AUTO 07004KT 10SM CLR 11/02 A3025 4080 54 4600 050/04 RMK AO2 T01110022
94299KAAT AAT20160803062010908/03/16 06:20:31  5-MIN KAAT 031420Z AUTO 07004KT 10SM CLR 12/02 A3025 4070 52 4700 060/04 RMK AO2 T01170022
94299KAAT AAT20160803062510908/03/16 06:25:31  5-MIN KAAT 031425Z AUTO 08004KT 10SM CLR 12/03 A3026 4070 54 4700 060/04 RMK AO2 T01170028
94299KAAT AAT20160803063010908/03/16 06:30:31  5-MIN KAAT 031430Z AUTO 07004KT 10SM CLR 12/03 A3026 4070 52 4700 060/04 RMK AO2 T01220028
94299KAAT AAT20160803063510908/03/16 06:35:31  5-MIN KAAT 031435Z AUTO 08004KT 10SM CLR 12/02 A3025 4070 50 4700 060/04 RMK AO2 T01220022
94299KAAT AAT20160803064010908/03/16 06:40:31  5-MIN KAAT 031440Z AUTO 08003KT 10SM CLR 13/03 A3025 4070 50 4800 060/03 RMK AO2 T01280028
94299KAAT AAT20160803064510908/03/16 06:45:31  5-MIN KAAT 031445Z AUTO 08003KT 10SM CLR 13/03 A3025 4070 50 4800 060/03 RMK AO2 T01280028
94299KAAT AAT20160803065012208/03/16 06:50:31  5-MIN KAAT 031450Z AUTO 08003KT 10SM CLR 13/02 A3025 4070 46 4900 070/03 RMK AO2 SLP206 T01330022 52008
94299KAAT AAT20160803065512208/03/16 06:55:31  5-MIN KAAT 031455Z AUTO 05003KT 10SM CLR 13/02 A3025 4070 46 4900 040/03 RMK AO2 SLP206 T01330022 51006
94299KAAT AAT20160803070010908/03/16 07:00:31  5-MIN KAAT 031500Z AUTO 05003KT 10SM CLR 14/02 A3025 4080 45 4900 040/03 RMK AO2 T01390022
94299KAAT AAT20160803070510908/03/16 07:05:31  5-MIN KAAT 031505Z AUTO 04004KT 10SM CLR 14/02 A3025 4080 45 4900 030/04 RMK AO2 T01390022
94299KAAT AAT20160803071010908/03/16 07:10:31  5-MIN KAAT 031510Z AUTO 00000KT 10SM CLR 14/02 A3025 4080 43 5000 000/00 RMK AO2 T01440022
94299KAAT AAT20160803071510908/03/16 07:15:31  5-MIN KAAT 031515Z AUTO 00000KT 10SM CLR 14/02 A3025 4080 45 4900 000/00 RMK AO2 T01390022
94299KAAT AAT20160803072010908/03/16 07:20:31  5-MIN KAAT 031520Z AUTO 08003KT 10SM CLR 14/02 A3025 4080 43 5000 070/03 RMK AO2 T01440022
94299KAAT AAT20160803072510908/03/16 07:25:31  5-MIN KAAT 031525Z AUTO 09003KT 10SM CLR 14/02 A3025 4080 43 5000 080/03 RMK AO2 T01440022
94299KAAT AAT20160803073010908/03/16 07:30:31  5-MIN KAAT 031530Z AUTO 10006KT 10SM CLR 14/02 A3025 4080 41 5000 090/06 RMK AO2 T01440017
94299KAAT AAT20160803073510908/03/16 07:35:31  5-MIN KAAT 031535Z AUTO 11004KT 10SM CLR 15/01 A3025 4080 38 5100 090/04 RMK AO2 T01500011
94299KAAT AAT20160803074010908/03/16 07:40:31  5-MIN KAAT 031540Z AUTO 09004KT 10SM CLR 16/01 A3025 4080 37 5100 070/04 RMK AO2 T01560011
94299KAAT AAT20160803074510908/03/16 07:45:31  5-MIN KAAT 031545Z AUTO 10004KT 10SM CLR 16/01 A3025 4080 36 5200 090/04 RMK AO2 T01610011
94299KAAT AAT20160803075011608/03/16 07:50:31  5-MIN KAAT 031550Z AUTO 07004KT 10SM CLR 16/01 A3025 4080 36 5200 050/04 RMK AO2 SLP203 T01610011
94299KAAT AAT20160803075511608/03/16 07:55:31  5-MIN KAAT 031555Z AUTO 08005KT 10SM CLR 17/01 A3025 4080 34 5200 070/05 RMK AO2 SLP201 T01670011
94299KAAT AAT20160803080010908/03/16 08:00:31  5-MIN KAAT 031600Z AUTO 10003KT 10SM CLR 16/02 A3024 4080 37 5200 080/03 RMK AO2 T01610017
94299KAAT AAT20160803080510908/03/16 08:05:31  5-MIN KAAT 031605Z AUTO 10004KT 10SM CLR 16/02 A3024 4080 37 5200 090/04 RMK AO2 T01610017
94299KAAT AAT20160803081010908/03/16 08:10:31  5-MIN KAAT 031610Z AUTO VRB03KT 10SM CLR 17/02 A3024 4080 37 5300 VRB/03 RMK AO2 T01670022
94299KAAT AAT20160803081510908/03/16 08:15:31  5-MIN KAAT 031615Z AUTO 10005KT 10SM CLR 17/02 A3024 4080 37 5300 080/05 RMK AO2 T01670022
94299KAAT AAT20160803082010908/03/16 08:20:31  5-MIN KAAT 031620Z AUTO 08005KT 10SM CLR 17/02 A3024 4080 35 5300 060/05 RMK AO2 T01720017
94299KAAT AAT20160803082510908/03/16 08:25:31  5-MIN KAAT 031625Z AUTO 10003KT 10SM CLR 18/02 A3024 4090 33 5400 090/03 RMK AO2 T01780017
94299KAAT AAT20160803083010908/03/16 08:30:31  5-MIN KAAT 031630Z AUTO VRB03KT 10SM CLR 18/02 A3024 4090 33 5400 VRB/03 RMK AO2 T01780017
94299KAAT AAT20160803083510908/03/16 08:35:31  5-MIN KAAT 031635Z AUTO 10004KT 10SM CLR 18/02 A3024 4090 33 5400 090/04 RMK AO2 T01780017
94299KAAT AAT20160803084010908/03/16 08:40:31  5-MIN KAAT 031640Z AUTO VRB03KT 10SM CLR 18/01 A3024 4090 31 5400 VRB/03 RMK AO2 T01830011
94299KAAT AAT20160803084510908/03/16 08:45:31  5-MIN KAAT 031645Z AUTO VRB03KT 10SM CLR 18/01 A3024 4090 31 5400 VRB/03 RMK AO2 T01830011
94299KAAT AAT20160803085011608/03/16 08:50:31  5-MIN KAAT 031650Z AUTO 00000KT 10SM CLR 18/01 A3024 4090 30 5400 000/00 RMK AO2 SLP200 T01830006
94299KAAT AAT20160803085511608/03/16 08:55:31  5-MIN KAAT 031655Z AUTO 00000KT 10SM CLR 18/01 A3024 4090 30 5400 000/00 RMK AO2 SLP199 T01830006
94299KAAT AAT20160803090010908/03/16 09:00:31  5-MIN KAAT 031700Z AUTO VRB03KT 10SM CLR 18/01 A3024 4090 30 5400 VRB/03 RMK AO2 T01830006
94299KAAT AAT20160803090510908/03/16 09:05:31  5-MIN KAAT 031705Z AUTO VRB03KT 10SM CLR 19/01 A3024 4090 30 5500 VRB/03 RMK AO2 T01890011
94299KAAT AAT20160803091010908/03/16 09:10:31  5-MIN KAAT 031710Z AUTO 00000KT 10SM CLR 19/01 A3023 4090 30 5500 000/00 RMK AO2 T01890011
94299KAAT AAT20160803091510908/03/16 09:15:31  5-MIN KAAT 031715Z AUTO VRB04KT 10SM CLR 20/01 A3023 4090 28 5600 VRB/04 RMK AO2 T02000011
94299KAAT AAT20160803092010908/03/16 09:20:31  5-MIN KAAT 031720Z AUTO 00000KT 10SM CLR 20/01 A3023 4100 28 5600 000/00 RMK AO2 T02000011
94299KAAT AAT20160803092510908/03/16 09:25:31  5-MIN KAAT 031725Z AUTO 05005KT 10SM CLR 21/01 A3023 4100 27 5700 030/05 RMK AO2 T02060011
94299KAAT AAT20160803093010908/03/16 09:30:31  5-MIN KAAT 031730Z AUTO 00000KT 10SM CLR 20/01 A3023 4100 28 5600 000/00 RMK AO2 T02000011
94299KAAT AAT20160803093510908/03/16 09:35:31  5-MIN KAAT 031735Z AUTO VRB03KT 10SM CLR 21/01 A3023 4100 26 5800 VRB/03 RMK AO2 T02110011
94299KAAT AAT20160803094010908/03/16 09:40:31  5-MIN KAAT 031740Z AUTO 05005KT 10SM CLR 22/02 A3023 4100 26 5800 040/05 RMK AO2 T02170017
94299KAAT AAT20160803094510908/03/16 09:45:31  5-MIN KAAT 031745Z AUTO 08004KT 10SM CLR 22/02 A3023 4100 26 5800 070/04 RMK AO2 T02170017
94299KAAT AAT20160803095013408/03/16 09:50:31  5-MIN KAAT 031750Z AUTO 00000KT 10SM CLR 22/02 A3023 4100 26 5800 000/00 RMK AO2 SLP194 T02170017 10217 20067 51006
94299KAAT AAT20160803095513408/03/16 09:55:31  5-MIN KAAT 031755Z AUTO 10003KT 10SM CLR 22/02 A3023 4100 26 5800 090/03 RMK AO2 SLP192 T02170017 10217 20067 58008
94299KAAT AAT20160803100010908/03/16 10:00:31  5-MIN KAAT 031800Z AUTO 12003KT 10SM CLR 22/02 A3023 4100 25 5900 100/03 RMK AO2 T02220017
94299KAAT AAT20160803100510908/03/16 10:05:31  5-MIN KAAT 031805Z AUTO 00000KT 10SM CLR 23/02 A3022 4100 24 6000 000/00 RMK AO2 T02280017
94299KAAT AAT20160803101010908/03/16 10:10:31  5-MIN KAAT 031810Z AUTO VRB03KT 10SM CLR 23/02 A3022 4100 24 6000 VRB/03 RMK AO2 T02280017
94299KAAT AAT20160803101510908/03/16 10:15:31  5-MIN KAAT 031815Z AUTO VRB04KT 10SM CLR 23/02 A3022 4110 24 6000 VRB/04 RMK AO2 T02280017
94299KAAT AAT20160803102010908/03/16 10:20:31  5-MIN KAAT 031820Z AUTO VRB03KT 10SM CLR 24/02 A3022 4110 23 6100 VRB/03 RMK AO2 T02390017
94299KAAT AAT20160803102510908/03/16 10:25:31  5-MIN KAAT 031825Z AUTO VRB03KT 10SM CLR 23/02 A3022 4110 24 6000 VRB/03 RMK AO2 T02330017
94299KAAT AAT20160803103010908/03/16 10:30:31  5-MIN KAAT 031830Z AUTO 00000KT 10SM CLR 23/01 A3022 4110 23 6000 000/00 RMK AO2 T02330011
94299KAAT AAT20160803103511008/03/16 10:35:31  5-MIN KAAT 031835Z AUTO VRB05KT 10SM CLR 25/M01 A3022 4110 18 6200 VRB/05 RMK AO2 T02501006
94299KAAT AAT20160803104011008/03/16 10:40:31  5-MIN KAAT 031840Z AUTO VRB04KT 10SM CLR 25/M01 A3022 4110 17 6200 VRB/04 RMK AO2 T02501011
94299KAAT AAT20160803104511008/03/16 10:45:31  5-MIN KAAT 031845Z AUTO VRB03KT 10SM CLR 26/M02 A3021 4110 16 6300 VRB/03 RMK AO2 T02561017
94299KAAT AAT20160803105011708/03/16 10:50:31  5-MIN KAAT 031850Z AUTO VRB03KT 10SM CLR 26/M02 A3021 4110 16 6300 VRB/03 RMK AO2 SLP187 T02561017
94299KAAT AAT20160803105511708/03/16 10:55:31  5-MIN KAAT 031855Z AUTO VRB03KT 10SM CLR 26/M02 A3021 4110 16 6300 VRB/03 RMK AO2 SLP186 T02561017
94299KAAT AAT20160803110011008/03/16 11:00:31  5-MIN KAAT 031900Z AUTO VRB05KT 10SM CLR 27/M02 A3021 4120 15 6400 VRB/05 RMK AO2 T02671017
94299KAAT AAT20160803110511008/03/16 11:05:31  5-MIN KAAT 031905Z AUTO 04004KT 10SM CLR 27/M03 A3020 4120 13 6400 030/04 RMK AO2 T02671033
94299KAAT AAT20160803111011008/03/16 11:10:31  5-MIN KAAT 031910Z AUTO VRB05KT 10SM CLR 26/M03 A3020 4120 14 6300 VRB/05 RMK AO2 T02611033
94299KAAT AAT20160803111511008/03/16 11:15:31  5-MIN KAAT 031915Z AUTO VRB05KT 10SM CLR 26/M03 A3020 4120 14 6300 VRB/05 RMK AO2 T02611033
94299KAAT AAT20160803112011008/03/16 11:20:31  5-MIN KAAT 031920Z AUTO VRB05KT 10SM CLR 27/M03 A3020 4120 13 6400 VRB/05 RMK AO2 T02671033
94299KAAT AAT20160803112511008/03/16 11:25:31  5-MIN KAAT 031925Z AUTO VRB04KT 10SM CLR 27/M04 A3020 4120 12 6500 VRB/04 RMK AO2 T02721039
94299KAAT AAT20160803113011008/03/16 11:30:31  5-MIN KAAT 031930Z AUTO VRB05KT 10SM CLR 27/M04 A3020 4130 13 6400 VRB/05 RMK AO2 T02671039
94299KAAT AAT20160803113511008/03/16 11:35:31  5-MIN KAAT 031935Z AUTO VRB05KT 10SM CLR 27/M04 A3020 4130 12 6500 VRB/05 RMK AO2 T02721044
94299KAAT AAT20160803114011008/03/16 11:40:31  5-MIN KAAT 031940Z AUTO VRB03KT 10SM CLR 27/M04 A3019 4130 12 6500 VRB/03 RMK AO2 T02721039
94299KAAT AAT20160803114511008/03/16 11:45:31  5-MIN KAAT 031945Z AUTO 30004KT 10SM CLR 28/M04 A3019 4130 11 6500 290/04 RMK AO2 T02781044
94299KAAT AAT20160803115011708/03/16 11:50:31  5-MIN KAAT 031950Z AUTO VRB04KT 10SM CLR 28/M04 A3019 4130 11 6500 VRB/04 RMK AO2 SLP180 T02781044
94299KAAT AAT20160803115511708/03/16 11:55:31  5-MIN KAAT 031955Z AUTO VRB03KT 10SM CLR 28/M03 A3019 4130 12 6500 VRB/03 RMK AO2 SLP180 T02781033
94299KAAT AAT20160803120011008/03/16 12:00:31  5-MIN KAAT 032000Z AUTO 35009KT 10SM CLR 28/M03 A3019 4130 12 6600 340/09 RMK AO2 T02831033
94299KAAT AAT20160803120511008/03/16 12:05:31  5-MIN KAAT 032005Z AUTO VRB03KT 10SM CLR 28/M03 A3019 4140 12 6600 VRB/03 RMK AO2 T02831033
94299KAAT AAT20160803121011008/03/16 12:10:31  5-MIN KAAT 032010Z AUTO 00000KT 10SM CLR 28/M04 A3019 4140 12 6500 000/00 RMK AO2 T02781039
94299KAAT AAT20160803121511008/03/16 12:15:31  5-MIN KAAT 032015Z AUTO 32005KT 10SM CLR 28/M04 A3019 4140 12 6500 300/05 RMK AO2 T02781039
94299KAAT AAT20160803122011008/03/16 12:20:31  5-MIN KAAT 032020Z AUTO 00000KT 10SM CLR 28/M04 A3018 4140 12 6600 000/00 RMK AO2 T02831039
94299KAAT AAT20160803122510008/03/16 12:25:31  5-MIN KAAT 032025Z AUTO 10SM CLR 28/M04 A3018 4140 12 6600 M /M RMK AO2 T02781039
94299KAAT AAT20160803123012608/03/16 12:30:31  5-MIN KAAT 032030Z AUTO 34009KT 290V360 10SM CLR 28/M03 A3018 4140 12 6600 320/09 280V350 RMK AO2 T02831033
94299KAAT AAT20160803123511008/03/16 12:35:31  5-MIN KAAT 032035Z AUTO VRB04KT 10SM CLR 28/M04 A3018 4140 12 6600 VRB/04 RMK AO2 T02831039
94299KAAT AAT20160803124011008/03/16 12:40:31  5-MIN KAAT 032040Z AUTO VRB03KT 10SM CLR 28/M04 A3018 4140 11 6600 VRB/03 RMK AO2 T02831044
94299KAAT AAT20160803124511008/03/16 12:45:31  5-MIN KAAT 032045Z AUTO 30005KT 10SM CLR 28/M05 A3018 4140 11 6600 290/05 RMK AO2 T02831050
94299KAAT AAT20160803125012308/03/16 12:50:31  5-MIN KAAT 032050Z AUTO 33005KT 10SM CLR 29/M05 A3017 4150 10 6700 310/05 RMK AO2 SLP174 T02891050 58008
94299KAAT AAT20160803125512308/03/16 12:55:31  5-MIN KAAT 032055Z AUTO 34007KT 10SM CLR 29/M06 A3017 4150 09 6700 330/07 RMK AO2 SLP170 T02941061 58016
94299KAAT AAT20160803130010008/03/16 13:00:31  5-MIN KAAT 032100Z AUTO 10SM CLR 29/M06 A3017 4150 09 6700 M /M RMK AO2 T02891061
94299KAAT AAT20160803130511008/03/16 13:05:31  5-MIN KAAT 032105Z AUTO 27005KT 10SM CLR 29/M08 A3017 4150 08 6700 260/05 RMK AO2 T02891078
94299KAAT AAT20160803131011008/03/16 13:10:31  5-MIN KAAT 032110Z AUTO 00000KT 10SM CLR 28/M08 A3016 4160 08 6600 000/00 RMK AO2 T02831083
94299KAAT AAT20160803131511008/03/16 13:15:31  5-MIN KAAT 032115Z AUTO 34003KT 10SM CLR 29/M07 A3016 4160 08 6800 330/03 RMK AO2 T02941072
94299KAAT AAT20160803132011008/03/16 13:20:31  5-MIN KAAT 032120Z AUTO VRB03KT 10SM CLR 29/M07 A3016 4160 09 6700 VRB/03 RMK AO2 T02891072
94299KAAT AAT20160803132511008/03/16 13:25:31  5-MIN KAAT 032125Z AUTO VRB03KT 10SM CLR 29/M07 A3016 4160 08 6800 VRB/03 RMK AO2 T02941072
94299KAAT AAT20160803133011008/03/16 13:30:31  5-MIN KAAT 032130Z AUTO 00000KT 10SM CLR 29/M08 A3015 4160 08 6800 000/00 RMK AO2 T02941078
94299KAAT AAT20160803133511008/03/16 13:35:31  5-MIN KAAT 032135Z AUTO VRB03KT 10SM CLR 29/M08 A3015 4170 08 6700 VRB/03 RMK AO2 T02891083
94299KAAT AAT20160803134011008/03/16 13:40:31  5-MIN KAAT 032140Z AUTO 13006KT 10SM CLR 29/M09 A3015 4170 07 6800 110/06 RMK AO2 T02941089
94299KAAT AAT20160803134511008/03/16 13:45:31  5-MIN KAAT 032145Z AUTO VRB03KT 10SM CLR 29/M10 A3015 4170 07 6800 VRB/03 RMK AO2 T02941100
94299KAAT AAT20160803135011708/03/16 13:50:31  5-MIN KAAT 032150Z AUTO VRB03KT 10SM CLR 31/M09 A3015 4170 07 6900 VRB/03 RMK AO2 SLP161 T03061094
94299KAAT AAT20160803135511708/03/16 13:55:31  5-MIN KAAT 032155Z AUTO 31005KT 10SM CLR 30/M11 A3015 4170 06 6800 290/05 RMK AO2 SLP160 T03001111
94299KAAT AAT20160803140011008/03/16 14:00:31  5-MIN KAAT 032200Z AUTO VRB06KT 10SM CLR 31/M09 A3014 4170 06 7000 VRB/06 RMK AO2 T03111094
94299KAAT AAT20160803140511008/03/16 14:05:31  5-MIN KAAT 032205Z AUTO VRB05KT 10SM CLR 31/M08 A3014 4180 07 7000 VRB/05 RMK AO2 T03111083
94299KAAT AAT20160803141011008/03/16 14:10:31  5-MIN KAAT 032210Z AUTO 05005KT 10SM CLR 31/M07 A3014 4180 08 6900 040/05 RMK AO2 T03061072
94299KAAT AAT20160803141511008/03/16 14:15:31  5-MIN KAAT 032215Z AUTO VRB03KT 10SM CLR 30/M07 A3014 4180 08 6800 VRB/03 RMK AO2 T03001067
94299KAAT AAT20160803142011008/03/16 14:20:31  5-MIN KAAT 032220Z AUTO 00000KT 10SM CLR 30/M07 A3014 4180 08 6800 000/00 RMK AO2 T03001067
94299KAAT AAT20160803142510008/03/16 14:25:31  5-MIN KAAT 032225Z AUTO 10SM CLR 31/M07 A3014 4180 08 6900 M /M RMK AO2 T03061072
94299KAAT AAT20160803143011008/03/16 14:30:31  5-MIN KAAT 032230Z AUTO 07003KT 10SM CLR 31/M07 A3013 4180 08 6900 060/03 RMK AO2 T03061072
94299KAAT AAT20160803143511008/03/16 14:35:31  5-MIN KAAT 032235Z AUTO 10004KT 10SM CLR 31/M08 A3013 4190 07 7000 080/04 RMK AO2 T03111078
94299KAAT AAT20160803144011008/03/16 14:40:31  5-MIN KAAT 032240Z AUTO 00000KT 10SM CLR 30/M08 A3013 4190 08 6900 000/00 RMK AO2 T03001078
94299KAAT AAT20160803144511008/03/16 14:45:31  5-MIN KAAT 032245Z AUTO VRB03KT 10SM CLR 31/M08 A3013 4190 08 6900 VRB/03 RMK AO2 T03061078
94299KAAT AAT20160803145011708/03/16 14:50:31  5-MIN KAAT 032250Z AUTO VRB06KT 10SM CLR 31/M08 A3012 4190 07 7000 VRB/06 RMK AO2 SLP153 T03111078
94299KAAT AAT20160803145511708/03/16 14:55:31  5-MIN KAAT 032255Z AUTO 08007KT 10SM CLR 31/M07 A3012 4190 08 7000 060/07 RMK AO2 SLP153 T03111072
94299KAAT AAT20160803150011008/03/16 15:00:31  5-MIN KAAT 032300Z AUTO 09008KT 10SM CLR 31/M07 A3012 4200 08 7000 070/08 RMK AO2 T03111072
94299KAAT AAT20160803150511008/03/16 15:05:31  5-MIN KAAT 032305Z AUTO VRB04KT 10SM CLR 31/M08 A3012 4200 08 6900 VRB/04 RMK AO2 T03061078
94299KAAT AAT20160803151011008/03/16 15:10:31  5-MIN KAAT 032310Z AUTO 07007KT 10SM CLR 31/M07 A3012 4200 08 7000 050/07 RMK AO2 T03111072
94299KAAT AAT20160803151511008/03/16 15:15:31  5-MIN KAAT 032315Z AUTO 07007KT 10SM CLR 32/M07 A3012 4200 07 7000 050/07 RMK AO2 T03171072
94299KAAT AAT20160803152011008/03/16 15:20:31  5-MIN KAAT 032320Z AUTO 09007KT 10SM CLR 32/M07 A3012 4200 07 7000 070/07 RMK AO2 T03171072
94299KAAT AAT20160803152511008/03/16 15:25:31  5-MIN KAAT 032325Z AUTO 07006KT 10SM CLR 31/M08 A3011 4200 07 7000 060/06 RMK AO2 T03111083
94299KAAT AAT20160803153011008/03/16 15:30:31  5-MIN KAAT 032330Z AUTO 08006KT 10SM CLR 32/M08 A3011 4200 07 7000 060/06 RMK AO2 T03171078
94299KAAT AAT20160803153511008/03/16 15:35:31  5-MIN KAAT 032335Z AUTO 03006KT 10SM CLR 32/M08 A3011 4210 07 7000 010/06 RMK AO2 T03171078
94299KAAT AAT20160803154011008/03/16 15:40:31  5-MIN KAAT 032340Z AUTO VRB04KT 10SM CLR 32/M08 A3011 4210 07 7000 VRB/04 RMK AO2 T03171083
94299KAAT AAT20160803154511008/03/16 15:45:31  5-MIN KAAT 032345Z AUTO VRB03KT 10SM CLR 32/M08 A3011 4210 07 7100 VRB/03 RMK AO2 T03171083
94299KAAT AAT20160803155013508/03/16 15:50:31  5-MIN KAAT 032350Z AUTO VRB04KT 10SM CLR 31/M09 A3011 4210 07 7000 VRB/04 RMK AO2 SLP150 T03111089 10317 20217 58016
94299KAAT AAT20160803155513508/03/16 15:55:31  5-MIN KAAT 032355Z AUTO 05006KT 10SM CLR 32/M08 A3011 4210 07 7100 030/06 RMK AO2 SLP150 T03171083 10317 20217 56019
94299KAAT AAT20160803160011008/03/16 16:00:31  5-MIN KAAT 040000Z AUTO 02004KT 10SM CLR 32/M09 A3010 4210 06 7100 010/04 RMK AO2 T03171089
94299KAAT AAT20160803160511008/03/16 16:05:31  5-MIN KAAT 040005Z AUTO 00000KT 10SM CLR 31/M09 A3010 4210 07 7000 000/00 RMK AO2 T03111089
94299KAAT AAT20160803161010008/03/16 16:10:31  5-MIN KAAT 040010Z AUTO 10SM CLR 31/M09 A3010 4210 07 7000 M /M RMK AO2 T03111089
94299KAAT AAT20160803161511008/03/16 16:15:31  5-MIN KAAT 040015Z AUTO 00000KT 10SM CLR 31/M09 A3010 4220 07 6900 000/00 RMK AO2 T03061094
94299KAAT AAT20160803162011008/03/16 16:20:31  5-MIN KAAT 040020Z AUTO VRB05KT 10SM CLR 31/M09 A3010 4220 07 7000 VRB/05 RMK AO2 T03111089
94299KAAT AAT20160803162511008/03/16 16:25:31  5-MIN KAAT 040025Z AUTO 34005KT 10SM CLR 32/M09 A3010 4220 06 7100 330/05 RMK AO2 T03171089
94299KAAT AAT20160803163011008/03/16 16:30:31  5-MIN KAAT 040030Z AUTO 31005KT 10SM CLR 31/M09 A3010 4220 06 7000 290/05 RMK AO2 T03111094
94299KAAT AAT20160803163511008/03/16 16:35:31  5-MIN KAAT 040035Z AUTO VRB03KT 10SM CLR 31/M10 A3009 4220 06 7000 VRB/03 RMK AO2 T03111100
94299KAAT AAT20160803164011008/03/16 16:40:31  5-MIN KAAT 040040Z AUTO 03005KT 10SM CLR 32/M09 A3009 4220 06 7100 010/05 RMK AO2 T03171094
94299KAAT AAT20160803164511008/03/16 16:45:31  5-MIN KAAT 040045Z AUTO 01004KT 10SM CLR 32/M09 A3009 4220 06 7100 360/04 RMK AO2 T03171094
94299KAAT AAT20160803165011708/03/16 16:50:31  5-MIN KAAT 040050Z AUTO 00000KT 10SM CLR 31/M10 A3009 4230 06 7000 000/00 RMK AO2 SLP148 T03111100
94299KAAT AAT20160803165511708/03/16 16:55:31  5-MIN KAAT 040055Z AUTO 05003KT 10SM CLR 32/M09 A3008 4230 06 7100 030/03 RMK AO2 SLP146 T03171094
94299KAAT AAT20160803170011008/03/16 17:00:31  5-MIN KAAT 040100Z AUTO 04008KT 10SM CLR 32/M09 A3008 4230 06 7100 020/08 RMK AO2 T03171094
94299KAAT AAT20160803170511008/03/16 17:05:31  5-MIN KAAT 040105Z AUTO 02006KT 10SM CLR 31/M09 A3008 4230 06 7000 360/06 RMK AO2 T03111094
94299KAAT AAT20160803171011008/03/16 17:10:31  5-MIN KAAT 040110Z AUTO 35009KT 10SM CLR 31/M09 A3008 4230 06 7000 340/09 RMK AO2 T03111094
94299KAAT AAT20160803171511008/03/16 17:15:31  5-MIN KAAT 040115Z AUTO 02008KT 10SM CLR 31/M10 A3008 4240 06 7000 360/08 RMK AO2 T03111100
94299KAAT AAT20160803172011008/03/16 17:20:31  5-MIN KAAT 040120Z AUTO 02009KT 10SM CLR 31/M10 A3008 4240 06 7000 360/09 RMK AO2 T03111100
94299KAAT AAT20160803172511008/03/16 17:25:31  5-MIN KAAT 040125Z AUTO 01007KT 10SM CLR 31/M10 A3007 4240 06 7000 350/07 RMK AO2 T03111100
94299KAAT AAT20160803173011008/03/16 17:30:31  5-MIN KAAT 040130Z AUTO 35005KT 10SM CLR 31/M11 A3007 4240 06 7000 340/05 RMK AO2 T03061106
94299KAAT AAT20160803173511008/03/16 17:35:31  5-MIN KAAT 040135Z AUTO 33004KT 10SM CLR 31/M11 A3007 4240 06 7000 320/04 RMK AO2 T03061106
94299KAAT AAT20160803174011008/03/16 17:40:31  5-MIN KAAT 040140Z AUTO 35003KT 10SM CLR 31/M11 A3007 4240 06 7000 330/03 RMK AO2 T03061106
94299KAAT AAT20160803174510008/03/16 17:45:31  5-MIN KAAT 040145Z AUTO 10SM CLR 31/M10 A3007 4240 06 7000 M /M RMK AO2 T03061100
94299KAAT AAT20160803175011708/03/16 17:50:31  5-MIN KAAT 040150Z AUTO 03009KT 10SM CLR 30/M11 A3007 4240 06 6900 010/09 RMK AO2 SLP143 T03001106
94299KAAT AAT20160803175511708/03/16 17:55:31  5-MIN KAAT 040155Z AUTO 02008KT 10SM CLR 30/M10 A3007 4240 07 6900 010/08 RMK AO2 SLP140 T03001100
94299KAAT AAT20160803180011008/03/16 18:00:31  5-MIN KAAT 040200Z AUTO 04010KT 10SM CLR 30/M10 A3007 4240 07 6900 030/10 RMK AO2 T03001100
94299KAAT AAT20160803180511008/03/16 18:05:31  5-MIN KAAT 040205Z AUTO 04009KT 10SM CLR 29/M11 A3007 4240 06 6900 020/09 RMK AO2 T02941106
94299KAAT AAT20160803181011008/03/16 18:10:31  5-MIN KAAT 040210Z AUTO 03007KT 10SM CLR 29/M11 A3007 4240 06 6900 010/07 RMK AO2 T02941106
94299KAAT AAT20160803181511008/03/16 18:15:31  5-MIN KAAT 040215Z AUTO 02009KT 10SM CLR 29/M11 A3007 4240 06 6900 010/09 RMK AO2 T02941106
94299KAAT AAT20160803182011008/03/16 18:20:31  5-MIN KAAT 040220Z AUTO 02009KT 10SM CLR 29/M11 A3007 4240 07 6800 360/09 RMK AO2 T02891106
94299KAAT AAT20160803182511008/03/16 18:25:31  5-MIN KAAT 040225Z AUTO 02008KT 10SM CLR 29/M11 A3007 4240 07 6800 360/08 RMK AO2 T02891106
94299KAAT AAT20160803183011008/03/16 18:30:31  5-MIN KAAT 040230Z AUTO 02009KT 10SM CLR 28/M10 A3007 4240 07 6700 010/09 RMK AO2 T02831100
94299KAAT AAT20160803183511008/03/16 18:35:31  5-MIN KAAT 040235Z AUTO 02008KT 10SM CLR 28/M09 A3007 4240 08 6700 360/08 RMK AO2 T02831094
94299KAAT AAT20160803184011008/03/16 18:40:31  5-MIN KAAT 040240Z AUTO 02007KT 10SM CLR 28/M09 A3007 4240 08 6700 010/07 RMK AO2 T02831094
94299KAAT AAT20160803184511008/03/16 18:45:31  5-MIN KAAT 040245Z AUTO 03007KT 10SM CLR 28/M09 A3008 4240 08 6700 010/07 RMK AO2 T02781089
94299KAAT AAT20160803185012308/03/16 18:50:31  5-MIN KAAT 040250Z AUTO 01006KT 10SM CLR 27/M08 A3008 4240 09 6600 360/06 RMK AO2 SLP142 T02721083 56019
94299KAAT AAT20160803185512308/03/16 18:55:31  5-MIN KAAT 040255Z AUTO 02005KT 10SM CLR 27/M08 A3008 4240 09 6600 010/05 RMK AO2 SLP142 T02721083 55009
94299KAAT AAT20160803190011008/03/16 19:00:31  5-MIN KAAT 040300Z AUTO 02006KT 10SM CLR 27/M08 A3008 4240 09 6500 010/06 RMK AO2 T02671078
94299KAAT AAT20160803190511008/03/16 19:05:31  5-MIN KAAT 040305Z AUTO 02007KT 10SM CLR 26/M06 A3008 4240 11 6500 360/07 RMK AO2 T02611061
94299KAAT AAT20160803191011008/03/16 19:10:31  5-MIN KAAT 040310Z AUTO 02008KT 10SM CLR 26/M06 A3008 4240 12 6400 360/08 RMK AO2 T02561056
94299KAAT AAT20160803191511008/03/16 19:15:31  5-MIN KAAT 040315Z AUTO 02008KT 10SM CLR 26/M06 A3008 4230 12 6400 360/08 RMK AO2 T02561056
94299KAAT AAT20160803192011008/03/16 19:20:31  5-MIN KAAT 040320Z AUTO 02006KT 10SM CLR 25/M06 A3008 4230 12 6400 360/06 RMK AO2 T02501056
94299KAAT AAT20160803192511008/03/16 19:25:31  5-MIN KAAT 040325Z AUTO 02007KT 10SM CLR 25/M06 A3008 4230 12 6400 360/07 RMK AO2 T02501056
94299KAAT AAT20160803193011008/03/16 19:30:31  5-MIN KAAT 040330Z AUTO 02007KT 10SM CLR 24/M06 A3008 4230 12 6300 360/07 RMK AO2 T02441061
94299KAAT AAT20160803193511008/03/16 19:35:31  5-MIN KAAT 040335Z AUTO 02007KT 10SM CLR 24/M06 A3008 4230 12 6300 360/07 RMK AO2 T02441061
94299KAAT AAT20160803194011008/03/16 19:40:31  5-MIN KAAT 040340Z AUTO 02007KT 10SM CLR 24/M06 A3008 4230 13 6300 360/07 RMK AO2 T02441056
94299KAAT AAT20160803194511008/03/16 19:45:31  5-MIN KAAT 040345Z AUTO 02007KT 10SM CLR 24/M06 A3008 4230 13 6200 360/07 RMK AO2 T02391056
94299KAAT AAT20160803195011708/03/16 19:50:31  5-MIN KAAT 040350Z AUTO 02007KT 10SM CLR 24/M06 A3008 4230 13 6200 360/07 RMK AO2 SLP146 T02391056
94299KAAT AAT20160803195511708/03/16 19:55:31  5-MIN KAAT 040355Z AUTO 02007KT 10SM CLR 24/M06 A3009 4230 13 6200 010/07 RMK AO2 SLP145 T02391056
94299KAAT AAT20160803200011008/03/16 20:00:31  5-MIN KAAT 040400Z AUTO 03007KT 10SM CLR 24/M05 A3009 4230 14 6200 010/07 RMK AO2 T02391050
94299KAAT AAT20160803200511008/03/16 20:05:31  5-MIN KAAT 040405Z AUTO 02007KT 10SM CLR 24/M05 A3009 4230 14 6200 360/07 RMK AO2 T02391050
94299KAAT AAT20160803201011008/03/16 20:10:31  5-MIN KAAT 040410Z AUTO 01008KT 10SM CLR 24/M05 A3009 4230 14 6200 360/08 RMK AO2 T02391050
94299KAAT AAT20160803201511008/03/16 20:15:31  5-MIN KAAT 040415Z AUTO 02007KT 10SM CLR 24/M04 A3009 4230 14 6200 010/07 RMK AO2 T02391044
94299KAAT AAT20160803202011008/03/16 20:20:31  5-MIN KAAT 040420Z AUTO 02007KT 10SM CLR 23/M04 A3009 4230 16 6200 010/07 RMK AO2 T02331039
94299KAAT AAT20160803202511008/03/16 20:25:31  5-MIN KAAT 040425Z AUTO 03006KT 10SM CLR 23/M03 A3009 4230 17 6100 010/06 RMK AO2 T02281033
94299KAAT AAT20160803203011008/03/16 20:30:31  5-MIN KAAT 040430Z AUTO 03007KT 10SM CLR 23/M02 A3009 4230 18 6200 010/07 RMK AO2 T02331022
94299KAAT AAT20160803203511008/03/16 20:35:31  5-MIN KAAT 040435Z AUTO 02008KT 10SM CLR 23/M01 A3009 4230 20 6100 360/08 RMK AO2 T02281011
94299KAAT AAT20160803204011008/03/16 20:40:31  5-MIN KAAT 040440Z AUTO 02008KT 10SM CLR 23/M01 A3009 4230 20 6100 010/08 RMK AO2 T02281011
94299KAAT AAT20160803204511008/03/16 20:45:31  5-MIN KAAT 040445Z AUTO 02007KT 10SM CLR 23/M01 A3009 4230 20 6100 010/07 RMK AO2 T02281011
94299KAAT AAT20160803205011708/03/16 20:50:31  5-MIN KAAT 040450Z AUTO 02006KT 10SM CLR 22/M01 A3009 4220 21 6000 010/06 RMK AO2 SLP147 T02221011
94299KAAT AAT20160803205511708/03/16 20:55:31  5-MIN KAAT 040455Z AUTO 03006KT 10SM CLR 22/M01 A3009 4220 21 6000 010/06 RMK AO2 SLP147 T02221011
94299KAAT AAT20160803210011008/03/16 21:00:31  5-MIN KAAT 040500Z AUTO 03006KT 10SM CLR 22/M02 A3009 4220 20 6000 020/06 RMK AO2 T02171017
94299KAAT AAT20160803210511008/03/16 21:05:31  5-MIN KAAT 040505Z AUTO 05004KT 10SM CLR 22/M02 A3009 4220 20 6000 040/04 RMK AO2 T02171017
94299KAAT AAT20160803211011008/03/16 21:10:31  5-MIN KAAT 040510Z AUTO 07003KT 10SM CLR 21/M02 A3009 4220 21 5900 060/03 RMK AO2 T02111017
94299KAAT AAT20160803211511008/03/16 21:15:31  5-MIN KAAT 040515Z AUTO 00000KT 10SM CLR 21/M02 A3009 4220 21 5900 000/00 RMK AO2 T02111017
94299KAAT AAT20160803212011008/03/16 21:20:31  5-MIN KAAT 040520Z AUTO 05003KT 10SM CLR 20/M02 A3009 4220 23 5800 030/03 RMK AO2 T02001017
94299KAAT AAT20160803212511008/03/16 21:25:31  5-MIN KAAT 040525Z AUTO 00000KT 10SM CLR 19/M02 A3009 4220 24 5700 000/00 RMK AO2 T01941017
94299KAAT AAT20160803213011008/03/16 21:30:31  5-MIN KAAT 040530Z AUTO 16003KT 10SM CLR 17/M01 A3009 4220 29 5400 150/03 RMK AO2 T01671011
94299KAAT AAT20160803213511008/03/16 21:35:31  5-MIN KAAT 040535Z AUTO 00000KT 10SM CLR 17/M01 A3009 4220 31 5400 000/00 RMK AO2 T01671006
94299KAAT AAT20160803214010908/03/16 21:40:31  5-MIN KAAT 040540Z AUTO 03003KT 10SM CLR 17/00 A3009 4220 32 5400 010/03 RMK AO2 T01670000
94299KAAT AAT20160803214511008/03/16 21:45:31  5-MIN KAAT 040545Z AUTO 02004KT 10SM CLR 18/M02 A3009 4220 26 5500 010/04 RMK AO2 T01781017
94299KAAT AAT20160803215013508/03/16 21:50:31  5-MIN KAAT 040550Z AUTO 36003KT 10SM CLR 18/M02 A3009 4220 25 5500 350/03 RMK AO2 SLP150 T01781022 10322 20161 55009
94299KAAT AAT20160803215513508/03/16 21:55:31  5-MIN KAAT 040555Z AUTO 19003KT 10SM CLR 17/M02 A3009 4220 28 5400 180/03 RMK AO2 SLP151 T01671017 10322 20161 51005
94299KAAT AAT20160803220011008/03/16 22:00:31  5-MIN KAAT 040600Z AUTO 00000KT 10SM CLR 16/M02 A3009 4220 30 5300 000/00 RMK AO2 T01561017
94299KAAT AAT20160803220511008/03/16 22:05:31  5-MIN KAAT 040605Z AUTO 00000KT 10SM CLR 14/M02 A3010 4220 33 5200 000/00 RMK AO2 T01441017
94299KAAT AAT20160803221011008/03/16 22:10:31  5-MIN KAAT 040610Z AUTO 00000KT 10SM CLR 15/M01 A3010 4220 34 5200 000/00 RMK AO2 T01501006
94299KAAT AAT20160803221511008/03/16 22:15:31  5-MIN KAAT 040615Z AUTO 01003KT 10SM CLR 16/M01 A3010 4220 33 5300 350/03 RMK AO2 T01561006
94299KAAT AAT20160803222011008/03/16 22:20:31  5-MIN KAAT 040620Z AUTO 01004KT 10SM CLR 16/M01 A3010 4220 33 5300 360/04 RMK AO2 T01561006
94299KAAT AAT20160803222511008/03/16 22:25:31  5-MIN KAAT 040625Z AUTO 36005KT 10SM CLR 18/M02 A3010 4220 25 5500 350/05 RMK AO2 T01781022
94299KAAT AAT20160803223011008/03/16 22:30:31  5-MIN KAAT 040630Z AUTO 01005KT 10SM CLR 18/M03 A3010 4220 22 5600 360/05 RMK AO2 T01831033
94299KAAT AAT20160803223511008/03/16 22:35:31  5-MIN KAAT 040635Z AUTO 01005KT 10SM CLR 19/M03 A3010 4220 22 5700 350/05 RMK AO2 T01891033
94299KAAT AAT20160803224011008/03/16 22:40:31  5-MIN KAAT 040640Z AUTO 01005KT 10SM CLR 18/M04 A3010 4220 21 5600 350/05 RMK AO2 T01831039
94299KAAT AAT20160803224511008/03/16 22:45:31  5-MIN KAAT 040645Z AUTO 01003KT 10SM CLR 19/M04 A3010 4220 21 5700 350/03 RMK AO2 T01891039
94299KAAT AAT20160803225011708/03/16 22:50:31  5-MIN KAAT 040650Z AUTO 36004KT 10SM CLR 19/M04 A3010 4220 21 5700 340/04 RMK AO2 SLP145 T01891039
94299KAAT AAT20160803225511708/03/16 22:55:31  5-MIN KAAT 040655Z AUTO 36004KT 10SM CLR 18/M03 A3009 4220 23 5500 350/04 RMK AO2 SLP146 T01781033
94299KAAT AAT20160803230011008/03/16 23:00:31  5-MIN KAAT 040700Z AUTO 36005KT 10SM CLR 18/M04 A3009 4220 22 5500 350/05 RMK AO2 T01781039
94299KAAT AAT20160803230511008/03/16 23:05:31  5-MIN KAAT 040705Z AUTO 36006KT 10SM CLR 18/M04 A3009 4220 21 5500 350/06 RMK AO2 T01781044
94299KAAT AAT20160803231011008/03/16 23:10:31  5-MIN KAAT 040710Z AUTO 01007KT 10SM CLR 18/M05 A3009 4220 20 5600 350/07 RMK AO2 T01831050
94299KAAT AAT20160803231511008/03/16 23:15:31  5-MIN KAAT 040715Z AUTO 01007KT 10SM CLR 18/M05 A3009 4230 20 5600 360/07 RMK AO2 T01831050
94299KAAT AAT20160803232011008/03/16 23:20:31  5-MIN KAAT 040720Z AUTO 01006KT 10SM CLR 18/M05 A3009 4230 20 5600 350/06 RMK AO2 T01831050
94299KAAT AAT20160803232511008/03/16 23:25:31  5-MIN KAAT 040725Z AUTO 01005KT 10SM CLR 18/M06 A3009 4230 19 5600 360/05 RMK AO2 T01831056
94299KAAT AAT20160803233011008/03/16 23:30:31  5-MIN KAAT 040730Z AUTO 01004KT 10SM CLR 18/M06 A3009 4230 19 5600 350/04 RMK AO2 T01831056
94299KAAT AAT20160803233511008/03/16 23:35:31  5-MIN KAAT 040735Z AUTO 01004KT 10SM CLR 18/M06 A3009 4230 19 5600 350/04 RMK AO2 T01831056
94299KAAT AAT20160803234011008/03/16 23:40:31  5-MIN KAAT 040740Z AUTO 01003KT 10SM CLR 19/M06 A3009 4230 18 5700 360/03 RMK AO2 T01891056
94299KAAT AAT20160803234511008/03/16 23:45:31  5-MIN KAAT 040745Z AUTO 00000KT 10SM CLR 18/M06 A3009 4220 19 5600 000/00 RMK AO2 T01831056
94299KAAT AAT20160803235012708/03/16 23:50:31  5-MIN KAAT 040750Z AUTO 00000KT 10SM CLR 14/M05 A3009 4220 25 5200 000/00 RMK AO2 SLP145 T01441050 403220067
94299KAAT AAT20160803235512708/03/16 23:55:31  5-MIN KAAT 040755Z AUTO 00000KT 10SM CLR 14/M05 A3009 4220 25 5200 000/00 RMK AO2 SLP146 T01441050 403220067
94299KAAT AAT20160804000011008/04/16 00:00:31  5-MIN KAAT 040800Z AUTO 20003KT 10SM CLR 14/M04 A3009 4220 27 5100 180/03 RMK AO2 T01391044
94299KAAT AAT20160804000511008/04/16 00:05:31  5-MIN KAAT 040805Z AUTO 19003KT 10SM CLR 14/M04 A3009 4220 26 5200 180/03 RMK AO2 T01441044
94299KAAT AAT20160804001011008/04/16 00:10:31  5-MIN KAAT 040810Z AUTO 00000KT 10SM CLR 14/M04 A3009 4220 27 5100 000/00 RMK AO2 T01391044
94299KAAT AAT20160804001511008/04/16 00:15:31  5-MIN KAAT 040815Z AUTO 00000KT 10SM CLR 14/M05 A3009 4220 26 5100 000/00 RMK AO2 T01391050
94299KAAT AAT20160804002011008/04/16 00:20:31  5-MIN KAAT 040820Z AUTO 30003KT 10SM CLR 13/M05 A3009 4230 27 5000 280/03 RMK AO2 T01331050
94299KAAT AAT20160804002511008/04/16 00:25:31  5-MIN KAAT 040825Z AUTO 00000KT 10SM CLR 13/M04 A3009 4230 28 5000 000/00 RMK AO2 T01331044
94299KAAT AAT20160804003011008/04/16 00:30:31  5-MIN KAAT 040830Z AUTO 00000KT 10SM CLR 13/M04 A3009 4230 28 5000 000/00 RMK AO2 T01331044
94299KAAT AAT20160804003511008/04/16 00:35:31  5-MIN KAAT 040835Z AUTO 00000KT 10SM CLR 14/M04 A3009 4230 27 5100 000/00 RMK AO2 T01391044
94299KAAT AAT20160804004011008/04/16 00:40:31  5-MIN KAAT 040840Z AUTO 00000KT 10SM CLR 14/M04 A3009 4230 27 5100 000/00 RMK AO2 T01391044
94299KAAT AAT20160804004511008/04/16 00:45:31  5-MIN KAAT 040845Z AUTO 00000KT 10SM CLR 13/M04 A3009 4230 28 5000 000/00 RMK AO2 T01331044
94299KAAT AAT20160804005012308/04/16 00:50:31  5-MIN KAAT 040850Z AUTO 00000KT 10SM CLR 16/M04 A3009 4230 25 5300 000/00 RMK AO2 SLP141 T01561044 51005
94299KAAT AAT20160804005512308/04/16 00:55:31  5-MIN KAAT 040855Z AUTO 00000KT 10SM CLR 14/M04 A3009 4230 26 5200 000/00 RMK AO2 SLP141 T01441044 58002
94299KAAT AAT20160804010011008/04/16 01:00:31  5-MIN KAAT 040900Z AUTO 00000KT 10SM CLR 14/M04 A3009 4230 26 5200 000/00 RMK AO2 T01441044
94299KAAT AAT20160804010511008/04/16 01:05:31  5-MIN KAAT 040905Z AUTO 00000KT 10SM CLR 15/M04 A3009 4230 25 5200 000/00 RMK AO2 T01501044
94299KAAT AAT20160804011011008/04/16 01:10:31  5-MIN KAAT 040910Z AUTO 36003KT 10SM CLR 16/M05 A3009 4230 23 5400 340/03 RMK AO2 T01611050
94299KAAT AAT20160804011511008/04/16 01:15:31  5-MIN KAAT 040915Z AUTO 00000KT 10SM CLR 16/M05 A3009 4230 24 5300 000/00 RMK AO2 T01561050
94299KAAT AAT20160804012011008/04/16 01:20:31  5-MIN KAAT 040920Z AUTO 00000KT 10SM CLR 14/M05 A3009 4230 26 5100 000/00 RMK AO2 T01391050
94299KAAT AAT20160804012511008/04/16 01:25:31  5-MIN KAAT 040925Z AUTO 00000KT 10SM CLR 14/M04 A3009 4230 29 5100 000/00 RMK AO2 T01391039
94299KAAT AAT20160804013011008/04/16 01:30:31  5-MIN KAAT 040930Z AUTO 00000KT 10SM CLR 13/M04 A3008 4230 28 5000 000/00 RMK AO2 T01331044
94299KAAT AAT20160804013511008/04/16 01:35:31  5-MIN KAAT 040935Z AUTO 00000KT 10SM CLR 13/M04 A3008 4230 28 5100 000/00 RMK AO2 T01331044
94299KAAT AAT20160804014011008/04/16 01:40:31  5-MIN KAAT 040940Z AUTO 32004KT 10SM CLR 14/M04 A3008 4230 29 5100 300/04 RMK AO2 T01391039
94299KAAT AAT20160804014511008/04/16 01:45:31  5-MIN KAAT 040945Z AUTO 32003KT 10SM CLR 13/M03 A3008 4230 32 5000 300/03 RMK AO2 T01281033
94299KAAT AAT20160804015011708/04/16 01:50:31  5-MIN KAAT 040950Z AUTO 30003KT 10SM CLR 12/M03 A3008 4230 35 4900 280/03 RMK AO2 SLP142 T01221028
94299KAAT AAT20160804015511708/04/16 01:55:31  5-MIN KAAT 040955Z AUTO 29003KT 10SM CLR 11/M03 A3008 4230 37 4800 270/03 RMK AO2 SLP144 T01111028
94299KAAT AAT20160804020011008/04/16 02:00:31  5-MIN KAAT 041000Z AUTO 31003KT 10SM CLR 12/M03 A3008 4230 36 4900 300/03 RMK AO2 T01171028
94299KAAT AAT20160804020511008/04/16 02:05:31  5-MIN KAAT 041005Z AUTO 32003KT 10SM CLR 12/M03 A3008 4230 36 4900 300/03 RMK AO2 T01171028
94299KAAT AAT20160804021011008/04/16 02:10:31  5-MIN KAAT 041010Z AUTO 00000KT 10SM CLR 10/M04 A3008 4230 37 4700 000/00 RMK AO2 T01001039
94299KAAT AAT20160804021511008/04/16 02:15:31  5-MIN KAAT 041015Z AUTO 00000KT 10SM CLR 10/M03 A3008 4230 39 4700 000/00 RMK AO2 T01001033
94299KAAT AAT20160804022011008/04/16 02:20:31  5-MIN KAAT 041020Z AUTO 00000KT 10SM CLR 10/M03 A3008 4230 39 4700 000/00 RMK AO2 T01001033
94299KAAT AAT20160804022511008/04/16 02:25:31  5-MIN KAAT 041025Z AUTO 00000KT 10SM CLR 11/M03 A3008 4230 39 4700 000/00 RMK AO2 T01061028
94299KAAT AAT20160804023011008/04/16 02:30:31  5-MIN KAAT 041030Z AUTO 00000KT 10SM CLR 12/M03 A3008 4230 35 4900 000/00 RMK AO2 T01221028
94299KAAT AAT20160804023511008/04/16 02:35:31  5-MIN KAAT 041035Z AUTO 35003KT 10SM CLR 12/M03 A3008 4230 36 4900 330/03 RMK AO2 T01171028
94299KAAT AAT20160804024011008/04/16 02:40:31  5-MIN KAAT 041040Z AUTO 34003KT 10SM CLR 11/M03 A3008 4230 39 4700 330/03 RMK AO2 T01061028
94299KAAT AAT20160804024511008/04/16 02:45:31  5-MIN KAAT 041045Z AUTO 32003KT 10SM CLR 10/M02 A3008 4230 44 4700 310/03 RMK AO2 T01001017
94299KAAT AAT20160804025011708/04/16 02:50:31  5-MIN KAAT 041050Z AUTO 30003KT 10SM CLR 10/M02 A3008 4230 44 4700 290/03 RMK AO2 SLP143 T01001017
94299KAAT AAT20160804025511708/04/16 02:55:31  5-MIN KAAT 041055Z AUTO 30003KT 10SM CLR 11/M02 A3008 4230 42 4700 290/03 RMK AO2 SLP142 T01061017
94299KAAT AAT20160804030011008/04/16 03:00:31  5-MIN KAAT 041100Z AUTO 31003KT 10SM CLR 11/M02 A3008 4230 42 4700 290/03 RMK AO2 T01061017
94299KAAT AAT20160804030511008/04/16 03:05:31  5-MIN KAAT 041105Z AUTO 32004KT 10SM CLR 10/M02 A3008 4230 42 4700 310/04 RMK AO2 T01001022
94299KAAT AAT20160804031011008/04/16 03:10:31  5-MIN KAAT 041110Z AUTO 33004KT 10SM CLR 11/M02 A3008 4240 42 4700 310/04 RMK AO2 T01061017
94299KAAT AAT20160804031511008/04/16 03:15:31  5-MIN KAAT 041115Z AUTO 32005KT 10SM CLR 11/M03 A3008 4230 37 4800 300/05 RMK AO2 T01111028
94299KAAT AAT20160804032011008/04/16 03:20:31  5-MIN KAAT 041120Z AUTO 31004KT 10SM CLR 10/M02 A3008 4230 42 4700 300/04 RMK AO2 T01001022
94299KAAT AAT20160804032511008/04/16 03:25:31  5-MIN KAAT 041125Z AUTO 34004KT 10SM CLR 11/M02 A3008 4230 40 4700 320/04 RMK AO2 T01061022
94299KAAT AAT20160804033011008/04/16 03:30:31  5-MIN KAAT 041130Z AUTO 34004KT 10SM CLR 11/M02 A3008 4240 40 4700 320/04 RMK AO2 T01061022
94299KAAT AAT20160804033511008/04/16 03:35:31  5-MIN KAAT 041135Z AUTO 32004KT 10SM CLR 11/M03 A3008 4240 39 4700 300/04 RMK AO2 T01061028
94299KAAT AAT20160804034011008/04/16 03:40:31  5-MIN KAAT 041140Z AUTO 33003KT 10SM CLR 11/M03 A3008 4240 37 4800 310/03 RMK AO2 T01111028
94299KAAT AAT20160804034511008/04/16 03:45:31  5-MIN KAAT 041145Z AUTO 33003KT 10SM CLR 11/M03 A3007 4240 39 4700 320/03 RMK AO2 T01061028
94299KAAT AAT20160804035013508/04/16 03:50:31  5-MIN KAAT 041150Z AUTO 33003KT 10SM CLR 10/M03 A3007 4240 40 4700 310/03 RMK AO2 SLP141 T01001028 10189 20094 58002
94299KAAT AAT20160804035513508/04/16 03:55:31  5-MIN KAAT 041155Z AUTO 32004KT 10SM CLR 11/M03 A3007 4240 39 4700 310/04 RMK AO2 SLP139 T01061028 10189 20094 58004
94299KAAT AAT20160804040011008/04/16 04:00:31  5-MIN KAAT 041200Z AUTO 32003KT 10SM CLR 11/M03 A3007 4240 37 4700 300/03 RMK AO2 T01061033
94299KAAT AAT20160804040511008/04/16 04:05:31  5-MIN KAAT 041205Z AUTO 00000KT 10SM CLR 11/M03 A3007 4240 37 4700 000/00 RMK AO2 T01061033
94299KAAT AAT20160804041011008/04/16 04:10:31  5-MIN KAAT 041210Z AUTO 30004KT 10SM CLR 10/M03 A3007 4240 39 4700 280/04 RMK AO2 T01001033
94299KAAT AAT20160804041511008/04/16 04:15:31  5-MIN KAAT 041215Z AUTO 29003KT 10SM CLR 09/M03 A3007 4240 42 4600 280/03 RMK AO2 T00941028
94299KAAT AAT20160804042011008/04/16 04:20:31  5-MIN KAAT 041220Z AUTO 00000KT 10SM CLR 09/M03 A3007 4240 43 4500 000/00 RMK AO2 T00891028
94299KAAT AAT20160804042511008/04/16 04:25:31  5-MIN KAAT 041225Z AUTO 00000KT 10SM CLR 09/M02 A3007 4240 47 4600 000/00 RMK AO2 T00891017
94299KAAT AAT20160804043011008/04/16 04:30:31  5-MIN KAAT 041230Z AUTO 00000KT 10SM CLR 08/M02 A3007 4240 47 4500 000/00 RMK AO2 T00831022
94299KAAT AAT20160804043511008/04/16 04:35:31  5-MIN KAAT 041235Z AUTO 18004KT 10SM CLR 07/M03 A3007 4240 47 4400 160/04 RMK AO2 T00721033
94299KAAT AAT20160804044011008/04/16 04:40:31  5-MIN KAAT 041240Z AUTO 18003KT 10SM CLR 08/M03 A3007 4240 45 4500 170/03 RMK AO2 T00831028
94299KAAT AAT20160804044511008/04/16 04:45:31  5-MIN KAAT 041245Z AUTO 16005KT 10SM CLR 08/M03 A3007 4240 47 4400 150/05 RMK AO2 T00781028
94299KAAT AAT20160804045011708/04/16 04:50:31  5-MIN KAAT 041250Z AUTO 15006KT 10SM CLR 08/M03 A3008 4230 45 4500 130/06 RMK AO2 SLP145 T00831028
94299KAAT AAT20160804045511708/04/16 04:55:31  5-MIN KAAT 041255Z AUTO 16005KT 10SM CLR 08/M01 A3008 4230 55 4400 140/05 RMK AO2 SLP146 T00781006
94299KAAT AAT20160804050011008/04/16 05:00:31  5-MIN KAAT 041300Z AUTO 15003KT 10SM CLR 07/M01 A3008 4230 55 4300 140/03 RMK AO2 T00721011
94299KAAT AAT20160804050511008/04/16 05:05:31  5-MIN KAAT 041305Z AUTO 00000KT 10SM CLR 08/M01 A3008 4230 55 4400 000/00 RMK AO2 T00781006
94299KAAT AAT20160804051011008/04/16 05:10:31  5-MIN KAAT 041310Z AUTO 02003KT 10SM CLR 06/M02 A3009 4230 55 4200 010/03 RMK AO2 T00611022
94299KAAT AAT20160804051511008/04/16 05:15:31  5-MIN KAAT 041315Z AUTO 35004KT 10SM CLR 07/M03 A3009 4230 49 4300 340/04 RMK AO2 T00671033
94299KAAT AAT20160804052011008/04/16 05:20:31  5-MIN KAAT 041320Z AUTO 35003KT 10SM CLR 07/M03 A3009 4220 49 4300 330/03 RMK AO2 T00721028
94299KAAT AAT20160804052511008/04/16 05:25:31  5-MIN KAAT 041325Z AUTO 00000KT 10SM CLR 08/M02 A3009 4220 49 4400 000/00 RMK AO2 T00781022
94299KAAT AAT20160804053011008/04/16 05:30:31  5-MIN KAAT 041330Z AUTO 34003KT 10SM CLR 09/M02 A3009 4220 45 4500 330/03 RMK AO2 T00891022
94299KAAT AAT20160804053511008/04/16 05:35:31  5-MIN KAAT 041335Z AUTO 33003KT 10SM CLR 09/M03 A3009 4220 43 4500 310/03 RMK AO2 T00891028
94299KAAT AAT20160804054011008/04/16 05:40:31  5-MIN KAAT 041340Z AUTO 35003KT 10SM CLR 10/M03 A3009 4220 40 4700 330/03 RMK AO2 T01001028
94299KAAT AAT20160804054511008/04/16 05:45:31  5-MIN KAAT 041345Z AUTO 00000KT 10SM CLR 11/M03 A3009 4220 37 4700 000/00 RMK AO2 T01061033
94299KAAT AAT20160804055011708/04/16 05:50:31  5-MIN KAAT 041350Z AUTO 00000KT 10SM CLR 11/M03 A3009 4220 36 4800 000/00 RMK AO2 SLP148 T01111033
94299KAAT AAT20160804055511708/04/16 05:55:31  5-MIN KAAT 041355Z AUTO 12003KT 10SM CLR 10/M02 A3009 4220 42 4700 100/03 RMK AO2 SLP150 T01001022
94299KAAT AAT20160804060011008/04/16 06:00:31  5-MIN KAAT 041400Z AUTO 11003KT 10SM CLR 11/M02 A3009 4220 42 4700 100/03 RMK AO2 T01061017
94299KAAT AAT20160804060511008/04/16 06:05:31  5-MIN KAAT 041405Z AUTO 00000KT 10SM CLR 11/M02 A3009 4220 42 4700 000/00 RMK AO2 T01061017
94299KAAT AAT20160804061011008/04/16 06:10:31  5-MIN KAAT 041410Z AUTO 00000KT 10SM CLR 11/M01 A3009 4220 42 4800 000/00 RMK AO2 T01111011
94299KAAT AAT20160804061511008/04/16 06:15:31  5-MIN KAAT 041415Z AUTO 00000KT 10SM CLR 12/M01 A3009 4220 39 4900 000/00 RMK AO2 T01221011
94299KAAT AAT20160804062011008/04/16 06:20:31  5-MIN KAAT 041420Z AUTO 00000KT 10SM CLR 13/M03 A3010 4220 33 5000 000/00 RMK AO2 T01281028
94299KAAT AAT20160804062511008/04/16 06:25:31  5-MIN KAAT 041425Z AUTO 00000KT 10SM CLR 13/M03 A3010 4220 32 5000 000/00 RMK AO2 T01331028
94299KAAT AAT20160804063011008/04/16 06:30:31  5-MIN KAAT 041430Z AUTO 00000KT 10SM CLR 13/M03 A3010 4220 31 5000 000/00 RMK AO2 T01331033
94299KAAT AAT20160804063511008/04/16 06:35:31  5-MIN KAAT 041435Z AUTO 00000KT 10SM CLR 14/M04 A3010 4220 29 5100 000/00 RMK AO2 T01391039
94299KAAT AAT20160804064011008/04/16 06:40:31  5-MIN KAAT 041440Z AUTO 00000KT 10SM CLR 14/M04 A3009 4220 28 5200 000/00 RMK AO2 T01441039
94299KAAT AAT20160804064511008/04/16 06:45:31  5-MIN KAAT 041445Z AUTO 00000KT 10SM CLR 14/M03 A3009 4220 29 5200 000/00 RMK AO2 T01441033
94299KAAT AAT20160804065012308/04/16 06:50:31  5-MIN KAAT 041450Z AUTO 00000KT 10SM CLR 15/M03 A3009 4220 28 5200 000/00 RMK AO2 SLP146 T01501033 58004
94299KAAT AAT20160804065512308/04/16 06:55:31  5-MIN KAAT 041455Z AUTO 00000KT 10SM CLR 16/M03 A3009 4220 27 5300 000/00 RMK AO2 SLP145 T01561033 50006
94299KAAT AAT20160804070011008/04/16 07:00:31  5-MIN KAAT 041500Z AUTO 00000KT 10SM CLR 16/M03 A3009 4220 26 5400 000/00 RMK AO2 T01611033
94299KAAT AAT20160804070511008/04/16 07:05:31  5-MIN KAAT 041505Z AUTO 00000KT 10SM CLR 16/M03 A3009 4220 27 5400 000/00 RMK AO2 T01611028
94299KAAT AAT20160804071011008/04/16 07:10:31  5-MIN KAAT 041510Z AUTO 00000KT 10SM CLR 16/M03 A3009 4220 27 5400 000/00 RMK AO2 T01611028
94299KAAT AAT20160804071511008/04/16 07:15:31  5-MIN KAAT 041515Z AUTO 00000KT 10SM CLR 17/M02 A3009 4220 27 5400 000/00 RMK AO2 T01671022
94299KAAT AAT20160804072010008/04/16 07:20:31  5-MIN KAAT 041520Z AUTO 10SM CLR 17/M02 A3010 4220 27 5400 M /M RMK AO2 T01671022
94299KAAT AAT20160804072511008/04/16 07:25:31  5-MIN KAAT 041525Z AUTO 00000KT 10SM CLR 17/M02 A3010 4220 27 5500 000/00 RMK AO2 T01721017
94299KAAT AAT20160804073011008/04/16 07:30:31  5-MIN KAAT 041530Z AUTO VRB03KT 10SM CLR 18/M01 A3010 4220 27 5500 VRB/03 RMK AO2 T01781011
94299KAAT AAT20160804073511008/04/16 07:35:31  5-MIN KAAT 041535Z AUTO 00000KT 10SM CLR 18/M01 A3010 4220 27 5500 000/00 RMK AO2 T01781011
94299KAAT AAT20160804074011008/04/16 07:40:31  5-MIN KAAT 041540Z AUTO 00000KT 10SM CLR 18/M02 A3009 4220 25 5600 000/00 RMK AO2 T01831017
94299KAAT AAT20160804074511008/04/16 07:45:31  5-MIN KAAT 041545Z AUTO 00000KT 10SM CLR 18/M02 A3009 4220 24 5600 000/00 RMK AO2 T01831022
94299KAAT AAT20160804075011708/04/16 07:50:31  5-MIN KAAT 041550Z AUTO 00000KT 10SM CLR 19/M03 A3009 4220 22 5700 000/00 RMK AO2 SLP145 T01891028
94299KAAT AAT20160804075511708/04/16 07:55:31  5-MIN KAAT 041555Z AUTO 28003KT 10SM CLR 19/M03 A3009 4220 22 5700 260/03 RMK AO2 SLP145 T01891028
94299KAAT AAT20160804080011008/04/16 08:00:31  5-MIN KAAT 041600Z AUTO 00000KT 10SM CLR 19/M03 A3009 4220 22 5700 000/00 RMK AO2 T01941028
94299KAAT AAT20160804080511008/04/16 08:05:31  5-MIN KAAT 041605Z AUTO 00000KT 10SM CLR 20/M03 A3009 4220 21 5800 000/00 RMK AO2 T02001028
94299KAAT AAT20160804081011008/04/16 08:10:31  5-MIN KAAT 041610Z AUTO 00000KT 10SM CLR 21/M03 A3009 4230 20 5900 000/00 RMK AO2 T02061028
94299KAAT AAT20160804081511008/04/16 08:15:31  5-MIN KAAT 041615Z AUTO 00000KT 10SM CLR 21/M03 A3009 4230 20 5900 000/00 RMK AO2 T02111028
94299KAAT AAT20160804082011008/04/16 08:20:31  5-MIN KAAT 041620Z AUTO 00000KT 10SM CLR 21/M02 A3008 4230 20 5900 000/00 RMK AO2 T02111022
94299KAAT AAT20160804082511008/04/16 08:25:31  5-MIN KAAT 041625Z AUTO 00000KT 10SM CLR 22/M01 A3009 4230 21 6100 000/00 RMK AO2 T02221011
94299KAAT AAT20160804083011008/04/16 08:30:31  5-MIN KAAT 041630Z AUTO 00000KT 10SM CLR 22/M02 A3008 4230 20 6100 000/00 RMK AO2 T02221017
94299KAAT AAT20160804083511008/04/16 08:35:31  5-MIN KAAT 041635Z AUTO 00000KT 10SM CLR 22/M02 A3008 4230 20 6100 000/00 RMK AO2 T02221017
94299KAAT AAT20160804084011008/04/16 08:40:31  5-MIN KAAT 041640Z AUTO 00000KT 10SM CLR 23/M02 A3008 4230 18 6200 000/00 RMK AO2 T02331022
94299KAAT AAT20160804084511008/04/16 08:45:31  5-MIN KAAT 041645Z AUTO 00000KT 10SM CLR 23/M03 A3008 4230 18 6100 000/00 RMK AO2 T02281028
94299KAAT AAT20160804085011708/04/16 08:50:31  5-MIN KAAT 041650Z AUTO 00000KT 10SM CLR 24/M02 A3008 4240 17 6200 000/00 RMK AO2 SLP135 T02391022
94299KAAT AAT20160804085511708/04/16 08:55:31  5-MIN KAAT 041655Z AUTO 00000KT 10SM CLR 23/M03 A3008 4240 17 6200 000/00 RMK AO2 SLP137 T02331028
94299KAAT AAT20160804090011008/04/16 09:00:31  5-MIN KAAT 041700Z AUTO 00000KT 10SM CLR 24/M03 A3008 4240 16 6200 000/00 RMK AO2 T02391028
94299KAAT AAT20160804090511008/04/16 09:05:31  5-MIN KAAT 041705Z AUTO VRB03KT 10SM CLR 24/M03 A3007 4240 16 6300 VRB/03 RMK AO2 T02441028
94299KAAT AAT20160804091011008/04/16 09:10:31  5-MIN KAAT 041710Z AUTO 07004KT 10SM CLR 25/M02 A3008 4240 16 6400 060/04 RMK AO2 T02501022
94299KAAT AAT20160804091511008/04/16 09:15:31  5-MIN KAAT 041715Z AUTO VRB03KT 10SM CLR 25/M03 A3007 4240 15 6400 VRB/03 RMK AO2 T02501028
94299KAAT AAT20160804092011008/04/16 09:20:31  5-MIN KAAT 041720Z AUTO 00000KT 10SM CLR 25/M03 A3007 4240 15 6400 000/00 RMK AO2 T02501028
94299KAAT AAT20160804092511008/04/16 09:25:31  5-MIN KAAT 041725Z AUTO 00000KT 10SM CLR 25/M03 A3007 4240 15 6400 000/00 RMK AO2 T02501028
94299KAAT AAT20160804093011008/04/16 09:30:31  5-MIN KAAT 041730Z AUTO VRB04KT 10SM CLR 26/M02 A3007 4240 16 6400 VRB/04 RMK AO2 T02561017
94299KAAT AAT20160804093511008/04/16 09:35:31  5-MIN KAAT 041735Z AUTO VRB03KT 10SM CLR 26/M02 A3007 4240 15 6500 VRB/03 RMK AO2 T02611022
94299KAAT AAT20160804094011008/04/16 09:40:31  5-MIN KAAT 041740Z AUTO VRB03KT 10SM CLR 26/M03 A3007 4250 14 6500 VRB/03 RMK AO2 T02611028
94299KAAT AAT20160804094511008/04/16 09:45:31  5-MIN KAAT 041745Z AUTO 04004KT 10SM CLR 27/M04 A3007 4250 12 6600 020/04 RMK AO2 T02721039
94299KAAT AAT20160804095013508/04/16 09:50:31  5-MIN KAAT 041750Z AUTO 06003KT 10SM CLR 27/M06 A3006 4250 11 6600 050/03 RMK AO2 SLP132 T02671061 10272 20061 50006
94299KAAT AAT20160804095513508/04/16 09:55:31  5-MIN KAAT 041755Z AUTO VRB03KT 10SM CLR 27/M07 A3006 4250 10 6600 VRB/03 RMK AO2 SLP132 T02721067 10272 20061 58009
94299KAAT AAT20160804100011008/04/16 10:00:31  5-MIN KAAT 041800Z AUTO VRB05KT 10SM CLR 28/M06 A3006 4250 10 6700 VRB/05 RMK AO2 T02781061
94299KAAT AAT20160804100511008/04/16 10:05:31  5-MIN KAAT 041805Z AUTO VRB04KT 10SM CLR 28/M07 A3006 4250 10 6700 VRB/04 RMK AO2 T02781067
94299KAAT AAT20160804101011008/04/16 10:10:31  5-MIN KAAT 041810Z AUTO VRB03KT 10SM CLR 28/M08 A3006 4250 09 6700 VRB/03 RMK AO2 T02781078
94299KAAT AAT20160804101511008/04/16 10:15:31  5-MIN KAAT 041815Z AUTO VRB04KT 10SM CLR 28/M07 A3006 4250 09 6800 VRB/04 RMK AO2 T02831067
94299KAAT AAT20160804102011008/04/16 10:20:31  5-MIN KAAT 041820Z AUTO VRB05KT 10SM CLR 28/M06 A3006 4250 10 6800 VRB/05 RMK AO2 T02831061
94299KAAT AAT20160804102511008/04/16 10:25:31  5-MIN KAAT 041825Z AUTO VRB03KT 10SM CLR 28/M07 A3006 4260 09 6800 VRB/03 RMK AO2 T02831072
94299KAAT AAT20160804103010008/04/16 10:30:31  5-MIN KAAT 041830Z AUTO 10SM CLR 28/M07 A3005 4260 09 6800 M /M RMK AO2 T02831072
94299KAAT AAT20160804103511008/04/16 10:35:31  5-MIN KAAT 041835Z AUTO VRB03KT 10SM CLR 29/M07 A3005 4260 09 6800 VRB/03 RMK AO2 T02891072
94299KAAT AAT20160804104011008/04/16 10:40:31  5-MIN KAAT 041840Z AUTO VRB03KT 10SM CLR 29/M07 A3005 4260 09 6800 VRB/03 RMK AO2 T02891067
94299KAAT AAT20160804104511008/04/16 10:45:31  5-MIN KAAT 041845Z AUTO 14006KT 10SM CLR 28/M07 A3004 4270 09 6800 120/06 RMK AO2 T02831072
94299KAAT AAT20160804105011708/04/16 10:50:31  5-MIN KAAT 041850Z AUTO VRB05KT 10SM CLR 29/M07 A3004 4270 09 6800 VRB/05 RMK AO2 SLP122 T02891067
94299KAAT AAT20160804105511708/04/16 10:55:31  5-MIN KAAT 041855Z AUTO 12006KT 10SM CLR 29/M07 A3004 4270 09 6900 110/06 RMK AO2 SLP122 T02941067
94299KAAT AAT20160804110011008/04/16 11:00:31  5-MIN KAAT 041900Z AUTO VRB06KT 10SM CLR 29/M07 A3004 4270 09 6800 VRB/06 RMK AO2 T02891067
94299KAAT AAT20160804110512608/04/16 11:05:31  5-MIN KAAT 041905Z AUTO 14007KT 100V170 10SM CLR 29/M07 A3004 4270 09 6900 130/07 090V160 RMK AO2 T02941067
94299KAAT AAT20160804111011008/04/16 11:10:31  5-MIN KAAT 041910Z AUTO 15006KT 10SM CLR 29/M07 A3004 4270 09 6900 130/06 RMK AO2 T02941067
94299KAAT AAT20160804111511008/04/16 11:15:31  5-MIN KAAT 041915Z AUTO 15007KT 10SM CLR 30/M07 A3003 4280 08 7000 140/07 RMK AO2 T03001067
94299KAAT AAT20160804112011008/04/16 11:20:31  5-MIN KAAT 041920Z AUTO 15006KT 10SM CLR 30/M07 A3003 4280 08 7000 140/06 RMK AO2 T03001067
94299KAAT AAT20160804112511008/04/16 11:25:31  5-MIN KAAT 041925Z AUTO VRB05KT 10SM CLR 31/M07 A3003 4280 08 7000 VRB/05 RMK AO2 T03061067
94299KAAT AAT20160804113011008/04/16 11:30:31  5-MIN KAAT 041930Z AUTO VRB06KT 10SM CLR 30/M06 A3003 4280 09 7000 VRB/06 RMK AO2 T03001061
94299KAAT AAT20160804113511608/04/16 11:35:31  5-MIN KAAT 041935Z AUTO VRB03G15KT 10SM CLR 30/M06 A3002 4290 09 7000 VRB/03G15 RMK AO2 T03001061
94299KAAT AAT20160804114013208/04/16 11:40:31  5-MIN KAAT 041940Z AUTO 12007G15KT 080V160 10SM CLR 31/M06 A3002 4290 08 7100 110/07G15 070V150 RMK AO2 T03111061
94299KAAT AAT20160804114512608/04/16 11:45:31  5-MIN KAAT 041945Z AUTO 16008KT 120V210 10SM CLR 31/M06 A3002 4290 08 7100 140/08 110V200 RMK AO2 T03111061
94299KAAT AAT20160804115011708/04/16 11:50:31  5-MIN KAAT 041950Z AUTO VRB05KT 10SM CLR 31/M06 A3002 4290 09 7000 VRB/05 RMK AO2 SLP116 T03061061
94299KAAT AAT20160804115511708/04/16 11:55:31  5-MIN KAAT 041955Z AUTO 10008KT 10SM CLR 31/M06 A3001 4300 08 7100 090/08 RMK AO2 SLP115 T03111061
94299KAAT AAT20160804120011008/04/16 12:00:31  5-MIN KAAT 042000Z AUTO VRB06KT 10SM CLR 31/M06 A3001 4300 08 7100 VRB/06 RMK AO2 T03111061
94299KAAT AAT20160804120511608/04/16 12:05:31  5-MIN KAAT 042005Z AUTO 19013G19KT 10SM CLR 32/M07 A3001 4300 07 7200 180/13G19 RMK AO2 T03171072
94299KAAT AAT20160804121011608/04/16 12:10:31  5-MIN KAAT 042010Z AUTO 17011G20KT 10SM CLR 32/M08 A3001 4300 07 7200 150/11G20 RMK AO2 T03171083
94299KAAT AAT20160804121513208/04/16 12:15:31  5-MIN KAAT 042015Z AUTO 17008G20KT 150V210 10SM CLR 32/M08 A3001 4300 07 7200 150/08G20 140V200 RMK AO2 T03221078
94299KAAT AAT20160804122011608/04/16 12:20:31  5-MIN KAAT 042020Z AUTO 20013G17KT 10SM CLR 32/M08 A3001 4300 07 7200 180/13G17 RMK AO2 T03171083
94299KAAT AAT20160804122511608/04/16 12:25:31  5-MIN KAAT 042025Z AUTO 18009G18KT 10SM CLR 32/M08 A3001 4300 07 7200 170/09G18 RMK AO2 T03171083
94299KAAT AAT20160804123011608/04/16 12:30:31  5-MIN KAAT 042030Z AUTO 18012G18KT 10SM CLR 32/M08 A3001 4300 07 7200 160/12G18 RMK AO2 T03221083
94299KAAT AAT20160804123511608/04/16 12:35:31  5-MIN KAAT 042035Z AUTO 20012G18KT 10SM CLR 32/M09 A3000 4300 06 7200 190/12G18 RMK AO2 T03221089
94299KAAT AAT20160804124011608/04/16 12:40:31  5-MIN KAAT 042040Z AUTO 18009G18KT 10SM CLR 32/M09 A3000 4310 06 7200 170/09G18 RMK AO2 T03221089
94299KAAT AAT20160804124511608/04/16 12:45:31  5-MIN KAAT 042045Z AUTO 18007G20KT 10SM CLR 32/M09 A3000 4310 06 7200 160/07G20 RMK AO2 T03221089
94299KAAT AAT20160804125011308/04/16 12:50:31  5-MIN KAAT 042050Z AUTO 10SM CLR 32/M09 A3000 4310 06 7200 M /M RMK AO2 SLP106 T03171094 58009
94299KAAT AAT20160804125512908/04/16 12:55:31  5-MIN KAAT 042055Z AUTO 20011G17KT 10SM CLR 32/M11 A3000 4310 05 7200 180/11G17 RMK AO2 SLP107 T03221111 56019
94299KAAT AAT20160804130011608/04/16 13:00:31  5-MIN KAAT 042100Z AUTO 17011G17KT 10SM CLR 33/M11 A2999 4310 05 7300 150/11G17 RMK AO2 T03281111
94299KAAT AAT20160804130511608/04/16 13:05:31  5-MIN KAAT 042105Z AUTO 19014G18KT 10SM CLR 33/M11 A2999 4310 05 7300 180/14G18 RMK AO2 T03281111
94299KAAT AAT20160804131011608/04/16 13:10:31  5-MIN KAAT 042110Z AUTO 17012G18KT 10SM CLR 32/M11 A2999 4320 05 7200 150/12G18 RMK AO2 T03221111
94299KAAT AAT20160804131511608/04/16 13:15:31  5-MIN KAAT 042115Z AUTO 19011G18KT 10SM CLR 32/M12 A2999 4320 05 7200 180/11G18 RMK AO2 T03221122
94299KAAT AAT20160804132013208/04/16 13:20:31  5-MIN KAAT 042120Z AUTO 16009G18KT 130V190 10SM CLR 33/M11 A2999 4320 05 7300 150/09G18 120V180 RMK AO2 T03281111
94299KAAT AAT20160804132511608/04/16 13:25:31  5-MIN KAAT 042125Z AUTO 16012G17KT 10SM CLR 32/M11 A2998 4320 05 7300 140/12G17 RMK AO2 T03221111
94299KAAT AAT20160804133011608/04/16 13:30:31  5-MIN KAAT 042130Z AUTO 16010G18KT 10SM CLR 33/M11 A2999 4320 05 7300 140/10G18 RMK AO2 T03281111
94299KAAT AAT20160804133511608/04/16 13:35:31  5-MIN KAAT 042135Z AUTO 17006G18KT 10SM CLR 33/M11 A2998 4320 05 7300 150/06G18 RMK AO2 T03281106
94299KAAT AAT20160804134011608/04/16 13:40:31  5-MIN KAAT 042140Z AUTO 17009G16KT 10SM CLR 33/M11 A2998 4330 05 7300 150/09G16 RMK AO2 T03281106
94299KAAT AAT20160804134511608/04/16 13:45:31  5-MIN KAAT 042145Z AUTO 15012G16KT 10SM CLR 33/M09 A2998 4330 06 7400 140/12G16 RMK AO2 T03331094
94299KAAT AAT20160804135012308/04/16 13:50:31  5-MIN KAAT 042150Z AUTO 17008G16KT 10SM CLR 33/M10 A2998 4330 06 7300 160/08G16 RMK AO2 SLP103 T03281100
94299KAAT AAT20160804135512308/04/16 13:55:31  5-MIN KAAT 042155Z AUTO 21010G14KT 10SM CLR 32/M10 A2998 4330 06 7300 190/10G14 RMK AO2 SLP104 T03221100
94299KAAT AAT20160804140011608/04/16 14:00:31  5-MIN KAAT 042200Z AUTO VRB05G16KT 10SM CLR 32/M10 A2997 4330 06 7300 VRB/05G16 RMK AO2 T03221100
94299KAAT AAT20160804140511608/04/16 14:05:31  5-MIN KAAT 042205Z AUTO 12008G16KT 10SM CLR 32/M09 A2997 4330 06 7300 110/08G16 RMK AO2 T03221094
94299KAAT AAT20160804141011608/04/16 14:10:31  5-MIN KAAT 042210Z AUTO 16012G16KT 10SM CLR 33/M09 A2997 4340 06 7400 150/12G16 RMK AO2 T03331094
94299KAAT AAT20160804141511008/04/16 14:15:31  5-MIN KAAT 042215Z AUTO 13011KT 10SM CLR 33/M11 A2997 4340 05 7300 120/11 RMK AO2 T03281111
94299KAAT AAT20160804142011608/04/16 14:20:31  5-MIN KAAT 042220Z AUTO 14013G20KT 10SM CLR 33/M11 A2996 4340 05 7300 120/13G20 RMK AO2 T03281111
94299KAAT AAT20160804142513208/04/16 14:25:31  5-MIN KAAT 042225Z AUTO 14011G20KT 100V170 10SM CLR 33/M11 A2996 4340 05 7400 130/11G20 090V160 RMK AO2 T03331111
94299KAAT AAT20160804143013208/04/16 14:30:31  5-MIN KAAT 042230Z AUTO 15010G19KT 110V170 10SM CLR 33/M11 A2996 4350 05 7400 130/10G19 100V160 RMK AO2 T03331106
94299KAAT AAT20160804143511608/04/16 14:35:31  5-MIN KAAT 042235Z AUTO 16011G17KT 10SM CLR 33/M11 A2996 4350 05 7300 150/11G17 RMK AO2 T03281106
94299KAAT AAT20160804144011608/04/16 14:40:31  5-MIN KAAT 042240Z AUTO 14010G17KT 10SM CLR 33/M11 A2995 4350 05 7400 130/10G17 RMK AO2 T03331111
94299KAAT AAT20160804144511608/04/16 14:45:31  5-MIN KAAT 042245Z AUTO 11008G16KT 10SM CLR 33/M11 A2995 4350 05 7400 090/08G16 RMK AO2 T03331111
94299KAAT AAT20160804145011708/04/16 14:50:31  5-MIN KAAT 042250Z AUTO 13008KT 10SM CLR 33/M11 A2995 4350 05 7400 120/08 RMK AO2 SLP096 T03331106
94299KAAT AAT20160804145511708/04/16 14:55:31  5-MIN KAAT 042255Z AUTO 14006KT 10SM CLR 33/M11 A2996 4350 05 7400 130/06 RMK AO2 SLP096 T03331106
94299KAAT AAT20160804150011008/04/16 15:00:31  5-MIN KAAT 042300Z AUTO VRB06KT 10SM CLR 33/M10 A2996 4350 05 7400 VRB/06 RMK AO2 T03331100
94299KAAT AAT20160804150510008/04/16 15:05:31  5-MIN KAAT 042305Z AUTO 10SM CLR 33/M09 A2996 4350 06 7400 M /M RMK AO2 T03331089
94299KAAT AAT20160804151011608/04/16 15:10:31  5-MIN KAAT 042310Z AUTO 23009G14KT 10SM CLR 33/M09 A2995 4350 06 7400 220/09G14 RMK AO2 T03331089
94299KAAT AAT20160804151511608/04/16 15:15:31  5-MIN KAAT 042315Z AUTO 25015G20KT 10SM CLR 33/M08 A2996 4350 06 7400 240/15G20 RMK AO2 T03331078
94299KAAT AAT20160804152011608/04/16 15:20:31  5-MIN KAAT 042320Z AUTO 26013G20KT 10SM CLR 33/M08 A2996 4350 06 7400 240/13G20 RMK AO2 T03331083
94299KAAT AAT20160804152511608/04/16 15:25:31  5-MIN KAAT 042325Z AUTO 27017G23KT 10SM CLR 33/M08 A2996 4350 06 7300 250/17G23 RMK AO2 T03281083
94299KAAT AAT20160804153011608/04/16 15:30:31  5-MIN KAAT 042330Z AUTO 27014G23KT 10SM CLR 33/M08 A2996 4350 06 7400 250/14G23 RMK AO2 T03331078
94299KAAT AAT20160804153511008/04/16 15:35:31  5-MIN KAAT 042335Z AUTO 28012KT 10SM CLR 33/M08 A2996 4350 06 7300 260/12 RMK AO2 T03281083
94299KAAT AAT20160804154011608/04/16 15:40:31  5-MIN KAAT 042340Z AUTO 28012G17KT 10SM CLR 33/M08 A2996 4350 06 7400 270/12G17 RMK AO2 T03331083
94299KAAT AAT20160804154511608/04/16 15:45:31  5-MIN KAAT 042345Z AUTO 27016G24KT 10SM CLR 33/M08 A2996 4340 07 7300 260/16G24 RMK AO2 T03281078
94299KAAT AAT20160804155014108/04/16 15:50:31  5-MIN KAAT 042350Z AUTO 27015G24KT 10SM CLR 33/M08 A2996 4340 06 7300 260/15G24 RMK AO2 SLP099 T03281083 10339 20272 56019
94299KAAT AAT20160804155514108/04/16 15:55:31  5-MIN KAAT 042355Z AUTO 28013G21KT 10SM CLR 32/M09 A2996 4350 06 7300 270/13G21 RMK AO2 SLP098 T03221089 10339 20272 55011
94299KAAT AAT20160804160011608/04/16 16:00:31  5-MIN KAAT 050000Z AUTO 28015G23KT 10SM CLR 32/M09 A2996 4340 06 7300 270/15G23 RMK AO2 T03221094
94299KAAT AAT20160804160511608/04/16 16:05:31  5-MIN KAAT 050005Z AUTO 29016G23KT 10SM CLR 33/M09 A2996 4340 06 7300 280/16G23 RMK AO2 T03281094
94299KAAT AAT20160804161011608/04/16 16:10:31  5-MIN KAAT 050010Z AUTO 29010G23KT 10SM CLR 33/M10 A2996 4350 06 7300 270/10G23 RMK AO2 T03281100
94299KAAT AAT20160804161511608/04/16 16:15:31  5-MIN KAAT 050015Z AUTO 28013G21KT 10SM CLR 32/M09 A2996 4350 06 7300 260/13G21 RMK AO2 T03221094
94299KAAT AAT20160804162011608/04/16 16:20:31  5-MIN KAAT 050020Z AUTO 27016G25KT 10SM CLR 32/M09 A2996 4350 06 7300 250/16G25 RMK AO2 T03221094
94299KAAT AAT20160804162511608/04/16 16:25:31  5-MIN KAAT 050025Z AUTO 26014G25KT 10SM CLR 32/M09 A2996 4350 06 7300 240/14G25 RMK AO2 T03221089
94299KAAT AAT20160804163011608/04/16 16:30:31  5-MIN KAAT 050030Z AUTO 25013G22KT 10SM CLR 33/M08 A2996 4350 06 7300 240/13G22 RMK AO2 T03281083
94299KAAT AAT20160804163511608/04/16 16:35:31  5-MIN KAAT 050035Z AUTO 25015G22KT 10SM CLR 32/M08 A2996 4350 07 7300 240/15G22 RMK AO2 T03221078
94299KAAT AAT20160804164011608/04/16 16:40:31  5-MIN KAAT 050040Z AUTO 24011G20KT 10SM CLR 32/M08 A2996 4350 07 7300 230/11G20 RMK AO2 T03221078
94299KAAT AAT20160804164511608/04/16 16:45:31  5-MIN KAAT 050045Z AUTO 24015G19KT 10SM CLR 32/M07 A2996 4350 07 7300 220/15G19 RMK AO2 T03221072
94299KAAT AAT20160804165012308/04/16 16:50:31  5-MIN KAAT 050050Z AUTO 28014G19KT 10SM CLR 32/M07 A2995 4350 07 7300 270/14G19 RMK AO2 SLP099 T03221067
94299KAAT AAT20160804165512308/04/16 16:55:31  5-MIN KAAT 050055Z AUTO 25011G19KT 10SM CLR 32/M06 A2995 4350 08 7300 240/11G19 RMK AO2 SLP101 T03221061
94299KAAT AAT20160804170011608/04/16 17:00:31  5-MIN KAAT 050100Z AUTO 26015G20KT 10SM CLR 32/M06 A2995 4350 08 7200 240/15G20 RMK AO2 T03171061
94299KAAT AAT20160804170511608/04/16 17:05:31  5-MIN KAAT 050105Z AUTO 27012G20KT 10SM CLR 32/M06 A2995 4350 08 7200 250/12G20 RMK AO2 T03171056
94299KAAT AAT20160804171011608/04/16 17:10:31  5-MIN KAAT 050110Z AUTO 26014G21KT 10SM CLR 32/M06 A2995 4350 08 7200 240/14G21 RMK AO2 T03171056
94299KAAT AAT20160804171511008/04/16 17:15:31  5-MIN KAAT 050115Z AUTO 26014KT 10SM CLR 32/M04 A2995 4350 09 7200 240/14 RMK AO2 T03171044
94299KAAT AAT20160804172011008/04/16 17:20:31  5-MIN KAAT 050120Z AUTO 26013KT 10SM CLR 31/M04 A2995 4350 10 7200 250/13 RMK AO2 T03111039
94299KAAT AAT20160804172511008/04/16 17:25:31  5-MIN KAAT 050125Z AUTO 28014KT 10SM CLR 31/M03 A2995 4350 10 7200 260/14 RMK AO2 T03111033
94299KAAT AAT20160804173011608/04/16 17:30:31  5-MIN KAAT 050130Z AUTO 27013G20KT 10SM CLR 31/M03 A2995 4350 11 7100 260/13G20 RMK AO2 T03061033
94299KAAT AAT20160804173511008/04/16 17:35:31  5-MIN KAAT 050135Z AUTO 27013KT 10SM CLR 31/M03 A2995 4350 11 7100 260/13 RMK AO2 T03061028
94299KAAT AAT20160804174011008/04/16 17:40:31  5-MIN KAAT 050140Z AUTO 26013KT 10SM CLR 31/M03 A2995 4350 11 7100 250/13 RMK AO2 T03061028
94299KAAT AAT20160804174511008/04/16 17:45:31  5-MIN KAAT 050145Z AUTO 25015KT 10SM CLR 31/M03 A2995 4350 11 7100 240/15 RMK AO2 T03061028
94299KAAT AAT20160804175011708/04/16 17:50:31  5-MIN KAAT 050150Z AUTO 27014KT 10SM CLR 30/M03 A2996 4350 11 7000 260/14 RMK AO2 SLP100 T03001033
94299KAAT AAT20160804175512308/04/16 17:55:31  5-MIN KAAT 050155Z AUTO 26011G20KT 10SM CLR 30/M03 A2996 4350 11 7000 250/11G20 RMK AO2 SLP102 T03001033
94299KAAT AAT20160804180011008/04/16 18:00:31  5-MIN KAAT 050200Z AUTO 25014KT 10SM CLR 30/M03 A2996 4350 11 7000 240/14 RMK AO2 T03001033
94299KAAT AAT20160804180511008/04/16 18:05:31  5-MIN KAAT 050205Z AUTO 27014KT 10SM CLR 30/M03 A2996 4340 11 7000 250/14 RMK AO2 T03001028
94299KAAT AAT20160804181011008/04/16 18:10:31  5-MIN KAAT 050210Z AUTO 28013KT 10SM CLR 29/M03 A2996 4350 12 7000 260/13 RMK AO2 T02941028
94299KAAT AAT20160804181511008/04/16 18:15:31  5-MIN KAAT 050215Z AUTO 27013KT 10SM CLR 29/M03 A2996 4340 12 6900 260/13 RMK AO2 T02891028
94299KAAT AAT20160804182011008/04/16 18:20:31  5-MIN KAAT 050220Z AUTO 27011KT 10SM CLR 29/M03 A2996 4350 12 6900 250/11 RMK AO2 T02891033
94299KAAT AAT20160804182511008/04/16 18:25:31  5-MIN KAAT 050225Z AUTO 27011KT 10SM CLR 29/M03 A2996 4340 12 6900 250/11 RMK AO2 T02891033
94299KAAT AAT20160804183011008/04/16 18:30:31  5-MIN KAAT 050230Z AUTO 27011KT 10SM CLR 28/M03 A2996 4340 12 6900 260/11 RMK AO2 T02831033
94299KAAT AAT20160804183511008/04/16 18:35:31  5-MIN KAAT 050235Z AUTO 27010KT 10SM CLR 28/M04 A2996 4340 12 6900 250/10 RMK AO2 T02831039
94299KAAT AAT20160804184011008/04/16 18:40:31  5-MIN KAAT 050240Z AUTO 27012KT 10SM CLR 28/M04 A2996 4340 12 6900 260/12 RMK AO2 T02831039
94299KAAT AAT20160804184511008/04/16 18:45:31  5-MIN KAAT 050245Z AUTO 27010KT 10SM CLR 28/M04 A2996 4340 11 6800 260/10 RMK AO2 T02781044
94299KAAT AAT20160804185012308/04/16 18:50:31  5-MIN KAAT 050250Z AUTO 27011KT 10SM CLR 28/M04 A2996 4340 11 6800 260/11 RMK AO2 SLP099 T02781044 55011
94299KAAT AAT20160804185512308/04/16 18:55:31  5-MIN KAAT 050255Z AUTO 27011KT 10SM CLR 27/M04 A2996 4340 12 6700 260/11 RMK AO2 SLP099 T02721044 53000
94299KAAT AAT20160804190011008/04/16 19:00:31  5-MIN KAAT 050300Z AUTO 27010KT 10SM CLR 27/M04 A2996 4340 12 6700 260/10 RMK AO2 T02671044
94299KAAT AAT20160804190511008/04/16 19:05:31  5-MIN KAAT 050305Z AUTO 27011KT 10SM CLR 27/M05 A2996 4340 12 6700 260/11 RMK AO2 T02671050
94299KAAT AAT20160804191011008/04/16 19:10:31  5-MIN KAAT 050310Z AUTO 29009KT 10SM CLR 26/M05 A2996 4340 12 6600 280/09 RMK AO2 T02611050
94299KAAT AAT20160804191511008/04/16 19:15:31  5-MIN KAAT 050315Z AUTO 27009KT 10SM CLR 26/M06 A2996 4340 12 6600 250/09 RMK AO2 T02561056
94299KAAT AAT20160804192011008/04/16 19:20:31  5-MIN KAAT 050320Z AUTO 26010KT 10SM CLR 26/M06 A2996 4340 12 6600 250/10 RMK AO2 T02561061
94299KAAT AAT20160804192511008/04/16 19:25:31  5-MIN KAAT 050325Z AUTO 26011KT 10SM CLR 26/M07 A2996 4340 11 6600 250/11 RMK AO2 T02561067
94299KAAT AAT20160804193011008/04/16 19:30:31  5-MIN KAAT 050330Z AUTO 27009KT 10SM CLR 25/M07 A2996 4340 11 6500 250/09 RMK AO2 T02501067
94299KAAT AAT20160804193511008/04/16 19:35:31  5-MIN KAAT 050335Z AUTO 26009KT 10SM CLR 24/M07 A2996 4340 12 6400 250/09 RMK AO2 T02441067
94299KAAT AAT20160804194011008/04/16 19:40:31  5-MIN KAAT 050340Z AUTO 26008KT 10SM CLR 24/M07 A2997 4340 12 6400 250/08 RMK AO2 T02441067
94299KAAT AAT20160804194511008/04/16 19:45:31  5-MIN KAAT 050345Z AUTO 27009KT 10SM CLR 24/M07 A2997 4340 12 6400 260/09 RMK AO2 T02391067
94299KAAT AAT20160804195011708/04/16 19:50:31  5-MIN KAAT 050350Z AUTO 27009KT 10SM CLR 23/M06 A2997 4340 13 6300 260/09 RMK AO2 SLP103 T02331061
94299KAAT AAT20160804195511708/04/16 19:55:31  5-MIN KAAT 050355Z AUTO 27008KT 10SM CLR 23/M06 A2997 4340 13 6300 250/08 RMK AO2 SLP103 T02331061
94299KAAT AAT20160804200011008/04/16 20:00:31  5-MIN KAAT 050400Z AUTO 26008KT 10SM CLR 23/M06 A2997 4330 14 6200 250/08 RMK AO2 T02281061
94299KAAT AAT20160804200511008/04/16 20:05:31  5-MIN KAAT 050405Z AUTO 26008KT 10SM CLR 22/M06 A2997 4330 14 6200 240/08 RMK AO2 T02221061
94299KAAT AAT20160804201011008/04/16 20:10:31  5-MIN KAAT 050410Z AUTO 27010KT 10SM CLR 22/M06 A2997 4330 14 6200 250/10 RMK AO2 T02221061
94299KAAT AAT20160804201511008/04/16 20:15:31  5-MIN KAAT 050415Z AUTO 26011KT 10SM CLR 23/M06 A2997 4330 14 6200 250/11 RMK AO2 T02281061
94299KAAT AAT20160804202011008/04/16 20:20:31  5-MIN KAAT 050420Z AUTO 27010KT 10SM CLR 23/M06 A2997 4330 14 6200 250/10 RMK AO2 T02281056
94299KAAT AAT20160804202511008/04/16 20:25:31  5-MIN KAAT 050425Z AUTO 27012KT 10SM CLR 22/M06 A2997 4330 15 6200 260/12 RMK AO2 T02221056
94299KAAT AAT20160804203011008/04/16 20:30:31  5-MIN KAAT 050430Z AUTO 27012KT 10SM CLR 23/M06 A2997 4330 14 6200 260/12 RMK AO2 T02281056
94299KAAT AAT20160804203511008/04/16 20:35:31  5-MIN KAAT 050435Z AUTO 27011KT 10SM CLR 22/M05 A2997 4330 15 6200 250/11 RMK AO2 T02221050
94299KAAT AAT20160804204011008/04/16 20:40:31  5-MIN KAAT 050440Z AUTO 26009KT 10SM CLR 22/M05 A2997 4330 16 6100 240/09 RMK AO2 T02171050
94299KAAT AAT20160804204511008/04/16 20:45:31  5-MIN KAAT 050445Z AUTO 25007KT 10SM CLR 22/M04 A2998 4330 17 6100 230/07 RMK AO2 T02171044
94299KAAT AAT20160804205011708/04/16 20:50:31  5-MIN KAAT 050450Z AUTO 20005KT 10SM CLR 21/M04 A2998 4320 17 6000 180/05 RMK AO2 SLP104 T02111044
94299KAAT AAT20160804205511708/04/16 20:55:31  5-MIN KAAT 050455Z AUTO 12005KT 10SM CLR 20/M04 A2998 4320 19 5900 110/05 RMK AO2 SLP107 T02001039
94299KAAT AAT20160804210011008/04/16 21:00:31  5-MIN KAAT 050500Z AUTO 13005KT 10SM CLR 21/M04 A2999 4320 19 6000 120/05 RMK AO2 T02061039
94299KAAT AAT20160804210511008/04/16 21:05:31  5-MIN KAAT 050505Z AUTO VRB04KT 10SM CLR 22/M04 A2999 4320 17 6100 VRB/04 RMK AO2 T02171039
94299KAAT AAT20160804211011008/04/16 21:10:31  5-MIN KAAT 050510Z AUTO 15006KT 10SM CLR 22/M04 A2999 4320 17 6100 130/06 RMK AO2 T02171039
94299KAAT AAT20160804211511008/04/16 21:15:31  5-MIN KAAT 050515Z AUTO 15007KT 10SM CLR 21/M03 A2999 4320 19 6000 140/07 RMK AO2 T02061033
94299KAAT AAT20160804212011008/04/16 21:20:31  5-MIN KAAT 050520Z AUTO 18005KT 10SM CLR 23/M05 A2999 4320 15 6200 160/05 RMK AO2 T02281050
94299KAAT AAT20160804212511008/04/16 21:25:31  5-MIN KAAT 050525Z AUTO 24005KT 10SM CLR 23/M05 A2999 4320 14 6300 220/05 RMK AO2 T02331050
94299KAAT AAT20160804213011008/04/16 21:30:31  5-MIN KAAT 050530Z AUTO 19004KT 10SM CLR 22/M05 A2999 4320 15 6200 170/04 RMK AO2 T02221050
94299KAAT AAT20160804213511008/04/16 21:35:31  5-MIN KAAT 050535Z AUTO 19004KT 10SM CLR 22/M06 A2999 4310 15 6100 180/04 RMK AO2 T02171056
94299KAAT AAT20160804214011008/04/16 21:40:31  5-MIN KAAT 050540Z AUTO 19004KT 10SM CLR 21/M06 A2999 4310 16 6000 180/04 RMK AO2 T02111056
94299KAAT AAT20160804214511008/04/16 21:45:31  5-MIN KAAT 050545Z AUTO 22004KT 10SM CLR 21/M06 A2999 4320 16 6000 210/04 RMK AO2 T02061056
94299KAAT AAT20160804215013508/04/16 21:50:31  5-MIN KAAT 050550Z AUTO 20005KT 10SM CLR 21/M06 A2999 4320 16 6000 190/05 RMK AO2 SLP104 T02061056 10328 20200 53000
94299KAAT AAT20160804215513508/04/16 21:55:31  5-MIN KAAT 050555Z AUTO 23004KT 10SM CLR 20/M06 A2999 4320 17 5900 220/04 RMK AO2 SLP104 T02001056 10328 20200 51009
94299KAAT AAT20160804220011008/04/16 22:00:31  5-MIN KAAT 050600Z AUTO 20003KT 10SM CLR 20/M06 A2999 4310 17 5900 190/03 RMK AO2 T02001056
94299KAAT AAT20160804220511008/04/16 22:05:31  5-MIN KAAT 050605Z AUTO 00000KT 10SM CLR 19/M06 A2999 4320 18 5800 000/00 RMK AO2 T01891056
94299KAAT AAT20160804221011008/04/16 22:10:31  5-MIN KAAT 050610Z AUTO 00000KT 10SM CLR 19/M05 A2999 4310 18 5800 000/00 RMK AO2 T01941050
94299KAAT AAT20160804221511008/04/16 22:15:31  5-MIN KAAT 050615Z AUTO 00000KT 10SM CLR 18/M05 A2999 4310 20 5700 000/00 RMK AO2 T01831050
94299KAAT AAT20160804222011008/04/16 22:20:31  5-MIN KAAT 050620Z AUTO 00000KT 10SM CLR 19/M05 A2999 4310 19 5800 000/00 RMK AO2 T01891050
94299KAAT AAT20160804222511008/04/16 22:25:31  5-MIN KAAT 050625Z AUTO 00000KT 10SM CLR 18/M06 A2999 4310 20 5700 000/00 RMK AO2 T01781056
94299KAAT AAT20160804223011008/04/16 22:30:31  5-MIN KAAT 050630Z AUTO 00000KT 10SM CLR 17/M06 A2999 4310 21 5500 000/00 RMK AO2 T01671056
94299KAAT AAT20160804223511008/04/16 22:35:31  5-MIN KAAT 050635Z AUTO 00000KT 10SM CLR 17/M04 A2999 4310 23 5600 000/00 RMK AO2 T01721039
94299KAAT AAT20160804224011008/04/16 22:40:31  5-MIN KAAT 050640Z AUTO 02003KT 10SM CLR 17/M03 A3000 4310 24 5600 010/03 RMK AO2 T01721033
94299KAAT AAT20160804224511008/04/16 22:45:31  5-MIN KAAT 050645Z AUTO 02003KT 10SM CLR 17/M03 A3000 4310 24 5600 010/03 RMK AO2 T01721033
94299KAAT AAT20160804225011708/04/16 22:50:31  5-MIN KAAT 050650Z AUTO 07004KT 10SM CLR 17/M03 A3000 4310 24 5600 060/04 RMK AO2 SLP108 T01721033
94299KAAT AAT20160804225511708/04/16 22:55:31  5-MIN KAAT 050655Z AUTO 00000KT 10SM CLR 17/M02 A3000 4310 26 5600 000/00 RMK AO2 SLP109 T01721022
94299KAAT AAT20160804230011008/04/16 23:00:31  5-MIN KAAT 050700Z AUTO 21003KT 10SM CLR 16/M03 A3001 4300 28 5400 200/03 RMK AO2 T01561028
94299KAAT AAT20160804230511008/04/16 23:05:31  5-MIN KAAT 050705Z AUTO 00000KT 10SM CLR 16/M02 A3000 4310 30 5400 000/00 RMK AO2 T01561017
94299KAAT AAT20160804231011008/04/16 23:10:31  5-MIN KAAT 050710Z AUTO 06004KT 10SM CLR 16/M02 A3000 4310 29 5500 050/04 RMK AO2 T01611017
94299KAAT AAT20160804231511008/04/16 23:15:31  5-MIN KAAT 050715Z AUTO 00000KT 10SM CLR 16/M02 A3000 4310 29 5500 000/00 RMK AO2 T01611017
94299KAAT AAT20160804232011008/04/16 23:20:31  5-MIN KAAT 050720Z AUTO 00000KT 10SM CLR 16/M02 A3000 4310 30 5400 000/00 RMK AO2 T01561017
94299KAAT AAT20160804232511008/04/16 23:25:31  5-MIN KAAT 050725Z AUTO 00000KT 10SM CLR 16/M02 A3000 4310 29 5500 000/00 RMK AO2 T01611017
94299KAAT AAT20160804233011008/04/16 23:30:31  5-MIN KAAT 050730Z AUTO 00000KT 10SM CLR 15/M02 A3000 4310 30 5300 000/00 RMK AO2 T01501022
94299KAAT AAT20160804233511008/04/16 23:35:31  5-MIN KAAT 050735Z AUTO 00000KT 10SM CLR 14/M02 A3000 4310 31 5300 000/00 RMK AO2 T01441022
94299KAAT AAT20160804234011008/04/16 23:40:31  5-MIN KAAT 050740Z AUTO 00000KT 10SM CLR 15/M02 A3000 4310 30 5300 000/00 RMK AO2 T01501022
94299KAAT AAT20160804234511008/04/16 23:45:31  5-MIN KAAT 050745Z AUTO 00000KT 10SM CLR 14/M02 A2999 4310 31 5300 000/00 RMK AO2 T01441022
94299KAAT AAT20160804235012708/04/16 23:50:31  5-MIN KAAT 050750Z AUTO 00000KT 10SM CLR 14/M02 A2999 4320 31 5300 000/00 RMK AO2 SLP107 T01441022 403390061
94299KAAT AAT20160804235512708/04/16 23:55:31  5-MIN KAAT 050755Z AUTO VRB03KT 10SM CLR 15/M02 A2999 4310 31 5300 VRB/03 RMK AO2 SLP106 T01501017 403390061
94299KAAT AAT20160805000011008/05/16 00:00:31  5-MIN KAAT 050800Z AUTO 00000KT 10SM CLR 14/M01 A2999 4310 34 5300 000/00 RMK AO2 T01441011
94299KAAT AAT20160805000511008/05/16 00:05:31  5-MIN KAAT 050805Z AUTO 00000KT 10SM CLR 16/M01 A2999 4320 31 5400 000/00 RMK AO2 T01561011
94299KAAT AAT20160805001011008/05/16 00:10:31  5-MIN KAAT 050810Z AUTO 00000KT 10SM CLR 17/M02 A2999 4320 28 5500 000/00 RMK AO2 T01671017
94299KAAT AAT20160805001511008/05/16 00:15:31  5-MIN KAAT 050815Z AUTO 00000KT 10SM CLR 17/M02 A2998 4320 26 5600 000/00 RMK AO2 T01721022
94299KAAT AAT20160805002011008/05/16 00:20:31  5-MIN KAAT 050820Z AUTO 00000KT 10SM CLR 16/M02 A2999 4320 29 5500 000/00 RMK AO2 T01611017
94299KAAT AAT20160805002511008/05/16 00:25:31  5-MIN KAAT 050825Z AUTO 18003KT 10SM CLR 16/M02 A2998 4320 29 5500 170/03 RMK AO2 T01611017
94299KAAT AAT20160805003011008/05/16 00:30:31  5-MIN KAAT 050830Z AUTO 14007KT 10SM CLR 16/M01 A2998 4320 31 5400 130/07 RMK AO2 T01561011
94299KAAT AAT20160805003510908/05/16 00:35:31  5-MIN KAAT 050835Z AUTO 13006KT 10SM CLR 15/02 A2999 4320 42 5400 110/06 RMK AO2 T01500022
94299KAAT AAT20160805004010908/05/16 00:40:31  5-MIN KAAT 050840Z AUTO 09006KT 10SM CLR 15/02 A2999 4320 40 5400 070/06 RMK AO2 T01500017
94299KAAT AAT20160805004510908/05/16 00:45:31  5-MIN KAAT 050845Z AUTO 11006KT 10SM CLR 15/01 A2999 4320 38 5400 100/06 RMK AO2 T01500011
94299KAAT AAT20160805005012208/05/16 00:50:31  5-MIN KAAT 050850Z AUTO 12007KT 10SM CLR 16/01 A2999 4320 34 5500 110/07 RMK AO2 SLP105 T01610006 51009
94299KAAT AAT20160805005512208/05/16 00:55:31  5-MIN KAAT 050855Z AUTO 11005KT 10SM CLR 16/02 A2999 4310 39 5400 100/05 RMK AO2 SLP105 T01560017 50001
94299KAAT AAT20160805010010908/05/16 01:00:31  5-MIN KAAT 050900Z AUTO 00000KT 10SM CLR 15/02 A2999 4320 40 5300 000/00 RMK AO2 T01500017
94299KAAT AAT20160805010510908/05/16 01:05:31  5-MIN KAAT 050905Z AUTO 16003KT 10SM CLR 14/02 A2999 4320 41 5300 140/03 RMK AO2 T01440017
94299KAAT AAT20160805011010908/05/16 01:10:31  5-MIN KAAT 050910Z AUTO 15004KT 10SM CLR 14/02 A2999 4310 43 5200 140/04 RMK AO2 T01390017
94299KAAT AAT20160805011510908/05/16 01:15:31  5-MIN KAAT 050915Z AUTO 15003KT 10SM CLR 14/02 A2999 4310 43 5200 140/03 RMK AO2 T01390017
94299KAAT AAT20160805012010908/05/16 01:20:31  5-MIN KAAT 050920Z AUTO 00000KT 10SM CLR 15/02 A2999 4320 40 5300 000/00 RMK AO2 T01500017
94299KAAT AAT20160805012510908/05/16 01:25:31  5-MIN KAAT 050925Z AUTO 02004KT 10SM CLR 14/02 A2999 4310 43 5200 010/04 RMK AO2 T01390017
94299KAAT AAT20160805013010908/05/16 01:30:31  5-MIN KAAT 050930Z AUTO 00000KT 10SM CLR 14/02 A2999 4320 45 5200 000/00 RMK AO2 T01390022
94299KAAT AAT20160805013510908/05/16 01:35:31  5-MIN KAAT 050935Z AUTO 00000KT 10SM CLR 14/02 A2999 4320 43 5200 000/00 RMK AO2 T01390017
94299KAAT AAT20160805014010908/05/16 01:40:31  5-MIN KAAT 050940Z AUTO 00000KT 10SM CLR 14/02 A2999 4320 45 5200 000/00 RMK AO2 T01390022
94299KAAT AAT20160805014510908/05/16 01:45:31  5-MIN KAAT 050945Z AUTO 00000KT 10SM CLR 13/02 A2999 4320 46 5100 000/00 RMK AO2 T01280017
94299KAAT AAT20160805015011608/05/16 01:50:31  5-MIN KAAT 050950Z AUTO 10003KT 10SM CLR 13/02 A2999 4320 45 5200 080/03 RMK AO2 SLP105 T01330017
94299KAAT AAT20160805015511608/05/16 01:55:31  5-MIN KAAT 050955Z AUTO 00000KT 10SM CLR 13/02 A2999 4320 46 5100 000/00 RMK AO2 SLP107 T01280017
94299KAAT AAT20160805020010908/05/16 02:00:31  5-MIN KAAT 051000Z AUTO 02003KT 10SM CLR 13/02 A2999 4320 45 5200 010/03 RMK AO2 T01330017
94299KAAT AAT20160805020510908/05/16 02:05:31  5-MIN KAAT 051005Z AUTO 06003KT 10SM CLR 13/02 A2999 4320 46 5100 050/03 RMK AO2 T01280017
94299KAAT AAT20160805021010908/05/16 02:10:31  5-MIN KAAT 051010Z AUTO 00000KT 10SM CLR 14/02 A2999 4320 43 5200 000/00 RMK AO2 T01390017
94299KAAT AAT20160805021510908/05/16 02:15:31  5-MIN KAAT 051015Z AUTO 00000KT 10SM CLR 14/02 A2999 4320 43 5200 000/00 RMK AO2 T01390017
94299KAAT AAT20160805022010908/05/16 02:20:31  5-MIN KAAT 051020Z AUTO 00000KT 10SM CLR 13/02 A2999 4320 46 5100 000/00 RMK AO2 T01280017
94299KAAT AAT20160805022510908/05/16 02:25:31  5-MIN KAAT 051025Z AUTO 00000KT 10SM CLR 12/01 A2999 4320 46 5000 000/00 RMK AO2 T01220011
94299KAAT AAT20160805023010908/05/16 02:30:31  5-MIN KAAT 051030Z AUTO 00000KT 10SM CLR 12/01 A2999 4320 46 5000 000/00 RMK AO2 T01220011
94299KAAT AAT20160805023510908/05/16 02:35:31  5-MIN KAAT 051035Z AUTO 00000KT 10SM CLR 12/01 A2999 4320 46 5000 000/00 RMK AO2 T01170006
94299KAAT AAT20160805024010908/05/16 02:40:31  5-MIN KAAT 051040Z AUTO 00000KT 10SM CLR 12/01 A2999 4320 44 5000 000/00 RMK AO2 T01220006
94299KAAT AAT20160805024510908/05/16 02:45:31  5-MIN KAAT 051045Z AUTO 00000KT 10SM CLR 12/01 A2999 4320 48 5000 000/00 RMK AO2 T01170011
94299KAAT AAT20160805025011608/05/16 02:50:31  5-MIN KAAT 051050Z AUTO 00000KT 10SM CLR 12/01 A2999 4320 48 5000 000/00 RMK AO2 SLP107 T01170011
94299KAAT AAT20160805025511608/05/16 02:55:31  5-MIN KAAT 051055Z AUTO 00000KT 10SM CLR 12/02 A2999 4320 50 5000 000/00 RMK AO2 SLP107 T01170017
94299KAAT AAT20160805030010908/05/16 03:00:31  5-MIN KAAT 051100Z AUTO 00000KT 10SM CLR 12/02 A2999 4320 50 5000 000/00 RMK AO2 T01170017
94299KAAT AAT20160805030510908/05/16 03:05:31  5-MIN KAAT 051105Z AUTO 06003KT 10SM CLR 12/02 A2999 4320 48 5000 050/03 RMK AO2 T01220017
94299KAAT AAT20160805031010908/05/16 03:10:31  5-MIN KAAT 051110Z AUTO 09003KT 10SM CLR 11/01 A2999 4320 50 4900 080/03 RMK AO2 T01110011
94299KAAT AAT20160805031510908/05/16 03:15:31  5-MIN KAAT 051115Z AUTO 00000KT 10SM CLR 11/01 A2999 4320 52 4800 000/00 RMK AO2 T01060011
94299KAAT AAT20160805032010908/05/16 03:20:31  5-MIN KAAT 051120Z AUTO 00000KT 10SM CLR 11/02 A2999 4320 54 4800 000/00 RMK AO2 T01060017
94299KAAT AAT20160805032510908/05/16 03:25:31  5-MIN KAAT 051125Z AUTO 00000KT 10SM CLR 10/02 A2999 4320 56 4800 000/00 RMK AO2 T01000017
94299KAAT AAT20160805033010908/05/16 03:30:31  5-MIN KAAT 051130Z AUTO 00000KT 10SM CLR 09/01 A2999 4320 56 4700 000/00 RMK AO2 T00940011
94299KAAT AAT20160805033510908/05/16 03:35:31  5-MIN KAAT 051135Z AUTO 00000KT 10SM CLR 09/01 A2999 4320 56 4700 000/00 RMK AO2 T00940011
94299KAAT AAT20160805034010908/05/16 03:40:31  5-MIN KAAT 051140Z AUTO 00000KT 10SM CLR 09/01 A2999 4320 56 4700 000/00 RMK AO2 T00940011
94299KAAT AAT20160805034510908/05/16 03:45:31  5-MIN KAAT 051145Z AUTO 00000KT 10SM CLR 09/01 A2999 4320 56 4700 000/00 RMK AO2 T00940011
94299KAAT AAT20160805035013408/05/16 03:50:31  5-MIN KAAT 051150Z AUTO 00000KT 10SM CLR 10/01 A2999 4320 54 4800 000/00 RMK AO2 SLP109 T01000011 10200 20094 50001
94299KAAT AAT20160805035513408/05/16 03:55:31  5-MIN KAAT 051155Z AUTO 00000KT 10SM CLR 10/01 A2999 4320 54 4800 000/00 RMK AO2 SLP110 T01000011 10200 20094 56000
94299KAAT AAT20160805040010908/05/16 04:00:31  5-MIN KAAT 051200Z AUTO 00000KT 10SM CLR 10/02 A2999 4320 56 4800 000/00 RMK AO2 T01000017
94299KAAT AAT20160805040510908/05/16 04:05:31  5-MIN KAAT 051205Z AUTO 00000KT 10SM CLR 10/02 A2999 4320 56 4800 000/00 RMK AO2 T01000017
94299KAAT AAT20160805041010908/05/16 04:10:31  5-MIN KAAT 051210Z AUTO 00000KT 10SM CLR 10/02 A2999 4320 56 4800 000/00 RMK AO2 T01000017
94299KAAT AAT20160805041510908/05/16 04:15:31  5-MIN KAAT 051215Z AUTO 00000KT 10SM CLR 11/01 A2999 4320 50 4900 000/00 RMK AO2 T01110011
94299KAAT AAT20160805042010908/05/16 04:20:31  5-MIN KAAT 051220Z AUTO 00000KT 10SM CLR 11/01 A2999 4320 50 4800 000/00 RMK AO2 T01060006
94299KAAT AAT20160805042510908/05/16 04:25:31  5-MIN KAAT 051225Z AUTO 00000KT 10SM CLR 10/00 A2999 4320 49 4800 000/00 RMK AO2 T01000000
94299KAAT AAT20160805043010908/05/16 04:30:31  5-MIN KAAT 051230Z AUTO 00000KT 10SM CLR 11/01 A2999 4320 48 4900 000/00 RMK AO2 T01110006
94299KAAT AAT20160805043510908/05/16 04:35:31  5-MIN KAAT 051235Z AUTO 00000KT 10SM CLR 11/01 A2999 4320 50 4900 000/00 RMK AO2 T01110011
94299KAAT AAT20160805044010908/05/16 04:40:31  5-MIN KAAT 051240Z AUTO 00000KT 10SM CLR 10/01 A2999 4310 52 4800 000/00 RMK AO2 T01000006
94299KAAT AAT20160805044510908/05/16 04:45:31  5-MIN KAAT 051245Z AUTO 00000KT 10SM CLR 09/00 A2999 4320 51 4700 000/00 RMK AO2 T00940000
94299KAAT AAT20160805045011708/05/16 04:50:31  5-MIN KAAT 051250Z AUTO 00000KT 10SM CLR 09/M01 A2999 4320 51 4600 000/00 RMK AO2 SLP112 T00891006
94299KAAT AAT20160805045511608/05/16 04:55:31  5-MIN KAAT 051255Z AUTO 00000KT 10SM CLR 09/00 A2999 4320 53 4600 000/00 RMK AO2 SLP112 T00890000
94299KAAT AAT20160805050010908/05/16 05:00:31  5-MIN KAAT 051300Z AUTO 00000KT 10SM CLR 09/01 A2999 4320 56 4700 000/00 RMK AO2 T00940011
94299KAAT AAT20160805050510908/05/16 05:05:31  5-MIN KAAT 051305Z AUTO 00000KT 10SM CLR 10/01 A2999 4320 54 4800 000/00 RMK AO2 T01000011
94299KAAT AAT20160805051010908/05/16 05:10:31  5-MIN KAAT 051310Z AUTO 00000KT 10SM CLR 10/01 A2999 4320 52 4800 000/00 RMK AO2 T01000006
94299KAAT AAT20160805051510908/05/16 05:15:31  5-MIN KAAT 051315Z AUTO 00000KT 10SM CLR 11/01 A2999 4310 50 4800 000/00 RMK AO2 T01060006
94299KAAT AAT20160805052010908/05/16 05:20:31  5-MIN KAAT 051320Z AUTO 00000KT 10SM CLR 11/01 A2999 4310 50 4800 000/00 RMK AO2 T01060006
94299KAAT AAT20160805052511008/05/16 05:25:31  5-MIN KAAT 051325Z AUTO 00000KT 10SM CLR 10/M01 A3000 4310 47 4800 000/00 RMK AO2 T01001006
94299KAAT AAT20160805053010908/05/16 05:30:31  5-MIN KAAT 051330Z AUTO 00000KT 10SM CLR 09/00 A3000 4310 51 4700 000/00 RMK AO2 T00940000
94299KAAT AAT20160805053510908/05/16 05:35:31  5-MIN KAAT 051335Z AUTO 00000KT 10SM CLR 10/00 A3000 4310 49 4800 000/00 RMK AO2 T01000000
94299KAAT AAT20160805054010908/05/16 05:40:31  5-MIN KAAT 051340Z AUTO 00000KT 10SM CLR 10/00 A3000 4310 49 4800 000/00 RMK AO2 T01000000
94299KAAT AAT20160805054510908/05/16 05:45:31  5-MIN KAAT 051345Z AUTO 00000KT 10SM CLR 11/01 A3000 4310 50 4800 000/00 RMK AO2 T01060006
94299KAAT AAT20160805055011608/05/16 05:50:31  5-MIN KAAT 051350Z AUTO 00000KT 10SM CLR 11/01 A3000 4310 50 4800 000/00 RMK AO2 SLP115 T01060006
94299KAAT AAT20160805055511608/05/16 05:55:31  5-MIN KAAT 051355Z AUTO 00000KT 10SM CLR 11/00 A3000 4310 48 4800 000/00 RMK AO2 SLP116 T01060000
94299KAAT AAT20160805060010908/05/16 06:00:31  5-MIN KAAT 051400Z AUTO 00000KT 10SM CLR 11/00 A3000 4310 46 4900 000/00 RMK AO2 T01110000
94299KAAT AAT20160805060510908/05/16 06:05:31  5-MIN KAAT 051405Z AUTO 00000KT 10SM CLR 12/01 A3000 4310 46 5000 000/00 RMK AO2 T01170006
94299KAAT AAT20160805061010908/05/16 06:10:31  5-MIN KAAT 051410Z AUTO 00000KT 10SM CLR 12/01 A3000 4310 48 5000 000/00 RMK AO2 T01170011
94299KAAT AAT20160805061510908/05/16 06:15:31  5-MIN KAAT 051415Z AUTO 00000KT 10SM CLR 12/01 A3000 4310 44 5000 000/00 RMK AO2 T01220006
94299KAAT AAT20160805062010908/05/16 06:20:31  5-MIN KAAT 051420Z AUTO 00000KT 10SM CLR 13/01 A3000 4310 43 5100 000/00 RMK AO2 T01280006
94299KAAT AAT20160805062510908/05/16 06:25:31  5-MIN KAAT 051425Z AUTO 00000KT 10SM CLR 13/00 A3000 4310 41 5100 000/00 RMK AO2 T01280000
94299KAAT AAT20160805063010908/05/16 06:30:31  5-MIN KAAT 051430Z AUTO 00000KT 10SM CLR 13/01 A3000 4310 41 5100 000/00 RMK AO2 T01330006
94299KAAT AAT20160805063510908/05/16 06:35:31  5-MIN KAAT 051435Z AUTO 00000KT 10SM CLR 14/01 A3000 4310 40 5200 000/00 RMK AO2 T01390006
94299KAAT AAT20160805064010908/05/16 06:40:31  5-MIN KAAT 051440Z AUTO 00000KT 10SM CLR 14/01 A3000 4310 38 5300 000/00 RMK AO2 T01440006
94299KAAT AAT20160805064510908/05/16 06:45:31  5-MIN KAAT 051445Z AUTO 00000KT 10SM CLR 15/00 A3000 4310 35 5300 000/00 RMK AO2 T01500000
94299KAAT AAT20160805065012308/05/16 06:50:31  5-MIN KAAT 051450Z AUTO 00000KT 10SM CLR 16/M01 A3000 4310 33 5400 000/00 RMK AO2 SLP113 T01561006 56000
94299KAAT AAT20160805065512308/05/16 06:55:31  5-MIN KAAT 051455Z AUTO 00000KT 10SM CLR 16/M01 A3000 4310 33 5400 000/00 RMK AO2 SLP114 T01561006 53003
94299KAAT AAT20160805070011008/05/16 07:00:31  5-MIN KAAT 051500Z AUTO 00000KT 10SM CLR 16/M01 A3000 4310 32 5500 000/00 RMK AO2 T01611006
94299KAAT AAT20160805070510908/05/16 07:05:31  5-MIN KAAT 051505Z AUTO 00000KT 10SM CLR 16/00 A3000 4310 33 5500 000/00 RMK AO2 T01610000
94299KAAT AAT20160805071010908/05/16 07:10:31  5-MIN KAAT 051510Z AUTO 00000KT 10SM CLR 17/00 A3000 4310 32 5500 000/00 RMK AO2 T01670000
94299KAAT AAT20160805071510908/05/16 07:15:31  5-MIN KAAT 051515Z AUTO 00000KT 10SM CLR 17/00 A3000 4310 32 5500 000/00 RMK AO2 T01670000
94299KAAT AAT20160805072010908/05/16 07:20:31  5-MIN KAAT 051520Z AUTO 00000KT 10SM CLR 17/00 A3000 4310 31 5600 000/00 RMK AO2 T01720000
94299KAAT AAT20160805072510908/05/16 07:25:31  5-MIN KAAT 051525Z AUTO 00000KT 10SM CLR 17/00 A3000 4310 31 5600 000/00 RMK AO2 T01720000
94299KAAT AAT20160805073011008/05/16 07:30:31  5-MIN KAAT 051530Z AUTO 00000KT 10SM CLR 17/M01 A3000 4300 29 5600 000/00 RMK AO2 T01721006
94299KAAT AAT20160805073510908/05/16 07:35:31  5-MIN KAAT 051535Z AUTO 00000KT 10SM CLR 18/00 A3000 4300 30 5600 000/00 RMK AO2 T01780000
94299KAAT AAT20160805074010908/05/16 07:40:31  5-MIN KAAT 051540Z AUTO 00000KT 10SM CLR 18/00 A3000 4310 30 5600 000/00 RMK AO2 T01780000
94299KAAT AAT20160805074511008/05/16 07:45:31  5-MIN KAAT 051545Z AUTO 00000KT 10SM CLR 18/M01 A3000 4310 26 5700 000/00 RMK AO2 T01831011
94299KAAT AAT20160805075011708/05/16 07:50:31  5-MIN KAAT 051550Z AUTO 00000KT 10SM CLR 18/M01 A3000 4310 27 5700 000/00 RMK AO2 SLP114 T01831006
94299KAAT AAT20160805075511708/05/16 07:55:31  5-MIN KAAT 051555Z AUTO 16003KT 10SM CLR 18/M01 A3000 4310 27 5700 150/03 RMK AO2 SLP114 T01831006
94299KAAT AAT20160805080011008/05/16 08:00:31  5-MIN KAAT 051600Z AUTO 18003KT 10SM CLR 19/M01 A3000 4310 25 5800 160/03 RMK AO2 T01891011
94299KAAT AAT20160805080511008/05/16 08:05:31  5-MIN KAAT 051605Z AUTO 16004KT 10SM CLR 19/M01 A3000 4310 25 5800 140/04 RMK AO2 T01891011
94299KAAT AAT20160805081011008/05/16 08:10:31  5-MIN KAAT 051610Z AUTO 17005KT 10SM CLR 19/M01 A3000 4310 25 5800 160/05 RMK AO2 T01891011
94299KAAT AAT20160805081511008/05/16 08:15:31  5-MIN KAAT 051615Z AUTO 15003KT 10SM CLR 19/M01 A3000 4310 26 5800 140/03 RMK AO2 T01941006
94299KAAT AAT20160805082011008/05/16 08:20:31  5-MIN KAAT 051620Z AUTO VRB03KT 10SM CLR 20/M01 A3000 4310 25 5900 VRB/03 RMK AO2 T02001006
94299KAAT AAT20160805082511008/05/16 08:25:31  5-MIN KAAT 051625Z AUTO 16004KT 10SM CLR 20/M01 A3000 4310 25 5900 140/04 RMK AO2 T02001006
94299KAAT AAT20160805083010908/05/16 08:30:31  5-MIN KAAT 051630Z AUTO VRB03KT 10SM CLR 20/00 A3000 4310 26 5900 VRB/03 RMK AO2 T02000000
94299KAAT AAT20160805083510908/05/16 08:35:31  5-MIN KAAT 051635Z AUTO VRB03KT 10SM CLR 21/01 A3000 4310 26 6000 VRB/03 RMK AO2 T02060006
94299KAAT AAT20160805084010908/05/16 08:40:31  5-MIN KAAT 051640Z AUTO 12003KT 10SM CLR 21/00 A3000 4310 25 6000 110/03 RMK AO2 T02060000
94299KAAT AAT20160805084510908/05/16 08:45:31  5-MIN KAAT 051645Z AUTO 00000KT 10SM CLR 21/01 A3000 4310 25 6000 000/00 RMK AO2 T02110006
94299KAAT AAT20160805085011608/05/16 08:50:31  5-MIN KAAT 051650Z AUTO VRB03KT 10SM CLR 21/01 A3000 4310 25 6000 VRB/03 RMK AO2 SLP113 T02110006
94299KAAT AAT20160805085511608/05/16 08:55:31  5-MIN KAAT 051655Z AUTO VRB03KT 10SM CLR 21/01 A3000 4310 25 6000 VRB/03 RMK AO2 SLP115 T02110006
94299KAAT AAT20160805090010908/05/16 09:00:31  5-MIN KAAT 051700Z AUTO 21003KT 10SM CLR 22/01 A3000 4310 24 6100 190/03 RMK AO2 T02170006
94299KAAT AAT20160805090510908/05/16 09:05:31  5-MIN KAAT 051705Z AUTO VRB03KT 10SM CLR 22/01 A3000 4310 24 6100 VRB/03 RMK AO2 T02170006
94299KAAT AAT20160805091010908/05/16 09:10:31  5-MIN KAAT 051710Z AUTO VRB03KT 10SM CLR 22/01 A3000 4310 23 6100 VRB/03 RMK AO2 T02220006
94299KAAT AAT20160805091510908/05/16 09:15:31  5-MIN KAAT 051715Z AUTO 00000KT 10SM CLR 22/00 A3000 4310 22 6100 000/00 RMK AO2 T02220000
94299KAAT AAT20160805092010908/05/16 09:20:31  5-MIN KAAT 051720Z AUTO 00000KT 10SM CLR 23/01 A3000 4310 22 6300 000/00 RMK AO2 T02330006
94299KAAT AAT20160805092510908/05/16 09:25:31  5-MIN KAAT 051725Z AUTO VRB03KT 10SM CLR 25/01 A2999 4310 20 6500 VRB/03 RMK AO2 T02500006
94299KAAT AAT20160805093010908/05/16 09:30:31  5-MIN KAAT 051730Z AUTO 00000KT 10SM CLR 24/01 A2999 4310 21 6300 000/00 RMK AO2 T02390006
94299KAAT AAT20160805093510908/05/16 09:35:31  5-MIN KAAT 051735Z AUTO 25003KT 10SM CLR 24/01 A2999 4310 21 6400 230/03 RMK AO2 T02440011
94299KAAT AAT20160805094010908/05/16 09:40:31  5-MIN KAAT 051740Z AUTO VRB03KT 10SM CLR 24/01 A2999 4310 22 6300 VRB/03 RMK AO2 T02390011
94299KAAT AAT20160805094510908/05/16 09:45:31  5-MIN KAAT 051745Z AUTO 29004KT 10SM CLR 24/01 A2999 4320 21 6400 280/04 RMK AO2 T02440011
94299KAAT AAT20160805095013408/05/16 09:50:31  5-MIN KAAT 051750Z AUTO 00000KT 10SM CLR 24/02 A2999 4320 22 6400 000/00 RMK AO2 SLP107 T02440017 10250 20089 53003
94299KAAT AAT20160805095513408/05/16 09:55:31  5-MIN KAAT 051755Z AUTO 29004KT 10SM CLR 24/02 A2999 4320 22 6400 270/04 RMK AO2 SLP108 T02440017 10250 20089 58004
94299KAAT AAT20160805100010908/05/16 10:00:31  5-MIN KAAT 051800Z AUTO 23004KT 10SM CLR 24/02 A2999 4320 24 6300 220/04 RMK AO2 T02390022
94299KAAT AAT20160805100510908/05/16 10:05:31  5-MIN KAAT 051805Z AUTO 00000KT 10SM CLR 24/02 A2999 4320 24 6300 000/00 RMK AO2 T02390022
94299KAAT AAT20160805101010908/05/16 10:10:31  5-MIN KAAT 051810Z AUTO VRB04KT 10SM CLR 25/02 A2999 4320 22 6500 VRB/04 RMK AO2 T02500022
94299KAAT AAT20160805101510908/05/16 10:15:31  5-MIN KAAT 051815Z AUTO 00000KT 10SM CLR 24/03 A2999 4320 24 6400 000/00 RMK AO2 T02440028
94299KAAT AAT20160805102010908/05/16 10:20:31  5-MIN KAAT 051820Z AUTO 33004KT 10SM CLR 26/03 A2999 4320 22 6600 310/04 RMK AO2 T02610033
94299KAAT AAT20160805102510908/05/16 10:25:31  5-MIN KAAT 051825Z AUTO VRB04KT 10SM CLR 27/03 A2999 4320 22 6600 VRB/04 RMK AO2 T02670033
94299KAAT AAT20160805103010908/05/16 10:30:31  5-MIN KAAT 051830Z AUTO 02006KT 10SM CLR 27/03 A2999 4320 22 6700 360/06 RMK AO2 T02670033
94299KAAT AAT20160805103510908/05/16 10:35:31  5-MIN KAAT 051835Z AUTO 33005KT 10SM CLR 26/03 A2998 4320 22 6600 310/05 RMK AO2 T02610033
94299KAAT AAT20160805104010908/05/16 10:40:31  5-MIN KAAT 051840Z AUTO VRB05KT 10SM CLR 27/04 A2998 4320 22 6700 VRB/05 RMK AO2 T02670039
94299KAAT AAT20160805104510908/05/16 10:45:31  5-MIN KAAT 051845Z AUTO 26006KT 10SM CLR 27/04 A2998 4320 23 6700 240/06 RMK AO2 T02670044
94299KAAT AAT20160805105011608/05/16 10:50:31  5-MIN KAAT 051850Z AUTO 00000KT 10SM CLR 26/04 A2998 4320 23 6600 000/00 RMK AO2 SLP106 T02610039
94299KAAT AAT20160805105511608/05/16 10:55:31  5-MIN KAAT 051855Z AUTO 00000KT 10SM CLR 26/04 A2998 4330 23 6600 000/00 RMK AO2 SLP105 T02610039
94299KAAT AAT20160805110009908/05/16 11:00:31  5-MIN KAAT 051900Z AUTO 10SM CLR 27/04 A2998 4330 23 6700 M /M RMK AO2 T02670044
94299KAAT AAT20160805110510908/05/16 11:05:31  5-MIN KAAT 051905Z AUTO VRB03KT 10SM CLR 27/04 A2997 4330 22 6700 VRB/03 RMK AO2 T02670039
94299KAAT AAT20160805111009908/05/16 11:10:31  5-MIN KAAT 051910Z AUTO 10SM CLR 27/04 A2997 4330 22 6700 M /M RMK AO2 T02670039
94299KAAT AAT20160805111509908/05/16 11:15:31  5-MIN KAAT 051915Z AUTO 10SM CLR 27/04 A2997 4330 22 6700 M /M RMK AO2 T02720039
94299KAAT AAT20160805112010908/05/16 11:20:31  5-MIN KAAT 051920Z AUTO 00000KT 10SM CLR 27/04 A2997 4330 22 6700 000/00 RMK AO2 T02670039
94299KAAT AAT20160805112510908/05/16 11:25:31  5-MIN KAAT 051925Z AUTO VRB04KT 10SM CLR 27/04 A2997 4340 22 6700 VRB/04 RMK AO2 T02720039
94299KAAT AAT20160805113010908/05/16 11:30:31  5-MIN KAAT 051930Z AUTO VRB04KT 10SM CLR 28/04 A2997 4340 21 6800 VRB/04 RMK AO2 T02780039
94299KAAT AAT20160805113510908/05/16 11:35:31  5-MIN KAAT 051935Z AUTO 33008KT 10SM CLR 28/04 A2997 4340 20 6900 310/08 RMK AO2 T02830039
94299KAAT AAT20160805114010908/05/16 11:40:31  5-MIN KAAT 051940Z AUTO VRB05KT 10SM CLR 28/04 A2996 4340 20 6900 VRB/05 RMK AO2 T02830039
94299KAAT AAT20160805114510908/05/16 11:45:31  5-MIN KAAT 051945Z AUTO 29006KT 10SM CLR 28/03 A2996 4340 20 6900 280/06 RMK AO2 T02830033
94299KAAT AAT20160805115011608/05/16 11:50:31  5-MIN KAAT 051950Z AUTO 33004KT 10SM CLR 28/03 A2996 4340 19 6900 320/04 RMK AO2 SLP099 T02830028
94299KAAT AAT20160805115512208/05/16 11:55:31  5-MIN KAAT 051955Z AUTO 28009G14KT 10SM CLR 29/03 A2996 4340 19 6900 270/09G14 RMK AO2 SLP098 T02890033
94299KAAT AAT20160805120011508/05/16 12:00:31  5-MIN KAAT 052000Z AUTO VRB06G14KT 10SM CLR 29/03 A2996 4340 18 6900 VRB/06G14 RMK AO2 T02890028
94299KAAT AAT20160805120510908/05/16 12:05:31  5-MIN KAAT 052005Z AUTO 27007KT 10SM CLR 29/03 A2996 4350 18 6900 250/07 RMK AO2 T02890028
94299KAAT AAT20160805121010908/05/16 12:10:31  5-MIN KAAT 052010Z AUTO VRB03KT 10SM CLR 28/02 A2996 4350 18 6900 VRB/03 RMK AO2 T02830022
94299KAAT AAT20160805121510908/05/16 12:15:31  5-MIN KAAT 052015Z AUTO 28007KT 10SM CLR 29/02 A2996 4350 17 6900 270/07 RMK AO2 T02890022
94299KAAT AAT20160805122012508/05/16 12:20:31  5-MIN KAAT 052020Z AUTO 32007KT 270V340 10SM CLR 29/02 A2995 4350 17 7000 310/07 260V330 RMK AO2 T02940022
94299KAAT AAT20160805122510908/05/16 12:25:31  5-MIN KAAT 052025Z AUTO 31006KT 10SM CLR 29/02 A2995 4350 16 7000 300/06 RMK AO2 T02940017
94299KAAT AAT20160805123009908/05/16 12:30:31  5-MIN KAAT 052030Z AUTO 10SM CLR 30/02 A2995 4350 16 7100 M /M RMK AO2 T03000017
94299KAAT AAT20160805123510908/05/16 12:35:31  5-MIN KAAT 052035Z AUTO 00000KT 10SM CLR 29/01 A2995 4350 15 6900 000/00 RMK AO2 T02890006
94299KAAT AAT20160805124010908/05/16 12:40:31  5-MIN KAAT 052040Z AUTO VRB06KT 10SM CLR 31/00 A2995 4350 13 7100 VRB/06 RMK AO2 T03060000
94299KAAT AAT20160805124511008/05/16 12:45:31  5-MIN KAAT 052045Z AUTO VRB04KT 10SM CLR 30/M01 A2995 4360 13 7100 VRB/04 RMK AO2 T03001011
94299KAAT AAT20160805125012308/05/16 12:50:31  5-MIN KAAT 052050Z AUTO 30007KT 10SM CLR 30/M02 A2995 4360 12 7100 280/07 RMK AO2 SLP090 T03001017 58004
94299KAAT AAT20160805125512308/05/16 12:55:31  5-MIN KAAT 052055Z AUTO 28005KT 10SM CLR 29/M02 A2995 4360 13 7000 260/05 RMK AO2 SLP091 T02941017 58013
94299KAAT AAT20160805130011008/05/16 13:00:31  5-MIN KAAT 052100Z AUTO 24007KT 10SM CLR 30/M03 A2994 4360 11 7100 220/07 RMK AO2 T03001028
94299KAAT AAT20160805130511008/05/16 13:05:31  5-MIN KAAT 052105Z AUTO 19008KT 10SM CLR 29/M04 A2994 4360 11 7000 170/08 RMK AO2 T02941039
94299KAAT AAT20160805131011008/05/16 13:10:31  5-MIN KAAT 052110Z AUTO VRB05KT 10SM CLR 30/M05 A2994 4360 10 7100 VRB/05 RMK AO2 T03001050
94299KAAT AAT20160805131511008/05/16 13:15:31  5-MIN KAAT 052115Z AUTO VRB03KT 10SM CLR 31/M05 A2994 4360 09 7200 VRB/03 RMK AO2 T03111050
94299KAAT AAT20160805132011008/05/16 13:20:31  5-MIN KAAT 052120Z AUTO VRB04KT 10SM CLR 30/M08 A2994 4370 07 7100 VRB/04 RMK AO2 T03001083
94299KAAT AAT20160805132511008/05/16 13:25:31  5-MIN KAAT 052125Z AUTO 00000KT 10SM CLR 29/M07 A2994 4370 09 6900 000/00 RMK AO2 T02891067
94299KAAT AAT20160805133011008/05/16 13:30:31  5-MIN KAAT 052130Z AUTO 25005KT 10SM CLR 29/M06 A2993 4370 09 7000 230/05 RMK AO2 T02941061
94299KAAT AAT20160805133511008/05/16 13:35:31  5-MIN KAAT 052135Z AUTO 27009KT 10SM CLR 29/M07 A2993 4370 09 7000 260/09 RMK AO2 T02941067
94299KAAT AAT20160805134011008/05/16 13:40:31  5-MIN KAAT 052140Z AUTO 26007KT 10SM CLR 29/M06 A2993 4370 10 6900 240/07 RMK AO2 T02891056
94299KAAT AAT20160805134511008/05/16 13:45:31  5-MIN KAAT 052145Z AUTO 28013KT 10SM CLR 29/M04 A2994 4370 11 7000 260/13 RMK AO2 T02941039
94299KAAT AAT20160805135011708/05/16 13:50:31  5-MIN KAAT 052150Z AUTO 25013KT 10SM CLR 30/M04 A2994 4370 10 7100 240/13 RMK AO2 SLP090 T03001044
94299KAAT AAT20160805135511708/05/16 13:55:31  5-MIN KAAT 052155Z AUTO 26013KT 10SM CLR 30/M03 A2993 4370 11 7100 240/13 RMK AO2 SLP090 T03001033
94299KAAT AAT20160805140011008/05/16 14:00:31  5-MIN KAAT 052200Z AUTO 25014KT 10SM CLR 31/M04 A2993 4370 09 7200 240/14 RMK AO2 T03111044
94299KAAT AAT20160805140511008/05/16 14:05:31  5-MIN KAAT 052205Z AUTO 25014KT 10SM CLR 31/M05 A2993 4370 09 7100 230/14 RMK AO2 T03061050
94299KAAT AAT20160805141011008/05/16 14:10:31  5-MIN KAAT 052210Z AUTO 28014KT 10SM CLR 31/M03 A2993 4370 10 7200 270/14 RMK AO2 T03111033
94299KAAT AAT20160805141511608/05/16 14:15:31  5-MIN KAAT 052215Z AUTO 27017G20KT 10SM CLR 31/M03 A2993 4370 11 7100 250/17G20 RMK AO2 T03061028
94299KAAT AAT20160805142011608/05/16 14:20:31  5-MIN KAAT 052220Z AUTO 27013G20KT 10SM CLR 31/M04 A2992 4380 10 7100 250/13G20 RMK AO2 T03061039
94299KAAT AAT20160805142511608/05/16 14:25:31  5-MIN KAAT 052225Z AUTO 26016G19KT 10SM CLR 31/M04 A2993 4380 10 7200 240/16G19 RMK AO2 T03111039
94299KAAT AAT20160805143011608/05/16 14:30:31  5-MIN KAAT 052230Z AUTO 27012G19KT 10SM CLR 31/M03 A2993 4380 11 7100 260/12G19 RMK AO2 T03061033
94299KAAT AAT20160805143511608/05/16 14:35:31  5-MIN KAAT 052235Z AUTO 26013G20KT 10SM CLR 31/M04 A2992 4380 09 7200 250/13G20 RMK AO2 T03111044
94299KAAT AAT20160805144011608/05/16 14:40:31  5-MIN KAAT 052240Z AUTO 26013G20KT 10SM CLR 31/M04 A2993 4380 10 7100 240/13G20 RMK AO2 T03061044
94299KAAT AAT20160805144511008/05/16 14:45:31  5-MIN KAAT 052245Z AUTO 27012KT 10SM CLR 29/M04 A2992 4380 10 7000 250/12 RMK AO2 T02941044
94299KAAT AAT20160805145011708/05/16 14:50:31  5-MIN KAAT 052250Z AUTO 28013KT 10SM CLR 29/M04 A2992 4380 10 7000 260/13 RMK AO2 SLP089 T02941044
94299KAAT AAT20160805145511708/05/16 14:55:31  5-MIN KAAT 052255Z AUTO 25014KT 10SM CLR 30/M04 A2992 4380 10 7100 230/14 RMK AO2 SLP087 T03001044
94299KAAT AAT20160805150011608/05/16 15:00:31  5-MIN KAAT 052300Z AUTO 27013G19KT 10SM CLR 31/M04 A2992 4380 10 7100 260/13G19 RMK AO2 T03061044
94299KAAT AAT20160805150511608/05/16 15:05:31  5-MIN KAAT 052305Z AUTO 29014G19KT 10SM CLR 31/M04 A2992 4380 10 7100 270/14G19 RMK AO2 T03061044
94299KAAT AAT20160805151011008/05/16 15:10:31  5-MIN KAAT 052310Z AUTO 26009KT 10SM CLR 31/M04 A2992 4380 10 7100 250/09 RMK AO2 T03061044
94299KAAT AAT20160805151511608/05/16 15:15:31  5-MIN KAAT 052315Z AUTO 28011G21KT 10SM CLR 31/M04 A2992 4380 10 7100 270/11G21 RMK AO2 T03061039
94299KAAT AAT20160805152011608/05/16 15:20:31  5-MIN KAAT 052320Z AUTO 29010G21KT 10SM CLR 30/M04 A2992 4380 10 7100 270/10G21 RMK AO2 T03001039
94299KAAT AAT20160805152511008/05/16 15:25:31  5-MIN KAAT 052325Z AUTO 28010KT 10SM CLR 30/M04 A2991 4390 10 7100 260/10 RMK AO2 T03001039
94299KAAT AAT20160805153011008/05/16 15:30:31  5-MIN KAAT 052330Z AUTO 28013KT 10SM CLR 30/M04 A2992 4380 10 7100 270/13 RMK AO2 T03001039
94299KAAT AAT20160805153511008/05/16 15:35:31  5-MIN KAAT 052335Z AUTO 26010KT 10SM CLR 30/M04 A2992 4390 10 7100 250/10 RMK AO2 T03001039
94299KAAT AAT20160805154011008/05/16 15:40:31  5-MIN KAAT 052340Z AUTO 28012KT 10SM CLR 30/M04 A2992 4380 10 7100 260/12 RMK AO2 T03001039
94299KAAT AAT20160805154512208/05/16 15:45:31  5-MIN KAAT 052345Z AUTO 30008KT 10SM CLR 29/M04 A2992 4380 11 7000 290/08 RMK AO2 LTG DSNT NE T02891039
94299KAAT AAT20160805155014708/05/16 15:50:31  5-MIN KAAT 052350Z AUTO 29008KT 10SM CLR 29/M04 A2992 4380 11 7000 280/08 RMK AO2 LTG DSNT NE SLP089 T02891039 10311 20239 58013
94299KAAT AAT20160805155514708/05/16 15:55:31  5-MIN KAAT 052355Z AUTO 27009KT 10SM CLR 29/M03 A2991 4390 11 7000 260/09 RMK AO2 LTG DSNT NE SLP087 T02941033 10311 20239 56009
94299KAAT AAT20160805160011008/05/16 16:00:31  5-MIN KAAT 060000Z AUTO 29008KT 10SM CLR 31/M03 A2992 4390 11 7100 280/08 RMK AO2 T03061033
94299KAAT AAT20160805160511008/05/16 16:05:31  5-MIN KAAT 060005Z AUTO 28012KT 10SM CLR 30/M03 A2992 4390 11 7100 260/12 RMK AO2 T03001033
94299KAAT AAT20160805161011008/05/16 16:10:31  5-MIN KAAT 060010Z AUTO 28010KT 10SM CLR 30/M03 A2991 4390 11 7100 270/10 RMK AO2 T03001033
94299KAAT AAT20160805161511008/05/16 16:15:31  5-MIN KAAT 060015Z AUTO 28009KT 10SM CLR 29/M03 A2991 4390 11 7000 270/09 RMK AO2 T02941033
94299KAAT AAT20160805162011008/05/16 16:20:31  5-MIN KAAT 060020Z AUTO 28011KT 10SM CLR 29/M03 A2991 4390 11 7000 260/11 RMK AO2 T02941033
94299KAAT AAT20160805162511008/05/16 16:25:31  5-MIN KAAT 060025Z AUTO 26005KT 10SM CLR 29/M04 A2991 4390 11 7000 250/05 RMK AO2 T02941039
94299KAAT AAT20160805163011008/05/16 16:30:31  5-MIN KAAT 060030Z AUTO 30007KT 10SM CLR 29/M04 A2991 4390 11 7000 280/07 RMK AO2 T02941039
94299KAAT AAT20160805163511008/05/16 16:35:31  5-MIN KAAT 060035Z AUTO 29009KT 10SM CLR 29/M04 A2991 4390 11 7000 270/09 RMK AO2 T02891039
94299KAAT AAT20160805164011008/05/16 16:40:31  5-MIN KAAT 060040Z AUTO 29008KT 10SM CLR 29/M04 A2991 4390 11 7000 280/08 RMK AO2 T02891044
94299KAAT AAT20160805164511008/05/16 16:45:31  5-MIN KAAT 060045Z AUTO 26006KT 10SM CLR 29/M04 A2991 4390 11 7000 240/06 RMK AO2 T02891044
94299KAAT AAT20160805165011708/05/16 16:50:31  5-MIN KAAT 060050Z AUTO 25009KT 10SM CLR 29/M04 A2991 4390 11 7000 240/09 RMK AO2 SLP087 T02891039
94299KAAT AAT20160805165513908/05/16 16:55:31  5-MIN KAAT 060055Z AUTO 26009G16KT 230V300 10SM CLR 30/M03 A2991 4390 11 7100 240/09G16 220V290 RMK AO2 SLP086 T03001033
94299KAAT AAT20160805170011008/05/16 17:00:31  5-MIN KAAT 060100Z AUTO 27010KT 10SM CLR 30/M03 A2991 4390 11 7100 250/10 RMK AO2 T03001033
94299KAAT AAT20160805170511608/05/16 17:05:31  5-MIN KAAT 060105Z AUTO 26015G22KT 10SM CLR 30/M03 A2991 4390 11 7100 250/15G22 RMK AO2 T03001033
94299KAAT AAT20160805171011608/05/16 17:10:31  5-MIN KAAT 060110Z AUTO 26018G24KT 10SM CLR 29/M04 A2991 4390 10 7000 240/18G24 RMK AO2 T02941044
94299KAAT AAT20160805171511608/05/16 17:15:31  5-MIN KAAT 060115Z AUTO 26017G24KT 10SM CLR 28/M04 A2991 4390 11 6900 240/17G24 RMK AO2 T02831044
94299KAAT AAT20160805172011008/05/16 17:20:31  5-MIN KAAT 060120Z AUTO 26015KT 10SM CLR 29/M04 A2991 4390 11 7000 240/15 RMK AO2 T02891044
94299KAAT AAT20160805172511008/05/16 17:25:31  5-MIN KAAT 060125Z AUTO 26015KT 10SM CLR 28/M05 A2991 4390 11 6900 250/15 RMK AO2 T02831050
94299KAAT AAT20160805173011608/05/16 17:30:31  5-MIN KAAT 060130Z AUTO 25014G24KT 10SM CLR 28/M05 A2991 4390 11 6900 240/14G24 RMK AO2 T02831050
94299KAAT AAT20160805173511608/05/16 17:35:31  5-MIN KAAT 060135Z AUTO 26014G24KT 10SM CLR 28/M05 A2991 4390 11 6900 250/14G24 RMK AO2 T02831050
94299KAAT AAT20160805174011608/05/16 17:40:31  5-MIN KAAT 060140Z AUTO 26017G22KT 10SM CLR 28/M06 A2992 4380 11 6800 240/17G22 RMK AO2 T02781056
94299KAAT AAT20160805174511608/05/16 17:45:31  5-MIN KAAT 060145Z AUTO 26014G22KT 10SM CLR 28/M06 A2992 4380 11 6800 250/14G22 RMK AO2 T02781056
94299KAAT AAT20160805175011708/05/16 17:50:31  5-MIN KAAT 060150Z AUTO 27015KT 10SM CLR 28/M06 A2993 4370 10 6900 260/15 RMK AO2 SLP093 T02831056
94299KAAT AAT20160805175511708/05/16 17:55:31  5-MIN KAAT 060155Z AUTO 30011KT 10SM CLR 28/M04 A2993 4370 12 6800 290/11 RMK AO2 SLP094 T02781039
94299KAAT AAT20160805180011508/05/16 18:00:31  5-MIN KAAT 060200Z AUTO 31015G21KT 10SM CLR 27/02 A2993 4370 19 6700 300/15G21 RMK AO2 T02670017
94299KAAT AAT20160805180512608/05/16 18:05:31  5-MIN KAAT 060205Z AUTO 31015G21KT 10SM CLR 27/02 A2993 4370 20 6700 290/15G21 RMK AO2 WSHFT 0149 T02670022
94299KAAT AAT20160805181012608/05/16 18:10:31  5-MIN KAAT 060210Z AUTO 30014G20KT 10SM CLR 26/02 A2993 4370 21 6600 290/14G20 RMK AO2 WSHFT 0149 T02610022
94299KAAT AAT20160805181512608/05/16 18:15:31  5-MIN KAAT 060215Z AUTO 32014G20KT 10SM CLR 26/02 A2994 4370 21 6600 300/14G20 RMK AO2 WSHFT 0149 T02610022
94299KAAT AAT20160805182012008/05/16 18:20:31  5-MIN KAAT 060220Z AUTO 31014KT 10SM CLR 26/02 A2994 4360 21 6600 290/14 RMK AO2 WSHFT 0149 T02610022
94299KAAT AAT20160805182512008/05/16 18:25:31  5-MIN KAAT 060225Z AUTO 31015KT 10SM CLR 26/02 A2994 4360 21 6600 300/15 RMK AO2 WSHFT 0149 T02560022
94299KAAT AAT20160805183012008/05/16 18:30:31  5-MIN KAAT 060230Z AUTO 31013KT 10SM CLR 26/02 A2994 4360 21 6600 300/13 RMK AO2 WSHFT 0149 T02560017
94299KAAT AAT20160805183512008/05/16 18:35:31  5-MIN KAAT 060235Z AUTO 31012KT 10SM CLR 26/02 A2994 4360 21 6600 300/12 RMK AO2 WSHFT 0149 T02560017
94299KAAT AAT20160805184012008/05/16 18:40:31  5-MIN KAAT 060240Z AUTO 31011KT 10SM CLR 25/02 A2995 4360 21 6500 290/11 RMK AO2 WSHFT 0149 T02500017
94299KAAT AAT20160805184512008/05/16 18:45:31  5-MIN KAAT 060245Z AUTO 30014KT 10SM CLR 25/02 A2995 4360 21 6500 290/14 RMK AO2 WSHFT 0149 T02500017
94299KAAT AAT20160805185013308/05/16 18:50:31  5-MIN KAAT 060250Z AUTO 32012KT 10SM CLR 25/01 A2995 4350 20 6500 300/12 RMK AO2 WSHFT 0149 SLP098 T02500011 56009
94299KAAT AAT20160805185513908/05/16 18:55:31  5-MIN KAAT 060255Z AUTO 31011G19KT 10SM CLR 25/01 A2995 4350 20 6500 300/11G19 RMK AO2 WSHFT 0149 SLP099 T02500011 53012
94299KAAT AAT20160805190010908/05/16 19:00:31  5-MIN KAAT 060300Z AUTO 31012KT 10SM CLR 24/01 A2995 4350 21 6400 300/12 RMK AO2 T02440011
94299KAAT AAT20160805190510908/05/16 19:05:31  5-MIN KAAT 060305Z AUTO 31009KT 10SM CLR 24/01 A2996 4350 22 6400 290/09 RMK AO2 T02390011
94299KAAT AAT20160805191010908/05/16 19:10:31  5-MIN KAAT 060310Z AUTO 30009KT 10SM CLR 23/02 A2996 4350 24 6300 290/09 RMK AO2 T02330017
94299KAAT AAT20160805191510908/05/16 19:15:31  5-MIN KAAT 060315Z AUTO 30008KT 10SM CLR 23/01 A2996 4340 23 6300 290/08 RMK AO2 T02330011
94299KAAT AAT20160805192010908/05/16 19:20:31  5-MIN KAAT 060320Z AUTO 31007KT 10SM CLR 23/02 A2996 4340 24 6300 300/07 RMK AO2 T02280017
94299KAAT AAT20160805192510908/05/16 19:25:31  5-MIN KAAT 060325Z AUTO 31007KT 10SM CLR 22/02 A2997 4340 26 6200 290/07 RMK AO2 T02220022
94299KAAT AAT20160805193010908/05/16 19:30:31  5-MIN KAAT 060330Z AUTO 30007KT 10SM CLR 22/02 A2997 4340 26 6200 290/07 RMK AO2 T02220022
94299KAAT AAT20160805193510908/05/16 19:35:31  5-MIN KAAT 060335Z AUTO 30008KT 10SM CLR 22/02 A2997 4340 26 6200 280/08 RMK AO2 T02220022
94299KAAT AAT20160805194010908/05/16 19:40:31  5-MIN KAAT 060340Z AUTO 25006KT 10SM CLR 22/02 A2997 4330 26 6200 230/06 RMK AO2 T02220022
94299KAAT AAT20160805194510908/05/16 19:45:31  5-MIN KAAT 060345Z AUTO 25005KT 10SM CLR 22/02 A2997 4330 27 6100 230/05 RMK AO2 T02170022
94299KAAT AAT20160805195011608/05/16 19:50:31  5-MIN KAAT 060350Z AUTO 26006KT 10SM CLR 21/02 A2998 4330 27 6100 240/06 RMK AO2 SLP109 T02110017
94299KAAT AAT20160805195511608/05/16 19:55:31  5-MIN KAAT 060355Z AUTO 26005KT 10SM CLR 21/02 A2998 4330 28 6000 250/05 RMK AO2 SLP110 T02060017
94299KAAT AAT20160805200010908/05/16 20:00:31  5-MIN KAAT 060400Z AUTO 27006KT 10SM CLR 21/01 A2998 4330 27 6000 260/06 RMK AO2 T02060011
94299KAAT AAT20160805200510908/05/16 20:05:31  5-MIN KAAT 060405Z AUTO 28005KT 10SM CLR 21/01 A2998 4320 27 6000 270/05 RMK AO2 T02060011
94299KAAT AAT20160805201010908/05/16 20:10:31  5-MIN KAAT 060410Z AUTO 28006KT 10SM CLR 21/01 A2999 4320 27 6000 260/06 RMK AO2 T02060011
94299KAAT AAT20160805201510908/05/16 20:15:31  5-MIN KAAT 060415Z AUTO 28003KT 10SM CLR 20/02 A2999 4320 29 5900 260/03 RMK AO2 T02000017
94299KAAT AAT20160805202010908/05/16 20:20:31  5-MIN KAAT 060420Z AUTO 25003KT 10SM CLR 19/02 A2999 4320 30 5800 230/03 RMK AO2 T01940017
94299KAAT AAT20160805202510908/05/16 20:25:31  5-MIN KAAT 060425Z AUTO 25005KT 10SM CLR 19/01 A2999 4320 30 5800 230/05 RMK AO2 T01890011
94299KAAT AAT20160805203010908/05/16 20:30:31  5-MIN KAAT 060430Z AUTO 25006KT 10SM CLR 19/02 A2999 4310 31 5800 230/06 RMK AO2 T01890017
94299KAAT AAT20160805203510908/05/16 20:35:31  5-MIN KAAT 060435Z AUTO 25006KT 10SM CLR 19/02 A2999 4310 31 5800 240/06 RMK AO2 T01890017
94299KAAT AAT20160805204010908/05/16 20:40:31  5-MIN KAAT 060440Z AUTO 26006KT 10SM CLR 19/02 A2999 4310 31 5800 240/06 RMK AO2 T01890017
94299KAAT AAT20160805204510908/05/16 20:45:31  5-MIN KAAT 060445Z AUTO 26006KT 10SM CLR 19/01 A3000 4310 30 5800 250/06 RMK AO2 T01890011
94299KAAT AAT20160805205011608/05/16 20:50:31  5-MIN KAAT 060450Z AUTO 27005KT 10SM CLR 19/01 A3000 4310 30 5800 260/05 RMK AO2 SLP116 T01890011
94299KAAT AAT20160805205511608/05/16 20:55:31  5-MIN KAAT 060455Z AUTO 27006KT 10SM CLR 18/01 A3000 4310 31 5700 250/06 RMK AO2 SLP116 T01830011
94299KAAT AAT20160805210010908/05/16 21:00:31  5-MIN KAAT 060500Z AUTO 27006KT 10SM CLR 19/01 A3000 4310 30 5800 250/06 RMK AO2 T01890011
94299KAAT AAT20160805210510908/05/16 21:05:31  5-MIN KAAT 060505Z AUTO 27006KT 10SM CLR 18/01 A3000 4310 31 5700 250/06 RMK AO2 T01830011
94299KAAT AAT20160805211010908/05/16 21:10:31  5-MIN KAAT 060510Z AUTO 26006KT 10SM CLR 19/02 A3000 4300 31 5800 240/06 RMK AO2 T01890017
94299KAAT AAT20160805211510908/05/16 21:15:31  5-MIN KAAT 060515Z AUTO 26006KT 10SM CLR 19/01 A3000 4300 30 5800 240/06 RMK AO2 T01890011
94299KAAT AAT20160805212010908/05/16 21:20:31  5-MIN KAAT 060520Z AUTO 26008KT 10SM CLR 18/01 A3000 4300 31 5700 250/08 RMK AO2 T01830011
94299KAAT AAT20160805212510908/05/16 21:25:31  5-MIN KAAT 060525Z AUTO 27007KT 10SM CLR 18/01 A3000 4300 31 5700 250/07 RMK AO2 T01830011
94299KAAT AAT20160805213010908/05/16 21:30:31  5-MIN KAAT 060530Z AUTO 26007KT 10SM CLR 18/01 A3000 4300 31 5700 240/07 RMK AO2 T01830011
94299KAAT AAT20160805213510908/05/16 21:35:31  5-MIN KAAT 060535Z AUTO 25006KT 10SM CLR 18/01 A3000 4300 32 5600 240/06 RMK AO2 T01780011
94299KAAT AAT20160805214010908/05/16 21:40:31  5-MIN KAAT 060540Z AUTO 26005KT 10SM CLR 18/01 A3000 4300 32 5600 250/05 RMK AO2 T01780011
94299KAAT AAT20160805214510908/05/16 21:45:31  5-MIN KAAT 060545Z AUTO 26006KT 10SM CLR 18/01 A3000 4300 32 5600 250/06 RMK AO2 T01780011
94299KAAT AAT20160805215013408/05/16 21:50:31  5-MIN KAAT 060550Z AUTO 26007KT 10SM CLR 17/01 A3000 4310 33 5600 240/07 RMK AO2 SLP115 T01720011 10306 20172 53012
94299KAAT AAT20160805215513408/05/16 21:55:31  5-MIN KAAT 060555Z AUTO 27005KT 10SM CLR 17/01 A3000 4310 33 5600 260/05 RMK AO2 SLP114 T01720011 10306 20172 51015
94299KAAT AAT20160805220010908/05/16 22:00:31  5-MIN KAAT 060600Z AUTO 26005KT 10SM CLR 17/01 A3000 4310 33 5600 250/05 RMK AO2 T01720011
94299KAAT AAT20160805220510908/05/16 22:05:31  5-MIN KAAT 060605Z AUTO 26004KT 10SM CLR 17/01 A3000 4300 34 5500 240/04 RMK AO2 T01670011
94299KAAT AAT20160805221010908/05/16 22:10:31  5-MIN KAAT 060610Z AUTO 00000KT 10SM CLR 16/01 A3001 4300 34 5500 000/00 RMK AO2 T01610006
94299KAAT AAT20160805221510908/05/16 22:15:31  5-MIN KAAT 060615Z AUTO 00000KT 10SM CLR 17/01 A3001 4300 34 5500 000/00 RMK AO2 T01670011
94299KAAT AAT20160805222010908/05/16 22:20:31  5-MIN KAAT 060620Z AUTO 00000KT 10SM CLR 17/01 A3000 4300 34 5500 000/00 RMK AO2 T01670011
94299KAAT AAT20160805222510908/05/16 22:25:31  5-MIN KAAT 060625Z AUTO 00000KT 10SM CLR 17/01 A3000 4300 34 5500 000/00 RMK AO2 T01670011
94299KAAT AAT20160805223010908/05/16 22:30:31  5-MIN KAAT 060630Z AUTO 00000KT 10SM CLR 16/01 A3000 4300 36 5500 000/00 RMK AO2 T01610011
94299KAAT AAT20160805223510908/05/16 22:35:31  5-MIN KAAT 060635Z AUTO 24003KT 10SM CLR 17/01 A3000 4310 34 5500 230/03 RMK AO2 T01670011
94299KAAT AAT20160805224010908/05/16 22:40:31  5-MIN KAAT 060640Z AUTO 22003KT 10SM CLR 17/01 A3000 4310 33 5500 200/03 RMK AO2 T01670006
94299KAAT AAT20160805224510908/05/16 22:45:31  5-MIN KAAT 060645Z AUTO 15006KT 10SM CLR 15/01 A3000 4310 38 5300 130/06 RMK AO2 T01500011
94299KAAT AAT20160805225011608/05/16 22:50:31  5-MIN KAAT 060650Z AUTO 12005KT 10SM CLR 15/03 A3001 4300 45 5300 110/05 RMK AO2 SLP117 T01500033
94299KAAT AAT20160805225511608/05/16 22:55:31  5-MIN KAAT 060655Z AUTO 10005KT 10SM CLR 15/03 A3001 4300 45 5300 090/05 RMK AO2 SLP118 T01500033
94299KAAT AAT20160805230010908/05/16 23:00:31  5-MIN KAAT 060700Z AUTO 10005KT 10SM CLR 15/03 A3001 4300 43 5300 090/05 RMK AO2 T01500028
94299KAAT AAT20160805230510908/05/16 23:05:31  5-MIN KAAT 060705Z AUTO 11005KT 10SM CLR 16/02 A3001 4300 40 5400 100/05 RMK AO2 T01560022
94299KAAT AAT20160805231010908/05/16 23:10:31  5-MIN KAAT 060710Z AUTO 13004KT 10SM CLR 15/02 A3001 4300 42 5300 110/04 RMK AO2 T01500022
94299KAAT AAT20160805231510908/05/16 23:15:31  5-MIN KAAT 060715Z AUTO 12005KT 10SM CLR 15/03 A3001 4300 43 5300 100/05 RMK AO2 T01500028
94299KAAT AAT20160805232010908/05/16 23:20:31  5-MIN KAAT 060720Z AUTO 12005KT 10SM CLR 15/03 A3001 4300 43 5300 100/05 RMK AO2 T01500028
94299KAAT AAT20160805232510908/05/16 23:25:31  5-MIN KAAT 060725Z AUTO 12005KT 10SM CLR 15/03 A3001 4300 45 5300 110/05 RMK AO2 T01500033
94299KAAT AAT20160805233010908/05/16 23:30:31  5-MIN KAAT 060730Z AUTO 13004KT 10SM CLR 14/03 A3001 4300 47 5300 120/04 RMK AO2 T01440033
94299KAAT AAT20160805233510908/05/16 23:35:31  5-MIN KAAT 060735Z AUTO 14004KT 10SM CLR 14/03 A3001 4300 48 5200 120/04 RMK AO2 T01390033
94299KAAT AAT20160805234010908/05/16 23:40:31  5-MIN KAAT 060740Z AUTO 14004KT 10SM CLR 14/03 A3001 4290 48 5200 130/04 RMK AO2 T01390033
94299KAAT AAT20160805234510908/05/16 23:45:31  5-MIN KAAT 060745Z AUTO 13004KT 10SM CLR 14/03 A3001 4290 48 5200 110/04 RMK AO2 T01390033
94299KAAT AAT20160805235012608/05/16 23:50:31  5-MIN KAAT 060750Z AUTO 11003KT 10SM CLR 14/04 A3002 4290 50 5200 100/03 RMK AO2 SLP119 T01390039 403110089
94299KAAT AAT20160805235512608/05/16 23:55:31  5-MIN KAAT 060755Z AUTO 09003KT 10SM CLR 13/03 A3001 4290 50 5100 080/03 RMK AO2 SLP119 T01330033 403110089
94299KAAT AAT20160806000010908/06/16 00:00:31  5-MIN KAAT 060800Z AUTO 00000KT 10SM CLR 14/03 A3002 4290 48 5200 000/00 RMK AO2 T01390033
94299KAAT AAT20160806000510908/06/16 00:05:31  5-MIN KAAT 060805Z AUTO 00000KT 10SM CLR 14/03 A3002 4290 48 5200 000/00 RMK AO2 T01390033
94299KAAT AAT20160806001010908/06/16 00:10:31  5-MIN KAAT 060810Z AUTO 00000KT 10SM CLR 13/03 A3001 4290 48 5100 000/00 RMK AO2 T01330028
94299KAAT AAT20160806001510908/06/16 00:15:31  5-MIN KAAT 060815Z AUTO 00000KT 10SM CLR 13/03 A3002 4290 50 5100 000/00 RMK AO2 T01280028
94299KAAT AAT20160806002010908/06/16 00:20:31  5-MIN KAAT 060820Z AUTO 00000KT 10SM CLR 13/03 A3002 4290 50 5100 000/00 RMK AO2 T01280028
94299KAAT AAT20160806002510908/06/16 00:25:31  5-MIN KAAT 060825Z AUTO 00000KT 10SM CLR 13/03 A3001 4290 50 5100 000/00 RMK AO2 T01280028
94299KAAT AAT20160806003010908/06/16 00:30:31  5-MIN KAAT 060830Z AUTO 00000KT 10SM CLR 12/02 A3001 4290 52 4900 000/00 RMK AO2 T01170022
94299KAAT AAT20160806003510908/06/16 00:35:31  5-MIN KAAT 060835Z AUTO 00000KT 10SM CLR 11/02 A3001 4300 56 4800 000/00 RMK AO2 T01060022
94299KAAT AAT20160806004010908/06/16 00:40:31  5-MIN KAAT 060840Z AUTO 00000KT 10SM CLR 11/02 A3001 4300 54 4900 000/00 RMK AO2 T01110022
94299KAAT AAT20160806004510908/06/16 00:45:31  5-MIN KAAT 060845Z AUTO 00000KT 10SM CLR 11/02 A3001 4300 54 4900 000/00 RMK AO2 T01110022
94299KAAT AAT20160806005012208/06/16 00:50:31  5-MIN KAAT 060850Z AUTO 00000KT 10SM CLR 11/03 A3001 4300 58 4800 000/00 RMK AO2 SLP119 T01060028 51015
94299KAAT AAT20160806005512208/06/16 00:55:31  5-MIN KAAT 060855Z AUTO 00000KT 10SM CLR 09/02 A3001 4300 60 4700 000/00 RMK AO2 SLP121 T00940022 50002
94299KAAT AAT20160806010010908/06/16 01:00:31  5-MIN KAAT 060900Z AUTO 00000KT 10SM CLR 11/02 A3001 4300 56 4800 000/00 RMK AO2 T01060022
94299KAAT AAT20160806010510908/06/16 01:05:31  5-MIN KAAT 060905Z AUTO 00000KT 10SM CLR 11/02 A3001 4300 54 4900 000/00 RMK AO2 T01110022
94299KAAT AAT20160806011010908/06/16 01:10:31  5-MIN KAAT 060910Z AUTO 00000KT 10SM CLR 11/03 A3001 4300 58 4800 000/00 RMK AO2 T01060028
94299KAAT AAT20160806011510908/06/16 01:15:31  5-MIN KAAT 060915Z AUTO 00000KT 10SM CLR 11/03 A3001 4300 61 4800 000/00 RMK AO2 T01060033
94299KAAT AAT20160806012010908/06/16 01:20:31  5-MIN KAAT 060920Z AUTO 00000KT 10SM CLR 09/03 A3001 4300 63 4700 000/00 RMK AO2 T00940028
94299KAAT AAT20160806012510908/06/16 01:25:31  5-MIN KAAT 060925Z AUTO 00000KT 10SM CLR 09/03 A3001 4300 63 4700 000/00 RMK AO2 T00940028
94299KAAT AAT20160806013010908/06/16 01:30:31  5-MIN KAAT 060930Z AUTO 05004KT 10SM CLR 11/03 A3001 4300 58 4800 030/04 RMK AO2 T01060028
94299KAAT AAT20160806013510908/06/16 01:35:31  5-MIN KAAT 060935Z AUTO 06003KT 10SM CLR 11/03 A3001 4300 58 4800 040/03 RMK AO2 T01060028
94299KAAT AAT20160806014010908/06/16 01:40:31  5-MIN KAAT 060940Z AUTO 00000KT 10SM CLR 11/03 A3001 4300 56 4900 000/00 RMK AO2 T01110028
94299KAAT AAT20160806014510908/06/16 01:45:31  5-MIN KAAT 060945Z AUTO 09003KT 10SM CLR 11/03 A3001 4300 56 4900 070/03 RMK AO2 T01110028
94299KAAT AAT20160806015011608/06/16 01:50:31  5-MIN KAAT 060950Z AUTO 08003KT 10SM CLR 11/03 A3001 4300 56 4900 060/03 RMK AO2 SLP119 T01110028
94299KAAT AAT20160806015511608/06/16 01:55:31  5-MIN KAAT 060955Z AUTO 00000KT 10SM CLR 10/02 A3001 4300 58 4700 000/00 RMK AO2 SLP120 T01000022
94299KAAT AAT20160806020010908/06/16 02:00:31  5-MIN KAAT 061000Z AUTO 22003KT 10SM CLR 09/02 A3001 4300 63 4600 200/03 RMK AO2 T00890022
94299KAAT AAT20160806020510908/06/16 02:05:31  5-MIN KAAT 061005Z AUTO 00000KT 10SM CLR 08/01 A3001 4290 60 4500 000/00 RMK AO2 T00830011
94299KAAT AAT20160806021010908/06/16 02:10:31  5-MIN KAAT 061010Z AUTO 23003KT 10SM CLR 08/02 A3001 4300 63 4500 220/03 RMK AO2 T00830017
94299KAAT AAT20160806021510908/06/16 02:15:31  5-MIN KAAT 061015Z AUTO 23003KT 10SM CLR 08/02 A3001 4300 65 4500 220/03 RMK AO2 T00780017
94299KAAT AAT20160806022010908/06/16 02:20:31  5-MIN KAAT 061020Z AUTO 00000KT 10SM CLR 08/02 A3001 4300 65 4500 000/00 RMK AO2 T00830022
94299KAAT AAT20160806022510908/06/16 02:25:31  5-MIN KAAT 061025Z AUTO 00000KT 10SM CLR 08/02 A3001 4290 65 4500 000/00 RMK AO2 T00830022
94299KAAT AAT20160806023010908/06/16 02:30:31  5-MIN KAAT 061030Z AUTO 00000KT 10SM CLR 09/03 A3001 4300 63 4700 000/00 RMK AO2 T00940028
94299KAAT AAT20160806023510908/06/16 02:35:31  5-MIN KAAT 061035Z AUTO 00000KT 10SM CLR 09/02 A3001 4300 60 4700 000/00 RMK AO2 T00940022
94299KAAT AAT20160806024010908/06/16 02:40:31  5-MIN KAAT 061040Z AUTO 00000KT 10SM CLR 09/02 A3001 4300 60 4700 000/00 RMK AO2 T00940022
94299KAAT AAT20160806024510908/06/16 02:45:31  5-MIN KAAT 061045Z AUTO 00000KT 10SM CLR 09/02 A3001 4300 63 4600 000/00 RMK AO2 T00890022
94299KAAT AAT20160806025011608/06/16 02:50:31  5-MIN KAAT 061050Z AUTO 00000KT 10SM CLR 09/02 A3001 4300 63 4600 000/00 RMK AO2 SLP122 T00890022
94299KAAT AAT20160806025511608/06/16 02:55:31  5-MIN KAAT 061055Z AUTO 00000KT 10SM CLR 09/02 A3001 4300 63 4600 000/00 RMK AO2 SLP122 T00890022
94299KAAT AAT20160806030010908/06/16 03:00:31  5-MIN KAAT 061100Z AUTO 00000KT 10SM CLR 09/02 A3001 4300 60 4600 000/00 RMK AO2 T00890017
94299KAAT AAT20160806030510908/06/16 03:05:31  5-MIN KAAT 061105Z AUTO 00000KT 10SM CLR 08/01 A3001 4300 60 4600 000/00 RMK AO2 T00830011
94299KAAT AAT20160806031010908/06/16 03:10:31  5-MIN KAAT 061110Z AUTO 00000KT 10SM CLR 09/02 A3001 4300 63 4600 000/00 RMK AO2 T00890022
94299KAAT AAT20160806031510908/06/16 03:15:31  5-MIN KAAT 061115Z AUTO 00000KT 10SM CLR 09/02 A3001 4300 63 4600 000/00 RMK AO2 T00890022
94299KAAT AAT20160806032010908/06/16 03:20:31  5-MIN KAAT 061120Z AUTO 00000KT 10SM CLR 08/02 A3001 4300 63 4600 000/00 RMK AO2 T00830017
94299KAAT AAT20160806032510908/06/16 03:25:31  5-MIN KAAT 061125Z AUTO 00000KT 10SM CLR 08/01 A3001 4300 62 4500 000/00 RMK AO2 T00780011
94299KAAT AAT20160806033010908/06/16 03:30:31  5-MIN KAAT 061130Z AUTO 00000KT 10SM CLR 07/01 A3001 4300 62 4400 000/00 RMK AO2 T00720006
94299KAAT AAT20160806033510908/06/16 03:35:31  5-MIN KAAT 061135Z AUTO 00000KT 10SM CLR 08/01 A3001 4300 60 4600 000/00 RMK AO2 T00830011
94299KAAT AAT20160806034010908/06/16 03:40:31  5-MIN KAAT 061140Z AUTO 16004KT 10SM CLR 08/01 A3001 4300 62 4500 140/04 RMK AO2 T00780011
94299KAAT AAT20160806034510908/06/16 03:45:31  5-MIN KAAT 061145Z AUTO 00000KT 10SM CLR 08/02 A3001 4300 68 4500 000/00 RMK AO2 T00780022
94299KAAT AAT20160806035013408/06/16 03:50:31  5-MIN KAAT 061150Z AUTO 00000KT 10SM CLR 07/02 A3001 4300 70 4400 000/00 RMK AO2 SLP126 T00720022 10172 20072 50002
94299KAAT AAT20160806035513408/06/16 03:55:31  5-MIN KAAT 061155Z AUTO 00000KT 10SM CLR 07/02 A3001 4300 68 4400 000/00 RMK AO2 SLP126 T00720017 10172 20072 51001
94299KAAT AAT20160806040010908/06/16 04:00:31  5-MIN KAAT 061200Z AUTO 00000KT 10SM CLR 07/02 A3001 4300 73 4400 000/00 RMK AO2 T00670022
94299KAAT AAT20160806040510908/06/16 04:05:31  5-MIN KAAT 061205Z AUTO 00000KT 10SM CLR 07/02 A3001 4300 73 4400 000/00 RMK AO2 T00670022
94299KAAT AAT20160806041010908/06/16 04:10:31  5-MIN KAAT 061210Z AUTO 00000KT 10SM CLR 08/02 A3001 4300 68 4500 000/00 RMK AO2 T00780022
94299KAAT AAT20160806041510908/06/16 04:15:31  5-MIN KAAT 061215Z AUTO 00000KT 10SM CLR 07/02 A3001 4300 68 4400 000/00 RMK AO2 T00720017
94299KAAT AAT20160806042010908/06/16 04:20:31  5-MIN KAAT 061220Z AUTO 00000KT 10SM CLR 06/01 A3001 4300 70 4300 000/00 RMK AO2 T00610011
94299KAAT AAT20160806042510908/06/16 04:25:31  5-MIN KAAT 061225Z AUTO 00000KT 10SM CLR 07/02 A3001 4300 70 4400 000/00 RMK AO2 T00670017
94299KAAT AAT20160806043010908/06/16 04:30:31  5-MIN KAAT 061230Z AUTO 00000KT 10SM CLR 07/01 A3001 4300 67 4400 000/00 RMK AO2 T00670011
94299KAAT AAT20160806043510908/06/16 04:35:31  5-MIN KAAT 061235Z AUTO 00000KT 10SM CLR 06/01 A3001 4300 70 4300 000/00 RMK AO2 T00610011
94299KAAT AAT20160806044010908/06/16 04:40:31  5-MIN KAAT 061240Z AUTO 00000KT 10SM CLR 07/01 A3001 4300 67 4400 000/00 RMK AO2 T00670011
94299KAAT AAT20160806044510908/06/16 04:45:31  5-MIN KAAT 061245Z AUTO 00000KT 10SM CLR 07/01 A3001 4300 67 4400 000/00 RMK AO2 T00670011
94299KAAT AAT20160806045011608/06/16 04:50:31  5-MIN KAAT 061250Z AUTO 00000KT 10SM CLR 06/02 A3001 4300 73 4300 000/00 RMK AO2 SLP127 T00610017
94299KAAT AAT20160806045511608/06/16 04:55:31  5-MIN KAAT 061255Z AUTO 00000KT 10SM CLR 06/02 A3001 4300 73 4300 000/00 RMK AO2 SLP126 T00610017
94299KAAT AAT20160806050010908/06/16 05:00:31  5-MIN KAAT 061300Z AUTO 00000KT 10SM CLR 06/02 A3001 4290 73 4300 000/00 RMK AO2 T00610017
94299KAAT AAT20160806050510908/06/16 05:05:31  5-MIN KAAT 061305Z AUTO 00000KT 10SM CLR 06/01 A3001 4290 70 4300 000/00 RMK AO2 T00610011
94299KAAT AAT20160806051010908/06/16 05:10:31  5-MIN KAAT 061310Z AUTO 00000KT 10SM CLR 07/02 A3001 4290 70 4400 000/00 RMK AO2 T00720022
94299KAAT AAT20160806051510908/06/16 05:15:31  5-MIN KAAT 061315Z AUTO 00000KT 10SM CLR 07/02 A3001 4290 73 4400 000/00 RMK AO2 T00670022
94299KAAT AAT20160806052010908/06/16 05:20:31  5-MIN KAAT 061320Z AUTO 00000KT 10SM CLR 07/02 A3002 4290 70 4400 000/00 RMK AO2 T00720022
94299KAAT AAT20160806052510908/06/16 05:25:31  5-MIN KAAT 061325Z AUTO 00000KT 10SM CLR 07/03 A3002 4290 73 4400 000/00 RMK AO2 T00720028
94299KAAT AAT20160806053010908/06/16 05:30:31  5-MIN KAAT 061330Z AUTO 00000KT 10SM CLR 07/03 A3002 4290 73 4400 000/00 RMK AO2 T00720028
94299KAAT AAT20160806053510908/06/16 05:35:31  5-MIN KAAT 061335Z AUTO 00000KT 10SM CLR 08/03 A3002 4290 70 4500 000/00 RMK AO2 T00780028
94299KAAT AAT20160806054010908/06/16 05:40:31  5-MIN KAAT 061340Z AUTO 00000KT 10SM CLR 07/01 A3002 4290 65 4400 000/00 RMK AO2 T00720011
94299KAAT AAT20160806054510908/06/16 05:45:31  5-MIN KAAT 061345Z AUTO 00000KT 10SM CLR 07/01 A3002 4290 65 4400 000/00 RMK AO2 T00720011
94299KAAT AAT20160806055011608/06/16 05:50:31  5-MIN KAAT 061350Z AUTO 00000KT 10SM CLR 07/01 A3002 4290 65 4400 000/00 RMK AO2 SLP129 T00720011
94299KAAT AAT20160806055511608/06/16 05:55:31  5-MIN KAAT 061355Z AUTO 00000KT 10SM CLR 08/01 A3002 4290 62 4500 000/00 RMK AO2 SLP129 T00780011
94299KAAT AAT20160806060010908/06/16 06:00:31  5-MIN KAAT 061400Z AUTO 00000KT 10SM CLR 08/01 A3002 4290 60 4500 000/00 RMK AO2 T00830011
94299KAAT AAT20160806060510908/06/16 06:05:31  5-MIN KAAT 061405Z AUTO 00000KT 10SM CLR 09/01 A3002 4290 58 4600 000/00 RMK AO2 T00890011
94299KAAT AAT20160806061010908/06/16 06:10:31  5-MIN KAAT 061410Z AUTO 00000KT 10SM CLR 09/02 A3002 4290 58 4700 000/00 RMK AO2 T00940017
94299KAAT AAT20160806061510908/06/16 06:15:31  5-MIN KAAT 061415Z AUTO 00000KT 10SM CLR 10/02 A3002 4290 56 4700 000/00 RMK AO2 T01000017
94299KAAT AAT20160806062010908/06/16 06:20:31  5-MIN KAAT 061420Z AUTO 00000KT 10SM CLR 11/02 A3002 4290 56 4800 000/00 RMK AO2 T01060022
94299KAAT AAT20160806062510908/06/16 06:25:31  5-MIN KAAT 061425Z AUTO 00000KT 10SM CLR 11/02 A3002 4290 56 4800 000/00 RMK AO2 T01060022
94299KAAT AAT20160806063010908/06/16 06:30:31  5-MIN KAAT 061430Z AUTO 00000KT 10SM CLR 11/03 A3002 4290 56 4900 000/00 RMK AO2 T01110028
94299KAAT AAT20160806063510908/06/16 06:35:31  5-MIN KAAT 061435Z AUTO 00000KT 10SM CLR 12/03 A3002 4290 54 4900 000/00 RMK AO2 T01170028
94299KAAT AAT20160806064010908/06/16 06:40:31  5-MIN KAAT 061440Z AUTO 00000KT 10SM CLR 12/03 A3002 4290 52 5000 000/00 RMK AO2 T01220028
94299KAAT AAT20160806064510908/06/16 06:45:31  5-MIN KAAT 061445Z AUTO 00000KT 10SM CLR 13/03 A3002 4290 50 5100 000/00 RMK AO2 T01330033
94299KAAT AAT20160806065012208/06/16 06:50:31  5-MIN KAAT 061450Z AUTO 00000KT 10SM CLR 14/03 A3002 4290 47 5200 000/00 RMK AO2 SLP126 T01390028 51001
94299KAAT AAT20160806065512208/06/16 06:55:31  5-MIN KAAT 061455Z AUTO 00000KT 10SM CLR 14/02 A3002 4290 43 5200 000/00 RMK AO2 SLP125 T01390017 53003
94299KAAT AAT20160806070010908/06/16 07:00:31  5-MIN KAAT 061500Z AUTO 00000KT 10SM CLR 14/02 A3002 4290 43 5200 000/00 RMK AO2 T01390017
94299KAAT AAT20160806070510908/06/16 07:05:31  5-MIN KAAT 061505Z AUTO 00000KT 10SM CLR 14/02 A3002 4290 41 5200 000/00 RMK AO2 T01440017
94299KAAT AAT20160806071010908/06/16 07:10:31  5-MIN KAAT 061510Z AUTO 00000KT 10SM CLR 14/02 A3002 4290 41 5200 000/00 RMK AO2 T01440017
94299KAAT AAT20160806071510908/06/16 07:15:31  5-MIN KAAT 061515Z AUTO 00000KT 10SM CLR 15/02 A3002 4290 42 5300 000/00 RMK AO2 T01500022
94299KAAT AAT20160806072010908/06/16 07:20:31  5-MIN KAAT 061520Z AUTO 00000KT 10SM CLR 15/02 A3002 4290 42 5300 000/00 RMK AO2 T01500022
94299KAAT AAT20160806072510908/06/16 07:25:31  5-MIN KAAT 061525Z AUTO 00000KT 10SM CLR 15/02 A3002 4290 42 5300 000/00 RMK AO2 T01500022
94299KAAT AAT20160806073010908/06/16 07:30:31  5-MIN KAAT 061530Z AUTO 00000KT 10SM CLR 15/02 A3002 4290 42 5300 000/00 RMK AO2 T01500022
94299KAAT AAT20160806073510908/06/16 07:35:31  5-MIN KAAT 061535Z AUTO 00000KT 10SM CLR 16/02 A3002 4290 40 5400 000/00 RMK AO2 T01560022
94299KAAT AAT20160806074010908/06/16 07:40:31  5-MIN KAAT 061540Z AUTO 15003KT 10SM CLR 16/02 A3002 4290 39 5400 130/03 RMK AO2 T01610022
94299KAAT AAT20160806074510908/06/16 07:45:31  5-MIN KAAT 061545Z AUTO 15003KT 10SM CLR 17/02 A3002 4290 37 5500 140/03 RMK AO2 T01670022
94299KAAT AAT20160806075011608/06/16 07:50:31  5-MIN KAAT 061550Z AUTO 00000KT 10SM CLR 17/02 A3002 4290 37 5500 000/00 RMK AO2 SLP127 T01670022
94299KAAT AAT20160806075511608/06/16 07:55:31  5-MIN KAAT 061555Z AUTO 18003KT 10SM CLR 17/02 A3002 4290 36 5600 160/03 RMK AO2 SLP127 T01720022
94299KAAT AAT20160806080010908/06/16 08:00:31  5-MIN KAAT 061600Z AUTO VRB03KT 10SM CLR 18/02 A3002 4290 35 5600 VRB/03 RMK AO2 T01780022
94299KAAT AAT20160806080510908/06/16 08:05:31  5-MIN KAAT 061605Z AUTO 00000KT 10SM CLR 18/02 A3002 4290 35 5600 000/00 RMK AO2 T01780022
94299KAAT AAT20160806081010908/06/16 08:10:31  5-MIN KAAT 061610Z AUTO 00000KT 10SM CLR 18/02 A3002 4290 35 5600 000/00 RMK AO2 T01780022
94299KAAT AAT20160806081510908/06/16 08:15:31  5-MIN KAAT 061615Z AUTO 15003KT 10SM CLR 18/02 A3001 4290 34 5700 130/03 RMK AO2 T01830022
94299KAAT AAT20160806082010908/06/16 08:20:31  5-MIN KAAT 061620Z AUTO 00000KT 10SM CLR 19/02 A3001 4290 31 5800 000/00 RMK AO2 T01890017
94299KAAT AAT20160806082510908/06/16 08:25:31  5-MIN KAAT 061625Z AUTO 00000KT 10SM CLR 19/02 A3001 4300 31 5800 000/00 RMK AO2 T01890017
94299KAAT AAT20160806083010908/06/16 08:30:31  5-MIN KAAT 061630Z AUTO 00000KT 10SM CLR 20/02 A3001 4300 30 5900 000/00 RMK AO2 T02000022
94299KAAT AAT20160806083510908/06/16 08:35:31  5-MIN KAAT 061635Z AUTO 00000KT 10SM CLR 20/01 A3001 4300 28 5900 000/00 RMK AO2 T02000011
94299KAAT AAT20160806084010908/06/16 08:40:31  5-MIN KAAT 061640Z AUTO 00000KT 10SM CLR 21/02 A3001 4300 28 6000 000/00 RMK AO2 T02060017
94299KAAT AAT20160806084510908/06/16 08:45:31  5-MIN KAAT 061645Z AUTO 00000KT 10SM CLR 22/02 A3001 4300 26 6100 000/00 RMK AO2 T02170017
94299KAAT AAT20160806085011608/06/16 08:50:31  5-MIN KAAT 061650Z AUTO 00000KT 10SM CLR 21/02 A3001 4300 29 6000 000/00 RMK AO2 SLP120 T02060022
94299KAAT AAT20160806085511608/06/16 08:55:31  5-MIN KAAT 061655Z AUTO 00000KT 10SM CLR 22/02 A3001 4300 27 6100 000/00 RMK AO2 SLP120 T02170022
94299KAAT AAT20160806090010908/06/16 09:00:31  5-MIN KAAT 061700Z AUTO 00000KT 10SM CLR 22/02 A3001 4300 26 6100 000/00 RMK AO2 T02220022
94299KAAT AAT20160806090510908/06/16 09:05:31  5-MIN KAAT 061705Z AUTO 00000KT 10SM CLR 22/03 A3000 4300 27 6100 000/00 RMK AO2 T02220028
94299KAAT AAT20160806091010908/06/16 09:10:31  5-MIN KAAT 061710Z AUTO VRB03KT 10SM CLR 23/03 A3000 4300 26 6200 VRB/03 RMK AO2 T02280028
94299KAAT AAT20160806091510908/06/16 09:15:31  5-MIN KAAT 061715Z AUTO VRB03KT 10SM CLR 22/03 A3000 4300 27 6100 VRB/03 RMK AO2 T02220028
94299KAAT AAT20160806092010908/06/16 09:20:31  5-MIN KAAT 061720Z AUTO 00000KT 10SM CLR 22/03 A3000 4300 27 6100 000/00 RMK AO2 T02220028
94299KAAT AAT20160806092510908/06/16 09:25:31  5-MIN KAAT 061725Z AUTO 00000KT 10SM CLR 23/03 A3000 4310 25 6300 000/00 RMK AO2 T02330028
94299KAAT AAT20160806093010908/06/16 09:30:31  5-MIN KAAT 061730Z AUTO 00000KT 10SM CLR 23/03 A3000 4310 25 6300 000/00 RMK AO2 T02330028
94299KAAT AAT20160806093510908/06/16 09:35:31  5-MIN KAAT 061735Z AUTO 00000KT 10SM CLR 23/03 A3000 4310 25 6300 000/00 RMK AO2 T02330028
94299KAAT AAT20160806094010908/06/16 09:40:31  5-MIN KAAT 061740Z AUTO VRB03KT 10SM CLR 24/03 A3000 4310 25 6300 VRB/03 RMK AO2 T02390028
94299KAAT AAT20160806094510908/06/16 09:45:31  5-MIN KAAT 061745Z AUTO 00000KT 10SM CLR 23/03 A3000 4310 25 6300 000/00 RMK AO2 T02330028
94299KAAT AAT20160806095013408/06/16 09:50:31  5-MIN KAAT 061750Z AUTO VRB03KT 10SM CLR 24/03 A3000 4310 25 6300 VRB/03 RMK AO2 SLP115 T02390028 10239 20056 53003
94299KAAT AAT20160806095513408/06/16 09:55:31  5-MIN KAAT 061755Z AUTO 04005KT 10SM CLR 25/03 A3000 4310 24 6500 020/05 RMK AO2 SLP113 T02500033 10250 20056 58007
94299KAAT AAT20160806100010908/06/16 10:00:31  5-MIN KAAT 061800Z AUTO VRB04KT 10SM CLR 24/03 A3000 4310 25 6300 VRB/04 RMK AO2 T02390028
94299KAAT AAT20160806100510908/06/16 10:05:31  5-MIN KAAT 061805Z AUTO VRB04KT 10SM CLR 25/03 A3000 4310 24 6500 VRB/04 RMK AO2 T02500033
94299KAAT AAT20160806101010908/06/16 10:10:31  5-MIN KAAT 061810Z AUTO 31006KT 10SM CLR 25/03 A3000 4310 24 6500 300/06 RMK AO2 T02500033
94299KAAT AAT20160806101510908/06/16 10:15:31  5-MIN KAAT 061815Z AUTO 00000KT 10SM CLR 24/03 A3000 4310 24 6400 000/00 RMK AO2 T02440028
94299KAAT AAT20160806102010908/06/16 10:20:31  5-MIN KAAT 061820Z AUTO VRB04KT 10SM CLR 26/03 A2999 4310 22 6500 VRB/04 RMK AO2 T02560028
94299KAAT AAT20160806102510908/06/16 10:25:31  5-MIN KAAT 061825Z AUTO 00000KT 10SM CLR 25/03 A2999 4310 23 6500 000/00 RMK AO2 T02500028
94299KAAT AAT20160806103010908/06/16 10:30:31  5-MIN KAAT 061830Z AUTO 33004KT 10SM CLR 25/03 A2999 4320 23 6500 310/04 RMK AO2 T02500028
94299KAAT AAT20160806103510908/06/16 10:35:31  5-MIN KAAT 061835Z AUTO VRB06KT 10SM CLR 26/03 A2999 4320 23 6500 VRB/06 RMK AO2 T02560033
94299KAAT AAT20160806104010908/06/16 10:40:31  5-MIN KAAT 061840Z AUTO VRB05KT 10SM CLR 25/03 A2999 4320 23 6500 VRB/05 RMK AO2 T02500028
94299KAAT AAT20160806104510908/06/16 10:45:31  5-MIN KAAT 061845Z AUTO VRB03KT 10SM CLR 25/03 A2999 4320 23 6500 VRB/03 RMK AO2 T02500028
94299KAAT AAT20160806105011608/06/16 10:50:31  5-MIN KAAT 061850Z AUTO VRB03KT 10SM CLR 25/03 A2998 4320 23 6500 VRB/03 RMK AO2 SLP111 T02500028
94299KAAT AAT20160806105511608/06/16 10:55:31  5-MIN KAAT 061855Z AUTO 00000KT 10SM CLR 26/03 A2998 4320 22 6500 000/00 RMK AO2 SLP109 T02560028
94299KAAT AAT20160806110010908/06/16 11:00:31  5-MIN KAAT 061900Z AUTO 33004KT 10SM CLR 26/03 A2998 4330 22 6500 310/04 RMK AO2 T02560028
94299KAAT AAT20160806110510908/06/16 11:05:31  5-MIN KAAT 061905Z AUTO VRB05KT 10SM CLR 26/02 A2998 4330 21 6600 VRB/05 RMK AO2 T02610022
94299KAAT AAT20160806111012508/06/16 11:10:31  5-MIN KAAT 061910Z AUTO 28007KT 240V310 10SM CLR 27/02 A2998 4330 20 6700 260/07 230V300 RMK AO2 T02670022
94299KAAT AAT20160806111510908/06/16 11:15:31  5-MIN KAAT 061915Z AUTO 34007KT 10SM CLR 27/02 A2997 4330 19 6700 320/07 RMK AO2 T02720022
94299KAAT AAT20160806112010908/06/16 11:20:31  5-MIN KAAT 061920Z AUTO VRB03KT 10SM CLR 27/02 A2997 4330 20 6700 VRB/03 RMK AO2 T02670022
94299KAAT AAT20160806112510908/06/16 11:25:31  5-MIN KAAT 061925Z AUTO 30008KT 10SM CLR 27/02 A2997 4330 19 6700 290/08 RMK AO2 T02720017
94299KAAT AAT20160806113010908/06/16 11:30:31  5-MIN KAAT 061930Z AUTO 28004KT 10SM CLR 27/02 A2997 4340 19 6700 260/04 RMK AO2 T02670017
94299KAAT AAT20160806113509908/06/16 11:35:31  5-MIN KAAT 061935Z AUTO 10SM CLR 27/02 A2997 4340 19 6700 M /M RMK AO2 T02670017
94299KAAT AAT20160806114010908/06/16 11:40:31  5-MIN KAAT 061940Z AUTO 33006KT 10SM CLR 28/02 A2997 4340 18 6800 320/06 RMK AO2 T02780017
94299KAAT AAT20160806114510908/06/16 11:45:31  5-MIN KAAT 061945Z AUTO 33006KT 10SM CLR 28/02 A2996 4340 18 6800 320/06 RMK AO2 T02780017
94299KAAT AAT20160806115011608/06/16 11:50:31  5-MIN KAAT 061950Z AUTO 34005KT 10SM CLR 28/02 A2996 4340 18 6800 320/05 RMK AO2 SLP100 T02780017
94299KAAT AAT20160806115511608/06/16 11:55:31  5-MIN KAAT 061955Z AUTO 34006KT 10SM CLR 27/02 A2996 4340 19 6700 320/06 RMK AO2 SLP101 T02720017
94299KAAT AAT20160806120010908/06/16 12:00:31  5-MIN KAAT 062000Z AUTO VRB04KT 10SM CLR 28/01 A2996 4350 17 6800 VRB/04 RMK AO2 T02780011
94299KAAT AAT20160806120510908/06/16 12:05:31  5-MIN KAAT 062005Z AUTO 32006KT 10SM CLR 28/01 A2996 4350 17 6800 310/06 RMK AO2 T02780011
94299KAAT AAT20160806121010908/06/16 12:10:31  5-MIN KAAT 062010Z AUTO 30007KT 10SM CLR 28/01 A2996 4350 17 6900 290/07 RMK AO2 T02830011
94299KAAT AAT20160806121510908/06/16 12:15:31  5-MIN KAAT 062015Z AUTO VRB05KT 10SM CLR 28/01 A2996 4350 17 6800 VRB/05 RMK AO2 T02780006
94299KAAT AAT20160806122010908/06/16 12:20:31  5-MIN KAAT 062020Z AUTO 32005KT 10SM CLR 28/00 A2995 4350 16 6800 310/05 RMK AO2 T02780000
94299KAAT AAT20160806122511008/06/16 12:25:31  5-MIN KAAT 062025Z AUTO 00000KT 10SM CLR 28/M01 A2995 4350 15 6800 000/00 RMK AO2 T02781006
94299KAAT AAT20160806123010008/06/16 12:30:31  5-MIN KAAT 062030Z AUTO 10SM CLR 28/M01 A2995 4350 15 6800 M /M RMK AO2 T02781006
94299KAAT AAT20160806123511008/06/16 12:35:31  5-MIN KAAT 062035Z AUTO VRB03KT 10SM CLR 28/M01 A2995 4350 15 6800 VRB/03 RMK AO2 T02781011
94299KAAT AAT20160806124011008/06/16 12:40:31  5-MIN KAAT 062040Z AUTO 30009KT 10SM CLR 29/M01 A2995 4350 14 6900 290/09 RMK AO2 T02891011
94299KAAT AAT20160806124513208/06/16 12:45:31  5-MIN KAAT 062045Z AUTO 32010G15KT 250V340 10SM CLR 28/M02 A2995 4360 14 6900 310/10G15 240V330 RMK AO2 T02831017
94299KAAT AAT20160806125012908/06/16 12:50:31  5-MIN KAAT 062050Z AUTO 33010G15KT 10SM CLR 29/M01 A2994 4360 14 6900 310/10G15 RMK AO2 SLP098 T02891011 58007
94299KAAT AAT20160806125512308/06/16 12:55:31  5-MIN KAAT 062055Z AUTO 32007KT 10SM CLR 29/M02 A2994 4360 13 6900 310/07 RMK AO2 SLP098 T02891017 58017
94299KAAT AAT20160806130011008/06/16 13:00:31  5-MIN KAAT 062100Z AUTO 01007KT 10SM CLR 29/M02 A2994 4360 13 6900 360/07 RMK AO2 T02891017
94299KAAT AAT20160806130511008/06/16 13:05:31  5-MIN KAAT 062105Z AUTO 34005KT 10SM CLR 29/M02 A2994 4360 13 6900 330/05 RMK AO2 T02891017
94299KAAT AAT20160806131011008/06/16 13:10:31  5-MIN KAAT 062110Z AUTO 32009KT 10SM CLR 28/M02 A2994 4360 14 6900 300/09 RMK AO2 T02831017
94299KAAT AAT20160806131511008/06/16 13:15:31  5-MIN KAAT 062115Z AUTO VRB06KT 10SM CLR 28/M02 A2994 4360 14 6800 VRB/06 RMK AO2 T02781017
94299KAAT AAT20160806132011008/06/16 13:20:31  5-MIN KAAT 062120Z AUTO 35004KT 10SM CLR 29/M01 A2994 4370 14 6900 330/04 RMK AO2 T02891011
94299KAAT AAT20160806132511608/06/16 13:25:31  5-MIN KAAT 062125Z AUTO 26009G15KT 10SM CLR 29/M01 A2994 4370 14 6900 240/09G15 RMK AO2 T02891011
94299KAAT AAT20160806133011608/06/16 13:30:31  5-MIN KAAT 062130Z AUTO 29011G15KT 10SM CLR 29/M01 A2994 4370 14 7000 270/11G15 RMK AO2 T02941006
94299KAAT AAT20160806133511008/06/16 13:35:31  5-MIN KAAT 062135Z AUTO 28007KT 10SM CLR 29/M01 A2993 4370 14 7000 260/07 RMK AO2 T02941006
94299KAAT AAT20160806134011008/06/16 13:40:31  5-MIN KAAT 062140Z AUTO VRB04KT 10SM CLR 29/M01 A2993 4370 14 7000 VRB/04 RMK AO2 T02891006
94299KAAT AAT20160806134511008/06/16 13:45:31  5-MIN KAAT 062145Z AUTO 15005KT 10SM CLR 28/M01 A2992 4380 15 6900 130/05 RMK AO2 T02831006
94299KAAT AAT20160806135011708/06/16 13:50:31  5-MIN KAAT 062150Z AUTO 24008KT 10SM CLR 28/M01 A2993 4370 15 6900 230/08 RMK AO2 SLP092 T02831006
94299KAAT AAT20160806135512308/06/16 13:55:31  5-MIN KAAT 062155Z AUTO 20007G16KT 10SM CLR 29/M01 A2993 4380 14 7000 190/07G16 RMK AO2 SLP092 T02891011
94299KAAT AAT20160806140011608/06/16 14:00:31  5-MIN KAAT 062200Z AUTO 15007G16KT 10SM CLR 29/M01 A2992 4380 14 7000 140/07G16 RMK AO2 T02891011
94299KAAT AAT20160806140511008/06/16 14:05:31  5-MIN KAAT 062205Z AUTO 00000KT 10SM CLR 29/M01 A2992 4380 14 7000 000/00 RMK AO2 T02891011
94299KAAT AAT20160806141011008/06/16 14:10:31  5-MIN KAAT 062210Z AUTO 35005KT 10SM CLR 29/M02 A2992 4380 13 7000 340/05 RMK AO2 T02941017
94299KAAT AAT20160806141511008/06/16 14:15:31  5-MIN KAAT 062215Z AUTO 33006KT 10SM CLR 29/M02 A2992 4380 13 7000 320/06 RMK AO2 T02941017
94299KAAT AAT20160806142010008/06/16 14:20:31  5-MIN KAAT 062220Z AUTO 10SM CLR 29/M02 A2992 4380 13 7000 M /M RMK AO2 T02941017
94299KAAT AAT20160806142511608/06/16 14:25:31  5-MIN KAAT 062225Z AUTO 26013G18KT 10SM CLR 30/M02 A2992 4380 12 7100 240/13G18 RMK AO2 T03001022
94299KAAT AAT20160806143011608/06/16 14:30:31  5-MIN KAAT 062230Z AUTO 26010G18KT 10SM CLR 29/M03 A2992 4390 12 7000 250/10G18 RMK AO2 T02941028
94299KAAT AAT20160806143511008/06/16 14:35:31  5-MIN KAAT 062235Z AUTO VRB03KT 10SM CLR 29/M03 A2991 4390 11 7000 VRB/03 RMK AO2 T02941033
94299KAAT AAT20160806144011008/06/16 14:40:31  5-MIN KAAT 062240Z AUTO 06007KT 10SM CLR 29/M03 A2991 4390 11 7000 050/07 RMK AO2 T02941033
94299KAAT AAT20160806144511008/06/16 14:45:31  5-MIN KAAT 062245Z AUTO 32005KT 10SM CLR 29/M03 A2991 4390 11 7000 300/05 RMK AO2 T02941033
94299KAAT AAT20160806145011708/06/16 14:50:31  5-MIN KAAT 062250Z AUTO VRB06KT 10SM CLR 30/M03 A2991 4390 11 7100 VRB/06 RMK AO2 SLP086 T03001028
94299KAAT AAT20160806145513908/06/16 14:55:31  5-MIN KAAT 062255Z AUTO 29011G14KT 270V330 10SM CLR 29/M03 A2990 4400 11 7000 280/11G14 260V320 RMK AO2 SLP085 T02941033
94299KAAT AAT20160806150011608/06/16 15:00:31  5-MIN KAAT 062300Z AUTO 29015G19KT 10SM CLR 30/M03 A2991 4390 11 7100 270/15G19 RMK AO2 T03001033
94299KAAT AAT20160806150511608/06/16 15:05:31  5-MIN KAAT 062305Z AUTO 29007G19KT 10SM CLR 29/M03 A2991 4390 12 7000 280/07G19 RMK AO2 T02941028
94299KAAT AAT20160806151011608/06/16 15:10:31  5-MIN KAAT 062310Z AUTO 35006G15KT 10SM CLR 29/M03 A2990 4400 11 7000 340/06G15 RMK AO2 T02941033
94299KAAT AAT20160806151511608/06/16 15:15:31  5-MIN KAAT 062315Z AUTO VRB06G15KT 10SM CLR 29/M03 A2990 4400 12 7000 VRB/06G15 RMK AO2 T02941028
94299KAAT AAT20160806152011608/06/16 15:20:31  5-MIN KAAT 062320Z AUTO 26013G18KT 10SM CLR 30/M02 A2990 4400 12 7100 250/13G18 RMK AO2 T03001022
94299KAAT AAT20160806152511608/06/16 15:25:31  5-MIN KAAT 062325Z AUTO 25011G18KT 10SM CLR 29/M03 A2990 4400 12 7000 240/11G18 RMK AO2 T02941028
94299KAAT AAT20160806153014308/06/16 15:30:31  5-MIN KAAT 062330Z AUTO 28010G19KT 250V310 10SM CLR 29/M02 A2990 4400 12 7000 260/10G19 240V300 RMK AO2 WSHFT 2316 T02941022
94299KAAT AAT20160806153512708/06/16 15:35:31  5-MIN KAAT 062335Z AUTO 29006G19KT 10SM CLR 29/M02 A2990 4400 13 7000 280/06G19 RMK AO2 WSHFT 2316 T02891022
94299KAAT AAT20160806154012708/06/16 15:40:31  5-MIN KAAT 062340Z AUTO 28010G17KT 10SM CLR 30/M02 A2990 4400 12 7100 270/10G17 RMK AO2 WSHFT 2316 T03001022
94299KAAT AAT20160806154512708/06/16 15:45:31  5-MIN KAAT 062345Z AUTO 27011G17KT 10SM CLR 30/M02 A2990 4400 12 7100 250/11G17 RMK AO2 WSHFT 2316 T03001022
94299KAAT AAT20160806155014608/06/16 15:50:31  5-MIN KAAT 062350Z AUTO 30011KT 10SM CLR 29/M02 A2990 4400 12 7100 280/11 RMK AO2 WSHFT 2316 SLP086 T02941022 10300 20239 58017
94299KAAT AAT20160806155516808/06/16 15:55:31  5-MIN KAAT 062355Z AUTO 27008G16KT 240V300 10SM CLR 29/M02 A2990 4400 12 7100 260/08G16 230V290 RMK AO2 WSHFT 2316 SLP085 T02941022 10300 20239 56014
94299KAAT AAT20160806160011908/06/16 16:00:31  5-MIN KAAT 070000Z AUTO 29011G17KT 10SM FEW120 29/M02 A2990 4400 12 7100 270/11G17 RMK AO2 T02941022
94299KAAT AAT20160806160511908/06/16 16:05:31  5-MIN KAAT 070005Z AUTO 28008G17KT 10SM FEW120 29/M02 A2989 4410 13 7100 270/08G17 RMK AO2 T02941017
94299KAAT AAT20160806161011908/06/16 16:10:31  5-MIN KAAT 070010Z AUTO 31008G16KT 10SM FEW120 29/M02 A2989 4410 12 7100 300/08G16 RMK AO2 T02941022
94299KAAT AAT20160806161511908/06/16 16:15:31  5-MIN KAAT 070015Z AUTO 26010G16KT 10SM FEW120 29/M01 A2989 4410 13 7100 240/10G16 RMK AO2 T02941011
94299KAAT AAT20160806162013508/06/16 16:20:31  5-MIN KAAT 070020Z AUTO 31008G16KT 280V340 10SM FEW120 29/M01 A2989 4410 13 7100 300/08G16 270V330 RMK AO2 T02941011
94299KAAT AAT20160806162511308/06/16 16:25:31  5-MIN KAAT 070025Z AUTO 26008KT 10SM FEW120 29/M01 A2989 4410 14 7100 250/08 RMK AO2 T02941006
94299KAAT AAT20160806163011608/06/16 16:30:31  5-MIN KAAT 070030Z AUTO 26012G16KT 10SM CLR 29/M01 A2989 4410 14 7000 250/12G16 RMK AO2 T02891006
94299KAAT AAT20160806163511608/06/16 16:35:31  5-MIN KAAT 070035Z AUTO 26013G18KT 10SM CLR 29/M01 A2989 4410 14 7100 240/13G18 RMK AO2 T02941006
94299KAAT AAT20160806164013108/06/16 16:40:31  5-MIN KAAT 070040Z AUTO 27010G18KT 210V280 10SM CLR 29/00 A2989 4410 14 7100 250/10G18 200V270 RMK AO2 T02940000
94299KAAT AAT20160806164511508/06/16 16:45:31  5-MIN KAAT 070045Z AUTO 26014G17KT 10SM CLR 29/00 A2989 4410 15 7000 250/14G17 RMK AO2 T02890000
94299KAAT AAT20160806165012208/06/16 16:50:31  5-MIN KAAT 070050Z AUTO 26010G17KT 10SM CLR 29/00 A2989 4410 15 7000 250/10G17 RMK AO2 SLP084 T02890000
94299KAAT AAT20160806165511608/06/16 16:55:31  5-MIN KAAT 070055Z AUTO 29008KT 10SM CLR 29/00 A2989 4410 15 7000 280/08 RMK AO2 SLP083 T02890000
94299KAAT AAT20160806170011508/06/16 17:00:31  5-MIN KAAT 070100Z AUTO 26014G18KT 10SM CLR 29/00 A2989 4410 15 7000 250/14G18 RMK AO2 T02890000
94299KAAT AAT20160806170511508/06/16 17:05:31  5-MIN KAAT 070105Z AUTO 25013G18KT 10SM CLR 29/00 A2989 4410 15 7000 240/13G18 RMK AO2 T02890000
94299KAAT AAT20160806171010908/06/16 17:10:31  5-MIN KAAT 070110Z AUTO 25011KT 10SM CLR 29/00 A2989 4410 15 7000 240/11 RMK AO2 T02890000
94299KAAT AAT20160806171511508/06/16 17:15:31  5-MIN KAAT 070115Z AUTO 26016G19KT 10SM CLR 28/00 A2988 4410 15 6900 250/16G19 RMK AO2 T02830000
94299KAAT AAT20160806172011508/06/16 17:20:31  5-MIN KAAT 070120Z AUTO 26014G19KT 10SM CLR 28/00 A2988 4410 15 6900 250/14G19 RMK AO2 T02830000
94299KAAT AAT20160806172510908/06/16 17:25:31  5-MIN KAAT 070125Z AUTO 27013KT 10SM CLR 28/00 A2988 4410 15 6900 250/13 RMK AO2 T02830000
94299KAAT AAT20160806173011508/06/16 17:30:31  5-MIN KAAT 070130Z AUTO 27014G20KT 10SM CLR 28/00 A2989 4410 15 6900 250/14G20 RMK AO2 T02830000
94299KAAT AAT20160806173511508/06/16 17:35:31  5-MIN KAAT 070135Z AUTO 26015G21KT 10SM CLR 28/00 A2989 4410 16 6900 250/15G21 RMK AO2 T02780000
94299KAAT AAT20160806174011608/06/16 17:40:31  5-MIN KAAT 070140Z AUTO 25016G21KT 10SM CLR 28/M01 A2988 4410 15 6900 230/16G21 RMK AO2 T02781006
94299KAAT AAT20160806174510908/06/16 17:45:31  5-MIN KAAT 070145Z AUTO 25018KT 10SM CLR 27/00 A2988 4410 16 6800 240/18 RMK AO2 T02720000
94299KAAT AAT20160806175012308/06/16 17:50:31  5-MIN KAAT 070150Z AUTO 25013G21KT 10SM CLR 27/M01 A2989 4410 16 6800 240/13G21 RMK AO2 SLP084 T02721006
94299KAAT AAT20160806175512208/06/16 17:55:31  5-MIN KAAT 070155Z AUTO 25016G21KT 10SM CLR 27/00 A2989 4410 16 6800 230/16G21 RMK AO2 SLP082 T02720000
94299KAAT AAT20160806180010908/06/16 18:00:31  5-MIN KAAT 070200Z AUTO 25015KT 10SM CLR 27/00 A2989 4410 17 6800 240/15 RMK AO2 T02670000
94299KAAT AAT20160806180510908/06/16 18:05:31  5-MIN KAAT 070205Z AUTO 26015KT 10SM CLR 27/00 A2989 4410 17 6800 240/15 RMK AO2 T02670000
94299KAAT AAT20160806181011508/06/16 18:10:31  5-MIN KAAT 070210Z AUTO 26015G20KT 10SM CLR 27/00 A2989 4410 17 6800 250/15G20 RMK AO2 T02670000
94299KAAT AAT20160806181510908/06/16 18:15:31  5-MIN KAAT 070215Z AUTO 27016KT 10SM CLR 27/00 A2989 4410 17 6800 250/16 RMK AO2 T02670000
94299KAAT AAT20160806182010908/06/16 18:20:31  5-MIN KAAT 070220Z AUTO 26013KT 10SM CLR 26/00 A2989 4410 18 6700 240/13 RMK AO2 T02610000
94299KAAT AAT20160806182510908/06/16 18:25:31  5-MIN KAAT 070225Z AUTO 27014KT 10SM CLR 26/00 A2989 4410 18 6700 250/14 RMK AO2 T02610000
94299KAAT AAT20160806183010908/06/16 18:30:31  5-MIN KAAT 070230Z AUTO 26013KT 10SM CLR 26/00 A2989 4410 18 6700 240/13 RMK AO2 T02610000
94299KAAT AAT20160806183511608/06/16 18:35:31  5-MIN KAAT 070235Z AUTO 26015G20KT 10SM CLR 26/M01 A2989 4410 17 6600 240/15G20 RMK AO2 T02561006
94299KAAT AAT20160806184011008/06/16 18:40:31  5-MIN KAAT 070240Z AUTO 26014KT 10SM CLR 26/M01 A2990 4400 17 6600 240/14 RMK AO2 T02561006
94299KAAT AAT20160806184511008/06/16 18:45:31  5-MIN KAAT 070245Z AUTO 26012KT 10SM CLR 25/M01 A2990 4400 18 6600 240/12 RMK AO2 T02501006
94299KAAT AAT20160806185012308/06/16 18:50:31  5-MIN KAAT 070250Z AUTO 25012KT 10SM CLR 25/M01 A2990 4400 18 6600 240/12 RMK AO2 SLP082 T02501006 56014
94299KAAT AAT20160806185512308/06/16 18:55:31  5-MIN KAAT 070255Z AUTO 25011KT 10SM CLR 25/M01 A2990 4400 18 6600 240/11 RMK AO2 SLP083 T02501006 53001
94299KAAT AAT20160806190011608/06/16 19:00:31  5-MIN KAAT 070300Z AUTO 25014G19KT 10SM CLR 24/M01 A2990 4400 19 6500 240/14G19 RMK AO2 T02441006
94299KAAT AAT20160806190511608/06/16 19:05:31  5-MIN KAAT 070305Z AUTO 25012G19KT 10SM CLR 24/M01 A2990 4400 19 6500 240/12G19 RMK AO2 T02441006
94299KAAT AAT20160806191011308/06/16 19:10:31  5-MIN KAAT 070310Z AUTO 25013KT 10SM FEW120 24/M01 A2990 4400 19 6500 240/13 RMK AO2 T02441006
94299KAAT AAT20160806191511908/06/16 19:15:31  5-MIN KAAT 070315Z AUTO 26013G20KT 10SM FEW120 24/M01 A2990 4400 19 6400 240/13G20 RMK AO2 T02391006
94299KAAT AAT20160806192011308/06/16 19:20:31  5-MIN KAAT 070320Z AUTO 26011KT 10SM SCT120 24/M01 A2990 4400 19 6400 240/11 RMK AO2 T02391006
94299KAAT AAT20160806192511308/06/16 19:25:31  5-MIN KAAT 070325Z AUTO 26010KT 10SM SCT120 24/M01 A2991 4390 19 6400 240/10 RMK AO2 T02391006
94299KAAT AAT20160806193011308/06/16 19:30:31  5-MIN KAAT 070330Z AUTO 27007KT 10SM SCT120 24/M01 A2991 4390 19 6400 250/07 RMK AO2 T02391006
94299KAAT AAT20160806193511308/06/16 19:35:31  5-MIN KAAT 070335Z AUTO 27007KT 10SM SCT120 23/M01 A2991 4390 20 6400 260/07 RMK AO2 T02331006
94299KAAT AAT20160806194011208/06/16 19:40:31  5-MIN KAAT 070340Z AUTO 27008KT 10SM BKN120 23/00 A2991 4390 21 6400 260/08 RMK AO2 T02330000
94299KAAT AAT20160806194511308/06/16 19:45:31  5-MIN KAAT 070345Z AUTO 27009KT 10SM BKN120 23/M01 A2991 4390 20 6400 260/09 RMK AO2 T02331006
94299KAAT AAT20160806195012008/06/16 19:50:31  5-MIN KAAT 070350Z AUTO 28008KT 10SM SCT120 23/M01 A2991 4390 21 6300 260/08 RMK AO2 SLP087 T02281006
94299KAAT AAT20160806195511908/06/16 19:55:31  5-MIN KAAT 070355Z AUTO 28009KT 10SM SCT120 23/00 A2992 4390 22 6300 260/09 RMK AO2 SLP088 T02280000
94299KAAT AAT20160806200011208/06/16 20:00:31  5-MIN KAAT 070400Z AUTO 28008KT 10SM SCT120 22/00 A2992 4390 22 6200 260/08 RMK AO2 T02220000
94299KAAT AAT20160806200511208/06/16 20:05:31  5-MIN KAAT 070405Z AUTO 27009KT 10SM SCT120 22/00 A2992 4380 23 6200 260/09 RMK AO2 T02170000
94299KAAT AAT20160806201011208/06/16 20:10:31  5-MIN KAAT 070410Z AUTO 27007KT 10SM FEW110 22/01 A2992 4380 24 6200 260/07 RMK AO2 T02170006
94299KAAT AAT20160806201511208/06/16 20:15:31  5-MIN KAAT 070415Z AUTO 27007KT 10SM FEW110 21/01 A2992 4380 25 6100 250/07 RMK AO2 T02110006
94299KAAT AAT20160806202011208/06/16 20:20:31  5-MIN KAAT 070420Z AUTO 26007KT 10SM FEW110 21/01 A2992 4380 26 6100 250/07 RMK AO2 T02060006
94299KAAT AAT20160806202511208/06/16 20:25:31  5-MIN KAAT 070425Z AUTO 25007KT 10SM FEW110 21/00 A2992 4380 25 6100 240/07 RMK AO2 T02060000
94299KAAT AAT20160806203010908/06/16 20:30:31  5-MIN KAAT 070430Z AUTO 24007KT 10SM CLR 20/00 A2992 4380 26 6000 230/07 RMK AO2 T02000000
94299KAAT AAT20160806203510908/06/16 20:35:31  5-MIN KAAT 070435Z AUTO 24007KT 10SM CLR 20/00 A2992 4380 26 6000 230/07 RMK AO2 T02000000
94299KAAT AAT20160806204010908/06/16 20:40:31  5-MIN KAAT 070440Z AUTO 25007KT 10SM CLR 20/00 A2993 4380 26 6000 230/07 RMK AO2 T02000000
94299KAAT AAT20160806204510908/06/16 20:45:31  5-MIN KAAT 070445Z AUTO 25007KT 10SM CLR 20/00 A2993 4380 26 6000 230/07 RMK AO2 T02000000
94299KAAT AAT20160806205011708/06/16 20:50:31  5-MIN KAAT 070450Z AUTO 25008KT 10SM CLR 20/M01 A2993 4380 25 6000 240/08 RMK AO2 SLP090 T02001006
94299KAAT AAT20160806205511708/06/16 20:55:31  5-MIN KAAT 070455Z AUTO 25006KT 10SM CLR 21/M01 A2993 4370 24 6000 240/06 RMK AO2 SLP089 T02061006
94299KAAT AAT20160806210011008/06/16 21:00:31  5-MIN KAAT 070500Z AUTO 25006KT 10SM CLR 21/M01 A2993 4370 24 6000 240/06 RMK AO2 T02061006
94299KAAT AAT20160806210511008/06/16 21:05:31  5-MIN KAAT 070505Z AUTO 25006KT 10SM CLR 20/M01 A2993 4370 25 6000 240/06 RMK AO2 T02001006
94299KAAT AAT20160806211011008/06/16 21:10:31  5-MIN KAAT 070510Z AUTO 24004KT 10SM CLR 20/M01 A2993 4370 25 6000 230/04 RMK AO2 T02001006
94299KAAT AAT20160806211511008/06/16 21:15:31  5-MIN KAAT 070515Z AUTO 23005KT 10SM CLR 19/M01 A2993 4370 26 5900 210/05 RMK AO2 T01941006
94299KAAT AAT20160806212010908/06/16 21:20:31  5-MIN KAAT 070520Z AUTO 22004KT 10SM CLR 19/00 A2994 4370 28 5800 200/04 RMK AO2 T01890000
94299KAAT AAT20160806212510908/06/16 21:25:31  5-MIN KAAT 070525Z AUTO 21004KT 10SM CLR 18/00 A2994 4360 30 5700 190/04 RMK AO2 T01780000
94299KAAT AAT20160806213010908/06/16 21:30:31  5-MIN KAAT 070530Z AUTO 22004KT 10SM CLR 18/00 A2994 4360 30 5700 210/04 RMK AO2 T01780000
94299KAAT AAT20160806213510908/06/16 21:35:31  5-MIN KAAT 070535Z AUTO 22004KT 10SM CLR 18/00 A2994 4360 30 5700 200/04 RMK AO2 T01780000
94299KAAT AAT20160806214010908/06/16 21:40:31  5-MIN KAAT 070540Z AUTO 20005KT 10SM CLR 18/00 A2994 4360 30 5700 190/05 RMK AO2 T01780000
94299KAAT AAT20160806214510908/06/16 21:45:31  5-MIN KAAT 070545Z AUTO 20005KT 10SM CLR 18/00 A2994 4360 29 5800 180/05 RMK AO2 T01830000
94299KAAT AAT20160806215013508/06/16 21:50:31  5-MIN KAAT 070550Z AUTO 25004KT 10SM CLR 18/M01 A2994 4360 27 5800 230/04 RMK AO2 SLP094 T01831006 10294 20178 53001
94299KAAT AAT20160806215513408/06/16 21:55:31  5-MIN KAAT 070555Z AUTO 26005KT 10SM CLR 19/00 A2994 4360 28 5800 250/05 RMK AO2 SLP091 T01890000 10294 20178 51013
94299KAAT AAT20160806220010908/06/16 22:00:31  5-MIN KAAT 070600Z AUTO 26006KT 10SM CLR 19/00 A2994 4360 28 5800 240/06 RMK AO2 T01890000
94299KAAT AAT20160806220510908/06/16 22:05:31  5-MIN KAAT 070605Z AUTO 26006KT 10SM CLR 19/00 A2994 4360 28 5800 250/06 RMK AO2 T01890000
94299KAAT AAT20160806221010908/06/16 22:10:31  5-MIN KAAT 070610Z AUTO 25006KT 10SM CLR 19/00 A2994 4360 28 5800 240/06 RMK AO2 T01890000
94299KAAT AAT20160806221510908/06/16 22:15:31  5-MIN KAAT 070615Z AUTO 25007KT 10SM CLR 19/01 A2994 4360 29 5800 230/07 RMK AO2 T01890006
94299KAAT AAT20160806222010908/06/16 22:20:31  5-MIN KAAT 070620Z AUTO 25007KT 10SM CLR 19/01 A2994 4360 30 5800 240/07 RMK AO2 T01890011
94299KAAT AAT20160806222510908/06/16 22:25:31  5-MIN KAAT 070625Z AUTO 24006KT 10SM CLR 19/01 A2994 4360 30 5800 230/06 RMK AO2 T01890011
94299KAAT AAT20160806223010908/06/16 22:30:31  5-MIN KAAT 070630Z AUTO 24006KT 10SM CLR 19/02 A2994 4370 31 5800 220/06 RMK AO2 T01890017
94299KAAT AAT20160806223510908/06/16 22:35:31  5-MIN KAAT 070635Z AUTO 25005KT 10SM CLR 18/02 A2994 4370 34 5800 230/05 RMK AO2 T01830022
94299KAAT AAT20160806224010908/06/16 22:40:31  5-MIN KAAT 070640Z AUTO 23004KT 10SM CLR 18/02 A2994 4360 34 5800 220/04 RMK AO2 T01830022
94299KAAT AAT20160806224510908/06/16 22:45:31  5-MIN KAAT 070645Z AUTO 20005KT 10SM CLR 18/02 A2994 4360 35 5700 180/05 RMK AO2 T01780022
94299KAAT AAT20160806225012708/06/16 22:50:31  5-MIN KAAT 070650Z AUTO 22006KT 10SM CLR 18/02 A2994 4360 34 5800 200/06 RMK AO2 LTG DSNT E SLP094 T01830022
94299KAAT AAT20160806225512708/06/16 22:55:31  5-MIN KAAT 070655Z AUTO 23006KT 10SM CLR 18/02 A2995 4360 34 5800 220/06 RMK AO2 LTG DSNT E SLP092 T01830022
94299KAAT AAT20160806230012008/06/16 23:00:31  5-MIN KAAT 070700Z AUTO 22006KT 10SM CLR 18/03 A2995 4360 35 5800 210/06 RMK AO2 LTG DSNT E T01830028
94299KAAT AAT20160806230512008/06/16 23:05:31  5-MIN KAAT 070705Z AUTO 21004KT 10SM CLR 18/03 A2995 4350 36 5700 200/04 RMK AO2 LTG DSNT E T01780028
94299KAAT AAT20160806231012708/06/16 23:10:31  5-MIN KAAT 070710Z AUTO 00000KT 10SM CLR 18/03 A2996 4350 36 5700 000/00 RMK AO2 LTG DSNT NE AND E T01780028
94299KAAT AAT20160806231512708/06/16 23:15:31  5-MIN KAAT 070715Z AUTO 00000KT 10SM CLR 17/03 A2996 4350 37 5600 000/00 RMK AO2 LTG DSNT NE AND E T01720028
94299KAAT AAT20160806232012108/06/16 23:20:31  5-MIN KAAT 070720Z AUTO 00000KT 10SM CLR 17/03 A2996 4340 37 5600 000/00 RMK AO2 LTG DSNT NE T01720028
94299KAAT AAT20160806232510908/06/16 23:25:31  5-MIN KAAT 070725Z AUTO VRB03KT 10SM CLR 18/03 A2996 4340 35 5800 VRB/03 RMK AO2 T01830028
94299KAAT AAT20160806233010908/06/16 23:30:31  5-MIN KAAT 070730Z AUTO 27006KT 10SM CLR 18/03 A2996 4340 38 5700 260/06 RMK AO2 T01780033
94299KAAT AAT20160806233510908/06/16 23:35:31  5-MIN KAAT 070735Z AUTO 26005KT 10SM CLR 18/03 A2997 4340 38 5700 250/05 RMK AO2 T01780033
94299KAAT AAT20160806234010908/06/16 23:40:31  5-MIN KAAT 070740Z AUTO 25005KT 10SM CLR 18/03 A2996 4340 38 5700 240/05 RMK AO2 T01780033
94299KAAT AAT20160806234510908/06/16 23:45:31  5-MIN KAAT 070745Z AUTO 22005KT 10SM CLR 17/03 A2997 4340 39 5600 210/05 RMK AO2 T01720033
94299KAAT AAT20160806235013808/06/16 23:50:31  5-MIN KAAT 070750Z AUTO 21006KT 10SM CLR 17/03 A2997 4330 39 5600 190/06 RMK AO2 LTG DSNT NE SLP100 T01720033 403000056
94299KAAT AAT20160806235513808/06/16 23:55:31  5-MIN KAAT 070755Z AUTO 19005KT 10SM CLR 17/03 A2997 4330 39 5600 180/05 RMK AO2 LTG DSNT NE SLP102 T01720033 403000056
94299KAAT AAT20160807000012108/07/16 00:00:31  5-MIN KAAT 070800Z AUTO 21005KT 10SM CLR 17/03 A2997 4330 40 5600 200/05 RMK AO2 LTG DSNT NE T01670033
94299KAAT AAT20160807000512108/07/16 00:05:31  5-MIN KAAT 070805Z AUTO 23005KT 10SM CLR 17/03 A2997 4330 40 5600 220/05 RMK AO2 LTG DSNT NE T01670033
94299KAAT AAT20160807001012108/07/16 00:10:31  5-MIN KAAT 070810Z AUTO 23005KT 10SM CLR 17/03 A2997 4330 40 5600 220/05 RMK AO2 LTG DSNT NE T01670033
94299KAAT AAT20160807001512108/07/16 00:15:31  5-MIN KAAT 070815Z AUTO 00000KT 10SM CLR 17/03 A2997 4340 40 5600 000/00 RMK AO2 LTG DSNT NE T01670033
94299KAAT AAT20160807002012108/07/16 00:20:31  5-MIN KAAT 070820Z AUTO 02004KT 10SM CLR 16/03 A2997 4340 42 5500 010/04 RMK AO2 LTG DSNT NE T01610033
94299KAAT AAT20160807002512108/07/16 00:25:31  5-MIN KAAT 070825Z AUTO 00000KT 10SM CLR 16/04 A2997 4340 44 5500 000/00 RMK AO2 LTG DSNT NE T01610039
94299KAAT AAT20160807003010908/07/16 00:30:31  5-MIN KAAT 070830Z AUTO 00000KT 10SM CLR 17/04 A2997 4340 42 5600 000/00 RMK AO2 T01670039
94299KAAT AAT20160807003510908/07/16 00:35:31  5-MIN KAAT 070835Z AUTO 00000KT 10SM CLR 17/04 A2997 4330 42 5600 000/00 RMK AO2 T01670039
94299KAAT AAT20160807004010908/07/16 00:40:31  5-MIN KAAT 070840Z AUTO 00000KT 10SM CLR 17/03 A2997 4330 40 5600 000/00 RMK AO2 T01670033
94299KAAT AAT20160807004511208/07/16 00:45:31  5-MIN KAAT 070845Z AUTO 25004KT 10SM FEW095 17/04 A2997 4330 42 5600 240/04 RMK AO2 T01670039
94299KAAT AAT20160807005012508/07/16 00:50:31  5-MIN KAAT 070850Z AUTO 24003KT 10SM SCT095 17/04 A2997 4330 42 5600 230/03 RMK AO2 SLP101 T01670039 51013
94299KAAT AAT20160807005513208/07/16 00:55:31  5-MIN KAAT 070855Z AUTO 25003KT 10SM FEW080 BKN095 17/04 A2997 4330 42 5600 230/03 RMK AO2 SLP100 T01670039 50009
94299KAAT AAT20160807010011908/07/16 01:00:31  5-MIN KAAT 070900Z AUTO 26003KT 10SM SCT080 BKN095 17/04 A2997 4330 42 5600 240/03 RMK AO2 T01670039
94299KAAT AAT20160807010511208/07/16 01:05:31  5-MIN KAAT 070905Z AUTO VRB03KT 10SM BKN085 17/04 A2998 4330 41 5600 VRB/03 RMK AO2 T01720039
94299KAAT AAT20160807011011208/07/16 01:10:31  5-MIN KAAT 070910Z AUTO 00000KT 10SM OVC085 17/04 A2998 4330 42 5600 000/00 RMK AO2 T01720044
94299KAAT AAT20160807011511208/07/16 01:15:31  5-MIN KAAT 070915Z AUTO 00000KT 10SM OVC085 17/04 A2998 4330 44 5600 000/00 RMK AO2 T01670044
94299KAAT AAT20160807012011208/07/16 01:20:31  5-MIN KAAT 070920Z AUTO 00000KT 10SM OVC085 17/04 A2997 4330 42 5600 000/00 RMK AO2 T01670039
94299KAAT AAT20160807012511208/07/16 01:25:31  5-MIN KAAT 070925Z AUTO 00000KT 10SM OVC080 17/04 A2997 4330 42 5600 000/00 RMK AO2 T01670039
94299KAAT AAT20160807013011208/07/16 01:30:31  5-MIN KAAT 070930Z AUTO 29005KT 10SM OVC085 17/04 A2997 4330 41 5600 270/05 RMK AO2 T01720039
94299KAAT AAT20160807013511208/07/16 01:35:31  5-MIN KAAT 070935Z AUTO 29005KT 10SM OVC085 18/04 A2997 4330 39 5700 280/05 RMK AO2 T01780039
94299KAAT AAT20160807014011908/07/16 01:40:31  5-MIN KAAT 070940Z AUTO 29005KT 10SM BKN085 BKN100 18/04 A2997 4330 39 5700 270/05 RMK AO2 T01780039
94299KAAT AAT20160807014511908/07/16 01:45:31  5-MIN KAAT 070945Z AUTO 26005KT 10SM BKN085 BKN110 18/04 A2997 4330 39 5700 250/05 RMK AO2 T01780039
94299KAAT AAT20160807015012608/07/16 01:50:31  5-MIN KAAT 070950Z AUTO VRB04KT 10SM SCT090 BKN110 18/04 A2998 4330 39 5700 VRB/04 RMK AO2 SLP100 T01780039
94299KAAT AAT20160807015512608/07/16 01:55:31  5-MIN KAAT 070955Z AUTO 23003KT 10SM BKN095 BKN110 17/04 A2998 4330 41 5600 220/03 RMK AO2 SLP101 T01720039
94299KAAT AAT20160807020013008/07/16 02:00:31  5-MIN KAAT 071000Z AUTO 30005KT 10SM BKN095 BKN110 17/04 A2998 4330 41 5600 290/05 RMK AO2 LTG DSNT N T01720039
94299KAAT AAT20160807020512308/07/16 02:05:31  5-MIN KAAT 071005Z AUTO 27003KT 10SM BKN095 18/04 A2998 4330 39 5700 250/03 RMK AO2 LTG DSNT N T01780039
94299KAAT AAT20160807021012308/07/16 02:10:31  5-MIN KAAT 071010Z AUTO 00000KT 10SM BKN095 17/04 A2998 4330 41 5600 000/00 RMK AO2 LTG DSNT N T01720039
94299KAAT AAT20160807021512308/07/16 02:15:31  5-MIN KAAT 071015Z AUTO 33003KT 10SM SCT095 17/04 A2998 4330 41 5600 310/03 RMK AO2 LTG DSNT N T01720039
94299KAAT AAT20160807022012308/07/16 02:20:31  5-MIN KAAT 071020Z AUTO VRB04KT 10SM SCT095 17/04 A2998 4330 42 5600 VRB/04 RMK AO2 LTG DSNT N T01670039
94299KAAT AAT20160807022512308/07/16 02:25:31  5-MIN KAAT 071025Z AUTO 33004KT 10SM FEW095 17/04 A2998 4330 42 5500 310/04 RMK AO2 LTG DSNT N T01670039
94299KAAT AAT20160807023012308/07/16 02:30:31  5-MIN KAAT 071030Z AUTO VRB04KT 10SM FEW095 16/04 A2998 4330 44 5500 VRB/04 RMK AO2 LTG DSNT N T01610039
94299KAAT AAT20160807023512308/07/16 02:35:31  5-MIN KAAT 071035Z AUTO 06004KT 10SM FEW090 16/04 A2998 4320 47 5400 040/04 RMK AO2 LTG DSNT N T01560044
94299KAAT AAT20160807024012308/07/16 02:40:31  5-MIN KAAT 071040Z AUTO 00000KT 10SM SCT090 16/04 A2998 4320 45 5500 000/00 RMK AO2 LTG DSNT N T01610044
94299KAAT AAT20160807024512308/07/16 02:45:31  5-MIN KAAT 071045Z AUTO 29003KT 10SM BKN090 17/04 A2998 4320 42 5500 280/03 RMK AO2 LTG DSNT N T01670039
94299KAAT AAT20160807025013008/07/16 02:50:31  5-MIN KAAT 071050Z AUTO 32004KT 10SM BKN090 17/03 A2998 4320 40 5500 310/04 RMK AO2 LTG DSNT N SLP103 T01670033
94299KAAT AAT20160807025513008/07/16 02:55:31  5-MIN KAAT 071055Z AUTO 02004KT 10SM BKN090 17/03 A2998 4320 40 5500 360/04 RMK AO2 LTG DSNT N SLP102 T01670033
94299KAAT AAT20160807030012308/07/16 03:00:31  5-MIN KAAT 071100Z AUTO 23003KT 10SM BKN090 16/03 A2998 4330 43 5400 220/03 RMK AO2 LTG DSNT N T01560033
94299KAAT AAT20160807030512308/07/16 03:05:31  5-MIN KAAT 071105Z AUTO 26003KT 10SM BKN090 15/04 A2998 4330 49 5400 250/03 RMK AO2 LTG DSNT N T01500044
94299KAAT AAT20160807031012308/07/16 03:10:31  5-MIN KAAT 071110Z AUTO 28003KT 10SM BKN090 14/04 A2998 4330 50 5200 270/03 RMK AO2 LTG DSNT N T01390039
94299KAAT AAT20160807031512308/07/16 03:15:31  5-MIN KAAT 071115Z AUTO 27003KT 10SM SCT090 13/04 A2998 4330 54 5100 260/03 RMK AO2 LTG DSNT N T01280039
94299KAAT AAT20160807032012308/07/16 03:20:31  5-MIN KAAT 071120Z AUTO 23003KT 10SM FEW090 13/04 A2998 4330 54 5200 220/03 RMK AO2 LTG DSNT N T01330044
94299KAAT AAT20160807032512408/07/16 03:25:31  5-MIN KAAT 071125Z AUTO 00000KT 10SM FEW100 12/04 A2997 4330 56 5000 000/00 RMK AO2 LTG DSNT NE T01220039
94299KAAT AAT20160807033012408/07/16 03:30:31  5-MIN KAAT 071130Z AUTO 00000KT 10SM FEW100 13/04 A2998 4330 56 5100 000/00 RMK AO2 LTG DSNT NE T01280044
94299KAAT AAT20160807033512108/07/16 03:35:31  5-MIN KAAT 071135Z AUTO 00000KT 10SM CLR 13/04 A2998 4330 56 5100 000/00 RMK AO2 LTG DSNT NE T01280044
94299KAAT AAT20160807034010908/07/16 03:40:31  5-MIN KAAT 071140Z AUTO 00000KT 10SM CLR 13/04 A2998 4330 52 5200 000/00 RMK AO2 T01330039
94299KAAT AAT20160807034510908/07/16 03:45:31  5-MIN KAAT 071145Z AUTO 14003KT 10SM CLR 13/04 A2998 4330 54 5100 120/03 RMK AO2 T01280039
94299KAAT AAT20160807035013408/07/16 03:50:31  5-MIN KAAT 071150Z AUTO 17004KT 10SM CLR 12/05 A2998 4330 61 5000 160/04 RMK AO2 SLP105 T01220050 10189 20122 50009
94299KAAT AAT20160807035513408/07/16 03:55:31  5-MIN KAAT 071155Z AUTO 18003KT 10SM CLR 11/06 A2998 4330 68 4900 170/03 RMK AO2 SLP107 T01110056 10189 20111 50001
94299KAAT AAT20160807040010908/07/16 04:00:31  5-MIN KAAT 071200Z AUTO 19003KT 10SM CLR 12/06 A2998 4330 66 5000 170/03 RMK AO2 T01220061
94299KAAT AAT20160807040510908/07/16 04:05:31  5-MIN KAAT 071205Z AUTO 22003KT 10SM CLR 12/06 A2998 4330 63 5000 200/03 RMK AO2 T01220056
94299KAAT AAT20160807041010908/07/16 04:10:31  5-MIN KAAT 071210Z AUTO 18003KT 10SM CLR 12/05 A2998 4330 63 5000 170/03 RMK AO2 T01170050
94299KAAT AAT20160807041510908/07/16 04:15:31  5-MIN KAAT 071215Z AUTO 14003KT 10SM CLR 12/04 A2998 4330 61 5000 130/03 RMK AO2 T01170044
94299KAAT AAT20160807042010908/07/16 04:20:31  5-MIN KAAT 071220Z AUTO 15003KT 10SM CLR 12/04 A2998 4320 61 5000 130/03 RMK AO2 T01170044
94299KAAT AAT20160807042510908/07/16 04:25:31  5-MIN KAAT 071225Z AUTO 10003KT 10SM CLR 11/04 A2998 4320 63 4900 090/03 RMK AO2 T01110044
94299KAAT AAT20160807043010908/07/16 04:30:31  5-MIN KAAT 071230Z AUTO 06004KT 10SM CLR 12/05 A2998 4320 63 5000 040/04 RMK AO2 T01170050
94299KAAT AAT20160807043510908/07/16 04:35:31  5-MIN KAAT 071235Z AUTO 07006KT 10SM CLR 11/05 A2998 4320 66 4900 060/06 RMK AO2 T01110050
94299KAAT AAT20160807044010908/07/16 04:40:31  5-MIN KAAT 071240Z AUTO 08004KT 10SM CLR 12/06 A2998 4320 66 5000 060/04 RMK AO2 T01170056
94299KAAT AAT20160807044510908/07/16 04:45:31  5-MIN KAAT 071245Z AUTO 06004KT 10SM CLR 12/06 A2999 4320 63 5000 050/04 RMK AO2 T01220056
94299KAAT AAT20160807045011608/07/16 04:50:31  5-MIN KAAT 071250Z AUTO 06005KT 10SM CLR 12/06 A2999 4320 63 5000 050/05 RMK AO2 SLP111 T01220056
94299KAAT AAT20160807045511608/07/16 04:55:31  5-MIN KAAT 071255Z AUTO 07006KT 10SM CLR 12/06 A2999 4320 63 5000 050/06 RMK AO2 SLP111 T01220056
94299KAAT AAT20160807050010908/07/16 05:00:31  5-MIN KAAT 071300Z AUTO 07006KT 10SM CLR 12/06 A2999 4320 63 5000 060/06 RMK AO2 T01220056
94299KAAT AAT20160807050510908/07/16 05:05:31  5-MIN KAAT 071305Z AUTO 00000KT 10SM CLR 11/05 A2999 4320 66 4900 000/00 RMK AO2 T01110050
94299KAAT AAT20160807051010908/07/16 05:10:31  5-MIN KAAT 071310Z AUTO 00000KT 10SM CLR 11/04 A2999 4320 66 4800 000/00 RMK AO2 T01060044
94299KAAT AAT20160807051510908/07/16 05:15:31  5-MIN KAAT 071315Z AUTO 00000KT 10SM CLR 09/04 A2999 4310 71 4700 000/00 RMK AO2 T00940044
94299KAAT AAT20160807052010908/07/16 05:20:31  5-MIN KAAT 071320Z AUTO 18003KT 10SM CLR 08/04 A2999 4310 76 4600 170/03 RMK AO2 T00830044
94299KAAT AAT20160807052510908/07/16 05:25:31  5-MIN KAAT 071325Z AUTO 00000KT 10SM CLR 08/04 A3000 4310 76 4600 000/00 RMK AO2 T00830044
94299KAAT AAT20160807053010908/07/16 05:30:31  5-MIN KAAT 071330Z AUTO 00000KT 10SM CLR 09/04 A3000 4310 73 4600 000/00 RMK AO2 T00890044
94299KAAT AAT20160807053510908/07/16 05:35:31  5-MIN KAAT 071335Z AUTO 00000KT 10SM CLR 09/04 A3000 4310 73 4600 000/00 RMK AO2 T00890044
94299KAAT AAT20160807054010908/07/16 05:40:31  5-MIN KAAT 071340Z AUTO 00000KT 10SM CLR 10/06 A3000 4310 74 4800 000/00 RMK AO2 T01000056
94299KAAT AAT20160807054510908/07/16 05:45:31  5-MIN KAAT 071345Z AUTO 00000KT 10SM CLR 11/05 A3000 4310 68 4800 000/00 RMK AO2 T01060050
94299KAAT AAT20160807055011608/07/16 05:50:31  5-MIN KAAT 071350Z AUTO 18003KT 10SM CLR 11/05 A3000 4310 68 4800 170/03 RMK AO2 SLP120 T01060050
94299KAAT AAT20160807055511608/07/16 05:55:31  5-MIN KAAT 071355Z AUTO 00000KT 10SM CLR 12/05 A3000 4310 63 5000 000/00 RMK AO2 SLP118 T01170050
94299KAAT AAT20160807060010908/07/16 06:00:31  5-MIN KAAT 071400Z AUTO 00000KT 10SM CLR 11/04 A3000 4310 63 4900 000/00 RMK AO2 T01110044
94299KAAT AAT20160807060510908/07/16 06:05:31  5-MIN KAAT 071405Z AUTO 00000KT 10SM CLR 12/04 A3000 4310 61 5000 000/00 RMK AO2 T01170044
94299KAAT AAT20160807061010908/07/16 06:10:31  5-MIN KAAT 071410Z AUTO 00000KT 10SM CLR 12/04 A3000 4300 61 4900 000/00 RMK AO2 T01170044
94299KAAT AAT20160807061510908/07/16 06:15:31  5-MIN KAAT 071415Z AUTO 00000KT 10SM CLR 12/05 A3000 4310 63 5000 000/00 RMK AO2 T01170050
94299KAAT AAT20160807062010908/07/16 06:20:31  5-MIN KAAT 071420Z AUTO 00000KT 10SM CLR 12/05 A3000 4310 61 5000 000/00 RMK AO2 T01220050
94299KAAT AAT20160807062510908/07/16 06:25:31  5-MIN KAAT 071425Z AUTO 13003KT 10SM CLR 13/05 A3000 4310 59 5100 110/03 RMK AO2 T01280050
94299KAAT AAT20160807063010908/07/16 06:30:31  5-MIN KAAT 071430Z AUTO 13004KT 10SM CLR 13/05 A3000 4310 57 5100 110/04 RMK AO2 T01330050
94299KAAT AAT20160807063510908/07/16 06:35:31  5-MIN KAAT 071435Z AUTO 11004KT 10SM CLR 13/06 A3000 4300 59 5100 100/04 RMK AO2 T01330056
94299KAAT AAT20160807064010908/07/16 06:40:31  5-MIN KAAT 071440Z AUTO 11003KT 10SM CLR 14/05 A3001 4300 55 5200 090/03 RMK AO2 T01390050
94299KAAT AAT20160807064510908/07/16 06:45:31  5-MIN KAAT 071445Z AUTO 00000KT 10SM CLR 14/05 A3001 4300 55 5200 000/00 RMK AO2 T01390050
94299KAAT AAT20160807065012208/07/16 06:50:31  5-MIN KAAT 071450Z AUTO 00000KT 10SM CLR 14/05 A3001 4300 53 5300 000/00 RMK AO2 SLP119 T01440050 50001
94299KAAT AAT20160807065512208/07/16 06:55:31  5-MIN KAAT 071455Z AUTO 00000KT 10SM CLR 14/05 A3001 4300 53 5300 000/00 RMK AO2 SLP119 T01440050 51009
94299KAAT AAT20160807070010908/07/16 07:00:31  5-MIN KAAT 071500Z AUTO 12003KT 10SM CLR 15/05 A3001 4300 51 5300 110/03 RMK AO2 T01500050
94299KAAT AAT20160807070510908/07/16 07:05:31  5-MIN KAAT 071505Z AUTO 14004KT 10SM CLR 15/05 A3001 4300 51 5300 130/04 RMK AO2 T01500050
94299KAAT AAT20160807071010908/07/16 07:10:31  5-MIN KAAT 071510Z AUTO 15004KT 10SM CLR 16/05 A3001 4300 49 5400 130/04 RMK AO2 T01560050
94299KAAT AAT20160807071510908/07/16 07:15:31  5-MIN KAAT 071515Z AUTO 12003KT 10SM CLR 16/05 A3001 4300 47 5500 100/03 RMK AO2 T01610050
94299KAAT AAT20160807072010908/07/16 07:20:31  5-MIN KAAT 071520Z AUTO 12003KT 10SM CLR 16/05 A3001 4300 47 5500 110/03 RMK AO2 T01610050
94299KAAT AAT20160807072510908/07/16 07:25:31  5-MIN KAAT 071525Z AUTO 15004KT 10SM CLR 17/04 A3001 4300 44 5500 130/04 RMK AO2 T01670044
94299KAAT AAT20160807073010908/07/16 07:30:31  5-MIN KAAT 071530Z AUTO 15003KT 10SM CLR 17/05 A3001 4300 45 5500 140/03 RMK AO2 T01670050
94299KAAT AAT20160807073510908/07/16 07:35:31  5-MIN KAAT 071535Z AUTO 00000KT 10SM CLR 17/04 A3001 4300 44 5500 000/00 RMK AO2 T01670044
94299KAAT AAT20160807074010908/07/16 07:40:31  5-MIN KAAT 071540Z AUTO 00000KT 10SM CLR 17/04 A3001 4300 42 5600 000/00 RMK AO2 T01720044
94299KAAT AAT20160807074510908/07/16 07:45:31  5-MIN KAAT 071545Z AUTO 00000KT 10SM CLR 18/04 A3001 4300 39 5600 000/00 RMK AO2 T01780039
94299KAAT AAT20160807075011608/07/16 07:50:31  5-MIN KAAT 071550Z AUTO 00000KT 10SM CLR 18/04 A3001 4300 39 5600 000/00 RMK AO2 SLP119 T01780039
94299KAAT AAT20160807075511608/07/16 07:55:31  5-MIN KAAT 071555Z AUTO 00000KT 10SM CLR 18/04 A3001 4300 39 5700 000/00 RMK AO2 SLP119 T01830044
94299KAAT AAT20160807080010908/07/16 08:00:31  5-MIN KAAT 071600Z AUTO VRB03KT 10SM CLR 18/04 A3001 4300 39 5700 VRB/03 RMK AO2 T01830044
94299KAAT AAT20160807080510908/07/16 08:05:31  5-MIN KAAT 071605Z AUTO 00000KT 10SM CLR 19/04 A3001 4300 36 5800 000/00 RMK AO2 T01890039
94299KAAT AAT20160807081010908/07/16 08:10:31  5-MIN KAAT 071610Z AUTO 00000KT 10SM CLR 19/04 A3001 4300 36 5800 000/00 RMK AO2 T01890039
94299KAAT AAT20160807081510908/07/16 08:15:31  5-MIN KAAT 071615Z AUTO 00000KT 10SM CLR 19/04 A3001 4300 35 5800 000/00 RMK AO2 T01940039
94299KAAT AAT20160807082010908/07/16 08:20:31  5-MIN KAAT 071620Z AUTO VRB05KT 10SM CLR 20/04 A3001 4300 34 5900 VRB/05 RMK AO2 T02000039
94299KAAT AAT20160807082510908/07/16 08:25:31  5-MIN KAAT 071625Z AUTO 00000KT 10SM CLR 20/04 A3000 4300 34 5900 000/00 RMK AO2 T02000039
94299KAAT AAT20160807083010908/07/16 08:30:31  5-MIN KAAT 071630Z AUTO VRB06KT 10SM CLR 21/03 A3000 4310 30 6000 VRB/06 RMK AO2 T02060028
94299KAAT AAT20160807083510908/07/16 08:35:31  5-MIN KAAT 071635Z AUTO 26007KT 10SM CLR 21/02 A3000 4300 29 6000 250/07 RMK AO2 T02060022
94299KAAT AAT20160807084010908/07/16 08:40:31  5-MIN KAAT 071640Z AUTO 25006KT 10SM CLR 21/02 A3001 4300 29 6000 230/06 RMK AO2 T02060022
94299KAAT AAT20160807084510908/07/16 08:45:31  5-MIN KAAT 071645Z AUTO VRB05KT 10SM CLR 21/02 A3001 4300 28 6000 VRB/05 RMK AO2 T02110022
94299KAAT AAT20160807085011608/07/16 08:50:31  5-MIN KAAT 071650Z AUTO 25008KT 10SM CLR 22/02 A3001 4300 27 6100 240/08 RMK AO2 SLP116 T02170022
94299KAAT AAT20160807085511608/07/16 08:55:31  5-MIN KAAT 071655Z AUTO VRB03KT 10SM CLR 21/02 A3000 4300 28 6000 VRB/03 RMK AO2 SLP115 T02110022
94299KAAT AAT20160807090010908/07/16 09:00:31  5-MIN KAAT 071700Z AUTO 00000KT 10SM CLR 21/02 A3000 4300 28 6000 000/00 RMK AO2 T02110022
94299KAAT AAT20160807090509908/07/16 09:05:31  5-MIN KAAT 071705Z AUTO 10SM CLR 21/02 A3000 4300 28 6000 M /M RMK AO2 T02110022
94299KAAT AAT20160807091010908/07/16 09:10:31  5-MIN KAAT 071710Z AUTO 24007KT 10SM CLR 21/02 A3000 4300 28 6000 220/07 RMK AO2 T02110022
94299KAAT AAT20160807091510908/07/16 09:15:31  5-MIN KAAT 071715Z AUTO 23007KT 10SM CLR 22/03 A3000 4310 28 6100 220/07 RMK AO2 T02170028
94299KAAT AAT20160807092010908/07/16 09:20:31  5-MIN KAAT 071720Z AUTO VRB04KT 10SM CLR 22/03 A3000 4310 28 6100 VRB/04 RMK AO2 T02170028
94299KAAT AAT20160807092510908/07/16 09:25:31  5-MIN KAAT 071725Z AUTO 21004KT 10SM CLR 22/03 A3000 4300 28 6100 190/04 RMK AO2 T02170028
94299KAAT AAT20160807093009908/07/16 09:30:31  5-MIN KAAT 071730Z AUTO 10SM CLR 22/03 A3000 4310 27 6100 M /M RMK AO2 T02220028
94299KAAT AAT20160807093510908/07/16 09:35:31  5-MIN KAAT 071735Z AUTO 25007KT 10SM CLR 22/03 A3000 4300 27 6100 240/07 RMK AO2 T02220028
94299KAAT AAT20160807094010908/07/16 09:40:31  5-MIN KAAT 071740Z AUTO VRB03KT 10SM CLR 23/03 A3000 4300 26 6200 VRB/03 RMK AO2 T02280028
94299KAAT AAT20160807094512508/07/16 09:45:31  5-MIN KAAT 071745Z AUTO 25007KT 210V270 10SM CLR 23/03 A3000 4300 26 6200 230/07 200V260 RMK AO2 T02280028
94299KAAT AAT20160807095013408/07/16 09:50:31  5-MIN KAAT 071750Z AUTO VRB03KT 10SM CLR 22/03 A3000 4300 27 6100 VRB/03 RMK AO2 SLP116 T02220028 10228 20083 51009
94299KAAT AAT20160807095513408/07/16 09:55:31  5-MIN KAAT 071755Z AUTO 31005KT 10SM CLR 23/03 A3000 4310 26 6200 300/05 RMK AO2 SLP114 T02280028 10228 20083 58001
94299KAAT AAT20160807100009908/07/16 10:00:31  5-MIN KAAT 071800Z AUTO 10SM CLR 23/03 A3000 4310 26 6200 M /M RMK AO2 T02280028
94299KAAT AAT20160807100510908/07/16 10:05:31  5-MIN KAAT 071805Z AUTO 21006KT 10SM CLR 23/03 A3000 4310 25 6300 190/06 RMK AO2 T02330028
94299KAAT AAT20160807101012508/07/16 10:10:31  5-MIN KAAT 071810Z AUTO 26007KT 230V310 10SM CLR 24/03 A3000 4310 25 6300 240/07 220V300 RMK AO2 T02390028
94299KAAT AAT20160807101512508/07/16 10:15:31  5-MIN KAAT 071815Z AUTO 25007KT 210V280 10SM CLR 24/02 A3000 4310 23 6300 240/07 200V270 RMK AO2 T02390017
94299KAAT AAT20160807102010908/07/16 10:20:31  5-MIN KAAT 071820Z AUTO 26005KT 10SM CLR 23/02 A3000 4310 24 6300 250/05 RMK AO2 T02330017
94299KAAT AAT20160807102510908/07/16 10:25:31  5-MIN KAAT 071825Z AUTO 22007KT 10SM CLR 24/02 A3000 4310 24 6300 210/07 RMK AO2 T02390022
94299KAAT AAT20160807103010908/07/16 10:30:31  5-MIN KAAT 071830Z AUTO VRB05KT 10SM CLR 24/02 A3000 4310 22 6400 VRB/05 RMK AO2 T02440017
94299KAAT AAT20160807103510908/07/16 10:35:31  5-MIN KAAT 071835Z AUTO VRB04KT 10SM CLR 24/02 A3000 4310 23 6300 VRB/04 RMK AO2 T02390017
94299KAAT AAT20160807104010908/07/16 10:40:31  5-MIN KAAT 071840Z AUTO VRB04KT 10SM CLR 24/02 A2999 4310 22 6400 VRB/04 RMK AO2 T02440017
94299KAAT AAT20160807104511508/07/16 10:45:31  5-MIN KAAT 071845Z AUTO 26010G15KT 10SM CLR 25/02 A2999 4310 21 6500 240/10G15 RMK AO2 T02500017
94299KAAT AAT20160807105012208/07/16 10:50:31  5-MIN KAAT 071850Z AUTO 24009G15KT 10SM CLR 24/02 A2999 4310 22 6400 220/09G15 RMK AO2 SLP110 T02440017
94299KAAT AAT20160807105512208/07/16 10:55:31  5-MIN KAAT 071855Z AUTO 25005G14KT 10SM CLR 24/02 A2999 4320 23 6400 230/05G14 RMK AO2 SLP110 T02440022
94299KAAT AAT20160807110011508/07/16 11:00:31  5-MIN KAAT 071900Z AUTO 25012G18KT 10SM CLR 26/03 A2999 4310 21 6600 230/12G18 RMK AO2 T02610028
94299KAAT AAT20160807110511508/07/16 11:05:31  5-MIN KAAT 071905Z AUTO VRB06G18KT 10SM CLR 25/02 A2999 4320 21 6500 VRB/06G18 RMK AO2 T02500017
94299KAAT AAT20160807111010908/07/16 11:10:31  5-MIN KAAT 071910Z AUTO VRB03KT 10SM CLR 24/03 A2999 4320 24 6400 VRB/03 RMK AO2 T02440028
94299KAAT AAT20160807111509908/07/16 11:15:31  5-MIN KAAT 071915Z AUTO 10SM CLR 26/02 A2998 4320 21 6500 M /M RMK AO2 T02560022
94299KAAT AAT20160807112011508/07/16 11:20:31  5-MIN KAAT 071920Z AUTO 30012G16KT 10SM CLR 27/02 A2999 4320 19 6600 280/12G16 RMK AO2 T02670017
94299KAAT AAT20160807112510908/07/16 11:25:31  5-MIN KAAT 071925Z AUTO 30012KT 10SM CLR 26/01 A2999 4320 19 6600 280/12 RMK AO2 T02610011
94299KAAT AAT20160807113012508/07/16 11:30:31  5-MIN KAAT 071930Z AUTO 27009KT 230V320 10SM CLR 26/01 A2999 4320 19 6600 250/09 220V310 RMK AO2 T02610011
94299KAAT AAT20160807113510908/07/16 11:35:31  5-MIN KAAT 071935Z AUTO 27013KT 10SM CLR 26/01 A2999 4320 18 6600 250/13 RMK AO2 T02610006
94299KAAT AAT20160807114010908/07/16 11:40:31  5-MIN KAAT 071940Z AUTO 28008KT 10SM CLR 26/01 A2999 4320 19 6600 270/08 RMK AO2 T02610011
94299KAAT AAT20160807114510908/07/16 11:45:31  5-MIN KAAT 071945Z AUTO VRB05KT 10SM CLR 26/02 A2998 4330 21 6500 VRB/05 RMK AO2 T02560017
94299KAAT AAT20160807115010608/07/16 11:50:31  5-MIN KAAT 071950Z AUTO 10SM CLR 26/01 A2998 4320 19 6600 M /M RMK AO2 SLP106 T02610011
94299KAAT AAT20160807115511608/07/16 11:55:31  5-MIN KAAT 071955Z AUTO VRB05KT 10SM CLR 27/00 A2998 4320 17 6700 VRB/05 RMK AO2 SLP105 T02670000
94299KAAT AAT20160807120009908/07/16 12:00:31  5-MIN KAAT 072000Z AUTO 10SM CLR 26/00 A2998 4330 18 6600 M /M RMK AO2 T02610000
94299KAAT AAT20160807120511608/07/16 12:05:31  5-MIN KAAT 072005Z AUTO 26010G18KT 10SM CLR 27/M01 A2998 4330 16 6700 240/10G18 RMK AO2 T02671006
94299KAAT AAT20160807121011608/07/16 12:10:31  5-MIN KAAT 072010Z AUTO 29009G18KT 10SM CLR 27/M01 A2998 4330 16 6700 270/09G18 RMK AO2 T02671011
94299KAAT AAT20160807121513208/07/16 12:15:31  5-MIN KAAT 072015Z AUTO 26009G22KT 230V300 10SM CLR 27/M01 A2998 4330 15 6700 240/09G22 220V290 RMK AO2 T02721011
94299KAAT AAT20160807122011608/07/16 12:20:31  5-MIN KAAT 072020Z AUTO 25010G22KT 10SM CLR 26/M02 A2998 4330 16 6600 240/10G22 RMK AO2 T02611017
94299KAAT AAT20160807122511608/07/16 12:25:31  5-MIN KAAT 072025Z AUTO 28013G19KT 10SM CLR 27/M02 A2998 4330 14 6700 270/13G19 RMK AO2 T02671022
94299KAAT AAT20160807123011608/07/16 12:30:31  5-MIN KAAT 072030Z AUTO 28013G21KT 10SM CLR 27/M02 A2998 4330 14 6700 260/13G21 RMK AO2 T02721022
94299KAAT AAT20160807123511608/07/16 12:35:31  5-MIN KAAT 072035Z AUTO 29010G23KT 10SM CLR 27/M03 A2998 4330 13 6700 270/10G23 RMK AO2 T02721028
94299KAAT AAT20160807124011608/07/16 12:40:31  5-MIN KAAT 072040Z AUTO 30012G23KT 10SM CLR 27/M03 A2998 4330 13 6700 280/12G23 RMK AO2 T02721028
94299KAAT AAT20160807124511008/07/16 12:45:31  5-MIN KAAT 072045Z AUTO 28012KT 10SM CLR 27/M03 A2998 4330 13 6700 270/12 RMK AO2 T02721028
94299KAAT AAT20160807125012908/07/16 12:50:31  5-MIN KAAT 072050Z AUTO 28014G22KT 10SM CLR 28/M03 A2997 4330 12 6800 270/14G22 RMK AO2 SLP102 T02781033 58001
94299KAAT AAT20160807125512908/07/16 12:55:31  5-MIN KAAT 072055Z AUTO 28016G22KT 10SM CLR 27/M03 A2998 4330 13 6700 260/16G22 RMK AO2 SLP103 T02721033 56008
94299KAAT AAT20160807130011608/07/16 13:00:31  5-MIN KAAT 072100Z AUTO 28015G21KT 10SM CLR 28/M03 A2998 4330 13 6800 260/15G21 RMK AO2 T02781028
94299KAAT AAT20160807130511608/07/16 13:05:31  5-MIN KAAT 072105Z AUTO 26009G24KT 10SM CLR 27/M03 A2998 4330 13 6700 240/09G24 RMK AO2 T02721033
94299KAAT AAT20160807131011608/07/16 13:10:31  5-MIN KAAT 072110Z AUTO 27014G24KT 10SM CLR 28/M04 A2998 4330 12 6800 260/14G24 RMK AO2 T02781039
94299KAAT AAT20160807131511608/07/16 13:15:31  5-MIN KAAT 072115Z AUTO 26012G20KT 10SM CLR 28/M05 A2997 4330 11 6800 250/12G20 RMK AO2 T02781050
94299KAAT AAT20160807132011608/07/16 13:20:31  5-MIN KAAT 072120Z AUTO 25010G19KT 10SM CLR 28/M05 A2997 4330 11 6800 240/10G19 RMK AO2 T02781050
94299KAAT AAT20160807132511608/07/16 13:25:31  5-MIN KAAT 072125Z AUTO 26017G25KT 10SM CLR 28/M06 A2997 4330 11 6800 240/17G25 RMK AO2 T02781056
94299KAAT AAT20160807133011608/07/16 13:30:31  5-MIN KAAT 072130Z AUTO 26010G25KT 10SM CLR 27/M06 A2997 4330 11 6700 240/10G25 RMK AO2 T02721056
94299KAAT AAT20160807133510008/07/16 13:35:31  5-MIN KAAT 072135Z AUTO 10SM CLR 27/M05 A2997 4330 11 6700 M /M RMK AO2 T02721050
94299KAAT AAT20160807134011608/07/16 13:40:31  5-MIN KAAT 072140Z AUTO 23011G19KT 10SM CLR 27/M05 A2997 4340 11 6700 220/11G19 RMK AO2 T02721050
94299KAAT AAT20160807134513208/07/16 13:45:31  5-MIN KAAT 072145Z AUTO 25010G22KT 210V300 10SM CLR 28/M05 A2997 4340 11 6800 230/10G22 200V290 RMK AO2 T02781050
94299KAAT AAT20160807135012308/07/16 13:50:31  5-MIN KAAT 072150Z AUTO 27011G22KT 10SM CLR 28/M03 A2997 4340 12 6900 250/11G22 RMK AO2 SLP097 T02831033
94299KAAT AAT20160807135512308/07/16 13:55:31  5-MIN KAAT 072155Z AUTO 29014G20KT 10SM CLR 28/M03 A2997 4340 12 6800 280/14G20 RMK AO2 SLP098 T02781033
94299KAAT AAT20160807140011608/07/16 14:00:31  5-MIN KAAT 072200Z AUTO 24014G19KT 10SM CLR 29/M04 A2997 4340 11 6900 220/14G19 RMK AO2 T02891039
94299KAAT AAT20160807140511608/07/16 14:05:31  5-MIN KAAT 072205Z AUTO 27012G19KT 10SM CLR 28/M04 A2996 4340 11 6800 260/12G19 RMK AO2 T02781044
94299KAAT AAT20160807141011608/07/16 14:10:31  5-MIN KAAT 072210Z AUTO 26017G23KT 10SM CLR 28/M04 A2996 4340 11 6800 250/17G23 RMK AO2 T02781044
94299KAAT AAT20160807141511608/07/16 14:15:31  5-MIN KAAT 072215Z AUTO 29007G23KT 10SM CLR 27/M04 A2996 4350 12 6700 270/07G23 RMK AO2 T02721039
94299KAAT AAT20160807142011608/07/16 14:20:31  5-MIN KAAT 072220Z AUTO 28011G18KT 10SM CLR 28/M02 A2996 4350 13 6800 260/11G18 RMK AO2 T02781022
94299KAAT AAT20160807142511608/07/16 14:25:31  5-MIN KAAT 072225Z AUTO 23009G19KT 10SM CLR 28/M02 A2996 4350 14 6800 220/09G19 RMK AO2 T02781017
94299KAAT AAT20160807143011608/07/16 14:30:31  5-MIN KAAT 072230Z AUTO 25009G19KT 10SM CLR 27/M02 A2996 4350 15 6700 240/09G19 RMK AO2 T02721017
94299KAAT AAT20160807143511608/07/16 14:35:31  5-MIN KAAT 072235Z AUTO 24012G19KT 10SM CLR 28/M02 A2995 4350 14 6800 220/12G19 RMK AO2 T02781017
94299KAAT AAT20160807144013208/07/16 14:40:31  5-MIN KAAT 072240Z AUTO 27014G23KT 230V290 10SM CLR 28/M01 A2995 4350 15 6800 260/14G23 220V280 RMK AO2 T02781011
94299KAAT AAT20160807144511608/07/16 14:45:31  5-MIN KAAT 072245Z AUTO 26008G23KT 10SM CLR 28/M01 A2995 4350 15 6800 240/08G23 RMK AO2 T02781011
94299KAAT AAT20160807145012308/07/16 14:50:31  5-MIN KAAT 072250Z AUTO 28017G21KT 10SM CLR 28/M02 A2995 4350 14 6900 260/17G21 RMK AO2 SLP094 T02831017
94299KAAT AAT20160807145512308/07/16 14:55:31  5-MIN KAAT 072255Z AUTO 27012G22KT 10SM CLR 28/M02 A2995 4350 13 6800 250/12G22 RMK AO2 SLP094 T02781022
94299KAAT AAT20160807150011608/07/16 15:00:31  5-MIN KAAT 072300Z AUTO 25011G22KT 10SM CLR 28/M03 A2995 4350 13 6800 230/11G22 RMK AO2 T02781028
94299KAAT AAT20160807150511608/07/16 15:05:31  5-MIN KAAT 072305Z AUTO 24014G21KT 10SM CLR 28/M03 A2995 4350 13 6900 230/14G21 RMK AO2 T02831028
94299KAAT AAT20160807151011608/07/16 15:10:31  5-MIN KAAT 072310Z AUTO 25016G21KT 10SM CLR 28/M04 A2995 4350 12 6900 240/16G21 RMK AO2 T02831039
94299KAAT AAT20160807151511608/07/16 15:15:31  5-MIN KAAT 072315Z AUTO 24013G20KT 10SM CLR 28/M04 A2995 4350 11 6800 230/13G20 RMK AO2 T02781044
94299KAAT AAT20160807152011608/07/16 15:20:31  5-MIN KAAT 072320Z AUTO 25017G20KT 10SM CLR 28/M04 A2995 4350 11 6800 240/17G20 RMK AO2 T02781044
94299KAAT AAT20160807152511608/07/16 15:25:31  5-MIN KAAT 072325Z AUTO 28016G21KT 10SM CLR 28/M05 A2995 4350 11 6800 260/16G21 RMK AO2 T02781050
94299KAAT AAT20160807153011608/07/16 15:30:31  5-MIN KAAT 072330Z AUTO 26013G21KT 10SM CLR 28/M05 A2995 4360 11 6800 250/13G21 RMK AO2 T02781050
94299KAAT AAT20160807153511608/07/16 15:35:31  5-MIN KAAT 072335Z AUTO 28014G20KT 10SM CLR 28/M05 A2995 4350 11 6800 260/14G20 RMK AO2 T02781050
94299KAAT AAT20160807154011608/07/16 15:40:31  5-MIN KAAT 072340Z AUTO 27014G20KT 10SM CLR 28/M07 A2995 4350 09 6800 260/14G20 RMK AO2 T02781072
94299KAAT AAT20160807154511608/07/16 15:45:31  5-MIN KAAT 072345Z AUTO 26014G20KT 10SM CLR 28/M06 A2995 4350 11 6800 250/14G20 RMK AO2 T02781056
94299KAAT AAT20160807155014108/07/16 15:50:31  5-MIN KAAT 072350Z AUTO 27014G20KT 10SM CLR 28/M04 A2995 4360 11 6800 250/14G20 RMK AO2 SLP099 T02781044 10289 20228 56008
94299KAAT AAT20160807155514108/07/16 15:55:31  5-MIN KAAT 072355Z AUTO 26015G21KT 10SM CLR 28/M04 A2995 4360 12 6800 240/15G21 RMK AO2 SLP099 T02781039 10289 20228 56009
94299KAAT AAT20160807160011608/07/16 16:00:31  5-MIN KAAT 080000Z AUTO 26014G21KT 10SM CLR 27/M04 A2995 4360 12 6800 250/14G21 RMK AO2 T02721044
94299KAAT AAT20160807160511608/07/16 16:05:31  5-MIN KAAT 080005Z AUTO 26010G20KT 10SM CLR 28/M04 A2995 4360 11 6800 240/10G20 RMK AO2 T02781044
94299KAAT AAT20160807161011608/07/16 16:10:31  5-MIN KAAT 080010Z AUTO 29009G18KT 10SM CLR 27/M04 A2994 4360 12 6800 280/09G18 RMK AO2 T02721039
94299KAAT AAT20160807161511608/07/16 16:15:31  5-MIN KAAT 080015Z AUTO 26019G24KT 10SM CLR 28/M04 A2995 4360 11 6800 240/19G24 RMK AO2 T02781044
94299KAAT AAT20160807162011608/07/16 16:20:31  5-MIN KAAT 080020Z AUTO 25012G24KT 10SM CLR 27/M06 A2995 4360 11 6800 240/12G24 RMK AO2 T02721056
94299KAAT AAT20160807162511608/07/16 16:25:31  5-MIN KAAT 080025Z AUTO 24011G18KT 10SM CLR 27/M06 A2994 4360 11 6800 230/11G18 RMK AO2 T02721056
94299KAAT AAT20160807163011608/07/16 16:30:31  5-MIN KAAT 080030Z AUTO 25018G23KT 10SM CLR 27/M06 A2994 4360 11 6800 240/18G23 RMK AO2 T02721056
94299KAAT AAT20160807163511608/07/16 16:35:31  5-MIN KAAT 080035Z AUTO 24009G23KT 10SM CLR 27/M05 A2994 4360 12 6700 220/09G23 RMK AO2 T02671050
94299KAAT AAT20160807164011608/07/16 16:40:31  5-MIN KAAT 080040Z AUTO 25014G21KT 10SM CLR 27/M06 A2995 4360 11 6800 240/14G21 RMK AO2 T02721056
94299KAAT AAT20160807164511608/07/16 16:45:31  5-MIN KAAT 080045Z AUTO 26012G21KT 10SM CLR 27/M07 A2994 4360 10 6800 250/12G21 RMK AO2 T02721067
94299KAAT AAT20160807165011708/07/16 16:50:31  5-MIN KAAT 080050Z AUTO 26014KT 10SM CLR 27/M06 A2994 4360 11 6700 240/14 RMK AO2 SLP098 T02671061
94299KAAT AAT20160807165511708/07/16 16:55:31  5-MIN KAAT 080055Z AUTO 26013KT 10SM CLR 27/M06 A2994 4360 11 6700 240/13 RMK AO2 SLP097 T02671061
94299KAAT AAT20160807170011008/07/16 17:00:31  5-MIN KAAT 080100Z AUTO 24012KT 10SM CLR 27/M06 A2994 4360 10 6800 230/12 RMK AO2 T02721061
94299KAAT AAT20160807170511608/07/16 17:05:31  5-MIN KAAT 080105Z AUTO 25015G20KT 10SM CLR 27/M06 A2994 4360 11 6700 230/15G20 RMK AO2 T02671061
94299KAAT AAT20160807171011608/07/16 17:10:31  5-MIN KAAT 080110Z AUTO 27013G20KT 10SM CLR 27/M06 A2994 4360 11 6700 250/13G20 RMK AO2 T02671061
94299KAAT AAT20160807171511008/07/16 17:15:31  5-MIN KAAT 080115Z AUTO 24012KT 10SM CLR 27/M06 A2994 4360 11 6700 230/12 RMK AO2 T02671061
94299KAAT AAT20160807172011608/07/16 17:20:31  5-MIN KAAT 080120Z AUTO 27012G16KT 10SM CLR 27/M06 A2994 4360 11 6700 250/12G16 RMK AO2 T02671056
94299KAAT AAT20160807172511608/07/16 17:25:31  5-MIN KAAT 080125Z AUTO 25008G16KT 10SM CLR 27/M05 A2994 4360 12 6700 230/08G16 RMK AO2 T02671050
94299KAAT AAT20160807173011008/07/16 17:30:31  5-MIN KAAT 080130Z AUTO 26011KT 10SM CLR 26/M05 A2994 4360 12 6600 250/11 RMK AO2 T02611050
94299KAAT AAT20160807173511608/07/16 17:35:31  5-MIN KAAT 080135Z AUTO 25010G17KT 10SM CLR 27/M05 A2994 4360 12 6700 240/10G17 RMK AO2 T02671050
94299KAAT AAT20160807174011608/07/16 17:40:31  5-MIN KAAT 080140Z AUTO 25010G17KT 10SM CLR 26/M06 A2994 4360 12 6600 240/10G17 RMK AO2 T02611056
94299KAAT AAT20160807174511608/07/16 17:45:31  5-MIN KAAT 080145Z AUTO 26011G17KT 10SM CLR 26/M06 A2994 4360 12 6600 250/11G17 RMK AO2 T02611056
94299KAAT AAT20160807175012308/07/16 17:50:31  5-MIN KAAT 080150Z AUTO 24010G17KT 10SM CLR 26/M05 A2994 4360 12 6600 230/10G17 RMK AO2 SLP100 T02611050
94299KAAT AAT20160807175511708/07/16 17:55:31  5-MIN KAAT 080155Z AUTO 24009KT 10SM CLR 26/M04 A2994 4360 13 6600 220/09 RMK AO2 SLP099 T02611044
94299KAAT AAT20160807180011008/07/16 18:00:31  5-MIN KAAT 080200Z AUTO 24010KT 10SM CLR 26/M05 A2994 4360 13 6600 220/10 RMK AO2 T02561050
94299KAAT AAT20160807180511008/07/16 18:05:31  5-MIN KAAT 080205Z AUTO 26013KT 10SM CLR 26/M04 A2994 4360 13 6600 240/13 RMK AO2 T02561044
94299KAAT AAT20160807181011008/07/16 18:10:31  5-MIN KAAT 080210Z AUTO 26012KT 10SM CLR 26/M04 A2994 4360 13 6600 240/12 RMK AO2 T02561044
94299KAAT AAT20160807181511008/07/16 18:15:31  5-MIN KAAT 080215Z AUTO 25013KT 10SM CLR 25/M04 A2994 4360 14 6500 240/13 RMK AO2 T02501044
94299KAAT AAT20160807182011008/07/16 18:20:31  5-MIN KAAT 080220Z AUTO 28014KT 10SM CLR 25/M03 A2995 4360 15 6500 260/14 RMK AO2 T02501033
94299KAAT AAT20160807182511008/07/16 18:25:31  5-MIN KAAT 080225Z AUTO 31011KT 10SM CLR 24/M01 A2995 4360 19 6500 290/11 RMK AO2 T02441006
94299KAAT AAT20160807183010908/07/16 18:30:31  5-MIN KAAT 080230Z AUTO 30010KT 10SM CLR 24/00 A2995 4350 20 6400 290/10 RMK AO2 T02390000
94299KAAT AAT20160807183510908/07/16 18:35:31  5-MIN KAAT 080235Z AUTO 29009KT 10SM CLR 24/00 A2995 4350 20 6400 280/09 RMK AO2 T02390000
94299KAAT AAT20160807184010908/07/16 18:40:31  5-MIN KAAT 080240Z AUTO 30010KT 10SM CLR 24/00 A2995 4350 20 6400 290/10 RMK AO2 T02390000
94299KAAT AAT20160807184510908/07/16 18:45:31  5-MIN KAAT 080245Z AUTO 30010KT 10SM CLR 23/00 A2996 4350 21 6300 290/10 RMK AO2 T02330000
94299KAAT AAT20160807185012208/07/16 18:50:31  5-MIN KAAT 080250Z AUTO 31010KT 10SM CLR 23/00 A2996 4350 22 6300 300/10 RMK AO2 SLP104 T02280000 56009
94299KAAT AAT20160807185512208/07/16 18:55:31  5-MIN KAAT 080255Z AUTO 30009KT 10SM CLR 22/01 A2996 4350 23 6200 290/09 RMK AO2 SLP106 T02220006 53003
94299KAAT AAT20160807190010908/07/16 19:00:31  5-MIN KAAT 080300Z AUTO 31010KT 10SM CLR 22/01 A2996 4350 23 6200 290/10 RMK AO2 T02220006
94299KAAT AAT20160807190510908/07/16 19:05:31  5-MIN KAAT 080305Z AUTO 31011KT 10SM CLR 22/01 A2996 4350 23 6200 290/11 RMK AO2 T02220006
94299KAAT AAT20160807191010908/07/16 19:10:31  5-MIN KAAT 080310Z AUTO 30011KT 10SM CLR 22/00 A2996 4340 22 6200 290/11 RMK AO2 T02220000
94299KAAT AAT20160807191510908/07/16 19:15:31  5-MIN KAAT 080315Z AUTO 31010KT 10SM CLR 22/01 A2996 4340 24 6100 290/10 RMK AO2 T02170006
94299KAAT AAT20160807192011508/07/16 19:20:31  5-MIN KAAT 080320Z AUTO 31012G17KT 10SM CLR 22/01 A2996 4340 24 6100 300/12G17 RMK AO2 T02170006
94299KAAT AAT20160807192510908/07/16 19:25:31  5-MIN KAAT 080325Z AUTO 31012KT 10SM CLR 22/00 A2996 4340 23 6100 290/12 RMK AO2 T02170000
94299KAAT AAT20160807193010908/07/16 19:30:31  5-MIN KAAT 080330Z AUTO 31012KT 10SM CLR 22/01 A2996 4340 24 6100 290/12 RMK AO2 T02170006
94299KAAT AAT20160807193510908/07/16 19:35:31  5-MIN KAAT 080335Z AUTO 31012KT 10SM CLR 22/01 A2997 4340 24 6100 300/12 RMK AO2 T02170006
94299KAAT AAT20160807194010908/07/16 19:40:31  5-MIN KAAT 080340Z AUTO 31013KT 10SM CLR 22/01 A2997 4340 24 6100 300/13 RMK AO2 T02170006
94299KAAT AAT20160807194510908/07/16 19:45:31  5-MIN KAAT 080345Z AUTO 31011KT 10SM CLR 22/01 A2997 4340 24 6100 300/11 RMK AO2 T02170006
94299KAAT AAT20160807195011608/07/16 19:50:31  5-MIN KAAT 080350Z AUTO 32011KT 10SM CLR 22/01 A2997 4330 24 6100 300/11 RMK AO2 SLP107 T02170006
94299KAAT AAT20160807195511608/07/16 19:55:31  5-MIN KAAT 080355Z AUTO 32008KT 10SM CLR 21/01 A2997 4330 25 6100 300/08 RMK AO2 SLP108 T02110006
94299KAAT AAT20160807200010908/07/16 20:00:31  5-MIN KAAT 080400Z AUTO 32007KT 10SM CLR 21/01 A2998 4330 26 6000 310/07 RMK AO2 T02060006
94299KAAT AAT20160807200510908/07/16 20:05:31  5-MIN KAAT 080405Z AUTO 32009KT 10SM CLR 21/01 A2998 4330 26 6000 310/09 RMK AO2 T02060006
94299KAAT AAT20160807201010908/07/16 20:10:31  5-MIN KAAT 080410Z AUTO 32009KT 10SM CLR 21/01 A2998 4320 26 6000 310/09 RMK AO2 T02060006
94299KAAT AAT20160807201510908/07/16 20:15:31  5-MIN KAAT 080415Z AUTO 32009KT 10SM CLR 21/01 A2998 4320 26 6000 310/09 RMK AO2 T02060006
94299KAAT AAT20160807202010908/07/16 20:20:31  5-MIN KAAT 080420Z AUTO 34009KT 10SM CLR 21/01 A2999 4320 26 6000 320/09 RMK AO2 T02060006
94299KAAT AAT20160807202510908/07/16 20:25:31  5-MIN KAAT 080425Z AUTO 34007KT 10SM CLR 21/01 A2999 4320 26 6000 320/07 RMK AO2 T02060006
94299KAAT AAT20160807203010908/07/16 20:30:31  5-MIN KAAT 080430Z AUTO 34006KT 10SM CLR 20/01 A2999 4320 27 5900 330/06 RMK AO2 T02000006
94299KAAT AAT20160807203510908/07/16 20:35:31  5-MIN KAAT 080435Z AUTO 35005KT 10SM CLR 19/01 A2999 4310 29 5800 330/05 RMK AO2 T01940011
94299KAAT AAT20160807204010908/07/16 20:40:31  5-MIN KAAT 080440Z AUTO 36003KT 10SM CLR 19/01 A3000 4310 29 5800 340/03 RMK AO2 T01940011
94299KAAT AAT20160807204510908/07/16 20:45:31  5-MIN KAAT 080445Z AUTO 33004KT 10SM CLR 19/01 A3000 4310 29 5800 320/04 RMK AO2 T01940011
94299KAAT AAT20160807205011608/07/16 20:50:31  5-MIN KAAT 080450Z AUTO 00000KT 10SM CLR 19/01 A3000 4300 30 5800 000/00 RMK AO2 SLP116 T01890011
94299KAAT AAT20160807205511608/07/16 20:55:31  5-MIN KAAT 080455Z AUTO 21004KT 10SM CLR 18/01 A3001 4300 30 5700 200/04 RMK AO2 SLP119 T01830006
94299KAAT AAT20160807210010908/07/16 21:00:31  5-MIN KAAT 080500Z AUTO 22005KT 10SM CLR 18/01 A3001 4300 31 5600 200/05 RMK AO2 T01780006
94299KAAT AAT20160807210510908/07/16 21:05:31  5-MIN KAAT 080505Z AUTO 22005KT 10SM CLR 17/01 A3001 4300 32 5600 210/05 RMK AO2 T01720006
94299KAAT AAT20160807211010908/07/16 21:10:31  5-MIN KAAT 080510Z AUTO 23004KT 10SM CLR 17/01 A3001 4300 32 5600 220/04 RMK AO2 T01720006
94299KAAT AAT20160807211510908/07/16 21:15:31  5-MIN KAAT 080515Z AUTO 23005KT 10SM CLR 18/01 A3001 4300 30 5700 220/05 RMK AO2 T01830006
94299KAAT AAT20160807212010908/07/16 21:20:31  5-MIN KAAT 080520Z AUTO 23006KT 10SM CLR 19/01 A3001 4300 29 5800 220/06 RMK AO2 T01890006
94299KAAT AAT20160807212510908/07/16 21:25:31  5-MIN KAAT 080525Z AUTO 26007KT 10SM CLR 19/01 A3001 4300 29 5800 240/07 RMK AO2 T01890006
94299KAAT AAT20160807213010908/07/16 21:30:31  5-MIN KAAT 080530Z AUTO VRB04KT 10SM CLR 19/01 A3001 4300 29 5800 VRB/04 RMK AO2 T01890006
94299KAAT AAT20160807213510908/07/16 21:35:31  5-MIN KAAT 080535Z AUTO 28005KT 10SM CLR 18/01 A3001 4290 31 5600 270/05 RMK AO2 T01780006
94299KAAT AAT20160807214010908/07/16 21:40:31  5-MIN KAAT 080540Z AUTO 24007KT 10SM CLR 18/01 A3001 4290 31 5600 230/07 RMK AO2 T01780006
94299KAAT AAT20160807214510908/07/16 21:45:31  5-MIN KAAT 080545Z AUTO VRB04KT 10SM CLR 18/01 A3001 4290 31 5600 VRB/04 RMK AO2 T01780006
94299KAAT AAT20160807215013408/07/16 21:50:31  5-MIN KAAT 080550Z AUTO VRB03KT 10SM CLR 18/01 A3001 4290 31 5600 VRB/03 RMK AO2 SLP122 T01780006 10278 20172 53003
94299KAAT AAT20160807215513408/07/16 21:55:31  5-MIN KAAT 080555Z AUTO 30003KT 10SM CLR 18/01 A3002 4290 31 5600 290/03 RMK AO2 SLP121 T01780006 10278 20172 51018
94299KAAT AAT20160807220010908/07/16 22:00:31  5-MIN KAAT 080600Z AUTO 33003KT 10SM CLR 18/01 A3002 4290 31 5600 310/03 RMK AO2 T01780006
94299KAAT AAT20160807220510908/07/16 22:05:31  5-MIN KAAT 080605Z AUTO 00000KT 10SM CLR 17/01 A3002 4290 33 5500 000/00 RMK AO2 T01670006
94299KAAT AAT20160807221010908/07/16 22:10:31  5-MIN KAAT 080610Z AUTO 00000KT 10SM CLR 17/01 A3001 4290 32 5600 000/00 RMK AO2 T01720006
94299KAAT AAT20160807221510908/07/16 22:15:31  5-MIN KAAT 080615Z AUTO 30004KT 10SM CLR 17/01 A3002 4290 33 5500 290/04 RMK AO2 T01670006
94299KAAT AAT20160807222010908/07/16 22:20:31  5-MIN KAAT 080620Z AUTO 26004KT 10SM CLR 16/01 A3002 4290 34 5400 240/04 RMK AO2 T01610006
94299KAAT AAT20160807222510908/07/16 22:25:31  5-MIN KAAT 080625Z AUTO 27003KT 10SM CLR 16/00 A3002 4290 34 5400 260/03 RMK AO2 T01560000
94299KAAT AAT20160807223010908/07/16 22:30:31  5-MIN KAAT 080630Z AUTO 27003KT 10SM CLR 15/01 A3002 4290 37 5300 260/03 RMK AO2 T01500006
94299KAAT AAT20160807223510908/07/16 22:35:31  5-MIN KAAT 080635Z AUTO 26004KT 10SM CLR 16/01 A3002 4290 36 5400 250/04 RMK AO2 T01560006
94299KAAT AAT20160807224010908/07/16 22:40:31  5-MIN KAAT 080640Z AUTO 26005KT 10SM CLR 14/01 A3002 4290 38 5300 250/05 RMK AO2 T01440006
94299KAAT AAT20160807224510908/07/16 22:45:31  5-MIN KAAT 080645Z AUTO 27005KT 10SM CLR 14/00 A3002 4290 37 5300 250/05 RMK AO2 T01440000
94299KAAT AAT20160807225011608/07/16 22:50:31  5-MIN KAAT 080650Z AUTO 25006KT 10SM CLR 14/01 A3002 4290 40 5200 230/06 RMK AO2 SLP125 T01390006
94299KAAT AAT20160807225511608/07/16 22:55:31  5-MIN KAAT 080655Z AUTO 26004KT 10SM CLR 14/01 A3002 4290 40 5200 240/04 RMK AO2 SLP125 T01390006
94299KAAT AAT20160807230010908/07/16 23:00:31  5-MIN KAAT 080700Z AUTO 00000KT 10SM CLR 14/01 A3002 4290 40 5200 000/00 RMK AO2 T01440011
94299KAAT AAT20160807230510908/07/16 23:05:31  5-MIN KAAT 080705Z AUTO VRB03KT 10SM CLR 14/02 A3002 4290 41 5200 VRB/03 RMK AO2 T01440017
94299KAAT AAT20160807231010908/07/16 23:10:31  5-MIN KAAT 080710Z AUTO 00000KT 10SM CLR 16/02 A3002 4290 39 5400 000/00 RMK AO2 T01560017
94299KAAT AAT20160807231510908/07/16 23:15:31  5-MIN KAAT 080715Z AUTO 00000KT 10SM CLR 15/02 A3002 4290 40 5300 000/00 RMK AO2 T01500017
94299KAAT AAT20160807232010908/07/16 23:20:31  5-MIN KAAT 080720Z AUTO 00000KT 10SM CLR 14/02 A3002 4290 45 5200 000/00 RMK AO2 T01390022
94299KAAT AAT20160807232510908/07/16 23:25:31  5-MIN KAAT 080725Z AUTO 31003KT 10SM CLR 14/02 A3002 4290 43 5200 290/03 RMK AO2 T01390017
94299KAAT AAT20160807233010908/07/16 23:30:31  5-MIN KAAT 080730Z AUTO 32003KT 10SM CLR 13/02 A3002 4290 48 5100 300/03 RMK AO2 T01280022
94299KAAT AAT20160807233510908/07/16 23:35:31  5-MIN KAAT 080735Z AUTO 31003KT 10SM CLR 13/02 A3002 4290 46 5100 290/03 RMK AO2 T01330022
94299KAAT AAT20160807234010908/07/16 23:40:31  5-MIN KAAT 080740Z AUTO 29003KT 10SM CLR 13/03 A3002 4290 50 5100 280/03 RMK AO2 T01280028
94299KAAT AAT20160807234510908/07/16 23:45:31  5-MIN KAAT 080745Z AUTO 30003KT 10SM CLR 12/03 A3002 4290 52 5000 280/03 RMK AO2 T01220028
94299KAAT AAT20160807235012608/07/16 23:50:31  5-MIN KAAT 080750Z AUTO 28003KT 10SM CLR 12/03 A3002 4290 52 5000 270/03 RMK AO2 SLP125 T01220028 402890083
94299KAAT AAT20160807235512608/07/16 23:55:31  5-MIN KAAT 080755Z AUTO 28005KT 10SM CLR 12/03 A3002 4290 52 5000 270/05 RMK AO2 SLP124 T01220028 402890083
94299KAAT AAT20160808000010908/08/16 00:00:31  5-MIN KAAT 080800Z AUTO 29004KT 10SM CLR 12/02 A3002 4290 50 5000 280/04 RMK AO2 T01220022
94299KAAT AAT20160808000510908/08/16 00:05:31  5-MIN KAAT 080805Z AUTO 00000KT 10SM CLR 12/02 A3002 4290 50 5000 000/00 RMK AO2 T01220022
94299KAAT AAT20160808001010908/08/16 00:10:31  5-MIN KAAT 080810Z AUTO 33003KT 10SM CLR 12/03 A3002 4290 54 4900 310/03 RMK AO2 T01170028
94299KAAT AAT20160808001510908/08/16 00:15:31  5-MIN KAAT 080815Z AUTO 29003KT 10SM CLR 12/03 A3002 4290 52 5000 270/03 RMK AO2 T01220028
94299KAAT AAT20160808002010908/08/16 00:20:31  5-MIN KAAT 080820Z AUTO 27004KT 10SM CLR 13/03 A3002 4290 50 5100 260/04 RMK AO2 T01280028
94299KAAT AAT20160808002510908/08/16 00:25:31  5-MIN KAAT 080825Z AUTO 28004KT 10SM CLR 13/03 A3002 4290 50 5100 260/04 RMK AO2 T01280028
94299KAAT AAT20160808003010908/08/16 00:30:31  5-MIN KAAT 080830Z AUTO 00000KT 10SM CLR 12/02 A3002 4290 50 5000 000/00 RMK AO2 T01220022
94299KAAT AAT20160808003510908/08/16 00:35:31  5-MIN KAAT 080835Z AUTO 00000KT 10SM CLR 12/02 A3002 4290 50 5000 000/00 RMK AO2 T01220022
94299KAAT AAT20160808004010908/08/16 00:40:31  5-MIN KAAT 080840Z AUTO 09004KT 10SM CLR 12/02 A3002 4290 52 4900 080/04 RMK AO2 T01170022
94299KAAT AAT20160808004510908/08/16 00:45:31  5-MIN KAAT 080845Z AUTO 09003KT 10SM CLR 12/03 A3002 4290 54 4900 080/03 RMK AO2 T01170028
94299KAAT AAT20160808005012208/08/16 00:50:31  5-MIN KAAT 080850Z AUTO 00000KT 10SM CLR 12/03 A3002 4290 54 4900 000/00 RMK AO2 SLP124 T01170028 51018
94299KAAT AAT20160808005512208/08/16 00:55:31  5-MIN KAAT 080855Z AUTO 06003KT 10SM CLR 11/03 A3002 4290 56 4900 040/03 RMK AO2 SLP124 T01110028 51001
94299KAAT AAT20160808010010908/08/16 01:00:31  5-MIN KAAT 080900Z AUTO 06003KT 10SM CLR 11/02 A3002 4290 54 4800 050/03 RMK AO2 T01060017
94299KAAT AAT20160808010510908/08/16 01:05:31  5-MIN KAAT 080905Z AUTO 07003KT 10SM CLR 12/01 A3001 4290 48 4900 060/03 RMK AO2 T01170011
94299KAAT AAT20160808011010908/08/16 01:10:31  5-MIN KAAT 080910Z AUTO 06003KT 10SM CLR 11/01 A3001 4300 50 4900 040/03 RMK AO2 T01110011
94299KAAT AAT20160808011510908/08/16 01:15:31  5-MIN KAAT 080915Z AUTO 05003KT 10SM CLR 12/01 A3001 4300 48 4900 030/03 RMK AO2 T01170011
94299KAAT AAT20160808012010908/08/16 01:20:31  5-MIN KAAT 080920Z AUTO 00000KT 10SM CLR 10/01 A3001 4300 54 4700 000/00 RMK AO2 T01000011
94299KAAT AAT20160808012510908/08/16 01:25:31  5-MIN KAAT 080925Z AUTO 00000KT 10SM CLR 10/01 A3001 4300 54 4700 000/00 RMK AO2 T01000011
94299KAAT AAT20160808013010908/08/16 01:30:31  5-MIN KAAT 080930Z AUTO 00000KT 10SM CLR 08/01 A3001 4300 58 4600 000/00 RMK AO2 T00830006
94299KAAT AAT20160808013510908/08/16 01:35:31  5-MIN KAAT 080935Z AUTO 00000KT 10SM CLR 08/01 A3001 4300 58 4600 000/00 RMK AO2 T00830006
94299KAAT AAT20160808014010908/08/16 01:40:31  5-MIN KAAT 080940Z AUTO 00000KT 10SM CLR 08/01 A3001 4300 60 4600 000/00 RMK AO2 T00830011
94299KAAT AAT20160808014510908/08/16 01:45:31  5-MIN KAAT 080945Z AUTO 00000KT 10SM CLR 08/01 A3001 4300 60 4600 000/00 RMK AO2 T00830011
94299KAAT AAT20160808015011608/08/16 01:50:31  5-MIN KAAT 080950Z AUTO 00000KT 10SM CLR 08/02 A3001 4300 63 4600 000/00 RMK AO2 SLP126 T00830017
94299KAAT AAT20160808015511608/08/16 01:55:31  5-MIN KAAT 080955Z AUTO 00000KT 10SM CLR 08/01 A3001 4300 60 4600 000/00 RMK AO2 SLP125 T00830011
94299KAAT AAT20160808020010908/08/16 02:00:31  5-MIN KAAT 081000Z AUTO 00000KT 10SM CLR 09/02 A3001 4300 60 4700 000/00 RMK AO2 T00940022
94299KAAT AAT20160808020510908/08/16 02:05:31  5-MIN KAAT 081005Z AUTO 00000KT 10SM CLR 10/03 A3001 4300 60 4700 000/00 RMK AO2 T01000028
94299KAAT AAT20160808021010908/08/16 02:10:31  5-MIN KAAT 081010Z AUTO 00000KT 10SM CLR 10/02 A3001 4300 58 4700 000/00 RMK AO2 T01000022
94299KAAT AAT20160808021510908/08/16 02:15:31  5-MIN KAAT 081015Z AUTO 00000KT 10SM CLR 09/02 A3001 4300 60 4700 000/00 RMK AO2 T00940022
94299KAAT AAT20160808022010908/08/16 02:20:31  5-MIN KAAT 081020Z AUTO 00000KT 10SM CLR 08/02 A3001 4300 65 4600 000/00 RMK AO2 T00830022
94299KAAT AAT20160808022510908/08/16 02:25:31  5-MIN KAAT 081025Z AUTO 00000KT 10SM CLR 09/03 A3001 4300 63 4700 000/00 RMK AO2 T00940028
94299KAAT AAT20160808023010908/08/16 02:30:31  5-MIN KAAT 081030Z AUTO 00000KT 10SM CLR 09/02 A3001 4300 60 4700 000/00 RMK AO2 T00940022
94299KAAT AAT20160808023510908/08/16 02:35:31  5-MIN KAAT 081035Z AUTO 00000KT 10SM CLR 09/02 A3001 4300 60 4700 000/00 RMK AO2 T00940022
94299KAAT AAT20160808024010908/08/16 02:40:31  5-MIN KAAT 081040Z AUTO 00000KT 10SM CLR 09/02 A3001 4290 58 4700 000/00 RMK AO2 T00940017
94299KAAT AAT20160808024510908/08/16 02:45:31  5-MIN KAAT 081045Z AUTO 00000KT 10SM CLR 09/01 A3002 4290 58 4600 000/00 RMK AO2 T00890011
94299KAAT AAT20160808025011608/08/16 02:50:31  5-MIN KAAT 081050Z AUTO 00000KT 10SM CLR 09/02 A3001 4290 60 4600 000/00 RMK AO2 SLP125 T00890017
94299KAAT AAT20160808025511608/08/16 02:55:31  5-MIN KAAT 081055Z AUTO 00000KT 10SM CLR 08/01 A3001 4290 60 4500 000/00 RMK AO2 SLP127 T00830011
94299KAAT AAT20160808030010908/08/16 03:00:31  5-MIN KAAT 081100Z AUTO 00000KT 10SM CLR 09/02 A3002 4290 60 4600 000/00 RMK AO2 T00890017
94299KAAT AAT20160808030510908/08/16 03:05:31  5-MIN KAAT 081105Z AUTO 00000KT 10SM CLR 09/02 A3002 4290 58 4700 000/00 RMK AO2 T00940017
94299KAAT AAT20160808031010908/08/16 03:10:31  5-MIN KAAT 081110Z AUTO 00000KT 10SM CLR 09/02 A3001 4290 60 4600 000/00 RMK AO2 T00890017
94299KAAT AAT20160808031510908/08/16 03:15:31  5-MIN KAAT 081115Z AUTO 36003KT 10SM CLR 08/01 A3001 4290 60 4500 350/03 RMK AO2 T00830011
94299KAAT AAT20160808032010908/08/16 03:20:31  5-MIN KAAT 081120Z AUTO 36003KT 10SM CLR 08/01 A3001 4300 60 4600 350/03 RMK AO2 T00830011
94299KAAT AAT20160808032510908/08/16 03:25:31  5-MIN KAAT 081125Z AUTO 02003KT 10SM CLR 08/01 A3001 4300 60 4600 360/03 RMK AO2 T00830011
94299KAAT AAT20160808033010908/08/16 03:30:31  5-MIN KAAT 081130Z AUTO 00000KT 10SM CLR 08/02 A3001 4300 63 4600 000/00 RMK AO2 T00830017
94299KAAT AAT20160808033510908/08/16 03:35:31  5-MIN KAAT 081135Z AUTO 00000KT 10SM CLR 08/01 A3001 4300 62 4500 000/00 RMK AO2 T00780011
94299KAAT AAT20160808034010908/08/16 03:40:31  5-MIN KAAT 081140Z AUTO 00000KT 10SM CLR 08/02 A3001 4300 65 4500 000/00 RMK AO2 T00780017
94299KAAT AAT20160808034510908/08/16 03:45:31  5-MIN KAAT 081145Z AUTO 00000KT 10SM CLR 08/02 A3001 4300 63 4600 000/00 RMK AO2 T00830017
94299KAAT AAT20160808035013408/08/16 03:50:31  5-MIN KAAT 081150Z AUTO 00000KT 10SM CLR 08/02 A3001 4300 63 4600 000/00 RMK AO2 SLP125 T00830017 10178 20072 51001
94299KAAT AAT20160808035513408/08/16 03:55:31  5-MIN KAAT 081155Z AUTO 00000KT 10SM CLR 07/01 A3001 4300 65 4400 000/00 RMK AO2 SLP127 T00720011 10178 20072 56002
94299KAAT AAT20160808040010908/08/16 04:00:31  5-MIN KAAT 081200Z AUTO 00000KT 10SM CLR 07/01 A3001 4300 65 4400 000/00 RMK AO2 T00720011
94299KAAT AAT20160808040510908/08/16 04:05:31  5-MIN KAAT 081205Z AUTO 00000KT 10SM CLR 08/01 A3001 4300 62 4500 000/00 RMK AO2 T00780011
94299KAAT AAT20160808041010908/08/16 04:10:31  5-MIN KAAT 081210Z AUTO 00000KT 10SM CLR 07/02 A3001 4290 68 4400 000/00 RMK AO2 T00720017
94299KAAT AAT20160808041510908/08/16 04:15:31  5-MIN KAAT 081215Z AUTO 00000KT 10SM CLR 07/02 A3002 4290 68 4400 000/00 RMK AO2 T00720017
94299KAAT AAT20160808042010908/08/16 04:20:31  5-MIN KAAT 081220Z AUTO 00000KT 10SM CLR 06/00 A3002 4290 65 4300 000/00 RMK AO2 T00610000
94299KAAT AAT20160808042510908/08/16 04:25:31  5-MIN KAAT 081225Z AUTO 00000KT 10SM CLR 06/01 A3002 4290 67 4300 000/00 RMK AO2 T00610006
94299KAAT AAT20160808043010908/08/16 04:30:31  5-MIN KAAT 081230Z AUTO 00000KT 10SM CLR 06/02 A3002 4290 73 4300 000/00 RMK AO2 T00610017
94299KAAT AAT20160808043510908/08/16 04:35:31  5-MIN KAAT 081235Z AUTO 00000KT 10SM CLR 06/01 A3002 4290 73 4200 000/00 RMK AO2 T00560011
94299KAAT AAT20160808044010908/08/16 04:40:31  5-MIN KAAT 081240Z AUTO 00000KT 10SM CLR 06/01 A3002 4290 70 4300 000/00 RMK AO2 T00610011
94299KAAT AAT20160808044510908/08/16 04:45:31  5-MIN KAAT 081245Z AUTO 00000KT 10SM CLR 06/01 A3002 4290 73 4200 000/00 RMK AO2 T00560011
94299KAAT AAT20160808045011608/08/16 04:50:31  5-MIN KAAT 081250Z AUTO 00000KT 10SM CLR 06/01 A3002 4290 70 4200 000/00 RMK AO2 SLP133 T00560006
94299KAAT AAT20160808045511608/08/16 04:55:31  5-MIN KAAT 081255Z AUTO 00000KT 10SM CLR 06/01 A3002 4290 70 4200 000/00 RMK AO2 SLP132 T00560006
94299KAAT AAT20160808050010908/08/16 05:00:31  5-MIN KAAT 081300Z AUTO 00000KT 10SM CLR 06/00 A3002 4290 65 4300 000/00 RMK AO2 T00610000
94299KAAT AAT20160808050510908/08/16 05:05:31  5-MIN KAAT 081305Z AUTO 00000KT 10SM CLR 06/00 A3002 4290 67 4200 000/00 RMK AO2 T00560000
94299KAAT AAT20160808051010908/08/16 05:10:31  5-MIN KAAT 081310Z AUTO 00000KT 10SM CLR 06/00 A3002 4290 67 4200 000/00 RMK AO2 T00560000
94299KAAT AAT20160808051510908/08/16 05:15:31  5-MIN KAAT 081315Z AUTO 00000KT 10SM CLR 05/00 A3002 4290 70 4100 000/00 RMK AO2 T00500000
94299KAAT AAT20160808052010908/08/16 05:20:31  5-MIN KAAT 081320Z AUTO 00000KT 10SM CLR 05/00 A3002 4290 70 4100 000/00 RMK AO2 T00500000
94299KAAT AAT20160808052510908/08/16 05:25:31  5-MIN KAAT 081325Z AUTO 00000KT 10SM CLR 06/01 A3002 4290 70 4200 000/00 RMK AO2 T00560006
94299KAAT AAT20160808053011008/08/16 05:30:31  5-MIN KAAT 081330Z AUTO 00000KT 10SM CLR 05/M01 A3002 4290 67 4100 000/00 RMK AO2 T00501006
94299KAAT AAT20160808053510908/08/16 05:35:31  5-MIN KAAT 081335Z AUTO 00000KT 10SM CLR 07/01 A3002 4290 67 4300 000/00 RMK AO2 T00670011
94299KAAT AAT20160808054010908/08/16 05:40:31  5-MIN KAAT 081340Z AUTO 00000KT 10SM CLR 07/02 A3002 4290 68 4400 000/00 RMK AO2 T00720017
94299KAAT AAT20160808054510908/08/16 05:45:31  5-MIN KAAT 081345Z AUTO 00000KT 10SM CLR 07/01 A3002 4290 65 4400 000/00 RMK AO2 T00720011
94299KAAT AAT20160808055011608/08/16 05:50:31  5-MIN KAAT 081350Z AUTO 00000KT 10SM CLR 07/00 A3002 4290 62 4300 000/00 RMK AO2 SLP132 T00670000
94299KAAT AAT20160808055511708/08/16 05:55:31  5-MIN KAAT 081355Z AUTO 00000KT 10SM CLR 07/M01 A3002 4290 60 4300 000/00 RMK AO2 SLP132 T00671006
94299KAAT AAT20160808060011008/08/16 06:00:31  5-MIN KAAT 081400Z AUTO 00000KT 10SM CLR 07/M01 A3002 4290 57 4400 000/00 RMK AO2 T00721006
94299KAAT AAT20160808060511008/08/16 06:05:31  5-MIN KAAT 081405Z AUTO 00000KT 10SM CLR 08/M01 A3002 4290 55 4500 000/00 RMK AO2 T00781006
94299KAAT AAT20160808061010908/08/16 06:10:31  5-MIN KAAT 081410Z AUTO 00000KT 10SM CLR 08/00 A3002 4290 55 4500 000/00 RMK AO2 T00830000
94299KAAT AAT20160808061510908/08/16 06:15:31  5-MIN KAAT 081415Z AUTO 00000KT 10SM CLR 09/01 A3002 4290 56 4600 000/00 RMK AO2 T00890006
94299KAAT AAT20160808062010908/08/16 06:20:31  5-MIN KAAT 081420Z AUTO 00000KT 10SM CLR 09/01 A3002 4290 56 4600 000/00 RMK AO2 T00890006
94299KAAT AAT20160808062510908/08/16 06:25:31  5-MIN KAAT 081425Z AUTO 00000KT 10SM CLR 10/01 A3002 4290 54 4700 000/00 RMK AO2 T01000011
94299KAAT AAT20160808063010908/08/16 06:30:31  5-MIN KAAT 081430Z AUTO 00000KT 10SM CLR 10/02 A3002 4290 56 4700 000/00 RMK AO2 T01000017
94299KAAT AAT20160808063510908/08/16 06:35:31  5-MIN KAAT 081435Z AUTO 00000KT 10SM CLR 11/02 A3002 4290 54 4800 000/00 RMK AO2 T01060017
94299KAAT AAT20160808064010908/08/16 06:40:31  5-MIN KAAT 081440Z AUTO 00000KT 10SM CLR 11/02 A3002 4290 54 4800 000/00 RMK AO2 T01060017
94299KAAT AAT20160808064510908/08/16 06:45:31  5-MIN KAAT 081445Z AUTO 00000KT 10SM CLR 11/02 A3002 4290 52 4900 000/00 RMK AO2 T01110017
94299KAAT AAT20160808065012208/08/16 06:50:31  5-MIN KAAT 081450Z AUTO 00000KT 10SM CLR 11/02 A3002 4290 52 4900 000/00 RMK AO2 SLP131 T01110017 56002
94299KAAT AAT20160808065512208/08/16 06:55:31  5-MIN KAAT 081455Z AUTO 00000KT 10SM CLR 12/02 A3002 4290 50 4900 000/00 RMK AO2 SLP131 T01170017 51002
94299KAAT AAT20160808070010908/08/16 07:00:31  5-MIN KAAT 081500Z AUTO 00000KT 10SM CLR 12/02 A3002 4290 48 5000 000/00 RMK AO2 T01220017
94299KAAT AAT20160808070510908/08/16 07:05:31  5-MIN KAAT 081505Z AUTO 00000KT 10SM CLR 12/02 A3002 4290 50 5000 000/00 RMK AO2 T01220022
94299KAAT AAT20160808071010908/08/16 07:10:31  5-MIN KAAT 081510Z AUTO 00000KT 10SM CLR 14/02 A3002 4290 45 5200 000/00 RMK AO2 T01390022
94299KAAT AAT20160808071510908/08/16 07:15:31  5-MIN KAAT 081515Z AUTO 00000KT 10SM CLR 14/03 A3002 4290 45 5300 000/00 RMK AO2 T01440028
94299KAAT AAT20160808072010908/08/16 07:20:31  5-MIN KAAT 081520Z AUTO 00000KT 10SM CLR 14/03 A3002 4290 45 5300 000/00 RMK AO2 T01440028
94299KAAT AAT20160808072510908/08/16 07:25:31  5-MIN KAAT 081525Z AUTO 00000KT 10SM CLR 14/03 A3002 4290 45 5300 000/00 RMK AO2 T01440028
94299KAAT AAT20160808073010908/08/16 07:30:31  5-MIN KAAT 081530Z AUTO 00000KT 10SM CLR 14/03 A3002 4290 45 5300 000/00 RMK AO2 T01440028
94299KAAT AAT20160808073510908/08/16 07:35:31  5-MIN KAAT 081535Z AUTO 00000KT 10SM CLR 15/03 A3002 4290 43 5300 000/00 RMK AO2 T01500028
94299KAAT AAT20160808074010908/08/16 07:40:31  5-MIN KAAT 081540Z AUTO 00000KT 10SM CLR 15/03 A3002 4290 43 5300 000/00 RMK AO2 T01500028
94299KAAT AAT20160808074510908/08/16 07:45:31  5-MIN KAAT 081545Z AUTO 00000KT 10SM CLR 16/03 A3001 4290 42 5400 000/00 RMK AO2 T01560028
94299KAAT AAT20160808075011608/08/16 07:50:31  5-MIN KAAT 081550Z AUTO 19003KT 10SM CLR 15/03 A3001 4300 45 5300 180/03 RMK AO2 SLP126 T01500033
94299KAAT AAT20160808075511608/08/16 07:55:31  5-MIN KAAT 081555Z AUTO 00000KT 10SM CLR 16/03 A3001 4300 43 5400 000/00 RMK AO2 SLP126 T01560033
94299KAAT AAT20160808080010908/08/16 08:00:31  5-MIN KAAT 081600Z AUTO 00000KT 10SM CLR 16/03 A3001 4300 43 5400 000/00 RMK AO2 T01560033
94299KAAT AAT20160808080510908/08/16 08:05:31  5-MIN KAAT 081605Z AUTO 00000KT 10SM CLR 16/03 A3001 4300 42 5400 000/00 RMK AO2 T01610033
94299KAAT AAT20160808081010908/08/16 08:10:31  5-MIN KAAT 081610Z AUTO 00000KT 10SM CLR 16/03 A3001 4300 40 5500 000/00 RMK AO2 T01610028
94299KAAT AAT20160808081510908/08/16 08:15:31  5-MIN KAAT 081615Z AUTO 00000KT 10SM CLR 17/03 A3001 4300 37 5600 000/00 RMK AO2 T01720028
94299KAAT AAT20160808082010908/08/16 08:20:31  5-MIN KAAT 081620Z AUTO 12003KT 10SM CLR 18/03 A3001 4300 36 5600 100/03 RMK AO2 T01780028
94299KAAT AAT20160808082510908/08/16 08:25:31  5-MIN KAAT 081625Z AUTO 17003KT 10SM CLR 18/03 A3001 4300 36 5600 150/03 RMK AO2 T01780028
94299KAAT AAT20160808083010908/08/16 08:30:31  5-MIN KAAT 081630Z AUTO VRB03KT 10SM CLR 18/02 A3001 4300 35 5600 VRB/03 RMK AO2 T01780022
94299KAAT AAT20160808083510908/08/16 08:35:31  5-MIN KAAT 081635Z AUTO 12003KT 10SM CLR 18/03 A3000 4300 36 5600 100/03 RMK AO2 T01780028
94299KAAT AAT20160808084010908/08/16 08:40:31  5-MIN KAAT 081640Z AUTO 00000KT 10SM CLR 19/03 A3000 4310 34 5800 000/00 RMK AO2 T01890028
94299KAAT AAT20160808084510908/08/16 08:45:31  5-MIN KAAT 081645Z AUTO VRB03KT 10SM CLR 19/03 A3000 4310 34 5800 VRB/03 RMK AO2 T01890028
94299KAAT AAT20160808085011608/08/16 08:50:31  5-MIN KAAT 081650Z AUTO 00000KT 10SM CLR 19/03 A3000 4310 34 5800 000/00 RMK AO2 SLP119 T01890028
94299KAAT AAT20160808085511608/08/16 08:55:31  5-MIN KAAT 081655Z AUTO 08003KT 10SM CLR 19/02 A3000 4310 31 5800 060/03 RMK AO2 SLP119 T01940022
94299KAAT AAT20160808090010908/08/16 09:00:31  5-MIN KAAT 081700Z AUTO 00000KT 10SM CLR 19/02 A3000 4310 32 5800 000/00 RMK AO2 T01890022
94299KAAT AAT20160808090510908/08/16 09:05:31  5-MIN KAAT 081705Z AUTO 00000KT 10SM CLR 19/03 A3000 4310 33 5800 000/00 RMK AO2 T01940028
94299KAAT AAT20160808091010908/08/16 09:10:31  5-MIN KAAT 081710Z AUTO 00000KT 10SM CLR 20/03 A3000 4310 31 5900 000/00 RMK AO2 T02000028
94299KAAT AAT20160808091510908/08/16 09:15:31  5-MIN KAAT 081715Z AUTO 00000KT 10SM CLR 20/03 A2999 4310 31 5900 000/00 RMK AO2 T02000028
94299KAAT AAT20160808092010908/08/16 09:20:31  5-MIN KAAT 081720Z AUTO VRB03KT 10SM CLR 20/03 A2999 4310 31 5900 VRB/03 RMK AO2 T02000028
94299KAAT AAT20160808092510908/08/16 09:25:31  5-MIN KAAT 081725Z AUTO 00000KT 10SM CLR 20/02 A2999 4320 30 5900 000/00 RMK AO2 T02000022
94299KAAT AAT20160808093010908/08/16 09:30:31  5-MIN KAAT 081730Z AUTO 00000KT 10SM CLR 20/02 A2999 4320 30 5900 000/00 RMK AO2 T02000022
94299KAAT AAT20160808093510908/08/16 09:35:31  5-MIN KAAT 081735Z AUTO 00000KT 10SM CLR 20/02 A2999 4320 30 5900 000/00 RMK AO2 T02000022
94299KAAT AAT20160808094010908/08/16 09:40:31  5-MIN KAAT 081740Z AUTO VRB03KT 10SM CLR 21/03 A2999 4320 30 6000 VRB/03 RMK AO2 T02060028
94299KAAT AAT20160808094510908/08/16 09:45:31  5-MIN KAAT 081745Z AUTO 00000KT 10SM CLR 21/03 A2999 4320 29 6000 000/00 RMK AO2 T02110028
94299KAAT AAT20160808095013408/08/16 09:50:31  5-MIN KAAT 081750Z AUTO VRB03KT 10SM CLR 21/03 A2999 4320 29 6000 VRB/03 RMK AO2 SLP113 T02110028 10211 20050 51002
94299KAAT AAT20160808095513408/08/16 09:55:31  5-MIN KAAT 081755Z AUTO VRB04KT 10SM CLR 22/03 A2999 4320 28 6100 VRB/04 RMK AO2 SLP112 T02170028 10217 20050 58010
94299KAAT AAT20160808100010908/08/16 10:00:31  5-MIN KAAT 081800Z AUTO 24004KT 10SM CLR 22/02 A2998 4320 27 6100 220/04 RMK AO2 T02170022
94299KAAT AAT20160808100510908/08/16 10:05:31  5-MIN KAAT 081805Z AUTO 06005KT 10SM CLR 22/02 A2998 4320 26 6200 040/05 RMK AO2 T02220022
94299KAAT AAT20160808101010908/08/16 10:10:31  5-MIN KAAT 081810Z AUTO 00000KT 10SM CLR 23/02 A2998 4320 25 6200 000/00 RMK AO2 T02280022
94299KAAT AAT20160808101510908/08/16 10:15:31  5-MIN KAAT 081815Z AUTO VRB03KT 10SM CLR 22/02 A2998 4320 27 6100 VRB/03 RMK AO2 T02170022
94299KAAT AAT20160808102010908/08/16 10:20:31  5-MIN KAAT 081820Z AUTO 00000KT 10SM CLR 22/02 A2998 4320 26 6200 000/00 RMK AO2 T02220022
94299KAAT AAT20160808102510908/08/16 10:25:31  5-MIN KAAT 081825Z AUTO VRB05KT 10SM CLR 23/02 A2998 4320 25 6200 VRB/05 RMK AO2 T02280022
94299KAAT AAT20160808103010908/08/16 10:30:31  5-MIN KAAT 081830Z AUTO VRB04KT 10SM CLR 23/02 A2998 4330 25 6200 VRB/04 RMK AO2 T02280022
94299KAAT AAT20160808103509908/08/16 10:35:31  5-MIN KAAT 081835Z AUTO 10SM CLR 22/02 A2998 4330 26 6200 M /M RMK AO2 T02220022
94299KAAT AAT20160808104010908/08/16 10:40:31  5-MIN KAAT 081840Z AUTO 00000KT 10SM CLR 22/02 A2998 4330 26 6200 000/00 RMK AO2 T02220022
94299KAAT AAT20160808104510908/08/16 10:45:31  5-MIN KAAT 081845Z AUTO 33007KT 10SM CLR 23/02 A2998 4330 25 6200 320/07 RMK AO2 T02280022
94299KAAT AAT20160808105011608/08/16 10:50:31  5-MIN KAAT 081850Z AUTO 31006KT 10SM CLR 23/02 A2997 4330 24 6300 300/06 RMK AO2 SLP111 T02330022
94299KAAT AAT20160808105511608/08/16 10:55:31  5-MIN KAAT 081855Z AUTO VRB03KT 10SM CLR 23/02 A2997 4330 25 6200 VRB/03 RMK AO2 SLP111 T02280022
94299KAAT AAT20160808110010908/08/16 11:00:31  5-MIN KAAT 081900Z AUTO VRB05KT 10SM CLR 23/02 A2997 4340 25 6200 VRB/05 RMK AO2 T02280022
94299KAAT AAT20160808110510908/08/16 11:05:31  5-MIN KAAT 081905Z AUTO VRB05KT 10SM CLR 24/03 A2997 4340 24 6400 VRB/05 RMK AO2 T02440028
94299KAAT AAT20160808111010908/08/16 11:10:31  5-MIN KAAT 081910Z AUTO 00000KT 10SM CLR 23/02 A2996 4340 24 6300 000/00 RMK AO2 T02330022
94299KAAT AAT20160808111510908/08/16 11:15:31  5-MIN KAAT 081915Z AUTO VRB03KT 10SM CLR 24/02 A2996 4340 24 6400 VRB/03 RMK AO2 T02390022
94299KAAT AAT20160808112010908/08/16 11:20:31  5-MIN KAAT 081920Z AUTO VRB04KT 10SM CLR 24/03 A2996 4340 24 6400 VRB/04 RMK AO2 T02440028
94299KAAT AAT20160808112510908/08/16 11:25:31  5-MIN KAAT 081925Z AUTO 29008KT 10SM CLR 24/03 A2996 4350 24 6400 270/08 RMK AO2 T02440028
94299KAAT AAT20160808113011508/08/16 11:30:31  5-MIN KAAT 081930Z AUTO VRB05G15KT 10SM CLR 25/03 A2996 4340 23 6500 VRB/05G15 RMK AO2 T02500028
94299KAAT AAT20160808113511508/08/16 11:35:31  5-MIN KAAT 081935Z AUTO VRB06G15KT 10SM CLR 25/02 A2996 4350 22 6500 VRB/06G15 RMK AO2 T02500022
94299KAAT AAT20160808114010908/08/16 11:40:31  5-MIN KAAT 081940Z AUTO VRB03KT 10SM CLR 25/02 A2996 4350 22 6500 VRB/03 RMK AO2 T02500022
94299KAAT AAT20160808114510908/08/16 11:45:31  5-MIN KAAT 081945Z AUTO 31008KT 10SM CLR 25/02 A2996 4350 22 6500 300/08 RMK AO2 T02500022
94299KAAT AAT20160808115011608/08/16 11:50:31  5-MIN KAAT 081950Z AUTO 32008KT 10SM CLR 25/02 A2995 4350 22 6500 310/08 RMK AO2 SLP103 T02500022
94299KAAT AAT20160808115511608/08/16 11:55:31  5-MIN KAAT 081955Z AUTO 33006KT 10SM CLR 25/02 A2995 4360 22 6500 320/06 RMK AO2 SLP101 T02500022
94299KAAT AAT20160808120010908/08/16 12:00:31  5-MIN KAAT 082000Z AUTO 33008KT 10SM CLR 25/02 A2995 4350 22 6500 320/08 RMK AO2 T02500022
94299KAAT AAT20160808120510908/08/16 12:05:31  5-MIN KAAT 082005Z AUTO 35006KT 10SM CLR 25/02 A2995 4360 22 6500 340/06 RMK AO2 T02500022
94299KAAT AAT20160808121010908/08/16 12:10:31  5-MIN KAAT 082010Z AUTO 34008KT 10SM CLR 26/03 A2994 4360 21 6600 320/08 RMK AO2 T02610028
94299KAAT AAT20160808121510908/08/16 12:15:31  5-MIN KAAT 082015Z AUTO 28005KT 10SM CLR 26/02 A2994 4360 21 6600 260/05 RMK AO2 T02560022
94299KAAT AAT20160808122011508/08/16 12:20:31  5-MIN KAAT 082020Z AUTO 27009G14KT 10SM CLR 26/02 A2994 4360 21 6600 260/09G14 RMK AO2 T02560022
94299KAAT AAT20160808122510908/08/16 12:25:31  5-MIN KAAT 082025Z AUTO 26011KT 10SM CLR 27/02 A2994 4360 20 6700 250/11 RMK AO2 T02670022
94299KAAT AAT20160808123011508/08/16 12:30:31  5-MIN KAAT 082030Z AUTO VRB05G16KT 10SM CLR 26/02 A2994 4370 21 6600 VRB/05G16 RMK AO2 T02560017
94299KAAT AAT20160808123510908/08/16 12:35:31  5-MIN KAAT 082035Z AUTO 28008KT 10SM CLR 27/02 A2994 4360 19 6700 270/08 RMK AO2 T02670017
94299KAAT AAT20160808124011508/08/16 12:40:31  5-MIN KAAT 082040Z AUTO 26010G14KT 10SM CLR 26/02 A2994 4360 21 6600 250/10G14 RMK AO2 T02610022
94299KAAT AAT20160808124511508/08/16 12:45:31  5-MIN KAAT 082045Z AUTO 32004G14KT 10SM CLR 26/02 A2994 4360 21 6600 310/04G14 RMK AO2 T02560017
94299KAAT AAT20160808125013808/08/16 12:50:31  5-MIN KAAT 082050Z AUTO 35007KT 320V030 10SM CLR 26/02 A2994 4370 21 6600 340/07 310V020 RMK AO2 SLP097 T02560017 58010
94299KAAT AAT20160808125512208/08/16 12:55:31  5-MIN KAAT 082055Z AUTO 32008KT 10SM CLR 27/02 A2994 4370 19 6700 300/08 RMK AO2 SLP097 T02670017 56015
94299KAAT AAT20160808130013108/08/16 13:00:31  5-MIN KAAT 082100Z AUTO 26008G17KT 190V290 10SM CLR 27/02 A2993 4370 19 6700 240/08G17 180V280 RMK AO2 T02670017
94299KAAT AAT20160808130511508/08/16 13:05:31  5-MIN KAAT 082105Z AUTO 24005G17KT 10SM CLR 26/02 A2993 4370 20 6700 230/05G17 RMK AO2 T02610017
94299KAAT AAT20160808131010908/08/16 13:10:31  5-MIN KAAT 082110Z AUTO VRB03KT 10SM CLR 26/02 A2993 4370 20 6700 VRB/03 RMK AO2 T02610017
94299KAAT AAT20160808131511208/08/16 13:15:31  5-MIN KAAT 082115Z AUTO VRB05KT 10SM FEW090 26/02 A2993 4380 21 6700 VRB/05 RMK AO2 T02610022
94299KAAT AAT20160808132010208/08/16 13:20:31  5-MIN KAAT 082120Z AUTO 10SM FEW090 27/02 A2992 4380 19 6700 M /M RMK AO2 T02670017
94299KAAT AAT20160808132511808/08/16 13:25:31  5-MIN KAAT 082125Z AUTO 30010G18KT 10SM SCT095 27/02 A2992 4380 19 6800 290/10G18 RMK AO2 T02720017
94299KAAT AAT20160808133011808/08/16 13:30:31  5-MIN KAAT 082130Z AUTO VRB06G18KT 10SM FEW090 27/01 A2992 4380 18 6800 VRB/06G18 RMK AO2 T02720011
94299KAAT AAT20160808133511808/08/16 13:35:31  5-MIN KAAT 082135Z AUTO 23013G17KT 10SM FEW090 27/01 A2992 4380 17 6800 220/13G17 RMK AO2 T02720006
94299KAAT AAT20160808134011808/08/16 13:40:31  5-MIN KAAT 082140Z AUTO 22007G17KT 10SM FEW090 27/01 A2992 4380 18 6700 200/07G17 RMK AO2 T02670006
94299KAAT AAT20160808134511808/08/16 13:45:31  5-MIN KAAT 082145Z AUTO 28007G18KT 10SM FEW090 27/01 A2991 4390 17 6800 260/07G18 RMK AO2 T02720006
94299KAAT AAT20160808135012208/08/16 13:50:31  5-MIN KAAT 082150Z AUTO 28013G18KT 10SM CLR 27/00 A2992 4380 16 6800 270/13G18 RMK AO2 SLP094 T02720000
94299KAAT AAT20160808135512208/08/16 13:55:31  5-MIN KAAT 082155Z AUTO 27014G18KT 10SM CLR 27/00 A2992 4390 16 6800 260/14G18 RMK AO2 SLP093 T02720000
94299KAAT AAT20160808140011508/08/16 14:00:31  5-MIN KAAT 082200Z AUTO 29012G18KT 10SM CLR 28/00 A2991 4390 16 6900 280/12G18 RMK AO2 T02780000
94299KAAT AAT20160808140511508/08/16 14:05:31  5-MIN KAAT 082205Z AUTO 30012G18KT 10SM CLR 28/00 A2991 4390 15 6900 280/12G18 RMK AO2 T02830000
94299KAAT AAT20160808141013108/08/16 14:10:31  5-MIN KAAT 082210Z AUTO 26009G17KT 230V300 10SM CLR 27/00 A2991 4390 16 6800 250/09G17 220V290 RMK AO2 T02720000
94299KAAT AAT20160808141511508/08/16 14:15:31  5-MIN KAAT 082215Z AUTO 26014G21KT 10SM CLR 27/00 A2991 4390 16 6800 250/14G21 RMK AO2 T02720000
94299KAAT AAT20160808142011508/08/16 14:20:31  5-MIN KAAT 082220Z AUTO 24011G21KT 10SM CLR 27/00 A2991 4390 16 6800 230/11G21 RMK AO2 T02720000
94299KAAT AAT20160808142511508/08/16 14:25:31  5-MIN KAAT 082225Z AUTO 26015G19KT 10SM CLR 28/00 A2991 4390 16 6900 250/15G19 RMK AO2 T02780000
94299KAAT AAT20160808143011508/08/16 14:30:31  5-MIN KAAT 082230Z AUTO 26010G19KT 10SM CLR 28/00 A2991 4400 16 6900 240/10G19 RMK AO2 T02780000
94299KAAT AAT20160808143511608/08/16 14:35:31  5-MIN KAAT 082235Z AUTO 25014G20KT 10SM CLR 28/M01 A2991 4400 15 6900 240/14G20 RMK AO2 T02781006
94299KAAT AAT20160808144011608/08/16 14:40:31  5-MIN KAAT 082240Z AUTO 25011G20KT 10SM CLR 28/M01 A2990 4400 15 6900 240/11G20 RMK AO2 T02781006
94299KAAT AAT20160808144511008/08/16 14:45:31  5-MIN KAAT 082245Z AUTO 26006KT 10SM CLR 27/M01 A2990 4400 16 6800 240/06 RMK AO2 T02721006
94299KAAT AAT20160808145012008/08/16 14:50:31  5-MIN KAAT 082250Z AUTO 24010KT 10SM FEW110 28/M01 A2990 4400 15 6900 230/10 RMK AO2 SLP088 T02781006
94299KAAT AAT20160808145512008/08/16 14:55:31  5-MIN KAAT 082255Z AUTO 27013KT 10SM SCT110 28/M01 A2990 4400 14 6900 250/13 RMK AO2 SLP088 T02831011
94299KAAT AAT20160808150011308/08/16 15:00:31  5-MIN KAAT 082300Z AUTO 28007KT 10SM SCT110 28/M02 A2990 4400 13 6900 260/07 RMK AO2 T02831022
94299KAAT AAT20160808150511908/08/16 15:05:31  5-MIN KAAT 082305Z AUTO 30014G20KT 10SM BKN110 28/M03 A2990 4400 12 6900 280/14G20 RMK AO2 T02781033
94299KAAT AAT20160808151011908/08/16 15:10:31  5-MIN KAAT 082310Z AUTO 28017G23KT 10SM BKN110 29/M03 A2990 4400 12 7000 270/17G23 RMK AO2 T02891028
94299KAAT AAT20160808151511908/08/16 15:15:31  5-MIN KAAT 082315Z AUTO 27014G23KT 10SM BKN110 28/M03 A2990 4400 13 6900 260/14G23 RMK AO2 T02831028
94299KAAT AAT20160808152011908/08/16 15:20:31  5-MIN KAAT 082320Z AUTO 28015G23KT 10SM SCT110 28/M03 A2990 4400 13 6900 260/15G23 RMK AO2 T02831028
94299KAAT AAT20160808152511908/08/16 15:25:31  5-MIN KAAT 082325Z AUTO 25014G23KT 10SM SCT110 28/M02 A2990 4400 14 6900 230/14G23 RMK AO2 T02781017
94299KAAT AAT20160808153011908/08/16 15:30:31  5-MIN KAAT 082330Z AUTO 26010G21KT 10SM FEW110 28/M02 A2990 4400 14 6900 240/10G21 RMK AO2 T02781017
94299KAAT AAT20160808153511908/08/16 15:35:31  5-MIN KAAT 082335Z AUTO 25014G22KT 10SM FEW110 28/M02 A2990 4400 14 6900 240/14G22 RMK AO2 T02831017
94299KAAT AAT20160808154011608/08/16 15:40:31  5-MIN KAAT 082340Z AUTO 27015G22KT 10SM CLR 28/M02 A2990 4400 14 6900 250/15G22 RMK AO2 T02781017
94299KAAT AAT20160808154511608/08/16 15:45:31  5-MIN KAAT 082345Z AUTO 29013G21KT 10SM CLR 28/M02 A2990 4400 14 6900 280/13G21 RMK AO2 T02831017
94299KAAT AAT20160808155014108/08/16 15:50:31  5-MIN KAAT 082350Z AUTO 29014G19KT 10SM CLR 27/M01 A2990 4400 16 6700 280/14G19 RMK AO2 SLP087 T02671011 10289 20211 56015
94299KAAT AAT20160808155514108/08/16 15:55:31  5-MIN KAAT 082355Z AUTO 28014G19KT 10SM CLR 27/M01 A2990 4400 15 6800 260/14G19 RMK AO2 SLP089 T02721011 10289 20211 56011
94299KAAT AAT20160808160011308/08/16 16:00:31  5-MIN KAAT 090000Z AUTO 27013KT 10SM FEW100 28/M02 A2990 4400 14 6900 250/13 RMK AO2 T02781017
94299KAAT AAT20160808160511908/08/16 16:05:31  5-MIN KAAT 090005Z AUTO 26016G20KT 10SM FEW100 28/M01 A2990 4400 15 6900 240/16G20 RMK AO2 T02781011
94299KAAT AAT20160808161011908/08/16 16:10:31  5-MIN KAAT 090010Z AUTO 27013G20KT 10SM FEW100 27/M02 A2990 4400 15 6800 260/13G20 RMK AO2 T02721017
94299KAAT AAT20160808161511908/08/16 16:15:31  5-MIN KAAT 090015Z AUTO 27009G19KT 10SM FEW100 27/M01 A2989 4400 15 6800 260/09G19 RMK AO2 T02721011
94299KAAT AAT20160808162011908/08/16 16:20:31  5-MIN KAAT 090020Z AUTO 24009G19KT 10SM FEW100 27/M01 A2990 4400 16 6800 230/09G19 RMK AO2 T02721006
94299KAAT AAT20160808162511808/08/16 16:25:31  5-MIN KAAT 090025Z AUTO 25014G21KT 10SM FEW100 27/00 A2990 4400 16 6800 240/14G21 RMK AO2 T02720000
94299KAAT AAT20160808163011508/08/16 16:30:31  5-MIN KAAT 090030Z AUTO 25008G21KT 10SM CLR 27/00 A2989 4410 16 6800 230/08G21 RMK AO2 T02720000
94299KAAT AAT20160808163511608/08/16 16:35:31  5-MIN KAAT 090035Z AUTO 26015G19KT 10SM CLR 27/M01 A2990 4400 16 6800 250/15G19 RMK AO2 T02721006
94299KAAT AAT20160808164011608/08/16 16:40:31  5-MIN KAAT 090040Z AUTO 26012G19KT 10SM CLR 28/M01 A2990 4400 15 6900 250/12G19 RMK AO2 T02781011
94299KAAT AAT20160808164511008/08/16 16:45:31  5-MIN KAAT 090045Z AUTO 28013KT 10SM CLR 27/M01 A2990 4400 15 6800 260/13 RMK AO2 T02721011
94299KAAT AAT20160808165011708/08/16 16:50:31  5-MIN KAAT 090050Z AUTO 28010KT 10SM CLR 26/M01 A2990 4400 16 6700 270/10 RMK AO2 SLP090 T02611011
94299KAAT AAT20160808165511608/08/16 16:55:31  5-MIN KAAT 090055Z AUTO 30015KT 10SM CLR 26/01 A2990 4400 18 6700 290/15 RMK AO2 SLP092 T02610006
94299KAAT AAT20160808170010908/08/16 17:00:31  5-MIN KAAT 090100Z AUTO 32014KT 10SM CLR 26/02 A2990 4400 21 6700 310/14 RMK AO2 T02610022
94299KAAT AAT20160808170510908/08/16 17:05:31  5-MIN KAAT 090105Z AUTO 31012KT 10SM CLR 26/02 A2990 4400 21 6700 300/12 RMK AO2 T02610022
94299KAAT AAT20160808171011508/08/16 17:10:31  5-MIN KAAT 090110Z AUTO 32017G21KT 10SM CLR 26/03 A2990 4400 22 6700 310/17G21 RMK AO2 T02610033
94299KAAT AAT20160808171511508/08/16 17:15:31  5-MIN KAAT 090115Z AUTO 32014G21KT 10SM CLR 26/03 A2990 4400 22 6600 300/14G21 RMK AO2 T02560028
94299KAAT AAT20160808172011508/08/16 17:20:31  5-MIN KAAT 090120Z AUTO 32014G22KT 10SM CLR 26/03 A2990 4400 22 6600 300/14G22 RMK AO2 T02560028
94299KAAT AAT20160808172511508/08/16 17:25:31  5-MIN KAAT 090125Z AUTO 31015G22KT 10SM CLR 25/03 A2990 4400 23 6600 300/15G22 RMK AO2 T02500028
94299KAAT AAT20160808173010908/08/16 17:30:31  5-MIN KAAT 090130Z AUTO 33013KT 10SM CLR 25/03 A2990 4400 23 6600 320/13 RMK AO2 T02500028
94299KAAT AAT20160808173510908/08/16 17:35:31  5-MIN KAAT 090135Z AUTO 33013KT 10SM CLR 25/03 A2990 4400 24 6600 310/13 RMK AO2 T02500033
94299KAAT AAT20160808174011508/08/16 17:40:31  5-MIN KAAT 090140Z AUTO 32012G20KT 10SM CLR 25/03 A2990 4400 24 6600 310/12G20 RMK AO2 T02500033
94299KAAT AAT20160808174510908/08/16 17:45:31  5-MIN KAAT 090145Z AUTO 31011KT 10SM CLR 25/03 A2990 4400 24 6600 300/11 RMK AO2 T02500033
94299KAAT AAT20160808175011608/08/16 17:50:31  5-MIN KAAT 090150Z AUTO 30011KT 10SM CLR 24/03 A2990 4400 25 6500 290/11 RMK AO2 SLP094 T02440033
94299KAAT AAT20160808175511608/08/16 17:55:31  5-MIN KAAT 090155Z AUTO 32013KT 10SM CLR 24/03 A2990 4400 25 6500 300/13 RMK AO2 SLP094 T02440033
94299KAAT AAT20160808180010908/08/16 18:00:31  5-MIN KAAT 090200Z AUTO 31011KT 10SM CLR 24/03 A2990 4400 25 6500 290/11 RMK AO2 T02440033
94299KAAT AAT20160808180511508/08/16 18:05:31  5-MIN KAAT 090205Z AUTO 32016G19KT 10SM CLR 24/03 A2990 4400 26 6400 300/16G19 RMK AO2 T02390033
94299KAAT AAT20160808181011508/08/16 18:10:31  5-MIN KAAT 090210Z AUTO 33010G19KT 10SM CLR 24/03 A2990 4400 26 6400 310/10G19 RMK AO2 T02390033
94299KAAT AAT20160808181510908/08/16 18:15:31  5-MIN KAAT 090215Z AUTO 32012KT 10SM CLR 24/03 A2990 4400 26 6400 300/12 RMK AO2 T02390033
94299KAAT AAT20160808182010908/08/16 18:20:31  5-MIN KAAT 090220Z AUTO 32011KT 10SM CLR 23/03 A2991 4390 26 6400 310/11 RMK AO2 T02330033
94299KAAT AAT20160808182510908/08/16 18:25:31  5-MIN KAAT 090225Z AUTO 32010KT 10SM CLR 23/03 A2991 4390 26 6400 310/10 RMK AO2 T02330033
94299KAAT AAT20160808183011508/08/16 18:30:31  5-MIN KAAT 090230Z AUTO 33010G18KT 10SM CLR 23/03 A2991 4390 26 6400 310/10G18 RMK AO2 T02330033
94299KAAT AAT20160808183510908/08/16 18:35:31  5-MIN KAAT 090235Z AUTO 31007KT 10SM CLR 23/04 A2991 4390 29 6300 300/07 RMK AO2 T02280039
94299KAAT AAT20160808184010908/08/16 18:40:31  5-MIN KAAT 090240Z AUTO 31007KT 10SM CLR 23/04 A2991 4390 29 6300 290/07 RMK AO2 T02280039
94299KAAT AAT20160808184511508/08/16 18:45:31  5-MIN KAAT 090245Z AUTO 32014G19KT 10SM CLR 22/04 A2991 4390 30 6200 310/14G19 RMK AO2 T02220039
94299KAAT AAT20160808185012808/08/16 18:50:31  5-MIN KAAT 090250Z AUTO 32012G21KT 10SM CLR 23/03 A2991 4390 27 6300 310/12G21 RMK AO2 SLP093 T02280033 56011
94299KAAT AAT20160808185512808/08/16 18:55:31  5-MIN KAAT 090255Z AUTO 31015G21KT 10SM CLR 22/03 A2991 4390 28 6200 300/15G21 RMK AO2 SLP094 T02220033 53004
94299KAAT AAT20160808190011508/08/16 19:00:31  5-MIN KAAT 090300Z AUTO 32014G22KT 10SM CLR 22/03 A2992 4380 29 6200 300/14G22 RMK AO2 T02170033
94299KAAT AAT20160808190511508/08/16 19:05:31  5-MIN KAAT 090305Z AUTO 32017G22KT 10SM CLR 22/03 A2992 4380 29 6200 300/17G22 RMK AO2 T02170033
94299KAAT AAT20160808191011508/08/16 19:10:31  5-MIN KAAT 090310Z AUTO 32017G22KT 10SM CLR 22/03 A2992 4380 29 6200 300/17G22 RMK AO2 T02170033
94299KAAT AAT20160808191510908/08/16 19:15:31  5-MIN KAAT 090315Z AUTO 31016KT 10SM CLR 22/03 A2992 4380 29 6200 300/16 RMK AO2 T02170033
94299KAAT AAT20160808192011508/08/16 19:20:31  5-MIN KAAT 090320Z AUTO 32015G22KT 10SM CLR 21/03 A2992 4380 30 6100 300/15G22 RMK AO2 T02110033
94299KAAT AAT20160808192511508/08/16 19:25:31  5-MIN KAAT 090325Z AUTO 31010G21KT 10SM CLR 21/04 A2992 4380 32 6100 290/10G21 RMK AO2 T02110039
94299KAAT AAT20160808193010908/08/16 19:30:31  5-MIN KAAT 090330Z AUTO 32013KT 10SM CLR 21/04 A2993 4380 32 6100 300/13 RMK AO2 T02110039
94299KAAT AAT20160808193510908/08/16 19:35:31  5-MIN KAAT 090335Z AUTO 33014KT 10SM CLR 21/04 A2993 4370 33 6000 310/14 RMK AO2 T02060039
94299KAAT AAT20160808194011508/08/16 19:40:31  5-MIN KAAT 090340Z AUTO 33014G19KT 10SM CLR 21/04 A2993 4370 33 6000 310/14G19 RMK AO2 T02060039
94299KAAT AAT20160808194511508/08/16 19:45:31  5-MIN KAAT 090345Z AUTO 33016G22KT 10SM CLR 21/04 A2993 4370 33 6000 310/16G22 RMK AO2 T02060039
94299KAAT AAT20160808195012208/08/16 19:50:31  5-MIN KAAT 090350Z AUTO 33018G22KT 10SM CLR 21/04 A2994 4360 33 6000 310/18G22 RMK AO2 SLP101 T02060039
94299KAAT AAT20160808195512208/08/16 19:55:31  5-MIN KAAT 090355Z AUTO 33014G22KT 10SM CLR 20/04 A2994 4360 34 6000 320/14G22 RMK AO2 SLP102 T02000039
94299KAAT AAT20160808200011508/08/16 20:00:31  5-MIN KAAT 090400Z AUTO 33011G19KT 10SM CLR 20/04 A2994 4360 34 6000 310/11G19 RMK AO2 T02000039
94299KAAT AAT20160808200510908/08/16 20:05:31  5-MIN KAAT 090405Z AUTO 33013KT 10SM CLR 20/04 A2995 4360 34 6000 320/13 RMK AO2 T02000039
94299KAAT AAT20160808201011508/08/16 20:10:31  5-MIN KAAT 090410Z AUTO 33013G21KT 10SM CLR 20/04 A2995 4360 34 6000 310/13G21 RMK AO2 T02000039
94299KAAT AAT20160808201511508/08/16 20:15:31  5-MIN KAAT 090415Z AUTO 32013G21KT 10SM CLR 20/03 A2995 4350 33 6000 310/13G21 RMK AO2 T02000033
94299KAAT AAT20160808202011508/08/16 20:20:31  5-MIN KAAT 090420Z AUTO 33014G21KT 10SM CLR 20/04 A2996 4350 34 6000 320/14G21 RMK AO2 T02000039
94299KAAT AAT20160808202511508/08/16 20:25:31  5-MIN KAAT 090425Z AUTO 32012G21KT 10SM CLR 19/04 A2996 4350 35 5900 310/12G21 RMK AO2 T01940039
94299KAAT AAT20160808203010908/08/16 20:30:31  5-MIN KAAT 090430Z AUTO 33012KT 10SM CLR 19/03 A2996 4340 34 5900 310/12 RMK AO2 T01940033
94299KAAT AAT20160808203510908/08/16 20:35:31  5-MIN KAAT 090435Z AUTO 33012KT 10SM CLR 19/04 A2996 4340 35 5900 310/12 RMK AO2 T01940039
94299KAAT AAT20160808204010908/08/16 20:40:31  5-MIN KAAT 090440Z AUTO 33009KT 10SM CLR 19/04 A2997 4340 35 5900 320/09 RMK AO2 T01940039
94299KAAT AAT20160808204510908/08/16 20:45:31  5-MIN KAAT 090445Z AUTO 33011KT 10SM CLR 19/04 A2997 4340 36 5800 320/11 RMK AO2 T01890039
94299KAAT AAT20160808205011608/08/16 20:50:31  5-MIN KAAT 090450Z AUTO 33009KT 10SM CLR 19/04 A2997 4330 36 5800 310/09 RMK AO2 SLP110 T01890039
94299KAAT AAT20160808205511608/08/16 20:55:31  5-MIN KAAT 090455Z AUTO 33010KT 10SM CLR 19/04 A2997 4330 36 5800 320/10 RMK AO2 SLP108 T01890039
94299KAAT AAT20160808210010908/08/16 21:00:31  5-MIN KAAT 090500Z AUTO 32010KT 10SM CLR 19/04 A2997 4330 36 5800 310/10 RMK AO2 T01890039
94299KAAT AAT20160808210510908/08/16 21:05:31  5-MIN KAAT 090505Z AUTO 33010KT 10SM CLR 19/04 A2998 4330 36 5800 310/10 RMK AO2 T01890039
94299KAAT AAT20160808211010908/08/16 21:10:31  5-MIN KAAT 090510Z AUTO 33006KT 10SM CLR 19/03 A2998 4330 35 5800 320/06 RMK AO2 T01890033
94299KAAT AAT20160808211510908/08/16 21:15:31  5-MIN KAAT 090515Z AUTO 32006KT 10SM CLR 18/04 A2998 4320 38 5700 300/06 RMK AO2 T01830039
94299KAAT AAT20160808212010908/08/16 21:20:31  5-MIN KAAT 090520Z AUTO 30005KT 10SM CLR 18/03 A2998 4320 38 5700 290/05 RMK AO2 T01780033
94299KAAT AAT20160808212510908/08/16 21:25:31  5-MIN KAAT 090525Z AUTO 30004KT 10SM CLR 18/03 A2999 4320 38 5700 280/04 RMK AO2 T01780033
94299KAAT AAT20160808213010908/08/16 21:30:31  5-MIN KAAT 090530Z AUTO 28004KT 10SM CLR 18/03 A2999 4320 38 5700 270/04 RMK AO2 T01780033
94299KAAT AAT20160808213511208/08/16 21:35:31  5-MIN KAAT 090535Z AUTO 27004KT 10SM FEW080 17/03 A2999 4320 39 5600 250/04 RMK AO2 T01720033
94299KAAT AAT20160808214011208/08/16 21:40:31  5-MIN KAAT 090540Z AUTO 29005KT 10SM SCT080 18/03 A2999 4310 38 5700 280/05 RMK AO2 T01780033
94299KAAT AAT20160808214511208/08/16 21:45:31  5-MIN KAAT 090545Z AUTO 24004KT 10SM SCT080 17/03 A3000 4310 39 5600 220/04 RMK AO2 T01720033
94299KAAT AAT20160808215013708/08/16 21:50:31  5-MIN KAAT 090550Z AUTO 25005KT 10SM FEW080 16/03 A3000 4310 42 5500 230/05 RMK AO2 SLP118 T01610033 10278 20161 53004
94299KAAT AAT20160808215513708/08/16 21:55:31  5-MIN KAAT 090555Z AUTO 24006KT 10SM FEW080 16/03 A3000 4310 42 5500 230/06 RMK AO2 SLP119 T01610033 10278 20161 51025
94299KAAT AAT20160808220011208/08/16 22:00:31  5-MIN KAAT 090600Z AUTO 26007KT 10SM SCT080 17/03 A3000 4310 40 5500 250/07 RMK AO2 T01670033
94299KAAT AAT20160808220511208/08/16 22:05:31  5-MIN KAAT 090605Z AUTO 25005KT 10SM BKN080 17/03 A3000 4310 40 5500 240/05 RMK AO2 T01670033
94299KAAT AAT20160808221011208/08/16 22:10:31  5-MIN KAAT 090610Z AUTO 27006KT 10SM BKN080 17/03 A3000 4310 40 5500 260/06 RMK AO2 T01670033
94299KAAT AAT20160808221511208/08/16 22:15:31  5-MIN KAAT 090615Z AUTO 28006KT 10SM BKN080 17/03 A3000 4310 39 5600 260/06 RMK AO2 T01720033
94299KAAT AAT20160808222011208/08/16 22:20:31  5-MIN KAAT 090620Z AUTO 28006KT 10SM BKN080 17/03 A3000 4310 40 5500 270/06 RMK AO2 T01670033
94299KAAT AAT20160808222511208/08/16 22:25:31  5-MIN KAAT 090625Z AUTO 29007KT 10SM OVC080 17/03 A3000 4310 39 5600 270/07 RMK AO2 T01720033
94299KAAT AAT20160808223011208/08/16 22:30:31  5-MIN KAAT 090630Z AUTO 30008KT 10SM OVC080 17/03 A3000 4310 39 5600 280/08 RMK AO2 T01720033
94299KAAT AAT20160808223511208/08/16 22:35:31  5-MIN KAAT 090635Z AUTO 31005KT 10SM BKN080 17/04 A3000 4310 42 5500 290/05 RMK AO2 T01670039
94299KAAT AAT20160808224011208/08/16 22:40:31  5-MIN KAAT 090640Z AUTO 30006KT 10SM BKN080 16/04 A3000 4310 44 5500 280/06 RMK AO2 T01610039
94299KAAT AAT20160808224511208/08/16 22:45:31  5-MIN KAAT 090645Z AUTO 31006KT 10SM SCT080 16/04 A3000 4310 45 5400 300/06 RMK AO2 T01560039
94299KAAT AAT20160808225011908/08/16 22:50:31  5-MIN KAAT 090650Z AUTO 31005KT 10SM SCT080 16/04 A3000 4300 45 5400 300/05 RMK AO2 SLP119 T01560039
94299KAAT AAT20160808225511908/08/16 22:55:31  5-MIN KAAT 090655Z AUTO 30006KT 10SM FEW080 15/04 A3000 4300 47 5300 290/06 RMK AO2 SLP121 T01500039
94299KAAT AAT20160808230011208/08/16 23:00:31  5-MIN KAAT 090700Z AUTO 31007KT 10SM FEW080 15/04 A3001 4300 47 5300 300/07 RMK AO2 T01500039
94299KAAT AAT20160808230511208/08/16 23:05:31  5-MIN KAAT 090705Z AUTO 31006KT 10SM SCT080 16/04 A3001 4300 45 5400 300/06 RMK AO2 T01560039
94299KAAT AAT20160808231011208/08/16 23:10:31  5-MIN KAAT 090710Z AUTO 31005KT 10SM SCT080 15/04 A3001 4300 47 5300 300/05 RMK AO2 T01500039
94299KAAT AAT20160808231511208/08/16 23:15:31  5-MIN KAAT 090715Z AUTO 32005KT 10SM SCT080 15/04 A3001 4300 47 5300 300/05 RMK AO2 T01500039
94299KAAT AAT20160808232011208/08/16 23:20:31  5-MIN KAAT 090720Z AUTO 32003KT 10SM FEW080 14/04 A3001 4300 49 5300 310/03 RMK AO2 T01440039
94299KAAT AAT20160808232511208/08/16 23:25:31  5-MIN KAAT 090725Z AUTO 35004KT 10SM FEW080 14/04 A3001 4300 49 5300 340/04 RMK AO2 T01440039
94299KAAT AAT20160808233011208/08/16 23:30:31  5-MIN KAAT 090730Z AUTO 36004KT 10SM FEW080 14/04 A3001 4300 49 5300 340/04 RMK AO2 T01440039
94299KAAT AAT20160808233511208/08/16 23:35:31  5-MIN KAAT 090735Z AUTO 35006KT 10SM FEW080 16/04 A3001 4300 45 5400 340/06 RMK AO2 T01560039
94299KAAT AAT20160808234010908/08/16 23:40:31  5-MIN KAAT 090740Z AUTO 01006KT 10SM CLR 16/04 A3001 4300 47 5400 350/06 RMK AO2 T01560044
94299KAAT AAT20160808234510908/08/16 23:45:31  5-MIN KAAT 090745Z AUTO 01005KT 10SM CLR 16/04 A3001 4300 47 5400 360/05 RMK AO2 T01560044
94299KAAT AAT20160808235012608/08/16 23:50:31  5-MIN KAAT 090750Z AUTO 01006KT 10SM CLR 15/05 A3001 4300 51 5300 360/06 RMK AO2 SLP121 T01500050 402890050
94299KAAT AAT20160808235512608/08/16 23:55:31  5-MIN KAAT 090755Z AUTO 36007KT 10SM CLR 15/05 A3001 4300 51 5300 350/07 RMK AO2 SLP121 T01500050 402890050
94299KAAT AAT20160809000010908/09/16 00:00:31  5-MIN KAAT 090800Z AUTO 36007KT 10SM CLR 15/05 A3001 4300 51 5300 340/07 RMK AO2 T01500050
94299KAAT AAT20160809000510908/09/16 00:05:31  5-MIN KAAT 090805Z AUTO 36006KT 10SM CLR 15/04 A3001 4290 49 5300 340/06 RMK AO2 T01500044
94299KAAT AAT20160809001010908/09/16 00:10:31  5-MIN KAAT 090810Z AUTO 35007KT 10SM CLR 15/04 A3001 4300 49 5300 330/07 RMK AO2 T01500044
94299KAAT AAT20160809001510908/09/16 00:15:31  5-MIN KAAT 090815Z AUTO 35008KT 10SM CLR 14/04 A3001 4290 51 5300 330/08 RMK AO2 T01440044
94299KAAT AAT20160809002010908/09/16 00:20:31  5-MIN KAAT 090820Z AUTO 35008KT 10SM CLR 14/05 A3001 4290 53 5300 330/08 RMK AO2 T01440050
94299KAAT AAT20160809002510908/09/16 00:25:31  5-MIN KAAT 090825Z AUTO 35006KT 10SM CLR 14/05 A3001 4290 55 5200 330/06 RMK AO2 T01390050
94299KAAT AAT20160809003010908/09/16 00:30:31  5-MIN KAAT 090830Z AUTO 34006KT 10SM CLR 14/05 A3001 4300 55 5200 330/06 RMK AO2 T01390050
94299KAAT AAT20160809003510908/09/16 00:35:31  5-MIN KAAT 090835Z AUTO 35007KT 10SM CLR 14/05 A3001 4300 55 5200 330/07 RMK AO2 T01390050
94299KAAT AAT20160809004010908/09/16 00:40:31  5-MIN KAAT 090840Z AUTO 36007KT 10SM CLR 14/05 A3001 4300 55 5200 340/07 RMK AO2 T01390050
94299KAAT AAT20160809004510908/09/16 00:45:31  5-MIN KAAT 090845Z AUTO 36007KT 10SM CLR 14/05 A3001 4300 55 5200 340/07 RMK AO2 T01390050
94299KAAT AAT20160809005012208/09/16 00:50:31  5-MIN KAAT 090850Z AUTO 35006KT 10SM CLR 14/05 A3001 4300 55 5200 340/06 RMK AO2 SLP121 T01390050 51025
94299KAAT AAT20160809005512208/09/16 00:55:31  5-MIN KAAT 090855Z AUTO 36005KT 10SM CLR 14/05 A3001 4300 55 5200 350/05 RMK AO2 SLP119 T01390050 50004
94299KAAT AAT20160809010010908/09/16 01:00:31  5-MIN KAAT 090900Z AUTO 01004KT 10SM CLR 13/05 A3001 4300 57 5100 350/04 RMK AO2 T01330050
94299KAAT AAT20160809010510908/09/16 01:05:31  5-MIN KAAT 090905Z AUTO 02003KT 10SM CLR 13/05 A3001 4300 57 5100 010/03 RMK AO2 T01330050
94299KAAT AAT20160809011010908/09/16 01:10:31  5-MIN KAAT 090910Z AUTO 00000KT 10SM CLR 13/05 A3001 4300 57 5100 000/00 RMK AO2 T01330050
94299KAAT AAT20160809011510908/09/16 01:15:31  5-MIN KAAT 090915Z AUTO 09003KT 10SM CLR 13/05 A3001 4290 59 5100 080/03 RMK AO2 T01280050
94299KAAT AAT20160809012010908/09/16 01:20:31  5-MIN KAAT 090920Z AUTO 09004KT 10SM CLR 12/05 A3001 4290 61 5000 080/04 RMK AO2 T01220050
94299KAAT AAT20160809012510908/09/16 01:25:31  5-MIN KAAT 090925Z AUTO 00000KT 10SM CLR 13/05 A3001 4290 59 5100 000/00 RMK AO2 T01280050
94299KAAT AAT20160809013010908/09/16 01:30:31  5-MIN KAAT 090930Z AUTO VRB04KT 10SM CLR 13/05 A3001 4290 59 5100 VRB/04 RMK AO2 T01280050
94299KAAT AAT20160809013510908/09/16 01:35:31  5-MIN KAAT 090935Z AUTO 02003KT 10SM CLR 13/05 A3002 4290 57 5100 360/03 RMK AO2 T01330050
94299KAAT AAT20160809014010908/09/16 01:40:31  5-MIN KAAT 090940Z AUTO 01003KT 10SM CLR 13/05 A3001 4290 57 5100 360/03 RMK AO2 T01330050
94299KAAT AAT20160809014510908/09/16 01:45:31  5-MIN KAAT 090945Z AUTO 00000KT 10SM CLR 13/05 A3002 4290 59 5100 000/00 RMK AO2 T01280050
94299KAAT AAT20160809015011608/09/16 01:50:31  5-MIN KAAT 090950Z AUTO 00000KT 10SM CLR 12/05 A3002 4290 61 5000 000/00 RMK AO2 SLP122 T01220050
94299KAAT AAT20160809015511608/09/16 01:55:31  5-MIN KAAT 090955Z AUTO 00000KT 10SM CLR 12/05 A3001 4290 63 4900 000/00 RMK AO2 SLP123 T01170050
94299KAAT AAT20160809020010908/09/16 02:00:31  5-MIN KAAT 091000Z AUTO 00000KT 10SM CLR 12/05 A3001 4290 63 4900 000/00 RMK AO2 T01170050
94299KAAT AAT20160809020510908/09/16 02:05:31  5-MIN KAAT 091005Z AUTO 15003KT 10SM CLR 11/05 A3002 4290 66 4900 140/03 RMK AO2 T01110050
94299KAAT AAT20160809021010908/09/16 02:10:31  5-MIN KAAT 091010Z AUTO 00000KT 10SM CLR 12/05 A3002 4290 63 4900 000/00 RMK AO2 T01170050
94299KAAT AAT20160809021510908/09/16 02:15:31  5-MIN KAAT 091015Z AUTO 00000KT 10SM CLR 12/06 A3002 4290 66 4900 000/00 RMK AO2 T01170056
94299KAAT AAT20160809022010908/09/16 02:20:31  5-MIN KAAT 091020Z AUTO 36004KT 10SM CLR 12/06 A3002 4290 63 5000 350/04 RMK AO2 T01220056
94299KAAT AAT20160809022510908/09/16 02:25:31  5-MIN KAAT 091025Z AUTO 00000KT 10SM CLR 12/06 A3002 4290 66 4900 000/00 RMK AO2 T01170056
94299KAAT AAT20160809023010908/09/16 02:30:31  5-MIN KAAT 091030Z AUTO VRB04KT 10SM CLR 12/06 A3002 4290 63 5000 VRB/04 RMK AO2 T01220056
94299KAAT AAT20160809023510908/09/16 02:35:31  5-MIN KAAT 091035Z AUTO 00000KT 10SM CLR 12/06 A3002 4290 63 5000 000/00 RMK AO2 T01220056
94299KAAT AAT20160809024010908/09/16 02:40:31  5-MIN KAAT 091040Z AUTO 00000KT 10SM CLR 12/06 A3002 4290 66 4900 000/00 RMK AO2 T01170056
94299KAAT AAT20160809024510908/09/16 02:45:31  5-MIN KAAT 091045Z AUTO 00000KT 10SM CLR 12/06 A3002 4290 66 4900 000/00 RMK AO2 T01170056
94299KAAT AAT20160809025011608/09/16 02:50:31  5-MIN KAAT 091050Z AUTO 08004KT 10SM CLR 11/06 A3002 4290 68 4900 070/04 RMK AO2 SLP124 T01110056
94299KAAT AAT20160809025511608/09/16 02:55:31  5-MIN KAAT 091055Z AUTO 05003KT 10SM CLR 12/06 A3002 4290 66 4900 040/03 RMK AO2 SLP124 T01170056
94299KAAT AAT20160809030010908/09/16 03:00:31  5-MIN KAAT 091100Z AUTO VRB03KT 10SM CLR 12/06 A3002 4290 66 4900 VRB/03 RMK AO2 T01170056
94299KAAT AAT20160809030510908/09/16 03:05:31  5-MIN KAAT 091105Z AUTO 15003KT 10SM CLR 11/06 A3002 4290 68 4900 140/03 RMK AO2 T01110056
94299KAAT AAT20160809031010908/09/16 03:10:31  5-MIN KAAT 091110Z AUTO 00000KT 10SM CLR 11/06 A3002 4290 71 4800 000/00 RMK AO2 T01060056
94299KAAT AAT20160809031510908/09/16 03:15:31  5-MIN KAAT 091115Z AUTO 00000KT 10SM CLR 11/06 A3002 4290 71 4800 000/00 RMK AO2 T01060056
94299KAAT AAT20160809032010908/09/16 03:20:31  5-MIN KAAT 091120Z AUTO 00000KT 10SM CLR 10/06 A3002 4290 74 4700 000/00 RMK AO2 T01000056
94299KAAT AAT20160809032511208/09/16 03:25:31  5-MIN KAAT 091125Z AUTO 00000KT 10SM FEW060 09/05 A3002 4290 74 4700 000/00 RMK AO2 T00940050
94299KAAT AAT20160809033011208/09/16 03:30:31  5-MIN KAAT 091130Z AUTO 00000KT 10SM FEW060 09/06 A3002 4290 76 4700 000/00 RMK AO2 T00940056
94299KAAT AAT20160809033511208/09/16 03:35:31  5-MIN KAAT 091135Z AUTO 00000KT 10SM FEW060 09/06 A3002 4290 76 4700 000/00 RMK AO2 T00940056
94299KAAT AAT20160809034011208/09/16 03:40:31  5-MIN KAAT 091140Z AUTO 00000KT 10SM FEW060 09/06 A3002 4290 76 4700 000/00 RMK AO2 T00940056
94299KAAT AAT20160809034511208/09/16 03:45:31  5-MIN KAAT 091145Z AUTO 00000KT 10SM FEW060 09/06 A3002 4290 76 4700 000/00 RMK AO2 T00940056
94299KAAT AAT20160809035013708/09/16 03:50:31  5-MIN KAAT 091150Z AUTO 00000KT 10SM FEW060 09/06 A3003 4280 79 4600 000/00 RMK AO2 SLP132 T00890056 10172 20089 50004
94299KAAT AAT20160809035513408/09/16 03:55:31  5-MIN KAAT 091155Z AUTO 17003KT 10SM CLR 09/06 A3003 4280 76 4700 160/03 RMK AO2 SLP131 T00940056 10172 20089 53005
94299KAAT AAT20160809040010908/09/16 04:00:31  5-MIN KAAT 091200Z AUTO 16003KT 10SM CLR 08/05 A3003 4280 82 4500 150/03 RMK AO2 T00780050
94299KAAT AAT20160809040510908/09/16 04:05:31  5-MIN KAAT 091205Z AUTO 18003KT 10SM CLR 09/06 A3003 4280 79 4600 160/03 RMK AO2 T00890056
94299KAAT AAT20160809041010908/09/16 04:10:31  5-MIN KAAT 091210Z AUTO 19003KT 10SM CLR 08/06 A3003 4280 82 4500 170/03 RMK AO2 T00830056
94299KAAT AAT20160809041510908/09/16 04:15:31  5-MIN KAAT 091215Z AUTO 00000KT 10SM CLR 08/05 A3003 4280 79 4500 000/00 RMK AO2 T00830050
94299KAAT AAT20160809042010908/09/16 04:20:31  5-MIN KAAT 091220Z AUTO 00000KT 10SM CLR 08/05 A3003 4280 79 4500 000/00 RMK AO2 T00830050
94299KAAT AAT20160809042510908/09/16 04:25:31  5-MIN KAAT 091225Z AUTO 00000KT 10SM CLR 08/04 A3003 4280 79 4500 000/00 RMK AO2 T00780044
94299KAAT AAT20160809043010908/09/16 04:30:31  5-MIN KAAT 091230Z AUTO 00000KT 10SM CLR 08/05 A3003 4280 79 4500 000/00 RMK AO2 T00830050
94299KAAT AAT20160809043510908/09/16 04:35:31  5-MIN KAAT 091235Z AUTO 13003KT 10SM CLR 09/06 A3004 4280 79 4600 110/03 RMK AO2 T00890056
94299KAAT AAT20160809044010908/09/16 04:40:31  5-MIN KAAT 091240Z AUTO 14003KT 10SM CLR 08/05 A3004 4270 82 4500 130/03 RMK AO2 T00780050
94299KAAT AAT20160809044510908/09/16 04:45:31  5-MIN KAAT 091245Z AUTO 00000KT 10SM CLR 08/06 A3004 4270 82 4500 000/00 RMK AO2 T00830056
94299KAAT AAT20160809045011608/09/16 04:50:31  5-MIN KAAT 091250Z AUTO 00000KT 10SM CLR 08/06 A3004 4270 82 4500 000/00 RMK AO2 SLP137 T00830056
94299KAAT AAT20160809045511608/09/16 04:55:31  5-MIN KAAT 091255Z AUTO 00000KT 10SM CLR 08/06 A3004 4270 82 4500 000/00 RMK AO2 SLP138 T00830056
94299KAAT AAT20160809050011208/09/16 05:00:31  5-MIN KAAT 091300Z AUTO 16003KT 10SM FEW065 07/04 A3004 4270 86 4300 150/03 RMK AO2 T00670044
94299KAAT AAT20160809050511208/09/16 05:05:31  5-MIN KAAT 091305Z AUTO 00000KT 10SM FEW065 06/04 A3004 4270 86 4300 000/00 RMK AO2 T00610039
94299KAAT AAT20160809051011208/09/16 05:10:31  5-MIN KAAT 091310Z AUTO 00000KT 10SM SCT065 07/04 A3004 4270 86 4300 000/00 RMK AO2 T00670044
94299KAAT AAT20160809051511208/09/16 05:15:31  5-MIN KAAT 091315Z AUTO 00000KT 10SM BKN065 06/04 A3004 4270 86 4300 000/00 RMK AO2 T00610039
94299KAAT AAT20160809052011208/09/16 05:20:31  5-MIN KAAT 091320Z AUTO 00000KT 10SM BKN065 06/03 A3004 4270 82 4200 000/00 RMK AO2 T00560028
94299KAAT AAT20160809052511208/09/16 05:25:31  5-MIN KAAT 091325Z AUTO 00000KT 10SM BKN065 06/03 A3005 4270 82 4200 000/00 RMK AO2 T00560028
94299KAAT AAT20160809053011208/09/16 05:30:31  5-MIN KAAT 091330Z AUTO 00000KT 10SM BKN065 06/03 A3005 4270 79 4300 000/00 RMK AO2 T00610028
94299KAAT AAT20160809053511208/09/16 05:35:31  5-MIN KAAT 091335Z AUTO 00000KT 10SM BKN065 06/03 A3005 4260 79 4200 000/00 RMK AO2 T00610028
94299KAAT AAT20160809054011208/09/16 05:40:31  5-MIN KAAT 091340Z AUTO 00000KT 10SM BKN065 06/03 A3005 4260 82 4200 000/00 RMK AO2 T00560028
94299KAAT AAT20160809054511208/09/16 05:45:31  5-MIN KAAT 091345Z AUTO 20003KT 10SM SCT065 06/02 A3005 4260 79 4200 180/03 RMK AO2 T00560022
94299KAAT AAT20160809055011908/09/16 05:50:31  5-MIN KAAT 091350Z AUTO 17003KT 10SM SCT060 06/03 A3005 4260 79 4200 160/03 RMK AO2 SLP145 T00610028
94299KAAT AAT20160809055511908/09/16 05:55:31  5-MIN KAAT 091355Z AUTO 15003KT 10SM FEW060 07/03 A3005 4260 79 4300 140/03 RMK AO2 SLP145 T00670033
94299KAAT AAT20160809060011208/09/16 06:00:31  5-MIN KAAT 091400Z AUTO 13004KT 10SM FEW060 08/04 A3005 4260 79 4400 110/04 RMK AO2 T00780044
94299KAAT AAT20160809060511208/09/16 06:05:31  5-MIN KAAT 091405Z AUTO 12003KT 10SM FEW060 09/05 A3005 4260 76 4600 110/03 RMK AO2 T00890050
94299KAAT AAT20160809061010908/09/16 06:10:31  5-MIN KAAT 091410Z AUTO 00000KT 10SM CLR 09/06 A3005 4260 76 4600 000/00 RMK AO2 T00940056
94299KAAT AAT20160809061510908/09/16 06:15:31  5-MIN KAAT 091415Z AUTO 00000KT 10SM CLR 10/06 A3005 4260 74 4700 000/00 RMK AO2 T01000056
94299KAAT AAT20160809062010908/09/16 06:20:31  5-MIN KAAT 091420Z AUTO 00000KT 10SM CLR 10/06 A3005 4260 74 4700 000/00 RMK AO2 T01000056
94299KAAT AAT20160809062510908/09/16 06:25:31  5-MIN KAAT 091425Z AUTO 00000KT 10SM CLR 11/06 A3005 4260 74 4800 000/00 RMK AO2 T01060061
94299KAAT AAT20160809063010908/09/16 06:30:31  5-MIN KAAT 091430Z AUTO 00000KT 10SM CLR 11/06 A3005 4260 71 4800 000/00 RMK AO2 T01110061
94299KAAT AAT20160809063510908/09/16 06:35:31  5-MIN KAAT 091435Z AUTO 00000KT 10SM CLR 12/06 A3005 4260 68 4900 000/00 RMK AO2 T01170061
94299KAAT AAT20160809064010908/09/16 06:40:31  5-MIN KAAT 091440Z AUTO VRB03KT 10SM CLR 12/06 A3005 4260 68 4900 VRB/03 RMK AO2 T01170061
94299KAAT AAT20160809064510908/09/16 06:45:31  5-MIN KAAT 091445Z AUTO 08003KT 10SM CLR 12/06 A3006 4260 66 5000 070/03 RMK AO2 T01220061
94299KAAT AAT20160809065012208/09/16 06:50:31  5-MIN KAAT 091450Z AUTO 05003KT 10SM CLR 12/06 A3006 4250 66 5000 040/03 RMK AO2 SLP142 T01220061 53005
94299KAAT AAT20160809065512208/09/16 06:55:31  5-MIN KAAT 091455Z AUTO 00000KT 10SM CLR 13/06 A3006 4260 63 5000 000/00 RMK AO2 SLP142 T01280061 51008
94299KAAT AAT20160809070010908/09/16 07:00:31  5-MIN KAAT 091500Z AUTO 00000KT 10SM CLR 12/06 A3006 4250 66 5000 000/00 RMK AO2 T01220061
94299KAAT AAT20160809070510908/09/16 07:05:31  5-MIN KAAT 091505Z AUTO 00000KT 10SM CLR 13/06 A3006 4250 63 5000 000/00 RMK AO2 T01280061
94299KAAT AAT20160809071010908/09/16 07:10:31  5-MIN KAAT 091510Z AUTO 00000KT 10SM CLR 13/06 A3006 4250 61 5100 000/00 RMK AO2 T01330061
94299KAAT AAT20160809071510908/09/16 07:15:31  5-MIN KAAT 091515Z AUTO 00000KT 10SM CLR 13/06 A3006 4250 61 5100 000/00 RMK AO2 T01330061
94299KAAT AAT20160809072010908/09/16 07:20:31  5-MIN KAAT 091520Z AUTO 00000KT 10SM CLR 13/06 A3006 4250 61 5100 000/00 RMK AO2 T01330061
94299KAAT AAT20160809072510908/09/16 07:25:31  5-MIN KAAT 091525Z AUTO 00000KT 10SM CLR 13/06 A3006 4250 61 5100 000/00 RMK AO2 T01330061
94299KAAT AAT20160809073010908/09/16 07:30:31  5-MIN KAAT 091530Z AUTO 34003KT 10SM CLR 13/06 A3006 4250 61 5100 320/03 RMK AO2 T01330061
94299KAAT AAT20160809073510908/09/16 07:35:31  5-MIN KAAT 091535Z AUTO 31004KT 10SM CLR 13/06 A3006 4250 61 5100 290/04 RMK AO2 T01330061
94299KAAT AAT20160809074010908/09/16 07:40:31  5-MIN KAAT 091540Z AUTO 00000KT 10SM CLR 13/06 A3006 4250 61 5100 000/00 RMK AO2 T01330061
94299KAAT AAT20160809074510908/09/16 07:45:31  5-MIN KAAT 091545Z AUTO 31003KT 10SM CLR 14/06 A3006 4250 59 5100 290/03 RMK AO2 T01390061
94299KAAT AAT20160809075011608/09/16 07:50:31  5-MIN KAAT 091550Z AUTO 00000KT 10SM CLR 14/06 A3006 4250 59 5100 000/00 RMK AO2 SLP146 T01390061
94299KAAT AAT20160809075511608/09/16 07:55:31  5-MIN KAAT 091555Z AUTO 34003KT 10SM CLR 14/06 A3006 4250 57 5200 320/03 RMK AO2 SLP145 T01440061
94299KAAT AAT20160809080010908/09/16 08:00:31  5-MIN KAAT 091600Z AUTO VRB03KT 10SM CLR 15/06 A3006 4250 55 5300 VRB/03 RMK AO2 T01500061
94299KAAT AAT20160809080510908/09/16 08:05:31  5-MIN KAAT 091605Z AUTO 31003KT 10SM CLR 15/06 A3006 4250 55 5300 300/03 RMK AO2 T01500061
94299KAAT AAT20160809081010908/09/16 08:10:31  5-MIN KAAT 091610Z AUTO 26004KT 10SM CLR 15/06 A3006 4250 55 5300 250/04 RMK AO2 T01500061
94299KAAT AAT20160809081510908/09/16 08:15:31  5-MIN KAAT 091615Z AUTO 00000KT 10SM CLR 16/06 A3006 4250 53 5300 000/00 RMK AO2 T01560061
94299KAAT AAT20160809082010908/09/16 08:20:31  5-MIN KAAT 091620Z AUTO VRB04KT 10SM CLR 16/06 A3006 4260 53 5300 VRB/04 RMK AO2 T01560061
94299KAAT AAT20160809082510908/09/16 08:25:31  5-MIN KAAT 091625Z AUTO VRB03KT 10SM CLR 16/06 A3005 4260 51 5400 VRB/03 RMK AO2 T01610061
94299KAAT AAT20160809083010908/09/16 08:30:31  5-MIN KAAT 091630Z AUTO 27004KT 10SM CLR 16/06 A3005 4260 51 5400 250/04 RMK AO2 T01610061
94299KAAT AAT20160809083510908/09/16 08:35:31  5-MIN KAAT 091635Z AUTO VRB03KT 10SM CLR 16/06 A3005 4260 49 5400 VRB/03 RMK AO2 T01610056
94299KAAT AAT20160809084010908/09/16 08:40:31  5-MIN KAAT 091640Z AUTO VRB03KT 10SM CLR 17/06 A3005 4260 49 5500 VRB/03 RMK AO2 T01670061
94299KAAT AAT20160809084510908/09/16 08:45:31  5-MIN KAAT 091645Z AUTO VRB04KT 10SM CLR 17/06 A3005 4260 47 5500 VRB/04 RMK AO2 T01670056
94299KAAT AAT20160809085011608/09/16 08:50:31  5-MIN KAAT 091650Z AUTO VRB04KT 10SM CLR 16/06 A3005 4260 49 5400 VRB/04 RMK AO2 SLP141 T01610056
94299KAAT AAT20160809085511608/09/16 08:55:31  5-MIN KAAT 091655Z AUTO 00000KT 10SM CLR 16/06 A3005 4260 49 5400 000/00 RMK AO2 SLP141 T01610056
94299KAAT AAT20160809090010908/09/16 09:00:31  5-MIN KAAT 091700Z AUTO 00000KT 10SM CLR 16/05 A3005 4260 47 5400 000/00 RMK AO2 T01610050
94299KAAT AAT20160809090510908/09/16 09:05:31  5-MIN KAAT 091705Z AUTO 00000KT 10SM CLR 17/05 A3005 4260 45 5500 000/00 RMK AO2 T01670050
94299KAAT AAT20160809091010908/09/16 09:10:31  5-MIN KAAT 091710Z AUTO VRB03KT 10SM CLR 17/05 A3005 4260 44 5500 VRB/03 RMK AO2 T01720050
94299KAAT AAT20160809091510908/09/16 09:15:31  5-MIN KAAT 091715Z AUTO VRB05KT 10SM CLR 17/04 A3005 4260 42 5500 VRB/05 RMK AO2 T01720044
94299KAAT AAT20160809092010908/09/16 09:20:31  5-MIN KAAT 091720Z AUTO 25007KT 10SM CLR 18/04 A3005 4260 41 5600 230/07 RMK AO2 T01780044
94299KAAT AAT20160809092510908/09/16 09:25:31  5-MIN KAAT 091725Z AUTO VRB05KT 10SM CLR 18/04 A3005 4260 41 5600 VRB/05 RMK AO2 T01780044
94299KAAT AAT20160809093010908/09/16 09:30:31  5-MIN KAAT 091730Z AUTO 26006KT 10SM CLR 18/04 A3005 4260 41 5600 250/06 RMK AO2 T01780044
94299KAAT AAT20160809093510908/09/16 09:35:31  5-MIN KAAT 091735Z AUTO 23005KT 10SM CLR 18/04 A3005 4260 41 5600 210/05 RMK AO2 T01780044
94299KAAT AAT20160809094010908/09/16 09:40:31  5-MIN KAAT 091740Z AUTO 21005KT 10SM CLR 18/04 A3005 4260 41 5600 190/05 RMK AO2 T01780044
94299KAAT AAT20160809094510908/09/16 09:45:31  5-MIN KAAT 091745Z AUTO VRB03KT 10SM CLR 19/04 A3005 4260 38 5700 VRB/03 RMK AO2 T01890044
94299KAAT AAT20160809095013408/09/16 09:50:31  5-MIN KAAT 091750Z AUTO VRB03KT 10SM CLR 19/04 A3005 4260 37 5800 VRB/03 RMK AO2 SLP140 T01940044 10194 20056 51008
94299KAAT AAT20160809095513408/09/16 09:55:31  5-MIN KAAT 091755Z AUTO VRB04KT 10SM CLR 19/04 A3005 4260 38 5700 VRB/04 RMK AO2 SLP140 T01890044 10194 20056 58001
94299KAAT AAT20160809100010908/09/16 10:00:31  5-MIN KAAT 091800Z AUTO VRB03KT 10SM CLR 19/04 A3005 4260 36 5700 VRB/03 RMK AO2 T01890039
94299KAAT AAT20160809100510908/09/16 10:05:31  5-MIN KAAT 091805Z AUTO VRB04KT 10SM CLR 19/04 A3005 4260 36 5700 VRB/04 RMK AO2 T01890039
94299KAAT AAT20160809101009908/09/16 10:10:31  5-MIN KAAT 091810Z AUTO 10SM CLR 19/04 A3005 4260 38 5700 M /M RMK AO2 T01890044
94299KAAT AAT20160809101510908/09/16 10:15:31  5-MIN KAAT 091815Z AUTO 00000KT 10SM CLR 20/04 A3005 4260 34 5800 000/00 RMK AO2 T02000039
94299KAAT AAT20160809102009908/09/16 10:20:31  5-MIN KAAT 091820Z AUTO 10SM CLR 19/04 A3005 4260 35 5800 M /M RMK AO2 T01940039
94299KAAT AAT20160809102510908/09/16 10:25:31  5-MIN KAAT 091825Z AUTO VRB04KT 10SM CLR 19/04 A3005 4260 35 5800 VRB/04 RMK AO2 T01940039
94299KAAT AAT20160809103010908/09/16 10:30:31  5-MIN KAAT 091830Z AUTO 33003KT 10SM CLR 20/03 A3005 4270 33 5800 320/03 RMK AO2 T02000033
94299KAAT AAT20160809103510908/09/16 10:35:31  5-MIN KAAT 091835Z AUTO 09004KT 10SM CLR 19/03 A3004 4270 34 5800 070/04 RMK AO2 T01940033
94299KAAT AAT20160809104010908/09/16 10:40:31  5-MIN KAAT 091840Z AUTO VRB06KT 10SM CLR 19/03 A3004 4270 34 5800 VRB/06 RMK AO2 T01940033
94299KAAT AAT20160809104510908/09/16 10:45:31  5-MIN KAAT 091845Z AUTO VRB03KT 10SM CLR 21/03 A3004 4270 32 5900 VRB/03 RMK AO2 T02060033
94299KAAT AAT20160809105011608/09/16 10:50:31  5-MIN KAAT 091850Z AUTO VRB04KT 10SM CLR 20/03 A3004 4270 31 5900 VRB/04 RMK AO2 SLP137 T02000028
94299KAAT AAT20160809105511608/09/16 10:55:31  5-MIN KAAT 091855Z AUTO 25004KT 10SM CLR 21/03 A3004 4270 30 5900 240/04 RMK AO2 SLP137 T02060028
94299KAAT AAT20160809110010908/09/16 11:00:31  5-MIN KAAT 091900Z AUTO VRB03KT 10SM CLR 21/02 A3004 4270 28 5900 VRB/03 RMK AO2 T02060017
94299KAAT AAT20160809110510908/09/16 11:05:31  5-MIN KAAT 091905Z AUTO 33006KT 10SM CLR 21/02 A3004 4270 28 6000 310/06 RMK AO2 T02110022
94299KAAT AAT20160809111010908/09/16 11:10:31  5-MIN KAAT 091910Z AUTO VRB04KT 10SM CLR 21/03 A3004 4270 29 6000 VRB/04 RMK AO2 T02110028
94299KAAT AAT20160809111510908/09/16 11:15:31  5-MIN KAAT 091915Z AUTO VRB06KT 10SM CLR 21/03 A3004 4270 29 6000 VRB/06 RMK AO2 T02110028
94299KAAT AAT20160809112010908/09/16 11:20:31  5-MIN KAAT 091920Z AUTO VRB06KT 10SM CLR 22/03 A3004 4270 28 6000 VRB/06 RMK AO2 T02170028
94299KAAT AAT20160809112510908/09/16 11:25:31  5-MIN KAAT 091925Z AUTO 33004KT 10SM CLR 22/02 A3003 4280 27 6000 310/04 RMK AO2 T02170022
94299KAAT AAT20160809113010908/09/16 11:30:31  5-MIN KAAT 091930Z AUTO 01007KT 10SM CLR 22/02 A3003 4280 27 6000 350/07 RMK AO2 T02170022
94299KAAT AAT20160809113510908/09/16 11:35:31  5-MIN KAAT 091935Z AUTO 01007KT 10SM CLR 22/02 A3003 4280 26 6100 350/07 RMK AO2 T02220022
94299KAAT AAT20160809114010908/09/16 11:40:31  5-MIN KAAT 091940Z AUTO VRB05KT 10SM CLR 22/02 A3003 4280 26 6000 VRB/05 RMK AO2 T02170017
94299KAAT AAT20160809114511508/09/16 11:45:31  5-MIN KAAT 091945Z AUTO 02007G14KT 10SM CLR 22/02 A3003 4280 25 6100 010/07G14 RMK AO2 T02220017
94299KAAT AAT20160809115012208/09/16 11:50:31  5-MIN KAAT 091950Z AUTO 33007G14KT 10SM CLR 22/02 A3003 4280 25 6100 310/07G14 RMK AO2 SLP131 T02220017
94299KAAT AAT20160809115511608/09/16 11:55:31  5-MIN KAAT 091955Z AUTO 01007KT 10SM CLR 22/01 A3003 4280 24 6100 360/07 RMK AO2 SLP130 T02220011
94299KAAT AAT20160809120010908/09/16 12:00:31  5-MIN KAAT 092000Z AUTO VRB04KT 10SM CLR 22/01 A3003 4280 24 6100 VRB/04 RMK AO2 T02220011
94299KAAT AAT20160809120510908/09/16 12:05:31  5-MIN KAAT 092005Z AUTO 33007KT 10SM CLR 23/02 A3003 4280 24 6200 320/07 RMK AO2 T02280017
94299KAAT AAT20160809121010908/09/16 12:10:31  5-MIN KAAT 092010Z AUTO 00000KT 10SM CLR 22/01 A3003 4280 24 6100 000/00 RMK AO2 T02220011
94299KAAT AAT20160809121509908/09/16 12:15:31  5-MIN KAAT 092015Z AUTO 10SM CLR 23/01 A3002 4280 23 6200 M /M RMK AO2 T02330011
94299KAAT AAT20160809122010908/09/16 12:20:31  5-MIN KAAT 092020Z AUTO 33006KT 10SM CLR 23/01 A3002 4290 22 6200 310/06 RMK AO2 T02280006
94299KAAT AAT20160809122510908/09/16 12:25:31  5-MIN KAAT 092025Z AUTO VRB04KT 10SM CLR 23/01 A3002 4290 22 6200 VRB/04 RMK AO2 T02280006
94299KAAT AAT20160809123010908/09/16 12:30:31  5-MIN KAAT 092030Z AUTO 24006KT 10SM CLR 23/00 A3002 4290 22 6200 230/06 RMK AO2 T02280000
94299KAAT AAT20160809123510908/09/16 12:35:31  5-MIN KAAT 092035Z AUTO 24004KT 10SM CLR 22/00 A3002 4290 22 6100 230/04 RMK AO2 T02220000
94299KAAT AAT20160809124010908/09/16 12:40:31  5-MIN KAAT 092040Z AUTO 26004KT 10SM CLR 23/01 A3001 4290 22 6300 250/04 RMK AO2 T02330006
94299KAAT AAT20160809124510908/09/16 12:45:31  5-MIN KAAT 092045Z AUTO 00000KT 10SM CLR 23/01 A3001 4300 22 6300 000/00 RMK AO2 T02330006
94299KAAT AAT20160809125012208/09/16 12:50:31  5-MIN KAAT 092050Z AUTO VRB05KT 10SM CLR 24/00 A3001 4300 20 6300 VRB/05 RMK AO2 SLP124 T02390000 58001
94299KAAT AAT20160809125512208/09/16 12:55:31  5-MIN KAAT 092055Z AUTO 02005KT 10SM CLR 24/00 A3001 4300 19 6400 360/05 RMK AO2 SLP122 T02440000 58012
94299KAAT AAT20160809130011008/09/16 13:00:31  5-MIN KAAT 092100Z AUTO 35007KT 10SM CLR 24/M01 A3001 4300 19 6300 340/07 RMK AO2 T02391006
94299KAAT AAT20160809130511008/09/16 13:05:31  5-MIN KAAT 092105Z AUTO 35005KT 10SM CLR 24/M01 A3001 4300 19 6300 340/05 RMK AO2 T02391011
94299KAAT AAT20160809131011008/09/16 13:10:31  5-MIN KAAT 092110Z AUTO VRB03KT 10SM CLR 24/M02 A3001 4300 18 6300 VRB/03 RMK AO2 T02391017
94299KAAT AAT20160809131511008/09/16 13:15:31  5-MIN KAAT 092115Z AUTO 35003KT 10SM CLR 24/M02 A3001 4300 17 6400 330/03 RMK AO2 T02441017
94299KAAT AAT20160809132010008/09/16 13:20:31  5-MIN KAAT 092120Z AUTO 10SM CLR 24/M02 A3001 4300 18 6300 M /M RMK AO2 T02391017
94299KAAT AAT20160809132511008/09/16 13:25:31  5-MIN KAAT 092125Z AUTO 00000KT 10SM CLR 24/M02 A3001 4300 17 6400 000/00 RMK AO2 T02441017
94299KAAT AAT20160809133011008/09/16 13:30:31  5-MIN KAAT 092130Z AUTO 26004KT 10SM CLR 24/M02 A3000 4300 18 6300 250/04 RMK AO2 T02391017
94299KAAT AAT20160809133511008/09/16 13:35:31  5-MIN KAAT 092135Z AUTO VRB05KT 10SM CLR 24/M02 A3000 4310 17 6400 VRB/05 RMK AO2 T02441017
94299KAAT AAT20160809134011008/09/16 13:40:31  5-MIN KAAT 092140Z AUTO VRB04KT 10SM CLR 24/M02 A3000 4310 17 6400 VRB/04 RMK AO2 T02441017
94299KAAT AAT20160809134511008/09/16 13:45:31  5-MIN KAAT 092145Z AUTO VRB04KT 10SM CLR 25/M02 A3000 4310 17 6500 VRB/04 RMK AO2 T02501017
94299KAAT AAT20160809135011708/09/16 13:50:31  5-MIN KAAT 092150Z AUTO 00000KT 10SM CLR 24/M02 A3000 4310 17 6400 000/00 RMK AO2 SLP121 T02441017
94299KAAT AAT20160809135511708/09/16 13:55:31  5-MIN KAAT 092155Z AUTO VRB05KT 10SM CLR 24/M02 A3000 4310 17 6400 VRB/05 RMK AO2 SLP120 T02441017
94299KAAT AAT20160809140010008/09/16 14:00:31  5-MIN KAAT 092200Z AUTO 10SM CLR 24/M01 A2999 4310 18 6400 M /M RMK AO2 T02441011
94299KAAT AAT20160809140511008/09/16 14:05:31  5-MIN KAAT 092205Z AUTO VRB03KT 10SM CLR 25/M01 A2999 4310 17 6500 VRB/03 RMK AO2 T02501011
94299KAAT AAT20160809141011008/09/16 14:10:31  5-MIN KAAT 092210Z AUTO 00000KT 10SM CLR 24/M02 A2999 4320 17 6400 000/00 RMK AO2 T02441017
94299KAAT AAT20160809141511008/09/16 14:15:31  5-MIN KAAT 092215Z AUTO 33004KT 10SM CLR 25/M02 A2999 4320 17 6500 320/04 RMK AO2 T02501017
94299KAAT AAT20160809142011008/09/16 14:20:31  5-MIN KAAT 092220Z AUTO 31007KT 10SM CLR 25/M02 A2999 4320 17 6500 300/07 RMK AO2 T02501017
94299KAAT AAT20160809142511008/09/16 14:25:31  5-MIN KAAT 092225Z AUTO 32007KT 10SM CLR 26/M02 A2999 4320 16 6500 310/07 RMK AO2 T02561017
94299KAAT AAT20160809143011008/09/16 14:30:31  5-MIN KAAT 092230Z AUTO 36005KT 10SM CLR 26/M02 A2999 4320 15 6500 340/05 RMK AO2 T02561022
94299KAAT AAT20160809143511008/09/16 14:35:31  5-MIN KAAT 092235Z AUTO VRB03KT 10SM CLR 26/M02 A2998 4320 15 6500 VRB/03 RMK AO2 T02561022
94299KAAT AAT20160809144011008/09/16 14:40:31  5-MIN KAAT 092240Z AUTO VRB06KT 10SM CLR 26/M02 A2998 4320 15 6500 VRB/06 RMK AO2 T02561022
94299KAAT AAT20160809144511008/09/16 14:45:31  5-MIN KAAT 092245Z AUTO VRB06KT 10SM CLR 26/M01 A2998 4320 17 6500 VRB/06 RMK AO2 T02561011
94299KAAT AAT20160809145011708/09/16 14:50:31  5-MIN KAAT 092250Z AUTO VRB05KT 10SM CLR 25/M02 A2998 4330 17 6500 VRB/05 RMK AO2 SLP115 T02501017
94299KAAT AAT20160809145511708/09/16 14:55:31  5-MIN KAAT 092255Z AUTO 01007KT 10SM CLR 26/M02 A2998 4330 16 6600 360/07 RMK AO2 SLP113 T02611017
94299KAAT AAT20160809150011008/09/16 15:00:31  5-MIN KAAT 092300Z AUTO VRB05KT 10SM CLR 26/M02 A2998 4330 16 6600 VRB/05 RMK AO2 T02611017
94299KAAT AAT20160809150511008/09/16 15:05:31  5-MIN KAAT 092305Z AUTO VRB05KT 10SM CLR 26/M01 A2998 4330 17 6500 VRB/05 RMK AO2 T02561011
94299KAAT AAT20160809151011008/09/16 15:10:31  5-MIN KAAT 092310Z AUTO 32008KT 10SM CLR 25/M01 A2998 4330 18 6500 300/08 RMK AO2 T02501006
94299KAAT AAT20160809151511008/09/16 15:15:31  5-MIN KAAT 092315Z AUTO VRB05KT 10SM CLR 25/M01 A2998 4330 18 6500 VRB/05 RMK AO2 T02501006
94299KAAT AAT20160809152011008/09/16 15:20:31  5-MIN KAAT 092320Z AUTO 34006KT 10SM CLR 26/M01 A2997 4330 17 6500 320/06 RMK AO2 T02561006
94299KAAT AAT20160809152511008/09/16 15:25:31  5-MIN KAAT 092325Z AUTO 32009KT 10SM CLR 26/M01 A2998 4330 17 6600 310/09 RMK AO2 T02611006
94299KAAT AAT20160809153011008/09/16 15:30:31  5-MIN KAAT 092330Z AUTO 31005KT 10SM CLR 26/M01 A2997 4330 17 6500 290/05 RMK AO2 T02561011
94299KAAT AAT20160809153511008/09/16 15:35:31  5-MIN KAAT 092335Z AUTO VRB05KT 10SM CLR 26/M01 A2997 4330 17 6500 VRB/05 RMK AO2 T02561011
94299KAAT AAT20160809154010008/09/16 15:40:31  5-MIN KAAT 092340Z AUTO 10SM CLR 26/M01 A2997 4330 17 6500 M /M RMK AO2 T02561006
94299KAAT AAT20160809154511008/09/16 15:45:31  5-MIN KAAT 092345Z AUTO VRB03KT 10SM CLR 26/M01 A2997 4340 17 6600 VRB/03 RMK AO2 T02611006
94299KAAT AAT20160809155013508/09/16 15:50:31  5-MIN KAAT 092350Z AUTO 31011KT 10SM CLR 26/M01 A2997 4330 17 6600 290/11 RMK AO2 SLP112 T02611006 10261 20183 58012
94299KAAT AAT20160809155513508/09/16 15:55:31  5-MIN KAAT 092355Z AUTO 32010KT 10SM CLR 26/M01 A2997 4330 17 6500 300/10 RMK AO2 SLP112 T02561006 10261 20183 56012
94299KAAT AAT20160809160011008/09/16 16:00:31  5-MIN KAAT 100000Z AUTO 35006KT 10SM CLR 26/M01 A2997 4330 17 6500 330/06 RMK AO2 T02561006
94299KAAT AAT20160809160511608/09/16 16:05:31  5-MIN KAAT 100005Z AUTO 32012G20KT 10SM CLR 26/M01 A2997 4330 17 6500 310/12G20 RMK AO2 T02561006
94299KAAT AAT20160809161011608/09/16 16:10:31  5-MIN KAAT 100010Z AUTO 33008G20KT 10SM CLR 26/M01 A2997 4330 17 6600 320/08G20 RMK AO2 T02611006
94299KAAT AAT20160809161512608/09/16 16:15:31  5-MIN KAAT 100015Z AUTO 28008KT 220V290 10SM CLR 26/M01 A2997 4330 17 6600 260/08 210V280 RMK AO2 T02611006
94299KAAT AAT20160809162011008/09/16 16:20:31  5-MIN KAAT 100020Z AUTO 31011KT 10SM CLR 26/M01 A2997 4330 17 6600 300/11 RMK AO2 T02611006
94299KAAT AAT20160809162511008/09/16 16:25:31  5-MIN KAAT 100025Z AUTO 30009KT 10SM CLR 26/M01 A2997 4330 17 6500 290/09 RMK AO2 T02561006
94299KAAT AAT20160809163011008/09/16 16:30:31  5-MIN KAAT 100030Z AUTO 29008KT 10SM CLR 26/M01 A2997 4330 17 6500 280/08 RMK AO2 T02561006
94299KAAT AAT20160809163511008/09/16 16:35:31  5-MIN KAAT 100035Z AUTO 30007KT 10SM CLR 26/M01 A2997 4330 17 6500 280/07 RMK AO2 T02561006
94299KAAT AAT20160809164011608/09/16 16:40:31  5-MIN KAAT 100040Z AUTO 30012G15KT 10SM CLR 25/M01 A2997 4330 17 6500 280/12G15 RMK AO2 T02501011
94299KAAT AAT20160809164511608/09/16 16:45:31  5-MIN KAAT 100045Z AUTO 31007G15KT 10SM CLR 26/M01 A2997 4330 17 6500 290/07G15 RMK AO2 T02561011
94299KAAT AAT20160809165012308/09/16 16:50:31  5-MIN KAAT 100050Z AUTO 31010G16KT 10SM CLR 26/M01 A2997 4330 17 6500 300/10G16 RMK AO2 SLP114 T02561011
94299KAAT AAT20160809165512308/09/16 16:55:31  5-MIN KAAT 100055Z AUTO 34008G16KT 10SM CLR 25/M01 A2997 4340 18 6500 320/08G16 RMK AO2 SLP114 T02501006
94299KAAT AAT20160809170011008/09/16 17:00:31  5-MIN KAAT 100100Z AUTO 31007KT 10SM CLR 24/M01 A2997 4330 19 6400 300/07 RMK AO2 T02441006
94299KAAT AAT20160809170511008/09/16 17:05:31  5-MIN KAAT 100105Z AUTO 31009KT 10SM CLR 24/M01 A2997 4330 19 6400 300/09 RMK AO2 T02391006
94299KAAT AAT20160809171011008/09/16 17:10:31  5-MIN KAAT 100110Z AUTO 32009KT 10SM CLR 24/M01 A2997 4330 19 6400 300/09 RMK AO2 T02391006
94299KAAT AAT20160809171510908/09/16 17:15:31  5-MIN KAAT 100115Z AUTO 31009KT 10SM CLR 24/00 A2997 4330 20 6400 300/09 RMK AO2 T02390000
94299KAAT AAT20160809172010908/09/16 17:20:31  5-MIN KAAT 100120Z AUTO 33009KT 10SM CLR 24/01 A2997 4330 20 6400 310/09 RMK AO2 T02440006
94299KAAT AAT20160809172510908/09/16 17:25:31  5-MIN KAAT 100125Z AUTO 33010KT 10SM CLR 24/01 A2997 4330 21 6400 320/10 RMK AO2 T02390006
94299KAAT AAT20160809173010908/09/16 17:30:31  5-MIN KAAT 100130Z AUTO 33009KT 10SM CLR 25/01 A2997 4330 20 6500 320/09 RMK AO2 T02500006
94299KAAT AAT20160809173510908/09/16 17:35:31  5-MIN KAAT 100135Z AUTO 32009KT 10SM CLR 25/01 A2997 4330 20 6500 300/09 RMK AO2 T02500006
94299KAAT AAT20160809174010908/09/16 17:40:31  5-MIN KAAT 100140Z AUTO 33011KT 10SM CLR 24/01 A2997 4330 20 6400 310/11 RMK AO2 T02440006
94299KAAT AAT20160809174510908/09/16 17:45:31  5-MIN KAAT 100145Z AUTO 32008KT 10SM CLR 24/01 A2997 4340 20 6400 310/08 RMK AO2 T02440006
94299KAAT AAT20160809175011608/09/16 17:50:31  5-MIN KAAT 100150Z AUTO 34011KT 10SM CLR 24/01 A2997 4340 21 6400 320/11 RMK AO2 SLP117 T02440011
94299KAAT AAT20160809175511608/09/16 17:55:31  5-MIN KAAT 100155Z AUTO 34010KT 10SM CLR 24/01 A2997 4340 22 6400 320/10 RMK AO2 SLP117 T02390011
94299KAAT AAT20160809180010908/09/16 18:00:31  5-MIN KAAT 100200Z AUTO 34008KT 10SM CLR 24/01 A2997 4340 22 6400 320/08 RMK AO2 T02390011
94299KAAT AAT20160809180510908/09/16 18:05:31  5-MIN KAAT 100205Z AUTO 33007KT 10SM CLR 24/01 A2997 4340 22 6400 320/07 RMK AO2 T02390011
94299KAAT AAT20160809181010908/09/16 18:10:31  5-MIN KAAT 100210Z AUTO 33007KT 10SM CLR 24/02 A2997 4340 23 6400 310/07 RMK AO2 T02390017
94299KAAT AAT20160809181510908/09/16 18:15:31  5-MIN KAAT 100215Z AUTO 32009KT 10SM CLR 24/01 A2997 4340 22 6400 310/09 RMK AO2 T02390011
94299KAAT AAT20160809182010908/09/16 18:20:31  5-MIN KAAT 100220Z AUTO 32010KT 10SM CLR 23/01 A2997 4330 22 6300 300/10 RMK AO2 T02330006
94299KAAT AAT20160809182510908/09/16 18:25:31  5-MIN KAAT 100225Z AUTO 32007KT 10SM CLR 23/01 A2997 4330 23 6300 310/07 RMK AO2 T02330011
94299KAAT AAT20160809183010908/09/16 18:30:31  5-MIN KAAT 100230Z AUTO 31006KT 10SM CLR 23/01 A2997 4330 22 6300 300/06 RMK AO2 T02330006
94299KAAT AAT20160809183510908/09/16 18:35:31  5-MIN KAAT 100235Z AUTO 32007KT 10SM CLR 23/01 A2997 4330 22 6200 300/07 RMK AO2 T02280006
94299KAAT AAT20160809184010908/09/16 18:40:31  5-MIN KAAT 100240Z AUTO 32006KT 10SM CLR 23/01 A2997 4330 23 6200 310/06 RMK AO2 T02280011
94299KAAT AAT20160809184510908/09/16 18:45:31  5-MIN KAAT 100245Z AUTO 32007KT 10SM CLR 23/01 A2998 4330 22 6200 300/07 RMK AO2 T02280006
94299KAAT AAT20160809185012208/09/16 18:50:31  5-MIN KAAT 100250Z AUTO 33006KT 10SM CLR 22/01 A2998 4330 24 6200 320/06 RMK AO2 SLP116 T02220011 56012
94299KAAT AAT20160809185512208/09/16 18:55:31  5-MIN KAAT 100255Z AUTO 32005KT 10SM CLR 21/02 A2998 4330 28 6100 310/05 RMK AO2 SLP116 T02110022 53001
94299KAAT AAT20160809190010908/09/16 19:00:31  5-MIN KAAT 100300Z AUTO 32005KT 10SM CLR 21/02 A2998 4330 28 6100 310/05 RMK AO2 T02110022
94299KAAT AAT20160809190510908/09/16 19:05:31  5-MIN KAAT 100305Z AUTO 33004KT 10SM CLR 21/02 A2998 4330 28 6000 310/04 RMK AO2 T02060017
94299KAAT AAT20160809191010908/09/16 19:10:31  5-MIN KAAT 100310Z AUTO 33005KT 10SM CLR 21/02 A2998 4330 28 6000 310/05 RMK AO2 T02060017
94299KAAT AAT20160809191510908/09/16 19:15:31  5-MIN KAAT 100315Z AUTO 31004KT 10SM CLR 21/02 A2998 4330 29 6000 300/04 RMK AO2 T02060022
94299KAAT AAT20160809192010908/09/16 19:20:31  5-MIN KAAT 100320Z AUTO 31005KT 10SM CLR 19/02 A2998 4330 31 5900 300/05 RMK AO2 T01940022
94299KAAT AAT20160809192510908/09/16 19:25:31  5-MIN KAAT 100325Z AUTO 31005KT 10SM CLR 19/03 A2998 4330 34 5800 290/05 RMK AO2 T01890028
94299KAAT AAT20160809193010908/09/16 19:30:31  5-MIN KAAT 100330Z AUTO 31005KT 10SM CLR 19/03 A2998 4320 34 5800 290/05 RMK AO2 T01890028
94299KAAT AAT20160809193510908/09/16 19:35:31  5-MIN KAAT 100335Z AUTO 30005KT 10SM CLR 19/02 A2998 4320 32 5800 280/05 RMK AO2 T01890022
94299KAAT AAT20160809194010908/09/16 19:40:31  5-MIN KAAT 100340Z AUTO 30005KT 10SM CLR 19/02 A2998 4320 32 5800 280/05 RMK AO2 T01890022
94299KAAT AAT20160809194510908/09/16 19:45:31  5-MIN KAAT 100345Z AUTO 30005KT 10SM CLR 19/02 A2998 4320 32 5800 280/05 RMK AO2 T01890022
94299KAAT AAT20160809195011608/09/16 19:50:31  5-MIN KAAT 100350Z AUTO 30005KT 10SM CLR 19/02 A2999 4320 31 5900 280/05 RMK AO2 SLP120 T01940022
94299KAAT AAT20160809195511608/09/16 19:55:31  5-MIN KAAT 100355Z AUTO 30006KT 10SM CLR 19/02 A2999 4320 32 5800 280/06 RMK AO2 SLP121 T01890022
94299KAAT AAT20160809200010908/09/16 20:00:31  5-MIN KAAT 100400Z AUTO 30005KT 10SM CLR 19/03 A2999 4320 34 5800 280/05 RMK AO2 T01890028
94299KAAT AAT20160809200510908/09/16 20:05:31  5-MIN KAAT 100405Z AUTO 29005KT 10SM CLR 19/03 A2999 4320 34 5800 280/05 RMK AO2 T01890028
94299KAAT AAT20160809201010908/09/16 20:10:31  5-MIN KAAT 100410Z AUTO 28004KT 10SM CLR 18/02 A2999 4310 34 5700 260/04 RMK AO2 T01830022
94299KAAT AAT20160809201510908/09/16 20:15:31  5-MIN KAAT 100415Z AUTO 28004KT 10SM CLR 18/02 A3000 4310 35 5700 260/04 RMK AO2 T01780022
94299KAAT AAT20160809202010908/09/16 20:20:31  5-MIN KAAT 100420Z AUTO 26004KT 10SM CLR 17/02 A3000 4310 36 5600 240/04 RMK AO2 T01720022
94299KAAT AAT20160809202510908/09/16 20:25:31  5-MIN KAAT 100425Z AUTO 25004KT 10SM CLR 17/02 A3000 4310 36 5600 240/04 RMK AO2 T01720022
94299KAAT AAT20160809203010908/09/16 20:30:31  5-MIN KAAT 100430Z AUTO 25003KT 10SM CLR 17/02 A3000 4310 36 5500 240/03 RMK AO2 T01670017
94299KAAT AAT20160809203510908/09/16 20:35:31  5-MIN KAAT 100435Z AUTO 00000KT 10SM CLR 17/02 A3000 4310 36 5600 000/00 RMK AO2 T01720022
94299KAAT AAT20160809204010908/09/16 20:40:31  5-MIN KAAT 100440Z AUTO 00000KT 10SM CLR 17/02 A3000 4310 36 5600 000/00 RMK AO2 T01720022
94299KAAT AAT20160809204510908/09/16 20:45:31  5-MIN KAAT 100445Z AUTO 26003KT 10SM CLR 18/02 A3000 4310 35 5600 250/03 RMK AO2 T01780022
94299KAAT AAT20160809205011608/09/16 20:50:31  5-MIN KAAT 100450Z AUTO 27003KT 10SM CLR 17/02 A3000 4300 36 5600 260/03 RMK AO2 SLP126 T01720022
94299KAAT AAT20160809205511608/09/16 20:55:31  5-MIN KAAT 100455Z AUTO 00000KT 10SM CLR 18/02 A3000 4300 35 5600 000/00 RMK AO2 SLP126 T01780022
94299KAAT AAT20160809210010908/09/16 21:00:31  5-MIN KAAT 100500Z AUTO 00000KT 10SM CLR 18/02 A3001 4300 35 5600 000/00 RMK AO2 T01780022
94299KAAT AAT20160809210510908/09/16 21:05:31  5-MIN KAAT 100505Z AUTO 27003KT 10SM CLR 18/02 A3001 4300 35 5600 260/03 RMK AO2 T01780022
94299KAAT AAT20160809211010908/09/16 21:10:31  5-MIN KAAT 100510Z AUTO 28003KT 10SM CLR 17/02 A3001 4300 36 5600 260/03 RMK AO2 T01720022
94299KAAT AAT20160809211510908/09/16 21:15:31  5-MIN KAAT 100515Z AUTO 28004KT 10SM CLR 17/03 A3001 4300 39 5600 260/04 RMK AO2 T01720033
94299KAAT AAT20160809212010908/09/16 21:20:31  5-MIN KAAT 100520Z AUTO 26003KT 10SM CLR 18/03 A3001 4300 38 5600 240/03 RMK AO2 T01780033
94299KAAT AAT20160809212510908/09/16 21:25:31  5-MIN KAAT 100525Z AUTO 00000KT 10SM CLR 17/03 A3001 4300 39 5600 000/00 RMK AO2 T01720033
94299KAAT AAT20160809213010908/09/16 21:30:31  5-MIN KAAT 100530Z AUTO 00000KT 10SM CLR 18/04 A3001 4300 39 5600 000/00 RMK AO2 T01780039
94299KAAT AAT20160809213510908/09/16 21:35:31  5-MIN KAAT 100535Z AUTO 00000KT 10SM CLR 18/04 A3001 4300 39 5600 000/00 RMK AO2 T01780039
94299KAAT AAT20160809214010908/09/16 21:40:31  5-MIN KAAT 100540Z AUTO 00000KT 10SM CLR 17/04 A3001 4300 41 5600 000/00 RMK AO2 T01720039
94299KAAT AAT20160809214510908/09/16 21:45:31  5-MIN KAAT 100545Z AUTO 00000KT 10SM CLR 17/04 A3001 4300 42 5500 000/00 RMK AO2 T01670039
94299KAAT AAT20160809215013408/09/16 21:50:31  5-MIN KAAT 100550Z AUTO 00000KT 10SM CLR 17/04 A3001 4300 42 5500 000/00 RMK AO2 SLP125 T01670039 10261 20167 53001
94299KAAT AAT20160809215513408/09/16 21:55:31  5-MIN KAAT 100555Z AUTO 00000KT 10SM CLR 17/04 A3001 4300 41 5600 000/00 RMK AO2 SLP125 T01720039 10261 20167 51010
94299KAAT AAT20160809220010908/09/16 22:00:31  5-MIN KAAT 100600Z AUTO 00000KT 10SM CLR 18/05 A3001 4300 42 5600 000/00 RMK AO2 T01780050
94299KAAT AAT20160809220510908/09/16 22:05:31  5-MIN KAAT 100605Z AUTO 00000KT 10SM CLR 17/05 A3001 4300 44 5600 000/00 RMK AO2 T01720050
94299KAAT AAT20160809221010908/09/16 22:10:31  5-MIN KAAT 100610Z AUTO VRB04KT 10SM CLR 18/05 A3001 4300 42 5600 VRB/04 RMK AO2 T01780050
94299KAAT AAT20160809221510908/09/16 22:15:31  5-MIN KAAT 100615Z AUTO 36004KT 10SM CLR 18/05 A3001 4300 41 5700 350/04 RMK AO2 T01830050
94299KAAT AAT20160809222010908/09/16 22:20:31  5-MIN KAAT 100620Z AUTO 35005KT 10SM CLR 18/05 A3001 4300 41 5700 330/05 RMK AO2 T01830050
94299KAAT AAT20160809222510908/09/16 22:25:31  5-MIN KAAT 100625Z AUTO 35003KT 10SM CLR 18/06 A3001 4300 42 5700 340/03 RMK AO2 T01830056
94299KAAT AAT20160809223010908/09/16 22:30:31  5-MIN KAAT 100630Z AUTO 00000KT 10SM CLR 18/05 A3001 4290 42 5600 000/00 RMK AO2 T01780050
94299KAAT AAT20160809223510908/09/16 22:35:31  5-MIN KAAT 100635Z AUTO 13004KT 10SM CLR 16/05 A3002 4290 47 5400 120/04 RMK AO2 T01610050
94299KAAT AAT20160809224010908/09/16 22:40:31  5-MIN KAAT 100640Z AUTO 15003KT 10SM CLR 15/05 A3002 4290 51 5300 140/03 RMK AO2 T01500050
94299KAAT AAT20160809224510908/09/16 22:45:31  5-MIN KAAT 100645Z AUTO 13003KT 10SM CLR 16/06 A3001 4290 51 5400 120/03 RMK AO2 T01560056
94299KAAT AAT20160809225011608/09/16 22:50:31  5-MIN KAAT 100650Z AUTO 15003KT 10SM CLR 16/06 A3002 4290 51 5400 130/03 RMK AO2 SLP128 T01560056
94299KAAT AAT20160809225511608/09/16 22:55:31  5-MIN KAAT 100655Z AUTO 00000KT 10SM CLR 15/06 A3002 4290 53 5300 000/00 RMK AO2 SLP128 T01500056
94299KAAT AAT20160809230010908/09/16 23:00:31  5-MIN KAAT 100700Z AUTO 00000KT 10SM CLR 15/06 A3002 4290 53 5300 000/00 RMK AO2 T01500056
94299KAAT AAT20160809230510908/09/16 23:05:31  5-MIN KAAT 100705Z AUTO 00000KT 10SM CLR 16/05 A3001 4290 49 5400 000/00 RMK AO2 T01560050
94299KAAT AAT20160809231010908/09/16 23:10:31  5-MIN KAAT 100710Z AUTO 00000KT 10SM CLR 15/04 A3001 4300 49 5300 000/00 RMK AO2 T01500044
94299KAAT AAT20160809231510908/09/16 23:15:31  5-MIN KAAT 100715Z AUTO 00000KT 10SM CLR 15/05 A3001 4300 51 5300 000/00 RMK AO2 T01500050
94299KAAT AAT20160809232010908/09/16 23:20:31  5-MIN KAAT 100720Z AUTO 00000KT 10SM CLR 15/04 A3001 4300 49 5300 000/00 RMK AO2 T01500044
94299KAAT AAT20160809232510908/09/16 23:25:31  5-MIN KAAT 100725Z AUTO 00000KT 10SM CLR 14/05 A3001 4290 53 5300 000/00 RMK AO2 T01440050
94299KAAT AAT20160809233010908/09/16 23:30:31  5-MIN KAAT 100730Z AUTO 00000KT 10SM CLR 14/05 A3002 4290 53 5300 000/00 RMK AO2 T01440050
94299KAAT AAT20160809233510908/09/16 23:35:31  5-MIN KAAT 100735Z AUTO 00000KT 10SM CLR 14/05 A3002 4290 55 5200 000/00 RMK AO2 T01390050
94299KAAT AAT20160809234010908/09/16 23:40:31  5-MIN KAAT 100740Z AUTO 00000KT 10SM CLR 15/06 A3002 4290 53 5300 000/00 RMK AO2 T01500056
94299KAAT AAT20160809234510908/09/16 23:45:31  5-MIN KAAT 100745Z AUTO 00000KT 10SM CLR 14/06 A3002 4290 55 5300 000/00 RMK AO2 T01440056
94299KAAT AAT20160809235012608/09/16 23:50:31  5-MIN KAAT 100750Z AUTO 00000KT 10SM CLR 14/05 A3001 4290 55 5200 000/00 RMK AO2 SLP127 T01390050 402610056
94299KAAT AAT20160809235512608/09/16 23:55:31  5-MIN KAAT 100755Z AUTO VRB03KT 10SM CLR 14/05 A3001 4290 53 5300 VRB/03 RMK AO2 SLP126 T01440050 402610056
94299KAAT AAT20160810000010908/10/16 00:00:31  5-MIN KAAT 100800Z AUTO 32003KT 10SM CLR 14/05 A3001 4290 53 5300 300/03 RMK AO2 T01440050
94299KAAT AAT20160810000510908/10/16 00:05:31  5-MIN KAAT 100805Z AUTO 31004KT 10SM CLR 14/05 A3001 4290 53 5300 300/04 RMK AO2 T01440050
94299KAAT AAT20160810001010908/10/16 00:10:31  5-MIN KAAT 100810Z AUTO 31003KT 10SM CLR 14/06 A3002 4290 55 5300 290/03 RMK AO2 T01440056
94299KAAT AAT20160810001510908/10/16 00:15:31  5-MIN KAAT 100815Z AUTO 00000KT 10SM CLR 14/06 A3002 4290 55 5300 000/00 RMK AO2 T01440056
94299KAAT AAT20160810002010908/10/16 00:20:31  5-MIN KAAT 100820Z AUTO 00000KT 10SM CLR 14/06 A3002 4290 55 5300 000/00 RMK AO2 T01440056
94299KAAT AAT20160810002510908/10/16 00:25:31  5-MIN KAAT 100825Z AUTO 29003KT 10SM CLR 14/06 A3002 4290 57 5200 280/03 RMK AO2 T01390056
94299KAAT AAT20160810003010908/10/16 00:30:31  5-MIN KAAT 100830Z AUTO VRB03KT 10SM CLR 13/05 A3002 4290 57 5100 VRB/03 RMK AO2 T01330050
94299KAAT AAT20160810003510908/10/16 00:35:31  5-MIN KAAT 100835Z AUTO 00000KT 10SM CLR 14/06 A3002 4290 57 5200 000/00 RMK AO2 T01390056
94299KAAT AAT20160810004010908/10/16 00:40:31  5-MIN KAAT 100840Z AUTO 00000KT 10SM CLR 14/05 A3002 4290 55 5200 000/00 RMK AO2 T01390050
94299KAAT AAT20160810004510908/10/16 00:45:31  5-MIN KAAT 100845Z AUTO 00000KT 10SM CLR 14/06 A3002 4290 57 5200 000/00 RMK AO2 T01390056
94299KAAT AAT20160810005012208/10/16 00:50:31  5-MIN KAAT 100850Z AUTO 00000KT 10SM CLR 14/05 A3002 4290 53 5300 000/00 RMK AO2 SLP123 T01440050 51010
94299KAAT AAT20160810005512208/10/16 00:55:31  5-MIN KAAT 100855Z AUTO 00000KT 10SM CLR 13/05 A3002 4290 57 5100 000/00 RMK AO2 SLP125 T01330050 51002
94299KAAT AAT20160810010010908/10/16 01:00:31  5-MIN KAAT 100900Z AUTO 00000KT 10SM CLR 13/05 A3002 4290 59 5100 000/00 RMK AO2 T01280050
94299KAAT AAT20160810010510908/10/16 01:05:31  5-MIN KAAT 100905Z AUTO 00000KT 10SM CLR 12/05 A3002 4290 61 5000 000/00 RMK AO2 T01220050
94299KAAT AAT20160810011010908/10/16 01:10:31  5-MIN KAAT 100910Z AUTO 00000KT 10SM CLR 13/05 A3002 4290 57 5100 000/00 RMK AO2 T01330050
94299KAAT AAT20160810011510908/10/16 01:15:31  5-MIN KAAT 100915Z AUTO 24003KT 10SM CLR 14/05 A3002 4290 55 5200 220/03 RMK AO2 T01390050
94299KAAT AAT20160810012010908/10/16 01:20:31  5-MIN KAAT 100920Z AUTO 00000KT 10SM CLR 13/04 A3002 4290 56 5100 000/00 RMK AO2 T01280044
94299KAAT AAT20160810012510908/10/16 01:25:31  5-MIN KAAT 100925Z AUTO 00000KT 10SM CLR 13/04 A3002 4290 56 5100 000/00 RMK AO2 T01280044
94299KAAT AAT20160810013010908/10/16 01:30:31  5-MIN KAAT 100930Z AUTO 00000KT 10SM CLR 13/04 A3002 4290 56 5100 000/00 RMK AO2 T01280044
94299KAAT AAT20160810013510908/10/16 01:35:31  5-MIN KAAT 100935Z AUTO 00000KT 10SM CLR 14/04 A3002 4290 52 5200 000/00 RMK AO2 T01390044
94299KAAT AAT20160810014010908/10/16 01:40:31  5-MIN KAAT 100940Z AUTO 00000KT 10SM CLR 14/04 A3002 4290 49 5300 000/00 RMK AO2 T01440039
94299KAAT AAT20160810014510908/10/16 01:45:31  5-MIN KAAT 100945Z AUTO VRB03KT 10SM CLR 14/04 A3002 4290 50 5200 VRB/03 RMK AO2 T01390039
94299KAAT AAT20160810015011608/10/16 01:50:31  5-MIN KAAT 100950Z AUTO 34003KT 10SM CLR 14/04 A3002 4290 50 5200 320/03 RMK AO2 SLP124 T01390039
94299KAAT AAT20160810015511608/10/16 01:55:31  5-MIN KAAT 100955Z AUTO 34003KT 10SM CLR 13/04 A3002 4290 54 5100 330/03 RMK AO2 SLP125 T01280039
94299KAAT AAT20160810020010908/10/16 02:00:31  5-MIN KAAT 101000Z AUTO 35003KT 10SM CLR 12/04 A3002 4290 56 5000 330/03 RMK AO2 T01220039
94299KAAT AAT20160810020510908/10/16 02:05:31  5-MIN KAAT 101005Z AUTO 32003KT 10SM CLR 12/04 A3002 4290 59 5000 300/03 RMK AO2 T01220044
94299KAAT AAT20160810021010908/10/16 02:10:31  5-MIN KAAT 101010Z AUTO 32003KT 10SM CLR 12/04 A3002 4290 59 5000 310/03 RMK AO2 T01220044
94299KAAT AAT20160810021510908/10/16 02:15:31  5-MIN KAAT 101015Z AUTO 33003KT 10SM CLR 13/05 A3002 4290 59 5100 310/03 RMK AO2 T01280050
94299KAAT AAT20160810022010908/10/16 02:20:31  5-MIN KAAT 101020Z AUTO 30003KT 10SM CLR 12/04 A3002 4290 59 5000 280/03 RMK AO2 T01220044
94299KAAT AAT20160810022510908/10/16 02:25:31  5-MIN KAAT 101025Z AUTO 00000KT 10SM CLR 12/05 A3002 4290 61 5000 000/00 RMK AO2 T01220050
94299KAAT AAT20160810023010908/10/16 02:30:31  5-MIN KAAT 101030Z AUTO 00000KT 10SM CLR 12/04 A3002 4290 61 4900 000/00 RMK AO2 T01170044
94299KAAT AAT20160810023510908/10/16 02:35:31  5-MIN KAAT 101035Z AUTO 00000KT 10SM CLR 12/04 A3002 4290 61 4900 000/00 RMK AO2 T01170044
94299KAAT AAT20160810024010908/10/16 02:40:31  5-MIN KAAT 101040Z AUTO 00000KT 10SM CLR 12/04 A3002 4290 59 5000 000/00 RMK AO2 T01220044
94299KAAT AAT20160810024510908/10/16 02:45:31  5-MIN KAAT 101045Z AUTO 00000KT 10SM CLR 12/04 A3002 4290 59 5000 000/00 RMK AO2 T01220044
94299KAAT AAT20160810025011608/10/16 02:50:31  5-MIN KAAT 101050Z AUTO 00000KT 10SM CLR 11/06 A3002 4290 68 4900 000/00 RMK AO2 SLP127 T01110056
94299KAAT AAT20160810025511608/10/16 02:55:31  5-MIN KAAT 101055Z AUTO 12003KT 10SM CLR 11/06 A3002 4290 71 4900 110/03 RMK AO2 SLP126 T01110061
94299KAAT AAT20160810030010908/10/16 03:00:31  5-MIN KAAT 101100Z AUTO 00000KT 10SM CLR 11/06 A3002 4290 71 4900 000/00 RMK AO2 T01110061
94299KAAT AAT20160810030510908/10/16 03:05:31  5-MIN KAAT 101105Z AUTO 00000KT 10SM CLR 12/06 A3002 4290 68 4900 000/00 RMK AO2 T01170061
94299KAAT AAT20160810031010908/10/16 03:10:31  5-MIN KAAT 101110Z AUTO 00000KT 10SM CLR 12/06 A3002 4290 68 4900 000/00 RMK AO2 T01170061
94299KAAT AAT20160810031510908/10/16 03:15:31  5-MIN KAAT 101115Z AUTO 00000KT 10SM CLR 12/06 A3002 4290 66 4900 000/00 RMK AO2 T01170056
94299KAAT AAT20160810032010908/10/16 03:20:31  5-MIN KAAT 101120Z AUTO 00000KT 10SM CLR 11/04 A3002 4290 66 4800 000/00 RMK AO2 T01060044
94299KAAT AAT20160810032510908/10/16 03:25:31  5-MIN KAAT 101125Z AUTO 34003KT 10SM CLR 11/04 A3002 4290 66 4800 330/03 RMK AO2 T01060044
94299KAAT AAT20160810033010908/10/16 03:30:31  5-MIN KAAT 101130Z AUTO 35003KT 10SM CLR 11/05 A3002 4290 66 4900 340/03 RMK AO2 T01110050
94299KAAT AAT20160810033510908/10/16 03:35:31  5-MIN KAAT 101135Z AUTO 00000KT 10SM CLR 11/05 A3002 4280 66 4900 000/00 RMK AO2 T01110050
94299KAAT AAT20160810034010908/10/16 03:40:31  5-MIN KAAT 101140Z AUTO 00000KT 10SM CLR 11/05 A3003 4280 66 4900 000/00 RMK AO2 T01110050
94299KAAT AAT20160810034510908/10/16 03:45:31  5-MIN KAAT 101145Z AUTO 00000KT 10SM CLR 11/04 A3003 4280 66 4800 000/00 RMK AO2 T01060044
94299KAAT AAT20160810035013408/10/16 03:50:31  5-MIN KAAT 101150Z AUTO 00000KT 10SM CLR 11/05 A3003 4280 68 4800 000/00 RMK AO2 SLP131 T01060050 10189 20100 51002
94299KAAT AAT20160810035513408/10/16 03:55:31  5-MIN KAAT 101155Z AUTO 08003KT 10SM CLR 11/05 A3003 4280 68 4800 070/03 RMK AO2 SLP132 T01060050 10189 20100 53004
94299KAAT AAT20160810040010908/10/16 04:00:31  5-MIN KAAT 101200Z AUTO 06003KT 10SM CLR 10/05 A3003 4280 71 4700 050/03 RMK AO2 T01000050
94299KAAT AAT20160810040510908/10/16 04:05:31  5-MIN KAAT 101205Z AUTO 07004KT 10SM CLR 11/04 A3003 4280 63 4900 060/04 RMK AO2 T01110044
94299KAAT AAT20160810041010908/10/16 04:10:31  5-MIN KAAT 101210Z AUTO 09003KT 10SM CLR 11/04 A3003 4280 66 4800 070/03 RMK AO2 T01060044
94299KAAT AAT20160810041510908/10/16 04:15:31  5-MIN KAAT 101215Z AUTO 08003KT 10SM CLR 11/04 A3003 4280 63 4900 070/03 RMK AO2 T01110044
94299KAAT AAT20160810042010908/10/16 04:20:31  5-MIN KAAT 101220Z AUTO 00000KT 10SM CLR 11/04 A3004 4280 66 4800 000/00 RMK AO2 T01060044
94299KAAT AAT20160810042510908/10/16 04:25:31  5-MIN KAAT 101225Z AUTO 07003KT 10SM CLR 11/04 A3004 4270 66 4800 050/03 RMK AO2 T01060044
94299KAAT AAT20160810043010908/10/16 04:30:31  5-MIN KAAT 101230Z AUTO 08004KT 10SM CLR 11/04 A3004 4270 63 4800 060/04 RMK AO2 T01060039
94299KAAT AAT20160810043510908/10/16 04:35:31  5-MIN KAAT 101235Z AUTO 08004KT 10SM CLR 11/04 A3004 4270 63 4800 060/04 RMK AO2 T01060039
94299KAAT AAT20160810044010908/10/16 04:40:31  5-MIN KAAT 101240Z AUTO 08004KT 10SM CLR 11/04 A3004 4270 61 4800 070/04 RMK AO2 T01110039
94299KAAT AAT20160810044510908/10/16 04:45:31  5-MIN KAAT 101245Z AUTO 08004KT 10SM CLR 11/04 A3004 4270 61 4800 070/04 RMK AO2 T01110039
94299KAAT AAT20160810045011608/10/16 04:50:31  5-MIN KAAT 101250Z AUTO 08004KT 10SM CLR 11/04 A3004 4270 61 4800 070/04 RMK AO2 SLP136 T01110039
94299KAAT AAT20160810045511608/10/16 04:55:31  5-MIN KAAT 101255Z AUTO 10004KT 10SM CLR 11/04 A3004 4270 63 4800 090/04 RMK AO2 SLP137 T01060039
94299KAAT AAT20160810050010908/10/16 05:00:31  5-MIN KAAT 101300Z AUTO 09003KT 10SM CLR 11/04 A3004 4270 63 4800 070/03 RMK AO2 T01060039
94299KAAT AAT20160810050510908/10/16 05:05:31  5-MIN KAAT 101305Z AUTO 08003KT 10SM CLR 10/03 A3005 4270 63 4700 070/03 RMK AO2 T01000033
94299KAAT AAT20160810051010908/10/16 05:10:31  5-MIN KAAT 101310Z AUTO 07004KT 10SM CLR 09/04 A3005 4270 68 4600 050/04 RMK AO2 T00940039
94299KAAT AAT20160810051510908/10/16 05:15:31  5-MIN KAAT 101315Z AUTO 07006KT 10SM CLR 10/04 A3005 4270 65 4700 060/06 RMK AO2 T01000039
94299KAAT AAT20160810052010908/10/16 05:20:31  5-MIN KAAT 101320Z AUTO 08005KT 10SM CLR 11/04 A3005 4260 63 4800 060/05 RMK AO2 T01060039
94299KAAT AAT20160810052510908/10/16 05:25:31  5-MIN KAAT 101325Z AUTO 07006KT 10SM CLR 11/04 A3005 4260 63 4800 060/06 RMK AO2 T01060039
94299KAAT AAT20160810053010908/10/16 05:30:31  5-MIN KAAT 101330Z AUTO 07006KT 10SM CLR 11/04 A3005 4260 63 4800 060/06 RMK AO2 T01060039
94299KAAT AAT20160810053510908/10/16 05:35:31  5-MIN KAAT 101335Z AUTO 07006KT 10SM CLR 11/04 A3005 4260 63 4800 060/06 RMK AO2 T01060039
94299KAAT AAT20160810154011808/10/16 15:40:31  5-MIN KAAT 102340Z AUTO 36009KT 10SM FEW110 28/M02 A3002 4290 13 6800 340/09 RMK AO2 T02831022 TSNO
94299KAAT AAT20160810154511808/10/16 15:45:31  5-MIN KAAT 102345Z AUTO 35005KT 10SM FEW110 29/M02 A3002 4290 13 6900 330/05 RMK AO2 T02891022 TSNO
94299KAAT AAT20160810155014008/10/16 15:50:31  5-MIN KAAT 102350Z AUTO 02007KT 10SM CLR 28/M03 A3002 4290 13 6800 010/07 RMK AO2 SLP124 T02831028 10289 20222 56007 TSNO
94299KAAT AAT20160810155514008/10/16 15:55:31  5-MIN KAAT 102355Z AUTO VRB03KT 10SM CLR 29/M03 A3002 4290 12 6900 VRB/03 RMK AO2 SLP123 T02891028 10289 20222 56008 TSNO
94299KAAT AAT20160810160011508/10/16 16:00:31  5-MIN KAAT 110000Z AUTO 32004KT 10SM CLR 28/M03 A3002 4290 13 6800 300/04 RMK AO2 T02831028 TSNO
94299KAAT AAT20160810160511508/10/16 16:05:31  5-MIN KAAT 110005Z AUTO VRB04KT 10SM CLR 28/M02 A3002 4290 13 6800 VRB/04 RMK AO2 T02831022 TSNO
94299KAAT AAT20160810161011508/10/16 16:10:31  5-MIN KAAT 110010Z AUTO VRB04KT 10SM CLR 28/M02 A3002 4290 13 6800 VRB/04 RMK AO2 T02831022 TSNO
94299KAAT AAT20160810161511508/10/16 16:15:31  5-MIN KAAT 110015Z AUTO 33007KT 10SM CLR 28/M03 A3002 4290 13 6800 310/07 RMK AO2 T02831028 TSNO
94299KAAT AAT20160810162011508/10/16 16:20:31  5-MIN KAAT 110020Z AUTO 31009KT 10SM CLR 28/M03 A3002 4290 13 6800 300/09 RMK AO2 T02831028 TSNO
94299KAAT AAT20160810162511508/10/16 16:25:31  5-MIN KAAT 110025Z AUTO VRB04KT 10SM CLR 28/M03 A3001 4300 12 6700 VRB/04 RMK AO2 T02781033 TSNO
94299KAAT AAT20160810163011508/10/16 16:30:31  5-MIN KAAT 110030Z AUTO VRB04KT 10SM CLR 28/M03 A3001 4300 12 6700 VRB/04 RMK AO2 T02781033 TSNO
94299KAAT AAT20160810163511508/10/16 16:35:31  5-MIN KAAT 110035Z AUTO 36009KT 10SM CLR 29/M03 A3002 4290 12 6900 350/09 RMK AO2 T02891028 TSNO
94299KAAT AAT20160810164011508/10/16 16:40:31  5-MIN KAAT 110040Z AUTO 34003KT 10SM CLR 28/M03 A3001 4290 12 6800 320/03 RMK AO2 T02831033 TSNO
94299KAAT AAT20160810164511508/10/16 16:45:31  5-MIN KAAT 110045Z AUTO 03006KT 10SM CLR 28/M03 A3001 4290 12 6800 010/06 RMK AO2 T02831033 TSNO
94299KAAT AAT20160810165012208/10/16 16:50:31  5-MIN KAAT 110050Z AUTO 31010KT 10SM CLR 28/M03 A3002 4290 13 6800 290/10 RMK AO2 SLP123 T02831028 TSNO
94299KAAT AAT20160810165512208/10/16 16:55:31  5-MIN KAAT 110055Z AUTO 31006KT 10SM CLR 28/M02 A3002 4290 13 6800 290/06 RMK AO2 SLP124 T02831022 TSNO
94299KAAT AAT20160810170011508/10/16 17:00:31  5-MIN KAAT 110100Z AUTO 29006KT 10SM CLR 28/M03 A3002 4290 13 6800 280/06 RMK AO2 T02831028 TSNO
94299KAAT AAT20160810170511508/10/16 17:05:31  5-MIN KAAT 110105Z AUTO 28006KT 10SM CLR 28/M03 A3002 4290 12 6700 270/06 RMK AO2 T02781033 TSNO
94299KAAT AAT20160810171011508/10/16 17:10:31  5-MIN KAAT 110110Z AUTO 28005KT 10SM CLR 28/M03 A3002 4290 12 6700 270/05 RMK AO2 T02781033 TSNO
94299KAAT AAT20160810171511508/10/16 17:15:31  5-MIN KAAT 110115Z AUTO 30005KT 10SM CLR 28/M03 A3002 4290 13 6700 290/05 RMK AO2 T02781028 TSNO
94299KAAT AAT20160810172011508/10/16 17:20:31  5-MIN KAAT 110120Z AUTO 33006KT 10SM CLR 28/M03 A3002 4290 13 6700 320/06 RMK AO2 T02781028 TSNO
94299KAAT AAT20160810172511008/10/16 17:25:31  5-MIN KAAT 110125Z AUTO 32009KT 10SM CLR 28/M02 A3002 4290 13 6700 310/09 RMK AO2 T02781022
94299KAAT AAT20160810173011008/10/16 17:30:31  5-MIN KAAT 110130Z AUTO 33009KT 10SM CLR 27/M02 A3002 4290 15 6700 310/09 RMK AO2 T02721017
94299KAAT AAT20160810173511008/10/16 17:35:31  5-MIN KAAT 110135Z AUTO 32006KT 10SM CLR 28/M02 A3002 4290 13 6700 310/06 RMK AO2 T02781022
94299KAAT AAT20160810174011008/10/16 17:40:31  5-MIN KAAT 110140Z AUTO 32007KT 10SM CLR 28/M03 A3002 4290 12 6700 310/07 RMK AO2 T02781033
94299KAAT AAT20160810174511008/10/16 17:45:31  5-MIN KAAT 110145Z AUTO 31007KT 10SM CLR 28/M03 A3002 4290 13 6700 290/07 RMK AO2 T02781028
94299KAAT AAT20160810175011708/10/16 17:50:31  5-MIN KAAT 110150Z AUTO 30010KT 10SM CLR 27/M03 A3002 4290 13 6700 280/10 RMK AO2 SLP127 T02721033
94299KAAT AAT20160810175511708/10/16 17:55:31  5-MIN KAAT 110155Z AUTO 30008KT 10SM CLR 27/M03 A3002 4290 13 6700 280/08 RMK AO2 SLP127 T02721033
94299KAAT AAT20160810180011008/10/16 18:00:31  5-MIN KAAT 110200Z AUTO 30006KT 10SM CLR 27/M03 A3002 4290 13 6700 280/06 RMK AO2 T02721033
94299KAAT AAT20160810180511008/10/16 18:05:31  5-MIN KAAT 110205Z AUTO 34007KT 10SM CLR 27/M02 A3002 4290 14 6600 320/07 RMK AO2 T02671022
94299KAAT AAT20160810181011008/10/16 18:10:31  5-MIN KAAT 110210Z AUTO 33005KT 10SM CLR 27/M03 A3002 4290 14 6600 320/05 RMK AO2 T02671028
94299KAAT AAT20160810181511008/10/16 18:15:31  5-MIN KAAT 110215Z AUTO 31008KT 10SM CLR 27/M02 A3002 4290 14 6600 290/08 RMK AO2 T02671022
94299KAAT AAT20160810182011008/10/16 18:20:31  5-MIN KAAT 110220Z AUTO 31007KT 10SM CLR 26/M02 A3002 4290 15 6500 300/07 RMK AO2 T02611022
94299KAAT AAT20160810182511008/10/16 18:25:31  5-MIN KAAT 110225Z AUTO 31007KT 10SM CLR 26/M02 A3002 4280 15 6500 290/07 RMK AO2 T02561022
94299KAAT AAT20160810183011008/10/16 18:30:31  5-MIN KAAT 110230Z AUTO 31008KT 10SM CLR 26/M02 A3003 4280 16 6500 300/08 RMK AO2 T02561017
94299KAAT AAT20160810183511008/10/16 18:35:31  5-MIN KAAT 110235Z AUTO 30007KT 10SM CLR 25/M02 A3003 4280 17 6400 290/07 RMK AO2 T02501017
94299KAAT AAT20160810184011008/10/16 18:40:31  5-MIN KAAT 110240Z AUTO 30007KT 10SM CLR 24/M02 A3003 4280 17 6400 290/07 RMK AO2 T02441017
94299KAAT AAT20160810184511008/10/16 18:45:31  5-MIN KAAT 110245Z AUTO 31006KT 10SM CLR 24/M01 A3003 4280 18 6400 290/06 RMK AO2 T02441011
94299KAAT AAT20160810185012308/10/16 18:50:31  5-MIN KAAT 110250Z AUTO 32005KT 10SM CLR 23/M01 A3003 4280 20 6200 300/05 RMK AO2 SLP131 T02331006 56008
94299KAAT AAT20160810185512308/10/16 18:55:31  5-MIN KAAT 110255Z AUTO 32006KT 10SM CLR 23/M01 A3003 4280 21 6200 300/06 RMK AO2 SLP133 T02281006 53004
94299KAAT AAT20160810190011008/10/16 19:00:31  5-MIN KAAT 110300Z AUTO 31007KT 10SM CLR 23/M02 A3003 4280 19 6200 300/07 RMK AO2 T02281017
94299KAAT AAT20160810190511008/10/16 19:05:31  5-MIN KAAT 110305Z AUTO 32006KT 10SM CLR 22/M03 A3003 4280 18 6100 310/06 RMK AO2 T02221028
94299KAAT AAT20160810191011008/10/16 19:10:31  5-MIN KAAT 110310Z AUTO 32006KT 10SM CLR 23/M03 A3004 4270 17 6200 300/06 RMK AO2 T02281033
94299KAAT AAT20160810191511008/10/16 19:15:31  5-MIN KAAT 110315Z AUTO 31006KT 10SM CLR 22/M03 A3004 4270 17 6100 300/06 RMK AO2 T02221033
94299KAAT AAT20160810192011008/10/16 19:20:31  5-MIN KAAT 110320Z AUTO 30005KT 10SM CLR 22/M03 A3004 4270 19 6000 290/05 RMK AO2 T02171028
94299KAAT AAT20160810192511008/10/16 19:25:31  5-MIN KAAT 110325Z AUTO 31006KT 10SM CLR 21/M03 A3004 4270 20 6000 300/06 RMK AO2 T02111028
94299KAAT AAT20160810193011008/10/16 19:30:31  5-MIN KAAT 110330Z AUTO 32005KT 10SM CLR 21/M02 A3004 4270 21 5900 310/05 RMK AO2 T02061022
94299KAAT AAT20160810193511008/10/16 19:35:31  5-MIN KAAT 110335Z AUTO 36003KT 10SM CLR 21/M03 A3005 4270 20 6000 340/03 RMK AO2 T02111028
94299KAAT AAT20160810194011008/10/16 19:40:31  5-MIN KAAT 110340Z AUTO 35004KT 10SM CLR 21/M04 A3005 4260 19 5900 340/04 RMK AO2 T02061039
94299KAAT AAT20160810194511008/10/16 19:45:31  5-MIN KAAT 110345Z AUTO 35006KT 10SM CLR 21/M03 A3005 4260 19 6000 330/06 RMK AO2 T02111033
94299KAAT AAT20160810195011708/10/16 19:50:31  5-MIN KAAT 110350Z AUTO 35005KT 10SM CLR 22/M03 A3005 4260 18 6000 330/05 RMK AO2 SLP135 T02171033
94299KAAT AAT20160810195511708/10/16 19:55:31  5-MIN KAAT 110355Z AUTO 34006KT 10SM CLR 22/M04 A3005 4260 17 6000 330/06 RMK AO2 SLP136 T02171039
94299KAAT AAT20160810200011008/10/16 20:00:31  5-MIN KAAT 110400Z AUTO 34005KT 10SM CLR 22/M04 A3006 4260 17 6000 320/05 RMK AO2 T02171039
94299KAAT AAT20160810200511008/10/16 20:05:31  5-MIN KAAT 110405Z AUTO 34005KT 10SM CLR 22/M03 A3006 4250 18 6000 320/05 RMK AO2 T02171033
94299KAAT AAT20160810201011008/10/16 20:10:31  5-MIN KAAT 110410Z AUTO 34005KT 10SM CLR 21/M03 A3006 4250 20 6000 330/05 RMK AO2 T02111028
94299KAAT AAT20160810201511008/10/16 20:15:31  5-MIN KAAT 110415Z AUTO 34005KT 10SM CLR 21/M03 A3006 4250 20 6000 330/05 RMK AO2 T02111028
94299KAAT AAT20160810202011008/10/16 20:20:31  5-MIN KAAT 110420Z AUTO 34005KT 10SM CLR 21/M02 A3006 4250 20 6000 330/05 RMK AO2 T02111022
94299KAAT AAT20160810202511008/10/16 20:25:31  5-MIN KAAT 110425Z AUTO 35005KT 10SM CLR 21/M02 A3007 4250 20 6000 340/05 RMK AO2 T02111022
94299KAAT AAT20160810203011008/10/16 20:30:31  5-MIN KAAT 110430Z AUTO 35005KT 10SM CLR 21/M02 A3007 4250 21 5900 340/05 RMK AO2 T02061022
94299KAAT AAT20160810203511008/10/16 20:35:31  5-MIN KAAT 110435Z AUTO 36005KT 10SM CLR 21/M02 A3007 4250 21 5900 340/05 RMK AO2 T02061022
94299KAAT AAT20160810204011008/10/16 20:40:31  5-MIN KAAT 110440Z AUTO 35005KT 10SM CLR 21/M02 A3007 4250 22 5900 340/05 RMK AO2 T02061017
94299KAAT AAT20160810204511008/10/16 20:45:31  5-MIN KAAT 110445Z AUTO 35005KT 10SM CLR 21/M02 A3007 4250 22 5900 340/05 RMK AO2 T02061017
94299KAAT AAT20160810205011708/10/16 20:50:31  5-MIN KAAT 110450Z AUTO 35004KT 10SM CLR 21/M01 A3007 4240 23 5900 330/04 RMK AO2 SLP139 T02061011
94299KAAT AAT20160810205511708/10/16 20:55:31  5-MIN KAAT 110455Z AUTO 34003KT 10SM CLR 19/M01 A3007 4240 25 5800 320/03 RMK AO2 SLP141 T01941011
94299KAAT AAT20160810210011008/10/16 21:00:31  5-MIN KAAT 110500Z AUTO 35003KT 10SM CLR 19/M01 A3007 4240 25 5700 330/03 RMK AO2 T01891011
94299KAAT AAT20160810210511008/10/16 21:05:31  5-MIN KAAT 110505Z AUTO 00000KT 10SM CLR 19/M02 A3007 4240 24 5800 000/00 RMK AO2 T01941017
94299KAAT AAT20160810211011008/10/16 21:10:31  5-MIN KAAT 110510Z AUTO 09003KT 10SM CLR 19/M02 A3007 4240 24 5700 080/03 RMK AO2 T01891017
94299KAAT AAT20160810211510908/10/16 21:15:31  5-MIN KAAT 110515Z AUTO 12004KT 10SM CLR 17/00 A3007 4240 31 5500 110/04 RMK AO2 T01720000
94299KAAT AAT20160810212010908/10/16 21:20:31  5-MIN KAAT 110520Z AUTO 13007KT 10SM CLR 17/01 A3007 4240 33 5400 120/07 RMK AO2 T01670006
94299KAAT AAT20160810212510908/10/16 21:25:31  5-MIN KAAT 110525Z AUTO 13006KT 10SM CLR 17/00 A3007 4240 31 5500 120/06 RMK AO2 T01720000
94299KAAT AAT20160810213011008/10/16 21:30:31  5-MIN KAAT 110530Z AUTO VRB05KT 10SM CLR 17/M01 A3008 4240 29 5500 VRB/05 RMK AO2 T01721006
94299KAAT AAT20160810213510908/10/16 21:35:31  5-MIN KAAT 110535Z AUTO 12005KT 10SM CLR 17/00 A3008 4230 32 5400 110/05 RMK AO2 T01670000
94299KAAT AAT20160810214010908/10/16 21:40:31  5-MIN KAAT 110540Z AUTO 14006KT 10SM CLR 17/01 A3008 4230 33 5400 130/06 RMK AO2 T01670006
94299KAAT AAT20160810214510908/10/16 21:45:31  5-MIN KAAT 110545Z AUTO 19005KT 10SM CLR 17/02 A3008 4230 37 5400 170/05 RMK AO2 T01670022
94299KAAT AAT20160810215013408/10/16 21:50:31  5-MIN KAAT 110550Z AUTO 18006KT 10SM CLR 16/02 A3008 4230 37 5400 160/06 RMK AO2 SLP149 T01610017 10289 20161 53004
94299KAAT AAT20160810215513408/10/16 21:55:31  5-MIN KAAT 110555Z AUTO 17005KT 10SM CLR 18/00 A3008 4230 30 5600 150/05 RMK AO2 SLP144 T01780000 10289 20161 51015
94299KAAT AAT20160810220011008/10/16 22:00:31  5-MIN KAAT 110600Z AUTO 17005KT 10SM CLR 18/M01 A3008 4230 28 5600 150/05 RMK AO2 T01781006
94299KAAT AAT20160810220510908/10/16 22:05:31  5-MIN KAAT 110605Z AUTO 14004KT 10SM CLR 18/00 A3009 4220 30 5500 120/04 RMK AO2 T01780000
94299KAAT AAT20160810221010908/10/16 22:10:31  5-MIN KAAT 110610Z AUTO 09006KT 10SM CLR 17/01 A3009 4220 32 5500 070/06 RMK AO2 T01720006
94299KAAT AAT20160810221510908/10/16 22:15:31  5-MIN KAAT 110615Z AUTO 12004KT 10SM CLR 18/00 A3009 4220 30 5500 110/04 RMK AO2 T01780000
94299KAAT AAT20160810222010908/10/16 22:20:31  5-MIN KAAT 110620Z AUTO 14003KT 10SM CLR 18/00 A3009 4220 30 5500 130/03 RMK AO2 T01780000
94299KAAT AAT20160810222510908/10/16 22:25:31  5-MIN KAAT 110625Z AUTO 19003KT 10SM CLR 16/00 A3009 4220 33 5400 180/03 RMK AO2 T01610000
94299KAAT AAT20160810223010908/10/16 22:30:31  5-MIN KAAT 110630Z AUTO 20004KT 10SM CLR 14/00 A3009 4220 38 5100 190/04 RMK AO2 T01390000
94299KAAT AAT20160810223510908/10/16 22:35:31  5-MIN KAAT 110635Z AUTO 00000KT 10SM CLR 13/01 A3010 4220 41 5000 000/00 RMK AO2 T01330006
94299KAAT AAT20160810224010908/10/16 22:40:31  5-MIN KAAT 110640Z AUTO 19004KT 10SM CLR 14/02 A3010 4220 43 5100 170/04 RMK AO2 T01390017
94299KAAT AAT20160810224510908/10/16 22:45:31  5-MIN KAAT 110645Z AUTO VRB04KT 10SM CLR 14/01 A3010 4220 38 5200 VRB/04 RMK AO2 T01440006
94299KAAT AAT20160810225011608/10/16 22:50:31  5-MIN KAAT 110650Z AUTO 13003KT 10SM CLR 16/02 A3010 4220 39 5300 110/03 RMK AO2 SLP151 T01560017
94299KAAT AAT20160810225511608/10/16 22:55:31  5-MIN KAAT 110655Z AUTO 00000KT 10SM CLR 15/01 A3010 4220 38 5200 000/00 RMK AO2 SLP152 T01500011
94299KAAT AAT20160810230010908/10/16 23:00:31  5-MIN KAAT 110700Z AUTO 12004KT 10SM CLR 16/02 A3010 4220 37 5400 110/04 RMK AO2 T01610017
94299KAAT AAT20160810230510908/10/16 23:05:31  5-MIN KAAT 110705Z AUTO 00000KT 10SM CLR 15/02 A3010 4210 40 5200 000/00 RMK AO2 T01500017
94299KAAT AAT20160810231010908/10/16 23:10:31  5-MIN KAAT 110710Z AUTO 10003KT 10SM CLR 16/02 A3010 4210 39 5300 090/03 RMK AO2 T01560017
94299KAAT AAT20160810231510908/10/16 23:15:31  5-MIN KAAT 110715Z AUTO 00000KT 10SM CLR 15/02 A3010 4210 40 5200 000/00 RMK AO2 T01500017
94299KAAT AAT20160810232010908/10/16 23:20:31  5-MIN KAAT 110720Z AUTO 00000KT 10SM CLR 13/01 A3010 4210 44 5000 000/00 RMK AO2 T01280011
94299KAAT AAT20160810232510908/10/16 23:25:31  5-MIN KAAT 110725Z AUTO 00000KT 10SM CLR 12/01 A3011 4210 44 4900 000/00 RMK AO2 T01220006
94299KAAT AAT20160810233010908/10/16 23:30:31  5-MIN KAAT 110730Z AUTO 00000KT 10SM CLR 12/01 A3011 4210 44 4900 000/00 RMK AO2 T01220006
94299KAAT AAT20160810233510908/10/16 23:35:31  5-MIN KAAT 110735Z AUTO 00000KT 10SM CLR 13/01 A3011 4210 44 5000 000/00 RMK AO2 T01280011
94299KAAT AAT20160810234010908/10/16 23:40:31  5-MIN KAAT 110740Z AUTO 00000KT 10SM CLR 12/01 A3011 4200 46 4900 000/00 RMK AO2 T01220011
94299KAAT AAT20160810234510908/10/16 23:45:31  5-MIN KAAT 110745Z AUTO 08003KT 10SM CLR 13/02 A3011 4200 46 5000 060/03 RMK AO2 T01280017
94299KAAT AAT20160810235012608/10/16 23:50:31  5-MIN KAAT 110750Z AUTO 10003KT 10SM CLR 13/02 A3011 4200 48 5000 090/03 RMK AO2 SLP157 T01280022 402890094
94299KAAT AAT20160810235512608/10/16 23:55:31  5-MIN KAAT 110755Z AUTO 00000KT 10SM CLR 12/02 A3011 4200 50 4900 000/00 RMK AO2 SLP158 T01220022 402890094
94299KAAT AAT20160811000010908/11/16 00:00:31  5-MIN KAAT 110800Z AUTO 15003KT 10SM CLR 12/01 A3012 4200 48 4800 140/03 RMK AO2 T01170011
94299KAAT AAT20160811000510908/11/16 00:05:31  5-MIN KAAT 110805Z AUTO 18003KT 10SM CLR 11/01 A3012 4200 48 4800 160/03 RMK AO2 T01110006
94299KAAT AAT20160811001010908/11/16 00:10:31  5-MIN KAAT 110810Z AUTO 00000KT 10SM CLR 11/01 A3012 4200 50 4800 000/00 RMK AO2 T01110011
94299KAAT AAT20160811001510908/11/16 00:15:31  5-MIN KAAT 110815Z AUTO 07003KT 10SM CLR 12/02 A3012 4200 52 4800 050/03 RMK AO2 T01170022
94299KAAT AAT20160811002010908/11/16 00:20:31  5-MIN KAAT 110820Z AUTO 04003KT 10SM CLR 12/03 A3012 4200 54 4800 030/03 RMK AO2 T01170028
94299KAAT AAT20160811002510908/11/16 00:25:31  5-MIN KAAT 110825Z AUTO 05003KT 10SM CLR 12/03 A3012 4200 56 4800 030/03 RMK AO2 T01170033
94299KAAT AAT20160811003010908/11/16 00:30:31  5-MIN KAAT 110830Z AUTO 05004KT 10SM CLR 12/03 A3012 4200 56 4800 040/04 RMK AO2 T01170033
94299KAAT AAT20160811003510908/11/16 00:35:31  5-MIN KAAT 110835Z AUTO 06004KT 10SM CLR 12/03 A3012 4200 52 4900 050/04 RMK AO2 T01220028
94299KAAT AAT20160811004010908/11/16 00:40:31  5-MIN KAAT 110840Z AUTO 05005KT 10SM CLR 12/02 A3012 4200 50 4900 040/05 RMK AO2 T01220022
94299KAAT AAT20160811004510908/11/16 00:45:31  5-MIN KAAT 110845Z AUTO 06006KT 10SM CLR 12/02 A3012 4190 52 4800 040/06 RMK AO2 T01170022
94299KAAT AAT20160811005012208/11/16 00:50:31  5-MIN KAAT 110850Z AUTO 06005KT 10SM CLR 12/02 A3012 4190 50 4900 050/05 RMK AO2 SLP161 T01220022 51015
94299KAAT AAT20160811005512208/11/16 00:55:31  5-MIN KAAT 110855Z AUTO 00000KT 10SM CLR 11/02 A3013 4190 52 4700 000/00 RMK AO2 SLP166 T01110017 51013
94299KAAT AAT20160811010010908/11/16 01:00:31  5-MIN KAAT 110900Z AUTO 00000KT 10SM CLR 10/02 A3013 4190 56 4600 000/00 RMK AO2 T01000017
94299KAAT AAT20160811010510908/11/16 01:05:31  5-MIN KAAT 110905Z AUTO 00000KT 10SM CLR 09/02 A3013 4190 58 4500 000/00 RMK AO2 T00940017
94299KAAT AAT20160811011010908/11/16 01:10:31  5-MIN KAAT 110910Z AUTO 00000KT 10SM CLR 09/01 A3013 4190 58 4500 000/00 RMK AO2 T00890011
94299KAAT AAT20160811011510908/11/16 01:15:31  5-MIN KAAT 110915Z AUTO 00000KT 10SM CLR 09/02 A3013 4190 60 4500 000/00 RMK AO2 T00890017
94299KAAT AAT20160811012010908/11/16 01:20:31  5-MIN KAAT 110920Z AUTO 00000KT 10SM CLR 08/01 A3013 4190 60 4400 000/00 RMK AO2 T00830011
94299KAAT AAT20160811012510908/11/16 01:25:31  5-MIN KAAT 110925Z AUTO 00000KT 10SM CLR 08/02 A3013 4190 63 4400 000/00 RMK AO2 T00830017
94299KAAT AAT20160811013010908/11/16 01:30:31  5-MIN KAAT 110930Z AUTO 00000KT 10SM CLR 09/03 A3013 4190 65 4500 000/00 RMK AO2 T00890028
94299KAAT AAT20160811013510908/11/16 01:35:31  5-MIN KAAT 110935Z AUTO 21003KT 10SM CLR 09/02 A3013 4180 63 4500 200/03 RMK AO2 T00890022
94299KAAT AAT20160811014010908/11/16 01:40:31  5-MIN KAAT 110940Z AUTO 19006KT 10SM CLR 09/02 A3014 4180 60 4500 170/06 RMK AO2 T00890017
94299KAAT AAT20160811014510908/11/16 01:45:31  5-MIN KAAT 110945Z AUTO 17003KT 10SM CLR 08/01 A3014 4180 58 4400 160/03 RMK AO2 T00830006
94299KAAT AAT20160811015011608/11/16 01:50:31  5-MIN KAAT 110950Z AUTO 00000KT 10SM CLR 09/02 A3014 4180 58 4500 000/00 RMK AO2 SLP167 T00940017
94299KAAT AAT20160811015511608/11/16 01:55:31  5-MIN KAAT 110955Z AUTO 08003KT 10SM CLR 09/02 A3014 4180 58 4500 060/03 RMK AO2 SLP169 T00940017
94299KAAT AAT20160811020010908/11/16 02:00:31  5-MIN KAAT 111000Z AUTO 00000KT 10SM CLR 10/02 A3014 4180 56 4600 000/00 RMK AO2 T01000017
94299KAAT AAT20160811020510908/11/16 02:05:31  5-MIN KAAT 111005Z AUTO 00000KT 10SM CLR 10/02 A3014 4180 58 4600 000/00 RMK AO2 T01000022
94299KAAT AAT20160811021010908/11/16 02:10:31  5-MIN KAAT 111010Z AUTO 00000KT 10SM CLR 09/01 A3014 4180 56 4500 000/00 RMK AO2 T00940011
94299KAAT AAT20160811021510908/11/16 02:15:31  5-MIN KAAT 111015Z AUTO 36003KT 10SM CLR 09/01 A3014 4180 56 4500 350/03 RMK AO2 T00890006
94299KAAT AAT20160811022010908/11/16 02:20:31  5-MIN KAAT 111020Z AUTO 32003KT 10SM CLR 09/01 A3014 4180 56 4500 300/03 RMK AO2 T00940011
94299KAAT AAT20160811022510908/11/16 02:25:31  5-MIN KAAT 111025Z AUTO 00000KT 10SM CLR 08/01 A3014 4180 60 4400 000/00 RMK AO2 T00830011
94299KAAT AAT20160811023010908/11/16 02:30:31  5-MIN KAAT 111030Z AUTO 00000KT 10SM CLR 08/01 A3014 4180 60 4400 000/00 RMK AO2 T00830011
94299KAAT AAT20160811023510908/11/16 02:35:31  5-MIN KAAT 111035Z AUTO 29003KT 10SM CLR 08/00 A3014 4180 58 4300 280/03 RMK AO2 T00780000
94299KAAT AAT20160811024010908/11/16 02:40:31  5-MIN KAAT 111040Z AUTO 00000KT 10SM CLR 08/00 A3014 4180 58 4300 000/00 RMK AO2 T00780000
94299KAAT AAT20160811024510908/11/16 02:45:31  5-MIN KAAT 111045Z AUTO 06003KT 10SM CLR 09/01 A3014 4180 58 4500 040/03 RMK AO2 T00890011
94299KAAT AAT20160811025011608/11/16 02:50:31  5-MIN KAAT 111050Z AUTO 05004KT 10SM CLR 09/02 A3014 4180 60 4500 040/04 RMK AO2 SLP170 T00890017
94299KAAT AAT20160811025511608/11/16 02:55:31  5-MIN KAAT 111055Z AUTO 06003KT 10SM CLR 09/02 A3014 4180 58 4500 040/03 RMK AO2 SLP168 T00940017
94299KAAT AAT20160811030010908/11/16 03:00:31  5-MIN KAAT 111100Z AUTO 00000KT 10SM CLR 09/02 A3014 4180 60 4500 000/00 RMK AO2 T00940022
94299KAAT AAT20160811030510908/11/16 03:05:31  5-MIN KAAT 111105Z AUTO 00000KT 10SM CLR 09/02 A3014 4180 63 4500 000/00 RMK AO2 T00890022
94299KAAT AAT20160811031010908/11/16 03:10:31  5-MIN KAAT 111110Z AUTO 00000KT 10SM CLR 08/01 A3014 4180 62 4300 000/00 RMK AO2 T00780011
94299KAAT AAT20160811031510908/11/16 03:15:31  5-MIN KAAT 111115Z AUTO 00000KT 10SM CLR 08/01 A3014 4180 62 4300 000/00 RMK AO2 T00780011
94299KAAT AAT20160811032010908/11/16 03:20:31  5-MIN KAAT 111120Z AUTO 00000KT 10SM CLR 07/01 A3014 4180 62 4300 000/00 RMK AO2 T00720006
94299KAAT AAT20160811032510908/11/16 03:25:31  5-MIN KAAT 111125Z AUTO 00000KT 10SM CLR 08/01 A3014 4180 62 4300 000/00 RMK AO2 T00780011
94299KAAT AAT20160811033010908/11/16 03:30:31  5-MIN KAAT 111130Z AUTO 00000KT 10SM CLR 08/01 A3014 4180 60 4300 000/00 RMK AO2 T00780006
94299KAAT AAT20160811033510908/11/16 03:35:31  5-MIN KAAT 111135Z AUTO 12004KT 10SM CLR 09/01 A3014 4180 56 4500 100/04 RMK AO2 T00940011
94299KAAT AAT20160811034010908/11/16 03:40:31  5-MIN KAAT 111140Z AUTO 12003KT 10SM CLR 09/01 A3014 4170 58 4500 110/03 RMK AO2 T00890011
94299KAAT AAT20160811034510908/11/16 03:45:31  5-MIN KAAT 111145Z AUTO 18003KT 10SM CLR 08/01 A3015 4170 60 4300 160/03 RMK AO2 T00780006
94299KAAT AAT20160811035013408/11/16 03:50:31  5-MIN KAAT 111150Z AUTO 16004KT 10SM CLR 07/01 A3015 4170 62 4300 150/04 RMK AO2 SLP174 T00720006 10183 20072 51013
94299KAAT AAT20160811035513408/11/16 03:55:31  5-MIN KAAT 111155Z AUTO 17003KT 10SM CLR 08/02 A3015 4170 65 4300 150/03 RMK AO2 SLP173 T00780017 10183 20072 52006
94299KAAT AAT20160811040010908/11/16 04:00:31  5-MIN KAAT 111200Z AUTO 15003KT 10SM CLR 08/02 A3015 4170 68 4300 140/03 RMK AO2 T00780022
94299KAAT AAT20160811040510908/11/16 04:05:31  5-MIN KAAT 111205Z AUTO 15003KT 10SM CLR 08/02 A3015 4170 65 4400 130/03 RMK AO2 T00830022
94299KAAT AAT20160811041010908/11/16 04:10:31  5-MIN KAAT 111210Z AUTO 12003KT 10SM CLR 08/02 A3015 4160 65 4400 110/03 RMK AO2 T00830022
94299KAAT AAT20160811041510908/11/16 04:15:31  5-MIN KAAT 111215Z AUTO 07003KT 10SM CLR 08/02 A3016 4160 68 4300 050/03 RMK AO2 T00780022
94299KAAT AAT20160811042010908/11/16 04:20:31  5-MIN KAAT 111220Z AUTO 00000KT 10SM CLR 08/03 A3016 4160 70 4300 000/00 RMK AO2 T00780028
94299KAAT AAT20160811042510908/11/16 04:25:31  5-MIN KAAT 111225Z AUTO 03003KT 10SM CLR 08/02 A3016 4160 68 4300 010/03 RMK AO2 T00780022
94299KAAT AAT20160811043010908/11/16 04:30:31  5-MIN KAAT 111230Z AUTO 05004KT 10SM CLR 07/01 A3016 4160 65 4300 040/04 RMK AO2 T00720011
94299KAAT AAT20160811043510908/11/16 04:35:31  5-MIN KAAT 111235Z AUTO 03003KT 10SM CLR 07/02 A3016 4160 68 4300 010/03 RMK AO2 T00720017
94299KAAT AAT20160811044010908/11/16 04:40:31  5-MIN KAAT 111240Z AUTO 04004KT 10SM CLR 07/02 A3016 4160 68 4300 030/04 RMK AO2 T00720017
94299KAAT AAT20160811044510908/11/16 04:45:31  5-MIN KAAT 111245Z AUTO 06007KT 10SM CLR 07/02 A3016 4160 68 4300 040/07 RMK AO2 T00720017
94299KAAT AAT20160811045011608/11/16 04:50:31  5-MIN KAAT 111250Z AUTO 07007KT 10SM CLR 08/02 A3016 4160 63 4400 050/07 RMK AO2 SLP177 T00830017
94299KAAT AAT20160811045512108/11/16 04:55:31  5-MIN KAAT 111255Z AUTO 07006KT 10SM CLR 09/02 A3016 4160 60 4400 050/06 RMK AO2 SLP176 T00890017 TSNO
94299KAAT AAT20160811050011408/11/16 05:00:31  5-MIN KAAT 111300Z AUTO 07004KT 10SM CLR 09/02 A3016 4160 60 4400 050/04 RMK AO2 T00890017 TSNO
94299KAAT AAT20160811050511408/11/16 05:05:31  5-MIN KAAT 111305Z AUTO 00000KT 10SM CLR 07/01 A3017 4160 65 4200 000/00 RMK AO2 T00720011 TSNO
94299KAAT AAT20160811051010908/11/16 05:10:31  5-MIN KAAT 111310Z AUTO 00000KT 10SM CLR 07/01 A3017 4150 67 4200 000/00 RMK AO2 T00670011
94299KAAT AAT20160811051510908/11/16 05:15:31  5-MIN KAAT 111315Z AUTO 00000KT 10SM CLR 05/00 A3017 4150 70 4000 000/00 RMK AO2 T00500000
94299KAAT AAT20160811052010908/11/16 05:20:31  5-MIN KAAT 111320Z AUTO 00000KT 10SM CLR 06/01 A3017 4150 70 4000 000/00 RMK AO2 T00560006
94299KAAT AAT20160811052510908/11/16 05:25:31  5-MIN KAAT 111325Z AUTO 00000KT 10SM CLR 07/02 A3018 4150 70 4200 000/00 RMK AO2 T00670017
94299KAAT AAT20160811053010908/11/16 05:30:31  5-MIN KAAT 111330Z AUTO 00000KT 10SM CLR 07/02 A3018 4140 70 4200 000/00 RMK AO2 T00670017
94299KAAT AAT20160811053510908/11/16 05:35:31  5-MIN KAAT 111335Z AUTO 00000KT 10SM CLR 07/02 A3018 4140 70 4200 000/00 RMK AO2 T00720022
94299KAAT AAT20160811054010908/11/16 05:40:31  5-MIN KAAT 111340Z AUTO 00000KT 10SM CLR 07/03 A3018 4140 73 4200 000/00 RMK AO2 T00720028
94299KAAT AAT20160811054509908/11/16 05:45:31  5-MIN KAAT 111345Z AUTO 10SM CLR 07/02 A3018 4140 68 4200 M /M RMK AO2 T00720017
94299KAAT AAT20160811055011608/11/16 05:50:31  5-MIN KAAT 111350Z AUTO 00000KT 10SM CLR 07/01 A3018 4140 65 4200 000/00 RMK AO2 SLP188 T00720011
94299KAAT AAT20160811055511608/11/16 05:55:31  5-MIN KAAT 111355Z AUTO 00000KT 10SM CLR 08/01 A3018 4140 60 4300 000/00 RMK AO2 SLP187 T00780006
94299KAAT AAT20160811060010908/11/16 06:00:31  5-MIN KAAT 111400Z AUTO 00000KT 10SM CLR 08/01 A3019 4140 60 4300 000/00 RMK AO2 T00780006
94299KAAT AAT20160811060510908/11/16 06:05:31  5-MIN KAAT 111405Z AUTO 00000KT 10SM CLR 08/01 A3019 4140 58 4400 000/00 RMK AO2 T00830006
94299KAAT AAT20160811061010908/11/16 06:10:31  5-MIN KAAT 111410Z AUTO 00000KT 10SM CLR 09/01 A3019 4130 56 4400 000/00 RMK AO2 T00890006
94299KAAT AAT20160811061510908/11/16 06:15:31  5-MIN KAAT 111415Z AUTO 00000KT 10SM CLR 09/01 A3019 4130 56 4500 000/00 RMK AO2 T00940011
94299KAAT AAT20160811062010908/11/16 06:20:31  5-MIN KAAT 111420Z AUTO 00000KT 10SM CLR 10/01 A3019 4130 54 4500 000/00 RMK AO2 T01000011
94299KAAT AAT20160811062510908/11/16 06:25:31  5-MIN KAAT 111425Z AUTO 00000KT 10SM CLR 11/02 A3019 4130 52 4700 000/00 RMK AO2 T01110017
94299KAAT AAT20160811063010908/11/16 06:30:31  5-MIN KAAT 111430Z AUTO 00000KT 10SM CLR 12/02 A3020 4130 50 4700 000/00 RMK AO2 T01170017
94299KAAT AAT20160811063510908/11/16 06:35:31  5-MIN KAAT 111435Z AUTO 00000KT 10SM CLR 12/02 A3020 4130 50 4700 000/00 RMK AO2 T01170017
94299KAAT AAT20160811064010908/11/16 06:40:31  5-MIN KAAT 111440Z AUTO 00000KT 10SM CLR 12/02 A3020 4120 48 4800 000/00 RMK AO2 T01220017
94299KAAT AAT20160811064510908/11/16 06:45:31  5-MIN KAAT 111445Z AUTO 00000KT 10SM CLR 13/02 A3020 4130 48 4900 000/00 RMK AO2 T01280022
94299KAAT AAT20160811065012208/11/16 06:50:31  5-MIN KAAT 111450Z AUTO 00000KT 10SM CLR 13/02 A3020 4130 46 4900 000/00 RMK AO2 SLP190 T01330022 52006
94299KAAT AAT20160811065512208/11/16 06:55:31  5-MIN KAAT 111455Z AUTO 00000KT 10SM CLR 14/02 A3020 4130 45 5000 000/00 RMK AO2 SLP190 T01390022 51014
94299KAAT AAT20160811070010908/11/16 07:00:31  5-MIN KAAT 111500Z AUTO 00000KT 10SM CLR 14/02 A3020 4130 41 5000 000/00 RMK AO2 T01440017
94299KAAT AAT20160811070510908/11/16 07:05:31  5-MIN KAAT 111505Z AUTO 00000KT 10SM CLR 15/02 A3020 4130 40 5100 000/00 RMK AO2 T01500017
94299KAAT AAT20160811071010908/11/16 07:10:31  5-MIN KAAT 111510Z AUTO 00000KT 10SM CLR 15/02 A3020 4130 40 5100 000/00 RMK AO2 T01500017
94299KAAT AAT20160811071510908/11/16 07:15:31  5-MIN KAAT 111515Z AUTO 00000KT 10SM CLR 15/02 A3020 4120 40 5100 000/00 RMK AO2 T01500017
94299KAAT AAT20160811072010908/11/16 07:20:31  5-MIN KAAT 111520Z AUTO 00000KT 10SM CLR 16/02 A3020 4120 39 5200 000/00 RMK AO2 T01560017
94299KAAT AAT20160811072510908/11/16 07:25:31  5-MIN KAAT 111525Z AUTO 00000KT 10SM CLR 16/02 A3020 4120 37 5200 000/00 RMK AO2 T01610017
94299KAAT AAT20160811073010908/11/16 07:30:31  5-MIN KAAT 111530Z AUTO 00000KT 10SM CLR 17/02 A3020 4120 36 5300 000/00 RMK AO2 T01670017
94299KAAT AAT20160811073510908/11/16 07:35:31  5-MIN KAAT 111535Z AUTO 07003KT 10SM CLR 17/02 A3020 4120 36 5300 050/03 RMK AO2 T01670017
94299KAAT AAT20160811074010908/11/16 07:40:31  5-MIN KAAT 111540Z AUTO 00000KT 10SM CLR 17/01 A3020 4120 34 5300 000/00 RMK AO2 T01670011
94299KAAT AAT20160811074510908/11/16 07:45:31  5-MIN KAAT 111545Z AUTO 00000KT 10SM CLR 17/02 A3020 4120 35 5400 000/00 RMK AO2 T01720017
94299KAAT AAT20160811075011608/11/16 07:50:31  5-MIN KAAT 111550Z AUTO 07003KT 10SM CLR 18/02 A3020 4120 33 5400 060/03 RMK AO2 SLP186 T01780017
94299KAAT AAT20160811075511608/11/16 07:55:31  5-MIN KAAT 111555Z AUTO 00000KT 10SM CLR 18/02 A3020 4120 33 5400 000/00 RMK AO2 SLP187 T01780017
94299KAAT AAT20160811080010908/11/16 08:00:31  5-MIN KAAT 111600Z AUTO 00000KT 10SM CLR 18/02 A3020 4120 33 5400 000/00 RMK AO2 T01780017
94299KAAT AAT20160811080510908/11/16 08:05:31  5-MIN KAAT 111605Z AUTO 00000KT 10SM CLR 18/02 A3020 4130 34 5500 000/00 RMK AO2 T01830022
94299KAAT AAT20160811081010908/11/16 08:10:31  5-MIN KAAT 111610Z AUTO 00000KT 10SM CLR 19/02 A3020 4130 32 5600 000/00 RMK AO2 T01890022
94299KAAT AAT20160811081510908/11/16 08:15:31  5-MIN KAAT 111615Z AUTO 00000KT 10SM CLR 19/02 A3020 4130 31 5600 000/00 RMK AO2 T01940022
94299KAAT AAT20160811082010908/11/16 08:20:31  5-MIN KAAT 111620Z AUTO 00000KT 10SM CLR 19/02 A3020 4130 32 5600 000/00 RMK AO2 T01890022
94299KAAT AAT20160811082510908/11/16 08:25:31  5-MIN KAAT 111625Z AUTO 00000KT 10SM CLR 19/02 A3020 4130 32 5600 000/00 RMK AO2 T01890022
94299KAAT AAT20160811083010908/11/16 08:30:31  5-MIN KAAT 111630Z AUTO VRB03KT 10SM CLR 20/02 A3020 4130 30 5700 VRB/03 RMK AO2 T02000022
94299KAAT AAT20160811083510908/11/16 08:35:31  5-MIN KAAT 111635Z AUTO VRB03KT 10SM CLR 20/02 A3020 4130 30 5700 VRB/03 RMK AO2 T02000022
94299KAAT AAT20160811084010908/11/16 08:40:31  5-MIN KAAT 111640Z AUTO 00000KT 10SM CLR 21/02 A3020 4130 29 5700 000/00 RMK AO2 T02060022
94299KAAT AAT20160811084510908/11/16 08:45:31  5-MIN KAAT 111645Z AUTO 00000KT 10SM CLR 21/02 A3019 4130 29 5700 000/00 RMK AO2 T02060022
94299KAAT AAT20160811085011608/11/16 08:50:31  5-MIN KAAT 111650Z AUTO VRB03KT 10SM CLR 21/02 A3019 4130 28 5800 VRB/03 RMK AO2 SLP181 T02110022
94299KAAT AAT20160811085511608/11/16 08:55:31  5-MIN KAAT 111655Z AUTO 00000KT 10SM CLR 21/02 A3019 4130 29 5700 000/00 RMK AO2 SLP185 T02060022
94299KAAT AAT20160811090009908/11/16 09:00:31  5-MIN KAAT 111700Z AUTO 10SM CLR 21/02 A3019 4130 29 5700 M /M RMK AO2 T02060022
94299KAAT AAT20160811090510908/11/16 09:05:31  5-MIN KAAT 111705Z AUTO 09004KT 10SM CLR 21/02 A3019 4130 28 5800 070/04 RMK AO2 T02110022
94299KAAT AAT20160811091010908/11/16 09:10:31  5-MIN KAAT 111710Z AUTO 00000KT 10SM CLR 22/02 A3019 4130 27 5900 000/00 RMK AO2 T02170022
94299KAAT AAT20160811091510908/11/16 09:15:31  5-MIN KAAT 111715Z AUTO 00000KT 10SM CLR 22/03 A3019 4130 28 5900 000/00 RMK AO2 T02170028
94299KAAT AAT20160811092010908/11/16 09:20:31  5-MIN KAAT 111720Z AUTO VRB03KT 10SM CLR 22/03 A3019 4130 27 5900 VRB/03 RMK AO2 T02220028
94299KAAT AAT20160811092510908/11/16 09:25:31  5-MIN KAAT 111725Z AUTO VRB04KT 10SM CLR 23/02 A3019 4130 25 6000 VRB/04 RMK AO2 T02280022
94299KAAT AAT20160811093010908/11/16 09:30:31  5-MIN KAAT 111730Z AUTO 00000KT 10SM CLR 23/02 A3019 4130 25 6000 000/00 RMK AO2 T02280022
94299KAAT AAT20160811093510908/11/16 09:35:31  5-MIN KAAT 111735Z AUTO VRB03KT 10SM CLR 23/02 A3019 4130 24 6100 VRB/03 RMK AO2 T02330022
94299KAAT AAT20160811094010908/11/16 09:40:31  5-MIN KAAT 111740Z AUTO 00000KT 10SM CLR 24/02 A3019 4130 24 6100 000/00 RMK AO2 T02390022
94299KAAT AAT20160811094510908/11/16 09:45:31  5-MIN KAAT 111745Z AUTO 00000KT 10SM CLR 24/02 A3019 4130 23 6200 000/00 RMK AO2 T02440022
94299KAAT AAT20160811095013408/11/16 09:50:31  5-MIN KAAT 111750Z AUTO 00000KT 10SM CLR 24/02 A3019 4130 24 6100 000/00 RMK AO2 SLP183 T02390022 10244 20050 51014
94299KAAT AAT20160811095513408/11/16 09:55:31  5-MIN KAAT 111755Z AUTO 06005KT 10SM CLR 24/02 A3019 4130 23 6200 040/05 RMK AO2 SLP180 T02440022 10244 20050 58002
94299KAAT AAT20160811100010908/11/16 10:00:31  5-MIN KAAT 111800Z AUTO VRB03KT 10SM CLR 24/02 A3019 4130 22 6200 VRB/03 RMK AO2 T02440017
94299KAAT AAT20160811100510908/11/16 10:05:31  5-MIN KAAT 111805Z AUTO 03004KT 10SM CLR 25/02 A3019 4130 22 6200 010/04 RMK AO2 T02500022
94299KAAT AAT20160811101010908/11/16 10:10:31  5-MIN KAAT 111810Z AUTO 00000KT 10SM CLR 25/02 A3019 4130 22 6200 000/00 RMK AO2 T02500022
94299KAAT AAT20160811101510908/11/16 10:15:31  5-MIN KAAT 111815Z AUTO 00000KT 10SM CLR 26/02 A3019 4130 21 6300 000/00 RMK AO2 T02560022
94299KAAT AAT20160811102010908/11/16 10:20:31  5-MIN KAAT 111820Z AUTO VRB03KT 10SM CLR 26/02 A3019 4130 21 6300 VRB/03 RMK AO2 T02560022
94299KAAT AAT20160811102510908/11/16 10:25:31  5-MIN KAAT 111825Z AUTO 00000KT 10SM CLR 26/02 A3019 4130 21 6400 000/00 RMK AO2 T02610022
94299KAAT AAT20160811103010908/11/16 10:30:31  5-MIN KAAT 111830Z AUTO VRB04KT 10SM CLR 26/02 A3019 4130 21 6400 VRB/04 RMK AO2 T02610022
94299KAAT AAT20160811103510908/11/16 10:35:31  5-MIN KAAT 111835Z AUTO 00000KT 10SM CLR 27/02 A3019 4130 19 6500 000/00 RMK AO2 T02720022
94299KAAT AAT20160811104010908/11/16 10:40:31  5-MIN KAAT 111840Z AUTO 00000KT 10SM CLR 27/02 A3019 4140 19 6500 000/00 RMK AO2 T02720017
94299KAAT AAT20160811104510908/11/16 10:45:31  5-MIN KAAT 111845Z AUTO VRB03KT 10SM CLR 27/01 A3019 4140 18 6500 VRB/03 RMK AO2 T02720011
94299KAAT AAT20160811105011608/11/16 10:50:31  5-MIN KAAT 111850Z AUTO 35005KT 10SM CLR 28/01 A3019 4140 17 6500 330/05 RMK AO2 SLP177 T02780011
94299KAAT AAT20160811105511608/11/16 10:55:31  5-MIN KAAT 111855Z AUTO VRB04KT 10SM CLR 27/00 A3018 4140 16 6500 VRB/04 RMK AO2 SLP177 T02720000
94299KAAT AAT20160811110011008/11/16 11:00:31  5-MIN KAAT 111900Z AUTO VRB05KT 10SM CLR 28/M01 A3018 4140 15 6600 VRB/05 RMK AO2 T02781006
94299KAAT AAT20160811110511008/11/16 11:05:31  5-MIN KAAT 111905Z AUTO 36005KT 10SM CLR 28/M01 A3018 4140 15 6600 350/05 RMK AO2 T02831006
94299KAAT AAT20160811111011008/11/16 11:10:31  5-MIN KAAT 111910Z AUTO 00000KT 10SM CLR 28/M01 A3018 4140 15 6600 000/00 RMK AO2 T02781006
94299KAAT AAT20160811111511008/11/16 11:15:31  5-MIN KAAT 111915Z AUTO 31004KT 10SM CLR 28/M01 A3018 4140 15 6600 300/04 RMK AO2 T02831006
94299KAAT AAT20160811112011008/11/16 11:20:31  5-MIN KAAT 111920Z AUTO VRB04KT 10SM CLR 29/M01 A3018 4140 14 6700 VRB/04 RMK AO2 T02891006
94299KAAT AAT20160811112511008/11/16 11:25:31  5-MIN KAAT 111925Z AUTO VRB04KT 10SM CLR 29/M01 A3018 4140 14 6700 VRB/04 RMK AO2 T02891011
94299KAAT AAT20160811113011008/11/16 11:30:31  5-MIN KAAT 111930Z AUTO 35006KT 10SM CLR 29/M02 A3018 4150 13 6700 330/06 RMK AO2 T02941017
94299KAAT AAT20160811113511008/11/16 11:35:31  5-MIN KAAT 111935Z AUTO VRB05KT 10SM CLR 29/M02 A3018 4150 13 6700 VRB/05 RMK AO2 T02891017
94299KAAT AAT20160811114011008/11/16 11:40:31  5-MIN KAAT 111940Z AUTO 31007KT 10SM CLR 29/M01 A3017 4150 14 6700 300/07 RMK AO2 T02891011
94299KAAT AAT20160811114511008/11/16 11:45:31  5-MIN KAAT 111945Z AUTO VRB04KT 10SM CLR 28/M01 A3017 4150 14 6600 VRB/04 RMK AO2 T02831011
94299KAAT AAT20160811115011708/11/16 11:50:31  5-MIN KAAT 111950Z AUTO VRB03KT 10SM CLR 29/M02 A3017 4150 13 6700 VRB/03 RMK AO2 SLP173 T02891017
94299KAAT AAT20160811115511708/11/16 11:55:31  5-MIN KAAT 111955Z AUTO 00000KT 10SM CLR 29/M02 A3017 4150 13 6700 000/00 RMK AO2 SLP175 T02891022
94299KAAT AAT20160811120010008/11/16 12:00:31  5-MIN KAAT 112000Z AUTO 10SM CLR 29/M02 A3017 4150 13 6700 M /M RMK AO2 T02891017
94299KAAT AAT20160811120511008/11/16 12:05:31  5-MIN KAAT 112005Z AUTO 32007KT 10SM CLR 29/M02 A3017 4150 12 6700 310/07 RMK AO2 T02941022
94299KAAT AAT20160811121011008/11/16 12:10:31  5-MIN KAAT 112010Z AUTO 01005KT 10SM CLR 29/M03 A3016 4160 12 6800 360/05 RMK AO2 T02941028
94299KAAT AAT20160811121511008/11/16 12:15:31  5-MIN KAAT 112015Z AUTO 31007KT 10SM CLR 30/M03 A3017 4160 11 6800 300/07 RMK AO2 T03001033
94299KAAT AAT20160811122011008/11/16 12:20:31  5-MIN KAAT 112020Z AUTO VRB04KT 10SM CLR 29/M03 A3017 4160 12 6800 VRB/04 RMK AO2 T02941028
94299KAAT AAT20160811122511008/11/16 12:25:31  5-MIN KAAT 112025Z AUTO 27009KT 10SM CLR 31/M03 A3016 4160 11 6900 260/09 RMK AO2 T03061028
94299KAAT AAT20160811123011008/11/16 12:30:31  5-MIN KAAT 112030Z AUTO VRB04KT 10SM CLR 30/M03 A3016 4160 11 6800 VRB/04 RMK AO2 T03001028
94299KAAT AAT20160811123511008/11/16 12:35:31  5-MIN KAAT 112035Z AUTO 00000KT 10SM CLR 29/M03 A3016 4160 11 6800 000/00 RMK AO2 T02941033
94299KAAT AAT20160811124011008/11/16 12:40:31  5-MIN KAAT 112040Z AUTO VRB04KT 10SM CLR 30/M03 A3016 4160 11 6800 VRB/04 RMK AO2 T03001028
94299KAAT AAT20160811124511008/11/16 12:45:31  5-MIN KAAT 112045Z AUTO 28009KT 10SM CLR 30/M04 A3016 4160 10 6800 260/09 RMK AO2 T03001039
94299KAAT AAT20160811125011308/11/16 12:50:31  5-MIN KAAT 112050Z AUTO 10SM CLR 30/M04 A3016 4160 10 6800 M /M RMK AO2 SLP169 T03001044 58002
94299KAAT AAT20160811125512308/11/16 12:55:31  5-MIN KAAT 112055Z AUTO 30010KT 10SM CLR 31/M05 A3016 4160 09 6900 290/10 RMK AO2 SLP168 T03061050 58010
94299KAAT AAT20160811130011008/11/16 13:00:31  5-MIN KAAT 112100Z AUTO VRB06KT 10SM CLR 31/M07 A3016 4160 08 6900 VRB/06 RMK AO2 T03061067
94299KAAT AAT20160811130512608/11/16 13:05:31  5-MIN KAAT 112105Z AUTO 33008KT 310V020 10SM CLR 31/M06 A3016 4160 09 6900 310/08 300V010 RMK AO2 T03061056
94299KAAT AAT20160811131011008/11/16 13:10:31  5-MIN KAAT 112110Z AUTO 02007KT 10SM CLR 31/M04 A3015 4170 10 6900 360/07 RMK AO2 T03061044
94299KAAT AAT20160811131511608/11/16 13:15:31  5-MIN KAAT 112115Z AUTO 34008G14KT 10SM CLR 31/M04 A3015 4170 10 6900 320/08G14 RMK AO2 T03061039
94299KAAT AAT20160811132011608/11/16 13:20:31  5-MIN KAAT 112120Z AUTO VRB05G14KT 10SM CLR 31/M03 A3015 4170 11 6900 VRB/05G14 RMK AO2 T03061028
94299KAAT AAT20160811132510008/11/16 13:25:31  5-MIN KAAT 112125Z AUTO 10SM CLR 31/M03 A3015 4170 11 6900 M /M RMK AO2 T03061033
94299KAAT AAT20160811133011008/11/16 13:30:31  5-MIN KAAT 112130Z AUTO 00000KT 10SM CLR 29/M03 A3015 4170 11 6800 000/00 RMK AO2 T02941033
94299KAAT AAT20160811133510008/11/16 13:35:31  5-MIN KAAT 112135Z AUTO 10SM CLR 31/M03 A3015 4170 11 6900 M /M RMK AO2 T03061028
94299KAAT AAT20160811134011008/11/16 13:40:31  5-MIN KAAT 112140Z AUTO 28009KT 10SM CLR 31/M02 A3015 4170 12 6900 260/09 RMK AO2 T03111017
94299KAAT AAT20160811134512608/11/16 13:45:31  5-MIN KAAT 112145Z AUTO 31007KT 260V340 10SM CLR 31/M02 A3014 4170 12 7000 290/07 250V330 RMK AO2 T03111017
94299KAAT AAT20160811135011708/11/16 13:50:31  5-MIN KAAT 112150Z AUTO 25007KT 10SM CLR 31/M02 A3014 4180 12 7000 230/07 RMK AO2 SLP164 T03111017
94299KAAT AAT20160811135511708/11/16 13:55:31  5-MIN KAAT 112155Z AUTO 22005KT 10SM CLR 31/M02 A3014 4180 12 7000 210/05 RMK AO2 SLP164 T03111017
94299KAAT AAT20160811140011008/11/16 14:00:31  5-MIN KAAT 112200Z AUTO VRB03KT 10SM CLR 30/M02 A3014 4180 12 6800 VRB/03 RMK AO2 T03001022
94299KAAT AAT20160811140510008/11/16 14:05:31  5-MIN KAAT 112205Z AUTO 10SM CLR 31/M02 A3014 4180 11 6900 M /M RMK AO2 T03061022
94299KAAT AAT20160811141011008/11/16 14:10:31  5-MIN KAAT 112210Z AUTO 24006KT 10SM CLR 32/M02 A3014 4180 11 7000 220/06 RMK AO2 T03171022
94299KAAT AAT20160811141511008/11/16 14:15:31  5-MIN KAAT 112215Z AUTO 00000KT 10SM CLR 32/M02 A3014 4180 11 7000 000/00 RMK AO2 T03171017
94299KAAT AAT20160811142011008/11/16 14:20:31  5-MIN KAAT 112220Z AUTO 25008KT 10SM CLR 32/M02 A3014 4180 11 7000 230/08 RMK AO2 T03171017
94299KAAT AAT20160811142511008/11/16 14:25:31  5-MIN KAAT 112225Z AUTO VRB04KT 10SM CLR 31/M02 A3013 4180 12 7000 VRB/04 RMK AO2 T03111017
94299KAAT AAT20160811143011008/11/16 14:30:31  5-MIN KAAT 112230Z AUTO VRB05KT 10SM CLR 31/M02 A3013 4190 12 7000 VRB/05 RMK AO2 T03111017
94299KAAT AAT20160811143511008/11/16 14:35:31  5-MIN KAAT 112235Z AUTO VRB03KT 10SM CLR 31/M02 A3013 4190 11 7000 VRB/03 RMK AO2 T03111022
94299KAAT AAT20160811144011008/11/16 14:40:31  5-MIN KAAT 112240Z AUTO 07007KT 10SM CLR 31/M02 A3013 4190 11 7000 060/07 RMK AO2 T03111022
94299KAAT AAT20160811144511008/11/16 14:45:31  5-MIN KAAT 112245Z AUTO 16003KT 10SM CLR 31/M02 A3013 4190 11 7000 140/03 RMK AO2 T03111022
94299KAAT AAT20160811145011708/11/16 14:50:31  5-MIN KAAT 112250Z AUTO VRB04KT 10SM CLR 32/M02 A3013 4190 11 7000 VRB/04 RMK AO2 SLP159 T03171022
94299KAAT AAT20160811145513908/11/16 14:55:31  5-MIN KAAT 112255Z AUTO 30009G15KT 270V340 10SM CLR 32/M02 A3013 4190 11 7000 290/09G15 260V330 RMK AO2 SLP159 T03171017
94299KAAT AAT20160811150011608/11/16 15:00:31  5-MIN KAAT 112300Z AUTO 29009G15KT 10SM CLR 32/M02 A3012 4190 10 7100 280/09G15 RMK AO2 T03221022
94299KAAT AAT20160811150511008/11/16 15:05:31  5-MIN KAAT 112305Z AUTO 00000KT 10SM CLR 31/M03 A3012 4190 11 7000 000/00 RMK AO2 T03111028
94299KAAT AAT20160811151011008/11/16 15:10:31  5-MIN KAAT 112310Z AUTO 00000KT 10SM CLR 31/M02 A3012 4200 11 6900 000/00 RMK AO2 T03061022
94299KAAT AAT20160811151511008/11/16 15:15:31  5-MIN KAAT 112315Z AUTO VRB03KT 10SM CLR 32/M02 A3012 4200 11 7000 VRB/03 RMK AO2 T03171022
94299KAAT AAT20160811152011008/11/16 15:20:31  5-MIN KAAT 112320Z AUTO 17005KT 10SM CLR 32/M02 A3012 4200 11 7000 150/05 RMK AO2 T03171022
94299KAAT AAT20160811152511008/11/16 15:25:31  5-MIN KAAT 112325Z AUTO VRB03KT 10SM CLR 32/M02 A3012 4200 11 7000 VRB/03 RMK AO2 T03171022
94299KAAT AAT20160811153011008/11/16 15:30:31  5-MIN KAAT 112330Z AUTO 01004KT 10SM CLR 32/M02 A3012 4200 11 7000 350/04 RMK AO2 T03171022
94299KAAT AAT20160811153511008/11/16 15:35:31  5-MIN KAAT 112335Z AUTO 03005KT 10SM CLR 32/M02 A3011 4200 10 7100 010/05 RMK AO2 T03221022
94299KAAT AAT20160811154011008/11/16 15:40:31  5-MIN KAAT 112340Z AUTO VRB04KT 10SM CLR 32/M02 A3011 4200 10 7100 VRB/04 RMK AO2 T03221022
94299KAAT AAT20160811154512608/11/16 15:45:31  5-MIN KAAT 112345Z AUTO 26007KT 220V320 10SM CLR 32/M02 A3011 4200 11 7100 250/07 210V310 RMK AO2 T03221017
94299KAAT AAT20160811155013508/11/16 15:50:31  5-MIN KAAT 112350Z AUTO VRB04KT 10SM CLR 32/M01 A3011 4200 12 7000 VRB/04 RMK AO2 SLP158 T03171011 10328 20244 58010
94299KAAT AAT20160811155512508/11/16 15:55:31  5-MIN KAAT 112355Z AUTO 10SM CLR 32/M01 A3011 4200 12 7000 M /M RMK AO2 SLP156 T03171011 10328 20244 56014
94299KAAT AAT20160811160011008/11/16 16:00:31  5-MIN KAAT 120000Z AUTO 24004KT 10SM CLR 31/M01 A3011 4200 12 7000 230/04 RMK AO2 T03111011
94299KAAT AAT20160811160511008/11/16 16:05:31  5-MIN KAAT 120005Z AUTO 00000KT 10SM CLR 31/M02 A3011 4200 12 7000 000/00 RMK AO2 T03111017
94299KAAT AAT20160811161011008/11/16 16:10:31  5-MIN KAAT 120010Z AUTO 00000KT 10SM CLR 31/M02 A3011 4200 12 7000 000/00 RMK AO2 T03111017
94299KAAT AAT20160811161510008/11/16 16:15:31  5-MIN KAAT 120015Z AUTO 10SM CLR 31/M02 A3011 4200 12 7000 M /M RMK AO2 T03111017
94299KAAT AAT20160811162011008/11/16 16:20:31  5-MIN KAAT 120020Z AUTO VRB06KT 10SM CLR 31/M02 A3011 4200 12 7000 VRB/06 RMK AO2 T03111017
94299KAAT AAT20160811162511008/11/16 16:25:31  5-MIN KAAT 120025Z AUTO 00000KT 10SM CLR 32/M02 A3011 4210 11 7100 000/00 RMK AO2 T03171017
94299KAAT AAT20160811163010008/11/16 16:30:31  5-MIN KAAT 120030Z AUTO 10SM CLR 31/M02 A3011 4210 12 7000 M /M RMK AO2 T03111017
94299KAAT AAT20160811163511008/11/16 16:35:31  5-MIN KAAT 120035Z AUTO 20003KT 10SM CLR 31/M02 A3011 4210 12 7000 180/03 RMK AO2 T03111017
94299KAAT AAT20160811164011008/11/16 16:40:31  5-MIN KAAT 120040Z AUTO 23004KT 10SM CLR 31/M02 A3011 4210 11 7000 220/04 RMK AO2 T03111022
94299KAAT AAT20160811164511008/11/16 16:45:31  5-MIN KAAT 120045Z AUTO 24006KT 10SM CLR 31/M02 A3011 4210 11 7000 220/06 RMK AO2 T03111022
94299KAAT AAT20160811165011708/11/16 16:50:31  5-MIN KAAT 120050Z AUTO 25009KT 10SM CLR 32/M02 A3011 4210 11 7100 240/09 RMK AO2 SLP155 T03171022
94299KAAT AAT20160811165511708/11/16 16:55:31  5-MIN KAAT 120055Z AUTO VRB06KT 10SM CLR 31/M02 A3011 4210 11 7000 VRB/06 RMK AO2 SLP155 T03111022
94299KAAT AAT20160811170011008/11/16 17:00:31  5-MIN KAAT 120100Z AUTO 25010KT 10SM CLR 32/M02 A3011 4210 11 7100 240/10 RMK AO2 T03171022
94299KAAT AAT20160811170511008/11/16 17:05:31  5-MIN KAAT 120105Z AUTO 24009KT 10SM CLR 31/M02 A3011 4210 11 7000 220/09 RMK AO2 T03111022
94299KAAT AAT20160811171012608/11/16 17:10:31  5-MIN KAAT 120110Z AUTO 24007KT 200V270 10SM CLR 31/M02 A3011 4210 11 7000 220/07 190V260 RMK AO2 T03111022
94299KAAT AAT20160811171511008/11/16 17:15:31  5-MIN KAAT 120115Z AUTO 27008KT 10SM CLR 31/M02 A3011 4210 11 7000 260/08 RMK AO2 T03111022
94299KAAT AAT20160811172011008/11/16 17:20:31  5-MIN KAAT 120120Z AUTO 27008KT 10SM CLR 32/M02 A3011 4210 11 7100 250/08 RMK AO2 T03171022
94299KAAT AAT20160811172511008/11/16 17:25:31  5-MIN KAAT 120125Z AUTO 28009KT 10SM CLR 31/M02 A3011 4210 11 7000 260/09 RMK AO2 T03111022
94299KAAT AAT20160811173011008/11/16 17:30:31  5-MIN KAAT 120130Z AUTO 24008KT 10SM CLR 31/M02 A3011 4210 11 7000 230/08 RMK AO2 T03111022
94299KAAT AAT20160811173511008/11/16 17:35:31  5-MIN KAAT 120135Z AUTO 28007KT 10SM CLR 31/M02 A3011 4210 11 7000 270/07 RMK AO2 T03111022
94299KAAT AAT20160811174011008/11/16 17:40:31  5-MIN KAAT 120140Z AUTO 29006KT 10SM CLR 31/M03 A3011 4210 11 6900 280/06 RMK AO2 T03061028
94299KAAT AAT20160811174511008/11/16 17:45:31  5-MIN KAAT 120145Z AUTO 29006KT 10SM CLR 31/M02 A3011 4210 12 6900 280/06 RMK AO2 T03061017
94299KAAT AAT20160811175011708/11/16 17:50:31  5-MIN KAAT 120150Z AUTO 25005KT 10SM CLR 31/M02 A3011 4210 12 6900 240/05 RMK AO2 SLP157 T03061017
94299KAAT AAT20160811175511708/11/16 17:55:31  5-MIN KAAT 120155Z AUTO 26005KT 10SM CLR 31/M02 A3011 4210 11 6900 240/05 RMK AO2 SLP155 T03061022
94299KAAT AAT20160811180011008/11/16 18:00:31  5-MIN KAAT 120200Z AUTO 29010KT 10SM CLR 31/M02 A3011 4210 11 6900 270/10 RMK AO2 T03061022
94299KAAT AAT20160811180511008/11/16 18:05:31  5-MIN KAAT 120205Z AUTO 29006KT 10SM CLR 30/M03 A3011 4210 11 6900 270/06 RMK AO2 T03001028
94299KAAT AAT20160811181011008/11/16 18:10:31  5-MIN KAAT 120210Z AUTO 31005KT 10SM CLR 30/M03 A3011 4210 11 6900 300/05 RMK AO2 T03001028
94299KAAT AAT20160811181511008/11/16 18:15:31  5-MIN KAAT 120215Z AUTO 33004KT 10SM CLR 30/M03 A3011 4210 11 6900 320/04 RMK AO2 T03001028
94299KAAT AAT20160811182011008/11/16 18:20:31  5-MIN KAAT 120220Z AUTO 34009KT 10SM CLR 30/M02 A3011 4200 12 6900 330/09 RMK AO2 T03001017
94299KAAT AAT20160811182511008/11/16 18:25:31  5-MIN KAAT 120225Z AUTO 31008KT 10SM CLR 29/M02 A3011 4200 13 6800 300/08 RMK AO2 T02941017
94299KAAT AAT20160811183011008/11/16 18:30:31  5-MIN KAAT 120230Z AUTO 32004KT 10SM CLR 29/M02 A3012 4200 13 6700 300/04 RMK AO2 T02891017
94299KAAT AAT20160811183511008/11/16 18:35:31  5-MIN KAAT 120235Z AUTO 31007KT 10SM CLR 29/M01 A3012 4200 14 6700 290/07 RMK AO2 T02891011
94299KAAT AAT20160811184011008/11/16 18:40:31  5-MIN KAAT 120240Z AUTO 29004KT 10SM CLR 28/M01 A3012 4200 15 6600 280/04 RMK AO2 T02781006
94299KAAT AAT20160811184511008/11/16 18:45:31  5-MIN KAAT 120245Z AUTO 31004KT 10SM CLR 28/M02 A3012 4200 14 6700 300/04 RMK AO2 T02831017
94299KAAT AAT20160811185012308/11/16 18:50:31  5-MIN KAAT 120250Z AUTO VRB04KT 10SM CLR 28/M02 A3012 4200 14 6600 VRB/04 RMK AO2 SLP157 T02781017 56014
94299KAAT AAT20160811185512308/11/16 18:55:31  5-MIN KAAT 120255Z AUTO 34003KT 10SM CLR 28/M02 A3012 4200 14 6600 330/03 RMK AO2 SLP156 T02781017 53002
94299KAAT AAT20160811190011008/11/16 19:00:31  5-MIN KAAT 120300Z AUTO 00000KT 10SM CLR 28/M02 A3012 4190 13 6600 000/00 RMK AO2 T02781022
94299KAAT AAT20160811190511008/11/16 19:05:31  5-MIN KAAT 120305Z AUTO 34003KT 10SM CLR 28/M03 A3012 4190 13 6600 320/03 RMK AO2 T02781028
94299KAAT AAT20160811191011008/11/16 19:10:31  5-MIN KAAT 120310Z AUTO 33004KT 10SM CLR 27/M02 A3013 4190 14 6600 310/04 RMK AO2 T02721022
94299KAAT AAT20160811191511008/11/16 19:15:31  5-MIN KAAT 120315Z AUTO 35004KT 10SM CLR 26/M01 A3013 4190 16 6400 330/04 RMK AO2 T02611011
94299KAAT AAT20160811192011008/11/16 19:20:31  5-MIN KAAT 120320Z AUTO 33003KT 10SM CLR 26/M01 A3013 4190 17 6400 310/03 RMK AO2 T02561006
94299KAAT AAT20160811192510908/11/16 19:25:31  5-MIN KAAT 120325Z AUTO 34004KT 10SM CLR 25/00 A3013 4190 19 6300 320/04 RMK AO2 T02500000
94299KAAT AAT20160811193010908/11/16 19:30:31  5-MIN KAAT 120330Z AUTO 33003KT 10SM CLR 24/00 A3013 4190 19 6200 320/03 RMK AO2 T02440000
94299KAAT AAT20160811193510908/11/16 19:35:31  5-MIN KAAT 120335Z AUTO 34004KT 10SM CLR 24/01 A3013 4180 20 6200 330/04 RMK AO2 T02440006
94299KAAT AAT20160811194010908/11/16 19:40:31  5-MIN KAAT 120340Z AUTO 35004KT 10SM CLR 24/01 A3014 4180 21 6200 340/04 RMK AO2 T02390006
94299KAAT AAT20160811194510908/11/16 19:45:31  5-MIN KAAT 120345Z AUTO 00000KT 10SM CLR 22/01 A3014 4180 24 6000 000/00 RMK AO2 T02220011
94299KAAT AAT20160811195011608/11/16 19:50:31  5-MIN KAAT 120350Z AUTO 36003KT 10SM CLR 23/02 A3014 4180 25 6100 340/03 RMK AO2 SLP164 T02280022
94299KAAT AAT20160811195511608/11/16 19:55:31  5-MIN KAAT 120355Z AUTO 01003KT 10SM CLR 23/02 A3014 4180 24 6000 350/03 RMK AO2 SLP165 T02280017
94299KAAT AAT20160811200010908/11/16 20:00:31  5-MIN KAAT 120400Z AUTO 01004KT 10SM CLR 23/01 A3014 4170 22 6100 360/04 RMK AO2 T02330006
94299KAAT AAT20160811200510908/11/16 20:05:31  5-MIN KAAT 120405Z AUTO 02004KT 10SM CLR 23/01 A3015 4170 22 6100 010/04 RMK AO2 T02330006
94299KAAT AAT20160811201010908/11/16 20:10:31  5-MIN KAAT 120410Z AUTO 01004KT 10SM CLR 24/01 A3015 4170 22 6200 350/04 RMK AO2 T02390011
94299KAAT AAT20160811201510908/11/16 20:15:31  5-MIN KAAT 120415Z AUTO 01003KT 10SM CLR 24/01 A3015 4170 22 6200 360/03 RMK AO2 T02390011
94299KAAT AAT20160811202010908/11/16 20:20:31  5-MIN KAAT 120420Z AUTO 02003KT 10SM CLR 24/01 A3015 4170 22 6200 360/03 RMK AO2 T02390011
94299KAAT AAT20160811202510908/11/16 20:25:31  5-MIN KAAT 120425Z AUTO 01004KT 10SM CLR 24/01 A3015 4170 22 6200 350/04 RMK AO2 T02390011
94299KAAT AAT20160811203010908/11/16 20:30:31  5-MIN KAAT 120430Z AUTO 06003KT 10SM CLR 22/01 A3015 4160 24 5900 040/03 RMK AO2 T02170006
94299KAAT AAT20160811203510908/11/16 20:35:31  5-MIN KAAT 120435Z AUTO 08003KT 10SM CLR 22/01 A3016 4160 25 5900 060/03 RMK AO2 T02170011
94299KAAT AAT20160811204010908/11/16 20:40:31  5-MIN KAAT 120440Z AUTO 09004KT 10SM CLR 21/01 A3016 4160 26 5800 080/04 RMK AO2 T02110011
94299KAAT AAT20160811204510908/11/16 20:45:31  5-MIN KAAT 120445Z AUTO 09005KT 10SM CLR 22/00 A3016 4160 23 5900 070/05 RMK AO2 T02170000
94299KAAT AAT20160811205011708/11/16 20:50:31  5-MIN KAAT 120450Z AUTO 09006KT 10SM CLR 22/M01 A3016 4160 22 5900 070/06 RMK AO2 SLP167 T02171006
94299KAAT AAT20160811205511708/11/16 20:55:31  5-MIN KAAT 120455Z AUTO 08006KT 10SM CLR 22/M01 A3016 4160 21 6000 060/06 RMK AO2 SLP167 T02221011
94299KAAT AAT20160811210011008/11/16 21:00:31  5-MIN KAAT 120500Z AUTO 08006KT 10SM CLR 22/M01 A3016 4160 21 6000 070/06 RMK AO2 T02221011
94299KAAT AAT20160811210511008/11/16 21:05:31  5-MIN KAAT 120505Z AUTO 09004KT 10SM CLR 22/M01 A3016 4160 21 6000 070/04 RMK AO2 T02221011
94299KAAT AAT20160811211010908/11/16 21:10:31  5-MIN KAAT 120510Z AUTO 21003KT 10SM CLR 18/02 A3016 4160 32 5500 190/03 RMK AO2 T01830017
94299KAAT AAT20160811211510908/11/16 21:15:31  5-MIN KAAT 120515Z AUTO 18005KT 10SM CLR 18/01 A3016 4160 32 5500 170/05 RMK AO2 T01780011
94299KAAT AAT20160811212010908/11/16 21:20:31  5-MIN KAAT 120520Z AUTO 16004KT 10SM CLR 18/01 A3016 4160 31 5500 140/04 RMK AO2 T01780006
94299KAAT AAT20160811212510908/11/16 21:25:31  5-MIN KAAT 120525Z AUTO 14004KT 10SM CLR 19/01 A3016 4160 30 5600 130/04 RMK AO2 T01890011
94299KAAT AAT20160811213010908/11/16 21:30:31  5-MIN KAAT 120530Z AUTO 13005KT 10SM CLR 19/01 A3016 4160 30 5600 110/05 RMK AO2 T01890011
94299KAAT AAT20160811213510908/11/16 21:35:31  5-MIN KAAT 120535Z AUTO 00000KT 10SM CLR 18/01 A3016 4160 30 5500 000/00 RMK AO2 T01830006
94299KAAT AAT20160811214010908/11/16 21:40:31  5-MIN KAAT 120540Z AUTO 17003KT 10SM CLR 18/01 A3016 4160 31 5500 150/03 RMK AO2 T01780006
94299KAAT AAT20160811214510908/11/16 21:45:31  5-MIN KAAT 120545Z AUTO 11003KT 10SM CLR 18/01 A3016 4160 30 5500 100/03 RMK AO2 T01830006
94299KAAT AAT20160811215013408/11/16 21:50:31  5-MIN KAAT 120550Z AUTO 00000KT 10SM CLR 18/01 A3016 4160 30 5500 000/00 RMK AO2 SLP171 T01830006 10322 20172 53002
94299KAAT AAT20160811215513408/11/16 21:55:31  5-MIN KAAT 120555Z AUTO 00000KT 10SM CLR 19/01 A3017 4160 30 5600 000/00 RMK AO2 SLP170 T01890011 10322 20172 51013
94299KAAT AAT20160811220010908/11/16 22:00:31  5-MIN KAAT 120600Z AUTO 00000KT 10SM CLR 18/01 A3017 4150 32 5500 000/00 RMK AO2 T01780011
94299KAAT AAT20160811220510908/11/16 22:05:31  5-MIN KAAT 120605Z AUTO 00000KT 10SM CLR 18/02 A3017 4160 33 5500 000/00 RMK AO2 T01780017
94299KAAT AAT20160811221010908/11/16 22:10:31  5-MIN KAAT 120610Z AUTO 04003KT 10SM CLR 17/02 A3017 4150 35 5400 020/03 RMK AO2 T01720017
94299KAAT AAT20160811221510908/11/16 22:15:31  5-MIN KAAT 120615Z AUTO 04004KT 10SM CLR 17/02 A3017 4150 35 5400 020/04 RMK AO2 T01720017
94299KAAT AAT20160811222010908/11/16 22:20:31  5-MIN KAAT 120620Z AUTO 07003KT 10SM CLR 17/01 A3017 4150 34 5300 050/03 RMK AO2 T01670011
94299KAAT AAT20160811222510908/11/16 22:25:31  5-MIN KAAT 120625Z AUTO 07003KT 10SM CLR 17/01 A3017 4150 32 5400 050/03 RMK AO2 T01720006
94299KAAT AAT20160811223010908/11/16 22:30:31  5-MIN KAAT 120630Z AUTO 06004KT 10SM CLR 17/01 A3017 4150 32 5400 040/04 RMK AO2 T01720006
94299KAAT AAT20160811223510908/11/16 22:35:31  5-MIN KAAT 120635Z AUTO 00000KT 10SM CLR 16/00 A3017 4150 34 5200 000/00 RMK AO2 T01560000
94299KAAT AAT20160811224010908/11/16 22:40:31  5-MIN KAAT 120640Z AUTO 25003KT 10SM CLR 14/00 A3017 4150 37 5100 240/03 RMK AO2 T01440000
94299KAAT AAT20160811224510908/11/16 22:45:31  5-MIN KAAT 120645Z AUTO 25003KT 10SM CLR 14/01 A3018 4140 40 5000 240/03 RMK AO2 T01390006
94299KAAT AAT20160811225011608/11/16 22:50:31  5-MIN KAAT 120650Z AUTO 29003KT 10SM CLR 14/01 A3018 4140 38 5100 280/03 RMK AO2 SLP176 T01440006
94299KAAT AAT20160811225511608/11/16 22:55:31  5-MIN KAAT 120655Z AUTO 00000KT 10SM CLR 15/01 A3018 4150 37 5100 000/00 RMK AO2 SLP175 T01500006
94299KAAT AAT20160811230010908/11/16 23:00:31  5-MIN KAAT 120700Z AUTO 00000KT 10SM CLR 17/01 A3017 4150 33 5300 000/00 RMK AO2 T01670006
94299KAAT AAT20160811230510908/11/16 23:05:31  5-MIN KAAT 120705Z AUTO 00000KT 10SM CLR 16/01 A3017 4150 34 5300 000/00 RMK AO2 T01610006
94299KAAT AAT20160811231010908/11/16 23:10:31  5-MIN KAAT 120710Z AUTO 27004KT 10SM CLR 15/00 A3018 4140 35 5100 250/04 RMK AO2 T01500000
94299KAAT AAT20160811231510908/11/16 23:15:31  5-MIN KAAT 120715Z AUTO 00000KT 10SM CLR 13/00 A3018 4150 40 4900 000/00 RMK AO2 T01330000
94299KAAT AAT20160811232010908/11/16 23:20:31  5-MIN KAAT 120720Z AUTO VRB03KT 10SM CLR 13/01 A3018 4140 41 4900 VRB/03 RMK AO2 T01330006
94299KAAT AAT20160811232510908/11/16 23:25:31  5-MIN KAAT 120725Z AUTO 00000KT 10SM CLR 13/02 A3018 4140 46 4900 000/00 RMK AO2 T01330022
94299KAAT AAT20160811233010908/11/16 23:30:31  5-MIN KAAT 120730Z AUTO 00000KT 10SM CLR 13/02 A3018 4140 45 4900 000/00 RMK AO2 T01330017
94299KAAT AAT20160811233510908/11/16 23:35:31  5-MIN KAAT 120735Z AUTO 00000KT 10SM CLR 14/02 A3018 4140 43 5100 000/00 RMK AO2 T01440022
94299KAAT AAT20160811234010908/11/16 23:40:31  5-MIN KAAT 120740Z AUTO 00000KT 10SM CLR 14/02 A3018 4140 43 5100 000/00 RMK AO2 T01440022
94299KAAT AAT20160811234510908/11/16 23:45:31  5-MIN KAAT 120745Z AUTO 11004KT 10SM CLR 14/02 A3018 4140 41 5100 100/04 RMK AO2 T01440017
94299KAAT AAT20160811235012608/11/16 23:50:31  5-MIN KAAT 120750Z AUTO 10004KT 10SM CLR 14/02 A3019 4140 41 5100 090/04 RMK AO2 SLP177 T01440017 403280050
94299KAAT AAT20160811235512608/11/16 23:55:31  5-MIN KAAT 120755Z AUTO 07003KT 10SM CLR 14/02 A3019 4140 41 5100 060/03 RMK AO2 SLP177 T01440017 403280050
94299KAAT AAT20160812000010908/12/16 00:00:31  5-MIN KAAT 120800Z AUTO 05004KT 10SM CLR 14/02 A3019 4140 43 5000 040/04 RMK AO2 T01390017
94299KAAT AAT20160812000510908/12/16 00:05:31  5-MIN KAAT 120805Z AUTO 06004KT 10SM CLR 14/01 A3019 4140 38 5100 050/04 RMK AO2 T01440006
94299KAAT AAT20160812001010908/12/16 00:10:31  5-MIN KAAT 120810Z AUTO 07004KT 10SM CLR 14/01 A3019 4130 38 5100 060/04 RMK AO2 T01440006
94299KAAT AAT20160812001510908/12/16 00:15:31  5-MIN KAAT 120815Z AUTO 07005KT 10SM CLR 14/01 A3019 4130 40 5100 050/05 RMK AO2 T01440011
94299KAAT AAT20160812002010908/12/16 00:20:31  5-MIN KAAT 120820Z AUTO 08005KT 10SM CLR 14/01 A3019 4130 38 5100 060/05 RMK AO2 T01440006
94299KAAT AAT20160812002510908/12/16 00:25:31  5-MIN KAAT 120825Z AUTO 08004KT 10SM CLR 14/00 A3019 4130 37 5100 060/04 RMK AO2 T01440000
94299KAAT AAT20160812003011008/12/16 00:30:31  5-MIN KAAT 120830Z AUTO 07003KT 10SM CLR 14/M01 A3019 4130 35 5100 060/03 RMK AO2 T01441006
94299KAAT AAT20160812003511008/12/16 00:35:31  5-MIN KAAT 120835Z AUTO 06004KT 10SM CLR 13/M01 A3019 4130 38 4900 040/04 RMK AO2 T01331006
94299KAAT AAT20160812004011008/12/16 00:40:31  5-MIN KAAT 120840Z AUTO 00000KT 10SM CLR 14/M01 A3019 4130 35 5100 000/00 RMK AO2 T01441006
94299KAAT AAT20160812004510908/12/16 00:45:31  5-MIN KAAT 120845Z AUTO 00000KT 10SM CLR 13/00 A3019 4130 40 4900 000/00 RMK AO2 T01330000
94299KAAT AAT20160812005012208/12/16 00:50:31  5-MIN KAAT 120850Z AUTO 00000KT 10SM CLR 11/01 A3019 4130 52 4600 000/00 RMK AO2 SLP182 T01060011 51013
94299KAAT AAT20160812005512208/12/16 00:55:31  5-MIN KAAT 120855Z AUTO 00000KT 10SM CLR 11/02 A3019 4130 56 4600 000/00 RMK AO2 SLP182 T01060022 51008
94299KAAT AAT20160812010010908/12/16 01:00:31  5-MIN KAAT 120900Z AUTO 00000KT 10SM CLR 11/03 A3019 4130 56 4700 000/00 RMK AO2 T01110028
94299KAAT AAT20160812010510908/12/16 01:05:31  5-MIN KAAT 120905Z AUTO 00000KT 10SM CLR 12/03 A3019 4130 56 4700 000/00 RMK AO2 T01170033
94299KAAT AAT20160812011010908/12/16 01:10:31  5-MIN KAAT 120910Z AUTO 22003KT 10SM CLR 12/03 A3019 4130 56 4700 200/03 RMK AO2 T01170033
94299KAAT AAT20160812011510908/12/16 01:15:31  5-MIN KAAT 120915Z AUTO 20004KT 10SM CLR 11/03 A3019 4130 56 4700 190/04 RMK AO2 T01110028
94299KAAT AAT20160812012010908/12/16 01:20:31  5-MIN KAAT 120920Z AUTO 19003KT 10SM CLR 11/02 A3019 4130 54 4600 180/03 RMK AO2 T01060017
94299KAAT AAT20160812012510908/12/16 01:25:31  5-MIN KAAT 120925Z AUTO 19003KT 10SM CLR 11/02 A3020 4130 52 4700 170/03 RMK AO2 T01110017
94299KAAT AAT20160812013010908/12/16 01:30:31  5-MIN KAAT 120930Z AUTO 00000KT 10SM CLR 12/02 A3020 4130 50 4700 000/00 RMK AO2 T01170017
94299KAAT AAT20160812013510908/12/16 01:35:31  5-MIN KAAT 120935Z AUTO 00000KT 10SM CLR 12/02 A3020 4130 52 4700 000/00 RMK AO2 T01170022
94299KAAT AAT20160812014010908/12/16 01:40:31  5-MIN KAAT 120940Z AUTO 00000KT 10SM CLR 12/02 A3020 4130 48 4800 000/00 RMK AO2 T01220017
94299KAAT AAT20160812014510908/12/16 01:45:31  5-MIN KAAT 120945Z AUTO 18003KT 10SM CLR 13/02 A3020 4130 46 4900 170/03 RMK AO2 T01280017
94299KAAT AAT20160812015011608/12/16 01:50:31  5-MIN KAAT 120950Z AUTO 00000KT 10SM CLR 12/01 A3020 4130 46 4800 000/00 RMK AO2 SLP181 T01220011
94299KAAT AAT20160812015511608/12/16 01:55:31  5-MIN KAAT 120955Z AUTO 00000KT 10SM CLR 11/01 A3020 4130 50 4700 000/00 RMK AO2 SLP182 T01110011
94299KAAT AAT20160812020010908/12/16 02:00:31  5-MIN KAAT 121000Z AUTO 02003KT 10SM CLR 11/02 A3020 4130 52 4700 360/03 RMK AO2 T01110017
94299KAAT AAT20160812020510908/12/16 02:05:31  5-MIN KAAT 121005Z AUTO 00000KT 10SM CLR 11/02 A3020 4130 56 4600 000/00 RMK AO2 T01060022
94299KAAT AAT20160812021010908/12/16 02:10:31  5-MIN KAAT 121010Z AUTO 00000KT 10SM CLR 11/02 A3020 4130 54 4700 000/00 RMK AO2 T01110022
94299KAAT AAT20160812021510908/12/16 02:15:31  5-MIN KAAT 121015Z AUTO 00000KT 10SM CLR 11/02 A3020 4130 54 4600 000/00 RMK AO2 T01060017
94299KAAT AAT20160812022010908/12/16 02:20:31  5-MIN KAAT 121020Z AUTO 00000KT 10SM CLR 11/01 A3020 4130 52 4600 000/00 RMK AO2 T01060011
94299KAAT AAT20160812022510908/12/16 02:25:31  5-MIN KAAT 121025Z AUTO 00000KT 10SM CLR 10/01 A3020 4120 52 4500 000/00 RMK AO2 T01000006
94299KAAT AAT20160812023010908/12/16 02:30:31  5-MIN KAAT 121030Z AUTO 05003KT 10SM CLR 11/02 A3020 4120 52 4700 030/03 RMK AO2 T01110017
94299KAAT AAT20160812023510908/12/16 02:35:31  5-MIN KAAT 121035Z AUTO 04004KT 10SM CLR 11/02 A3020 4120 54 4600 020/04 RMK AO2 T01060017
94299KAAT AAT20160812024010908/12/16 02:40:31  5-MIN KAAT 121040Z AUTO 00000KT 10SM CLR 11/02 A3020 4120 54 4600 000/00 RMK AO2 T01060017
94299KAAT AAT20160812024510908/12/16 02:45:31  5-MIN KAAT 121045Z AUTO 00000KT 10SM CLR 11/02 A3020 4120 52 4700 000/00 RMK AO2 T01110017
94299KAAT AAT20160812025011608/12/16 02:50:31  5-MIN KAAT 121050Z AUTO 00000KT 10SM CLR 09/00 A3020 4120 51 4500 000/00 RMK AO2 SLP186 T00940000
94299KAAT AAT20160812025511708/12/16 02:55:31  5-MIN KAAT 121055Z AUTO 00000KT 10SM CLR 09/M01 A3020 4120 51 4400 000/00 RMK AO2 SLP186 T00891006
94299KAAT AAT20160812030011008/12/16 03:00:31  5-MIN KAAT 121100Z AUTO 00000KT 10SM CLR 08/M01 A3020 4120 53 4300 000/00 RMK AO2 T00831006
94299KAAT AAT20160812030510908/12/16 03:05:31  5-MIN KAAT 121105Z AUTO 00000KT 10SM CLR 08/01 A3020 4120 60 4300 000/00 RMK AO2 T00830011
94299KAAT AAT20160812031010908/12/16 03:10:31  5-MIN KAAT 121110Z AUTO 00000KT 10SM CLR 09/02 A3020 4120 63 4400 000/00 RMK AO2 T00890022
94299KAAT AAT20160812031510908/12/16 03:15:31  5-MIN KAAT 121115Z AUTO 00000KT 10SM CLR 10/03 A3020 4120 60 4500 000/00 RMK AO2 T01000028
94299KAAT AAT20160812032010908/12/16 03:20:31  5-MIN KAAT 121120Z AUTO 00000KT 10SM CLR 10/02 A3020 4120 58 4500 000/00 RMK AO2 T01000022
94299KAAT AAT20160812032510908/12/16 03:25:31  5-MIN KAAT 121125Z AUTO 00000KT 10SM CLR 09/02 A3020 4120 63 4400 000/00 RMK AO2 T00890022
94299KAAT AAT20160812033010908/12/16 03:30:31  5-MIN KAAT 121130Z AUTO 00000KT 10SM CLR 09/02 A3020 4120 60 4400 000/00 RMK AO2 T00890017
94299KAAT AAT20160812033510908/12/16 03:35:31  5-MIN KAAT 121135Z AUTO 00000KT 10SM CLR 09/02 A3020 4120 63 4400 000/00 RMK AO2 T00890022
94299KAAT AAT20160812034010908/12/16 03:40:31  5-MIN KAAT 121140Z AUTO 00000KT 10SM CLR 08/02 A3020 4120 63 4300 000/00 RMK AO2 T00830017
94299KAAT AAT20160812034510908/12/16 03:45:31  5-MIN KAAT 121145Z AUTO 00000KT 10SM CLR 09/02 A3020 4120 60 4400 000/00 RMK AO2 T00890017
94299KAAT AAT20160812035013408/12/16 03:50:31  5-MIN KAAT 121150Z AUTO 00000KT 10SM CLR 09/02 A3020 4120 60 4400 000/00 RMK AO2 SLP186 T00890017 10183 20083 51008
94299KAAT AAT20160812035513408/12/16 03:55:31  5-MIN KAAT 121155Z AUTO 00000KT 10SM CLR 09/02 A3020 4120 60 4400 000/00 RMK AO2 SLP186 T00890017 10183 20083 51004
94299KAAT AAT20160812040010908/12/16 04:00:31  5-MIN KAAT 121200Z AUTO 00000KT 10SM CLR 08/02 A3020 4120 63 4300 000/00 RMK AO2 T00830017
94299KAAT AAT20160812040510908/12/16 04:05:31  5-MIN KAAT 121205Z AUTO 00000KT 10SM CLR 09/01 A3021 4120 58 4400 000/00 RMK AO2 T00890011
94299KAAT AAT20160812041010908/12/16 04:10:31  5-MIN KAAT 121210Z AUTO 00000KT 10SM CLR 08/00 A3021 4120 55 4300 000/00 RMK AO2 T00830000
94299KAAT AAT20160812041511008/12/16 04:15:31  5-MIN KAAT 121215Z AUTO 00000KT 10SM CLR 08/M01 A3021 4120 55 4300 000/00 RMK AO2 T00781006
94299KAAT AAT20160812042011008/12/16 04:20:31  5-MIN KAAT 121220Z AUTO 00000KT 10SM CLR 07/M01 A3021 4120 57 4200 000/00 RMK AO2 T00721006
94299KAAT AAT20160812042511008/12/16 04:25:31  5-MIN KAAT 121225Z AUTO 00000KT 10SM CLR 07/M01 A3021 4120 57 4200 000/00 RMK AO2 T00721006
94299KAAT AAT20160812043011008/12/16 04:30:31  5-MIN KAAT 121230Z AUTO 00000KT 10SM CLR 07/M01 A3021 4110 57 4200 000/00 RMK AO2 T00721006
94299KAAT AAT20160812043510908/12/16 04:35:31  5-MIN KAAT 121235Z AUTO 00000KT 10SM CLR 08/00 A3021 4110 58 4300 000/00 RMK AO2 T00780000
94299KAAT AAT20160812044010908/12/16 04:40:31  5-MIN KAAT 121240Z AUTO 00000KT 10SM CLR 08/00 A3021 4110 58 4300 000/00 RMK AO2 T00780000
94299KAAT AAT20160812044511008/12/16 04:45:31  5-MIN KAAT 121245Z AUTO 00000KT 10SM CLR 08/M01 A3021 4110 55 4300 000/00 RMK AO2 T00781006
94299KAAT AAT20160812045011708/12/16 04:50:31  5-MIN KAAT 121250Z AUTO 00000KT 10SM CLR 07/M01 A3021 4110 57 4200 000/00 RMK AO2 SLP192 T00721006
94299KAAT AAT20160812045511708/12/16 04:55:31  5-MIN KAAT 121255Z AUTO 00000KT 10SM CLR 07/M01 A3021 4110 57 4100 000/00 RMK AO2 SLP194 T00671011
94299KAAT AAT20160812050011008/12/16 05:00:31  5-MIN KAAT 121300Z AUTO 00000KT 10SM CLR 07/M01 A3022 4110 57 4200 000/00 RMK AO2 T00721006
94299KAAT AAT20160812050510908/12/16 05:05:31  5-MIN KAAT 121305Z AUTO 00000KT 10SM CLR 08/00 A3022 4110 55 4300 000/00 RMK AO2 T00830000
94299KAAT AAT20160812051010908/12/16 05:10:31  5-MIN KAAT 121310Z AUTO 00000KT 10SM CLR 08/01 A3022 4110 58 4300 000/00 RMK AO2 T00830006
94299KAAT AAT20160812051510908/12/16 05:15:31  5-MIN KAAT 121315Z AUTO 00000KT 10SM CLR 08/00 A3022 4100 55 4300 000/00 RMK AO2 T00830000
94299KAAT AAT20160812052010908/12/16 05:20:31  5-MIN KAAT 121320Z AUTO 00000KT 10SM CLR 09/01 A3022 4100 56 4400 000/00 RMK AO2 T00890006
94299KAAT AAT20160812052510908/12/16 05:25:31  5-MIN KAAT 121325Z AUTO 00000KT 10SM CLR 08/01 A3022 4100 58 4300 000/00 RMK AO2 T00830006
94299KAAT AAT20160812053010908/12/16 05:30:31  5-MIN KAAT 121330Z AUTO 00000KT 10SM CLR 08/00 A3022 4100 58 4200 000/00 RMK AO2 T00780000
94299KAAT AAT20160812053510908/12/16 05:35:31  5-MIN KAAT 121335Z AUTO 00000KT 7SM CLR 07/M01 A3023 4100 57 4200 000/00 RMK AO2 T00721006
94299KAAT AAT20160812054010808/12/16 05:40:31  5-MIN KAAT 121340Z AUTO 00000KT 7SM CLR 07/00 A3023 4100 60 4200 000/00 RMK AO2 T00720000
94299KAAT AAT20160812054510908/12/16 05:45:31  5-MIN KAAT 121345Z AUTO 00000KT 10SM CLR 08/01 A3023 4100 58 4300 000/00 RMK AO2 T00830006
94299KAAT AAT20160812055011608/12/16 05:50:31  5-MIN KAAT 121350Z AUTO 00000KT 10SM CLR 08/00 A3023 4100 55 4300 000/00 RMK AO2 SLP198 T00830000
94299KAAT AAT20160812055511608/12/16 05:55:31  5-MIN KAAT 121355Z AUTO 00000KT 10SM CLR 09/01 A3023 4100 56 4400 000/00 RMK AO2 SLP198 T00890006
94299KAAT AAT20160812060010908/12/16 06:00:31  5-MIN KAAT 121400Z AUTO 00000KT 10SM CLR 09/01 A3023 4090 53 4400 000/00 RMK AO2 T00940006
94299KAAT AAT20160812060510908/12/16 06:05:31  5-MIN KAAT 121405Z AUTO 00000KT 10SM CLR 09/00 A3023 4090 51 4400 000/00 RMK AO2 T00940000
94299KAAT AAT20160812061010908/12/16 06:10:31  5-MIN KAAT 121410Z AUTO 00000KT 10SM CLR 11/00 A3023 4090 48 4600 000/00 RMK AO2 T01060000
94299KAAT AAT20160812061510908/12/16 06:15:31  5-MIN KAAT 121415Z AUTO 00000KT 10SM CLR 12/01 A3023 4090 46 4700 000/00 RMK AO2 T01170006
94299KAAT AAT20160812062010908/12/16 06:20:31  5-MIN KAAT 121420Z AUTO 00000KT 10SM CLR 12/01 A3024 4090 46 4800 000/00 RMK AO2 T01220011
94299KAAT AAT20160812062510908/12/16 06:25:31  5-MIN KAAT 121425Z AUTO 00000KT 10SM CLR 12/01 A3024 4090 46 4700 000/00 RMK AO2 T01170006
94299KAAT AAT20160812063010908/12/16 06:30:31  5-MIN KAAT 121430Z AUTO 00000KT 10SM CLR 12/01 A3024 4090 46 4800 000/00 RMK AO2 T01220011
94299KAAT AAT20160812063510908/12/16 06:35:31  5-MIN KAAT 121435Z AUTO 00000KT 10SM CLR 13/01 A3024 4090 44 4800 000/00 RMK AO2 T01280011
94299KAAT AAT20160812064010908/12/16 06:40:31  5-MIN KAAT 121440Z AUTO 00000KT 10SM CLR 13/01 A3024 4090 43 4900 000/00 RMK AO2 T01330011
94299KAAT AAT20160812064510908/12/16 06:45:31  5-MIN KAAT 121445Z AUTO 00000KT 10SM CLR 14/01 A3024 4090 41 4900 000/00 RMK AO2 T01390011
94299KAAT AAT20160812065012208/12/16 06:50:31  5-MIN KAAT 121450Z AUTO 00000KT 10SM CLR 14/01 A3024 4090 41 4900 000/00 RMK AO2 SLP197 T01390011 51004
94299KAAT AAT20160812065512208/12/16 06:55:31  5-MIN KAAT 121455Z AUTO 00000KT 10SM CLR 14/01 A3024 4090 40 5000 000/00 RMK AO2 SLP197 T01440011 53011
94299KAAT AAT20160812070010908/12/16 07:00:31  5-MIN KAAT 121500Z AUTO 00000KT 10SM CLR 15/02 A3024 4090 40 5100 000/00 RMK AO2 T01500017
94299KAAT AAT20160812070510908/12/16 07:05:31  5-MIN KAAT 121505Z AUTO 00000KT 10SM CLR 15/02 A3024 4090 42 5100 000/00 RMK AO2 T01500022
94299KAAT AAT20160812071010908/12/16 07:10:31  5-MIN KAAT 121510Z AUTO 00000KT 10SM CLR 16/02 A3024 4090 39 5200 000/00 RMK AO2 T01610022
94299KAAT AAT20160812071510908/12/16 07:15:31  5-MIN KAAT 121515Z AUTO 00000KT 10SM CLR 16/03 A3024 4090 40 5200 000/00 RMK AO2 T01610028
94299KAAT AAT20160812072010908/12/16 07:20:31  5-MIN KAAT 121520Z AUTO 00000KT 10SM CLR 17/02 A3024 4090 37 5300 000/00 RMK AO2 T01670022
94299KAAT AAT20160812072510908/12/16 07:25:31  5-MIN KAAT 121525Z AUTO 00000KT 10SM CLR 17/02 A3024 4090 36 5300 000/00 RMK AO2 T01670017
94299KAAT AAT20160812073010908/12/16 07:30:31  5-MIN KAAT 121530Z AUTO 00000KT 10SM CLR 17/02 A3024 4090 35 5300 000/00 RMK AO2 T01720017
94299KAAT AAT20160812073510908/12/16 07:35:31  5-MIN KAAT 121535Z AUTO 00000KT 10SM CLR 18/02 A3024 4090 33 5400 000/00 RMK AO2 T01780017
94299KAAT AAT20160812074010908/12/16 07:40:31  5-MIN KAAT 121540Z AUTO VRB03KT 10SM CLR 18/02 A3024 4090 32 5400 VRB/03 RMK AO2 T01830017
94299KAAT AAT20160812074510908/12/16 07:45:31  5-MIN KAAT 121545Z AUTO 15003KT 10SM CLR 19/02 A3024 4090 31 5500 140/03 RMK AO2 T01890017
94299KAAT AAT20160812075011608/12/16 07:50:31  5-MIN KAAT 121550Z AUTO 16004KT 10SM CLR 19/02 A3024 4090 31 5500 140/04 RMK AO2 SLP196 T01890017
94299KAAT AAT20160812075511608/12/16 07:55:31  5-MIN KAAT 121555Z AUTO 16004KT 10SM CLR 19/02 A3024 4090 32 5500 150/04 RMK AO2 SLP196 T01890022
94299KAAT AAT20160812080010908/12/16 08:00:31  5-MIN KAAT 121600Z AUTO 00000KT 10SM CLR 19/02 A3024 4090 31 5600 000/00 RMK AO2 T01940022
94299KAAT AAT20160812080510908/12/16 08:05:31  5-MIN KAAT 121605Z AUTO 00000KT 10SM CLR 20/03 A3024 4090 31 5600 000/00 RMK AO2 T02000028
94299KAAT AAT20160812081010908/12/16 08:10:31  5-MIN KAAT 121610Z AUTO VRB03KT 10SM CLR 20/02 A3024 4090 30 5600 VRB/03 RMK AO2 T02000022
94299KAAT AAT20160812081510908/12/16 08:15:31  5-MIN KAAT 121615Z AUTO 00000KT 10SM CLR 21/02 A3024 4090 29 5700 000/00 RMK AO2 T02060022
94299KAAT AAT20160812082010908/12/16 08:20:31  5-MIN KAAT 121620Z AUTO VRB03KT 10SM CLR 21/03 A3024 4090 30 5700 VRB/03 RMK AO2 T02060028
94299KAAT AAT20160812082510908/12/16 08:25:31  5-MIN KAAT 121625Z AUTO 00000KT 10SM CLR 21/03 A3024 4090 29 5800 000/00 RMK AO2 T02110028
94299KAAT AAT20160812083010908/12/16 08:30:31  5-MIN KAAT 121630Z AUTO 00000KT 10SM CLR 21/02 A3024 4090 28 5800 000/00 RMK AO2 T02110022
94299KAAT AAT20160812083510908/12/16 08:35:31  5-MIN KAAT 121635Z AUTO 00000KT 10SM CLR 22/03 A3024 4090 27 5900 000/00 RMK AO2 T02220028
94299KAAT AAT20160812084010908/12/16 08:40:31  5-MIN KAAT 121640Z AUTO 00000KT 10SM CLR 22/03 A3024 4090 27 5900 000/00 RMK AO2 T02220028
94299KAAT AAT20160812084510908/12/16 08:45:31  5-MIN KAAT 121645Z AUTO 00000KT 10SM CLR 23/03 A3024 4090 26 5900 000/00 RMK AO2 T02280028
94299KAAT AAT20160812085011608/12/16 08:50:31  5-MIN KAAT 121650Z AUTO 00000KT 10SM CLR 23/02 A3023 4090 25 5900 000/00 RMK AO2 SLP192 T02280022
94299KAAT AAT20160812085511608/12/16 08:55:31  5-MIN KAAT 121655Z AUTO 04003KT 10SM CLR 23/03 A3023 4090 25 6000 020/03 RMK AO2 SLP191 T02330028
94299KAAT AAT20160812090010908/12/16 09:00:31  5-MIN KAAT 121700Z AUTO 00000KT 10SM CLR 23/03 A3023 4090 25 6000 000/00 RMK AO2 T02330028
94299KAAT AAT20160812090510908/12/16 09:05:31  5-MIN KAAT 121705Z AUTO 00000KT 10SM CLR 23/02 A3023 4090 24 6000 000/00 RMK AO2 T02330022
94299KAAT AAT20160812091010908/12/16 09:10:31  5-MIN KAAT 121710Z AUTO 05003KT 10SM CLR 24/02 A3023 4100 24 6100 030/03 RMK AO2 T02390022
94299KAAT AAT20160812091510908/12/16 09:15:31  5-MIN KAAT 121715Z AUTO VRB03KT 10SM CLR 24/02 A3023 4090 23 6100 VRB/03 RMK AO2 T02440022
94299KAAT AAT20160812092010908/12/16 09:20:31  5-MIN KAAT 121720Z AUTO 00000KT 10SM CLR 24/02 A3023 4090 23 6100 000/00 RMK AO2 T02440022
94299KAAT AAT20160812092510908/12/16 09:25:31  5-MIN KAAT 121725Z AUTO 00000KT 10SM CLR 25/02 A3023 4100 22 6200 000/00 RMK AO2 T02500022
94299KAAT AAT20160812093010908/12/16 09:30:31  5-MIN KAAT 121730Z AUTO VRB03KT 10SM CLR 25/02 A3023 4100 22 6200 VRB/03 RMK AO2 T02500022
94299KAAT AAT20160812093510908/12/16 09:35:31  5-MIN KAAT 121735Z AUTO VRB03KT 10SM CLR 26/02 A3023 4100 21 6300 VRB/03 RMK AO2 T02560017
94299KAAT AAT20160812094010908/12/16 09:40:31  5-MIN KAAT 121740Z AUTO 00000KT 10SM CLR 26/02 A3023 4100 21 6300 000/00 RMK AO2 T02560017
94299KAAT AAT20160812094510908/12/16 09:45:31  5-MIN KAAT 121745Z AUTO 00000KT 10SM CLR 26/02 A3023 4100 21 6300 000/00 RMK AO2 T02560017
94299KAAT AAT20160812095013408/12/16 09:50:31  5-MIN KAAT 121750Z AUTO 00000KT 10SM CLR 26/02 A3023 4100 21 6300 000/00 RMK AO2 SLP189 T02560017 10256 20067 53011
94299KAAT AAT20160812095513408/12/16 09:55:31  5-MIN KAAT 121755Z AUTO 00000KT 10SM CLR 27/02 A3023 4100 19 6400 000/00 RMK AO2 SLP189 T02670017 10267 20067 58005
94299KAAT AAT20160812100010908/12/16 10:00:31  5-MIN KAAT 121800Z AUTO 00000KT 10SM CLR 27/02 A3023 4100 19 6400 000/00 RMK AO2 T02670017
94299KAAT AAT20160812100510908/12/16 10:05:31  5-MIN KAAT 121805Z AUTO 00000KT 10SM CLR 27/01 A3022 4100 18 6400 000/00 RMK AO2 T02720011
94299KAAT AAT20160812101010908/12/16 10:10:31  5-MIN KAAT 121810Z AUTO 00000KT 10SM CLR 27/01 A3022 4100 18 6400 000/00 RMK AO2 T02720011
94299KAAT AAT20160812101510908/12/16 10:15:31  5-MIN KAAT 121815Z AUTO 00000KT 10SM CLR 28/01 A3022 4100 17 6500 000/00 RMK AO2 T02780011
94299KAAT AAT20160812102010908/12/16 10:20:31  5-MIN KAAT 121820Z AUTO 00000KT 10SM CLR 28/01 A3022 4100 17 6500 000/00 RMK AO2 T02780006
94299KAAT AAT20160812102510908/12/16 10:25:31  5-MIN KAAT 121825Z AUTO 03004KT 10SM CLR 29/01 A3022 4100 15 6600 010/04 RMK AO2 T02890006
94299KAAT AAT20160812103010908/12/16 10:30:31  5-MIN KAAT 121830Z AUTO VRB03KT 10SM CLR 29/01 A3022 4110 15 6600 VRB/03 RMK AO2 T02890006
94299KAAT AAT20160812103510908/12/16 10:35:31  5-MIN KAAT 121835Z AUTO 00000KT 10SM CLR 28/01 A3022 4110 16 6600 000/00 RMK AO2 T02830006
94299KAAT AAT20160812104010908/12/16 10:40:31  5-MIN KAAT 121840Z AUTO 10003KT 10SM CLR 29/01 A3022 4110 15 6600 090/03 RMK AO2 T02890006
94299KAAT AAT20160812104510908/12/16 10:45:31  5-MIN KAAT 121845Z AUTO VRB03KT 10SM CLR 29/01 A3022 4110 16 6700 VRB/03 RMK AO2 T02940011
94299KAAT AAT20160812105011608/12/16 10:50:31  5-MIN KAAT 121850Z AUTO VRB03KT 10SM CLR 29/01 A3022 4110 15 6700 VRB/03 RMK AO2 SLP186 T02940006
94299KAAT AAT20160812105511608/12/16 10:55:31  5-MIN KAAT 121855Z AUTO 00000KT 10SM CLR 30/01 A3021 4110 15 6800 000/00 RMK AO2 SLP184 T03000011
94299KAAT AAT20160812110010908/12/16 11:00:31  5-MIN KAAT 121900Z AUTO VRB04KT 10SM CLR 31/01 A3021 4110 15 6800 VRB/04 RMK AO2 T03060011
94299KAAT AAT20160812110510908/12/16 11:05:31  5-MIN KAAT 121905Z AUTO VRB03KT 10SM CLR 31/01 A3021 4110 15 6800 VRB/03 RMK AO2 T03060011
94299KAAT AAT20160812111010908/12/16 11:10:31  5-MIN KAAT 121910Z AUTO VRB03KT 10SM CLR 31/00 A3021 4110 13 6800 VRB/03 RMK AO2 T03060000
94299KAAT AAT20160812111511008/12/16 11:15:31  5-MIN KAAT 121915Z AUTO VRB03KT 10SM CLR 31/M01 A3021 4120 13 6900 VRB/03 RMK AO2 T03111006
94299KAAT AAT20160812112011008/12/16 11:20:31  5-MIN KAAT 121920Z AUTO 10004KT 10SM CLR 31/M01 A3021 4120 12 6800 090/04 RMK AO2 T03061011
94299KAAT AAT20160812112511008/12/16 11:25:31  5-MIN KAAT 121925Z AUTO 00000KT 10SM CLR 30/M01 A3021 4120 13 6800 000/00 RMK AO2 T03001011
94299KAAT AAT20160812113011008/12/16 11:30:31  5-MIN KAAT 121930Z AUTO 00000KT 10SM CLR 31/M01 A3020 4120 13 6900 000/00 RMK AO2 T03111006
94299KAAT AAT20160812113511008/12/16 11:35:31  5-MIN KAAT 121935Z AUTO VRB04KT 10SM CLR 32/M01 A3020 4120 12 6900 VRB/04 RMK AO2 T03171006
94299KAAT AAT20160812114011008/12/16 11:40:31  5-MIN KAAT 121940Z AUTO VRB03KT 10SM CLR 31/M01 A3020 4120 13 6900 VRB/03 RMK AO2 T03111006
94299KAAT AAT20160812114511008/12/16 11:45:31  5-MIN KAAT 121945Z AUTO 00000KT 10SM CLR 32/M01 A3020 4120 12 6900 000/00 RMK AO2 T03171006
94299KAAT AAT20160812115010708/12/16 11:50:31  5-MIN KAAT 121950Z AUTO 10SM CLR 31/M01 A3020 4120 13 6900 M /M RMK AO2 SLP179 T03111006
94299KAAT AAT20160812115511708/12/16 11:55:31  5-MIN KAAT 121955Z AUTO VRB05KT 10SM CLR 32/M01 A3020 4120 12 7000 VRB/05 RMK AO2 SLP177 T03171006
94299KAAT AAT20160812120011008/12/16 12:00:31  5-MIN KAAT 122000Z AUTO 30003KT 10SM CLR 32/M01 A3020 4130 12 7000 280/03 RMK AO2 T03171006
94299KAAT AAT20160812120511008/12/16 12:05:31  5-MIN KAAT 122005Z AUTO 27007KT 10SM CLR 32/M01 A3020 4130 12 7000 260/07 RMK AO2 T03171006
94299KAAT AAT20160812121011008/12/16 12:10:31  5-MIN KAAT 122010Z AUTO VRB04KT 10SM CLR 32/M01 A3019 4130 12 7000 VRB/04 RMK AO2 T03171006
94299KAAT AAT20160812121511008/12/16 12:15:31  5-MIN KAAT 122015Z AUTO VRB04KT 10SM CLR 32/M01 A3019 4130 12 7000 VRB/04 RMK AO2 T03171006
94299KAAT AAT20160812122011008/12/16 12:20:31  5-MIN KAAT 122020Z AUTO VRB03KT 10SM CLR 32/M01 A3019 4130 12 7000 VRB/03 RMK AO2 T03171006
94299KAAT AAT20160812122511608/12/16 12:25:31  5-MIN KAAT 122025Z AUTO 28009G15KT 10SM CLR 32/M01 A3019 4130 12 7000 270/09G15 RMK AO2 T03221006
94299KAAT AAT20160812123011608/12/16 12:30:31  5-MIN KAAT 122030Z AUTO 28009G15KT 10SM CLR 33/M01 A3019 4130 11 7100 270/09G15 RMK AO2 T03331011
94299KAAT AAT20160812123511008/12/16 12:35:31  5-MIN KAAT 122035Z AUTO 26007KT 10SM CLR 33/M01 A3019 4140 11 7100 250/07 RMK AO2 T03281011
94299KAAT AAT20160812124011008/12/16 12:40:31  5-MIN KAAT 122040Z AUTO VRB05KT 10SM CLR 32/M01 A3018 4140 11 7000 VRB/05 RMK AO2 T03221011
94299KAAT AAT20160812124510008/12/16 12:45:31  5-MIN KAAT 122045Z AUTO 10SM CLR 33/M01 A3018 4140 11 7100 M /M RMK AO2 T03281011
94299KAAT AAT20160812125012308/12/16 12:50:31  5-MIN KAAT 122050Z AUTO 22005KT 10SM CLR 33/M02 A3018 4140 10 7100 200/05 RMK AO2 SLP175 T03281022 58005
94299KAAT AAT20160812125512308/12/16 12:55:31  5-MIN KAAT 122055Z AUTO 25007KT 10SM CLR 33/M02 A3018 4140 10 7100 230/07 RMK AO2 SLP173 T03331017 58014
94299KAAT AAT20160812130011608/12/16 13:00:31  5-MIN KAAT 122100Z AUTO 27011G17KT 10SM CLR 33/M02 A3018 4140 10 7100 260/11G17 RMK AO2 T03331017
94299KAAT AAT20160812130511608/12/16 13:05:31  5-MIN KAAT 122105Z AUTO 27006G17KT 10SM CLR 33/M02 A3018 4140 10 7200 250/06G17 RMK AO2 T03331022
94299KAAT AAT20160812131011608/12/16 13:10:31  5-MIN KAAT 122110Z AUTO 28007G16KT 10SM CLR 33/M02 A3018 4150 10 7200 270/07G16 RMK AO2 T03331017
94299KAAT AAT20160812131511608/12/16 13:15:31  5-MIN KAAT 122115Z AUTO 28008G16KT 10SM CLR 33/M02 A3017 4150 10 7200 260/08G16 RMK AO2 T03331017
94299KAAT AAT20160812132011608/12/16 13:20:31  5-MIN KAAT 122120Z AUTO 25006G16KT 10SM CLR 33/M01 A3017 4150 11 7200 230/06G16 RMK AO2 T03331011
94299KAAT AAT20160812132511608/12/16 13:25:31  5-MIN KAAT 122125Z AUTO VRB04G15KT 10SM CLR 33/M01 A3017 4150 11 7100 VRB/04G15 RMK AO2 T03281011
94299KAAT AAT20160812133010008/12/16 13:30:31  5-MIN KAAT 122130Z AUTO 10SM CLR 33/M02 A3017 4150 10 7200 M /M RMK AO2 T03331017
94299KAAT AAT20160812133511008/12/16 13:35:31  5-MIN KAAT 122135Z AUTO 25007KT 10SM CLR 33/M02 A3017 4150 10 7200 240/07 RMK AO2 T03331017
94299KAAT AAT20160812134011008/12/16 13:40:31  5-MIN KAAT 122140Z AUTO 27006KT 10SM CLR 33/M01 A3017 4150 11 7200 250/06 RMK AO2 T03331011
94299KAAT AAT20160812134511008/12/16 13:45:31  5-MIN KAAT 122145Z AUTO VRB04KT 10SM CLR 34/M01 A3017 4150 11 7200 VRB/04 RMK AO2 T03391006
94299KAAT AAT20160812135011708/12/16 13:50:31  5-MIN KAAT 122150Z AUTO 23008KT 10SM CLR 33/M01 A3017 4150 11 7100 220/08 RMK AO2 SLP168 T03281006
94299KAAT AAT20160812135511708/12/16 13:55:31  5-MIN KAAT 122155Z AUTO 22007KT 10SM CLR 33/M01 A3016 4160 11 7100 200/07 RMK AO2 SLP168 T03281011
94299KAAT AAT20160812140011008/12/16 14:00:31  5-MIN KAAT 122200Z AUTO VRB03KT 10SM CLR 33/M01 A3016 4160 11 7100 VRB/03 RMK AO2 T03281011
94299KAAT AAT20160812140511608/12/16 14:05:31  5-MIN KAAT 122205Z AUTO 25011G17KT 10SM CLR 34/M01 A3016 4160 10 7200 230/11G17 RMK AO2 T03391011
94299KAAT AAT20160812141011608/12/16 14:10:31  5-MIN KAAT 122210Z AUTO 24008G17KT 10SM CLR 34/M01 A3016 4160 10 7200 230/08G17 RMK AO2 T03391011
94299KAAT AAT20160812141512608/12/16 14:15:31  5-MIN KAAT 122215Z AUTO 26007KT 210V300 10SM CLR 33/M01 A3016 4160 11 7200 250/07 200V290 RMK AO2 T03331011
94299KAAT AAT20160812142011008/12/16 14:20:31  5-MIN KAAT 122220Z AUTO 26008KT 10SM CLR 34/M02 A3016 4160 10 7200 250/08 RMK AO2 T03391017
94299KAAT AAT20160812142511608/12/16 14:25:31  5-MIN KAAT 122225Z AUTO 27009G20KT 10SM CLR 34/M02 A3016 4160 10 7200 250/09G20 RMK AO2 T03391017
94299KAAT AAT20160812143011608/12/16 14:30:31  5-MIN KAAT 122230Z AUTO VRB06G20KT 10SM CLR 34/M02 A3015 4170 10 7200 VRB/06G20 RMK AO2 T03391017
94299KAAT AAT20160812143511008/12/16 14:35:31  5-MIN KAAT 122235Z AUTO VRB03KT 10SM CLR 34/M02 A3015 4170 10 7200 VRB/03 RMK AO2 T03391017
94299KAAT AAT20160812144011608/12/16 14:40:31  5-MIN KAAT 122240Z AUTO 27012G18KT 10SM CLR 34/M01 A3016 4160 10 7300 260/12G18 RMK AO2 T03441011
94299KAAT AAT20160812144511608/12/16 14:45:31  5-MIN KAAT 122245Z AUTO 25007G18KT 10SM CLR 34/M02 A3015 4170 10 7200 240/07G18 RMK AO2 T03391017
94299KAAT AAT20160812145011708/12/16 14:50:31  5-MIN KAAT 122250Z AUTO 25009KT 10SM CLR 34/M02 A3015 4170 09 7300 240/09 RMK AO2 SLP163 T03441022
94299KAAT AAT20160812145512308/12/16 14:55:31  5-MIN KAAT 122255Z AUTO VRB04G14KT 10SM CLR 34/M03 A3015 4170 09 7200 VRB/04G14 RMK AO2 SLP164 T03391028
94299KAAT AAT20160812150013208/12/16 15:00:31  5-MIN KAAT 122300Z AUTO 27010G21KT 190V310 10SM CLR 34/M02 A3015 4170 09 7200 260/10G21 180V300 RMK AO2 T03391022
94299KAAT AAT20160812150511608/12/16 15:05:31  5-MIN KAAT 122305Z AUTO VRB06G21KT 10SM CLR 34/M02 A3014 4170 09 7200 VRB/06G21 RMK AO2 T03391022
94299KAAT AAT20160812151011008/12/16 15:10:31  5-MIN KAAT 122310Z AUTO 26009KT 10SM CLR 34/M02 A3014 4180 09 7300 250/09 RMK AO2 T03441017
94299KAAT AAT20160812151511608/12/16 15:15:31  5-MIN KAAT 122315Z AUTO 24010G14KT 10SM CLR 34/M02 A3014 4170 09 7200 230/10G14 RMK AO2 T03391022
94299KAAT AAT20160812152013208/12/16 15:20:31  5-MIN KAAT 122320Z AUTO 28007G14KT 250V340 10SM CLR 34/M03 A3014 4170 09 7300 270/07G14 240V330 RMK AO2 T03441028
94299KAAT AAT20160812152511608/12/16 15:25:31  5-MIN KAAT 122325Z AUTO 27013G20KT 10SM CLR 34/M02 A3014 4170 09 7300 260/13G20 RMK AO2 T03441022
94299KAAT AAT20160812153011608/12/16 15:30:31  5-MIN KAAT 122330Z AUTO 25008G20KT 10SM CLR 34/M03 A3014 4180 08 7300 240/08G20 RMK AO2 T03441033
94299KAAT AAT20160812153511608/12/16 15:35:31  5-MIN KAAT 122335Z AUTO 27009G15KT 10SM CLR 34/M03 A3014 4180 09 7300 260/09G15 RMK AO2 T03391033
94299KAAT AAT20160812154011608/12/16 15:40:31  5-MIN KAAT 122340Z AUTO 27009G15KT 10SM CLR 34/M03 A3014 4180 09 7300 260/09G15 RMK AO2 T03391033
94299KAAT AAT20160812154511608/12/16 15:45:31  5-MIN KAAT 122345Z AUTO VRB06G15KT 10SM CLR 34/M04 A3014 4180 08 7300 VRB/06G15 RMK AO2 T03391039
94299KAAT AAT20160812155013508/12/16 15:50:31  5-MIN KAAT 122350Z AUTO 28008KT 10SM CLR 34/M04 A3014 4180 08 7300 270/08 RMK AO2 SLP161 T03441044 10350 20267 58014
94299KAAT AAT20160812155515108/12/16 15:55:31  5-MIN KAAT 122355Z AUTO 28007KT 230V310 10SM CLR 34/M04 A3014 4180 08 7300 270/07 220V300 RMK AO2 SLP160 T03391039 10350 20267 56013
94299KAAT AAT20160812160011608/12/16 16:00:31  5-MIN KAAT 130000Z AUTO 27013G17KT 10SM CLR 34/M03 A3014 4180 09 7300 260/13G17 RMK AO2 T03391033
94299KAAT AAT20160812160511608/12/16 16:05:31  5-MIN KAAT 130005Z AUTO 26009G17KT 10SM CLR 34/M04 A3014 4180 08 7300 240/09G17 RMK AO2 T03391039
94299KAAT AAT20160812161010008/12/16 16:10:31  5-MIN KAAT 130010Z AUTO 10SM CLR 34/M03 A3013 4180 09 7300 M /M RMK AO2 T03391028
94299KAAT AAT20160812161511008/12/16 16:15:31  5-MIN KAAT 130015Z AUTO 25011KT 10SM CLR 34/M03 A3013 4190 09 7300 230/11 RMK AO2 T03391033
94299KAAT AAT20160812162011008/12/16 16:20:31  5-MIN KAAT 130020Z AUTO 24009KT 10SM CLR 34/M04 A3013 4190 08 7300 230/09 RMK AO2 T03391039
94299KAAT AAT20160812162511008/12/16 16:25:31  5-MIN KAAT 130025Z AUTO 27010KT 10SM CLR 33/M03 A3013 4190 09 7200 250/10 RMK AO2 T03331028
94299KAAT AAT20160812163011608/12/16 16:30:31  5-MIN KAAT 130030Z AUTO 26010G16KT 10SM CLR 34/M02 A3013 4190 10 7300 250/10G16 RMK AO2 T03391017
94299KAAT AAT20160812163511008/12/16 16:35:31  5-MIN KAAT 130035Z AUTO 26008KT 10SM CLR 33/M02 A3013 4190 10 7200 240/08 RMK AO2 T03331022
94299KAAT AAT20160812164011008/12/16 16:40:31  5-MIN KAAT 130040Z AUTO 28009KT 10SM CLR 34/M02 A3013 4190 09 7300 260/09 RMK AO2 T03391022
94299KAAT AAT20160812164511608/12/16 16:45:31  5-MIN KAAT 130045Z AUTO 25012G17KT 10SM CLR 33/M02 A3013 4190 10 7200 240/12G17 RMK AO2 T03331022
94299KAAT AAT20160812165012308/12/16 16:50:31  5-MIN KAAT 130050Z AUTO 26013G17KT 10SM CLR 33/M02 A3013 4190 10 7200 250/13G17 RMK AO2 SLP159 T03331022
94299KAAT AAT20160812165511708/12/16 16:55:31  5-MIN KAAT 130055Z AUTO 28012KT 10SM CLR 33/M02 A3013 4190 10 7200 270/12 RMK AO2 SLP161 T03331022
94299KAAT AAT20160812170011608/12/16 17:00:31  5-MIN KAAT 130100Z AUTO 29008G16KT 10SM CLR 33/M02 A3012 4190 10 7200 270/08G16 RMK AO2 T03331022
94299KAAT AAT20160812170511608/12/16 17:05:31  5-MIN KAAT 130105Z AUTO 28007G16KT 10SM CLR 33/M02 A3012 4190 10 7200 270/07G16 RMK AO2 T03331022
94299KAAT AAT20160812171011608/12/16 17:10:31  5-MIN KAAT 130110Z AUTO 30006G15KT 10SM CLR 33/M02 A3012 4200 10 7200 280/06G15 RMK AO2 T03331022
94299KAAT AAT20160812171511008/12/16 17:15:31  5-MIN KAAT 130115Z AUTO 24009KT 10SM CLR 33/M02 A3012 4200 10 7200 220/09 RMK AO2 T03281022
94299KAAT AAT20160812172011608/12/16 17:20:31  5-MIN KAAT 130120Z AUTO 26011G16KT 10SM CLR 33/M03 A3012 4200 10 7200 240/11G16 RMK AO2 T03281028
94299KAAT AAT20160812172511608/12/16 17:25:31  5-MIN KAAT 130125Z AUTO 25009G16KT 10SM CLR 33/M03 A3012 4200 10 7200 240/09G16 RMK AO2 T03281028
94299KAAT AAT20160812173011008/12/16 17:30:31  5-MIN KAAT 130130Z AUTO 25009KT 10SM CLR 33/M02 A3012 4200 10 7200 230/09 RMK AO2 T03281022
94299KAAT AAT20160812173511008/12/16 17:35:31  5-MIN KAAT 130135Z AUTO 25011KT 10SM CLR 33/M02 A3012 4200 10 7200 230/11 RMK AO2 T03281022
94299KAAT AAT20160812174011008/12/16 17:40:31  5-MIN KAAT 130140Z AUTO 25009KT 10SM CLR 32/M02 A3012 4200 10 7100 240/09 RMK AO2 T03221022
94299KAAT AAT20160812174511008/12/16 17:45:31  5-MIN KAAT 130145Z AUTO 24008KT 10SM CLR 32/M02 A3012 4200 10 7100 230/08 RMK AO2 T03221022
94299KAAT AAT20160812175011708/12/16 17:50:31  5-MIN KAAT 130150Z AUTO 26008KT 10SM CLR 32/M02 A3012 4200 10 7100 250/08 RMK AO2 SLP156 T03221022
94299KAAT AAT20160812175511708/12/16 17:55:31  5-MIN KAAT 130155Z AUTO 25008KT 10SM CLR 32/M02 A3012 4200 10 7100 230/08 RMK AO2 SLP155 T03221022
94299KAAT AAT20160812180011008/12/16 18:00:31  5-MIN KAAT 130200Z AUTO 24008KT 10SM CLR 32/M02 A3012 4200 11 7000 220/08 RMK AO2 T03171022
94299KAAT AAT20160812180511008/12/16 18:05:31  5-MIN KAAT 130205Z AUTO 25008KT 10SM CLR 32/M02 A3012 4200 11 7000 240/08 RMK AO2 T03171017
94299KAAT AAT20160812181011008/12/16 18:10:31  5-MIN KAAT 130210Z AUTO 26009KT 10SM CLR 32/M02 A3012 4200 11 7000 240/09 RMK AO2 T03171017
94299KAAT AAT20160812181511008/12/16 18:15:31  5-MIN KAAT 130215Z AUTO 26010KT 10SM CLR 32/M02 A3012 4200 11 7000 240/10 RMK AO2 T03171017
94299KAAT AAT20160812182011008/12/16 18:20:31  5-MIN KAAT 130220Z AUTO 25009KT 10SM CLR 31/M01 A3012 4200 12 7000 240/09 RMK AO2 T03111011
94299KAAT AAT20160812182511008/12/16 18:25:31  5-MIN KAAT 130225Z AUTO 24006KT 10SM CLR 31/M01 A3012 4200 12 7000 230/06 RMK AO2 T03111011
94299KAAT AAT20160812183011008/12/16 18:30:31  5-MIN KAAT 130230Z AUTO 24007KT 10SM CLR 31/M01 A3012 4200 13 6900 230/07 RMK AO2 T03061006
94299KAAT AAT20160812183511008/12/16 18:35:31  5-MIN KAAT 130235Z AUTO 24008KT 10SM CLR 30/M01 A3012 4190 13 6900 220/08 RMK AO2 T03001006
94299KAAT AAT20160812184010908/12/16 18:40:31  5-MIN KAAT 130240Z AUTO 25008KT 10SM CLR 30/00 A3012 4190 14 6900 240/08 RMK AO2 T03000000
94299KAAT AAT20160812184510908/12/16 18:45:31  5-MIN KAAT 130245Z AUTO 26010KT 10SM CLR 30/01 A3013 4190 14 6900 250/10 RMK AO2 T03000006
94299KAAT AAT20160812185012208/12/16 18:50:31  5-MIN KAAT 130250Z AUTO 26009KT 10SM CLR 29/01 A3013 4190 15 6800 240/09 RMK AO2 SLP156 T02940006 56013
94299KAAT AAT20160812185512208/12/16 18:55:31  5-MIN KAAT 130255Z AUTO 26009KT 10SM CLR 29/01 A3013 4190 15 6800 250/09 RMK AO2 SLP156 T02940006 55002
94299KAAT AAT20160812190010908/12/16 19:00:31  5-MIN KAAT 130300Z AUTO 26009KT 10SM CLR 29/01 A3013 4190 16 6700 250/09 RMK AO2 T02890011
94299KAAT AAT20160812190510908/12/16 19:05:31  5-MIN KAAT 130305Z AUTO 26009KT 10SM CLR 29/01 A3013 4190 16 6700 240/09 RMK AO2 T02890011
94299KAAT AAT20160812191010908/12/16 19:10:31  5-MIN KAAT 130310Z AUTO 26008KT 10SM CLR 28/01 A3013 4180 17 6700 250/08 RMK AO2 T02830011
94299KAAT AAT20160812191510908/12/16 19:15:31  5-MIN KAAT 130315Z AUTO 26009KT 10SM CLR 28/01 A3014 4180 17 6600 240/09 RMK AO2 T02780011
94299KAAT AAT20160812192010908/12/16 19:20:31  5-MIN KAAT 130320Z AUTO 26009KT 10SM CLR 28/02 A3014 4180 18 6600 240/09 RMK AO2 T02780017
94299KAAT AAT20160812192510908/12/16 19:25:31  5-MIN KAAT 130325Z AUTO 26009KT 10SM CLR 28/02 A3014 4180 18 6600 250/09 RMK AO2 T02780017
94299KAAT AAT20160812193010908/12/16 19:30:31  5-MIN KAAT 130330Z AUTO 27009KT 10SM CLR 28/02 A3014 4180 18 6600 260/09 RMK AO2 T02780017
94299KAAT AAT20160812193510908/12/16 19:35:31  5-MIN KAAT 130335Z AUTO 27009KT 10SM CLR 27/02 A3015 4170 19 6500 250/09 RMK AO2 T02720022
94299KAAT AAT20160812194010908/12/16 19:40:31  5-MIN KAAT 130340Z AUTO 26009KT 10SM CLR 27/02 A3015 4170 20 6500 250/09 RMK AO2 T02670022
94299KAAT AAT20160812194510908/12/16 19:45:31  5-MIN KAAT 130345Z AUTO 26007KT 10SM CLR 27/02 A3015 4170 20 6500 240/07 RMK AO2 T02670022
94299KAAT AAT20160812195011608/12/16 19:50:31  5-MIN KAAT 130350Z AUTO 26007KT 10SM CLR 26/02 A3015 4170 21 6400 240/07 RMK AO2 SLP164 T02610022
94299KAAT AAT20160812195511608/12/16 19:55:31  5-MIN KAAT 130355Z AUTO 26008KT 10SM CLR 26/02 A3016 4160 21 6400 250/08 RMK AO2 SLP164 T02610022
94299KAAT AAT20160812200010908/12/16 20:00:31  5-MIN KAAT 130400Z AUTO 26007KT 10SM CLR 26/02 A3016 4160 21 6400 250/07 RMK AO2 T02610022
94299KAAT AAT20160812200510908/12/16 20:05:31  5-MIN KAAT 130405Z AUTO 26007KT 10SM CLR 26/02 A3016 4160 21 6400 240/07 RMK AO2 T02610022
94299KAAT AAT20160812201010908/12/16 20:10:31  5-MIN KAAT 130410Z AUTO 25007KT 10SM CLR 26/02 A3016 4160 21 6300 240/07 RMK AO2 T02560022
94299KAAT AAT20160812201510908/12/16 20:15:31  5-MIN KAAT 130415Z AUTO 25008KT 10SM CLR 25/02 A3017 4160 22 6300 240/08 RMK AO2 T02500022
94299KAAT AAT20160812202010908/12/16 20:20:31  5-MIN KAAT 130420Z AUTO 25007KT 10SM CLR 25/02 A3017 4150 22 6300 240/07 RMK AO2 T02500022
94299KAAT AAT20160812202510908/12/16 20:25:31  5-MIN KAAT 130425Z AUTO 25008KT 10SM CLR 25/03 A3017 4150 23 6300 240/08 RMK AO2 T02500028
94299KAAT AAT20160812203010908/12/16 20:30:31  5-MIN KAAT 130430Z AUTO 26007KT 10SM CLR 25/03 A3017 4150 23 6300 240/07 RMK AO2 T02500028
94299KAAT AAT20160812203510908/12/16 20:35:31  5-MIN KAAT 130435Z AUTO 26008KT 10SM CLR 24/03 A3017 4150 24 6200 240/08 RMK AO2 T02440028
94299KAAT AAT20160812204010908/12/16 20:40:31  5-MIN KAAT 130440Z AUTO 26006KT 10SM CLR 24/03 A3017 4150 24 6200 250/06 RMK AO2 T02440028
94299KAAT AAT20160812204510908/12/16 20:45:31  5-MIN KAAT 130445Z AUTO 27006KT 10SM CLR 24/03 A3017 4150 25 6100 260/06 RMK AO2 T02390028
94299KAAT AAT20160812205011608/12/16 20:50:31  5-MIN KAAT 130450Z AUTO 28005KT 10SM CLR 24/03 A3018 4150 25 6100 260/05 RMK AO2 SLP169 T02390028
94299KAAT AAT20160812205511608/12/16 20:55:31  5-MIN KAAT 130455Z AUTO 27005KT 10SM CLR 23/03 A3017 4150 25 6100 260/05 RMK AO2 SLP169 T02330028
94299KAAT AAT20160812210010908/12/16 21:00:31  5-MIN KAAT 130500Z AUTO 28005KT 10SM CLR 22/04 A3017 4150 30 6000 260/05 RMK AO2 T02220039
94299KAAT AAT20160812210510908/12/16 21:05:31  5-MIN KAAT 130505Z AUTO 28005KT 10SM CLR 22/04 A3018 4150 31 5900 260/05 RMK AO2 T02170039
94299KAAT AAT20160812211010908/12/16 21:10:31  5-MIN KAAT 130510Z AUTO 28005KT 10SM CLR 22/04 A3018 4150 31 5900 260/05 RMK AO2 T02170039
94299KAAT AAT20160812211510908/12/16 21:15:31  5-MIN KAAT 130515Z AUTO 28005KT 10SM CLR 22/03 A3018 4150 29 5900 270/05 RMK AO2 T02170033
94299KAAT AAT20160812212010908/12/16 21:20:31  5-MIN KAAT 130520Z AUTO 28005KT 10SM CLR 22/03 A3018 4150 27 6000 270/05 RMK AO2 T02220028
94299KAAT AAT20160812212510908/12/16 21:25:31  5-MIN KAAT 130525Z AUTO 29006KT 10SM CLR 22/03 A3018 4150 29 5900 270/06 RMK AO2 T02170033
94299KAAT AAT20160812213010908/12/16 21:30:31  5-MIN KAAT 130530Z AUTO 29006KT 10SM CLR 22/04 A3018 4150 31 5900 270/06 RMK AO2 T02170039
94299KAAT AAT20160812213510908/12/16 21:35:31  5-MIN KAAT 130535Z AUTO 29006KT 10SM CLR 21/04 A3018 4150 32 5800 270/06 RMK AO2 T02110039
94299KAAT AAT20160812214010908/12/16 21:40:31  5-MIN KAAT 130540Z AUTO 29005KT 10SM CLR 21/04 A3017 4150 32 5800 270/05 RMK AO2 T02110039
94299KAAT AAT20160812214510908/12/16 21:45:31  5-MIN KAAT 130545Z AUTO 29005KT 10SM CLR 21/04 A3017 4150 32 5800 280/05 RMK AO2 T02110039
94299KAAT AAT20160812215013408/12/16 21:50:31  5-MIN KAAT 130550Z AUTO 30004KT 10SM CLR 21/04 A3017 4150 33 5800 290/04 RMK AO2 SLP168 T02060039 10339 20206 55002
94299KAAT AAT20160812215513408/12/16 21:55:31  5-MIN KAAT 130555Z AUTO 36004KT 10SM CLR 21/04 A3018 4150 33 5800 340/04 RMK AO2 SLP168 T02060039 10339 20206 51014
94299KAAT AAT20160812220010908/12/16 22:00:31  5-MIN KAAT 130600Z AUTO 04003KT 10SM CLR 20/04 A3018 4150 34 5700 020/03 RMK AO2 T02000039
94299KAAT AAT20160812220510908/12/16 22:05:31  5-MIN KAAT 130605Z AUTO 00000KT 10SM CLR 21/03 A3018 4140 32 5800 000/00 RMK AO2 T02060033
94299KAAT AAT20160812221010908/12/16 22:10:31  5-MIN KAAT 130610Z AUTO 00000KT 10SM CLR 21/03 A3018 4140 32 5800 000/00 RMK AO2 T02060033
94299KAAT AAT20160812221510908/12/16 22:15:31  5-MIN KAAT 130615Z AUTO 00000KT 10SM CLR 19/03 A3018 4140 34 5600 000/00 RMK AO2 T01940033
94299KAAT AAT20160812222010908/12/16 22:20:31  5-MIN KAAT 130620Z AUTO 00000KT 10SM CLR 20/03 A3018 4140 33 5700 000/00 RMK AO2 T02000033
94299KAAT AAT20160812222510908/12/16 22:25:31  5-MIN KAAT 130625Z AUTO 11004KT 10SM CLR 19/03 A3018 4140 35 5600 100/04 RMK AO2 T01890033
94299KAAT AAT20160812223010908/12/16 22:30:31  5-MIN KAAT 130630Z AUTO 11004KT 10SM CLR 19/04 A3018 4140 38 5600 100/04 RMK AO2 T01890044
94299KAAT AAT20160812223510908/12/16 22:35:31  5-MIN KAAT 130635Z AUTO 10005KT 10SM CLR 19/04 A3018 4140 38 5600 080/05 RMK AO2 T01890044
94299KAAT AAT20160812224010908/12/16 22:40:31  5-MIN KAAT 130640Z AUTO 09006KT 10SM CLR 19/04 A3019 4140 37 5600 080/06 RMK AO2 T01940044
94299KAAT AAT20160812224510908/12/16 22:45:31  5-MIN KAAT 130645Z AUTO 10006KT 10SM CLR 19/04 A3019 4130 35 5600 090/06 RMK AO2 T01940039
94299KAAT AAT20160812225011608/12/16 22:50:31  5-MIN KAAT 130650Z AUTO 13006KT 10SM CLR 19/04 A3019 4130 35 5600 110/06 RMK AO2 SLP171 T01940039
94299KAAT AAT20160812225511608/12/16 22:55:31  5-MIN KAAT 130655Z AUTO 15005KT 10SM CLR 19/04 A3019 4130 35 5600 140/05 RMK AO2 SLP171 T01940039
94299KAAT AAT20160812230010908/12/16 23:00:31  5-MIN KAAT 130700Z AUTO 16005KT 10SM CLR 19/04 A3019 4130 35 5600 150/05 RMK AO2 T01940039
94299KAAT AAT20160812230510908/12/16 23:05:31  5-MIN KAAT 130705Z AUTO 16006KT 10SM CLR 19/04 A3019 4130 35 5600 140/06 RMK AO2 T01940039
94299KAAT AAT20160812231010908/12/16 23:10:31  5-MIN KAAT 130710Z AUTO 16006KT 10SM CLR 19/04 A3019 4130 38 5600 150/06 RMK AO2 T01890044
94299KAAT AAT20160812231510908/12/16 23:15:31  5-MIN KAAT 130715Z AUTO 00000KT 10SM CLR 18/04 A3019 4130 39 5500 000/00 RMK AO2 T01830044
94299KAAT AAT20160812232010908/12/16 23:20:31  5-MIN KAAT 130720Z AUTO 00000KT 10SM CLR 18/05 A3019 4130 42 5400 000/00 RMK AO2 T01780050
94299KAAT AAT20160812232510908/12/16 23:25:31  5-MIN KAAT 130725Z AUTO 00000KT 10SM CLR 18/06 A3019 4130 44 5400 000/00 RMK AO2 T01780056
94299KAAT AAT20160812233010908/12/16 23:30:31  5-MIN KAAT 130730Z AUTO 00000KT 10SM CLR 17/06 A3020 4130 46 5400 000/00 RMK AO2 T01720056
94299KAAT AAT20160812233510908/12/16 23:35:31  5-MIN KAAT 130735Z AUTO 05003KT 10SM CLR 17/05 A3019 4130 45 5300 040/03 RMK AO2 T01670050
94299KAAT AAT20160812234010908/12/16 23:40:31  5-MIN KAAT 130740Z AUTO 09003KT 10SM CLR 17/05 A3019 4130 45 5300 070/03 RMK AO2 T01670050
94299KAAT AAT20160812234510908/12/16 23:45:31  5-MIN KAAT 130745Z AUTO 10003KT 10SM CLR 18/04 A3019 4130 41 5400 090/03 RMK AO2 T01780044
94299KAAT AAT20160812235012608/12/16 23:50:31  5-MIN KAAT 130750Z AUTO 00000KT 10SM CLR 18/04 A3019 4130 41 5400 000/00 RMK AO2 SLP172 T01780044 403500067
94299KAAT AAT20160812235512608/12/16 23:55:31  5-MIN KAAT 130755Z AUTO 00000KT 10SM CLR 18/04 A3019 4130 39 5400 000/00 RMK AO2 SLP171 T01780039 403500067
94299KAAT AAT20160813000010908/13/16 00:00:31  5-MIN KAAT 130800Z AUTO VRB03KT 10SM CLR 17/04 A3019 4130 42 5300 VRB/03 RMK AO2 T01670039
94299KAAT AAT20160813000510908/13/16 00:05:31  5-MIN KAAT 130805Z AUTO 20003KT 10SM CLR 14/04 A3019 4130 49 5100 180/03 RMK AO2 T01440039
94299KAAT AAT20160813001010908/13/16 00:10:31  5-MIN KAAT 130810Z AUTO 00000KT 10SM CLR 14/04 A3019 4130 52 5000 000/00 RMK AO2 T01390044
94299KAAT AAT20160813001510908/13/16 00:15:31  5-MIN KAAT 130815Z AUTO 00000KT 10SM CLR 14/04 A3019 4130 52 5000 000/00 RMK AO2 T01390044
94299KAAT AAT20160813002010908/13/16 00:20:31  5-MIN KAAT 130820Z AUTO 00000KT 10SM CLR 14/04 A3019 4130 52 5000 000/00 RMK AO2 T01390044
94299KAAT AAT20160813002510908/13/16 00:25:31  5-MIN KAAT 130825Z AUTO 00000KT 10SM CLR 14/05 A3019 4130 55 5000 000/00 RMK AO2 T01390050
94299KAAT AAT20160813003010908/13/16 00:30:31  5-MIN KAAT 130830Z AUTO 00000KT 10SM CLR 14/05 A3019 4130 53 5100 000/00 RMK AO2 T01440050
94299KAAT AAT20160813003510908/13/16 00:35:31  5-MIN KAAT 130835Z AUTO 00000KT 10SM CLR 15/05 A3019 4130 51 5100 000/00 RMK AO2 T01500050
94299KAAT AAT20160813004010908/13/16 00:40:31  5-MIN KAAT 130840Z AUTO 00000KT 10SM CLR 16/05 A3019 4130 49 5200 000/00 RMK AO2 T01560050
94299KAAT AAT20160813004510908/13/16 00:45:31  5-MIN KAAT 130845Z AUTO 10005KT 10SM CLR 16/04 A3019 4130 47 5200 080/05 RMK AO2 T01560044
94299KAAT AAT20160813005012208/13/16 00:50:31  5-MIN KAAT 130850Z AUTO 10004KT 10SM CLR 16/03 A3019 4130 43 5200 090/04 RMK AO2 SLP172 T01560033 51014
94299KAAT AAT20160813005512208/13/16 00:55:31  5-MIN KAAT 130855Z AUTO 00000KT 10SM CLR 16/03 A3019 4130 43 5200 000/00 RMK AO2 SLP172 T01560033 51004
94299KAAT AAT20160813010010908/13/16 01:00:31  5-MIN KAAT 130900Z AUTO 00000KT 10SM CLR 16/03 A3019 4130 43 5200 000/00 RMK AO2 T01560033
94299KAAT AAT20160813010510908/13/16 01:05:31  5-MIN KAAT 130905Z AUTO 00000KT 10SM CLR 15/04 A3019 4130 47 5100 000/00 RMK AO2 T01500039
94299KAAT AAT20160813011010908/13/16 01:10:31  5-MIN KAAT 130910Z AUTO 00000KT 10SM CLR 14/04 A3019 4130 49 5100 000/00 RMK AO2 T01440039
94299KAAT AAT20160813011510908/13/16 01:15:31  5-MIN KAAT 130915Z AUTO 02003KT 10SM CLR 14/04 A3019 4130 52 5000 360/03 RMK AO2 T01390044
94299KAAT AAT20160813012010908/13/16 01:20:31  5-MIN KAAT 130920Z AUTO 03004KT 10SM CLR 13/03 A3019 4130 50 4900 010/04 RMK AO2 T01330033
94299KAAT AAT20160813012510908/13/16 01:25:31  5-MIN KAAT 130925Z AUTO 04003KT 10SM CLR 13/03 A3019 4130 50 4900 020/03 RMK AO2 T01330033
94299KAAT AAT20160813013010908/13/16 01:30:31  5-MIN KAAT 130930Z AUTO 00000KT 10SM CLR 13/04 A3019 4140 54 4900 000/00 RMK AO2 T01280039
94299KAAT AAT20160813013510908/13/16 01:35:31  5-MIN KAAT 130935Z AUTO 02003KT 10SM CLR 13/04 A3019 4130 52 4900 010/03 RMK AO2 T01330039
94299KAAT AAT20160813014010908/13/16 01:40:31  5-MIN KAAT 130940Z AUTO 00000KT 10SM CLR 13/04 A3019 4130 52 4900 000/00 RMK AO2 T01330039
94299KAAT AAT20160813014510908/13/16 01:45:31  5-MIN KAAT 130945Z AUTO 00000KT 10SM CLR 13/03 A3019 4130 50 4900 000/00 RMK AO2 T01330033
94299KAAT AAT20160813015011608/13/16 01:50:31  5-MIN KAAT 130950Z AUTO 00000KT 10SM CLR 14/03 A3019 4130 48 5000 000/00 RMK AO2 SLP175 T01390033
94299KAAT AAT20160813015511608/13/16 01:55:31  5-MIN KAAT 130955Z AUTO 00000KT 10SM CLR 14/03 A3019 4130 47 5100 000/00 RMK AO2 SLP174 T01440033
94299KAAT AAT20160813020010908/13/16 02:00:31  5-MIN KAAT 131000Z AUTO 12003KT 10SM CLR 14/03 A3019 4130 48 5000 110/03 RMK AO2 T01390033
94299KAAT AAT20160813020510908/13/16 02:05:31  5-MIN KAAT 131005Z AUTO 00000KT 10SM CLR 13/03 A3019 4130 50 4900 000/00 RMK AO2 T01330033
94299KAAT AAT20160813021010908/13/16 02:10:31  5-MIN KAAT 131010Z AUTO 00000KT 10SM CLR 12/03 A3019 4130 52 4800 000/00 RMK AO2 T01220028
94299KAAT AAT20160813021510908/13/16 02:15:31  5-MIN KAAT 131015Z AUTO 00000KT 10SM CLR 13/03 A3019 4130 50 4900 000/00 RMK AO2 T01330033
94299KAAT AAT20160813022010908/13/16 02:20:31  5-MIN KAAT 131020Z AUTO 00000KT 10SM CLR 12/03 A3019 4130 54 4700 000/00 RMK AO2 T01170028
94299KAAT AAT20160813022510908/13/16 02:25:31  5-MIN KAAT 131025Z AUTO 00000KT 10SM CLR 11/03 A3019 4130 56 4700 000/00 RMK AO2 T01110028
94299KAAT AAT20160813023010908/13/16 02:30:31  5-MIN KAAT 131030Z AUTO 00000KT 10SM CLR 11/03 A3019 4130 58 4600 000/00 RMK AO2 T01060028
94299KAAT AAT20160813023510908/13/16 02:35:31  5-MIN KAAT 131035Z AUTO 00000KT 10SM CLR 10/03 A3019 4130 60 4500 000/00 RMK AO2 T01000028
94299KAAT AAT20160813024010908/13/16 02:40:31  5-MIN KAAT 131040Z AUTO 00000KT 10SM CLR 11/03 A3019 4130 58 4600 000/00 RMK AO2 T01060028
94299KAAT AAT20160813024510908/13/16 02:45:31  5-MIN KAAT 131045Z AUTO 00000KT 10SM CLR 11/03 A3019 4130 61 4600 000/00 RMK AO2 T01060033
94299KAAT AAT20160813025011608/13/16 02:50:31  5-MIN KAAT 131050Z AUTO 00000KT 10SM CLR 11/03 A3019 4140 58 4700 000/00 RMK AO2 SLP175 T01110033
94299KAAT AAT20160813025511608/13/16 02:55:31  5-MIN KAAT 131055Z AUTO 00000KT 10SM CLR 12/04 A3019 4130 58 4700 000/00 RMK AO2 SLP176 T01170039
94299KAAT AAT20160813030010908/13/16 03:00:31  5-MIN KAAT 131100Z AUTO 00000KT 10SM CLR 13/04 A3019 4130 54 4900 000/00 RMK AO2 T01280039
94299KAAT AAT20160813030510908/13/16 03:05:31  5-MIN KAAT 131105Z AUTO 00000KT 10SM CLR 13/03 A3019 4140 50 4900 000/00 RMK AO2 T01330033
94299KAAT AAT20160813031010908/13/16 03:10:31  5-MIN KAAT 131110Z AUTO 00000KT 10SM CLR 13/03 A3019 4130 50 4900 000/00 RMK AO2 T01330033
94299KAAT AAT20160813031510908/13/16 03:15:31  5-MIN KAAT 131115Z AUTO 00000KT 10SM CLR 14/03 A3019 4140 48 5000 000/00 RMK AO2 T01390033
94299KAAT AAT20160813032010908/13/16 03:20:31  5-MIN KAAT 131120Z AUTO 00000KT 10SM CLR 12/03 A3019 4140 52 4800 000/00 RMK AO2 T01220028
94299KAAT AAT20160813032510908/13/16 03:25:31  5-MIN KAAT 131125Z AUTO 00000KT 10SM CLR 12/03 A3019 4140 54 4700 000/00 RMK AO2 T01170028
94299KAAT AAT20160813033010908/13/16 03:30:31  5-MIN KAAT 131130Z AUTO 00000KT 10SM CLR 10/02 A3019 4130 56 4500 000/00 RMK AO2 T01000017
94299KAAT AAT20160813033510908/13/16 03:35:31  5-MIN KAAT 131135Z AUTO 00000KT 10SM CLR 09/02 A3019 4130 58 4500 000/00 RMK AO2 T00940017
94299KAAT AAT20160813034010908/13/16 03:40:31  5-MIN KAAT 131140Z AUTO 00000KT 10SM CLR 09/02 A3019 4140 60 4500 000/00 RMK AO2 T00940022
94299KAAT AAT20160813034510908/13/16 03:45:31  5-MIN KAAT 131145Z AUTO 00000KT 10SM CLR 09/02 A3019 4140 63 4400 000/00 RMK AO2 T00890022
94299KAAT AAT20160813035013408/13/16 03:50:31  5-MIN KAAT 131150Z AUTO 00000KT 10SM CLR 10/03 A3019 4140 60 4500 000/00 RMK AO2 SLP176 T01000028 10206 20089 51004
94299KAAT AAT20160813035513408/13/16 03:55:31  5-MIN KAAT 131155Z AUTO 00000KT 10SM CLR 11/03 A3019 4140 61 4600 000/00 RMK AO2 SLP176 T01060033 10206 20089 58001
94299KAAT AAT20160813040010908/13/16 04:00:31  5-MIN KAAT 131200Z AUTO 00000KT 10SM CLR 10/03 A3018 4140 63 4600 000/00 RMK AO2 T01000033
94299KAAT AAT20160813040510908/13/16 04:05:31  5-MIN KAAT 131205Z AUTO 00000KT 10SM CLR 10/03 A3019 4140 60 4500 000/00 RMK AO2 T01000028
94299KAAT AAT20160813041010908/13/16 04:10:31  5-MIN KAAT 131210Z AUTO 00000KT 10SM CLR 10/03 A3019 4140 60 4500 000/00 RMK AO2 T01000028
94299KAAT AAT20160813041510908/13/16 04:15:31  5-MIN KAAT 131215Z AUTO 00000KT 10SM CLR 09/03 A3019 4140 63 4500 000/00 RMK AO2 T00940028
94299KAAT AAT20160813042010908/13/16 04:20:31  5-MIN KAAT 131220Z AUTO 00000KT 10SM CLR 09/02 A3019 4140 63 4400 000/00 RMK AO2 T00890022
94299KAAT AAT20160813042510908/13/16 04:25:31  5-MIN KAAT 131225Z AUTO 00000KT 10SM CLR 08/02 A3019 4140 65 4400 000/00 RMK AO2 T00830022
94299KAAT AAT20160813043010908/13/16 04:30:31  5-MIN KAAT 131230Z AUTO 00000KT 10SM CLR 09/03 A3019 4130 68 4400 000/00 RMK AO2 T00890033
94299KAAT AAT20160813043510908/13/16 04:35:31  5-MIN KAAT 131235Z AUTO 00000KT 10SM CLR 09/03 A3019 4130 68 4400 000/00 RMK AO2 T00890033
94299KAAT AAT20160813044010908/13/16 04:40:31  5-MIN KAAT 131240Z AUTO 00000KT 10SM CLR 09/03 A3019 4130 65 4500 000/00 RMK AO2 T00940033
94299KAAT AAT20160813044510908/13/16 04:45:31  5-MIN KAAT 131245Z AUTO 04003KT 10SM CLR 09/03 A3019 4130 65 4500 020/03 RMK AO2 T00940033
94299KAAT AAT20160813045011608/13/16 04:50:31  5-MIN KAAT 131250Z AUTO 00000KT 10SM CLR 10/03 A3019 4130 63 4500 000/00 RMK AO2 SLP179 T01000033
94299KAAT AAT20160813045511608/13/16 04:55:31  5-MIN KAAT 131255Z AUTO 32003KT 10SM CLR 09/02 A3019 4130 60 4400 310/03 RMK AO2 SLP180 T00890017
94299KAAT AAT20160813050010908/13/16 05:00:31  5-MIN KAAT 131300Z AUTO 35003KT 10SM CLR 09/02 A3019 4130 60 4400 340/03 RMK AO2 T00890017
94299KAAT AAT20160813050510908/13/16 05:05:31  5-MIN KAAT 131305Z AUTO 36003KT 10SM CLR 09/02 A3019 4130 60 4500 350/03 RMK AO2 T00940022
94299KAAT AAT20160813051010908/13/16 05:10:31  5-MIN KAAT 131310Z AUTO 00000KT 10SM CLR 09/02 A3019 4130 63 4400 000/00 RMK AO2 T00890022
94299KAAT AAT20160813051510908/13/16 05:15:31  5-MIN KAAT 131315Z AUTO 00000KT 10SM CLR 09/02 A3019 4130 63 4400 000/00 RMK AO2 T00890022
94299KAAT AAT20160813052010908/13/16 05:20:31  5-MIN KAAT 131320Z AUTO 00000KT 10SM CLR 09/03 A3019 4130 65 4400 000/00 RMK AO2 T00890028
94299KAAT AAT20160813052510908/13/16 05:25:31  5-MIN KAAT 131325Z AUTO 00000KT 10SM CLR 09/03 A3019 4130 65 4400 000/00 RMK AO2 T00890028
94299KAAT AAT20160813053010908/13/16 05:30:31  5-MIN KAAT 131330Z AUTO 00000KT 10SM CLR 09/03 A3019 4130 65 4500 000/00 RMK AO2 T00940033
94299KAAT AAT20160813053510908/13/16 05:35:31  5-MIN KAAT 131335Z AUTO 00000KT 10SM CLR 10/03 A3019 4130 63 4500 000/00 RMK AO2 T01000033
94299KAAT AAT20160813054010908/13/16 05:40:31  5-MIN KAAT 131340Z AUTO 00000KT 10SM CLR 09/02 A3019 4130 63 4400 000/00 RMK AO2 T00890022
94299KAAT AAT20160813054510908/13/16 05:45:31  5-MIN KAAT 131345Z AUTO 00000KT 10SM CLR 09/02 A3019 4130 60 4500 000/00 RMK AO2 T00940022
94299KAAT AAT20160813055011608/13/16 05:50:31  5-MIN KAAT 131350Z AUTO 00000KT 10SM CLR 10/03 A3019 4130 60 4500 000/00 RMK AO2 SLP181 T01000028
94299KAAT AAT20160813055511608/13/16 05:55:31  5-MIN KAAT 131355Z AUTO 00000KT 10SM CLR 11/03 A3019 4130 56 4700 000/00 RMK AO2 SLP180 T01110028
94299KAAT AAT20160813060010908/13/16 06:00:31  5-MIN KAAT 131400Z AUTO 00000KT 10SM CLR 12/03 A3020 4130 54 4700 000/00 RMK AO2 T01170028
94299KAAT AAT20160813060510908/13/16 06:05:31  5-MIN KAAT 131405Z AUTO 00000KT 10SM CLR 12/04 A3020 4130 56 4800 000/00 RMK AO2 T01220039
94299KAAT AAT20160813061010908/13/16 06:10:31  5-MIN KAAT 131410Z AUTO 00000KT 10SM CLR 12/03 A3020 4120 54 4800 000/00 RMK AO2 T01220033
94299KAAT AAT20160813061510908/13/16 06:15:31  5-MIN KAAT 131415Z AUTO 00000KT 10SM CLR 12/03 A3020 4120 54 4700 000/00 RMK AO2 T01170028
94299KAAT AAT20160813062010908/13/16 06:20:31  5-MIN KAAT 131420Z AUTO 00000KT 10SM CLR 13/03 A3020 4120 50 4900 000/00 RMK AO2 T01330033
94299KAAT AAT20160813062510908/13/16 06:25:31  5-MIN KAAT 131425Z AUTO 00000KT 10SM CLR 14/03 A3020 4120 48 5000 000/00 RMK AO2 T01390033
94299KAAT AAT20160813063010908/13/16 06:30:31  5-MIN KAAT 131430Z AUTO 00000KT 10SM CLR 14/03 A3020 4120 47 5000 000/00 RMK AO2 T01440033
94299KAAT AAT20160813063510908/13/16 06:35:31  5-MIN KAAT 131435Z AUTO 00000KT 10SM CLR 15/03 A3020 4120 45 5100 000/00 RMK AO2 T01500033
94299KAAT AAT20160813064010908/13/16 06:40:31  5-MIN KAAT 131440Z AUTO 00000KT 10SM CLR 16/03 A3020 4120 43 5200 000/00 RMK AO2 T01560033
94299KAAT AAT20160813064510908/13/16 06:45:31  5-MIN KAAT 131445Z AUTO 00000KT 10SM CLR 16/03 A3020 4120 43 5200 000/00 RMK AO2 T01560033
94299KAAT AAT20160813065012208/13/16 06:50:31  5-MIN KAAT 131450Z AUTO 00000KT 10SM CLR 16/03 A3020 4120 42 5200 000/00 RMK AO2 SLP180 T01610033 58001
94299KAAT AAT20160813065512208/13/16 06:55:31  5-MIN KAAT 131455Z AUTO 00000KT 10SM CLR 17/03 A3020 4120 40 5300 000/00 RMK AO2 SLP178 T01670033 53004
94299KAAT AAT20160813070010908/13/16 07:00:31  5-MIN KAAT 131500Z AUTO 00000KT 10SM CLR 17/03 A3020 4120 39 5400 000/00 RMK AO2 T01720033
94299KAAT AAT20160813070510908/13/16 07:05:31  5-MIN KAAT 131505Z AUTO 00000KT 10SM CLR 17/03 A3020 4120 39 5400 000/00 RMK AO2 T01720033
94299KAAT AAT20160813071010908/13/16 07:10:31  5-MIN KAAT 131510Z AUTO 00000KT 10SM CLR 18/03 A3020 4120 36 5400 000/00 RMK AO2 T01780028
94299KAAT AAT20160813071510908/13/16 07:15:31  5-MIN KAAT 131515Z AUTO 00000KT 10SM CLR 18/03 A3020 4120 36 5500 000/00 RMK AO2 T01830033
94299KAAT AAT20160813072010908/13/16 07:20:31  5-MIN KAAT 131520Z AUTO 00000KT 10SM CLR 18/03 A3020 4120 36 5500 000/00 RMK AO2 T01830033
94299KAAT AAT20160813072510908/13/16 07:25:31  5-MIN KAAT 131525Z AUTO 00000KT 10SM CLR 19/03 A3020 4120 35 5600 000/00 RMK AO2 T01890033
94299KAAT AAT20160813073010908/13/16 07:30:31  5-MIN KAAT 131530Z AUTO 00000KT 10SM CLR 19/03 A3020 4120 35 5600 000/00 RMK AO2 T01890033
94299KAAT AAT20160813073510908/13/16 07:35:31  5-MIN KAAT 131535Z AUTO 00000KT 10SM CLR 19/03 A3020 4120 33 5600 000/00 RMK AO2 T01940028
94299KAAT AAT20160813074010908/13/16 07:40:31  5-MIN KAAT 131540Z AUTO 00000KT 10SM CLR 19/03 A3020 4120 33 5600 000/00 RMK AO2 T01940028
94299KAAT AAT20160813074510908/13/16 07:45:31  5-MIN KAAT 131545Z AUTO 00000KT 10SM CLR 20/03 A3020 4120 31 5700 000/00 RMK AO2 T02000028
94299KAAT AAT20160813075011608/13/16 07:50:31  5-MIN KAAT 131550Z AUTO VRB03KT 10SM CLR 21/03 A3020 4120 30 5700 VRB/03 RMK AO2 SLP178 T02060028
94299KAAT AAT20160813075511608/13/16 07:55:31  5-MIN KAAT 131555Z AUTO 00000KT 10SM CLR 21/03 A3020 4120 30 5700 000/00 RMK AO2 SLP178 T02060028
94299KAAT AAT20160813080010908/13/16 08:00:31  5-MIN KAAT 131600Z AUTO 00000KT 10SM CLR 21/03 A3020 4120 30 5700 000/00 RMK AO2 T02060028
94299KAAT AAT20160813080510908/13/16 08:05:31  5-MIN KAAT 131605Z AUTO 00000KT 10SM CLR 22/02 A3020 4130 27 5900 000/00 RMK AO2 T02170022
94299KAAT AAT20160813081010908/13/16 08:10:31  5-MIN KAAT 131610Z AUTO 00000KT 10SM CLR 22/02 A3020 4130 27 5900 000/00 RMK AO2 T02170022
94299KAAT AAT20160813081510908/13/16 08:15:31  5-MIN KAAT 131615Z AUTO 00000KT 10SM CLR 22/02 A3020 4130 26 5900 000/00 RMK AO2 T02220022
94299KAAT AAT20160813082010908/13/16 08:20:31  5-MIN KAAT 131620Z AUTO 00000KT 10SM CLR 22/02 A3020 4120 26 5900 000/00 RMK AO2 T02220022
94299KAAT AAT20160813082510908/13/16 08:25:31  5-MIN KAAT 131625Z AUTO 00000KT 10SM CLR 23/03 A3020 4130 26 6000 000/00 RMK AO2 T02280028
94299KAAT AAT20160813083010908/13/16 08:30:31  5-MIN KAAT 131630Z AUTO 00000KT 10SM CLR 23/03 A3020 4130 26 6000 000/00 RMK AO2 T02280028
94299KAAT AAT20160813083510908/13/16 08:35:31  5-MIN KAAT 131635Z AUTO VRB03KT 10SM CLR 23/03 A3019 4130 25 6100 VRB/03 RMK AO2 T02330028
94299KAAT AAT20160813084010908/13/16 08:40:31  5-MIN KAAT 131640Z AUTO 18003KT 10SM CLR 23/02 A3019 4130 25 6000 160/03 RMK AO2 T02280022
94299KAAT AAT20160813084510908/13/16 08:45:31  5-MIN KAAT 131645Z AUTO 18003KT 10SM CLR 23/02 A3019 4130 24 6100 160/03 RMK AO2 T02330022
94299KAAT AAT20160813085011608/13/16 08:50:31  5-MIN KAAT 131650Z AUTO 14003KT 10SM CLR 24/03 A3019 4130 25 6100 130/03 RMK AO2 SLP174 T02390028
94299KAAT AAT20160813085511608/13/16 08:55:31  5-MIN KAAT 131655Z AUTO 00000KT 10SM CLR 24/02 A3019 4130 24 6100 000/00 RMK AO2 SLP173 T02390022
94299KAAT AAT20160813090010908/13/16 09:00:31  5-MIN KAAT 131700Z AUTO 00000KT 10SM CLR 24/02 A3019 4130 23 6200 000/00 RMK AO2 T02440022
94299KAAT AAT20160813090510908/13/16 09:05:31  5-MIN KAAT 131705Z AUTO VRB03KT 10SM CLR 25/03 A3019 4130 23 6200 VRB/03 RMK AO2 T02500028
94299KAAT AAT20160813091010908/13/16 09:10:31  5-MIN KAAT 131710Z AUTO 00000KT 10SM CLR 24/03 A3019 4130 24 6200 000/00 RMK AO2 T02440028
94299KAAT AAT20160813091510908/13/16 09:15:31  5-MIN KAAT 131715Z AUTO 00000KT 10SM CLR 26/03 A3019 4130 22 6300 000/00 RMK AO2 T02560028
94299KAAT AAT20160813092010908/13/16 09:20:31  5-MIN KAAT 131720Z AUTO 00000KT 10SM CLR 27/03 A3019 4130 21 6400 000/00 RMK AO2 T02670028
94299KAAT AAT20160813092510908/13/16 09:25:31  5-MIN KAAT 131725Z AUTO 00000KT 10SM CLR 26/03 A3019 4140 21 6400 000/00 RMK AO2 T02610028
94299KAAT AAT20160813093010908/13/16 09:30:31  5-MIN KAAT 131730Z AUTO 00000KT 10SM CLR 27/03 A3019 4140 21 6400 000/00 RMK AO2 T02670028
94299KAAT AAT20160813093510908/13/16 09:35:31  5-MIN KAAT 131735Z AUTO 00000KT 10SM CLR 27/02 A3018 4140 20 6400 000/00 RMK AO2 T02670022
94299KAAT AAT20160813094010908/13/16 09:40:31  5-MIN KAAT 131740Z AUTO 00000KT 10SM CLR 27/02 A3018 4140 19 6500 000/00 RMK AO2 T02720022
94299KAAT AAT20160813094510908/13/16 09:45:31  5-MIN KAAT 131745Z AUTO 00000KT 10SM CLR 27/02 A3018 4140 19 6500 000/00 RMK AO2 T02720022
94299KAAT AAT20160813095013408/13/16 09:50:31  5-MIN KAAT 131750Z AUTO 00000KT 10SM CLR 27/02 A3018 4140 19 6500 000/00 RMK AO2 SLP171 T02720022 10272 20083 53004
94299KAAT AAT20160813095513408/13/16 09:55:31  5-MIN KAAT 131755Z AUTO 00000KT 10SM CLR 28/02 A3018 4140 19 6600 000/00 RMK AO2 SLP169 T02780022 10278 20083 58006
94299KAAT AAT20160813100010908/13/16 10:00:31  5-MIN KAAT 131800Z AUTO 00000KT 10SM CLR 29/03 A3018 4140 19 6700 000/00 RMK AO2 T02890033
94299KAAT AAT20160813100510908/13/16 10:05:31  5-MIN KAAT 131805Z AUTO 00000KT 10SM CLR 29/03 A3018 4140 19 6700 000/00 RMK AO2 T02890033
94299KAAT AAT20160813101010908/13/16 10:10:31  5-MIN KAAT 131810Z AUTO 01004KT 10SM CLR 29/03 A3018 4140 19 6700 360/04 RMK AO2 T02890033
94299KAAT AAT20160813101510908/13/16 10:15:31  5-MIN KAAT 131815Z AUTO 01003KT 10SM CLR 29/03 A3018 4140 18 6700 350/03 RMK AO2 T02940028
94299KAAT AAT20160813102010908/13/16 10:20:31  5-MIN KAAT 131820Z AUTO VRB03KT 10SM CLR 29/03 A3018 4150 18 6700 VRB/03 RMK AO2 T02940028
94299KAAT AAT20160813102510908/13/16 10:25:31  5-MIN KAAT 131825Z AUTO 00000KT 10SM CLR 29/03 A3017 4150 18 6700 000/00 RMK AO2 T02890028
94299KAAT AAT20160813103010908/13/16 10:30:31  5-MIN KAAT 131830Z AUTO 00000KT 10SM CLR 30/03 A3017 4150 18 6800 000/00 RMK AO2 T03000033
94299KAAT AAT20160813103510908/13/16 10:35:31  5-MIN KAAT 131835Z AUTO 35004KT 10SM CLR 31/03 A3017 4150 17 6900 330/04 RMK AO2 T03060033
94299KAAT AAT20160813104010908/13/16 10:40:31  5-MIN KAAT 131840Z AUTO 00000KT 10SM CLR 31/03 A3017 4150 16 6900 000/00 RMK AO2 T03060028
94299KAAT AAT20160813104510908/13/16 10:45:31  5-MIN KAAT 131845Z AUTO 34004KT 10SM CLR 31/03 A3017 4160 17 6900 320/04 RMK AO2 T03110033
94299KAAT AAT20160813105011608/13/16 10:50:31  5-MIN KAAT 131850Z AUTO VRB03KT 10SM CLR 31/03 A3016 4160 17 6900 VRB/03 RMK AO2 SLP160 T03110033
94299KAAT AAT20160813105511608/13/16 10:55:31  5-MIN KAAT 131855Z AUTO 00000KT 10SM CLR 32/03 A3016 4160 15 7000 000/00 RMK AO2 SLP159 T03170028
94299KAAT AAT20160813110010908/13/16 11:00:31  5-MIN KAAT 131900Z AUTO 32005KT 10SM CLR 32/03 A3016 4160 15 7000 300/05 RMK AO2 T03170028
94299KAAT AAT20160813110510908/13/16 11:05:31  5-MIN KAAT 131905Z AUTO 00000KT 10SM CLR 32/03 A3016 4160 15 7000 000/00 RMK AO2 T03170028
94299KAAT AAT20160813111010908/13/16 11:10:31  5-MIN KAAT 131910Z AUTO VRB03KT 10SM CLR 32/02 A3016 4160 15 7000 VRB/03 RMK AO2 T03170022
94299KAAT AAT20160813111510908/13/16 11:15:31  5-MIN KAAT 131915Z AUTO VRB04KT 10SM CLR 32/03 A3016 4160 15 7100 VRB/04 RMK AO2 T03220028
94299KAAT AAT20160813112010908/13/16 11:20:31  5-MIN KAAT 131920Z AUTO 00000KT 10SM CLR 32/02 A3016 4160 14 7100 000/00 RMK AO2 T03220022
94299KAAT AAT20160813112510908/13/16 11:25:31  5-MIN KAAT 131925Z AUTO VRB04KT 10SM CLR 33/03 A3015 4170 14 7200 VRB/04 RMK AO2 T03330028
94299KAAT AAT20160813113010908/13/16 11:30:31  5-MIN KAAT 131930Z AUTO 34004KT 10SM CLR 33/02 A3015 4170 13 7200 320/04 RMK AO2 T03330022
94299KAAT AAT20160813113510908/13/16 11:35:31  5-MIN KAAT 131935Z AUTO VRB05KT 10SM CLR 33/02 A3015 4170 13 7200 VRB/05 RMK AO2 T03330022
94299KAAT AAT20160813114010908/13/16 11:40:31  5-MIN KAAT 131940Z AUTO VRB04KT 10SM CLR 34/02 A3015 4170 13 7200 VRB/04 RMK AO2 T03390022
94299KAAT AAT20160813114510908/13/16 11:45:31  5-MIN KAAT 131945Z AUTO 34006KT 10SM CLR 33/02 A3015 4170 13 7200 330/06 RMK AO2 T03330022
94299KAAT AAT20160813115011608/13/16 11:50:31  5-MIN KAAT 131950Z AUTO 34005KT 10SM CLR 33/02 A3014 4180 13 7200 330/05 RMK AO2 SLP153 T03330022
94299KAAT AAT20160813115511608/13/16 11:55:31  5-MIN KAAT 131955Z AUTO 35005KT 10SM CLR 34/02 A3014 4180 13 7300 340/05 RMK AO2 SLP151 T03390017
94299KAAT AAT20160813120010908/13/16 12:00:31  5-MIN KAAT 132000Z AUTO 34006KT 10SM CLR 34/02 A3014 4180 13 7300 320/06 RMK AO2 T03390017
94299KAAT AAT20160813120510908/13/16 12:05:31  5-MIN KAAT 132005Z AUTO VRB06KT 10SM CLR 34/02 A3014 4180 12 7300 VRB/06 RMK AO2 T03440017
94299KAAT AAT20160813121010908/13/16 12:10:31  5-MIN KAAT 132010Z AUTO VRB06KT 10SM CLR 34/01 A3013 4180 11 7300 VRB/06 RMK AO2 T03440006
94299KAAT AAT20160813121509908/13/16 12:15:31  5-MIN KAAT 132015Z AUTO 10SM CLR 33/01 A3013 4180 12 7200 M /M RMK AO2 T03330006
94299KAAT AAT20160813122011008/13/16 12:20:31  5-MIN KAAT 132020Z AUTO 24008KT 10SM CLR 34/M01 A3013 4190 10 7300 230/08 RMK AO2 T03441006
94299KAAT AAT20160813122510908/13/16 12:25:31  5-MIN KAAT 132025Z AUTO 22010KT 10SM CLR 34/00 A3013 4190 11 7300 210/10 RMK AO2 T03440000
94299KAAT AAT20160813123011608/13/16 12:30:31  5-MIN KAAT 132030Z AUTO 18005G14KT 10SM CLR 34/M01 A3013 4190 11 7300 170/05G14 RMK AO2 T03391006
94299KAAT AAT20160813123510008/13/16 12:35:31  5-MIN KAAT 132035Z AUTO 10SM CLR 34/M01 A3013 4190 10 7300 M /M RMK AO2 T03441006
94299KAAT AAT20160813124011008/13/16 12:40:31  5-MIN KAAT 132040Z AUTO 33006KT 10SM CLR 34/M01 A3012 4190 10 7300 310/06 RMK AO2 T03441006
94299KAAT AAT20160813124512508/13/16 12:45:31  5-MIN KAAT 132045Z AUTO 29007KT 250V320 10SM CLR 35/00 A3012 4200 10 7400 270/07 240V310 RMK AO2 T03500000
94299KAAT AAT20160813125012308/13/16 12:50:31  5-MIN KAAT 132050Z AUTO 28006KT 10SM CLR 35/M01 A3012 4200 10 7400 260/06 RMK AO2 SLP144 T03501011 58006
94299KAAT AAT20160813125512908/13/16 12:55:31  5-MIN KAAT 132055Z AUTO 26012G17KT 10SM CLR 35/M02 A3012 4200 09 7400 240/12G17 RMK AO2 SLP145 T03501017 58018
94299KAAT AAT20160813130011608/13/16 13:00:31  5-MIN KAAT 132100Z AUTO 27007G17KT 10SM CLR 35/M02 A3012 4200 09 7400 260/07G17 RMK AO2 T03501017
94299KAAT AAT20160813130511608/13/16 13:05:31  5-MIN KAAT 132105Z AUTO 25007G15KT 10SM CLR 35/M02 A3012 4200 09 7400 230/07G15 RMK AO2 T03501017
94299KAAT AAT20160813131010008/13/16 13:10:31  5-MIN KAAT 132110Z AUTO 10SM CLR 34/M02 A3011 4210 09 7300 M /M RMK AO2 T03441017
94299KAAT AAT20160813131512608/13/16 13:15:31  5-MIN KAAT 132115Z AUTO 23009KT 190V290 10SM CLR 34/M02 A3011 4210 09 7300 210/09 180V280 RMK AO2 T03441017
94299KAAT AAT20160813132011608/13/16 13:20:31  5-MIN KAAT 132120Z AUTO 31011G15KT 10SM CLR 35/M01 A3011 4210 10 7400 300/11G15 RMK AO2 T03501011
94299KAAT AAT20160813132511608/13/16 13:25:31  5-MIN KAAT 132125Z AUTO 30008G18KT 10SM CLR 35/M01 A3010 4210 10 7400 280/08G18 RMK AO2 T03501006
94299KAAT AAT20160813133011608/13/16 13:30:31  5-MIN KAAT 132130Z AUTO VRB06G18KT 10SM CLR 34/M01 A3010 4210 10 7400 VRB/06G18 RMK AO2 T03441011
94299KAAT AAT20160813133511008/13/16 13:35:31  5-MIN KAAT 132135Z AUTO 28010KT 10SM CLR 35/M01 A3010 4220 10 7400 260/10 RMK AO2 T03501011
94299KAAT AAT20160813134013208/13/16 13:40:31  5-MIN KAAT 132140Z AUTO 22008G20KT 180V250 10SM CLR 35/M02 A3010 4220 09 7400 200/08G20 170V240 RMK AO2 T03501017
94299KAAT AAT20160813134511608/13/16 13:45:31  5-MIN KAAT 132145Z AUTO 20009G20KT 10SM CLR 35/M02 A3010 4220 09 7400 190/09G20 RMK AO2 T03501022
94299KAAT AAT20160813135010708/13/16 13:50:31  5-MIN KAAT 132150Z AUTO 10SM CLR 35/M02 A3010 4220 09 7400 M /M RMK AO2 SLP140 T03501022
94299KAAT AAT20160813135511708/13/16 13:55:31  5-MIN KAAT 132155Z AUTO 27008KT 10SM CLR 36/M02 A3010 4220 09 7500 250/08 RMK AO2 SLP138 T03561017
94299KAAT AAT20160813140011608/13/16 14:00:31  5-MIN KAAT 132200Z AUTO 28009G15KT 10SM CLR 35/M02 A3009 4220 09 7400 260/09G15 RMK AO2 T03501017
94299KAAT AAT20160813140513208/13/16 14:05:31  5-MIN KAAT 132205Z AUTO 32009G15KT 290V010 10SM CLR 36/M02 A3009 4220 09 7500 310/09G15 280V360 RMK AO2 T03561017
94299KAAT AAT20160813141011008/13/16 14:10:31  5-MIN KAAT 132210Z AUTO 32005KT 10SM CLR 36/M02 A3009 4230 09 7500 300/05 RMK AO2 T03561017
94299KAAT AAT20160813141511008/13/16 14:15:31  5-MIN KAAT 132215Z AUTO 31010KT 10SM CLR 35/M02 A3009 4220 09 7400 290/10 RMK AO2 T03501017
94299KAAT AAT20160813142011608/13/16 14:20:31  5-MIN KAAT 132220Z AUTO 29014G20KT 10SM CLR 36/M02 A3009 4230 09 7500 270/14G20 RMK AO2 T03611017
94299KAAT AAT20160813142511608/13/16 14:25:31  5-MIN KAAT 132225Z AUTO 29013G22KT 10SM CLR 36/M02 A3009 4230 09 7500 280/13G22 RMK AO2 T03561022
94299KAAT AAT20160813143011608/13/16 14:30:31  5-MIN KAAT 132230Z AUTO 27015G22KT 10SM CLR 36/M02 A3009 4230 09 7500 260/15G22 RMK AO2 T03561017
94299KAAT AAT20160813143511608/13/16 14:35:31  5-MIN KAAT 132235Z AUTO 28006G22KT 10SM CLR 35/M02 A3009 4230 09 7400 270/06G22 RMK AO2 T03501017
94299KAAT AAT20160813144011008/13/16 14:40:31  5-MIN KAAT 132240Z AUTO VRB03KT 10SM CLR 35/M02 A3008 4230 09 7400 VRB/03 RMK AO2 T03501017
94299KAAT AAT20160813144511008/13/16 14:45:31  5-MIN KAAT 132245Z AUTO 31007KT 10SM CLR 35/M01 A3008 4230 10 7400 300/07 RMK AO2 T03501011
94299KAAT AAT20160813145012308/13/16 14:50:31  5-MIN KAAT 132250Z AUTO 25014G21KT 10SM CLR 36/M01 A3008 4230 10 7500 240/14G21 RMK AO2 SLP136 T03561006
94299KAAT AAT20160813145512308/13/16 14:55:31  5-MIN KAAT 132255Z AUTO 28016G22KT 10SM CLR 36/M01 A3008 4230 10 7500 260/16G22 RMK AO2 SLP136 T03561006
94299KAAT AAT20160813150011608/13/16 15:00:31  5-MIN KAAT 132300Z AUTO 29010G22KT 10SM CLR 36/M01 A3008 4230 09 7500 270/10G22 RMK AO2 T03561011
94299KAAT AAT20160813150511008/13/16 15:05:31  5-MIN KAAT 132305Z AUTO 28014KT 10SM CLR 35/M01 A3008 4230 10 7400 260/14 RMK AO2 T03501011
94299KAAT AAT20160813151011608/13/16 15:10:31  5-MIN KAAT 132310Z AUTO 28013G20KT 10SM CLR 36/M01 A3008 4230 09 7500 270/13G20 RMK AO2 T03561011
94299KAAT AAT20160813151511608/13/16 15:15:31  5-MIN KAAT 132315Z AUTO 26015G21KT 10SM CLR 36/M02 A3008 4240 09 7500 250/15G21 RMK AO2 T03561017
94299KAAT AAT20160813152011608/13/16 15:20:31  5-MIN KAAT 132320Z AUTO 28014G22KT 10SM CLR 35/M01 A3008 4240 10 7400 260/14G22 RMK AO2 T03501011
94299KAAT AAT20160813152511608/13/16 15:25:31  5-MIN KAAT 132325Z AUTO 28015G22KT 10SM CLR 36/M02 A3008 4230 09 7500 270/15G22 RMK AO2 T03561017
94299KAAT AAT20160813153011608/13/16 15:30:31  5-MIN KAAT 132330Z AUTO 29011G20KT 10SM CLR 35/M02 A3008 4240 09 7400 280/11G20 RMK AO2 T03501017
94299KAAT AAT20160813153511608/13/16 15:35:31  5-MIN KAAT 132335Z AUTO 27011G18KT 10SM CLR 36/M02 A3008 4240 09 7500 260/11G18 RMK AO2 T03561017
94299KAAT AAT20160813154011608/13/16 15:40:31  5-MIN KAAT 132340Z AUTO 28016G21KT 10SM CLR 35/M01 A3008 4240 10 7400 270/16G21 RMK AO2 T03501011
94299KAAT AAT20160813154511608/13/16 15:45:31  5-MIN KAAT 132345Z AUTO 26011G21KT 10SM CLR 35/M02 A3007 4240 09 7400 240/11G21 RMK AO2 T03501017
94299KAAT AAT20160813155013508/13/16 15:50:31  5-MIN KAAT 132350Z AUTO 27012KT 10SM CLR 35/M01 A3007 4240 10 7400 260/12 RMK AO2 SLP135 T03501011 10361 20283 58018
94299KAAT AAT20160813155514108/13/16 15:55:31  5-MIN KAAT 132355Z AUTO 29009G18KT 10SM CLR 35/M01 A3007 4240 10 7400 280/09G18 RMK AO2 SLP134 T03501011 10361 20283 56015
94299KAAT AAT20160813160011608/13/16 16:00:31  5-MIN KAAT 140000Z AUTO 28015G20KT 10SM CLR 35/M01 A3007 4240 10 7400 270/15G20 RMK AO2 T03501011
94299KAAT AAT20160813160511608/13/16 16:05:31  5-MIN KAAT 140005Z AUTO 28011G20KT 10SM CLR 35/M01 A3007 4240 10 7400 260/11G20 RMK AO2 T03501006
94299KAAT AAT20160813161011608/13/16 16:10:31  5-MIN KAAT 140010Z AUTO 27014G21KT 10SM CLR 35/M01 A3007 4240 10 7400 250/14G21 RMK AO2 T03501006
94299KAAT AAT20160813161511608/13/16 16:15:31  5-MIN KAAT 140015Z AUTO 29016G21KT 10SM CLR 34/M01 A3007 4240 10 7400 270/16G21 RMK AO2 T03441011
94299KAAT AAT20160813162011008/13/16 16:20:31  5-MIN KAAT 140020Z AUTO 28014KT 10SM CLR 34/M01 A3007 4240 10 7400 260/14 RMK AO2 T03441011
94299KAAT AAT20160813162511008/13/16 16:25:31  5-MIN KAAT 140025Z AUTO 29012KT 10SM CLR 34/M01 A3007 4250 10 7400 270/12 RMK AO2 T03441011
94299KAAT AAT20160813163011008/13/16 16:30:31  5-MIN KAAT 140030Z AUTO 26013KT 10SM CLR 34/M02 A3006 4250 09 7400 240/13 RMK AO2 T03441017
94299KAAT AAT20160813163511608/13/16 16:35:31  5-MIN KAAT 140035Z AUTO 27013G21KT 10SM CLR 34/M02 A3006 4250 09 7400 260/13G21 RMK AO2 T03441017
94299KAAT AAT20160813164011608/13/16 16:40:31  5-MIN KAAT 140040Z AUTO 29012G21KT 10SM CLR 34/M01 A3006 4250 10 7400 270/12G21 RMK AO2 T03441011
94299KAAT AAT20160813164511608/13/16 16:45:31  5-MIN KAAT 140045Z AUTO 26016G22KT 10SM CLR 34/M01 A3007 4250 10 7300 240/16G22 RMK AO2 T03391011
94299KAAT AAT20160813165011708/13/16 16:50:31  5-MIN KAAT 140050Z AUTO 27014KT 10SM CLR 34/M01 A3006 4250 11 7300 250/14 RMK AO2 SLP133 T03391006
94299KAAT AAT20160813165512308/13/16 16:55:31  5-MIN KAAT 140055Z AUTO 25015G22KT 10SM CLR 34/M01 A3006 4250 10 7300 240/15G22 RMK AO2 SLP135 T03391011
94299KAAT AAT20160813170011608/13/16 17:00:31  5-MIN KAAT 140100Z AUTO 27015G22KT 10SM CLR 34/M01 A3006 4250 10 7300 260/15G22 RMK AO2 T03391011
94299KAAT AAT20160813170511608/13/16 17:05:31  5-MIN KAAT 140105Z AUTO 27014G22KT 10SM CLR 34/M01 A3006 4250 11 7300 250/14G22 RMK AO2 T03391006
94299KAAT AAT20160813171011608/13/16 17:10:31  5-MIN KAAT 140110Z AUTO 27013G20KT 10SM CLR 34/M01 A3006 4250 11 7300 250/13G20 RMK AO2 T03391006
94299KAAT AAT20160813171511608/13/16 17:15:31  5-MIN KAAT 140115Z AUTO 26014G20KT 10SM CLR 33/M01 A3006 4250 11 7300 240/14G20 RMK AO2 T03331006
94299KAAT AAT20160813172011608/13/16 17:20:31  5-MIN KAAT 140120Z AUTO 26016G20KT 10SM CLR 33/M01 A3006 4250 11 7300 250/16G20 RMK AO2 T03331011
94299KAAT AAT20160813172511008/13/16 17:25:31  5-MIN KAAT 140125Z AUTO 26015KT 10SM CLR 33/M01 A3006 4250 11 7300 250/15 RMK AO2 T03331011
94299KAAT AAT20160813173011008/13/16 17:30:31  5-MIN KAAT 140130Z AUTO 27016KT 10SM CLR 33/M01 A3007 4250 11 7200 260/16 RMK AO2 T03281006
94299KAAT AAT20160813173511008/13/16 17:35:31  5-MIN KAAT 140135Z AUTO 27016KT 10SM CLR 33/M01 A3006 4250 11 7200 250/16 RMK AO2 T03281006
94299KAAT AAT20160813174011008/13/16 17:40:31  5-MIN KAAT 140140Z AUTO 27013KT 10SM CLR 33/M01 A3006 4250 11 7200 260/13 RMK AO2 T03281006
94299KAAT AAT20160813174510908/13/16 17:45:31  5-MIN KAAT 140145Z AUTO 27014KT 10SM CLR 32/00 A3006 4250 12 7200 250/14 RMK AO2 T03220000
94299KAAT AAT20160813175011708/13/16 17:50:31  5-MIN KAAT 140150Z AUTO 28013KT 10SM CLR 32/M01 A3007 4250 12 7200 260/13 RMK AO2 SLP136 T03221006
94299KAAT AAT20160813175511708/13/16 17:55:31  5-MIN KAAT 140155Z AUTO 28013KT 10SM CLR 32/M01 A3007 4250 12 7200 260/13 RMK AO2 SLP135 T03221006
94299KAAT AAT20160813180011008/13/16 18:00:31  5-MIN KAAT 140200Z AUTO 28014KT 10SM CLR 32/M01 A3007 4250 12 7100 260/14 RMK AO2 T03171006
94299KAAT AAT20160813180511008/13/16 18:05:31  5-MIN KAAT 140205Z AUTO 27014KT 10SM CLR 32/M01 A3007 4250 12 7100 250/14 RMK AO2 T03171006
94299KAAT AAT20160813181011008/13/16 18:10:31  5-MIN KAAT 140210Z AUTO 27010KT 10SM CLR 32/M01 A3007 4250 12 7100 260/10 RMK AO2 T03171011
94299KAAT AAT20160813181511008/13/16 18:15:31  5-MIN KAAT 140215Z AUTO 27011KT 10SM CLR 32/M01 A3007 4240 12 7100 260/11 RMK AO2 T03171011
94299KAAT AAT20160813182011008/13/16 18:20:31  5-MIN KAAT 140220Z AUTO 27012KT 10SM CLR 31/M02 A3007 4240 11 7000 260/12 RMK AO2 T03111022
94299KAAT AAT20160813182511008/13/16 18:25:31  5-MIN KAAT 140225Z AUTO 26011KT 10SM CLR 31/M02 A3007 4240 11 7000 250/11 RMK AO2 T03111022
94299KAAT AAT20160813183011008/13/16 18:30:31  5-MIN KAAT 140230Z AUTO 26012KT 10SM CLR 31/M02 A3007 4240 11 7000 240/12 RMK AO2 T03061022
94299KAAT AAT20160813183511608/13/16 18:35:31  5-MIN KAAT 140235Z AUTO 25014G18KT 10SM CLR 31/M02 A3007 4240 11 7000 240/14G18 RMK AO2 T03061022
94299KAAT AAT20160813184011608/13/16 18:40:31  5-MIN KAAT 140240Z AUTO 25010G18KT 10SM CLR 31/M02 A3008 4240 11 7000 240/10G18 RMK AO2 T03061022
94299KAAT AAT20160813184511008/13/16 18:45:31  5-MIN KAAT 140245Z AUTO 26011KT 10SM CLR 30/M02 A3008 4240 12 6900 240/11 RMK AO2 T03001022
94299KAAT AAT20160813185012308/13/16 18:50:31  5-MIN KAAT 140250Z AUTO 26011KT 10SM CLR 30/M02 A3008 4240 12 6900 250/11 RMK AO2 SLP135 T03001022 56015
94299KAAT AAT20160813185512308/13/16 18:55:31  5-MIN KAAT 140255Z AUTO 25009KT 10SM CLR 29/M02 A3008 4230 13 6800 240/09 RMK AO2 SLP136 T02941017 53003
94299KAAT AAT20160813190011008/13/16 19:00:31  5-MIN KAAT 140300Z AUTO 25009KT 10SM CLR 29/M02 A3008 4230 13 6800 240/09 RMK AO2 T02891017
94299KAAT AAT20160813190511008/13/16 19:05:31  5-MIN KAAT 140305Z AUTO 25008KT 10SM CLR 29/M02 A3008 4230 13 6800 240/08 RMK AO2 T02891017
94299KAAT AAT20160813191011008/13/16 19:10:31  5-MIN KAAT 140310Z AUTO 26007KT 10SM CLR 28/M02 A3009 4230 14 6700 240/07 RMK AO2 T02831017
94299KAAT AAT20160813191511008/13/16 19:15:31  5-MIN KAAT 140315Z AUTO 26007KT 10SM CLR 28/M01 A3009 4230 15 6700 250/07 RMK AO2 T02781011
94299KAAT AAT20160813192011008/13/16 19:20:31  5-MIN KAAT 140320Z AUTO 27004KT 10SM CLR 27/M01 A3009 4220 15 6600 260/04 RMK AO2 T02721011
94299KAAT AAT20160813192511008/13/16 19:25:31  5-MIN KAAT 140325Z AUTO 27004KT 10SM CLR 27/M01 A3009 4220 16 6500 250/04 RMK AO2 T02671006
94299KAAT AAT20160813193011008/13/16 19:30:31  5-MIN KAAT 140330Z AUTO 27004KT 10SM CLR 26/M01 A3009 4220 16 6500 250/04 RMK AO2 T02611011
94299KAAT AAT20160813193511008/13/16 19:35:31  5-MIN KAAT 140335Z AUTO 28004KT 10SM CLR 26/M01 A3010 4220 17 6400 260/04 RMK AO2 T02561006
94299KAAT AAT20160813194011008/13/16 19:40:31  5-MIN KAAT 140340Z AUTO 28004KT 10SM CLR 26/M01 A3010 4220 17 6400 260/04 RMK AO2 T02561006
94299KAAT AAT20160813194511008/13/16 19:45:31  5-MIN KAAT 140345Z AUTO 27004KT 10SM CLR 25/M01 A3010 4210 18 6300 260/04 RMK AO2 T02501006
94299KAAT AAT20160813195011708/13/16 19:50:31  5-MIN KAAT 140350Z AUTO 27004KT 10SM CLR 24/M01 A3010 4210 19 6300 250/04 RMK AO2 SLP146 T02441006
94299KAAT AAT20160813195511708/13/16 19:55:31  5-MIN KAAT 140355Z AUTO 27003KT 10SM CLR 24/M01 A3010 4210 19 6300 250/03 RMK AO2 SLP146 T02441006
94299KAAT AAT20160813200010908/13/16 20:00:31  5-MIN KAAT 140400Z AUTO 27003KT 10SM CLR 24/00 A3011 4210 19 6300 250/03 RMK AO2 T02440000
94299KAAT AAT20160813200510908/13/16 20:05:31  5-MIN KAAT 140405Z AUTO 26003KT 10SM CLR 24/00 A3011 4210 19 6300 250/03 RMK AO2 T02440000
94299KAAT AAT20160813201010908/13/16 20:10:31  5-MIN KAAT 140410Z AUTO 25003KT 10SM CLR 24/00 A3011 4210 19 6300 230/03 RMK AO2 T02440000
94299KAAT AAT20160813201510908/13/16 20:15:31  5-MIN KAAT 140415Z AUTO 00000KT 10SM CLR 24/00 A3011 4210 19 6300 000/00 RMK AO2 T02440000
94299KAAT AAT20160813202010908/13/16 20:20:31  5-MIN KAAT 140420Z AUTO 00000KT 10SM CLR 26/00 A3011 4200 18 6400 000/00 RMK AO2 T02560000
94299KAAT AAT20160813202510908/13/16 20:25:31  5-MIN KAAT 140425Z AUTO 00000KT 10SM CLR 24/00 A3011 4200 19 6300 000/00 RMK AO2 T02440000
94299KAAT AAT20160813203010908/13/16 20:30:31  5-MIN KAAT 140430Z AUTO 14005KT 10SM CLR 24/00 A3012 4200 20 6200 120/05 RMK AO2 T02390000
94299KAAT AAT20160813203511008/13/16 20:35:31  5-MIN KAAT 140435Z AUTO 12004KT 10SM CLR 23/M01 A3012 4200 21 6100 110/04 RMK AO2 T02281006
94299KAAT AAT20160813204010908/13/16 20:40:31  5-MIN KAAT 140440Z AUTO 11004KT 10SM CLR 23/00 A3012 4200 22 6100 100/04 RMK AO2 T02280000
94299KAAT AAT20160813204510908/13/16 20:45:31  5-MIN KAAT 140445Z AUTO 08003KT 10SM CLR 22/01 A3012 4200 24 6000 070/03 RMK AO2 T02170006
94299KAAT AAT20160813205011608/13/16 20:50:31  5-MIN KAAT 140450Z AUTO 00000KT 10SM CLR 22/01 A3012 4200 25 6000 000/00 RMK AO2 SLP152 T02170011
94299KAAT AAT20160813205511608/13/16 20:55:31  5-MIN KAAT 140455Z AUTO 00000KT 10SM CLR 22/03 A3012 4200 28 6000 000/00 RMK AO2 SLP152 T02170028
94299KAAT AAT20160813210010908/13/16 21:00:31  5-MIN KAAT 140500Z AUTO 00000KT 10SM CLR 21/03 A3012 4200 30 5900 000/00 RMK AO2 T02110033
94299KAAT AAT20160813210510908/13/16 21:05:31  5-MIN KAAT 140505Z AUTO 00000KT 10SM CLR 21/03 A3012 4200 29 5900 000/00 RMK AO2 T02110028
94299KAAT AAT20160813211010908/13/16 21:10:31  5-MIN KAAT 140510Z AUTO 00000KT 10SM CLR 22/02 A3012 4200 27 6000 000/00 RMK AO2 T02170022
94299KAAT AAT20160813211510908/13/16 21:15:31  5-MIN KAAT 140515Z AUTO 00000KT 10SM CLR 19/02 A3012 4200 31 5700 000/00 RMK AO2 T01940022
94299KAAT AAT20160813212010908/13/16 21:20:31  5-MIN KAAT 140520Z AUTO 00000KT 10SM CLR 19/04 A3012 4200 36 5600 000/00 RMK AO2 T01890039
94299KAAT AAT20160813212510908/13/16 21:25:31  5-MIN KAAT 140525Z AUTO 00000KT 10SM CLR 19/03 A3012 4200 35 5600 000/00 RMK AO2 T01890033
94299KAAT AAT20160813213010908/13/16 21:30:31  5-MIN KAAT 140530Z AUTO 00000KT 10SM CLR 19/03 A3012 4200 35 5600 000/00 RMK AO2 T01890033
94299KAAT AAT20160813213510908/13/16 21:35:31  5-MIN KAAT 140535Z AUTO 00000KT 10SM CLR 19/03 A3012 4200 34 5700 000/00 RMK AO2 T01940033
94299KAAT AAT20160813214010908/13/16 21:40:31  5-MIN KAAT 140540Z AUTO 00000KT 10SM CLR 19/03 A3012 4200 33 5700 000/00 RMK AO2 T01940028
94299KAAT AAT20160813214510908/13/16 21:45:31  5-MIN KAAT 140545Z AUTO 01003KT 10SM CLR 18/02 A3012 4200 34 5600 350/03 RMK AO2 T01830022
94299KAAT AAT20160813215013408/13/16 21:50:31  5-MIN KAAT 140550Z AUTO 04004KT 10SM CLR 18/03 A3012 4200 35 5600 020/04 RMK AO2 SLP152 T01830028 10350 20178 53003
94299KAAT AAT20160813215513408/13/16 21:55:31  5-MIN KAAT 140555Z AUTO 04004KT 10SM CLR 19/03 A3012 4200 33 5700 020/04 RMK AO2 SLP149 T01940028 10350 20178 51012
94299KAAT AAT20160813220010908/13/16 22:00:31  5-MIN KAAT 140600Z AUTO 04003KT 10SM CLR 19/03 A3012 4200 34 5600 030/03 RMK AO2 T01890028
94299KAAT AAT20160813220510908/13/16 22:05:31  5-MIN KAAT 140605Z AUTO 00000KT 10SM CLR 19/02 A3012 4200 31 5600 000/00 RMK AO2 T01890017
94299KAAT AAT20160813221010908/13/16 22:10:31  5-MIN KAAT 140610Z AUTO 00000KT 10SM CLR 20/01 A3012 4200 28 5800 000/00 RMK AO2 T02000011
94299KAAT AAT20160813221510908/13/16 22:15:31  5-MIN KAAT 140615Z AUTO 00000KT 10SM CLR 19/01 A3012 4200 30 5600 000/00 RMK AO2 T01890011
94299KAAT AAT20160813222010908/13/16 22:20:31  5-MIN KAAT 140620Z AUTO 00000KT 10SM CLR 17/01 A3012 4200 33 5400 000/00 RMK AO2 T01670006
94299KAAT AAT20160813222510908/13/16 22:25:31  5-MIN KAAT 140625Z AUTO 00000KT 10SM CLR 16/01 A3012 4200 36 5300 000/00 RMK AO2 T01610011
94299KAAT AAT20160813223010908/13/16 22:30:31  5-MIN KAAT 140630Z AUTO 00000KT 10SM CLR 16/01 A3012 4200 36 5300 000/00 RMK AO2 T01610011
94299KAAT AAT20160813223510908/13/16 22:35:31  5-MIN KAAT 140635Z AUTO 00000KT 10SM CLR 16/03 A3012 4200 40 5300 000/00 RMK AO2 T01610028
94299KAAT AAT20160813224010908/13/16 22:40:31  5-MIN KAAT 140640Z AUTO 00000KT 10SM CLR 16/03 A3012 4200 40 5300 000/00 RMK AO2 T01610028
94299KAAT AAT20160813224510908/13/16 22:45:31  5-MIN KAAT 140645Z AUTO 18003KT 10SM CLR 16/03 A3012 4190 40 5300 170/03 RMK AO2 T01610028
94299KAAT AAT20160813225011608/13/16 22:50:31  5-MIN KAAT 140650Z AUTO 00000KT 10SM CLR 16/02 A3012 4200 39 5300 000/00 RMK AO2 SLP149 T01610022
94299KAAT AAT20160813225511608/13/16 22:55:31  5-MIN KAAT 140655Z AUTO 00000KT 10SM CLR 17/02 A3012 4200 37 5400 000/00 RMK AO2 SLP148 T01670022
94299KAAT AAT20160813230010908/13/16 23:00:31  5-MIN KAAT 140700Z AUTO 00000KT 10SM CLR 15/02 A3012 4200 40 5200 000/00 RMK AO2 T01500017
94299KAAT AAT20160813230510908/13/16 23:05:31  5-MIN KAAT 140705Z AUTO 00000KT 10SM CLR 15/02 A3012 4200 40 5200 000/00 RMK AO2 T01500017
94299KAAT AAT20160813231010908/13/16 23:10:31  5-MIN KAAT 140710Z AUTO 00000KT 10SM CLR 15/02 A3012 4200 40 5200 000/00 RMK AO2 T01500017
94299KAAT AAT20160813231510908/13/16 23:15:31  5-MIN KAAT 140715Z AUTO 00000KT 10SM CLR 14/01 A3012 4200 41 5100 000/00 RMK AO2 T01390011
94299KAAT AAT20160813232010908/13/16 23:20:31  5-MIN KAAT 140720Z AUTO 00000KT 10SM CLR 13/01 A3012 4200 41 5000 000/00 RMK AO2 T01330006
94299KAAT AAT20160813232510908/13/16 23:25:31  5-MIN KAAT 140725Z AUTO 09003KT 10SM CLR 14/01 A3012 4200 40 5100 070/03 RMK AO2 T01440011
94299KAAT AAT20160813233010908/13/16 23:30:31  5-MIN KAAT 140730Z AUTO 00000KT 10SM CLR 14/02 A3012 4190 43 5100 000/00 RMK AO2 T01440022
94299KAAT AAT20160813233510908/13/16 23:35:31  5-MIN KAAT 140735Z AUTO 00000KT 10SM CLR 13/02 A3012 4200 45 5000 000/00 RMK AO2 T01330017
94299KAAT AAT20160813234010908/13/16 23:40:31  5-MIN KAAT 140740Z AUTO 00000KT 10SM CLR 14/02 A3012 4200 45 5100 000/00 RMK AO2 T01390022
94299KAAT AAT20160813234510908/13/16 23:45:31  5-MIN KAAT 140745Z AUTO 00000KT 10SM CLR 14/03 A3012 4200 47 5100 000/00 RMK AO2 T01390028
94299KAAT AAT20160813235012608/13/16 23:50:31  5-MIN KAAT 140750Z AUTO 00000KT 10SM CLR 14/03 A3012 4200 48 5100 000/00 RMK AO2 SLP149 T01390033 403610083
94299KAAT AAT20160813235512608/13/16 23:55:31  5-MIN KAAT 140755Z AUTO 00000KT 10SM CLR 15/03 A3012 4200 43 5200 000/00 RMK AO2 SLP147 T01500028 403610083
94299KAAT AAT20160814000010908/14/16 00:00:31  5-MIN KAAT 140800Z AUTO 00000KT 10SM CLR 15/03 A3012 4200 43 5200 000/00 RMK AO2 T01500028
94299KAAT AAT20160814000510908/14/16 00:05:31  5-MIN KAAT 140805Z AUTO 08003KT 10SM CLR 15/03 A3012 4200 43 5200 070/03 RMK AO2 T01500028
94299KAAT AAT20160814001010908/14/16 00:10:31  5-MIN KAAT 140810Z AUTO 09003KT 10SM CLR 15/03 A3012 4200 43 5200 080/03 RMK AO2 T01500028
94299KAAT AAT20160814001510908/14/16 00:15:31  5-MIN KAAT 140815Z AUTO 00000KT 10SM CLR 14/02 A3011 4200 45 5100 000/00 RMK AO2 T01390022
94299KAAT AAT20160814002010908/14/16 00:20:31  5-MIN KAAT 140820Z AUTO 00000KT 10SM CLR 13/02 A3011 4200 46 5000 000/00 RMK AO2 T01330022
94299KAAT AAT20160814002510908/14/16 00:25:31  5-MIN KAAT 140825Z AUTO 00000KT 10SM CLR 13/01 A3012 4200 44 5000 000/00 RMK AO2 T01280011
94299KAAT AAT20160814003010908/14/16 00:30:31  5-MIN KAAT 140830Z AUTO 00000KT 10SM CLR 12/01 A3012 4200 48 4800 000/00 RMK AO2 T01170011
94299KAAT AAT20160814003510908/14/16 00:35:31  5-MIN KAAT 140835Z AUTO 00000KT 10SM CLR 12/02 A3012 4200 50 4900 000/00 RMK AO2 T01220022
94299KAAT AAT20160814004010908/14/16 00:40:31  5-MIN KAAT 140840Z AUTO 00000KT 10SM CLR 12/03 A3012 4200 52 4900 000/00 RMK AO2 T01220028
94299KAAT AAT20160814004510908/14/16 00:45:31  5-MIN KAAT 140845Z AUTO 00000KT 10SM CLR 13/03 A3011 4200 48 5000 000/00 RMK AO2 T01330028
94299KAAT AAT20160814005012208/14/16 00:50:31  5-MIN KAAT 140850Z AUTO 00000KT 10SM CLR 13/03 A3011 4200 52 5000 000/00 RMK AO2 SLP147 T01280033 51012
94299KAAT AAT20160814005512208/14/16 00:55:31  5-MIN KAAT 140855Z AUTO 00000KT 10SM CLR 12/03 A3011 4200 54 4900 000/00 RMK AO2 SLP147 T01220033 58002
94299KAAT AAT20160814010010908/14/16 01:00:31  5-MIN KAAT 140900Z AUTO 00000KT 10SM CLR 13/03 A3011 4200 52 5000 000/00 RMK AO2 T01280033
94299KAAT AAT20160814010510908/14/16 01:05:31  5-MIN KAAT 140905Z AUTO 00000KT 10SM CLR 12/03 A3011 4200 52 4900 000/00 RMK AO2 T01220028
94299KAAT AAT20160814011010908/14/16 01:10:31  5-MIN KAAT 140910Z AUTO 00000KT 10SM CLR 13/03 A3011 4210 52 5000 000/00 RMK AO2 T01280033
94299KAAT AAT20160814011510908/14/16 01:15:31  5-MIN KAAT 140915Z AUTO 16004KT 10SM CLR 13/03 A3011 4210 50 5000 140/04 RMK AO2 T01280028
94299KAAT AAT20160814012010908/14/16 01:20:31  5-MIN KAAT 140920Z AUTO 00000KT 10SM CLR 12/02 A3011 4210 50 4800 000/00 RMK AO2 T01170017
94299KAAT AAT20160814012510908/14/16 01:25:31  5-MIN KAAT 140925Z AUTO VRB03KT 10SM CLR 13/03 A3011 4210 50 5000 VRB/03 RMK AO2 T01280028
94299KAAT AAT20160814013010908/14/16 01:30:31  5-MIN KAAT 140930Z AUTO VRB03KT 10SM CLR 12/03 A3011 4210 54 4800 VRB/03 RMK AO2 T01170028
94299KAAT AAT20160814013510908/14/16 01:35:31  5-MIN KAAT 140935Z AUTO 00000KT 10SM CLR 12/04 A3010 4210 59 4900 000/00 RMK AO2 T01220044
94299KAAT AAT20160814014010908/14/16 01:40:31  5-MIN KAAT 140940Z AUTO 00000KT 10SM CLR 12/04 A3011 4210 58 4800 000/00 RMK AO2 T01170039
94299KAAT AAT20160814014510908/14/16 01:45:31  5-MIN KAAT 140945Z AUTO 00000KT 10SM CLR 12/03 A3011 4210 56 4800 000/00 RMK AO2 T01170033
94299KAAT AAT20160814015011608/14/16 01:50:31  5-MIN KAAT 140950Z AUTO 03004KT 10SM CLR 12/04 A3011 4210 56 4900 010/04 RMK AO2 SLP145 T01220039
94299KAAT AAT20160814015511608/14/16 01:55:31  5-MIN KAAT 140955Z AUTO 08003KT 10SM CLR 13/03 A3011 4210 52 5000 070/03 RMK AO2 SLP142 T01280033
94299KAAT AAT20160814020010908/14/16 02:00:31  5-MIN KAAT 141000Z AUTO 00000KT 10SM CLR 13/03 A3011 4210 50 5000 000/00 RMK AO2 T01280028
94299KAAT AAT20160814020510908/14/16 02:05:31  5-MIN KAAT 141005Z AUTO 00000KT 10SM CLR 13/03 A3010 4210 50 5000 000/00 RMK AO2 T01280028
94299KAAT AAT20160814021010908/14/16 02:10:31  5-MIN KAAT 141010Z AUTO 00000KT 10SM CLR 12/02 A3010 4210 52 4800 000/00 RMK AO2 T01170022
94299KAAT AAT20160814021510908/14/16 02:15:31  5-MIN KAAT 141015Z AUTO 00000KT 10SM CLR 12/03 A3010 4210 54 4800 000/00 RMK AO2 T01170028
94299KAAT AAT20160814022010908/14/16 02:20:31  5-MIN KAAT 141020Z AUTO 00000KT 10SM CLR 11/02 A3010 4210 54 4800 000/00 RMK AO2 T01110022
94299KAAT AAT20160814022510908/14/16 02:25:31  5-MIN KAAT 141025Z AUTO VRB03KT 10SM CLR 11/02 A3010 4210 54 4800 VRB/03 RMK AO2 T01110022
94299KAAT AAT20160814023010908/14/16 02:30:31  5-MIN KAAT 141030Z AUTO 10004KT 10SM CLR 12/02 A3010 4210 50 4900 090/04 RMK AO2 T01220022
94299KAAT AAT20160814023510908/14/16 02:35:31  5-MIN KAAT 141035Z AUTO 00000KT 10SM CLR 12/03 A3010 4210 54 4800 000/00 RMK AO2 T01170028
94299KAAT AAT20160814024010908/14/16 02:40:31  5-MIN KAAT 141040Z AUTO 00000KT 10SM CLR 12/02 A3010 4210 52 4800 000/00 RMK AO2 T01170022
94299KAAT AAT20160814024510908/14/16 02:45:31  5-MIN KAAT 141045Z AUTO 00000KT 10SM CLR 11/02 A3010 4210 56 4700 000/00 RMK AO2 T01060022
94299KAAT AAT20160814025011608/14/16 02:50:31  5-MIN KAAT 141050Z AUTO 00000KT 10SM CLR 11/02 A3010 4210 54 4700 000/00 RMK AO2 SLP144 T01060017
94299KAAT AAT20160814025511608/14/16 02:55:31  5-MIN KAAT 141055Z AUTO 00000KT 10SM CLR 09/02 A3010 4210 58 4600 000/00 RMK AO2 SLP146 T00940017
94299KAAT AAT20160814030010908/14/16 03:00:31  5-MIN KAAT 141100Z AUTO 00000KT 10SM CLR 10/02 A3010 4210 56 4600 000/00 RMK AO2 T01000017
94299KAAT AAT20160814030510908/14/16 03:05:31  5-MIN KAAT 141105Z AUTO 00000KT 10SM CLR 10/02 A3010 4210 56 4600 000/00 RMK AO2 T01000017
94299KAAT AAT20160814031010908/14/16 03:10:31  5-MIN KAAT 141110Z AUTO 17003KT 10SM CLR 09/01 A3011 4210 56 4600 150/03 RMK AO2 T00940011
94299KAAT AAT20160814031510908/14/16 03:15:31  5-MIN KAAT 141115Z AUTO 00000KT 10SM CLR 11/02 A3011 4210 56 4700 000/00 RMK AO2 T01060022
94299KAAT AAT20160814032010908/14/16 03:20:31  5-MIN KAAT 141120Z AUTO 00000KT 10SM CLR 11/03 A3011 4210 58 4700 000/00 RMK AO2 T01060028
94299KAAT AAT20160814032510908/14/16 03:25:31  5-MIN KAAT 141125Z AUTO 00000KT 10SM CLR 11/03 A3011 4210 61 4700 000/00 RMK AO2 T01060033
94299KAAT AAT20160814033010908/14/16 03:30:31  5-MIN KAAT 141130Z AUTO 00000KT 10SM CLR 10/03 A3011 4210 63 4600 000/00 RMK AO2 T01000033
94299KAAT AAT20160814033510908/14/16 03:35:31  5-MIN KAAT 141135Z AUTO 00000KT 10SM CLR 10/03 A3011 4210 63 4600 000/00 RMK AO2 T01000033
94299KAAT AAT20160814034010908/14/16 03:40:31  5-MIN KAAT 141140Z AUTO 00000KT 10SM CLR 09/03 A3011 4210 63 4600 000/00 RMK AO2 T00940028
94299KAAT AAT20160814034510908/14/16 03:45:31  5-MIN KAAT 141145Z AUTO 00000KT 10SM CLR 10/03 A3011 4210 60 4600 000/00 RMK AO2 T01000028
94299KAAT AAT20160814035013408/14/16 03:50:31  5-MIN KAAT 141150Z AUTO 00000KT 10SM CLR 09/02 A3011 4210 60 4600 000/00 RMK AO2 SLP149 T00940022 10200 20094 58002
94299KAAT AAT20160814035513408/14/16 03:55:31  5-MIN KAAT 141155Z AUTO 00000KT 10SM CLR 09/01 A3011 4210 56 4500 000/00 RMK AO2 SLP149 T00890006 10200 20089 55001
94299KAAT AAT20160814040010908/14/16 04:00:31  5-MIN KAAT 141200Z AUTO 00000KT 10SM CLR 09/01 A3011 4210 58 4500 000/00 RMK AO2 T00890011
94299KAAT AAT20160814040510908/14/16 04:05:31  5-MIN KAAT 141205Z AUTO 00000KT 10SM CLR 09/02 A3011 4210 58 4600 000/00 RMK AO2 T00940017
94299KAAT AAT20160814041010908/14/16 04:10:31  5-MIN KAAT 141210Z AUTO 00000KT 10SM CLR 09/02 A3011 4210 60 4600 000/00 RMK AO2 T00940022
94299KAAT AAT20160814041510908/14/16 04:15:31  5-MIN KAAT 141215Z AUTO 00000KT 10SM CLR 09/02 A3011 4210 60 4600 000/00 RMK AO2 T00940022
94299KAAT AAT20160814042010908/14/16 04:20:31  5-MIN KAAT 141220Z AUTO 00000KT 10SM CLR 09/03 A3011 4210 63 4600 000/00 RMK AO2 T00940028
94299KAAT AAT20160814042510908/14/16 04:25:31  5-MIN KAAT 141225Z AUTO 00000KT 10SM CLR 10/03 A3011 4210 60 4600 000/00 RMK AO2 T01000028
94299KAAT AAT20160814043010908/14/16 04:30:31  5-MIN KAAT 141230Z AUTO 00000KT 10SM CLR 09/02 A3011 4210 63 4500 000/00 RMK AO2 T00890022
94299KAAT AAT20160814043510908/14/16 04:35:31  5-MIN KAAT 141235Z AUTO 00000KT 10SM CLR 10/02 A3011 4210 58 4600 000/00 RMK AO2 T01000022
94299KAAT AAT20160814044010908/14/16 04:40:31  5-MIN KAAT 141240Z AUTO 00000KT 10SM CLR 10/02 A3011 4210 56 4600 000/00 RMK AO2 T01000017
94299KAAT AAT20160814044510908/14/16 04:45:31  5-MIN KAAT 141245Z AUTO 00000KT 10SM CLR 09/02 A3011 4210 58 4600 000/00 RMK AO2 T00940017
94299KAAT AAT20160814045011608/14/16 04:50:31  5-MIN KAAT 141250Z AUTO 00000KT 10SM CLR 09/02 A3011 4200 60 4600 000/00 RMK AO2 SLP152 T00940022
94299KAAT AAT20160814045511608/14/16 04:55:31  5-MIN KAAT 141255Z AUTO 00000KT 10SM CLR 10/02 A3011 4200 58 4600 000/00 RMK AO2 SLP151 T01000022
94299KAAT AAT20160814050010908/14/16 05:00:31  5-MIN KAAT 141300Z AUTO 00000KT 10SM CLR 09/02 A3011 4200 60 4600 000/00 RMK AO2 T00940022
94299KAAT AAT20160814050510908/14/16 05:05:31  5-MIN KAAT 141305Z AUTO 00000KT 10SM CLR 09/02 A3012 4200 60 4500 000/00 RMK AO2 T00890017
94299KAAT AAT20160814051010908/14/16 05:10:31  5-MIN KAAT 141310Z AUTO 00000KT 10SM CLR 08/01 A3012 4200 60 4400 000/00 RMK AO2 T00830011
94299KAAT AAT20160814051510908/14/16 05:15:31  5-MIN KAAT 141315Z AUTO 00000KT 10SM CLR 08/02 A3012 4200 63 4400 000/00 RMK AO2 T00830017
94299KAAT AAT20160814052010908/14/16 05:20:31  5-MIN KAAT 141320Z AUTO 00000KT 10SM CLR 08/02 A3012 4200 63 4400 000/00 RMK AO2 T00830017
94299KAAT AAT20160814052510908/14/16 05:25:31  5-MIN KAAT 141325Z AUTO 00000KT 10SM CLR 08/01 A3012 4200 58 4400 000/00 RMK AO2 T00830006
94299KAAT AAT20160814053010908/14/16 05:30:31  5-MIN KAAT 141330Z AUTO 00000KT 10SM CLR 08/00 A3012 4200 55 4400 000/00 RMK AO2 T00830000
94299KAAT AAT20160814053510908/14/16 05:35:31  5-MIN KAAT 141335Z AUTO 00000KT 10SM CLR 08/00 A3012 4200 55 4400 000/00 RMK AO2 T00830000
94299KAAT AAT20160814054010908/14/16 05:40:31  5-MIN KAAT 141340Z AUTO 00000KT 10SM CLR 09/01 A3012 4190 56 4500 000/00 RMK AO2 T00890006
94299KAAT AAT20160814054510908/14/16 05:45:31  5-MIN KAAT 141345Z AUTO 00000KT 10SM CLR 09/01 A3012 4190 56 4500 000/00 RMK AO2 T00890006
94299KAAT AAT20160814055011608/14/16 05:50:31  5-MIN KAAT 141350Z AUTO 00000KT 10SM CLR 09/01 A3013 4190 56 4600 000/00 RMK AO2 SLP157 T00940011
94299KAAT AAT20160814055511608/14/16 05:55:31  5-MIN KAAT 141355Z AUTO 00000KT 10SM CLR 10/01 A3013 4190 54 4600 000/00 RMK AO2 SLP158 T01000011
94299KAAT AAT20160814060010908/14/16 06:00:31  5-MIN KAAT 141400Z AUTO 00000KT 10SM CLR 11/02 A3013 4190 54 4700 000/00 RMK AO2 T01060017
94299KAAT AAT20160814060510908/14/16 06:05:31  5-MIN KAAT 141405Z AUTO 00000KT 10SM CLR 11/02 A3013 4190 54 4700 000/00 RMK AO2 T01110022
94299KAAT AAT20160814061010908/14/16 06:10:31  5-MIN KAAT 141410Z AUTO 00000KT 10SM CLR 12/02 A3013 4190 52 4800 000/00 RMK AO2 T01170022
94299KAAT AAT20160814061510908/14/16 06:15:31  5-MIN KAAT 141415Z AUTO 00000KT 10SM CLR 12/02 A3013 4190 50 4900 000/00 RMK AO2 T01220022
94299KAAT AAT20160814062010908/14/16 06:20:31  5-MIN KAAT 141420Z AUTO 00000KT 10SM CLR 12/02 A3013 4190 50 4900 000/00 RMK AO2 T01220022
94299KAAT AAT20160814062510908/14/16 06:25:31  5-MIN KAAT 141425Z AUTO 00000KT 10SM CLR 13/02 A3013 4190 48 4900 000/00 RMK AO2 T01280022
94299KAAT AAT20160814063010908/14/16 06:30:31  5-MIN KAAT 141430Z AUTO 00000KT 10SM CLR 13/02 A3013 4190 46 5000 000/00 RMK AO2 T01330022
94299KAAT AAT20160814063510908/14/16 06:35:31  5-MIN KAAT 141435Z AUTO 00000KT 10SM CLR 13/02 A3013 4190 46 5000 000/00 RMK AO2 T01330022
94299KAAT AAT20160814064010908/14/16 06:40:31  5-MIN KAAT 141440Z AUTO 00000KT 10SM CLR 14/02 A3013 4190 45 5100 000/00 RMK AO2 T01390022
94299KAAT AAT20160814064510908/14/16 06:45:31  5-MIN KAAT 141445Z AUTO 00000KT 10SM CLR 14/02 A3013 4190 43 5100 000/00 RMK AO2 T01440022
94299KAAT AAT20160814065012208/14/16 06:50:31  5-MIN KAAT 141450Z AUTO 00000KT 10SM CLR 15/02 A3013 4190 42 5200 000/00 RMK AO2 SLP155 T01500022 55001
94299KAAT AAT20160814065512208/14/16 06:55:31  5-MIN KAAT 141455Z AUTO 00000KT 10SM CLR 16/02 A3013 4190 40 5300 000/00 RMK AO2 SLP155 T01560022 51005
94299KAAT AAT20160814070010908/14/16 07:00:31  5-MIN KAAT 141500Z AUTO 00000KT 10SM CLR 16/02 A3013 4190 39 5300 000/00 RMK AO2 T01610022
94299KAAT AAT20160814070510908/14/16 07:05:31  5-MIN KAAT 141505Z AUTO 00000KT 10SM CLR 17/02 A3013 4190 37 5400 000/00 RMK AO2 T01670022
94299KAAT AAT20160814071010908/14/16 07:10:31  5-MIN KAAT 141510Z AUTO 00000KT 10SM CLR 18/02 A3013 4190 35 5500 000/00 RMK AO2 T01780022
94299KAAT AAT20160814071510908/14/16 07:15:31  5-MIN KAAT 141515Z AUTO 00000KT 10SM CLR 18/02 A3013 4190 32 5600 000/00 RMK AO2 T01830017
94299KAAT AAT20160814072010908/14/16 07:20:31  5-MIN KAAT 141520Z AUTO 00000KT 10SM CLR 19/02 A3013 4190 31 5600 000/00 RMK AO2 T01890017
94299KAAT AAT20160814072510908/14/16 07:25:31  5-MIN KAAT 141525Z AUTO 00000KT 10SM CLR 19/02 A3012 4190 30 5700 000/00 RMK AO2 T01940017
94299KAAT AAT20160814073010908/14/16 07:30:31  5-MIN KAAT 141530Z AUTO 00000KT 10SM CLR 19/02 A3012 4190 30 5700 000/00 RMK AO2 T01940017
94299KAAT AAT20160814073510908/14/16 07:35:31  5-MIN KAAT 141535Z AUTO 00000KT 10SM CLR 20/01 A3012 4190 28 5800 000/00 RMK AO2 T02000011
94299KAAT AAT20160814074010908/14/16 07:40:31  5-MIN KAAT 141540Z AUTO 00000KT 10SM CLR 20/01 A3012 4200 28 5800 000/00 RMK AO2 T02000011
94299KAAT AAT20160814074510908/14/16 07:45:31  5-MIN KAAT 141545Z AUTO 00000KT 10SM CLR 21/01 A3012 4200 27 5800 000/00 RMK AO2 T02060011
94299KAAT AAT20160814075011608/14/16 07:50:31  5-MIN KAAT 141550Z AUTO 00000KT 10SM CLR 21/01 A3012 4200 26 5900 000/00 RMK AO2 SLP151 T02110011
94299KAAT AAT20160814075511608/14/16 07:55:31  5-MIN KAAT 141555Z AUTO 00000KT 10SM CLR 22/01 A3012 4200 24 6000 000/00 RMK AO2 SLP149 T02170006
94299KAAT AAT20160814080010908/14/16 08:00:31  5-MIN KAAT 141600Z AUTO 00000KT 10SM CLR 22/01 A3012 4200 23 6000 000/00 RMK AO2 T02220006
94299KAAT AAT20160814080510908/14/16 08:05:31  5-MIN KAAT 141605Z AUTO 00000KT 10SM CLR 22/01 A3012 4200 23 6000 000/00 RMK AO2 T02220006
94299KAAT AAT20160814081010908/14/16 08:10:31  5-MIN KAAT 141610Z AUTO 00000KT 10SM CLR 22/01 A3011 4200 23 6000 000/00 RMK AO2 T02220006
94299KAAT AAT20160814081510908/14/16 08:15:31  5-MIN KAAT 141615Z AUTO 35003KT 10SM CLR 23/01 A3011 4200 23 6100 330/03 RMK AO2 T02330011
94299KAAT AAT20160814082010908/14/16 08:20:31  5-MIN KAAT 141620Z AUTO VRB03KT 10SM CLR 23/01 A3011 4210 23 6100 VRB/03 RMK AO2 T02330011
94299KAAT AAT20160814082510908/14/16 08:25:31  5-MIN KAAT 141625Z AUTO 00000KT 10SM CLR 23/02 A3011 4210 24 6100 000/00 RMK AO2 T02330017
94299KAAT AAT20160814083010908/14/16 08:30:31  5-MIN KAAT 141630Z AUTO 00000KT 10SM CLR 24/02 A3011 4210 23 6200 000/00 RMK AO2 T02390017
94299KAAT AAT20160814083510908/14/16 08:35:31  5-MIN KAAT 141635Z AUTO 00000KT 10SM CLR 24/02 A3011 4210 22 6300 000/00 RMK AO2 T02440017
94299KAAT AAT20160814084010908/14/16 08:40:31  5-MIN KAAT 141640Z AUTO VRB03KT 10SM CLR 24/02 A3011 4210 22 6300 VRB/03 RMK AO2 T02440017
94299KAAT AAT20160814084510908/14/16 08:45:31  5-MIN KAAT 141645Z AUTO VRB03KT 10SM CLR 25/02 A3011 4210 21 6300 VRB/03 RMK AO2 T02500017
94299KAAT AAT20160814085011608/14/16 08:50:31  5-MIN KAAT 141650Z AUTO 00000KT 10SM CLR 25/02 A3011 4210 21 6300 000/00 RMK AO2 SLP146 T02500017
94299KAAT AAT20160814085511608/14/16 08:55:31  5-MIN KAAT 141655Z AUTO VRB04KT 10SM CLR 26/02 A3011 4210 21 6400 VRB/04 RMK AO2 SLP145 T02560017
94299KAAT AAT20160814090010908/14/16 09:00:31  5-MIN KAAT 141700Z AUTO 15004KT 10SM CLR 26/02 A3011 4210 21 6400 140/04 RMK AO2 T02560022
94299KAAT AAT20160814090510908/14/16 09:05:31  5-MIN KAAT 141705Z AUTO 17004KT 10SM CLR 26/02 A3011 4210 21 6400 150/04 RMK AO2 T02560022
94299KAAT AAT20160814091010908/14/16 09:10:31  5-MIN KAAT 141710Z AUTO 14005KT 10SM CLR 26/03 A3011 4210 22 6500 120/05 RMK AO2 T02610033
94299KAAT AAT20160814091510908/14/16 09:15:31  5-MIN KAAT 141715Z AUTO 12005KT 10SM CLR 26/03 A3011 4210 21 6500 100/05 RMK AO2 T02610028
94299KAAT AAT20160814092010908/14/16 09:20:31  5-MIN KAAT 141720Z AUTO 14006KT 10SM CLR 27/03 A3011 4210 21 6500 130/06 RMK AO2 T02670028
94299KAAT AAT20160814092510908/14/16 09:25:31  5-MIN KAAT 141725Z AUTO VRB04KT 10SM CLR 27/02 A3011 4210 20 6500 VRB/04 RMK AO2 T02670022
94299KAAT AAT20160814093010908/14/16 09:30:31  5-MIN KAAT 141730Z AUTO VRB04KT 10SM CLR 27/02 A3011 4210 20 6500 VRB/04 RMK AO2 T02670022
94299KAAT AAT20160814093510908/14/16 09:35:31  5-MIN KAAT 141735Z AUTO VRB04KT 10SM CLR 27/03 A3011 4210 20 6600 VRB/04 RMK AO2 T02720028
94299KAAT AAT20160814094010908/14/16 09:40:31  5-MIN KAAT 141740Z AUTO VRB04KT 10SM CLR 27/02 A3011 4210 20 6500 VRB/04 RMK AO2 T02670022
94299KAAT AAT20160814094510908/14/16 09:45:31  5-MIN KAAT 141745Z AUTO VRB06KT 10SM CLR 27/02 A3011 4210 19 6600 VRB/06 RMK AO2 T02720022
94299KAAT AAT20160814095013408/14/16 09:50:31  5-MIN KAAT 141750Z AUTO 12005KT 10SM CLR 27/03 A3011 4210 20 6600 100/05 RMK AO2 SLP148 T02720028 10272 20083 51005
94299KAAT AAT20160814095513408/14/16 09:55:31  5-MIN KAAT 141755Z AUTO 13004KT 10SM CLR 27/02 A3011 4210 19 6600 120/04 RMK AO2 SLP146 T02720022 10272 20083 56006
94299KAAT AAT20160814100010908/14/16 10:00:31  5-MIN KAAT 141800Z AUTO 12005KT 10SM CLR 28/03 A3011 4210 19 6700 110/05 RMK AO2 T02830028
94299KAAT AAT20160814100510908/14/16 10:05:31  5-MIN KAAT 141805Z AUTO VRB05KT 10SM CLR 28/03 A3011 4210 19 6700 VRB/05 RMK AO2 T02830028
94299KAAT AAT20160814101010908/14/16 10:10:31  5-MIN KAAT 141810Z AUTO 11007KT 10SM CLR 28/02 A3011 4210 18 6700 100/07 RMK AO2 T02830022
94299KAAT AAT20160814101510908/14/16 10:15:31  5-MIN KAAT 141815Z AUTO VRB03KT 10SM CLR 28/02 A3011 4210 19 6600 VRB/03 RMK AO2 T02780022
94299KAAT AAT20160814102010908/14/16 10:20:31  5-MIN KAAT 141820Z AUTO 00000KT 10SM CLR 28/02 A3010 4210 18 6700 000/00 RMK AO2 T02830022
94299KAAT AAT20160814102510908/14/16 10:25:31  5-MIN KAAT 141825Z AUTO 00000KT 10SM CLR 28/02 A3010 4220 18 6700 000/00 RMK AO2 T02830022
94299KAAT AAT20160814103010908/14/16 10:30:31  5-MIN KAAT 141830Z AUTO 09003KT 10SM CLR 29/02 A3010 4220 17 6800 070/03 RMK AO2 T02890022
94299KAAT AAT20160814103510908/14/16 10:35:31  5-MIN KAAT 141835Z AUTO 00000KT 10SM CLR 29/02 A3010 4220 17 6800 000/00 RMK AO2 T02890022
94299KAAT AAT20160814104010908/14/16 10:40:31  5-MIN KAAT 141840Z AUTO 09004KT 10SM CLR 29/02 A3010 4220 17 6800 070/04 RMK AO2 T02890022
94299KAAT AAT20160814104510908/14/16 10:45:31  5-MIN KAAT 141845Z AUTO 07004KT 10SM CLR 29/03 A3010 4220 18 6800 060/04 RMK AO2 T02940028
94299KAAT AAT20160814105011608/14/16 10:50:31  5-MIN KAAT 141850Z AUTO VRB03KT 10SM CLR 31/03 A3010 4220 16 6900 VRB/03 RMK AO2 SLP142 T03060028
94299KAAT AAT20160814105511608/14/16 10:55:31  5-MIN KAAT 141855Z AUTO VRB04KT 10SM CLR 30/02 A3009 4220 16 6900 VRB/04 RMK AO2 SLP141 T03000022
94299KAAT AAT20160814110010908/14/16 11:00:31  5-MIN KAAT 141900Z AUTO 00000KT 10SM CLR 30/02 A3009 4220 16 6900 000/00 RMK AO2 T03000017
94299KAAT AAT20160814110510908/14/16 11:05:31  5-MIN KAAT 141905Z AUTO VRB03KT 10SM CLR 31/02 A3009 4220 16 7000 VRB/03 RMK AO2 T03060022
94299KAAT AAT20160814111010908/14/16 11:10:31  5-MIN KAAT 141910Z AUTO VRB04KT 10SM CLR 31/02 A3009 4220 15 7000 VRB/04 RMK AO2 T03110022
94299KAAT AAT20160814111510908/14/16 11:15:31  5-MIN KAAT 141915Z AUTO 08004KT 10SM CLR 31/02 A3009 4230 15 7000 060/04 RMK AO2 T03060017
94299KAAT AAT20160814112010908/14/16 11:20:31  5-MIN KAAT 141920Z AUTO 07004KT 10SM CLR 31/01 A3009 4230 15 7000 050/04 RMK AO2 T03060011
94299KAAT AAT20160814112510908/14/16 11:25:31  5-MIN KAAT 141925Z AUTO 02004KT 10SM CLR 31/01 A3008 4230 14 7000 360/04 RMK AO2 T03060006
94299KAAT AAT20160814113010908/14/16 11:30:31  5-MIN KAAT 141930Z AUTO VRB03KT 10SM CLR 32/01 A3008 4230 14 7100 VRB/03 RMK AO2 T03170011
94299KAAT AAT20160814113510908/14/16 11:35:31  5-MIN KAAT 141935Z AUTO 00000KT 10SM CLR 31/01 A3008 4230 14 7000 000/00 RMK AO2 T03060006
94299KAAT AAT20160814114009908/14/16 11:40:31  5-MIN KAAT 141940Z AUTO 10SM CLR 31/01 A3008 4240 14 7000 M /M RMK AO2 T03110011
94299KAAT AAT20160814114510908/14/16 11:45:31  5-MIN KAAT 141945Z AUTO 31006KT 10SM CLR 31/01 A3008 4240 14 7000 290/06 RMK AO2 T03110011
94299KAAT AAT20160814115011608/14/16 11:50:31  5-MIN KAAT 141950Z AUTO 32007KT 10SM CLR 32/01 A3007 4240 14 7100 300/07 RMK AO2 SLP136 T03170011
94299KAAT AAT20160814115511608/14/16 11:55:31  5-MIN KAAT 141955Z AUTO VRB05KT 10SM CLR 32/01 A3007 4240 14 7100 VRB/05 RMK AO2 SLP133 T03170011
94299KAAT AAT20160814120010908/14/16 12:00:31  5-MIN KAAT 142000Z AUTO 06007KT 10SM CLR 32/02 A3007 4240 14 7200 040/07 RMK AO2 T03220017
94299KAAT AAT20160814120510908/14/16 12:05:31  5-MIN KAAT 142005Z AUTO VRB03KT 10SM CLR 32/01 A3007 4250 14 7100 VRB/03 RMK AO2 T03170011
94299KAAT AAT20160814121010908/14/16 12:10:31  5-MIN KAAT 142010Z AUTO 08007KT 10SM CLR 32/01 A3006 4250 13 7200 070/07 RMK AO2 T03220011
94299KAAT AAT20160814121510908/14/16 12:15:31  5-MIN KAAT 142015Z AUTO VRB06KT 10SM CLR 32/01 A3006 4250 13 7200 VRB/06 RMK AO2 T03220011
94299KAAT AAT20160814122010908/14/16 12:20:31  5-MIN KAAT 142020Z AUTO 00000KT 10SM CLR 32/01 A3006 4250 14 7100 000/00 RMK AO2 T03170011
94299KAAT AAT20160814122509908/14/16 12:25:31  5-MIN KAAT 142025Z AUTO 10SM CLR 33/01 A3006 4260 13 7200 M /M RMK AO2 T03280011
94299KAAT AAT20160814123010908/14/16 12:30:31  5-MIN KAAT 142030Z AUTO 33010KT 10SM CLR 33/01 A3006 4260 12 7300 320/10 RMK AO2 T03330011
94299KAAT AAT20160814123510908/14/16 12:35:31  5-MIN KAAT 142035Z AUTO 27004KT 10SM CLR 31/01 A3005 4260 14 7100 260/04 RMK AO2 T03110006
94299KAAT AAT20160814124010908/14/16 12:40:31  5-MIN KAAT 142040Z AUTO 29004KT 10SM CLR 32/01 A3005 4260 13 7200 280/04 RMK AO2 T03220006
94299KAAT AAT20160814124510908/14/16 12:45:31  5-MIN KAAT 142045Z AUTO VRB03KT 10SM CLR 32/01 A3005 4260 13 7100 VRB/03 RMK AO2 T03170006
94299KAAT AAT20160814125012208/14/16 12:50:31  5-MIN KAAT 142050Z AUTO VRB03KT 10SM CLR 32/01 A3005 4260 13 7200 VRB/03 RMK AO2 SLP127 T03220006 56006
94299KAAT AAT20160814125512208/14/16 12:55:31  5-MIN KAAT 142055Z AUTO VRB05KT 10SM CLR 32/01 A3005 4260 13 7200 VRB/05 RMK AO2 SLP128 T03220006 58018
94299KAAT AAT20160814130010908/14/16 13:00:31  5-MIN KAAT 142100Z AUTO 31011KT 10SM CLR 33/01 A3005 4260 12 7300 290/11 RMK AO2 T03330006
94299KAAT AAT20160814130510908/14/16 13:05:31  5-MIN KAAT 142105Z AUTO VRB03KT 10SM CLR 33/00 A3005 4270 12 7200 VRB/03 RMK AO2 T03280000
94299KAAT AAT20160814131010908/14/16 13:10:31  5-MIN KAAT 142110Z AUTO VRB06KT 10SM CLR 33/01 A3004 4270 12 7300 VRB/06 RMK AO2 T03330006
94299KAAT AAT20160814131510908/14/16 13:15:31  5-MIN KAAT 142115Z AUTO VRB04KT 10SM CLR 33/01 A3004 4270 12 7200 VRB/04 RMK AO2 T03280006
94299KAAT AAT20160814132010908/14/16 13:20:31  5-MIN KAAT 142120Z AUTO VRB05KT 10SM CLR 33/00 A3004 4280 12 7300 VRB/05 RMK AO2 T03280000
94299KAAT AAT20160814132510908/14/16 13:25:31  5-MIN KAAT 142125Z AUTO 36005KT 10SM CLR 34/00 A3004 4270 11 7400 350/05 RMK AO2 T03390000
94299KAAT AAT20160814133010908/14/16 13:30:31  5-MIN KAAT 142130Z AUTO 35005KT 10SM CLR 34/00 A3003 4280 11 7400 340/05 RMK AO2 T03390000
94299KAAT AAT20160814133510908/14/16 13:35:31  5-MIN KAAT 142135Z AUTO 35007KT 10SM CLR 34/01 A3003 4280 11 7400 340/07 RMK AO2 T03440006
94299KAAT AAT20160814134010908/14/16 13:40:31  5-MIN KAAT 142140Z AUTO 30006KT 10SM CLR 34/00 A3003 4280 11 7400 280/06 RMK AO2 T03390000
94299KAAT AAT20160814134510908/14/16 13:45:31  5-MIN KAAT 142145Z AUTO VRB04KT 10SM CLR 33/00 A3003 4280 11 7300 VRB/04 RMK AO2 T03330000
94299KAAT AAT20160814135011608/14/16 13:50:31  5-MIN KAAT 142150Z AUTO 26006KT 10SM CLR 33/00 A3003 4280 11 7300 250/06 RMK AO2 SLP119 T03330000
94299KAAT AAT20160814135512208/14/16 13:55:31  5-MIN KAAT 142155Z AUTO 30009G15KT 10SM CLR 34/01 A3002 4290 12 7400 290/09G15 RMK AO2 SLP117 T03390006
94299KAAT AAT20160814140011508/14/16 14:00:31  5-MIN KAAT 142200Z AUTO VRB03G15KT 10SM CLR 33/00 A3002 4290 11 7300 VRB/03G15 RMK AO2 T03330000
94299KAAT AAT20160814140510908/14/16 14:05:31  5-MIN KAAT 142205Z AUTO VRB04KT 10SM CLR 34/00 A3002 4290 11 7400 VRB/04 RMK AO2 T03390000
94299KAAT AAT20160814141010908/14/16 14:10:31  5-MIN KAAT 142210Z AUTO VRB05KT 10SM CLR 33/01 A3002 4290 12 7300 VRB/05 RMK AO2 T03330006
94299KAAT AAT20160814141510908/14/16 14:15:31  5-MIN KAAT 142215Z AUTO 35007KT 10SM CLR 34/01 A3001 4290 12 7400 340/07 RMK AO2 T03390006
94299KAAT AAT20160814142012508/14/16 14:20:31  5-MIN KAAT 142220Z AUTO 30008KT 260V340 10SM CLR 34/01 A3001 4290 12 7400 280/08 250V330 RMK AO2 T03390006
94299KAAT AAT20160814142511508/14/16 14:25:31  5-MIN KAAT 142225Z AUTO 28010G15KT 10SM CLR 34/01 A3002 4290 11 7400 260/10G15 RMK AO2 T03440006
94299KAAT AAT20160814143013108/14/16 14:30:31  5-MIN KAAT 142230Z AUTO 32008G15KT 280V350 10SM CLR 34/01 A3001 4300 12 7400 300/08G15 270V340 RMK AO2 T03390006
94299KAAT AAT20160814143510908/14/16 14:35:31  5-MIN KAAT 142235Z AUTO 27009KT 10SM CLR 34/01 A3001 4300 12 7500 260/09 RMK AO2 T03440011
94299KAAT AAT20160814144010908/14/16 14:40:31  5-MIN KAAT 142240Z AUTO 27008KT 10SM CLR 34/01 A3001 4300 11 7500 260/08 RMK AO2 T03440006
94299KAAT AAT20160814144511508/14/16 14:45:31  5-MIN KAAT 142245Z AUTO 29009G15KT 10SM CLR 33/01 A3001 4300 12 7300 270/09G15 RMK AO2 T03330006
94299KAAT AAT20160814145012208/14/16 14:50:31  5-MIN KAAT 142250Z AUTO 27011G15KT 10SM CLR 34/01 A3001 4300 12 7400 250/11G15 RMK AO2 SLP115 T03390006
94299KAAT AAT20160814145511608/14/16 14:55:31  5-MIN KAAT 142255Z AUTO 26011KT 10SM CLR 33/01 A3001 4300 12 7300 250/11 RMK AO2 SLP117 T03280006
94299KAAT AAT20160814150010908/14/16 15:00:31  5-MIN KAAT 142300Z AUTO 26013KT 10SM CLR 33/01 A3001 4300 12 7300 250/13 RMK AO2 T03330006
94299KAAT AAT20160814150511508/14/16 15:05:31  5-MIN KAAT 142305Z AUTO 27011G16KT 10SM CLR 33/01 A3001 4300 12 7300 260/11G16 RMK AO2 T03330011
94299KAAT AAT20160814151011508/14/16 15:10:31  5-MIN KAAT 142310Z AUTO 28013G17KT 10SM CLR 34/01 A3001 4300 12 7400 270/13G17 RMK AO2 T03390006
94299KAAT AAT20160814151511508/14/16 15:15:31  5-MIN KAAT 142315Z AUTO 27018G22KT 10SM CLR 33/01 A3001 4300 12 7300 250/18G22 RMK AO2 T03330006
94299KAAT AAT20160814152011508/14/16 15:20:31  5-MIN KAAT 142320Z AUTO 27011G22KT 10SM CLR 33/01 A3001 4300 12 7300 250/11G22 RMK AO2 T03330006
94299KAAT AAT20160814152511508/14/16 15:25:31  5-MIN KAAT 142325Z AUTO 28013G20KT 10SM CLR 33/01 A3001 4300 12 7300 270/13G20 RMK AO2 T03330006
94299KAAT AAT20160814153011508/14/16 15:30:31  5-MIN KAAT 142330Z AUTO 28013G20KT 10SM CLR 33/01 A3001 4300 12 7300 270/13G20 RMK AO2 T03330006
94299KAAT AAT20160814153510908/14/16 15:35:31  5-MIN KAAT 142335Z AUTO 27011KT 10SM CLR 33/01 A3001 4300 12 7300 260/11 RMK AO2 T03280006
94299KAAT AAT20160814154011508/14/16 15:40:31  5-MIN KAAT 142340Z AUTO 26011G19KT 10SM CLR 33/01 A3001 4300 12 7300 240/11G19 RMK AO2 T03330006
94299KAAT AAT20160814154511508/14/16 15:45:31  5-MIN KAAT 142345Z AUTO 28014G21KT 10SM CLR 33/01 A3001 4300 12 7300 270/14G21 RMK AO2 T03280006
94299KAAT AAT20160814155014008/14/16 15:50:31  5-MIN KAAT 142350Z AUTO 27013G21KT 10SM CLR 33/01 A3001 4300 13 7300 260/13G21 RMK AO2 SLP117 T03280011 10344 20278 58018
94299KAAT AAT20160814155514008/14/16 15:55:31  5-MIN KAAT 142355Z AUTO 28011G20KT 10SM CLR 33/01 A3001 4300 13 7300 270/11G20 RMK AO2 SLP116 T03280011 10344 20278 56012
94299KAAT AAT20160814160011508/14/16 16:00:31  5-MIN KAAT 150000Z AUTO 27013G20KT 10SM CLR 33/01 A3001 4300 13 7300 250/13G20 RMK AO2 T03280011
94299KAAT AAT20160814160511508/14/16 16:05:31  5-MIN KAAT 150005Z AUTO 27014G20KT 10SM CLR 33/01 A3001 4300 13 7300 260/14G20 RMK AO2 T03280011
94299KAAT AAT20160814161010908/14/16 16:10:31  5-MIN KAAT 150010Z AUTO 26013KT 10SM CLR 32/01 A3001 4300 13 7200 240/13 RMK AO2 T03220011
94299KAAT AAT20160814161510908/14/16 16:15:31  5-MIN KAAT 150015Z AUTO 28015KT 10SM CLR 32/02 A3001 4300 14 7200 260/15 RMK AO2 T03220017
94299KAAT AAT20160814162011508/14/16 16:20:31  5-MIN KAAT 150020Z AUTO 28014G22KT 10SM CLR 32/02 A3001 4300 14 7200 260/14G22 RMK AO2 T03220017
94299KAAT AAT20160814162511508/14/16 16:25:31  5-MIN KAAT 150025Z AUTO 27016G22KT 10SM CLR 33/01 A3001 4300 13 7300 260/16G22 RMK AO2 T03280011
94299KAAT AAT20160814163010908/14/16 16:30:31  5-MIN KAAT 150030Z AUTO 27014KT 10SM CLR 32/01 A3001 4300 13 7200 260/14 RMK AO2 T03220011
94299KAAT AAT20160814163511508/14/16 16:35:31  5-MIN KAAT 150035Z AUTO 27017G22KT 10SM CLR 33/01 A3001 4300 13 7300 260/17G22 RMK AO2 T03280011
94299KAAT AAT20160814164011508/14/16 16:40:31  5-MIN KAAT 150040Z AUTO 26013G22KT 10SM CLR 32/01 A3001 4300 13 7200 250/13G22 RMK AO2 T03220011
94299KAAT AAT20160814164511508/14/16 16:45:31  5-MIN KAAT 150045Z AUTO 27015G22KT 10SM CLR 32/01 A3001 4300 13 7200 250/15G22 RMK AO2 T03220011
94299KAAT AAT20160814165012208/14/16 16:50:31  5-MIN KAAT 150050Z AUTO 28015G22KT 10SM CLR 32/02 A3001 4300 14 7200 260/15G22 RMK AO2 SLP119 T03170017
94299KAAT AAT20160814165511608/14/16 16:55:31  5-MIN KAAT 150055Z AUTO 27015KT 10SM CLR 32/02 A3001 4300 14 7200 250/15 RMK AO2 SLP118 T03170017
94299KAAT AAT20160814170011508/14/16 17:00:31  5-MIN KAAT 150100Z AUTO 26018G23KT 10SM CLR 32/02 A3002 4290 14 7200 250/18G23 RMK AO2 T03170017
94299KAAT AAT20160814170511508/14/16 17:05:31  5-MIN KAAT 150105Z AUTO 27019G25KT 10SM CLR 32/02 A3002 4290 14 7200 260/19G25 RMK AO2 T03170017
94299KAAT AAT20160814171013308/14/16 17:10:31  5-MIN KAAT 150110Z AUTO 26018G26KT 10SM CLR 31/02 A3002 4290 15 7100 240/18G26 RMK AO2 PK WND 27026/0107 T03110017
94299KAAT AAT20160814171513308/14/16 17:15:31  5-MIN KAAT 150115Z AUTO 26017G26KT 10SM CLR 31/02 A3002 4290 15 7100 250/17G26 RMK AO2 PK WND 27026/0107 T03110017
94299KAAT AAT20160814172013308/14/16 17:20:31  5-MIN KAAT 150120Z AUTO 26018G24KT 10SM CLR 31/02 A3002 4290 15 7100 240/18G24 RMK AO2 PK WND 27026/0107 T03110017
94299KAAT AAT20160814172513308/14/16 17:25:31  5-MIN KAAT 150125Z AUTO 27018G25KT 10SM CLR 31/02 A3002 4290 15 7100 250/18G25 RMK AO2 PK WND 27026/0107 T03110017
94299KAAT AAT20160814173013308/14/16 17:30:31  5-MIN KAAT 150130Z AUTO 26019G26KT 10SM CLR 31/02 A3002 4290 15 7000 250/19G26 RMK AO2 PK WND 27026/0107 T03060017
94299KAAT AAT20160814173513308/14/16 17:35:31  5-MIN KAAT 150135Z AUTO 27017G26KT 10SM CLR 30/02 A3002 4290 16 7000 260/17G26 RMK AO2 PK WND 27026/0107 T03000017
94299KAAT AAT20160814174013308/14/16 17:40:31  5-MIN KAAT 150140Z AUTO 27019G24KT 10SM CLR 30/02 A3002 4280 16 7000 260/19G24 RMK AO2 PK WND 27026/0107 T03000017
94299KAAT AAT20160814174512708/14/16 17:45:31  5-MIN KAAT 150145Z AUTO 27017KT 10SM CLR 30/01 A3003 4280 15 7000 260/17 RMK AO2 PK WND 27026/0107 T03000011
94299KAAT AAT20160814175014008/14/16 17:50:31  5-MIN KAAT 150150Z AUTO 27016G22KT 10SM CLR 29/01 A3003 4280 16 6900 260/16G22 RMK AO2 PK WND 27026/0107 SLP127 T02940011
94299KAAT AAT20160814175514008/14/16 17:55:31  5-MIN KAAT 150155Z AUTO 27017G23KT 10SM CLR 29/01 A3003 4280 15 6900 250/17G23 RMK AO2 PK WND 27026/0107 SLP127 T02940006
94299KAAT AAT20160814180011508/14/16 18:00:31  5-MIN KAAT 150200Z AUTO 27013G23KT 10SM CLR 29/01 A3003 4280 15 6900 260/13G23 RMK AO2 T02940006
94299KAAT AAT20160814180511508/14/16 18:05:31  5-MIN KAAT 150205Z AUTO 28015G21KT 10SM CLR 29/01 A3003 4280 15 6800 260/15G21 RMK AO2 T02890006
94299KAAT AAT20160814181011508/14/16 18:10:31  5-MIN KAAT 150210Z AUTO 28011G21KT 10SM CLR 29/01 A3003 4280 15 6800 270/11G21 RMK AO2 T02890006
94299KAAT AAT20160814181511508/14/16 18:15:31  5-MIN KAAT 150215Z AUTO 27013G17KT 10SM CLR 28/01 A3003 4280 16 6800 250/13G17 RMK AO2 T02830006
94299KAAT AAT20160814182011608/14/16 18:20:31  5-MIN KAAT 150220Z AUTO 28013G19KT 10SM CLR 28/M01 A3004 4270 15 6800 260/13G19 RMK AO2 T02831006
94299KAAT AAT20160814182511608/14/16 18:25:31  5-MIN KAAT 150225Z AUTO 27014G20KT 10SM CLR 28/M01 A3004 4270 15 6800 260/14G20 RMK AO2 T02831006
94299KAAT AAT20160814183011608/14/16 18:30:31  5-MIN KAAT 150230Z AUTO 27011G20KT 10SM CLR 28/M01 A3004 4270 15 6800 250/11G20 RMK AO2 T02831006
94299KAAT AAT20160814183511608/14/16 18:35:31  5-MIN KAAT 150235Z AUTO 28011G20KT 10SM CLR 28/M01 A3004 4270 15 6700 260/11G20 RMK AO2 T02781006
94299KAAT AAT20160814184011608/14/16 18:40:31  5-MIN KAAT 150240Z AUTO 27010G20KT 10SM CLR 28/M01 A3005 4270 15 6700 260/10G20 RMK AO2 T02781006
94299KAAT AAT20160814184511008/14/16 18:45:31  5-MIN KAAT 150245Z AUTO 28009KT 10SM CLR 27/M01 A3005 4260 15 6600 260/09 RMK AO2 T02721011
94299KAAT AAT20160814185012308/14/16 18:50:31  5-MIN KAAT 150250Z AUTO 28007KT 10SM CLR 27/M01 A3005 4260 16 6600 260/07 RMK AO2 SLP130 T02671011 56012
94299KAAT AAT20160814185512308/14/16 18:55:31  5-MIN KAAT 150255Z AUTO 28007KT 10SM CLR 27/M02 A3005 4260 15 6600 270/07 RMK AO2 SLP131 T02671017 53013
94299KAAT AAT20160814190011008/14/16 19:00:31  5-MIN KAAT 150300Z AUTO 28007KT 10SM CLR 26/M01 A3005 4260 16 6500 270/07 RMK AO2 T02611011
94299KAAT AAT20160814190511008/14/16 19:05:31  5-MIN KAAT 150305Z AUTO 30005KT 10SM CLR 26/M01 A3006 4260 17 6500 290/05 RMK AO2 T02561011
94299KAAT AAT20160814191010908/14/16 19:10:31  5-MIN KAAT 150310Z AUTO 29005KT 10SM CLR 25/00 A3006 4250 19 6400 280/05 RMK AO2 T02500000
94299KAAT AAT20160814191510908/14/16 19:15:31  5-MIN KAAT 150315Z AUTO 29005KT 10SM CLR 25/00 A3006 4250 19 6400 270/05 RMK AO2 T02500000
94299KAAT AAT20160814192011008/14/16 19:20:31  5-MIN KAAT 150320Z AUTO 26005KT 10SM CLR 24/M01 A3006 4250 19 6300 240/05 RMK AO2 T02441006
94299KAAT AAT20160814192511008/14/16 19:25:31  5-MIN KAAT 150325Z AUTO 27006KT 10SM CLR 24/M01 A3006 4250 18 6300 260/06 RMK AO2 T02441011
94299KAAT AAT20160814193011008/14/16 19:30:31  5-MIN KAAT 150330Z AUTO 27004KT 10SM CLR 24/M01 A3006 4250 19 6300 250/04 RMK AO2 T02391011
94299KAAT AAT20160814193511008/14/16 19:35:31  5-MIN KAAT 150335Z AUTO 25005KT 10SM CLR 23/M01 A3006 4250 19 6200 240/05 RMK AO2 T02331011
94299KAAT AAT20160814194011008/14/16 19:40:31  5-MIN KAAT 150340Z AUTO 26005KT 10SM CLR 23/M01 A3006 4250 20 6100 250/05 RMK AO2 T02281011
94299KAAT AAT20160814194511008/14/16 19:45:31  5-MIN KAAT 150345Z AUTO 24005KT 10SM CLR 23/M01 A3007 4250 20 6100 220/05 RMK AO2 T02281011
94299KAAT AAT20160814195011708/14/16 19:50:31  5-MIN KAAT 150350Z AUTO 23005KT 10SM CLR 22/M01 A3007 4240 21 6100 220/05 RMK AO2 SLP137 T02221011
94299KAAT AAT20160814195511708/14/16 19:55:31  5-MIN KAAT 150355Z AUTO 23005KT 10SM CLR 22/M01 A3007 4240 21 6100 210/05 RMK AO2 SLP136 T02221011
94299KAAT AAT20160814200011008/14/16 20:00:31  5-MIN KAAT 150400Z AUTO 23004KT 10SM CLR 22/M01 A3007 4240 21 6100 210/04 RMK AO2 T02221011
94299KAAT AAT20160814200511008/14/16 20:05:31  5-MIN KAAT 150405Z AUTO 00000KT 10SM CLR 23/M02 A3008 4240 19 6100 000/00 RMK AO2 T02281017
94299KAAT AAT20160814201011008/14/16 20:10:31  5-MIN KAAT 150410Z AUTO 00000KT 10SM CLR 22/M02 A3008 4230 20 6100 000/00 RMK AO2 T02221017
94299KAAT AAT20160814201511008/14/16 20:15:31  5-MIN KAAT 150415Z AUTO 19004KT 10SM CLR 22/M02 A3008 4230 20 6100 180/04 RMK AO2 T02221017
94299KAAT AAT20160814202011008/14/16 20:20:31  5-MIN KAAT 150420Z AUTO 18005KT 10SM CLR 22/M02 A3008 4230 20 6000 170/05 RMK AO2 T02171017
94299KAAT AAT20160814202511008/14/16 20:25:31  5-MIN KAAT 150425Z AUTO 18005KT 10SM CLR 21/M01 A3009 4230 23 5900 170/05 RMK AO2 T02111006
94299KAAT AAT20160814203010908/14/16 20:30:31  5-MIN KAAT 150430Z AUTO 18006KT 10SM CLR 21/00 A3009 4230 24 5900 160/06 RMK AO2 T02110000
94299KAAT AAT20160814203511008/14/16 20:35:31  5-MIN KAAT 150435Z AUTO 18005KT 10SM CLR 21/M01 A3009 4230 22 5900 160/05 RMK AO2 T02111011
94299KAAT AAT20160814204011008/14/16 20:40:31  5-MIN KAAT 150440Z AUTO 19006KT 10SM CLR 21/M02 A3009 4220 22 5900 180/06 RMK AO2 T02061017
94299KAAT AAT20160814204511008/14/16 20:45:31  5-MIN KAAT 150445Z AUTO 20006KT 10SM CLR 20/M01 A3009 4220 24 5800 190/06 RMK AO2 T02001011
94299KAAT AAT20160814205011708/14/16 20:50:31  5-MIN KAAT 150450Z AUTO 21006KT 10SM CLR 19/M02 A3009 4220 24 5700 190/06 RMK AO2 SLP144 T01941017
94299KAAT AAT20160814205511708/14/16 20:55:31  5-MIN KAAT 150455Z AUTO 22006KT 10SM CLR 19/M02 A3010 4220 24 5700 210/06 RMK AO2 SLP144 T01941017
94299KAAT AAT20160814210011008/14/16 21:00:31  5-MIN KAAT 150500Z AUTO 21005KT 10SM CLR 20/M02 A3010 4220 23 5800 200/05 RMK AO2 T02001017
94299KAAT AAT20160814210511008/14/16 21:05:31  5-MIN KAAT 150505Z AUTO 22005KT 10SM CLR 19/M02 A3010 4220 24 5700 200/05 RMK AO2 T01891017
94299KAAT AAT20160814211011008/14/16 21:10:31  5-MIN KAAT 150510Z AUTO 23004KT 10SM CLR 19/M02 A3010 4220 24 5700 220/04 RMK AO2 T01941017
94299KAAT AAT20160814211511008/14/16 21:15:31  5-MIN KAAT 150515Z AUTO 22004KT 10SM CLR 19/M02 A3010 4220 24 5700 210/04 RMK AO2 T01941017
94299KAAT AAT20160814212011008/14/16 21:20:31  5-MIN KAAT 150520Z AUTO 00000KT 10SM CLR 19/M02 A3010 4220 24 5700 000/00 RMK AO2 T01941017
94299KAAT AAT20160814212511008/14/16 21:25:31  5-MIN KAAT 150525Z AUTO 00000KT 10SM CLR 19/M02 A3010 4220 24 5700 000/00 RMK AO2 T01891017
94299KAAT AAT20160814213011008/14/16 21:30:31  5-MIN KAAT 150530Z AUTO 13003KT 10SM CLR 18/M01 A3010 4220 26 5600 110/03 RMK AO2 T01831011
94299KAAT AAT20160814213511008/14/16 21:35:31  5-MIN KAAT 150535Z AUTO 15004KT 10SM CLR 18/M01 A3010 4210 26 5600 130/04 RMK AO2 T01831011
94299KAAT AAT20160814214011008/14/16 21:40:31  5-MIN KAAT 150540Z AUTO 12005KT 10SM CLR 18/M01 A3010 4210 27 5600 100/05 RMK AO2 T01831006
94299KAAT AAT20160814214511008/14/16 21:45:31  5-MIN KAAT 150545Z AUTO 04003KT 10SM CLR 18/M01 A3011 4210 28 5500 020/03 RMK AO2 T01781006
94299KAAT AAT20160814215013408/14/16 21:50:31  5-MIN KAAT 150550Z AUTO 07005KT 10SM CLR 18/01 A3011 4210 31 5500 060/05 RMK AO2 SLP147 T01780006 10328 20178 53013
94299KAAT AAT20160814215513408/14/16 21:55:31  5-MIN KAAT 150555Z AUTO 08004KT 10SM CLR 18/02 A3011 4210 32 5600 060/04 RMK AO2 SLP148 T01830017 10328 20178 51017
94299KAAT AAT20160814220010908/14/16 22:00:31  5-MIN KAAT 150600Z AUTO 08004KT 10SM CLR 18/02 A3011 4210 32 5600 060/04 RMK AO2 T01830017
94299KAAT AAT20160814220510908/14/16 22:05:31  5-MIN KAAT 150605Z AUTO 00000KT 10SM CLR 17/02 A3011 4210 35 5500 000/00 RMK AO2 T01720017
94299KAAT AAT20160814221010908/14/16 22:10:31  5-MIN KAAT 150610Z AUTO 12003KT 10SM CLR 16/00 A3011 4210 34 5300 100/03 RMK AO2 T01560000
94299KAAT AAT20160814221510908/14/16 22:15:31  5-MIN KAAT 150615Z AUTO 00000KT 10SM CLR 15/02 A3011 4210 40 5200 000/00 RMK AO2 T01500017
94299KAAT AAT20160814222010908/14/16 22:20:31  5-MIN KAAT 150620Z AUTO 00000KT 10SM CLR 15/02 A3011 4210 42 5200 000/00 RMK AO2 T01500022
94299KAAT AAT20160814222510908/14/16 22:25:31  5-MIN KAAT 150625Z AUTO 13004KT 10SM CLR 14/02 A3011 4210 45 5100 120/04 RMK AO2 T01390022
94299KAAT AAT20160814223010908/14/16 22:30:31  5-MIN KAAT 150630Z AUTO 08004KT 10SM CLR 14/03 A3011 4200 45 5100 070/04 RMK AO2 T01440028
94299KAAT AAT20160814223510908/14/16 22:35:31  5-MIN KAAT 150635Z AUTO 08005KT 10SM CLR 16/02 A3011 4200 39 5300 060/05 RMK AO2 T01560017
94299KAAT AAT20160814224010908/14/16 22:40:31  5-MIN KAAT 150640Z AUTO 07003KT 10SM CLR 17/01 A3011 4200 33 5500 060/03 RMK AO2 T01720011
94299KAAT AAT20160814224510908/14/16 22:45:31  5-MIN KAAT 150645Z AUTO 06003KT 10SM CLR 17/02 A3011 4200 36 5400 040/03 RMK AO2 T01670017
94299KAAT AAT20160814225011608/14/16 22:50:31  5-MIN KAAT 150650Z AUTO 08003KT 10SM CLR 16/02 A3012 4200 39 5300 070/03 RMK AO2 SLP148 T01560017
94299KAAT AAT20160814225511608/14/16 22:55:31  5-MIN KAAT 150655Z AUTO 09003KT 10SM CLR 16/01 A3012 4200 36 5300 080/03 RMK AO2 SLP149 T01610011
94299KAAT AAT20160814230010908/14/16 23:00:31  5-MIN KAAT 150700Z AUTO 00000KT 10SM CLR 16/01 A3012 4200 36 5300 000/00 RMK AO2 T01560006
94299KAAT AAT20160814230510908/14/16 23:05:31  5-MIN KAAT 150705Z AUTO 00000KT 10SM CLR 14/02 A3012 4200 41 5100 000/00 RMK AO2 T01440017
94299KAAT AAT20160814231010908/14/16 23:10:31  5-MIN KAAT 150710Z AUTO 00000KT 10SM CLR 14/02 A3012 4200 45 5100 000/00 RMK AO2 T01390022
94299KAAT AAT20160814231510908/14/16 23:15:31  5-MIN KAAT 150715Z AUTO 00000KT 10SM CLR 13/02 A3011 4200 46 5000 000/00 RMK AO2 T01330022
94299KAAT AAT20160814232010908/14/16 23:20:31  5-MIN KAAT 150720Z AUTO 20004KT 10SM CLR 12/01 A3011 4200 46 4900 180/04 RMK AO2 T01220011
94299KAAT AAT20160814232510908/14/16 23:25:31  5-MIN KAAT 150725Z AUTO 18004KT 10SM CLR 13/02 A3012 4200 46 5000 160/04 RMK AO2 T01280017
94299KAAT AAT20160814233010908/14/16 23:30:31  5-MIN KAAT 150730Z AUTO 13003KT 10SM CLR 13/02 A3012 4200 45 5000 110/03 RMK AO2 T01330017
94299KAAT AAT20160814233510908/14/16 23:35:31  5-MIN KAAT 150735Z AUTO 00000KT 10SM CLR 13/02 A3012 4200 45 5000 000/00 RMK AO2 T01330017
94299KAAT AAT20160814234010908/14/16 23:40:31  5-MIN KAAT 150740Z AUTO 00000KT 10SM CLR 13/02 A3011 4200 46 5000 000/00 RMK AO2 T01280017
94299KAAT AAT20160814234510908/14/16 23:45:31  5-MIN KAAT 150745Z AUTO 16005KT 10SM CLR 13/02 A3011 4200 46 5000 150/05 RMK AO2 T01280017
94299KAAT AAT20160814235012608/14/16 23:50:31  5-MIN KAAT 150750Z AUTO VRB03KT 10SM CLR 13/01 A3012 4200 43 5000 VRB/03 RMK AO2 SLP151 T01330011 403440083
94299KAAT AAT20160814235512608/14/16 23:55:31  5-MIN KAAT 150755Z AUTO 00000KT 10SM CLR 13/01 A3012 4200 43 5000 000/00 RMK AO2 SLP151 T01330011 403440083
94299KAAT AAT20160815000010908/15/16 00:00:31  5-MIN KAAT 150800Z AUTO 00000KT 10SM CLR 13/01 A3012 4200 44 5000 000/00 RMK AO2 T01280011
94299KAAT AAT20160815000510908/15/16 00:05:31  5-MIN KAAT 150805Z AUTO 06004KT 10SM CLR 12/02 A3012 4200 48 4900 050/04 RMK AO2 T01220017
94299KAAT AAT20160815001010908/15/16 00:10:31  5-MIN KAAT 150810Z AUTO 05004KT 10SM CLR 13/02 A3012 4200 48 4900 030/04 RMK AO2 T01280022
94299KAAT AAT20160815001510908/15/16 00:15:31  5-MIN KAAT 150815Z AUTO 00000KT 10SM CLR 14/02 A3011 4200 45 5100 000/00 RMK AO2 T01390022
94299KAAT AAT20160815002010908/15/16 00:20:31  5-MIN KAAT 150820Z AUTO 00000KT 10SM CLR 13/01 A3012 4200 44 4900 000/00 RMK AO2 T01280011
94299KAAT AAT20160815002510908/15/16 00:25:31  5-MIN KAAT 150825Z AUTO 08004KT 10SM CLR 11/01 A3011 4200 48 4800 060/04 RMK AO2 T01110006
94299KAAT AAT20160815003010908/15/16 00:30:31  5-MIN KAAT 150830Z AUTO 32003KT 10SM CLR 11/01 A3012 4200 50 4800 300/03 RMK AO2 T01110011
94299KAAT AAT20160815003510908/15/16 00:35:31  5-MIN KAAT 150835Z AUTO VRB03KT 10SM CLR 12/01 A3012 4200 48 4800 VRB/03 RMK AO2 T01170011
94299KAAT AAT20160815004010908/15/16 00:40:31  5-MIN KAAT 150840Z AUTO 00000KT 10SM CLR 12/02 A3012 4200 50 4800 000/00 RMK AO2 T01170017
94299KAAT AAT20160815004510908/15/16 00:45:31  5-MIN KAAT 150845Z AUTO 00000KT 10SM CLR 11/01 A3011 4200 50 4800 000/00 RMK AO2 T01110011
94299KAAT AAT20160815005012208/15/16 00:50:31  5-MIN KAAT 150850Z AUTO 00000KT 10SM CLR 11/01 A3012 4200 52 4700 000/00 RMK AO2 SLP153 T01060011 51017
94299KAAT AAT20160815005512208/15/16 00:55:31  5-MIN KAAT 150855Z AUTO 00000KT 10SM CLR 11/01 A3012 4200 50 4800 000/00 RMK AO2 SLP153 T01110011 50002
94299KAAT AAT20160815010010908/15/16 01:00:31  5-MIN KAAT 150900Z AUTO 00000KT 10SM CLR 11/01 A3012 4200 48 4800 000/00 RMK AO2 T01110006
94299KAAT AAT20160815010510908/15/16 01:05:31  5-MIN KAAT 150905Z AUTO 00000KT 10SM CLR 11/01 A3012 4200 48 4800 000/00 RMK AO2 T01110006
94299KAAT AAT20160815011010908/15/16 01:10:31  5-MIN KAAT 150910Z AUTO VRB04KT 10SM CLR 12/02 A3012 4200 48 4900 VRB/04 RMK AO2 T01220017
94299KAAT AAT20160815011510908/15/16 01:15:31  5-MIN KAAT 150915Z AUTO 21003KT 10SM CLR 11/00 A3012 4200 46 4800 190/03 RMK AO2 T01110000
94299KAAT AAT20160815012011008/15/16 01:20:31  5-MIN KAAT 150920Z AUTO 00000KT 10SM CLR 10/M01 A3012 4200 47 4600 000/00 RMK AO2 T01001006
94299KAAT AAT20160815012511008/15/16 01:25:31  5-MIN KAAT 150925Z AUTO 00000KT 10SM CLR 10/M01 A3012 4190 47 4600 000/00 RMK AO2 T01001006
94299KAAT AAT20160815013010908/15/16 01:30:31  5-MIN KAAT 150930Z AUTO 00000KT 10SM CLR 11/01 A3013 4190 50 4700 000/00 RMK AO2 T01060006
94299KAAT AAT20160815013510908/15/16 01:35:31  5-MIN KAAT 150935Z AUTO 00000KT 10SM CLR 11/02 A3012 4200 52 4800 000/00 RMK AO2 T01110017
94299KAAT AAT20160815014009908/15/16 01:40:31  5-MIN KAAT 150940Z AUTO 10SM CLR 12/02 A3012 4190 52 4800 M /M RMK AO2 T01170022
94299KAAT AAT20160815014510908/15/16 01:45:31  5-MIN KAAT 150945Z AUTO 00000KT 10SM CLR 11/02 A3012 4200 54 4800 000/00 RMK AO2 T01110022
94299KAAT AAT20160815015011608/15/16 01:50:31  5-MIN KAAT 150950Z AUTO 00000KT 10SM CLR 11/02 A3012 4190 54 4700 000/00 RMK AO2 SLP154 T01110022
94299KAAT AAT20160815015511608/15/16 01:55:31  5-MIN KAAT 150955Z AUTO 04003KT 10SM CLR 12/02 A3012 4190 52 4800 030/03 RMK AO2 SLP153 T01170022
94299KAAT AAT20160815020010908/15/16 02:00:31  5-MIN KAAT 151000Z AUTO 11004KT 10SM CLR 12/02 A3012 4190 50 4800 090/04 RMK AO2 T01170017
94299KAAT AAT20160815020510908/15/16 02:05:31  5-MIN KAAT 151005Z AUTO 00000KT 10SM CLR 12/02 A3012 4200 50 4800 000/00 RMK AO2 T01170017
94299KAAT AAT20160815021010908/15/16 02:10:31  5-MIN KAAT 151010Z AUTO 15003KT 10SM CLR 11/01 A3012 4200 50 4800 130/03 RMK AO2 T01110011
94299KAAT AAT20160815021510908/15/16 02:15:31  5-MIN KAAT 151015Z AUTO 03003KT 10SM CLR 11/01 A3012 4200 50 4800 010/03 RMK AO2 T01110011
94299KAAT AAT20160815022010908/15/16 02:20:31  5-MIN KAAT 151020Z AUTO 08004KT 10SM CLR 12/02 A3012 4190 50 4800 060/04 RMK AO2 T01170017
94299KAAT AAT20160815022510908/15/16 02:25:31  5-MIN KAAT 151025Z AUTO 00000KT 10SM CLR 11/01 A3012 4200 50 4800 000/00 RMK AO2 T01110011
94299KAAT AAT20160815023010908/15/16 02:30:31  5-MIN KAAT 151030Z AUTO 00000KT 10SM CLR 11/01 A3012 4190 50 4700 000/00 RMK AO2 T01110011
94299KAAT AAT20160815023510908/15/16 02:35:31  5-MIN KAAT 151035Z AUTO 00000KT 10SM CLR 11/01 A3012 4190 50 4700 000/00 RMK AO2 T01110011
94299KAAT AAT20160815024010908/15/16 02:40:31  5-MIN KAAT 151040Z AUTO 05003KT 10SM CLR 11/02 A3012 4190 54 4700 030/03 RMK AO2 T01060017
94299KAAT AAT20160815024510908/15/16 02:45:31  5-MIN KAAT 151045Z AUTO 05003KT 10SM CLR 11/02 A3012 4190 54 4700 040/03 RMK AO2 T01060017
94299KAAT AAT20160815025011608/15/16 02:50:31  5-MIN KAAT 151050Z AUTO 00000KT 10SM CLR 11/01 A3012 4190 52 4700 000/00 RMK AO2 SLP154 T01060011
94299KAAT AAT20160815025511608/15/16 02:55:31  5-MIN KAAT 151055Z AUTO 00000KT 10SM CLR 09/00 A3012 4190 51 4600 000/00 RMK AO2 SLP157 T00940000
94299KAAT AAT20160815030010908/15/16 03:00:31  5-MIN KAAT 151100Z AUTO 00000KT 10SM CLR 09/01 A3012 4200 56 4500 000/00 RMK AO2 T00890006
94299KAAT AAT20160815030510908/15/16 03:05:31  5-MIN KAAT 151105Z AUTO 00000KT 10SM CLR 09/01 A3012 4200 58 4500 000/00 RMK AO2 T00890011
94299KAAT AAT20160815031010908/15/16 03:10:31  5-MIN KAAT 151110Z AUTO 00000KT 10SM CLR 09/01 A3012 4200 58 4500 000/00 RMK AO2 T00890011
94299KAAT AAT20160815031510908/15/16 03:15:31  5-MIN KAAT 151115Z AUTO 00000KT 10SM CLR 10/02 A3012 4200 58 4600 000/00 RMK AO2 T01000022
94299KAAT AAT20160815032010908/15/16 03:20:31  5-MIN KAAT 151120Z AUTO 00000KT 10SM CLR 09/02 A3012 4200 60 4600 000/00 RMK AO2 T00940022
94299KAAT AAT20160815032510908/15/16 03:25:31  5-MIN KAAT 151125Z AUTO 00000KT 10SM CLR 10/02 A3012 4200 58 4600 000/00 RMK AO2 T01000022
94299KAAT AAT20160815033010908/15/16 03:30:31  5-MIN KAAT 151130Z AUTO 00000KT 10SM CLR 09/02 A3012 4200 58 4600 000/00 RMK AO2 T00940017
94299KAAT AAT20160815033510908/15/16 03:35:31  5-MIN KAAT 151135Z AUTO 00000KT 10SM CLR 09/01 A3012 4200 58 4500 000/00 RMK AO2 T00890011
94299KAAT AAT20160815034010908/15/16 03:40:31  5-MIN KAAT 151140Z AUTO 00000KT 10SM CLR 09/01 A3012 4200 56 4600 000/00 RMK AO2 T00940011
94299KAAT AAT20160815034510908/15/16 03:45:31  5-MIN KAAT 151145Z AUTO 00000KT 10SM CLR 10/02 A3012 4190 58 4600 000/00 RMK AO2 T01000022
94299KAAT AAT20160815035013408/15/16 03:50:31  5-MIN KAAT 151150Z AUTO 00000KT 10SM CLR 09/02 A3012 4190 60 4600 000/00 RMK AO2 SLP156 T00940022 10183 20089 50002
94299KAAT AAT20160815035513408/15/16 03:55:31  5-MIN KAAT 151155Z AUTO 00000KT 10SM CLR 10/03 A3012 4190 60 4600 000/00 RMK AO2 SLP156 T01000028 10183 20089 51002
94299KAAT AAT20160815040010908/15/16 04:00:31  5-MIN KAAT 151200Z AUTO 00000KT 10SM CLR 09/02 A3012 4190 58 4600 000/00 RMK AO2 T00940017
94299KAAT AAT20160815040510908/15/16 04:05:31  5-MIN KAAT 151205Z AUTO 15003KT 10SM CLR 09/01 A3013 4190 56 4600 130/03 RMK AO2 T00940011
94299KAAT AAT20160815041010908/15/16 04:10:31  5-MIN KAAT 151210Z AUTO 00000KT 10SM CLR 09/01 A3013 4190 56 4600 000/00 RMK AO2 T00940011
94299KAAT AAT20160815041510908/15/16 04:15:31  5-MIN KAAT 151215Z AUTO 00000KT 10SM CLR 09/02 A3013 4190 58 4600 000/00 RMK AO2 T00940017
94299KAAT AAT20160815042010908/15/16 04:20:31  5-MIN KAAT 151220Z AUTO 00000KT 10SM CLR 09/02 A3013 4190 58 4600 000/00 RMK AO2 T00940017
94299KAAT AAT20160815042510908/15/16 04:25:31  5-MIN KAAT 151225Z AUTO 00000KT 10SM CLR 10/02 A3013 4190 58 4600 000/00 RMK AO2 T01000022
94299KAAT AAT20160815043010908/15/16 04:30:31  5-MIN KAAT 151230Z AUTO 08003KT 10SM CLR 10/02 A3013 4190 58 4600 060/03 RMK AO2 T01000022
94299KAAT AAT20160815043510908/15/16 04:35:31  5-MIN KAAT 151235Z AUTO 08003KT 10SM CLR 11/02 A3013 4190 56 4700 060/03 RMK AO2 T01060022
94299KAAT AAT20160815044010908/15/16 04:40:31  5-MIN KAAT 151240Z AUTO 00000KT 10SM CLR 09/02 A3013 4190 60 4500 000/00 RMK AO2 T00940022
94299KAAT AAT20160815044510908/15/16 04:45:31  5-MIN KAAT 151245Z AUTO 00000KT 10SM CLR 09/01 A3013 4190 56 4500 000/00 RMK AO2 T00940011
94299KAAT AAT20160815045011608/15/16 04:50:31  5-MIN KAAT 151250Z AUTO 00000KT 10SM CLR 08/00 A3013 4190 55 4400 000/00 RMK AO2 SLP162 T00830000
94299KAAT AAT20160815045511608/15/16 04:55:31  5-MIN KAAT 151255Z AUTO 00000KT 10SM CLR 08/00 A3013 4190 58 4400 000/00 RMK AO2 SLP162 T00780000
94299KAAT AAT20160815050010908/15/16 05:00:31  5-MIN KAAT 151300Z AUTO 00000KT 10SM CLR 07/01 A3013 4180 65 4300 000/00 RMK AO2 T00720011
94299KAAT AAT20160815050510908/15/16 05:05:31  5-MIN KAAT 151305Z AUTO 00000KT 10SM CLR 09/02 A3013 4180 63 4500 000/00 RMK AO2 T00890022
94299KAAT AAT20160815051010908/15/16 05:10:31  5-MIN KAAT 151310Z AUTO 00000KT 10SM CLR 08/02 A3013 4190 63 4400 000/00 RMK AO2 T00830017
94299KAAT AAT20160815051510908/15/16 05:15:31  5-MIN KAAT 151315Z AUTO 00000KT 10SM CLR 08/02 A3013 4190 65 4300 000/00 RMK AO2 T00780017
94299KAAT AAT20160815052010908/15/16 05:20:31  5-MIN KAAT 151320Z AUTO 00000KT 10SM CLR 08/02 A3013 4180 65 4400 000/00 RMK AO2 T00830022
94299KAAT AAT20160815052510908/15/16 05:25:31  5-MIN KAAT 151325Z AUTO 00000KT 10SM CLR 08/02 A3013 4180 65 4300 000/00 RMK AO2 T00780017
94299KAAT AAT20160815053010908/15/16 05:30:31  5-MIN KAAT 151330Z AUTO 23003KT 10SM CLR 08/02 A3014 4180 65 4300 210/03 RMK AO2 T00780017
94299KAAT AAT20160815053510908/15/16 05:35:31  5-MIN KAAT 151335Z AUTO 22003KT 10SM CLR 08/01 A3014 4180 62 4300 200/03 RMK AO2 T00780011
94299KAAT AAT20160815054010908/15/16 05:40:31  5-MIN KAAT 151340Z AUTO 00000KT 10SM CLR 08/01 A3014 4180 62 4300 000/00 RMK AO2 T00780011
94299KAAT AAT20160815054510908/15/16 05:45:31  5-MIN KAAT 151345Z AUTO 00000KT 10SM CLR 08/01 A3014 4180 62 4300 000/00 RMK AO2 T00780011
94299KAAT AAT20160815055011608/15/16 05:50:31  5-MIN KAAT 151350Z AUTO 00000KT 10SM CLR 09/02 A3014 4170 60 4500 000/00 RMK AO2 SLP168 T00890017
94299KAAT AAT20160815055511608/15/16 05:55:31  5-MIN KAAT 151355Z AUTO 00000KT 10SM CLR 09/02 A3015 4170 58 4500 000/00 RMK AO2 SLP169 T00940017
94299KAAT AAT20160815060010908/15/16 06:00:31  5-MIN KAAT 151400Z AUTO 00000KT 10SM CLR 10/02 A3015 4170 56 4600 000/00 RMK AO2 T01000017
94299KAAT AAT20160815060510908/15/16 06:05:31  5-MIN KAAT 151405Z AUTO 00000KT 10SM CLR 10/02 A3015 4170 56 4600 000/00 RMK AO2 T01000017
94299KAAT AAT20160815061010908/15/16 06:10:31  5-MIN KAAT 151410Z AUTO 00000KT 10SM CLR 11/02 A3015 4170 54 4700 000/00 RMK AO2 T01060017
94299KAAT AAT20160815061510908/15/16 06:15:31  5-MIN KAAT 151415Z AUTO 00000KT 10SM CLR 11/02 A3015 4170 52 4700 000/00 RMK AO2 T01110017
94299KAAT AAT20160815062010908/15/16 06:20:31  5-MIN KAAT 151420Z AUTO 00000KT 10SM CLR 12/02 A3015 4170 50 4800 000/00 RMK AO2 T01170017
94299KAAT AAT20160815062510908/15/16 06:25:31  5-MIN KAAT 151425Z AUTO 00000KT 10SM CLR 12/02 A3015 4170 50 4800 000/00 RMK AO2 T01220022
94299KAAT AAT20160815063010908/15/16 06:30:31  5-MIN KAAT 151430Z AUTO 00000KT 10SM CLR 12/03 A3015 4170 52 4800 000/00 RMK AO2 T01220028
94299KAAT AAT20160815063510908/15/16 06:35:31  5-MIN KAAT 151435Z AUTO 00000KT 10SM CLR 13/03 A3015 4170 50 4900 000/00 RMK AO2 T01280028
94299KAAT AAT20160815064010908/15/16 06:40:31  5-MIN KAAT 151440Z AUTO 00000KT 10SM CLR 13/03 A3015 4170 48 5000 000/00 RMK AO2 T01330028
94299KAAT AAT20160815163011008/15/16 16:30:31  5-MIN KAAT 160030Z AUTO 14006KT 10SM CLR 33/M01 A3004 4270 11 7300 120/06 RMK AO2 T03331011
94299KAAT AAT20160815163511008/15/16 16:35:31  5-MIN KAAT 160035Z AUTO VRB04KT 10SM CLR 33/M02 A3004 4270 10 7300 VRB/04 RMK AO2 T03331017
94299KAAT AAT20160815164011008/15/16 16:40:31  5-MIN KAAT 160040Z AUTO 17005KT 10SM CLR 33/M02 A3004 4270 10 7300 150/05 RMK AO2 T03331022
94299KAAT AAT20160815164511008/15/16 16:45:31  5-MIN KAAT 160045Z AUTO VRB03KT 10SM CLR 33/M02 A3003 4280 10 7300 VRB/03 RMK AO2 T03331017
94299KAAT AAT20160815165011708/15/16 16:50:31  5-MIN KAAT 160050Z AUTO 00000KT 10SM CLR 33/M02 A3003 4280 10 7300 000/00 RMK AO2 SLP125 T03331017
94299KAAT AAT20160815165510708/15/16 16:55:31  5-MIN KAAT 160055Z AUTO 10SM CLR 34/M02 A3003 4280 09 7400 M /M RMK AO2 SLP126 T03391022
94299KAAT AAT20160815170011008/15/16 17:00:31  5-MIN KAAT 160100Z AUTO VRB06KT 10SM CLR 33/M02 A3003 4280 10 7300 VRB/06 RMK AO2 T03331022
94299KAAT AAT20160815170511008/15/16 17:05:31  5-MIN KAAT 160105Z AUTO VRB03KT 10SM CLR 33/M02 A3003 4280 10 7300 VRB/03 RMK AO2 T03331022
94299KAAT AAT20160815171011008/15/16 17:10:31  5-MIN KAAT 160110Z AUTO 00000KT 10SM CLR 33/M02 A3003 4280 10 7300 000/00 RMK AO2 T03281022
94299KAAT AAT20160815171511008/15/16 17:15:31  5-MIN KAAT 160115Z AUTO 00000KT 10SM CLR 33/M02 A3003 4280 10 7300 000/00 RMK AO2 T03281022
94299KAAT AAT20160815172011008/15/16 17:20:31  5-MIN KAAT 160120Z AUTO 28003KT 10SM CLR 33/M03 A3003 4280 10 7300 260/03 RMK AO2 T03281028
94299KAAT AAT20160815172511008/15/16 17:25:31  5-MIN KAAT 160125Z AUTO 26006KT 10SM CLR 33/M03 A3003 4280 09 7300 240/06 RMK AO2 T03331028
94299KAAT AAT20160815173011008/15/16 17:30:31  5-MIN KAAT 160130Z AUTO 00000KT 10SM CLR 33/M03 A3003 4280 10 7300 000/00 RMK AO2 T03281028
94299KAAT AAT20160815173511008/15/16 17:35:31  5-MIN KAAT 160135Z AUTO VRB04KT 10SM CLR 33/M03 A3003 4280 09 7300 VRB/04 RMK AO2 T03331028
94299KAAT AAT20160815174011008/15/16 17:40:31  5-MIN KAAT 160140Z AUTO 33005KT 10SM CLR 33/M02 A3003 4280 10 7300 310/05 RMK AO2 T03281022
94299KAAT AAT20160815174511008/15/16 17:45:31  5-MIN KAAT 160145Z AUTO 32006KT 10SM CLR 33/M02 A3003 4280 10 7300 310/06 RMK AO2 T03281017
94299KAAT AAT20160815175011708/15/16 17:50:31  5-MIN KAAT 160150Z AUTO 33004KT 10SM CLR 33/M02 A3003 4280 10 7300 310/04 RMK AO2 SLP123 T03281022
94299KAAT AAT20160815175511708/15/16 17:55:31  5-MIN KAAT 160155Z AUTO 33004KT 10SM CLR 33/M01 A3003 4280 11 7300 310/04 RMK AO2 SLP123 T03281011
94299KAAT AAT20160815180011008/15/16 18:00:31  5-MIN KAAT 160200Z AUTO 34006KT 10SM CLR 32/M02 A3003 4280 11 7200 330/06 RMK AO2 T03221017
94299KAAT AAT20160815180511008/15/16 18:05:31  5-MIN KAAT 160205Z AUTO 34006KT 10SM CLR 32/M01 A3003 4280 12 7100 330/06 RMK AO2 T03171006
94299KAAT AAT20160815181010908/15/16 18:10:31  5-MIN KAAT 160210Z AUTO 33006KT 10SM CLR 32/00 A3003 4280 13 7100 320/06 RMK AO2 T03170000
94299KAAT AAT20160815181511008/15/16 18:15:31  5-MIN KAAT 160215Z AUTO 34006KT 10SM CLR 32/M01 A3003 4280 12 7100 320/06 RMK AO2 T03171011
94299KAAT AAT20160815182011008/15/16 18:20:31  5-MIN KAAT 160220Z AUTO 34006KT 10SM CLR 31/M01 A3003 4280 12 7100 330/06 RMK AO2 T03111011
94299KAAT AAT20160815182511008/15/16 18:25:31  5-MIN KAAT 160225Z AUTO 34005KT 10SM CLR 31/M01 A3003 4280 13 7000 330/05 RMK AO2 T03061006
94299KAAT AAT20160815183010908/15/16 18:30:31  5-MIN KAAT 160230Z AUTO 34006KT 10SM CLR 30/00 A3003 4280 14 7000 330/06 RMK AO2 T03000000
94299KAAT AAT20160815183510908/15/16 18:35:31  5-MIN KAAT 160235Z AUTO 34005KT 10SM CLR 30/00 A3003 4280 14 7000 320/05 RMK AO2 T03000000
94299KAAT AAT20160815184011008/15/16 18:40:31  5-MIN KAAT 160240Z AUTO 34005KT 10SM CLR 29/M01 A3003 4280 14 6900 320/05 RMK AO2 T02941006
94299KAAT AAT20160815184510808/15/16 18:45:31  5-MIN KAAT 160245Z AUTO 34005KT 9SM CLR 29/00 A3003 4280 15 6800 320/05 RMK AO2 T02890000
94299KAAT AAT20160815185012108/15/16 18:50:31  5-MIN KAAT 160250Z AUTO 34004KT 9SM CLR 28/00 A3003 4280 15 6800 320/04 RMK AO2 SLP125 T02830000 56016
94299KAAT AAT20160815185512308/15/16 18:55:31  5-MIN KAAT 160255Z AUTO 33004KT 10SM CLR 28/M01 A3003 4280 15 6800 320/04 RMK AO2 SLP125 T02831006 55002
94299KAAT AAT20160815190011008/15/16 19:00:31  5-MIN KAAT 160300Z AUTO 34004KT 10SM CLR 28/M01 A3004 4280 14 6800 330/04 RMK AO2 T02831011
94299KAAT AAT20160815190511008/15/16 19:05:31  5-MIN KAAT 160305Z AUTO 35004KT 10SM CLR 27/M01 A3004 4270 15 6700 330/04 RMK AO2 T02721011
94299KAAT AAT20160815191011008/15/16 19:10:31  5-MIN KAAT 160310Z AUTO 34004KT 10SM CLR 27/M02 A3004 4270 15 6700 330/04 RMK AO2 T02721017
94299KAAT AAT20160815191511008/15/16 19:15:31  5-MIN KAAT 160315Z AUTO 00000KT 10SM CLR 26/M02 A3004 4270 16 6500 000/00 RMK AO2 T02611017
94299KAAT AAT20160815192010908/15/16 19:20:31  5-MIN KAAT 160320Z AUTO 00000KT 10SM CLR 25/01 A3004 4270 20 6400 000/00 RMK AO2 T02500011
94299KAAT AAT20160815192510908/15/16 19:25:31  5-MIN KAAT 160325Z AUTO 00000KT 10SM CLR 26/00 A3004 4270 18 6500 000/00 RMK AO2 T02560000
94299KAAT AAT20160815193011008/15/16 19:30:31  5-MIN KAAT 160330Z AUTO 00000KT 10SM CLR 26/M01 A3004 4270 17 6500 000/00 RMK AO2 T02561006
94299KAAT AAT20160815193511008/15/16 19:35:31  5-MIN KAAT 160335Z AUTO 00000KT 10SM CLR 26/M01 A3004 4270 17 6500 000/00 RMK AO2 T02561006
94299KAAT AAT20160815194011008/15/16 19:40:31  5-MIN KAAT 160340Z AUTO 28003KT 10SM CLR 25/M01 A3005 4260 17 6400 260/03 RMK AO2 T02501011
94299KAAT AAT20160815194511008/15/16 19:45:31  5-MIN KAAT 160345Z AUTO 30004KT 10SM CLR 24/M01 A3005 4260 18 6300 290/04 RMK AO2 T02441011
94299KAAT AAT20160815195011708/15/16 19:50:31  5-MIN KAAT 160350Z AUTO 27003KT 10SM CLR 24/M01 A3005 4260 19 6300 250/03 RMK AO2 SLP129 T02441006
94299KAAT AAT20160815195511708/15/16 19:55:31  5-MIN KAAT 160355Z AUTO 26003KT 10SM CLR 24/M01 A3006 4250 19 6300 240/03 RMK AO2 SLP131 T02391011
94299KAAT AAT20160815200011008/15/16 20:00:31  5-MIN KAAT 160400Z AUTO 25006KT 10SM CLR 23/M02 A3007 4250 19 6100 230/06 RMK AO2 T02281017
94299KAAT AAT20160815200511008/15/16 20:05:31  5-MIN KAAT 160405Z AUTO 26007KT 10SM CLR 24/M01 A3007 4240 18 6300 240/07 RMK AO2 T02441011
94299KAAT AAT20160815201011008/15/16 20:10:31  5-MIN KAAT 160410Z AUTO 28005KT 10SM CLR 26/M01 A3007 4240 17 6400 270/05 RMK AO2 T02561006
94299KAAT AAT20160815201510908/15/16 20:15:31  5-MIN KAAT 160415Z AUTO 27008KT 10SM CLR 25/00 A3007 4240 19 6400 250/08 RMK AO2 T02500000
94299KAAT AAT20160815202010908/15/16 20:20:31  5-MIN KAAT 160420Z AUTO 27010KT 10SM CLR 26/02 A3007 4240 21 6400 260/10 RMK AO2 T02560017
94299KAAT AAT20160815202510908/15/16 20:25:31  5-MIN KAAT 160425Z AUTO 26010KT 10SM CLR 26/02 A3007 4240 21 6400 240/10 RMK AO2 T02560022
94299KAAT AAT20160815203010908/15/16 20:30:31  5-MIN KAAT 160430Z AUTO 27006KT 10SM CLR 25/02 A3008 4240 22 6400 260/06 RMK AO2 T02500022
94299KAAT AAT20160815203510908/15/16 20:35:31  5-MIN KAAT 160435Z AUTO VRB04KT 10SM CLR 26/02 A3008 4240 21 6400 VRB/04 RMK AO2 T02560022
94299KAAT AAT20160815204010908/15/16 20:40:31  5-MIN KAAT 160440Z AUTO 27005KT 10SM CLR 26/03 A3008 4230 21 6500 260/05 RMK AO2 T02610028
94299KAAT AAT20160815204510908/15/16 20:45:31  5-MIN KAAT 160445Z AUTO 26005KT 10SM CLR 25/03 A3008 4230 23 6400 240/05 RMK AO2 T02500028
94299KAAT AAT20160815205011608/15/16 20:50:31  5-MIN KAAT 160450Z AUTO 25008KT 10SM CLR 24/03 A3008 4230 24 6300 230/08 RMK AO2 SLP136 T02440028
94299KAAT AAT20160815205511608/15/16 20:55:31  5-MIN KAAT 160455Z AUTO 25008KT 10SM CLR 24/04 A3008 4230 26 6300 230/08 RMK AO2 SLP137 T02440039
94299KAAT AAT20160815210010908/15/16 21:00:31  5-MIN KAAT 160500Z AUTO 26009KT 10SM CLR 25/04 A3009 4230 25 6400 240/09 RMK AO2 T02500039
94299KAAT AAT20160815210510908/15/16 21:05:31  5-MIN KAAT 160505Z AUTO 26009KT 10SM CLR 25/04 A3009 4230 25 6400 240/09 RMK AO2 T02500039
94299KAAT AAT20160815211010908/15/16 21:10:31  5-MIN KAAT 160510Z AUTO 26009KT 10SM CLR 25/04 A3009 4230 25 6400 240/09 RMK AO2 T02500039
94299KAAT AAT20160815211510908/15/16 21:15:31  5-MIN KAAT 160515Z AUTO 26009KT 10SM CLR 24/04 A3009 4230 26 6300 240/09 RMK AO2 T02440039
94299KAAT AAT20160815212010908/15/16 21:20:31  5-MIN KAAT 160520Z AUTO 26008KT 10SM CLR 24/04 A3009 4230 26 6300 250/08 RMK AO2 T02440039
94299KAAT AAT20160815212510908/15/16 21:25:31  5-MIN KAAT 160525Z AUTO 27009KT 10SM CLR 24/04 A3009 4220 27 6200 250/09 RMK AO2 T02390039
94299KAAT AAT20160815213010908/15/16 21:30:31  5-MIN KAAT 160530Z AUTO 26009KT 10SM CLR 24/04 A3009 4220 27 6200 250/09 RMK AO2 T02390039
94299KAAT AAT20160815213510908/15/16 21:35:31  5-MIN KAAT 160535Z AUTO 26009KT 10SM CLR 24/04 A3009 4220 27 6200 240/09 RMK AO2 T02390039
94299KAAT AAT20160815214010908/15/16 21:40:31  5-MIN KAAT 160540Z AUTO 26009KT 10SM CLR 24/04 A3009 4220 28 6200 240/09 RMK AO2 T02390044
94299KAAT AAT20160815214510908/15/16 21:45:31  5-MIN KAAT 160545Z AUTO 26009KT 10SM CLR 24/04 A3010 4220 28 6200 240/09 RMK AO2 T02390044
94299KAAT AAT20160815215013408/15/16 21:50:31  5-MIN KAAT 160550Z AUTO 26009KT 10SM CLR 23/04 A3010 4220 29 6200 250/09 RMK AO2 SLP139 T02330044 10339 20228 55002
94299KAAT AAT20160815215513408/15/16 21:55:31  5-MIN KAAT 160555Z AUTO 26010KT 10SM CLR 23/05 A3010 4220 30 6200 250/10 RMK AO2 SLP139 T02330050 10339 20228 51019
94299KAAT AAT20160815220010908/15/16 22:00:31  5-MIN KAAT 160600Z AUTO 27009KT 10SM CLR 24/05 A3010 4210 29 6200 250/09 RMK AO2 T02390050
94299KAAT AAT20160815220510908/15/16 22:05:31  5-MIN KAAT 160605Z AUTO 27008KT 10SM CLR 24/06 A3010 4210 30 6200 260/08 RMK AO2 T02390056
94299KAAT AAT20160815221010908/15/16 22:10:31  5-MIN KAAT 160610Z AUTO 28007KT 10SM CLR 23/06 A3011 4210 31 6200 260/07 RMK AO2 T02330056
94299KAAT AAT20160815221510908/15/16 22:15:31  5-MIN KAAT 160615Z AUTO 27008KT 10SM CLR 23/06 A3011 4210 32 6200 260/08 RMK AO2 T02330061
94299KAAT AAT20160815222010908/15/16 22:20:31  5-MIN KAAT 160620Z AUTO 26008KT 10SM CLR 23/06 A3011 4210 32 6100 250/08 RMK AO2 T02330061
94299KAAT AAT20160815222510908/15/16 22:25:31  5-MIN KAAT 160625Z AUTO 27007KT 10SM CLR 23/06 A3011 4210 33 6100 250/07 RMK AO2 T02280061
94299KAAT AAT20160815223010908/15/16 22:30:31  5-MIN KAAT 160630Z AUTO 28006KT 10SM CLR 22/06 A3011 4210 36 6000 260/06 RMK AO2 T02170061
94299KAAT AAT20160815223510908/15/16 22:35:31  5-MIN KAAT 160635Z AUTO 27006KT 10SM CLR 22/06 A3011 4210 36 6000 260/06 RMK AO2 T02170061
94299KAAT AAT20160815224010908/15/16 22:40:31  5-MIN KAAT 160640Z AUTO 26004KT 10SM CLR 21/06 A3011 4210 37 5900 250/04 RMK AO2 T02110061
94299KAAT AAT20160815224510908/15/16 22:45:31  5-MIN KAAT 160645Z AUTO 26008KT 10SM CLR 21/06 A3011 4200 36 5900 250/08 RMK AO2 T02110056
94299KAAT AAT20160815225011608/15/16 22:50:31  5-MIN KAAT 160650Z AUTO 26009KT 10SM CLR 22/06 A3011 4200 34 6000 250/09 RMK AO2 SLP144 T02170056
94299KAAT AAT20160815225511608/15/16 22:55:31  5-MIN KAAT 160655Z AUTO 26007KT 10SM CLR 21/06 A3011 4210 36 5900 250/07 RMK AO2 SLP143 T02110056
94299KAAT AAT20160815230010908/15/16 23:00:31  5-MIN KAAT 160700Z AUTO 27005KT 10SM CLR 21/06 A3011 4200 37 5800 250/05 RMK AO2 T02060056
94299KAAT AAT20160815230510908/15/16 23:05:31  5-MIN KAAT 160705Z AUTO 27005KT 10SM CLR 20/06 A3011 4200 38 5800 250/05 RMK AO2 T02000056
94299KAAT AAT20160815231010908/15/16 23:10:31  5-MIN KAAT 160710Z AUTO 28006KT 10SM CLR 20/06 A3012 4200 38 5800 260/06 RMK AO2 T02000056
94299KAAT AAT20160815231510908/15/16 23:15:31  5-MIN KAAT 160715Z AUTO 29005KT 10SM CLR 19/06 A3012 4200 41 5700 280/05 RMK AO2 T01940061
94299KAAT AAT20160815232010908/15/16 23:20:31  5-MIN KAAT 160720Z AUTO 02003KT 10SM CLR 19/06 A3012 4200 43 5600 360/03 RMK AO2 T01890061
94299KAAT AAT20160815232510908/15/16 23:25:31  5-MIN KAAT 160725Z AUTO 34005KT 10SM CLR 19/06 A3012 4200 43 5600 320/05 RMK AO2 T01890061
94299KAAT AAT20160815233010908/15/16 23:30:31  5-MIN KAAT 160730Z AUTO 31005KT 10SM CLR 20/07 A3012 4200 41 5800 290/05 RMK AO2 T02000067
94299KAAT AAT20160815233510908/15/16 23:35:31  5-MIN KAAT 160735Z AUTO 31003KT 10SM CLR 19/07 A3012 4200 44 5600 300/03 RMK AO2 T01890067
94299KAAT AAT20160815234010908/15/16 23:40:31  5-MIN KAAT 160740Z AUTO VRB05KT 10SM CLR 19/07 A3012 4200 44 5600 VRB/05 RMK AO2 T01890067
94299KAAT AAT20160815234510908/15/16 23:45:31  5-MIN KAAT 160745Z AUTO 31005KT 10SM CLR 19/07 A3012 4200 43 5700 300/05 RMK AO2 T01940067
94299KAAT AAT20160815235012608/15/16 23:50:31  5-MIN KAAT 160750Z AUTO 32005KT 10SM CLR 19/07 A3012 4200 43 5700 310/05 RMK AO2 SLP147 T01940067 403390072
94299KAAT AAT20160815235512608/15/16 23:55:31  5-MIN KAAT 160755Z AUTO 30006KT 10SM CLR 19/07 A3012 4200 44 5600 290/06 RMK AO2 SLP147 T01890067 403390072
94299KAAT AAT20160816000010908/16/16 00:00:31  5-MIN KAAT 160800Z AUTO 30005KT 10SM CLR 18/07 A3012 4200 46 5600 280/05 RMK AO2 T01830067
94299KAAT AAT20160816000510908/16/16 00:05:31  5-MIN KAAT 160805Z AUTO 28007KT 10SM CLR 18/07 A3012 4200 46 5600 260/07 RMK AO2 T01830067
94299KAAT AAT20160816001010908/16/16 00:10:31  5-MIN KAAT 160810Z AUTO 28007KT 10SM CLR 19/07 A3012 4200 44 5600 260/07 RMK AO2 T01890067
94299KAAT AAT20160816001510908/16/16 00:15:31  5-MIN KAAT 160815Z AUTO 29005KT 10SM CLR 19/07 A3011 4200 43 5700 280/05 RMK AO2 T01940067
94299KAAT AAT20160816002010908/16/16 00:20:31  5-MIN KAAT 160820Z AUTO VRB04KT 10SM CLR 19/06 A3012 4200 41 5700 VRB/04 RMK AO2 T01940061
94299KAAT AAT20160816002510908/16/16 00:25:31  5-MIN KAAT 160825Z AUTO 28006KT 10SM CLR 20/06 A3012 4200 40 5800 260/06 RMK AO2 T02000061
94299KAAT AAT20160816003010908/16/16 00:30:31  5-MIN KAAT 160830Z AUTO 28006KT 10SM CLR 19/06 A3011 4200 40 5700 270/06 RMK AO2 T01940056
94299KAAT AAT20160816003510908/16/16 00:35:31  5-MIN KAAT 160835Z AUTO VRB04KT 10SM CLR 19/06 A3011 4200 41 5600 VRB/04 RMK AO2 T01890056
94299KAAT AAT20160816004010908/16/16 00:40:31  5-MIN KAAT 160840Z AUTO 04005KT 10SM CLR 18/06 A3012 4200 42 5600 030/05 RMK AO2 T01830056
94299KAAT AAT20160816004510908/16/16 00:45:31  5-MIN KAAT 160845Z AUTO 35003KT 10SM CLR 18/06 A3011 4200 42 5600 340/03 RMK AO2 T01830056
94299KAAT AAT20160816005012208/16/16 00:50:31  5-MIN KAAT 160850Z AUTO 00000KT 10SM CLR 18/06 A3011 4200 44 5500 000/00 RMK AO2 SLP144 T01780056 51019
94299KAAT AAT20160816005512208/16/16 00:55:31  5-MIN KAAT 160855Z AUTO 00000KT 10SM CLR 17/05 A3011 4200 44 5500 000/00 RMK AO2 SLP145 T01720050 50004
94299KAAT AAT20160816010010908/16/16 01:00:31  5-MIN KAAT 160900Z AUTO 03003KT 10SM CLR 18/04 A3011 4200 41 5500 010/03 RMK AO2 T01780044
94299KAAT AAT20160816010510908/16/16 01:05:31  5-MIN KAAT 160905Z AUTO 02005KT 10SM CLR 18/04 A3011 4200 39 5600 010/05 RMK AO2 T01830044
94299KAAT AAT20160816011010908/16/16 01:10:31  5-MIN KAAT 160910Z AUTO 04005KT 10SM CLR 18/04 A3011 4210 41 5500 020/05 RMK AO2 T01780044
94299KAAT AAT20160816011510908/16/16 01:15:31  5-MIN KAAT 160915Z AUTO 04004KT 10SM CLR 18/04 A3011 4210 41 5500 020/04 RMK AO2 T01780044
94299KAAT AAT20160816012010908/16/16 01:20:31  5-MIN KAAT 160920Z AUTO 03005KT 10SM CLR 18/04 A3011 4210 39 5600 020/05 RMK AO2 T01830044
94299KAAT AAT20160816012510908/16/16 01:25:31  5-MIN KAAT 160925Z AUTO 03003KT 10SM CLR 18/04 A3011 4210 38 5600 020/03 RMK AO2 T01830039
94299KAAT AAT20160816013010908/16/16 01:30:31  5-MIN KAAT 160930Z AUTO 04003KT 10SM CLR 18/04 A3011 4210 38 5600 030/03 RMK AO2 T01830039
94299KAAT AAT20160816013510908/16/16 01:35:31  5-MIN KAAT 160935Z AUTO 04003KT 10SM CLR 18/04 A3011 4210 38 5600 030/03 RMK AO2 T01830039
94299KAAT AAT20160816014010908/16/16 01:40:31  5-MIN KAAT 160940Z AUTO 04005KT 10SM CLR 18/04 A3011 4210 38 5600 020/05 RMK AO2 T01830039
94299KAAT AAT20160816014510908/16/16 01:45:31  5-MIN KAAT 160945Z AUTO 02003KT 10SM CLR 18/03 A3011 4210 36 5600 360/03 RMK AO2 T01830033
94299KAAT AAT20160816015011608/16/16 01:50:31  5-MIN KAAT 160950Z AUTO 00000KT 10SM CLR 16/03 A3011 4200 43 5300 000/00 RMK AO2 SLP146 T01560033
94299KAAT AAT20160816015511608/16/16 01:55:31  5-MIN KAAT 160955Z AUTO 00000KT 10SM CLR 16/04 A3011 4200 45 5300 000/00 RMK AO2 SLP146 T01560039
94299KAAT AAT20160816020010908/16/16 02:00:31  5-MIN KAAT 161000Z AUTO 00000KT 10SM CLR 16/04 A3011 4210 45 5300 000/00 RMK AO2 T01560039
94299KAAT AAT20160816020510908/16/16 02:05:31  5-MIN KAAT 161005Z AUTO 00000KT 10SM CLR 17/03 A3011 4210 40 5400 000/00 RMK AO2 T01670033
94299KAAT AAT20160816021010908/16/16 02:10:31  5-MIN KAAT 161010Z AUTO 00000KT 10SM CLR 17/03 A3011 4210 37 5500 000/00 RMK AO2 T01720028
94299KAAT AAT20160816021510908/16/16 02:15:31  5-MIN KAAT 161015Z AUTO 00000KT 10SM CLR 17/03 A3011 4200 37 5500 000/00 RMK AO2 T01720028
94299KAAT AAT20160816022010908/16/16 02:20:31  5-MIN KAAT 161020Z AUTO 23003KT 10SM CLR 17/02 A3011 4200 37 5400 210/03 RMK AO2 T01670022
94299KAAT AAT20160816022510908/16/16 02:25:31  5-MIN KAAT 161025Z AUTO 24003KT 10SM CLR 16/03 A3011 4200 42 5300 230/03 RMK AO2 T01560028
94299KAAT AAT20160816023010908/16/16 02:30:31  5-MIN KAAT 161030Z AUTO 00000KT 10SM CLR 16/03 A3011 4210 42 5300 000/00 RMK AO2 T01560028
94299KAAT AAT20160816023510908/16/16 02:35:31  5-MIN KAAT 161035Z AUTO 00000KT 10SM CLR 16/03 A3011 4210 42 5300 000/00 RMK AO2 T01560028
94299KAAT AAT20160816024010908/16/16 02:40:31  5-MIN KAAT 161040Z AUTO 00000KT 10SM CLR 15/03 A3011 4200 43 5200 000/00 RMK AO2 T01500028
94299KAAT AAT20160816024510908/16/16 02:45:31  5-MIN KAAT 161045Z AUTO 30003KT 10SM CLR 14/03 A3011 4200 47 5100 290/03 RMK AO2 T01390028
94299KAAT AAT20160816025011608/16/16 02:50:31  5-MIN KAAT 161050Z AUTO 00000KT 10SM CLR 14/03 A3011 4200 47 5100 000/00 RMK AO2 SLP147 T01390028
94299KAAT AAT20160816025511608/16/16 02:55:31  5-MIN KAAT 161055Z AUTO 00000KT 10SM CLR 14/03 A3011 4200 47 5100 000/00 RMK AO2 SLP146 T01440033
94299KAAT AAT20160816030010908/16/16 03:00:31  5-MIN KAAT 161100Z AUTO 00000KT 10SM CLR 13/03 A3011 4200 48 5000 000/00 RMK AO2 T01330028
94299KAAT AAT20160816030510908/16/16 03:05:31  5-MIN KAAT 161105Z AUTO 00000KT 10SM CLR 12/02 A3011 4200 50 4800 000/00 RMK AO2 T01170017
94299KAAT AAT20160816031010908/16/16 03:10:31  5-MIN KAAT 161110Z AUTO 00000KT 10SM CLR 13/03 A3011 4200 48 5000 000/00 RMK AO2 T01330028
94299KAAT AAT20160816031510908/16/16 03:15:31  5-MIN KAAT 161115Z AUTO 00000KT 10SM CLR 13/03 A3011 4200 48 5000 000/00 RMK AO2 T01330028
94299KAAT AAT20160816032010908/16/16 03:20:31  5-MIN KAAT 161120Z AUTO 00000KT 10SM CLR 13/03 A3011 4200 50 5000 000/00 RMK AO2 T01330033
94299KAAT AAT20160816032510908/16/16 03:25:31  5-MIN KAAT 161125Z AUTO 00000KT 10SM CLR 15/03 A3011 4200 45 5200 000/00 RMK AO2 T01500033
94299KAAT AAT20160816033010908/16/16 03:30:31  5-MIN KAAT 161130Z AUTO 00000KT 10SM CLR 15/03 A3011 4200 45 5200 000/00 RMK AO2 T01500033
94299KAAT AAT20160816033510908/16/16 03:35:31  5-MIN KAAT 161135Z AUTO 00000KT 10SM CLR 14/04 A3011 4200 50 5100 000/00 RMK AO2 T01390039
94299KAAT AAT20160816034010908/16/16 03:40:31  5-MIN KAAT 161140Z AUTO 08004KT 10SM CLR 14/04 A3011 4200 50 5100 060/04 RMK AO2 T01390039
94299KAAT AAT20160816034510908/16/16 03:45:31  5-MIN KAAT 161145Z AUTO 00000KT 10SM CLR 14/04 A3011 4200 50 5100 000/00 RMK AO2 T01390039
94299KAAT AAT20160816035013408/16/16 03:50:31  5-MIN KAAT 161150Z AUTO 09003KT 10SM CLR 13/04 A3012 4200 54 5000 080/03 RMK AO2 SLP149 T01330044 10239 20117 50004
94299KAAT AAT20160816035513408/16/16 03:55:31  5-MIN KAAT 161155Z AUTO 00000KT 10SM CLR 13/04 A3012 4200 54 5000 000/00 RMK AO2 SLP149 T01330044 10239 20117 53001
94299KAAT AAT20160816040010908/16/16 04:00:31  5-MIN KAAT 161200Z AUTO VRB03KT 10SM CLR 12/04 A3012 4200 58 4800 VRB/03 RMK AO2 T01170039
94299KAAT AAT20160816040510908/16/16 04:05:31  5-MIN KAAT 161205Z AUTO 09003KT 10SM CLR 13/04 A3012 4200 54 5000 080/03 RMK AO2 T01280039
94299KAAT AAT20160816041010908/16/16 04:10:31  5-MIN KAAT 161210Z AUTO 04003KT 10SM CLR 13/04 A3011 4200 54 5000 030/03 RMK AO2 T01280039
94299KAAT AAT20160816041510908/16/16 04:15:31  5-MIN KAAT 161215Z AUTO 03003KT 10SM CLR 12/03 A3011 4200 56 4800 020/03 RMK AO2 T01170033
94299KAAT AAT20160816042010908/16/16 04:20:31  5-MIN KAAT 161220Z AUTO 00000KT 10SM CLR 11/03 A3011 4200 58 4800 000/00 RMK AO2 T01110033
94299KAAT AAT20160816042510908/16/16 04:25:31  5-MIN KAAT 161225Z AUTO 00000KT 10SM CLR 11/04 A3012 4200 63 4700 000/00 RMK AO2 T01060039
94299KAAT AAT20160816043010908/16/16 04:30:31  5-MIN KAAT 161230Z AUTO 00000KT 10SM CLR 11/04 A3011 4200 61 4800 000/00 RMK AO2 T01110039
94299KAAT AAT20160816043510908/16/16 04:35:31  5-MIN KAAT 161235Z AUTO 00000KT 10SM CLR 11/04 A3011 4200 61 4800 000/00 RMK AO2 T01110039
94299KAAT AAT20160816044010908/16/16 04:40:31  5-MIN KAAT 161240Z AUTO 04003KT 10SM CLR 12/04 A3011 4200 58 4800 030/03 RMK AO2 T01170039
94299KAAT AAT20160816044510908/16/16 04:45:31  5-MIN KAAT 161245Z AUTO 00000KT 10SM CLR 11/04 A3011 4200 61 4800 000/00 RMK AO2 T01110039
94299KAAT AAT20160816045011608/16/16 04:50:31  5-MIN KAAT 161250Z AUTO 00000KT 10SM CLR 11/03 A3011 4200 61 4700 000/00 RMK AO2 SLP151 T01060033
94299KAAT AAT20160816045511608/16/16 04:55:31  5-MIN KAAT 161255Z AUTO 17003KT 10SM CLR 11/04 A3011 4200 63 4700 150/03 RMK AO2 SLP151 T01060039
94299KAAT AAT20160816050010908/16/16 05:00:31  5-MIN KAAT 161300Z AUTO 13003KT 10SM CLR 11/04 A3011 4200 63 4700 110/03 RMK AO2 T01060039
94299KAAT AAT20160816050510908/16/16 05:05:31  5-MIN KAAT 161305Z AUTO 00000KT 10SM CLR 11/04 A3012 4200 63 4700 000/00 RMK AO2 T01060039
94299KAAT AAT20160816051010908/16/16 05:10:31  5-MIN KAAT 161310Z AUTO 15003KT 10SM CLR 11/04 A3012 4200 66 4700 140/03 RMK AO2 T01060044
94299KAAT AAT20160816051510908/16/16 05:15:31  5-MIN KAAT 161315Z AUTO 00000KT 10SM CLR 11/05 A3012 4200 68 4700 000/00 RMK AO2 T01060050
94299KAAT AAT20160816052010908/16/16 05:20:31  5-MIN KAAT 161320Z AUTO 00000KT 10SM CLR 11/04 A3012 4200 66 4700 000/00 RMK AO2 T01060044
94299KAAT AAT20160816052510908/16/16 05:25:31  5-MIN KAAT 161325Z AUTO 00000KT 10SM CLR 09/04 A3012 4190 71 4500 000/00 RMK AO2 T00890039
94299KAAT AAT20160816053010908/16/16 05:30:31  5-MIN KAAT 161330Z AUTO 00000KT 10SM CLR 09/04 A3012 4190 71 4600 000/00 RMK AO2 T00940044
94299KAAT AAT20160816053510908/16/16 05:35:31  5-MIN KAAT 161335Z AUTO 05003KT 10SM CLR 10/04 A3012 4190 68 4600 030/03 RMK AO2 T01000044
94299KAAT AAT20160816054010908/16/16 05:40:31  5-MIN KAAT 161340Z AUTO 00000KT 10SM CLR 09/04 A3013 4190 68 4600 000/00 RMK AO2 T00940039
94299KAAT AAT20160816054510908/16/16 05:45:31  5-MIN KAAT 161345Z AUTO 00000KT 10SM CLR 09/04 A3013 4190 71 4500 000/00 RMK AO2 T00890039
94299KAAT AAT20160816055011608/16/16 05:50:31  5-MIN KAAT 161350Z AUTO 00000KT 10SM CLR 09/04 A3013 4190 71 4500 000/00 RMK AO2 SLP158 T00940044
94299KAAT AAT20160816055511608/16/16 05:55:31  5-MIN KAAT 161355Z AUTO 00000KT 10SM CLR 09/04 A3013 4190 68 4500 000/00 RMK AO2 SLP160 T00940039
94299KAAT AAT20160816060010908/16/16 06:00:31  5-MIN KAAT 161400Z AUTO 00000KT 10SM CLR 09/04 A3013 4190 68 4500 000/00 RMK AO2 T00940039
94299KAAT AAT20160816060510908/16/16 06:05:31  5-MIN KAAT 161405Z AUTO 00000KT 10SM CLR 09/04 A3014 4180 68 4500 000/00 RMK AO2 T00940039
94299KAAT AAT20160816061010908/16/16 06:10:31  5-MIN KAAT 161410Z AUTO 00000KT 10SM CLR 10/04 A3013 4180 68 4600 000/00 RMK AO2 T01000044
94299KAAT AAT20160816061510908/16/16 06:15:31  5-MIN KAAT 161415Z AUTO 00000KT 10SM CLR 11/04 A3013 4180 63 4700 000/00 RMK AO2 T01060039
94299KAAT AAT20160816062010908/16/16 06:20:31  5-MIN KAAT 161420Z AUTO 00000KT 10SM CLR 12/04 A3013 4190 58 4800 000/00 RMK AO2 T01170039
94299KAAT AAT20160816062510908/16/16 06:25:31  5-MIN KAAT 161425Z AUTO 00000KT 10SM CLR 12/04 A3014 4180 58 4800 000/00 RMK AO2 T01170039
94299KAAT AAT20160816063010908/16/16 06:30:31  5-MIN KAAT 161430Z AUTO 00000KT 10SM CLR 12/04 A3014 4180 56 4900 000/00 RMK AO2 T01220039
94299KAAT AAT20160816063510908/16/16 06:35:31  5-MIN KAAT 161435Z AUTO 00000KT 10SM CLR 13/04 A3014 4180 56 4900 000/00 RMK AO2 T01280044
94299KAAT AAT20160816064010908/16/16 06:40:31  5-MIN KAAT 161440Z AUTO 00000KT 10SM CLR 13/04 A3014 4180 56 4900 000/00 RMK AO2 T01280044
94299KAAT AAT20160816064510908/16/16 06:45:31  5-MIN KAAT 161445Z AUTO 00000KT 10SM CLR 13/04 A3014 4180 54 5000 000/00 RMK AO2 T01330044
94299KAAT AAT20160816065012208/16/16 06:50:31  5-MIN KAAT 161450Z AUTO 00000KT 10SM CLR 14/04 A3014 4180 52 5000 000/00 RMK AO2 SLP163 T01390044 53001
94299KAAT AAT20160816065512208/16/16 06:55:31  5-MIN KAAT 161455Z AUTO 00000KT 10SM CLR 15/04 A3014 4170 49 5200 000/00 RMK AO2 SLP163 T01500044 53008
94299KAAT AAT20160816070010908/16/16 07:00:31  5-MIN KAAT 161500Z AUTO 00000KT 10SM CLR 16/04 A3014 4170 47 5200 000/00 RMK AO2 T01560044
94299KAAT AAT20160816070510908/16/16 07:05:31  5-MIN KAAT 161505Z AUTO 00000KT 10SM CLR 16/05 A3015 4170 49 5200 000/00 RMK AO2 T01560050
94299KAAT AAT20160816071010908/16/16 07:10:31  5-MIN KAAT 161510Z AUTO 00000KT 10SM CLR 16/04 A3014 4170 45 5300 000/00 RMK AO2 T01610044
94299KAAT AAT20160816071510908/16/16 07:15:31  5-MIN KAAT 161515Z AUTO 00000KT 10SM CLR 16/04 A3015 4170 47 5200 000/00 RMK AO2 T01560044
94299KAAT AAT20160816072010908/16/16 07:20:31  5-MIN KAAT 161520Z AUTO 00000KT 10SM CLR 16/05 A3014 4170 47 5300 000/00 RMK AO2 T01610050
94299KAAT AAT20160816072510908/16/16 07:25:31  5-MIN KAAT 161525Z AUTO 00000KT 10SM CLR 16/05 A3014 4180 47 5300 000/00 RMK AO2 T01610050
94299KAAT AAT20160816073010908/16/16 07:30:31  5-MIN KAAT 161530Z AUTO 00000KT 10SM CLR 17/06 A3014 4180 47 5400 000/00 RMK AO2 T01670056
94299KAAT AAT20160816073510908/16/16 07:35:31  5-MIN KAAT 161535Z AUTO 00000KT 10SM CLR 17/06 A3014 4180 47 5400 000/00 RMK AO2 T01720061
94299KAAT AAT20160816074010908/16/16 07:40:31  5-MIN KAAT 161540Z AUTO 07003KT 10SM CLR 18/06 A3014 4180 46 5500 060/03 RMK AO2 T01780061
94299KAAT AAT20160816074510908/16/16 07:45:31  5-MIN KAAT 161545Z AUTO 00000KT 10SM CLR 18/06 A3014 4180 44 5600 000/00 RMK AO2 T01830061
94299KAAT AAT20160816075011608/16/16 07:50:31  5-MIN KAAT 161550Z AUTO 07003KT 10SM CLR 18/06 A3014 4170 44 5600 050/03 RMK AO2 SLP163 T01830061
94299KAAT AAT20160816075511608/16/16 07:55:31  5-MIN KAAT 161555Z AUTO 06003KT 10SM CLR 19/06 A3014 4180 43 5600 050/03 RMK AO2 SLP162 T01890061
94299KAAT AAT20160816080010908/16/16 08:00:31  5-MIN KAAT 161600Z AUTO 00000KT 10SM CLR 19/06 A3014 4180 41 5600 000/00 RMK AO2 T01890056
94299KAAT AAT20160816080510908/16/16 08:05:31  5-MIN KAAT 161605Z AUTO 00000KT 10SM CLR 19/06 A3014 4180 41 5700 000/00 RMK AO2 T01940061
94299KAAT AAT20160816081010908/16/16 08:10:31  5-MIN KAAT 161610Z AUTO VRB03KT 10SM CLR 20/06 A3014 4180 38 5700 VRB/03 RMK AO2 T02000056
94299KAAT AAT20160816081510908/16/16 08:15:31  5-MIN KAAT 161615Z AUTO 08003KT 10SM CLR 21/06 A3014 4180 37 5800 060/03 RMK AO2 T02060056
94299KAAT AAT20160816082010908/16/16 08:20:31  5-MIN KAAT 161620Z AUTO 08003KT 10SM CLR 21/06 A3014 4180 37 5800 070/03 RMK AO2 T02060056
94299KAAT AAT20160816082510908/16/16 08:25:31  5-MIN KAAT 161625Z AUTO VRB03KT 10SM CLR 21/06 A3014 4180 36 5900 VRB/03 RMK AO2 T02110056
94299KAAT AAT20160816083010908/16/16 08:30:31  5-MIN KAAT 161630Z AUTO 00000KT 10SM CLR 21/05 A3013 4180 34 5900 000/00 RMK AO2 T02110050
94299KAAT AAT20160816083510908/16/16 08:35:31  5-MIN KAAT 161635Z AUTO 11003KT 10SM CLR 21/06 A3013 4190 36 5900 100/03 RMK AO2 T02110056
94299KAAT AAT20160816084010908/16/16 08:40:31  5-MIN KAAT 161640Z AUTO 07004KT 10SM CLR 21/06 A3013 4190 37 5900 050/04 RMK AO2 T02110061
94299KAAT AAT20160816084510908/16/16 08:45:31  5-MIN KAAT 161645Z AUTO 13003KT 10SM CLR 22/06 A3013 4190 34 5900 110/03 RMK AO2 T02170056
94299KAAT AAT20160816085011608/16/16 08:50:31  5-MIN KAAT 161650Z AUTO 08003KT 10SM CLR 22/06 A3013 4190 33 6000 060/03 RMK AO2 SLP153 T02220056
94299KAAT AAT20160816085511608/16/16 08:55:31  5-MIN KAAT 161655Z AUTO VRB03KT 10SM CLR 22/05 A3013 4190 32 6000 VRB/03 RMK AO2 SLP153 T02220050
94299KAAT AAT20160816090010908/16/16 09:00:31  5-MIN KAAT 161700Z AUTO 00000KT 10SM CLR 23/05 A3013 4190 31 6100 000/00 RMK AO2 T02280050
94299KAAT AAT20160816090510908/16/16 09:05:31  5-MIN KAAT 161705Z AUTO VRB03KT 10SM CLR 23/05 A3013 4190 30 6100 VRB/03 RMK AO2 T02330050
94299KAAT AAT20160816091010908/16/16 09:10:31  5-MIN KAAT 161710Z AUTO 05004KT 10SM CLR 23/05 A3013 4190 30 6100 030/04 RMK AO2 T02330050
94299KAAT AAT20160816091510908/16/16 09:15:31  5-MIN KAAT 161715Z AUTO 00000KT 10SM CLR 23/05 A3013 4190 30 6100 000/00 RMK AO2 T02330050
94299KAAT AAT20160816092010908/16/16 09:20:31  5-MIN KAAT 161720Z AUTO 09003KT 10SM CLR 24/05 A3013 4190 29 6200 080/03 RMK AO2 T02390050
94299KAAT AAT20160816092510908/16/16 09:25:31  5-MIN KAAT 161725Z AUTO 10003KT 10SM CLR 24/06 A3012 4190 30 6200 080/03 RMK AO2 T02390056
94299KAAT AAT20160816093010908/16/16 09:30:31  5-MIN KAAT 161730Z AUTO 04003KT 10SM CLR 24/05 A3012 4200 28 6300 020/03 RMK AO2 T02440050
94299KAAT AAT20160816093510908/16/16 09:35:31  5-MIN KAAT 161735Z AUTO 00000KT 10SM CLR 25/04 A3012 4200 26 6300 000/00 RMK AO2 T02500044
94299KAAT AAT20160816094010908/16/16 09:40:31  5-MIN KAAT 161740Z AUTO VRB03KT 10SM CLR 25/04 A3012 4200 26 6300 VRB/03 RMK AO2 T02500044
94299KAAT AAT20160816094510908/16/16 09:45:31  5-MIN KAAT 161745Z AUTO 00000KT 10SM CLR 25/04 A3012 4200 25 6300 000/00 RMK AO2 T02500039
94299KAAT AAT20160816095013408/16/16 09:50:31  5-MIN KAAT 161750Z AUTO 08003KT 10SM CLR 26/04 A3012 4200 24 6400 070/03 RMK AO2 SLP146 T02560039 10256 20089 53008
94299KAAT AAT20160816095513408/16/16 09:55:31  5-MIN KAAT 161755Z AUTO 00000KT 10SM CLR 26/03 A3011 4200 22 6400 000/00 RMK AO2 SLP145 T02610033 10261 20089 58009
94299KAAT AAT20160816100010908/16/16 10:00:31  5-MIN KAAT 161800Z AUTO 00000KT 10SM CLR 26/03 A3011 4200 22 6400 000/00 RMK AO2 T02610033
94299KAAT AAT20160816100510908/16/16 10:05:31  5-MIN KAAT 161805Z AUTO 00000KT 10SM CLR 27/04 A3011 4200 22 6600 000/00 RMK AO2 T02720039
94299KAAT AAT20160816101010908/16/16 10:10:31  5-MIN KAAT 161810Z AUTO VRB03KT 10SM CLR 27/04 A3011 4200 22 6500 VRB/03 RMK AO2 T02670039
94299KAAT AAT20160816101510908/16/16 10:15:31  5-MIN KAAT 161815Z AUTO VRB04KT 10SM CLR 27/04 A3011 4210 22 6500 VRB/04 RMK AO2 T02670039
94299KAAT AAT20160816102010908/16/16 10:20:31  5-MIN KAAT 161820Z AUTO 00000KT 10SM CLR 27/03 A3011 4210 21 6600 000/00 RMK AO2 T02720033
94299KAAT AAT20160816102510908/16/16 10:25:31  5-MIN KAAT 161825Z AUTO 00000KT 10SM CLR 27/03 A3011 4210 21 6600 000/00 RMK AO2 T02720033
94299KAAT AAT20160816103010908/16/16 10:30:31  5-MIN KAAT 161830Z AUTO 15003KT 10SM CLR 27/03 A3011 4210 21 6600 140/03 RMK AO2 T02720033
94299KAAT AAT20160816103510908/16/16 10:35:31  5-MIN KAAT 161835Z AUTO 00000KT 10SM CLR 27/03 A3011 4210 21 6600 000/00 RMK AO2 T02720033
94299KAAT AAT20160816104010908/16/16 10:40:31  5-MIN KAAT 161840Z AUTO 12005KT 10SM CLR 28/03 A3010 4210 20 6600 100/05 RMK AO2 T02780033
94299KAAT AAT20160816104510908/16/16 10:45:31  5-MIN KAAT 161845Z AUTO VRB05KT 10SM CLR 28/03 A3010 4210 20 6700 VRB/05 RMK AO2 T02830033
94299KAAT AAT20160816105011608/16/16 10:50:31  5-MIN KAAT 161850Z AUTO 00000KT 10SM CLR 28/03 A3010 4210 19 6700 000/00 RMK AO2 SLP140 T02830028
94299KAAT AAT20160816105511608/16/16 10:55:31  5-MIN KAAT 161855Z AUTO VRB03KT 10SM CLR 28/03 A3010 4220 19 6700 VRB/03 RMK AO2 SLP139 T02830028
94299KAAT AAT20160816110010908/16/16 11:00:31  5-MIN KAAT 161900Z AUTO VRB04KT 10SM CLR 29/03 A3010 4220 19 6800 VRB/04 RMK AO2 T02890033
94299KAAT AAT20160816110510908/16/16 11:05:31  5-MIN KAAT 161905Z AUTO VRB03KT 10SM CLR 29/03 A3010 4220 18 6800 VRB/03 RMK AO2 T02940028
94299KAAT AAT20160816111010908/16/16 11:10:31  5-MIN KAAT 161910Z AUTO 15006KT 10SM CLR 29/02 A3009 4220 17 6800 130/06 RMK AO2 T02940022
94299KAAT AAT20160816111510908/16/16 11:15:31  5-MIN KAAT 161915Z AUTO VRB03KT 10SM CLR 29/02 A3009 4220 17 6800 VRB/03 RMK AO2 T02940022
94299KAAT AAT20160816112010908/16/16 11:20:31  5-MIN KAAT 161920Z AUTO VRB05KT 10SM CLR 30/02 A3009 4220 16 6900 VRB/05 RMK AO2 T03000022
94299KAAT AAT20160816112510908/16/16 11:25:31  5-MIN KAAT 161925Z AUTO 00000KT 10SM CLR 30/02 A3009 4220 16 6900 000/00 RMK AO2 T03000022
94299KAAT AAT20160816113010908/16/16 11:30:31  5-MIN KAAT 161930Z AUTO VRB04KT 10SM CLR 31/02 A3009 4230 15 7000 VRB/04 RMK AO2 T03110022
94299KAAT AAT20160816113512508/16/16 11:35:31  5-MIN KAAT 161935Z AUTO 08007KT 020V200 10SM CLR 31/02 A3009 4230 15 7000 070/07 010V190 RMK AO2 T03060017
94299KAAT AAT20160816114010908/16/16 11:40:31  5-MIN KAAT 161940Z AUTO 03005KT 10SM CLR 31/02 A3009 4230 15 7000 010/05 RMK AO2 T03110017
94299KAAT AAT20160816114510908/16/16 11:45:31  5-MIN KAAT 161945Z AUTO VRB04KT 10SM CLR 32/02 A3009 4230 14 7100 VRB/04 RMK AO2 T03170017
94299KAAT AAT20160816115011608/16/16 11:50:31  5-MIN KAAT 161950Z AUTO VRB03KT 10SM CLR 31/01 A3009 4230 14 7000 VRB/03 RMK AO2 SLP133 T03110011
94299KAAT AAT20160816115511608/16/16 11:55:31  5-MIN KAAT 161955Z AUTO 00000KT 10SM CLR 31/01 A3008 4230 14 7000 000/00 RMK AO2 SLP134 T03110011
94299KAAT AAT20160816120010908/16/16 12:00:31  5-MIN KAAT 162000Z AUTO 28005KT 10SM CLR 32/01 A3008 4230 14 7100 270/05 RMK AO2 T03170011
94299KAAT AAT20160816120510908/16/16 12:05:31  5-MIN KAAT 162005Z AUTO 34004KT 10SM CLR 32/01 A3008 4230 14 7100 330/04 RMK AO2 T03170011
94299KAAT AAT20160816121010908/16/16 12:10:31  5-MIN KAAT 162010Z AUTO 00000KT 10SM CLR 32/01 A3008 4230 14 7100 000/00 RMK AO2 T03170011
94299KAAT AAT20160816121510908/16/16 12:15:31  5-MIN KAAT 162015Z AUTO 01003KT 10SM CLR 32/01 A3008 4230 13 7100 350/03 RMK AO2 T03170006
94299KAAT AAT20160816122010908/16/16 12:20:31  5-MIN KAAT 162020Z AUTO VRB04KT 10SM CLR 32/01 A3008 4240 13 7100 VRB/04 RMK AO2 T03170006
94299KAAT AAT20160816122510908/16/16 12:25:31  5-MIN KAAT 162025Z AUTO VRB03KT 10SM CLR 32/01 A3008 4240 13 7100 VRB/03 RMK AO2 T03170006
94299KAAT AAT20160816123010908/16/16 12:30:31  5-MIN KAAT 162030Z AUTO 35003KT 10SM CLR 33/00 A3008 4240 12 7200 340/03 RMK AO2 T03280000
94299KAAT AAT20160816123511008/16/16 12:35:31  5-MIN KAAT 162035Z AUTO VRB03KT 10SM CLR 32/M01 A3007 4240 12 7100 VRB/03 RMK AO2 T03171006
94299KAAT AAT20160816124011008/16/16 12:40:31  5-MIN KAAT 162040Z AUTO VRB04KT 10SM CLR 32/M01 A3007 4240 11 7200 VRB/04 RMK AO2 T03221011
94299KAAT AAT20160816124511008/16/16 12:45:31  5-MIN KAAT 162045Z AUTO VRB04KT 10SM CLR 32/M01 A3007 4240 11 7200 VRB/04 RMK AO2 T03221011
94299KAAT AAT20160816125012308/16/16 12:50:31  5-MIN KAAT 162050Z AUTO VRB04KT 10SM CLR 33/M02 A3007 4240 10 7300 VRB/04 RMK AO2 SLP128 T03331017 58009
94299KAAT AAT20160816125512308/16/16 12:55:31  5-MIN KAAT 162055Z AUTO VRB03KT 10SM CLR 33/M02 A3007 4240 10 7200 VRB/03 RMK AO2 SLP129 T03281017 56014
94299KAAT AAT20160816130011008/16/16 13:00:31  5-MIN KAAT 162100Z AUTO VRB03KT 10SM CLR 33/M02 A3007 4250 10 7200 VRB/03 RMK AO2 T03281017
94299KAAT AAT20160816130511008/16/16 13:05:31  5-MIN KAAT 162105Z AUTO 00000KT 10SM CLR 33/M02 A3007 4250 10 7200 000/00 RMK AO2 T03281022
94299KAAT AAT20160816131010008/16/16 13:10:31  5-MIN KAAT 162110Z AUTO 10SM CLR 33/M02 A3006 4250 10 7300 M /M RMK AO2 T03331022
94299KAAT AAT20160816131511008/16/16 13:15:31  5-MIN KAAT 162115Z AUTO VRB03KT 10SM CLR 33/M02 A3006 4250 10 7300 VRB/03 RMK AO2 T03331022
94299KAAT AAT20160816132011008/16/16 13:20:31  5-MIN KAAT 162120Z AUTO 03003KT 10SM CLR 33/M02 A3006 4250 10 7300 020/03 RMK AO2 T03331022
94299KAAT AAT20160816132511008/16/16 13:25:31  5-MIN KAAT 162125Z AUTO 32005KT 10SM CLR 34/M02 A3006 4250 09 7400 310/05 RMK AO2 T03441022
94299KAAT AAT20160816133011008/16/16 13:30:31  5-MIN KAAT 162130Z AUTO VRB03KT 10SM CLR 33/M03 A3006 4260 10 7200 VRB/03 RMK AO2 T03281028
94299KAAT AAT20160816133511008/16/16 13:35:31  5-MIN KAAT 162135Z AUTO VRB04KT 10SM CLR 34/M02 A3005 4260 09 7400 VRB/04 RMK AO2 T03441022
94299KAAT AAT20160816134011008/16/16 13:40:31  5-MIN KAAT 162140Z AUTO 31003KT 10SM CLR 35/M02 A3005 4260 09 7500 300/03 RMK AO2 T03501022
94299KAAT AAT20160816134511008/16/16 13:45:31  5-MIN KAAT 162145Z AUTO VRB03KT 10SM CLR 34/M03 A3005 4260 09 7400 VRB/03 RMK AO2 T03391028
94299KAAT AAT20160816135011708/16/16 13:50:31  5-MIN KAAT 162150Z AUTO VRB05KT 10SM CLR 34/M03 A3005 4260 09 7400 VRB/05 RMK AO2 SLP121 T03391028
94299KAAT AAT20160816135511708/16/16 13:55:31  5-MIN KAAT 162155Z AUTO VRB04KT 10SM CLR 34/M03 A3005 4260 09 7400 VRB/04 RMK AO2 SLP121 T03441028
94299KAAT AAT20160816140011008/16/16 14:00:31  5-MIN KAAT 162200Z AUTO VRB04KT 10SM CLR 34/M03 A3005 4270 09 7400 VRB/04 RMK AO2 T03441028
94299KAAT AAT20160816140511008/16/16 14:05:31  5-MIN KAAT 162205Z AUTO 29009KT 10SM CLR 34/M03 A3004 4270 09 7400 270/09 RMK AO2 T03441028
94299KAAT AAT20160816141011008/16/16 14:10:31  5-MIN KAAT 162210Z AUTO 29007KT 10SM CLR 34/M03 A3004 4270 09 7400 280/07 RMK AO2 T03391028
94299KAAT AAT20160816141511008/16/16 14:15:31  5-MIN KAAT 162215Z AUTO VRB03KT 10SM CLR 34/M03 A3004 4270 09 7400 VRB/03 RMK AO2 T03441028
94299KAAT AAT20160816142011008/16/16 14:20:31  5-MIN KAAT 162220Z AUTO VRB05KT 10SM CLR 34/M03 A3004 4270 09 7400 VRB/05 RMK AO2 T03391028
94299KAAT AAT20160816142511008/16/16 14:25:31  5-MIN KAAT 162225Z AUTO VRB05KT 10SM CLR 34/M03 A3003 4280 09 7400 VRB/05 RMK AO2 T03441028
94299KAAT AAT20160816143012608/16/16 14:30:31  5-MIN KAAT 162230Z AUTO 34007KT 320V020 10SM CLR 35/M02 A3003 4280 09 7500 330/07 310V010 RMK AO2 T03501022
94299KAAT AAT20160816143511008/16/16 14:35:31  5-MIN KAAT 162235Z AUTO 34007KT 10SM CLR 34/M03 A3003 4280 09 7400 330/07 RMK AO2 T03441028
94299KAAT AAT20160816144011008/16/16 14:40:31  5-MIN KAAT 162240Z AUTO VRB04KT 10SM CLR 34/M03 A3003 4280 09 7400 VRB/04 RMK AO2 T03441028
94299KAAT AAT20160816144511008/16/16 14:45:31  5-MIN KAAT 162245Z AUTO 27007KT 10SM CLR 34/M03 A3003 4280 08 7400 250/07 RMK AO2 T03441033
94299KAAT AAT20160816145011708/16/16 14:50:31  5-MIN KAAT 162250Z AUTO VRB05KT 10SM CLR 34/M03 A3003 4280 08 7400 VRB/05 RMK AO2 SLP115 T03441033
94299KAAT AAT20160816145511708/16/16 14:55:31  5-MIN KAAT 162255Z AUTO 22008KT 10SM CLR 35/M03 A3003 4280 08 7500 210/08 RMK AO2 SLP114 T03501033
94299KAAT AAT20160816150011008/16/16 15:00:31  5-MIN KAAT 162300Z AUTO 22007KT 10SM CLR 34/M04 A3003 4280 08 7400 200/07 RMK AO2 T03441039
94299KAAT AAT20160816150511008/16/16 15:05:31  5-MIN KAAT 162305Z AUTO 24005KT 10SM CLR 34/M04 A3002 4290 08 7400 230/05 RMK AO2 T03391039
94299KAAT AAT20160816151011008/16/16 15:10:31  5-MIN KAAT 162310Z AUTO 28011KT 10SM CLR 34/M04 A3002 4290 08 7400 260/11 RMK AO2 T03441044
94299KAAT AAT20160816151511608/16/16 15:15:31  5-MIN KAAT 162315Z AUTO 26014G19KT 10SM CLR 35/M04 A3003 4280 07 7500 240/14G19 RMK AO2 T03501044
94299KAAT AAT20160816152011608/16/16 15:20:31  5-MIN KAAT 162320Z AUTO 29007G19KT 10SM CLR 35/M04 A3002 4290 07 7500 280/07G19 RMK AO2 T03501044
94299KAAT AAT20160816152511608/16/16 15:25:31  5-MIN KAAT 162325Z AUTO 23009G18KT 10SM CLR 34/M04 A3002 4290 08 7400 210/09G18 RMK AO2 T03441044
94299KAAT AAT20160816153011608/16/16 15:30:31  5-MIN KAAT 162330Z AUTO VRB04G18KT 10SM CLR 34/M05 A3002 4290 08 7400 VRB/04G18 RMK AO2 T03391050
94299KAAT AAT20160816153511008/16/16 15:35:31  5-MIN KAAT 162335Z AUTO 22004KT 10SM CLR 34/M05 A3002 4290 07 7400 200/04 RMK AO2 T03441050
94299KAAT AAT20160817014510908/17/16 01:45:31  5-MIN KAAT 170945Z AUTO 19003KT 10SM CLR 17/05 A3010 4220 44 5500 170/03 RMK AO2 T01720050
94299KAAT AAT20160817015011608/17/16 01:50:31  5-MIN KAAT 170950Z AUTO 19003KT 10SM CLR 17/04 A3010 4220 44 5400 180/03 RMK AO2 SLP137 T01670044
94299KAAT AAT20160817015511608/17/16 01:55:31  5-MIN KAAT 170955Z AUTO 20003KT 10SM CLR 17/04 A3010 4220 44 5400 180/03 RMK AO2 SLP137 T01670044
94299KAAT AAT20160817020010908/17/16 02:00:31  5-MIN KAAT 171000Z AUTO 00000KT 10SM CLR 16/05 A3010 4220 47 5400 000/00 RMK AO2 T01610050
94299KAAT AAT20160817020510908/17/16 02:05:31  5-MIN KAAT 171005Z AUTO 17003KT 10SM CLR 17/05 A3010 4220 45 5400 160/03 RMK AO2 T01670050
94299KAAT AAT20160817021010908/17/16 02:10:31  5-MIN KAAT 171010Z AUTO 18003KT 10SM CLR 16/04 A3010 4220 45 5400 160/03 RMK AO2 T01610044
94299KAAT AAT20160817021510908/17/16 02:15:31  5-MIN KAAT 171015Z AUTO 00000KT 10SM CLR 16/04 A3010 4220 47 5300 000/00 RMK AO2 T01560044
94299KAAT AAT20160817022010908/17/16 02:20:31  5-MIN KAAT 171020Z AUTO 00000KT 10SM CLR 15/04 A3010 4220 49 5200 000/00 RMK AO2 T01500044
94299KAAT AAT20160817022510908/17/16 02:25:31  5-MIN KAAT 171025Z AUTO 00000KT 10SM CLR 16/04 A3010 4220 47 5300 000/00 RMK AO2 T01560044
94299KAAT AAT20160817023010908/17/16 02:30:31  5-MIN KAAT 171030Z AUTO VRB03KT 10SM CLR 16/04 A3010 4220 45 5300 VRB/03 RMK AO2 T01560039
94299KAAT AAT20160817023510908/17/16 02:35:31  5-MIN KAAT 171035Z AUTO 00000KT 10SM CLR 15/04 A3010 4220 47 5200 000/00 RMK AO2 T01500039
94299KAAT AAT20160817024010908/17/16 02:40:31  5-MIN KAAT 171040Z AUTO 00000KT 10SM CLR 16/04 A3010 4220 45 5300 000/00 RMK AO2 T01560039
94299KAAT AAT20160817024510908/17/16 02:45:31  5-MIN KAAT 171045Z AUTO 00000KT 10SM CLR 14/03 A3010 4220 48 5100 000/00 RMK AO2 T01390033
94299KAAT AAT20160817025011608/17/16 02:50:31  5-MIN KAAT 171050Z AUTO 00000KT 10SM CLR 14/04 A3010 4220 49 5200 000/00 RMK AO2 SLP141 T01440039
94299KAAT AAT20160817025511608/17/16 02:55:31  5-MIN KAAT 171055Z AUTO 00000KT 10SM CLR 14/04 A3010 4220 49 5200 000/00 RMK AO2 SLP140 T01440039
94299KAAT AAT20160817030010908/17/16 03:00:31  5-MIN KAAT 171100Z AUTO 00000KT 10SM CLR 14/04 A3010 4220 50 5100 000/00 RMK AO2 T01390039
94299KAAT AAT20160817030510908/17/16 03:05:31  5-MIN KAAT 171105Z AUTO 00000KT 10SM CLR 14/04 A3010 4220 49 5200 000/00 RMK AO2 T01440039
94299KAAT AAT20160817031010908/17/16 03:10:31  5-MIN KAAT 171110Z AUTO 00000KT 10SM CLR 14/04 A3010 4220 49 5200 000/00 RMK AO2 T01440039
94299KAAT AAT20160817031510908/17/16 03:15:31  5-MIN KAAT 171115Z AUTO 00000KT 10SM CLR 14/03 A3010 4220 47 5200 000/00 RMK AO2 T01440033
94299KAAT AAT20160817032010908/17/16 03:20:31  5-MIN KAAT 171120Z AUTO 28003KT 10SM CLR 14/03 A3010 4220 47 5200 260/03 RMK AO2 T01440033
94299KAAT AAT20160817032510908/17/16 03:25:31  5-MIN KAAT 171125Z AUTO 00000KT 10SM CLR 13/03 A3010 4220 52 5000 000/00 RMK AO2 T01280033
94299KAAT AAT20160817033010908/17/16 03:30:31  5-MIN KAAT 171130Z AUTO 00000KT 10SM CLR 12/03 A3010 4220 54 4900 000/00 RMK AO2 T01220033
94299KAAT AAT20160817033510908/17/16 03:35:31  5-MIN KAAT 171135Z AUTO 00000KT 10SM CLR 13/03 A3010 4220 52 5000 000/00 RMK AO2 T01280033
94299KAAT AAT20160817034010908/17/16 03:40:31  5-MIN KAAT 171140Z AUTO 00000KT 10SM CLR 12/04 A3010 4220 56 4900 000/00 RMK AO2 T01220039
94299KAAT AAT20160817034510908/17/16 03:45:31  5-MIN KAAT 171145Z AUTO 00000KT 10SM CLR 13/04 A3010 4220 54 5000 000/00 RMK AO2 T01280039
94299KAAT AAT20160817035013408/17/16 03:50:31  5-MIN KAAT 171150Z AUTO 00000KT 10SM CLR 13/04 A3010 4220 54 5000 000/00 RMK AO2 SLP141 T01330044 10256 20122 50009
94299KAAT AAT20160817035513408/17/16 03:55:31  5-MIN KAAT 171155Z AUTO 00000KT 10SM CLR 12/04 A3010 4220 56 4900 000/00 RMK AO2 SLP142 T01220039 10256 20122 50000
94299KAAT AAT20160817040010908/17/16 04:00:31  5-MIN KAAT 171200Z AUTO 00000KT 10SM CLR 12/04 A3010 4220 56 4900 000/00 RMK AO2 T01220039
94299KAAT AAT20160817040510908/17/16 04:05:31  5-MIN KAAT 171205Z AUTO 00000KT 10SM CLR 14/04 A3010 4220 52 5100 000/00 RMK AO2 T01390044
94299KAAT AAT20160817041010908/17/16 04:10:31  5-MIN KAAT 171210Z AUTO 00000KT 10SM CLR 13/04 A3010 4220 54 5000 000/00 RMK AO2 T01330044
94299KAAT AAT20160817041510908/17/16 04:15:31  5-MIN KAAT 171215Z AUTO 00000KT 10SM CLR 14/05 A3010 4220 53 5200 000/00 RMK AO2 T01440050
94299KAAT AAT20160817042010908/17/16 04:20:31  5-MIN KAAT 171220Z AUTO 00000KT 10SM CLR 13/04 A3010 4220 54 5000 000/00 RMK AO2 T01330044
94299KAAT AAT20160817042510908/17/16 04:25:31  5-MIN KAAT 171225Z AUTO 00000KT 10SM CLR 13/04 A3010 4220 54 5000 000/00 RMK AO2 T01330044
94299KAAT AAT20160817043010908/17/16 04:30:31  5-MIN KAAT 171230Z AUTO 00000KT 10SM CLR 12/03 A3010 4210 56 4800 000/00 RMK AO2 T01170033
94299KAAT AAT20160817043510908/17/16 04:35:31  5-MIN KAAT 171235Z AUTO 00000KT 10SM CLR 12/04 A3010 4210 58 4800 000/00 RMK AO2 T01170039
94299KAAT AAT20160817044010908/17/16 04:40:31  5-MIN KAAT 171240Z AUTO 00000KT 10SM CLR 12/04 A3010 4210 58 4800 000/00 RMK AO2 T01170039
94299KAAT AAT20160817044510908/17/16 04:45:31  5-MIN KAAT 171245Z AUTO 00000KT 10SM CLR 12/04 A3010 4210 59 4900 000/00 RMK AO2 T01220044
94299KAAT AAT20160817045011608/17/16 04:50:31  5-MIN KAAT 171250Z AUTO 00000KT 10SM CLR 11/03 A3010 4210 61 4700 000/00 RMK AO2 SLP147 T01060033
94299KAAT AAT20160817045511608/17/16 04:55:31  5-MIN KAAT 171255Z AUTO 00000KT 10SM CLR 11/04 A3010 4210 63 4700 000/00 RMK AO2 SLP146 T01060039
94299KAAT AAT20160817050010908/17/16 05:00:31  5-MIN KAAT 171300Z AUTO 00000KT 10SM CLR 11/03 A3010 4210 61 4700 000/00 RMK AO2 T01060033
94299KAAT AAT20160817050510908/17/16 05:05:31  5-MIN KAAT 171305Z AUTO 00000KT 10SM CLR 11/04 A3010 4210 63 4700 000/00 RMK AO2 T01060039
94299KAAT AAT20160817051010908/17/16 05:10:31  5-MIN KAAT 171310Z AUTO 00000KT 10SM CLR 11/04 A3010 4210 61 4800 000/00 RMK AO2 T01110039
94299KAAT AAT20160817051510908/17/16 05:15:31  5-MIN KAAT 171315Z AUTO 00000KT 10SM CLR 12/04 A3010 4210 61 4800 000/00 RMK AO2 T01170044
94299KAAT AAT20160817052010808/17/16 05:20:31  5-MIN KAAT 171320Z AUTO 00000KT 7SM CLR 11/04 A3011 4210 61 4800 000/00 RMK AO2 T01110039
94299KAAT AAT20160817052511108/17/16 05:25:31  5-MIN KAAT 171325Z AUTO 00000KT 6SM HZ CLR 10/03 A3010 4210 63 4600 000/00 RMK AO2 T01000033
94299KAAT AAT20160817053010808/17/16 05:30:31  5-MIN KAAT 171330Z AUTO 00000KT 9SM CLR 10/03 A3011 4210 60 4600 000/00 RMK AO2 T01000028
94299KAAT AAT20160817053510908/17/16 05:35:31  5-MIN KAAT 171335Z AUTO 00000KT 10SM CLR 11/03 A3011 4210 61 4700 000/00 RMK AO2 T01060033
94299KAAT AAT20160817054010908/17/16 05:40:31  5-MIN KAAT 171340Z AUTO 00000KT 10SM CLR 10/03 A3011 4210 63 4600 000/00 RMK AO2 T01000033
94299KAAT AAT20160817054510908/17/16 05:45:31  5-MIN KAAT 171345Z AUTO 00000KT 10SM CLR 10/03 A3011 4210 63 4600 000/00 RMK AO2 T01000033
94299KAAT AAT20160817055011608/17/16 05:50:31  5-MIN KAAT 171350Z AUTO 00000KT 10SM CLR 11/03 A3011 4210 61 4700 000/00 RMK AO2 SLP149 T01060033
94299KAAT AAT20160817055511608/17/16 05:55:31  5-MIN KAAT 171355Z AUTO 00000KT 10SM CLR 11/04 A3011 4210 61 4800 000/00 RMK AO2 SLP149 T01110039
94299KAAT AAT20160817060010908/17/16 06:00:31  5-MIN KAAT 171400Z AUTO 00000KT 10SM CLR 12/04 A3011 4210 61 4800 000/00 RMK AO2 T01170044
94299KAAT AAT20160817060510908/17/16 06:05:31  5-MIN KAAT 171405Z AUTO 00000KT 10SM CLR 12/04 A3011 4210 59 4900 000/00 RMK AO2 T01220044
94299KAAT AAT20160817061010908/17/16 06:10:31  5-MIN KAAT 171410Z AUTO 00000KT 10SM CLR 13/04 A3011 4200 54 5000 000/00 RMK AO2 T01330044
94299KAAT AAT20160817061510908/17/16 06:15:31  5-MIN KAAT 171415Z AUTO 00000KT 10SM CLR 14/04 A3011 4200 52 5100 000/00 RMK AO2 T01390044
94299KAAT AAT20160817062010908/17/16 06:20:31  5-MIN KAAT 171420Z AUTO 00000KT 10SM CLR 14/04 A3011 4200 51 5100 000/00 RMK AO2 T01440044
94299KAAT AAT20160817062510908/17/16 06:25:31  5-MIN KAAT 171425Z AUTO 00000KT 10SM CLR 14/04 A3011 4200 51 5100 000/00 RMK AO2 T01440044
94299KAAT AAT20160817063010908/17/16 06:30:31  5-MIN KAAT 171430Z AUTO 00000KT 10SM CLR 15/04 A3012 4200 49 5200 000/00 RMK AO2 T01500044
94299KAAT AAT20160817063510908/17/16 06:35:31  5-MIN KAAT 171435Z AUTO 00000KT 10SM CLR 15/04 A3012 4200 49 5200 000/00 RMK AO2 T01500044
94299KAAT AAT20160817064010908/17/16 06:40:31  5-MIN KAAT 171440Z AUTO 00000KT 10SM CLR 15/04 A3012 4200 49 5200 000/00 RMK AO2 T01500044
94299KAAT AAT20160817064510908/17/16 06:45:31  5-MIN KAAT 171445Z AUTO 00000KT 10SM CLR 16/05 A3012 4200 49 5300 000/00 RMK AO2 T01560050
94299KAAT AAT20160817065012208/17/16 06:50:31  5-MIN KAAT 171450Z AUTO 00000KT 10SM CLR 16/05 A3012 4200 47 5300 000/00 RMK AO2 SLP149 T01610050 50000
94299KAAT AAT20160817065512208/17/16 06:55:31  5-MIN KAAT 171455Z AUTO 00000KT 10SM CLR 17/05 A3012 4200 45 5400 000/00 RMK AO2 SLP149 T01670050 53006
94299KAAT AAT20160817070010908/17/16 07:00:31  5-MIN KAAT 171500Z AUTO 00000KT 10SM CLR 17/04 A3011 4200 42 5500 000/00 RMK AO2 T01720044
94299KAAT AAT20160817070510908/17/16 07:05:31  5-MIN KAAT 171505Z AUTO 00000KT 10SM CLR 18/05 A3012 4200 42 5500 000/00 RMK AO2 T01780050
94299KAAT AAT20160817071010908/17/16 07:10:31  5-MIN KAAT 171510Z AUTO 00000KT 10SM CLR 18/05 A3012 4200 42 5500 000/00 RMK AO2 T01780050
94299KAAT AAT20160817071510908/17/16 07:15:31  5-MIN KAAT 171515Z AUTO 00000KT 10SM CLR 18/05 A3011 4200 41 5600 000/00 RMK AO2 T01830050
94299KAAT AAT20160817072010908/17/16 07:20:31  5-MIN KAAT 171520Z AUTO 00000KT 10SM CLR 18/05 A3011 4200 41 5600 000/00 RMK AO2 T01830050
94299KAAT AAT20160817072510908/17/16 07:25:31  5-MIN KAAT 171525Z AUTO 00000KT 10SM CLR 18/05 A3011 4200 41 5600 000/00 RMK AO2 T01830050
94299KAAT AAT20160817073010908/17/16 07:30:31  5-MIN KAAT 171530Z AUTO 00000KT 10SM CLR 19/05 A3011 4200 39 5600 000/00 RMK AO2 T01890050
94299KAAT AAT20160817073510908/17/16 07:35:31  5-MIN KAAT 171535Z AUTO 00000KT 10SM CLR 19/05 A3011 4200 39 5700 000/00 RMK AO2 T01890050
94299KAAT AAT20160817074010908/17/16 07:40:31  5-MIN KAAT 171540Z AUTO 00000KT 10SM CLR 19/05 A3011 4200 38 5700 000/00 RMK AO2 T01940050
94299KAAT AAT20160817074510908/17/16 07:45:31  5-MIN KAAT 171545Z AUTO 00000KT 10SM CLR 19/05 A3011 4200 38 5700 000/00 RMK AO2 T01940050
94299KAAT AAT20160817075011608/17/16 07:50:31  5-MIN KAAT 171550Z AUTO 15004KT 10SM CLR 20/05 A3011 4210 37 5800 130/04 RMK AO2 SLP146 T02000050
94299KAAT AAT20160817075511608/17/16 07:55:31  5-MIN KAAT 171555Z AUTO 15003KT 10SM CLR 20/06 A3011 4210 38 5800 130/03 RMK AO2 SLP146 T02000056
94299KAAT AAT20160817080010908/17/16 08:00:31  5-MIN KAAT 171600Z AUTO VRB03KT 10SM CLR 21/06 A3011 4210 37 5800 VRB/03 RMK AO2 T02060056
94299KAAT AAT20160817080510908/17/16 08:05:31  5-MIN KAAT 171605Z AUTO 13003KT 10SM CLR 21/06 A3011 4210 37 5800 120/03 RMK AO2 T02060056
94299KAAT AAT20160817081010908/17/16 08:10:31  5-MIN KAAT 171610Z AUTO 00000KT 10SM CLR 21/05 A3011 4210 34 5900 000/00 RMK AO2 T02110050
94299KAAT AAT20160817081510908/17/16 08:15:31  5-MIN KAAT 171615Z AUTO 00000KT 10SM CLR 21/06 A3011 4210 36 5900 000/00 RMK AO2 T02110056
94299KAAT AAT20160817082010908/17/16 08:20:31  5-MIN KAAT 171620Z AUTO 00000KT 10SM CLR 22/06 A3011 4210 34 6000 000/00 RMK AO2 T02170056
94299KAAT AAT20160817082510908/17/16 08:25:31  5-MIN KAAT 171625Z AUTO 08003KT 10SM CLR 22/06 A3011 4210 34 6000 070/03 RMK AO2 T02170056
94299KAAT AAT20160817083010908/17/16 08:30:31  5-MIN KAAT 171630Z AUTO VRB03KT 10SM CLR 22/05 A3011 4210 32 6000 VRB/03 RMK AO2 T02220050
94299KAAT AAT20160817083510908/17/16 08:35:31  5-MIN KAAT 171635Z AUTO 00000KT 10SM CLR 22/05 A3010 4210 32 6000 000/00 RMK AO2 T02220050
94299KAAT AAT20160817084010908/17/16 08:40:31  5-MIN KAAT 171640Z AUTO 00000KT 10SM CLR 22/05 A3010 4210 32 6000 000/00 RMK AO2 T02220050
94299KAAT AAT20160817084510908/17/16 08:45:31  5-MIN KAAT 171645Z AUTO 00000KT 10SM CLR 23/05 A3010 4210 31 6100 000/00 RMK AO2 T02280050
94299KAAT AAT20160817085011608/17/16 08:50:31  5-MIN KAAT 171650Z AUTO 00000KT 10SM CLR 23/05 A3010 4210 31 6100 000/00 RMK AO2 SLP141 T02280050
94299KAAT AAT20160817085511608/17/16 08:55:31  5-MIN KAAT 171655Z AUTO 00000KT 10SM CLR 24/05 A3010 4210 29 6200 000/00 RMK AO2 SLP140 T02390050
94299KAAT AAT20160817090010908/17/16 09:00:31  5-MIN KAAT 171700Z AUTO 00000KT 10SM CLR 24/05 A3010 4210 28 6300 000/00 RMK AO2 T02440050
94299KAAT AAT20160817090510908/17/16 09:05:31  5-MIN KAAT 171705Z AUTO 09003KT 10SM CLR 24/05 A3010 4210 28 6300 070/03 RMK AO2 T02440050
94299KAAT AAT20160817091010908/17/16 09:10:31  5-MIN KAAT 171710Z AUTO VRB03KT 10SM CLR 25/05 A3010 4220 27 6300 VRB/03 RMK AO2 T02500050
94299KAAT AAT20160817091510908/17/16 09:15:31  5-MIN KAAT 171715Z AUTO 06003KT 10SM CLR 25/05 A3010 4220 27 6300 040/03 RMK AO2 T02500050
94299KAAT AAT20160817092010908/17/16 09:20:31  5-MIN KAAT 171720Z AUTO 29003KT 10SM CLR 25/05 A3010 4220 27 6300 270/03 RMK AO2 T02500050
94299KAAT AAT20160817092510908/17/16 09:25:31  5-MIN KAAT 171725Z AUTO VRB03KT 10SM CLR 25/05 A3009 4220 27 6300 VRB/03 RMK AO2 T02500050
94299KAAT AAT20160817093010908/17/16 09:30:31  5-MIN KAAT 171730Z AUTO 07003KT 10SM CLR 26/04 A3009 4220 24 6500 060/03 RMK AO2 T02610044
94299KAAT AAT20160817093510908/17/16 09:35:31  5-MIN KAAT 171735Z AUTO 00000KT 10SM CLR 26/04 A3009 4220 25 6400 000/00 RMK AO2 T02560044
94299KAAT AAT20160817094010908/17/16 09:40:31  5-MIN KAAT 171740Z AUTO 00000KT 10SM CLR 27/04 A3009 4220 23 6500 000/00 RMK AO2 T02670044
94299KAAT AAT20160817094510908/17/16 09:45:31  5-MIN KAAT 171745Z AUTO VRB04KT 10SM CLR 27/04 A3009 4220 23 6500 VRB/04 RMK AO2 T02670044
94299KAAT AAT20160817095013408/17/16 09:50:31  5-MIN KAAT 171750Z AUTO 33003KT 10SM CLR 27/04 A3009 4230 23 6500 310/03 RMK AO2 SLP133 T02670044 10267 20100 53006
94299KAAT AAT20160817095513408/17/16 09:55:31  5-MIN KAAT 171755Z AUTO 00000KT 10SM CLR 27/04 A3009 4230 23 6500 000/00 RMK AO2 SLP133 T02670044 10267 20100 58009
94299KAAT AAT20160817100010908/17/16 10:00:31  5-MIN KAAT 171800Z AUTO VRB03KT 10SM CLR 27/04 A3008 4230 23 6600 VRB/03 RMK AO2 T02720044
94299KAAT AAT20160817100510908/17/16 10:05:31  5-MIN KAAT 171805Z AUTO 00000KT 10SM CLR 28/04 A3008 4230 22 6700 000/00 RMK AO2 T02780044
94299KAAT AAT20160817101010908/17/16 10:10:31  5-MIN KAAT 171810Z AUTO VRB03KT 10SM CLR 28/04 A3008 4230 21 6700 VRB/03 RMK AO2 T02830044
94299KAAT AAT20160817101510908/17/16 10:15:31  5-MIN KAAT 171815Z AUTO 27004KT 10SM CLR 27/04 A3008 4240 23 6600 260/04 RMK AO2 T02720044
94299KAAT AAT20160817102010908/17/16 10:20:31  5-MIN KAAT 171820Z AUTO VRB03KT 10SM CLR 27/04 A3007 4240 22 6600 VRB/03 RMK AO2 T02720039
94299KAAT AAT20160817102510908/17/16 10:25:31  5-MIN KAAT 171825Z AUTO VRB03KT 10SM CLR 28/04 A3007 4240 21 6700 VRB/03 RMK AO2 T02830044
94299KAAT AAT20160817103010908/17/16 10:30:31  5-MIN KAAT 171830Z AUTO 30004KT 10SM CLR 29/04 A3007 4240 20 6800 290/04 RMK AO2 T02890039
94299KAAT AAT20160817103510908/17/16 10:35:31  5-MIN KAAT 171835Z AUTO VRB03KT 10SM CLR 28/03 A3007 4240 20 6700 VRB/03 RMK AO2 T02830033
94299KAAT AAT20160817104010908/17/16 10:40:31  5-MIN KAAT 171840Z AUTO 00000KT 10SM CLR 29/03 A3007 4240 19 6800 000/00 RMK AO2 T02890033
94299KAAT AAT20160817104510908/17/16 10:45:31  5-MIN KAAT 171845Z AUTO VRB04KT 10SM CLR 29/03 A3007 4250 19 6800 VRB/04 RMK AO2 T02890033
94299KAAT AAT20160817105011608/17/16 10:50:31  5-MIN KAAT 171850Z AUTO VRB03KT 10SM CLR 29/03 A3007 4250 18 6900 VRB/03 RMK AO2 SLP126 T02940033
94299KAAT AAT20160817105511608/17/16 10:55:31  5-MIN KAAT 171855Z AUTO VRB04KT 10SM CLR 29/03 A3006 4250 18 6900 VRB/04 RMK AO2 SLP124 T02940028
94299KAAT AAT20160817110010908/17/16 11:00:31  5-MIN KAAT 171900Z AUTO VRB03KT 10SM CLR 30/03 A3006 4250 18 6900 VRB/03 RMK AO2 T03000033
94299KAAT AAT20160817110510908/17/16 11:05:31  5-MIN KAAT 171905Z AUTO 00000KT 10SM CLR 31/03 A3006 4250 16 7000 000/00 RMK AO2 T03060028
94299KAAT AAT20160817111010908/17/16 11:10:31  5-MIN KAAT 171910Z AUTO 00000KT 10SM CLR 31/03 A3006 4260 16 7100 000/00 RMK AO2 T03110028
94299KAAT AAT20160817111510908/17/16 11:15:31  5-MIN KAAT 171915Z AUTO 36005KT 10SM CLR 31/02 A3006 4260 16 7000 350/05 RMK AO2 T03060022
94299KAAT AAT20160817112010908/17/16 11:20:31  5-MIN KAAT 171920Z AUTO 33004KT 10SM CLR 31/02 A3005 4260 15 7100 310/04 RMK AO2 T03110022
94299KAAT AAT20160817112510908/17/16 11:25:31  5-MIN KAAT 171925Z AUTO VRB03KT 10SM CLR 32/02 A3005 4260 15 7100 VRB/03 RMK AO2 T03170022
94299KAAT AAT20160817113010908/17/16 11:30:31  5-MIN KAAT 171930Z AUTO VRB04KT 10SM CLR 31/02 A3005 4260 15 7100 VRB/04 RMK AO2 T03110017
94299KAAT AAT20160817113510908/17/16 11:35:31  5-MIN KAAT 171935Z AUTO VRB03KT 10SM CLR 32/01 A3005 4260 14 7100 VRB/03 RMK AO2 T03170011
94299KAAT AAT20160817114010908/17/16 11:40:31  5-MIN KAAT 171940Z AUTO VRB03KT 10SM CLR 31/01 A3005 4270 14 7100 VRB/03 RMK AO2 T03110011
94299KAAT AAT20160817114510908/17/16 11:45:31  5-MIN KAAT 171945Z AUTO 04005KT 10SM CLR 32/02 A3004 4270 14 7200 020/05 RMK AO2 T03220017
94299KAAT AAT20160817115011608/17/16 11:50:31  5-MIN KAAT 171950Z AUTO VRB03KT 10SM CLR 32/01 A3004 4270 13 7200 VRB/03 RMK AO2 SLP112 T03220011
94299KAAT AAT20160817115511608/17/16 11:55:31  5-MIN KAAT 171955Z AUTO 30007KT 10SM CLR 32/01 A3004 4270 13 7200 290/07 RMK AO2 SLP113 T03220011
94299KAAT AAT20160817120010908/17/16 12:00:31  5-MIN KAAT 172000Z AUTO 24005KT 10SM CLR 32/01 A3004 4270 13 7200 220/05 RMK AO2 T03220011
94299KAAT AAT20160817120510908/17/16 12:05:31  5-MIN KAAT 172005Z AUTO 28004KT 10SM CLR 32/01 A3004 4280 13 7200 270/04 RMK AO2 T03220011
94299KAAT AAT20160817121010908/17/16 12:10:31  5-MIN KAAT 172010Z AUTO VRB04KT 10SM CLR 32/01 A3003 4280 13 7200 VRB/04 RMK AO2 T03220006
94299KAAT AAT20160817121510908/17/16 12:15:31  5-MIN KAAT 172015Z AUTO VRB03KT 10SM CLR 32/01 A3003 4280 13 7100 VRB/03 RMK AO2 T03170006
94299KAAT AAT20160817122010908/17/16 12:20:31  5-MIN KAAT 172020Z AUTO VRB03KT 10SM CLR 32/01 A3003 4280 13 7100 VRB/03 RMK AO2 T03170006
94299KAAT AAT20160817122510908/17/16 12:25:31  5-MIN KAAT 172025Z AUTO 00000KT 10SM CLR 33/01 A3003 4280 12 7300 000/00 RMK AO2 T03280006
94299KAAT AAT20160817123010908/17/16 12:30:31  5-MIN KAAT 172030Z AUTO 34005KT 10SM CLR 33/01 A3003 4280 12 7300 320/05 RMK AO2 T03330006
94299KAAT AAT20160817123509908/17/16 12:35:31  5-MIN KAAT 172035Z AUTO 10SM CLR 33/01 A3002 4280 12 7300 M /M RMK AO2 T03280006
94299KAAT AAT20160817124010908/17/16 12:40:31  5-MIN KAAT 172040Z AUTO VRB03KT 10SM CLR 33/01 A3002 4290 12 7300 VRB/03 RMK AO2 T03330006
94299KAAT AAT20160817124510908/17/16 12:45:31  5-MIN KAAT 172045Z AUTO VRB03KT 10SM CLR 34/01 A3002 4290 12 7400 VRB/03 RMK AO2 T03390006
94299KAAT AAT20160817125012208/17/16 12:50:31  5-MIN KAAT 172050Z AUTO 00000KT 10SM CLR 33/00 A3002 4290 11 7300 000/00 RMK AO2 SLP107 T03330000 58009
94299KAAT AAT20160817125512208/17/16 12:55:31  5-MIN KAAT 172055Z AUTO VRB05KT 10SM CLR 33/00 A3002 4290 11 7300 VRB/05 RMK AO2 SLP108 T03330000 57020
94299KAAT AAT20160817130010908/17/16 13:00:31  5-MIN KAAT 172100Z AUTO 25007KT 10SM CLR 34/00 A3002 4290 11 7400 240/07 RMK AO2 T03390000
94299KAAT AAT20160817130510908/17/16 13:05:31  5-MIN KAAT 172105Z AUTO VRB04KT 10SM CLR 33/00 A3001 4300 11 7300 VRB/04 RMK AO2 T03330000
94299KAAT AAT20160817131010908/17/16 13:10:31  5-MIN KAAT 172110Z AUTO 29003KT 10SM CLR 33/00 A3001 4300 11 7300 280/03 RMK AO2 T03330000
94299KAAT AAT20160817131510908/17/16 13:15:31  5-MIN KAAT 172115Z AUTO 31005KT 10SM CLR 33/00 A3001 4300 11 7300 300/05 RMK AO2 T03330000
94299KAAT AAT20160817132010908/17/16 13:20:31  5-MIN KAAT 172120Z AUTO 00000KT 10SM CLR 33/00 A3001 4300 11 7300 000/00 RMK AO2 T03330000
94299KAAT AAT20160817132510908/17/16 13:25:31  5-MIN KAAT 172125Z AUTO 02006KT 10SM CLR 34/00 A3001 4300 11 7500 360/06 RMK AO2 T03440000
94299KAAT AAT20160817133010908/17/16 13:30:31  5-MIN KAAT 172130Z AUTO VRB03KT 10SM CLR 35/00 A3001 4300 10 7500 VRB/03 RMK AO2 T03500000
94299KAAT AAT20160817133510008/17/16 13:35:31  5-MIN KAAT 172135Z AUTO 10SM CLR 34/M01 A3000 4300 10 7500 M /M RMK AO2 T03441006
94299KAAT AAT20160817134011008/17/16 13:40:31  5-MIN KAAT 172140Z AUTO 00000KT 10SM CLR 34/M01 A3000 4310 10 7500 000/00 RMK AO2 T03441006
94299KAAT AAT20160817134511008/17/16 13:45:31  5-MIN KAAT 172145Z AUTO VRB03KT 10SM CLR 34/M01 A3000 4310 10 7500 VRB/03 RMK AO2 T03441006
94299KAAT AAT20160817135011708/17/16 13:50:31  5-MIN KAAT 172150Z AUTO 26005KT 10SM CLR 34/M01 A3000 4310 10 7500 250/05 RMK AO2 SLP102 T03441011
94299KAAT AAT20160817135511708/17/16 13:55:31  5-MIN KAAT 172155Z AUTO 23003KT 10SM CLR 34/M02 A3000 4310 09 7500 210/03 RMK AO2 SLP102 T03441017
94299KAAT AAT20160817140012608/17/16 14:00:31  5-MIN KAAT 172200Z AUTO 26007KT 220V320 10SM CLR 34/M02 A2999 4310 09 7500 250/07 210V310 RMK AO2 T03441017
94299KAAT AAT20160817140511008/17/16 14:05:31  5-MIN KAAT 172205Z AUTO 25008KT 10SM CLR 35/M02 A2999 4310 09 7500 230/08 RMK AO2 T03501017
94299KAAT AAT20160817141011008/17/16 14:10:31  5-MIN KAAT 172210Z AUTO 32007KT 10SM CLR 35/M02 A2999 4320 09 7500 310/07 RMK AO2 T03501022
94299KAAT AAT20160817141511008/17/16 14:15:31  5-MIN KAAT 172215Z AUTO 31008KT 10SM CLR 35/M03 A2999 4320 08 7500 290/08 RMK AO2 T03501028
94299KAAT AAT20160817142011008/17/16 14:20:31  5-MIN KAAT 172220Z AUTO 32008KT 10SM CLR 34/M03 A2999 4320 09 7500 300/08 RMK AO2 T03441028
94299KAAT AAT20160817142511008/17/16 14:25:31  5-MIN KAAT 172225Z AUTO 31006KT 10SM CLR 34/M03 A2999 4320 09 7500 290/06 RMK AO2 T03441028
94299KAAT AAT20160817143011008/17/16 14:30:31  5-MIN KAAT 172230Z AUTO 31006KT 10SM CLR 35/M02 A2999 4320 09 7500 300/06 RMK AO2 T03501022
94299KAAT AAT20160817143511008/17/16 14:35:31  5-MIN KAAT 172235Z AUTO VRB03KT 10SM CLR 34/M02 A2998 4320 09 7500 VRB/03 RMK AO2 T03441022
94299KAAT AAT20160817144011008/17/16 14:40:31  5-MIN KAAT 172240Z AUTO 01004KT 10SM CLR 35/M03 A2998 4320 08 7500 360/04 RMK AO2 T03501028
94299KAAT AAT20160817144511008/17/16 14:45:31  5-MIN KAAT 172245Z AUTO 14003KT 10SM CLR 34/M03 A2998 4330 09 7400 120/03 RMK AO2 T03391033
94299KAAT AAT20160817145011708/17/16 14:50:31  5-MIN KAAT 172250Z AUTO VRB04KT 10SM CLR 34/M03 A2998 4330 08 7500 VRB/04 RMK AO2 SLP098 T03441033
94299KAAT AAT20160817145511708/17/16 14:55:31  5-MIN KAAT 172255Z AUTO 00000KT 10SM CLR 35/M03 A2998 4330 08 7600 000/00 RMK AO2 SLP097 T03501033
94299KAAT AAT20160817150010008/17/16 15:00:31  5-MIN KAAT 172300Z AUTO 10SM CLR 34/M03 A2998 4330 08 7500 M /M RMK AO2 T03441033
94299KAAT AAT20160817150511008/17/16 15:05:31  5-MIN KAAT 172305Z AUTO 23005KT 10SM CLR 34/M03 A2997 4330 09 7400 210/05 RMK AO2 T03391033
94299KAAT AAT20160817151011008/17/16 15:10:31  5-MIN KAAT 172310Z AUTO VRB04KT 10SM CLR 34/M03 A2997 4330 09 7400 VRB/04 RMK AO2 T03391033
94299KAAT AAT20160817151511008/17/16 15:15:31  5-MIN KAAT 172315Z AUTO 19005KT 10SM CLR 35/M03 A2997 4340 08 7600 170/05 RMK AO2 T03501033
94299KAAT AAT20160817152011008/17/16 15:20:31  5-MIN KAAT 172320Z AUTO 16004KT 10SM CLR 35/M03 A2997 4340 08 7600 140/04 RMK AO2 T03501033
94299KAAT AAT20160817152511008/17/16 15:25:31  5-MIN KAAT 172325Z AUTO VRB03KT 10SM CLR 34/M03 A2997 4340 08 7500 VRB/03 RMK AO2 T03441033
94299KAAT AAT20160817153010008/17/16 15:30:31  5-MIN KAAT 172330Z AUTO 10SM CLR 36/M02 A2997 4340 09 7600 M /M RMK AO2 T03561022
94299KAAT AAT20160817153511008/17/16 15:35:31  5-MIN KAAT 172335Z AUTO 28004KT 10SM CLR 34/M02 A2997 4330 09 7500 270/04 RMK AO2 T03441022
94299KAAT AAT20160817154011008/17/16 15:40:31  5-MIN KAAT 172340Z AUTO 32006KT 10SM CLR 34/M02 A2997 4340 09 7500 300/06 RMK AO2 T03441017
94299KAAT AAT20160817154512608/17/16 15:45:31  5-MIN KAAT 172345Z AUTO 31007KT 280V010 10SM CLR 35/M02 A2997 4340 09 7600 290/07 270V360 RMK AO2 T03501017
94299KAAT AAT20160817155012508/17/16 15:50:31  5-MIN KAAT 172350Z AUTO 10SM CLR 34/M02 A2996 4340 09 7500 M /M RMK AO2 SLP095 T03441017 10356 20267 57020
94299KAAT AAT20160817155513508/17/16 15:55:31  5-MIN KAAT 172355Z AUTO VRB03KT 10SM CLR 35/M02 A2997 4340 09 7600 VRB/03 RMK AO2 SLP095 T03501017 10356 20267 56016
94299KAAT AAT20160817160011008/17/16 16:00:31  5-MIN KAAT 180000Z AUTO 27007KT 10SM CLR 34/M02 A2996 4340 09 7500 250/07 RMK AO2 T03441017
94299KAAT AAT20160817160511008/17/16 16:05:31  5-MIN KAAT 180005Z AUTO VRB05KT 10SM CLR 34/M02 A2996 4340 09 7500 VRB/05 RMK AO2 T03441017
94299KAAT AAT20160817161011008/17/16 16:10:31  5-MIN KAAT 180010Z AUTO 29008KT 10SM CLR 35/M02 A2996 4340 09 7600 270/08 RMK AO2 T03501017
94299KAAT AAT20160817161511008/17/16 16:15:31  5-MIN KAAT 180015Z AUTO VRB03KT 10SM CLR 34/M02 A2996 4340 09 7500 VRB/03 RMK AO2 T03441017
94299KAAT AAT20160817162011008/17/16 16:20:31  5-MIN KAAT 180020Z AUTO 00000KT 10SM CLR 34/M02 A2996 4350 09 7500 000/00 RMK AO2 T03391022
94299KAAT AAT20160817162511008/17/16 16:25:31  5-MIN KAAT 180025Z AUTO 12004KT 10SM CLR 34/M02 A2996 4350 09 7500 100/04 RMK AO2 T03391022
94299KAAT AAT20160817163011008/17/16 16:30:31  5-MIN KAAT 180030Z AUTO 32004KT 10SM CLR 34/M02 A2996 4340 09 7500 310/04 RMK AO2 T03441022
94299KAAT AAT20160817163511008/17/16 16:35:31  5-MIN KAAT 180035Z AUTO 31008KT 10SM CLR 34/M02 A2996 4350 09 7500 300/08 RMK AO2 T03441022
94299KAAT AAT20160817164011008/17/16 16:40:31  5-MIN KAAT 180040Z AUTO 31008KT 10SM CLR 34/M03 A2996 4350 09 7500 300/08 RMK AO2 T03441028
94299KAAT AAT20160817164511008/17/16 16:45:31  5-MIN KAAT 180045Z AUTO VRB05KT 10SM CLR 34/M03 A2996 4350 09 7500 VRB/05 RMK AO2 T03441028
94299KAAT AAT20160817165011708/17/16 16:50:31  5-MIN KAAT 180050Z AUTO 31006KT 10SM CLR 34/M02 A2996 4350 09 7500 290/06 RMK AO2 SLP096 T03441017
94299KAAT AAT20160817165511708/17/16 16:55:31  5-MIN KAAT 180055Z AUTO 32009KT 10SM CLR 34/M02 A2996 4350 09 7500 300/09 RMK AO2 SLP096 T03441022
94299KAAT AAT20160817170011008/17/16 17:00:31  5-MIN KAAT 180100Z AUTO 31009KT 10SM CLR 34/M03 A2996 4340 09 7500 290/09 RMK AO2 T03441028
94299KAAT AAT20160817170511008/17/16 17:05:31  5-MIN KAAT 180105Z AUTO 31008KT 10SM CLR 33/M03 A2996 4350 09 7400 290/08 RMK AO2 T03331028
94299KAAT AAT20160817171011008/17/16 17:10:31  5-MIN KAAT 180110Z AUTO 31007KT 10SM CLR 34/M02 A2996 4350 10 7500 290/07 RMK AO2 T03391017
94299KAAT AAT20160817171511008/17/16 17:15:31  5-MIN KAAT 180115Z AUTO 31006KT 10SM CLR 34/M03 A2996 4350 09 7500 300/06 RMK AO2 T03391028
94299KAAT AAT20160817172011008/17/16 17:20:31  5-MIN KAAT 180120Z AUTO 31006KT 10SM CLR 33/M02 A2996 4350 10 7400 290/06 RMK AO2 T03331017
94299KAAT AAT20160817172511008/17/16 17:25:31  5-MIN KAAT 180125Z AUTO 31005KT 10SM CLR 33/M02 A2996 4350 10 7400 300/05 RMK AO2 T03331022
94299KAAT AAT20160817173011008/17/16 17:30:31  5-MIN KAAT 180130Z AUTO 32005KT 10SM CLR 33/M02 A2996 4350 10 7400 310/05 RMK AO2 T03331017
94299KAAT AAT20160817173511008/17/16 17:35:31  5-MIN KAAT 180135Z AUTO 32005KT 10SM CLR 33/M02 A2995 4350 10 7400 300/05 RMK AO2 T03331017
94299KAAT AAT20160817174011008/17/16 17:40:31  5-MIN KAAT 180140Z AUTO 31004KT 10SM CLR 33/M02 A2995 4350 10 7400 290/04 RMK AO2 T03331017
94299KAAT AAT20160817174511008/17/16 17:45:31  5-MIN KAAT 180145Z AUTO 31004KT 10SM CLR 33/M02 A2995 4350 10 7400 300/04 RMK AO2 T03331017
94299KAAT AAT20160817175011708/17/16 17:50:31  5-MIN KAAT 180150Z AUTO 31004KT 10SM CLR 33/M02 A2995 4350 10 7400 300/04 RMK AO2 SLP095 T03331017
94299KAAT AAT20160817175511708/17/16 17:55:31  5-MIN KAAT 180155Z AUTO 29005KT 10SM CLR 33/M02 A2995 4350 10 7300 280/05 RMK AO2 SLP094 T03281022
94299KAAT AAT20160817180011008/17/16 18:00:31  5-MIN KAAT 180200Z AUTO 30004KT 10SM CLR 33/M03 A2995 4350 10 7300 280/04 RMK AO2 T03281028
94299KAAT AAT20160817180511008/17/16 18:05:31  5-MIN KAAT 180205Z AUTO 00000KT 10SM CLR 33/M02 A2995 4350 10 7300 000/00 RMK AO2 T03281022
94299KAAT AAT20160817181011008/17/16 18:10:31  5-MIN KAAT 180210Z AUTO 32003KT 10SM CLR 33/M02 A2996 4350 10 7300 310/03 RMK AO2 T03281022
94299KAAT AAT20160817181511008/17/16 18:15:31  5-MIN KAAT 180215Z AUTO 35003KT 10SM CLR 32/M02 A2996 4350 11 7300 330/03 RMK AO2 T03221017
94299KAAT AAT20160817182011008/17/16 18:20:31  5-MIN KAAT 180220Z AUTO 35004KT 10SM CLR 32/M02 A2996 4350 11 7300 340/04 RMK AO2 T03221017
94299KAAT AAT20160817182511008/17/16 18:25:31  5-MIN KAAT 180225Z AUTO 36005KT 10SM CLR 32/M01 A2996 4340 12 7200 340/05 RMK AO2 T03171011
94299KAAT AAT20160817183011008/17/16 18:30:31  5-MIN KAAT 180230Z AUTO 01006KT 10SM CLR 31/M01 A2996 4340 13 7200 360/06 RMK AO2 T03111006
94299KAAT AAT20160817183511008/17/16 18:35:31  5-MIN KAAT 180235Z AUTO 02005KT 10SM CLR 31/M01 A2996 4340 13 7200 010/05 RMK AO2 T03111006
94299KAAT AAT20160817184011008/17/16 18:40:31  5-MIN KAAT 180240Z AUTO 01003KT 10SM CLR 31/M01 A2996 4340 13 7100 350/03 RMK AO2 T03061006
94299KAAT AAT20160817184510908/17/16 18:45:31  5-MIN KAAT 180245Z AUTO VRB03KT 10SM CLR 30/00 A2997 4340 14 7000 VRB/03 RMK AO2 T03000000
94299KAAT AAT20160817185012208/17/16 18:50:31  5-MIN KAAT 180250Z AUTO 36005KT 10SM CLR 29/00 A2997 4340 14 7000 350/05 RMK AO2 SLP099 T02940000 56016
94299KAAT AAT20160817185512308/17/16 18:55:31  5-MIN KAAT 180255Z AUTO 36004KT 10SM CLR 29/M01 A2997 4340 14 7000 350/04 RMK AO2 SLP098 T02941006 53001
94299KAAT AAT20160817190010908/17/16 19:00:31  5-MIN KAAT 180300Z AUTO 04003KT 10SM CLR 29/00 A2997 4330 15 6900 030/03 RMK AO2 T02890000
94299KAAT AAT20160817190511008/17/16 19:05:31  5-MIN KAAT 180305Z AUTO 00000KT 10SM CLR 28/M01 A2998 4330 15 6800 000/00 RMK AO2 T02831006
94299KAAT AAT20160817191010908/17/16 19:10:31  5-MIN KAAT 180310Z AUTO 00000KT 10SM CLR 27/00 A2998 4330 16 6700 000/00 RMK AO2 T02720000
94299KAAT AAT20160817191509908/17/16 19:15:31  5-MIN KAAT 180315Z AUTO 10SM CLR 28/00 A2998 4320 16 6800 M /M RMK AO2 T02780000
94299KAAT AAT20160817192010908/17/16 19:20:31  5-MIN KAAT 180320Z AUTO 09006KT 10SM CLR 27/02 A2999 4320 20 6600 080/06 RMK AO2 T02670022
94299KAAT AAT20160817192510908/17/16 19:25:31  5-MIN KAAT 180325Z AUTO 05005KT 10SM CLR 27/02 A2999 4320 19 6700 040/05 RMK AO2 T02720017
94299KAAT AAT20160817193010908/17/16 19:30:31  5-MIN KAAT 180330Z AUTO 06007KT 10SM CLR 27/01 A2999 4320 18 6700 050/07 RMK AO2 T02720011
94299KAAT AAT20160817193510908/17/16 19:35:31  5-MIN KAAT 180335Z AUTO 05006KT 10SM CLR 28/01 A2999 4320 17 6800 040/06 RMK AO2 T02780011
94299KAAT AAT20160817194010908/17/16 19:40:31  5-MIN KAAT 180340Z AUTO 05006KT 10SM CLR 28/01 A2999 4320 17 6800 040/06 RMK AO2 T02830011
94299KAAT AAT20160817194510908/17/16 19:45:31  5-MIN KAAT 180345Z AUTO 07005KT 10SM CLR 28/01 A2999 4310 17 6800 050/05 RMK AO2 T02780011
94299KAAT AAT20160817195011608/17/16 19:50:31  5-MIN KAAT 180350Z AUTO 07005KT 10SM CLR 28/01 A3000 4310 17 6800 050/05 RMK AO2 SLP106 T02780011
94299KAAT AAT20160817195511608/17/16 19:55:31  5-MIN KAAT 180355Z AUTO 06005KT 10SM CLR 27/01 A3000 4310 18 6700 050/05 RMK AO2 SLP107 T02720011
94299KAAT AAT20160817200010908/17/16 20:00:31  5-MIN KAAT 180400Z AUTO 07004KT 10SM CLR 27/01 A3000 4310 18 6600 050/04 RMK AO2 T02670011
94299KAAT AAT20160817200510908/17/16 20:05:31  5-MIN KAAT 180405Z AUTO 06004KT 10SM CLR 27/02 A3000 4310 19 6600 050/04 RMK AO2 T02670017
94299KAAT AAT20160817201010908/17/16 20:10:31  5-MIN KAAT 180410Z AUTO 03003KT 10SM CLR 27/02 A3001 4300 19 6600 020/03 RMK AO2 T02670017
94299KAAT AAT20160817201510908/17/16 20:15:31  5-MIN KAAT 180415Z AUTO VRB03KT 10SM CLR 24/02 A3001 4300 24 6300 VRB/03 RMK AO2 T02390022
94299KAAT AAT20160817202010908/17/16 20:20:31  5-MIN KAAT 180420Z AUTO 00000KT 10SM CLR 23/02 A3001 4300 24 6300 000/00 RMK AO2 T02330022
94299KAAT AAT20160817202510908/17/16 20:25:31  5-MIN KAAT 180425Z AUTO VRB03KT 10SM CLR 25/02 A3001 4300 22 6400 VRB/03 RMK AO2 T02500022
94299KAAT AAT20160817203010908/17/16 20:30:31  5-MIN KAAT 180430Z AUTO 30003KT 10SM CLR 25/02 A3001 4300 22 6400 280/03 RMK AO2 T02500022
94299KAAT AAT20160817203510908/17/16 20:35:31  5-MIN KAAT 180435Z AUTO 31003KT 10SM CLR 25/03 A3001 4290 23 6400 290/03 RMK AO2 T02500028
94299KAAT AAT20160817204010908/17/16 20:40:31  5-MIN KAAT 180440Z AUTO 00000KT 10SM CLR 25/03 A3001 4290 23 6400 000/00 RMK AO2 T02500028
94299KAAT AAT20160817204510908/17/16 20:45:31  5-MIN KAAT 180445Z AUTO 35003KT 10SM CLR 24/02 A3001 4290 23 6400 340/03 RMK AO2 T02440022
94299KAAT AAT20160817205011608/17/16 20:50:31  5-MIN KAAT 180450Z AUTO 02004KT 10SM CLR 25/02 A3001 4290 22 6400 010/04 RMK AO2 SLP112 T02500022
94299KAAT AAT20160817205511608/17/16 20:55:31  5-MIN KAAT 180455Z AUTO 02005KT 10SM CLR 25/02 A3001 4290 21 6400 010/05 RMK AO2 SLP111 T02500017
94299KAAT AAT20160817210010908/17/16 21:00:31  5-MIN KAAT 180500Z AUTO 03004KT 10SM CLR 24/02 A3001 4300 22 6400 010/04 RMK AO2 T02440017
94299KAAT AAT20160817210510908/17/16 21:05:31  5-MIN KAAT 180505Z AUTO 05005KT 10SM CLR 25/02 A3001 4290 21 6400 030/05 RMK AO2 T02500017
94299KAAT AAT20160817211010908/17/16 21:10:31  5-MIN KAAT 180510Z AUTO 13007KT 10SM CLR 24/02 A3002 4290 24 6300 120/07 RMK AO2 T02390022
94299KAAT AAT20160817211510908/17/16 21:15:31  5-MIN KAAT 180515Z AUTO 14005KT 10SM CLR 23/03 A3002 4290 26 6200 120/05 RMK AO2 T02330033
94299KAAT AAT20160817212010908/17/16 21:20:31  5-MIN KAAT 180520Z AUTO 15004KT 10SM CLR 23/04 A3002 4290 28 6200 130/04 RMK AO2 T02330039
94299KAAT AAT20160817212510908/17/16 21:25:31  5-MIN KAAT 180525Z AUTO 16003KT 10SM CLR 21/04 A3002 4290 33 6000 150/03 RMK AO2 T02110044
94299KAAT AAT20160817213010908/17/16 21:30:31  5-MIN KAAT 180530Z AUTO 17003KT 10SM CLR 21/05 A3002 4290 35 5900 150/03 RMK AO2 T02060050
94299KAAT AAT20160817213510908/17/16 21:35:31  5-MIN KAAT 180535Z AUTO 00000KT 10SM CLR 21/04 A3002 4290 33 6000 000/00 RMK AO2 T02110044
94299KAAT AAT20160817214010908/17/16 21:40:31  5-MIN KAAT 180540Z AUTO 00000KT 10SM CLR 21/04 A3002 4290 33 6000 000/00 RMK AO2 T02110044
94299KAAT AAT20160817214510908/17/16 21:45:31  5-MIN KAAT 180545Z AUTO 01003KT 10SM CLR 22/04 A3002 4290 31 6100 360/03 RMK AO2 T02170039
94299KAAT AAT20160817215013408/17/16 21:50:31  5-MIN KAAT 180550Z AUTO 02005KT 10SM CLR 21/04 A3002 4290 33 5900 360/05 RMK AO2 SLP116 T02060039 10350 20206 53001
94299KAAT AAT20160817215513408/17/16 21:55:31  5-MIN KAAT 180555Z AUTO 02006KT 10SM CLR 21/04 A3003 4280 33 5900 360/06 RMK AO2 SLP116 T02060039 10350 20206 51017
94299KAAT AAT20160817220010908/17/16 22:00:31  5-MIN KAAT 180600Z AUTO 03006KT 10SM CLR 21/03 A3003 4280 30 6000 010/06 RMK AO2 T02110033
94299KAAT AAT20160817220510908/17/16 22:05:31  5-MIN KAAT 180605Z AUTO 04007KT 10SM CLR 21/03 A3003 4280 30 6000 020/07 RMK AO2 T02110033
94299KAAT AAT20160817221010908/17/16 22:10:31  5-MIN KAAT 180610Z AUTO 04007KT 10SM CLR 22/03 A3003 4280 28 6100 030/07 RMK AO2 T02170028
94299KAAT AAT20160817221510908/17/16 22:15:31  5-MIN KAAT 180615Z AUTO 04006KT 10SM CLR 21/03 A3002 4280 29 6000 030/06 RMK AO2 T02110028
94299KAAT AAT20160817222010908/17/16 22:20:31  5-MIN KAAT 180620Z AUTO VRB04KT 10SM CLR 21/03 A3003 4280 29 6000 VRB/04 RMK AO2 T02110028
94299KAAT AAT20160817222510908/17/16 22:25:31  5-MIN KAAT 180625Z AUTO 18004KT 10SM CLR 20/03 A3003 4280 31 5900 160/04 RMK AO2 T02000028
94299KAAT AAT20160817223010908/17/16 22:30:31  5-MIN KAAT 180630Z AUTO 18004KT 10SM CLR 19/03 A3003 4280 33 5800 170/04 RMK AO2 T01940028
94299KAAT AAT20160817223510908/17/16 22:35:31  5-MIN KAAT 180635Z AUTO 21007KT 10SM CLR 19/03 A3003 4280 35 5700 190/07 RMK AO2 T01890033
94299KAAT AAT20160817224010908/17/16 22:40:31  5-MIN KAAT 180640Z AUTO 18005KT 10SM CLR 19/03 A3003 4280 34 5700 160/05 RMK AO2 T01890028
94299KAAT AAT20160817224510908/17/16 22:45:31  5-MIN KAAT 180645Z AUTO 20005KT 10SM CLR 19/02 A3003 4280 32 5700 180/05 RMK AO2 T01890022
94299KAAT AAT20160817225011608/17/16 22:50:31  5-MIN KAAT 180650Z AUTO 00000KT 10SM CLR 18/02 A3003 4280 32 5700 000/00 RMK AO2 SLP118 T01830017
94299KAAT AAT20160817225511608/17/16 22:55:31  5-MIN KAAT 180655Z AUTO 00000KT 10SM CLR 19/02 A3003 4280 31 5800 000/00 RMK AO2 SLP116 T01940022
94299KAAT AAT20160817230010908/17/16 23:00:31  5-MIN KAAT 180700Z AUTO 00000KT 10SM CLR 20/02 A3003 4280 29 5900 000/00 RMK AO2 T02000017
94299KAAT AAT20160817230510908/17/16 23:05:31  5-MIN KAAT 180705Z AUTO 00000KT 10SM CLR 20/02 A3003 4280 29 5900 000/00 RMK AO2 T02000017
94299KAAT AAT20160817231010908/17/16 23:10:31  5-MIN KAAT 180710Z AUTO 15003KT 10SM CLR 19/02 A3003 4280 32 5700 140/03 RMK AO2 T01890022
94299KAAT AAT20160817231510908/17/16 23:15:31  5-MIN KAAT 180715Z AUTO 16004KT 10SM CLR 20/03 A3003 4280 31 5900 140/04 RMK AO2 T02000028
94299KAAT AAT20160817232010908/17/16 23:20:31  5-MIN KAAT 180720Z AUTO 00000KT 10SM CLR 18/02 A3004 4270 34 5700 000/00 RMK AO2 T01830022
94299KAAT AAT20160817232510908/17/16 23:25:31  5-MIN KAAT 180725Z AUTO 00000KT 10SM CLR 17/02 A3004 4270 35 5500 000/00 RMK AO2 T01720017
94299KAAT AAT20160817233010908/17/16 23:30:31  5-MIN KAAT 180730Z AUTO 05004KT 10SM CLR 17/02 A3004 4270 35 5500 030/04 RMK AO2 T01720017
94299KAAT AAT20160817233510908/17/16 23:35:31  5-MIN KAAT 180735Z AUTO 03011KT 10SM CLR 17/03 A3005 4260 37 5500 010/11 RMK AO2 T01720028
94299KAAT AAT20160817234010908/17/16 23:40:31  5-MIN KAAT 180740Z AUTO 04004KT 10SM CLR 18/04 A3005 4260 39 5700 020/04 RMK AO2 T01830044
94299KAAT AAT20160817234510908/17/16 23:45:31  5-MIN KAAT 180745Z AUTO 03005KT 10SM CLR 18/04 A3005 4260 39 5700 020/05 RMK AO2 T01830044
94299KAAT AAT20160817235012608/17/16 23:50:31  5-MIN KAAT 180750Z AUTO 06003KT 10SM CLR 18/04 A3005 4260 39 5600 040/03 RMK AO2 SLP122 T01780039 403560100
94299KAAT AAT20160817235512608/17/16 23:55:31  5-MIN KAAT 180755Z AUTO 23003KT 10SM CLR 17/04 A3005 4260 41 5500 210/03 RMK AO2 SLP123 T01720039 403560100
94299KAAT AAT20160818000010908/18/16 00:00:31  5-MIN KAAT 180800Z AUTO 22004KT 10SM CLR 18/03 A3005 4260 38 5600 210/04 RMK AO2 T01780033
94299KAAT AAT20160818000510908/18/16 00:05:31  5-MIN KAAT 180805Z AUTO 20004KT 10SM CLR 17/03 A3005 4260 40 5500 180/04 RMK AO2 T01670033
94299KAAT AAT20160818001010908/18/16 00:10:31  5-MIN KAAT 180810Z AUTO 19004KT 10SM CLR 18/03 A3005 4260 36 5600 180/04 RMK AO2 T01780028
94299KAAT AAT20160818001510908/18/16 00:15:31  5-MIN KAAT 180815Z AUTO 00000KT 10SM CLR 18/03 A3005 4260 36 5600 000/00 RMK AO2 T01780028
94299KAAT AAT20160818002010908/18/16 00:20:31  5-MIN KAAT 180820Z AUTO 00000KT 10SM CLR 19/03 A3005 4260 33 5800 000/00 RMK AO2 T01940028
94299KAAT AAT20160818002510908/18/16 00:25:31  5-MIN KAAT 180825Z AUTO 00000KT 10SM CLR 19/03 A3005 4260 34 5700 000/00 RMK AO2 T01890028
94299KAAT AAT20160818003010908/18/16 00:30:31  5-MIN KAAT 180830Z AUTO 00000KT 10SM CLR 18/03 A3005 4260 35 5700 000/00 RMK AO2 T01830028
94299KAAT AAT20160818003509908/18/16 00:35:31  5-MIN KAAT 180835Z AUTO 10SM CLR 17/03 A3005 4260 39 5500 M /M RMK AO2 T01670028
94299KAAT AAT20160818004009908/18/16 00:40:31  5-MIN KAAT 180840Z AUTO 10SM CLR 17/03 A3005 4260 39 5500 M /M RMK AO2 T01670028
94299KAAT AAT20160818004509908/18/16 00:45:31  5-MIN KAAT 180845Z AUTO 10SM CLR 18/03 A3005 4260 36 5600 M /M RMK AO2 T01780028
94299KAAT AAT20160818005011208/18/16 00:50:31  5-MIN KAAT 180850Z AUTO 10SM CLR 18/03 A3005 4260 36 5600 M /M RMK AO2 SLP120 T01780028 51017
94299KAAT AAT20160818005512208/18/16 00:55:31  5-MIN KAAT 180855Z AUTO 08003KT 10SM CLR 17/02 A3005 4260 36 5500 060/03 RMK AO2 SLP120 T01720022 50007
94299KAAT AAT20160818010010908/18/16 01:00:31  5-MIN KAAT 180900Z AUTO 06003KT 10SM CLR 17/03 A3005 4260 39 5500 050/03 RMK AO2 T01720033
94299KAAT AAT20160818010510908/18/16 01:05:31  5-MIN KAAT 180905Z AUTO 00000KT 10SM CLR 16/03 A3005 4260 42 5400 000/00 RMK AO2 T01610033
94299KAAT AAT20160818011010908/18/16 01:10:31  5-MIN KAAT 180910Z AUTO 00000KT 10SM CLR 16/04 A3005 4260 44 5400 000/00 RMK AO2 T01610039
94299KAAT AAT20160818011510908/18/16 01:15:31  5-MIN KAAT 180915Z AUTO 00000KT 10SM CLR 16/04 A3006 4260 45 5300 000/00 RMK AO2 T01560039
94299KAAT AAT20160818012010908/18/16 01:20:31  5-MIN KAAT 180920Z AUTO 00000KT 10SM CLR 15/04 A3006 4260 47 5300 000/00 RMK AO2 T01500039
94299KAAT AAT20160818012510908/18/16 01:25:31  5-MIN KAAT 180925Z AUTO 00000KT 10SM CLR 14/03 A3006 4260 47 5200 000/00 RMK AO2 T01440033
94299KAAT AAT20160818013010908/18/16 01:30:31  5-MIN KAAT 180930Z AUTO 00000KT 10SM CLR 14/03 A3006 4260 47 5200 000/00 RMK AO2 T01440033
94299KAAT AAT20160818013510908/18/16 01:35:31  5-MIN KAAT 180935Z AUTO 00000KT 10SM CLR 15/04 A3005 4260 47 5300 000/00 RMK AO2 T01500039
94299KAAT AAT20160818014010908/18/16 01:40:31  5-MIN KAAT 180940Z AUTO 00000KT 10SM CLR 16/04 A3006 4260 45 5300 000/00 RMK AO2 T01560039
94299KAAT AAT20160818014510908/18/16 01:45:31  5-MIN KAAT 180945Z AUTO 23004KT 10SM CLR 14/03 A3006 4260 47 5100 210/04 RMK AO2 T01390028
94299KAAT AAT20160818015011608/18/16 01:50:31  5-MIN KAAT 180950Z AUTO 24004KT 10SM CLR 13/03 A3006 4250 50 5000 230/04 RMK AO2 SLP128 T01280028
94299KAAT AAT20160818015511608/18/16 01:55:31  5-MIN KAAT 180955Z AUTO 00000KT 10SM CLR 13/04 A3006 4250 52 5100 000/00 RMK AO2 SLP128 T01330039
94299KAAT AAT20160818020010908/18/16 02:00:31  5-MIN KAAT 181000Z AUTO 19003KT 10SM CLR 14/04 A3006 4250 50 5100 170/03 RMK AO2 T01390039
94299KAAT AAT20160818020510908/18/16 02:05:31  5-MIN KAAT 181005Z AUTO 18004KT 10SM CLR 14/04 A3006 4250 50 5100 160/04 RMK AO2 T01390039
94299KAAT AAT20160818021010908/18/16 02:10:31  5-MIN KAAT 181010Z AUTO 15004KT 10SM CLR 15/03 A3006 4250 45 5300 140/04 RMK AO2 T01500033
94299KAAT AAT20160818021510908/18/16 02:15:31  5-MIN KAAT 181015Z AUTO 16005KT 10SM CLR 15/04 A3006 4250 47 5300 150/05 RMK AO2 T01500039
94299KAAT AAT20160818022010908/18/16 02:20:31  5-MIN KAAT 181020Z AUTO 00000KT 10SM CLR 15/04 A3006 4250 47 5300 000/00 RMK AO2 T01500039
94299KAAT AAT20160818022510908/18/16 02:25:31  5-MIN KAAT 181025Z AUTO 00000KT 10SM CLR 14/03 A3006 4250 47 5200 000/00 RMK AO2 T01440033
94299KAAT AAT20160818023010908/18/16 02:30:31  5-MIN KAAT 181030Z AUTO 00000KT 10SM CLR 14/03 A3006 4250 47 5100 000/00 RMK AO2 T01390028
94299KAAT AAT20160818023510908/18/16 02:35:31  5-MIN KAAT 181035Z AUTO 00000KT 10SM CLR 14/03 A3006 4250 48 5100 000/00 RMK AO2 T01390033
94299KAAT AAT20160818024010908/18/16 02:40:31  5-MIN KAAT 181040Z AUTO 00000KT 10SM CLR 14/04 A3006 4250 49 5200 000/00 RMK AO2 T01440039
94299KAAT AAT20160818024510908/18/16 02:45:31  5-MIN KAAT 181045Z AUTO 04003KT 10SM CLR 14/04 A3006 4250 49 5200 030/03 RMK AO2 T01440039
94299KAAT AAT20160818025011608/18/16 02:50:31  5-MIN KAAT 181050Z AUTO 05003KT 10SM CLR 14/04 A3006 4250 49 5200 040/03 RMK AO2 SLP127 T01440039
94299KAAT AAT20160818025511608/18/16 02:55:31  5-MIN KAAT 181055Z AUTO 04003KT 10SM CLR 14/04 A3006 4250 49 5200 020/03 RMK AO2 SLP126 T01440039
94299KAAT AAT20160818030010908/18/16 03:00:31  5-MIN KAAT 181100Z AUTO 00000KT 10SM CLR 14/04 A3006 4250 49 5200 000/00 RMK AO2 T01440039
94299KAAT AAT20160818030510908/18/16 03:05:31  5-MIN KAAT 181105Z AUTO 07003KT 10SM CLR 14/04 A3006 4250 49 5200 050/03 RMK AO2 T01440039
94299KAAT AAT20160818031010908/18/16 03:10:31  5-MIN KAAT 181110Z AUTO 12003KT 10SM CLR 14/04 A3007 4250 50 5100 110/03 RMK AO2 T01390039
94299KAAT AAT20160818031510908/18/16 03:15:31  5-MIN KAAT 181115Z AUTO 13003KT 10SM CLR 13/03 A3007 4250 50 5100 120/03 RMK AO2 T01330033
94299KAAT AAT20160818032010908/18/16 03:20:31  5-MIN KAAT 181120Z AUTO 00000KT 10SM CLR 14/04 A3007 4250 49 5200 000/00 RMK AO2 T01440039
94299KAAT AAT20160818032510908/18/16 03:25:31  5-MIN KAAT 181125Z AUTO 00000KT 10SM CLR 14/04 A3006 4250 49 5200 000/00 RMK AO2 T01440039
94299KAAT AAT20160818033010908/18/16 03:30:31  5-MIN KAAT 181130Z AUTO 00000KT 10SM CLR 14/04 A3007 4250 50 5100 000/00 RMK AO2 T01390039
94299KAAT AAT20160818033510908/18/16 03:35:31  5-MIN KAAT 181135Z AUTO 00000KT 10SM CLR 12/02 A3007 4250 52 4900 000/00 RMK AO2 T01170022
94299KAAT AAT20160818034010908/18/16 03:40:31  5-MIN KAAT 181140Z AUTO 00000KT 10SM CLR 12/03 A3007 4250 54 4900 000/00 RMK AO2 T01170028
94299KAAT AAT20160818034510908/18/16 03:45:31  5-MIN KAAT 181145Z AUTO 24003KT 10SM CLR 11/02 A3006 4250 54 4800 230/03 RMK AO2 T01110022
94299KAAT AAT20160818035013408/18/16 03:50:31  5-MIN KAAT 181150Z AUTO 00000KT 10SM CLR 11/02 A3006 4250 54 4800 000/00 RMK AO2 SLP132 T01110022 10217 20111 50007
94299KAAT AAT20160818035513408/18/16 03:55:31  5-MIN KAAT 181155Z AUTO 31003KT 10SM CLR 11/02 A3006 4250 54 4800 290/03 RMK AO2 SLP130 T01110022 10217 20106 51004
94299KAAT AAT20160818040010908/18/16 04:00:31  5-MIN KAAT 181200Z AUTO 00000KT 10SM CLR 12/03 A3006 4250 54 4900 000/00 RMK AO2 T01170028
94299KAAT AAT20160818040510908/18/16 04:05:31  5-MIN KAAT 181205Z AUTO 00000KT 10SM CLR 12/03 A3007 4250 54 4900 000/00 RMK AO2 T01220033
94299KAAT AAT20160818041010908/18/16 04:10:31  5-MIN KAAT 181210Z AUTO 00000KT 10SM CLR 12/03 A3007 4250 54 4900 000/00 RMK AO2 T01220033
94299KAAT AAT20160818041510908/18/16 04:15:31  5-MIN KAAT 181215Z AUTO 00000KT 10SM CLR 12/03 A3007 4250 54 4900 000/00 RMK AO2 T01220033
94299KAAT AAT20160818042010908/18/16 04:20:31  5-MIN KAAT 181220Z AUTO 00000KT 10SM CLR 13/04 A3007 4240 54 5000 000/00 RMK AO2 T01280039
94299KAAT AAT20160818042510908/18/16 04:25:31  5-MIN KAAT 181225Z AUTO 00000KT 10SM CLR 12/03 A3007 4240 54 4900 000/00 RMK AO2 T01220033
94299KAAT AAT20160818043010908/18/16 04:30:31  5-MIN KAAT 181230Z AUTO 00000KT 10SM CLR 12/03 A3007 4240 54 4900 000/00 RMK AO2 T01220033
94299KAAT AAT20160818043510908/18/16 04:35:31  5-MIN KAAT 181235Z AUTO 00000KT 10SM CLR 12/03 A3007 4240 56 4900 000/00 RMK AO2 T01170033
94299KAAT AAT20160818044010908/18/16 04:40:31  5-MIN KAAT 181240Z AUTO 00000KT 10SM CLR 12/03 A3007 4240 56 4900 000/00 RMK AO2 T01170033
94299KAAT AAT20160818044510908/18/16 04:45:31  5-MIN KAAT 181245Z AUTO 00000KT 10SM CLR 12/03 A3007 4240 54 4900 000/00 RMK AO2 T01220033
94299KAAT AAT20160818045011608/18/16 04:50:31  5-MIN KAAT 181250Z AUTO 00000KT 10SM CLR 12/03 A3007 4240 56 4900 000/00 RMK AO2 SLP134 T01170033
94299KAAT AAT20160818045511608/18/16 04:55:31  5-MIN KAAT 181255Z AUTO 00000KT 10SM CLR 10/02 A3007 4240 58 4700 000/00 RMK AO2 SLP137 T01000022
94299KAAT AAT20160818050010908/18/16 05:00:31  5-MIN KAAT 181300Z AUTO 00000KT 10SM CLR 10/03 A3008 4240 60 4700 000/00 RMK AO2 T01000028
94299KAAT AAT20160818050510908/18/16 05:05:31  5-MIN KAAT 181305Z AUTO 00000KT 10SM CLR 10/02 A3008 4240 58 4700 000/00 RMK AO2 T01000022
94299KAAT AAT20160818051010908/18/16 05:10:31  5-MIN KAAT 181310Z AUTO 00000KT 10SM CLR 11/02 A3008 4230 56 4700 000/00 RMK AO2 T01060022
94299KAAT AAT20160818051510908/18/16 05:15:31  5-MIN KAAT 181315Z AUTO 00000KT 10SM CLR 10/02 A3008 4230 58 4700 000/00 RMK AO2 T01000022
94299KAAT AAT20160818052010908/18/16 05:20:31  5-MIN KAAT 181320Z AUTO 00000KT 10SM CLR 11/02 A3008 4230 56 4700 000/00 RMK AO2 T01060022
94299KAAT AAT20160818052510908/18/16 05:25:31  5-MIN KAAT 181325Z AUTO 00000KT 10SM CLR 11/03 A3008 4230 58 4700 000/00 RMK AO2 T01060028
94299KAAT AAT20160818053010908/18/16 05:30:31  5-MIN KAAT 181330Z AUTO 00000KT 10SM CLR 11/03 A3008 4230 58 4800 000/00 RMK AO2 T01110033
94299KAAT AAT20160818053510908/18/16 05:35:31  5-MIN KAAT 181335Z AUTO 00000KT 10SM CLR 12/03 A3008 4230 54 4900 000/00 RMK AO2 T01220033
94299KAAT AAT20160818054010908/18/16 05:40:31  5-MIN KAAT 181340Z AUTO 00000KT 10SM CLR 11/03 A3009 4230 56 4800 000/00 RMK AO2 T01110028
94299KAAT AAT20160818054510908/18/16 05:45:31  5-MIN KAAT 181345Z AUTO 00000KT 10SM CLR 11/03 A3009 4230 58 4800 000/00 RMK AO2 T01110033
94299KAAT AAT20160818055011608/18/16 05:50:31  5-MIN KAAT 181350Z AUTO 00000KT 10SM CLR 11/03 A3009 4230 61 4700 000/00 RMK AO2 SLP142 T01060033
94299KAAT AAT20160818055511608/18/16 05:55:31  5-MIN KAAT 181355Z AUTO 00000KT 10SM CLR 12/03 A3009 4220 56 4800 000/00 RMK AO2 SLP143 T01170033
94299KAAT AAT20160818060010908/18/16 06:00:31  5-MIN KAAT 181400Z AUTO 00000KT 10SM CLR 12/04 A3009 4220 58 4800 000/00 RMK AO2 T01170039
94299KAAT AAT20160818060510908/18/16 06:05:31  5-MIN KAAT 181405Z AUTO 00000KT 10SM CLR 12/04 A3009 4220 56 4900 000/00 RMK AO2 T01220039
94299KAAT AAT20160818061010908/18/16 06:10:31  5-MIN KAAT 181410Z AUTO 00000KT 10SM CLR 12/03 A3010 4220 54 4900 000/00 RMK AO2 T01220033
94299KAAT AAT20160818061510908/18/16 06:15:31  5-MIN KAAT 181415Z AUTO 00000KT 10SM CLR 12/02 A3010 4220 50 4900 000/00 RMK AO2 T01220022
94299KAAT AAT20160818062010908/18/16 06:20:31  5-MIN KAAT 181420Z AUTO 00000KT 10SM CLR 13/03 A3010 4220 52 5000 000/00 RMK AO2 T01280033
94299KAAT AAT20160818062510908/18/16 06:25:31  5-MIN KAAT 181425Z AUTO 00000KT 10SM CLR 13/04 A3010 4220 52 5000 000/00 RMK AO2 T01330039
94299KAAT AAT20160818063010908/18/16 06:30:31  5-MIN KAAT 181430Z AUTO 00000KT 10SM CLR 14/04 A3010 4220 50 5100 000/00 RMK AO2 T01390039
94299KAAT AAT20160818063510908/18/16 06:35:31  5-MIN KAAT 181435Z AUTO 00000KT 10SM CLR 14/04 A3010 4220 49 5200 000/00 RMK AO2 T01440039
94299KAAT AAT20160818064010908/18/16 06:40:31  5-MIN KAAT 181440Z AUTO 00000KT 10SM CLR 16/04 A3010 4220 45 5300 000/00 RMK AO2 T01560039
94299KAAT AAT20160818064510908/18/16 06:45:31  5-MIN KAAT 181445Z AUTO 00000KT 10SM CLR 16/04 A3010 4220 45 5300 000/00 RMK AO2 T01560039
94299KAAT AAT20160818065012208/18/16 06:50:31  5-MIN KAAT 181450Z AUTO 00000KT 10SM CLR 16/04 A3010 4210 44 5300 000/00 RMK AO2 SLP145 T01610039 51004
94299KAAT AAT20160818065512208/18/16 06:55:31  5-MIN KAAT 181455Z AUTO 00000KT 10SM CLR 17/04 A3010 4210 44 5400 000/00 RMK AO2 SLP143 T01670044 51012
94299KAAT AAT20160818070010908/18/16 07:00:31  5-MIN KAAT 181500Z AUTO 00000KT 10SM CLR 17/04 A3010 4210 42 5400 000/00 RMK AO2 T01670039
94299KAAT AAT20160818070510908/18/16 07:05:31  5-MIN KAAT 181505Z AUTO 00000KT 10SM CLR 17/04 A3010 4210 42 5500 000/00 RMK AO2 T01720044
94299KAAT AAT20160818071010908/18/16 07:10:31  5-MIN KAAT 181510Z AUTO 00000KT 10SM CLR 17/04 A3010 4210 42 5500 000/00 RMK AO2 T01720044
94299KAAT AAT20160818071510908/18/16 07:15:31  5-MIN KAAT 181515Z AUTO 00000KT 10SM CLR 17/04 A3010 4210 42 5500 000/00 RMK AO2 T01720044
94299KAAT AAT20160818072010908/18/16 07:20:31  5-MIN KAAT 181520Z AUTO 00000KT 10SM CLR 18/05 A3010 4210 41 5600 000/00 RMK AO2 T01830050
94299KAAT AAT20160818072510908/18/16 07:25:31  5-MIN KAAT 181525Z AUTO 00000KT 10SM CLR 19/04 A3010 4210 38 5700 000/00 RMK AO2 T01890044
94299KAAT AAT20160818073010908/18/16 07:30:31  5-MIN KAAT 181530Z AUTO 00000KT 10SM CLR 19/04 A3010 4210 38 5700 000/00 RMK AO2 T01890044
94299KAAT AAT20160818073510908/18/16 07:35:31  5-MIN KAAT 181535Z AUTO 00000KT 10SM CLR 20/04 A3010 4210 35 5800 000/00 RMK AO2 T02000044
94299KAAT AAT20160818074010908/18/16 07:40:31  5-MIN KAAT 181540Z AUTO 07003KT 10SM CLR 20/04 A3010 4210 35 5800 060/03 RMK AO2 T02000044
94299KAAT AAT20160818074510908/18/16 07:45:31  5-MIN KAAT 181545Z AUTO 00000KT 10SM CLR 21/04 A3010 4210 34 5800 000/00 RMK AO2 T02060044
94299KAAT AAT20160818075011608/18/16 07:50:31  5-MIN KAAT 181550Z AUTO 00000KT 10SM CLR 21/04 A3010 4220 34 5900 000/00 RMK AO2 SLP140 T02060044
94299KAAT AAT20160818075511608/18/16 07:55:31  5-MIN KAAT 181555Z AUTO 00000KT 10SM CLR 21/04 A3010 4220 32 5900 000/00 RMK AO2 SLP140 T02110039
94299KAAT AAT20160818080010908/18/16 08:00:31  5-MIN KAAT 181600Z AUTO 00000KT 10SM CLR 21/04 A3010 4210 32 5900 000/00 RMK AO2 T02110039
94299KAAT AAT20160818080510908/18/16 08:05:31  5-MIN KAAT 181605Z AUTO 00000KT 10SM CLR 22/04 A3010 4210 31 6000 000/00 RMK AO2 T02170039
94299KAAT AAT20160818081010908/18/16 08:10:31  5-MIN KAAT 181610Z AUTO 00000KT 10SM CLR 22/04 A3010 4220 30 6000 000/00 RMK AO2 T02220039
94299KAAT AAT20160818081510908/18/16 08:15:31  5-MIN KAAT 181615Z AUTO 00000KT 10SM CLR 22/04 A3010 4220 32 6000 000/00 RMK AO2 T02170044
94299KAAT AAT20160818082010908/18/16 08:20:31  5-MIN KAAT 181620Z AUTO 00000KT 10SM CLR 22/04 A3010 4220 32 6000 000/00 RMK AO2 T02170044
94299KAAT AAT20160818082510908/18/16 08:25:31  5-MIN KAAT 181625Z AUTO 00000KT 10SM CLR 22/04 A3010 4220 31 6000 000/00 RMK AO2 T02220044
94299KAAT AAT20160818083010908/18/16 08:30:31  5-MIN KAAT 181630Z AUTO 00000KT 10SM CLR 23/04 A3010 4220 30 6100 000/00 RMK AO2 T02280044
94299KAAT AAT20160818083510908/18/16 08:35:31  5-MIN KAAT 181635Z AUTO 00000KT 10SM CLR 23/04 A3010 4220 28 6200 000/00 RMK AO2 T02330039
94299KAAT AAT20160818084010908/18/16 08:40:31  5-MIN KAAT 181640Z AUTO 00000KT 10SM CLR 23/04 A3010 4220 29 6200 000/00 RMK AO2 T02330044
94299KAAT AAT20160818084510908/18/16 08:45:31  5-MIN KAAT 181645Z AUTO VRB03KT 10SM CLR 23/04 A3010 4220 29 6200 VRB/03 RMK AO2 T02330044
94299KAAT AAT20160818085011608/18/16 08:50:31  5-MIN KAAT 181650Z AUTO 00000KT 10SM CLR 23/04 A3010 4220 30 6100 000/00 RMK AO2 SLP142 T02280044
94299KAAT AAT20160818085511608/18/16 08:55:31  5-MIN KAAT 181655Z AUTO VRB03KT 10SM CLR 23/04 A3010 4220 29 6200 VRB/03 RMK AO2 SLP140 T02330044
94299KAAT AAT20160818090010908/18/16 09:00:31  5-MIN KAAT 181700Z AUTO 00000KT 10SM CLR 24/05 A3010 4220 29 6200 000/00 RMK AO2 T02390050
94299KAAT AAT20160818090510908/18/16 09:05:31  5-MIN KAAT 181705Z AUTO 00000KT 10SM CLR 24/04 A3010 4220 27 6300 000/00 RMK AO2 T02440044
94299KAAT AAT20160818091010908/18/16 09:10:31  5-MIN KAAT 181710Z AUTO 00000KT 10SM CLR 24/04 A3010 4220 27 6300 000/00 RMK AO2 T02440044
94299KAAT AAT20160818091510908/18/16 09:15:31  5-MIN KAAT 181715Z AUTO 00000KT 10SM CLR 25/05 A3010 4220 27 6300 000/00 RMK AO2 T02500050
94299KAAT AAT20160818092010908/18/16 09:20:31  5-MIN KAAT 181720Z AUTO 00000KT 10SM CLR 26/05 A3010 4220 26 6400 000/00 RMK AO2 T02560050
94299KAAT AAT20160818092510908/18/16 09:25:31  5-MIN KAAT 181725Z AUTO 00000KT 10SM CLR 26/04 A3010 4220 25 6400 000/00 RMK AO2 T02560044
94299KAAT AAT20160818093010908/18/16 09:30:31  5-MIN KAAT 181730Z AUTO 14003KT 10SM CLR 26/05 A3010 4220 26 6400 120/03 RMK AO2 T02560050
94299KAAT AAT20160818093510908/18/16 09:35:31  5-MIN KAAT 181735Z AUTO 00000KT 10SM CLR 26/05 A3009 4220 25 6500 000/00 RMK AO2 T02610050
94299KAAT AAT20160818094010908/18/16 09:40:31  5-MIN KAAT 181740Z AUTO 00000KT 10SM CLR 27/05 A3009 4220 24 6500 000/00 RMK AO2 T02670050
94299KAAT AAT20160818094510908/18/16 09:45:31  5-MIN KAAT 181745Z AUTO 00000KT 10SM CLR 27/05 A3009 4220 24 6500 000/00 RMK AO2 T02670050
94299KAAT AAT20160818095013408/18/16 09:50:31  5-MIN KAAT 181750Z AUTO 11003KT 10SM CLR 27/05 A3009 4220 24 6600 100/03 RMK AO2 SLP140 T02720050 10272 20100 51012
94299KAAT AAT20160818095513408/18/16 09:55:31  5-MIN KAAT 181755Z AUTO 00000KT 10SM CLR 28/05 A3009 4220 23 6700 000/00 RMK AO2 SLP138 T02780050 10278 20100 58002
94299KAAT AAT20160818100010908/18/16 10:00:31  5-MIN KAAT 181800Z AUTO 00000KT 10SM CLR 28/05 A3009 4220 23 6700 000/00 RMK AO2 T02780050
94299KAAT AAT20160818100510908/18/16 10:05:31  5-MIN KAAT 181805Z AUTO VRB03KT 10SM CLR 28/04 A3009 4220 21 6700 VRB/03 RMK AO2 T02830044
94299KAAT AAT20160818101010908/18/16 10:10:31  5-MIN KAAT 181810Z AUTO VRB03KT 10SM CLR 28/04 A3009 4220 22 6700 VRB/03 RMK AO2 T02780044
94299KAAT AAT20160818101510908/18/16 10:15:31  5-MIN KAAT 181815Z AUTO 31004KT 10SM CLR 28/04 A3009 4220 21 6700 300/04 RMK AO2 T02830044
94299KAAT AAT20160818102010908/18/16 10:20:31  5-MIN KAAT 181820Z AUTO 00000KT 10SM CLR 28/05 A3009 4220 22 6700 000/00 RMK AO2 T02830050
94299KAAT AAT20160818102510908/18/16 10:25:31  5-MIN KAAT 181825Z AUTO 00000KT 10SM CLR 28/04 A3009 4230 21 6700 000/00 RMK AO2 T02830044
94299KAAT AAT20160818103010908/18/16 10:30:31  5-MIN KAAT 181830Z AUTO VRB03KT 10SM CLR 29/04 A3009 4230 20 6800 VRB/03 RMK AO2 T02890044
94299KAAT AAT20160818103510908/18/16 10:35:31  5-MIN KAAT 181835Z AUTO VRB03KT 10SM CLR 29/04 A3009 4230 20 6800 VRB/03 RMK AO2 T02940044
94299KAAT AAT20160818104010908/18/16 10:40:31  5-MIN KAAT 181840Z AUTO 00000KT 10SM CLR 31/05 A3009 4230 19 7000 000/00 RMK AO2 T03060050
94299KAAT AAT20160818104510908/18/16 10:45:31  5-MIN KAAT 181845Z AUTO 00000KT 10SM CLR 29/04 A3009 4230 20 6800 000/00 RMK AO2 T02940044
94299KAAT AAT20160818105011608/18/16 10:50:31  5-MIN KAAT 181850Z AUTO 00000KT 10SM CLR 31/04 A3008 4230 19 7000 000/00 RMK AO2 SLP134 T03060044
94299KAAT AAT20160818105511608/18/16 10:55:31  5-MIN KAAT 181855Z AUTO 00000KT 10SM CLR 31/04 A3008 4230 19 7000 000/00 RMK AO2 SLP133 T03060044
94299KAAT AAT20160818110010908/18/16 11:00:31  5-MIN KAAT 181900Z AUTO 18003KT 10SM CLR 32/05 A3008 4240 18 7100 160/03 RMK AO2 T03170050
94299KAAT AAT20160818110510908/18/16 11:05:31  5-MIN KAAT 181905Z AUTO VRB03KT 10SM CLR 32/04 A3008 4240 17 7100 VRB/03 RMK AO2 T03170044
94299KAAT AAT20160818111010908/18/16 11:10:31  5-MIN KAAT 181910Z AUTO 00000KT 10SM CLR 32/04 A3008 4240 17 7100 000/00 RMK AO2 T03170039
94299KAAT AAT20160818111510908/18/16 11:15:31  5-MIN KAAT 181915Z AUTO 00000KT 10SM CLR 32/04 A3007 4240 16 7100 000/00 RMK AO2 T03220039
94299KAAT AAT20160818112010908/18/16 11:20:31  5-MIN KAAT 181920Z AUTO 00000KT 10SM CLR 32/04 A3007 4240 16 7200 000/00 RMK AO2 T03220039
94299KAAT AAT20160818112510908/18/16 11:25:31  5-MIN KAAT 181925Z AUTO 02004KT 10SM CLR 33/04 A3007 4240 15 7300 360/04 RMK AO2 T03330039
94299KAAT AAT20160818113010908/18/16 11:30:31  5-MIN KAAT 181930Z AUTO 36003KT 10SM CLR 33/04 A3007 4240 16 7200 340/03 RMK AO2 T03280039
94299KAAT AAT20160818113510908/18/16 11:35:31  5-MIN KAAT 181935Z AUTO 00000KT 10SM CLR 33/03 A3007 4250 15 7200 000/00 RMK AO2 T03280033
94299KAAT AAT20160818114010908/18/16 11:40:31  5-MIN KAAT 181940Z AUTO VRB03KT 10SM CLR 33/03 A3007 4250 15 7300 VRB/03 RMK AO2 T03330033
94299KAAT AAT20160826064010908/26/16 06:40:31  5-MIN KAAT 261440Z AUTO 00000KT 10SM CLR 09/00 A3009 4230 51 4600 000/00 RMK AO2 T00940000
94299KAAT AAT20160826064510908/26/16 06:45:31  5-MIN KAAT 261445Z AUTO 00000KT 10SM CLR 10/00 A3009 4220 49 4700 000/00 RMK AO2 T01000000
94299KAAT AAT20160826065012308/26/16 06:50:31  5-MIN KAAT 261450Z AUTO 17003KT 10SM CLR 10/M01 A3009 4220 47 4700 150/03 RMK AO2 SLP157 T01001006 53002
94299KAAT AAT20160826065512308/26/16 06:55:31  5-MIN KAAT 261455Z AUTO 00000KT 10SM CLR 11/M01 A3009 4220 46 4700 000/00 RMK AO2 SLP158 T01061006 51009
94299KAAT AAT20160826070011008/26/16 07:00:31  5-MIN KAAT 261500Z AUTO 00000KT 10SM CLR 11/M01 A3009 4220 44 4800 000/00 RMK AO2 T01111006
94299KAAT AAT20160826070511008/26/16 07:05:31  5-MIN KAAT 261505Z AUTO 00000KT 10SM CLR 12/M01 A3009 4220 42 4800 000/00 RMK AO2 T01171006
94299KAAT AAT20160826071011008/26/16 07:10:31  5-MIN KAAT 261510Z AUTO 00000KT 10SM CLR 12/M01 A3009 4220 41 4900 000/00 RMK AO2 T01221006
94299KAAT AAT20160826071511008/26/16 07:15:31  5-MIN KAAT 261515Z AUTO 15003KT 10SM CLR 12/M01 A3009 4220 41 4900 140/03 RMK AO2 T01221006
94299KAAT AAT20160826072011008/26/16 07:20:31  5-MIN KAAT 261520Z AUTO 00000KT 10SM CLR 12/M01 A3009 4220 41 4900 000/00 RMK AO2 T01221006
94299KAAT AAT20160826072511008/26/16 07:25:31  5-MIN KAAT 261525Z AUTO 00000KT 10SM CLR 12/M01 A3009 4220 41 4900 000/00 RMK AO2 T01221006
94299KAAT AAT20160826073011008/26/16 07:30:31  5-MIN KAAT 261530Z AUTO 15003KT 10SM CLR 13/M01 A3009 4220 39 5000 130/03 RMK AO2 T01281006
94299KAAT AAT20160826073510908/26/16 07:35:31  5-MIN KAAT 261535Z AUTO 00000KT 10SM CLR 13/00 A3009 4220 40 5000 000/00 RMK AO2 T01330000
94299KAAT AAT20160826074010908/26/16 07:40:31  5-MIN KAAT 261540Z AUTO 13003KT 10SM CLR 14/00 A3009 4220 38 5100 110/03 RMK AO2 T01390000
94299KAAT AAT20160826074511008/26/16 07:45:31  5-MIN KAAT 261545Z AUTO 13003KT 10SM CLR 14/M01 A3009 4220 37 5100 120/03 RMK AO2 T01391006
94299KAAT AAT20160826075011708/26/16 07:50:31  5-MIN KAAT 261550Z AUTO 00000KT 10SM CLR 14/M01 A3009 4220 37 5100 000/00 RMK AO2 SLP156 T01391006
94299KAAT AAT20160826075511708/26/16 07:55:31  5-MIN KAAT 261555Z AUTO 12003KT 10SM CLR 14/M01 A3009 4220 35 5200 110/03 RMK AO2 SLP155 T01441006
94299KAAT AAT20160826080011008/26/16 08:00:31  5-MIN KAAT 261600Z AUTO 17004KT 10SM CLR 15/M01 A3009 4230 34 5200 150/04 RMK AO2 T01501006
94299KAAT AAT20160826080511008/26/16 08:05:31  5-MIN KAAT 261605Z AUTO 19003KT 10SM CLR 15/M01 A3009 4230 34 5200 170/03 RMK AO2 T01501006
94299KAAT AAT20160826081011008/26/16 08:10:31  5-MIN KAAT 261610Z AUTO VRB03KT 10SM CLR 16/M01 A3008 4230 33 5300 VRB/03 RMK AO2 T01561006
94299KAAT AAT20160826081511008/26/16 08:15:31  5-MIN KAAT 261615Z AUTO 00000KT 10SM CLR 16/M01 A3008 4230 31 5300 000/00 RMK AO2 T01561011
94299KAAT AAT20160826082011008/26/16 08:20:31  5-MIN KAAT 261620Z AUTO 00000KT 10SM CLR 16/M01 A3009 4230 30 5400 000/00 RMK AO2 T01611011
94299KAAT AAT20160826082511008/26/16 08:25:31  5-MIN KAAT 261625Z AUTO 00000KT 10SM CLR 17/M01 A3009 4230 29 5400 000/00 RMK AO2 T01671011
94299KAAT AAT20160826083011008/26/16 08:30:31  5-MIN KAAT 261630Z AUTO 09003KT 10SM CLR 17/M01 A3009 4230 31 5400 070/03 RMK AO2 T01671006
94299KAAT AAT20160826083511008/26/16 08:35:31  5-MIN KAAT 261635Z AUTO 00000KT 10SM CLR 17/M01 A3009 4230 29 5500 000/00 RMK AO2 T01721006
94299KAAT AAT20160826084011008/26/16 08:40:31  5-MIN KAAT 261640Z AUTO 00000KT 10SM CLR 17/M01 A3008 4230 29 5500 000/00 RMK AO2 T01721006
94299KAAT AAT20160826084511008/26/16 08:45:31  5-MIN KAAT 261645Z AUTO 11003KT 10SM CLR 18/M01 A3008 4230 28 5600 090/03 RMK AO2 T01781006
94299KAAT AAT20160826085011708/26/16 08:50:31  5-MIN KAAT 261650Z AUTO 00000KT 10SM CLR 18/M01 A3009 4230 28 5600 000/00 RMK AO2 SLP156 T01781006
94299KAAT AAT20160826085511608/26/16 08:55:31  5-MIN KAAT 261655Z AUTO 11003KT 10SM CLR 18/00 A3009 4230 29 5600 090/03 RMK AO2 SLP156 T01830000
94299KAAT AAT20160826090010908/26/16 09:00:31  5-MIN KAAT 261700Z AUTO 02004KT 10SM CLR 19/00 A3009 4230 28 5700 360/04 RMK AO2 T01890000
94299KAAT AAT20160826090510908/26/16 09:05:31  5-MIN KAAT 261705Z AUTO 00000KT 10SM CLR 19/00 A3009 4230 27 5700 000/00 RMK AO2 T01940000
94299KAAT AAT20160826091010908/26/16 09:10:31  5-MIN KAAT 261710Z AUTO 00000KT 10SM CLR 19/00 A3008 4230 27 5700 000/00 RMK AO2 T01940000
94299KAAT AAT20160826091511008/26/16 09:15:31  5-MIN KAAT 261715Z AUTO 00000KT 10SM CLR 19/M01 A3008 4230 26 5700 000/00 RMK AO2 T01891006
94299KAAT AAT20160826092010908/26/16 09:20:31  5-MIN KAAT 261720Z AUTO 00000KT 10SM CLR 20/01 A3008 4230 27 5800 000/00 RMK AO2 T02000006
94299KAAT AAT20160826092510908/26/16 09:25:31  5-MIN KAAT 261725Z AUTO 00000KT 10SM CLR 21/01 A3008 4230 26 5900 000/00 RMK AO2 T02060006
94299KAAT AAT20160826093010908/26/16 09:30:31  5-MIN KAAT 261730Z AUTO VRB03KT 10SM CLR 21/01 A3008 4230 26 5900 VRB/03 RMK AO2 T02060006
94299KAAT AAT20160826093510908/26/16 09:35:31  5-MIN KAAT 261735Z AUTO 07003KT 10SM CLR 21/01 A3008 4230 25 5900 060/03 RMK AO2 T02110006
94299KAAT AAT20160826094010908/26/16 09:40:31  5-MIN KAAT 261740Z AUTO 00000KT 10SM CLR 22/01 A3008 4240 24 6000 000/00 RMK AO2 T02170006
94299KAAT AAT20160826094510908/26/16 09:45:31  5-MIN KAAT 261745Z AUTO VRB03KT 10SM CLR 21/01 A3008 4240 25 5900 VRB/03 RMK AO2 T02110006
94299KAAT AAT20160826095013408/26/16 09:50:31  5-MIN KAAT 261750Z AUTO 00000KT 10SM CLR 22/01 A3008 4240 24 6000 000/00 RMK AO2 SLP149 T02170006 10217 20033 51009
94299KAAT AAT20160826095513408/26/16 09:55:31  5-MIN KAAT 261755Z AUTO VRB03KT 10SM CLR 22/01 A3007 4240 23 6100 VRB/03 RMK AO2 SLP147 T02220006 10222 20033 58006
94299KAAT AAT20160826100010908/26/16 10:00:31  5-MIN KAAT 261800Z AUTO VRB03KT 10SM CLR 22/01 A3007 4240 23 6100 VRB/03 RMK AO2 T02220006
94299KAAT AAT20160826100510908/26/16 10:05:31  5-MIN KAAT 261805Z AUTO 00000KT 10SM CLR 22/00 A3007 4240 22 6100 000/00 RMK AO2 T02220000
94299KAAT AAT20160826101011008/26/16 10:10:31  5-MIN KAAT 261810Z AUTO 00000KT 10SM CLR 23/M01 A3007 4250 20 6200 000/00 RMK AO2 T02331006
94299KAAT AAT20160826101511008/26/16 10:15:31  5-MIN KAAT 261815Z AUTO 00000KT 10SM CLR 24/M01 A3007 4250 19 6300 000/00 RMK AO2 T02391006
94299KAAT AAT20160826102011308/26/16 10:20:31  5-MIN KAAT 261820Z AUTO 23004KT 10SM FEW002 26/M02 A3007 4250 16 6400 210/04 RMK AO2 T02561017
94299KAAT AAT20160826102511308/26/16 10:25:31  5-MIN KAAT 261825Z AUTO 00000KT 10SM FEW002 26/M02 A3007 4250 16 6400 000/00 RMK AO2 T02561017
94299KAAT AAT20160826103011308/26/16 10:30:31  5-MIN KAAT 261830Z AUTO VRB03KT 10SM FEW002 25/M02 A3006 4250 16 6400 VRB/03 RMK AO2 T02501022
94299KAAT AAT20160826103511308/26/16 10:35:31  5-MIN KAAT 261835Z AUTO VRB04KT 10SM FEW002 25/M02 A3007 4250 17 6400 VRB/04 RMK AO2 T02501017
94299KAAT AAT20160826104011308/26/16 10:40:31  5-MIN KAAT 261840Z AUTO VRB03KT 10SM FEW002 26/M02 A3006 4250 15 6400 VRB/03 RMK AO2 T02561022
94299KAAT AAT20160826104510308/26/16 10:45:31  5-MIN KAAT 261845Z AUTO 10SM FEW002 26/M02 A3006 4250 15 6400 M /M RMK AO2 T02561022
94299KAAT AAT20160826105011708/26/16 10:50:31  5-MIN KAAT 261850Z AUTO 00000KT 10SM CLR 25/M03 A3006 4250 15 6400 000/00 RMK AO2 SLP145 T02501028
94299KAAT AAT20160826105511708/26/16 10:55:31  5-MIN KAAT 261855Z AUTO 00000KT 10SM CLR 26/M03 A3006 4250 15 6400 000/00 RMK AO2 SLP144 T02561028
94299KAAT AAT20160826110011008/26/16 11:00:31  5-MIN KAAT 261900Z AUTO VRB04KT 10SM CLR 26/M03 A3006 4250 14 6500 VRB/04 RMK AO2 T02611028
94299KAAT AAT20160826110511008/26/16 11:05:31  5-MIN KAAT 261905Z AUTO VRB04KT 10SM CLR 27/M04 A3006 4250 13 6600 VRB/04 RMK AO2 T02671039
94299KAAT AAT20160826111010008/26/16 11:10:31  5-MIN KAAT 261910Z AUTO 10SM CLR 27/M04 A3006 4250 13 6600 M /M RMK AO2 T02671039
94299KAAT AAT20160826111511008/26/16 11:15:31  5-MIN KAAT 261915Z AUTO VRB03KT 10SM CLR 27/M04 A3006 4260 13 6600 VRB/03 RMK AO2 T02671039
94299KAAT AAT20160826112011008/26/16 11:20:31  5-MIN KAAT 261920Z AUTO VRB04KT 10SM CLR 27/M04 A3005 4260 13 6600 VRB/04 RMK AO2 T02671039
94299KAAT AAT20160826112511008/26/16 11:25:31  5-MIN KAAT 261925Z AUTO 29004KT 10SM CLR 27/M03 A3005 4260 13 6600 280/04 RMK AO2 T02671033
94299KAAT AAT20160826113011008/26/16 11:30:31  5-MIN KAAT 261930Z AUTO VRB03KT 10SM CLR 27/M03 A3005 4260 13 6600 VRB/03 RMK AO2 T02721033
94299KAAT AAT20160826113511008/26/16 11:35:31  5-MIN KAAT 261935Z AUTO VRB05KT 10SM CLR 28/M03 A3005 4260 12 6700 VRB/05 RMK AO2 T02781033
94299KAAT AAT20160826114011008/26/16 11:40:31  5-MIN KAAT 261940Z AUTO 25006KT 10SM CLR 28/M03 A3005 4260 12 6700 230/06 RMK AO2 T02781033
94299KAAT AAT20160826114511008/26/16 11:45:31  5-MIN KAAT 261945Z AUTO 25006KT 10SM CLR 28/M03 A3005 4260 12 6700 240/06 RMK AO2 T02781033
94299KAAT AAT20160826115011708/26/16 11:50:31  5-MIN KAAT 261950Z AUTO 26009KT 10SM CLR 28/M04 A3005 4270 12 6800 250/09 RMK AO2 SLP134 T02831039
94299KAAT AAT20160826115511708/26/16 11:55:31  5-MIN KAAT 261955Z AUTO 21006KT 10SM CLR 28/M04 A3004 4270 11 6700 200/06 RMK AO2 SLP133 T02781044
94299KAAT AAT20160826120011008/26/16 12:00:31  5-MIN KAAT 262000Z AUTO VRB04KT 10SM CLR 27/M04 A3004 4270 12 6600 VRB/04 RMK AO2 T02721044
94299KAAT AAT20160826120510008/26/16 12:05:31  5-MIN KAAT 262005Z AUTO 10SM CLR 28/M04 A3004 4270 12 6800 M /M RMK AO2 T02831039
94299KAAT AAT20160826121011008/26/16 12:10:31  5-MIN KAAT 262010Z AUTO 31006KT 10SM CLR 28/M04 A3004 4270 12 6800 290/06 RMK AO2 T02831039
94299KAAT AAT20160826121511008/26/16 12:15:31  5-MIN KAAT 262015Z AUTO 24006KT 10SM CLR 28/M04 A3004 4270 12 6800 230/06 RMK AO2 T02831039
94299KAAT AAT20160826122011608/26/16 12:20:31  5-MIN KAAT 262020Z AUTO 26010G14KT 10SM CLR 28/M03 A3004 4270 12 6800 250/10G14 RMK AO2 T02831033
94299KAAT AAT20160826122511608/26/16 12:25:31  5-MIN KAAT 262025Z AUTO 25011G17KT 10SM CLR 29/M03 A3004 4270 12 6800 240/11G17 RMK AO2 T02891033
94299KAAT AAT20160826123011608/26/16 12:30:31  5-MIN KAAT 262030Z AUTO 26007G17KT 10SM CLR 28/M04 A3003 4280 11 6800 250/07G17 RMK AO2 T02831044
94299KAAT AAT20160826123511008/26/16 12:35:31  5-MIN KAAT 262035Z AUTO 25008KT 10SM CLR 29/M04 A3004 4270 11 6800 230/08 RMK AO2 T02891044
94299KAAT AAT20160826124011008/26/16 12:40:31  5-MIN KAAT 262040Z AUTO 21007KT 10SM CLR 29/M04 A3004 4270 11 6800 200/07 RMK AO2 T02891044
94299KAAT AAT20160826124511008/26/16 12:45:31  5-MIN KAAT 262045Z AUTO VRB03KT 10SM CLR 28/M05 A3003 4280 11 6800 VRB/03 RMK AO2 T02831050
94299KAAT AAT20160826125012308/26/16 12:50:31  5-MIN KAAT 262050Z AUTO 30004KT 10SM CLR 29/M05 A3003 4280 10 6800 290/04 RMK AO2 SLP128 T02891050 58006
94299KAAT AAT20160826125512308/26/16 12:55:31  5-MIN KAAT 262055Z AUTO 34009KT 10SM CLR 29/M04 A3003 4280 10 6900 330/09 RMK AO2 SLP128 T02941044 58014
94299KAAT AAT20160826130011008/26/16 13:00:31  5-MIN KAAT 262100Z AUTO 35008KT 10SM CLR 29/M04 A3003 4280 10 6900 330/08 RMK AO2 T02941044
94299KAAT AAT20160826130512608/26/16 13:05:31  5-MIN KAAT 262105Z AUTO 35007KT 320V020 10SM CLR 30/M04 A3003 4280 10 7000 340/07 310V010 RMK AO2 T03001039
94299KAAT AAT20160826131011008/26/16 13:10:31  5-MIN KAAT 262110Z AUTO 25005KT 10SM CLR 29/M04 A3002 4290 11 6900 240/05 RMK AO2 T02941039
94299KAAT AAT20160826131511008/26/16 13:15:31  5-MIN KAAT 262115Z AUTO VRB06KT 10SM CLR 29/M04 A3002 4290 11 6800 VRB/06 RMK AO2 T02891044
94299KAAT AAT20160826132011008/26/16 13:20:31  5-MIN KAAT 262120Z AUTO 22007KT 10SM CLR 29/M04 A3002 4290 11 6900 200/07 RMK AO2 T02891039
94299KAAT AAT20160826132511008/26/16 13:25:31  5-MIN KAAT 262125Z AUTO 30006KT 10SM CLR 29/M04 A3002 4290 11 6900 290/06 RMK AO2 T02941039
94299KAAT AAT20160826133011008/26/16 13:30:31  5-MIN KAAT 262130Z AUTO 00000KT 10SM CLR 29/M04 A3002 4290 10 6900 000/00 RMK AO2 T02941044
94299KAAT AAT20160826133511008/26/16 13:35:31  5-MIN KAAT 262135Z AUTO 29008KT 10SM CLR 31/M03 A3002 4290 11 7000 270/08 RMK AO2 T03061033
94299KAAT AAT20160826134011008/26/16 13:40:31  5-MIN KAAT 262140Z AUTO 30007KT 10SM CLR 30/M04 A3001 4300 10 7000 290/07 RMK AO2 T03001039
94299KAAT AAT20160826134511608/26/16 13:45:31  5-MIN KAAT 262145Z AUTO 27007G16KT 10SM CLR 30/M04 A3001 4290 10 7000 250/07G16 RMK AO2 T03001044
94299KAAT AAT20160826135012308/26/16 13:50:31  5-MIN KAAT 262150Z AUTO VRB04G16KT 10SM CLR 29/M04 A3001 4300 11 6900 VRB/04G16 RMK AO2 SLP126 T02891044
94299KAAT AAT20160826135511708/26/16 13:55:31  5-MIN KAAT 262155Z AUTO VRB05KT 10SM CLR 29/M04 A3001 4300 10 6900 VRB/05 RMK AO2 SLP124 T02941044
94299KAAT AAT20160826140011008/26/16 14:00:31  5-MIN KAAT 262200Z AUTO 34006KT 10SM CLR 30/M04 A3000 4300 10 7000 330/06 RMK AO2 T03001044
94299KAAT AAT20160826140511008/26/16 14:05:31  5-MIN KAAT 262205Z AUTO 02005KT 10SM CLR 30/M04 A3000 4310 10 7000 360/05 RMK AO2 T03001044
94299KAAT AAT20160826141012608/26/16 14:10:31  5-MIN KAAT 262210Z AUTO 29007KT 260V330 10SM CLR 31/M04 A3000 4300 10 7100 280/07 250V320 RMK AO2 T03061044
94299KAAT AAT20160826141511608/26/16 14:15:31  5-MIN KAAT 262215Z AUTO 26012G18KT 10SM CLR 31/M06 A3001 4300 09 7000 250/12G18 RMK AO2 T03061056
94299KAAT AAT20160826142011608/26/16 14:20:31  5-MIN KAAT 262220Z AUTO 30011G18KT 10SM CLR 31/M06 A3001 4300 08 7100 290/11G18 RMK AO2 T03111061
94299KAAT AAT20160826142511608/26/16 14:25:31  5-MIN KAAT 262225Z AUTO 33011G19KT 10SM CLR 31/M06 A3000 4300 09 7100 310/11G19 RMK AO2 T03061061
94299KAAT AAT20160826143011608/26/16 14:30:31  5-MIN KAAT 262230Z AUTO VRB05G19KT 10SM CLR 31/M06 A3000 4300 09 7100 VRB/05G19 RMK AO2 T03061061
94299KAAT AAT20160826143511608/26/16 14:35:31  5-MIN KAAT 262235Z AUTO 30013G20KT 10SM CLR 31/M06 A3000 4300 09 7100 280/13G20 RMK AO2 T03061061
94299KAAT AAT20160826144011608/26/16 14:40:31  5-MIN KAAT 262240Z AUTO 30010G20KT 10SM CLR 31/M07 A3000 4300 08 7000 280/10G20 RMK AO2 T03061067
94299KAAT AAT20160826144511008/26/16 14:45:31  5-MIN KAAT 262245Z AUTO 33005KT 10SM CLR 31/M07 A3000 4310 08 7100 320/05 RMK AO2 T03061067
94299KAAT AAT20160826145011708/26/16 14:50:31  5-MIN KAAT 262250Z AUTO 33008KT 10SM CLR 31/M07 A3000 4310 08 7100 320/08 RMK AO2 SLP120 T03061067
94299KAAT AAT20160826145512308/26/16 14:55:31  5-MIN KAAT 262255Z AUTO 29012G17KT 10SM CLR 31/M06 A3000 4310 09 7100 270/12G17 RMK AO2 SLP121 T03111056
94299KAAT AAT20160826150011008/26/16 15:00:31  5-MIN KAAT 262300Z AUTO 31013KT 10SM CLR 31/M06 A3000 4310 09 7100 290/13 RMK AO2 T03061061
94299KAAT AAT20160826150511008/26/16 15:05:31  5-MIN KAAT 262305Z AUTO 33011KT 10SM CLR 31/M06 A3000 4310 08 7100 310/11 RMK AO2 T03111061
94299KAAT AAT20160826151011008/26/16 15:10:31  5-MIN KAAT 262310Z AUTO 34012KT 10SM CLR 31/M06 A3000 4310 09 7100 320/12 RMK AO2 T03111056
94299KAAT AAT20160826151511608/26/16 15:15:31  5-MIN KAAT 262315Z AUTO VRB04G14KT 10SM CLR 30/M06 A3000 4310 09 7000 VRB/04G14 RMK AO2 T03001056
94299KAAT AAT20160826152010008/26/16 15:20:31  5-MIN KAAT 262320Z AUTO 10SM CLR 31/M06 A2999 4310 09 7100 M /M RMK AO2 T03061056
94299KAAT AAT20160826152511008/26/16 15:25:31  5-MIN KAAT 262325Z AUTO 35009KT 10SM CLR 31/M06 A3000 4310 09 7100 340/09 RMK AO2 T03061056
94299KAAT AAT20160826153011608/26/16 15:30:31  5-MIN KAAT 262330Z AUTO 30010G16KT 10SM CLR 31/M05 A3000 4310 09 7100 280/10G16 RMK AO2 T03061050
94299KAAT AAT20160826153513208/26/16 15:35:31  5-MIN KAAT 262335Z AUTO 29010G18KT 260V320 10SM CLR 31/M06 A3000 4310 09 7100 270/10G18 250V310 RMK AO2 T03111056
94299KAAT AAT20160826154011608/26/16 15:40:31  5-MIN KAAT 262340Z AUTO 33012G18KT 10SM CLR 31/M07 A3000 4310 08 7100 310/12G18 RMK AO2 T03061067
94299KAAT AAT20160826154511008/26/16 15:45:31  5-MIN KAAT 262345Z AUTO 34011KT 10SM CLR 30/M06 A3000 4310 09 7000 320/11 RMK AO2 T03001061
94299KAAT AAT20160826155014108/26/16 15:50:31  5-MIN KAAT 262350Z AUTO 33008G16KT 10SM CLR 31/M07 A3000 4310 08 7100 310/08G16 RMK AO2 SLP118 T03061067 10311 20222 58014
94299KAAT AAT20160826155514108/26/16 15:55:31  5-MIN KAAT 262355Z AUTO 36006G15KT 10SM CLR 30/M07 A2999 4310 08 7000 340/06G15 RMK AO2 SLP119 T03001072 10311 20222 56011
94299KAAT AAT20160826160011608/26/16 16:00:31  5-MIN KAAT 270000Z AUTO 31015G19KT 10SM CLR 31/M07 A3000 4310 08 7100 290/15G19 RMK AO2 T03061067
94299KAAT AAT20160826160511608/26/16 16:05:31  5-MIN KAAT 270005Z AUTO 33009G19KT 10SM CLR 31/M07 A3000 4310 08 7100 320/09G19 RMK AO2 T03061067
94299KAAT AAT20160826161012608/26/16 16:10:31  5-MIN KAAT 270010Z AUTO 33007KT 290V360 10SM CLR 30/M07 A2999 4310 08 7000 310/07 280V350 RMK AO2 T03001072
94299KAAT AAT20160826161511608/26/16 16:15:31  5-MIN KAAT 270015Z AUTO 34011G15KT 10SM CLR 30/M07 A3000 4310 08 7000 330/11G15 RMK AO2 T03001072
94299KAAT AAT20160826162011008/26/16 16:20:31  5-MIN KAAT 270020Z AUTO 30009KT 10SM CLR 30/M07 A3000 4310 08 7000 290/09 RMK AO2 T03001072
94299KAAT AAT20160826162511008/26/16 16:25:31  5-MIN KAAT 270025Z AUTO 29011KT 10SM CLR 31/M08 A3000 4310 08 7100 280/11 RMK AO2 T03061078
94299KAAT AAT20160826163011008/26/16 16:30:31  5-MIN KAAT 270030Z AUTO 31011KT 10SM CLR 30/M08 A3000 4310 08 7000 290/11 RMK AO2 T03001078
94299KAAT AAT20160826163511008/26/16 16:35:31  5-MIN KAAT 270035Z AUTO 34008KT 10SM CLR 30/M08 A2999 4310 08 7000 320/08 RMK AO2 T03001078
94299KAAT AAT20160826164011008/26/16 16:40:31  5-MIN KAAT 270040Z AUTO 33009KT 10SM CLR 29/M08 A2999 4310 08 6900 320/09 RMK AO2 T02941083
94299KAAT AAT20160826164511008/26/16 16:45:31  5-MIN KAAT 270045Z AUTO 33010KT 10SM CLR 30/M07 A2999 4310 08 7000 320/10 RMK AO2 T03001072
94299KAAT AAT20160826165011708/26/16 16:50:31  5-MIN KAAT 270050Z AUTO 33010KT 10SM CLR 29/M07 A2999 4310 08 6900 310/10 RMK AO2 SLP120 T02941072
94299KAAT AAT20160826165511708/26/16 16:55:31  5-MIN KAAT 270055Z AUTO 34008KT 10SM CLR 30/M07 A2999 4320 08 7000 330/08 RMK AO2 SLP119 T03001072
94299KAAT AAT20160826170011608/26/16 17:00:31  5-MIN KAAT 270100Z AUTO 30009G17KT 10SM CLR 29/M06 A2999 4320 10 6900 290/09G17 RMK AO2 T02941056
94299KAAT AAT20160826170511608/26/16 17:05:31  5-MIN KAAT 270105Z AUTO 32007G17KT 10SM CLR 29/M06 A2999 4320 10 6900 310/07G17 RMK AO2 T02891056
94299KAAT AAT20160826171011008/26/16 17:10:31  5-MIN KAAT 270110Z AUTO 33013KT 10SM CLR 29/M06 A2999 4320 10 6900 310/13 RMK AO2 T02941056
94299KAAT AAT20160826171511608/26/16 17:15:31  5-MIN KAAT 270115Z AUTO 33009G16KT 10SM CLR 29/M05 A2999 4320 10 6900 310/09G16 RMK AO2 T02891050
94299KAAT AAT20160826172011008/26/16 17:20:31  5-MIN KAAT 270120Z AUTO 32008KT 10SM CLR 29/M04 A2999 4320 11 6900 310/08 RMK AO2 T02891044
94299KAAT AAT20160826172511008/26/16 17:25:31  5-MIN KAAT 270125Z AUTO 33009KT 10SM CLR 29/M04 A2999 4320 10 6900 320/09 RMK AO2 T02941044
94299KAAT AAT20160826173011008/26/16 17:30:31  5-MIN KAAT 270130Z AUTO 31006KT 10SM CLR 29/M05 A2999 4320 10 6900 290/06 RMK AO2 T02891050
94299KAAT AAT20160826173511008/26/16 17:35:31  5-MIN KAAT 270135Z AUTO 33009KT 10SM CLR 29/M06 A2999 4320 09 6900 310/09 RMK AO2 T02891061
94299KAAT AAT20160826174011008/26/16 17:40:31  5-MIN KAAT 270140Z AUTO 33010KT 10SM CLR 28/M06 A2999 4320 10 6800 310/10 RMK AO2 T02831056
94299KAAT AAT20160826174511008/26/16 17:45:31  5-MIN KAAT 270145Z AUTO 34008KT 10SM CLR 28/M05 A2999 4320 11 6800 330/08 RMK AO2 T02831050
94299KAAT AAT20160826175011708/26/16 17:50:31  5-MIN KAAT 270150Z AUTO 33006KT 10SM CLR 28/M04 A2999 4320 12 6800 320/06 RMK AO2 SLP121 T02781039
94299KAAT AAT20160826175511708/26/16 17:55:31  5-MIN KAAT 270155Z AUTO 33007KT 10SM CLR 28/M03 A2999 4320 12 6800 320/07 RMK AO2 SLP121 T02781033
94299KAAT AAT20160826180011008/26/16 18:00:31  5-MIN KAAT 270200Z AUTO 34007KT 10SM CLR 27/M04 A2999 4320 12 6700 320/07 RMK AO2 T02721039
94299KAAT AAT20160826180511008/26/16 18:05:31  5-MIN KAAT 270205Z AUTO 33005KT 10SM CLR 27/M03 A2999 4320 13 6600 320/05 RMK AO2 T02671033
94299KAAT AAT20160826181011008/26/16 18:10:31  5-MIN KAAT 270210Z AUTO 34006KT 10SM CLR 26/M03 A2999 4320 14 6600 320/06 RMK AO2 T02611028
94299KAAT AAT20160826181511008/26/16 18:15:31  5-MIN KAAT 270215Z AUTO 34006KT 10SM CLR 26/M03 A2999 4320 14 6600 320/06 RMK AO2 T02611028
94299KAAT AAT20160826182011008/26/16 18:20:31  5-MIN KAAT 270220Z AUTO 34005KT 10SM CLR 26/M03 A2999 4320 14 6600 320/05 RMK AO2 T02611033
94299KAAT AAT20160826182511008/26/16 18:25:31  5-MIN KAAT 270225Z AUTO 33007KT 10SM CLR 26/M03 A2999 4320 14 6600 310/07 RMK AO2 T02611033
94299KAAT AAT20160826183011008/26/16 18:30:31  5-MIN KAAT 270230Z AUTO 33006KT 10SM CLR 26/M03 A2999 4320 14 6500 310/06 RMK AO2 T02561033
94299KAAT AAT20160826183511008/26/16 18:35:31  5-MIN KAAT 270235Z AUTO 33006KT 10SM CLR 26/M03 A2999 4320 14 6500 310/06 RMK AO2 T02561033
94299KAAT AAT20160826184011008/26/16 18:40:31  5-MIN KAAT 270240Z AUTO 32006KT 10SM CLR 25/M03 A2999 4310 15 6500 310/06 RMK AO2 T02501033
94299KAAT AAT20160826184511008/26/16 18:45:31  5-MIN KAAT 270245Z AUTO 32006KT 10SM CLR 25/M03 A2999 4310 15 6500 310/06 RMK AO2 T02501033
94299KAAT AAT20160826185012308/26/16 18:50:31  5-MIN KAAT 270250Z AUTO 33006KT 10SM CLR 25/M03 A2999 4310 15 6500 310/06 RMK AO2 SLP120 T02501033 56011
94299KAAT AAT20160826185512308/26/16 18:55:31  5-MIN KAAT 270255Z AUTO 33004KT 10SM CLR 24/M03 A2999 4310 16 6300 320/04 RMK AO2 SLP122 T02391028 55000
94299KAAT AAT20160826190011008/26/16 19:00:31  5-MIN KAAT 270300Z AUTO 33004KT 10SM CLR 23/M02 A2999 4310 18 6300 320/04 RMK AO2 T02331022
94299KAAT AAT20160826190511008/26/16 19:05:31  5-MIN KAAT 270305Z AUTO 33005KT 10SM CLR 23/M02 A3000 4310 18 6300 310/05 RMK AO2 T02331022
94299KAAT AAT20160826191011008/26/16 19:10:31  5-MIN KAAT 270310Z AUTO 33005KT 10SM CLR 23/M03 A3000 4310 17 6300 320/05 RMK AO2 T02331028
94299KAAT AAT20160826191511008/26/16 19:15:31  5-MIN KAAT 270315Z AUTO 34005KT 10SM CLR 23/M02 A3000 4310 18 6300 320/05 RMK AO2 T02331022
94299KAAT AAT20160826192011008/26/16 19:20:31  5-MIN KAAT 270320Z AUTO 34005KT 10SM CLR 23/M03 A3000 4310 17 6300 320/05 RMK AO2 T02331028
94299KAAT AAT20160826192511008/26/16 19:25:31  5-MIN KAAT 270325Z AUTO 33004KT 10SM CLR 23/M02 A3000 4300 18 6300 310/04 RMK AO2 T02331022
94299KAAT AAT20160826193011008/26/16 19:30:31  5-MIN KAAT 270330Z AUTO 32004KT 10SM CLR 22/M02 A3001 4300 19 6100 310/04 RMK AO2 T02221022
94299KAAT AAT20160826193511008/26/16 19:35:31  5-MIN KAAT 270335Z AUTO VRB03KT 10SM CLR 21/M02 A3001 4300 21 6000 VRB/03 RMK AO2 T02061022
94299KAAT AAT20160826194011008/26/16 19:40:31  5-MIN KAAT 270340Z AUTO 22004KT 10SM CLR 20/M02 A3001 4300 22 5900 210/04 RMK AO2 T02001022
94299KAAT AAT20160826194511008/26/16 19:45:31  5-MIN KAAT 270345Z AUTO 23005KT 10SM CLR 20/M03 A3001 4300 21 5900 210/05 RMK AO2 T02001028
94299KAAT AAT20160826195011708/26/16 19:50:31  5-MIN KAAT 270350Z AUTO 22006KT 10SM CLR 20/M03 A3001 4290 20 5900 210/06 RMK AO2 SLP129 T02001033
94299KAAT AAT20160826195511708/26/16 19:55:31  5-MIN KAAT 270355Z AUTO 22003KT 10SM CLR 20/M03 A3002 4290 20 5900 210/03 RMK AO2 SLP130 T02001033
94299KAAT AAT20160826200011008/26/16 20:00:31  5-MIN KAAT 270400Z AUTO 24004KT 10SM CLR 21/M03 A3002 4290 19 6000 230/04 RMK AO2 T02111033
94299KAAT AAT20160826200511008/26/16 20:05:31  5-MIN KAAT 270405Z AUTO 28003KT 10SM CLR 21/M03 A3002 4290 19 5900 270/03 RMK AO2 T02061033
94299KAAT AAT20160826201011008/26/16 20:10:31  5-MIN KAAT 270410Z AUTO 29005KT 10SM CLR 21/M03 A3002 4290 20 5900 280/05 RMK AO2 T02061028
94299KAAT AAT20160826201511008/26/16 20:15:31  5-MIN KAAT 270415Z AUTO 28006KT 10SM CLR 20/M03 A3003 4280 21 5900 260/06 RMK AO2 T02001028
94299KAAT AAT20160826202011008/26/16 20:20:31  5-MIN KAAT 270420Z AUTO 28006KT 10SM CLR 19/M02 A3003 4280 23 5800 270/06 RMK AO2 T01941022
94299KAAT AAT20160826202511008/26/16 20:25:31  5-MIN KAAT 270425Z AUTO 30005KT 10SM CLR 20/M02 A3003 4280 22 5900 290/05 RMK AO2 T02001022
94299KAAT AAT20160826203011008/26/16 20:30:31  5-MIN KAAT 270430Z AUTO 30007KT 10SM CLR 19/M02 A3003 4280 23 5800 280/07 RMK AO2 T01941022
94299KAAT AAT20160826203511008/26/16 20:35:31  5-MIN KAAT 270435Z AUTO 26009KT 10SM CLR 19/M02 A3003 4280 24 5800 240/09 RMK AO2 T01941017
94299KAAT AAT20160826204011008/26/16 20:40:31  5-MIN KAAT 270440Z AUTO 25008KT 10SM CLR 21/M03 A3003 4280 20 5900 230/08 RMK AO2 T02061028
94299KAAT AAT20160826204511008/26/16 20:45:31  5-MIN KAAT 270445Z AUTO 24008KT 10SM CLR 20/M03 A3003 4280 21 5900 230/08 RMK AO2 T02001028
94299KAAT AAT20160826205011708/26/16 20:50:31  5-MIN KAAT 270450Z AUTO 25007KT 10SM CLR 20/M02 A3003 4280 22 5900 240/07 RMK AO2 SLP131 T02001022
94299KAAT AAT20160826205511708/26/16 20:55:31  5-MIN KAAT 270455Z AUTO 25006KT 10SM CLR 19/M02 A3003 4280 24 5800 240/06 RMK AO2 SLP131 T01941017
94299KAAT AAT20160826210011008/26/16 21:00:31  5-MIN KAAT 270500Z AUTO 26007KT 10SM CLR 20/M01 A3004 4270 24 5900 240/07 RMK AO2 T02001011
94299KAAT AAT20160826210511008/26/16 21:05:31  5-MIN KAAT 270505Z AUTO 27006KT 10SM CLR 20/M01 A3004 4270 24 5900 250/06 RMK AO2 T02001011
94299KAAT AAT20160826211011008/26/16 21:10:31  5-MIN KAAT 270510Z AUTO 27005KT 10SM CLR 19/M01 A3004 4270 25 5800 260/05 RMK AO2 T01941011
94299KAAT AAT20160826211511008/26/16 21:15:31  5-MIN KAAT 270515Z AUTO 27004KT 10SM CLR 20/M01 A3004 4270 25 5900 250/04 RMK AO2 T02001006
94299KAAT AAT20160826212011008/26/16 21:20:31  5-MIN KAAT 270520Z AUTO 31004KT 10SM CLR 19/M01 A3004 4270 26 5800 300/04 RMK AO2 T01941006
94299KAAT AAT20160826212510908/26/16 21:25:31  5-MIN KAAT 270525Z AUTO 30004KT 10SM CLR 19/00 A3004 4270 28 5700 290/04 RMK AO2 T01890000
94299KAAT AAT20160826213010908/26/16 21:30:31  5-MIN KAAT 270530Z AUTO VRB03KT 10SM CLR 18/00 A3004 4270 30 5600 VRB/03 RMK AO2 T01780000
94299KAAT AAT20160826213510908/26/16 21:35:31  5-MIN KAAT 270535Z AUTO 05005KT 10SM CLR 18/00 A3004 4270 29 5700 030/05 RMK AO2 T01830000
94299KAAT AAT20160826214010908/26/16 21:40:31  5-MIN KAAT 270540Z AUTO 08004KT 10SM CLR 18/00 A3004 4270 30 5600 070/04 RMK AO2 T01780000
94299KAAT AAT20160826214510908/26/16 21:45:31  5-MIN KAAT 270545Z AUTO 00000KT 10SM CLR 18/00 A3004 4270 29 5700 000/00 RMK AO2 T01830000
94299KAAT AAT20160826215013408/26/16 21:50:31  5-MIN KAAT 270550Z AUTO VRB05KT 10SM CLR 21/01 A3005 4260 26 5900 VRB/05 RMK AO2 SLP130 T02060006 10306 20178 55000
94299KAAT AAT20160826215513408/26/16 21:55:31  5-MIN KAAT 270555Z AUTO 03003KT 10SM CLR 20/01 A3005 4260 27 5800 020/03 RMK AO2 SLP130 T02000006 10306 20178 51016
94299KAAT AAT20160826220010908/26/16 22:00:31  5-MIN KAAT 270600Z AUTO 34003KT 10SM CLR 19/01 A3005 4260 28 5800 320/03 RMK AO2 T01940006
94299KAAT AAT20160826220510908/26/16 22:05:31  5-MIN KAAT 270605Z AUTO 30005KT 10SM CLR 21/01 A3005 4260 26 5900 280/05 RMK AO2 T02060006
94299KAAT AAT20160826221010908/26/16 22:10:31  5-MIN KAAT 270610Z AUTO 31004KT 10SM CLR 21/01 A3005 4260 26 5900 290/04 RMK AO2 T02060006
94299KAAT AAT20160826221510908/26/16 22:15:31  5-MIN KAAT 270615Z AUTO 33003KT 10SM CLR 20/01 A3005 4260 27 5800 310/03 RMK AO2 T02000006
94299KAAT AAT20160826222010908/26/16 22:20:31  5-MIN KAAT 270620Z AUTO 00000KT 10SM CLR 19/01 A3005 4260 29 5700 000/00 RMK AO2 T01890006
94299KAAT AAT20160826222510908/26/16 22:25:31  5-MIN KAAT 270625Z AUTO 00000KT 10SM CLR 19/01 A3005 4260 29 5700 000/00 RMK AO2 T01890006
94299KAAT AAT20160826223009908/26/16 22:30:31  5-MIN KAAT 270630Z AUTO 10SM CLR 18/01 A3005 4260 31 5600 M /M RMK AO2 T01780006
94299KAAT AAT20160826223510908/26/16 22:35:31  5-MIN KAAT 270635Z AUTO 12007KT 10SM CLR 16/02 A3006 4260 37 5400 100/07 RMK AO2 T01610017
94299KAAT AAT20160826224010908/26/16 22:40:31  5-MIN KAAT 270640Z AUTO 13005KT 10SM CLR 16/01 A3006 4260 37 5300 110/05 RMK AO2 T01560011
94299KAAT AAT20160826224510908/26/16 22:45:31  5-MIN KAAT 270645Z AUTO VRB03KT 10SM CLR 17/01 A3006 4260 34 5500 VRB/03 RMK AO2 T01670011
94299KAAT AAT20160826225011608/26/16 22:50:31  5-MIN KAAT 270650Z AUTO 00000KT 10SM CLR 17/01 A3006 4250 33 5500 000/00 RMK AO2 SLP134 T01720011
94299KAAT AAT20160826225511608/26/16 22:55:31  5-MIN KAAT 270655Z AUTO 00000KT 10SM CLR 17/01 A3006 4250 34 5500 000/00 RMK AO2 SLP134 T01670011
94299KAAT AAT20160826230010908/26/16 23:00:31  5-MIN KAAT 270700Z AUTO 00000KT 10SM CLR 16/01 A3006 4260 37 5300 000/00 RMK AO2 T01560011
94299KAAT AAT20160826230510908/26/16 23:05:31  5-MIN KAAT 270705Z AUTO 18004KT 10SM CLR 16/01 A3006 4260 36 5400 170/04 RMK AO2 T01610011
94299KAAT AAT20160826231010908/26/16 23:10:31  5-MIN KAAT 270710Z AUTO 18004KT 10SM CLR 16/01 A3006 4250 36 5400 160/04 RMK AO2 T01610011
94299KAAT AAT20160826231510908/26/16 23:15:31  5-MIN KAAT 270715Z AUTO 00000KT 10SM CLR 17/02 A3006 4250 36 5500 000/00 RMK AO2 T01670017
94299KAAT AAT20160826232010908/26/16 23:20:31  5-MIN KAAT 270720Z AUTO 00000KT 10SM CLR 16/02 A3006 4250 37 5400 000/00 RMK AO2 T01610017
94299KAAT AAT20160826232510908/26/16 23:25:31  5-MIN KAAT 270725Z AUTO 21004KT 10SM CLR 17/02 A3006 4250 36 5500 200/04 RMK AO2 T01670017
94299KAAT AAT20160826233010908/26/16 23:30:31  5-MIN KAAT 270730Z AUTO 22005KT 10SM CLR 17/02 A3006 4250 35 5500 210/05 RMK AO2 T01720017
94299KAAT AAT20160826233510908/26/16 23:35:31  5-MIN KAAT 270735Z AUTO 22005KT 10SM CLR 17/01 A3006 4250 34 5500 200/05 RMK AO2 T01670011
94299KAAT AAT20160826234010908/26/16 23:40:31  5-MIN KAAT 270740Z AUTO 21006KT 10SM CLR 17/01 A3006 4250 34 5500 200/06 RMK AO2 T01670011
94299KAAT AAT20160826234510908/26/16 23:45:31  5-MIN KAAT 270745Z AUTO 17006KT 10SM CLR 16/01 A3006 4250 37 5300 160/06 RMK AO2 T01560011
94299KAAT AAT20160826235012608/26/16 23:50:31  5-MIN KAAT 270750Z AUTO 17005KT 10SM CLR 15/01 A3006 4250 38 5300 150/05 RMK AO2 SLP135 T01500011 403110033
94299KAAT AAT20160826235512608/26/16 23:55:31  5-MIN KAAT 270755Z AUTO 15005KT 10SM CLR 14/02 A3007 4250 43 5100 140/05 RMK AO2 SLP137 T01390017 403110033
94299KAAT AAT20160827000010908/27/16 00:00:31  5-MIN KAAT 270800Z AUTO 14005KT 10SM CLR 13/02 A3007 4250 46 5100 120/05 RMK AO2 T01330022
94299KAAT AAT20160827000510908/27/16 00:05:31  5-MIN KAAT 270805Z AUTO 14004KT 10SM CLR 14/02 A3007 4250 45 5100 130/04 RMK AO2 T01390022
94299KAAT AAT20160827001010908/27/16 00:10:31  5-MIN KAAT 270810Z AUTO 15004KT 10SM CLR 13/02 A3007 4240 46 5100 130/04 RMK AO2 T01330022
94299KAAT AAT20160827001510908/27/16 00:15:31  5-MIN KAAT 270815Z AUTO 14003KT 10SM CLR 13/02 A3007 4240 45 5100 130/03 RMK AO2 T01330017
94299KAAT AAT20160827002010908/27/16 00:20:31  5-MIN KAAT 270820Z AUTO 00000KT 10SM CLR 13/02 A3007 4240 46 5000 000/00 RMK AO2 T01280017
94299KAAT AAT20160827002510908/27/16 00:25:31  5-MIN KAAT 270825Z AUTO 14003KT 10SM CLR 13/02 A3007 4240 46 5000 120/03 RMK AO2 T01280017
94299KAAT AAT20160827003010908/27/16 00:30:31  5-MIN KAAT 270830Z AUTO 08003KT 10SM CLR 13/02 A3007 4240 46 5000 070/03 RMK AO2 T01280017
94299KAAT AAT20160827003510908/27/16 00:35:31  5-MIN KAAT 270835Z AUTO 11003KT 10SM CLR 13/02 A3007 4250 48 5000 090/03 RMK AO2 T01280022
94299KAAT AAT20160827004010908/27/16 00:40:31  5-MIN KAAT 270840Z AUTO 13005KT 10SM CLR 13/02 A3007 4250 45 5100 120/05 RMK AO2 T01330017
94299KAAT AAT20160827004510908/27/16 00:45:31  5-MIN KAAT 270845Z AUTO 12005KT 10SM CLR 13/02 A3007 4250 46 5000 110/05 RMK AO2 T01280017
94299KAAT AAT20160827005012208/27/16 00:50:31  5-MIN KAAT 270850Z AUTO 12005KT 10SM CLR 13/02 A3007 4250 46 5000 110/05 RMK AO2 SLP137 T01280017 51016
94299KAAT AAT20160827005512208/27/16 00:55:31  5-MIN KAAT 270855Z AUTO 13005KT 10SM CLR 14/01 A3007 4250 40 5100 110/05 RMK AO2 SLP136 T01390006 51006
94299KAAT AAT20160827010010908/27/16 01:00:31  5-MIN KAAT 270900Z AUTO 13003KT 10SM CLR 12/01 A3007 4240 44 4900 110/03 RMK AO2 T01220006
94299KAAT AAT20160827010510908/27/16 01:05:31  5-MIN KAAT 270905Z AUTO 13004KT 10SM CLR 12/01 A3007 4240 46 4900 120/04 RMK AO2 T01170006
94299KAAT AAT20160827011010908/27/16 01:10:31  5-MIN KAAT 270910Z AUTO 13003KT 10SM CLR 12/00 A3007 4240 43 4900 110/03 RMK AO2 T01220000
94299KAAT AAT20160827011510908/27/16 01:15:31  5-MIN KAAT 270915Z AUTO 00000KT 10SM CLR 12/01 A3007 4240 46 4900 000/00 RMK AO2 T01170006
94299KAAT AAT20160827012010908/27/16 01:20:31  5-MIN KAAT 270920Z AUTO VRB03KT 10SM CLR 12/00 A3007 4240 44 4900 VRB/03 RMK AO2 T01170000
94299KAAT AAT20160827012510908/27/16 01:25:31  5-MIN KAAT 270925Z AUTO 13006KT 10SM CLR 12/01 A3007 4240 44 4900 120/06 RMK AO2 T01220006
94299KAAT AAT20160827013010908/27/16 01:30:31  5-MIN KAAT 270930Z AUTO 11004KT 10SM CLR 13/01 A3007 4240 43 5100 100/04 RMK AO2 T01330011
94299KAAT AAT20160827013510908/27/16 01:35:31  5-MIN KAAT 270935Z AUTO 00000KT 10SM CLR 11/01 A3007 4240 48 4800 000/00 RMK AO2 T01110006
94299KAAT AAT20160827014010908/27/16 01:40:31  5-MIN KAAT 270940Z AUTO 00000KT 10SM CLR 11/01 A3007 4240 48 4800 000/00 RMK AO2 T01110006
94299KAAT AAT20160827014510908/27/16 01:45:31  5-MIN KAAT 270945Z AUTO 00000KT 10SM CLR 10/00 A3007 4240 49 4700 000/00 RMK AO2 T01000000
94299KAAT AAT20160827015011608/27/16 01:50:31  5-MIN KAAT 270950Z AUTO 00000KT 10SM CLR 09/01 A3007 4240 53 4600 000/00 RMK AO2 SLP143 T00940006
94299KAAT AAT20160827015511608/27/16 01:55:31  5-MIN KAAT 270955Z AUTO 00000KT 10SM CLR 09/00 A3007 4240 53 4500 000/00 RMK AO2 SLP144 T00890000
94299KAAT AAT20160827020010908/27/16 02:00:31  5-MIN KAAT 271000Z AUTO 00000KT 10SM CLR 09/00 A3007 4240 53 4500 000/00 RMK AO2 T00890000
94299KAAT AAT20160827020510908/27/16 02:05:31  5-MIN KAAT 271005Z AUTO 00000KT 10SM CLR 09/01 A3008 4240 56 4500 000/00 RMK AO2 T00890006
94299KAAT AAT20160827021010908/27/16 02:10:31  5-MIN KAAT 271010Z AUTO 34003KT 10SM CLR 09/01 A3008 4240 56 4500 330/03 RMK AO2 T00890006
94299KAAT AAT20160827021510908/27/16 02:15:31  5-MIN KAAT 271015Z AUTO 02003KT 10SM CLR 09/01 A3008 4240 53 4600 010/03 RMK AO2 T00940006
94299KAAT AAT20160827022010908/27/16 02:20:31  5-MIN KAAT 271020Z AUTO 02003KT 10SM CLR 10/00 A3008 4240 49 4700 360/03 RMK AO2 T01000000
94299KAAT AAT20160827022510908/27/16 02:25:31  5-MIN KAAT 271025Z AUTO 00000KT 10SM CLR 11/01 A3008 4240 50 4700 000/00 RMK AO2 T01060006
94299KAAT AAT20160827023010908/27/16 02:30:31  5-MIN KAAT 271030Z AUTO 00000KT 10SM CLR 11/01 A3008 4240 48 4800 000/00 RMK AO2 T01110006
94299KAAT AAT20160827023510908/27/16 02:35:31  5-MIN KAAT 271035Z AUTO 00000KT 10SM CLR 11/01 A3008 4230 48 4800 000/00 RMK AO2 T01110006
94299KAAT AAT20160827024010908/27/16 02:40:31  5-MIN KAAT 271040Z AUTO 00000KT 10SM CLR 12/01 A3008 4240 46 4900 000/00 RMK AO2 T01170006
94299KAAT AAT20160827024510908/27/16 02:45:31  5-MIN KAAT 271045Z AUTO 00000KT 10SM CLR 11/01 A3008 4230 48 4800 000/00 RMK AO2 T01110006
94299KAAT AAT20160827025011608/27/16 02:50:31  5-MIN KAAT 271050Z AUTO 11003KT 10SM CLR 11/01 A3008 4230 48 4800 090/03 RMK AO2 SLP141 T01110006
94299KAAT AAT20160827025511608/27/16 02:55:31  5-MIN KAAT 271055Z AUTO 12003KT 10SM CLR 09/00 A3008 4240 51 4600 100/03 RMK AO2 SLP143 T00940000
94299KAAT AAT20160827030010908/27/16 03:00:31  5-MIN KAAT 271100Z AUTO 00000KT 10SM CLR 09/01 A3008 4230 53 4600 000/00 RMK AO2 T00940006
94299KAAT AAT20160827030510908/27/16 03:05:31  5-MIN KAAT 271105Z AUTO 00000KT 10SM CLR 09/00 A3008 4230 51 4600 000/00 RMK AO2 T00940000
94299KAAT AAT20160827031011008/27/16 03:10:31  5-MIN KAAT 271110Z AUTO 00000KT 10SM CLR 08/M01 A3008 4230 55 4400 000/00 RMK AO2 T00781006
94299KAAT AAT20160827031511008/27/16 03:15:31  5-MIN KAAT 271115Z AUTO 00000KT 10SM CLR 07/M01 A3008 4230 55 4300 000/00 RMK AO2 T00721011
94299KAAT AAT20160827032011008/27/16 03:20:31  5-MIN KAAT 271120Z AUTO 00000KT 10SM CLR 08/M01 A3008 4230 53 4400 000/00 RMK AO2 T00781011
94299KAAT AAT20160827032511008/27/16 03:25:31  5-MIN KAAT 271125Z AUTO 00000KT 10SM CLR 08/M01 A3008 4230 53 4400 000/00 RMK AO2 T00781011
94299KAAT AAT20160827033011008/27/16 03:30:31  5-MIN KAAT 271130Z AUTO 00000KT 10SM CLR 08/M01 A3008 4240 53 4400 000/00 RMK AO2 T00781011
94299KAAT AAT20160827033511008/27/16 03:35:31  5-MIN KAAT 271135Z AUTO 00000KT 10SM CLR 07/M01 A3008 4240 55 4300 000/00 RMK AO2 T00721011
94299KAAT AAT20160827034011008/27/16 03:40:31  5-MIN KAAT 271140Z AUTO 00000KT 10SM CLR 07/M01 A3008 4240 57 4300 000/00 RMK AO2 T00721006
94299KAAT AAT20160827034510908/27/16 03:45:31  5-MIN KAAT 271145Z AUTO 00000KT 10SM CLR 08/00 A3008 4240 58 4400 000/00 RMK AO2 T00780000
94299KAAT AAT20160827035013408/27/16 03:50:31  5-MIN KAAT 271150Z AUTO 00000KT 10SM CLR 08/00 A3008 4230 58 4400 000/00 RMK AO2 SLP146 T00780000 10206 20067 51006
94299KAAT AAT20160827035513508/27/16 03:55:31  5-MIN KAAT 271155Z AUTO 00000KT 10SM CLR 08/M01 A3008 4230 55 4400 000/00 RMK AO2 SLP147 T00781006 10206 20067 51003
94299KAAT AAT20160827040011008/27/16 04:00:31  5-MIN KAAT 271200Z AUTO 08003KT 10SM CLR 07/M01 A3008 4230 55 4300 070/03 RMK AO2 T00721011
94299KAAT AAT20160827040511008/27/16 04:05:31  5-MIN KAAT 271205Z AUTO 00000KT 10SM CLR 06/M02 A3008 4230 57 4200 000/00 RMK AO2 T00611017
94299KAAT AAT20160827041011008/27/16 04:10:31  5-MIN KAAT 271210Z AUTO 00000KT 10SM CLR 06/M02 A3008 4230 57 4200 000/00 RMK AO2 T00611017
94299KAAT AAT20160827041511008/27/16 04:15:31  5-MIN KAAT 271215Z AUTO 00000KT 10SM CLR 06/M02 A3008 4230 57 4200 000/00 RMK AO2 T00611017
94299KAAT AAT20160827042011008/27/16 04:20:31  5-MIN KAAT 271220Z AUTO 00000KT 10SM CLR 06/M02 A3008 4230 57 4200 000/00 RMK AO2 T00611017
94299KAAT AAT20160827042511008/27/16 04:25:31  5-MIN KAAT 271225Z AUTO 00000KT 10SM CLR 06/M02 A3008 4230 57 4200 000/00 RMK AO2 T00611017
94299KAAT AAT20160827043011008/27/16 04:30:31  5-MIN KAAT 271230Z AUTO 00000KT 10SM CLR 07/M01 A3008 4230 57 4300 000/00 RMK AO2 T00721006
94299KAAT AAT20160827043511008/27/16 04:35:31  5-MIN KAAT 271235Z AUTO 00000KT 10SM CLR 07/M01 A3008 4230 60 4300 000/00 RMK AO2 T00671006
94299KAAT AAT20160827044010908/27/16 04:40:31  5-MIN KAAT 271240Z AUTO 00000KT 10SM CLR 08/00 A3008 4230 58 4400 000/00 RMK AO2 T00780000
94299KAAT AAT20160827044511008/27/16 04:45:31  5-MIN KAAT 271245Z AUTO 00000KT 10SM CLR 06/M01 A3008 4230 62 4200 000/00 RMK AO2 T00611006
94299KAAT AAT20160827045011708/27/16 04:50:31  5-MIN KAAT 271250Z AUTO 00000KT 10SM CLR 06/M02 A3008 4230 59 4100 000/00 RMK AO2 SLP151 T00561017
94299KAAT AAT20160827045511708/27/16 04:55:31  5-MIN KAAT 271255Z AUTO 00000KT 10SM CLR 06/M02 A3008 4230 57 4200 000/00 RMK AO2 SLP151 T00611017
94299KAAT AAT20160827050011008/27/16 05:00:31  5-MIN KAAT 271300Z AUTO 00000KT 10SM CLR 06/M02 A3009 4230 57 4100 000/00 RMK AO2 T00561022
94299KAAT AAT20160827050511008/27/16 05:05:31  5-MIN KAAT 271305Z AUTO 00000KT 10SM CLR 06/M02 A3009 4230 59 4100 000/00 RMK AO2 T00561017
94299KAAT AAT20160827051011008/27/16 05:10:31  5-MIN KAAT 271310Z AUTO 00000KT 10SM CLR 06/M02 A3009 4230 59 4100 000/00 RMK AO2 T00561017
94299KAAT AAT20160827051511008/27/16 05:15:31  5-MIN KAAT 271315Z AUTO 00000KT 10SM CLR 06/M02 A3009 4230 59 4100 000/00 RMK AO2 T00561017
94299KAAT AAT20160827052011008/27/16 05:20:31  5-MIN KAAT 271320Z AUTO 05003KT 10SM CLR 06/M02 A3009 4230 57 4200 030/03 RMK AO2 T00611017
94299KAAT AAT20160827052511008/27/16 05:25:31  5-MIN KAAT 271325Z AUTO 00000KT 10SM CLR 06/M02 A3009 4230 57 4200 000/00 RMK AO2 T00611017
94299KAAT AAT20160827053011008/27/16 05:30:31  5-MIN KAAT 271330Z AUTO 00000KT 10SM CLR 06/M03 A3009 4220 55 4100 000/00 RMK AO2 T00561028
94299KAAT AAT20160827053511008/27/16 05:35:31  5-MIN KAAT 271335Z AUTO 00000KT 10SM CLR 05/M03 A3009 4220 57 4100 000/00 RMK AO2 T00501028
94299KAAT AAT20160827054011008/27/16 05:40:31  5-MIN KAAT 271340Z AUTO 00000KT 10SM CLR 05/M03 A3009 4220 57 4100 000/00 RMK AO2 T00501028
94299KAAT AAT20160827054511008/27/16 05:45:31  5-MIN KAAT 271345Z AUTO 00000KT 10SM CLR 06/M02 A3009 4220 55 4200 000/00 RMK AO2 T00611022
94299KAAT AAT20160827055011708/27/16 05:50:31  5-MIN KAAT 271350Z AUTO 00000KT 10SM CLR 07/M02 A3010 4220 55 4300 000/00 RMK AO2 SLP157 T00671017
94299KAAT AAT20160827055511708/27/16 05:55:31  5-MIN KAAT 271355Z AUTO 00000KT 10SM CLR 07/M02 A3010 4220 55 4300 000/00 RMK AO2 SLP158 T00671017
94299KAAT AAT20160827060011008/27/16 06:00:31  5-MIN KAAT 271400Z AUTO 00000KT 10SM CLR 07/M01 A3009 4220 57 4300 000/00 RMK AO2 T00671011
94299KAAT AAT20160827060511008/27/16 06:05:31  5-MIN KAAT 271405Z AUTO 00000KT 10SM CLR 07/M01 A3010 4220 55 4300 000/00 RMK AO2 T00721011
94299KAAT AAT20160827061011008/27/16 06:10:31  5-MIN KAAT 271410Z AUTO 00000KT 10SM CLR 08/M02 A3009 4220 51 4400 000/00 RMK AO2 T00781017
94299KAAT AAT20160827061511008/27/16 06:15:31  5-MIN KAAT 271415Z AUTO 00000KT 10SM CLR 08/M01 A3010 4220 51 4500 000/00 RMK AO2 T00831011
94299KAAT AAT20160827062011008/27/16 06:20:31  5-MIN KAAT 271420Z AUTO 00000KT 10SM CLR 08/M01 A3010 4220 51 4500 000/00 RMK AO2 T00831011
94299KAAT AAT20160827062511008/27/16 06:25:31  5-MIN KAAT 271425Z AUTO 00000KT 10SM CLR 09/M01 A3010 4220 51 4500 000/00 RMK AO2 T00891006
94299KAAT AAT20160827063011008/27/16 06:30:31  5-MIN KAAT 271430Z AUTO 00000KT 10SM CLR 09/M01 A3010 4220 49 4600 000/00 RMK AO2 T00941006
94299KAAT AAT20160827063510908/27/16 06:35:31  5-MIN KAAT 271435Z AUTO 00000KT 10SM CLR 11/00 A3010 4220 48 4700 000/00 RMK AO2 T01060000
94299KAAT AAT20160827064010908/27/16 06:40:31  5-MIN KAAT 271440Z AUTO 00000KT 10SM CLR 11/00 A3010 4220 46 4800 000/00 RMK AO2 T01110000
94299KAAT AAT20160827064510908/27/16 06:45:31  5-MIN KAAT 271445Z AUTO 00000KT 10SM CLR 12/01 A3010 4220 46 4800 000/00 RMK AO2 T01170006
94299KAAT AAT20160827065012208/27/16 06:50:31  5-MIN KAAT 271450Z AUTO 00000KT 10SM CLR 12/00 A3010 4220 43 4900 000/00 RMK AO2 SLP153 T01220000 51003
94299KAAT AAT20160827065512208/27/16 06:55:31  5-MIN KAAT 271455Z AUTO 00000KT 10SM CLR 12/00 A3010 4220 43 4900 000/00 RMK AO2 SLP156 T01220000 51006
94299KAAT AAT20160827070010908/27/16 07:00:31  5-MIN KAAT 271500Z AUTO 00000KT 10SM CLR 13/01 A3010 4210 41 5000 000/00 RMK AO2 T01330006
94299KAAT AAT20160827070510908/27/16 07:05:31  5-MIN KAAT 271505Z AUTO 00000KT 10SM CLR 14/01 A3010 4210 40 5100 000/00 RMK AO2 T01390006
94299KAAT AAT20160827071010908/27/16 07:10:31  5-MIN KAAT 271510Z AUTO 00000KT 10SM CLR 14/01 A3010 4210 38 5200 000/00 RMK AO2 T01440006
94299KAAT AAT20160827071510908/27/16 07:15:31  5-MIN KAAT 271515Z AUTO 00000KT 10SM CLR 14/01 A3010 4220 38 5200 000/00 RMK AO2 T01440006
94299KAAT AAT20160827072010908/27/16 07:20:31  5-MIN KAAT 271520Z AUTO 00000KT 10SM CLR 15/01 A3010 4220 37 5200 000/00 RMK AO2 T01500006
94299KAAT AAT20160827072510908/27/16 07:25:31  5-MIN KAAT 271525Z AUTO 00000KT 10SM CLR 15/01 A3010 4220 37 5200 000/00 RMK AO2 T01500006
94299KAAT AAT20160827073010908/27/16 07:30:31  5-MIN KAAT 271530Z AUTO 00000KT 10SM CLR 16/00 A3010 4220 34 5300 000/00 RMK AO2 T01560000
94299KAAT AAT20160827073510908/27/16 07:35:31  5-MIN KAAT 271535Z AUTO 00000KT 10SM CLR 16/00 A3010 4220 34 5300 000/00 RMK AO2 T01560000
94299KAAT AAT20160827074010908/27/16 07:40:31  5-MIN KAAT 271540Z AUTO 00000KT 10SM CLR 16/00 A3010 4220 33 5400 000/00 RMK AO2 T01610000
94299KAAT AAT20160827074510908/27/16 07:45:31  5-MIN KAAT 271545Z AUTO 00000KT 10SM CLR 17/00 A3009 4220 32 5400 000/00 RMK AO2 T01670000
94299KAAT AAT20160827075011608/27/16 07:50:31  5-MIN KAAT 271550Z AUTO 00000KT 10SM CLR 17/00 A3009 4220 31 5500 000/00 RMK AO2 SLP152 T01720000
94299KAAT AAT20160827075511608/27/16 07:55:31  5-MIN KAAT 271555Z AUTO 00000KT 10SM CLR 17/00 A3010 4220 31 5500 000/00 RMK AO2 SLP153 T01720000
94299KAAT AAT20160827080010908/27/16 08:00:31  5-MIN KAAT 271600Z AUTO 00000KT 10SM CLR 18/00 A3010 4220 30 5500 000/00 RMK AO2 T01780000
94299KAAT AAT20160827080510908/27/16 08:05:31  5-MIN KAAT 271605Z AUTO 00000KT 10SM CLR 18/00 A3010 4220 29 5600 000/00 RMK AO2 T01830000
94299KAAT AAT20160827081010908/27/16 08:10:31  5-MIN KAAT 271610Z AUTO 00000KT 10SM CLR 18/00 A3010 4220 29 5600 000/00 RMK AO2 T01830000
94299KAAT AAT20160827081510908/27/16 08:15:31  5-MIN KAAT 271615Z AUTO 00000KT 10SM CLR 19/00 A3010 4220 28 5700 000/00 RMK AO2 T01890000
94299KAAT AAT20160827082010908/27/16 08:20:31  5-MIN KAAT 271620Z AUTO 00000KT 10SM CLR 19/00 A3010 4220 28 5700 000/00 RMK AO2 T01890000
94299KAAT AAT20160827082510908/27/16 08:25:31  5-MIN KAAT 271625Z AUTO 00000KT 10SM CLR 19/00 A3010 4220 27 5700 000/00 RMK AO2 T01940000
94299KAAT AAT20160827083010908/27/16 08:30:31  5-MIN KAAT 271630Z AUTO 20003KT 10SM CLR 20/00 A3010 4220 26 5800 190/03 RMK AO2 T02000000
94299KAAT AAT20160827083510908/27/16 08:35:31  5-MIN KAAT 271635Z AUTO VRB03KT 10SM CLR 21/00 A3010 4220 24 5900 VRB/03 RMK AO2 T02110000
94299KAAT AAT20160827084010908/27/16 08:40:31  5-MIN KAAT 271640Z AUTO 00000KT 10SM CLR 21/00 A3010 4220 24 5900 000/00 RMK AO2 T02110000
94299KAAT AAT20160827084510908/27/16 08:45:31  5-MIN KAAT 271645Z AUTO 00000KT 10SM CLR 21/00 A3010 4220 24 5900 000/00 RMK AO2 T02110000
94299KAAT AAT20160827085011608/27/16 08:50:31  5-MIN KAAT 271650Z AUTO 00000KT 10SM CLR 21/00 A3010 4220 24 5900 000/00 RMK AO2 SLP149 T02110000
94299KAAT AAT20160827085511608/27/16 08:55:31  5-MIN KAAT 271655Z AUTO 00000KT 10SM CLR 22/00 A3010 4220 22 6000 000/00 RMK AO2 SLP148 T02220000
94299KAAT AAT20160827090011008/27/16 09:00:31  5-MIN KAAT 271700Z AUTO 00000KT 10SM CLR 22/M01 A3010 4220 21 6000 000/00 RMK AO2 T02221011
94299KAAT AAT20160827090511008/27/16 09:05:31  5-MIN KAAT 271705Z AUTO 00000KT 10SM CLR 22/M01 A3010 4220 21 6000 000/00 RMK AO2 T02221011
94299KAAT AAT20160827091011008/27/16 09:10:31  5-MIN KAAT 271710Z AUTO 00000KT 10SM CLR 22/M02 A3010 4220 19 6000 000/00 RMK AO2 T02221022
94299KAAT AAT20160827091511008/27/16 09:15:31  5-MIN KAAT 271715Z AUTO 00000KT 10SM CLR 23/M02 A3010 4220 18 6100 000/00 RMK AO2 T02281022
94299KAAT AAT20160827092011008/27/16 09:20:31  5-MIN KAAT 271720Z AUTO 00000KT 10SM CLR 23/M02 A3010 4220 18 6200 000/00 RMK AO2 T02331022
94299KAAT AAT20160827092511008/27/16 09:25:31  5-MIN KAAT 271725Z AUTO 00000KT 10SM CLR 23/M03 A3009 4220 16 6200 000/00 RMK AO2 T02331033
94299KAAT AAT20160827093011008/27/16 09:30:31  5-MIN KAAT 271730Z AUTO 00000KT 10SM CLR 24/M03 A3009 4220 16 6200 000/00 RMK AO2 T02391028
94299KAAT AAT20160827093511008/27/16 09:35:31  5-MIN KAAT 271735Z AUTO 27005KT 10SM CLR 24/M03 A3009 4220 16 6200 260/05 RMK AO2 T02391028
94299KAAT AAT20160827094011008/27/16 09:40:31  5-MIN KAAT 271740Z AUTO 28004KT 10SM CLR 24/M03 A3009 4220 16 6200 260/04 RMK AO2 T02391033
94299KAAT AAT20160827094511008/27/16 09:45:31  5-MIN KAAT 271745Z AUTO VRB04KT 10SM CLR 24/M03 A3009 4230 16 6300 VRB/04 RMK AO2 T02441028
94299KAAT AAT20160827095013508/27/16 09:50:31  5-MIN KAAT 271750Z AUTO VRB03KT 10SM CLR 24/M03 A3009 4230 16 6300 VRB/03 RMK AO2 SLP141 T02441028 10244 20050 51006
94299KAAT AAT20160827095513508/27/16 09:55:31  5-MIN KAAT 271755Z AUTO 25004KT 10SM CLR 25/M03 A3009 4230 15 6400 230/04 RMK AO2 SLP141 T02501028 10250 20050 58003
94299KAAT AAT20160827100011008/27/16 10:00:31  5-MIN KAAT 271800Z AUTO VRB03KT 10SM CLR 26/M03 A3009 4230 15 6400 VRB/03 RMK AO2 T02561028
94299KAAT AAT20160827100511008/27/16 10:05:31  5-MIN KAAT 271805Z AUTO VRB03KT 10SM CLR 26/M03 A3009 4230 15 6400 VRB/03 RMK AO2 T02561028
94299KAAT AAT20160827101011008/27/16 10:10:31  5-MIN KAAT 271810Z AUTO 00000KT 10SM CLR 25/M03 A3008 4230 15 6400 000/00 RMK AO2 T02501028
94299KAAT AAT20160827101511008/27/16 10:15:31  5-MIN KAAT 271815Z AUTO 30004KT 10SM CLR 26/M03 A3008 4230 14 6500 290/04 RMK AO2 T02611028
94299KAAT AAT20160827102011008/27/16 10:20:31  5-MIN KAAT 271820Z AUTO VRB04KT 10SM CLR 26/M03 A3008 4230 15 6400 VRB/04 RMK AO2 T02561028
94299KAAT AAT20160827102511008/27/16 10:25:31  5-MIN KAAT 271825Z AUTO 05003KT 10SM CLR 26/M02 A3008 4230 15 6500 030/03 RMK AO2 T02611022
94299KAAT AAT20160827103011008/27/16 10:30:31  5-MIN KAAT 271830Z AUTO VRB06KT 10SM CLR 27/M02 A3008 4230 14 6500 VRB/06 RMK AO2 T02671022
94299KAAT AAT20160827103511008/27/16 10:35:31  5-MIN KAAT 271835Z AUTO 28007KT 10SM CLR 27/M02 A3008 4240 14 6500 270/07 RMK AO2 T02671022
94299KAAT AAT20160827104011008/27/16 10:40:31  5-MIN KAAT 271840Z AUTO 25004KT 10SM CLR 26/M02 A3008 4240 15 6500 230/04 RMK AO2 T02611022
94299KAAT AAT20160827104511008/27/16 10:45:31  5-MIN KAAT 271845Z AUTO 29005KT 10SM CLR 27/M02 A3008 4240 14 6600 270/05 RMK AO2 T02671022
94299KAAT AAT20160827105011708/27/16 10:50:31  5-MIN KAAT 271850Z AUTO 33006KT 10SM CLR 27/M02 A3007 4240 14 6600 310/06 RMK AO2 SLP137 T02721022
94299KAAT AAT20160827105511708/27/16 10:55:31  5-MIN KAAT 271855Z AUTO VRB05KT 10SM CLR 27/M02 A3007 4240 14 6600 VRB/05 RMK AO2 SLP136 T02721022
94299KAAT AAT20160827110011008/27/16 11:00:31  5-MIN KAAT 271900Z AUTO VRB05KT 10SM CLR 27/M02 A3007 4240 14 6600 VRB/05 RMK AO2 T02721022
94299KAAT AAT20160827110511008/27/16 11:05:31  5-MIN KAAT 271905Z AUTO 27007KT 10SM CLR 28/M02 A3007 4240 14 6700 260/07 RMK AO2 T02831017
94299KAAT AAT20160827111011008/27/16 11:10:31  5-MIN KAAT 271910Z AUTO VRB05KT 10SM CLR 28/M02 A3007 4240 14 6700 VRB/05 RMK AO2 T02781017
94299KAAT AAT20160827111511008/27/16 11:15:31  5-MIN KAAT 271915Z AUTO VRB04KT 10SM CLR 28/M02 A3007 4240 14 6700 VRB/04 RMK AO2 T02781017
94299KAAT AAT20160827112011008/27/16 11:20:31  5-MIN KAAT 271920Z AUTO VRB05KT 10SM CLR 28/M02 A3007 4250 14 6700 VRB/05 RMK AO2 T02781017
94299KAAT AAT20160827112510008/27/16 11:25:31  5-MIN KAAT 271925Z AUTO 10SM CLR 28/M02 A3007 4250 14 6700 M /M RMK AO2 T02781017
94299KAAT AAT20160827113010008/27/16 11:30:31  5-MIN KAAT 271930Z AUTO 10SM CLR 28/M01 A3006 4250 15 6700 M /M RMK AO2 T02781011
94299KAAT AAT20160827113511008/27/16 11:35:31  5-MIN KAAT 271935Z AUTO 28007KT 10SM CLR 29/M01 A3006 4250 14 6800 270/07 RMK AO2 T02891011
94299KAAT AAT20160827114011008/27/16 11:40:31  5-MIN KAAT 271940Z AUTO 29008KT 10SM CLR 29/M01 A3006 4250 13 6900 270/08 RMK AO2 T02941011
94299KAAT AAT20160827114510008/27/16 11:45:31  5-MIN KAAT 271945Z AUTO 10SM CLR 28/M01 A3006 4250 15 6700 M /M RMK AO2 T02781011
94299KAAT AAT20160827115011708/27/16 11:50:31  5-MIN KAAT 271950Z AUTO VRB05KT 10SM CLR 29/M01 A3006 4250 14 6800 VRB/05 RMK AO2 SLP131 T02891011
94299KAAT AAT20160827115511708/27/16 11:55:31  5-MIN KAAT 271955Z AUTO 28010KT 10SM CLR 29/M01 A3006 4260 14 6800 270/10 RMK AO2 SLP132 T02891006
94299KAAT AAT20160827120011508/27/16 12:00:31  5-MIN KAAT 272000Z AUTO 28010G15KT 10SM CLR 29/00 A3006 4260 14 6900 260/10G15 RMK AO2 T02940000
94299KAAT AAT20160827120511608/27/16 12:05:31  5-MIN KAAT 272005Z AUTO 27010G17KT 10SM CLR 29/M01 A3005 4260 14 6900 260/10G17 RMK AO2 T02941006
94299KAAT AAT20160827121011508/27/16 12:10:31  5-MIN KAAT 272010Z AUTO 27010G19KT 10SM CLR 30/00 A3005 4260 14 6900 260/10G19 RMK AO2 T03000000
94299KAAT AAT20160827121511608/27/16 12:15:31  5-MIN KAAT 272015Z AUTO 27009G16KT 10SM CLR 30/M01 A3005 4260 13 6900 250/09G16 RMK AO2 T03001006
94299KAAT AAT20160827122011608/27/16 12:20:31  5-MIN KAAT 272020Z AUTO 29012G16KT 10SM CLR 29/M01 A3006 4260 14 6900 270/12G16 RMK AO2 T02941006
94299KAAT AAT20160827122513208/27/16 12:25:31  5-MIN KAAT 272025Z AUTO 26009G15KT 230V290 10SM CLR 31/M01 A3005 4260 13 7000 240/09G15 220V280 RMK AO2 T03061006
94299KAAT AAT20160827123013208/27/16 12:30:31  5-MIN KAAT 272030Z AUTO 23009G17KT 200V260 10SM CLR 30/M01 A3005 4260 13 6900 220/09G17 190V250 RMK AO2 T03001006
94299KAAT AAT20160827123511608/27/16 12:35:31  5-MIN KAAT 272035Z AUTO 26009G17KT 10SM CLR 30/M01 A3005 4260 13 6900 250/09G17 RMK AO2 T03001006
94299KAAT AAT20160827124010908/27/16 12:40:31  5-MIN KAAT 272040Z AUTO 25008KT 10SM CLR 29/00 A3005 4260 14 6900 230/08 RMK AO2 T02940000
94299KAAT AAT20160827124511508/27/16 12:45:31  5-MIN KAAT 272045Z AUTO 27014G19KT 10SM CLR 30/00 A3005 4260 14 6900 260/14G19 RMK AO2 T03000000
94299KAAT AAT20160827125012808/27/16 12:50:31  5-MIN KAAT 272050Z AUTO 27014G19KT 10SM CLR 30/00 A3005 4260 14 6900 260/14G19 RMK AO2 SLP130 T03000000 58003
94299KAAT AAT20160827125512808/27/16 12:55:31  5-MIN KAAT 272055Z AUTO 28013G21KT 10SM CLR 31/00 A3005 4260 13 7000 270/13G21 RMK AO2 SLP128 T03060000 56012
94299KAAT AAT20160827130011508/27/16 13:00:31  5-MIN KAAT 272100Z AUTO 25012G21KT 10SM CLR 31/00 A3005 4260 13 7000 240/12G21 RMK AO2 T03060000
94299KAAT AAT20160827130511508/27/16 13:05:31  5-MIN KAAT 272105Z AUTO 28012G21KT 10SM CLR 31/00 A3005 4270 13 7000 270/12G21 RMK AO2 T03060000
94299KAAT AAT20160827131011508/27/16 13:10:31  5-MIN KAAT 272110Z AUTO 28016G21KT 10SM CLR 31/00 A3005 4260 13 7000 270/16G21 RMK AO2 T03060000
94299KAAT AAT20160827131511608/27/16 13:15:31  5-MIN KAAT 272115Z AUTO 28016G19KT 10SM CLR 31/M01 A3005 4270 13 7100 260/16G19 RMK AO2 T03111006
94299KAAT AAT20160827132011608/27/16 13:20:31  5-MIN KAAT 272120Z AUTO 28018G23KT 10SM CLR 31/M01 A3005 4260 12 7000 260/18G23 RMK AO2 T03061011
94299KAAT AAT20160827132511608/27/16 13:25:31  5-MIN KAAT 272125Z AUTO 28016G23KT 10SM CLR 31/M01 A3004 4270 12 7000 260/16G23 RMK AO2 T03061011
94299KAAT AAT20160827133011608/27/16 13:30:31  5-MIN KAAT 272130Z AUTO 29014G22KT 10SM CLR 31/M01 A3004 4270 12 7000 270/14G22 RMK AO2 T03061011
94299KAAT AAT20160827133510908/27/16 13:35:31  5-MIN KAAT 272135Z AUTO 27012KT 10SM CLR 31/00 A3004 4270 13 7000 260/12 RMK AO2 T03060000
94299KAAT AAT20160827134011008/27/16 13:40:31  5-MIN KAAT 272140Z AUTO 29013KT 10SM CLR 31/M01 A3004 4270 13 7100 270/13 RMK AO2 T03111006
94299KAAT AAT20160827134511608/27/16 13:45:31  5-MIN KAAT 272145Z AUTO 29016G20KT 10SM CLR 31/M01 A3004 4270 13 7000 270/16G20 RMK AO2 T03061006
94299KAAT AAT20160827135011708/27/16 13:50:31  5-MIN KAAT 272150Z AUTO 28015KT 10SM CLR 31/M01 A3004 4270 13 7100 270/15 RMK AO2 SLP129 T03111006
94299KAAT AAT20160827135512308/27/16 13:55:31  5-MIN KAAT 272155Z AUTO 29013G22KT 10SM CLR 31/M01 A3004 4270 12 7000 280/13G22 RMK AO2 SLP130 T03061011
94299KAAT AAT20160827140011608/27/16 14:00:31  5-MIN KAAT 272200Z AUTO 28014G24KT 10SM CLR 31/M01 A3004 4270 12 7100 270/14G24 RMK AO2 T03111011
94299KAAT AAT20160827140511608/27/16 14:05:31  5-MIN KAAT 272205Z AUTO 29015G24KT 10SM CLR 31/M01 A3004 4270 12 7000 280/15G24 RMK AO2 T03061011
94299KAAT AAT20160827141011608/27/16 14:10:31  5-MIN KAAT 272210Z AUTO 27013G19KT 10SM CLR 31/M01 A3003 4280 12 7100 260/13G19 RMK AO2 T03111011
94299KAAT AAT20160827141511008/27/16 14:15:31  5-MIN KAAT 272215Z AUTO 28014KT 10SM CLR 31/M01 A3003 4280 12 7000 260/14 RMK AO2 T03061011
94299KAAT AAT20160827142011608/27/16 14:20:31  5-MIN KAAT 272220Z AUTO 25010G20KT 10SM CLR 31/M02 A3003 4280 12 7000 240/10G20 RMK AO2 T03061017
94299KAAT AAT20160827142511608/27/16 14:25:31  5-MIN KAAT 272225Z AUTO 27013G20KT 10SM CLR 31/M02 A3003 4280 12 7000 250/13G20 RMK AO2 T03061017
94299KAAT AAT20160827143011608/27/16 14:30:31  5-MIN KAAT 272230Z AUTO 25013G20KT 10SM CLR 31/M01 A3003 4280 12 7100 240/13G20 RMK AO2 T03111011
94299KAAT AAT20160827143511608/27/16 14:35:31  5-MIN KAAT 272235Z AUTO 27014G20KT 10SM CLR 31/M01 A3003 4280 12 7100 260/14G20 RMK AO2 T03111011
94299KAAT AAT20160827144011608/27/16 14:40:31  5-MIN KAAT 272240Z AUTO 25013G19KT 10SM CLR 31/M02 A3003 4280 12 7100 230/13G19 RMK AO2 T03111017
94299KAAT AAT20160827144511608/27/16 14:45:31  5-MIN KAAT 272245Z AUTO 26011G19KT 10SM CLR 31/M01 A3002 4290 12 7100 250/11G19 RMK AO2 T03111011
94299KAAT AAT20160827145012308/27/16 14:50:31  5-MIN KAAT 272250Z AUTO 24012G17KT 10SM CLR 31/M01 A3002 4290 12 7100 230/12G17 RMK AO2 SLP122 T03111011
94299KAAT AAT20160827145512208/27/16 14:55:31  5-MIN KAAT 272255Z AUTO 27015G20KT 10SM CLR 31/00 A3003 4280 13 7100 260/15G20 RMK AO2 SLP125 T03110000
94299KAAT AAT20160827150011508/27/16 15:00:31  5-MIN KAAT 272300Z AUTO 25010G20KT 10SM CLR 31/00 A3002 4290 13 7000 230/10G20 RMK AO2 T03060000
94299KAAT AAT20160827150511508/27/16 15:05:31  5-MIN KAAT 272305Z AUTO 24015G22KT 10SM CLR 31/00 A3002 4290 13 7000 230/15G22 RMK AO2 T03060000
94299KAAT AAT20160827151011608/27/16 15:10:31  5-MIN KAAT 272310Z AUTO 26012G22KT 10SM CLR 31/M01 A3002 4290 13 7000 250/12G22 RMK AO2 T03061006
94299KAAT AAT20160827151511608/27/16 15:15:31  5-MIN KAAT 272315Z AUTO 26012G18KT 10SM CLR 31/M01 A3002 4290 13 7000 240/12G18 RMK AO2 T03061006
94299KAAT AAT20160827152011508/27/16 15:20:31  5-MIN KAAT 272320Z AUTO 26012G18KT 10SM CLR 31/00 A3002 4290 13 7000 250/12G18 RMK AO2 T03060000
94299KAAT AAT20160827152511508/27/16 15:25:31  5-MIN KAAT 272325Z AUTO VRB06G18KT 10SM CLR 31/00 A3002 4290 13 7000 VRB/06G18 RMK AO2 T03060000
94299KAAT AAT20160827153011508/27/16 15:30:31  5-MIN KAAT 272330Z AUTO 24010G16KT 10SM CLR 31/00 A3002 4290 13 7000 230/10G16 RMK AO2 T03060000
94299KAAT AAT20160827153511508/27/16 15:35:31  5-MIN KAAT 272335Z AUTO 24011G18KT 10SM CLR 30/00 A3002 4290 14 7000 230/11G18 RMK AO2 T03000000
94299KAAT AAT20160827154011508/27/16 15:40:31  5-MIN KAAT 272340Z AUTO 25009G18KT 10SM CLR 30/00 A3002 4290 14 7000 240/09G18 RMK AO2 T03000000
94299KAAT AAT20160827154511508/27/16 15:45:31  5-MIN KAAT 272345Z AUTO 25006G18KT 10SM CLR 31/00 A3002 4290 13 7000 230/06G18 RMK AO2 T03060000
94299KAAT AAT20160827155014008/27/16 15:50:31  5-MIN KAAT 272350Z AUTO 25013G18KT 10SM CLR 31/00 A3002 4290 13 7100 230/13G18 RMK AO2 SLP124 T03110000 10311 20250 56012
94299KAAT AAT20160827155514008/27/16 15:55:31  5-MIN KAAT 272355Z AUTO 27013G18KT 10SM CLR 31/00 A3002 4290 13 7000 260/13G18 RMK AO2 SLP124 T03060000 10311 20250 56010
94299KAAT AAT20160827160010908/27/16 16:00:31  5-MIN KAAT 280000Z AUTO 25011KT 10SM CLR 31/00 A3001 4290 13 7000 230/11 RMK AO2 T03060000
94299KAAT AAT20160827160511008/27/16 16:05:31  5-MIN KAAT 280005Z AUTO 27011KT 10SM CLR 31/M01 A3001 4290 13 7000 260/11 RMK AO2 T03061006
94299KAAT AAT20160827161011608/27/16 16:10:31  5-MIN KAAT 280010Z AUTO 26013G17KT 10SM CLR 31/M01 A3002 4290 13 7000 250/13G17 RMK AO2 T03061006
94299KAAT AAT20160827161511608/27/16 16:15:31  5-MIN KAAT 280015Z AUTO 25010G18KT 10SM CLR 30/M01 A3001 4290 13 7000 230/10G18 RMK AO2 T03001006
94299KAAT AAT20160827162011508/27/16 16:20:31  5-MIN KAAT 280020Z AUTO 24013G18KT 10SM CLR 31/00 A3001 4290 13 7000 220/13G18 RMK AO2 T03060000
94299KAAT AAT20160827162510908/27/16 16:25:31  5-MIN KAAT 280025Z AUTO 25013KT 10SM CLR 30/00 A3001 4300 14 7000 240/13 RMK AO2 T03000000
94299KAAT AAT20160827163010908/27/16 16:30:31  5-MIN KAAT 280030Z AUTO 25012KT 10SM CLR 30/00 A3001 4300 14 7000 240/12 RMK AO2 T03000000
94299KAAT AAT20160827163511508/27/16 16:35:31  5-MIN KAAT 280035Z AUTO 25012G18KT 10SM CLR 30/00 A3001 4300 14 7000 240/12G18 RMK AO2 T03000000
94299KAAT AAT20160827164011508/27/16 16:40:31  5-MIN KAAT 280040Z AUTO 26010G18KT 10SM CLR 30/00 A3001 4290 14 7000 240/10G18 RMK AO2 T03000000
94299KAAT AAT20160827164511508/27/16 16:45:31  5-MIN KAAT 280045Z AUTO 26014G17KT 10SM CLR 30/00 A3001 4300 14 7000 240/14G17 RMK AO2 T03000000
94299KAAT AAT20160827165012208/27/16 16:50:31  5-MIN KAAT 280050Z AUTO 25009G17KT 10SM CLR 30/00 A3001 4290 14 7000 230/09G17 RMK AO2 SLP127 T03000000
94299KAAT AAT20160827165512308/27/16 16:55:31  5-MIN KAAT 280055Z AUTO 25012G17KT 10SM CLR 29/M01 A3001 4290 14 6900 230/12G17 RMK AO2 SLP127 T02941006
94299KAAT AAT20160827170010908/27/16 17:00:31  5-MIN KAAT 280100Z AUTO 24013KT 10SM CLR 29/00 A3001 4290 14 6900 230/13 RMK AO2 T02940000
94299KAAT AAT20160827170510908/27/16 17:05:31  5-MIN KAAT 280105Z AUTO 25010KT 10SM CLR 29/00 A3001 4290 14 6900 230/10 RMK AO2 T02940000
94299KAAT AAT20160827171010908/27/16 17:10:31  5-MIN KAAT 280110Z AUTO 25013KT 10SM CLR 29/00 A3001 4290 14 6900 230/13 RMK AO2 T02940000
94299KAAT AAT20160827171510908/27/16 17:15:31  5-MIN KAAT 280115Z AUTO 24010KT 10SM CLR 29/00 A3001 4290 15 6900 220/10 RMK AO2 T02890000
94299KAAT AAT20160827172010908/27/16 17:20:31  5-MIN KAAT 280120Z AUTO 24011KT 10SM CLR 29/00 A3001 4290 15 6900 220/11 RMK AO2 T02890000
94299KAAT AAT20160827172511008/27/16 17:25:31  5-MIN KAAT 280125Z AUTO 25014KT 10SM CLR 29/M01 A3001 4290 14 6900 230/14 RMK AO2 T02891006
94299KAAT AAT20160827173011008/27/16 17:30:31  5-MIN KAAT 280130Z AUTO 24010KT 10SM CLR 29/M01 A3001 4300 14 6900 230/10 RMK AO2 T02891006
94299KAAT AAT20160827173511008/27/16 17:35:31  5-MIN KAAT 280135Z AUTO 24011KT 10SM CLR 29/M01 A3001 4290 14 6900 230/11 RMK AO2 T02891006
94299KAAT AAT20160827174011008/27/16 17:40:31  5-MIN KAAT 280140Z AUTO 26013KT 10SM CLR 29/M01 A3001 4290 14 6900 240/13 RMK AO2 T02891006
94299KAAT AAT20160827174511008/27/16 17:45:31  5-MIN KAAT 280145Z AUTO 26012KT 10SM CLR 28/M01 A3001 4290 15 6800 240/12 RMK AO2 T02831006
94299KAAT AAT20160827175011708/27/16 17:50:31  5-MIN KAAT 280150Z AUTO 26012KT 10SM CLR 28/M01 A3002 4290 15 6800 250/12 RMK AO2 SLP128 T02831006
94299KAAT AAT20160827175511708/27/16 17:55:31  5-MIN KAAT 280155Z AUTO 27013KT 10SM CLR 28/M01 A3002 4290 15 6800 250/13 RMK AO2 SLP128 T02831006
94299KAAT AAT20160827180011008/27/16 18:00:31  5-MIN KAAT 280200Z AUTO 26011KT 10SM CLR 28/M01 A3002 4290 15 6700 240/11 RMK AO2 T02781006
94299KAAT AAT20160827180511008/27/16 18:05:31  5-MIN KAAT 280205Z AUTO 25013KT 10SM CLR 28/M01 A3002 4290 15 6700 240/13 RMK AO2 T02781006
94299KAAT AAT20160827181010908/27/16 18:10:31  5-MIN KAAT 280210Z AUTO 26011KT 10SM CLR 27/00 A3002 4290 16 6700 240/11 RMK AO2 T02720000
94299KAAT AAT20160827181510908/27/16 18:15:31  5-MIN KAAT 280215Z AUTO 26013KT 10SM CLR 27/00 A3002 4290 16 6700 250/13 RMK AO2 T02720000
94299KAAT AAT20160827182010908/27/16 18:20:31  5-MIN KAAT 280220Z AUTO 26012KT 10SM CLR 27/01 A3003 4280 17 6700 250/12 RMK AO2 T02720006
94299KAAT AAT20160827182510908/27/16 18:25:31  5-MIN KAAT 280225Z AUTO 26011KT 10SM CLR 27/01 A3003 4280 18 6600 250/11 RMK AO2 T02670006
94299KAAT AAT20160827183010908/27/16 18:30:31  5-MIN KAAT 280230Z AUTO 26011KT 10SM CLR 26/01 A3003 4280 18 6500 250/11 RMK AO2 T02610006
94299KAAT AAT20160827183510908/27/16 18:35:31  5-MIN KAAT 280235Z AUTO 26008KT 10SM CLR 26/01 A3003 4280 19 6500 250/08 RMK AO2 T02610011
94299KAAT AAT20160827184010908/27/16 18:40:31  5-MIN KAAT 280240Z AUTO 27009KT 10SM CLR 26/01 A3003 4280 20 6500 250/09 RMK AO2 T02560011
94299KAAT AAT20160827184510908/27/16 18:45:31  5-MIN KAAT 280245Z AUTO 26011KT 10SM CLR 26/01 A3003 4280 20 6500 250/11 RMK AO2 T02560011
94299KAAT AAT20160827185012208/27/16 18:50:31  5-MIN KAAT 280250Z AUTO 27010KT 10SM CLR 25/01 A3004 4270 20 6400 250/10 RMK AO2 SLP132 T02500011 56010
94299KAAT AAT20160827185512208/27/16 18:55:31  5-MIN KAAT 280255Z AUTO 27009KT 10SM CLR 25/01 A3004 4270 20 6400 250/09 RMK AO2 SLP133 T02500011 53006
94299KAAT AAT20160827190010908/27/16 19:00:31  5-MIN KAAT 280300Z AUTO 27009KT 10SM CLR 24/01 A3004 4270 21 6300 250/09 RMK AO2 T02440011
94299KAAT AAT20160827190510908/27/16 19:05:31  5-MIN KAAT 280305Z AUTO 27008KT 10SM CLR 24/01 A3004 4270 22 6300 260/08 RMK AO2 T02390011
94299KAAT AAT20160827191010908/27/16 19:10:31  5-MIN KAAT 280310Z AUTO 27008KT 10SM CLR 24/01 A3005 4270 22 6300 250/08 RMK AO2 T02390011
94299KAAT AAT20160827191510908/27/16 19:15:31  5-MIN KAAT 280315Z AUTO 27009KT 10SM CLR 23/02 A3005 4260 24 6200 250/09 RMK AO2 T02330017
94299KAAT AAT20160827192010908/27/16 19:20:31  5-MIN KAAT 280320Z AUTO 26010KT 10SM CLR 23/02 A3005 4260 24 6200 250/10 RMK AO2 T02330017
94299KAAT AAT20160827192510908/27/16 19:25:31  5-MIN KAAT 280325Z AUTO 26009KT 10SM CLR 23/02 A3005 4260 24 6200 250/09 RMK AO2 T02330017
94299KAAT AAT20160827193010908/27/16 19:30:31  5-MIN KAAT 280330Z AUTO 26009KT 10SM CLR 23/02 A3005 4260 24 6100 250/09 RMK AO2 T02280017
94299KAAT AAT20160827193510908/27/16 19:35:31  5-MIN KAAT 280335Z AUTO 26009KT 10SM CLR 23/02 A3006 4260 24 6100 250/09 RMK AO2 T02280017
94299KAAT AAT20160827194010908/27/16 19:40:31  5-MIN KAAT 280340Z AUTO 26009KT 10SM CLR 23/02 A3006 4250 24 6100 250/09 RMK AO2 T02280017
94299KAAT AAT20160827194510908/27/16 19:45:31  5-MIN KAAT 280345Z AUTO 25008KT 10SM CLR 22/02 A3006 4250 25 6100 240/08 RMK AO2 T02220017
94299KAAT AAT20160827195011608/27/16 19:50:31  5-MIN KAAT 280350Z AUTO 25008KT 10SM CLR 22/01 A3006 4250 24 6100 230/08 RMK AO2 SLP139 T02220011
94299KAAT AAT20160827195511608/27/16 19:55:31  5-MIN KAAT 280355Z AUTO 25008KT 10SM CLR 22/01 A3007 4250 24 6100 230/08 RMK AO2 SLP140 T02220011
94299KAAT AAT20160827200010908/27/16 20:00:31  5-MIN KAAT 280400Z AUTO 25008KT 10SM CLR 22/01 A3007 4240 24 6100 240/08 RMK AO2 T02220011
94299KAAT AAT20160827200510908/27/16 20:05:31  5-MIN KAAT 280405Z AUTO 25009KT 10SM CLR 22/01 A3007 4240 24 6100 240/09 RMK AO2 T02220011
94299KAAT AAT20160827201010908/27/16 20:10:31  5-MIN KAAT 280410Z AUTO 25009KT 10SM CLR 22/01 A3007 4240 24 6100 240/09 RMK AO2 T02220011
94299KAAT AAT20160827201510908/27/16 20:15:31  5-MIN KAAT 280415Z AUTO 25008KT 10SM CLR 22/01 A3007 4240 25 6000 240/08 RMK AO2 T02170011
94299KAAT AAT20160827202010908/27/16 20:20:31  5-MIN KAAT 280420Z AUTO 25008KT 10SM CLR 22/01 A3007 4240 25 6000 240/08 RMK AO2 T02170011
94299KAAT AAT20160827202510908/27/16 20:25:31  5-MIN KAAT 280425Z AUTO 25009KT 10SM CLR 22/01 A3007 4240 25 6000 240/09 RMK AO2 T02170011
94299KAAT AAT20160827203010908/27/16 20:30:31  5-MIN KAAT 280430Z AUTO 25009KT 10SM CLR 22/01 A3008 4240 25 6000 240/09 RMK AO2 T02170011
94299KAAT AAT20160827203510908/27/16 20:35:31  5-MIN KAAT 280435Z AUTO 25009KT 10SM CLR 21/01 A3008 4240 26 5900 240/09 RMK AO2 T02110011
94299KAAT AAT20160827204010908/27/16 20:40:31  5-MIN KAAT 280440Z AUTO 25009KT 10SM CLR 21/01 A3008 4230 26 5900 240/09 RMK AO2 T02110011
94299KAAT AAT20160827204510908/27/16 20:45:31  5-MIN KAAT 280445Z AUTO 26009KT 10SM CLR 21/02 A3008 4230 27 5900 240/09 RMK AO2 T02110017
94299KAAT AAT20160827205011608/27/16 20:50:31  5-MIN KAAT 280450Z AUTO 26010KT 10SM CLR 21/02 A3008 4230 27 5900 240/10 RMK AO2 SLP143 T02110017
94299KAAT AAT20160827205511608/27/16 20:55:31  5-MIN KAAT 280455Z AUTO 26009KT 10SM CLR 21/02 A3009 4230 27 5900 240/09 RMK AO2 SLP142 T02110017
94299KAAT AAT20160827210010908/27/16 21:00:31  5-MIN KAAT 280500Z AUTO 26009KT 10SM CLR 21/02 A3009 4230 27 5900 240/09 RMK AO2 T02110017
94299KAAT AAT20160827210510908/27/16 21:05:31  5-MIN KAAT 280505Z AUTO 26009KT 10SM CLR 21/02 A3009 4220 28 5900 250/09 RMK AO2 T02110022
94299KAAT AAT20160827211010908/27/16 21:10:31  5-MIN KAAT 280510Z AUTO 26010KT 10SM CLR 21/02 A3009 4220 28 5900 250/10 RMK AO2 T02110022
94299KAAT AAT20160827211510908/27/16 21:15:31  5-MIN KAAT 280515Z AUTO 27009KT 10SM CLR 21/02 A3010 4220 28 5900 250/09 RMK AO2 T02110022
94299KAAT AAT20160827212010908/27/16 21:20:31  5-MIN KAAT 280520Z AUTO 26010KT 10SM CLR 21/02 A3010 4220 28 5900 250/10 RMK AO2 T02110022
94299KAAT AAT20160827212510908/27/16 21:25:31  5-MIN KAAT 280525Z AUTO 25009KT 10SM CLR 21/02 A3010 4220 28 5900 240/09 RMK AO2 T02110022
94299KAAT AAT20160827213010908/27/16 21:30:31  5-MIN KAAT 280530Z AUTO 25009KT 10SM CLR 21/02 A3010 4210 29 5800 230/09 RMK AO2 T02060022
94299KAAT AAT20160827213510908/27/16 21:35:31  5-MIN KAAT 280535Z AUTO 25009KT 10SM CLR 20/02 A3010 4210 30 5800 240/09 RMK AO2 T02000022
94299KAAT AAT20160827214010908/27/16 21:40:31  5-MIN KAAT 280540Z AUTO 26009KT 10SM CLR 20/02 A3010 4210 30 5800 240/09 RMK AO2 T02000022
94299KAAT AAT20160827214510908/27/16 21:45:31  5-MIN KAAT 280545Z AUTO 26009KT 10SM CLR 20/02 A3011 4210 30 5800 240/09 RMK AO2 T02000022
94299KAAT AAT20160827215013408/27/16 21:50:31  5-MIN KAAT 280550Z AUTO 26009KT 10SM CLR 20/02 A3011 4210 30 5800 240/09 RMK AO2 SLP148 T02000022 10306 20200 53006
94299KAAT AAT20160827215513408/27/16 21:55:31  5-MIN KAAT 280555Z AUTO 26010KT 10SM CLR 20/02 A3011 4210 30 5800 250/10 RMK AO2 SLP148 T02000022 10306 20200 51021
94299KAAT AAT20160827220010908/27/16 22:00:31  5-MIN KAAT 280600Z AUTO 26009KT 10SM CLR 19/02 A3011 4210 31 5700 250/09 RMK AO2 T01940022
94299KAAT AAT20160827220510908/27/16 22:05:31  5-MIN KAAT 280605Z AUTO 26010KT 10SM CLR 19/03 A3011 4200 33 5700 250/10 RMK AO2 T01940028
94299KAAT AAT20160827221010908/27/16 22:10:31  5-MIN KAAT 280610Z AUTO 26009KT 10SM CLR 19/03 A3011 4200 33 5700 250/09 RMK AO2 T01940028
94299KAAT AAT20160827221510908/27/16 22:15:31  5-MIN KAAT 280615Z AUTO 26009KT 10SM CLR 20/03 A3012 4200 31 5800 250/09 RMK AO2 T02000028
94299KAAT AAT20160827222010908/27/16 22:20:31  5-MIN KAAT 280620Z AUTO 26010KT 10SM CLR 20/03 A3012 4200 31 5800 250/10 RMK AO2 T02000028
94299KAAT AAT20160827222510908/27/16 22:25:31  5-MIN KAAT 280625Z AUTO 26010KT 10SM CLR 19/02 A3012 4200 31 5700 250/10 RMK AO2 T01940022
94299KAAT AAT20160827223010908/27/16 22:30:31  5-MIN KAAT 280630Z AUTO 27009KT 10SM CLR 19/02 A3012 4200 31 5700 250/09 RMK AO2 T01940022
94299KAAT AAT20160827223510908/27/16 22:35:31  5-MIN KAAT 280635Z AUTO 27009KT 10SM CLR 19/02 A3012 4200 31 5700 260/09 RMK AO2 T01940022
94299KAAT AAT20160827224010908/27/16 22:40:31  5-MIN KAAT 280640Z AUTO 27007KT 10SM CLR 19/02 A3012 4190 31 5700 250/07 RMK AO2 T01940022
94299KAAT AAT20160827224510908/27/16 22:45:31  5-MIN KAAT 280645Z AUTO VRB03KT 10SM CLR 19/02 A3013 4190 31 5700 VRB/03 RMK AO2 T01940022
94299KAAT AAT20160827225011608/27/16 22:50:31  5-MIN KAAT 280650Z AUTO VRB03KT 10SM CLR 19/02 A3013 4190 32 5600 VRB/03 RMK AO2 SLP153 T01890022
94299KAAT AAT20160827225511608/27/16 22:55:31  5-MIN KAAT 280655Z AUTO 10004KT 10SM CLR 18/02 A3013 4190 35 5500 080/04 RMK AO2 SLP155 T01780022
94299KAAT AAT20160827230010908/27/16 23:00:31  5-MIN KAAT 280700Z AUTO 12004KT 10SM CLR 17/03 A3013 4190 37 5400 100/04 RMK AO2 T01720028
94299KAAT AAT20160827230510908/27/16 23:05:31  5-MIN KAAT 280705Z AUTO 13004KT 10SM CLR 17/03 A3013 4190 39 5400 110/04 RMK AO2 T01670028
94299KAAT AAT20160827231010908/27/16 23:10:31  5-MIN KAAT 280710Z AUTO 14003KT 10SM CLR 17/02 A3013 4190 36 5400 120/03 RMK AO2 T01720022
94299KAAT AAT20160827231510908/27/16 23:15:31  5-MIN KAAT 280715Z AUTO 00000KT 10SM CLR 17/02 A3013 4180 36 5400 000/00 RMK AO2 T01720022
94299KAAT AAT20160827232010908/27/16 23:20:31  5-MIN KAAT 280720Z AUTO VRB03KT 10SM CLR 17/02 A3014 4180 36 5400 VRB/03 RMK AO2 T01720022
94299KAAT AAT20160827232510908/27/16 23:25:31  5-MIN KAAT 280725Z AUTO 14005KT 10SM CLR 17/02 A3014 4180 36 5400 130/05 RMK AO2 T01720022
94299KAAT AAT20160827233010908/27/16 23:30:31  5-MIN KAAT 280730Z AUTO 16005KT 10SM CLR 17/02 A3014 4180 37 5400 150/05 RMK AO2 T01670022
94299KAAT AAT20160827233510908/27/16 23:35:31  5-MIN KAAT 280735Z AUTO 16005KT 10SM CLR 17/02 A3014 4180 37 5400 150/05 RMK AO2 T01670022
94299KAAT AAT20160827234010908/27/16 23:40:31  5-MIN KAAT 280740Z AUTO 16004KT 10SM CLR 17/02 A3014 4180 37 5400 150/04 RMK AO2 T01670022
94299KAAT AAT20160827234510908/27/16 23:45:31  5-MIN KAAT 280745Z AUTO 20004KT 10SM CLR 16/02 A3014 4170 37 5300 180/04 RMK AO2 T01610017
94299KAAT AAT20160827235012608/27/16 23:50:31  5-MIN KAAT 280750Z AUTO 21004KT 10SM CLR 17/01 A3014 4170 34 5400 200/04 RMK AO2 SLP160 T01670011 403110050
94299KAAT AAT20160827235512608/27/16 23:55:31  5-MIN KAAT 280755Z AUTO 20005KT 10SM CLR 17/01 A3014 4170 34 5400 190/05 RMK AO2 SLP160 T01670011 403110050
94299KAAT AAT20160828000010908/28/16 00:00:31  5-MIN KAAT 280800Z AUTO 21005KT 10SM CLR 16/01 A3014 4170 37 5200 190/05 RMK AO2 T01560011
94299KAAT AAT20160828000510908/28/16 00:05:31  5-MIN KAAT 280805Z AUTO 20004KT 10SM CLR 16/01 A3015 4170 36 5300 180/04 RMK AO2 T01610011
94299KAAT AAT20160828001010908/28/16 00:10:31  5-MIN KAAT 280810Z AUTO 00000KT 10SM CLR 16/01 A3015 4170 37 5200 000/00 RMK AO2 T01560011
94299KAAT AAT20160828001510908/28/16 00:15:31  5-MIN KAAT 280815Z AUTO 00000KT 10SM CLR 14/01 A3015 4170 40 5100 000/00 RMK AO2 T01440011
94299KAAT AAT20160828002010908/28/16 00:20:31  5-MIN KAAT 280820Z AUTO 10003KT 10SM CLR 14/02 A3015 4170 43 5000 080/03 RMK AO2 T01390017
94299KAAT AAT20160828002510908/28/16 00:25:31  5-MIN KAAT 280825Z AUTO 12003KT 10SM CLR 14/02 A3015 4170 41 5100 110/03 RMK AO2 T01440017
94299KAAT AAT20160828003010908/28/16 00:30:31  5-MIN KAAT 280830Z AUTO 00000KT 10SM CLR 14/02 A3015 4170 41 5100 000/00 RMK AO2 T01440017
94299KAAT AAT20160828003510908/28/16 00:35:31  5-MIN KAAT 280835Z AUTO 00000KT 10SM CLR 14/02 A3015 4170 41 5100 000/00 RMK AO2 T01440017
94299KAAT AAT20160828004010908/28/16 00:40:31  5-MIN KAAT 280840Z AUTO 00000KT 10SM CLR 14/02 A3015 4170 43 5100 000/00 RMK AO2 T01440022
94299KAAT AAT20160828004510908/28/16 00:45:31  5-MIN KAAT 280845Z AUTO 00000KT 10SM CLR 14/02 A3015 4170 43 5100 000/00 RMK AO2 T01440022
94299KAAT AAT20160828005012208/28/16 00:50:31  5-MIN KAAT 280850Z AUTO 11003KT 10SM CLR 14/02 A3015 4170 45 5000 090/03 RMK AO2 SLP164 T01390022 51021
94299KAAT AAT20160828005512208/28/16 00:55:31  5-MIN KAAT 280855Z AUTO 08003KT 10SM CLR 13/02 A3015 4170 46 5000 070/03 RMK AO2 SLP165 T01330022 51013
94299KAAT AAT20160828010010908/28/16 01:00:31  5-MIN KAAT 280900Z AUTO 00000KT 10SM CLR 13/02 A3015 4170 46 5000 000/00 RMK AO2 T01330022
94299KAAT AAT20160828010510908/28/16 01:05:31  5-MIN KAAT 280905Z AUTO 00000KT 10SM CLR 14/02 A3015 4170 45 5000 000/00 RMK AO2 T01390022
94299KAAT AAT20160828011010908/28/16 01:10:31  5-MIN KAAT 280910Z AUTO 00000KT 10SM CLR 12/02 A3015 4170 48 4800 000/00 RMK AO2 T01220017
94299KAAT AAT20160828011510908/28/16 01:15:31  5-MIN KAAT 280915Z AUTO 00000KT 10SM CLR 12/02 A3015 4170 48 4800 000/00 RMK AO2 T01220017
94299KAAT AAT20160828012010908/28/16 01:20:31  5-MIN KAAT 280920Z AUTO 00000KT 10SM CLR 12/02 A3015 4160 50 4800 000/00 RMK AO2 T01170017
94299KAAT AAT20160828012510908/28/16 01:25:31  5-MIN KAAT 280925Z AUTO 00000KT 10SM CLR 12/02 A3015 4170 50 4800 000/00 RMK AO2 T01170017
94299KAAT AAT20160828013010908/28/16 01:30:31  5-MIN KAAT 280930Z AUTO 00000KT 10SM CLR 11/02 A3016 4160 52 4700 000/00 RMK AO2 T01110017
94299KAAT AAT20160828013510908/28/16 01:35:31  5-MIN KAAT 280935Z AUTO 16004KT 10SM CLR 12/03 A3016 4160 54 4800 140/04 RMK AO2 T01170028
94299KAAT AAT20160828014010908/28/16 01:40:31  5-MIN KAAT 280940Z AUTO 15005KT 10SM CLR 11/03 A3016 4160 58 4600 130/05 RMK AO2 T01060028
94299KAAT AAT20160828014510908/28/16 01:45:31  5-MIN KAAT 280945Z AUTO 13003KT 10SM CLR 11/03 A3016 4160 58 4600 120/03 RMK AO2 T01060028
94299KAAT AAT20160828015011608/28/16 01:50:31  5-MIN KAAT 280950Z AUTO 11003KT 10SM CLR 11/03 A3016 4160 56 4700 090/03 RMK AO2 SLP169 T01110028
94299KAAT AAT20160828015511608/28/16 01:55:31  5-MIN KAAT 280955Z AUTO 06003KT 10SM CLR 11/03 A3016 4160 56 4700 050/03 RMK AO2 SLP170 T01110028
94299KAAT AAT20160828020010908/28/16 02:00:31  5-MIN KAAT 281000Z AUTO 08004KT 10SM CLR 12/03 A3016 4160 54 4800 060/04 RMK AO2 T01170028
94299KAAT AAT20160828020510908/28/16 02:05:31  5-MIN KAAT 281005Z AUTO 00000KT 10SM CLR 11/02 A3016 4160 54 4600 000/00 RMK AO2 T01060017
94299KAAT AAT20160828021010908/28/16 02:10:31  5-MIN KAAT 281010Z AUTO 00000KT 10SM CLR 09/02 A3016 4160 58 4500 000/00 RMK AO2 T00940017
94299KAAT AAT20160828021510908/28/16 02:15:31  5-MIN KAAT 281015Z AUTO 00000KT 10SM CLR 09/02 A3016 4160 58 4500 000/00 RMK AO2 T00940017
94299KAAT AAT20160828022010908/28/16 02:20:31  5-MIN KAAT 281020Z AUTO VRB03KT 10SM CLR 08/02 A3016 4160 63 4400 VRB/03 RMK AO2 T00830017
94299KAAT AAT20160828022510908/28/16 02:25:31  5-MIN KAAT 281025Z AUTO 00000KT 10SM CLR 09/01 A3016 4160 58 4400 000/00 RMK AO2 T00890011
94299KAAT AAT20160828023010908/28/16 02:30:31  5-MIN KAAT 281030Z AUTO 00000KT 10SM CLR 09/01 A3017 4160 56 4500 000/00 RMK AO2 T00940011
94299KAAT AAT20160828023510908/28/16 02:35:31  5-MIN KAAT 281035Z AUTO 32003KT 10SM CLR 09/02 A3017 4160 58 4500 310/03 RMK AO2 T00940017
94299KAAT AAT20160828024010908/28/16 02:40:31  5-MIN KAAT 281040Z AUTO 32005KT 10SM CLR 09/02 A3016 4160 58 4500 310/05 RMK AO2 T00940017
94299KAAT AAT20160828024510908/28/16 02:45:31  5-MIN KAAT 281045Z AUTO 31004KT 10SM CLR 09/02 A3016 4160 60 4500 300/04 RMK AO2 T00940022
94299KAAT AAT20160828025011608/28/16 02:50:31  5-MIN KAAT 281050Z AUTO 32004KT 10SM CLR 09/02 A3016 4160 63 4400 310/04 RMK AO2 SLP174 T00890022
94299KAAT AAT20160828025511608/28/16 02:55:31  5-MIN KAAT 281055Z AUTO 33003KT 10SM CLR 09/02 A3016 4160 60 4500 310/03 RMK AO2 SLP173 T00940022
94299KAAT AAT20160828030010908/28/16 03:00:31  5-MIN KAAT 281100Z AUTO 17003KT 10SM CLR 08/02 A3017 4150 63 4400 160/03 RMK AO2 T00830017
94299KAAT AAT20160828030510908/28/16 03:05:31  5-MIN KAAT 281105Z AUTO 16004KT 10SM CLR 08/01 A3017 4150 62 4300 140/04 RMK AO2 T00780011
94299KAAT AAT20160828031010908/28/16 03:10:31  5-MIN KAAT 281110Z AUTO 15003KT 10SM CLR 08/01 A3017 4150 62 4300 140/03 RMK AO2 T00780011
94299KAAT AAT20160828031510908/28/16 03:15:31  5-MIN KAAT 281115Z AUTO 14004KT 10SM CLR 08/02 A3017 4150 63 4400 130/04 RMK AO2 T00830017
94299KAAT AAT20160828032010908/28/16 03:20:31  5-MIN KAAT 281120Z AUTO 13003KT 10SM CLR 09/02 A3017 4150 60 4400 110/03 RMK AO2 T00890017
94299KAAT AAT20160828032510908/28/16 03:25:31  5-MIN KAAT 281125Z AUTO 13004KT 10SM CLR 09/02 A3017 4150 63 4400 110/04 RMK AO2 T00890022
94299KAAT AAT20160828033010908/28/16 03:30:31  5-MIN KAAT 281130Z AUTO 00000KT 10SM CLR 09/02 A3017 4150 63 4400 000/00 RMK AO2 T00890022
94299KAAT AAT20160828033510908/28/16 03:35:31  5-MIN KAAT 281135Z AUTO 00000KT 10SM CLR 09/03 A3017 4150 65 4400 000/00 RMK AO2 T00890028
94299KAAT AAT20160828034010908/28/16 03:40:31  5-MIN KAAT 281140Z AUTO 00000KT 10SM CLR 08/03 A3017 4150 68 4400 000/00 RMK AO2 T00830028
94299KAAT AAT20160828034510908/28/16 03:45:31  5-MIN KAAT 281145Z AUTO 00000KT 10SM CLR 09/03 A3017 4150 63 4500 000/00 RMK AO2 T00940028
94299KAAT AAT20160828035013408/28/16 03:50:31  5-MIN KAAT 281150Z AUTO 00000KT 10SM CLR 08/02 A3017 4150 65 4400 000/00 RMK AO2 SLP178 T00830022 10200 20078 51013
94299KAAT AAT20160828035513408/28/16 03:55:31  5-MIN KAAT 281155Z AUTO 00000KT 10SM CLR 08/02 A3018 4150 63 4400 000/00 RMK AO2 SLP179 T00830017 10200 20078 53006
94299KAAT AAT20160828040010908/28/16 04:00:31  5-MIN KAAT 281200Z AUTO 00000KT 10SM CLR 08/01 A3017 4150 62 4300 000/00 RMK AO2 T00780011
94299KAAT AAT20160828040510908/28/16 04:05:31  5-MIN KAAT 281205Z AUTO 00000KT 10SM CLR 08/02 A3018 4150 65 4300 000/00 RMK AO2 T00780017
94299KAAT AAT20160828041010908/28/16 04:10:31  5-MIN KAAT 281210Z AUTO 00000KT 10SM CLR 08/01 A3018 4140 62 4300 000/00 RMK AO2 T00780011
94299KAAT AAT20160828041510908/28/16 04:15:31  5-MIN KAAT 281215Z AUTO 00000KT 10SM CLR 08/01 A3018 4140 62 4300 000/00 RMK AO2 T00780011
94299KAAT AAT20160828042010908/28/16 04:20:31  5-MIN KAAT 281220Z AUTO 00000KT 10SM CLR 08/01 A3018 4140 62 4300 000/00 RMK AO2 T00780011
94299KAAT AAT20160828042510908/28/16 04:25:31  5-MIN KAAT 281225Z AUTO 00000KT 10SM CLR 07/02 A3018 4140 68 4200 000/00 RMK AO2 T00720017
94299KAAT AAT20160828043010908/28/16 04:30:31  5-MIN KAAT 281230Z AUTO 00000KT 10SM CLR 08/02 A3018 4140 65 4300 000/00 RMK AO2 T00780017
94299KAAT AAT20160828043510908/28/16 04:35:31  5-MIN KAAT 281235Z AUTO 00000KT 10SM CLR 08/02 A3018 4140 65 4300 000/00 RMK AO2 T00780017
94299KAAT AAT20160828044010908/28/16 04:40:31  5-MIN KAAT 281240Z AUTO 00000KT 10SM CLR 07/02 A3018 4140 68 4200 000/00 RMK AO2 T00720017
94299KAAT AAT20160828044510908/28/16 04:45:31  5-MIN KAAT 281245Z AUTO 00000KT 10SM CLR 08/02 A3018 4140 68 4300 000/00 RMK AO2 T00780022
94299KAAT AAT20160828045011608/28/16 04:50:31  5-MIN KAAT 281250Z AUTO 00000KT 10SM CLR 08/02 A3018 4140 65 4400 000/00 RMK AO2 SLP182 T00830022
94299KAAT AAT20160828045511608/28/16 04:55:31  5-MIN KAAT 281255Z AUTO 00000KT 10SM CLR 07/02 A3018 4140 68 4200 000/00 RMK AO2 SLP186 T00720017
94299KAAT AAT20160828050010908/28/16 05:00:31  5-MIN KAAT 281300Z AUTO 00000KT 10SM CLR 07/02 A3019 4140 70 4200 000/00 RMK AO2 T00670017
94299KAAT AAT20160828050510908/28/16 05:05:31  5-MIN KAAT 281305Z AUTO 00000KT 10SM CLR 08/02 A3019 4140 65 4300 000/00 RMK AO2 T00780017
94299KAAT AAT20160828051010908/28/16 05:10:31  5-MIN KAAT 281310Z AUTO 00000KT 10SM CLR 07/02 A3019 4140 68 4200 000/00 RMK AO2 T00720017
94299KAAT AAT20160828051510908/28/16 05:15:31  5-MIN KAAT 281315Z AUTO 00000KT 10SM CLR 07/02 A3019 4130 70 4200 000/00 RMK AO2 T00670017
94299KAAT AAT20160828052010908/28/16 05:20:31  5-MIN KAAT 281320Z AUTO 00000KT 10SM CLR 07/01 A3019 4130 67 4100 000/00 RMK AO2 T00670011
94299KAAT AAT20160828052510908/28/16 05:25:31  5-MIN KAAT 281325Z AUTO 00000KT 10SM CLR 07/01 A3019 4130 67 4100 000/00 RMK AO2 T00670011
94299KAAT AAT20160828053010908/28/16 05:30:31  5-MIN KAAT 281330Z AUTO 00000KT 10SM CLR 06/01 A3020 4130 70 4100 000/00 RMK AO2 T00610011
94299KAAT AAT20160828053510908/28/16 05:35:31  5-MIN KAAT 281335Z AUTO 00000KT 10SM CLR 07/01 A3020 4130 65 4100 000/00 RMK AO2 T00670006
94299KAAT AAT20160828054010908/28/16 05:40:31  5-MIN KAAT 281340Z AUTO 00000KT 10SM CLR 07/01 A3020 4120 65 4100 000/00 RMK AO2 T00670006
94299KAAT AAT20160828054510908/28/16 05:45:31  5-MIN KAAT 281345Z AUTO 00000KT 10SM CLR 06/01 A3020 4120 67 4100 000/00 RMK AO2 T00610006
94299KAAT AAT20160828055011608/28/16 05:50:31  5-MIN KAAT 281350Z AUTO 00000KT 10SM CLR 07/01 A3020 4120 67 4100 000/00 RMK AO2 SLP194 T00670011
94299KAAT AAT20160828055511608/28/16 05:55:31  5-MIN KAAT 281355Z AUTO 00000KT 10SM CLR 07/01 A3020 4120 65 4200 000/00 RMK AO2 SLP193 T00720011
94299KAAT AAT20160828060010908/28/16 06:00:31  5-MIN KAAT 281400Z AUTO 00000KT 10SM CLR 08/02 A3020 4120 65 4300 000/00 RMK AO2 T00780017
94299KAAT AAT20160828060510908/28/16 06:05:31  5-MIN KAAT 281405Z AUTO 00000KT 10SM CLR 08/02 A3020 4120 63 4300 000/00 RMK AO2 T00830017
94299KAAT AAT20160828061010908/28/16 06:10:31  5-MIN KAAT 281410Z AUTO 00000KT 10SM CLR 09/02 A3020 4120 60 4400 000/00 RMK AO2 T00890017
94299KAAT AAT20160828061510908/28/16 06:15:31  5-MIN KAAT 281415Z AUTO 00000KT 10SM CLR 09/02 A3020 4120 58 4500 000/00 RMK AO2 T00940017
94299KAAT AAT20160828062010908/28/16 06:20:31  5-MIN KAAT 281420Z AUTO 00000KT 10SM CLR 10/01 A3021 4120 54 4500 000/00 RMK AO2 T01000011
94299KAAT AAT20160828062510908/28/16 06:25:31  5-MIN KAAT 281425Z AUTO 00000KT 10SM CLR 10/01 A3021 4120 54 4500 000/00 RMK AO2 T01000011
94299KAAT AAT20160828063010908/28/16 06:30:31  5-MIN KAAT 281430Z AUTO 00000KT 10SM CLR 11/02 A3021 4120 54 4600 000/00 RMK AO2 T01060017
94299KAAT AAT20160828063510908/28/16 06:35:31  5-MIN KAAT 281435Z AUTO 00000KT 10SM CLR 12/02 A3021 4120 50 4700 000/00 RMK AO2 T01170017
94299KAAT AAT20160828064010908/28/16 06:40:31  5-MIN KAAT 281440Z AUTO 00000KT 10SM CLR 12/02 A3021 4110 50 4700 000/00 RMK AO2 T01170017
94299KAAT AAT20160828064510908/28/16 06:45:31  5-MIN KAAT 281445Z AUTO 00000KT 10SM CLR 13/02 A3021 4110 46 4800 000/00 RMK AO2 T01280017
94299KAAT AAT20160828065012208/28/16 06:50:31  5-MIN KAAT 281450Z AUTO 00000KT 10SM CLR 13/01 A3021 4110 44 4800 000/00 RMK AO2 SLP193 T01280011 53006
94299KAAT AAT20160828065512208/28/16 06:55:31  5-MIN KAAT 281455Z AUTO 00000KT 10SM CLR 13/01 A3021 4110 43 4900 000/00 RMK AO2 SLP192 T01330011 51011
94299KAAT AAT20160828070010908/28/16 07:00:31  5-MIN KAAT 281500Z AUTO 00000KT 10SM CLR 14/01 A3021 4110 41 5000 000/00 RMK AO2 T01390011
94299KAAT AAT20160828070510908/28/16 07:05:31  5-MIN KAAT 281505Z AUTO 00000KT 10SM CLR 14/01 A3021 4110 41 5000 000/00 RMK AO2 T01390011
94299KAAT AAT20160828071010908/28/16 07:10:31  5-MIN KAAT 281510Z AUTO 00000KT 10SM CLR 14/01 A3021 4110 40 5000 000/00 RMK AO2 T01440011
94299KAAT AAT20160828071510908/28/16 07:15:31  5-MIN KAAT 281515Z AUTO 00000KT 10SM CLR 14/02 A3021 4110 41 5000 000/00 RMK AO2 T01440017
94299KAAT AAT20160828072010908/28/16 07:20:31  5-MIN KAAT 281520Z AUTO 00000KT 10SM CLR 15/02 A3021 4110 40 5100 000/00 RMK AO2 T01500017
94299KAAT AAT20160828072510908/28/16 07:25:31  5-MIN KAAT 281525Z AUTO 00000KT 10SM CLR 16/02 A3021 4110 39 5200 000/00 RMK AO2 T01560017
94299KAAT AAT20160828073010908/28/16 07:30:31  5-MIN KAAT 281530Z AUTO 00000KT 10SM CLR 16/02 A3021 4110 39 5200 000/00 RMK AO2 T01560017
94299KAAT AAT20160828073510908/28/16 07:35:31  5-MIN KAAT 281535Z AUTO 00000KT 10SM CLR 16/02 A3021 4110 37 5200 000/00 RMK AO2 T01610017
94299KAAT AAT20160828074010908/28/16 07:40:31  5-MIN KAAT 281540Z AUTO 00000KT 10SM CLR 16/01 A3021 4110 36 5200 000/00 RMK AO2 T01610011
94299KAAT AAT20160828074510908/28/16 07:45:31  5-MIN KAAT 281545Z AUTO 00000KT 10SM CLR 17/01 A3021 4110 34 5300 000/00 RMK AO2 T01670011
94299KAAT AAT20160828075011608/28/16 07:50:31  5-MIN KAAT 281550Z AUTO 00000KT 10SM CLR 17/02 A3021 4110 36 5300 000/00 RMK AO2 SLP192 T01670017
94299KAAT AAT20160828075511608/28/16 07:55:31  5-MIN KAAT 281555Z AUTO 00000KT 10SM CLR 17/01 A3021 4110 34 5300 000/00 RMK AO2 SLP192 T01670011
94299KAAT AAT20160828080010908/28/16 08:00:31  5-MIN KAAT 281600Z AUTO 00000KT 10SM CLR 17/02 A3021 4110 36 5300 000/00 RMK AO2 T01670017
94299KAAT AAT20160828080510908/28/16 08:05:31  5-MIN KAAT 281605Z AUTO 00000KT 10SM CLR 17/02 A3021 4110 35 5300 000/00 RMK AO2 T01720017
94299KAAT AAT20160828081010908/28/16 08:10:31  5-MIN KAAT 281610Z AUTO 00000KT 10SM CLR 18/02 A3021 4110 33 5400 000/00 RMK AO2 T01780017
94299KAAT AAT20160828081510908/28/16 08:15:31  5-MIN KAAT 281615Z AUTO 00000KT 10SM CLR 18/02 A3022 4110 33 5400 000/00 RMK AO2 T01780017
94299KAAT AAT20160828082010908/28/16 08:20:31  5-MIN KAAT 281620Z AUTO 00000KT 10SM CLR 18/02 A3021 4110 32 5500 000/00 RMK AO2 T01830017
94299KAAT AAT20160828082510908/28/16 08:25:31  5-MIN KAAT 281625Z AUTO 00000KT 10SM CLR 19/01 A3021 4110 30 5500 000/00 RMK AO2 T01890011
94299KAAT AAT20160828083010908/28/16 08:30:31  5-MIN KAAT 281630Z AUTO 00000KT 10SM CLR 19/02 A3021 4110 30 5600 000/00 RMK AO2 T01940017
94299KAAT AAT20160828083510908/28/16 08:35:31  5-MIN KAAT 281635Z AUTO 00000KT 10SM CLR 19/01 A3021 4110 29 5600 000/00 RMK AO2 T01940011
94299KAAT AAT20160828084010908/28/16 08:40:31  5-MIN KAAT 281640Z AUTO 00000KT 10SM CLR 20/01 A3021 4110 28 5700 000/00 RMK AO2 T02000011
94299KAAT AAT20160828084510908/28/16 08:45:31  5-MIN KAAT 281645Z AUTO 00000KT 10SM CLR 21/01 A3021 4110 27 5700 000/00 RMK AO2 T02060011
94299KAAT AAT20160828085011608/28/16 08:50:31  5-MIN KAAT 281650Z AUTO 00000KT 10SM CLR 21/01 A3021 4110 26 5800 000/00 RMK AO2 SLP188 T02110011
94299KAAT AAT20160828085511608/28/16 08:55:31  5-MIN KAAT 281655Z AUTO 00000KT 10SM CLR 21/01 A3021 4110 26 5800 000/00 RMK AO2 SLP187 T02110011
94299KAAT AAT20160828090010908/28/16 09:00:31  5-MIN KAAT 281700Z AUTO VRB03KT 10SM CLR 22/01 A3021 4110 25 5800 VRB/03 RMK AO2 T02170011
94299KAAT AAT20160828090510908/28/16 09:05:31  5-MIN KAAT 281705Z AUTO 00000KT 10SM CLR 22/01 A3021 4110 24 5900 000/00 RMK AO2 T02220011
94299KAAT AAT20160828091010908/28/16 09:10:31  5-MIN KAAT 281710Z AUTO 00000KT 10SM CLR 23/01 A3021 4110 23 6000 000/00 RMK AO2 T02280011
94299KAAT AAT20160828091510908/28/16 09:15:31  5-MIN KAAT 281715Z AUTO VRB03KT 10SM CLR 23/01 A3021 4110 23 6000 VRB/03 RMK AO2 T02330011
94299KAAT AAT20160828092010908/28/16 09:20:31  5-MIN KAAT 281720Z AUTO 14003KT 10SM CLR 24/01 A3021 4110 21 6100 130/03 RMK AO2 T02390006
94299KAAT AAT20160828092510908/28/16 09:25:31  5-MIN KAAT 281725Z AUTO 00000KT 10SM CLR 23/01 A3021 4110 22 6000 000/00 RMK AO2 T02330006
94299KAAT AAT20160828093010908/28/16 09:30:31  5-MIN KAAT 281730Z AUTO 00000KT 10SM CLR 23/01 A3021 4120 22 6000 000/00 RMK AO2 T02330006
94299KAAT AAT20160828093510908/28/16 09:35:31  5-MIN KAAT 281735Z AUTO VRB03KT 10SM CLR 24/01 A3021 4120 21 6100 VRB/03 RMK AO2 T02390006
94299KAAT AAT20160828094010908/28/16 09:40:31  5-MIN KAAT 281740Z AUTO 00000KT 10SM CLR 24/01 A3021 4120 20 6200 000/00 RMK AO2 T02440006
94299KAAT AAT20160828094510908/28/16 09:45:31  5-MIN KAAT 281745Z AUTO VRB03KT 10SM CLR 25/01 A3021 4120 20 6200 VRB/03 RMK AO2 T02500006
94299KAAT AAT20160828095013408/28/16 09:50:31  5-MIN KAAT 281750Z AUTO VRB04KT 10SM CLR 26/01 A3021 4120 19 6300 VRB/04 RMK AO2 SLP182 T02560006 10256 20061 51011
94299KAAT AAT20160828095513408/28/16 09:55:31  5-MIN KAAT 281755Z AUTO 01005KT 10SM CLR 25/01 A3021 4120 20 6200 360/05 RMK AO2 SLP182 T02500006 10256 20061 58002
94299KAAT AAT20160828100010908/28/16 10:00:31  5-MIN KAAT 281800Z AUTO 00000KT 10SM CLR 25/01 A3020 4120 20 6200 000/00 RMK AO2 T02500006
94299KAAT AAT20160828100510908/28/16 10:05:31  5-MIN KAAT 281805Z AUTO 00000KT 10SM CLR 26/01 A3020 4120 20 6300 000/00 RMK AO2 T02560011
94299KAAT AAT20160828101010908/28/16 10:10:31  5-MIN KAAT 281810Z AUTO VRB03KT 10SM CLR 26/01 A3020 4120 19 6400 VRB/03 RMK AO2 T02610011
94299KAAT AAT20160828101510908/28/16 10:15:31  5-MIN KAAT 281815Z AUTO 05004KT 10SM CLR 26/01 A3020 4120 19 6400 040/04 RMK AO2 T02610011
94299KAAT AAT20160828102010908/28/16 10:20:31  5-MIN KAAT 281820Z AUTO VRB04KT 10SM CLR 26/01 A3020 4130 19 6400 VRB/04 RMK AO2 T02610011
94299KAAT AAT20160828102510908/28/16 10:25:31  5-MIN KAAT 281825Z AUTO 00000KT 10SM CLR 26/01 A3020 4130 19 6400 000/00 RMK AO2 T02610011
94299KAAT AAT20160828103010908/28/16 10:30:31  5-MIN KAAT 281830Z AUTO VRB04KT 10SM CLR 27/01 A3020 4130 18 6400 VRB/04 RMK AO2 T02670011
94299KAAT AAT20160828103510908/28/16 10:35:31  5-MIN KAAT 281835Z AUTO 00000KT 10SM CLR 26/01 A3019 4130 18 6400 000/00 RMK AO2 T02610006
94299KAAT AAT20160828104010908/28/16 10:40:31  5-MIN KAAT 281840Z AUTO 12006KT 10SM CLR 27/01 A3019 4130 18 6400 100/06 RMK AO2 T02670011
94299KAAT AAT20160828104510908/28/16 10:45:31  5-MIN KAAT 281845Z AUTO 13006KT 10SM CLR 26/01 A3019 4130 19 6400 120/06 RMK AO2 T02610011
94299KAAT AAT20160828105011608/28/16 10:50:31  5-MIN KAAT 281850Z AUTO VRB04KT 10SM CLR 27/01 A3019 4130 18 6400 VRB/04 RMK AO2 SLP176 T02670011
94299KAAT AAT20160828105511608/28/16 10:55:31  5-MIN KAAT 281855Z AUTO 00000KT 10SM CLR 26/01 A3019 4140 19 6400 000/00 RMK AO2 SLP176 T02610011
94299KAAT AAT20160828110010908/28/16 11:00:31  5-MIN KAAT 281900Z AUTO 00000KT 10SM CLR 27/01 A3018 4140 18 6400 000/00 RMK AO2 T02670011
94299KAAT AAT20160828110510908/28/16 11:05:31  5-MIN KAAT 281905Z AUTO 00000KT 10SM CLR 28/01 A3018 4140 17 6600 000/00 RMK AO2 T02780011
94299KAAT AAT20160828111010908/28/16 11:10:31  5-MIN KAAT 281910Z AUTO VRB03KT 10SM CLR 28/01 A3018 4140 17 6600 VRB/03 RMK AO2 T02780011
94299KAAT AAT20160828111510908/28/16 11:15:31  5-MIN KAAT 281915Z AUTO VRB05KT 10SM CLR 27/01 A3018 4140 18 6500 VRB/05 RMK AO2 T02720011
94299KAAT AAT20160828112010908/28/16 11:20:31  5-MIN KAAT 281920Z AUTO VRB04KT 10SM CLR 27/01 A3018 4140 18 6500 VRB/04 RMK AO2 T02720011
94299KAAT AAT20160828112510908/28/16 11:25:31  5-MIN KAAT 281925Z AUTO VRB03KT 10SM CLR 28/01 A3018 4140 17 6600 VRB/03 RMK AO2 T02780011
94299KAAT AAT20160828113010908/28/16 11:30:31  5-MIN KAAT 281930Z AUTO VRB03KT 10SM CLR 28/01 A3018 4140 17 6600 VRB/03 RMK AO2 T02780011
94299KAAT AAT20160828113510908/28/16 11:35:31  5-MIN KAAT 281935Z AUTO VRB04KT 10SM CLR 27/01 A3018 4150 17 6500 VRB/04 RMK AO2 T02720006
94299KAAT AAT20160828114010908/28/16 11:40:31  5-MIN KAAT 281940Z AUTO VRB03KT 10SM CLR 28/01 A3018 4150 17 6600 VRB/03 RMK AO2 T02780006
94299KAAT AAT20160828114510908/28/16 11:45:31  5-MIN KAAT 281945Z AUTO 00000KT 10SM CLR 28/01 A3018 4150 17 6600 000/00 RMK AO2 T02780006
94299KAAT AAT20160828115011608/28/16 11:50:31  5-MIN KAAT 281950Z AUTO 29006KT 10SM CLR 29/01 A3018 4150 16 6700 270/06 RMK AO2 SLP171 T02890011
94299KAAT AAT20160828115511608/28/16 11:55:31  5-MIN KAAT 281955Z AUTO VRB05KT 10SM CLR 28/01 A3017 4150 17 6600 VRB/05 RMK AO2 SLP171 T02830011
94299KAAT AAT20160828120010908/28/16 12:00:31  5-MIN KAAT 282000Z AUTO 00000KT 10SM CLR 28/01 A3017 4150 17 6600 000/00 RMK AO2 T02780006
94299KAAT AAT20160828120510908/28/16 12:05:31  5-MIN KAAT 282005Z AUTO VRB06KT 10SM CLR 28/01 A3017 4150 16 6600 VRB/06 RMK AO2 T02830006
94299KAAT AAT20160828121010908/28/16 12:10:31  5-MIN KAAT 282010Z AUTO VRB05KT 10SM CLR 29/01 A3017 4150 15 6700 VRB/05 RMK AO2 T02890006
94299KAAT AAT20160828121510908/28/16 12:15:31  5-MIN KAAT 282015Z AUTO VRB03KT 10SM CLR 29/00 A3017 4150 14 6700 VRB/03 RMK AO2 T02940000
94299KAAT AAT20160828122010908/28/16 12:20:31  5-MIN KAAT 282020Z AUTO VRB03KT 10SM CLR 29/00 A3017 4150 15 6700 VRB/03 RMK AO2 T02890000
94299KAAT AAT20160828122511008/28/16 12:25:31  5-MIN KAAT 282025Z AUTO VRB05KT 10SM CLR 29/M01 A3017 4150 14 6700 VRB/05 RMK AO2 T02891006
94299KAAT AAT20160828123011008/28/16 12:30:31  5-MIN KAAT 282030Z AUTO 08004KT 10SM CLR 29/M01 A3017 4150 14 6700 070/04 RMK AO2 T02941006
94299KAAT AAT20160828123511008/28/16 12:35:31  5-MIN KAAT 282035Z AUTO 34005KT 10SM CLR 30/M01 A3017 4150 13 6800 320/05 RMK AO2 T03001006
94299KAAT AAT20160828124010908/28/16 12:40:31  5-MIN KAAT 282040Z AUTO 31006KT 10SM CLR 29/00 A3017 4160 14 6800 300/06 RMK AO2 T02940000
94299KAAT AAT20160828124509908/28/16 12:45:31  5-MIN KAAT 282045Z AUTO 10SM CLR 29/00 A3016 4160 14 6800 M /M RMK AO2 T02940000
94299KAAT AAT20160828125012208/28/16 12:50:31  5-MIN KAAT 282050Z AUTO 33006KT 10SM CLR 30/00 A3016 4160 14 6800 310/06 RMK AO2 SLP167 T03000000 58002
94299KAAT AAT20160828125512308/28/16 12:55:31  5-MIN KAAT 282055Z AUTO 31006KT 10SM CLR 29/M01 A3016 4160 14 6800 300/06 RMK AO2 SLP169 T02941006 56013
94299KAAT AAT20160828130011008/28/16 13:00:31  5-MIN KAAT 282100Z AUTO 34007KT 10SM CLR 30/M01 A3016 4160 13 6800 320/07 RMK AO2 T03001006
94299KAAT AAT20160828130512608/28/16 13:05:31  5-MIN KAAT 282105Z AUTO 05008KT 010V080 10SM CLR 31/M01 A3016 4160 13 6900 040/08 360V070 RMK AO2 T03061006
94299KAAT AAT20160828131011008/28/16 13:10:31  5-MIN KAAT 282110Z AUTO 04008KT 10SM CLR 30/M01 A3016 4160 13 6800 030/08 RMK AO2 T03001006
94299KAAT AAT20160828131512508/28/16 13:15:31  5-MIN KAAT 282115Z AUTO 06007KT 020V100 10SM CLR 30/00 A3016 4160 14 6800 040/07 010V090 RMK AO2 T03000000
94299KAAT AAT20160828132010908/28/16 13:20:31  5-MIN KAAT 282120Z AUTO 08005KT 10SM CLR 31/00 A3015 4170 13 6900 070/05 RMK AO2 T03060000
94299KAAT AAT20160828132511008/28/16 13:25:31  5-MIN KAAT 282125Z AUTO 08007KT 10SM CLR 30/M01 A3015 4170 13 6800 060/07 RMK AO2 T03001006
94299KAAT AAT20160828133011008/28/16 13:30:31  5-MIN KAAT 282130Z AUTO 01006KT 10SM CLR 31/M01 A3015 4170 13 6900 350/06 RMK AO2 T03061006
94299KAAT AAT20160828133511008/28/16 13:35:31  5-MIN KAAT 282135Z AUTO 35006KT 10SM CLR 31/M01 A3014 4180 13 7000 340/06 RMK AO2 T03111006
94299KAAT AAT20160828134010908/28/16 13:40:31  5-MIN KAAT 282140Z AUTO 30007KT 10SM CLR 31/00 A3014 4180 13 6900 280/07 RMK AO2 T03060000
94299KAAT AAT20160828134510908/28/16 13:45:31  5-MIN KAAT 282145Z AUTO VRB05KT 10SM CLR 31/00 A3014 4180 13 6900 VRB/05 RMK AO2 T03060000
94299KAAT AAT20160828135011608/28/16 13:50:31  5-MIN KAAT 282150Z AUTO 28007KT 10SM CLR 31/00 A3014 4180 13 6900 270/07 RMK AO2 SLP163 T03060000
94299KAAT AAT20160828135511608/28/16 13:55:31  5-MIN KAAT 282155Z AUTO 28008KT 10SM CLR 31/00 A3014 4180 13 7000 270/08 RMK AO2 SLP162 T03110000
94299KAAT AAT20160828140010908/28/16 14:00:31  5-MIN KAAT 282200Z AUTO 00000KT 10SM CLR 29/00 A3014 4180 14 6800 000/00 RMK AO2 T02940000
94299KAAT AAT20160828140510908/28/16 14:05:31  5-MIN KAAT 282205Z AUTO 00000KT 10SM CLR 30/00 A3014 4180 14 6800 000/00 RMK AO2 T03000000
94299KAAT AAT20160828141010908/28/16 14:10:31  5-MIN KAAT 282210Z AUTO VRB03KT 10SM CLR 30/00 A3014 4180 14 6800 VRB/03 RMK AO2 T03000000
94299KAAT AAT20160828141510908/28/16 14:15:31  5-MIN KAAT 282215Z AUTO 31006KT 10SM CLR 31/00 A3014 4180 13 6900 290/06 RMK AO2 T03060000
94299KAAT AAT20160828142010908/28/16 14:20:31  5-MIN KAAT 282220Z AUTO 35005KT 10SM CLR 31/00 A3013 4190 13 6900 330/05 RMK AO2 T03060000
94299KAAT AAT20160828142510908/28/16 14:25:31  5-MIN KAAT 282225Z AUTO 03004KT 10SM CLR 31/00 A3013 4190 13 7000 010/04 RMK AO2 T03110000
94299KAAT AAT20160828143010908/28/16 14:30:31  5-MIN KAAT 282230Z AUTO VRB05KT 10SM CLR 31/00 A3013 4190 13 7000 VRB/05 RMK AO2 T03110000
94299KAAT AAT20160828143510908/28/16 14:35:31  5-MIN KAAT 282235Z AUTO VRB06KT 10SM CLR 31/00 A3013 4190 13 7000 VRB/06 RMK AO2 T03110000
94299KAAT AAT20160828144011008/28/16 14:40:31  5-MIN KAAT 282240Z AUTO 36007KT 10SM CLR 32/M01 A3013 4190 12 7000 340/07 RMK AO2 T03171006
94299KAAT AAT20160828144510908/28/16 14:45:31  5-MIN KAAT 282245Z AUTO 36005KT 10SM CLR 32/00 A3013 4190 13 7000 350/05 RMK AO2 T03170000
94299KAAT AAT20160828145011608/28/16 14:50:31  5-MIN KAAT 282250Z AUTO VRB05KT 10SM CLR 31/00 A3013 4190 13 6900 VRB/05 RMK AO2 SLP161 T03060000
94299KAAT AAT20160828145511608/28/16 14:55:31  5-MIN KAAT 282255Z AUTO VRB04KT 10SM CLR 31/00 A3013 4190 13 6900 VRB/04 RMK AO2 SLP161 T03060000
94299KAAT AAT20160828150012608/28/16 15:00:31  5-MIN KAAT 282300Z AUTO 25007KT 220V290 10SM CLR 31/M01 A3012 4190 13 7000 230/07 210V280 RMK AO2 T03111006
94299KAAT AAT20160828150510008/28/16 15:05:31  5-MIN KAAT 282305Z AUTO 10SM CLR 31/M01 A3012 4190 13 7000 M /M RMK AO2 T03111006
94299KAAT AAT20160828151011008/28/16 15:10:31  5-MIN KAAT 282310Z AUTO 26010KT 10SM CLR 32/M01 A3012 4190 12 7000 250/10 RMK AO2 T03171011
94299KAAT AAT20160828151511608/28/16 15:15:31  5-MIN KAAT 282315Z AUTO VRB06G16KT 10SM CLR 31/M01 A3012 4200 12 7000 VRB/06G16 RMK AO2 T03111011
94299KAAT AAT20160828152011608/28/16 15:20:31  5-MIN KAAT 282320Z AUTO 28010G16KT 10SM CLR 31/M01 A3012 4190 12 7000 270/10G16 RMK AO2 T03111011
94299KAAT AAT20160828152511608/28/16 15:25:31  5-MIN KAAT 282325Z AUTO 30006G15KT 10SM CLR 31/M01 A3012 4190 12 7000 280/06G15 RMK AO2 T03111011
94299KAAT AAT20160828153011008/28/16 15:30:31  5-MIN KAAT 282330Z AUTO VRB03KT 10SM CLR 31/M02 A3012 4200 12 6900 VRB/03 RMK AO2 T03061017
94299KAAT AAT20160828153510008/28/16 15:35:31  5-MIN KAAT 282335Z AUTO 10SM CLR 31/M02 A3012 4200 12 7000 M /M RMK AO2 T03111017
94299KAAT AAT20160828154011008/28/16 15:40:31  5-MIN KAAT 282340Z AUTO 28009KT 10SM CLR 31/M02 A3012 4200 12 7000 260/09 RMK AO2 T03111017
94299KAAT AAT20160828154511008/28/16 15:45:31  5-MIN KAAT 282345Z AUTO 28011KT 10SM CLR 32/M02 A3012 4190 11 7000 260/11 RMK AO2 T03171017
94299KAAT AAT20160828155013508/28/16 15:50:31  5-MIN KAAT 282350Z AUTO 28011KT 10SM CLR 31/M02 A3012 4190 11 7000 270/11 RMK AO2 SLP160 T03111022 10317 20250 56013
94299KAAT AAT20160828155513508/28/16 15:55:31  5-MIN KAAT 282355Z AUTO 29008KT 10SM CLR 31/M02 A3012 4190 11 6900 280/08 RMK AO2 SLP160 T03061022 10317 20250 56012
94299KAAT AAT20160828160011608/28/16 16:00:31  5-MIN KAAT 290000Z AUTO 27013G17KT 10SM CLR 31/M03 A3012 4200 11 7000 250/13G17 RMK AO2 T03111028
94299KAAT AAT20160828160511608/28/16 16:05:31  5-MIN KAAT 290005Z AUTO 28011G17KT 10SM CLR 31/M03 A3012 4200 11 7000 260/11G17 RMK AO2 T03111028
94299KAAT AAT20160828161011608/28/16 16:10:31  5-MIN KAAT 290010Z AUTO 28013G18KT 10SM CLR 31/M03 A3012 4190 10 7000 270/13G18 RMK AO2 T03111033
94299KAAT AAT20160828161511008/28/16 16:15:31  5-MIN KAAT 290015Z AUTO 26013KT 10SM CLR 31/M04 A3012 4200 10 6900 240/13 RMK AO2 T03061039
94299KAAT AAT20160828162011008/28/16 16:20:31  5-MIN KAAT 290020Z AUTO 28013KT 10SM CLR 31/M03 A3012 4200 11 6900 260/13 RMK AO2 T03061033
94299KAAT AAT20160828162511008/28/16 16:25:31  5-MIN KAAT 290025Z AUTO 27012KT 10SM CLR 31/M03 A3012 4200 11 6900 250/12 RMK AO2 T03061033
94299KAAT AAT20160828163011008/28/16 16:30:31  5-MIN KAAT 290030Z AUTO 26012KT 10SM CLR 31/M03 A3012 4190 10 7000 250/12 RMK AO2 T03111033
94299KAAT AAT20160828163511008/28/16 16:35:31  5-MIN KAAT 290035Z AUTO 28012KT 10SM CLR 31/M03 A3012 4190 11 6900 260/12 RMK AO2 T03061028
94299KAAT AAT20160828164011008/28/16 16:40:31  5-MIN KAAT 290040Z AUTO 28013KT 10SM CLR 31/M03 A3012 4190 11 6900 260/13 RMK AO2 T03061028
94299KAAT AAT20160828164511008/28/16 16:45:31  5-MIN KAAT 290045Z AUTO 27012KT 10SM CLR 31/M02 A3012 4190 11 6900 250/12 RMK AO2 T03061022
94299KAAT AAT20160828165011708/28/16 16:50:31  5-MIN KAAT 290050Z AUTO 28013KT 10SM CLR 30/M02 A3012 4190 12 6900 260/13 RMK AO2 SLP161 T03001022
94299KAAT AAT20160828165511708/28/16 16:55:31  5-MIN KAAT 290055Z AUTO 26015KT 10SM CLR 30/M03 A3013 4190 11 6900 250/15 RMK AO2 SLP163 T03001028
94299KAAT AAT20160828170011008/28/16 17:00:31  5-MIN KAAT 290100Z AUTO 27014KT 10SM CLR 30/M03 A3013 4190 11 6900 260/14 RMK AO2 T03001028
94299KAAT AAT20160828170511008/28/16 17:05:31  5-MIN KAAT 290105Z AUTO 28013KT 10SM CLR 29/M03 A3013 4190 12 6800 260/13 RMK AO2 T02941028
94299KAAT AAT20160828171011008/28/16 17:10:31  5-MIN KAAT 290110Z AUTO 27014KT 10SM CLR 29/M03 A3013 4190 12 6800 250/14 RMK AO2 T02941028
94299KAAT AAT20160828171511608/28/16 17:15:31  5-MIN KAAT 290115Z AUTO 27015G20KT 10SM CLR 29/M03 A3013 4190 12 6700 250/15G20 RMK AO2 T02891028
94299KAAT AAT20160828172011008/28/16 17:20:31  5-MIN KAAT 290120Z AUTO 26015KT 10SM CLR 29/M03 A3013 4190 12 6700 250/15 RMK AO2 T02891028
94299KAAT AAT20160828172511008/28/16 17:25:31  5-MIN KAAT 290125Z AUTO 27015KT 10SM CLR 29/M03 A3013 4190 12 6700 250/15 RMK AO2 T02891028
94299KAAT AAT20160828173011008/28/16 17:30:31  5-MIN KAAT 290130Z AUTO 27016KT 10SM CLR 28/M03 A3013 4180 13 6700 250/16 RMK AO2 T02831028
94299KAAT AAT20160828173511008/28/16 17:35:31  5-MIN KAAT 290135Z AUTO 27013KT 10SM CLR 28/M03 A3013 4180 13 6700 250/13 RMK AO2 T02831028
94299KAAT AAT20160828174011008/28/16 17:40:31  5-MIN KAAT 290140Z AUTO 27014KT 10SM CLR 28/M03 A3013 4180 12 6600 260/14 RMK AO2 T02781033
94299KAAT AAT20160828174511008/28/16 17:45:31  5-MIN KAAT 290145Z AUTO 27014KT 10SM CLR 28/M03 A3014 4180 12 6600 250/14 RMK AO2 T02781033
94299KAAT AAT20160828175011708/28/16 17:50:31  5-MIN KAAT 290150Z AUTO 27014KT 10SM CLR 28/M03 A3014 4180 12 6600 260/14 RMK AO2 SLP171 T02781033
94299KAAT AAT20160828175511708/28/16 17:55:31  5-MIN KAAT 290155Z AUTO 27014KT 10SM CLR 27/M03 A3014 4180 13 6500 250/14 RMK AO2 SLP171 T02721033
94299KAAT AAT20160828180011008/28/16 18:00:31  5-MIN KAAT 290200Z AUTO 27014KT 10SM CLR 27/M03 A3014 4180 13 6500 250/14 RMK AO2 T02721033
94299KAAT AAT20160828180511008/28/16 18:05:31  5-MIN KAAT 290205Z AUTO 26014KT 10SM CLR 27/M03 A3014 4180 13 6500 250/14 RMK AO2 T02671033
94299KAAT AAT20160828181011008/28/16 18:10:31  5-MIN KAAT 290210Z AUTO 26013KT 10SM CLR 27/M04 A3014 4180 13 6500 250/13 RMK AO2 T02671039
94299KAAT AAT20160828181511008/28/16 18:15:31  5-MIN KAAT 290215Z AUTO 27013KT 10SM CLR 26/M04 A3014 4180 13 6400 250/13 RMK AO2 T02611039
94299KAAT AAT20160828182011608/28/16 18:20:31  5-MIN KAAT 290220Z AUTO 27012G19KT 10SM CLR 26/M04 A3015 4170 13 6400 250/12G19 RMK AO2 T02611039
94299KAAT AAT20160828182511008/28/16 18:25:31  5-MIN KAAT 290225Z AUTO 27012KT 10SM CLR 26/M04 A3015 4170 13 6400 250/12 RMK AO2 T02561044
94299KAAT AAT20160828183011008/28/16 18:30:31  5-MIN KAAT 290230Z AUTO 27012KT 10SM CLR 26/M05 A3015 4170 13 6300 260/12 RMK AO2 T02561050
94299KAAT AAT20160828183511008/28/16 18:35:31  5-MIN KAAT 290235Z AUTO 27011KT 10SM CLR 25/M05 A3015 4170 13 6300 260/11 RMK AO2 T02501050
94299KAAT AAT20160828184011008/28/16 18:40:31  5-MIN KAAT 290240Z AUTO 28011KT 10SM CLR 24/M05 A3015 4170 13 6200 260/11 RMK AO2 T02441050
94299KAAT AAT20160828184511008/28/16 18:45:31  5-MIN KAAT 290245Z AUTO 28009KT 10SM CLR 24/M05 A3015 4160 14 6200 260/09 RMK AO2 T02391050
94299KAAT AAT20160828185012308/28/16 18:50:31  5-MIN KAAT 290250Z AUTO 27010KT 10SM CLR 24/M06 A3016 4160 13 6200 260/10 RMK AO2 SLP176 T02391056 56012
94299KAAT AAT20160828185512308/28/16 18:55:31  5-MIN KAAT 290255Z AUTO 27009KT 10SM CLR 24/M06 A3016 4160 13 6200 260/09 RMK AO2 SLP174 T02391061 53010
94299KAAT AAT20160828190011008/28/16 19:00:31  5-MIN KAAT 290300Z AUTO 27008KT 10SM CLR 24/M06 A3016 4160 13 6200 260/08 RMK AO2 T02391061
94299KAAT AAT20160828190511008/28/16 19:05:31  5-MIN KAAT 290305Z AUTO 27009KT 10SM CLR 23/M06 A3016 4160 13 6100 260/09 RMK AO2 T02331061
94299KAAT AAT20160828191011008/28/16 19:10:31  5-MIN KAAT 290310Z AUTO 28007KT 10SM CLR 23/M06 A3016 4160 13 6100 270/07 RMK AO2 T02331061
94299KAAT AAT20160828191511008/28/16 19:15:31  5-MIN KAAT 290315Z AUTO 28006KT 10SM CLR 23/M06 A3017 4160 14 6000 260/06 RMK AO2 T02281056
94299KAAT AAT20160828192011008/28/16 19:20:31  5-MIN KAAT 290320Z AUTO 00000KT 10SM CLR 22/M06 A3017 4150 15 6000 000/00 RMK AO2 T02221056
94299KAAT AAT20160828192511008/28/16 19:25:31  5-MIN KAAT 290325Z AUTO 00000KT 10SM CLR 22/M06 A3017 4150 15 5900 000/00 RMK AO2 T02171056
94299KAAT AAT20160828193011008/28/16 19:30:31  5-MIN KAAT 290330Z AUTO 00000KT 10SM CLR 22/M06 A3017 4150 15 5900 000/00 RMK AO2 T02171061
94299KAAT AAT20160828193511008/28/16 19:35:31  5-MIN KAAT 290335Z AUTO 14003KT 10SM CLR 22/M06 A3018 4150 15 5900 130/03 RMK AO2 T02171061
94299KAAT AAT20160828194011008/28/16 19:40:31  5-MIN KAAT 290340Z AUTO VRB03KT 10SM CLR 22/M07 A3018 4140 14 5900 VRB/03 RMK AO2 T02221067
94299KAAT AAT20160828194511008/28/16 19:45:31  5-MIN KAAT 290345Z AUTO 22003KT 10SM CLR 22/M07 A3018 4140 13 5900 210/03 RMK AO2 T02171072
94299KAAT AAT20160828195011708/28/16 19:50:31  5-MIN KAAT 290350Z AUTO 22004KT 10SM CLR 21/M08 A3018 4140 13 5800 210/04 RMK AO2 SLP182 T02111078
94299KAAT AAT20160828195511708/28/16 19:55:31  5-MIN KAAT 290355Z AUTO 24005KT 10SM CLR 21/M08 A3018 4140 14 5800 220/05 RMK AO2 SLP183 T02061078
94299KAAT AAT20160828200011008/28/16 20:00:31  5-MIN KAAT 290400Z AUTO 24005KT 10SM CLR 20/M08 A3018 4140 14 5700 220/05 RMK AO2 T02001078
94299KAAT AAT20160828200511008/28/16 20:05:31  5-MIN KAAT 290405Z AUTO 22003KT 10SM CLR 20/M07 A3019 4140 15 5700 210/03 RMK AO2 T02001072
94299KAAT AAT20160828201011008/28/16 20:10:31  5-MIN KAAT 290410Z AUTO 00000KT 10SM CLR 20/M07 A3019 4130 15 5700 000/00 RMK AO2 T02001072
94299KAAT AAT20160828201511008/28/16 20:15:31  5-MIN KAAT 290415Z AUTO 00000KT 10SM CLR 20/M07 A3019 4130 15 5700 000/00 RMK AO2 T02001072
94299KAAT AAT20160828202011008/28/16 20:20:31  5-MIN KAAT 290420Z AUTO 00000KT 10SM CLR 19/M07 A3019 4130 16 5600 000/00 RMK AO2 T01891072
94299KAAT AAT20160828202511008/28/16 20:25:31  5-MIN KAAT 290425Z AUTO 00000KT 10SM CLR 18/M07 A3019 4130 18 5400 000/00 RMK AO2 T01781067
94299KAAT AAT20160828203011008/28/16 20:30:31  5-MIN KAAT 290430Z AUTO 10004KT 10SM CLR 18/M07 A3019 4130 17 5500 080/04 RMK AO2 T01831067
94299KAAT AAT20160828203511008/28/16 20:35:31  5-MIN KAAT 290435Z AUTO 11003KT 10SM CLR 19/M07 A3019 4130 17 5600 100/03 RMK AO2 T01891067
94299KAAT AAT20160828204011008/28/16 20:40:31  5-MIN KAAT 290440Z AUTO 13003KT 10SM CLR 19/M06 A3019 4130 17 5600 120/03 RMK AO2 T01941061
94299KAAT AAT20160828204511008/28/16 20:45:31  5-MIN KAAT 290445Z AUTO 00000KT 10SM CLR 19/M06 A3019 4130 17 5600 000/00 RMK AO2 T01891061
94299KAAT AAT20160828205011708/28/16 20:50:31  5-MIN KAAT 290450Z AUTO 00000KT 10SM CLR 18/M06 A3019 4130 19 5400 000/00 RMK AO2 SLP185 T01781061
94299KAAT AAT20160828205511708/28/16 20:55:31  5-MIN KAAT 290455Z AUTO 00000KT 10SM CLR 15/M06 A3019 4130 23 5100 000/00 RMK AO2 SLP188 T01501056
94299KAAT AAT20160828210011008/28/16 21:00:31  5-MIN KAAT 290500Z AUTO 00000KT 10SM CLR 16/M04 A3019 4130 25 5200 000/00 RMK AO2 T01561044
94299KAAT AAT20160828210511008/28/16 21:05:31  5-MIN KAAT 290505Z AUTO 00000KT 10SM CLR 17/M05 A3019 4130 21 5400 000/00 RMK AO2 T01721050
94299KAAT AAT20160828211011008/28/16 21:10:31  5-MIN KAAT 290510Z AUTO 00000KT 10SM CLR 17/M05 A3020 4130 22 5300 000/00 RMK AO2 T01671050
94299KAAT AAT20160828211511008/28/16 21:15:31  5-MIN KAAT 290515Z AUTO 00000KT 10SM CLR 16/M05 A3019 4130 23 5200 000/00 RMK AO2 T01611050
94299KAAT AAT20160828212011008/28/16 21:20:31  5-MIN KAAT 290520Z AUTO 00000KT 10SM CLR 14/M06 A3020 4130 24 5100 000/00 RMK AO2 T01441056
94299KAAT AAT20160828212511008/28/16 21:25:31  5-MIN KAAT 290525Z AUTO 00000KT 10SM CLR 14/M06 A3019 4130 25 5000 000/00 RMK AO2 T01391056
94299KAAT AAT20160828213011008/28/16 21:30:31  5-MIN KAAT 290530Z AUTO 10004KT 10SM CLR 14/M04 A3020 4130 28 5100 090/04 RMK AO2 T01441039
94299KAAT AAT20160828213511008/28/16 21:35:31  5-MIN KAAT 290535Z AUTO 13003KT 10SM CLR 14/M02 A3020 4130 31 5100 110/03 RMK AO2 T01441022
94299KAAT AAT20160828214011008/28/16 21:40:31  5-MIN KAAT 290540Z AUTO 00000KT 10SM CLR 15/M02 A3020 4130 31 5100 000/00 RMK AO2 T01501017
94299KAAT AAT20160828214511008/28/16 21:45:31  5-MIN KAAT 290545Z AUTO 00000KT 10SM CLR 16/M02 A3020 4130 29 5200 000/00 RMK AO2 T01561022
94299KAAT AAT20160828215013508/28/16 21:50:31  5-MIN KAAT 290550Z AUTO 00000KT 10SM CLR 15/M03 A3020 4130 28 5100 000/00 RMK AO2 SLP184 T01501033 10311 20139 53010
94299KAAT AAT20160828215513508/28/16 21:55:31  5-MIN KAAT 290555Z AUTO 09004KT 10SM CLR 13/M03 A3020 4120 31 4900 080/04 RMK AO2 SLP188 T01331033 10311 20128 51013
94299KAAT AAT20160828220011008/28/16 22:00:31  5-MIN KAAT 290600Z AUTO 00000KT 10SM CLR 14/M02 A3020 4120 32 5000 000/00 RMK AO2 T01391022
94299KAAT AAT20160828220511008/28/16 22:05:31  5-MIN KAAT 290605Z AUTO 00000KT 10SM CLR 13/M03 A3020 4120 32 4900 000/00 RMK AO2 T01331028
94299KAAT AAT20160828221011008/28/16 22:10:31  5-MIN KAAT 290610Z AUTO 08003KT 10SM CLR 14/M02 A3020 4120 31 5000 070/03 RMK AO2 T01441022
94299KAAT AAT20160828221511008/28/16 22:15:31  5-MIN KAAT 290615Z AUTO 33003KT 10SM CLR 13/M02 A3020 4120 34 4900 320/03 RMK AO2 T01331022
94299KAAT AAT20160828222011008/28/16 22:20:31  5-MIN KAAT 290620Z AUTO 09004KT 10SM CLR 12/M02 A3020 4120 38 4700 070/04 RMK AO2 T01171022
94299KAAT AAT20160828222511008/28/16 22:25:31  5-MIN KAAT 290625Z AUTO 00000KT 10SM CLR 11/M03 A3020 4120 37 4700 000/00 RMK AO2 T01111028
94299KAAT AAT20160828223011008/28/16 22:30:31  5-MIN KAAT 290630Z AUTO 00000KT 10SM CLR 11/M03 A3020 4120 37 4600 000/00 RMK AO2 T01061033
94299KAAT AAT20160828223511008/28/16 22:35:31  5-MIN KAAT 290635Z AUTO 00000KT 10SM CLR 10/M05 A3021 4120 34 4500 000/00 RMK AO2 T01001050
94299KAAT AAT20160828224011008/28/16 22:40:31  5-MIN KAAT 290640Z AUTO 00000KT 10SM CLR 12/M04 A3020 4120 33 4700 000/00 RMK AO2 T01171039
94299KAAT AAT20160828224511008/28/16 22:45:31  5-MIN KAAT 290645Z AUTO 00000KT 10SM CLR 11/M03 A3020 4120 37 4600 000/00 RMK AO2 T01061033
94299KAAT AAT20160828225011708/28/16 22:50:31  5-MIN KAAT 290650Z AUTO 00000KT 10SM CLR 12/M04 A3021 4120 33 4700 000/00 RMK AO2 SLP190 T01171039
94299KAAT AAT20160828225511708/28/16 22:55:31  5-MIN KAAT 290655Z AUTO 00000KT 10SM CLR 10/M04 A3021 4120 37 4500 000/00 RMK AO2 SLP193 T01001039
94299KAAT AAT20160828230011008/28/16 23:00:31  5-MIN KAAT 290700Z AUTO 00000KT 10SM CLR 10/M06 A3021 4120 31 4500 000/00 RMK AO2 T01001061
94299KAAT AAT20160828230511008/28/16 23:05:31  5-MIN KAAT 290705Z AUTO 21003KT 10SM CLR 10/M06 A3021 4110 33 4500 190/03 RMK AO2 T01001056
94299KAAT AAT20160828231011008/28/16 23:10:31  5-MIN KAAT 290710Z AUTO 18005KT 10SM CLR 10/M07 A3021 4110 30 4500 160/05 RMK AO2 T01001067
94299KAAT AAT20160828231511008/28/16 23:15:31  5-MIN KAAT 290715Z AUTO 00000KT 10SM CLR 10/M07 A3021 4110 30 4500 000/00 RMK AO2 T01001067
94299KAAT AAT20160828232011008/28/16 23:20:31  5-MIN KAAT 290720Z AUTO 00000KT 10SM CLR 09/M06 A3021 4110 34 4500 000/00 RMK AO2 T00941056
94299KAAT AAT20160828232511008/28/16 23:25:31  5-MIN KAAT 290725Z AUTO 00000KT 10SM CLR 09/M06 A3021 4110 34 4400 000/00 RMK AO2 T00891061
94299KAAT AAT20160828233011008/28/16 23:30:31  5-MIN KAAT 290730Z AUTO 00000KT 10SM CLR 09/M06 A3022 4110 34 4400 000/00 RMK AO2 T00941056
94299KAAT AAT20160828233511008/28/16 23:35:31  5-MIN KAAT 290735Z AUTO 32003KT 10SM CLR 09/M06 A3022 4110 33 4400 310/03 RMK AO2 T00941061
94299KAAT AAT20160828234011008/28/16 23:40:31  5-MIN KAAT 290740Z AUTO 00000KT 10SM CLR 10/M07 A3022 4110 30 4500 000/00 RMK AO2 T01001067
94299KAAT AAT20160828234511008/28/16 23:45:31  5-MIN KAAT 290745Z AUTO 36003KT 10SM CLR 10/M06 A3022 4110 33 4500 350/03 RMK AO2 T01001056
94299KAAT AAT20160828235012708/28/16 23:50:31  5-MIN KAAT 290750Z AUTO 00000KT 10SM CLR 11/M04 A3022 4100 34 4600 000/00 RMK AO2 SLP194 T01061044 403170061
94299KAAT AAT20160828235512708/28/16 23:55:31  5-MIN KAAT 290755Z AUTO 00000KT 10SM CLR 11/M04 A3022 4100 34 4600 000/00 RMK AO2 SLP194 T01111039 403170061
94299KAAT AAT20160829000011008/29/16 00:00:31  5-MIN KAAT 290800Z AUTO 00000KT 10SM CLR 11/M03 A3022 4100 37 4600 000/00 RMK AO2 T01111028
94299KAAT AAT20160829000511008/29/16 00:05:31  5-MIN KAAT 290805Z AUTO 00000KT 10SM CLR 10/M03 A3022 4100 40 4500 000/00 RMK AO2 T01001028
94299KAAT AAT20160829001011008/29/16 00:10:31  5-MIN KAAT 290810Z AUTO 00000KT 10SM CLR 11/M03 A3022 4100 39 4600 000/00 RMK AO2 T01061028
94299KAAT AAT20160829001511008/29/16 00:15:31  5-MIN KAAT 290815Z AUTO 00000KT 10SM CLR 11/M03 A3022 4100 36 4600 000/00 RMK AO2 T01111033
94299KAAT AAT20160829002011008/29/16 00:20:31  5-MIN KAAT 290820Z AUTO 00000KT 10SM CLR 11/M03 A3022 4100 36 4600 000/00 RMK AO2 T01111033
94299KAAT AAT20160829002511008/29/16 00:25:31  5-MIN KAAT 290825Z AUTO 00000KT 10SM CLR 11/M03 A3022 4110 36 4600 000/00 RMK AO2 T01111033
94299KAAT AAT20160829003011008/29/16 00:30:31  5-MIN KAAT 290830Z AUTO 06003KT 10SM CLR 11/M03 A3022 4110 37 4600 050/03 RMK AO2 T01061033
94299KAAT AAT20160829003511008/29/16 00:35:31  5-MIN KAAT 290835Z AUTO 00000KT 10SM CLR 10/M03 A3022 4110 39 4500 000/00 RMK AO2 T01001033
94299KAAT AAT20160829004011008/29/16 00:40:31  5-MIN KAAT 290840Z AUTO 00000KT 10SM CLR 09/M04 A3022 4110 39 4400 000/00 RMK AO2 T00941039
94299KAAT AAT20160829004511008/29/16 00:45:31  5-MIN KAAT 290845Z AUTO 00000KT 10SM CLR 10/M04 A3022 4110 36 4500 000/00 RMK AO2 T01001044
94299KAAT AAT20160829005012308/29/16 00:50:31  5-MIN KAAT 290850Z AUTO 25003KT 10SM CLR 08/M05 A3022 4100 40 4200 230/03 RMK AO2 SLP197 T00781050 51013
94299KAAT AAT20160829005512308/29/16 00:55:31  5-MIN KAAT 290855Z AUTO 00000KT 10SM CLR 07/M06 A3022 4100 41 4100 000/00 RMK AO2 SLP198 T00671056 51006
94299KAAT AAT20160829010011008/29/16 01:00:31  5-MIN KAAT 290900Z AUTO 00000KT 10SM CLR 06/M05 A3022 4100 45 4100 000/00 RMK AO2 T00611050
94299KAAT AAT20160829010511008/29/16 01:05:31  5-MIN KAAT 290905Z AUTO 00000KT 10SM CLR 08/M04 A3022 4100 41 4200 000/00 RMK AO2 T00781044
94299KAAT AAT20160829011011008/29/16 01:10:31  5-MIN KAAT 290910Z AUTO 00000KT 10SM CLR 08/M04 A3022 4100 43 4200 000/00 RMK AO2 T00781039
94299KAAT AAT20160829011511008/29/16 01:15:31  5-MIN KAAT 290915Z AUTO 00000KT 10SM CLR 07/M04 A3022 4110 45 4200 000/00 RMK AO2 T00721039
94299KAAT AAT20160829012011008/29/16 01:20:31  5-MIN KAAT 290920Z AUTO 00000KT 10SM CLR 07/M04 A3022 4110 45 4200 000/00 RMK AO2 T00721039
94299KAAT AAT20160829012511008/29/16 01:25:31  5-MIN KAAT 290925Z AUTO 00000KT 10SM CLR 08/M04 A3022 4110 43 4300 000/00 RMK AO2 T00781039
94299KAAT AAT20160829013011008/29/16 01:30:31  5-MIN KAAT 290930Z AUTO 00000KT 10SM CLR 08/M04 A3022 4110 43 4300 000/00 RMK AO2 T00781039
94299KAAT AAT20160829013511008/29/16 01:35:31  5-MIN KAAT 290935Z AUTO 00000KT 10SM CLR 08/M03 A3022 4110 45 4300 000/00 RMK AO2 T00781033
94299KAAT AAT20160829014011008/29/16 01:40:31  5-MIN KAAT 290940Z AUTO 00000KT 10SM CLR 08/M03 A3022 4110 45 4300 000/00 RMK AO2 T00831028
94299KAAT AAT20160829014511008/29/16 01:45:31  5-MIN KAAT 290945Z AUTO 00000KT 10SM CLR 08/M03 A3022 4100 43 4300 000/00 RMK AO2 T00831033
94299KAAT AAT20160829015011708/29/16 01:50:31  5-MIN KAAT 290950Z AUTO 00000KT 10SM CLR 08/M04 A3022 4100 43 4200 000/00 RMK AO2 SLP196 T00781039
94299KAAT AAT20160829015511708/29/16 01:55:31  5-MIN KAAT 290955Z AUTO 00000KT 10SM CLR 07/M03 A3022 4100 47 4200 000/00 RMK AO2 SLP196 T00721033
94299KAAT AAT20160829020011008/29/16 02:00:31  5-MIN KAAT 291000Z AUTO 00000KT 10SM CLR 07/M04 A3022 4100 45 4100 000/00 RMK AO2 T00671044
94299KAAT AAT20160829020511008/29/16 02:05:31  5-MIN KAAT 291005Z AUTO 00000KT 10SM CLR 07/M04 A3022 4100 45 4100 000/00 RMK AO2 T00671044
94299KAAT AAT20160829021011008/29/16 02:10:31  5-MIN KAAT 291010Z AUTO 00000KT 10SM CLR 07/M05 A3022 4100 43 4100 000/00 RMK AO2 T00671050
94299KAAT AAT20160829021511008/29/16 02:15:31  5-MIN KAAT 291015Z AUTO 00000KT 10SM CLR 06/M06 A3023 4100 43 4000 000/00 RMK AO2 T00611056
94299KAAT AAT20160829022011008/29/16 02:20:31  5-MIN KAAT 291020Z AUTO 00000KT 10SM CLR 06/M05 A3023 4100 46 4000 000/00 RMK AO2 T00561050
94299KAAT AAT20160829022511008/29/16 02:25:31  5-MIN KAAT 291025Z AUTO 00000KT 10SM CLR 06/M05 A3023 4100 45 4000 000/00 RMK AO2 T00611050
94299KAAT AAT20160829023011008/29/16 02:30:31  5-MIN KAAT 291030Z AUTO 00000KT 10SM CLR 07/M04 A3023 4100 45 4100 000/00 RMK AO2 T00671044
94299KAAT AAT20160829023511008/29/16 02:35:31  5-MIN KAAT 291035Z AUTO 00000KT 10SM CLR 06/M05 A3023 4100 45 4000 000/00 RMK AO2 T00611050
94299KAAT AAT20160829024011008/29/16 02:40:31  5-MIN KAAT 291040Z AUTO 00000KT 10SM CLR 06/M05 A3022 4100 46 4000 000/00 RMK AO2 T00561050
94299KAAT AAT20160829024511008/29/16 02:45:31  5-MIN KAAT 291045Z AUTO 00000KT 10SM CLR 05/M05 A3023 4100 48 3900 000/00 RMK AO2 T00501050
94299KAAT AAT20160829025011708/29/16 02:50:31  5-MIN KAAT 291050Z AUTO 00000KT 10SM CLR 06/M04 A3023 4100 48 4000 000/00 RMK AO2 SLP200 T00561044
94299KAAT AAT20160829025511708/29/16 02:55:31  5-MIN KAAT 291055Z AUTO 00000KT 10SM CLR 05/M05 A3023 4100 48 3900 000/00 RMK AO2 SLP201 T00501050
94299KAAT AAT20160829030011008/29/16 03:00:31  5-MIN KAAT 291100Z AUTO 00000KT 10SM CLR 06/M05 A3022 4100 46 4000 000/00 RMK AO2 T00561050
94299KAAT AAT20160829030511008/29/16 03:05:31  5-MIN KAAT 291105Z AUTO 00000KT 10SM CLR 06/M05 A3023 4100 46 4000 000/00 RMK AO2 T00561050
94299KAAT AAT20160829031011008/29/16 03:10:31  5-MIN KAAT 291110Z AUTO 00000KT 10SM CLR 06/M05 A3023 4100 46 4000 000/00 RMK AO2 T00561050
94299KAAT AAT20160829031511008/29/16 03:15:31  5-MIN KAAT 291115Z AUTO 00000KT 10SM CLR 05/M05 A3023 4100 48 3900 000/00 RMK AO2 T00501050
94299KAAT AAT20160829032011008/29/16 03:20:31  5-MIN KAAT 291120Z AUTO 00000KT 10SM CLR 07/M05 A3023 4100 43 4100 000/00 RMK AO2 T00671050
94299KAAT AAT20160829032511008/29/16 03:25:31  5-MIN KAAT 291125Z AUTO 00000KT 10SM CLR 06/M04 A3023 4100 46 4000 000/00 RMK AO2 T00611044
94299KAAT AAT20160829033011008/29/16 03:30:31  5-MIN KAAT 291130Z AUTO 00000KT 10SM CLR 07/M04 A3023 4100 47 4100 000/00 RMK AO2 T00671039
94299KAAT AAT20160829033511008/29/16 03:35:31  5-MIN KAAT 291135Z AUTO 00000KT 10SM CLR 07/M04 A3023 4100 45 4200 000/00 RMK AO2 T00721039
94299KAAT AAT20160829034011008/29/16 03:40:31  5-MIN KAAT 291140Z AUTO 00000KT 10SM CLR 08/M04 A3023 4100 43 4200 000/00 RMK AO2 T00781039
94299KAAT AAT20160829034511008/29/16 03:45:31  5-MIN KAAT 291145Z AUTO 00000KT 10SM CLR 07/M04 A3023 4100 45 4200 000/00 RMK AO2 T00721039
94299KAAT AAT20160829035013508/29/16 03:50:31  5-MIN KAAT 291150Z AUTO 00000KT 10SM CLR 06/M06 A3023 4100 44 4000 000/00 RMK AO2 SLP201 T00561056 10144 20050 51006
94299KAAT AAT20160829035513508/29/16 03:55:31  5-MIN KAAT 291155Z AUTO 00000KT 10SM CLR 06/M05 A3023 4100 45 4000 000/00 RMK AO2 SLP201 T00611050 10144 20050 51002
94299KAAT AAT20160829040011008/29/16 04:00:31  5-MIN KAAT 291200Z AUTO 00000KT 10SM CLR 06/M04 A3023 4100 50 4000 000/00 RMK AO2 T00561039
94299KAAT AAT20160829040511008/29/16 04:05:31  5-MIN KAAT 291205Z AUTO 00000KT 10SM CLR 06/M04 A3022 4100 48 4000 000/00 RMK AO2 T00561044
94299KAAT AAT20160829041011008/29/16 04:10:31  5-MIN KAAT 291210Z AUTO 00000KT 10SM CLR 06/M04 A3022 4100 46 4000 000/00 RMK AO2 T00611044
94299KAAT AAT20160829041511008/29/16 04:15:31  5-MIN KAAT 291215Z AUTO 00000KT 10SM CLR 06/M05 A3022 4100 45 4100 000/00 RMK AO2 T00611050
94299KAAT AAT20160829042011008/29/16 04:20:31  5-MIN KAAT 291220Z AUTO 00000KT 10SM CLR 06/M04 A3022 4100 48 4000 000/00 RMK AO2 T00561044
94299KAAT AAT20160829042511008/29/16 04:25:31  5-MIN KAAT 291225Z AUTO 00000KT 10SM CLR 06/M04 A3022 4100 48 4000 000/00 RMK AO2 T00611039
94299KAAT AAT20160829043011008/29/16 04:30:31  5-MIN KAAT 291230Z AUTO 00000KT 10SM CLR 06/M04 A3022 4100 48 4000 000/00 RMK AO2 T00561044
94299KAAT AAT20160829043511008/29/16 04:35:31  5-MIN KAAT 291235Z AUTO 00000KT 10SM CLR 06/M04 A3022 4100 50 4000 000/00 RMK AO2 T00561039
94299KAAT AAT20160829044011008/29/16 04:40:31  5-MIN KAAT 291240Z AUTO 00000KT 10SM CLR 06/M04 A3022 4110 50 4000 000/00 RMK AO2 T00561039
94299KAAT AAT20160829044511008/29/16 04:45:31  5-MIN KAAT 291245Z AUTO 00000KT 10SM CLR 06/M04 A3022 4100 48 4000 000/00 RMK AO2 T00611039
94299KAAT AAT20160829045011708/29/16 04:50:31  5-MIN KAAT 291250Z AUTO 00000KT 10SM CLR 07/M04 A3023 4100 47 4100 000/00 RMK AO2 SLP200 T00671039
94299KAAT AAT20160829045511708/29/16 04:55:31  5-MIN KAAT 291255Z AUTO 00000KT 10SM CLR 06/M04 A3023 4100 46 4000 000/00 RMK AO2 SLP200 T00611044
94299KAAT AAT20160829050011008/29/16 05:00:31  5-MIN KAAT 291300Z AUTO 00000KT 10SM CLR 06/M04 A3023 4100 48 4000 000/00 RMK AO2 T00611039
94299KAAT AAT20160829050511008/29/16 05:05:31  5-MIN KAAT 291305Z AUTO 00000KT 10SM CLR 06/M04 A3023 4090 48 4000 000/00 RMK AO2 T00611039
94299KAAT AAT20160829051011008/29/16 05:10:31  5-MIN KAAT 291310Z AUTO 00000KT 10SM CLR 06/M04 A3023 4100 46 4000 000/00 RMK AO2 T00611044
94299KAAT AAT20160829051511008/29/16 05:15:31  5-MIN KAAT 291315Z AUTO 00000KT 10SM CLR 06/M05 A3023 4100 45 4000 000/00 RMK AO2 T00611050
94299KAAT AAT20160829052011008/29/16 05:20:31  5-MIN KAAT 291320Z AUTO 00000KT 10SM CLR 06/M05 A3023 4100 46 4000 000/00 RMK AO2 T00561050
94299KAAT AAT20160829052511008/29/16 05:25:31  5-MIN KAAT 291325Z AUTO 00000KT 10SM CLR 05/M05 A3023 4100 48 3900 000/00 RMK AO2 T00501050
94299KAAT AAT20160829053011008/29/16 05:30:31  5-MIN KAAT 291330Z AUTO 00000KT 10SM CLR 06/M04 A3022 4100 48 4000 000/00 RMK AO2 T00561044
94299KAAT AAT20160829053511008/29/16 05:35:31  5-MIN KAAT 291335Z AUTO 00000KT 10SM CLR 06/M04 A3022 4100 46 4000 000/00 RMK AO2 T00611044
94299KAAT AAT20160829054011008/29/16 05:40:31  5-MIN KAAT 291340Z AUTO 00000KT 10SM CLR 06/M03 A3022 4100 51 4000 000/00 RMK AO2 T00611033
94299KAAT AAT20160829054511008/29/16 05:45:31  5-MIN KAAT 291345Z AUTO 00000KT 10SM CLR 07/M03 A3023 4100 49 4100 000/00 RMK AO2 T00671033
94299KAAT AAT20160829055011708/29/16 05:50:31  5-MIN KAAT 291350Z AUTO 00000KT 10SM CLR 06/M04 A3023 4100 48 4000 000/00 RMK AO2 SLP204 T00611039
94299KAAT AAT20160829055511708/29/16 05:55:31  5-MIN KAAT 291355Z AUTO 00000KT 10SM CLR 06/M03 A3023 4100 51 4000 000/00 RMK AO2 SLP205 T00611033
94299KAAT AAT20160829060011008/29/16 06:00:31  5-MIN KAAT 291400Z AUTO 00000KT 10SM CLR 06/M03 A3023 4100 51 4000 000/00 RMK AO2 T00611033
94299KAAT AAT20160829060511008/29/16 06:05:31  5-MIN KAAT 291405Z AUTO 00000KT 10SM CLR 06/M04 A3023 4090 48 4000 000/00 RMK AO2 T00611039
94299KAAT AAT20160829061011008/29/16 06:10:31  5-MIN KAAT 291410Z AUTO 00000KT 10SM CLR 06/M03 A3023 4090 51 4000 000/00 RMK AO2 T00611033
94299KAAT AAT20160829061511008/29/16 06:15:31  5-MIN KAAT 291415Z AUTO 00000KT 10SM CLR 07/M03 A3024 4090 49 4100 000/00 RMK AO2 T00671033
94299KAAT AAT20160829062011008/29/16 06:20:31  5-MIN KAAT 291420Z AUTO 00000KT 10SM CLR 07/M03 A3023 4100 51 4100 000/00 RMK AO2 T00671028
94299KAAT AAT20160829062511008/29/16 06:25:31  5-MIN KAAT 291425Z AUTO 11003KT 10SM CLR 07/M03 A3023 4100 49 4200 090/03 RMK AO2 T00721028
94299KAAT AAT20160829063011008/29/16 06:30:31  5-MIN KAAT 291430Z AUTO 00000KT 10SM CLR 08/M03 A3023 4090 45 4300 000/00 RMK AO2 T00831028
94299KAAT AAT20160829063511008/29/16 06:35:31  5-MIN KAAT 291435Z AUTO 00000KT 10SM CLR 08/M02 A3024 4090 47 4300 000/00 RMK AO2 T00831022
94299KAAT AAT20160829064011008/29/16 06:40:31  5-MIN KAAT 291440Z AUTO 00000KT 10SM CLR 08/M03 A3024 4090 45 4300 000/00 RMK AO2 T00831028
94299KAAT AAT20160829064511008/29/16 06:45:31  5-MIN KAAT 291445Z AUTO 00000KT 10SM CLR 08/M03 A3024 4090 45 4300 000/00 RMK AO2 T00831028
94299KAAT AAT20160829065012308/29/16 06:50:31  5-MIN KAAT 291450Z AUTO 00000KT 10SM CLR 09/M03 A3023 4090 43 4400 000/00 RMK AO2 SLP207 T00891028 51002
94299KAAT AAT20160829065512308/29/16 06:55:31  5-MIN KAAT 291455Z AUTO 00000KT 10SM CLR 09/M02 A3023 4090 45 4400 000/00 RMK AO2 SLP206 T00891022 53001
94299KAAT AAT20160829070011008/29/16 07:00:31  5-MIN KAAT 291500Z AUTO 00000KT 10SM CLR 09/M02 A3023 4090 44 4400 000/00 RMK AO2 T00941022
94299KAAT AAT20160829070511008/29/16 07:05:31  5-MIN KAAT 291505Z AUTO 00000KT 10SM CLR 10/M02 A3023 4090 42 4500 000/00 RMK AO2 T01001022
94299KAAT AAT20160829071011008/29/16 07:10:31  5-MIN KAAT 291510Z AUTO 00000KT 10SM CLR 10/M02 A3024 4090 44 4500 000/00 RMK AO2 T01001017
94299KAAT AAT20160829071511008/29/16 07:15:31  5-MIN KAAT 291515Z AUTO 00000KT 10SM CLR 11/M02 A3024 4090 41 4600 000/00 RMK AO2 T01111017
94299KAAT AAT20160829072011008/29/16 07:20:31  5-MIN KAAT 291520Z AUTO 00000KT 10SM CLR 11/M02 A3024 4090 41 4600 000/00 RMK AO2 T01111017
94299KAAT AAT20160829072511008/29/16 07:25:31  5-MIN KAAT 291525Z AUTO 00000KT 10SM CLR 11/M02 A3023 4090 41 4600 000/00 RMK AO2 T01111017
94299KAAT AAT20160829073011008/29/16 07:30:31  5-MIN KAAT 291530Z AUTO 00000KT 10SM CLR 12/M02 A3024 4090 38 4800 000/00 RMK AO2 T01221017
94299KAAT AAT20160829073511008/29/16 07:35:31  5-MIN KAAT 291535Z AUTO 00000KT 10SM CLR 13/M02 A3023 4090 35 4900 000/00 RMK AO2 T01331017
94299KAAT AAT20160829074011008/29/16 07:40:31  5-MIN KAAT 291540Z AUTO 01003KT 10SM CLR 12/M02 A3023 4090 38 4800 360/03 RMK AO2 T01221017
94299KAAT AAT20160829074511008/29/16 07:45:31  5-MIN KAAT 291545Z AUTO 00000KT 10SM CLR 12/M01 A3023 4090 39 4800 000/00 RMK AO2 T01221011
94299KAAT AAT20160829075011708/29/16 07:50:31  5-MIN KAAT 291550Z AUTO 00000KT 10SM CLR 13/M01 A3023 4090 38 4900 000/00 RMK AO2 SLP205 T01331006
94299KAAT AAT20160829075511708/29/16 07:55:31  5-MIN KAAT 291555Z AUTO 00000KT 10SM CLR 15/M01 A3023 4090 34 5100 000/00 RMK AO2 SLP204 T01501006
94299KAAT AAT20160829080011008/29/16 08:00:31  5-MIN KAAT 291600Z AUTO 00000KT 10SM CLR 16/M01 A3023 4090 33 5100 000/00 RMK AO2 T01561006
94299KAAT AAT20160829080511008/29/16 08:05:31  5-MIN KAAT 291605Z AUTO 00000KT 10SM CLR 16/M01 A3023 4100 30 5200 000/00 RMK AO2 T01611011
94299KAAT AAT20160829081011008/29/16 08:10:31  5-MIN KAAT 291610Z AUTO 00000KT 10SM CLR 17/M01 A3023 4100 29 5300 000/00 RMK AO2 T01671011
94299KAAT AAT20160829081511008/29/16 08:15:31  5-MIN KAAT 291615Z AUTO 00000KT 10SM CLR 17/M02 A3023 4100 27 5300 000/00 RMK AO2 T01721017
94299KAAT AAT20160829082011008/29/16 08:20:31  5-MIN KAAT 291620Z AUTO 00000KT 10SM CLR 18/M01 A3023 4100 26 5500 000/00 RMK AO2 T01831011
94299KAAT AAT20160829082511008/29/16 08:25:31  5-MIN KAAT 291625Z AUTO 00000KT 10SM CLR 18/M01 A3022 4100 27 5400 000/00 RMK AO2 T01781011
94299KAAT AAT20160829083011008/29/16 08:30:31  5-MIN KAAT 291630Z AUTO 00000KT 10SM CLR 18/M02 A3022 4100 25 5500 000/00 RMK AO2 T01831017
94299KAAT AAT20160829083511008/29/16 08:35:31  5-MIN KAAT 291635Z AUTO 00000KT 10SM CLR 19/M02 A3023 4100 24 5500 000/00 RMK AO2 T01891017
94299KAAT AAT20160829084011008/29/16 08:40:31  5-MIN KAAT 291640Z AUTO 00000KT 10SM CLR 19/M02 A3022 4100 23 5500 000/00 RMK AO2 T01891022
94299KAAT AAT20160829084511008/29/16 08:45:31  5-MIN KAAT 291645Z AUTO 00000KT 10SM CLR 19/M02 A3022 4110 23 5500 000/00 RMK AO2 T01891022
94299KAAT AAT20160829085011708/29/16 08:50:31  5-MIN KAAT 291650Z AUTO 00000KT 10SM CLR 19/M02 A3022 4110 23 5600 000/00 RMK AO2 SLP195 T01941022
94299KAAT AAT20160829085511708/29/16 08:55:31  5-MIN KAAT 291655Z AUTO 00000KT 10SM CLR 20/M03 A3022 4110 21 5700 000/00 RMK AO2 SLP197 T02001028
94299KAAT AAT20160829090011008/29/16 09:00:31  5-MIN KAAT 291700Z AUTO 00000KT 10SM CLR 21/M03 A3022 4110 20 5800 000/00 RMK AO2 T02111028
94299KAAT AAT20160829090511008/29/16 09:05:31  5-MIN KAAT 291705Z AUTO 00000KT 10SM CLR 21/M02 A3022 4110 21 5800 000/00 RMK AO2 T02111017
94299KAAT AAT20160829091011008/29/16 09:10:31  5-MIN KAAT 291710Z AUTO 00000KT 10SM CLR 22/M01 A3022 4110 21 5900 000/00 RMK AO2 T02221011
94299KAAT AAT20160829091511008/29/16 09:15:31  5-MIN KAAT 291715Z AUTO 00000KT 10SM CLR 23/M02 A3022 4110 19 6000 000/00 RMK AO2 T02281017
94299KAAT AAT20160829092011008/29/16 09:20:31  5-MIN KAAT 291720Z AUTO 00000KT 10SM CLR 22/M02 A3021 4110 20 5800 000/00 RMK AO2 T02171022
94299KAAT AAT20160829092511008/29/16 09:25:31  5-MIN KAAT 291725Z AUTO VRB03KT 10SM CLR 23/M02 A3021 4110 18 6000 VRB/03 RMK AO2 T02331022
94299KAAT AAT20160829093011008/29/16 09:30:31  5-MIN KAAT 291730Z AUTO 00000KT 10SM CLR 24/M02 A3021 4110 17 6100 000/00 RMK AO2 T02391022
94299KAAT AAT20160829093511008/29/16 09:35:31  5-MIN KAAT 291735Z AUTO 00000KT 10SM CLR 24/M03 A3021 4120 16 6100 000/00 RMK AO2 T02391028
94299KAAT AAT20160829094011008/29/16 09:40:31  5-MIN KAAT 291740Z AUTO 36003KT 10SM CLR 24/M02 A3021 4120 17 6100 350/03 RMK AO2 T02391022
94299KAAT AAT20160829094511008/29/16 09:45:31  5-MIN KAAT 291745Z AUTO 00000KT 10SM CLR 25/M03 A3020 4120 15 6200 000/00 RMK AO2 T02501028
94299KAAT AAT20160829095013508/29/16 09:50:31  5-MIN KAAT 291750Z AUTO 00000KT 10SM CLR 24/M03 A3020 4120 15 6200 000/00 RMK AO2 SLP187 T02441033 10250 20050 53001
94299KAAT AAT20160829095513508/29/16 09:55:31  5-MIN KAAT 291755Z AUTO 14004KT 10SM CLR 25/M04 A3020 4120 14 6200 120/04 RMK AO2 SLP187 T02501044 10250 20050 58010
94299KAAT AAT20160829100011008/29/16 10:00:31  5-MIN KAAT 291800Z AUTO 14004KT 10SM CLR 26/M06 A3020 4120 11 6400 130/04 RMK AO2 T02611061
94299KAAT AAT20160829100511008/29/16 10:05:31  5-MIN KAAT 291805Z AUTO VRB05KT 10SM CLR 26/M07 A3020 4120 11 6400 VRB/05 RMK AO2 T02611067
94299KAAT AAT20160829101011008/29/16 10:10:31  5-MIN KAAT 291810Z AUTO 15004KT 10SM CLR 26/M08 A3020 4120 09 6400 130/04 RMK AO2 T02611083
94299KAAT AAT20160829101511008/29/16 10:15:31  5-MIN KAAT 291815Z AUTO 00000KT 10SM CLR 26/M07 A3020 4120 10 6400 000/00 RMK AO2 T02611072
94299KAAT AAT20160829102011008/29/16 10:20:31  5-MIN KAAT 291820Z AUTO 00000KT 10SM CLR 27/M07 A3020 4130 10 6400 000/00 RMK AO2 T02671072
94299KAAT AAT20160829102511008/29/16 10:25:31  5-MIN KAAT 291825Z AUTO 18004KT 10SM CLR 27/M08 A3019 4130 09 6400 160/04 RMK AO2 T02671078
94299KAAT AAT20160829103011008/29/16 10:30:31  5-MIN KAAT 291830Z AUTO 18004KT 10SM CLR 27/M08 A3019 4130 09 6400 170/04 RMK AO2 T02671083
94299KAAT AAT20160829103510008/29/16 10:35:31  5-MIN KAAT 291835Z AUTO 10SM CLR 27/M08 A3019 4130 09 6500 M /M RMK AO2 T02721083
94299KAAT AAT20160829104011008/29/16 10:40:31  5-MIN KAAT 291840Z AUTO 16006KT 10SM CLR 27/M09 A3019 4130 08 6500 140/06 RMK AO2 T02721089
94299KAAT AAT20160829104511008/29/16 10:45:31  5-MIN KAAT 291845Z AUTO 22004KT 10SM CLR 27/M09 A3019 4130 08 6500 200/04 RMK AO2 T02721089
94299KAAT AAT20160829105011708/29/16 10:50:31  5-MIN KAAT 291850Z AUTO VRB04KT 10SM CLR 27/M08 A3019 4130 09 6500 VRB/04 RMK AO2 SLP185 T02721078
94299KAAT AAT20160829105511708/29/16 10:55:31  5-MIN KAAT 291855Z AUTO 17005KT 10SM CLR 27/M08 A3019 4130 09 6500 160/05 RMK AO2 SLP186 T02721083
94299KAAT AAT20160829110011008/29/16 11:00:31  5-MIN KAAT 291900Z AUTO 00000KT 10SM CLR 27/M08 A3019 4130 09 6500 000/00 RMK AO2 T02721083
94299KAAT AAT20160829110511008/29/16 11:05:31  5-MIN KAAT 291905Z AUTO 25006KT 10SM CLR 27/M07 A3019 4130 10 6500 230/06 RMK AO2 T02721072
94299KAAT AAT20160829111011008/29/16 11:10:31  5-MIN KAAT 291910Z AUTO 30007KT 10SM CLR 27/M07 A3019 4130 10 6500 280/07 RMK AO2 T02721072
94299KAAT AAT20160829111511008/29/16 11:15:31  5-MIN KAAT 291915Z AUTO 29008KT 10SM CLR 27/M07 A3019 4130 10 6400 280/08 RMK AO2 T02671067
94299KAAT AAT20160829112011008/29/16 11:20:31  5-MIN KAAT 291920Z AUTO 29008KT 10SM CLR 27/M07 A3019 4130 10 6400 280/08 RMK AO2 T02671067
94299KAAT AAT20160829112511008/29/16 11:25:31  5-MIN KAAT 291925Z AUTO 28008KT 10SM CLR 27/M08 A3019 4130 09 6400 260/08 RMK AO2 T02671078
94299KAAT AAT20160829113011008/29/16 11:30:31  5-MIN KAAT 291930Z AUTO 29007KT 10SM CLR 27/M08 A3019 4130 09 6400 270/07 RMK AO2 T02671078
94299KAAT AAT20160829113511008/29/16 11:35:31  5-MIN KAAT 291935Z AUTO 29007KT 10SM CLR 26/M08 A3019 4140 10 6400 270/07 RMK AO2 T02611078
94299KAAT AAT20160829114011008/29/16 11:40:31  5-MIN KAAT 291940Z AUTO 29007KT 10SM CLR 27/M08 A3018 4140 09 6400 280/07 RMK AO2 T02671078
94299KAAT AAT20160829114511008/29/16 11:45:31  5-MIN KAAT 291945Z AUTO 30007KT 10SM CLR 26/M08 A3018 4140 09 6400 290/07 RMK AO2 T02611083
94299KAAT AAT20160829115012008/29/16 11:50:31  5-MIN KAAT 291950Z AUTO 33006KT 10SM FEW110 26/M08 A3017 4150 09 6400 310/06 RMK AO2 SLP180 T02611083
94299KAAT AAT20160829115512008/29/16 11:55:31  5-MIN KAAT 291955Z AUTO 28005KT 10SM FEW110 26/M08 A3018 4140 09 6400 260/05 RMK AO2 SLP183 T02611083
94299KAAT AAT20160829120011308/29/16 12:00:31  5-MIN KAAT 292000Z AUTO 29007KT 10SM FEW110 26/M08 A3018 4140 09 6400 270/07 RMK AO2 T02611083
94299KAAT AAT20160829120511308/29/16 12:05:31  5-MIN KAAT 292005Z AUTO 31004KT 10SM FEW110 27/M09 A3017 4150 09 6400 290/04 RMK AO2 T02671089
94299KAAT AAT20160829121011308/29/16 12:10:31  5-MIN KAAT 292010Z AUTO 32003KT 10SM FEW110 27/M09 A3017 4150 09 6400 300/03 RMK AO2 T02671089
94299KAAT AAT20160829121511308/29/16 12:15:31  5-MIN KAAT 292015Z AUTO 29007KT 10SM FEW110 27/M09 A3017 4150 08 6500 280/07 RMK AO2 T02721089
94299KAAT AAT20160829122011308/29/16 12:20:31  5-MIN KAAT 292020Z AUTO 28007KT 10SM FEW110 27/M08 A3017 4150 09 6500 270/07 RMK AO2 T02721078
94299KAAT AAT20160829122511008/29/16 12:25:31  5-MIN KAAT 292025Z AUTO 28009KT 10SM CLR 27/M08 A3018 4140 09 6500 260/09 RMK AO2 T02721083
94299KAAT AAT20160829123011008/29/16 12:30:31  5-MIN KAAT 292030Z AUTO 28007KT 10SM CLR 27/M09 A3017 4150 08 6500 270/07 RMK AO2 T02721089
94299KAAT AAT20160829123511008/29/16 12:35:31  5-MIN KAAT 292035Z AUTO 29009KT 10SM CLR 27/M08 A3017 4150 09 6500 270/09 RMK AO2 T02721083
94299KAAT AAT20160829124011008/29/16 12:40:31  5-MIN KAAT 292040Z AUTO 29009KT 10SM CLR 27/M08 A3017 4150 09 6500 270/09 RMK AO2 T02721083
94299KAAT AAT20160829124511008/29/16 12:45:31  5-MIN KAAT 292045Z AUTO 29009KT 10SM CLR 27/M08 A3017 4150 09 6500 270/09 RMK AO2 T02721078
94299KAAT AAT20160829125012308/29/16 12:50:31  5-MIN KAAT 292050Z AUTO 30009KT 10SM CLR 27/M08 A3017 4150 09 6500 280/09 RMK AO2 SLP181 T02721078 58010
94299KAAT AAT20160829125512308/29/16 12:55:31  5-MIN KAAT 292055Z AUTO 31009KT 10SM CLR 27/M08 A3017 4150 09 6500 290/09 RMK AO2 SLP182 T02721083 58010
94299KAAT AAT20160829130011008/29/16 13:00:31  5-MIN KAAT 292100Z AUTO 30009KT 10SM CLR 27/M08 A3017 4150 09 6500 280/09 RMK AO2 T02721083
94299KAAT AAT20160829130511008/29/16 13:05:31  5-MIN KAAT 292105Z AUTO 32007KT 10SM CLR 27/M08 A3017 4160 09 6500 300/07 RMK AO2 T02721083
94299KAAT AAT20160829131011008/29/16 13:10:31  5-MIN KAAT 292110Z AUTO 30006KT 10SM CLR 28/M08 A3016 4160 08 6600 290/06 RMK AO2 T02831083
94299KAAT AAT20160829131511008/29/16 13:15:31  5-MIN KAAT 292115Z AUTO 33007KT 10SM CLR 28/M08 A3016 4160 08 6600 310/07 RMK AO2 T02831083
94299KAAT AAT20160829132011008/29/16 13:20:31  5-MIN KAAT 292120Z AUTO 30006KT 10SM CLR 28/M08 A3016 4160 09 6600 280/06 RMK AO2 T02831078
94299KAAT AAT20160829132511008/29/16 13:25:31  5-MIN KAAT 292125Z AUTO 27008KT 10SM CLR 29/M08 A3016 4160 08 6800 260/08 RMK AO2 T02941078
94299KAAT AAT20160829133011008/29/16 13:30:31  5-MIN KAAT 292130Z AUTO 31008KT 10SM CLR 29/M08 A3015 4160 08 6800 290/08 RMK AO2 T02941078
94299KAAT AAT20160829133511008/29/16 13:35:31  5-MIN KAAT 292135Z AUTO 29008KT 10SM CLR 29/M08 A3016 4160 08 6700 270/08 RMK AO2 T02891083
94299KAAT AAT20160829134011008/29/16 13:40:31  5-MIN KAAT 292140Z AUTO 28008KT 10SM CLR 28/M08 A3015 4170 09 6600 270/08 RMK AO2 T02831078
94299KAAT AAT20160829134511008/29/16 13:45:31  5-MIN KAAT 292145Z AUTO 27007KT 10SM CLR 29/M08 A3015 4170 08 6700 250/07 RMK AO2 T02891078
94299KAAT AAT20160829135011708/29/16 13:50:31  5-MIN KAAT 292150Z AUTO 31010KT 10SM CLR 28/M08 A3014 4180 09 6700 290/10 RMK AO2 SLP171 T02831078
94299KAAT AAT20160829135511708/29/16 13:55:31  5-MIN KAAT 292155Z AUTO 30008KT 10SM CLR 29/M08 A3014 4180 08 6700 280/08 RMK AO2 SLP170 T02891078
94299KAAT AAT20160829140011008/29/16 14:00:31  5-MIN KAAT 292200Z AUTO 30006KT 10SM CLR 28/M08 A3014 4180 09 6700 290/06 RMK AO2 T02831078
94299KAAT AAT20160829140511008/29/16 14:05:31  5-MIN KAAT 292205Z AUTO 32006KT 10SM CLR 28/M07 A3013 4180 09 6700 300/06 RMK AO2 T02831072
94299KAAT AAT20160829141011008/29/16 14:10:31  5-MIN KAAT 292210Z AUTO 33005KT 10SM CLR 28/M07 A3013 4180 09 6700 310/05 RMK AO2 T02831072
94299KAAT AAT20160829141511008/29/16 14:15:31  5-MIN KAAT 292215Z AUTO 33005KT 10SM CLR 28/M08 A3013 4180 09 6700 320/05 RMK AO2 T02831078
94299KAAT AAT20160829142011008/29/16 14:20:31  5-MIN KAAT 292220Z AUTO 35004KT 10SM CLR 28/M08 A3014 4180 09 6700 340/04 RMK AO2 T02831078
94299KAAT AAT20160829142511008/29/16 14:25:31  5-MIN KAAT 292225Z AUTO 36005KT 10SM CLR 28/M08 A3013 4180 09 6700 340/05 RMK AO2 T02831078
94299KAAT AAT20160829143011008/29/16 14:30:31  5-MIN KAAT 292230Z AUTO 36004KT 10SM CLR 28/M07 A3013 4190 09 6700 350/04 RMK AO2 T02831072
94299KAAT AAT20160829143511008/29/16 14:35:31  5-MIN KAAT 292235Z AUTO 34003KT 10SM CLR 29/M08 A3013 4190 08 6700 330/03 RMK AO2 T02891078
94299KAAT AAT20160829144011008/29/16 14:40:31  5-MIN KAAT 292240Z AUTO VRB04KT 10SM CLR 29/M07 A3013 4190 08 6800 VRB/04 RMK AO2 T02941072
94299KAAT AAT20160829144511008/29/16 14:45:31  5-MIN KAAT 292245Z AUTO 31004KT 10SM CLR 29/M07 A3013 4190 09 6800 300/04 RMK AO2 T02941067
94299KAAT AAT20160829145013308/29/16 14:50:31  5-MIN KAAT 292250Z AUTO 30007KT 250V320 10SM CLR 29/M07 A3013 4190 09 6800 280/07 240V310 RMK AO2 SLP166 T02941067
94299KAAT AAT20160829145511708/29/16 14:55:31  5-MIN KAAT 292255Z AUTO 28004KT 10SM CLR 29/M07 A3013 4190 08 6800 270/04 RMK AO2 SLP167 T02941072
94299KAAT AAT20160829150011008/29/16 15:00:31  5-MIN KAAT 292300Z AUTO 25006KT 10SM CLR 29/M07 A3013 4190 08 6800 230/06 RMK AO2 T02941072
94299KAAT AAT20160829150511008/29/16 15:05:31  5-MIN KAAT 292305Z AUTO 28009KT 10SM CLR 29/M07 A3013 4190 09 6700 260/09 RMK AO2 T02891072
94299KAAT AAT20160829151011008/29/16 15:10:31  5-MIN KAAT 292310Z AUTO 28009KT 10SM CLR 29/M07 A3013 4190 09 6700 260/09 RMK AO2 T02891072
94299KAAT AAT20160829151511008/29/16 15:15:31  5-MIN KAAT 292315Z AUTO 27011KT 10SM CLR 29/M07 A3013 4190 09 6700 250/11 RMK AO2 T02891067
94299KAAT AAT20160829152011008/29/16 15:20:31  5-MIN KAAT 292320Z AUTO 27010KT 10SM CLR 29/M07 A3012 4190 09 6700 260/10 RMK AO2 T02891067
94299KAAT AAT20160829152511008/29/16 15:25:31  5-MIN KAAT 292325Z AUTO 27011KT 10SM CLR 29/M07 A3012 4190 09 6700 250/11 RMK AO2 T02891067
94299KAAT AAT20160829153011008/29/16 15:30:31  5-MIN KAAT 292330Z AUTO 28011KT 10SM CLR 29/M06 A3012 4190 09 6800 260/11 RMK AO2 T02941061
94299KAAT AAT20160829153511008/29/16 15:35:31  5-MIN KAAT 292335Z AUTO 28013KT 10SM CLR 29/M06 A3013 4190 09 6700 270/13 RMK AO2 T02891061
94299KAAT AAT20160829154011008/29/16 15:40:31  5-MIN KAAT 292340Z AUTO 28009KT 10SM CLR 30/M06 A3012 4190 09 6900 260/09 RMK AO2 T03001056
94299KAAT AAT20160829154511008/29/16 15:45:31  5-MIN KAAT 292345Z AUTO 27011KT 10SM CLR 30/M06 A3012 4190 09 6900 260/11 RMK AO2 T03001056
94299KAAT AAT20160829155013508/29/16 15:50:31  5-MIN KAAT 292350Z AUTO 28012KT 10SM CLR 28/M06 A3012 4190 10 6700 270/12 RMK AO2 SLP167 T02831056 10300 20256 58010
94299KAAT AAT20160829155513508/29/16 15:55:31  5-MIN KAAT 292355Z AUTO 27009KT 10SM CLR 28/M06 A3012 4200 11 6600 260/09 RMK AO2 SLP166 T02781056 10300 20256 56014
94299KAAT AAT20160829160011008/29/16 16:00:31  5-MIN KAAT 300000Z AUTO 28008KT 10SM CLR 28/M06 A3012 4200 10 6600 270/08 RMK AO2 T02781061
94299KAAT AAT20160829160511008/29/16 16:05:31  5-MIN KAAT 300005Z AUTO 28008KT 10SM CLR 28/M05 A3012 4200 11 6600 270/08 RMK AO2 T02781050
94299KAAT AAT20160829161011008/29/16 16:10:31  5-MIN KAAT 300010Z AUTO 28008KT 10SM CLR 28/M05 A3012 4200 11 6600 260/08 RMK AO2 T02781050
94299KAAT AAT20160829161511008/29/16 16:15:31  5-MIN KAAT 300015Z AUTO 28009KT 10SM CLR 28/M05 A3011 4200 11 6600 270/09 RMK AO2 T02781050
94299KAAT AAT20160829162011008/29/16 16:20:31  5-MIN KAAT 300020Z AUTO 28007KT 10SM CLR 28/M05 A3011 4200 11 6600 260/07 RMK AO2 T02781050
94299KAAT AAT20160829162511008/29/16 16:25:31  5-MIN KAAT 300025Z AUTO 28008KT 10SM CLR 28/M04 A3011 4200 11 6600 270/08 RMK AO2 T02781044
94299KAAT AAT20160829163011008/29/16 16:30:31  5-MIN KAAT 300030Z AUTO 29005KT 10SM CLR 28/M04 A3011 4200 11 6600 270/05 RMK AO2 T02781044
94299KAAT AAT20160829163511008/29/16 16:35:31  5-MIN KAAT 300035Z AUTO 29005KT 10SM CLR 28/M04 A3011 4210 11 6600 270/05 RMK AO2 T02781044
94299KAAT AAT20160829164011008/29/16 16:40:31  5-MIN KAAT 300040Z AUTO 28007KT 10SM CLR 28/M04 A3011 4210 12 6600 270/07 RMK AO2 T02781039
94299KAAT AAT20160829164511008/29/16 16:45:31  5-MIN KAAT 300045Z AUTO 28007KT 10SM CLR 27/M04 A3011 4210 12 6600 260/07 RMK AO2 T02721044
94299KAAT AAT20160829165012008/29/16 16:50:31  5-MIN KAAT 300050Z AUTO 28007KT 10SM FEW100 27/M04 A3011 4200 12 6600 260/07 RMK AO2 SLP163 T02721044
94299KAAT AAT20160829165512008/29/16 16:55:31  5-MIN KAAT 300055Z AUTO 27007KT 10SM FEW095 28/M04 A3011 4210 11 6600 260/07 RMK AO2 SLP162 T02781044
94299KAAT AAT20160829170011308/29/16 17:00:31  5-MIN KAAT 300100Z AUTO 28006KT 10SM FEW090 28/M04 A3011 4210 11 6600 270/06 RMK AO2 T02781044
94299KAAT AAT20160829170511008/29/16 17:05:31  5-MIN KAAT 300105Z AUTO 28007KT 10SM CLR 27/M04 A3011 4210 12 6600 260/07 RMK AO2 T02721039
94299KAAT AAT20160829171011008/29/16 17:10:31  5-MIN KAAT 300110Z AUTO 27007KT 10SM CLR 27/M04 A3011 4210 12 6600 250/07 RMK AO2 T02721039
94299KAAT AAT20160829171511008/29/16 17:15:31  5-MIN KAAT 300115Z AUTO 27006KT 10SM CLR 27/M04 A3011 4210 12 6600 250/06 RMK AO2 T02721039
94299KAAT AAT20160829172011008/29/16 17:20:31  5-MIN KAAT 300120Z AUTO 26007KT 10SM CLR 27/M04 A3011 4210 12 6600 250/07 RMK AO2 T02721044
94299KAAT AAT20160829172511008/29/16 17:25:31  5-MIN KAAT 300125Z AUTO 26007KT 10SM CLR 27/M04 A3011 4210 12 6600 240/07 RMK AO2 T02721044
94299KAAT AAT20160829173011008/29/16 17:30:31  5-MIN KAAT 300130Z AUTO 26006KT 10SM CLR 27/M04 A3011 4210 13 6500 250/06 RMK AO2 T02671039
94299KAAT AAT20160829173511008/29/16 17:35:31  5-MIN KAAT 300135Z AUTO 26007KT 10SM CLR 27/M04 A3010 4210 13 6500 250/07 RMK AO2 T02671039
94299KAAT AAT20160829174011008/29/16 17:40:31  5-MIN KAAT 300140Z AUTO 26007KT 10SM CLR 27/M04 A3010 4210 12 6500 250/07 RMK AO2 T02671044
94299KAAT AAT20160829174511008/29/16 17:45:31  5-MIN KAAT 300145Z AUTO 26006KT 10SM CLR 27/M04 A3010 4210 13 6500 250/06 RMK AO2 T02671039
94299KAAT AAT20160829175011708/29/16 17:50:31  5-MIN KAAT 300150Z AUTO 27006KT 10SM CLR 26/M04 A3010 4210 13 6500 260/06 RMK AO2 SLP163 T02611039
94299KAAT AAT20160829175511708/29/16 17:55:31  5-MIN KAAT 300155Z AUTO 27007KT 10SM CLR 26/M04 A3010 4210 13 6500 260/07 RMK AO2 SLP162 T02611039
94299KAAT AAT20160829180011008/29/16 18:00:31  5-MIN KAAT 300200Z AUTO 28006KT 10SM CLR 26/M04 A3010 4210 13 6500 260/06 RMK AO2 T02611039
94299KAAT AAT20160829180511008/29/16 18:05:31  5-MIN KAAT 300205Z AUTO 28005KT 10SM CLR 26/M03 A3010 4210 14 6500 260/05 RMK AO2 T02611033
94299KAAT AAT20160829181011008/29/16 18:10:31  5-MIN KAAT 300210Z AUTO 28005KT 10SM CLR 26/M03 A3010 4210 14 6400 270/05 RMK AO2 T02561033
94299KAAT AAT20160829181511008/29/16 18:15:31  5-MIN KAAT 300215Z AUTO 29005KT 10SM CLR 26/M03 A3010 4210 14 6400 280/05 RMK AO2 T02561033
94299KAAT AAT20160829182011008/29/16 18:20:31  5-MIN KAAT 300220Z AUTO 30005KT 10SM CLR 25/M03 A3010 4210 15 6300 280/05 RMK AO2 T02501033
94299KAAT AAT20160829182511008/29/16 18:25:31  5-MIN KAAT 300225Z AUTO 29006KT 10SM CLR 24/M03 A3010 4210 16 6300 280/06 RMK AO2 T02441028
94299KAAT AAT20160829183011008/29/16 18:30:31  5-MIN KAAT 300230Z AUTO 27006KT 10SM CLR 24/M02 A3011 4210 17 6300 260/06 RMK AO2 T02441022
94299KAAT AAT20160829183511008/29/16 18:35:31  5-MIN KAAT 300235Z AUTO 26010KT 10SM CLR 24/M02 A3011 4200 17 6300 250/10 RMK AO2 T02441022
94299KAAT AAT20160829184011008/29/16 18:40:31  5-MIN KAAT 300240Z AUTO 28009KT 10SM CLR 24/M02 A3011 4200 17 6300 260/09 RMK AO2 T02441017
94299KAAT AAT20160829184511008/29/16 18:45:31  5-MIN KAAT 300245Z AUTO 28007KT 10SM CLR 24/M01 A3011 4200 19 6200 260/07 RMK AO2 T02391006
94299KAAT AAT20160829185012308/29/16 18:50:31  5-MIN KAAT 300250Z AUTO 28006KT 10SM CLR 24/M01 A3011 4200 19 6200 260/06 RMK AO2 SLP165 T02391006 56014
94299KAAT AAT20160829185512308/29/16 18:55:31  5-MIN KAAT 300255Z AUTO 28005KT 10SM CLR 23/M01 A3011 4200 20 6100 270/05 RMK AO2 SLP166 T02331006 55002
94299KAAT AAT20160829190011008/29/16 19:00:31  5-MIN KAAT 300300Z AUTO 28005KT 10SM CLR 23/M01 A3012 4200 21 6100 270/05 RMK AO2 T02281006
94299KAAT AAT20160829190510908/29/16 19:05:31  5-MIN KAAT 300305Z AUTO 28004KT 10SM CLR 23/00 A3012 4200 22 6100 270/04 RMK AO2 T02280000
94299KAAT AAT20160829191010908/29/16 19:10:31  5-MIN KAAT 300310Z AUTO 27004KT 10SM CLR 22/00 A3012 4200 22 6000 260/04 RMK AO2 T02220000
94299KAAT AAT20160829191510908/29/16 19:15:31  5-MIN KAAT 300315Z AUTO 27005KT 10SM CLR 22/00 A3012 4200 22 6000 260/05 RMK AO2 T02220000
94299KAAT AAT20160829192011008/29/16 19:20:31  5-MIN KAAT 300320Z AUTO 27004KT 10SM CLR 22/M01 A3012 4200 22 6000 250/04 RMK AO2 T02171006
94299KAAT AAT20160829192511008/29/16 19:25:31  5-MIN KAAT 300325Z AUTO 27004KT 10SM CLR 22/M01 A3012 4200 22 6000 260/04 RMK AO2 T02171006
94299KAAT AAT20160829193011008/29/16 19:30:31  5-MIN KAAT 300330Z AUTO 00000KT 10SM CLR 21/M01 A3012 4200 23 5900 000/00 RMK AO2 T02111006
94299KAAT AAT20160829193511008/29/16 19:35:31  5-MIN KAAT 300335Z AUTO 00000KT 10SM CLR 22/M01 A3012 4200 22 6000 000/00 RMK AO2 T02171006
94299KAAT AAT20160829194011008/29/16 19:40:31  5-MIN KAAT 300340Z AUTO 00000KT 10SM CLR 22/M01 A3012 4190 22 5900 000/00 RMK AO2 T02171006
94299KAAT AAT20160829194511008/29/16 19:45:31  5-MIN KAAT 300345Z AUTO 00000KT 10SM CLR 21/M01 A3013 4190 23 5900 000/00 RMK AO2 T02111006
94299KAAT AAT20160829195011708/29/16 19:50:31  5-MIN KAAT 300350Z AUTO 00000KT 10SM CLR 21/M01 A3013 4190 24 5800 000/00 RMK AO2 SLP168 T02061006
94299KAAT AAT20160829195511608/29/16 19:55:31  5-MIN KAAT 300355Z AUTO 00000KT 10SM CLR 21/00 A3013 4190 25 5800 000/00 RMK AO2 SLP167 T02060000
94299KAAT AAT20160829200010908/29/16 20:00:31  5-MIN KAAT 300400Z AUTO 00000KT 10SM CLR 21/00 A3013 4190 24 5900 000/00 RMK AO2 T02110000
94299KAAT AAT20160829200511008/29/16 20:05:31  5-MIN KAAT 300405Z AUTO 23003KT 10SM CLR 21/M01 A3013 4190 24 5800 210/03 RMK AO2 T02061006
94299KAAT AAT20160829201011008/29/16 20:10:31  5-MIN KAAT 300410Z AUTO 19003KT 10SM CLR 21/M01 A3013 4190 24 5800 170/03 RMK AO2 T02061006
94299KAAT AAT20160829201510908/29/16 20:15:31  5-MIN KAAT 300415Z AUTO 12003KT 10SM CLR 20/00 A3013 4190 26 5800 110/03 RMK AO2 T02000000
94299KAAT AAT20160829202010908/29/16 20:20:31  5-MIN KAAT 300420Z AUTO 00000KT 10SM CLR 20/01 A3013 4190 28 5800 000/00 RMK AO2 T02000011
94299KAAT AAT20160829202510908/29/16 20:25:31  5-MIN KAAT 300425Z AUTO 18003KT 10SM CLR 20/01 A3013 4180 28 5700 160/03 RMK AO2 T02000011
94299KAAT AAT20160829203010908/29/16 20:30:31  5-MIN KAAT 300430Z AUTO 18003KT 10SM CLR 19/01 A3013 4190 29 5700 170/03 RMK AO2 T01940011
94299KAAT AAT20160829203510908/29/16 20:35:31  5-MIN KAAT 300435Z AUTO 21003KT 10SM CLR 20/01 A3013 4180 28 5800 200/03 RMK AO2 T02000011
94299KAAT AAT20160829204010908/29/16 20:40:31  5-MIN KAAT 300440Z AUTO 00000KT 10SM CLR 19/01 A3014 4180 29 5700 000/00 RMK AO2 T01940011
94299KAAT AAT20160829204510908/29/16 20:45:31  5-MIN KAAT 300445Z AUTO VRB03KT 10SM CLR 19/01 A3013 4180 29 5700 VRB/03 RMK AO2 T01940011
94299KAAT AAT20160829205011608/29/16 20:50:31  5-MIN KAAT 300450Z AUTO 05003KT 10SM CLR 19/02 A3014 4180 31 5600 030/03 RMK AO2 SLP165 T01890017
94299KAAT AAT20160829205511608/29/16 20:55:31  5-MIN KAAT 300455Z AUTO 03003KT 10SM CLR 19/03 A3014 4180 34 5600 010/03 RMK AO2 SLP165 T01890028
94299KAAT AAT20160829210010908/29/16 21:00:31  5-MIN KAAT 300500Z AUTO 00000KT 10SM CLR 18/03 A3013 4180 35 5600 000/00 RMK AO2 T01830028
94299KAAT AAT20160829210510908/29/16 21:05:31  5-MIN KAAT 300505Z AUTO 00000KT 10SM CLR 18/03 A3013 4180 35 5600 000/00 RMK AO2 T01830028
94299KAAT AAT20160829211010908/29/16 21:10:31  5-MIN KAAT 300510Z AUTO 00000KT 10SM CLR 18/03 A3014 4180 35 5600 000/00 RMK AO2 T01830028
94299KAAT AAT20160829211510908/29/16 21:15:31  5-MIN KAAT 300515Z AUTO 00000KT 10SM CLR 18/03 A3014 4170 36 5500 000/00 RMK AO2 T01780028
94299KAAT AAT20160829212010908/29/16 21:20:31  5-MIN KAAT 300520Z AUTO 00000KT 10SM CLR 18/03 A3015 4170 36 5500 000/00 RMK AO2 T01780028
94299KAAT AAT20160829212510908/29/16 21:25:31  5-MIN KAAT 300525Z AUTO 00000KT 10SM CLR 18/02 A3014 4180 34 5600 000/00 RMK AO2 T01830022
94299KAAT AAT20160829213010908/29/16 21:30:31  5-MIN KAAT 300530Z AUTO 00000KT 10SM CLR 18/01 A3015 4170 32 5500 000/00 RMK AO2 T01780011
94299KAAT AAT20160829213510908/29/16 21:35:31  5-MIN KAAT 300535Z AUTO 00000KT 10SM CLR 18/01 A3014 4170 32 5500 000/00 RMK AO2 T01780011
94299KAAT AAT20160829214010908/29/16 21:40:31  5-MIN KAAT 300540Z AUTO 00000KT 10SM CLR 19/01 A3015 4170 29 5600 000/00 RMK AO2 T01890006
94299KAAT AAT20160829214510908/29/16 21:45:31  5-MIN KAAT 300545Z AUTO 00000KT 10SM CLR 19/01 A3015 4170 28 5700 000/00 RMK AO2 T01940006
94299KAAT AAT20160829215013408/29/16 21:50:31  5-MIN KAAT 300550Z AUTO 00000KT 10SM CLR 19/01 A3015 4170 29 5600 000/00 RMK AO2 SLP164 T01890006 10278 20172 55002
94299KAAT AAT20160829215513408/29/16 21:55:31  5-MIN KAAT 300555Z AUTO 00000KT 10SM CLR 19/01 A3015 4170 29 5600 000/00 RMK AO2 SLP162 T01890006 10278 20172 51010
94299KAAT AAT20160829220010908/29/16 22:00:31  5-MIN KAAT 300600Z AUTO 00000KT 10SM CLR 17/02 A3015 4170 36 5400 000/00 RMK AO2 T01720022
94299KAAT AAT20160829220510908/29/16 22:05:31  5-MIN KAAT 300605Z AUTO 10004KT 10SM CLR 17/03 A3015 4170 37 5400 090/04 RMK AO2 T01720028
94299KAAT AAT20160829221010908/29/16 22:10:31  5-MIN KAAT 300610Z AUTO 07004KT 10SM CLR 17/03 A3015 4170 40 5400 060/04 RMK AO2 T01670033
94299KAAT AAT20160829221510908/29/16 22:15:31  5-MIN KAAT 300615Z AUTO 09004KT 10SM CLR 17/03 A3015 4170 40 5400 070/04 RMK AO2 T01670033
94299KAAT AAT20160829222010908/29/16 22:20:31  5-MIN KAAT 300620Z AUTO 09005KT 10SM CLR 16/03 A3014 4170 42 5300 080/05 RMK AO2 T01610033
94299KAAT AAT20160829222510908/29/16 22:25:31  5-MIN KAAT 300625Z AUTO 08006KT 10SM CLR 16/03 A3014 4180 42 5300 060/06 RMK AO2 T01610033
94299KAAT AAT20160829223010908/29/16 22:30:31  5-MIN KAAT 300630Z AUTO 08007KT 10SM CLR 17/03 A3014 4180 39 5400 060/07 RMK AO2 T01670028
94299KAAT AAT20160829223510908/29/16 22:35:31  5-MIN KAAT 300635Z AUTO 08006KT 10SM CLR 17/01 A3014 4180 34 5400 060/06 RMK AO2 T01670011
94299KAAT AAT20160829224010908/29/16 22:40:31  5-MIN KAAT 300640Z AUTO 08005KT 10SM CLR 17/01 A3014 4180 33 5400 060/05 RMK AO2 T01670006
94299KAAT AAT20160829224510908/29/16 22:45:31  5-MIN KAAT 300645Z AUTO 08005KT 10SM CLR 17/01 A3014 4180 33 5400 060/05 RMK AO2 T01670006
94299KAAT AAT20160829225011608/29/16 22:50:31  5-MIN KAAT 300650Z AUTO 08005KT 10SM CLR 17/01 A3014 4180 34 5400 060/05 RMK AO2 SLP159 T01670011
94299KAAT AAT20160829225511608/29/16 22:55:31  5-MIN KAAT 300655Z AUTO 08005KT 10SM CLR 16/01 A3014 4180 34 5300 070/05 RMK AO2 SLP161 T01610006
94299KAAT AAT20160829230010908/29/16 23:00:31  5-MIN KAAT 300700Z AUTO 09005KT 10SM CLR 17/00 A3014 4180 32 5400 070/05 RMK AO2 T01670000
94299KAAT AAT20160829230510908/29/16 23:05:31  5-MIN KAAT 300705Z AUTO 00000KT 10SM CLR 17/00 A3014 4180 32 5400 000/00 RMK AO2 T01670000
94299KAAT AAT20160829231010908/29/16 23:10:31  5-MIN KAAT 300710Z AUTO VRB03KT 10SM CLR 14/01 A3014 4180 40 5100 VRB/03 RMK AO2 T01440011
94299KAAT AAT20160829231510908/29/16 23:15:31  5-MIN KAAT 300715Z AUTO 00000KT 10SM CLR 13/03 A3014 4180 50 4900 000/00 RMK AO2 T01280028
94299KAAT AAT20160829232010908/29/16 23:20:31  5-MIN KAAT 300720Z AUTO 00000KT 10SM CLR 12/03 A3014 4180 52 4900 000/00 RMK AO2 T01220028
94299KAAT AAT20160829232510908/29/16 23:25:31  5-MIN KAAT 300725Z AUTO 00000KT 10SM CLR 13/03 A3013 4180 50 5000 000/00 RMK AO2 T01330033
94299KAAT AAT20160829233010908/29/16 23:30:31  5-MIN KAAT 300730Z AUTO 00000KT 10SM CLR 13/03 A3013 4180 50 4900 000/00 RMK AO2 T01280028
94299KAAT AAT20160829233510908/29/16 23:35:31  5-MIN KAAT 300735Z AUTO 00000KT 10SM CLR 13/03 A3013 4190 48 5000 000/00 RMK AO2 T01330028
94299KAAT AAT20160829234010908/29/16 23:40:31  5-MIN KAAT 300740Z AUTO 00000KT 10SM CLR 13/03 A3013 4190 48 5000 000/00 RMK AO2 T01330028
94299KAAT AAT20160830203511008/30/16 20:35:31  5-MIN KAAT 310435Z AUTO 00000KT 10SM CLR 18/M02 A3006 4260 25 5600 000/00 RMK AO2 T01781022
94299KAAT AAT20160830204011008/30/16 20:40:31  5-MIN KAAT 310440Z AUTO 00000KT 10SM CLR 18/M02 A3005 4260 25 5600 000/00 RMK AO2 T01781022
94299KAAT AAT20160830204511008/30/16 20:45:31  5-MIN KAAT 310445Z AUTO 28003KT 10SM CLR 16/M02 A3005 4260 28 5400 270/03 RMK AO2 T01611022
94299KAAT AAT20160830205011708/30/16 20:50:31  5-MIN KAAT 310450Z AUTO 29004KT 10SM CLR 14/M02 A3005 4260 34 5200 270/04 RMK AO2 SLP140 T01391017
94299KAAT AAT20160830205511708/30/16 20:55:31  5-MIN KAAT 310455Z AUTO 29004KT 10SM CLR 14/M02 A3005 4260 32 5200 280/04 RMK AO2 SLP139 T01391022
94299KAAT AAT20160830210011008/30/16 21:00:31  5-MIN KAAT 310500Z AUTO 30005KT 10SM CLR 13/M02 A3005 4260 34 5100 290/05 RMK AO2 T01331022
94299KAAT AAT20160830210511008/30/16 21:05:31  5-MIN KAAT 310505Z AUTO 30005KT 10SM CLR 13/M02 A3005 4260 35 5100 280/05 RMK AO2 T01331017
94299KAAT AAT20160830211011008/30/16 21:10:31  5-MIN KAAT 310510Z AUTO 31004KT 10SM CLR 14/M02 A3005 4260 34 5200 290/04 RMK AO2 T01391017
94299KAAT AAT20160830211511008/30/16 21:15:31  5-MIN KAAT 310515Z AUTO 00000KT 10SM CLR 14/M01 A3005 4260 34 5200 000/00 RMK AO2 T01441011
94299KAAT AAT20160830212011008/30/16 21:20:31  5-MIN KAAT 310520Z AUTO 07003KT 10SM CLR 16/M02 A3005 4260 30 5300 060/03 RMK AO2 T01561017
94299KAAT AAT20160830212511008/30/16 21:25:31  5-MIN KAAT 310525Z AUTO 07003KT 10SM CLR 16/M01 A3005 4260 31 5300 050/03 RMK AO2 T01561011
94299KAAT AAT20160830213011008/30/16 21:30:31  5-MIN KAAT 310530Z AUTO 10006KT 10SM CLR 15/M01 A3005 4260 33 5300 090/06 RMK AO2 T01501011
94299KAAT AAT20160830213511008/30/16 21:35:31  5-MIN KAAT 310535Z AUTO 11006KT 10SM CLR 16/M01 A3006 4260 31 5300 090/06 RMK AO2 T01561011
94299KAAT AAT20160830214011008/30/16 21:40:31  5-MIN KAAT 310540Z AUTO 08006KT 10SM CLR 16/M01 A3006 4250 33 5300 070/06 RMK AO2 T01561006
94299KAAT AAT20160830214511008/30/16 21:45:31  5-MIN KAAT 310545Z AUTO 08006KT 10SM CLR 16/M01 A3006 4250 33 5300 070/06 RMK AO2 T01561006
94299KAAT AAT20160830215013408/30/16 21:50:31  5-MIN KAAT 310550Z AUTO 07005KT 10SM CLR 15/00 A3006 4250 35 5300 060/05 RMK AO2 SLP142 T01500000 10289 20133 53001
94299KAAT AAT20160830215513408/30/16 21:55:31  5-MIN KAAT 310555Z AUTO 08005KT 10SM CLR 14/01 A3006 4250 38 5200 060/05 RMK AO2 SLP141 T01440006 10289 20133 51010
94299KAAT AAT20160830220010908/30/16 22:00:31  5-MIN KAAT 310600Z AUTO 09005KT 10SM CLR 14/01 A3006 4250 38 5200 070/05 RMK AO2 T01440006
94299KAAT AAT20160830220510908/30/16 22:05:31  5-MIN KAAT 310605Z AUTO 08004KT 10SM CLR 14/01 A3006 4250 38 5200 070/04 RMK AO2 T01440006
94299KAAT AAT20160830221010908/30/16 22:10:31  5-MIN KAAT 310610Z AUTO VRB03KT 10SM CLR 14/00 A3006 4250 38 5100 VRB/03 RMK AO2 T01390000
94299KAAT AAT20160830221510908/30/16 22:15:31  5-MIN KAAT 310615Z AUTO 34003KT 10SM CLR 12/00 A3006 4260 43 5000 330/03 RMK AO2 T01220000
94299KAAT AAT20160830222010908/30/16 22:20:31  5-MIN KAAT 310620Z AUTO 34003KT 10SM CLR 13/00 A3006 4260 41 5000 320/03 RMK AO2 T01280000
94299KAAT AAT20160830222511008/30/16 22:25:31  5-MIN KAAT 310625Z AUTO 00000KT 10SM CLR 11/M01 A3006 4260 44 4800 000/00 RMK AO2 T01111006
94299KAAT AAT20160830223011008/30/16 22:30:31  5-MIN KAAT 310630Z AUTO 00000KT 10SM CLR 11/M01 A3005 4260 44 4800 000/00 RMK AO2 T01061011
94299KAAT AAT20160830223510908/30/16 22:35:31  5-MIN KAAT 310635Z AUTO 24003KT 10SM CLR 11/00 A3005 4260 48 4800 230/03 RMK AO2 T01060000
94299KAAT AAT20160830224010908/30/16 22:40:31  5-MIN KAAT 310640Z AUTO 21003KT 10SM CLR 12/01 A3005 4260 46 4900 200/03 RMK AO2 T01170006
94299KAAT AAT20160830224510908/30/16 22:45:31  5-MIN KAAT 310645Z AUTO 12004KT 10SM CLR 12/00 A3005 4260 44 4900 110/04 RMK AO2 T01170000
94299KAAT AAT20160830225011608/30/16 22:50:31  5-MIN KAAT 310650Z AUTO 12006KT 10SM CLR 12/00 A3005 4260 43 5000 110/06 RMK AO2 SLP137 T01220000
94299KAAT AAT20160830225511608/30/16 22:55:31  5-MIN KAAT 310655Z AUTO 12006KT 10SM CLR 12/00 A3005 4260 43 5000 100/06 RMK AO2 SLP138 T01220000
94299KAAT AAT20160830230010908/30/16 23:00:31  5-MIN KAAT 310700Z AUTO 09005KT 10SM CLR 12/00 A3005 4260 43 5000 080/05 RMK AO2 T01220000
94299KAAT AAT20160830230511008/30/16 23:05:31  5-MIN KAAT 310705Z AUTO 08004KT 10SM CLR 13/M01 A3005 4260 39 5000 070/04 RMK AO2 T01281006
94299KAAT AAT20160830231011008/30/16 23:10:31  5-MIN KAAT 310710Z AUTO 00000KT 10SM CLR 13/M01 A3005 4260 38 5000 000/00 RMK AO2 T01281011
94299KAAT AAT20160830231511008/30/16 23:15:31  5-MIN KAAT 310715Z AUTO 10003KT 10SM CLR 13/M01 A3005 4260 36 5100 090/03 RMK AO2 T01331011
94299KAAT AAT20160830232011008/30/16 23:20:31  5-MIN KAAT 310720Z AUTO 09003KT 10SM CLR 13/M01 A3005 4260 38 5000 070/03 RMK AO2 T01281011
94299KAAT AAT20160830232511008/30/16 23:25:31  5-MIN KAAT 310725Z AUTO VRB03KT 10SM CLR 13/M01 A3006 4260 38 5000 VRB/03 RMK AO2 T01281011
94299KAAT AAT20160830233011008/30/16 23:30:31  5-MIN KAAT 310730Z AUTO 00000KT 10SM CLR 12/M01 A3005 4260 41 4900 000/00 RMK AO2 T01171011
94299KAAT AAT20160830233511008/30/16 23:35:31  5-MIN KAAT 310735Z AUTO 00000KT 10SM CLR 12/M01 A3005 4260 41 4900 000/00 RMK AO2 T01171011
94299KAAT AAT20160830234011008/30/16 23:40:31  5-MIN KAAT 310740Z AUTO 00000KT 10SM CLR 12/M01 A3005 4260 42 4900 000/00 RMK AO2 T01171006
94299KAAT AAT20160830234511008/30/16 23:45:31  5-MIN KAAT 310745Z AUTO 00000KT 10SM CLR 12/M01 A3005 4260 42 4900 000/00 RMK AO2 T01171006
94299KAAT AAT20160830235012708/30/16 23:50:31  5-MIN KAAT 310750Z AUTO 07003KT 10SM CLR 12/M01 A3006 4260 41 4900 060/03 RMK AO2 SLP138 T01171011 403060083
94299KAAT AAT20160830235512708/30/16 23:55:31  5-MIN KAAT 310755Z AUTO 05003KT 10SM CLR 12/M01 A3006 4260 39 5000 040/03 RMK AO2 SLP136 T01221011 403060083
94299KAAT AAT20160831000011008/31/16 00:00:31  5-MIN KAAT 310800Z AUTO 08004KT 10SM CLR 12/M01 A3005 4260 39 5000 060/04 RMK AO2 T01221011
94299KAAT AAT20160831000511008/31/16 00:05:31  5-MIN KAAT 310805Z AUTO 00000KT 10SM CLR 13/M02 A3005 4260 36 5000 000/00 RMK AO2 T01281017
94299KAAT AAT20160831001011008/31/16 00:10:31  5-MIN KAAT 310810Z AUTO 00000KT 10SM CLR 12/M02 A3005 4260 39 4900 000/00 RMK AO2 T01171017
94299KAAT AAT20160831001511008/31/16 00:15:31  5-MIN KAAT 310815Z AUTO 00000KT 10SM CLR 11/M02 A3005 4260 42 4800 000/00 RMK AO2 T01061017
94299KAAT AAT20160831002011008/31/16 00:20:31  5-MIN KAAT 310820Z AUTO 00000KT 10SM CLR 11/M02 A3005 4260 42 4800 000/00 RMK AO2 T01061017
94299KAAT AAT20160831002511008/31/16 00:25:31  5-MIN KAAT 310825Z AUTO 00000KT 10SM CLR 11/M02 A3005 4260 42 4800 000/00 RMK AO2 T01061017
94299KAAT AAT20160831003011008/31/16 00:30:31  5-MIN KAAT 310830Z AUTO 00000KT 10SM CLR 11/M02 A3005 4260 41 4800 000/00 RMK AO2 T01111017
94299KAAT AAT20160831003511008/31/16 00:35:31  5-MIN KAAT 310835Z AUTO 00000KT 10SM CLR 10/M02 A3005 4260 44 4700 000/00 RMK AO2 T01001017
94299KAAT AAT20160831004011008/31/16 00:40:31  5-MIN KAAT 310840Z AUTO 00000KT 10SM CLR 11/M01 A3005 4260 44 4800 000/00 RMK AO2 T01061011
94299KAAT AAT20160831004511008/31/16 00:45:31  5-MIN KAAT 310845Z AUTO 00000KT 10SM CLR 12/M01 A3005 4260 41 4900 000/00 RMK AO2 T01171011
94299KAAT AAT20160831005012308/31/16 00:50:31  5-MIN KAAT 310850Z AUTO 20003KT 10SM CLR 11/M01 A3005 4270 42 4800 180/03 RMK AO2 SLP133 T01111011 51010
94299KAAT AAT20160831005512308/31/16 00:55:31  5-MIN KAAT 310855Z AUTO 00000KT 10SM CLR 10/M02 A3004 4270 44 4700 000/00 RMK AO2 SLP131 T01001017 58005
94299KAAT AAT20160831010011008/31/16 01:00:31  5-MIN KAAT 310900Z AUTO 00000KT 10SM CLR 11/M01 A3005 4270 44 4800 000/00 RMK AO2 T01061011
94299KAAT AAT20160831010511008/31/16 01:05:31  5-MIN KAAT 310905Z AUTO 00000KT 10SM CLR 10/M01 A3004 4270 46 4700 000/00 RMK AO2 T01001011
94299KAAT AAT20160831011011008/31/16 01:10:31  5-MIN KAAT 310910Z AUTO 00000KT 10SM CLR 11/M01 A3004 4270 44 4800 000/00 RMK AO2 T01061011
94299KAAT AAT20160831011511008/31/16 01:15:31  5-MIN KAAT 310915Z AUTO 00000KT 10SM CLR 11/M01 A3004 4270 44 4800 000/00 RMK AO2 T01061011
94299KAAT AAT20160831012011008/31/16 01:20:31  5-MIN KAAT 310920Z AUTO 00000KT 10SM CLR 11/M01 A3005 4260 44 4800 000/00 RMK AO2 T01061011
94299KAAT AAT20160831012511008/31/16 01:25:31  5-MIN KAAT 310925Z AUTO 00000KT 10SM CLR 11/M01 A3005 4270 42 4800 000/00 RMK AO2 T01111011
94299KAAT AAT20160831013011008/31/16 01:30:31  5-MIN KAAT 310930Z AUTO 00000KT 10SM CLR 11/M01 A3004 4270 42 4800 000/00 RMK AO2 T01111011
94299KAAT AAT20160831013511008/31/16 01:35:31  5-MIN KAAT 310935Z AUTO 00000KT 10SM CLR 11/M01 A3005 4260 42 4800 000/00 RMK AO2 T01111011
94299KAAT AAT20160831014011008/31/16 01:40:31  5-MIN KAAT 310940Z AUTO 00000KT 10SM CLR 10/M01 A3005 4260 47 4700 000/00 RMK AO2 T01001006
94299KAAT AAT20160831014511008/31/16 01:45:31  5-MIN KAAT 310945Z AUTO 00000KT 10SM CLR 10/M01 A3006 4260 47 4700 000/00 RMK AO2 T01001006
94299KAAT AAT20160831015011708/31/16 01:50:31  5-MIN KAAT 310950Z AUTO 00000KT 10SM CLR 10/M02 A3005 4260 44 4700 000/00 RMK AO2 SLP136 T01001017
94299KAAT AAT20160831015511708/31/16 01:55:31  5-MIN KAAT 310955Z AUTO 00000KT 10SM CLR 09/M01 A3006 4250 47 4600 000/00 RMK AO2 SLP138 T00941011
94299KAAT AAT20160831020011008/31/16 02:00:31  5-MIN KAAT 311000Z AUTO 00000KT 10SM CLR 10/M02 A3006 4250 44 4700 000/00 RMK AO2 T01001017
94299KAAT AAT20160831020511008/31/16 02:05:31  5-MIN KAAT 311005Z AUTO 00000KT 10SM CLR 09/M01 A3006 4250 47 4600 000/00 RMK AO2 T00941011
94299KAAT AAT20160831021011008/31/16 02:10:31  5-MIN KAAT 311010Z AUTO 00000KT 10SM CLR 10/M01 A3005 4260 46 4700 000/00 RMK AO2 T01001011
94299KAAT AAT20160831021511008/31/16 02:15:31  5-MIN KAAT 311015Z AUTO 05003KT 10SM CLR 10/M01 A3005 4260 46 4700 040/03 RMK AO2 T01001011
94299KAAT AAT20160831022011008/31/16 02:20:31  5-MIN KAAT 311020Z AUTO 32003KT 10SM CLR 09/M01 A3006 4260 49 4600 310/03 RMK AO2 T00941006
94299KAAT AAT20160831022511008/31/16 02:25:31  5-MIN KAAT 311025Z AUTO 00000KT 10SM CLR 09/M01 A3006 4250 47 4600 000/00 RMK AO2 T00941011
94299KAAT AAT20160831023011008/31/16 02:30:31  5-MIN KAAT 311030Z AUTO 00000KT 10SM CLR 08/M02 A3006 4250 49 4500 000/00 RMK AO2 T00831017
94299KAAT AAT20160831023511008/31/16 02:35:31  5-MIN KAAT 311035Z AUTO 00000KT 10SM CLR 08/M02 A3006 4250 49 4500 000/00 RMK AO2 T00831017
94299KAAT AAT20160831024011008/31/16 02:40:31  5-MIN KAAT 311040Z AUTO 00000KT 10SM CLR 09/M02 A3006 4250 47 4600 000/00 RMK AO2 T00891017
94299KAAT AAT20160831024511008/31/16 02:45:31  5-MIN KAAT 311045Z AUTO 00000KT 10SM CLR 09/M01 A3006 4260 49 4600 000/00 RMK AO2 T00891011
94299KAAT AAT20160831025011708/31/16 02:50:31  5-MIN KAAT 311050Z AUTO 00000KT 10SM CLR 09/M01 A3006 4260 47 4600 000/00 RMK AO2 SLP137 T00941011
94299KAAT AAT20160831025511708/31/16 02:55:31  5-MIN KAAT 311055Z AUTO 00000KT 10SM CLR 10/M01 A3006 4260 46 4700 000/00 RMK AO2 SLP137 T01001011
94299KAAT AAT20160831030011008/31/16 03:00:31  5-MIN KAAT 311100Z AUTO 00000KT 10SM CLR 09/M01 A3005 4260 47 4600 000/00 RMK AO2 T00941011
94299KAAT AAT20160831030511008/31/16 03:05:31  5-MIN KAAT 311105Z AUTO 00000KT 10SM CLR 09/M01 A3005 4260 47 4600 000/00 RMK AO2 T00941011
94299KAAT AAT20160831031010908/31/16 03:10:31  5-MIN KAAT 311110Z AUTO 34003KT 10SM CLR 09/00 A3005 4270 51 4600 330/03 RMK AO2 T00940000
94299KAAT AAT20160831031510908/31/16 03:15:31  5-MIN KAAT 311115Z AUTO 00000KT 10SM CLR 09/01 A3004 4270 53 4600 000/00 RMK AO2 T00940006
94299KAAT AAT20160831032010908/31/16 03:20:31  5-MIN KAAT 311120Z AUTO 02003KT 10SM CLR 10/01 A3004 4270 52 4700 010/03 RMK AO2 T01000006
94299KAAT AAT20160831032510908/31/16 03:25:31  5-MIN KAAT 311125Z AUTO 02003KT 10SM CLR 10/00 A3004 4270 49 4700 010/03 RMK AO2 T01000000
94299KAAT AAT20160831033011008/31/16 03:30:31  5-MIN KAAT 311130Z AUTO 00000KT 10SM CLR 09/M01 A3004 4270 49 4700 000/00 RMK AO2 T00941006
94299KAAT AAT20160831033510908/31/16 03:35:31  5-MIN KAAT 311135Z AUTO 00000KT 10SM CLR 09/01 A3004 4270 56 4600 000/00 RMK AO2 T00890006
94299KAAT AAT20160831034010908/31/16 03:40:31  5-MIN KAAT 311140Z AUTO 00000KT 10SM CLR 08/01 A3004 4270 58 4500 000/00 RMK AO2 T00830006
94299KAAT AAT20160831034510908/31/16 03:45:31  5-MIN KAAT 311145Z AUTO 00000KT 10SM CLR 08/01 A3003 4280 58 4500 000/00 RMK AO2 T00830006
94299KAAT AAT20160831035013408/31/16 03:50:31  5-MIN KAAT 311150Z AUTO 00000KT 10SM CLR 08/00 A3004 4270 55 4500 000/00 RMK AO2 SLP134 T00830000 10144 20083 58005
94299KAAT AAT20160831035513508/31/16 03:55:31  5-MIN KAAT 311155Z AUTO 00000KT 10SM CLR 08/M01 A3004 4270 55 4400 000/00 RMK AO2 SLP137 T00781006 10144 20078 50001
94299KAAT AAT20160831040011008/31/16 04:00:31  5-MIN KAAT 311200Z AUTO 00000KT 10SM CLR 07/M01 A3004 4270 57 4400 000/00 RMK AO2 T00721006
94299KAAT AAT20160831040511008/31/16 04:05:31  5-MIN KAAT 311205Z AUTO 09003KT 10SM CLR 08/M01 A3004 4270 55 4500 070/03 RMK AO2 T00781006
94299KAAT AAT20160831041010908/31/16 04:10:31  5-MIN KAAT 311210Z AUTO 00000KT 10SM CLR 08/00 A3004 4270 58 4500 000/00 RMK AO2 T00780000
94299KAAT AAT20160831041511008/31/16 04:15:31  5-MIN KAAT 311215Z AUTO 00000KT 10SM CLR 08/M01 A3004 4270 55 4500 000/00 RMK AO2 T00781006
94299KAAT AAT20160831042011008/31/16 04:20:31  5-MIN KAAT 311220Z AUTO 26004KT 10SM CLR 07/M01 A3004 4270 57 4300 240/04 RMK AO2 T00671011
94299KAAT AAT20160831042511008/31/16 04:25:31  5-MIN KAAT 311225Z AUTO 29004KT 10SM CLR 06/M01 A3003 4280 62 4300 280/04 RMK AO2 T00611006
94299KAAT AAT20160831043010908/31/16 04:30:31  5-MIN KAAT 311230Z AUTO 32003KT 10SM CLR 07/00 A3003 4280 62 4300 310/03 RMK AO2 T00670000
94299KAAT AAT20160831043510908/31/16 04:35:31  5-MIN KAAT 311235Z AUTO 31003KT 10SM CLR 07/00 A3003 4280 62 4300 300/03 RMK AO2 T00670000
94299KAAT AAT20160831044010908/31/16 04:40:31  5-MIN KAAT 311240Z AUTO 00000KT 10SM CLR 07/00 A3003 4280 60 4400 000/00 RMK AO2 T00720000
94299KAAT AAT20160831044510908/31/16 04:45:31  5-MIN KAAT 311245Z AUTO 00000KT 10SM CLR 07/01 A3003 4280 62 4400 000/00 RMK AO2 T00720006
94299KAAT AAT20160831045011608/31/16 04:50:31  5-MIN KAAT 311250Z AUTO 26003KT 10SM CLR 08/01 A3003 4280 60 4500 250/03 RMK AO2 SLP134 T00780006
94299KAAT AAT20160831045511608/31/16 04:55:31  5-MIN KAAT 311255Z AUTO 00000KT 10SM CLR 07/00 A3004 4280 60 4400 000/00 RMK AO2 SLP136 T00720000
94299KAAT AAT20160831050010908/31/16 05:00:31  5-MIN KAAT 311300Z AUTO 00000KT 10SM CLR 07/00 A3004 4270 62 4300 000/00 RMK AO2 T00670000
94299KAAT AAT20160831050510908/31/16 05:05:31  5-MIN KAAT 311305Z AUTO 00000KT 10SM CLR 07/00 A3004 4270 62 4300 000/00 RMK AO2 T00670000
94299KAAT AAT20160831051010908/31/16 05:10:31  5-MIN KAAT 311310Z AUTO 21003KT 10SM CLR 07/00 A3004 4270 60 4400 190/03 RMK AO2 T00720000
94299KAAT AAT20160831051511008/31/16 05:15:31  5-MIN KAAT 311315Z AUTO 17004KT 10SM CLR 07/M01 A3004 4270 57 4300 150/04 RMK AO2 T00671011
94299KAAT AAT20160831052011008/31/16 05:20:31  5-MIN KAAT 311320Z AUTO 13005KT 10SM CLR 07/M02 A3004 4270 55 4300 110/05 RMK AO2 T00671017
94299KAAT AAT20160831052511008/31/16 05:25:31  5-MIN KAAT 311325Z AUTO VRB03KT 10SM CLR 07/M01 A3005 4270 57 4400 VRB/03 RMK AO2 T00721006
94299KAAT AAT20160831053011008/31/16 05:30:31  5-MIN KAAT 311330Z AUTO 00000KT 10SM CLR 07/M01 A3005 4260 57 4400 000/00 RMK AO2 T00721006
94299KAAT AAT20160831053510908/31/16 05:35:31  5-MIN KAAT 311335Z AUTO 03004KT 10SM CLR 07/00 A3005 4270 62 4300 020/04 RMK AO2 T00670000
94299KAAT AAT20160831054010908/31/16 05:40:31  5-MIN KAAT 311340Z AUTO 03004KT 10SM CLR 07/00 A3004 4270 62 4300 020/04 RMK AO2 T00670000
94299KAAT AAT20160831054510908/31/16 05:45:31  5-MIN KAAT 311345Z AUTO 02004KT 10SM CLR 07/00 A3005 4260 62 4300 010/04 RMK AO2 T00670000
94299KAAT AAT20160831055011608/31/16 05:50:31  5-MIN KAAT 311350Z AUTO 35003KT 10SM CLR 07/00 A3005 4260 62 4300 340/03 RMK AO2 SLP145 T00670000
94299KAAT AAT20160831055511608/31/16 05:55:31  5-MIN KAAT 311355Z AUTO 00000KT 10SM CLR 06/00 A3005 4260 65 4200 000/00 RMK AO2 SLP145 T00610000
94299KAAT AAT20160831060010908/31/16 06:00:31  5-MIN KAAT 311400Z AUTO 00000KT 10SM CLR 06/00 A3005 4260 65 4200 000/00 RMK AO2 T00610000
94299KAAT AAT20160831060510908/31/16 06:05:31  5-MIN KAAT 311405Z AUTO 00000KT 10SM CLR 07/00 A3005 4260 62 4300 000/00 RMK AO2 T00670000
94299KAAT AAT20160831061010908/31/16 06:10:31  5-MIN KAAT 311410Z AUTO 00000KT 10SM CLR 07/00 A3006 4260 62 4300 000/00 RMK AO2 T00670000
94299KAAT AAT20160831061510908/31/16 06:15:31  5-MIN KAAT 311415Z AUTO 00000KT 10SM CLR 07/00 A3006 4260 60 4400 000/00 RMK AO2 T00720000
94299KAAT AAT20160831062010908/31/16 06:20:31  5-MIN KAAT 311420Z AUTO 00000KT 10SM CLR 08/00 A3006 4260 58 4400 000/00 RMK AO2 T00780000
94299KAAT AAT20160831062510908/31/16 06:25:31  5-MIN KAAT 311425Z AUTO 00000KT 10SM CLR 08/00 A3006 4260 55 4500 000/00 RMK AO2 T00830000
94299KAAT AAT20160831063010908/31/16 06:30:31  5-MIN KAAT 311430Z AUTO 00000KT 10SM CLR 09/01 A3006 4260 56 4600 000/00 RMK AO2 T00890006
94299KAAT AAT20160831063510908/31/16 06:35:31  5-MIN KAAT 311435Z AUTO 00000KT 10SM CLR 09/00 A3005 4260 51 4600 000/00 RMK AO2 T00940000
94299KAAT AAT20160831064010908/31/16 06:40:31  5-MIN KAAT 311440Z AUTO 00000KT 10SM CLR 09/00 A3005 4260 51 4600 000/00 RMK AO2 T00940000
94299KAAT AAT20160831064510908/31/16 06:45:31  5-MIN KAAT 311445Z AUTO 00000KT 10SM CLR 11/00 A3005 4260 48 4800 000/00 RMK AO2 T01060000
94299KAAT AAT20160831065012208/31/16 06:50:31  5-MIN KAAT 311450Z AUTO 00000KT 10SM CLR 11/00 A3005 4260 46 4800 000/00 RMK AO2 SLP142 T01110000 50001
94299KAAT AAT20160831065512208/31/16 06:55:31  5-MIN KAAT 311455Z AUTO 00000KT 10SM CLR 12/00 A3005 4260 44 4900 000/00 RMK AO2 SLP141 T01170000 53001
94299KAAT AAT20160831070010908/31/16 07:00:31  5-MIN KAAT 311500Z AUTO 00000KT 10SM CLR 12/00 A3005 4260 43 5000 000/00 RMK AO2 T01220000
94299KAAT AAT20160831070510908/31/16 07:05:31  5-MIN KAAT 311505Z AUTO 00000KT 10SM CLR 12/00 A3005 4260 43 5000 000/00 RMK AO2 T01220000
94299KAAT AAT20160831071010908/31/16 07:10:31  5-MIN KAAT 311510Z AUTO 00000KT 10SM CLR 13/00 A3005 4260 41 5000 000/00 RMK AO2 T01280000
94299KAAT AAT20160831071510908/31/16 07:15:31  5-MIN KAAT 311515Z AUTO 00000KT 10SM CLR 13/00 A3005 4260 41 5000 000/00 RMK AO2 T01280000
94299KAAT AAT20160831072011008/31/16 07:20:31  5-MIN KAAT 311520Z AUTO 00000KT 10SM CLR 13/M01 A3005 4260 39 5000 000/00 RMK AO2 T01281006
94299KAAT AAT20160831072510908/31/16 07:25:31  5-MIN KAAT 311525Z AUTO 00000KT 10SM CLR 13/00 A3005 4260 40 5100 000/00 RMK AO2 T01330000
94299KAAT AAT20160831073010908/31/16 07:30:31  5-MIN KAAT 311530Z AUTO 00000KT 10SM CLR 14/00 A3005 4260 38 5200 000/00 RMK AO2 T01390000
94299KAAT AAT20160831073510908/31/16 07:35:31  5-MIN KAAT 311535Z AUTO 00000KT 10SM CLR 14/00 A3005 4270 37 5200 000/00 RMK AO2 T01440000
94299KAAT AAT20160831074010908/31/16 07:40:31  5-MIN KAAT 311540Z AUTO 00000KT 10SM CLR 15/00 A3004 4270 35 5300 000/00 RMK AO2 T01500000
94299KAAT AAT20160831074510908/31/16 07:45:31  5-MIN KAAT 311545Z AUTO 00000KT 10SM CLR 15/00 A3004 4270 35 5300 000/00 RMK AO2 T01500000
94299KAAT AAT20160831075011608/31/16 07:50:31  5-MIN KAAT 311550Z AUTO 00000KT 10SM CLR 16/01 A3004 4270 36 5400 000/00 RMK AO2 SLP139 T01560006
94299KAAT AAT20160831075511608/31/16 07:55:31  5-MIN KAAT 311555Z AUTO 00000KT 10SM CLR 16/01 A3004 4270 34 5400 000/00 RMK AO2 SLP139 T01610006
94299KAAT AAT20160831080010908/31/16 08:00:31  5-MIN KAAT 311600Z AUTO 00000KT 10SM CLR 16/00 A3004 4270 33 5400 000/00 RMK AO2 T01610000
94299KAAT AAT20160831080510908/31/16 08:05:31  5-MIN KAAT 311605Z AUTO 00000KT 10SM CLR 17/00 A3004 4270 32 5500 000/00 RMK AO2 T01670000
94299KAAT AAT20160831081010908/31/16 08:10:31  5-MIN KAAT 311610Z AUTO 00000KT 10SM CLR 17/01 A3004 4270 32 5500 000/00 RMK AO2 T01720006
94299KAAT AAT20160831081510908/31/16 08:15:31  5-MIN KAAT 311615Z AUTO 00000KT 10SM CLR 17/00 A3004 4270 31 5500 000/00 RMK AO2 T01720000
94299KAAT AAT20160831082010908/31/16 08:20:31  5-MIN KAAT 311620Z AUTO VRB03KT 10SM CLR 18/00 A3004 4270 30 5600 VRB/03 RMK AO2 T01780000
94299KAAT AAT20160831082510908/31/16 08:25:31  5-MIN KAAT 311625Z AUTO 00000KT 10SM CLR 18/01 A3004 4270 31 5600 000/00 RMK AO2 T01780006
94299KAAT AAT20160831083010908/31/16 08:30:31  5-MIN KAAT 311630Z AUTO 00000KT 10SM CLR 18/01 A3004 4270 30 5700 000/00 RMK AO2 T01830006
94299KAAT AAT20160831083510908/31/16 08:35:31  5-MIN KAAT 311635Z AUTO 01003KT 10SM CLR 19/00 A3004 4270 28 5700 350/03 RMK AO2 T01890000
94299KAAT AAT20160831084010908/31/16 08:40:31  5-MIN KAAT 311640Z AUTO 00000KT 10SM CLR 19/00 A3004 4270 28 5700 000/00 RMK AO2 T01890000
94299KAAT AAT20160831084510908/31/16 08:45:31  5-MIN KAAT 311645Z AUTO 00000KT 10SM CLR 20/01 A3004 4270 27 5900 000/00 RMK AO2 T02000006
94299KAAT AAT20160831085011608/31/16 08:50:31  5-MIN KAAT 311650Z AUTO 00000KT 10SM CLR 19/00 A3004 4270 27 5800 000/00 RMK AO2 SLP139 T01940000
94299KAAT AAT20160831085511608/31/16 08:55:31  5-MIN KAAT 311655Z AUTO 00000KT 10SM CLR 21/01 A3004 4270 26 5900 000/00 RMK AO2 SLP137 T02060006
94299KAAT AAT20160831090010908/31/16 09:00:31  5-MIN KAAT 311700Z AUTO 00000KT 10SM CLR 21/01 A3004 4270 26 5900 000/00 RMK AO2 T02060006
94299KAAT AAT20160831090510908/31/16 09:05:31  5-MIN KAAT 311705Z AUTO 05003KT 10SM CLR 21/01 A3003 4280 25 6000 040/03 RMK AO2 T02110006
94299KAAT AAT20160831091010908/31/16 09:10:31  5-MIN KAAT 311710Z AUTO 12003KT 10SM CLR 21/00 A3003 4280 24 6000 100/03 RMK AO2 T02110000
94299KAAT AAT20160831091511008/31/16 09:15:31  5-MIN KAAT 311715Z AUTO 00000KT 10SM CLR 22/M01 A3003 4280 22 6100 000/00 RMK AO2 T02171006
94299KAAT AAT20160831092010908/31/16 09:20:31  5-MIN KAAT 311720Z AUTO VRB03KT 10SM CLR 22/00 A3003 4280 22 6100 VRB/03 RMK AO2 T02220000
94299KAAT AAT20160831092510908/31/16 09:25:31  5-MIN KAAT 311725Z AUTO 00000KT 10SM CLR 22/00 A3003 4280 22 6100 000/00 RMK AO2 T02220000
94299KAAT AAT20160831093010908/31/16 09:30:31  5-MIN KAAT 311730Z AUTO VRB03KT 10SM CLR 23/00 A3003 4280 22 6200 VRB/03 RMK AO2 T02280000
94299KAAT AAT20160831093510908/31/16 09:35:31  5-MIN KAAT 311735Z AUTO VRB03KT 10SM CLR 23/00 A3003 4280 21 6200 VRB/03 RMK AO2 T02330000
94299KAAT AAT20160831094010908/31/16 09:40:31  5-MIN KAAT 311740Z AUTO 00000KT 10SM CLR 23/01 A3003 4280 22 6200 000/00 RMK AO2 T02280006
94299KAAT AAT20160831094510908/31/16 09:45:31  5-MIN KAAT 311745Z AUTO 00000KT 10SM CLR 23/01 A3003 4280 22 6200 000/00 RMK AO2 T02330006
94299KAAT AAT20160831095013408/31/16 09:50:31  5-MIN KAAT 311750Z AUTO 00000KT 10SM CLR 23/01 A3003 4280 22 6200 000/00 RMK AO2 SLP127 T02330006 10233 20061 53001
94299KAAT AAT20160831095513408/31/16 09:55:31  5-MIN KAAT 311755Z AUTO VRB03KT 10SM CLR 23/01 A3003 4280 23 6200 VRB/03 RMK AO2 SLP129 T02330011 10233 20061 58007
94299KAAT AAT20160831100010908/31/16 10:00:31  5-MIN KAAT 311800Z AUTO VRB04KT 10SM CLR 24/02 A3003 4280 22 6400 VRB/04 RMK AO2 T02440017
94299KAAT AAT20160831100510908/31/16 10:05:31  5-MIN KAAT 311805Z AUTO VRB03KT 10SM CLR 24/02 A3003 4280 22 6400 VRB/03 RMK AO2 T02440017
94299KAAT AAT20160831101010908/31/16 10:10:31  5-MIN KAAT 311810Z AUTO VRB03KT 10SM CLR 24/02 A3003 4280 22 6400 VRB/03 RMK AO2 T02440017
94299KAAT AAT20160831101510908/31/16 10:15:31  5-MIN KAAT 311815Z AUTO VRB04KT 10SM CLR 24/02 A3002 4280 22 6400 VRB/04 RMK AO2 T02440017
94299KAAT AAT20160831102010908/31/16 10:20:31  5-MIN KAAT 311820Z AUTO VRB04KT 10SM CLR 26/01 A3002 4290 20 6500 VRB/04 RMK AO2 T02560011
94299KAAT AAT20160831102510908/31/16 10:25:31  5-MIN KAAT 311825Z AUTO VRB05KT 10SM CLR 26/01 A3002 4290 20 6500 VRB/05 RMK AO2 T02560011
94299KAAT AAT20160831103010908/31/16 10:30:31  5-MIN KAAT 311830Z AUTO VRB06KT 10SM CLR 26/01 A3002 4290 20 6500 VRB/06 RMK AO2 T02560011
94299KAAT AAT20160831103510908/31/16 10:35:31  5-MIN KAAT 311835Z AUTO 26007KT 10SM CLR 25/01 A3002 4290 20 6400 250/07 RMK AO2 T02500011
94299KAAT AAT20160831104012508/31/16 10:40:31  5-MIN KAAT 311840Z AUTO 26008KT 210V290 10SM CLR 26/01 A3002 4290 20 6500 250/08 200V280 RMK AO2 T02560011
94299KAAT AAT20160831104510908/31/16 10:45:31  5-MIN KAAT 311845Z AUTO VRB04KT 10SM CLR 26/01 A3002 4290 20 6500 VRB/04 RMK AO2 T02560011
94299KAAT AAT20160831105011608/31/16 10:50:31  5-MIN KAAT 311850Z AUTO 35006KT 10SM CLR 26/01 A3002 4290 20 6500 330/06 RMK AO2 SLP126 T02560011
94299KAAT AAT20160831105511608/31/16 10:55:31  5-MIN KAAT 311855Z AUTO 29007KT 10SM CLR 26/01 A3002 4290 19 6600 280/07 RMK AO2 SLP125 T02610011
94299KAAT AAT20160831110010908/31/16 11:00:31  5-MIN KAAT 311900Z AUTO 27007KT 10SM CLR 26/01 A3002 4290 18 6600 250/07 RMK AO2 T02610006
94299KAAT AAT20160831110510908/31/16 11:05:31  5-MIN KAAT 311905Z AUTO 32007KT 10SM CLR 26/01 A3002 4290 18 6600 310/07 RMK AO2 T02610006
94299KAAT AAT20160831111010908/31/16 11:10:31  5-MIN KAAT 311910Z AUTO 34007KT 10SM CLR 26/01 A3002 4290 18 6600 320/07 RMK AO2 T02610006
94299KAAT AAT20160831111510908/31/16 11:15:31  5-MIN KAAT 311915Z AUTO VRB03KT 10SM CLR 26/01 A3001 4290 19 6500 VRB/03 RMK AO2 T02560006
94299KAAT AAT20160831112009908/31/16 11:20:31  5-MIN KAAT 311920Z AUTO 10SM CLR 26/01 A3001 4290 18 6600 M /M RMK AO2 T02610006
94299KAAT AAT20160831112512508/31/16 11:25:31  5-MIN KAAT 311925Z AUTO 30009KT 270V330 10SM CLR 27/00 A3001 4300 16 6700 290/09 260V320 RMK AO2 T02720000
94299KAAT AAT20160831113011008/31/16 11:30:31  5-MIN KAAT 311930Z AUTO 28010KT 10SM CLR 28/M01 A3001 4300 15 6700 270/10 RMK AO2 T02781006
94299KAAT AAT20160831113511008/31/16 11:35:31  5-MIN KAAT 311935Z AUTO 29011KT 10SM CLR 28/M01 A3001 4300 15 6700 270/11 RMK AO2 T02781006
94299KAAT AAT20160831114011008/31/16 11:40:31  5-MIN KAAT 311940Z AUTO 29011KT 10SM CLR 28/M01 A3001 4300 15 6700 270/11 RMK AO2 T02781011
94299KAAT AAT20160831114513208/31/16 11:45:31  5-MIN KAAT 311945Z AUTO 24008G17KT 210V280 10SM CLR 28/M01 A3001 4300 15 6700 230/08G17 200V270 RMK AO2 T02781011
94299KAAT AAT20160831115012308/31/16 11:50:31  5-MIN KAAT 311950Z AUTO 27011G16KT 10SM CLR 28/M01 A3000 4300 14 6800 250/11G16 RMK AO2 SLP119 T02831011
94299KAAT AAT20160831115512308/31/16 11:55:31  5-MIN KAAT 311955Z AUTO 24012G19KT 10SM CLR 28/M02 A3000 4300 14 6800 230/12G19 RMK AO2 SLP117 T02831017
94299KAAT AAT20160831120011608/31/16 12:00:31  5-MIN KAAT 312000Z AUTO 23008G19KT 10SM CLR 28/M01 A3000 4310 14 6800 220/08G19 RMK AO2 T02831011
94299KAAT AAT20160831120511608/31/16 12:05:31  5-MIN KAAT 312005Z AUTO VRB06G16KT 10SM CLR 28/M01 A3000 4310 14 6800 VRB/06G16 RMK AO2 T02831011
94299KAAT AAT20160831121011008/31/16 12:10:31  5-MIN KAAT 312010Z AUTO 25005KT 10SM CLR 28/M02 A3000 4310 14 6800 240/05 RMK AO2 T02831017
94299KAAT AAT20160831121512608/31/16 12:15:31  5-MIN KAAT 312015Z AUTO 24008KT 210V290 10SM CLR 28/M02 A3000 4310 14 6800 230/08 200V280 RMK AO2 T02831017
94299KAAT AAT20160831122011608/31/16 12:20:31  5-MIN KAAT 312020Z AUTO VRB05G15KT 10SM CLR 29/M02 A2999 4310 13 6900 VRB/05G15 RMK AO2 T02891017
94299KAAT AAT20160831122511608/31/16 12:25:31  5-MIN KAAT 312025Z AUTO 23010G17KT 10SM CLR 29/M02 A3000 4310 13 6900 210/10G17 RMK AO2 T02891017
94299KAAT AAT20160831123011608/31/16 12:30:31  5-MIN KAAT 312030Z AUTO 27009G17KT 10SM CLR 28/M02 A3000 4310 14 6800 260/09G17 RMK AO2 T02831017
94299KAAT AAT20160831123511608/31/16 12:35:31  5-MIN KAAT 312035Z AUTO 29011G16KT 10SM CLR 28/M02 A2999 4310 14 6800 270/11G16 RMK AO2 T02831017
94299KAAT AAT20160831124013408/31/16 12:40:31  5-MIN KAAT 312040Z AUTO 21015G29KT 10SM CLR 29/M02 A2999 4310 13 6900 190/15G29 RMK AO2 PK WND 24029/2037 T02941017
94299KAAT AAT20160831124513408/31/16 12:45:31  5-MIN KAAT 312045Z AUTO 24012G29KT 10SM CLR 29/M02 A2999 4320 12 6900 230/12G29 RMK AO2 PK WND 24029/2037 T02941022
94299KAAT AAT20160831125014708/31/16 12:50:31  5-MIN KAAT 312050Z AUTO 24015G21KT 10SM CLR 29/M02 A2999 4320 12 6900 230/15G21 RMK AO2 PK WND 24029/2037 SLP112 T02941022 58007
94299KAAT AAT20160831125514708/31/16 12:55:31  5-MIN KAAT 312055Z AUTO 26014G23KT 10SM CLR 29/M02 A2999 4320 13 6900 240/14G23 RMK AO2 PK WND 24029/2037 SLP115 T02891017 58010
94299KAAT AAT20160831130011608/31/16 13:00:31  5-MIN KAAT 312100Z AUTO 25013G23KT 10SM CLR 29/M02 A2999 4320 13 6900 230/13G23 RMK AO2 T02891017
94299KAAT AAT20160831130511608/31/16 13:05:31  5-MIN KAAT 312105Z AUTO 23015G22KT 10SM CLR 29/M02 A2999 4320 13 6900 220/15G22 RMK AO2 T02891022
94299KAAT AAT20160831131011608/31/16 13:10:31  5-MIN KAAT 312110Z AUTO 24017G24KT 10SM CLR 29/M02 A2999 4320 12 6900 230/17G24 RMK AO2 T02941022
94299KAAT AAT20160831131511608/31/16 13:15:31  5-MIN KAAT 312115Z AUTO 26015G24KT 10SM CLR 29/M02 A2999 4320 13 6900 240/15G24 RMK AO2 T02891022
94299KAAT AAT20160831132011608/31/16 13:20:31  5-MIN KAAT 312120Z AUTO 25016G23KT 10SM CLR 29/M02 A2999 4320 13 6900 230/16G23 RMK AO2 T02941017
94299KAAT AAT20160831132511608/31/16 13:25:31  5-MIN KAAT 312125Z AUTO 25009G22KT 10SM CLR 29/M02 A2998 4320 13 6900 240/09G22 RMK AO2 T02891022
94299KAAT AAT20160831133011608/31/16 13:30:31  5-MIN KAAT 312130Z AUTO 27014G24KT 10SM CLR 29/M02 A2998 4320 13 6900 250/14G24 RMK AO2 T02891017
94299KAAT AAT20160831133511608/31/16 13:35:31  5-MIN KAAT 312135Z AUTO 23015G24KT 10SM CLR 29/M02 A2998 4320 13 6900 220/15G24 RMK AO2 T02891017
94299KAAT AAT20160831134011608/31/16 13:40:31  5-MIN KAAT 312140Z AUTO 28015G24KT 10SM CLR 29/M02 A2999 4320 13 6900 260/15G24 RMK AO2 T02891022
94299KAAT AAT20160831134511608/31/16 13:45:31  5-MIN KAAT 312145Z AUTO 25017G21KT 10SM CLR 29/M02 A2999 4320 13 6900 230/17G21 RMK AO2 T02891022
94299KAAT AAT20160831135012308/31/16 13:50:31  5-MIN KAAT 312150Z AUTO 26009G21KT 10SM CLR 29/M02 A2998 4320 13 6900 240/09G21 RMK AO2 SLP113 T02891017
94299KAAT AAT20160831135512308/31/16 13:55:31  5-MIN KAAT 312155Z AUTO 27012G19KT 10SM CLR 29/M01 A2998 4330 14 6900 250/12G19 RMK AO2 SLP111 T02891006
94299KAAT AAT20160831140011608/31/16 14:00:31  5-MIN KAAT 312200Z AUTO 24014G20KT 10SM CLR 29/M02 A2998 4320 13 6900 220/14G20 RMK AO2 T02891017
94299KAAT AAT20160831140511608/31/16 14:05:31  5-MIN KAAT 312205Z AUTO 25014G20KT 10SM CLR 28/M02 A2998 4320 14 6800 240/14G20 RMK AO2 T02831017
94299KAAT AAT20160831141011608/31/16 14:10:31  5-MIN KAAT 312210Z AUTO 27013G22KT 10SM CLR 29/M01 A2998 4320 14 6900 260/13G22 RMK AO2 T02891011
94299KAAT AAT20160831141511608/31/16 14:15:31  5-MIN KAAT 312215Z AUTO 28012G22KT 10SM CLR 29/M01 A2998 4320 14 6900 270/12G22 RMK AO2 T02891011
94299KAAT AAT20160831142011608/31/16 14:20:31  5-MIN KAAT 312220Z AUTO 26013G20KT 10SM CLR 29/M01 A2998 4320 14 6900 250/13G20 RMK AO2 T02891006
94299KAAT AAT20160831142511608/31/16 14:25:31  5-MIN KAAT 312225Z AUTO 24010G21KT 10SM CLR 28/M01 A2998 4320 14 6800 230/10G21 RMK AO2 T02831011
94299KAAT AAT20160831143011008/31/16 14:30:31  5-MIN KAAT 312230Z AUTO 27013KT 10SM CLR 28/M01 A2998 4320 15 6800 260/13 RMK AO2 T02831006
94299KAAT AAT20160831143513408/31/16 14:35:31  5-MIN KAAT 312235Z AUTO 24012G28KT 10SM CLR 29/M01 A2998 4320 14 6900 220/12G28 RMK AO2 PK WND 26028/2232 T02891011
94299KAAT AAT20160831144013408/31/16 14:40:31  5-MIN KAAT 312240Z AUTO 25017G28KT 10SM CLR 29/M01 A2998 4330 14 6900 240/17G28 RMK AO2 PK WND 26028/2232 T02891011
94299KAAT AAT20160831144513408/31/16 14:45:31  5-MIN KAAT 312245Z AUTO 28016G24KT 10SM CLR 28/M01 A2999 4320 15 6800 270/16G24 RMK AO2 PK WND 26028/2232 T02831006
94299KAAT AAT20160831145014108/31/16 14:50:31  5-MIN KAAT 312250Z AUTO 28012G20KT 10SM CLR 28/M01 A2998 4320 15 6800 260/12G20 RMK AO2 PK WND 26028/2232 SLP113 T02831006
94299KAAT AAT20160831145513508/31/16 14:55:31  5-MIN KAAT 312255Z AUTO 28010KT 10SM CLR 28/M01 A2998 4330 15 6800 260/10 RMK AO2 PK WND 26028/2232 SLP111 T02831006
94299KAAT AAT20160831150011008/31/16 15:00:31  5-MIN KAAT 312300Z AUTO 26010KT 10SM CLR 28/M01 A2998 4330 15 6800 250/10 RMK AO2 T02831006
94299KAAT AAT20160831150511508/31/16 15:05:31  5-MIN KAAT 312305Z AUTO 27015G22KT 10SM CLR 29/00 A2998 4320 15 6900 260/15G22 RMK AO2 T02890000
94299KAAT AAT20160831151011608/31/16 15:10:31  5-MIN KAAT 312310Z AUTO 26015G22KT 10SM CLR 29/M01 A2998 4320 14 6900 250/15G22 RMK AO2 T02891011
94299KAAT AAT20160831151511608/31/16 15:15:31  5-MIN KAAT 312315Z AUTO 29010G19KT 10SM CLR 29/M01 A2998 4330 14 6900 270/10G19 RMK AO2 T02891006
94299KAAT AAT20160831152011608/31/16 15:20:31  5-MIN KAAT 312320Z AUTO 25013G21KT 10SM CLR 29/M01 A2998 4330 14 6900 230/13G21 RMK AO2 T02891006
94299KAAT AAT20160831152511608/31/16 15:25:31  5-MIN KAAT 312325Z AUTO 26012G21KT 10SM CLR 29/M01 A2998 4320 14 6900 240/12G21 RMK AO2 T02891006
94299KAAT AAT20160831153011608/31/16 15:30:31  5-MIN KAAT 312330Z AUTO 27016G19KT 10SM CLR 29/M01 A2998 4330 14 6900 250/16G19 RMK AO2 T02891006
94299KAAT AAT20160831153511608/31/16 15:35:31  5-MIN KAAT 312335Z AUTO 28017G21KT 10SM CLR 28/M01 A2998 4330 15 6800 260/17G21 RMK AO2 T02831006
94299KAAT AAT20160831154011608/31/16 15:40:31  5-MIN KAAT 312340Z AUTO 27017G21KT 10SM CLR 28/M01 A2998 4330 15 6800 260/17G21 RMK AO2 T02831006
94299KAAT AAT20160831154511008/31/16 15:45:31  5-MIN KAAT 312345Z AUTO 26015KT 10SM CLR 28/M01 A2998 4330 15 6800 240/15 RMK AO2 T02831006
94299KAAT AAT20160831155014108/31/16 15:50:31  5-MIN KAAT 312350Z AUTO 26014G21KT 10SM CLR 28/M01 A2998 4330 15 6800 250/14G21 RMK AO2 SLP114 T02831006 10294 20233 58010
94299KAAT AAT20160831155513508/31/16 15:55:31  5-MIN KAAT 312355Z AUTO 28014KT 10SM CLR 28/M01 A2998 4330 15 6800 260/14 RMK AO2 SLP114 T02831006 10294 20233 56003
94299KAAT AAT20160831160011608/31/16 16:00:31  5-MIN KAAT 010000Z AUTO 28015G21KT 10SM CLR 28/M01 A2998 4320 15 6800 270/15G21 RMK AO2 T02781011
94299KAAT AAT20160831160511608/31/16 16:05:31  5-MIN KAAT 010005Z AUTO 27015G22KT 10SM CLR 28/M01 A2998 4320 14 6800 250/15G22 RMK AO2 T02831011
94299KAAT AAT20160831161011608/31/16 16:10:31  5-MIN KAAT 010010Z AUTO 27017G24KT 10SM CLR 28/M02 A2998 4320 14 6800 250/17G24 RMK AO2 T02781017
94299KAAT AAT20160831161511608/31/16 16:15:31  5-MIN KAAT 010015Z AUTO 27015G24KT 10SM CLR 28/M02 A2998 4330 14 6800 250/15G24 RMK AO2 T02781017
94299KAAT AAT20160831162011008/31/16 16:20:31  5-MIN KAAT 010020Z AUTO 27016KT 10SM CLR 27/M02 A2998 4320 15 6700 260/16 RMK AO2 T02721017
94299KAAT AAT20160831162511008/31/16 16:25:31  5-MIN KAAT 010025Z AUTO 29015KT 10SM CLR 27/M02 A2998 4330 15 6700 270/15 RMK AO2 T02721017
94299KAAT AAT20160831163011608/31/16 16:30:31  5-MIN KAAT 010030Z AUTO 28017G21KT 10SM CLR 28/M02 A2998 4320 14 6800 260/17G21 RMK AO2 T02781017
94299KAAT AAT20160831163511608/31/16 16:35:31  5-MIN KAAT 010035Z AUTO 26015G21KT 10SM CLR 27/M02 A2998 4330 15 6700 250/15G21 RMK AO2 T02721017
94299KAAT AAT20160831164011608/31/16 16:40:31  5-MIN KAAT 010040Z AUTO 27016G21KT 10SM CLR 27/M02 A2998 4320 14 6700 250/16G21 RMK AO2 T02721022
94299KAAT AAT20160831164511608/31/16 16:45:31  5-MIN KAAT 010045Z AUTO 27016G21KT 10SM CLR 27/M02 A2998 4320 14 6700 250/16G21 RMK AO2 T02721022
94299KAAT AAT20160831165012308/31/16 16:50:31  5-MIN KAAT 010050Z AUTO 27016G21KT 10SM CLR 27/M03 A2998 4320 14 6700 260/16G21 RMK AO2 SLP118 T02671028
94299KAAT AAT20160831165512308/31/16 16:55:31  5-MIN KAAT 010055Z AUTO 27013G21KT 10SM CLR 27/M02 A2998 4320 14 6700 260/13G21 RMK AO2 SLP118 T02721022
94299KAAT AAT20160831170011008/31/16 17:00:31  5-MIN KAAT 010100Z AUTO 27015KT 10SM CLR 27/M03 A2998 4320 13 6700 250/15 RMK AO2 T02721028
94299KAAT AAT20160831170511008/31/16 17:05:31  5-MIN KAAT 010105Z AUTO 26015KT 10SM CLR 27/M03 A2999 4320 14 6700 240/15 RMK AO2 T02671028
94299KAAT AAT20160831171011008/31/16 17:10:31  5-MIN KAAT 010110Z AUTO 27015KT 10SM CLR 27/M03 A2999 4320 13 6600 260/15 RMK AO2 T02671033
94299KAAT AAT20160831171511008/31/16 17:15:31  5-MIN KAAT 010115Z AUTO 28016KT 10SM CLR 26/M04 A2999 4320 13 6600 260/16 RMK AO2 T02611039
94299KAAT AAT20160831172011008/31/16 17:20:31  5-MIN KAAT 010120Z AUTO 27016KT 10SM CLR 26/M03 A2999 4320 14 6600 260/16 RMK AO2 T02611033
94299KAAT AAT20160831172511008/31/16 17:25:31  5-MIN KAAT 010125Z AUTO 27015KT 10SM CLR 26/M04 A2999 4320 13 6600 250/15 RMK AO2 T02611039
94299KAAT AAT20160831173011008/31/16 17:30:31  5-MIN KAAT 010130Z AUTO 27013KT 10SM CLR 26/M04 A2999 4320 13 6500 260/13 RMK AO2 T02561044
94299KAAT AAT20160831173511008/31/16 17:35:31  5-MIN KAAT 010135Z AUTO 26013KT 10SM CLR 26/M05 A2999 4320 13 6500 250/13 RMK AO2 T02561050
94299KAAT AAT20160831174011008/31/16 17:40:31  5-MIN KAAT 010140Z AUTO 26015KT 10SM CLR 26/M06 A2999 4320 12 6500 250/15 RMK AO2 T02561056
94299KAAT AAT20160831174511008/31/16 17:45:31  5-MIN KAAT 010145Z AUTO 27014KT 10SM CLR 26/M06 A2999 4320 12 6500 260/14 RMK AO2 T02561056
94299KAAT AAT20160831175012308/31/16 17:50:31  5-MIN KAAT 010150Z AUTO 27014G22KT 10SM CLR 25/M06 A2999 4320 12 6500 250/14G22 RMK AO2 SLP123 T02501061
94299KAAT AAT20160831175512308/31/16 17:55:31  5-MIN KAAT 010155Z AUTO 27012G22KT 10SM CLR 25/M06 A2999 4320 12 6500 250/12G22 RMK AO2 SLP125 T02501061
94299KAAT AAT20160831180011608/31/16 18:00:31  5-MIN KAAT 010200Z AUTO 27009G19KT 10SM CLR 24/M06 A2999 4320 12 6400 250/09G19 RMK AO2 T02441061
94299KAAT AAT20160831180511008/31/16 18:05:31  5-MIN KAAT 010205Z AUTO 26010KT 10SM CLR 24/M06 A2999 4320 12 6400 250/10 RMK AO2 T02441061
94299KAAT AAT20160831181011008/31/16 18:10:31  5-MIN KAAT 010210Z AUTO 26011KT 10SM CLR 24/M06 A2999 4320 13 6300 240/11 RMK AO2 T02391056
94299KAAT AAT20160831181511008/31/16 18:15:31  5-MIN KAAT 010215Z AUTO 26011KT 10SM CLR 24/M06 A2999 4320 13 6300 240/11 RMK AO2 T02391056
94299KAAT AAT20160831182011008/31/16 18:20:31  5-MIN KAAT 010220Z AUTO 26010KT 10SM CLR 24/M06 A2999 4320 13 6300 240/10 RMK AO2 T02391056
94299KAAT AAT20160831182511008/31/16 18:25:31  5-MIN KAAT 010225Z AUTO 26010KT 10SM CLR 23/M05 A2999 4310 14 6300 250/10 RMK AO2 T02331050
94299KAAT AAT20160831183011008/31/16 18:30:31  5-MIN KAAT 010230Z AUTO 26010KT 10SM CLR 23/M04 A2999 4310 15 6300 250/10 RMK AO2 T02331044
94299KAAT AAT20160831183511008/31/16 18:35:31  5-MIN KAAT 010235Z AUTO 26011KT 10SM CLR 23/M04 A3000 4310 16 6200 240/11 RMK AO2 T02281044
94299KAAT AAT20160831184011008/31/16 18:40:31  5-MIN KAAT 010240Z AUTO 25010KT 10SM CLR 23/M04 A3000 4310 16 6200 240/10 RMK AO2 T02281044
94299KAAT AAT20160831184511008/31/16 18:45:31  5-MIN KAAT 010245Z AUTO 26011KT 10SM CLR 22/M04 A3000 4310 17 6100 240/11 RMK AO2 T02221039
94299KAAT AAT20160831185012308/31/16 18:50:31  5-MIN KAAT 010250Z AUTO 26010KT 10SM CLR 22/M04 A3000 4310 17 6100 240/10 RMK AO2 SLP125 T02221039 56003
94299KAAT AAT20160831185512308/31/16 18:55:31  5-MIN KAAT 010255Z AUTO 26009KT 10SM CLR 22/M04 A3000 4310 17 6100 250/09 RMK AO2 SLP125 T02171039 53006
94299KAAT AAT20160831190011008/31/16 19:00:31  5-MIN KAAT 010300Z AUTO 26009KT 10SM CLR 22/M04 A3000 4300 17 6100 240/09 RMK AO2 T02171044
94299KAAT AAT20160831190511008/31/16 19:05:31  5-MIN KAAT 010305Z AUTO 26009KT 10SM CLR 22/M04 A3001 4300 17 6100 240/09 RMK AO2 T02171044
94299KAAT AAT20160831191011008/31/16 19:10:31  5-MIN KAAT 010310Z AUTO 26009KT 10SM CLR 22/M04 A3001 4300 17 6100 250/09 RMK AO2 T02171044
94299KAAT AAT20160831191511008/31/16 19:15:31  5-MIN KAAT 010315Z AUTO 27006KT 10SM CLR 21/M04 A3001 4300 17 6000 260/06 RMK AO2 T02111044
94299KAAT AAT20160831192011008/31/16 19:20:31  5-MIN KAAT 010320Z AUTO 01003KT 10SM CLR 19/M03 A3001 4290 21 5800 350/03 RMK AO2 T01941033
94299KAAT AAT20160831192511008/31/16 19:25:31  5-MIN KAAT 010325Z AUTO 04004KT 10SM CLR 18/M03 A3002 4290 23 5700 020/04 RMK AO2 T01831028
94299KAAT AAT20160831193011008/31/16 19:30:31  5-MIN KAAT 010330Z AUTO 05004KT 10SM CLR 18/M03 A3002 4290 23 5700 040/04 RMK AO2 T01831028
94299KAAT AAT20160831193511008/31/16 19:35:31  5-MIN KAAT 010335Z AUTO VRB03KT 10SM CLR 18/M03 A3002 4290 23 5700 VRB/03 RMK AO2 T01831028
