14740KBDL BDL20161201000012512/01/16 00:00:31  5-MIN KBDL 010500Z 36007KT 2SM -RA BR FEW005 OVC013 08/07 A2964 430 96 -200 020/07 RMK AO2 P0001 T00780072
14740KBDL BDL20161201000512912/01/16 00:05:31  5-MIN KBDL 010505Z 01007KT 2 1/2SM -RA BR SCT007 OVC013 08/07 A2964 430 96 -200 020/07 RMK AO2 P0001 T00780072
14740KBDL BDL20161201001012912/01/16 00:10:31  5-MIN KBDL 010510Z 36007KT 2 1/2SM -RA BR BKN005 OVC013 08/07 A2964 440 96 -200 010/07 RMK AO2 P0001 T00780072
14740KBDL BDL20161201001513912/01/16 00:15:31  5-MIN KBDL 010515Z 36007KT 2 1/2SM -RA BR BKN006 OVC014 08/07 A2963 440 96 -200 010/07 RMK AO2 BKN V SCT P0001 T00780072
14740KBDL BDL20161201002013612/01/16 00:20:31  5-MIN KBDL 010520Z 36008KT 2 1/2SM -RA BR SCT005 BKN009 OVC014 08/07 A2963 450 96 -200 010/08 RMK AO2 P0001 T00780072
14740KBDL BDL20161201002514212/01/16 00:25:31  5-MIN KBDL 010525Z 36009KT 2 1/2SM RA BR SCT005 BKN009 OVC014 08/07 A2962 460 96 -200 010/09 RMK AO2 PRESFR P0002 T00780072
14740KBDL BDL20161201003013512/01/16 00:30:31  5-MIN KBDL 010530Z 35009KT 2 1/2SM RA BR SCT005 BKN009 OVC014 08/07 A2962 450 96 -200 360/09 RMK AO2 P0003 T00780072
14740KBDL BDL20161201003513612/01/16 00:35:31  5-MIN KBDL 010535Z 35009KT 2 1/2SM +RA BR FEW003 BKN009 OVC014 08/07 A2961 460 96 -200 360/09 RMK AO2 P0005 T00780072
14740KBDL BDL20161201004013212/01/16 00:40:31  5-MIN KBDL 010540Z 35007KT 2SM +RA BR FEW003 BKN009 OVC014 08/07 A2962 460 96 -200 010/07 RMK AO2 P0009 T00780072
14740KBDL BDL20161201004516312/01/16 00:45:31  5-MIN KBDL 010545Z 01008KT 2SM +RA BR FEW003 BKN009 OVC014 08/07 A2961 460 96 -200 020/08 RMK AO2 SLP027 P0012 60041 T00780072 10094 20078 58040
14740KBDL BDL20161201005017512/01/16 00:50:31  5-MIN KBDL 010550Z 01008KT 2 1/2SM +RA BR FEW003 BKN009 OVC014 08/07 A2961 470 96 -200 020/08 RMK AO2 SLP027 VIS 2V3 P0015 60044 T00780072 10094 20078 58040
14740KBDL BDL20161201005513112/01/16 00:55:31  5-MIN KBDL 010555Z 01009KT 5SM RA BR FEW003 BKN009 OVC016 08/07 A2960 470 96 -200 020/09 RMK AO2 P0001 T00780072
14740KBDL BDL20161201010013212/01/16 01:00:31  5-MIN KBDL 010600Z 36008KT 6SM -RA BR FEW003 BKN009 OVC016 08/07 A2960 470 96 -200 020/08 RMK AO2 P0001 T00780072
14740KBDL BDL20161201010512912/01/16 01:05:31  5-MIN KBDL 010605Z 36009KT 7SM -RA FEW004 BKN010 OVC014 08/07 A2960 470 96 -200 020/09 RMK AO2 P0001 T00780072
14740KBDL BDL20161201011012512/01/16 01:10:31  5-MIN KBDL 010610Z 36008KT 6SM -RA BR FEW004 OVC012 08/07 A2960 480 96 -200 020/08 RMK AO2 P0002 T00780072
14740KBDL BDL20161201011512512/01/16 01:15:31  5-MIN KBDL 010615Z 36008KT 5SM -RA BR FEW005 OVC012 08/07 A2959 480 96 -200 020/08 RMK AO2 P0002 T00780072
14740KBDL BDL20161201012012512/01/16 01:20:31  5-MIN KBDL 010620Z 01008KT 4SM -RA BR SCT005 OVC012 08/07 A2959 490 96 -200 020/08 RMK AO2 P0002 T00780072
14740KBDL BDL20161201012513212/01/16 01:25:31  5-MIN KBDL 010625Z 01009KT 4SM -RA BR SCT005 OVC010 08/07 A2958 500 96 -200 030/09 RMK AO2 PRESFR P0002 T00780072
14740KBDL BDL20161201013013212/01/16 01:30:31  5-MIN KBDL 010630Z 02010KT 4SM -RA BR SCT004 OVC010 08/07 A2957 510 96 -200 040/10 RMK AO2 PRESFR P0003 T00780072
14740KBDL BDL20161201013512512/01/16 01:35:31  5-MIN KBDL 010635Z 02009KT 5SM -RA BR SCT004 OVC011 08/07 A2956 510 96 -100 030/09 RMK AO2 P0003 T00780072
14740KBDL BDL20161201014012512/01/16 01:40:31  5-MIN KBDL 010640Z 36008KT 5SM -RA BR BKN004 OVC011 08/07 A2956 510 96 -100 010/08 RMK AO2 P0003 T00780072
14740KBDL BDL20161201014513912/01/16 01:45:31  5-MIN KBDL 010645Z 02011KT 4SM -RA BR BKN004 OVC011 08/07 A2954 530 96 -100 030/11 RMK AO2 PRESFR SLP004 P0004 T00780072
14740KBDL BDL20161201015014912/01/16 01:50:31  5-MIN KBDL 010650Z 03008KT 3SM -RA BR BKN004 OVC011 08/07 A2953 540 96 -100 050/08 RMK AO2 PRESFR SLP001 BKN V SCT P0004 T00780072
14740KBDL BDL20161201015513212/01/16 01:55:31  5-MIN KBDL 010655Z 04010KT 3SM -RA BR BKN004 OVC011 08/07 A2952 550 96 -100 050/10 RMK AO2 PRESFR P0000 T00780072
14740KBDL BDL20161201020012512/01/16 02:00:31  5-MIN KBDL 010700Z 02008KT 4SM -RA BR BKN004 OVC011 08/07 A2952 550 96 -100 040/08 RMK AO2 P0000 T00780072
14740KBDL BDL20161201020513212/01/16 02:05:31  5-MIN KBDL 010705Z 03010KT 4SM -RA BR BKN004 OVC012 08/07 A2951 560 96 -100 050/10 RMK AO2 PRESFR P0001 T00780072
14740KBDL BDL20161201021012512/01/16 02:10:31  5-MIN KBDL 010710Z 02008KT 6SM -RA BR BKN004 OVC012 08/07 A2951 560 96 -100 040/08 RMK AO2 P0001 T00780072
14740KBDL BDL20161201021512212/01/16 02:15:31  5-MIN KBDL 010715Z 36006KT 7SM -RA BKN004 OVC012 08/07 A2951 560 96 -100 010/06 RMK AO2 P0001 T00780072
14740KBDL BDL20161201022012212/01/16 02:20:31  5-MIN KBDL 010720Z 36008KT 7SM -RA BKN004 OVC012 08/07 A2951 560 96 -100 010/08 RMK AO2 P0001 T00780072
14740KBDL BDL20161201022511812/01/16 02:25:31  5-MIN KBDL 010725Z 34008KT 5SM -RA BR OVC004 08/07 A2950 570 96 -100 360/08 RMK AO2 P0001 T00780072
14740KBDL BDL20161201023012412/01/16 02:30:31  5-MIN KBDL 010730Z 35009KT 3SM RA BR BKN004 OVC011 08/07 A2949 570 96 -100 360/09 RMK AO2 P0002 T00780072
14740KBDL BDL20161201023512812/01/16 02:35:31  5-MIN KBDL 010735Z 36010KT 3SM RA BR BKN004 OVC011 08/07 A2948 590 96 0 020/10 RMK AO2 PRESFR P0003 T00780072
14740KBDL BDL20161201024013512/01/16 02:40:31  5-MIN KBDL 010740Z 01009KT 2SM RA BR SCT004 BKN010 OVC015 08/07 A2946 600 96 0 030/09 RMK AO2 PRESFR P0004 T00780072
14740KBDL BDL20161201024514712/01/16 02:45:31  5-MIN KBDL 010745Z 36007KT 2 1/2SM RA BR SCT004 BKN010 OVC015 08/07 A2947 600 96 0 020/07 RMK AO2 SLP979 VIS 2V3 P0006 T00780072
14740KBDL BDL20161201025014712/01/16 02:50:31  5-MIN KBDL 010750Z 35006KT 2 1/2SM RA BR SCT004 BKN010 OVC015 08/07 A2947 600 96 0 010/06 RMK AO2 SLP979 VIS 2V3 P0008 T00780072
14740KBDL BDL20161201025512212/01/16 02:55:31  5-MIN KBDL 010755Z 35004KT 6SM -RA BR SCT006 OVC012 08/07 A2946 600 96 0 360/04 RMK AO2 P0000 T00780072
14740KBDL BDL20161201030011912/01/16 03:00:31  5-MIN KBDL 010800Z 31006KT 9SM -RA SCT004 OVC010 08/07 A2947 590 96 0 330/06 RMK AO2 P0000 T00780072
14740KBDL BDL20161201030512912/01/16 03:05:31  5-MIN KBDL 010805Z 35006KT 8SM -RA SCT005 OVC010 08/07 A2946 600 96 0 010/06 RMK AO2 SCT V BKN P0000 T00780072
14740KBDL BDL20161201031012212/01/16 03:10:31  5-MIN KBDL 010810Z 34007KT 5SM -RA BR SCT004 OVC010 08/07 A2946 600 96 0 350/07 RMK AO2 P0000 T00780072
14740KBDL BDL20161201031512212/01/16 03:15:31  5-MIN KBDL 010815Z 31008KT 5SM -RA BR BKN008 OVC011 08/07 A2947 590 96 0 320/08 RMK AO2 P0000 T00780072
14740KBDL BDL20161201032012212/01/16 03:20:31  5-MIN KBDL 010820Z 35005KT 4SM -RA BR BKN007 OVC011 08/07 A2946 600 96 0 360/05 RMK AO2 P0001 T00780072
14740KBDL BDL20161201032512912/01/16 03:25:31  5-MIN KBDL 010825Z 35005KT 3SM -RA BR FEW003 BKN007 OVC011 08/07 A2946 610 96 0 360/05 RMK AO2 P0001 T00780072
14740KBDL BDL20161201033012912/01/16 03:30:31  5-MIN KBDL 010830Z 01007KT 3SM -RA BR FEW003 SCT007 OVC014 08/07 A2945 610 96 0 020/07 RMK AO2 P0001 T00780072
14740KBDL BDL20161201033511512/01/16 03:35:31  5-MIN KBDL 010835Z 35007KT 4SM -RA BR OVC012 08/07 A2945 610 96 0 360/07 RMK AO2 P0001 T00780072
14740KBDL BDL20161201034012912/01/16 03:40:31  5-MIN KBDL 010840Z 33009KT 6SM -RA BR FEW003 BKN012 OVC024 08/07 A2946 610 93 0 340/09 RMK AO2 P0001 T00780067
14740KBDL BDL20161201034513412/01/16 03:45:31  5-MIN KBDL 010845Z 33008KT 6SM -RA BR OVC012 08/07 A2946 610 93 0 340/08 RMK AO2 SLP975 P0001 60013 T00780067 56053
14740KBDL BDL20161201035014112/01/16 03:50:31  5-MIN KBDL 010850Z 32008KT 4SM -RA BR BKN006 OVC014 08/07 A2946 600 93 0 340/08 RMK AO2 SLP976 P0001 60013 T00780067 56053
14740KBDL BDL20161201035512212/01/16 03:55:31  5-MIN KBDL 010855Z 33008KT 5SM -RA BR BKN009 OVC014 08/07 A2945 610 93 0 340/08 RMK AO2 P0000 T00780067
14740KBDL BDL20161201040012212/01/16 04:00:31  5-MIN KBDL 010900Z 34007KT 4SM -RA BR SCT006 OVC011 08/07 A2945 610 93 0 350/07 RMK AO2 P0001 T00780067
14740KBDL BDL20161201040511512/01/16 04:05:31  5-MIN KBDL 010905Z 33006KT 4SM -RA BR OVC011 08/07 A2946 610 93 0 340/06 RMK AO2 P0001 T00780067
14740KBDL BDL20161201041011512/01/16 04:10:31  5-MIN KBDL 010910Z 33007KT 4SM -RA BR OVC011 08/07 A2946 600 93 0 350/07 RMK AO2 P0001 T00780067
14740KBDL BDL20161201041511512/01/16 04:15:31  5-MIN KBDL 010915Z 33007KT 5SM -RA BR OVC013 08/07 A2946 600 93 0 350/07 RMK AO2 P0001 T00780067
14740KBDL BDL20161201042012612/01/16 04:20:31  5-MIN KBDL 010920Z 33006KT 5SM -DZ BR OVC013 08/07 A2946 600 93 0 340/06 RMK AO2 RAE19DZB19 P0001 T00780067
14740KBDL BDL20161201042512612/01/16 04:25:31  5-MIN KBDL 010925Z 32004KT 6SM -DZ BR OVC013 08/07 A2947 600 93 0 330/04 RMK AO2 RAE19DZB19 P0001 T00780067
14740KBDL BDL20161201043013312/01/16 04:30:31  5-MIN KBDL 010930Z VRB03KT 5SM -DZ BR FEW006 OVC014 08/07 A2945 610 96 0 VRB/03 RMK AO2 RAE19DZB19 P0001 T00780072
14740KBDL BDL20161201043513112/01/16 04:35:31  5-MIN KBDL 010935Z VRB04KT 4SM -RA BR SCT014 OVC022 08/07 A2947 600 93 0 VRB/04 RMK AO2 DZB19E31 P0002 T00780067
14740KBDL BDL20161201044014112/01/16 04:40:31  5-MIN KBDL 010940Z 31011KT 6SM -RA BR FEW007 BKN015 OVC029 08/07 A2948 580 93 -100 320/11 RMK AO2 DZB19E31 P0002 T00780067
14740KBDL BDL20161201044515212/01/16 04:45:31  5-MIN KBDL 010945Z 30016KT 8SM -RA SCT006 BKN015 OVC029 08/07 A2951 560 93 -100 310/16 RMK AO2 DZB19E31 PRESRR SLP994 P0002 T00780067
14740KBDL BDL20161201045014812/01/16 04:50:31  5-MIN KBDL 010950Z 34009G18KT 8SM -RA FEW006 BKN017 OVC036 08/07 A2949 580 89 0 360/09G18 RMK AO2 DZB19E31 SLP986 P0002 T00830067
14740KBDL BDL20161201045512712/01/16 04:55:31  5-MIN KBDL 010955Z 33009KT 10SM -RA SCT009 BKN019 OVC043 09/07 A2950 570 89 0 350/09 RMK AO2 P0000 T00890072
14740KBDL BDL20161201050012712/01/16 05:00:31  5-MIN KBDL 011000Z 34006KT 10SM -RA FEW007 BKN028 OVC043 09/07 A2949 570 89 0 350/06 RMK AO2 P0000 T00890072
14740KBDL BDL20161201050512912/01/16 05:05:31  5-MIN KBDL 011005Z 35003KT 10SM FEW008 SCT021 OVC047 09/07 A2950 570 89 0 360/03 RMK AO2 RAE01 P0000 T00890072
14740KBDL BDL20161201051012912/01/16 05:10:31  5-MIN KBDL 011010Z 00000KT 10SM FEW008 SCT036 OVC047 09/07 A2950 570 89 0 000/00 RMK AO2 RAE01 P0000 T00890072
14740KBDL BDL20161201051512912/01/16 05:15:31  5-MIN KBDL 011015Z 08003KT 10SM FEW012 FEW036 OVC047 09/07 A2949 570 86 0 100/03 RMK AO2 RAE01 P0000 T00890067
14740KBDL BDL20161201052012912/01/16 05:20:31  5-MIN KBDL 011020Z 10006KT 10SM FEW042 BKN049 BKN120 08/07 A2949 580 89 0 120/06 RMK AO2 RAE01 P0000 T00830067
14740KBDL BDL20161201052512212/01/16 05:25:31  5-MIN KBDL 011025Z 09008KT 10SM SCT047 BKN120 08/07 A2948 580 89 0 110/08 RMK AO2 RAE01 P0000 T00830067
14740KBDL BDL20161201053012212/01/16 05:30:31  5-MIN KBDL 011030Z 07006KT 10SM SCT049 BKN120 08/07 A2949 580 89 0 090/06 RMK AO2 RAE01 P0000 T00830067
14740KBDL BDL20161201053512212/01/16 05:35:31  5-MIN KBDL 011035Z 03006KT 10SM FEW049 OVC110 09/07 A2948 580 86 0 050/06 RMK AO2 RAE01 P0000 T00890067
14740KBDL BDL20161201054012212/01/16 05:40:31  5-MIN KBDL 011040Z 02005KT 10SM FEW049 OVC110 08/07 A2948 590 89 0 030/05 RMK AO2 RAE01 P0000 T00830067
14740KBDL BDL20161201054512212/01/16 05:45:31  5-MIN KBDL 011045Z 01006KT 10SM OVC110 08/07 A2947 590 89 0 020/06 RMK AO2 RAE01 SLP981 P0000 T00830067
14740KBDL BDL20161201055013612/01/16 05:50:31  5-MIN KBDL 011050Z 35003KT 10SM FEW048 BKN110 BKN130 08/07 A2948 580 89 0 360/03 RMK AO2 RAE01 SLP984 P0000 T00830067
14740KBDL BDL20161201055510312/01/16 05:55:31  5-MIN KBDL 011055Z 00000KT 10SM OVC110 08/07 A2948 580 89 0 000/00 RMK AO2 T00830067
14740KBDL BDL20161201060010612/01/16 06:00:31  5-MIN KBDL 011100Z 13003KT 10SM OVC110 08/07 A2949 570 93 -100 140/03 RMK AO2 T00780067
14740KBDL BDL20161201060510612/01/16 06:05:31  5-MIN KBDL 011105Z 15006KT 10SM OVC110 08/06 A2949 570 89 -100 170/06 RMK AO2 T00780061
14740KBDL BDL20161201061010612/01/16 06:10:31  5-MIN KBDL 011110Z 17006KT 10SM BKN110 08/06 A2949 570 89 -100 180/06 RMK AO2 T00780061
14740KBDL BDL20161201061510612/01/16 06:15:31  5-MIN KBDL 011115Z 18004KT 10SM BKN110 08/07 A2949 580 93 -100 190/04 RMK AO2 T00780067
14740KBDL BDL20161201062010612/01/16 06:20:31  5-MIN KBDL 011120Z 00000KT 10SM BKN100 08/07 A2949 580 93 -100 000/00 RMK AO2 T00780067
14740KBDL BDL20161201062510612/01/16 06:25:31  5-MIN KBDL 011125Z 24004KT 10SM SCT110 08/07 A2949 570 93 -100 250/04 RMK AO2 T00780067
14740KBDL BDL20161201063010612/01/16 06:30:31  5-MIN KBDL 011130Z 24005KT 10SM FEW100 08/07 A2949 570 93 -100 260/05 RMK AO2 T00780067
14740KBDL BDL20161201063510612/01/16 06:35:31  5-MIN KBDL 011135Z 25006KT 10SM FEW100 07/06 A2950 570 93 -100 270/06 RMK AO2 T00720061
14740KBDL BDL20161201064010612/01/16 06:40:31  5-MIN KBDL 011140Z 25005KT 10SM FEW100 07/06 A2951 560 93 -100 270/05 RMK AO2 T00720061
14740KBDL BDL20161201064514012/01/16 06:45:31  5-MIN KBDL 011145Z 25006KT 10SM CLR 07/06 A2951 560 93 -200 260/06 RMK AO2 SLP992 60015 70086 T00720061 10089 20072 56049
14740KBDL BDL20161201065015712/01/16 06:50:31  5-MIN KBDL 011150Z 25006KT 10SM FEW045 FEW100 SCT140 07/06 A2951 560 93 -200 260/06 RMK AO2 SLP993 60015 70086 T00720061 10089 20072 56049
14740KBDL BDL20161201065510312/01/16 06:55:31  5-MIN KBDL 011155Z 25004KT 10SM CLR 07/06 A2951 560 93 -200 260/04 RMK AO2 T00720061
14740KBDL BDL20161201070010312/01/16 07:00:31  5-MIN KBDL 011200Z 23004KT 10SM CLR 07/06 A2951 560 93 -200 240/04 RMK AO2 T00670056
14740KBDL BDL20161201070510312/01/16 07:05:31  5-MIN KBDL 011205Z 26003KT 10SM CLR 07/06 A2951 560 93 -200 280/03 RMK AO2 T00670056
14740KBDL BDL20161201071010312/01/16 07:10:31  5-MIN KBDL 011210Z 00000KT 10SM CLR 07/06 A2951 560 93 -200 000/00 RMK AO2 T00670056
14740KBDL BDL20161201071510312/01/16 07:15:31  5-MIN KBDL 011215Z 00000KT 10SM CLR 07/06 A2951 560 93 -200 000/00 RMK AO2 T00670056
14740KBDL BDL20161201072010312/01/16 07:20:31  5-MIN KBDL 011220Z 23003KT 10SM CLR 07/06 A2951 550 93 -200 240/03 RMK AO2 T00720061
14740KBDL BDL20161201072510312/01/16 07:25:31  5-MIN KBDL 011225Z 20003KT 10SM CLR 07/06 A2952 550 93 -200 220/03 RMK AO2 T00720061
14740KBDL BDL20161201073010612/01/16 07:30:31  5-MIN KBDL 011230Z 19003KT 10SM FEW043 06/06 A2952 550 96 -300 200/03 RMK AO2 T00610056
14740KBDL BDL20161201073510612/01/16 07:35:31  5-MIN KBDL 011235Z 18004KT 10SM SCT043 07/06 A2952 540 93 -200 200/04 RMK AO2 T00720061
14740KBDL BDL20161201074010612/01/16 07:40:31  5-MIN KBDL 011240Z VRB03KT 10SM SCT043 08/07 A2953 540 93 -100 VRB/03 RMK AO2 T00780067
14740KBDL BDL20161201074511312/01/16 07:45:31  5-MIN KBDL 011245Z 19005KT 10SM SCT043 08/07 A2953 540 93 -100 200/05 RMK AO2 SLP000 T00780067
14740KBDL BDL20161201075011712/01/16 07:50:31  5-MIN KBDL 011250Z VRB04KT 10SM FEW043 FEW100 08/07 A2953 540 89 0 VRB/04 RMK AO2 SLP001 T00830067
14740KBDL BDL20161201075510312/01/16 07:55:31  5-MIN KBDL 011255Z 19005KT 10SM SCT043 08/07 A2953 540 89 0 200/05 RMK AO2 T00830067
14740KBDL BDL20161201080010612/01/16 08:00:31  5-MIN KBDL 011300Z 20005KT 10SM FEW043 08/07 A2954 530 89 -100 220/05 RMK AO2 T00830067
14740KBDL BDL20161201080510312/01/16 08:05:31  5-MIN KBDL 011305Z 20005KT 10SM FEW043 09/07 A2954 530 86 0 210/05 RMK AO2 T00890067
14740KBDL BDL20161201081010012/01/16 08:10:31  5-MIN KBDL 011310Z 19006KT 10SM CLR 09/07 A2954 530 86 0 210/06 RMK AO2 T00890067
14740KBDL BDL20161201081510012/01/16 08:15:31  5-MIN KBDL 011315Z 18006KT 10SM CLR 09/07 A2954 530 89 0 200/06 RMK AO2 T00890072
14740KBDL BDL20161201082010012/01/16 08:20:31  5-MIN KBDL 011320Z 17003KT 10SM CLR 09/07 A2954 530 89 0 190/03 RMK AO2 T00890072
14740KBDL BDL20161201082510012/01/16 08:25:31  5-MIN KBDL 011325Z 15003KT 10SM CLR 09/07 A2954 530 89 0 160/03 RMK AO2 T00890072
14740KBDL BDL20161201083010012/01/16 08:30:31  5-MIN KBDL 011330Z 14003KT 10SM CLR 09/07 A2954 530 86 0 160/03 RMK AO2 T00940072
14740KBDL BDL20161201083510012/01/16 08:35:31  5-MIN KBDL 011335Z 16003KT 10SM CLR 09/07 A2954 530 86 0 170/03 RMK AO2 T00940072
14740KBDL BDL20161201084010212/01/16 08:40:31  5-MIN KBDL 011340Z 19004KT 10SM CLR 10/07 A2954 530 83 100 200/04 RMK AO2 T01000072
14740KBDL BDL20161201084510912/01/16 08:45:31  5-MIN KBDL 011345Z 19005KT 10SM CLR 10/07 A2954 530 83 100 200/05 RMK AO2 SLP004 T01000072
14740KBDL BDL20161201085011212/01/16 08:50:31  5-MIN KBDL 011350Z 19004KT 10SM FEW035 10/07 A2954 530 83 100 210/04 RMK AO2 SLP004 T01000072
14740KBDL BDL20161201085510212/01/16 08:55:31  5-MIN KBDL 011355Z 20004KT 10SM CLR 10/07 A2954 530 83 100 210/04 RMK AO2 T01000072
14740KBDL BDL20161201090010212/01/16 09:00:31  5-MIN KBDL 011400Z 20004KT 10SM CLR 11/07 A2955 520 80 200 220/04 RMK AO2 T01060072
14740KBDL BDL20161201090510212/01/16 09:05:31  5-MIN KBDL 011405Z 20003KT 10SM CLR 11/07 A2955 520 80 200 220/03 RMK AO2 T01060072
14740KBDL BDL20161201091010212/01/16 09:10:31  5-MIN KBDL 011410Z 20004KT 10SM CLR 11/07 A2955 520 80 200 220/04 RMK AO2 T01060072
14740KBDL BDL20161201091510212/01/16 09:15:31  5-MIN KBDL 011415Z 20003KT 10SM CLR 11/07 A2955 520 80 100 220/03 RMK AO2 T01060072
14740KBDL BDL20161201092010212/01/16 09:20:31  5-MIN KBDL 011420Z 00000KT 10SM CLR 11/08 A2956 520 80 200 000/00 RMK AO2 T01110078
14740KBDL BDL20161201092510212/01/16 09:25:31  5-MIN KBDL 011425Z 00000KT 10SM CLR 11/07 A2955 520 77 200 000/00 RMK AO2 T01110072
14740KBDL BDL20161201093010512/01/16 09:30:31  5-MIN KBDL 011430Z 00000KT 10SM FEW032 12/08 A2955 520 77 300 000/00 RMK AO2 T01170078
14740KBDL BDL20161201093510512/01/16 09:35:31  5-MIN KBDL 011435Z 00000KT 10SM FEW034 12/07 A2955 520 74 300 000/00 RMK AO2 T01170072
14740KBDL BDL20161201094009512/01/16 09:40:31  5-MIN KBDL 011440Z 10SM FEW034 12/07 A2956 510 71 300 M /M RMK AO2 T01170067
14740KBDL BDL20161201094512512/01/16 09:45:31  5-MIN KBDL 011445Z 31007KT 10SM FEW029 SCT038 12/07 A2956 510 71 300 320/07 RMK AO2 SLP010 T01170067 52017
14740KBDL BDL20161201095013112/01/16 09:50:31  5-MIN KBDL 011450Z 29012G17KT 10SM FEW029 BKN037 11/06 A2956 510 71 200 300/12G17 RMK AO2 SLP011 T01110061 52017
14740KBDL BDL20161201095510512/01/16 09:55:31  5-MIN KBDL 011455Z 29011KT 10SM BKN041 11/06 A2956 510 71 200 310/11 RMK AO2 T01110061
14740KBDL BDL20161201100011912/01/16 10:00:31  5-MIN KBDL 011500Z 28013KT 10SM BKN041 BKN050 BKN060 11/06 A2957 510 68 200 300/13 RMK AO2 T01110056
14740KBDL BDL20161201100511912/01/16 10:05:31  5-MIN KBDL 011505Z 28011KT 10SM SCT041 BKN048 BKN060 11/05 A2957 510 66 200 290/11 RMK AO2 T01110050
14740KBDL BDL20161201101011212/01/16 10:10:31  5-MIN KBDL 011510Z 28010KT 10SM SCT041 BKN050 12/05 A2957 510 63 300 300/10 RMK AO2 T01170050
14740KBDL BDL20161201101510512/01/16 10:15:31  5-MIN KBDL 011515Z 31012KT 10SM BKN046 12/05 A2957 500 63 300 320/12 RMK AO2 T01170050
14740KBDL BDL20161201102011112/01/16 10:20:31  5-MIN KBDL 011520Z 30013G17KT 10SM BKN046 11/05 A2957 500 66 200 320/13G17 RMK AO2 T01110050
14740KBDL BDL20161201102511812/01/16 10:25:31  5-MIN KBDL 011525Z 30010G17KT 10SM FEW038 BKN048 11/04 A2957 500 63 200 320/10G17 RMK AO2 T01110044
14740KBDL BDL20161201103010512/01/16 10:30:31  5-MIN KBDL 011530Z 30011KT 10SM SCT048 12/04 A2957 500 61 300 320/11 RMK AO2 T01170044
14740KBDL BDL20161201103511212/01/16 10:35:31  5-MIN KBDL 011535Z 30011KT 10SM FEW038 SCT048 11/04 A2957 500 61 200 320/11 RMK AO2 T01110039
14740KBDL BDL20161201104011812/01/16 10:40:31  5-MIN KBDL 011540Z 29014G21KT 10SM FEW038 SCT048 12/04 A2957 500 59 300 310/14G21 RMK AO2 T01220044
14740KBDL BDL20161201104511812/01/16 10:45:31  5-MIN KBDL 011545Z 30013G21KT 10SM FEW038 11/03 A2957 510 58 200 310/13G21 RMK AO2 SLP012 T01110033
14740KBDL BDL20161201105011912/01/16 10:50:31  5-MIN KBDL 011550Z 28012KT 10SM FEW038 SCT045 11/03 A2957 510 58 200 290/12 RMK AO2 SLP012 T01110033
14740KBDL BDL20161201105510512/01/16 10:55:31  5-MIN KBDL 011555Z 29008KT 10SM FEW050 12/04 A2957 510 56 300 300/08 RMK AO2 T01220039
14740KBDL BDL20161201110010512/01/16 11:00:31  5-MIN KBDL 011600Z 31007KT 10SM SCT050 12/04 A2957 510 56 300 320/07 RMK AO2 T01220039
14740KBDL BDL20161201110511112/01/16 11:05:31  5-MIN KBDL 011605Z 31013G18KT 10SM BKN050 12/03 A2956 510 54 300 320/13G18 RMK AO2 T01170028
14740KBDL BDL20161201111011112/01/16 11:10:31  5-MIN KBDL 011610Z 31009G18KT 10SM BKN048 12/03 A2956 510 54 300 320/09G18 RMK AO2 T01170028
14740KBDL BDL20161201111510512/01/16 11:15:31  5-MIN KBDL 011615Z 30010KT 10SM BKN048 12/02 A2956 510 52 300 320/10 RMK AO2 T01170022
14740KBDL BDL20161201112010512/01/16 11:20:31  5-MIN KBDL 011620Z 31008KT 10SM OVC048 12/03 A2956 510 52 300 320/08 RMK AO2 T01220028
14740KBDL BDL20161201112510512/01/16 11:25:31  5-MIN KBDL 011625Z 29008KT 10SM OVC048 13/03 A2956 510 50 400 310/08 RMK AO2 T01280028
14740KBDL BDL20161201113010512/01/16 11:30:31  5-MIN KBDL 011630Z 29007KT 10SM OVC049 13/03 A2956 510 50 500 310/07 RMK AO2 T01330033
14740KBDL BDL20161201113510512/01/16 11:35:31  5-MIN KBDL 011635Z 30009KT 10SM OVC049 13/03 A2956 510 50 500 310/09 RMK AO2 T01330033
14740KBDL BDL20161201114011112/01/16 11:40:31  5-MIN KBDL 011640Z 31010G16KT 10SM OVC049 13/03 A2956 520 48 500 330/10G16 RMK AO2 T01330028
14740KBDL BDL20161201114511212/01/16 11:45:31  5-MIN KBDL 011645Z 31012KT 10SM OVC049 13/02 A2956 510 48 400 320/12 RMK AO2 SLP010 T01280022
14740KBDL BDL20161201115011212/01/16 11:50:31  5-MIN KBDL 011650Z 28009KT 10SM BKN048 12/02 A2956 510 50 300 300/09 RMK AO2 SLP009 T01220022
14740KBDL BDL20161201115510512/01/16 11:55:31  5-MIN KBDL 011655Z 30009KT 10SM OVC048 13/02 A2956 510 48 400 320/09 RMK AO2 T01280022
14740KBDL BDL20161201120010512/01/16 12:00:31  5-MIN KBDL 011700Z 31011KT 10SM OVC048 13/02 A2956 510 46 400 320/11 RMK AO2 T01280017
14740KBDL BDL20161201120510512/01/16 12:05:31  5-MIN KBDL 011705Z 30008KT 10SM BKN048 13/02 A2956 520 45 500 320/08 RMK AO2 T01330017
14740KBDL BDL20161201121010512/01/16 12:10:31  5-MIN KBDL 011710Z 31009KT 10SM BKN048 14/02 A2955 520 43 500 330/09 RMK AO2 T01390017
14740KBDL BDL20161201121511112/01/16 12:15:31  5-MIN KBDL 011715Z 29014G17KT 10SM BKN048 13/02 A2955 520 45 500 300/14G17 RMK AO2 T01330017
14740KBDL BDL20161201122011112/01/16 12:20:31  5-MIN KBDL 011720Z 28011G17KT 10SM BKN050 14/02 A2956 520 43 500 290/11G17 RMK AO2 T01390017
14740KBDL BDL20161201122511112/01/16 12:25:31  5-MIN KBDL 011725Z 30013G20KT 10SM BKN050 14/02 A2955 520 43 500 310/13G20 RMK AO2 T01390017
14740KBDL BDL20161201123011112/01/16 12:30:31  5-MIN KBDL 011730Z 26016G21KT 10SM BKN050 14/02 A2956 510 43 500 270/16G21 RMK AO2 T01390017
14740KBDL BDL20161201123511112/01/16 12:35:31  5-MIN KBDL 011735Z 26017G21KT 10SM BKN050 13/01 A2956 520 43 500 280/17G21 RMK AO2 T01330011
14740KBDL BDL20161201124011112/01/16 12:40:31  5-MIN KBDL 011740Z 28015G22KT 10SM SCT050 12/01 A2956 510 46 300 290/15G22 RMK AO2 T01220011
14740KBDL BDL20161201124513012/01/16 12:45:31  5-MIN KBDL 011745Z 28018KT 10SM SCT050 12/01 A2956 510 48 300 300/18 RMK AO2 SLP010 T01170011 10139 20061 51017
14740KBDL BDL20161201125013612/01/16 12:50:31  5-MIN KBDL 011750Z 27015G22KT 10SM BKN050 12/01 A2956 510 46 300 280/15G22 RMK AO2 SLP011 T01170006 10139 20061 51017
14740KBDL BDL20161201125511112/01/16 12:55:31  5-MIN KBDL 011755Z 27014G21KT 10SM BKN050 12/01 A2956 510 48 300 280/14G21 RMK AO2 T01170011
14740KBDL BDL20161201130010512/01/16 13:00:31  5-MIN KBDL 011800Z 29013KT 10SM BKN050 12/01 A2957 510 46 300 310/13 RMK AO2 T01220011
14740KBDL BDL20161201130510512/01/16 13:05:31  5-MIN KBDL 011805Z 29009KT 10SM BKN048 13/01 A2957 500 44 400 300/09 RMK AO2 T01280011
14740KBDL BDL20161201131012112/01/16 13:10:31  5-MIN KBDL 011810Z 29013KT 260V340 10SM BKN048 12/01 A2957 500 46 300 310/13 270V350 RMK AO2 T01220011
14740KBDL BDL20161201131511112/01/16 13:15:31  5-MIN KBDL 011815Z 31016G19KT 10SM OVC048 12/01 A2957 500 46 300 320/16G19 RMK AO2 T01170006
14740KBDL BDL20161201132010512/01/16 13:20:31  5-MIN KBDL 011820Z 32014KT 10SM OVC048 11/00 A2957 500 46 200 330/14 RMK AO2 T01110000
14740KBDL BDL20161201132510512/01/16 13:25:31  5-MIN KBDL 011825Z 32013KT 10SM OVC048 11/00 A2957 500 46 200 330/13 RMK AO2 T01110000
14740KBDL BDL20161201133010512/01/16 13:30:31  5-MIN KBDL 011830Z 30011KT 10SM OVC048 11/01 A2957 500 48 200 310/11 RMK AO2 T01110006
14740KBDL BDL20161201133510512/01/16 13:35:31  5-MIN KBDL 011835Z 30010KT 10SM OVC048 11/00 A2958 490 46 200 310/10 RMK AO2 T01110000
14740KBDL BDL20161201134011112/01/16 13:40:31  5-MIN KBDL 011840Z 31012G17KT 10SM OVC048 11/01 A2958 490 48 200 320/12G17 RMK AO2 T01110006
14740KBDL BDL20161201134511812/01/16 13:45:31  5-MIN KBDL 011845Z 32014G17KT 10SM OVC049 11/00 A2958 490 46 200 330/14G17 RMK AO2 SLP017 T01110000
14740KBDL BDL20161201135011212/01/16 13:50:31  5-MIN KBDL 011850Z 32011KT 10SM BKN048 11/00 A2958 490 46 200 330/11 RMK AO2 SLP018 T01110000
14740KBDL BDL20161201135510512/01/16 13:55:31  5-MIN KBDL 011855Z 31012KT 10SM OVC048 11/00 A2959 490 46 200 330/12 RMK AO2 T01110000
14740KBDL BDL20161201140010512/01/16 14:00:31  5-MIN KBDL 011900Z 31012KT 10SM OVC048 11/00 A2959 490 46 200 330/12 RMK AO2 T01110000
14740KBDL BDL20161201140510512/01/16 14:05:31  5-MIN KBDL 011905Z 31013KT 10SM OVC048 11/00 A2959 490 48 100 330/13 RMK AO2 T01060000
14740KBDL BDL20161201141010512/01/16 14:10:31  5-MIN KBDL 011910Z 32013KT 10SM OVC048 11/00 A2959 490 48 100 330/13 RMK AO2 T01060000
14740KBDL BDL20161201141510512/01/16 14:15:31  5-MIN KBDL 011915Z 31011KT 10SM OVC049 11/00 A2959 480 48 100 330/11 RMK AO2 T01060000
14740KBDL BDL20161201142010512/01/16 14:20:31  5-MIN KBDL 011920Z 29015KT 10SM OVC049 11/00 A2959 480 48 100 310/15 RMK AO2 T01060000
14740KBDL BDL20161201142510512/01/16 14:25:31  5-MIN KBDL 011925Z 31011KT 10SM OVC050 11/00 A2959 480 48 100 320/11 RMK AO2 T01060000
14740KBDL BDL20161201143010512/01/16 14:30:31  5-MIN KBDL 011930Z 30012KT 10SM OVC050 11/00 A2959 480 48 100 320/12 RMK AO2 T01060000
14740KBDL BDL20161201143510512/01/16 14:35:31  5-MIN KBDL 011935Z 31011KT 10SM OVC050 11/00 A2960 480 48 100 330/11 RMK AO2 T01060000
14740KBDL BDL20161201144010312/01/16 14:40:31  5-MIN KBDL 011940Z 31011KT 10SM OVC050 10/00 A2960 480 49 0 320/11 RMK AO2 T01000000
14740KBDL BDL20161201144511012/01/16 14:45:31  5-MIN KBDL 011945Z 30010KT 10SM OVC049 10/00 A2960 470 49 0 310/10 RMK AO2 SLP024 T01000000
14740KBDL BDL20161201145011712/01/16 14:50:31  5-MIN KBDL 011950Z 31012KT 10SM OVC049 10/00 A2960 470 49 0 320/12 RMK AO2 SLP024 BINOVC T01000000
14740KBDL BDL20161201145510312/01/16 14:55:31  5-MIN KBDL 011955Z 30012KT 10SM OVC049 10/00 A2960 470 49 0 320/12 RMK AO2 T01000000
14740KBDL BDL20161201150010312/01/16 15:00:31  5-MIN KBDL 012000Z 29011KT 10SM OVC047 10/00 A2961 470 49 0 310/11 RMK AO2 T01000000
14740KBDL BDL20161201150510312/01/16 15:05:31  5-MIN KBDL 012005Z 30009KT 10SM OVC047 10/00 A2961 460 49 0 310/09 RMK AO2 T01000000
14740KBDL BDL20161201151010312/01/16 15:10:31  5-MIN KBDL 012010Z 31011KT 10SM OVC047 10/00 A2961 460 49 0 320/11 RMK AO2 T01000000
14740KBDL BDL20161201151510312/01/16 15:15:31  5-MIN KBDL 012015Z 30008KT 10SM OVC048 10/00 A2961 460 49 0 310/08 RMK AO2 T01000000
14740KBDL BDL20161201152010312/01/16 15:20:31  5-MIN KBDL 012020Z 31010KT 10SM OVC048 09/00 A2962 460 51 0 320/10 RMK AO2 T00940000
14740KBDL BDL20161201152510312/01/16 15:25:31  5-MIN KBDL 012025Z 29010KT 10SM OVC048 09/00 A2962 460 51 0 310/10 RMK AO2 T00940000
14740KBDL BDL20161201153010312/01/16 15:30:31  5-MIN KBDL 012030Z 30007KT 10SM OVC048 09/00 A2962 460 51 0 310/07 RMK AO2 T00940000
14740KBDL BDL20161201153510312/01/16 15:35:31  5-MIN KBDL 012035Z 29006KT 10SM OVC047 09/00 A2962 450 51 0 300/06 RMK AO2 T00940000
14740KBDL BDL20161201154010312/01/16 15:40:31  5-MIN KBDL 012040Z 29009KT 10SM OVC047 09/00 A2962 450 51 0 300/09 RMK AO2 T00940000
14740KBDL BDL20161201154511712/01/16 15:45:31  5-MIN KBDL 012045Z 29010KT 10SM OVC047 09/M01 A2962 450 49 0 300/10 RMK AO2 SLP031 T00941006 57000
14740KBDL BDL20161201155011712/01/16 15:50:31  5-MIN KBDL 012050Z 29009KT 10SM OVC047 09/M01 A2963 450 49 0 300/09 RMK AO2 SLP032 T00941006 57000
14740KBDL BDL20161201155510412/01/16 15:55:31  5-MIN KBDL 012055Z 28010KT 10SM OVC046 09/M01 A2963 450 49 0 300/10 RMK AO2 T00941006
14740KBDL BDL20161201160010312/01/16 16:00:31  5-MIN KBDL 012100Z 29009KT 10SM OVC046 09/00 A2963 450 51 0 310/09 RMK AO2 T00940000
14740KBDL BDL20161201160510312/01/16 16:05:31  5-MIN KBDL 012105Z 28009KT 10SM OVC048 09/00 A2963 450 51 0 290/09 RMK AO2 T00940000
14740KBDL BDL20161201161010312/01/16 16:10:31  5-MIN KBDL 012110Z 28011KT 10SM OVC048 09/00 A2963 450 51 0 300/11 RMK AO2 T00940000
14740KBDL BDL20161201161511112/01/16 16:15:31  5-MIN KBDL 012115Z 28009KT 10SM BKN048 OVC055 09/M01 A2963 440 49 0 300/09 RMK AO2 T00941006
14740KBDL BDL20161201162010312/01/16 16:20:31  5-MIN KBDL 012120Z 28008KT 10SM OVC049 09/00 A2963 440 51 0 290/08 RMK AO2 T00940000
14740KBDL BDL20161201162511012/01/16 16:25:31  5-MIN KBDL 012125Z 28007KT 10SM BKN047 OVC055 09/00 A2963 440 51 0 290/07 RMK AO2 T00940000
14740KBDL BDL20161201163010612/01/16 16:30:31  5-MIN KBDL 012130Z 29006KT 10SM OVC049 09/00 A2963 440 53 -100 300/06 RMK AO2 T00890000
14740KBDL BDL20161201163511312/01/16 16:35:31  5-MIN KBDL 012135Z 28006KT 10SM BKN045 OVC055 09/00 A2964 440 53 -100 300/06 RMK AO2 T00890000
14740KBDL BDL20161201164011312/01/16 16:40:31  5-MIN KBDL 012140Z 27005KT 10SM SCT043 OVC050 09/00 A2964 440 53 -100 290/05 RMK AO2 T00890000
14740KBDL BDL20161201164512012/01/16 16:45:31  5-MIN KBDL 012145Z 27004KT 10SM FEW043 OVC050 09/00 A2964 440 53 -100 280/04 RMK AO2 SLP036 T00890000
14740KBDL BDL20161201165012012/01/16 16:50:31  5-MIN KBDL 012150Z 26004KT 10SM FEW043 OVC050 09/00 A2964 440 53 -100 280/04 RMK AO2 SLP037 T00890000
14740KBDL BDL20161201165511312/01/16 16:55:31  5-MIN KBDL 012155Z 25004KT 10SM FEW043 OVC055 09/00 A2964 440 53 -100 260/04 RMK AO2 T00890000
14740KBDL BDL20161201170011312/01/16 17:00:31  5-MIN KBDL 012200Z 24006KT 10SM FEW043 OVC055 09/01 A2964 430 56 -100 250/06 RMK AO2 T00890006
14740KBDL BDL20161201170511312/01/16 17:05:31  5-MIN KBDL 012205Z 25005KT 10SM SCT043 OVC055 09/00 A2964 430 53 -100 270/05 RMK AO2 T00890000
14740KBDL BDL20161201171011312/01/16 17:10:31  5-MIN KBDL 012210Z 27007KT 10SM SCT047 OVC060 09/00 A2965 430 53 -100 280/07 RMK AO2 T00890000
14740KBDL BDL20161201171511312/01/16 17:15:31  5-MIN KBDL 012215Z 27007KT 10SM SCT047 OVC060 09/00 A2965 430 53 -100 280/07 RMK AO2 T00890000
14740KBDL BDL20161201172011312/01/16 17:20:31  5-MIN KBDL 012220Z 27008KT 10SM FEW047 OVC060 09/00 A2965 430 53 -100 280/08 RMK AO2 T00890000
14740KBDL BDL20161201172511312/01/16 17:25:31  5-MIN KBDL 012225Z 27009KT 10SM FEW047 OVC060 09/00 A2965 420 53 -100 280/09 RMK AO2 T00890000
14740KBDL BDL20161201173011312/01/16 17:30:31  5-MIN KBDL 012230Z 27007KT 10SM FEW046 OVC060 09/00 A2965 420 53 -100 280/07 RMK AO2 T00890000
14740KBDL BDL20161201173511312/01/16 17:35:31  5-MIN KBDL 012235Z 26006KT 10SM SCT047 OVC060 09/00 A2966 420 53 -100 280/06 RMK AO2 T00890000
14740KBDL BDL20161201174011312/01/16 17:40:31  5-MIN KBDL 012240Z 25006KT 10SM SCT045 OVC060 08/00 A2966 420 55 -200 260/06 RMK AO2 T00830000
14740KBDL BDL20161201174512012/01/16 17:45:31  5-MIN KBDL 012245Z 24007KT 10SM BKN045 OVC060 09/00 A2966 420 53 -100 250/07 RMK AO2 SLP043 T00890000
14740KBDL BDL20161201175014212/01/16 17:50:31  5-MIN KBDL 012250Z 27010G16KT 10SM -DZ BKN043 OVC060 09/01 A2966 420 56 -100 290/10G16 RMK AO2 SLP044 DZB30 P0000 T00890006
14740KBDL BDL20161201175513612/01/16 17:55:31  5-MIN KBDL 012255Z 27009G16KT 10SM -DZ BKN043 BKN049 OVC060 09/01 A2966 420 56 -100 290/09G16 RMK AO2 P0000 T00890006
14740KBDL BDL20161201180012312/01/16 18:00:31  5-MIN KBDL 012300Z 27008KT 10SM -DZ BKN043 OVC049 08/01 A2966 420 58 -200 280/08 RMK AO2 P0000 T00830006
14740KBDL BDL20161201180512312/01/16 18:05:31  5-MIN KBDL 012305Z 28009KT 10SM -DZ BKN043 OVC050 08/01 A2966 420 58 -200 300/09 RMK AO2 P0000 T00830006
14740KBDL BDL20161201181013812/01/16 18:10:31  5-MIN KBDL 012310Z 26010KT 10SM -RA BKN043 OVC050 08/01 A2966 420 60 -200 270/10 RMK AO2 DZE2253RAB2253 P0000 T00830011
14740KBDL BDL20161201181513112/01/16 18:15:31  5-MIN KBDL 012315Z 28011KT 10SM -RA OVC043 08/01 A2967 410 60 -200 290/11 RMK AO2 DZE2253RAB2253 P0000 T00830011
14740KBDL BDL20161201182013712/01/16 18:20:31  5-MIN KBDL 012320Z 28015G20KT 10SM -RA OVC043 08/01 A2967 410 60 -200 290/15G20 RMK AO2 DZE2253RAB2253 P0000 T00830011
14740KBDL BDL20161201182516812/01/16 18:25:31  5-MIN KBDL 012325Z 30025G35KT 7SM -RA SCT035 OVC043 07/01 A2968 400 65 -400 320/25G35 RMK AO2 PK WND 30035/2324 PRESRR DZE2253RAB2253 P0000 T00720011
14740KBDL BDL20161201183016012/01/16 18:30:31  5-MIN KBDL 012330Z 28015G35KT 5SM RA SCT034 OVC043 06/02 A2968 400 73 -500 300/15G35 RMK AO2 PK WND 30035/2324 DZE2253RAB2253 P0001 T00610017
14740KBDL BDL20161201183515512/01/16 18:35:31  5-MIN KBDL 012335Z 27012KT 7SM -RA SCT034 OVC045 06/02 A2968 400 73 -500 290/12 RMK AO2 PK WND 30035/2324 DZE2253RAB2253 P0001 T00610017
14740KBDL BDL20161201184016312/01/16 18:40:31  5-MIN KBDL 012340Z 27009KT 10SM -RA FEW032 BKN045 OVC055 06/02 A2968 400 73 -500 290/09 RMK AO2 PK WND 30035/2324 DZE2253RAB2253 P0001 T00610017
14740KBDL BDL20161201184519312/01/16 18:45:31  5-MIN KBDL 012345Z 27010KT 10SM FEW032 BKN045 OVC055 06/02 A2969 390 73 -500 290/10 RMK AO2 PK WND 30035/2324 SLP053 DZE2253RAB2253E33 P0001 60001 T00610017 10128 20061 52021
14740KBDL BDL20161201185019312/01/16 18:50:31  5-MIN KBDL 012350Z 27010KT 10SM FEW032 SCT046 OVC055 06/02 A2969 390 73 -500 290/10 RMK AO2 PK WND 30035/2324 SLP054 DZE2253RAB2253E33 P0001 60001 T00610017 10128 20061 52021
14740KBDL BDL20161201185511312/01/16 18:55:31  5-MIN KBDL 012355Z 27011KT 10SM FEW046 OVC060 06/02 A2969 390 73 -500 290/11 RMK AO2 T00610017
14740KBDL BDL20161201190011312/01/16 19:00:31  5-MIN KBDL 020000Z 28010KT 10SM FEW048 OVC060 06/02 A2969 390 73 -500 290/10 RMK AO2 T00610017
14740KBDL BDL20161201190510612/01/16 19:05:31  5-MIN KBDL 020005Z 28011KT 10SM OVC065 06/02 A2969 390 73 -500 290/11 RMK AO2 T00610017
14740KBDL BDL20161201191010612/01/16 19:10:31  5-MIN KBDL 020010Z 27012KT 10SM OVC065 06/02 A2969 390 73 -500 280/12 RMK AO2 T00610017
14740KBDL BDL20161201191510612/01/16 19:15:31  5-MIN KBDL 020015Z 27012KT 10SM OVC070 06/01 A2970 390 70 -500 290/12 RMK AO2 T00610011
14740KBDL BDL20161201192011212/01/16 19:20:31  5-MIN KBDL 020020Z 28013G18KT 10SM OVC070 06/01 A2970 390 70 -500 300/13G18 RMK AO2 T00610011
14740KBDL BDL20161201192511212/01/16 19:25:31  5-MIN KBDL 020025Z 28011G18KT 10SM BKN070 06/01 A2970 380 70 -500 290/11G18 RMK AO2 T00610011
14740KBDL BDL20161201193010612/01/16 19:30:31  5-MIN KBDL 020030Z 28008KT 10SM BKN070 06/01 A2970 380 73 -600 300/08 RMK AO2 T00560011
14740KBDL BDL20161201193510612/01/16 19:35:31  5-MIN KBDL 020035Z 28007KT 10SM SCT075 06/01 A2970 380 70 -600 290/07 RMK AO2 T00560006
14740KBDL BDL20161201194010612/01/16 19:40:31  5-MIN KBDL 020040Z 29006KT 10SM FEW075 06/01 A2971 380 70 -600 300/06 RMK AO2 T00560006
14740KBDL BDL20161201194511312/01/16 19:45:31  5-MIN KBDL 020045Z 28004KT 10SM FEW075 05/01 A2971 370 73 -700 290/04 RMK AO2 SLP061 T00500006
14740KBDL BDL20161201195011012/01/16 19:50:31  5-MIN KBDL 020050Z 00000KT 10SM CLR 06/01 A2971 370 70 -600 000/00 RMK AO2 SLP061 T00560006
14740KBDL BDL20161201195510312/01/16 19:55:31  5-MIN KBDL 020055Z 00000KT 10SM CLR 05/01 A2971 370 73 -700 000/00 RMK AO2 T00500006
14740KBDL BDL20161201200010312/01/16 20:00:31  5-MIN KBDL 020100Z 00000KT 10SM CLR 05/01 A2971 370 73 -700 000/00 RMK AO2 T00500006
14740KBDL BDL20161201200510312/01/16 20:05:31  5-MIN KBDL 020105Z 00000KT 10SM CLR 06/01 A2971 370 70 -600 000/00 RMK AO2 T00560006
14740KBDL BDL20161201201010312/01/16 20:10:31  5-MIN KBDL 020110Z 00000KT 10SM CLR 06/01 A2972 370 70 -600 000/00 RMK AO2 T00560006
14740KBDL BDL20161201201510312/01/16 20:15:31  5-MIN KBDL 020115Z 00000KT 10SM CLR 06/00 A2972 370 67 -600 000/00 RMK AO2 T00560000
14740KBDL BDL20161201202010312/01/16 20:20:31  5-MIN KBDL 020120Z 00000KT 10SM CLR 06/01 A2972 370 70 -600 000/00 RMK AO2 T00560006
14740KBDL BDL20161201202510312/01/16 20:25:31  5-MIN KBDL 020125Z 00000KT 10SM CLR 05/00 A2972 360 70 -700 000/00 RMK AO2 T00500000
14740KBDL BDL20161201203010312/01/16 20:30:31  5-MIN KBDL 020130Z 00000KT 10SM CLR 05/01 A2972 360 73 -700 000/00 RMK AO2 T00500006
14740KBDL BDL20161201203510312/01/16 20:35:31  5-MIN KBDL 020135Z 00000KT 10SM CLR 04/01 A2972 360 76 -700 000/00 RMK AO2 T00440006
14740KBDL BDL20161201204010312/01/16 20:40:31  5-MIN KBDL 020140Z 00000KT 10SM CLR 05/01 A2972 360 73 -700 000/00 RMK AO2 T00500006
14740KBDL BDL20161201204511012/01/16 20:45:31  5-MIN KBDL 020145Z 00000KT 10SM CLR 05/01 A2973 360 73 -700 000/00 RMK AO2 SLP067 T00500006
14740KBDL BDL20161201205011012/01/16 20:50:31  5-MIN KBDL 020150Z 00000KT 10SM CLR 05/01 A2973 360 73 -700 000/00 RMK AO2 SLP067 T00500006
14740KBDL BDL20161201205510312/01/16 20:55:31  5-MIN KBDL 020155Z 00000KT 10SM CLR 05/01 A2973 350 76 -700 000/00 RMK AO2 T00500011
14740KBDL BDL20161201210010312/01/16 21:00:31  5-MIN KBDL 020200Z 00000KT 10SM CLR 04/01 A2973 350 79 -800 000/00 RMK AO2 T00390006
14740KBDL BDL20161201210510312/01/16 21:05:31  5-MIN KBDL 020205Z 21003KT 10SM CLR 05/01 A2973 350 73 -700 220/03 RMK AO2 T00500006
14740KBDL BDL20161201211010312/01/16 21:10:31  5-MIN KBDL 020210Z 25003KT 10SM CLR 04/01 A2974 350 76 -800 260/03 RMK AO2 T00440006
14740KBDL BDL20161201211510312/01/16 21:15:31  5-MIN KBDL 020215Z 26003KT 10SM CLR 04/01 A2974 350 76 -800 280/03 RMK AO2 T00440006
14740KBDL BDL20161201212010312/01/16 21:20:31  5-MIN KBDL 020220Z 00000KT 10SM CLR 04/01 A2973 350 79 -800 000/00 RMK AO2 T00390006
14740KBDL BDL20161201212510412/01/16 21:25:31  5-MIN KBDL 020225Z 00000KT 10SM CLR 03/01 A2973 350 85 -1000 000/00 RMK AO2 T00280006
14740KBDL BDL20161201213010312/01/16 21:30:31  5-MIN KBDL 020230Z 26005KT 10SM CLR 03/01 A2973 350 82 -900 270/05 RMK AO2 T00330006
14740KBDL BDL20161201213510312/01/16 21:35:31  5-MIN KBDL 020235Z 24004KT 10SM CLR 04/00 A2973 350 76 -800 260/04 RMK AO2 T00390000
14740KBDL BDL20161201214010312/01/16 21:40:31  5-MIN KBDL 020240Z 25005KT 10SM CLR 04/01 A2973 350 79 -800 260/05 RMK AO2 T00390006
14740KBDL BDL20161201214511612/01/16 21:45:31  5-MIN KBDL 020245Z 25006KT 10SM CLR 04/01 A2973 350 79 -800 260/06 RMK AO2 SLP069 T00390006 53021
14740KBDL BDL20161201215012612/01/16 21:50:31  5-MIN KBDL 020250Z 24005KT 10SM FEW034 FEW070 03/00 A2973 350 79 -900 250/05 RMK AO2 SLP069 T00330000 53021
14740KBDL BDL20161201215510312/01/16 21:55:31  5-MIN KBDL 020255Z 24005KT 10SM CLR 03/00 A2973 350 79 -900 250/05 RMK AO2 T00330000
14740KBDL BDL20161201220010312/01/16 22:00:31  5-MIN KBDL 020300Z 24005KT 10SM CLR 03/00 A2973 350 79 -900 250/05 RMK AO2 T00330000
14740KBDL BDL20161201220510412/01/16 22:05:31  5-MIN KBDL 020305Z 24004KT 10SM CLR 04/M01 A2973 350 73 -800 250/04 RMK AO2 T00391006
14740KBDL BDL20161201221010412/01/16 22:10:31  5-MIN KBDL 020310Z 24005KT 10SM CLR 04/M01 A2974 350 70 -800 250/05 RMK AO2 T00391011
14740KBDL BDL20161201221510412/01/16 22:15:31  5-MIN KBDL 020315Z 25005KT 10SM CLR 04/M01 A2974 350 73 -800 260/05 RMK AO2 T00391006
14740KBDL BDL20161201222010412/01/16 22:20:31  5-MIN KBDL 020320Z 25005KT 10SM CLR 03/M01 A2974 340 72 -900 260/05 RMK AO2 T00331011
14740KBDL BDL20161201222510412/01/16 22:25:31  5-MIN KBDL 020325Z 25006KT 10SM CLR 03/M01 A2974 340 72 -900 270/06 RMK AO2 T00331011
14740KBDL BDL20161201223010412/01/16 22:30:31  5-MIN KBDL 020330Z 25005KT 10SM CLR 03/M01 A2974 340 72 -900 260/05 RMK AO2 T00331011
14740KBDL BDL20161201223510412/01/16 22:35:31  5-MIN KBDL 020335Z 25006KT 10SM CLR 03/M01 A2974 340 72 -900 260/06 RMK AO2 T00331011
14740KBDL BDL20161201224010412/01/16 22:40:31  5-MIN KBDL 020340Z 26006KT 10SM CLR 03/M01 A2975 340 72 -900 270/06 RMK AO2 T00331011
14740KBDL BDL20161201224511212/01/16 22:45:31  5-MIN KBDL 020345Z 25006KT 10SM CLR 03/M02 A2975 340 72 -1000 270/06 RMK AO2 SLP074 T00281017
14740KBDL BDL20161201225012212/01/16 22:50:31  5-MIN KBDL 020350Z 25006KT 10SM FEW040 FEW070 03/M01 A2975 330 75 -1000 260/06 RMK AO2 SLP074 T00281011
14740KBDL BDL20161201225510512/01/16 22:55:31  5-MIN KBDL 020355Z 24006KT 10SM CLR 03/M01 A2975 330 75 -1000 250/06 RMK AO2 T00281011
14740KBDL BDL20161201230010512/01/16 23:00:31  5-MIN KBDL 020400Z 24005KT 10SM CLR 02/M01 A2975 330 78 -1100 250/05 RMK AO2 T00221011
14740KBDL BDL20161201230510712/01/16 23:05:31  5-MIN KBDL 020405Z 23006KT 10SM FEW065 03/M01 A2975 330 72 -900 240/06 RMK AO2 T00331011
14740KBDL BDL20161201231010712/01/16 23:10:31  5-MIN KBDL 020410Z 23006KT 10SM SCT065 03/M01 A2975 330 72 -900 240/06 RMK AO2 T00331011
14740KBDL BDL20161201231510712/01/16 23:15:31  5-MIN KBDL 020415Z 23007KT 10SM BKN065 03/M01 A2975 330 72 -900 250/07 RMK AO2 T00331011
14740KBDL BDL20161201232010712/01/16 23:20:31  5-MIN KBDL 020420Z 23006KT 10SM BKN065 03/M01 A2975 330 72 -900 250/06 RMK AO2 T00331011
14740KBDL BDL20161201232510712/01/16 23:25:31  5-MIN KBDL 020425Z 23006KT 10SM SCT065 03/M01 A2975 330 72 -900 250/06 RMK AO2 T00331011
14740KBDL BDL20161201233010812/01/16 23:30:31  5-MIN KBDL 020430Z 24007KT 10SM SCT065 03/M02 A2975 330 72 -1000 260/07 RMK AO2 T00281017
14740KBDL BDL20161201233510812/01/16 23:35:31  5-MIN KBDL 020435Z 25009KT 10SM FEW065 03/M01 A2975 330 75 -1000 260/09 RMK AO2 T00281011
14740KBDL BDL20161201234010812/01/16 23:40:31  5-MIN KBDL 020440Z 25010KT 10SM FEW065 02/M02 A2975 340 75 -1000 270/10 RMK AO2 T00221017
14740KBDL BDL20161201234512212/01/16 23:45:31  5-MIN KBDL 020445Z 25010KT 10SM CLR 03/M01 A2975 340 75 -1000 260/10 RMK AO2 SLP074 T00281011 401390022
14740KBDL BDL20161201235012512/01/16 23:50:31  5-MIN KBDL 020450Z 25009KT 10SM FEW065 03/M01 A2975 340 75 -1000 270/09 RMK AO2 SLP074 T00281011 401390022
14740KBDL BDL20161201235510512/01/16 23:55:31  5-MIN KBDL 020455Z 25009KT 10SM CLR 03/M01 A2975 340 75 -1000 270/09 RMK AO2 T00281011
14740KBDL BDL20161202000010512/02/16 00:00:31  5-MIN KBDL 020500Z 25008KT 10SM CLR 03/M01 A2975 340 75 -1000 260/08 RMK AO2 T00281011
14740KBDL BDL20161202000510812/02/16 00:05:31  5-MIN KBDL 020505Z 25008KT 10SM FEW055 03/M01 A2974 340 75 -1000 260/08 RMK AO2 T00281011
14740KBDL BDL20161202001010812/02/16 00:10:31  5-MIN KBDL 020510Z 25007KT 10SM SCT055 03/M01 A2974 340 75 -1000 260/07 RMK AO2 T00281011
14740KBDL BDL20161202001510812/02/16 00:15:31  5-MIN KBDL 020515Z 26007KT 10SM BKN055 03/M01 A2974 340 75 -1000 270/07 RMK AO2 T00281011
14740KBDL BDL20161202002010712/02/16 00:20:31  5-MIN KBDL 020520Z 25008KT 10SM BKN050 03/M01 A2974 340 72 -900 260/08 RMK AO2 T00331011
14740KBDL BDL20161202002510812/02/16 00:25:31  5-MIN KBDL 020525Z 25007KT 10SM SCT050 03/M01 A2974 340 75 -1000 270/07 RMK AO2 T00281011
14740KBDL BDL20161202003010812/02/16 00:30:31  5-MIN KBDL 020530Z 24005KT 10SM SCT055 03/M01 A2975 340 75 -1000 260/05 RMK AO2 T00281011
14740KBDL BDL20161202003510812/02/16 00:35:31  5-MIN KBDL 020535Z 24005KT 10SM SCT055 03/M02 A2975 330 72 -1000 250/05 RMK AO2 T00281017
14740KBDL BDL20161202004010812/02/16 00:40:31  5-MIN KBDL 020540Z 24005KT 10SM SCT050 03/M02 A2976 330 72 -1000 250/05 RMK AO2 T00281017
14740KBDL BDL20161202004513212/02/16 00:45:31  5-MIN KBDL 020545Z 26005KT 10SM FEW050 03/M02 A2976 330 70 -900 270/05 RMK AO2 SLP077 T00331017 10061 20022 51015
14740KBDL BDL20161202005014012/02/16 00:50:31  5-MIN KBDL 020550Z 27005KT 10SM FEW050 FEW065 03/M02 A2975 330 72 -1000 280/05 RMK AO2 SLP075 T00281017 10061 20022 51015
14740KBDL BDL20161202005510512/02/16 00:55:31  5-MIN KBDL 020555Z 27006KT 10SM CLR 03/M02 A2975 330 72 -1000 290/06 RMK AO2 T00281017
14740KBDL BDL20161202010010512/02/16 01:00:31  5-MIN KBDL 020600Z 27006KT 10SM CLR 03/M02 A2975 330 72 -1000 290/06 RMK AO2 T00281017
14740KBDL BDL20161202010510512/02/16 01:05:31  5-MIN KBDL 020605Z 27005KT 10SM CLR 03/M02 A2976 330 72 -1000 290/05 RMK AO2 T00281017
14740KBDL BDL20161202011010512/02/16 01:10:31  5-MIN KBDL 020610Z 28004KT 10SM CLR 03/M02 A2976 330 72 -1000 290/04 RMK AO2 T00281017
14740KBDL BDL20161202011510512/02/16 01:15:31  5-MIN KBDL 020615Z 27003KT 10SM CLR 02/M02 A2976 330 75 -1100 290/03 RMK AO2 T00221017
14740KBDL BDL20161202012010512/02/16 01:20:31  5-MIN KBDL 020620Z 27003KT 10SM CLR 02/M02 A2976 320 75 -1100 280/03 RMK AO2 T00221017
14740KBDL BDL20161202012510512/02/16 01:25:31  5-MIN KBDL 020625Z 26003KT 10SM CLR 02/M02 A2976 320 78 -1100 280/03 RMK AO2 T00171017
14740KBDL BDL20161202013010512/02/16 01:30:31  5-MIN KBDL 020630Z 25003KT 10SM CLR 02/M02 A2976 320 75 -1100 260/03 RMK AO2 T00171022
14740KBDL BDL20161202013510512/02/16 01:35:31  5-MIN KBDL 020635Z 24004KT 10SM CLR 02/M02 A2977 320 75 -1100 260/04 RMK AO2 T00221017
14740KBDL BDL20161202014010512/02/16 01:40:31  5-MIN KBDL 020640Z 24005KT 10SM CLR 02/M02 A2977 320 75 -1100 250/05 RMK AO2 T00221017
14740KBDL BDL20161202014511212/02/16 01:45:31  5-MIN KBDL 020645Z 23005KT 10SM CLR 02/M02 A2977 320 75 -1100 250/05 RMK AO2 SLP081 T00221017
14740KBDL BDL20161202015011512/02/16 01:50:31  5-MIN KBDL 020650Z 23005KT 10SM FEW055 03/M02 A2977 310 72 -1000 240/05 RMK AO2 SLP082 T00281017
14740KBDL BDL20161202015510512/02/16 01:55:31  5-MIN KBDL 020655Z 23005KT 10SM CLR 02/M02 A2977 310 75 -1100 240/05 RMK AO2 T00221017
14740KBDL BDL20161202020010512/02/16 02:00:31  5-MIN KBDL 020700Z 22006KT 10SM CLR 02/M02 A2978 310 72 -1100 230/06 RMK AO2 T00221022
14740KBDL BDL20161202020510512/02/16 02:05:31  5-MIN KBDL 020705Z 22006KT 10SM CLR 03/M02 A2978 310 72 -1000 230/06 RMK AO2 T00281017
14740KBDL BDL20161202021010512/02/16 02:10:31  5-MIN KBDL 020710Z 22006KT 10SM CLR 02/M02 A2978 310 72 -1100 230/06 RMK AO2 T00221022
14740KBDL BDL20161202021510512/02/16 02:15:31  5-MIN KBDL 020715Z 22007KT 10SM CLR 03/M02 A2978 310 69 -1000 240/07 RMK AO2 T00281022
14740KBDL BDL20161202022010512/02/16 02:20:31  5-MIN KBDL 020720Z 22007KT 10SM CLR 02/M02 A2978 310 72 -1100 240/07 RMK AO2 T00221022
14740KBDL BDL20161202022510512/02/16 02:25:31  5-MIN KBDL 020725Z 23006KT 10SM CLR 02/M02 A2978 310 75 -1100 240/06 RMK AO2 T00221017
14740KBDL BDL20161202023010512/02/16 02:30:31  5-MIN KBDL 020730Z 23007KT 10SM CLR 02/M02 A2978 310 72 -1100 250/07 RMK AO2 T00221022
14740KBDL BDL20161202023510512/02/16 02:35:31  5-MIN KBDL 020735Z 24007KT 10SM CLR 02/M02 A2978 310 72 -1100 250/07 RMK AO2 T00221022
14740KBDL BDL20161202024010512/02/16 02:40:31  5-MIN KBDL 020740Z 24007KT 10SM CLR 01/M02 A2978 310 78 -1200 250/07 RMK AO2 T00111022
14740KBDL BDL20161202024511212/02/16 02:45:31  5-MIN KBDL 020745Z 23007KT 10SM CLR 01/M02 A2978 310 78 -1200 240/07 RMK AO2 SLP084 T00111022
14740KBDL BDL20161202025011212/02/16 02:50:31  5-MIN KBDL 020750Z 22008KT 10SM CLR 02/M02 A2978 300 72 -1100 240/08 RMK AO2 SLP086 T00221022
14740KBDL BDL20161202025510512/02/16 02:55:31  5-MIN KBDL 020755Z 23006KT 10SM CLR 02/M02 A2979 300 72 -1100 240/06 RMK AO2 T00221022
14740KBDL BDL20161202030010512/02/16 03:00:31  5-MIN KBDL 020800Z 24005KT 10SM CLR 02/M02 A2978 300 72 -1100 250/05 RMK AO2 T00221022
14740KBDL BDL20161202030510512/02/16 03:05:31  5-MIN KBDL 020805Z 24007KT 10SM CLR 02/M02 A2978 300 75 -1200 250/07 RMK AO2 T00171022
14740KBDL BDL20161202031010512/02/16 03:10:31  5-MIN KBDL 020810Z 24007KT 10SM CLR 01/M02 A2978 310 78 -1200 260/07 RMK AO2 T00111022
14740KBDL BDL20161202031510512/02/16 03:15:31  5-MIN KBDL 020815Z 24007KT 10SM CLR 01/M02 A2978 300 82 -1300 260/07 RMK AO2 T00061022
14740KBDL BDL20161202032010512/02/16 03:20:31  5-MIN KBDL 020820Z 24007KT 10SM CLR 01/M02 A2978 300 82 -1300 260/07 RMK AO2 T00061022
14740KBDL BDL20161202032510512/02/16 03:25:31  5-MIN KBDL 020825Z 25008KT 10SM CLR 01/M02 A2978 300 82 -1300 270/08 RMK AO2 T00061022
14740KBDL BDL20161202033010512/02/16 03:30:31  5-MIN KBDL 020830Z 25009KT 10SM CLR 01/M02 A2978 300 78 -1200 260/09 RMK AO2 T00111022
14740KBDL BDL20161202033510512/02/16 03:35:31  5-MIN KBDL 020835Z 25008KT 10SM CLR 02/M02 A2979 300 75 -1200 260/08 RMK AO2 T00171022
14740KBDL BDL20161202034010512/02/16 03:40:31  5-MIN KBDL 020840Z 24007KT 10SM CLR 02/M02 A2979 300 75 -1200 250/07 RMK AO2 T00171022
14740KBDL BDL20161202034511812/02/16 03:45:31  5-MIN KBDL 020845Z 24007KT 10SM CLR 02/M02 A2979 300 75 -1200 250/07 RMK AO2 SLP088 T00171022 51007
14740KBDL BDL20161202035012112/02/16 03:50:31  5-MIN KBDL 020850Z 23006KT 10SM FEW250 02/M02 A2979 300 75 -1200 250/06 RMK AO2 SLP088 T00171022 51007
14740KBDL BDL20161202035510512/02/16 03:55:31  5-MIN KBDL 020855Z 23006KT 10SM CLR 02/M02 A2979 300 72 -1100 250/06 RMK AO2 T00221022
14740KBDL BDL20161202040010512/02/16 04:00:31  5-MIN KBDL 020900Z 23004KT 10SM CLR 02/M02 A2979 290 75 -1200 250/04 RMK AO2 T00171022
14740KBDL BDL20161202040510512/02/16 04:05:31  5-MIN KBDL 020905Z 22003KT 10SM CLR 01/M02 A2979 290 78 -1200 230/03 RMK AO2 T00111022
14740KBDL BDL20161202041010512/02/16 04:10:31  5-MIN KBDL 020910Z 00000KT 10SM CLR 02/M02 A2980 290 72 -1100 000/00 RMK AO2 T00221022
14740KBDL BDL20161202041510512/02/16 04:15:31  5-MIN KBDL 020915Z 00000KT 10SM CLR 02/M03 A2980 290 72 -1200 000/00 RMK AO2 T00171028
14740KBDL BDL20161202042010512/02/16 04:20:31  5-MIN KBDL 020920Z 00000KT 10SM CLR 02/M03 A2980 290 69 -1100 000/00 RMK AO2 T00221028
14740KBDL BDL20161202042510512/02/16 04:25:31  5-MIN KBDL 020925Z 00000KT 10SM CLR 03/M02 A2980 290 67 -1000 000/00 RMK AO2 T00331022
14740KBDL BDL20161202043010512/02/16 04:30:31  5-MIN KBDL 020930Z 00000KT 10SM CLR 03/M02 A2980 290 69 -1000 000/00 RMK AO2 T00281022
14740KBDL BDL20161202043510512/02/16 04:35:31  5-MIN KBDL 020935Z 20003KT 10SM CLR 02/M03 A2980 290 69 -1100 210/03 RMK AO2 T00221028
14740KBDL BDL20161202044010512/02/16 04:40:31  5-MIN KBDL 020940Z 20005KT 10SM CLR 01/M03 A2980 290 75 -1200 220/05 RMK AO2 T00111028
14740KBDL BDL20161202044511212/02/16 04:45:31  5-MIN KBDL 020945Z 19006KT 10SM CLR 00/M03 A2980 290 78 -1400 210/06 RMK AO2 SLP093 T00001033
14740KBDL BDL20161202045012212/02/16 04:50:31  5-MIN KBDL 020950Z 17005KT 10SM FEW060 FEW250 01/M03 A2980 280 78 -1300 180/05 RMK AO2 SLP093 T00061028
14740KBDL BDL20161202045510512/02/16 04:55:31  5-MIN KBDL 020955Z 18006KT 10SM CLR 00/M03 A2980 280 81 -1400 190/06 RMK AO2 T00001028
14740KBDL BDL20161202050010512/02/16 05:00:31  5-MIN KBDL 021000Z 19005KT 10SM CLR 01/M03 A2981 280 78 -1300 200/05 RMK AO2 T00061028
14740KBDL BDL20161202050510512/02/16 05:05:31  5-MIN KBDL 021005Z 21005KT 10SM CLR 01/M02 A2981 280 78 -1300 220/05 RMK AO2 T00111022
14740KBDL BDL20161202051010512/02/16 05:10:31  5-MIN KBDL 021010Z 22005KT 10SM CLR 02/M02 A2981 280 72 -1100 240/05 RMK AO2 T00221022
14740KBDL BDL20161202051510512/02/16 05:15:31  5-MIN KBDL 021015Z 22005KT 10SM CLR 02/M02 A2981 280 75 -1200 230/05 RMK AO2 T00171022
14740KBDL BDL20161202052010512/02/16 05:20:31  5-MIN KBDL 021020Z 23005KT 10SM CLR 02/M02 A2981 280 75 -1200 240/05 RMK AO2 T00171022
14740KBDL BDL20161202052510512/02/16 05:25:31  5-MIN KBDL 021025Z 22005KT 10SM CLR 01/M02 A2981 280 82 -1300 230/05 RMK AO2 T00061022
14740KBDL BDL20161202053010512/02/16 05:30:31  5-MIN KBDL 021030Z 24004KT 10SM CLR 01/M03 A2981 280 78 -1300 250/04 RMK AO2 T00061028
14740KBDL BDL20161202053510512/02/16 05:35:31  5-MIN KBDL 021035Z 26004KT 10SM CLR 01/M03 A2981 280 78 -1300 280/04 RMK AO2 T00061028
14740KBDL BDL20161202054010812/02/16 05:40:31  5-MIN KBDL 021040Z 35003KT 10SM SCT060 00/M03 A2981 280 81 -1400 360/03 RMK AO2 T00001028
14740KBDL BDL20161202054511512/02/16 05:45:31  5-MIN KBDL 021045Z VRB03KT 10SM BKN060 00/M03 A2981 280 81 -1400 VRB/03 RMK AO2 SLP096 T00001028
14740KBDL BDL20161202055012212/02/16 05:50:31  5-MIN KBDL 021050Z 00000KT 10SM SCT060 BKN250 00/M03 A2981 280 81 -1400 000/00 RMK AO2 SLP096 T00001028
14740KBDL BDL20161202055510812/02/16 05:55:31  5-MIN KBDL 021055Z 28004KT 10SM BKN060 01/M03 A2981 280 78 -1300 300/04 RMK AO2 T00061028
14740KBDL BDL20161202060010812/02/16 06:00:31  5-MIN KBDL 021100Z 27007KT 10SM BKN060 02/M02 A2981 280 75 -1200 280/07 RMK AO2 T00171022
14740KBDL BDL20161202060510812/02/16 06:05:31  5-MIN KBDL 021105Z 26007KT 10SM SCT060 02/M02 A2981 280 75 -1200 270/07 RMK AO2 T00171022
14740KBDL BDL20161202061010812/02/16 06:10:31  5-MIN KBDL 021110Z 25007KT 10SM SCT060 02/M02 A2981 280 75 -1200 260/07 RMK AO2 T00171022
14740KBDL BDL20161202061510812/02/16 06:15:31  5-MIN KBDL 021115Z 24007KT 10SM FEW060 02/M02 A2981 280 72 -1100 250/07 RMK AO2 T00221022
14740KBDL BDL20161202062010812/02/16 06:20:31  5-MIN KBDL 021120Z 24006KT 10SM FEW060 02/M02 A2981 270 75 -1200 250/06 RMK AO2 T00171022
14740KBDL BDL20161202062510812/02/16 06:25:31  5-MIN KBDL 021125Z 24007KT 10SM FEW060 02/M02 A2981 270 75 -1200 260/07 RMK AO2 T00171022
14740KBDL BDL20161202063010812/02/16 06:30:31  5-MIN KBDL 021130Z 24006KT 10SM SCT060 02/M02 A2982 270 75 -1200 260/06 RMK AO2 T00171022
14740KBDL BDL20161202063510812/02/16 06:35:31  5-MIN KBDL 021135Z 24006KT 10SM SCT060 01/M02 A2982 270 78 -1300 250/06 RMK AO2 T00111022
14740KBDL BDL20161202064010812/02/16 06:40:31  5-MIN KBDL 021140Z 23005KT 10SM FEW060 02/M02 A2982 270 75 -1200 240/05 RMK AO2 T00171022
14740KBDL BDL20161202064513912/02/16 06:45:31  5-MIN KBDL 021145Z 22003KT 10SM FEW060 02/M02 A2982 270 75 -1200 240/03 RMK AO2 SLP099 70001 T00171022 10033 20000 51013
14740KBDL BDL20161202065013912/02/16 06:50:31  5-MIN KBDL 021150Z 22004KT 10SM FEW060 03/M02 A2982 270 69 -1100 230/04 RMK AO2 SLP099 70001 T00281022 10033 20000 51013
14740KBDL BDL20161202065510812/02/16 06:55:31  5-MIN KBDL 021155Z 21004KT 10SM FEW060 03/M02 A2982 270 69 -1100 220/04 RMK AO2 T00281022
14740KBDL BDL20161202070010512/02/16 07:00:31  5-MIN KBDL 021200Z 18005KT 10SM CLR 01/M03 A2982 260 78 -1300 190/05 RMK AO2 T00061028
14740KBDL BDL20161202070510612/02/16 07:05:31  5-MIN KBDL 021205Z 20005KT 10SM CLR M01/M03 A2983 260 85 -1500 220/05 RMK AO2 T10061028
14740KBDL BDL20161202071010512/02/16 07:10:31  5-MIN KBDL 021210Z 22006KT 10SM CLR 01/M02 A2983 260 78 -1300 230/06 RMK AO2 T00111022
14740KBDL BDL20161202071510512/02/16 07:15:31  5-MIN KBDL 021215Z 22005KT 10SM CLR 02/M02 A2983 260 75 -1200 240/05 RMK AO2 T00171022
14740KBDL BDL20161202072010512/02/16 07:20:31  5-MIN KBDL 021220Z 23005KT 10SM CLR 01/M02 A2983 260 78 -1300 240/05 RMK AO2 T00111022
14740KBDL BDL20161202072510512/02/16 07:25:31  5-MIN KBDL 021225Z 23005KT 10SM CLR 01/M02 A2983 260 78 -1300 240/05 RMK AO2 T00111022
14740KBDL BDL20161202073010512/02/16 07:30:31  5-MIN KBDL 021230Z 23005KT 10SM CLR 02/M02 A2983 260 78 -1200 240/05 RMK AO2 T00171017
14740KBDL BDL20161202073510512/02/16 07:35:31  5-MIN KBDL 021235Z 24005KT 10SM CLR 02/M02 A2983 260 75 -1200 250/05 RMK AO2 T00171022
14740KBDL BDL20161202074010512/02/16 07:40:31  5-MIN KBDL 021240Z 23005KT 10SM CLR 02/M02 A2983 260 75 -1100 240/05 RMK AO2 T00221017
14740KBDL BDL20161202074511212/02/16 07:45:31  5-MIN KBDL 021245Z 24006KT 10SM CLR 02/M02 A2983 260 75 -1100 250/06 RMK AO2 SLP104 T00221017
14740KBDL BDL20161202075012212/02/16 07:50:31  5-MIN KBDL 021250Z 24007KT 10SM FEW060 SCT250 02/M02 A2983 260 75 -1100 260/07 RMK AO2 SLP104 T00221017
14740KBDL BDL20161202075510512/02/16 07:55:31  5-MIN KBDL 021255Z 24008KT 10SM CLR 02/M02 A2983 260 75 -1100 250/08 RMK AO2 T00221017
14740KBDL BDL20161202080010512/02/16 08:00:31  5-MIN KBDL 021300Z 24008KT 10SM CLR 02/M02 A2983 260 75 -1100 250/08 RMK AO2 T00221017
14740KBDL BDL20161202080510512/02/16 08:05:31  5-MIN KBDL 021305Z 24009KT 10SM CLR 02/M02 A2983 260 75 -1100 250/09 RMK AO2 T00221017
14740KBDL BDL20161202081010512/02/16 08:10:31  5-MIN KBDL 021310Z 24008KT 10SM CLR 03/M01 A2984 260 75 -1100 260/08 RMK AO2 T00281011
14740KBDL BDL20161202081510512/02/16 08:15:31  5-MIN KBDL 021315Z 25009KT 10SM CLR 03/M01 A2984 260 72 -1000 260/09 RMK AO2 T00331011
14740KBDL BDL20161202082010512/02/16 08:20:31  5-MIN KBDL 021320Z 25009KT 10SM CLR 03/M01 A2983 260 72 -1000 260/09 RMK AO2 T00331011
14740KBDL BDL20161202082510512/02/16 08:25:31  5-MIN KBDL 021325Z 24009KT 10SM CLR 03/M01 A2983 260 72 -1000 250/09 RMK AO2 T00331011
14740KBDL BDL20161202083010412/02/16 08:30:31  5-MIN KBDL 021330Z 23010KT 10SM CLR 04/M01 A2983 260 70 -900 250/10 RMK AO2 T00391011
14740KBDL BDL20161202083510412/02/16 08:35:31  5-MIN KBDL 021335Z 24008KT 10SM CLR 04/M01 A2983 260 70 -900 250/08 RMK AO2 T00391011
14740KBDL BDL20161202084010412/02/16 08:40:31  5-MIN KBDL 021340Z 23008KT 10SM CLR 04/M01 A2983 260 70 -900 240/08 RMK AO2 T00391011
14740KBDL BDL20161202084511112/02/16 08:45:31  5-MIN KBDL 021345Z 24008KT 10SM CLR 04/M01 A2983 260 70 -900 250/08 RMK AO2 SLP103 T00441006
14740KBDL BDL20161202085012112/02/16 08:50:31  5-MIN KBDL 021350Z 23009KT 10SM FEW060 FEW230 04/M01 A2983 260 67 -900 240/09 RMK AO2 SLP103 T00441011
14740KBDL BDL20161202085510412/02/16 08:55:31  5-MIN KBDL 021355Z 23009KT 10SM CLR 05/M01 A2984 250 64 -800 240/09 RMK AO2 T00501011
14740KBDL BDL20161202090010412/02/16 09:00:31  5-MIN KBDL 021400Z 23007KT 10SM CLR 05/M01 A2984 250 64 -800 240/07 RMK AO2 T00501011
14740KBDL BDL20161202090510412/02/16 09:05:31  5-MIN KBDL 021405Z 23008KT 10SM CLR 06/M01 A2984 250 65 -700 250/08 RMK AO2 T00561006
14740KBDL BDL20161202091010412/02/16 09:10:31  5-MIN KBDL 021410Z 24007KT 10SM CLR 06/M01 A2984 250 65 -700 250/07 RMK AO2 T00561006
14740KBDL BDL20161202091510412/02/16 09:15:31  5-MIN KBDL 021415Z 23008KT 10SM CLR 06/M01 A2984 250 65 -700 250/08 RMK AO2 T00561006
14740KBDL BDL20161202092010412/02/16 09:20:31  5-MIN KBDL 021420Z 24007KT 10SM CLR 06/M01 A2984 250 65 -700 250/07 RMK AO2 T00561006
14740KBDL BDL20161202092510412/02/16 09:25:31  5-MIN KBDL 021425Z 24007KT 10SM CLR 06/M01 A2984 250 62 -700 260/07 RMK AO2 T00611006
14740KBDL BDL20161202093010312/02/16 09:30:31  5-MIN KBDL 021430Z 24008KT 10SM CLR 06/00 A2984 250 65 -700 250/08 RMK AO2 T00610000
14740KBDL BDL20161202093510412/02/16 09:35:31  5-MIN KBDL 021435Z 23007KT 10SM CLR 06/M01 A2984 250 62 -700 250/07 RMK AO2 T00611006
14740KBDL BDL20161202094010412/02/16 09:40:31  5-MIN KBDL 021440Z 24007KT 10SM CLR 07/M01 A2984 250 60 -600 260/07 RMK AO2 T00671006
14740KBDL BDL20161202094511712/02/16 09:45:31  5-MIN KBDL 021445Z 23006KT 10SM CLR 07/M01 A2984 250 60 -600 240/06 RMK AO2 SLP105 T00671006 51010
14740KBDL BDL20161202095013312/02/16 09:50:31  5-MIN KBDL 021450Z 23005KT 10SM FEW060 FEW220 SCT250 07/00 A2984 250 60 -500 250/05 RMK AO2 SLP104 T00720000 51010
14740KBDL BDL20161202095510312/02/16 09:55:31  5-MIN KBDL 021455Z 23007KT 10SM CLR 07/00 A2984 250 60 -500 250/07 RMK AO2 T00720000
14740KBDL BDL20161202100010412/02/16 10:00:31  5-MIN KBDL 021500Z 22006KT 10SM CLR 07/M01 A2984 260 57 -500 240/06 RMK AO2 T00721006
14740KBDL BDL20161202100510412/02/16 10:05:31  5-MIN KBDL 021505Z 23006KT 10SM CLR 07/M01 A2983 260 57 -500 250/06 RMK AO2 T00721006
14740KBDL BDL20161202101010412/02/16 10:10:31  5-MIN KBDL 021510Z 23007KT 10SM CLR 07/M01 A2983 260 57 -500 250/07 RMK AO2 T00721006
14740KBDL BDL20161202101510412/02/16 10:15:31  5-MIN KBDL 021515Z 23006KT 10SM CLR 08/M01 A2983 260 55 -500 240/06 RMK AO2 T00781006
14740KBDL BDL20161202102010412/02/16 10:20:31  5-MIN KBDL 021520Z 22004KT 10SM CLR 07/M01 A2983 260 57 -500 230/04 RMK AO2 T00721006
14740KBDL BDL20161202102510412/02/16 10:25:31  5-MIN KBDL 021525Z 20007KT 10SM CLR 08/M01 A2983 260 55 -500 210/07 RMK AO2 T00781006
14740KBDL BDL20161202103010412/02/16 10:30:31  5-MIN KBDL 021530Z 20006KT 10SM CLR 08/M01 A2983 260 55 -500 220/06 RMK AO2 T00781006
14740KBDL BDL20161202103510412/02/16 10:35:31  5-MIN KBDL 021535Z 22006KT 10SM CLR 08/M01 A2983 260 55 -500 240/06 RMK AO2 T00781006
14740KBDL BDL20161202104010412/02/16 10:40:31  5-MIN KBDL 021540Z 22005KT 10SM CLR 08/M01 A2982 270 53 -400 240/05 RMK AO2 T00831006
14740KBDL BDL20161202104511012/02/16 10:45:31  5-MIN KBDL 021545Z 20007KT 10SM CLR 08/00 A2982 270 55 -400 210/07 RMK AO2 SLP099 T00830000
14740KBDL BDL20161202105012112/02/16 10:50:31  5-MIN KBDL 021550Z 21004KT 10SM FEW048 FEW230 08/M01 A2982 270 53 -400 230/04 RMK AO2 SLP099 T00831006
14740KBDL BDL20161202105510712/02/16 10:55:31  5-MIN KBDL 021555Z 19007KT 10SM BKN048 08/M01 A2982 270 53 -400 210/07 RMK AO2 T00831006
14740KBDL BDL20161202110010712/02/16 11:00:31  5-MIN KBDL 021600Z 21006KT 10SM BKN048 08/M01 A2982 270 53 -400 220/06 RMK AO2 T00831006
14740KBDL BDL20161202110510712/02/16 11:05:31  5-MIN KBDL 021605Z 19007KT 10SM BKN046 08/M01 A2982 270 53 -400 200/07 RMK AO2 T00831006
14740KBDL BDL20161202111011412/02/16 11:10:31  5-MIN KBDL 021610Z 20006KT 10SM BKN046 BKN055 08/M01 A2981 270 53 -400 220/06 RMK AO2 T00831006
14740KBDL BDL20161202111510712/02/16 11:15:31  5-MIN KBDL 021615Z 23006KT 10SM OVC046 08/M01 A2981 280 53 -400 240/06 RMK AO2 T00831006
14740KBDL BDL20161202112010712/02/16 11:20:31  5-MIN KBDL 021620Z VRB03KT 10SM OVC046 08/M01 A2981 280 53 -400 VRB/03 RMK AO2 T00831006
14740KBDL BDL20161202112510712/02/16 11:25:31  5-MIN KBDL 021625Z VRB05KT 10SM OVC046 08/M01 A2981 280 53 -400 VRB/05 RMK AO2 T00831006
14740KBDL BDL20161202113010712/02/16 11:30:31  5-MIN KBDL 021630Z 27004KT 10SM OVC046 09/M01 A2981 280 51 -300 290/04 RMK AO2 T00891006
14740KBDL BDL20161202113510712/02/16 11:35:31  5-MIN KBDL 021635Z 28009KT 10SM OVC048 09/M01 A2981 280 49 -300 300/09 RMK AO2 T00891011
14740KBDL BDL20161202114010712/02/16 11:40:31  5-MIN KBDL 021640Z 29008KT 10SM OVC048 09/M01 A2981 280 49 -300 300/08 RMK AO2 T00891011
14740KBDL BDL20161202114511412/02/16 11:45:31  5-MIN KBDL 021645Z 26007KT 10SM OVC046 09/M01 A2981 280 49 -300 280/07 RMK AO2 SLP093 T00891011
14740KBDL BDL20161202115012712/02/16 11:50:31  5-MIN KBDL 021650Z 25012G17KT 10SM BKN046 BKN200 09/M01 A2980 280 49 -300 270/12G17 RMK AO2 SLP093 T00891011
14740KBDL BDL20161202115511312/02/16 11:55:31  5-MIN KBDL 021655Z 26012G17KT 10SM OVC047 09/M01 A2980 290 49 -300 280/12G17 RMK AO2 T00891011
14740KBDL BDL20161202120010712/02/16 12:00:31  5-MIN KBDL 021700Z 27013KT 10SM OVC047 09/M02 A2980 290 47 -300 280/13 RMK AO2 T00891017
14740KBDL BDL20161202120510712/02/16 12:05:31  5-MIN KBDL 021705Z 26013KT 10SM OVC047 09/M01 A2980 290 47 -200 280/13 RMK AO2 T00941011
14740KBDL BDL20161202121011312/02/16 12:10:31  5-MIN KBDL 021710Z 29009G18KT 10SM OVC047 09/M01 A2980 290 47 -200 300/09G18 RMK AO2 T00941011
14740KBDL BDL20161202121511312/02/16 12:15:31  5-MIN KBDL 021715Z 25008G18KT 10SM BKN047 09/M02 A2980 290 47 -300 270/08G18 RMK AO2 T00891017
14740KBDL BDL20161202122010712/02/16 12:20:31  5-MIN KBDL 021720Z 27012KT 10SM BKN048 09/M01 A2980 290 49 -300 280/12 RMK AO2 T00891011
14740KBDL BDL20161202122512012/02/16 12:25:31  5-MIN KBDL 021725Z 27012G19KT 10SM BKN048 BKN055 09/M01 A2979 290 49 -300 290/12G19 RMK AO2 T00891011
14740KBDL BDL20161202123012012/02/16 12:30:31  5-MIN KBDL 021730Z 27012G19KT 10SM BKN048 BKN055 09/M01 A2979 300 47 -200 280/12G19 RMK AO2 T00941011
14740KBDL BDL20161202123511312/02/16 12:35:31  5-MIN KBDL 021735Z 27012G21KT 10SM BKN048 09/M01 A2979 300 47 -200 290/12G21 RMK AO2 T00941011
14740KBDL BDL20161202124011312/02/16 12:40:31  5-MIN KBDL 021740Z 29011G21KT 10SM BKN048 09/M01 A2979 300 47 -200 310/11G21 RMK AO2 T00941011
14740KBDL BDL20161202124513812/02/16 12:45:31  5-MIN KBDL 021745Z 30014G21KT 10SM BKN048 10/M02 A2979 300 44 -100 320/14G21 RMK AO2 SLP088 T01001017 10100 21006 51006
14740KBDL BDL20161202125014512/02/16 12:50:31  5-MIN KBDL 021750Z 29012G21KT 10SM BKN048 BKN080 11/M01 A2979 300 44 -100 310/12G21 RMK AO2 SLP087 T01061011 10106 21006 51006
14740KBDL BDL20161202125511312/02/16 12:55:31  5-MIN KBDL 021755Z 28014G19KT 10SM BKN048 11/M01 A2978 300 44 -100 290/14G19 RMK AO2 T01061011
14740KBDL BDL20161202130012012/02/16 13:00:31  5-MIN KBDL 021800Z 30015G22KT 10SM BKN049 BKN060 10/M02 A2978 300 44 -100 310/15G22 RMK AO2 T01001017
14740KBDL BDL20161202130512012/02/16 13:05:31  5-MIN KBDL 021805Z 29016G22KT 10SM SCT049 SCT060 09/M02 A2978 310 45 -200 300/16G22 RMK AO2 T00941017
14740KBDL BDL20161202131011412/02/16 13:10:31  5-MIN KBDL 021810Z 30015KT 10SM FEW049 FEW060 09/M02 A2978 310 45 -200 310/15 RMK AO2 T00941017
14740KBDL BDL20161202131511412/02/16 13:15:31  5-MIN KBDL 021815Z 30014KT 10SM FEW049 FEW060 09/M02 A2978 310 47 -300 310/14 RMK AO2 T00891017
14740KBDL BDL20161202132011312/02/16 13:20:31  5-MIN KBDL 021820Z 29011G19KT 10SM FEW049 09/M01 A2978 310 49 -300 300/11G19 RMK AO2 T00891011
14740KBDL BDL20161202132510412/02/16 13:25:31  5-MIN KBDL 021825Z 29015KT 10SM CLR 10/M01 A2978 310 46 -100 300/15 RMK AO2 T01001011
14740KBDL BDL20161202133011012/02/16 13:30:31  5-MIN KBDL 021830Z 27012G21KT 10SM CLR 10/M01 A2978 310 46 -100 280/12G21 RMK AO2 T01001011
14740KBDL BDL20161202133511012/02/16 13:35:31  5-MIN KBDL 021835Z 27012G21KT 10SM CLR 10/M01 A2978 310 46 -100 280/12G21 RMK AO2 T01001011
14740KBDL BDL20161202134011312/02/16 13:40:31  5-MIN KBDL 021840Z 27014G20KT 10SM FEW060 10/M02 A2978 310 44 -100 290/14G20 RMK AO2 T01001017
14740KBDL BDL20161202134512012/02/16 13:45:31  5-MIN KBDL 021845Z 27012G20KT 10SM FEW060 09/M02 A2978 310 45 -200 290/12G20 RMK AO2 SLP085 T00941017
14740KBDL BDL20161202135012112/02/16 13:50:31  5-MIN KBDL 021850Z 28012KT 10SM SCT060 SCT100 09/M02 A2978 310 45 -300 290/12 RMK AO2 SLP084 T00891022
14740KBDL BDL20161202135511312/02/16 13:55:31  5-MIN KBDL 021855Z 28011G19KT 10SM FEW060 09/M02 A2978 310 47 -300 290/11G19 RMK AO2 T00891017
14740KBDL BDL20161202140011312/02/16 14:00:31  5-MIN KBDL 021900Z 28014G21KT 10SM FEW060 09/M02 A2978 310 45 -300 290/14G21 RMK AO2 T00891022
14740KBDL BDL20161202140511312/02/16 14:05:31  5-MIN KBDL 021905Z 29015G21KT 10SM SCT060 10/M02 A2978 310 42 -100 310/15G21 RMK AO2 T01001022
14740KBDL BDL20161202141010712/02/16 14:10:31  5-MIN KBDL 021910Z 30015KT 10SM SCT060 09/M02 A2978 310 44 -200 310/15 RMK AO2 T00941022
14740KBDL BDL20161202141510712/02/16 14:15:31  5-MIN KBDL 021915Z 27009KT 10SM FEW060 09/M02 A2978 310 44 -200 290/09 RMK AO2 T00941022
14740KBDL BDL20161202142011312/02/16 14:20:31  5-MIN KBDL 021920Z 28012G18KT 10SM FEW060 09/M02 A2978 310 44 -200 290/12G18 RMK AO2 T00941022
14740KBDL BDL20161202142510712/02/16 14:25:31  5-MIN KBDL 021925Z 29016KT 10SM FEW060 10/M02 A2978 310 42 -100 300/16 RMK AO2 T01001022
14740KBDL BDL20161202143010712/02/16 14:30:31  5-MIN KBDL 021930Z 29012KT 10SM FEW060 09/M03 A2978 310 42 -200 300/12 RMK AO2 T00941028
14740KBDL BDL20161202143510412/02/16 14:35:31  5-MIN KBDL 021935Z 30009KT 10SM CLR 10/M02 A2978 300 42 -100 310/09 RMK AO2 T01001022
14740KBDL BDL20161202144010712/02/16 14:40:31  5-MIN KBDL 021940Z 28011KT 10SM FEW065 09/M03 A2978 300 43 -300 300/11 RMK AO2 T00891028
14740KBDL BDL20161202144511412/02/16 14:45:31  5-MIN KBDL 021945Z 31007KT 10SM FEW065 09/M03 A2978 300 43 -300 330/07 RMK AO2 SLP086 T00891028
14740KBDL BDL20161202145012712/02/16 14:50:31  5-MIN KBDL 021950Z 29010G18KT 10SM SCT065 SCT110 09/M03 A2978 300 43 -300 300/10G18 RMK AO2 SLP086 T00891028
14740KBDL BDL20161202145511312/02/16 14:55:31  5-MIN KBDL 021955Z 28014G19KT 10SM BKN065 09/M03 A2978 300 43 -300 290/14G19 RMK AO2 T00891028
14740KBDL BDL20161202150011312/02/16 15:00:31  5-MIN KBDL 022000Z 30010G19KT 10SM BKN065 09/M03 A2978 300 43 -300 310/10G19 RMK AO2 T00891028
14740KBDL BDL20161202150510712/02/16 15:05:31  5-MIN KBDL 022005Z 30010KT 10SM BKN065 09/M03 A2979 300 43 -300 310/10 RMK AO2 T00891028
14740KBDL BDL20161202151010712/02/16 15:10:31  5-MIN KBDL 022010Z 29011KT 10SM OVC060 09/M03 A2979 300 43 -300 300/11 RMK AO2 T00891028
14740KBDL BDL20161202151510712/02/16 15:15:31  5-MIN KBDL 022015Z 30010KT 10SM OVC060 09/M03 A2979 300 43 -300 310/10 RMK AO2 T00891028
14740KBDL BDL20161202152010712/02/16 15:20:31  5-MIN KBDL 022020Z 30012KT 10SM OVC065 09/M03 A2979 300 43 -300 310/12 RMK AO2 T00891028
14740KBDL BDL20161202152510712/02/16 15:25:31  5-MIN KBDL 022025Z 29008KT 10SM OVC065 09/M03 A2979 300 43 -300 300/08 RMK AO2 T00891028
14740KBDL BDL20161202153010712/02/16 15:30:31  5-MIN KBDL 022030Z 30008KT 10SM BKN070 08/M03 A2979 300 45 -300 310/08 RMK AO2 T00831028
14740KBDL BDL20161202153510712/02/16 15:35:31  5-MIN KBDL 022035Z 30010KT 10SM BKN065 08/M03 A2979 300 43 -300 310/10 RMK AO2 T00831033
14740KBDL BDL20161202154010712/02/16 15:40:31  5-MIN KBDL 022040Z 29009KT 10SM SCT070 08/M03 A2979 300 43 -300 300/09 RMK AO2 T00831033
14740KBDL BDL20161202154512012/02/16 15:45:31  5-MIN KBDL 022045Z 29007KT 10SM SCT070 08/M03 A2979 300 45 -400 300/07 RMK AO2 SLP089 T00781033 56017
14740KBDL BDL20161202155012012/02/16 15:50:31  5-MIN KBDL 022050Z 29008KT 10SM BKN070 08/M03 A2979 290 43 -300 300/08 RMK AO2 SLP089 T00831033 56017
14740KBDL BDL20161202155510712/02/16 15:55:31  5-MIN KBDL 022055Z 29007KT 10SM SCT070 08/M03 A2979 290 43 -300 310/07 RMK AO2 T00831033
14740KBDL BDL20161202160010712/02/16 16:00:31  5-MIN KBDL 022100Z 29009KT 10SM BKN070 08/M03 A2979 290 45 -300 310/09 RMK AO2 T00831028
14740KBDL BDL20161202160511312/02/16 16:05:31  5-MIN KBDL 022105Z 30014G18KT 10SM BKN070 08/M03 A2979 290 43 -300 310/14G18 RMK AO2 T00831033
14740KBDL BDL20161202161011312/02/16 16:10:31  5-MIN KBDL 022110Z 30009G18KT 10SM BKN070 08/M03 A2979 290 43 -300 320/09G18 RMK AO2 T00831033
14740KBDL BDL20161202161510712/02/16 16:15:31  5-MIN KBDL 022115Z 29010KT 10SM OVC070 08/M03 A2980 290 43 -300 310/10 RMK AO2 T00831033
14740KBDL BDL20161202162010712/02/16 16:20:31  5-MIN KBDL 022120Z 30012KT 10SM OVC070 08/M03 A2979 290 43 -300 310/12 RMK AO2 T00831033
14740KBDL BDL20161202162510712/02/16 16:25:31  5-MIN KBDL 022125Z 30010KT 10SM OVC070 08/M03 A2979 290 43 -300 310/10 RMK AO2 T00831033
14740KBDL BDL20161202163010712/02/16 16:30:31  5-MIN KBDL 022130Z 30012KT 10SM OVC075 08/M03 A2980 290 43 -300 310/12 RMK AO2 T00831033
14740KBDL BDL20161202163510712/02/16 16:35:31  5-MIN KBDL 022135Z 29009KT 10SM BKN070 08/M03 A2980 290 45 -400 300/09 RMK AO2 T00781033
14740KBDL BDL20161202164010712/02/16 16:40:31  5-MIN KBDL 022140Z 28009KT 10SM BKN075 08/M03 A2980 290 45 -400 290/09 RMK AO2 T00781033
14740KBDL BDL20161202164511412/02/16 16:45:31  5-MIN KBDL 022145Z 29007KT 10SM SCT075 07/M03 A2980 290 47 -500 300/07 RMK AO2 SLP092 T00721033
14740KBDL BDL20161202165012112/02/16 16:50:31  5-MIN KBDL 022150Z 28008KT 10SM SCT065 BKN080 07/M03 A2980 290 47 -500 290/08 RMK AO2 SLP092 T00721033
14740KBDL BDL20161202165511412/02/16 16:55:31  5-MIN KBDL 022155Z 29006KT 10SM SCT060 BKN080 08/M03 A2980 290 45 -400 300/06 RMK AO2 T00781033
14740KBDL BDL20161202170011312/02/16 17:00:31  5-MIN KBDL 022200Z 29013G16KT 10SM BKN060 08/M03 A2980 290 43 -400 310/13G16 RMK AO2 T00831033
14740KBDL BDL20161202170510712/02/16 17:05:31  5-MIN KBDL 022205Z 29010KT 10SM BKN060 08/M03 A2980 290 45 -400 300/10 RMK AO2 T00781033
14740KBDL BDL20161202171010712/02/16 17:10:31  5-MIN KBDL 022210Z 30012KT 10SM BKN060 08/M03 A2980 280 43 -400 320/12 RMK AO2 T00831033
14740KBDL BDL20161202171510712/02/16 17:15:31  5-MIN KBDL 022215Z 31010KT 10SM OVC060 08/M03 A2980 280 47 -400 330/10 RMK AO2 T00781028
14740KBDL BDL20161202172010712/02/16 17:20:31  5-MIN KBDL 022220Z 31011KT 10SM OVC060 08/M03 A2980 280 45 -400 320/11 RMK AO2 T00781033
14740KBDL BDL20161202172511412/02/16 17:25:31  5-MIN KBDL 022225Z 31013KT 10SM BKN060 OVC080 08/M03 A2981 280 47 -400 320/13 RMK AO2 T00781028
14740KBDL BDL20161202173011412/02/16 17:30:31  5-MIN KBDL 022230Z 31012KT 10SM BKN060 OVC080 08/M03 A2981 280 47 -400 330/12 RMK AO2 T00781028
14740KBDL BDL20161202173510712/02/16 17:35:31  5-MIN KBDL 022235Z 30013KT 10SM OVC055 08/M03 A2981 280 47 -400 320/13 RMK AO2 T00781028
14740KBDL BDL20161202174013712/02/16 17:40:31  5-MIN KBDL 022240Z 30009KT 10SM -RA BKN055 BKN070 OVC085 08/M03 A2981 280 47 -400 320/09 RMK AO2 RAB39 P0000 T00781028
14740KBDL BDL20161202174514412/02/16 17:45:31  5-MIN KBDL 022245Z 30008KT 10SM -RA BKN055 BKN070 OVC085 07/M02 A2981 280 51 -500 320/08 RMK AO2 RAB39 SLP095 P0000 T00721022
14740KBDL BDL20161202175014312/02/16 17:50:31  5-MIN KBDL 022250Z 30008KT 10SM SCT055 SCT070 BKN085 07/M02 A2981 280 53 -600 310/08 RMK AO2 RAB39E46 SLP096 P0000 T00671022
14740KBDL BDL20161202175511412/02/16 17:55:31  5-MIN KBDL 022255Z 30007KT 10SM SCT055 BKN080 07/M02 A2981 280 53 -600 310/07 RMK AO2 T00671022
14740KBDL BDL20161202180011412/02/16 18:00:31  5-MIN KBDL 022300Z 28006KT 10SM FEW050 BKN080 07/M02 A2981 280 53 -600 290/06 RMK AO2 T00671022
14740KBDL BDL20161202180511412/02/16 18:05:31  5-MIN KBDL 022305Z 27005KT 10SM FEW055 BKN080 06/M03 A2981 280 53 -600 290/05 RMK AO2 T00611028
14740KBDL BDL20161202181012112/02/16 18:10:31  5-MIN KBDL 022310Z 30006KT 10SM FEW045 BKN080 BKN090 06/M03 A2981 270 53 -600 310/06 RMK AO2 T00611028
14740KBDL BDL20161202181512112/02/16 18:15:31  5-MIN KBDL 022315Z 30008KT 10SM SCT045 SCT060 BKN075 07/M02 A2982 270 53 -600 320/08 RMK AO2 T00671022
14740KBDL BDL20161202182012112/02/16 18:20:31  5-MIN KBDL 022320Z 27005KT 10SM FEW045 SCT060 BKN075 07/M02 A2981 280 53 -600 290/05 RMK AO2 T00671022
14740KBDL BDL20161202182512112/02/16 18:25:31  5-MIN KBDL 022325Z 28006KT 10SM FEW045 SCT060 BKN080 07/M02 A2981 280 53 -600 290/06 RMK AO2 T00671022
14740KBDL BDL20161202183012112/02/16 18:30:31  5-MIN KBDL 022330Z 28007KT 10SM FEW044 FEW060 BKN085 06/M02 A2981 280 55 -600 290/07 RMK AO2 T00611022
14740KBDL BDL20161202183512112/02/16 18:35:31  5-MIN KBDL 022335Z 27008KT 10SM FEW044 FEW060 SCT090 06/M02 A2981 280 55 -600 280/08 RMK AO2 T00611022
14740KBDL BDL20161202184012112/02/16 18:40:31  5-MIN KBDL 022340Z 26007KT 10SM FEW044 FEW060 SCT085 06/M02 A2981 280 59 -700 270/07 RMK AO2 T00561017
14740KBDL BDL20161202184514512/02/16 18:45:31  5-MIN KBDL 022345Z 26009KT 10SM FEW060 FEW085 06/M02 A2981 280 59 -700 270/09 RMK AO2 SLP096 60000 T00561017 10106 20056 53002
14740KBDL BDL20161202185015212/02/16 18:50:31  5-MIN KBDL 022350Z 26010KT 10SM FEW060 SCT085 SCT220 06/M02 A2981 280 59 -700 270/10 RMK AO2 SLP096 60000 T00561017 10106 20056 53002
14740KBDL BDL20161202185510412/02/16 18:55:31  5-MIN KBDL 022355Z 26010KT 10SM CLR 06/M02 A2981 280 59 -700 270/10 RMK AO2 T00561017
14740KBDL BDL20161202190010412/02/16 19:00:31  5-MIN KBDL 030000Z 26011KT 10SM CLR 06/M02 A2981 280 59 -700 270/11 RMK AO2 T00561017
14740KBDL BDL20161202190510712/02/16 19:05:31  5-MIN KBDL 030005Z 26010KT 10SM FEW075 06/M01 A2981 280 62 -700 270/10 RMK AO2 T00561011
14740KBDL BDL20161202191010712/02/16 19:10:31  5-MIN KBDL 030010Z 26009KT 10SM FEW075 06/M01 A2981 280 62 -700 270/09 RMK AO2 T00561011
14740KBDL BDL20161202191510712/02/16 19:15:31  5-MIN KBDL 030015Z 25010KT 10SM FEW075 06/M01 A2981 280 62 -700 260/10 RMK AO2 T00561011
14740KBDL BDL20161202192010712/02/16 19:20:31  5-MIN KBDL 030020Z 26011KT 10SM FEW075 05/M01 A2981 280 64 -800 270/11 RMK AO2 T00501011
14740KBDL BDL20161202192510712/02/16 19:25:31  5-MIN KBDL 030025Z 26011KT 10SM FEW075 06/M01 A2981 280 62 -700 270/11 RMK AO2 T00561011
14740KBDL BDL20161202193010712/02/16 19:30:31  5-MIN KBDL 030030Z 26009KT 10SM FEW075 06/M02 A2981 280 59 -700 270/09 RMK AO2 T00561017
14740KBDL BDL20161202193510412/02/16 19:35:31  5-MIN KBDL 030035Z 24009KT 10SM CLR 05/M02 A2981 280 62 -800 260/09 RMK AO2 T00501017
14740KBDL BDL20161202194010412/02/16 19:40:31  5-MIN KBDL 030040Z 24009KT 10SM CLR 05/M02 A2981 280 62 -800 250/09 RMK AO2 T00501017
14740KBDL BDL20161202194511412/02/16 19:45:31  5-MIN KBDL 030045Z 24008KT 10SM FEW075 05/M02 A2980 280 62 -800 250/08 RMK AO2 SLP094 T00501017
14740KBDL BDL20161202195011412/02/16 19:50:31  5-MIN KBDL 030050Z 25009KT 10SM FEW075 05/M02 A2980 280 62 -800 260/09 RMK AO2 SLP094 T00501017
14740KBDL BDL20161202195510412/02/16 19:55:31  5-MIN KBDL 030055Z 25009KT 10SM CLR 05/M02 A2980 280 62 -800 260/09 RMK AO2 T00501017
14740KBDL BDL20161202200010412/02/16 20:00:31  5-MIN KBDL 030100Z 25009KT 10SM CLR 05/M02 A2980 290 62 -800 260/09 RMK AO2 T00501017
14740KBDL BDL20161202200510412/02/16 20:05:31  5-MIN KBDL 030105Z 25009KT 10SM CLR 04/M02 A2980 290 64 -800 270/09 RMK AO2 T00441017
14740KBDL BDL20161202201010412/02/16 20:10:31  5-MIN KBDL 030110Z 26009KT 10SM CLR 04/M02 A2980 280 64 -800 270/09 RMK AO2 T00441017
14740KBDL BDL20161202201510412/02/16 20:15:31  5-MIN KBDL 030115Z 26008KT 10SM CLR 04/M02 A2980 280 64 -800 270/08 RMK AO2 T00441017
14740KBDL BDL20161202202010412/02/16 20:20:31  5-MIN KBDL 030120Z 25009KT 10SM CLR 04/M02 A2980 290 64 -800 270/09 RMK AO2 T00441017
14740KBDL BDL20161202202510412/02/16 20:25:31  5-MIN KBDL 030125Z 26009KT 10SM CLR 04/M02 A2980 290 64 -800 270/09 RMK AO2 T00441017
14740KBDL BDL20161202203010412/02/16 20:30:31  5-MIN KBDL 030130Z 26010KT 10SM CLR 04/M02 A2980 290 64 -800 280/10 RMK AO2 T00441017
14740KBDL BDL20161202203510412/02/16 20:35:31  5-MIN KBDL 030135Z 26010KT 10SM CLR 04/M02 A2980 290 62 -800 270/10 RMK AO2 T00441022
14740KBDL BDL20161202204010412/02/16 20:40:31  5-MIN KBDL 030140Z 25011KT 10SM CLR 04/M02 A2980 290 62 -800 270/11 RMK AO2 T00441022
14740KBDL BDL20161202204511112/02/16 20:45:31  5-MIN KBDL 030145Z 26011KT 10SM CLR 04/M02 A2980 290 62 -800 280/11 RMK AO2 SLP093 T00441022
14740KBDL BDL20161202205012112/02/16 20:50:31  5-MIN KBDL 030150Z 26011KT 10SM FEW075 SCT250 04/M02 A2980 290 62 -800 280/11 RMK AO2 SLP093 T00441022
14740KBDL BDL20161202205510412/02/16 20:55:31  5-MIN KBDL 030155Z 27009KT 10SM CLR 04/M02 A2980 290 62 -800 280/09 RMK AO2 T00441022
14740KBDL BDL20161202210010412/02/16 21:00:31  5-MIN KBDL 030200Z 27010KT 10SM CLR 04/M02 A2980 280 62 -800 280/10 RMK AO2 T00441022
14740KBDL BDL20161202210510412/02/16 21:05:31  5-MIN KBDL 030205Z 27009KT 10SM CLR 04/M02 A2980 290 62 -800 280/09 RMK AO2 T00441022
14740KBDL BDL20161202211010412/02/16 21:10:31  5-MIN KBDL 030210Z 27010KT 10SM CLR 04/M02 A2980 290 62 -800 290/10 RMK AO2 T00441022
14740KBDL BDL20161202211510412/02/16 21:15:31  5-MIN KBDL 030215Z 27009KT 10SM CLR 04/M02 A2980 290 64 -900 290/09 RMK AO2 T00391022
14740KBDL BDL20161202212010412/02/16 21:20:31  5-MIN KBDL 030220Z 27009KT 10SM CLR 04/M02 A2980 290 62 -800 280/09 RMK AO2 T00441022
14740KBDL BDL20161202212510412/02/16 21:25:31  5-MIN KBDL 030225Z 27008KT 10SM CLR 04/M02 A2980 290 62 -800 280/08 RMK AO2 T00441022
14740KBDL BDL20161202213010412/02/16 21:30:31  5-MIN KBDL 030230Z 27010KT 10SM CLR 04/M02 A2980 290 62 -800 280/10 RMK AO2 T00441022
14740KBDL BDL20161202213510412/02/16 21:35:31  5-MIN KBDL 030235Z 27009KT 10SM CLR 04/M02 A2980 290 64 -900 280/09 RMK AO2 T00391022
14740KBDL BDL20161202214010412/02/16 21:40:31  5-MIN KBDL 030240Z 27011KT 10SM CLR 04/M02 A2980 280 64 -800 290/11 RMK AO2 T00441017
14740KBDL BDL20161202214512012/02/16 21:45:31  5-MIN KBDL 030245Z 27008KT 10SM FEW095 04/M02 A2980 290 64 -800 290/08 RMK AO2 SLP092 T00441017 51006
14740KBDL BDL20161202215013412/02/16 21:50:31  5-MIN KBDL 030250Z 27011KT 10SM FEW075 SCT095 SCT250 04/M02 A2980 290 64 -800 290/11 RMK AO2 SLP092 T00441017 51006
14740KBDL BDL20161202215511412/02/16 21:55:31  5-MIN KBDL 030255Z 26012KT 10SM FEW055 SCT095 04/M02 A2980 290 64 -800 280/12 RMK AO2 T00441017
14740KBDL BDL20161202220011412/02/16 22:00:31  5-MIN KBDL 030300Z 26011KT 10SM FEW060 BKN095 05/M02 A2980 290 62 -800 280/11 RMK AO2 T00501017
14740KBDL BDL20161202220511412/02/16 22:05:31  5-MIN KBDL 030305Z 26010KT 10SM SCT060 BKN100 05/M02 A2980 280 62 -800 270/10 RMK AO2 T00501017
14740KBDL BDL20161202221011412/02/16 22:10:31  5-MIN KBDL 030310Z 25009KT 10SM SCT055 BKN100 06/M02 A2980 280 57 -600 270/09 RMK AO2 T00611017
14740KBDL BDL20161202221511412/02/16 22:15:31  5-MIN KBDL 030315Z 25010KT 10SM BKN055 BKN100 05/M02 A2981 280 62 -800 270/10 RMK AO2 T00501017
14740KBDL BDL20161202222011412/02/16 22:20:31  5-MIN KBDL 030320Z 25009KT 10SM BKN055 OVC100 05/M02 A2981 280 62 -800 260/09 RMK AO2 T00501017
14740KBDL BDL20161202222511412/02/16 22:25:31  5-MIN KBDL 030325Z 25009KT 10SM BKN050 OVC100 05/M02 A2981 280 62 -800 260/09 RMK AO2 T00501017
14740KBDL BDL20161202223011412/02/16 22:30:31  5-MIN KBDL 030330Z 25009KT 10SM BKN050 OVC100 05/M02 A2981 280 62 -800 260/09 RMK AO2 T00501017
14740KBDL BDL20161202223510712/02/16 22:35:31  5-MIN KBDL 030335Z 24010KT 10SM OVC050 05/M02 A2981 280 62 -800 260/10 RMK AO2 T00501017
14740KBDL BDL20161202224010712/02/16 22:40:31  5-MIN KBDL 030340Z 24008KT 10SM OVC050 05/M02 A2981 280 62 -800 260/08 RMK AO2 T00501017
14740KBDL BDL20161202224512112/02/16 22:45:31  5-MIN KBDL 030345Z 24009KT 10SM FEW045 OVC050 05/M02 A2981 280 62 -800 250/09 RMK AO2 SLP096 T00501017
14740KBDL BDL20161202225012112/02/16 22:50:31  5-MIN KBDL 030350Z 24009KT 10SM FEW045 OVC050 05/M02 A2981 280 62 -800 250/09 RMK AO2 SLP096 T00501017
14740KBDL BDL20161202225510712/02/16 22:55:31  5-MIN KBDL 030355Z 24009KT 10SM OVC055 05/M02 A2981 280 62 -800 260/09 RMK AO2 T00501017
14740KBDL BDL20161202230010712/02/16 23:00:31  5-MIN KBDL 030400Z 25010KT 10SM OVC055 05/M02 A2981 280 62 -800 260/10 RMK AO2 T00501017
14740KBDL BDL20161202230510712/02/16 23:05:31  5-MIN KBDL 030405Z 24009KT 10SM OVC055 05/M02 A2981 280 62 -800 260/09 RMK AO2 T00501017
14740KBDL BDL20161202231010712/02/16 23:10:31  5-MIN KBDL 030410Z 24009KT 10SM OVC055 05/M02 A2981 280 62 -800 260/09 RMK AO2 T00501017
14740KBDL BDL20161202231510712/02/16 23:15:31  5-MIN KBDL 030415Z 24010KT 10SM OVC055 05/M02 A2981 280 62 -800 250/10 RMK AO2 T00501017
14740KBDL BDL20161202232011412/02/16 23:20:31  5-MIN KBDL 030420Z 24009KT 10SM BKN050 OVC055 05/M02 A2981 270 62 -800 260/09 RMK AO2 T00501017
14740KBDL BDL20161202232511412/02/16 23:25:31  5-MIN KBDL 030425Z 24009KT 10SM BKN047 OVC055 05/M02 A2981 280 62 -800 260/09 RMK AO2 T00501017
14740KBDL BDL20161202233011412/02/16 23:30:31  5-MIN KBDL 030430Z 24010KT 10SM BKN047 OVC055 05/M02 A2981 280 62 -800 260/10 RMK AO2 T00501017
14740KBDL BDL20161202233511412/02/16 23:35:31  5-MIN KBDL 030435Z 24010KT 10SM BKN047 OVC055 05/M02 A2981 280 62 -800 260/10 RMK AO2 T00501017
14740KBDL BDL20161202234011412/02/16 23:40:31  5-MIN KBDL 030440Z 25010KT 10SM BKN047 OVC055 05/M02 A2981 280 62 -800 260/10 RMK AO2 T00501017
14740KBDL BDL20161202234513112/02/16 23:45:31  5-MIN KBDL 030445Z 24011KT 10SM SCT045 OVC055 05/M02 A2981 280 62 -800 260/11 RMK AO2 SLP096 T00501017 401061006
14740KBDL BDL20161202235013112/02/16 23:50:31  5-MIN KBDL 030450Z 25011KT 10SM BKN050 BKN065 05/M02 A2981 280 62 -800 260/11 RMK AO2 SLP095 T00501017 401061006
14740KBDL BDL20161202235511412/02/16 23:55:31  5-MIN KBDL 030455Z 25011KT 10SM FEW045 OVC055 05/M02 A2981 280 62 -800 260/11 RMK AO2 T00501017
14740KBDL BDL20161203000010712/03/16 00:00:31  5-MIN KBDL 030500Z 24009KT 10SM OVC055 05/M02 A2981 280 62 -800 260/09 RMK AO2 T00501017
14740KBDL BDL20161203000510712/03/16 00:05:31  5-MIN KBDL 030505Z 25009KT 10SM OVC055 05/M02 A2981 280 62 -800 260/09 RMK AO2 T00501017
14740KBDL BDL20161203001011412/03/16 00:10:31  5-MIN KBDL 030510Z 25008KT 10SM BKN050 OVC060 05/M02 A2981 280 62 -800 270/08 RMK AO2 T00501017
14740KBDL BDL20161203001511412/03/16 00:15:31  5-MIN KBDL 030515Z 25009KT 10SM SCT046 OVC055 05/M02 A2981 280 62 -800 260/09 RMK AO2 T00501017
14740KBDL BDL20161203002011412/03/16 00:20:31  5-MIN KBDL 030520Z 27007KT 10SM BKN046 OVC055 05/M02 A2981 280 62 -800 290/07 RMK AO2 T00501017
14740KBDL BDL20161203002512112/03/16 00:25:31  5-MIN KBDL 030525Z 28007KT 10SM BKN043 BKN050 OVC060 05/M02 A2982 270 62 -800 300/07 RMK AO2 T00501017
14740KBDL BDL20161203003011412/03/16 00:30:31  5-MIN KBDL 030530Z 28006KT 10SM BKN043 OVC050 05/M02 A2982 270 62 -800 290/06 RMK AO2 T00501017
14740KBDL BDL20161203003510712/03/16 00:35:31  5-MIN KBDL 030535Z 29006KT 10SM OVC041 05/M02 A2982 270 62 -800 300/06 RMK AO2 T00501017
14740KBDL BDL20161203004011412/03/16 00:40:31  5-MIN KBDL 030540Z 29007KT 10SM BKN043 OVC100 04/M02 A2982 270 64 -800 300/07 RMK AO2 T00441017
14740KBDL BDL20161203004514612/03/16 00:45:31  5-MIN KBDL 030545Z 31009KT 10SM BKN041 BKN060 OVC100 05/M02 A2982 270 62 -800 320/09 RMK AO2 SLP099 T00501017 10061 20039 56004
14740KBDL BDL20161203005013912/03/16 00:50:31  5-MIN KBDL 030550Z 31008KT 10SM SCT041 OVC060 05/M02 A2982 270 62 -800 320/08 RMK AO2 SLP099 T00501017 10061 20039 56004
14740KBDL BDL20161203005512112/03/16 00:55:31  5-MIN KBDL 030555Z 31008KT 10SM SCT039 BKN060 OVC100 05/M02 A2982 270 62 -800 320/08 RMK AO2 T00501017
14740KBDL BDL20161203010012112/03/16 01:00:31  5-MIN KBDL 030600Z 31006KT 10SM FEW041 BKN060 OVC100 05/M02 A2982 270 62 -800 330/06 RMK AO2 T00501017
14740KBDL BDL20161203010512112/03/16 01:05:31  5-MIN KBDL 030605Z 31007KT 10SM FEW041 SCT060 OVC100 04/M02 A2982 270 64 -900 320/07 RMK AO2 T00441017
14740KBDL BDL20161203011012112/03/16 01:10:31  5-MIN KBDL 030610Z 30008KT 10SM FEW039 SCT060 BKN100 04/M02 A2982 270 64 -900 310/08 RMK AO2 T00441017
14740KBDL BDL20161203011512112/03/16 01:15:31  5-MIN KBDL 030615Z 30011KT 10SM FEW048 FEW060 BKN100 04/M02 A2983 260 62 -900 310/11 RMK AO2 T00441022
14740KBDL BDL20161203012012112/03/16 01:20:31  5-MIN KBDL 030620Z 32007KT 10SM FEW042 SCT050 BKN100 04/M02 A2983 260 62 -900 340/07 RMK AO2 T00441022
14740KBDL BDL20161203012512112/03/16 01:25:31  5-MIN KBDL 030625Z 30009KT 10SM SCT045 SCT050 BKN100 04/M02 A2983 260 62 -900 310/09 RMK AO2 T00441022
14740KBDL BDL20161203013012112/03/16 01:30:31  5-MIN KBDL 030630Z 31008KT 10SM FEW043 BKN050 BKN060 04/M02 A2983 260 62 -900 320/08 RMK AO2 T00441022
14740KBDL BDL20161203013511412/03/16 01:35:31  5-MIN KBDL 030635Z 31009KT 10SM SCT045 BKN055 04/M02 A2983 260 62 -900 320/09 RMK AO2 T00441022
14740KBDL BDL20161203014011412/03/16 01:40:31  5-MIN KBDL 030640Z 31007KT 10SM SCT041 BKN050 05/M02 A2984 250 59 -800 330/07 RMK AO2 T00501022
14740KBDL BDL20161203014512112/03/16 01:45:31  5-MIN KBDL 030645Z 30008KT 10SM SCT043 OVC050 04/M02 A2983 260 64 -900 310/08 RMK AO2 SLP103 T00441017
14740KBDL BDL20161203015012112/03/16 01:50:31  5-MIN KBDL 030650Z 30009KT 10SM FEW038 BKN055 04/M02 A2984 250 62 -900 310/09 RMK AO2 SLP104 T00441022
14740KBDL BDL20161203015511412/03/16 01:55:31  5-MIN KBDL 030655Z 29008KT 10SM BKN047 BKN055 04/M02 A2983 260 64 -900 310/08 RMK AO2 T00391022
14740KBDL BDL20161203020010712/03/16 02:00:31  5-MIN KBDL 030700Z 29011KT 10SM BKN047 04/M02 A2983 260 64 -900 300/11 RMK AO2 T00391022
14740KBDL BDL20161203020511412/03/16 02:05:31  5-MIN KBDL 030705Z 28011KT 10SM FEW040 SCT049 04/M02 A2983 260 64 -900 300/11 RMK AO2 T00391022
14740KBDL BDL20161203021011412/03/16 02:10:31  5-MIN KBDL 030710Z 30013KT 10SM FEW043 FEW049 04/M02 A2984 260 62 -900 310/13 RMK AO2 T00441022
14740KBDL BDL20161203021510712/03/16 02:15:31  5-MIN KBDL 030715Z 30013KT 10SM FEW047 04/M03 A2984 250 62 -900 310/13 RMK AO2 T00391028
14740KBDL BDL20161203022013112/03/16 02:20:31  5-MIN KBDL 030720Z 31017G26KT 10SM FEW049 04/M03 A2984 250 59 -900 320/17G26 RMK AO2 PK WND 30026/0719 T00441028
14740KBDL BDL20161203022513112/03/16 02:25:31  5-MIN KBDL 030725Z 31016G26KT 10SM FEW049 04/M03 A2984 250 57 -900 330/16G26 RMK AO2 PK WND 30026/0719 T00441033
14740KBDL BDL20161203023012812/03/16 02:30:31  5-MIN KBDL 030730Z 31014G23KT 10SM CLR 04/M03 A2984 250 57 -900 320/14G23 RMK AO2 PK WND 30026/0719 T00441033
14740KBDL BDL20161203023512812/03/16 02:35:31  5-MIN KBDL 030735Z 33011G23KT 10SM CLR 04/M03 A2984 250 59 -900 340/11G23 RMK AO2 PK WND 30026/0719 T00391033
14740KBDL BDL20161203024012912/03/16 02:40:31  5-MIN KBDL 030740Z 31012G18KT 10SM CLR 04/M03 A2984 250 59 -1000 320/12G18 RMK AO2 PK WND 30026/0719 T00391033
14740KBDL BDL20161203024513912/03/16 02:45:31  5-MIN KBDL 030745Z 32012G19KT 10SM FEW110 04/M03 A2984 250 59 -1000 330/12G19 RMK AO2 PK WND 30026/0719 SLP107 T00391033
14740KBDL BDL20161203025014512/03/16 02:50:31  5-MIN KBDL 030750Z 32010G21KT 10SM FEW048 SCT110 04/M04 A2984 250 57 -900 330/10G21 RMK AO2 PK WND 30026/0719 SLP106 T00391039
14740KBDL BDL20161203025511312/03/16 02:55:31  5-MIN KBDL 030755Z 33008G21KT 10SM SCT110 04/M04 A2984 250 57 -900 340/08G21 RMK AO2 T00391039
14740KBDL BDL20161203030012012/03/16 03:00:31  5-MIN KBDL 030800Z 31016G25KT 10SM FEW046 SCT110 04/M04 A2984 250 57 -900 320/16G25 RMK AO2 T00391039
14740KBDL BDL20161203030512012/03/16 03:05:31  5-MIN KBDL 030805Z 31013G25KT 10SM SCT046 SCT110 04/M04 A2984 250 57 -900 320/13G25 RMK AO2 T00391039
14740KBDL BDL20161203031012012/03/16 03:10:31  5-MIN KBDL 030810Z 30010G19KT 10SM SCT045 BKN110 04/M04 A2984 250 57 -900 320/10G19 RMK AO2 T00391039
14740KBDL BDL20161203031512012/03/16 03:15:31  5-MIN KBDL 030815Z 31011G22KT 10SM SCT045 SCT110 04/M04 A2984 250 55 -900 320/11G22 RMK AO2 T00441039
14740KBDL BDL20161203032011312/03/16 03:20:31  5-MIN KBDL 030820Z 32009G22KT 10SM FEW045 04/M04 A2984 250 57 -900 330/09G22 RMK AO2 T00391039
14740KBDL BDL20161203032512012/03/16 03:25:31  5-MIN KBDL 030825Z 31009G17KT 10SM FEW045 SCT100 04/M04 A2984 250 57 -900 320/09G17 RMK AO2 T00391039
14740KBDL BDL20161203033012012/03/16 03:30:31  5-MIN KBDL 030830Z 33011G17KT 10SM FEW045 BKN100 04/M04 A2984 250 57 -900 340/11G17 RMK AO2 T00391039
14740KBDL BDL20161203033512012/03/16 03:35:31  5-MIN KBDL 030835Z 31015G18KT 10SM FEW043 BKN100 04/M04 A2984 250 57 -900 330/15G18 RMK AO2 T00391039
14740KBDL BDL20161203034011312/03/16 03:40:31  5-MIN KBDL 030840Z 31012G18KT 10SM BKN100 04/M04 A2984 250 57 -900 330/12G18 RMK AO2 T00391039
14740KBDL BDL20161203034512012/03/16 03:45:31  5-MIN KBDL 030845Z 31015KT 10SM BKN100 04/M04 A2984 250 57 -900 330/15 RMK AO2 SLP105 T00391039 52007
14740KBDL BDL20161203035013312/03/16 03:50:31  5-MIN KBDL 030850Z 32011G23KT 10SM FEW038 BKN100 04/M04 A2984 250 57 -900 330/11G23 RMK AO2 SLP105 T00391039 52007
14740KBDL BDL20161203035511312/03/16 03:55:31  5-MIN KBDL 030855Z 32015G23KT 10SM OVC100 04/M04 A2984 250 57 -900 340/15G23 RMK AO2 T00391039
14740KBDL BDL20161203040011312/03/16 04:00:31  5-MIN KBDL 030900Z 31010G21KT 10SM OVC100 04/M04 A2984 250 57 -900 330/10G21 RMK AO2 T00391039
14740KBDL BDL20161203040511312/03/16 04:05:31  5-MIN KBDL 030905Z 31013G19KT 10SM OVC100 04/M04 A2984 250 57 -900 330/13G19 RMK AO2 T00391039
14740KBDL BDL20161203041011312/03/16 04:10:31  5-MIN KBDL 030910Z 32013G24KT 10SM OVC100 04/M04 A2984 250 57 -900 330/13G24 RMK AO2 T00391039
14740KBDL BDL20161203041511312/03/16 04:15:31  5-MIN KBDL 030915Z 30013G24KT 10SM OVC100 04/M04 A2984 250 57 -900 320/13G24 RMK AO2 T00391039
14740KBDL BDL20161203042011312/03/16 04:20:31  5-MIN KBDL 030920Z 30015G25KT 10SM OVC100 04/M04 A2984 250 57 -900 320/15G25 RMK AO2 T00391039
14740KBDL BDL20161203042513112/03/16 04:25:31  5-MIN KBDL 030925Z 31014G26KT 10SM OVC100 04/M04 A2984 250 57 -900 330/14G26 RMK AO2 PK WND 30026/0921 T00391039
14740KBDL BDL20161203043013212/03/16 04:30:31  5-MIN KBDL 030930Z 31016G26KT 10SM OVC100 04/M04 A2984 250 57 -1000 330/16G26 RMK AO2 PK WND 30026/0921 T00391039
14740KBDL BDL20161203043514812/03/16 04:35:31  5-MIN KBDL 030935Z 31015G24KT 290V350 10SM OVC100 04/M04 A2985 240 57 -1000 320/15G24 300V360 RMK AO2 PK WND 30026/0921 T00391039
14740KBDL BDL20161203044013212/03/16 04:40:31  5-MIN KBDL 030940Z 32013G24KT 10SM OVC100 04/M04 A2985 240 57 -1000 340/13G24 RMK AO2 PK WND 30026/0921 T00391039
14740KBDL BDL20161203044513912/03/16 04:45:31  5-MIN KBDL 030945Z 31020G27KT 10SM OVC100 04/M04 A2985 240 57 -1000 320/20G27 RMK AO2 PK WND 31027/0944 SLP107 T00391039
14740KBDL BDL20161203045016112/03/16 04:50:31  5-MIN KBDL 030950Z 32016G31KT 300V360 10SM FEW037 OVC100 04/M04 A2985 240 55 -900 330/16G31 310V010 RMK AO2 PK WND 31031/0948 SLP108 T00441039
14740KBDL BDL20161203045511412/03/16 04:55:31  5-MIN KBDL 030955Z 30016G31KT 10SM OVC100 04/M04 A2985 240 57 -1000 320/16G31 RMK AO2 T00391039
14740KBDL BDL20161203050011412/03/16 05:00:31  5-MIN KBDL 031000Z 32018G25KT 10SM OVC100 04/M04 A2985 240 57 -1000 330/18G25 RMK AO2 T00391039
14740KBDL BDL20161203050512912/03/16 05:05:31  5-MIN KBDL 031005Z 33012G25KT 290V360 10SM OVC100 04/M04 A2986 240 55 -900 340/12G25 300V010 RMK AO2 T00441039
14740KBDL BDL20161203051011312/03/16 05:10:31  5-MIN KBDL 031010Z 31017G24KT 10SM OVC100 04/M04 A2986 230 55 -900 330/17G24 RMK AO2 T00441039
14740KBDL BDL20161203051511412/03/16 05:15:31  5-MIN KBDL 031015Z 33008G24KT 10SM OVC100 04/M04 A2986 230 57 -1000 340/08G24 RMK AO2 T00391039
14740KBDL BDL20161203052011312/03/16 05:20:31  5-MIN KBDL 031020Z 33012G19KT 10SM OVC100 04/M04 A2986 230 55 -900 340/12G19 RMK AO2 T00441039
14740KBDL BDL20161203052512112/03/16 05:25:31  5-MIN KBDL 031025Z 32013G21KT 10SM FEW038 OVC100 04/M04 A2987 230 57 -1000 330/13G21 RMK AO2 T00391039
14740KBDL BDL20161203053012112/03/16 05:30:31  5-MIN KBDL 031030Z 32012G21KT 10SM FEW038 OVC100 04/M04 A2987 230 57 -1000 340/12G21 RMK AO2 T00391039
14740KBDL BDL20161203053512112/03/16 05:35:31  5-MIN KBDL 031035Z 31016G21KT 10SM FEW038 BKN100 04/M04 A2987 230 57 -1000 330/16G21 RMK AO2 T00391039
14740KBDL BDL20161203054012112/03/16 05:40:31  5-MIN KBDL 031040Z 34009G21KT 10SM FEW038 BKN100 04/M04 A2987 220 57 -1000 350/09G21 RMK AO2 T00391039
14740KBDL BDL20161203054514412/03/16 05:45:31  5-MIN KBDL 031045Z 33011G17KT 300V360 10SM FEW038 BKN100 04/M04 A2988 220 57 -1000 340/11G17 310V010 RMK AO2 SLP117 T00391039
14740KBDL BDL20161203055012812/03/16 05:50:31  5-MIN KBDL 031050Z 33011G17KT 10SM FEW038 BKN100 04/M04 A2988 220 57 -1000 340/11G17 RMK AO2 SLP117 T00391039
14740KBDL BDL20161203055513012/03/16 05:55:31  5-MIN KBDL 031055Z 33008G17KT 310V010 10SM BKN100 04/M04 A2988 210 57 -1000 340/08G17 320V020 RMK AO2 T00391039
14740KBDL BDL20161203060010812/03/16 06:00:31  5-MIN KBDL 031100Z 32008KT 10SM BKN100 03/M04 A2988 210 59 -1100 330/08 RMK AO2 T00331039
14740KBDL BDL20161203060512412/03/16 06:05:31  5-MIN KBDL 031105Z 33008KT 300V360 10SM SCT100 04/M04 A2988 210 57 -1000 340/08 310V010 RMK AO2 T00391039
14740KBDL BDL20161203061011412/03/16 06:10:31  5-MIN KBDL 031110Z 33010G19KT 10SM SCT100 04/M04 A2988 210 57 -1000 340/10G19 RMK AO2 T00391039
14740KBDL BDL20161203061511412/03/16 06:15:31  5-MIN KBDL 031115Z 32011G19KT 10SM FEW100 03/M04 A2989 210 59 -1100 330/11G19 RMK AO2 T00331039
14740KBDL BDL20161203062011412/03/16 06:20:31  5-MIN KBDL 031120Z 30014G18KT 10SM FEW100 03/M04 A2988 210 59 -1100 310/14G18 RMK AO2 T00331039
14740KBDL BDL20161203062511112/03/16 06:25:31  5-MIN KBDL 031125Z 31013G18KT 10SM CLR 03/M04 A2989 210 59 -1100 320/13G18 RMK AO2 T00331039
14740KBDL BDL20161203063011112/03/16 06:30:31  5-MIN KBDL 031130Z 32014G19KT 10SM CLR 03/M04 A2989 200 59 -1100 330/14G19 RMK AO2 T00331039
14740KBDL BDL20161203063511412/03/16 06:35:31  5-MIN KBDL 031135Z 32010G19KT 10SM FEW038 03/M04 A2990 200 59 -1100 340/10G19 RMK AO2 T00331039
14740KBDL BDL20161203064011412/03/16 06:40:31  5-MIN KBDL 031140Z 32009G18KT 10SM SCT038 04/M04 A2990 190 57 -1000 330/09G18 RMK AO2 T00391039
14740KBDL BDL20161203064515512/03/16 06:45:31  5-MIN KBDL 031145Z 33012G17KT 300V360 10SM SCT038 04/M04 A2990 200 57 -1000 340/12G17 310V010 RMK AO2 SLP125 T00391039 10050 20033 51006
14740KBDL BDL20161203065014612/03/16 06:50:31  5-MIN KBDL 031150Z 34009G19KT 10SM BKN038 BKN100 03/M04 A2990 190 59 -1100 350/09G19 RMK AO2 SLP127 T00331039 10050 20033 51006
14740KBDL BDL20161203065511412/03/16 06:55:31  5-MIN KBDL 031155Z 32009G19KT 10SM BKN038 04/M04 A2990 190 57 -1000 330/09G19 RMK AO2 T00391039
14740KBDL BDL20161203070011412/03/16 07:00:31  5-MIN KBDL 031200Z 33013G19KT 10SM BKN038 04/M04 A2990 190 57 -1000 340/13G19 RMK AO2 T00391039
14740KBDL BDL20161203070511412/03/16 07:05:31  5-MIN KBDL 031205Z 30008G18KT 10SM BKN038 04/M04 A2990 190 57 -1000 320/08G18 RMK AO2 T00391039
14740KBDL BDL20161203071012112/03/16 07:10:31  5-MIN KBDL 031210Z 31014G18KT 10SM SCT038 BKN100 03/M04 A2991 190 59 -1100 320/14G18 RMK AO2 T00331039
14740KBDL BDL20161203071512112/03/16 07:15:31  5-MIN KBDL 031215Z 31010G18KT 10SM SCT038 BKN100 03/M03 A2990 190 61 -1100 330/10G18 RMK AO2 T00331033
14740KBDL BDL20161203072012112/03/16 07:20:31  5-MIN KBDL 031220Z 30011G19KT 10SM SCT038 SCT100 03/M03 A2991 180 61 -1100 320/11G19 RMK AO2 T00331033
14740KBDL BDL20161203072512112/03/16 07:25:31  5-MIN KBDL 031225Z 32010G19KT 10SM FEW036 FEW100 03/M03 A2992 180 61 -1100 330/10G19 RMK AO2 T00331033
14740KBDL BDL20161203073012112/03/16 07:30:31  5-MIN KBDL 031230Z 32016G22KT 10SM FEW042 SCT100 04/M03 A2992 180 59 -1000 330/16G22 RMK AO2 T00391033
14740KBDL BDL20161203073512112/03/16 07:35:31  5-MIN KBDL 031235Z 31014G22KT 10SM SCT042 SCT100 04/M03 A2992 180 59 -1000 320/14G22 RMK AO2 T00391033
14740KBDL BDL20161203074012112/03/16 07:40:31  5-MIN KBDL 031240Z 31013G20KT 10SM FEW037 SCT044 03/M03 A2992 180 61 -1100 320/13G20 RMK AO2 T00331033
14740KBDL BDL20161203074512112/03/16 07:45:31  5-MIN KBDL 031245Z 32013G23KT 10SM FEW040 04/M03 A2992 180 59 -1000 330/13G23 RMK AO2 SLP133 T00391033
14740KBDL BDL20161203075014612/03/16 07:50:31  5-MIN KBDL 031250Z 32015G26KT 10SM BKN038 BKN100 04/M03 A2992 180 57 -1000 330/15G26 RMK AO2 PK WND 31026/1248 SLP132 T00441033
14740KBDL BDL20161203075511412/03/16 07:55:31  5-MIN KBDL 031255Z 31013G26KT 10SM BKN038 04/M03 A2992 170 57 -1000 320/13G26 RMK AO2 T00441033
14740KBDL BDL20161203080011412/03/16 08:00:31  5-MIN KBDL 031300Z 31014G25KT 10SM BKN037 04/M03 A2992 170 59 -1000 320/14G25 RMK AO2 T00391033
14740KBDL BDL20161203080511412/03/16 08:05:31  5-MIN KBDL 031305Z 32009G20KT 10SM BKN037 04/M03 A2993 170 59 -1000 330/09G20 RMK AO2 T00391033
14740KBDL BDL20161203081011412/03/16 08:10:31  5-MIN KBDL 031310Z 32009G16KT 10SM BKN037 04/M03 A2993 170 57 -1000 330/09G16 RMK AO2 T00441033
14740KBDL BDL20161203081511412/03/16 08:15:31  5-MIN KBDL 031315Z 31013G18KT 10SM OVC037 04/M03 A2993 170 57 -1000 330/13G18 RMK AO2 T00441033
14740KBDL BDL20161203082011412/03/16 08:20:31  5-MIN KBDL 031320Z 30016G23KT 10SM BKN037 04/M04 A2993 170 55 -1000 320/16G23 RMK AO2 T00441039
14740KBDL BDL20161203082511412/03/16 08:25:31  5-MIN KBDL 031325Z 32013G23KT 10SM BKN037 04/M04 A2993 170 55 -1000 330/13G23 RMK AO2 T00441039
14740KBDL BDL20161203083011312/03/16 08:30:31  5-MIN KBDL 031330Z 30012G19KT 10SM BKN037 05/M03 A2993 170 55 -900 320/12G19 RMK AO2 T00501033
14740KBDL BDL20161203083511312/03/16 08:35:31  5-MIN KBDL 031335Z 32011G19KT 10SM BKN037 05/M03 A2993 170 55 -900 330/11G19 RMK AO2 T00501033
14740KBDL BDL20161203084011312/03/16 08:40:31  5-MIN KBDL 031340Z 32014G18KT 10SM BKN037 05/M04 A2993 170 52 -900 330/14G18 RMK AO2 T00501039
14740KBDL BDL20161203084512012/03/16 08:45:31  5-MIN KBDL 031345Z 32013G19KT 10SM SCT037 05/M04 A2993 170 52 -900 330/13G19 RMK AO2 SLP136 T00501039
14740KBDL BDL20161203085012012/03/16 08:50:31  5-MIN KBDL 031350Z 31017G22KT 10SM SCT038 05/M04 A2993 170 52 -900 320/17G22 RMK AO2 SLP136 T00501039
14740KBDL BDL20161203085511312/03/16 08:55:31  5-MIN KBDL 031355Z 32016G24KT 10SM FEW038 05/M04 A2993 160 52 -900 340/16G24 RMK AO2 T00501039
14740KBDL BDL20161203090011312/03/16 09:00:31  5-MIN KBDL 031400Z 31013G24KT 10SM FEW037 05/M04 A2994 160 52 -900 320/13G24 RMK AO2 T00501039
14740KBDL BDL20161203090510712/03/16 09:05:31  5-MIN KBDL 031405Z 31012KT 10SM FEW039 06/M04 A2994 160 50 -900 330/12 RMK AO2 T00561039
14740KBDL BDL20161203091011312/03/16 09:10:31  5-MIN KBDL 031410Z 31010G18KT 10SM FEW039 06/M04 A2994 160 50 -900 320/10G18 RMK AO2 T00561039
14740KBDL BDL20161203091511312/03/16 09:15:31  5-MIN KBDL 031415Z 31015G18KT 10SM FEW041 06/M04 A2994 150 48 -800 320/15G18 RMK AO2 T00611039
14740KBDL BDL20161203092011312/03/16 09:20:31  5-MIN KBDL 031420Z 32013G18KT 10SM FEW041 06/M04 A2994 150 48 -800 330/13G18 RMK AO2 T00611039
14740KBDL BDL20161203092511312/03/16 09:25:31  5-MIN KBDL 031425Z 30009G17KT 10SM FEW041 06/M04 A2994 160 48 -800 320/09G17 RMK AO2 T00611039
14740KBDL BDL20161203093011312/03/16 09:30:31  5-MIN KBDL 031430Z 32015G25KT 10SM FEW041 06/M04 A2994 150 48 -800 330/15G25 RMK AO2 T00611039
14740KBDL BDL20161203093511312/03/16 09:35:31  5-MIN KBDL 031435Z 32017G25KT 10SM SCT041 06/M04 A2995 150 50 -900 330/17G25 RMK AO2 T00561039
14740KBDL BDL20161203094011312/03/16 09:40:31  5-MIN KBDL 031440Z 32012G24KT 10SM FEW040 06/M04 A2995 150 50 -900 340/12G24 RMK AO2 T00561039
14740KBDL BDL20161203094512612/03/16 09:45:31  5-MIN KBDL 031445Z 30010G21KT 10SM FEW040 06/M04 A2996 140 50 -900 320/10G21 RMK AO2 SLP144 T00561039 53021
14740KBDL BDL20161203095015112/03/16 09:50:31  5-MIN KBDL 031450Z 33016G27KT 10SM BKN040 BKN100 05/M04 A2996 140 52 -900 340/16G27 RMK AO2 PK WND 30027/1447 SLP145 T00501039 53021
14740KBDL BDL20161203095511312/03/16 09:55:31  5-MIN KBDL 031455Z 32011G27KT 10SM BKN040 06/M04 A2996 140 50 -900 330/11G27 RMK AO2 T00561039
14740KBDL BDL20161203100011312/03/16 10:00:31  5-MIN KBDL 031500Z 33014G20KT 10SM BKN040 06/M04 A2996 140 50 -900 350/14G20 RMK AO2 T00561039
14740KBDL BDL20161203100511312/03/16 10:05:31  5-MIN KBDL 031505Z 32011G21KT 10SM SCT040 05/M04 A2996 140 52 -900 340/11G21 RMK AO2 T00501039
14740KBDL BDL20161203101011312/03/16 10:10:31  5-MIN KBDL 031510Z 32011G21KT 10SM SCT040 06/M03 A2996 140 53 -900 340/11G21 RMK AO2 T00561033
14740KBDL BDL20161203101512012/03/16 10:15:31  5-MIN KBDL 031515Z 31014G19KT 10SM FEW040 SCT100 06/M03 A2996 140 51 -800 330/14G19 RMK AO2 T00611033
14740KBDL BDL20161203102012012/03/16 10:20:31  5-MIN KBDL 031520Z 31016G24KT 10SM SCT040 BKN100 06/M04 A2996 140 48 -800 320/16G24 RMK AO2 T00611039
14740KBDL BDL20161203102512012/03/16 10:25:31  5-MIN KBDL 031525Z 32015G24KT 10SM FEW040 SCT100 06/M04 A2996 140 50 -900 330/15G24 RMK AO2 T00561039
14740KBDL BDL20161203103012012/03/16 10:30:31  5-MIN KBDL 031530Z 32016G23KT 10SM FEW040 SCT100 06/M03 A2996 140 51 -800 330/16G23 RMK AO2 T00611033
14740KBDL BDL20161203103513812/03/16 10:35:31  5-MIN KBDL 031535Z 32018G27KT 10SM SCT040 SCT100 06/M04 A2996 140 50 -900 330/18G27 RMK AO2 PK WND 31027/1535 T00561039
14740KBDL BDL20161203104013812/03/16 10:40:31  5-MIN KBDL 031540Z 32016G27KT 10SM SCT040 BKN100 06/M04 A2996 140 48 -800 340/16G27 RMK AO2 PK WND 31027/1535 T00611039
14740KBDL BDL20161203104514512/03/16 10:45:31  5-MIN KBDL 031545Z 32017G26KT 10SM SCT040 SCT100 06/M04 A2996 140 48 -800 330/17G26 RMK AO2 PK WND 31027/1535 SLP146 T00611039
14740KBDL BDL20161203105014512/03/16 10:50:31  5-MIN KBDL 031550Z 31012G26KT 10SM BKN040 BKN100 07/M04 A2996 140 47 -700 330/12G26 RMK AO2 PK WND 31027/1535 SLP146 T00671039
14740KBDL BDL20161203105510712/03/16 10:55:31  5-MIN KBDL 031555Z 31010KT 10SM SCT040 06/M04 A2996 140 48 -800 320/10 RMK AO2 T00611039
14740KBDL BDL20161203110011312/03/16 11:00:31  5-MIN KBDL 031600Z 33012G21KT 10SM SCT041 06/M04 A2996 140 48 -800 340/12G21 RMK AO2 T00611039
14740KBDL BDL20161203110511312/03/16 11:05:31  5-MIN KBDL 031605Z 31020G25KT 10SM SCT043 06/M04 A2996 140 46 -800 320/20G25 RMK AO2 T00611044
14740KBDL BDL20161203111011312/03/16 11:10:31  5-MIN KBDL 031610Z 32014G25KT 10SM FEW043 07/M04 A2996 140 47 -700 340/14G25 RMK AO2 T00671039
14740KBDL BDL20161203111511312/03/16 11:15:31  5-MIN KBDL 031615Z 33016G24KT 10SM SCT045 07/M04 A2996 140 45 -700 340/16G24 RMK AO2 T00671044
14740KBDL BDL20161203112013112/03/16 11:20:31  5-MIN KBDL 031620Z 32020G27KT 10SM FEW045 06/M04 A2996 140 46 -800 330/20G27 RMK AO2 PK WND 33027/1619 T00611044
14740KBDL BDL20161203112513112/03/16 11:25:31  5-MIN KBDL 031625Z 31019G27KT 10SM FEW045 06/M04 A2996 140 48 -900 330/19G27 RMK AO2 PK WND 33027/1619 T00561044
14740KBDL BDL20161203113013112/03/16 11:30:31  5-MIN KBDL 031630Z 32018G31KT 10SM FEW045 06/M04 A2996 140 46 -800 330/18G31 RMK AO2 PK WND 32031/1627 T00611044
14740KBDL BDL20161203113513112/03/16 11:35:31  5-MIN KBDL 031635Z 32016G31KT 10SM SCT045 06/M04 A2996 140 48 -900 340/16G31 RMK AO2 PK WND 32031/1627 T00561044
14740KBDL BDL20161203114013112/03/16 11:40:31  5-MIN KBDL 031640Z 31020G26KT 10SM SCT045 06/M04 A2996 140 46 -800 320/20G26 RMK AO2 PK WND 32031/1627 T00611044
14740KBDL BDL20161203114513812/03/16 11:45:31  5-MIN KBDL 031645Z 31016G26KT 10SM SCT043 06/M04 A2997 130 46 -800 320/16G26 RMK AO2 PK WND 32031/1627 SLP148 T00611044
14740KBDL BDL20161203115013812/03/16 11:50:31  5-MIN KBDL 031650Z 32020G30KT 10SM BKN043 06/M04 A2996 140 46 -800 330/20G30 RMK AO2 PK WND 32031/1627 SLP146 T00611044
14740KBDL BDL20161203115511312/03/16 11:55:31  5-MIN KBDL 031655Z 31017G30KT 10SM BKN043 06/M04 A2996 140 46 -800 330/17G30 RMK AO2 T00611044
14740KBDL BDL20161203120011312/03/16 12:00:31  5-MIN KBDL 031700Z 33012G22KT 10SM BKN043 07/M04 A2996 140 47 -700 350/12G22 RMK AO2 T00671039
14740KBDL BDL20161203120513112/03/16 12:05:31  5-MIN KBDL 031705Z 32017G30KT 10SM OVC043 07/M04 A2996 140 45 -700 330/17G30 RMK AO2 PK WND 33030/1702 T00721039
14740KBDL BDL20161203121013112/03/16 12:10:31  5-MIN KBDL 031710Z 31016G30KT 10SM OVC043 07/M04 A2995 150 45 -700 330/16G30 RMK AO2 PK WND 33030/1702 T00721039
14740KBDL BDL20161203121513112/03/16 12:15:31  5-MIN KBDL 031715Z 30020G25KT 10SM OVC043 08/M04 A2995 150 43 -600 310/20G25 RMK AO2 PK WND 33030/1702 T00781039
14740KBDL BDL20161203122013112/03/16 12:20:31  5-MIN KBDL 031720Z 31015G25KT 10SM BKN043 07/M04 A2995 150 45 -700 330/15G25 RMK AO2 PK WND 33030/1702 T00721039
14740KBDL BDL20161203122513112/03/16 12:25:31  5-MIN KBDL 031725Z 32018G25KT 10SM BKN043 07/M04 A2995 150 43 -700 330/18G25 RMK AO2 PK WND 33030/1702 T00721044
14740KBDL BDL20161203123013112/03/16 12:30:31  5-MIN KBDL 031730Z 31014G25KT 10SM BKN043 07/M04 A2995 140 43 -700 320/14G25 RMK AO2 PK WND 33030/1702 T00721044
14740KBDL BDL20161203123513112/03/16 12:35:31  5-MIN KBDL 031735Z 31017G27KT 10SM BKN043 07/M05 A2995 150 43 -700 330/17G27 RMK AO2 PK WND 33030/1702 T00671050
14740KBDL BDL20161203124013112/03/16 12:40:31  5-MIN KBDL 031740Z 31018G27KT 10SM BKN045 07/M04 A2995 150 45 -700 320/18G27 RMK AO2 PK WND 33030/1702 T00671044
14740KBDL BDL20161203124515612/03/16 12:45:31  5-MIN KBDL 031745Z 31016G22KT 10SM BKN045 07/M04 A2996 140 43 -700 330/16G22 RMK AO2 PK WND 33030/1702 SLP144 T00721044 10078 20033 53019
14740KBDL BDL20161203125015612/03/16 12:50:31  5-MIN KBDL 031750Z 30015G22KT 10SM BKN045 07/M04 A2996 140 43 -700 310/15G22 RMK AO2 PK WND 33030/1702 SLP144 T00721044 10078 20033 53019
14740KBDL BDL20161203125513112/03/16 12:55:31  5-MIN KBDL 031755Z 30022G29KT 10SM BKN045 07/M04 A2996 140 45 -700 320/22G29 RMK AO2 PK WND 31029/1754 T00721039
14740KBDL BDL20161203130013812/03/16 13:00:31  5-MIN KBDL 031800Z 31022G30KT 10SM BKN045 BKN055 06/M04 A2996 140 46 -800 320/22G30 RMK AO2 PK WND 31030/1757 T00611044
14740KBDL BDL20161203130513112/03/16 13:05:31  5-MIN KBDL 031805Z 31020G30KT 10SM BKN045 06/M04 A2996 140 48 -900 320/20G30 RMK AO2 PK WND 31030/1757 T00561044
14740KBDL BDL20161203131013812/03/16 13:10:31  5-MIN KBDL 031810Z 31021G28KT 10SM BKN045 BKN055 06/M04 A2996 140 48 -900 320/21G28 RMK AO2 PK WND 31030/1757 T00561044
14740KBDL BDL20161203131513812/03/16 13:15:31  5-MIN KBDL 031815Z 30016G28KT 10SM SCT046 BKN055 06/M04 A2996 140 46 -800 320/16G28 RMK AO2 PK WND 31030/1757 T00611044
14740KBDL BDL20161203132013112/03/16 13:20:31  5-MIN KBDL 031820Z 30016G25KT 10SM SCT046 07/M04 A2996 140 43 -700 320/16G25 RMK AO2 PK WND 31030/1757 T00721044
14740KBDL BDL20161203132513112/03/16 13:25:31  5-MIN KBDL 031825Z 32020G26KT 10SM SCT049 07/M04 A2996 140 45 -700 330/20G26 RMK AO2 PK WND 31030/1757 T00671044
14740KBDL BDL20161203133013112/03/16 13:30:31  5-MIN KBDL 031830Z 32017G30KT 10SM SCT049 06/M05 A2996 140 45 -800 330/17G30 RMK AO2 PK WND 31030/1757 T00611050
14740KBDL BDL20161203133513112/03/16 13:35:31  5-MIN KBDL 031835Z 32018G30KT 10SM SCT049 07/M05 A2996 140 43 -700 330/18G30 RMK AO2 PK WND 31030/1757 T00671050
14740KBDL BDL20161203134013112/03/16 13:40:31  5-MIN KBDL 031840Z 31016G25KT 10SM SCT050 06/M06 A2996 140 44 -900 320/16G25 RMK AO2 PK WND 31030/1757 T00561056
14740KBDL BDL20161203134513812/03/16 13:45:31  5-MIN KBDL 031845Z 32017G25KT 10SM SCT050 06/M06 A2996 140 44 -900 340/17G25 RMK AO2 PK WND 31030/1757 SLP145 T00561056
14740KBDL BDL20161203135014512/03/16 13:50:31  5-MIN KBDL 031850Z 32018G25KT 10SM BKN048 BKN055 06/M06 A2996 140 44 -900 340/18G25 RMK AO2 PK WND 31030/1757 SLP145 T00561056
14740KBDL BDL20161203135511312/03/16 13:55:31  5-MIN KBDL 031855Z 32016G25KT 10SM FEW050 06/M06 A2996 140 44 -900 330/16G25 RMK AO2 T00561056
14740KBDL BDL20161203140012012/03/16 14:00:31  5-MIN KBDL 031900Z 29013G22KT 10SM FEW050 SCT060 06/M06 A2996 140 44 -900 310/13G22 RMK AO2 T00561056
14740KBDL BDL20161203140513812/03/16 14:05:31  5-MIN KBDL 031905Z 30018G26KT 10SM FEW050 SCT060 06/M05 A2996 140 46 -900 310/18G26 RMK AO2 PK WND 29026/1904 T00561050
14740KBDL BDL20161203141013812/03/16 14:10:31  5-MIN KBDL 031910Z 31016G26KT 10SM FEW050 SCT060 06/M05 A2996 140 46 -900 320/16G26 RMK AO2 PK WND 29026/1904 T00561050
14740KBDL BDL20161203141513112/03/16 14:15:31  5-MIN KBDL 031915Z 31017G24KT 10SM SCT055 06/M06 A2996 140 44 -900 320/17G24 RMK AO2 PK WND 29026/1904 T00561056
14740KBDL BDL20161203142012512/03/16 14:20:31  5-MIN KBDL 031920Z 30013KT 10SM BKN055 06/M06 A2996 140 44 -900 310/13 RMK AO2 PK WND 29026/1904 T00561056
14740KBDL BDL20161203142513112/03/16 14:25:31  5-MIN KBDL 031925Z 30018G26KT 10SM BKN055 06/M06 A2997 130 44 -900 320/18G26 RMK AO2 PK WND 29026/1904 T00561056
14740KBDL BDL20161203143013812/03/16 14:30:31  5-MIN KBDL 031930Z 31016G26KT 10SM FEW049 BKN055 06/M06 A2997 130 44 -900 320/16G26 RMK AO2 PK WND 29026/1904 T00561056
14740KBDL BDL20161203143513112/03/16 14:35:31  5-MIN KBDL 031935Z 30015G23KT 10SM BKN055 06/M05 A2997 130 46 -900 310/15G23 RMK AO2 PK WND 29026/1904 T00561050
14740KBDL BDL20161203144013112/03/16 14:40:31  5-MIN KBDL 031940Z 29015G22KT 10SM BKN055 06/M05 A2997 130 46 -900 300/15G22 RMK AO2 PK WND 29026/1904 T00561050
14740KBDL BDL20161203144513812/03/16 14:45:31  5-MIN KBDL 031945Z 29016G22KT 10SM BKN055 06/M05 A2997 130 46 -900 310/16G22 RMK AO2 PK WND 29026/1904 SLP151 T00561050
14740KBDL BDL20161203145014012/03/16 14:50:31  5-MIN KBDL 031950Z 29013KT 10SM BKN049 BKN055 05/M05 A2997 130 48 -1000 300/13 RMK AO2 PK WND 29026/1904 SLP151 T00501050
14740KBDL BDL20161203145510812/03/16 14:55:31  5-MIN KBDL 031955Z 29013KT 10SM BKN055 05/M05 A2997 130 48 -1000 310/13 RMK AO2 T00501050
14740KBDL BDL20161203150010812/03/16 15:00:31  5-MIN KBDL 032000Z 29016KT 10SM BKN055 05/M05 A2997 130 48 -1000 310/16 RMK AO2 T00501050
14740KBDL BDL20161203150510812/03/16 15:05:31  5-MIN KBDL 032005Z 30011KT 10SM BKN055 05/M05 A2998 120 48 -1000 310/11 RMK AO2 T00501050
14740KBDL BDL20161203151010812/03/16 15:10:31  5-MIN KBDL 032010Z 30016KT 10SM BKN055 05/M05 A2998 120 48 -1000 320/16 RMK AO2 T00501050
14740KBDL BDL20161203151510812/03/16 15:15:31  5-MIN KBDL 032015Z 29012KT 10SM BKN055 05/M05 A2998 120 48 -1000 310/12 RMK AO2 T00501050
14740KBDL BDL20161203152010812/03/16 15:20:31  5-MIN KBDL 032020Z 30015KT 10SM BKN050 05/M05 A2998 120 48 -1000 320/15 RMK AO2 T00501050
14740KBDL BDL20161203152510812/03/16 15:25:31  5-MIN KBDL 032025Z 29013KT 10SM BKN050 05/M04 A2999 120 50 -1000 310/13 RMK AO2 T00501044
14740KBDL BDL20161203153010812/03/16 15:30:31  5-MIN KBDL 032030Z 30013KT 10SM OVC050 05/M04 A2999 110 50 -1000 310/13 RMK AO2 T00501044
14740KBDL BDL20161203153510812/03/16 15:35:31  5-MIN KBDL 032035Z 30011KT 10SM OVC050 05/M05 A2999 110 48 -1000 310/11 RMK AO2 T00501050
14740KBDL BDL20161203154010812/03/16 15:40:31  5-MIN KBDL 032040Z 30011KT 10SM OVC055 05/M04 A2999 110 50 -1000 320/11 RMK AO2 T00501044
14740KBDL BDL20161203154512112/03/16 15:45:31  5-MIN KBDL 032045Z 30011KT 10SM OVC055 05/M05 A2999 110 48 -1000 310/11 RMK AO2 SLP157 T00501050 58000
14740KBDL BDL20161203155012112/03/16 15:50:31  5-MIN KBDL 032050Z 30012KT 10SM OVC055 05/M05 A3000 100 48 -1000 310/12 RMK AO2 SLP160 T00501050 58000
14740KBDL BDL20161203155510812/03/16 15:55:31  5-MIN KBDL 032055Z 29014KT 10SM BKN055 05/M05 A3000 100 48 -1000 310/14 RMK AO2 T00501050
14740KBDL BDL20161203160010812/03/16 16:00:31  5-MIN KBDL 032100Z 30014KT 10SM BKN055 05/M05 A3000 110 48 -1000 320/14 RMK AO2 T00501050
14740KBDL BDL20161203160510812/03/16 16:05:31  5-MIN KBDL 032105Z 31011KT 10SM BKN055 04/M05 A3000 100 50 -1100 330/11 RMK AO2 T00441050
14740KBDL BDL20161203161010812/03/16 16:10:31  5-MIN KBDL 032110Z 31014KT 10SM SCT055 04/M05 A3000 100 50 -1100 320/14 RMK AO2 T00441050
14740KBDL BDL20161203161511512/03/16 16:15:31  5-MIN KBDL 032115Z 31012KT 10SM SCT049 SCT060 04/M05 A3000 100 50 -1100 320/12 RMK AO2 T00441050
14740KBDL BDL20161203162010812/03/16 16:20:31  5-MIN KBDL 032120Z 30014KT 10SM SCT049 04/M06 A3000 100 48 -1100 320/14 RMK AO2 T00441056
14740KBDL BDL20161203162510712/03/16 16:25:31  5-MIN KBDL 032125Z 30015KT 10SM SCT050 04/M06 A3001 90 48 -1100 320/15 RMK AO2 T00441056
14740KBDL BDL20161203163010712/03/16 16:30:31  5-MIN KBDL 032130Z 30014KT 10SM SCT050 04/M06 A3001 90 48 -1100 310/14 RMK AO2 T00441056
14740KBDL BDL20161203163510712/03/16 16:35:31  5-MIN KBDL 032135Z 30015KT 10SM SCT050 04/M06 A3002 90 48 -1100 310/15 RMK AO2 T00441056
14740KBDL BDL20161203164010712/03/16 16:40:31  5-MIN KBDL 032140Z 30017KT 10SM SCT055 04/M06 A3002 80 48 -1100 320/17 RMK AO2 T00441056
14740KBDL BDL20161203164511412/03/16 16:45:31  5-MIN KBDL 032145Z 30012KT 10SM FEW050 04/M05 A3002 80 50 -1100 310/12 RMK AO2 SLP168 T00441050
14740KBDL BDL20161203165012712/03/16 16:50:31  5-MIN KBDL 032150Z 30013G20KT 10SM SCT055 SCT090 04/M05 A3002 80 52 -1200 320/13G20 RMK AO2 SLP169 T00391050
14740KBDL BDL20161203165511312/03/16 16:55:31  5-MIN KBDL 032155Z 30013G19KT 10SM FEW055 04/M05 A3003 80 52 -1200 320/13G19 RMK AO2 T00391050
14740KBDL BDL20161203170011312/03/16 17:00:31  5-MIN KBDL 032200Z 29012G19KT 10SM SCT055 04/M05 A3003 70 52 -1200 310/12G19 RMK AO2 T00391050
14740KBDL BDL20161203170511312/03/16 17:05:31  5-MIN KBDL 032205Z 30015G21KT 10SM SCT055 04/M05 A3004 70 50 -1100 320/15G21 RMK AO2 T00441050
14740KBDL BDL20161203171011312/03/16 17:10:31  5-MIN KBDL 032210Z 30016G21KT 10SM BKN055 04/M05 A3004 70 50 -1100 310/16G21 RMK AO2 T00441050
14740KBDL BDL20161203171511312/03/16 17:15:31  5-MIN KBDL 032215Z 30011G19KT 10SM BKN055 04/M04 A3004 60 52 -1100 320/11G19 RMK AO2 T00441044
14740KBDL BDL20161203172010712/03/16 17:20:31  5-MIN KBDL 032220Z 30010KT 10SM OVC055 04/M05 A3005 60 50 -1100 310/10 RMK AO2 T00441050
14740KBDL BDL20161203172510712/03/16 17:25:31  5-MIN KBDL 032225Z 28007KT 10SM OVC055 04/M04 A3005 60 52 -1100 290/07 RMK AO2 T00441044
14740KBDL BDL20161203173010712/03/16 17:30:31  5-MIN KBDL 032230Z 29010KT 10SM OVC050 04/M04 A3005 50 54 -1200 310/10 RMK AO2 T00391044
14740KBDL BDL20161203173510712/03/16 17:35:31  5-MIN KBDL 032235Z 30009KT 10SM OVC050 04/M04 A3005 50 54 -1200 310/09 RMK AO2 T00391044
14740KBDL BDL20161203174011312/03/16 17:40:31  5-MIN KBDL 032240Z 30016G22KT 10SM OVC050 04/M04 A3006 50 54 -1200 320/16G22 RMK AO2 T00391044
14740KBDL BDL20161203174512012/03/16 17:45:31  5-MIN KBDL 032245Z 30014G22KT 10SM OVC050 04/M04 A3006 50 54 -1200 320/14G22 RMK AO2 SLP181 T00391044
14740KBDL BDL20161203175012712/03/16 17:50:31  5-MIN KBDL 032250Z 31011G21KT 10SM BKN050 BKN090 04/M04 A3006 40 54 -1200 330/11G21 RMK AO2 SLP182 T00391044
14740KBDL BDL20161203175511312/03/16 17:55:31  5-MIN KBDL 032255Z 30012G21KT 10SM OVC050 04/M04 A3007 40 54 -1200 320/12G21 RMK AO2 T00391044
14740KBDL BDL20161203180011312/03/16 18:00:31  5-MIN KBDL 032300Z 30012G19KT 10SM OVC050 04/M04 A3007 40 54 -1200 320/12G19 RMK AO2 T00391044
14740KBDL BDL20161203180511312/03/16 18:05:31  5-MIN KBDL 032305Z 31014G19KT 10SM OVC050 04/M04 A3007 40 54 -1200 330/14G19 RMK AO2 T00391044
14740KBDL BDL20161203181011312/03/16 18:10:31  5-MIN KBDL 032310Z 31014G20KT 10SM OVC050 04/M04 A3007 40 54 -1200 320/14G20 RMK AO2 T00391044
14740KBDL BDL20161203181511312/03/16 18:15:31  5-MIN KBDL 032315Z 31012G20KT 10SM OVC050 04/M04 A3007 40 54 -1200 320/12G20 RMK AO2 T00391044
14740KBDL BDL20161203182011312/03/16 18:20:31  5-MIN KBDL 032320Z 30014G20KT 10SM OVC048 04/M04 A3007 30 54 -1200 320/14G20 RMK AO2 T00391044
14740KBDL BDL20161203182512012/03/16 18:25:31  5-MIN KBDL 032325Z 32011G22KT 10SM BKN043 OVC050 04/M04 A3008 30 54 -1200 330/11G22 RMK AO2 T00391044
14740KBDL BDL20161203183012012/03/16 18:30:31  5-MIN KBDL 032330Z 31017G23KT 10SM BKN041 OVC050 04/M04 A3008 30 54 -1200 330/17G23 RMK AO2 T00391044
14740KBDL BDL20161203183512012/03/16 18:35:31  5-MIN KBDL 032335Z 32017G23KT 10SM BKN043 OVC050 04/M04 A3008 30 54 -1200 340/17G23 RMK AO2 T00391044
14740KBDL BDL20161203184012012/03/16 18:40:31  5-MIN KBDL 032340Z 33017G25KT 10SM BKN043 OVC050 04/M04 A3008 30 54 -1200 340/17G25 RMK AO2 T00391044
14740KBDL BDL20161203184514512/03/16 18:45:31  5-MIN KBDL 032345Z 33011G25KT 10SM SCT043 OVC050 04/M04 A3007 30 54 -1200 340/11G25 RMK AO2 SLP186 T00391044 10072 20039 53014
14740KBDL BDL20161203185014512/03/16 18:50:31  5-MIN KBDL 032350Z 33010G21KT 10SM SCT043 BKN050 04/M04 A3007 30 54 -1200 340/10G21 RMK AO2 SLP185 T00391044 10072 20039 53014
14740KBDL BDL20161203185512012/03/16 18:55:31  5-MIN KBDL 032355Z 33014G17KT 10SM FEW041 OVC050 04/M04 A3008 30 54 -1200 340/14G17 RMK AO2 T00391044
14740KBDL BDL20161203190011312/03/16 19:00:31  5-MIN KBDL 040000Z 32012G20KT 10SM OVC050 04/M04 A3008 30 54 -1200 330/12G20 RMK AO2 T00391044
14740KBDL BDL20161203190511312/03/16 19:05:31  5-MIN KBDL 040005Z 32015G21KT 10SM OVC050 04/M04 A3008 30 54 -1200 340/15G21 RMK AO2 T00391044
14740KBDL BDL20161203191011312/03/16 19:10:31  5-MIN KBDL 040010Z 32010G21KT 10SM OVC050 04/M04 A3008 30 54 -1200 340/10G21 RMK AO2 T00391044
14740KBDL BDL20161203191510712/03/16 19:15:31  5-MIN KBDL 040015Z 32011KT 10SM OVC050 04/M04 A3008 30 54 -1200 330/11 RMK AO2 T00391044
14740KBDL BDL20161203192010712/03/16 19:20:31  5-MIN KBDL 040020Z 32009KT 10SM OVC050 04/M04 A3008 30 54 -1200 330/09 RMK AO2 T00391044
14740KBDL BDL20161203192511312/03/16 19:25:31  5-MIN KBDL 040025Z 31012G18KT 10SM OVC050 04/M04 A3008 30 54 -1200 320/12G18 RMK AO2 T00391044
14740KBDL BDL20161203193011312/03/16 19:30:31  5-MIN KBDL 040030Z 31014G20KT 10SM OVC050 04/M04 A3008 30 54 -1200 330/14G20 RMK AO2 T00391044
14740KBDL BDL20161203193510712/03/16 19:35:31  5-MIN KBDL 040035Z 31015KT 10SM OVC050 03/M04 A3008 30 57 -1300 320/15 RMK AO2 T00331044
14740KBDL BDL20161203194012012/03/16 19:40:31  5-MIN KBDL 040040Z 32013G22KT 10SM BKN047 OVC055 04/M04 A3007 30 54 -1200 340/13G22 RMK AO2 T00391044
14740KBDL BDL20161203194512012/03/16 19:45:31  5-MIN KBDL 040045Z 31012G22KT 10SM OVC049 03/M04 A3007 40 57 -1300 330/12G22 RMK AO2 SLP185 T00331044
14740KBDL BDL20161203195012712/03/16 19:50:31  5-MIN KBDL 040050Z 31011G21KT 10SM BKN049 BKN055 03/M04 A3007 40 57 -1300 330/11G21 RMK AO2 SLP185 T00331044
14740KBDL BDL20161203195511312/03/16 19:55:31  5-MIN KBDL 040055Z 31014G22KT 10SM OVC047 03/M04 A3007 40 57 -1300 320/14G22 RMK AO2 T00331044
14740KBDL BDL20161203200011312/03/16 20:00:31  5-MIN KBDL 040100Z 31012G22KT 10SM BKN045 03/M04 A3007 30 57 -1300 320/12G22 RMK AO2 T00331044
14740KBDL BDL20161203200511312/03/16 20:05:31  5-MIN KBDL 040105Z 31014G21KT 10SM BKN045 03/M04 A3007 40 57 -1300 330/14G21 RMK AO2 T00331044
14740KBDL BDL20161203201012912/03/16 20:10:31  5-MIN KBDL 040110Z 33008G21KT 310V010 10SM SCT045 03/M04 A3007 40 57 -1300 350/08G21 320V020 RMK AO2 T00331044
14740KBDL BDL20161203201511312/03/16 20:15:31  5-MIN KBDL 040115Z 33009G18KT 10SM SCT045 03/M04 A3007 40 57 -1300 340/09G18 RMK AO2 T00331044
14740KBDL BDL20161203202011312/03/16 20:20:31  5-MIN KBDL 040120Z 32008G18KT 10SM FEW045 03/M05 A3007 40 54 -1300 330/08G18 RMK AO2 T00331050
14740KBDL BDL20161203202510712/03/16 20:25:31  5-MIN KBDL 040125Z 33008KT 10SM SCT045 03/M05 A3007 40 54 -1300 340/08 RMK AO2 T00331050
14740KBDL BDL20161203203010712/03/16 20:30:31  5-MIN KBDL 040130Z 36005KT 10SM SCT045 03/M05 A3007 30 54 -1300 010/05 RMK AO2 T00331050
14740KBDL BDL20161203203510712/03/16 20:35:31  5-MIN KBDL 040135Z 36004KT 10SM BKN045 03/M04 A3008 30 57 -1300 020/04 RMK AO2 T00331044
14740KBDL BDL20161203204009712/03/16 20:40:31  5-MIN KBDL 040140Z 10SM BKN045 03/M04 A3008 30 57 -1300 M /M RMK AO2 T00331044
14740KBDL BDL20161203204511412/03/16 20:45:31  5-MIN KBDL 040145Z 35006KT 10SM OVC045 03/M05 A3008 30 54 -1300 010/06 RMK AO2 SLP188 T00331050
14740KBDL BDL20161203205012112/03/16 20:50:31  5-MIN KBDL 040150Z 33009KT 10SM BKN045 BKN060 03/M05 A3008 30 54 -1300 340/09 RMK AO2 SLP188 T00331050
14740KBDL BDL20161203205510712/03/16 20:55:31  5-MIN KBDL 040155Z 33010KT 10SM OVC045 04/M05 A3008 30 52 -1200 350/10 RMK AO2 T00391050
14740KBDL BDL20161203210010712/03/16 21:00:31  5-MIN KBDL 040200Z 33012KT 10SM OVC045 04/M05 A3008 30 52 -1200 340/12 RMK AO2 T00391050
14740KBDL BDL20161203210511312/03/16 21:05:31  5-MIN KBDL 040205Z 35010G17KT 10SM OVC045 03/M05 A3008 30 54 -1300 360/10G17 RMK AO2 T00331050
14740KBDL BDL20161203211010712/03/16 21:10:31  5-MIN KBDL 040210Z 34009KT 10SM OVC043 03/M05 A3008 30 54 -1300 350/09 RMK AO2 T00331050
14740KBDL BDL20161203211510712/03/16 21:15:31  5-MIN KBDL 040215Z 34011KT 10SM OVC043 03/M05 A3008 30 54 -1300 360/11 RMK AO2 T00331050
14740KBDL BDL20161203212010712/03/16 21:20:31  5-MIN KBDL 040220Z 35010KT 10SM OVC045 03/M06 A3008 30 52 -1300 360/10 RMK AO2 T00331056
14740KBDL BDL20161203212510712/03/16 21:25:31  5-MIN KBDL 040225Z 34012KT 10SM OVC045 03/M06 A3008 30 52 -1300 350/12 RMK AO2 T00331056
14740KBDL BDL20161203213012012/03/16 21:30:31  5-MIN KBDL 040230Z 33011G21KT 10SM BKN045 OVC050 03/M06 A3008 30 50 -1300 350/11G21 RMK AO2 T00331061
14740KBDL BDL20161203213511312/03/16 21:35:31  5-MIN KBDL 040235Z 34011G21KT 10SM OVC047 03/M06 A3008 30 50 -1300 360/11G21 RMK AO2 T00331061
14740KBDL BDL20161203214011312/03/16 21:40:31  5-MIN KBDL 040240Z 34008G17KT 10SM BKN047 03/M06 A3008 30 52 -1400 350/08G17 RMK AO2 T00281061
14740KBDL BDL20161203214512012/03/16 21:45:31  5-MIN KBDL 040245Z 34009KT 10SM BKN049 03/M06 A3008 30 52 -1400 350/09 RMK AO2 SLP187 T00281061 51025
14740KBDL BDL20161203215012012/03/16 21:50:31  5-MIN KBDL 040250Z 34009KT 10SM BKN049 03/M06 A3008 30 52 -1400 350/09 RMK AO2 SLP187 T00281061 51025
14740KBDL BDL20161203215510712/03/16 21:55:31  5-MIN KBDL 040255Z 33010KT 10SM BKN049 03/M07 A3008 30 50 -1400 340/10 RMK AO2 T00281067
14740KBDL BDL20161203220010712/03/16 22:00:31  5-MIN KBDL 040300Z 33007KT 10SM SCT049 03/M07 A3008 30 50 -1400 340/07 RMK AO2 T00281067
14740KBDL BDL20161203220510712/03/16 22:05:31  5-MIN KBDL 040305Z 33006KT 10SM FEW050 03/M07 A3008 30 50 -1400 340/06 RMK AO2 T00281067
14740KBDL BDL20161203221010712/03/16 22:10:31  5-MIN KBDL 040310Z 33009KT 10SM FEW050 02/M07 A3008 20 52 -1400 340/09 RMK AO2 T00221067
14740KBDL BDL20161203221510712/03/16 22:15:31  5-MIN KBDL 040315Z 33007KT 10SM FEW050 02/M07 A3009 20 50 -1400 340/07 RMK AO2 T00221072
14740KBDL BDL20161203222010412/03/16 22:20:31  5-MIN KBDL 040320Z 33005KT 10SM CLR 02/M07 A3009 20 52 -1500 350/05 RMK AO2 T00171072
14740KBDL BDL20161203222510412/03/16 22:25:31  5-MIN KBDL 040325Z 32006KT 10SM CLR 02/M07 A3009 20 52 -1500 340/06 RMK AO2 T00171072
14740KBDL BDL20161203223010412/03/16 22:30:31  5-MIN KBDL 040330Z 32008KT 10SM CLR 02/M07 A3009 20 52 -1500 330/08 RMK AO2 T00171072
14740KBDL BDL20161203223510412/03/16 22:35:31  5-MIN KBDL 040335Z 31006KT 10SM CLR 02/M07 A3009 20 50 -1400 330/06 RMK AO2 T00221072
14740KBDL BDL20161203224010412/03/16 22:40:31  5-MIN KBDL 040340Z 32006KT 10SM CLR 01/M07 A3009 20 54 -1600 330/06 RMK AO2 T00111072
14740KBDL BDL20161203224511412/03/16 22:45:31  5-MIN KBDL 040345Z 34004KT 10SM FEW049 02/M07 A3010 10 52 -1500 350/04 RMK AO2 SLP194 T00171072
14740KBDL BDL20161203225011412/03/16 22:50:31  5-MIN KBDL 040350Z 34004KT 10SM SCT049 02/M07 A3010 10 52 -1500 350/04 RMK AO2 SLP195 T00171072
14740KBDL BDL20161203225510712/03/16 22:55:31  5-MIN KBDL 040355Z VRB03KT 10SM SCT049 02/M07 A3010 10 52 -1500 VRB/03 RMK AO2 T00171072
14740KBDL BDL20161203230010612/03/16 23:00:31  5-MIN KBDL 040400Z 31004KT 10SM BKN049 02/M07 A3011 0 52 -1500 330/04 RMK AO2 T00171072
14740KBDL BDL20161203230510612/03/16 23:05:31  5-MIN KBDL 040405Z 31004KT 10SM BKN049 02/M07 A3011 0 52 -1500 330/04 RMK AO2 T00171072
14740KBDL BDL20161203231010612/03/16 23:10:31  5-MIN KBDL 040410Z 31003KT 10SM BKN049 02/M07 A3011 0 52 -1500 330/03 RMK AO2 T00171072
14740KBDL BDL20161203231510612/03/16 23:15:31  5-MIN KBDL 040415Z 31004KT 10SM BKN049 02/M07 A3011 0 52 -1500 320/04 RMK AO2 T00171072
14740KBDL BDL20161203232010612/03/16 23:20:31  5-MIN KBDL 040420Z 30006KT 10SM BKN049 01/M07 A3011 0 54 -1600 310/06 RMK AO2 T00111072
14740KBDL BDL20161203232510612/03/16 23:25:31  5-MIN KBDL 040425Z 30007KT 10SM BKN049 01/M07 A3012 0 56 -1700 310/07 RMK AO2 T00061072
14740KBDL BDL20161203233010612/03/16 23:30:31  5-MIN KBDL 040430Z 30008KT 10SM BKN049 01/M07 A3012 0 58 -1700 310/08 RMK AO2 T00061067
14740KBDL BDL20161203233510612/03/16 23:35:31  5-MIN KBDL 040435Z 30007KT 10SM SCT049 01/M07 A3012 0 56 -1600 320/07 RMK AO2 T00111067
14740KBDL BDL20161203234010612/03/16 23:40:31  5-MIN KBDL 040440Z 31006KT 10SM SCT049 01/M07 A3012 0 58 -1700 320/06 RMK AO2 T00061067
14740KBDL BDL20161203234512312/03/16 23:45:31  5-MIN KBDL 040445Z 31005KT 10SM SCT047 01/M07 A3012 0 58 -1700 320/05 RMK AO2 SLP202 T00061067 400780006
14740KBDL BDL20161203235012512/03/16 23:50:31  5-MIN KBDL 040450Z 31004KT 10SM BKN047 01/M07 A3012 -10 58 -1700 330/04 RMK AO2 SLP202 T00061067 400780006
14740KBDL BDL20161203235510812/03/16 23:55:31  5-MIN KBDL 040455Z 32004KT 10SM BKN047 01/M07 A3013 -10 56 -1600 330/04 RMK AO2 T00111067
14740KBDL BDL20161204000010812/04/16 00:00:31  5-MIN KBDL 040500Z 31004KT 10SM BKN047 01/M07 A3013 -10 54 -1600 330/04 RMK AO2 T00111072
14740KBDL BDL20161204000510812/04/16 00:05:31  5-MIN KBDL 040505Z 31004KT 10SM BKN047 01/M07 A3013 -10 54 -1600 320/04 RMK AO2 T00111072
14740KBDL BDL20161204001010812/04/16 00:10:31  5-MIN KBDL 040510Z 30005KT 10SM BKN047 01/M07 A3013 -10 54 -1600 320/05 RMK AO2 T00111072
14740KBDL BDL20161204001510812/04/16 00:15:31  5-MIN KBDL 040515Z 31006KT 10SM BKN047 00/M07 A3013 -10 58 -1800 320/06 RMK AO2 T00001072
14740KBDL BDL20161204002010812/04/16 00:20:31  5-MIN KBDL 040520Z 32008KT 10SM SCT047 01/M07 A3013 -10 56 -1700 340/08 RMK AO2 T00061072
14740KBDL BDL20161204002510812/04/16 00:25:31  5-MIN KBDL 040525Z 32007KT 10SM SCT049 01/M07 A3013 -10 54 -1600 340/07 RMK AO2 T00111072
14740KBDL BDL20161204003010812/04/16 00:30:31  5-MIN KBDL 040530Z 32005KT 10SM SCT049 01/M07 A3013 -10 54 -1600 330/05 RMK AO2 T00111072
14740KBDL BDL20161204003510812/04/16 00:35:31  5-MIN KBDL 040535Z 32005KT 10SM SCT049 01/M07 A3013 -10 56 -1700 330/05 RMK AO2 T00061072
14740KBDL BDL20161204004010812/04/16 00:40:31  5-MIN KBDL 040540Z 32005KT 10SM SCT049 01/M07 A3013 -10 56 -1700 330/05 RMK AO2 T00061072
14740KBDL BDL20161204004513312/04/16 00:45:31  5-MIN KBDL 040545Z 31005KT 10SM FEW049 01/M07 A3013 -20 56 -1700 320/05 RMK AO2 SLP206 T00061072 10039 20000 50002
14740KBDL BDL20161204005013312/04/16 00:50:31  5-MIN KBDL 040550Z 31005KT 10SM FEW049 00/M07 A3014 -20 58 -1800 320/05 RMK AO2 SLP207 T00001072 10039 20000 50002
14740KBDL BDL20161204005510812/04/16 00:55:31  5-MIN KBDL 040555Z 30006KT 10SM SCT049 00/M07 A3014 -30 58 -1800 320/06 RMK AO2 T00001072
14740KBDL BDL20161204010010812/04/16 01:00:31  5-MIN KBDL 040600Z 31006KT 10SM SCT049 00/M07 A3014 -30 58 -1800 330/06 RMK AO2 T00001072
14740KBDL BDL20161204010510812/04/16 01:05:31  5-MIN KBDL 040605Z 30006KT 10SM SCT049 00/M07 A3015 -30 58 -1800 310/06 RMK AO2 T00001072
14740KBDL BDL20161204011010812/04/16 01:10:31  5-MIN KBDL 040610Z 31007KT 10SM BKN049 00/M07 A3015 -30 58 -1800 320/07 RMK AO2 T00001072
14740KBDL BDL20161204011510812/04/16 01:15:31  5-MIN KBDL 040615Z 31008KT 10SM BKN049 00/M07 A3015 -30 61 -1800 330/08 RMK AO2 T00001067
14740KBDL BDL20161204012010812/04/16 01:20:31  5-MIN KBDL 040620Z 31006KT 10SM BKN049 01/M07 A3015 -30 56 -1700 330/06 RMK AO2 T00061072
14740KBDL BDL20161204012510912/04/16 01:25:31  5-MIN KBDL 040625Z 31006KT 10SM BKN049 M01/M07 A3015 -30 61 -1900 320/06 RMK AO2 T10061072
14740KBDL BDL20161204013010812/04/16 01:30:31  5-MIN KBDL 040630Z 32008KT 10SM SCT049 00/M07 A3015 -30 58 -1800 330/08 RMK AO2 T00001072
14740KBDL BDL20161204013510812/04/16 01:35:31  5-MIN KBDL 040635Z 32006KT 10SM FEW049 01/M07 A3015 -30 56 -1700 330/06 RMK AO2 T00061072
14740KBDL BDL20161204014010812/04/16 01:40:31  5-MIN KBDL 040640Z 32005KT 10SM FEW049 01/M07 A3015 -30 56 -1700 330/05 RMK AO2 T00061072
14740KBDL BDL20161204014511212/04/16 01:45:31  5-MIN KBDL 040645Z 32005KT 10SM CLR 00/M07 A3016 -40 58 -1800 330/05 RMK AO2 SLP213 T00001072
14740KBDL BDL20161204015011212/04/16 01:50:31  5-MIN KBDL 040650Z 31005KT 10SM CLR 00/M07 A3016 -40 58 -1800 330/05 RMK AO2 SLP214 T00001072
14740KBDL BDL20161204015510512/04/16 01:55:31  5-MIN KBDL 040655Z 31007KT 10SM CLR 00/M07 A3016 -40 58 -1800 330/07 RMK AO2 T00001072
14740KBDL BDL20161204020010512/04/16 02:00:31  5-MIN KBDL 040700Z 31007KT 10SM CLR 00/M07 A3016 -40 58 -1800 320/07 RMK AO2 T00001072
14740KBDL BDL20161204020510912/04/16 02:05:31  5-MIN KBDL 040705Z 31008KT 10SM FEW048 M01/M07 A3016 -40 63 -1900 330/08 RMK AO2 T10061067
14740KBDL BDL20161204021010812/04/16 02:10:31  5-MIN KBDL 040710Z 31008KT 10SM SCT048 00/M07 A3016 -40 61 -1800 330/08 RMK AO2 T00001067
14740KBDL BDL20161204021510812/04/16 02:15:31  5-MIN KBDL 040715Z 31008KT 10SM BKN048 00/M07 A3016 -40 61 -1800 330/08 RMK AO2 T00001067
14740KBDL BDL20161204022010812/04/16 02:20:31  5-MIN KBDL 040720Z 31008KT 10SM SCT047 00/M07 A3016 -40 61 -1800 330/08 RMK AO2 T00001067
14740KBDL BDL20161204022510812/04/16 02:25:31  5-MIN KBDL 040725Z 31008KT 10SM SCT047 00/M07 A3016 -40 61 -1800 330/08 RMK AO2 T00001067
14740KBDL BDL20161204023010912/04/16 02:30:31  5-MIN KBDL 040730Z 31007KT 10SM BKN047 M01/M07 A3016 -40 63 -1900 330/07 RMK AO2 T10061067
14740KBDL BDL20161204023510812/04/16 02:35:31  5-MIN KBDL 040735Z 31007KT 10SM BKN047 00/M07 A3017 -50 61 -1800 320/07 RMK AO2 T00001067
14740KBDL BDL20161204024010812/04/16 02:40:31  5-MIN KBDL 040740Z 31007KT 10SM BKN047 00/M07 A3017 -50 61 -1800 320/07 RMK AO2 T00001067
14740KBDL BDL20161204024511512/04/16 02:45:31  5-MIN KBDL 040745Z 31007KT 10SM SCT046 00/M07 A3017 -50 61 -1800 320/07 RMK AO2 SLP217 T00001067
14740KBDL BDL20161204025011612/04/16 02:50:31  5-MIN KBDL 040750Z 31007KT 10SM BKN046 M01/M07 A3017 -50 63 -1900 320/07 RMK AO2 SLP217 T10061067
14740KBDL BDL20161204025510812/04/16 02:55:31  5-MIN KBDL 040755Z 31007KT 10SM BKN046 00/M07 A3017 -40 61 -1800 330/07 RMK AO2 T00001067
14740KBDL BDL20161204030010812/04/16 03:00:31  5-MIN KBDL 040800Z 32007KT 10SM SCT046 01/M07 A3017 -50 56 -1700 340/07 RMK AO2 T00061072
14740KBDL BDL20161204030510812/04/16 03:05:31  5-MIN KBDL 040805Z 32006KT 10SM SCT046 01/M07 A3017 -50 56 -1700 340/06 RMK AO2 T00061072
14740KBDL BDL20161204031010812/04/16 03:10:31  5-MIN KBDL 040810Z 33006KT 10SM SCT046 01/M07 A3017 -50 56 -1700 340/06 RMK AO2 T00061072
14740KBDL BDL20161204031510812/04/16 03:15:31  5-MIN KBDL 040815Z 33006KT 10SM SCT046 01/M07 A3017 -50 56 -1700 350/06 RMK AO2 T00061072
14740KBDL BDL20161204032010812/04/16 03:20:31  5-MIN KBDL 040820Z 33006KT 10SM SCT046 01/M07 A3017 -50 56 -1700 340/06 RMK AO2 T00061072
14740KBDL BDL20161204032510812/04/16 03:25:31  5-MIN KBDL 040825Z 33007KT 10SM SCT046 01/M07 A3017 -50 56 -1700 340/07 RMK AO2 T00061072
14740KBDL BDL20161204033010812/04/16 03:30:31  5-MIN KBDL 040830Z 33007KT 10SM BKN046 01/M07 A3017 -50 56 -1700 340/07 RMK AO2 T00061072
14740KBDL BDL20161204033510812/04/16 03:35:31  5-MIN KBDL 040835Z 33007KT 10SM BKN046 01/M07 A3017 -50 54 -1700 350/07 RMK AO2 T00111072
14740KBDL BDL20161204034010812/04/16 03:40:31  5-MIN KBDL 040840Z 33007KT 10SM BKN046 01/M07 A3017 -50 54 -1700 340/07 RMK AO2 T00111072
14740KBDL BDL20161204034512112/04/16 03:45:31  5-MIN KBDL 040845Z 34007KT 10SM BKN046 01/M07 A3017 -50 56 -1700 350/07 RMK AO2 SLP218 T00061072 51020
14740KBDL BDL20161204035012112/04/16 03:50:31  5-MIN KBDL 040850Z 34008KT 10SM SCT046 01/M07 A3017 -50 54 -1700 350/08 RMK AO2 SLP217 T00111072 51020
14740KBDL BDL20161204035510812/04/16 03:55:31  5-MIN KBDL 040855Z 34007KT 10SM SCT046 01/M08 A3017 -50 51 -1700 360/07 RMK AO2 T00111078
14740KBDL BDL20161204040010812/04/16 04:00:31  5-MIN KBDL 040900Z 34006KT 10SM FEW046 01/M08 A3017 -50 51 -1700 350/06 RMK AO2 T00111078
14740KBDL BDL20161204040510812/04/16 04:05:31  5-MIN KBDL 040905Z 34006KT 10SM FEW046 01/M08 A3017 -40 54 -1700 350/06 RMK AO2 T00061078
14740KBDL BDL20161204041010812/04/16 04:10:31  5-MIN KBDL 040910Z 33006KT 10SM SCT045 01/M08 A3017 -50 54 -1700 350/06 RMK AO2 T00061078
14740KBDL BDL20161204041510812/04/16 04:15:31  5-MIN KBDL 040915Z 34008KT 10SM BKN045 01/M08 A3017 -50 54 -1700 350/08 RMK AO2 T00061078
14740KBDL BDL20161204042010812/04/16 04:20:31  5-MIN KBDL 040920Z 32006KT 10SM BKN045 01/M08 A3017 -50 54 -1700 340/06 RMK AO2 T00061078
14740KBDL BDL20161204042510812/04/16 04:25:31  5-MIN KBDL 040925Z 34006KT 10SM BKN045 01/M08 A3017 -50 51 -1700 360/06 RMK AO2 T00111078
14740KBDL BDL20161204043010812/04/16 04:30:31  5-MIN KBDL 040930Z 34006KT 10SM OVC045 01/M08 A3017 -50 51 -1700 360/06 RMK AO2 T00111078
14740KBDL BDL20161204043510812/04/16 04:35:31  5-MIN KBDL 040935Z 34006KT 10SM OVC045 01/M08 A3017 -50 51 -1700 360/06 RMK AO2 T00111078
14740KBDL BDL20161204044010812/04/16 04:40:31  5-MIN KBDL 040940Z 33007KT 10SM OVC045 01/M08 A3017 -50 51 -1700 350/07 RMK AO2 T00111078
14740KBDL BDL20161204044511512/04/16 04:45:31  5-MIN KBDL 040945Z 34008KT 10SM OVC045 01/M08 A3017 -50 54 -1700 350/08 RMK AO2 SLP217 T00061078
14740KBDL BDL20161204045011512/04/16 04:50:31  5-MIN KBDL 040950Z 33007KT 10SM BKN045 01/M08 A3017 -40 54 -1700 340/07 RMK AO2 SLP216 T00061078
14740KBDL BDL20161204045510812/04/16 04:55:31  5-MIN KBDL 040955Z 33006KT 10SM BKN045 01/M08 A3017 -50 49 -1700 340/06 RMK AO2 T00111083
14740KBDL BDL20161204050011412/04/16 05:00:31  5-MIN KBDL 041000Z 33013G19KT 10SM BKN044 01/M08 A3017 -50 49 -1700 350/13G19 RMK AO2 T00111083
14740KBDL BDL20161204050511412/04/16 05:05:31  5-MIN KBDL 041005Z 32011G19KT 10SM BKN044 01/M08 A3017 -50 49 -1700 330/11G19 RMK AO2 T00111083
14740KBDL BDL20161204051010812/04/16 05:10:31  5-MIN KBDL 041010Z 34011KT 10SM BKN044 01/M08 A3017 -50 49 -1700 350/11 RMK AO2 T00111083
14740KBDL BDL20161204051510812/04/16 05:15:31  5-MIN KBDL 041015Z 31012KT 10SM BKN044 01/M08 A3017 -50 49 -1700 330/12 RMK AO2 T00111083
14740KBDL BDL20161204052010812/04/16 05:20:31  5-MIN KBDL 041020Z 32013KT 10SM BKN044 01/M08 A3017 -50 49 -1700 330/13 RMK AO2 T00111083
14740KBDL BDL20161204052510812/04/16 05:25:31  5-MIN KBDL 041025Z 32009KT 10SM BKN044 01/M08 A3017 -50 49 -1700 340/09 RMK AO2 T00111083
14740KBDL BDL20161204053010812/04/16 05:30:31  5-MIN KBDL 041030Z 32010KT 10SM OVC043 01/M08 A3017 -50 51 -1700 330/10 RMK AO2 T00061083
14740KBDL BDL20161204053510812/04/16 05:35:31  5-MIN KBDL 041035Z 32009KT 10SM OVC043 01/M08 A3017 -50 49 -1700 340/09 RMK AO2 T00111083
14740KBDL BDL20161204054010812/04/16 05:40:31  5-MIN KBDL 041040Z 32007KT 10SM BKN043 01/M08 A3017 -50 51 -1700 330/07 RMK AO2 T00061083
14740KBDL BDL20161204054511512/04/16 05:45:31  5-MIN KBDL 041045Z 32007KT 10SM OVC043 01/M08 A3017 -50 51 -1700 330/07 RMK AO2 SLP219 T00061083
14740KBDL BDL20161204055011512/04/16 05:50:31  5-MIN KBDL 041050Z 32007KT 10SM BKN043 00/M08 A3017 -50 56 -1800 330/07 RMK AO2 SLP218 T00001078
14740KBDL BDL20161204055510812/04/16 05:55:31  5-MIN KBDL 041055Z 32007KT 10SM BKN043 00/M08 A3017 -50 56 -1800 330/07 RMK AO2 T00001078
14740KBDL BDL20161204060010812/04/16 06:00:31  5-MIN KBDL 041100Z 32006KT 10SM BKN043 00/M08 A3017 -50 56 -1800 330/06 RMK AO2 T00001078
14740KBDL BDL20161204060510812/04/16 06:05:31  5-MIN KBDL 041105Z 32007KT 10SM BKN043 00/M08 A3017 -50 56 -1800 330/07 RMK AO2 T00001078
14740KBDL BDL20161204061010912/04/16 06:10:31  5-MIN KBDL 041110Z 33006KT 10SM SCT043 M01/M08 A3017 -50 56 -1900 340/06 RMK AO2 T10061083
14740KBDL BDL20161204061510812/04/16 06:15:31  5-MIN KBDL 041115Z 32006KT 10SM FEW043 00/M08 A3017 -50 53 -1800 340/06 RMK AO2 T00001083
14740KBDL BDL20161204062010812/04/16 06:20:31  5-MIN KBDL 041120Z 32007KT 10SM FEW043 00/M08 A3017 -50 53 -1800 330/07 RMK AO2 T00001083
14740KBDL BDL20161204062510812/04/16 06:25:31  5-MIN KBDL 041125Z 32006KT 10SM FEW043 00/M08 A3017 -50 56 -1800 330/06 RMK AO2 T00001078
14740KBDL BDL20161204063010512/04/16 06:30:31  5-MIN KBDL 041130Z 32006KT 10SM CLR 00/M08 A3017 -50 56 -1800 330/06 RMK AO2 T00001078
14740KBDL BDL20161204063510612/04/16 06:35:31  5-MIN KBDL 041135Z 31007KT 10SM CLR M01/M08 A3017 -50 58 -2000 320/07 RMK AO2 T10111083
14740KBDL BDL20161204064010612/04/16 06:40:31  5-MIN KBDL 041140Z 31007KT 10SM CLR M01/M08 A3018 -50 60 -2000 320/07 RMK AO2 T10111078
14740KBDL BDL20161204064513112/04/16 06:45:31  5-MIN KBDL 041145Z 31007KT 10SM CLR M02/M08 A3018 -50 60 -2000 320/07 RMK AO2 SLP220 T10171083 10011 21017 51009
14740KBDL BDL20161204065013412/04/16 06:50:31  5-MIN KBDL 041150Z 31007KT 10SM FEW043 M02/M08 A3017 -50 60 -2000 320/07 RMK AO2 SLP219 T10171083 10011 21017 51009
14740KBDL BDL20161204065510612/04/16 06:55:31  5-MIN KBDL 041155Z 31007KT 10SM CLR M02/M08 A3018 -50 60 -2000 320/07 RMK AO2 T10171083
14740KBDL BDL20161204070010612/04/16 07:00:31  5-MIN KBDL 041200Z 31007KT 10SM CLR M02/M08 A3018 -60 63 -2100 320/07 RMK AO2 T10221083
14740KBDL BDL20161204070510612/04/16 07:05:31  5-MIN KBDL 041205Z 30007KT 10SM CLR M02/M08 A3018 -60 63 -2000 310/07 RMK AO2 T10171078
14740KBDL BDL20161204071010612/04/16 07:10:31  5-MIN KBDL 041210Z 29007KT 10SM CLR M02/M08 A3019 -70 63 -2000 300/07 RMK AO2 T10171078
14740KBDL BDL20161204071510612/04/16 07:15:31  5-MIN KBDL 041215Z 29006KT 10SM CLR M02/M08 A3019 -70 63 -2100 300/06 RMK AO2 T10171078
14740KBDL BDL20161204072010612/04/16 07:20:31  5-MIN KBDL 041220Z 30006KT 10SM CLR M01/M08 A3019 -70 60 -2000 310/06 RMK AO2 T10111078
14740KBDL BDL20161204072510612/04/16 07:25:31  5-MIN KBDL 041225Z 31006KT 10SM CLR M01/M08 A3019 -70 60 -2000 320/06 RMK AO2 T10111078
14740KBDL BDL20161204073010612/04/16 07:30:31  5-MIN KBDL 041230Z 31006KT 10SM CLR M01/M08 A3020 -70 60 -2000 320/06 RMK AO2 T10111078
14740KBDL BDL20161204073510612/04/16 07:35:31  5-MIN KBDL 041235Z 30006KT 10SM CLR M01/M08 A3020 -70 60 -2000 320/06 RMK AO2 T10111078
14740KBDL BDL20161204074010612/04/16 07:40:31  5-MIN KBDL 041240Z 30007KT 10SM CLR M01/M08 A3020 -70 60 -2000 320/07 RMK AO2 T10111078
14740KBDL BDL20161204074511312/04/16 07:45:31  5-MIN KBDL 041245Z 30007KT 10SM CLR M01/M08 A3020 -80 58 -1900 320/07 RMK AO2 SLP228 T10061078
14740KBDL BDL20161204075011612/04/16 07:50:31  5-MIN KBDL 041250Z 31005KT 10SM SCT043 M01/M07 A3020 -80 61 -1900 330/05 RMK AO2 SLP228 T10061072
14740KBDL BDL20161204075510512/04/16 07:55:31  5-MIN KBDL 041255Z 33005KT 10SM CLR 00/M08 A3020 -70 56 -1800 340/05 RMK AO2 T00001078
14740KBDL BDL20161204080010512/04/16 08:00:31  5-MIN KBDL 041300Z 32007KT 10SM CLR 01/M08 A3020 -80 54 -1800 340/07 RMK AO2 T00061078
14740KBDL BDL20161204080510512/04/16 08:05:31  5-MIN KBDL 041305Z 33006KT 10SM CLR 01/M08 A3020 -80 51 -1700 350/06 RMK AO2 T00111078
14740KBDL BDL20161204081010512/04/16 08:10:31  5-MIN KBDL 041310Z 33009KT 10SM CLR 01/M08 A3020 -70 51 -1700 340/09 RMK AO2 T00111078
14740KBDL BDL20161204081510512/04/16 08:15:31  5-MIN KBDL 041315Z 33008KT 10SM CLR 01/M07 A3020 -80 54 -1700 350/08 RMK AO2 T00111072
14740KBDL BDL20161204082010512/04/16 08:20:31  5-MIN KBDL 041320Z 34006KT 10SM CLR 02/M08 A3020 -80 49 -1600 350/06 RMK AO2 T00171078
14740KBDL BDL20161204082510512/04/16 08:25:31  5-MIN KBDL 041325Z 34008KT 10SM CLR 02/M08 A3020 -70 49 -1600 360/08 RMK AO2 T00171078
14740KBDL BDL20161204083010512/04/16 08:30:31  5-MIN KBDL 041330Z 35007KT 10SM CLR 02/M08 A3020 -70 49 -1600 010/07 RMK AO2 T00171078
14740KBDL BDL20161204083510512/04/16 08:35:31  5-MIN KBDL 041335Z 35007KT 10SM CLR 02/M08 A3020 -80 49 -1600 010/07 RMK AO2 T00171078
14740KBDL BDL20161204084010512/04/16 08:40:31  5-MIN KBDL 041340Z 34005KT 10SM CLR 02/M07 A3020 -80 52 -1600 360/05 RMK AO2 T00171072
14740KBDL BDL20161204084511212/04/16 08:45:31  5-MIN KBDL 041345Z 35007KT 10SM CLR 02/M07 A3021 -80 50 -1600 360/07 RMK AO2 SLP230 T00221072
14740KBDL BDL20161204085012212/04/16 08:50:31  5-MIN KBDL 041350Z 35007KT 10SM SCT045 SCT250 02/M07 A3021 -80 50 -1600 360/07 RMK AO2 SLP231 T00221072
14740KBDL BDL20161204085510512/04/16 08:55:31  5-MIN KBDL 041355Z 36009KT 10SM CLR 02/M07 A3021 -90 50 -1600 010/09 RMK AO2 T00221072
14740KBDL BDL20161204090010512/04/16 09:00:31  5-MIN KBDL 041400Z 34008KT 10SM CLR 02/M08 A3022 -90 47 -1600 360/08 RMK AO2 T00221078
14740KBDL BDL20161204090510512/04/16 09:05:31  5-MIN KBDL 041405Z 35009KT 10SM CLR 02/M07 A3022 -90 50 -1600 010/09 RMK AO2 T00221072
14740KBDL BDL20161204091010512/04/16 09:10:31  5-MIN KBDL 041410Z 34008KT 10SM CLR 02/M07 A3022 -90 50 -1600 350/08 RMK AO2 T00221072
14740KBDL BDL20161204091510512/04/16 09:15:31  5-MIN KBDL 041415Z 35010KT 10SM CLR 02/M07 A3022 -90 50 -1600 010/10 RMK AO2 T00221072
14740KBDL BDL20161204092010512/04/16 09:20:31  5-MIN KBDL 041420Z 35008KT 10SM CLR 03/M07 A3022 -90 48 -1500 360/08 RMK AO2 T00281072
14740KBDL BDL20161204092510812/04/16 09:25:31  5-MIN KBDL 041425Z 36008KT 10SM FEW038 03/M07 A3022 -90 48 -1500 010/08 RMK AO2 T00281072
14740KBDL BDL20161204093010812/04/16 09:30:31  5-MIN KBDL 041430Z 35008KT 10SM SCT038 03/M07 A3022 -90 48 -1500 360/08 RMK AO2 T00281072
14740KBDL BDL20161204093510812/04/16 09:35:31  5-MIN KBDL 041435Z 32010KT 10SM FEW039 03/M07 A3022 -90 48 -1500 330/10 RMK AO2 T00281072
14740KBDL BDL20161204094010812/04/16 09:40:31  5-MIN KBDL 041440Z 36007KT 10SM FEW039 03/M07 A3021 -90 46 -1400 010/07 RMK AO2 T00331072
14740KBDL BDL20161204094512112/04/16 09:45:31  5-MIN KBDL 041445Z VRB06KT 10SM FEW039 03/M07 A3022 -90 48 -1500 VRB/06 RMK AO2 SLP234 T00281072 53002
14740KBDL BDL20161204095012112/04/16 09:50:31  5-MIN KBDL 041450Z 34008KT 10SM SCT039 03/M07 A3022 -90 46 -1400 360/08 RMK AO2 SLP234 T00331072 53002
14740KBDL BDL20161204095510812/04/16 09:55:31  5-MIN KBDL 041455Z 32009KT 10SM BKN039 03/M07 A3021 -90 48 -1500 330/09 RMK AO2 T00281072
14740KBDL BDL20161204100010812/04/16 10:00:31  5-MIN KBDL 041500Z 35007KT 10SM BKN039 02/M07 A3022 -90 50 -1600 360/07 RMK AO2 T00221072
14740KBDL BDL20161204100510812/04/16 10:05:31  5-MIN KBDL 041505Z 32006KT 10SM SCT039 03/M07 A3022 -90 48 -1500 330/06 RMK AO2 T00281072
14740KBDL BDL20161204101010912/04/16 10:10:31  5-MIN KBDL 041510Z 32008KT 10SM SCT039 03/M07 A3022 -100 46 -1500 340/08 RMK AO2 T00331072
14740KBDL BDL20161204101512412/04/16 10:15:31  5-MIN KBDL 041515Z 33008KT 290V360 10SM SCT039 03/M07 A3021 -90 46 -1400 350/08 300V010 RMK AO2 T00331072
14740KBDL BDL20161204102010812/04/16 10:20:31  5-MIN KBDL 041520Z 35010KT 10SM FEW039 03/M07 A3022 -90 46 -1500 360/10 RMK AO2 T00331072
14740KBDL BDL20161204102510512/04/16 10:25:31  5-MIN KBDL 041525Z 35007KT 10SM CLR 03/M07 A3022 -90 46 -1500 360/07 RMK AO2 T00331072
14740KBDL BDL20161204103010512/04/16 10:30:31  5-MIN KBDL 041530Z 36006KT 10SM CLR 03/M07 A3022 -90 46 -1400 010/06 RMK AO2 T00331072
14740KBDL BDL20161204103510512/04/16 10:35:31  5-MIN KBDL 041535Z 35007KT 10SM CLR 04/M07 A3021 -90 44 -1400 010/07 RMK AO2 T00391072
14740KBDL BDL20161204104010812/04/16 10:40:31  5-MIN KBDL 041540Z 33008KT 10SM FEW040 04/M07 A3021 -90 44 -1400 340/08 RMK AO2 T00391072
14740KBDL BDL20161204104511212/04/16 10:45:31  5-MIN KBDL 041545Z 32009KT 10SM CLR 04/M07 A3021 -90 44 -1400 330/09 RMK AO2 SLP233 T00391072
14740KBDL BDL20161204105011512/04/16 10:50:31  5-MIN KBDL 041550Z 31009KT 10SM SCT040 04/M07 A3021 -90 44 -1400 320/09 RMK AO2 SLP232 T00391072
14740KBDL BDL20161204105510512/04/16 10:55:31  5-MIN KBDL 041555Z 33009KT 10SM CLR 04/M07 A3021 -90 44 -1400 340/09 RMK AO2 T00391072
14740KBDL BDL20161204110011112/04/16 11:00:31  5-MIN KBDL 041600Z 34006G15KT 10SM CLR 04/M07 A3021 -90 42 -1300 360/06G15 RMK AO2 T00441072
14740KBDL BDL20161204110510512/04/16 11:05:31  5-MIN KBDL 041605Z 30009KT 10SM CLR 04/M07 A3021 -90 46 -1400 320/09 RMK AO2 T00391067
14740KBDL BDL20161204111010512/04/16 11:10:31  5-MIN KBDL 041610Z 32005KT 10SM CLR 04/M07 A3021 -80 44 -1400 330/05 RMK AO2 T00391072
14740KBDL BDL20161204111510512/04/16 11:15:31  5-MIN KBDL 041615Z 36009KT 10SM CLR 04/M07 A3020 -80 44 -1300 010/09 RMK AO2 T00441067
14740KBDL BDL20161204112010512/04/16 11:20:31  5-MIN KBDL 041620Z 32007KT 10SM CLR 04/M07 A3020 -80 44 -1300 330/07 RMK AO2 T00441067
14740KBDL BDL20161204112510512/04/16 11:25:31  5-MIN KBDL 041625Z 35012KT 10SM CLR 04/M07 A3020 -80 42 -1300 360/12 RMK AO2 T00441072
14740KBDL BDL20161204113010512/04/16 11:30:31  5-MIN KBDL 041630Z 36010KT 10SM CLR 04/M07 A3020 -70 44 -1400 010/10 RMK AO2 T00391072
14740KBDL BDL20161204113510512/04/16 11:35:31  5-MIN KBDL 041635Z 35008KT 10SM CLR 04/M07 A3020 -70 42 -1300 360/08 RMK AO2 T00441072
14740KBDL BDL20161204114010512/04/16 11:40:31  5-MIN KBDL 041640Z 33010KT 10SM CLR 04/M07 A3019 -70 42 -1300 340/10 RMK AO2 T00441072
14740KBDL BDL20161204114511212/04/16 11:45:31  5-MIN KBDL 041645Z 35009KT 10SM CLR 04/M07 A3019 -70 42 -1300 010/09 RMK AO2 SLP226 T00441072
14740KBDL BDL20161204115012212/04/16 11:50:31  5-MIN KBDL 041650Z 36010KT 10SM FEW040 FEW250 04/M07 A3019 -70 42 -1300 010/10 RMK AO2 SLP226 T00441072
14740KBDL BDL20161204115510512/04/16 11:55:31  5-MIN KBDL 041655Z 34007KT 10SM CLR 05/M07 A3019 -70 41 -1200 350/07 RMK AO2 T00501072
14740KBDL BDL20161204120010512/04/16 12:00:31  5-MIN KBDL 041700Z 01009KT 10SM CLR 05/M07 A3019 -70 41 -1200 020/09 RMK AO2 T00501072
14740KBDL BDL20161204120512112/04/16 12:05:31  5-MIN KBDL 041705Z 01011KT 330V030 10SM CLR 05/M07 A3019 -70 42 -1200 020/11 340V040 RMK AO2 T00501067
14740KBDL BDL20161204121011112/04/16 12:10:31  5-MIN KBDL 041710Z 36010G16KT 10SM CLR 06/M07 A3019 -70 41 -1100 010/10G16 RMK AO2 T00561067
14740KBDL BDL20161204121511112/04/16 12:15:31  5-MIN KBDL 041715Z 34008G16KT 10SM CLR 05/M07 A3020 -70 41 -1200 350/08G16 RMK AO2 T00501072
14740KBDL BDL20161204122010512/04/16 12:20:31  5-MIN KBDL 041720Z 36007KT 10SM CLR 04/M07 A3019 -70 42 -1300 010/07 RMK AO2 T00441072
14740KBDL BDL20161204122510512/04/16 12:25:31  5-MIN KBDL 041725Z 33010KT 10SM CLR 05/M07 A3019 -70 41 -1200 340/10 RMK AO2 T00501072
14740KBDL BDL20161204123010512/04/16 12:30:31  5-MIN KBDL 041730Z 30008KT 10SM CLR 05/M07 A3019 -70 41 -1200 320/08 RMK AO2 T00501072
14740KBDL BDL20161204123510512/04/16 12:35:31  5-MIN KBDL 041735Z 34009KT 10SM CLR 05/M07 A3019 -60 41 -1200 360/09 RMK AO2 T00501072
14740KBDL BDL20161204124010512/04/16 12:40:31  5-MIN KBDL 041740Z 35009KT 10SM CLR 05/M07 A3019 -60 41 -1200 360/09 RMK AO2 T00501072
14740KBDL BDL20161204124513012/04/16 12:45:31  5-MIN KBDL 041745Z 34008KT 10SM CLR 05/M07 A3019 -60 41 -1200 360/08 RMK AO2 SLP223 T00501072 10056 21022 51014
14740KBDL BDL20161204125013312/04/16 12:50:31  5-MIN KBDL 041750Z 36010KT 10SM FEW040 05/M07 A3019 -60 41 -1200 010/10 RMK AO2 SLP223 T00501072 10056 21022 51014
14740KBDL BDL20161204125510512/04/16 12:55:31  5-MIN KBDL 041755Z 32010KT 10SM CLR 05/M07 A3018 -60 41 -1200 340/10 RMK AO2 T00501072
14740KBDL BDL20161204130010512/04/16 13:00:31  5-MIN KBDL 041800Z 35011KT 10SM CLR 06/M07 A3018 -60 41 -1100 360/11 RMK AO2 T00561067
14740KBDL BDL20161204130510512/04/16 13:05:31  5-MIN KBDL 041805Z 33009KT 10SM CLR 06/M07 A3018 -60 39 -1100 350/09 RMK AO2 T00561072
14740KBDL BDL20161204131010512/04/16 13:10:31  5-MIN KBDL 041810Z 35011KT 10SM CLR 05/M07 A3018 -60 41 -1200 360/11 RMK AO2 T00501072
14740KBDL BDL20161204131510512/04/16 13:15:31  5-MIN KBDL 041815Z 35010KT 10SM CLR 06/M07 A3018 -60 39 -1100 010/10 RMK AO2 T00561072
14740KBDL BDL20161204132010512/04/16 13:20:31  5-MIN KBDL 041820Z 36010KT 10SM CLR 05/M07 A3018 -60 41 -1200 010/10 RMK AO2 T00501072
14740KBDL BDL20161204132510512/04/16 13:25:31  5-MIN KBDL 041825Z 35009KT 10SM CLR 05/M07 A3018 -60 41 -1200 010/09 RMK AO2 T00501072
14740KBDL BDL20161204133010512/04/16 13:30:31  5-MIN KBDL 041830Z 35007KT 10SM CLR 05/M07 A3018 -60 41 -1200 360/07 RMK AO2 T00501072
14740KBDL BDL20161204133510512/04/16 13:35:31  5-MIN KBDL 041835Z 33009KT 10SM CLR 06/M07 A3018 -60 39 -1100 340/09 RMK AO2 T00561072
14740KBDL BDL20161204134010512/04/16 13:40:31  5-MIN KBDL 041840Z 35009KT 10SM CLR 05/M07 A3018 -50 41 -1200 360/09 RMK AO2 T00501072
14740KBDL BDL20161204134511212/04/16 13:45:31  5-MIN KBDL 041845Z 36010KT 10SM CLR 05/M07 A3018 -60 41 -1200 020/10 RMK AO2 SLP220 T00501072
14740KBDL BDL20161204135011512/04/16 13:50:31  5-MIN KBDL 041850Z 35008KT 10SM FEW250 06/M07 A3018 -60 39 -1100 010/08 RMK AO2 SLP220 T00561072
14740KBDL BDL20161204135510512/04/16 13:55:31  5-MIN KBDL 041855Z 35008KT 10SM CLR 06/M07 A3018 -60 39 -1100 360/08 RMK AO2 T00561072
14740KBDL BDL20161204140011112/04/16 14:00:31  5-MIN KBDL 041900Z 33006G17KT 10SM CLR 06/M07 A3018 -60 39 -1100 340/06G17 RMK AO2 T00561072
14740KBDL BDL20161204140511112/04/16 14:05:31  5-MIN KBDL 041905Z 33007G17KT 10SM CLR 06/M07 A3018 -60 39 -1100 340/07G17 RMK AO2 T00561072
14740KBDL BDL20161204141010512/04/16 14:10:31  5-MIN KBDL 041910Z 36006KT 10SM CLR 06/M07 A3018 -60 39 -1100 020/06 RMK AO2 T00561072
14740KBDL BDL20161204141510512/04/16 14:15:31  5-MIN KBDL 041915Z 34007KT 10SM CLR 06/M07 A3019 -60 39 -1100 350/07 RMK AO2 T00561072
14740KBDL BDL20161204142010512/04/16 14:20:31  5-MIN KBDL 041920Z 35009KT 10SM CLR 06/M07 A3018 -60 39 -1100 010/09 RMK AO2 T00561072
14740KBDL BDL20161204142510512/04/16 14:25:31  5-MIN KBDL 041925Z 35006KT 10SM CLR 05/M07 A3018 -60 41 -1200 360/06 RMK AO2 T00501072
14740KBDL BDL20161204143010512/04/16 14:30:31  5-MIN KBDL 041930Z 01008KT 10SM CLR 06/M07 A3018 -60 39 -1100 030/08 RMK AO2 T00561072
14740KBDL BDL20161204143511112/04/16 14:35:31  5-MIN KBDL 041935Z 35010G15KT 10SM CLR 05/M07 A3018 -60 41 -1200 010/10G15 RMK AO2 T00501072
14740KBDL BDL20161204144010512/04/16 14:40:31  5-MIN KBDL 041940Z 35008KT 10SM CLR 06/M07 A3018 -60 39 -1100 360/08 RMK AO2 T00561072
14740KBDL BDL20161204144511212/04/16 14:45:31  5-MIN KBDL 041945Z 35008KT 10SM CLR 05/M07 A3018 -60 41 -1200 360/08 RMK AO2 SLP223 T00501072
14740KBDL BDL20161204145011212/04/16 14:50:31  5-MIN KBDL 041950Z 36008KT 10SM CLR 05/M07 A3018 -60 41 -1200 010/08 RMK AO2 SLP223 T00501072
14740KBDL BDL20161204145512112/04/16 14:55:31  5-MIN KBDL 041955Z 35008KT 310V010 10SM CLR 05/M07 A3019 -60 41 -1200 360/08 320V020 RMK AO2 T00501072
14740KBDL BDL20161204150010512/04/16 15:00:31  5-MIN KBDL 042000Z 36009KT 10SM CLR 05/M07 A3018 -60 41 -1200 010/09 RMK AO2 T00501072
14740KBDL BDL20161204150510512/04/16 15:05:31  5-MIN KBDL 042005Z 33009KT 10SM CLR 05/M07 A3018 -60 41 -1200 350/09 RMK AO2 T00501072
14740KBDL BDL20161204151010512/04/16 15:10:31  5-MIN KBDL 042010Z 34008KT 10SM CLR 05/M07 A3019 -60 41 -1200 350/08 RMK AO2 T00501072
14740KBDL BDL20161204151510512/04/16 15:15:31  5-MIN KBDL 042015Z 34007KT 10SM CLR 05/M07 A3019 -70 41 -1200 360/07 RMK AO2 T00501072
14740KBDL BDL20161204152010512/04/16 15:20:31  5-MIN KBDL 042020Z 35008KT 10SM CLR 04/M07 A3019 -70 42 -1300 360/08 RMK AO2 T00441072
14740KBDL BDL20161204152510512/04/16 15:25:31  5-MIN KBDL 042025Z 35007KT 10SM CLR 04/M07 A3019 -70 42 -1300 360/07 RMK AO2 T00441072
14740KBDL BDL20161204153010512/04/16 15:30:31  5-MIN KBDL 042030Z 34005KT 10SM CLR 04/M07 A3018 -60 42 -1300 360/05 RMK AO2 T00441072
14740KBDL BDL20161204153510512/04/16 15:35:31  5-MIN KBDL 042035Z 34007KT 10SM CLR 04/M07 A3018 -60 42 -1300 350/07 RMK AO2 T00441072
14740KBDL BDL20161204154010512/04/16 15:40:31  5-MIN KBDL 042040Z 33006KT 10SM CLR 04/M07 A3018 -60 42 -1300 350/06 RMK AO2 T00441072
14740KBDL BDL20161204154511812/04/16 15:45:31  5-MIN KBDL 042045Z 34005KT 10SM CLR 04/M07 A3018 -60 42 -1300 360/05 RMK AO2 SLP221 T00441072 58010
14740KBDL BDL20161204155012112/04/16 15:50:31  5-MIN KBDL 042050Z 34005KT 10SM FEW250 04/M07 A3018 -60 44 -1300 350/05 RMK AO2 SLP222 T00391072 58010
14740KBDL BDL20161204155510512/04/16 15:55:31  5-MIN KBDL 042055Z 33006KT 10SM CLR 03/M07 A3018 -60 46 -1400 340/06 RMK AO2 T00331072
14740KBDL BDL20161204160010512/04/16 16:00:31  5-MIN KBDL 042100Z 32005KT 10SM CLR 03/M07 A3018 -60 46 -1400 340/05 RMK AO2 T00331072
14740KBDL BDL20161204160510512/04/16 16:05:31  5-MIN KBDL 042105Z 33006KT 10SM CLR 03/M07 A3018 -60 48 -1500 340/06 RMK AO2 T00281072
14740KBDL BDL20161204161010512/04/16 16:10:31  5-MIN KBDL 042110Z 33005KT 10SM CLR 03/M07 A3019 -60 48 -1500 350/05 RMK AO2 T00281072
14740KBDL BDL20161204161510512/04/16 16:15:31  5-MIN KBDL 042115Z 33004KT 10SM CLR 03/M07 A3019 -60 48 -1500 350/04 RMK AO2 T00281072
14740KBDL BDL20161204162010512/04/16 16:20:31  5-MIN KBDL 042120Z 33004KT 10SM CLR 03/M07 A3019 -70 48 -1500 340/04 RMK AO2 T00281072
14740KBDL BDL20161204162510512/04/16 16:25:31  5-MIN KBDL 042125Z 33005KT 10SM CLR 03/M07 A3019 -60 48 -1500 340/05 RMK AO2 T00281072
14740KBDL BDL20161204163010512/04/16 16:30:31  5-MIN KBDL 042130Z 32004KT 10SM CLR 02/M07 A3019 -70 50 -1600 340/04 RMK AO2 T00221072
14740KBDL BDL20161204163510512/04/16 16:35:31  5-MIN KBDL 042135Z 33005KT 10SM CLR 02/M07 A3019 -60 50 -1600 350/05 RMK AO2 T00221072
14740KBDL BDL20161204164010512/04/16 16:40:31  5-MIN KBDL 042140Z 33004KT 10SM CLR 02/M07 A3019 -70 50 -1600 340/04 RMK AO2 T00221072
14740KBDL BDL20161204164511212/04/16 16:45:31  5-MIN KBDL 042145Z 33004KT 10SM CLR 02/M07 A3019 -70 50 -1600 350/04 RMK AO2 SLP225 T00221072
14740KBDL BDL20161204165011512/04/16 16:50:31  5-MIN KBDL 042150Z 33004KT 10SM FEW250 02/M07 A3019 -70 50 -1600 340/04 RMK AO2 SLP225 T00221072
14740KBDL BDL20161204165510512/04/16 16:55:31  5-MIN KBDL 042155Z 33005KT 10SM CLR 02/M07 A3019 -60 52 -1600 340/05 RMK AO2 T00171072
14740KBDL BDL20161204170010512/04/16 17:00:31  5-MIN KBDL 042200Z 32005KT 10SM CLR 02/M07 A3019 -70 52 -1600 330/05 RMK AO2 T00171072
14740KBDL BDL20161204170510512/04/16 17:05:31  5-MIN KBDL 042205Z 31005KT 10SM CLR 01/M07 A3019 -70 56 -1800 330/05 RMK AO2 T00061072
14740KBDL BDL20161204171010512/04/16 17:10:31  5-MIN KBDL 042210Z 30004KT 10SM CLR 00/M07 A3019 -70 58 -1800 320/04 RMK AO2 T00001072
14740KBDL BDL20161204171510512/04/16 17:15:31  5-MIN KBDL 042215Z 30003KT 10SM CLR 01/M07 A3019 -70 56 -1800 310/03 RMK AO2 T00061072
14740KBDL BDL20161204172010512/04/16 17:20:31  5-MIN KBDL 042220Z 29004KT 10SM CLR 01/M07 A3020 -70 54 -1700 300/04 RMK AO2 T00111072
14740KBDL BDL20161204172510512/04/16 17:25:31  5-MIN KBDL 042225Z 30004KT 10SM CLR 01/M07 A3019 -70 54 -1700 320/04 RMK AO2 T00111072
14740KBDL BDL20161204173010512/04/16 17:30:31  5-MIN KBDL 042230Z 29004KT 10SM CLR 01/M07 A3019 -70 56 -1800 310/04 RMK AO2 T00061072
14740KBDL BDL20161204173510512/04/16 17:35:31  5-MIN KBDL 042235Z 29005KT 10SM CLR 01/M07 A3020 -70 54 -1700 310/05 RMK AO2 T00111072
14740KBDL BDL20161204174010512/04/16 17:40:31  5-MIN KBDL 042240Z 28005KT 10SM CLR 00/M07 A3020 -70 58 -1800 300/05 RMK AO2 T00001072
14740KBDL BDL20161204174511212/04/16 17:45:31  5-MIN KBDL 042245Z 29004KT 10SM CLR 00/M07 A3020 -70 58 -1800 300/04 RMK AO2 SLP226 T00001072
14740KBDL BDL20161204175011512/04/16 17:50:31  5-MIN KBDL 042250Z 29004KT 10SM FEW250 00/M07 A3020 -70 58 -1800 310/04 RMK AO2 SLP227 T00001072
14740KBDL BDL20161204175510512/04/16 17:55:31  5-MIN KBDL 042255Z 30005KT 10SM CLR 00/M07 A3020 -70 58 -1800 320/05 RMK AO2 T00001072
14740KBDL BDL20161204180010612/04/16 18:00:31  5-MIN KBDL 042300Z 29005KT 10SM CLR M01/M07 A3020 -70 61 -1900 310/05 RMK AO2 T10061072
14740KBDL BDL20161204180510612/04/16 18:05:31  5-MIN KBDL 042305Z 30005KT 10SM CLR M01/M07 A3020 -80 61 -1900 310/05 RMK AO2 T10061072
14740KBDL BDL20161204181010512/04/16 18:10:31  5-MIN KBDL 042310Z 32004KT 10SM CLR 00/M07 A3020 -70 58 -1800 340/04 RMK AO2 T00001072
14740KBDL BDL20161204181510512/04/16 18:15:31  5-MIN KBDL 042315Z 32005KT 10SM CLR 00/M07 A3020 -70 58 -1800 340/05 RMK AO2 T00001072
14740KBDL BDL20161204182010512/04/16 18:20:31  5-MIN KBDL 042320Z 33005KT 10SM CLR 00/M07 A3020 -70 58 -1800 340/05 RMK AO2 T00001072
14740KBDL BDL20161204182510512/04/16 18:25:31  5-MIN KBDL 042325Z 32004KT 10SM CLR 00/M07 A3020 -80 58 -1800 330/04 RMK AO2 T00001072
14740KBDL BDL20161204183010612/04/16 18:30:31  5-MIN KBDL 042330Z 31003KT 10SM CLR M01/M07 A3020 -80 61 -1900 320/03 RMK AO2 T10061072
14740KBDL BDL20161204183510612/04/16 18:35:31  5-MIN KBDL 042335Z 29004KT 10SM CLR M01/M07 A3020 -80 61 -1900 310/04 RMK AO2 T10061072
14740KBDL BDL20161204184010612/04/16 18:40:31  5-MIN KBDL 042340Z 29004KT 10SM CLR M01/M07 A3020 -80 61 -1900 300/04 RMK AO2 T10061072
14740KBDL BDL20161204184513112/04/16 18:45:31  5-MIN KBDL 042345Z 30004KT 10SM CLR M01/M07 A3021 -80 61 -1900 310/04 RMK AO2 SLP231 T10061072 10056 21006 56002
14740KBDL BDL20161204185013412/04/16 18:50:31  5-MIN KBDL 042350Z 29003KT 10SM FEW250 M01/M07 A3021 -80 61 -1900 300/03 RMK AO2 SLP231 T10061072 10056 21006 56002
14740KBDL BDL20161204185510512/04/16 18:55:31  5-MIN KBDL 042355Z 30003KT 10SM CLR 00/M07 A3021 -80 58 -1900 310/03 RMK AO2 T00001072
14740KBDL BDL20161204190010512/04/16 19:00:31  5-MIN KBDL 050000Z 00000KT 10SM CLR 00/M07 A3021 -90 58 -1900 000/00 RMK AO2 T00001072
14740KBDL BDL20161204190510612/04/16 19:05:31  5-MIN KBDL 050005Z 00000KT 10SM CLR M01/M07 A3021 -90 61 -1900 000/00 RMK AO2 T10061072
14740KBDL BDL20161204191010612/04/16 19:10:31  5-MIN KBDL 050010Z 00000KT 10SM CLR M01/M07 A3021 -90 61 -1900 000/00 RMK AO2 T10061072
14740KBDL BDL20161204191510612/04/16 19:15:31  5-MIN KBDL 050015Z 35003KT 10SM CLR M01/M07 A3021 -80 61 -1900 360/03 RMK AO2 T10061072
14740KBDL BDL20161204192010612/04/16 19:20:31  5-MIN KBDL 050020Z 35003KT 10SM CLR M01/M07 A3021 -80 61 -1900 360/03 RMK AO2 T10061072
14740KBDL BDL20161204192510612/04/16 19:25:31  5-MIN KBDL 050025Z 00000KT 10SM CLR M01/M07 A3021 -90 61 -1900 000/00 RMK AO2 T10061072
14740KBDL BDL20161204193010612/04/16 19:30:31  5-MIN KBDL 050030Z 01003KT 10SM CLR M02/M07 A3021 -90 66 -2100 020/03 RMK AO2 T10171072
14740KBDL BDL20161204193510612/04/16 19:35:31  5-MIN KBDL 050035Z 01003KT 10SM CLR M02/M07 A3021 -90 66 -2100 020/03 RMK AO2 T10171072
14740KBDL BDL20161204194010612/04/16 19:40:31  5-MIN KBDL 050040Z 00000KT 10SM CLR M02/M07 A3021 -80 69 -2100 000/00 RMK AO2 T10221072
14740KBDL BDL20161204194511312/04/16 19:45:31  5-MIN KBDL 050045Z 00000KT 10SM CLR M02/M07 A3021 -80 66 -2100 000/00 RMK AO2 SLP230 T10171072
14740KBDL BDL20161204195011612/04/16 19:50:31  5-MIN KBDL 050050Z 00000KT 10SM SCT250 M02/M07 A3021 -80 69 -2100 000/00 RMK AO2 SLP230 T10221072
14740KBDL BDL20161204195510612/04/16 19:55:31  5-MIN KBDL 050055Z 00000KT 10SM CLR M02/M08 A3021 -90 63 -2100 000/00 RMK AO2 T10171078
14740KBDL BDL20161204200010612/04/16 20:00:31  5-MIN KBDL 050100Z 00000KT 10SM CLR M02/M07 A3021 -80 66 -2100 000/00 RMK AO2 T10171072
14740KBDL BDL20161204200510612/04/16 20:05:31  5-MIN KBDL 050105Z 01003KT 10SM CLR M02/M07 A3020 -80 66 -2100 020/03 RMK AO2 T10171072
14740KBDL BDL20161204201010612/04/16 20:10:31  5-MIN KBDL 050110Z 02003KT 10SM CLR M02/M07 A3020 -80 66 -2100 030/03 RMK AO2 T10171072
14740KBDL BDL20161204201510612/04/16 20:15:31  5-MIN KBDL 050115Z 03004KT 10SM CLR M02/M07 A3020 -70 66 -2100 050/04 RMK AO2 T10171072
14740KBDL BDL20161204202010612/04/16 20:20:31  5-MIN KBDL 050120Z 03004KT 10SM CLR M02/M07 A3020 -80 69 -2100 040/04 RMK AO2 T10221072
14740KBDL BDL20161204202510612/04/16 20:25:31  5-MIN KBDL 050125Z 01004KT 10SM CLR M02/M07 A3020 -80 69 -2100 020/04 RMK AO2 T10221072
14740KBDL BDL20161204203010612/04/16 20:30:31  5-MIN KBDL 050130Z 01005KT 10SM CLR M02/M07 A3020 -70 69 -2100 020/05 RMK AO2 T10221072
14740KBDL BDL20161204203510612/04/16 20:35:31  5-MIN KBDL 050135Z 02004KT 10SM CLR M02/M07 A3019 -70 69 -2100 030/04 RMK AO2 T10221072
14740KBDL BDL20161204204010612/04/16 20:40:31  5-MIN KBDL 050140Z 02005KT 10SM CLR M02/M07 A3019 -70 72 -2100 030/05 RMK AO2 T10221067
14740KBDL BDL20161204204511312/04/16 20:45:31  5-MIN KBDL 050145Z 01004KT 10SM CLR M02/M07 A3019 -70 72 -2100 020/04 RMK AO2 SLP226 T10221067
14740KBDL BDL20161204205011612/04/16 20:50:31  5-MIN KBDL 050150Z 36004KT 10SM BKN250 M02/M07 A3020 -70 66 -2100 010/04 RMK AO2 SLP227 T10171072
14740KBDL BDL20161204205510612/04/16 20:55:31  5-MIN KBDL 050155Z 00000KT 10SM CLR M02/M07 A3020 -70 69 -2100 000/00 RMK AO2 T10221072
14740KBDL BDL20161204210010612/04/16 21:00:31  5-MIN KBDL 050200Z 33003KT 10SM CLR M02/M07 A3020 -80 66 -2100 340/03 RMK AO2 T10171072
14740KBDL BDL20161204210510612/04/16 21:05:31  5-MIN KBDL 050205Z 33004KT 10SM CLR M02/M07 A3020 -70 66 -2100 350/04 RMK AO2 T10171072
14740KBDL BDL20161204211010612/04/16 21:10:31  5-MIN KBDL 050210Z 35003KT 10SM CLR M02/M07 A3019 -70 66 -2000 360/03 RMK AO2 T10171072
14740KBDL BDL20161204211510612/04/16 21:15:31  5-MIN KBDL 050215Z 00000KT 10SM CLR M02/M07 A3019 -70 69 -2100 000/00 RMK AO2 T10221072
14740KBDL BDL20161204212010612/04/16 21:20:31  5-MIN KBDL 050220Z 00000KT 10SM CLR M02/M07 A3019 -60 69 -2000 000/00 RMK AO2 T10171067
14740KBDL BDL20161204212510612/04/16 21:25:31  5-MIN KBDL 050225Z 35003KT 10SM CLR M02/M07 A3018 -60 69 -2000 360/03 RMK AO2 T10171067
14740KBDL BDL20161204213010612/04/16 21:30:31  5-MIN KBDL 050230Z 36003KT 10SM CLR M02/M07 A3018 -60 69 -2000 010/03 RMK AO2 T10171067
14740KBDL BDL20161204213510612/04/16 21:35:31  5-MIN KBDL 050235Z 36003KT 10SM CLR M02/M07 A3018 -60 66 -2000 020/03 RMK AO2 T10171072
14740KBDL BDL20161204214010612/04/16 21:40:31  5-MIN KBDL 050240Z 35003KT 10SM CLR M02/M07 A3018 -60 69 -2000 360/03 RMK AO2 T10171067
14740KBDL BDL20161204214511912/04/16 21:45:31  5-MIN KBDL 050245Z 36004KT 10SM CLR M02/M07 A3017 -50 69 -2000 020/04 RMK AO2 SLP219 T10171067 53009
14740KBDL BDL20161204215012212/04/16 21:50:31  5-MIN KBDL 050250Z 36004KT 10SM BKN240 M02/M07 A3017 -50 72 -2100 010/04 RMK AO2 SLP218 T10221067 53009
14740KBDL BDL20161204215510612/04/16 21:55:31  5-MIN KBDL 050255Z 36004KT 10SM CLR M02/M07 A3017 -50 69 -2000 010/04 RMK AO2 T10171067
14740KBDL BDL20161204220010612/04/16 22:00:31  5-MIN KBDL 050300Z 32003KT 10SM CLR M02/M07 A3018 -60 69 -2000 340/03 RMK AO2 T10171067
14740KBDL BDL20161204220510612/04/16 22:05:31  5-MIN KBDL 050305Z 31003KT 10SM CLR M01/M07 A3018 -60 66 -2000 330/03 RMK AO2 T10111067
14740KBDL BDL20161204221010612/04/16 22:10:31  5-MIN KBDL 050310Z 32004KT 10SM CLR M02/M07 A3018 -60 69 -2000 330/04 RMK AO2 T10171067
14740KBDL BDL20161204221510612/04/16 22:15:31  5-MIN KBDL 050315Z 35003KT 10SM CLR M02/M07 A3017 -50 69 -2000 360/03 RMK AO2 T10171067
14740KBDL BDL20161204222010612/04/16 22:20:31  5-MIN KBDL 050320Z 35003KT 10SM CLR M02/M07 A3017 -50 69 -2000 360/03 RMK AO2 T10171067
14740KBDL BDL20161204222510612/04/16 22:25:31  5-MIN KBDL 050325Z 36003KT 10SM CLR M02/M07 A3017 -50 69 -2000 010/03 RMK AO2 T10171067
14740KBDL BDL20161204223010612/04/16 22:30:31  5-MIN KBDL 050330Z 36003KT 10SM CLR M02/M07 A3017 -50 69 -2000 020/03 RMK AO2 T10171067
14740KBDL BDL20161204223510612/04/16 22:35:31  5-MIN KBDL 050335Z 36004KT 10SM CLR M02/M07 A3017 -50 69 -2000 010/04 RMK AO2 T10171067
14740KBDL BDL20161204224010612/04/16 22:40:31  5-MIN KBDL 050340Z 36003KT 10SM CLR M02/M07 A3017 -50 69 -2000 020/03 RMK AO2 T10171067
14740KBDL BDL20161204224511312/04/16 22:45:31  5-MIN KBDL 050345Z 36004KT 10SM CLR M02/M07 A3017 -50 69 -2000 010/04 RMK AO2 SLP218 T10171067
14740KBDL BDL20161204225012312/04/16 22:50:31  5-MIN KBDL 050350Z 36003KT 10SM BKN220 OVC250 M02/M07 A3017 -50 69 -2000 020/03 RMK AO2 SLP218 T10171067
14740KBDL BDL20161204225510612/04/16 22:55:31  5-MIN KBDL 050355Z 36004KT 10SM CLR M02/M07 A3017 -40 72 -2100 020/04 RMK AO2 T10221067
14740KBDL BDL20161204230010612/04/16 23:00:31  5-MIN KBDL 050400Z 36004KT 10SM CLR M02/M07 A3016 -40 69 -2000 020/04 RMK AO2 T10171067
14740KBDL BDL20161204230510612/04/16 23:05:31  5-MIN KBDL 050405Z 34003KT 10SM CLR M02/M07 A3017 -50 69 -2000 350/03 RMK AO2 T10171067
14740KBDL BDL20161204231010612/04/16 23:10:31  5-MIN KBDL 050410Z 34003KT 10SM CLR M01/M07 A3017 -50 66 -1900 350/03 RMK AO2 T10111067
14740KBDL BDL20161204231510612/04/16 23:15:31  5-MIN KBDL 050415Z 36004KT 10SM CLR M01/M07 A3016 -40 66 -1900 010/04 RMK AO2 T10111067
14740KBDL BDL20161204232010612/04/16 23:20:31  5-MIN KBDL 050420Z 36003KT 10SM CLR M01/M07 A3016 -40 66 -1900 010/03 RMK AO2 T10111067
14740KBDL BDL20161204232510612/04/16 23:25:31  5-MIN KBDL 050425Z 00000KT 10SM CLR M01/M07 A3016 -40 66 -1900 000/00 RMK AO2 T10111067
14740KBDL BDL20161204233010612/04/16 23:30:31  5-MIN KBDL 050430Z 00000KT 10SM CLR M01/M07 A3016 -40 66 -1900 000/00 RMK AO2 T10111067
14740KBDL BDL20161204233510612/04/16 23:35:31  5-MIN KBDL 050435Z 00000KT 10SM CLR M01/M07 A3016 -40 66 -1900 000/00 RMK AO2 T10111067
14740KBDL BDL20161204234010612/04/16 23:40:31  5-MIN KBDL 050440Z 33003KT 10SM CLR M01/M07 A3015 -30 66 -1900 340/03 RMK AO2 T10111067
14740KBDL BDL20161204234512312/04/16 23:45:31  5-MIN KBDL 050445Z 00000KT 10SM CLR M01/M07 A3015 -30 66 -1900 000/00 RMK AO2 SLP211 T10111067 400561022
14740KBDL BDL20161204235012612/04/16 23:50:31  5-MIN KBDL 050450Z 00000KT 10SM OVC200 M01/M07 A3016 -40 66 -1900 000/00 RMK AO2 SLP213 T10111067 400561022
14740KBDL BDL20161204235510612/04/16 23:55:31  5-MIN KBDL 050455Z 31003KT 10SM CLR M02/M07 A3016 -40 69 -2000 330/03 RMK AO2 T10171067
14740KBDL BDL20161205000010612/05/16 00:00:31  5-MIN KBDL 050500Z 31004KT 10SM CLR M02/M07 A3016 -40 69 -2000 320/04 RMK AO2 T10171067
14740KBDL BDL20161205000510612/05/16 00:05:31  5-MIN KBDL 050505Z 33004KT 10SM CLR M02/M07 A3015 -30 69 -2000 340/04 RMK AO2 T10171067
14740KBDL BDL20161205001010612/05/16 00:10:31  5-MIN KBDL 050510Z 00000KT 10SM CLR M02/M07 A3015 -30 69 -2000 000/00 RMK AO2 T10171067
14740KBDL BDL20161205001510612/05/16 00:15:31  5-MIN KBDL 050515Z 35003KT 10SM CLR M02/M07 A3014 -30 69 -2000 010/03 RMK AO2 T10171067
14740KBDL BDL20161205002010612/05/16 00:20:31  5-MIN KBDL 050520Z 34004KT 10SM CLR M01/M07 A3015 -30 66 -1900 350/04 RMK AO2 T10111067
14740KBDL BDL20161205002510612/05/16 00:25:31  5-MIN KBDL 050525Z 33004KT 10SM CLR M01/M07 A3014 -20 66 -1900 350/04 RMK AO2 T10111067
14740KBDL BDL20161205003010612/05/16 00:30:31  5-MIN KBDL 050530Z 34004KT 10SM CLR M01/M07 A3014 -20 66 -1900 350/04 RMK AO2 T10111067
14740KBDL BDL20161205003510612/05/16 00:35:31  5-MIN KBDL 050535Z 33004KT 10SM CLR M01/M07 A3014 -20 66 -1900 350/04 RMK AO2 T10111067
14740KBDL BDL20161205004010612/05/16 00:40:31  5-MIN KBDL 050540Z 00000KT 10SM CLR M01/M07 A3014 -20 66 -1900 000/00 RMK AO2 T10111067
14740KBDL BDL20161205004513112/05/16 00:45:31  5-MIN KBDL 050545Z 00000KT 10SM CLR M01/M07 A3014 -20 66 -1900 000/00 RMK AO2 SLP208 T10111067 10000 21022 58013
14740KBDL BDL20161205005013112/05/16 00:50:31  5-MIN KBDL 050550Z 00000KT 10SM CLR M01/M07 A3014 -20 66 -1900 000/00 RMK AO2 SLP208 T10111067 10000 21022 58013
14740KBDL BDL20161205005510612/05/16 00:55:31  5-MIN KBDL 050555Z 00000KT 10SM CLR M01/M07 A3014 -20 66 -1900 000/00 RMK AO2 T10111067
14740KBDL BDL20161205010010612/05/16 01:00:31  5-MIN KBDL 050600Z 00000KT 10SM CLR M01/M07 A3014 -20 66 -1900 000/00 RMK AO2 T10111067
14740KBDL BDL20161205010510612/05/16 01:05:31  5-MIN KBDL 050605Z 00000KT 10SM CLR M01/M07 A3013 -10 66 -1900 000/00 RMK AO2 T10111067
14740KBDL BDL20161205011010612/05/16 01:10:31  5-MIN KBDL 050610Z 00000KT 10SM CLR M01/M07 A3013 -20 66 -1900 000/00 RMK AO2 T10111067
14740KBDL BDL20161205011510612/05/16 01:15:31  5-MIN KBDL 050615Z 00000KT 10SM CLR M01/M07 A3013 -20 66 -1900 000/00 RMK AO2 T10111067
14740KBDL BDL20161205012010612/05/16 01:20:31  5-MIN KBDL 050620Z 35003KT 10SM CLR M01/M07 A3013 -10 66 -1900 010/03 RMK AO2 T10111067
14740KBDL BDL20161205012510612/05/16 01:25:31  5-MIN KBDL 050625Z 00000KT 10SM CLR M01/M07 A3013 -10 66 -1900 000/00 RMK AO2 T10111067
14740KBDL BDL20161205013010612/05/16 01:30:31  5-MIN KBDL 050630Z 00000KT 10SM CLR M01/M07 A3013 -10 66 -1900 000/00 RMK AO2 T10111067
14740KBDL BDL20161205013510612/05/16 01:35:31  5-MIN KBDL 050635Z 00000KT 10SM CLR M01/M07 A3013 -10 66 -1900 000/00 RMK AO2 T10111067
14740KBDL BDL20161205014010612/05/16 01:40:31  5-MIN KBDL 050640Z 02003KT 10SM CLR M01/M07 A3012 -10 66 -1900 040/03 RMK AO2 T10111067
14740KBDL BDL20161205014511412/05/16 01:45:31  5-MIN KBDL 050645Z 04003KT 10SM FEW120 M01/M06 A3012 0 69 -1900 050/03 RMK AO2 SLP201 T10111061
14740KBDL BDL20161205015012112/05/16 01:50:31  5-MIN KBDL 050650Z 04003KT 10SM BKN130 OVC170 M01/M06 A3012 0 69 -1900 060/03 RMK AO2 SLP200 T10111061
14740KBDL BDL20161205015510712/05/16 01:55:31  5-MIN KBDL 050655Z 05003KT 10SM FEW120 M01/M06 A3011 0 69 -1900 060/03 RMK AO2 T10111061
14740KBDL BDL20161205020010712/05/16 02:00:31  5-MIN KBDL 050700Z 03003KT 10SM FEW120 M01/M06 A3012 0 69 -1900 050/03 RMK AO2 T10111061
14740KBDL BDL20161205020510712/05/16 02:05:31  5-MIN KBDL 050705Z 03003KT 10SM FEW120 M01/M06 A3011 0 69 -1900 040/03 RMK AO2 T10111061
14740KBDL BDL20161205021010712/05/16 02:10:31  5-MIN KBDL 050710Z 03004KT 10SM FEW120 M02/M06 A3011 0 72 -2000 040/04 RMK AO2 T10171061
14740KBDL BDL20161205021510712/05/16 02:15:31  5-MIN KBDL 050715Z 02003KT 10SM SCT120 M02/M06 A3011 0 75 -2000 030/03 RMK AO2 T10171056
14740KBDL BDL20161205022010712/05/16 02:20:31  5-MIN KBDL 050720Z 01003KT 10SM BKN110 M01/M06 A3011 0 72 -1900 030/03 RMK AO2 T10111056
14740KBDL BDL20161205022510712/05/16 02:25:31  5-MIN KBDL 050725Z 02003KT 10SM BKN110 M02/M06 A3011 0 75 -2000 030/03 RMK AO2 T10171056
14740KBDL BDL20161205023010712/05/16 02:30:31  5-MIN KBDL 050730Z 01004KT 10SM BKN110 M02/M06 A3011 0 75 -2000 020/04 RMK AO2 T10171056
14740KBDL BDL20161205023510712/05/16 02:35:31  5-MIN KBDL 050735Z 36004KT 10SM OVC110 M01/M06 A3011 0 69 -1900 010/04 RMK AO2 T10111061
14740KBDL BDL20161205024010712/05/16 02:40:31  5-MIN KBDL 050740Z 34004KT 10SM OVC120 M01/M06 A3012 0 69 -1900 350/04 RMK AO2 T10111061
14740KBDL BDL20161205024511612/05/16 02:45:31  5-MIN KBDL 050745Z 31004KT 10SM OVC110 M01/M06 A3012 -10 69 -1900 320/04 RMK AO2 SLP203 T10111061
14740KBDL BDL20161205025012312/05/16 02:50:31  5-MIN KBDL 050750Z 30005KT 10SM BKN110 OVC150 M01/M06 A3013 -10 69 -1900 320/05 RMK AO2 SLP203 T10111061
14740KBDL BDL20161205025510912/05/16 02:55:31  5-MIN KBDL 050755Z 31004KT 10SM OVC110 M01/M06 A3013 -10 69 -1900 320/04 RMK AO2 T10111061
14740KBDL BDL20161205030010912/05/16 03:00:31  5-MIN KBDL 050800Z 31005KT 10SM OVC110 M01/M06 A3013 -10 69 -1900 320/05 RMK AO2 T10111061
14740KBDL BDL20161205030510912/05/16 03:05:31  5-MIN KBDL 050805Z 32004KT 10SM OVC110 M01/M06 A3013 -10 72 -1900 330/04 RMK AO2 T10111056
14740KBDL BDL20161205031010912/05/16 03:10:31  5-MIN KBDL 050810Z 33003KT 10SM OVC100 M01/M06 A3013 -10 72 -1900 350/03 RMK AO2 T10111056
14740KBDL BDL20161205031511612/05/16 03:15:31  5-MIN KBDL 050815Z 35004KT 10SM BKN095 OVC110 M01/M06 A3013 -10 69 -1900 360/04 RMK AO2 T10111061
14740KBDL BDL20161205032011612/05/16 03:20:31  5-MIN KBDL 050820Z 34003KT 10SM BKN095 OVC110 M01/M06 A3013 -10 66 -1800 360/03 RMK AO2 T10061061
14740KBDL BDL20161205032510712/05/16 03:25:31  5-MIN KBDL 050825Z 35004KT 10SM OVC095 M01/M06 A3012 0 66 -1800 360/04 RMK AO2 T10061061
14740KBDL BDL20161205033011612/05/16 03:30:31  5-MIN KBDL 050830Z 35004KT 10SM FEW075 OVC090 M01/M06 A3012 -10 66 -1800 010/04 RMK AO2 T10061061
14740KBDL BDL20161205033512112/05/16 03:35:31  5-MIN KBDL 050835Z 36004KT 10SM FEW060 SCT075 OVC090 M01/M06 A3012 0 66 -1800 010/04 RMK AO2 T10061061
14740KBDL BDL20161205034012112/05/16 03:40:31  5-MIN KBDL 050840Z 01005KT 10SM BKN060 BKN075 OVC090 M01/M06 A3012 0 69 -1900 020/05 RMK AO2 T10111061
14740KBDL BDL20161205034513412/05/16 03:45:31  5-MIN KBDL 050845Z 03005KT 10SM BKN060 BKN075 OVC090 M01/M06 A3011 0 69 -1900 050/05 RMK AO2 SLP197 T10111061 58010
14740KBDL BDL20161205035014012/05/16 03:50:31  5-MIN KBDL 050850Z 04004KT 10SM BKN055 OVC090 M01/M06 A3010 10 69 -1900 050/04 RMK AO2 SLP196 VIRGA ALQDS T10111061 58010
14740KBDL BDL20161205035510812/05/16 03:55:31  5-MIN KBDL 050855Z 04005KT 10SM OVC060 M01/M06 A3010 10 69 -1900 060/05 RMK AO2 T10111061
14740KBDL BDL20161205040010812/05/16 04:00:31  5-MIN KBDL 050900Z 03004KT 10SM OVC060 M01/M06 A3010 10 69 -1900 040/04 RMK AO2 T10111061
14740KBDL BDL20161205040510812/05/16 04:05:31  5-MIN KBDL 050905Z 01004KT 10SM OVC060 M01/M06 A3010 10 69 -1900 030/04 RMK AO2 T10111061
14740KBDL BDL20161205041010712/05/16 04:10:31  5-MIN KBDL 050910Z 02003KT 10SM OVC060 M01/M06 A3011 0 72 -1900 030/03 RMK AO2 T10111056
14740KBDL BDL20161205041510812/05/16 04:15:31  5-MIN KBDL 050915Z 03004KT 10SM OVC060 M01/M06 A3010 10 69 -1900 050/04 RMK AO2 T10111061
14740KBDL BDL20161205042010812/05/16 04:20:31  5-MIN KBDL 050920Z 04004KT 10SM OVC060 M01/M06 A3009 20 72 -1900 050/04 RMK AO2 T10111056
14740KBDL BDL20161205042510812/05/16 04:25:31  5-MIN KBDL 050925Z 04004KT 10SM OVC060 M01/M06 A3009 20 69 -1900 060/04 RMK AO2 T10111061
14740KBDL BDL20161205043010812/05/16 04:30:31  5-MIN KBDL 050930Z 05004KT 10SM OVC060 M01/M06 A3008 30 69 -1900 060/04 RMK AO2 T10111061
14740KBDL BDL20161205043511512/05/16 04:35:31  5-MIN KBDL 050935Z 06004KT 10SM OVC050 M01/M06 A3007 30 69 -1800 070/04 RMK AO2 PRESFR T10111061
14740KBDL BDL20161205044010812/05/16 04:40:31  5-MIN KBDL 050940Z 07004KT 10SM OVC046 M01/M06 A3007 40 69 -1800 080/04 RMK AO2 T10111061
14740KBDL BDL20161205044513012/05/16 04:45:31  5-MIN KBDL 050945Z 07004KT 9SM -SN OVC038 M01/M06 A3007 40 69 -1800 080/04 RMK AO2 SNB42 SLP184 P0000 T10111061
14740KBDL BDL20161205045014012/05/16 04:50:31  5-MIN KBDL 050950Z 06005KT 2SM -SN OVC031 M01/M06 A3006 40 72 -1800 070/05 RMK AO2 SFC VIS 3 SNB42 SLP182 P0000 T10111056
14740KBDL BDL20161205045513112/05/16 04:55:31  5-MIN KBDL 050955Z 04006KT 2 1/2SM -SN OVC025 M01/M06 A3006 50 72 -1800 060/06 RMK AO2 TWR VIS 3 P0000 T10111056
14740KBDL BDL20161205050013112/05/16 05:00:31  5-MIN KBDL 051000Z 04006KT 8SM -SN FEW030 BKN070 OVC110 M02/M05 A3006 50 78 -1900 050/06 RMK AO2 P0000 T10171050
14740KBDL BDL20161205050513912/05/16 05:05:31  5-MIN KBDL 051005Z 04005KT 10SM -SN FEW030 BKN070 OVC110 M01/M05 A3005 60 75 -1800 050/05 RMK AO2 PRESFR P0000 T10111050
14740KBDL BDL20161205051013412/05/16 05:10:31  5-MIN KBDL 051010Z 01004KT 10SM SCT023 SCT070 OVC120 M01/M05 A3006 50 75 -1800 030/04 RMK AO2 SNE06 P0000 T10111050
14740KBDL BDL20161205051513412/05/16 05:15:31  5-MIN KBDL 051015Z 01003KT 10SM FEW025 SCT070 OVC120 M01/M05 A3005 60 75 -1800 030/03 RMK AO2 SNE06 P0000 T10111050
14740KBDL BDL20161205052013412/05/16 05:20:31  5-MIN KBDL 051020Z 34003KT 10SM FEW045 FEW070 OVC110 M01/M05 A3006 50 75 -1800 360/03 RMK AO2 SNE06 P0000 T10111050
14740KBDL BDL20161205052512712/05/16 05:25:31  5-MIN KBDL 051025Z 00000KT 10SM FEW075 OVC110 M01/M05 A3006 50 75 -1800 000/00 RMK AO2 SNE06 P0000 T10111050
14740KBDL BDL20161205053012712/05/16 05:30:31  5-MIN KBDL 051030Z 29004KT 10SM FEW075 BKN110 M01/M05 A3006 50 75 -1800 300/04 RMK AO2 SNE06 P0000 T10111050
14740KBDL BDL20161205053513412/05/16 05:35:31  5-MIN KBDL 051035Z 27005KT 10SM SCT065 SCT080 OVC110 M01/M05 A3006 50 75 -1800 280/05 RMK AO2 SNE06 P0000 T10111050
14740KBDL BDL20161205054013412/05/16 05:40:31  5-MIN KBDL 051040Z 27005KT 10SM BKN065 BKN080 OVC110 M01/M05 A3005 50 75 -1800 280/05 RMK AO2 SNE06 P0000 T10111050
14740KBDL BDL20161205054514112/05/16 05:45:31  5-MIN KBDL 051045Z 27004KT 10SM BKN060 BKN080 OVC110 M01/M05 A3004 60 75 -1800 280/04 RMK AO2 SNE06 SLP175 P0000 T10111050
14740KBDL BDL20161205055014812/05/16 05:50:31  5-MIN KBDL 051050Z 27004KT 10SM -SN BKN040 BKN075 OVC110 M01/M05 A3005 60 75 -1800 280/04 RMK AO2 SNE06B46 SLP176 P0000 T10111050
14740KBDL BDL20161205055512412/05/16 05:55:31  5-MIN KBDL 051055Z 27003KT 8SM -SN BKN040 OVC070 M01/M05 A3005 60 75 -1800 280/03 RMK AO2 P0000 T10111050
14740KBDL BDL20161205060012412/05/16 06:00:31  5-MIN KBDL 051100Z 00000KT 4SM -SN BKN035 OVC070 M01/M05 A3004 60 75 -1800 000/00 RMK AO2 P0000 T10111050
14740KBDL BDL20161205060512412/05/16 06:05:31  5-MIN KBDL 051105Z 34003KT 3SM -SN SCT024 OVC035 M01/M05 A3004 70 75 -1800 360/03 RMK AO2 P0000 T10111050
14740KBDL BDL20161205061012812/05/16 06:10:31  5-MIN KBDL 051110Z 34003KT 2 1/2SM -SN BKN028 OVC065 M02/M04 A3005 60 81 -1900 360/03 RMK AO2 P0001 T10171044
14740KBDL BDL20161205061513812/05/16 06:15:31  5-MIN KBDL 051115Z 35005KT 2 1/2SM -SN BKN029 OVC065 M02/M04 A3005 60 81 -1900 360/05 RMK AO2 TWR VIS 3 P0001 T10171044
14740KBDL BDL20161205062013112/05/16 06:20:31  5-MIN KBDL 051120Z 36004KT 3SM -SN FEW016 BKN032 OVC048 M02/M04 A3004 60 81 -1900 010/04 RMK AO2 P0001 T10171044
14740KBDL BDL20161205062514112/05/16 06:25:31  5-MIN KBDL 051125Z 36003KT 3SM -SN SCT014 BKN030 OVC048 M02/M04 A3004 60 81 -1900 010/03 RMK AO2 SFC VIS 4 P0001 T10171044
14740KBDL BDL20161205063014112/05/16 06:30:31  5-MIN KBDL 051130Z 01003KT 3SM -SN FEW014 SCT021 OVC036 M02/M04 A3004 70 81 -1900 030/03 RMK AO2 SFC VIS 5 P0001 T10171044
14740KBDL BDL20161205063513612/05/16 06:35:31  5-MIN KBDL 051135Z 02004KT 6SM HZ FEW014 SCT026 OVC039 M02/M04 A3004 70 81 -1900 030/04 RMK AO2 SNE35 P0001 T10171044
14740KBDL BDL20161205064013112/05/16 06:40:31  5-MIN KBDL 051140Z 01005KT 5SM -SN SCT013 BKN020 OVC045 M02/M04 A3004 70 81 -1900 030/05 RMK AO2 P0001 T10171044
14740KBDL BDL20161205064516812/05/16 06:45:31  5-MIN KBDL 051145Z 01004KT 5SM -SN SCT013 BKN020 OVC045 M02/M04 A3004 70 81 -1900 030/04 RMK AO2 SLP174 P0001 60001 70001 T10171044 11006 21017 56013
14740KBDL BDL20161205065018112/05/16 06:50:31  5-MIN KBDL 051150Z 01004KT 3SM -SN BR BKN013 BKN019 OVC026 M02/M04 A3004 60 85 -1900 030/04 RMK AO2 SFC VIS 4 SLP174 P0001 60001 70001 T10171039 11006 21017 56013
14740KBDL BDL20161205065513712/05/16 06:55:31  5-MIN KBDL 051155Z 36004KT 3SM -SN BR BKN013 OVC019 M02/M04 A3004 60 85 -1900 010/04 RMK AO2 SFC VIS 3 P0000 T10171039
14740KBDL BDL20161205070013012/05/16 07:00:31  5-MIN KBDL 051200Z 36004KT 2SM -SN BR OVC015 M02/M04 A3004 70 85 -1900 020/04 RMK AO2 SFC VIS 3 P0000 T10171039
14740KBDL BDL20161205070513012/05/16 07:05:31  5-MIN KBDL 051205Z 01003KT 2SM -SN BR OVC015 M02/M04 A3004 70 85 -1900 020/03 RMK AO2 SFC VIS 3 P0000 T10171039
14740KBDL BDL20161205071012012/05/16 07:10:31  5-MIN KBDL 051210Z 01004KT 2SM -SN BR OVC015 M02/M03 A3004 70 88 -1900 030/04 RMK AO2 P0000 T10171033
14740KBDL BDL20161205071512012/05/16 07:15:31  5-MIN KBDL 051215Z 01004KT 2SM -SN BR OVC015 M02/M03 A3004 70 88 -1900 020/04 RMK AO2 P0000 T10171033
14740KBDL BDL20161205072013412/05/16 07:20:31  5-MIN KBDL 051220Z 01003KT 2SM -SN BR OVC015 M02/M03 A3003 70 88 -1900 020/03 RMK AO2 SFC VIS 2 1/2 P0000 T10171033
14740KBDL BDL20161205072513412/05/16 07:25:31  5-MIN KBDL 051225Z 00000KT 2SM -SN BR OVC015 M02/M03 A3003 80 88 -1900 000/00 RMK AO2 SFC VIS 2 1/2 P0000 T10171033
14740KBDL BDL20161205073013012/05/16 07:30:31  5-MIN KBDL 051230Z 01003KT 2SM -SN BR OVC015 M02/M03 A3003 80 88 -1900 020/03 RMK AO2 SFC VIS 3 P0000 T10171033
14740KBDL BDL20161205073512012/05/16 07:35:31  5-MIN KBDL 051235Z 01004KT 3SM -SN BR OVC014 M02/M03 A3002 80 88 -1900 020/04 RMK AO2 P0000 T10171033
14740KBDL BDL20161205074012012/05/16 07:40:31  5-MIN KBDL 051240Z 02003KT 3SM -SN BR OVC014 M02/M03 A3002 80 88 -1900 030/03 RMK AO2 P0000 T10171033
14740KBDL BDL20161205074512712/05/16 07:45:31  5-MIN KBDL 051245Z 01004KT 3SM -SN BR OVC014 M02/M03 A3002 80 88 -1900 020/04 RMK AO2 SLP168 P0000 T10171033
14740KBDL BDL20161205075012712/05/16 07:50:31  5-MIN KBDL 051250Z 01003KT 3SM -SN BR OVC014 M02/M03 A3002 80 88 -1900 020/03 RMK AO2 SLP169 P0001 T10171033
14740KBDL BDL20161205075512012/05/16 07:55:31  5-MIN KBDL 051255Z 36003KT 3SM -SN BR OVC013 M02/M03 A3002 80 88 -1900 010/03 RMK AO2 P0000 T10171033
14740KBDL BDL20161205080012012/05/16 08:00:31  5-MIN KBDL 051300Z 36003KT 3SM -SN BR OVC013 M02/M03 A3002 80 88 -1900 020/03 RMK AO2 P0000 T10171033
14740KBDL BDL20161205080512012/05/16 08:05:31  5-MIN KBDL 051305Z 00000KT 3SM -SN BR OVC012 M02/M03 A3002 90 88 -1900 000/00 RMK AO2 P0000 T10171033
14740KBDL BDL20161205081012012/05/16 08:10:31  5-MIN KBDL 051310Z 35003KT 3SM -SN BR OVC012 M02/M03 A3002 80 88 -1900 010/03 RMK AO2 P0000 T10171033
14740KBDL BDL20161205081512012/05/16 08:15:31  5-MIN KBDL 051315Z 34004KT 3SM -SN BR OVC012 M02/M03 A3002 80 88 -1900 350/04 RMK AO2 P0000 T10171033
14740KBDL BDL20161205082012012/05/16 08:20:31  5-MIN KBDL 051320Z 32003KT 3SM -SN BR OVC012 M02/M03 A3002 80 88 -1900 330/03 RMK AO2 P0000 T10171033
14740KBDL BDL20161205082513412/05/16 08:25:31  5-MIN KBDL 051325Z 31004KT 2 1/2SM -SN BR OVC012 M02/M03 A3002 80 88 -1900 320/04 RMK AO2 TWR VIS 3 P0000 T10171033
14740KBDL BDL20161205083013412/05/16 08:30:31  5-MIN KBDL 051330Z 30003KT 2 1/2SM -SN BR OVC012 M02/M03 A3002 80 88 -1900 310/03 RMK AO2 TWR VIS 3 P0000 T10171033
14740KBDL BDL20161205083513412/05/16 08:35:31  5-MIN KBDL 051335Z 31004KT 2 1/2SM -SN BR OVC012 M02/M03 A3002 80 92 -1900 320/04 RMK AO2 TWR VIS 3 P0000 T10171028
14740KBDL BDL20161205084013412/05/16 08:40:31  5-MIN KBDL 051340Z 32003KT 2 1/2SM -SN BR OVC012 M02/M03 A3002 90 88 -1800 330/03 RMK AO2 TWR VIS 3 P0000 T10171033
14740KBDL BDL20161205084514112/05/16 08:45:31  5-MIN KBDL 051345Z 30003KT 2 1/2SM -SN BR OVC011 M01/M03 A3002 90 85 -1800 320/03 RMK AO2 TWR VIS 3 SLP166 P0000 T10111033
14740KBDL BDL20161205085014112/05/16 08:50:31  5-MIN KBDL 051350Z 32003KT 2 1/2SM -SN BR OVC011 M01/M03 A3002 90 88 -1800 330/03 RMK AO2 TWR VIS 3 SLP166 P0000 T10111028
14740KBDL BDL20161205085513412/05/16 08:55:31  5-MIN KBDL 051355Z 00000KT 2 1/2SM -SN BR OVC011 M01/M03 A3002 90 88 -1800 000/00 RMK AO2 TWR VIS 3 P0000 T10111028
14740KBDL BDL20161205090013412/05/16 09:00:31  5-MIN KBDL 051400Z 30004KT 2 1/2SM -SN BR OVC011 M01/M03 A3002 90 88 -1800 320/04 RMK AO2 TWR VIS 3 P0001 T10111028
14740KBDL BDL20161205090513412/05/16 09:05:31  5-MIN KBDL 051405Z 00000KT 2 1/2SM -SN BR OVC011 M01/M03 A3001 90 88 -1800 000/00 RMK AO2 TWR VIS 3 P0001 T10111028
14740KBDL BDL20161205091013412/05/16 09:10:31  5-MIN KBDL 051410Z 00000KT 2 1/2SM -SN BR OVC011 M01/M03 A3001 90 88 -1800 000/00 RMK AO2 TWR VIS 3 P0001 T10111028
14740KBDL BDL20161205091513412/05/16 09:15:31  5-MIN KBDL 051415Z 00000KT 2 1/2SM -SN BR OVC011 M01/M03 A3001 90 88 -1800 000/00 RMK AO2 TWR VIS 3 P0001 T10111028
14740KBDL BDL20161205092013412/05/16 09:20:31  5-MIN KBDL 051420Z 00000KT 2 1/2SM -SN BR OVC009 M01/M03 A3001 90 88 -1800 000/00 RMK AO2 TWR VIS 3 P0001 T10111028
14740KBDL BDL20161205092514112/05/16 09:25:31  5-MIN KBDL 051425Z 00000KT 2 1/2SM -SN BR BKN006 OVC011 M01/M03 A3001 90 88 -1800 000/00 RMK AO2 TWR VIS 3 P0001 T10111028
14740KBDL BDL20161205093014112/05/16 09:30:31  5-MIN KBDL 051430Z 00000KT 2 1/2SM -SN BR BKN006 OVC011 M01/M03 A3001 90 88 -1800 000/00 RMK AO2 TWR VIS 3 P0001 T10111028
14740KBDL BDL20161205093513212/05/16 09:35:31  5-MIN KBDL 051435Z 00000KT 2 1/2SM -SN BR BKN006 OVC011 M01/M03 A3001 100 88 -1800 000/00 RMK AO2 P0001 T10111028
14740KBDL BDL20161205094012512/05/16 09:40:31  5-MIN KBDL 051440Z 00000KT 2 1/2SM -SN BR OVC006 M01/M03 A3001 100 88 -1800 000/00 RMK AO2 P0001 T10111028
14740KBDL BDL20161205094514412/05/16 09:45:31  5-MIN KBDL 051445Z 00000KT 2 1/2SM -SN BR OVC007 M01/M03 A3001 100 88 -1800 000/00 RMK AO2 SLP163 P0001 60002 T10111028 56021
14740KBDL BDL20161205095015412/05/16 09:50:31  5-MIN KBDL 051450Z 00000KT 2 1/2SM -SN BR OVC007 M01/M03 A3001 100 88 -1800 000/00 RMK AO2 SFC VIS 3 SLP162 P0001 60002 T10111028 56021
14740KBDL BDL20161205095513512/05/16 09:55:31  5-MIN KBDL 051455Z 00000KT 2 1/2SM -SN BR OVC008 M01/M03 A3000 100 85 -1700 000/00 RMK AO2 SFC VIS 3 P0000 T10061028
14740KBDL BDL20161205100013512/05/16 10:00:31  5-MIN KBDL 051500Z 00000KT 2 1/2SM -SN BR OVC008 M01/M03 A3000 100 88 -1800 000/00 RMK AO2 SFC VIS 3 P0000 T10111028
14740KBDL BDL20161205100513512/05/16 10:05:31  5-MIN KBDL 051505Z 00000KT 2 1/2SM -SN BR OVC008 M01/M03 A3000 110 88 -1800 000/00 RMK AO2 SFC VIS 3 P0000 T10111028
14740KBDL BDL20161205101013512/05/16 10:10:31  5-MIN KBDL 051510Z 00000KT 2SM -SN BR OVC008 M01/M03 A3000 110 88 -1800 000/00 RMK AO2 SFC VIS 2 1/2 P0000 T10111028
14740KBDL BDL20161205101513512/05/16 10:15:31  5-MIN KBDL 051515Z 00000KT 2SM -SN BR OVC008 M01/M02 A2999 110 92 -1800 000/00 RMK AO2 SFC VIS 2 1/2 P0001 T10111022
14740KBDL BDL20161205102013512/05/16 10:20:31  5-MIN KBDL 051520Z 00000KT 2SM -SN BR OVC008 M01/M03 A2999 110 88 -1700 000/00 RMK AO2 SFC VIS 2 1/2 P0001 T10111028
14740KBDL BDL20161205102512112/05/16 10:25:31  5-MIN KBDL 051525Z 00000KT 3SM -SN BR OVC008 M01/M03 A2999 110 88 -1700 000/00 RMK AO2 P0001 T10111028
14740KBDL BDL20161205103013112/05/16 10:30:31  5-MIN KBDL 051530Z 17003KT 3SM UP BR OVC008 M01/M02 A2999 120 92 -1700 180/03 RMK AO2 UPB29SNE29 P0001 T10111022
14740KBDL BDL20161205103513112/05/16 10:35:31  5-MIN KBDL 051535Z 00000KT 5SM BR OVC008 M01/M02 A2998 120 88 -1700 000/00 RMK AO2 UPB29E31SNE29 P0001 T10061022
14740KBDL BDL20161205104013112/05/16 10:40:31  5-MIN KBDL 051540Z 00000KT 5SM BR OVC008 M01/M02 A2998 120 88 -1700 000/00 RMK AO2 UPB29E31SNE29 P0001 T10061022
14740KBDL BDL20161205104513012/05/16 10:45:31  5-MIN KBDL 051545Z 00000KT 6SM BR OVC007 M01/M02 A2998 120 88 -1700 000/00 RMK AO2 SLP153 SNE29 P0001 T10061022
14740KBDL BDL20161205105013412/05/16 10:50:31  5-MIN KBDL 051550Z 00000KT 7SM BKN007 OVC014 M01/M02 A2997 130 88 -1700 000/00 RMK AO2 SLP151 SNE29 P0001 T10061022
14740KBDL BDL20161205105511512/05/16 10:55:31  5-MIN KBDL 051555Z 00000KT 8SM BKN007 OVC014 M01/M02 A2997 130 88 -1700 000/00 RMK AO2 T10061022
14740KBDL BDL20161205110010812/05/16 11:00:31  5-MIN KBDL 051600Z 00000KT 8SM OVC006 M01/M02 A2997 130 88 -1700 000/00 RMK AO2 T10061022
14740KBDL BDL20161205110510812/05/16 11:05:31  5-MIN KBDL 051605Z 00000KT 7SM OVC006 M01/M02 A2997 130 88 -1700 000/00 RMK AO2 T10061022
14740KBDL BDL20161205111010812/05/16 11:10:31  5-MIN KBDL 051610Z 00000KT 8SM OVC006 M01/M02 A2996 140 88 -1600 000/00 RMK AO2 T10061022
14740KBDL BDL20161205111510712/05/16 11:15:31  5-MIN KBDL 051615Z 00000KT 8SM OVC006 00/M02 A2996 140 85 -1600 000/00 RMK AO2 T00001022
14740KBDL BDL20161205112010712/05/16 11:20:31  5-MIN KBDL 051620Z 00000KT 8SM OVC006 00/M02 A2996 140 85 -1600 000/00 RMK AO2 T00001022
14740KBDL BDL20161205112510712/05/16 11:25:31  5-MIN KBDL 051625Z 00000KT 8SM OVC006 00/M02 A2996 140 85 -1600 000/00 RMK AO2 T00001022
14740KBDL BDL20161205113010712/05/16 11:30:31  5-MIN KBDL 051630Z 00000KT 7SM OVC006 00/M02 A2995 150 85 -1600 000/00 RMK AO2 T00001022
14740KBDL BDL20161205113510712/05/16 11:35:31  5-MIN KBDL 051635Z 00000KT 7SM OVC006 00/M02 A2995 150 88 -1600 000/00 RMK AO2 T00001017
14740KBDL BDL20161205114011012/05/16 11:40:31  5-MIN KBDL 051640Z 00000KT 6SM BR OVC006 00/M02 A2994 150 88 -1600 000/00 RMK AO2 T00001017
14740KBDL BDL20161205114511712/05/16 11:45:31  5-MIN KBDL 051645Z 16004KT 6SM BR OVC006 00/M02 A2994 160 88 -1500 170/04 RMK AO2 SLP139 T00001017
14740KBDL BDL20161205115011712/05/16 11:50:31  5-MIN KBDL 051650Z 16003KT 5SM BR OVC006 00/M02 A2994 160 88 -1500 170/03 RMK AO2 SLP139 T00001017
14740KBDL BDL20161205115511012/05/16 11:55:31  5-MIN KBDL 051655Z 17003KT 5SM BR OVC007 00/M02 A2993 170 88 -1500 190/03 RMK AO2 T00001017
14740KBDL BDL20161205120011012/05/16 12:00:31  5-MIN KBDL 051700Z 00000KT 5SM BR OVC007 00/M01 A2994 160 92 -1500 000/00 RMK AO2 T00001011
14740KBDL BDL20161205120511012/05/16 12:05:31  5-MIN KBDL 051705Z 00000KT 5SM BR OVC007 01/M01 A2994 160 89 -1500 000/00 RMK AO2 T00061011
14740KBDL BDL20161205121011012/05/16 12:10:31  5-MIN KBDL 051710Z 00000KT 6SM BR OVC006 01/M01 A2994 160 89 -1500 000/00 RMK AO2 T00061011
14740KBDL BDL20161205121511712/05/16 12:15:31  5-MIN KBDL 051715Z 23004KT 6SM BR BKN006 OVC023 01/M01 A2994 160 89 -1500 240/04 RMK AO2 T00061011
14740KBDL BDL20161205122011712/05/16 12:20:31  5-MIN KBDL 051720Z 24003KT 6SM BR BKN006 OVC023 01/M01 A2993 170 85 -1400 250/03 RMK AO2 T00111011
14740KBDL BDL20161205122511712/05/16 12:25:31  5-MIN KBDL 051725Z 22003KT 6SM BR BKN006 OVC023 01/M01 A2993 170 89 -1400 230/03 RMK AO2 T00111006
14740KBDL BDL20161205123011412/05/16 12:30:31  5-MIN KBDL 051730Z 21004KT 7SM SCT006 OVC023 01/M01 A2993 170 89 -1400 230/04 RMK AO2 T00111006
14740KBDL BDL20161205123511412/05/16 12:35:31  5-MIN KBDL 051735Z 22004KT 7SM SCT006 OVC023 01/M01 A2993 170 89 -1400 230/04 RMK AO2 T00111006
14740KBDL BDL20161205124011412/05/16 12:40:31  5-MIN KBDL 051740Z 21005KT 7SM FEW006 OVC022 02/M01 A2993 170 85 -1300 220/05 RMK AO2 T00171006
14740KBDL BDL20161205124514412/05/16 12:45:31  5-MIN KBDL 051745Z 18003KT 7SM FEW006 OVC022 02/00 A2993 170 85 -1300 200/03 RMK AO2 SLP135 60003 T00220000 10022 21017 56012
14740KBDL BDL20161205125015112/05/16 12:50:31  5-MIN KBDL 051750Z 00000KT 7SM FEW006 OVC022 02/00 A2993 170 85 -1300 000/00 RMK AO2 SLP135 BINOVC 60003 T00220000 10022 21017 56012
14740KBDL BDL20161205125510612/05/16 12:55:31  5-MIN KBDL 051755Z 00000KT 7SM OVC022 02/00 A2993 170 89 -1300 000/00 RMK AO2 T00170000
14740KBDL BDL20161205130010612/05/16 13:00:31  5-MIN KBDL 051800Z 00000KT 8SM OVC022 02/00 A2993 170 85 -1300 000/00 RMK AO2 T00220000
14740KBDL BDL20161205130510612/05/16 13:05:31  5-MIN KBDL 051805Z 00000KT 8SM OVC022 02/00 A2993 170 85 -1300 000/00 RMK AO2 T00220000
14740KBDL BDL20161205131010612/05/16 13:10:31  5-MIN KBDL 051810Z 00000KT 7SM BKN022 02/00 A2992 170 85 -1300 000/00 RMK AO2 T00220000
14740KBDL BDL20161205131510612/05/16 13:15:31  5-MIN KBDL 051815Z 00000KT 8SM BKN021 03/01 A2992 170 85 -1200 000/00 RMK AO2 T00280006
14740KBDL BDL20161205132010612/05/16 13:20:31  5-MIN KBDL 051820Z 00000KT 8SM SCT021 04/01 A2992 170 79 -1000 000/00 RMK AO2 T00390006
14740KBDL BDL20161205132511312/05/16 13:25:31  5-MIN KBDL 051825Z 00000KT 8SM FEW006 SCT021 03/01 A2992 180 82 -1100 000/00 RMK AO2 T00330006
14740KBDL BDL20161205133010612/05/16 13:30:31  5-MIN KBDL 051830Z 00000KT 9SM FEW021 03/01 A2992 180 82 -1100 000/00 RMK AO2 T00330006
14740KBDL BDL20161205133510312/05/16 13:35:31  5-MIN KBDL 051835Z 00000KT 9SM CLR 04/01 A2992 180 79 -1000 000/00 RMK AO2 T00390006
14740KBDL BDL20161205134010412/05/16 13:40:31  5-MIN KBDL 051840Z 18003KT 10SM CLR 04/01 A2992 180 79 -1000 190/03 RMK AO2 T00390006
14740KBDL BDL20161205134511112/05/16 13:45:31  5-MIN KBDL 051845Z 16003KT 10SM CLR 04/01 A2992 170 82 -1000 180/03 RMK AO2 SLP134 T00390011
14740KBDL BDL20161205135012112/05/16 13:50:31  5-MIN KBDL 051850Z 00000KT 10SM FEW008 FEW021 04/01 A2993 170 79 -1000 000/00 RMK AO2 SLP136 T00440011
14740KBDL BDL20161205135510412/05/16 13:55:31  5-MIN KBDL 051855Z 00000KT 10SM CLR 04/01 A2993 170 76 -1000 000/00 RMK AO2 T00440006
14740KBDL BDL20161205140010312/05/16 14:00:31  5-MIN KBDL 051900Z 26003KT 10SM CLR 05/01 A2993 170 73 -900 270/03 RMK AO2 T00500006
14740KBDL BDL20161205140510312/05/16 14:05:31  5-MIN KBDL 051905Z VRB03KT 10SM CLR 05/01 A2993 170 73 -900 VRB/03 RMK AO2 T00500006
14740KBDL BDL20161205141010312/05/16 14:10:31  5-MIN KBDL 051910Z 24003KT 10SM CLR 05/01 A2993 170 76 -900 250/03 RMK AO2 T00500011
14740KBDL BDL20161205141510312/05/16 14:15:31  5-MIN KBDL 051915Z 24003KT 10SM CLR 05/01 A2993 170 73 -900 250/03 RMK AO2 T00500006
14740KBDL BDL20161205142010312/05/16 14:20:31  5-MIN KBDL 051920Z 24004KT 10SM CLR 05/01 A2993 170 73 -900 250/04 RMK AO2 T00500006
14740KBDL BDL20161205142510312/05/16 14:25:31  5-MIN KBDL 051925Z 24003KT 10SM CLR 05/01 A2993 160 73 -900 250/03 RMK AO2 T00500006
14740KBDL BDL20161205143010312/05/16 14:30:31  5-MIN KBDL 051930Z 00000KT 10SM CLR 06/01 A2993 170 73 -800 000/00 RMK AO2 T00560011
14740KBDL BDL20161205143510312/05/16 14:35:31  5-MIN KBDL 051935Z 00000KT 10SM CLR 06/01 A2993 170 70 -800 000/00 RMK AO2 T00610011
14740KBDL BDL20161205144010312/05/16 14:40:31  5-MIN KBDL 051940Z 00000KT 10SM CLR 06/01 A2993 170 67 -800 000/00 RMK AO2 T00610006
14740KBDL BDL20161205144511312/05/16 14:45:31  5-MIN KBDL 051945Z 00000KT 10SM FEW048 06/01 A2993 160 67 -800 000/00 RMK AO2 SLP138 T00610006
14740KBDL BDL20161205145012712/05/16 14:50:31  5-MIN KBDL 051950Z 00000KT 10SM FEW010 SCT048 SCT200 06/01 A2994 160 67 -800 000/00 RMK AO2 SLP139 T00610006
14740KBDL BDL20161205145510612/05/16 14:55:31  5-MIN KBDL 051955Z 29003KT 10SM BKN048 06/01 A2994 160 67 -800 300/03 RMK AO2 T00610006
14740KBDL BDL20161205150010612/05/16 15:00:31  5-MIN KBDL 052000Z 00000KT 10SM BKN048 06/01 A2994 160 70 -900 000/00 RMK AO2 T00560006
14740KBDL BDL20161205150510612/05/16 15:05:31  5-MIN KBDL 052005Z 00000KT 10SM BKN050 06/01 A2994 160 70 -900 000/00 RMK AO2 T00560006
14740KBDL BDL20161205151010612/05/16 15:10:31  5-MIN KBDL 052010Z 00000KT 10SM BKN050 06/01 A2995 150 70 -900 000/00 RMK AO2 T00560006
14740KBDL BDL20161205151510612/05/16 15:15:31  5-MIN KBDL 052015Z 00000KT 10SM OVC050 06/01 A2995 150 70 -900 000/00 RMK AO2 T00560006
14740KBDL BDL20161205152011312/05/16 15:20:31  5-MIN KBDL 052020Z 00000KT 10SM FEW044 BKN055 06/01 A2995 150 70 -900 000/00 RMK AO2 T00560006
14740KBDL BDL20161205152511312/05/16 15:25:31  5-MIN KBDL 052025Z 34003KT 10SM FEW042 BKN055 05/01 A2995 150 73 -900 350/03 RMK AO2 T00500006
14740KBDL BDL20161205153011412/05/16 15:30:31  5-MIN KBDL 052030Z 00000KT 10SM FEW040 BKN055 04/01 A2995 150 76 -1000 000/00 RMK AO2 T00440006
14740KBDL BDL20161205153511312/05/16 15:35:31  5-MIN KBDL 052035Z 00000KT 10SM FEW040 BKN055 05/01 A2995 150 73 -900 000/00 RMK AO2 T00500006
14740KBDL BDL20161205154011412/05/16 15:40:31  5-MIN KBDL 052040Z 00000KT 10SM FEW040 OVC060 04/01 A2995 140 76 -1000 000/00 RMK AO2 T00440006
14740KBDL BDL20161205154512712/05/16 15:45:31  5-MIN KBDL 052045Z 00000KT 10SM FEW041 OVC060 04/01 A2996 140 76 -1000 000/00 RMK AO2 SLP147 T00440006 56026
14740KBDL BDL20161205155014112/05/16 15:50:31  5-MIN KBDL 052050Z 00000KT 10SM FEW010 FEW041 BKN060 BKN180 05/01 A2997 130 73 -1000 000/00 RMK AO2 SLP149 T00500006 56026
14740KBDL BDL20161205155510712/05/16 15:55:31  5-MIN KBDL 052055Z 00000KT 10SM OVC060 05/01 A2997 130 73 -1000 000/00 RMK AO2 T00500006
14740KBDL BDL20161205160010712/05/16 16:00:31  5-MIN KBDL 052100Z 00000KT 10SM OVC060 05/01 A2996 140 73 -1000 000/00 RMK AO2 T00500006
14740KBDL BDL20161205160510712/05/16 16:05:31  5-MIN KBDL 052105Z 00000KT 10SM OVC060 05/01 A2997 130 73 -1000 000/00 RMK AO2 T00500006
14740KBDL BDL20161205161010712/05/16 16:10:31  5-MIN KBDL 052110Z 03004KT 10SM BKN060 04/01 A2997 130 79 -1100 040/04 RMK AO2 T00390006
14740KBDL BDL20161205230511412/05/16 23:05:31  5-MIN KBDL 060405Z 22006KT 10SM SCT038 BKN065 03/M02 A3004 60 72 -1300 230/06 RMK AO2 T00281017
14740KBDL BDL20161205231011412/05/16 23:10:31  5-MIN KBDL 060410Z 22006KT 10SM FEW038 BKN065 02/M02 A3004 60 75 -1400 240/06 RMK AO2 T00221017
14740KBDL BDL20161205231511412/05/16 23:15:31  5-MIN KBDL 060415Z 23005KT 10SM FEW040 BKN065 02/M02 A3005 60 75 -1400 240/05 RMK AO2 T00221017
14740KBDL BDL20161205232010712/05/16 23:20:31  5-MIN KBDL 060420Z 24004KT 10SM BKN065 02/M02 A3005 60 75 -1400 250/04 RMK AO2 T00221017
14740KBDL BDL20161205232510712/05/16 23:25:31  5-MIN KBDL 060425Z 24004KT 10SM OVC065 01/M02 A3005 60 82 -1500 250/04 RMK AO2 T00111017
14740KBDL BDL20161205233011412/05/16 23:30:31  5-MIN KBDL 060430Z 26004KT 10SM FEW047 OVC065 01/M02 A3005 60 82 -1500 270/04 RMK AO2 T00111017
14740KBDL BDL20161205233511412/05/16 23:35:31  5-MIN KBDL 060435Z 26005KT 10SM SCT047 OVC065 02/M02 A3005 60 78 -1500 270/05 RMK AO2 T00171017
14740KBDL BDL20161205234011412/05/16 23:40:31  5-MIN KBDL 060440Z 25005KT 10SM SCT047 BKN065 02/M02 A3005 60 78 -1500 270/05 RMK AO2 T00171017
14740KBDL BDL20161205234513112/05/16 23:45:31  5-MIN KBDL 060445Z 26004KT 10SM SCT047 BKN065 02/M02 A3005 60 78 -1500 280/04 RMK AO2 SLP178 T00171017 400611017
14740KBDL BDL20161205235013112/05/16 23:50:31  5-MIN KBDL 060450Z 28003KT 10SM SCT047 SCT065 01/M02 A3005 50 78 -1500 300/03 RMK AO2 SLP179 T00111022 400611017
14740KBDL BDL20161205235510712/05/16 23:55:31  5-MIN KBDL 060455Z 27004KT 10SM BKN046 01/M02 A3006 50 78 -1500 280/04 RMK AO2 T00111022
14740KBDL BDL20161206000010712/06/16 00:00:31  5-MIN KBDL 060500Z 28004KT 10SM BKN043 01/M02 A3006 50 82 -1600 290/04 RMK AO2 T00061022
14740KBDL BDL20161206000510712/06/16 00:05:31  5-MIN KBDL 060505Z 26003KT 10SM BKN043 01/M02 A3006 50 78 -1500 270/03 RMK AO2 T00111022
14740KBDL BDL20161206001010712/06/16 00:10:31  5-MIN KBDL 060510Z 23003KT 10SM BKN041 01/M02 A3006 50 78 -1500 250/03 RMK AO2 T00111022
14740KBDL BDL20161206001510712/06/16 00:15:31  5-MIN KBDL 060515Z 22004KT 10SM BKN041 02/M02 A3006 50 78 -1500 230/04 RMK AO2 T00171017
14740KBDL BDL20161206002010712/06/16 00:20:31  5-MIN KBDL 060520Z 21004KT 10SM SCT041 02/M02 A3006 50 75 -1400 230/04 RMK AO2 T00221017
14740KBDL BDL20161206002510712/06/16 00:25:31  5-MIN KBDL 060525Z 20004KT 10SM SCT041 03/M02 A3006 50 69 -1300 220/04 RMK AO2 T00281022
14740KBDL BDL20161206003010712/06/16 00:30:31  5-MIN KBDL 060530Z 20004KT 10SM SCT041 03/M02 A3006 40 69 -1300 220/04 RMK AO2 T00281022
14740KBDL BDL20161206003510712/06/16 00:35:31  5-MIN KBDL 060535Z 22005KT 10SM SCT041 02/M02 A3006 40 72 -1400 230/05 RMK AO2 T00221022
14740KBDL BDL20161206004010712/06/16 00:40:31  5-MIN KBDL 060540Z 22007KT 10SM FEW041 02/M02 A3007 40 75 -1500 240/07 RMK AO2 T00171022
14740KBDL BDL20161206004513212/06/16 00:45:31  5-MIN KBDL 060545Z 24007KT 10SM FEW041 01/M02 A3007 40 78 -1600 250/07 RMK AO2 SLP182 T00111022 10044 20006 51016
14740KBDL BDL20161206005013212/06/16 00:50:31  5-MIN KBDL 060550Z 25007KT 10SM FEW041 01/M02 A3007 40 78 -1600 260/07 RMK AO2 SLP183 T00111022 10044 20006 51016
14740KBDL BDL20161206005510812/06/16 00:55:31  5-MIN KBDL 060555Z 25008KT 10SM FEW040 M01/M03 A3007 40 85 -1800 260/08 RMK AO2 T10061028
14740KBDL BDL20161206010010812/06/16 01:00:31  5-MIN KBDL 060600Z 25009KT 10SM FEW038 M01/M03 A3007 40 85 -1800 270/09 RMK AO2 T10061028
14740KBDL BDL20161206010510712/06/16 01:05:31  5-MIN KBDL 060605Z 26009KT 10SM FEW036 01/M02 A3007 40 78 -1600 280/09 RMK AO2 T00111022
14740KBDL BDL20161206011010412/06/16 01:10:31  5-MIN KBDL 060610Z 26009KT 10SM CLR 01/M02 A3007 40 78 -1600 280/09 RMK AO2 T00111022
14740KBDL BDL20161206011510412/06/16 01:15:31  5-MIN KBDL 060615Z 26010KT 10SM CLR 01/M02 A3007 40 78 -1600 280/10 RMK AO2 T00111022
14740KBDL BDL20161206012010412/06/16 01:20:31  5-MIN KBDL 060620Z 26009KT 10SM CLR 01/M02 A3007 40 78 -1600 270/09 RMK AO2 T00111022
14740KBDL BDL20161206012510412/06/16 01:25:31  5-MIN KBDL 060625Z 26008KT 10SM CLR 01/M02 A3007 40 78 -1600 280/08 RMK AO2 T00111022
14740KBDL BDL20161206013010412/06/16 01:30:31  5-MIN KBDL 060630Z 26004KT 10SM CLR 01/M02 A3007 30 82 -1600 280/04 RMK AO2 T00061022
14740KBDL BDL20161206013510412/06/16 01:35:31  5-MIN KBDL 060635Z 15003KT 10SM CLR 00/M03 A3008 30 81 -1700 170/03 RMK AO2 T00001028
14740KBDL BDL20161206014010412/06/16 01:40:31  5-MIN KBDL 060640Z 12004KT 10SM CLR 01/M02 A3008 30 78 -1600 140/04 RMK AO2 T00111022
14740KBDL BDL20161206014511412/06/16 01:45:31  5-MIN KBDL 060645Z 12006KT 10SM FEW036 01/M03 A3009 20 78 -1600 130/06 RMK AO2 SLP190 T00061028
14740KBDL BDL20161206015011412/06/16 01:50:31  5-MIN KBDL 060650Z 00000KT 10SM SCT035 01/M02 A3009 20 78 -1600 000/00 RMK AO2 SLP190 T00111022
14740KBDL BDL20161206015510712/06/16 01:55:31  5-MIN KBDL 060655Z 16004KT 10SM BKN039 03/M02 A3009 20 69 -1400 170/04 RMK AO2 T00281022
14740KBDL BDL20161206020010712/06/16 02:00:31  5-MIN KBDL 060700Z 18005KT 10SM BKN037 02/M02 A3009 20 72 -1400 190/05 RMK AO2 T00221022
14740KBDL BDL20161206020511412/06/16 02:05:31  5-MIN KBDL 060705Z 00000KT 10SM BKN035 BKN042 03/M02 A3010 10 72 -1400 000/00 RMK AO2 T00281017
14740KBDL BDL20161206021011412/06/16 02:10:31  5-MIN KBDL 060710Z VRB03KT 10SM BKN035 OVC042 03/M02 A3010 10 72 -1400 VRB/03 RMK AO2 T00281017
14740KBDL BDL20161206021511412/06/16 02:15:31  5-MIN KBDL 060715Z 00000KT 10SM BKN034 OVC042 02/M02 A3010 10 72 -1400 000/00 RMK AO2 T00221022
14740KBDL BDL20161206022010712/06/16 02:20:31  5-MIN KBDL 060720Z 00000KT 10SM OVC036 03/M02 A3009 20 69 -1400 000/00 RMK AO2 T00281022
14740KBDL BDL20161206022510712/06/16 02:25:31  5-MIN KBDL 060725Z 25003KT 10SM OVC036 03/M02 A3010 10 69 -1400 270/03 RMK AO2 T00281022
14740KBDL BDL20161206023010712/06/16 02:30:31  5-MIN KBDL 060730Z 22004KT 10SM OVC036 02/M02 A3010 10 78 -1500 240/04 RMK AO2 T00171017
14740KBDL BDL20161206023510712/06/16 02:35:31  5-MIN KBDL 060735Z 23003KT 10SM OVC037 01/M02 A3010 10 82 -1600 240/03 RMK AO2 T00111017
14740KBDL BDL20161206024010712/06/16 02:40:31  5-MIN KBDL 060740Z 25003KT 10SM OVC039 01/M02 A3009 20 78 -1600 260/03 RMK AO2 T00111022
14740KBDL BDL20161206024511412/06/16 02:45:31  5-MIN KBDL 060745Z 23003KT 10SM OVC039 01/M02 A3010 10 78 -1600 250/03 RMK AO2 SLP194 T00111022
14740KBDL BDL20161206025011412/06/16 02:50:31  5-MIN KBDL 060750Z 25005KT 10SM BKN038 01/M02 A3010 10 82 -1600 260/05 RMK AO2 SLP194 T00111017
14740KBDL BDL20161206025510712/06/16 02:55:31  5-MIN KBDL 060755Z 25006KT 10SM OVC038 01/M02 A3010 10 82 -1600 260/06 RMK AO2 T00111017
14740KBDL BDL20161206030010712/06/16 03:00:31  5-MIN KBDL 060800Z 24006KT 10SM OVC039 01/M02 A3010 10 82 -1600 260/06 RMK AO2 T00111017
14740KBDL BDL20161206030510712/06/16 03:05:31  5-MIN KBDL 060805Z 24006KT 10SM OVC039 01/M02 A3010 10 82 -1600 250/06 RMK AO2 T00111017
14740KBDL BDL20161206031010612/06/16 03:10:31  5-MIN KBDL 060810Z 23004KT 10SM OVC039 01/M02 A3011 0 82 -1600 250/04 RMK AO2 T00111017
14740KBDL BDL20161206031511312/06/16 03:15:31  5-MIN KBDL 060815Z 22005KT 10SM BKN039 OVC055 01/M02 A3011 0 78 -1600 230/05 RMK AO2 T00111022
14740KBDL BDL20161206032011312/06/16 03:20:31  5-MIN KBDL 060820Z 23006KT 10SM BKN039 OVC055 01/M02 A3011 0 78 -1600 240/06 RMK AO2 T00111022
14740KBDL BDL20161206032511312/06/16 03:25:31  5-MIN KBDL 060825Z 25007KT 10SM BKN039 BKN055 01/M02 A3011 0 82 -1700 260/07 RMK AO2 T00061022
14740KBDL BDL20161206033011412/06/16 03:30:31  5-MIN KBDL 060830Z 25008KT 10SM SCT039 BKN055 00/M02 A3010 10 85 -1700 270/08 RMK AO2 T00001022
14740KBDL BDL20161206033511412/06/16 03:35:31  5-MIN KBDL 060835Z 25007KT 10SM SCT038 SCT055 00/M03 A3010 10 81 -1700 270/07 RMK AO2 T00001028
14740KBDL BDL20161206034011412/06/16 03:40:31  5-MIN KBDL 060840Z 24005KT 10SM FEW038 SCT055 00/M03 A3010 10 81 -1700 250/05 RMK AO2 T00001028
14740KBDL BDL20161206034512012/06/16 03:45:31  5-MIN KBDL 060845Z 22004KT 10SM FEW036 00/M03 A3010 10 81 -1700 240/04 RMK AO2 SLP195 T00001028 53011
14740KBDL BDL20161206035012712/06/16 03:50:31  5-MIN KBDL 060850Z 22003KT 10SM FEW036 FEW055 01/M03 A3010 10 78 -1700 240/03 RMK AO2 SLP195 T00061028 53011
14740KBDL BDL20161206035510412/06/16 03:55:31  5-MIN KBDL 060855Z 00000KT 10SM CLR 01/M03 A3010 10 78 -1700 000/00 RMK AO2 T00061028
14740KBDL BDL20161206040010712/06/16 04:00:31  5-MIN KBDL 060900Z 25003KT 10SM FEW050 01/M03 A3010 10 78 -1700 260/03 RMK AO2 T00061028
14740KBDL BDL20161206040510712/06/16 04:05:31  5-MIN KBDL 060905Z 26003KT 10SM SCT050 00/M03 A3010 10 78 -1700 270/03 RMK AO2 T00001033
14740KBDL BDL20161206041010812/06/16 04:10:31  5-MIN KBDL 060910Z 25003KT 10SM BKN050 M01/M04 A3010 10 81 -1900 260/03 RMK AO2 T10111039
14740KBDL BDL20161206041510712/06/16 04:15:31  5-MIN KBDL 060915Z 23003KT 10SM BKN050 00/M03 A3010 10 78 -1700 250/03 RMK AO2 T00001033
14740KBDL BDL20161206042010712/06/16 04:20:31  5-MIN KBDL 060920Z 25003KT 10SM SCT050 00/M03 A3010 10 78 -1700 260/03 RMK AO2 T00001033
14740KBDL BDL20161206042510612/06/16 04:25:31  5-MIN KBDL 060925Z 26003KT 10SM SCT050 01/M03 A3011 0 78 -1700 280/03 RMK AO2 T00061028
14740KBDL BDL20161206043010612/06/16 04:30:31  5-MIN KBDL 060930Z 26004KT 10SM SCT050 01/M03 A3011 0 75 -1600 280/04 RMK AO2 T00111028
14740KBDL BDL20161206043510712/06/16 04:35:31  5-MIN KBDL 060935Z 27004KT 10SM FEW050 00/M03 A3010 10 78 -1700 280/04 RMK AO2 T00001033
14740KBDL BDL20161206044010712/06/16 04:40:31  5-MIN KBDL 060940Z 29004KT 10SM FEW050 01/M03 A3010 10 78 -1700 310/04 RMK AO2 T00061028
14740KBDL BDL20161206044511212/06/16 04:45:31  5-MIN KBDL 060945Z 29005KT 10SM CLR M01/M03 A3010 10 85 -1800 310/05 RMK AO2 SLP195 T10061028
14740KBDL BDL20161206045011512/06/16 04:50:31  5-MIN KBDL 060950Z 30005KT 10SM FEW050 M01/M03 A3010 10 85 -1900 320/05 RMK AO2 SLP195 T10111033
14740KBDL BDL20161206045510412/06/16 04:55:31  5-MIN KBDL 060955Z 33004KT 10SM CLR M01/M03 A3011 0 85 -1900 350/04 RMK AO2 T10111033
14740KBDL BDL20161206050010412/06/16 05:00:31  5-MIN KBDL 061000Z 36003KT 10SM CLR M01/M03 A3011 0 81 -1800 010/03 RMK AO2 T10061033
14740KBDL BDL20161206050510412/06/16 05:05:31  5-MIN KBDL 061005Z 33003KT 10SM CLR M01/M03 A3011 0 85 -1900 340/03 RMK AO2 T10111033
14740KBDL BDL20161206051010412/06/16 05:10:31  5-MIN KBDL 061010Z 34005KT 10SM CLR M02/M04 A3011 0 85 -2000 350/05 RMK AO2 T10171039
14740KBDL BDL20161206051510412/06/16 05:15:31  5-MIN KBDL 061015Z 34006KT 10SM CLR M02/M04 A3011 0 85 -2000 350/06 RMK AO2 T10171039
14740KBDL BDL20161206052010512/06/16 05:20:31  5-MIN KBDL 061020Z 34006KT 10SM CLR M02/M04 A3011 10 88 -2000 350/06 RMK AO2 T10221039
14740KBDL BDL20161206052510412/06/16 05:25:31  5-MIN KBDL 061025Z 33004KT 10SM CLR M03/M04 A3011 0 88 -2100 350/04 RMK AO2 T10281044
14740KBDL BDL20161206053010412/06/16 05:30:31  5-MIN KBDL 061030Z 33004KT 10SM CLR M03/M04 A3011 0 88 -2100 340/04 RMK AO2 T10281044
14740KBDL BDL20161206053510412/06/16 05:35:31  5-MIN KBDL 061035Z 31004KT 10SM CLR M03/M04 A3011 0 92 -2100 320/04 RMK AO2 T10281039
14740KBDL BDL20161206054010412/06/16 05:40:31  5-MIN KBDL 061040Z 29005KT 10SM CLR M03/M04 A3011 0 88 -2100 310/05 RMK AO2 T10281044
14740KBDL BDL20161206054511112/06/16 05:45:31  5-MIN KBDL 061045Z VRB03KT 10SM CLR M02/M04 A3011 0 88 -2000 VRB/03 RMK AO2 SLP197 T10221039
14740KBDL BDL20161206055011112/06/16 05:50:31  5-MIN KBDL 061050Z 21003KT 10SM CLR M02/M04 A3011 0 88 -2000 220/03 RMK AO2 SLP197 T10221039
14740KBDL BDL20161206055510412/06/16 05:55:31  5-MIN KBDL 061055Z 16003KT 10SM CLR M02/M03 A3011 0 88 -2000 170/03 RMK AO2 T10171033
14740KBDL BDL20161206060010412/06/16 06:00:31  5-MIN KBDL 061100Z 17003KT 10SM CLR M02/M03 A3011 0 88 -2000 190/03 RMK AO2 T10171033
14740KBDL BDL20161206060510412/06/16 06:05:31  5-MIN KBDL 061105Z 00000KT 10SM CLR M02/M03 A3011 0 88 -2000 000/00 RMK AO2 T10171033
14740KBDL BDL20161206061010412/06/16 06:10:31  5-MIN KBDL 061110Z 00000KT 10SM CLR M02/M04 A3011 0 88 -2000 000/00 RMK AO2 T10221039
14740KBDL BDL20161206061510412/06/16 06:15:31  5-MIN KBDL 061115Z 22003KT 10SM CLR M01/M03 A3012 0 81 -1800 230/03 RMK AO2 T10061033
14740KBDL BDL20161206062010412/06/16 06:20:31  5-MIN KBDL 061120Z 16007KT 10SM CLR M02/M04 A3012 0 85 -2000 180/07 RMK AO2 T10221044
14740KBDL BDL20161206062510612/06/16 06:25:31  5-MIN KBDL 061125Z 20004KT 10SM CLR M02/M04 A3012 -10 85 -2000 210/04 RMK AO2 T10221044
14740KBDL BDL20161206063010612/06/16 06:30:31  5-MIN KBDL 061130Z 21004KT 10SM CLR M01/M03 A3012 -10 85 -1900 220/04 RMK AO2 T10111033
14740KBDL BDL20161206063510612/06/16 06:35:31  5-MIN KBDL 061135Z 19003KT 10SM CLR M01/M03 A3012 -10 88 -1900 200/03 RMK AO2 T10111028
14740KBDL BDL20161206064010612/06/16 06:40:31  5-MIN KBDL 061140Z 22003KT 10SM CLR M01/M03 A3012 -10 88 -1900 240/03 RMK AO2 T10111028
14740KBDL BDL20161206064513712/06/16 06:45:31  5-MIN KBDL 061145Z 24006KT 10SM CLR M01/M03 A3013 -10 85 -1900 250/06 RMK AO2 SLP204 70003 T10111033 10028 21028 51012
14740KBDL BDL20161206065014012/06/16 06:50:31  5-MIN KBDL 061150Z 24004KT 10SM FEW250 M02/M03 A3013 -10 88 -2000 260/04 RMK AO2 SLP203 70003 T10171033 10028 21028 51012
14740KBDL BDL20161206065510612/06/16 06:55:31  5-MIN KBDL 061155Z 26005KT 10SM CLR M02/M03 A3013 -10 88 -2000 270/05 RMK AO2 T10171033
14740KBDL BDL20161206070010612/06/16 07:00:31  5-MIN KBDL 061200Z 27004KT 10SM CLR M02/M03 A3013 -10 88 -2000 290/04 RMK AO2 T10171033
14740KBDL BDL20161206070510612/06/16 07:05:31  5-MIN KBDL 061205Z 30004KT 10SM CLR M02/M03 A3013 -10 88 -2000 320/04 RMK AO2 T10171033
14740KBDL BDL20161206071010612/06/16 07:10:31  5-MIN KBDL 061210Z 30003KT 10SM CLR M02/M03 A3013 -10 88 -2000 320/03 RMK AO2 T10171033
14740KBDL BDL20161206071510612/06/16 07:15:31  5-MIN KBDL 061215Z 00000KT 10SM CLR M02/M03 A3012 -10 88 -2000 000/00 RMK AO2 T10171033
14740KBDL BDL20161206072010612/06/16 07:20:31  5-MIN KBDL 061220Z 00000KT 10SM CLR M02/M04 A3012 -10 88 -2000 000/00 RMK AO2 T10221039
14740KBDL BDL20161206072510612/06/16 07:25:31  5-MIN KBDL 061225Z 00000KT 10SM CLR M01/M03 A3013 -10 85 -1900 000/00 RMK AO2 T10111033
14740KBDL BDL20161206073010612/06/16 07:30:31  5-MIN KBDL 061230Z 30003KT 10SM CLR M01/M03 A3013 -10 85 -1900 320/03 RMK AO2 T10111033
14740KBDL BDL20161206073510512/06/16 07:35:31  5-MIN KBDL 061235Z 30003KT 10SM CLR 00/M03 A3013 -10 81 -1800 320/03 RMK AO2 T00001028
14740KBDL BDL20161206074010512/06/16 07:40:31  5-MIN KBDL 061240Z 32003KT 10SM CLR 00/M03 A3013 -10 81 -1800 330/03 RMK AO2 T00001028
14740KBDL BDL20161206074511212/06/16 07:45:31  5-MIN KBDL 061245Z 32003KT 10SM CLR 00/M03 A3013 -10 81 -1800 340/03 RMK AO2 SLP203 T00001028
14740KBDL BDL20161206075011612/06/16 07:50:31  5-MIN KBDL 061250Z 00000KT 10SM FEW250 M01/M03 A3013 -10 81 -1800 000/00 RMK AO2 SLP203 T10061033
14740KBDL BDL20161206075510612/06/16 07:55:31  5-MIN KBDL 061255Z 00000KT 10SM CLR M01/M03 A3012 -10 85 -1800 000/00 RMK AO2 T10061028
14740KBDL BDL20161206080010312/06/16 08:00:31  5-MIN KBDL 061300Z 33003KT 10SM CLR 00/M03 A3012 0 81 -1800 350/03 RMK AO2 T00001028
14740KBDL BDL20161206080510412/06/16 08:05:31  5-MIN KBDL 061305Z 32004KT 10SM CLR M01/M03 A3012 0 85 -1800 330/04 RMK AO2 T10061028
14740KBDL BDL20161206081010412/06/16 08:10:31  5-MIN KBDL 061310Z 34008KT 10SM CLR M01/M03 A3011 0 85 -1800 360/08 RMK AO2 T10061028
14740KBDL BDL20161206081510312/06/16 08:15:31  5-MIN KBDL 061315Z 35007KT 10SM CLR 01/M02 A3011 0 82 -1600 360/07 RMK AO2 T00111017
14740KBDL BDL20161206082010412/06/16 08:20:31  5-MIN KBDL 061320Z 35007KT 10SM CLR 02/M02 A3010 10 78 -1500 360/07 RMK AO2 T00171017
14740KBDL BDL20161206082510412/06/16 08:25:31  5-MIN KBDL 061325Z 36006KT 10SM CLR 02/M01 A3011 10 78 -1500 010/06 RMK AO2 T00221011
14740KBDL BDL20161206083010312/06/16 08:30:31  5-MIN KBDL 061330Z 35004KT 10SM CLR 03/M01 A3011 0 75 -1400 360/04 RMK AO2 T00281011
14740KBDL BDL20161206083510312/06/16 08:35:31  5-MIN KBDL 061335Z 01004KT 10SM CLR 03/M01 A3012 0 76 -1300 020/04 RMK AO2 T00331006
14740KBDL BDL20161206084010512/06/16 08:40:31  5-MIN KBDL 061340Z 02003KT 10SM CLR 03/M01 A3012 -10 76 -1300 030/03 RMK AO2 T00331006
14740KBDL BDL20161206084511212/06/16 08:45:31  5-MIN KBDL 061345Z 02003KT 10SM CLR 03/M01 A3013 -10 72 -1300 030/03 RMK AO2 SLP203 T00331011
14740KBDL BDL20161206085011512/06/16 08:50:31  5-MIN KBDL 061350Z 02003KT 10SM SCT250 04/M01 A3013 -10 73 -1300 040/03 RMK AO2 SLP204 T00391006
14740KBDL BDL20161206085510512/06/16 08:55:31  5-MIN KBDL 061355Z 01003KT 10SM CLR 04/M01 A3013 -10 73 -1300 030/03 RMK AO2 T00391006
14740KBDL BDL20161206090010512/06/16 09:00:31  5-MIN KBDL 061400Z 35003KT 10SM CLR 04/M01 A3013 -10 70 -1200 360/03 RMK AO2 T00441006
14740KBDL BDL20161206090510512/06/16 09:05:31  5-MIN KBDL 061405Z 35003KT 10SM CLR 04/M01 A3013 -20 67 -1200 010/03 RMK AO2 T00441011
14740KBDL BDL20161206091010512/06/16 09:10:31  5-MIN KBDL 061410Z VRB03KT 10SM CLR 05/M01 A3013 -20 67 -1100 VRB/03 RMK AO2 T00501006
14740KBDL BDL20161206091510512/06/16 09:15:31  5-MIN KBDL 061415Z 00000KT 10SM CLR 05/M01 A3013 -20 67 -1100 000/00 RMK AO2 T00501006
14740KBDL BDL20161206092010512/06/16 09:20:31  5-MIN KBDL 061420Z 00000KT 10SM CLR 05/M01 A3014 -20 67 -1100 000/00 RMK AO2 T00501006
14740KBDL BDL20161206092510512/06/16 09:25:31  5-MIN KBDL 061425Z 00000KT 10SM CLR 05/M01 A3014 -20 67 -1200 000/00 RMK AO2 T00501006
14740KBDL BDL20161206093010512/06/16 09:30:31  5-MIN KBDL 061430Z 00000KT 10SM CLR 06/M01 A3014 -20 65 -1100 000/00 RMK AO2 T00561006
14740KBDL BDL20161206093510512/06/16 09:35:31  5-MIN KBDL 061435Z 00000KT 10SM CLR 06/M01 A3014 -20 65 -1100 000/00 RMK AO2 T00561006
14740KBDL BDL20161206094010412/06/16 09:40:31  5-MIN KBDL 061440Z 00000KT 10SM CLR 07/M01 A3014 -20 60 -900 000/00 RMK AO2 T00671006
14740KBDL BDL20161206094511712/06/16 09:45:31  5-MIN KBDL 061445Z 02005KT 10SM CLR 07/M01 A3014 -20 57 -900 030/05 RMK AO2 SLP208 T00671011 53007
14740KBDL BDL20161206095012812/06/16 09:50:31  5-MIN KBDL 061450Z 01005KT 10SM FEW150 FEW250 06/M01 A3014 -20 60 -1000 030/05 RMK AO2 SLP208 T00611011 53007
14740KBDL BDL20161206095510512/06/16 09:55:31  5-MIN KBDL 061455Z VRB03KT 10SM CLR 06/M01 A3014 -20 60 -1000 VRB/03 RMK AO2 T00611011
14740KBDL BDL20161206100010512/06/16 10:00:31  5-MIN KBDL 061500Z 03005KT 10SM CLR 07/M01 A3014 -20 57 -1000 040/05 RMK AO2 T00671011
14740KBDL BDL20161206100510512/06/16 10:05:31  5-MIN KBDL 061505Z 06005KT 10SM CLR 06/M01 A3014 -20 60 -1000 070/05 RMK AO2 T00611011
14740KBDL BDL20161206101010412/06/16 10:10:31  5-MIN KBDL 061510Z 04006KT 10SM CLR 07/M01 A3014 -20 57 -900 060/06 RMK AO2 T00671011
14740KBDL BDL20161206101510512/06/16 10:15:31  5-MIN KBDL 061515Z 04004KT 10SM CLR 06/M02 A3013 -20 57 -1000 050/04 RMK AO2 T00611017
14740KBDL BDL20161206102010412/06/16 10:20:31  5-MIN KBDL 061520Z 02006KT 10SM CLR 07/M02 A3013 -10 55 -900 030/06 RMK AO2 T00671017
14740KBDL BDL20161206102510412/06/16 10:25:31  5-MIN KBDL 061525Z 03006KT 10SM CLR 07/M02 A3013 -10 55 -900 050/06 RMK AO2 T00671017
14740KBDL BDL20161206103010412/06/16 10:30:31  5-MIN KBDL 061530Z 03006KT 10SM CLR 07/M02 A3013 -10 55 -900 040/06 RMK AO2 T00671017
14740KBDL BDL20161206103510412/06/16 10:35:31  5-MIN KBDL 061535Z 36004KT 10SM CLR 07/M02 A3012 -10 55 -900 020/04 RMK AO2 T00671017
14740KBDL BDL20161206104010212/06/16 10:40:31  5-MIN KBDL 061540Z 04005KT 10SM CLR 07/M01 A3012 0 55 -900 050/05 RMK AO2 T00721011
14740KBDL BDL20161206104510912/06/16 10:45:31  5-MIN KBDL 061545Z 02006KT 10SM CLR 07/M02 A3011 0 53 -900 030/06 RMK AO2 SLP198 T00721017
14740KBDL BDL20161206105011912/06/16 10:50:31  5-MIN KBDL 061550Z 01005KT 10SM FEW140 BKN250 07/M02 A3011 0 53 -800 030/05 RMK AO2 SLP198 T00721017
14740KBDL BDL20161206105510212/06/16 10:55:31  5-MIN KBDL 061555Z VRB05KT 10SM CLR 07/M02 A3011 0 53 -800 VRB/05 RMK AO2 T00721017
14740KBDL BDL20161206110010212/06/16 11:00:31  5-MIN KBDL 061600Z 02008KT 10SM CLR 07/M03 A3011 0 49 -800 040/08 RMK AO2 T00721028
14740KBDL BDL20161206213011512/06/16 21:30:31  5-MIN KBDL 070230Z 09005KT 10SM FEW030 OVC060 04/M02 A2998 120 62 -1000 100/05 RMK AO2 T00441022
14740KBDL BDL20161206213511512/06/16 21:35:31  5-MIN KBDL 070235Z 09006KT 10SM FEW030 OVC055 04/M03 A2998 120 59 -1000 110/06 RMK AO2 T00441028
14740KBDL BDL20161206214011512/06/16 21:40:31  5-MIN KBDL 070240Z 09005KT 10SM FEW030 OVC048 04/M03 A2998 120 59 -1000 110/05 RMK AO2 T00441028
14740KBDL BDL20161206214512812/06/16 21:45:31  5-MIN KBDL 070245Z 10006KT 10SM FEW030 OVC042 04/M03 A2998 120 59 -1000 110/06 RMK AO2 SLP152 T00441028 51005
14740KBDL BDL20161206215016312/06/16 21:50:31  5-MIN KBDL 070250Z 10005KT 10SM -RA FEW029 OVC040 04/M03 A2998 120 59 -1000 110/05 RMK AO2 RAB50 SLP152 PCPN VRY LGT P0000 60000 T00441028 51005
14740KBDL BDL20161206215511812/06/16 21:55:31  5-MIN KBDL 070255Z 11005KT 10SM -RA OVC040 04/M03 A2998 120 59 -1000 130/05 RMK AO2 P0000 T00441028
14740KBDL BDL20161206220011812/06/16 22:00:31  5-MIN KBDL 070300Z 12003KT 10SM -RA OVC036 04/M02 A2998 120 64 -1100 130/03 RMK AO2 P0000 T00391022
14740KBDL BDL20161206220511812/06/16 22:05:31  5-MIN KBDL 070305Z VRB04KT 10SM -RA OVC034 04/M02 A2998 120 64 -1100 VRB/04 RMK AO2 P0000 T00391022
14740KBDL BDL20161206221011812/06/16 22:10:31  5-MIN KBDL 070310Z 13006KT 10SM -RA OVC032 04/M02 A2998 120 67 -1100 140/06 RMK AO2 P0000 T00391017
14740KBDL BDL20161206221512512/06/16 22:15:31  5-MIN KBDL 070315Z 14007KT 10SM -RA BKN030 OVC038 03/M02 A2998 120 70 -1200 160/07 RMK AO2 P0000 T00331017
14740KBDL BDL20161206222011812/06/16 22:20:31  5-MIN KBDL 070320Z 14009KT 10SM -RA OVC028 03/M01 A2998 120 72 -1200 160/09 RMK AO2 P0000 T00331011
14740KBDL BDL20161206222511812/06/16 22:25:31  5-MIN KBDL 070325Z 13008KT 10SM -RA OVC028 03/M01 A2998 120 79 -1200 140/08 RMK AO2 P0000 T00281006
14740KBDL BDL20161206223012512/06/16 22:30:31  5-MIN KBDL 070330Z 13008KT 10SM -RA FEW016 OVC027 03/M01 A2998 120 79 -1200 140/08 RMK AO2 P0000 T00281006
14740KBDL BDL20161206223512512/06/16 22:35:31  5-MIN KBDL 070335Z 14004KT 10SM -RA FEW016 OVC027 03/M01 A2998 120 79 -1200 150/04 RMK AO2 P0001 T00281006
14740KBDL BDL20161206224012512/06/16 22:40:31  5-MIN KBDL 070340Z 12004KT 10SM -RA BKN025 OVC030 03/M01 A2998 120 79 -1200 130/04 RMK AO2 P0001 T00281006
14740KBDL BDL20161206224512512/06/16 22:45:31  5-MIN KBDL 070345Z 13004KT 10SM -RA OVC027 03/M01 A2997 130 79 -1200 140/04 RMK AO2 SLP150 P0001 T00281006
14740KBDL BDL20161206225013912/06/16 22:50:31  5-MIN KBDL 070350Z 13004KT 10SM -RA FEW018 BKN026 OVC031 03/M01 A2997 130 79 -1200 150/04 RMK AO2 SLP150 P0001 T00281006
14740KBDL BDL20161206225513212/06/16 22:55:31  5-MIN KBDL 070355Z 12006KT 10SM -RA FEW018 BKN028 OVC035 03/M01 A2997 130 79 -1200 140/06 RMK AO2 P0000 T00281006
14740KBDL BDL20161206230014212/06/16 23:00:31  5-MIN KBDL 070400Z 11007KT 10SM -RA SCT018 BKN028 OVC035 03/M01 A2997 130 79 -1200 120/07 RMK AO2 BKN V SCT P0000 T00281006
14740KBDL BDL20161206230514212/06/16 23:05:31  5-MIN KBDL 070405Z 12005KT 10SM -RA SCT018 BKN028 OVC035 03/M01 A2996 140 79 -1200 130/05 RMK AO2 BKN V SCT P0000 T00281006
14740KBDL BDL20161206231014012/06/16 23:10:31  5-MIN KBDL 070410Z 12005KT 10SM -RASN FEW018 SCT028 OVC040 02/M01 A2996 140 82 -1300 130/05 RMK AO2 SNB08 P0001 T00221006
14740KBDL BDL20161206231513312/06/16 23:15:31  5-MIN KBDL 070415Z 12006KT 10SM -RASN FEW018 OVC037 02/M01 A2995 150 82 -1300 130/06 RMK AO2 SNB08 P0001 T00221006
14740KBDL BDL20161206232012612/06/16 23:20:31  5-MIN KBDL 070420Z 10006KT 10SM -RASN OVC037 02/M01 A2995 150 82 -1300 110/06 RMK AO2 SNB08 P0001 T00221006
14740KBDL BDL20161206232512512/06/16 23:25:31  5-MIN KBDL 070425Z 09008KT 10SM -RASN BKN034 02/00 A2994 150 85 -1300 110/08 RMK AO2 SNB08 P0001 T00220000
14740KBDL BDL20161206233012612/06/16 23:30:31  5-MIN KBDL 070430Z 08008KT 10SM -RASN OVC034 02/M01 A2994 160 82 -1300 100/08 RMK AO2 SNB08 P0001 T00221006
14740KBDL BDL20161206233514712/06/16 23:35:31  5-MIN KBDL 070435Z 08006KT 10SM -RA BKN030 OVC036 02/M01 A2994 160 82 -1300 100/06 RMK AO2 SNB08E34 PCPN VRY LGT P0001 T00221006
14740KBDL BDL20161206234014612/06/16 23:40:31  5-MIN KBDL 070440Z 08007KT 10SM -RA BKN030 OVC036 02/00 A2993 170 85 -1300 090/07 RMK AO2 SNB08E34 PCPN VRY LGT P0001 T00220000
14740KBDL BDL20161206234515612/06/16 23:45:31  5-MIN KBDL 070445Z 06006KT 10SM -RA OVC030 02/00 A2993 160 85 -1300 070/06 RMK AO2 SNB08E34 SLP137 PCPN VRY LGT P0001 T00220000 400781028
14740KBDL BDL20161206235016212/06/16 23:50:31  5-MIN KBDL 070450Z 05005KT 10SM -RASN BKN030 OVC044 02/00 A2993 160 85 -1300 060/05 RMK AO2 SNB08 SLP137 PCPN VRY LGT P0001 T00220000 400781028
14740KBDL BDL20161206235511912/06/16 23:55:31  5-MIN KBDL 070455Z 04004KT 10SM -RASN OVC030 02/00 A2994 160 85 -1300 060/04 RMK AO2 P0000 T00220000
14740KBDL BDL20161207000011912/07/16 00:00:31  5-MIN KBDL 070500Z 06004KT 10SM -RASN OVC030 02/00 A2993 160 85 -1300 070/04 RMK AO2 P0000 T00220000
14740KBDL BDL20161207000511912/07/16 00:05:31  5-MIN KBDL 070505Z 04004KT 10SM -RASN OVC029 02/00 A2993 160 85 -1300 060/04 RMK AO2 P0000 T00220000
14740KBDL BDL20161207001011912/07/16 00:10:31  5-MIN KBDL 070510Z 04003KT 10SM -RASN OVC030 02/00 A2993 160 85 -1300 050/03 RMK AO2 P0000 T00220000
14740KBDL BDL20161207001513212/07/16 00:15:31  5-MIN KBDL 070515Z 04003KT 10SM -RASN OVC030 02/00 A2993 170 85 -1300 050/03 RMK AO2 PCPN VRY LGT P0000 T00220000
14740KBDL BDL20161207002013812/07/16 00:20:31  5-MIN KBDL 070520Z 02003KT 9SM -RASN SCT025 OVC033 02/00 A2993 170 85 -1300 030/03 RMK AO2 PCPN VRY LGT P0000 T00220000
14740KBDL BDL20161207002511812/07/16 00:25:31  5-MIN KBDL 070525Z 02003KT 7SM -RASN OVC028 02/00 A2993 170 85 -1300 030/03 RMK AO2 P0000 T00220000
14740KBDL BDL20161207003012812/07/16 00:30:31  5-MIN KBDL 070530Z 36003KT 6SM -RASN BR BKN026 OVC032 02/00 A2993 170 85 -1300 010/03 RMK AO2 P0000 T00220000
14740KBDL BDL20161207003513512/07/16 00:35:31  5-MIN KBDL 070535Z 01003KT 5SM -RASN BR BKN024 BKN028 OVC033 02/00 A2993 170 85 -1300 030/03 RMK AO2 P0001 T00220000
14740KBDL BDL20161207004012812/07/16 00:40:31  5-MIN KBDL 070540Z 03004KT 6SM -RASN BR BKN024 OVC029 02/00 A2993 170 85 -1300 050/04 RMK AO2 P0001 T00220000
14740KBDL BDL20161207004515912/07/16 00:45:31  5-MIN KBDL 070545Z 05004KT 6SM -RASN BR BKN022 OVC030 02/00 A2992 170 85 -1300 060/04 RMK AO2 SLP133 P0001 60003 T00220000 10044 20022 58006
14740KBDL BDL20161207005015612/07/16 00:50:31  5-MIN KBDL 070550Z 06005KT 7SM -RASN BKN022 OVC030 02/00 A2992 170 85 -1300 070/05 RMK AO2 SLP133 P0001 60003 T00220000 10044 20022 58006
14740KBDL BDL20161207005513212/07/16 00:55:31  5-MIN KBDL 070555Z 04004KT 7SM -RASN FEW011 BKN023 OVC030 02/00 A2992 170 85 -1200 060/04 RMK AO2 P0000 T00220000
14740KBDL BDL20161207010013212/07/16 01:00:31  5-MIN KBDL 070600Z 04005KT 7SM -RASN FEW010 BKN027 OVC038 02/00 A2992 170 85 -1200 050/05 RMK AO2 P0000 T00220000
14740KBDL BDL20161207010513212/07/16 01:05:31  5-MIN KBDL 070605Z 04006KT 8SM -RASN SCT010 BKN029 OVC038 02/00 A2992 180 89 -1300 060/06 RMK AO2 P0000 T00170000
14740KBDL BDL20161207011013212/07/16 01:10:31  5-MIN KBDL 070610Z 04007KT 7SM -RASN SCT010 BKN029 OVC036 02/00 A2992 180 89 -1300 050/07 RMK AO2 P0000 T00170000
14740KBDL BDL20161207011513512/07/16 01:15:31  5-MIN KBDL 070615Z 04006KT 6SM -RASN BR FEW010 BKN036 OVC044 02/00 A2992 180 89 -1300 050/06 RMK AO2 P0001 T00170000
14740KBDL BDL20161207012013512/07/16 01:20:31  5-MIN KBDL 070620Z 04006KT 6SM -RASN BR FEW010 SCT019 OVC034 02/00 A2992 180 89 -1300 050/06 RMK AO2 P0001 T00170000
14740KBDL BDL20161207012513512/07/16 01:25:31  5-MIN KBDL 070625Z 03006KT 5SM -RASN BR FEW010 BKN022 OVC031 02/00 A2992 180 89 -1300 050/06 RMK AO2 P0001 T00170000
14740KBDL BDL20161207013013512/07/16 01:30:31  5-MIN KBDL 070630Z 03007KT 5SM -RASN BR FEW010 SCT022 OVC028 02/00 A2992 180 89 -1300 050/07 RMK AO2 P0001 T00170000
14740KBDL BDL20161207013513512/07/16 01:35:31  5-MIN KBDL 070635Z 02006KT 4SM -SNRA BR SCT016 SCT021 OVC028 01/00 A2992 180 92 -1400 030/06 RMK AO2 P0002 T00110000
14740KBDL BDL20161207014013512/07/16 01:40:31  5-MIN KBDL 070640Z 01006KT 4SM -SNRA BR SCT016 BKN021 OVC026 01/00 A2992 180 92 -1400 020/06 RMK AO2 P0003 T00110000
14740KBDL BDL20161207014513612/07/16 01:45:31  5-MIN KBDL 070645Z 36005KT 4SM -SNRA BR BKN015 OVC024 01/M01 A2992 180 89 -1400 010/05 RMK AO2 SLP133 P0003 T00111006
14740KBDL BDL20161207015014012/07/16 01:50:31  5-MIN KBDL 070650Z 35004KT 4SM -SN BR BKN015 OVC024 01/M01 A2992 180 89 -1400 360/04 RMK AO2 RAE46 SLP133 P0004 T00111006
14740KBDL BDL20161207015512712/07/16 01:55:31  5-MIN KBDL 070655Z 35004KT 4SM -SN BR BKN014 OVC022 01/M01 A2992 180 92 -1500 360/04 RMK AO2 P0000 T00061006
14740KBDL BDL20161207020013412/07/16 02:00:31  5-MIN KBDL 070700Z 01004KT 3SM -SN BR SCT010 BKN014 OVC022 01/M01 A2992 180 92 -1500 020/04 RMK AO2 P0000 T00061006
14740KBDL BDL20161207020512712/07/16 02:05:31  5-MIN KBDL 070705Z 00000KT 4SM -SN BR BKN010 OVC022 01/M01 A2992 170 92 -1500 000/00 RMK AO2 P0000 T00061006
14740KBDL BDL20161207021013412/07/16 02:10:31  5-MIN KBDL 070710Z 36003KT 4SM -SN BR BKN007 BKN013 OVC022 01/M01 A2992 170 92 -1500 010/03 RMK AO2 P0001 T00061006
14740KBDL BDL20161207021513412/07/16 02:15:31  5-MIN KBDL 070715Z 36004KT 3SM -SN BR BKN008 BKN013 OVC028 01/M01 A2992 170 92 -1500 020/04 RMK AO2 P0001 T00061006
14740KBDL BDL20161207022013412/07/16 02:20:31  5-MIN KBDL 070720Z 36004KT 4SM -SN BR SCT006 BKN015 OVC030 01/M01 A2992 180 92 -1500 020/04 RMK AO2 P0001 T00061006
14740KBDL BDL20161207022513412/07/16 02:25:31  5-MIN KBDL 070725Z 01003KT 3SM -SN BR SCT009 BKN022 OVC030 01/M01 A2992 170 92 -1500 020/03 RMK AO2 P0001 T00061006
14740KBDL BDL20161207023013412/07/16 02:30:31  5-MIN KBDL 070730Z 01004KT 3SM -SN BR SCT009 BKN022 OVC030 01/M01 A2992 170 92 -1500 020/04 RMK AO2 P0002 T00061006
14740KBDL BDL20161207023512712/07/16 02:35:31  5-MIN KBDL 070735Z 01004KT 3SM -SN BR SCT008 OVC027 01/M01 A2992 170 92 -1500 020/04 RMK AO2 P0002 T00061006
14740KBDL BDL20161207024012712/07/16 02:40:31  5-MIN KBDL 070740Z 01005KT 3SM -SN BR FEW006 OVC025 01/M01 A2992 180 92 -1500 020/05 RMK AO2 P0002 T00061006
14740KBDL BDL20161207024513412/07/16 02:45:31  5-MIN KBDL 070745Z 01005KT 4SM -SN BR FEW006 OVC025 01/M01 A2992 180 92 -1500 020/05 RMK AO2 SLP132 P0002 T00061006
14740KBDL BDL20161207025015512/07/16 02:50:31  5-MIN KBDL 070750Z 01005KT 2 1/2SM -SN BR FEW004 BKN018 OVC030 01/M01 A2991 180 92 -1400 020/05 RMK AO2 SFC VIS 3 SLP131 P0002 T00061006
14740KBDL BDL20161207025514812/07/16 02:55:31  5-MIN KBDL 070755Z 36005KT 2 1/2SM -SN BR BKN018 BKN022 OVC028 01/M01 A2991 180 92 -1400 020/05 RMK AO2 SFC VIS 3 P0000 T00061006
14740KBDL BDL20161207030014112/07/16 03:00:31  5-MIN KBDL 070800Z 36006KT 2 1/2SM -SN BR BKN018 OVC023 01/M01 A2991 180 92 -1400 010/06 RMK AO2 SFC VIS 3 P0001 T00061006
14740KBDL BDL20161207030514812/07/16 03:05:31  5-MIN KBDL 070805Z 35005KT 2 1/2SM -SN BR FEW005 BKN018 OVC023 01/M01 A2991 180 92 -1400 010/05 RMK AO2 SFC VIS 3 P0001 T00061006
14740KBDL BDL20161207031014812/07/16 03:10:31  5-MIN KBDL 070810Z 36006KT 2 1/2SM -SN BR SCT003 BKN017 OVC023 01/M01 A2991 180 92 -1400 010/06 RMK AO2 SFC VIS 3 P0001 T00061006
14740KBDL BDL20161207031514812/07/16 03:15:31  5-MIN KBDL 070815Z 36006KT 2 1/2SM -SN BR SCT003 BKN017 OVC022 01/M01 A2991 180 92 -1400 010/06 RMK AO2 SFC VIS 3 P0001 T00061006
14740KBDL BDL20161207032014812/07/16 03:20:31  5-MIN KBDL 070820Z 36005KT 2 1/2SM -SN BR SCT004 BKN015 OVC022 01/M01 A2991 190 92 -1400 010/05 RMK AO2 SFC VIS 3 P0001 T00061006
14740KBDL BDL20161207032514812/07/16 03:25:31  5-MIN KBDL 070825Z 01006KT 2 1/2SM -SN BR SCT004 BKN015 OVC023 01/M01 A2991 190 92 -1400 020/06 RMK AO2 SFC VIS 3 P0001 T00061006
14740KBDL BDL20161207033014812/07/16 03:30:31  5-MIN KBDL 070830Z 36006KT 2 1/2SM -SN BR SCT003 BKN015 OVC023 01/M01 A2991 190 92 -1400 020/06 RMK AO2 SFC VIS 3 P0001 T00061006
14740KBDL BDL20161207033514812/07/16 03:35:31  5-MIN KBDL 070835Z 01006KT 2 1/2SM -SN BR BKN003 BKN015 OVC023 01/M01 A2991 190 92 -1400 020/06 RMK AO2 SFC VIS 3 P0001 T00061006
14740KBDL BDL20161207034014812/07/16 03:40:31  5-MIN KBDL 070840Z 01006KT 2 1/2SM -SN BR BKN003 BKN014 OVC023 01/M01 A2991 190 92 -1400 020/06 RMK AO2 SFC VIS 3 P0001 T00061006
14740KBDL BDL20161207034515712/07/16 03:45:31  5-MIN KBDL 070845Z 01007KT 2 1/2SM -SN BR BKN003 BKN014 OVC023 01/M01 A2990 190 92 -1400 030/07 RMK AO2 SLP127 P0001 60007 T00061006 58019
14740KBDL BDL20161207035016512/07/16 03:50:31  5-MIN KBDL 070850Z 01006KT 2 1/2SM -SNRA BR BKN003 BKN014 OVC023 01/M01 A2990 190 92 -1400 020/06 RMK AO2 RAB46 SLP128 P0001 60007 T00061006 58019
14740KBDL BDL20161207035513312/07/16 03:55:31  5-MIN KBDL 070855Z 36006KT 2 1/2SM -RASN BR BKN003 OVC036 01/M01 A2991 190 92 -1400 010/06 RMK AO2 P0001 T00061006
14740KBDL BDL20161207040016312/07/16 04:00:31  5-MIN KBDL 070900Z 36006KT 2 1/2SM -RASN BR BKN004 BKN013 OVC037 01/M01 A2991 190 92 -1400 020/06 RMK AO2 SFC VIS 3 BKN004 V SCT P0001 T00061006
14740KBDL BDL20161207040514712/07/16 04:05:31  5-MIN KBDL 070905Z 36005KT 2 1/2SM -RA BR BKN004 OVC013 01/M01 A2991 180 92 -1400 010/05 RMK AO2 SFC VIS 3 SNE05 P0001 T00061006
14740KBDL BDL20161207041014712/07/16 04:10:31  5-MIN KBDL 070910Z 01005KT 2 1/2SM -RA BR BKN004 OVC035 01/M01 A2991 180 92 -1400 020/05 RMK AO2 SFC VIS 3 SNE05 P0001 T00061006
14740KBDL BDL20161207041514612/07/16 04:15:31  5-MIN KBDL 070915Z 36005KT 2 1/2SM -RA BR BKN004 OVC035 01/00 A2992 180 96 -1500 010/05 RMK AO2 SFC VIS 3 SNE05 P0001 T00060000
14740KBDL BDL20161207042014612/07/16 04:20:31  5-MIN KBDL 070920Z 34005KT 2 1/2SM -RA BR BKN004 OVC035 01/00 A2993 170 96 -1500 360/05 RMK AO2 SFC VIS 3 SNE05 P0001 T00060000
14740KBDL BDL20161207042515312/07/16 04:25:31  5-MIN KBDL 070925Z 34005KT 2 1/2SM -RA BR BKN004 BKN013 OVC028 01/00 A2993 170 96 -1500 350/05 RMK AO2 SFC VIS 3 SNE05 P0002 T00060000
14740KBDL BDL20161207043015312/07/16 04:30:31  5-MIN KBDL 070930Z 34004KT 2 1/2SM -RA BR SCT004 BKN013 OVC028 01/00 A2993 160 96 -1500 350/04 RMK AO2 SFC VIS 3 SNE05 P0002 T00060000
14740KBDL BDL20161207043515312/07/16 04:35:31  5-MIN KBDL 070935Z 36005KT 2 1/2SM -RA BR SCT004 BKN013 OVC028 01/00 A2993 170 92 -1400 010/05 RMK AO2 SFC VIS 3 SNE05 P0002 T00110000
14740KBDL BDL20161207044014312/07/16 04:40:31  5-MIN KBDL 070940Z 35005KT 2 1/2SM -RA BR SCT004 BKN014 OVC025 01/00 A2993 160 92 -1400 010/05 RMK AO2 SNE05 P0003 T00110000
14740KBDL BDL20161207044516012/07/16 04:45:31  5-MIN KBDL 070945Z 36005KT 2 1/2SM -RA BR FEW004 BKN014 OVC034 01/00 A2993 170 92 -1400 010/05 RMK AO2 SNE05 SLP137 BKN V SCT P0003 T00110000
14740KBDL BDL20161207045015012/07/16 04:50:31  5-MIN KBDL 070950Z 35006KT 2 1/2SM -RA BR FEW004 BKN014 OVC027 01/00 A2994 160 92 -1400 010/06 RMK AO2 SNE05 SLP138 P0003 T00110000
14740KBDL BDL20161207045514712/07/16 04:55:31  5-MIN KBDL 070955Z 34005KT 2 1/2SM -RA BR FEW006 BKN026 OVC033 01/00 A2994 160 92 -1400 360/05 RMK AO2 SFC VIS 3 P0000 T00110000
14740KBDL BDL20161207050014712/07/16 05:00:31  5-MIN KBDL 071000Z 35005KT 2 1/2SM -RA BR FEW006 BKN024 OVC033 01/00 A2993 160 92 -1400 010/05 RMK AO2 SFC VIS 3 P0001 T00110000
14740KBDL BDL20161207050514712/07/16 05:05:31  5-MIN KBDL 071005Z 01005KT 2 1/2SM -RA BR FEW014 BKN026 OVC033 01/00 A2993 170 92 -1400 030/05 RMK AO2 SFC VIS 4 P0001 T00110000
14740KBDL BDL20161207051014012/07/16 05:10:31  5-MIN KBDL 071010Z 36005KT 2 1/2SM -RA BR SCT014 OVC029 01/00 A2994 160 92 -1400 020/05 RMK AO2 SFC VIS 3 P0001 T00110000
14740KBDL BDL20161207051514712/07/16 05:15:31  5-MIN KBDL 071015Z 34005KT 2 1/2SM -RA BR FEW005 SCT012 OVC029 01/00 A2994 160 92 -1400 350/05 RMK AO2 SFC VIS 3 P0001 T00110000
14740KBDL BDL20161207052014712/07/16 05:20:31  5-MIN KBDL 071020Z 35004KT 2 1/2SM -RA BR SCT005 SCT012 OVC029 01/00 A2994 160 92 -1400 360/04 RMK AO2 SFC VIS 3 P0001 T00110000
14740KBDL BDL20161207052515812/07/16 05:25:31  5-MIN KBDL 071025Z 34005KT 2 1/2SM -DZ BR FEW005 BKN012 OVC030 01/00 A2995 150 92 -1400 350/05 RMK AO2 SFC VIS 3 RAE21DZB21 P0001 T00110000
14740KBDL BDL20161207053015812/07/16 05:30:31  5-MIN KBDL 071030Z 34005KT 2 1/2SM -DZ BR FEW007 SCT012 OVC030 01/00 A2995 150 92 -1400 360/05 RMK AO2 SFC VIS 4 RAE21DZB21 P0001 T00110000
14740KBDL BDL20161207053515812/07/16 05:35:31  5-MIN KBDL 071035Z 36005KT 2 1/2SM -DZ BR FEW007 FEW012 OVC030 01/00 A2994 150 92 -1400 010/05 RMK AO2 SFC VIS 4 RAE21DZB21 P0001 T00110000
14740KBDL BDL20161207054015812/07/16 05:40:31  5-MIN KBDL 071040Z 36005KT 2 1/2SM -DZ BR FEW007 FEW011 OVC031 01/00 A2995 150 92 -1400 010/05 RMK AO2 SFC VIS 4 RAE21DZB21 P0001 T00110000
14740KBDL BDL20161207054516512/07/16 05:45:31  5-MIN KBDL 071045Z 36004KT 2 1/2SM -DZ BR FEW005 FEW011 OVC031 01/00 A2995 150 92 -1400 010/04 RMK AO2 SFC VIS 4 RAE21DZB21 SLP142 P0001 T00110000
14740KBDL BDL20161207055016512/07/16 05:50:31  5-MIN KBDL 071050Z 35005KT 2 1/2SM -DZ BR FEW004 FEW011 OVC031 01/00 A2995 150 92 -1400 010/05 RMK AO2 SFC VIS 4 RAE21DZB21 SLP143 P0001 T00110000
14740KBDL BDL20161207055513312/07/16 05:55:31  5-MIN KBDL 071055Z 36005KT 5SM -DZ BR FEW004 FEW011 OVC032 01/00 A2995 150 92 -1400 020/05 RMK AO2 P0000 T00110000
14740KBDL BDL20161207060011912/07/16 06:00:31  5-MIN KBDL 071100Z 35004KT 5SM -DZ BR OVC032 01/00 A2996 140 92 -1400 010/04 RMK AO2 P0000 T00110000
14740KBDL BDL20161207060512612/07/16 06:05:31  5-MIN KBDL 071105Z 35004KT 4SM -DZ BR FEW004 OVC032 01/00 A2996 140 92 -1400 360/04 RMK AO2 P0000 T00110000
14740KBDL BDL20161207061012612/07/16 06:10:31  5-MIN KBDL 071110Z 33004KT 3SM -DZ BR FEW004 OVC032 01/00 A2996 140 92 -1400 350/04 RMK AO2 P0000 T00110000
14740KBDL BDL20161207061512612/07/16 06:15:31  5-MIN KBDL 071115Z 35003KT 3SM -DZ BR FEW006 OVC032 01/00 A2996 140 92 -1400 360/03 RMK AO2 P0000 T00110000
14740KBDL BDL20161207062011912/07/16 06:20:31  5-MIN KBDL 071120Z 35004KT 3SM -DZ BR OVC032 01/00 A2997 130 92 -1400 360/04 RMK AO2 P0000 T00110000
14740KBDL BDL20161207062512612/07/16 06:25:31  5-MIN KBDL 071125Z 35004KT 4SM -DZ BR FEW010 OVC032 01/00 A2997 130 92 -1400 360/04 RMK AO2 P0000 T00110000
14740KBDL BDL20161207063012612/07/16 06:30:31  5-MIN KBDL 071130Z 35004KT 4SM -DZ BR FEW010 OVC032 01/00 A2997 130 92 -1400 360/04 RMK AO2 P0000 T00110000
14740KBDL BDL20161207063513312/07/16 06:35:31  5-MIN KBDL 071135Z 34004KT 4SM -DZ BR FEW010 FEW024 OVC032 01/00 A2998 120 92 -1500 350/04 RMK AO2 P0000 T00110000
14740KBDL BDL20161207064013312/07/16 06:40:31  5-MIN KBDL 071140Z 34003KT 4SM -DZ BR FEW005 SCT022 OVC032 01/00 A2998 120 92 -1500 360/03 RMK AO2 P0000 T00110000
14740KBDL BDL20161207064517012/07/16 06:45:31  5-MIN KBDL 071145Z 36003KT 3SM -DZ BR FEW005 BKN020 OVC032 01/00 A2998 120 92 -1500 010/03 RMK AO2 SLP153 P0000 60011 70015 T00110000 10022 20006 58006
14740KBDL BDL20161207065018412/07/16 06:50:31  5-MIN KBDL 071150Z 36004KT 2 1/2SM -DZ BR FEW005 SCT011 OVC021 01/00 A2998 120 92 -1500 020/04 RMK AO2 TWR VIS 3 SLP152 P0000 60011 70015 T00110000 10022 20006 58006
14740KBDL BDL20161207065514712/07/16 06:55:31  5-MIN KBDL 071155Z 01003KT 2 1/2SM -DZ BR FEW005 BKN021 OVC027 01/00 A2998 120 92 -1500 020/03 RMK AO2 TWR VIS 3 P0000 T00110000
14740KBDL BDL20161207070015112/07/16 07:00:31  5-MIN KBDL 071200Z 02003KT 1 1/2SM -DZ BR FEW004 SCT007 OVC021 01/01 A2998 120 96 -1500 030/03 RMK AO2 SFC VIS 2 1/2 P0000 T00110006
14740KBDL BDL20161207070514712/07/16 07:05:31  5-MIN KBDL 071205Z 01004KT 1 1/2SM -DZ BR SCT004 BKN007 OVC021 01/01 A2998 120 96 -1500 030/04 RMK AO2 SFC VIS 2 P0001 T00110006
14740KBDL BDL20161207071014712/07/16 07:10:31  5-MIN KBDL 071210Z 01004KT 1 1/2SM -DZ BR SCT004 BKN007 OVC021 01/00 A2997 130 92 -1400 030/04 RMK AO2 SFC VIS 2 P0001 T00110000
14740KBDL BDL20161207071514712/07/16 07:15:31  5-MIN KBDL 071215Z 01003KT 1 1/2SM -DZ BR SCT004 BKN007 OVC021 01/01 A2998 120 96 -1500 030/03 RMK AO2 SFC VIS 2 P0001 T00110006
14740KBDL BDL20161207072014712/07/16 07:20:31  5-MIN KBDL 071220Z 01003KT 1 1/2SM -DZ BR SCT004 BKN007 OVC021 01/01 A2998 120 96 -1500 020/03 RMK AO2 SFC VIS 2 P0001 T00110006
14740KBDL BDL20161207072514712/07/16 07:25:31  5-MIN KBDL 071225Z 02004KT 1 1/2SM -DZ BR SCT004 BKN007 OVC021 01/01 A2998 120 96 -1500 030/04 RMK AO2 SFC VIS 2 P0001 T00110006
14740KBDL BDL20161207073015112/07/16 07:30:31  5-MIN KBDL 071230Z 01004KT 1 1/2SM -DZ BR SCT003 BKN009 OVC022 01/01 A2998 120 96 -1500 030/04 RMK AO2 SFC VIS 2 1/2 P0001 T00110006
14740KBDL BDL20161207073515112/07/16 07:35:31  5-MIN KBDL 071235Z 01003KT 1 1/2SM -DZ BR SCT003 BKN009 OVC022 01/01 A2998 120 96 -1500 030/03 RMK AO2 SFC VIS 2 1/2 P0001 T00110006
14740KBDL BDL20161207074015112/07/16 07:40:31  5-MIN KBDL 071240Z 03003KT 1 1/2SM -DZ BR SCT003 BKN009 OVC022 01/01 A2998 120 96 -1500 040/03 RMK AO2 SFC VIS 2 1/2 P0001 T00110006
14740KBDL BDL20161207074515812/07/16 07:45:31  5-MIN KBDL 071245Z 03003KT 1 1/2SM -DZ BR SCT003 BKN009 OVC022 02/01 A2998 130 92 -1400 040/03 RMK AO2 SFC VIS 2 1/2 SLP152 P0001 T00170006
14740KBDL BDL20161207075014712/07/16 07:50:31  5-MIN KBDL 071250Z 03005KT 1 1/2SM -DZ BR BKN003 OVC045 02/01 A2997 130 92 -1400 040/05 RMK AO2 SFC VIS 3 SLP152 P0001 T00170006
14740KBDL BDL20161207075514012/07/16 07:55:31  5-MIN KBDL 071255Z 03006KT 1 1/2SM -DZ BR BKN003 OVC046 02/01 A2998 120 92 -1400 040/06 RMK AO2 SFC VIS 4 P0000 T00170006
14740KBDL BDL20161207080013312/07/16 08:00:31  5-MIN KBDL 071300Z 02004KT 1 1/2SM -DZ BR OVC003 02/01 A2998 120 92 -1400 030/04 RMK AO2 SFC VIS 4 P0000 T00170006
14740KBDL BDL20161207080513312/07/16 08:05:31  5-MIN KBDL 071305Z 01004KT 1 1/2SM -DZ BR OVC003 02/01 A2998 120 92 -1400 030/04 RMK AO2 SFC VIS 4 P0000 T00170006
14740KBDL BDL20161207081013512/07/16 08:10:31  5-MIN KBDL 071310Z 01004KT 1 1/2SM BR OVC003 02/01 A2998 120 92 -1400 020/04 RMK AO2 SFC VIS 4 DZE06 P0000 T00170006
14740KBDL BDL20161207081513512/07/16 08:15:31  5-MIN KBDL 071315Z 01004KT 1 1/2SM BR OVC003 02/01 A2998 120 92 -1400 030/04 RMK AO2 SFC VIS 4 DZE06 P0000 T00170006
14740KBDL BDL20161207082013512/07/16 08:20:31  5-MIN KBDL 071320Z 02005KT 1 1/2SM BR OVC003 02/01 A2998 130 92 -1400 030/05 RMK AO2 SFC VIS 5 DZE06 P0000 T00170006
14740KBDL BDL20161207082513512/07/16 08:25:31  5-MIN KBDL 071325Z 03005KT 1 1/2SM BR OVC003 02/01 A2997 130 92 -1400 040/05 RMK AO2 SFC VIS 5 DZE06 P0000 T00170006
14740KBDL BDL20161207083013512/07/16 08:30:31  5-MIN KBDL 071330Z 02005KT 1 1/2SM BR OVC003 02/01 A2998 130 92 -1400 030/05 RMK AO2 SFC VIS 5 DZE06 P0000 T00170006
14740KBDL BDL20161207083513512/07/16 08:35:31  5-MIN KBDL 071335Z 03005KT 1 1/2SM BR OVC003 02/01 A2998 120 92 -1300 040/05 RMK AO2 SFC VIS 4 DZE06 P0000 T00220011
14740KBDL BDL20161207084013512/07/16 08:40:31  5-MIN KBDL 071340Z 02006KT 1 1/2SM BR OVC003 02/01 A2998 120 92 -1300 030/06 RMK AO2 SFC VIS 5 DZE06 P0000 T00220011
14740KBDL BDL20161207084514212/07/16 08:45:31  5-MIN KBDL 071345Z 02006KT 1 1/2SM BR OVC003 02/01 A2998 120 92 -1300 030/06 RMK AO2 SFC VIS 5 DZE06 SLP154 P0000 T00220011
14740KBDL BDL20161207085014212/07/16 08:50:31  5-MIN KBDL 071350Z 01004KT 2 1/2SM BR OVC003 02/01 A2999 120 92 -1300 020/04 RMK AO2 SFC VIS 3 DZE06 SLP156 P0000 T00220011
14740KBDL BDL20161207085512312/07/16 08:55:31  5-MIN KBDL 071355Z 01004KT 2 1/2SM BR OVC003 02/01 A2999 120 92 -1300 020/04 RMK AO2 SFC VIS 6 T00220011
14740KBDL BDL20161207090012312/07/16 09:00:31  5-MIN KBDL 071400Z 36003KT 2 1/2SM BR OVC004 02/01 A2999 110 92 -1300 010/03 RMK AO2 SFC VIS 6 T00220011
14740KBDL BDL20161207090512012/07/16 09:05:31  5-MIN KBDL 071405Z 35003KT 2 1/2SM OVC004 02/01 A3000 110 92 -1300 360/03 RMK AO2 SFC VIS 7 T00220011
14740KBDL BDL20161207091010912/07/16 09:10:31  5-MIN KBDL 071410Z 34003KT 5SM BR OVC004 02/01 A3000 110 92 -1300 350/03 RMK AO2 T00220011
14740KBDL BDL20161207091510912/07/16 09:15:31  5-MIN KBDL 071415Z 35003KT 5SM BR OVC004 02/01 A3000 100 92 -1300 360/03 RMK AO2 T00220011
14740KBDL BDL20161207092010912/07/16 09:20:31  5-MIN KBDL 071420Z 34003KT 5SM BR OVC004 02/01 A3000 100 92 -1300 350/03 RMK AO2 T00220011
14740KBDL BDL20161207092510912/07/16 09:25:31  5-MIN KBDL 071425Z 33003KT 5SM BR OVC004 03/01 A3000 100 89 -1300 340/03 RMK AO2 T00280011
14740KBDL BDL20161207093010912/07/16 09:30:31  5-MIN KBDL 071430Z 33003KT 5SM BR OVC005 02/01 A3000 100 92 -1300 350/03 RMK AO2 T00220011
14740KBDL BDL20161207093510912/07/16 09:35:31  5-MIN KBDL 071435Z 00000KT 5SM BR OVC005 03/01 A3001 100 89 -1300 000/00 RMK AO2 T00280011
14740KBDL BDL20161207094010912/07/16 09:40:31  5-MIN KBDL 071440Z 00000KT 5SM BR OVC005 03/01 A3001 100 89 -1300 000/00 RMK AO2 T00280011
14740KBDL BDL20161207094512812/07/16 09:45:31  5-MIN KBDL 071445Z 32003KT 5SM BR OVC005 03/02 A3001 100 92 -1300 330/03 RMK AO2 SLP163 60001 T00280017 51024
14740KBDL BDL20161207095012412/07/16 09:50:31  5-MIN KBDL 071450Z 00000KT 7SM OVC005 03/01 A3001 90 89 -1300 000/00 RMK AO2 SLP163 60001 T00280011 51024
14740KBDL BDL20161207095510612/07/16 09:55:31  5-MIN KBDL 071455Z 00000KT 8SM OVC005 03/01 A3001 100 89 -1300 000/00 RMK AO2 T00280011
14740KBDL BDL20161207100010612/07/16 10:00:31  5-MIN KBDL 071500Z 35003KT 8SM OVC005 03/01 A3001 100 89 -1300 010/03 RMK AO2 T00280011
14740KBDL BDL20161207100510612/07/16 10:05:31  5-MIN KBDL 071505Z 01003KT 8SM OVC005 03/01 A3001 100 89 -1300 030/03 RMK AO2 T00280011
14740KBDL BDL20161207101010612/07/16 10:10:31  5-MIN KBDL 071510Z 00000KT 9SM OVC005 03/02 A3000 100 89 -1200 000/00 RMK AO2 T00330017
14740KBDL BDL20161207101510612/07/16 10:15:31  5-MIN KBDL 071515Z 36003KT 9SM OVC005 03/02 A3000 100 89 -1200 020/03 RMK AO2 T00330017
14740KBDL BDL20161207102010712/07/16 10:20:31  5-MIN KBDL 071520Z 36003KT 10SM OVC005 03/02 A3000 100 89 -1200 020/03 RMK AO2 T00330017
14740KBDL BDL20161207102510712/07/16 10:25:31  5-MIN KBDL 071525Z 02003KT 10SM OVC005 03/02 A3000 100 89 -1200 030/03 RMK AO2 T00330017
14740KBDL BDL20161207103010712/07/16 10:30:31  5-MIN KBDL 071530Z 00000KT 10SM OVC007 04/02 A3000 100 89 -1100 000/00 RMK AO2 T00390022
14740KBDL BDL20161207103510712/07/16 10:35:31  5-MIN KBDL 071535Z 00000KT 10SM OVC007 04/02 A2999 110 85 -1100 000/00 RMK AO2 T00390017
14740KBDL BDL20161207104010712/07/16 10:40:31  5-MIN KBDL 071540Z 07004KT 10SM OVC007 04/02 A2998 120 85 -1100 080/04 RMK AO2 T00390017
14740KBDL BDL20161207104511412/07/16 10:45:31  5-MIN KBDL 071545Z 04003KT 10SM OVC007 04/02 A2998 120 85 -1100 050/03 RMK AO2 SLP154 T00390017
14740KBDL BDL20161207105011412/07/16 10:50:31  5-MIN KBDL 071550Z 00000KT 10SM OVC007 04/02 A2998 120 85 -1100 000/00 RMK AO2 SLP154 T00390017
14740KBDL BDL20161207105510712/07/16 10:55:31  5-MIN KBDL 071555Z 00000KT 10SM OVC007 04/02 A2998 120 85 -1100 000/00 RMK AO2 T00390017
14740KBDL BDL20161207110010712/07/16 11:00:31  5-MIN KBDL 071600Z 29003KT 10SM OVC007 04/02 A2999 120 85 -1100 300/03 RMK AO2 T00390017
14740KBDL BDL20161207110510712/07/16 11:05:31  5-MIN KBDL 071605Z 00000KT 10SM OVC007 04/01 A2998 120 82 -1100 000/00 RMK AO2 T00390011
14740KBDL BDL20161207111010712/07/16 11:10:31  5-MIN KBDL 071610Z 00000KT 10SM OVC007 04/01 A2998 120 82 -1100 000/00 RMK AO2 T00390011
14740KBDL BDL20161207111510712/07/16 11:15:31  5-MIN KBDL 071615Z 00000KT 10SM OVC007 04/02 A2998 120 85 -1100 000/00 RMK AO2 T00390017
14740KBDL BDL20161207112010712/07/16 11:20:31  5-MIN KBDL 071620Z 00000KT 10SM OVC008 04/02 A2998 120 85 -1100 000/00 RMK AO2 T00390017
14740KBDL BDL20161207112510712/07/16 11:25:31  5-MIN KBDL 071625Z 00000KT 10SM OVC008 04/02 A2998 120 85 -1100 000/00 RMK AO2 T00390017
14740KBDL BDL20161207113010712/07/16 11:30:31  5-MIN KBDL 071630Z 00000KT 10SM OVC008 04/02 A2998 120 85 -1100 000/00 RMK AO2 T00390017
14740KBDL BDL20161207113510712/07/16 11:35:31  5-MIN KBDL 071635Z 00000KT 10SM OVC009 04/02 A2997 130 85 -1100 000/00 RMK AO2 T00390017
14740KBDL BDL20161207114010712/07/16 11:40:31  5-MIN KBDL 071640Z 00000KT 10SM OVC009 04/02 A2997 130 82 -1000 000/00 RMK AO2 T00440017
14740KBDL BDL20161207114511412/07/16 11:45:31  5-MIN KBDL 071645Z 00000KT 10SM OVC009 04/02 A2996 140 85 -1100 000/00 RMK AO2 SLP148 T00390017
14740KBDL BDL20161207115011412/07/16 11:50:31  5-MIN KBDL 071650Z 00000KT 10SM OVC009 04/02 A2996 140 85 -1100 000/00 RMK AO2 SLP147 T00390017
14740KBDL BDL20161207115510712/07/16 11:55:31  5-MIN KBDL 071655Z 00000KT 10SM OVC010 04/02 A2996 140 85 -1100 000/00 RMK AO2 T00390017
14740KBDL BDL20161207120010712/07/16 12:00:31  5-MIN KBDL 071700Z 00000KT 10SM OVC010 04/02 A2996 140 82 -1000 000/00 RMK AO2 T00440017
14740KBDL BDL20161207120510712/07/16 12:05:31  5-MIN KBDL 071705Z 00000KT 10SM OVC010 04/02 A2996 140 85 -1100 000/00 RMK AO2 T00390017
14740KBDL BDL20161207121010712/07/16 12:10:31  5-MIN KBDL 071710Z 00000KT 10SM OVC010 04/02 A2996 140 82 -1000 000/00 RMK AO2 T00440017
14740KBDL BDL20161207121510712/07/16 12:15:31  5-MIN KBDL 071715Z 25003KT 10SM OVC010 04/02 A2996 140 82 -1000 260/03 RMK AO2 T00440017
14740KBDL BDL20161207122010712/07/16 12:20:31  5-MIN KBDL 071720Z 25003KT 10SM OVC010 04/02 A2996 140 82 -1000 270/03 RMK AO2 T00440017
14740KBDL BDL20161207122510712/07/16 12:25:31  5-MIN KBDL 071725Z 00000KT 10SM OVC010 04/02 A2995 150 82 -1000 000/00 RMK AO2 T00440017
14740KBDL BDL20161207123010712/07/16 12:30:31  5-MIN KBDL 071730Z 00000KT 10SM OVC010 04/02 A2995 140 82 -1000 000/00 RMK AO2 T00440017
14740KBDL BDL20161207123510712/07/16 12:35:31  5-MIN KBDL 071735Z 00000KT 10SM OVC010 04/02 A2995 150 82 -1000 000/00 RMK AO2 T00440017
14740KBDL BDL20161207124010712/07/16 12:40:31  5-MIN KBDL 071740Z 00000KT 10SM OVC010 04/02 A2995 150 82 -1000 000/00 RMK AO2 T00440017
14740KBDL BDL20161207124513812/07/16 12:45:31  5-MIN KBDL 071745Z 26003KT 10SM OVC010 04/02 A2995 150 82 -1000 270/03 RMK AO2 SLP144 60001 T00440017 10044 20011 53011
14740KBDL BDL20161207125013812/07/16 12:50:31  5-MIN KBDL 071750Z 24004KT 10SM OVC010 04/02 A2995 150 82 -1000 250/04 RMK AO2 SLP143 60001 T00440017 10044 20011 53011
14740KBDL BDL20161207125510712/07/16 12:55:31  5-MIN KBDL 071755Z 25004KT 10SM OVC009 04/02 A2995 150 82 -1000 260/04 RMK AO2 T00440017
14740KBDL BDL20161207130011412/07/16 13:00:31  5-MIN KBDL 071800Z 26003KT 10SM BKN010 OVC025 04/02 A2995 150 82 -1000 270/03 RMK AO2 T00440017
14740KBDL BDL20161207130511312/07/16 13:05:31  5-MIN KBDL 071805Z 24004KT 10SM BKN010 OVC025 05/02 A2995 150 79 -900 260/04 RMK AO2 T00500017
14740KBDL BDL20161207131011312/07/16 13:10:31  5-MIN KBDL 071810Z 24004KT 10SM BKN010 OVC025 05/02 A2995 150 79 -900 260/04 RMK AO2 T00500017
14740KBDL BDL20161207131511312/07/16 13:15:31  5-MIN KBDL 071815Z 24004KT 10SM BKN010 OVC025 05/02 A2995 150 82 -900 250/04 RMK AO2 T00500022
14740KBDL BDL20161207132011412/07/16 13:20:31  5-MIN KBDL 071820Z 00000KT 10SM BKN012 OVC025 04/02 A2995 150 85 -1000 000/00 RMK AO2 T00440022
14740KBDL BDL20161207132511312/07/16 13:25:31  5-MIN KBDL 071825Z 25003KT 10SM BKN012 OVC025 05/02 A2995 150 82 -900 260/03 RMK AO2 T00500022
14740KBDL BDL20161207133011312/07/16 13:30:31  5-MIN KBDL 071830Z 25003KT 10SM BKN012 OVC025 05/02 A2995 150 82 -900 260/03 RMK AO2 T00500022
14740KBDL BDL20161207133511312/07/16 13:35:31  5-MIN KBDL 071835Z 22004KT 10SM BKN012 OVC025 05/02 A2995 150 82 -900 230/04 RMK AO2 T00500022
14740KBDL BDL20161207134011312/07/16 13:40:31  5-MIN KBDL 071840Z 00000KT 10SM BKN012 OVC025 05/02 A2994 160 82 -900 000/00 RMK AO2 T00500022
14740KBDL BDL20161207134512012/07/16 13:45:31  5-MIN KBDL 071845Z 00000KT 10SM BKN012 OVC025 05/02 A2994 160 82 -900 000/00 RMK AO2 SLP140 T00500022
14740KBDL BDL20161207135012012/07/16 13:50:31  5-MIN KBDL 071850Z 27003KT 10SM BKN010 OVC022 05/02 A2994 150 82 -900 280/03 RMK AO2 SLP142 T00500022
14740KBDL BDL20161207135512012/07/16 13:55:31  5-MIN KBDL 071855Z 00000KT 10SM BKN011 BKN022 OVC040 05/02 A2994 150 82 -900 000/00 RMK AO2 T00500022
14740KBDL BDL20161207140012012/07/16 14:00:31  5-MIN KBDL 071900Z 24003KT 10SM BKN011 BKN022 OVC040 05/02 A2995 150 82 -900 260/03 RMK AO2 T00500022
14740KBDL BDL20161207140512012/07/16 14:05:31  5-MIN KBDL 071905Z 25004KT 10SM BKN011 BKN022 OVC040 05/02 A2995 150 82 -900 260/04 RMK AO2 T00500022
14740KBDL BDL20161207141010612/07/16 14:10:31  5-MIN KBDL 071910Z 24003KT 10SM OVC011 05/02 A2995 150 82 -900 250/03 RMK AO2 T00500022
14740KBDL BDL20161207141510612/07/16 14:15:31  5-MIN KBDL 071915Z 23004KT 10SM OVC011 05/02 A2995 150 82 -900 240/04 RMK AO2 T00500022
14740KBDL BDL20161207142010612/07/16 14:20:31  5-MIN KBDL 071920Z 23004KT 10SM OVC013 05/02 A2995 150 82 -900 250/04 RMK AO2 T00500022
14740KBDL BDL20161207142510612/07/16 14:25:31  5-MIN KBDL 071925Z 21005KT 10SM OVC013 05/02 A2996 140 82 -900 230/05 RMK AO2 T00500022
14740KBDL BDL20161207143010612/07/16 14:30:31  5-MIN KBDL 071930Z 22004KT 10SM OVC012 05/02 A2996 140 82 -900 230/04 RMK AO2 T00500022
14740KBDL BDL20161207143510712/07/16 14:35:31  5-MIN KBDL 071935Z 21004KT 10SM OVC012 05/02 A2996 140 82 -1000 230/04 RMK AO2 T00500022
14740KBDL BDL20161207144010712/07/16 14:40:31  5-MIN KBDL 071940Z 22003KT 10SM OVC012 05/02 A2997 130 82 -1000 230/03 RMK AO2 T00500022
14740KBDL BDL20161207144511412/07/16 14:45:31  5-MIN KBDL 071945Z 20003KT 10SM OVC012 05/02 A2997 130 82 -1000 210/03 RMK AO2 SLP149 T00500022
14740KBDL BDL20161207145012112/07/16 14:50:31  5-MIN KBDL 071950Z 21003KT 10SM BKN012 OVC017 05/02 A2997 130 82 -1000 230/03 RMK AO2 SLP150 T00500022
14740KBDL BDL20161207145510712/07/16 14:55:31  5-MIN KBDL 071955Z 22003KT 10SM OVC014 05/02 A2997 130 82 -1000 240/03 RMK AO2 T00500022
14740KBDL BDL20161207150010712/07/16 15:00:31  5-MIN KBDL 072000Z 21004KT 10SM OVC014 05/02 A2997 130 82 -1000 220/04 RMK AO2 T00500022
14740KBDL BDL20161207150511412/07/16 15:05:31  5-MIN KBDL 072005Z 20004KT 10SM BKN014 OVC034 05/02 A2997 130 82 -1000 210/04 RMK AO2 T00500022
14740KBDL BDL20161207151011412/07/16 15:10:31  5-MIN KBDL 072010Z 22004KT 10SM BKN014 OVC034 05/02 A2997 130 82 -1000 230/04 RMK AO2 T00500022
14740KBDL BDL20161207151511412/07/16 15:15:31  5-MIN KBDL 072015Z 20004KT 10SM BKN017 OVC034 05/02 A2997 130 82 -1000 210/04 RMK AO2 T00500022
14740KBDL BDL20161207152012112/07/16 15:20:31  5-MIN KBDL 072020Z 22005KT 10SM FEW010 BKN015 OVC032 05/02 A2997 130 82 -1000 230/05 RMK AO2 T00500022
14740KBDL BDL20161207152511412/07/16 15:25:31  5-MIN KBDL 072025Z 22004KT 10SM BKN015 OVC034 05/02 A2997 130 82 -1000 230/04 RMK AO2 T00500022
14740KBDL BDL20161207153011412/07/16 15:30:31  5-MIN KBDL 072030Z 21005KT 10SM BKN016 OVC034 05/02 A2997 130 82 -1000 230/05 RMK AO2 T00500022
14740KBDL BDL20161207153512112/07/16 15:35:31  5-MIN KBDL 072035Z 22004KT 10SM FEW012 SCT018 OVC034 05/02 A2997 130 82 -1000 240/04 RMK AO2 T00500022
14740KBDL BDL20161207154012812/07/16 15:40:31  5-MIN KBDL 072040Z 20005KT 10SM FEW011 SCT015 OVC032 05/02 A2998 120 82 -1000 220/05 RMK AO2 BINOVC T00500022
14740KBDL BDL20161207154514112/07/16 15:45:31  5-MIN KBDL 072045Z 21004KT 10SM FEW011 SCT015 OVC032 05/02 A2998 120 82 -1000 220/04 RMK AO2 SLP153 BINOVC T00500022 56019
14740KBDL BDL20161207155014112/07/16 15:50:31  5-MIN KBDL 072050Z 21004KT 10SM FEW011 SCT015 OVC032 05/02 A2998 120 82 -1000 230/04 RMK AO2 SLP153 BINOVC T00500022 56019
14740KBDL BDL20161207155511412/07/16 15:55:31  5-MIN KBDL 072055Z 22003KT 10SM BKN016 OVC031 05/02 A2998 120 82 -1000 230/03 RMK AO2 T00500022
14740KBDL BDL20161207160012112/07/16 16:00:31  5-MIN KBDL 072100Z 23003KT 10SM BKN016 BKN021 OVC031 05/02 A2998 120 82 -1000 250/03 RMK AO2 T00500022
14740KBDL BDL20161207160512112/07/16 16:05:31  5-MIN KBDL 072105Z 22003KT 10SM BKN016 BKN021 OVC028 05/02 A2998 120 82 -1000 230/03 RMK AO2 T00500022
14740KBDL BDL20161207161011412/07/16 16:10:31  5-MIN KBDL 072110Z 00000KT 10SM SCT016 OVC026 05/02 A2998 120 82 -1000 000/00 RMK AO2 T00500022
14740KBDL BDL20161207161511412/07/16 16:15:31  5-MIN KBDL 072115Z 00000KT 10SM SCT016 OVC024 05/02 A2999 110 82 -1000 000/00 RMK AO2 T00500022
14740KBDL BDL20161207162012112/07/16 16:20:31  5-MIN KBDL 072120Z 00000KT 10SM FEW012 SCT018 OVC026 05/02 A2999 110 82 -1000 000/00 RMK AO2 T00500022
14740KBDL BDL20161207162512112/07/16 16:25:31  5-MIN KBDL 072125Z 00000KT 10SM FEW014 BKN023 OVC027 05/02 A2999 110 82 -1000 000/00 RMK AO2 T00500022
14740KBDL BDL20161207163012112/07/16 16:30:31  5-MIN KBDL 072130Z 00000KT 10SM FEW014 BKN023 OVC028 05/02 A2999 110 82 -1000 000/00 RMK AO2 T00500022
14740KBDL BDL20161207163511412/07/16 16:35:31  5-MIN KBDL 072135Z 22003KT 10SM SCT019 OVC028 05/02 A2999 110 82 -1000 240/03 RMK AO2 T00500022
14740KBDL BDL20161207164011412/07/16 16:40:31  5-MIN KBDL 072140Z 23003KT 10SM SCT019 OVC028 05/02 A2999 110 82 -1000 240/03 RMK AO2 T00500022
14740KBDL BDL20161207164512112/07/16 16:45:31  5-MIN KBDL 072145Z 22003KT 10SM SCT019 OVC028 05/02 A2999 110 82 -1000 230/03 RMK AO2 SLP158 T00500022
14740KBDL BDL20161207165012112/07/16 16:50:31  5-MIN KBDL 072150Z 23003KT 10SM FEW019 OVC028 05/02 A3000 110 82 -1000 250/03 RMK AO2 SLP159 T00500022
14740KBDL BDL20161207165511412/07/16 16:55:31  5-MIN KBDL 072155Z 23004KT 10SM FEW019 OVC029 05/02 A3000 100 82 -1000 240/04 RMK AO2 T00500022
14740KBDL BDL20161207170011412/07/16 17:00:31  5-MIN KBDL 072200Z 25005KT 10SM FEW025 OVC029 05/02 A3000 100 82 -1000 260/05 RMK AO2 T00500022
14740KBDL BDL20161207170510712/07/16 17:05:31  5-MIN KBDL 072205Z 25005KT 10SM OVC029 05/02 A3001 100 82 -1000 260/05 RMK AO2 T00500022
14740KBDL BDL20161207171010712/07/16 17:10:31  5-MIN KBDL 072210Z 25005KT 10SM OVC029 05/02 A3001 100 82 -1000 270/05 RMK AO2 T00500022
14740KBDL BDL20161207171510712/07/16 17:15:31  5-MIN KBDL 072215Z 26005KT 10SM OVC029 05/02 A3001 100 82 -1000 270/05 RMK AO2 T00500022
14740KBDL BDL20161207172010612/07/16 17:20:31  5-MIN KBDL 072220Z 26006KT 10SM OVC029 05/02 A3001 90 82 -1000 270/06 RMK AO2 T00500022
14740KBDL BDL20161207172510612/07/16 17:25:31  5-MIN KBDL 072225Z 25006KT 10SM OVC029 05/02 A3001 90 82 -1000 270/06 RMK AO2 T00500022
14740KBDL BDL20161207173010612/07/16 17:30:31  5-MIN KBDL 072230Z 26006KT 10SM OVC029 05/02 A3002 90 82 -1000 280/06 RMK AO2 T00500022
14740KBDL BDL20161207173510612/07/16 17:35:31  5-MIN KBDL 072235Z 27005KT 10SM OVC029 05/02 A3001 90 82 -1000 280/05 RMK AO2 T00500022
14740KBDL BDL20161207174010612/07/16 17:40:31  5-MIN KBDL 072240Z 27006KT 10SM OVC029 05/02 A3001 90 82 -1000 280/06 RMK AO2 T00500022
14740KBDL BDL20161207174511312/07/16 17:45:31  5-MIN KBDL 072245Z 26005KT 10SM OVC029 05/02 A3001 90 82 -1000 280/05 RMK AO2 SLP165 T00500022
14740KBDL BDL20161207175011312/07/16 17:50:31  5-MIN KBDL 072250Z 26005KT 10SM OVC029 05/02 A3002 90 82 -1000 280/05 RMK AO2 SLP166 T00500022
14740KBDL BDL20161207175511312/07/16 17:55:31  5-MIN KBDL 072255Z 28004KT 10SM FEW028 OVC038 05/02 A3002 90 82 -1000 290/04 RMK AO2 T00500022
14740KBDL BDL20161207180011312/07/16 18:00:31  5-MIN KBDL 072300Z 27004KT 10SM FEW028 OVC040 05/02 A3002 80 82 -1000 280/04 RMK AO2 T00500022
14740KBDL BDL20161207180510612/07/16 18:05:31  5-MIN KBDL 072305Z 25004KT 10SM BKN040 04/02 A3002 80 82 -1100 270/04 RMK AO2 T00440017
14740KBDL BDL20161207181010612/07/16 18:10:31  5-MIN KBDL 072310Z 26003KT 10SM BKN040 04/02 A3002 90 82 -1100 270/03 RMK AO2 T00440017
14740KBDL BDL20161207181510612/07/16 18:15:31  5-MIN KBDL 072315Z 25004KT 10SM SCT040 04/01 A3002 80 82 -1200 260/04 RMK AO2 T00390011
14740KBDL BDL20161207182010612/07/16 18:20:31  5-MIN KBDL 072320Z 27004KT 10SM SCT040 04/01 A3002 80 82 -1200 280/04 RMK AO2 T00390011
14740KBDL BDL20161207182510612/07/16 18:25:31  5-MIN KBDL 072325Z 25004KT 10SM FEW040 04/02 A3002 80 85 -1200 260/04 RMK AO2 T00390017
14740KBDL BDL20161207183010312/07/16 18:30:31  5-MIN KBDL 072330Z 25003KT 10SM CLR 04/01 A3002 90 82 -1200 260/03 RMK AO2 T00390011
14740KBDL BDL20161207183510312/07/16 18:35:31  5-MIN KBDL 072335Z 24003KT 10SM CLR 03/01 A3002 90 85 -1200 250/03 RMK AO2 T00330011
14740KBDL BDL20161207184010312/07/16 18:40:31  5-MIN KBDL 072340Z 22003KT 10SM CLR 04/02 A3001 90 82 -1100 230/03 RMK AO2 T00440017
14740KBDL BDL20161207184512812/07/16 18:45:31  5-MIN KBDL 072345Z 22004KT 10SM CLR 04/02 A3001 90 82 -1100 230/04 RMK AO2 SLP165 T00440017 10050 20033 53009
14740KBDL BDL20161207185012812/07/16 18:50:31  5-MIN KBDL 072350Z 22005KT 10SM CLR 04/02 A3001 90 85 -1100 240/05 RMK AO2 SLP165 T00390017 10050 20033 53009
14740KBDL BDL20161207185510312/07/16 18:55:31  5-MIN KBDL 072355Z 22005KT 10SM CLR 04/02 A3002 90 85 -1100 240/05 RMK AO2 T00390017
14740KBDL BDL20161207190010312/07/16 19:00:31  5-MIN KBDL 080000Z 23005KT 10SM CLR 03/01 A3002 90 85 -1200 240/05 RMK AO2 T00330011
14740KBDL BDL20161207190510312/07/16 19:05:31  5-MIN KBDL 080005Z 23005KT 10SM CLR 03/01 A3002 90 89 -1300 240/05 RMK AO2 T00280011
14740KBDL BDL20161207191010312/07/16 19:10:31  5-MIN KBDL 080010Z 24005KT 10SM CLR 02/01 A3002 80 89 -1400 250/05 RMK AO2 T00220006
14740KBDL BDL20161207191510312/07/16 19:15:31  5-MIN KBDL 080015Z 23004KT 10SM CLR 02/01 A3002 80 92 -1400 250/04 RMK AO2 T00170006
14740KBDL BDL20161207192010312/07/16 19:20:31  5-MIN KBDL 080020Z 24004KT 10SM CLR 02/01 A3002 80 92 -1400 250/04 RMK AO2 T00170006
14740KBDL BDL20161207192510312/07/16 19:25:31  5-MIN KBDL 080025Z 24004KT 10SM CLR 02/01 A3002 80 89 -1400 260/04 RMK AO2 T00220006
14740KBDL BDL20161207193010312/07/16 19:30:31  5-MIN KBDL 080030Z 25004KT 10SM CLR 02/01 A3002 80 89 -1400 260/04 RMK AO2 T00220006
14740KBDL BDL20161207193510312/07/16 19:35:31  5-MIN KBDL 080035Z 28004KT 10SM CLR 02/01 A3002 80 96 -1400 300/04 RMK AO2 T00170011
14740KBDL BDL20161207194010312/07/16 19:40:31  5-MIN KBDL 080040Z 30004KT 10SM CLR 02/01 A3002 80 92 -1400 310/04 RMK AO2 T00220011
14740KBDL BDL20161207194511012/07/16 19:45:31  5-MIN KBDL 080045Z 27004KT 10SM CLR 02/01 A3002 80 92 -1400 290/04 RMK AO2 SLP168 T00220011
14740KBDL BDL20161207195011012/07/16 19:50:31  5-MIN KBDL 080050Z 26004KT 10SM CLR 02/01 A3002 80 92 -1400 270/04 RMK AO2 SLP169 T00220011
14740KBDL BDL20161207195510812/07/16 19:55:31  5-MIN KBDL 080055Z 26003KT 10SM BCFG CLR 02/01 A3002 80 92 -1400 280/03 RMK AO2 T00220011
14740KBDL BDL20161207200010812/07/16 20:00:31  5-MIN KBDL 080100Z 00000KT 10SM BCFG CLR 02/01 A3002 80 96 -1400 000/00 RMK AO2 T00170011
14740KBDL BDL20161207200510812/07/16 20:05:31  5-MIN KBDL 080105Z 26003KT 10SM BCFG CLR 02/01 A3003 80 92 -1400 270/03 RMK AO2 T00220011
14740KBDL BDL20161207201010812/07/16 20:10:31  5-MIN KBDL 080110Z 26003KT 10SM BCFG CLR 02/01 A3002 80 92 -1400 270/03 RMK AO2 T00220011
14740KBDL BDL20161207201510812/07/16 20:15:31  5-MIN KBDL 080115Z 25003KT 10SM BCFG CLR 03/02 A3003 80 92 -1300 260/03 RMK AO2 T00280017
14740KBDL BDL20161207202010812/07/16 20:20:31  5-MIN KBDL 080120Z 25003KT 10SM BCFG CLR 03/02 A3003 80 92 -1300 270/03 RMK AO2 T00280017
14740KBDL BDL20161207202510712/07/16 20:25:31  5-MIN KBDL 080125Z 00000KT 9SM BCFG CLR 03/02 A3002 80 92 -1300 000/00 RMK AO2 T00280017
14740KBDL BDL20161207203010712/07/16 20:30:31  5-MIN KBDL 080130Z 00000KT 9SM BCFG CLR 02/01 A3002 80 92 -1400 000/00 RMK AO2 T00220011
14740KBDL BDL20161207203510712/07/16 20:35:31  5-MIN KBDL 080135Z 00000KT 9SM BCFG CLR 02/01 A3002 90 92 -1400 000/00 RMK AO2 T00220011
14740KBDL BDL20161207204012712/07/16 20:40:31  5-MIN KBDL 080140Z 00000KT 10SM BCFG CLR 02/01 A3001 90 92 -1400 000/00 RMK AO2 VIS 1 1/2 RWY 6-24 T00220011
14740KBDL BDL20161207204513012/07/16 20:45:31  5-MIN KBDL 080145Z 25003KT 10SM BCFG CLR 02/01 A3001 90 89 -1400 270/03 RMK AO2 VIS 1 RWY 6-24 SLP165 T00220006
14740KBDL BDL20161207205014212/07/16 20:50:31  5-MIN KBDL 080150Z 23003KT 10SM BCFG CLR 02/01 A3001 90 89 -1300 250/03 RMK AO2 VIS 1 1/4 RWY 6-24 SLP164 BCFG SE T00220006
14740KBDL BDL20161207205510912/07/16 20:55:31  5-MIN KBDL 080155Z 24003KT 10SM BCFG CLR 03/01 A3001 100 89 -1300 250/03 RMK AO2 T00280011
14740KBDL BDL20161207210012712/07/16 21:00:31  5-MIN KBDL 080200Z 24004KT 10SM BCFG CLR 02/01 A3001 90 92 -1400 250/04 RMK AO2 VIS 2 1/2 RWY 6-24 T00220011
14740KBDL BDL20161207210512312/07/16 21:05:31  5-MIN KBDL 080205Z 25004KT 10SM BCFG CLR 02/01 A3001 90 92 -1400 260/04 RMK AO2 VIS 2 RWY 6-24 T00220011
14740KBDL BDL20161207211010812/07/16 21:10:31  5-MIN KBDL 080210Z 24005KT 10SM BCFG CLR 02/01 A3001 90 89 -1400 260/05 RMK AO2 T00220006
14740KBDL BDL20161207211512712/07/16 21:15:31  5-MIN KBDL 080215Z 24004KT 10SM BCFG CLR 02/01 A3001 90 89 -1400 260/04 RMK AO2 VIS 1 1/4 RWY 6-24 T00220006
14740KBDL BDL20161207212012312/07/16 21:20:31  5-MIN KBDL 080220Z 26004KT 10SM BCFG CLR 02/01 A3002 90 92 -1400 270/04 RMK AO2 VIS 1 RWY 6-24 T00170006
14740KBDL BDL20161207212512712/07/16 21:25:31  5-MIN KBDL 080225Z 24003KT 10SM BCFG CLR 02/01 A3001 90 92 -1400 250/03 RMK AO2 VIS 1 1/2 RWY 6-24 T00170006
14740KBDL BDL20161207213010912/07/16 21:30:31  5-MIN KBDL 080230Z 23003KT 10SM BCFG CLR 02/01 A3001 100 92 -1300 240/03 RMK AO2 T00220011
14740KBDL BDL20161207213510812/07/16 21:35:31  5-MIN KBDL 080235Z 25003KT 9SM BCFG CLR 02/01 A3000 100 92 -1300 260/03 RMK AO2 T00220011
14740KBDL BDL20161207214010812/07/16 21:40:31  5-MIN KBDL 080240Z 25003KT 9SM BCFG CLR 02/01 A3000 100 92 -1300 260/03 RMK AO2 T00220011
14740KBDL BDL20161207214512112/07/16 21:45:31  5-MIN KBDL 080245Z 24003KT 9SM BCFG CLR 02/01 A3000 100 96 -1400 260/03 RMK AO2 SLP162 T00170011 50012
14740KBDL BDL20161207215012212/07/16 21:50:31  5-MIN KBDL 080250Z 00000KT 10SM BCFG CLR 01/01 A3000 100 96 -1500 000/00 RMK AO2 SLP161 T00110006 50012
14740KBDL BDL20161207215510812/07/16 21:55:31  5-MIN KBDL 080255Z 27003KT 8SM BCFG CLR 02/01 A3000 100 92 -1400 280/03 RMK AO2 T00170006
14740KBDL BDL20161207220010912/07/16 22:00:31  5-MIN KBDL 080300Z 28003KT 10SM BCFG CLR 02/00 A3001 100 89 -1400 300/03 RMK AO2 T00170000
14740KBDL BDL20161207220510912/07/16 22:05:31  5-MIN KBDL 080305Z 27003KT 10SM BCFG CLR 02/01 A3000 100 89 -1300 290/03 RMK AO2 T00220006
14740KBDL BDL20161207221010912/07/16 22:10:31  5-MIN KBDL 080310Z 26003KT 10SM BCFG CLR 02/01 A3000 100 89 -1300 280/03 RMK AO2 T00220006
14740KBDL BDL20161207221510912/07/16 22:15:31  5-MIN KBDL 080315Z 26005KT 10SM BCFG CLR 02/01 A3001 100 92 -1400 280/05 RMK AO2 T00170006
14740KBDL BDL20161207222010812/07/16 22:20:31  5-MIN KBDL 080320Z 26005KT 10SM BCFG CLR 02/01 A3001 90 92 -1400 270/05 RMK AO2 T00170006
14740KBDL BDL20161207222510912/07/16 22:25:31  5-MIN KBDL 080325Z 00000KT 10SM BCFG CLR 02/01 A3001 100 89 -1300 000/00 RMK AO2 T00220006
14740KBDL BDL20161207223010912/07/16 22:30:31  5-MIN KBDL 080330Z 28003KT 10SM BCFG CLR 02/01 A3001 100 89 -1300 290/03 RMK AO2 T00220006
14740KBDL BDL20161207223510912/07/16 22:35:31  5-MIN KBDL 080335Z 27003KT 10SM BCFG CLR 02/01 A3001 100 89 -1300 290/03 RMK AO2 T00220006
14740KBDL BDL20161207224010912/07/16 22:40:31  5-MIN KBDL 080340Z 26003KT 10SM BCFG CLR 02/01 A3001 100 89 -1300 270/03 RMK AO2 T00220006
14740KBDL BDL20161207224511612/07/16 22:45:31  5-MIN KBDL 080345Z 26003KT 10SM BCFG CLR 02/01 A3000 100 89 -1300 280/03 RMK AO2 SLP162 T00220006
14740KBDL BDL20161207225011612/07/16 22:50:31  5-MIN KBDL 080350Z 28003KT 10SM BCFG CLR 02/01 A3000 100 89 -1300 290/03 RMK AO2 SLP161 T00220006
14740KBDL BDL20161207225510412/07/16 22:55:31  5-MIN KBDL 080355Z 27003KT 10SM CLR 02/01 A3000 100 89 -1300 280/03 RMK AO2 T00220006
14740KBDL BDL20161207230010412/07/16 23:00:31  5-MIN KBDL 080400Z 28003KT 10SM CLR 02/01 A3000 100 92 -1400 290/03 RMK AO2 T00170006
14740KBDL BDL20161207230510412/07/16 23:05:31  5-MIN KBDL 080405Z 00000KT 10SM CLR 02/01 A3000 100 92 -1400 000/00 RMK AO2 T00170006
14740KBDL BDL20161207231010412/07/16 23:10:31  5-MIN KBDL 080410Z 00000KT 10SM CLR 02/01 A3000 100 92 -1400 000/00 RMK AO2 T00170006
14740KBDL BDL20161207231510412/07/16 23:15:31  5-MIN KBDL 080415Z 27003KT 10SM CLR 02/01 A3000 100 92 -1400 290/03 RMK AO2 T00170006
14740KBDL BDL20161207232010412/07/16 23:20:31  5-MIN KBDL 080420Z 28003KT 10SM CLR 02/00 A3000 100 89 -1400 290/03 RMK AO2 T00170000
14740KBDL BDL20161207232510412/07/16 23:25:31  5-MIN KBDL 080425Z 27003KT 10SM CLR 02/00 A3000 100 89 -1400 290/03 RMK AO2 T00170000
14740KBDL BDL20161207233010412/07/16 23:30:31  5-MIN KBDL 080430Z 27003KT 10SM CLR 02/00 A3000 100 89 -1400 280/03 RMK AO2 T00170000
14740KBDL BDL20161207233510412/07/16 23:35:31  5-MIN KBDL 080435Z 26004KT 10SM CLR 02/00 A3000 100 89 -1400 280/04 RMK AO2 T00170000
14740KBDL BDL20161207234010312/07/16 23:40:31  5-MIN KBDL 080440Z 27004KT 9SM CLR 01/00 A3000 100 92 -1500 280/04 RMK AO2 T00110000
14740KBDL BDL20161207234512112/07/16 23:45:31  5-MIN KBDL 080445Z 27005KT 10SM CLR 01/00 A3000 100 92 -1500 290/05 RMK AO2 SLP160 T00110000 400500006
14740KBDL BDL20161207235012112/07/16 23:50:31  5-MIN KBDL 080450Z 27003KT 10SM CLR 02/00 A3000 100 89 -1400 280/03 RMK AO2 SLP160 T00170000 400500006
14740KBDL BDL20161207235510412/07/16 23:55:31  5-MIN KBDL 080455Z 00000KT 10SM CLR 02/00 A3000 110 89 -1400 000/00 RMK AO2 T00170000
14740KBDL BDL20161208000010412/08/16 00:00:31  5-MIN KBDL 080500Z 00000KT 10SM CLR 01/00 A2999 110 92 -1500 000/00 RMK AO2 T00110000
14740KBDL BDL20161208000510312/08/16 00:05:31  5-MIN KBDL 080505Z 00000KT 9SM CLR 01/00 A2999 110 92 -1500 000/00 RMK AO2 T00110000
14740KBDL BDL20161208001010312/08/16 00:10:31  5-MIN KBDL 080510Z 00000KT 9SM CLR 01/00 A2999 110 92 -1500 000/00 RMK AO2 T00110000
14740KBDL BDL20161208001510312/08/16 00:15:31  5-MIN KBDL 080515Z 00000KT 8SM CLR 01/00 A2999 110 92 -1500 000/00 RMK AO2 T00110000
14740KBDL BDL20161208002010312/08/16 00:20:31  5-MIN KBDL 080520Z 00000KT 9SM CLR 01/00 A2999 110 92 -1500 000/00 RMK AO2 T00110000
14740KBDL BDL20161208002510412/08/16 00:25:31  5-MIN KBDL 080525Z 00000KT 10SM CLR 02/00 A2999 110 89 -1400 000/00 RMK AO2 T00170000
14740KBDL BDL20161208003010412/08/16 00:30:31  5-MIN KBDL 080530Z 00000KT 10SM CLR 01/00 A2999 110 92 -1500 000/00 RMK AO2 T00110000
14740KBDL BDL20161208003510312/08/16 00:35:31  5-MIN KBDL 080535Z 00000KT 9SM CLR 01/00 A2999 110 92 -1500 000/00 RMK AO2 T00110000
14740KBDL BDL20161208004010412/08/16 00:40:31  5-MIN KBDL 080540Z 00000KT 8SM CLR 01/M01 A2999 110 92 -1500 000/00 RMK AO2 T00061006
14740KBDL BDL20161208004512912/08/16 00:45:31  5-MIN KBDL 080545Z 00000KT 7SM CLR 01/M01 A2998 120 92 -1500 000/00 RMK AO2 SLP154 T00061006 10039 20006 58004
14740KBDL BDL20161208005015312/08/16 00:50:31  5-MIN KBDL 080550Z 00000KT 10SM MIFG SCT140 BKN170 01/M01 A2998 120 92 -1500 000/00 RMK AO2 SLP155 MIFG SE T00061006 10039 20006 58004
14740KBDL BDL20161208005510312/08/16 00:55:31  5-MIN KBDL 080555Z 00000KT 7SM CLR 01/00 A2998 120 96 -1500 000/00 RMK AO2 T00060000
14740KBDL BDL20161208010010312/08/16 01:00:31  5-MIN KBDL 080600Z 00000KT 7SM CLR 01/00 A2998 120 92 -1500 000/00 RMK AO2 T00110000
14740KBDL BDL20161208010510312/08/16 01:05:31  5-MIN KBDL 080605Z 00000KT 7SM CLR 01/00 A2998 120 92 -1500 000/00 RMK AO2 T00110000
14740KBDL BDL20161208011010312/08/16 01:10:31  5-MIN KBDL 080610Z 00000KT 7SM CLR 01/00 A2998 130 92 -1400 000/00 RMK AO2 T00110000
14740KBDL BDL20161208011510312/08/16 01:15:31  5-MIN KBDL 080615Z 00000KT 7SM CLR 01/00 A2998 130 96 -1500 000/00 RMK AO2 T00060000
14740KBDL BDL20161208012010612/08/16 01:20:31  5-MIN KBDL 080620Z 00000KT 6SM BR CLR 01/00 A2998 120 96 -1500 000/00 RMK AO2 T00060000
14740KBDL BDL20161208012512612/08/16 01:25:31  5-MIN KBDL 080625Z 00000KT 5SM BR CLR 00/M01 A2998 120 92 -1600 000/00 RMK AO2 VIS 1 1/4 RWY 6-24 T00001011
14740KBDL BDL20161208013012412/08/16 01:30:31  5-MIN KBDL 080630Z 00000KT 5SM BR CLR 01/M01 A2998 120 92 -1500 000/00 RMK AO2 VIS 1/4 RWY 6-24 T00061006
14740KBDL BDL20161208013512112/08/16 01:35:31  5-MIN KBDL 080635Z 00000KT 4SM CLR 01/M01 A2998 120 92 -1500 000/00 RMK AO2 VIS 1/4 RWY 6-24 T00061006
14740KBDL BDL20161208014011912/08/16 01:40:31  5-MIN KBDL 080640Z 00000KT 8SM MIFG SCT140 BKN160 01/M01 A2999 120 92 -1500 000/00 RMK AO2 T00061006
14740KBDL BDL20161208014512612/08/16 01:45:31  5-MIN KBDL 080645Z 00000KT 8SM MIFG SCT140 BKN160 00/00 A2998 120 100 -1600 000/00 RMK AO2 SLP154 T00000000
14740KBDL BDL20161208015014212/08/16 01:50:31  5-MIN KBDL 080650Z 00000KT 10SM MIFG SCT140 BKN160 00/M01 A2998 120 96 -1600 000/00 RMK AO2 SLP154 MIFG NE AND SE T00001006
14740KBDL BDL20161208015510912/08/16 01:55:31  5-MIN KBDL 080655Z 00000KT 9SM MIFG CLR 01/M01 A2998 120 92 -1500 000/00 RMK AO2 T00061006
14740KBDL BDL20161208020010912/08/16 02:00:31  5-MIN KBDL 080700Z 28003KT 9SM MIFG CLR 00/M01 A2999 110 92 -1600 290/03 RMK AO2 T00001011
14740KBDL BDL20161208020511012/08/16 02:05:31  5-MIN KBDL 080705Z 31003KT 9SM MIFG CLR M01/M02 A2999 110 92 -1700 330/03 RMK AO2 T10061017
14740KBDL BDL20161208021010912/08/16 02:10:31  5-MIN KBDL 080710Z 31003KT 9SM MIFG CLR 00/M01 A2998 120 92 -1600 320/03 RMK AO2 T00001011
14740KBDL BDL20161208021510912/08/16 02:15:31  5-MIN KBDL 080715Z 00000KT 9SM MIFG CLR 00/M01 A2998 120 96 -1600 000/00 RMK AO2 T00001006
14740KBDL BDL20161208022010912/08/16 02:20:31  5-MIN KBDL 080720Z 00000KT 9SM MIFG CLR 00/M01 A2998 120 96 -1600 000/00 RMK AO2 T00001006
14740KBDL BDL20161208022510912/08/16 02:25:31  5-MIN KBDL 080725Z 00000KT 9SM MIFG CLR 00/M01 A2997 130 96 -1600 000/00 RMK AO2 T00001006
14740KBDL BDL20161208023010912/08/16 02:30:31  5-MIN KBDL 080730Z 00000KT 9SM MIFG CLR 00/M01 A2997 130 92 -1600 000/00 RMK AO2 T00001011
14740KBDL BDL20161208023510912/08/16 02:35:31  5-MIN KBDL 080735Z 00000KT 9SM MIFG CLR 00/M01 A2996 140 92 -1600 000/00 RMK AO2 T00001011
14740KBDL BDL20161208024010912/08/16 02:40:31  5-MIN KBDL 080740Z 00000KT 9SM MIFG CLR 01/M01 A2997 130 89 -1500 000/00 RMK AO2 T00061011
14740KBDL BDL20161208024515412/08/16 02:45:31  5-MIN KBDL 080745Z 00000KT 5SM BCFG BR FEW001 FEW130 SCT150 00/M01 A2997 130 92 -1600 000/00 RMK AO2 SLP149 BCFG SW-N MIFG SE T00001011
14740KBDL BDL20161208025016012/08/16 02:50:31  5-MIN KBDL 080750Z 00000KT 3SM BCFG BR FEW001 FEW130 SCT150 00/M01 A2997 130 92 -1600 000/00 RMK AO2 SLP149 VIS E-SE 5 BCFG S-NW-NE T00001011
14740KBDL BDL20161208025516012/08/16 02:55:31  5-MIN KBDL 080755Z 30003KT 1SM R06/P6000FT BCFG BR SCT001 SCT150 M01/M01 A2997 130 96 -1600 310/03 RMK AO2 VIS 1/2V1 1/2 BCFG ALQDS T10061011
14740KBDL BDL20161208030016012/08/16 03:00:31  5-MIN KBDL 080800Z 30004KT 1SM R06/P6000FT BCFG BR SCT001 SCT150 M01/M02 A2997 130 92 -1700 310/04 RMK AO2 VIS 1/2V1 1/2 BCFG ALQDS T10111022
14740KBDL BDL20161208030516512/08/16 03:05:31  5-MIN KBDL 080805Z 29003KT 1SM R06/5000VP6000FT BCFG BR SCT001 SCT150 M02/M02 A2997 130 96 -1800 310/03 RMK AO2 VIS 1/2V1 1/2 BCFG ALQDS T10171022
14740KBDL BDL20161208031017112/08/16 03:10:31  5-MIN KBDL 080810Z 28003KT 1SM R06/1600VP6000FT BCFG BR SCT001 SCT150 M02/M02 A2997 130 96 -1800 290/03 RMK AO2 VIS 1/2V1 1/2 BCFG ALQDS I1000 T10171022
14740KBDL BDL20161208031514912/08/16 03:15:31  5-MIN KBDL 080815Z 28003KT 1/2SM R06/1600V5500FT FZFG BKN001 M02/M03 A2997 130 96 -1900 290/03 RMK AO2 VIS 1/4V3/4 I1000 T10221028
14740KBDL BDL20161208032015912/08/16 03:20:31  5-MIN KBDL 080820Z 30004KT 1/2SM R06/1600V3500FT FZFG BKN001 M02/M03 A2997 130 92 -1800 320/04 RMK AO2 VIS 1/4V3/4 BKN V SCT I1001 T10171028
14740KBDL BDL20161208032516012/08/16 03:25:31  5-MIN KBDL 080825Z 30006KT 1/2SM R06/2000VP6000FT FZFG BKN001 M02/M03 A2997 130 92 -1800 310/06 RMK AO2 VIS 1/4V3/4 BKN V SCT I1001 T10171028
14740KBDL BDL20161208033015612/08/16 03:30:31  5-MIN KBDL 080830Z 30005KT 3/4SM R06/4000VP6000FT BR BKN001 M02/M03 A2997 130 92 -1800 320/05 RMK AO2 VIS 1/2V1 BKN V SCT I1001 T10171028
14740KBDL BDL20161208033515112/08/16 03:35:31  5-MIN KBDL 080835Z 30004KT 3/4SM R06/P6000FT BR BKN001 M02/M02 A2996 140 96 -1800 320/04 RMK AO2 VIS 1/2V1 BKN V SCT I1001 T10171022
14740KBDL BDL20161208034015312/08/16 03:40:31  5-MIN KBDL 080840Z 31003KT 3/4SM R06/5000VP6000FT BR SCT001 SCT150 M02/M02 A2996 140 96 -1800 320/03 RMK AO2 VIS 1/2V1 I1001 T10171022
14740KBDL BDL20161208034517212/08/16 03:45:31  5-MIN KBDL 080845Z 30004KT 3/4SM R06/5000VP6000FT BR SCT001 SCT150 M02/M02 A2997 130 96 -1800 310/04 RMK AO2 SLP150 VIS 1/2V1 I1001 I3/// T10171022 58006
14740KBDL BDL20161208035017612/08/16 03:50:31  5-MIN KBDL 080850Z 30003KT 3/4SM R06/6000VP6000FT BR SCT001 SCT120 M02/M02 A2996 140 96 -1800 320/03 RMK AO2 SLP148 VIS 1/2V1 1/4 I1001 I3/// T10171022 58006
14740KBDL BDL20161208035515112/08/16 03:55:31  5-MIN KBDL 080855Z 29003KT 3/4SM R06/5000VP6000FT BR SCT001 SCT120 M02/M02 A2997 130 96 -1800 300/03 RMK AO2 VIS 1/2V1 1/4 T10171022
14740KBDL BDL20161208040015112/08/16 04:00:31  5-MIN KBDL 080900Z 29003KT 3/4SM R06/4000VP6000FT BR SCT001 SCT110 M02/M02 A2996 140 96 -1800 300/03 RMK AO2 VIS 1/2V1 1/4 T10171022
14740KBDL BDL20161208040516112/08/16 04:05:31  5-MIN KBDL 080905Z 00000KT 3/4SM R06/4000VP6000FT BR SCT001 SCT110 M02/M02 A2996 140 96 -1800 000/00 RMK AO2 TWR VIS 4 VIS 1/2V1 1/4 T10171022
14740KBDL BDL20161208041015912/08/16 04:10:31  5-MIN KBDL 080910Z 00000KT 1SM R06/4500VP6000FT BR FEW001 SCT110 M02/M02 A2996 140 96 -1800 000/00 RMK AO2 TWR VIS 4 VIS 3/4V1 1/2 T10171022
14740KBDL BDL20161208041516012/08/16 04:15:31  5-MIN KBDL 080915Z 00000KT 1SM R06/P6000FT BR FEW001 SCT110 M02/M02 A2996 140 96 -1800 000/00 RMK AO2 TWR VIS 4 VIS 3/4V1 1/2 I1000 T10171022
14740KBDL BDL20161208042016512/08/16 04:20:31  5-MIN KBDL 080920Z 00000KT 1SM R06/5000VP6000FT BR FEW001 SCT110 M02/M02 A2996 140 96 -1800 000/00 RMK AO2 TWR VIS 4 VIS 3/4V1 1/2 I1000 T10171022
14740KBDL BDL20161208042516712/08/16 04:25:31  5-MIN KBDL 080925Z 00000KT 3/4SM R06/2600VP6000FT BR SCT001 SCT110 M01/M02 A2996 140 92 -1700 000/00 RMK AO2 TWR VIS 4 VIS 1/2V1 1/4 I1000 T10111022
14740KBDL BDL20161208043016712/08/16 04:30:31  5-MIN KBDL 080930Z 00000KT 3/4SM R06/2600VP6000FT BR SCT001 SCT110 M01/M02 A2996 140 92 -1700 000/00 RMK AO2 TWR VIS 4 VIS 1/2V1 1/4 I1000 T10111022
14740KBDL BDL20161208043518712/08/16 04:35:31  5-MIN KBDL 080935Z 00000KT 3/4SM R06/3000VP6000FT BR SCT001 SCT090 SCT130 M01/M02 A2995 140 92 -1700 000/00 RMK AO2 TWR VIS 4 VIS 1/2V1 1/4 SCT001 V FEW I1000 T10111022
14740KBDL BDL20161208044017012/08/16 04:40:31  5-MIN KBDL 080940Z 00000KT 3/4SM R06/4000VP6000FT BR SCT001 BKN090 BKN130 M01/M02 A2995 150 96 -1700 000/00 RMK AO2 TWR VIS 4 VIS 1/2V1 I1000 T10111017
14740KBDL BDL20161208044517012/08/16 04:45:31  5-MIN KBDL 080945Z 00000KT 3/4SM R06/3000VP6000FT BR SCT001 BKN090 M02/M03 A2996 140 96 -1800 000/00 RMK AO2 TWR VIS 4 SLP145 VIS 1/2V1 I1000 T10221028
14740KBDL BDL20161208045016212/08/16 04:50:31  5-MIN KBDL 080950Z 00000KT 1/2SM R06/3000VP6000FT FZFG SCT001 BKN090 M02/M03 A2995 150 92 -1800 000/00 RMK AO2 TWR VIS 4 SLP143 I1001 T10221033
14740KBDL BDL20161208045514912/08/16 04:55:31  5-MIN KBDL 080955Z 00000KT 1/2SM R06/4500VP6000FT FZFG SCT001 BKN090 M03/M03 A2995 150 96 -1900 000/00 RMK AO2 TWR VIS 4 T10281033
14740KBDL BDL20161208050016112/08/16 05:00:31  5-MIN KBDL 081000Z 00000KT 1/2SM R06/4500VP6000FT FZFG SCT001 SCT090 M02/M04 A2995 150 88 -1800 000/00 RMK AO2 TWR VIS 4 VIS 1/4V3/4 T10221039
14740KBDL BDL20161208050516112/08/16 05:05:31  5-MIN KBDL 081005Z 00000KT 1/2SM R06/4000VP6000FT FZFG SCT001 SCT090 M03/M03 A2995 150 96 -1900 000/00 RMK AO2 TWR VIS 4 VIS 1/4V3/4 T10281033
14740KBDL BDL20161208051015312/08/16 05:10:31  5-MIN KBDL 081010Z 01003KT 1/2SM R06/2800V5000FT FZFG SCT001 M03/M04 A2995 150 92 -1900 020/03 RMK AO2 TWR VIS 4 VIS 1/4V3/4 T10281039
14740KBDL BDL20161208051514112/08/16 05:15:31  5-MIN KBDL 081015Z 00000KT 1/2SM R06/2800V4000FT FZFG SCT001 M03/M04 A2995 150 92 -1900 000/00 RMK AO2 TWR VIS 4 T10281039
14740KBDL BDL20161208052014112/08/16 05:20:31  5-MIN KBDL 081020Z 00000KT 1/2SM R06/2800V4500FT FZFG SCT001 M02/M03 A2995 150 92 -1800 000/00 RMK AO2 TWR VIS 4 T10221033
14740KBDL BDL20161208052514112/08/16 05:25:31  5-MIN KBDL 081025Z 00000KT 1/2SM R06/3000V5000FT FZFG SCT001 M02/M03 A2995 150 92 -1800 000/00 RMK AO2 TWR VIS 4 T10221033
14740KBDL BDL20161208053014612/08/16 05:30:31  5-MIN KBDL 081030Z 36003KT 3/4SM R06/2800V5000FT BR SCT001 SCT250 M02/M03 A2995 150 92 -1800 020/03 RMK AO2 TWR VIS 4 T10221033
14740KBDL BDL20161208053515212/08/16 05:35:31  5-MIN KBDL 081035Z 00000KT 3/4SM R06/2800V5500FT BR SCT001 SCT250 M02/M03 A2995 150 96 -1800 000/00 RMK AO2 TWR VIS 4 I1000 T10221028
14740KBDL BDL20161208054016212/08/16 05:40:31  5-MIN KBDL 081040Z 00000KT 1 1/4SM R06/5000VP6000FT BR FEW001 FEW090 SCT250 M02/M03 A2995 150 96 -1800 000/00 RMK AO2 TWR VIS 4 I1000 T10221028
14740KBDL BDL20161208054519712/08/16 05:45:31  5-MIN KBDL 081045Z 00000KT 1 3/4SM R06/5000VP6000FT BCFG BR FEW001 FEW120 SCT250 M02/M03 A2995 150 96 -1800 000/00 RMK AO2 TWR VIS 4 SLP143 VIS 1V2 1/2 BCFG N-E-S I1000 T10221028
14740KBDL BDL20161208055018012/08/16 05:50:31  5-MIN KBDL 081050Z 00000KT 2SM BCFG BR FEW001 SCT120 SCT250 M02/M03 A2995 150 96 -1800 000/00 RMK AO2 TWR VIS 4 SLP142 VIS 1 1/2V2 1/2 BCFG N-E-S I1000 T10221028
14740KBDL BDL20161208055516712/08/16 05:55:31  5-MIN KBDL 081055Z 00000KT 2SM BCFG BR FEW001 SCT120 BKN140 M02/M03 A2994 150 92 -1800 000/00 RMK AO2 TWR VIS 4 VIS 1 1/2V2 1/2 BCFG N-E-S T10171028
14740KBDL BDL20161208060017312/08/16 06:00:31  5-MIN KBDL 081100Z 00000KT 2SM R06/4000VP6000FT BCFG BR FEW001 SCT120 BKN140 M02/M03 A2994 160 92 -1800 000/00 RMK AO2 TWR VIS 4 VIS 1 1/2V2 1/2 T10171028
14740KBDL BDL20161208060517312/08/16 06:05:31  5-MIN KBDL 081105Z 00000KT 2SM R06/3500VP6000FT BCFG BR FEW001 SCT120 SCT140 M02/M02 A2994 160 96 -1800 000/00 RMK AO2 TWR VIS 4 VIS 1 1/2V2 1/2 T10171022
14740KBDL BDL20161208061016812/08/16 06:10:31  5-MIN KBDL 081110Z 00000KT 2SM R06/3500VP6000FT BR FEW002 SCT120 SCT140 M02/M03 A2994 160 96 -1800 000/00 RMK AO2 TWR VIS 4 VIS 1 1/2V2 1/2 T10221028
14740KBDL BDL20161208061516812/08/16 06:15:31  5-MIN KBDL 081115Z 00000KT 2SM R06/4500VP6000FT BR FEW002 SCT120 SCT140 M03/M03 A2994 160 96 -1900 000/00 RMK AO2 TWR VIS 4 VIS 1 1/2V2 1/2 T10281033
14740KBDL BDL20161208062016812/08/16 06:20:31  5-MIN KBDL 081120Z 00000KT 2SM R06/4500VP6000FT BR FEW002 SCT120 SCT140 M02/M03 A2994 160 92 -1800 000/00 RMK AO2 TWR VIS 4 VIS 1 1/2V2 1/2 T10221033
14740KBDL BDL20161208062517612/08/16 06:25:31  5-MIN KBDL 081125Z 00000KT 2SM R06/4500VP6000FT BR FEW001 FEW002 SCT120 SCT140 M02/M03 A2994 160 92 -1800 000/00 RMK AO2 TWR VIS 4 VIS W-NW 5 I1000 T10221033
14740KBDL BDL20161208063017612/08/16 06:30:31  5-MIN KBDL 081130Z 00000KT 2SM R06/5000VP6000FT BR FEW001 FEW002 SCT120 SCT140 M03/M04 A2994 160 92 -1900 000/00 RMK AO2 TWR VIS 4 VIS W-NW 5 I1000 T10281039
14740KBDL BDL20161208063518012/08/16 06:35:31  5-MIN KBDL 081135Z 00000KT 3SM MIFG BR FEW001 FEW003 SCT120 SCT140 M02/M04 A2994 160 88 -1800 000/00 RMK AO2 TWR VIS 4 VIS NE-SE 1 1/2 MIFG AT AP I1000 T10221039
14740KBDL BDL20161208064017012/08/16 06:40:31  5-MIN KBDL 081140Z 00000KT 3SM MIFG BR FEW001 FEW003 SCT120 SCT140 M02/M03 A2994 160 88 -1800 000/00 RMK AO2 VIS NE-SE 1 1/2 MIFG AT AP I1000 T10171033
14740KBDL BDL20161208064519612/08/16 06:45:31  5-MIN KBDL 081145Z 00000KT 5SM MIFG BR FEW003 SCT110 BKN140 M02/M03 A2994 160 92 -1800 000/00 RMK AO2 SLP141 VIS NE-SE 2 MIFG AT AP 70001 I1000 I6002 T10171028 10011 21028 56006
14740KBDL BDL20161208065020012/08/16 06:50:31  5-MIN KBDL 081150Z 00000KT 4SM MIFG BR SCT003 SCT110 BKN140 M02/M03 A2995 150 96 -1800 000/00 RMK AO2 SLP142 VIS NE-SE 1 1/2 MIFG AT AP 70001 I1000 I6002 T10221028 10011 21028 56006
14740KBDL BDL20161208065515312/08/16 06:55:31  5-MIN KBDL 081155Z 00000KT 3SM MIFG BR SCT003 BKN110 BKN140 M02/M03 A2995 150 96 -1800 000/00 RMK AO2 VIS NE-SE 1 MIFG AT AP T10221028
14740KBDL BDL20161208070012512/08/16 07:00:31  5-MIN KBDL 081200Z 00000KT 3SM BR SCT003 BKN110 BKN140 M02/M03 A2994 150 92 -1800 000/00 RMK AO2 T10171028
14740KBDL BDL20161208070515812/08/16 07:05:31  5-MIN KBDL 081205Z 00000KT 1/2SM R06/4000VP6000FT FZFG SCT003 BKN110 BKN140 M02/M03 A2994 160 92 -1800 000/00 RMK AO2 VIS SW-NW 3 T10171028
14740KBDL BDL20161208071015812/08/16 07:10:31  5-MIN KBDL 081210Z 00000KT 1/2SM R06/1400VP6000FT FZFG SCT003 BKN110 BKN140 M02/M03 A2994 160 92 -1800 000/00 RMK AO2 VIS SW-NW 3 T10221033
14740KBDL BDL20161208071517612/08/16 07:15:31  5-MIN KBDL 081215Z 15003KT 1/8SM R06/1200VP6000FT FZFG SCT003 BKN140 BKN200 M02/M03 A2994 160 88 -1800 160/03 RMK AO2 SFC VIS 1/4 VIS SW-NW 3 I1000 T10171033
14740KBDL BDL20161208072017612/08/16 07:20:31  5-MIN KBDL 081220Z 17003KT 1/8SM R06/1200VP6000FT FZFG SCT002 BKN140 BKN200 M02/M03 A2994 160 92 -1800 190/03 RMK AO2 SFC VIS 1/4 VIS SW-NW 3 I1000 T10171028
14740KBDL BDL20161208072517612/08/16 07:25:31  5-MIN KBDL 081225Z 00000KT 1/4SM R06/3000VP6000FT FZFG SCT002 BKN140 BKN200 M02/M02 A2994 160 96 -1800 000/00 RMK AO2 TWR VIS 1/2 VIS SW-NW 3 I1000 T10171022
14740KBDL BDL20161208073016412/08/16 07:30:31  5-MIN KBDL 081230Z 00000KT 1/2SM R06/3000VP6000FT FZFG SCT002 SCT140 BKN200 M02/M02 A2994 160 96 -1800 000/00 RMK AO2 VIS SW-NW 3 I1001 T10171022
14740KBDL BDL20161208073516212/08/16 07:35:31  5-MIN KBDL 081235Z 00000KT 3/4SM R06/3000VP6000FT BR SCT002 SCT140 BKN200 M02/M02 A2995 150 96 -1800 000/00 RMK AO2 VIS SW-NW 3 I1001 T10171022
14740KBDL BDL20161208074014512/08/16 07:40:31  5-MIN KBDL 081240Z 00000KT 3SM BR FEW002 SCT140 BKN200 M02/M03 A2994 150 92 -1800 000/00 RMK AO2 VIS NE-SE 3/4 I1001 T10171028
14740KBDL BDL20161208074515212/08/16 07:45:31  5-MIN KBDL 081245Z 00000KT 3SM BR FEW002 SCT140 BKN200 M02/M03 A2995 150 96 -1800 000/00 RMK AO2 SLP143 VIS NE-SE 3/4 I1001 T10221028
14740KBDL BDL20161208075015212/08/16 07:50:31  5-MIN KBDL 081250Z 00000KT 3SM BR FEW002 SCT120 BKN200 M02/M03 A2995 150 96 -1800 000/00 RMK AO2 SLP143 VIS NE-SE 3/4 I1001 T10221028
14740KBDL BDL20161208075512512/08/16 07:55:31  5-MIN KBDL 081255Z 00000KT 3SM BR FEW002 SCT120 BKN200 M02/M03 A2995 150 92 -1800 000/00 RMK AO2 T10171028
14740KBDL BDL20161208080012512/08/16 08:00:31  5-MIN KBDL 081300Z 00000KT 3SM BR FEW002 SCT120 BKN200 M02/M03 A2994 160 92 -1800 000/00 RMK AO2 T10171028
14740KBDL BDL20161208080512512/08/16 08:05:31  5-MIN KBDL 081305Z 00000KT 3SM BR FEW002 SCT120 BKN200 M02/M03 A2994 160 92 -1800 000/00 RMK AO2 T10171028
14740KBDL BDL20161208081014212/08/16 08:10:31  5-MIN KBDL 081310Z 00000KT 3SM R06/5500VP6000FT BR FEW002 SCT120 BKN200 M01/M02 A2994 150 92 -1700 000/00 RMK AO2 T10111022
14740KBDL BDL20161208081514212/08/16 08:15:31  5-MIN KBDL 081315Z 00000KT 3SM R06/5500VP6000FT BR FEW002 SCT120 BKN200 M01/M02 A2994 160 96 -1700 000/00 RMK AO2 T10111017
14740KBDL BDL20161208082012512/08/16 08:20:31  5-MIN KBDL 081320Z 00000KT 3SM BR FEW002 SCT120 BKN200 M01/M02 A2994 160 96 -1700 000/00 RMK AO2 T10111017
14740KBDL BDL20161208082514312/08/16 08:25:31  5-MIN KBDL 081325Z 00000KT 3SM R06/5000VP6000FT BR FEW002 SCT120 BKN200 M01/M01 A2994 160 100 -1700 000/00 RMK AO2 T10111011
14740KBDL BDL20161208083014212/08/16 08:30:31  5-MIN KBDL 081330Z 00000KT 3SM R06/4500VP6000FT BR FEW002 SCT120 BKN200 M01/M02 A2994 160 96 -1700 000/00 RMK AO2 T10111017
14740KBDL BDL20161208083514212/08/16 08:35:31  5-MIN KBDL 081335Z 00000KT 3SM R06/4500VP6000FT BR FEW002 SCT120 BKN200 M01/M02 A2994 160 96 -1700 000/00 RMK AO2 T10111017
14740KBDL BDL20161208084014212/08/16 08:40:31  5-MIN KBDL 081340Z 12003KT 3SM R06/5500VP6000FT BR FEW002 SCT120 BKN200 M01/M02 A2993 170 96 -1700 140/03 RMK AO2 T10111017
14740KBDL BDL20161208084517012/08/16 08:45:31  5-MIN KBDL 081345Z 15004KT 3SM R06/3500VP6000FT BR FEW002 SCT120 BKN150 OVC250 M01/M01 A2993 160 96 -1600 160/04 RMK AO2 SLP138 VIS NE-SE 1/2 T10061011
14740KBDL BDL20161208085017212/08/16 08:50:31  5-MIN KBDL 081350Z 14004KT 1/2SM R06/3500VP6000FT FZFG FEW002 SCT120 BKN150 OVC250 M01/M02 A2993 160 96 -1700 150/04 RMK AO2 SLP138 VIS SW-NW 3 T10111017
14740KBDL BDL20161208085514812/08/16 08:55:31  5-MIN KBDL 081355Z 14004KT 1/2SM R06/P6000FT FZFG FEW002 SCT120 BKN150 OVC250 M01/M02 A2993 160 96 -1700 160/04 RMK AO2 T10111017
14740KBDL BDL20161208090014812/08/16 09:00:31  5-MIN KBDL 081400Z 14003KT 1/2SM R06/P6000FT FZFG FEW002 SCT120 BKN150 OVC250 M01/M02 A2993 170 96 -1700 160/03 RMK AO2 T10111017
14740KBDL BDL20161208090514912/08/16 09:05:31  5-MIN KBDL 081405Z 13003KT 1/2SM R06/P6000FT FZFG FEW002 SCT120 BKN150 OVC250 M01/M01 A2993 170 100 -1700 150/03 RMK AO2 T10111011
14740KBDL BDL20161208091014812/08/16 09:10:31  5-MIN KBDL 081410Z 14003KT 1/2SM R06/P6000FT FZFG FEW002 BKN080 BKN150 OVC250 M01/M02 A2993 170 92 -1600 160/03 RMK AO2 T10061017
14740KBDL BDL20161208091514812/08/16 09:15:31  5-MIN KBDL 081415Z 15003KT 1/2SM R06/P6000FT FZFG FEW002 BKN080 BKN150 OVC250 M01/M01 A2992 170 96 -1600 160/03 RMK AO2 T10061011
14740KBDL BDL20161208092015512/08/16 09:20:31  5-MIN KBDL 081420Z 00000KT 1 1/2SM BR FEW002 BKN080 OVC250 M01/M01 A2993 170 96 -1600 000/00 RMK AO2 SFC VIS 2 VIS NW-NE 1 1/2 T10061011
14740KBDL BDL20161208092515512/08/16 09:25:31  5-MIN KBDL 081425Z 00000KT 1 1/2SM BR FEW002 BKN080 OVC250 M01/M01 A2993 170 96 -1600 000/00 RMK AO2 SFC VIS 2 VIS NW-NE 1 1/2 T10061011
14740KBDL BDL20161208093015512/08/16 09:30:31  5-MIN KBDL 081430Z 00000KT 1 1/2SM BR FEW002 BKN080 OVC250 M01/M01 A2992 170 96 -1600 000/00 RMK AO2 SFC VIS 2 VIS NW-NE 1 1/2 T10061011
14740KBDL BDL20161208093513112/08/16 09:35:31  5-MIN KBDL 081435Z 00000KT 3SM BR FEW002 BKN080 OVC150 M01/M01 A2992 170 96 -1600 000/00 RMK AO2 I1000 T10061011
14740KBDL BDL20161208094013112/08/16 09:40:31  5-MIN KBDL 081440Z 00000KT 3SM BR FEW002 BKN080 OVC150 M01/M01 A2993 170 96 -1600 000/00 RMK AO2 I1000 T10061011
14740KBDL BDL20161208094514912/08/16 09:45:31  5-MIN KBDL 081445Z 00000KT 3SM BR FEW002 BKN080 OVC150 00/M01 A2992 170 92 -1500 000/00 RMK AO2 SLP135 I1000 I3/// T00001011 56007
14740KBDL BDL20161208095015612/08/16 09:50:31  5-MIN KBDL 081450Z 00000KT 4SM BR FEW003 BKN075 OVC150 00/M01 A2992 170 92 -1500 000/00 RMK AO2 SLP134 BINOVC I1000 I3/// T00001011 56007
14740KBDL BDL20161208095512512/08/16 09:55:31  5-MIN KBDL 081455Z 00000KT 5SM BR OVC080 00/M01 A2992 180 92 -1500 000/00 RMK AO2 VIS 2 RWY 6-24 T00001011
14740KBDL BDL20161208100012912/08/16 10:00:31  5-MIN KBDL 081500Z 00000KT 5SM BR OVC080 00/M01 A2992 180 96 -1500 000/00 RMK AO2 VIS 2 1/2 RWY 6-24 T00001006
14740KBDL BDL20161208100511712/08/16 10:05:31  5-MIN KBDL 081505Z 00000KT 5SM BR BKN080 OVC095 00/M01 A2992 180 96 -1500 000/00 RMK AO2 T00001006
14740KBDL BDL20161208101011712/08/16 10:10:31  5-MIN KBDL 081510Z 17003KT 5SM BR SCT080 OVC100 00/M01 A2991 180 96 -1500 180/03 RMK AO2 T00001006
14740KBDL BDL20161208101511712/08/16 10:15:31  5-MIN KBDL 081515Z 18005KT 5SM BR BKN090 OVC110 00/M01 A2991 180 96 -1500 190/05 RMK AO2 T00001006
14740KBDL BDL20161208102011012/08/16 10:20:31  5-MIN KBDL 081520Z 17004KT 4SM BR OVC090 00/M01 A2991 190 96 -1500 190/04 RMK AO2 T00001006
14740KBDL BDL20161208102511012/08/16 10:25:31  5-MIN KBDL 081525Z 18005KT 4SM BR OVC090 00/M01 A2990 190 96 -1500 190/05 RMK AO2 T00001006
14740KBDL BDL20161208103010912/08/16 10:30:31  5-MIN KBDL 081530Z 18004KT 4SM BR BKN090 01/00 A2990 200 96 -1400 190/04 RMK AO2 T00060000
14740KBDL BDL20161208103511612/08/16 10:35:31  5-MIN KBDL 081535Z 17003KT 5SM BR BKN090 BKN110 01/00 A2989 200 96 -1400 180/03 RMK AO2 T00060000
14740KBDL BDL20161208104010912/08/16 10:40:31  5-MIN KBDL 081540Z 17003KT 5SM BR OVC090 01/00 A2989 200 96 -1400 180/03 RMK AO2 T00060000
14740KBDL BDL20161208104511612/08/16 10:45:31  5-MIN KBDL 081545Z 16003KT 6SM BR OVC095 01/00 A2989 210 92 -1300 180/03 RMK AO2 SLP122 T00110000
14740KBDL BDL20161208105013712/08/16 10:50:31  5-MIN KBDL 081550Z 17003KT 6SM BR FEW005 BKN090 OVC150 01/01 A2988 210 96 -1300 190/03 RMK AO2 SLP120 BINOVC T00110006
14740KBDL BDL20161208105510912/08/16 10:55:31  5-MIN KBDL 081555Z 18003KT 6SM BR BKN100 01/01 A2988 210 96 -1300 200/03 RMK AO2 T00110006
14740KBDL BDL20161208110010912/08/16 11:00:31  5-MIN KBDL 081600Z 18003KT 6SM BR BKN100 01/00 A2988 220 92 -1300 200/03 RMK AO2 T00110000
14740KBDL BDL20161208110510912/08/16 11:05:31  5-MIN KBDL 081605Z 00000KT 6SM BR BKN100 01/01 A2987 220 96 -1300 000/00 RMK AO2 T00110006
14740KBDL BDL20161208111010612/08/16 11:10:31  5-MIN KBDL 081610Z 20003KT 7SM BKN100 02/01 A2987 220 92 -1300 210/03 RMK AO2 T00170006
14740KBDL BDL20161208111511312/08/16 11:15:31  5-MIN KBDL 081615Z 19003KT 8SM SCT100 BKN120 02/01 A2987 220 92 -1300 210/03 RMK AO2 T00170006
14740KBDL BDL20161208112011312/08/16 11:20:31  5-MIN KBDL 081620Z 20003KT 8SM SCT100 BKN120 02/01 A2987 220 92 -1300 210/03 RMK AO2 T00170006
14740KBDL BDL20161208112511312/08/16 11:25:31  5-MIN KBDL 081625Z 21004KT 8SM BKN100 BKN120 02/01 A2987 220 89 -1200 220/04 RMK AO2 T00220006
14740KBDL BDL20161208113011312/08/16 11:30:31  5-MIN KBDL 081630Z 22004KT 8SM BKN100 BKN120 02/01 A2987 230 89 -1200 230/04 RMK AO2 T00220006
14740KBDL BDL20161208113511312/08/16 11:35:31  5-MIN KBDL 081635Z 22003KT 9SM BKN100 BKN120 03/01 A2987 220 85 -1100 230/03 RMK AO2 T00280006
14740KBDL BDL20161208114011312/08/16 11:40:31  5-MIN KBDL 081640Z 23004KT 9SM BKN100 BKN120 03/01 A2986 230 85 -1100 240/04 RMK AO2 T00280006
14740KBDL BDL20161208114512012/08/16 11:45:31  5-MIN KBDL 081645Z 23003KT 9SM BKN100 OVC120 03/01 A2986 230 85 -1100 250/03 RMK AO2 SLP113 T00280006
14740KBDL BDL20161208115013512/08/16 11:50:31  5-MIN KBDL 081650Z 22004KT 10SM BKN100 BKN120 OVC150 03/01 A2986 240 85 -1100 230/04 RMK AO2 SLP112 BINOVC T00280006
14740KBDL BDL20161208115510712/08/16 11:55:31  5-MIN KBDL 081655Z 22004KT 10SM OVC100 03/01 A2985 240 82 -1000 230/04 RMK AO2 T00330006
14740KBDL BDL20161208120010712/08/16 12:00:31  5-MIN KBDL 081700Z 21004KT 10SM OVC100 03/01 A2985 240 82 -1000 220/04 RMK AO2 T00330006
14740KBDL BDL20161208120510712/08/16 12:05:31  5-MIN KBDL 081705Z 22005KT 10SM OVC100 03/01 A2985 250 82 -1000 230/05 RMK AO2 T00330006
14740KBDL BDL20161208121010612/08/16 12:10:31  5-MIN KBDL 081710Z 21005KT 10SM OVC100 04/01 A2984 250 79 -900 220/05 RMK AO2 T00390006
14740KBDL BDL20161208121510612/08/16 12:15:31  5-MIN KBDL 081715Z 20005KT 10SM OVC100 04/01 A2984 250 79 -900 220/05 RMK AO2 T00390006
14740KBDL BDL20161208122010612/08/16 12:20:31  5-MIN KBDL 081720Z 20004KT 10SM BKN100 04/01 A2984 250 79 -900 220/04 RMK AO2 T00390006
14740KBDL BDL20161208122510612/08/16 12:25:31  5-MIN KBDL 081725Z 20004KT 10SM BKN100 04/01 A2983 260 79 -900 220/04 RMK AO2 T00390006
14740KBDL BDL20161208123010612/08/16 12:30:31  5-MIN KBDL 081730Z 20005KT 10SM SCT100 04/01 A2983 260 76 -900 220/05 RMK AO2 T00440006
14740KBDL BDL20161208123510612/08/16 12:35:31  5-MIN KBDL 081735Z 21005KT 10SM FEW100 04/01 A2983 260 76 -900 230/05 RMK AO2 T00440006
14740KBDL BDL20161208124010612/08/16 12:40:31  5-MIN KBDL 081740Z 22006KT 10SM FEW100 04/01 A2982 270 76 -900 240/06 RMK AO2 T00440006
14740KBDL BDL20161208124513412/08/16 12:45:31  5-MIN KBDL 081745Z 20005KT 10SM CLR 05/00 A2982 270 70 -800 220/05 RMK AO2 SLP100 I6001 T00500000 10050 21022 58008
14740KBDL BDL20161208125015812/08/16 12:50:31  5-MIN KBDL 081750Z 21005KT 10SM FEW012 FEW100 BKN140 BKN200 04/00 A2982 270 73 -900 220/05 RMK AO2 SLP099 I6001 T00440000 10050 21022 58008
14740KBDL BDL20161208125510712/08/16 12:55:31  5-MIN KBDL 081755Z 19003KT 10SM FEW110 05/M01 A2982 270 67 -800 210/03 RMK AO2 T00501006
14740KBDL BDL20161208130010612/08/16 13:00:31  5-MIN KBDL 081800Z 23005KT 10SM FEW110 05/00 A2982 270 70 -800 240/05 RMK AO2 T00500000
14740KBDL BDL20161208130510712/08/16 13:05:31  5-MIN KBDL 081805Z 25005KT 10SM FEW110 05/M01 A2982 270 67 -800 270/05 RMK AO2 T00501006
14740KBDL BDL20161208131010712/08/16 13:10:31  5-MIN KBDL 081810Z 23006KT 10SM FEW110 06/M01 A2982 270 65 -700 250/06 RMK AO2 T00561006
14740KBDL BDL20161208131510712/08/16 13:15:31  5-MIN KBDL 081815Z 22007KT 10SM FEW120 06/M01 A2982 270 65 -700 230/07 RMK AO2 T00561006
14740KBDL BDL20161208132010712/08/16 13:20:31  5-MIN KBDL 081820Z 24007KT 10SM FEW120 06/M01 A2982 270 62 -700 250/07 RMK AO2 T00561011
14740KBDL BDL20161208132510712/08/16 13:25:31  5-MIN KBDL 081825Z 24007KT 10SM FEW120 06/M01 A2982 270 65 -700 250/07 RMK AO2 T00561006
14740KBDL BDL20161208133010712/08/16 13:30:31  5-MIN KBDL 081830Z 23007KT 10SM FEW120 06/M01 A2982 270 62 -700 250/07 RMK AO2 T00561011
14740KBDL BDL20161208133510712/08/16 13:35:31  5-MIN KBDL 081835Z 24006KT 10SM FEW120 06/M01 A2982 270 62 -700 250/06 RMK AO2 T00561011
14740KBDL BDL20161208134010712/08/16 13:40:31  5-MIN KBDL 081840Z 24007KT 10SM FEW120 06/M01 A2982 270 62 -700 250/07 RMK AO2 T00561011
14740KBDL BDL20161208134511112/08/16 13:45:31  5-MIN KBDL 081845Z 24006KT 10SM CLR 06/M01 A2982 270 62 -700 250/06 RMK AO2 SLP098 T00561011
14740KBDL BDL20161208135013512/08/16 13:50:31  5-MIN KBDL 081850Z 25006KT 10SM FEW020 FEW120 BKN140 BKN200 06/M01 A2981 280 62 -700 270/06 RMK AO2 SLP097 T00561011
14740KBDL BDL20161208135510412/08/16 13:55:31  5-MIN KBDL 081855Z 24005KT 10SM CLR 06/M01 A2981 270 62 -700 260/05 RMK AO2 T00561011
14740KBDL BDL20161208140010412/08/16 14:00:31  5-MIN KBDL 081900Z 26006KT 10SM CLR 06/M02 A2981 270 57 -600 280/06 RMK AO2 T00611017
14740KBDL BDL20161208140510412/08/16 14:05:31  5-MIN KBDL 081905Z 26009KT 10SM CLR 07/M02 A2981 280 53 -600 280/09 RMK AO2 T00671022
14740KBDL BDL20161208141010412/08/16 14:10:31  5-MIN KBDL 081910Z 28008KT 10SM CLR 06/M03 A2981 270 51 -600 290/08 RMK AO2 T00611033
14740KBDL BDL20161208141510412/08/16 14:15:31  5-MIN KBDL 081915Z 29008KT 10SM CLR 06/M03 A2981 270 51 -600 300/08 RMK AO2 T00611033
14740KBDL BDL20161208142010412/08/16 14:20:31  5-MIN KBDL 081920Z 27011KT 10SM CLR 06/M03 A2981 280 53 -700 280/11 RMK AO2 T00561033
14740KBDL BDL20161208142510412/08/16 14:25:31  5-MIN KBDL 081925Z 26009KT 10SM CLR 06/M03 A2981 280 53 -700 270/09 RMK AO2 T00561033
14740KBDL BDL20161208143010412/08/16 14:30:31  5-MIN KBDL 081930Z 25009KT 10SM CLR 06/M03 A2982 270 53 -700 260/09 RMK AO2 T00561033
14740KBDL BDL20161208143510412/08/16 14:35:31  5-MIN KBDL 081935Z 25010KT 10SM CLR 06/M03 A2982 270 53 -700 260/10 RMK AO2 T00561033
14740KBDL BDL20161208144010712/08/16 14:40:31  5-MIN KBDL 081940Z 25010KT 10SM FEW120 06/M03 A2982 270 53 -700 260/10 RMK AO2 T00561033
14740KBDL BDL20161208144511412/08/16 14:45:31  5-MIN KBDL 081945Z 25009KT 10SM SCT110 06/M03 A2982 270 53 -700 260/09 RMK AO2 SLP099 T00561033
14740KBDL BDL20161208145011412/08/16 14:50:31  5-MIN KBDL 081950Z 25009KT 10SM SCT110 06/M04 A2982 270 50 -700 270/09 RMK AO2 SLP099 T00561039
14740KBDL BDL20161208145510712/08/16 14:55:31  5-MIN KBDL 081955Z 25010KT 10SM BKN120 06/M04 A2982 270 50 -700 270/10 RMK AO2 T00561039
14740KBDL BDL20161208150010712/08/16 15:00:31  5-MIN KBDL 082000Z 26009KT 10SM BKN120 06/M04 A2982 270 50 -700 270/09 RMK AO2 T00561039
14740KBDL BDL20161208150510712/08/16 15:05:31  5-MIN KBDL 082005Z 26008KT 10SM BKN120 06/M04 A2982 270 50 -700 270/08 RMK AO2 T00561039
14740KBDL BDL20161208151011412/08/16 15:10:31  5-MIN KBDL 082010Z 25008KT 10SM FEW060 BKN120 06/M04 A2982 270 48 -600 270/08 RMK AO2 T00611039
14740KBDL BDL20161208151511412/08/16 15:15:31  5-MIN KBDL 082015Z 26009KT 10SM SCT060 BKN110 06/M04 A2982 270 50 -700 270/09 RMK AO2 T00561039
14740KBDL BDL20161208152011412/08/16 15:20:31  5-MIN KBDL 082020Z 25009KT 10SM SCT060 BKN120 06/M04 A2982 270 50 -700 260/09 RMK AO2 T00561039
14740KBDL BDL20161208152511412/08/16 15:25:31  5-MIN KBDL 082025Z 25008KT 10SM BKN060 BKN120 06/M04 A2982 270 50 -700 260/08 RMK AO2 T00561039
14740KBDL BDL20161208153011412/08/16 15:30:31  5-MIN KBDL 082030Z 26007KT 10SM BKN065 BKN120 05/M04 A2982 270 52 -800 270/07 RMK AO2 T00501039
14740KBDL BDL20161208153511412/08/16 15:35:31  5-MIN KBDL 082035Z 25008KT 10SM SCT048 OVC065 06/M03 A2983 260 53 -700 270/08 RMK AO2 T00561033
14740KBDL BDL20161208154011412/08/16 15:40:31  5-MIN KBDL 082040Z 27007KT 10SM SCT048 OVC065 06/M03 A2983 260 53 -700 280/07 RMK AO2 T00561033
14740KBDL BDL20161208154513312/08/16 15:45:31  5-MIN KBDL 082045Z 32014G19KT 10SM BKN046 OVC065 05/M03 A2984 250 55 -800 340/14G19 RMK AO2 SLP105 T00501033 56035
14740KBDL BDL20161208155014012/08/16 15:50:31  5-MIN KBDL 082050Z 31012G20KT 10SM FEW033 BKN043 OVC065 04/M02 A2984 250 67 -900 330/12G20 RMK AO2 SLP105 T00391017 56035
14740KBDL BDL20161208155512812/08/16 15:55:31  5-MIN KBDL 082055Z 32011G20KT 10SM FEW033 BKN047 OVC060 03/M02 A2984 250 70 -1000 330/11G20 RMK AO2 T00331017
14740KBDL BDL20161208160011512/08/16 16:00:31  5-MIN KBDL 082100Z 31012KT 10SM BKN045 BKN055 03/M02 A2984 250 67 -1000 320/12 RMK AO2 T00331022
14740KBDL BDL20161208160511512/08/16 16:05:31  5-MIN KBDL 082105Z 30011KT 10SM SCT043 BKN055 03/M02 A2984 250 67 -1000 310/11 RMK AO2 T00331022
14740KBDL BDL20161208161011512/08/16 16:10:31  5-MIN KBDL 082110Z 29010KT 10SM FEW043 BKN060 03/M02 A2984 250 67 -1000 310/10 RMK AO2 T00331022
14740KBDL BDL20161208161511512/08/16 16:15:31  5-MIN KBDL 082115Z 28008KT 10SM SCT043 BKN060 03/M02 A2984 250 67 -1000 290/08 RMK AO2 T00331022
14740KBDL BDL20161208162011512/08/16 16:20:31  5-MIN KBDL 082120Z 27007KT 10SM SCT045 BKN055 03/M03 A2984 250 64 -1000 290/07 RMK AO2 T00331028
14740KBDL BDL20161208162511512/08/16 16:25:31  5-MIN KBDL 082125Z 27006KT 10SM FEW045 BKN060 03/M03 A2984 250 67 -1100 280/06 RMK AO2 T00281028
14740KBDL BDL20161208163011512/08/16 16:30:31  5-MIN KBDL 082130Z 26007KT 10SM FEW045 SCT060 03/M03 A2984 250 64 -1100 280/07 RMK AO2 T00281033
14740KBDL BDL20161208163511512/08/16 16:35:31  5-MIN KBDL 082135Z 25008KT 10SM FEW045 SCT060 02/M03 A2984 250 67 -1200 270/08 RMK AO2 T00221033
14740KBDL BDL20161208164011512/08/16 16:40:31  5-MIN KBDL 082140Z 25008KT 10SM FEW048 SCT060 02/M03 A2984 250 67 -1200 270/08 RMK AO2 T00221033
14740KBDL BDL20161208164511512/08/16 16:45:31  5-MIN KBDL 082145Z 26007KT 10SM FEW050 02/M03 A2984 250 67 -1200 270/07 RMK AO2 SLP106 T00221033
14740KBDL BDL20161208165011212/08/16 16:50:31  5-MIN KBDL 082150Z 26006KT 10SM CLR 02/M04 A2984 250 66 -1200 270/06 RMK AO2 SLP107 T00171039
14740KBDL BDL20161208165510512/08/16 16:55:31  5-MIN KBDL 082155Z 26007KT 10SM CLR 02/M04 A2984 250 64 -1200 270/07 RMK AO2 T00221039
14740KBDL BDL20161208170010512/08/16 17:00:31  5-MIN KBDL 082200Z 26007KT 10SM CLR 01/M04 A2985 250 69 -1300 270/07 RMK AO2 T00111039
14740KBDL BDL20161208170510512/08/16 17:05:31  5-MIN KBDL 082205Z 27007KT 10SM CLR 01/M04 A2985 240 69 -1300 280/07 RMK AO2 T00111039
14740KBDL BDL20161208171010512/08/16 17:10:31  5-MIN KBDL 082210Z 26007KT 10SM CLR 02/M04 A2985 240 66 -1200 280/07 RMK AO2 T00171039
14740KBDL BDL20161208171510512/08/16 17:15:31  5-MIN KBDL 082215Z 26007KT 10SM CLR 02/M04 A2985 240 66 -1200 270/07 RMK AO2 T00171039
14740KBDL BDL20161208172010512/08/16 17:20:31  5-MIN KBDL 082220Z 26007KT 10SM CLR 01/M04 A2985 240 69 -1300 280/07 RMK AO2 T00111039
14740KBDL BDL20161208172510812/08/16 17:25:31  5-MIN KBDL 082225Z 26007KT 10SM FEW080 02/M04 A2985 240 66 -1200 270/07 RMK AO2 T00171039
14740KBDL BDL20161208173010812/08/16 17:30:31  5-MIN KBDL 082230Z 27007KT 10SM FEW080 01/M04 A2985 240 69 -1300 280/07 RMK AO2 T00111039
14740KBDL BDL20161208173510812/08/16 17:35:31  5-MIN KBDL 082235Z 28007KT 10SM SCT075 02/M04 A2986 240 64 -1200 290/07 RMK AO2 T00171044
14740KBDL BDL20161208174010812/08/16 17:40:31  5-MIN KBDL 082240Z 27007KT 10SM FEW080 02/M04 A2986 230 64 -1200 280/07 RMK AO2 T00171044
14740KBDL BDL20161208174511512/08/16 17:45:31  5-MIN KBDL 082245Z 28006KT 10SM FEW080 02/M04 A2986 230 64 -1200 290/06 RMK AO2 SLP113 T00171044
14740KBDL BDL20161208175011512/08/16 17:50:31  5-MIN KBDL 082250Z 28006KT 10SM FEW080 01/M04 A2986 230 66 -1300 300/06 RMK AO2 SLP113 T00111044
14740KBDL BDL20161208175510812/08/16 17:55:31  5-MIN KBDL 082255Z 28006KT 10SM FEW075 01/M05 A2986 230 64 -1300 300/06 RMK AO2 T00111050
14740KBDL BDL20161208180010812/08/16 18:00:31  5-MIN KBDL 082300Z 28005KT 10SM FEW075 02/M05 A2987 230 61 -1300 300/05 RMK AO2 T00171050
14740KBDL BDL20161208180510512/08/16 18:05:31  5-MIN KBDL 082305Z 30003KT 10SM CLR 01/M04 A2987 230 66 -1300 310/03 RMK AO2 T00111044
14740KBDL BDL20161208181010512/08/16 18:10:31  5-MIN KBDL 082310Z 33003KT 10SM CLR 01/M04 A2987 230 66 -1300 340/03 RMK AO2 T00111044
14740KBDL BDL20161208181510512/08/16 18:15:31  5-MIN KBDL 082315Z 34003KT 10SM CLR 02/M04 A2987 220 64 -1300 350/03 RMK AO2 T00171044
14740KBDL BDL20161208182010512/08/16 18:20:31  5-MIN KBDL 082320Z 35003KT 10SM CLR 02/M04 A2987 220 64 -1300 360/03 RMK AO2 T00171044
14740KBDL BDL20161208182510512/08/16 18:25:31  5-MIN KBDL 082325Z VRB05KT 10SM CLR 01/M05 A2987 220 64 -1300 VRB/05 RMK AO2 T00111050
14740KBDL BDL20161208183010512/08/16 18:30:31  5-MIN KBDL 082330Z 32004KT 10SM CLR 01/M04 A2987 220 66 -1300 340/04 RMK AO2 T00111044
14740KBDL BDL20161208183510512/08/16 18:35:31  5-MIN KBDL 082335Z 33004KT 10SM CLR 01/M04 A2987 220 66 -1300 340/04 RMK AO2 T00111044
14740KBDL BDL20161208184010512/08/16 18:40:31  5-MIN KBDL 082340Z 33004KT 10SM CLR 01/M04 A2988 220 69 -1400 340/04 RMK AO2 T00061044
14740KBDL BDL20161208184513012/08/16 18:45:31  5-MIN KBDL 082345Z 33004KT 10SM CLR 01/M04 A2987 220 69 -1400 340/04 RMK AO2 SLP118 T00061044 10067 20006 53006
14740KBDL BDL20161208185013012/08/16 18:50:31  5-MIN KBDL 082350Z 32004KT 10SM CLR 01/M04 A2987 220 69 -1400 330/04 RMK AO2 SLP118 T00061044 10067 20006 53006
14740KBDL BDL20161208185510512/08/16 18:55:31  5-MIN KBDL 082355Z 30003KT 10SM CLR 01/M04 A2988 220 66 -1300 320/03 RMK AO2 T00111044
14740KBDL BDL20161208190010512/08/16 19:00:31  5-MIN KBDL 090000Z 28004KT 10SM CLR 01/M04 A2988 220 69 -1400 300/04 RMK AO2 T00061044
14740KBDL BDL20161208190510512/08/16 19:05:31  5-MIN KBDL 090005Z 26005KT 10SM CLR 00/M04 A2988 220 72 -1500 270/05 RMK AO2 T00001044
14740KBDL BDL20161208191010512/08/16 19:10:31  5-MIN KBDL 090010Z 27004KT 10SM CLR 01/M04 A2988 210 69 -1400 280/04 RMK AO2 T00061044
14740KBDL BDL20161208191510512/08/16 19:15:31  5-MIN KBDL 090015Z 27005KT 10SM CLR 01/M04 A2988 210 69 -1400 280/05 RMK AO2 T00061044
14740KBDL BDL20161208192010512/08/16 19:20:31  5-MIN KBDL 090020Z 28004KT 10SM CLR 01/M04 A2988 210 69 -1400 290/04 RMK AO2 T00061044
14740KBDL BDL20161208192510812/08/16 19:25:31  5-MIN KBDL 090025Z 27004KT 10SM FEW039 01/M04 A2989 210 72 -1400 290/04 RMK AO2 T00061039
14740KBDL BDL20161208193010812/08/16 19:30:31  5-MIN KBDL 090030Z 00000KT 10SM SCT039 01/M04 A2989 210 69 -1400 000/00 RMK AO2 T00061044
14740KBDL BDL20161208193511512/08/16 19:35:31  5-MIN KBDL 090035Z VRB06KT 10SM FEW039 SCT080 01/M04 A2989 210 66 -1300 VRB/06 RMK AO2 T00111044
14740KBDL BDL20161208194012812/08/16 19:40:31  5-MIN KBDL 090040Z 29011G18KT 10SM FEW039 SCT055 SCT080 01/M04 A2989 210 66 -1300 310/11G18 RMK AO2 T00111044
14740KBDL BDL20161208194512912/08/16 19:45:31  5-MIN KBDL 090045Z 29011KT 10SM FEW039 FEW055 SCT080 02/M05 A2988 210 61 -1300 310/11 RMK AO2 SLP121 T00171050
14740KBDL BDL20161208195012212/08/16 19:50:31  5-MIN KBDL 090050Z 29010KT 10SM FEW039 FEW080 02/M05 A2988 210 61 -1300 300/10 RMK AO2 SLP121 T00171050
14740KBDL BDL20161208195511512/08/16 19:55:31  5-MIN KBDL 090055Z 28011KT 10SM FEW039 FEW080 01/M06 A2989 210 61 -1300 290/11 RMK AO2 T00111056
14740KBDL BDL20161208200011412/08/16 20:00:31  5-MIN KBDL 090100Z 28012G16KT 10SM FEW080 01/M06 A2988 210 61 -1300 300/12G16 RMK AO2 T00111056
14740KBDL BDL20161208200510812/08/16 20:05:31  5-MIN KBDL 090105Z 29012KT 10SM FEW080 01/M06 A2989 210 61 -1300 310/12 RMK AO2 T00111056
14740KBDL BDL20161208201011412/08/16 20:10:31  5-MIN KBDL 090110Z 29011G20KT 10SM FEW080 01/M06 A2989 210 58 -1300 300/11G20 RMK AO2 T00111061
14740KBDL BDL20161208201511412/08/16 20:15:31  5-MIN KBDL 090115Z 30012G20KT 10SM FEW080 02/M06 A2989 200 56 -1300 310/12G20 RMK AO2 T00171061
14740KBDL BDL20161208202011412/08/16 20:20:31  5-MIN KBDL 090120Z 30011G19KT 10SM FEW080 01/M07 A2989 200 56 -1400 310/11G19 RMK AO2 T00111067
14740KBDL BDL20161208202510812/08/16 20:25:31  5-MIN KBDL 090125Z 30011KT 10SM FEW080 01/M07 A2989 200 56 -1400 320/11 RMK AO2 T00111067
14740KBDL BDL20161208203011112/08/16 20:30:31  5-MIN KBDL 090130Z 29011G18KT 10SM CLR 01/M07 A2989 200 56 -1400 310/11G18 RMK AO2 T00111067
14740KBDL BDL20161208203510512/08/16 20:35:31  5-MIN KBDL 090135Z 29014KT 10SM CLR 01/M07 A2989 200 54 -1400 310/14 RMK AO2 T00111072
14740KBDL BDL20161208204010512/08/16 20:40:31  5-MIN KBDL 090140Z 29011KT 10SM CLR 01/M07 A2989 200 54 -1400 300/11 RMK AO2 T00111072
14740KBDL BDL20161208204511212/08/16 20:45:31  5-MIN KBDL 090145Z 29011KT 10SM CLR 01/M07 A2989 200 54 -1400 300/11 RMK AO2 SLP123 T00111072
14740KBDL BDL20161208205011812/08/16 20:50:31  5-MIN KBDL 090150Z 30011G18KT 10SM CLR 01/M07 A2989 200 54 -1400 320/11G18 RMK AO2 SLP124 T00111072
14740KBDL BDL20161208205510512/08/16 20:55:31  5-MIN KBDL 090155Z 30010KT 10SM CLR 01/M07 A2989 200 54 -1400 320/10 RMK AO2 T00111072
14740KBDL BDL20161208210010512/08/16 21:00:31  5-MIN KBDL 090200Z 29010KT 10SM CLR 01/M07 A2989 200 56 -1400 310/10 RMK AO2 T00061072
14740KBDL BDL20161208210510512/08/16 21:05:31  5-MIN KBDL 090205Z 30011KT 10SM CLR 01/M07 A2989 200 56 -1400 310/11 RMK AO2 T00061072
14740KBDL BDL20161208211010512/08/16 21:10:31  5-MIN KBDL 090210Z 29009KT 10SM CLR 01/M07 A2990 200 56 -1400 310/09 RMK AO2 T00061072
14740KBDL BDL20161208211510512/08/16 21:15:31  5-MIN KBDL 090215Z 30008KT 10SM CLR 01/M08 A2990 200 54 -1400 320/08 RMK AO2 T00061078
14740KBDL BDL20161208212010512/08/16 21:20:31  5-MIN KBDL 090220Z 30009KT 10SM CLR 00/M08 A2990 200 56 -1500 310/09 RMK AO2 T00001078
14740KBDL BDL20161208212510512/08/16 21:25:31  5-MIN KBDL 090225Z 30007KT 10SM CLR 01/M08 A2990 200 54 -1400 310/07 RMK AO2 T00061078
14740KBDL BDL20161208213010512/08/16 21:30:31  5-MIN KBDL 090230Z 29007KT 10SM CLR 01/M08 A2990 200 54 -1400 300/07 RMK AO2 T00061078
14740KBDL BDL20161208213510512/08/16 21:35:31  5-MIN KBDL 090235Z 28005KT 10SM CLR 00/M08 A2990 200 56 -1500 290/05 RMK AO2 T00001078
14740KBDL BDL20161208214010512/08/16 21:40:31  5-MIN KBDL 090240Z 29005KT 10SM CLR 00/M08 A2990 200 56 -1500 300/05 RMK AO2 T00001078
14740KBDL BDL20161208214511812/08/16 21:45:31  5-MIN KBDL 090245Z 27005KT 10SM CLR 00/M08 A2990 190 56 -1500 280/05 RMK AO2 SLP127 T00001078 53013
14740KBDL BDL20161208215011812/08/16 21:50:31  5-MIN KBDL 090250Z 29006KT 10SM CLR 00/M08 A2990 200 56 -1500 300/06 RMK AO2 SLP126 T00001078 53013
14740KBDL BDL20161208215510512/08/16 21:55:31  5-MIN KBDL 090255Z 28005KT 10SM CLR 00/M08 A2990 190 56 -1500 290/05 RMK AO2 T00001078
14740KBDL BDL20161208220010512/08/16 22:00:31  5-MIN KBDL 090300Z 29005KT 10SM CLR 00/M08 A2990 190 56 -1500 310/05 RMK AO2 T00001078
14740KBDL BDL20161208220510512/08/16 22:05:31  5-MIN KBDL 090305Z 29008KT 10SM CLR 01/M08 A2990 190 54 -1400 300/08 RMK AO2 T00061078
14740KBDL BDL20161208221010512/08/16 22:10:31  5-MIN KBDL 090310Z 29008KT 10SM CLR 01/M08 A2990 190 54 -1400 310/08 RMK AO2 T00061078
14740KBDL BDL20161208221510512/08/16 22:15:31  5-MIN KBDL 090315Z 29007KT 10SM CLR 00/M08 A2991 190 56 -1500 300/07 RMK AO2 T00001078
14740KBDL BDL20161208222010512/08/16 22:20:31  5-MIN KBDL 090320Z 28007KT 10SM CLR 00/M08 A2991 190 56 -1500 300/07 RMK AO2 T00001078
14740KBDL BDL20161208222511112/08/16 22:25:31  5-MIN KBDL 090325Z 30011G18KT 10SM CLR 01/M08 A2991 190 51 -1400 310/11G18 RMK AO2 T00061083
14740KBDL BDL20161208223011112/08/16 22:30:31  5-MIN KBDL 090330Z 30014G19KT 10SM CLR 01/M08 A2991 190 51 -1400 310/14G19 RMK AO2 T00061083
14740KBDL BDL20161208223510512/08/16 22:35:31  5-MIN KBDL 090335Z 30013KT 10SM CLR 01/M08 A2991 190 51 -1400 310/13 RMK AO2 T00061083
14740KBDL BDL20161208224011112/08/16 22:40:31  5-MIN KBDL 090340Z 28012G20KT 10SM CLR 00/M08 A2991 190 53 -1500 300/12G20 RMK AO2 T00001083
14740KBDL BDL20161208224511212/08/16 22:45:31  5-MIN KBDL 090345Z 29012KT 10SM CLR 01/M08 A2991 190 51 -1400 300/12 RMK AO2 SLP130 T00061083
14740KBDL BDL20161208225012212/08/16 22:50:31  5-MIN KBDL 090350Z 28013KT 10SM FEW045 FEW070 01/M08 A2991 180 51 -1400 300/13 RMK AO2 SLP130 T00061083
14740KBDL BDL20161208225510512/08/16 22:55:31  5-MIN KBDL 090355Z 27010KT 10SM CLR 01/M08 A2991 190 51 -1400 280/10 RMK AO2 T00061083
14740KBDL BDL20161208230010512/08/16 23:00:31  5-MIN KBDL 090400Z 27010KT 10SM CLR 00/M08 A2991 190 53 -1500 280/10 RMK AO2 T00001083
14740KBDL BDL20161208230510512/08/16 23:05:31  5-MIN KBDL 090405Z 27011KT 10SM CLR 00/M08 A2990 190 53 -1500 280/11 RMK AO2 T00001083
14740KBDL BDL20161208231010512/08/16 23:10:31  5-MIN KBDL 090410Z 26011KT 10SM CLR 00/M08 A2990 190 53 -1500 270/11 RMK AO2 T00001083
14740KBDL BDL20161208231510512/08/16 23:15:31  5-MIN KBDL 090415Z 26012KT 10SM CLR 00/M08 A2990 190 53 -1500 270/12 RMK AO2 T00001083
14740KBDL BDL20161208232010512/08/16 23:20:31  5-MIN KBDL 090420Z 26010KT 10SM CLR 00/M08 A2990 190 56 -1500 270/10 RMK AO2 T00001078
14740KBDL BDL20161208232510612/08/16 23:25:31  5-MIN KBDL 090425Z 25010KT 10SM CLR M01/M08 A2990 200 58 -1600 270/10 RMK AO2 T10061078
14740KBDL BDL20161208233010612/08/16 23:30:31  5-MIN KBDL 090430Z 25009KT 10SM CLR M01/M08 A2990 200 58 -1600 270/09 RMK AO2 T10061078
14740KBDL BDL20161208233510612/08/16 23:35:31  5-MIN KBDL 090435Z 26008KT 10SM CLR M01/M08 A2990 200 58 -1600 270/08 RMK AO2 T10061078
14740KBDL BDL20161208234010612/08/16 23:40:31  5-MIN KBDL 090440Z 25007KT 10SM CLR M01/M08 A2990 200 58 -1600 270/07 RMK AO2 T10061078
14740KBDL BDL20161208234512312/08/16 23:45:31  5-MIN KBDL 090445Z 26008KT 10SM CLR M01/M08 A2990 200 58 -1600 270/08 RMK AO2 SLP126 T10061078 400671028
14740KBDL BDL20161208235012612/08/16 23:50:31  5-MIN KBDL 090450Z 25006KT 10SM FEW065 M01/M08 A2990 200 60 -1600 270/06 RMK AO2 SLP125 T10111078 400671028
14740KBDL BDL20161208235510612/08/16 23:55:31  5-MIN KBDL 090455Z 25006KT 10SM CLR M01/M08 A2990 200 60 -1600 270/06 RMK AO2 T10111078
14740KBDL BDL20161209000010612/09/16 00:00:31  5-MIN KBDL 090500Z 25006KT 10SM CLR M02/M08 A2990 200 63 -1700 260/06 RMK AO2 T10171078
14740KBDL BDL20161209000510612/09/16 00:05:31  5-MIN KBDL 090505Z 24006KT 10SM CLR M02/M08 A2990 200 63 -1700 260/06 RMK AO2 T10171078
14740KBDL BDL20161209001010612/09/16 00:10:31  5-MIN KBDL 090510Z 24005KT 10SM CLR M02/M08 A2990 200 66 -1800 250/05 RMK AO2 T10221078
14740KBDL BDL20161209001510612/09/16 00:15:31  5-MIN KBDL 090515Z 24006KT 10SM CLR M02/M08 A2990 200 63 -1700 260/06 RMK AO2 T10171078
14740KBDL BDL20161209002010612/09/16 00:20:31  5-MIN KBDL 090520Z 23005KT 10SM CLR M02/M08 A2990 200 63 -1700 250/05 RMK AO2 T10171078
14740KBDL BDL20161209002510612/09/16 00:25:31  5-MIN KBDL 090525Z 22005KT 10SM CLR M02/M08 A2990 200 63 -1700 240/05 RMK AO2 T10171078
14740KBDL BDL20161209003010612/09/16 00:30:31  5-MIN KBDL 090530Z 22005KT 10SM CLR M01/M08 A2990 200 60 -1600 240/05 RMK AO2 T10111078
14740KBDL BDL20161209003510612/09/16 00:35:31  5-MIN KBDL 090535Z 21005KT 10SM CLR M02/M08 A2990 200 63 -1700 230/05 RMK AO2 T10171078
14740KBDL BDL20161209004010612/09/16 00:40:31  5-MIN KBDL 090540Z 22005KT 10SM CLR M02/M08 A2990 200 63 -1700 230/05 RMK AO2 T10171078
14740KBDL BDL20161209004513112/09/16 00:45:31  5-MIN KBDL 090545Z 22005KT 10SM CLR M02/M08 A2990 200 63 -1700 230/05 RMK AO2 SLP125 T10171078 10017 21022 51009
14740KBDL BDL20161209005013412/09/16 00:50:31  5-MIN KBDL 090550Z 21006KT 10SM FEW065 M02/M08 A2990 200 63 -1700 230/06 RMK AO2 SLP125 T10171078 10017 21022 51009
14740KBDL BDL20161209005510612/09/16 00:55:31  5-MIN KBDL 090555Z 22005KT 10SM CLR M02/M08 A2990 200 66 -1800 230/05 RMK AO2 T10221078
14740KBDL BDL20161209010010612/09/16 01:00:31  5-MIN KBDL 090600Z 22005KT 10SM CLR M02/M07 A2990 200 69 -1800 230/05 RMK AO2 T10221072
14740KBDL BDL20161209010510612/09/16 01:05:31  5-MIN KBDL 090605Z 21004KT 10SM CLR M02/M08 A2990 200 66 -1800 230/04 RMK AO2 T10221078
14740KBDL BDL20161209011010612/09/16 01:10:31  5-MIN KBDL 090610Z 21004KT 10SM CLR M03/M08 A2990 200 68 -1900 230/04 RMK AO2 T10281078
14740KBDL BDL20161209011510612/09/16 01:15:31  5-MIN KBDL 090615Z 21004KT 10SM CLR M02/M07 A2989 200 66 -1700 220/04 RMK AO2 T10171072
14740KBDL BDL20161209012010612/09/16 01:20:31  5-MIN KBDL 090620Z 21004KT 10SM CLR M02/M08 A2990 200 66 -1800 220/04 RMK AO2 T10221078
14740KBDL BDL20161209012510612/09/16 01:25:31  5-MIN KBDL 090625Z 20005KT 10SM CLR M02/M08 A2990 200 66 -1800 210/05 RMK AO2 T10221078
14740KBDL BDL20161209013010612/09/16 01:30:31  5-MIN KBDL 090630Z 20005KT 10SM CLR M03/M08 A2990 190 68 -1900 210/05 RMK AO2 T10281078
14740KBDL BDL20161209013510612/09/16 01:35:31  5-MIN KBDL 090635Z 19005KT 10SM CLR M03/M08 A2991 190 68 -1900 200/05 RMK AO2 T10281078
14740KBDL BDL20161209014010612/09/16 01:40:31  5-MIN KBDL 090640Z 19004KT 10SM CLR M03/M08 A2991 190 68 -1900 200/04 RMK AO2 T10281078
14740KBDL BDL20161209014511312/09/16 01:45:31  5-MIN KBDL 090645Z 20004KT 10SM CLR M03/M08 A2991 190 68 -1900 220/04 RMK AO2 SLP130 T10281078
14740KBDL BDL20161209015011312/09/16 01:50:31  5-MIN KBDL 090650Z 21003KT 10SM CLR M02/M08 A2991 180 66 -1800 230/03 RMK AO2 SLP130 T10221078
14740KBDL BDL20161209015510612/09/16 01:55:31  5-MIN KBDL 090655Z 22004KT 10SM CLR M02/M08 A2991 180 63 -1700 230/04 RMK AO2 T10171078
14740KBDL BDL20161209020010612/09/16 02:00:31  5-MIN KBDL 090700Z 24004KT 10SM CLR M02/M08 A2991 180 63 -1700 250/04 RMK AO2 T10171078
14740KBDL BDL20161209020510612/09/16 02:05:31  5-MIN KBDL 090705Z 25003KT 10SM CLR M03/M08 A2991 180 66 -1900 260/03 RMK AO2 T10281083
14740KBDL BDL20161209021010612/09/16 02:10:31  5-MIN KBDL 090710Z 26003KT 10SM CLR M03/M08 A2991 180 66 -1900 280/03 RMK AO2 T10281083
14740KBDL BDL20161209021510612/09/16 02:15:31  5-MIN KBDL 090715Z 00000KT 10SM CLR M03/M08 A2992 180 68 -1900 000/00 RMK AO2 T10331083
14740KBDL BDL20161209022010612/09/16 02:20:31  5-MIN KBDL 090720Z 00000KT 10SM CLR M03/M08 A2992 180 71 -1900 000/00 RMK AO2 T10331078
14740KBDL BDL20161209022510612/09/16 02:25:31  5-MIN KBDL 090725Z 00000KT 10SM CLR M03/M08 A2992 180 68 -1900 000/00 RMK AO2 T10281078
14740KBDL BDL20161209023010612/09/16 02:30:31  5-MIN KBDL 090730Z 00000KT 10SM CLR M03/M08 A2992 180 68 -1900 000/00 RMK AO2 T10281078
14740KBDL BDL20161209023510612/09/16 02:35:31  5-MIN KBDL 090735Z 00000KT 10SM CLR M03/M08 A2992 180 66 -1900 000/00 RMK AO2 T10281083
14740KBDL BDL20161209024010612/09/16 02:40:31  5-MIN KBDL 090740Z 00000KT 10SM CLR M03/M08 A2992 170 66 -1900 000/00 RMK AO2 T10281083
14740KBDL BDL20161209024511312/09/16 02:45:31  5-MIN KBDL 090745Z 00000KT 10SM CLR M03/M08 A2992 170 66 -1900 000/00 RMK AO2 SLP134 T10281083
14740KBDL BDL20161209025011312/09/16 02:50:31  5-MIN KBDL 090750Z 00000KT 10SM CLR M03/M08 A2992 170 66 -1900 000/00 RMK AO2 SLP134 T10281083
14740KBDL BDL20161209025510612/09/16 02:55:31  5-MIN KBDL 090755Z 25003KT 10SM CLR M03/M08 A2992 170 71 -2000 270/03 RMK AO2 T10331078
14740KBDL BDL20161209030010612/09/16 03:00:31  5-MIN KBDL 090800Z 25007KT 10SM CLR M03/M08 A2992 180 68 -2000 260/07 RMK AO2 T10331083
14740KBDL BDL20161209030510612/09/16 03:05:31  5-MIN KBDL 090805Z 26007KT 10SM CLR M03/M09 A2992 170 65 -2000 280/07 RMK AO2 T10331089
14740KBDL BDL20161209031010612/09/16 03:10:31  5-MIN KBDL 090810Z 26007KT 10SM CLR M03/M08 A2992 170 66 -1900 270/07 RMK AO2 T10281083
14740KBDL BDL20161209031510612/09/16 03:15:31  5-MIN KBDL 090815Z 26005KT 10SM CLR M03/M08 A2992 170 66 -1900 270/05 RMK AO2 T10281083
14740KBDL BDL20161209032010612/09/16 03:20:31  5-MIN KBDL 090820Z 24005KT 10SM CLR M03/M08 A2992 170 66 -1900 250/05 RMK AO2 T10281083
14740KBDL BDL20161209032510612/09/16 03:25:31  5-MIN KBDL 090825Z 25004KT 10SM CLR M03/M09 A2993 170 63 -1900 270/04 RMK AO2 T10281089
14740KBDL BDL20161209033010612/09/16 03:30:31  5-MIN KBDL 090830Z 24003KT 10SM CLR M03/M09 A2993 170 63 -1900 250/03 RMK AO2 T10281089
14740KBDL BDL20161209033510612/09/16 03:35:31  5-MIN KBDL 090835Z 24003KT 10SM CLR M02/M09 A2993 170 60 -1800 260/03 RMK AO2 T10221089
14740KBDL BDL20161209034010612/09/16 03:40:31  5-MIN KBDL 090840Z 21003KT 10SM CLR M02/M09 A2993 170 60 -1800 230/03 RMK AO2 T10221089
14740KBDL BDL20161209034512912/09/16 03:45:31  5-MIN KBDL 090845Z 00000KT 10SM FEW035 FEW060 M03/M09 A2992 170 65 -2000 000/00 RMK AO2 SLP135 T10331089 58002
14740KBDL BDL20161209035012912/09/16 03:50:31  5-MIN KBDL 090850Z 00000KT 10SM FEW035 FEW060 M03/M09 A2992 170 63 -1900 000/00 RMK AO2 SLP135 T10281089 58002
14740KBDL BDL20161209035510612/09/16 03:55:31  5-MIN KBDL 090855Z 21004KT 10SM CLR M02/M09 A2992 170 60 -1800 230/04 RMK AO2 T10221089
14740KBDL BDL20161209040010612/09/16 04:00:31  5-MIN KBDL 090900Z 21005KT 10SM CLR M02/M09 A2992 170 60 -1800 230/05 RMK AO2 T10221089
14740KBDL BDL20161209040510612/09/16 04:05:31  5-MIN KBDL 090905Z 23006KT 10SM CLR M02/M09 A2992 170 58 -1700 240/06 RMK AO2 T10171089
14740KBDL BDL20161209041010612/09/16 04:10:31  5-MIN KBDL 090910Z 23006KT 10SM CLR M02/M09 A2992 170 60 -1800 240/06 RMK AO2 T10221089
14740KBDL BDL20161209041510612/09/16 04:15:31  5-MIN KBDL 090915Z 22008KT 10SM CLR M03/M09 A2992 170 63 -1900 240/08 RMK AO2 T10281089
14740KBDL BDL20161209042010612/09/16 04:20:31  5-MIN KBDL 090920Z 23007KT 10SM CLR M02/M08 A2992 170 63 -1800 240/07 RMK AO2 T10221083
14740KBDL BDL20161209042510612/09/16 04:25:31  5-MIN KBDL 090925Z 23008KT 10SM CLR M03/M08 A2992 170 66 -1900 240/08 RMK AO2 T10281083
14740KBDL BDL20161209043010612/09/16 04:30:31  5-MIN KBDL 090930Z 22007KT 10SM CLR M02/M08 A2992 180 63 -1800 240/07 RMK AO2 T10221083
14740KBDL BDL20161209043510612/09/16 04:35:31  5-MIN KBDL 090935Z 22007KT 10SM CLR M02/M08 A2992 180 63 -1800 240/07 RMK AO2 T10221083
14740KBDL BDL20161209044010612/09/16 04:40:31  5-MIN KBDL 090940Z 24007KT 10SM CLR M02/M08 A2993 170 63 -1800 250/07 RMK AO2 T10221083
14740KBDL BDL20161209044511312/09/16 04:45:31  5-MIN KBDL 090945Z 26006KT 10SM CLR M03/M08 A2993 170 66 -1900 270/06 RMK AO2 SLP136 T10281083
14740KBDL BDL20161209045011612/09/16 04:50:31  5-MIN KBDL 090950Z 25006KT 10SM FEW035 M03/M09 A2993 170 63 -1900 260/06 RMK AO2 SLP136 T10281089
14740KBDL BDL20161209045510612/09/16 04:55:31  5-MIN KBDL 090955Z 26007KT 10SM CLR M02/M09 A2993 170 60 -1800 280/07 RMK AO2 T10221089
14740KBDL BDL20161209050010612/09/16 05:00:31  5-MIN KBDL 091000Z 25006KT 10SM CLR M02/M09 A2993 170 60 -1800 270/06 RMK AO2 T10221089
14740KBDL BDL20161209050510612/09/16 05:05:31  5-MIN KBDL 091005Z 27003KT 10SM CLR M02/M09 A2993 170 60 -1800 280/03 RMK AO2 T10221089
14740KBDL BDL20161209051010912/09/16 05:10:31  5-MIN KBDL 091010Z 23003KT 10SM FEW045 M02/M09 A2993 170 60 -1800 240/03 RMK AO2 T10221089
14740KBDL BDL20161209051510912/09/16 05:15:31  5-MIN KBDL 091015Z 00000KT 10SM FEW042 M02/M09 A2993 170 60 -1800 000/00 RMK AO2 T10221089
14740KBDL BDL20161209052010912/09/16 05:20:31  5-MIN KBDL 091020Z 23005KT 10SM FEW042 M02/M09 A2993 170 60 -1800 240/05 RMK AO2 T10221089
14740KBDL BDL20161209052510912/09/16 05:25:31  5-MIN KBDL 091025Z 23006KT 10SM FEW042 M03/M09 A2993 160 63 -1900 240/06 RMK AO2 T10281089
14740KBDL BDL20161209053010912/09/16 05:30:31  5-MIN KBDL 091030Z 23006KT 10SM FEW042 M02/M08 A2994 160 63 -1800 240/06 RMK AO2 T10221083
14740KBDL BDL20161209053510912/09/16 05:35:31  5-MIN KBDL 091035Z 25005KT 10SM FEW042 M02/M08 A2994 160 63 -1800 260/05 RMK AO2 T10221083
14740KBDL BDL20161209054010912/09/16 05:40:31  5-MIN KBDL 091040Z 23006KT 10SM FEW042 M02/M08 A2994 160 63 -1800 240/06 RMK AO2 T10221083
14740KBDL BDL20161209054511612/09/16 05:45:31  5-MIN KBDL 091045Z 23003KT 10SM FEW044 M02/M08 A2994 160 63 -1800 240/03 RMK AO2 SLP139 T10221083
14740KBDL BDL20161209055012312/09/16 05:50:31  5-MIN KBDL 091050Z 00000KT 10SM FEW032 SCT044 M02/M08 A2994 160 63 -1800 000/00 RMK AO2 SLP140 T10221083
14740KBDL BDL20161209055510912/09/16 05:55:31  5-MIN KBDL 091055Z 22003KT 10SM FEW044 M02/M08 A2994 160 60 -1800 230/03 RMK AO2 T10171083
14740KBDL BDL20161209060010912/09/16 06:00:31  5-MIN KBDL 091100Z 15004KT 10SM FEW044 M02/M08 A2994 160 63 -1800 160/04 RMK AO2 T10221083
14740KBDL BDL20161209060510912/09/16 06:05:31  5-MIN KBDL 091105Z 15005KT 10SM SCT044 M03/M08 A2994 150 66 -1900 170/05 RMK AO2 T10281083
14740KBDL BDL20161209061010912/09/16 06:10:31  5-MIN KBDL 091110Z 17005KT 10SM BKN044 M03/M08 A2995 150 66 -1900 190/05 RMK AO2 T10281083
14740KBDL BDL20161209061510912/09/16 06:15:31  5-MIN KBDL 091115Z 21004KT 10SM BKN044 M02/M08 A2994 150 63 -1800 220/04 RMK AO2 T10221083
14740KBDL BDL20161209062010912/09/16 06:20:31  5-MIN KBDL 091120Z 27006KT 10SM SCT042 M02/M08 A2994 160 60 -1800 280/06 RMK AO2 T10171083
14740KBDL BDL20161209062511512/09/16 06:25:31  5-MIN KBDL 091125Z 29012G16KT 10SM SCT042 M01/M08 A2995 150 60 -1700 300/12G16 RMK AO2 T10111078
14740KBDL BDL20161209063011512/09/16 06:30:31  5-MIN KBDL 091130Z 29015G20KT 10SM SCT042 M01/M07 A2995 150 61 -1600 300/15G20 RMK AO2 T10061072
14740KBDL BDL20161209063511512/09/16 06:35:31  5-MIN KBDL 091135Z 30009G20KT 10SM SCT040 M01/M07 A2995 140 61 -1600 310/09G20 RMK AO2 T10061072
14740KBDL BDL20161209064010912/09/16 06:40:31  5-MIN KBDL 091140Z 31007KT 10SM SCT040 M01/M07 A2996 140 63 -1700 320/07 RMK AO2 T10111072
14740KBDL BDL20161209064513412/09/16 06:45:31  5-MIN KBDL 091145Z 29007KT 10SM SCT040 M01/M07 A2996 140 61 -1600 300/07 RMK AO2 SLP147 T10061072 11006 21033 51009
14740KBDL BDL20161209065014712/09/16 06:50:31  5-MIN KBDL 091150Z 29012G19KT 10SM SCT037 SCT044 M01/M07 A2996 140 61 -1600 310/12G19 RMK AO2 SLP148 T10061072 11006 21033 51009
14740KBDL BDL20161209065511512/09/16 06:55:31  5-MIN KBDL 091155Z 29014G19KT 10SM BKN036 M01/M07 A2997 130 61 -1600 310/14G19 RMK AO2 T10061072
14740KBDL BDL20161209070011512/09/16 07:00:31  5-MIN KBDL 091200Z 30014G19KT 10SM BKN034 M01/M07 A2996 130 63 -1600 310/14G19 RMK AO2 T10061067
14740KBDL BDL20161209070510912/09/16 07:05:31  5-MIN KBDL 091205Z 30014KT 10SM SCT034 M01/M07 A2997 130 63 -1700 310/14 RMK AO2 T10061067
14740KBDL BDL20161209071011512/09/16 07:10:31  5-MIN KBDL 091210Z 31017G23KT 10SM FEW033 M01/M07 A2997 130 61 -1700 330/17G23 RMK AO2 T10061072
14740KBDL BDL20161209071511512/09/16 07:15:31  5-MIN KBDL 091215Z 30014G23KT 10SM FEW030 M01/M07 A2998 130 61 -1700 320/14G23 RMK AO2 T10061072
14740KBDL BDL20161209072013312/09/16 07:20:31  5-MIN KBDL 091220Z 31016G26KT 10SM SCT037 M01/M07 A2998 120 61 -1700 320/16G26 RMK AO2 PK WND 31026/1217 T10061072
14740KBDL BDL20161209072513312/09/16 07:25:31  5-MIN KBDL 091225Z 31015G26KT 10SM SCT037 M01/M07 A2998 120 61 -1700 320/15G26 RMK AO2 PK WND 31026/1217 T10061072
14740KBDL BDL20161209073013312/09/16 07:30:31  5-MIN KBDL 091230Z 31010G22KT 10SM FEW037 M01/M07 A2998 120 61 -1700 320/10G22 RMK AO2 PK WND 31026/1217 T10061072
14740KBDL BDL20161209073512712/09/16 07:35:31  5-MIN KBDL 091235Z 31011KT 10SM FEW039 M01/M07 A2999 120 63 -1700 330/11 RMK AO2 PK WND 31026/1217 T10111072
14740KBDL BDL20161209074012712/09/16 07:40:31  5-MIN KBDL 091240Z 32014KT 10SM FEW039 M01/M07 A2999 110 61 -1700 340/14 RMK AO2 PK WND 31026/1217 T10061072
14740KBDL BDL20161209074513412/09/16 07:45:31  5-MIN KBDL 091245Z 32011KT 10SM FEW039 M01/M07 A2999 110 61 -1700 330/11 RMK AO2 PK WND 31026/1217 SLP158 T10061072
14740KBDL BDL20161209075013412/09/16 07:50:31  5-MIN KBDL 091250Z 32011KT 10SM FEW039 M01/M07 A3000 110 61 -1700 340/11 RMK AO2 PK WND 31026/1217 SLP159 T10061072
14740KBDL BDL20161209075511512/09/16 07:55:31  5-MIN KBDL 091255Z 32012G18KT 10SM SCT037 M01/M07 A3000 110 61 -1700 330/12G18 RMK AO2 T10061072
14740KBDL BDL20161209080012212/09/16 08:00:31  5-MIN KBDL 091300Z 32012G18KT 10SM SCT035 BKN044 M01/M07 A3000 100 61 -1700 330/12G18 RMK AO2 T10061072
14740KBDL BDL20161209080512212/09/16 08:05:31  5-MIN KBDL 091305Z 31013G18KT 10SM SCT035 BKN042 M01/M07 A3000 100 61 -1700 330/13G18 RMK AO2 T10061072
14740KBDL BDL20161209081011512/09/16 08:10:31  5-MIN KBDL 091310Z 31012G19KT 10SM BKN037 M01/M07 A3000 100 61 -1700 330/12G19 RMK AO2 T10061072
14740KBDL BDL20161209081511512/09/16 08:15:31  5-MIN KBDL 091315Z 33014G20KT 10SM BKN037 M01/M07 A3000 100 61 -1700 340/14G20 RMK AO2 T10061072
14740KBDL BDL20161209082011512/09/16 08:20:31  5-MIN KBDL 091320Z 32011G23KT 10SM BKN037 M01/M08 A3000 100 58 -1700 340/11G23 RMK AO2 T10061078
14740KBDL BDL20161209082511412/09/16 08:25:31  5-MIN KBDL 091325Z 31011G23KT 10SM BKN039 00/M07 A3001 100 58 -1600 330/11G23 RMK AO2 T00001072
14740KBDL BDL20161209083010712/09/16 08:30:31  5-MIN KBDL 091330Z 32010KT 10SM BKN039 00/M08 A3001 90 56 -1600 330/10 RMK AO2 T00001078
14740KBDL BDL20161209083510712/09/16 08:35:31  5-MIN KBDL 091335Z 33008KT 10SM BKN039 00/M08 A3001 90 56 -1600 340/08 RMK AO2 T00001078
14740KBDL BDL20161209084010712/09/16 08:40:31  5-MIN KBDL 091340Z 34011KT 10SM BKN039 00/M08 A3001 90 56 -1600 360/11 RMK AO2 T00001078
14740KBDL BDL20161209084512012/09/16 08:45:31  5-MIN KBDL 091345Z 32013G18KT 10SM BKN039 00/M08 A3001 90 53 -1600 330/13G18 RMK AO2 SLP165 T00001083
14740KBDL BDL20161209085012812/09/16 08:50:31  5-MIN KBDL 091350Z 33012G18KT 10SM BKN039 BKN047 M01/M08 A3002 90 56 -1700 340/12G18 RMK AO2 SLP166 T10061083
14740KBDL BDL20161209085511512/09/16 08:55:31  5-MIN KBDL 091355Z 32013KT 10SM BKN039 BKN047 M01/M08 A3002 90 58 -1700 340/13 RMK AO2 T10061078
14740KBDL BDL20161209090012012/09/16 09:00:31  5-MIN KBDL 091400Z 32013G19KT 10SM BKN040 BKN047 00/M08 A3002 80 56 -1600 330/13G19 RMK AO2 T00001078
14740KBDL BDL20161209090512012/09/16 09:05:31  5-MIN KBDL 091405Z 32010G19KT 10SM BKN040 BKN047 00/M08 A3003 80 56 -1600 340/10G19 RMK AO2 T00001078
14740KBDL BDL20161209091011312/09/16 09:10:31  5-MIN KBDL 091410Z 32012G19KT 10SM BKN040 00/M08 A3003 80 56 -1600 330/12G19 RMK AO2 T00001078
14740KBDL BDL20161209091510712/09/16 09:15:31  5-MIN KBDL 091415Z 32012KT 10SM BKN040 00/M08 A3003 80 53 -1700 330/12 RMK AO2 T00001083
14740KBDL BDL20161209092011312/09/16 09:20:31  5-MIN KBDL 091420Z 31012G24KT 10SM BKN040 00/M08 A3003 70 53 -1700 320/12G24 RMK AO2 T00001083
14740KBDL BDL20161209092511312/09/16 09:25:31  5-MIN KBDL 091425Z 31012G24KT 10SM BKN040 00/M08 A3003 70 53 -1700 320/12G24 RMK AO2 T00001083
14740KBDL BDL20161209093013112/09/16 09:30:31  5-MIN KBDL 091430Z 30019G26KT 10SM SCT040 01/M08 A3003 70 51 -1600 320/19G26 RMK AO2 PK WND 30026/1429 T00061083
14740KBDL BDL20161209093513112/09/16 09:35:31  5-MIN KBDL 091435Z 31015G26KT 10SM BKN042 01/M08 A3004 70 51 -1600 320/15G26 RMK AO2 PK WND 30026/1429 T00061083
14740KBDL BDL20161209094013112/09/16 09:40:31  5-MIN KBDL 091440Z 30016G21KT 10SM BKN044 01/M09 A3003 70 49 -1600 320/16G21 RMK AO2 PK WND 30026/1429 T00061089
14740KBDL BDL20161209094514412/09/16 09:45:31  5-MIN KBDL 091445Z 30016G21KT 10SM BKN044 01/M09 A3004 70 49 -1600 320/16G21 RMK AO2 PK WND 30026/1429 SLP174 T00061089 53013
14740KBDL BDL20161209095014412/09/16 09:50:31  5-MIN KBDL 091450Z 31010G21KT 10SM BKN044 01/M08 A3004 70 49 -1500 320/10G21 RMK AO2 PK WND 30026/1429 SLP173 T00111083 53013
14740KBDL BDL20161209095511312/09/16 09:55:31  5-MIN KBDL 091455Z 30014G20KT 10SM OVC044 01/M08 A3004 70 49 -1500 320/14G20 RMK AO2 T00111083
14740KBDL BDL20161209100012012/09/16 10:00:31  5-MIN KBDL 091500Z 30012G22KT 10SM BKN042 OVC050 01/M08 A3004 70 49 -1500 320/12G22 RMK AO2 T00111083
14740KBDL BDL20161209100512012/09/16 10:05:31  5-MIN KBDL 091505Z 29017G23KT 10SM BKN042 OVC050 02/M09 A3004 60 45 -1500 300/17G23 RMK AO2 T00171089
14740KBDL BDL20161209101011312/09/16 10:10:31  5-MIN KBDL 091510Z 30018G23KT 10SM OVC045 01/M09 A3004 60 47 -1500 310/18G23 RMK AO2 T00111089
14740KBDL BDL20161209101512012/09/16 10:15:31  5-MIN KBDL 091515Z 31011G23KT 10SM BKN043 OVC050 01/M09 A3004 60 47 -1500 320/11G23 RMK AO2 T00111089
14740KBDL BDL20161209102011312/09/16 10:20:31  5-MIN KBDL 091520Z 32016G21KT 10SM OVC043 01/M09 A3004 60 47 -1500 330/16G21 RMK AO2 T00111089
14740KBDL BDL20161209102511312/09/16 10:25:31  5-MIN KBDL 091525Z 30016G24KT 10SM OVC045 01/M09 A3004 70 47 -1500 320/16G24 RMK AO2 T00111089
14740KBDL BDL20161209103013812/09/16 10:30:31  5-MIN KBDL 091530Z 29019G30KT 10SM BKN043 OVC050 01/M09 A3004 60 47 -1500 300/19G30 RMK AO2 PK WND 29030/1530 T00111089
14740KBDL BDL20161209103513112/09/16 10:35:31  5-MIN KBDL 091535Z 29017G30KT 10SM OVC045 01/M09 A3004 70 47 -1600 310/17G30 RMK AO2 PK WND 29030/1530 T00061094
14740KBDL BDL20161209104013112/09/16 10:40:31  5-MIN KBDL 091540Z 30013G28KT 10SM OVC045 01/M09 A3004 70 47 -1600 310/13G28 RMK AO2 PK WND 29030/1530 T00061094
14740KBDL BDL20161209104513812/09/16 10:45:31  5-MIN KBDL 091545Z 30010G27KT 10SM OVC048 01/M09 A3004 70 47 -1500 320/10G27 RMK AO2 PK WND 29030/1530 SLP174 T00111089
14740KBDL BDL20161209105013812/09/16 10:50:31  5-MIN KBDL 091550Z 31015G22KT 10SM BKN048 01/M09 A3004 70 47 -1500 320/15G22 RMK AO2 PK WND 29030/1530 SLP174 T00111089
14740KBDL BDL20161209105511312/09/16 10:55:31  5-MIN KBDL 091555Z 30016G23KT 10SM OVC046 01/M09 A3004 70 47 -1600 320/16G23 RMK AO2 T00061094
14740KBDL BDL20161209110013112/09/16 11:00:31  5-MIN KBDL 091600Z 32014G26KT 10SM OVC046 01/M09 A3004 70 49 -1600 330/14G26 RMK AO2 PK WND 33026/1557 T00061089
14740KBDL BDL20161209110513112/09/16 11:05:31  5-MIN KBDL 091605Z 32016G26KT 10SM OVC046 01/M09 A3004 70 47 -1500 330/16G26 RMK AO2 PK WND 33026/1557 T00111089
14740KBDL BDL20161209111013112/09/16 11:10:31  5-MIN KBDL 091610Z 31013G24KT 10SM OVC046 01/M09 A3004 70 47 -1500 330/13G24 RMK AO2 PK WND 33026/1557 T00111089
14740KBDL BDL20161209111513112/09/16 11:15:31  5-MIN KBDL 091615Z 33012G24KT 10SM OVC044 02/M08 A3004 70 45 -1400 340/12G24 RMK AO2 PK WND 33026/1557 T00221083
14740KBDL BDL20161209112013112/09/16 11:20:31  5-MIN KBDL 091620Z 31012G17KT 10SM OVC044 02/M08 A3003 70 47 -1400 330/12G17 RMK AO2 PK WND 33026/1557 T00171083
14740KBDL BDL20161209112513112/09/16 11:25:31  5-MIN KBDL 091625Z 33012G18KT 10SM OVC042 02/M08 A3003 70 47 -1400 340/12G18 RMK AO2 PK WND 33026/1557 T00171083
14740KBDL BDL20161209113013112/09/16 11:30:31  5-MIN KBDL 091630Z 33012G18KT 10SM OVC042 01/M08 A3003 70 49 -1500 340/12G18 RMK AO2 PK WND 33026/1557 T00111083
14740KBDL BDL20161209113513112/09/16 11:35:31  5-MIN KBDL 091635Z 32013G19KT 10SM OVC042 01/M08 A3003 70 49 -1500 340/13G19 RMK AO2 PK WND 33026/1557 T00111083
14740KBDL BDL20161209114013812/09/16 11:40:31  5-MIN KBDL 091640Z 32014G22KT 10SM BKN042 OVC049 01/M08 A3003 70 49 -1500 330/14G22 RMK AO2 PK WND 33026/1557 T00111083
14740KBDL BDL20161209114514512/09/16 11:45:31  5-MIN KBDL 091645Z 32013G22KT 10SM BKN042 OVC049 02/M08 A3003 80 47 -1400 340/13G22 RMK AO2 PK WND 33026/1557 SLP170 T00171083
14740KBDL BDL20161209115015612/09/16 11:50:31  5-MIN KBDL 091650Z 32011KT 10SM BKN042 BKN049 02/M09 A3003 80 45 -1400 330/11 RMK AO2 PK WND 33026/1557 SLP169 VCSH E-SE AND NW T00171089
14740KBDL BDL20161209115512012/09/16 11:55:31  5-MIN KBDL 091655Z 32012G19KT 10SM BKN042 OVC050 02/M09 A3002 80 44 -1400 330/12G19 RMK AO2 T00221089
14740KBDL BDL20161209120011312/09/16 12:00:31  5-MIN KBDL 091700Z 32014G19KT 10SM OVC046 02/M09 A3002 80 43 -1400 340/14G19 RMK AO2 T00171094
14740KBDL BDL20161209120511312/09/16 12:05:31  5-MIN KBDL 091705Z 33012G19KT 10SM OVC046 02/M09 A3002 80 43 -1400 340/12G19 RMK AO2 T00171094
14740KBDL BDL20161209121011312/09/16 12:10:31  5-MIN KBDL 091710Z 32014G22KT 10SM OVC050 01/M10 A3002 80 43 -1500 340/14G22 RMK AO2 T00111100
14740KBDL BDL20161209121512012/09/16 12:15:31  5-MIN KBDL 091715Z 33014G22KT 10SM BKN048 OVC060 01/M10 A3002 80 43 -1500 340/14G22 RMK AO2 T00111100
14740KBDL BDL20161209122013112/09/16 12:20:31  5-MIN KBDL 091720Z 32017G29KT 10SM OVC050 01/M10 A3002 80 43 -1500 340/17G29 RMK AO2 PK WND 31029/1717 T00111100
14740KBDL BDL20161209122513812/09/16 12:25:31  5-MIN KBDL 091725Z 32014G29KT 10SM BKN050 OVC060 01/M10 A3002 80 43 -1500 330/14G29 RMK AO2 PK WND 31029/1717 T00111100
14740KBDL BDL20161209123013112/09/16 12:30:31  5-MIN KBDL 091730Z 30019G29KT 10SM OVC055 02/M10 A3002 80 42 -1400 310/19G29 RMK AO2 PK WND 31029/1717 T00171100
14740KBDL BDL20161209123513112/09/16 12:35:31  5-MIN KBDL 091735Z 31017G25KT 10SM OVC055 02/M10 A3002 80 42 -1400 320/17G25 RMK AO2 PK WND 31029/1717 T00171100
14740KBDL BDL20161209124013112/09/16 12:40:31  5-MIN KBDL 091740Z 30017G22KT 10SM OVC055 03/M10 A3002 80 38 -1300 320/17G22 RMK AO2 PK WND 31029/1717 T00281100
14740KBDL BDL20161209124515612/09/16 12:45:31  5-MIN KBDL 091745Z 32016G25KT 10SM OVC055 02/M10 A3002 90 40 -1400 340/16G25 RMK AO2 PK WND 31029/1717 SLP166 T00221100 10028 21011 51025
14740KBDL BDL20161209125017312/09/16 12:50:31  5-MIN KBDL 091750Z 32020G28KT 10SM FEW048 BKN055 02/M11 A3002 80 40 -1400 330/20G28 RMK AO2 PK WND 31029/1717 SLP167 VCSH E-SE T00171106 10028 21011 51025
14740KBDL BDL20161209125511312/09/16 12:55:31  5-MIN KBDL 091755Z 32014G28KT 10SM BKN055 01/M11 A3002 80 41 -1500 330/14G28 RMK AO2 T00111106
14740KBDL BDL20161209130013112/09/16 13:00:31  5-MIN KBDL 091800Z 31017G27KT 10SM BKN055 01/M11 A3002 80 41 -1500 320/17G27 RMK AO2 PK WND 33026/1756 T00111106
14740KBDL BDL20161209130513112/09/16 13:05:31  5-MIN KBDL 091805Z 32021G27KT 10SM SCT055 01/M11 A3002 80 41 -1500 330/21G27 RMK AO2 PK WND 30027/1803 T00111106
14740KBDL BDL20161209131013112/09/16 13:10:31  5-MIN KBDL 091810Z 31015G27KT 10SM FEW055 01/M11 A3002 80 41 -1500 320/15G27 RMK AO2 PK WND 30027/1803 T00111106
14740KBDL BDL20161209131513112/09/16 13:15:31  5-MIN KBDL 091815Z 31018G24KT 10SM FEW055 02/M11 A3002 80 40 -1400 320/18G24 RMK AO2 PK WND 30027/1803 T00171106
14740KBDL BDL20161209132013112/09/16 13:20:31  5-MIN KBDL 091820Z 33015G24KT 10SM FEW050 01/M11 A3002 80 41 -1500 340/15G24 RMK AO2 PK WND 30027/1803 T00111106
14740KBDL BDL20161209132513112/09/16 13:25:31  5-MIN KBDL 091825Z 30016G24KT 10SM FEW050 01/M11 A3003 80 41 -1500 320/16G24 RMK AO2 PK WND 30027/1803 T00111106
14740KBDL BDL20161209133013112/09/16 13:30:31  5-MIN KBDL 091830Z 31017G23KT 10SM FEW055 02/M11 A3003 80 40 -1400 330/17G23 RMK AO2 PK WND 30027/1803 T00171106
14740KBDL BDL20161209133513112/09/16 13:35:31  5-MIN KBDL 091835Z 31016G24KT 10SM FEW055 02/M11 A3003 80 40 -1400 320/16G24 RMK AO2 PK WND 30027/1803 T00171106
14740KBDL BDL20161209134013112/09/16 13:40:31  5-MIN KBDL 091840Z 31015G24KT 10SM FEW055 01/M11 A3003 80 43 -1600 330/15G24 RMK AO2 PK WND 30027/1803 T00061106
14740KBDL BDL20161209134513812/09/16 13:45:31  5-MIN KBDL 091845Z 30016G25KT 10SM FEW060 01/M11 A3003 70 43 -1600 310/16G25 RMK AO2 PK WND 30027/1803 SLP171 T00061106
14740KBDL BDL20161209135014612/09/16 13:50:31  5-MIN KBDL 091850Z 32016G25KT 10SM BKN055 02/M11 A3003 70 40 -1400 330/16G25 RMK AO2 PK WND 30027/1803 SLP171 VCSH SE T00171106
14740KBDL BDL20161209135512012/09/16 13:55:31  5-MIN KBDL 091855Z 31014G21KT 10SM FEW049 SCT060 02/M10 A3004 70 40 -1400 320/14G21 RMK AO2 T00221100
14740KBDL BDL20161209140012912/09/16 14:00:31  5-MIN KBDL 091900Z 33015G23KT 300V360 10SM BKN049 02/M09 A3004 60 42 -1400 340/15G23 310V010 RMK AO2 T00221094
14740KBDL BDL20161209140512012/09/16 14:05:31  5-MIN KBDL 091905Z 33013G23KT 10SM SCT049 BKN060 01/M09 A3004 60 47 -1600 340/13G23 RMK AO2 T00061094
14740KBDL BDL20161209141012012/09/16 14:10:31  5-MIN KBDL 091910Z 32015G21KT 10SM SCT049 BKN060 01/M09 A3005 60 47 -1600 340/15G21 RMK AO2 T00061094
14740KBDL BDL20161209141512012/09/16 14:15:31  5-MIN KBDL 091915Z 33013G19KT 10SM SCT049 BKN055 01/M09 A3006 50 47 -1600 340/13G19 RMK AO2 T00061094
14740KBDL BDL20161209142010712/09/16 14:20:31  5-MIN KBDL 091920Z 31011KT 10SM BKN049 02/M09 A3006 50 43 -1500 320/11 RMK AO2 T00171094
14740KBDL BDL20161209142512012/09/16 14:25:31  5-MIN KBDL 091925Z 33015G23KT 10SM BKN049 BKN060 02/M09 A3006 50 43 -1500 340/15G23 RMK AO2 T00171094
14740KBDL BDL20161209143012012/09/16 14:30:31  5-MIN KBDL 091930Z 30019G24KT 10SM BKN049 BKN060 01/M10 A3006 40 43 -1600 320/19G24 RMK AO2 T00111100
14740KBDL BDL20161209143512012/09/16 14:35:31  5-MIN KBDL 091935Z 30013G24KT 10SM SCT049 BKN060 02/M10 A3007 40 42 -1500 320/13G24 RMK AO2 T00171100
14740KBDL BDL20161209144012012/09/16 14:40:31  5-MIN KBDL 091940Z 33016G21KT 10SM SCT049 BKN060 01/M11 A3007 40 41 -1600 350/16G21 RMK AO2 T00111106
14740KBDL BDL20161209144512712/09/16 14:45:31  5-MIN KBDL 091945Z 31014G22KT 10SM BKN049 OVC060 01/M11 A3007 40 43 -1600 320/14G22 RMK AO2 SLP183 T00061106
14740KBDL BDL20161209145012712/09/16 14:50:31  5-MIN KBDL 091950Z 32016G23KT 10SM BKN049 BKN060 01/M11 A3007 40 43 -1600 330/16G23 RMK AO2 SLP183 T00061106
14740KBDL BDL20161209145513112/09/16 14:55:31  5-MIN KBDL 091955Z 31021G28KT 10SM BKN055 01/M11 A3007 40 41 -1600 320/21G28 RMK AO2 PK WND 31028/1954 T00061111
14740KBDL BDL20161209150013112/09/16 15:00:31  5-MIN KBDL 092000Z 32017G28KT 10SM BKN055 01/M11 A3006 40 40 -1600 330/17G28 RMK AO2 PK WND 31028/1954 T00111111
14740KBDL BDL20161209150513112/09/16 15:05:31  5-MIN KBDL 092005Z 32019G28KT 10SM BKN055 01/M11 A3006 40 41 -1600 330/19G28 RMK AO2 PK WND 31028/1954 T00061111
14740KBDL BDL20161209151013112/09/16 15:10:31  5-MIN KBDL 092010Z 29020G26KT 10SM SCT055 01/M11 A3007 40 41 -1600 300/20G26 RMK AO2 PK WND 31028/1954 T00061111
14740KBDL BDL20161209151512512/09/16 15:15:31  5-MIN KBDL 092015Z 29018KT 10SM FEW050 00/M11 A3007 40 43 -1700 310/18 RMK AO2 PK WND 31028/1954 T00001111
14740KBDL BDL20161209152013112/09/16 15:20:31  5-MIN KBDL 092020Z 29019G26KT 10SM FEW050 00/M11 A3007 40 43 -1700 310/19G26 RMK AO2 PK WND 31028/1954 T00001111
14740KBDL BDL20161209152513112/09/16 15:25:31  5-MIN KBDL 092025Z 30015G26KT 10SM FEW050 00/M11 A3007 40 43 -1700 310/15G26 RMK AO2 PK WND 31028/1954 T00001111
14740KBDL BDL20161209153013112/09/16 15:30:31  5-MIN KBDL 092030Z 30019G25KT 10SM FEW050 00/M11 A3007 40 43 -1700 310/19G25 RMK AO2 PK WND 31028/1954 T00001111
14740KBDL BDL20161209153513112/09/16 15:35:31  5-MIN KBDL 092035Z 30014G25KT 10SM FEW050 00/M11 A3007 30 43 -1700 310/14G25 RMK AO2 PK WND 31028/1954 T00001111
14740KBDL BDL20161209154013112/09/16 15:40:31  5-MIN KBDL 092040Z 31013G22KT 10SM FEW050 00/M12 A3008 30 41 -1700 320/13G22 RMK AO2 PK WND 31028/1954 T00001117
14740KBDL BDL20161209154514112/09/16 15:45:31  5-MIN KBDL 092045Z 32014G22KT 10SM CLR 00/M12 A3008 30 41 -1700 340/14G22 RMK AO2 PK WND 31028/1954 SLP188 T00001117 58005
14740KBDL BDL20161209155014412/09/16 15:50:31  5-MIN KBDL 092050Z 31013G21KT 10SM FEW050 00/M12 A3009 20 41 -1700 320/13G21 RMK AO2 PK WND 31028/1954 SLP190 T00001117 58005
14740KBDL BDL20161209155511112/09/16 15:55:31  5-MIN KBDL 092055Z 32013G21KT 10SM CLR M01/M12 A3009 20 41 -1800 340/13G21 RMK AO2 T10061122
14740KBDL BDL20161209160011112/09/16 16:00:31  5-MIN KBDL 092100Z 32017G22KT 10SM CLR M01/M12 A3010 10 41 -1800 340/17G22 RMK AO2 T10061122
14740KBDL BDL20161209160511112/09/16 16:05:31  5-MIN KBDL 092105Z 33013G22KT 10SM CLR M01/M12 A3010 10 41 -1800 350/13G22 RMK AO2 T10061122
14740KBDL BDL20161209161011012/09/16 16:10:31  5-MIN KBDL 092110Z 33011G18KT 10SM CLR M01/M12 A3011 0 43 -1900 350/11G18 RMK AO2 T10111122
14740KBDL BDL20161209161511012/09/16 16:15:31  5-MIN KBDL 092115Z 33012G18KT 10SM CLR M01/M12 A3011 0 43 -1900 340/12G18 RMK AO2 T10111122
14740KBDL BDL20161209162011012/09/16 16:20:31  5-MIN KBDL 092120Z 32016G22KT 10SM CLR M01/M12 A3011 0 43 -1900 330/16G22 RMK AO2 T10111122
14740KBDL BDL20161209162511012/09/16 16:25:31  5-MIN KBDL 092125Z 32013G23KT 10SM CLR M01/M12 A3011 0 43 -1900 330/13G23 RMK AO2 T10111122
14740KBDL BDL20161209163011012/09/16 16:30:31  5-MIN KBDL 092130Z 31017G23KT 10SM CLR M01/M12 A3012 0 43 -1900 320/17G23 RMK AO2 T10111122
14740KBDL BDL20161209163510412/09/16 16:35:31  5-MIN KBDL 092135Z 31017KT 10SM CLR M02/M12 A3012 0 44 -2000 320/17 RMK AO2 T10171122
14740KBDL BDL20161209164011212/09/16 16:40:31  5-MIN KBDL 092140Z 31014G23KT 10SM CLR M02/M12 A3012 -10 44 -2000 330/14G23 RMK AO2 T10171122
14740KBDL BDL20161209164511912/09/16 16:45:31  5-MIN KBDL 092145Z 32015G23KT 10SM CLR M02/M12 A3012 -10 44 -2000 330/15G23 RMK AO2 SLP203 T10171122
14740KBDL BDL20161209165012212/09/16 16:50:31  5-MIN KBDL 092150Z 32013G22KT 10SM FEW055 M02/M12 A3013 -10 44 -2000 330/13G22 RMK AO2 SLP204 T10171122
14740KBDL BDL20161209165511212/09/16 16:55:31  5-MIN KBDL 092155Z 32012G19KT 10SM CLR M02/M12 A3013 -10 44 -2000 340/12G19 RMK AO2 T10171122
14740KBDL BDL20161209170011212/09/16 17:00:31  5-MIN KBDL 092200Z 33008G17KT 10SM CLR M02/M12 A3014 -20 44 -2000 340/08G17 RMK AO2 T10171122
14740KBDL BDL20161209170511212/09/16 17:05:31  5-MIN KBDL 092205Z 32011G19KT 10SM CLR M02/M12 A3014 -20 44 -2000 330/11G19 RMK AO2 T10171122
14740KBDL BDL20161209171011212/09/16 17:10:31  5-MIN KBDL 092210Z 33013G21KT 10SM CLR M02/M12 A3015 -30 44 -2000 340/13G21 RMK AO2 T10171122
14740KBDL BDL20161209171511212/09/16 17:15:31  5-MIN KBDL 092215Z 31012G21KT 10SM CLR M02/M12 A3015 -30 46 -2100 320/12G21 RMK AO2 T10221122
14740KBDL BDL20161209172011212/09/16 17:20:31  5-MIN KBDL 092220Z 32011G21KT 10SM CLR M02/M12 A3015 -30 46 -2100 340/11G21 RMK AO2 T10221122
14740KBDL BDL20161209172511212/09/16 17:25:31  5-MIN KBDL 092225Z 31015G21KT 10SM CLR M02/M12 A3015 -30 46 -2100 330/15G21 RMK AO2 T10221122
14740KBDL BDL20161209173013012/09/16 17:30:31  5-MIN KBDL 092230Z 31019G27KT 10SM CLR M02/M12 A3015 -30 46 -2100 320/19G27 RMK AO2 PK WND 32027/2229 T10221122
14740KBDL BDL20161209173513012/09/16 17:35:31  5-MIN KBDL 092235Z 31018G29KT 10SM CLR M02/M12 A3015 -30 46 -2100 320/18G29 RMK AO2 PK WND 31029/2233 T10221122
14740KBDL BDL20161209174013012/09/16 17:40:31  5-MIN KBDL 092240Z 33012G29KT 10SM CLR M02/M12 A3015 -30 46 -2100 350/12G29 RMK AO2 PK WND 31029/2233 T10221122
14740KBDL BDL20161209174513712/09/16 17:45:31  5-MIN KBDL 092245Z 32015G25KT 10SM CLR M02/M12 A3016 -40 46 -2100 340/15G25 RMK AO2 PK WND 31029/2233 SLP213 T10221122
14740KBDL BDL20161209175014012/09/16 17:50:31  5-MIN KBDL 092250Z 34015G21KT 10SM FEW055 M02/M13 A3016 -40 44 -2100 350/15G21 RMK AO2 PK WND 31029/2233 SLP214 T10221128
14740KBDL BDL20161209175511212/09/16 17:55:31  5-MIN KBDL 092255Z 31016G21KT 10SM CLR M02/M13 A3016 -40 44 -2100 330/16G21 RMK AO2 T10221128
14740KBDL BDL20161209180011212/09/16 18:00:31  5-MIN KBDL 092300Z 33009G21KT 10SM CLR M02/M13 A3017 -50 44 -2100 350/09G21 RMK AO2 T10221128
14740KBDL BDL20161209180510612/09/16 18:05:31  5-MIN KBDL 092305Z 33009KT 10SM CLR M02/M13 A3017 -50 44 -2100 350/09 RMK AO2 T10221128
14740KBDL BDL20161209181011512/09/16 18:10:31  5-MIN KBDL 092310Z 32011G16KT 10SM FEW047 M03/M13 A3017 -50 46 -2200 340/11G16 RMK AO2 T10281128
14740KBDL BDL20161209181511512/09/16 18:15:31  5-MIN KBDL 092315Z 32014G19KT 10SM FEW047 M02/M13 A3017 -50 44 -2100 330/14G19 RMK AO2 T10221128
14740KBDL BDL20161209182010912/09/16 18:20:31  5-MIN KBDL 092320Z 31013KT 10SM FEW047 M02/M13 A3017 -50 44 -2100 330/13 RMK AO2 T10221128
14740KBDL BDL20161209182511512/09/16 18:25:31  5-MIN KBDL 092325Z 33015G23KT 10SM FEW047 M03/M13 A3017 -50 46 -2200 340/15G23 RMK AO2 T10281128
14740KBDL BDL20161209183011512/09/16 18:30:31  5-MIN KBDL 092330Z 33015G23KT 10SM FEW047 M03/M13 A3018 -50 46 -2200 340/15G23 RMK AO2 T10281128
14740KBDL BDL20161209183511512/09/16 18:35:31  5-MIN KBDL 092335Z 32012G21KT 10SM FEW047 M03/M13 A3018 -60 46 -2200 330/12G21 RMK AO2 T10281128
14740KBDL BDL20161209184011212/09/16 18:40:31  5-MIN KBDL 092340Z 32009G20KT 10SM CLR M03/M13 A3018 -60 46 -2200 340/09G20 RMK AO2 T10281128
14740KBDL BDL20161209184515312/09/16 18:45:31  5-MIN KBDL 092345Z 31009G20KT 280V340 10SM CLR M03/M13 A3018 -60 46 -2200 320/09G20 290V350 RMK AO2 SLP222 T10281128 10022 21028 53023
14740KBDL BDL20161209185014012/09/16 18:50:31  5-MIN KBDL 092350Z 32011G19KT 10SM FEW060 M03/M13 A3018 -60 46 -2200 340/11G19 RMK AO2 SLP223 T10281128 10022 21028 53023
14740KBDL BDL20161209185511512/09/16 18:55:31  5-MIN KBDL 092355Z 32009G19KT 10SM FEW047 M03/M13 A3019 -60 46 -2200 330/09G19 RMK AO2 T10281128
14740KBDL BDL20161209190010912/09/16 19:00:31  5-MIN KBDL 100000Z 32009KT 10SM SCT047 M03/M13 A3019 -70 46 -2200 340/09 RMK AO2 T10281128
14740KBDL BDL20161209190510912/09/16 19:05:31  5-MIN KBDL 100005Z 32008KT 10SM SCT047 M03/M13 A3019 -70 46 -2200 340/08 RMK AO2 T10281128
14740KBDL BDL20161209191010912/09/16 19:10:31  5-MIN KBDL 100010Z 32008KT 10SM SCT048 M03/M13 A3019 -70 46 -2200 340/08 RMK AO2 T10281128
14740KBDL BDL20161209191510912/09/16 19:15:31  5-MIN KBDL 100015Z 32008KT 10SM BKN048 M03/M13 A3019 -70 46 -2200 330/08 RMK AO2 T10281128
14740KBDL BDL20161209192010912/09/16 19:20:31  5-MIN KBDL 100020Z 31012KT 10SM BKN048 M03/M13 A3019 -70 46 -2200 320/12 RMK AO2 T10281128
14740KBDL BDL20161209192511512/09/16 19:25:31  5-MIN KBDL 100025Z 31014G19KT 10SM BKN048 M03/M13 A3019 -70 46 -2200 330/14G19 RMK AO2 T10281128
14740KBDL BDL20161209193011512/09/16 19:30:31  5-MIN KBDL 100030Z 32011G19KT 10SM SCT048 M03/M13 A3019 -60 46 -2200 330/11G19 RMK AO2 T10281128
14740KBDL BDL20161209193511512/09/16 19:35:31  5-MIN KBDL 100035Z 31018G25KT 10SM SCT048 M03/M13 A3019 -70 46 -2200 320/18G25 RMK AO2 T10281128
14740KBDL BDL20161209194011512/09/16 19:40:31  5-MIN KBDL 100040Z 31013G25KT 10SM SCT048 M02/M13 A3019 -70 44 -2100 330/13G25 RMK AO2 T10221128
14740KBDL BDL20161209194512212/09/16 19:45:31  5-MIN KBDL 100045Z 32009G25KT 10SM BKN048 M03/M13 A3019 -70 46 -2200 340/09G25 RMK AO2 SLP225 T10281128
14740KBDL BDL20161209195011612/09/16 19:50:31  5-MIN KBDL 100050Z 33010KT 10SM BKN048 M03/M13 A3019 -70 46 -2200 340/10 RMK AO2 SLP226 T10281128
14740KBDL BDL20161209195511512/09/16 19:55:31  5-MIN KBDL 100055Z 32010G16KT 10SM BKN048 M03/M13 A3020 -70 46 -2200 340/10G16 RMK AO2 T10281128
14740KBDL BDL20161209200011512/09/16 20:00:31  5-MIN KBDL 100100Z 33011G16KT 10SM BKN048 M02/M13 A3020 -70 44 -2100 340/11G16 RMK AO2 T10221128
14740KBDL BDL20161209200511512/09/16 20:05:31  5-MIN KBDL 100105Z 32013G18KT 10SM OVC048 M02/M13 A3020 -80 44 -2100 330/13G18 RMK AO2 T10221128
14740KBDL BDL20161209201011512/09/16 20:10:31  5-MIN KBDL 100110Z 31016G24KT 10SM OVC048 M02/M13 A3020 -70 44 -2100 330/16G24 RMK AO2 T10221128
14740KBDL BDL20161209201511512/09/16 20:15:31  5-MIN KBDL 100115Z 32015G24KT 10SM OVC048 M02/M13 A3020 -70 44 -2100 340/15G24 RMK AO2 T10221128
14740KBDL BDL20161209202011512/09/16 20:20:31  5-MIN KBDL 100120Z 33014G22KT 10SM BKN048 M02/M13 A3019 -70 44 -2100 350/14G22 RMK AO2 T10221128
14740KBDL BDL20161209202511512/09/16 20:25:31  5-MIN KBDL 100125Z 33013G22KT 10SM BKN048 M02/M13 A3019 -70 44 -2100 350/13G22 RMK AO2 T10221128
14740KBDL BDL20161209203011512/09/16 20:30:31  5-MIN KBDL 100130Z 32011G17KT 10SM BKN048 M03/M12 A3020 -70 48 -2200 340/11G17 RMK AO2 T10281122
14740KBDL BDL20161209203511512/09/16 20:35:31  5-MIN KBDL 100135Z 32013G20KT 10SM BKN048 M03/M12 A3020 -70 48 -2200 340/13G20 RMK AO2 T10281122
14740KBDL BDL20161209204011512/09/16 20:40:31  5-MIN KBDL 100140Z 31013G20KT 10SM SCT048 M03/M12 A3020 -80 48 -2200 320/13G20 RMK AO2 T10281122
14740KBDL BDL20161209204512212/09/16 20:45:31  5-MIN KBDL 100145Z 31012G22KT 10SM FEW048 M03/M12 A3020 -80 48 -2200 330/12G22 RMK AO2 SLP228 T10281122
14740KBDL BDL20161209205012212/09/16 20:50:31  5-MIN KBDL 100150Z 31011G22KT 10SM FEW048 M03/M12 A3020 -80 48 -2200 320/11G22 RMK AO2 SLP229 T10281122
14740KBDL BDL20161209205510912/09/16 20:55:31  5-MIN KBDL 100155Z 32009KT 10SM FEW048 M03/M12 A3021 -80 50 -2300 330/09 RMK AO2 T10331122
14740KBDL BDL20161209210010912/09/16 21:00:31  5-MIN KBDL 100200Z 31009KT 10SM FEW048 M03/M13 A3021 -80 48 -2300 330/09 RMK AO2 T10331128
14740KBDL BDL20161209210510612/09/16 21:05:31  5-MIN KBDL 100205Z 32009KT 10SM CLR M03/M13 A3021 -80 46 -2200 330/09 RMK AO2 T10281128
14740KBDL BDL20161209211011212/09/16 21:10:31  5-MIN KBDL 100210Z 32013G17KT 10SM CLR M03/M13 A3021 -80 46 -2200 340/13G17 RMK AO2 T10281128
14740KBDL BDL20161209211510612/09/16 21:15:31  5-MIN KBDL 100215Z 32009KT 10SM CLR M03/M13 A3021 -90 46 -2200 330/09 RMK AO2 T10281128
14740KBDL BDL20161209212011212/09/16 21:20:31  5-MIN KBDL 100220Z 32013G19KT 10SM CLR M03/M13 A3021 -90 46 -2200 330/13G19 RMK AO2 T10281128
14740KBDL BDL20161209212511212/09/16 21:25:31  5-MIN KBDL 100225Z 32012G19KT 10SM CLR M03/M13 A3021 -90 48 -2300 330/12G19 RMK AO2 T10331128
14740KBDL BDL20161209213010612/09/16 21:30:31  5-MIN KBDL 100230Z 31010KT 10SM CLR M03/M13 A3021 -90 48 -2300 320/10 RMK AO2 T10331128
14740KBDL BDL20161209213510612/09/16 21:35:31  5-MIN KBDL 100235Z 33011KT 10SM CLR M03/M13 A3021 -90 48 -2300 340/11 RMK AO2 T10331128
14740KBDL BDL20161209214010612/09/16 21:40:31  5-MIN KBDL 100240Z 31011KT 10SM CLR M03/M12 A3021 -80 50 -2300 330/11 RMK AO2 T10331122
14740KBDL BDL20161209214511912/09/16 21:45:31  5-MIN KBDL 100245Z 31013KT 10SM CLR M03/M12 A3021 -90 50 -2300 330/13 RMK AO2 SLP231 T10331122 51032
14740KBDL BDL20161209215012212/09/16 21:50:31  5-MIN KBDL 100250Z 31013KT 10SM FEW050 M03/M12 A3021 -90 50 -2300 330/13 RMK AO2 SLP232 T10331122 51032
14740KBDL BDL20161209215510612/09/16 21:55:31  5-MIN KBDL 100255Z 31010KT 10SM CLR M03/M12 A3021 -90 50 -2300 330/10 RMK AO2 T10331122
14740KBDL BDL20161209220010612/09/16 22:00:31  5-MIN KBDL 100300Z 32012KT 10SM CLR M03/M12 A3021 -90 50 -2300 330/12 RMK AO2 T10331122
14740KBDL BDL20161209220510612/09/16 22:05:31  5-MIN KBDL 100305Z 31009KT 10SM CLR M03/M12 A3021 -90 50 -2300 320/09 RMK AO2 T10331122
14740KBDL BDL20161209221010612/09/16 22:10:31  5-MIN KBDL 100310Z 31008KT 10SM CLR M04/M12 A3021 -90 52 -2400 320/08 RMK AO2 T10391122
14740KBDL BDL20161209221510612/09/16 22:15:31  5-MIN KBDL 100315Z 31007KT 10SM CLR M04/M12 A3022 -90 52 -2400 330/07 RMK AO2 T10391122
14740KBDL BDL20161209222010612/09/16 22:20:31  5-MIN KBDL 100320Z 32007KT 10SM CLR M04/M12 A3022 -90 52 -2400 330/07 RMK AO2 T10391122
14740KBDL BDL20161209222511212/09/16 22:25:31  5-MIN KBDL 100325Z 31011G16KT 10SM CLR M04/M12 A3022 -90 52 -2400 330/11G16 RMK AO2 T10391122
14740KBDL BDL20161209223011312/09/16 22:30:31  5-MIN KBDL 100330Z 30008G16KT 10SM CLR M03/M12 A3022 -100 50 -2300 320/08G16 RMK AO2 T10331122
14740KBDL BDL20161209223510712/09/16 22:35:31  5-MIN KBDL 100335Z 31010KT 10SM CLR M04/M12 A3022 -100 52 -2400 330/10 RMK AO2 T10391122
14740KBDL BDL20161209224010712/09/16 22:40:31  5-MIN KBDL 100340Z 32008KT 10SM CLR M04/M12 A3022 -100 52 -2400 330/08 RMK AO2 T10391122
14740KBDL BDL20161209224511412/09/16 22:45:31  5-MIN KBDL 100345Z 32008KT 10SM CLR M04/M12 A3022 -100 55 -2400 340/08 RMK AO2 SLP236 T10441122
14740KBDL BDL20161209225011712/09/16 22:50:31  5-MIN KBDL 100350Z 32012KT 10SM FEW050 M04/M13 A3022 -100 50 -2400 330/12 RMK AO2 SLP236 T10391128
14740KBDL BDL20161209225510712/09/16 22:55:31  5-MIN KBDL 100355Z 32011KT 10SM CLR M04/M13 A3022 -100 50 -2400 330/11 RMK AO2 T10391128
14740KBDL BDL20161209230010712/09/16 23:00:31  5-MIN KBDL 100400Z 32007KT 10SM CLR M04/M13 A3022 -100 52 -2400 330/07 RMK AO2 T10441128
14740KBDL BDL20161209230510712/09/16 23:05:31  5-MIN KBDL 100405Z 32008KT 10SM CLR M04/M13 A3022 -100 50 -2400 330/08 RMK AO2 T10391128
14740KBDL BDL20161209231010712/09/16 23:10:31  5-MIN KBDL 100410Z 32006KT 10SM CLR M04/M13 A3022 -100 52 -2400 330/06 RMK AO2 T10441128
14740KBDL BDL20161209231510712/09/16 23:15:31  5-MIN KBDL 100415Z 31005KT 10SM CLR M04/M13 A3022 -100 52 -2400 320/05 RMK AO2 T10441128
14740KBDL BDL20161209232010712/09/16 23:20:31  5-MIN KBDL 100420Z 30006KT 10SM CLR M05/M13 A3023 -100 55 -2500 320/06 RMK AO2 T10501128
14740KBDL BDL20161209232510712/09/16 23:25:31  5-MIN KBDL 100425Z 31006KT 10SM CLR M05/M13 A3022 -100 55 -2500 320/06 RMK AO2 T10501128
14740KBDL BDL20161209233010712/09/16 23:30:31  5-MIN KBDL 100430Z 32006KT 10SM CLR M04/M13 A3022 -100 52 -2400 340/06 RMK AO2 T10441128
14740KBDL BDL20161209233510712/09/16 23:35:31  5-MIN KBDL 100435Z 31005KT 10SM CLR M04/M13 A3022 -100 52 -2400 330/05 RMK AO2 T10441128
14740KBDL BDL20161209234010712/09/16 23:40:31  5-MIN KBDL 100440Z 31007KT 10SM CLR M06/M13 A3022 -100 57 -2600 330/07 RMK AO2 T10561128
14740KBDL BDL20161209234512412/09/16 23:45:31  5-MIN KBDL 100445Z 29005KT 10SM CLR M05/M13 A3023 -100 55 -2500 310/05 RMK AO2 SLP237 T10501128 400281056
14740KBDL BDL20161209235012412/09/16 23:50:31  5-MIN KBDL 100450Z 30004KT 10SM CLR M06/M13 A3023 -100 57 -2600 310/04 RMK AO2 SLP238 T10561128 400281056
14740KBDL BDL20161209235510712/09/16 23:55:31  5-MIN KBDL 100455Z 30003KT 10SM CLR M06/M13 A3023 -100 57 -2600 320/03 RMK AO2 T10561128
14740KBDL BDL20161210000010712/10/16 00:00:31  5-MIN KBDL 100500Z 32003KT 10SM CLR M05/M13 A3023 -100 55 -2500 330/03 RMK AO2 T10501128
14740KBDL BDL20161210000510712/10/16 00:05:31  5-MIN KBDL 100505Z 31003KT 10SM CLR M05/M13 A3023 -100 55 -2500 320/03 RMK AO2 T10501128
14740KBDL BDL20161210001010712/10/16 00:10:31  5-MIN KBDL 100510Z 30003KT 10SM CLR M05/M13 A3023 -100 55 -2500 320/03 RMK AO2 T10501128
14740KBDL BDL20161210001510712/10/16 00:15:31  5-MIN KBDL 100515Z 30003KT 10SM CLR M06/M13 A3023 -110 57 -2600 320/03 RMK AO2 T10561128
14740KBDL BDL20161210002010712/10/16 00:20:31  5-MIN KBDL 100520Z 29004KT 10SM CLR M05/M13 A3023 -110 55 -2500 300/04 RMK AO2 T10501128
14740KBDL BDL20161210002510712/10/16 00:25:31  5-MIN KBDL 100525Z 30004KT 10SM CLR M06/M13 A3023 -110 57 -2600 320/04 RMK AO2 T10561128
14740KBDL BDL20161210003010712/10/16 00:30:31  5-MIN KBDL 100530Z 30005KT 10SM CLR M06/M13 A3024 -110 57 -2600 320/05 RMK AO2 T10561128
14740KBDL BDL20161210003510712/10/16 00:35:31  5-MIN KBDL 100535Z 30006KT 10SM CLR M06/M13 A3024 -110 59 -2700 310/06 RMK AO2 T10611128
14740KBDL BDL20161210004010712/10/16 00:40:31  5-MIN KBDL 100540Z 30007KT 10SM CLR M06/M12 A3024 -110 62 -2700 310/07 RMK AO2 T10611122
14740KBDL BDL20161210004513212/10/16 00:45:31  5-MIN KBDL 100545Z 31007KT 10SM CLR M06/M12 A3023 -110 62 -2700 320/07 RMK AO2 SLP240 T10611122 11022 21061 52009
14740KBDL BDL20161210005013212/10/16 00:50:31  5-MIN KBDL 100550Z 29007KT 10SM CLR M06/M12 A3023 -110 62 -2700 300/07 RMK AO2 SLP240 T10611122 11022 21061 52009
14740KBDL BDL20161210005510712/10/16 00:55:31  5-MIN KBDL 100555Z 31007KT 10SM CLR M06/M12 A3023 -110 59 -2600 320/07 RMK AO2 T10561122
14740KBDL BDL20161210010010712/10/16 01:00:31  5-MIN KBDL 100600Z 31008KT 10SM CLR M05/M12 A3023 -110 57 -2500 320/08 RMK AO2 T10501122
14740KBDL BDL20161210010510712/10/16 01:05:31  5-MIN KBDL 100605Z 31008KT 10SM CLR M05/M12 A3023 -100 57 -2500 330/08 RMK AO2 T10501122
14740KBDL BDL20161210011010712/10/16 01:10:31  5-MIN KBDL 100610Z 31007KT 10SM CLR M06/M12 A3023 -110 59 -2600 320/07 RMK AO2 T10561122
14740KBDL BDL20161210011510712/10/16 01:15:31  5-MIN KBDL 100615Z 31009KT 10SM CLR M06/M12 A3023 -110 59 -2600 320/09 RMK AO2 T10561122
14740KBDL BDL20161210012010712/10/16 01:20:31  5-MIN KBDL 100620Z 31007KT 10SM CLR M06/M12 A3023 -110 59 -2600 320/07 RMK AO2 T10561122
14740KBDL BDL20161210012510712/10/16 01:25:31  5-MIN KBDL 100625Z 31008KT 10SM CLR M06/M12 A3023 -110 59 -2600 330/08 RMK AO2 T10561122
14740KBDL BDL20161210013010712/10/16 01:30:31  5-MIN KBDL 100630Z 32006KT 10SM CLR M06/M12 A3023 -110 59 -2600 330/06 RMK AO2 T10561122
14740KBDL BDL20161210013510712/10/16 01:35:31  5-MIN KBDL 100635Z 31006KT 10SM CLR M06/M12 A3023 -110 59 -2600 330/06 RMK AO2 T10561122
14740KBDL BDL20161210014010712/10/16 01:40:31  5-MIN KBDL 100640Z 31006KT 10SM CLR M06/M12 A3024 -110 62 -2700 320/06 RMK AO2 T10611122
14740KBDL BDL20161210014511412/10/16 01:45:31  5-MIN KBDL 100645Z 29005KT 10SM CLR M06/M12 A3025 -120 62 -2700 310/05 RMK AO2 SLP244 T10611122
14740KBDL BDL20161210015011412/10/16 01:50:31  5-MIN KBDL 100650Z 29006KT 10SM CLR M07/M12 A3025 -120 65 -2800 310/06 RMK AO2 SLP244 T10671122
14740KBDL BDL20161210015510712/10/16 01:55:31  5-MIN KBDL 100655Z 29005KT 10SM CLR M06/M12 A3025 -120 62 -2700 300/05 RMK AO2 T10611122
14740KBDL BDL20161210020010712/10/16 02:00:31  5-MIN KBDL 100700Z 29005KT 10SM CLR M06/M12 A3025 -120 62 -2700 310/05 RMK AO2 T10611122
14740KBDL BDL20161210020510712/10/16 02:05:31  5-MIN KBDL 100705Z 30005KT 10SM CLR M06/M13 A3025 -120 59 -2700 310/05 RMK AO2 T10611128
14740KBDL BDL20161210021010712/10/16 02:10:31  5-MIN KBDL 100710Z 29005KT 10SM CLR M07/M13 A3026 -130 62 -2800 310/05 RMK AO2 T10671128
14740KBDL BDL20161210021510712/10/16 02:15:31  5-MIN KBDL 100715Z 28005KT 10SM CLR M07/M13 A3026 -130 62 -2800 300/05 RMK AO2 T10671128
14740KBDL BDL20161210022010712/10/16 02:20:31  5-MIN KBDL 100720Z 29005KT 10SM CLR M06/M13 A3026 -130 59 -2700 310/05 RMK AO2 T10611128
14740KBDL BDL20161210022510712/10/16 02:25:31  5-MIN KBDL 100725Z 29005KT 10SM CLR M06/M13 A3026 -130 59 -2700 310/05 RMK AO2 T10611128
14740KBDL BDL20161210023010712/10/16 02:30:31  5-MIN KBDL 100730Z 30006KT 10SM CLR M07/M13 A3026 -130 62 -2800 310/06 RMK AO2 T10671128
14740KBDL BDL20161210023510712/10/16 02:35:31  5-MIN KBDL 100735Z 30008KT 10SM CLR M06/M13 A3026 -130 59 -2700 310/08 RMK AO2 T10611128
14740KBDL BDL20161210024010712/10/16 02:40:31  5-MIN KBDL 100740Z 32005KT 10SM CLR M06/M13 A3026 -130 59 -2700 330/05 RMK AO2 T10611128
14740KBDL BDL20161210024511412/10/16 02:45:31  5-MIN KBDL 100745Z 31007KT 10SM CLR M07/M13 A3026 -130 62 -2800 320/07 RMK AO2 SLP250 T10671128
14740KBDL BDL20161210025011412/10/16 02:50:31  5-MIN KBDL 100750Z 31007KT 10SM CLR M07/M13 A3026 -130 62 -2800 320/07 RMK AO2 SLP251 T10671128
14740KBDL BDL20161210025510712/10/16 02:55:31  5-MIN KBDL 100755Z 31008KT 10SM CLR M07/M13 A3027 -140 62 -2800 320/08 RMK AO2 T10671128
14740KBDL BDL20161210030010712/10/16 03:00:31  5-MIN KBDL 100800Z 31007KT 10SM CLR M07/M13 A3027 -140 62 -2800 320/07 RMK AO2 T10671128
14740KBDL BDL20161210030510712/10/16 03:05:31  5-MIN KBDL 100805Z 30006KT 10SM CLR M07/M13 A3027 -140 62 -2800 320/06 RMK AO2 T10671128
14740KBDL BDL20161210031010712/10/16 03:10:31  5-MIN KBDL 100810Z 30007KT 10SM CLR M07/M13 A3027 -140 62 -2800 320/07 RMK AO2 T10671128
14740KBDL BDL20161210031510712/10/16 03:15:31  5-MIN KBDL 100815Z 29006KT 10SM CLR M07/M13 A3027 -140 65 -2900 310/06 RMK AO2 T10721128
14740KBDL BDL20161210032010712/10/16 03:20:31  5-MIN KBDL 100820Z 30007KT 10SM CLR M07/M13 A3027 -140 62 -2800 310/07 RMK AO2 T10671128
14740KBDL BDL20161210032510712/10/16 03:25:31  5-MIN KBDL 100825Z 32008KT 10SM CLR M07/M13 A3027 -140 62 -2800 330/08 RMK AO2 T10671128
14740KBDL BDL20161210033010712/10/16 03:30:31  5-MIN KBDL 100830Z 31007KT 10SM CLR M07/M13 A3027 -140 62 -2800 320/07 RMK AO2 T10671128
14740KBDL BDL20161210033510712/10/16 03:35:31  5-MIN KBDL 100835Z 31008KT 10SM CLR M07/M13 A3027 -140 62 -2800 330/08 RMK AO2 T10671128
14740KBDL BDL20161210034010712/10/16 03:40:31  5-MIN KBDL 100840Z 32010KT 10SM CLR M06/M13 A3027 -140 59 -2700 340/10 RMK AO2 T10611128
14740KBDL BDL20161210034512012/10/16 03:45:31  5-MIN KBDL 100845Z 31008KT 10SM CLR M06/M13 A3027 -140 57 -2600 330/08 RMK AO2 SLP253 T10561128 51008
14740KBDL BDL20161210035012012/10/16 03:50:31  5-MIN KBDL 100850Z 32007KT 10SM CLR M06/M13 A3027 -140 59 -2700 330/07 RMK AO2 SLP254 T10611128 51008
14740KBDL BDL20161210035510712/10/16 03:55:31  5-MIN KBDL 100855Z 31007KT 10SM CLR M06/M13 A3027 -140 59 -2700 330/07 RMK AO2 T10611128
14740KBDL BDL20161210040010712/10/16 04:00:31  5-MIN KBDL 100900Z 32006KT 10SM CLR M07/M13 A3028 -150 62 -2800 330/06 RMK AO2 T10671128
14740KBDL BDL20161210040510712/10/16 04:05:31  5-MIN KBDL 100905Z 32005KT 10SM CLR M07/M13 A3028 -150 62 -2800 330/05 RMK AO2 T10671128
14740KBDL BDL20161210041010712/10/16 04:10:31  5-MIN KBDL 100910Z 31005KT 10SM CLR M07/M13 A3027 -140 62 -2900 330/05 RMK AO2 T10721133
14740KBDL BDL20161210041510712/10/16 04:15:31  5-MIN KBDL 100915Z 31005KT 10SM CLR M07/M13 A3027 -140 59 -2800 330/05 RMK AO2 T10671133
14740KBDL BDL20161210042010712/10/16 04:20:31  5-MIN KBDL 100920Z 32004KT 10SM CLR M07/M13 A3027 -140 62 -2900 330/04 RMK AO2 T10721133
14740KBDL BDL20161210042510712/10/16 04:25:31  5-MIN KBDL 100925Z 32004KT 10SM CLR M07/M13 A3028 -150 59 -2800 340/04 RMK AO2 T10671133
14740KBDL BDL20161210043010712/10/16 04:30:31  5-MIN KBDL 100930Z 33005KT 10SM CLR M07/M13 A3028 -150 59 -2800 340/05 RMK AO2 T10671133
14740KBDL BDL20161210043510712/10/16 04:35:31  5-MIN KBDL 100935Z 33005KT 10SM CLR M07/M13 A3028 -150 59 -2800 340/05 RMK AO2 T10671133
14740KBDL BDL20161210044010712/10/16 04:40:31  5-MIN KBDL 100940Z 32005KT 10SM CLR M07/M13 A3028 -150 59 -2800 340/05 RMK AO2 T10671133
14740KBDL BDL20161210044511412/10/16 04:45:31  5-MIN KBDL 100945Z 32005KT 10SM CLR M08/M13 A3028 -150 64 -2900 330/05 RMK AO2 SLP256 T10781133
14740KBDL BDL20161210045011412/10/16 04:50:31  5-MIN KBDL 100950Z 33004KT 10SM CLR M07/M13 A3028 -150 62 -2900 340/04 RMK AO2 SLP257 T10721133
14740KBDL BDL20161210045510712/10/16 04:55:31  5-MIN KBDL 100955Z 34004KT 10SM CLR M08/M13 A3029 -160 64 -2900 350/04 RMK AO2 T10781133
14740KBDL BDL20161210050010712/10/16 05:00:31  5-MIN KBDL 101000Z 34004KT 10SM CLR M07/M13 A3028 -150 62 -2900 350/04 RMK AO2 T10721133
14740KBDL BDL20161210050510712/10/16 05:05:31  5-MIN KBDL 101005Z 34005KT 10SM CLR M07/M13 A3029 -160 62 -2900 350/05 RMK AO2 T10721133
14740KBDL BDL20161210051010712/10/16 05:10:31  5-MIN KBDL 101010Z 33005KT 10SM CLR M07/M13 A3029 -160 59 -2800 350/05 RMK AO2 T10671133
14740KBDL BDL20161210051510712/10/16 05:15:31  5-MIN KBDL 101015Z 33005KT 10SM CLR M07/M13 A3029 -160 62 -2900 340/05 RMK AO2 T10721133
14740KBDL BDL20161210052010712/10/16 05:20:31  5-MIN KBDL 101020Z 33006KT 10SM CLR M07/M13 A3029 -160 62 -2900 340/06 RMK AO2 T10721133
14740KBDL BDL20161210052510712/10/16 05:25:31  5-MIN KBDL 101025Z 33005KT 10SM CLR M08/M13 A3029 -160 64 -3000 350/05 RMK AO2 T10781133
14740KBDL BDL20161210053010712/10/16 05:30:31  5-MIN KBDL 101030Z 31004KT 10SM CLR M08/M13 A3029 -160 64 -3000 330/04 RMK AO2 T10781133
14740KBDL BDL20161210053510712/10/16 05:35:31  5-MIN KBDL 101035Z 31004KT 10SM CLR M07/M13 A3029 -160 62 -2900 330/04 RMK AO2 T10721133
14740KBDL BDL20161210054010712/10/16 05:40:31  5-MIN KBDL 101040Z 30003KT 10SM CLR M07/M14 A3030 -170 59 -2900 320/03 RMK AO2 T10721139
14740KBDL BDL20161210054511412/10/16 05:45:31  5-MIN KBDL 101045Z 00000KT 10SM CLR M07/M13 A3030 -170 59 -2800 000/00 RMK AO2 SLP263 T10671133
14740KBDL BDL20161210055011412/10/16 05:50:31  5-MIN KBDL 101050Z 00000KT 10SM CLR M07/M14 A3030 -170 59 -2900 000/00 RMK AO2 SLP263 T10721139
14740KBDL BDL20161210055510712/10/16 05:55:31  5-MIN KBDL 101055Z 00000KT 10SM CLR M07/M13 A3030 -170 59 -2800 000/00 RMK AO2 T10671133
14740KBDL BDL20161210060010712/10/16 06:00:31  5-MIN KBDL 101100Z 00000KT 10SM CLR M07/M14 A3030 -170 57 -2800 000/00 RMK AO2 T10671139
14740KBDL BDL20161210060510712/10/16 06:05:31  5-MIN KBDL 101105Z 29003KT 10SM CLR M07/M14 A3031 -170 57 -2800 310/03 RMK AO2 T10671139
14740KBDL BDL20161210061010712/10/16 06:10:31  5-MIN KBDL 101110Z 28003KT 10SM CLR M07/M14 A3031 -170 59 -2900 300/03 RMK AO2 T10721139
14740KBDL BDL20161210061510712/10/16 06:15:31  5-MIN KBDL 101115Z 29003KT 10SM CLR M07/M13 A3031 -170 62 -2900 300/03 RMK AO2 T10721133
14740KBDL BDL20161210062010712/10/16 06:20:31  5-MIN KBDL 101120Z 27003KT 10SM CLR M07/M14 A3031 -180 59 -2900 290/03 RMK AO2 T10721139
14740KBDL BDL20161210062510712/10/16 06:25:31  5-MIN KBDL 101125Z 27003KT 10SM CLR M07/M14 A3031 -180 59 -2900 280/03 RMK AO2 T10721139
14740KBDL BDL20161210063010712/10/16 06:30:31  5-MIN KBDL 101130Z 27003KT 10SM CLR M08/M14 A3031 -180 62 -3000 280/03 RMK AO2 T10781139
14740KBDL BDL20161210063510712/10/16 06:35:31  5-MIN KBDL 101135Z 25003KT 10SM CLR M08/M14 A3032 -180 62 -3000 270/03 RMK AO2 T10781139
14740KBDL BDL20161210064010712/10/16 06:40:31  5-MIN KBDL 101140Z 24004KT 10SM CLR M07/M13 A3032 -190 62 -2900 260/04 RMK AO2 T10721133
14740KBDL BDL20161210064513212/10/16 06:45:31  5-MIN KBDL 101145Z 24004KT 10SM CLR M07/M13 A3032 -190 65 -2900 260/04 RMK AO2 SLP270 T10721128 11050 21083 51013
14740KBDL BDL20161210065014212/10/16 06:50:31  5-MIN KBDL 101150Z 24004KT 10SM FEW220 SCT250 M08/M13 A3032 -190 67 -3100 250/04 RMK AO2 SLP270 T10831133 11050 21083 51013
14740KBDL BDL20161210065510712/10/16 06:55:31  5-MIN KBDL 101155Z 23004KT 10SM CLR M08/M13 A3032 -190 67 -3100 240/04 RMK AO2 T10831133
14740KBDL BDL20161210070010712/10/16 07:00:31  5-MIN KBDL 101200Z 23004KT 10SM CLR M08/M13 A3032 -190 67 -3100 250/04 RMK AO2 T10831133
14740KBDL BDL20161210070510712/10/16 07:05:31  5-MIN KBDL 101205Z 23005KT 10SM CLR M08/M13 A3033 -190 67 -3100 250/05 RMK AO2 T10831133
14740KBDL BDL20161210071010712/10/16 07:10:31  5-MIN KBDL 101210Z 23004KT 10SM CLR M08/M13 A3033 -200 67 -3000 240/04 RMK AO2 T10781128
14740KBDL BDL20161210071510712/10/16 07:15:31  5-MIN KBDL 101215Z 23004KT 10SM CLR M07/M13 A3033 -200 65 -2900 250/04 RMK AO2 T10721128
14740KBDL BDL20161210072010712/10/16 07:20:31  5-MIN KBDL 101220Z 23003KT 10SM CLR M07/M13 A3033 -190 65 -2900 250/03 RMK AO2 T10721128
14740KBDL BDL20161210072510712/10/16 07:25:31  5-MIN KBDL 101225Z 23003KT 10SM CLR M07/M12 A3033 -190 68 -2900 250/03 RMK AO2 T10721122
14740KBDL BDL20161210073010712/10/16 07:30:31  5-MIN KBDL 101230Z 24003KT 10SM CLR M07/M12 A3033 -190 68 -2900 260/03 RMK AO2 T10721122
14740KBDL BDL20161210073510712/10/16 07:35:31  5-MIN KBDL 101235Z 25003KT 10SM CLR M07/M13 A3033 -190 62 -2900 260/03 RMK AO2 T10671128
14740KBDL BDL20161210074010712/10/16 07:40:31  5-MIN KBDL 101240Z 25003KT 10SM CLR M07/M13 A3033 -190 62 -2800 260/03 RMK AO2 T10671128
14740KBDL BDL20161210074511412/10/16 07:45:31  5-MIN KBDL 101245Z 23003KT 10SM CLR M07/M12 A3033 -190 65 -2900 250/03 RMK AO2 SLP272 T10671122
14740KBDL BDL20161210075012412/10/16 07:50:31  5-MIN KBDL 101250Z 23004KT 10SM FEW220 BKN240 M07/M12 A3033 -190 68 -2900 250/04 RMK AO2 SLP273 T10671117
14740KBDL BDL20161211050510712/11/16 05:05:31  5-MIN KBDL 111005Z 00000KT 10SM CLR M12/M14 A3047 -320 84 -3700 000/00 RMK AO2 T11171139
14740KBDL BDL20161211051010912/11/16 05:10:31  5-MIN KBDL 111010Z 00000KT 10SM CLR M12/M14 A3047 -320 84 -3800 000/00 RMK AO2 T11221144 $
14740KBDL BDL20161211051510912/11/16 05:15:31  5-MIN KBDL 111015Z 00000KT 10SM CLR M12/M14 A3047 -330 80 -3700 000/00 RMK AO2 T11171144 $
14740KBDL BDL20161211052010912/11/16 05:20:31  5-MIN KBDL 111020Z 00000KT 10SM CLR M12/M14 A3048 -330 80 -3700 000/00 RMK AO2 T11171144 $
14740KBDL BDL20161211052510912/11/16 05:25:31  5-MIN KBDL 111025Z 00000KT 10SM CLR M12/M14 A3048 -330 84 -3700 000/00 RMK AO2 T11171139 $
14740KBDL BDL20161211053010912/11/16 05:30:31  5-MIN KBDL 111030Z 00000KT 10SM CLR M12/M14 A3048 -330 84 -3700 000/00 RMK AO2 T11171139 $
14740KBDL BDL20161211053510912/11/16 05:35:31  5-MIN KBDL 111035Z 00000KT 10SM CLR M12/M14 A3048 -330 84 -3700 000/00 RMK AO2 T11171139 $
14740KBDL BDL20161211054010912/11/16 05:40:31  5-MIN KBDL 111040Z 00000KT 10SM CLR M12/M14 A3048 -330 84 -3700 000/00 RMK AO2 T11171139 $
14740KBDL BDL20161211054511612/11/16 05:45:31  5-MIN KBDL 111045Z 31003KT 10SM CLR M12/M14 A3048 -330 84 -3700 320/03 RMK AO2 SLP324 T11171139 $
14740KBDL BDL20161211055011912/11/16 05:50:31  5-MIN KBDL 111050Z 31003KT 10SM FEW250 M12/M14 A3048 -330 84 -3800 330/03 RMK AO2 SLP325 T11221144 $
14740KBDL BDL20161211055510912/11/16 05:55:31  5-MIN KBDL 111055Z 00000KT 10SM CLR M12/M14 A3048 -340 84 -3800 000/00 RMK AO2 T11221144 $
14740KBDL BDL20161211060010912/11/16 06:00:31  5-MIN KBDL 111100Z 00000KT 10SM CLR M12/M14 A3049 -350 84 -3800 000/00 RMK AO2 T11221144 $
14740KBDL BDL20161211060510912/11/16 06:05:31  5-MIN KBDL 111105Z 00000KT 10SM CLR M12/M14 A3050 -350 84 -3800 000/00 RMK AO2 T11221144 $
14740KBDL BDL20161211061010912/11/16 06:10:31  5-MIN KBDL 111110Z 00000KT 10SM CLR M12/M14 A3050 -350 84 -3800 000/00 RMK AO2 T11221144 $
14740KBDL BDL20161211061510912/11/16 06:15:31  5-MIN KBDL 111115Z 00000KT 10SM CLR M12/M14 A3050 -350 84 -3800 000/00 RMK AO2 T11221144 $
14740KBDL BDL20161211062010912/11/16 06:20:31  5-MIN KBDL 111120Z 00000KT 10SM CLR M12/M14 A3050 -350 84 -3800 000/00 RMK AO2 T11221144 $
14740KBDL BDL20161211062510912/11/16 06:25:31  5-MIN KBDL 111125Z 00000KT 10SM CLR M12/M14 A3050 -350 84 -3700 000/00 RMK AO2 T11171139 $
14740KBDL BDL20161211063010912/11/16 06:30:31  5-MIN KBDL 111130Z 00000KT 10SM CLR M12/M14 A3050 -350 84 -3700 000/00 RMK AO2 T11171139 $
14740KBDL BDL20161211063510912/11/16 06:35:31  5-MIN KBDL 111135Z 00000KT 10SM CLR M12/M14 A3050 -360 80 -3700 000/00 RMK AO2 T11171144 $
14740KBDL BDL20161211064010912/11/16 06:40:31  5-MIN KBDL 111140Z 00000KT 10SM CLR M12/M14 A3050 -350 80 -3700 000/00 RMK AO2 T11171144 $
14740KBDL BDL20161211064513412/11/16 06:45:31  5-MIN KBDL 111145Z 00000KT 10SM CLR M11/M14 A3051 -360 77 -3600 000/00 RMK AO2 SLP333 T11111144 11094 21122 51006 $
14740KBDL BDL20161211065015612/11/16 06:50:31  5-MIN KBDL 111150Z 00000KT 10SM FEW200 SCT250 M12/M14 A3051 -360 80 -3700 000/00 RMK AO2 SLP333 I1000 I6000 T11171144 11094 21122 51006 $
14740KBDL BDL20161211065510912/11/16 06:55:31  5-MIN KBDL 111155Z 00000KT 10SM CLR M12/M15 A3051 -360 76 -3700 000/00 RMK AO2 T11171150 $
14740KBDL BDL20161211070010912/11/16 07:00:31  5-MIN KBDL 111200Z 00000KT 10SM CLR M12/M14 A3051 -360 80 -3700 000/00 RMK AO2 T11171144 $
14740KBDL BDL20161211070510912/11/16 07:05:31  5-MIN KBDL 111205Z 00000KT 10SM CLR M13/M14 A3051 -360 87 -3900 000/00 RMK AO2 T11281144 $
14740KBDL BDL20161211071010912/11/16 07:10:31  5-MIN KBDL 111210Z 00000KT 10SM CLR M12/M14 A3051 -360 84 -3700 000/00 RMK AO2 T11171139 $
14740KBDL BDL20161211071510912/11/16 07:15:31  5-MIN KBDL 111215Z 00000KT 10SM CLR M12/M14 A3051 -360 84 -3700 000/00 RMK AO2 T11171139 $
14740KBDL BDL20161211072010912/11/16 07:20:31  5-MIN KBDL 111220Z 00000KT 10SM CLR M12/M14 A3051 -360 84 -3700 000/00 RMK AO2 T11171139 $
14740KBDL BDL20161211072510912/11/16 07:25:31  5-MIN KBDL 111225Z 00000KT 10SM CLR M11/M14 A3052 -370 80 -3700 000/00 RMK AO2 T11111139 $
14740KBDL BDL20161211073010912/11/16 07:30:31  5-MIN KBDL 111230Z 00000KT 10SM CLR M11/M14 A3052 -370 77 -3700 000/00 RMK AO2 T11111144 $
14740KBDL BDL20161211073510912/11/16 07:35:31  5-MIN KBDL 111235Z 00000KT 10SM CLR M11/M14 A3052 -370 80 -3700 000/00 RMK AO2 T11111139 $
14740KBDL BDL20161211074010912/11/16 07:40:31  5-MIN KBDL 111240Z 00000KT 10SM CLR M11/M13 A3052 -370 80 -3600 000/00 RMK AO2 T11061133 $
14740KBDL BDL20161211074511612/11/16 07:45:31  5-MIN KBDL 111245Z 00000KT 10SM CLR M10/M13 A3052 -370 80 -3500 000/00 RMK AO2 SLP337 T11001128 $
14740KBDL BDL20161211075013312/11/16 07:50:31  5-MIN KBDL 111250Z 00000KT 10SM FEW150 FEW220 SCT250 M10/M13 A3052 -370 80 -3500 000/00 RMK AO2 SLP338 T11001128 $
14740KBDL BDL20161211075510912/11/16 07:55:31  5-MIN KBDL 111255Z 00000KT 10SM CLR M11/M13 A3052 -370 80 -3600 000/00 RMK AO2 T11061133 $
14740KBDL BDL20161211080010912/11/16 08:00:31  5-MIN KBDL 111300Z 00000KT 10SM CLR M11/M13 A3052 -370 80 -3600 000/00 RMK AO2 T11061133 $
14740KBDL BDL20161211080510912/11/16 08:05:31  5-MIN KBDL 111305Z 00000KT 10SM CLR M10/M13 A3052 -370 80 -3500 000/00 RMK AO2 T11001128 $
14740KBDL BDL20161211081010912/11/16 08:10:31  5-MIN KBDL 111310Z 00000KT 10SM CLR M09/M12 A3052 -370 80 -3400 000/00 RMK AO2 T10941122 $
14740KBDL BDL20161211081510912/11/16 08:15:31  5-MIN KBDL 111315Z 00000KT 10SM CLR M09/M12 A3052 -370 80 -3400 000/00 RMK AO2 T10941122 $
14740KBDL BDL20161211082010912/11/16 08:20:31  5-MIN KBDL 111320Z 00000KT 10SM CLR M09/M12 A3052 -370 84 -3400 000/00 RMK AO2 T10941117 $
14740KBDL BDL20161211082510912/11/16 08:25:31  5-MIN KBDL 111325Z 00000KT 10SM CLR M09/M12 A3052 -370 80 -3400 000/00 RMK AO2 T10891117 $
14740KBDL BDL20161211083010912/11/16 08:30:31  5-MIN KBDL 111330Z 00000KT 10SM CLR M08/M11 A3053 -380 80 -3300 000/00 RMK AO2 T10831111 $
14740KBDL BDL20161211083510912/11/16 08:35:31  5-MIN KBDL 111335Z 00000KT 10SM CLR M08/M11 A3053 -380 80 -3200 000/00 RMK AO2 T10781106 $
14740KBDL BDL20161211084010912/11/16 08:40:31  5-MIN KBDL 111340Z 00000KT 10SM CLR M07/M11 A3053 -380 74 -3200 000/00 RMK AO2 T10721111 $
14740KBDL BDL20161211084511612/11/16 08:45:31  5-MIN KBDL 111345Z 00000KT 10SM CLR M07/M11 A3053 -380 74 -3200 000/00 RMK AO2 SLP342 T10721111 $
14740KBDL BDL20161211085012612/11/16 08:50:31  5-MIN KBDL 111350Z 00000KT 10SM FEW220 SCT250 M07/M11 A3053 -380 77 -3200 000/00 RMK AO2 SLP342 T10721106 $
14740KBDL BDL20161211085510912/11/16 08:55:31  5-MIN KBDL 111355Z 00000KT 10SM CLR M07/M11 A3053 -380 74 -3100 000/00 RMK AO2 T10671106 $
14740KBDL BDL20161211090010912/11/16 09:00:31  5-MIN KBDL 111400Z 00000KT 10SM CLR M07/M10 A3054 -380 81 -3200 000/00 RMK AO2 T10721100 $
14740KBDL BDL20161211090510912/11/16 09:05:31  5-MIN KBDL 111405Z 00000KT 10SM CLR M07/M10 A3054 -390 77 -3100 000/00 RMK AO2 T10671100 $
14740KBDL BDL20161211091010912/11/16 09:10:31  5-MIN KBDL 111410Z 00000KT 10SM CLR M07/M10 A3054 -390 77 -3100 000/00 RMK AO2 T10671100 $
14740KBDL BDL20161211091510912/11/16 09:15:31  5-MIN KBDL 111415Z 00000KT 10SM CLR M07/M09 A3054 -390 81 -3100 000/00 RMK AO2 T10671094 $
14740KBDL BDL20161211092010912/11/16 09:20:31  5-MIN KBDL 111420Z 21003KT 10SM CLR M07/M09 A3054 -390 81 -3100 220/03 RMK AO2 T10671094 $
14740KBDL BDL20161211092510912/11/16 09:25:31  5-MIN KBDL 111425Z 17003KT 10SM CLR M06/M09 A3054 -390 77 -3000 180/03 RMK AO2 T10611094 $
14740KBDL BDL20161211093010912/11/16 09:30:31  5-MIN KBDL 111430Z 17004KT 10SM CLR M06/M09 A3054 -390 81 -3000 180/04 RMK AO2 T10611089 $
14740KBDL BDL20161211093510912/11/16 09:35:31  5-MIN KBDL 111435Z 16003KT 10SM CLR M06/M09 A3054 -390 81 -3000 180/03 RMK AO2 T10611089 $
14740KBDL BDL20161211094010912/11/16 09:40:31  5-MIN KBDL 111440Z 17003KT 10SM CLR M06/M08 A3054 -390 81 -3000 190/03 RMK AO2 T10561083 $
14740KBDL BDL20161211094512212/11/16 09:45:31  5-MIN KBDL 111445Z 18003KT 10SM CLR M06/M09 A3054 -390 81 -3000 200/03 RMK AO2 SLP346 T10611089 53017 $
14740KBDL BDL20161211095013212/11/16 09:50:31  5-MIN KBDL 111450Z 00000KT 10SM FEW220 BKN250 M06/M09 A3055 -390 77 -3000 000/00 RMK AO2 SLP346 T10561089 53017 $
14740KBDL BDL20161211095510912/11/16 09:55:31  5-MIN KBDL 111455Z 18003KT 10SM CLR M06/M09 A3055 -390 77 -3000 200/03 RMK AO2 T10561089 $
14740KBDL BDL20161211100010912/11/16 10:00:31  5-MIN KBDL 111500Z 17003KT 10SM CLR M05/M08 A3055 -390 77 -2900 180/03 RMK AO2 T10501083 $
14740KBDL BDL20161211100510912/11/16 10:05:31  5-MIN KBDL 111505Z 18003KT 10SM CLR M05/M08 A3054 -390 77 -2900 200/03 RMK AO2 T10501083 $
14740KBDL BDL20161211101010912/11/16 10:10:31  5-MIN KBDL 111510Z 17003KT 10SM CLR M04/M08 A3054 -390 74 -2800 190/03 RMK AO2 T10441083 $
14740KBDL BDL20161211101510912/11/16 10:15:31  5-MIN KBDL 111515Z 16003KT 10SM CLR M04/M08 A3054 -390 74 -2800 180/03 RMK AO2 T10441083 $
14740KBDL BDL20161211102010912/11/16 10:20:31  5-MIN KBDL 111520Z 16003KT 10SM CLR M04/M08 A3054 -390 74 -2700 170/03 RMK AO2 T10391078 $
14740KBDL BDL20161211102510912/11/16 10:25:31  5-MIN KBDL 111525Z 17003KT 10SM CLR M04/M08 A3054 -380 74 -2700 190/03 RMK AO2 T10391078 $
14740KBDL BDL20161211103010912/11/16 10:30:31  5-MIN KBDL 111530Z 20003KT 10SM CLR M04/M08 A3054 -380 71 -2700 210/03 RMK AO2 T10391083 $
14740KBDL BDL20161211103510912/11/16 10:35:31  5-MIN KBDL 111535Z 19004KT 10SM CLR M03/M08 A3054 -380 68 -2700 200/04 RMK AO2 T10331083 $
14740KBDL BDL20161211104010912/11/16 10:40:31  5-MIN KBDL 111540Z 19004KT 10SM CLR M03/M08 A3053 -380 68 -2700 200/04 RMK AO2 T10331083 $
14740KBDL BDL20161211104511612/11/16 10:45:31  5-MIN KBDL 111545Z 18005KT 10SM CLR M03/M08 A3053 -380 68 -2700 200/05 RMK AO2 SLP341 T10331083 $
14740KBDL BDL20161211105013312/11/16 10:50:31  5-MIN KBDL 111550Z 19004KT 10SM FEW160 FEW220 BKN250 M03/M08 A3053 -380 68 -2600 200/04 RMK AO2 SLP340 T10331083 $
14740KBDL BDL20161211105510912/11/16 10:55:31  5-MIN KBDL 111555Z 18005KT 10SM CLR M03/M08 A3052 -370 66 -2600 190/05 RMK AO2 T10281083 $
14740KBDL BDL20161211110010912/11/16 11:00:31  5-MIN KBDL 111600Z 19004KT 10SM CLR M03/M08 A3052 -370 66 -2600 200/04 RMK AO2 T10281083 $
14740KBDL BDL20161211110510912/11/16 11:05:31  5-MIN KBDL 111605Z 18004KT 10SM CLR M02/M08 A3052 -360 63 -2500 190/04 RMK AO2 T10221083 $
14740KBDL BDL20161211111010912/11/16 11:10:31  5-MIN KBDL 111610Z 14004KT 10SM CLR M02/M08 A3052 -360 63 -2500 160/04 RMK AO2 T10221083 $
14740KBDL BDL20161211111510912/11/16 11:15:31  5-MIN KBDL 111615Z 19003KT 10SM CLR M02/M08 A3051 -360 60 -2400 200/03 RMK AO2 T10171083 $
14740KBDL BDL20161211112010912/11/16 11:20:31  5-MIN KBDL 111620Z 17004KT 10SM CLR M02/M08 A3051 -360 60 -2400 190/04 RMK AO2 T10171083 $
14740KBDL BDL20161211112510912/11/16 11:25:31  5-MIN KBDL 111625Z 18006KT 10SM CLR M01/M08 A3050 -350 58 -2300 200/06 RMK AO2 T10111083 $
14740KBDL BDL20161211113010912/11/16 11:30:31  5-MIN KBDL 111630Z 18006KT 10SM CLR M02/M09 A3050 -350 58 -2400 190/06 RMK AO2 T10171089 $
14740KBDL BDL20161211113510912/11/16 11:35:31  5-MIN KBDL 111635Z 18005KT 10SM CLR M01/M08 A3050 -350 58 -2300 190/05 RMK AO2 T10111083 $
14740KBDL BDL20161211114010912/11/16 11:40:31  5-MIN KBDL 111640Z 18008KT 10SM CLR M01/M08 A3050 -350 58 -2300 200/08 RMK AO2 T10111083 $
14740KBDL BDL20161211114511612/11/16 11:45:31  5-MIN KBDL 111645Z 17006KT 10SM CLR M01/M09 A3049 -340 53 -2300 190/06 RMK AO2 SLP328 T10061089 $
14740KBDL BDL20161211115013312/11/16 11:50:31  5-MIN KBDL 111650Z 20006KT 10SM FEW150 FEW220 BKN250 M01/M09 A3049 -340 55 -2300 210/06 RMK AO2 SLP327 T10111089 $
14740KBDL BDL20161211115510912/11/16 11:55:31  5-MIN KBDL 111655Z 18008KT 10SM CLR M01/M09 A3049 -340 53 -2200 190/08 RMK AO2 T10061089 $
14740KBDL BDL20161211120010912/11/16 12:00:31  5-MIN KBDL 111700Z 17008KT 10SM CLR M01/M09 A3048 -330 51 -2200 180/08 RMK AO2 T10061094 $
14740KBDL BDL20161211120510912/11/16 12:05:31  5-MIN KBDL 111705Z 19008KT 10SM CLR M01/M09 A3048 -330 53 -2200 200/08 RMK AO2 T10061089 $
14740KBDL BDL20161211121010912/11/16 12:10:31  5-MIN KBDL 111710Z 19007KT 10SM CLR M01/M09 A3048 -330 51 -2200 200/07 RMK AO2 T10061094 $
14740KBDL BDL20161211121510912/11/16 12:15:31  5-MIN KBDL 111715Z 19007KT 10SM CLR M01/M09 A3047 -330 51 -2200 210/07 RMK AO2 T10061094 $
14740KBDL BDL20161211122010812/11/16 12:20:31  5-MIN KBDL 111720Z 17007KT 10SM CLR 00/M09 A3047 -320 51 -2200 190/07 RMK AO2 T00001089 $
14740KBDL BDL20161211122510812/11/16 12:25:31  5-MIN KBDL 111725Z 18006KT 10SM CLR 00/M09 A3047 -320 49 -2200 190/06 RMK AO2 T00001094 $
14740KBDL BDL20161211123010812/11/16 12:30:31  5-MIN KBDL 111730Z 18008KT 10SM CLR 00/M09 A3047 -320 49 -2200 200/08 RMK AO2 T00001094 $
14740KBDL BDL20161211123510812/11/16 12:35:31  5-MIN KBDL 111735Z 18011KT 10SM CLR 00/M09 A3046 -320 49 -2200 190/11 RMK AO2 T00001094 $
14740KBDL BDL20161211124010912/11/16 12:40:31  5-MIN KBDL 111740Z 18008KT 10SM CLR M01/M11 A3046 -320 47 -2200 200/08 RMK AO2 T10061106 $
14740KBDL BDL20161211124513312/11/16 12:45:31  5-MIN KBDL 111745Z 17007KT 10SM CLR 00/M10 A3046 -320 47 -2100 190/07 RMK AO2 SLP318 T00001100 10006 21128 51013 $
14740KBDL BDL20161211125014312/11/16 12:50:31  5-MIN KBDL 111750Z 20007KT 10SM BKN160 BKN250 00/M10 A3046 -320 47 -2100 210/07 RMK AO2 SLP318 T00001100 10006 21128 51013 $
14740KBDL BDL20161211125510812/11/16 12:55:31  5-MIN KBDL 111755Z 21006KT 10SM CLR 00/M11 A3046 -320 43 -2100 220/06 RMK AO2 T00001111 $
14740KBDL BDL20161211130010812/11/16 13:00:31  5-MIN KBDL 111800Z 18006KT 10SM CLR 00/M11 A3046 -310 43 -2100 190/06 RMK AO2 T00001111 $
14740KBDL BDL20161211130510812/11/16 13:05:31  5-MIN KBDL 111805Z 19007KT 10SM CLR 00/M11 A3046 -310 43 -2100 200/07 RMK AO2 T00001111 $
14740KBDL BDL20161211131010812/11/16 13:10:31  5-MIN KBDL 111810Z 18007KT 10SM CLR 00/M11 A3045 -310 45 -2100 200/07 RMK AO2 T00001106 $
14740KBDL BDL20161211131510812/11/16 13:15:31  5-MIN KBDL 111815Z 18009KT 10SM CLR 00/M10 A3045 -300 47 -2100 190/09 RMK AO2 T00001100 $
14740KBDL BDL20161211132010812/11/16 13:20:31  5-MIN KBDL 111820Z 18009KT 10SM CLR 00/M10 A3045 -300 47 -2100 190/09 RMK AO2 T00001100 $
14740KBDL BDL20161211132510812/11/16 13:25:31  5-MIN KBDL 111825Z 18006KT 10SM CLR 00/M10 A3044 -300 47 -2100 190/06 RMK AO2 T00001100 $
14740KBDL BDL20161211133010812/11/16 13:30:31  5-MIN KBDL 111830Z 18006KT 10SM CLR 00/M10 A3044 -300 47 -2100 200/06 RMK AO2 T00001100 $
14740KBDL BDL20161211133511212/11/16 13:35:31  5-MIN KBDL 111835Z 16007KT 10SM FEW100 M01/M10 A3044 -300 49 -2200 170/07 RMK AO2 T10061100 $
14740KBDL BDL20161211134011112/11/16 13:40:31  5-MIN KBDL 111840Z 16007KT 10SM SCT100 00/M10 A3044 -300 47 -2100 180/07 RMK AO2 T00001100 $
14740KBDL BDL20161211134511812/11/16 13:45:31  5-MIN KBDL 111845Z 18005KT 10SM BKN095 00/M10 A3044 -300 47 -2100 190/05 RMK AO2 SLP312 T00001100 $
14740KBDL BDL20161211135013912/11/16 13:50:31  5-MIN KBDL 111850Z 18008KT 10SM FEW045 BKN095 BKN160 BKN250 00/M10 A3044 -290 47 -2100 200/08 RMK AO2 SLP310 T00001100 $
14740KBDL BDL20161211135511112/11/16 13:55:31  5-MIN KBDL 111855Z 18007KT 10SM BKN095 00/M10 A3044 -300 47 -2100 190/07 RMK AO2 T00001100 $
14740KBDL BDL20161211140011112/11/16 14:00:31  5-MIN KBDL 111900Z 18006KT 10SM OVC090 00/M10 A3044 -300 47 -2100 190/06 RMK AO2 T00001100 $
14740KBDL BDL20161211140511112/11/16 14:05:31  5-MIN KBDL 111905Z 18004KT 10SM OVC090 00/M10 A3044 -300 47 -2100 190/04 RMK AO2 T00001100 $
14740KBDL BDL20161211141011112/11/16 14:10:31  5-MIN KBDL 111910Z 15006KT 10SM OVC090 00/M09 A3043 -290 49 -2100 170/06 RMK AO2 T00001094 $
14740KBDL BDL20161211141511112/11/16 14:15:31  5-MIN KBDL 111915Z 15006KT 10SM OVC090 00/M09 A3043 -290 49 -2100 170/06 RMK AO2 T00001094 $
14740KBDL BDL20161211142011112/11/16 14:20:31  5-MIN KBDL 111920Z 16006KT 10SM OVC090 00/M09 A3043 -290 49 -2100 170/06 RMK AO2 T00001094 $
14740KBDL BDL20161211142511112/11/16 14:25:31  5-MIN KBDL 111925Z 15007KT 10SM OVC090 00/M09 A3043 -290 49 -2100 160/07 RMK AO2 T00001094 $
14740KBDL BDL20161211143011112/11/16 14:30:31  5-MIN KBDL 111930Z 16006KT 10SM OVC095 00/M09 A3043 -280 49 -2100 170/06 RMK AO2 T00001094 $
14740KBDL BDL20161211143511112/11/16 14:35:31  5-MIN KBDL 111935Z 15007KT 10SM OVC095 00/M09 A3042 -280 49 -2100 160/07 RMK AO2 T00001094 $
14740KBDL BDL20161211144011112/11/16 14:40:31  5-MIN KBDL 111940Z 15008KT 10SM OVC095 00/M09 A3043 -290 49 -2100 170/08 RMK AO2 T00001094 $
14740KBDL BDL20161211144511812/11/16 14:45:31  5-MIN KBDL 111945Z 17007KT 10SM OVC090 00/M09 A3043 -290 49 -2100 190/07 RMK AO2 SLP307 T00001094 $
14740KBDL BDL20161211145014612/11/16 14:50:31  5-MIN KBDL 111950Z 18007KT 10SM FEW080 BKN095 BKN160 OVC250 00/M09 A3043 -280 49 -2100 200/07 RMK AO2 SLP306 BINOVC T00001094 $
14740KBDL BDL20161211145511112/11/16 14:55:31  5-MIN KBDL 111955Z 17006KT 10SM OVC090 00/M09 A3042 -280 49 -2100 190/06 RMK AO2 T00001094 $
14740KBDL BDL20161211150011112/11/16 15:00:31  5-MIN KBDL 112000Z 17007KT 10SM OVC090 00/M09 A3043 -280 49 -2100 190/07 RMK AO2 T00001094 $
14740KBDL BDL20161211150511112/11/16 15:05:31  5-MIN KBDL 112005Z 18005KT 10SM OVC090 00/M10 A3043 -290 47 -2100 190/05 RMK AO2 T00001100 $
14740KBDL BDL20161211151011112/11/16 15:10:31  5-MIN KBDL 112010Z 20007KT 10SM OVC085 00/M11 A3043 -290 45 -2100 210/07 RMK AO2 T00001106 $
14740KBDL BDL20161211151511812/11/16 15:15:31  5-MIN KBDL 112015Z 19008KT 10SM BKN080 OVC095 00/M11 A3043 -290 45 -2100 200/08 RMK AO2 T00001106 $
14740KBDL BDL20161211152011112/11/16 15:20:31  5-MIN KBDL 112020Z 19006KT 10SM OVC080 00/M11 A3043 -280 45 -2100 210/06 RMK AO2 T00001106 $
14740KBDL BDL20161211152511112/11/16 15:25:31  5-MIN KBDL 112025Z 18007KT 10SM OVC080 00/M11 A3043 -280 45 -2100 190/07 RMK AO2 T00001106 $
14740KBDL BDL20161211153011112/11/16 15:30:31  5-MIN KBDL 112030Z 17007KT 10SM OVC080 00/M11 A3042 -280 45 -2100 190/07 RMK AO2 T00001106 $
14740KBDL BDL20161211153511112/11/16 15:35:31  5-MIN KBDL 112035Z 18008KT 10SM OVC080 00/M11 A3042 -280 45 -2100 190/08 RMK AO2 T00001106 $
14740KBDL BDL20161211154011112/11/16 15:40:31  5-MIN KBDL 112040Z 18007KT 10SM OVC075 00/M11 A3042 -270 45 -2100 200/07 RMK AO2 T00001106 $
14740KBDL BDL20161211154512512/11/16 15:45:31  5-MIN KBDL 112045Z 19009KT 10SM OVC075 M01/M11 A3041 -270 47 -2200 200/09 RMK AO2 SLP301 T10061106 58029 $
14740KBDL BDL20161211155013112/11/16 15:50:31  5-MIN KBDL 112050Z 18007KT 10SM BKN070 OVC080 00/M11 A3041 -270 45 -2100 190/07 RMK AO2 SLP301 T00001106 58029 $
14740KBDL BDL20161211155511212/11/16 15:55:31  5-MIN KBDL 112055Z 18008KT 10SM OVC070 M01/M11 A3042 -270 47 -2200 190/08 RMK AO2 T10061106 $
14740KBDL BDL20161211160011212/11/16 16:00:31  5-MIN KBDL 112100Z 19006KT 10SM OVC070 M01/M11 A3042 -280 47 -2200 200/06 RMK AO2 T10061106 $
14740KBDL BDL20161211160511212/11/16 16:05:31  5-MIN KBDL 112105Z 19006KT 10SM OVC070 M01/M11 A3042 -280 47 -2200 200/06 RMK AO2 T10061106 $
14740KBDL BDL20161211161011212/11/16 16:10:31  5-MIN KBDL 112110Z 18008KT 10SM OVC070 M01/M11 A3042 -280 47 -2200 190/08 RMK AO2 T10061106 $
14740KBDL BDL20161211161511212/11/16 16:15:31  5-MIN KBDL 112115Z 19007KT 10SM OVC070 M01/M11 A3042 -280 47 -2200 200/07 RMK AO2 T10061106 $
14740KBDL BDL20161211162011212/11/16 16:20:31  5-MIN KBDL 112120Z 19006KT 10SM OVC070 M01/M11 A3042 -280 47 -2200 200/06 RMK AO2 T10061106 $
14740KBDL BDL20161211162511212/11/16 16:25:31  5-MIN KBDL 112125Z 18006KT 10SM OVC070 M01/M11 A3042 -280 47 -2200 190/06 RMK AO2 T10061106 $
14740KBDL BDL20161211163011212/11/16 16:30:31  5-MIN KBDL 112130Z 19007KT 10SM OVC070 M01/M11 A3042 -270 47 -2200 200/07 RMK AO2 T10061106 $
14740KBDL BDL20161211163511212/11/16 16:35:31  5-MIN KBDL 112135Z 18006KT 10SM OVC070 M01/M11 A3042 -270 47 -2200 190/06 RMK AO2 T10061106 $
14740KBDL BDL20161211164011212/11/16 16:40:31  5-MIN KBDL 112140Z 18007KT 10SM OVC070 M01/M11 A3042 -270 47 -2200 190/07 RMK AO2 T10061106 $
14740KBDL BDL20161211164511812/11/16 16:45:31  5-MIN KBDL 112145Z 19007KT 10SM OVC070 00/M11 A3042 -280 45 -2100 200/07 RMK AO2 SLP303 T00001106 $
14740KBDL BDL20161211165011812/11/16 16:50:31  5-MIN KBDL 112150Z 18006KT 10SM OVC065 00/M11 A3042 -280 45 -2100 190/06 RMK AO2 SLP303 T00001106 $
14740KBDL BDL20161211165511812/11/16 16:55:31  5-MIN KBDL 112155Z 18007KT 10SM BKN060 OVC070 00/M10 A3042 -280 47 -2100 200/07 RMK AO2 T00001100 $
14740KBDL BDL20161211170011112/11/16 17:00:31  5-MIN KBDL 112200Z 18008KT 10SM OVC060 00/M10 A3042 -280 47 -2100 200/08 RMK AO2 T00001100 $
14740KBDL BDL20161211170511112/11/16 17:05:31  5-MIN KBDL 112205Z 19006KT 10SM OVC060 00/M10 A3042 -280 47 -2100 210/06 RMK AO2 T00001100 $
14740KBDL BDL20161211171011112/11/16 17:10:31  5-MIN KBDL 112210Z 20006KT 10SM OVC065 00/M10 A3042 -280 47 -2100 210/06 RMK AO2 T00001100 $
14740KBDL BDL20161211171511112/11/16 17:15:31  5-MIN KBDL 112215Z 19007KT 10SM OVC060 00/M09 A3042 -280 49 -2100 210/07 RMK AO2 T00001094 $
14740KBDL BDL20161211172011112/11/16 17:20:31  5-MIN KBDL 112220Z 20009KT 10SM OVC065 00/M09 A3042 -280 49 -2100 220/09 RMK AO2 T00001094 $
14740KBDL BDL20161211172511112/11/16 17:25:31  5-MIN KBDL 112225Z 20011KT 10SM OVC065 00/M09 A3042 -280 51 -2100 210/11 RMK AO2 T00001089 $
14740KBDL BDL20161211173011112/11/16 17:30:31  5-MIN KBDL 112230Z 20009KT 10SM OVC065 00/M09 A3042 -280 51 -2100 210/09 RMK AO2 T00001089 $
14740KBDL BDL20161211173511812/11/16 17:35:31  5-MIN KBDL 112235Z 20009KT 10SM BKN055 OVC070 00/M09 A3042 -280 51 -2100 210/09 RMK AO2 T00001089 $
14740KBDL BDL20161211174011912/11/16 17:40:31  5-MIN KBDL 112240Z 22009KT 10SM BKN050 OVC070 M01/M08 A3042 -280 56 -2200 230/09 RMK AO2 T10061083 $
14740KBDL BDL20161211174512612/11/16 17:45:31  5-MIN KBDL 112245Z 22011KT 10SM BKN048 OVC070 M01/M08 A3042 -270 58 -2200 230/11 RMK AO2 SLP303 T10061078 $
14740KBDL BDL20161211175012612/11/16 17:50:31  5-MIN KBDL 112250Z 20009KT 10SM BKN048 OVC065 M01/M07 A3042 -270 61 -2200 210/09 RMK AO2 SLP302 T10061072 $
14740KBDL BDL20161211175511112/11/16 17:55:31  5-MIN KBDL 112255Z 21010KT 9SM OVC043 M01/M07 A3042 -270 61 -2200 220/10 RMK AO2 T10061072 $
14740KBDL BDL20161211180011112/11/16 18:00:31  5-MIN KBDL 112300Z 21009KT 9SM OVC041 M01/M07 A3042 -270 66 -2200 230/09 RMK AO2 T10111067 $
14740KBDL BDL20161211180511112/11/16 18:05:31  5-MIN KBDL 112305Z 21008KT 9SM OVC039 M01/M07 A3042 -270 66 -2200 220/08 RMK AO2 T10111067 $
14740KBDL BDL20161211181011212/11/16 18:10:31  5-MIN KBDL 112310Z 20009KT 10SM OVC039 M01/M07 A3041 -270 66 -2200 210/09 RMK AO2 T10111067 $
14740KBDL BDL20161211181512712/11/16 18:15:31  5-MIN KBDL 112315Z 21010KT 9SM -SN OVC037 M01/M07 A3041 -270 66 -2200 230/10 RMK AO2 SNB14 P0000 T10111067 $
14740KBDL BDL20161211182012712/11/16 18:20:31  5-MIN KBDL 112320Z 21009KT 7SM -SN OVC037 M01/M06 A3041 -270 69 -2200 220/09 RMK AO2 SNB14 P0000 T10111061 $
14740KBDL BDL20161211182512712/11/16 18:25:31  5-MIN KBDL 112325Z 19008KT 6SM -SN OVC037 M01/M06 A3041 -270 69 -2200 210/08 RMK AO2 SNB14 P0000 T10111061 $
14740KBDL BDL20161211183012712/11/16 18:30:31  5-MIN KBDL 112330Z 20007KT 7SM -SN OVC039 M01/M06 A3041 -270 69 -2200 210/07 RMK AO2 SNB14 P0000 T10111061 $
14740KBDL BDL20161211183512712/11/16 18:35:31  5-MIN KBDL 112335Z 20008KT 8SM -SN OVC041 M01/M06 A3041 -270 69 -2200 210/08 RMK AO2 SNB14 P0000 T10111061 $
14740KBDL BDL20161211184012612/11/16 18:40:31  5-MIN KBDL 112340Z 19007KT 9SM OVC043 M01/M06 A3040 -260 69 -2200 210/07 RMK AO2 SNB14E36 P0000 T10111061 $
14740KBDL BDL20161211184515812/11/16 18:45:31  5-MIN KBDL 112345Z 20007KT 10SM OVC043 M01/M06 A3040 -260 69 -2200 210/07 RMK AO2 SNB14E36 SLP298 P0000 60000 T10111061 10000 21011 56016 $
14740KBDL BDL20161211185016512/11/16 18:50:31  5-MIN KBDL 112350Z 20006KT 10SM BKN043 OVC100 M01/M06 A3040 -260 69 -2200 210/06 RMK AO2 SNB14E36 SLP297 P0000 60000 T10111061 10000 21011 56016 $
14740KBDL BDL20161211185511912/11/16 18:55:31  5-MIN KBDL 112355Z 19008KT 10SM BKN045 OVC100 M01/M06 A3040 -260 69 -2200 200/08 RMK AO2 T10111061 $
14740KBDL BDL20161211190011912/11/16 19:00:31  5-MIN KBDL 120000Z 19006KT 10SM SCT045 OVC090 M01/M06 A3040 -260 69 -2200 210/06 RMK AO2 T10111061 $
14740KBDL BDL20161211190512612/11/16 19:05:31  5-MIN KBDL 120005Z 19007KT 10SM FEW045 BKN080 OVC095 M02/M06 A3040 -260 72 -2300 200/07 RMK AO2 T10171061 $
14740KBDL BDL20161211191012612/11/16 19:10:31  5-MIN KBDL 120010Z 19006KT 10SM FEW050 SCT070 OVC090 M01/M06 A3040 -260 69 -2200 200/06 RMK AO2 T10111061 $
14740KBDL BDL20161211191512612/11/16 19:15:31  5-MIN KBDL 120015Z 19006KT 10SM FEW060 SCT070 OVC090 M01/M06 A3040 -260 69 -2200 200/06 RMK AO2 T10111061 $
14740KBDL BDL20161211192012612/11/16 19:20:31  5-MIN KBDL 120020Z 19006KT 10SM SCT028 BKN070 OVC085 M01/M06 A3039 -250 69 -2200 210/06 RMK AO2 T10111061 $
14740KBDL BDL20161211192512612/11/16 19:25:31  5-MIN KBDL 120025Z 19006KT 10SM SCT026 BKN048 OVC085 M01/M06 A3039 -250 69 -2200 200/06 RMK AO2 T10111061 $
14740KBDL BDL20161211193012512/11/16 19:30:31  5-MIN KBDL 120030Z 17006KT 8SM BKN024 BKN048 OVC070 M01/M06 A3039 -250 72 -2200 190/06 RMK AO2 T10111056 $
14740KBDL BDL20161211193513412/11/16 19:35:31  5-MIN KBDL 120035Z 19007KT 7SM -SN BKN024 OVC040 M02/M06 A3039 -250 75 -2300 200/07 RMK AO2 SNB31 P0000 T10171056 $
14740KBDL BDL20161211194014112/11/16 19:40:31  5-MIN KBDL 120040Z 18005KT 7SM -SN SCT020 BKN024 OVC035 M02/M05 A3039 -250 78 -2300 200/05 RMK AO2 SNB31 P0000 T10171050 $
14740KBDL BDL20161211194514112/11/16 19:45:31  5-MIN KBDL 120045Z 19006KT 7SM -SN BKN020 OVC024 M02/M05 A3038 -250 78 -2300 200/06 RMK AO2 SNB31 SLP292 P0000 T10171050 $
14740KBDL BDL20161211195014112/11/16 19:50:31  5-MIN KBDL 120050Z 19007KT 4SM -SN BKN019 OVC024 M02/M05 A3038 -240 78 -2300 200/07 RMK AO2 SNB31 SLP291 P0000 T10171050 $
14740KBDL BDL20161211195512812/11/16 19:55:31  5-MIN KBDL 120055Z 19007KT 3SM -SN BKN017 OVC022 M02/M05 A3038 -240 78 -2300 200/07 RMK AO2 P0000 T10171050 $
14740KBDL BDL20161211200014012/11/16 20:00:31  5-MIN KBDL 120100Z 19006KT 3SM -SN OVC017 M02/M04 A3038 -240 81 -2300 200/06 RMK AO2 VIS 2 1/2 RWY 6-24 P0000 T10171044 $
14740KBDL BDL20161211200512112/11/16 20:05:31  5-MIN KBDL 120105Z 19006KT 4SM -SN OVC017 M02/M04 A3038 -240 81 -2300 200/06 RMK AO2 P0000 T10171044 $
14740KBDL BDL20161211201012112/11/16 20:10:31  5-MIN KBDL 120110Z 17005KT 4SM -SN OVC017 M02/M04 A3037 -240 81 -2300 190/05 RMK AO2 P0000 T10171044 $
14740KBDL BDL20161211201512812/11/16 20:15:31  5-MIN KBDL 120115Z 18005KT 4SM -SN BKN017 OVC023 M02/M04 A3037 -240 81 -2300 200/05 RMK AO2 P0000 T10171044 $
14740KBDL BDL20161211202012812/11/16 20:20:31  5-MIN KBDL 120120Z 18006KT 5SM -SN BKN015 OVC023 M02/M04 A3037 -230 81 -2300 190/06 RMK AO2 P0000 T10171044 $
14740KBDL BDL20161211202512412/11/16 20:25:31  5-MIN KBDL 120125Z 18005KT 4SM -SN BR OVC015 M02/M04 A3037 -230 85 -2300 190/05 RMK AO2 P0000 T10171039 $
14740KBDL BDL20161211203013112/11/16 20:30:31  5-MIN KBDL 120130Z 17005KT 4SM -SN BR BKN012 OVC017 M02/M04 A3037 -230 85 -2300 180/05 RMK AO2 P0000 T10171039 $
14740KBDL BDL20161211203512412/11/16 20:35:31  5-MIN KBDL 120135Z 17005KT 4SM -SN BR OVC012 M02/M04 A3037 -230 85 -2300 180/05 RMK AO2 P0000 T10171039 $
14740KBDL BDL20161211204012412/11/16 20:40:31  5-MIN KBDL 120140Z 16005KT 5SM -SN BR OVC012 M02/M04 A3036 -230 85 -2200 170/05 RMK AO2 P0000 T10171039 $
14740KBDL BDL20161211204513112/11/16 20:45:31  5-MIN KBDL 120145Z 16005KT 5SM -SN BR OVC012 M02/M04 A3036 -220 85 -2200 180/05 RMK AO2 SLP284 P0000 T10171039 $
14740KBDL BDL20161211205013112/11/16 20:50:31  5-MIN KBDL 120150Z 17005KT 5SM -SN BR OVC010 M02/M04 A3036 -220 85 -2200 180/05 RMK AO2 SLP283 P0000 T10171039 $
14740KBDL BDL20161211205512412/11/16 20:55:31  5-MIN KBDL 120155Z 17006KT 5SM -SN BR OVC010 M02/M04 A3036 -220 85 -2200 180/06 RMK AO2 P0000 T10171039 $
14740KBDL BDL20161211210012412/11/16 21:00:31  5-MIN KBDL 120200Z 18005KT 4SM -SN BR OVC009 M02/M04 A3036 -220 85 -2200 190/05 RMK AO2 P0000 T10171039 $
14740KBDL BDL20161211210513112/11/16 21:05:31  5-MIN KBDL 120205Z 18005KT 4SM -SN BR BKN009 OVC011 M02/M04 A3035 -220 85 -2200 190/05 RMK AO2 P0000 T10171039 $
14740KBDL BDL20161211211012412/11/16 21:10:31  5-MIN KBDL 120210Z 18005KT 4SM -SN BR OVC009 M02/M04 A3035 -220 85 -2200 200/05 RMK AO2 P0000 T10171039 $
14740KBDL BDL20161211211512812/11/16 21:15:31  5-MIN KBDL 120215Z 17005KT 2 1/2SM -SN BR OVC009 M02/M03 A3035 -220 88 -2200 190/05 RMK AO2 P0000 T10171033 $
14740KBDL BDL20161211212013112/11/16 21:20:31  5-MIN KBDL 120220Z 18005KT 2SM -SN BR BKN009 OVC017 M02/M03 A3035 -210 88 -2200 190/05 RMK AO2 P0000 T10171033 $
14740KBDL BDL20161211212513112/11/16 21:25:31  5-MIN KBDL 120225Z 17005KT 2SM -SN BR BKN009 OVC019 M02/M03 A3035 -210 88 -2200 180/05 RMK AO2 P0000 T10171033 $
14740KBDL BDL20161211213013112/11/16 21:30:31  5-MIN KBDL 120230Z 17005KT 2SM -SN BR BKN009 OVC019 M02/M03 A3034 -210 88 -2200 180/05 RMK AO2 P0001 T10171033 $
14740KBDL BDL20161211213513112/11/16 21:35:31  5-MIN KBDL 120235Z 16004KT 2SM -SN BR BKN009 OVC019 M02/M03 A3034 -210 88 -2200 170/04 RMK AO2 P0001 T10171033 $
14740KBDL BDL20161211214013112/11/16 21:40:31  5-MIN KBDL 120240Z 16003KT 2SM -SN BR BKN009 OVC019 M02/M03 A3034 -200 88 -2200 170/03 RMK AO2 P0001 T10171033 $
14740KBDL BDL20161211214515012/11/16 21:45:31  5-MIN KBDL 120245Z 15004KT 2SM -SN BR BKN009 OVC019 M02/M03 A3034 -200 88 -2200 170/04 RMK AO2 SLP276 P0001 60001 T10171033 58004 $
14740KBDL BDL20161211215015012/11/16 21:50:31  5-MIN KBDL 120250Z 16004KT 2SM -SN BR SCT009 BKN021 M02/M03 A3034 -200 88 -2200 180/04 RMK AO2 SLP276 P0001 60001 T10171033 58004 $
14740KBDL BDL20161211215512412/11/16 21:55:31  5-MIN KBDL 120255Z 17004KT 2SM -SN BR OVC021 M02/M03 A3034 -200 88 -2200 190/04 RMK AO2 P0000 T10171033 $
14740KBDL BDL20161211220012412/11/16 22:00:31  5-MIN KBDL 120300Z 17004KT 2SM -SN BR OVC021 M02/M03 A3034 -200 88 -2200 190/04 RMK AO2 P0000 T10171033 $
14740KBDL BDL20161211220512412/11/16 22:05:31  5-MIN KBDL 120305Z 17005KT 2SM -SN BR OVC019 M02/M03 A3034 -210 88 -2200 190/05 RMK AO2 P0001 T10171033 $
14740KBDL BDL20161211221012412/11/16 22:10:31  5-MIN KBDL 120310Z 17006KT 2SM -SN BR OVC017 M02/M03 A3034 -200 88 -2200 190/06 RMK AO2 P0001 T10171033 $
14740KBDL BDL20161211221512412/11/16 22:15:31  5-MIN KBDL 120315Z 17006KT 2SM -SN BR OVC015 M02/M03 A3033 -200 88 -2200 180/06 RMK AO2 P0001 T10171033 $
14740KBDL BDL20161211222013812/11/16 22:20:31  5-MIN KBDL 120320Z 16005KT 1 1/2SM -SN BR OVC015 M02/M03 A3033 -200 88 -2200 170/05 RMK AO2 TWR VIS 2 P0002 T10171033 $
14740KBDL BDL20161211222513812/11/16 22:25:31  5-MIN KBDL 120325Z 14005KT 1 1/2SM -SN BR OVC015 M02/M03 A3033 -200 88 -2200 150/05 RMK AO2 TWR VIS 2 P0002 T10171033 $
14740KBDL BDL20161211223013812/11/16 22:30:31  5-MIN KBDL 120330Z 13005KT 1 1/2SM -SN BR OVC017 M02/M03 A3033 -190 88 -2200 150/05 RMK AO2 TWR VIS 2 P0002 T10171033 $
14740KBDL BDL20161211223513812/11/16 22:35:31  5-MIN KBDL 120335Z 13005KT 1 1/2SM -SN BR OVC017 M02/M03 A3032 -190 88 -2200 150/05 RMK AO2 TWR VIS 2 P0002 T10171033 $
14740KBDL BDL20161211224013812/11/16 22:40:31  5-MIN KBDL 120340Z 13005KT 1 1/2SM -SN BR OVC018 M02/M03 A3032 -190 92 -2200 140/05 RMK AO2 TWR VIS 2 P0002 T10171028 $
14740KBDL BDL20161211224514512/11/16 22:45:31  5-MIN KBDL 120345Z 13004KT 1 1/4SM -SN BR OVC020 M02/M03 A3032 -180 92 -2200 140/04 RMK AO2 TWR VIS 2 SLP268 P0003 T10171028 $
14740KBDL BDL20161211225014512/11/16 22:50:31  5-MIN KBDL 120350Z 11005KT 1 1/2SM -SN BR OVC024 M02/M03 A3031 -180 92 -2200 120/05 RMK AO2 TWR VIS 2 SLP265 P0003 T10171028 $
14740KBDL BDL20161211225513112/11/16 22:55:31  5-MIN KBDL 120355Z 14004KT 2SM -SN BR FEW006 OVC028 M02/M03 A3031 -180 92 -2200 150/04 RMK AO2 P0000 T10171028 $
14740KBDL BDL20161211230014512/11/16 23:00:31  5-MIN KBDL 120400Z 15005KT 2SM -SN BR SCT006 OVC028 M02/M03 A3031 -180 92 -2200 160/05 RMK AO2 SFC VIS 2 1/2 P0000 T10171028 $
14740KBDL BDL20161211230514512/11/16 23:05:31  5-MIN KBDL 120405Z 15005KT 2SM -SN BR BKN005 OVC024 M02/M03 A3031 -170 92 -2200 160/05 RMK AO2 SFC VIS 2 1/2 P0000 T10171028 $
14740KBDL BDL20161211231013112/11/16 23:10:31  5-MIN KBDL 120410Z 15004KT 2SM -SN BR BKN005 OVC032 M02/M03 A3030 -170 92 -2200 170/04 RMK AO2 P0000 T10171028 $
14740KBDL BDL20161211231514712/11/16 23:15:31  5-MIN KBDL 120415Z 15003KT 2SM -SN BR BKN005 OVC036 M02/M03 A3030 -170 92 -2200 160/03 RMK AO2 VIS 1 1/2V2 1/2 P0000 T10171028 $
14740KBDL BDL20161211232014712/11/16 23:20:31  5-MIN KBDL 120420Z 13005KT 2SM -SN BR BKN005 OVC025 M02/M03 A3029 -160 92 -2200 150/05 RMK AO2 VIS 1 1/2V2 1/2 P0000 T10171028 $
14740KBDL BDL20161211232514512/11/16 23:25:31  5-MIN KBDL 120425Z 15004KT 1 1/4SM -SN BR BKN005 OVC020 M02/M03 A3029 -160 92 -2200 160/04 RMK AO2 TWR VIS 2 P0000 T10171028 $
14740KBDL BDL20161211233016212/11/16 23:30:31  5-MIN KBDL 120430Z 15004KT 1 1/4SM -SN BR SCT005 BKN009 OVC025 M02/M03 A3029 -160 92 -2200 160/04 RMK AO2 TWR VIS 2 BKN V SCT P0000 T10171028 $
14740KBDL BDL20161211233515212/11/16 23:35:31  5-MIN KBDL 120435Z 14004KT 1 1/4SM -SN BR SCT005 SCT009 OVC020 M02/M03 A3028 -150 92 -2200 150/04 RMK AO2 TWR VIS 2 P0000 T10171028 $
14740KBDL BDL20161211234015212/11/16 23:40:31  5-MIN KBDL 120440Z 13004KT 1 3/4SM -SN BR FEW007 BKN025 OVC038 M02/M03 A3027 -140 92 -2100 150/04 RMK AO2 TWR VIS 2 P0001 T10171028 $
14740KBDL BDL20161211234516912/11/16 23:45:31  5-MIN KBDL 120445Z 13004KT 1 3/4SM -SN BR FEW006 BKN025 OVC038 M02/M03 A3027 -140 92 -2100 150/04 RMK AO2 TWR VIS 2 SLP252 P0001 T10171028 400061128 $
14740KBDL BDL20161211235019212/11/16 23:50:31  5-MIN KBDL 120450Z 13004KT 1 3/4SM -SN BR FEW004 SCT011 OVC025 M02/M03 A3026 -130 92 -2100 150/04 RMK AO2 TWR VIS 2 PRESFR SLP249 VIS 1 1/2V2 1/2 P0001 T10171028 400061128 $
14740KBDL BDL20161211235515912/11/16 23:55:31  5-MIN KBDL 120455Z 12005KT 1 3/4SM -SN BR FEW004 SCT011 OVC025 M02/M03 A3025 -120 92 -2100 130/05 RMK AO2 TWR VIS 2 PRESFR P0000 T10171028 $
14740KBDL BDL20161212000015212/12/16 00:00:31  5-MIN KBDL 120500Z 14004KT 1 3/4SM -SN BR FEW004 SCT011 OVC029 M02/M03 A3025 -120 92 -2100 150/04 RMK AO2 TWR VIS 2 P0000 T10171028 $
14740KBDL BDL20161212000515212/12/16 00:05:31  5-MIN KBDL 120505Z 13004KT 2SM -SN BR FEW004 SCT012 OVC032 M02/M03 A3025 -120 92 -2100 150/04 RMK AO2 SFC VIS 2 1/2 P0000 T10171028 $
14740KBDL BDL20161212001015212/12/16 00:10:31  5-MIN KBDL 120510Z 14003KT 2SM -SN BR FEW005 BKN030 OVC045 M02/M03 A3024 -120 92 -2100 150/03 RMK AO2 SFC VIS 2 1/2 P0000 T10171028 $
14740KBDL BDL20161212001515212/12/16 00:15:31  5-MIN KBDL 120515Z 00000KT 2SM -SN BR FEW005 BKN030 OVC045 M02/M02 A3024 -110 96 -2100 000/00 RMK AO2 SFC VIS 2 1/2 P0000 T10171022 $
14740KBDL BDL20161212002015212/12/16 00:20:31  5-MIN KBDL 120520Z 14003KT 2SM -SN BR SCT004 BKN030 OVC037 M02/M02 A3024 -110 96 -2100 150/03 RMK AO2 SFC VIS 2 1/2 P0000 T10171022 $
14740KBDL BDL20161212002513812/12/16 00:25:31  5-MIN KBDL 120525Z 14003KT 2SM -SN BR SCT004 BKN028 OVC040 M02/M02 A3023 -100 96 -2100 150/03 RMK AO2 P0000 T10171022 $
14740KBDL BDL20161212003013812/12/16 00:30:31  5-MIN KBDL 120530Z 14003KT 2SM -SN BR SCT004 BKN011 OVC030 M02/M03 A3023 -100 92 -2100 150/03 RMK AO2 P0000 T10171028 $
14740KBDL BDL20161212003513812/12/16 00:35:31  5-MIN KBDL 120535Z 00000KT 2SM -SN BR SCT004 BKN011 OVC030 M02/M03 A3022 -100 92 -2100 000/00 RMK AO2 P0000 T10171028 $
14740KBDL BDL20161212004014712/12/16 00:40:31  5-MIN KBDL 120540Z 14003KT 2SM -SN BR FEW004 BKN010 OVC034 M02/M03 A3022 -90 92 -2100 150/03 RMK AO2 SFC VIS 3 P0000 T10171028 $
14740KBDL BDL20161212004517812/12/16 00:45:31  5-MIN KBDL 120545Z 14003KT 2SM -SN BR FEW004 BKN010 OVC034 M02/M03 A3021 -90 92 -2100 150/03 RMK AO2 SFC VIS 3 SLP233 P0000 60005 T10171028 11011 21017 58021 $
14740KBDL BDL20161212005017812/12/16 00:50:31  5-MIN KBDL 120550Z 15003KT 2SM -SN BR FEW004 BKN010 OVC034 M02/M03 A3021 -90 92 -2100 160/03 RMK AO2 SFC VIS 3 SLP232 P0000 60005 T10171028 11011 21017 58021 $
14740KBDL BDL20161212005513312/12/16 00:55:31  5-MIN KBDL 120555Z 00000KT 2SM -SN BR OVC009 M02/M02 A3021 -80 96 -2100 000/00 RMK AO2 SFC VIS 4 P0000 T10171022 $
14740KBDL BDL20161212010014712/12/16 01:00:31  5-MIN KBDL 120600Z 00000KT 2SM -SN BR FEW004 BKN009 OVC035 M02/M02 A3020 -80 96 -2100 000/00 RMK AO2 SFC VIS 4 P0000 T10171022 $
14740KBDL BDL20161212010514712/12/16 01:05:31  5-MIN KBDL 120605Z 00000KT 2SM -SN BR FEW004 BKN009 OVC035 M02/M02 A3020 -70 96 -2100 000/00 RMK AO2 SFC VIS 4 P0000 T10171022 $
14740KBDL BDL20161212011015612/12/16 01:10:31  5-MIN KBDL 120610Z 14003KT 2SM BR FEW004 BKN009 OVC035 M02/M03 A3019 -70 92 -2000 160/03 RMK AO2 SFC VIS 5 SNE06 PRESFR P0000 T10171028 $
14740KBDL BDL20161212011514912/12/16 01:15:31  5-MIN KBDL 120615Z 00000KT 2SM BR BKN010 BKN041 OVC090 M02/M03 A3019 -70 92 -2000 000/00 RMK AO2 SFC VIS 5 SNE06 P0000 T10171028 $
14740KBDL BDL20161212012014912/12/16 01:20:31  5-MIN KBDL 120620Z 00000KT 2SM BR BKN010 BKN041 OVC090 M02/M03 A3018 -60 92 -2000 000/00 RMK AO2 SFC VIS 5 SNE06 P0000 T10171028 $
14740KBDL BDL20161212012514912/12/16 01:25:31  5-MIN KBDL 120625Z 00000KT 2SM BR SCT010 BKN038 OVC090 M02/M03 A3018 -60 92 -2000 000/00 RMK AO2 SFC VIS 5 SNE06 P0000 T10171028 $
14740KBDL BDL20161212013014912/12/16 01:30:31  5-MIN KBDL 120630Z 00000KT 2SM BR FEW010 BKN040 OVC090 M02/M03 A3018 -50 92 -2000 000/00 RMK AO2 SFC VIS 5 SNE06 P0000 T10171028 $
14740KBDL BDL20161212013514912/12/16 01:35:31  5-MIN KBDL 120635Z 00000KT 2SM BR SCT040 SCT065 OVC090 M02/M02 A3017 -50 96 -2000 000/00 RMK AO2 SFC VIS 6 SNE06 P0000 T10171022 $
14740KBDL BDL20161212014014912/12/16 01:40:31  5-MIN KBDL 120640Z 00000KT 2SM BR FEW040 BKN065 OVC090 M02/M03 A3017 -50 92 -2000 000/00 RMK AO2 SFC VIS 6 SNE06 P0000 T10171028 $
14740KBDL BDL20161212014515612/12/16 01:45:31  5-MIN KBDL 120645Z 00000KT 2SM BR FEW040 SCT065 OVC090 M01/M03 A3016 -40 88 -1900 000/00 RMK AO2 SFC VIS 6 SNE06 SLP215 P0000 T10111028 $
14740KBDL BDL20161212015015312/12/16 01:50:31  5-MIN KBDL 120650Z 00000KT 2SM BKN033 BKN065 OVC090 M01/M03 A3016 -40 88 -1900 000/00 RMK AO2 SFC VIS 7 SNE06 SLP215 P0000 T10111028 $
14740KBDL BDL20161212015512412/12/16 01:55:31  5-MIN KBDL 120655Z 00000KT 7SM BKN033 BKN065 OVC090 M01/M03 A3016 -40 88 -1900 000/00 RMK AO2 T10111028 $
14740KBDL BDL20161212020012412/12/16 02:00:31  5-MIN KBDL 120700Z 00000KT 7SM BKN033 BKN065 OVC090 M01/M03 A3015 -30 88 -1900 000/00 RMK AO2 T10111028 $
14740KBDL BDL20161212020511712/12/16 02:05:31  5-MIN KBDL 120705Z 00000KT 7SM BKN032 OVC065 M01/M03 A3015 -30 88 -1900 000/00 RMK AO2 T10111028 $
14740KBDL BDL20161212021011712/12/16 02:10:31  5-MIN KBDL 120710Z 00000KT 7SM BKN032 OVC090 M01/M03 A3014 -20 88 -1900 000/00 RMK AO2 T10111028 $
14740KBDL BDL20161212021511012/12/16 02:15:31  5-MIN KBDL 120715Z 00000KT 7SM OVC032 M01/M03 A3014 -20 88 -1900 000/00 RMK AO2 T10111028 $
14740KBDL BDL20161212022012612/12/16 02:20:31  5-MIN KBDL 120720Z 00000KT 7SM -SN OVC032 M01/M03 A3014 -20 88 -1900 000/00 RMK AO2 SNB20 P0000 T10111028 $
14740KBDL BDL20161212022513312/12/16 02:25:31  5-MIN KBDL 120725Z 00000KT 7SM -SN BKN032 OVC070 M01/M03 A3014 -20 88 -1900 000/00 RMK AO2 SNB20 P0000 T10111028 $
14740KBDL BDL20161212023014312/12/16 02:30:31  5-MIN KBDL 120730Z 00000KT 4SM -SN BR BKN031 BKN040 OVC070 M01/M03 A3013 -10 88 -1900 000/00 RMK AO2 SNB20 P0000 T10111028 $
14740KBDL BDL20161212023514812/12/16 02:35:31  5-MIN KBDL 120735Z 00000KT 4SM -SN BR SCT031 BKN043 OVC070 M01/M03 A3012 0 88 -1900 000/00 RMK AO2 SNB20 PRESFR P0000 T10111028 $
14740KBDL BDL20161212024012712/12/16 02:40:31  5-MIN KBDL 120740Z 17003KT 3SM -SN BR OVC034 M01/M03 A3012 0 88 -1900 180/03 RMK AO2 SNB20 P0000 T10111028 $
14740KBDL BDL20161212024514812/12/16 02:45:31  5-MIN KBDL 120745Z 17004KT 2SM -SN BR SCT018 OVC032 M01/M03 A3011 0 88 -1900 190/04 RMK AO2 SNB20 PRESFR SLP197 P0000 T10111028 $
14740KBDL BDL20161212025016312/12/16 02:50:31  5-MIN KBDL 120750Z 17004KT 1SM -SN BR SCT018 OVC032 M01/M02 A3010 10 92 -1900 180/04 RMK AO2 SFC VIS 1 1/4 SNB20 PRESFR SLP194 P0001 T10111022 $
14740KBDL BDL20161212025514612/12/16 02:55:31  5-MIN KBDL 120755Z 17004KT 1SM R06/6000VP6000FT -SN BR OVC022 M01/M02 A3009 20 92 -1900 180/04 RMK AO2 PRESFR P0000 T10111022 $
14740KBDL BDL20161212030014512/12/16 03:00:31  5-MIN KBDL 120800Z 17004KT 1SM R06/5000VP6000FT -SN BR VV015 M01/M02 A3009 20 92 -1900 180/04 RMK AO2 PRESFR P0000 T10111022 $
14740KBDL BDL20161212030515612/12/16 03:05:31  5-MIN KBDL 120805Z 17005KT 3/4SM R06/5000V6000FT -SN BR VV013 M01/M02 A3008 30 92 -1900 180/05 RMK AO2 TWR VIS 1 PRESFR P0001 T10111022 $
14740KBDL BDL20161212031015612/12/16 03:10:31  5-MIN KBDL 120810Z 17005KT 3/4SM R06/4000V5500FT -SN BR VV010 M01/M02 A3008 30 92 -1800 180/05 RMK AO2 TWR VIS 1 PRESFR P0001 T10111022 $
14740KBDL BDL20161212031515812/12/16 03:15:31  5-MIN KBDL 120815Z 17005KT 1/2SM R06/4000V5000FT -SN BR VV010 M01/M02 A3007 40 92 -1800 180/05 RMK AO2 SFC VIS 3/4 PRESFR P0002 T10111022 $
14740KBDL BDL20161212032015812/12/16 03:20:31  5-MIN KBDL 120820Z 17006KT 1/2SM R06/4000V6000FT -SN BR VV008 M01/M02 A3006 50 92 -1800 190/06 RMK AO2 SFC VIS 3/4 PRESFR P0003 T10111022 $
14740KBDL BDL20161212032515012/12/16 03:25:31  5-MIN KBDL 120825Z 17007KT 1/2SM R06/4000VP6000FT -SN BR VV008 M01/M02 A3006 50 92 -1800 190/07 RMK AO2 SFC VIS 1 P0004 T10111022 $
14740KBDL BDL20161212033016912/12/16 03:30:31  5-MIN KBDL 120830Z 17007KT 1/2SM R06/6000VP6000FT -SN BR FEW004 BKN009 OVC015 M01/M02 A3005 50 92 -1800 190/07 RMK AO2 SFC VIS 1 1/4 P0004 T10111022 $
14740KBDL BDL20161212033515212/12/16 03:35:31  5-MIN KBDL 120835Z 18008KT 1/2SM -SN BR FEW004 BKN010 OVC015 M01/M02 A3005 60 92 -1800 190/08 RMK AO2 SFC VIS 1 1/4 P0004 T10111022 $
14740KBDL BDL20161212034015212/12/16 03:40:31  5-MIN KBDL 120840Z 18008KT 1/2SM -SN BR FEW004 BKN010 OVC015 M01/M02 A3005 60 92 -1800 190/08 RMK AO2 SFC VIS 1 1/4 P0005 T10111022 $
14740KBDL BDL20161212034517912/12/16 03:45:31  5-MIN KBDL 120845Z 18008KT 1/2SM R06/P6000FT -SN BR FEW004 BKN010 OVC015 M01/M02 A3004 60 92 -1800 200/08 RMK AO2 SFC VIS 1 SLP175 P0005 60006 T10111022 58043 $
14740KBDL BDL20161212035018412/12/16 03:50:31  5-MIN KBDL 120850Z 18007KT 1/2SM R06/5500VP6000FT -SN BR FEW004 BKN010 OVC015 M01/M02 A3004 70 92 -1800 200/07 RMK AO2 SFC VIS 1 SLP172 P0006 60007 T10111022 58043 $
14740KBDL BDL20161212035515812/12/16 03:55:31  5-MIN KBDL 120855Z 18006KT 1/2SM R06/5500VP6000FT -SN BR OVC010 M01/M02 A3003 80 92 -1800 190/06 RMK AO2 SFC VIS 1 PRESFR P0000 T10111022 $
14740KBDL BDL20161212040016512/12/16 04:00:31  5-MIN KBDL 120900Z 18006KT 1/2SM R06/5500VP6000FT -SN BR FEW004 SCT006 OVC010 M01/M02 A3003 80 96 -1800 190/06 RMK AO2 SFC VIS 1 P0001 T10111017 $
14740KBDL BDL20161212040515112/12/16 04:05:31  5-MIN KBDL 120905Z 17006KT 1/2SM R06/5000VP6000FT -SN BR OVC008 M01/M02 A3002 80 96 -1800 190/06 RMK AO2 SFC VIS 1 P0002 T10111017 $
14740KBDL BDL20161212041015712/12/16 04:10:31  5-MIN KBDL 120910Z 17006KT 1/2SM R06/5000V6000FT -SN BR OVC008 M01/M02 A3001 90 96 -1800 190/06 RMK AO2 SFC VIS 1 PRESFR P0002 T10111017 $
14740KBDL BDL20161212041515812/12/16 04:15:31  5-MIN KBDL 120915Z 17005KT 1/2SM R06/5000V6000FT -SN BR OVC008 M01/M02 A3000 100 96 -1800 180/05 RMK AO2 SFC VIS 1 PRESFR P0003 T10111017 $
14740KBDL BDL20161212042016012/12/16 04:20:31  5-MIN KBDL 120920Z 16005KT 1/2SM R06/4500V5500FT -SN BR OVC008 M01/M02 A3000 100 96 -1800 180/05 RMK AO2 SFC VIS 3/4 PRESFR P0004 T10111017 $
14740KBDL BDL20161212042515312/12/16 04:25:31  5-MIN KBDL 120925Z 17005KT 1/2SM R06/4500V6000FT -SN BR OVC007 M01/M02 A2999 110 96 -1800 180/05 RMK AO2 SFC VIS 3/4 P0004 T10111017 $
14740KBDL BDL20161212043015412/12/16 04:30:31  5-MIN KBDL 120930Z 17005KT 1/2SM R06/4500VP6000FT -SN BR OVC007 M01/M02 A2999 110 96 -1700 190/05 RMK AO2 SFC VIS 3/4 P0005 T10111017 $
14740KBDL BDL20161212043515412/12/16 04:35:31  5-MIN KBDL 120935Z 18004KT 1/2SM R06/6000VP6000FT -SN BR OVC007 M01/M02 A2998 120 96 -1700 200/04 RMK AO2 SFC VIS 3/4 P0006 T10111017 $
14740KBDL BDL20161212044015412/12/16 04:40:31  5-MIN KBDL 120940Z 19003KT 1/2SM R06/6000VP6000FT -SN BR OVC007 M01/M02 A2998 120 92 -1700 200/03 RMK AO2 SFC VIS 3/4 P0007 T10061017 $
14740KBDL BDL20161212044516112/12/16 04:45:31  5-MIN KBDL 120945Z 20003KT 1/2SM R06/6000VP6000FT -SN BR OVC007 M01/M02 A2997 130 92 -1700 210/03 RMK AO2 SFC VIS 3/4 SLP151 P0008 T10061017 $
14740KBDL BDL20161212045015312/12/16 04:50:31  5-MIN KBDL 120950Z 20004KT 1SM R06/P6000FT -SN BR OVC007 M01/M02 A2997 130 92 -1700 210/04 RMK AO2 SLP149 SNINCR 1/2 P0008 T10061017 $
14740KBDL BDL20161212045513712/12/16 04:55:31  5-MIN KBDL 120955Z 24003KT 1SM -SN BR OVC007 M01/M02 A2996 140 92 -1600 260/03 RMK AO2 SFC VIS 1 1/4 P0000 T10061017 $
14740KBDL BDL20161212050014412/12/16 05:00:31  5-MIN KBDL 121000Z 27003KT 1SM -SN BR OVC007 M01/M02 A2996 140 92 -1600 280/03 RMK AO2 SFC VIS 1 1/2 PRESFR P0001 T10061017 $
14740KBDL BDL20161212050513712/12/16 05:05:31  5-MIN KBDL 121005Z 27004KT 1SM -SN BR OVC007 M01/M02 A2996 140 92 -1600 280/04 RMK AO2 SFC VIS 1 3/4 P0002 T10061017 $
14740KBDL BDL20161212051014712/12/16 05:10:31  5-MIN KBDL 121010Z 00000KT 1SM -SN BR SCT003 BKN007 OVC015 M01/M02 A2995 150 92 -1600 000/00 RMK AO2 SFC VIS 2 P0003 T10061017 $
14740KBDL BDL20161212051514712/12/16 05:15:31  5-MIN KBDL 121015Z 26003KT 1SM -SN BR SCT003 BKN007 OVC013 M01/M01 A2995 150 96 -1600 280/03 RMK AO2 SFC VIS 2 P0004 T10061011 $
14740KBDL BDL20161212052016412/12/16 05:20:31  5-MIN KBDL 121020Z 27003KT 1SM -FZRASN BR SCT003 BKN007 OVC013 00/M01 A2995 150 92 -1600 290/03 RMK AO2 SFC VIS 2 FZRAB19 P0004 I1000 T00001011 $
14740KBDL BDL20161212052515412/12/16 05:25:31  5-MIN KBDL 121025Z 28004KT 2SM -FZRASN BR SCT003 BKN007 OVC013 00/M01 A2994 150 92 -1600 290/04 RMK AO2 FZRAB19 P0005 I1000 T00001011 $
14740KBDL BDL20161212053015412/12/16 05:30:31  5-MIN KBDL 121030Z 28004KT 2SM -FZRASN BR SCT003 BKN007 OVC013 00/M01 A2994 160 92 -1500 290/04 RMK AO2 FZRAB19 P0006 I1000 T00001011 $
14740KBDL BDL20161212053515412/12/16 05:35:31  5-MIN KBDL 121035Z 32003KT 2SM -FZRASN BR SCT003 BKN006 OVC013 00/M01 A2993 170 92 -1500 330/03 RMK AO2 FZRAB19 P0007 I1000 T00001011 $
14740KBDL BDL20161212054015712/12/16 05:40:31  5-MIN KBDL 121040Z 34003KT 2SM -FZRA BR SCT003 BKN006 OVC013 00/M01 A2993 170 92 -1500 350/03 RMK AO2 FZRAB19SNE40 P0008 I1000 T00001011 $
14740KBDL BDL20161212054516412/12/16 05:45:31  5-MIN KBDL 121045Z 33003KT 2SM -FZRA BR SCT003 BKN006 OVC013 00/M01 A2993 170 92 -1500 340/03 RMK AO2 FZRAB19SNE40 SLP135 P0008 I1000 T00001011 $
14740KBDL BDL20161212055016412/12/16 05:50:31  5-MIN KBDL 121050Z 36003KT 2SM -FZRA BR SCT004 BKN009 OVC015 00/M01 A2992 170 92 -1500 010/03 RMK AO2 FZRAB19SNE40 SLP134 P0009 I1000 T00001011 $
14740KBDL BDL20161212055514212/12/16 05:55:31  5-MIN KBDL 121055Z 34003KT 2SM -FZRA BR SCT004 BKN009 OVC015 00/M01 A2992 180 92 -1500 350/03 RMK AO2 I1000 T00001011 PNO $
14740KBDL BDL20161212060014212/12/16 06:00:31  5-MIN KBDL 121100Z 00000KT 2SM -FZRA BR SCT004 BKN009 OVC015 00/M01 A2991 180 92 -1500 000/00 RMK AO2 I1000 T00001011 PNO $
14740KBDL BDL20161212060514412/12/16 06:05:31  5-MIN KBDL 121105Z 00000KT 2SM -FZRA BR SCT004 BKN009 OVC015 00/M01 A2991 190 92 -1500 000/00 RMK AO2 P0001 I1001 T00001011 $
14740KBDL BDL20161212061014412/12/16 06:10:31  5-MIN KBDL 121110Z 00000KT 2SM -FZRA BR SCT004 BKN009 OVC015 00/M01 A2991 190 92 -1500 000/00 RMK AO2 P0002 I1001 T00001011 $
14740KBDL BDL20161212061514412/12/16 06:15:31  5-MIN KBDL 121115Z 00000KT 2SM -FZRA BR FEW004 BKN010 OVC015 00/M01 A2990 190 96 -1500 000/00 RMK AO2 P0003 I1002 T00001006 $
14740KBDL BDL20161212062014412/12/16 06:20:31  5-MIN KBDL 121120Z 00000KT 2SM -FZRA BR FEW004 BKN010 OVC015 00/M01 A2990 190 92 -1500 000/00 RMK AO2 P0003 I1002 T00001011 $
14740KBDL BDL20161212062514412/12/16 06:25:31  5-MIN KBDL 121125Z 30003KT 2SM -FZRA BR FEW004 BKN010 OVC015 00/M01 A2991 190 96 -1500 310/03 RMK AO2 P0004 I1002 T00001006 $
14740KBDL BDL20161212063014412/12/16 06:30:31  5-MIN KBDL 121130Z 31004KT 2SM -FZRA BR FEW003 BKN010 OVC015 00/M01 A2990 190 92 -1500 320/04 RMK AO2 P0005 I1003 T00001011 $
14740KBDL BDL20161212063514412/12/16 06:35:31  5-MIN KBDL 121135Z 33003KT 2SM -FZRA BR FEW003 BKN010 OVC015 00/M01 A2989 200 92 -1500 350/03 RMK AO2 P0006 I1003 T00001011 $
14740KBDL BDL20161212064014412/12/16 06:40:31  5-MIN KBDL 121140Z 00000KT 2SM -FZRA BR FEW003 BKN010 OVC015 00/M01 A2989 200 96 -1500 000/00 RMK AO2 P0007 I1003 T00001006 $
14740KBDL BDL20161212064518712/12/16 06:45:31  5-MIN KBDL 121145Z 36003KT 2SM -FZRA BR FEW003 BKN010 OVC015 00/M01 A2989 210 96 -1500 010/03 RMK AO2 SLP123 P0008 60033 70038 I1003 I6003 T00001006 10000 21017 58060 $
14740KBDL BDL20161212065019312/12/16 06:50:31  5-MIN KBDL 121150Z 02003KT 2SM -FZRA BR FEW003 BKN010 OVC015 00/M01 A2988 210 96 -1500 040/03 RMK AO2 SLP120 4/002 P0009 60034 70039 I1003 I6003 T00001006 10000 21017 58060 $
14740KBDL BDL20161212065513712/12/16 06:55:31  5-MIN KBDL 121155Z 02004KT 2SM -FZRA BR FEW008 OVC016 00/M01 A2988 210 96 -1500 030/04 RMK AO2 P0001 I1000 T00001006 $
14740KBDL BDL20161212070013012/12/16 07:00:31  5-MIN KBDL 121200Z 36003KT 2SM -FZRA BR OVC016 00/M01 A2988 210 96 -1500 010/03 RMK AO2 P0002 I1000 T00001006 $
14740KBDL BDL20161212070513012/12/16 07:05:31  5-MIN KBDL 121205Z 00000KT 2SM -FZRA BR OVC015 00/M01 A2988 210 96 -1500 000/00 RMK AO2 P0003 I1000 T00001006 $
14740KBDL BDL20161212071016812/12/16 07:10:31  5-MIN KBDL 121210Z 35003KT 1SM R06/6000VP6000FT -FZRA BR BKN014 OVC020 00/M01 A2988 220 96 -1500 360/03 RMK AO2 SFC VIS 1 1/2 P0004 I1000 T00001006 $
14740KBDL BDL20161212071516812/12/16 07:15:31  5-MIN KBDL 121215Z 32004KT 1SM R06/6000VP6000FT -FZRA BR BKN014 OVC020 00/M01 A2988 210 96 -1500 330/04 RMK AO2 SFC VIS 1 1/2 P0005 I1000 T00001006 $
14740KBDL BDL20161212072015112/12/16 07:20:31  5-MIN KBDL 121220Z 31004KT 1SM -FZRA BR BKN014 OVC020 00/M01 A2988 210 96 -1500 330/04 RMK AO2 SFC VIS 1 1/2 P0006 I1000 T00001006 $
14740KBDL BDL20161212072515112/12/16 07:25:31  5-MIN KBDL 121225Z VRB04KT 1SM -FZRA BR BKN014 OVC020 00/M01 A2987 220 96 -1500 VRB/04 RMK AO2 SFC VIS 1 1/2 P0007 I1000 T00001006 $
14740KBDL BDL20161212073015812/12/16 07:30:31  5-MIN KBDL 121230Z 05004KT 1 1/2SM R06/6000VP6000FT -FZRA BR BKN011 OVC018 00/M01 A2987 230 96 -1500 060/04 RMK AO2 P0008 I1001 T00001006 $
14740KBDL BDL20161212073515812/12/16 07:35:31  5-MIN KBDL 121235Z 04004KT 1 1/2SM R06/6000VP6000FT -FZRA BR BKN011 OVC018 00/M01 A2987 230 96 -1500 050/04 RMK AO2 P0008 I1001 T00001006 $
14740KBDL BDL20161212074015812/12/16 07:40:31  5-MIN KBDL 121240Z 03005KT 1 1/2SM -FZRA BR BKN012 BKN022 OVC035 00/M01 A2986 230 96 -1500 050/05 RMK AO2 SFC VIS 2 P0009 I1001 T00001006 $
14740KBDL BDL20161212074516512/12/16 07:45:31  5-MIN KBDL 121245Z 01004KT 1 1/2SM -FZRA BR BKN012 BKN022 OVC035 00/M01 A2986 230 96 -1500 020/04 RMK AO2 SFC VIS 2 SLP112 P0009 I1001 T00001006 $
14740KBDL BDL20161212075016912/12/16 07:50:31  5-MIN KBDL 121250Z 03004KT 1 1/2SM -FZRA BR BKN012 BKN022 OVC035 00/M01 A2985 240 96 -1400 040/04 RMK AO2 SFC VIS 1 3/4 SLP111 P0010 I1001 T00001006 $
14740KBDL BDL20161212075516012/12/16 07:55:31  5-MIN KBDL 121255Z 04004KT 1 1/4SM -FZRA BR FEW008 BKN012 OVC020 00/M01 A2985 250 96 -1400 050/04 RMK AO2 TWR VIS 1 1/2 P0001 I1000 T00001006
14740KBDL BDL20161212080016012/12/16 08:00:31  5-MIN KBDL 121300Z 03004KT 1 1/4SM -FZRA BR FEW008 BKN012 OVC020 00/M01 A2984 250 96 -1400 040/04 RMK AO2 TWR VIS 1 1/2 P0001 I1000 T00001006
14740KBDL BDL20161212080514612/12/16 08:05:31  5-MIN KBDL 121305Z 03003KT 1 1/2SM -FZRA BR FEW008 BKN012 OVC020 00/M01 A2984 250 96 -1400 050/03 RMK AO2 P0001 I1000 T00001006
14740KBDL BDL20161212081014612/12/16 08:10:31  5-MIN KBDL 121310Z 04003KT 1 1/2SM -FZRA BR FEW008 BKN011 OVC018 00/M01 A2984 250 96 -1400 050/03 RMK AO2 P0002 I1000 T00001006
14740KBDL BDL20161212081514612/12/16 08:15:31  5-MIN KBDL 121315Z 04003KT 1 1/2SM -FZRA BR FEW008 BKN011 OVC018 00/M01 A2984 250 96 -1400 050/03 RMK AO2 P0002 I1000 T00001006
14740KBDL BDL20161212082014612/12/16 08:20:31  5-MIN KBDL 121320Z 00000KT 1 1/2SM -FZRA BR FEW003 FEW008 OVC011 00/M01 A2984 250 96 -1400 000/00 RMK AO2 P0002 I1000 T00001006
14740KBDL BDL20161212082517112/12/16 08:25:31  5-MIN KBDL 121325Z 00000KT 1 1/2SM -RA BR FEW003 FEW009 OVC011 00/M01 A2984 250 96 -1400 000/00 RMK AO2 SFC VIS 1 3/4 RAB24FZRAE24 P0002 I1000 T00001006
14740KBDL BDL20161212083017112/12/16 08:30:31  5-MIN KBDL 121330Z 00000KT 1 1/2SM -RA BR FEW003 FEW009 OVC011 01/M01 A2983 260 92 -1400 000/00 RMK AO2 SFC VIS 1 3/4 RAB24FZRAE24 P0003 I1000 T00061006
14740KBDL BDL20161212083516412/12/16 08:35:31  5-MIN KBDL 121335Z 00000KT 1 1/2SM -RA BR SCT004 OVC011 00/00 A2983 260 100 -1400 000/00 RMK AO2 SFC VIS 1 3/4 RAB24FZRAE24 P0004 I1000 T00000000
14740KBDL BDL20161212084016312/12/16 08:40:31  5-MIN KBDL 121340Z 00000KT 1 1/2SM -RA BR SCT004 OVC011 01/00 A2983 260 96 -1300 000/00 RMK AO2 SFC VIS 1 3/4 RAB24FZRAE24 P0004 I1000 T00060000
14740KBDL BDL20161212084517112/12/16 08:45:31  5-MIN KBDL 121345Z 00000KT 1 1/2SM -RA BR SCT004 OVC010 01/M01 A2983 260 92 -1400 000/00 RMK AO2 SFC VIS 1 3/4 RAB24FZRAE24 SLP102 P0004 I1000 T00061006
14740KBDL BDL20161212085017112/12/16 08:50:31  5-MIN KBDL 121350Z 00000KT 1 1/2SM -RA BR BKN004 OVC010 01/M01 A2983 260 89 -1300 000/00 RMK AO2 SFC VIS 1 3/4 RAB24FZRAE24 SLP102 P0005 I1000 T00061011
14740KBDL BDL20161212085516012/12/16 08:55:31  5-MIN KBDL 121355Z 00000KT 1 1/2SM -RA BR BKN004 OVC010 00/M01 A2982 270 96 -1400 000/00 RMK AO2 SFC VIS 2 VIS 1 1/4 RWY 6-24 P0000 T00001006
14740KBDL BDL20161212090015312/12/16 09:00:31  5-MIN KBDL 121400Z 00000KT 1 1/2SM -RA BR OVC004 00/M01 A2982 270 96 -1400 000/00 RMK AO2 SFC VIS 2 VIS 1 1/4 RWY 6-24 P0000 T00001006
14740KBDL BDL20161212090513812/12/16 09:05:31  5-MIN KBDL 121405Z 00000KT 1 1/2SM -RA BR OVC004 00/M01 A2982 270 96 -1400 000/00 RMK AO2 SFC VIS 2 1/2 P0001 T00001006
14740KBDL BDL20161212091013812/12/16 09:10:31  5-MIN KBDL 121410Z 00000KT 1 1/2SM -RA BR OVC004 01/M01 A2982 270 92 -1300 000/00 RMK AO2 SFC VIS 2 1/2 P0001 T00061006
14740KBDL BDL20161212091514412/12/16 09:15:31  5-MIN KBDL 121415Z 00000KT 1 1/2SM -RA BR BKN005 OVC013 01/00 A2982 270 96 -1300 000/00 RMK AO2 SFC VIS 2 1/2 P0001 T00060000
14740KBDL BDL20161212092014512/12/16 09:20:31  5-MIN KBDL 121420Z 00000KT 1 1/2SM -RA BR BKN005 OVC013 01/M01 A2981 270 92 -1300 000/00 RMK AO2 SFC VIS 2 1/2 P0001 T00061006
14740KBDL BDL20161212092514412/12/16 09:25:31  5-MIN KBDL 121425Z 00000KT 1 1/2SM -RA BR BKN005 OVC013 01/00 A2981 270 96 -1300 000/00 RMK AO2 SFC VIS 2 1/2 P0001 T00060000
14740KBDL BDL20161212093014512/12/16 09:30:31  5-MIN KBDL 121430Z 21003KT 1 1/2SM -RA BR BKN005 OVC013 01/M01 A2982 270 92 -1300 220/03 RMK AO2 SFC VIS 2 1/2 P0001 T00061006
14740KBDL BDL20161212093514112/12/16 09:35:31  5-MIN KBDL 121435Z 24003KT 1 1/2SM -RA BR BKN005 OVC013 01/M01 A2982 270 92 -1300 250/03 RMK AO2 SFC VIS 2 P0001 T00061006
14740KBDL BDL20161212094014512/12/16 09:40:31  5-MIN KBDL 121440Z 23004KT 1 1/2SM -RA BR BKN005 OVC013 01/M01 A2982 270 92 -1300 240/04 RMK AO2 SFC VIS 1 3/4 P0001 T00061006
14740KBDL BDL20161212094516812/12/16 09:45:31  5-MIN KBDL 121445Z 22005KT 1 1/2SM BR BKN005 OVC015 01/M01 A2981 270 92 -1300 230/05 RMK AO2 SFC VIS 2 RAE45 SLP097 P0001 60016 I3/// T00061006 56051
14740KBDL BDL20161212095017912/12/16 09:50:31  5-MIN KBDL 121450Z 23004KT 1 1/2SM BR BKN005 BKN015 OVC044 01/M01 A2982 270 92 -1300 240/04 RMK AO2 SFC VIS 2 1/2 RAE45 SLP098 P0001 60016 I3/// T00061006 56051
14740KBDL BDL20161212095513812/12/16 09:55:31  5-MIN KBDL 121455Z 21004KT 1 1/2SM BR BKN005 BKN010 OVC015 01/M01 A2981 280 92 -1300 220/04 RMK AO2 SFC VIS 2 T00061006
14740KBDL BDL20161212100014112/12/16 10:00:31  5-MIN KBDL 121500Z 17005KT 1 1/2SM BR BKN005 BKN010 OVC015 01/00 A2980 290 96 -1300 190/05 RMK AO2 SFC VIS 2 1/2 T00060000
14740KBDL BDL20161212100514212/12/16 10:05:31  5-MIN KBDL 121505Z 18006KT 1 1/2SM BR BKN005 BKN010 OVC015 01/M01 A2980 290 92 -1300 200/06 RMK AO2 SFC VIS 2 1/2 T00061006
14740KBDL BDL20161212101013712/12/16 10:10:31  5-MIN KBDL 121510Z 18005KT 1 1/2SM BR BKN005 BKN010 OVC015 01/00 A2980 290 96 -1300 200/05 RMK AO2 SFC VIS 2 T00060000
14740KBDL BDL20161212101514112/12/16 10:15:31  5-MIN KBDL 121515Z 20005KT 1 1/2SM BR BKN003 BKN015 OVC070 01/00 A2980 290 96 -1300 210/05 RMK AO2 SFC VIS 2 1/2 T00060000
14740KBDL BDL20161212102014112/12/16 10:20:31  5-MIN KBDL 121520Z 20006KT 1 1/2SM BR BKN003 BKN015 OVC070 01/00 A2980 290 92 -1200 210/06 RMK AO2 SFC VIS 2 1/2 T00110000
14740KBDL BDL20161212102514112/12/16 10:25:31  5-MIN KBDL 121525Z 19005KT 1 1/2SM BR BKN003 BKN015 OVC070 01/00 A2980 290 92 -1200 210/05 RMK AO2 SFC VIS 2 1/2 T00110000
14740KBDL BDL20161212103012712/12/16 10:30:31  5-MIN KBDL 121530Z 20005KT 2 1/2SM BR BKN003 BKN015 OVC070 01/00 A2980 290 92 -1200 210/05 RMK AO2 T00110000
14740KBDL BDL20161212103512012/12/16 10:35:31  5-MIN KBDL 121535Z 19005KT 2 1/2SM BR BKN003 OVC070 01/00 A2980 290 92 -1200 200/05 RMK AO2 T00110000
14740KBDL BDL20161212104012012/12/16 10:40:31  5-MIN KBDL 121540Z 19005KT 2 1/2SM BR BKN003 OVC070 01/00 A2980 290 92 -1200 200/05 RMK AO2 T00110000
14740KBDL BDL20161212104512712/12/16 10:45:31  5-MIN KBDL 121545Z 18006KT 2 1/2SM BR BKN003 OVC070 01/01 A2980 290 96 -1200 200/06 RMK AO2 SLP091 T00110006
14740KBDL BDL20161212105013712/12/16 10:50:31  5-MIN KBDL 121550Z 18005KT 2 1/2SM BR BKN003 OVC070 01/01 A2979 290 96 -1200 190/05 RMK AO2 TWR VIS 3 SLP090 T00110006
14740KBDL BDL20161212105511612/12/16 10:55:31  5-MIN KBDL 121555Z 17006KT 3SM BR BKN003 OVC070 01/01 A2979 300 96 -1200 190/06 RMK AO2 T00110006
14740KBDL BDL20161212110011612/12/16 11:00:31  5-MIN KBDL 121600Z 00000KT 3SM BR BKN003 OVC070 01/01 A2978 300 96 -1200 000/00 RMK AO2 T00110006
14740KBDL BDL20161212110511612/12/16 11:05:31  5-MIN KBDL 121605Z 17004KT 3SM BR BKN003 OVC070 02/01 A2978 310 92 -1200 180/04 RMK AO2 T00170006
14740KBDL BDL20161212111011612/12/16 11:10:31  5-MIN KBDL 121610Z 18006KT 3SM BR BKN003 OVC070 02/01 A2977 310 92 -1100 190/06 RMK AO2 T00170006
14740KBDL BDL20161212111511612/12/16 11:15:31  5-MIN KBDL 121615Z 17007KT 3SM BR BKN003 OVC070 02/01 A2978 310 92 -1100 190/07 RMK AO2 T00170006
14740KBDL BDL20161212112011612/12/16 11:20:31  5-MIN KBDL 121620Z 18006KT 3SM BR BKN003 OVC070 02/01 A2977 320 92 -1100 190/06 RMK AO2 T00170006
14740KBDL BDL20161212112511612/12/16 11:25:31  5-MIN KBDL 121625Z 17006KT 3SM BR BKN003 OVC070 02/01 A2977 320 92 -1100 190/06 RMK AO2 T00170006
14740KBDL BDL20161212113011612/12/16 11:30:31  5-MIN KBDL 121630Z 17007KT 3SM BR BKN003 OVC070 02/01 A2976 320 92 -1100 180/07 RMK AO2 T00220011
14740KBDL BDL20161212113513012/12/16 11:35:31  5-MIN KBDL 121635Z 17007KT 4SM BR SCT003 SCT020 BKN060 OVC200 02/01 A2977 320 92 -1100 190/07 RMK AO2 T00220011
14740KBDL BDL20161212114013012/12/16 11:40:31  5-MIN KBDL 121640Z 18007KT 4SM BR SCT003 SCT020 BKN060 OVC200 02/01 A2977 320 92 -1100 190/07 RMK AO2 T00220011
14740KBDL BDL20161212114513712/12/16 11:45:31  5-MIN KBDL 121645Z 19007KT 4SM BR SCT003 SCT020 BKN060 OVC200 02/01 A2977 320 92 -1100 200/07 RMK AO2 SLP081 T00220011
14740KBDL BDL20161212115013712/12/16 11:50:31  5-MIN KBDL 121650Z 19008KT 6SM BR FEW003 SCT025 BKN040 OVC200 03/01 A2977 320 89 -1000 200/08 RMK AO2 SLP081 T00280011
14740KBDL BDL20161212115510912/12/16 11:55:31  5-MIN KBDL 121655Z 19008KT 5SM BR FEW025 03/02 A2977 320 92 -1000 200/08 RMK AO2 T00280017
14740KBDL BDL20161212120010912/12/16 12:00:31  5-MIN KBDL 121700Z 19008KT 6SM BR FEW025 03/02 A2976 320 92 -1000 200/08 RMK AO2 T00280017
14740KBDL BDL20161212120510512/12/16 12:05:31  5-MIN KBDL 121705Z 19008KT 7SM SCT025 03/02 A2977 320 89 -900 210/08 RMK AO2 T00330017
14740KBDL BDL20161212121010512/12/16 12:10:31  5-MIN KBDL 121710Z 19008KT 8SM BKN025 03/02 A2977 320 89 -900 200/08 RMK AO2 T00330017
14740KBDL BDL20161212121511912/12/16 12:15:31  5-MIN KBDL 121715Z 19008KT 8SM BKN025 BKN040 OVC200 03/02 A2975 330 89 -900 200/08 RMK AO2 T00330017
14740KBDL BDL20161212122011912/12/16 12:20:31  5-MIN KBDL 121720Z 19010KT 9SM BKN025 BKN040 OVC200 04/02 A2976 330 85 -900 210/10 RMK AO2 T00390017
14740KBDL BDL20161212122512012/12/16 12:25:31  5-MIN KBDL 121725Z 20008KT 10SM BKN025 BKN040 OVC200 04/02 A2975 330 85 -800 210/08 RMK AO2 T00390017
14740KBDL BDL20161212123012012/12/16 12:30:31  5-MIN KBDL 121730Z 21008KT 10SM BKN025 BKN040 OVC200 04/02 A2977 320 85 -800 230/08 RMK AO2 T00440022
14740KBDL BDL20161212123512712/12/16 12:35:31  5-MIN KBDL 121735Z 21007KT 10SM SCT025 SCT040 BKN200 OVC250 04/02 A2976 320 85 -800 230/07 RMK AO2 T00440022
14740KBDL BDL20161212124012712/12/16 12:40:31  5-MIN KBDL 121740Z 21008KT 10SM SCT025 SCT040 BKN200 OVC250 04/02 A2976 320 85 -800 230/08 RMK AO2 T00440022
14740KBDL BDL20161212124516412/12/16 12:45:31  5-MIN KBDL 121745Z 22007KT 10SM SCT025 SCT040 BKN200 OVC250 04/02 A2976 330 85 -800 240/07 RMK AO2 SLP079 60016 I6001 T00440022 10044 20000 56013
14740KBDL BDL20161212125017012/12/16 12:50:31  5-MIN KBDL 121750Z 22007KT 10SM SCT025 SCT150 BKN200 OVC250 05/02 A2976 330 82 -700 240/07 RMK AO2 SLP078 4/002 60016 I6001 T00500022 10050 20000 56013
14740KBDL BDL20161212125510612/12/16 12:55:31  5-MIN KBDL 121755Z 22008KT 10SM FEW023 05/02 A2976 320 82 -700 240/08 RMK AO2 T00500022
14740KBDL BDL20161212130010312/12/16 13:00:31  5-MIN KBDL 121800Z 22008KT 10SM CLR 05/02 A2976 330 82 -700 240/08 RMK AO2 T00500022
14740KBDL BDL20161212130510312/12/16 13:05:31  5-MIN KBDL 121805Z 24008KT 10SM CLR 05/02 A2976 330 82 -700 250/08 RMK AO2 T00500022
14740KBDL BDL20161212131010312/12/16 13:10:31  5-MIN KBDL 121810Z 24009KT 10SM CLR 05/02 A2975 330 82 -700 250/09 RMK AO2 T00500022
14740KBDL BDL20161212131510312/12/16 13:15:31  5-MIN KBDL 121815Z 24010KT 10SM CLR 05/02 A2975 330 82 -700 250/10 RMK AO2 T00500022
14740KBDL BDL20161212132010312/12/16 13:20:31  5-MIN KBDL 121820Z 25010KT 10SM CLR 05/02 A2976 330 79 -700 260/10 RMK AO2 T00500017
14740KBDL BDL20161212132510312/12/16 13:25:31  5-MIN KBDL 121825Z 25009KT 10SM CLR 05/02 A2976 320 79 -700 260/09 RMK AO2 T00500017
14740KBDL BDL20161212133010312/12/16 13:30:31  5-MIN KBDL 121830Z 25009KT 10SM CLR 05/02 A2977 320 79 -700 260/09 RMK AO2 T00500017
14740KBDL BDL20161212133510312/12/16 13:35:31  5-MIN KBDL 121835Z 25008KT 10SM CLR 05/02 A2977 320 79 -700 270/08 RMK AO2 T00500017
14740KBDL BDL20161212134010312/12/16 13:40:31  5-MIN KBDL 121840Z 26007KT 10SM CLR 05/02 A2976 320 79 -700 280/07 RMK AO2 T00500017
14740KBDL BDL20161212134511012/12/16 13:45:31  5-MIN KBDL 121845Z 27007KT 10SM CLR 05/02 A2976 330 79 -700 280/07 RMK AO2 SLP078 T00500017
14740KBDL BDL20161212135013412/12/16 13:50:31  5-MIN KBDL 121850Z 27007KT 10SM FEW025 SCT045 SCT150 BKN220 05/02 A2976 330 79 -700 280/07 RMK AO2 SLP078 T00500017
14740KBDL BDL20161212135510612/12/16 13:55:31  5-MIN KBDL 121855Z 26006KT 10SM FEW042 05/01 A2976 330 76 -700 280/06 RMK AO2 T00500011
14740KBDL BDL20161212140010312/12/16 14:00:31  5-MIN KBDL 121900Z 26009KT 10SM CLR 05/01 A2976 330 76 -700 270/09 RMK AO2 T00500011
14740KBDL BDL20161212140510312/12/16 14:05:31  5-MIN KBDL 121905Z 26007KT 10SM CLR 05/01 A2976 330 76 -700 270/07 RMK AO2 T00500011
14740KBDL BDL20161212141010312/12/16 14:10:31  5-MIN KBDL 121910Z 26006KT 10SM CLR 05/01 A2976 330 76 -700 280/06 RMK AO2 T00500011
14740KBDL BDL20161212141510312/12/16 14:15:31  5-MIN KBDL 121915Z 26007KT 10SM CLR 05/01 A2976 330 76 -700 280/07 RMK AO2 T00500011
14740KBDL BDL20161212142010312/12/16 14:20:31  5-MIN KBDL 121920Z 26006KT 10SM CLR 05/01 A2976 330 76 -700 280/06 RMK AO2 T00500011
14740KBDL BDL20161212142510312/12/16 14:25:31  5-MIN KBDL 121925Z 25005KT 10SM CLR 05/01 A2976 330 76 -700 260/05 RMK AO2 T00500011
14740KBDL BDL20161212143010312/12/16 14:30:31  5-MIN KBDL 121930Z 25005KT 10SM CLR 05/01 A2975 330 76 -700 260/05 RMK AO2 T00500011
14740KBDL BDL20161212143510312/12/16 14:35:31  5-MIN KBDL 121935Z 25007KT 10SM CLR 05/01 A2975 330 76 -700 260/07 RMK AO2 T00500011
14740KBDL BDL20161212144010312/12/16 14:40:31  5-MIN KBDL 121940Z 25006KT 10SM CLR 05/01 A2975 330 76 -700 260/06 RMK AO2 T00500011
14740KBDL BDL20161212144511012/12/16 14:45:31  5-MIN KBDL 121945Z 24007KT 10SM CLR 05/01 A2976 330 76 -700 250/07 RMK AO2 SLP077 T00500011
14740KBDL BDL20161212145013412/12/16 14:50:31  5-MIN KBDL 121950Z 23006KT 10SM FEW030 FEW050 BKN220 BKN250 05/01 A2976 330 76 -700 240/06 RMK AO2 SLP078 T00500011
14740KBDL BDL20161212145510312/12/16 14:55:31  5-MIN KBDL 121955Z 23007KT 10SM CLR 06/01 A2976 320 73 -600 240/07 RMK AO2 T00560011
14740KBDL BDL20161212150010312/12/16 15:00:31  5-MIN KBDL 122000Z 23007KT 10SM CLR 06/01 A2976 320 73 -600 240/07 RMK AO2 T00560011
14740KBDL BDL20161212150510312/12/16 15:05:31  5-MIN KBDL 122005Z 22006KT 10SM CLR 06/01 A2976 330 73 -600 230/06 RMK AO2 T00560011
14740KBDL BDL20161212151010612/12/16 15:10:31  5-MIN KBDL 122010Z 21007KT 10SM FEW046 06/01 A2976 320 73 -600 220/07 RMK AO2 T00560011
14740KBDL BDL20161212151510612/12/16 15:15:31  5-MIN KBDL 122015Z 22006KT 10SM FEW046 06/01 A2976 330 73 -600 230/06 RMK AO2 T00560011
14740KBDL BDL20161212152010312/12/16 15:20:31  5-MIN KBDL 122020Z 22006KT 10SM CLR 04/01 A2976 330 79 -800 240/06 RMK AO2 T00440011
14740KBDL BDL20161212152510312/12/16 15:25:31  5-MIN KBDL 122025Z 21006KT 10SM CLR 04/01 A2976 320 79 -800 220/06 RMK AO2 T00440011
14740KBDL BDL20161212153010312/12/16 15:30:31  5-MIN KBDL 122030Z 22007KT 10SM CLR 04/01 A2976 320 76 -800 230/07 RMK AO2 T00440006
14740KBDL BDL20161212153510312/12/16 15:35:31  5-MIN KBDL 122035Z 24008KT 10SM CLR 05/01 A2976 320 76 -700 250/08 RMK AO2 T00500011
14740KBDL BDL20161212154010312/12/16 15:40:31  5-MIN KBDL 122040Z 22007KT 10SM CLR 05/01 A2976 320 73 -700 240/07 RMK AO2 T00500006
14740KBDL BDL20161212154511612/12/16 15:45:31  5-MIN KBDL 122045Z 22006KT 10SM CLR 05/01 A2977 320 73 -700 230/06 RMK AO2 SLP081 T00500006 56018
14740KBDL BDL20161212155012612/12/16 15:50:31  5-MIN KBDL 122050Z 23007KT 10SM FEW050 FEW250 04/01 A2977 320 76 -800 240/07 RMK AO2 SLP081 T00440006 56018
14740KBDL BDL20161212155510312/12/16 15:55:31  5-MIN KBDL 122055Z 23008KT 10SM CLR 04/01 A2977 320 76 -800 240/08 RMK AO2 T00440006
14740KBDL BDL20161212160010312/12/16 16:00:31  5-MIN KBDL 122100Z 23006KT 10SM CLR 04/01 A2977 320 76 -800 240/06 RMK AO2 T00440006
14740KBDL BDL20161212160510312/12/16 16:05:31  5-MIN KBDL 122105Z 22005KT 10SM CLR 04/01 A2977 320 76 -800 240/05 RMK AO2 T00440006
14740KBDL BDL20161212161010312/12/16 16:10:31  5-MIN KBDL 122110Z 22006KT 10SM CLR 04/01 A2977 320 79 -900 230/06 RMK AO2 T00390006
14740KBDL BDL20161212161510312/12/16 16:15:31  5-MIN KBDL 122115Z 22006KT 10SM CLR 04/01 A2976 320 76 -800 240/06 RMK AO2 T00440006
14740KBDL BDL20161212162010312/12/16 16:20:31  5-MIN KBDL 122120Z 23007KT 10SM CLR 04/01 A2977 320 79 -900 240/07 RMK AO2 T00390006
14740KBDL BDL20161212162510312/12/16 16:25:31  5-MIN KBDL 122125Z 23007KT 10SM CLR 04/01 A2977 320 79 -900 240/07 RMK AO2 T00390006
14740KBDL BDL20161212163010312/12/16 16:30:31  5-MIN KBDL 122130Z 22007KT 10SM CLR 03/00 A2977 320 79 -900 240/07 RMK AO2 T00330000
14740KBDL BDL20161212163510312/12/16 16:35:31  5-MIN KBDL 122135Z 22006KT 10SM CLR 03/00 A2976 320 79 -900 240/06 RMK AO2 T00330000
14740KBDL BDL20161212164010312/12/16 16:40:31  5-MIN KBDL 122140Z 23007KT 10SM CLR 03/00 A2977 320 79 -900 240/07 RMK AO2 T00330000
14740KBDL BDL20161212164511112/12/16 16:45:31  5-MIN KBDL 122145Z 23007KT 10SM CLR 03/00 A2977 320 82 -1000 240/07 RMK AO2 SLP081 T00280000
14740KBDL BDL20161212165011412/12/16 16:50:31  5-MIN KBDL 122150Z 22008KT 10SM FEW047 03/00 A2977 320 82 -1000 240/08 RMK AO2 SLP081 T00280000
14740KBDL BDL20161212165510412/12/16 16:55:31  5-MIN KBDL 122155Z 23008KT 10SM CLR 03/00 A2977 320 82 -1000 240/08 RMK AO2 T00280000
14740KBDL BDL20161212170010412/12/16 17:00:31  5-MIN KBDL 122200Z 23009KT 10SM CLR 03/00 A2977 320 82 -1000 240/09 RMK AO2 T00280000
14740KBDL BDL20161212170510412/12/16 17:05:31  5-MIN KBDL 122205Z 23008KT 10SM CLR 03/00 A2977 320 82 -1000 250/08 RMK AO2 T00280000
14740KBDL BDL20161212171010412/12/16 17:10:31  5-MIN KBDL 122210Z 24007KT 10SM CLR 03/00 A2977 320 82 -1000 250/07 RMK AO2 T00280000
14740KBDL BDL20161212171510412/12/16 17:15:31  5-MIN KBDL 122215Z 24006KT 10SM CLR 02/00 A2977 320 85 -1100 250/06 RMK AO2 T00220000
14740KBDL BDL20161212172010512/12/16 17:20:31  5-MIN KBDL 122220Z 23006KT 10SM CLR 02/M01 A2977 310 85 -1100 240/06 RMK AO2 T00171006
14740KBDL BDL20161212172510512/12/16 17:25:31  5-MIN KBDL 122225Z 23006KT 10SM CLR 01/M01 A2977 310 89 -1200 240/06 RMK AO2 T00111006
14740KBDL BDL20161212173010512/12/16 17:30:31  5-MIN KBDL 122230Z 23007KT 10SM CLR 01/M01 A2977 310 89 -1200 240/07 RMK AO2 T00111006
14740KBDL BDL20161212173510512/12/16 17:35:31  5-MIN KBDL 122235Z 23006KT 10SM CLR 02/M01 A2978 310 85 -1100 240/06 RMK AO2 T00171006
14740KBDL BDL20161212174010512/12/16 17:40:31  5-MIN KBDL 122240Z 23005KT 10SM CLR 01/M01 A2978 310 89 -1200 250/05 RMK AO2 T00111006
14740KBDL BDL20161212174511212/12/16 17:45:31  5-MIN KBDL 122245Z 21006KT 10SM CLR 02/M01 A2978 310 85 -1200 230/06 RMK AO2 SLP085 T00171006
14740KBDL BDL20161212175011112/12/16 17:50:31  5-MIN KBDL 122250Z 21007KT 10SM CLR 03/00 A2978 310 82 -1000 220/07 RMK AO2 SLP086 T00280000
14740KBDL BDL20161212175510312/12/16 17:55:31  5-MIN KBDL 122255Z 21007KT 10SM CLR 03/00 A2978 300 79 -900 220/07 RMK AO2 T00330000
14740KBDL BDL20161212180010412/12/16 18:00:31  5-MIN KBDL 122300Z 20007KT 10SM CLR 03/00 A2979 300 79 -1000 220/07 RMK AO2 T00330000
14740KBDL BDL20161212180510412/12/16 18:05:31  5-MIN KBDL 122305Z 20008KT 10SM CLR 03/00 A2979 300 79 -1000 220/08 RMK AO2 T00330000
14740KBDL BDL20161212181010412/12/16 18:10:31  5-MIN KBDL 122310Z 21007KT 10SM CLR 03/00 A2979 300 79 -1000 220/07 RMK AO2 T00330000
14740KBDL BDL20161212181510412/12/16 18:15:31  5-MIN KBDL 122315Z 22007KT 10SM CLR 03/00 A2980 290 79 -1000 230/07 RMK AO2 T00330000
14740KBDL BDL20161212182010512/12/16 18:20:31  5-MIN KBDL 122320Z 22006KT 10SM CLR 02/M01 A2980 290 85 -1200 230/06 RMK AO2 T00171006
14740KBDL BDL20161212182510512/12/16 18:25:31  5-MIN KBDL 122325Z 22007KT 10SM CLR 01/M01 A2980 290 85 -1200 240/07 RMK AO2 T00111011
14740KBDL BDL20161212183010512/12/16 18:30:31  5-MIN KBDL 122330Z 21007KT 10SM CLR 01/M01 A2980 290 89 -1200 230/07 RMK AO2 T00111006
14740KBDL BDL20161212183510512/12/16 18:35:31  5-MIN KBDL 122335Z 21007KT 10SM CLR 02/M01 A2980 290 85 -1200 230/07 RMK AO2 T00171006
14740KBDL BDL20161212184010512/12/16 18:40:31  5-MIN KBDL 122340Z 21007KT 10SM CLR 02/M01 A2980 280 85 -1200 230/07 RMK AO2 T00171006
14740KBDL BDL20161212184513012/12/16 18:45:31  5-MIN KBDL 122345Z 21006KT 10SM CLR 02/M01 A2981 280 85 -1200 230/06 RMK AO2 SLP095 T00171006 10056 20011 53003
14740KBDL BDL20161212185013612/12/16 18:50:31  5-MIN KBDL 122350Z 24005KT 10SM CLR 01/M01 A2981 280 89 -1300 250/05 RMK AO2 SLP096 4/001 T00111006 10056 20011 53003
14740KBDL BDL20161212185510512/12/16 18:55:31  5-MIN KBDL 122355Z 23005KT 10SM CLR 01/M02 A2982 270 85 -1300 240/05 RMK AO2 T00061017
14740KBDL BDL20161212190010512/12/16 19:00:31  5-MIN KBDL 130000Z 23005KT 10SM CLR 01/M01 A2982 270 89 -1300 240/05 RMK AO2 T00061011
14740KBDL BDL20161212190510512/12/16 19:05:31  5-MIN KBDL 130005Z 23005KT 10SM CLR 01/M01 A2982 270 89 -1300 240/05 RMK AO2 T00061011
14740KBDL BDL20161212191010512/12/16 19:10:31  5-MIN KBDL 130010Z 22006KT 10SM CLR 01/M01 A2982 270 85 -1300 240/06 RMK AO2 T00111011
14740KBDL BDL20161212191510512/12/16 19:15:31  5-MIN KBDL 130015Z 22006KT 10SM CLR 01/M01 A2983 260 85 -1300 240/06 RMK AO2 T00111011
14740KBDL BDL20161212192010512/12/16 19:20:31  5-MIN KBDL 130020Z 22006KT 10SM CLR 01/M01 A2983 260 85 -1300 230/06 RMK AO2 T00111011
14740KBDL BDL20161212192510512/12/16 19:25:31  5-MIN KBDL 130025Z 22006KT 10SM CLR 01/M01 A2983 260 89 -1300 230/06 RMK AO2 T00111006
14740KBDL BDL20161212193010512/12/16 19:30:31  5-MIN KBDL 130030Z 22006KT 10SM CLR 01/M01 A2982 270 89 -1300 230/06 RMK AO2 T00111006
14740KBDL BDL20161212193510512/12/16 19:35:31  5-MIN KBDL 130035Z 22005KT 10SM CLR 02/M01 A2982 270 85 -1200 230/05 RMK AO2 T00171006
14740KBDL BDL20161212194010812/12/16 19:40:31  5-MIN KBDL 130040Z 23005KT 10SM FEW060 01/M01 A2982 270 89 -1300 250/05 RMK AO2 T00111006
14740KBDL BDL20161212194511512/12/16 19:45:31  5-MIN KBDL 130045Z 23005KT 10SM FEW060 01/M01 A2983 260 89 -1300 240/05 RMK AO2 SLP102 T00061011
14740KBDL BDL20161212195011512/12/16 19:50:31  5-MIN KBDL 130050Z 22004KT 10SM SCT060 00/M02 A2983 260 88 -1400 230/04 RMK AO2 SLP103 T00001017
14740KBDL BDL20161212195510812/12/16 19:55:31  5-MIN KBDL 130055Z 22004KT 10SM FEW060 01/M01 A2983 260 89 -1400 230/04 RMK AO2 T00061011
14740KBDL BDL20161212200010812/12/16 20:00:31  5-MIN KBDL 130100Z 20004KT 10SM SCT055 02/M01 A2983 260 85 -1200 220/04 RMK AO2 T00171006
14740KBDL BDL20161212200511512/12/16 20:05:31  5-MIN KBDL 130105Z 22003KT 10SM SCT050 BKN060 01/M01 A2984 250 92 -1400 240/03 RMK AO2 T00061006
14740KBDL BDL20161212201011512/12/16 20:10:31  5-MIN KBDL 130110Z VRB03KT 10SM SCT048 BKN060 01/M01 A2984 250 85 -1300 VRB/03 RMK AO2 T00111011
14740KBDL BDL20161212201512212/12/16 20:15:31  5-MIN KBDL 130115Z 00000KT 10SM FEW038 BKN047 BKN060 01/M01 A2984 250 89 -1400 000/00 RMK AO2 T00061011
14740KBDL BDL20161212202012212/12/16 20:20:31  5-MIN KBDL 130120Z 00000KT 10SM BKN039 BKN050 OVC060 02/M01 A2985 240 85 -1200 000/00 RMK AO2 T00171006
14740KBDL BDL20161212202512212/12/16 20:25:31  5-MIN KBDL 130125Z 00000KT 10SM BKN037 BKN045 OVC055 02/M01 A2985 240 85 -1200 000/00 RMK AO2 T00171006
14740KBDL BDL20161212203012212/12/16 20:30:31  5-MIN KBDL 130130Z 00000KT 10SM BKN035 BKN045 OVC055 02/M01 A2986 240 85 -1200 000/00 RMK AO2 T00171006
14740KBDL BDL20161212203512212/12/16 20:35:31  5-MIN KBDL 130135Z 00000KT 10SM BKN035 OVC045 01/M01 A2986 230 89 -1300 000/00 RMK AO2 PRESRR T00111006
14740KBDL BDL20161212204011512/12/16 20:40:31  5-MIN KBDL 130140Z 00000KT 10SM BKN035 OVC050 01/M01 A2987 230 89 -1300 000/00 RMK AO2 T00111006
14740KBDL BDL20161212204512212/12/16 20:45:31  5-MIN KBDL 130145Z 21004KT 10SM BKN037 OVC050 01/M01 A2987 230 89 -1300 220/04 RMK AO2 SLP115 T00111006
14740KBDL BDL20161212205012912/12/16 20:50:31  5-MIN KBDL 130150Z 23003KT 10SM SCT033 BKN042 OVC050 02/M01 A2987 220 85 -1300 240/03 RMK AO2 SLP116 T00171006
14740KBDL BDL20161212205511512/12/16 20:55:31  5-MIN KBDL 130155Z 00000KT 10SM SCT033 OVC044 01/M01 A2987 220 89 -1300 000/00 RMK AO2 T00111006
14740KBDL BDL20161212210011512/12/16 21:00:31  5-MIN KBDL 130200Z 21003KT 10SM FEW033 OVC044 02/M01 A2987 220 82 -1200 220/03 RMK AO2 T00221006
14740KBDL BDL20161212210511512/12/16 21:05:31  5-MIN KBDL 130205Z 22004KT 10SM FEW035 OVC044 01/M01 A2987 220 89 -1300 230/04 RMK AO2 T00111006
14740KBDL BDL20161212211010812/12/16 21:10:31  5-MIN KBDL 130210Z 20004KT 10SM OVC046 01/M01 A2987 220 89 -1300 210/04 RMK AO2 T00111006
14740KBDL BDL20161212211510812/12/16 21:15:31  5-MIN KBDL 130215Z 23005KT 10SM OVC048 01/M01 A2988 220 89 -1300 250/05 RMK AO2 T00111006
14740KBDL BDL20161212212010812/12/16 21:20:31  5-MIN KBDL 130220Z 22007KT 10SM OVC050 02/M01 A2988 210 85 -1300 240/07 RMK AO2 T00171006
14740KBDL BDL20161212212511512/12/16 21:25:31  5-MIN KBDL 130225Z 22006KT 10SM BKN048 OVC060 02/M01 A2989 210 85 -1300 240/06 RMK AO2 T00171006
14740KBDL BDL20161212213012212/12/16 21:30:31  5-MIN KBDL 130230Z 25006KT 10SM BKN050 OVC060 02/M01 A2990 200 85 -1300 260/06 RMK AO2 PRESRR T00171006
14740KBDL BDL20161212213511512/12/16 21:35:31  5-MIN KBDL 130235Z 27007KT 10SM BKN050 BKN065 02/M01 A2990 190 82 -1300 280/07 RMK AO2 T00171011
14740KBDL BDL20161212214010812/12/16 21:40:31  5-MIN KBDL 130240Z 26007KT 10SM BKN060 02/M01 A2991 190 78 -1200 270/07 RMK AO2 T00221011
14740KBDL BDL20161212214512112/12/16 21:45:31  5-MIN KBDL 130245Z 26007KT 10SM BKN060 02/M01 A2991 190 82 -1300 270/07 RMK AO2 SLP129 T00171011 53015
14740KBDL BDL20161212215012112/12/16 21:50:31  5-MIN KBDL 130250Z 26007KT 10SM SCT060 02/M02 A2991 190 78 -1300 270/07 RMK AO2 SLP128 T00171017 53015
14740KBDL BDL20161212215510812/12/16 21:55:31  5-MIN KBDL 130255Z 27006KT 10SM FEW060 02/M02 A2990 190 75 -1200 280/06 RMK AO2 T00221017
14740KBDL BDL20161212220010812/12/16 22:00:31  5-MIN KBDL 130300Z 28006KT 10SM FEW060 02/M02 A2991 190 78 -1300 290/06 RMK AO2 T00171017
14740KBDL BDL20161212220510812/12/16 22:05:31  5-MIN KBDL 130305Z 28005KT 10SM FEW060 02/M02 A2991 190 78 -1300 300/05 RMK AO2 T00171017
14740KBDL BDL20161212221010512/12/16 22:10:31  5-MIN KBDL 130310Z 28005KT 10SM CLR 01/M02 A2991 190 78 -1400 300/05 RMK AO2 T00111022
14740KBDL BDL20161212221510512/12/16 22:15:31  5-MIN KBDL 130315Z 29004KT 10SM CLR 01/M02 A2991 180 78 -1400 310/04 RMK AO2 T00111022
14740KBDL BDL20161212222010512/12/16 22:20:31  5-MIN KBDL 130320Z 29005KT 10SM CLR 02/M02 A2992 180 75 -1300 300/05 RMK AO2 T00171022
14740KBDL BDL20161212222510512/12/16 22:25:31  5-MIN KBDL 130325Z 29005KT 10SM CLR 02/M02 A2992 180 75 -1300 310/05 RMK AO2 T00171022
14740KBDL BDL20161212223010512/12/16 22:30:31  5-MIN KBDL 130330Z 30008KT 10SM CLR 01/M03 A2992 170 75 -1400 310/08 RMK AO2 T00111028
14740KBDL BDL20161212223510512/12/16 22:35:31  5-MIN KBDL 130335Z 30008KT 10SM CLR 02/M03 A2992 170 72 -1300 310/08 RMK AO2 T00171028
14740KBDL BDL20161212224011112/12/16 22:40:31  5-MIN KBDL 130340Z 32011G17KT 10SM CLR 02/M03 A2993 170 69 -1300 340/11G17 RMK AO2 T00221028
14740KBDL BDL20161212224511812/12/16 22:45:31  5-MIN KBDL 130345Z 30009G17KT 10SM CLR 02/M03 A2993 170 67 -1300 310/09G17 RMK AO2 SLP136 T00221033
14740KBDL BDL20161212225011512/12/16 22:50:31  5-MIN KBDL 130350Z 28011KT 10SM FEW060 03/M03 A2993 170 64 -1200 300/11 RMK AO2 SLP137 T00281033
14740KBDL BDL20161212225510512/12/16 22:55:31  5-MIN KBDL 130355Z 28010KT 10SM CLR 02/M04 A2993 170 64 -1300 300/10 RMK AO2 T00221039
14740KBDL BDL20161212230010512/12/16 23:00:31  5-MIN KBDL 130400Z 29010KT 10SM CLR 02/M04 A2993 170 64 -1300 300/10 RMK AO2 T00221039
14740KBDL BDL20161212230510512/12/16 23:05:31  5-MIN KBDL 130405Z 29009KT 10SM CLR 02/M04 A2993 160 61 -1300 300/09 RMK AO2 T00221044
14740KBDL BDL20161212231010512/12/16 23:10:31  5-MIN KBDL 130410Z 28008KT 10SM CLR 02/M04 A2993 160 61 -1300 290/08 RMK AO2 T00221044
14740KBDL BDL20161212231511112/12/16 23:15:31  5-MIN KBDL 130415Z 28011G17KT 10SM CLR 03/M04 A2993 160 59 -1200 300/11G17 RMK AO2 T00281044
14740KBDL BDL20161212232010512/12/16 23:20:31  5-MIN KBDL 130420Z 27008KT 10SM CLR 02/M04 A2993 170 61 -1300 290/08 RMK AO2 T00221044
14740KBDL BDL20161212232510512/12/16 23:25:31  5-MIN KBDL 130425Z 27008KT 10SM CLR 03/M04 A2993 170 59 -1200 280/08 RMK AO2 T00281044
14740KBDL BDL20161212233010512/12/16 23:30:31  5-MIN KBDL 130430Z 28010KT 10SM CLR 02/M04 A2993 170 61 -1300 290/10 RMK AO2 T00221044
14740KBDL BDL20161212233510512/12/16 23:35:31  5-MIN KBDL 130435Z 27009KT 10SM CLR 02/M04 A2993 170 61 -1300 290/09 RMK AO2 T00221044
14740KBDL BDL20161212234010512/12/16 23:40:31  5-MIN KBDL 130440Z 27009KT 10SM CLR 02/M04 A2993 170 64 -1300 280/09 RMK AO2 T00171044
14740KBDL BDL20161212234512212/12/16 23:45:31  5-MIN KBDL 130445Z 28010KT 10SM CLR 02/M05 A2993 170 61 -1300 290/10 RMK AO2 SLP136 T00171050 400561017
14740KBDL BDL20161212235012512/12/16 23:50:31  5-MIN KBDL 130450Z 28009KT 10SM FEW060 02/M05 A2993 170 61 -1300 300/09 RMK AO2 SLP137 T00171050 400561017
14740KBDL BDL20161212235510512/12/16 23:55:31  5-MIN KBDL 130455Z 28010KT 10SM CLR 02/M05 A2993 170 59 -1300 290/10 RMK AO2 T00221050
14740KBDL BDL20161213000010512/13/16 00:00:31  5-MIN KBDL 130500Z 28011KT 10SM CLR 02/M05 A2994 160 59 -1300 300/11 RMK AO2 T00221050
14740KBDL BDL20161213000510512/13/16 00:05:31  5-MIN KBDL 130505Z 28010KT 10SM CLR 02/M05 A2994 160 59 -1300 300/10 RMK AO2 T00221050
14740KBDL BDL20161213001010512/13/16 00:10:31  5-MIN KBDL 130510Z 29012KT 10SM CLR 02/M05 A2994 160 59 -1300 300/12 RMK AO2 T00221050
14740KBDL BDL20161213001510512/13/16 00:15:31  5-MIN KBDL 130515Z 29012KT 10SM CLR 02/M05 A2994 160 59 -1300 300/12 RMK AO2 T00221050
14740KBDL BDL20161213002010512/13/16 00:20:31  5-MIN KBDL 130520Z 28011KT 10SM CLR 02/M05 A2994 160 59 -1300 300/11 RMK AO2 T00221050
14740KBDL BDL20161213002510512/13/16 00:25:31  5-MIN KBDL 130525Z 29012KT 10SM CLR 02/M06 A2994 150 56 -1300 310/12 RMK AO2 T00221056
14740KBDL BDL20161213003010512/13/16 00:30:31  5-MIN KBDL 130530Z 29011KT 10SM CLR 02/M06 A2994 150 56 -1300 300/11 RMK AO2 T00221056
14740KBDL BDL20161213003510512/13/16 00:35:31  5-MIN KBDL 130535Z 29013KT 10SM CLR 02/M06 A2995 150 59 -1300 310/13 RMK AO2 T00171056
14740KBDL BDL20161213004010512/13/16 00:40:31  5-MIN KBDL 130540Z 29011KT 10SM CLR 02/M06 A2995 150 56 -1300 310/11 RMK AO2 T00221056
14740KBDL BDL20161213004513012/13/16 00:45:31  5-MIN KBDL 130545Z 29011KT 10SM CLR 02/M06 A2996 140 56 -1300 310/11 RMK AO2 SLP145 T00221056 10028 20000 53031
14740KBDL BDL20161213005013912/13/16 00:50:31  5-MIN KBDL 130550Z 29011KT 10SM FEW050 02/M06 A2996 140 59 -1400 310/11 RMK AO2 SLP146 4/001 T00171056 10028 20000 53031
14740KBDL BDL20161213005510512/13/16 00:55:31  5-MIN KBDL 130555Z 29010KT 10SM CLR 02/M06 A2996 140 59 -1400 300/10 RMK AO2 T00171056
14740KBDL BDL20161213010010512/13/16 01:00:31  5-MIN KBDL 130600Z 29008KT 10SM CLR 01/M06 A2996 140 61 -1400 300/08 RMK AO2 T00111056
14740KBDL BDL20161213010510512/13/16 01:05:31  5-MIN KBDL 130605Z 28007KT 10SM CLR 01/M06 A2996 140 58 -1400 300/07 RMK AO2 T00111061
14740KBDL BDL20161213011011112/13/16 01:10:31  5-MIN KBDL 130610Z 27011G20KT 10SM CLR 01/M06 A2996 140 58 -1400 290/11G20 RMK AO2 T00111061
14740KBDL BDL20161213011511112/13/16 01:15:31  5-MIN KBDL 130615Z 27011G20KT 10SM CLR 02/M06 A2997 130 56 -1400 280/11G20 RMK AO2 T00171061
14740KBDL BDL20161213012010512/13/16 01:20:31  5-MIN KBDL 130620Z 28011KT 10SM CLR 02/M06 A2997 130 54 -1300 300/11 RMK AO2 T00221061
14740KBDL BDL20161213012511112/13/16 01:25:31  5-MIN KBDL 130625Z 28008G17KT 10SM CLR 02/M06 A2997 130 56 -1400 290/08G17 RMK AO2 T00171061
14740KBDL BDL20161213013010512/13/16 01:30:31  5-MIN KBDL 130630Z 29012KT 10SM CLR 02/M06 A2998 120 56 -1400 300/12 RMK AO2 T00171061
14740KBDL BDL20161213013510512/13/16 01:35:31  5-MIN KBDL 130635Z 29011KT 10SM CLR 02/M06 A2998 120 56 -1400 300/11 RMK AO2 T00171061
14740KBDL BDL20161213115012212/13/16 11:50:31  5-MIN KBDL 131650Z VRB04KT 10SM FEW050 BKN250 04/M05 A3012 -10 50 -1200 VRB/04 RMK AO2 SLP203 T00441050
14740KBDL BDL20161213115510312/13/16 11:55:31  5-MIN KBDL 131655Z 16006KT 10SM CLR 04/M05 A3012 0 50 -1200 170/06 RMK AO2 T00441050
14740KBDL BDL20161213120010312/13/16 12:00:31  5-MIN KBDL 131700Z 15006KT 10SM CLR 04/M06 A3012 0 50 -1300 160/06 RMK AO2 T00391056
14740KBDL BDL20161213120510312/13/16 12:05:31  5-MIN KBDL 131705Z 20006KT 10SM CLR 04/M05 A3012 0 52 -1300 210/06 RMK AO2 T00391050
14740KBDL BDL20161213121010312/13/16 12:10:31  5-MIN KBDL 131710Z VRB04KT 10SM CLR 04/M06 A3012 0 48 -1200 VRB/04 RMK AO2 T00441056
14740KBDL BDL20161213121510312/13/16 12:15:31  5-MIN KBDL 131715Z 17008KT 10SM CLR 04/M05 A3011 0 50 -1200 190/08 RMK AO2 T00441050
14740KBDL BDL20161213122010312/13/16 12:20:31  5-MIN KBDL 131720Z 20009KT 10SM CLR 04/M05 A3011 0 52 -1300 210/09 RMK AO2 T00391050
14740KBDL BDL20161213122510312/13/16 12:25:31  5-MIN KBDL 131725Z 16008KT 10SM CLR 04/M06 A3011 0 48 -1200 180/08 RMK AO2 T00441056
14740KBDL BDL20161213123010312/13/16 12:30:31  5-MIN KBDL 131730Z 17006KT 10SM CLR 04/M05 A3011 0 50 -1200 190/06 RMK AO2 T00441050
14740KBDL BDL20161213123510312/13/16 12:35:31  5-MIN KBDL 131735Z 18010KT 10SM CLR 04/M04 A3011 0 52 -1200 190/10 RMK AO2 T00441044
14740KBDL BDL20161213124010412/13/16 12:40:31  5-MIN KBDL 131740Z 17007KT 10SM CLR 04/M05 A3011 10 52 -1300 180/07 RMK AO2 T00391050
14740KBDL BDL20161213124512912/13/16 12:45:31  5-MIN KBDL 131745Z 18008KT 10SM CLR 04/M05 A3010 10 50 -1200 190/08 RMK AO2 SLP195 T00441050 10044 21028 51017
14740KBDL BDL20161213125014512/13/16 12:50:31  5-MIN KBDL 131750Z 18009KT 10SM FEW050 BKN250 04/M05 A3010 10 52 -1200 190/09 RMK AO2 SLP195 4/001 T00391050 10044 21028 51017
14740KBDL BDL20161213125510412/13/16 12:55:31  5-MIN KBDL 131755Z 17008KT 10SM CLR 04/M05 A3010 10 52 -1200 180/08 RMK AO2 T00391050
14740KBDL BDL20161213130010412/13/16 13:00:31  5-MIN KBDL 131800Z 17008KT 10SM CLR 04/M05 A3009 20 50 -1200 180/08 RMK AO2 T00441050
14740KBDL BDL20161213130510412/13/16 13:05:31  5-MIN KBDL 131805Z 17009KT 10SM CLR 04/M05 A3009 20 50 -1200 180/09 RMK AO2 T00441050
14740KBDL BDL20161213131010412/13/16 13:10:31  5-MIN KBDL 131810Z 18008KT 10SM CLR 04/M05 A3009 20 52 -1200 190/08 RMK AO2 T00391050
14740KBDL BDL20161213131510412/13/16 13:15:31  5-MIN KBDL 131815Z 15007KT 10SM CLR 04/M05 A3008 20 52 -1200 170/07 RMK AO2 T00391050
14740KBDL BDL20161213132010412/13/16 13:20:31  5-MIN KBDL 131820Z 16007KT 10SM CLR 04/M05 A3008 30 52 -1200 170/07 RMK AO2 T00391050
14740KBDL BDL20161213132510412/13/16 13:25:31  5-MIN KBDL 131825Z 17009KT 10SM CLR 04/M05 A3008 30 50 -1200 180/09 RMK AO2 T00441050
14740KBDL BDL20161213133010412/13/16 13:30:31  5-MIN KBDL 131830Z 16008KT 10SM CLR 04/M05 A3008 30 50 -1200 180/08 RMK AO2 T00441050
14740KBDL BDL20161213133510412/13/16 13:35:31  5-MIN KBDL 131835Z 17009KT 10SM CLR 04/M05 A3008 30 52 -1200 180/09 RMK AO2 T00391050
14740KBDL BDL20161213134010412/13/16 13:40:31  5-MIN KBDL 131840Z 16008KT 10SM CLR 04/M06 A3008 30 50 -1200 180/08 RMK AO2 T00391056
14740KBDL BDL20161213134511112/13/16 13:45:31  5-MIN KBDL 131845Z 18008KT 10SM CLR 04/M06 A3008 30 50 -1200 190/08 RMK AO2 SLP188 T00391056
14740KBDL BDL20161213135012112/13/16 13:50:31  5-MIN KBDL 131850Z 18006KT 10SM SCT180 OVC250 04/M06 A3008 30 50 -1200 200/06 RMK AO2 SLP188 T00391056
14740KBDL BDL20161213135510412/13/16 13:55:31  5-MIN KBDL 131855Z 18005KT 10SM CLR 04/M05 A3008 30 52 -1200 200/05 RMK AO2 T00391050
14740KBDL BDL20161213140010412/13/16 14:00:31  5-MIN KBDL 131900Z 17006KT 10SM CLR 04/M06 A3008 30 50 -1200 190/06 RMK AO2 T00391056
14740KBDL BDL20161213140510412/13/16 14:05:31  5-MIN KBDL 131905Z 17006KT 10SM CLR 04/M05 A3008 30 52 -1200 180/06 RMK AO2 T00391050
14740KBDL BDL20161213141010412/13/16 14:10:31  5-MIN KBDL 131910Z 17007KT 10SM CLR 04/M05 A3008 30 52 -1200 180/07 RMK AO2 T00391050
14740KBDL BDL20161213141510412/13/16 14:15:31  5-MIN KBDL 131915Z 17006KT 10SM CLR 04/M05 A3008 30 52 -1200 190/06 RMK AO2 T00391050
14740KBDL BDL20161213142010412/13/16 14:20:31  5-MIN KBDL 131920Z 19005KT 10SM CLR 04/M05 A3008 30 50 -1200 210/05 RMK AO2 T00441050
14740KBDL BDL20161213142510412/13/16 14:25:31  5-MIN KBDL 131925Z 18004KT 10SM CLR 04/M06 A3008 30 48 -1200 190/04 RMK AO2 T00441056
14740KBDL BDL20161213143010412/13/16 14:30:31  5-MIN KBDL 131930Z 21006KT 10SM CLR 04/M06 A3008 30 48 -1200 230/06 RMK AO2 T00441056
14740KBDL BDL20161213143510412/13/16 14:35:31  5-MIN KBDL 131935Z 20008KT 10SM CLR 04/M06 A3008 30 48 -1200 210/08 RMK AO2 T00441056
14740KBDL BDL20161213144010412/13/16 14:40:31  5-MIN KBDL 131940Z 22006KT 10SM CLR 04/M06 A3008 30 48 -1200 230/06 RMK AO2 T00441056
14740KBDL BDL20161213144511112/13/16 14:45:31  5-MIN KBDL 131945Z 20008KT 10SM CLR 04/M06 A3008 30 48 -1200 220/08 RMK AO2 SLP188 T00441056
14740KBDL BDL20161213145012112/13/16 14:50:31  5-MIN KBDL 131950Z 22007KT 10SM FEW180 OVC250 04/M06 A3008 30 48 -1200 230/07 RMK AO2 SLP188 T00391061
14740KBDL BDL20161213145510412/13/16 14:55:31  5-MIN KBDL 131955Z 20008KT 10SM CLR 04/M06 A3008 20 48 -1200 210/08 RMK AO2 T00391061
14740KBDL BDL20161213150010412/13/16 15:00:31  5-MIN KBDL 132000Z 20008KT 10SM CLR 04/M06 A3009 20 48 -1200 220/08 RMK AO2 T00391061
14740KBDL BDL20161213150510412/13/16 15:05:31  5-MIN KBDL 132005Z 20008KT 10SM CLR 04/M06 A3008 20 48 -1200 220/08 RMK AO2 T00391061
14740KBDL BDL20161213151010412/13/16 15:10:31  5-MIN KBDL 132010Z 20007KT 10SM CLR 04/M06 A3009 20 46 -1200 210/07 RMK AO2 T00441061
14740KBDL BDL20161213151510412/13/16 15:15:31  5-MIN KBDL 132015Z 20007KT 10SM CLR 04/M06 A3009 20 46 -1200 210/07 RMK AO2 T00441061
14740KBDL BDL20161213152010412/13/16 15:20:31  5-MIN KBDL 132020Z 18006KT 10SM CLR 04/M06 A3009 20 48 -1200 190/06 RMK AO2 T00391061
14740KBDL BDL20161213152510412/13/16 15:25:31  5-MIN KBDL 132025Z 19008KT 10SM CLR 04/M06 A3009 20 46 -1200 210/08 RMK AO2 T00441061
14740KBDL BDL20161213153010712/13/16 15:30:31  5-MIN KBDL 132030Z 19008KT 10SM SCT110 04/M06 A3009 20 48 -1200 210/08 RMK AO2 T00391061
14740KBDL BDL20161213153510712/13/16 15:35:31  5-MIN KBDL 132035Z 19008KT 10SM BKN110 04/M06 A3010 10 48 -1200 210/08 RMK AO2 T00391061
14740KBDL BDL20161213154010712/13/16 15:40:31  5-MIN KBDL 132040Z 20008KT 10SM BKN110 04/M06 A3010 10 48 -1200 220/08 RMK AO2 T00391061
14740KBDL BDL20161213154512012/13/16 15:45:31  5-MIN KBDL 132045Z 20007KT 10SM SCT110 04/M06 A3010 10 48 -1300 210/07 RMK AO2 SLP196 T00391061 56016
14740KBDL BDL20161213155013412/13/16 15:50:31  5-MIN KBDL 132050Z 20006KT 10SM FEW110 SCT130 OVC250 04/M06 A3010 10 48 -1300 210/06 RMK AO2 SLP196 T00391061 56016
14740KBDL BDL20161213155510612/13/16 15:55:31  5-MIN KBDL 132055Z 20006KT 10SM BKN110 04/M06 A3011 0 48 -1300 220/06 RMK AO2 T00391061
14740KBDL BDL20161213160010612/13/16 16:00:31  5-MIN KBDL 132100Z 20006KT 10SM BKN110 04/M06 A3011 0 48 -1300 220/06 RMK AO2 T00391061
14740KBDL BDL20161213160510612/13/16 16:05:31  5-MIN KBDL 132105Z 20006KT 10SM BKN110 04/M06 A3011 0 48 -1300 210/06 RMK AO2 T00391061
14740KBDL BDL20161213161011312/13/16 16:10:31  5-MIN KBDL 132110Z 18005KT 10SM BKN100 OVC120 04/M06 A3011 0 48 -1300 200/05 RMK AO2 T00391061
14740KBDL BDL20161213161511412/13/16 16:15:31  5-MIN KBDL 132115Z 18005KT 10SM BKN100 OVC120 03/M06 A3010 10 52 -1300 200/05 RMK AO2 T00331056
14740KBDL BDL20161213162010712/13/16 16:20:31  5-MIN KBDL 132120Z 17005KT 10SM OVC100 03/M06 A3010 10 52 -1300 190/05 RMK AO2 T00331056
14740KBDL BDL20161213162510712/13/16 16:25:31  5-MIN KBDL 132125Z 17006KT 10SM OVC100 03/M06 A3009 20 52 -1300 190/06 RMK AO2 T00331056
14740KBDL BDL20161213163010712/13/16 16:30:31  5-MIN KBDL 132130Z 18006KT 10SM OVC095 03/M06 A3009 20 54 -1400 190/06 RMK AO2 T00281056
14740KBDL BDL20161213163510712/13/16 16:35:31  5-MIN KBDL 132135Z 18006KT 10SM OVC100 03/M06 A3009 20 54 -1400 190/06 RMK AO2 T00281056
14740KBDL BDL20161213164010712/13/16 16:40:31  5-MIN KBDL 132140Z 18006KT 10SM OVC100 03/M06 A3010 10 54 -1400 190/06 RMK AO2 T00281056
14740KBDL BDL20161213164511412/13/16 16:45:31  5-MIN KBDL 132145Z 18006KT 10SM OVC100 03/M06 A3010 10 52 -1300 200/06 RMK AO2 SLP193 T00331056
14740KBDL BDL20161213165012812/13/16 16:50:31  5-MIN KBDL 132150Z 18007KT 10SM FEW080 BKN100 OVC150 03/M06 A3009 20 52 -1300 190/07 RMK AO2 SLP192 T00331056
14740KBDL BDL20161213165510712/13/16 16:55:31  5-MIN KBDL 132155Z 18006KT 10SM OVC100 03/M06 A3009 20 52 -1300 190/06 RMK AO2 T00331056
14740KBDL BDL20161213170010712/13/16 17:00:31  5-MIN KBDL 132200Z 17005KT 10SM OVC100 03/M05 A3009 20 56 -1400 180/05 RMK AO2 T00281050
14740KBDL BDL20161213170510712/13/16 17:05:31  5-MIN KBDL 132205Z 17006KT 10SM OVC100 03/M05 A3008 20 56 -1400 180/06 RMK AO2 T00281050
14740KBDL BDL20161213171010712/13/16 17:10:31  5-MIN KBDL 132210Z 17009KT 10SM OVC100 03/M05 A3008 30 56 -1400 190/09 RMK AO2 T00281050
14740KBDL BDL20161213171510712/13/16 17:15:31  5-MIN KBDL 132215Z 18009KT 10SM OVC100 03/M06 A3008 20 52 -1300 200/09 RMK AO2 T00331056
14740KBDL BDL20161213172010712/13/16 17:20:31  5-MIN KBDL 132220Z 18008KT 10SM OVC100 03/M06 A3008 30 52 -1300 190/08 RMK AO2 T00331056
14740KBDL BDL20161213172510712/13/16 17:25:31  5-MIN KBDL 132225Z 18007KT 10SM OVC095 03/M06 A3008 30 52 -1300 190/07 RMK AO2 T00331056
14740KBDL BDL20161213173010712/13/16 17:30:31  5-MIN KBDL 132230Z 18007KT 10SM OVC095 03/M06 A3008 30 52 -1300 190/07 RMK AO2 T00331056
14740KBDL BDL20161213173510712/13/16 17:35:31  5-MIN KBDL 132235Z 19006KT 10SM OVC095 03/M06 A3008 30 52 -1300 210/06 RMK AO2 T00331056
14740KBDL BDL20161213174010712/13/16 17:40:31  5-MIN KBDL 132240Z 19006KT 10SM OVC095 03/M06 A3008 30 52 -1300 210/06 RMK AO2 T00331056
14740KBDL BDL20161213174511412/13/16 17:45:31  5-MIN KBDL 132245Z 19007KT 10SM OVC090 03/M06 A3008 30 52 -1300 200/07 RMK AO2 SLP187 T00331056
14740KBDL BDL20161213175012112/13/16 17:50:31  5-MIN KBDL 132250Z 18007KT 10SM BKN090 OVC150 03/M06 A3008 30 52 -1300 200/07 RMK AO2 SLP187 T00331056
14740KBDL BDL20161213175511412/13/16 17:55:31  5-MIN KBDL 132255Z 18008KT 10SM BKN080 OVC090 03/M06 A3007 40 52 -1300 200/08 RMK AO2 T00331056
14740KBDL BDL20161213180011412/13/16 18:00:31  5-MIN KBDL 132300Z 18007KT 10SM BKN080 OVC095 03/M06 A3007 40 52 -1300 190/07 RMK AO2 T00331056
14740KBDL BDL20161213180510712/13/16 18:05:31  5-MIN KBDL 132305Z 18007KT 10SM OVC085 03/M06 A3006 40 54 -1300 190/07 RMK AO2 T00281056
14740KBDL BDL20161213181011412/13/16 18:10:31  5-MIN KBDL 132310Z 17008KT 10SM BKN080 OVC095 03/M06 A3006 50 54 -1300 190/08 RMK AO2 T00281056
14740KBDL BDL20161213181511412/13/16 18:15:31  5-MIN KBDL 132315Z 18008KT 10SM BKN080 OVC095 03/M06 A3006 50 54 -1300 190/08 RMK AO2 T00281056
14740KBDL BDL20161213182011412/13/16 18:20:31  5-MIN KBDL 132320Z 17009KT 10SM SCT080 OVC095 03/M06 A3005 50 54 -1300 190/09 RMK AO2 T00281056
14740KBDL BDL20161213182510712/13/16 18:25:31  5-MIN KBDL 132325Z 17008KT 10SM OVC090 03/M06 A3005 60 54 -1300 180/08 RMK AO2 T00281056
14740KBDL BDL20161213183010712/13/16 18:30:31  5-MIN KBDL 132330Z 17008KT 10SM OVC090 03/M06 A3005 60 54 -1300 180/08 RMK AO2 T00281056
14740KBDL BDL20161213183510712/13/16 18:35:31  5-MIN KBDL 132335Z 17007KT 10SM OVC090 03/M05 A3005 60 56 -1300 190/07 RMK AO2 T00281050
14740KBDL BDL20161213184010712/13/16 18:40:31  5-MIN KBDL 132340Z 17007KT 10SM OVC090 03/M05 A3004 60 56 -1300 190/07 RMK AO2 T00281050
14740KBDL BDL20161213184513212/13/16 18:45:31  5-MIN KBDL 132345Z 16008KT 10SM OVC085 03/M05 A3004 60 56 -1300 180/08 RMK AO2 SLP175 T00281050 10044 20028 53000
14740KBDL BDL20161213185014512/13/16 18:50:31  5-MIN KBDL 132350Z 18007KT 10SM BKN085 OVC130 03/M05 A3005 60 56 -1300 190/07 RMK AO2 SLP176 4/001 T00281050 10044 20028 53000
14740KBDL BDL20161213185510712/13/16 18:55:31  5-MIN KBDL 132355Z 18007KT 10SM OVC085 03/M05 A3005 60 56 -1300 190/07 RMK AO2 T00281050
14740KBDL BDL20161213190010712/13/16 19:00:31  5-MIN KBDL 140000Z 18008KT 10SM OVC085 03/M05 A3005 60 56 -1300 190/08 RMK AO2 T00281050
14740KBDL BDL20161213190510712/13/16 19:05:31  5-MIN KBDL 140005Z 18007KT 10SM OVC085 03/M05 A3005 50 56 -1300 200/07 RMK AO2 T00281050
14740KBDL BDL20161213191010712/13/16 19:10:31  5-MIN KBDL 140010Z 18005KT 10SM OVC085 03/M05 A3005 50 56 -1300 200/05 RMK AO2 T00281050
14740KBDL BDL20161213191511412/13/16 19:15:31  5-MIN KBDL 140015Z 18007KT 10SM BKN085 OVC100 02/M05 A3005 50 59 -1400 190/07 RMK AO2 T00221050
14740KBDL BDL20161213192011412/13/16 19:20:31  5-MIN KBDL 140020Z 18007KT 10SM BKN085 OVC100 02/M05 A3005 60 59 -1400 190/07 RMK AO2 T00221050
14740KBDL BDL20161213192511412/13/16 19:25:31  5-MIN KBDL 140025Z 18008KT 10SM SCT090 OVC100 03/M06 A3005 60 54 -1300 190/08 RMK AO2 T00281056
14740KBDL BDL20161213193011412/13/16 19:30:31  5-MIN KBDL 140030Z 18006KT 10SM BKN100 OVC120 02/M05 A3005 60 59 -1400 190/06 RMK AO2 T00221050
14740KBDL BDL20161213193511412/13/16 19:35:31  5-MIN KBDL 140035Z 18007KT 10SM BKN100 OVC120 02/M05 A3005 60 59 -1400 200/07 RMK AO2 T00221050
14740KBDL BDL20161213194010712/13/16 19:40:31  5-MIN KBDL 140040Z 18007KT 10SM OVC100 02/M05 A3004 60 59 -1400 190/07 RMK AO2 T00221050
14740KBDL BDL20161213194511412/13/16 19:45:31  5-MIN KBDL 140045Z 19005KT 10SM OVC100 02/M05 A3004 60 59 -1400 200/05 RMK AO2 SLP175 T00221050
14740KBDL BDL20161213195012112/13/16 19:50:31  5-MIN KBDL 140050Z 18006KT 10SM BKN100 OVC160 03/M05 A3004 70 56 -1300 200/06 RMK AO2 SLP174 T00281050
14740KBDL BDL20161213195510712/13/16 19:55:31  5-MIN KBDL 140055Z 18006KT 10SM OVC095 02/M05 A3004 70 59 -1400 190/06 RMK AO2 T00221050
14740KBDL BDL20161213200010712/13/16 20:00:31  5-MIN KBDL 140100Z 18007KT 10SM OVC090 02/M05 A3003 70 59 -1400 190/07 RMK AO2 T00221050
14740KBDL BDL20161213200510712/13/16 20:05:31  5-MIN KBDL 140105Z 18007KT 10SM OVC090 02/M05 A3004 70 59 -1400 200/07 RMK AO2 T00221050
14740KBDL BDL20161213201010712/13/16 20:10:31  5-MIN KBDL 140110Z 20006KT 10SM OVC090 03/M05 A3004 70 56 -1300 210/06 RMK AO2 T00281050
14740KBDL BDL20161213201510712/13/16 20:15:31  5-MIN KBDL 140115Z 19007KT 10SM OVC090 03/M05 A3003 70 56 -1300 210/07 RMK AO2 T00281050
14740KBDL BDL20161213202010712/13/16 20:20:31  5-MIN KBDL 140120Z 19006KT 10SM OVC090 02/M05 A3003 70 59 -1400 200/06 RMK AO2 T00221050
14740KBDL BDL20161213202510712/13/16 20:25:31  5-MIN KBDL 140125Z 18007KT 10SM OVC090 02/M05 A3003 70 59 -1400 200/07 RMK AO2 T00221050
14740KBDL BDL20161213203010712/13/16 20:30:31  5-MIN KBDL 140130Z 18007KT 10SM OVC090 02/M05 A3003 70 59 -1400 190/07 RMK AO2 T00221050
14740KBDL BDL20161213203510712/13/16 20:35:31  5-MIN KBDL 140135Z 18007KT 10SM OVC090 02/M05 A3003 70 59 -1400 200/07 RMK AO2 T00221050
14740KBDL BDL20161213204010712/13/16 20:40:31  5-MIN KBDL 140140Z 18006KT 10SM OVC090 02/M05 A3003 80 59 -1400 190/06 RMK AO2 T00221050
14740KBDL BDL20161213204511412/13/16 20:45:31  5-MIN KBDL 140145Z 18008KT 10SM OVC095 02/M05 A3002 80 59 -1400 190/08 RMK AO2 SLP169 T00221050
14740KBDL BDL20161213205012112/13/16 20:50:31  5-MIN KBDL 140150Z 18006KT 10SM BKN095 BKN150 02/M05 A3002 80 59 -1400 190/06 RMK AO2 SLP168 T00221050
14740KBDL BDL20161213205510712/13/16 20:55:31  5-MIN KBDL 140155Z 18006KT 10SM OVC095 02/M05 A3002 80 59 -1400 190/06 RMK AO2 T00221050
14740KBDL BDL20161213210010712/13/16 21:00:31  5-MIN KBDL 140200Z 18007KT 10SM OVC095 02/M05 A3002 80 59 -1400 190/07 RMK AO2 T00221050
14740KBDL BDL20161213210510712/13/16 21:05:31  5-MIN KBDL 140205Z 18007KT 10SM OVC100 02/M05 A3002 80 59 -1400 190/07 RMK AO2 T00221050
14740KBDL BDL20161213211011412/13/16 21:10:31  5-MIN KBDL 140210Z 18007KT 10SM BKN100 OVC120 02/M05 A3002 80 59 -1400 190/07 RMK AO2 T00221050
14740KBDL BDL20161213211511412/13/16 21:15:31  5-MIN KBDL 140215Z 18007KT 10SM BKN100 BKN120 02/M05 A3002 90 59 -1400 200/07 RMK AO2 T00221050
14740KBDL BDL20161213212011412/13/16 21:20:31  5-MIN KBDL 140220Z 18007KT 10SM SCT100 BKN120 02/M05 A3002 90 59 -1400 190/07 RMK AO2 T00221050
14740KBDL BDL20161213212510712/13/16 21:25:31  5-MIN KBDL 140225Z 19006KT 10SM BKN110 02/M05 A3001 90 59 -1400 200/06 RMK AO2 T00221050
14740KBDL BDL20161213213010712/13/16 21:30:31  5-MIN KBDL 140230Z 20007KT 10SM BKN110 02/M04 A3002 90 61 -1400 210/07 RMK AO2 T00221044
14740KBDL BDL20161213213510712/13/16 21:35:31  5-MIN KBDL 140235Z 19008KT 10SM BKN110 02/M05 A3002 90 59 -1400 200/08 RMK AO2 T00221050
14740KBDL BDL20161213214011412/13/16 21:40:31  5-MIN KBDL 140240Z 19007KT 10SM BKN100 BKN120 02/M04 A3001 90 61 -1400 200/07 RMK AO2 T00221044
14740KBDL BDL20161213214512012/13/16 21:45:31  5-MIN KBDL 140245Z 20008KT 10SM BKN100 02/M05 A3002 90 59 -1400 210/08 RMK AO2 SLP166 T00221050 58020
14740KBDL BDL20161213215012712/13/16 21:50:31  5-MIN KBDL 140250Z 19007KT 10SM BKN100 BKN140 02/M05 A3002 90 59 -1400 210/07 RMK AO2 SLP166 T00221050 58020
14740KBDL BDL20161213215510712/13/16 21:55:31  5-MIN KBDL 140255Z 19007KT 10SM OVC100 02/M04 A3002 80 61 -1400 210/07 RMK AO2 T00221044
14740KBDL BDL20161213220010712/13/16 22:00:31  5-MIN KBDL 140300Z 20006KT 10SM OVC100 02/M04 A3002 90 61 -1400 210/06 RMK AO2 T00221044
14740KBDL BDL20161213220510712/13/16 22:05:31  5-MIN KBDL 140305Z 19005KT 10SM OVC100 02/M04 A3002 80 61 -1400 210/05 RMK AO2 T00221044
14740KBDL BDL20161213221010712/13/16 22:10:31  5-MIN KBDL 140310Z 19006KT 10SM OVC100 02/M04 A3002 90 61 -1400 210/06 RMK AO2 T00221044
14740KBDL BDL20161213221510712/13/16 22:15:31  5-MIN KBDL 140315Z 20005KT 10SM OVC100 02/M04 A3002 90 61 -1400 210/05 RMK AO2 T00221044
14740KBDL BDL20161213222010712/13/16 22:20:31  5-MIN KBDL 140320Z 21006KT 10SM OVC100 02/M04 A3002 90 61 -1400 220/06 RMK AO2 T00221044
14740KBDL BDL20161213222510712/13/16 22:25:31  5-MIN KBDL 140325Z 20005KT 10SM OVC100 02/M04 A3001 90 61 -1400 210/05 RMK AO2 T00221044
14740KBDL BDL20161213223010712/13/16 22:30:31  5-MIN KBDL 140330Z 19004KT 10SM OVC100 02/M04 A3002 90 61 -1400 200/04 RMK AO2 T00221044
14740KBDL BDL20161213223510712/13/16 22:35:31  5-MIN KBDL 140335Z 22007KT 10SM OVC100 02/M04 A3002 90 61 -1400 230/07 RMK AO2 T00221044
14740KBDL BDL20161213224010712/13/16 22:40:31  5-MIN KBDL 140340Z 21006KT 10SM OVC100 02/M04 A3001 90 61 -1400 220/06 RMK AO2 T00221044
14740KBDL BDL20161213224511412/13/16 22:45:31  5-MIN KBDL 140345Z 19005KT 10SM OVC095 03/M04 A3002 90 59 -1300 210/05 RMK AO2 SLP165 T00281044
14740KBDL BDL20161213225012112/13/16 22:50:31  5-MIN KBDL 140350Z 19003KT 10SM BKN095 OVC110 02/M04 A3001 90 61 -1400 200/03 RMK AO2 SLP164 T00221044
14740KBDL BDL20161213225510712/13/16 22:55:31  5-MIN KBDL 140355Z 21004KT 10SM OVC090 02/M04 A3002 90 61 -1400 220/04 RMK AO2 T00221044
14740KBDL BDL20161213230010712/13/16 23:00:31  5-MIN KBDL 140400Z 21006KT 10SM OVC085 03/M04 A3001 90 59 -1300 220/06 RMK AO2 T00281044
14740KBDL BDL20161213230511412/13/16 23:05:31  5-MIN KBDL 140405Z 18004KT 10SM FEW070 OVC085 03/M04 A3001 90 59 -1300 190/04 RMK AO2 T00281044
14740KBDL BDL20161213231011412/13/16 23:10:31  5-MIN KBDL 140410Z 18004KT 10SM SCT070 OVC085 02/M04 A3001 90 61 -1400 200/04 RMK AO2 T00221044
14740KBDL BDL20161213231511412/13/16 23:15:31  5-MIN KBDL 140415Z 17004KT 10SM BKN070 OVC085 02/M04 A3001 90 66 -1400 190/04 RMK AO2 T00171039
14740KBDL BDL20161213232011512/13/16 23:20:31  5-MIN KBDL 140420Z 16004KT 10SM BKN065 OVC080 02/M04 A3001 100 66 -1400 180/04 RMK AO2 T00171039
14740KBDL BDL20161213232511512/13/16 23:25:31  5-MIN KBDL 140425Z 17004KT 10SM BKN065 OVC080 02/M04 A3000 100 66 -1400 180/04 RMK AO2 T00171039
14740KBDL BDL20161213233011512/13/16 23:30:31  5-MIN KBDL 140430Z 18004KT 10SM BKN065 OVC080 02/M04 A3000 100 66 -1400 190/04 RMK AO2 T00171039
14740KBDL BDL20161213233511512/13/16 23:35:31  5-MIN KBDL 140435Z 18006KT 10SM BKN060 OVC080 02/M04 A3001 100 66 -1400 190/06 RMK AO2 T00171039
14740KBDL BDL20161213234011512/13/16 23:40:31  5-MIN KBDL 140440Z 18007KT 10SM BKN060 OVC080 02/M04 A3001 100 66 -1400 190/07 RMK AO2 T00171039
14740KBDL BDL20161213234513212/13/16 23:45:31  5-MIN KBDL 140445Z 17007KT 10SM BKN060 OVC075 02/M04 A3000 100 66 -1400 190/07 RMK AO2 SLP162 T00171039 400441028
14740KBDL BDL20161213235013212/13/16 23:50:31  5-MIN KBDL 140450Z 18006KT 10SM BKN060 OVC080 02/M04 A3000 100 66 -1400 190/06 RMK AO2 SLP162 T00171039 400441028
14740KBDL BDL20161213235510812/13/16 23:55:31  5-MIN KBDL 140455Z 19004KT 10SM OVC060 02/M04 A3000 100 64 -1300 200/04 RMK AO2 T00221039
14740KBDL BDL20161214000010812/14/16 00:00:31  5-MIN KBDL 140500Z 19006KT 10SM OVC055 02/M04 A3000 100 64 -1300 210/06 RMK AO2 T00221039
14740KBDL BDL20161214000511512/14/16 00:05:31  5-MIN KBDL 140505Z 19005KT 10SM BKN049 OVC060 02/M04 A3000 100 64 -1300 200/05 RMK AO2 T00221039
14740KBDL BDL20161214001011512/14/16 00:10:31  5-MIN KBDL 140510Z 19006KT 10SM BKN049 OVC060 02/M04 A3000 100 64 -1300 210/06 RMK AO2 T00221039
14740KBDL BDL20161214001510812/14/16 00:15:31  5-MIN KBDL 140515Z 20004KT 10SM OVC049 02/M04 A3000 100 64 -1300 220/04 RMK AO2 T00221039
14740KBDL BDL20161214002010812/14/16 00:20:31  5-MIN KBDL 140520Z 22003KT 10SM OVC045 02/M04 A3000 110 64 -1300 240/03 RMK AO2 T00221039
14740KBDL BDL20161214002510812/14/16 00:25:31  5-MIN KBDL 140525Z 24004KT 10SM OVC045 02/M04 A2999 110 64 -1300 250/04 RMK AO2 T00221039
14740KBDL BDL20161214003010812/14/16 00:30:31  5-MIN KBDL 140530Z 24003KT 10SM OVC047 02/M04 A2999 110 64 -1300 250/03 RMK AO2 T00221039
14740KBDL BDL20161214003510812/14/16 00:35:31  5-MIN KBDL 140535Z 22003KT 10SM OVC047 02/M04 A2999 110 64 -1300 240/03 RMK AO2 T00221039
14740KBDL BDL20161214004010812/14/16 00:40:31  5-MIN KBDL 140540Z 25003KT 10SM OVC047 02/M04 A2999 110 64 -1300 260/03 RMK AO2 T00221039
14740KBDL BDL20161214004513312/14/16 00:45:31  5-MIN KBDL 140545Z 25003KT 10SM OVC045 02/M04 A2999 120 64 -1300 260/03 RMK AO2 SLP155 T00221039 10028 20017 57010
14740KBDL BDL20161214005016112/14/16 00:50:31  5-MIN KBDL 140550Z 25003KT 9SM -SN BKN041 OVC049 02/M04 A2998 120 64 -1300 270/03 RMK AO2 SNB49 SLP155 P0000 60000 T00221039 10028 20017 57010
14740KBDL BDL20161214005512412/14/16 00:55:31  5-MIN KBDL 140555Z 26005KT 7SM -SN BKN039 OVC049 02/M03 A2999 120 67 -1300 270/05 RMK AO2 P0000 T00221033
14740KBDL BDL20161214010012412/14/16 01:00:31  5-MIN KBDL 140600Z 23004KT 6SM -SN BKN041 OVC050 02/M03 A2998 120 67 -1300 250/04 RMK AO2 P0000 T00221033
14740KBDL BDL20161214010511712/14/16 01:05:31  5-MIN KBDL 140605Z 23006KT 8SM -SN OVC043 02/M04 A2998 120 64 -1300 240/06 RMK AO2 P0000 T00221039
14740KBDL BDL20161214011011912/14/16 01:10:31  5-MIN KBDL 140610Z 22005KT 9SM OVC045 02/M04 A2998 120 64 -1300 240/05 RMK AO2 SNE06 P0000 T00221039
14740KBDL BDL20161214011512012/14/16 01:15:31  5-MIN KBDL 140615Z 23005KT 10SM OVC045 02/M04 A2998 120 64 -1300 250/05 RMK AO2 SNE06 P0000 T00221039
14740KBDL BDL20161214012011712/14/16 01:20:31  5-MIN KBDL 140620Z 22005KT 9SM -SN OVC045 02/M04 A2998 120 64 -1300 230/05 RMK AO2 P0000 T00221039
14740KBDL BDL20161214012511712/14/16 01:25:31  5-MIN KBDL 140625Z 23004KT 8SM -SN OVC045 02/M04 A2998 130 64 -1300 240/04 RMK AO2 P0000 T00221039
14740KBDL BDL20161214013011712/14/16 01:30:31  5-MIN KBDL 140630Z 23004KT 7SM -SN OVC047 02/M04 A2997 130 64 -1300 240/04 RMK AO2 P0000 T00221039
14740KBDL BDL20161214013512412/14/16 01:35:31  5-MIN KBDL 140635Z 21005KT 7SM -SN BKN047 OVC055 02/M03 A2998 120 67 -1300 220/05 RMK AO2 P0000 T00221033
14740KBDL BDL20161214014012612/14/16 01:40:31  5-MIN KBDL 140640Z 22006KT 9SM BKN047 OVC055 02/M03 A2998 120 69 -1400 230/06 RMK AO2 SNE39 P0000 T00171033
14740KBDL BDL20161214014512712/14/16 01:45:31  5-MIN KBDL 140645Z 21005KT 10SM OVC055 02/M03 A2997 130 69 -1400 220/05 RMK AO2 SNE39 SLP151 P0000 T00171033
14740KBDL BDL20161214015013412/14/16 01:50:31  5-MIN KBDL 140650Z 20005KT 10SM BKN055 OVC110 02/M03 A2997 130 69 -1400 220/05 RMK AO2 SNE39 SLP151 P0000 T00171033
14740KBDL BDL20161214015510812/14/16 01:55:31  5-MIN KBDL 140655Z 20007KT 10SM OVC060 02/M03 A2997 130 69 -1400 220/07 RMK AO2 T00171033
14740KBDL BDL20161214020010812/14/16 02:00:31  5-MIN KBDL 140700Z 19007KT 10SM OVC060 02/M03 A2997 130 69 -1300 210/07 RMK AO2 T00221028
14740KBDL BDL20161214020510812/14/16 02:05:31  5-MIN KBDL 140705Z 19007KT 10SM OVC060 02/M03 A2997 130 72 -1400 210/07 RMK AO2 T00171028
14740KBDL BDL20161214021010812/14/16 02:10:31  5-MIN KBDL 140710Z 20006KT 10SM OVC060 02/M03 A2997 130 72 -1400 210/06 RMK AO2 T00171028
14740KBDL BDL20161214021510812/14/16 02:15:31  5-MIN KBDL 140715Z 19006KT 10SM BKN060 02/M03 A2997 130 72 -1400 210/06 RMK AO2 T00171028
14740KBDL BDL20161214022010812/14/16 02:20:31  5-MIN KBDL 140720Z 19008KT 10SM SCT055 02/M03 A2996 140 72 -1400 200/08 RMK AO2 T00171028
14740KBDL BDL20161214022510812/14/16 02:25:31  5-MIN KBDL 140725Z 19008KT 10SM SCT055 02/M03 A2996 140 72 -1400 200/08 RMK AO2 T00171028
14740KBDL BDL20161214023010812/14/16 02:30:31  5-MIN KBDL 140730Z 19008KT 10SM SCT060 02/M03 A2996 140 72 -1400 210/08 RMK AO2 T00171028
14740KBDL BDL20161214023510812/14/16 02:35:31  5-MIN KBDL 140735Z 20007KT 10SM BKN065 02/M03 A2996 140 72 -1400 220/07 RMK AO2 T00171028
14740KBDL BDL20161214024010812/14/16 02:40:31  5-MIN KBDL 140740Z 20006KT 10SM BKN065 02/M03 A2996 140 72 -1400 210/06 RMK AO2 T00171028
14740KBDL BDL20161214024511512/14/16 02:45:31  5-MIN KBDL 140745Z 20007KT 10SM BKN065 02/M03 A2995 140 69 -1300 220/07 RMK AO2 SLP145 T00221028
14740KBDL BDL20161214025012912/14/16 02:50:31  5-MIN KBDL 140750Z 19006KT 10SM BKN065 BKN120 OVC150 02/M03 A2995 150 72 -1400 200/06 RMK AO2 SLP144 T00171028
14740KBDL BDL20161214025510812/14/16 02:55:31  5-MIN KBDL 140755Z 18006KT 10SM OVC065 02/M03 A2995 150 72 -1300 190/06 RMK AO2 T00171028
14740KBDL BDL20161214030010812/14/16 03:00:31  5-MIN KBDL 140800Z 18006KT 10SM BKN065 01/M03 A2995 150 75 -1400 190/06 RMK AO2 T00111028
14740KBDL BDL20161214030510812/14/16 03:05:31  5-MIN KBDL 140805Z 17006KT 10SM BKN065 01/M03 A2995 150 75 -1400 180/06 RMK AO2 T00111028
14740KBDL BDL20161214031010812/14/16 03:10:31  5-MIN KBDL 140810Z 17006KT 10SM SCT065 01/M03 A2995 150 75 -1400 180/06 RMK AO2 T00111028
14740KBDL BDL20161214031510812/14/16 03:15:31  5-MIN KBDL 140815Z 17007KT 10SM BKN065 01/M03 A2994 160 75 -1400 190/07 RMK AO2 T00111028
14740KBDL BDL20161214032010812/14/16 03:20:31  5-MIN KBDL 140820Z 18007KT 10SM SCT060 01/M03 A2994 160 75 -1400 190/07 RMK AO2 T00111028
14740KBDL BDL20161214032510812/14/16 03:25:31  5-MIN KBDL 140825Z 18007KT 10SM FEW060 02/M03 A2994 160 72 -1300 200/07 RMK AO2 T00171028
14740KBDL BDL20161214033010812/14/16 03:30:31  5-MIN KBDL 140830Z 19005KT 10SM FEW060 01/M03 A2994 150 75 -1400 210/05 RMK AO2 T00111028
14740KBDL BDL20161214033510812/14/16 03:35:31  5-MIN KBDL 140835Z 20005KT 10SM SCT065 02/M03 A2995 150 72 -1300 210/05 RMK AO2 T00171028
14740KBDL BDL20161214034010812/14/16 03:40:31  5-MIN KBDL 140840Z 21004KT 10SM SCT065 02/M03 A2994 150 72 -1300 220/04 RMK AO2 T00171028
14740KBDL BDL20161214034512712/14/16 03:45:31  5-MIN KBDL 140845Z 20004KT 10SM FEW065 02/M03 A2994 160 72 -1300 210/04 RMK AO2 SLP141 60000 T00171028 58011
14740KBDL BDL20161214035013412/14/16 03:50:31  5-MIN KBDL 140850Z 21005KT 10SM SCT065 BKN140 01/M03 A2995 150 75 -1400 220/05 RMK AO2 SLP142 60000 T00111028 58011
14740KBDL BDL20161214035510812/14/16 03:55:31  5-MIN KBDL 140855Z 22006KT 10SM SCT070 01/M03 A2995 150 75 -1400 230/06 RMK AO2 T00111028
14740KBDL BDL20161214040010812/14/16 04:00:31  5-MIN KBDL 140900Z 22004KT 10SM BKN070 02/M03 A2994 150 72 -1300 230/04 RMK AO2 T00171028
14740KBDL BDL20161214040510812/14/16 04:05:31  5-MIN KBDL 140905Z 22003KT 10SM BKN070 01/M03 A2994 160 75 -1400 230/03 RMK AO2 T00111028
14740KBDL BDL20161214041010812/14/16 04:10:31  5-MIN KBDL 140910Z 00000KT 10SM BKN070 01/M03 A2994 160 75 -1400 000/00 RMK AO2 T00111028
14740KBDL BDL20161214041510812/14/16 04:15:31  5-MIN KBDL 140915Z 00000KT 10SM BKN070 01/M03 A2994 160 78 -1500 000/00 RMK AO2 T00061028
14740KBDL BDL20161214042010812/14/16 04:20:31  5-MIN KBDL 140920Z 30003KT 10SM BKN070 00/M03 A2994 160 78 -1600 320/03 RMK AO2 T00001033
14740KBDL BDL20161214042510812/14/16 04:25:31  5-MIN KBDL 140925Z 00000KT 9SM SCT070 M01/M03 A2994 160 81 -1600 000/00 RMK AO2 T10061033
14740KBDL BDL20161214043010812/14/16 04:30:31  5-MIN KBDL 140930Z 00000KT 9SM FEW070 M01/M03 A2994 160 81 -1600 000/00 RMK AO2 T10061033
14740KBDL BDL20161214043511412/14/16 04:35:31  5-MIN KBDL 140935Z 00000KT 9SM FEW023 FEW070 00/M03 A2994 160 78 -1500 000/00 RMK AO2 T00001033
14740KBDL BDL20161214044010812/14/16 04:40:31  5-MIN KBDL 140940Z 00000KT 10SM FEW023 00/M03 A2994 160 81 -1500 000/00 RMK AO2 T00001028
14740KBDL BDL20161214044511612/14/16 04:45:31  5-MIN KBDL 140945Z 00000KT 10SM FEW023 M01/M03 A2994 160 81 -1600 000/00 RMK AO2 SLP140 T10061033
14740KBDL BDL20161214045013012/14/16 04:50:31  5-MIN KBDL 140950Z 35003KT 10SM SCT021 BKN070 BKN140 M01/M03 A2994 160 85 -1700 010/03 RMK AO2 SLP139 T10111033
14740KBDL BDL20161214045510812/14/16 04:55:31  5-MIN KBDL 140955Z 34004KT 9SM SCT021 M02/M04 A2994 160 85 -1800 350/04 RMK AO2 T10171039
14740KBDL BDL20161214050010812/14/16 05:00:31  5-MIN KBDL 141000Z 34005KT 8SM SCT021 M02/M04 A2994 160 88 -1800 350/05 RMK AO2 T10221039
14740KBDL BDL20161214050512312/14/16 05:05:31  5-MIN KBDL 141005Z 32004KT 10SM BKN020 BKN070 BKN130 M02/M04 A2994 160 88 -1800 340/04 RMK AO2 T10221039
14740KBDL BDL20161214051012312/14/16 05:10:31  5-MIN KBDL 141010Z 31004KT 10SM BKN020 BKN070 BKN130 M02/M04 A2994 160 88 -1800 330/04 RMK AO2 T10221039
14740KBDL BDL20161214051510912/14/16 05:15:31  5-MIN KBDL 141015Z 30005KT 10SM SCT020 M02/M04 A2994 160 88 -1800 310/05 RMK AO2 T10221039
14740KBDL BDL20161214052010912/14/16 05:20:31  5-MIN KBDL 141020Z 29005KT 10SM FEW020 M02/M04 A2994 160 88 -1800 300/05 RMK AO2 T10221039
14740KBDL BDL20161214052511612/14/16 05:25:31  5-MIN KBDL 141025Z 29006KT 10SM FEW020 FEW044 M02/M04 A2994 160 88 -1800 300/06 RMK AO2 T10221039
14740KBDL BDL20161214053010912/14/16 05:30:31  5-MIN KBDL 141030Z 29005KT 10SM FEW044 M02/M03 A2994 160 88 -1800 300/05 RMK AO2 T10171033
14740KBDL BDL20161214053510912/14/16 05:35:31  5-MIN KBDL 141035Z 29004KT 10SM FEW042 M02/M03 A2994 160 88 -1800 300/04 RMK AO2 T10171033
14740KBDL BDL20161214054010912/14/16 05:40:31  5-MIN KBDL 141040Z 27003KT 10SM SCT042 M02/M04 A2994 160 88 -1800 280/03 RMK AO2 T10221039
14740KBDL BDL20161214054511612/14/16 05:45:31  5-MIN KBDL 141045Z 29005KT 10SM FEW042 M02/M04 A2994 150 85 -1800 300/05 RMK AO2 SLP141 T10171039
14740KBDL BDL20161214055013012/14/16 05:50:31  5-MIN KBDL 141050Z 29003KT 10SM FEW020 FEW042 SCT140 M02/M04 A2994 150 88 -1800 300/03 RMK AO2 SLP141 T10221039
14740KBDL BDL20161214055510812/14/16 05:55:31  5-MIN KBDL 141055Z 30003KT 8SM FEW042 M02/M04 A2994 150 88 -1800 310/03 RMK AO2 T10221039
14740KBDL BDL20161214060010812/14/16 06:00:31  5-MIN KBDL 141100Z 30005KT 8SM FEW042 M03/M04 A2995 150 88 -1900 310/05 RMK AO2 T10281044
14740KBDL BDL20161214060510512/14/16 06:05:31  5-MIN KBDL 141105Z 30006KT 8SM CLR M02/M04 A2994 150 85 -1800 310/06 RMK AO2 T10221044
14740KBDL BDL20161214061010512/14/16 06:10:31  5-MIN KBDL 141110Z 29006KT 9SM CLR M02/M04 A2994 160 88 -1800 310/06 RMK AO2 T10221039
14740KBDL BDL20161214061510512/14/16 06:15:31  5-MIN KBDL 141115Z 30007KT 8SM CLR M03/M04 A2994 150 88 -1900 310/07 RMK AO2 T10281044
14740KBDL BDL20161214062010512/14/16 06:20:31  5-MIN KBDL 141120Z 31007KT 8SM CLR M03/M05 A2994 150 85 -1900 320/07 RMK AO2 T10281050
14740KBDL BDL20161214062510512/14/16 06:25:31  5-MIN KBDL 141125Z 31008KT 9SM CLR M02/M04 A2994 150 88 -1800 320/08 RMK AO2 T10221039
14740KBDL BDL20161214063010512/14/16 06:30:31  5-MIN KBDL 141130Z 32010KT 9SM CLR M02/M04 A2995 150 85 -1800 340/10 RMK AO2 T10171039
14740KBDL BDL20161214063510512/14/16 06:35:31  5-MIN KBDL 141135Z 32007KT 10SM CLR 01/M03 A2995 150 75 -1500 340/07 RMK AO2 T00061033
14740KBDL BDL20161214064010512/14/16 06:40:31  5-MIN KBDL 141140Z 32005KT 10SM CLR 01/M03 A2994 160 75 -1500 330/05 RMK AO2 T00061033
14740KBDL BDL20161214064513712/14/16 06:45:31  5-MIN KBDL 141145Z 29005KT 10SM CLR M01/M04 A2995 150 78 -1600 310/05 RMK AO2 SLP142 60000 T10061039 10022 21033 56013
14740KBDL BDL20161214065015912/14/16 06:50:31  5-MIN KBDL 141150Z 30005KT 10SM FEW035 FEW140 FEW250 00/M04 A2995 150 75 -1600 310/05 RMK AO2 SLP142 4/001 60000 T00001039 10022 21033 56013
14740KBDL BDL20161214065510512/14/16 06:55:31  5-MIN KBDL 141155Z 31005KT 10SM CLR 00/M03 A2995 150 78 -1600 320/05 RMK AO2 T00001033
14740KBDL BDL20161214070010512/14/16 07:00:31  5-MIN KBDL 141200Z 30005KT 10SM CLR 00/M03 A2995 150 78 -1600 320/05 RMK AO2 T00001033
14740KBDL BDL20161214070510612/14/16 07:05:31  5-MIN KBDL 141205Z 27005KT 10SM CLR M01/M04 A2995 150 78 -1600 290/05 RMK AO2 T10061039
14740KBDL BDL20161214071010612/14/16 07:10:31  5-MIN KBDL 141210Z 28005KT 10SM CLR M02/M04 A2995 150 81 -1800 300/05 RMK AO2 T10171044
14740KBDL BDL20161214071510612/14/16 07:15:31  5-MIN KBDL 141215Z 28005KT 10SM CLR M01/M04 A2995 140 81 -1700 290/05 RMK AO2 T10111039
14740KBDL BDL20161214072010612/14/16 07:20:31  5-MIN KBDL 141220Z 27005KT 10SM CLR M01/M04 A2995 150 81 -1700 280/05 RMK AO2 T10111039
14740KBDL BDL20161214072510612/14/16 07:25:31  5-MIN KBDL 141225Z 27005KT 10SM CLR M01/M04 A2995 150 81 -1700 280/05 RMK AO2 T10111039
14740KBDL BDL20161214073010612/14/16 07:30:31  5-MIN KBDL 141230Z 27005KT 10SM CLR M01/M04 A2995 150 81 -1700 280/05 RMK AO2 T10111039
14740KBDL BDL20161214073510612/14/16 07:35:31  5-MIN KBDL 141235Z 26004KT 10SM CLR M01/M04 A2995 150 81 -1700 280/04 RMK AO2 T10111039
14740KBDL BDL20161214074010612/14/16 07:40:31  5-MIN KBDL 141240Z 26004KT 10SM CLR M01/M03 A2995 150 81 -1600 270/04 RMK AO2 T10061033
14740KBDL BDL20161214074511212/14/16 07:45:31  5-MIN KBDL 141245Z 25003KT 10SM CLR 00/M03 A2995 140 78 -1600 260/03 RMK AO2 SLP145 T00001033
14740KBDL BDL20161214075012212/14/16 07:50:31  5-MIN KBDL 141250Z 24004KT 10SM FEW140 FEW250 00/M03 A2996 140 78 -1600 260/04 RMK AO2 SLP146 T00001033
14740KBDL BDL20161214075510512/14/16 07:55:31  5-MIN KBDL 141255Z 24004KT 9SM CLR M01/M03 A2996 140 81 -1600 250/04 RMK AO2 T10061033
14740KBDL BDL20161214080010412/14/16 08:00:31  5-MIN KBDL 141300Z 25004KT 9SM CLR 00/M03 A2996 140 78 -1600 270/04 RMK AO2 T00001033
14740KBDL BDL20161214080510512/14/16 08:05:31  5-MIN KBDL 141305Z 26004KT 10SM CLR 01/M03 A2996 140 72 -1400 270/04 RMK AO2 T00111033
14740KBDL BDL20161214081010512/14/16 08:10:31  5-MIN KBDL 141310Z 00000KT 10SM CLR 02/M03 A2996 140 69 -1400 000/00 RMK AO2 T00171033
14740KBDL BDL20161214081510512/14/16 08:15:31  5-MIN KBDL 141315Z 25003KT 10SM CLR 02/M03 A2996 140 69 -1400 260/03 RMK AO2 T00171033
14740KBDL BDL20161214082010512/14/16 08:20:31  5-MIN KBDL 141320Z 00000KT 10SM CLR 02/M03 A2996 140 72 -1400 000/00 RMK AO2 T00171028
14740KBDL BDL20161214082510512/14/16 08:25:31  5-MIN KBDL 141325Z 27003KT 10SM CLR 02/M03 A2997 130 69 -1400 280/03 RMK AO2 T00171033
14740KBDL BDL20161214083010512/14/16 08:30:31  5-MIN KBDL 141330Z 00000KT 10SM CLR 02/M03 A2997 130 67 -1300 000/00 RMK AO2 T00221033
14740KBDL BDL20161214083510512/14/16 08:35:31  5-MIN KBDL 141335Z 00000KT 10SM CLR 02/M03 A2997 130 67 -1300 000/00 RMK AO2 T00221033
14740KBDL BDL20161214084010512/14/16 08:40:31  5-MIN KBDL 141340Z 00000KT 10SM CLR 03/M03 A2996 140 67 -1200 000/00 RMK AO2 T00281028
14740KBDL BDL20161214084511212/14/16 08:45:31  5-MIN KBDL 141345Z 00000KT 10SM CLR 02/M03 A2997 130 67 -1300 000/00 RMK AO2 SLP149 T00221033
14740KBDL BDL20161214085012212/14/16 08:50:31  5-MIN KBDL 141350Z 00000KT 10SM FEW035 FEW250 02/M03 A2997 130 67 -1300 000/00 RMK AO2 SLP149 T00221033
14740KBDL BDL20161214085510512/14/16 08:55:31  5-MIN KBDL 141355Z 00000KT 10SM CLR 02/M03 A2997 130 67 -1300 000/00 RMK AO2 T00221033
14740KBDL BDL20161214090010512/14/16 09:00:31  5-MIN KBDL 141400Z 00000KT 10SM CLR 02/M03 A2997 130 67 -1300 000/00 RMK AO2 T00221033
14740KBDL BDL20161214090510512/14/16 09:05:31  5-MIN KBDL 141405Z 00000KT 10SM CLR 03/M04 A2997 130 61 -1200 000/00 RMK AO2 T00281039
14740KBDL BDL20161214091010512/14/16 09:10:31  5-MIN KBDL 141410Z 25004KT 10SM CLR 03/M04 A2997 130 59 -1200 260/04 RMK AO2 T00281044
14740KBDL BDL20161214091510512/14/16 09:15:31  5-MIN KBDL 141415Z VRB03KT 10SM CLR 03/M04 A2997 130 57 -1200 VRB/03 RMK AO2 T00331044
14740KBDL BDL20161214092010512/14/16 09:20:31  5-MIN KBDL 141420Z 31007KT 10SM CLR 03/M05 A2997 130 54 -1200 320/07 RMK AO2 T00331050
14740KBDL BDL20161214092510512/14/16 09:25:31  5-MIN KBDL 141425Z 31006KT 10SM CLR 03/M05 A2997 130 54 -1200 320/06 RMK AO2 T00331050
14740KBDL BDL20161214093010512/14/16 09:30:31  5-MIN KBDL 141430Z 30008KT 10SM CLR 03/M05 A2997 130 54 -1200 320/08 RMK AO2 T00331050
14740KBDL BDL20161214093510512/14/16 09:35:31  5-MIN KBDL 141435Z 31007KT 10SM CLR 03/M05 A2997 130 54 -1200 320/07 RMK AO2 T00331050
14740KBDL BDL20161214094010512/14/16 09:40:31  5-MIN KBDL 141440Z 30007KT 10SM CLR 04/M05 A2997 130 52 -1100 310/07 RMK AO2 T00391050
14740KBDL BDL20161214094511812/14/16 09:45:31  5-MIN KBDL 141445Z 29006KT 10SM CLR 03/M05 A2997 130 54 -1200 310/06 RMK AO2 SLP152 T00331050 53001
14740KBDL BDL20161214095012112/14/16 09:50:31  5-MIN KBDL 141450Z 29007KT 10SM FEW040 04/M05 A2997 130 52 -1100 300/07 RMK AO2 SLP151 T00391050 53001
14740KBDL BDL20161214095510512/14/16 09:55:31  5-MIN KBDL 141455Z 32012KT 10SM CLR 04/M06 A2997 130 50 -1100 330/12 RMK AO2 T00391056
14740KBDL BDL20161214100010512/14/16 10:00:31  5-MIN KBDL 141500Z 28012KT 10SM CLR 04/M06 A2997 130 50 -1100 290/12 RMK AO2 T00391056
14740KBDL BDL20161214100510512/14/16 10:05:31  5-MIN KBDL 141505Z 30009KT 10SM CLR 04/M06 A2997 130 50 -1100 320/09 RMK AO2 T00391056
14740KBDL BDL20161214101010812/14/16 10:10:31  5-MIN KBDL 141510Z 30011KT 10SM FEW041 04/M05 A2997 130 52 -1100 320/11 RMK AO2 T00391050
14740KBDL BDL20161214101510512/14/16 10:15:31  5-MIN KBDL 141515Z 30009KT 10SM CLR 04/M06 A2997 130 50 -1100 310/09 RMK AO2 T00391056
14740KBDL BDL20161214102010812/14/16 10:20:31  5-MIN KBDL 141520Z 32013KT 10SM FEW041 04/M06 A2996 140 50 -1100 340/13 RMK AO2 T00391056
14740KBDL BDL20161214102510812/14/16 10:25:31  5-MIN KBDL 141525Z 33010KT 10SM FEW041 04/M06 A2996 140 50 -1100 350/10 RMK AO2 T00391056
14740KBDL BDL20161214103010812/14/16 10:30:31  5-MIN KBDL 141530Z 32012KT 10SM SCT040 04/M06 A2996 140 48 -1000 340/12 RMK AO2 T00441056
14740KBDL BDL20161214103510812/14/16 10:35:31  5-MIN KBDL 141535Z 33012KT 10SM FEW040 04/M06 A2995 140 50 -1100 350/12 RMK AO2 T00391056
14740KBDL BDL20161214104012412/14/16 10:40:31  5-MIN KBDL 141540Z 32009KT 290V360 10SM FEW040 04/M06 A2995 150 50 -1100 330/09 300V010 RMK AO2 T00391056
14740KBDL BDL20161214104511512/14/16 10:45:31  5-MIN KBDL 141545Z 32009KT 10SM FEW040 04/M05 A2995 150 52 -1100 340/09 RMK AO2 SLP145 T00391050
14740KBDL BDL20161214105011512/14/16 10:50:31  5-MIN KBDL 141550Z 31009KT 10SM BKN040 04/M06 A2995 150 50 -1100 320/09 RMK AO2 SLP143 T00391056
