03949KAQV AQV20160101000013901/01/16 00:00:31  5-MIN KAQV 010600Z AUTO 01007KT 10SM -RA FEW065 SCT090 BKN120 07/03 A3033 0 76 -800 360/07 RMK AO2 RAB00 P0000 T00720033
03949KAQV AQV20160101000514501/01/16 00:05:31  5-MIN KAQV 010605Z AUTO 01006G14KT 10SM -RA FEW065 FEW090 BKN120 07/03 A3034 0 73 -900 010/06G14 RMK AO2 RAB00 P0000 T00720028
03949KAQV AQV20160101001014501/01/16 00:10:31  5-MIN KAQV 010610Z AUTO 02009G14KT 10SM -RA FEW060 FEW090 BKN120 07/03 A3032 0 73 -800 020/09G14 RMK AO2 RAB00 P0000 T00720028
03949KAQV AQV20160101001513901/01/16 00:15:31  5-MIN KAQV 010615Z AUTO 01006KT 10SM -RA FEW060 FEW090 BKN120 07/03 A3034 0 73 -900 010/06 RMK AO2 RAB00 P0000 T00720028
03949KAQV AQV20160101002013901/01/16 00:20:31  5-MIN KAQV 010620Z AUTO 01004KT 10SM -RA FEW065 FEW090 BKN110 07/03 A3033 0 73 -800 360/04 RMK AO2 RAB00 P0000 T00720028
03949KAQV AQV20160101002512501/01/16 00:25:31  5-MIN KAQV 010625Z AUTO 02006KT 10SM BKN110 07/03 A3032 10 76 -800 020/06 RMK AO2 RAB00E22 P0000 T00720033
03949KAQV AQV20160101003012501/01/16 00:30:31  5-MIN KAQV 010630Z AUTO 36006KT 10SM BKN110 07/03 A3032 10 76 -900 360/06 RMK AO2 RAB00E22 P0000 T00670028
03949KAQV AQV20160101003512401/01/16 00:35:31  5-MIN KAQV 010635Z AUTO 35006KT 10SM BKN110 07/03 A3033 0 76 -900 350/06 RMK AO2 RAB00E22 P0000 T00670028
03949KAQV AQV20160101004012401/01/16 00:40:31  5-MIN KAQV 010640Z AUTO VRB05KT 10SM BKN110 07/03 A3033 0 76 -900 VRB/05 RMK AO2 RAB00E22 P0000 T00670028
03949KAQV AQV20160101004514001/01/16 00:45:31  5-MIN KAQV 010645Z AUTO 01007KT 330V050 10SM BKN110 07/03 A3033 0 76 -900 360/07 330V050 RMK AO2 RAB00E22 P0000 T00670028
03949KAQV AQV20160101005013101/01/16 00:50:31  5-MIN KAQV 010650Z AUTO VRB06KT 10SM BKN110 07/03 A3033 0 76 -900 VRB/06 RMK AO2 RAB00E22 SLP272 P0000 T00670028
03949KAQV AQV20160101005513801/01/16 00:55:31  5-MIN KAQV 010655Z AUTO 02004KT 10SM FEW095 BKN120 07/03 A3033 0 76 -900 010/04 RMK AO2 RAB00E22 SLP271 P0000 T00670028
03949KAQV AQV20160101010012301/01/16 01:00:31  5-MIN KAQV 010700Z AUTO 36007KT 10SM FEW075 SCT090 BKN110 07/03 A3033 0 76 -900 360/07 RMK AO2 T00670028
03949KAQV AQV20160101010512501/01/16 01:05:31  5-MIN KAQV 010705Z AUTO VRB04KT 10SM SCT075 BKN090 BKN120 07/03 A3034 -10 76 -900 VRB/04 RMK AO2 T00670028
03949KAQV AQV20160101011014101/01/16 01:10:31  5-MIN KAQV 010710Z AUTO 36007KT 10SM -RA FEW070 BKN095 OVC120 07/03 A3034 -10 76 -900 360/07 RMK AO2 RAB08 P0000 T00670028
03949KAQV AQV20160101011514101/01/16 01:15:31  5-MIN KAQV 010715Z AUTO 36007KT 10SM -RA FEW070 BKN100 OVC110 07/03 A3034 -10 76 -900 360/07 RMK AO2 RAB08 P0000 T00670028
03949KAQV AQV20160101012013201/01/16 01:20:31  5-MIN KAQV 010720Z AUTO 01007KT 10SM -RA FEW070 OVC100 07/03 A3034 0 76 -900 360/07 RMK AO2 RAB08 P0000 T00670028
03949KAQV AQV20160101012513901/01/16 01:25:31  5-MIN KAQV 010725Z AUTO 03007KT 10SM -RA FEW070 SCT090 OVC110 07/03 A3033 0 76 -900 020/07 RMK AO2 RAB08 P0000 T00670028
03949KAQV AQV20160101013013901/01/16 01:30:31  5-MIN KAQV 010730Z AUTO 01008KT 10SM -RA FEW070 FEW090 OVC110 07/02 A3033 0 73 -900 010/08 RMK AO2 RAB08 P0000 T00670022
03949KAQV AQV20160101013512701/01/16 01:35:31  5-MIN KAQV 010735Z AUTO 01006KT 10SM -RA BKN110 07/03 A3034 -10 76 -900 010/06 RMK AO2 RAB08 P0000 T00670028
03949KAQV AQV20160101014012601/01/16 01:40:31  5-MIN KAQV 010740Z AUTO 36005KT 10SM BKN100 07/02 A3036 -20 73 -900 350/05 RMK AO2 RAB08E36 P0000 T00670022
03949KAQV AQV20160101014513301/01/16 01:45:31  5-MIN KAQV 010745Z AUTO 36007KT 10SM SCT090 BKN110 07/02 A3035 -20 73 -900 350/07 RMK AO2 RAB08E36 P0000 T00670022
03949KAQV AQV20160101015014101/01/16 01:50:31  5-MIN KAQV 010750Z AUTO VRB06KT 10SM BKN085 OVC110 06/02 A3035 -10 76 -1000 VRB/06 RMK AO2 RAB08E36 SLP279 P0000 T00610022
03949KAQV AQV20160101015514801/01/16 01:55:31  5-MIN KAQV 010755Z AUTO 01008KT 10SM FEW075 BKN090 BKN110 06/02 A3035 -10 76 -1000 360/08 RMK AO2 RAB08E36 SLP278 P0000 T00610022
03949KAQV AQV20160101020011701/01/16 02:00:31  5-MIN KAQV 010800Z AUTO 02008KT 10SM SCT090 BKN110 06/02 A3034 0 73 -1000 020/08 RMK AO2 T00610017
03949KAQV AQV20160101020512501/01/16 02:05:31  5-MIN KAQV 010805Z AUTO 01009KT 10SM FEW090 BKN110 06/02 A3032 10 73 -1000 010/09 RMK AO2 PRESFR T00610017
03949KAQV AQV20160101021014901/01/16 02:10:31  5-MIN KAQV 010810Z AUTO 01008KT 340V060 10SM -RA SCT085 BKN120 06/02 A3032 0 73 -1000 010/08 340V060 RMK AO2 RAB10 P0000 T00610017
03949KAQV AQV20160101021514801/01/16 02:15:31  5-MIN KAQV 010815Z AUTO 35008G16KT 10SM -RA FEW060 SCT090 BKN120 06/02 A3035 -10 73 -1000 350/08G16 RMK AO2 RAB10 P0000 T00610017
03949KAQV AQV20160101022015501/01/16 02:20:31  5-MIN KAQV 010820Z AUTO VRB04G16KT 10SM -RA FEW060 SCT095 BKN110 06/02 A3036 -30 73 -1000 VRB/04G16 RMK AO2 RAB10 PRESRR P0000 T00610017
03949KAQV AQV20160101022514901/01/16 02:25:31  5-MIN KAQV 010825Z AUTO VRB06KT 10SM -RA FEW060 SCT100 BKN110 06/02 A3037 -30 73 -1000 VRB/06 RMK AO2 RAB10 PRESRR P0000 T00610017
03949KAQV AQV20160101023014201/01/16 02:30:31  5-MIN KAQV 010830Z AUTO VRB04KT 10SM -RA FEW060 SCT095 BKN120 06/02 A3037 -30 73 -1000 VRB/04 RMK AO2 RAB10 P0000 T00610017
03949KAQV AQV20160101023514101/01/16 02:35:31  5-MIN KAQV 010835Z AUTO 35005KT 10SM FEW060 SCT090 BKN110 06/02 A3037 -30 76 -1100 350/05 RMK AO2 RAB10E35 P0000 T00560017
03949KAQV AQV20160101024013401/01/16 02:40:31  5-MIN KAQV 010840Z AUTO 35006KT 10SM FEW060 BKN110 06/01 A3036 -30 73 -1100 350/06 RMK AO2 RAB10E35 P0000 T00560011
03949KAQV AQV20160101024513401/01/16 02:45:31  5-MIN KAQV 010845Z AUTO 01007KT 10SM SCT100 OVC120 06/01 A3036 -20 73 -1100 360/07 RMK AO2 RAB10E35 P0000 T00560011
03949KAQV AQV20160101025014601/01/16 02:50:31  5-MIN KAQV 010850Z AUTO 01007KT 10SM OVC110 06/01 A3036 -20 73 -1100 010/07 RMK AO2 RAB10E35 SLP281 P0000 60000 T00560011 50008
03949KAQV AQV20160101025515301/01/16 02:55:31  5-MIN KAQV 010855Z AUTO 01008KT 10SM FEW075 OVC110 06/01 A3034 -10 73 -1100 360/08 RMK AO2 RAB10E35 SLP276 P0000 60000 T00560011 50008
03949KAQV AQV20160101030013501/01/16 03:00:31  5-MIN KAQV 010900Z AUTO 02008KT 10SM -RA FEW075 OVC110 06/01 A3034 0 73 -1100 010/08 RMK AO2 RAB0858 P0000 T00560011
03949KAQV AQV20160101030513701/01/16 03:05:31  5-MIN KAQV 010905Z AUTO 01008KT 10SM -RA FEW075 OVC110 06/01 A3035 -10 73 -1100 010/08 RMK AO2 RAB0858 P0000 T00560011
03949KAQV AQV20160101031014401/01/16 03:10:31  5-MIN KAQV 010910Z AUTO 36009KT 10SM -RA FEW070 FEW080 OVC110 06/01 A3036 -20 73 -1100 350/09 RMK AO2 RAB0858 P0000 T00560011
03949KAQV AQV20160101031514401/01/16 03:15:31  5-MIN KAQV 010915Z AUTO 01006KT 10SM -RA FEW039 SCT075 OVC110 06/01 A3036 -20 73 -1100 360/06 RMK AO2 RAB0858 P0000 T00560011
03949KAQV AQV20160101032014301/01/16 03:20:31  5-MIN KAQV 010920Z AUTO 01007KT 10SM FEW034 SCT090 BKN110 05/02 A3035 -10 79 -1100 010/07 RMK AO2 RAB0858E19 P0000 T00500017
03949KAQV AQV20160101032514301/01/16 03:25:31  5-MIN KAQV 010925Z AUTO 02006KT 10SM FEW070 FEW090 BKN110 05/01 A3035 -10 76 -1100 010/06 RMK AO2 RAB0858E19 P0000 T00500011
03949KAQV AQV20160101033014301/01/16 03:30:31  5-MIN KAQV 010930Z AUTO 01006KT 10SM FEW070 FEW100 SCT120 06/01 A3035 -10 73 -1100 010/06 RMK AO2 RAB0858E19 P0000 T00560011
03949KAQV AQV20160101033512901/01/16 03:35:31  5-MIN KAQV 010935Z AUTO 02007KT 10SM FEW120 06/01 A3034 -10 73 -1100 010/07 RMK AO2 RAB0858E19 P0000 T00560011
03949KAQV AQV20160101034012901/01/16 03:40:31  5-MIN KAQV 010940Z AUTO 02008KT 10SM FEW110 06/01 A3035 -10 73 -1100 010/08 RMK AO2 RAB0858E19 P0000 T00560011
03949KAQV AQV20160101034513601/01/16 03:45:31  5-MIN KAQV 010945Z AUTO 01008KT 10SM FEW075 SCT110 05/01 A3035 -10 76 -1100 360/08 RMK AO2 RAB0858E19 P0000 T00500011
03949KAQV AQV20160101035015001/01/16 03:50:31  5-MIN KAQV 010950Z AUTO 01008KT 10SM FEW070 SCT090 BKN110 06/01 A3035 -20 73 -1100 010/08 RMK AO2 RAB0858E19 SLP280 P0000 T00560011
03949KAQV AQV20160101035515001/01/16 03:55:31  5-MIN KAQV 010955Z AUTO VRB06KT 10SM FEW075 BKN100 05/01 A3037 -30 76 -1200 VRB/06 RMK AO2 RAB0858E19 PRESRR SLP284 P0000 T00500011
03949KAQV AQV20160101040011901/01/16 04:00:31  5-MIN KAQV 011000Z AUTO 01007KT 10SM FEW075 BKN100 05/01 A3036 -20 76 -1200 360/07 RMK AO2 T00500011
03949KAQV AQV20160101040511901/01/16 04:05:31  5-MIN KAQV 011005Z AUTO 01007KT 10SM SCT080 OVC100 05/01 A3035 -20 76 -1100 360/07 RMK AO2 T00500011
03949KAQV AQV20160101041011901/01/16 04:10:31  5-MIN KAQV 011010Z AUTO 01006KT 10SM FEW070 OVC100 05/01 A3035 -10 76 -1100 010/06 RMK AO2 T00500011
03949KAQV AQV20160101041511901/01/16 04:15:31  5-MIN KAQV 011015Z AUTO 02006KT 10SM OVC100 05/01 A3034 -10 76 -1100 010/06 RMK AO2 PRESFR T00500011
03949KAQV AQV20160101042011201/01/16 04:20:31  5-MIN KAQV 011020Z AUTO 02008KT 10SM OVC100 05/01 A3034 -10 73 -1100 020/08 RMK AO2 T00500006
03949KAQV AQV20160101042511001/01/16 04:25:31  5-MIN KAQV 011025Z AUTO 03006KT 10SM OVC095 05/01 A3034 0 73 -1100 020/06 RMK AO2 T00500006
03949KAQV AQV20160101043011701/01/16 04:30:31  5-MIN KAQV 011030Z AUTO 01007KT 10SM SCT090 BKN100 05/01 A3033 0 73 -1100 010/07 RMK AO2 T00500006
03949KAQV AQV20160101043511201/01/16 04:35:31  5-MIN KAQV 011035Z AUTO 02005KT 10SM SCT095 05/01 A3034 -10 73 -1100 020/05 RMK AO2 T00500006
03949KAQV AQV20160101044011901/01/16 04:40:31  5-MIN KAQV 011040Z AUTO 01008KT 10SM FEW085 SCT110 05/01 A3034 -10 73 -1100 360/08 RMK AO2 T00500006
03949KAQV AQV20160101044511901/01/16 04:45:31  5-MIN KAQV 011045Z AUTO 01008KT 10SM FEW090 FEW110 05/01 A3035 -10 73 -1100 360/08 RMK AO2 T00500006
03949KAQV AQV20160101045011901/01/16 04:50:31  5-MIN KAQV 011050Z AUTO 01008KT 10SM FEW110 05/01 A3035 -10 73 -1100 360/08 RMK AO2 SLP278 T00500006
03949KAQV AQV20160101045511601/01/16 04:55:31  5-MIN KAQV 011055Z AUTO 01007KT 10SM CLR 05/01 A3035 -10 73 -1100 010/07 RMK AO2 SLP279 T00500006
03949KAQV AQV20160101050010901/01/16 05:00:31  5-MIN KAQV 011100Z AUTO 01005KT 10SM CLR 05/01 A3035 -20 73 -1100 360/05 RMK AO2 T00500006
03949KAQV AQV20160101050510901/01/16 05:05:31  5-MIN KAQV 011105Z AUTO 01007KT 10SM CLR 05/01 A3036 -20 73 -1200 360/07 RMK AO2 T00500006
03949KAQV AQV20160101051010901/01/16 05:10:31  5-MIN KAQV 011110Z AUTO 36006KT 10SM CLR 05/01 A3036 -20 73 -1200 350/06 RMK AO2 T00500006
03949KAQV AQV20160101051511501/01/16 05:15:31  5-MIN KAQV 011115Z AUTO 36009G16KT 10SM CLR 05/01 A3035 -10 73 -1100 360/09G16 RMK AO2 T00500006
03949KAQV AQV20160101052011501/01/16 05:20:31  5-MIN KAQV 011120Z AUTO 36008G16KT 10SM CLR 05/00 A3035 -10 70 -1100 360/08G16 RMK AO2 T00500000
03949KAQV AQV20160101052511501/01/16 05:25:31  5-MIN KAQV 011125Z AUTO 36007G16KT 10SM CLR 05/00 A3035 -10 70 -1100 350/07G16 RMK AO2 T00500000
03949KAQV AQV20160101053011201/01/16 05:30:31  5-MIN KAQV 011130Z AUTO 36007KT 10SM FEW110 05/01 A3035 -10 73 -1100 360/07 RMK AO2 T00500006
03949KAQV AQV20160101053511801/01/16 05:35:31  5-MIN KAQV 011135Z AUTO 01008G15KT 10SM SCT110 05/01 A3034 -10 73 -1100 010/08G15 RMK AO2 T00500006
03949KAQV AQV20160101054011601/01/16 05:40:31  5-MIN KAQV 011140Z AUTO 01007G15KT 10SM SCT120 05/01 A3034 0 73 -1100 360/07G15 RMK AO2 T00500006
03949KAQV AQV20160101054511601/01/16 05:45:31  5-MIN KAQV 011145Z AUTO 01011G16KT 10SM BKN110 05/01 A3034 0 73 -1100 010/11G16 RMK AO2 T00500006
03949KAQV AQV20160101055014901/01/16 05:50:31  5-MIN KAQV 011150Z AUTO 36007G16KT 10SM BKN110 05/01 A3035 -10 73 -1100 360/07G16 RMK AO2 SLP278 60000 T00500006 10072 20050 55000
03949KAQV AQV20160101055514301/01/16 05:55:31  5-MIN KAQV 011155Z AUTO 01009KT 10SM OVC110 05/00 A3034 -10 70 -1100 010/09 RMK AO2 SLP276 60000 T00500000 10072 20050 55000
03949KAQV AQV20160101060011701/01/16 06:00:31  5-MIN KAQV 011200Z AUTO 01009KT 10SM FEW090 OVC110 05/00 A3034 0 70 -1100 360/09 RMK AO2 T00500000
03949KAQV AQV20160101060512301/01/16 06:05:31  5-MIN KAQV 011205Z AUTO 01010G16KT 10SM BKN095 OVC110 05/00 A3033 0 70 -1100 360/10G16 RMK AO2 T00500000
03949KAQV AQV20160101061012301/01/16 06:10:31  5-MIN KAQV 011210Z AUTO 36009G23KT 10SM SCT100 OVC120 05/00 A3034 0 70 -1100 360/09G23 RMK AO2 T00500000
03949KAQV AQV20160101061512301/01/16 06:15:31  5-MIN KAQV 011215Z AUTO 02009G23KT 10SM FEW090 BKN120 05/00 A3034 0 70 -1100 010/09G23 RMK AO2 T00500000
03949KAQV AQV20160101062012301/01/16 06:20:31  5-MIN KAQV 011220Z AUTO 01008G15KT 10SM FEW090 BKN120 05/00 A3034 0 70 -1100 010/08G15 RMK AO2 T00500000
03949KAQV AQV20160101062512301/01/16 06:25:31  5-MIN KAQV 011225Z AUTO 01009G16KT 10SM FEW090 OVC110 05/00 A3034 0 70 -1100 010/09G16 RMK AO2 T00500000
03949KAQV AQV20160101063012301/01/16 06:30:31  5-MIN KAQV 011230Z AUTO 01011G16KT 10SM FEW080 OVC110 05/00 A3034 0 70 -1100 360/11G16 RMK AO2 T00500000
03949KAQV AQV20160101063513201/01/16 06:35:31  5-MIN KAQV 011235Z AUTO 36010G15KT 10SM FEW070 SCT080 OVC110 05/00 A3034 -10 70 -1100 360/10G15 RMK AO2 T00500000
03949KAQV AQV20160101064012601/01/16 06:40:31  5-MIN KAQV 011240Z AUTO 01011KT 10SM FEW070 FEW080 OVC110 05/00 A3034 -10 70 -1100 010/11 RMK AO2 T00500000
03949KAQV AQV20160101064511901/01/16 06:45:31  5-MIN KAQV 011245Z AUTO 02008KT 10SM FEW080 OVC110 05/00 A3035 -20 70 -1100 020/08 RMK AO2 T00500000
03949KAQV AQV20160101065013301/01/16 06:50:31  5-MIN KAQV 011250Z AUTO 01007KT 10SM FEW080 BKN110 05/00 A3037 -30 70 -1200 010/07 RMK AO2 PRESRR SLP285 T00500000
03949KAQV AQV20160101065513301/01/16 06:55:31  5-MIN KAQV 011255Z AUTO 01004KT 10SM FEW080 BKN110 05/00 A3037 -40 70 -1200 010/04 RMK AO2 PRESRR SLP287 T00500000
03949KAQV AQV20160101070011201/01/16 07:00:31  5-MIN KAQV 011300Z AUTO 01006KT 10SM BKN100 05/00 A3038 -40 70 -1200 360/06 RMK AO2 T00500000
03949KAQV AQV20160101070512701/01/16 07:05:31  5-MIN KAQV 011305Z AUTO VRB06KT 10SM FEW080 BKN100 05/M01 A3039 -50 67 -1200 VRB/06 RMK AO2 PRESRR T00501006
03949KAQV AQV20160101071011901/01/16 07:10:31  5-MIN KAQV 011310Z AUTO 01005KT 10SM FEW080 SCT110 05/00 A3039 -50 70 -1200 010/05 RMK AO2 T00500000
03949KAQV AQV20160101071511901/01/16 07:15:31  5-MIN KAQV 011315Z AUTO 36006KT 10SM FEW080 SCT100 05/00 A3039 -50 70 -1200 360/06 RMK AO2 T00500000
03949KAQV AQV20160101072011901/01/16 07:20:31  5-MIN KAQV 011320Z AUTO 36007KT 10SM FEW080 FEW100 05/00 A3039 -50 70 -1200 360/07 RMK AO2 T00500000
03949KAQV AQV20160101072511201/01/16 07:25:31  5-MIN KAQV 011325Z AUTO 36006KT 10SM FEW080 05/00 A3039 -50 70 -1200 360/06 RMK AO2 T00500000
03949KAQV AQV20160101073011201/01/16 07:30:31  5-MIN KAQV 011330Z AUTO VRB06KT 10SM FEW080 05/00 A3040 -60 70 -1200 VRB/06 RMK AO2 T00500000
03949KAQV AQV20160101073510901/01/16 07:35:31  5-MIN KAQV 011335Z AUTO 36008KT 10SM CLR 05/00 A3040 -60 70 -1200 360/08 RMK AO2 T00500000
03949KAQV AQV20160101074010901/01/16 07:40:31  5-MIN KAQV 011340Z AUTO 01009KT 10SM CLR 05/00 A3040 -60 70 -1200 360/09 RMK AO2 T00500000
03949KAQV AQV20160101074510901/01/16 07:45:31  5-MIN KAQV 011345Z AUTO 36008KT 10SM CLR 05/00 A3040 -60 70 -1200 360/08 RMK AO2 T00500000
03949KAQV AQV20160101075011901/01/16 07:50:31  5-MIN KAQV 011350Z AUTO 36007KT 10SM FEW120 05/00 A3040 -60 70 -1200 350/07 RMK AO2 SLP297 T00500000
03949KAQV AQV20160101075511901/01/16 07:55:31  5-MIN KAQV 011355Z AUTO 01005KT 10SM FEW120 05/00 A3040 -60 70 -1200 360/05 RMK AO2 SLP296 T00500000
03949KAQV AQV20160101080011201/01/16 08:00:31  5-MIN KAQV 011400Z AUTO 01006KT 10SM FEW120 05/00 A3040 -60 70 -1200 360/06 RMK AO2 T00500000
03949KAQV AQV20160101080511201/01/16 08:05:31  5-MIN KAQV 011405Z AUTO 01005KT 10SM FEW120 05/00 A3040 -60 70 -1200 010/05 RMK AO2 T00500000
03949KAQV AQV20160101081011201/01/16 08:10:31  5-MIN KAQV 011410Z AUTO 01008KT 10SM SCT120 05/00 A3041 -60 70 -1200 360/08 RMK AO2 T00500000
03949KAQV AQV20160101081511201/01/16 08:15:31  5-MIN KAQV 011415Z AUTO 01007KT 10SM FEW120 05/00 A3041 -70 70 -1200 010/07 RMK AO2 T00500000
03949KAQV AQV20160101082011201/01/16 08:20:31  5-MIN KAQV 011420Z AUTO 01006KT 10SM FEW120 05/00 A3041 -70 70 -1200 360/06 RMK AO2 T00500000
03949KAQV AQV20160101082511201/01/16 08:25:31  5-MIN KAQV 011425Z AUTO 02006KT 10SM FEW120 06/00 A3041 -70 67 -1100 020/06 RMK AO2 T00560000
03949KAQV AQV20160101083011201/01/16 08:30:31  5-MIN KAQV 011430Z AUTO 36008KT 10SM SCT120 06/00 A3041 -70 67 -1100 360/08 RMK AO2 T00560000
03949KAQV AQV20160101083511201/01/16 08:35:31  5-MIN KAQV 011435Z AUTO 01008KT 10SM SCT120 06/00 A3042 -80 67 -1200 360/08 RMK AO2 T00560000
03949KAQV AQV20160101084011201/01/16 08:40:31  5-MIN KAQV 011440Z AUTO 01007KT 10SM SCT120 06/00 A3041 -70 67 -1100 010/07 RMK AO2 T00560000
03949KAQV AQV20160101084511801/01/16 08:45:31  5-MIN KAQV 011445Z AUTO 01008G15KT 10SM BKN110 06/00 A3041 -70 67 -1100 010/08G15 RMK AO2 T00560000
03949KAQV AQV20160101085012501/01/16 08:50:31  5-MIN KAQV 011450Z AUTO 01011KT 10SM BKN120 06/00 A3042 -70 67 -1100 360/11 RMK AO2 SLP301 T00560000 50000
03949KAQV AQV20160101085514101/01/16 08:55:31  5-MIN KAQV 011455Z AUTO 02008KT 350V050 10SM BKN120 06/00 A3041 -70 67 -1100 010/08 350V050 RMK AO2 SLP300 T00560000 50000
03949KAQV AQV20160101090011201/01/16 09:00:31  5-MIN KAQV 011500Z AUTO 01009KT 10SM BKN110 06/00 A3041 -70 67 -1100 360/09 RMK AO2 T00560000
03949KAQV AQV20160101090511801/01/16 09:05:31  5-MIN KAQV 011505Z AUTO 36006G15KT 10SM BKN110 06/00 A3042 -80 67 -1200 360/06G15 RMK AO2 T00560000
03949KAQV AQV20160101091012801/01/16 09:10:31  5-MIN KAQV 011510Z AUTO 36007KT 320V040 10SM BKN110 06/00 A3043 -90 67 -1200 360/07 320V040 RMK AO2 T00560000
03949KAQV AQV20160101091511201/01/16 09:15:31  5-MIN KAQV 011515Z AUTO 02008KT 10SM BKN110 06/00 A3043 -90 67 -1200 010/08 RMK AO2 T00560000
03949KAQV AQV20160101092011201/01/16 09:20:31  5-MIN KAQV 011520Z AUTO 01010KT 10SM OVC110 06/00 A3043 -90 67 -1200 010/10 RMK AO2 T00560000
03949KAQV AQV20160101092511801/01/16 09:25:31  5-MIN KAQV 011525Z AUTO 01010G17KT 10SM BKN110 06/00 A3043 -80 67 -1200 360/10G17 RMK AO2 T00560000
03949KAQV AQV20160101093011801/01/16 09:30:31  5-MIN KAQV 011530Z AUTO 01008G17KT 10SM BKN110 06/00 A3043 -90 67 -1200 360/08G17 RMK AO2 T00560000
03949KAQV AQV20160101093511201/01/16 09:35:31  5-MIN KAQV 011535Z AUTO 02007KT 10SM BKN110 06/00 A3043 -90 67 -1200 010/07 RMK AO2 T00560000
03949KAQV AQV20160101094011901/01/16 09:40:31  5-MIN KAQV 011540Z AUTO 01008KT 10SM FEW090 BKN110 06/00 A3043 -90 67 -1200 360/08 RMK AO2 T00560000
03949KAQV AQV20160101094511901/01/16 09:45:31  5-MIN KAQV 011545Z AUTO 02005KT 10SM FEW075 BKN110 06/00 A3044 -90 65 -1100 020/05 RMK AO2 T00610000
03949KAQV AQV20160101095014301/01/16 09:50:31  5-MIN KAQV 011550Z AUTO 02005KT 10SM -RA FEW075 BKN110 06/00 A3044 -100 65 -1100 020/05 RMK AO2 RAB47 SLP309 P0000 T00610000
03949KAQV AQV20160101095514301/01/16 09:55:31  5-MIN KAQV 011555Z AUTO 01006KT 10SM -RA FEW075 BKN110 06/01 A3044 -100 67 -1100 010/06 RMK AO2 RAB47 SLP311 P0000 T00610006
03949KAQV AQV20160101100012701/01/16 10:00:31  5-MIN KAQV 011600Z AUTO 01007KT 10SM FEW075 FEW085 OVC110 06/00 A3045 -100 65 -1100 360/07 RMK AO2 T00610000
03949KAQV AQV20160101100512701/01/16 10:05:31  5-MIN KAQV 011605Z AUTO 36006KT 10SM FEW060 SCT085 OVC110 06/01 A3045 -110 67 -1100 350/06 RMK AO2 T00610006
03949KAQV AQV20160101101012701/01/16 10:10:31  5-MIN KAQV 011610Z AUTO 35008KT 10SM FEW060 SCT080 OVC100 06/01 A3045 -110 67 -1100 350/08 RMK AO2 T00610006
03949KAQV AQV20160101101512001/01/16 10:15:31  5-MIN KAQV 011615Z AUTO 01008KT 10SM FEW080 OVC100 06/00 A3045 -110 65 -1100 010/08 RMK AO2 T00610000
03949KAQV AQV20160101102012701/01/16 10:20:31  5-MIN KAQV 011620Z AUTO 36007KT 10SM FEW080 BKN090 OVC110 06/00 A3046 -110 65 -1100 360/07 RMK AO2 T00610000
03949KAQV AQV20160101102512001/01/16 10:25:31  5-MIN KAQV 011625Z AUTO 36008KT 10SM BKN090 BKN110 06/01 A3045 -100 67 -1100 360/08 RMK AO2 T00610006
03949KAQV AQV20160101103012001/01/16 10:30:31  5-MIN KAQV 011630Z AUTO 02008KT 10SM BKN090 BKN110 06/00 A3045 -110 65 -1100 010/08 RMK AO2 T00610000
03949KAQV AQV20160101103512001/01/16 10:35:31  5-MIN KAQV 011635Z AUTO 01008KT 10SM SCT090 SCT110 06/00 A3045 -110 65 -1100 010/08 RMK AO2 T00610000
03949KAQV AQV20160101104011301/01/16 10:40:31  5-MIN KAQV 011640Z AUTO 03007KT 10SM SCT090 06/00 A3045 -100 65 -1100 020/07 RMK AO2 T00610000
03949KAQV AQV20160101104512001/01/16 10:45:31  5-MIN KAQV 011645Z AUTO 01010KT 10SM FEW090 FEW110 06/00 A3044 -100 65 -1100 010/10 RMK AO2 T00610000
03949KAQV AQV20160101105012001/01/16 10:50:31  5-MIN KAQV 011650Z AUTO 36009KT 10SM FEW100 07/00 A3044 -100 62 -1000 360/09 RMK AO2 SLP310 T00670000
03949KAQV AQV20160101105512701/01/16 10:55:31  5-MIN KAQV 011655Z AUTO 01010KT 10SM FEW080 FEW120 07/00 A3044 -100 62 -1000 360/10 RMK AO2 SLP309 T00670000
03949KAQV AQV20160101110012601/01/16 11:00:31  5-MIN KAQV 011700Z AUTO 36008KT 10SM FEW070 SCT080 SCT120 07/00 A3043 -90 62 -1000 360/08 RMK AO2 T00670000
03949KAQV AQV20160101110511901/01/16 11:05:31  5-MIN KAQV 011705Z AUTO 36007KT 10SM FEW070 FEW080 07/00 A3043 -90 62 -1000 350/07 RMK AO2 T00670000
03949KAQV AQV20160101111011201/01/16 11:10:31  5-MIN KAQV 011710Z AUTO 36011KT 10SM FEW080 07/00 A3043 -80 62 -1000 360/11 RMK AO2 T00670000
03949KAQV AQV20160101111511201/01/16 11:15:31  5-MIN KAQV 011715Z AUTO 02011KT 10SM FEW080 07/00 A3042 -80 62 -1000 010/11 RMK AO2 T00670000
03949KAQV AQV20160101112011801/01/16 11:20:31  5-MIN KAQV 011720Z AUTO 02009G15KT 10SM FEW080 07/00 A3043 -80 62 -1000 020/09G15 RMK AO2 T00670000
03949KAQV AQV20160101112511601/01/16 11:25:31  5-MIN KAQV 011725Z AUTO 01008G15KT 10SM CLR 07/M01 A3042 -80 60 -1000 010/08G15 RMK AO2 T00671006
03949KAQV AQV20160101113011501/01/16 11:30:31  5-MIN KAQV 011730Z AUTO 36010G16KT 10SM CLR 07/00 A3042 -80 62 -1000 360/10G16 RMK AO2 T00670000
03949KAQV AQV20160101113511501/01/16 11:35:31  5-MIN KAQV 011735Z AUTO 02010G16KT 10SM CLR 07/00 A3042 -80 62 -1000 010/10G16 RMK AO2 T00670000
03949KAQV AQV20160101114013001/01/16 11:40:31  5-MIN KAQV 011740Z AUTO 36011G16KT 330V030 10SM CLR 07/00 A3042 -70 60 -900 360/11G16 330V030 RMK AO2 T00720000
03949KAQV AQV20160101114511401/01/16 11:45:31  5-MIN KAQV 011745Z AUTO 01009G16KT 10SM CLR 07/00 A3041 -70 60 -900 010/09G16 RMK AO2 T00720000
03949KAQV AQV20160101115016101/01/16 11:50:31  5-MIN KAQV 011750Z AUTO 02009G16KT 350V050 10SM CLR 07/00 A3041 -70 60 -900 020/09G16 350V050 RMK AO2 SLP300 60000 T00720000 10072 20050 51024
03949KAQV AQV20160101115514601/01/16 11:55:31  5-MIN KAQV 011755Z AUTO 01011G16KT 10SM CLR 07/M01 A3041 -70 57 -900 010/11G16 RMK AO2 SLP300 60000 T00721006 10072 20050 51024
03949KAQV AQV20160101120010801/01/16 12:00:31  5-MIN KAQV 011800Z AUTO 01009KT 10SM CLR 07/00 A3040 -60 60 -900 010/09 RMK AO2 T00720000
03949KAQV AQV20160101120511501/01/16 12:05:31  5-MIN KAQV 011805Z AUTO 01008KT 10SM CLR 07/00 A3039 -50 60 -900 010/08 RMK AO2 PRESFR T00720000
03949KAQV AQV20160101121010801/01/16 12:10:31  5-MIN KAQV 011810Z AUTO 02007KT 10SM CLR 07/00 A3039 -50 60 -900 020/07 RMK AO2 T00720000
03949KAQV AQV20160101121512401/01/16 12:15:31  5-MIN KAQV 011815Z AUTO 35007KT 320V020 10SM CLR 08/00 A3039 -50 58 -900 350/07 320V020 RMK AO2 T00780000
03949KAQV AQV20160101122011401/01/16 12:20:31  5-MIN KAQV 011820Z AUTO 01009G14KT 10SM CLR 07/00 A3039 -50 60 -900 360/09G14 RMK AO2 T00720000
03949KAQV AQV20160101122510801/01/16 12:25:31  5-MIN KAQV 011825Z AUTO 02010KT 10SM CLR 07/00 A3039 -50 60 -900 010/10 RMK AO2 T00720000
03949KAQV AQV20160101123010801/01/16 12:30:31  5-MIN KAQV 011830Z AUTO 01012KT 10SM CLR 07/00 A3038 -40 60 -900 360/12 RMK AO2 T00720000
03949KAQV AQV20160101123511001/01/16 12:35:31  5-MIN KAQV 011835Z AUTO 01011KT 10SM CLR 07/M01 A3037 -40 60 -1000 360/11 RMK AO2 T00671006
03949KAQV AQV20160101124012201/01/16 12:40:31  5-MIN KAQV 011840Z AUTO 36009G16KT 10SM CLR 07/M01 A3037 -30 57 -900 360/09G16 RMK AO2 PRESFR T00721006
03949KAQV AQV20160101124511901/01/16 12:45:31  5-MIN KAQV 011845Z AUTO 36009G15KT 10SM FEW120 07/M01 A3037 -30 60 -1000 350/09G15 RMK AO2 T00671006
03949KAQV AQV20160101125012501/01/16 12:50:31  5-MIN KAQV 011850Z AUTO 01007G15KT 10SM FEW120 07/M01 A3037 -30 57 -900 010/07G15 RMK AO2 SLP286 T00721006
03949KAQV AQV20160101125512401/01/16 12:55:31  5-MIN KAQV 011855Z AUTO 02007G15KT 10SM FEW120 07/00 A3037 -40 60 -900 020/07G15 RMK AO2 SLP287 T00720000
03949KAQV AQV20160101130011701/01/16 13:00:31  5-MIN KAQV 011900Z AUTO 01007G15KT 10SM FEW120 07/00 A3037 -40 60 -900 360/07G15 RMK AO2 T00720000
03949KAQV AQV20160101130512701/01/16 13:05:31  5-MIN KAQV 011905Z AUTO 02008KT 350V060 10SM FEW120 07/00 A3037 -30 60 -900 020/08 350V060 RMK AO2 T00720000
03949KAQV AQV20160101131010801/01/16 13:10:31  5-MIN KAQV 011910Z AUTO 02009KT 10SM CLR 07/00 A3037 -30 60 -900 010/09 RMK AO2 T00720000
03949KAQV AQV20160101131513001/01/16 13:15:31  5-MIN KAQV 011915Z AUTO 02007G15KT 340V050 10SM CLR 07/00 A3037 -30 60 -900 010/07G15 340V050 RMK AO2 T00720000
03949KAQV AQV20160101132010801/01/16 13:20:31  5-MIN KAQV 011920Z AUTO 02008KT 10SM CLR 07/00 A3036 -20 60 -900 020/08 RMK AO2 T00720000
03949KAQV AQV20160101132510901/01/16 13:25:31  5-MIN KAQV 011925Z AUTO 01013KT 10SM CLR 07/M01 A3036 -20 57 -900 360/13 RMK AO2 T00721006
03949KAQV AQV20160101133011501/01/16 13:30:31  5-MIN KAQV 011930Z AUTO 01010G16KT 10SM CLR 07/M01 A3036 -20 57 -900 010/10G16 RMK AO2 T00721006
03949KAQV AQV20160101133511501/01/16 13:35:31  5-MIN KAQV 011935Z AUTO 01011G15KT 10SM CLR 07/M01 A3036 -30 57 -900 010/11G15 RMK AO2 T00721006
03949KAQV AQV20160101134011501/01/16 13:40:31  5-MIN KAQV 011940Z AUTO 01007G15KT 10SM CLR 07/M01 A3037 -30 57 -900 010/07G15 RMK AO2 T00721006
03949KAQV AQV20160101134512401/01/16 13:45:31  5-MIN KAQV 011945Z AUTO 36007KT 340V040 10SM CLR 07/00 A3036 -20 60 -900 360/07 340V040 RMK AO2 T00720000
03949KAQV AQV20160101135012101/01/16 13:50:31  5-MIN KAQV 011950Z AUTO 03010G16KT 10SM CLR 08/00 A3036 -20 58 -800 020/10G16 RMK AO2 SLP282 T00780000
03949KAQV AQV20160101135513801/01/16 13:55:31  5-MIN KAQV 011955Z AUTO 03007G16KT 350V070 10SM CLR 08/M01 A3036 -20 55 -800 030/07G16 350V070 RMK AO2 SLP281 T00781006
03949KAQV AQV20160101140010801/01/16 14:00:31  5-MIN KAQV 012000Z AUTO VRB06KT 10SM CLR 08/00 A3035 -20 55 -700 VRB/06 RMK AO2 T00830000
03949KAQV AQV20160101140510801/01/16 14:05:31  5-MIN KAQV 012005Z AUTO 01007KT 10SM CLR 08/00 A3035 -20 55 -700 360/07 RMK AO2 T00830000
03949KAQV AQV20160101141010901/01/16 14:10:31  5-MIN KAQV 012010Z AUTO 01008KT 10SM CLR 08/M01 A3035 -20 55 -800 010/08 RMK AO2 T00781006
03949KAQV AQV20160101141510901/01/16 14:15:31  5-MIN KAQV 012015Z AUTO 02009KT 10SM CLR 08/M01 A3035 -20 55 -800 020/09 RMK AO2 T00781006
03949KAQV AQV20160101142010801/01/16 14:20:31  5-MIN KAQV 012020Z AUTO 01007KT 10SM CLR 08/00 A3036 -20 58 -800 010/07 RMK AO2 T00780000
03949KAQV AQV20160101142510801/01/16 14:25:31  5-MIN KAQV 012025Z AUTO VRB06KT 10SM CLR 08/00 A3037 -30 55 -800 VRB/06 RMK AO2 T00830000
03949KAQV AQV20160101143010801/01/16 14:30:31  5-MIN KAQV 012030Z AUTO 02005KT 10SM CLR 08/00 A3037 -30 58 -800 020/05 RMK AO2 T00780000
03949KAQV AQV20160101143510801/01/16 14:35:31  5-MIN KAQV 012035Z AUTO 36007KT 10SM CLR 08/00 A3037 -30 55 -800 350/07 RMK AO2 T00830000
03949KAQV AQV20160101144010801/01/16 14:40:31  5-MIN KAQV 012040Z AUTO 36009KT 10SM CLR 08/00 A3036 -30 58 -800 360/09 RMK AO2 T00780000
03949KAQV AQV20160101144510801/01/16 14:45:31  5-MIN KAQV 012045Z AUTO 36007KT 10SM CLR 08/00 A3036 -30 55 -800 360/07 RMK AO2 T00830000
03949KAQV AQV20160101145012101/01/16 14:50:31  5-MIN KAQV 012050Z AUTO 35006KT 10SM CLR 08/00 A3037 -30 55 -800 350/06 RMK AO2 SLP285 T00830000 58001
03949KAQV AQV20160101145512101/01/16 14:55:31  5-MIN KAQV 012055Z AUTO 01008KT 10SM CLR 08/00 A3036 -30 55 -800 010/08 RMK AO2 SLP284 T00830000 58001
03949KAQV AQV20160101150010801/01/16 15:00:31  5-MIN KAQV 012100Z AUTO 35006KT 10SM CLR 08/00 A3037 -30 55 -800 350/06 RMK AO2 T00830000
03949KAQV AQV20160101150510801/01/16 15:05:31  5-MIN KAQV 012105Z AUTO 36006KT 10SM CLR 08/00 A3037 -30 55 -800 350/06 RMK AO2 T00830000
03949KAQV AQV20160101151010801/01/16 15:10:31  5-MIN KAQV 012110Z AUTO 36006KT 10SM CLR 08/01 A3037 -30 58 -800 350/06 RMK AO2 T00830006
03949KAQV AQV20160101151510801/01/16 15:15:31  5-MIN KAQV 012115Z AUTO 01008KT 10SM CLR 08/00 A3036 -30 55 -800 010/08 RMK AO2 T00830000
03949KAQV AQV20160101152010801/01/16 15:20:31  5-MIN KAQV 012120Z AUTO 36006KT 10SM CLR 08/00 A3036 -30 55 -800 350/06 RMK AO2 T00830000
03949KAQV AQV20160101152510801/01/16 15:25:31  5-MIN KAQV 012125Z AUTO 36008KT 10SM CLR 08/00 A3037 -30 55 -800 350/08 RMK AO2 T00830000
03949KAQV AQV20160101153010801/01/16 15:30:31  5-MIN KAQV 012130Z AUTO VRB06KT 10SM CLR 08/00 A3037 -30 58 -800 VRB/06 RMK AO2 T00780000
03949KAQV AQV20160101153510801/01/16 15:35:31  5-MIN KAQV 012135Z AUTO 01008KT 10SM CLR 08/00 A3037 -30 55 -800 010/08 RMK AO2 T00830000
03949KAQV AQV20160101154010801/01/16 15:40:31  5-MIN KAQV 012140Z AUTO 36008KT 10SM CLR 08/00 A3037 -40 58 -800 360/08 RMK AO2 T00780000
03949KAQV AQV20160101154510801/01/16 15:45:31  5-MIN KAQV 012145Z AUTO 36007KT 10SM CLR 08/00 A3037 -30 58 -800 360/07 RMK AO2 T00780000
03949KAQV AQV20160101155012101/01/16 15:50:31  5-MIN KAQV 012150Z AUTO 36009G15KT 10SM CLR 08/00 A3037 -30 55 -800 360/09G15 RMK AO2 SLP287 T00830000
03949KAQV AQV20160101155511501/01/16 15:55:31  5-MIN KAQV 012155Z AUTO 36008KT 10SM CLR 08/00 A3038 -40 55 -800 360/08 RMK AO2 SLP288 T00830000
03949KAQV AQV20160101160010801/01/16 16:00:31  5-MIN KAQV 012200Z AUTO 01008KT 10SM CLR 08/00 A3038 -40 58 -800 010/08 RMK AO2 T00780000
03949KAQV AQV20160101160510801/01/16 16:05:31  5-MIN KAQV 012205Z AUTO 36007KT 10SM CLR 08/00 A3038 -40 58 -800 360/07 RMK AO2 T00780000
03949KAQV AQV20160101161010801/01/16 16:10:31  5-MIN KAQV 012210Z AUTO 01006KT 10SM CLR 08/00 A3038 -40 58 -800 360/06 RMK AO2 T00780000
03949KAQV AQV20160101161510801/01/16 16:15:31  5-MIN KAQV 012215Z AUTO 02007KT 10SM CLR 08/00 A3038 -40 58 -800 010/07 RMK AO2 T00780000
03949KAQV AQV20160101162010801/01/16 16:20:31  5-MIN KAQV 012220Z AUTO 01006KT 10SM CLR 08/00 A3038 -40 58 -800 010/06 RMK AO2 T00780000
03949KAQV AQV20160101162510801/01/16 16:25:31  5-MIN KAQV 012225Z AUTO 01007KT 10SM CLR 08/00 A3038 -40 58 -800 010/07 RMK AO2 T00780000
03949KAQV AQV20160101163010801/01/16 16:30:31  5-MIN KAQV 012230Z AUTO VRB05KT 10SM CLR 08/00 A3038 -40 58 -800 VRB/05 RMK AO2 T00780000
03949KAQV AQV20160101163510801/01/16 16:35:31  5-MIN KAQV 012235Z AUTO 01008KT 10SM CLR 08/00 A3038 -40 58 -800 360/08 RMK AO2 T00780000
03949KAQV AQV20160101164010801/01/16 16:40:31  5-MIN KAQV 012240Z AUTO 01006KT 10SM CLR 08/00 A3038 -40 58 -800 360/06 RMK AO2 T00780000
03949KAQV AQV20160101164510801/01/16 16:45:31  5-MIN KAQV 012245Z AUTO 36006KT 10SM CLR 08/00 A3038 -40 58 -800 360/06 RMK AO2 T00780000
03949KAQV AQV20160101165011501/01/16 16:50:31  5-MIN KAQV 012250Z AUTO 36006KT 10SM CLR 07/01 A3038 -40 62 -900 360/06 RMK AO2 SLP290 T00720006
03949KAQV AQV20160101165511501/01/16 16:55:31  5-MIN KAQV 012255Z AUTO 36005KT 10SM CLR 07/00 A3038 -40 60 -900 360/05 RMK AO2 SLP291 T00720000
03949KAQV AQV20160101170010801/01/16 17:00:31  5-MIN KAQV 012300Z AUTO 36005KT 10SM CLR 07/01 A3038 -40 62 -900 360/05 RMK AO2 T00720006
03949KAQV AQV20160101170510801/01/16 17:05:31  5-MIN KAQV 012305Z AUTO 36005KT 10SM CLR 07/01 A3038 -40 62 -900 360/05 RMK AO2 T00720006
03949KAQV AQV20160101171010801/01/16 17:10:31  5-MIN KAQV 012310Z AUTO 36004KT 10SM CLR 07/01 A3039 -50 62 -900 350/04 RMK AO2 T00720006
03949KAQV AQV20160101171510801/01/16 17:15:31  5-MIN KAQV 012315Z AUTO VRB04KT 10SM CLR 07/01 A3039 -50 62 -900 VRB/04 RMK AO2 T00720006
03949KAQV AQV20160101172010901/01/16 17:20:31  5-MIN KAQV 012320Z AUTO 35005KT 10SM CLR 07/01 A3039 -50 65 -1000 350/05 RMK AO2 T00670006
03949KAQV AQV20160101172510901/01/16 17:25:31  5-MIN KAQV 012325Z AUTO 36005KT 10SM CLR 07/01 A3040 -60 65 -1000 360/05 RMK AO2 T00670006
03949KAQV AQV20160101173010901/01/16 17:30:31  5-MIN KAQV 012330Z AUTO VRB03KT 10SM CLR 07/01 A3041 -60 65 -1000 VRB/03 RMK AO2 T00670006
03949KAQV AQV20160101173510901/01/16 17:35:31  5-MIN KAQV 012335Z AUTO 36004KT 10SM CLR 07/01 A3041 -70 65 -1000 360/04 RMK AO2 T00670006
03949KAQV AQV20160101174010901/01/16 17:40:31  5-MIN KAQV 012340Z AUTO 36005KT 10SM CLR 07/00 A3041 -70 62 -1000 360/05 RMK AO2 T00670000
03949KAQV AQV20160101174510901/01/16 17:45:31  5-MIN KAQV 012345Z AUTO 36004KT 10SM CLR 07/00 A3041 -70 62 -1000 360/04 RMK AO2 T00670000
03949KAQV AQV20160101175013401/01/16 17:50:31  5-MIN KAQV 012350Z AUTO 36004KT 10SM CLR 07/00 A3041 -70 62 -1000 360/04 RMK AO2 SLP301 T00670000 10083 20067 55015
03949KAQV AQV20160101175513401/01/16 17:55:31  5-MIN KAQV 012355Z AUTO 36004KT 10SM CLR 07/00 A3041 -70 62 -1000 350/04 RMK AO2 SLP301 T00670000 10083 20067 55015
03949KAQV AQV20160101180010901/01/16 18:00:31  5-MIN KAQV 020000Z AUTO 35004KT 10SM CLR 07/00 A3042 -80 62 -1000 350/04 RMK AO2 T00670000
03949KAQV AQV20160101180510901/01/16 18:05:31  5-MIN KAQV 020005Z AUTO 36003KT 10SM CLR 07/00 A3041 -70 62 -1000 360/03 RMK AO2 T00670000
03949KAQV AQV20160101181010901/01/16 18:10:31  5-MIN KAQV 020010Z AUTO 36004KT 10SM CLR 07/00 A3041 -70 62 -1000 350/04 RMK AO2 T00670000
03949KAQV AQV20160101181510901/01/16 18:15:31  5-MIN KAQV 020015Z AUTO 35003KT 10SM CLR 06/01 A3041 -70 67 -1100 350/03 RMK AO2 T00610006
03949KAQV AQV20160101182010901/01/16 18:20:31  5-MIN KAQV 020020Z AUTO 00000KT 10SM CLR 06/00 A3042 -80 65 -1100 000/00 RMK AO2 T00610000
03949KAQV AQV20160101182510901/01/16 18:25:31  5-MIN KAQV 020025Z AUTO 00000KT 10SM CLR 06/00 A3042 -80 65 -1100 000/00 RMK AO2 T00610000
03949KAQV AQV20160101183010901/01/16 18:30:31  5-MIN KAQV 020030Z AUTO 00000KT 10SM CLR 06/01 A3042 -80 67 -1100 000/00 RMK AO2 T00610006
03949KAQV AQV20160101183510901/01/16 18:35:31  5-MIN KAQV 020035Z AUTO 36003KT 10SM CLR 06/01 A3042 -80 67 -1100 350/03 RMK AO2 T00610006
03949KAQV AQV20160101184010901/01/16 18:40:31  5-MIN KAQV 020040Z AUTO 35003KT 10SM CLR 06/01 A3042 -80 70 -1100 350/03 RMK AO2 T00610011
03949KAQV AQV20160101184510901/01/16 18:45:31  5-MIN KAQV 020045Z AUTO 35003KT 10SM CLR 06/01 A3042 -80 70 -1100 350/03 RMK AO2 T00610011
03949KAQV AQV20160101185011601/01/16 18:50:31  5-MIN KAQV 020050Z AUTO 36003KT 10SM CLR 06/01 A3042 -80 67 -1100 360/03 RMK AO2 SLP304 T00610006
03949KAQV AQV20160101185511601/01/16 18:55:31  5-MIN KAQV 020055Z AUTO 36004KT 10SM CLR 06/01 A3042 -80 67 -1100 350/04 RMK AO2 SLP303 T00610006
03949KAQV AQV20160102063011101/02/16 06:30:31  5-MIN KAQV 021230Z AUTO 00000KT 10SM CLR 04/02 A3038 -50 89 -1300 000/00 RMK AO2 T00390022 $
03949KAQV AQV20160102063511101/02/16 06:35:31  5-MIN KAQV 021235Z AUTO 33003KT 10SM CLR 04/02 A3039 -50 89 -1300 320/03 RMK AO2 T00390022 $
03949KAQV AQV20160102064011101/02/16 06:40:31  5-MIN KAQV 021240Z AUTO 00000KT 10SM CLR 04/02 A3039 -50 89 -1300 000/00 RMK AO2 T00390022 $
03949KAQV AQV20160102064511101/02/16 06:45:31  5-MIN KAQV 021245Z AUTO 00000KT 10SM CLR 04/02 A3039 -50 89 -1300 000/00 RMK AO2 T00390022 $
03949KAQV AQV20160102065011801/02/16 06:50:31  5-MIN KAQV 021250Z AUTO 00000KT 10SM CLR 04/02 A3038 -40 85 -1300 000/00 RMK AO2 SLP291 T00440022 $
03949KAQV AQV20160102065511801/02/16 06:55:31  5-MIN KAQV 021255Z AUTO 00000KT 10SM CLR 04/02 A3038 -40 85 -1200 000/00 RMK AO2 SLP291 T00440022 $
03949KAQV AQV20160102070011101/02/16 07:00:31  5-MIN KAQV 021300Z AUTO 00000KT 10SM CLR 04/02 A3039 -50 89 -1300 000/00 RMK AO2 T00390022 $
03949KAQV AQV20160102070511101/02/16 07:05:31  5-MIN KAQV 021305Z AUTO 00000KT 10SM CLR 04/02 A3039 -50 89 -1300 000/00 RMK AO2 T00390022 $
03949KAQV AQV20160102071011101/02/16 07:10:31  5-MIN KAQV 021310Z AUTO 00000KT 10SM CLR 04/02 A3039 -50 89 -1300 000/00 RMK AO2 T00390022 $
03949KAQV AQV20160102071511101/02/16 07:15:31  5-MIN KAQV 021315Z AUTO 00000KT 10SM CLR 04/02 A3039 -50 89 -1300 000/00 RMK AO2 T00390022 $
03949KAQV AQV20160102072011101/02/16 07:20:31  5-MIN KAQV 021320Z AUTO 00000KT 10SM CLR 04/03 A3039 -50 92 -1300 000/00 RMK AO2 T00390028 $
03949KAQV AQV20160102072511101/02/16 07:25:31  5-MIN KAQV 021325Z AUTO 00000KT 10SM CLR 04/02 A3039 -50 85 -1300 000/00 RMK AO2 T00440022 $
03949KAQV AQV20160102073011101/02/16 07:30:31  5-MIN KAQV 021330Z AUTO 01003KT 10SM CLR 04/02 A3039 -50 85 -1300 360/03 RMK AO2 T00440022 $
03949KAQV AQV20160102073511101/02/16 07:35:31  5-MIN KAQV 021335Z AUTO 00000KT 10SM CLR 04/02 A3039 -50 89 -1300 000/00 RMK AO2 T00390022 $
03949KAQV AQV20160102074011101/02/16 07:40:31  5-MIN KAQV 021340Z AUTO 00000KT 10SM CLR 04/02 A3039 -50 89 -1300 000/00 RMK AO2 T00390022 $
03949KAQV AQV20160102074511101/02/16 07:45:31  5-MIN KAQV 021345Z AUTO 00000KT 10SM CLR 04/02 A3039 -50 85 -1300 000/00 RMK AO2 T00440022 $
03949KAQV AQV20160102075011801/02/16 07:50:31  5-MIN KAQV 021350Z AUTO 00000KT 10SM CLR 04/02 A3039 -50 85 -1300 000/00 RMK AO2 SLP294 T00440022 $
03949KAQV AQV20160102075511801/02/16 07:55:31  5-MIN KAQV 021355Z AUTO 00000KT 10SM CLR 04/02 A3039 -50 85 -1300 000/00 RMK AO2 SLP293 T00440022 $
03949KAQV AQV20160102080011101/02/16 08:00:31  5-MIN KAQV 021400Z AUTO 00000KT 10SM CLR 04/02 A3040 -60 85 -1300 000/00 RMK AO2 T00440022 $
03949KAQV AQV20160102080511101/02/16 08:05:31  5-MIN KAQV 021405Z AUTO 00000KT 10SM CLR 04/02 A3040 -60 85 -1300 000/00 RMK AO2 T00440022 $
03949KAQV AQV20160102081011101/02/16 08:10:31  5-MIN KAQV 021410Z AUTO 00000KT 10SM CLR 04/02 A3040 -60 85 -1300 000/00 RMK AO2 T00440022 $
03949KAQV AQV20160102081511101/02/16 08:15:31  5-MIN KAQV 021415Z AUTO 00000KT 10SM CLR 04/03 A3040 -60 89 -1300 000/00 RMK AO2 T00440028 $
03949KAQV AQV20160102082011101/02/16 08:20:31  5-MIN KAQV 021420Z AUTO 36003KT 10SM CLR 04/03 A3040 -60 89 -1300 360/03 RMK AO2 T00440028 $
03949KAQV AQV20160102082511101/02/16 08:25:31  5-MIN KAQV 021425Z AUTO 00000KT 10SM CLR 04/03 A3040 -60 89 -1300 000/00 RMK AO2 T00440028 $
03949KAQV AQV20160102083011101/02/16 08:30:31  5-MIN KAQV 021430Z AUTO 36003KT 10SM CLR 05/03 A3040 -60 85 -1200 360/03 RMK AO2 T00500028 $
03949KAQV AQV20160102083511101/02/16 08:35:31  5-MIN KAQV 021435Z AUTO 35003KT 10SM CLR 05/03 A3041 -70 85 -1200 350/03 RMK AO2 T00500028 $
03949KAQV AQV20160102084011101/02/16 08:40:31  5-MIN KAQV 021440Z AUTO 36003KT 10SM CLR 05/03 A3040 -60 85 -1200 360/03 RMK AO2 T00500028 $
03949KAQV AQV20160102084511101/02/16 08:45:31  5-MIN KAQV 021445Z AUTO 02003KT 10SM CLR 05/02 A3040 -60 82 -1200 020/03 RMK AO2 T00500022 $
03949KAQV AQV20160102085012401/02/16 08:50:31  5-MIN KAQV 021450Z AUTO 36004KT 10SM CLR 05/03 A3040 -60 85 -1200 360/04 RMK AO2 SLP299 T00500028 58002 $
03949KAQV AQV20160102085512401/02/16 08:55:31  5-MIN KAQV 021455Z AUTO 00000KT 10SM CLR 06/03 A3041 -70 82 -1100 000/00 RMK AO2 SLP299 T00560028 58002 $
03949KAQV AQV20160102090011101/02/16 09:00:31  5-MIN KAQV 021500Z AUTO VRB03KT 10SM CLR 06/02 A3041 -70 79 -1100 VRB/03 RMK AO2 T00560022 $
03949KAQV AQV20160102090511101/02/16 09:05:31  5-MIN KAQV 021505Z AUTO 36005KT 10SM CLR 06/02 A3041 -70 79 -1100 350/05 RMK AO2 T00560022 $
03949KAQV AQV20160102091011101/02/16 09:10:31  5-MIN KAQV 021510Z AUTO 36003KT 10SM CLR 06/02 A3041 -70 76 -1100 360/03 RMK AO2 T00560017 $
03949KAQV AQV20160102091511101/02/16 09:15:31  5-MIN KAQV 021515Z AUTO 02004KT 10SM CLR 06/02 A3041 -70 79 -1100 020/04 RMK AO2 T00560022 $
03949KAQV AQV20160102092011101/02/16 09:20:31  5-MIN KAQV 021520Z AUTO VRB03KT 10SM CLR 06/02 A3042 -70 76 -1100 VRB/03 RMK AO2 T00610022 $
03949KAQV AQV20160102092511101/02/16 09:25:31  5-MIN KAQV 021525Z AUTO VRB03KT 10SM CLR 06/02 A3042 -80 73 -1100 VRB/03 RMK AO2 T00610017 $
03949KAQV AQV20160102093011101/02/16 09:30:31  5-MIN KAQV 021530Z AUTO 36005KT 10SM CLR 06/02 A3042 -70 73 -1100 360/05 RMK AO2 T00610017 $
03949KAQV AQV20160102093511101/02/16 09:35:31  5-MIN KAQV 021535Z AUTO 01005KT 10SM CLR 06/01 A3042 -70 70 -1100 360/05 RMK AO2 T00610011 $
03949KAQV AQV20160102094011101/02/16 09:40:31  5-MIN KAQV 021540Z AUTO VRB04KT 10SM CLR 06/01 A3041 -70 70 -1100 VRB/04 RMK AO2 T00610011 $
03949KAQV AQV20160102094511101/02/16 09:45:31  5-MIN KAQV 021545Z AUTO 36004KT 10SM CLR 06/01 A3042 -70 70 -1100 350/04 RMK AO2 T00610011 $
03949KAQV AQV20160102095011801/02/16 09:50:31  5-MIN KAQV 021550Z AUTO VRB04KT 10SM CLR 07/01 A3042 -70 67 -1000 VRB/04 RMK AO2 SLP302 T00670011 $
03949KAQV AQV20160102095511801/02/16 09:55:31  5-MIN KAQV 021555Z AUTO 01005KT 10SM CLR 07/01 A3042 -70 67 -1000 010/05 RMK AO2 SLP302 T00670011 $
03949KAQV AQV20160102100011101/02/16 10:00:31  5-MIN KAQV 021600Z AUTO 04005KT 10SM CLR 07/01 A3041 -70 65 -1000 040/05 RMK AO2 T00670006 $
03949KAQV AQV20160102100511101/02/16 10:05:31  5-MIN KAQV 021605Z AUTO VRB05KT 10SM CLR 07/01 A3041 -70 65 -1000 VRB/05 RMK AO2 T00670006 $
03949KAQV AQV20160102101011001/02/16 10:10:31  5-MIN KAQV 021610Z AUTO 03005KT 10SM CLR 07/01 A3041 -70 65 -900 030/05 RMK AO2 T00720011 $
03949KAQV AQV20160102101511001/02/16 10:15:31  5-MIN KAQV 021615Z AUTO 01006KT 10SM CLR 07/01 A3041 -60 62 -900 360/06 RMK AO2 T00720006 $
03949KAQV AQV20160102102011001/02/16 10:20:31  5-MIN KAQV 021620Z AUTO 02006KT 10SM CLR 07/01 A3040 -60 62 -900 010/06 RMK AO2 T00720006 $
03949KAQV AQV20160102102511001/02/16 10:25:31  5-MIN KAQV 021625Z AUTO 02005KT 10SM CLR 07/01 A3040 -60 62 -900 020/05 RMK AO2 T00720006 $
03949KAQV AQV20160102103011001/02/16 10:30:31  5-MIN KAQV 021630Z AUTO 03004KT 10SM CLR 08/01 A3040 -60 60 -900 020/04 RMK AO2 T00780006 $
03949KAQV AQV20160102103511001/02/16 10:35:31  5-MIN KAQV 021635Z AUTO VRB06KT 10SM CLR 08/01 A3040 -60 60 -900 VRB/06 RMK AO2 T00780006 $
03949KAQV AQV20160102104011001/02/16 10:40:31  5-MIN KAQV 021640Z AUTO 03005KT 10SM CLR 08/01 A3039 -50 60 -900 030/05 RMK AO2 T00780006 $
03949KAQV AQV20160102104511001/02/16 10:45:31  5-MIN KAQV 021645Z AUTO 04005KT 10SM CLR 08/00 A3039 -50 58 -900 040/05 RMK AO2 T00780000 $
03949KAQV AQV20160102105011701/02/16 10:50:31  5-MIN KAQV 021650Z AUTO 01005KT 10SM CLR 08/01 A3040 -60 60 -900 010/05 RMK AO2 SLP295 T00780006 $
03949KAQV AQV20160102105511701/02/16 10:55:31  5-MIN KAQV 021655Z AUTO 01003KT 10SM CLR 08/01 A3040 -60 58 -800 360/03 RMK AO2 SLP294 T00830006 $
03949KAQV AQV20160102110011001/02/16 11:00:31  5-MIN KAQV 021700Z AUTO 01003KT 10SM CLR 08/01 A3040 -60 58 -800 360/03 RMK AO2 T00830006 $
03949KAQV AQV20160102110511301/02/16 11:05:31  5-MIN KAQV 021705Z AUTO VRB04KT 10SM FEW120 08/01 A3040 -60 58 -800 VRB/04 RMK AO2 T00830006 $
03949KAQV AQV20160102111011301/02/16 11:10:31  5-MIN KAQV 021710Z AUTO 02004KT 10SM SCT120 08/01 A3040 -60 58 -800 010/04 RMK AO2 T00830006 $
03949KAQV AQV20160102111511301/02/16 11:15:31  5-MIN KAQV 021715Z AUTO 35004KT 10SM BKN110 08/00 A3039 -50 55 -800 350/04 RMK AO2 T00830000 $
03949KAQV AQV20160102112011301/02/16 11:20:31  5-MIN KAQV 021720Z AUTO 02003KT 10SM BKN110 08/00 A3040 -60 55 -800 010/03 RMK AO2 T00830000 $
03949KAQV AQV20160102112511301/02/16 11:25:31  5-MIN KAQV 021725Z AUTO 01004KT 10SM BKN110 08/00 A3039 -50 55 -800 010/04 RMK AO2 T00830000 $
03949KAQV AQV20160102113011301/02/16 11:30:31  5-MIN KAQV 021730Z AUTO 04003KT 10SM BKN110 08/00 A3039 -50 55 -800 040/03 RMK AO2 T00830000 $
03949KAQV AQV20160102113511301/02/16 11:35:31  5-MIN KAQV 021735Z AUTO 36005KT 10SM BKN110 09/00 A3038 -40 53 -700 360/05 RMK AO2 T00890000 $
03949KAQV AQV20160102114011301/02/16 11:40:31  5-MIN KAQV 021740Z AUTO 00000KT 10SM BKN110 09/01 A3038 -40 56 -700 000/00 RMK AO2 T00890006 $
03949KAQV AQV20160102114511301/02/16 11:45:31  5-MIN KAQV 021745Z AUTO VRB03KT 10SM BKN110 08/00 A3039 -50 55 -800 VRB/03 RMK AO2 T00830000 $
03949KAQV AQV20160102115013801/02/16 11:50:31  5-MIN KAQV 021750Z AUTO 00000KT 10SM BKN110 09/00 A3038 -40 53 -700 000/00 RMK AO2 SLP290 T00890000 10089 20039 53010 $
03949KAQV AQV20160102115513801/02/16 11:55:31  5-MIN KAQV 021755Z AUTO 05003KT 10SM BKN110 09/00 A3038 -40 53 -700 050/03 RMK AO2 SLP289 T00890000 10089 20039 53010 $
03949KAQV AQV20160102120011401/02/16 12:00:31  5-MIN KAQV 021800Z AUTO 32003KT 10SM BKN110 09/M01 A3037 -40 51 -700 320/03 RMK AO2 T00891006 $
03949KAQV AQV20160102120511301/02/16 12:05:31  5-MIN KAQV 021805Z AUTO 03004KT 10SM BKN110 09/00 A3037 -30 53 -700 030/04 RMK AO2 T00890000 $
03949KAQV AQV20160102121011301/02/16 12:10:31  5-MIN KAQV 021810Z AUTO VRB03KT 10SM OVC110 08/00 A3036 -20 55 -700 VRB/03 RMK AO2 T00830000 $
03949KAQV AQV20160102121512101/02/16 12:15:31  5-MIN KAQV 021815Z AUTO 00000KT 10SM BKN110 08/M01 A3035 -20 53 -700 000/00 RMK AO2 PRESFR T00831006 $
03949KAQV AQV20160102122012101/02/16 12:20:31  5-MIN KAQV 021820Z AUTO VRB03KT 10SM BKN110 08/M01 A3035 -10 53 -700 VRB/03 RMK AO2 PRESFR T00831006 $
03949KAQV AQV20160102122511401/02/16 12:25:31  5-MIN KAQV 021825Z AUTO VRB04KT 10SM BKN110 09/M01 A3034 -10 51 -700 VRB/04 RMK AO2 T00891006 $
03949KAQV AQV20160102123011401/02/16 12:30:31  5-MIN KAQV 021830Z AUTO 00000KT 10SM BKN110 08/M01 A3034 -10 53 -700 000/00 RMK AO2 T00831006 $
03949KAQV AQV20160102123511201/02/16 12:35:31  5-MIN KAQV 021835Z AUTO VRB04KT 10SM BKN110 08/M01 A3034 0 51 -700 VRB/04 RMK AO2 T00831011 $
03949KAQV AQV20160102124011201/02/16 12:40:31  5-MIN KAQV 021840Z AUTO 36004KT 10SM BKN110 09/M01 A3033 0 51 -600 360/04 RMK AO2 T00891006 $
03949KAQV AQV20160102124511201/02/16 12:45:31  5-MIN KAQV 021845Z AUTO 02004KT 10SM BKN120 09/M01 A3033 0 51 -600 020/04 RMK AO2 T00891006 $
03949KAQV AQV20160102125011901/02/16 12:50:31  5-MIN KAQV 021850Z AUTO 00000KT 10SM OVC110 09/M01 A3033 0 51 -600 000/00 RMK AO2 SLP271 T00891006 $
03949KAQV AQV20160102125512001/02/16 12:55:31  5-MIN KAQV 021855Z AUTO 00000KT 10SM OVC110 09/M01 A3032 10 51 -600 000/00 RMK AO2 SLP268 T00891006 $
03949KAQV AQV20160102130011201/02/16 13:00:31  5-MIN KAQV 021900Z AUTO VRB03KT 10SM OVC110 09/00 A3032 10 53 -600 VRB/03 RMK AO2 T00890000 $
03949KAQV AQV20160102130511201/02/16 13:05:31  5-MIN KAQV 021905Z AUTO 00000KT 10SM OVC110 09/00 A3032 10 53 -600 000/00 RMK AO2 T00890000 $
03949KAQV AQV20160102131011201/02/16 13:10:31  5-MIN KAQV 021910Z AUTO 00000KT 10SM OVC110 09/00 A3031 20 53 -600 000/00 RMK AO2 T00890000 $
03949KAQV AQV20160102174011201/02/16 17:40:31  5-MIN KAQV 022340Z AUTO 00000KT 10SM OVC070 08/02 A3029 40 68 -700 000/00 RMK AO2 T00780022 $
03949KAQV AQV20160102174511201/02/16 17:45:31  5-MIN KAQV 022345Z AUTO 00000KT 10SM OVC070 08/02 A3029 40 68 -700 000/00 RMK AO2 T00780022 $
03949KAQV AQV20160102175014301/02/16 17:50:31  5-MIN KAQV 022350Z AUTO 00000KT 10SM OVC070 08/03 A3029 40 70 -700 000/00 RMK AO2 SLP259 60000 T00780028 10094 20078 56028 $
03949KAQV AQV20160102175514301/02/16 17:55:31  5-MIN KAQV 022355Z AUTO 00000KT 10SM OVC070 07/03 A3029 40 73 -800 000/00 RMK AO2 SLP259 60000 T00720028 10094 20072 56028 $
03949KAQV AQV20160102180011201/02/16 18:00:31  5-MIN KAQV 030000Z AUTO 00000KT 10SM OVC070 08/02 A3029 40 68 -700 000/00 RMK AO2 T00780022 $
03949KAQV AQV20160102180511201/02/16 18:05:31  5-MIN KAQV 030005Z AUTO 01003KT 10SM OVC070 08/02 A3028 40 68 -700 360/03 RMK AO2 T00780022 $
03949KAQV AQV20160102181011201/02/16 18:10:31  5-MIN KAQV 030010Z AUTO 00000KT 10SM OVC070 08/03 A3029 40 70 -700 000/00 RMK AO2 T00780028 $
03949KAQV AQV20160102181511201/02/16 18:15:31  5-MIN KAQV 030015Z AUTO 00000KT 10SM OVC070 07/02 A3029 30 70 -800 000/00 RMK AO2 T00720022 $
03949KAQV AQV20160102182011201/02/16 18:20:31  5-MIN KAQV 030020Z AUTO 00000KT 10SM OVC070 08/02 A3029 40 68 -700 000/00 RMK AO2 T00780022 $
03949KAQV AQV20160102182511201/02/16 18:25:31  5-MIN KAQV 030025Z AUTO 00000KT 10SM OVC070 07/02 A3029 40 70 -800 000/00 RMK AO2 T00720022 $
03949KAQV AQV20160102183011201/02/16 18:30:31  5-MIN KAQV 030030Z AUTO 00000KT 10SM OVC070 07/02 A3029 40 70 -800 000/00 RMK AO2 T00720022 $
03949KAQV AQV20160102183511201/02/16 18:35:31  5-MIN KAQV 030035Z AUTO 00000KT 10SM OVC070 07/02 A3029 40 70 -800 000/00 RMK AO2 T00720022 $
03949KAQV AQV20160102184011201/02/16 18:40:31  5-MIN KAQV 030040Z AUTO 00000KT 10SM OVC070 07/02 A3029 40 70 -800 000/00 RMK AO2 T00720022 $
03949KAQV AQV20160102184511201/02/16 18:45:31  5-MIN KAQV 030045Z AUTO 00000KT 10SM OVC070 07/02 A3028 40 70 -800 000/00 RMK AO2 T00720022 $
03949KAQV AQV20160102185011901/02/16 18:50:31  5-MIN KAQV 030050Z AUTO 00000KT 10SM OVC070 07/02 A3029 40 70 -800 000/00 RMK AO2 SLP259 T00720022 $
03949KAQV AQV20160102185511901/02/16 18:55:31  5-MIN KAQV 030055Z AUTO 00000KT 10SM OVC070 08/02 A3029 40 68 -700 000/00 RMK AO2 SLP259 T00780022 $
03949KAQV AQV20160102190011201/02/16 19:00:31  5-MIN KAQV 030100Z AUTO 00000KT 10SM OVC075 07/02 A3028 40 70 -800 000/00 RMK AO2 T00720022 $
03949KAQV AQV20160102190511201/02/16 19:05:31  5-MIN KAQV 030105Z AUTO 00000KT 10SM OVC070 07/02 A3028 40 70 -800 000/00 RMK AO2 T00720022 $
03949KAQV AQV20160102191011201/02/16 19:10:31  5-MIN KAQV 030110Z AUTO 00000KT 10SM OVC075 07/02 A3028 40 70 -800 000/00 RMK AO2 T00720022 $
03949KAQV AQV20160102191511201/02/16 19:15:31  5-MIN KAQV 030115Z AUTO 00000KT 10SM OVC075 07/02 A3028 40 70 -800 000/00 RMK AO2 T00720022 $
03949KAQV AQV20160102192011201/02/16 19:20:31  5-MIN KAQV 030120Z AUTO 00000KT 10SM OVC075 07/02 A3028 40 68 -800 000/00 RMK AO2 T00720017 $
03949KAQV AQV20160102192511201/02/16 19:25:31  5-MIN KAQV 030125Z AUTO 00000KT 10SM OVC075 07/02 A3028 40 70 -800 000/00 RMK AO2 T00720022 $
03949KAQV AQV20160102193011201/02/16 19:30:31  5-MIN KAQV 030130Z AUTO 00000KT 10SM OVC070 07/02 A3028 40 70 -800 000/00 RMK AO2 T00720022 $
03949KAQV AQV20160102193511201/02/16 19:35:31  5-MIN KAQV 030135Z AUTO 00000KT 10SM OVC075 07/02 A3028 40 70 -800 000/00 RMK AO2 T00720022 $
03949KAQV AQV20160102194011201/02/16 19:40:31  5-MIN KAQV 030140Z AUTO 00000KT 10SM OVC070 07/02 A3028 40 70 -800 000/00 RMK AO2 T00720022 $
03949KAQV AQV20160102194511201/02/16 19:45:31  5-MIN KAQV 030145Z AUTO 00000KT 10SM OVC070 07/02 A3028 40 70 -800 000/00 RMK AO2 T00720022 $
03949KAQV AQV20160102195011901/02/16 19:50:31  5-MIN KAQV 030150Z AUTO 00000KT 10SM OVC070 07/03 A3028 40 73 -800 000/00 RMK AO2 SLP257 T00720028 $
03949KAQV AQV20160102195511901/02/16 19:55:31  5-MIN KAQV 030155Z AUTO 00000KT 10SM OVC070 07/03 A3028 40 73 -800 000/00 RMK AO2 SLP257 T00720028 $
03949KAQV AQV20160102200011201/02/16 20:00:31  5-MIN KAQV 030200Z AUTO 00000KT 10SM OVC070 07/03 A3028 50 73 -800 000/00 RMK AO2 T00720028 $
03949KAQV AQV20160102200511201/02/16 20:05:31  5-MIN KAQV 030205Z AUTO 00000KT 10SM OVC070 07/03 A3028 50 73 -800 000/00 RMK AO2 T00720028 $
03949KAQV AQV20160102201011201/02/16 20:10:31  5-MIN KAQV 030210Z AUTO 00000KT 10SM OVC070 07/03 A3028 50 73 -800 000/00 RMK AO2 T00720028 $
03949KAQV AQV20160102201511201/02/16 20:15:31  5-MIN KAQV 030215Z AUTO 00000KT 10SM OVC070 07/03 A3028 50 73 -800 000/00 RMK AO2 T00720028 $
03949KAQV AQV20160102202011201/02/16 20:20:31  5-MIN KAQV 030220Z AUTO 00000KT 10SM OVC070 07/03 A3028 50 73 -800 000/00 RMK AO2 T00720028 $
03949KAQV AQV20160102202511201/02/16 20:25:31  5-MIN KAQV 030225Z AUTO 00000KT 10SM OVC070 07/03 A3028 50 73 -800 000/00 RMK AO2 T00720028 $
03949KAQV AQV20160102203011201/02/16 20:30:31  5-MIN KAQV 030230Z AUTO 00000KT 10SM OVC070 07/03 A3028 50 76 -800 000/00 RMK AO2 T00720033 $
03949KAQV AQV20160102203511201/02/16 20:35:31  5-MIN KAQV 030235Z AUTO 00000KT 10SM OVC070 07/03 A3028 50 76 -800 000/00 RMK AO2 T00720033 $
03949KAQV AQV20160102204011201/02/16 20:40:31  5-MIN KAQV 030240Z AUTO 00000KT 10SM OVC070 07/03 A3028 50 73 -800 000/00 RMK AO2 T00720028 $
03949KAQV AQV20160102204511201/02/16 20:45:31  5-MIN KAQV 030245Z AUTO 00000KT 10SM OVC070 07/03 A3028 40 76 -800 000/00 RMK AO2 T00720033 $
03949KAQV AQV20160102205012501/02/16 20:50:31  5-MIN KAQV 030250Z AUTO 00000KT 10SM OVC070 07/03 A3028 40 76 -800 000/00 RMK AO2 SLP257 T00720033 58002 $
03949KAQV AQV20160102205512501/02/16 20:55:31  5-MIN KAQV 030255Z AUTO 00000KT 10SM OVC070 07/03 A3028 40 76 -800 000/00 RMK AO2 SLP256 T00720033 58002 $
03949KAQV AQV20160102210011201/02/16 21:00:31  5-MIN KAQV 030300Z AUTO 00000KT 10SM OVC070 07/03 A3028 40 76 -800 000/00 RMK AO2 T00720033 $
03949KAQV AQV20160102210511201/02/16 21:05:31  5-MIN KAQV 030305Z AUTO 00000KT 10SM OVC070 07/03 A3028 50 76 -800 000/00 RMK AO2 T00720033 $
03949KAQV AQV20160102211011201/02/16 21:10:31  5-MIN KAQV 030310Z AUTO 00000KT 10SM OVC070 07/03 A3028 50 76 -800 000/00 RMK AO2 T00720033 $
03949KAQV AQV20160102211511201/02/16 21:15:31  5-MIN KAQV 030315Z AUTO 00000KT 10SM OVC070 07/03 A3027 50 76 -800 000/00 RMK AO2 T00720033 $
03949KAQV AQV20160102212011201/02/16 21:20:31  5-MIN KAQV 030320Z AUTO 00000KT 10SM OVC070 07/03 A3028 50 76 -800 000/00 RMK AO2 T00720033 $
03949KAQV AQV20160102212511201/02/16 21:25:31  5-MIN KAQV 030325Z AUTO 00000KT 10SM OVC070 07/03 A3028 50 76 -800 000/00 RMK AO2 T00720033 $
03949KAQV AQV20160102213011201/02/16 21:30:31  5-MIN KAQV 030330Z AUTO 00000KT 10SM OVC070 07/03 A3028 40 76 -800 000/00 RMK AO2 T00720033 $
03949KAQV AQV20160102213511201/02/16 21:35:31  5-MIN KAQV 030335Z AUTO 00000KT 10SM OVC070 07/03 A3028 40 76 -800 000/00 RMK AO2 T00720033 $
03949KAQV AQV20160102214011201/02/16 21:40:31  5-MIN KAQV 030340Z AUTO 00000KT 10SM OVC070 07/03 A3028 40 76 -800 000/00 RMK AO2 T00720033 $
03949KAQV AQV20160102214511201/02/16 21:45:31  5-MIN KAQV 030345Z AUTO 00000KT 10SM OVC070 07/03 A3028 40 76 -800 000/00 RMK AO2 T00720033 $
03949KAQV AQV20160102215011901/02/16 21:50:31  5-MIN KAQV 030350Z AUTO 00000KT 10SM OVC070 07/03 A3028 50 76 -800 000/00 RMK AO2 SLP254 T00720033 $
03949KAQV AQV20160102215511901/02/16 21:55:31  5-MIN KAQV 030355Z AUTO 00000KT 10SM OVC070 07/03 A3027 50 76 -800 000/00 RMK AO2 SLP253 T00720033 $
03949KAQV AQV20160102220011901/02/16 22:00:31  5-MIN KAQV 030400Z AUTO 00000KT 10SM BKN070 OVC095 07/03 A3027 50 76 -800 000/00 RMK AO2 T00720033 $
03949KAQV AQV20160102220511901/02/16 22:05:31  5-MIN KAQV 030405Z AUTO 00000KT 10SM BKN070 OVC100 07/03 A3027 50 76 -800 000/00 RMK AO2 T00720033 $
03949KAQV AQV20160102221011901/02/16 22:10:31  5-MIN KAQV 030410Z AUTO 00000KT 10SM BKN070 OVC100 07/03 A3028 50 76 -800 000/00 RMK AO2 T00720033 $
03949KAQV AQV20160102221511901/02/16 22:15:31  5-MIN KAQV 030415Z AUTO 00000KT 10SM BKN070 OVC100 07/03 A3028 50 76 -800 000/00 RMK AO2 T00720033 $
03949KAQV AQV20160102222011901/02/16 22:20:31  5-MIN KAQV 030420Z AUTO 00000KT 10SM BKN070 OVC100 07/03 A3028 50 79 -900 000/00 RMK AO2 T00670033 $
03949KAQV AQV20160102222511901/02/16 22:25:31  5-MIN KAQV 030425Z AUTO 00000KT 10SM BKN070 OVC100 07/03 A3028 50 76 -800 000/00 RMK AO2 T00720033 $
03949KAQV AQV20160102223011201/02/16 22:30:31  5-MIN KAQV 030430Z AUTO 00000KT 10SM OVC070 07/03 A3028 50 79 -900 000/00 RMK AO2 T00670033 $
03949KAQV AQV20160102223511201/02/16 22:35:31  5-MIN KAQV 030435Z AUTO 00000KT 10SM OVC070 07/03 A3028 50 79 -900 000/00 RMK AO2 T00670033 $
03949KAQV AQV20160102224011201/02/16 22:40:31  5-MIN KAQV 030440Z AUTO 00000KT 10SM OVC070 07/03 A3028 50 79 -900 000/00 RMK AO2 T00670033 $
03949KAQV AQV20160102224511201/02/16 22:45:31  5-MIN KAQV 030445Z AUTO 00000KT 10SM OVC070 07/03 A3028 40 76 -800 000/00 RMK AO2 T00720033 $
03949KAQV AQV20160102225011901/02/16 22:50:31  5-MIN KAQV 030450Z AUTO 00000KT 10SM OVC070 07/03 A3028 50 76 -800 000/00 RMK AO2 SLP255 T00720033 $
03949KAQV AQV20160102225511901/02/16 22:55:31  5-MIN KAQV 030455Z AUTO 00000KT 10SM OVC070 07/03 A3028 50 76 -800 000/00 RMK AO2 SLP255 T00720033 $
03949KAQV AQV20160102230011901/02/16 23:00:31  5-MIN KAQV 030500Z AUTO 00000KT 10SM BKN065 OVC090 07/03 A3027 50 76 -800 000/00 RMK AO2 T00720033 $
03949KAQV AQV20160102230511901/02/16 23:05:31  5-MIN KAQV 030505Z AUTO 00000KT 10SM BKN070 OVC100 07/03 A3026 60 76 -800 000/00 RMK AO2 T00720033 $
03949KAQV AQV20160102231013301/02/16 23:10:31  5-MIN KAQV 030510Z AUTO 00000KT 10SM SCT065 BKN090 BKN110 07/03 A3025 70 76 -800 000/00 RMK AO2 PRESFR T00720033 $
03949KAQV AQV20160102231513301/02/16 23:15:31  5-MIN KAQV 030515Z AUTO 00000KT 10SM SCT065 SCT090 BKN110 07/03 A3024 80 79 -800 000/00 RMK AO2 PRESFR T00670033 $
03949KAQV AQV20160102232012601/02/16 23:20:31  5-MIN KAQV 030520Z AUTO 00000KT 10SM FEW070 SCT090 SCT110 07/03 A3025 70 79 -800 000/00 RMK AO2 T00670033 $
03949KAQV AQV20160102232511201/02/16 23:25:31  5-MIN KAQV 030525Z AUTO 00000KT 10SM FEW100 07/03 A3026 60 79 -800 000/00 RMK AO2 T00670033 $
03949KAQV AQV20160102233011201/02/16 23:30:31  5-MIN KAQV 030530Z AUTO 00000KT 10SM FEW110 07/03 A3026 60 79 -800 000/00 RMK AO2 T00670033 $
03949KAQV AQV20160102233511201/02/16 23:35:31  5-MIN KAQV 030535Z AUTO 00000KT 10SM SCT110 07/03 A3026 60 79 -800 000/00 RMK AO2 T00670033 $
03949KAQV AQV20160102234011201/02/16 23:40:31  5-MIN KAQV 030540Z AUTO 00000KT 10SM SCT100 07/03 A3025 70 79 -800 000/00 RMK AO2 T00670033 $
03949KAQV AQV20160102234511901/02/16 23:45:31  5-MIN KAQV 030545Z AUTO 00000KT 10SM FEW080 BKN100 07/03 A3024 80 79 -800 000/00 RMK AO2 T00670033 $
03949KAQV AQV20160102235015401/02/16 23:50:31  5-MIN KAQV 030550Z AUTO 00000KT 10SM SCT080 BKN100 07/03 A3024 80 79 -800 000/00 RMK AO2 SLP243 T00670033 10078 20067 400940039 55003 $
03949KAQV AQV20160102235515401/02/16 23:55:31  5-MIN KAQV 030555Z AUTO 00000KT 10SM FEW080 OVC100 07/03 A3025 70 79 -800 000/00 RMK AO2 SLP244 T00670033 10078 20067 400940039 55003 $
03949KAQV AQV20160103000011901/03/16 00:00:31  5-MIN KAQV 030600Z AUTO 00000KT 10SM FEW080 OVC100 07/04 A3025 70 82 -800 000/00 RMK AO2 T00670039 $
03949KAQV AQV20160103000511901/03/16 00:05:31  5-MIN KAQV 030605Z AUTO 00000KT 10SM FEW080 BKN100 07/03 A3025 80 79 -800 000/00 RMK AO2 T00670033 $
03949KAQV AQV20160103001012601/03/16 00:10:31  5-MIN KAQV 030610Z AUTO 00000KT 10SM FEW070 SCT090 BKN110 07/04 A3025 80 82 -800 000/00 RMK AO2 T00670039 $
03949KAQV AQV20160103001511901/03/16 00:15:31  5-MIN KAQV 030615Z AUTO 00000KT 10SM SCT100 SCT110 07/04 A3024 80 82 -800 000/00 RMK AO2 T00670039 $
03949KAQV AQV20160103002011901/03/16 00:20:31  5-MIN KAQV 030620Z AUTO 00000KT 10SM SCT100 BKN120 07/04 A3024 80 82 -800 000/00 RMK AO2 T00670039 $
03949KAQV AQV20160103002511901/03/16 00:25:31  5-MIN KAQV 030625Z AUTO 00000KT 10SM SCT100 BKN120 07/04 A3025 70 82 -800 000/00 RMK AO2 T00670039 $
03949KAQV AQV20160103003011901/03/16 00:30:31  5-MIN KAQV 030630Z AUTO 00000KT 10SM SCT095 BKN120 07/04 A3024 80 82 -800 000/00 RMK AO2 T00670039 $
03949KAQV AQV20160103003513501/03/16 00:35:31  5-MIN KAQV 030635Z AUTO 00000KT 10SM -RA BKN095 BKN120 07/04 A3024 90 82 -800 000/00 RMK AO2 RAB33 P0000 T00670039 $
03949KAQV AQV20160103004007401/03/16 00:40:31  5-MIN KAQV 030640Z AUTO 00000KT 10SM -RA BKN090 BKN120 
03949KAQV AQV20160103004013501/03/16 00:40:31  5-MIN KAQV 030640Z AUTO 00000KT 10SM -RA BKN090 BKN120 06/04 A3024 90 86 -900 000/00 RMK AO2 RAB33 P0000 T00610039 $
03949KAQV AQV20160103004513401/03/16 00:45:31  5-MIN KAQV 030645Z AUTO 00000KT 10SM BKN090 BKN120 06/04 A3024 90 86 -900 000/00 RMK AO2 RAB33E42 P0000 T00610039 $
03949KAQV AQV20160103005014101/03/16 00:50:31  5-MIN KAQV 030650Z AUTO 00000KT 10SM SCT095 BKN120 06/03 A3023 90 82 -900 000/00 RMK AO2 RAB33E42 SLP240 P0000 T00610033 $
03949KAQV AQV20160103005514101/03/16 00:55:31  5-MIN KAQV 030655Z AUTO 00000KT 10SM BKN095 BKN120 06/04 A3023 90 86 -900 000/00 RMK AO2 RAB33E42 SLP240 P0000 T00610039 $
03949KAQV AQV20160103010011901/03/16 01:00:31  5-MIN KAQV 030700Z AUTO 00000KT 10SM BKN095 BKN120 06/03 A3024 80 82 -900 000/00 RMK AO2 T00610033 $
03949KAQV AQV20160103010511901/03/16 01:05:31  5-MIN KAQV 030705Z AUTO 00000KT 10SM SCT100 BKN120 06/04 A3024 90 86 -900 000/00 RMK AO2 T00610039 $
03949KAQV AQV20160103011011901/03/16 01:10:31  5-MIN KAQV 030710Z AUTO 00000KT 10SM SCT100 SCT120 06/03 A3023 90 82 -900 000/00 RMK AO2 T00610033 $
03949KAQV AQV20160103011511901/03/16 01:15:31  5-MIN KAQV 030715Z AUTO 00000KT 10SM FEW100 SCT120 06/03 A3023 90 82 -900 000/00 RMK AO2 T00610033 $
03949KAQV AQV20160103012011901/03/16 01:20:31  5-MIN KAQV 030720Z AUTO 00000KT 10SM FEW095 SCT120 07/03 A3023 90 79 -800 000/00 RMK AO2 T00670033 $
03949KAQV AQV20160103012511901/03/16 01:25:31  5-MIN KAQV 030725Z AUTO 00000KT 10SM FEW100 FEW120 07/03 A3023 90 79 -800 000/00 RMK AO2 T00670033 $
03949KAQV AQV20160103013010901/03/16 01:30:31  5-MIN KAQV 030730Z AUTO 00000KT 10SM CLR 06/03 A3023 90 82 -900 000/00 RMK AO2 T00610033 $
03949KAQV AQV20160103013510901/03/16 01:35:31  5-MIN KAQV 030735Z AUTO 00000KT 10SM CLR 06/03 A3023 90 82 -900 000/00 RMK AO2 T00610033 $
03949KAQV AQV20160103014011201/03/16 01:40:31  5-MIN KAQV 030740Z AUTO 00000KT 10SM FEW090 06/03 A3023 90 82 -900 000/00 RMK AO2 T00610033 $
03949KAQV AQV20160103014511201/03/16 01:45:31  5-MIN KAQV 030745Z AUTO 00000KT 10SM SCT090 06/03 A3023 90 79 -900 000/00 RMK AO2 T00610028 $
03949KAQV AQV20160103015011901/03/16 01:50:31  5-MIN KAQV 030750Z AUTO 00000KT 10SM SCT095 06/03 A3023 90 82 -900 000/00 RMK AO2 SLP240 T00610033 $
03949KAQV AQV20160103015512601/03/16 01:55:31  5-MIN KAQV 030755Z AUTO 00000KT 10SM FEW065 BKN095 06/03 A3024 90 79 -900 000/00 RMK AO2 SLP240 T00610028 $
03949KAQV AQV20160103020011901/03/16 02:00:31  5-MIN KAQV 030800Z AUTO VRB03KT 10SM SCT065 BKN095 06/03 A3023 90 79 -900 VRB/03 RMK AO2 T00610028 $
03949KAQV AQV20160103020511901/03/16 02:05:31  5-MIN KAQV 030805Z AUTO 34003KT 10SM SCT065 BKN095 06/03 A3023 90 79 -900 330/03 RMK AO2 T00610028 $
03949KAQV AQV20160103021011901/03/16 02:10:31  5-MIN KAQV 030810Z AUTO 00000KT 10SM BKN060 BKN095 06/03 A3023 90 79 -900 000/00 RMK AO2 T00610028 $
03949KAQV AQV20160103021511901/03/16 02:15:31  5-MIN KAQV 030815Z AUTO 00000KT 10SM BKN060 BKN095 06/03 A3023 90 79 -900 000/00 RMK AO2 T00610028 $
03949KAQV AQV20160103022011201/03/16 02:20:31  5-MIN KAQV 030820Z AUTO 00000KT 10SM OVC060 06/02 A3024 90 76 -900 000/00 RMK AO2 T00610022 $
03949KAQV AQV20160103022511201/03/16 02:25:31  5-MIN KAQV 030825Z AUTO 00000KT 10SM OVC065 07/03 A3024 90 76 -800 000/00 RMK AO2 T00670028 $
03949KAQV AQV20160103023011201/03/16 02:30:31  5-MIN KAQV 030830Z AUTO 00000KT 10SM OVC060 07/02 A3023 90 73 -800 000/00 RMK AO2 T00670022 $
03949KAQV AQV20160103023511301/03/16 02:35:31  5-MIN KAQV 030835Z AUTO VRB03KT 10SM OVC060 07/02 A3022 100 73 -800 VRB/03 RMK AO2 T00670022 $
03949KAQV AQV20160103024011201/03/16 02:40:31  5-MIN KAQV 030840Z AUTO VRB03KT 10SM OVC060 07/02 A3023 90 73 -800 VRB/03 RMK AO2 T00670022 $
03949KAQV AQV20160103024511301/03/16 02:45:31  5-MIN KAQV 030845Z AUTO 00000KT 10SM OVC060 07/02 A3022 100 73 -800 000/00 RMK AO2 T00670022 $
03949KAQV AQV20160103025013201/03/16 02:50:31  5-MIN KAQV 030850Z AUTO 00000KT 10SM BKN060 07/02 A3022 100 73 -800 000/00 RMK AO2 SLP235 60000 T00670022 58011 $
03949KAQV AQV20160103025513201/03/16 02:55:31  5-MIN KAQV 030855Z AUTO 00000KT 10SM BKN060 07/02 A3022 100 73 -800 000/00 RMK AO2 SLP234 60000 T00670022 58011 $
03949KAQV AQV20160103030011301/03/16 03:00:31  5-MIN KAQV 030900Z AUTO 00000KT 10SM BKN060 07/02 A3022 100 70 -800 000/00 RMK AO2 T00670017 $
03949KAQV AQV20160103030511301/03/16 03:05:31  5-MIN KAQV 030905Z AUTO 00000KT 10SM BKN060 06/02 A3022 100 73 -900 000/00 RMK AO2 T00610017 $
03949KAQV AQV20160103031011301/03/16 03:10:31  5-MIN KAQV 030910Z AUTO 00000KT 10SM BKN060 06/02 A3022 100 76 -900 000/00 RMK AO2 T00610022 $
03949KAQV AQV20160103031511301/03/16 03:15:31  5-MIN KAQV 030915Z AUTO 00000KT 10SM BKN060 06/02 A3022 100 76 -900 000/00 RMK AO2 T00610022 $
03949KAQV AQV20160103032011301/03/16 03:20:31  5-MIN KAQV 030920Z AUTO 00000KT 10SM OVC060 06/02 A3022 100 76 -900 000/00 RMK AO2 T00610022 $
03949KAQV AQV20160103032511301/03/16 03:25:31  5-MIN KAQV 030925Z AUTO 00000KT 10SM OVC060 06/02 A3022 100 76 -900 000/00 RMK AO2 T00610022 $
03949KAQV AQV20160103033011301/03/16 03:30:31  5-MIN KAQV 030930Z AUTO 00000KT 10SM OVC065 06/02 A3022 100 76 -900 000/00 RMK AO2 T00610022 $
03949KAQV AQV20160103033511301/03/16 03:35:31  5-MIN KAQV 030935Z AUTO 00000KT 10SM OVC065 06/03 A3022 100 79 -900 000/00 RMK AO2 T00610028 $
03949KAQV AQV20160103034011301/03/16 03:40:31  5-MIN KAQV 030940Z AUTO 00000KT 10SM OVC065 06/02 A3022 100 76 -900 000/00 RMK AO2 T00610022 $
03949KAQV AQV20160103034511301/03/16 03:45:31  5-MIN KAQV 030945Z AUTO 00000KT 10SM OVC065 06/02 A3022 100 76 -900 000/00 RMK AO2 T00610022 $
03949KAQV AQV20160103035012001/03/16 03:50:31  5-MIN KAQV 030950Z AUTO 00000KT 10SM OVC065 06/02 A3022 100 76 -900 000/00 RMK AO2 SLP235 T00610022 $
03949KAQV AQV20160103035512001/03/16 03:55:31  5-MIN KAQV 030955Z AUTO 00000KT 10SM OVC065 07/03 A3022 100 76 -800 000/00 RMK AO2 SLP235 T00670028 $
03949KAQV AQV20160103040011301/03/16 04:00:31  5-MIN KAQV 031000Z AUTO 00000KT 10SM OVC065 07/03 A3022 100 76 -800 000/00 RMK AO2 T00670028 $
03949KAQV AQV20160103040511301/03/16 04:05:31  5-MIN KAQV 031005Z AUTO 00000KT 10SM OVC065 07/03 A3022 100 76 -800 000/00 RMK AO2 T00670028 $
03949KAQV AQV20160103041011301/03/16 04:10:31  5-MIN KAQV 031010Z AUTO 00000KT 10SM OVC065 07/03 A3022 100 76 -800 000/00 RMK AO2 T00670028 $
03949KAQV AQV20160103041511301/03/16 04:15:31  5-MIN KAQV 031015Z AUTO 00000KT 10SM OVC065 07/03 A3022 100 76 -800 000/00 RMK AO2 T00670028 $
03949KAQV AQV20160103042011301/03/16 04:20:31  5-MIN KAQV 031020Z AUTO 00000KT 10SM OVC065 06/03 A3022 100 79 -900 000/00 RMK AO2 T00610028 $
03949KAQV AQV20160103042511301/03/16 04:25:31  5-MIN KAQV 031025Z AUTO 00000KT 10SM OVC065 07/03 A3022 100 76 -800 000/00 RMK AO2 T00670028 $
03949KAQV AQV20160103043011301/03/16 04:30:31  5-MIN KAQV 031030Z AUTO 00000KT 10SM OVC065 07/03 A3022 100 76 -800 000/00 RMK AO2 T00670028 $
03949KAQV AQV20160103043511301/03/16 04:35:31  5-MIN KAQV 031035Z AUTO 00000KT 10SM OVC065 07/03 A3022 100 76 -800 000/00 RMK AO2 T00670028 $
03949KAQV AQV20160103044011301/03/16 04:40:31  5-MIN KAQV 031040Z AUTO 00000KT 10SM OVC065 07/03 A3022 100 76 -800 000/00 RMK AO2 T00670028 $
03949KAQV AQV20160103044511301/03/16 04:45:31  5-MIN KAQV 031045Z AUTO VRB03KT 10SM OVC065 07/02 A3021 110 73 -800 VRB/03 RMK AO2 T00670022 $
03949KAQV AQV20160103045012001/03/16 04:50:31  5-MIN KAQV 031050Z AUTO 00000KT 10SM OVC065 07/02 A3021 110 73 -800 000/00 RMK AO2 SLP232 T00670022 $
03949KAQV AQV20160103045512001/03/16 04:55:31  5-MIN KAQV 031055Z AUTO 00000KT 10SM OVC065 07/02 A3022 100 73 -800 000/00 RMK AO2 SLP234 T00670022 $
03949KAQV AQV20160103050011301/03/16 05:00:31  5-MIN KAQV 031100Z AUTO 00000KT 10SM OVC065 07/02 A3022 100 73 -800 000/00 RMK AO2 T00670022 $
03949KAQV AQV20160103050511301/03/16 05:05:31  5-MIN KAQV 031105Z AUTO 00000KT 10SM OVC065 07/02 A3022 100 73 -800 000/00 RMK AO2 T00670022 $
03949KAQV AQV20160103051011301/03/16 05:10:31  5-MIN KAQV 031110Z AUTO 00000KT 10SM OVC065 07/02 A3022 100 73 -800 000/00 RMK AO2 T00670022 $
03949KAQV AQV20160103051511301/03/16 05:15:31  5-MIN KAQV 031115Z AUTO 34003KT 10SM OVC065 07/02 A3022 100 73 -800 340/03 RMK AO2 T00670022 $
03949KAQV AQV20160103052011301/03/16 05:20:31  5-MIN KAQV 031120Z AUTO VRB03KT 10SM OVC065 07/02 A3021 110 73 -800 VRB/03 RMK AO2 T00670022 $
03949KAQV AQV20160103052512001/03/16 05:25:31  5-MIN KAQV 031125Z AUTO 34003KT 10SM BKN065 OVC110 07/02 A3021 110 73 -800 340/03 RMK AO2 T00670022 $
03949KAQV AQV20160103053012001/03/16 05:30:31  5-MIN KAQV 031130Z AUTO 00000KT 10SM BKN065 OVC100 07/02 A3022 100 73 -800 000/00 RMK AO2 T00670022 $
03949KAQV AQV20160103053512001/03/16 05:35:31  5-MIN KAQV 031135Z AUTO 00000KT 10SM BKN065 OVC100 07/02 A3022 100 73 -800 000/00 RMK AO2 T00670022 $
03949KAQV AQV20160103054012001/03/16 05:40:31  5-MIN KAQV 031140Z AUTO 00000KT 10SM BKN065 OVC100 07/02 A3022 100 73 -800 000/00 RMK AO2 T00670022 $
03949KAQV AQV20160103054512701/03/16 05:45:31  5-MIN KAQV 031145Z AUTO 00000KT 10SM BKN065 BKN090 OVC110 07/02 A3022 100 73 -800 000/00 RMK AO2 T00670022 $
03949KAQV AQV20160103055016701/03/16 05:50:31  5-MIN KAQV 031150Z AUTO 00000KT 10SM -RA BKN065 OVC090 07/02 A3022 100 73 -800 000/00 RMK AO2 RAB50 SLP235 P0000 60000 T00670022 10067 20061 58010 $
03949KAQV AQV20160103055516701/03/16 05:55:31  5-MIN KAQV 031155Z AUTO 00000KT 10SM -RA BKN060 OVC090 07/02 A3022 100 73 -800 000/00 RMK AO2 RAB50 SLP236 P0000 60000 T00670022 10067 20061 58010 $
03949KAQV AQV20160103060007401/03/16 06:00:31  5-MIN KAQV 031200Z AUTO 35003KT 10SM -RA SCT065 BKN090 
03949KAQV AQV20160103105510701/03/16 10:55:31  5-MIN KAQV 031655Z AUTO 10SM CLR 12/M01 A3024 80 39 -100 M /M RMK AO2 SLP241 T01221011 $
03949KAQV AQV20160103110011001/03/16 11:00:31  5-MIN KAQV 031700Z AUTO 36006KT 10SM CLR 13/M01 A3024 80 39 -100 350/06 RMK AO2 T01281006 $
03949KAQV AQV20160103110511001/03/16 11:05:31  5-MIN KAQV 031705Z AUTO VRB05KT 10SM CLR 13/M01 A3024 80 39 -100 VRB/05 RMK AO2 T01281006 $
03949KAQV AQV20160103111011001/03/16 11:10:31  5-MIN KAQV 031710Z AUTO 01006KT 10SM CLR 13/M01 A3023 90 38 -100 360/06 RMK AO2 T01281011 $
03949KAQV AQV20160103111511001/03/16 11:15:31  5-MIN KAQV 031715Z AUTO VRB03KT 10SM CLR 13/M01 A3023 90 38 -100 VRB/03 RMK AO2 T01281011 $
03949KAQV AQV20160103112011301/03/16 11:20:31  5-MIN KAQV 031720Z AUTO VRB03KT 10SM FEW060 13/M01 A3023 90 38 -100 VRB/03 RMK AO2 T01281011 $
03949KAQV AQV20160103112511401/03/16 11:25:31  5-MIN KAQV 031725Z AUTO 27004KT 10SM SCT060 13/M01 A3023 100 38 -100 260/04 RMK AO2 T01281011 $
03949KAQV AQV20160103113011401/03/16 11:30:31  5-MIN KAQV 031730Z AUTO 01006KT 10SM BKN060 13/M01 A3022 100 38 -100 360/06 RMK AO2 T01281011 $
03949KAQV AQV20160103113511101/03/16 11:35:31  5-MIN KAQV 031735Z AUTO VRB03KT 10SM BKN060 13/M02 A3022 100 36 0 VRB/03 RMK AO2 T01281017 $
03949KAQV AQV20160103114011101/03/16 11:40:31  5-MIN KAQV 031740Z AUTO VRB03KT 10SM SCT060 13/M02 A3022 100 35 0 VRB/03 RMK AO2 T01331017 $
03949KAQV AQV20160103114511101/03/16 11:45:31  5-MIN KAQV 031745Z AUTO VRB03KT 10SM SCT060 13/M01 A3021 110 39 0 VRB/03 RMK AO2 T01281006 $
03949KAQV AQV20160103115013201/03/16 11:50:31  5-MIN KAQV 031750Z AUTO 10SM FEW060 13/M01 A3021 110 38 0 M /M RMK AO2 SLP230 60000 T01331006 10133 20061 51015 $
03949KAQV AQV20160103115514201/03/16 11:55:31  5-MIN KAQV 031755Z AUTO VRB04KT 10SM FEW060 13/M01 A3021 110 38 0 VRB/04 RMK AO2 SLP230 60000 T01331006 10139 20061 51015 $
03949KAQV AQV20160103120010801/03/16 12:00:31  5-MIN KAQV 031800Z AUTO VRB04KT 10SM CLR 13/M01 A3021 110 38 0 VRB/04 RMK AO2 T01331006 $
03949KAQV AQV20160103120510801/03/16 12:05:31  5-MIN KAQV 031805Z AUTO VRB04KT 10SM CLR 13/M01 A3020 120 38 0 VRB/04 RMK AO2 T01331006 $
03949KAQV AQV20160103121011001/03/16 12:10:31  5-MIN KAQV 031810Z AUTO VRB05KT 10SM CLR 14/M01 A3020 120 37 100 VRB/05 RMK AO2 T01391006 $
03949KAQV AQV20160103121511001/03/16 12:15:31  5-MIN KAQV 031815Z AUTO VRB06KT 10SM CLR 14/M01 A3020 120 37 100 VRB/06 RMK AO2 T01391006 $
03949KAQV AQV20160103122011001/03/16 12:20:31  5-MIN KAQV 031820Z AUTO 34006KT 10SM CLR 14/M01 A3019 130 37 100 340/06 RMK AO2 T01391006 $
03949KAQV AQV20160103122510801/03/16 12:25:31  5-MIN KAQV 031825Z AUTO 31004KT 10SM CLR 13/M01 A3019 130 38 0 310/04 RMK AO2 T01331006 $
03949KAQV AQV20160103123011001/03/16 12:30:31  5-MIN KAQV 031830Z AUTO VRB04KT 10SM CLR 14/M01 A3019 130 35 100 VRB/04 RMK AO2 T01441006 $
03949KAQV AQV20160103123510901/03/16 12:35:31  5-MIN KAQV 031835Z AUTO 35006KT 10SM CLR 14/00 A3018 140 37 100 340/06 RMK AO2 T01440000 $
03949KAQV AQV20160103124010901/03/16 12:40:31  5-MIN KAQV 031840Z AUTO 36005KT 10SM CLR 14/00 A3018 140 38 100 350/05 RMK AO2 T01390000 $
03949KAQV AQV20160103124510901/03/16 12:45:31  5-MIN KAQV 031845Z AUTO VRB04KT 10SM CLR 14/00 A3017 140 37 100 VRB/04 RMK AO2 T01440000 $
03949KAQV AQV20160103125011701/03/16 12:50:31  5-MIN KAQV 031850Z AUTO 27005KT 10SM CLR 14/M01 A3017 150 35 200 270/05 RMK AO2 SLP217 T01441006 $
03949KAQV AQV20160103125511701/03/16 12:55:31  5-MIN KAQV 031855Z AUTO VRB06KT 10SM CLR 14/M01 A3017 150 37 100 VRB/06 RMK AO2 SLP216 T01391006 $
03949KAQV AQV20160103130010001/03/16 13:00:31  5-MIN KAQV 031900Z AUTO 10SM CLR 14/M01 A3016 150 37 100 M /M RMK AO2 T01391006 $
03949KAQV AQV20160103130510901/03/16 13:05:31  5-MIN KAQV 031905Z AUTO VRB06KT 10SM CLR 14/00 A3016 160 37 200 VRB/06 RMK AO2 T01440000 $
03949KAQV AQV20160103131010901/03/16 13:10:31  5-MIN KAQV 031910Z AUTO VRB04KT 10SM CLR 14/00 A3016 160 37 200 VRB/04 RMK AO2 T01440000 $
03949KAQV AQV20160103131510901/03/16 13:15:31  5-MIN KAQV 031915Z AUTO 26008KT 10SM CLR 14/00 A3016 160 37 200 250/08 RMK AO2 T01440000 $
03949KAQV AQV20160103132010901/03/16 13:20:31  5-MIN KAQV 031920Z AUTO VRB04KT 10SM CLR 14/00 A3015 160 37 200 VRB/04 RMK AO2 T01440000 $
03949KAQV AQV20160103132510901/03/16 13:25:31  5-MIN KAQV 031925Z AUTO VRB04KT 10SM CLR 14/00 A3015 160 37 200 VRB/04 RMK AO2 T01440000 $
03949KAQV AQV20160103133010901/03/16 13:30:31  5-MIN KAQV 031930Z AUTO VRB06KT 10SM CLR 14/00 A3015 170 37 200 VRB/06 RMK AO2 T01440000 $
03949KAQV AQV20160103133510901/03/16 13:35:31  5-MIN KAQV 031935Z AUTO 25005KT 10SM CLR 14/00 A3014 170 37 200 240/05 RMK AO2 T01440000 $
03949KAQV AQV20160103134010901/03/16 13:40:31  5-MIN KAQV 031940Z AUTO VRB05KT 10SM CLR 15/00 A3014 170 35 300 VRB/05 RMK AO2 T01500000 $
03949KAQV AQV20160103134509901/03/16 13:45:31  5-MIN KAQV 031945Z AUTO 10SM CLR 15/00 A3014 180 35 300 M /M RMK AO2 T01500000 $
03949KAQV AQV20160103135011601/03/16 13:50:31  5-MIN KAQV 031950Z AUTO VRB04KT 10SM CLR 15/01 A3014 180 37 300 VRB/04 RMK AO2 SLP205 T01500006 $
03949KAQV AQV20160103135511601/03/16 13:55:31  5-MIN KAQV 031955Z AUTO 00000KT 10SM CLR 15/01 A3013 180 37 300 000/00 RMK AO2 SLP205 T01500006 $
03949KAQV AQV20160103140010901/03/16 14:00:31  5-MIN KAQV 032000Z AUTO VRB05KT 10SM CLR 16/01 A3013 180 36 300 VRB/05 RMK AO2 T01560006 $
03949KAQV AQV20160103140510901/03/16 14:05:31  5-MIN KAQV 032005Z AUTO VRB05KT 10SM CLR 15/01 A3013 180 37 300 VRB/05 RMK AO2 T01500006 $
03949KAQV AQV20160103141010901/03/16 14:10:31  5-MIN KAQV 032010Z AUTO VRB03KT 10SM CLR 16/01 A3013 180 36 300 VRB/03 RMK AO2 T01560006 $
03949KAQV AQV20160103141510901/03/16 14:15:31  5-MIN KAQV 032015Z AUTO VRB03KT 10SM CLR 15/01 A3013 180 37 300 VRB/03 RMK AO2 T01500006 $
03949KAQV AQV20160103142010901/03/16 14:20:31  5-MIN KAQV 032020Z AUTO VRB03KT 10SM CLR 15/01 A3013 180 37 300 VRB/03 RMK AO2 T01500006 $
03949KAQV AQV20160103142509901/03/16 14:25:31  5-MIN KAQV 032025Z AUTO 10SM CLR 15/01 A3013 190 37 300 M /M RMK AO2 T01500006 $
03949KAQV AQV20160103143010901/03/16 14:30:31  5-MIN KAQV 032030Z AUTO VRB04KT 10SM CLR 16/01 A3013 190 36 300 VRB/04 RMK AO2 T01560006 $
03949KAQV AQV20160103143510901/03/16 14:35:31  5-MIN KAQV 032035Z AUTO 00000KT 10SM CLR 16/01 A3012 190 36 300 000/00 RMK AO2 T01560006 $
03949KAQV AQV20160103144009901/03/16 14:40:31  5-MIN KAQV 032040Z AUTO 10SM CLR 15/01 A3012 190 37 300 M /M RMK AO2 T01500006 $
03949KAQV AQV20160103144510901/03/16 14:45:31  5-MIN KAQV 032045Z AUTO VRB04KT 10SM CLR 16/01 A3012 190 37 300 VRB/04 RMK AO2 T01560011 $
03949KAQV AQV20160103145012201/03/16 14:50:31  5-MIN KAQV 032050Z AUTO VRB04KT 10SM CLR 15/01 A3012 190 38 300 VRB/04 RMK AO2 SLP201 T01500011 58021 $
03949KAQV AQV20160103145512201/03/16 14:55:31  5-MIN KAQV 032055Z AUTO VRB05KT 10SM CLR 15/01 A3012 190 38 300 VRB/05 RMK AO2 SLP202 T01500011 58021 $
03949KAQV AQV20160103150010901/03/16 15:00:31  5-MIN KAQV 032100Z AUTO VRB03KT 10SM CLR 16/02 A3012 190 39 300 VRB/03 RMK AO2 T01560017 $
03949KAQV AQV20160103150510901/03/16 15:05:31  5-MIN KAQV 032105Z AUTO VRB05KT 10SM CLR 16/02 A3012 190 39 300 VRB/05 RMK AO2 T01560017 $
03949KAQV AQV20160103151010901/03/16 15:10:31  5-MIN KAQV 032110Z AUTO VRB06KT 10SM CLR 15/02 A3013 190 40 300 VRB/06 RMK AO2 T01500017 $
03949KAQV AQV20160103151510901/03/16 15:15:31  5-MIN KAQV 032115Z AUTO VRB05KT 10SM CLR 15/02 A3013 190 40 300 VRB/05 RMK AO2 T01500017 $
03949KAQV AQV20160103152010901/03/16 15:20:31  5-MIN KAQV 032120Z AUTO VRB06KT 10SM CLR 15/02 A3013 180 42 300 VRB/06 RMK AO2 T01500022 $
03949KAQV AQV20160103152510901/03/16 15:25:31  5-MIN KAQV 032125Z AUTO 29004KT 10SM CLR 15/02 A3013 180 42 300 280/04 RMK AO2 T01500022 $
03949KAQV AQV20160103153010901/03/16 15:30:31  5-MIN KAQV 032130Z AUTO VRB03KT 10SM CLR 15/02 A3013 180 42 300 VRB/03 RMK AO2 T01500022 $
03949KAQV AQV20160103153510901/03/16 15:35:31  5-MIN KAQV 032135Z AUTO VRB04KT 10SM CLR 15/02 A3013 180 42 300 VRB/04 RMK AO2 T01500022 $
03949KAQV AQV20160103154012501/03/16 15:40:31  5-MIN KAQV 032140Z AUTO 35007KT 290V020 10SM CLR 15/02 A3013 180 40 300 350/07 290V020 RMK AO2 T01500017 $
03949KAQV AQV20160103154510901/03/16 15:45:31  5-MIN KAQV 032145Z AUTO VRB05KT 10SM CLR 15/02 A3013 180 40 300 VRB/05 RMK AO2 T01500017 $
03949KAQV AQV20160103155011601/03/16 15:50:31  5-MIN KAQV 032150Z AUTO VRB03KT 10SM CLR 15/02 A3013 180 40 300 VRB/03 RMK AO2 SLP205 T01500017 $
03949KAQV AQV20160103155511601/03/16 15:55:31  5-MIN KAQV 032155Z AUTO VRB04KT 10SM CLR 15/02 A3014 180 40 300 VRB/04 RMK AO2 SLP205 T01500017 $
03949KAQV AQV20160103160010901/03/16 16:00:31  5-MIN KAQV 032200Z AUTO VRB04KT 10SM CLR 14/02 A3014 170 41 200 VRB/04 RMK AO2 T01440017 $
03949KAQV AQV20160103160510901/03/16 16:05:31  5-MIN KAQV 032205Z AUTO VRB04KT 10SM CLR 14/02 A3014 170 41 200 VRB/04 RMK AO2 T01440017 $
03949KAQV AQV20160103161010901/03/16 16:10:31  5-MIN KAQV 032210Z AUTO VRB04KT 10SM CLR 14/02 A3015 170 41 200 VRB/04 RMK AO2 T01440017 $
03949KAQV AQV20160103161510901/03/16 16:15:31  5-MIN KAQV 032215Z AUTO 00000KT 10SM CLR 14/02 A3015 170 43 200 000/00 RMK AO2 T01440022 $
03949KAQV AQV20160103162010901/03/16 16:20:31  5-MIN KAQV 032220Z AUTO VRB03KT 10SM CLR 14/02 A3015 160 43 100 VRB/03 RMK AO2 T01390017 $
03949KAQV AQV20160103162510901/03/16 16:25:31  5-MIN KAQV 032225Z AUTO VRB03KT 10SM CLR 14/02 A3015 160 43 100 VRB/03 RMK AO2 T01390017 $
03949KAQV AQV20160103163010901/03/16 16:30:31  5-MIN KAQV 032230Z AUTO VRB04KT 10SM CLR 14/02 A3015 160 43 100 VRB/04 RMK AO2 T01390017 $
03949KAQV AQV20160103163510701/03/16 16:35:31  5-MIN KAQV 032235Z AUTO VRB03KT 10SM CLR 13/02 A3015 160 45 0 VRB/03 RMK AO2 T01330017 $
03949KAQV AQV20160103164010701/03/16 16:40:31  5-MIN KAQV 032240Z AUTO VRB04KT 10SM CLR 13/02 A3015 160 45 0 VRB/04 RMK AO2 T01330017 $
03949KAQV AQV20160103164510701/03/16 16:45:31  5-MIN KAQV 032245Z AUTO 00000KT 10SM CLR 13/02 A3016 160 45 0 000/00 RMK AO2 T01330017 $
03949KAQV AQV20160103165011401/03/16 16:50:31  5-MIN KAQV 032250Z AUTO VRB04KT 10SM CLR 13/02 A3016 160 46 0 VRB/04 RMK AO2 SLP212 T01280017 $
03949KAQV AQV20160103165511401/03/16 16:55:31  5-MIN KAQV 032255Z AUTO 00000KT 10SM CLR 13/02 A3016 160 46 0 000/00 RMK AO2 SLP212 T01280017 $
03949KAQV AQV20160103170010701/03/16 17:00:31  5-MIN KAQV 032300Z AUTO 00000KT 10SM CLR 13/02 A3015 160 46 0 000/00 RMK AO2 T01280017 $
03949KAQV AQV20160103170510701/03/16 17:05:31  5-MIN KAQV 032305Z AUTO VRB03KT 10SM CLR 12/02 A3016 160 48 0 VRB/03 RMK AO2 T01220017 $
03949KAQV AQV20160103171010701/03/16 17:10:31  5-MIN KAQV 032310Z AUTO 00000KT 10SM CLR 12/02 A3016 160 48 0 000/00 RMK AO2 T01220017 $
03949KAQV AQV20160103171511001/03/16 17:15:31  5-MIN KAQV 032315Z AUTO 00000KT 10SM CLR 12/02 A3016 160 50 -100 000/00 RMK AO2 T01170017 $
03949KAQV AQV20160103172011001/03/16 17:20:31  5-MIN KAQV 032320Z AUTO 00000KT 10SM CLR 12/02 A3016 160 50 -100 000/00 RMK AO2 T01170017 $
03949KAQV AQV20160103172511001/03/16 17:25:31  5-MIN KAQV 032325Z AUTO 00000KT 10SM CLR 11/02 A3016 160 54 -200 000/00 RMK AO2 T01110022 $
03949KAQV AQV20160103173011001/03/16 17:30:31  5-MIN KAQV 032330Z AUTO 00000KT 10SM CLR 11/03 A3016 150 58 -200 000/00 RMK AO2 T01060028 $
03949KAQV AQV20160103173511001/03/16 17:35:31  5-MIN KAQV 032335Z AUTO 00000KT 10SM CLR 10/03 A3016 150 60 -300 000/00 RMK AO2 T01000028 $
03949KAQV AQV20160103174011001/03/16 17:40:31  5-MIN KAQV 032340Z AUTO 00000KT 10SM CLR 09/03 A3016 150 63 -400 000/00 RMK AO2 T00940028 $
03949KAQV AQV20160103214011101/03/16 21:40:31  5-MIN KAQV 040340Z AUTO 00000KT 10SM CLR 03/02 A3021 110 92 -1200 000/00 RMK AO2 T00330022 $
03949KAQV AQV20160103214511101/03/16 21:45:31  5-MIN KAQV 040345Z AUTO 00000KT 10SM CLR 03/02 A3021 110 92 -1200 000/00 RMK AO2 T00330022 $
03949KAQV AQV20160103215011801/03/16 21:50:31  5-MIN KAQV 040350Z AUTO 00000KT 10SM CLR 03/02 A3022 100 92 -1200 000/00 RMK AO2 SLP233 T00330022 $
03949KAQV AQV20160103215511801/03/16 21:55:31  5-MIN KAQV 040355Z AUTO 00000KT 10SM CLR 03/02 A3022 100 92 -1200 000/00 RMK AO2 SLP233 T00330022 $
03949KAQV AQV20160103220011101/03/16 22:00:31  5-MIN KAQV 040400Z AUTO 00000KT 10SM CLR 03/02 A3022 100 92 -1200 000/00 RMK AO2 T00330022 $
03949KAQV AQV20160103220511101/03/16 22:05:31  5-MIN KAQV 040405Z AUTO 00000KT 10SM CLR 03/02 A3022 100 92 -1200 000/00 RMK AO2 T00330022 $
03949KAQV AQV20160103221011101/03/16 22:10:31  5-MIN KAQV 040410Z AUTO 00000KT 10SM CLR 03/02 A3022 100 89 -1200 000/00 RMK AO2 T00330017 $
03949KAQV AQV20160103221511101/03/16 22:15:31  5-MIN KAQV 040415Z AUTO 00000KT 10SM CLR 03/02 A3022 100 96 -1300 000/00 RMK AO2 T00280022 $
03949KAQV AQV20160103222011101/03/16 22:20:31  5-MIN KAQV 040420Z AUTO 00000KT 10SM CLR 03/02 A3022 100 92 -1300 000/00 RMK AO2 T00280017 $
03949KAQV AQV20160103222511101/03/16 22:25:31  5-MIN KAQV 040425Z AUTO 00000KT 10SM CLR 03/02 A3022 100 92 -1300 000/00 RMK AO2 T00280017 $
03949KAQV AQV20160103223011101/03/16 22:30:31  5-MIN KAQV 040430Z AUTO 00000KT 10SM CLR 03/02 A3022 100 92 -1300 000/00 RMK AO2 T00280017 $
03949KAQV AQV20160103223511101/03/16 22:35:31  5-MIN KAQV 040435Z AUTO 00000KT 10SM CLR 03/02 A3022 100 92 -1300 000/00 RMK AO2 T00280017 $
03949KAQV AQV20160103224011101/03/16 22:40:31  5-MIN KAQV 040440Z AUTO 00000KT 10SM CLR 03/02 A3022 100 92 -1300 000/00 RMK AO2 T00280017 $
03949KAQV AQV20160103224511101/03/16 22:45:31  5-MIN KAQV 040445Z AUTO 00000KT 10SM CLR 03/02 A3022 100 92 -1300 000/00 RMK AO2 T00280017 $
03949KAQV AQV20160103225011801/03/16 22:50:31  5-MIN KAQV 040450Z AUTO 00000KT 10SM CLR 03/02 A3022 100 92 -1300 000/00 RMK AO2 SLP236 T00280017 $
03949KAQV AQV20160103225511801/03/16 22:55:31  5-MIN KAQV 040455Z AUTO 00000KT 10SM CLR 03/02 A3022 100 92 -1300 000/00 RMK AO2 SLP236 T00280017 $
03949KAQV AQV20160103230011101/03/16 23:00:31  5-MIN KAQV 040500Z AUTO 00000KT 10SM CLR 03/02 A3022 100 92 -1300 000/00 RMK AO2 T00280017 $
03949KAQV AQV20160103230511101/03/16 23:05:31  5-MIN KAQV 040505Z AUTO 00000KT 10SM CLR 03/02 A3022 100 92 -1300 000/00 RMK AO2 T00280017 $
03949KAQV AQV20160103231011101/03/16 23:10:31  5-MIN KAQV 040510Z AUTO 00000KT 10SM CLR 02/02 A3022 100 96 -1300 000/00 RMK AO2 T00220017 $
03949KAQV AQV20160103231511101/03/16 23:15:31  5-MIN KAQV 040515Z AUTO 00000KT 10SM CLR 02/01 A3022 100 92 -1300 000/00 RMK AO2 T00220011 $
03949KAQV AQV20160103232011101/03/16 23:20:31  5-MIN KAQV 040520Z AUTO 00000KT 10SM CLR 02/01 A3022 100 92 -1300 000/00 RMK AO2 T00220011 $
03949KAQV AQV20160103232511101/03/16 23:25:31  5-MIN KAQV 040525Z AUTO 00000KT 10SM CLR 02/01 A3022 100 92 -1300 000/00 RMK AO2 T00220011 $
03949KAQV AQV20160103233011101/03/16 23:30:31  5-MIN KAQV 040530Z AUTO 00000KT 10SM CLR 02/01 A3023 100 92 -1300 000/00 RMK AO2 T00220011 $
03949KAQV AQV20160103233511101/03/16 23:35:31  5-MIN KAQV 040535Z AUTO 00000KT 10SM CLR 02/01 A3022 100 92 -1300 000/00 RMK AO2 T00220011 $
03949KAQV AQV20160103234011101/03/16 23:40:31  5-MIN KAQV 040540Z AUTO 00000KT 10SM CLR 02/01 A3022 100 92 -1300 000/00 RMK AO2 T00220011 $
03949KAQV AQV20160103234511101/03/16 23:45:31  5-MIN KAQV 040545Z AUTO 00000KT 10SM CLR 02/01 A3022 100 92 -1300 000/00 RMK AO2 T00220011 $
03949KAQV AQV20160103235014601/03/16 23:50:31  5-MIN KAQV 040550Z AUTO 00000KT 10SM CLR 02/01 A3022 100 92 -1300 000/00 RMK AO2 SLP235 T00220011 10083 20022 401560022 53016 $
03949KAQV AQV20160103235514601/03/16 23:55:31  5-MIN KAQV 040555Z AUTO 00000KT 10SM CLR 02/01 A3022 100 96 -1400 000/00 RMK AO2 SLP235 T00170011 10083 20017 401560017 53016 $
03949KAQV AQV20160104000011101/04/16 00:00:31  5-MIN KAQV 040600Z AUTO 00000KT 10SM CLR 02/01 A3022 100 92 -1400 000/00 RMK AO2 T00170006 $
03949KAQV AQV20160104000511101/04/16 00:05:31  5-MIN KAQV 040605Z AUTO 00000KT 10SM CLR 02/01 A3022 100 96 -1400 000/00 RMK AO2 T00170011 $
03949KAQV AQV20160104001011101/04/16 00:10:31  5-MIN KAQV 040610Z AUTO 00000KT 10SM CLR 02/01 A3022 100 92 -1400 000/00 RMK AO2 T00170006 $
03949KAQV AQV20160104001511101/04/16 00:15:31  5-MIN KAQV 040615Z AUTO 00000KT 10SM CLR 02/01 A3022 100 92 -1400 000/00 RMK AO2 T00170006 $
03949KAQV AQV20160104002011101/04/16 00:20:31  5-MIN KAQV 040620Z AUTO 00000KT 10SM CLR 02/01 A3022 100 92 -1400 000/00 RMK AO2 T00170006 $
03949KAQV AQV20160104002511101/04/16 00:25:31  5-MIN KAQV 040625Z AUTO 00000KT 10SM CLR 02/01 A3022 100 92 -1400 000/00 RMK AO2 T00170006 $
03949KAQV AQV20160104003011101/04/16 00:30:31  5-MIN KAQV 040630Z AUTO 00000KT 10SM CLR 02/01 A3022 100 92 -1400 000/00 RMK AO2 T00170006 $
03949KAQV AQV20160104003511101/04/16 00:35:31  5-MIN KAQV 040635Z AUTO 00000KT 10SM CLR 01/01 A3022 100 96 -1500 000/00 RMK AO2 T00110006 $
03949KAQV AQV20160104004011101/04/16 00:40:31  5-MIN KAQV 040640Z AUTO 00000KT 10SM CLR 01/01 A3022 100 96 -1500 000/00 RMK AO2 T00110006 $
03949KAQV AQV20160104004511101/04/16 00:45:31  5-MIN KAQV 040645Z AUTO 00000KT 10SM CLR 02/01 A3022 100 92 -1400 000/00 RMK AO2 T00170006 $
03949KAQV AQV20160104005011801/04/16 00:50:31  5-MIN KAQV 040650Z AUTO 00000KT 10SM CLR 01/01 A3022 100 96 -1500 000/00 RMK AO2 SLP234 T00110006 $
03949KAQV AQV20160104005511801/04/16 00:55:31  5-MIN KAQV 040655Z AUTO 00000KT 10SM CLR 01/01 A3022 100 96 -1500 000/00 RMK AO2 SLP234 T00110006 $
03949KAQV AQV20160104010011101/04/16 01:00:31  5-MIN KAQV 040700Z AUTO 00000KT 10SM CLR 01/01 A3022 100 96 -1500 000/00 RMK AO2 T00110006 $
03949KAQV AQV20160104010511101/04/16 01:05:31  5-MIN KAQV 040705Z AUTO 00000KT 10SM CLR 01/01 A3021 100 96 -1500 000/00 RMK AO2 T00110006 $
03949KAQV AQV20160104011011101/04/16 01:10:31  5-MIN KAQV 040710Z AUTO 00000KT 10SM CLR 01/01 A3021 110 96 -1500 000/00 RMK AO2 T00110006 $
03949KAQV AQV20160104011511101/04/16 01:15:31  5-MIN KAQV 040715Z AUTO 00000KT 10SM CLR 01/01 A3021 110 96 -1500 000/00 RMK AO2 T00110006 $
03949KAQV AQV20160104012011101/04/16 01:20:31  5-MIN KAQV 040720Z AUTO 00000KT 10SM CLR 01/01 A3021 110 96 -1500 000/00 RMK AO2 T00110006 $
03949KAQV AQV20160104012511101/04/16 01:25:31  5-MIN KAQV 040725Z AUTO VRB03KT 10SM CLR 01/01 A3021 110 96 -1500 VRB/03 RMK AO2 T00110006 $
03949KAQV AQV20160104013011101/04/16 01:30:31  5-MIN KAQV 040730Z AUTO 32003KT 10SM CLR 01/01 A3021 110 96 -1500 310/03 RMK AO2 T00110006 $
03949KAQV AQV20160104013511101/04/16 01:35:31  5-MIN KAQV 040735Z AUTO 00000KT 10SM CLR 01/01 A3021 110 96 -1500 000/00 RMK AO2 T00110006 $
03949KAQV AQV20160104014011101/04/16 01:40:31  5-MIN KAQV 040740Z AUTO 00000KT 10SM CLR 02/01 A3021 110 92 -1400 000/00 RMK AO2 T00170006 $
03949KAQV AQV20160104014511101/04/16 01:45:31  5-MIN KAQV 040745Z AUTO 00000KT 10SM CLR 02/01 A3021 110 92 -1400 000/00 RMK AO2 T00170006 $
03949KAQV AQV20160104015011801/04/16 01:50:31  5-MIN KAQV 040750Z AUTO VRB03KT 10SM CLR 01/01 A3021 110 96 -1500 VRB/03 RMK AO2 SLP232 T00110006 $
03949KAQV AQV20160104015511801/04/16 01:55:31  5-MIN KAQV 040755Z AUTO 00000KT 10SM CLR 01/01 A3021 110 96 -1500 000/00 RMK AO2 SLP232 T00110006 $
03949KAQV AQV20160104020011101/04/16 02:00:31  5-MIN KAQV 040800Z AUTO 00000KT 10SM CLR 02/00 A3021 110 89 -1400 000/00 RMK AO2 T00170000 $
03949KAQV AQV20160104020511101/04/16 02:05:31  5-MIN KAQV 040805Z AUTO 00000KT 10SM CLR 02/00 A3021 110 89 -1400 000/00 RMK AO2 T00170000 $
03949KAQV AQV20160104021011101/04/16 02:10:31  5-MIN KAQV 040810Z AUTO 00000KT 10SM CLR 01/00 A3022 100 92 -1500 000/00 RMK AO2 T00110000 $
03949KAQV AQV20160104021511101/04/16 02:15:31  5-MIN KAQV 040815Z AUTO 00000KT 10SM CLR 01/00 A3022 100 92 -1500 000/00 RMK AO2 T00110000 $
03949KAQV AQV20160104022011101/04/16 02:20:31  5-MIN KAQV 040820Z AUTO 00000KT 10SM CLR 01/00 A3022 100 92 -1500 000/00 RMK AO2 T00110000 $
03949KAQV AQV20160104022511101/04/16 02:25:31  5-MIN KAQV 040825Z AUTO 00000KT 10SM CLR 01/00 A3022 100 92 -1500 000/00 RMK AO2 T00110000 $
03949KAQV AQV20160104023011101/04/16 02:30:31  5-MIN KAQV 040830Z AUTO 32003KT 10SM CLR 01/00 A3022 100 92 -1500 320/03 RMK AO2 T00110000 $
03949KAQV AQV20160104023511101/04/16 02:35:31  5-MIN KAQV 040835Z AUTO 00000KT 10SM CLR 01/00 A3022 100 92 -1500 000/00 RMK AO2 T00110000 $
03949KAQV AQV20160104024011101/04/16 02:40:31  5-MIN KAQV 040840Z AUTO 00000KT 10SM CLR 01/00 A3022 100 92 -1500 000/00 RMK AO2 T00110000 $
03949KAQV AQV20160104024511101/04/16 02:45:31  5-MIN KAQV 040845Z AUTO 00000KT 10SM CLR 01/00 A3022 100 92 -1500 000/00 RMK AO2 T00110000 $
03949KAQV AQV20160104025012401/04/16 02:50:31  5-MIN KAQV 040850Z AUTO 00000KT 10SM CLR 01/00 A3022 100 92 -1500 000/00 RMK AO2 SLP233 T00110000 50003 $
03949KAQV AQV20160104025512401/04/16 02:55:31  5-MIN KAQV 040855Z AUTO 00000KT 10SM CLR 01/00 A3022 100 92 -1500 000/00 RMK AO2 SLP233 T00110000 50003 $
03949KAQV AQV20160104030011101/04/16 03:00:31  5-MIN KAQV 040900Z AUTO 00000KT 10SM CLR 01/00 A3022 100 96 -1500 000/00 RMK AO2 T00060000 $
03949KAQV AQV20160104030511201/04/16 03:05:31  5-MIN KAQV 040905Z AUTO 00000KT 10SM CLR 01/M01 A3022 100 92 -1500 000/00 RMK AO2 T00061006 $
03949KAQV AQV20160104031011101/04/16 03:10:31  5-MIN KAQV 040910Z AUTO VRB03KT 10SM CLR 01/00 A3022 100 96 -1500 VRB/03 RMK AO2 T00060000 $
03949KAQV AQV20160104031511101/04/16 03:15:31  5-MIN KAQV 040915Z AUTO 00000KT 10SM CLR 01/00 A3022 100 96 -1500 000/00 RMK AO2 T00060000 $
03949KAQV AQV20160104032011201/04/16 03:20:31  5-MIN KAQV 040920Z AUTO 00000KT 10SM CLR 01/M01 A3022 100 92 -1500 000/00 RMK AO2 T00061006 $
03949KAQV AQV20160104032511201/04/16 03:25:31  5-MIN KAQV 040925Z AUTO 00000KT 10SM CLR 01/M01 A3022 100 92 -1500 000/00 RMK AO2 T00061006 $
03949KAQV AQV20160104033011201/04/16 03:30:31  5-MIN KAQV 040930Z AUTO 00000KT 10SM CLR 01/M01 A3022 100 92 -1500 000/00 RMK AO2 T00061006 $
03949KAQV AQV20160104033511201/04/16 03:35:31  5-MIN KAQV 040935Z AUTO 00000KT 10SM CLR 01/M01 A3022 100 92 -1500 000/00 RMK AO2 T00061006 $
03949KAQV AQV20160104034011201/04/16 03:40:31  5-MIN KAQV 040940Z AUTO 00000KT 10SM CLR 01/M01 A3022 100 92 -1500 000/00 RMK AO2 T00061006 $
03949KAQV AQV20160104034511201/04/16 03:45:31  5-MIN KAQV 040945Z AUTO 00000KT 10SM CLR 01/M01 A3022 100 92 -1500 000/00 RMK AO2 T00061006 $
03949KAQV AQV20160104035011901/04/16 03:50:31  5-MIN KAQV 040950Z AUTO 00000KT 10SM CLR 01/M01 A3022 100 92 -1500 000/00 RMK AO2 SLP234 T00061006 $
03949KAQV AQV20160104035511901/04/16 03:55:31  5-MIN KAQV 040955Z AUTO 00000KT 10SM CLR 01/M01 A3022 100 92 -1500 000/00 RMK AO2 SLP234 T00061006 $
03949KAQV AQV20160104193511101/04/16 19:35:31  5-MIN KAQV 050135Z AUTO VRB03KT 10SM CLR 06/M01 A3031 10 65 -1000 VRB/03 RMK AO2 T00561006 $
03949KAQV AQV20160104194011101/04/16 19:40:31  5-MIN KAQV 050140Z AUTO 04004KT 10SM CLR 06/M01 A3032 10 65 -1000 040/04 RMK AO2 T00561006 $
03949KAQV AQV20160104194511101/04/16 19:45:31  5-MIN KAQV 050145Z AUTO 04004KT 10SM CLR 06/M01 A3032 10 65 -1000 030/04 RMK AO2 T00561006 $
03949KAQV AQV20160104195011801/04/16 19:50:31  5-MIN KAQV 050150Z AUTO 04005KT 10SM CLR 06/M01 A3032 10 65 -1000 040/05 RMK AO2 SLP269 T00561006 $
03949KAQV AQV20160104195511701/04/16 19:55:31  5-MIN KAQV 050155Z AUTO 04004KT 10SM CLR 06/00 A3032 10 67 -1000 030/04 RMK AO2 SLP269 T00560000 $
03949KAQV AQV20160104200011001/04/16 20:00:31  5-MIN KAQV 050200Z AUTO 06004KT 10SM CLR 05/00 A3032 10 70 -1100 050/04 RMK AO2 T00500000 $
03949KAQV AQV20160104200511001/04/16 20:05:31  5-MIN KAQV 050205Z AUTO 05006KT 10SM CLR 05/00 A3032 10 70 -1100 050/06 RMK AO2 T00500000 $
03949KAQV AQV20160104201011001/04/16 20:10:31  5-MIN KAQV 050210Z AUTO VRB05KT 10SM CLR 05/00 A3032 10 70 -1100 VRB/05 RMK AO2 T00500000 $
03949KAQV AQV20160104201511001/04/16 20:15:31  5-MIN KAQV 050215Z AUTO 05006KT 10SM CLR 05/00 A3032 10 70 -1100 050/06 RMK AO2 T00500000 $
03949KAQV AQV20160105174510901/05/16 17:45:31  5-MIN KAQV 052345Z AUTO 00000KT 10SM CLR 04/M01 A3029 40 70 -1100 000/00 RMK AO2 T00441006
03949KAQV AQV20160105175013401/05/16 17:50:31  5-MIN KAQV 052350Z AUTO 00000KT 10SM CLR 04/M01 A3029 40 70 -1100 000/00 RMK AO2 SLP260 T00441006 10100 20044 56033
03949KAQV AQV20160105175513301/05/16 17:55:31  5-MIN KAQV 052355Z AUTO 00000KT 10SM CLR 04/00 A3029 40 73 -1100 000/00 RMK AO2 SLP261 T00440000 10100 20044 56033
03949KAQV AQV20160105180010801/05/16 18:00:31  5-MIN KAQV 060000Z AUTO 00000KT 10SM CLR 04/00 A3029 40 76 -1200 000/00 RMK AO2 T00390000
03949KAQV AQV20160105180510801/05/16 18:05:31  5-MIN KAQV 060005Z AUTO 00000KT 10SM CLR 03/00 A3029 40 79 -1300 000/00 RMK AO2 T00330000
03949KAQV AQV20160105181010801/05/16 18:10:31  5-MIN KAQV 060010Z AUTO 00000KT 10SM CLR 03/00 A3029 40 79 -1300 000/00 RMK AO2 T00330000
03949KAQV AQV20160105181510801/05/16 18:15:31  5-MIN KAQV 060015Z AUTO 00000KT 10SM CLR 03/00 A3029 30 82 -1400 000/00 RMK AO2 T00280000
03949KAQV AQV20160105182010801/05/16 18:20:31  5-MIN KAQV 060020Z AUTO 00000KT 10SM CLR 03/00 A3029 40 82 -1400 000/00 RMK AO2 T00280000
03949KAQV AQV20160105182510801/05/16 18:25:31  5-MIN KAQV 060025Z AUTO 00000KT 10SM CLR 03/00 A3029 40 82 -1400 000/00 RMK AO2 T00280000
03949KAQV AQV20160105183010801/05/16 18:30:31  5-MIN KAQV 060030Z AUTO 00000KT 10SM CLR 03/00 A3029 30 82 -1400 000/00 RMK AO2 T00280000
03949KAQV AQV20160105183510801/05/16 18:35:31  5-MIN KAQV 060035Z AUTO 00000KT 10SM CLR 02/00 A3030 30 85 -1400 000/00 RMK AO2 T00220000
03949KAQV AQV20160105184010901/05/16 18:40:31  5-MIN KAQV 060040Z AUTO 00000KT 10SM CLR 02/M01 A3030 30 82 -1400 000/00 RMK AO2 T00221006
03949KAQV AQV20160105184510901/05/16 18:45:31  5-MIN KAQV 060045Z AUTO 00000KT 10SM CLR 02/M01 A3030 30 82 -1400 000/00 RMK AO2 T00221006
03949KAQV AQV20160105185011601/05/16 18:50:31  5-MIN KAQV 060050Z AUTO 00000KT 10SM CLR 02/M01 A3030 20 85 -1500 000/00 RMK AO2 SLP266 T00171006
03949KAQV AQV20160105185511601/05/16 18:55:31  5-MIN KAQV 060055Z AUTO 00000KT 10SM CLR 02/M01 A3030 20 85 -1500 000/00 RMK AO2 SLP266 T00171006
03949KAQV AQV20160105190010901/05/16 19:00:31  5-MIN KAQV 060100Z AUTO 00000KT 10SM CLR 02/M01 A3030 20 85 -1500 000/00 RMK AO2 T00171006
03949KAQV AQV20160105190510901/05/16 19:05:31  5-MIN KAQV 060105Z AUTO 00000KT 10SM CLR 02/M01 A3030 20 85 -1500 000/00 RMK AO2 T00171006
03949KAQV AQV20160105191010901/05/16 19:10:31  5-MIN KAQV 060110Z AUTO 00000KT 10SM CLR 02/M01 A3030 20 85 -1500 000/00 RMK AO2 T00171006
03949KAQV AQV20160105191510901/05/16 19:15:31  5-MIN KAQV 060115Z AUTO 00000KT 10SM CLR 01/M01 A3030 20 89 -1600 000/00 RMK AO2 T00111006
03949KAQV AQV20160107134511001/07/16 13:45:31  5-MIN KAQV 071945Z AUTO VRB03KT 10SM OVC013 16/13 A2984 450 83 700 VRB/03 RMK AO2 T01610133
03949KAQV AQV20160107135011701/07/16 13:50:31  5-MIN KAQV 071950Z AUTO VRB03KT 10SM OVC012 16/13 A2984 450 83 700 VRB/03 RMK AO2 SLP104 T01560128
03949KAQV AQV20160107135511701/07/16 13:55:31  5-MIN KAQV 071955Z AUTO 00000KT 10SM OVC012 16/13 A2984 450 83 700 000/00 RMK AO2 SLP103 T01610133
03949KAQV AQV20160107140011001/07/16 14:00:31  5-MIN KAQV 072000Z AUTO 00000KT 10SM OVC012 16/13 A2984 450 83 700 000/00 RMK AO2 T01610133
03949KAQV AQV20160107140511001/07/16 14:05:31  5-MIN KAQV 072005Z AUTO 00000KT 10SM OVC013 16/13 A2984 450 80 700 000/00 RMK AO2 T01610128
03949KAQV AQV20160107141011001/07/16 14:10:31  5-MIN KAQV 072010Z AUTO VRB03KT 10SM OVC013 16/13 A2984 450 83 700 VRB/03 RMK AO2 T01610133
03949KAQV AQV20160107141511001/07/16 14:15:31  5-MIN KAQV 072015Z AUTO VRB04KT 10SM OVC013 16/13 A2984 450 80 700 VRB/04 RMK AO2 T01610128
03949KAQV AQV20160107142011001/07/16 14:20:31  5-MIN KAQV 072020Z AUTO VRB03KT 10SM OVC013 16/13 A2984 450 80 700 VRB/03 RMK AO2 T01610128
03949KAQV AQV20160107142511001/07/16 14:25:31  5-MIN KAQV 072025Z AUTO 23003KT 10SM OVC014 16/13 A2984 450 80 700 220/03 RMK AO2 T01610128
03949KAQV AQV20160107143011001/07/16 14:30:31  5-MIN KAQV 072030Z AUTO 23004KT 10SM OVC014 16/13 A2984 450 80 700 220/04 RMK AO2 T01610128
03949KAQV AQV20160107143511001/07/16 14:35:31  5-MIN KAQV 072035Z AUTO 00000KT 10SM OVC014 16/13 A2984 460 83 700 000/00 RMK AO2 T01610133
03949KAQV AQV20160107144011001/07/16 14:40:31  5-MIN KAQV 072040Z AUTO VRB04KT 10SM OVC014 16/13 A2983 460 83 700 VRB/04 RMK AO2 T01610133
03949KAQV AQV20160107144511001/07/16 14:45:31  5-MIN KAQV 072045Z AUTO VRB04KT 10SM OVC014 16/13 A2983 460 80 700 VRB/04 RMK AO2 T01610128
03949KAQV AQV20160107145012301/07/16 14:50:31  5-MIN KAQV 072050Z AUTO VRB03KT 10SM OVC014 16/13 A2983 460 80 700 VRB/03 RMK AO2 SLP102 T01610128 58012
03949KAQV AQV20160107145512301/07/16 14:55:31  5-MIN KAQV 072055Z AUTO 18004KT 10SM OVC014 16/13 A2983 460 80 700 180/04 RMK AO2 SLP101 T01610128 58012
03949KAQV AQV20160107150011001/07/16 15:00:31  5-MIN KAQV 072100Z AUTO VRB03KT 10SM OVC014 16/13 A2982 470 83 700 VRB/03 RMK AO2 T01610133
03949KAQV AQV20160107150511001/07/16 15:05:31  5-MIN KAQV 072105Z AUTO 20004KT 10SM OVC014 16/13 A2982 470 83 700 190/04 RMK AO2 T01610133
03949KAQV AQV20160107151011001/07/16 15:10:31  5-MIN KAQV 072110Z AUTO VRB03KT 10SM OVC014 16/13 A2982 470 83 700 VRB/03 RMK AO2 T01610133
03949KAQV AQV20160107151511001/07/16 15:15:31  5-MIN KAQV 072115Z AUTO 21004KT 10SM OVC015 16/13 A2982 470 83 700 200/04 RMK AO2 T01610133
03949KAQV AQV20160107152011001/07/16 15:20:31  5-MIN KAQV 072120Z AUTO 22004KT 10SM OVC015 16/13 A2982 470 80 700 220/04 RMK AO2 T01610128
03949KAQV AQV20160107152511001/07/16 15:25:31  5-MIN KAQV 072125Z AUTO VRB04KT 10SM OVC015 16/13 A2982 470 83 700 VRB/04 RMK AO2 T01610133
03949KAQV AQV20160107153011001/07/16 15:30:31  5-MIN KAQV 072130Z AUTO VRB03KT 10SM OVC015 16/13 A2983 460 83 700 VRB/03 RMK AO2 T01610133
03949KAQV AQV20160107153511001/07/16 15:35:31  5-MIN KAQV 072135Z AUTO VRB04KT 10SM OVC016 16/13 A2983 460 83 700 VRB/04 RMK AO2 T01610133
03949KAQV AQV20160107154011001/07/16 15:40:31  5-MIN KAQV 072140Z AUTO VRB03KT 10SM OVC016 16/13 A2983 460 80 700 VRB/03 RMK AO2 T01610128
03949KAQV AQV20160107154511001/07/16 15:45:31  5-MIN KAQV 072145Z AUTO 00000KT 10SM OVC016 16/13 A2983 460 80 700 000/00 RMK AO2 T01610128
03949KAQV AQV20160107155011701/07/16 15:50:31  5-MIN KAQV 072150Z AUTO 00000KT 10SM OVC016 16/13 A2983 460 80 700 000/00 RMK AO2 SLP100 T01610128
03949KAQV AQV20160107155511701/07/16 15:55:31  5-MIN KAQV 072155Z AUTO 20003KT 10SM OVC015 16/13 A2983 460 80 700 200/03 RMK AO2 SLP100 T01610128
03949KAQV AQV20160107160011001/07/16 16:00:31  5-MIN KAQV 072200Z AUTO 17003KT 10SM OVC015 16/13 A2982 470 83 700 170/03 RMK AO2 T01610133
03949KAQV AQV20160107160511001/07/16 16:05:31  5-MIN KAQV 072205Z AUTO VRB04KT 10SM OVC015 16/13 A2982 470 80 700 VRB/04 RMK AO2 T01610128
03949KAQV AQV20160107161011001/07/16 16:10:31  5-MIN KAQV 072210Z AUTO 00000KT 10SM OVC015 16/13 A2982 470 83 700 000/00 RMK AO2 T01560128
03949KAQV AQV20160107161511001/07/16 16:15:31  5-MIN KAQV 072215Z AUTO 00000KT 10SM OVC015 16/13 A2982 470 80 700 000/00 RMK AO2 T01610128
03949KAQV AQV20160107162011001/07/16 16:20:31  5-MIN KAQV 072220Z AUTO 00000KT 10SM OVC016 16/13 A2983 460 83 700 000/00 RMK AO2 T01560128
03949KAQV AQV20160107162511001/07/16 16:25:31  5-MIN KAQV 072225Z AUTO 00000KT 10SM OVC016 16/13 A2983 460 83 700 000/00 RMK AO2 T01610133
03949KAQV AQV20160107163011001/07/16 16:30:31  5-MIN KAQV 072230Z AUTO 00000KT 10SM OVC016 16/13 A2983 460 86 700 000/00 RMK AO2 T01560133
03949KAQV AQV20160107163511001/07/16 16:35:31  5-MIN KAQV 072235Z AUTO 00000KT 10SM OVC016 16/13 A2983 460 86 700 000/00 RMK AO2 T01560133
03949KAQV AQV20160107164011001/07/16 16:40:31  5-MIN KAQV 072240Z AUTO 00000KT 10SM OVC016 16/13 A2983 460 86 700 000/00 RMK AO2 T01560133
03949KAQV AQV20160107164511001/07/16 16:45:31  5-MIN KAQV 072245Z AUTO 00000KT 10SM OVC015 16/13 A2983 460 86 700 000/00 RMK AO2 T01560133
03949KAQV AQV20160107165011701/07/16 16:50:31  5-MIN KAQV 072250Z AUTO 00000KT 10SM OVC015 16/13 A2984 450 86 700 000/00 RMK AO2 SLP104 T01560133
03949KAQV AQV20160107165511701/07/16 16:55:31  5-MIN KAQV 072255Z AUTO 00000KT 10SM OVC014 16/13 A2984 450 86 700 000/00 RMK AO2 SLP103 T01560133
03949KAQV AQV20160107170011001/07/16 17:00:31  5-MIN KAQV 072300Z AUTO 00000KT 10SM OVC014 16/13 A2984 450 86 700 000/00 RMK AO2 T01560133
03949KAQV AQV20160107170511701/07/16 17:05:31  5-MIN KAQV 072305Z AUTO 00000KT 10SM BKN014 OVC020 16/13 A2984 450 86 700 000/00 RMK AO2 T01560133
03949KAQV AQV20160107171011001/07/16 17:10:31  5-MIN KAQV 072310Z AUTO 00000KT 10SM OVC017 16/13 A2984 450 86 700 000/00 RMK AO2 T01560133
03949KAQV AQV20160107171511001/07/16 17:15:31  5-MIN KAQV 072315Z AUTO 00000KT 10SM OVC017 16/13 A2984 450 86 700 000/00 RMK AO2 T01560133
03949KAQV AQV20160107172011701/07/16 17:20:31  5-MIN KAQV 072320Z AUTO 00000KT 10SM FEW013 OVC019 15/13 A2984 450 90 600 000/00 RMK AO2 T01500133
03949KAQV AQV20160107172511001/07/16 17:25:31  5-MIN KAQV 072325Z AUTO 00000KT 10SM OVC019 15/13 A2984 450 90 600 000/00 RMK AO2 T01500133
03949KAQV AQV20160107173011001/07/16 17:30:31  5-MIN KAQV 072330Z AUTO 00000KT 10SM OVC019 15/13 A2984 450 90 600 000/00 RMK AO2 T01500133
03949KAQV AQV20160107173511001/07/16 17:35:31  5-MIN KAQV 072335Z AUTO 00000KT 10SM OVC019 15/13 A2984 450 90 600 000/00 RMK AO2 T01500133
03949KAQV AQV20160107174011001/07/16 17:40:31  5-MIN KAQV 072340Z AUTO 00000KT 10SM OVC021 14/13 A2984 450 93 500 000/00 RMK AO2 T01440133
03949KAQV AQV20160107174511001/07/16 17:45:31  5-MIN KAQV 072345Z AUTO 00000KT 10SM OVC021 14/13 A2984 450 93 500 000/00 RMK AO2 T01440133
03949KAQV AQV20160107175013501/07/16 17:50:31  5-MIN KAQV 072350Z AUTO 00000KT 10SM OVC021 14/13 A2985 440 93 500 000/00 RMK AO2 SLP107 T01440133 10161 20133 56026
03949KAQV AQV20160107175513501/07/16 17:55:31  5-MIN KAQV 072355Z AUTO 00000KT 10SM OVC022 14/13 A2985 440 93 500 000/00 RMK AO2 SLP107 T01440133 10161 20133 56026
03949KAQV AQV20160107180011001/07/16 18:00:31  5-MIN KAQV 080000Z AUTO 00000KT 10SM OVC022 14/13 A2985 440 93 500 000/00 RMK AO2 T01440133
03949KAQV AQV20160107180511001/07/16 18:05:31  5-MIN KAQV 080005Z AUTO 00000KT 10SM OVC022 14/13 A2985 440 93 500 000/00 RMK AO2 T01440133
03949KAQV AQV20160107181011001/07/16 18:10:31  5-MIN KAQV 080010Z AUTO 00000KT 10SM OVC022 14/13 A2985 440 93 500 000/00 RMK AO2 T01440133
03949KAQV AQV20160107181511001/07/16 18:15:31  5-MIN KAQV 080015Z AUTO 00000KT 10SM OVC024 14/13 A2985 440 93 500 000/00 RMK AO2 T01440133
03949KAQV AQV20160107182011701/07/16 18:20:31  5-MIN KAQV 080020Z AUTO 00000KT 10SM SCT021 OVC026 14/13 A2985 440 93 500 000/00 RMK AO2 T01440133
03949KAQV AQV20160107182511701/07/16 18:25:31  5-MIN KAQV 080025Z AUTO 00000KT 10SM SCT021 OVC026 14/13 A2985 440 93 500 000/00 RMK AO2 T01440133
03949KAQV AQV20160107183011001/07/16 18:30:31  5-MIN KAQV 080030Z AUTO 00000KT 10SM OVC026 14/13 A2985 440 96 500 000/00 RMK AO2 T01390133
03949KAQV AQV20160107183511001/07/16 18:35:31  5-MIN KAQV 080035Z AUTO 00000KT 10SM OVC026 14/13 A2985 440 93 500 000/00 RMK AO2 T01440133
03949KAQV AQV20160107184011001/07/16 18:40:31  5-MIN KAQV 080040Z AUTO 00000KT 10SM OVC028 14/13 A2985 440 93 500 000/00 RMK AO2 T01440133
03949KAQV AQV20160107184511001/07/16 18:45:31  5-MIN KAQV 080045Z AUTO 00000KT 10SM OVC028 14/13 A2985 440 93 500 000/00 RMK AO2 T01440133
03949KAQV AQV20160107185011701/07/16 18:50:31  5-MIN KAQV 080050Z AUTO 00000KT 10SM OVC028 14/13 A2985 440 93 500 000/00 RMK AO2 SLP110 T01440133
03949KAQV AQV20160107185511701/07/16 18:55:31  5-MIN KAQV 080055Z AUTO 00000KT 10SM OVC028 14/13 A2985 440 93 500 000/00 RMK AO2 SLP110 T01440133
03949KAQV AQV20160107190007501/07/16 19:00:31  5-MIN KAQV 080100Z AUTO 00000KT 10SM OVC029 14/13 A2985 
03949KAQV AQV20160108030011401/08/16 03:00:31  5-MIN KAQV 080900Z AUTO VRB04KT 1/2SM FG VV002 14/14 A2985 440 100 500 VRB/04 RMK AO2 T01390139
03949KAQV AQV20160108030511401/08/16 03:05:31  5-MIN KAQV 080905Z AUTO VRB04KT 1/2SM FG VV002 14/14 A2985 440 100 500 VRB/04 RMK AO2 T01390139
03949KAQV AQV20160108031011301/08/16 03:10:31  5-MIN KAQV 080910Z AUTO VRB05KT 1/2SM FG VV002 14/13 A2984 450 96 500 VRB/05 RMK AO2 T01390133
03949KAQV AQV20160108031511401/08/16 03:15:31  5-MIN KAQV 080915Z AUTO 18004KT 3/4SM BR VV002 14/14 A2984 450 100 500 170/04 RMK AO2 T01390139
03949KAQV AQV20160108032011401/08/16 03:20:31  5-MIN KAQV 080920Z AUTO VRB04KT 3/4SM BR VV002 14/14 A2984 450 100 500 VRB/04 RMK AO2 T01390139
03949KAQV AQV20160108032511401/08/16 03:25:31  5-MIN KAQV 080925Z AUTO VRB06KT 3/4SM BR VV002 14/14 A2984 450 100 500 VRB/06 RMK AO2 T01390139
03949KAQV AQV20160108033011401/08/16 03:30:31  5-MIN KAQV 080930Z AUTO 18006KT 3/4SM BR VV002 14/14 A2984 450 100 500 170/06 RMK AO2 T01390139
03949KAQV AQV20160108033511401/08/16 03:35:31  5-MIN KAQV 080935Z AUTO VRB04KT 3/4SM BR VV002 14/14 A2984 450 100 500 VRB/04 RMK AO2 T01390139
03949KAQV AQV20160108034011401/08/16 03:40:31  5-MIN KAQV 080940Z AUTO VRB03KT 3/4SM BR VV002 14/14 A2985 450 100 500 VRB/03 RMK AO2 T01390139
03949KAQV AQV20160108034511401/08/16 03:45:31  5-MIN KAQV 080945Z AUTO VRB04KT 3/4SM BR VV002 14/14 A2985 440 100 500 VRB/04 RMK AO2 T01390139
03949KAQV AQV20160108035012101/08/16 03:50:31  5-MIN KAQV 080950Z AUTO 18004KT 3/4SM BR VV002 14/14 A2984 450 100 500 170/04 RMK AO2 SLP105 T01390139
03949KAQV AQV20160108035512101/08/16 03:55:31  5-MIN KAQV 080955Z AUTO 18003KT 1/2SM FG VV002 14/14 A2985 440 100 500 180/03 RMK AO2 SLP106 T01390139
03949KAQV AQV20160108040011401/08/16 04:00:31  5-MIN KAQV 081000Z AUTO 18003KT 1/2SM FG VV002 14/14 A2985 450 100 500 180/03 RMK AO2 T01390139
03949KAQV AQV20160108040511401/08/16 04:05:31  5-MIN KAQV 081005Z AUTO VRB03KT 1/2SM FG VV002 14/14 A2984 450 100 500 VRB/03 RMK AO2 T01390139
03949KAQV AQV20160108041011401/08/16 04:10:31  5-MIN KAQV 081010Z AUTO 18003KT 1/2SM FG VV002 14/14 A2984 450 100 500 170/03 RMK AO2 T01390139
03949KAQV AQV20160108041511401/08/16 04:15:31  5-MIN KAQV 081015Z AUTO VRB04KT 1/2SM FG VV002 14/14 A2985 450 100 500 VRB/04 RMK AO2 T01390139
03949KAQV AQV20160108042011401/08/16 04:20:31  5-MIN KAQV 081020Z AUTO 18004KT 3/4SM BR VV002 14/14 A2984 450 100 500 180/04 RMK AO2 T01390139
03949KAQV AQV20160108042511401/08/16 04:25:31  5-MIN KAQV 081025Z AUTO 18003KT 3/4SM BR VV002 14/14 A2984 450 100 500 180/03 RMK AO2 T01390139
03949KAQV AQV20160108043011401/08/16 04:30:31  5-MIN KAQV 081030Z AUTO 19003KT 3/4SM BR VV002 14/14 A2984 450 100 500 190/03 RMK AO2 T01390139
03949KAQV AQV20160108043511401/08/16 04:35:31  5-MIN KAQV 081035Z AUTO VRB03KT 3/4SM BR VV002 14/14 A2984 450 100 500 VRB/03 RMK AO2 T01390139
03949KAQV AQV20160108044011401/08/16 04:40:31  5-MIN KAQV 081040Z AUTO 18004KT 3/4SM BR VV002 14/14 A2984 450 100 500 170/04 RMK AO2 T01390139
03949KAQV AQV20160108044511201/08/16 04:45:31  5-MIN KAQV 081045Z AUTO VRB03KT 1SM BR VV002 14/14 A2984 450 100 500 VRB/03 RMK AO2 T01390139
03949KAQV AQV20160108045011901/08/16 04:50:31  5-MIN KAQV 081050Z AUTO 18004KT 1SM BR VV002 14/14 A2984 450 100 500 180/04 RMK AO2 SLP104 T01390139
03949KAQV AQV20160108045512401/08/16 04:55:31  5-MIN KAQV 081055Z AUTO 19004KT 1 1/4SM BR OVC002 14/14 A2984 450 100 500 180/04 RMK AO2 SLP104 T01390139
03949KAQV AQV20160108050011701/08/16 05:00:31  5-MIN KAQV 081100Z AUTO 17004KT 1 1/4SM BR OVC002 14/14 A2984 450 100 500 170/04 RMK AO2 T01390139
03949KAQV AQV20160108050511701/08/16 05:05:31  5-MIN KAQV 081105Z AUTO 17003KT 1 1/2SM BR OVC002 14/14 A2984 450 100 500 170/03 RMK AO2 T01390139
03949KAQV AQV20160108051011701/08/16 05:10:31  5-MIN KAQV 081110Z AUTO 19003KT 1 1/2SM BR OVC002 14/14 A2984 450 100 500 190/03 RMK AO2 T01390139
03949KAQV AQV20160108051511701/08/16 05:15:31  5-MIN KAQV 081115Z AUTO VRB04KT 1 1/2SM BR OVC002 14/14 A2984 450 100 500 VRB/04 RMK AO2 T01390139
03949KAQV AQV20160108052011701/08/16 05:20:31  5-MIN KAQV 081120Z AUTO 18003KT 2 1/2SM BR OVC002 14/14 A2984 450 100 500 170/03 RMK AO2 T01390139
03949KAQV AQV20160108052511701/08/16 05:25:31  5-MIN KAQV 081125Z AUTO VRB04KT 2 1/2SM BR OVC002 14/14 A2984 450 100 500 VRB/04 RMK AO2 T01390139
03949KAQV AQV20160108053011701/08/16 05:30:31  5-MIN KAQV 081130Z AUTO 18003KT 1 1/2SM BR OVC002 14/14 A2984 450 100 500 170/03 RMK AO2 T01390139
03949KAQV AQV20160108053511701/08/16 05:35:31  5-MIN KAQV 081135Z AUTO 18005KT 1 1/4SM BR OVC002 14/14 A2984 450 100 500 170/05 RMK AO2 T01390139
03949KAQV AQV20160108054011701/08/16 05:40:31  5-MIN KAQV 081140Z AUTO 18004KT 1 1/4SM BR OVC002 14/14 A2984 450 100 500 180/04 RMK AO2 T01390139
03949KAQV AQV20160108054511701/08/16 05:45:31  5-MIN KAQV 081145Z AUTO 16004KT 1 1/2SM BR OVC002 14/14 A2984 450 100 500 160/04 RMK AO2 T01390139
03949KAQV AQV20160108055014801/08/16 05:50:31  5-MIN KAQV 081150Z AUTO 18006KT 1 1/2SM BR OVC002 14/14 A2984 450 100 500 180/06 RMK AO2 SLP104 70001 T01390139 10139 20128 58004
03949KAQV AQV20160108055514801/08/16 05:55:31  5-MIN KAQV 081155Z AUTO 17004KT 1 1/2SM BR OVC002 14/14 A2984 450 100 500 170/04 RMK AO2 SLP104 70001 T01390139 10139 20128 58004
03949KAQV AQV20160108060011701/08/16 06:00:31  5-MIN KAQV 081200Z AUTO VRB05KT 1 1/2SM BR OVC002 14/14 A2984 450 100 500 VRB/05 RMK AO2 T01390139
03949KAQV AQV20160108060511701/08/16 06:05:31  5-MIN KAQV 081205Z AUTO VRB03KT 1 1/4SM BR OVC002 14/14 A2984 450 100 500 VRB/03 RMK AO2 T01390139
03949KAQV AQV20160108061011701/08/16 06:10:31  5-MIN KAQV 081210Z AUTO 16005KT 1 1/2SM BR OVC002 14/14 A2984 450 100 500 150/05 RMK AO2 T01390139
03949KAQV AQV20160108061511701/08/16 06:15:31  5-MIN KAQV 081215Z AUTO 17004KT 1 1/2SM BR OVC002 14/14 A2984 450 100 500 160/04 RMK AO2 T01390139
03949KAQV AQV20160108062011701/08/16 06:20:31  5-MIN KAQV 081220Z AUTO 19005KT 1 1/2SM BR OVC002 14/14 A2984 450 100 500 180/05 RMK AO2 T01390139
03949KAQV AQV20160108062511701/08/16 06:25:31  5-MIN KAQV 081225Z AUTO 17004KT 1 1/2SM BR OVC002 14/14 A2984 450 100 500 160/04 RMK AO2 T01390139
03949KAQV AQV20160108063011701/08/16 06:30:31  5-MIN KAQV 081230Z AUTO 18003KT 1 1/4SM BR OVC002 14/14 A2984 450 100 500 180/03 RMK AO2 T01390139
03949KAQV AQV20160108063511301/08/16 06:35:31  5-MIN KAQV 081235Z AUTO 17003KT 1SM BR OVC002 14/14 A2984 450 100 500 170/03 RMK AO2 T01390139
03949KAQV AQV20160108064011301/08/16 06:40:31  5-MIN KAQV 081240Z AUTO 16004KT 1SM BR OVC002 14/14 A2984 450 100 500 160/04 RMK AO2 T01390139
03949KAQV AQV20160108064511701/08/16 06:45:31  5-MIN KAQV 081245Z AUTO 17005KT 1 1/4SM BR OVC002 14/14 A2985 450 100 500 160/05 RMK AO2 T01390139
03949KAQV AQV20160108065012401/08/16 06:50:31  5-MIN KAQV 081250Z AUTO 17004KT 1 1/4SM BR OVC002 14/14 A2985 440 100 500 170/04 RMK AO2 SLP106 T01390139
03949KAQV AQV20160108065512401/08/16 06:55:31  5-MIN KAQV 081255Z AUTO VRB04KT 1 1/4SM BR OVC002 14/14 A2985 450 100 500 VRB/04 RMK AO2 SLP106 T01390139
03949KAQV AQV20160108070011701/08/16 07:00:31  5-MIN KAQV 081300Z AUTO 17005KT 1 1/4SM BR OVC002 14/14 A2985 440 100 500 170/05 RMK AO2 T01390139
03949KAQV AQV20160108070511701/08/16 07:05:31  5-MIN KAQV 081305Z AUTO 16003KT 1 1/4SM BR OVC002 14/14 A2985 440 100 500 160/03 RMK AO2 T01390139
03949KAQV AQV20160108071011701/08/16 07:10:31  5-MIN KAQV 081310Z AUTO 17004KT 1 1/4SM BR OVC002 14/14 A2985 440 100 500 170/04 RMK AO2 T01390139
03949KAQV AQV20160108071511701/08/16 07:15:31  5-MIN KAQV 081315Z AUTO 17005KT 1 1/4SM BR OVC002 14/14 A2985 440 100 500 160/05 RMK AO2 T01390139
03949KAQV AQV20160108072011301/08/16 07:20:31  5-MIN KAQV 081320Z AUTO 17007KT 1SM BR OVC002 14/14 A2985 440 100 500 160/07 RMK AO2 T01390139
03949KAQV AQV20160108072513201/08/16 07:25:31  5-MIN KAQV 081325Z AUTO 17007KT 130V200 1 1/4SM BR OVC002 14/13 A2985 440 96 500 170/07 130V200 RMK AO2 T01390133
03949KAQV AQV20160108073011601/08/16 07:30:31  5-MIN KAQV 081330Z AUTO 16003KT 1 1/2SM BR OVC002 14/13 A2985 440 96 500 160/03 RMK AO2 T01390133
03949KAQV AQV20160108073511301/08/16 07:35:31  5-MIN KAQV 081335Z AUTO 17007KT 1SM BR OVC002 14/14 A2985 440 100 500 170/07 RMK AO2 T01390139
03949KAQV AQV20160108074011501/08/16 07:40:31  5-MIN KAQV 081340Z AUTO 17004KT 3/4SM BR OVC002 14/14 A2985 440 100 500 170/04 RMK AO2 T01390139
03949KAQV AQV20160108074511501/08/16 07:45:31  5-MIN KAQV 081345Z AUTO 15005KT 1/2SM FG OVC002 14/14 A2986 440 100 400 150/05 RMK AO2 T01390139
03949KAQV AQV20160108075012201/08/16 07:50:31  5-MIN KAQV 081350Z AUTO 16006KT 1/2SM FG OVC002 14/14 A2986 430 100 400 160/06 RMK AO2 SLP111 T01390139
03949KAQV AQV20160108075512201/08/16 07:55:31  5-MIN KAQV 081355Z AUTO 17005KT 1/2SM FG OVC002 14/14 A2986 430 100 400 170/05 RMK AO2 SLP111 T01390139
03949KAQV AQV20160108080011401/08/16 08:00:31  5-MIN KAQV 081400Z AUTO 18004KT 1/2SM FG VV003 14/14 A2986 430 100 400 180/04 RMK AO2 T01390139
03949KAQV AQV20160108080511401/08/16 08:05:31  5-MIN KAQV 081405Z AUTO VRB04KT 1/2SM FG VV003 14/14 A2986 430 100 400 VRB/04 RMK AO2 T01390139
03949KAQV AQV20160108081011401/08/16 08:10:31  5-MIN KAQV 081410Z AUTO VRB03KT 1/2SM FG VV003 14/14 A2986 430 100 400 VRB/03 RMK AO2 T01390139
03949KAQV AQV20160108081511401/08/16 08:15:31  5-MIN KAQV 081415Z AUTO 18004KT 1/2SM FG VV003 14/14 A2986 430 100 400 180/04 RMK AO2 T01390139
03949KAQV AQV20160108082011401/08/16 08:20:31  5-MIN KAQV 081420Z AUTO 17003KT 1/2SM FG VV003 14/14 A2987 430 100 400 160/03 RMK AO2 T01390139
03949KAQV AQV20160108082511401/08/16 08:25:31  5-MIN KAQV 081425Z AUTO 18004KT 1/2SM FG VV003 14/14 A2987 420 100 400 170/04 RMK AO2 T01390139
03949KAQV AQV20160108083011501/08/16 08:30:31  5-MIN KAQV 081430Z AUTO 00000KT 1/2SM FG OVC002 14/14 A2987 420 100 400 000/00 RMK AO2 T01390139
03949KAQV AQV20160108083511501/08/16 08:35:31  5-MIN KAQV 081435Z AUTO 17003KT 1/2SM FG OVC002 14/14 A2987 420 100 400 170/03 RMK AO2 T01390139
03949KAQV AQV20160108084011501/08/16 08:40:31  5-MIN KAQV 081440Z AUTO 18003KT 1/2SM FG OVC002 14/14 A2988 420 100 400 180/03 RMK AO2 T01390139
03949KAQV AQV20160108084511501/08/16 08:45:31  5-MIN KAQV 081445Z AUTO 00000KT 1/2SM FG OVC002 14/14 A2988 410 100 400 000/00 RMK AO2 T01390139
03949KAQV AQV20160108085012601/08/16 08:50:31  5-MIN KAQV 081450Z AUTO VRB03KT 1/2SM FG VV003 14/14 A2988 410 96 500 VRB/03 RMK AO2 SLP118 T01440139 55001
03949KAQV AQV20160108085512601/08/16 08:55:31  5-MIN KAQV 081455Z AUTO 17004KT 1/2SM FG VV003 14/14 A2988 410 96 500 170/04 RMK AO2 SLP119 T01440139 55001
03949KAQV AQV20160108090011301/08/16 09:00:31  5-MIN KAQV 081500Z AUTO 18004KT 1/2SM FG VV003 14/14 A2988 410 96 500 170/04 RMK AO2 T01440139
03949KAQV AQV20160108090511501/08/16 09:05:31  5-MIN KAQV 081505Z AUTO VRB04KT 1/2SM FG OVC002 14/14 A2988 410 100 500 VRB/04 RMK AO2 T01440144
03949KAQV AQV20160108091011501/08/16 09:10:31  5-MIN KAQV 081510Z AUTO 17005KT 3/4SM BR OVC002 14/14 A2988 410 100 500 170/05 RMK AO2 T01440144
03949KAQV AQV20160108091511301/08/16 09:15:31  5-MIN KAQV 081515Z AUTO VRB04KT 1SM BR OVC002 14/14 A2988 410 100 500 VRB/04 RMK AO2 T01440144
03949KAQV AQV20160108092011301/08/16 09:20:31  5-MIN KAQV 081520Z AUTO 17004KT 1SM BR OVC002 14/14 A2988 410 100 500 160/04 RMK AO2 T01440144
03949KAQV AQV20160108092511301/08/16 09:25:31  5-MIN KAQV 081525Z AUTO 17003KT 1SM BR OVC002 14/14 A2988 410 100 500 170/03 RMK AO2 T01440144
03949KAQV AQV20160108093011301/08/16 09:30:31  5-MIN KAQV 081530Z AUTO VRB03KT 1SM BR OVC002 14/14 A2988 410 100 500 VRB/03 RMK AO2 T01440144
03949KAQV AQV20160108093511301/08/16 09:35:31  5-MIN KAQV 081535Z AUTO VRB03KT 1SM BR OVC002 14/14 A2988 410 100 500 VRB/03 RMK AO2 T01440144
03949KAQV AQV20160108094011301/08/16 09:40:31  5-MIN KAQV 081540Z AUTO VRB04KT 1SM BR OVC002 15/15 A2988 410 100 600 VRB/04 RMK AO2 T01500150
03949KAQV AQV20160108094511301/08/16 09:45:31  5-MIN KAQV 081545Z AUTO VRB03KT 1SM BR OVC002 15/15 A2988 420 100 600 VRB/03 RMK AO2 T01500150
03949KAQV AQV20160108095012001/08/16 09:50:31  5-MIN KAQV 081550Z AUTO VRB03KT 1SM BR OVC002 15/15 A2988 420 100 600 VRB/03 RMK AO2 SLP117 T01500150
03949KAQV AQV20160108095512401/08/16 09:55:31  5-MIN KAQV 081555Z AUTO VRB03KT 1 1/4SM BR OVC002 15/15 A2988 410 100 500 VRB/03 RMK AO2 SLP117 T01500150
03949KAQV AQV20160108100011701/08/16 10:00:31  5-MIN KAQV 081600Z AUTO VRB03KT 1 1/4SM BR OVC002 15/15 A2988 410 100 500 VRB/03 RMK AO2 T01500150
03949KAQV AQV20160108100511701/08/16 10:05:31  5-MIN KAQV 081605Z AUTO VRB05KT 1 1/2SM BR OVC002 15/15 A2988 410 100 600 VRB/05 RMK AO2 T01500150
03949KAQV AQV20160108101011301/08/16 10:10:31  5-MIN KAQV 081610Z AUTO VRB03KT 2SM BR OVC002 15/15 A2988 420 100 600 VRB/03 RMK AO2 T01500150
03949KAQV AQV20160108101511301/08/16 10:15:31  5-MIN KAQV 081615Z AUTO VRB05KT 3SM BR OVC002 15/15 A2988 420 100 600 VRB/05 RMK AO2 T01500150
03949KAQV AQV20160108102011301/08/16 10:20:31  5-MIN KAQV 081620Z AUTO VRB05KT 4SM BR OVC002 15/15 A2988 420 100 600 VRB/05 RMK AO2 T01500150
03949KAQV AQV20160108102511301/08/16 10:25:31  5-MIN KAQV 081625Z AUTO VRB04KT 4SM BR OVC002 15/15 A2988 420 100 600 VRB/04 RMK AO2 T01500150
03949KAQV AQV20160108103011201/08/16 10:30:31  5-MIN KAQV 081630Z AUTO VRB04KT 5SM BR OVC003 16/15 A2988 420 96 600 VRB/04 RMK AO2 T01560150
03949KAQV AQV20160108103511201/08/16 10:35:31  5-MIN KAQV 081635Z AUTO 15004KT 6SM BR OVC003 16/15 A2988 410 96 600 150/04 RMK AO2 T01560150
03949KAQV AQV20160108104010901/08/16 10:40:31  5-MIN KAQV 081640Z AUTO 16007KT 7SM OVC003 16/15 A2988 410 96 600 160/07 RMK AO2 T01560150
03949KAQV AQV20160108104511001/08/16 10:45:31  5-MIN KAQV 081645Z AUTO 17007KT 9SM OVC003 15/15 A2988 410 100 600 170/07 RMK AO2 T01500150
03949KAQV AQV20160108105011801/08/16 10:50:31  5-MIN KAQV 081650Z AUTO VRB04KT 10SM OVC003 16/16 A2988 420 100 600 VRB/04 RMK AO2 SLP116 T01560156
03949KAQV AQV20160108105511701/08/16 10:55:31  5-MIN KAQV 081655Z AUTO 15005KT 10SM OVC003 16/15 A2987 420 96 600 150/05 RMK AO2 SLP115 T01560150
03949KAQV AQV20160108110010901/08/16 11:00:31  5-MIN KAQV 081700Z AUTO VRB05KT 8SM OVC003 16/15 A2987 420 96 600 VRB/05 RMK AO2 T01560150
03949KAQV AQV20160108110511001/08/16 11:05:31  5-MIN KAQV 081705Z AUTO 16005KT 8SM OVC003 15/15 A2987 420 100 600 160/05 RMK AO2 T01500150
03949KAQV AQV20160108111011001/08/16 11:10:31  5-MIN KAQV 081710Z AUTO VRB04KT 7SM OVC003 15/15 A2987 430 100 600 VRB/04 RMK AO2 T01500150
03949KAQV AQV20160108111511301/08/16 11:15:31  5-MIN KAQV 081715Z AUTO VRB04KT 6SM BR OVC003 15/15 A2986 430 100 600 VRB/04 RMK AO2 T01500150
03949KAQV AQV20160108112011201/08/16 11:20:31  5-MIN KAQV 081720Z AUTO 00000KT 6SM BR OVC003 16/15 A2986 430 96 600 000/00 RMK AO2 T01560150
03949KAQV AQV20160108112511201/08/16 11:25:31  5-MIN KAQV 081725Z AUTO VRB03KT 6SM BR OVC003 16/15 A2986 440 96 600 VRB/03 RMK AO2 T01560150
03949KAQV AQV20160108113011201/08/16 11:30:31  5-MIN KAQV 081730Z AUTO 17005KT 6SM BR OVC003 16/15 A2985 440 96 600 170/05 RMK AO2 T01560150
03949KAQV AQV20160108113511001/08/16 11:35:31  5-MIN KAQV 081735Z AUTO 16004KT 7SM OVC003 15/15 A2985 440 100 600 160/04 RMK AO2 T01500150
03949KAQV AQV20160108114010901/08/16 11:40:31  5-MIN KAQV 081740Z AUTO VRB04KT 8SM OVC003 16/15 A2985 440 96 600 VRB/04 RMK AO2 T01560150
03949KAQV AQV20160108114511001/08/16 11:45:31  5-MIN KAQV 081745Z AUTO 17003KT 10SM OVC003 16/15 A2985 440 96 600 170/03 RMK AO2 T01560150
03949KAQV AQV20160108115013601/08/16 11:50:31  5-MIN KAQV 081750Z AUTO VRB03KT 10SM OVC003 16/16 A2985 440 100 700 VRB/03 RMK AO2 SLP106 T01560156 10156 20139 53014
03949KAQV AQV20160108115513501/08/16 11:55:31  5-MIN KAQV 081755Z AUTO 16006KT 10SM OVC003 16/15 A2984 450 96 700 160/06 RMK AO2 SLP105 T01560150 10156 20139 53014
03949KAQV AQV20160108120012201/08/16 12:00:31  5-MIN KAQV 081800Z AUTO VRB04KT 10SM OVC003 16/15 A2984 450 93 700 VRB/04 RMK AO2 CIG 003V007 T01610150
03949KAQV AQV20160108120512201/08/16 12:05:31  5-MIN KAQV 081805Z AUTO VRB04KT 10SM OVC005 17/16 A2984 450 93 800 VRB/04 RMK AO2 CIG 003V007 T01670156
03949KAQV AQV20160108121012201/08/16 12:10:31  5-MIN KAQV 081810Z AUTO VRB03KT 10SM OVC005 17/16 A2984 450 93 800 VRB/03 RMK AO2 CIG 003V007 T01670156
03949KAQV AQV20160108121512201/08/16 12:15:31  5-MIN KAQV 081815Z AUTO 00000KT 10SM OVC005 17/16 A2984 450 93 800 000/00 RMK AO2 CIG 003V009 T01670156
03949KAQV AQV20160108122012201/08/16 12:20:31  5-MIN KAQV 081820Z AUTO 17003KT 10SM OVC005 17/16 A2984 450 93 800 170/03 RMK AO2 CIG 004V010 T01670156
03949KAQV AQV20160108122512201/08/16 12:25:31  5-MIN KAQV 081825Z AUTO 00000KT 10SM OVC007 17/16 A2984 450 90 900 000/00 RMK AO2 CIG 005V010 T01720156
03949KAQV AQV20160108123012201/08/16 12:30:31  5-MIN KAQV 081830Z AUTO 00000KT 10SM OVC007 17/16 A2984 450 90 900 000/00 RMK AO2 CIG 005V010 T01720156
03949KAQV AQV20160108123512201/08/16 12:35:31  5-MIN KAQV 081835Z AUTO VRB04KT 10SM OVC007 17/16 A2983 460 90 900 VRB/04 RMK AO2 CIG 005V010 T01720156
03949KAQV AQV20160108124012201/08/16 12:40:31  5-MIN KAQV 081840Z AUTO 20005KT 10SM OVC007 17/16 A2983 460 90 900 190/05 RMK AO2 CIG 006V010 T01720156
03949KAQV AQV20160108124511001/08/16 12:45:31  5-MIN KAQV 081845Z AUTO VRB03KT 10SM OVC008 17/16 A2983 460 90 900 VRB/03 RMK AO2 T01720156
03949KAQV AQV20160108125011701/08/16 12:50:31  5-MIN KAQV 081850Z AUTO 19006KT 10SM OVC008 17/16 A2983 460 90 900 180/06 RMK AO2 SLP102 T01720156
03949KAQV AQV20160108125511701/08/16 12:55:31  5-MIN KAQV 081855Z AUTO VRB04KT 10SM OVC008 17/16 A2983 460 90 900 VRB/04 RMK AO2 SLP101 T01720156
03949KAQV AQV20160108130011001/08/16 13:00:31  5-MIN KAQV 081900Z AUTO VRB06KT 10SM OVC008 17/16 A2983 460 90 900 VRB/06 RMK AO2 T01720156
03949KAQV AQV20160108130511001/08/16 13:05:31  5-MIN KAQV 081905Z AUTO VRB05KT 10SM OVC008 17/16 A2983 460 90 900 VRB/05 RMK AO2 T01720156
03949KAQV AQV20160108131011001/08/16 13:10:31  5-MIN KAQV 081910Z AUTO VRB06KT 10SM OVC008 17/16 A2983 460 90 900 VRB/06 RMK AO2 T01720156
03949KAQV AQV20160108131511001/08/16 13:15:31  5-MIN KAQV 081915Z AUTO VRB04KT 10SM OVC008 17/16 A2983 460 90 900 VRB/04 RMK AO2 T01720156
03949KAQV AQV20160108132011001/08/16 13:20:31  5-MIN KAQV 081920Z AUTO VRB03KT 10SM OVC008 17/16 A2982 470 90 900 VRB/03 RMK AO2 T01720156
03949KAQV AQV20160108132511001/08/16 13:25:31  5-MIN KAQV 081925Z AUTO VRB05KT 10SM OVC008 17/16 A2982 470 90 900 VRB/05 RMK AO2 T01720156
03949KAQV AQV20160108133012201/08/16 13:30:31  5-MIN KAQV 081930Z AUTO 16004KT 10SM OVC008 17/16 A2981 480 90 900 160/04 RMK AO2 CIG 006V011 T01720156
03949KAQV AQV20160108133511701/08/16 13:35:31  5-MIN KAQV 081935Z AUTO VRB04KT 10SM BKN008 OVC012 17/16 A2981 480 90 900 VRB/04 RMK AO2 T01720156
03949KAQV AQV20160108134011001/08/16 13:40:31  5-MIN KAQV 081940Z AUTO 19006KT 10SM OVC008 17/16 A2981 480 90 900 190/06 RMK AO2 T01720156
03949KAQV AQV20160108134511001/08/16 13:45:31  5-MIN KAQV 081945Z AUTO 18005KT 10SM OVC008 17/16 A2981 480 90 900 180/05 RMK AO2 T01720156
03949KAQV AQV20160108135011701/08/16 13:50:31  5-MIN KAQV 081950Z AUTO VRB04KT 10SM OVC008 17/16 A2981 480 90 900 VRB/04 RMK AO2 SLP093 T01720156
03949KAQV AQV20160108135511701/08/16 13:55:31  5-MIN KAQV 081955Z AUTO 20004KT 10SM OVC008 17/16 A2981 480 90 900 190/04 RMK AO2 SLP094 T01720156
03949KAQV AQV20160108140010001/08/16 14:00:31  5-MIN KAQV 082000Z AUTO 10SM OVC008 17/16 A2981 480 90 900 M /M RMK AO2 T01720156
03949KAQV AQV20160108140511001/08/16 14:05:31  5-MIN KAQV 082005Z AUTO 18004KT 10SM OVC008 17/16 A2981 480 90 900 170/04 RMK AO2 T01720156
03949KAQV AQV20160108141011001/08/16 14:10:31  5-MIN KAQV 082010Z AUTO 18006KT 10SM OVC008 17/16 A2981 480 90 900 180/06 RMK AO2 T01720156
03949KAQV AQV20160108141511001/08/16 14:15:31  5-MIN KAQV 082015Z AUTO 18004KT 10SM OVC007 17/16 A2981 480 93 800 180/04 RMK AO2 T01670156
03949KAQV AQV20160108142011001/08/16 14:20:31  5-MIN KAQV 082020Z AUTO 00000KT 10SM OVC007 17/16 A2981 480 90 900 000/00 RMK AO2 T01720156
03949KAQV AQV20160108142511001/08/16 14:25:31  5-MIN KAQV 082025Z AUTO 18004KT 10SM OVC007 17/16 A2981 480 90 900 170/04 RMK AO2 T01720156
03949KAQV AQV20160108143011001/08/16 14:30:31  5-MIN KAQV 082030Z AUTO 18004KT 10SM OVC007 17/15 A2981 480 87 900 170/04 RMK AO2 T01720150
03949KAQV AQV20160108143511001/08/16 14:35:31  5-MIN KAQV 082035Z AUTO 18005KT 10SM OVC007 17/15 A2981 480 90 800 170/05 RMK AO2 T01670150
03949KAQV AQV20160108144011001/08/16 14:40:31  5-MIN KAQV 082040Z AUTO VRB05KT 10SM OVC007 17/15 A2981 480 90 800 VRB/05 RMK AO2 T01670150
03949KAQV AQV20160108144511001/08/16 14:45:31  5-MIN KAQV 082045Z AUTO 18004KT 10SM OVC007 17/15 A2981 480 90 800 180/04 RMK AO2 T01670150
03949KAQV AQV20160108145012301/08/16 14:50:31  5-MIN KAQV 082050Z AUTO 17005KT 10SM OVC007 17/15 A2981 480 90 800 170/05 RMK AO2 SLP093 T01670150 58014
03949KAQV AQV20160108145512301/08/16 14:55:31  5-MIN KAQV 082055Z AUTO 17004KT 10SM OVC007 17/15 A2981 480 90 800 170/04 RMK AO2 SLP092 T01670150 58014
03949KAQV AQV20160108153011001/08/16 15:30:31  5-MIN KAQV 082130Z AUTO 18005KT 10SM OVC007 16/15 A2980 490 93 800 170/05 RMK AO2 T01610150
03949KAQV AQV20160108153511001/08/16 15:35:31  5-MIN KAQV 082135Z AUTO 18004KT 10SM OVC006 16/15 A2980 490 93 800 170/04 RMK AO2 T01610150
03949KAQV AQV20160108154011001/08/16 15:40:31  5-MIN KAQV 082140Z AUTO 00000KT 10SM OVC006 16/15 A2980 490 93 800 000/00 RMK AO2 T01610150
03949KAQV AQV20160108154511001/08/16 15:45:31  5-MIN KAQV 082145Z AUTO 17003KT 10SM OVC006 16/15 A2980 490 93 800 160/03 RMK AO2 T01610150
03949KAQV AQV20160108155011701/08/16 15:50:31  5-MIN KAQV 082150Z AUTO 00000KT 10SM OVC006 16/15 A2980 490 93 800 000/00 RMK AO2 SLP090 T01610150
03949KAQV AQV20160108155511701/08/16 15:55:31  5-MIN KAQV 082155Z AUTO VRB03KT 10SM OVC005 16/15 A2980 490 93 800 VRB/03 RMK AO2 SLP090 T01610150
03949KAQV AQV20160108160011001/08/16 16:00:31  5-MIN KAQV 082200Z AUTO VRB03KT 10SM OVC005 16/15 A2980 490 93 800 VRB/03 RMK AO2 T01610150
03949KAQV AQV20160108160511001/08/16 16:05:31  5-MIN KAQV 082205Z AUTO VRB03KT 10SM OVC005 16/15 A2980 490 93 800 VRB/03 RMK AO2 T01610150
03949KAQV AQV20160108161011001/08/16 16:10:31  5-MIN KAQV 082210Z AUTO 00000KT 10SM OVC005 16/15 A2980 490 93 800 000/00 RMK AO2 T01610150
03949KAQV AQV20160108161511001/08/16 16:15:31  5-MIN KAQV 082215Z AUTO 00000KT 10SM OVC005 16/15 A2980 490 93 800 000/00 RMK AO2 T01610150
03949KAQV AQV20160108162011001/08/16 16:20:31  5-MIN KAQV 082220Z AUTO 00000KT 10SM OVC005 16/15 A2979 490 93 800 000/00 RMK AO2 T01610150
03949KAQV AQV20160108162511001/08/16 16:25:31  5-MIN KAQV 082225Z AUTO VRB04KT 10SM OVC005 16/15 A2979 500 93 800 VRB/04 RMK AO2 T01610150
03949KAQV AQV20160108163011001/08/16 16:30:31  5-MIN KAQV 082230Z AUTO VRB04KT 10SM OVC005 16/15 A2979 500 93 800 VRB/04 RMK AO2 T01610150
03949KAQV AQV20160108163510901/08/16 16:35:31  5-MIN KAQV 082235Z AUTO 00000KT 9SM OVC005 16/15 A2979 500 93 800 000/00 RMK AO2 T01610150
03949KAQV AQV20160108164010901/08/16 16:40:31  5-MIN KAQV 082240Z AUTO 15004KT 7SM OVC005 16/15 A2979 500 96 700 150/04 RMK AO2 T01560150
03949KAQV AQV20160108164511201/08/16 16:45:31  5-MIN KAQV 082245Z AUTO 00000KT 6SM BR OVC005 16/15 A2979 490 96 700 000/00 RMK AO2 T01560150
03949KAQV AQV20160108165011901/08/16 16:50:31  5-MIN KAQV 082250Z AUTO 00000KT 6SM BR OVC005 16/15 A2979 490 96 700 000/00 RMK AO2 SLP088 T01560150
03949KAQV AQV20160108165511901/08/16 16:55:31  5-MIN KAQV 082255Z AUTO VRB03KT 5SM BR OVC005 16/15 A2979 490 96 700 VRB/03 RMK AO2 SLP088 T01560150
03949KAQV AQV20160108170011201/08/16 17:00:31  5-MIN KAQV 082300Z AUTO VRB04KT 5SM BR OVC005 16/15 A2979 500 96 700 VRB/04 RMK AO2 T01560150
03949KAQV AQV20160108170511201/08/16 17:05:31  5-MIN KAQV 082305Z AUTO 00000KT 4SM BR OVC005 16/15 A2979 500 96 700 000/00 RMK AO2 T01560150
03949KAQV AQV20160108171011601/08/16 17:10:31  5-MIN KAQV 082310Z AUTO VRB03KT 2 1/2SM BR OVC004 16/15 A2979 500 96 700 VRB/03 RMK AO2 T01560150
03949KAQV AQV20160108171511201/08/16 17:15:31  5-MIN KAQV 082315Z AUTO VRB03KT 2SM BR OVC004 16/15 A2978 500 96 700 VRB/03 RMK AO2 T01560150
03949KAQV AQV20160108172011201/08/16 17:20:31  5-MIN KAQV 082320Z AUTO VRB03KT 2SM BR OVC004 16/15 A2979 500 96 700 VRB/03 RMK AO2 T01560150
03949KAQV AQV20160108172511601/08/16 17:25:31  5-MIN KAQV 082325Z AUTO VRB03KT 2 1/2SM BR OVC004 16/15 A2979 500 96 700 VRB/03 RMK AO2 T01560150
03949KAQV AQV20160108173011601/08/16 17:30:31  5-MIN KAQV 082330Z AUTO 00000KT 2 1/2SM BR OVC004 16/15 A2979 500 96 700 000/00 RMK AO2 T01560150
03949KAQV AQV20160108173511601/08/16 17:35:31  5-MIN KAQV 082335Z AUTO VRB03KT 2 1/2SM BR OVC004 16/15 A2978 500 96 700 VRB/03 RMK AO2 T01560150
03949KAQV AQV20160108174011701/08/16 17:40:31  5-MIN KAQV 082340Z AUTO 10003KT 2 1/2SM BR OVC003 15/15 A2977 510 100 700 100/03 RMK AO2 T01500150
03949KAQV AQV20160108174512001/08/16 17:45:31  5-MIN KAQV 082345Z AUTO VRB03KT 3SM BR OVC003 15/15 A2976 520 100 700 VRB/03 RMK AO2 PRESFR T01500150
03949KAQV AQV20160108175010301/08/16 17:50:31  5-MIN KAQV 082350Z AUTO 00000KT 3SM BR OVC003 15/15 A2976 520 100 700 000/00 RMK AO2
03949KAQV AQV20160108175513801/08/16 17:55:31  5-MIN KAQV 082355Z AUTO VRB03KT 3SM BR OVC003 15/15 A2976 520 100 700 VRB/03 RMK AO2 SLP078 T01500150 10172 20150 58015
03949KAQV AQV20160108180011301/08/16 18:00:31  5-MIN KAQV 090000Z AUTO VRB03KT 3SM BR OVC003 15/15 A2976 520 100 700 VRB/03 RMK AO2 T01500150
03949KAQV AQV20160108180511301/08/16 18:05:31  5-MIN KAQV 090005Z AUTO VRB04KT 4SM BR OVC003 15/15 A2976 520 100 700 VRB/04 RMK AO2 T01500150
03949KAQV AQV20160108181011301/08/16 18:10:31  5-MIN KAQV 090010Z AUTO VRB03KT 4SM BR OVC003 15/15 A2976 520 100 700 VRB/03 RMK AO2 T01500150
03949KAQV AQV20160108181511301/08/16 18:15:31  5-MIN KAQV 090015Z AUTO VRB04KT 4SM BR OVC003 15/15 A2976 520 100 700 VRB/04 RMK AO2 T01500150
03949KAQV AQV20160108182011301/08/16 18:20:31  5-MIN KAQV 090020Z AUTO 00000KT 5SM BR OVC003 15/15 A2976 530 100 700 000/00 RMK AO2 T01500150
03949KAQV AQV20160108182513201/08/16 18:25:31  5-MIN KAQV 090025Z AUTO 00000KT 6SM BR BKN003 OVC013 15/15 A2976 530 100 700 000/00 RMK AO2 CIG 002V006 T01500150
03949KAQV AQV20160108183012901/08/16 18:30:31  5-MIN KAQV 090030Z AUTO VRB03KT 7SM BKN003 OVC013 15/15 A2975 530 100 700 VRB/03 RMK AO2 CIG 002V008 T01500150
03949KAQV AQV20160108183514401/08/16 18:35:31  5-MIN KAQV 090035Z AUTO VRB04KT 8SM TS BKN004 BKN010 OVC015 15/14 A2976 530 96 700 VRB/04 RMK AO2 TSB31 CIG 002V008 T01500144
03949KAQV AQV20160108184013701/08/16 18:40:31  5-MIN KAQV 090040Z AUTO VRB04KT 9SM TS BKN004 OVC013 15/14 A2975 530 96 700 VRB/04 RMK AO2 TSB31 CIG 003V008 T01500144
03949KAQV AQV20160108184514401/08/16 18:45:31  5-MIN KAQV 090045Z AUTO VRB04KT 4SM +TSRA BR SCT005 OVC013 15/15 A2977 520 100 700 VRB/04 RMK AO2 RAB42 TSB31 P0005 T01500150
03949KAQV AQV20160108185013401/08/16 18:50:31  5-MIN KAQV 090050Z AUTO VRB04KT 3SM -TSRA BR SCT005 OVC012 15/15 A2974 540 100 700 VRB/04 RMK AO2 RAB42 TSB31 P0006
03949KAQV AQV20160108185515001/08/16 18:55:31  5-MIN KAQV 090055Z AUTO VRB04KT 6SM -TSRA BR SCT007 OVC014 15/14 A2974 540 96 700 VRB/04 RMK AO2 RAB42 TSB31 SLP070 P0006 T01500144
03949KAQV AQV20160108190011901/08/16 19:00:31  5-MIN KAQV 090100Z AUTO 10SM -TSRA SCT007 OVC014 16/15 A2974 540 96 800 M /M RMK AO2 P0000 T01560150
03949KAQV AQV20160108190514101/08/16 19:05:31  5-MIN KAQV 090105Z AUTO 00000KT 10SM -TSRA BKN009 OVC016 16/14 A2974 550 93 800 000/00 RMK AO2 CIG 006V013 P0000 T01560144
03949KAQV AQV20160108191014801/08/16 19:10:31  5-MIN KAQV 090110Z AUTO 13004KT 10SM -TSRA BKN011 OVC017 16/14 A2972 560 93 800 120/04 RMK AO2 CIG 006V014 PRESFR P0000 T01560144
03949KAQV AQV20160108191514601/08/16 19:15:31  5-MIN KAQV 090115Z AUTO 00000KT 9SM -RA BKN011 BKN045 OVC100 16/14 A2970 580 93 800 000/00 RMK AO2 TSE11 PRESFR P0000 T01560144
03949KAQV AQV20160108192013901/08/16 19:20:31  5-MIN KAQV 090120Z AUTO 16004KT 7SM -RA BKN011 BKN050 OVC095 15/14 A2972 560 96 700 150/04 RMK AO2 TSE11 P0001 T01500144
03949KAQV AQV20160108192513901/08/16 19:25:31  5-MIN KAQV 090125Z AUTO 00000KT 7SM -RA SCT009 BKN060 OVC090 15/14 A2970 580 96 800 000/00 RMK AO2 TSE11 P0001 T01500144
03949KAQV AQV20160108193014001/08/16 19:30:31  5-MIN KAQV 090130Z AUTO 18003KT 10SM -RA FEW009 BKN060 OVC100 15/14 A2973 550 96 700 170/03 RMK AO2 TSE11 P0001 T01500144
03949KAQV AQV20160108193514701/08/16 19:35:31  5-MIN KAQV 090135Z AUTO 18005KT 10SM -RA FEW009 SCT070 OVC100 15/14 A2974 540 93 700 180/05 RMK AO2 TSE11 PRESRR P0001 T01500139
03949KAQV AQV20160108194014801/08/16 19:40:31  5-MIN KAQV 090140Z AUTO 17006KT 10SM TS FEW055 SCT070 OVC095 15/14 A2975 540 93 700 170/06 RMK AO2 RAE40 TSE11B38 P0001 T01500139
03949KAQV AQV20160108194514701/08/16 19:45:31  5-MIN KAQV 090145Z AUTO 17006KT 10SM -TSRA SCT070 OVC090 15/14 A2975 530 93 700 170/06 RMK AO2 RAE40B45 TSE11B38 P0001 T01500139
03949KAQV AQV20160108195016101/08/16 19:50:31  5-MIN KAQV 090150Z AUTO 16009KT 10SM -TSRA FEW065 BKN080 OVC095 15/13 A2975 540 90 700 150/09 RMK AO2 RAE40B45 TSE11B38 SLP073 P0001 T01500133
03949KAQV AQV20160108195516101/08/16 19:55:31  5-MIN KAQV 090155Z AUTO 16007KT 10SM -TSRA FEW060 BKN075 OVC090 15/13 A2975 530 90 700 160/07 RMK AO2 RAE40B45 TSE11B38 SLP073 P0002 T01500133
03949KAQV AQV20160108200013701/08/16 20:00:31  5-MIN KAQV 090200Z AUTO VRB04KT 6SM TSRA BR FEW049 BKN075 OVC090 14/13 A2975 530 90 600 VRB/04 RMK AO2 P0002 T01440128
03949KAQV AQV20160108200513701/08/16 20:05:31  5-MIN KAQV 090205Z AUTO 00000KT 5SM TSRA BR FEW047 BKN060 OVC080 14/13 A2975 540 90 600 000/00 RMK AO2 P0003 T01440128
03949KAQV AQV20160108201013101/08/16 20:10:31  5-MIN KAQV 090210Z AUTO VRB03KT 5SM -TSRA BR SCT060 OVC080 14/13 A2975 540 90 600 VRB/03 RMK AO2 P0004 T01440128
03949KAQV AQV20160108201512801/08/16 20:15:31  5-MIN KAQV 090215Z AUTO VRB03KT 7SM -TSRA SCT060 OVC080 14/13 A2974 540 90 600 VRB/03 RMK AO2 P0005 T01440128
03949KAQV AQV20160108202013001/08/16 20:20:31  5-MIN KAQV 090220Z AUTO 00000KT 5SM TSRA BR BKN060 OVC075 14/13 A2974 550 96 600 000/00 RMK AO2 P0007 T01390133
03949KAQV AQV20160108202513701/08/16 20:25:31  5-MIN KAQV 090225Z AUTO 14004KT 4SM TSRA BR BKN055 OVC075 14/13 A2977 520 96 500 140/04 RMK AO2 PRESRR P0009 T01390133
03949KAQV AQV20160108203013901/08/16 20:30:31  5-MIN KAQV 090230Z AUTO VRB05KT 2SM +TSRA BR BKN048 OVC070 14/13 A2975 530 93 600 VRB/05 RMK AO2 VIS 1V4 P0019 T01390128
03949KAQV AQV20160108203514201/08/16 20:35:31  5-MIN KAQV 090235Z AUTO 00000KT 1 3/4SM +TSRA BR BKN044 BKN050 OVC070 14/13 A2976 530 96 600 000/00 RMK AO2 P0023 T01390133
03949KAQV AQV20160108204013701/08/16 20:40:31  5-MIN KAQV 090240Z AUTO 05003KT 3SM TSRA BR FEW032 SCT041 OVC050 14/13 A2975 530 93 600 050/03 RMK AO2 P0025 T01390128
03949KAQV AQV20160108204513701/08/16 20:45:31  5-MIN KAQV 090245Z AUTO 02004KT 5SM TSRA BR FEW021 BKN041 OVC048 14/13 A2975 540 93 600 020/04 RMK AO2 P0027 T01390128
03949KAQV AQV20160109024511101/09/16 02:45:31  5-MIN KAQV 090845Z AUTO VRB04KT 10SM BKN006 12/12 A2973 550 100 300 VRB/04 RMK AO2 T01170117
03949KAQV AQV20160109025013001/09/16 02:50:31  5-MIN KAQV 090850Z AUTO VRB03KT 10SM BKN005 12/12 A2973 550 100 300 VRB/03 RMK AO2 SLP068 60002 T01170117 56001
03949KAQV AQV20160109025513001/09/16 02:55:31  5-MIN KAQV 090855Z AUTO 06005KT 10SM OVC005 12/12 A2973 550 100 300 060/05 RMK AO2 SLP067 60002 T01170117 56001
03949KAQV AQV20160109030011101/09/16 03:00:31  5-MIN KAQV 090900Z AUTO VRB03KT 10SM OVC005 12/12 A2973 550 100 300 VRB/03 RMK AO2 T01170117
03949KAQV AQV20160109030511101/09/16 03:05:31  5-MIN KAQV 090905Z AUTO 08004KT 10SM OVC004 12/12 A2974 550 100 300 080/04 RMK AO2 T01170117
03949KAQV AQV20160109031011101/09/16 03:10:31  5-MIN KAQV 090910Z AUTO 00000KT 10SM OVC004 12/12 A2973 560 100 300 000/00 RMK AO2 T01170117
03949KAQV AQV20160109031511101/09/16 03:15:31  5-MIN KAQV 090915Z AUTO VRB04KT 10SM OVC004 12/12 A2972 560 100 300 VRB/04 RMK AO2 T01170117
03949KAQV AQV20160109032011001/09/16 03:20:31  5-MIN KAQV 090920Z AUTO 00000KT 10SM OVC004 12/11 A2972 560 96 300 000/00 RMK AO2 T01170111
03949KAQV AQV20160109032511101/09/16 03:25:31  5-MIN KAQV 090925Z AUTO 00000KT 10SM OVC004 12/12 A2972 560 100 300 000/00 RMK AO2 T01170117
03949KAQV AQV20160109033011001/09/16 03:30:31  5-MIN KAQV 090930Z AUTO 00000KT 10SM OVC004 12/11 A2972 560 96 300 000/00 RMK AO2 T01170111
03949KAQV AQV20160109033511001/09/16 03:35:31  5-MIN KAQV 090935Z AUTO 00000KT 10SM OVC004 12/11 A2972 560 96 300 000/00 RMK AO2 T01170111
03949KAQV AQV20160109034011001/09/16 03:40:31  5-MIN KAQV 090940Z AUTO VRB03KT 10SM OVC004 12/11 A2972 560 96 300 VRB/03 RMK AO2 T01170111
03949KAQV AQV20160109034511701/09/16 03:45:31  5-MIN KAQV 090945Z AUTO 07005KT 10SM OVC004 12/11 A2968 600 96 400 060/05 RMK AO2 PRESFR T01170111
03949KAQV AQV20160109035011701/09/16 03:50:31  5-MIN KAQV 090950Z AUTO VRB04KT 10SM OVC004 12/11 A2969 590 96 400 VRB/04 RMK AO2 SLP053 T01170111
03949KAQV AQV20160109035511701/09/16 03:55:31  5-MIN KAQV 090955Z AUTO 04004KT 10SM BKN004 12/11 A2969 590 96 400 040/04 RMK AO2 SLP054 T01170111
03949KAQV AQV20160109040011001/09/16 04:00:31  5-MIN KAQV 091000Z AUTO 00000KT 10SM BKN004 12/11 A2970 580 96 400 000/00 RMK AO2 T01170111
03949KAQV AQV20160109040511801/09/16 04:05:31  5-MIN KAQV 091005Z AUTO 00000KT 10SM BKN004 11/11 A2972 570 100 300 000/00 RMK AO2 PRESRR T01110111
03949KAQV AQV20160109041011101/09/16 04:10:31  5-MIN KAQV 091010Z AUTO 00000KT 10SM BKN004 11/11 A2971 570 100 300 000/00 RMK AO2 T01110111
03949KAQV AQV20160109041511101/09/16 04:15:31  5-MIN KAQV 091015Z AUTO 00000KT 10SM SCT005 11/11 A2971 570 100 300 000/00 RMK AO2 T01110111
03949KAQV AQV20160109042011001/09/16 04:20:31  5-MIN KAQV 091020Z AUTO 00000KT 10SM SCT005 11/11 A2971 570 96 300 000/00 RMK AO2 T01110106
03949KAQV AQV20160109042511001/09/16 04:25:31  5-MIN KAQV 091025Z AUTO 00000KT 10SM FEW005 11/11 A2971 570 96 300 000/00 RMK AO2 T01110106
03949KAQV AQV20160109043011001/09/16 04:30:31  5-MIN KAQV 091030Z AUTO 00000KT 10SM FEW005 11/11 A2971 570 96 300 000/00 RMK AO2 T01110106
03949KAQV AQV20160109043511101/09/16 04:35:31  5-MIN KAQV 091035Z AUTO 00000KT 10SM FEW005 11/11 A2972 560 100 300 000/00 RMK AO2 T01110111
03949KAQV AQV20160109044011001/09/16 04:40:31  5-MIN KAQV 091040Z AUTO 25003KT 10SM FEW004 11/11 A2973 550 96 300 250/03 RMK AO2 T01110106
03949KAQV AQV20160109044511101/09/16 04:45:31  5-MIN KAQV 091045Z AUTO 00000KT 10SM SCT004 11/11 A2973 550 100 200 000/00 RMK AO2 T01060106
03949KAQV AQV20160109045011701/09/16 04:50:31  5-MIN KAQV 091050Z AUTO 00000KT 10SM SCT004 11/11 A2973 560 96 300 000/00 RMK AO2 SLP067 T01110106
03949KAQV AQV20160109045514201/09/16 04:55:31  5-MIN KAQV 091055Z AUTO 00000KT 10SM -TSRA BKN004 11/11 A2974 540 100 200 000/00 RMK AO2 RAB54 TSB53 SLP071 P0000 T01110111
03949KAQV AQV20160109050013001/09/16 05:00:31  5-MIN KAQV 091100Z AUTO 00000KT 10SM -TSRA BKN004 BKN030 11/11 A2974 550 100 300 000/00 RMK AO2 P0000 T01110111
03949KAQV AQV20160109050514901/09/16 05:05:31  5-MIN KAQV 091105Z AUTO 26006KT 10SM -TSRA BKN005 OVC030 11/11 A2975 530 100 200 250/06 RMK AO2 CIG 004V008 PRESRR P0000 T01110111
03949KAQV AQV20160109051013901/09/16 05:10:31  5-MIN KAQV 091110Z AUTO VRB04KT 10SM -RA OVC005 11/11 A2974 540 100 200 VRB/04 RMK AO2 TSE08 CIG 004V008 P0001 T01110111
03949KAQV AQV20160109051514601/09/16 05:15:31  5-MIN KAQV 091115Z AUTO 20003KT 10SM -RA BKN007 OVC032 11/11 A2975 530 100 200 190/03 RMK AO2 TSE08 CIG 004V010 P0001 T01110111
03949KAQV AQV20160109052014601/09/16 05:20:31  5-MIN KAQV 091120Z AUTO 00000KT 10SM -RA BKN007 OVC032 11/11 A2975 540 100 200 000/00 RMK AO2 TSE08 CIG 004V013 P0001 T01110111
03949KAQV AQV20160109052516001/09/16 05:25:31  5-MIN KAQV 091125Z AUTO 00000KT 10SM TS BKN007 BKN011 OVC032 12/11 A2975 540 96 300 000/00 RMK AO2 RAE23 TSE08B21 CIG 004V010 P0001 T01170111
03949KAQV AQV20160109053015501/09/16 05:30:31  5-MIN KAQV 091130Z AUTO VRB04KT 10SM -TSRA BKN007 BKN032 OVC070 11/11 A2972 560 100 300 VRB/04 RMK AO2 RAE23B30 TSE08B21 P0001 T01110111
03949KAQV AQV20160109053515401/09/16 05:35:31  5-MIN KAQV 091135Z AUTO VRB03KT 9SM -TSRA BKN009 BKN032 OVC070 11/11 A2973 550 100 300 VRB/03 RMK AO2 RAE23B30 TSE08B21 P0001 T01110111
03949KAQV AQV20160109054015701/09/16 05:40:31  5-MIN KAQV 091140Z AUTO VRB03KT 9SM -TSRA SCT009 BKN028 OVC070 11/11 A2974 540 100 200 VRB/03 RMK AO2 RAE23B30 TSE08B21B36 P0002 T01110111
03949KAQV AQV20160109054515801/09/16 05:45:31  5-MIN KAQV 091145Z AUTO VRB03KT 10SM -TSRA SCT009 BKN028 OVC070 11/11 A2974 540 100 200 VRB/03 RMK AO2 RAE23B30 TSE08B21B36 P0002 T01110111
03949KAQV AQV20160109055014101/09/16 05:50:31  5-MIN KAQV 091150Z AUTO 00000KT 10SM TS FEW003 OVC036 11/11 A2975 540 100 200 000/00 RMK AO2 RAE23B30E48 TSE08B21B36 P0002
03949KAQV AQV20160109055512501/09/16 05:55:31  5-MIN KAQV 091155Z AUTO 00000KT 10SM SCT003 SCT012 OVC034 11/11 A2975 540 100 200 000/00 RMK AO2 T01110111
03949KAQV AQV20160109060012501/09/16 06:00:31  5-MIN KAQV 091200Z AUTO 00000KT 10SM SCT002 SCT012 OVC034 11/11 A2974 540 100 200 000/00 RMK AO2 T01110111
03949KAQV AQV20160109060511801/09/16 06:05:31  5-MIN KAQV 091205Z AUTO 00000KT 10SM BKN002 OVC034 11/11 A2975 530 100 200 000/00 RMK AO2 T01110111
03949KAQV AQV20160109061011801/09/16 06:10:31  5-MIN KAQV 091210Z AUTO 26003KT 10SM BKN002 OVC034 11/11 A2976 520 100 200 250/03 RMK AO2 T01110111
03949KAQV AQV20160109061512501/09/16 06:15:31  5-MIN KAQV 091215Z AUTO VRB03KT 10SM BKN002 OVC034 11/11 A2977 520 100 200 VRB/03 RMK AO2 PRESRR T01110111
03949KAQV AQV20160109062011801/09/16 06:20:31  5-MIN KAQV 091220Z AUTO VRB03KT 10SM OVC002 11/11 A2977 510 100 200 VRB/03 RMK AO2 PRESRR T01110111
03949KAQV AQV20160109062511001/09/16 06:25:31  5-MIN KAQV 091225Z AUTO VRB04KT 10SM OVC002 12/11 A2977 510 96 300 VRB/04 RMK AO2 T01170111
03949KAQV AQV20160109063011101/09/16 06:30:31  5-MIN KAQV 091230Z AUTO 00000KT 10SM OVC003 11/11 A2977 520 100 200 000/00 RMK AO2 T01110111
03949KAQV AQV20160109063511101/09/16 06:35:31  5-MIN KAQV 091235Z AUTO VRB03KT 10SM OVC003 11/11 A2977 520 100 200 VRB/03 RMK AO2 T01110111
03949KAQV AQV20160109064011101/09/16 06:40:31  5-MIN KAQV 091240Z AUTO 00000KT 10SM OVC003 11/11 A2977 510 100 200 000/00 RMK AO2 T01110111
03949KAQV AQV20160109064511101/09/16 06:45:31  5-MIN KAQV 091245Z AUTO 00000KT 10SM OVC003 11/11 A2977 520 100 200 000/00 RMK AO2 T01110111
03949KAQV AQV20160109065011701/09/16 06:50:31  5-MIN KAQV 091250Z AUTO 00000KT 10SM OVC003 11/11 A2977 510 96 200 000/00 RMK AO2 SLP082 T01110106
03949KAQV AQV20160109065511701/09/16 06:55:31  5-MIN KAQV 091255Z AUTO 02003KT 10SM BKN003 11/11 A2976 520 96 200 010/03 RMK AO2 SLP078 T01110106
03949KAQV AQV20160109070012301/09/16 07:00:31  5-MIN KAQV 091300Z AUTO 36004KT 8SM BKN003 BKN100 11/11 A2975 530 96 200 360/04 RMK AO2 PRESFR T01110106
03949KAQV AQV20160109070511601/09/16 07:05:31  5-MIN KAQV 091305Z AUTO 00000KT 7SM BKN003 BKN100 11/11 A2975 540 96 200 000/00 RMK AO2 T01110106
03949KAQV AQV20160109071010901/09/16 07:10:31  5-MIN KAQV 091310Z AUTO 00000KT 8SM BKN003 11/11 A2975 540 96 200 000/00 RMK AO2 T01110106
03949KAQV AQV20160109071511301/09/16 07:15:31  5-MIN KAQV 091315Z AUTO 00000KT 4SM BR BKN003 11/11 A2975 530 100 200 000/00 RMK AO2 T01060106
03949KAQV AQV20160109072012801/09/16 07:20:31  5-MIN KAQV 091320Z AUTO 00000KT 2 1/2SM BR BKN002 11/10 A2975 540 96 200 000/00 RMK AO2 VIS 1 3/4V5 T01060100
03949KAQV AQV20160109072512401/09/16 07:25:31  5-MIN KAQV 091325Z AUTO 00000KT 2SM BR BKN002 11/10 A2974 540 96 200 000/00 RMK AO2 VIS 1 1/2V4 T01060100
03949KAQV AQV20160109073011701/09/16 07:30:31  5-MIN KAQV 091330Z AUTO 00000KT 1 1/4SM BR OVC002 11/11 A2975 540 100 200 000/00 RMK AO2 T01060106
03949KAQV AQV20160109073511501/09/16 07:35:31  5-MIN KAQV 091335Z AUTO 00000KT 1/2SM FG OVC002 11/11 A2975 540 100 200 000/00 RMK AO2 T01060106
03949KAQV AQV20160109074011501/09/16 07:40:31  5-MIN KAQV 091340Z AUTO 00000KT 1/2SM FG OVC002 11/11 A2976 520 100 200 000/00 RMK AO2 T01060106
03949KAQV AQV20160109074511401/09/16 07:45:31  5-MIN KAQV 091345Z AUTO 00000KT 1/2SM FG VV002 11/11 A2977 520 100 100 000/00 RMK AO2 T01060106
03949KAQV AQV20160109141012501/09/16 14:10:31  5-MIN KAQV 092010Z AUTO 3SM -RA BR OVC009 08/08 A2983 460 96 -100 M /M RMK AO2 CIG 006V012 P0000 T00830078
03949KAQV AQV20160109141513501/09/16 14:15:31  5-MIN KAQV 092015Z AUTO VRB06KT 3SM -RA BR OVC009 08/08 A2983 460 96 -100 VRB/06 RMK AO2 CIG 006V012 P0000 T00830078
03949KAQV AQV20160109142014601/09/16 14:20:31  5-MIN KAQV 092020Z AUTO VRB05KT 2 1/2SM -RA BR BKN007 OVC011 08/08 A2983 460 96 -100 VRB/05 RMK AO2 CIG 005V010 P0000 T00830078
03949KAQV AQV20160109142514601/09/16 14:25:31  5-MIN KAQV 092025Z AUTO VRB05KT 2 1/2SM -RA BR BKN007 OVC011 08/07 A2983 460 93 -100 VRB/05 RMK AO2 CIG 005V010 P0000 T00830072
03949KAQV AQV20160109143013901/09/16 14:30:31  5-MIN KAQV 092030Z AUTO VRB04KT 2 1/2SM -RA BR OVC007 08/07 A2984 450 93 -100 VRB/04 RMK AO2 CIG 004V010 P0000 T00830072
03949KAQV AQV20160109143513901/09/16 14:35:31  5-MIN KAQV 092035Z AUTO VRB06KT 2 1/2SM -RA BR OVC007 08/08 A2984 450 96 -200 VRB/06 RMK AO2 CIG 004V012 P0001 T00830078
03949KAQV AQV20160109144013901/09/16 14:40:31  5-MIN KAQV 092040Z AUTO VRB05KT 1 3/4SM -RA BR OVC007 08/07 A2984 450 96 -200 VRB/05 RMK AO2 CIG 004V012 P0002 T00780072
03949KAQV AQV20160109144513501/09/16 14:45:31  5-MIN KAQV 092045Z AUTO 29005KT 2SM -RA BR OVC007 08/07 A2984 450 96 -200 280/05 RMK AO2 CIG 004V009 P0002 T00780072
03949KAQV AQV20160109145013901/09/16 14:50:31  5-MIN KAQV 092050Z AUTO VRB06KT 3SM -RA BR BKN007 BKN010 OVC024 08/07 A2984 450 96 -200 VRB/06 RMK AO2 CIG 004V008 P0002
03949KAQV AQV20160109145518401/09/16 14:55:31  5-MIN KAQV 092055Z AUTO 29007KT 240V320 5SM -RA BR BKN007 BKN013 OVC024 08/07 A2984 450 96 -200 280/07 240V320 RMK AO2 CIG 004V009 SLP106 P0002 60002 T00780072 53018
03949KAQV AQV20160109150013701/09/16 15:00:31  5-MIN KAQV 092100Z AUTO VRB05KT 6SM -RA BR SCT007 BKN011 OVC026 08/07 A2984 450 96 -200 VRB/05 RMK AO2 P0000 T00780072
03949KAQV AQV20160109150513401/09/16 15:05:31  5-MIN KAQV 092105Z AUTO VRB04KT 7SM -RA SCT007 BKN016 OVC029 08/08 A2985 450 96 -200 VRB/04 RMK AO2 P0000 T00830078
03949KAQV AQV20160109151013701/09/16 15:10:31  5-MIN KAQV 092110Z AUTO VRB06KT 10SM FEW007 BKN022 OVC033 08/07 A2985 440 93 -200 VRB/06 RMK AO2 RAE07 P0000 T00830072
03949KAQV AQV20160109151512701/09/16 15:15:31  5-MIN KAQV 092115Z AUTO 10SM FEW009 SCT017 OVC033 08/07 A2985 440 93 -200 M /M RMK AO2 RAE07 P0000 T00830072
03949KAQV AQV20160109152013701/09/16 15:20:31  5-MIN KAQV 092120Z AUTO VRB04KT 10SM SCT015 SCT027 OVC032 08/07 A2985 440 93 -200 VRB/04 RMK AO2 RAE07 P0000 T00830072
03949KAQV AQV20160109152513701/09/16 15:25:31  5-MIN KAQV 092125Z AUTO VRB03KT 10SM BKN013 BKN028 OVC032 08/07 A2985 440 93 -200 VRB/03 RMK AO2 RAE07 P0000 T00830072
03949KAQV AQV20160109153013601/09/16 15:30:31  5-MIN KAQV 092130Z AUTO 00000KT 9SM -RA BKN012 OVC032 08/07 A2985 440 93 -200 000/00 RMK AO2 RAE07B28 P0000 T00830072
03949KAQV AQV20160109153515801/09/16 15:35:31  5-MIN KAQV 092135Z AUTO VRB03KT 5SM -RA BR BKN010 BKN015 OVC032 08/07 A2985 440 96 -200 VRB/03 RMK AO2 RAE07B28 CIG 008V012 P0000 T00780072
03949KAQV AQV20160109154015801/09/16 15:40:31  5-MIN KAQV 092140Z AUTO 00000KT 5SM -RA BR BKN010 BKN015 OVC033 08/07 A2986 430 93 -200 000/00 RMK AO2 RAE07B28 CIG 008V012 P0000 T00780067
03949KAQV AQV20160109154513801/09/16 15:45:31  5-MIN KAQV 092145Z AUTO 9SM -RA BKN010 OVC016 08/07 A2986 430 93 -200 M /M RMK AO2 RAE07B28 CIG 008V012 P0000 T00780067
03949KAQV AQV20160109155016201/09/16 15:50:31  5-MIN KAQV 092150Z AUTO VRB05KT 9SM -RA BKN010 BKN016 OVC024 08/07 A2986 430 93 -200 VRB/05 RMK AO2 RAE07B28 CIG 008V012 SLP113 P0000 T00780067
03949KAQV AQV20160109155515001/09/16 15:55:31  5-MIN KAQV 092155Z AUTO VRB06KT 10SM SCT010 BKN016 OVC034 08/07 A2986 430 93 -200 VRB/06 RMK AO2 RAE07B28E52 SLP113 P0000 T00780067
03949KAQV AQV20160110230511201/10/16 23:05:31  5-MIN KAQV 110505Z AUTO 00000KT 10SM CLR M01/M02 A3028 40 92 -1800 000/00 RMK AO2 T10111022 $
03949KAQV AQV20160110231011201/10/16 23:10:31  5-MIN KAQV 110510Z AUTO 00000KT 10SM CLR M01/M02 A3028 40 92 -1800 000/00 RMK AO2 T10111022 $
03949KAQV AQV20160110231511201/10/16 23:15:31  5-MIN KAQV 110515Z AUTO 00000KT 10SM CLR M01/M02 A3028 40 92 -1800 000/00 RMK AO2 T10111022 $
03949KAQV AQV20160110232011201/10/16 23:20:31  5-MIN KAQV 110520Z AUTO 00000KT 10SM CLR M01/M02 A3028 40 92 -1800 000/00 RMK AO2 T10111022 $
03949KAQV AQV20160110232511201/10/16 23:25:31  5-MIN KAQV 110525Z AUTO 00000KT 10SM CLR M01/M02 A3028 50 92 -1800 000/00 RMK AO2 T10111022 $
03949KAQV AQV20160110233011201/10/16 23:30:31  5-MIN KAQV 110530Z AUTO 00000KT 10SM CLR M01/M02 A3027 50 92 -1800 000/00 RMK AO2 T10111022 $
03949KAQV AQV20160110233511201/10/16 23:35:31  5-MIN KAQV 110535Z AUTO 00000KT 10SM CLR M01/M02 A3027 50 92 -1800 000/00 RMK AO2 T10111022 $
03949KAQV AQV20160110234011201/10/16 23:40:31  5-MIN KAQV 110540Z AUTO 00000KT 10SM CLR M01/M03 A3028 50 88 -1800 000/00 RMK AO2 T10111028 $
03949KAQV AQV20160110234511201/10/16 23:45:31  5-MIN KAQV 110545Z AUTO 00000KT 10SM CLR M02/M03 A3028 50 92 -1900 000/00 RMK AO2 T10171028 $
03949KAQV AQV20160110235014701/10/16 23:50:31  5-MIN KAQV 110550Z AUTO 00000KT 10SM CLR M02/M03 A3028 40 92 -1900 000/00 RMK AO2 SLP258 T10171028 10033 21017 400831017 53014 $
03949KAQV AQV20160110235514701/10/16 23:55:31  5-MIN KAQV 110555Z AUTO 00000KT 10SM CLR M02/M03 A3028 40 92 -1900 000/00 RMK AO2 SLP258 T10171028 10033 21017 400831017 53014 $
03949KAQV AQV20160111000011201/11/16 00:00:31  5-MIN KAQV 110600Z AUTO 00000KT 10SM CLR M02/M03 A3028 50 92 -1900 000/00 RMK AO2 T10171028 $
03949KAQV AQV20160111000511201/11/16 00:05:31  5-MIN KAQV 110605Z AUTO 00000KT 10SM CLR M02/M03 A3028 50 88 -1900 000/00 RMK AO2 T10171033 $
03949KAQV AQV20160111001011201/11/16 00:10:31  5-MIN KAQV 110610Z AUTO 00000KT 10SM CLR M02/M03 A3028 50 88 -1900 000/00 RMK AO2 T10171033 $
03949KAQV AQV20160111001511201/11/16 00:15:31  5-MIN KAQV 110615Z AUTO 00000KT 10SM CLR M02/M03 A3028 50 88 -1900 000/00 RMK AO2 T10171033 $
03949KAQV AQV20160111002011201/11/16 00:20:31  5-MIN KAQV 110620Z AUTO 00000KT 10SM CLR M02/M03 A3028 50 88 -1900 000/00 RMK AO2 T10171033 $
03949KAQV AQV20160111002511201/11/16 00:25:31  5-MIN KAQV 110625Z AUTO 00000KT 10SM CLR M02/M03 A3028 50 88 -1900 000/00 RMK AO2 T10171033 $
03949KAQV AQV20160111003011201/11/16 00:30:31  5-MIN KAQV 110630Z AUTO 00000KT 10SM CLR M02/M03 A3028 50 88 -1900 000/00 RMK AO2 T10171033 $
03949KAQV AQV20160111003511201/11/16 00:35:31  5-MIN KAQV 110635Z AUTO 00000KT 10SM CLR M02/M03 A3028 40 88 -1900 000/00 RMK AO2 T10171033 $
03949KAQV AQV20160111004011201/11/16 00:40:31  5-MIN KAQV 110640Z AUTO 00000KT 10SM CLR M02/M03 A3028 40 88 -1900 000/00 RMK AO2 T10171033 $
03949KAQV AQV20160111004511201/11/16 00:45:31  5-MIN KAQV 110645Z AUTO 00000KT 10SM CLR M02/M03 A3028 50 88 -1900 000/00 RMK AO2 T10171033 $
03949KAQV AQV20160111005011901/11/16 00:50:31  5-MIN KAQV 110650Z AUTO 00000KT 10SM CLR M02/M03 A3028 50 88 -1900 000/00 RMK AO2 SLP256 T10171033 $
03949KAQV AQV20160111005511901/11/16 00:55:31  5-MIN KAQV 110655Z AUTO 00000KT 10SM CLR M02/M03 A3027 50 88 -1900 000/00 RMK AO2 SLP255 T10171033 $
03949KAQV AQV20160111010011201/11/16 01:00:31  5-MIN KAQV 110700Z AUTO 00000KT 10SM CLR M02/M03 A3027 50 88 -1900 000/00 RMK AO2 T10171033 $
03949KAQV AQV20160111010511201/11/16 01:05:31  5-MIN KAQV 110705Z AUTO 00000KT 10SM CLR M02/M03 A3027 50 92 -1900 000/00 RMK AO2 T10171028 $
03949KAQV AQV20160111011011201/11/16 01:10:31  5-MIN KAQV 110710Z AUTO 00000KT 10SM CLR M02/M03 A3027 60 92 -1900 000/00 RMK AO2 T10171028 $
03949KAQV AQV20160111011511201/11/16 01:15:31  5-MIN KAQV 110715Z AUTO 00000KT 10SM CLR M02/M03 A3027 50 92 -1900 000/00 RMK AO2 T10171028 $
03949KAQV AQV20160111012011201/11/16 01:20:31  5-MIN KAQV 110720Z AUTO 00000KT 10SM CLR M02/M03 A3027 50 92 -1900 000/00 RMK AO2 T10171028 $
03949KAQV AQV20160111012511201/11/16 01:25:31  5-MIN KAQV 110725Z AUTO 00000KT 10SM CLR M02/M03 A3027 50 92 -1900 000/00 RMK AO2 T10171028 $
03949KAQV AQV20160111013011201/11/16 01:30:31  5-MIN KAQV 110730Z AUTO 00000KT 10SM CLR M02/M03 A3027 50 92 -1900 000/00 RMK AO2 T10171028 $
03949KAQV AQV20160111013511201/11/16 01:35:31  5-MIN KAQV 110735Z AUTO 00000KT 10SM CLR M01/M03 A3027 50 88 -1800 000/00 RMK AO2 T10111028 $
03949KAQV AQV20160111014011201/11/16 01:40:31  5-MIN KAQV 110740Z AUTO 00000KT 10SM CLR M01/M03 A3027 50 88 -1800 000/00 RMK AO2 T10111028 $
03949KAQV AQV20160111014511201/11/16 01:45:31  5-MIN KAQV 110745Z AUTO 00000KT 10SM CLR M01/M03 A3027 60 88 -1800 000/00 RMK AO2 T10111028 $
03949KAQV AQV20160111015011901/11/16 01:50:31  5-MIN KAQV 110750Z AUTO 00000KT 10SM CLR M01/M02 A3027 60 92 -1800 000/00 RMK AO2 SLP251 T10111022 $
03949KAQV AQV20160111015511901/11/16 01:55:31  5-MIN KAQV 110755Z AUTO 00000KT 10SM CLR M01/M02 A3026 60 92 -1800 000/00 RMK AO2 SLP250 T10111022 $
03949KAQV AQV20160111020011201/11/16 02:00:31  5-MIN KAQV 110800Z AUTO 00000KT 10SM CLR M01/M02 A3026 60 92 -1800 000/00 RMK AO2 T10111022 $
03949KAQV AQV20160111020511201/11/16 02:05:31  5-MIN KAQV 110805Z AUTO 00000KT 10SM CLR M01/M02 A3026 60 92 -1800 000/00 RMK AO2 T10111022 $
03949KAQV AQV20160111021011201/11/16 02:10:31  5-MIN KAQV 110810Z AUTO 00000KT 10SM CLR M01/M02 A3026 60 92 -1800 000/00 RMK AO2 T10111022 $
03949KAQV AQV20160111021511201/11/16 02:15:31  5-MIN KAQV 110815Z AUTO 00000KT 10SM CLR M01/M02 A3026 60 88 -1700 000/00 RMK AO2 T10061022 $
03949KAQV AQV20160111022011201/11/16 02:20:31  5-MIN KAQV 110820Z AUTO 00000KT 10SM CLR M01/M02 A3026 60 88 -1700 000/00 RMK AO2 T10061022 $
03949KAQV AQV20160111022511201/11/16 02:25:31  5-MIN KAQV 110825Z AUTO 00000KT 10SM CLR M01/M02 A3026 70 88 -1700 000/00 RMK AO2 T10061022 $
03949KAQV AQV20160111023011201/11/16 02:30:31  5-MIN KAQV 110830Z AUTO 00000KT 10SM CLR M01/M02 A3026 70 92 -1800 000/00 RMK AO2 T10111022 $
03949KAQV AQV20160111023511201/11/16 02:35:31  5-MIN KAQV 110835Z AUTO 00000KT 10SM CLR M01/M02 A3026 70 92 -1800 000/00 RMK AO2 T10111022 $
03949KAQV AQV20160112073510901/12/16 07:35:31  5-MIN KAQV 121335Z AUTO 22003KT 10SM CLR 00/M01 A3027 50 96 -1700 220/03 RMK AO2 T00001006
03949KAQV AQV20160112074010901/12/16 07:40:31  5-MIN KAQV 121340Z AUTO 00000KT 10SM CLR 00/M01 A3027 50 96 -1700 000/00 RMK AO2 T00001006
03949KAQV AQV20160112074510901/12/16 07:45:31  5-MIN KAQV 121345Z AUTO VRB03KT 10SM CLR 01/M01 A3028 50 92 -1600 VRB/03 RMK AO2 T00061006
03949KAQV AQV20160112075011601/12/16 07:50:31  5-MIN KAQV 121350Z AUTO 00000KT 10SM CLR 01/M01 A3028 50 89 -1500 000/00 RMK AO2 SLP256 T00111006
03949KAQV AQV20160112075511501/12/16 07:55:31  5-MIN KAQV 121355Z AUTO 00000KT 10SM CLR 01/00 A3028 50 92 -1500 000/00 RMK AO2 SLP257 T00110000
03949KAQV AQV20160112080010801/12/16 08:00:31  5-MIN KAQV 121400Z AUTO 00000KT 10SM CLR 01/00 A3028 50 92 -1500 000/00 RMK AO2 T00110000
03949KAQV AQV20160112080510801/12/16 08:05:31  5-MIN KAQV 121405Z AUTO 00000KT 10SM CLR 02/01 A3028 50 89 -1400 000/00 RMK AO2 T00220006
03949KAQV AQV20160112081010801/12/16 08:10:31  5-MIN KAQV 121410Z AUTO VRB03KT 10SM CLR 03/01 A3028 40 82 -1300 VRB/03 RMK AO2 T00330006
03949KAQV AQV20160112081510801/12/16 08:15:31  5-MIN KAQV 121415Z AUTO 24003KT 10SM CLR 04/01 A3029 40 79 -1200 240/03 RMK AO2 T00390006
03949KAQV AQV20160112082010801/12/16 08:20:31  5-MIN KAQV 121420Z AUTO 00000KT 10SM CLR 04/01 A3029 40 79 -1100 000/00 RMK AO2 T00440011
03949KAQV AQV20160112082510801/12/16 08:25:31  5-MIN KAQV 121425Z AUTO 00000KT 10SM CLR 04/02 A3029 40 82 -1100 000/00 RMK AO2 T00440017
03949KAQV AQV20160112083010801/12/16 08:30:31  5-MIN KAQV 121430Z AUTO VRB03KT 10SM CLR 05/02 A3029 40 82 -1100 VRB/03 RMK AO2 T00500022
03949KAQV AQV20160112083510801/12/16 08:35:31  5-MIN KAQV 121435Z AUTO VRB03KT 10SM CLR 06/02 A3029 30 76 -1000 VRB/03 RMK AO2 T00560017
03949KAQV AQV20160112084010701/12/16 08:40:31  5-MIN KAQV 121440Z AUTO 26004KT 10SM CLR 06/02 A3030 30 73 -900 250/04 RMK AO2 T00610017
03949KAQV AQV20160112084510701/12/16 08:45:31  5-MIN KAQV 121445Z AUTO VRB04KT 10SM CLR 07/02 A3030 30 70 -900 VRB/04 RMK AO2 T00670017
03949KAQV AQV20160112085012001/12/16 08:50:31  5-MIN KAQV 121450Z AUTO 25004KT 10SM CLR 07/02 A3030 30 73 -900 250/04 RMK AO2 SLP263 T00670022 53006
03949KAQV AQV20160112085512001/12/16 08:55:31  5-MIN KAQV 121455Z AUTO 26005KT 10SM CLR 07/02 A3030 30 68 -800 250/05 RMK AO2 SLP263 T00720017 53006
03949KAQV AQV20160112090010701/12/16 09:00:31  5-MIN KAQV 121500Z AUTO 27003KT 10SM CLR 07/02 A3030 30 68 -800 260/03 RMK AO2 T00720017
03949KAQV AQV20160112090510701/12/16 09:05:31  5-MIN KAQV 121505Z AUTO VRB03KT 10SM CLR 08/02 A3030 20 65 -700 VRB/03 RMK AO2 T00780017
03949KAQV AQV20160112091010701/12/16 09:10:31  5-MIN KAQV 121510Z AUTO VRB03KT 10SM CLR 08/02 A3031 20 65 -800 VRB/03 RMK AO2 T00780017
03949KAQV AQV20160112091510701/12/16 09:15:31  5-MIN KAQV 121515Z AUTO 28005KT 10SM CLR 08/02 A3031 20 65 -700 280/05 RMK AO2 T00830022
03949KAQV AQV20160112092010701/12/16 09:20:31  5-MIN KAQV 121520Z AUTO 28003KT 10SM CLR 09/02 A3031 20 63 -600 270/03 RMK AO2 T00890022
03949KAQV AQV20160112092510701/12/16 09:25:31  5-MIN KAQV 121525Z AUTO 27006KT 10SM CLR 09/02 A3031 10 63 -600 270/06 RMK AO2 T00890022
03949KAQV AQV20160112093010701/12/16 09:30:31  5-MIN KAQV 121530Z AUTO VRB05KT 10SM CLR 09/02 A3032 10 60 -600 VRB/05 RMK AO2 T00940022
03949KAQV AQV20160112093510701/12/16 09:35:31  5-MIN KAQV 121535Z AUTO VRB03KT 10SM CLR 09/02 A3032 10 60 -600 VRB/03 RMK AO2 T00940022
03949KAQV AQV20160112094010701/12/16 09:40:31  5-MIN KAQV 121540Z AUTO VRB03KT 10SM CLR 10/02 A3032 10 58 -500 VRB/03 RMK AO2 T01000022
03949KAQV AQV20160112094510701/12/16 09:45:31  5-MIN KAQV 121545Z AUTO 26005KT 10SM CLR 10/02 A3032 10 58 -500 260/05 RMK AO2 T01000022
03949KAQV AQV20160112095011401/12/16 09:50:31  5-MIN KAQV 121550Z AUTO VRB04KT 10SM CLR 11/03 A3032 10 58 -400 VRB/04 RMK AO2 SLP271 T01060028
03949KAQV AQV20160112095511301/12/16 09:55:31  5-MIN KAQV 121555Z AUTO VRB04KT 10SM CLR 11/02 A3033 0 56 -400 VRB/04 RMK AO2 SLP272 T01060022
03949KAQV AQV20160112100010601/12/16 10:00:31  5-MIN KAQV 121600Z AUTO 27004KT 10SM CLR 11/02 A3033 0 56 -400 270/04 RMK AO2 T01060022
03949KAQV AQV20160112100510601/12/16 10:05:31  5-MIN KAQV 121605Z AUTO VRB04KT 10SM CLR 11/02 A3033 0 52 -400 VRB/04 RMK AO2 T01110017
03949KAQV AQV20160112101010601/12/16 10:10:31  5-MIN KAQV 121610Z AUTO VRB05KT 10SM CLR 11/02 A3033 0 52 -400 VRB/05 RMK AO2 T01110017
03949KAQV AQV20160112101510601/12/16 10:15:31  5-MIN KAQV 121615Z AUTO VRB04KT 10SM CLR 11/01 A3033 0 50 -400 VRB/04 RMK AO2 T01110011
03949KAQV AQV20160112102010601/12/16 10:20:31  5-MIN KAQV 121620Z AUTO VRB04KT 10SM CLR 12/01 A3033 0 48 -300 VRB/04 RMK AO2 T01170011
03949KAQV AQV20160112102510601/12/16 10:25:31  5-MIN KAQV 121625Z AUTO VRB05KT 10SM CLR 12/02 A3033 0 48 -200 VRB/05 RMK AO2 T01220017
03949KAQV AQV20160112103010601/12/16 10:30:31  5-MIN KAQV 121630Z AUTO VRB03KT 10SM CLR 12/01 A3033 0 48 -300 VRB/03 RMK AO2 T01170011
03949KAQV AQV20160112103510601/12/16 10:35:31  5-MIN KAQV 121635Z AUTO VRB05KT 10SM CLR 12/02 A3033 0 48 -200 VRB/05 RMK AO2 T01220017
03949KAQV AQV20160112104010601/12/16 10:40:31  5-MIN KAQV 121640Z AUTO VRB05KT 10SM CLR 13/01 A3032 0 44 -200 VRB/05 RMK AO2 T01280011
03949KAQV AQV20160112104510701/12/16 10:45:31  5-MIN KAQV 121645Z AUTO VRB05KT 10SM CLR 12/01 A3032 10 46 -200 VRB/05 RMK AO2 T01220011
03949KAQV AQV20160112105011401/12/16 10:50:31  5-MIN KAQV 121650Z AUTO VRB03KT 10SM CLR 13/01 A3032 10 44 -200 VRB/03 RMK AO2 SLP270 T01280011
03949KAQV AQV20160112105511401/12/16 10:55:31  5-MIN KAQV 121655Z AUTO VRB03KT 10SM CLR 13/02 A3032 10 45 -100 VRB/03 RMK AO2 SLP269 T01330017
03949KAQV AQV20160112110010701/12/16 11:00:31  5-MIN KAQV 121700Z AUTO VRB03KT 10SM CLR 13/01 A3032 10 44 -200 VRB/03 RMK AO2 T01280011
03949KAQV AQV20160112110510701/12/16 11:05:31  5-MIN KAQV 121705Z AUTO VRB06KT 10SM CLR 13/01 A3032 10 43 -100 VRB/06 RMK AO2 T01330011
03949KAQV AQV20160112111010701/12/16 11:10:31  5-MIN KAQV 121710Z AUTO VRB05KT 10SM CLR 13/01 A3031 10 41 -100 VRB/05 RMK AO2 T01330006
03949KAQV AQV20160112111510401/12/16 11:15:31  5-MIN KAQV 121715Z AUTO VRB03KT 10SM CLR 14/01 A3031 20 40 0 VRB/03 RMK AO2 T01390006
03949KAQV AQV20160112112010701/12/16 11:20:31  5-MIN KAQV 121720Z AUTO VRB04KT 10SM CLR 13/01 A3031 20 41 -100 VRB/04 RMK AO2 T01330006
03949KAQV AQV20160112112509401/12/16 11:25:31  5-MIN KAQV 121725Z AUTO 10SM CLR 14/01 A3031 20 40 0 M /M RMK AO2 T01390006
03949KAQV AQV20160112113010701/12/16 11:30:31  5-MIN KAQV 121730Z AUTO 00000KT 10SM CLR 13/01 A3030 20 41 -100 000/00 RMK AO2 T01330006
03949KAQV AQV20160112113509401/12/16 11:35:31  5-MIN KAQV 121735Z AUTO 10SM CLR 14/01 A3030 30 40 0 M /M RMK AO2 T01390006
03949KAQV AQV20160112114010401/12/16 11:40:31  5-MIN KAQV 121740Z AUTO 33006KT 10SM CLR 14/01 A3030 30 41 0 320/06 RMK AO2 T01390011
03949KAQV AQV20160112114510401/12/16 11:45:31  5-MIN KAQV 121745Z AUTO VRB05KT 10SM CLR 14/01 A3029 30 41 0 VRB/05 RMK AO2 T01390011
03949KAQV AQV20160112115012901/12/16 11:50:31  5-MIN KAQV 121750Z AUTO VRB05KT 10SM CLR 14/01 A3029 30 41 0 VRB/05 RMK AO2 SLP259 T01390011 10139 20000 53021
03949KAQV AQV20160112115512901/12/16 11:55:31  5-MIN KAQV 121755Z AUTO VRB05KT 10SM CLR 14/01 A3029 40 41 0 VRB/05 RMK AO2 SLP258 T01390011 10139 20000 53021
03949KAQV AQV20160112120010401/12/16 12:00:31  5-MIN KAQV 121800Z AUTO 31005KT 10SM CLR 14/01 A3029 40 41 0 300/05 RMK AO2 T01390011
03949KAQV AQV20160112120510401/12/16 12:05:31  5-MIN KAQV 121805Z AUTO 31004KT 10SM CLR 14/01 A3028 40 41 0 300/04 RMK AO2 T01390011
03949KAQV AQV20160112121010401/12/16 12:10:31  5-MIN KAQV 121810Z AUTO VRB06KT 10SM CLR 14/02 A3028 40 41 0 VRB/06 RMK AO2 T01440017
03949KAQV AQV20160112121510401/12/16 12:15:31  5-MIN KAQV 121815Z AUTO VRB04KT 10SM CLR 14/02 A3028 50 41 0 VRB/04 RMK AO2 T01440017
03949KAQV AQV20160112122010601/12/16 12:20:31  5-MIN KAQV 121820Z AUTO VRB03KT 10SM CLR 15/02 A3027 50 40 100 VRB/03 RMK AO2 T01500017
03949KAQV AQV20160112122510601/12/16 12:25:31  5-MIN KAQV 121825Z AUTO VRB06KT 10SM CLR 15/02 A3027 50 40 100 VRB/06 RMK AO2 T01500017
03949KAQV AQV20160112123010401/12/16 12:30:31  5-MIN KAQV 121830Z AUTO 26005KT 10SM CLR 14/01 A3027 60 40 0 250/05 RMK AO2 T01440011
03949KAQV AQV20160112123510401/12/16 12:35:31  5-MIN KAQV 121835Z AUTO VRB06KT 10SM CLR 14/01 A3026 60 38 0 VRB/06 RMK AO2 T01440006
03949KAQV AQV20160112124010601/12/16 12:40:31  5-MIN KAQV 121840Z AUTO 34005KT 10SM CLR 15/01 A3026 60 38 100 330/05 RMK AO2 T01500011
03949KAQV AQV20160112124510601/12/16 12:45:31  5-MIN KAQV 121845Z AUTO VRB04KT 10SM CLR 14/01 A3026 60 40 100 VRB/04 RMK AO2 T01440011
03949KAQV AQV20160112125011301/12/16 12:50:31  5-MIN KAQV 121850Z AUTO VRB06KT 10SM CLR 14/01 A3026 70 40 100 VRB/06 RMK AO2 SLP247 T01440011
03949KAQV AQV20160112125511301/12/16 12:55:31  5-MIN KAQV 121855Z AUTO VRB04KT 10SM CLR 15/01 A3025 70 38 100 VRB/04 RMK AO2 SLP246 T01500011
03949KAQV AQV20160112130010601/12/16 13:00:31  5-MIN KAQV 121900Z AUTO VRB05KT 10SM CLR 15/01 A3025 70 38 100 VRB/05 RMK AO2 T01500011
03949KAQV AQV20160112130510601/12/16 13:05:31  5-MIN KAQV 121905Z AUTO VRB03KT 10SM CLR 15/01 A3025 70 38 100 VRB/03 RMK AO2 T01500011
03949KAQV AQV20160112131010601/12/16 13:10:31  5-MIN KAQV 121910Z AUTO VRB03KT 10SM CLR 16/02 A3024 80 39 200 VRB/03 RMK AO2 T01560017
03949KAQV AQV20160112131510601/12/16 13:15:31  5-MIN KAQV 121915Z AUTO 35005KT 10SM CLR 15/01 A3024 80 38 100 350/05 RMK AO2 T01500011
03949KAQV AQV20160112132010601/12/16 13:20:31  5-MIN KAQV 121920Z AUTO 01003KT 10SM CLR 15/01 A3024 80 38 100 010/03 RMK AO2 T01500011
03949KAQV AQV20160112132509601/12/16 13:25:31  5-MIN KAQV 121925Z AUTO 10SM CLR 16/01 A3024 80 37 200 M /M RMK AO2 T01560011
03949KAQV AQV20160112133010601/12/16 13:30:31  5-MIN KAQV 121930Z AUTO VRB06KT 10SM CLR 16/01 A3024 90 37 200 VRB/06 RMK AO2 T01560011
03949KAQV AQV20160112133510601/12/16 13:35:31  5-MIN KAQV 121935Z AUTO VRB05KT 10SM CLR 16/01 A3024 90 37 200 VRB/05 RMK AO2 T01560011
03949KAQV AQV20160112134010601/12/16 13:40:31  5-MIN KAQV 121940Z AUTO 01005KT 10SM CLR 16/01 A3023 90 37 200 360/05 RMK AO2 T01560011
03949KAQV AQV20160112134509601/12/16 13:45:31  5-MIN KAQV 121945Z AUTO 10SM CLR 16/01 A3023 90 37 200 M /M RMK AO2 T01560011
03949KAQV AQV20160112135011301/12/16 13:50:31  5-MIN KAQV 121950Z AUTO 01004KT 10SM CLR 16/01 A3023 90 37 200 010/04 RMK AO2 SLP237 T01560011
03949KAQV AQV20160112135511301/12/16 13:55:31  5-MIN KAQV 121955Z AUTO VRB06KT 10SM CLR 16/01 A3023 90 37 200 VRB/06 RMK AO2 SLP237 T01560011
03949KAQV AQV20160112140010701/12/16 14:00:31  5-MIN KAQV 122000Z AUTO 00000KT 10SM CLR 16/01 A3022 100 37 200 000/00 RMK AO2 T01560011
03949KAQV AQV20160112140510701/12/16 14:05:31  5-MIN KAQV 122005Z AUTO VRB04KT 10SM CLR 16/01 A3022 100 37 200 VRB/04 RMK AO2 T01560011
03949KAQV AQV20160112141010701/12/16 14:10:31  5-MIN KAQV 122010Z AUTO 30005KT 10SM CLR 16/01 A3022 100 37 200 300/05 RMK AO2 T01560011
03949KAQV AQV20160112141510701/12/16 14:15:31  5-MIN KAQV 122015Z AUTO VRB05KT 10SM CLR 16/01 A3022 100 37 200 VRB/05 RMK AO2 T01560011
03949KAQV AQV20160112142010701/12/16 14:20:31  5-MIN KAQV 122020Z AUTO VRB05KT 10SM CLR 16/02 A3021 110 39 200 VRB/05 RMK AO2 T01560017
03949KAQV AQV20160112142510701/12/16 14:25:31  5-MIN KAQV 122025Z AUTO VRB05KT 10SM CLR 16/02 A3021 110 37 300 VRB/05 RMK AO2 T01610017
03949KAQV AQV20160112143010701/12/16 14:30:31  5-MIN KAQV 122030Z AUTO VRB04KT 10SM CLR 15/01 A3021 110 38 200 VRB/04 RMK AO2 T01500011
03949KAQV AQV20160112143510701/12/16 14:35:31  5-MIN KAQV 122035Z AUTO 00000KT 10SM CLR 16/01 A3021 110 37 200 000/00 RMK AO2 T01560011
03949KAQV AQV20160112144010701/12/16 14:40:31  5-MIN KAQV 122040Z AUTO VRB05KT 10SM CLR 16/01 A3021 110 37 200 VRB/05 RMK AO2 T01560011
03949KAQV AQV20160112144510701/12/16 14:45:31  5-MIN KAQV 122045Z AUTO VRB04KT 10SM CLR 16/01 A3021 110 36 300 VRB/04 RMK AO2 T01610011
03949KAQV AQV20160112145012001/12/16 14:50:31  5-MIN KAQV 122050Z AUTO 28006KT 10SM CLR 16/01 A3021 110 37 200 280/06 RMK AO2 SLP232 T01560011 58004
03949KAQV AQV20160112145512001/12/16 14:55:31  5-MIN KAQV 122055Z AUTO 00000KT 10SM CLR 16/01 A3021 110 37 200 000/00 RMK AO2 SLP231 T01560011 58004
03949KAQV AQV20160112150010701/12/16 15:00:31  5-MIN KAQV 122100Z AUTO 00000KT 10SM CLR 16/01 A3021 110 36 300 000/00 RMK AO2 T01610011
03949KAQV AQV20160112150510701/12/16 15:05:31  5-MIN KAQV 122105Z AUTO 35006KT 10SM CLR 16/01 A3021 110 36 300 350/06 RMK AO2 T01610011
03949KAQV AQV20160112151010701/12/16 15:10:31  5-MIN KAQV 122110Z AUTO 31004KT 10SM CLR 16/01 A3021 110 36 300 310/04 RMK AO2 T01610011
03949KAQV AQV20160112151509701/12/16 15:15:31  5-MIN KAQV 122115Z AUTO 10SM CLR 16/01 A3021 110 36 300 M /M RMK AO2 T01610011
03949KAQV AQV20160112152010701/12/16 15:20:31  5-MIN KAQV 122120Z AUTO 00000KT 10SM CLR 16/01 A3021 110 36 200 000/00 RMK AO2 T01560006
03949KAQV AQV20160112152510701/12/16 15:25:31  5-MIN KAQV 122125Z AUTO VRB03KT 10SM CLR 16/01 A3021 110 36 300 VRB/03 RMK AO2 T01610011
03949KAQV AQV20160112153010701/12/16 15:30:31  5-MIN KAQV 122130Z AUTO VRB03KT 10SM CLR 16/01 A3021 110 36 200 VRB/03 RMK AO2 T01560006
03949KAQV AQV20160112153510701/12/16 15:35:31  5-MIN KAQV 122135Z AUTO VRB04KT 10SM CLR 16/01 A3021 110 36 300 VRB/04 RMK AO2 T01610011
03949KAQV AQV20160112154010701/12/16 15:40:31  5-MIN KAQV 122140Z AUTO 00000KT 10SM CLR 16/01 A3021 110 37 200 000/00 RMK AO2 T01560011
03949KAQV AQV20160112154510701/12/16 15:45:31  5-MIN KAQV 122145Z AUTO VRB03KT 10SM CLR 16/01 A3021 110 34 300 VRB/03 RMK AO2 T01610006
03949KAQV AQV20160112155011401/12/16 15:50:31  5-MIN KAQV 122150Z AUTO 00000KT 10SM CLR 16/01 A3021 110 34 300 000/00 RMK AO2 SLP233 T01610006
03949KAQV AQV20160112155511401/12/16 15:55:31  5-MIN KAQV 122155Z AUTO 00000KT 10SM CLR 16/01 A3021 110 36 200 000/00 RMK AO2 SLP232 T01560006
03949KAQV AQV20160112160010701/12/16 16:00:31  5-MIN KAQV 122200Z AUTO 31003KT 10SM CLR 16/01 A3021 110 36 200 310/03 RMK AO2 T01560006
03949KAQV AQV20160112160510701/12/16 16:05:31  5-MIN KAQV 122205Z AUTO VRB04KT 10SM CLR 16/01 A3021 110 36 200 VRB/04 RMK AO2 T01560006
03949KAQV AQV20160112161010701/12/16 16:10:31  5-MIN KAQV 122210Z AUTO VRB04KT 10SM CLR 16/01 A3021 110 36 200 VRB/04 RMK AO2 T01560006
03949KAQV AQV20160112161510701/12/16 16:15:31  5-MIN KAQV 122215Z AUTO VRB03KT 10SM CLR 15/01 A3022 100 38 200 VRB/03 RMK AO2 T01500011
03949KAQV AQV20160112162010701/12/16 16:20:31  5-MIN KAQV 122220Z AUTO 26003KT 10SM CLR 16/01 A3022 100 36 200 260/03 RMK AO2 T01560006
03949KAQV AQV20160112162510701/12/16 16:25:31  5-MIN KAQV 122225Z AUTO VRB03KT 10SM CLR 15/01 A3022 100 37 200 VRB/03 RMK AO2 T01500006
03949KAQV AQV20160112163010701/12/16 16:30:31  5-MIN KAQV 122230Z AUTO VRB04KT 10SM CLR 15/01 A3021 110 37 200 VRB/04 RMK AO2 T01500006
03949KAQV AQV20160112163510701/12/16 16:35:31  5-MIN KAQV 122235Z AUTO 26004KT 10SM CLR 14/01 A3022 100 38 100 260/04 RMK AO2 T01440006
03949KAQV AQV20160112164010701/12/16 16:40:31  5-MIN KAQV 122240Z AUTO 00000KT 10SM CLR 14/01 A3022 100 38 100 000/00 RMK AO2 T01440006
03949KAQV AQV20160112164510701/12/16 16:45:31  5-MIN KAQV 122245Z AUTO 00000KT 10SM CLR 14/01 A3022 100 40 100 000/00 RMK AO2 T01440011
03949KAQV AQV20160112165011201/12/16 16:50:31  5-MIN KAQV 122250Z AUTO 00000KT 10SM CLR 14/01 A3022 100 41 0 000/00 RMK AO2 SLP234 T01390011
03949KAQV AQV20160112165511201/12/16 16:55:31  5-MIN KAQV 122255Z AUTO 00000KT 10SM CLR 14/02 A3022 100 43 0 000/00 RMK AO2 SLP234 T01390017
03949KAQV AQV20160112170010501/12/16 17:00:31  5-MIN KAQV 122300Z AUTO 00000KT 10SM CLR 13/02 A3022 100 45 0 000/00 RMK AO2 T01330017
03949KAQV AQV20160112170510501/12/16 17:05:31  5-MIN KAQV 122305Z AUTO 00000KT 10SM CLR 13/02 A3022 100 48 0 000/00 RMK AO2 T01280022
03949KAQV AQV20160112171010801/12/16 17:10:31  5-MIN KAQV 122310Z AUTO 00000KT 10SM CLR 12/03 A3022 100 52 -100 000/00 RMK AO2 T01220028
03949KAQV AQV20160112171510801/12/16 17:15:31  5-MIN KAQV 122315Z AUTO 00000KT 10SM CLR 12/03 A3022 100 54 -100 000/00 RMK AO2 T01220033
03949KAQV AQV20160112172010801/12/16 17:20:31  5-MIN KAQV 122320Z AUTO 00000KT 10SM CLR 11/03 A3022 100 58 -300 000/00 RMK AO2 T01110033
03949KAQV AQV20160112172510801/12/16 17:25:31  5-MIN KAQV 122325Z AUTO 00000KT 10SM CLR 11/04 A3022 100 63 -300 000/00 RMK AO2 T01060039
03949KAQV AQV20160112173010801/12/16 17:30:31  5-MIN KAQV 122330Z AUTO 00000KT 10SM CLR 10/04 A3022 100 65 -400 000/00 RMK AO2 T01000039
03949KAQV AQV20160112173510801/12/16 17:35:31  5-MIN KAQV 122335Z AUTO 00000KT 10SM CLR 10/04 A3022 100 68 -400 000/00 RMK AO2 T01000044
03949KAQV AQV20160112174010801/12/16 17:40:31  5-MIN KAQV 122340Z AUTO 00000KT 10SM CLR 09/04 A3022 100 68 -500 000/00 RMK AO2 T00940039
03949KAQV AQV20160112174510801/12/16 17:45:31  5-MIN KAQV 122345Z AUTO 00000KT 10SM CLR 09/04 A3023 100 68 -500 000/00 RMK AO2 T00940039
03949KAQV AQV20160112175013201/12/16 17:50:31  5-MIN KAQV 122350Z AUTO 00000KT 10SM CLR 09/03 A3023 90 68 -500 000/00 RMK AO2 SLP238 T00890033 10161 20089 56026
03949KAQV AQV20160112175513201/12/16 17:55:31  5-MIN KAQV 122355Z AUTO 00000KT 10SM CLR 09/03 A3023 90 68 -500 000/00 RMK AO2 SLP238 T00890033 10161 20089 56026
03949KAQV AQV20160112180010701/12/16 18:00:31  5-MIN KAQV 130000Z AUTO 00000KT 10SM CLR 08/03 A3023 90 70 -600 000/00 RMK AO2 T00830033
03949KAQV AQV20160112180510701/12/16 18:05:31  5-MIN KAQV 130005Z AUTO 00000KT 10SM CLR 08/03 A3023 90 70 -600 000/00 RMK AO2 T00830033
03949KAQV AQV20160112181010701/12/16 18:10:31  5-MIN KAQV 130010Z AUTO 00000KT 10SM CLR 08/03 A3023 90 73 -700 000/00 RMK AO2 T00780033
03949KAQV AQV20160112181510701/12/16 18:15:31  5-MIN KAQV 130015Z AUTO 00000KT 10SM CLR 08/04 A3023 90 76 -700 000/00 RMK AO2 T00780039
03949KAQV AQV20160112182010701/12/16 18:20:31  5-MIN KAQV 130020Z AUTO 00000KT 10SM CLR 07/03 A3023 90 76 -700 000/00 RMK AO2 T00720033
03949KAQV AQV20160112182510701/12/16 18:25:31  5-MIN KAQV 130025Z AUTO 00000KT 10SM CLR 07/03 A3023 90 76 -700 000/00 RMK AO2 T00720033
03949KAQV AQV20160112183010701/12/16 18:30:31  5-MIN KAQV 130030Z AUTO 00000KT 10SM CLR 07/04 A3023 90 82 -800 000/00 RMK AO2 T00670039
03949KAQV AQV20160112183510701/12/16 18:35:31  5-MIN KAQV 130035Z AUTO 00000KT 10SM CLR 06/03 A3023 90 82 -900 000/00 RMK AO2 T00610033
03949KAQV AQV20160112184010701/12/16 18:40:31  5-MIN KAQV 130040Z AUTO 00000KT 10SM CLR 06/04 A3023 90 86 -900 000/00 RMK AO2 T00610039
03949KAQV AQV20160112184510701/12/16 18:45:31  5-MIN KAQV 130045Z AUTO 00000KT 10SM CLR 06/03 A3024 90 82 -900 000/00 RMK AO2 T00610033
03949KAQV AQV20160112185011401/12/16 18:50:31  5-MIN KAQV 130050Z AUTO 00000KT 10SM CLR 06/03 A3024 90 82 -900 000/00 RMK AO2 SLP241 T00610033
03949KAQV AQV20160112185511401/12/16 18:55:31  5-MIN KAQV 130055Z AUTO 00000KT 10SM CLR 06/03 A3024 80 82 -900 000/00 RMK AO2 SLP242 T00610033
03949KAQV AQV20160112190010701/12/16 19:00:31  5-MIN KAQV 130100Z AUTO 00000KT 10SM CLR 06/03 A3024 80 82 -900 000/00 RMK AO2 T00610033
03949KAQV AQV20160112190510701/12/16 19:05:31  5-MIN KAQV 130105Z AUTO 00000KT 10SM CLR 06/03 A3024 80 85 -900 000/00 RMK AO2 T00560033
03949KAQV AQV20160112191010701/12/16 19:10:31  5-MIN KAQV 130110Z AUTO 00000KT 10SM CLR 06/03 A3024 80 85 -900 000/00 RMK AO2 T00560033
03949KAQV AQV20160112191510801/12/16 19:15:31  5-MIN KAQV 130115Z AUTO 00000KT 10SM CLR 06/03 A3024 80 82 -1000 000/00 RMK AO2 T00560028
03949KAQV AQV20160112192010801/12/16 19:20:31  5-MIN KAQV 130120Z AUTO 00000KT 10SM CLR 06/03 A3024 80 85 -1000 000/00 RMK AO2 T00560033
03949KAQV AQV20160112192510801/12/16 19:25:31  5-MIN KAQV 130125Z AUTO 00000KT 10SM CLR 06/03 A3024 80 85 -1000 000/00 RMK AO2 T00560033
03949KAQV AQV20160112193010801/12/16 19:30:31  5-MIN KAQV 130130Z AUTO 00000KT 10SM CLR 06/03 A3024 80 82 -1000 000/00 RMK AO2 T00560028
03949KAQV AQV20160112214510801/12/16 21:45:31  5-MIN KAQV 130345Z AUTO 00000KT 10SM CLR 03/02 A3026 60 92 -1300 000/00 RMK AO2 T00280017
03949KAQV AQV20160112215011501/12/16 21:50:31  5-MIN KAQV 130350Z AUTO 00000KT 10SM CLR 02/02 A3026 60 96 -1400 000/00 RMK AO2 SLP250 T00220017
03949KAQV AQV20160112215511501/12/16 21:55:31  5-MIN KAQV 130355Z AUTO 00000KT 10SM CLR 02/02 A3027 60 96 -1400 000/00 RMK AO2 SLP250 T00220017
03949KAQV AQV20160112220010801/12/16 22:00:31  5-MIN KAQV 130400Z AUTO 00000KT 10SM CLR 02/02 A3027 60 96 -1400 000/00 RMK AO2 T00220017
03949KAQV AQV20160112220510801/12/16 22:05:31  5-MIN KAQV 130405Z AUTO 00000KT 10SM CLR 02/02 A3027 60 96 -1400 000/00 RMK AO2 T00220017
03949KAQV AQV20160112221010801/12/16 22:10:31  5-MIN KAQV 130410Z AUTO 00000KT 10SM CLR 02/01 A3027 60 92 -1400 000/00 RMK AO2 T00220011
03949KAQV AQV20160112221510801/12/16 22:15:31  5-MIN KAQV 130415Z AUTO 00000KT 10SM CLR 02/01 A3026 60 92 -1400 000/00 RMK AO2 T00220011
03949KAQV AQV20160112222010801/12/16 22:20:31  5-MIN KAQV 130420Z AUTO 00000KT 10SM CLR 02/01 A3026 60 92 -1400 000/00 RMK AO2 T00220011
03949KAQV AQV20160112222510801/12/16 22:25:31  5-MIN KAQV 130425Z AUTO 00000KT 10SM CLR 02/01 A3026 60 92 -1400 000/00 RMK AO2 T00220011
03949KAQV AQV20160112223010801/12/16 22:30:31  5-MIN KAQV 130430Z AUTO 00000KT 10SM CLR 02/01 A3026 60 92 -1400 000/00 RMK AO2 T00220011
03949KAQV AQV20160112223510801/12/16 22:35:31  5-MIN KAQV 130435Z AUTO 00000KT 10SM CLR 02/01 A3026 60 92 -1400 000/00 RMK AO2 T00220011
03949KAQV AQV20160112224010801/12/16 22:40:31  5-MIN KAQV 130440Z AUTO 00000KT 10SM CLR 02/01 A3027 60 92 -1400 000/00 RMK AO2 T00220011
03949KAQV AQV20160112224510801/12/16 22:45:31  5-MIN KAQV 130445Z AUTO 00000KT 10SM CLR 02/01 A3027 60 92 -1400 000/00 RMK AO2 T00220011
03949KAQV AQV20160112225011501/12/16 22:50:31  5-MIN KAQV 130450Z AUTO 00000KT 10SM CLR 02/01 A3027 60 92 -1400 000/00 RMK AO2 SLP250 T00220011
03949KAQV AQV20160112225511501/12/16 22:55:31  5-MIN KAQV 130455Z AUTO 00000KT 10SM CLR 02/01 A3026 60 92 -1400 000/00 RMK AO2 SLP250 T00220011
03949KAQV AQV20160113095011401/13/16 09:50:31  5-MIN KAQV 131550Z AUTO 20004KT 10SM CLR 13/04 A3026 60 56 -100 200/04 RMK AO2 SLP249 T01280044
03949KAQV AQV20160113095511101/13/16 09:55:31  5-MIN KAQV 131555Z AUTO VRB03KT 10SM CLR 13/04 A3026 60 52 0 VRB/03 RMK AO2 SLP249 T01330039
03949KAQV AQV20160113100010401/13/16 10:00:31  5-MIN KAQV 131600Z AUTO VRB03KT 10SM CLR 13/04 A3026 60 54 0 VRB/03 RMK AO2 T01330044
03949KAQV AQV20160113100510401/13/16 10:05:31  5-MIN KAQV 131605Z AUTO VRB04KT 10SM CLR 14/04 A3026 60 50 0 VRB/04 RMK AO2 T01390039
03949KAQV AQV20160113101010401/13/16 10:10:31  5-MIN KAQV 131610Z AUTO VRB04KT 10SM CLR 14/04 A3026 60 52 0 VRB/04 RMK AO2 T01390044
03949KAQV AQV20160113101510401/13/16 10:15:31  5-MIN KAQV 131615Z AUTO VRB04KT 10SM CLR 14/04 A3026 70 50 0 VRB/04 RMK AO2 T01390039
03949KAQV AQV20160113102010401/13/16 10:20:31  5-MIN KAQV 131620Z AUTO VRB05KT 10SM CLR 14/03 A3026 60 48 0 VRB/05 RMK AO2 T01390033
03949KAQV AQV20160113102510401/13/16 10:25:31  5-MIN KAQV 131625Z AUTO VRB04KT 10SM CLR 14/03 A3026 60 48 0 VRB/04 RMK AO2 T01390033
03949KAQV AQV20160113103010601/13/16 10:30:31  5-MIN KAQV 131630Z AUTO 18005KT 10SM CLR 14/04 A3026 70 49 100 170/05 RMK AO2 T01440039
03949KAQV AQV20160113103510601/13/16 10:35:31  5-MIN KAQV 131635Z AUTO 00000KT 10SM CLR 14/03 A3026 70 47 100 000/00 RMK AO2 T01440033
03949KAQV AQV20160113104010601/13/16 10:40:31  5-MIN KAQV 131640Z AUTO 23004KT 10SM CLR 14/03 A3026 70 47 100 220/04 RMK AO2 T01440033
03949KAQV AQV20160113104509601/13/16 10:45:31  5-MIN KAQV 131645Z AUTO 10SM CLR 14/03 A3025 70 47 100 M /M RMK AO2 T01440033
03949KAQV AQV20160113105011301/13/16 10:50:31  5-MIN KAQV 131650Z AUTO VRB03KT 10SM CLR 14/03 A3025 70 45 100 VRB/03 RMK AO2 SLP246 T01440028
03949KAQV AQV20160113105511301/13/16 10:55:31  5-MIN KAQV 131655Z AUTO VRB04KT 10SM CLR 15/03 A3025 70 45 100 VRB/04 RMK AO2 SLP245 T01500033
03949KAQV AQV20160113110010601/13/16 11:00:31  5-MIN KAQV 131700Z AUTO VRB05KT 10SM CLR 15/03 A3025 70 43 100 VRB/05 RMK AO2 T01500028
03949KAQV AQV20160113110510601/13/16 11:05:31  5-MIN KAQV 131705Z AUTO 00000KT 10SM CLR 15/03 A3025 70 43 100 000/00 RMK AO2 T01500028
03949KAQV AQV20160113111010601/13/16 11:10:31  5-MIN KAQV 131710Z AUTO VRB04KT 10SM CLR 15/03 A3024 80 43 100 VRB/04 RMK AO2 T01500028
03949KAQV AQV20160113111510601/13/16 11:15:31  5-MIN KAQV 131715Z AUTO VRB04KT 10SM CLR 15/03 A3024 80 43 100 VRB/04 RMK AO2 T01500028
03949KAQV AQV20160113112009601/13/16 11:20:31  5-MIN KAQV 131720Z AUTO 10SM CLR 15/03 A3024 80 43 100 M /M RMK AO2 T01500028
03949KAQV AQV20160113112510601/13/16 11:25:31  5-MIN KAQV 131725Z AUTO VRB05KT 10SM CLR 15/03 A3023 90 43 100 VRB/05 RMK AO2 T01500028
03949KAQV AQV20160113113010601/13/16 11:30:31  5-MIN KAQV 131730Z AUTO VRB04KT 10SM CLR 16/03 A3023 90 42 200 VRB/04 RMK AO2 T01560028
03949KAQV AQV20160113113510601/13/16 11:35:31  5-MIN KAQV 131735Z AUTO VRB06KT 10SM CLR 16/03 A3023 90 42 200 VRB/06 RMK AO2 T01560028
03949KAQV AQV20160113114010801/13/16 11:40:31  5-MIN KAQV 131740Z AUTO VRB04KT 10SM CLR 16/02 A3024 90 40 200 VRB/04 RMK AO2 T01560022 $
03949KAQV AQV20160113114510801/13/16 11:45:31  5-MIN KAQV 131745Z AUTO 00000KT 10SM CLR 16/02 A3024 90 40 200 000/00 RMK AO2 T01560022 $
03949KAQV AQV20160113115012301/13/16 11:50:31  5-MIN KAQV 131750Z AUTO 10SM CLR 16/02 A3023 90 40 200 M /M RMK AO2 SLP239 T01560022 10161 21006 51010 $
03949KAQV AQV20160113115512401/13/16 11:55:31  5-MIN KAQV 131755Z AUTO VRB06KT 10SM CLR 16/ A3023 90 M 300 VRB/06 RMK AO2 SLP238 T0161 10161 21006 51010
03949KAQV AQV20160113120010001/13/16 12:00:31  5-MIN KAQV 131800Z AUTO VRB04KT 10SM CLR 16/ A3022 100 M 200 VRB/04 RMK AO2 T0156
03949KAQV AQV20160113120510701/13/16 12:05:31  5-MIN KAQV 131805Z AUTO 00000KT 10SM CLR 16/02 A3022 100 37 300 000/00 RMK AO2 T01610017
03949KAQV AQV20160113121010701/13/16 12:10:31  5-MIN KAQV 131810Z AUTO VRB03KT 10SM CLR 17/02 A3022 100 36 400 VRB/03 RMK AO2 T01670017
03949KAQV AQV20160113121510701/13/16 12:15:31  5-MIN KAQV 131815Z AUTO VRB06KT 10SM CLR 16/02 A3021 110 37 300 VRB/06 RMK AO2 T01610017
03949KAQV AQV20160113122011401/13/16 12:20:31  5-MIN KAQV 131820Z AUTO VRB05KT 10SM CLR 17/02 A3020 120 36 400 VRB/05 RMK AO2 PRESFR T01670017
03949KAQV AQV20160113122510701/13/16 12:25:31  5-MIN KAQV 131825Z AUTO 18005KT 10SM CLR 16/02 A3020 120 37 300 180/05 RMK AO2 T01610017
03949KAQV AQV20160113123010701/13/16 12:30:31  5-MIN KAQV 131830Z AUTO 18006KT 10SM CLR 16/02 A3019 130 37 300 180/06 RMK AO2 T01610017
03949KAQV AQV20160113123510701/13/16 12:35:31  5-MIN KAQV 131835Z AUTO VRB06KT 10SM CLR 16/02 A3019 130 37 300 VRB/06 RMK AO2 T01610017
03949KAQV AQV20160113124010701/13/16 12:40:31  5-MIN KAQV 131840Z AUTO VRB04KT 10SM CLR 16/02 A3019 130 37 300 VRB/04 RMK AO2 T01610017
03949KAQV AQV20160113124509701/13/16 12:45:31  5-MIN KAQV 131845Z AUTO 10SM CLR 16/01 A3018 140 36 300 M /M RMK AO2 T01610011
03949KAQV AQV20160113125011401/13/16 12:50:31  5-MIN KAQV 131850Z AUTO 17004KT 10SM CLR 16/01 A3018 140 36 300 170/04 RMK AO2 SLP220 T01610011
03949KAQV AQV20160113125511401/13/16 12:55:31  5-MIN KAQV 131855Z AUTO 17004KT 10SM CLR 17/01 A3018 140 34 400 160/04 RMK AO2 SLP220 T01670011
03949KAQV AQV20160113130010701/13/16 13:00:31  5-MIN KAQV 131900Z AUTO 00000KT 10SM CLR 17/02 A3017 150 36 500 000/00 RMK AO2 T01720022
03949KAQV AQV20160113131006301/13/16 13:10:31  5-MIN KAQV 131910Z AUTO M M M M /M RMK AO2 $
03949KAQV AQV20160113131510601/13/16 13:15:31  5-MIN KAQV 131915Z AUTO 00000KT 17/02 A3016 150 36 400 000/00 RMK AO2 T01670017 PWINO $
03949KAQV AQV20160113132010501/13/16 13:20:31  5-MIN KAQV 131920Z AUTO 24006KT 10SM 17/02 A3016 160 37 400 240/06 RMK AO2 T01670022 $
03949KAQV AQV20160113132510501/13/16 13:25:31  5-MIN KAQV 131925Z AUTO VRB04KT 10SM 17/02 A3015 160 37 400 VRB/04 RMK AO2 T01670022 $
03949KAQV AQV20160113133009501/13/16 13:30:31  5-MIN KAQV 131930Z AUTO 10SM 17/02 A3015 160 36 500 M /M RMK AO2 T01720022 $
03949KAQV AQV20160113133510501/13/16 13:35:31  5-MIN KAQV 131935Z AUTO VRB04KT 10SM 17/02 A3015 170 37 400 VRB/04 RMK AO2 T01670022 $
03949KAQV AQV20160113134010901/13/16 13:40:31  5-MIN KAQV 131940Z AUTO VRB03KT 10SM CLR 17/02 A3015 170 36 500 VRB/03 RMK AO2 T01720022 $
03949KAQV AQV20160113134512501/13/16 13:45:31  5-MIN KAQV 131945Z AUTO 23008KT 200V260 10SM CLR 17/02 A3015 170 36 500 230/08 200V260 RMK AO2 T01720022 $
03949KAQV AQV20160113135011601/13/16 13:50:31  5-MIN KAQV 131950Z AUTO VRB04KT 10SM CLR 17/02 A3014 170 36 400 VRB/04 RMK AO2 SLP209 T01670017 $
03949KAQV AQV20160113135511601/13/16 13:55:31  5-MIN KAQV 131955Z AUTO 00000KT 10SM CLR 17/01 A3014 170 33 500 000/00 RMK AO2 SLP209 T01720011 $
03949KAQV AQV20160113140010901/13/16 14:00:31  5-MIN KAQV 132000Z AUTO VRB04KT 10SM CLR 18/02 A3014 170 35 600 VRB/04 RMK AO2 T01780022 $
03949KAQV AQV20160113140510901/13/16 14:05:31  5-MIN KAQV 132005Z AUTO 24006KT 10SM CLR 17/01 A3014 170 33 500 230/06 RMK AO2 T01720011 $
03949KAQV AQV20160113141010901/13/16 14:10:31  5-MIN KAQV 132010Z AUTO 00000KT 10SM CLR 17/01 A3014 180 33 500 000/00 RMK AO2 T01720011 $
03949KAQV AQV20160113141510901/13/16 14:15:31  5-MIN KAQV 132015Z AUTO VRB05KT 10SM CLR 17/01 A3014 170 33 500 VRB/05 RMK AO2 T01720011 $
03949KAQV AQV20160113142010901/13/16 14:20:31  5-MIN KAQV 132020Z AUTO VRB05KT 10SM CLR 17/01 A3014 180 33 500 VRB/05 RMK AO2 T01720011 $
03949KAQV AQV20160113142510901/13/16 14:25:31  5-MIN KAQV 132025Z AUTO VRB04KT 10SM CLR 17/01 A3013 180 33 500 VRB/04 RMK AO2 T01720011 $
03949KAQV AQV20160113143010901/13/16 14:30:31  5-MIN KAQV 132030Z AUTO VRB03KT 10SM CLR 17/01 A3013 180 33 500 VRB/03 RMK AO2 T01720011 $
03949KAQV AQV20160113143509901/13/16 14:35:31  5-MIN KAQV 132035Z AUTO 10SM CLR 17/01 A3013 180 33 500 M /M RMK AO2 T01720011 $
03949KAQV AQV20160113144010901/13/16 14:40:31  5-MIN KAQV 132040Z AUTO VRB06KT 10SM CLR 17/02 A3013 180 35 500 VRB/06 RMK AO2 T01720017 $
03949KAQV AQV20160113144510901/13/16 14:45:31  5-MIN KAQV 132045Z AUTO VRB05KT 10SM CLR 17/02 A3013 190 35 500 VRB/05 RMK AO2 T01720017 $
03949KAQV AQV20160113145011601/13/16 14:50:31  5-MIN KAQV 132050Z AUTO VRB04KT 10SM CLR 17/02 A3012 190 35 500 VRB/04 RMK AO2 SLP202 T01720017 $
03949KAQV AQV20160113145511601/13/16 14:55:31  5-MIN KAQV 132055Z AUTO VRB05KT 10SM CLR 17/02 A3012 190 35 500 VRB/05 RMK AO2 SLP201 T01720017 $
03949KAQV AQV20160113150010901/13/16 15:00:31  5-MIN KAQV 132100Z AUTO VRB06KT 10SM CLR 17/02 A3012 190 35 500 VRB/06 RMK AO2 T01720017 $
03949KAQV AQV20160113150510901/13/16 15:05:31  5-MIN KAQV 132105Z AUTO VRB04KT 10SM CLR 17/02 A3012 190 35 500 VRB/04 RMK AO2 T01720017 $
03949KAQV AQV20160113151010901/13/16 15:10:31  5-MIN KAQV 132110Z AUTO VRB03KT 10SM CLR 17/02 A3012 190 35 500 VRB/03 RMK AO2 T01720017 $
03949KAQV AQV20160113151510901/13/16 15:15:31  5-MIN KAQV 132115Z AUTO VRB05KT 10SM CLR 17/01 A3012 190 33 500 VRB/05 RMK AO2 T01720011 $
03949KAQV AQV20160113152010901/13/16 15:20:31  5-MIN KAQV 132120Z AUTO VRB04KT 10SM CLR 17/01 A3012 190 34 500 VRB/04 RMK AO2 T01670011 $
03949KAQV AQV20160113152510901/13/16 15:25:31  5-MIN KAQV 132125Z AUTO VRB04KT 10SM CLR 17/01 A3012 200 34 500 VRB/04 RMK AO2 T01670011 $
03949KAQV AQV20160113153010901/13/16 15:30:31  5-MIN KAQV 132130Z AUTO VRB05KT 10SM CLR 17/02 A3011 200 35 500 VRB/05 RMK AO2 T01720017 $
03949KAQV AQV20160113153510901/13/16 15:35:31  5-MIN KAQV 132135Z AUTO VRB04KT 10SM CLR 17/01 A3011 200 34 500 VRB/04 RMK AO2 T01670011 $
03949KAQV AQV20160113154010901/13/16 15:40:31  5-MIN KAQV 132140Z AUTO 18003KT 10SM CLR 17/02 A3011 200 36 500 180/03 RMK AO2 T01670017 $
03949KAQV AQV20160113154510901/13/16 15:45:31  5-MIN KAQV 132145Z AUTO 20005KT 10SM CLR 17/02 A3011 200 36 500 200/05 RMK AO2 T01670017 $
03949KAQV AQV20160113155011601/13/16 15:50:31  5-MIN KAQV 132150Z AUTO 17005KT 10SM CLR 17/02 A3011 200 36 500 160/05 RMK AO2 SLP198 T01670017 $
03949KAQV AQV20160113155511601/13/16 15:55:31  5-MIN KAQV 132155Z AUTO 18005KT 10SM CLR 17/02 A3011 200 36 500 180/05 RMK AO2 SLP198 T01720022 $
03949KAQV AQV20160113160010901/13/16 16:00:31  5-MIN KAQV 132200Z AUTO VRB05KT 10SM CLR 17/02 A3011 200 36 500 VRB/05 RMK AO2 T01670017 $
03949KAQV AQV20160113160510901/13/16 16:05:31  5-MIN KAQV 132205Z AUTO 18004KT 10SM CLR 17/02 A3011 200 36 500 180/04 RMK AO2 T01670017 $
03949KAQV AQV20160113161010901/13/16 16:10:31  5-MIN KAQV 132210Z AUTO VRB04KT 10SM CLR 17/02 A3011 200 36 500 VRB/04 RMK AO2 T01670017 $
03949KAQV AQV20160113161510901/13/16 16:15:31  5-MIN KAQV 132215Z AUTO 20004KT 10SM CLR 17/02 A3011 200 36 500 200/04 RMK AO2 T01670017 $
03949KAQV AQV20160113162010901/13/16 16:20:31  5-MIN KAQV 132220Z AUTO VRB04KT 10SM CLR 17/02 A3011 200 36 500 VRB/04 RMK AO2 T01670017 $
03949KAQV AQV20160113162510901/13/16 16:25:31  5-MIN KAQV 132225Z AUTO VRB05KT 10SM CLR 17/02 A3011 210 36 500 VRB/05 RMK AO2 T01670017 $
03949KAQV AQV20160113163010901/13/16 16:30:31  5-MIN KAQV 132230Z AUTO 20003KT 10SM CLR 16/01 A3011 210 36 400 200/03 RMK AO2 T01610011 $
03949KAQV AQV20160113163510901/13/16 16:35:31  5-MIN KAQV 132235Z AUTO 19003KT 10SM CLR 16/01 A3011 200 36 400 180/03 RMK AO2 T01610011 $
03949KAQV AQV20160113164010901/13/16 16:40:31  5-MIN KAQV 132240Z AUTO VRB03KT 10SM CLR 16/02 A3011 200 39 400 VRB/03 RMK AO2 T01560017 $
03949KAQV AQV20160113164510901/13/16 16:45:31  5-MIN KAQV 132245Z AUTO VRB03KT 10SM CLR 16/02 A3011 200 39 400 VRB/03 RMK AO2 T01560017 $
03949KAQV AQV20160113165011601/13/16 16:50:31  5-MIN KAQV 132250Z AUTO 00000KT 10SM CLR 15/02 A3011 200 40 300 000/00 RMK AO2 SLP197 T01500017 $
03949KAQV AQV20160113165511601/13/16 16:55:31  5-MIN KAQV 132255Z AUTO VRB03KT 10SM CLR 15/02 A3011 200 40 300 VRB/03 RMK AO2 SLP197 T01500017 $
03949KAQV AQV20160113170010901/13/16 17:00:31  5-MIN KAQV 132300Z AUTO 00000KT 10SM CLR 15/02 A3011 200 40 300 000/00 RMK AO2 T01500017 $
03949KAQV AQV20160113170511101/13/16 17:05:31  5-MIN KAQV 132305Z AUTO 00000KT 6SM HZ CLR 14/02 A3011 200 43 200 000/00 RMK AO2 T01440022 $
03949KAQV AQV20160113171011101/13/16 17:10:31  5-MIN KAQV 132310Z AUTO 00000KT 6SM HZ CLR 14/02 A3011 200 45 200 000/00 RMK AO2 T01390022 $
03949KAQV AQV20160113171510801/13/16 17:15:31  5-MIN KAQV 132315Z AUTO 00000KT 8SM CLR 13/03 A3011 200 48 100 000/00 RMK AO2 T01330028 $
03949KAQV AQV20160113172010701/13/16 17:20:31  5-MIN KAQV 132320Z AUTO 00000KT 10SM CLR 13/03 A3011 200 50 0 000/00 RMK AO2 T01280028 $
03949KAQV AQV20160113172510701/13/16 17:25:31  5-MIN KAQV 132325Z AUTO 00000KT 10SM CLR 12/03 A3011 200 54 0 000/00 RMK AO2 T01220033 $
03949KAQV AQV20160113173011001/13/16 17:30:31  5-MIN KAQV 132330Z AUTO 00000KT 10SM CLR 12/04 A3011 200 58 -100 000/00 RMK AO2 T01170039 $
03949KAQV AQV20160113173511001/13/16 17:35:31  5-MIN KAQV 132335Z AUTO 00000KT 10SM CLR 11/03 A3011 200 58 -100 000/00 RMK AO2 T01110033 $
03949KAQV AQV20160113174011001/13/16 17:40:31  5-MIN KAQV 132340Z AUTO 00000KT 10SM CLR 11/04 A3011 200 61 -100 000/00 RMK AO2 T01110039 $
03949KAQV AQV20160113174511001/13/16 17:45:31  5-MIN KAQV 132345Z AUTO 00000KT 10SM CLR 11/03 A3012 200 61 -200 000/00 RMK AO2 T01060033 $
03949KAQV AQV20160113175012901/13/16 17:50:31  5-MIN KAQV 132350Z AUTO 00000KT 10SM CLR 10/04 A3012 190 65 -300 000/00 RMK AO2 SLP201 T01000039 10178 20100 $
03949KAQV AQV20160113175512901/13/16 17:55:31  5-MIN KAQV 132355Z AUTO 00000KT 10SM CLR 10/03 A3012 190 63 -300 000/00 RMK AO2 SLP202 T01000033 10178 20100 $
03949KAQV AQV20160113180011001/13/16 18:00:31  5-MIN KAQV 140000Z AUTO 00000KT 10SM CLR 09/03 A3012 190 65 -300 000/00 RMK AO2 T00940033 $
03949KAQV AQV20160113180511001/13/16 18:05:31  5-MIN KAQV 140005Z AUTO 00000KT 10SM CLR 09/03 A3012 190 65 -300 000/00 RMK AO2 T00940033 $
03949KAQV AQV20160113181011001/13/16 18:10:31  5-MIN KAQV 140010Z AUTO 00000KT 10SM CLR 09/03 A3012 190 68 -400 000/00 RMK AO2 T00890033 $
03949KAQV AQV20160113181511001/13/16 18:15:31  5-MIN KAQV 140015Z AUTO 00000KT 10SM CLR 09/04 A3012 190 71 -400 000/00 RMK AO2 T00890039 $
03949KAQV AQV20160113182011001/13/16 18:20:31  5-MIN KAQV 140020Z AUTO 00000KT 10SM CLR 09/03 A3013 190 68 -400 000/00 RMK AO2 T00890033 $
03949KAQV AQV20160113182511001/13/16 18:25:31  5-MIN KAQV 140025Z AUTO 00000KT 10SM CLR 08/04 A3013 190 76 -500 000/00 RMK AO2 T00780039 $
03949KAQV AQV20160113183011001/13/16 18:30:31  5-MIN KAQV 140030Z AUTO 00000KT 10SM CLR 08/04 A3012 190 76 -500 000/00 RMK AO2 T00780039 $
03949KAQV AQV20160113183511001/13/16 18:35:31  5-MIN KAQV 140035Z AUTO 00000KT 10SM CLR 08/04 A3013 190 76 -500 000/00 RMK AO2 T00780039 $
03949KAQV AQV20160113184011001/13/16 18:40:31  5-MIN KAQV 140040Z AUTO 00000KT 10SM CLR 08/04 A3013 190 76 -500 000/00 RMK AO2 T00780039 $
03949KAQV AQV20160113184511001/13/16 18:45:31  5-MIN KAQV 140045Z AUTO 00000KT 10SM CLR 07/04 A3012 190 79 -600 000/00 RMK AO2 T00720039 $
03949KAQV AQV20160113185011701/13/16 18:50:31  5-MIN KAQV 140050Z AUTO 00000KT 10SM CLR 07/04 A3012 190 79 -600 000/00 RMK AO2 SLP203 T00720039 $
03949KAQV AQV20160113185511701/13/16 18:55:31  5-MIN KAQV 140055Z AUTO 00000KT 10SM CLR 07/04 A3012 190 79 -600 000/00 RMK AO2 SLP203 T00720039 $
03949KAQV AQV20160113190011001/13/16 19:00:31  5-MIN KAQV 140100Z AUTO 00000KT 10SM CLR 07/04 A3012 190 82 -700 000/00 RMK AO2 T00670039 $
03949KAQV AQV20160113190511001/13/16 19:05:31  5-MIN KAQV 140105Z AUTO 00000KT 10SM CLR 06/04 A3013 190 86 -800 000/00 RMK AO2 T00610039 $
03949KAQV AQV20160113191011001/13/16 19:10:31  5-MIN KAQV 140110Z AUTO 00000KT 10SM CLR 06/04 A3013 190 86 -800 000/00 RMK AO2 T00610039 $
03949KAQV AQV20160113191511001/13/16 19:15:31  5-MIN KAQV 140115Z AUTO 00000KT 10SM CLR 06/04 A3013 190 86 -800 000/00 RMK AO2 T00610039 $
03949KAQV AQV20160113192011001/13/16 19:20:31  5-MIN KAQV 140120Z AUTO 00000KT 10SM CLR 06/04 A3013 190 86 -800 000/00 RMK AO2 T00610039 $
03949KAQV AQV20160113192511001/13/16 19:25:31  5-MIN KAQV 140125Z AUTO 00000KT 10SM CLR 06/03 A3013 180 82 -800 000/00 RMK AO2 T00610033 $
03949KAQV AQV20160113193011001/13/16 19:30:31  5-MIN KAQV 140130Z AUTO 00000KT 10SM CLR 06/03 A3013 180 82 -800 000/00 RMK AO2 T00610033 $
03949KAQV AQV20160113193511001/13/16 19:35:31  5-MIN KAQV 140135Z AUTO 00000KT 10SM CLR 06/03 A3013 180 82 -800 000/00 RMK AO2 T00610033 $
03949KAQV AQV20160113194011001/13/16 19:40:31  5-MIN KAQV 140140Z AUTO 00000KT 10SM CLR 06/03 A3013 180 82 -800 000/00 RMK AO2 T00610033 $
03949KAQV AQV20160113194511001/13/16 19:45:31  5-MIN KAQV 140145Z AUTO 00000KT 10SM CLR 06/03 A3013 180 82 -800 000/00 RMK AO2 T00610033 $
03949KAQV AQV20160113195011701/13/16 19:50:31  5-MIN KAQV 140150Z AUTO 00000KT 10SM CLR 06/03 A3013 180 82 -800 000/00 RMK AO2 SLP206 T00610033 $
03949KAQV AQV20160113195511701/13/16 19:55:31  5-MIN KAQV 140155Z AUTO 00000KT 10SM CLR 06/03 A3013 180 82 -800 000/00 RMK AO2 SLP206 T00610033 $
03949KAQV AQV20160113200011001/13/16 20:00:31  5-MIN KAQV 140200Z AUTO 00000KT 10SM CLR 06/03 A3013 180 82 -800 000/00 RMK AO2 T00610033 $
03949KAQV AQV20160113200511001/13/16 20:05:31  5-MIN KAQV 140205Z AUTO 00000KT 10SM CLR 06/03 A3013 180 85 -800 000/00 RMK AO2 T00560033 $
03949KAQV AQV20160113201011001/13/16 20:10:31  5-MIN KAQV 140210Z AUTO 00000KT 10SM CLR 06/03 A3013 180 85 -800 000/00 RMK AO2 T00560033 $
03949KAQV AQV20160113201511001/13/16 20:15:31  5-MIN KAQV 140215Z AUTO 00000KT 10SM CLR 06/03 A3013 180 85 -800 000/00 RMK AO2 T00560033 $
03949KAQV AQV20160113202011001/13/16 20:20:31  5-MIN KAQV 140220Z AUTO 00000KT 10SM CLR 06/03 A3013 180 85 -800 000/00 RMK AO2 T00560033 $
03949KAQV AQV20160113202511001/13/16 20:25:31  5-MIN KAQV 140225Z AUTO 00000KT 10SM CLR 06/03 A3013 180 85 -800 000/00 RMK AO2 T00560033 $
03949KAQV AQV20160113203011001/13/16 20:30:31  5-MIN KAQV 140230Z AUTO 00000KT 10SM CLR 06/03 A3013 180 85 -800 000/00 RMK AO2 T00560033 $
03949KAQV AQV20160113203511001/13/16 20:35:31  5-MIN KAQV 140235Z AUTO 00000KT 10SM CLR 06/03 A3014 180 85 -800 000/00 RMK AO2 T00560033 $
03949KAQV AQV20160113204011001/13/16 20:40:31  5-MIN KAQV 140240Z AUTO 00000KT 10SM CLR 06/03 A3014 180 85 -800 000/00 RMK AO2 T00560033 $
03949KAQV AQV20160113204511001/13/16 20:45:31  5-MIN KAQV 140245Z AUTO 00000KT 10SM CLR 06/03 A3014 180 85 -800 000/00 RMK AO2 T00560033 $
03949KAQV AQV20160113205012301/13/16 20:50:31  5-MIN KAQV 140250Z AUTO 00000KT 10SM CLR 06/03 A3014 180 85 -800 000/00 RMK AO2 SLP207 T00560033 55000 $
03949KAQV AQV20160113205512301/13/16 20:55:31  5-MIN KAQV 140255Z AUTO 00000KT 10SM CLR 06/03 A3014 180 85 -800 000/00 RMK AO2 SLP207 T00560033 55000 $
03949KAQV AQV20160113210011001/13/16 21:00:31  5-MIN KAQV 140300Z AUTO 00000KT 10SM CLR 06/03 A3014 180 85 -800 000/00 RMK AO2 T00560033 $
03949KAQV AQV20160113210511001/13/16 21:05:31  5-MIN KAQV 140305Z AUTO 00000KT 10SM CLR 06/03 A3014 180 82 -800 000/00 RMK AO2 T00560028 $
03949KAQV AQV20160113211011001/13/16 21:10:31  5-MIN KAQV 140310Z AUTO 00000KT 10SM CLR 05/03 A3014 180 89 -900 000/00 RMK AO2 T00500033 $
03949KAQV AQV20160113211511001/13/16 21:15:31  5-MIN KAQV 140315Z AUTO 00000KT 10SM CLR 05/03 A3014 180 89 -900 000/00 RMK AO2 T00500033 $
03949KAQV AQV20160113212011001/13/16 21:20:31  5-MIN KAQV 140320Z AUTO 00000KT 10SM CLR 05/03 A3013 180 85 -900 000/00 RMK AO2 T00500028 $
03949KAQV AQV20160113212511101/13/16 21:25:31  5-MIN KAQV 140325Z AUTO 00000KT 10SM CLR 04/03 A3013 180 89 -1000 000/00 RMK AO2 T00440028 $
03949KAQV AQV20160113213011101/13/16 21:30:31  5-MIN KAQV 140330Z AUTO 00000KT 10SM CLR 04/03 A3013 180 89 -1000 000/00 RMK AO2 T00440028 $
03949KAQV AQV20160113213511101/13/16 21:35:31  5-MIN KAQV 140335Z AUTO 00000KT 10SM CLR 04/03 A3013 190 89 -1000 000/00 RMK AO2 T00440028 $
03949KAQV AQV20160113214011101/13/16 21:40:31  5-MIN KAQV 140340Z AUTO 00000KT 10SM CLR 04/03 A3013 190 89 -1000 000/00 RMK AO2 T00440028 $
03949KAQV AQV20160113214511101/13/16 21:45:31  5-MIN KAQV 140345Z AUTO 00000KT 10SM CLR 04/03 A3013 190 89 -1000 000/00 RMK AO2 T00440028 $
03949KAQV AQV20160113215011801/13/16 21:50:31  5-MIN KAQV 140350Z AUTO 00000KT 10SM CLR 04/03 A3012 190 89 -1000 000/00 RMK AO2 SLP202 T00440028 $
03949KAQV AQV20160114073511301/14/16 07:35:31  5-MIN KAQV 141335Z AUTO 00000KT 6SM BR CLR 03/02 A3004 270 92 -1100 000/00 RMK AO2 T00280017 $
03949KAQV AQV20160114074011301/14/16 07:40:31  5-MIN KAQV 141340Z AUTO 00000KT 6SM BR CLR 03/02 A3003 270 96 -1100 000/00 RMK AO2 T00280022 $
03949KAQV AQV20160114074511301/14/16 07:45:31  5-MIN KAQV 141345Z AUTO 00000KT 6SM BR CLR 03/02 A3004 270 96 -1100 000/00 RMK AO2 T00280022 $
03949KAQV AQV20160114075012101/14/16 07:50:31  5-MIN KAQV 141350Z AUTO 00000KT 5SM BR CLR 03/03 A3003 270 100 -1100 000/00 RMK AO2 SLP173 T00280028 $
03949KAQV AQV20160114075512101/14/16 07:55:31  5-MIN KAQV 141355Z AUTO 00000KT 5SM BR CLR 03/03 A3004 270 100 -1100 000/00 RMK AO2 SLP173 T00280028 $
03949KAQV AQV20160114080011401/14/16 08:00:31  5-MIN KAQV 141400Z AUTO 00000KT 5SM BR CLR 03/03 A3004 270 100 -1100 000/00 RMK AO2 T00280028 $
03949KAQV AQV20160114080511401/14/16 08:05:31  5-MIN KAQV 141405Z AUTO 17003KT 6SM BR CLR 03/03 A3005 260 100 -1100 160/03 RMK AO2 T00280028 $
03949KAQV AQV20160114081011001/14/16 08:10:31  5-MIN KAQV 141410Z AUTO 00000KT 7SM CLR 03/03 A3005 260 96 -1000 000/00 RMK AO2 T00330028 $
03949KAQV AQV20160114081511001/14/16 08:15:31  5-MIN KAQV 141415Z AUTO 00000KT 8SM CLR 03/03 A3005 260 96 -1000 000/00 RMK AO2 T00330028 $
03949KAQV AQV20160114082011001/14/16 08:20:31  5-MIN KAQV 141420Z AUTO 00000KT 8SM CLR 03/03 A3005 250 96 -1000 000/00 RMK AO2 T00330028 $
03949KAQV AQV20160114082510901/14/16 08:25:31  5-MIN KAQV 141425Z AUTO 00000KT 9SM CLR 04/03 A3005 260 96 -900 000/00 RMK AO2 T00390033 $
03949KAQV AQV20160114083010901/14/16 08:30:31  5-MIN KAQV 141430Z AUTO 00000KT 8SM CLR 04/03 A3005 260 96 -900 000/00 RMK AO2 T00390033 $
03949KAQV AQV20160114083510901/14/16 08:35:31  5-MIN KAQV 141435Z AUTO 00000KT 8SM CLR 04/04 A3005 260 96 -900 000/00 RMK AO2 T00440039 $
03949KAQV AQV20160114084010901/14/16 08:40:31  5-MIN KAQV 141440Z AUTO 00000KT 8SM CLR 05/04 A3004 270 96 -800 000/00 RMK AO2 T00500044 $
03949KAQV AQV20160114084510901/14/16 08:45:31  5-MIN KAQV 141445Z AUTO 00000KT 9SM CLR 06/04 A3004 270 92 -700 000/00 RMK AO2 T00560044 $
03949KAQV AQV20160114085012301/14/16 08:50:31  5-MIN KAQV 141450Z AUTO 00000KT 10SM CLR 06/05 A3004 270 96 -700 000/00 RMK AO2 SLP175 T00560050 56006 $
03949KAQV AQV20160114085512301/14/16 08:55:31  5-MIN KAQV 141455Z AUTO 00000KT 10SM CLR 06/05 A3004 270 93 -600 000/00 RMK AO2 SLP173 T00610050 56006 $
03949KAQV AQV20160114090011001/14/16 09:00:31  5-MIN KAQV 141500Z AUTO 00000KT 10SM CLR 06/05 A3004 270 93 -700 000/00 RMK AO2 T00610050 $
03949KAQV AQV20160114090511001/14/16 09:05:31  5-MIN KAQV 141505Z AUTO 00000KT 10SM CLR 06/05 A3004 270 93 -700 000/00 RMK AO2 T00610050 $
03949KAQV AQV20160114091011001/14/16 09:10:31  5-MIN KAQV 141510Z AUTO 00000KT 10SM CLR 07/06 A3003 270 93 -600 000/00 RMK AO2 T00670056 $
03949KAQV AQV20160114091511001/14/16 09:15:31  5-MIN KAQV 141515Z AUTO 00000KT 10SM CLR 07/05 A3004 270 89 -600 000/00 RMK AO2 T00670050 $
03949KAQV AQV20160114092011001/14/16 09:20:31  5-MIN KAQV 141520Z AUTO 00000KT 10SM CLR 07/05 A3004 270 86 -500 000/00 RMK AO2 T00720050 $
03949KAQV AQV20160114092511001/14/16 09:25:31  5-MIN KAQV 141525Z AUTO 00000KT 10SM CLR 07/06 A3004 260 89 -500 000/00 RMK AO2 T00720056 $
03949KAQV AQV20160114093011001/14/16 09:30:31  5-MIN KAQV 141530Z AUTO VRB03KT 10SM CLR 07/06 A3005 260 89 -500 VRB/03 RMK AO2 T00720056 $
03949KAQV AQV20160114093511001/14/16 09:35:31  5-MIN KAQV 141535Z AUTO VRB03KT 10SM CLR 08/05 A3005 250 82 -500 VRB/03 RMK AO2 T00780050 $
03949KAQV AQV20160114094011001/14/16 09:40:31  5-MIN KAQV 141540Z AUTO 13003KT 10SM CLR 08/06 A3005 260 86 -500 130/03 RMK AO2 T00780056 $
03949KAQV AQV20160114094511001/14/16 09:45:31  5-MIN KAQV 141545Z AUTO 15004KT 10SM CLR 08/06 A3005 250 82 -400 150/04 RMK AO2 T00830056 $
03949KAQV AQV20160114095011701/14/16 09:50:31  5-MIN KAQV 141550Z AUTO 16003KT 10SM CLR 08/06 A3006 250 82 -400 150/03 RMK AO2 SLP180 T00830056 $
03949KAQV AQV20160114095511701/14/16 09:55:31  5-MIN KAQV 141555Z AUTO VRB04KT 10SM CLR 08/06 A3006 250 82 -400 VRB/04 RMK AO2 SLP180 T00830056 $
03949KAQV AQV20160114100011301/14/16 10:00:31  5-MIN KAQV 141600Z AUTO VRB03KT 10SM FEW060 08/06 A3006 250 86 -400 VRB/03 RMK AO2 T00830061 $
03949KAQV AQV20160114100511301/14/16 10:05:31  5-MIN KAQV 141605Z AUTO VRB03KT 10SM SCT060 09/06 A3006 250 83 -300 VRB/03 RMK AO2 T00890061 $
03949KAQV AQV20160114101011301/14/16 10:10:31  5-MIN KAQV 141610Z AUTO 00000KT 10SM BKN060 09/07 A3006 250 86 -300 000/00 RMK AO2 T00890067 $
03949KAQV AQV20160114101511301/14/16 10:15:31  5-MIN KAQV 141615Z AUTO 14003KT 10SM BKN060 09/07 A3005 250 83 -300 140/03 RMK AO2 T00940067 $
03949KAQV AQV20160114102011301/14/16 10:20:31  5-MIN KAQV 141620Z AUTO 14003KT 10SM BKN060 09/07 A3005 260 83 -300 140/03 RMK AO2 T00940067 $
03949KAQV AQV20160114102511301/14/16 10:25:31  5-MIN KAQV 141625Z AUTO VRB04KT 10SM OVC060 10/07 A3004 260 83 -200 VRB/04 RMK AO2 T01000072 $
03949KAQV AQV20160114103011301/14/16 10:30:31  5-MIN KAQV 141630Z AUTO 00000KT 10SM BKN060 10/07 A3004 260 83 -200 000/00 RMK AO2 T01000072 $
03949KAQV AQV20160114103511301/14/16 10:35:31  5-MIN KAQV 141635Z AUTO 14003KT 10SM SCT060 10/07 A3004 270 83 -200 130/03 RMK AO2 T01000072 $
03949KAQV AQV20160114104011301/14/16 10:40:31  5-MIN KAQV 141640Z AUTO VRB03KT 10SM SCT060 11/07 A3003 270 80 -100 VRB/03 RMK AO2 T01060072 $
03949KAQV AQV20160114104511301/14/16 10:45:31  5-MIN KAQV 141645Z AUTO VRB03KT 10SM FEW060 11/08 A3003 270 83 -100 VRB/03 RMK AO2 T01060078 $
03949KAQV AQV20160114105012001/14/16 10:50:31  5-MIN KAQV 141650Z AUTO VRB03KT 10SM FEW060 11/08 A3003 280 83 -100 VRB/03 RMK AO2 SLP170 T01060078 $
03949KAQV AQV20160114105511401/14/16 10:55:31  5-MIN KAQV 141655Z AUTO 00000KT 10SM CLR 12/08 A3002 280 77 0 000/00 RMK AO2 SLP168 T01170078 $
03949KAQV AQV20160114110010701/14/16 11:00:31  5-MIN KAQV 141700Z AUTO 00000KT 10SM CLR 12/08 A3002 280 77 0 000/00 RMK AO2 T01170078 $
03949KAQV AQV20160114110510701/14/16 11:05:31  5-MIN KAQV 141705Z AUTO 00000KT 10SM CLR 12/08 A3001 290 77 0 000/00 RMK AO2 T01170078 $
03949KAQV AQV20160114111010701/14/16 11:10:31  5-MIN KAQV 141710Z AUTO 00000KT 10SM CLR 12/08 A3001 290 80 0 000/00 RMK AO2 T01170083 $
03949KAQV AQV20160114111510901/14/16 11:15:31  5-MIN KAQV 141715Z AUTO 00000KT 10SM CLR 12/08 A3001 300 74 100 000/00 RMK AO2 T01220078 $
03949KAQV AQV20160114112010901/14/16 11:20:31  5-MIN KAQV 141720Z AUTO 00000KT 10SM CLR 12/08 A3001 300 74 100 000/00 RMK AO2 T01220078 $
03949KAQV AQV20160114112510901/14/16 11:25:31  5-MIN KAQV 141725Z AUTO 00000KT 10SM CLR 12/08 A3000 300 74 100 000/00 RMK AO2 T01220078 $
03949KAQV AQV20160114113010901/14/16 11:30:31  5-MIN KAQV 141730Z AUTO 00000KT 10SM CLR 12/08 A3000 300 77 100 000/00 RMK AO2 T01220083 $
03949KAQV AQV20160114113510901/14/16 11:35:31  5-MIN KAQV 141735Z AUTO 00000KT 10SM CLR 12/08 A2999 310 77 100 000/00 RMK AO2 T01220083 $
03949KAQV AQV20160114114010901/14/16 11:40:31  5-MIN KAQV 141740Z AUTO 11003KT 10SM CLR 13/08 A2999 310 74 200 110/03 RMK AO2 T01280083 $
03949KAQV AQV20160114114510901/14/16 11:45:31  5-MIN KAQV 141745Z AUTO 14003KT 10SM CLR 13/08 A2999 310 74 200 130/03 RMK AO2 T01280083 $
03949KAQV AQV20160114115013401/14/16 11:50:31  5-MIN KAQV 141750Z AUTO VRB04KT 10SM CLR 13/08 A2998 320 74 200 VRB/04 RMK AO2 SLP154 T01280083 10128 20017 58001 $
03949KAQV AQV20160114115513401/14/16 11:55:31  5-MIN KAQV 141755Z AUTO 00000KT 10SM CLR 13/08 A2998 330 74 200 000/00 RMK AO2 SLP152 T01280083 10128 20017 58001 $
03949KAQV AQV20160114120011601/14/16 12:00:31  5-MIN KAQV 141800Z AUTO 00000KT 10SM CLR 13/08 A2997 330 71 300 000/00 RMK AO2 PRESFR T01330083 $
03949KAQV AQV20160114120511601/14/16 12:05:31  5-MIN KAQV 141805Z AUTO 00000KT 10SM CLR 13/08 A2996 340 71 300 000/00 RMK AO2 PRESFR T01330083 $
03949KAQV AQV20160114121011601/14/16 12:10:31  5-MIN KAQV 141810Z AUTO 09003KT 10SM CLR 13/08 A2996 340 71 300 080/03 RMK AO2 PRESFR T01330083 $
03949KAQV AQV20160114121510901/14/16 12:15:31  5-MIN KAQV 141815Z AUTO 00000KT 10SM CLR 14/08 A2996 340 69 300 000/00 RMK AO2 T01390083 $
03949KAQV AQV20160114122010901/14/16 12:20:31  5-MIN KAQV 141820Z AUTO 12003KT 10SM CLR 14/08 A2995 350 69 300 120/03 RMK AO2 T01390083 $
03949KAQV AQV20160114122510901/14/16 12:25:31  5-MIN KAQV 141825Z AUTO VRB03KT 10SM CLR 14/08 A2995 350 69 300 VRB/03 RMK AO2 T01390083 $
03949KAQV AQV20160114123007501/14/16 12:30:31  5-MIN KAQV 141830Z AUTO 13003KT 10SM CLR 14/08 A2994 360
03949KAQV AQV20160115184010901/15/16 18:40:31  5-MIN KAQV 160040Z AUTO 00000KT 10SM CLR 11/06 A2976 530 71 200 000/00 RMK AO2 T01060056 $
03949KAQV AQV20160115184510901/15/16 18:45:31  5-MIN KAQV 160045Z AUTO 00000KT 10SM CLR 10/06 A2976 530 74 100 000/00 RMK AO2 T01000056 $
03949KAQV AQV20160115185011601/15/16 18:50:31  5-MIN KAQV 160050Z AUTO 00000KT 10SM CLR 10/06 A2976 520 77 100 000/00 RMK AO2 SLP078 T01000061 $
03949KAQV AQV20160115185511601/15/16 18:55:31  5-MIN KAQV 160055Z AUTO 00000KT 10SM CLR 10/07 A2976 530 80 100 000/00 RMK AO2 SLP077 T01000067 $
03949KAQV AQV20160115190010901/15/16 19:00:31  5-MIN KAQV 160100Z AUTO 00000KT 10SM CLR 10/06 A2976 530 77 100 000/00 RMK AO2 T01000061 $
03949KAQV AQV20160115190510901/15/16 19:05:31  5-MIN KAQV 160105Z AUTO 00000KT 10SM CLR 10/06 A2976 520 77 100 000/00 RMK AO2 T01000061 $
03949KAQV AQV20160115191010901/15/16 19:10:31  5-MIN KAQV 160110Z AUTO 00000KT 10SM CLR 10/06 A2977 520 74 100 000/00 RMK AO2 T01000056 $
03949KAQV AQV20160115191510701/15/16 19:15:31  5-MIN KAQV 160115Z AUTO 00000KT 10SM CLR 09/06 A2977 510 79 0 000/00 RMK AO2 T00940061 $
03949KAQV AQV20160115192010701/15/16 19:20:31  5-MIN KAQV 160120Z AUTO 00000KT 10SM CLR 09/06 A2978 510 79 0 000/00 RMK AO2 T00940061 $
03949KAQV AQV20160115192510701/15/16 19:25:31  5-MIN KAQV 160125Z AUTO 00000KT 10SM CLR 09/06 A2977 510 76 0 000/00 RMK AO2 T00940056 $
03949KAQV AQV20160115193010701/15/16 19:30:31  5-MIN KAQV 160130Z AUTO 00000KT 10SM CLR 09/06 A2977 520 76 0 000/00 RMK AO2 T00940056 $
03949KAQV AQV20160115193510701/15/16 19:35:31  5-MIN KAQV 160135Z AUTO 00000KT 10SM CLR 09/06 A2977 520 79 0 000/00 RMK AO2 T00890056 $
03949KAQV AQV20160115194010701/15/16 19:40:31  5-MIN KAQV 160140Z AUTO 00000KT 10SM CLR 09/06 A2977 510 79 0 000/00 RMK AO2 T00890056 $
03949KAQV AQV20160115194510701/15/16 19:45:31  5-MIN KAQV 160145Z AUTO 00000KT 10SM CLR 09/06 A2977 510 79 0 000/00 RMK AO2 T00890056 $
03949KAQV AQV20160115195011401/15/16 19:50:31  5-MIN KAQV 160150Z AUTO 00000KT 10SM CLR 09/06 A2978 510 79 0 000/00 RMK AO2 SLP083 T00890056 $
03949KAQV AQV20160115195511401/15/16 19:55:31  5-MIN KAQV 160155Z AUTO 00000KT 10SM CLR 09/06 A2978 510 79 0 000/00 RMK AO2 SLP084 T00890056 $
03949KAQV AQV20160115200010701/15/16 20:00:31  5-MIN KAQV 160200Z AUTO 00000KT 10SM CLR 09/06 A2978 510 79 0 000/00 RMK AO2 T00890056 $
03949KAQV AQV20160115200511001/15/16 20:05:31  5-MIN KAQV 160205Z AUTO 00000KT 10SM CLR 08/06 A2978 510 82 -100 000/00 RMK AO2 T00830056 $
03949KAQV AQV20160115201010701/15/16 20:10:31  5-MIN KAQV 160210Z AUTO 00000KT 10SM CLR 09/06 A2978 500 79 0 000/00 RMK AO2 T00890056 $
03949KAQV AQV20160115201511001/15/16 20:15:31  5-MIN KAQV 160215Z AUTO 00000KT 10SM CLR 08/06 A2978 510 82 -100 000/00 RMK AO2 T00830056 $
03949KAQV AQV20160115202011001/15/16 20:20:31  5-MIN KAQV 160220Z AUTO 00000KT 10SM CLR 08/06 A2978 500 82 -100 000/00 RMK AO2 T00830056 $
03949KAQV AQV20160115202511001/15/16 20:25:31  5-MIN KAQV 160225Z AUTO 00000KT 10SM CLR 08/06 A2979 500 82 -100 000/00 RMK AO2 T00830056 $
03949KAQV AQV20160115203011001/15/16 20:30:31  5-MIN KAQV 160230Z AUTO 00000KT 10SM CLR 08/06 A2979 500 82 -100 000/00 RMK AO2 T00830056 $
03949KAQV AQV20160115203511001/15/16 20:35:31  5-MIN KAQV 160235Z AUTO 00000KT 10SM CLR 08/05 A2979 500 79 -100 000/00 RMK AO2 T00830050 $
03949KAQV AQV20160115204011001/15/16 20:40:31  5-MIN KAQV 160240Z AUTO 00000KT 10SM CLR 08/06 A2979 500 82 -100 000/00 RMK AO2 T00830056 $
03949KAQV AQV20160115204511001/15/16 20:45:31  5-MIN KAQV 160245Z AUTO 00000KT 10SM CLR 08/06 A2979 500 82 -100 000/00 RMK AO2 T00830056 $
03949KAQV AQV20160115205012301/15/16 20:50:31  5-MIN KAQV 160250Z AUTO 00000KT 10SM CLR 08/06 A2980 490 82 -100 000/00 RMK AO2 SLP090 T00830056 53019 $
03949KAQV AQV20160115205512301/15/16 20:55:31  5-MIN KAQV 160255Z AUTO 00000KT 10SM CLR 08/06 A2980 490 86 -200 000/00 RMK AO2 SLP091 T00780056 53019 $
03949KAQV AQV20160115210011001/15/16 21:00:31  5-MIN KAQV 160300Z AUTO 00000KT 10SM CLR 08/06 A2980 480 86 -200 000/00 RMK AO2 T00780056 $
03949KAQV AQV20160115210511001/15/16 21:05:31  5-MIN KAQV 160305Z AUTO 00000KT 10SM CLR 08/06 A2981 480 86 -200 000/00 RMK AO2 T00780056 $
03949KAQV AQV20160115211015601/15/16 21:10:31  5-MIN KAQV 160310Z AUTO 00000KT 10SM CLR 08/06 A2981 480QV 160715Z AUTO 00000KT 10SM CLR 04/03 A2981 480 92 -600 000/00 RMK AO2 T00440033
03949KAQV AQV20160116012010801/16/16 01:20:31  5-MIN KAQV 160720Z AUTO 00000KT 10SM CLR 04/03 A2981 480 92 -600 000/00 RMK AO2 T00440033
03949KAQV AQV20160116012510801/16/16 01:25:31  5-MIN KAQV 160725Z AUTO 00000KT 10SM CLR 04/03 A2981 470 96 -700 000/00 RMK AO2 T00390033
03949KAQV AQV20160116013010801/16/16 01:30:31  5-MIN KAQV 160730Z AUTO 00000KT 10SM CLR 03/03 A2982 470 96 -700 000/00 RMK AO2 T00330028
03949KAQV AQV20160116013510801/16/16 01:35:31  5-MIN KAQV 160735Z AUTO 00000KT 10SM CLR 03/03 A2982 470 96 -700 000/00 RMK AO2 T00330028
03949KAQV AQV20160116014010801/16/16 01:40:31  5-MIN KAQV 160740Z AUTO 00000KT 10SM CLR 04/03 A2982 470 92 -700 000/00 RMK AO2 T00390028
03949KAQV AQV20160116014510801/16/16 01:45:31  5-MIN KAQV 160745Z AUTO 00000KT 10SM CLR 04/03 A2982 470 92 -700 000/00 RMK AO2 T00390028
03949KAQV AQV20160116015011501/16/16 01:50:31  5-MIN KAQV 160750Z AUTO 00000KT 10SM CLR 04/03 A2982 470 92 -700 000/00 RMK AO2 SLP099 T00390028
03949KAQV AQV20160116015511501/16/16 01:55:31  5-MIN KAQV 160755Z AUTO 00000KT 10SM CLR 04/03 A2982 470 92 -700 000/00 RMK AO2 SLP099 T00390028
03949KAQV AQV20160116020010801/16/16 02:00:31  5-MIN KAQV 160800Z AUTO 00000KT 10SM CLR 04/03 A2982 460 92 -700 000/00 RMK AO2 T00390028
03949KAQV AQV20160116020510601/16/16 02:05:31  5-MIN KAQV 160805Z AUTO 00000KT 10SM CLR 04/03 A2982 470 RMK AO2 SLP098 T00390028 50005
03949KAQV AQV20160116025512101/16/16 02:55:31  5-MIN KAQV 160855Z AUTO 00000KT 10SM CLR 03/03 A2982 470 96 -700 000/00 RMK AO2 SLP099 T00330028 50005
03949KAQV AQV20160116030010801/16/16 03:00:31  5-MIN KAQV 160900Z AUTO 00000KT 10SM CLR 03/02 A2982 470 96 -800 000/00 RMK AO2 T00280022
03949KAQV AQV20160116030519801/16/16 03:05:31  5-MIN KAQV 160905Z AUTO 00000KT 10SM CLR 03/02 A2982 470 96 -800 000/00 RMK AO2 T0028002201/16/16 03:10:31   AUTO 03003KT 10SM CLR 03/02 A2983 460 92 -800 030/03 RMK AO2 T00280017
03949KAQV AQV20160116044510801/16/16 04:45:31  5-MIN KAQV 161045Z AUTO 03003KT 10SM CLR 03/02 A2983 460 89 -800 030/03 RMK AO2 T00330017
03949KAQV AQV20160116045011501/16/16 04:50:31  5-MIN KAQV 161050Z AUTO 04003KT 10SM CLR 03/02 A2983 460 92 -800 030/03 RMK AO2 SLP101 T00330022
03949KAQV AQV20160116045509201/16/16 04:55:31  5-MIN KAQV 161055Z AUTO 03003KT 10SM CLR 04/02 A2983 460 89 -700 020/0002
03949KAQV AQV20160116055513301/16/16 05:55:31  5-MIN KAQV 161155Z AUTO 00000KT 10SM CLR 03/02 A2985 440 89 -800 000/00 RMK AO2 SLP110 T00330017 10056 20028 53002
03949KAQV AQV20160116060010801/16/16 06:00:31  5-MIN KAQV 161200Z AUTO 00000KT 10SM CLR 03/02 A2985 440 89 -800 000/00 RMK AO2 T00330017
03949KAQV AQV20160116060510801/16/16 06:05:31  5-MIN KAQV 161205Z AUTO 00000KT 10SM CLR 03/02 A2985 440 89 -800 000/00 RMK AO2 T00330017
03949KAQV AQV20160116061010801/16/16 06:10:31  5-MIN KAQV 161210Z AUTO 02003KT 10SM CLR 04/02 A2985 440 85 -700 020/03 RMK AO2 T00390017
03949KAQV AQV20160116061510801/16/16 06:15:31  5-MIN KAQV 161215Z AUTO 01003KT 10SM CLR 03/02 A2985 440 92 -900 010/03 RMK AO2 T00280017
03949KAQV AQV20160116062010801/16/16 06:20:31  5-MIN KAQV 161220Z AUTO 00000KT 10SM CLR 03/02 A2985 440 89 -800 000/00 RMK AO2 T00330017
03949KAQV AQV20160116062510801/16/16 06:25:31  5-MIN KAQV 161225Z AUTO 00000KT 10SM CLR 03/02 A2986 440 92 -900 000/00 RMK AO2 T00280017
03949KAQV AQV20160116062512001/16/16 06:25:31  5-MIN KAQV 161225Z AUTO 00000KT 10SM CLR 03/02 A2986 440 92 -900 000/00 RMK AO2 T0024 5MIN(S) LISTED.
03949KAQV AQV20160116063010801/16/16 06:30:31  5-MIN KAQV 161230Z AUTO 02003KT 10SM CLR 03/02 A2986 430 89 -800 020/03 RMK AO2 T00330017
03949KAQV AQV20160116063510801/16/16 06:35:31  5-MIN KAQV 161235Z AUTO 00000KT 10SM CLR 03/02 A2986 430 92 -900 000/00 RMK AO2 T00280017
03949KAQV AQV20160116064010801/16/16 06:40:31  5-MIN KAQV 161240Z AUTO 02003KT 10SM CLR 03/02 A2986 430 92 -900 020/03 RMK AO2 T00280017
03949KAQV AQV20160116064510801/16/16 06:45:31  5-MIN KAQV 161245Z AUTO 03003KT 10SM CLR 03/02 A2986 430 92 -900 030/03 RMK AO2 T00280017
03949KAQV AQV20160116065011501/16/16 06:50:31  5-MIN KAQV 161250Z AUTO 00000KT 10SM CLR 03/02 A2986 430 92 -900 000/00 RMK AO2 SLP114 T00280017
03949KAQV AQV20160116065511501/16/16 06:55:31  5-MIN KAQV 161255Z AUTO 03003KT 10SM CLR 03/02 A2986 430 92 -900 030/03 RMK AO2 SLP113 T00280017
03949KAQV AQV20160116070010801/16/16 07:00:31  5-MIN KAQV 161300Z AUTO 03003KT 10SM CLR 04/02 A2986 430 85 -700 020/03 RMK AO2 T00390017
03949KAQV AQV20160116070510801/16/16 07:05:31  5-MIN KAQV 161305Z AUTO 03003KT 10SM CLR 04/02 A2986 430 82 -700 030/03 RMK AO2 T00440017
03949KAQV AQV20160116071010801/16/16 07:10:31  5-MIN KAQV 161310Z AUTO VRB03KT 10SM CLR 05/02 A2986 430 79 -600 VRB/03 RMK AO2 T00500017
03949KAQV AQV20160116071510801/16/16 07:15:31  5-MIN KAQV 161315Z AUTO VRB03KT 10SM CLR 05/02 A2986 430 79 -600 VRB/03 RMK AO2 T00500017
03949KAQV AQV20160116072010801/16/16 07:20:31  5-MIN KAQV 161320Z AUTO VRB03KT 10SM CLR 06/02 A2986 440 76 -500 VRB/03 RMK AO2 T00560017
03949KAQV AQV20160116072510801/16/16 07:25:31  5-MIN KAQV 161325Z AUTO VRB03KT 10SM CLR 06/02 A2986 430 76 -500 VRB/03 RMK AO2 T00560017
03949KAQV AQV20160116073010801/16/16 07:30:31  5-MIN KAQV 161330Z AUTO 06003KT 10SM CLR 06/02 A2986 430 76 -500 050/03 RMK AO2 T00560017
03949KAQV AQV20160116073510801/16/16 07:35:31  5-MIN KAQV 161335Z AUTO VRB03KT 10SM CLR 06/02 A2986 430 73 -500 VRB/03 RMK AO2 T00610017
03949KAQV AQV20160116074010801/16/16 07:40:31  5-MIN KAQV 161340Z AUTO 03003KT 10SM CLR 06/02 A2987 420 73 -500 020/03 RMK AO2 T00610017
03949KAQV AQV20160116074510801/16/16 07:45:31  5-MIN KAQV 161345Z AUTO 03004KT 10SM CLR 06/02 A2987 420 73 -500 020/04 RMK AO2 T00610017
03949KAQV AQV20160116075011301/16/16 07:50:31  5-MIN KAQV 161350Z AUTO 04003KT 10SM40/04 RMK AO2 T01440039470 57 400 020/05 RMK AO2 T01330050
03949KAQV AQV20160116143011001/16/16 14:30:31  5-MIN KAQV 162030Z AUTO 02004KT 10SM OVC110 13/05 A2982 470 57 400 020/04 RMK AO2 T01330050
03949KAQV AQV20160116143511001/16/16 14:35:31  5-MIN KAQV 162035Z AUTO 01005KT 10SM OVC110 13/05 A2982 470 57 400 010/05 RMK AO2 T01330050
03949KAQV AQV20160116144011001/16/16 14:40:31  5-MIN KAQV 162040Z AUTO 36004KT 10SM OVC110 13/05 A2982 470 59 400 350/04 RMK AO2 T01280050
03949KAQV AQV20160116144512601/16/16 14:45:31  5-MIN KAQV 162045Z AUTO 02007KT 340V050 10SM OVC110 13/05 A2981 480 59 400 010/07 340V050 RMK AO2 T01280050
03949KAQV AQV20160116145012301/16/16 14:50:31  5-MIN KAQV 162050Z AUTO 36008KT 10SM OVC110 13/04 A2981 470 56 400 360/08 RMK AO2 SLP097 T01280044 58002
03949KAQV AQV20160116145512301/16/16 14:55:31  5-MIN KAQV 162055Z AUTO 36007KT 10SM OVC110 13/04 A2982 470 56 400 350/07 RMK AO2 SLP099 T01280044 58002
03949KAQV AQV20160116150011001/16/16 15:00:31  5-MIN KAQV 162100Z AUTO 02007KT 10SM BKN110 13/04 A2982 470 56 400 010/07 RMK AO2 T01280044
03949KAQV AQV20160116150511001/16/16 15:05:31  5-MIN KAQV 162105Z AUTO 02008KT 10SM BKN110 13/04 A2982 470 56 400 020/08 RMK AO2 T01280044
03949KAQV AQV20160116151011001/16/16 15:10:31  5-MIN KAQV 162110Z AUTO 01006KT 10SM BKN120 12/04 A2982 470 59 300 010/06 RMK AO2 T01220044
03949KAQV AQV20160116151511001/16/16 15:15:31  5-MIN KAQV 162115Z AUTO VRB06KT 10SM BKN120 12/04 A2983 460 59 300 VRB/06 RMK AO2 T01220044
03949KAQV AQV20160116152011001/16/16 15:20:31  5-MIN KAQV 162120Z AUTO 01007KT 10SM BKN120 12/04 A2983 460 56 300 010/07 RMK AO2 T01220039
03949KAQV AQV20160116152511001/16/16 15:25:31  5-MIN KAQV 162125Z AUTO 01007KT 10SM BKN120 12/04 A2982 470 56 300 360/07 RMK AO2 T01220039
03949KAQV AQV20160116153011001/16/16 15:30:31  5-MIN KAQV 162130Z AUTO VRB06KT 10SM BKN120 12/04 A2983 460 56 300 VRB/06 RMK AO2 T01220039
03949KAQV AQV20160116153511001/16/16 15:35:31  5-MIN KAQV 162135Z AUTO 01006KT 10SM BKN110 12/04 A2984 450 58 200 360/06 RMK AO2 T01170039
03949KAQV AQV20160116154011701/16/16 15:40:31  5-MIN KAQV 162140Z AUTO 02004KT 10SM OVC110 12/04 A2985 440 61 200 020/04 RMK AO2 PRESRR T01170044
03949KAQV AQV20160116154511701/16/16 15:45:31  5-MIN KAQV 162145Z AUTO 35005KT 10SM OVC110 12/04 A2986 440 61 200 350/05 RMK AO2 PRESRR T01170044
03949KAQV AQV20160116155012401/16/16 15:50:31  5-MIN KAQV 162150Z AUTO 01007KT 10SM OVC100 12/04 A2986 430 61 200 360/07 RMK AO2 PRESRR SLP113 T01170044
03949KAQV AQV20160116155511701/16/16 15:55:31  5-MIN KAQV 162155Z AUTO VRB06KT 10SM OVC100 12/04 A2987 430 61 200 VRB/06 RMK AO2 SLP114 T01170044
03949KAQV AQV20160116160011001/16/16 16:00:31  5-MIN KAQV 162200Z AUTO 36007KT 10SM OVC100 12/04 A2987 430 61 200 350/07 RMK AO2 T01170044
03949KAQV AQV20160116160511001/16/16 16:05:31  5-MIN KAQV 162205Z AUTO 35004KT 10SM OVC100 12/04 A2988 420 58 200 340/04 RMK AO2 T01170039
03949KAQV AQV20160116161011001/16/16 16:10:31  5-MIN KAQV 162210Z AUTO 35005KT 10SM OVC095 11/04 A2988 410 61 100 350/05 RMK AO2 T01110039
03949KAQV AQV20160116161511001/16/16 16:15:31  5-MIN KAQV 162215Z AUTO 36007KT 10SM OVC090 11/04 A2988 410 61 100 360/07 RMK AO2 T01110039
03949KAQV AQV20160116162011001/16/16 16:20:31  5-MIN KAQV 162220Z AUTO 35005KT 10SM OVC085 11/04 A2988 410 61 100 350/05 RMK AO2 T01110039
03949KAQV AQV20160116162511701/16/16 16:25:31  5-MIN KAQV 162225Z AUTO 36005KT 10SM BKN075 OVC090 11/04 A2989 410 61 100 360/05 RMK AO2 T01110039
03949KAQV AQV20160116163011701/16/16 16:30:31  5-MIN KAQV 162230Z AUTO 35005KT 10SM BKN070 OVC090 11/04 A2989 410 61 100 350/05 RMK AO2 T01110039
03949KAQV AQV20160116163511701/16/16 16:35:31  5-MIN KAQV 162235Z AUTO 00000KT 10SM BKN075 OVC090 11/04 A2989 400 61 100 000/00 RMK AO2 T01110039
03949KAQV AQV20160116164011701/16/16 16:40:31  5-MIN KAQV 162240Z AUTO VRB04KT 10SM BKN075 OVC090 11/04 A2989 400 61 100 VRB/04 RMK AO2 T01110039
03949KAQV AQV20160116164511701/16/16 16:45:31  5-MIN KAQV 162245Z AUTO 01004KT 10SM BKN075 OVC090 11/04 A2989 400 63 100 360/04 RMK AO2 T01110044
03949KAQV AQV20160116165012401/16/16 16:50:31  5-MIN KAQV 162250Z AUTO VRB03KT 10SM BKN075 OVC085 11/04 A2989 400 63 100 VRB/03 RMK AO2 SLP123 T01110044
03949KAQV AQV20160116165512401/16/16 16:55:31  5-MIN KAQV 162255Z AUTO 36004KT 10SM BKN075 OVC085 11/04 A2989 410 63 100 360/04 RMK AO2 SLP123 T01110044
03949KAQV AQV20160116170013301/16/16 17:00:31  5-MIN KAQV 162300Z AUTO 35004KT 10SM -RA BKN075 OVC090 11/04 A2989 400 66 0 350/04 RMK AO2 RAB2259 P0000 T01060044
03949KAQV AQV20160116170513301/16/16 17:05:31  5-MIN KAQV 162305Z AUTO VRB03KT 10SM -RA BKN065 OVC080 11/04 A2989 400 66 0 VRB/03 RMK AO2 RAB2259 P0000 T01060044
03949KAQV AQV20160116171013301/16/16 17:10:31  5-MIN KAQV 162310Z AUTO 00000KT 10SM -RA BKN060 OVC080 11/04 A2989 410 66 0 000/00 RMK AO2 RAB2259 P0000 T01060044
03949KAQV AQV20160116171513301/16/16 17:15:31  5-MIN KAQV 162315Z AUTO 00000KT 10SM -RA SCT060 OVC075 10/05 A2989 410 71 0 000/00 RMK AO2 RAB2259 P0000 T01000050
03949KAQV AQV20160116172013301/16/16 17:20:31  5-MIN KAQV 162320Z AUTO 35004KT 10SM -RA BKN065 OVC080 10/05 A2989 400 71 0 350/04 RMK AO2 RAB2259 P0000 T01000050
03949KAQV AQV20160116172512601/16/16 17:25:31  5-MIN KAQV 162325Z AUTO VRB03KT 10SM -RA OVC070 10/06 A2989 410 74 0 VRB/03 RMK AO2 RAB2259 P0000 T01000056
03949KAQV AQV20160116173013201/16/16 17:30:31  5-MIN KAQV 162330Z AUTO 35004KT 10SM FEW060 OVC075 10/06 A2989 410 74 0 340/04 RMK AO2 RAB2259E28 P0000 T01000056
03949KAQV AQV20160116173513201/16/16 17:35:31  5-MIN KAQV 162335Z AUTO 36004KT 10SM FEW060 OVC080 10/06 A2988 410 74 0 350/04 RMK AO2 RAB2259E28 P0000 T01000056
03949KAQV AQV20160116174012501/16/16 17:40:31  5-MIN KAQV 162340Z AUTO 36005KT 10SM OVC080 10/05 A2988 410 71 0 360/05 RMK AO2 RAB2259E28 P0000 T01000050
03949KAQV AQV20160116174513201/16/16 17:45:31  5-MIN KAQV 162345Z AUTO 35006KT 10SM FEW060 OVC080 10/05 A2988 410 71 0 350/06 RMK AO2 RAB2259E28 P0000 T01000050
03949KAQV AQV20160116175016301/16/16 17:50:31  5-MIN KAQV 162350Z AUTO 36006KT 10SM FEW060 OVC085 10/05 A2988 410 71 0 360/06 RMK AO2 RAB2259E28 SLP121 P0000 60000 T01000050 10150 20100 58021
03949KAQV AQV20160116175516601/16/16 17:55:31  5-MIN KAQV 162355Z AUTO 35006KT 10SM SCT065 OVC085 09/04 A2989 410 71 -100 350/06 RMK AO2 RAB2259E28 SLP122 P0000 60000 T00940044 10150 20094 58021
03949KAQV AQV20160116180011801/16/16 18:00:31  5-MIN KAQV 170000Z AUTO 36009KT 10SM BKN075 OVC085 09/04 A2989 400 68 -100 360/09 RMK AO2 T00940039
03949KAQV AQV20160116180512401/16/16 18:05:31  5-MIN KAQV 170005Z AUTO 01008G16KT 10SM SCT065 OVC080 09/04 A2990 390 68 -100 360/08G16 RMK AO2 T00940039
03949KAQV AQV20160118000510901/18/16 00:05:31  5-MIN KAQV 180605Z AUTO 00000KT 10SM CLR 01/M01 A3024 80 89 -1600 000/00 RMK AO2 T00061011
03949KAQV AQV20160118001010901/18/16 00:10:31  5-MIN KAQV 180610Z AUTO 00000KT 10SM CLR 00/M01 A3024 80 92 -1600 000/00 RMK AO2 T00001011
03949KAQV AQV20160118001510901/18/16 00:15:31  5-MIN KAQV 180615Z AUTO 00000KT 10SM CLR 00/M01 A3024 80 92 -1600 000/00 RMK AO2 T00001011
03949KAQV AQV20160118002010901/18/16 00:20:31  5-MIN KAQV 180620Z AUTO 00000KT 10SM CLR 00/M01 A3024 80 92 -1600 000/00 RMK AO2 T00001011
03949KAQV AQV20160118002510901/18/16 00:25:31  5-MIN KAQV 180625Z AUTO 00000KT 10SM CLR 00/M01 A3024 80 92 -1600 000/00 RMK AO2 T00001011
03949KAQV AQV20160118003010901/18/16 00:30:31  5-MIN KAQV 180630Z AUTO 00000KT 10SM CLR 00/M01 A3024 80 92 -1600 000/00 RMK AO2 T00001011
03949KAQV AQV20160118003510901/18/16 00:35:31  5-MIN KAQV 180635Z AUTO 00000KT 10SM CLR 00/M01 A3025 80 92 -1700 000/00 RMK AO2 T00001011
03949KAQV AQV20160118004010901/18/16 00:40:31  5-MIN KAQV 180640Z AUTO 00000KT 10SM CLR 00/M01 A3024 80 92 -1600 000/00 RMK AO2 T00001011
03949KAQV AQV20160118004510901/18/16 00:45:31  5-MIN KAQV 180645Z AUTO 00000KT 10SM CLR 00/M01 A3024 80 92 -1600 000/00 RMK AO2 T00001011
03949KAQV AQV20160118005011601/18/16 00:50:31  5-MIN KAQV 180650Z AUTO 00000KT 10SM CLR 00/M01 A3024 80 92 -1600 000/00 RMK AO2 SLP244 T00001011
03949KAQV AQV20160118005511601/18/16 00:55:31  5-MIN KAQV 180655Z AUTO 00000KT 10SM CLR 00/M01 A3025 80 92 -1700 000/00 RMK AO2 SLP245 T00001011
03949KAQV AQV20160118010010901/18/16 01:00:31  5-MIN KAQV 180700Z AUTO 00000KT 10SM CLR 00/M01 A3025 70 92 -1700 000/00 RMK AO2 T00001011
03949KAQV AQV20160118010510901/18/16 01:05:31  5-MIN KAQV 180705Z AUTO 00000KT 10SM CLR 00/M02 A3025 70 88 -1700 000/00 RMK AO2 T00001017
03949KAQV AQV20160118011011001/18/16 01:10:31  5-MIN KAQV 180710Z AUTO 00000KT 10SM CLR M01/M02 A3025 70 92 -1700 000/00 RMK AO2 T10061017
03949KAQV AQV20160118011511001/18/16 01:15:31  5-MIN KAQV 180715Z AUTO 00000KT 10SM CLR M01/M01 A3025 70 96 -1700 000/00 RMK AO2 T10061011
03949KAQV AQV20160118012011001/18/16 01:20:31  5-MIN KAQV 180720Z AUTO 00000KT 10SM CLR M01/M02 A3025 70 92 -1700 000/00 RMK AO2 T10061017
03949KAQV AQV20160118012511001/18/16 01:25:31  5-MIN KAQV 180725Z AUTO 00000KT 10SM CLR M01/M02 A3025 70 92 -1700 000/00 RMK AO2 T10061017
03949KAQV AQV20160118013011001/18/16 01:30:31  5-MIN KAQV 180730Z AUTO 00000KT 10SM CLR M01/M02 A3025 70 92 -1700 000/00 RMK AO2 T10061017
03949KAQV AQV20160118013511001/18/16 01:35:31  5-MIN KAQV 180735Z AUTO 00000KT 10SM CLR M01/M02 A3025 70 92 -1700 000/00 RMK AO2 T10061017
03949KAQV AQV20160118014011001/18/16 01:40:31  5-MIN KAQV 180740Z AUTO 00000KT 10SM CLR M01/M02 A3025 70 92 -1700 000/00 RMK AO2 T10061017
03949KAQV AQV20160118014511001/18/16 01:45:31  5-MIN KAQV 180745Z AUTO 00000KT 10SM CLR M01/M02 A3025 70 92 -1700 000/00 RMK AO2 T10061017
03949KAQV AQV20160118015011701/18/16 01:50:31  5-MIN KAQV 180750Z AUTO 00000KT 10SM CLR M01/M02 A3025 70 96 -1800 000/00 RMK AO2 SLP247 T10111017
03949KAQV AQV20160118015511701/18/16 01:55:31  5-MIN KAQV 180755Z AUTO 00000KT 10SM CLR M01/M02 A3025 70 96 -1800 000/00 RMK AO2 SLP248 T10111017
03949KAQV AQV20160118020011001/18/16 02:00:31  5-MIN KAQV 180800Z AUTO 00000KT 10SM CLR M01/M02 A3026 70 96 -1800 000/00 RMK AO2 T10111017
03949KAQV AQV20160118020511001/18/16 02:05:31  5-MIN KAQV 180805Z AUTO 00000KT 10SM CLR M01/M02 A3025 70 96 -1800 000/00 RMK AO2 T10111017
03949KAQV AQV20160118021011001/18/16 02:10:31  5-MIN KAQV 180810Z AUTO 00000KT 10SM CLR M01/M02 A3026 70 96 -1800 000/00 RMK AO2 T10111017
03949KAQV AQV20160118021511001/18/16 02:15:31  5-MIN KAQV 180815Z AUTO 00000KT 10SM CLR M01/M02 A3026 60 96 -1800 000/00 RMK AO2 T10111017
03949KAQV AQV20160118022011001/18/16 02:20:31  5-MIN KAQV 180820Z AUTO 00000KT 10SM CLR M01/M02 A3026 60 92 -1800 000/00 RMK AO2 T10111022
03949KAQV AQV20160118022511001/18/16 02:25:31  5-MIN KAQV 180825Z AUTO 00000KT 10SM CLR M01/M02 A3026 60 96 -1800 000/00 RMK AO2 T10111017
03949KAQV AQV20160118023011001/18/16 02:30:31  5-MIN KAQV 180830Z AUTO 00000KT 10SM CLR M01/M02 A3026 60 96 -1800 000/00 RMK AO2 T10111017
03949KAQV AQV20160118023511001/18/16 02:35:31  5-MIN KAQV 180835Z AUTO 00000KT 10SM CLR M01/M02 A3026 60 96 -1800 000/00 RMK AO2 T10111017
03949KAQV AQV20160118024011001/18/16 02:40:31  5-MIN KAQV 180840Z AUTO 00000KT 10SM CLR M01/M02 A3027 60 96 -1800 000/00 RMK AO2 T10111017
03949KAQV AQV20160118024511101/18/16 02:45:31  5-MIN KAQV 180845Z AUTO 00000KT 10SM CLR M02/M02 A3026 60 100 -1900 000/00 RMK AO2 T10171017
03949KAQV AQV20160118025012301/18/16 02:50:31  5-MIN KAQV 180850Z AUTO 00000KT 10SM CLR M02/M02 A3026 60 96 -1900 000/00 RMK AO2 SLP250 T10171022 53009
03949KAQV AQV20160118025512301/18/16 02:55:31  5-MIN KAQV 180855Z AUTO 00000KT 10SM CLR M02/M02 A3026 60 96 -1900 000/00 RMK AO2 SLP250 T10171022 53009
03949KAQV AQV20160118030011001/18/16 03:00:31  5-MIN KAQV 180900Z AUTO 00000KT 10SM CLR M02/M03 A3026 60 92 -1900 000/00 RMK AO2 T10171028
03949KAQV AQV20160118030511001/18/16 03:05:31  5-MIN KAQV 180905Z AUTO 00000KT 10SM CLR M02/M03 A3026 60 92 -1900 000/00 RMK AO2 T10171028
03949KAQV AQV20160118031011001/18/16 03:10:31  5-MIN KAQV 180910Z AUTO 00000KT 10SM CLR M02/M03 A3027 60 92 -1900 000/00 RMK AO2 T10171028
03949KAQV AQV20160118031511001/18/16 03:15:31  5-MIN KAQV 180915Z AUTO 00000KT 10SM CLR M02/M02 A3026 60 96 -1900 000/00 RMK AO2 T10171022
03949KAQV AQV20160118032011001/18/16 03:20:31  5-MIN KAQV 180920Z AUTO 00000KT 10SM CLR M02/M02 A3026 60 96 -1900 000/00 RMK AO2 T10171022
03949KAQV AQV20160118032511001/18/16 03:25:31  5-MIN KAQV 180925Z AUTO 00000KT 10SM CLR M02/M02 A3026 60 96 -1900 000/00 RMK AO2 T10171022
03949KAQV AQV20160118033011001/18/16 03:30:31  5-MIN KAQV 180930Z AUTO 00000KT 10SM CLR M02/M02 A3026 60 96 -1900 000/00 RMK AO2 T10171022
03949KAQV AQV20160118033511001/18/16 03:35:31  5-MIN KAQV 180935Z AUTO 00000KT 10SM CLR M02/M02 A3026 60 96 -1900 000/00 RMK AO2 T10171022
03949KAQV AQV20160118034011001/18/16 03:40:31  5-MIN KAQV 180940Z AUTO 00000KT 10SM CLR M02/M03 A3026 60 92 -1900 000/00 RMK AO2 T10171028
03949KAQV AQV20160118034511001/18/16 03:45:31  5-MIN KAQV 180945Z AUTO 00000KT 10SM CLR M02/M02 A3026 60 96 -1900 000/00 RMK AO2 T10171022
03949KAQV AQV20160118035011701/18/16 03:50:31  5-MIN KAQV 180950Z AUTO 00000KT 10SM CLR M02/M03 A3026 60 92 -1900 000/00 RMK AO2 SLP250 T10171028
03949KAQV AQV20160118035511701/18/16 03:55:31  5-MIN KAQV 180955Z AUTO 00000KT 10SM CLR M02/M03 A3026 60 92 -1900 000/00 RMK AO2 SLP251 T10171028
03949KAQV AQV20160118040011001/18/16 04:00:31  5-MIN KAQV 181000Z AUTO 00000KT 10SM CLR M02/M03 A3026 60 92 -1900 000/00 RMK AO2 T10171028
03949KAQV AQV20160118040511001/18/16 04:05:31  5-MIN KAQV 181005Z AUTO 00000KT 10SM CLR M02/M03 A3026 60 92 -1900 000/00 RMK AO2 T10171028
03949KAQV AQV20160118041011001/18/16 04:10:31  5-MIN KAQV 181010Z AUTO 00000KT 10SM CLR M02/M03 A3026 60 92 -1900 000/00 RMK AO2 T10171028
03949KAQV AQV20160118041511001/18/16 04:15:31  5-MIN KAQV 181015Z AUTO 00000KT 10SM CLR M02/M03 A3026 60 92 -1900 000/00 RMK AO2 T10171028
03949KAQV AQV20160118042010901/18/16 04:20:31  5-MIN KAQV 181020Z AUTO 00000KT 7SM CLR M02/M03 A3027 60 92 -1900 000/00 RMK AO2 T10171028
03949KAQV AQV20160118042511201/18/16 04:25:31  5-MIN KAQV 181025Z AUTO 00000KT 6SM BR CLR M02/M03 A3026 60 92 -1900 000/00 RMK AO2 T10171028
03949KAQV AQV20160118043010901/18/16 04:30:31  5-MIN KAQV 181030Z AUTO 00000KT 9SM CLR M02/M03 A3026 60 92 -1900 000/00 RMK AO2 T10171028
03949KAQV AQV20160118043511001/18/16 04:35:31  5-MIN KAQV 181035Z AUTO 00000KT 10SM CLR M02/M03 A3026 60 96 -2000 000/00 RMK AO2 T10221028
03949KAQV AQV20160118044011001/18/16 04:40:31  5-MIN KAQV 181040Z AUTO 00000KT 10SM CLR M02/M03 A3026 60 96 -1900 000/00 RMK AO2 T10221028
03949KAQV AQV20160118044511001/18/16 04:45:31  5-MIN KAQV 181045Z AUTO 00000KT 10SM CLR M02/M03 A3026 60 92 -1900 000/00 RMK AO2 T10171028
03949KAQV AQV20160118045011701/18/16 04:50:31  5-MIN KAQV 181050Z AUTO 00000KT 10SM CLR M02/M03 A3026 60 92 -1900 000/00 RMK AO2 SLP250 T10171028
03949KAQV AQV20160118045511701/18/16 04:55:31  5-MIN KAQV 181055Z AUTO 00000KT 10SM CLR M02/M03 A3026 60 92 -1900 000/00 RMK AO2 SLP250 T10171028
03949KAQV AQV20160118050011001/18/16 05:00:31  5-MIN KAQV 181100Z AUTO 00000KT 10SM CLR M02/M03 A3026 60 96 -2000 000/00 RMK AO2 T10221028
03949KAQV AQV20160118050511001/18/16 05:05:31  5-MIN KAQV 181105Z AUTO 00000KT 10SM CLR M02/M03 A3026 60 96 -2000 000/00 RMK AO2 T10221028
03949KAQV AQV20160118051011001/18/16 05:10:31  5-MIN KAQV 181110Z AUTO 00000KT 10SM CLR M02/M03 A3026 60 92 -2000 000/00 RMK AO2 T10221033
03949KAQV AQV20160118051511001/18/16 05:15:31  5-MIN KAQV 181115Z AUTO 00000KT 10SM CLR M02/M03 A3027 60 88 -1900 000/00 RMK AO2 T10171033
03949KAQV AQV20160118052011001/18/16 05:20:31  5-MIN KAQV 181120Z AUTO 00000KT 10SM CLR M02/M03 A3027 50 88 -1900 000/00 RMK AO2 T10171033
03949KAQV AQV20160118052511001/18/16 05:25:31  5-MIN KAQV 181125Z AUTO 00000KT 10SM CLR M02/M03 A3028 50 88 -1900 000/00 RMK AO2 T10171033
03949KAQV AQV20160118053011001/18/16 05:30:31  5-MIN KAQV 181130Z AUTO 00000KT 10SM CLR M02/M03 A3028 50 92 -1900 000/00 RMK AO2 T10171028
03949KAQV AQV20160118053511001/18/16 05:35:31  5-MIN KAQV 181135Z AUTO 00000KT 10SM CLR M02/M03 A3028 40 92 -1900 000/00 RMK AO2 T10171028
03949KAQV AQV20160118054011001/18/16 05:40:31  5-MIN KAQV 181140Z AUTO 00000KT 10SM CLR M02/M03 A3028 40 92 -1900 000/00 RMK AO2 T10171028
03949KAQV AQV20160118054511001/18/16 05:45:31  5-MIN KAQV 181145Z AUTO 00000KT 10SM CLR M02/M03 A3028 40 92 -1900 000/00 RMK AO2 T10171028
03949KAQV AQV20160118055013501/18/16 05:50:31  5-MIN KAQV 181150Z AUTO 00000KT 10SM CLR M02/M03 A3028 40 92 -1900 000/00 RMK AO2 SLP259 T10171028 10006 21022 51008
03949KAQV AQV20160118055513501/18/16 05:55:31  5-MIN KAQV 181155Z AUTO 00000KT 10SM CLR M02/M03 A3029 40 96 -2000 000/00 RMK AO2 SLP259 T10221028 10006 21022 51008
03949KAQV AQV20160118060011001/18/16 06:00:31  5-MIN KAQV 181200Z AUTO 00000KT 10SM CLR M02/M03 A3029 40 96 -2000 000/00 RMK AO2 T10221028
03949KAQV AQV20160118060511001/18/16 06:05:31  5-MIN KAQV 181205Z AUTO 00000KT 10SM CLR M02/M03 A3029 40 92 -2000 000/00 RMK AO2 T10221033
03949KAQV AQV20160118061011001/18/16 06:10:31  5-MIN KAQV 181210Z AUTO 00000KT 10SM CLR M02/M03 A3029 40 92 -2000 000/00 RMK AO2 T10221033
03949KAQV AQV20160118061511001/18/16 06:15:31  5-MIN KAQV 181215Z AUTO 00000KT 10SM CLR M02/M03 A3029 40 92 -2000 000/00 RMK AO2 T10221033
03949KAQV AQV20160118062011001/18/16 06:20:31  5-MIN KAQV 181220Z AUTO 00000KT 10SM CLR M02/M03 A3028 40 92 -2000 000/00 RMK AO2 T10221033
03949KAQV AQV20160118062511001/18/16 06:25:31  5-MIN KAQV 181225Z AUTO 00000KT 10SM CLR M02/M03 A3028 40 92 -2000 000/00 RMK AO2 T10221033
03949KAQV AQV20160118063011001/18/16 06:30:31  5-MIN KAQV 181230Z AUTO 00000KT 10SM CLR M02/M03 A3029 40 92 -2000 000/00 RMK AO2 T10221033
03949KAQV AQV20160118063511001/18/16 06:35:31  5-MIN KAQV 181235Z AUTO 00000KT 10SM CLR M02/M03 A3029 40 88 -1900 000/00 RMK AO2 T10171033
03949KAQV AQV20160118064011001/18/16 06:40:31  5-MIN KAQV 181240Z AUTO 00000KT 10SM CLR M02/M03 A3029 40 92 -1900 000/00 RMK AO2 T10171028
03949KAQV AQV20160118064511001/18/16 06:45:31  5-MIN KAQV 181245Z AUTO 00000KT 10SM CLR M02/M03 A3029 40 92 -1900 000/00 RMK AO2 T10171028
03949KAQV AQV20160118065011701/18/16 06:50:31  5-MIN KAQV 181250Z AUTO 00000KT 10SM CLR M02/M03 A3029 30 92 -1900 000/00 RMK AO2 SLP262 T10171028
03949KAQV AQV20160118065511701/18/16 06:55:31  5-MIN KAQV 181255Z AUTO 00000KT 10SM CLR M02/M03 A3030 30 88 -1900 000/00 RMK AO2 SLP263 T10171033
03949KAQV AQV20160118070011001/18/16 07:00:31  5-MIN KAQV 181300Z AUTO 00000KT 10SM CLR M02/M03 A3030 30 92 -1900 000/00 RMK AO2 T10171028
03949KAQV AQV20160118070511001/18/16 07:05:31  5-MIN KAQV 181305Z AUTO 00000KT 10SM CLR M02/M03 A3030 20 96 -2000 000/00 RMK AO2 T10221028
03949KAQV AQV20160118071011001/18/16 07:10:31  5-MIN KAQV 181310Z AUTO 00000KT 10SM CLR M02/M03 A3031 20 88 -1900 000/00 RMK AO2 T10171033
03949KAQV AQV20160118071511001/18/16 07:15:31  5-MIN KAQV 181315Z AUTO 00000KT 10SM CLR M02/M03 A3031 20 88 -1900 000/00 RMK AO2 T10171033
03949KAQV AQV20160118072011001/18/16 07:20:31  5-MIN KAQV 181320Z AUTO 00000KT 10SM CLR M02/M03 A3031 10 92 -1900 000/00 RMK AO2 T10171028
03949KAQV AQV20160118072511001/18/16 07:25:31  5-MIN KAQV 181325Z AUTO 00000KT 10SM CLR M02/M03 A3032 10 92 -1900 000/00 RMK AO2 T10171028
03949KAQV AQV20160118073011001/18/16 07:30:31  5-MIN KAQV 181330Z AUTO 00000KT 10SM CLR M02/M03 A3032 10 92 -1900 000/00 RMK AO2 T10171028
03949KAQV AQV20160118073511001/18/16 07:35:31  5-MIN KAQV 181335Z AUTO 00000KT 10SM CLR M02/M03 A3032 10 92 -1900 000/00 RMK AO2 T10171028
03949KAQV AQV20160118074011001/18/16 07:40:31  5-MIN KAQV 181340Z AUTO 00000KT 10SM CLR M02/M03 A3032 10 92 -1900 000/00 RMK AO2 T10171028
03949KAQV AQV20160118074510901/18/16 07:45:31  5-MIN KAQV 181345Z AUTO 00000KT 10SM CLR M02/M03 A3032 0 92 -2000 000/00 RMK AO2 T10171028
03949KAQV AQV20160118075011601/18/16 07:50:31  5-MIN KAQV 181350Z AUTO 00000KT 10SM CLR M01/M03 A3033 0 88 -1900 000/00 RMK AO2 SLP274 T10111028
03949KAQV AQV20160118075511601/18/16 07:55:31  5-MIN KAQV 181355Z AUTO 00000KT 10SM CLR M01/M02 A3033 0 92 -1900 000/00 RMK AO2 SLP274 T10111022
03949KAQV AQV20160118080010901/18/16 08:00:31  5-MIN KAQV 181400Z AUTO 00000KT 10SM CLR M01/M02 A3033 0 92 -1800 000/00 RMK AO2 T10061017
03949KAQV AQV20160118080510901/18/16 08:05:31  5-MIN KAQV 181405Z AUTO 00000KT 10SM CLR M01/M01 A3033 0 96 -1800 000/00 RMK AO2 T10061011
03949KAQV AQV20160118081010801/18/16 08:10:31  5-MIN KAQV 181410Z AUTO 00000KT 10SM CLR 00/M01 A3033 0 96 -1800 000/00 RMK AO2 T00001006
03949KAQV AQV20160118081510701/18/16 08:15:31  5-MIN KAQV 181415Z AUTO 00000KT 10SM CLR 01/00 A3034 0 96 -1700 000/00 RMK AO2 T00060000
03949KAQV AQV20160118082010701/18/16 08:20:31  5-MIN KAQV 181420Z AUTO 00000KT 10SM CLR 01/00 A3033 0 96 -1700 000/00 RMK AO2 T00060000
03949KAQV AQV20160118082510701/18/16 08:25:31  5-MIN KAQV 181425Z AUTO 00000KT 10SM CLR 02/01 A3034 0 92 -1500 000/00 RMK AO2 T00170006
03949KAQV AQV20160118083010901/18/16 08:30:31  5-MIN KAQV 181430Z AUTO 00000KT 10SM CLR 02/01 A3034 -10 89 -1500 000/00 RMK AO2 T00220006
03949KAQV AQV20160118083510901/18/16 08:35:31  5-MIN KAQV 181435Z AUTO 00000KT 10SM CLR 03/01 A3034 -10 89 -1400 000/00 RMK AO2 T00280011
03949KAQV AQV20160118084010901/18/16 08:40:31  5-MIN KAQV 181440Z AUTO 00000KT 10SM CLR 04/02 A3034 -10 85 -1300 000/00 RMK AO2 T00390017
03949KAQV AQV20160118084510901/18/16 08:45:31  5-MIN KAQV 181445Z AUTO 00000KT 10SM CLR 04/02 A3035 -10 85 -1200 000/00 RMK AO2 T00440022
03949KAQV AQV20160118085012201/18/16 08:50:31  5-MIN KAQV 181450Z AUTO 00000KT 10SM CLR 06/03 A3035 -10 85 -1100 000/00 RMK AO2 SLP280 T00560033 53008
03949KAQV AQV20160118085512201/18/16 08:55:31  5-MIN KAQV 181455Z AUTO 00000KT 10SM CLR 06/04 A3035 -10 86 -1000 000/00 RMK AO2 SLP280 T00610039 53008
03949KAQV AQV20160118090010901/18/16 09:00:31  5-MIN KAQV 181500Z AUTO 00000KT 10SM CLR 06/03 A3035 -20 82 -1000 000/00 RMK AO2 T00610033
03949KAQV AQV20160118090510801/18/16 09:05:31  5-MIN KAQV 181505Z AUTO 00000KT 10SM CLR 07/02 A3035 -20 68 -900 000/00 RMK AO2 T00720017
03949KAQV AQV20160118091010801/18/16 09:10:31  5-MIN KAQV 181510Z AUTO 00000KT 10SM CLR 08/01 A3035 -20 62 -800 000/00 RMK AO2 T00780011
03949KAQV AQV20160118091510801/18/16 09:15:31  5-MIN KAQV 181515Z AUTO 00000KT 10SM CLR 08/00 A3035 -20 58 -800 000/00 RMK AO2 T00780000
03949KAQV AQV20160118092010901/18/16 09:20:31  5-MIN KAQV 181520Z AUTO 00000KT 10SM CLR 08/M01 A3035 -20 55 -800 000/00 RMK AO2 T00781006
03949KAQV AQV20160118092510901/18/16 09:25:31  5-MIN KAQV 181525Z AUTO 00000KT 10SM CLR 08/M01 A3036 -20 53 -700 000/00 RMK AO2 T00831006
03949KAQV AQV20160118093010801/18/16 09:30:31  5-MIN KAQV 181530Z AUTO 00000KT 10SM CLR 09/00 A3036 -20 53 -700 000/00 RMK AO2 T00890000
03949KAQV AQV20160118093510901/18/16 09:35:31  5-MIN KAQV 181535Z AUTO 04004KT 10SM CLR 09/M01 A3037 -30 51 -700 040/04 RMK AO2 T00891006
03949KAQV AQV20160118094010901/18/16 09:40:31  5-MIN KAQV 181540Z AUTO 04005KT 10SM CLR 09/M01 A3037 -30 49 -700 030/05 RMK AO2 T00891011
03949KAQV AQV20160118094510801/18/16 09:45:31  5-MIN KAQV 181545Z AUTO VRB04KT 10SM CLR 08/01 A3037 -30 58 -800 VRB/04 RMK AO2 T00830006
03949KAQV AQV20160118095011501/18/16 09:50:31  5-MIN KAQV 181550Z AUTO 02005KT 10SM CLR 08/00 A3038 -40 58 -800 010/05 RMK AO2 SLP289 T00780000
03949KAQV AQV20160118095511501/18/16 09:55:31  5-MIN KAQV 181555Z AUTO 05005KT 10SM CLR 08/00 A3038 -40 58 -800 040/05 RMK AO2 SLP291 T00780000
03949KAQV AQV20160118100010901/18/16 10:00:31  5-MIN KAQV 181600Z AUTO VRB04KT 10SM CLR 08/M01 A3038 -40 55 -800 VRB/04 RMK AO2 T00781006
03949KAQV AQV20160118100510901/18/16 10:05:31  5-MIN KAQV 181605Z AUTO 04005KT 10SM CLR 08/M01 A3038 -40 53 -800 030/05 RMK AO2 T00831006
03949KAQV AQV20160118101010901/18/16 10:10:31  5-MIN KAQV 181610Z AUTO VRB04KT 10SM CLR 08/M01 A3038 -40 53 -800 VRB/04 RMK AO2 T00781011
03949KAQV AQV20160118101510901/18/16 10:15:31  5-MIN KAQV 181615Z AUTO 03004KT 10SM CLR 08/M01 A3038 -40 51 -800 030/04 RMK AO2 T00831011
03949KAQV AQV20160118102010901/18/16 10:20:31  5-MIN KAQV 181620Z AUTO 04003KT 10SM CLR 08/M02 A3038 -40 49 -800 040/03 RMK AO2 T00831017
03949KAQV AQV20160118102510901/18/16 10:25:31  5-MIN KAQV 181625Z AUTO 00000KT 10SM CLR 09/M01 A3037 -40 49 -700 000/00 RMK AO2 T00891011
03949KAQV AQV20160118103010901/18/16 10:30:31  5-MIN KAQV 181630Z AUTO 00000KT 10SM CLR 09/M01 A3037 -40 49 -700 000/00 RMK AO2 T00891011
03949KAQV AQV20160118103510901/18/16 10:35:31  5-MIN KAQV 181635Z AUTO 08003KT 10SM CLR 09/M01 A3038 -40 49 -700 080/03 RMK AO2 T00891011
03949KAQV AQV20160118104010901/18/16 10:40:31  5-MIN KAQV 181640Z AUTO 00000KT 10SM CLR 09/M02 A3038 -40 45 -600 000/00 RMK AO2 T00941017
03949KAQV AQV20160118104510901/18/16 10:45:31  5-MIN KAQV 181645Z AUTO 05004KT 10SM CLR 10/M02 A3038 -40 44 -600 040/04 RMK AO2 T01001017
03949KAQV AQV20160118105011601/18/16 10:50:31  5-MIN KAQV 181650Z AUTO VRB04KT 10SM CLR 10/M01 A3038 -40 46 -600 VRB/04 RMK AO2 SLP289 T01001011
03949KAQV AQV20160118105511601/18/16 10:55:31  5-MIN KAQV 181655Z AUTO VRB03KT 10SM CLR 10/M01 A3037 -40 46 -600 VRB/03 RMK AO2 SLP288 T01001011
03949KAQV AQV20160118110010901/18/16 11:00:31  5-MIN KAQV 181700Z AUTO VRB03KT 10SM CLR 11/M01 A3037 -30 44 -500 VRB/03 RMK AO2 T01061011
03949KAQV AQV20160118110510901/18/16 11:05:31  5-MIN KAQV 181705Z AUTO 04004KT 10SM CLR 11/M01 A3037 -30 44 -500 030/04 RMK AO2 T01061011
03949KAQV AQV20160118111010901/18/16 11:10:31  5-MIN KAQV 181710Z AUTO 00000KT 10SM CLR 11/M01 A3037 -30 44 -500 000/00 RMK AO2 T01061011
03949KAQV AQV20160118111510901/18/16 11:15:31  5-MIN KAQV 181715Z AUTO VRB03KT 10SM CLR 11/M02 A3037 -30 42 -500 VRB/03 RMK AO2 T01061017
03949KAQV AQV20160118112010901/18/16 11:20:31  5-MIN KAQV 181720Z AUTO VRB03KT 10SM CLR 11/M01 A3036 -30 42 -400 VRB/03 RMK AO2 T01111011
03949KAQV AQV20160118112510901/18/16 11:25:31  5-MIN KAQV 181725Z AUTO VRB03KT 10SM CLR 12/M01 A3037 -30 41 -300 VRB/03 RMK AO2 T01171011
03949KAQV AQV20160118113010901/18/16 11:30:31  5-MIN KAQV 181730Z AUTO VRB03KT 10SM CLR 12/M02 A3037 -30 39 -400 VRB/03 RMK AO2 T01171017
03949KAQV AQV20160118113510901/18/16 11:35:31  5-MIN KAQV 181735Z AUTO 00000KT 10SM CLR 12/M02 A3036 -30 39 -300 000/00 RMK AO2 T01171017
03949KAQV AQV20160118114010901/18/16 11:40:31  5-MIN KAQV 181740Z AUTO VRB03KT 10SM CLR 11/M02 A3036 -30 41 -400 VRB/03 RMK AO2 T01111017
03949KAQV AQV20160118114510901/18/16 11:45:31  5-MIN KAQV 181745Z AUTO 03004KT 10SM CLR 12/M02 A3036 -20 39 -300 020/04 RMK AO2 T01171017
03949KAQV AQV20160118115013401/18/16 11:50:31  5-MIN KAQV 181750Z AUTO 00000KT 10SM CLR 12/M02 A3036 -20 39 -300 000/00 RMK AO2 SLP283 T01171017 10122 21022 53021
03949KAQV AQV20160118115513401/18/16 11:55:31  5-MIN KAQV 181755Z AUTO VRB04KT 10SM CLR 12/M02 A3036 -20 38 -300 VRB/04 RMK AO2 SLP282 T01221017 10122 21022 53021
03949KAQV AQV20160118120010901/18/16 12:00:31  5-MIN KAQV 181800Z AUTO 00000KT 10SM CLR 12/M02 A3035 -20 39 -300 000/00 RMK AO2 T01171017
03949KAQV AQV20160118130010801/18/16 13:00:31  5-MIN KAQV 181900Z AUTO 20004KT 10SM CLR 13/M04 A3031 10 31 -200 200/04 RMK AO2 T01281039
03949KAQV AQV20160118130510801/18/16 13:05:31  5-MIN KAQV 181905Z AUTO VRB04KT 10SM CLR 12/M04 A3031 20 32 -200 VRB/04 RMK AO2 T01221039
03949KAQV AQV20160118131010801/18/16 13:10:31  5-MIN KAQV 181910Z AUTO 00000KT 10SM CLR 12/M04 A3031 20 32 -200 000/00 RMK AO2 T01221039
03949KAQV AQV20160118131510801/18/16 13:15:31  5-MIN KAQV 181915Z AUTO 00000KT 10SM CLR 13/M04 A3031 20 30 -100 000/00 RMK AO2 T01331039
03949KAQV AQV20160118132010801/18/16 13:20:31  5-MIN KAQV 181920Z AUTO VRB04KT 10SM CLR 13/M04 A3031 20 31 -100 VRB/04 RMK AO2 T01281039
03949KAQV AQV20160118132510801/18/16 13:25:31  5-MIN KAQV 181925Z AUTO VRB03KT 10SM CLR 13/M04 A3030 20 31 -100 VRB/03 RMK AO2 T01281039
03949KAQV AQV20160118133010801/18/16 13:30:31  5-MIN KAQV 181930Z AUTO VRB03KT 10SM CLR 13/M04 A3030 30 31 -100 VRB/03 RMK AO2 T01281039
03949KAQV AQV20160118133510801/18/16 13:35:31  5-MIN KAQV 181935Z AUTO VRB03KT 10SM CLR 13/M03 A3030 30 31 -100 VRB/03 RMK AO2 T01331033
03949KAQV AQV20160118134010801/18/16 13:40:31  5-MIN KAQV 181940Z AUTO 12003KT 10SM CLR 13/M04 A3029 30 31 -100 120/03 RMK AO2 T01281039
03949KAQV AQV20160118134510801/18/16 13:45:31  5-MIN KAQV 181945Z AUTO VRB03KT 10SM CLR 13/M04 A3029 40 30 -100 VRB/03 RMK AO2 T01331039
03949KAQV AQV20160118135011201/18/16 13:50:31  5-MIN KAQV 181950Z AUTO VRB03KT 10SM CLR 14/M03 A3029 40 31 0 VRB/03 RMK AO2 SLP258 T01391028
03949KAQV AQV20160118135511201/18/16 13:55:31  5-MIN KAQV 181955Z AUTO VRB04KT 10SM CLR 14/M03 A3029 40 30 0 VRB/04 RMK AO2 SLP258 T01391033
03949KAQV AQV20160118140010501/18/16 14:00:31  5-MIN KAQV 182000Z AUTO 01007KT 10SM CLR 14/M03 A3029 40 31 0 010/07 RMK AO2 T01391028
03949KAQV AQV20160118140510501/18/16 14:05:31  5-MIN KAQV 182005Z AUTO 34005KT 10SM CLR 14/M03 A3029 40 31 0 340/05 RMK AO2 T01391028
03949KAQV AQV20160118141010501/18/16 14:10:31  5-MIN KAQV 182010Z AUTO VRB03KT 10SM CLR 14/M03 A3029 40 30 0 VRB/03 RMK AO2 T01391033
03949KAQV AQV20160118141510501/18/16 14:15:31  5-MIN KAQV 182015Z AUTO VRB04KT 10SM CLR 14/M03 A3029 40 30 0 VRB/04 RMK AO2 T01391033
03949KAQV AQV20160118142010501/18/16 14:20:31  5-MIN KAQV 182020Z AUTO 02005KT 10SM CLR 14/M03 A3029 40 30 0 020/05 RMK AO2 T01441028
03949KAQV AQV20160118142510501/18/16 14:25:31  5-MIN KAQV 182025Z AUTO VRB03KT 10SM CLR 14/M02 A3029 40 31 0 VRB/03 RMK AO2 T01441022
03949KAQV AQV20160118143010701/18/16 14:30:31  5-MIN KAQV 182030Z AUTO VRB06KT 10SM CLR 15/M02 A3029 40 30 100 VRB/06 RMK AO2 T01501022
03949KAQV AQV20160118143510501/18/16 14:35:31  5-MIN KAQV 182035Z AUTO 02005KT 10SM CLR 14/M03 A3029 40 30 0 020/05 RMK AO2 T01441028
03949KAQV AQV20160118144010501/18/16 14:40:31  5-MIN KAQV 182040Z AUTO VRB04KT 10SM CLR 14/M03 A3029 40 30 0 VRB/04 RMK AO2 T01441028
03949KAQV AQV20160118144510501/18/16 14:45:31  5-MIN KAQV 182045Z AUTO VRB03KT 10SM CLR 14/M03 A3029 40 31 0 VRB/03 RMK AO2 T01391028
03949KAQV AQV20160118145011801/18/16 14:50:31  5-MIN KAQV 182050Z AUTO VRB03KT 10SM CLR 14/M03 A3029 40 30 0 VRB/03 RMK AO2 SLP258 T01441028 50001
03949KAQV AQV20160118145511801/18/16 14:55:31  5-MIN KAQV 182055Z AUTO VRB03KT 10SM CLR 14/M02 A3029 40 31 0 VRB/03 RMK AO2 SLP257 T01441022 50001
03949KAQV AQV20160118150010501/18/16 15:00:31  5-MIN KAQV 182100Z AUTO 00000KT 10SM CLR 14/M02 A3029 40 32 0 000/00 RMK AO2 T01391022
03949KAQV AQV20160118150510501/18/16 15:05:31  5-MIN KAQV 182105Z AUTO VRB03KT 10SM CLR 14/M03 A3029 40 31 0 VRB/03 RMK AO2 T01391028
03949KAQV AQV20160118151010501/18/16 15:10:31  5-MIN KAQV 182110Z AUTO VRB04KT 10SM CLR 14/M02 A3029 40 32 0 VRB/04 RMK AO2 T01391022
03949KAQV AQV20160118151510501/18/16 15:15:31  5-MIN KAQV 182115Z AUTO VRB03KT 10SM CLR 14/M02 A3029 40 32 0 VRB/03 RMK AO2 T01391022
03949KAQV AQV20160118152010501/18/16 15:20:31  5-MIN KAQV 182120Z AUTO VRB03KT 10SM CLR 14/M02 A3029 40 31 0 VRB/03 RMK AO2 T01441022
03949KAQV AQV20160118152510501/18/16 15:25:31  5-MIN KAQV 182125Z AUTO 28004KT 10SM CLR 14/M02 A3029 40 32 0 280/04 RMK AO2 T01391022
03949KAQV AQV20160118153010801/18/16 15:30:31  5-MIN KAQV 182130Z AUTO VRB03KT 10SM CLR 13/M03 A3029 40 32 -100 VRB/03 RMK AO2 T01331028
03949KAQV AQV20160118153510501/18/16 15:35:31  5-MIN KAQV 182135Z AUTO VRB03KT 10SM CLR 14/M02 A3029 40 32 0 VRB/03 RMK AO2 T01391022
03949KAQV AQV20160118154010501/18/16 15:40:31  5-MIN KAQV 182140Z AUTO VRB03KT 10SM CLR 14/M02 A3029 40 31 0 VRB/03 RMK AO2 T01441022
03949KAQV AQV20160118154510501/18/16 15:45:31  5-MIN KAQV 182145Z AUTO VRB04KT 10SM CLR 14/M02 A3029 30 31 0 VRB/04 RMK AO2 T01441022
03949KAQV AQV20160118155011201/18/16 15:50:31  5-MIN KAQV 182150Z AUTO VRB04KT 10SM CLR 14/M02 A3029 30 32 0 VRB/04 RMK AO2 SLP260 T01391022
03949KAQV AQV20160118155511201/18/16 15:55:31  5-MIN KAQV 182155Z AUTO 00000KT 10SM CLR 14/M02 A3029 30 32 0 000/00 RMK AO2 SLP261 T01391022
03949KAQV AQV20160118160010501/18/16 16:00:31  5-MIN KAQV 182200Z AUTO 34005KT 10SM CLR 14/M02 A3029 30 31 0 340/05 RMK AO2 T01441022
03949KAQV AQV20160118160510501/18/16 16:05:31  5-MIN KAQV 182205Z AUTO 34005KT 10SM CLR 14/M02 A3030 30 33 0 330/05 RMK AO2 T01441017
03949KAQV AQV20160118161010501/18/16 16:10:31  5-MIN KAQV 182210Z AUTO 01003KT 10SM CLR 14/M02 A3030 30 32 0 010/03 RMK AO2 T01391022
03949KAQV AQV20160118161510501/18/16 16:15:31  5-MIN KAQV 182215Z AUTO VRB03KT 10SM CLR 14/M02 A3030 30 34 0 VRB/03 RMK AO2 T01391017
03949KAQV AQV20160118162010501/18/16 16:20:31  5-MIN KAQV 182220Z AUTO 00000KT 10SM CLR 14/M02 A3030 30 34 0 000/00 RMK AO2 T01391017
03949KAQV AQV20160118162510501/18/16 16:25:31  5-MIN KAQV 182225Z AUTO 27003KT 10SM CLR 14/M02 A3030 30 34 0 260/03 RMK AO2 T01391017
03949KAQV AQV20160118163010801/18/16 16:30:31  5-MIN KAQV 182230Z AUTO 00000KT 10SM CLR 13/M02 A3030 30 35 -100 000/00 RMK AO2 T01331017
03949KAQV AQV20160118163510501/18/16 16:35:31  5-MIN KAQV 182235Z AUTO 01004KT 10SM CLR 14/M02 A3030 30 34 0 010/04 RMK AO2 T01391017
03949KAQV AQV20160118164010501/18/16 16:40:31  5-MIN KAQV 182240Z AUTO 00000KT 10SM CLR 14/M02 A3030 30 34 0 000/00 RMK AO2 T01391017
03949KAQV AQV20160118164510801/18/16 16:45:31  5-MIN KAQV 182245Z AUTO 03003KT 10SM CLR 13/M02 A3030 30 35 -100 020/03 RMK AO2 T01331017
03949KAQV AQV20160118165011501/18/16 16:50:31  5-MIN KAQV 182250Z AUTO VRB03KT 10SM CLR 13/M01 A3030 30 36 -100 VRB/03 RMK AO2 SLP263 T01331011
03949KAQV AQV20160118165511501/18/16 16:55:31  5-MIN KAQV 182255Z AUTO 03003KT 10SM CLR 13/M01 A3030 20 38 -100 030/03 RMK AO2 SLP264 T01281011
03949KAQV AQV20160118170010801/18/16 17:00:31  5-MIN KAQV 182300Z AUTO 05003KT 10SM CLR 12/M01 A3030 20 41 -200 050/03 RMK AO2 T01221006
03949KAQV AQV20160118170510801/18/16 17:05:31  5-MIN KAQV 182305Z AUTO 00000KT 10SM CLR 12/M01 A3030 20 41 -200 000/00 RMK AO2 T01221006
03949KAQV AQV20160118171010701/18/16 17:10:31  5-MIN KAQV 182310Z AUTO 04003KT 10SM CLR 12/00 A3030 20 43 -200 030/03 RMK AO2 T01220000
03949KAQV AQV20160118171510701/18/16 17:15:31  5-MIN KAQV 182315Z AUTO 04004KT 10SM CLR 12/00 A3030 20 44 -300 040/04 RMK AO2 T01170000
03949KAQV AQV20160118172010701/18/16 17:20:31  5-MIN KAQV 182320Z AUTO 04003KT 10SM CLR 12/01 A3031 20 46 -300 030/03 RMK AO2 T01170006
03949KAQV AQV20160118172510701/18/16 17:25:31  5-MIN KAQV 182325Z AUTO 00000KT 10SM CLR 11/01 A3031 20 48 -400 000/00 RMK AO2 T01110006
03949KAQV AQV20160118173010701/18/16 17:30:31  5-MIN KAQV 182330Z AUTO 05003KT 10SM CLR 11/01 A3031 20 50 -400 040/03 RMK AO2 T01060006
03949KAQV AQV20160118173507501/18/16 17:35:31  5-MIN KAQV 182335Z AUTO 00000KT 10SM CLR 10/01 A3031 20 
03949KAQV AQV20160118235514501/18/16 23:55:31  5-MIN KAQV 190555Z AUTO 00000KT 10SM CLR 02/M01 A3036 -20 82 -1500 000/00 RMK AO2 SLP281 T00221006 10083 20022 401501022 51010
03949KAQV AQV20160119000011001/19/16 00:00:31  5-MIN KAQV 190600Z AUTO 00000KT 10SM CLR 02/M01 A3036 -20 85 -1600 000/00 RMK AO2 T00171006
03949KAQV AQV20160119000511001/19/16 00:05:31  5-MIN KAQV 190605Z AUTO 00000KT 10SM CLR 02/M01 A3035 -20 85 -1600 000/00 RMK AO2 T00171006
03949KAQV AQV20160119001011001/19/16 00:10:31  5-MIN KAQV 190610Z AUTO 00000KT 10SM CLR 01/M01 A3035 -10 89 -1600 000/00 RMK AO2 T00111006
03949KAQV AQV20160119001510901/19/16 00:15:31  5-MIN KAQV 190615Z AUTO 00000KT 9SM CLR 01/M01 A3035 -10 92 -1700 000/00 RMK AO2 T00061006
03949KAQV AQV20160119002010901/19/16 00:20:31  5-MIN KAQV 190620Z AUTO 00000KT 9SM CLR 01/M01 A3035 -10 92 -1700 000/00 RMK AO2 T00061006
03949KAQV AQV20160119002511001/19/16 00:25:31  5-MIN KAQV 190625Z AUTO 00000KT 10SM CLR 01/M01 A3035 -10 92 -1700 000/00 RMK AO2 T00061006
03949KAQV AQV20160119003011001/19/16 00:30:31  5-MIN KAQV 190630Z AUTO 00000KT 10SM CLR 01/M01 A3035 -10 89 -1600 000/00 RMK AO2 T00111006
03949KAQV AQV20160119003510901/19/16 00:35:31  5-MIN KAQV 190635Z AUTO 16003KT 8SM CLR 01/M01 A3034 -10 89 -1600 160/03 RMK AO2 T00111006
03949KAQV AQV20160119004010901/19/16 00:40:31  5-MIN KAQV 190640Z AUTO 18003KT 8SM CLR 01/M01 A3034 -10 92 -1700 180/03 RMK AO2 T00061006
03949KAQV AQV20160119004510801/19/16 00:45:31  5-MIN KAQV 190645Z AUTO 16003KT 10SM CLR 00/M01 A3034 0 96 -1800 160/03 RMK AO2 T00001006
03949KAQV AQV20160119005011501/19/16 00:50:31  5-MIN KAQV 190650Z AUTO 00000KT 10SM CLR 01/M01 A3034 0 92 -1700 000/00 RMK AO2 SLP274 T00061006
03949KAQV AQV20160119005511501/19/16 00:55:31  5-MIN KAQV 190655Z AUTO 17003KT 10SM CLR 01/M01 A3034 0 92 -1700 170/03 RMK AO2 SLP274 T00061006
03949KAQV AQV20160119010010801/19/16 01:00:31  5-MIN KAQV 190700Z AUTO 18003KT 10SM CLR 01/M01 A3034 0 92 -1700 180/03 RMK AO2 T00061006
03949KAQV AQV20160119010510801/19/16 01:05:31  5-MIN KAQV 190705Z AUTO 17003KT 10SM CLR 00/M01 A3034 0 92 -1800 160/03 RMK AO2 T00001011
03949KAQV AQV20160119011010801/19/16 01:10:31  5-MIN KAQV 190710Z AUTO 00000KT 10SM CLR 00/M01 A3034 0 92 -1800 000/00 RMK AO2 T00001011
03949KAQV AQV20160119011510801/19/16 01:15:31  5-MIN KAQV 190715Z AUTO 00000KT 10SM CLR 00/M01 A3033 0 92 -1800 000/00 RMK AO2 T00001011
03949KAQV AQV20160119012010801/19/16 01:20:31  5-MIN KAQV 190720Z AUTO 00000KT 10SM CLR 01/M01 A3034 0 92 -1700 000/00 RMK AO2 T00061006
03949KAQV AQV20160119012510801/19/16 01:25:31  5-MIN KAQV 190725Z AUTO 00000KT 10SM CLR 00/M01 A3034 0 92 -1800 000/00 RMK AO2 T00001011
03949KAQV AQV20160119013010801/19/16 01:30:31  5-MIN KAQV 190730Z AUTO 00000KT 10SM CLR 01/M01 A3034 0 92 -1700 000/00 RMK AO2 T00061006
03949KAQV AQV20160119013510801/19/16 01:35:31  5-MIN KAQV 190735Z AUTO 00000KT 10SM CLR 01/M01 A3034 0 92 -1700 000/00 RMK AO2 T00061006
03949KAQV AQV20160119014010801/19/16 01:40:31  5-MIN KAQV 190740Z AUTO 00000KT 10SM CLR 01/M01 A3034 0 92 -1700 000/00 RMK AO2 T00061006
03949KAQV AQV20160119014510801/19/16 01:45:31  5-MIN KAQV 190745Z AUTO 00000KT 10SM CLR 00/M01 A3034 0 96 -1800 000/00 RMK AO2 T00001006
03949KAQV AQV20160119015011501/19/16 01:50:31  5-MIN KAQV 190750Z AUTO 00000KT 10SM CLR 00/M01 A3033 0 96 -1700 000/00 RMK AO2 SLP273 T00001006
03949KAQV AQV20160119015511501/19/16 01:55:31  5-MIN KAQV 190755Z AUTO VRB03KT 10SM CLR 00/M01 A3033 0 92 -1700 VRB/03 RMK AO2 SLP272 T00001011
03949KAQV AQV20160119020010801/19/16 02:00:31  5-MIN KAQV 190800Z AUTO 00000KT 10SM CLR 00/M01 A3033 0 92 -1700 000/00 RMK AO2 T00001011
03949KAQV AQV20160119020510801/19/16 02:05:31  5-MIN KAQV 190805Z AUTO VRB03KT 10SM CLR 01/M01 A3033 0 92 -1700 VRB/03 RMK AO2 T00061006
03949KAQV AQV20160119021010801/19/16 02:10:31  5-MIN KAQV 190810Z AUTO 14003KT 10SM CLR 01/M01 A3033 0 92 -1700 130/03 RMK AO2 T00061006
03949KAQV AQV20160119021510801/19/16 02:15:31  5-MIN KAQV 190815Z AUTO 00000KT 10SM CLR 01/M01 A3033 0 89 -1600 000/00 RMK AO2 T00111006
03949KAQV AQV20160119022010801/19/16 02:20:31  5-MIN KAQV 190820Z AUTO VRB03KT 10SM CLR 01/M01 A3033 0 89 -1600 VRB/03 RMK AO2 T00111006
03949KAQV AQV20160119022510801/19/16 02:25:31  5-MIN KAQV 190825Z AUTO 00000KT 10SM CLR 01/M01 A3032 0 92 -1700 000/00 RMK AO2 T00061006
03949KAQV AQV20160119023010901/19/16 02:30:31  5-MIN KAQV 190830Z AUTO 00000KT 10SM CLR 01/M01 A3032 10 92 -1700 000/00 RMK AO2 T00061006
03949KAQV AQV20160119023510901/19/16 02:35:31  5-MIN KAQV 190835Z AUTO 00000KT 10SM CLR 01/M01 A3032 10 92 -1700 000/00 RMK AO2 T00061006
03949KAQV AQV20160119024010901/19/16 02:40:31  5-MIN KAQV 190840Z AUTO 00000KT 10SM CLR 01/M01 A3032 10 92 -1700 000/00 RMK AO2 T00061006
03949KAQV AQV20160119024510901/19/16 02:45:31  5-MIN KAQV 190845Z AUTO 00000KT 10SM CLR 01/M01 A3032 10 92 -1700 000/00 RMK AO2 T00061006
03949KAQV AQV20160119025012201/19/16 02:50:31  5-MIN KAQV 190850Z AUTO 00000KT 10SM CLR 00/M01 A3032 10 92 -1700 000/00 RMK AO2 SLP267 T00001011 50004
03949KAQV AQV20160119025512201/19/16 02:55:31  5-MIN KAQV 190855Z AUTO 00000KT 10SM CLR 00/M01 A3031 20 92 -1700 000/00 RMK AO2 SLP266 T00001011 50004
03949KAQV AQV20160119030010901/19/16 03:00:31  5-MIN KAQV 190900Z AUTO 00000KT 10SM CLR 01/M01 A3031 20 89 -1700 000/00 RMK AO2 T00061011
03949KAQV AQV20160119030510901/19/16 03:05:31  5-MIN KAQV 190905Z AUTO 00000KT 10SM CLR 01/M01 A3031 20 89 -1700 000/00 RMK AO2 T00061011
03949KAQV AQV20160119031010901/19/16 03:10:31  5-MIN KAQV 190910Z AUTO 00000KT 10SM CLR 01/M01 A3031 20 89 -1700 000/00 RMK AO2 T00061011
03949KAQV AQV20160119031510901/19/16 03:15:31  5-MIN KAQV 190915Z AUTO 00000KT 10SM CLR 00/M01 A3031 20 92 -1700 000/00 RMK AO2 T00001011
03949KAQV AQV20160119032010901/19/16 03:20:31  5-MIN KAQV 190920Z AUTO 00000KT 10SM CLR 01/M01 A3031 20 89 -1700 000/00 RMK AO2 T00061011
03949KAQV AQV20160119032510901/19/16 03:25:31  5-MIN KAQV 190925Z AUTO 00000KT 10SM CLR 01/M01 A3031 20 89 -1700 000/00 RMK AO2 T00061011
03949KAQV AQV20160119033010901/19/16 03:30:31  5-MIN KAQV 190930Z AUTO 00000KT 10SM CLR 00/M01 A3031 20 92 -1700 000/00 RMK AO2 T00001011
03949KAQV AQV20160119033510901/19/16 03:35:31  5-MIN KAQV 190935Z AUTO 00000KT 10SM CLR 01/M01 A3031 20 89 -1600 000/00 RMK AO2 T00061011
03949KAQV AQV20160119034010901/19/16 03:40:31  5-MIN KAQV 190940Z AUTO 00000KT 10SM CLR 00/M01 A3031 20 92 -1700 000/00 RMK AO2 T00001011
03949KAQV AQV20160119034510901/19/16 03:45:31  5-MIN KAQV 190945Z AUTO 00000KT 10SM CLR 00/M01 A3030 20 92 -1700 000/00 RMK AO2 T00001011
03949KAQV AQV20160119035011601/19/16 03:50:31  5-MIN KAQV 190950Z AUTO 00000KT 10SM CLR 00/M01 A3030 20 92 -1700 000/00 RMK AO2 SLP263 T00001011
03949KAQV AQV20160119035511601/19/16 03:55:31  5-MIN KAQV 190955Z AUTO 00000KT 10SM CLR 00/M01 A3031 20 92 -1700 000/00 RMK AO2 SLP264 T00001011
03949KAQV AQV20160119040010901/19/16 04:00:31  5-MIN KAQV 191000Z AUTO 00000KT 10SM CLR 00/M01 A3031 20 92 -1700 000/00 RMK AO2 T00001011
03949KAQV AQV20160119040510901/19/16 04:05:31  5-MIN KAQV 191005Z AUTO 00000KT 10SM CLR 00/M01 A3031 20 92 -1700 000/00 RMK AO2 T00001011
03949KAQV AQV20160119041010901/19/16 04:10:31  5-MIN KAQV 191010Z AUTO 00000KT 10SM CLR 00/M01 A3031 10 92 -1700 000/00 RMK AO2 T00001011
03949KAQV AQV20160119041510901/19/16 04:15:31  5-MIN KAQV 191015Z AUTO 00000KT 10SM CLR 00/M01 A3032 10 92 -1700 000/00 RMK AO2 T00001011
03949KAQV AQV20160119042011001/19/16 04:20:31  5-MIN KAQV 191020Z AUTO 00000KT 10SM CLR M01/M02 A3032 10 92 -1800 000/00 RMK AO2 T10061017
03949KAQV AQV20160119042511001/19/16 04:25:31  5-MIN KAQV 191025Z AUTO 00000KT 10SM CLR M01/M02 A3032 10 92 -1800 000/00 RMK AO2 T10061017
03949KAQV AQV20160119043011001/19/16 04:30:31  5-MIN KAQV 191030Z AUTO 00000KT 10SM CLR M01/M02 A3032 10 92 -1800 000/00 RMK AO2 T10061017
03949KAQV AQV20160119043511001/19/16 04:35:31  5-MIN KAQV 191035Z AUTO 00000KT 10SM CLR M01/M02 A3032 10 92 -1800 000/00 RMK AO2 T10061017
03949KAQV AQV20160119044011001/19/16 04:40:31  5-MIN KAQV 191040Z AUTO 00000KT 10SM CLR M01/M02 A3032 10 92 -1800 000/00 RMK AO2 T10061017
03949KAQV AQV20160119044511001/19/16 04:45:31  5-MIN KAQV 191045Z AUTO 00000KT 10SM CLR M01/M02 A3032 10 92 -1800 000/00 RMK AO2 T10061017
03949KAQV AQV20160119045011701/19/16 04:50:31  5-MIN KAQV 191050Z AUTO 00000KT 10SM CLR M01/M02 A3032 10 96 -1900 000/00 RMK AO2 SLP269 T10111017
03949KAQV AQV20160119045511601/19/16 04:55:31  5-MIN KAQV 191055Z AUTO 00000KT 9SM CLR M01/M02 A3032 10 96 -1900 000/00 RMK AO2 SLP269 T10111017
03949KAQV AQV20160119050011001/19/16 05:00:31  5-MIN KAQV 191100Z AUTO 00000KT 10SM CLR M01/M02 A3032 10 96 -1900 000/00 RMK AO2 T10111017
03949KAQV AQV20160119050511001/19/16 05:05:31  5-MIN KAQV 191105Z AUTO 00000KT 10SM CLR M01/M02 A3032 10 96 -1900 000/00 RMK AO2 T10111017
03949KAQV AQV20160119051011001/19/16 05:10:31  5-MIN KAQV 191110Z AUTO 00000KT 10SM CLR M01/M02 A3032 10 96 -1900 000/00 RMK AO2 T10111017
03949KAQV AQV20160119051511001/19/16 05:15:31  5-MIN KAQV 191115Z AUTO 00000KT 10SM CLR M01/M02 A3032 10 96 -1900 000/00 RMK AO2 T10111017
03949KAQV AQV20160119052011001/19/16 05:20:31  5-MIN KAQV 191120Z AUTO 00000KT 10SM CLR M01/M02 A3032 10 96 -1900 000/00 RMK AO2 T10111017
03949KAQV AQV20160119052511001/19/16 05:25:31  5-MIN KAQV 191125Z AUTO 00000KT 10SM CLR M01/M02 A3032 10 96 -1900 000/00 RMK AO2 T10111017
03949KAQV AQV20160119053011001/19/16 05:30:31  5-MIN KAQV 191130Z AUTO 00000KT 10SM CLR M01/M02 A3032 10 96 -1900 000/00 RMK AO2 T10111017
03949KAQV AQV20160119053511001/19/16 05:35:31  5-MIN KAQV 191135Z AUTO 00000KT 10SM CLR M01/M02 A3031 10 92 -1800 000/00 RMK AO2 T10061017
03949KAQV AQV20160119054011001/19/16 05:40:31  5-MIN KAQV 191140Z AUTO 00000KT 10SM CLR M01/M02 A3031 10 92 -1800 000/00 RMK AO2 T10061017
03949KAQV AQV20160119054511001/19/16 05:45:31  5-MIN KAQV 191145Z AUTO 00000KT 10SM CLR M01/M02 A3031 10 92 -1800 000/00 RMK AO2 T10061017
03949KAQV AQV20160119055013501/19/16 05:50:31  5-MIN KAQV 191150Z AUTO 00000KT 10SM CLR M01/M02 A3031 10 92 -1800 000/00 RMK AO2 SLP268 T10061017 10022 21011 56015
03949KAQV AQV20160119055513501/19/16 05:55:31  5-MIN KAQV 191155Z AUTO 00000KT 10SM CLR M01/M02 A3031 20 92 -1800 000/00 RMK AO2 SLP266 T10061017 10022 21011 56015
03949KAQV AQV20160119060011001/19/16 06:00:31  5-MIN KAQV 191200Z AUTO 00000KT 10SM CLR M01/M02 A3031 20 92 -1800 000/00 RMK AO2 T10061017
03949KAQV AQV20160119060511001/19/16 06:05:31  5-MIN KAQV 191205Z AUTO 00000KT 10SM CLR M01/M02 A3031 20 92 -1800 000/00 RMK AO2 T10061017
03949KAQV AQV20160119061011001/19/16 06:10:31  5-MIN KAQV 191210Z AUTO 00000KT 10SM CLR M01/M02 A3031 20 92 -1800 000/00 RMK AO2 T10061017
03949KAQV AQV20160119061511001/19/16 06:15:31  5-MIN KAQV 191215Z AUTO 13003KT 10SM CLR M01/M02 A3031 20 92 -1800 130/03 RMK AO2 T10061017
03949KAQV AQV20160119062011001/19/16 06:20:31  5-MIN KAQV 191220Z AUTO 00000KT 10SM CLR M01/M02 A3031 10 92 -1800 000/00 RMK AO2 T10061017
03949KAQV AQV20160119062511001/19/16 06:25:31  5-MIN KAQV 191225Z AUTO 00000KT 10SM CLR M01/M02 A3031 10 92 -1800 000/00 RMK AO2 T10061017
03949KAQV AQV20160119063011001/19/16 06:30:31  5-MIN KAQV 191230Z AUTO 00000KT 10SM CLR M01/M02 A3031 10 92 -1800 000/00 RMK AO2 T10061017
03949KAQV AQV20160119063511001/19/16 06:35:31  5-MIN KAQV 191235Z AUTO 00000KT 10SM CLR M01/M02 A3032 10 92 -1800 000/00 RMK AO2 T10061017
03949KAQV AQV20160119064011001/19/16 06:40:31  5-MIN KAQV 191240Z AUTO 00000KT 10SM CLR M01/M02 A3032 10 92 -1800 000/00 RMK AO2 T10061017
03949KAQV AQV20160119064511001/19/16 06:45:31  5-MIN KAQV 191245Z AUTO 00000KT 10SM CLR M01/M02 A3032 10 92 -1800 000/00 RMK AO2 T10061017
03949KAQV AQV20160119065011701/19/16 06:50:31  5-MIN KAQV 191250Z AUTO 00000KT 10SM CLR M01/M02 A3032 10 96 -1900 000/00 RMK AO2 SLP271 T10111017
03949KAQV AQV20160119065511701/19/16 06:55:31  5-MIN KAQV 191255Z AUTO 00000KT 10SM CLR M01/M02 A3032 10 96 -1900 000/00 RMK AO2 SLP271 T10111017
03949KAQV AQV20160119070011001/19/16 07:00:31  5-MIN KAQV 191300Z AUTO 00000KT 10SM CLR M01/M02 A3032 10 92 -1800 000/00 RMK AO2 T10061017
03949KAQV AQV20160119070507401/19/16 07:05:31  5-MIN KAQV 191305Z AUTO 00000KT 10SM CLR M01/M02 A3032 
03949KAQV AQV20160119105511301/19/16 10:55:31  5-MIN KAQV 191655Z AUTO VRB05KT 10SM CLR 12/02 A3033 0 52 -300 VRB/05 RMK AO2 SLP272 T01170022
03949KAQV AQV20160119110010601/19/16 11:00:31  5-MIN KAQV 191700Z AUTO 17006KT 10SM CLR 12/02 A3033 0 52 -300 170/06 RMK AO2 T01170022
03949KAQV AQV20160119110510601/19/16 11:05:31  5-MIN KAQV 191705Z AUTO 15006KT 10SM CLR 12/02 A3033 0 52 -300 150/06 RMK AO2 T01170022
03949KAQV AQV20160119111010601/19/16 11:10:31  5-MIN KAQV 191710Z AUTO VRB04KT 10SM CLR 12/03 A3033 0 52 -200 VRB/04 RMK AO2 T01220028
03949KAQV AQV20160119111510601/19/16 11:15:31  5-MIN KAQV 191715Z AUTO 14006KT 10SM CLR 13/03 A3033 0 50 -200 140/06 RMK AO2 T01280028
03949KAQV AQV20160119112010701/19/16 11:20:31  5-MIN KAQV 191720Z AUTO VRB06KT 10SM CLR 13/03 A3032 10 48 -100 VRB/06 RMK AO2 T01330028
03949KAQV AQV20160119112510401/19/16 11:25:31  5-MIN KAQV 191725Z AUTO 17004KT 10SM CLR 14/03 A3032 10 48 0 160/04 RMK AO2 T01390033
03949KAQV AQV20160119113010401/19/16 11:30:31  5-MIN KAQV 191730Z AUTO 16007KT 10SM CLR 14/03 A3031 10 48 0 160/07 RMK AO2 T01390033
03949KAQV AQV20160119113511001/19/16 11:35:31  5-MIN KAQV 191735Z AUTO 16009G15KT 10SM CLR 14/03 A3031 20 47 0 160/09G15 RMK AO2 T01440033
03949KAQV AQV20160119114011001/19/16 11:40:31  5-MIN KAQV 191740Z AUTO 15008G15KT 10SM CLR 14/04 A3031 20 49 0 150/08G15 RMK AO2 T01440039
03949KAQV AQV20160119114510501/19/16 11:45:31  5-MIN KAQV 191745Z AUTO 16006KT 9SM CLR 15/04 A3030 20 47 100 160/06 RMK AO2 T01500039
03949KAQV AQV20160119115014401/19/16 11:50:31  5-MIN KAQV 191750Z AUTO 18008KT 130V210 9SM CLR 14/04 A3030 20 49 0 170/08 130V210 RMK AO2 SLP263 T01440039 10150 21011 51007
03949KAQV AQV20160119115513701/19/16 11:55:31  5-MIN KAQV 191755Z AUTO 17009G15KT 10SM CLR 15/04 A3030 30 47 100 160/09G15 RMK AO2 SLP263 T01500039 10150 21011 51007
03949KAQV AQV20160119120012801/19/16 12:00:31  5-MIN KAQV 191800Z AUTO 16008G15KT 110V180 10SM CLR 15/04 A3030 30 47 100 160/08G15 110V180 RMK AO2 T01500039
03949KAQV AQV20160119120511201/19/16 12:05:31  5-MIN KAQV 191805Z AUTO 17008G15KT 10SM CLR 15/04 A3029 30 47 100 170/08G15 RMK AO2 T01500039
03949KAQV AQV20160119121011201/19/16 12:10:31  5-MIN KAQV 191810Z AUTO 18009G15KT 10SM CLR 16/04 A3028 40 47 200 170/09G15 RMK AO2 T01560044
03949KAQV AQV20160119121511201/19/16 12:15:31  5-MIN KAQV 191815Z AUTO VRB05G15KT 10SM CLR 16/04 A3028 50 47 200 VRB/05G15 RMK AO2 T01560044
03949KAQV AQV20160119122012801/19/16 12:20:31  5-MIN KAQV 191820Z AUTO 16008G15KT 130V190 10SM CLR 16/04 A3028 50 47 200 160/08G15 130V190 RMK AO2 T01560044
03949KAQV AQV20160119122511201/19/16 12:25:31  5-MIN KAQV 191825Z AUTO 17010G15KT 10SM CLR 16/04 A3027 50 47 200 160/10G15 RMK AO2 T01560044
03949KAQV AQV20160119123011201/19/16 12:30:31  5-MIN KAQV 191830Z AUTO 19008G14KT 10SM CLR 16/04 A3027 50 45 200 180/08G14 RMK AO2 T01610044
03949KAQV AQV20160119123512201/19/16 12:35:31  5-MIN KAQV 191835Z AUTO 17008KT 130V220 10SM CLR 16/04 A3027 60 45 200 160/08 130V220 RMK AO2 T01610044
03949KAQV AQV20160119124012201/19/16 12:40:31  5-MIN KAQV 191840Z AUTO 18008KT 130V210 10SM CLR 16/04 A3026 60 45 200 180/08 130V210 RMK AO2 T01610044
03949KAQV AQV20160119124511201/19/16 12:45:31  5-MIN KAQV 191845Z AUTO VRB05G17KT 10SM CLR 16/04 A3026 60 45 200 VRB/05G17 RMK AO2 T01610044
03949KAQV AQV20160119125011301/19/16 12:50:31  5-MIN KAQV 191850Z AUTO VRB06KT 10SM CLR 16/04 A3026 70 44 300 VRB/06 RMK AO2 SLP247 T01610039
03949KAQV AQV20160119125511301/19/16 12:55:31  5-MIN KAQV 191855Z AUTO 18007KT 10SM CLR 16/04 A3025 70 45 300 180/07 RMK AO2 SLP246 T01610044
03949KAQV AQV20160119130010601/19/16 13:00:31  5-MIN KAQV 191900Z AUTO VRB06KT 10SM CLR 16/04 A3025 70 45 300 VRB/06 RMK AO2 T01610044
03949KAQV AQV20160119130512201/19/16 13:05:31  5-MIN KAQV 191905Z AUTO 18007KT 130V240 10SM CLR 17/04 A3024 80 44 300 170/07 130V240 RMK AO2 T01670044
03949KAQV AQV20160119131010601/19/16 13:10:31  5-MIN KAQV 191910Z AUTO 15008KT 10SM CLR 17/04 A3024 80 44 300 150/08 RMK AO2 T01670044
03949KAQV AQV20160119131510601/19/16 13:15:31  5-MIN KAQV 191915Z AUTO 17007KT 10SM CLR 16/04 A3024 80 45 300 170/07 RMK AO2 T01610044
03949KAQV AQV20160119132010601/19/16 13:20:31  5-MIN KAQV 191920Z AUTO VRB06KT 10SM CLR 17/04 A3024 80 42 400 VRB/06 RMK AO2 T01720044
03949KAQV AQV20160119132510601/19/16 13:25:31  5-MIN KAQV 191925Z AUTO VRB04KT 10SM CLR 17/04 A3023 90 44 300 VRB/04 RMK AO2 T01670044
03949KAQV AQV20160119133010601/19/16 13:30:31  5-MIN KAQV 191930Z AUTO 20005KT 10SM CLR 17/04 A3023 90 42 400 190/05 RMK AO2 T01720044
03949KAQV AQV20160119133510701/19/16 13:35:31  5-MIN KAQV 191935Z AUTO VRB06KT 10SM CLR 17/05 A3022 100 44 400 VRB/06 RMK AO2 T01720050
03949KAQV AQV20160119134012301/19/16 13:40:31  5-MIN KAQV 191940Z AUTO 17008KT 130V200 10SM CLR 17/05 A3022 100 44 400 170/08 130V200 RMK AO2 T01720050
03949KAQV AQV20160119134510701/19/16 13:45:31  5-MIN KAQV 191945Z AUTO 17008KT 10SM CLR 17/05 A3022 100 45 400 160/08 RMK AO2 T01670050
03949KAQV AQV20160119135012001/19/16 13:50:31  5-MIN KAQV 191950Z AUTO VRB05G14KT 10SM CLR 17/05 A3022 100 45 400 VRB/05G14 RMK AO2 SLP233 T01670050
03949KAQV AQV20160119135510401/19/16 13:55:31  5-MIN KAQV 191955Z AUTO 10SM CLR 17/04 A3021 110 42 400 M /M RMK AO2 SLP232 T01720044
03949KAQV AQV20160119140011301/19/16 14:00:31  5-MIN KAQV 192000Z AUTO VRB04G15KT 10SM CLR 17/04 A3021 110 44 400 VRB/04G15 RMK AO2 T01670044
03949KAQV AQV20160119140511301/19/16 14:05:31  5-MIN KAQV 192005Z AUTO VRB06G15KT 10SM CLR 17/05 A3020 110 44 400 VRB/06G15 RMK AO2 T01720050
03949KAQV AQV20160119141012901/19/16 14:10:31  5-MIN KAQV 192010Z AUTO 21009G15KT 180V250 10SM CLR 17/04 A3020 120 42 400 210/09G15 180V250 RMK AO2 T01720044
03949KAQV AQV20160119141511301/19/16 14:15:31  5-MIN KAQV 192015Z AUTO VRB06G15KT 10SM CLR 17/05 A3020 120 44 400 VRB/06G15 RMK AO2 T01720050
03949KAQV AQV20160119142012901/19/16 14:20:31  5-MIN KAQV 192020Z AUTO 18009G15KT 140V220 10SM CLR 17/05 A3020 120 45 400 180/09G15 140V220 RMK AO2 T01670050
03949KAQV AQV20160119142511201/19/16 14:25:31  5-MIN KAQV 192025Z AUTO 18007G15KT 8SM CLR 17/05 A3020 120 45 400 180/07G15 RMK AO2 T01670050
03949KAQV AQV20160119143010601/19/16 14:30:31  5-MIN KAQV 192030Z AUTO VRB05KT 9SM CLR 17/05 A3020 120 44 500 VRB/05 RMK AO2 T01720050
03949KAQV AQV20160119143511001/19/16 14:35:31  5-MIN KAQV 192035Z AUTO 18008KT 10SM FEW046 18/06 A3020 120 44 500 170/08 RMK AO2 T01780056
03949KAQV AQV20160119144012601/19/16 14:40:31  5-MIN KAQV 192040Z AUTO 19008KT 150V220 10SM FEW046 17/06 A3020 120 46 500 180/08 150V220 RMK AO2 T01720056
03949KAQV AQV20160119144511001/19/16 14:45:31  5-MIN KAQV 192045Z AUTO VRB05KT 10SM FEW046 17/06 A3020 120 47 400 VRB/05 RMK AO2 T01670056
03949KAQV AQV20160119145012301/19/16 14:50:31  5-MIN KAQV 192050Z AUTO 18007KT 10SM FEW046 16/06 A3020 120 49 300 180/07 RMK AO2 SLP227 T01610056 58010
03949KAQV AQV20160119145513901/19/16 14:55:31  5-MIN KAQV 192055Z AUTO 17008KT 120V190 10SM FEW046 17/06 A3020 120 47 400 170/08 120V190 RMK AO2 SLP227 T01670056 58010
03949KAQV AQV20160119150011001/19/16 15:00:31  5-MIN KAQV 192100Z AUTO 19007KT 10SM FEW045 17/06 A3020 120 46 400 190/07 RMK AO2 T01720056
03949KAQV AQV20160119150511001/19/16 15:05:31  5-MIN KAQV 192105Z AUTO 19007KT 10SM FEW045 17/06 A3020 120 46 400 190/07 RMK AO2 T01720056
03949KAQV AQV20160119151011001/19/16 15:10:31  5-MIN KAQV 192110Z AUTO VRB04KT 10SM FEW045 17/06 A3020 120 47 400 VRB/04 RMK AO2 T01720061
03949KAQV AQV20160119151511001/19/16 15:15:31  5-MIN KAQV 192115Z AUTO 17006KT 10SM FEW045 17/06 A3020 120 47 400 170/06 RMK AO2 T01720061
03949KAQV AQV20160119152011601/19/16 15:20:31  5-MIN KAQV 192120Z AUTO 18009G16KT 10SM FEW045 17/06 A3020 120 47 500 180/09G16 RMK AO2 T01720061
03949KAQV AQV20160119152511601/19/16 15:25:31  5-MIN KAQV 192125Z AUTO VRB06G16KT 10SM FEW045 16/06 A3019 120 49 300 VRB/06G16 RMK AO2 T01610056
03949KAQV AQV20160119153011001/19/16 15:30:31  5-MIN KAQV 192130Z AUTO VRB05KT 10SM FEW045 17/06 A3020 120 49 400 VRB/05 RMK AO2 T01670061
03949KAQV AQV20160119153510701/19/16 15:35:31  5-MIN KAQV 192135Z AUTO VRB06KT 10SM CLR 17/06 A3020 120 49 400 VRB/06 RMK AO2 T01670061
03949KAQV AQV20160119154010701/19/16 15:40:31  5-MIN KAQV 192140Z AUTO VRB06KT 10SM CLR 16/06 A3020 120 51 300 VRB/06 RMK AO2 T01610061
03949KAQV AQV20160119154510701/19/16 15:45:31  5-MIN KAQV 192145Z AUTO VRB04KT 10SM CLR 16/06 A3021 110 51 300 VRB/04 RMK AO2 T01610061
03949KAQV AQV20160119155011401/19/16 15:50:31  5-MIN KAQV 192150Z AUTO VRB06KT 10SM CLR 16/06 A3021 110 51 300 VRB/06 RMK AO2 SLP230 T01610061
03949KAQV AQV20160119155511701/19/16 15:55:31  5-MIN KAQV 192155Z AUTO VRB06KT 10SM FEW046 16/06 A3021 110 51 300 VRB/06 RMK AO2 SLP230 T01610061
03949KAQV AQV20160119160011001/19/16 16:00:31  5-MIN KAQV 192200Z AUTO VRB05KT 10SM FEW046 17/07 A3021 110 51 400 VRB/05 RMK AO2 T01670067
03949KAQV AQV20160119160512601/19/16 16:05:31  5-MIN KAQV 192205Z AUTO 18007KT 150V240 10SM FEW046 16/07 A3021 110 53 300 180/07 150V240 RMK AO2 T01610067
03949KAQV AQV20160119161011001/19/16 16:10:31  5-MIN KAQV 192210Z AUTO 19006KT 10SM FEW048 16/06 A3020 120 51 300 180/06 RMK AO2 T01610061
03949KAQV AQV20160119161511001/19/16 16:15:31  5-MIN KAQV 192215Z AUTO 19006KT 10SM FEW048 16/06 A3020 120 53 200 190/06 RMK AO2 T01560061
03949KAQV AQV20160119162011001/19/16 16:20:31  5-MIN KAQV 192220Z AUTO 18006KT 10SM FEW048 16/07 A3020 120 53 300 180/06 RMK AO2 T01610067
03949KAQV AQV20160119162511001/19/16 16:25:31  5-MIN KAQV 192225Z AUTO VRB05KT 10SM FEW047 16/07 A3020 120 53 300 VRB/05 RMK AO2 T01610067
03949KAQV AQV20160119163011001/19/16 16:30:31  5-MIN KAQV 192230Z AUTO 16007KT 10SM FEW047 16/07 A3020 120 55 300 160/07 RMK AO2 T01560067
03949KAQV AQV20160119163511001/19/16 16:35:31  5-MIN KAQV 192235Z AUTO 16005KT 10SM FEW048 16/07 A3019 130 55 300 160/05 RMK AO2 T01560067
03949KAQV AQV20160119164011001/19/16 16:40:31  5-MIN KAQV 192240Z AUTO 17005KT 10SM FEW048 16/07 A3019 130 55 300 160/05 RMK AO2 T01560067
03949KAQV AQV20160119164511001/19/16 16:45:31  5-MIN KAQV 192245Z AUTO VRB05KT 10SM FEW048 16/07 A3019 130 55 300 VRB/05 RMK AO2 T01560067
03949KAQV AQV20160119165010401/19/16 16:50:31  5-MIN KAQV 192250Z AUTO 10SM CLR 16/07 A3019 130 55 300 M /M RMK AO2 SLP224 T01560067
03949KAQV AQV20160119165511401/19/16 16:55:31  5-MIN KAQV 192255Z AUTO VRB04KT 10SM CLR 16/07 A3019 130 55 300 VRB/04 RMK AO2 SLP225 T01560067
03949KAQV AQV20160119170010701/19/16 17:00:31  5-MIN KAQV 192300Z AUTO 17005KT 10SM CLR 15/07 A3019 130 57 200 170/05 RMK AO2 T01500067
03949KAQV AQV20160119170510701/19/16 17:05:31  5-MIN KAQV 192305Z AUTO 18006KT 10SM CLR 15/07 A3019 130 59 200 170/06 RMK AO2 T01500072
03949KAQV AQV20160119171010701/19/16 17:10:31  5-MIN KAQV 192310Z AUTO 17004KT 10SM CLR 15/07 A3018 130 59 200 160/04 RMK AO2 T01500072
03949KAQV AQV20160119171510701/19/16 17:15:31  5-MIN KAQV 192315Z AUTO 18006KT 10SM CLR 14/07 A3019 130 61 100 170/06 RMK AO2 T01440072
03949KAQV AQV20160119172010701/19/16 17:20:31  5-MIN KAQV 192320Z AUTO 18006KT 10SM CLR 15/07 A3018 130 59 200 170/06 RMK AO2 T01500072
03949KAQV AQV20160119172510701/19/16 17:25:31  5-MIN KAQV 192325Z AUTO 17004KT 10SM CLR 14/07 A3018 140 61 100 160/04 RMK AO2 T01440072
03949KAQV AQV20160119173010701/19/16 17:30:31  5-MIN KAQV 192330Z AUTO 16005KT 10SM CLR 14/07 A3018 140 61 100 160/05 RMK AO2 T01440072
03949KAQV AQV20160119173510701/19/16 17:35:31  5-MIN KAQV 192335Z AUTO 18005KT 10SM CLR 14/07 A3018 140 61 100 180/05 RMK AO2 T01440072
03949KAQV AQV20160119174010701/19/16 17:40:31  5-MIN KAQV 192340Z AUTO 16005KT 10SM CLR 14/07 A3018 140 64 100 160/05 RMK AO2 T01390072
03949KAQV AQV20160119174510701/19/16 17:45:31  5-MIN KAQV 192345Z AUTO VRB05KT 10SM CLR 14/07 A3018 140 64 100 VRB/05 RMK AO2 T01390072
03949KAQV AQV20160119175013201/19/16 17:50:31  5-MIN KAQV 192350Z AUTO 16004KT 10SM CLR 14/07 A3017 140 64 100 160/04 RMK AO2 SLP218 T01390072 10178 20139 56035
03949KAQV AQV20160119175513201/19/16 17:55:31  5-MIN KAQV 192355Z AUTO 17005KT 10SM CLR 14/07 A3017 150 64 100 170/05 RMK AO2 SLP217 T01390072 10178 20139 56035
03949KAQV AQV20160119180010701/19/16 18:00:31  5-MIN KAQV 200000Z AUTO 16003KT 10SM CLR 14/07 A3017 150 64 100 160/03 RMK AO2 T01390072
03949KAQV AQV20160119180510701/19/16 18:05:31  5-MIN KAQV 200005Z AUTO 15004KT 10SM CLR 14/07 A3017 150 64 100 150/04 RMK AO2 T01390072
03949KAQV AQV20160119181010701/19/16 18:10:31  5-MIN KAQV 200010Z AUTO 15004KT 10SM CLR 14/07 A3016 150 64 100 150/04 RMK AO2 T01390072
03949KAQV AQV20160119181510501/19/16 18:15:31  5-MIN KAQV 200015Z AUTO 16004KT 10SM CLR 13/07 A3017 150 66 0 150/04 RMK AO2 T01330072
03949KAQV AQV20160119182010701/19/16 18:20:31  5-MIN KAQV 200020Z AUTO VRB03KT 10SM CLR 14/07 A3018 140 64 100 VRB/03 RMK AO2 T01390072
03949KAQV AQV20160119182510701/19/16 18:25:31  5-MIN KAQV 200025Z AUTO 16004KT 10SM CLR 14/07 A3017 140 64 100 160/04 RMK AO2 T01390072
03949KAQV AQV20160119183010501/19/16 18:30:31  5-MIN KAQV 200030Z AUTO 16003KT 10SM CLR 13/07 A3018 140 66 0 160/03 RMK AO2 T01330072
03949KAQV AQV20160119183510501/19/16 18:35:31  5-MIN KAQV 200035Z AUTO 16004KT 10SM CLR 13/07 A3017 140 66 0 150/04 RMK AO2 T01330072
03949KAQV AQV20160119184010501/19/16 18:40:31  5-MIN KAQV 200040Z AUTO 15004KT 10SM CLR 13/07 A3016 160 69 0 140/04 RMK AO2 T01280072
03949KAQV AQV20160119184510501/19/16 18:45:31  5-MIN KAQV 200045Z AUTO VRB04KT 10SM CLR 13/08 A3015 160 71 0 VRB/04 RMK AO2 T01280078
03949KAQV AQV20160119185011201/19/16 18:50:31  5-MIN KAQV 200050Z AUTO 15004KT 10SM CLR 13/08 A3015 160 69 0 150/04 RMK AO2 SLP213 T01330078
03949KAQV AQV20160119185507501/19/16 18:55:31  5-MIN KAQV 200055Z AUTO 16004KT 10SM CLR 13/08 A3016 160
03949KAQV AQV20160120084511001/20/16 08:45:31  5-MIN KAQV 201445Z AUTO 00000KT 9SM BKN037 12/10 A3015 160 89 -100 000/00 RMK AO2 T01170100
03949KAQV AQV20160120085012001/20/16 08:50:31  5-MIN KAQV 201450Z AUTO VRB03KT 9SM SCT039 12/11 A3015 160 89 0 VRB/03 RMK AO2 SLP211 T01220106 55008
03949KAQV AQV20160120085512701/20/16 08:55:31  5-MIN KAQV 201455Z AUTO 00000KT 9SM FEW013 SCT039 12/10 A3016 160 86 0 000/00 RMK AO2 SLP212 T01220100 55008
03949KAQV AQV20160120090011401/20/16 09:00:31  5-MIN KAQV 201500Z AUTO 23006KT 9SM SCT013 BKN039 13/11 A3016 160 86 0 230/06 RMK AO2 T01280106
03949KAQV AQV20160120090510701/20/16 09:05:31  5-MIN KAQV 201505Z AUTO VRB03KT 9SM BKN012 13/11 A3016 160 86 0 VRB/03 RMK AO2 T01280106
03949KAQV AQV20160120091010701/20/16 09:10:31  5-MIN KAQV 201510Z AUTO VRB04KT 9SM BKN012 13/11 A3016 160 86 0 VRB/04 RMK AO2 T01280106
03949KAQV AQV20160120091510701/20/16 09:15:31  5-MIN KAQV 201515Z AUTO 00000KT 9SM BKN012 13/11 A3016 150 83 0 000/00 RMK AO2 T01330106
03949KAQV AQV20160120092010701/20/16 09:20:31  5-MIN KAQV 201520Z AUTO VRB04KT 9SM OVC012 13/11 A3016 150 83 0 VRB/04 RMK AO2 T01330106
03949KAQV AQV20160120092510701/20/16 09:25:31  5-MIN KAQV 201525Z AUTO 23005KT 9SM OVC012 13/11 A3016 150 83 0 230/05 RMK AO2 T01330106
03949KAQV AQV20160120093010801/20/16 09:30:31  5-MIN KAQV 201530Z AUTO 00000KT 10SM OVC011 13/11 A3016 150 83 0 000/00 RMK AO2 T01330106
03949KAQV AQV20160120093510701/20/16 09:35:31  5-MIN KAQV 201535Z AUTO 24003KT 9SM OVC011 13/11 A3016 150 83 0 240/03 RMK AO2 T01330106
03949KAQV AQV20160120094010701/20/16 09:40:31  5-MIN KAQV 201540Z AUTO VRB03KT 9SM OVC010 13/11 A3016 150 86 0 VRB/03 RMK AO2 T01330111
03949KAQV AQV20160120094510701/20/16 09:45:31  5-MIN KAQV 201545Z AUTO VRB04KT 9SM OVC010 13/11 A3016 150 86 0 VRB/04 RMK AO2 T01330111
03949KAQV AQV20160120095011601/20/16 09:50:31  5-MIN KAQV 201550Z AUTO VRB03KT 9SM OVC010 14/11 A3017 150 83 100 VRB/03 RMK AO2 SLP215 T01390111
03949KAQV AQV20160120095511601/20/16 09:55:31  5-MIN KAQV 201555Z AUTO 25006KT 9SM OVC010 14/11 A3017 150 83 100 240/06 RMK AO2 SLP216 T01390111
03949KAQV AQV20160120100010901/20/16 10:00:31  5-MIN KAQV 201600Z AUTO VRB04KT 9SM OVC010 14/11 A3017 150 83 100 VRB/04 RMK AO2 T01390111
03949KAQV AQV20160120100511001/20/16 10:05:31  5-MIN KAQV 201605Z AUTO VRB05KT 10SM OVC010 14/11 A3017 150 83 100 VRB/05 RMK AO2 T01390111
03949KAQV AQV20160120101010901/20/16 10:10:31  5-MIN KAQV 201610Z AUTO VRB04KT 9SM OVC010 14/11 A3017 150 83 100 VRB/04 RMK AO2 T01390111
03949KAQV AQV20160120101512101/20/16 10:15:31  5-MIN KAQV 201615Z AUTO 29005KT 9SM BKN010 14/11 A3016 150 80 200 280/05 RMK AO2 CIG 009V014 T01440111
03949KAQV AQV20160120102012201/20/16 10:20:31  5-MIN KAQV 201620Z AUTO VRB04KT 10SM BKN010 15/11 A3016 150 77 200 VRB/04 RMK AO2 CIG 010V014 T01500111
03949KAQV AQV20160120102511701/20/16 10:25:31  5-MIN KAQV 201625Z AUTO 28006KT 10SM BKN012 BKN016 16/11 A3016 150 74 300 270/06 RMK AO2 T01560111
03949KAQV AQV20160120103011701/20/16 10:30:31  5-MIN KAQV 201630Z AUTO VRB04KT 10SM SCT012 BKN016 16/11 A3016 150 74 300 VRB/04 RMK AO2 T01560111
03949KAQV AQV20160120103511701/20/16 10:35:31  5-MIN KAQV 201635Z AUTO 00000KT 10SM SCT013 SCT031 16/11 A3016 150 72 400 000/00 RMK AO2 T01610111
03949KAQV AQV20160120104011701/20/16 10:40:31  5-MIN KAQV 201640Z AUTO VRB04KT 10SM FEW015 SCT031 16/11 A3016 160 72 400 VRB/04 RMK AO2 T01610111
03949KAQV AQV20160120104511701/20/16 10:45:31  5-MIN KAQV 201645Z AUTO VRB04KT 10SM FEW015 SCT020 17/11 A3016 160 69 400 VRB/04 RMK AO2 T01670111
03949KAQV AQV20160120105008501/20/16 10:50:31  5-MIN KAQV 201650Z AUTO VRB05KT A3015 M M M VRB/05 RMK AO2 SLPNO $
03949KAQV AQV20160120105510701/20/16 10:55:31  5-MIN KAQV 201655Z AUTO 00000KT 17/11 A3015 170 67 500 000/00 RMK AO2 SLP208 T01720111 $
03949KAQV AQV20160120110510001/20/16 11:05:31  5-MIN KAQV 201705Z AUTO VRB05KT 17/11 A3014 170 69 400 VRB/05 RMK AO2 T01670111 $
03949KAQV AQV20160120111012101/20/16 11:10:31  5-MIN KAQV 201710Z AUTO 25007KT 220V280 10SM 17/11 A3014 170 69 400 250/07 220V280 RMK AO2 T01670111 $
03949KAQV AQV20160120111510501/20/16 11:15:31  5-MIN KAQV 201715Z AUTO 32007KT 10SM 17/11 A3014 180 67 500 320/07 RMK AO2 T01720111 $
03949KAQV AQV20160120112510501/20/16 11:25:31  5-MIN KAQV 201725Z AUTO 28007KT 10SM 17/11 A3013 180 67 500 270/07 RMK AO2 T01720111 $
03949KAQV AQV20160120113010501/20/16 11:30:31  5-MIN KAQV 201730Z AUTO VRB06KT 10SM 17/11 A3013 180 67 500 VRB/06 RMK AO2 T01720111 $
03949KAQV AQV20160120113512801/20/16 11:35:31  5-MIN KAQV 201735Z AUTO 32007KT 270V360 10SM FEW022 18/11 A3013 190 64 600 320/07 270V360 RMK AO2 T01780111 $
03949KAQV AQV20160120114011201/20/16 11:40:31  5-MIN KAQV 201740Z AUTO VRB04KT 10SM FEW022 18/11 A3012 190 64 600 VRB/04 RMK AO2 T01780111 $
03949KAQV AQV20160120114511201/20/16 11:45:31  5-MIN KAQV 201745Z AUTO VRB06KT 10SM FEW022 18/11 A3012 190 64 600 VRB/06 RMK AO2 T01780111 $
03949KAQV AQV20160120115013101/20/16 11:50:31  5-MIN KAQV 201750Z AUTO VRB04KT 10SM FEW022 18/11 A3012 190 64 600 VRB/04 RMK AO2 SLP199 T01780111 10183 20094 $
03949KAQV AQV20160120115513101/20/16 11:55:31  5-MIN KAQV 201755Z AUTO VRB04KT 10SM SCT022 17/11 A3012 190 67 500 VRB/04 RMK AO2 SLP198 T01720111 10183 20094 $
03949KAQV AQV20160120120011201/20/16 12:00:31  5-MIN KAQV 201800Z AUTO VRB06KT 10SM SCT024 18/12 A3011 200 65 700 VRB/06 RMK AO2 T01830117 $
03949KAQV AQV20160120120511201/20/16 12:05:31  5-MIN KAQV 201805Z AUTO 00000KT 10SM SCT024 19/12 A3011 200 62 700 000/00 RMK AO2 T01890117 $
03949KAQV AQV20160120121011901/20/16 12:10:31  5-MIN KAQV 201810Z AUTO VRB05KT 10SM SCT024 18/12 A3010 210 65 700 VRB/05 RMK AO2 PRESFR T01830117 $
03949KAQV AQV20160120121511201/20/16 12:15:31  5-MIN KAQV 201815Z AUTO VRB03KT 10SM SCT024 19/12 A3010 210 62 800 VRB/03 RMK AO2 T01890117 $
03949KAQV AQV20160120122011201/20/16 12:20:31  5-MIN KAQV 201820Z AUTO VRB04KT 10SM FEW024 19/12 A3009 220 62 800 VRB/04 RMK AO2 T01890117 $
03949KAQV AQV20160120122511201/20/16 12:25:31  5-MIN KAQV 201825Z AUTO 00000KT 10SM SCT024 19/12 A3009 220 60 800 000/00 RMK AO2 T01940117 $
03949KAQV AQV20160120123011201/20/16 12:30:31  5-MIN KAQV 201830Z AUTO VRB05KT 10SM SCT024 19/12 A3009 220 62 800 VRB/05 RMK AO2 T01890117 $
03949KAQV AQV20160120123511201/20/16 12:35:31  5-MIN KAQV 201835Z AUTO VRB05KT 10SM FEW024 19/12 A3009 220 62 800 VRB/05 RMK AO2 T01890117 $
03949KAQV AQV20160120124011201/20/16 12:40:31  5-MIN KAQV 201840Z AUTO VRB04KT 10SM FEW026 19/12 A3008 230 62 800 VRB/04 RMK AO2 T01890117 $
03949KAQV AQV20160120124511201/20/16 12:45:31  5-MIN KAQV 201845Z AUTO VRB05KT 10SM FEW026 19/12 A3008 230 60 800 VRB/05 RMK AO2 T01940117 $
03949KAQV AQV20160120125011901/20/16 12:50:31  5-MIN KAQV 201850Z AUTO VRB06KT 10SM FEW026 19/12 A3008 230 62 800 VRB/06 RMK AO2 SLP185 T01890117 $
03949KAQV AQV20160120125511901/20/16 12:55:31  5-MIN KAQV 201855Z AUTO VRB04KT 10SM FEW028 18/12 A3008 230 65 700 VRB/04 RMK AO2 SLP184 T01830117 $
03949KAQV AQV20160120130011201/20/16 13:00:31  5-MIN KAQV 201900Z AUTO VRB05KT 10SM SCT028 19/12 A3007 240 60 900 VRB/05 RMK AO2 T01940117 $
03949KAQV AQV20160120130511201/20/16 13:05:31  5-MIN KAQV 201905Z AUTO 28006KT 10SM SCT028 19/12 A3007 240 60 900 280/06 RMK AO2 T01940117 $
03949KAQV AQV20160120131011201/20/16 13:10:31  5-MIN KAQV 201910Z AUTO 29005KT 10SM SCT028 19/12 A3007 240 62 800 290/05 RMK AO2 T01890117 $
03949KAQV AQV20160120131511201/20/16 13:15:31  5-MIN KAQV 201915Z AUTO 00000KT 10SM FEW029 19/12 A3007 240 62 800 000/00 RMK AO2 T01890117 $
03949KAQV AQV20160120132011201/20/16 13:20:31  5-MIN KAQV 201920Z AUTO VRB05KT 10SM FEW029 19/12 A3006 240 60 900 VRB/05 RMK AO2 T01940117 $
03949KAQV AQV20160120132511201/20/16 13:25:31  5-MIN KAQV 201925Z AUTO 27005KT 10SM SCT029 19/12 A3006 250 60 900 270/05 RMK AO2 T01940117 $
03949KAQV AQV20160120133011201/20/16 13:30:31  5-MIN KAQV 201930Z AUTO 29005KT 10SM FEW029 20/12 A3006 250 58 900 290/05 RMK AO2 T02000117 $
03949KAQV AQV20160120133511201/20/16 13:35:31  5-MIN KAQV 201935Z AUTO 00000KT 10SM FEW031 20/12 A3006 250 58 900 000/00 RMK AO2 T02000117 $
03949KAQV AQV20160120134011201/20/16 13:40:31  5-MIN KAQV 201940Z AUTO VRB04KT 10SM FEW031 19/12 A3006 250 60 900 VRB/04 RMK AO2 T01940117 $
03949KAQV AQV20160120134511201/20/16 13:45:31  5-MIN KAQV 201945Z AUTO VRB05KT 10SM SCT029 19/12 A3006 250 60 900 VRB/05 RMK AO2 T01940117 $
03949KAQV AQV20160120135012601/20/16 13:50:31  5-MIN KAQV 201950Z AUTO VRB04KT 10SM SCT029 SCT035 19/12 A3006 250 62 800 VRB/04 RMK AO2 SLP177 T01890117 $
03949KAQV AQV20160120135511901/20/16 13:55:31  5-MIN KAQV 201955Z AUTO VRB03KT 10SM BKN032 19/12 A3006 250 62 800 VRB/03 RMK AO2 SLP177 T01890117 $
03949KAQV AQV20160120140011901/20/16 14:00:31  5-MIN KAQV 202000Z AUTO VRB03KT 10SM BKN034 BKN050 18/12 A3006 250 65 700 VRB/03 RMK AO2 T01830117 $
03949KAQV AQV20160120140512601/20/16 14:05:31  5-MIN KAQV 202005Z AUTO VRB04KT 10SM SCT032 BKN039 BKN050 19/12 A3005 250 62 800 VRB/04 RMK AO2 T01890117 $
03949KAQV AQV20160120141011901/20/16 14:10:31  5-MIN KAQV 202010Z AUTO VRB05KT 10SM BKN035 OVC050 19/12 A3005 260 62 800 VRB/05 RMK AO2 T01890117 $
03949KAQV AQV20160120141511901/20/16 14:15:31  5-MIN KAQV 202015Z AUTO VRB05KT 10SM BKN035 OVC050 18/11 A3005 260 62 700 VRB/05 RMK AO2 T01830111 $
03949KAQV AQV20160120142011901/20/16 14:20:31  5-MIN KAQV 202020Z AUTO VRB04KT 10SM SCT035 OVC050 19/11 A3005 260 60 800 VRB/04 RMK AO2 T01890111 $
03949KAQV AQV20160120142511901/20/16 14:25:31  5-MIN KAQV 202025Z AUTO VRB04KT 10SM SCT035 OVC050 19/11 A3005 260 60 800 VRB/04 RMK AO2 T01890111 $
03949KAQV AQV20160120143011901/20/16 14:30:31  5-MIN KAQV 202030Z AUTO VRB03KT 10SM BKN035 OVC050 19/11 A3004 260 60 800 VRB/03 RMK AO2 T01890111 $
03949KAQV AQV20160120143511901/20/16 14:35:31  5-MIN KAQV 202035Z AUTO 25004KT 10SM BKN033 OVC050 19/11 A3004 260 60 800 250/04 RMK AO2 T01890111 $
03949KAQV AQV20160120144011901/20/16 14:40:31  5-MIN KAQV 202040Z AUTO VRB04KT 10SM BKN031 OVC049 19/11 A3004 270 58 900 VRB/04 RMK AO2 T01940111 $
03949KAQV AQV20160120144512001/20/16 14:45:31  5-MIN KAQV 202045Z AUTO 36004KT 10SM BKN031 OVC049 20/11 A3004 270 56 1000 360/04 RMK AO2 T02000111 $
03949KAQV AQV20160120145012001/20/16 14:50:31  5-MIN KAQV 202050Z AUTO VRB03KT 10SM BKN031 20/11 A3003 270 56 1000 VRB/03 RMK AO2 SLP170 T02000111 $
03949KAQV AQV20160120145511901/20/16 14:55:31  5-MIN KAQV 202055Z AUTO VRB04KT 10SM BKN032 19/11 A3003 270 58 900 VRB/04 RMK AO2 SLP170 T01940111 $
03949KAQV AQV20160120150011301/20/16 15:00:31  5-MIN KAQV 202100Z AUTO VRB03KT 10SM SCT032 20/11 A3003 270 56 1000 VRB/03 RMK AO2 T02000111 $
03949KAQV AQV20160120150511301/20/16 15:05:31  5-MIN KAQV 202105Z AUTO 36005KT 10SM SCT032 20/11 A3003 270 56 1000 350/05 RMK AO2 T02000111 $
03949KAQV AQV20160120151011301/20/16 15:10:31  5-MIN KAQV 202110Z AUTO 01005KT 10SM BKN032 20/11 A3003 270 56 1000 360/05 RMK AO2 T02000111 $
03949KAQV AQV20160120151511301/20/16 15:15:31  5-MIN KAQV 202115Z AUTO 36005KT 10SM BKN032 21/11 A3003 270 54 1000 360/05 RMK AO2 T02060111 $
03949KAQV AQV20160120152011301/20/16 15:20:31  5-MIN KAQV 202120Z AUTO VRB03KT 10SM BKN032 20/11 A3003 280 56 1000 VRB/03 RMK AO2 T02000111 $
03949KAQV AQV20160120152511201/20/16 15:25:31  5-MIN KAQV 202125Z AUTO 00000KT 10SM BKN032 19/11 A3003 280 58 900 000/00 RMK AO2 T01940111 $
03949KAQV AQV20160120153011201/20/16 15:30:31  5-MIN KAQV 202130Z AUTO 00000KT 10SM SCT032 19/11 A3003 280 56 900 000/00 RMK AO2 T01940106 $
03949KAQV AQV20160120153511901/20/16 15:35:31  5-MIN KAQV 202135Z AUTO 00000KT 10SM SCT032 SCT040 19/11 A3003 280 58 900 000/00 RMK AO2 T01940111 $
03949KAQV AQV20160120154011201/20/16 15:40:31  5-MIN KAQV 202140Z AUTO 00000KT 10SM BKN036 19/11 A3003 280 60 800 000/00 RMK AO2 T01890111 $
03949KAQV AQV20160120154511201/20/16 15:45:31  5-MIN KAQV 202145Z AUTO 00000KT 10SM BKN036 19/11 A3003 280 60 800 000/00 RMK AO2 T01890111 $
03949KAQV AQV20160120155011901/20/16 15:50:31  5-MIN KAQV 202150Z AUTO 00000KT 10SM BKN038 19/12 A3003 270 62 800 000/00 RMK AO2 SLP168 T01890117 $
03949KAQV AQV20160120155511901/20/16 15:55:31  5-MIN KAQV 202155Z AUTO 00000KT 10SM BKN038 18/11 A3003 270 62 800 000/00 RMK AO2 SLP169 T01830111 $
03949KAQV AQV20160120160011201/20/16 16:00:31  5-MIN KAQV 202200Z AUTO 00000KT 10SM BKN038 18/11 A3003 270 62 800 000/00 RMK AO2 T01830111 $
03949KAQV AQV20160120160511201/20/16 16:05:31  5-MIN KAQV 202205Z AUTO 00000KT 10SM OVC038 19/11 A3003 280 60 800 000/00 RMK AO2 T01890111 $
03949KAQV AQV20160120161011201/20/16 16:10:31  5-MIN KAQV 202210Z AUTO 00000KT 10SM OVC040 18/11 A3003 270 62 800 000/00 RMK AO2 T01830111 $
03949KAQV AQV20160120161511201/20/16 16:15:31  5-MIN KAQV 202215Z AUTO 00000KT 10SM OVC040 19/11 A3003 270 60 800 000/00 RMK AO2 T01890111 $
03949KAQV AQV20160120162011201/20/16 16:20:31  5-MIN KAQV 202220Z AUTO 36003KT 10SM OVC040 19/12 A3003 270 62 800 350/03 RMK AO2 T01890117 $
03949KAQV AQV20160120162511201/20/16 16:25:31  5-MIN KAQV 202225Z AUTO 35003KT 10SM OVC040 19/11 A3003 270 60 800 350/03 RMK AO2 T01890111 $
03949KAQV AQV20160120163011201/20/16 16:30:31  5-MIN KAQV 202230Z AUTO 01005KT 10SM OVC043 19/11 A3003 270 60 800 360/05 RMK AO2 T01890111 $
03949KAQV AQV20160120163511201/20/16 16:35:31  5-MIN KAQV 202235Z AUTO 36005KT 10SM OVC043 18/11 A3003 270 62 800 360/05 RMK AO2 T01830111 $
03949KAQV AQV20160120164011201/20/16 16:40:31  5-MIN KAQV 202240Z AUTO 35004KT 10SM OVC043 18/11 A3004 270 62 800 350/04 RMK AO2 T01830111 $
03949KAQV AQV20160120164511201/20/16 16:45:31  5-MIN KAQV 202245Z AUTO 01003KT 10SM OVC043 18/11 A3004 270 64 700 010/03 RMK AO2 T01780111 $
03949KAQV AQV20160120165011901/20/16 16:50:31  5-MIN KAQV 202250Z AUTO 00000KT 10SM OVC043 18/11 A3004 260 64 700 000/00 RMK AO2 SLP172 T01780111 $
03949KAQV AQV20160120165511901/20/16 16:55:31  5-MIN KAQV 202255Z AUTO 00000KT 10SM OVC045 18/12 A3004 270 67 700 000/00 RMK AO2 SLP172 T01780117 $
03949KAQV AQV20160120170011901/20/16 17:00:31  5-MIN KAQV 202300Z AUTO 00000KT 10SM FEW034 OVC045 18/11 A3004 270 64 700 000/00 RMK AO2 T01780111 $
03949KAQV AQV20160120170511901/20/16 17:05:31  5-MIN KAQV 202305Z AUTO 04003KT 10SM SCT034 OVC045 18/12 A3004 260 67 700 030/03 RMK AO2 T01780117 $
03949KAQV AQV20160120171012601/20/16 17:10:31  5-MIN KAQV 202310Z AUTO 04003KT 10SM SCT034 BKN041 OVC047 18/11 A3004 260 64 700 040/03 RMK AO2 T01780111 $
03949KAQV AQV20160120171512601/20/16 17:15:31  5-MIN KAQV 202315Z AUTO 03004KT 10SM BKN034 BKN042 OVC050 17/11 A3004 270 67 600 030/04 RMK AO2 T01720111 $
03949KAQV AQV20160120172011901/20/16 17:20:31  5-MIN KAQV 202320Z AUTO 03005KT 10SM SCT034 BKN050 17/11 A3004 270 67 600 030/05 RMK AO2 T01720111 $
03949KAQV AQV20160120172511901/20/16 17:25:31  5-MIN KAQV 202325Z AUTO 02004KT 10SM SCT034 SCT050 17/11 A3004 260 69 600 020/04 RMK AO2 T01670111 $
03949KAQV AQV20160120173011901/20/16 17:30:31  5-MIN KAQV 202330Z AUTO 02004KT 10SM SCT034 SCT050 17/11 A3005 260 69 600 020/04 RMK AO2 T01670111 $
03949KAQV AQV20160120173511901/20/16 17:35:31  5-MIN KAQV 202335Z AUTO 04003KT 10SM FEW032 FEW050 16/11 A3005 260 72 500 040/03 RMK AO2 T01610111 $
03949KAQV AQV20160120174011201/20/16 17:40:31  5-MIN KAQV 202340Z AUTO 04003KT 10SM FEW050 16/11 A3005 260 72 500 040/03 RMK AO2 T01610111 $
03949KAQV AQV20160120174511201/20/16 17:45:31  5-MIN KAQV 202345Z AUTO 02003KT 10SM SCT050 16/11 A3005 260 74 400 020/03 RMK AO2 T01560111 $
03949KAQV AQV20160120175013701/20/16 17:50:31  5-MIN KAQV 202350Z AUTO 00000KT 10SM BKN055 16/11 A3005 260 74 400 000/00 RMK AO2 SLP176 T01560111 10206 20156 56028 $
03949KAQV AQV20160120175513701/20/16 17:55:31  5-MIN KAQV 202355Z AUTO 00000KT 10SM BKN055 16/11 A3005 260 74 400 000/00 RMK AO2 SLP176 T01560111 10206 20156 56028 $
03949KAQV AQV20160120180011201/20/16 18:00:31  5-MIN KAQV 210000Z AUTO 00000KT 10SM BKN060 15/11 A3005 260 77 400 000/00 RMK AO2 T01500111 $
03949KAQV AQV20160120180511201/20/16 18:05:31  5-MIN KAQV 210005Z AUTO 05003KT 10SM BKN055 15/11 A3005 260 77 400 040/03 RMK AO2 T01500111 $
03949KAQV AQV20160120181011201/20/16 18:10:31  5-MIN KAQV 210010Z AUTO 05004KT 10SM BKN060 15/11 A3005 260 74 400 050/04 RMK AO2 T01500106 $
03949KAQV AQV20160120181511201/20/16 18:15:31  5-MIN KAQV 210015Z AUTO VRB03KT 10SM BKN060 15/11 A3005 260 74 400 VRB/03 RMK AO2 T01500106 $
03949KAQV AQV20160120182011201/20/16 18:20:31  5-MIN KAQV 210020Z AUTO VRB03KT 10SM BKN060 14/11 A3005 260 77 300 VRB/03 RMK AO2 T01440106 $
03949KAQV AQV20160120182511201/20/16 18:25:31  5-MIN KAQV 210025Z AUTO VRB04KT 10SM BKN065 14/10 A3005 260 74 300 VRB/04 RMK AO2 T01440100 $
03949KAQV AQV20160120183011201/20/16 18:30:31  5-MIN KAQV 210030Z AUTO 07003KT 10SM BKN065 14/10 A3005 260 74 300 060/03 RMK AO2 T01440100 $
03949KAQV AQV20160120183511201/20/16 18:35:31  5-MIN KAQV 210035Z AUTO 07005KT 10SM BKN065 14/10 A3005 260 77 200 060/05 RMK AO2 T01390100 $
03949KAQV AQV20160120184011201/20/16 18:40:31  5-MIN KAQV 210040Z AUTO VRB03KT 10SM SCT060 14/09 A3005 260 74 200 VRB/03 RMK AO2 T01390094 $
03949KAQV AQV20160120184511201/20/16 18:45:31  5-MIN KAQV 210045Z AUTO 00000KT 10SM SCT060 14/09 A3005 260 74 200 000/00 RMK AO2 T01390094 $
03949KAQV AQV20160120185011901/20/16 18:50:31  5-MIN KAQV 210050Z AUTO 00000KT 10SM FEW065 13/09 A3004 260 77 200 000/00 RMK AO2 SLP174 T01330094 $
03949KAQV AQV20160120185511601/20/16 18:55:31  5-MIN KAQV 210055Z AUTO 00000KT 10SM CLR 13/09 A3004 260 77 200 000/00 RMK AO2 SLP173 T01330094 $
03949KAQV AQV20160120190010901/20/16 19:00:31  5-MIN KAQV 210100Z AUTO 00000KT 10SM CLR 13/09 A3004 270 80 100 000/00 RMK AO2 T01280094 $
03949KAQV AQV20160120190510901/20/16 19:05:31  5-MIN KAQV 210105Z AUTO 00000KT 10SM CLR 13/09 A3004 270 80 100 000/00 RMK AO2 T01280094 $
03949KAQV AQV20160120191010701/20/16 19:10:31  5-MIN KAQV 210110Z AUTO 00000KT 10SM CLR 12/09 A3004 270 83 0 000/00 RMK AO2 T01220094 $
03949KAQV AQV20160120191510701/20/16 19:15:31  5-MIN KAQV 210115Z AUTO 00000KT 10SM CLR 12/09 A3004 260 83 0 000/00 RMK AO2 T01220094 $
03949KAQV AQV20160120192010901/20/16 19:20:31  5-MIN KAQV 210120Z AUTO 00000KT 10SM CLR 13/09 A3004 260 80 100 000/00 RMK AO2 T01280094 $
03949KAQV AQV20160120192510701/20/16 19:25:31  5-MIN KAQV 210125Z AUTO 00000KT 10SM CLR 12/09 A3004 260 83 0 000/00 RMK AO2 T01220094 $
03949KAQV AQV20160120193010701/20/16 19:30:31  5-MIN KAQV 210130Z AUTO 00000KT 10SM CLR 12/09 A3004 260 83 0 000/00 RMK AO2 T01220094 $
03949KAQV AQV20160120193510601/20/16 19:35:31  5-MIN KAQV 210135Z AUTO 00000KT 9SM CLR 12/09 A3004 260 86 0 000/00 RMK AO2 T01170094 $
03949KAQV AQV20160120194010601/20/16 19:40:31  5-MIN KAQV 210140Z AUTO 00000KT 8SM CLR 12/09 A3004 260 86 0 000/00 RMK AO2 T01170094 $
03949KAQV AQV20160120194510601/20/16 19:45:31  5-MIN KAQV 210145Z AUTO 00000KT 8SM CLR 12/09 A3004 270 86 0 000/00 RMK AO2 T01170094 $
03949KAQV AQV20160120195011301/20/16 19:50:31  5-MIN KAQV 210150Z AUTO 00000KT 7SM CLR 11/09 A3004 270 89 0 000/00 RMK AO2 SLP172 T01110094 $
03949KAQV AQV20160120195511601/20/16 19:55:31  5-MIN KAQV 210155Z AUTO 00000KT 7SM CLR 11/09 A3004 270 89 -100 000/00 RMK AO2 SLP172 T01060089 $
03949KAQV AQV20160120200010901/20/16 20:00:31  5-MIN KAQV 210200Z AUTO 00000KT 7SM CLR 10/09 A3004 270 93 -200 000/00 RMK AO2 T01000089 $
03949KAQV AQV20160120200510901/20/16 20:05:31  5-MIN KAQV 210205Z AUTO 00000KT 7SM CLR 11/09 A3004 270 89 -100 000/00 RMK AO2 T01060089 $
03949KAQV AQV20160120201010901/20/16 20:10:31  5-MIN KAQV 210210Z AUTO 00000KT 7SM CLR 11/09 A3003 270 89 -100 000/00 RMK AO2 T01060089 $
03949KAQV AQV20160120201510901/20/16 20:15:31  5-MIN KAQV 210215Z AUTO 00000KT 7SM CLR 11/09 A3003 270 89 -100 000/00 RMK AO2 T01060089 $
03949KAQV AQV20160120202010901/20/16 20:20:31  5-MIN KAQV 210220Z AUTO 00000KT 8SM CLR 11/09 A3003 280 89 -100 000/00 RMK AO2 T01060089 $
03949KAQV AQV20160120202510901/20/16 20:25:31  5-MIN KAQV 210225Z AUTO 00000KT 8SM CLR 11/09 A3002 280 89 -100 000/00 RMK AO2 T01060089 $
03949KAQV AQV20160120203010601/20/16 20:30:31  5-MIN KAQV 210230Z AUTO 00000KT 9SM CLR 11/09 A3003 280 86 0 000/00 RMK AO2 T01110089 $
03949KAQV AQV20160120203510701/20/16 20:35:31  5-MIN KAQV 210235Z AUTO 00000KT 10SM CLR 11/09 A3004 270 86 0 000/00 RMK AO2 T01110089 $
03949KAQV AQV20160120204010701/20/16 20:40:31  5-MIN KAQV 210240Z AUTO 00000KT 10SM CLR 11/09 A3004 260 86 0 000/00 RMK AO2 T01110089 $
03949KAQV AQV20160120204511001/20/16 20:45:31  5-MIN KAQV 210245Z AUTO 00000KT 10SM CLR 11/09 A3004 270 89 -100 000/00 RMK AO2 T01060089 $
03949KAQV AQV20160120205012301/20/16 20:50:31  5-MIN KAQV 210250Z AUTO 00000KT 10SM CLR 11/09 A3003 270 89 -100 000/00 RMK AO2 SLP170 T01060089 53005 $
03949KAQV AQV20160123024511101/23/16 02:45:31  5-MIN KAQV 230845Z AUTO VRB03KT 10SM CLR M01/M03 A3022 100 81 -1700 VRB/03 RMK AO2 T10061033
03949KAQV AQV20160123025012401/23/16 02:50:31  5-MIN KAQV 230850Z AUTO 00000KT 10SM CLR M01/M03 A3022 100 81 -1700 000/00 RMK AO2 SLP236 T10061033 53003
03949KAQV AQV20160123025512401/23/16 02:55:31  5-MIN KAQV 230855Z AUTO 00000KT 10SM CLR M01/M03 A3022 100 81 -1700 000/00 RMK AO2 SLP236 T10061033 53003
03949KAQV AQV20160123030011101/23/16 03:00:31  5-MIN KAQV 230900Z AUTO 00000KT 10SM CLR M01/M03 A3022 100 81 -1700 000/00 RMK AO2 T10061033
03949KAQV AQV20160123030511101/23/16 03:05:31  5-MIN KAQV 230905Z AUTO 00000KT 10SM CLR M01/M03 A3022 100 81 -1700 000/00 RMK AO2 T10061033
03949KAQV AQV20160123031011101/23/16 03:10:31  5-MIN KAQV 230910Z AUTO 00000KT 10SM CLR M01/M03 A3022 100 85 -1800 000/00 RMK AO2 T10111033
03949KAQV AQV20160123031511101/23/16 03:15:31  5-MIN KAQV 230915Z AUTO 00000KT 10SM CLR M01/M03 A3022 100 85 -1800 000/00 RMK AO2 T10111033
03949KAQV AQV20160123032011101/23/16 03:20:31  5-MIN KAQV 230920Z AUTO VRB03KT 10SM CLR M01/M03 A3022 100 85 -1800 VRB/03 RMK AO2 T10111033
03949KAQV AQV20160123032511101/23/16 03:25:31  5-MIN KAQV 230925Z AUTO 32003KT 10SM CLR M01/M03 A3022 100 85 -1800 320/03 RMK AO2 T10111033
03949KAQV AQV20160123033011101/23/16 03:30:31  5-MIN KAQV 230930Z AUTO 00000KT 10SM CLR M01/M04 A3022 100 78 -1700 000/00 RMK AO2 T10061039
03949KAQV AQV20160123033511101/23/16 03:35:31  5-MIN KAQV 230935Z AUTO 00000KT 10SM CLR M01/M04 A3022 100 81 -1800 000/00 RMK AO2 T10111039
03949KAQV AQV20160123034011101/23/16 03:40:31  5-MIN KAQV 230940Z AUTO VRB03KT 10SM CLR M01/M04 A3022 100 81 -1800 VRB/03 RMK AO2 T10111039
03949KAQV AQV20160123034511101/23/16 03:45:31  5-MIN KAQV 230945Z AUTO VRB03KT 10SM CLR M01/M04 A3022 100 81 -1800 VRB/03 RMK AO2 T10111039
03949KAQV AQV20160123035011801/23/16 03:50:31  5-MIN KAQV 230950Z AUTO VRB03KT 10SM CLR M01/M04 A3022 100 81 -1800 VRB/03 RMK AO2 SLP238 T10111039
03949KAQV AQV20160123035511701/23/16 03:55:31  5-MIN KAQV 230955Z AUTO VRB03KT 10SM CLR M01/M04 A3023 90 81 -1800 VRB/03 RMK AO2 SLP239 T10111039
03949KAQV AQV20160123040011001/23/16 04:00:31  5-MIN KAQV 231000Z AUTO VRB03KT 10SM CLR M01/M04 A3023 90 81 -1800 VRB/03 RMK AO2 T10111039
03949KAQV AQV20160123040511001/23/16 04:05:31  5-MIN KAQV 231005Z AUTO VRB03KT 10SM CLR M01/M03 A3023 90 85 -1800 VRB/03 RMK AO2 T10111033
03949KAQV AQV20160123041011001/23/16 04:10:31  5-MIN KAQV 231010Z AUTO 00000KT 10SM CLR M01/M03 A3023 90 85 -1800 000/00 RMK AO2 T10111033
03949KAQV AQV20160123041511001/23/16 04:15:31  5-MIN KAQV 231015Z AUTO VRB03KT 10SM CLR M01/M03 A3023 90 85 -1800 VRB/03 RMK AO2 T10111033
03949KAQV AQV20160123042011001/23/16 04:20:31  5-MIN KAQV 231020Z AUTO VRB03KT 10SM CLR M02/M04 A3023 90 85 -1800 VRB/03 RMK AO2 T10171039
03949KAQV AQV20160123042511001/23/16 04:25:31  5-MIN KAQV 231025Z AUTO 00000KT 10SM CLR M01/M04 A3023 90 81 -1800 000/00 RMK AO2 T10111039
03949KAQV AQV20160123043011001/23/16 04:30:31  5-MIN KAQV 231030Z AUTO 00000KT 10SM CLR M02/M04 A3023 90 85 -1800 000/00 RMK AO2 T10171039
03949KAQV AQV20160123043511001/23/16 04:35:31  5-MIN KAQV 231035Z AUTO 00000KT 10SM CLR M02/M04 A3023 90 85 -1800 000/00 RMK AO2 T10171039
03949KAQV AQV20160123044011001/23/16 04:40:31  5-MIN KAQV 231040Z AUTO 00000KT 10SM CLR M02/M04 A3023 90 85 -1800 000/00 RMK AO2 T10171039
03949KAQV AQV20160123044511001/23/16 04:45:31  5-MIN KAQV 231045Z AUTO 00000KT 10SM CLR M02/M04 A3024 90 85 -1900 000/00 RMK AO2 T10171039
03949KAQV AQV20160123045011701/23/16 04:50:31  5-MIN KAQV 231050Z AUTO 00000KT 10SM CLR M02/M04 A3024 90 85 -1900 000/00 RMK AO2 SLP242 T10171039
03949KAQV AQV20160123045511701/23/16 04:55:31  5-MIN KAQV 231055Z AUTO 00000KT 10SM CLR M02/M04 A3024 90 85 -1900 000/00 RMK AO2 SLP242 T10171039
03949KAQV AQV20160123050011001/23/16 05:00:31  5-MIN KAQV 231100Z AUTO 00000KT 10SM CLR M02/M04 A3024 90 85 -1900 000/00 RMK AO2 T10171039
03949KAQV AQV20160123050511001/23/16 05:05:31  5-MIN KAQV 231105Z AUTO 00000KT 10SM CLR M02/M04 A3024 80 88 -1900 000/00 RMK AO2 T10221039
03949KAQV AQV20160123051011001/23/16 05:10:31  5-MIN KAQV 231110Z AUTO 00000KT 10SM CLR M02/M04 A3024 80 88 -1900 000/00 RMK AO2 T10221039
03949KAQV AQV20160123051511001/23/16 05:15:31  5-MIN KAQV 231115Z AUTO 00000KT 10SM CLR M02/M04 A3024 80 88 -1900 000/00 RMK AO2 T10221039
03949KAQV AQV20160123052011001/23/16 05:20:31  5-MIN KAQV 231120Z AUTO 00000KT 10SM CLR M02/M04 A3024 80 88 -1900 000/00 RMK AO2 T10221039
03949KAQV AQV20160123052511001/23/16 05:25:31  5-MIN KAQV 231125Z AUTO 00000KT 10SM CLR M02/M04 A3024 80 88 -1900 000/00 RMK AO2 T10221039
03949KAQV AQV20160123053011001/23/16 05:30:31  5-MIN KAQV 231130Z AUTO 00000KT 10SM CLR M02/M04 A3024 80 88 -1900 000/00 RMK AO2 T10221039
03949KAQV AQV20160123053511001/23/16 05:35:31  5-MIN KAQV 231135Z AUTO 00000KT 10SM CLR M02/M04 A3025 80 85 -1900 000/00 RMK AO2 T10171039
03949KAQV AQV20160123054011001/23/16 05:40:31  5-MIN KAQV 231140Z AUTO 00000KT 10SM CLR M02/M04 A3025 80 88 -1900 000/00 RMK AO2 T10221039
03949KAQV AQV20160123054511001/23/16 05:45:31  5-MIN KAQV 231145Z AUTO 00000KT 10SM CLR M02/M04 A3025 70 88 -1900 000/00 RMK AO2 T10221039
03949KAQV AQV20160123055013501/23/16 05:50:31  5-MIN KAQV 231150Z AUTO 00000KT 10SM CLR M02/M04 A3025 70 88 -1900 000/00 RMK AO2 SLP247 T10221039 10017 21022 52001
03949KAQV AQV20160123055513501/23/16 05:55:31  5-MIN KAQV 231155Z AUTO 35003KT 10SM CLR M02/M04 A3025 70 88 -1900 340/03 RMK AO2 SLP248 T10221039 10017 21022 52001
03949KAQV AQV20160123060011001/23/16 06:00:31  5-MIN KAQV 231200Z AUTO 00000KT 10SM CLR M02/M04 A3026 70 88 -1900 000/00 RMK AO2 T10221039
03949KAQV AQV20160123060511001/23/16 06:05:31  5-MIN KAQV 231205Z AUTO VRB03KT 10SM CLR M02/M04 A3026 70 88 -1900 VRB/03 RMK AO2 T10221039
03949KAQV AQV20160123061011001/23/16 06:10:31  5-MIN KAQV 231210Z AUTO 00000KT 10SM CLR M02/M04 A3026 60 88 -1900 000/00 RMK AO2 T10221039
03949KAQV AQV20160123061511001/23/16 06:15:31  5-MIN KAQV 231215Z AUTO 00000KT 10SM CLR M02/M04 A3026 60 88 -2000 000/00 RMK AO2 T10221039
03949KAQV AQV20160123062011001/23/16 06:20:31  5-MIN KAQV 231220Z AUTO 00000KT 10SM CLR M02/M04 A3026 60 88 -2000 000/00 RMK AO2 T10221039
03949KAQV AQV20160123062511001/23/16 06:25:31  5-MIN KAQV 231225Z AUTO 00000KT 10SM CLR M02/M04 A3027 60 88 -2000 000/00 RMK AO2 T10221039
03949KAQV AQV20160123063011001/23/16 06:30:31  5-MIN KAQV 231230Z AUTO 00000KT 10SM CLR M02/M04 A3027 60 88 -2000 000/00 RMK AO2 T10221039
03949KAQV AQV20160123063511001/23/16 06:35:31  5-MIN KAQV 231235Z AUTO 00000KT 10SM CLR M02/M04 A3027 60 88 -2000 000/00 RMK AO2 T10221039
03949KAQV AQV20160123064011001/23/16 06:40:31  5-MIN KAQV 231240Z AUTO 00000KT 10SM CLR M02/M04 A3027 50 88 -2000 000/00 RMK AO2 T10221039
03949KAQV AQV20160123064511001/23/16 06:45:31  5-MIN KAQV 231245Z AUTO 00000KT 10SM CLR M02/M04 A3027 50 88 -2000 000/00 RMK AO2 T10221039
03949KAQV AQV20160123065011701/23/16 06:50:31  5-MIN KAQV 231250Z AUTO 32003KT 10SM CLR M02/M04 A3027 50 88 -2000 320/03 RMK AO2 SLP254 T10221039
03949KAQV AQV20160123065511701/23/16 06:55:31  5-MIN KAQV 231255Z AUTO VRB03KT 10SM CLR M02/M04 A3027 50 88 -2000 VRB/03 RMK AO2 SLP255 T10221039
03949KAQV AQV20160123070011001/23/16 07:00:31  5-MIN KAQV 231300Z AUTO 00000KT 10SM CLR M02/M04 A3028 50 88 -2000 000/00 RMK AO2 T10221039
03949KAQV AQV20160123070511001/23/16 07:05:31  5-MIN KAQV 231305Z AUTO 00000KT 10SM CLR M02/M04 A3028 50 88 -2000 000/00 RMK AO2 T10221039
03949KAQV AQV20160123071011001/23/16 07:10:31  5-MIN KAQV 231310Z AUTO 00000KT 10SM CLR M02/M04 A3028 50 88 -2000 000/00 RMK AO2 T10221039
03949KAQV AQV20160123071511001/23/16 07:15:31  5-MIN KAQV 231315Z AUTO 00000KT 10SM CLR M02/M04 A3028 40 88 -2000 000/00 RMK AO2 T10221039
03949KAQV AQV20160123072011001/23/16 07:20:31  5-MIN KAQV 231320Z AUTO 00000KT 10SM CLR M02/M04 A3028 40 88 -2000 000/00 RMK AO2 T10221039
03949KAQV AQV20160123072511001/23/16 07:25:31  5-MIN KAQV 231325Z AUTO 34003KT 10SM CLR M02/M04 A3028 40 88 -2000 340/03 RMK AO2 T10221039
03949KAQV AQV20160123073011001/23/16 07:30:31  5-MIN KAQV 231330Z AUTO 00000KT 10SM CLR M02/M04 A3029 40 88 -2000 000/00 RMK AO2 T10221039
03949KAQV AQV20160123073511001/23/16 07:35:31  5-MIN KAQV 231335Z AUTO 00000KT 10SM CLR M02/M04 A3029 40 88 -2000 000/00 RMK AO2 T10221039
03949KAQV AQV20160123074011001/23/16 07:40:31  5-MIN KAQV 231340Z AUTO 00000KT 10SM CLR M02/M04 A3029 40 88 -2000 000/00 RMK AO2 T10221039
03949KAQV AQV20160123074511001/23/16 07:45:31  5-MIN KAQV 231345Z AUTO 35003KT 10SM CLR M02/M04 A3029 40 88 -2000 350/03 RMK AO2 T10221039
03949KAQV AQV20160123075011701/23/16 07:50:31  5-MIN KAQV 231350Z AUTO VRB03KT 10SM CLR M02/M04 A3029 40 85 -1900 VRB/03 RMK AO2 SLP260 T10171039
03949KAQV AQV20160123075511701/23/16 07:55:31  5-MIN KAQV 231355Z AUTO VRB03KT 10SM CLR M02/M04 A3029 40 85 -1900 VRB/03 RMK AO2 SLP260 T10171039
03949KAQV AQV20160123080011001/23/16 08:00:31  5-MIN KAQV 231400Z AUTO 34004KT 10SM CLR M01/M04 A3029 40 81 -1800 340/04 RMK AO2 T10111039
03949KAQV AQV20160123080511001/23/16 08:05:31  5-MIN KAQV 231405Z AUTO VRB03KT 10SM CLR M01/M04 A3029 40 81 -1800 VRB/03 RMK AO2 T10111039
03949KAQV AQV20160123081011001/23/16 08:10:31  5-MIN KAQV 231410Z AUTO VRB04KT 10SM CLR M01/M03 A3029 40 81 -1800 VRB/04 RMK AO2 T10061033
03949KAQV AQV20160123081511001/23/16 08:15:31  5-MIN KAQV 231415Z AUTO VRB03KT 10SM CLR M01/M03 A3029 40 81 -1800 VRB/03 RMK AO2 T10061033
03949KAQV AQV20160123082011001/23/16 08:20:31  5-MIN KAQV 231420Z AUTO 36004KT 10SM CLR M01/M03 A3029 30 81 -1800 360/04 RMK AO2 T10061033
03949KAQV AQV20160123082510901/23/16 08:25:31  5-MIN KAQV 231425Z AUTO VRB04KT 10SM CLR 00/M03 A3029 30 78 -1700 VRB/04 RMK AO2 T00001033
03949KAQV AQV20160123083010901/23/16 08:30:31  5-MIN KAQV 231430Z AUTO VRB04KT 10SM CLR 00/M03 A3029 40 78 -1700 VRB/04 RMK AO2 T00001033
03949KAQV AQV20160123083510901/23/16 08:35:31  5-MIN KAQV 231435Z AUTO 36005KT 10SM CLR 00/M03 A3029 40 78 -1700 350/05 RMK AO2 T00001033
03949KAQV AQV20160123084010901/23/16 08:40:31  5-MIN KAQV 231440Z AUTO 36005KT 10SM CLR 01/M03 A3029 40 75 -1600 350/05 RMK AO2 T00061033
03949KAQV AQV20160123084507501/23/16 08:45:31  5-MIN KAQV 231445Z AUTO 36007KT 330V030 10SM CLR 01/M03 
03949KAQV AQV20160124100010901/24/16 10:00:31  5-MIN KAQV 241600Z AUTO 13005KT 10SM CLR 06/M01 A3020 120 65 -900 130/05 RMK AO2 T00561006
03949KAQV AQV20160124100510801/24/16 10:05:31  5-MIN KAQV 241605Z AUTO VRB04KT 10SM CLR 06/00 A3020 120 65 -800 VRB/04 RMK AO2 T00610000
03949KAQV AQV20160124101010801/24/16 10:10:31  5-MIN KAQV 241610Z AUTO VRB04KT 10SM CLR 06/00 A3020 120 65 -800 VRB/04 RMK AO2 T00610000
03949KAQV AQV20160124101510801/24/16 10:15:31  5-MIN KAQV 241615Z AUTO VRB05KT 10SM CLR 07/01 A3020 120 65 -800 VRB/05 RMK AO2 T00670006
03949KAQV AQV20160124102010801/24/16 10:20:31  5-MIN KAQV 241620Z AUTO 00000KT 10SM CLR 07/01 A3020 120 65 -800 000/00 RMK AO2 T00670006
03949KAQV AQV20160124102510801/24/16 10:25:31  5-MIN KAQV 241625Z AUTO VRB03KT 10SM CLR 07/01 A3020 120 62 -700 VRB/03 RMK AO2 T00720006
03949KAQV AQV20160124103010801/24/16 10:30:31  5-MIN KAQV 241630Z AUTO 17005KT 10SM CLR 07/01 A3020 120 62 -700 170/05 RMK AO2 T00720006
03949KAQV AQV20160124103510801/24/16 10:35:31  5-MIN KAQV 241635Z AUTO 18006KT 10SM CLR 07/01 A3020 120 62 -700 170/06 RMK AO2 T00720006
03949KAQV AQV20160124104010801/24/16 10:40:31  5-MIN KAQV 241640Z AUTO 16006KT 10SM CLR 07/01 A3019 120 62 -700 150/06 RMK AO2 T00720006
03949KAQV AQV20160124104510801/24/16 10:45:31  5-MIN KAQV 241645Z AUTO 18006KT 10SM CLR 08/01 A3019 130 62 -600 180/06 RMK AO2 T00780011
03949KAQV AQV20160124105011501/24/16 10:50:31  5-MIN KAQV 241650Z AUTO 16005KT 10SM CLR 08/01 A3019 130 60 -600 150/05 RMK AO2 SLP225 T00830011
03949KAQV AQV20160124105511501/24/16 10:55:31  5-MIN KAQV 241655Z AUTO 16004KT 10SM CLR 08/01 A3019 130 60 -500 160/04 RMK AO2 SLP225 T00830011
03949KAQV AQV20160124110010801/24/16 11:00:31  5-MIN KAQV 241700Z AUTO VRB04KT 10SM CLR 08/01 A3018 130 60 -500 VRB/04 RMK AO2 T00830011
03949KAQV AQV20160124110510801/24/16 11:05:31  5-MIN KAQV 241705Z AUTO VRB06KT 10SM CLR 09/02 A3018 140 60 -500 VRB/06 RMK AO2 T00890017
03949KAQV AQV20160124111010801/24/16 11:10:31  5-MIN KAQV 241710Z AUTO VRB05KT 10SM CLR 09/02 A3018 140 58 -400 VRB/05 RMK AO2 T00940017
03949KAQV AQV20160124111510801/24/16 11:15:31  5-MIN KAQV 241715Z AUTO 16006KT 10SM CLR 10/02 A3018 140 56 -300 150/06 RMK AO2 T01000017
03949KAQV AQV20160124112010801/24/16 11:20:31  5-MIN KAQV 241720Z AUTO VRB05KT 10SM CLR 10/02 A3017 140 56 -300 VRB/05 RMK AO2 T01000017
03949KAQV AQV20160124112510801/24/16 11:25:31  5-MIN KAQV 241725Z AUTO VRB05KT 10SM CLR 10/02 A3017 140 58 -300 VRB/05 RMK AO2 T01000022
03949KAQV AQV20160124113012401/24/16 11:30:31  5-MIN KAQV 241730Z AUTO 17007KT 120V190 10SM CLR 11/02 A3017 150 56 -300 170/07 120V190 RMK AO2 T01060022
03949KAQV AQV20160124113510801/24/16 11:35:31  5-MIN KAQV 241735Z AUTO VRB03KT 10SM CLR 11/02 A3017 150 56 -300 VRB/03 RMK AO2 T01060022
03949KAQV AQV20160124114010801/24/16 11:40:31  5-MIN KAQV 241740Z AUTO VRB05KT 10SM CLR 11/03 A3016 160 56 -200 VRB/05 RMK AO2 T01110028
03949KAQV AQV20160124114510801/24/16 11:45:31  5-MIN KAQV 241745Z AUTO 17007KT 10SM CLR 11/02 A3016 160 54 -200 160/07 RMK AO2 T01110022
03949KAQV AQV20160124115013301/24/16 11:50:31  5-MIN KAQV 241750Z AUTO 15005KT 10SM CLR 11/03 A3015 160 56 -200 150/05 RMK AO2 SLP213 T01110028 10111 21017 50002
03949KAQV AQV20160124115513301/24/16 11:55:31  5-MIN KAQV 241755Z AUTO VRB04KT 10SM CLR 12/03 A3015 170 54 -100 VRB/04 RMK AO2 SLP211 T01170028 10117 21017 50002
03949KAQV AQV20160124120010501/24/16 12:00:31  5-MIN KAQV 241800Z AUTO VRB04KT 10SM CLR 12/03 A3014 170 54 0 VRB/04 RMK AO2 T01220033
03949KAQV AQV20160124120510501/24/16 12:05:31  5-MIN KAQV 241805Z AUTO 18006KT 10SM CLR 13/04 A3014 180 54 0 180/06 RMK AO2 T01280039
03949KAQV AQV20160124121012101/24/16 12:10:31  5-MIN KAQV 241810Z AUTO 19007KT 160V230 10SM CLR 12/04 A3014 180 56 0 190/07 160V230 RMK AO2 T01220039
03949KAQV AQV20160124121510501/24/16 12:15:31  5-MIN KAQV 241815Z AUTO VRB04KT 10SM CLR 12/03 A3013 180 54 0 VRB/04 RMK AO2 T01220033
03949KAQV AQV20160124122007001/24/16 12:20:31  5-MIN KAQV 241820Z AUTO M M M M /M RMK AO2 FZRANO $
03949KAQV AQV20160124122510001/24/16 12:25:31  5-MIN KAQV 241825Z AUTO VRB04KT 14/03 A3013 180 48 100 VRB/04 RMK AO2 T01390033 $
03949KAQV AQV20160124123010301/24/16 12:30:31  5-MIN KAQV 241830Z AUTO 14008KT 10SM 12/03 A3013 190 54 0 140/08 RMK AO2 T01220033 $
03949KAQV AQV20160124123512101/24/16 12:35:31  5-MIN KAQV 241835Z AUTO 17007KT 140V210 10SM 13/04 A3012 190 52 100 160/07 140V210 RMK AO2 T01330039 $
03949KAQV AQV20160124124010501/24/16 12:40:31  5-MIN KAQV 241840Z AUTO 19007KT 10SM 13/04 A3012 200 52 100 180/07 RMK AO2 T01330039 $
03949KAQV AQV20160124124510301/24/16 12:45:31  5-MIN KAQV 241845Z AUTO 19006KT 10SM 13/04 A3011 200 54 0 180/06 RMK AO2 T01280039 $
03949KAQV AQV20160124125012801/24/16 12:50:31  5-MIN KAQV 241850Z AUTO 18007KT 140V200 10SM 13/04 A3011 200 52 100 180/07 140V200 RMK AO2 SLP197 T01330039 $
03949KAQV AQV20160124125513201/24/16 12:55:31  5-MIN KAQV 241855Z AUTO 19007KT 150V210 10SM CLR 13/04 A3011 200 52 100 180/07 150V210 RMK AO2 SLP197 T01330039 $
03949KAQV AQV20160124130010901/24/16 13:00:31  5-MIN KAQV 241900Z AUTO VRB05KT 10SM CLR 13/04 A3011 210 52 100 VRB/05 RMK AO2 T01330039 $
03949KAQV AQV20160124130512501/24/16 13:05:31  5-MIN KAQV 241905Z AUTO 20007KT 160V240 10SM CLR 13/04 A3010 210 52 100 200/07 160V240 RMK AO2 T01330039 $
03949KAQV AQV20160124131012501/24/16 13:10:31  5-MIN KAQV 241910Z AUTO 19008KT 160V250 10SM CLR 13/04 A3010 210 52 100 190/08 160V250 RMK AO2 T01330039 $
03949KAQV AQV20160124131510901/24/16 13:15:31  5-MIN KAQV 241915Z AUTO VRB05KT 10SM CLR 13/04 A3010 210 52 100 VRB/05 RMK AO2 T01330039 $
03949KAQV AQV20160124132012501/24/16 13:20:31  5-MIN KAQV 241920Z AUTO 18007KT 140V220 10SM CLR 14/04 A3010 210 50 200 180/07 140V220 RMK AO2 T01390039 $
03949KAQV AQV20160124132510901/24/16 13:25:31  5-MIN KAQV 241925Z AUTO VRB04KT 10SM CLR 14/04 A3009 220 51 200 VRB/04 RMK AO2 T01440044 $
03949KAQV AQV20160124133009901/24/16 13:30:31  5-MIN KAQV 241930Z AUTO 10SM CLR 14/04 A3009 220 49 200 M /M RMK AO2 T01440039 $
03949KAQV AQV20160124133510901/24/16 13:35:31  5-MIN KAQV 241935Z AUTO 17007KT 10SM CLR 13/04 A3009 220 52 100 170/07 RMK AO2 T01330039 $
03949KAQV AQV20160124134010901/24/16 13:40:31  5-MIN KAQV 241940Z AUTO 19007KT 10SM CLR 14/04 A3009 220 52 200 190/07 RMK AO2 T01390044 $
03949KAQV AQV20160124134512501/24/16 13:45:31  5-MIN KAQV 241945Z AUTO 20007KT 160V240 10SM CLR 13/04 A3009 220 52 100 190/07 160V240 RMK AO2 T01330039 $
03949KAQV AQV20160124135013201/24/16 13:50:31  5-MIN KAQV 241950Z AUTO 18007KT 140V210 10SM CLR 14/04 A3008 230 50 200 170/07 140V210 RMK AO2 SLP189 T01390039 $
03949KAQV AQV20160124135511601/24/16 13:55:31  5-MIN KAQV 241955Z AUTO 17008KT 10SM CLR 14/04 A3008 230 50 200 160/08 RMK AO2 SLP188 T01390039 $
03949KAQV AQV20160124140011501/24/16 14:00:31  5-MIN KAQV 242000Z AUTO 17005G16KT 10SM CLR 14/04 A3008 230 50 200 170/05G16 RMK AO2 T01390039 $
03949KAQV AQV20160124140511501/24/16 14:05:31  5-MIN KAQV 242005Z AUTO 17009G16KT 10SM CLR 14/04 A3008 230 50 200 160/09G16 RMK AO2 T01390039 $
03949KAQV AQV20160124141011501/24/16 14:10:31  5-MIN KAQV 242010Z AUTO 17009G15KT 10SM CLR 14/04 A3008 230 50 200 160/09G15 RMK AO2 T01390039 $
03949KAQV AQV20160124141511501/24/16 14:15:31  5-MIN KAQV 242015Z AUTO 17008G15KT 10SM CLR 13/04 A3008 230 52 100 160/08G15 RMK AO2 T01330039 $
03949KAQV AQV20160124142013101/24/16 14:20:31  5-MIN KAQV 242020Z AUTO 15007G14KT 120V200 10SM CLR 14/04 A3007 240 52 200 150/07G14 120V200 RMK AO2 T01390044 $
03949KAQV AQV20160124142511501/24/16 14:25:31  5-MIN KAQV 242025Z AUTO 18007G15KT 10SM CLR 14/04 A3007 240 50 200 180/07G15 RMK AO2 T01390039 $
03949KAQV AQV20160124143011501/24/16 14:30:31  5-MIN KAQV 242030Z AUTO VRB06G15KT 10SM CLR 14/04 A3007 240 50 200 VRB/06G15 RMK AO2 T01390039 $
03949KAQV AQV20160124143510901/24/16 14:35:31  5-MIN KAQV 242035Z AUTO 17007KT 10SM CLR 14/04 A3007 240 50 200 170/07 RMK AO2 T01390039 $
03949KAQV AQV20160124144010901/24/16 14:40:31  5-MIN KAQV 242040Z AUTO 17008KT 10SM CLR 14/04 A3007 240 52 200 170/08 RMK AO2 T01390044 $
03949KAQV AQV20160124144510901/24/16 14:45:31  5-MIN KAQV 242045Z AUTO VRB06KT 10SM CLR 14/04 A3006 240 52 200 VRB/06 RMK AO2 T01390044 $
03949KAQV AQV20160124145011601/24/16 14:50:31  5-MIN KAQV 242050Z AUTO VRB06KT 10SM CLR 14/04 A3006 250 52 200 VRB/06 RMK AO2 SLP182 T01390044 $
03949KAQV AQV20160124145511601/24/16 14:55:31  5-MIN KAQV 242055Z AUTO VRB04KT 10SM CLR 14/04 A3006 250 52 200 VRB/04 RMK AO2 SLP182 T01390044 $
03949KAQV AQV20160124150012501/24/16 15:00:31  5-MIN KAQV 242100Z AUTO 17008KT 140V210 10SM CLR 14/04 A3006 250 51 300 170/08 140V210 RMK AO2 T01440044 $
03949KAQV AQV20160124150512501/24/16 15:05:31  5-MIN KAQV 242105Z AUTO 18008KT 140V220 10SM CLR 14/04 A3006 250 51 300 170/08 140V220 RMK AO2 T01440044 $
03949KAQV AQV20160124151012501/24/16 15:10:31  5-MIN KAQV 242110Z AUTO 18007KT 130V210 10SM CLR 14/04 A3005 250 51 300 170/07 130V210 RMK AO2 T01440044 $
03949KAQV AQV20160124151510901/24/16 15:15:31  5-MIN KAQV 242115Z AUTO VRB05KT 10SM CLR 15/04 A3005 260 49 400 VRB/05 RMK AO2 T01500044 $
03949KAQV AQV20160124152010901/24/16 15:20:31  5-MIN KAQV 242120Z AUTO 18007KT 10SM CLR 14/04 A3005 260 51 300 180/07 RMK AO2 T01440044 $
03949KAQV AQV20160124152510901/24/16 15:25:31  5-MIN KAQV 242125Z AUTO 17007KT 10SM CLR 14/04 A3005 260 51 300 170/07 RMK AO2 T01440044 $
03949KAQV AQV20160124153012501/24/16 15:30:31  5-MIN KAQV 242130Z AUTO 17008KT 130V210 10SM CLR 15/04 A3004 260 49 400 160/08 130V210 RMK AO2 T01500044 $
03949KAQV AQV20160124153511501/24/16 15:35:31  5-MIN KAQV 242135Z AUTO 16007G17KT 10SM CLR 14/04 A3004 260 51 300 160/07G17 RMK AO2 T01440044 $
03949KAQV AQV20160124154010901/24/16 15:40:31  5-MIN KAQV 242140Z AUTO 18010KT 10SM CLR 14/04 A3004 260 51 300 170/10 RMK AO2 T01440044 $
03949KAQV AQV20160124154510901/24/16 15:45:31  5-MIN KAQV 242145Z AUTO 18007KT 10SM CLR 14/04 A3004 260 51 300 180/07 RMK AO2 T01440044 $
03949KAQV AQV20160124155011601/24/16 15:50:31  5-MIN KAQV 242150Z AUTO VRB06KT 10SM CLR 14/05 A3004 260 53 300 VRB/06 RMK AO2 SLP174 T01440050 $
03949KAQV AQV20160124155511601/24/16 15:55:31  5-MIN KAQV 242155Z AUTO VRB06KT 10SM CLR 14/05 A3004 270 53 300 VRB/06 RMK AO2 SLP173 T01440050 $
03949KAQV AQV20160124160013101/24/16 16:00:31  5-MIN KAQV 242200Z AUTO 18008G16KT 150V220 10SM CLR 14/05 A3004 270 53 300 180/08G16 150V220 RMK AO2 T01440050 $
03949KAQV AQV20160124160511501/24/16 16:05:31  5-MIN KAQV 242205Z AUTO 19006G16KT 10SM CLR 14/05 A3003 270 53 300 180/06G16 RMK AO2 T01440050 $
03949KAQV AQV20160124161010901/24/16 16:10:31  5-MIN KAQV 242210Z AUTO VRB06KT 10SM CLR 14/05 A3003 270 53 300 VRB/06 RMK AO2 T01440050 $
03949KAQV AQV20160124161510901/24/16 16:15:31  5-MIN KAQV 242215Z AUTO 18008KT 10SM CLR 14/05 A3003 270 53 300 180/08 RMK AO2 T01440050 $
03949KAQV AQV20160124162010901/24/16 16:20:31  5-MIN KAQV 242220Z AUTO 18007KT 10SM CLR 14/05 A3003 280 55 200 180/07 RMK AO2 T01390050 $
03949KAQV AQV20160124162510901/24/16 16:25:31  5-MIN KAQV 242225Z AUTO 15007KT 10SM CLR 14/06 A3003 280 57 200 150/07 RMK AO2 T01390056 $
03949KAQV AQV20160124163010901/24/16 16:30:31  5-MIN KAQV 242230Z AUTO VRB05KT 10SM CLR 14/06 A3003 280 57 200 VRB/05 RMK AO2 T01390056 $
03949KAQV AQV20160124163510901/24/16 16:35:31  5-MIN KAQV 242235Z AUTO VRB05KT 10SM CLR 13/06 A3003 270 59 200 VRB/05 RMK AO2 T01330056 $
03949KAQV AQV20160124164010901/24/16 16:40:31  5-MIN KAQV 242240Z AUTO VRB04KT 10SM CLR 13/06 A3003 270 59 200 VRB/04 RMK AO2 T01330056 $
03949KAQV AQV20160124164510901/24/16 16:45:31  5-MIN KAQV 242245Z AUTO 18008KT 10SM CLR 13/06 A3003 280 59 200 170/08 RMK AO2 T01330056 $
03949KAQV AQV20160124165011601/24/16 16:50:31  5-MIN KAQV 242250Z AUTO 18007KT 10SM CLR 13/06 A3003 270 59 200 170/07 RMK AO2 SLP171 T01330056 $
03949KAQV AQV20160124165511601/24/16 16:55:31  5-MIN KAQV 242255Z AUTO 18007KT 10SM CLR 13/06 A3003 270 59 200 170/07 RMK AO2 SLP171 T01330056 $
03949KAQV AQV20160124170010901/24/16 17:00:31  5-MIN KAQV 242300Z AUTO 17005KT 10SM CLR 13/06 A3003 280 61 100 170/05 RMK AO2 T01280056 $
03949KAQV AQV20160124170510901/24/16 17:05:31  5-MIN KAQV 242305Z AUTO VRB05KT 10SM CLR 13/06 A3003 280 63 100 VRB/05 RMK AO2 T01280061 $
03949KAQV AQV20160124171010901/24/16 17:10:31  5-MIN KAQV 242310Z AUTO 17005KT 10SM CLR 13/06 A3002 280 63 100 160/05 RMK AO2 T01280061 $
03949KAQV AQV20160124171510901/24/16 17:15:31  5-MIN KAQV 242315Z AUTO VRB05KT 10SM CLR 13/06 A3002 280 63 100 VRB/05 RMK AO2 T01280061 $
03949KAQV AQV20160124172010901/24/16 17:20:31  5-MIN KAQV 242320Z AUTO 17006KT 10SM CLR 12/06 A3002 280 66 100 160/06 RMK AO2 T01220061 $
03949KAQV AQV20160124172510901/24/16 17:25:31  5-MIN KAQV 242325Z AUTO 18005KT 10SM CLR 12/06 A3002 280 66 100 170/05 RMK AO2 T01220061 $
03949KAQV AQV20160124173010901/24/16 17:30:31  5-MIN KAQV 242330Z AUTO 17005KT 10SM CLR 12/06 A3002 280 66 100 170/05 RMK AO2 T01220061 $
03949KAQV AQV20160124173510701/24/16 17:35:31  5-MIN KAQV 242335Z AUTO 16005KT 10SM CLR 12/06 A3002 290 68 0 150/05 RMK AO2 T01170061 $
03949KAQV AQV20160124174010701/24/16 17:40:31  5-MIN KAQV 242340Z AUTO 16003KT 10SM CLR 12/06 A3002 280 68 0 160/03 RMK AO2 T01170061 $
03949KAQV AQV20160124174510701/24/16 17:45:31  5-MIN KAQV 242345Z AUTO 16004KT 10SM CLR 12/06 A3002 290 68 0 160/04 RMK AO2 T01170061 $
03949KAQV AQV20160124175012601/24/16 17:50:31  5-MIN KAQV 242350Z AUTO 16004KT 10SM CLR 11/06 A3002 290 71 0 160/04 RMK AO2 SLP167 T01110061 10150 20111 $
03949KAQV AQV20160124175512601/24/16 17:55:31  5-MIN KAQV 242355Z AUTO 16004KT 10SM CLR 11/06 A3002 290 71 0 160/04 RMK AO2 SLP167 T01110061 10150 20111 $
03949KAQV AQV20160124180011001/24/16 18:00:31  5-MIN KAQV 250000Z AUTO 16003KT 10SM CLR 11/06 A3002 290 74 -100 160/03 RMK AO2 T01060061 $
03949KAQV AQV20160124180511001/24/16 18:05:31  5-MIN KAQV 250005Z AUTO 16003KT 10SM CLR 11/06 A3002 280 74 -100 160/03 RMK AO2 T01060061 $
03949KAQV AQV20160124181011301/24/16 18:10:31  5-MIN KAQV 250010Z AUTO 16004KT 10SM FEW031 11/06 A3002 280 74 -100 150/04 RMK AO2 T01060061 $
03949KAQV AQV20160124181511301/24/16 18:15:31  5-MIN KAQV 250015Z AUTO 15004KT 10SM FEW031 10/06 A3002 290 77 -200 150/04 RMK AO2 T01000061 $
03949KAQV AQV20160124182011301/24/16 18:20:31  5-MIN KAQV 250020Z AUTO 16004KT 10SM FEW031 10/06 A3002 290 77 -200 160/04 RMK AO2 T01000061 $
03949KAQV AQV20160124182511301/24/16 18:25:31  5-MIN KAQV 250025Z AUTO 16004KT 10SM FEW031 11/06 A3002 280 74 -100 160/04 RMK AO2 T01060061 $
03949KAQV AQV20160124183011301/24/16 18:30:31  5-MIN KAQV 250030Z AUTO 17004KT 10SM FEW031 11/06 A3002 280 74 -100 160/04 RMK AO2 T01060061 $
03949KAQV AQV20160124183511301/24/16 18:35:31  5-MIN KAQV 250035Z AUTO VRB04KT 10SM FEW031 10/06 A3002 280 77 -200 VRB/04 RMK AO2 T01000061 $
03949KAQV AQV20160124184011001/24/16 18:40:31  5-MIN KAQV 250040Z AUTO 17005KT 10SM CLR 10/06 A3002 280 77 -200 160/05 RMK AO2 T01000061 $
03949KAQV AQV20160124184511001/24/16 18:45:31  5-MIN KAQV 250045Z AUTO 16005KT 10SM CLR 10/06 A3002 280 77 -200 160/05 RMK AO2 T01000061 $
03949KAQV AQV20160124185011701/24/16 18:50:31  5-MIN KAQV 250050Z AUTO 16004KT 10SM CLR 10/06 A3003 280 77 -200 160/04 RMK AO2 SLP170 T01000061 $
03949KAQV AQV20160124185511701/24/16 18:55:31  5-MIN KAQV 250055Z AUTO 16006KT 10SM CLR 10/06 A3002 280 77 -200 160/06 RMK AO2 SLP169 T01000061 $
03949KAQV AQV20160124190011001/24/16 19:00:31  5-MIN KAQV 250100Z AUTO 17005KT 10SM CLR 10/06 A3003 280 77 -200 160/05 RMK AO2 T01000061 $
03949KAQV AQV20160124190511001/24/16 19:05:31  5-MIN KAQV 250105Z AUTO 16005KT 10SM CLR 10/06 A3003 280 77 -200 160/05 RMK AO2 T01000061 $
03949KAQV AQV20160124191011001/24/16 19:10:31  5-MIN KAQV 250110Z AUTO 17005KT 10SM CLR 09/06 A3003 280 79 -200 170/05 RMK AO2 T00940061 $
03949KAQV AQV20160124191511001/24/16 19:15:31  5-MIN KAQV 250115Z AUTO VRB05KT 10SM CLR 10/06 A3003 280 77 -200 VRB/05 RMK AO2 T01000061 $
03949KAQV AQV20160124192011001/24/16 19:20:31  5-MIN KAQV 250120Z AUTO 17006KT 10SM CLR 09/06 A3003 280 79 -200 160/06 RMK AO2 T00940061 $
03949KAQV AQV20160124192511001/24/16 19:25:31  5-MIN KAQV 250125Z AUTO 17005KT 10SM CLR 09/06 A3003 280 79 -200 170/05 RMK AO2 T00940061 $
03949KAQV AQV20160124193011001/24/16 19:30:31  5-MIN KAQV 250130Z AUTO 17005KT 10SM CLR 09/06 A3002 280 79 -200 160/05 RMK AO2 T00940061 $
03949KAQV AQV20160124193511001/24/16 19:35:31  5-MIN KAQV 250135Z AUTO 17007KT 10SM CLR 09/06 A3002 280 79 -200 160/07 RMK AO2 T00940061 $
03949KAQV AQV20160124194011001/24/16 19:40:31  5-MIN KAQV 250140Z AUTO 17007KT 10SM CLR 09/06 A3002 280 79 -200 160/07 RMK AO2 T00940061 $
03949KAQV AQV20160124194511001/24/16 19:45:31  5-MIN KAQV 250145Z AUTO 17005KT 10SM CLR 09/06 A3003 280 79 -200 160/05 RMK AO2 T00940061 $
03949KAQV AQV20160124195011701/24/16 19:50:31  5-MIN KAQV 250150Z AUTO 17005KT 10SM CLR 09/06 A3003 280 79 -200 160/05 RMK AO2 SLP170 T00940061 $
03949KAQV AQV20160124195511701/24/16 19:55:31  5-MIN KAQV 250155Z AUTO VRB05KT 10SM CLR 09/06 A3003 280 79 -200 VRB/05 RMK AO2 SLP170 T00940061 $
03949KAQV AQV20160124200011001/24/16 20:00:31  5-MIN KAQV 250200Z AUTO 16006KT 10SM CLR 09/06 A3003 280 79 -200 160/06 RMK AO2 T00940061 $
03949KAQV AQV20160124200511001/24/16 20:05:31  5-MIN KAQV 250205Z AUTO VRB06KT 10SM CLR 09/06 A3003 280 79 -200 VRB/06 RMK AO2 T00940061 $
03949KAQV AQV20160124201011001/24/16 20:10:31  5-MIN KAQV 250210Z AUTO 16005KT 10SM CLR 09/06 A3002 280 76 -200 160/05 RMK AO2 T00940056 $
03949KAQV AQV20160124201511001/24/16 20:15:31  5-MIN KAQV 250215Z AUTO 17007KT 10SM CLR 09/06 A3002 280 76 -200 160/07 RMK AO2 T00940056 $
03949KAQV AQV20160124202011001/24/16 20:20:31  5-MIN KAQV 250220Z AUTO 17005KT 10SM CLR 09/06 A3002 280 76 -200 160/05 RMK AO2 T00940056 $
03949KAQV AQV20160124202511001/24/16 20:25:31  5-MIN KAQV 250225Z AUTO 17006KT 10SM CLR 09/06 A3003 280 76 -200 160/06 RMK AO2 T00940056 $
03949KAQV AQV20160124203011001/24/16 20:30:31  5-MIN KAQV 250230Z AUTO 16005KT 10SM CLR 09/06 A3002 280 79 -300 150/05 RMK AO2 T00890056 $
03949KAQV AQV20160124203511001/24/16 20:35:31  5-MIN KAQV 250235Z AUTO 17006KT 10SM CLR 09/06 A3002 280 79 -300 160/06 RMK AO2 T00890056 $
03949KAQV AQV20160124204011001/24/16 20:40:31  5-MIN KAQV 250240Z AUTO VRB04KT 10SM CLR 09/06 A3002 290 79 -300 VRB/04 RMK AO2 T00890056 $
03949KAQV AQV20160124204511001/24/16 20:45:31  5-MIN KAQV 250245Z AUTO 17006KT 10SM CLR 09/06 A3002 290 79 -300 160/06 RMK AO2 T00890056 $
03949KAQV AQV20160124205012301/24/16 20:50:31  5-MIN KAQV 250250Z AUTO 16004KT 10SM CLR 09/06 A3002 280 79 -300 160/04 RMK AO2 SLP168 T00890056 56016 $
03949KAQV AQV20160124205512301/24/16 20:55:31  5-MIN KAQV 250255Z AUTO 16006KT 10SM CLR 09/06 A3002 280 79 -300 160/06 RMK AO2 SLP168 T00890056 56016 $
03949KAQV AQV20160124210011001/24/16 21:00:31  5-MIN KAQV 250300Z AUTO 16006KT 10SM CLR 09/06 A3002 290 79 -300 160/06 RMK AO2 T00890056 $
03949KAQV AQV20160124210511001/24/16 21:05:31  5-MIN KAQV 250305Z AUTO 16006KT 10SM CLR 09/06 A3002 290 79 -300 150/06 RMK AO2 T00890056 $
03949KAQV AQV20160124211011001/24/16 21:10:31  5-MIN KAQV 250310Z AUTO 16005KT 10SM CLR 09/06 A3001 290 79 -300 150/05 RMK AO2 T00890056 $
03949KAQV AQV20160124211511001/24/16 21:15:31  5-MIN KAQV 250315Z AUTO 16006KT 10SM CLR 09/06 A3001 290 79 -300 150/06 RMK AO2 T00890056 $
03949KAQV AQV20160124212011001/24/16 21:20:31  5-MIN KAQV 250320Z AUTO 17005KT 10SM CLR 09/06 A3001 290 79 -300 160/05 RMK AO2 T00890056 $
03949KAQV AQV20160124212510801/24/16 21:25:31  5-MIN KAQV 250325Z AUTO 16005KT 10SM CLR 09/06 A3001 290 79 -300 150/05 RMK AO2 T00890056
03949KAQV AQV20160124213011101/24/16 21:30:31  5-MIN KAQV 250330Z AUTO 16005KT 10SM FEW032 09/06 A3002 290 79 -300 160/05 RMK AO2 T00890056
03949KAQV AQV20160124213511101/24/16 21:35:31  5-MIN KAQV 250335Z AUTO 15005KT 10SM FEW032 08/06 A3002 290 82 -400 150/05 RMK AO2 T00830056
03949KAQV AQV20160124214011101/24/16 21:40:31  5-MIN KAQV 250340Z AUTO 16005KT 10SM FEW032 08/06 A3002 290 82 -400 150/05 RMK AO2 T00830056
03949KAQV AQV20160124214511101/24/16 21:45:31  5-MIN KAQV 250345Z AUTO VRB05KT 10SM FEW032 08/06 A3002 290 82 -400 VRB/05 RMK AO2 T00830056
03949KAQV AQV20160124215011801/24/16 21:50:31  5-MIN KAQV 250350Z AUTO 17004KT 10SM FEW032 08/06 A3002 290 82 -400 160/04 RMK AO2 SLP166 T00830056
03949KAQV AQV20160124215511801/24/16 21:55:31  5-MIN KAQV 250355Z AUTO 17005KT 10SM FEW032 08/06 A3002 290 82 -400 160/05 RMK AO2 SLP166 T00830056
03949KAQV AQV20160124223510801/24/16 22:35:31  5-MIN KAQV 250435Z AUTO 16003KT 10SM CLR 08/06 A3001 300 86 -300 160/03 RMK AO2 T00830061
03949KAQV AQV20160124224010801/24/16 22:40:31  5-MIN KAQV 250440Z AUTO 16005KT 10SM CLR 09/06 A3000 300 83 -300 150/05 RMK AO2 T00890061
03949KAQV AQV20160124224510801/24/16 22:45:31  5-MIN KAQV 250445Z AUTO 17005KT 10SM CLR 09/06 A3000 300 83 -300 160/05 RMK AO2 T00890061
03949KAQV AQV20160124225011501/24/16 22:50:31  5-MIN KAQV 250450Z AUTO VRB05KT 10SM CLR 08/06 A3000 300 86 -300 VRB/05 RMK AO2 SLP161 T00830061
03949KAQV AQV20160124225511501/24/16 22:55:31  5-MIN KAQV 250455Z AUTO 16007KT 10SM CLR 08/06 A3000 300 86 -300 160/07 RMK AO2 SLP159 T00830061
03949KAQV AQV20160124230010801/24/16 23:00:31  5-MIN KAQV 250500Z AUTO 16006KT 10SM CLR 08/06 A3000 310 86 -300 160/06 RMK AO2 T00830061
03949KAQV AQV20160124230510801/24/16 23:05:31  5-MIN KAQV 250505Z AUTO 16006KT 10SM CLR 08/06 A3000 310 86 -300 160/06 RMK AO2 T00830061
03949KAQV AQV20160124231010801/24/16 23:10:31  5-MIN KAQV 250510Z AUTO 16007KT 10SM CLR 08/06 A3000 310 86 -300 160/07 RMK AO2 T00830061
03949KAQV AQV20160124231510801/24/16 23:15:31  5-MIN KAQV 250515Z AUTO 17004KT 10SM CLR 08/06 A3000 300 86 -300 170/04 RMK AO2 T00830061
03949KAQV AQV20160124232010801/24/16 23:20:31  5-MIN KAQV 250520Z AUTO 17005KT 10SM CLR 08/06 A3000 300 86 -300 170/05 RMK AO2 T00830061
03949KAQV AQV20160124232510801/24/16 23:25:31  5-MIN KAQV 250525Z AUTO 17006KT 10SM CLR 08/06 A3000 300 86 -300 160/06 RMK AO2 T00830061
03949KAQV AQV20160124233010801/24/16 23:30:31  5-MIN KAQV 250530Z AUTO 16004KT 10SM CLR 08/06 A3000 300 86 -300 150/04 RMK AO2 T00830061
03949KAQV AQV20160124233510801/24/16 23:35:31  5-MIN KAQV 250535Z AUTO VRB05KT 10SM CLR 08/06 A3000 300 86 -300 VRB/05 RMK AO2 T00830061
03949KAQV AQV20160124234010801/24/16 23:40:31  5-MIN KAQV 250540Z AUTO 16004KT 10SM CLR 08/06 A3000 310 86 -300 160/04 RMK AO2 T00830061
03949KAQV AQV20160124234510801/24/16 23:45:31  5-MIN KAQV 250545Z AUTO VRB04KT 10SM CLR 08/06 A2999 310 86 -300 VRB/04 RMK AO2 T00830061
03949KAQV AQV20160124235014301/24/16 23:50:31  5-MIN KAQV 250550Z AUTO 16004KT 10SM CLR 08/06 A2999 310 86 -300 150/04 RMK AO2 SLP155 T00830061 10111 20083 401501022 50002
03949KAQV AQV20160124235514301/24/16 23:55:31  5-MIN KAQV 250555Z AUTO 16005KT 10SM CLR 08/06 A2999 320 86 -300 160/05 RMK AO2 SLP154 T00830061 10111 20083 401501022 50002
03949KAQV AQV20160125000010801/25/16 00:00:31  5-MIN KAQV 250600Z AUTO 15004KT 10SM CLR 08/06 A2998 320 86 -300 150/04 RMK AO2 T00830061
03949KAQV AQV20160125000510801/25/16 00:05:31  5-MIN KAQV 250605Z AUTO 16005KT 10SM CLR 08/06 A2999 310 86 -300 150/05 RMK AO2 T00830061
03949KAQV AQV20160125001010801/25/16 00:10:31  5-MIN KAQV 250610Z AUTO 16005KT 10SM CLR 08/06 A2999 310 86 -300 160/05 RMK AO2 T00830061
03949KAQV AQV20160125001510801/25/16 00:15:31  5-MIN KAQV 250615Z AUTO VRB03KT 10SM CLR 08/06 A2999 310 86 -300 VRB/03 RMK AO2 T00830061
03949KAQV AQV20160125002010801/25/16 00:20:31  5-MIN KAQV 250620Z AUTO 16004KT 10SM CLR 08/06 A3000 310 89 -400 150/04 RMK AO2 T00780061
03949KAQV AQV20160125002511101/25/16 00:25:31  5-MIN KAQV 250625Z AUTO 16003KT 10SM FEW040 08/06 A3000 310 86 -300 160/03 RMK AO2 T00830061
03949KAQV AQV20160125003011101/25/16 00:30:31  5-MIN KAQV 250630Z AUTO 17003KT 10SM SCT040 08/06 A2999 310 89 -400 170/03 RMK AO2 T00780061
03949KAQV AQV20160125003511101/25/16 00:35:31  5-MIN KAQV 250635Z AUTO 18003KT 10SM SCT040 08/06 A3000 300 89 -400 170/03 RMK AO2 T00780061
03949KAQV AQV20160125004011101/25/16 00:40:31  5-MIN KAQV 250640Z AUTO 17003KT 10SM BKN040 08/06 A3000 310 89 -400 160/03 RMK AO2 T00780061
03949KAQV AQV20160125004511101/25/16 00:45:31  5-MIN KAQV 250645Z AUTO 16004KT 10SM BKN040 08/06 A2999 310 89 -400 160/04 RMK AO2 T00780061
03949KAQV AQV20160125005011801/25/16 00:50:31  5-MIN KAQV 250650Z AUTO 16003KT 10SM BKN040 08/06 A3000 310 86 -300 150/03 RMK AO2 SLP158 T00830061
03949KAQV AQV20160125005511801/25/16 00:55:31  5-MIN KAQV 250655Z AUTO 17005KT 10SM BKN040 08/06 A2999 310 86 -300 160/05 RMK AO2 SLP157 T00830061
03949KAQV AQV20160125010011101/25/16 01:00:31  5-MIN KAQV 250700Z AUTO 16004KT 10SM BKN040 08/06 A2999 310 89 -400 160/04 RMK AO2 T00780061
03949KAQV AQV20160125010511101/25/16 01:05:31  5-MIN KAQV 250705Z AUTO VRB04KT 10SM BKN040 08/07 A2999 310 89 -300 VRB/04 RMK AO2 T00830067
03949KAQV AQV20160125011011801/25/16 01:10:31  5-MIN KAQV 250710Z AUTO VRB04KT 10SM FEW011 BKN041 08/07 A2998 320 93 -400 VRB/04 RMK AO2 T00780067
03949KAQV AQV20160125011511801/25/16 01:15:31  5-MIN KAQV 250715Z AUTO 15003KT 10SM SCT011 BKN041 08/07 A2998 320 93 -400 140/03 RMK AO2 T00780067
03949KAQV AQV20160125012011801/25/16 01:20:31  5-MIN KAQV 250720Z AUTO VRB03KT 10SM FEW011 OVC043 08/07 A2998 320 89 -300 VRB/03 RMK AO2 T00830067
03949KAQV AQV20160125012511801/25/16 01:25:31  5-MIN KAQV 250725Z AUTO 19003KT 10SM FEW011 OVC043 08/07 A2998 320 89 -300 180/03 RMK AO2 T00830067
03949KAQV AQV20160125013011801/25/16 01:30:31  5-MIN KAQV 250730Z AUTO 16004KT 10SM FEW011 OVC043 08/07 A2998 320 89 -300 160/04 RMK AO2 T00830067
03949KAQV AQV20160125013511801/25/16 01:35:31  5-MIN KAQV 250735Z AUTO VRB04KT 10SM FEW011 OVC043 08/07 A2998 320 89 -300 VRB/04 RMK AO2 T00830067
03949KAQV AQV20160125014011101/25/16 01:40:31  5-MIN KAQV 250740Z AUTO 18003KT 10SM OVC043 08/07 A2998 320 93 -300 180/03 RMK AO2 T00830072
03949KAQV AQV20160125014511101/25/16 01:45:31  5-MIN KAQV 250745Z AUTO 17004KT 10SM OVC043 08/07 A2998 320 93 -300 160/04 RMK AO2 T00830072
03949KAQV AQV20160125015011801/25/16 01:50:31  5-MIN KAQV 250750Z AUTO 17005KT 10SM OVC043 09/07 A2998 320 89 -200 160/05 RMK AO2 SLP153 T00890072
03949KAQV AQV20160125015511801/25/16 01:55:31  5-MIN KAQV 250755Z AUTO 16004KT 10SM OVC043 09/07 A2998 320 89 -200 160/04 RMK AO2 SLP153 T00890072
03949KAQV AQV20160125020011101/25/16 02:00:31  5-MIN KAQV 250800Z AUTO 17005KT 10SM OVC045 09/07 A2998 320 89 -200 170/05 RMK AO2 T00890072
03949KAQV AQV20160125020511101/25/16 02:05:31  5-MIN KAQV 250805Z AUTO 16004KT 10SM OVC045 09/07 A2998 320 89 -200 150/04 RMK AO2 T00890072
03949KAQV AQV20160125021011101/25/16 02:10:31  5-MIN KAQV 250810Z AUTO 16004KT 10SM OVC045 09/07 A2997 330 89 -200 160/04 RMK AO2 T00890072
03949KAQV AQV20160125021511101/25/16 02:15:31  5-MIN KAQV 250815Z AUTO 15005KT 10SM OVC047 09/08 A2997 330 89 -200 150/05 RMK AO2 T00940078
03949KAQV AQV20160125022011101/25/16 02:20:31  5-MIN KAQV 250820Z AUTO VRB04KT 10SM OVC047 09/08 A2997 330 89 -200 VRB/04 RMK AO2 T00940078
03949KAQV AQV20160125022511101/25/16 02:25:31  5-MIN KAQV 250825Z AUTO 16005KT 10SM OVC047 09/08 A2997 330 89 -200 150/05 RMK AO2 T00940078
03949KAQV AQV20160125023011101/25/16 02:30:31  5-MIN KAQV 250830Z AUTO 16005KT 10SM OVC047 09/08 A2997 330 89 -200 160/05 RMK AO2 T00940078
03949KAQV AQV20160125023511101/25/16 02:35:31  5-MIN KAQV 250835Z AUTO 16004KT 10SM OVC047 09/08 A2997 330 89 -200 160/04 RMK AO2 T00940078
03949KAQV AQV20160125024011101/25/16 02:40:31  5-MIN KAQV 250840Z AUTO 15005KT 10SM OVC047 09/08 A2996 340 89 -200 150/05 RMK AO2 T00940078
03949KAQV AQV20160125024511101/25/16 02:45:31  5-MIN KAQV 250845Z AUTO VRB05KT 10SM OVC047 09/08 A2996 340 89 -200 VRB/05 RMK AO2 T00940078
03949KAQV AQV20160125025012401/25/16 02:50:31  5-MIN KAQV 250850Z AUTO VRB05KT 10SM OVC048 09/08 A2995 340 89 -100 VRB/05 RMK AO2 SLP144 T00940078 58011
03949KAQV AQV20160125025512401/25/16 02:55:31  5-MIN KAQV 250855Z AUTO 16005KT 10SM OVC048 09/08 A2995 350 89 -100 150/05 RMK AO2 SLP143 T00940078 58011
03949KAQV AQV20160125030011101/25/16 03:00:31  5-MIN KAQV 250900Z AUTO 15004KT 10SM OVC048 09/08 A2995 350 89 -100 150/04 RMK AO2 T00940078
03949KAQV AQV20160125030511101/25/16 03:05:31  5-MIN KAQV 250905Z AUTO VRB04KT 10SM OVC048 09/08 A2995 350 89 -100 VRB/04 RMK AO2 T00940078
03949KAQV AQV20160125031011101/25/16 03:10:31  5-MIN KAQV 250910Z AUTO 15004KT 10SM OVC048 09/08 A2995 350 93 -100 150/04 RMK AO2 T00940083
03949KAQV AQV20160125031511101/25/16 03:15:31  5-MIN KAQV 250915Z AUTO VRB03KT 10SM OVC049 10/08 A2995 350 89 -100 VRB/03 RMK AO2 T01000083
03949KAQV AQV20160125032011101/25/16 03:20:31  5-MIN KAQV 250920Z AUTO 15003KT 10SM OVC049 10/08 A2995 350 89 -100 150/03 RMK AO2 T01000083
03949KAQV AQV20160125032511101/25/16 03:25:31  5-MIN KAQV 250925Z AUTO 16004KT 10SM OVC049 10/08 A2995 350 89 -100 160/04 RMK AO2 T01000083
03949KAQV AQV20160125033011101/25/16 03:30:31  5-MIN KAQV 250930Z AUTO VRB04KT 10SM OVC049 10/08 A2995 350 89 -100 VRB/04 RMK AO2 T01000083
03949KAQV AQV20160125033511101/25/16 03:35:31  5-MIN KAQV 250935Z AUTO 16004KT 10SM OVC049 10/08 A2995 350 89 -100 160/04 RMK AO2 T01000083
03949KAQV AQV20160125034011101/25/16 03:40:31  5-MIN KAQV 250940Z AUTO 16006KT 10SM OVC049 10/08 A2995 350 89 -100 160/06 RMK AO2 T01000083
03949KAQV AQV20160125034511101/25/16 03:45:31  5-MIN KAQV 250945Z AUTO 16004KT 10SM OVC049 10/08 A2995 350 89 -100 150/04 RMK AO2 T01000083
03949KAQV AQV20160125035011801/25/16 03:50:31  5-MIN KAQV 250950Z AUTO 16004KT 10SM BKN049 10/08 A2995 350 89 -100 160/04 RMK AO2 SLP141 T01000083
03949KAQV AQV20160125035511801/25/16 03:55:31  5-MIN KAQV 250955Z AUTO 16005KT 10SM BKN049 10/08 A2995 350 89 -100 150/05 RMK AO2 SLP141 T01000083
03949KAQV AQV20160125040011101/25/16 04:00:31  5-MIN KAQV 251000Z AUTO 16005KT 10SM BKN049 10/08 A2995 350 89 -100 150/05 RMK AO2 T01000083
03949KAQV AQV20160125040511101/25/16 04:05:31  5-MIN KAQV 251005Z AUTO 16004KT 10SM BKN049 10/08 A2995 350 89 -100 160/04 RMK AO2 T01000083
03949KAQV AQV20160125041011101/25/16 04:10:31  5-MIN KAQV 251010Z AUTO 16004KT 10SM BKN049 10/08 A2994 360 89 -100 160/04 RMK AO2 T01000083
03949KAQV AQV20160125041511101/25/16 04:15:31  5-MIN KAQV 251015Z AUTO 15003KT 10SM SCT049 10/08 A2994 360 89 -100 150/03 RMK AO2 T01000083
03949KAQV AQV20160125042011101/25/16 04:20:31  5-MIN KAQV 251020Z AUTO VRB04KT 10SM FEW050 10/08 A2994 360 89 -100 VRB/04 RMK AO2 T01000083
03949KAQV AQV20160125042511101/25/16 04:25:31  5-MIN KAQV 251025Z AUTO VRB04KT 10SM SCT050 09/08 A2994 360 93 -100 VRB/04 RMK AO2 T00940083
03949KAQV AQV20160125043011101/25/16 04:30:31  5-MIN KAQV 251030Z AUTO VRB04KT 10SM SCT050 09/08 A2994 360 93 -100 VRB/04 RMK AO2 T00940083
03949KAQV AQV20160125043511101/25/16 04:35:31  5-MIN KAQV 251035Z AUTO 15004KT 10SM SCT050 09/08 A2993 360 93 -100 150/04 RMK AO2 T00940083
03949KAQV AQV20160125044011101/25/16 04:40:31  5-MIN KAQV 251040Z AUTO VRB03KT 10SM SCT050 09/08 A2993 370 93 -100 VRB/03 RMK AO2 T00940083
03949KAQV AQV20160125044511101/25/16 04:45:31  5-MIN KAQV 251045Z AUTO 15003KT 10SM SCT049 09/08 A2993 370 93 -100 150/03 RMK AO2 T00940083
03949KAQV AQV20160125045011701/25/16 04:50:31  5-MIN KAQV 251050Z AUTO VRB04KT 9SM SCT049 09/08 A2993 370 93 -100 VRB/04 RMK AO2 SLP136 T00940083
03949KAQV AQV20160125045511701/25/16 04:55:31  5-MIN KAQV 251055Z AUTO VRB03KT 9SM FEW050 09/08 A2993 370 93 -100 VRB/03 RMK AO2 SLP136 T00940083
03949KAQV AQV20160125050011001/25/16 05:00:31  5-MIN KAQV 251100Z AUTO 14004KT 9SM FEW050 09/08 A2993 370 93 -100 140/04 RMK AO2 T00940083
03949KAQV AQV20160125050511001/25/16 05:05:31  5-MIN KAQV 251105Z AUTO VRB04KT 9SM FEW049 09/08 A2993 370 93 -100 VRB/04 RMK AO2 T00940083
03949KAQV AQV20160125051011001/25/16 05:10:31  5-MIN KAQV 251110Z AUTO VRB03KT 9SM FEW049 09/08 A2993 370 93 -100 VRB/03 RMK AO2 T00940083
03949KAQV AQV20160125051510701/25/16 05:15:31  5-MIN KAQV 251115Z AUTO 15004KT 9SM CLR 09/08 A2993 370 93 -100 150/04 RMK AO2 T00940083
03949KAQV AQV20160125052010701/25/16 05:20:31  5-MIN KAQV 251120Z AUTO VRB04KT 8SM CLR 09/08 A2993 370 93 -100 VRB/04 RMK AO2 T00940083
03949KAQV AQV20160125052510701/25/16 05:25:31  5-MIN KAQV 251125Z AUTO VRB04KT 8SM CLR 09/08 A2993 370 93 -100 VRB/04 RMK AO2 T00940083
03949KAQV AQV20160125053011001/25/16 05:30:31  5-MIN KAQV 251130Z AUTO VRB03KT 8SM FEW048 09/08 A2994 360 93 -100 VRB/03 RMK AO2 T00940083
03949KAQV AQV20160125053511001/25/16 05:35:31  5-MIN KAQV 251135Z AUTO VRB03KT 8SM SCT048 09/08 A2994 360 93 -100 VRB/03 RMK AO2 T00940083
03949KAQV AQV20160125054011001/25/16 05:40:31  5-MIN KAQV 251140Z AUTO 15003KT 8SM SCT048 09/08 A2994 360 93 -100 150/03 RMK AO2 T00940083
03949KAQV AQV20160125054511001/25/16 05:45:31  5-MIN KAQV 251145Z AUTO VRB03KT 8SM SCT048 09/08 A2994 360 93 -100 VRB/03 RMK AO2 T00940083
03949KAQV AQV20160125055013501/25/16 05:50:31  5-MIN KAQV 251150Z AUTO 16003KT 8SM BKN048 09/09 A2995 350 96 -100 160/03 RMK AO2 SLP140 T00940089 10100 20078 58011
03949KAQV AQV20160125055507401/25/16 05:55:31  5-MIN KAQV 251155Z AUTO 00000KT 8SM BKN048 09/09 A2994 
03949KAQV AQV20160125094511701/25/16 09:45:31  5-MIN KAQV 251545Z AUTO VRB05KT 10SM FEW048 BKN060 16/12 A3001 300 80 500 VRB/05 RMK AO2 T01560122
03949KAQV AQV20160125095012401/25/16 09:50:31  5-MIN KAQV 251550Z AUTO 18006KT 10SM SCT046 BKN060 16/12 A3001 300 80 500 170/06 RMK AO2 SLP162 T01560122
03949KAQV AQV20160125095512401/25/16 09:55:31  5-MIN KAQV 251555Z AUTO VRB05KT 10SM SCT044 OVC060 16/12 A3001 300 77 500 VRB/05 RMK AO2 SLP162 T01610122
03949KAQV AQV20160125100011701/25/16 10:00:31  5-MIN KAQV 251600Z AUTO 19005KT 10SM SCT044 OVC060 16/12 A3001 290 77 500 180/05 RMK AO2 T01610122
03949KAQV AQV20160125100511701/25/16 10:05:31  5-MIN KAQV 251605Z AUTO VRB05KT 10SM SCT046 OVC060 16/13 A3001 290 80 500 VRB/05 RMK AO2 T01610128
03949KAQV AQV20160125101012401/25/16 10:10:31  5-MIN KAQV 251610Z AUTO VRB05KT 10SM FEW041 BKN050 OVC065 17/13 A3001 300 77 600 VRB/05 RMK AO2 T01670128
03949KAQV AQV20160125101511701/25/16 10:15:31  5-MIN KAQV 251615Z AUTO VRB04KT 10SM SCT041 OVC060 17/13 A3001 300 77 600 VRB/04 RMK AO2 T01670128
03949KAQV AQV20160125102011701/25/16 10:20:31  5-MIN KAQV 251620Z AUTO VRB06KT 10SM BKN041 OVC060 18/13 A3001 300 72 700 VRB/06 RMK AO2 T01780128
03949KAQV AQV20160125102511701/25/16 10:25:31  5-MIN KAQV 251625Z AUTO 19007KT 10SM BKN041 OVC065 18/13 A3001 290 72 700 180/07 RMK AO2 T01780128
03949KAQV AQV20160125103012401/25/16 10:30:31  5-MIN KAQV 251630Z AUTO 20007KT 10SM BKN041 BKN050 OVC065 18/13 A3001 290 75 700 200/07 RMK AO2 T01780133
03949KAQV AQV20160125103514601/25/16 10:35:31  5-MIN KAQV 251635Z AUTO 20007G15KT 160V260 10SM BKN041 BKN050 OVC065 18/13 A3001 290 72 700 200/07G15 160V260 RMK AO2 T01780128
03949KAQV AQV20160125104013001/25/16 10:40:31  5-MIN KAQV 251640Z AUTO VRB06G15KT 10SM SCT041 BKN050 OVC065 18/13 A3001 300 72 800 VRB/06G15 RMK AO2 T01830133
03949KAQV AQV20160125104512401/25/16 10:45:31  5-MIN KAQV 251645Z AUTO VRB05KT 10SM SCT041 BKN048 OVC065 18/13 A3001 300 75 700 VRB/05 RMK AO2 T01780133
03949KAQV AQV20160125105012401/25/16 10:50:31  5-MIN KAQV 251650Z AUTO VRB03KT 10SM BKN045 OVC065 18/13 A3001 300 75 700 VRB/03 RMK AO2 SLP162 T01780133
03949KAQV AQV20160125105512401/25/16 10:55:31  5-MIN KAQV 251655Z AUTO VRB04KT 10SM BKN045 OVC065 18/13 A3001 300 72 800 VRB/04 RMK AO2 SLP162 T01830133
03949KAQV AQV20160125110011401/25/16 11:00:31  5-MIN KAQV 251700Z AUTO 10SM BKN042 BKN049 OVC065 18/13 A3001 290 72 800 M /M RMK AO2 T01830133
03949KAQV AQV20160125110512401/25/16 11:05:31  5-MIN KAQV 251705Z AUTO VRB05KT 10SM BKN042 BKN049 OVC065 18/13 A3001 300 72 800 VRB/05 RMK AO2 T01830133
03949KAQV AQV20160125111012401/25/16 11:10:31  5-MIN KAQV 251710Z AUTO 19007KT 10SM BKN042 BKN049 OVC070 18/13 A3000 300 72 800 180/07 RMK AO2 T01830133
03949KAQV AQV20160125111512401/25/16 11:15:31  5-MIN KAQV 251715Z AUTO VRB05KT 10SM SCT042 BKN050 OVC070 18/13 A3000 300 72 800 VRB/05 RMK AO2 T01830133
03949KAQV AQV20160125112011401/25/16 11:20:31  5-MIN KAQV 251720Z AUTO 10SM FEW039 SCT047 OVC070 19/14 A3000 300 72 900 M /M RMK AO2 T01890139
03949KAQV AQV20160125112512401/25/16 11:25:31  5-MIN KAQV 251725Z AUTO 20007KT 10SM FEW039 BKN047 OVC070 19/14 A3000 300 72 900 200/07 RMK AO2 T01890139
03949KAQV AQV20160125113012401/25/16 11:30:31  5-MIN KAQV 251730Z AUTO VRB06KT 10SM SCT046 BKN055 OVC070 19/14 A3000 300 72 900 VRB/06 RMK AO2 T01890139
03949KAQV AQV20160125113513301/25/16 11:35:31  5-MIN KAQV 251735Z AUTO 18008KT 140V220 10SM BKN046 OVC070 19/14 A2999 310 70 900 180/08 140V220 RMK AO2 T01940139
03949KAQV AQV20160125114013001/25/16 11:40:31  5-MIN KAQV 251740Z AUTO 18009G14KT 10SM FEW041 BKN048 OVC060 19/14 A2999 310 70 900 180/09G14 RMK AO2 T01940139
03949KAQV AQV20160125114513001/25/16 11:45:31  5-MIN KAQV 251745Z AUTO VRB06G14KT 10SM FEW032 BKN046 OVC060 19/14 A2999 310 70 900 VRB/06G14 RMK AO2 T01940139
03949KAQV AQV20160125115016501/25/16 11:50:31  5-MIN KAQV 251750Z AUTO 21008KT 170V260 10SM FEW026 BKN046 OVC060 19/13 A2999 310 70 900 210/08 170V260 RMK AO2 SLP155 T01890133 10194 20083 51020
03949KAQV AQV20160125115517101/25/16 11:55:31  5-MIN KAQV 251755Z AUTO 21008G16KT 180V260 10SM FEW024 BKN045 OVC060 19/14 A2999 320 72 900 200/08G16 180V260 RMK AO2 SLP153 T01890139 10194 20083 51020
03949KAQV AQV20160125120013001/25/16 12:00:31  5-MIN KAQV 251800Z AUTO VRB06G16KT 10SM FEW024 SCT041 OVC060 19/14 A2999 320 72 900 VRB/06G16 RMK AO2 T01890139
03949KAQV AQV20160125120512401/25/16 12:05:31  5-MIN KAQV 251805Z AUTO VRB03KT 10SM FEW024 SCT036 OVC060 19/14 A2998 320 72 900 VRB/03 RMK AO2 T01890139
03949KAQV AQV20160125121012401/25/16 12:10:31  5-MIN KAQV 251810Z AUTO 20005KT 10SM FEW025 BKN041 OVC060 19/14 A2998 320 72 900 200/05 RMK AO2 T01890139
03949KAQV AQV20160125121512401/25/16 12:15:31  5-MIN KAQV 251815Z AUTO VRB05KT 10SM FEW025 BKN035 OVC060 19/14 A2998 320 72 900 VRB/05 RMK AO2 T01890139
03949KAQV AQV20160125122015601/25/16 12:20:31  5-MIN KAQV 251820Z AUTO 20007KT 160V230 10SM -RA FEW023 BKN032 OVC060 18/14 A2998 330 75 800 190/07 160V230 RMK AO2 RAB20 P0000 T01830139
03949KAQV AQV20160125122514001/25/16 12:25:31  5-MIN KAQV 251825Z AUTO VRB03KT 10SM -RA FEW020 BKN032 OVC060 18/14 A2998 320 75 800 VRB/03 RMK AO2 RAB20 P0000 T01830139
03949KAQV AQV20160125123013901/25/16 12:30:31  5-MIN KAQV 251830Z AUTO VRB04KT 10SM FEW022 BKN032 OVC046 18/14 A2997 330 75 800 VRB/04 RMK AO2 RAB20E29 P0000 T01830139
03949KAQV AQV20160125123513901/25/16 12:35:31  5-MIN KAQV 251835Z AUTO VRB06KT 10SM FEW022 BKN032 OVC044 18/14 A2997 330 75 800 VRB/06 RMK AO2 RAB20E29 P0000 T01830139
03949KAQV AQV20160125124013901/25/16 12:40:31  5-MIN KAQV 251840Z AUTO VRB03KT 7SM -RA FEW021 BKN032 OVC046 18/14 A2997 330 78 800 VRB/03 RMK AO2 RAB20 P0000 T01780139
03949KAQV AQV20160125124513901/25/16 12:45:31  5-MIN KAQV 251845Z AUTO VRB05KT 7SM -RA FEW021 BKN032 OVC046 18/14 A2997 330 81 800 VRB/05 RMK AO2 RAB20 P0000 T01780144
03949KAQV AQV20160125125014601/25/16 12:50:31  5-MIN KAQV 251850Z AUTO 18005KT 7SM -RA SCT032 BKN042 OVC049 17/14 A2997 330 83 700 180/05 RMK AO2 RAB20 SLP147 P0000 T01720144
03949KAQV AQV20160125125514601/25/16 12:55:31  5-MIN KAQV 251855Z AUTO VRB04KT 8SM -RA BKN032 BKN039 OVC046 17/15 A2996 340 87 700 VRB/04 RMK AO2 RAB20 SLP147 P0000 T01720150
03949KAQV AQV20160125130013601/25/16 13:00:31  5-MIN KAQV 251900Z AUTO 20004KT 10SM BKN031 BKN043 OVC070 18/15 A2996 340 83 800 200/04 RMK AO2 RAE00 P0000 T01780150
03949KAQV AQV20160125130513601/25/16 13:05:31  5-MIN KAQV 251905Z AUTO 20005KT 10SM SCT031 BKN043 OVC070 18/15 A2996 340 81 900 190/05 RMK AO2 RAE00 P0000 T01830150
03949KAQV AQV20160125131013601/25/16 13:10:31  5-MIN KAQV 251910Z AUTO VRB05KT 10SM FEW031 SCT042 OVC070 18/15 A2996 340 81 900 VRB/05 RMK AO2 RAE00 P0000 T01830150
03949KAQV AQV20160125131513601/25/16 13:15:31  5-MIN KAQV 251915Z AUTO VRB05KT 10SM SCT031 BKN055 OVC070 19/14 A2995 340 75 900 VRB/05 RMK AO2 RAE00 P0000 T01890144
03949KAQV AQV20160125132013501/25/16 13:20:31  5-MIN KAQV 251920Z AUTO 17006KT 9SM FEW031 SCT049 OVC065 19/14 A2995 350 75 900 160/06 RMK AO2 RAE00 P0000 T01890144
03949KAQV AQV20160125132514201/25/16 13:25:31  5-MIN KAQV 251925Z AUTO VRB05KT 8SM -RA FEW031 FEW042 OVC060 18/15 A2995 350 81 900 VRB/05 RMK AO2 RAE00B21 P0000 T01830150
03949KAQV AQV20160125133014201/25/16 13:30:31  5-MIN KAQV 251930Z AUTO VRB05KT 9SM -RA FEW035 FEW048 OVC065 19/16 A2995 350 81 900 VRB/05 RMK AO2 RAE00B21 P0000 T01890156
03949KAQV AQV20160125133514301/25/16 13:35:31  5-MIN KAQV 251935Z AUTO VRB04KT 10SM SCT036 SCT048 OVC065 19/15 A2995 350 75 1000 VRB/04 RMK AO2 RAE00B21E32 P0000 T01940150
03949KAQV AQV20160125134014301/25/16 13:40:31  5-MIN KAQV 251940Z AUTO 17007KT 10SM SCT034 BKN046 OVC065 20/16 A2994 350 75 1100 170/07 RMK AO2 RAE00B21E32 P0000 T02000156
03949KAQV AQV20160125134514301/25/16 13:45:31  5-MIN KAQV 251945Z AUTO VRB06KT 10SM SCT032 BKN046 OVC070 20/15 A2994 360 72 1100 VRB/06 RMK AO2 RAE00B21E32 P0000 T02000150
03949KAQV AQV20160125135015001/25/16 13:50:31  5-MIN KAQV 251950Z AUTO VRB06KT 10SM SCT032 BKN043 OVC070 21/15 A2994 360 70 1100 VRB/06 RMK AO2 RAE00B21E32 SLP138 P0000 T02060150
03949KAQV AQV20160125135515001/25/16 13:55:31  5-MIN KAQV 251955Z AUTO VRB06KT 10SM SCT032 BKN043 OVC070 21/15 A2994 360 68 1200 VRB/06 RMK AO2 RAE00B21E32 SLP137 P0000 T02110150
03949KAQV AQV20160125140013401/25/16 14:00:31  5-MIN KAQV 252000Z AUTO 19008KT 160V230 10SM BKN034 OVC070 21/15 A2994 360 68 1200 190/08 160V230 RMK AO2 T02110150
03949KAQV AQV20160125140514701/25/16 14:05:31  5-MIN KAQV 252005Z AUTO 20009G15KT 170V240 10SM SCT032 SCT041 OVC070 21/14 A2994 360 67 1100 200/09G15 170V240 RMK AO2 T02060144
03949KAQV AQV20160125141014701/25/16 14:10:31  5-MIN KAQV 252010Z AUTO 20007G15KT 170V230 10SM SCT032 SCT049 OVC065 21/14 A2994 360 65 1200 190/07G15 170V230 RMK AO2 T02110144
03949KAQV AQV20160125141514101/25/16 14:15:31  5-MIN KAQV 252015Z AUTO 20007KT 170V240 10SM FEW034 SCT047 OVC065 21/14 A2993 360 67 1100 200/07 170V240 RMK AO2 T02060144
03949KAQV AQV20160125142014101/25/16 14:20:31  5-MIN KAQV 252020Z AUTO 19007KT 160V230 10SM FEW032 BKN049 OVC070 21/15 A2993 360 68 1200 190/07 160V230 RMK AO2 T02110150
03949KAQV AQV20160125142512501/25/16 14:25:31  5-MIN KAQV 252025Z AUTO VRB05KT 10SM FEW032 BKN049 OVC070 21/15 A2994 360 68 1200 VRB/05 RMK AO2 T02110150
03949KAQV AQV20160125143011801/25/16 14:30:31  5-MIN KAQV 252030Z AUTO VRB06KT 10SM BKN047 OVC070 22/15 A2994 360 65 1300 VRB/06 RMK AO2 T02170150
03949KAQV AQV20160125143514101/25/16 14:35:31  5-MIN KAQV 252035Z AUTO 22007KT 170V250 10SM FEW032 BKN047 OVC070 22/14 A2994 360 63 1300 210/07 170V250 RMK AO2 T02170144
03949KAQV AQV20160125144014101/25/16 14:40:31  5-MIN KAQV 252040Z AUTO 22007KT 160V260 10SM FEW029 BKN049 OVC070 22/14 A2994 360 63 1300 210/07 160V260 RMK AO2 T02170144
03949KAQV AQV20160125144512501/25/16 14:45:31  5-MIN KAQV 252045Z AUTO VRB06KT 10SM FEW029 BKN049 OVC070 21/14 A2994 360 65 1200 VRB/06 RMK AO2 T02110144
03949KAQV AQV20160125145014401/25/16 14:50:31  5-MIN KAQV 252050Z AUTO VRB04KT 10SM FEW029 BKN047 OVC070 21/14 A2994 360 65 1200 VRB/04 RMK AO2 SLP138 60000 T02110144 58006
03949KAQV AQV20160125145514401/25/16 14:55:31  5-MIN KAQV 252055Z AUTO VRB06KT 10SM SCT032 BKN045 OVC070 21/14 A2994 360 65 1200 VRB/06 RMK AO2 SLP137 60000 T02110144 58006
03949KAQV AQV20160125150012501/25/16 15:00:31  5-MIN KAQV 252100Z AUTO VRB05KT 10SM SCT032 BKN045 OVC070 21/14 A2994 360 65 1200 VRB/05 RMK AO2 T02110144
03949KAQV AQV20160125150512501/25/16 15:05:31  5-MIN KAQV 252105Z AUTO VRB04KT 10SM SCT032 BKN045 OVC070 21/14 A2994 360 65 1200 VRB/04 RMK AO2 T02110144
03949KAQV AQV20160125151012501/25/16 15:10:31  5-MIN KAQV 252110Z AUTO VRB04KT 10SM SCT032 BKN045 OVC070 21/14 A2994 360 67 1100 VRB/04 RMK AO2 T02060144
03949KAQV AQV20160125151512501/25/16 15:15:31  5-MIN KAQV 252115Z AUTO VRB05KT 10SM SCT032 BKN045 OVC070 21/14 A2994 360 67 1100 VRB/05 RMK AO2 T02060144
03949KAQV AQV20160125152012501/25/16 15:20:31  5-MIN KAQV 252120Z AUTO 19004KT 10SM SCT032 BKN045 OVC070 21/15 A2994 360 68 1200 180/04 RMK AO2 T02110150
03949KAQV AQV20160125152513401/25/16 15:25:31  5-MIN KAQV 252125Z AUTO 20007KT 120V250 10SM SCT032 OVC070 21/15 A2993 360 68 1200 200/07 120V250 RMK AO2 T02110150
03949KAQV AQV20160125153011801/25/16 15:30:31  5-MIN KAQV 252130Z AUTO VRB06KT 10SM FEW032 OVC075 21/14 A2994 360 65 1200 VRB/06 RMK AO2 T02110144
03949KAQV AQV20160125153511801/25/16 15:35:31  5-MIN KAQV 252135Z AUTO VRB04KT 10SM FEW031 OVC075 21/14 A2993 360 65 1200 VRB/04 RMK AO2 T02110144
03949KAQV AQV20160125154011801/25/16 15:40:31  5-MIN KAQV 252140Z AUTO 19006KT 10SM FEW031 OVC075 21/14 A2994 360 65 1200 180/06 RMK AO2 T02110144
03949KAQV AQV20160125154511801/25/16 15:45:31  5-MIN KAQV 252145Z AUTO 18009KT 10SM FEW031 OVC075 21/14 A2993 360 65 1200 180/09 RMK AO2 T02110144
03949KAQV AQV20160125155011801/25/16 15:50:31  5-MIN KAQV 252150Z AUTO VRB04KT 10SM OVC075 21/14 A2994 360 67 1100 VRB/04 RMK AO2 SLP136 T02060144
03949KAQV AQV20160125155511801/25/16 15:55:31  5-MIN KAQV 252155Z AUTO 18005KT 10SM OVC075 21/14 A2994 360 67 1100 180/05 RMK AO2 SLP136 T02060144
03949KAQV AQV20160125160011801/25/16 16:00:31  5-MIN KAQV 252200Z AUTO VRB05KT 10SM FEW031 OVC075 21/14 A2994 360 67 1100 VRB/05 RMK AO2 T02060144
03949KAQV AQV20160125160511801/25/16 16:05:31  5-MIN KAQV 252205Z AUTO 00000KT 10SM FEW031 OVC075 21/14 A2994 360 67 1100 000/00 RMK AO2 T02060144
03949KAQV AQV20160125161012501/25/16 16:10:31  5-MIN KAQV 252210Z AUTO VRB05KT 10SM FEW031 FEW043 OVC075 21/14 A2994 350 67 1100 VRB/05 RMK AO2 T02060144
03949KAQV AQV20160125161512501/25/16 16:15:31  5-MIN KAQV 252215Z AUTO 18005KT 10SM FEW031 SCT043 OVC080 21/14 A2995 350 67 1100 180/05 RMK AO2 T02060144
03949KAQV AQV20160125162012501/25/16 16:20:31  5-MIN KAQV 252220Z AUTO VRB04KT 10SM FEW032 SCT049 OVC080 21/14 A2995 350 67 1100 VRB/04 RMK AO2 T02060144
03949KAQV AQV20160125162512501/25/16 16:25:31  5-MIN KAQV 252225Z AUTO VRB04KT 10SM FEW032 SCT050 OVC080 21/14 A2995 350 67 1100 VRB/04 RMK AO2 T02060144
03949KAQV AQV20160125163012501/25/16 16:30:31  5-MIN KAQV 252230Z AUTO VRB06KT 10SM FEW032 SCT040 OVC080 21/14 A2995 350 67 1100 VRB/06 RMK AO2 T02060144
03949KAQV AQV20160125163512501/25/16 16:35:31  5-MIN KAQV 252235Z AUTO 18008KT 10SM FEW038 SCT049 OVC080 21/14 A2995 350 67 1100 180/08 RMK AO2 T02060144
03949KAQV AQV20160125164012501/25/16 16:40:31  5-MIN KAQV 252240Z AUTO VRB06KT 10SM FEW040 SCT049 OVC080 20/14 A2995 350 70 1100 VRB/06 RMK AO2 T02000144
03949KAQV AQV20160125164512501/25/16 16:45:31  5-MIN KAQV 252245Z AUTO VRB05KT 10SM FEW040 SCT050 OVC080 20/14 A2995 350 67 1100 VRB/05 RMK AO2 T02000139
03949KAQV AQV20160125165013201/25/16 16:50:31  5-MIN KAQV 252250Z AUTO 18006KT 10SM FEW040 BKN050 OVC080 20/14 A2995 350 67 1100 180/06 RMK AO2 SLP140 T02000139
03949KAQV AQV20160125165513201/25/16 16:55:31  5-MIN KAQV 252255Z AUTO VRB05KT 10SM FEW041 SCT050 OVC080 20/14 A2995 350 67 1100 VRB/05 RMK AO2 SLP141 T02000139
03949KAQV AQV20160125170012501/25/16 17:00:31  5-MIN KAQV 252300Z AUTO 19005KT 10SM FEW045 SCT050 OVC085 20/14 A2995 350 67 1100 190/05 RMK AO2 T02000139
03949KAQV AQV20160125170512501/25/16 17:05:31  5-MIN KAQV 252305Z AUTO 19004KT 10SM SCT045 BKN055 OVC085 20/14 A2995 350 70 1100 180/04 RMK AO2 T02000144
03949KAQV AQV20160125171012501/25/16 17:10:31  5-MIN KAQV 252310Z AUTO VRB04KT 10SM SCT043 BKN050 OVC085 19/14 A2995 350 70 1000 VRB/04 RMK AO2 T01940139
03949KAQV AQV20160125171512501/25/16 17:15:31  5-MIN KAQV 252315Z AUTO 18004KT 10SM FEW043 SCT050 OVC085 19/14 A2995 350 70 1000 180/04 RMK AO2 T01940139
03949KAQV AQV20160125172011801/25/16 17:20:31  5-MIN KAQV 252320Z AUTO VRB04KT 10SM FEW045 OVC085 19/14 A2995 350 70 1000 VRB/04 RMK AO2 T01940139
03949KAQV AQV20160125172511701/25/16 17:25:31  5-MIN KAQV 252325Z AUTO 18004KT 10SM FEW043 OVC085 19/14 A2995 350 72 900 170/04 RMK AO2 T01890139
03949KAQV AQV20160125173011701/25/16 17:30:31  5-MIN KAQV 252330Z AUTO 19004KT 10SM FEW039 OVC085 19/14 A2996 340 72 900 180/04 RMK AO2 T01890139
03949KAQV AQV20160125173511701/25/16 17:35:31  5-MIN KAQV 252335Z AUTO VRB03KT 10SM FEW039 OVC085 19/14 A2996 340 72 900 VRB/03 RMK AO2 T01890139
03949KAQV AQV20160125174011701/25/16 17:40:31  5-MIN KAQV 252340Z AUTO 00000KT 10SM FEW039 OVC085 18/14 A2996 340 75 800 000/00 RMK AO2 T01830139
03949KAQV AQV20160125174511701/25/16 17:45:31  5-MIN KAQV 252345Z AUTO 00000KT 10SM FEW038 OVC085 18/14 A2996 340 75 800 000/00 RMK AO2 T01830139
03949KAQV AQV20160125175014801/25/16 17:50:31  5-MIN KAQV 252350Z AUTO 00000KT 10SM FEW038 OVC085 18/14 A2996 340 78 800 000/00 RMK AO2 SLP144 60000 T01780139 10217 20172 55015
03949KAQV AQV20160125175514801/25/16 17:55:31  5-MIN KAQV 252355Z AUTO 18003KT 10SM FEW038 OVC085 18/14 A2996 340 78 800 180/03 RMK AO2 SLP145 60000 T01780139 10217 20172 55015
03949KAQV AQV20160125180012401/25/16 18:00:31  5-MIN KAQV 260000Z AUTO 18004KT 10SM FEW038 SCT070 OVC090 18/14 A2996 340 78 800 170/04 RMK AO2 T01780139
03949KAQV AQV20160125180512401/25/16 18:05:31  5-MIN KAQV 260005Z AUTO 18004KT 10SM FEW036 SCT070 OVC090 17/14 A2996 340 80 700 170/04 RMK AO2 T01720139
03949KAQV AQV20160125181012401/25/16 18:10:31  5-MIN KAQV 260010Z AUTO 00000KT 10SM FEW036 BKN075 OVC090 17/14 A2997 330 80 700 000/00 RMK AO2 T01720139
03949KAQV AQV20160125181512401/25/16 18:15:31  5-MIN KAQV 260015Z AUTO 00000KT 10SM SCT036 BKN075 OVC090 17/14 A2997 330 83 600 000/00 RMK AO2 T01670139
03949KAQV AQV20160125182012401/25/16 18:20:31  5-MIN KAQV 260020Z AUTO 17003KT 10SM SCT036 BKN070 OVC090 17/14 A2997 330 83 600 170/03 RMK AO2 T01670139
03949KAQV AQV20160125182512401/25/16 18:25:31  5-MIN KAQV 260025Z AUTO 17004KT 10SM FEW035 BKN075 OVC095 17/14 A2997 330 83 700 170/04 RMK AO2 T01720144
03949KAQV AQV20160125183012401/25/16 18:30:31  5-MIN KAQV 260030Z AUTO 17003KT 10SM FEW035 SCT070 OVC095 17/14 A2998 330 83 700 170/03 RMK AO2 T01720144
03949KAQV AQV20160125183512401/25/16 18:35:31  5-MIN KAQV 260035Z AUTO 18003KT 10SM FEW035 BKN075 OVC090 17/14 A2998 320 83 600 170/03 RMK AO2 T01670139
03949KAQV AQV20160125184012401/25/16 18:40:31  5-MIN KAQV 260040Z AUTO 16003KT 10SM FEW035 BKN075 OVC090 17/14 A2998 320 83 600 160/03 RMK AO2 T01670139
03949KAQV AQV20160125184511701/25/16 18:45:31  5-MIN KAQV 260045Z AUTO 16004KT 10SM BKN075 OVC090 17/14 A2998 320 83 700 160/04 RMK AO2 T01720144
03949KAQV AQV20160125185012401/25/16 18:50:31  5-MIN KAQV 260050Z AUTO 18004KT 10SM BKN070 OVC090 17/14 A2998 320 83 700 170/04 RMK AO2 SLP152 T01720144
03949KAQV AQV20160125185512401/25/16 18:55:31  5-MIN KAQV 260055Z AUTO 18005KT 10SM BKN070 OVC090 17/14 A2998 320 83 700 170/05 RMK AO2 SLP154 T01720144
03949KAQV AQV20160125190011701/25/16 19:00:31  5-MIN KAQV 260100Z AUTO 18004KT 10SM BKN070 OVC085 17/14 A2999 310 83 700 180/04 RMK AO2 T01720144
03949KAQV AQV20160125190511701/25/16 19:05:31  5-MIN KAQV 260105Z AUTO 18004KT 10SM BKN070 OVC090 17/14 A2999 310 83 700 170/04 RMK AO2 T01720144
03949KAQV AQV20160125191011701/25/16 19:10:31  5-MIN KAQV 260110Z AUTO 18003KT 10SM BKN070 OVC095 17/14 A2999 310 83 700 180/03 RMK AO2 T01720144
03949KAQV AQV20160125191512401/25/16 19:15:31  5-MIN KAQV 260115Z AUTO 18003KT 10SM FEW048 BKN070 OVC095 17/14 A2999 310 83 700 170/03 RMK AO2 T01720144
03949KAQV AQV20160125192012401/25/16 19:20:31  5-MIN KAQV 260120Z AUTO 18003KT 10SM SCT050 BKN070 OVC095 17/14 A2999 310 83 700 170/03 RMK AO2 T01720144
03949KAQV AQV20160125192512401/25/16 19:25:31  5-MIN KAQV 260125Z AUTO VRB03KT 10SM FEW050 BKN065 OVC095 17/14 A2999 310 83 700 VRB/03 RMK AO2 T01720144
03949KAQV AQV20160125193012401/25/16 19:30:31  5-MIN KAQV 260130Z AUTO 17004KT 10SM FEW050 SCT065 OVC095 17/14 A2999 320 83 700 160/04 RMK AO2 T01720144
03949KAQV AQV20160125193512401/25/16 19:35:31  5-MIN KAQV 260135Z AUTO 18003KT 10SM FEW048 SCT065 OVC095 17/14 A2999 310 86 600 170/03 RMK AO2 T01670144
03949KAQV AQV20160125194012401/25/16 19:40:31  5-MIN KAQV 260140Z AUTO 17003KT 10SM SCT046 BKN065 OVC095 17/14 A2999 310 86 600 170/03 RMK AO2 T01670144
03949KAQV AQV20160125194512401/25/16 19:45:31  5-MIN KAQV 260145Z AUTO 18004KT 10SM BKN041 BKN050 OVC095 16/14 A2998 320 90 600 180/04 RMK AO2 T01610144
03949KAQV AQV20160125195013101/25/16 19:50:31  5-MIN KAQV 260150Z AUTO 18004KT 10SM BKN041 BKN060 OVC095 16/14 A2999 320 90 600 170/04 RMK AO2 SLP154 T01610144
03949KAQV AQV20160125195512401/25/16 19:55:31  5-MIN KAQV 260155Z AUTO 17004KT 10SM BKN041 OVC095 16/14 A2999 320 90 600 170/04 RMK AO2 SLP154 T01610144
03949KAQV AQV20160125200011701/25/16 20:00:31  5-MIN KAQV 260200Z AUTO VRB03KT 10SM BKN041 OVC095 16/14 A2998 320 90 600 VRB/03 RMK AO2 T01610144
03949KAQV AQV20160125200511701/25/16 20:05:31  5-MIN KAQV 260205Z AUTO 17003KT 10SM BKN041 OVC065 16/14 A2998 320 90 600 160/03 RMK AO2 T01610144
03949KAQV AQV20160125201011701/25/16 20:10:31  5-MIN KAQV 260210Z AUTO 16004KT 10SM BKN041 BKN095 16/14 A2998 320 90 600 160/04 RMK AO2 T01610144
03949KAQV AQV20160125201511701/25/16 20:15:31  5-MIN KAQV 260215Z AUTO 16003KT 10SM BKN041 BKN095 16/14 A2998 320 90 600 160/03 RMK AO2 T01610144
03949KAQV AQV20160125202011001/25/16 20:20:31  5-MIN KAQV 260220Z AUTO 17003KT 10SM BKN039 16/14 A2998 320 93 500 170/03 RMK AO2 T01560144
03949KAQV AQV20160126200010801/26/16 20:00:31  5-MIN KAQV 270200Z AUTO 01004KT 10SM CLR 08/04 A3018 130 76 -500 360/04 RMK AO2 T00830044
03949KAQV AQV20160126200510801/26/16 20:05:31  5-MIN KAQV 270205Z AUTO VRB05KT 10SM CLR 08/04 A3018 140 76 -500 VRB/05 RMK AO2 T00830044
03949KAQV AQV20160126201010801/26/16 20:10:31  5-MIN KAQV 270210Z AUTO 02005KT 10SM CLR 08/04 A3018 140 76 -500 020/05 RMK AO2 T00830044
03949KAQV AQV20160126201510801/26/16 20:15:31  5-MIN KAQV 270215Z AUTO 01005KT 10SM CLR 08/04 A3018 130 73 -500 010/05 RMK AO2 T00830039
03949KAQV AQV20160126202010801/26/16 20:20:31  5-MIN KAQV 270220Z AUTO 03005KT 10SM CLR 08/04 A3018 130 76 -500 020/05 RMK AO2 T00830044
03949KAQV AQV20160126202511101/26/16 20:25:31  5-MIN KAQV 270225Z AUTO 04004KT 10SM FEW120 08/04 A3018 140 73 -500 030/04 RMK AO2 T00830039
03949KAQV AQV20160126203011101/26/16 20:30:31  5-MIN KAQV 270230Z AUTO 03005KT 10SM FEW120 08/04 A3017 140 76 -600 030/05 RMK AO2 T00780039
03949KAQV AQV20160126203511101/26/16 20:35:31  5-MIN KAQV 270235Z AUTO 02005KT 10SM FEW120 08/04 A3018 130 76 -600 020/05 RMK AO2 T00780039
03949KAQV AQV20160126204011101/26/16 20:40:31  5-MIN KAQV 270240Z AUTO 34003KT 10SM FEW120 08/04 A3019 120 76 -600 340/03 RMK AO2 T00780039
03949KAQV AQV20160126204511101/26/16 20:45:31  5-MIN KAQV 270245Z AUTO VRB03KT 10SM FEW120 08/04 A3020 120 76 -600 VRB/03 RMK AO2 T00780039
03949KAQV AQV20160126205012401/26/16 20:50:31  5-MIN KAQV 270250Z AUTO 01006KT 10SM FEW120 08/04 A3019 130 76 -600 010/06 RMK AO2 SLP225 T00780039 53001
03949KAQV AQV20160126205512401/26/16 20:55:31  5-MIN KAQV 270255Z AUTO 01005KT 10SM FEW120 08/04 A3019 130 76 -600 010/05 RMK AO2 SLP224 T00780039 53001
03949KAQV AQV20160126210011101/26/16 21:00:31  5-MIN KAQV 270300Z AUTO VRB04KT 10SM FEW120 08/04 A3020 120 76 -600 VRB/04 RMK AO2 T00780039
03949KAQV AQV20160126210511101/26/16 21:05:31  5-MIN KAQV 270305Z AUTO 36003KT 10SM FEW120 08/04 A3020 120 76 -600 360/03 RMK AO2 T00780039
03949KAQV AQV20160126211011101/26/16 21:10:31  5-MIN KAQV 270310Z AUTO 36004KT 10SM FEW120 08/04 A3020 110 76 -600 360/04 RMK AO2 T00780039
03949KAQV AQV20160126211511101/26/16 21:15:31  5-MIN KAQV 270315Z AUTO 01007KT 10SM FEW120 08/04 A3020 120 76 -600 010/07 RMK AO2 T00780039
03949KAQV AQV20160126212011101/26/16 21:20:31  5-MIN KAQV 270320Z AUTO 02005KT 10SM FEW110 08/03 A3020 120 73 -600 020/05 RMK AO2 T00780033
03949KAQV AQV20160126212512701/26/16 21:25:31  5-MIN KAQV 270325Z AUTO 36007KT 320V030 10SM FEW110 08/03 A3020 120 73 -600 360/07 320V030 RMK AO2 T00780033
03949KAQV AQV20160126213011101/26/16 21:30:31  5-MIN KAQV 270330Z AUTO 01006KT 10SM FEW120 08/03 A3020 110 73 -600 010/06 RMK AO2 T00780033
03949KAQV AQV20160126213511101/26/16 21:35:31  5-MIN KAQV 270335Z AUTO 01005KT 10SM SCT120 08/03 A3021 110 73 -600 010/05 RMK AO2 T00780033
03949KAQV AQV20160126214011801/26/16 21:40:31  5-MIN KAQV 270340Z AUTO 02005KT 10SM BKN120 08/03 A3022 100 73 -700 020/05 RMK AO2 PRESRR T00780033
03949KAQV AQV20160126214511101/26/16 21:45:31  5-MIN KAQV 270345Z AUTO 01006KT 10SM BKN120 08/03 A3022 100 73 -700 010/06 RMK AO2 T00780033
03949KAQV AQV20160126215011801/26/16 21:50:31  5-MIN KAQV 270350Z AUTO 01006KT 10SM BKN120 08/03 A3022 100 73 -700 360/06 RMK AO2 SLP235 T00780033
03949KAQV AQV20160126215511701/26/16 21:55:31  5-MIN KAQV 270355Z AUTO VRB04KT 10SM OVC120 08/03 A3023 90 73 -700 VRB/04 RMK AO2 SLP238 T00780033
03949KAQV AQV20160126220011701/26/16 22:00:31  5-MIN KAQV 270400Z AUTO VRB03KT 10SM OVC120 08/03 A3024 80 73 -700 VRB/03 RMK AO2 PRESRR T00780033
03949KAQV AQV20160126220511001/26/16 22:05:31  5-MIN KAQV 270405Z AUTO 00000KT 10SM OVC120 08/03 A3024 80 73 -700 000/00 RMK AO2 T00780033
03949KAQV AQV20160126221011001/26/16 22:10:31  5-MIN KAQV 270410Z AUTO 00000KT 10SM OVC120 08/04 A3025 80 76 -700 000/00 RMK AO2 T00780039
03949KAQV AQV20160126221511001/26/16 22:15:31  5-MIN KAQV 270415Z AUTO 00000KT 10SM OVC120 08/04 A3024 80 76 -700 000/00 RMK AO2 T00780039
03949KAQV AQV20160126222011001/26/16 22:20:31  5-MIN KAQV 270420Z AUTO 01004KT 10SM OVC120 08/04 A3024 80 76 -700 360/04 RMK AO2 T00780039
03949KAQV AQV20160126222511001/26/16 22:25:31  5-MIN KAQV 270425Z AUTO 02004KT 10SM OVC120 07/04 A3024 80 79 -700 020/04 RMK AO2 T00720039
03949KAQV AQV20160126223011001/26/16 22:30:31  5-MIN KAQV 270430Z AUTO 02003KT 10SM OVC120 07/03 A3024 80 76 -700 010/03 RMK AO2 T00720033
03949KAQV AQV20160126223511001/26/16 22:35:31  5-MIN KAQV 270435Z AUTO 04005KT 10SM OVC120 07/04 A3023 90 79 -700 040/05 RMK AO2 T00720039
03949KAQV AQV20160126224011101/26/16 22:40:31  5-MIN KAQV 270440Z AUTO 04004KT 10SM BKN120 07/03 A3022 100 76 -700 040/04 RMK AO2 T00720033
03949KAQV AQV20160126224511101/26/16 22:45:31  5-MIN KAQV 270445Z AUTO VRB03KT 10SM BKN120 07/03 A3022 100 76 -700 VRB/03 RMK AO2 T00720033
03949KAQV AQV20160126225011801/26/16 22:50:31  5-MIN KAQV 270450Z AUTO VRB04KT 10SM BKN120 07/03 A3022 100 76 -700 VRB/04 RMK AO2 SLP234 T00720033
03949KAQV AQV20160126225511701/26/16 22:55:31  5-MIN KAQV 270455Z AUTO VRB03KT 10SM BKN120 07/03 A3023 90 76 -700 VRB/03 RMK AO2 SLP237 T00720033
03949KAQV AQV20160126230011001/26/16 23:00:31  5-MIN KAQV 270500Z AUTO 00000KT 10SM SCT120 07/03 A3023 90 76 -700 000/00 RMK AO2 T00720033
03949KAQV AQV20160126230511001/26/16 23:05:31  5-MIN KAQV 270505Z AUTO 00000KT 10SM BKN120 07/03 A3024 80 76 -700 000/00 RMK AO2 T00720033
03949KAQV AQV20160126231011001/26/16 23:10:31  5-MIN KAQV 270510Z AUTO 00000KT 10SM BKN120 07/03 A3023 90 76 -700 000/00 RMK AO2 T00720033
03949KAQV AQV20160126231511001/26/16 23:15:31  5-MIN KAQV 270515Z AUTO 03003KT 10SM BKN120 07/03 A3023 90 76 -700 020/03 RMK AO2 T00720033
03949KAQV AQV20160126232011101/26/16 23:20:31  5-MIN KAQV 270520Z AUTO 03004KT 10SM BKN110 07/03 A3023 100 76 -700 030/04 RMK AO2 T00720033
03949KAQV AQV20160126232511101/26/16 23:25:31  5-MIN KAQV 270525Z AUTO 01004KT 10SM OVC110 07/03 A3022 100 76 -700 010/04 RMK AO2 T00720033
03949KAQV AQV20160126233011101/26/16 23:30:31  5-MIN KAQV 270530Z AUTO 02006KT 10SM OVC110 07/03 A3022 100 76 -700 010/06 RMK AO2 T00720033
03949KAQV AQV20160126233511101/26/16 23:35:31  5-MIN KAQV 270535Z AUTO 01007KT 10SM BKN110 07/03 A3022 100 76 -700 360/07 RMK AO2 T00720033
03949KAQV AQV20160126234011001/26/16 23:40:31  5-MIN KAQV 270540Z AUTO 34004KT 10SM BKN110 07/03 A3023 90 76 -700 330/04 RMK AO2 T00720033
03949KAQV AQV20160126234511001/26/16 23:45:31  5-MIN KAQV 270545Z AUTO 36004KT 10SM SCT110 07/03 A3023 90 76 -700 350/04 RMK AO2 T00720033
03949KAQV AQV20160126235014601/26/16 23:50:31  5-MIN KAQV 270550Z AUTO 02005KT 10SM SCT120 07/03 A3022 100 76 -700 010/05 RMK AO2 SLP236 T00720033 10083 20072 401610067 51027
03949KAQV AQV20160126235514501/26/16 23:55:31  5-MIN KAQV 270555Z AUTO 01007KT 10SM SCT120 07/03 A3023 90 73 -700 360/07 RMK AO2 SLP237 T00720028 10083 20072 401610067 51027
03949KAQV AQV20160127000011101/27/16 00:00:31  5-MIN KAQV 270600Z AUTO 36008KT 10SM SCT120 07/03 A3022 100 73 -700 360/08 RMK AO2 T00720028
03949KAQV AQV20160127000511101/27/16 00:05:31  5-MIN KAQV 270605Z AUTO 36007KT 10SM BKN120 07/03 A3022 100 73 -700 350/07 RMK AO2 T00720028
03949KAQV AQV20160127001011101/27/16 00:10:31  5-MIN KAQV 270610Z AUTO 36006KT 10SM BKN120 07/03 A3021 110 73 -700 360/06 RMK AO2 T00720028
03949KAQV AQV20160127001511101/27/16 00:15:31  5-MIN KAQV 270615Z AUTO 02007KT 10SM BKN120 07/02 A3020 110 70 -700 010/07 RMK AO2 T00720022
03949KAQV AQV20160127002011101/27/16 00:20:31  5-MIN KAQV 270620Z AUTO 01007KT 10SM BKN110 07/02 A3020 120 70 -700 010/07 RMK AO2 T00720022
03949KAQV AQV20160127002511801/27/16 00:25:31  5-MIN KAQV 270625Z AUTO 01008KT 10SM BKN110 07/02 A3019 120 70 -700 010/08 RMK AO2 PRESFR T00720022
03949KAQV AQV20160127003011101/27/16 00:30:31  5-MIN KAQV 270630Z AUTO 36007KT 10SM BKN110 07/02 A3020 120 73 -800 360/07 RMK AO2 T00670022
03949KAQV AQV20160127003511101/27/16 00:35:31  5-MIN KAQV 270635Z AUTO 01009KT 10SM SCT110 07/02 A3019 120 73 -800 010/09 RMK AO2 T00670022
03949KAQV AQV20160127004011101/27/16 00:40:31  5-MIN KAQV 270640Z AUTO 36006KT 10SM SCT110 07/02 A3020 120 73 -800 350/06 RMK AO2 T00670022
03949KAQV AQV20160127004511101/27/16 00:45:31  5-MIN KAQV 270645Z AUTO 01007KT 10SM FEW110 07/02 A3019 130 70 -800 010/07 RMK AO2 T00670017
03949KAQV AQV20160127005011801/27/16 00:50:31  5-MIN KAQV 270650Z AUTO 01007KT 10SM FEW110 07/02 A3019 130 70 -800 010/07 RMK AO2 SLP224 T00670017
03949KAQV AQV20160127005511801/27/16 00:55:31  5-MIN KAQV 270655Z AUTO 01007KT 10SM SCT100 06/02 A3019 130 73 -800 010/07 RMK AO2 SLP225 T00610017
03949KAQV AQV20160127010011201/27/16 01:00:31  5-MIN KAQV 270700Z AUTO VRB06KT 10SM SCT100 05/02 A3019 130 79 -1000 VRB/06 RMK AO2 T00500017
03949KAQV AQV20160127010511201/27/16 01:05:31  5-MIN KAQV 270705Z AUTO 03007KT 10SM BKN100 05/01 A3019 130 76 -1000 020/07 RMK AO2 T00500011
03949KAQV AQV20160127011011701/27/16 01:10:31  5-MIN KAQV 270710Z AUTO 04008G14KT 10SM BKN110 06/01 A3019 130 70 -800 030/08G14 RMK AO2 T00610011
03949KAQV AQV20160127011511801/27/16 01:15:31  5-MIN KAQV 270715Z AUTO VRB06KT 10SM SCT100 BKN120 07/01 A3019 130 67 -800 VRB/06 RMK AO2 T00670011
03949KAQV AQV20160127012011801/27/16 01:20:31  5-MIN KAQV 270720Z AUTO 02006KT 10SM BKN100 BKN120 07/01 A3019 130 67 -800 020/06 RMK AO2 T00670011
03949KAQV AQV20160127012512401/27/16 01:25:31  5-MIN KAQV 270725Z AUTO 03009G14KT 10SM BKN100 BKN120 07/01 A3019 130 67 -800 020/09G14 RMK AO2 T00670011
03949KAQV AQV20160127013012401/27/16 01:30:31  5-MIN KAQV 270730Z AUTO 02006G14KT 10SM SCT100 SCT120 07/01 A3019 130 67 -800 020/06G14 RMK AO2 T00670011
03949KAQV AQV20160127013511801/27/16 01:35:31  5-MIN KAQV 270735Z AUTO 02008KT 10SM FEW100 FEW120 07/01 A3019 120 67 -800 010/08 RMK AO2 T00670011
03949KAQV AQV20160127014011101/27/16 01:40:31  5-MIN KAQV 270740Z AUTO 01006KT 10SM FEW100 07/01 A3019 120 67 -800 010/06 RMK AO2 T00670011
03949KAQV AQV20160127014511101/27/16 01:45:31  5-MIN KAQV 270745Z AUTO VRB06KT 10SM FEW095 07/01 A3019 130 67 -800 VRB/06 RMK AO2 T00670011
03949KAQV AQV20160127015013101/27/16 01:50:31  5-MIN KAQV 270750Z AUTO 02007KT 340V040 10SM CLR 07/01 A3019 130 67 -800 020/07 340V040 RMK AO2 SLP224 T00670011
03949KAQV AQV20160127015511501/27/16 01:55:31  5-MIN KAQV 270755Z AUTO 01007KT 10SM CLR 06/01 A3019 130 67 -800 010/07 RMK AO2 SLP224 T00610006
03949KAQV AQV20160127020010801/27/16 02:00:31  5-MIN KAQV 270800Z AUTO 01009KT 10SM CLR 06/01 A3018 130 67 -800 010/09 RMK AO2 T00610006
03949KAQV AQV20160127020510801/27/16 02:05:31  5-MIN KAQV 270805Z AUTO 01008KT 10SM CLR 06/01 A3018 130 67 -800 360/08 RMK AO2 T00610006
03949KAQV AQV20160127021011101/27/16 02:10:31  5-MIN KAQV 270810Z AUTO 02007KT 10SM FEW095 06/01 A3019 130 67 -800 010/07 RMK AO2 T00610006
03949KAQV AQV20160127021511101/27/16 02:15:31  5-MIN KAQV 270815Z AUTO 01007KT 10SM SCT095 06/01 A3019 130 67 -800 360/07 RMK AO2 T00610006
03949KAQV AQV20160127022011101/27/16 02:20:31  5-MIN KAQV 270820Z AUTO 01007KT 10SM BKN095 06/01 A3019 130 67 -800 010/07 RMK AO2 T00610006
03949KAQV AQV20160127022511101/27/16 02:25:31  5-MIN KAQV 270825Z AUTO 01006KT 10SM BKN095 06/01 A3019 130 67 -800 010/06 RMK AO2 T00610006
03949KAQV AQV20160127023011101/27/16 02:30:31  5-MIN KAQV 270830Z AUTO VRB06KT 10SM BKN095 06/01 A3019 130 67 -800 VRB/06 RMK AO2 T00610006
03949KAQV AQV20160127023511101/27/16 02:35:31  5-MIN KAQV 270835Z AUTO 01006KT 10SM OVC095 06/01 A3019 130 67 -800 010/06 RMK AO2 T00610006
03949KAQV AQV20160127024011101/27/16 02:40:31  5-MIN KAQV 270840Z AUTO 01006KT 10SM OVC095 06/01 A3019 120 70 -800 010/06 RMK AO2 T00610011
03949KAQV AQV20160127024511101/27/16 02:45:31  5-MIN KAQV 270845Z AUTO 01007KT 10SM OVC095 06/01 A3020 120 70 -800 360/07 RMK AO2 T00610011
03949KAQV AQV20160127025012401/27/16 02:50:31  5-MIN KAQV 270850Z AUTO 36008KT 10SM OVC095 06/01 A3020 120 70 -800 360/08 RMK AO2 SLP228 T00610011 50012
03949KAQV AQV20160127025512401/27/16 02:55:31  5-MIN KAQV 270855Z AUTO 36007KT 10SM OVC095 06/01 A3020 120 67 -800 360/07 RMK AO2 SLP227 T00610006 50012
03949KAQV AQV20160127030011701/27/16 03:00:31  5-MIN KAQV 270900Z AUTO VRB06G14KT 10SM OVC095 06/01 A3020 120 70 -800 VRB/06G14 RMK AO2 T00610011
03949KAQV AQV20160127030511701/27/16 03:05:31  5-MIN KAQV 270905Z AUTO 36011G14KT 10SM OVC095 06/01 A3019 120 67 -800 360/11G14 RMK AO2 T00610006
03949KAQV AQV20160127031011101/27/16 03:10:31  5-MIN KAQV 270910Z AUTO 01008KT 10SM OVC095 06/01 A3019 120 67 -800 010/08 RMK AO2 T00610006
03949KAQV AQV20160127031511101/27/16 03:15:31  5-MIN KAQV 270915Z AUTO 01009KT 10SM OVC095 06/01 A3020 120 67 -800 360/09 RMK AO2 T00610006
03949KAQV AQV20160127032011701/27/16 03:20:31  5-MIN KAQV 270920Z AUTO 01008G15KT 10SM OVC090 06/01 A3020 120 67 -800 010/08G15 RMK AO2 T00610006
03949KAQV AQV20160127032511701/27/16 03:25:31  5-MIN KAQV 270925Z AUTO 01008G15KT 10SM OVC090 06/00 A3020 120 65 -800 360/08G15 RMK AO2 T00610000
03949KAQV AQV20160127033011101/27/16 03:30:31  5-MIN KAQV 270930Z AUTO 01007KT 10SM OVC090 06/00 A3020 120 65 -800 010/07 RMK AO2 T00610000
03949KAQV AQV20160127033511101/27/16 03:35:31  5-MIN KAQV 270935Z AUTO 01009KT 10SM OVC090 06/00 A3020 120 65 -800 010/09 RMK AO2 T00610000
03949KAQV AQV20160127034011101/27/16 03:40:31  5-MIN KAQV 270940Z AUTO 02005KT 10SM OVC090 06/01 A3020 120 67 -800 010/05 RMK AO2 T00610006
03949KAQV AQV20160127034511101/27/16 03:45:31  5-MIN KAQV 270945Z AUTO 01008KT 10SM OVC090 06/01 A3020 120 67 -800 010/08 RMK AO2 T00610006
03949KAQV AQV20160127035011801/27/16 03:50:31  5-MIN KAQV 270950Z AUTO 01007KT 10SM OVC090 06/01 A3020 120 67 -800 010/07 RMK AO2 SLP228 T00610006
03949KAQV AQV20160127035511801/27/16 03:55:31  5-MIN KAQV 270955Z AUTO 02007KT 10SM OVC090 06/01 A3020 120 67 -800 010/07 RMK AO2 SLP228 T00610006
03949KAQV AQV20160127040011101/27/16 04:00:31  5-MIN KAQV 271000Z AUTO 02006KT 10SM OVC090 06/00 A3020 120 65 -800 020/06 RMK AO2 T00610000
03949KAQV AQV20160127040511701/27/16 04:05:31  5-MIN KAQV 271005Z AUTO 03007G14KT 10SM OVC090 06/00 A3020 120 65 -800 020/07G14 RMK AO2 T00610000
03949KAQV AQV20160127041011101/27/16 04:10:31  5-MIN KAQV 271010Z AUTO 01006KT 10SM OVC090 06/01 A3020 120 67 -800 010/06 RMK AO2 T00610006
03949KAQV AQV20160127041511101/27/16 04:15:31  5-MIN KAQV 271015Z AUTO 02007KT 10SM OVC090 06/01 A3020 120 70 -900 010/07 RMK AO2 T00560006
03949KAQV AQV20160127042011101/27/16 04:20:31  5-MIN KAQV 271020Z AUTO 01006KT 10SM BKN090 06/00 A3020 120 67 -900 010/06 RMK AO2 T00560000
03949KAQV AQV20160127042511101/27/16 04:25:31  5-MIN KAQV 271025Z AUTO 02006KT 10SM BKN090 06/00 A3020 120 67 -900 010/06 RMK AO2 T00560000
03949KAQV AQV20160127043011101/27/16 04:30:31  5-MIN KAQV 271030Z AUTO 01005KT 10SM SCT090 06/00 A3020 120 67 -900 010/05 RMK AO2 T00560000
03949KAQV AQV20160127043511101/27/16 04:35:31  5-MIN KAQV 271035Z AUTO 01006KT 10SM SCT090 06/00 A3020 120 67 -900 010/06 RMK AO2 T00560000
03949KAQV AQV20160127044011101/27/16 04:40:31  5-MIN KAQV 271040Z AUTO 01006KT 10SM FEW090 06/00 A3020 120 67 -900 360/06 RMK AO2 T00560000
03949KAQV AQV20160127044510901/27/16 04:45:31  5-MIN KAQV 271045Z AUTO 01008KT 10SM CLR 05/00 A3020 120 70 -1000 010/08 RMK AO2 T00500000
03949KAQV AQV20160127045011501/27/16 04:50:31  5-MIN KAQV 271050Z AUTO 36005KT 10SM CLR 06/00 A3020 120 67 -900 360/05 RMK AO2 SLP229 T00560000
03949KAQV AQV20160127045511601/27/16 04:55:31  5-MIN KAQV 271055Z AUTO 02007KT 10SM CLR 05/00 A3020 120 70 -1000 010/07 RMK AO2 SLP228 T00500000
03949KAQV AQV20160127050010901/27/16 05:00:31  5-MIN KAQV 271100Z AUTO 02007KT 10SM CLR 05/00 A3020 120 70 -1000 010/07 RMK AO2 T00500000
03949KAQV AQV20160127050510901/27/16 05:05:31  5-MIN KAQV 271105Z AUTO 01007KT 10SM CLR 05/00 A3020 120 70 -1000 010/07 RMK AO2 T00500000
03949KAQV AQV20160127051010901/27/16 05:10:31  5-MIN KAQV 271110Z AUTO 02006KT 10SM CLR 05/00 A3020 120 70 -1000 010/06 RMK AO2 T00500000
03949KAQV AQV20160127051510901/27/16 05:15:31  5-MIN KAQV 271115Z AUTO 01007KT 10SM CLR 05/00 A3020 120 70 -1000 010/07 RMK AO2 T00500000
03949KAQV AQV20160127052010901/27/16 05:20:31  5-MIN KAQV 271120Z AUTO 02008KT 10SM CLR 04/00 A3019 120 73 -1000 010/08 RMK AO2 T00440000
03949KAQV AQV20160127052511001/27/16 05:25:31  5-MIN KAQV 271125Z AUTO 01007KT 10SM CLR 04/M01 A3020 120 70 -1000 010/07 RMK AO2 T00441006
03949KAQV AQV20160127053010901/27/16 05:30:31  5-MIN KAQV 271130Z AUTO 01005KT 10SM CLR 04/00 A3020 120 73 -1000 360/05 RMK AO2 T00440000
03949KAQV AQV20160127053510901/27/16 05:35:31  5-MIN KAQV 271135Z AUTO 02008KT 10SM CLR 04/00 A3020 120 73 -1000 010/08 RMK AO2 T00440000
03949KAQV AQV20160127054011001/27/16 05:40:31  5-MIN KAQV 271140Z AUTO 01007KT 10SM CLR 04/M01 A3021 110 70 -1000 010/07 RMK AO2 T00441006
03949KAQV AQV20160127054511001/27/16 05:45:31  5-MIN KAQV 271145Z AUTO 02006KT 10SM CLR 04/M01 A3021 110 70 -1100 020/06 RMK AO2 T00441006
03949KAQV AQV20160127055014101/27/16 05:50:31  5-MIN KAQV 271150Z AUTO 01006KT 10SM CLR 04/M01 A3021 110 70 -1100 010/06 RMK AO2 SLP232 70036 T00441006 10072 20044 55009
03949KAQV AQV20160127055514101/27/16 05:55:31  5-MIN KAQV 271155Z AUTO 01006KT 10SM CLR 04/M01 A3021 110 70 -1100 010/06 RMK AO2 SLP232 70036 T00441006 10072 20044 55009
03949KAQV AQV20160127060011001/27/16 06:00:31  5-MIN KAQV 271200Z AUTO 01006KT 10SM CLR 04/M01 A3021 110 70 -1100 010/06 RMK AO2 T00441006
03949KAQV AQV20160127060511001/27/16 06:05:31  5-MIN KAQV 271205Z AUTO 01006KT 10SM CLR 04/M01 A3021 110 70 -1100 360/06 RMK AO2 T00441006
03949KAQV AQV20160127061011001/27/16 06:10:31  5-MIN KAQV 271210Z AUTO 01006KT 10SM CLR 04/M01 A3022 100 70 -1100 360/06 RMK AO2 T00441006
03949KAQV AQV20160127061511001/27/16 06:15:31  5-MIN KAQV 271215Z AUTO 01007KT 10SM CLR 04/M01 A3022 100 73 -1100 360/07 RMK AO2 T00391006
03949KAQV AQV20160127062011001/27/16 06:20:31  5-MIN KAQV 271220Z AUTO 36005KT 10SM CLR 04/M01 A3022 100 73 -1100 360/05 RMK AO2 T00391006
03949KAQV AQV20160127062510901/27/16 06:25:31  5-MIN KAQV 271225Z AUTO 36006KT 10SM CLR 04/M01 A3023 90 73 -1100 360/06 RMK AO2 T00391006
03949KAQV AQV20160127063010901/27/16 06:30:31  5-MIN KAQV 271230Z AUTO 01006KT 10SM CLR 04/M01 A3023 90 73 -1100 360/06 RMK AO2 T00391006
03949KAQV AQV20160127063510901/27/16 06:35:31  5-MIN KAQV 271235Z AUTO 01005KT 10SM CLR 04/M01 A3023 90 73 -1100 360/05 RMK AO2 T00391006
03949KAQV AQV20160127064010901/27/16 06:40:31  5-MIN KAQV 271240Z AUTO 36007KT 10SM CLR 04/M01 A3024 90 73 -1200 360/07 RMK AO2 T00391006
03949KAQV AQV20160127064510901/27/16 06:45:31  5-MIN KAQV 271245Z AUTO 01005KT 10SM CLR 04/M01 A3024 80 73 -1200 360/05 RMK AO2 T00391006
03949KAQV AQV20160127065011601/27/16 06:50:31  5-MIN KAQV 271250Z AUTO 01006KT 10SM CLR 04/M01 A3024 80 73 -1200 360/06 RMK AO2 SLP242 T00391006
03949KAQV AQV20160127065511601/27/16 06:55:31  5-MIN KAQV 271255Z AUTO 01005KT 10SM CLR 04/M01 A3024 80 73 -1200 360/05 RMK AO2 SLP243 T00391006
03949KAQV AQV20160127070010901/27/16 07:00:31  5-MIN KAQV 271300Z AUTO 01005KT 10SM CLR 04/M01 A3024 80 73 -1200 010/05 RMK AO2 T00391006
03949KAQV AQV20160127070510901/27/16 07:05:31  5-MIN KAQV 271305Z AUTO 02006KT 10SM CLR 04/M01 A3024 80 73 -1200 010/06 RMK AO2 T00391006
03949KAQV AQV20160127071010901/27/16 07:10:31  5-MIN KAQV 271310Z AUTO 02006KT 10SM CLR 04/M01 A3025 80 73 -1200 010/06 RMK AO2 T00391006
03949KAQV AQV20160127071510801/27/16 07:15:31  5-MIN KAQV 271315Z AUTO 01006KT 10SM CLR 04/00 A3025 80 76 -1200 360/06 RMK AO2 T00390000
03949KAQV AQV20160127072010901/27/16 07:20:31  5-MIN KAQV 271320Z AUTO 36006KT 10SM CLR 04/M01 A3025 80 73 -1200 360/06 RMK AO2 T00391006
03949KAQV AQV20160127072510801/27/16 07:25:31  5-MIN KAQV 271325Z AUTO 01005KT 10SM CLR 04/00 A3025 70 76 -1200 360/05 RMK AO2 T00390000
03949KAQV AQV20160127073010801/27/16 07:30:31  5-MIN KAQV 271330Z AUTO 36006KT 10SM CLR 04/00 A3025 70 76 -1200 360/06 RMK AO2 T00390000
03949KAQV AQV20160127073510801/27/16 07:35:31  5-MIN KAQV 271335Z AUTO 01005KT 10SM CLR 04/00 A3026 70 76 -1200 010/05 RMK AO2 T00390000
03949KAQV AQV20160127074011101/27/16 07:40:31  5-MIN KAQV 271340Z AUTO 36006KT 10SM FEW095 04/00 A3026 60 76 -1200 360/06 RMK AO2 T00390000
03949KAQV AQV20160127074511101/27/16 07:45:31  5-MIN KAQV 271345Z AUTO 01005KT 10SM SCT095 04/00 A3026 70 76 -1200 360/05 RMK AO2 T00390000
03949KAQV AQV20160127075011801/27/16 07:50:31  5-MIN KAQV 271350Z AUTO 02006KT 10SM BKN095 04/00 A3026 70 76 -1200 010/06 RMK AO2 SLP248 T00390000
03949KAQV AQV20160127075511801/27/16 07:55:31  5-MIN KAQV 271355Z AUTO 01006KT 10SM BKN095 04/00 A3026 70 76 -1200 360/06 RMK AO2 SLP248 T00390000
03949KAQV AQV20160127082511101/27/16 08:25:31  5-MIN KAQV 271425Z AUTO 01007KT 10SM BKN095 04/00 A3026 60 76 -1200 360/07 RMK AO2 T00390000
03949KAQV AQV20160127083011101/27/16 08:30:31  5-MIN KAQV 271430Z AUTO 02006KT 10SM BKN095 04/00 A3025 70 76 -1200 010/06 RMK AO2 T00390000
03949KAQV AQV20160127083511101/27/16 08:35:31  5-MIN KAQV 271435Z AUTO 02006KT 10SM BKN095 04/00 A3025 70 73 -1100 010/06 RMK AO2 T00440000
03949KAQV AQV20160127084011101/27/16 08:40:31  5-MIN KAQV 271440Z AUTO 01007KT 10SM SCT095 04/00 A3025 70 76 -1200 010/07 RMK AO2 T00390000
03949KAQV AQV20160127084511101/27/16 08:45:31  5-MIN KAQV 271445Z AUTO 01006KT 10SM SCT095 04/00 A3025 70 73 -1100 010/06 RMK AO2 T00440000
03949KAQV AQV20160127085012401/27/16 08:50:31  5-MIN KAQV 271450Z AUTO 01007KT 10SM FEW095 04/00 A3024 80 73 -1100 360/07 RMK AO2 SLP244 T00440000 53004
03949KAQV AQV20160127085512101/27/16 08:55:31  5-MIN KAQV 271455Z AUTO 02007KT 10SM CLR 04/00 A3024 80 73 -1100 010/07 RMK AO2 SLP244 T00440000 53004
03949KAQV AQV20160127090010801/27/16 09:00:31  5-MIN KAQV 271500Z AUTO 36007KT 10SM CLR 04/00 A3024 80 73 -1100 360/07 RMK AO2 T00440000
03949KAQV AQV20160127090510801/27/16 09:05:31  5-MIN KAQV 271505Z AUTO 01007KT 10SM CLR 04/00 A3024 80 73 -1100 010/07 RMK AO2 T00440000
03949KAQV AQV20160127091010801/27/16 09:10:31  5-MIN KAQV 271510Z AUTO 01007KT 10SM CLR 04/00 A3025 70 73 -1100 010/07 RMK AO2 T00440000
03949KAQV AQV20160127091510801/27/16 09:15:31  5-MIN KAQV 271515Z AUTO 01006KT 10SM CLR 04/01 A3025 70 76 -1100 010/06 RMK AO2 T00440006
03949KAQV AQV20160127092011101/27/16 09:20:31  5-MIN KAQV 271520Z AUTO 01007KT 10SM FEW095 04/01 A3025 80 76 -1100 360/07 RMK AO2 T00440006
03949KAQV AQV20160127092511101/27/16 09:25:31  5-MIN KAQV 271525Z AUTO 03007KT 10SM FEW095 05/01 A3025 70 73 -1000 020/07 RMK AO2 T00500006
03949KAQV AQV20160127093011101/27/16 09:30:31  5-MIN KAQV 271530Z AUTO 01008KT 10SM FEW095 06/01 A3025 70 70 -1000 010/08 RMK AO2 T00560006
03949KAQV AQV20160127093511701/27/16 09:35:31  5-MIN KAQV 271535Z AUTO 02010G16KT 10SM FEW095 06/01 A3025 70 70 -1000 010/10G16 RMK AO2 T00560006
03949KAQV AQV20160127094013301/27/16 09:40:31  5-MIN KAQV 271540Z AUTO 01008G16KT 330V050 10SM FEW095 06/01 A3025 70 70 -1000 360/08G16 330V050 RMK AO2 T00560006
03949KAQV AQV20160127094511701/27/16 09:45:31  5-MIN KAQV 271545Z AUTO 01010G16KT 10SM FEW095 06/01 A3026 70 70 -1000 010/10G16 RMK AO2 T00560006
03949KAQV AQV20160127095012101/27/16 09:50:31  5-MIN KAQV 271550Z AUTO 02007G16KT 10SM CLR 06/00 A3026 60 67 -1000 020/07G16 RMK AO2 SLP249 T00560000
03949KAQV AQV20160127095512101/27/16 09:55:31  5-MIN KAQV 271555Z AUTO 02011G17KT 10SM CLR 06/00 A3026 60 67 -1000 020/11G17 RMK AO2 SLP249 T00560000
03949KAQV AQV20160127100011501/27/16 10:00:31  5-MIN KAQV 271600Z AUTO 03008G17KT 10SM CLR 06/M01 A3026 60 65 -1000 030/08G17 RMK AO2 T00561006
03949KAQV AQV20160127100510801/27/16 10:05:31  5-MIN KAQV 271605Z AUTO 01009KT 10SM CLR 06/M01 A3026 60 62 -900 010/09 RMK AO2 T00611006
03949KAQV AQV20160127101011401/27/16 10:10:31  5-MIN KAQV 271610Z AUTO 03009G17KT 10SM CLR 06/M01 A3027 60 62 -900 030/09G17 RMK AO2 T00611006
03949KAQV AQV20160127101511501/27/16 10:15:31  5-MIN KAQV 271615Z AUTO 03009G17KT 10SM CLR 06/M01 A3026 60 65 -1000 030/09G17 RMK AO2 T00561006
03949KAQV AQV20160127102010801/27/16 10:20:31  5-MIN KAQV 271620Z AUTO 02007KT 10SM CLR 06/M01 A3026 60 62 -900 020/07 RMK AO2 T00611006
03949KAQV AQV20160127102511401/27/16 10:25:31  5-MIN KAQV 271625Z AUTO 01011G15KT 10SM CLR 06/M01 A3026 60 62 -900 360/11G15 RMK AO2 T00611006
03949KAQV AQV20160127103011401/27/16 10:30:31  5-MIN KAQV 271630Z AUTO 03009G16KT 10SM CLR 06/M01 A3026 60 62 -900 020/09G16 RMK AO2 T00611006
03949KAQV AQV20160127103512901/27/16 10:35:31  5-MIN KAQV 271635Z AUTO 02008G16KT 360V060 10SM CLR 07/00 A3026 60 62 -800 020/08G16 360V060 RMK AO2 T00670000
03949KAQV AQV20160127104010701/27/16 10:40:31  5-MIN KAQV 271640Z AUTO VRB06KT 10SM CLR 07/00 A3026 60 62 -800 VRB/06 RMK AO2 T00670000
03949KAQV AQV20160127104510801/27/16 10:45:31  5-MIN KAQV 271645Z AUTO 03011KT 10SM CLR 07/M01 A3026 70 60 -800 020/11 RMK AO2 T00671006
03949KAQV AQV20160127105011501/27/16 10:50:31  5-MIN KAQV 271650Z AUTO 01010KT 10SM CLR 07/M01 A3026 70 60 -800 010/10 RMK AO2 SLP248 T00671006
03949KAQV AQV20160127105511501/27/16 10:55:31  5-MIN KAQV 271655Z AUTO 03009KT 10SM CLR 07/M01 A3026 60 60 -800 020/09 RMK AO2 SLP248 T00671006
03949KAQV AQV20160127110010801/27/16 11:00:31  5-MIN KAQV 271700Z AUTO 01009KT 10SM CLR 07/M01 A3026 60 60 -800 010/09 RMK AO2 T00671006
03949KAQV AQV20160127110512401/27/16 11:05:31  5-MIN KAQV 271705Z AUTO 02009KT 340V050 10SM CLR 07/M01 A3026 70 57 -800 020/09 340V050 RMK AO2 T00721006
03949KAQV AQV20160127111011401/27/16 11:10:31  5-MIN KAQV 271710Z AUTO 03006G14KT 10SM CLR 07/M01 A3026 70 57 -800 030/06G14 RMK AO2 T00721006
03949KAQV AQV20160127111511401/27/16 11:15:31  5-MIN KAQV 271715Z AUTO 02010G17KT 10SM CLR 07/M01 A3026 70 60 -800 020/10G17 RMK AO2 T00671006
03949KAQV AQV20160127112011401/27/16 11:20:31  5-MIN KAQV 271720Z AUTO 36006G17KT 10SM CLR 07/M01 A3026 70 57 -800 360/06G17 RMK AO2 T00721006
03949KAQV AQV20160127112510701/27/16 11:25:31  5-MIN KAQV 271725Z AUTO 36008KT 10SM CLR 07/00 A3025 70 60 -800 360/08 RMK AO2 T00720000
03949KAQV AQV20160127113010801/27/16 11:30:31  5-MIN KAQV 271730Z AUTO 36008KT 10SM CLR 08/M01 A3025 70 55 -700 360/08 RMK AO2 T00781006
03949KAQV AQV20160127113510801/27/16 11:35:31  5-MIN KAQV 271735Z AUTO 36009KT 10SM CLR 07/M01 A3025 70 57 -800 360/09 RMK AO2 T00721006
03949KAQV AQV20160127114010701/27/16 11:40:31  5-MIN KAQV 271740Z AUTO 01007KT 10SM CLR 07/00 A3025 70 60 -800 010/07 RMK AO2 T00720000
03949KAQV AQV20160127114510701/27/16 11:45:31  5-MIN KAQV 271745Z AUTO 36007KT 10SM CLR 08/01 A3025 70 60 -700 360/07 RMK AO2 T00780006
03949KAQV AQV20160127115013201/27/16 11:50:31  5-MIN KAQV 271750Z AUTO VRB06KT 10SM CLR 08/00 A3024 80 58 -700 VRB/06 RMK AO2 SLP243 T00780000 10078 20039 50011
03949KAQV AQV20160127115514801/27/16 11:55:31  5-MIN KAQV 271755Z AUTO 01008KT 320V050 10SM CLR 08/00 A3024 80 58 -700 360/08 320V050 RMK AO2 SLP241 T00780000 10078 20039 50011
03949KAQV AQV20160127120010701/27/16 12:00:31  5-MIN KAQV 271800Z AUTO 36008KT 10SM CLR 08/01 A3024 90 58 -600 360/08 RMK AO2 T00830006
03949KAQV AQV20160127120510701/27/16 12:05:31  5-MIN KAQV 271805Z AUTO 36007KT 10SM CLR 08/01 A3023 90 60 -700 360/07 RMK AO2 T00780006
03949KAQV AQV20160127121011301/27/16 12:10:31  5-MIN KAQV 271810Z AUTO 01008G15KT 10SM CLR 08/01 A3023 90 58 -600 010/08G15 RMK AO2 T00830006
03949KAQV AQV20160127121511301/27/16 12:15:31  5-MIN KAQV 271815Z AUTO 02009G15KT 10SM CLR 08/01 A3023 90 58 -600 010/09G15 RMK AO2 T00830006
03949KAQV AQV20160127122010701/27/16 12:20:31  5-MIN KAQV 271820Z AUTO 02010KT 10SM CLR 08/00 A3023 90 58 -700 010/10 RMK AO2 T00780000
03949KAQV AQV20160127122510701/27/16 12:25:31  5-MIN KAQV 271825Z AUTO 02007KT 10SM CLR 08/00 A3023 90 58 -700 010/07 RMK AO2 T00780000
03949KAQV AQV20160127123010801/27/16 12:30:31  5-MIN KAQV 271830Z AUTO 36007KT 10SM CLR 08/00 A3023 100 55 -600 360/07 RMK AO2 T00830000
03949KAQV AQV20160127123512401/27/16 12:35:31  5-MIN KAQV 271835Z AUTO 36008KT 330V030 10SM CLR 09/01 A3022 100 56 -500 360/08 330V030 RMK AO2 T00890006
03949KAQV AQV20160127124011401/27/16 12:40:31  5-MIN KAQV 271840Z AUTO VRB06G15KT 10SM CLR 09/00 A3022 100 53 -500 VRB/06G15 RMK AO2 T00890000
03949KAQV AQV20160127124511401/27/16 12:45:31  5-MIN KAQV 271845Z AUTO 01007G15KT 10SM CLR 09/00 A3021 110 53 -500 010/07G15 RMK AO2 T00890000
03949KAQV AQV20160127125011601/27/16 12:50:31  5-MIN KAQV 271850Z AUTO VRB06KT 10SM CLR 09/M01 A3021 110 51 -500 VRB/06 RMK AO2 SLP231 T00891006
03949KAQV AQV20160127125511601/27/16 12:55:31  5-MIN KAQV 271855Z AUTO 02009KT 10SM CLR 09/M01 A3021 110 51 -500 020/09 RMK AO2 SLP231 T00891006
03949KAQV AQV20160127130010901/27/16 13:00:31  5-MIN KAQV 271900Z AUTO 01009KT 10SM CLR 09/M01 A3021 110 49 -400 010/09 RMK AO2 T00941006
03949KAQV AQV20160127130510801/27/16 13:05:31  5-MIN KAQV 271905Z AUTO 36010KT 10SM CLR 09/00 A3021 110 51 -400 350/10 RMK AO2 T00940000
03949KAQV AQV20160127131010801/27/16 13:10:31  5-MIN KAQV 271910Z AUTO 01009KT 10SM CLR 09/00 A3020 110 53 -500 010/09 RMK AO2 T00890000
03949KAQV AQV20160127131510801/27/16 13:15:31  5-MIN KAQV 271915Z AUTO 02006KT 10SM CLR 09/00 A3020 110 51 -400 020/06 RMK AO2 T00940000
03949KAQV AQV20160127132011401/27/16 13:20:31  5-MIN KAQV 271920Z AUTO 36008G16KT 10SM CLR 09/00 A3020 120 51 -400 360/08G16 RMK AO2 T00940000
03949KAQV AQV20160127132511401/27/16 13:25:31  5-MIN KAQV 271925Z AUTO 36005G16KT 10SM CLR 10/00 A3020 120 49 -400 360/05G16 RMK AO2 T01000000
03949KAQV AQV20160127133010801/27/16 13:30:31  5-MIN KAQV 271930Z AUTO 01008KT 10SM CLR 09/00 A3020 120 51 -400 010/08 RMK AO2 T00940000
03949KAQV AQV20160127133510801/27/16 13:35:31  5-MIN KAQV 271935Z AUTO 01007KT 10SM CLR 10/00 A3019 120 49 -400 010/07 RMK AO2 T01000000
03949KAQV AQV20160127134010901/27/16 13:40:31  5-MIN KAQV 271940Z AUTO 04010KT 10SM CLR 10/M01 A3019 130 47 -300 030/10 RMK AO2 T01001006
03949KAQV AQV20160127134511501/27/16 13:45:31  5-MIN KAQV 271945Z AUTO 03009G15KT 10SM CLR 09/M01 A3018 130 49 -400 020/09G15 RMK AO2 T00941006
03949KAQV AQV20160127135011601/27/16 13:50:31  5-MIN KAQV 271950Z AUTO 03009KT 10SM CLR 10/M01 A3019 130 47 -300 020/09 RMK AO2 SLP224 T01001006
03949KAQV AQV20160127135513201/27/16 13:55:31  5-MIN KAQV 271955Z AUTO 01007KT 340V040 10SM CLR 09/M01 A3019 130 49 -400 010/07 340V040 RMK AO2 SLP224 T00941006
03949KAQV AQV20160127140013001/27/16 14:00:31  5-MIN KAQV 272000Z AUTO 34007G14KT 300V030 10SM CLR 11/00 A3019 130 48 -300 340/07G14 300V030 RMK AO2 T01060000
03949KAQV AQV20160127140510801/27/16 14:05:31  5-MIN KAQV 272005Z AUTO 01009KT 10SM CLR 10/00 A3019 130 49 -300 360/09 RMK AO2 T01000000
03949KAQV AQV20160128063011101/28/16 06:30:31  5-MIN KAQV 281230Z AUTO 00000KT 10SM CLR M02/M04 A3014 170 88 -1800 000/00 RMK AO2 T10221039
03949KAQV AQV20160128063511101/28/16 06:35:31  5-MIN KAQV 281235Z AUTO 00000KT 10SM CLR M03/M04 A3014 170 92 -1900 000/00 RMK AO2 T10281039
03949KAQV AQV20160128064011101/28/16 06:40:31  5-MIN KAQV 281240Z AUTO 00000KT 10SM CLR M03/M04 A3015 170 92 -1900 000/00 RMK AO2 T10281039
03949KAQV AQV20160128064511101/28/16 06:45:31  5-MIN KAQV 281245Z AUTO 00000KT 10SM CLR M03/M04 A3015 170 92 -1900 000/00 RMK AO2 T10281039
03949KAQV AQV20160128065011801/28/16 06:50:31  5-MIN KAQV 281250Z AUTO 00000KT 10SM CLR M03/M04 A3015 170 92 -1900 000/00 RMK AO2 SLP212 T10281039
03949KAQV AQV20160128065511801/28/16 06:55:31  5-MIN KAQV 281255Z AUTO 00000KT 10SM CLR M03/M04 A3015 170 92 -1900 000/00 RMK AO2 SLP212 T10281039
03949KAQV AQV20160128070011101/28/16 07:00:31  5-MIN KAQV 281300Z AUTO 00000KT 10SM CLR M03/M04 A3014 170 92 -1900 000/00 RMK AO2 T10281039
03949KAQV AQV20160128070511101/28/16 07:05:31  5-MIN KAQV 281305Z AUTO 00000KT 10SM CLR M03/M04 A3015 170 92 -1900 000/00 RMK AO2 T10281039
03949KAQV AQV20160128071011101/28/16 07:10:31  5-MIN KAQV 281310Z AUTO 00000KT 10SM CLR M03/M04 A3015 170 92 -1900 000/00 RMK AO2 T10281039
03949KAQV AQV20160128071511101/28/16 07:15:31  5-MIN KAQV 281315Z AUTO 00000KT 10SM CLR M03/M04 A3015 170 92 -1900 000/00 RMK AO2 T10281039
03949KAQV AQV20160128072011101/28/16 07:20:31  5-MIN KAQV 281320Z AUTO 00000KT 10SM CLR M03/M04 A3015 170 92 -1900 000/00 RMK AO2 T10281039
03949KAQV AQV20160128072511101/28/16 07:25:31  5-MIN KAQV 281325Z AUTO 00000KT 10SM CLR M03/M03 A3014 170 96 -1900 000/00 RMK AO2 T10281033
03949KAQV AQV20160128073011101/28/16 07:30:31  5-MIN KAQV 281330Z AUTO 00000KT 10SM CLR M03/M04 A3014 170 92 -1900 000/00 RMK AO2 T10281039
03949KAQV AQV20160128073511101/28/16 07:35:31  5-MIN KAQV 281335Z AUTO 00000KT 10SM CLR M02/M03 A3014 170 92 -1800 000/00 RMK AO2 T10221033
03949KAQV AQV20160128074011101/28/16 07:40:31  5-MIN KAQV 281340Z AUTO 00000KT 10SM CLR M02/M03 A3014 170 92 -1800 000/00 RMK AO2 T10221033
03949KAQV AQV20160128074511101/28/16 07:45:31  5-MIN KAQV 281345Z AUTO 00000KT 10SM CLR M02/M03 A3014 170 92 -1800 000/00 RMK AO2 T10221033
03949KAQV AQV20160128075011801/28/16 07:50:31  5-MIN KAQV 281350Z AUTO 00000KT 10SM CLR M02/M03 A3015 170 92 -1800 000/00 RMK AO2 SLP212 T10221033
03949KAQV AQV20160128075511801/28/16 07:55:31  5-MIN KAQV 281355Z AUTO 31003KT 10SM CLR M01/M02 A3015 160 92 -1700 310/03 RMK AO2 SLP213 T10111022
03949KAQV AQV20160128080011101/28/16 08:00:31  5-MIN KAQV 281400Z AUTO 00000KT 10SM CLR M01/M02 A3015 160 92 -1600 000/00 RMK AO2 T10061017
03949KAQV AQV20160128080511001/28/16 08:05:31  5-MIN KAQV 281405Z AUTO 00000KT 10SM CLR 00/M01 A3015 170 92 -1500 000/00 RMK AO2 T00001011
03949KAQV AQV20160128081011001/28/16 08:10:31  5-MIN KAQV 281410Z AUTO 00000KT 10SM CLR 01/M01 A3015 160 92 -1500 000/00 RMK AO2 T00061006
03949KAQV AQV20160128081511001/28/16 08:15:31  5-MIN KAQV 281415Z AUTO 00000KT 10SM CLR 01/M01 A3015 160 92 -1500 000/00 RMK AO2 T00061006
03949KAQV AQV20160128082010901/28/16 08:20:31  5-MIN KAQV 281420Z AUTO 00000KT 10SM CLR 01/00 A3015 160 92 -1400 000/00 RMK AO2 T00110000
03949KAQV AQV20160128082510901/28/16 08:25:31  5-MIN KAQV 281425Z AUTO 00000KT 10SM CLR 02/00 A3016 160 85 -1300 000/00 RMK AO2 T00220000
03949KAQV AQV20160128083010901/28/16 08:30:31  5-MIN KAQV 281430Z AUTO 00000KT 10SM CLR 03/01 A3015 160 85 -1200 000/00 RMK AO2 T00280006
03949KAQV AQV20160128083510901/28/16 08:35:31  5-MIN KAQV 281435Z AUTO 00000KT 10SM CLR 03/01 A3016 160 82 -1100 000/00 RMK AO2 T00330006
03949KAQV AQV20160128084010901/28/16 08:40:31  5-MIN KAQV 281440Z AUTO 00000KT 10SM CLR 04/01 A3015 160 79 -1100 000/00 RMK AO2 T00390006
03949KAQV AQV20160128084510901/28/16 08:45:31  5-MIN KAQV 281445Z AUTO 00000KT 10SM CLR 04/01 A3016 160 79 -1000 000/00 RMK AO2 T00440011
03949KAQV AQV20160128085012101/28/16 08:50:31  5-MIN KAQV 281450Z AUTO 00000KT 10SM CLR 05/01 A3016 160 76 -900 000/00 RMK AO2 SLP215 T00500011 55008
03949KAQV AQV20160128085512101/28/16 08:55:31  5-MIN KAQV 281455Z AUTO 00000KT 10SM CLR 06/01 A3016 160 70 -900 000/00 RMK AO2 SLP214 T00560006 55008
03949KAQV AQV20160128090010801/28/16 09:00:31  5-MIN KAQV 281500Z AUTO 00000KT 10SM CLR 06/00 A3016 160 67 -900 000/00 RMK AO2 T00560000
03949KAQV AQV20160128090510901/28/16 09:05:31  5-MIN KAQV 281505Z AUTO 00000KT 10SM CLR 06/M01 A3016 160 62 -800 000/00 RMK AO2 T00611006
03949KAQV AQV20160128091010901/28/16 09:10:31  5-MIN KAQV 281510Z AUTO 00000KT 10SM CLR 07/M01 A3015 160 57 -700 000/00 RMK AO2 T00671011
03949KAQV AQV20160128091510901/28/16 09:15:31  5-MIN KAQV 281515Z AUTO 00000KT 10SM CLR 07/M02 A3016 160 55 -700 000/00 RMK AO2 T00671017
03949KAQV AQV20160128092010901/28/16 09:20:31  5-MIN KAQV 281520Z AUTO 30003KT 10SM CLR 07/M02 A3016 160 51 -700 290/03 RMK AO2 T00721022
03949KAQV AQV20160128092510901/28/16 09:25:31  5-MIN KAQV 281525Z AUTO VRB03KT 10SM CLR 08/M03 A3016 160 47 -600 VRB/03 RMK AO2 T00781028
03949KAQV AQV20160128093010901/28/16 09:30:31  5-MIN KAQV 281530Z AUTO 00000KT 10SM CLR 08/M02 A3016 150 47 -500 000/00 RMK AO2 T00831022
03949KAQV AQV20160128093510901/28/16 09:35:31  5-MIN KAQV 281535Z AUTO 00000KT 10SM CLR 08/M02 A3016 160 49 -500 000/00 RMK AO2 T00831017
03949KAQV AQV20160128094010901/28/16 09:40:31  5-MIN KAQV 281540Z AUTO VRB04KT 10SM CLR 08/M02 A3016 160 47 -500 VRB/04 RMK AO2 T00831022
03949KAQV AQV20160128094510901/28/16 09:45:31  5-MIN KAQV 281545Z AUTO 00000KT 10SM CLR 09/M03 A3016 160 43 -400 000/00 RMK AO2 T00891028
03949KAQV AQV20160128095011601/28/16 09:50:31  5-MIN KAQV 281550Z AUTO VRB04KT 10SM CLR 09/M03 A3016 150 43 -500 VRB/04 RMK AO2 SLP216 T00891028
03949KAQV AQV20160128095511601/28/16 09:55:31  5-MIN KAQV 281555Z AUTO VRB04KT 10SM CLR 09/M02 A3016 150 44 -400 VRB/04 RMK AO2 SLP217 T00941022
03949KAQV AQV20160128100010901/28/16 10:00:31  5-MIN KAQV 281600Z AUTO VRB04KT 10SM CLR 09/M02 A3016 150 44 -400 VRB/04 RMK AO2 T00941022
03949KAQV AQV20160128100510901/28/16 10:05:31  5-MIN KAQV 281605Z AUTO VRB04KT 10SM CLR 09/M02 A3016 150 44 -400 VRB/04 RMK AO2 T00941022
03949KAQV AQV20160128101010901/28/16 10:10:31  5-MIN KAQV 281610Z AUTO VRB05KT 10SM CLR 10/M02 A3016 150 42 -300 VRB/05 RMK AO2 T01001022
03949KAQV AQV20160128101510901/28/16 10:15:31  5-MIN KAQV 281615Z AUTO VRB03KT 10SM CLR 10/M03 A3016 160 40 -300 VRB/03 RMK AO2 T01001028
03949KAQV AQV20160128102010901/28/16 10:20:31  5-MIN KAQV 281620Z AUTO VRB03KT 10SM CLR 11/M02 A3016 160 40 -200 VRB/03 RMK AO2 T01061022
03949KAQV AQV20160128102510901/28/16 10:25:31  5-MIN KAQV 281625Z AUTO 00000KT 10SM CLR 11/M02 A3016 160 39 -200 000/00 RMK AO2 T01111022
03949KAQV AQV20160128103009901/28/16 10:30:31  5-MIN KAQV 281630Z AUTO 10SM CLR 11/M03 A3016 160 37 -200 M /M RMK AO2 T01111028
03949KAQV AQV20160128103510901/28/16 10:35:31  5-MIN KAQV 281635Z AUTO 00000KT 10SM CLR 11/M03 A3016 150 37 -300 000/00 RMK AO2 T01061033
03949KAQV AQV20160128104010901/28/16 10:40:31  5-MIN KAQV 281640Z AUTO 30006KT 10SM CLR 12/M03 A3016 160 35 -100 300/06 RMK AO2 T01171033
03949KAQV AQV20160128104509901/28/16 10:45:31  5-MIN KAQV 281645Z AUTO 10SM CLR 11/M03 A3015 160 36 -200 M /M RMK AO2 T01111033
03949KAQV AQV20160128105011601/28/16 10:50:31  5-MIN KAQV 281650Z AUTO 27005KT 10SM CLR 11/M04 A3015 160 34 -200 260/05 RMK AO2 SLP211 T01061044
03949KAQV AQV20160128105511601/28/16 10:55:31  5-MIN KAQV 281655Z AUTO VRB04KT 10SM CLR 11/M04 A3015 160 33 -200 VRB/04 RMK AO2 SLP212 T01111044
03949KAQV AQV20160128110010901/28/16 11:00:31  5-MIN KAQV 281700Z AUTO 30006KT 10SM CLR 11/M04 A3015 160 33 -200 290/06 RMK AO2 T01111044
03949KAQV AQV20160128110510901/28/16 11:05:31  5-MIN KAQV 281705Z AUTO VRB03KT 10SM CLR 11/M05 A3015 160 32 -200 VRB/03 RMK AO2 T01111050
03949KAQV AQV20160128111010901/28/16 11:10:31  5-MIN KAQV 281710Z AUTO VRB04KT 10SM CLR 12/M04 A3015 160 32 -100 VRB/04 RMK AO2 T01171044
03949KAQV AQV20160128111510601/28/16 11:15:31  5-MIN KAQV 281715Z AUTO VRB04KT 10SM CLR 12/M04 A3015 170 32 0 VRB/04 RMK AO2 T01221039
03949KAQV AQV20160128112010601/28/16 11:20:31  5-MIN KAQV 281720Z AUTO VRB04KT 10SM CLR 12/M04 A3014 170 31 0 VRB/04 RMK AO2 T01221044
03949KAQV AQV20160128112510601/28/16 11:25:31  5-MIN KAQV 281725Z AUTO VRB06KT 10SM CLR 12/M05 A3014 170 29 0 VRB/06 RMK AO2 T01221050
03949KAQV AQV20160128113010601/28/16 11:30:31  5-MIN KAQV 281730Z AUTO VRB03KT 10SM CLR 12/M04 A3014 180 31 0 VRB/03 RMK AO2 T01221044
03949KAQV AQV20160128113510901/28/16 11:35:31  5-MIN KAQV 281735Z AUTO VRB05KT 10SM CLR 12/M05 A3013 180 30 -100 VRB/05 RMK AO2 T01171050
03949KAQV AQV20160128114010601/28/16 11:40:31  5-MIN KAQV 281740Z AUTO VRB06KT 10SM CLR 12/M04 A3013 180 31 0 VRB/06 RMK AO2 T01221044
03949KAQV AQV20160128114510601/28/16 11:45:31  5-MIN KAQV 281745Z AUTO 00000KT 10SM CLR 12/M04 A3012 190 32 0 000/00 RMK AO2 T01221039
03949KAQV AQV20160128115012101/28/16 11:50:31  5-MIN KAQV 281750Z AUTO 10SM CLR 12/M04 A3012 190 31 0 M /M RMK AO2 SLP201 T01221044 10122 21028 51007
03949KAQV AQV20160128115513101/28/16 11:55:31  5-MIN KAQV 281755Z AUTO 28004KT 10SM CLR 13/M04 A3012 190 30 0 280/04 RMK AO2 SLP200 T01281044 10128 21028 51007
03949KAQV AQV20160128120010601/28/16 12:00:31  5-MIN KAQV 281800Z AUTO VRB04KT 10SM CLR 12/M04 A3012 190 32 0 VRB/04 RMK AO2 T01221039
03949KAQV AQV20160128120510601/28/16 12:05:31  5-MIN KAQV 281805Z AUTO 26006KT 10SM CLR 13/M03 A3012 200 32 0 250/06 RMK AO2 T01281033
03949KAQV AQV20160128121010601/28/16 12:10:31  5-MIN KAQV 281810Z AUTO 27007KT 10SM CLR 12/M04 A3011 200 32 0 270/07 RMK AO2 T01221039
03949KAQV AQV20160128121510601/28/16 12:15:31  5-MIN KAQV 281815Z AUTO VRB05KT 10SM CLR 13/M04 A3011 200 31 0 VRB/05 RMK AO2 T01281039
03949KAQV AQV20160128122010801/28/16 12:20:31  5-MIN KAQV 281820Z AUTO VRB05KT 10SM CLR 13/M03 A3010 210 31 100 VRB/05 RMK AO2 T01331033
03949KAQV AQV20160128122510801/28/16 12:25:31  5-MIN KAQV 281825Z AUTO VRB03KT 10SM CLR 13/M04 A3010 210 30 100 VRB/03 RMK AO2 T01331039
03949KAQV AQV20160128123010801/28/16 12:30:31  5-MIN KAQV 281830Z AUTO VRB03KT 10SM CLR 14/M03 A3010 210 31 200 VRB/03 RMK AO2 T01391028
03949KAQV AQV20160128123510801/28/16 12:35:31  5-MIN KAQV 281835Z AUTO VRB05KT 10SM CLR 13/M03 A3010 210 31 100 VRB/05 RMK AO2 T01331033
03949KAQV AQV20160128124010801/28/16 12:40:31  5-MIN KAQV 281840Z AUTO VRB03KT 10SM CLR 13/M03 A3009 220 31 100 VRB/03 RMK AO2 T01331033
03949KAQV AQV20160128124509801/28/16 12:45:31  5-MIN KAQV 281845Z AUTO 10SM CLR 14/M03 A3009 220 31 200 M /M RMK AO2 T01391028
03949KAQV AQV20160128125011501/28/16 12:50:31  5-MIN KAQV 281850Z AUTO VRB05KT 10SM CLR 14/M03 A3008 220 30 200 VRB/05 RMK AO2 SLP189 T01391033
03949KAQV AQV20160128125511501/28/16 12:55:31  5-MIN KAQV 281855Z AUTO VRB05KT 10SM CLR 14/M03 A3008 230 30 200 VRB/05 RMK AO2 SLP188 T01391033
03949KAQV AQV20160128130010801/28/16 13:00:31  5-MIN KAQV 281900Z AUTO VRB03KT 10SM CLR 14/M03 A3008 230 29 300 VRB/03 RMK AO2 T01441033
03949KAQV AQV20160128130510801/28/16 13:05:31  5-MIN KAQV 281905Z AUTO 27004KT 10SM CLR 14/M04 A3008 230 28 300 270/04 RMK AO2 T01441039
03949KAQV AQV20160128131009801/28/16 13:10:31  5-MIN KAQV 281910Z AUTO 10SM CLR 14/M04 A3007 240 29 200 M /M RMK AO2 T01391039
03949KAQV AQV20160128131510801/28/16 13:15:31  5-MIN KAQV 281915Z AUTO VRB05KT 10SM CLR 14/M04 A3007 240 29 200 VRB/05 RMK AO2 T01391039
03949KAQV AQV20160128132010801/28/16 13:20:31  5-MIN KAQV 281920Z AUTO VRB05KT 10SM CLR 14/M03 A3007 240 29 300 VRB/05 RMK AO2 T01441033
03949KAQV AQV20160128132510801/28/16 13:25:31  5-MIN KAQV 281925Z AUTO VRB06KT 10SM CLR 15/M03 A3006 240 28 300 VRB/06 RMK AO2 T01501033
03949KAQV AQV20160128133010801/28/16 13:30:31  5-MIN KAQV 281930Z AUTO VRB04KT 10SM CLR 14/M04 A3006 250 28 300 VRB/04 RMK AO2 T01441039
03949KAQV AQV20160128133510801/28/16 13:35:31  5-MIN KAQV 281935Z AUTO VRB03KT 10SM CLR 15/M03 A3006 250 28 300 VRB/03 RMK AO2 T01501033
03949KAQV AQV20160128134010801/28/16 13:40:31  5-MIN KAQV 281940Z AUTO 29004KT 10SM CLR 16/M03 A3005 250 28 400 290/04 RMK AO2 T01561028
03949KAQV AQV20160128134510801/28/16 13:45:31  5-MIN KAQV 281945Z AUTO VRB04KT 10SM CLR 15/M04 A3005 260 27 400 VRB/04 RMK AO2 T01501039
03949KAQV AQV20160128135011501/28/16 13:50:31  5-MIN KAQV 281950Z AUTO 33005KT 10SM CLR 16/M03 A3005 260 28 400 330/05 RMK AO2 SLP175 T01561028
03949KAQV AQV20160128135511501/28/16 13:55:31  5-MIN KAQV 281955Z AUTO 27007KT 10SM CLR 15/M03 A3004 260 28 400 260/07 RMK AO2 SLP175 T01501033
03949KAQV AQV20160128140010801/28/16 14:00:31  5-MIN KAQV 282000Z AUTO VRB03KT 10SM CLR 15/M04 A3004 260 27 400 VRB/03 RMK AO2 T01501039
03949KAQV AQV20160128140510801/28/16 14:05:31  5-MIN KAQV 282005Z AUTO 30007KT 10SM CLR 16/M04 A3004 260 26 400 290/07 RMK AO2 T01561039
03949KAQV AQV20160128141010801/28/16 14:10:31  5-MIN KAQV 282010Z AUTO VRB03KT 10SM CLR 16/M03 A3004 260 27 400 VRB/03 RMK AO2 T01561033
03949KAQV AQV20160128141510801/28/16 14:15:31  5-MIN KAQV 282015Z AUTO VRB04KT 10SM CLR 16/M03 A3004 270 27 400 VRB/04 RMK AO2 T01561033
03949KAQV AQV20160128142010801/28/16 14:20:31  5-MIN KAQV 282020Z AUTO VRB06KT 10SM CLR 16/M03 A3004 270 27 400 VRB/06 RMK AO2 T01561033
03949KAQV AQV20160128142510801/28/16 14:25:31  5-MIN KAQV 282025Z AUTO VRB03KT 10SM CLR 16/M03 A3004 270 27 400 VRB/03 RMK AO2 T01561033
03949KAQV AQV20160128143010801/28/16 14:30:31  5-MIN KAQV 282030Z AUTO 26005KT 10SM CLR 16/M03 A3004 270 27 400 260/05 RMK AO2 T01561033
03949KAQV AQV20160128143510801/28/16 14:35:31  5-MIN KAQV 282035Z AUTO 25008KT 10SM CLR 16/M03 A3004 270 27 400 250/08 RMK AO2 T01561033
03949KAQV AQV20160128144012401/28/16 14:40:31  5-MIN KAQV 282040Z AUTO 27007KT 210V300 10SM CLR 16/M03 A3004 270 27 400 260/07 210V300 RMK AO2 T01561033
03949KAQV AQV20160128144510801/28/16 14:45:31  5-MIN KAQV 282045Z AUTO VRB05KT 10SM CLR 16/M03 A3003 270 28 400 VRB/05 RMK AO2 T01561028
03949KAQV AQV20160128145012101/28/16 14:50:31  5-MIN KAQV 282050Z AUTO VRB05KT 10SM CLR 16/M03 A3003 270 27 400 VRB/05 RMK AO2 SLP172 T01561033 58013
03949KAQV AQV20160128145512101/28/16 14:55:31  5-MIN KAQV 282055Z AUTO VRB06KT 10SM CLR 16/M03 A3003 280 27 400 VRB/06 RMK AO2 SLP170 T01561033 58013
03949KAQV AQV20160128150010801/28/16 15:00:31  5-MIN KAQV 282100Z AUTO VRB06KT 10SM CLR 16/M03 A3003 270 26 500 VRB/06 RMK AO2 T01611033
03949KAQV AQV20160128150510801/28/16 15:05:31  5-MIN KAQV 282105Z AUTO VRB04KT 10SM CLR 16/M03 A3003 280 26 500 VRB/04 RMK AO2 T01611033
03949KAQV AQV20160128151010801/28/16 15:10:31  5-MIN KAQV 282110Z AUTO VRB05KT 10SM CLR 16/M03 A3003 280 26 500 VRB/05 RMK AO2 T01611033
03949KAQV AQV20160128151510801/28/16 15:15:31  5-MIN KAQV 282115Z AUTO VRB05KT 10SM CLR 16/M03 A3002 280 27 500 VRB/05 RMK AO2 T01611028
03949KAQV AQV20160128152010801/28/16 15:20:31  5-MIN KAQV 282120Z AUTO 25005KT 10SM CLR 16/M03 A3002 280 28 500 250/05 RMK AO2 T01561028
03949KAQV AQV20160128152510801/28/16 15:25:31  5-MIN KAQV 282125Z AUTO VRB06KT 10SM CLR 16/M03 A3002 280 28 500 VRB/06 RMK AO2 T01561028
03949KAQV AQV20160128153010801/28/16 15:30:31  5-MIN KAQV 282130Z AUTO 28005KT 10SM CLR 16/M03 A3002 280 28 500 280/05 RMK AO2 T01561028
03949KAQV AQV20160128153512401/28/16 15:35:31  5-MIN KAQV 282135Z AUTO 25007KT 220V280 10SM CLR 16/M03 A3002 280 27 500 250/07 220V280 RMK AO2 T01611028
03949KAQV AQV20160128154010801/28/16 15:40:31  5-MIN KAQV 282140Z AUTO VRB06KT 10SM CLR 16/M02 A3002 280 28 500 VRB/06 RMK AO2 T01611022
03949KAQV AQV20160128154510801/28/16 15:45:31  5-MIN KAQV 282145Z AUTO VRB05KT 10SM CLR 16/M03 A3003 280 27 500 VRB/05 RMK AO2 T01611028
03949KAQV AQV20160128155011501/28/16 15:50:31  5-MIN KAQV 282150Z AUTO 26004KT 10SM CLR 16/M02 A3003 280 28 500 260/04 RMK AO2 SLP169 T01611022
03949KAQV AQV20160128155511501/28/16 15:55:31  5-MIN KAQV 282155Z AUTO VRB04KT 10SM CLR 16/M03 A3003 280 28 400 VRB/04 RMK AO2 SLP169 T01561028
03949KAQV AQV20160128160010801/28/16 16:00:31  5-MIN KAQV 282200Z AUTO VRB04KT 10SM CLR 16/M03 A3003 280 27 500 VRB/04 RMK AO2 T01611028
03949KAQV AQV20160128160510801/28/16 16:05:31  5-MIN KAQV 282205Z AUTO VRB06KT 10SM CLR 16/M02 A3003 280 28 500 VRB/06 RMK AO2 T01611022
03949KAQV AQV20160128161010801/28/16 16:10:31  5-MIN KAQV 282210Z AUTO VRB05KT 10SM CLR 16/M02 A3002 280 28 500 VRB/05 RMK AO2 T01611022
03949KAQV AQV20160128161510801/28/16 16:15:31  5-MIN KAQV 282215Z AUTO VRB03KT 10SM CLR 16/M02 A3002 280 28 500 VRB/03 RMK AO2 T01611022
03949KAQV AQV20160128162010801/28/16 16:20:31  5-MIN KAQV 282220Z AUTO VRB04KT 10SM CLR 16/M02 A3002 280 28 500 VRB/04 RMK AO2 T01611022
03949KAQV AQV20160128162510801/28/16 16:25:31  5-MIN KAQV 282225Z AUTO VRB05KT 10SM CLR 16/M02 A3002 280 28 500 VRB/05 RMK AO2 T01611022
03949KAQV AQV20160128163010801/28/16 16:30:31  5-MIN KAQV 282230Z AUTO VRB05KT 10SM CLR 16/M02 A3002 280 28 500 VRB/05 RMK AO2 T01611022
03949KAQV AQV20160128163510801/28/16 16:35:31  5-MIN KAQV 282235Z AUTO VRB03KT 10SM CLR 16/M02 A3002 280 29 500 VRB/03 RMK AO2 T01561022
03949KAQV AQV20160128164010801/28/16 16:40:31  5-MIN KAQV 282240Z AUTO VRB03KT 10SM CLR 16/M03 A3002 280 28 500 VRB/03 RMK AO2 T01561028
03949KAQV AQV20160128164510801/28/16 16:45:31  5-MIN KAQV 282245Z AUTO VRB04KT 10SM CLR 16/M02 A3002 280 28 500 VRB/04 RMK AO2 T01611022
03949KAQV AQV20160128165011501/28/16 16:50:31  5-MIN KAQV 282250Z AUTO 00000KT 10SM CLR 16/M02 A3002 280 29 500 000/00 RMK AO2 SLP168 T01561022
03949KAQV AQV20160128165511501/28/16 16:55:31  5-MIN KAQV 282255Z AUTO VRB04KT 10SM CLR 16/M02 A3002 280 29 500 VRB/04 RMK AO2 SLP168 T01561022
03949KAQV AQV20160128170010801/28/16 17:00:31  5-MIN KAQV 282300Z AUTO VRB03KT 10SM CLR 15/M02 A3002 280 30 400 VRB/03 RMK AO2 T01501022
03949KAQV AQV20160128170510801/28/16 17:05:31  5-MIN KAQV 282305Z AUTO 00000KT 10SM CLR 15/M02 A3002 280 30 400 000/00 RMK AO2 T01501022
03949KAQV AQV20160128171010801/28/16 17:10:31  5-MIN KAQV 282310Z AUTO VRB03KT 10SM CLR 14/M02 A3002 280 31 300 VRB/03 RMK AO2 T01441022
03949KAQV AQV20160128171510801/28/16 17:15:31  5-MIN KAQV 282315Z AUTO 00000KT 10SM CLR 14/M02 A3002 280 34 300 000/00 RMK AO2 T01391017
03949KAQV AQV20160128172010801/28/16 17:20:31  5-MIN KAQV 282320Z AUTO 00000KT 10SM CLR 14/M02 A3002 280 34 300 000/00 RMK AO2 T01391017
03949KAQV AQV20160128172510801/28/16 17:25:31  5-MIN KAQV 282325Z AUTO 00000KT 10SM CLR 13/M01 A3003 280 36 200 000/00 RMK AO2 T01331011
03949KAQV AQV20160128173010801/28/16 17:30:31  5-MIN KAQV 282330Z AUTO 00000KT 10SM CLR 12/M01 A3003 280 41 100 000/00 RMK AO2 T01221006
03949KAQV AQV20160128173510501/28/16 17:35:31  5-MIN KAQV 282335Z AUTO 00000KT 10SM CLR 12/00 A3003 280 44 0 000/00 RMK AO2 T01170000
03949KAQV AQV20160128174010501/28/16 17:40:31  5-MIN KAQV 282340Z AUTO 00000KT 10SM CLR 12/01 A3003 280 46 0 000/00 RMK AO2 T01170006
03949KAQV AQV20160128174510501/28/16 17:45:31  5-MIN KAQV 282345Z AUTO 00000KT 10SM CLR 11/01 A3003 270 48 0 000/00 RMK AO2 T01110006
03949KAQV AQV20160128175013301/28/16 17:50:31  5-MIN KAQV 282350Z AUTO 00000KT 10SM CLR 11/01 A3003 270 52 -100 000/00 RMK AO2 SLP172 T01060011 10161 20106 56029
03949KAQV AQV20160128175513301/28/16 17:55:31  5-MIN KAQV 282355Z AUTO 00000KT 10SM CLR 10/01 A3003 270 54 -200 000/00 RMK AO2 SLP173 T01000011 10161 20100 56029
03949KAQV AQV20160128180010801/28/16 18:00:31  5-MIN KAQV 290000Z AUTO 00000KT 10SM CLR 10/01 A3003 270 54 -200 000/00 RMK AO2 T01000011
03949KAQV AQV20160128180510801/28/16 18:05:31  5-MIN KAQV 290005Z AUTO 00000KT 10SM CLR 09/01 A3004 270 56 -200 000/00 RMK AO2 T00940011
03949KAQV AQV20160128181010801/28/16 18:10:31  5-MIN KAQV 290010Z AUTO 00000KT 10SM CLR 09/02 A3004 270 60 -300 000/00 RMK AO2 T00890017
03949KAQV AQV20160128181510801/28/16 18:15:31  5-MIN KAQV 290015Z AUTO 00000KT 10SM CLR 08/02 A3004 270 65 -400 000/00 RMK AO2 T00830022
03949KAQV AQV20160128182010801/28/16 18:20:31  5-MIN KAQV 290020Z AUTO 00000KT 10SM CLR 08/02 A3004 270 63 -400 000/00 RMK AO2 T00830017
03949KAQV AQV20160128182510801/28/16 18:25:31  5-MIN KAQV 290025Z AUTO 00000KT 10SM CLR 07/02 A3004 270 70 -500 000/00 RMK AO2 T00720022
03949KAQV AQV20160128183010801/28/16 18:30:31  5-MIN KAQV 290030Z AUTO 00000KT 10SM CLR 07/02 A3004 270 70 -500 000/00 RMK AO2 T00720022
03949KAQV AQV20160128183510801/28/16 18:35:31  5-MIN KAQV 290035Z AUTO 00000KT 10SM CLR 08/02 A3004 270 65 -400 000/00 RMK AO2 T00780017
03949KAQV AQV20160128184010801/28/16 18:40:31  5-MIN KAQV 290040Z AUTO 00000KT 10SM CLR 07/02 A3004 260 68 -500 000/00 RMK AO2 T00720017
03949KAQV AQV20160128184510801/28/16 18:45:31  5-MIN KAQV 290045Z AUTO 00000KT 10SM CLR 07/02 A3004 270 68 -500 000/00 RMK AO2 T00720017
03949KAQV AQV20160128185011501/28/16 18:50:31  5-MIN KAQV 290050Z AUTO 00000KT 10SM CLR 07/02 A3004 270 70 -500 000/00 RMK AO2 SLP176 T00720022
03949KAQV AQV20160128185511501/28/16 18:55:31  5-MIN KAQV 290055Z AUTO 00000KT 10SM CLR 07/02 A3004 270 73 -600 000/00 RMK AO2 SLP176 T00670022
03949KAQV AQV20160128190010801/28/16 19:00:31  5-MIN KAQV 290100Z AUTO 00000KT 10SM CLR 07/02 A3004 260 73 -600 000/00 RMK AO2 T00670022
03949KAQV AQV20160128190510801/28/16 19:05:31  5-MIN KAQV 290105Z AUTO 00000KT 10SM CLR 06/02 A3004 270 76 -700 000/00 RMK AO2 T00610022
03949KAQV AQV20160128191010801/28/16 19:10:31  5-MIN KAQV 290110Z AUTO 00000KT 10SM CLR 06/02 A3004 260 76 -700 000/00 RMK AO2 T00610022
03949KAQV AQV20160128191510801/28/16 19:15:31  5-MIN KAQV 290115Z AUTO 00000KT 10SM CLR 06/02 A3004 260 76 -700 000/00 RMK AO2 T00610022
03949KAQV AQV20160128192010801/28/16 19:20:31  5-MIN KAQV 290120Z AUTO 00000KT 10SM CLR 06/03 A3004 260 79 -700 000/00 RMK AO2 T00610028
03949KAQV AQV20160128192510801/28/16 19:25:31  5-MIN KAQV 290125Z AUTO 00000KT 10SM CLR 06/02 A3005 260 79 -700 000/00 RMK AO2 T00560022
03949KAQV AQV20160128193010801/28/16 19:30:31  5-MIN KAQV 290130Z AUTO 00000KT 10SM CLR 06/02 A3005 260 76 -700 000/00 RMK AO2 T00560017
03949KAQV AQV20160128193510801/28/16 19:35:31  5-MIN KAQV 290135Z AUTO 00000KT 10SM CLR 06/02 A3005 260 76 -700 000/00 RMK AO2 T00560017
03949KAQV AQV20160128194010801/28/16 19:40:31  5-MIN KAQV 290140Z AUTO 00000KT 10SM CLR 06/01 A3005 260 73 -700 000/00 RMK AO2 T00560011
03949KAQV AQV20160128194510801/28/16 19:45:31  5-MIN KAQV 290145Z AUTO 00000KT 10SM CLR 05/01 A3005 260 76 -800 000/00 RMK AO2 T00500011
03949KAQV AQV20160128195011501/28/16 19:50:31  5-MIN KAQV 290150Z AUTO 00000KT 10SM CLR 05/01 A3005 260 76 -800 000/00 RMK AO2 SLP179 T00500011
03949KAQV AQV20160128195511501/28/16 19:55:31  5-MIN KAQV 290155Z AUTO 00000KT 10SM CLR 05/01 A3005 260 76 -800 000/00 RMK AO2 SLP179 T00500011
03949KAQV AQV20160128200010801/28/16 20:00:31  5-MIN KAQV 290200Z AUTO 00000KT 10SM CLR 05/02 A3005 260 79 -800 000/00 RMK AO2 T00500017
03949KAQV AQV20160128200510801/28/16 20:05:31  5-MIN KAQV 290205Z AUTO 00000KT 10SM CLR 04/02 A3005 260 82 -900 000/00 RMK AO2 T00440017
03949KAQV AQV20160128201010801/28/16 20:10:31  5-MIN KAQV 290210Z AUTO 00000KT 10SM CLR 04/02 A3005 260 82 -900 000/00 RMK AO2 T00440017
03949KAQV AQV20160128201510801/28/16 20:15:31  5-MIN KAQV 290215Z AUTO 00000KT 10SM CLR 04/01 A3005 260 79 -900 000/00 RMK AO2 T00440011
03949KAQV AQV20160128202010801/28/16 20:20:31  5-MIN KAQV 290220Z AUTO 00000KT 10SM CLR 04/02 A3005 260 82 -900 000/00 RMK AO2 T00440017
03949KAQV AQV20160128202510801/28/16 20:25:31  5-MIN KAQV 290225Z AUTO 00000KT 10SM CLR 04/02 A3005 260 82 -900 000/00 RMK AO2 T00440017
03949KAQV AQV20160128203010801/28/16 20:30:31  5-MIN KAQV 290230Z AUTO VRB03KT 10SM CLR 04/01 A3005 250 79 -900 VRB/03 RMK AO2 T00440011
03949KAQV AQV20160128203510801/28/16 20:35:31  5-MIN KAQV 290235Z AUTO 00000KT 10SM CLR 04/01 A3006 250 79 -900 000/00 RMK AO2 T00440011
03949KAQV AQV20160128204010801/28/16 20:40:31  5-MIN KAQV 290240Z AUTO 00000KT 10SM CLR 04/01 A3006 250 82 -900 000/00 RMK AO2 T00390011
03949KAQV AQV20160128204510801/28/16 20:45:31  5-MIN KAQV 290245Z AUTO 00000KT 10SM CLR 04/01 A3006 250 79 -900 000/00 RMK AO2 T00440011
03949KAQV AQV20160128205012101/28/16 20:50:31  5-MIN KAQV 290250Z AUTO 00000KT 10SM CLR 04/01 A3005 250 82 -900 000/00 RMK AO2 SLP179 T00390011 53001
03949KAQV AQV20160128205512101/28/16 20:55:31  5-MIN KAQV 290255Z AUTO 00000KT 10SM CLR 04/01 A3005 250 79 -900 000/00 RMK AO2 SLP180 T00440011 53001
03949KAQV AQV20160128210010801/28/16 21:00:31  5-MIN KAQV 290300Z AUTO 00000KT 10SM CLR 04/01 A3005 250 79 -900 000/00 RMK AO2 T00440011
03949KAQV AQV20160128210510801/28/16 21:05:31  5-MIN KAQV 290305Z AUTO 00000KT 10SM CLR 04/01 A3006 250 79 -900 000/00 RMK AO2 T00440011
03949KAQV AQV20160128211010801/28/16 21:10:31  5-MIN KAQV 290310Z AUTO 00000KT 10SM CLR 04/01 A3006 250 79 -900 000/00 RMK AO2 T00440011
03949KAQV AQV20160128211510801/28/16 21:15:31  5-MIN KAQV 290315Z AUTO 00000KT 10SM CLR 04/01 A3006 250 79 -900 000/00 RMK AO2 T00440011
03949KAQV AQV20160128212010801/28/16 21:20:31  5-MIN KAQV 290320Z AUTO 00000KT 10SM CLR 04/01 A3006 250 79 -900 000/00 RMK AO2 T00440011
03949KAQV AQV20160128212510801/28/16 21:25:31  5-MIN KAQV 290325Z AUTO 00000KT 10SM CLR 04/01 A3006 250 79 -900 000/00 RMK AO2 T00440011
03949KAQV AQV20160128213010801/28/16 21:30:31  5-MIN KAQV 290330Z AUTO 00000KT 10SM CLR 04/01 A3006 250 79 -900 000/00 RMK AO2 T00440011
03949KAQV AQV20160128213510801/28/16 21:35:31  5-MIN KAQV 290335Z AUTO 00000KT 10SM CLR 04/01 A3006 250 82 -900 000/00 RMK AO2 T00390011
03949KAQV AQV20160128214010801/28/16 21:40:31  5-MIN KAQV 290340Z AUTO VRB03KT 10SM CLR 04/01 A3006 250 82 -900 VRB/03 RMK AO2 T00390011
03949KAQV AQV20160128214510801/28/16 21:45:31  5-MIN KAQV 290345Z AUTO 00000KT 10SM CLR 04/01 A3006 250 79 -900 000/00 RMK AO2 T00390006
03949KAQV AQV20160128215011501/28/16 21:50:31  5-MIN KAQV 290350Z AUTO 00000KT 10SM CLR 04/01 A3006 250 76 -900 000/00 RMK AO2 SLP180 T00440006
03949KAQV AQV20160128215511501/28/16 21:55:31  5-MIN KAQV 290355Z AUTO 00000KT 10SM CLR 04/01 A3006 250 76 -900 000/00 RMK AO2 SLP181 T00440006
03949KAQV AQV20160128220010801/28/16 22:00:31  5-MIN KAQV 290400Z AUTO 00000KT 10SM CLR 04/01 A3006 250 76 -900 000/00 RMK AO2 T00440006
03949KAQV AQV20160128220510801/28/16 22:05:31  5-MIN KAQV 290405Z AUTO 00000KT 10SM CLR 04/01 A3006 250 79 -900 000/00 RMK AO2 T00440011
03949KAQV AQV20160128221010801/28/16 22:10:31  5-MIN KAQV 290410Z AUTO 00000KT 10SM CLR 04/01 A3006 250 79 -900 000/00 RMK AO2 T00440011
03949KAQV AQV20160128221510801/28/16 22:15:31  5-MIN KAQV 290415Z AUTO 00000KT 10SM CLR 04/01 A3006 250 79 -900 000/00 RMK AO2 T00440011
03949KAQV AQV20160128222010801/28/16 22:20:31  5-MIN KAQV 290420Z AUTO VRB03KT 10SM CLR 04/01 A3006 250 76 -900 VRB/03 RMK AO2 T00440006
03949KAQV AQV20160128222510801/28/16 22:25:31  5-MIN KAQV 290425Z AUTO 00000KT 10SM CLR 04/01 A3006 240 76 -900 000/00 RMK AO2 T00440006
03949KAQV AQV20160128223010901/28/16 22:30:31  5-MIN KAQV 290430Z AUTO 00000KT 10SM CLR 04/01 A3006 240 79 -1000 000/00 RMK AO2 T00390006
03949KAQV AQV20160128223510901/28/16 22:35:31  5-MIN KAQV 290435Z AUTO 00000KT 10SM CLR 04/01 A3006 250 82 -1000 000/00 RMK AO2 T00390011
03949KAQV AQV20160128224010901/28/16 22:40:31  5-MIN KAQV 290440Z AUTO 21003KT 10SM CLR 04/01 A3006 250 79 -1000 210/03 RMK AO2 T00390006
03949KAQV AQV20160128224510801/28/16 22:45:31  5-MIN KAQV 290445Z AUTO 21003KT 10SM CLR 04/01 A3006 250 79 -900 210/03 RMK AO2 T00390006
03949KAQV AQV20160128225011601/28/16 22:50:31  5-MIN KAQV 290450Z AUTO 21003KT 10SM CLR 04/01 A3006 250 79 -1000 200/03 RMK AO2 SLP181 T00390006
03949KAQV AQV20160128225511601/28/16 22:55:31  5-MIN KAQV 290455Z AUTO 00000KT 10SM CLR 04/01 A3006 250 79 -1000 000/00 RMK AO2 SLP181 T00390006
03949KAQV AQV20160128230010801/28/16 23:00:31  5-MIN KAQV 290500Z AUTO 21003KT 10SM CLR 04/01 A3006 250 76 -900 210/03 RMK AO2 T00440006
03949KAQV AQV20160128230510901/28/16 23:05:31  5-MIN KAQV 290505Z AUTO 00000KT 10SM CLR 04/01 A3006 250 79 -1000 000/00 RMK AO2 T00390006
03949KAQV AQV20160128231010901/28/16 23:10:31  5-MIN KAQV 290510Z AUTO 00000KT 10SM CLR 04/01 A3006 250 79 -1000 000/00 RMK AO2 T00390006
03949KAQV AQV20160128231510801/28/16 23:15:31  5-MIN KAQV 290515Z AUTO 22003KT 10SM CLR 04/01 A3006 250 76 -900 220/03 RMK AO2 T00440006
03949KAQV AQV20160128232010801/28/16 23:20:31  5-MIN KAQV 290520Z AUTO 00000KT 10SM CLR 04/01 A3006 250 76 -900 000/00 RMK AO2 T00440006
03949KAQV AQV20160128232510901/28/16 23:25:31  5-MIN KAQV 290525Z AUTO VRB03KT 10SM CLR 04/01 A3006 240 79 -1000 VRB/03 RMK AO2 T00390006
03949KAQV AQV20160128233010901/28/16 23:30:31  5-MIN KAQV 290530Z AUTO 21003KT 10SM CLR 04/01 A3006 240 79 -1000 210/03 RMK AO2 T00390006
03949KAQV AQV20160128233510801/28/16 23:35:31  5-MIN KAQV 290535Z AUTO 21003KT 10SM CLR 04/01 A3006 240 76 -900 210/03 RMK AO2 T00440006
03949KAQV AQV20160128234010801/28/16 23:40:31  5-MIN KAQV 290540Z AUTO VRB03KT 10SM CLR 04/01 A3006 240 76 -900 VRB/03 RMK AO2 T00440006
03949KAQV AQV20160128234510801/28/16 23:45:31  5-MIN KAQV 290545Z AUTO 21003KT 10SM CLR 05/01 A3007 240 73 -800 210/03 RMK AO2 T00500006
03949KAQV AQV20160128235014301/28/16 23:50:31  5-MIN KAQV 290550Z AUTO 00000KT 10SM CLR 04/01 A3007 240 76 -900 000/00 RMK AO2 SLP183 T00440006 10100 20039 401611028 51007
03949KAQV AQV20160128235514301/28/16 23:55:31  5-MIN KAQV 290555Z AUTO 00000KT 10SM CLR 04/01 A3007 240 76 -900 000/00 RMK AO2 SLP183 T00440006 10100 20039 401611028 51007
03949KAQV AQV20160129000010801/29/16 00:00:31  5-MIN KAQV 290600Z AUTO 00000KT 10SM CLR 04/01 A3007 240 76 -900 000/00 RMK AO2 T00440006
03949KAQV AQV20160129000510801/29/16 00:05:31  5-MIN KAQV 290605Z AUTO 00000KT 10SM CLR 04/01 A3007 240 76 -900 000/00 RMK AO2 T00440006
03949KAQV AQV20160129001010801/29/16 00:10:31  5-MIN KAQV 290610Z AUTO 00000KT 10SM CLR 05/01 A3007 240 73 -800 000/00 RMK AO2 T00500006
03949KAQV AQV20160129001510901/29/16 00:15:31  5-MIN KAQV 290615Z AUTO 00000KT 10SM CLR 04/01 A3007 240 82 -1000 000/00 RMK AO2 T00390011
03949KAQV AQV20160129002010801/29/16 00:20:31  5-MIN KAQV 290620Z AUTO 00000KT 10SM CLR 04/01 A3007 240 79 -900 000/00 RMK AO2 T00440011
03949KAQV AQV20160129002510901/29/16 00:25:31  5-MIN KAQV 290625Z AUTO 00000KT 10SM CLR 04/01 A3007 240 82 -1000 000/00 RMK AO2 T00390011
03949KAQV AQV20160129003010901/29/16 00:30:31  5-MIN KAQV 290630Z AUTO 00000KT 10SM CLR 04/01 A3007 240 82 -1000 000/00 RMK AO2 T00390011
03949KAQV AQV20160129003510901/29/16 00:35:31  5-MIN KAQV 290635Z AUTO VRB03KT 10SM CLR 04/01 A3007 240 82 -1000 VRB/03 RMK AO2 T00390011
03949KAQV AQV20160129004010801/29/16 00:40:31  5-MIN KAQV 290640Z AUTO 00000KT 10SM CLR 05/01 A3007 240 76 -800 000/00 RMK AO2 T00500011
03949KAQV AQV20160129004510901/29/16 00:45:31  5-MIN KAQV 290645Z AUTO 00000KT 10SM CLR 04/01 A3007 240 82 -1000 000/00 RMK AO2 T00390011
03949KAQV AQV20160129005011601/29/16 00:50:31  5-MIN KAQV 290650Z AUTO 00000KT 10SM CLR 04/01 A3007 240 82 -1000 000/00 RMK AO2 SLP183 T00390011
03949KAQV AQV20160129005511601/29/16 00:55:31  5-MIN KAQV 290655Z AUTO 00000KT 10SM CLR 04/01 A3007 240 82 -1000 000/00 RMK AO2 SLP182 T00390011
03949KAQV AQV20160129010010901/29/16 01:00:31  5-MIN KAQV 290700Z AUTO 00000KT 10SM CLR 04/01 A3007 240 82 -1000 000/00 RMK AO2 T00390011
03949KAQV AQV20160129010510901/29/16 01:05:31  5-MIN KAQV 290705Z AUTO 19003KT 10SM CLR 03/01 A3007 240 85 -1000 190/03 RMK AO2 T00330011
03949KAQV AQV20160129011010901/29/16 01:10:31  5-MIN KAQV 290710Z AUTO 00000KT 10SM CLR 03/01 A3006 240 85 -1000 000/00 RMK AO2 T00330011
03949KAQV AQV20160129011510901/29/16 01:15:31  5-MIN KAQV 290715Z AUTO 21003KT 10SM CLR 03/01 A3006 240 85 -1000 210/03 RMK AO2 T00330011
03949KAQV AQV20160129012010901/29/16 01:20:31  5-MIN KAQV 290720Z AUTO VRB03KT 10SM CLR 03/01 A3007 240 85 -1000 VRB/03 RMK AO2 T00330011
03949KAQV AQV20160129012510901/29/16 01:25:31  5-MIN KAQV 290725Z AUTO 20003KT 10SM CLR 03/01 A3007 240 85 -1000 190/03 RMK AO2 T00330011
03949KAQV AQV20160129013010901/29/16 01:30:31  5-MIN KAQV 290730Z AUTO 20003KT 10SM CLR 03/01 A3007 230 85 -1000 190/03 RMK AO2 T00330011
03949KAQV AQV20160129013510901/29/16 01:35:31  5-MIN KAQV 290735Z AUTO 20003KT 10SM CLR 03/01 A3007 230 85 -1000 200/03 RMK AO2 T00330011
03949KAQV AQV20160129014010901/29/16 01:40:31  5-MIN KAQV 290740Z AUTO 19003KT 10SM CLR 03/01 A3008 230 85 -1000 190/03 RMK AO2 T00330011
03949KAQV AQV20160129014510901/29/16 01:45:31  5-MIN KAQV 290745Z AUTO 00000KT 10SM CLR 04/01 A3007 230 82 -1000 000/00 RMK AO2 T00390011
03949KAQV AQV20160129015011501/29/16 01:50:31  5-MIN KAQV 290750Z AUTO VRB03KT 10SM CLR 05/01 A3008 230 76 -800 VRB/03 RMK AO2 SLP185 T00500011
03949KAQV AQV20160129015511501/29/16 01:55:31  5-MIN KAQV 290755Z AUTO VRB03KT 10SM CLR 05/01 A3008 230 76 -800 VRB/03 RMK AO2 SLP185 T00500011
03949KAQV AQV20160129020010801/29/16 02:00:31  5-MIN KAQV 290800Z AUTO 00000KT 10SM CLR 04/01 A3008 230 79 -900 000/00 RMK AO2 T00440011
03949KAQV AQV20160129020510801/29/16 02:05:31  5-MIN KAQV 290805Z AUTO 00000KT 10SM CLR 05/01 A3008 230 76 -800 000/00 RMK AO2 T00500011
03949KAQV AQV20160129021010801/29/16 02:10:31  5-MIN KAQV 290810Z AUTO VRB03KT 10SM CLR 06/01 A3008 230 73 -800 VRB/03 RMK AO2 T00560011
03949KAQV AQV20160129021510801/29/16 02:15:31  5-MIN KAQV 290815Z AUTO 24003KT 10SM CLR 06/01 A3008 230 70 -700 240/03 RMK AO2 T00610011
03949KAQV AQV20160129022010801/29/16 02:20:31  5-MIN KAQV 290820Z AUTO 22003KT 10SM CLR 07/01 A3008 230 67 -600 220/03 RMK AO2 T00670011
03949KAQV AQV20160129022510801/29/16 02:25:31  5-MIN KAQV 290825Z AUTO VRB03KT 10SM CLR 07/01 A3008 230 67 -600 VRB/03 RMK AO2 T00670011
03949KAQV AQV20160129023010801/29/16 02:30:31  5-MIN KAQV 290830Z AUTO 00000KT 10SM CLR 06/01 A3008 230 70 -700 000/00 RMK AO2 T00610011
03949KAQV AQV20160129023510801/29/16 02:35:31  5-MIN KAQV 290835Z AUTO 25003KT 10SM CLR 06/01 A3008 230 70 -700 240/03 RMK AO2 T00610011
03949KAQV AQV20160129024010801/29/16 02:40:31  5-MIN KAQV 290840Z AUTO 24003KT 10SM CLR 06/01 A3008 230 70 -700 240/03 RMK AO2 T00610011
03949KAQV AQV20160129024510801/29/16 02:45:31  5-MIN KAQV 290845Z AUTO 00000KT 10SM CLR 07/01 A3007 230 67 -600 000/00 RMK AO2 T00670011
03949KAQV AQV20160129025012101/29/16 02:50:31  5-MIN KAQV 290850Z AUTO 00000KT 10SM CLR 06/01 A3007 240 70 -700 000/00 RMK AO2 SLP184 T00610011 53004
03949KAQV AQV20160129025512101/29/16 02:55:31  5-MIN KAQV 290855Z AUTO 00000KT 10SM CLR 06/01 A3007 240 70 -700 000/00 RMK AO2 SLP184 T00610011 53004
03949KAQV AQV20160129030010801/29/16 03:00:31  5-MIN KAQV 290900Z AUTO 25003KT 10SM CLR 06/01 A3007 240 73 -800 250/03 RMK AO2 T00560011
03949KAQV AQV20160129030510801/29/16 03:05:31  5-MIN KAQV 290905Z AUTO 26003KT 10SM CLR 06/01 A3007 240 70 -700 250/03 RMK AO2 T00610011
03949KAQV AQV20160129031010801/29/16 03:10:31  5-MIN KAQV 290910Z AUTO 26004KT 10SM CLR 06/01 A3007 240 70 -700 250/04 RMK AO2 T00610011
03949KAQV AQV20160129031510801/29/16 03:15:31  5-MIN KAQV 290915Z AUTO 26003KT 10SM CLR 07/01 A3007 240 67 -600 260/03 RMK AO2 T00670011
03949KAQV AQV20160129032010801/29/16 03:20:31  5-MIN KAQV 290920Z AUTO 27003KT 10SM CLR 06/01 A3006 240 70 -700 260/03 RMK AO2 T00610011
03949KAQV AQV20160129032510801/29/16 03:25:31  5-MIN KAQV 290925Z AUTO 27003KT 10SM CLR 06/02 A3006 250 73 -700 260/03 RMK AO2 T00610017
03949KAQV AQV20160129033010801/29/16 03:30:31  5-MIN KAQV 290930Z AUTO VRB03KT 10SM CLR 06/02 A3006 250 73 -700 VRB/03 RMK AO2 T00610017
03949KAQV AQV20160129033510801/29/16 03:35:31  5-MIN KAQV 290935Z AUTO 26003KT 10SM CLR 06/02 A3006 250 73 -700 260/03 RMK AO2 T00610017
03949KAQV AQV20160129034010801/29/16 03:40:31  5-MIN KAQV 290940Z AUTO 26003KT 10SM CLR 06/02 A3006 250 76 -700 250/03 RMK AO2 T00560017
03949KAQV AQV20160129034510801/29/16 03:45:31  5-MIN KAQV 290945Z AUTO 27003KT 10SM CLR 06/02 A3006 250 76 -700 260/03 RMK AO2 T00560017
03949KAQV AQV20160129035011501/29/16 03:50:31  5-MIN KAQV 290950Z AUTO 27003KT 10SM CLR 06/02 A3006 250 76 -700 260/03 RMK AO2 SLP179 T00560017
03949KAQV AQV20160129035511501/29/16 03:55:31  5-MIN KAQV 290955Z AUTO 27003KT 10SM CLR 06/02 A3006 250 73 -700 260/03 RMK AO2 SLP178 T00610017
03949KAQV AQV20160129170010801/29/16 17:00:31  5-MIN KAQV 292300Z AUTO 19004KT 10SM CLR 20/01 A2997 330 28 1000 180/04 RMK AO2 T02000011
03949KAQV AQV20160129170510801/29/16 17:05:31  5-MIN KAQV 292305Z AUTO VRB06KT 10SM CLR 19/02 A2997 330 30 1000 VRB/06 RMK AO2 T01940017
03949KAQV AQV20160129171010801/29/16 17:10:31  5-MIN KAQV 292310Z AUTO 18003KT 10SM CLR 20/01 A2997 330 28 1000 180/03 RMK AO2 T02000011
03949KAQV AQV20160129171510801/29/16 17:15:31  5-MIN KAQV 292315Z AUTO 17004KT 10SM CLR 19/02 A2996 340 30 1000 170/04 RMK AO2 T01940017
03949KAQV AQV20160129172010701/29/16 17:20:31  5-MIN KAQV 292320Z AUTO 19004KT 10SM CLR 19/02 A2997 330 31 900 180/04 RMK AO2 T01890017
03949KAQV AQV20160129172510701/29/16 17:25:31  5-MIN KAQV 292325Z AUTO VRB03KT 10SM CLR 19/02 A2996 340 31 900 VRB/03 RMK AO2 T01890017
03949KAQV AQV20160129173010701/29/16 17:30:31  5-MIN KAQV 292330Z AUTO 17004KT 10SM CLR 18/02 A2996 340 32 800 160/04 RMK AO2 T01830017
03949KAQV AQV20160129173510701/29/16 17:35:31  5-MIN KAQV 292335Z AUTO 17003KT 10SM CLR 18/02 A2996 340 32 800 160/03 RMK AO2 T01830017
03949KAQV AQV20160129174010701/29/16 17:40:31  5-MIN KAQV 292340Z AUTO 17004KT 10SM CLR 17/02 A2996 340 36 700 170/04 RMK AO2 T01720022
03949KAQV AQV20160129174510701/29/16 17:45:31  5-MIN KAQV 292345Z AUTO 18003KT 10SM CLR 17/02 A2996 340 36 700 170/03 RMK AO2 T01720022
03949KAQV AQV20160129175013201/29/16 17:50:31  5-MIN KAQV 292350Z AUTO 18003KT 10SM CLR 17/02 A2996 340 37 700 170/03 RMK AO2 SLP147 T01670022 10228 20167 56033
03949KAQV AQV20160129175513201/29/16 17:55:31  5-MIN KAQV 292355Z AUTO 17003KT 10SM CLR 17/02 A2996 340 37 700 170/03 RMK AO2 SLP147 T01670022 10228 20167 56033
03949KAQV AQV20160129180010701/29/16 18:00:31  5-MIN KAQV 300000Z AUTO 17003KT 10SM CLR 16/02 A2996 340 40 500 160/03 RMK AO2 T01560022
03949KAQV AQV20160129180510701/29/16 18:05:31  5-MIN KAQV 300005Z AUTO 00000KT 10SM CLR 16/02 A2997 330 40 500 000/00 RMK AO2 T01560022
03949KAQV AQV20160129181010701/29/16 18:10:31  5-MIN KAQV 300010Z AUTO VRB03KT 10SM CLR 16/02 A2996 340 40 500 VRB/03 RMK AO2 T01560022
03949KAQV AQV20160129181510701/29/16 18:15:31  5-MIN KAQV 300015Z AUTO VRB04KT 10SM CLR 15/03 A2996 340 43 500 VRB/04 RMK AO2 T01500028
03949KAQV AQV20160129182010701/29/16 18:20:31  5-MIN KAQV 300020Z AUTO 17003KT 10SM CLR 14/03 A2996 340 45 400 160/03 RMK AO2 T01440028
03949KAQV AQV20160129182510701/29/16 18:25:31  5-MIN KAQV 300025Z AUTO 00000KT 10SM CLR 14/02 A2996 340 43 400 000/00 RMK AO2 T01440022
03949KAQV AQV20160129183010701/29/16 18:30:31  5-MIN KAQV 300030Z AUTO 17003KT 10SM CLR 14/02 A2996 340 43 400 160/03 RMK AO2 T01440022
03949KAQV AQV20160129183510701/29/16 18:35:31  5-MIN KAQV 300035Z AUTO 17003KT 10SM CLR 14/02 A2996 340 45 300 170/03 RMK AO2 T01390022
03949KAQV AQV20160129184010701/29/16 18:40:31  5-MIN KAQV 300040Z AUTO 17004KT 10SM CLR 14/02 A2996 340 45 300 170/04 RMK AO2 T01390022
03949KAQV AQV20160129184510701/29/16 18:45:31  5-MIN KAQV 300045Z AUTO 18003KT 10SM CLR 14/02 A2997 330 45 300 180/03 RMK AO2 T01390022
03949KAQV AQV20160129185011401/29/16 18:50:31  5-MIN KAQV 300050Z AUTO 16003KT 10SM CLR 13/02 A2997 330 46 300 160/03 RMK AO2 SLP149 T01330022
03949KAQV AQV20160129185511401/29/16 18:55:31  5-MIN KAQV 300055Z AUTO 17004KT 10SM CLR 13/03 A2997 330 52 200 170/04 RMK AO2 SLP149 T01280033
03949KAQV AQV20160129190010701/29/16 19:00:31  5-MIN KAQV 300100Z AUTO 18004KT 10SM CLR 12/04 A2997 330 56 100 170/04 RMK AO2 T01220039
03949KAQV AQV20160129190510701/29/16 19:05:31  5-MIN KAQV 300105Z AUTO 17004KT 10SM CLR 13/03 A2997 330 52 200 170/04 RMK AO2 T01280033
03949KAQV AQV20160129191010701/29/16 19:10:31  5-MIN KAQV 300110Z AUTO VRB04KT 10SM CLR 13/03 A2997 330 50 300 VRB/04 RMK AO2 T01330033
03949KAQV AQV20160129191510701/29/16 19:15:31  5-MIN KAQV 300115Z AUTO 17005KT 10SM CLR 15/03 A2996 340 43 500 170/05 RMK AO2 T01500028
03949KAQV AQV20160129192010701/29/16 19:20:31  5-MIN KAQV 300120Z AUTO 18005KT 10SM CLR 14/03 A2997 330 47 400 180/05 RMK AO2 T01440033
03949KAQV AQV20160129192510701/29/16 19:25:31  5-MIN KAQV 300125Z AUTO 19005KT 10SM CLR 14/03 A2997 330 47 300 180/05 RMK AO2 T01390028
03949KAQV AQV20160129193010701/29/16 19:30:31  5-MIN KAQV 300130Z AUTO 18006KT 10SM CLR 14/03 A2997 330 47 400 180/06 RMK AO2 T01440033
03949KAQV AQV20160129193510701/29/16 19:35:31  5-MIN KAQV 300135Z AUTO 19004KT 10SM CLR 14/03 A2997 330 47 400 190/04 RMK AO2 T01440033
03949KAQV AQV20160129194010701/29/16 19:40:31  5-MIN KAQV 300140Z AUTO 19006KT 10SM CLR 14/03 A2997 330 45 400 190/06 RMK AO2 T01440028
03949KAQV AQV20160129194510701/29/16 19:45:31  5-MIN KAQV 300145Z AUTO 19007KT 10SM CLR 15/03 A2997 330 43 400 180/07 RMK AO2 T01500028
03949KAQV AQV20160129195011401/29/16 19:50:31  5-MIN KAQV 300150Z AUTO 19006KT 10SM CLR 15/03 A2997 330 43 400 180/06 RMK AO2 SLP149 T01500028
03949KAQV AQV20160129195511401/29/16 19:55:31  5-MIN KAQV 300155Z AUTO 18005KT 10SM CLR 15/03 A2997 330 43 400 180/05 RMK AO2 SLP150 T01500028
03949KAQV AQV20160129200010701/29/16 20:00:31  5-MIN KAQV 300200Z AUTO 19005KT 10SM CLR 14/03 A2998 330 45 400 180/05 RMK AO2 T01440028
03949KAQV AQV20160129200510701/29/16 20:05:31  5-MIN KAQV 300205Z AUTO 19004KT 10SM CLR 14/03 A2998 320 45 400 180/04 RMK AO2 T01440028
03949KAQV AQV20160129201010701/29/16 20:10:31  5-MIN KAQV 300210Z AUTO 20004KT 10SM CLR 14/03 A2998 320 47 300 190/04 RMK AO2 T01390028
03949KAQV AQV20160129201510701/29/16 20:15:31  5-MIN KAQV 300215Z AUTO 18005KT 10SM CLR 13/03 A2998 330 48 200 180/05 RMK AO2 T01330028
03949KAQV AQV20160129202010701/29/16 20:20:31  5-MIN KAQV 300220Z AUTO 19005KT 10SM CLR 14/03 A2997 330 47 300 180/05 RMK AO2 T01390028
03949KAQV AQV20160129202510701/29/16 20:25:31  5-MIN KAQV 300225Z AUTO 18005KT 10SM CLR 14/03 A2997 330 47 300 180/05 RMK AO2 T01390028
03949KAQV AQV20160129203010701/29/16 20:30:31  5-MIN KAQV 300230Z AUTO VRB06KT 10SM CLR 14/02 A2997 330 45 300 VRB/06 RMK AO2 T01390022
03949KAQV AQV20160129203510701/29/16 20:35:31  5-MIN KAQV 300235Z AUTO 19006KT 10SM CLR 14/02 A2997 330 43 400 180/06 RMK AO2 T01440022
03949KAQV AQV20160129204010701/29/16 20:40:31  5-MIN KAQV 300240Z AUTO VRB06KT 10SM CLR 14/02 A2997 330 45 300 VRB/06 RMK AO2 T01390022
03949KAQV AQV20160129204510701/29/16 20:45:31  5-MIN KAQV 300245Z AUTO 19006KT 10SM CLR 14/02 A2997 330 45 300 190/06 RMK AO2 T01390022
03949KAQV AQV20160129205012001/29/16 20:50:31  5-MIN KAQV 300250Z AUTO 18005KT 10SM CLR 14/02 A2997 330 45 300 180/05 RMK AO2 SLP147 T01390022 56006
03949KAQV AQV20160129205512001/29/16 20:55:31  5-MIN KAQV 300255Z AUTO 18005KT 10SM CLR 14/02 A2996 340 45 300 180/05 RMK AO2 SLP146 T01390022 56006
03949KAQV AQV20160129210012301/29/16 21:00:31  5-MIN KAQV 300300Z AUTO 18008KT 150V220 10SM CLR 14/03 A2996 340 47 300 180/08 150V220 RMK AO2 T01390028
03949KAQV AQV20160129210512301/29/16 21:05:31  5-MIN KAQV 300305Z AUTO 19007KT 170V230 10SM CLR 14/03 A2996 340 47 300 180/07 170V230 RMK AO2 T01390028
03949KAQV AQV20160129211010701/29/16 21:10:31  5-MIN KAQV 300310Z AUTO 18006KT 10SM CLR 14/03 A2996 340 48 300 180/06 RMK AO2 T01390033
03949KAQV AQV20160129211510701/29/16 21:15:31  5-MIN KAQV 300315Z AUTO 18007KT 10SM CLR 13/03 A2996 340 50 300 180/07 RMK AO2 T01330033
03949KAQV AQV20160129212010701/29/16 21:20:31  5-MIN KAQV 300320Z AUTO 18007KT 10SM CLR 13/03 A2995 340 50 300 180/07 RMK AO2 T01330033
03949KAQV AQV20160129212510701/29/16 21:25:31  5-MIN KAQV 300325Z AUTO 19006KT 10SM CLR 14/03 A2996 340 48 300 180/06 RMK AO2 T01390033
03949KAQV AQV20160129213010701/29/16 21:30:31  5-MIN KAQV 300330Z AUTO VRB05KT 10SM CLR 13/04 A2995 350 52 300 VRB/05 RMK AO2 T01330039
03949KAQV AQV20160129213510701/29/16 21:35:31  5-MIN KAQV 300335Z AUTO 19007KT 10SM CLR 14/04 A2995 350 50 300 180/07 RMK AO2 T01390039
03949KAQV AQV20160129214012901/29/16 21:40:31  5-MIN KAQV 300340Z AUTO 19009G16KT 170V230 10SM CLR 14/04 A2995 350 50 300 190/09G16 170V230 RMK AO2 T01390039
03949KAQV AQV20160129214511301/29/16 21:45:31  5-MIN KAQV 300345Z AUTO 20007G16KT 10SM CLR 14/04 A2995 350 52 300 190/07G16 RMK AO2 T01390044
03949KAQV AQV20160129215012001/29/16 21:50:31  5-MIN KAQV 300350Z AUTO 19007G15KT 10SM CLR 14/04 A2995 350 52 300 190/07G15 RMK AO2 SLP142 T01390044
03949KAQV AQV20160129215511401/29/16 21:55:31  5-MIN KAQV 300355Z AUTO VRB06KT 10SM CLR 14/05 A2995 350 55 300 VRB/06 RMK AO2 SLP142 T01390050
03949KAQV AQV20160129220010701/29/16 22:00:31  5-MIN KAQV 300400Z AUTO VRB05KT 10SM CLR 14/05 A2996 340 55 300 VRB/05 RMK AO2 T01390050
03949KAQV AQV20160129220510701/29/16 22:05:31  5-MIN KAQV 300405Z AUTO VRB06KT 10SM CLR 13/05 A2996 340 57 300 VRB/06 RMK AO2 T01330050
03949KAQV AQV20160129221010701/29/16 22:10:31  5-MIN KAQV 300410Z AUTO VRB06KT 10SM CLR 13/06 A2996 340 59 300 VRB/06 RMK AO2 T01330056
03949KAQV AQV20160129221510701/29/16 22:15:31  5-MIN KAQV 300415Z AUTO VRB06KT 10SM CLR 13/06 A2996 340 59 300 VRB/06 RMK AO2 T01330056
03949KAQV AQV20160129222010701/29/16 22:20:31  5-MIN KAQV 300420Z AUTO VRB05KT 10SM CLR 13/06 A2996 340 61 300 VRB/05 RMK AO2 T01330061
03949KAQV AQV20160129222510701/29/16 22:25:31  5-MIN KAQV 300425Z AUTO 20005KT 10SM CLR 13/06 A2997 330 63 200 190/05 RMK AO2 T01280061
03949KAQV AQV20160129223010701/29/16 22:30:31  5-MIN KAQV 300430Z AUTO VRB05KT 10SM CLR 13/06 A2996 340 63 200 VRB/05 RMK AO2 T01280061
03949KAQV AQV20160129223510701/29/16 22:35:31  5-MIN KAQV 300435Z AUTO VRB06KT 10SM CLR 13/06 A2996 340 63 200 VRB/06 RMK AO2 T01280061
03949KAQV AQV20160129224010701/29/16 22:40:31  5-MIN KAQV 300440Z AUTO VRB05KT 10SM CLR 13/07 A2997 330 66 200 VRB/05 RMK AO2 T01280067
03949KAQV AQV20160129224510701/29/16 22:45:31  5-MIN KAQV 300445Z AUTO 19005KT 10SM CLR 13/07 A2997 330 66 200 190/05 RMK AO2 T01280067
03949KAQV AQV20160129225011401/29/16 22:50:31  5-MIN KAQV 300450Z AUTO 19007KT 10SM CLR 13/07 A2997 330 66 200 180/07 RMK AO2 SLP146 T01280067
03949KAQV AQV20160129225511401/29/16 22:55:31  5-MIN KAQV 300455Z AUTO 19006KT 10SM CLR 12/07 A2997 330 71 100 190/06 RMK AO2 SLP146 T01220072
03949KAQV AQV20160129230010701/29/16 23:00:31  5-MIN KAQV 300500Z AUTO 19006KT 10SM CLR 13/07 A2997 330 69 200 180/06 RMK AO2 T01280072
03949KAQV AQV20160129230510701/29/16 23:05:31  5-MIN KAQV 300505Z AUTO VRB05KT 10SM CLR 12/07 A2997 330 71 100 VRB/05 RMK AO2 T01220072
03949KAQV AQV20160129231010701/29/16 23:10:31  5-MIN KAQV 300510Z AUTO 19005KT 10SM CLR 12/08 A2997 330 74 100 190/05 RMK AO2 T01220078
03949KAQV AQV20160129231510701/29/16 23:15:31  5-MIN KAQV 300515Z AUTO 20005KT 10SM CLR 12/08 A2997 330 74 100 190/05 RMK AO2 T01220078
03949KAQV AQV20160129232010701/29/16 23:20:31  5-MIN KAQV 300520Z AUTO 20005KT 10SM CLR 12/08 A2997 330 74 100 190/05 RMK AO2 T01220078
03949KAQV AQV20160129232510701/29/16 23:25:31  5-MIN KAQV 300525Z AUTO VRB04KT 10SM CLR 12/08 A2997 330 74 100 VRB/04 RMK AO2 T01220078
03949KAQV AQV20160129233009701/29/16 23:30:31  5-MIN KAQV 300530Z AUTO 10SM CLR 12/08 A2997 330 74 100 M /M RMK AO2 T01220078
03949KAQV AQV20160129233510701/29/16 23:35:31  5-MIN KAQV 300535Z AUTO VRB04KT 10SM CLR 12/08 A2997 330 80 100 VRB/04 RMK AO2 T01170083
03949KAQV AQV20160129234010701/29/16 23:40:31  5-MIN KAQV 300540Z AUTO 19007KT 10SM CLR 12/08 A2997 330 80 100 190/07 RMK AO2 T01170083
03949KAQV AQV20160129234510701/29/16 23:45:31  5-MIN KAQV 300545Z AUTO VRB04KT 10SM CLR 12/08 A2997 330 80 100 VRB/04 RMK AO2 T01170083
03949KAQV AQV20160129235014201/29/16 23:50:31  5-MIN KAQV 300550Z AUTO VRB04KT 10SM CLR 12/08 A2997 330 80 100 VRB/04 RMK AO2 SLP146 T01170083 10161 20117 402280022 58001
03949KAQV AQV20160129235514201/29/16 23:55:31  5-MIN KAQV 300555Z AUTO 19006KT 10SM CLR 12/08 A2996 340 80 100 180/06 RMK AO2 SLP146 T01170083 10161 20117 402280022 58001
03949KAQV AQV20160130000010701/30/16 00:00:31  5-MIN KAQV 300600Z AUTO VRB04KT 10SM CLR 12/08 A2997 330 80 100 VRB/04 RMK AO2 T01170083
03949KAQV AQV20160130000510701/30/16 00:05:31  5-MIN KAQV 300605Z AUTO 19005KT 10SM CLR 12/08 A2996 340 80 100 180/05 RMK AO2 T01170083
03949KAQV AQV20160130001010701/30/16 00:10:31  5-MIN KAQV 300610Z AUTO 19007KT 10SM CLR 12/08 A2996 340 80 100 180/07 RMK AO2 T01170083
03949KAQV AQV20160130001510701/30/16 00:15:31  5-MIN KAQV 300615Z AUTO 19005KT 10SM CLR 12/08 A2996 340 80 100 180/05 RMK AO2 T01170083
03949KAQV AQV20160130002010501/30/16 00:20:31  5-MIN KAQV 300620Z AUTO 19005KT 10SM CLR 11/08 A2996 340 83 0 190/05 RMK AO2 T01110083
03949KAQV AQV20160130002510501/30/16 00:25:31  5-MIN KAQV 300625Z AUTO 19005KT 10SM CLR 11/08 A2996 340 83 0 190/05 RMK AO2 T01110083
03949KAQV AQV20160130003010501/30/16 00:30:31  5-MIN KAQV 300630Z AUTO 18006KT 10SM CLR 11/08 A2996 340 83 0 180/06 RMK AO2 T01110083
03949KAQV AQV20160130003510501/30/16 00:35:31  5-MIN KAQV 300635Z AUTO 19005KT 10SM CLR 11/08 A2995 340 83 0 180/05 RMK AO2 T01110083
03949KAQV AQV20160130004010501/30/16 00:40:31  5-MIN KAQV 300640Z AUTO 19004KT 10SM CLR 11/08 A2995 350 86 0 190/04 RMK AO2 T01060083
03949KAQV AQV20160130004510501/30/16 00:45:31  5-MIN KAQV 300645Z AUTO 19004KT 10SM CLR 11/08 A2996 340 86 0 190/04 RMK AO2 T01060083
03949KAQV AQV20160130005011201/30/16 00:50:31  5-MIN KAQV 300650Z AUTO VRB06KT 10SM CLR 11/08 A2995 350 86 0 VRB/06 RMK AO2 SLP142 T01060083
03949KAQV AQV20160130005511201/30/16 00:55:31  5-MIN KAQV 300655Z AUTO 19005KT 10SM CLR 11/08 A2995 350 86 0 180/05 RMK AO2 SLP142 T01060083
03949KAQV AQV20160130010010501/30/16 01:00:31  5-MIN KAQV 300700Z AUTO 19005KT 10SM CLR 11/08 A2995 350 86 0 180/05 RMK AO2 T01060083
03949KAQV AQV20160130010510501/30/16 01:05:31  5-MIN KAQV 300705Z AUTO 18005KT 10SM CLR 11/08 A2994 350 86 0 170/05 RMK AO2 T01060083
03949KAQV AQV20160130011010501/30/16 01:10:31  5-MIN KAQV 300710Z AUTO 18006KT 10SM CLR 11/08 A2994 360 86 0 170/06 RMK AO2 T01060083
03949KAQV AQV20160130011511201/30/16 01:15:31  5-MIN KAQV 300715Z AUTO 18006KT 10SM CLR 11/08 A2993 370 86 0 180/06 RMK AO2 PRESFR T01060083
03949KAQV AQV20160130012010501/30/16 01:20:31  5-MIN KAQV 300720Z AUTO 18005KT 10SM CLR 11/09 A2993 370 86 0 170/05 RMK AO2 T01110089
03949KAQV AQV20160130012510501/30/16 01:25:31  5-MIN KAQV 300725Z AUTO VRB04KT 10SM CLR 11/09 A2993 370 89 0 VRB/04 RMK AO2 T01060089
03949KAQV AQV20160130013010501/30/16 01:30:31  5-MIN KAQV 300730Z AUTO 18005KT 10SM CLR 11/09 A2993 370 89 0 180/05 RMK AO2 T01060089
03949KAQV AQV20160130013510501/30/16 01:35:31  5-MIN KAQV 300735Z AUTO 18004KT 10SM CLR 11/09 A2993 370 89 0 180/04 RMK AO2 T01060089
03949KAQV AQV20160130014010501/30/16 01:40:31  5-MIN KAQV 300740Z AUTO 18006KT 10SM CLR 11/09 A2993 370 89 0 180/06 RMK AO2 T01060089
03949KAQV AQV20160130014510501/30/16 01:45:31  5-MIN KAQV 300745Z AUTO VRB04KT 10SM CLR 11/09 A2992 370 93 0 VRB/04 RMK AO2 T01060094
03949KAQV AQV20160130015011201/30/16 01:50:31  5-MIN KAQV 300750Z AUTO 18005KT 10SM CLR 11/09 A2992 370 93 0 180/05 RMK AO2 SLP132 T01060094
03949KAQV AQV20160130015511201/30/16 01:55:31  5-MIN KAQV 300755Z AUTO 18004KT 10SM CLR 11/09 A2992 370 93 0 180/04 RMK AO2 SLP132 T01060094
03949KAQV AQV20160130020010501/30/16 02:00:31  5-MIN KAQV 300800Z AUTO 18005KT 10SM CLR 11/09 A2992 370 93 0 180/05 RMK AO2 T01060094
03949KAQV AQV20160130020510501/30/16 02:05:31  5-MIN KAQV 300805Z AUTO 18005KT 10SM CLR 11/09 A2992 380 93 0 180/05 RMK AO2 T01060094
03949KAQV AQV20160130021010501/30/16 02:10:31  5-MIN KAQV 300810Z AUTO 18005KT 10SM CLR 11/09 A2992 380 93 0 170/05 RMK AO2 T01060094
03949KAQV AQV20160130021510501/30/16 02:15:31  5-MIN KAQV 300815Z AUTO VRB03KT 10SM CLR 11/10 A2993 370 96 0 VRB/03 RMK AO2 T01060100
03949KAQV AQV20160130022010501/30/16 02:20:31  5-MIN KAQV 300820Z AUTO VRB03KT 10SM CLR 11/10 A2994 360 93 0 VRB/03 RMK AO2 T01110100
03949KAQV AQV20160130022510501/30/16 02:25:31  5-MIN KAQV 300825Z AUTO VRB03KT 10SM CLR 11/10 A2994 360 93 0 VRB/03 RMK AO2 T01110100
03949KAQV AQV20160130023010501/30/16 02:30:31  5-MIN KAQV 300830Z AUTO 00000KT 10SM CLR 11/10 A2994 360 96 0 000/00 RMK AO2 T01060100
03949KAQV AQV20160130023510501/30/16 02:35:31  5-MIN KAQV 300835Z AUTO 00000KT 10SM CLR 11/10 A2994 350 93 0 000/00 RMK AO2 T01110100
03949KAQV AQV20160130024010501/30/16 02:40:31  5-MIN KAQV 300840Z AUTO 19003KT 10SM CLR 11/11 A2994 360 96 0 180/03 RMK AO2 T01110106
03949KAQV AQV20160130024510501/30/16 02:45:31  5-MIN KAQV 300845Z AUTO 17004KT 10SM CLR 11/10 A2993 360 96 0 170/04 RMK AO2 T01060100
03949KAQV AQV20160130025011701/30/16 02:50:31  5-MIN KAQV 300850Z AUTO 19004KT 9SM CLR 11/10 A2993 370 96 0 180/04 RMK AO2 SLP135 T01060100 53001
03949KAQV AQV20160130025512001/30/16 02:55:31  5-MIN KAQV 300855Z AUTO 19004KT 8SM CLR 10/09 A2993 360 96 -100 190/04 RMK AO2 SLP136 T01000094 53001
03949KAQV AQV20160130030010401/30/16 03:00:31  5-MIN KAQV 300900Z AUTO 18005KT 8SM CLR 11/10 A2993 360 96 0 180/05 RMK AO2 T01060100
03949KAQV AQV20160130030510401/30/16 03:05:31  5-MIN KAQV 300905Z AUTO 19004KT 8SM CLR 11/10 A2994 360 93 0 190/04 RMK AO2 T01110100
03949KAQV AQV20160130031010401/30/16 03:10:31  5-MIN KAQV 300910Z AUTO 17005KT 9SM CLR 11/10 A2993 370 93 0 170/05 RMK AO2 T01110100
03949KAQV AQV20160130031510401/30/16 03:15:31  5-MIN KAQV 300915Z AUTO 18005KT 9SM CLR 11/10 A2993 370 93 0 180/05 RMK AO2 T01110100
03949KAQV AQV20160130032010401/30/16 03:20:31  5-MIN KAQV 300920Z AUTO VRB03KT 8SM CLR 11/11 A2993 360 96 0 VRB/03 RMK AO2 T01110106
03949KAQV AQV20160130032510401/30/16 03:25:31  5-MIN KAQV 300925Z AUTO 18005KT 8SM CLR 11/11 A2993 370 96 0 180/05 RMK AO2 T01110106
03949KAQV AQV20160130033010401/30/16 03:30:31  5-MIN KAQV 300930Z AUTO VRB05KT 8SM CLR 11/11 A2993 370 96 0 VRB/05 RMK AO2 T01110106
03949KAQV AQV20160130033510401/30/16 03:35:31  5-MIN KAQV 300935Z AUTO VRB03KT 9SM CLR 11/11 A2993 370 96 0 VRB/03 RMK AO2 T01110106
03949KAQV AQV20160130034010401/30/16 03:40:31  5-MIN KAQV 300940Z AUTO VRB03KT 9SM CLR 11/11 A2994 360 96 0 VRB/03 RMK AO2 T01110106
03949KAQV AQV20160130034510501/30/16 03:45:31  5-MIN KAQV 300945Z AUTO VRB03KT 10SM CLR 11/11 A2994 360 96 0 VRB/03 RMK AO2 T01110106
03949KAQV AQV20160130035011101/30/16 03:50:31  5-MIN KAQV 300950Z AUTO 19004KT 9SM CLR 11/11 A2994 360 96 0 180/04 RMK AO2 SLP136 T01110106
03949KAQV AQV20160130035511101/30/16 03:55:31  5-MIN KAQV 300955Z AUTO 19004KT 9SM CLR 11/11 A2993 370 96 0 180/04 RMK AO2 SLP135 T01110106
03949KAQV AQV20160130040010401/30/16 04:00:31  5-MIN KAQV 301000Z AUTO 18006KT 9SM CLR 11/10 A2993 370 96 0 180/06 RMK AO2 T01060100
03949KAQV AQV20160130040510401/30/16 04:05:31  5-MIN KAQV 301005Z AUTO 19005KT 9SM CLR 11/11 A2993 370 96 0 180/05 RMK AO2 T01110106
03949KAQV AQV20160130041010501/30/16 04:10:31  5-MIN KAQV 301010Z AUTO VRB04KT 10SM CLR 11/11 A2994 360 96 0 VRB/04 RMK AO2 T01110106
03949KAQV AQV20160130041510501/30/16 04:15:31  5-MIN KAQV 301015Z AUTO 19004KT 10SM CLR 11/11 A2994 360 96 0 190/04 RMK AO2 T01110106
03949KAQV AQV20160130042010501/30/16 04:20:31  5-MIN KAQV 301020Z AUTO VRB05KT 10SM CLR 11/11 A2994 360 96 0 VRB/05 RMK AO2 T01110106
03949KAQV AQV20160130042510501/30/16 04:25:31  5-MIN KAQV 301025Z AUTO 20005KT 10SM CLR 11/11 A2994 360 96 0 200/05 RMK AO2 T01110106
03949KAQV AQV20160130043010501/30/16 04:30:31  5-MIN KAQV 301030Z AUTO 19004KT 10SM CLR 11/11 A2994 360 96 0 180/04 RMK AO2 T01110106
03949KAQV AQV20160130043510501/30/16 04:35:31  5-MIN KAQV 301035Z AUTO VRB05KT 10SM CLR 11/11 A2994 360 96 0 VRB/05 RMK AO2 T01110106
03949KAQV AQV20160130044010501/30/16 04:40:31  5-MIN KAQV 301040Z AUTO 20006KT 10SM CLR 11/11 A2994 360 96 0 200/06 RMK AO2 T01110106
03949KAQV AQV20160130044510501/30/16 04:45:31  5-MIN KAQV 301045Z AUTO VRB03KT 10SM CLR 11/11 A2994 350 96 0 VRB/03 RMK AO2 T01110106
03949KAQV AQV20160130045011201/30/16 04:50:31  5-MIN KAQV 301050Z AUTO VRB04KT 10SM CLR 11/11 A2994 350 96 0 VRB/04 RMK AO2 SLP139 T01110106
03949KAQV AQV20160130045511201/30/16 04:55:31  5-MIN KAQV 301055Z AUTO 00000KT 10SM CLR 11/11 A2995 350 96 0 000/00 RMK AO2 SLP140 T01110106
03949KAQV AQV20160131034011001/31/16 03:40:31  5-MIN KAQV 310940Z AUTO 18008KT 10SM FEW035 16/14 A2985 440 90 700 180/08 RMK AO2 T01560139
03949KAQV AQV20160131034511601/31/16 03:45:31  5-MIN KAQV 310945Z AUTO 19009G15KT 10SM FEW035 16/14 A2985 450 86 700 180/09G15 RMK AO2 T01610139
03949KAQV AQV20160131035012301/31/16 03:50:31  5-MIN KAQV 310950Z AUTO 19007G17KT 10SM SCT034 16/14 A2984 450 86 700 190/07G17 RMK AO2 SLP104 T01610139
03949KAQV AQV20160131035513901/31/16 03:55:31  5-MIN KAQV 310955Z AUTO 19007G17KT 150V230 10SM FEW034 16/14 A2984 450 86 700 190/07G17 150V230 RMK AO2 SLP104 T01610139
03949KAQV AQV20160131040011001/31/16 04:00:31  5-MIN KAQV 311000Z AUTO 19005KT 10SM FEW034 16/14 A2985 450 86 700 190/05 RMK AO2 T01610139
03949KAQV AQV20160131040511001/31/16 04:05:31  5-MIN KAQV 311005Z AUTO VRB06KT 10SM SCT034 16/14 A2985 450 90 700 VRB/06 RMK AO2 T01560139
03949KAQV AQV20160131041011001/31/16 04:10:31  5-MIN KAQV 311010Z AUTO 19006KT 10SM SCT035 16/14 A2984 450 90 700 190/06 RMK AO2 T01560139
03949KAQV AQV20160131041511001/31/16 04:15:31  5-MIN KAQV 311015Z AUTO 19008KT 10SM SCT035 16/14 A2984 450 90 700 180/08 RMK AO2 T01610144
03949KAQV AQV20160131042011001/31/16 04:20:31  5-MIN KAQV 311020Z AUTO 19006KT 10SM FEW035 16/14 A2984 450 90 700 180/06 RMK AO2 T01560139
03949KAQV AQV20160131042511001/31/16 04:25:31  5-MIN KAQV 311025Z AUTO 19005KT 10SM SCT035 16/14 A2984 450 90 700 190/05 RMK AO2 T01560139
03949KAQV AQV20160131043011001/31/16 04:30:31  5-MIN KAQV 311030Z AUTO 19005KT 10SM SCT035 16/14 A2984 450 90 700 190/05 RMK AO2 T01610144
03949KAQV AQV20160131043511001/31/16 04:35:31  5-MIN KAQV 311035Z AUTO VRB06KT 10SM FEW034 16/14 A2984 450 86 700 VRB/06 RMK AO2 T01610139
03949KAQV AQV20160131044011001/31/16 04:40:31  5-MIN KAQV 311040Z AUTO 19006KT 10SM FEW034 16/14 A2984 450 90 700 180/06 RMK AO2 T01560139
03949KAQV AQV20160131044511001/31/16 04:45:31  5-MIN KAQV 311045Z AUTO VRB05KT 10SM FEW034 16/14 A2985 450 86 700 VRB/05 RMK AO2 T01610139
03949KAQV AQV20160131045012401/31/16 04:50:31  5-MIN KAQV 311050Z AUTO VRB06KT 10SM FEW023 FEW034 16/14 A2985 450 90 700 VRB/06 RMK AO2 SLP105 T01560139
03949KAQV AQV20160131045511701/31/16 04:55:31  5-MIN KAQV 311055Z AUTO VRB05KT 10SM FEW025 16/14 A2984 450 93 700 VRB/05 RMK AO2 SLP104 T01560144
03949KAQV AQV20160131050011001/31/16 05:00:31  5-MIN KAQV 311100Z AUTO 19007KT 10SM SCT025 16/14 A2985 450 93 700 190/07 RMK AO2 T01560144
03949KAQV AQV20160131050511001/31/16 05:05:31  5-MIN KAQV 311105Z AUTO VRB06KT 10SM SCT025 16/14 A2985 450 90 700 VRB/06 RMK AO2 T01610144
03949KAQV AQV20160131051011001/31/16 05:10:31  5-MIN KAQV 311110Z AUTO VRB05KT 10SM FEW025 16/14 A2984 450 93 700 VRB/05 RMK AO2 T01560144
03949KAQV AQV20160131051511001/31/16 05:15:31  5-MIN KAQV 311115Z AUTO VRB05KT 10SM FEW025 16/14 A2985 450 93 700 VRB/05 RMK AO2 T01560144
03949KAQV AQV20160131052011001/31/16 05:20:31  5-MIN KAQV 311120Z AUTO 19006KT 10SM FEW025 16/14 A2984 450 93 700 180/06 RMK AO2 T01560144
03949KAQV AQV20160131052511001/31/16 05:25:31  5-MIN KAQV 311125Z AUTO VRB03KT 10SM FEW025 16/14 A2985 440 93 700 VRB/03 RMK AO2 T01560144
03949KAQV AQV20160131053010701/31/16 05:30:31  5-MIN KAQV 311130Z AUTO VRB05KT 10SM CLR 16/14 A2985 440 93 700 VRB/05 RMK AO2 T01560144
03949KAQV AQV20160131053510701/31/16 05:35:31  5-MIN KAQV 311135Z AUTO 19005KT 10SM CLR 16/14 A2985 440 93 600 190/05 RMK AO2 T01560144
03949KAQV AQV20160131054010701/31/16 05:40:31  5-MIN KAQV 311140Z AUTO 18005KT 10SM CLR 16/14 A2985 440 93 600 180/05 RMK AO2 T01560144
03949KAQV AQV20160131054511001/31/16 05:45:31  5-MIN KAQV 311145Z AUTO 19005KT 10SM FEW025 16/14 A2985 440 93 600 190/05 RMK AO2 T01560144
03949KAQV AQV20160131055013501/31/16 05:50:31  5-MIN KAQV 311150Z AUTO 18006KT 10SM FEW025 16/14 A2985 440 93 600 170/06 RMK AO2 SLP107 T01560144 10167 20156 58006
03949KAQV AQV20160131055513201/31/16 05:55:31  5-MIN KAQV 311155Z AUTO 19005KT 10SM CLR 16/14 A2985 440 93 600 180/05 RMK AO2 SLP108 T01560144 10167 20156 58006
03949KAQV AQV20160131060010701/31/16 06:00:31  5-MIN KAQV 311200Z AUTO 18006KT 10SM CLR 16/14 A2985 440 93 600 170/06 RMK AO2 T01560144
03949KAQV AQV20160131060511001/31/16 06:05:31  5-MIN KAQV 311205Z AUTO 18007KT 10SM FEW025 16/14 A2985 440 93 600 180/07 RMK AO2 T01560144
03949KAQV AQV20160131061011701/31/16 06:10:31  5-MIN KAQV 311210Z AUTO 18005KT 10SM FEW025 FEW034 16/14 A2985 440 93 600 170/05 RMK AO2 T01560144
03949KAQV AQV20160131061511701/31/16 06:15:31  5-MIN KAQV 311215Z AUTO VRB04KT 10SM FEW025 FEW034 16/14 A2985 440 93 600 VRB/04 RMK AO2 T01560144
03949KAQV AQV20160131062011001/31/16 06:20:31  5-MIN KAQV 311220Z AUTO 18005KT 10SM FEW034 16/14 A2985 440 93 600 180/05 RMK AO2 T01560144
03949KAQV AQV20160131062511701/31/16 06:25:31  5-MIN KAQV 311225Z AUTO VRB04KT 10SM FEW025 FEW034 16/14 A2985 440 93 600 VRB/04 RMK AO2 T01560144
03949KAQV AQV20160131063011701/31/16 06:30:31  5-MIN KAQV 311230Z AUTO VRB03KT 10SM FEW025 SCT035 16/14 A2986 440 93 600 VRB/03 RMK AO2 T01560144
03949KAQV AQV20160131063511701/31/16 06:35:31  5-MIN KAQV 311235Z AUTO 17005KT 10SM SCT025 SCT035 16/14 A2986 430 93 600 170/05 RMK AO2 T01560144
03949KAQV AQV20160131064011701/31/16 06:40:31  5-MIN KAQV 311240Z AUTO 18006KT 10SM FEW025 SCT037 16/14 A2986 440 93 600 180/06 RMK AO2 T01560144
03949KAQV AQV20160131064511701/31/16 06:45:31  5-MIN KAQV 311245Z AUTO 18006KT 10SM FEW024 SCT037 16/14 A2986 430 93 600 180/06 RMK AO2 T01560144
03949KAQV AQV20160131065011701/31/16 06:50:31  5-MIN KAQV 311250Z AUTO VRB04KT 10SM FEW024 16/14 A2986 430 93 600 VRB/04 RMK AO2 SLP110 T01560144
03949KAQV AQV20160131065511701/31/16 06:55:31  5-MIN KAQV 311255Z AUTO VRB04KT 10SM FEW024 16/14 A2986 430 93 600 VRB/04 RMK AO2 SLP110 T01560144
03949KAQV AQV20160131070011001/31/16 07:00:31  5-MIN KAQV 311300Z AUTO 17005KT 10SM FEW024 15/14 A2986 430 96 600 170/05 RMK AO2 T01500144
03949KAQV AQV20160131070510701/31/16 07:05:31  5-MIN KAQV 311305Z AUTO VRB05KT 10SM CLR 16/14 A2986 430 93 600 VRB/05 RMK AO2 T01560144
03949KAQV AQV20160131071010701/31/16 07:10:31  5-MIN KAQV 311310Z AUTO 18005KT 10SM CLR 16/14 A2986 430 93 600 180/05 RMK AO2 T01560144
03949KAQV AQV20160131071510701/31/16 07:15:31  5-MIN KAQV 311315Z AUTO 18004KT 10SM CLR 16/14 A2986 430 93 600 180/04 RMK AO2 T01560144
03949KAQV AQV20160131072010701/31/16 07:20:31  5-MIN KAQV 311320Z AUTO VRB03KT 10SM CLR 15/14 A2987 420 96 600 VRB/03 RMK AO2 T01500144
03949KAQV AQV20160131072510701/31/16 07:25:31  5-MIN KAQV 311325Z AUTO 19005KT 10SM CLR 15/14 A2987 420 96 600 180/05 RMK AO2 T01500144
03949KAQV AQV20160131073010701/31/16 07:30:31  5-MIN KAQV 311330Z AUTO VRB04KT 10SM CLR 16/14 A2987 420 93 600 VRB/04 RMK AO2 T01560144
03949KAQV AQV20160131073510701/31/16 07:35:31  5-MIN KAQV 311335Z AUTO VRB05KT 10SM CLR 16/14 A2987 420 93 600 VRB/05 RMK AO2 T01560144
03949KAQV AQV20160131074011001/31/16 07:40:31  5-MIN KAQV 311340Z AUTO VRB04KT 10SM FEW036 16/14 A2987 420 93 600 VRB/04 RMK AO2 T01560144
03949KAQV AQV20160131074511001/31/16 07:45:31  5-MIN KAQV 311345Z AUTO VRB05KT 10SM SCT038 16/14 A2987 420 93 600 VRB/05 RMK AO2 T01560144
03949KAQV AQV20160131075011701/31/16 07:50:31  5-MIN KAQV 311350Z AUTO 18006KT 10SM SCT040 16/15 A2987 420 96 600 180/06 RMK AO2 SLP114 T01560150
03949KAQV AQV20160131075511701/31/16 07:55:31  5-MIN KAQV 311355Z AUTO VRB06KT 10SM SCT040 16/15 A2987 420 93 700 VRB/06 RMK AO2 SLP114 T01610150
03949KAQV AQV20160131080012401/31/16 08:00:31  5-MIN KAQV 311400Z AUTO VRB06KT 10SM FEW008 FEW030 BKN040 16/15 A2987 420 93 700 VRB/06 RMK AO2 T01610150
03949KAQV AQV20160131080512401/31/16 08:05:31  5-MIN KAQV 311405Z AUTO 19005KT 10SM FEW008 FEW028 BKN040 17/15 A2987 420 90 800 180/05 RMK AO2 T01670150
03949KAQV AQV20160131081012401/31/16 08:10:31  5-MIN KAQV 311410Z AUTO VRB05KT 10SM SCT009 SCT026 BKN040 17/15 A2987 420 90 800 VRB/05 RMK AO2 T01670150
03949KAQV AQV20160131081512401/31/16 08:15:31  5-MIN KAQV 311415Z AUTO VRB06KT 10SM SCT009 BKN026 BKN040 17/15 A2987 420 90 800 VRB/06 RMK AO2 T01670150
03949KAQV AQV20160131082012401/31/16 08:20:31  5-MIN KAQV 311420Z AUTO 18007KT 10SM BKN009 BKN026 BKN041 17/16 A2987 420 90 800 180/07 RMK AO2 T01720156
03949KAQV AQV20160131082511701/31/16 08:25:31  5-MIN KAQV 311425Z AUTO VRB05KT 10SM BKN009 BKN026 17/16 A2987 420 90 800 VRB/05 RMK AO2 T01720156
03949KAQV AQV20160131083011701/31/16 08:30:31  5-MIN KAQV 311430Z AUTO VRB06KT 10SM BKN009 BKN023 17/16 A2987 420 90 800 VRB/06 RMK AO2 T01720156
03949KAQV AQV20160131083511701/31/16 08:35:31  5-MIN KAQV 311435Z AUTO VRB06KT 10SM BKN009 BKN023 17/16 A2987 420 90 800 VRB/06 RMK AO2 T01720156
03949KAQV AQV20160131084011701/31/16 08:40:31  5-MIN KAQV 311440Z AUTO VRB05KT 10SM BKN009 BKN022 17/16 A2987 420 90 800 VRB/05 RMK AO2 T01720156
03949KAQV AQV20160131084512301/31/16 08:45:31  5-MIN KAQV 311445Z AUTO 20010G14KT 10SM BKN009 BKN024 18/16 A2987 420 87 900 190/10G14 RMK AO2 T01780156
03949KAQV AQV20160131085011301/31/16 08:50:31  5-MIN KAQV 311450Z AUTO VRB05G14KT 10SM BKN011 BKN024 18/16 A2987 420 87 900 VRB/05G14 RMK AO2
03949KAQV AQV20160131085507101/31/16 08:55:31  5-MIN KAQV 311455Z AUTO 20007KT 150V270 10SM BKN011 
03949KAQV AQV20160131144011701/31/16 14:40:31  5-MIN KAQV 312040Z AUTO 18010G19KT 10SM BKN043 24/14 A2976 530 51 1800 180/10G19 RMK AO2 T02440139
03949KAQV AQV20160131144513301/31/16 14:45:31  5-MIN KAQV 312045Z AUTO 18008G15KT 140V200 10SM SCT043 25/14 A2976 530 51 1800 180/08G15 140V200 RMK AO2 T02500144
03949KAQV AQV20160131145013001/31/16 14:50:31  5-MIN KAQV 312050Z AUTO 18010G20KT 10SM SCT041 24/14 A2976 530 51 1800 180/10G20 RMK AO2 SLP075 T02440139 58014
03949KAQV AQV20160131145513001/31/16 14:55:31  5-MIN KAQV 312055Z AUTO 18008G20KT 10SM BKN041 24/14 A2976 530 53 1700 170/08G20 RMK AO2 SLP075 T02390139 58014
03949KAQV AQV20160131150013301/31/16 15:00:31  5-MIN KAQV 312100Z AUTO 21008G18KT 180V240 10SM SCT041 24/14 A2976 530 51 1800 200/08G18 180V240 RMK AO2 T02440139
03949KAQV AQV20160131150511701/31/16 15:05:31  5-MIN KAQV 312105Z AUTO 18008G15KT 10SM SCT042 25/14 A2975 530 49 1800 180/08G15 RMK AO2 T02500139
03949KAQV AQV20160131151011701/31/16 15:10:31  5-MIN KAQV 312110Z AUTO 18009G16KT 10SM BKN042 26/14 A2976 530 49 1900 180/09G16 RMK AO2 T02560144
03949KAQV AQV20160131151513301/31/16 15:15:31  5-MIN KAQV 312115Z AUTO 19009G16KT 140V250 10SM BKN042 24/14 A2976 520 51 1800 190/09G16 140V250 RMK AO2 T02440139
03949KAQV AQV20160131152013301/31/16 15:20:31  5-MIN KAQV 312120Z AUTO 18009G16KT 140V200 10SM BKN042 24/14 A2976 520 51 1800 170/09G16 140V200 RMK AO2 T02440139
03949KAQV AQV20160131152511701/31/16 15:25:31  5-MIN KAQV 312125Z AUTO VRB06G16KT 10SM BKN044 24/14 A2976 520 51 1800 VRB/06G16 RMK AO2 T02440139
03949KAQV AQV20160131153012701/31/16 15:30:31  5-MIN KAQV 312130Z AUTO 20008KT 170V260 10SM SCT044 25/14 A2976 520 51 1800 190/08 170V260 RMK AO2 T02500144
03949KAQV AQV20160131153513301/31/16 15:35:31  5-MIN KAQV 312135Z AUTO 21008G14KT 170V240 10SM BKN044 24/14 A2977 520 51 1800 200/08G14 170V240 RMK AO2 T02440139
03949KAQV AQV20160131154013301/31/16 15:40:31  5-MIN KAQV 312140Z AUTO 20007G14KT 150V230 10SM BKN044 24/14 A2977 520 51 1800 190/07G14 150V230 RMK AO2 T02440139
03949KAQV AQV20160131154511701/31/16 15:45:31  5-MIN KAQV 312145Z AUTO 18011G19KT 10SM BKN044 24/14 A2977 520 53 1700 180/11G19 RMK AO2 T02390139
03949KAQV AQV20160131155012401/31/16 15:50:31  5-MIN KAQV 312150Z AUTO 19008G21KT 10SM BKN046 24/14 A2977 510 53 1700 180/08G21 RMK AO2 SLP080 T02390139
03949KAQV AQV20160131155513101/31/16 15:55:31  5-MIN KAQV 312155Z AUTO VRB06G21KT 10SM BKN043 BKN050 24/14 A2977 510 53 1700 VRB/06G21 RMK AO2 SLP080 T02390139
03949KAQV AQV20160131160012401/31/16 16:00:31  5-MIN KAQV 312200Z AUTO VRB06G20KT 10SM SCT043 BKN050 24/14 A2978 510 53 1700 VRB/06G20 RMK AO2 T02390139
03949KAQV AQV20160131160512401/31/16 16:05:31  5-MIN KAQV 312205Z AUTO VRB05G20KT 10SM SCT043 BKN050 23/14 A2978 510 57 1600 VRB/05G20 RMK AO2 T02330144
03949KAQV AQV20160131161012401/31/16 16:10:31  5-MIN KAQV 312210Z AUTO VRB06G14KT 10SM SCT043 BKN050 24/14 A2978 510 55 1700 VRB/06G14 RMK AO2 T02390144
03949KAQV AQV20160131161512401/31/16 16:15:31  5-MIN KAQV 312215Z AUTO 20009G16KT 10SM SCT045 BKN050 24/14 A2978 510 55 1700 190/09G16 RMK AO2 T02390144
03949KAQV AQV20160131162014001/31/16 16:20:31  5-MIN KAQV 312220Z AUTO 19008G16KT 140V230 10SM SCT045 SCT050 23/14 A2978 510 55 1600 190/08G16 140V230 RMK AO2 T02330139
03949KAQV AQV20160131162513301/31/16 16:25:31  5-MIN KAQV 312225Z AUTO 19010G16KT 160V220 10SM SCT050 23/14 A2978 510 55 1600 190/10G16 160V220 RMK AO2 T02330139
03949KAQV AQV20160131163014001/31/16 16:30:31  5-MIN KAQV 312230Z AUTO 20007G16KT 170V260 10SM FEW045 SCT050 23/14 A2978 510 57 1600 200/07G16 170V260 RMK AO2 T02330144
03949KAQV AQV20160131163512701/31/16 16:35:31  5-MIN KAQV 312235Z AUTO 19008KT 170V230 10SM FEW048 23/14 A2978 500 59 1600 190/08 170V230 RMK AO2 T02280144
03949KAQV AQV20160131164011101/31/16 16:40:31  5-MIN KAQV 312240Z AUTO 20004KT 10SM SCT048 23/14 A2979 500 57 1600 190/04 RMK AO2 T02330144
03949KAQV AQV20160131164511101/31/16 16:45:31  5-MIN KAQV 312245Z AUTO 19009KT 10SM BKN048 23/14 A2979 500 59 1600 180/09 RMK AO2 T02280144
03949KAQV AQV20160131165014101/31/16 16:50:31  5-MIN KAQV 312250Z AUTO 20008KT 170V260 10SM FEW038 BKN048 23/14 A2979 490 59 1600 200/08 170V260 RMK AO2 SLP087 T02280144
03949KAQV AQV20160131165512501/31/16 16:55:31  5-MIN KAQV 312255Z AUTO VRB05KT 10SM FEW038 BKN048 23/14 A2980 490 59 1500 VRB/05 RMK AO2 SLP089 T02280144
03949KAQV AQV20160131170011101/31/16 17:00:31  5-MIN KAQV 312300Z AUTO 20006KT 10SM SCT048 23/14 A2980 490 59 1500 190/06 RMK AO2 T02280144
03949KAQV AQV20160131170511101/31/16 17:05:31  5-MIN KAQV 312305Z AUTO VRB06KT 10SM SCT048 23/14 A2980 480 59 1500 VRB/06 RMK AO2 T02280144
03949KAQV AQV20160131171011101/31/16 17:10:31  5-MIN KAQV 312310Z AUTO 20007KT 10SM BKN050 22/14 A2981 480 61 1500 200/07 RMK AO2 T02220144
03949KAQV AQV20160131171511101/31/16 17:15:31  5-MIN KAQV 312315Z AUTO VRB06KT 10SM BKN050 22/14 A2981 480 61 1500 VRB/06 RMK AO2 T02220144
03949KAQV AQV20160131172011101/31/16 17:20:31  5-MIN KAQV 312320Z AUTO VRB06KT 10SM BKN050 22/14 A2981 480 61 1500 VRB/06 RMK AO2 T02220144
03949KAQV AQV20160131172511101/31/16 17:25:31  5-MIN KAQV 312325Z AUTO VRB05KT 10SM BKN050 22/14 A2981 480 61 1500 VRB/05 RMK AO2 T02220144
03949KAQV AQV20160131173011101/31/16 17:30:31  5-MIN KAQV 312330Z AUTO 20006KT 10SM BKN050 22/14 A2981 480 63 1400 190/06 RMK AO2 T02170144
03949KAQV AQV20160131173511101/31/16 17:35:31  5-MIN KAQV 312335Z AUTO VRB04KT 10SM BKN050 22/15 A2981 480 65 1400 VRB/04 RMK AO2 T02170150
03949KAQV AQV20160131174011101/31/16 17:40:31  5-MIN KAQV 312340Z AUTO 19005KT 10SM BKN050 21/15 A2981 480 68 1300 190/05 RMK AO2 T02110150
03949KAQV AQV20160131174511101/31/16 17:45:31  5-MIN KAQV 312345Z AUTO 19004KT 10SM SCT050 21/15 A2981 480 68 1300 190/04 RMK AO2 T02110150
03949KAQV AQV20160131175013601/31/16 17:50:31  5-MIN KAQV 312350Z AUTO 19005KT 10SM FEW050 21/15 A2981 480 68 1300 180/05 RMK AO2 SLP093 T02110150 10256 20211 56029
03949KAQV AQV20160131175507501/31/16 17:55:31  5-MIN KAQV 312355Z AUTO VRB06KT 10SM FEW050 21/15 A2981 
