63870K0J4 0J420160401122513004/01/16 12:25:31  5-MIN K0J4 011725Z AUTO 00000KT 3/4SM +TSRA BR FEW006 BKN021 OVC026 19/18 A2991 330 97 900 000/00 RMK AO2 P0045
63870K0J4 0J420160401123013204/01/16 12:30:31  5-MIN K0J4 011730Z AUTO 00000KT 1 1/4SM +TSRA BR SCT006 BKN012 OVC024 19/18 A2992 320 97 900 000/00 RMK AO2 P0048
63870K0J4 0J420160401123513204/01/16 12:35:31  5-MIN K0J4 011735Z AUTO 00000KT 1 1/4SM +TSRA BR BKN006 BKN012 OVC026 19/18 A2992 310 97 900 000/00 RMK AO2 P0050
63870K0J4 0J420160401124013004/01/16 12:40:31  5-MIN K0J4 011740Z AUTO 34003KT 3/4SM +TSRA BR BKN006 BKN012 OVC020 19/18 A2991 330 97 900 340/03 RMK AO2 P0057
63870K0J4 0J420160401124512304/01/16 12:45:31  5-MIN K0J4 011745Z AUTO 30003KT 1/2SM +TSRA FG SCT006 OVC015 19/18 A2991 330 97 900 300/03 RMK AO2 P0063
63870K0J4 0J420160401125014104/01/16 12:50:31  5-MIN K0J4 011750Z AUTO 33004KT 3/4SM +RA BR SCT006 BKN012 OVC023 19/18 A2989 350 97 900 330/04 RMK AO2 TSE49 PRESFR P0067
63870K0J4 0J420160401125513604/01/16 12:55:31  5-MIN K0J4 011755Z AUTO VRB03KT 1 1/4SM +RA BR SCT006 OVC030 19/18 A2988 350 97 900 VRB/03 RMK AO2 TSE49 PRESFR P0070
63870K0J4 0J420160401130012904/01/16 13:00:31  5-MIN K0J4 011800Z AUTO VRB04KT 1 3/4SM RA BR FEW006 BKN030 OVC075 19/18 A2989 350 97 900 VRB/04 RMK AO2 P0000
63870K0J4 0J420160401130512504/01/16 13:05:31  5-MIN K0J4 011805Z AUTO 00000KT 3SM RA BR FEW006 BKN075 OVC090 19/18 A2989 340 97 900 000/00 RMK AO2 P0002
63870K0J4 0J420160401131012904/01/16 13:10:31  5-MIN K0J4 011810Z AUTO VRB03KT 2 1/2SM RA BR SCT030 BKN080 OVC095 19/18 A2990 340 97 900 VRB/03 RMK AO2 P0003
63870K0J4 0J420160401131514104/01/16 13:15:31  5-MIN K0J4 011815Z AUTO 00000KT 2 1/2SM RA BR FEW038 BKN080 OVC095 19/18 A2990 340 97 900 000/00 RMK AO2 VIS 1 3/4V3 P0004
63870K0J4 0J420160401132012504/01/16 13:20:31  5-MIN K0J4 011820Z AUTO 24003KT 3SM RA BR FEW041 SCT075 OVC100 19/18 A2990 340 97 900 240/03 RMK AO2 P0005
63870K0J4 0J420160401132511904/01/16 13:25:31  5-MIN K0J4 011825Z AUTO 00000KT 3SM RA BR FEW075 OVC100 19/18 A2988 350 93 1000 000/00 RMK AO2 P0005
63870K0J4 0J420160401133011904/01/16 13:30:31  5-MIN K0J4 011830Z AUTO VRB03KT 4SM RA BR FEW080 OVC100 19/18 A2988 350 93 1000 VRB/03 RMK AO2 P0006
63870K0J4 0J420160401133513304/01/16 13:35:31  5-MIN K0J4 011835Z AUTO 00000KT 5SM RA BR FEW070 SCT080 OVC100 19/18 A2987 360 93 1000 000/00 RMK AO2 PRESFR P0007
63870K0J4 0J420160401134012604/01/16 13:40:31  5-MIN K0J4 011840Z AUTO 00000KT 4SM RA BR FEW005 BKN080 OVC100 19/19 A2987 360 97 1000 000/00 RMK AO2 P0008
63870K0J4 0J420160401134512604/01/16 13:45:31  5-MIN K0J4 011845Z AUTO 00000KT 4SM RA BR SCT007 BKN080 OVC100 19/19 A2987 360 97 1000 000/00 RMK AO2 P0009
63870K0J4 0J420160401135012704/01/16 13:50:31  5-MIN K0J4 011850Z AUTO 14003KT 6SM -RA BR SCT007 BKN065 OVC100 19/19 A2987 360 97 1000 140/03 RMK AO2 P0010
63870K0J4 0J420160401135514104/01/16 13:55:31  5-MIN K0J4 011855Z AUTO 15004KT 8SM -RA BKN005 BKN065 OVC100 19/19 A2987 360 97 1000 150/04 RMK AO2 SLP111 P0010 T01940189
63870K0J4 0J420160401140012404/01/16 14:00:31  5-MIN K0J4 011900Z AUTO 00000KT 8SM -RA BKN005 BKN065 OVC080 19/19 A2987 360 97 1000 000/00 RMK AO2 P0000
63870K0J4 0J420160401140512404/01/16 14:05:31  5-MIN K0J4 011905Z AUTO 00000KT 8SM -RA BKN005 BKN070 OVC090 20/19 A2987 360 93 1100 000/00 RMK AO2 P0000
63870K0J4 0J420160401141011704/01/16 14:10:31  5-MIN K0J4 011910Z AUTO 00000KT 9SM -RA SCT005 OVC090 20/19 A2988 360 93 1100 000/00 RMK AO2 P0000
63870K0J4 0J420160401141511704/01/16 14:15:31  5-MIN K0J4 011915Z AUTO 17003KT 9SM -RA SCT005 OVC090 20/19 A2988 360 93 1100 170/03 RMK AO2 P0000
63870K0J4 0J420160401142011704/01/16 14:20:31  5-MIN K0J4 011920Z AUTO 16003KT 9SM -RA FEW005 OVC095 20/19 A2987 360 93 1100 160/03 RMK AO2 P0001
63870K0J4 0J420160401142511904/01/16 14:25:31  5-MIN K0J4 011925Z AUTO 12003KT 6SM RA BR FEW007 OVC090 20/19 A2986 370 93 1100 120/03 RMK AO2 P0002
63870K0J4 0J420160401143012004/01/16 14:30:31  5-MIN K0J4 011930Z AUTO 09003KT 5SM -RA BR FEW075 OVC090 19/19 A2986 370 97 1000 090/03 RMK AO2 P0002
63870K0J4 0J420160401143511704/01/16 14:35:31  5-MIN K0J4 011935Z AUTO 00000KT 8SM -RA BKN095 OVC110 20/19 A2986 370 93 1100 000/00 RMK AO2 P0003
63870K0J4 0J420160401144011704/01/16 14:40:31  5-MIN K0J4 011940Z AUTO 18003KT 9SM -RA BKN095 OVC110 20/19 A2986 370 93 1100 180/03 RMK AO2 P0003
63870K0J4 0J420160401144511704/01/16 14:45:31  5-MIN K0J4 011945Z AUTO 17003KT 7SM -RA BKN095 OVC110 20/19 A2987 360 93 1100 170/03 RMK AO2 P0004
63870K0J4 0J420160401145011904/01/16 14:50:31  5-MIN K0J4 011950Z AUTO 18003KT 6SM RA BR BKN095 OVC110 20/19 A2987 370 93 1100 180/03 RMK AO2 P0004
63870K0J4 0J420160401145513004/01/16 14:55:31  5-MIN K0J4 011955Z AUTO 17003KT 6SM -RA BR OVC100 20/19 A2986 370 93 1100 170/03 RMK AO2 SLP108 P0005 T02000189
63870K0J4 0J420160401150011204/01/16 15:00:31  5-MIN K0J4 012000Z AUTO 16003KT 6SM RA BR OVC100 20/19 A2985 380 93 1100 160/03 RMK AO2 P0000
63870K0J4 0J420160401150511204/01/16 15:05:31  5-MIN K0J4 012005Z AUTO 18003KT 5SM RA BR OVC100 20/19 A2986 370 93 1100 180/03 RMK AO2 P0001
63870K0J4 0J420160401151011204/01/16 15:10:31  5-MIN K0J4 012010Z AUTO 19003KT 4SM RA BR OVC100 20/19 A2986 370 93 1100 190/03 RMK AO2 P0002
63870K0J4 0J420160401151511304/01/16 15:15:31  5-MIN K0J4 012015Z AUTO 00000KT 5SM -RA BR OVC110 20/19 A2987 370 93 1100 000/00 RMK AO2 P0002
63870K0J4 0J420160401152010904/01/16 15:20:31  5-MIN K0J4 012020Z AUTO 18003KT 7SM RA OVC100 20/19 A2986 370 93 1100 180/03 RMK AO2 P0003
63870K0J4 0J420160401152511204/01/16 15:25:31  5-MIN K0J4 012025Z AUTO 00000KT 5SM RA BR OVC110 20/19 A2986 380 93 1100 000/00 RMK AO2 P0004
63870K0J4 0J420160401153011204/01/16 15:30:31  5-MIN K0J4 012030Z AUTO 19003KT 4SM RA BR OVC100 20/19 A2986 370 93 1100 190/03 RMK AO2 P0005
63870K0J4 0J420160401153511204/01/16 15:35:31  5-MIN K0J4 012035Z AUTO 19004KT 4SM RA BR OVC100 20/19 A2985 380 93 1100 190/04 RMK AO2 P0006
63870K0J4 0J420160401154011204/01/16 15:40:31  5-MIN K0J4 012040Z AUTO 00000KT 4SM RA BR OVC100 20/19 A2985 380 93 1100 000/00 RMK AO2 P0007
63870K0J4 0J420160401154511204/01/16 15:45:31  5-MIN K0J4 012045Z AUTO 00000KT 4SM RA BR OVC100 20/19 A2985 390 93 1100 000/00 RMK AO2 P0008
63870K0J4 0J420160401155011904/01/16 15:50:31  5-MIN K0J4 012050Z AUTO 00000KT 4SM RA BR OVC100 19/19 A2983 400 97 1000 000/00 RMK AO2 PRESFR P0009
63870K0J4 0J420160401155514804/01/16 15:55:31  5-MIN K0J4 012055Z AUTO 00000KT 4SM RA BR FEW075 OVC100 19/19 A2984 390 97 1000 000/00 RMK AO2 SLP102 P0010 60026 T01940189 51007
63870K0J4 0J420160401160011904/01/16 16:00:31  5-MIN K0J4 012100Z AUTO 00000KT 4SM RA BR FEW075 OVC110 20/19 A2984 390 93 1100 000/00 RMK AO2 P0000
63870K0J4 0J420160401160512704/01/16 16:05:31  5-MIN K0J4 012105Z AUTO 00000KT 5SM -RA BR FEW075 BKN100 OVC120 20/19 A2983 400 93 1100 000/00 RMK AO2 P0000
63870K0J4 0J420160401161011804/01/16 16:10:31  5-MIN K0J4 012110Z AUTO 00000KT 10SM -RA FEW049 OVC110 20/19 A2983 400 93 1100 000/00 RMK AO2 P0000
63870K0J4 0J420160401161512504/01/16 16:15:31  5-MIN K0J4 012115Z AUTO 00000KT 10SM -RA FEW049 SCT080 OVC100 20/19 A2983 400 93 1100 000/00 RMK AO2 P0000
63870K0J4 0J420160401162011804/01/16 16:20:31  5-MIN K0J4 012120Z AUTO 00000KT 10SM -RA SCT075 OVC110 19/19 A2983 400 97 1100 000/00 RMK AO2 P0000
63870K0J4 0J420160401162511804/01/16 16:25:31  5-MIN K0J4 012125Z AUTO 17003KT 10SM -RA SCT075 OVC110 20/19 A2983 400 93 1100 170/03 RMK AO2 P0000
63870K0J4 0J420160401163011604/01/16 16:30:31  5-MIN K0J4 012130Z AUTO 16004KT 7SM RA SCT075 OVC100 19/19 A2982 410 97 1100 160/04 RMK AO2 P0001
63870K0J4 0J420160401163511904/01/16 16:35:31  5-MIN K0J4 012135Z AUTO 15006KT 4SM RA BR BKN075 OVC100 19/19 A2982 410 97 1100 150/06 RMK AO2 P0003
63870K0J4 0J420160401164012604/01/16 16:40:31  5-MIN K0J4 012140Z AUTO 13005KT 3SM RA BR BKN080 OVC100 19/19 A2979 440 97 1100 130/05 RMK AO2 PRESFR P0004
63870K0J4 0J420160401164511904/01/16 16:45:31  5-MIN K0J4 012145Z AUTO 14004KT 3SM RA BR SCT075 OVC100 19/19 A2978 440 97 1100 140/04 RMK AO2 P0005
63870K0J4 0J420160401165012004/01/16 16:50:31  5-MIN K0J4 012150Z AUTO 16004KT 4SM -RA BR SCT080 OVC110 19/19 A2980 430 97 1100 160/04 RMK AO2 P0006
63870K0J4 0J420160401165514404/01/16 16:55:31  5-MIN K0J4 012155Z AUTO 16005KT 6SM -RA BR FEW080 BKN100 OVC120 19/18 A2979 430 93 1100 160/05 RMK AO2 SLP085 P0006 T01940183
63870K0J4 0J420160401170011904/01/16 17:00:31  5-MIN K0J4 012200Z AUTO 16003KT 5SM RA BR BKN090 OVC110 19/18 A2980 430 93 1100 160/03 RMK AO2 P0001
63870K0J4 0J420160401170511904/01/16 17:05:31  5-MIN K0J4 012205Z AUTO 17004KT 4SM RA BR BKN090 OVC110 19/18 A2981 420 93 1100 170/04 RMK AO2 P0002
63870K0J4 0J420160401171012304/01/16 17:10:31  5-MIN K0J4 012210Z AUTO 18003KT 2 1/2SM RA BR BKN090 OVC110 19/18 A2981 420 93 1100 180/03 RMK AO2 P0004
63870K0J4 0J420160401171512304/01/16 17:15:31  5-MIN K0J4 012215Z AUTO 14006KT 2 1/2SM RA BR BKN090 OVC110 19/18 A2978 440 93 1100 140/06 RMK AO2 P0006
63870K0J4 0J420160401172012604/01/16 17:20:31  5-MIN K0J4 012220Z AUTO VRB04KT 3SM RA BR BKN090 OVC110 19/18 A2977 450 97 1100 VRB/04 RMK AO2 PRESFR P0007
63870K0J4 0J420160401172511904/01/16 17:25:31  5-MIN K0J4 012225Z AUTO VRB04KT 3SM RA BR BKN090 OVC110 19/18 A2982 410 97 1000 VRB/04 RMK AO2 P0009
63870K0J4 0J420160401173012704/01/16 17:30:31  5-MIN K0J4 012230Z AUTO VRB03KT 2SM +RA BR FEW065 BKN085 OVC110 19/18 A2982 410 97 1000 VRB/03 RMK AO2 P0010
63870K0J4 0J420160401173513104/01/16 17:35:31  5-MIN K0J4 012235Z AUTO 00000KT 2 1/2SM +RA BR SCT070 BKN085 OVC110 19/18 A2981 420 97 1000 000/00 RMK AO2 P0013
63870K0J4 0J420160401174013104/01/16 17:40:31  5-MIN K0J4 012240Z AUTO 00000KT 2 1/2SM +RA BR BKN070 BKN090 OVC110 19/18 A2982 410 97 1000 000/00 RMK AO2 P0015
63870K0J4 0J420160401174512304/01/16 17:45:31  5-MIN K0J4 012245Z AUTO 00000KT 2 1/2SM RA BR BKN070 OVC080 19/18 A2982 410 97 1000 000/00 RMK AO2 P0017
63870K0J4 0J420160401175012004/01/16 17:50:31  5-MIN K0J4 012250Z AUTO 06005KT 3SM +RA BR BKN065 OVC080 19/18 A2978 440 97 1000 060/05 RMK AO2 P0019
63870K0J4 0J420160401175513704/01/16 17:55:31  5-MIN K0J4 012255Z AUTO 00000KT 4SM +RA BR BKN065 OVC085 19/18 A2981 420 97 1000 000/00 RMK AO2 SLP090 P0021 T01890183
63870K0J4 0J420160401180012304/01/16 18:00:31  5-MIN K0J4 012300Z AUTO 00000KT 2 1/2SM RA BR BKN070 OVC085 19/18 A2981 420 97 1000 000/00 RMK AO2 P0001
63870K0J4 0J420160401180512604/01/16 18:05:31  5-MIN K0J4 012305Z AUTO 00000KT 2SM RA BR SCT050 BKN070 OVC085 19/18 A2980 430 97 1000 000/00 RMK AO2 P0002
63870K0J4 0J420160401181012704/01/16 18:10:31  5-MIN K0J4 012310Z AUTO 13003KT 3SM -RA BR SCT050 BKN070 BKN085 19/18 A2979 430 97 1000 130/03 RMK AO2 P0002
63870K0J4 0J420160401181512404/01/16 18:15:31  5-MIN K0J4 012315Z AUTO 00000KT 7SM -RA FEW050 SCT070 BKN085 19/18 A2979 440 97 1000 000/00 RMK AO2 P0002
63870K0J4 0J420160401182012404/01/16 18:20:31  5-MIN K0J4 012320Z AUTO 00000KT 8SM -RA FEW050 BKN075 OVC110 19/18 A2980 430 97 1000 000/00 RMK AO2 P0002
63870K0J4 0J420160401182512404/01/16 18:25:31  5-MIN K0J4 012325Z AUTO 11003KT 8SM -RA SCT055 BKN080 BKN110 19/18 A2978 440 97 1000 110/03 RMK AO2 P0002
63870K0J4 0J420160401183012404/01/16 18:30:31  5-MIN K0J4 012330Z AUTO 00000KT 9SM -RA FEW050 SCT060 BKN095 19/18 A2980 430 97 1000 000/00 RMK AO2 P0002
63870K0J4 0J420160401183512404/01/16 18:35:31  5-MIN K0J4 012335Z AUTO 08004KT 9SM -RA FEW060 BKN095 OVC110 19/18 A2977 450 97 1100 080/04 RMK AO2 P0002
63870K0J4 0J420160401184011704/01/16 18:40:31  5-MIN K0J4 012340Z AUTO 00000KT 9SM -RA FEW060 OVC100 19/18 A2979 440 97 1000 000/00 RMK AO2 P0002
63870K0J4 0J420160401184512504/01/16 18:45:31  5-MIN K0J4 012345Z AUTO 15003KT 10SM -RA FEW060 BKN090 OVC110 19/18 A2979 430 97 1000 150/03 RMK AO2 P0002
63870K0J4 0J420160401185012004/01/16 18:50:31  5-MIN K0J4 012350Z AUTO 00000KT 10SM FEW060 OVC095 19/18 A2978 440 97 1000 000/00 RMK AO2 RAE49 P0002
63870K0J4 0J420160401185511804/01/16 18:55:31  5-MIN K0J4 012355Z AUTO 09003KT 10SM -RA FEW001 OVC090 19/18 A2978 450 93 1000 090/03 RMK AO2 P0003
63870K0J4 0J420160401190011804/01/16 19:00:31  5-MIN K0J4 020000Z AUTO 15004KT 10SM -RA SCT001 OVC090 19/18 A2979 440 97 1000 150/04 RMK AO2 P0000
63870K0J4 0J420160401190511804/01/16 19:05:31  5-MIN K0J4 020005Z AUTO 15003KT 10SM -RA SCT001 OVC090 19/18 A2979 430 97 1000 150/03 RMK AO2 P0000
63870K0J4 0J420160401191012504/01/16 19:10:31  5-MIN K0J4 020010Z AUTO 13003KT 10SM -RA SCT001 BKN043 OVC085 19/18 A2979 430 93 1000 130/03 RMK AO2 P0000
63870K0J4 0J420160401191512304/01/16 19:15:31  5-MIN K0J4 020015Z AUTO 08006KT 8SM RA SCT001 BKN065 OVC090 19/18 A2976 460 93 1100 080/06 RMK AO2 P0001
63870K0J4 0J420160401192012604/01/16 19:20:31  5-MIN K0J4 020020Z AUTO VRB03KT 6SM RA BR FEW001 BKN065 OVC085 18/18 A2978 440 96 1000 VRB/03 RMK AO2 P0002
63870K0J4 0J420160401192512404/01/16 19:25:31  5-MIN K0J4 020025Z AUTO 07005KT 7SM -RA FEW001 BKN075 OVC085 18/18 A2977 460 96 1000 070/05 RMK AO2 P0002
63870K0J4 0J420160401193013204/01/16 19:30:31  5-MIN K0J4 020030Z AUTO 08005KT 8SM -TSRA FEW001 BKN075 OVC085 19/18 A2977 450 93 1100 080/05 RMK AO2 TSB26 P0002
63870K0J4 0J420160401193513804/01/16 19:35:31  5-MIN K0J4 020035Z AUTO 00000KT 7SM TSRA SCT039 BKN075 OVC085 19/18 A2981 420 93 1000 000/00 RMK AO2 TSB26 PRESRR P0003
63870K0J4 0J420160401194014104/01/16 19:40:31  5-MIN K0J4 020040Z AUTO 29005KT 4SM TSRA BR FEW003 BKN037 OVC090 19/18 A2986 370 93 1000 290/05 RMK AO2 TSB26 PRESRR P0007
63870K0J4 0J420160401194513604/01/16 19:45:31  5-MIN K0J4 020045Z AUTO 00000KT 3/4SM +TSRA BR SCT007 BKN035 OVC080 18/18 A2981 420 96 900 000/00 RMK AO2 TSB26 P0031
63870K0J4 0J420160401195013704/01/16 19:50:31  5-MIN K0J4 020050Z AUTO 00000KT 1/2SM +TSRA FG BKN016 BKN037 OVC075 18/18 A2983 400 100 900 000/00 RMK AO2 TSB26 P0043
63870K0J4 0J420160401195513704/01/16 19:55:31  5-MIN K0J4 020055Z AUTO 21003KT 3/4SM +TSRA BR FEW004 BKN033 OVC075 18/18 A2984 390 100 900 210/03 RMK AO2 TSB26 P0045
63870K0J4 0J420160401200013204/01/16 20:00:31  5-MIN K0J4 020100Z AUTO 31003KT 1 3/4SM +TSRA BR FEW004 BKN035 OVC060 18/18 A2986 380 96 900 310/03 RMK AO2 P0002
63870K0J4 0J420160401200512804/01/16 20:05:31  5-MIN K0J4 020105Z AUTO 00000KT 2SM +TSRA BR FEW004 BKN037 OVC060 18/18 A2986 370 96 900 000/00 RMK AO2 P0004
63870K0J4 0J420160401201012104/01/16 20:10:31  5-MIN K0J4 020110Z AUTO 00000KT 2SM +TSRA BR BKN042 OVC060 18/18 A2985 380 96 900 000/00 RMK AO2 P0007
63870K0J4 0J420160401201511804/01/16 20:15:31  5-MIN K0J4 020115Z AUTO 00000KT 2 1/2SM +TSRA BR OVC050 18/18 A2984 390 96 900 000/00 RMK AO2 P0009
63870K0J4 0J420160401202011804/01/16 20:20:31  5-MIN K0J4 020120Z AUTO 00000KT 2 1/2SM +TSRA BR OVC055 18/18 A2986 370 96 900 000/00 RMK AO2 P0011
63870K0J4 0J420160401202513504/01/16 20:25:31  5-MIN K0J4 020125Z AUTO 00000KT 2 1/2SM VCTS +RA BR FEW004 BKN055 OVC070 18/18 A2985 380 96 900 000/00 RMK AO2 P0012
63870K0J4 0J420160401203013004/01/16 20:30:31  5-MIN K0J4 020130Z AUTO 00000KT 3SM VCTS RA BR FEW004 BKN060 OVC095 18/18 A2987 360 96 900 000/00 RMK AO2 P0014
63870K0J4 0J420160401203513704/01/16 20:35:31  5-MIN K0J4 020135Z AUTO 00000KT 3SM VCTS RA BR SCT060 BKN075 OVC095 18/18 A2988 350 96 900 000/00 RMK AO2 PRESRR P0015
63870K0J4 0J420160401204013204/01/16 20:40:31  5-MIN K0J4 020140Z AUTO 00000KT 2 1/2SM +TSRA BR FEW037 BKN050 OVC095 18/18 A2988 350 96 900 000/00 RMK AO2 P0018
63870K0J4 0J420160401204512804/01/16 20:45:31  5-MIN K0J4 020145Z AUTO 00000KT 2SM +TSRA BR FEW037 BKN048 OVC095 18/18 A2988 350 96 900 000/00 RMK AO2 P0021
63870K0J4 0J420160401205013204/01/16 20:50:31  5-MIN K0J4 020150Z AUTO 00000KT 1 3/4SM +TSRA BR FEW038 BKN046 OVC095 18/18 A2987 360 96 900 000/00 RMK AO2 P0024
63870K0J4 0J420160401205514904/01/16 20:55:31  5-MIN K0J4 020155Z AUTO 00000KT 2SM +RA BR FEW005 BKN046 OVC090 18/18 A2986 370 96 900 000/00 RMK AO2 TSE55 SLP107 P0026 T01830178
63870K0J4 0J420160401210013204/01/16 21:00:31  5-MIN K0J4 020200Z AUTO 09007KT 4SM RA BR FEW005 BKN046 OVC100 18/18 A2981 420 96 900 090/07 RMK AO2 PRESFR P0000
63870K0J4 0J420160401210513204/01/16 21:05:31  5-MIN K0J4 020205Z AUTO 08006KT 5SM RA BR FEW003 BKN046 OVC110 18/18 A2981 420 96 900 080/06 RMK AO2 PRESFR P0002
63870K0J4 0J420160401211013404/01/16 21:10:31  5-MIN K0J4 020210Z AUTO 09007KT 5SM +RA BR FEW003 BKN080 OVC100 18/18 A2979 430 96 1000 090/07 RMK AO2 PRESFR P0004
63870K0J4 0J420160401211512604/01/16 21:15:31  5-MIN K0J4 020215Z AUTO 07007KT 5SM RA BR FEW003 BKN075 OVC100 18/18 A2981 420 96 1000 070/07 RMK AO2 P0004
63870K0J4 0J420160401212012304/01/16 21:20:31  5-MIN K0J4 020220Z AUTO 10004KT 8SM -RA SCT003 BKN034 OVC100 18/18 A2981 420 96 900 100/04 RMK AO2 P0004
63870K0J4 0J420160401212512404/01/16 21:25:31  5-MIN K0J4 020225Z AUTO 00000KT 10SM -RA BKN003 BKN075 BKN100 18/18 A2981 420 96 900 000/00 RMK AO2 P0004
63870K0J4 0J420160401213012004/01/16 21:30:31  5-MIN K0J4 020230Z AUTO 10004KT 10SM BKN003 BKN100 18/18 A2980 430 96 1000 100/04 RMK AO2 RAE29 P0004
63870K0J4 0J420160401213511304/01/16 21:35:31  5-MIN K0J4 020235Z AUTO 12006KT 10SM BKN003 18/18 A2980 430 96 1000 120/06 RMK AO2 RAE29 P0004
63870K0J4 0J420160401214011304/01/16 21:40:31  5-MIN K0J4 020240Z AUTO 13006KT 10SM BKN003 18/18 A2979 430 96 1000 130/06 RMK AO2 RAE29 P0004
63870K0J4 0J420160401214511304/01/16 21:45:31  5-MIN K0J4 020245Z AUTO VRB04KT 10SM OVC003 18/18 A2980 430 96 1000 VRB/04 RMK AO2 RAE29 P0005
63870K0J4 0J420160401215011304/01/16 21:50:31  5-MIN K0J4 020250Z AUTO VRB04KT 10SM OVC003 18/18 A2980 430 96 1000 VRB/04 RMK AO2 RAE29 P0005
63870K0J4 0J420160401215514204/01/16 21:55:31  5-MIN K0J4 020255Z AUTO 00000KT 10SM OVC003 18/17 A2981 420 93 1000 000/00 RMK AO2 RAE29 SLP089 P0005 60078 T01830172 56018
63870K0J4 0J420160401220010004/01/16 22:00:31  5-MIN K0J4 020300Z AUTO 00000KT 10SM OVC003 18/17 A2981 420 93 900 000/00 RMK AO2
63870K0J4 0J420160401220510004/01/16 22:05:31  5-MIN K0J4 020305Z AUTO 00000KT 10SM OVC003 18/17 A2982 410 93 900 000/00 RMK AO2
63870K0J4 0J420160401221010004/01/16 22:10:31  5-MIN K0J4 020310Z AUTO 00000KT 10SM OVC003 18/17 A2982 410 93 900 000/00 RMK AO2
63870K0J4 0J420160401221512304/01/16 22:15:31  5-MIN K0J4 020315Z AUTO 32003KT 10SM -RA OVC003 18/17 A2983 400 93 900 320/03 RMK AO2 RAB15 PRESRR P0000
63870K0J4 0J420160401222012304/01/16 22:20:31  5-MIN K0J4 020320Z AUTO 31003KT 10SM -RA OVC003 18/17 A2984 390 93 900 310/03 RMK AO2 RAB15 PRESRR P0000
63870K0J4 0J420160401222512804/01/16 22:25:31  5-MIN K0J4 020325Z AUTO 33003KT 10SM -RA OVC003 18/18 A2983 400 96 900 330/03 RMK AO2 RAB15 CIG 002V008 P0000
63870K0J4 0J420160401223012904/01/16 22:30:31  5-MIN K0J4 020330Z AUTO 00000KT 6SM RA BR OVC005 18/18 A2984 390 96 900 000/00 RMK AO2 RAB15 CIG 003V010 P0001
63870K0J4 0J420160401223513704/01/16 22:35:31  5-MIN K0J4 020335Z AUTO 00000KT 5SM -RA BR SCT005 OVC010 18/18 A2984 390 96 900 000/00 RMK AO2 RAB15 CIG 006V012 P0001
63870K0J4 0J420160401224013404/01/16 22:40:31  5-MIN K0J4 020340Z AUTO 00000KT 8SM -RA BKN005 OVC010 18/18 A2986 370 96 900 000/00 RMK AO2 RAB15 CIG 004V009 P0001
63870K0J4 0J420160401224514204/01/16 22:45:31  5-MIN K0J4 020345Z AUTO 00000KT 10SM -RA BKN007 BKN012 OVC025 18/18 A2985 380 96 900 000/00 RMK AO2 RAB15 CIG 004V011 P0001
63870K0J4 0J420160401225013004/01/16 22:50:31  5-MIN K0J4 020350Z AUTO 00000KT 10SM -RA SCT008 BKN012 OVC025 18/17 A2985 390 93 900 000/00 RMK AO2 RAB15 P0001
63870K0J4 0J420160401225514704/01/16 22:55:31  5-MIN K0J4 020355Z AUTO 00000KT 10SM -RA FEW008 BKN012 OVC025 18/18 A2985 380 96 900 000/00 RMK AO2 RAB15 SLP105 P0001 T01830178
63870K0J4 0J420160401230011704/01/16 23:00:31  5-MIN K0J4 020400Z AUTO 00000KT 10SM -RA BKN012 OVC025 18/18 A2985 380 96 900 000/00 RMK AO2 P0000
63870K0J4 0J420160401230512404/01/16 23:05:31  5-MIN K0J4 020405Z AUTO 00000KT 10SM -RA FEW003 SCT012 OVC025 18/18 A2985 380 96 900 000/00 RMK AO2 P0000
63870K0J4 0J420160401231012404/01/16 23:10:31  5-MIN K0J4 020410Z AUTO 00000KT 10SM -RA FEW001 BKN014 OVC025 18/18 A2985 380 96 900 000/00 RMK AO2 P0000
63870K0J4 0J420160401231512404/01/16 23:15:31  5-MIN K0J4 020415Z AUTO 00000KT 10SM -RA FEW001 BKN014 OVC025 18/18 A2985 380 96 900 000/00 RMK AO2 P0000
63870K0J4 0J420160401232013704/01/16 23:20:31  5-MIN K0J4 020420Z AUTO 00000KT 5SM RA BR FEW001 BKN008 OVC025 18/18 A2985 380 96 900 000/00 RMK AO2 CIG 006V011 P0001
63870K0J4 0J420160401232514104/01/16 23:25:31  5-MIN K0J4 020425Z AUTO VRB03KT 2 1/2SM RA BR SCT002 BKN008 OVC025 18/18 A2986 370 96 900 VRB/03 RMK AO2 CIG 006V011 P0002
63870K0J4 0J420160401233013004/01/16 23:30:31  5-MIN K0J4 020430Z AUTO 33007KT 2SM RA BR BKN004 OVC008 18/17 A2985 380 96 800 330/07 RMK AO2 CIG 001V007 P0004
63870K0J4 0J420160401233513804/01/16 23:35:31  5-MIN K0J4 020435Z AUTO 36005KT 2SM +RA BR BKN004 OVC010 17/17 A2983 400 96 800 360/05 RMK AO2 CIG 002V009 PRESFR P0007
63870K0J4 0J420160401234013104/01/16 23:40:31  5-MIN K0J4 020440Z AUTO VRB05KT 3SM -RA BR BKN004 OVC009 17/16 A2983 400 93 800 VRB/05 RMK AO2 CIG 002V007 P0007
63870K0J4 0J420160401234512404/01/16 23:45:31  5-MIN K0J4 020445Z AUTO 31005KT 4SM -RA BR OVC004 17/16 A2986 370 96 700 310/05 RMK AO2 CIG 002V007 P0008
63870K0J4 0J420160401235013204/01/16 23:50:31  5-MIN K0J4 020450Z AUTO VRB04KT 4SM -TSRA BR OVC004 17/16 A2986 370 96 700 VRB/04 RMK AO2 TSB49 CIG 002V007 P0009
63870K0J4 0J420160401235516604/01/16 23:55:31  5-MIN K0J4 020455Z AUTO VRB03KT 3SM +TSRA BR BKN004 OVC007 17/16 A2986 370 96 700 VRB/03 RMK AO2 TSB49 CIG 002V006 SLP109 P0012 T01670161 402330167
63870K0J4 0J420160402000013704/02/16 00:00:31  5-MIN K0J4 020500Z AUTO 36004KT 2 1/2SM +TSRA BR BKN004 OVC007 17/16 A2985 380 93 700 360/04 RMK AO2 CIG 002V006 P0001
63870K0J4 0J420160402000512004/02/16 00:05:31  5-MIN K0J4 020505Z AUTO 36005KT 3SM TSRA BR BKN004 OVC007 17/16 A2984 390 93 700 360/05 RMK AO2 P0002
63870K0J4 0J420160402001012504/02/16 00:10:31  5-MIN K0J4 020510Z AUTO 35006KT 4SM TSRA BR OVC004 16/16 A2984 390 96 600 350/06 RMK AO2 CIG 002V009 P0003
63870K0J4 0J420160402001512604/02/16 00:15:31  5-MIN K0J4 020515Z AUTO 34006KT 6SM -TSRA BR OVC004 16/16 A2985 380 96 600 340/06 RMK AO2 CIG 002V009 P0003
63870K0J4 0J420160402002012704/02/16 00:20:31  5-MIN K0J4 020520Z AUTO 36006KT 7SM -RA OVC006 16/16 A2984 390 96 600 360/06 RMK AO2 TSE16 CIG 002V009 P0003
63870K0J4 0J420160402002512604/02/16 00:25:31  5-MIN K0J4 020525Z AUTO VRB03KT 7SM RA OVC006 16/16 A2985 380 96 600 VRB/03 RMK AO2 TSE16 CIG 002V011 P0004
63870K0J4 0J420160402003013004/02/16 00:30:31  5-MIN K0J4 020530Z AUTO 36006KT 6SM -RA BR OVC006 16/15 A2984 390 93 700 360/06 RMK AO2 TSE16 CIG 002V011 P0005
63870K0J4 0J420160402003513604/02/16 00:35:31  5-MIN K0J4 020535Z AUTO 35005KT 6SM RA BR BKN006 OVC018 16/15 A2984 390 93 700 350/05 RMK AO2 TSE16 CIG 002V009 P0005
63870K0J4 0J420160402004013704/02/16 00:40:31  5-MIN K0J4 020540Z AUTO 36006KT 6SM -RA BR BKN006 OVC018 16/15 A2984 390 93 700 360/06 RMK AO2 TSE16 CIG 004V009 P0005
63870K0J4 0J420160402004513404/02/16 00:45:31  5-MIN K0J4 020545Z AUTO 35004KT 8SM -RA BKN006 OVC018 16/15 A2985 390 93 600 350/04 RMK AO2 TSE16 CIG 004V009 P0005
63870K0J4 0J420160402005012204/02/16 00:50:31  5-MIN K0J4 020550Z AUTO VRB03KT 9SM -RA SCT006 OVC018 16/15 A2985 380 93 600 VRB/03 RMK AO2 TSE16 P0005
63870K0J4 0J420160402005517204/02/16 00:55:31  5-MIN K0J4 020555Z AUTO 32004KT 10SM FEW006 OVC018 16/15 A2986 370 93 600 320/04 RMK AO2 TSE16RAE54 PRESRR SLP109 P0005 60097 T01610150 10194 20161 50008
63870K0J4 0J420160402010011604/02/16 01:00:31  5-MIN K0J4 020600Z AUTO 34003KT 8SM -RA SCT006 OVC018 16/15 A2986 370 93 600 340/03 RMK AO2 P0001
63870K0J4 0J420160402010511804/02/16 01:05:31  5-MIN K0J4 020605Z AUTO 34004KT 6SM RA BR FEW006 OVC018 16/15 A2986 380 93 600 340/04 RMK AO2 P0001
63870K0J4 0J420160402011012504/02/16 01:10:31  5-MIN K0J4 020610Z AUTO 36005KT 4SM RA BR FEW004 SCT008 OVC018 16/15 A2984 390 96 600 360/05 RMK AO2 P0002
63870K0J4 0J420160402011512604/02/16 01:15:31  5-MIN K0J4 020615Z AUTO 35007KT 4SM -RA BR SCT006 OVC020 16/15 A2984 390 96 600 350/07 RMK AO2 PRESFR P0003
63870K0J4 0J420160402012012604/02/16 01:20:31  5-MIN K0J4 020620Z AUTO 36007KT 6SM -RA BR SCT004 SCT008 OVC020 16/15 A2984 390 96 600 360/07 RMK AO2 P0003
63870K0J4 0J420160402012512304/02/16 01:25:31  5-MIN K0J4 020625Z AUTO VRB04KT 9SM -RA SCT004 BKN008 OVC020 16/15 A2984 390 96 600 VRB/04 RMK AO2 P0003
63870K0J4 0J420160402013012604/02/16 01:30:31  5-MIN K0J4 020630Z AUTO VRB04KT 10SM SCT004 BKN008 OVC023 16/15 A2985 380 96 600 VRB/04 RMK AO2 RAE29 P0003
63870K0J4 0J420160402013512604/02/16 01:35:31  5-MIN K0J4 020635Z AUTO 31004KT 10SM SCT004 BKN008 OVC023 16/15 A2985 380 96 600 310/04 RMK AO2 RAE29 P0003
63870K0J4 0J420160402014011904/02/16 01:40:31  5-MIN K0J4 020640Z AUTO VRB04KT 10SM BKN006 OVC023 16/14 A2985 380 93 600 VRB/04 RMK AO2 RAE29 P0003
63870K0J4 0J420160402014511904/02/16 01:45:31  5-MIN K0J4 020645Z AUTO 32004KT 10SM BKN006 OVC023 16/14 A2986 370 93 600 320/04 RMK AO2 RAE29 P0003
63870K0J4 0J420160402015013804/02/16 01:50:31  5-MIN K0J4 020650Z AUTO 36003KT 10SM -RA BKN006 OVC023 16/15 A2985 380 96 600 360/03 RMK AO2 RAE29B48 CIG 004V009 P0003
63870K0J4 0J420160402015515504/02/16 01:55:31  5-MIN K0J4 020655Z AUTO VRB05KT 10SM -RA BKN008 OVC023 16/15 A2986 370 96 600 VRB/05 RMK AO2 RAE29B48 CIG 004V010 SLP109 P0003 T01560150
63870K0J4 0J420160402020012904/02/16 02:00:31  5-MIN K0J4 020700Z AUTO VRB05KT 10SM -RA BKN008 OVC023 16/15 A2986 370 96 600 VRB/05 RMK AO2 CIG 004V012 P0000
63870K0J4 0J420160402020511504/02/16 02:05:31  5-MIN K0J4 020705Z AUTO VRB04KT 9SM RA SCT008 OVC023 16/14 A2986 370 93 600 VRB/04 RMK AO2 P0000
63870K0J4 0J420160402021011604/02/16 02:10:31  5-MIN K0J4 020710Z AUTO VRB04KT 8SM -RA SCT008 OVC023 16/14 A2986 370 93 600 VRB/04 RMK AO2 P0000
63870K0J4 0J420160402021511604/02/16 02:15:31  5-MIN K0J4 020715Z AUTO 35005KT 8SM -RA FEW008 OVC023 16/14 A2986 370 93 600 350/05 RMK AO2 P0001
63870K0J4 0J420160402022011704/02/16 02:20:31  5-MIN K0J4 020720Z AUTO 34004KT 10SM -RA FEW008 OVC023 16/14 A2986 370 93 600 340/04 RMK AO2 P0001
63870K0J4 0J420160402022511904/02/16 02:25:31  5-MIN K0J4 020725Z AUTO 00000KT 10SM FEW008 OVC023 16/14 A2986 380 93 600 000/00 RMK AO2 RAE25 P0001
63870K0J4 0J420160402023011904/02/16 02:30:31  5-MIN K0J4 020730Z AUTO 35004KT 10SM SCT010 OVC023 16/14 A2985 380 93 600 350/04 RMK AO2 RAE25 P0001
63870K0J4 0J420160402023511904/02/16 02:35:31  5-MIN K0J4 020735Z AUTO 34004KT 10SM BKN012 OVC023 16/14 A2985 380 93 600 340/04 RMK AO2 RAE25 P0001
63870K0J4 0J420160402024011904/02/16 02:40:31  5-MIN K0J4 020740Z AUTO 33005KT 10SM BKN014 OVC023 16/14 A2985 380 93 600 330/05 RMK AO2 RAE25 P0001
63870K0J4 0J420160402024511904/02/16 02:45:31  5-MIN K0J4 020745Z AUTO 34004KT 10SM BKN012 OVC023 16/14 A2985 380 93 600 340/04 RMK AO2 RAE25 P0001
63870K0J4 0J420160402025011904/02/16 02:50:31  5-MIN K0J4 020750Z AUTO VRB05KT 10SM SCT012 OVC023 15/14 A2985 380 96 500 VRB/05 RMK AO2 RAE25 P0001
63870K0J4 0J420160402025513604/02/16 02:55:31  5-MIN K0J4 020755Z AUTO 35005KT 10SM SCT012 OVC023 15/14 A2985 380 93 500 350/05 RMK AO2 RAE25 SLP105 P0001 T01500139
63870K0J4 0J420160402030010704/02/16 03:00:31  5-MIN K0J4 020800Z AUTO 35005KT 10SM SCT012 OVC023 15/14 A2985 380 93 500 350/05 RMK AO2
63870K0J4 0J420160402030510704/02/16 03:05:31  5-MIN K0J4 020805Z AUTO 35006KT 10SM FEW012 OVC023 15/14 A2986 380 93 500 350/06 RMK AO2
63870K0J4 0J420160402031010704/02/16 03:10:31  5-MIN K0J4 020810Z AUTO 36006KT 10SM FEW012 OVC023 15/14 A2985 380 93 500 360/06 RMK AO2
63870K0J4 0J420160402031510004/02/16 03:15:31  5-MIN K0J4 020815Z AUTO VRB05KT 10SM OVC023 15/14 A2985 380 93 500 VRB/05 RMK AO2
63870K0J4 0J420160402032010004/02/16 03:20:31  5-MIN K0J4 020820Z AUTO 34006KT 10SM OVC025 15/13 A2986 370 90 500 340/06 RMK AO2
63870K0J4 0J420160402032510004/02/16 03:25:31  5-MIN K0J4 020825Z AUTO VRB05KT 10SM OVC027 15/13 A2985 380 90 500 VRB/05 RMK AO2
63870K0J4 0J420160402033010004/02/16 03:30:31  5-MIN K0J4 020830Z AUTO 36006KT 10SM OVC027 15/13 A2985 380 90 500 360/06 RMK AO2
63870K0J4 0J420160402033510004/02/16 03:35:31  5-MIN K0J4 020835Z AUTO 35006KT 10SM OVC027 15/13 A2985 380 86 500 350/06 RMK AO2
63870K0J4 0J420160402034010004/02/16 03:40:31  5-MIN K0J4 020840Z AUTO 36004KT 10SM OVC029 14/13 A2985 380 90 400 360/04 RMK AO2
63870K0J4 0J420160402034510004/02/16 03:45:31  5-MIN K0J4 020845Z AUTO VRB05KT 10SM OVC029 14/13 A2985 380 90 400 VRB/05 RMK AO2
63870K0J4 0J420160402035010004/02/16 03:50:31  5-MIN K0J4 020850Z AUTO 35005KT 10SM OVC029 14/13 A2985 390 90 400 350/05 RMK AO2
63870K0J4 0J420160402035512904/02/16 03:55:31  5-MIN K0J4 020855Z AUTO 36006KT 10SM OVC029 14/13 A2984 390 90 500 360/06 RMK AO2 SLP101 60004 T01440128 51018
63870K0J4 0J420160402040010004/02/16 04:00:31  5-MIN K0J4 020900Z AUTO 35006KT 10SM OVC029 14/13 A2984 390 90 500 350/06 RMK AO2
63870K0J4 0J420160402040510004/02/16 04:05:31  5-MIN K0J4 020905Z AUTO 35005KT 10SM OVC029 14/12 A2984 390 86 500 350/05 RMK AO2
63870K0J4 0J420160402041010004/02/16 04:10:31  5-MIN K0J4 020910Z AUTO VRB05KT 10SM OVC029 14/12 A2985 390 86 400 VRB/05 RMK AO2
63870K0J4 0J420160402041510004/02/16 04:15:31  5-MIN K0J4 020915Z AUTO 35004KT 10SM OVC031 14/12 A2985 390 86 400 350/04 RMK AO2
63870K0J4 0J420160402042010004/02/16 04:20:31  5-MIN K0J4 020920Z AUTO VRB04KT 10SM OVC031 14/12 A2985 380 86 400 VRB/04 RMK AO2
63870K0J4 0J420160402042510004/02/16 04:25:31  5-MIN K0J4 020925Z AUTO 35004KT 10SM OVC031 14/12 A2985 380 86 400 350/04 RMK AO2
63870K0J4 0J420160402043010004/02/16 04:30:31  5-MIN K0J4 020930Z AUTO 34004KT 10SM OVC031 14/12 A2985 380 86 400 340/04 RMK AO2
63870K0J4 0J420160402043510004/02/16 04:35:31  5-MIN K0J4 020935Z AUTO VRB04KT 10SM OVC031 14/12 A2986 380 86 400 VRB/04 RMK AO2
63870K0J4 0J420160402044010004/02/16 04:40:31  5-MIN K0J4 020940Z AUTO VRB06KT 10SM OVC031 14/12 A2986 370 86 400 VRB/06 RMK AO2
63870K0J4 0J420160402044510004/02/16 04:45:31  5-MIN K0J4 020945Z AUTO VRB03KT 10SM OVC033 14/12 A2986 370 86 400 VRB/03 RMK AO2
63870K0J4 0J420160402045010204/02/16 04:50:31  5-MIN K0J4 020950Z AUTO VRB04KT 10SM OVC033 14/12 A2987 360 90 400 VRB/04 RMK AO2 $
63870K0J4 0J420160402045511904/02/16 04:55:31  5-MIN K0J4 020955Z AUTO 35004KT 10SM OVC033 14/12 A2987 360 90 400 350/04 RMK AO2 SLP112 T01390122 $
63870K0J4 0J420160402050010204/02/16 05:00:31  5-MIN K0J4 021000Z AUTO 35005KT 10SM OVC035 14/12 A2987 360 90 400 350/05 RMK AO2 $
63870K0J4 0J420160402050510904/02/16 05:05:31  5-MIN K0J4 021005Z AUTO VRB05KT 10SM BKN037 OVC055 14/12 A2987 360 90 400 VRB/05 RMK AO2 $
63870K0J4 0J420160402051010904/02/16 05:10:31  5-MIN K0J4 021010Z AUTO VRB05KT 10SM BKN037 OVC055 14/12 A2987 360 86 400 VRB/05 RMK AO2 $
63870K0J4 0J420160402051510904/02/16 05:15:31  5-MIN K0J4 021015Z AUTO 35008KT 10SM BKN037 OVC050 14/12 A2987 360 86 400 350/08 RMK AO2 $
63870K0J4 0J420160402052010904/02/16 05:20:31  5-MIN K0J4 021020Z AUTO VRB05KT 10SM BKN037 OVC050 14/11 A2988 350 83 300 VRB/05 RMK AO2 $
63870K0J4 0J420160402052510904/02/16 05:25:31  5-MIN K0J4 021025Z AUTO VRB06KT 10SM BKN039 OVC050 14/11 A2988 350 83 300 VRB/06 RMK AO2 $
63870K0J4 0J420160402053010904/02/16 05:30:31  5-MIN K0J4 021030Z AUTO 34006KT 10SM BKN039 OVC050 14/11 A2988 350 80 300 340/06 RMK AO2 $
63870K0J4 0J420160402053510904/02/16 05:35:31  5-MIN K0J4 021035Z AUTO VRB06KT 10SM BKN039 OVC050 14/11 A2988 350 83 300 VRB/06 RMK AO2 $
63870K0J4 0J420160402054010904/02/16 05:40:31  5-MIN K0J4 021040Z AUTO VRB06KT 10SM SCT039 BKN050 13/11 A2988 350 83 300 VRB/06 RMK AO2 $
63870K0J4 0J420160402054510904/02/16 05:45:31  5-MIN K0J4 021045Z AUTO 35006KT 10SM SCT039 BKN050 13/11 A2989 350 83 300 350/06 RMK AO2 $
63870K0J4 0J420160402055010904/02/16 05:50:31  5-MIN K0J4 021050Z AUTO VRB05KT 10SM SCT039 BKN050 13/11 A2989 340 83 300 VRB/05 RMK AO2 $
63870K0J4 0J420160402055512604/02/16 05:55:31  5-MIN K0J4 021055Z AUTO VRB06KT 10SM FEW039 SCT050 13/10 A2990 340 80 300 VRB/06 RMK AO2 SLP121 T01330100 $
63870K0J4 0J420160402060012504/02/16 06:00:31  5-MIN K0J4 021100Z AUTO 34007KT 310V020 10SM FEW037 SCT050 13/10 A2990 330 80 300 340/07 310V020 RMK AO2 $
63870K0J4 0J420160402060510204/02/16 06:05:31  5-MIN K0J4 021105Z AUTO 35007KT 10SM FEW037 13/10 A2990 340 83 200 350/07 RMK AO2 $
63870K0J4 0J420160402061010204/02/16 06:10:31  5-MIN K0J4 021110Z AUTO 35007KT 10SM FEW037 13/09 A2990 340 80 200 350/07 RMK AO2 $
63870K0J4 0J420160402061510204/02/16 06:15:31  5-MIN K0J4 021115Z AUTO 36006KT 10SM FEW037 13/09 A2990 340 80 200 360/06 RMK AO2 $
63870K0J4 0J420160402062010204/02/16 06:20:31  5-MIN K0J4 021120Z AUTO 36005KT 10SM FEW037 13/09 A2990 330 77 200 360/05 RMK AO2 $
63870K0J4 0J420160402062510204/02/16 06:25:31  5-MIN K0J4 021125Z AUTO VRB04KT 10SM FEW037 12/09 A2991 330 83 100 VRB/04 RMK AO2 $
63870K0J4 0J420160402063009904/02/16 06:30:31  5-MIN K0J4 021130Z AUTO VRB04KT 10SM CLR 12/09 A2991 320 83 100 VRB/04 RMK AO2 $
63870K0J4 0J420160402063509904/02/16 06:35:31  5-MIN K0J4 021135Z AUTO 35004KT 10SM CLR 12/09 A2991 320 80 100 350/04 RMK AO2 $
63870K0J4 0J420160402064009904/02/16 06:40:31  5-MIN K0J4 021140Z AUTO VRB04KT 10SM CLR 12/09 A2991 330 80 100 VRB/04 RMK AO2 $
63870K0J4 0J420160402064509904/02/16 06:45:31  5-MIN K0J4 021145Z AUTO VRB04KT 10SM CLR 12/09 A2991 330 80 100 VRB/04 RMK AO2 $
63870K0J4 0J420160402065009904/02/16 06:50:31  5-MIN K0J4 021150Z AUTO 35004KT 10SM CLR 12/09 A2991 330 80 100 350/04 RMK AO2 $
63870K0J4 0J420160402065514604/02/16 06:55:31  5-MIN K0J4 021155Z AUTO 34004KT 10SM CLR 12/08 A2991 320 77 100 340/04 RMK AO2 SLP127 60004 70477 T01220083 10161 20122 58009 $
63870K0J4 0J420160402070009704/02/16 07:00:31  5-MIN K0J4 021200Z AUTO VRB03KT 10SM CLR 12/09 A2993 310 83 0 VRB/03 RMK AO2 $
63870K0J4 0J420160402070509704/02/16 07:05:31  5-MIN K0J4 021205Z AUTO 00000KT 10SM CLR 12/08 A2993 310 80 0 000/00 RMK AO2 $
63870K0J4 0J420160402071010604/02/16 07:10:31  5-MIN K0J4 021210Z AUTO VRB04KT 10SM CLR 12/08 A2994 300 77 100 VRB/04 RMK AO2 PRESRR $
63870K0J4 0J420160402071510604/02/16 07:15:31  5-MIN K0J4 021215Z AUTO VRB04KT 10SM CLR 12/08 A2995 290 77 100 VRB/04 RMK AO2 PRESRR $
63870K0J4 0J420160402072010604/02/16 07:20:31  5-MIN K0J4 021220Z AUTO 33004KT 10SM CLR 12/08 A2995 290 77 100 330/04 RMK AO2 PRESRR $
63870K0J4 0J420160402072509904/02/16 07:25:31  5-MIN K0J4 021225Z AUTO VRB05KT 10SM CLR 12/08 A2995 290 77 100 VRB/05 RMK AO2 $
63870K0J4 0J420160402073009904/02/16 07:30:31  5-MIN K0J4 021230Z AUTO VRB04KT 10SM CLR 12/08 A2995 290 77 100 VRB/04 RMK AO2 $
63870K0J4 0J420160402073509904/02/16 07:35:31  5-MIN K0J4 021235Z AUTO VRB03KT 10SM CLR 12/08 A2996 280 77 100 VRB/03 RMK AO2 $
63870K0J4 0J420160402074009704/02/16 07:40:31  5-MIN K0J4 021240Z AUTO VRB04KT 10SM CLR 12/08 A2997 270 77 0 VRB/04 RMK AO2 $
63870K0J4 0J420160402074509704/02/16 07:45:31  5-MIN K0J4 021245Z AUTO VRB04KT 10SM CLR 12/08 A2997 270 77 0 VRB/04 RMK AO2 $
63870K0J4 0J420160402075009904/02/16 07:50:31  5-MIN K0J4 021250Z AUTO VRB05KT 10SM CLR 13/08 A2996 280 74 100 VRB/05 RMK AO2 $
63870K0J4 0J420160402075511604/02/16 07:55:31  5-MIN K0J4 021255Z AUTO VRB04KT 10SM CLR 13/08 A2998 270 74 100 VRB/04 RMK AO2 SLP148 T01280083 $
63870K0J4 0J420160402080009904/02/16 08:00:31  5-MIN K0J4 021300Z AUTO VRB05KT 10SM CLR 13/08 A2998 260 74 100 VRB/05 RMK AO2 $
63870K0J4 0J420160402080509904/02/16 08:05:31  5-MIN K0J4 021305Z AUTO 36005KT 10SM CLR 13/08 A2998 260 71 100 360/05 RMK AO2 $
63870K0J4 0J420160402081009904/02/16 08:10:31  5-MIN K0J4 021310Z AUTO VRB06KT 10SM CLR 13/08 A2998 260 71 100 VRB/06 RMK AO2 $
63870K0J4 0J420160402081509904/02/16 08:15:31  5-MIN K0J4 021315Z AUTO 34007KT 10SM CLR 13/08 A2999 250 69 200 340/07 RMK AO2 $
63870K0J4 0J420160402082009904/02/16 08:20:31  5-MIN K0J4 021320Z AUTO 35006KT 10SM CLR 13/07 A2999 260 69 100 350/06 RMK AO2 $
63870K0J4 0J420160402082509904/02/16 08:25:31  5-MIN K0J4 021325Z AUTO VRB05KT 10SM CLR 13/07 A2999 250 66 200 VRB/05 RMK AO2 $
63870K0J4 0J420160402083011504/02/16 08:30:31  5-MIN K0J4 021330Z AUTO 34008KT 300V040 10SM CLR 13/07 A2999 250 66 200 340/08 300V040 RMK AO2 $
63870K0J4 0J420160402083509904/02/16 08:35:31  5-MIN K0J4 021335Z AUTO 35005KT 10SM CLR 13/07 A3000 250 66 100 350/05 RMK AO2 $
63870K0J4 0J420160402084009904/02/16 08:40:31  5-MIN K0J4 021340Z AUTO 01008KT 10SM CLR 14/07 A2999 250 64 200 010/08 RMK AO2 $
63870K0J4 0J420160402084509904/02/16 08:45:31  5-MIN K0J4 021345Z AUTO VRB05KT 10SM CLR 14/07 A2999 250 64 200 VRB/05 RMK AO2 $
63870K0J4 0J420160402085009904/02/16 08:50:31  5-MIN K0J4 021350Z AUTO VRB06KT 10SM CLR 14/07 A3001 240 61 200 VRB/06 RMK AO2 $
63870K0J4 0J420160402085511604/02/16 08:55:31  5-MIN K0J4 021355Z AUTO VRB06KT 10SM CLR 14/07 A3000 240 64 200 VRB/06 RMK AO2 SLP156 T01390072 $
63870K0J4 0J420160402090009904/02/16 09:00:31  5-MIN K0J4 021400Z AUTO 36006KT 10SM CLR 14/07 A3000 240 61 300 360/06 RMK AO2 $
63870K0J4 0J420160402090509904/02/16 09:05:31  5-MIN K0J4 021405Z AUTO 01009KT 10SM CLR 14/07 A2998 260 61 300 010/09 RMK AO2 $
63870K0J4 0J420160402091009904/02/16 09:10:31  5-MIN K0J4 021410Z AUTO VRB06KT 10SM CLR 14/07 A2998 260 61 300 VRB/06 RMK AO2 $
63870K0J4 0J420160402091509904/02/16 09:15:31  5-MIN K0J4 021415Z AUTO 01012KT 10SM CLR 14/07 A3000 250 61 300 010/12 RMK AO2 $
63870K0J4 0J420160402092012104/02/16 09:20:31  5-MIN K0J4 021420Z AUTO 01010G15KT 330V040 10SM CLR 15/07 A2999 250 57 300 010/10G15 330V040 RMK AO2 $
63870K0J4 0J420160402092510504/02/16 09:25:31  5-MIN K0J4 021425Z AUTO VRB06G15KT 10SM CLR 15/07 A3000 240 57 300 VRB/06G15 RMK AO2 $
63870K0J4 0J420160402093012104/02/16 09:30:31  5-MIN K0J4 021430Z AUTO 36009G19KT 320V020 10SM CLR 15/07 A2999 250 57 300 360/09G19 320V020 RMK AO2 $
63870K0J4 0J420160402093510304/02/16 09:35:31  5-MIN K0J4 021435Z AUTO 34006G19KT 10SM CLR 15/06 A2999 250 55 400 340/06G19 RMK AO2
63870K0J4 0J420160402094010304/02/16 09:40:31  5-MIN K0J4 021440Z AUTO 01011G16KT 10SM CLR 16/07 A2999 250 55 400 010/11G16 RMK AO2
63870K0J4 0J420160402094510304/02/16 09:45:31  5-MIN K0J4 021445Z AUTO 01009G17KT 10SM CLR 15/06 A3000 240 55 300 010/09G17 RMK AO2
63870K0J4 0J420160402095010304/02/16 09:50:31  5-MIN K0J4 021450Z AUTO 01010G17KT 10SM CLR 16/06 A3000 240 53 400 010/10G17 RMK AO2
63870K0J4 0J420160402095512604/02/16 09:55:31  5-MIN K0J4 021455Z AUTO 36010G15KT 10SM CLR 16/06 A3000 240 53 400 360/10G15 RMK AO2 SLP156 T01560061 51027
63870K0J4 0J420160402100010304/02/16 10:00:31  5-MIN K0J4 021500Z AUTO VRB06G15KT 10SM CLR 16/06 A3000 240 53 400 VRB/06G15 RMK AO2
63870K0J4 0J420160402100511904/02/16 10:05:31  5-MIN K0J4 021505Z AUTO 35009G14KT 310V040 10SM CLR 16/06 A3000 240 53 400 350/09G14 310V040 RMK AO2
63870K0J4 0J420160402101011904/02/16 10:10:31  5-MIN K0J4 021510Z AUTO 35008G14KT 300V030 10SM CLR 16/06 A3000 240 53 400 350/08G14 300V030 RMK AO2
63870K0J4 0J420160402101511304/02/16 10:15:31  5-MIN K0J4 021515Z AUTO 34007KT 280V020 10SM CLR 16/06 A3001 240 49 500 340/07 280V020 RMK AO2
63870K0J4 0J420160402102010304/02/16 10:20:31  5-MIN K0J4 021520Z AUTO 34008G15KT 10SM CLR 16/06 A3001 240 49 500 340/08G15 RMK AO2
63870K0J4 0J420160402102510504/02/16 10:25:31  5-MIN K0J4 021525Z AUTO 01011G15KT 10SM CLR 16/05 A3000 240 47 500 010/11G15 RMK AO2 $
63870K0J4 0J420160402103010504/02/16 10:30:31  5-MIN K0J4 021530Z AUTO VRB05G16KT 10SM CLR 16/06 A3001 230 49 500 VRB/05G16 RMK AO2 $
63870K0J4 0J420160402103510504/02/16 10:35:31  5-MIN K0J4 021535Z AUTO 33010G16KT 10SM CLR 16/05 A3001 230 47 500 330/10G16 RMK AO2 $
63870K0J4 0J420160402104010504/02/16 10:40:31  5-MIN K0J4 021540Z AUTO 36008G16KT 10SM CLR 16/05 A3001 230 47 500 360/08G16 RMK AO2 $
63870K0J4 0J420160402104512104/02/16 10:45:31  5-MIN K0J4 021545Z AUTO 34010G16KT 300V360 10SM CLR 17/05 A3000 240 45 500 340/10G16 300V360 RMK AO2 $
63870K0J4 0J420160402105009904/02/16 10:50:31  5-MIN K0J4 021550Z AUTO 35009KT 10SM CLR 16/05 A3001 240 47 500 350/09 RMK AO2 $
63870K0J4 0J420160402105512204/02/16 10:55:31  5-MIN K0J4 021555Z AUTO 35009G16KT 10SM CLR 17/05 A3000 240 45 500 350/09G16 RMK AO2 SLP157 T01670050 $
63870K0J4 0J420160402110010504/02/16 11:00:31  5-MIN K0J4 021600Z AUTO 36009G19KT 10SM CLR 17/04 A3001 230 44 500 360/09G19 RMK AO2 $
63870K0J4 0J420160402110512104/02/16 11:05:31  5-MIN K0J4 021605Z AUTO 34008G19KT 320V020 10SM CLR 17/05 A3001 230 45 500 340/08G19 320V020 RMK AO2 $
63870K0J4 0J420160402111010504/02/16 11:10:31  5-MIN K0J4 021610Z AUTO 36010G16KT 10SM CLR 17/04 A3001 240 42 600 360/10G16 RMK AO2 $
63870K0J4 0J420160402111510504/02/16 11:15:31  5-MIN K0J4 021615Z AUTO 36008G16KT 10SM CLR 17/06 A3000 240 46 600 360/08G16 RMK AO2 $
63870K0J4 0J420160402112009904/02/16 11:20:31  5-MIN K0J4 021620Z AUTO 01009KT 10SM CLR 17/05 A3000 240 44 600 010/09 RMK AO2 $
63870K0J4 0J420160402112510504/02/16 11:25:31  5-MIN K0J4 021625Z AUTO VRB05G14KT 10SM CLR 18/06 A3000 240 44 700 VRB/05G14 RMK AO2 $
63870K0J4 0J420160402113012104/02/16 11:30:31  5-MIN K0J4 021630Z AUTO 35009G15KT 290V040 10SM CLR 18/06 A3000 240 44 700 350/09G15 290V040 RMK AO2 $
63870K0J4 0J420160402113512104/02/16 11:35:31  5-MIN K0J4 021635Z AUTO 34007G15KT 290V360 10SM CLR 18/04 A3000 240 41 700 340/07G15 290V360 RMK AO2 $
63870K0J4 0J420160402114010504/02/16 11:40:31  5-MIN K0J4 021640Z AUTO 35009G17KT 10SM CLR 18/05 A3000 240 42 700 350/09G17 RMK AO2 $
63870K0J4 0J420160402114510504/02/16 11:45:31  5-MIN K0J4 021645Z AUTO 01008G17KT 10SM CLR 17/04 A3000 240 42 600 010/08G17 RMK AO2 $
63870K0J4 0J420160402115010504/02/16 11:50:31  5-MIN K0J4 021650Z AUTO 02012G15KT 10SM CLR 18/06 A3000 240 44 700 020/12G15 RMK AO2 $
63870K0J4 0J420160402115512204/02/16 11:55:31  5-MIN K0J4 021655Z AUTO 01011G15KT 10SM CLR 17/06 A3000 250 46 600 010/11G15 RMK AO2 SLP155 T01720056 $
63870K0J4 0J420160402120010504/02/16 12:00:31  5-MIN K0J4 021700Z AUTO 35009G15KT 10SM CLR 18/06 A3000 240 44 700 350/09G15 RMK AO2 $
63870K0J4 0J420160402120509904/02/16 12:05:31  5-MIN K0J4 021705Z AUTO VRB06KT 10SM CLR 18/06 A3000 250 44 700 VRB/06 RMK AO2 $
63870K0J4 0J420160402121009904/02/16 12:10:31  5-MIN K0J4 021710Z AUTO 01007KT 10SM CLR 18/06 A2999 250 44 700 010/07 RMK AO2 $
63870K0J4 0J420160402121509904/02/16 12:15:31  5-MIN K0J4 021715Z AUTO VRB05KT 10SM CLR 18/06 A3000 240 44 700 VRB/05 RMK AO2 $
63870K0J4 0J420160402122010504/02/16 12:20:31  5-MIN K0J4 021720Z AUTO 34009G14KT 10SM CLR 19/06 A3001 240 43 800 340/09G14 RMK AO2 $
63870K0J4 0J420160402122510504/02/16 12:25:31  5-MIN K0J4 021725Z AUTO VRB05G14KT 10SM CLR 18/06 A3001 240 42 700 VRB/05G14 RMK AO2 $
63870K0J4 0J420160402123011504/02/16 12:30:31  5-MIN K0J4 021730Z AUTO 34008KT 270V110 10SM CLR 18/06 A3001 240 42 700 340/08 270V110 RMK AO2 $
63870K0J4 0J420160402123512104/02/16 12:35:31  5-MIN K0J4 021735Z AUTO 32008G16KT 290V350 10SM CLR 18/04 A3000 240 39 700 320/08G16 290V350 RMK AO2 $
63870K0J4 0J420160402124010504/02/16 12:40:31  5-MIN K0J4 021740Z AUTO 35008G16KT 10SM CLR 18/04 A3000 240 39 700 350/08G16 RMK AO2 $
63870K0J4 0J420160402124510504/02/16 12:45:31  5-MIN K0J4 021745Z AUTO VRB06G14KT 10SM CLR 18/04 A3000 240 39 700 VRB/06G14 RMK AO2 $
63870K0J4 0J420160402125010504/02/16 12:50:31  5-MIN K0J4 021750Z AUTO 32004G14KT 10SM CLR 18/04 A3000 240 39 700 320/04G14 RMK AO2 $
63870K0J4 0J420160402125515604/02/16 12:55:31  5-MIN K0J4 021755Z AUTO 36007G14KT 300V040 10SM CLR 19/04 A3000 240 38 800 360/07G14 300V040 RMK AO2 SLP156 T01890044 10189 20117 50026 $
63870K0J4 0J420160402130011504/02/16 13:00:31  5-MIN K0J4 021800Z AUTO 35008KT 300V010 10SM CLR 18/04 A3000 240 38 700 350/08 300V010 RMK AO2 $
63870K0J4 0J420160402130511504/02/16 13:05:31  5-MIN K0J4 021805Z AUTO 36007KT 320V030 10SM CLR 18/03 A3000 250 36 700 360/07 320V030 RMK AO2 $
63870K0J4 0J420160402131009904/02/16 13:10:31  5-MIN K0J4 021810Z AUTO 33008KT 10SM CLR 19/03 A3000 250 35 800 330/08 RMK AO2 $
63870K0J4 0J420160402131512104/02/16 13:15:31  5-MIN K0J4 021815Z AUTO 32007G14KT 300V360 10SM CLR 19/03 A3000 250 34 800 320/07G14 300V360 RMK AO2 $
63870K0J4 0J420160402132011504/02/16 13:20:31  5-MIN K0J4 021820Z AUTO 36007KT 320V030 10SM CLR 19/04 A3000 250 36 800 360/07 320V030 RMK AO2 $
63870K0J4 0J420160402132510504/02/16 13:25:31  5-MIN K0J4 021825Z AUTO 36007G14KT 10SM CLR 19/03 A2999 250 35 800 360/07G14 RMK AO2 $
63870K0J4 0J420160402133010504/02/16 13:30:31  5-MIN K0J4 021830Z AUTO 32007G14KT 10SM CLR 19/04 A3000 250 38 800 320/07G14 RMK AO2 $
63870K0J4 0J420160402133510504/02/16 13:35:31  5-MIN K0J4 021835Z AUTO VRB04G15KT 10SM CLR 19/04 A2999 250 36 800 VRB/04G15 RMK AO2 $
63870K0J4 0J420160402134010504/02/16 13:40:31  5-MIN K0J4 021840Z AUTO VRB06G15KT 10SM CLR 19/04 A2999 250 35 900 VRB/06G15 RMK AO2 $
63870K0J4 0J420160402134511504/02/16 13:45:31  5-MIN K0J4 021845Z AUTO 34007KT 290V030 10SM CLR 19/04 A2999 250 35 900 340/07 290V030 RMK AO2 $
63870K0J4 0J420160402135009904/02/16 13:50:31  5-MIN K0J4 021850Z AUTO 35006KT 10SM CLR 19/04 A2999 250 37 900 350/06 RMK AO2 $
63870K0J4 0J420160402135511604/02/16 13:55:31  5-MIN K0J4 021855Z AUTO VRB06KT 10SM CLR 19/04 A2999 260 37 900 VRB/06 RMK AO2 SLP151 T01940044 $
63870K0J4 0J420160402140009904/02/16 14:00:31  5-MIN K0J4 021900Z AUTO VRB06KT 10SM CLR 19/04 A2999 260 35 900 VRB/06 RMK AO2 $
63870K0J4 0J420160402140512104/02/16 14:05:31  5-MIN K0J4 021905Z AUTO 32009G16KT 290V350 10SM CLR 19/03 A2999 260 34 900 320/09G16 290V350 RMK AO2 $
63870K0J4 0J420160402141010504/02/16 14:10:31  5-MIN K0J4 021910Z AUTO VRB03G16KT 10SM CLR 19/04 A2998 260 35 900 VRB/03G16 RMK AO2 $
63870K0J4 0J420160402141510504/02/16 14:15:31  5-MIN K0J4 021915Z AUTO VRB06G15KT 10SM CLR 19/04 A2998 260 35 900 VRB/06G15 RMK AO2 $
63870K0J4 0J420160402142010504/02/16 14:20:31  5-MIN K0J4 021920Z AUTO VRB06G15KT 10SM CLR 20/04 A2998 260 34 900 VRB/06G15 RMK AO2 $
63870K0J4 0J420160402142510604/02/16 14:25:31  5-MIN K0J4 021925Z AUTO VRB06G15KT 10SM CLR 20/04 A2998 260 35 1000 VRB/06G15 RMK AO2 $
63870K0J4 0J420160402143012204/02/16 14:30:31  5-MIN K0J4 021930Z AUTO 34008G15KT 280V010 10SM CLR 20/04 A2998 270 34 1000 340/08G15 280V010 RMK AO2 $
63870K0J4 0J420160402143510604/02/16 14:35:31  5-MIN K0J4 021935Z AUTO VRB06G18KT 10SM CLR 20/03 A2997 270 31 1000 VRB/06G18 RMK AO2 $
63870K0J4 0J420160402144010604/02/16 14:40:31  5-MIN K0J4 021940Z AUTO VRB03G18KT 10SM CLR 20/03 A2997 270 33 1000 VRB/03G18 RMK AO2 $
63870K0J4 0J420160402144510004/02/16 14:45:31  5-MIN K0J4 021945Z AUTO VRB06KT 10SM CLR 21/04 A2997 270 33 1000 VRB/06 RMK AO2 $
63870K0J4 0J420160402145010004/02/16 14:50:31  5-MIN K0J4 021950Z AUTO VRB05KT 10SM CLR 20/03 A2997 270 31 1000 VRB/05 RMK AO2 $
63870K0J4 0J420160402145512304/02/16 14:55:31  5-MIN K0J4 021955Z AUTO 36010G16KT 10SM CLR 20/03 A2997 270 31 1000 360/10G16 RMK AO2 SLP145 T02000028 $
63870K0J4 0J420160402150012204/02/16 15:00:31  5-MIN K0J4 022000Z AUTO 34007G17KT 290V020 10SM CLR 20/03 A2997 270 31 1000 340/07G17 290V020 RMK AO2 $
63870K0J4 0J420160402150510604/02/16 15:05:31  5-MIN K0J4 022005Z AUTO 01006G17KT 10SM CLR 21/03 A2996 280 32 1000 010/06G17 RMK AO2 $
63870K0J4 0J420160402151012204/02/16 15:10:31  5-MIN K0J4 022010Z AUTO 36009G16KT 320V030 10SM CLR 21/03 A2996 280 32 1000 360/09G16 320V030 RMK AO2 $
63870K0J4 0J420160402151510604/02/16 15:15:31  5-MIN K0J4 022015Z AUTO 36006G18KT 10SM CLR 20/03 A2996 280 31 1000 360/06G18 RMK AO2 $
63870K0J4 0J420160402152012204/02/16 15:20:31  5-MIN K0J4 022020Z AUTO 31007G18KT 250V010 10SM CLR 20/03 A2996 280 31 1000 310/07G18 250V010 RMK AO2 $
63870K0J4 0J420160402152510604/02/16 15:25:31  5-MIN K0J4 022025Z AUTO VRB04G15KT 10SM CLR 21/03 A2996 280 30 1000 VRB/04G15 RMK AO2 $
63870K0J4 0J420160402153011604/02/16 15:30:31  5-MIN K0J4 022030Z AUTO 32007KT 250V020 10SM CLR 21/03 A2996 280 32 1000 320/07 250V020 RMK AO2 $
63870K0J4 0J420160402153511604/02/16 15:35:31  5-MIN K0J4 022035Z AUTO 34007KT 300V020 10SM CLR 21/03 A2996 280 30 1000 340/07 300V020 RMK AO2 $
63870K0J4 0J420160402154010604/02/16 15:40:31  5-MIN K0J4 022040Z AUTO 35008G14KT 10SM CLR 21/03 A2996 280 30 1000 350/08G14 RMK AO2 $
63870K0J4 0J420160402154512204/02/16 15:45:31  5-MIN K0J4 022045Z AUTO 34008G14KT 310V010 10SM CLR 20/02 A2995 280 30 1000 340/08G14 310V010 RMK AO2 $
63870K0J4 0J420160402155011604/02/16 15:50:31  5-MIN K0J4 022050Z AUTO 34008KT 310V020 10SM CLR 21/03 A2995 290 30 1000 340/08 310V020 RMK AO2 $
63870K0J4 0J420160402155513904/02/16 15:55:31  5-MIN K0J4 022055Z AUTO 34008KT 300V020 10SM CLR 21/03 A2996 280 30 1000 340/08 300V020 RMK AO2 SLP141 T02060028 50001 $
63870K0J4 0J420160402160010004/02/16 16:00:31  5-MIN K0J4 022100Z AUTO VRB06KT 10SM CLR 21/03 A2996 280 30 1100 VRB/06 RMK AO2 $
63870K0J4 0J420160402160510604/02/16 16:05:31  5-MIN K0J4 022105Z AUTO 32009G18KT 10SM CLR 21/02 A2995 280 29 1000 320/09G18 RMK AO2 $
63870K0J4 0J420160402161012204/02/16 16:10:31  5-MIN K0J4 022110Z AUTO 33007G18KT 310V010 10SM CLR 21/02 A2995 290 29 1000 330/07G18 310V010 RMK AO2 $
63870K0J4 0J420160402161510004/02/16 16:15:31  5-MIN K0J4 022115Z AUTO VRB06KT 10SM CLR 21/03 A2995 290 30 1000 VRB/06 RMK AO2 $
63870K0J4 0J420160402162011604/02/16 16:20:31  5-MIN K0J4 022120Z AUTO 33008KT 300V360 10SM CLR 21/03 A2995 290 32 1000 330/08 300V360 RMK AO2 $
63870K0J4 0J420160402162510004/02/16 16:25:31  5-MIN K0J4 022125Z AUTO VRB05KT 10SM CLR 20/03 A2995 290 31 1000 VRB/05 RMK AO2 $
63870K0J4 0J420160402163010004/02/16 16:30:31  5-MIN K0J4 022130Z AUTO VRB06KT 10SM CLR 21/03 A2995 290 32 1000 VRB/06 RMK AO2 $
63870K0J4 0J420160402163510004/02/16 16:35:31  5-MIN K0J4 022135Z AUTO VRB06KT 10SM CLR 21/03 A2995 280 30 1000 VRB/06 RMK AO2 $
63870K0J4 0J420160402164011604/02/16 16:40:31  5-MIN K0J4 022140Z AUTO 32007KT 250V360 10SM CLR 21/03 A2996 280 30 1000 320/07 250V360 RMK AO2 $
63870K0J4 0J420160402164512204/02/16 16:45:31  5-MIN K0J4 022145Z AUTO 35009G15KT 320V030 10SM CLR 20/01 A2996 280 28 1000 350/09G15 320V030 RMK AO2 $
63870K0J4 0J420160402165010604/02/16 16:50:31  5-MIN K0J4 022150Z AUTO VRB05G15KT 10SM CLR 21/02 A2996 280 28 1000 VRB/05G15 RMK AO2 $
63870K0J4 0J420160402165512304/02/16 16:55:31  5-MIN K0J4 022155Z AUTO VRB06G15KT 10SM CLR 21/02 A2996 280 28 1000 VRB/06G15 RMK AO2 SLP142 T02060017 $
63870K0J4 0J420160402170010604/02/16 17:00:31  5-MIN K0J4 022200Z AUTO VRB04G15KT 10SM CLR 21/02 A2996 280 29 1000 VRB/04G15 RMK AO2 $
63870K0J4 0J420160402170510004/02/16 17:05:31  5-MIN K0J4 022205Z AUTO 34009KT 10SM CLR 21/02 A2996 280 29 1000 340/09 RMK AO2 $
63870K0J4 0J420160402171010004/02/16 17:10:31  5-MIN K0J4 022210Z AUTO 34007KT 10SM CLR 20/02 A2996 280 29 1000 340/07 RMK AO2 $
63870K0J4 0J420160402171510004/02/16 17:15:31  5-MIN K0J4 022215Z AUTO VRB05KT 10SM CLR 20/02 A2996 280 30 1000 VRB/05 RMK AO2 $
63870K0J4 0J420160402172010004/02/16 17:20:31  5-MIN K0J4 022220Z AUTO 34009KT 10SM CLR 20/02 A2996 280 29 1000 340/09 RMK AO2 $
63870K0J4 0J420160402172510004/02/16 17:25:31  5-MIN K0J4 022225Z AUTO VRB06KT 10SM CLR 20/02 A2996 280 29 1000 VRB/06 RMK AO2 $
63870K0J4 0J420160402173010604/02/16 17:30:31  5-MIN K0J4 022230Z AUTO 01008G16KT 10SM CLR 20/02 A2997 270 29 1000 010/08G16 RMK AO2 $
63870K0J4 0J420160402173510604/02/16 17:35:31  5-MIN K0J4 022235Z AUTO VRB04G16KT 10SM CLR 20/02 A2997 270 29 1000 VRB/04G16 RMK AO2 $
63870K0J4 0J420160402174010004/02/16 17:40:31  5-MIN K0J4 022240Z AUTO VRB04KT 10SM CLR 20/02 A2997 270 29 1000 VRB/04 RMK AO2 $
63870K0J4 0J420160402174510004/02/16 17:45:31  5-MIN K0J4 022245Z AUTO VRB04KT 10SM CLR 20/02 A2997 270 30 1000 VRB/04 RMK AO2 $
63870K0J4 0J420160402175009904/02/16 17:50:31  5-MIN K0J4 022250Z AUTO VRB06KT 10SM CLR 19/01 A2997 270 29 900 VRB/06 RMK AO2 $
63870K0J4 0J420160402175511604/02/16 17:55:31  5-MIN K0J4 022255Z AUTO VRB05KT 10SM CLR 19/01 A2997 270 28 900 VRB/05 RMK AO2 SLP147 T01940006 $
63870K0J4 0J420160402180009904/02/16 18:00:31  5-MIN K0J4 022300Z AUTO VRB03KT 10SM CLR 19/00 A2998 260 27 900 VRB/03 RMK AO2 $
63870K0J4 0J420160402180509904/02/16 18:05:31  5-MIN K0J4 022305Z AUTO 33005KT 10SM CLR 19/00 A2998 260 28 800 330/05 RMK AO2 $
63870K0J4 0J420160402181009904/02/16 18:10:31  5-MIN K0J4 022310Z AUTO VRB06KT 10SM CLR 19/00 A2998 260 28 800 VRB/06 RMK AO2 $
63870K0J4 0J420160402181509904/02/16 18:15:31  5-MIN K0J4 022315Z AUTO VRB03KT 10SM CLR 18/00 A2998 260 29 800 VRB/03 RMK AO2 $
63870K0J4 0J420160402182007304/02/16 18:20:31  5-MIN K0J4 022320Z AUTO 34006KT M M M 340/06 RMK AO2 $
63870K0J4 0J420160402182509004/02/16 18:25:31  5-MIN K0J4 022325Z AUTO VRB04KT 18/00 A2998 260 29 700 VRB/04 RMK AO2 $
63870K0J4 0J420160402183009504/02/16 18:30:31  5-MIN K0J4 022330Z AUTO VRB04KT 10SM 18/00 A2999 260 30 700 VRB/04 RMK AO2 $
63870K0J4 0J420160402183509504/02/16 18:35:31  5-MIN K0J4 022335Z AUTO 33005KT 10SM 18/01 A2999 250 31 700 330/05 RMK AO2 $
63870K0J4 0J420160402184009504/02/16 18:40:31  5-MIN K0J4 022340Z AUTO VRB05KT 10SM 18/00 A2999 250 30 700 VRB/05 RMK AO2 $
63870K0J4 0J420160402184509504/02/16 18:45:31  5-MIN K0J4 022345Z AUTO 00000KT 10SM 17/01 A3000 240 32 600 000/00 RMK AO2 $
63870K0J4 0J420160402185009904/02/16 18:50:31  5-MIN K0J4 022350Z AUTO VRB04KT 10SM CLR 17/00 A3000 240 31 600 VRB/04 RMK AO2 $
63870K0J4 0J420160402185512804/02/16 18:55:31  5-MIN K0J4 022355Z AUTO 31003KT 10SM CLR 17/01 A3001 240 33 500 310/03 RMK AO2 SLP159 T01670006 10211 20167 $
63870K0J4 0J420160402190009904/02/16 19:00:31  5-MIN K0J4 030000Z AUTO VRB03KT 10SM CLR 16/01 A3001 230 36 500 VRB/03 RMK AO2 $
63870K0J4 0J420160402190509904/02/16 19:05:31  5-MIN K0J4 030005Z AUTO VRB04KT 10SM CLR 16/01 A3001 230 34 500 VRB/04 RMK AO2 $
63870K0J4 0J420160402191009904/02/16 19:10:31  5-MIN K0J4 030010Z AUTO 33004KT 10SM CLR 16/01 A3001 230 34 500 330/04 RMK AO2 $
63870K0J4 0J420160402191509904/02/16 19:15:31  5-MIN K0J4 030015Z AUTO VRB03KT 10SM CLR 16/01 A3002 230 34 500 VRB/03 RMK AO2 $
63870K0J4 0J420160402192009904/02/16 19:20:31  5-MIN K0J4 030020Z AUTO 33004KT 10SM CLR 16/01 A3002 230 37 400 330/04 RMK AO2 $
63870K0J4 0J420160402192509904/02/16 19:25:31  5-MIN K0J4 030025Z AUTO 00000KT 10SM CLR 16/01 A3002 220 36 400 000/00 RMK AO2 $
63870K0J4 0J420160402193009904/02/16 19:30:31  5-MIN K0J4 030030Z AUTO VRB03KT 10SM CLR 16/01 A3002 220 36 400 VRB/03 RMK AO2 $
63870K0J4 0J420160402193509904/02/16 19:35:31  5-MIN K0J4 030035Z AUTO 35003KT 10SM CLR 15/01 A3003 220 38 300 350/03 RMK AO2 $
63870K0J4 0J420160402194009904/02/16 19:40:31  5-MIN K0J4 030040Z AUTO 35003KT 10SM CLR 15/01 A3003 220 38 300 350/03 RMK AO2 $
63870K0J4 0J420160402194509904/02/16 19:45:31  5-MIN K0J4 030045Z AUTO 00000KT 10SM CLR 14/01 A3003 210 40 200 000/00 RMK AO2 $
63870K0J4 0J420160402195009904/02/16 19:50:31  5-MIN K0J4 030050Z AUTO 00000KT 10SM CLR 14/01 A3003 210 40 200 000/00 RMK AO2 $
63870K0J4 0J420160402195511604/02/16 19:55:31  5-MIN K0J4 030055Z AUTO 33003KT 10SM CLR 14/01 A3004 210 40 200 330/03 RMK AO2 SLP170 T01440011 $
63870K0J4 0J420160402200009904/02/16 20:00:31  5-MIN K0J4 030100Z AUTO VRB03KT 10SM CLR 14/01 A3004 200 38 200 VRB/03 RMK AO2 $
63870K0J4 0J420160402200509904/02/16 20:05:31  5-MIN K0J4 030105Z AUTO VRB03KT 10SM CLR 14/01 A3004 200 40 200 VRB/03 RMK AO2 $
63870K0J4 0J420160402201009904/02/16 20:10:31  5-MIN K0J4 030110Z AUTO 36003KT 10SM CLR 14/01 A3004 200 40 200 360/03 RMK AO2 $
63870K0J4 0J420160402201509904/02/16 20:15:31  5-MIN K0J4 030115Z AUTO 00000KT 10SM CLR 14/01 A3005 200 38 200 000/00 RMK AO2 $
63870K0J4 0J420160402202009904/02/16 20:20:31  5-MIN K0J4 030120Z AUTO 00000KT 10SM CLR 14/01 A3005 200 41 200 000/00 RMK AO2 $
63870K0J4 0J420160402202509904/02/16 20:25:31  5-MIN K0J4 030125Z AUTO 00000KT 10SM CLR 14/02 A3005 200 43 200 000/00 RMK AO2 $
63870K0J4 0J420160402203009904/02/16 20:30:31  5-MIN K0J4 030130Z AUTO 00000KT 10SM CLR 13/02 A3005 200 46 100 000/00 RMK AO2 $
63870K0J4 0J420160402203509704/02/16 20:35:31  5-MIN K0J4 030135Z AUTO 00000KT 10SM CLR 13/02 A3005 190 48 0 000/00 RMK AO2 $
63870K0J4 0J420160402204009704/02/16 20:40:31  5-MIN K0J4 030140Z AUTO 00000KT 10SM CLR 12/03 A3005 190 52 0 000/00 RMK AO2 $
63870K0J4 0J420160402204510004/02/16 20:45:31  5-MIN K0J4 030145Z AUTO 00000KT 10SM CLR 12/03 A3006 190 56 -100 000/00 RMK AO2 $
63870K0J4 0J420160402205010004/02/16 20:50:31  5-MIN K0J4 030150Z AUTO 00000KT 10SM CLR 11/04 A3006 190 63 -100 000/00 RMK AO2 $
63870K0J4 0J420160402205511704/02/16 20:55:31  5-MIN K0J4 030155Z AUTO 00000KT 10SM CLR 12/04 A3006 180 58 -100 000/00 RMK AO2 SLP179 T01170039 $
63870K0J4 0J420160402210010004/02/16 21:00:31  5-MIN K0J4 030200Z AUTO 00000KT 10SM CLR 11/04 A3007 180 63 -200 000/00 RMK AO2 $
63870K0J4 0J420160402210510004/02/16 21:05:31  5-MIN K0J4 030205Z AUTO 00000KT 10SM CLR 11/06 A3007 180 71 -200 000/00 RMK AO2 $
63870K0J4 0J420160402211010004/02/16 21:10:31  5-MIN K0J4 030210Z AUTO 00000KT 10SM CLR 11/06 A3007 180 74 -200 000/00 RMK AO2 $
63870K0J4 0J420160402211510004/02/16 21:15:31  5-MIN K0J4 030215Z AUTO 00000KT 10SM CLR 11/05 A3007 170 68 -200 000/00 RMK AO2 $
63870K0J4 0J420160402212010004/02/16 21:20:31  5-MIN K0J4 030220Z AUTO 00000KT 10SM CLR 11/04 A3007 180 66 -200 000/00 RMK AO2 $
63870K0J4 0J420160402212510004/02/16 21:25:31  5-MIN K0J4 030225Z AUTO 00000KT 10SM CLR 10/06 A3008 170 74 -300 000/00 RMK AO2 $
63870K0J4 0J420160402213010004/02/16 21:30:31  5-MIN K0J4 030230Z AUTO 00000KT 10SM CLR 10/06 A3008 170 74 -300 000/00 RMK AO2 $
63870K0J4 0J420160402213510004/02/16 21:35:31  5-MIN K0J4 030235Z AUTO 00000KT 10SM CLR 10/05 A3008 170 71 -300 000/00 RMK AO2 $
63870K0J4 0J420160402214010004/02/16 21:40:31  5-MIN K0J4 030240Z AUTO 00000KT 10SM CLR 10/05 A3008 170 71 -300 000/00 RMK AO2 $
63870K0J4 0J420160402214510004/02/16 21:45:31  5-MIN K0J4 030245Z AUTO 00000KT 10SM CLR 11/05 A3009 160 68 -200 000/00 RMK AO2 $
63870K0J4 0J420160402215010004/02/16 21:50:31  5-MIN K0J4 030250Z AUTO 00000KT 10SM CLR 10/05 A3009 160 71 -300 000/00 RMK AO2 $
63870K0J4 0J420160402215511704/02/16 21:55:31  5-MIN K0J4 030255Z AUTO 00000KT 10SM CLR 10/05 A3009 160 71 -300 000/00 RMK AO2 SLP187 T01000050 $
63870K0J4 0J420160402220010004/02/16 22:00:31  5-MIN K0J4 030300Z AUTO 00000KT 10SM CLR 11/05 A3009 160 68 -200 000/00 RMK AO2 $
63870K0J4 0J420160402220510004/02/16 22:05:31  5-MIN K0J4 030305Z AUTO 00000KT 10SM CLR 10/06 A3009 160 74 -300 000/00 RMK AO2 $
63870K0J4 0J420160402221010004/02/16 22:10:31  5-MIN K0J4 030310Z AUTO 00000KT 10SM CLR 11/03 A3009 160 61 -200 000/00 RMK AO2 $
63870K0J4 0J420160402221510004/02/16 22:15:31  5-MIN K0J4 030315Z AUTO 00000KT 10SM CLR 11/03 A3009 160 61 -200 000/00 RMK AO2 $
63870K0J4 0J420160402222010004/02/16 22:20:31  5-MIN K0J4 030320Z AUTO 00000KT 10SM CLR 11/03 A3009 160 61 -200 000/00 RMK AO2 $
63870K0J4 0J420160402222510004/02/16 22:25:31  5-MIN K0J4 030325Z AUTO 33003KT 10SM CLR 11/03 A3009 160 56 -200 330/03 RMK AO2 $
63870K0J4 0J420160402223010004/02/16 22:30:31  5-MIN K0J4 030330Z AUTO 00000KT 10SM CLR 11/02 A3010 150 54 -200 000/00 RMK AO2 $
63870K0J4 0J420160402223510004/02/16 22:35:31  5-MIN K0J4 030335Z AUTO 00000KT 10SM CLR 11/02 A3009 160 54 -200 000/00 RMK AO2 $
63870K0J4 0J420160402224010004/02/16 22:40:31  5-MIN K0J4 030340Z AUTO 32003KT 10SM CLR 11/02 A3009 160 54 -200 320/03 RMK AO2 $
63870K0J4 0J420160402224510004/02/16 22:45:31  5-MIN K0J4 030345Z AUTO 00000KT 10SM CLR 11/03 A3010 150 61 -200 000/00 RMK AO2 $
63870K0J4 0J420160402225010004/02/16 22:50:31  5-MIN K0J4 030350Z AUTO 00000KT 10SM CLR 11/03 A3009 160 61 -200 000/00 RMK AO2 $
63870K0J4 0J420160402225511704/02/16 22:55:31  5-MIN K0J4 030355Z AUTO 00000KT 10SM CLR 11/04 A3010 150 63 -300 000/00 RMK AO2 SLP190 T01060039 $
63870K0J4 0J420160402230010004/02/16 23:00:31  5-MIN K0J4 030400Z AUTO 00000KT 10SM CLR 10/03 A3010 150 63 -300 000/00 RMK AO2 $
63870K0J4 0J420160402230510004/02/16 23:05:31  5-MIN K0J4 030405Z AUTO 00000KT 10SM CLR 10/04 A3010 150 65 -300 000/00 RMK AO2 $
63870K0J4 0J420160402231010004/02/16 23:10:31  5-MIN K0J4 030410Z AUTO 00000KT 10SM CLR 10/04 A3010 150 65 -300 000/00 RMK AO2 $
63870K0J4 0J420160402231510004/02/16 23:15:31  5-MIN K0J4 030415Z AUTO 00000KT 10SM CLR 10/03 A3010 150 63 -300 000/00 RMK AO2 $
63870K0J4 0J420160402232010004/02/16 23:20:31  5-MIN K0J4 030420Z AUTO 00000KT 10SM CLR 10/03 A3010 150 63 -300 000/00 RMK AO2 $
63870K0J4 0J420160402232510004/02/16 23:25:31  5-MIN K0J4 030425Z AUTO 00000KT 10SM CLR 10/03 A3010 150 63 -300 000/00 RMK AO2 $
63870K0J4 0J420160402233010004/02/16 23:30:31  5-MIN K0J4 030430Z AUTO 00000KT 10SM CLR 10/03 A3010 150 63 -300 000/00 RMK AO2 $
63870K0J4 0J420160402233510004/02/16 23:35:31  5-MIN K0J4 030435Z AUTO 00000KT 10SM CLR 10/03 A3010 150 60 -300 000/00 RMK AO2 $
63870K0J4 0J420160402234010004/02/16 23:40:31  5-MIN K0J4 030440Z AUTO 00000KT 10SM CLR 10/03 A3010 150 63 -300 000/00 RMK AO2 $
63870K0J4 0J420160402234510004/02/16 23:45:31  5-MIN K0J4 030445Z AUTO 00000KT 10SM CLR 10/03 A3010 150 60 -300 000/00 RMK AO2 $
63870K0J4 0J420160402235010004/02/16 23:50:31  5-MIN K0J4 030450Z AUTO 00000KT 10SM CLR 10/03 A3010 150 60 -300 000/00 RMK AO2 $
63870K0J4 0J420160402235512704/02/16 23:55:31  5-MIN K0J4 030455Z AUTO 00000KT 10SM CLR 09/04 A3010 150 68 -400 000/00 RMK AO2 SLP192 T00940039 402110094 $
63870K0J4 0J420160403000010004/03/16 00:00:31  5-MIN K0J4 030500Z AUTO 00000KT 10SM CLR 09/04 A3010 150 73 -500 000/00 RMK AO2 $
63870K0J4 0J420160403000510004/03/16 00:05:31  5-MIN K0J4 030505Z AUTO 00000KT 10SM CLR 09/04 A3010 150 68 -400 000/00 RMK AO2 $
63870K0J4 0J420160403001010004/03/16 00:10:31  5-MIN K0J4 030510Z AUTO 00000KT 10SM CLR 09/04 A3010 150 71 -500 000/00 RMK AO2 $
63870K0J4 0J420160403001510004/03/16 00:15:31  5-MIN K0J4 030515Z AUTO 00000KT 10SM CLR 09/04 A3010 150 71 -500 000/00 RMK AO2 $
63870K0J4 0J420160403002010004/03/16 00:20:31  5-MIN K0J4 030520Z AUTO VRB03KT 10SM CLR 09/04 A3011 150 68 -400 VRB/03 RMK AO2 $
63870K0J4 0J420160403002510004/03/16 00:25:31  5-MIN K0J4 030525Z AUTO 33003KT 10SM CLR 10/03 A3011 140 60 -300 330/03 RMK AO2 $
63870K0J4 0J420160403003010004/03/16 00:30:31  5-MIN K0J4 030530Z AUTO 00000KT 10SM CLR 09/03 A3011 140 65 -400 000/00 RMK AO2 $
63870K0J4 0J420160403003510004/03/16 00:35:31  5-MIN K0J4 030535Z AUTO 00000KT 10SM CLR 10/03 A3011 140 60 -300 000/00 RMK AO2 $
63870K0J4 0J420160403004010004/03/16 00:40:31  5-MIN K0J4 030540Z AUTO 32003KT 10SM CLR 10/02 A3011 140 58 -300 320/03 RMK AO2 $
63870K0J4 0J420160403004510004/03/16 00:45:31  5-MIN K0J4 030545Z AUTO 00000KT 10SM CLR 10/03 A3011 140 60 -300 000/00 RMK AO2 $
63870K0J4 0J420160403005010004/03/16 00:50:31  5-MIN K0J4 030550Z AUTO 00000KT 10SM CLR 09/03 A3011 140 68 -500 000/00 RMK AO2 $
63870K0J4 0J420160403005513504/03/16 00:55:31  5-MIN K0J4 030555Z AUTO 00000KT 10SM CLR 09/03 A3011 140 68 -500 000/00 RMK AO2 SLP195 T00890033 10167 20089 51028 $
63870K0J4 0J420160403010010004/03/16 01:00:31  5-MIN K0J4 030600Z AUTO 32003KT 10SM CLR 09/03 A3011 140 63 -400 320/03 RMK AO2 $
63870K0J4 0J420160403010510004/03/16 01:05:31  5-MIN K0J4 030605Z AUTO 00000KT 10SM CLR 10/03 A3011 140 60 -300 000/00 RMK AO2 $
63870K0J4 0J420160403011010004/03/16 01:10:31  5-MIN K0J4 030610Z AUTO 00000KT 10SM CLR 09/03 A3011 140 63 -400 000/00 RMK AO2 $
63870K0J4 0J420160403011510004/03/16 01:15:31  5-MIN K0J4 030615Z AUTO 00000KT 10SM CLR 09/03 A3012 140 65 -500 000/00 RMK AO2 $
63870K0J4 0J420160403012010004/03/16 01:20:31  5-MIN K0J4 030620Z AUTO 00000KT 10SM CLR 09/03 A3012 140 68 -500 000/00 RMK AO2 $
63870K0J4 0J420160403012510004/03/16 01:25:31  5-MIN K0J4 030625Z AUTO 00000KT 10SM CLR 09/03 A3012 140 68 -500 000/00 RMK AO2 $
63870K0J4 0J420160403013010004/03/16 01:30:31  5-MIN K0J4 030630Z AUTO 00000KT 10SM CLR 08/04 A3012 130 73 -500 000/00 RMK AO2 $
63870K0J4 0J420160403013510004/03/16 01:35:31  5-MIN K0J4 030635Z AUTO VRB03KT 10SM CLR 08/04 A3012 140 73 -500 VRB/03 RMK AO2 $
63870K0J4 0J420160403014010004/03/16 01:40:31  5-MIN K0J4 030640Z AUTO 34003KT 10SM CLR 09/03 A3012 140 68 -500 340/03 RMK AO2 $
63870K0J4 0J420160403014510004/03/16 01:45:31  5-MIN K0J4 030645Z AUTO 00000KT 10SM CLR 09/03 A3012 140 63 -400 000/00 RMK AO2 $
63870K0J4 0J420160403015010004/03/16 01:50:31  5-MIN K0J4 030650Z AUTO 00000KT 10SM CLR 09/02 A3011 140 60 -400 000/00 RMK AO2 $
63870K0J4 0J420160403015511704/03/16 01:55:31  5-MIN K0J4 030655Z AUTO 34003KT 10SM CLR 09/02 A3011 140 60 -400 340/03 RMK AO2 SLP195 T00940022 $
63870K0J4 0J420160403020010004/03/16 02:00:31  5-MIN K0J4 030700Z AUTO 35004KT 10SM CLR 10/02 A3011 140 58 -300 350/04 RMK AO2 $
63870K0J4 0J420160403020510004/03/16 02:05:31  5-MIN K0J4 030705Z AUTO VRB03KT 10SM CLR 10/02 A3011 140 56 -300 VRB/03 RMK AO2 $
63870K0J4 0J420160403021010004/03/16 02:10:31  5-MIN K0J4 030710Z AUTO VRB03KT 10SM CLR 10/02 A3011 140 58 -300 VRB/03 RMK AO2 $
63870K0J4 0J420160403021510004/03/16 02:15:31  5-MIN K0J4 030715Z AUTO 00000KT 10SM CLR 10/02 A3011 140 58 -300 000/00 RMK AO2 $
63870K0J4 0J420160403022010004/03/16 02:20:31  5-MIN K0J4 030720Z AUTO 00000KT 10SM CLR 10/02 A3011 140 56 -300 000/00 RMK AO2 $
63870K0J4 0J420160403022510004/03/16 02:25:31  5-MIN K0J4 030725Z AUTO VRB03KT 10SM CLR 09/02 A3011 140 60 -400 VRB/03 RMK AO2 $
63870K0J4 0J420160403023010004/03/16 02:30:31  5-MIN K0J4 030730Z AUTO 35003KT 10SM CLR 10/02 A3012 140 56 -300 350/03 RMK AO2 $
63870K0J4 0J420160403023510004/03/16 02:35:31  5-MIN K0J4 030735Z AUTO 33003KT 10SM CLR 10/02 A3012 140 58 -300 330/03 RMK AO2 $
63870K0J4 0J420160403024010004/03/16 02:40:31  5-MIN K0J4 030740Z AUTO 00000KT 10SM CLR 10/02 A3011 140 56 -300 000/00 RMK AO2 $
63870K0J4 0J420160403024510004/03/16 02:45:31  5-MIN K0J4 030745Z AUTO 00000KT 10SM CLR 09/02 A3011 140 60 -400 000/00 RMK AO2 $
63870K0J4 0J420160403025010004/03/16 02:50:31  5-MIN K0J4 030750Z AUTO 00000KT 10SM CLR 09/03 A3011 140 65 -500 000/00 RMK AO2 $
63870K0J4 0J420160403025511704/03/16 02:55:31  5-MIN K0J4 030755Z AUTO 00000KT 10SM CLR 09/03 A3011 140 65 -500 000/00 RMK AO2 SLP194 T00890028 $
63870K0J4 0J420160403030010004/03/16 03:00:31  5-MIN K0J4 030800Z AUTO VRB03KT 10SM CLR 09/02 A3011 140 63 -500 VRB/03 RMK AO2 $
63870K0J4 0J420160403030510004/03/16 03:05:31  5-MIN K0J4 030805Z AUTO 00000KT 10SM CLR 08/03 A3011 140 70 -500 000/00 RMK AO2 $
63870K0J4 0J420160403031010004/03/16 03:10:31  5-MIN K0J4 030810Z AUTO 00000KT 10SM CLR 08/03 A3012 140 70 -500 000/00 RMK AO2 $
63870K0J4 0J420160403031510004/03/16 03:15:31  5-MIN K0J4 030815Z AUTO 00000KT 10SM CLR 08/04 A3012 130 76 -600 000/00 RMK AO2 $
63870K0J4 0J420160403032010004/03/16 03:20:31  5-MIN K0J4 030820Z AUTO 00000KT 10SM CLR 08/04 A3012 130 76 -600 000/00 RMK AO2 $
63870K0J4 0J420160403032510004/03/16 03:25:31  5-MIN K0J4 030825Z AUTO 00000KT 10SM CLR 08/03 A3012 130 73 -600 000/00 RMK AO2 $
63870K0J4 0J420160403033010004/03/16 03:30:31  5-MIN K0J4 030830Z AUTO 00000KT 10SM CLR 08/04 A3012 130 76 -600 000/00 RMK AO2 $
63870K0J4 0J420160403033510004/03/16 03:35:31  5-MIN K0J4 030835Z AUTO 00000KT 10SM CLR 08/03 A3012 130 73 -600 000/00 RMK AO2 $
63870K0J4 0J420160403034010004/03/16 03:40:31  5-MIN K0J4 030840Z AUTO 00000KT 10SM CLR 08/03 A3013 130 73 -600 000/00 RMK AO2 $
63870K0J4 0J420160403034510004/03/16 03:45:31  5-MIN K0J4 030845Z AUTO 00000KT 10SM CLR 07/04 A3013 130 79 -700 000/00 RMK AO2 $
63870K0J4 0J420160403035010004/03/16 03:50:31  5-MIN K0J4 030850Z AUTO 00000KT 10SM CLR 08/04 A3013 130 76 -600 000/00 RMK AO2 $
63870K0J4 0J420160403035512304/03/16 03:55:31  5-MIN K0J4 030855Z AUTO 00000KT 10SM CLR 07/04 A3013 120 79 -700 000/00 RMK AO2 SLP201 T00720039 51007 $
63870K0J4 0J420160403040010004/03/16 04:00:31  5-MIN K0J4 030900Z AUTO 00000KT 10SM CLR 07/04 A3013 120 79 -700 000/00 RMK AO2 $
63870K0J4 0J420160403040510004/03/16 04:05:31  5-MIN K0J4 030905Z AUTO 00000KT 10SM CLR 07/04 A3013 120 86 -800 000/00 RMK AO2 $
63870K0J4 0J420160403041010004/03/16 04:10:31  5-MIN K0J4 030910Z AUTO 00000KT 10SM CLR 07/04 A3013 120 86 -800 000/00 RMK AO2 $
63870K0J4 0J420160403041510004/03/16 04:15:31  5-MIN K0J4 030915Z AUTO 00000KT 10SM CLR 07/04 A3013 120 86 -800 000/00 RMK AO2 $
63870K0J4 0J420160403042010004/03/16 04:20:31  5-MIN K0J4 030920Z AUTO 00000KT 10SM CLR 06/04 A3014 120 89 -800 000/00 RMK AO2 $
63870K0J4 0J420160403042510004/03/16 04:25:31  5-MIN K0J4 030925Z AUTO 00000KT 10SM CLR 06/04 A3014 120 89 -800 000/00 RMK AO2 $
63870K0J4 0J420160403043010004/03/16 04:30:31  5-MIN K0J4 030930Z AUTO 00000KT 10SM CLR 06/04 A3014 120 89 -800 000/00 RMK AO2 $
63870K0J4 0J420160403043510004/03/16 04:35:31  5-MIN K0J4 030935Z AUTO 00000KT 10SM CLR 07/04 A3014 110 82 -800 000/00 RMK AO2 $
63870K0J4 0J420160403044010004/03/16 04:40:31  5-MIN K0J4 030940Z AUTO 00000KT 10SM CLR 07/04 A3014 110 82 -800 000/00 RMK AO2 $
63870K0J4 0J420160403044510004/03/16 04:45:31  5-MIN K0J4 030945Z AUTO 00000KT 10SM CLR 07/04 A3014 110 86 -800 000/00 RMK AO2 $
63870K0J4 0J420160403045010004/03/16 04:50:31  5-MIN K0J4 030950Z AUTO 00000KT 10SM CLR 07/04 A3014 110 86 -800 000/00 RMK AO2 $
63870K0J4 0J420160403045511704/03/16 04:55:31  5-MIN K0J4 030955Z AUTO 00000KT 10SM CLR 07/04 A3014 110 82 -800 000/00 RMK AO2 SLP205 T00670039 $
63870K0J4 0J420160403050010004/03/16 05:00:31  5-MIN K0J4 031000Z AUTO 00000KT 10SM CLR 06/04 A3014 110 86 -800 000/00 RMK AO2 $
63870K0J4 0J420160403050510004/03/16 05:05:31  5-MIN K0J4 031005Z AUTO 00000KT 10SM CLR 06/04 A3014 110 86 -800 000/00 RMK AO2 $
63870K0J4 0J420160403051010004/03/16 05:10:31  5-MIN K0J4 031010Z AUTO 33003KT 10SM CLR 06/04 A3014 110 86 -800 330/03 RMK AO2 $
63870K0J4 0J420160403051510004/03/16 05:15:31  5-MIN K0J4 031015Z AUTO 00000KT 10SM CLR 07/04 A3014 110 82 -800 000/00 RMK AO2 $
63870K0J4 0J420160403052010004/03/16 05:20:31  5-MIN K0J4 031020Z AUTO 00000KT 10SM CLR 07/04 A3014 110 82 -800 000/00 RMK AO2 $
63870K0J4 0J420160403052510004/03/16 05:25:31  5-MIN K0J4 031025Z AUTO 00000KT 10SM CLR 07/04 A3014 110 82 -800 000/00 RMK AO2 $
63870K0J4 0J420160403053010004/03/16 05:30:31  5-MIN K0J4 031030Z AUTO 00000KT 10SM CLR 07/04 A3014 110 82 -800 000/00 RMK AO2 $
63870K0J4 0J420160403053510004/03/16 05:35:31  5-MIN K0J4 031035Z AUTO 00000KT 10SM CLR 06/04 A3014 110 86 -800 000/00 RMK AO2 $
63870K0J4 0J420160403054010004/03/16 05:40:31  5-MIN K0J4 031040Z AUTO 00000KT 10SM CLR 07/04 A3015 110 82 -800 000/00 RMK AO2 $
63870K0J4 0J420160403054510004/03/16 05:45:31  5-MIN K0J4 031045Z AUTO 00000KT 10SM CLR 07/04 A3015 110 82 -800 000/00 RMK AO2 $
63870K0J4 0J420160403055010004/03/16 05:50:31  5-MIN K0J4 031050Z AUTO 00000KT 10SM CLR 06/04 A3015 110 89 -900 000/00 RMK AO2 $
63870K0J4 0J420160403055511704/03/16 05:55:31  5-MIN K0J4 031055Z AUTO 00000KT 10SM CLR 06/04 A3015 100 89 -900 000/00 RMK AO2 SLP208 T00610044 $
63870K0J4 0J420160403060010004/03/16 06:00:31  5-MIN K0J4 031100Z AUTO 00000KT 10SM CLR 06/04 A3015 100 89 -900 000/00 RMK AO2 $
63870K0J4 0J420160403060510004/03/16 06:05:31  5-MIN K0J4 031105Z AUTO 00000KT 10SM CLR 06/04 A3015 100 89 -900 000/00 RMK AO2 $
63870K0J4 0J420160403061010004/03/16 06:10:31  5-MIN K0J4 031110Z AUTO 00000KT 10SM CLR 06/04 A3015 100 89 -900 000/00 RMK AO2 $
63870K0J4 0J420160403061510004/03/16 06:15:31  5-MIN K0J4 031115Z AUTO 00000KT 10SM CLR 06/04 A3015 100 89 -900 000/00 RMK AO2 $
63870K0J4 0J420160403062010004/03/16 06:20:31  5-MIN K0J4 031120Z AUTO 00000KT 10SM CLR 06/04 A3016 100 86 -900 000/00 RMK AO2 $
63870K0J4 0J420160403062510004/03/16 06:25:31  5-MIN K0J4 031125Z AUTO 00000KT 10SM CLR 06/04 A3015 100 86 -900 000/00 RMK AO2 $
63870K0J4 0J420160403063010004/03/16 06:30:31  5-MIN K0J4 031130Z AUTO 00000KT 10SM CLR 06/04 A3015 100 86 -900 000/00 RMK AO2 $
63870K0J4 0J420160403063510004/03/16 06:35:31  5-MIN K0J4 031135Z AUTO 00000KT 10SM CLR 06/04 A3016 100 86 -900 000/00 RMK AO2 $
63870K0J4 0J420160403064010004/03/16 06:40:31  5-MIN K0J4 031140Z AUTO 00000KT 10SM CLR 07/03 A3016 100 79 -800 000/00 RMK AO2 $
63870K0J4 0J420160403064510004/03/16 06:45:31  5-MIN K0J4 031145Z AUTO 00000KT 10SM CLR 07/03 A3016 100 79 -800 000/00 RMK AO2 $
63870K0J4 0J420160403065009904/03/16 06:50:31  5-MIN K0J4 031150Z AUTO 33003KT 10SM CLR 07/04 A3016 90 79 -700 330/03 RMK AO2 $
63870K0J4 0J420160403065513404/03/16 06:55:31  5-MIN K0J4 031155Z AUTO 00000KT 10SM CLR 08/03 A3017 90 73 -700 000/00 RMK AO2 SLP214 T00780033 10100 20061 53006 $
63870K0J4 0J420160403070009904/03/16 07:00:31  5-MIN K0J4 031200Z AUTO 00000KT 10SM CLR 08/04 A3017 90 76 -700 000/00 RMK AO2 $
63870K0J4 0J420160403070509904/03/16 07:05:31  5-MIN K0J4 031205Z AUTO 00000KT 10SM CLR 08/04 A3017 90 73 -600 000/00 RMK AO2 $
63870K0J4 0J420160403071009904/03/16 07:10:31  5-MIN K0J4 031210Z AUTO 00000KT 10SM CLR 08/04 A3017 80 73 -600 000/00 RMK AO2 $
63870K0J4 0J420160403071509904/03/16 07:15:31  5-MIN K0J4 031215Z AUTO 00000KT 10SM CLR 08/04 A3017 80 73 -600 000/00 RMK AO2 $
63870K0J4 0J420160403072009904/03/16 07:20:31  5-MIN K0J4 031220Z AUTO 00000KT 10SM CLR 09/04 A3017 80 71 -500 000/00 RMK AO2 $
63870K0J4 0J420160403072509904/03/16 07:25:31  5-MIN K0J4 031225Z AUTO 00000KT 10SM CLR 09/04 A3017 80 68 -500 000/00 RMK AO2 $
63870K0J4 0J420160403073009904/03/16 07:30:31  5-MIN K0J4 031230Z AUTO VRB03KT 10SM CLR 09/04 A3017 80 68 -500 VRB/03 RMK AO2 $
63870K0J4 0J420160403073509904/03/16 07:35:31  5-MIN K0J4 031235Z AUTO VRB03KT 10SM CLR 09/04 A3017 80 68 -500 VRB/03 RMK AO2 $
63870K0J4 0J420160403074009904/03/16 07:40:31  5-MIN K0J4 031240Z AUTO 00000KT 10SM CLR 10/03 A3018 80 63 -400 000/00 RMK AO2 $
63870K0J4 0J420160403074509904/03/16 07:45:31  5-MIN K0J4 031245Z AUTO 33003KT 10SM CLR 10/03 A3018 80 63 -400 330/03 RMK AO2 $
63870K0J4 0J420160403075009904/03/16 07:50:31  5-MIN K0J4 031250Z AUTO 00000KT 10SM CLR 11/04 A3018 80 63 -300 000/00 RMK AO2 $
63870K0J4 0J420160403075511604/03/16 07:55:31  5-MIN K0J4 031255Z AUTO VRB03KT 10SM CLR 11/04 A3018 80 63 -300 VRB/03 RMK AO2 SLP218 T01060039 $
63870K0J4 0J420160403080009904/03/16 08:00:31  5-MIN K0J4 031300Z AUTO 00000KT 10SM CLR 11/04 A3018 80 61 -300 000/00 RMK AO2 $
63870K0J4 0J420160403080509904/03/16 08:05:31  5-MIN K0J4 031305Z AUTO 00000KT 10SM CLR 11/04 A3018 70 61 -300 000/00 RMK AO2 $
63870K0J4 0J420160403081009904/03/16 08:10:31  5-MIN K0J4 031310Z AUTO VRB03KT 10SM CLR 11/04 A3018 70 61 -300 VRB/03 RMK AO2 $
63870K0J4 0J420160403081509904/03/16 08:15:31  5-MIN K0J4 031315Z AUTO 32004KT 10SM CLR 12/04 A3019 70 58 -200 320/04 RMK AO2 $
63870K0J4 0J420160403082009904/03/16 08:20:31  5-MIN K0J4 031320Z AUTO VRB03KT 10SM CLR 12/04 A3019 70 61 -200 VRB/03 RMK AO2 $
63870K0J4 0J420160403082509904/03/16 08:25:31  5-MIN K0J4 031325Z AUTO 36004KT 10SM CLR 12/04 A3019 70 59 -200 360/04 RMK AO2 $
63870K0J4 0J420160403083009904/03/16 08:30:31  5-MIN K0J4 031330Z AUTO VRB04KT 10SM CLR 13/04 A3019 70 56 -100 VRB/04 RMK AO2 $
63870K0J4 0J420160403083509904/03/16 08:35:31  5-MIN K0J4 031335Z AUTO VRB03KT 10SM CLR 13/04 A3019 70 56 -100 VRB/03 RMK AO2 $
63870K0J4 0J420160403084009604/03/16 08:40:31  5-MIN K0J4 031340Z AUTO VRB05KT 10SM CLR 13/04 A3019 70 54 0 VRB/05 RMK AO2 $
63870K0J4 0J420160403084509604/03/16 08:45:31  5-MIN K0J4 031345Z AUTO VRB04KT 10SM CLR 13/04 A3019 70 54 0 VRB/04 RMK AO2 $
63870K0J4 0J420160403085009604/03/16 08:50:31  5-MIN K0J4 031350Z AUTO 02005KT 10SM CLR 14/04 A3019 60 52 0 020/05 RMK AO2 $
63870K0J4 0J420160403085511904/03/16 08:55:31  5-MIN K0J4 031355Z AUTO 01005G14KT 10SM CLR 14/05 A3020 60 55 0 010/05G14 RMK AO2 SLP224 T01390050 $
63870K0J4 0J420160403090010204/03/16 09:00:31  5-MIN K0J4 031400Z AUTO 01004G14KT 10SM CLR 14/05 A3020 60 53 0 010/04G14 RMK AO2 $
63870K0J4 0J420160403090509604/03/16 09:05:31  5-MIN K0J4 031405Z AUTO 02007KT 10SM CLR 14/04 A3020 60 51 0 020/07 RMK AO2 $
63870K0J4 0J420160403091009604/03/16 09:10:31  5-MIN K0J4 031410Z AUTO 02008KT 10SM CLR 14/04 A3020 60 51 0 020/08 RMK AO2 $
63870K0J4 0J420160403091509604/03/16 09:15:31  5-MIN K0J4 031415Z AUTO 02008KT 10SM CLR 14/04 A3020 60 51 0 020/08 RMK AO2 $
63870K0J4 0J420160403092010404/03/16 09:20:31  5-MIN K0J4 031420Z AUTO 03010G16KT 10SM CLR 15/04 A3020 60 47 100 030/10G16 RMK AO2 $
63870K0J4 0J420160403092510404/03/16 09:25:31  5-MIN K0J4 031425Z AUTO 02010G16KT 10SM CLR 15/04 A3020 60 47 100 020/10G16 RMK AO2 $
63870K0J4 0J420160403093009804/03/16 09:30:31  5-MIN K0J4 031430Z AUTO 03011KT 10SM CLR 15/04 A3020 60 47 100 030/11 RMK AO2 $
63870K0J4 0J420160403093509804/03/16 09:35:31  5-MIN K0J4 031435Z AUTO 04009KT 10SM CLR 16/04 A3020 60 45 200 040/09 RMK AO2 $
63870K0J4 0J420160403094009804/03/16 09:40:31  5-MIN K0J4 031440Z AUTO 02010KT 10SM CLR 16/04 A3020 60 44 200 020/10 RMK AO2 $
63870K0J4 0J420160403094509804/03/16 09:45:31  5-MIN K0J4 031445Z AUTO 02009KT 10SM CLR 16/03 A3020 60 42 200 020/09 RMK AO2 $
63870K0J4 0J420160403095009804/03/16 09:50:31  5-MIN K0J4 031450Z AUTO 01007KT 10SM CLR 17/04 A3020 60 42 300 010/07 RMK AO2 $
63870K0J4 0J420160403095512104/03/16 09:55:31  5-MIN K0J4 031455Z AUTO 03009KT 10SM CLR 17/04 A3020 60 41 400 030/09 RMK AO2 SLP226 T01720039 53013 $
63870K0J4 0J420160403100009804/03/16 10:00:31  5-MIN K0J4 031500Z AUTO 03007KT 10SM CLR 17/03 A3020 50 39 300 030/07 RMK AO2 $
63870K0J4 0J420160403100509804/03/16 10:05:31  5-MIN K0J4 031505Z AUTO 03006KT 10SM CLR 17/03 A3020 60 39 400 030/06 RMK AO2 $
63870K0J4 0J420160403101009804/03/16 10:10:31  5-MIN K0J4 031510Z AUTO 02007KT 10SM CLR 17/03 A3020 60 39 400 020/07 RMK AO2 $
63870K0J4 0J420160403101509804/03/16 10:15:31  5-MIN K0J4 031515Z AUTO 02009KT 10SM CLR 17/03 A3020 60 37 400 020/09 RMK AO2 $
63870K0J4 0J420160403102009804/03/16 10:20:31  5-MIN K0J4 031520Z AUTO 36007KT 10SM CLR 17/03 A3020 60 37 400 360/07 RMK AO2 $
63870K0J4 0J420160403102509804/03/16 10:25:31  5-MIN K0J4 031525Z AUTO 01009KT 10SM CLR 18/03 A3020 50 36 400 010/09 RMK AO2 $
63870K0J4 0J420160403103011404/03/16 10:30:31  5-MIN K0J4 031530Z AUTO 01007KT 340V050 10SM CLR 18/02 A3021 50 35 400 010/07 340V050 RMK AO2 $
63870K0J4 0J420160403103512004/03/16 10:35:31  5-MIN K0J4 031535Z AUTO 04009G14KT 010V070 10SM CLR 18/02 A3021 50 34 500 040/09G14 010V070 RMK AO2 $
63870K0J4 0J420160403104010404/03/16 10:40:31  5-MIN K0J4 031540Z AUTO 04011G16KT 10SM CLR 18/01 A3021 50 31 500 040/11G16 RMK AO2 $
63870K0J4 0J420160403104509804/03/16 10:45:31  5-MIN K0J4 031545Z AUTO 04010KT 10SM CLR 18/01 A3021 50 32 400 040/10 RMK AO2 $
63870K0J4 0J420160403105010404/03/16 10:50:31  5-MIN K0J4 031550Z AUTO 04011G16KT 10SM CLR 18/02 A3021 50 32 500 040/11G16 RMK AO2 $
63870K0J4 0J420160403105512104/03/16 10:55:31  5-MIN K0J4 031555Z AUTO 03007G16KT 10SM CLR 18/02 A3021 50 34 500 030/07G16 RMK AO2 SLP227 T01830022 $
63870K0J4 0J420160403110009804/03/16 11:00:31  5-MIN K0J4 031600Z AUTO 05009KT 10SM CLR 18/02 A3020 60 32 500 050/09 RMK AO2 $
63870K0J4 0J420160403110509804/03/16 11:05:31  5-MIN K0J4 031605Z AUTO 03010KT 10SM CLR 19/02 A3020 60 31 600 030/10 RMK AO2 $
63870K0J4 0J420160403111010404/03/16 11:10:31  5-MIN K0J4 031610Z AUTO 03011G15KT 10SM CLR 19/02 A3020 60 31 600 030/11G15 RMK AO2 $
63870K0J4 0J420160403111510404/03/16 11:15:31  5-MIN K0J4 031615Z AUTO 02009G15KT 10SM CLR 19/02 A3020 60 31 600 020/09G15 RMK AO2 $
63870K0J4 0J420160403112009804/03/16 11:20:31  5-MIN K0J4 031620Z AUTO 03008KT 10SM CLR 19/02 A3020 60 31 600 030/08 RMK AO2 $
63870K0J4 0J420160403112509804/03/16 11:25:31  5-MIN K0J4 031625Z AUTO VRB06KT 10SM CLR 19/03 A3020 60 33 600 VRB/06 RMK AO2 $
63870K0J4 0J420160403113009804/03/16 11:30:31  5-MIN K0J4 031630Z AUTO 04009KT 10SM CLR 19/02 A3020 60 31 600 040/09 RMK AO2 $
63870K0J4 0J420160403113509804/03/16 11:35:31  5-MIN K0J4 031635Z AUTO 03010KT 10SM CLR 19/02 A3019 70 31 600 030/10 RMK AO2 $
63870K0J4 0J420160403114009804/03/16 11:40:31  5-MIN K0J4 031640Z AUTO 02009KT 10SM CLR 19/02 A3019 70 31 600 020/09 RMK AO2 $
63870K0J4 0J420160403114509804/03/16 11:45:31  5-MIN K0J4 031645Z AUTO 02009KT 10SM CLR 19/02 A3019 70 30 600 020/09 RMK AO2 $
63870K0J4 0J420160403115012004/03/16 11:50:31  5-MIN K0J4 031650Z AUTO 32009G14KT 290V360 10SM CLR 20/02 A3018 70 30 700 320/09G14 290V360 RMK AO2 $
63870K0J4 0J420160403115512104/03/16 11:55:31  5-MIN K0J4 031655Z AUTO 01010G15KT 10SM CLR 19/01 A3018 70 29 700 010/10G15 RMK AO2 SLP220 T01940011 $
63870K0J4 0J420160403120010404/03/16 12:00:31  5-MIN K0J4 031700Z AUTO 04010G15KT 10SM CLR 20/02 A3018 80 30 700 040/10G15 RMK AO2 $
63870K0J4 0J420160403120510404/03/16 12:05:31  5-MIN K0J4 031705Z AUTO 02009G14KT 10SM CLR 20/02 A3018 80 29 700 020/09G14 RMK AO2 $
63870K0J4 0J420160403121009804/03/16 12:10:31  5-MIN K0J4 031710Z AUTO VRB06KT 10SM CLR 20/02 A3018 80 29 700 VRB/06 RMK AO2 $
63870K0J4 0J420160403121509804/03/16 12:15:31  5-MIN K0J4 031715Z AUTO VRB04KT 10SM CLR 19/01 A3017 80 28 700 VRB/04 RMK AO2 $
63870K0J4 0J420160403122009804/03/16 12:20:31  5-MIN K0J4 031720Z AUTO VRB05KT 10SM CLR 20/02 A3017 90 29 700 VRB/05 RMK AO2 $
63870K0J4 0J420160403122509804/03/16 12:25:31  5-MIN K0J4 031725Z AUTO VRB05KT 10SM CLR 21/02 A3017 90 29 800 VRB/05 RMK AO2 $
63870K0J4 0J420160403123009804/03/16 12:30:31  5-MIN K0J4 031730Z AUTO 04008KT 10SM CLR 20/02 A3016 90 29 700 040/08 RMK AO2 $
63870K0J4 0J420160403123510404/03/16 12:35:31  5-MIN K0J4 031735Z AUTO 02005G18KT 10SM CLR 21/02 A3016 90 29 800 020/05G18 RMK AO2 $
63870K0J4 0J420160403124010504/03/16 12:40:31  5-MIN K0J4 031740Z AUTO 04009G18KT 10SM CLR 21/03 A3016 100 32 800 040/09G18 RMK AO2 $
63870K0J4 0J420160403124510504/03/16 12:45:31  5-MIN K0J4 031745Z AUTO VRB05G14KT 10SM CLR 21/02 A3016 100 28 800 VRB/05G14 RMK AO2 $
63870K0J4 0J420160403125010504/03/16 12:50:31  5-MIN K0J4 031750Z AUTO 01006G14KT 10SM CLR 21/02 A3016 100 28 800 010/06G14 RMK AO2 $
63870K0J4 0J420160403125513404/03/16 12:55:31  5-MIN K0J4 031755Z AUTO 03006KT 10SM CLR 21/02 A3016 100 28 800 030/06 RMK AO2 SLP209 T02060017 10206 20078 51012 $
63870K0J4 0J420160403130009904/03/16 13:00:31  5-MIN K0J4 031800Z AUTO 03009KT 10SM CLR 21/03 A3016 100 29 900 030/09 RMK AO2 $
63870K0J4 0J420160403130509904/03/16 13:05:31  5-MIN K0J4 031805Z AUTO 03006KT 10SM CLR 21/02 A3015 100 29 800 030/06 RMK AO2 $
63870K0J4 0J420160403131011504/03/16 13:10:31  5-MIN K0J4 031810Z AUTO 02009KT 350V050 10SM CLR 21/03 A3015 100 29 900 020/09 350V050 RMK AO2 $
63870K0J4 0J420160403131509904/03/16 13:15:31  5-MIN K0J4 031815Z AUTO VRB05KT 10SM CLR 21/03 A3015 100 29 900 VRB/05 RMK AO2 $
63870K0J4 0J420160403132009904/03/16 13:20:31  5-MIN K0J4 031820Z AUTO 35009KT 10SM CLR 21/01 A3015 110 26 900 350/09 RMK AO2 $
63870K0J4 0J420160403132509904/03/16 13:25:31  5-MIN K0J4 031825Z AUTO 03003KT 10SM CLR 21/01 A3014 110 26 900 030/03 RMK AO2 $
63870K0J4 0J420160403133010004/03/16 13:30:31  5-MIN K0J4 031830Z AUTO 36007KT 10SM CLR 22/01 A3014 110 25 1000 360/07 RMK AO2 $
63870K0J4 0J420160403133509904/03/16 13:35:31  5-MIN K0J4 031835Z AUTO 36005KT 10SM CLR 21/01 A3014 110 26 900 360/05 RMK AO2 $
63870K0J4 0J420160403134010004/03/16 13:40:31  5-MIN K0J4 031840Z AUTO 35005KT 10SM CLR 22/02 A3014 110 26 1000 350/05 RMK AO2 $
63870K0J4 0J420160403134510004/03/16 13:45:31  5-MIN K0J4 031845Z AUTO 02004KT 10SM CLR 22/01 A3014 120 25 1000 020/04 RMK AO2 $
63870K0J4 0J420160403135009904/03/16 13:50:31  5-MIN K0J4 031850Z AUTO VRB03KT 10SM CLR 21/01 A3013 120 25 900 VRB/03 RMK AO2 $
63870K0J4 0J420160403135511704/03/16 13:55:31  5-MIN K0J4 031855Z AUTO 01008KT 10SM CLR 22/02 A3013 120 26 1000 010/08 RMK AO2 SLP202 T02170017 $
63870K0J4 0J420160403140010004/03/16 14:00:31  5-MIN K0J4 031900Z AUTO 36005KT 10SM CLR 22/02 A3013 120 26 1000 360/05 RMK AO2 $
63870K0J4 0J420160403140510004/03/16 14:05:31  5-MIN K0J4 031905Z AUTO 00000KT 10SM CLR 22/02 A3013 120 26 1000 000/00 RMK AO2 $
63870K0J4 0J420160403141010004/03/16 14:10:31  5-MIN K0J4 031910Z AUTO VRB05KT 10SM CLR 22/02 A3013 120 26 1000 VRB/05 RMK AO2 $
63870K0J4 0J420160403141510004/03/16 14:15:31  5-MIN K0J4 031915Z AUTO VRB04KT 10SM CLR 22/02 A3013 130 26 1000 VRB/04 RMK AO2 $
63870K0J4 0J420160403142010004/03/16 14:20:31  5-MIN K0J4 031920Z AUTO VRB03KT 10SM CLR 22/02 A3012 130 26 1000 VRB/03 RMK AO2 $
63870K0J4 0J420160403142510004/03/16 14:25:31  5-MIN K0J4 031925Z AUTO 00000KT 10SM CLR 22/02 A3012 130 27 1000 000/00 RMK AO2 $
63870K0J4 0J420160403143010004/03/16 14:30:31  5-MIN K0J4 031930Z AUTO 04006KT 10SM CLR 22/02 A3012 130 26 1000 040/06 RMK AO2 $
63870K0J4 0J420160403143510004/03/16 14:35:31  5-MIN K0J4 031935Z AUTO VRB04KT 10SM CLR 22/02 A3012 130 25 1000 VRB/04 RMK AO2 $
63870K0J4 0J420160403144010004/03/16 14:40:31  5-MIN K0J4 031940Z AUTO VRB03KT 10SM CLR 23/02 A3011 140 24 1100 VRB/03 RMK AO2 $
63870K0J4 0J420160403144510004/03/16 14:45:31  5-MIN K0J4 031945Z AUTO VRB03KT 10SM CLR 23/01 A3011 140 23 1100 VRB/03 RMK AO2 $
63870K0J4 0J420160403145010004/03/16 14:50:31  5-MIN K0J4 031950Z AUTO 36005KT 10SM CLR 23/02 A3011 140 25 1100 360/05 RMK AO2 $
63870K0J4 0J420160403145511704/03/16 14:55:31  5-MIN K0J4 031955Z AUTO VRB03KT 10SM CLR 22/01 A3011 140 24 1100 VRB/03 RMK AO2 SLP193 T02220011 $
63870K0J4 0J420160403150010004/03/16 15:00:31  5-MIN K0J4 032000Z AUTO 05005KT 10SM CLR 22/02 A3011 140 25 1100 050/05 RMK AO2 $
63870K0J4 0J420160403150510004/03/16 15:05:31  5-MIN K0J4 032005Z AUTO VRB04KT 10SM CLR 23/02 A3011 140 25 1100 VRB/04 RMK AO2 $
63870K0J4 0J420160403151010004/03/16 15:10:31  5-MIN K0J4 032010Z AUTO 32006KT 10SM CLR 23/02 A3011 140 24 1100 320/06 RMK AO2 $
63870K0J4 0J420160403151510004/03/16 15:15:31  5-MIN K0J4 032015Z AUTO VRB03KT 10SM CLR 22/01 A3011 140 23 1100 VRB/03 RMK AO2 $
63870K0J4 0J420160403152010004/03/16 15:20:31  5-MIN K0J4 032020Z AUTO VRB03KT 10SM CLR 23/02 A3011 140 25 1100 VRB/03 RMK AO2 $
63870K0J4 0J420160403152510004/03/16 15:25:31  5-MIN K0J4 032025Z AUTO VRB06KT 10SM CLR 23/02 A3011 150 24 1100 VRB/06 RMK AO2 $
63870K0J4 0J420160403153010004/03/16 15:30:31  5-MIN K0J4 032030Z AUTO VRB03KT 10SM CLR 23/00 A3011 140 22 1100 VRB/03 RMK AO2 $
63870K0J4 0J420160403153510004/03/16 15:35:31  5-MIN K0J4 032035Z AUTO 01007KT 10SM CLR 23/01 A3011 150 23 1100 010/07 RMK AO2 $
63870K0J4 0J420160403154010004/03/16 15:40:31  5-MIN K0J4 032040Z AUTO 02006KT 10SM CLR 23/01 A3011 150 23 1100 020/06 RMK AO2 $
63870K0J4 0J420160403154510004/03/16 15:45:31  5-MIN K0J4 032045Z AUTO VRB04KT 10SM CLR 23/02 A3010 150 24 1100 VRB/04 RMK AO2 $
63870K0J4 0J420160403155010004/03/16 15:50:31  5-MIN K0J4 032050Z AUTO 23004KT 10SM CLR 23/01 A3010 150 23 1100 230/04 RMK AO2 $
63870K0J4 0J420160403155512304/03/16 15:55:31  5-MIN K0J4 032055Z AUTO VRB05KT 10SM CLR 23/01 A3010 150 23 1100 VRB/05 RMK AO2 SLP192 T02280011 58016 $
63870K0J4 0J420160403160010004/03/16 16:00:31  5-MIN K0J4 032100Z AUTO VRB05KT 10SM CLR 23/00 A3010 150 22 1100 VRB/05 RMK AO2 $
63870K0J4 0J420160403160510104/03/16 16:05:31  5-MIN K0J4 032105Z AUTO 34003KT 10SM CLR 23/M01 A3010 150 21 1100 340/03 RMK AO2 $
63870K0J4 0J420160403161010004/03/16 16:10:31  5-MIN K0J4 032110Z AUTO 04004KT 10SM CLR 23/01 A3010 150 23 1200 040/04 RMK AO2 $
63870K0J4 0J420160403161510004/03/16 16:15:31  5-MIN K0J4 032115Z AUTO VRB06KT 10SM CLR 23/01 A3010 150 22 1100 VRB/06 RMK AO2 $
63870K0J4 0J420160403162010004/03/16 16:20:31  5-MIN K0J4 032120Z AUTO 36006KT 10SM CLR 23/01 A3010 150 22 1100 360/06 RMK AO2 $
63870K0J4 0J420160403162510004/03/16 16:25:31  5-MIN K0J4 032125Z AUTO VRB03KT 10SM CLR 23/01 A3010 150 22 1200 VRB/03 RMK AO2 $
63870K0J4 0J420160403163010004/03/16 16:30:31  5-MIN K0J4 032130Z AUTO 34003KT 10SM CLR 23/01 A3010 150 22 1100 340/03 RMK AO2 $
63870K0J4 0J420160403163510004/03/16 16:35:31  5-MIN K0J4 032135Z AUTO 00000KT 10SM CLR 23/00 A3010 150 22 1100 000/00 RMK AO2 $
63870K0J4 0J420160403164010004/03/16 16:40:31  5-MIN K0J4 032140Z AUTO VRB04KT 10SM CLR 23/01 A3010 150 22 1100 VRB/04 RMK AO2 $
63870K0J4 0J420160403164510004/03/16 16:45:31  5-MIN K0J4 032145Z AUTO 34004KT 10SM CLR 23/01 A3010 150 23 1200 340/04 RMK AO2 $
63870K0J4 0J420160403165010004/03/16 16:50:31  5-MIN K0J4 032150Z AUTO 32005KT 10SM CLR 23/01 A3010 150 22 1200 320/05 RMK AO2 $
63870K0J4 0J420160403165511704/03/16 16:55:31  5-MIN K0J4 032155Z AUTO 32003KT 10SM CLR 23/01 A3010 150 22 1100 320/03 RMK AO2 SLP189 T02280006 $
63870K0J4 0J420160403170010004/03/16 17:00:31  5-MIN K0J4 032200Z AUTO VRB03KT 10SM CLR 23/02 A3010 150 24 1200 VRB/03 RMK AO2 $
63870K0J4 0J420160403170510004/03/16 17:05:31  5-MIN K0J4 032205Z AUTO 00000KT 10SM CLR 23/01 A3010 150 23 1200 000/00 RMK AO2 $
63870K0J4 0J420160403171010004/03/16 17:10:31  5-MIN K0J4 032210Z AUTO VRB03KT 10SM CLR 23/02 A3009 160 24 1100 VRB/03 RMK AO2 $
63870K0J4 0J420160403171510004/03/16 17:15:31  5-MIN K0J4 032215Z AUTO 34004KT 10SM CLR 23/02 A3009 160 24 1100 340/04 RMK AO2 $
63870K0J4 0J420160403172010004/03/16 17:20:31  5-MIN K0J4 032220Z AUTO 36003KT 10SM CLR 23/02 A3010 150 25 1100 360/03 RMK AO2 $
63870K0J4 0J420160403172510004/03/16 17:25:31  5-MIN K0J4 032225Z AUTO 35003KT 10SM CLR 23/02 A3010 150 24 1200 350/03 RMK AO2 $
63870K0J4 0J420160403173010004/03/16 17:30:31  5-MIN K0J4 032230Z AUTO 00000KT 10SM CLR 23/01 A3010 150 23 1100 000/00 RMK AO2 $
63870K0J4 0J420160403173510004/03/16 17:35:31  5-MIN K0J4 032235Z AUTO 00000KT 10SM CLR 23/02 A3010 150 24 1100 000/00 RMK AO2 $
63870K0J4 0J420160403174010004/03/16 17:40:31  5-MIN K0J4 032240Z AUTO VRB03KT 10SM CLR 23/02 A3010 150 24 1100 VRB/03 RMK AO2 $
63870K0J4 0J420160403174510004/03/16 17:45:31  5-MIN K0J4 032245Z AUTO 00000KT 10SM CLR 23/02 A3010 150 24 1100 000/00 RMK AO2 $
63870K0J4 0J420160403175010004/03/16 17:50:31  5-MIN K0J4 032250Z AUTO VRB03KT 10SM CLR 22/01 A3010 150 24 1100 VRB/03 RMK AO2 $
63870K0J4 0J420160403175511704/03/16 17:55:31  5-MIN K0J4 032255Z AUTO 00000KT 10SM CLR 22/02 A3010 150 25 1100 000/00 RMK AO2 SLP192 T02220017 $
63870K0J4 0J420160403180010004/03/16 18:00:31  5-MIN K0J4 032300Z AUTO VRB04KT 10SM CLR 22/02 A3010 150 26 1100 VRB/04 RMK AO2 $
63870K0J4 0J420160403180510004/03/16 18:05:31  5-MIN K0J4 032305Z AUTO 00000KT 10SM CLR 22/02 A3010 150 25 1100 000/00 RMK AO2 $
63870K0J4 0J420160403181010004/03/16 18:10:31  5-MIN K0J4 032310Z AUTO 00000KT 10SM CLR 22/02 A3010 150 26 1100 000/00 RMK AO2 $
63870K0J4 0J420160403181510004/03/16 18:15:31  5-MIN K0J4 032315Z AUTO 00000KT 10SM CLR 22/03 A3010 150 28 1000 000/00 RMK AO2 $
63870K0J4 0J420160403182009904/03/16 18:20:31  5-MIN K0J4 032320Z AUTO 00000KT 10SM CLR 21/03 A3010 150 30 900 000/00 RMK AO2 $
63870K0J4 0J420160403182509904/03/16 18:25:31  5-MIN K0J4 032325Z AUTO 00000KT 10SM CLR 21/03 A3010 150 30 900 000/00 RMK AO2 $
63870K0J4 0J420160403183009904/03/16 18:30:31  5-MIN K0J4 032330Z AUTO 00000KT 10SM CLR 20/03 A3010 150 33 800 000/00 RMK AO2 $
63870K0J4 0J420160403183509904/03/16 18:35:31  5-MIN K0J4 032335Z AUTO 00000KT 10SM CLR 21/03 A3010 150 30 900 000/00 RMK AO2 $
63870K0J4 0J420160403184009904/03/16 18:40:31  5-MIN K0J4 032340Z AUTO 00000KT 10SM CLR 20/03 A3010 150 31 800 000/00 RMK AO2 $
63870K0J4 0J420160403184509904/03/16 18:45:31  5-MIN K0J4 032345Z AUTO 36003KT 10SM CLR 20/04 A3010 150 34 800 360/03 RMK AO2 $
63870K0J4 0J420160403185009904/03/16 18:50:31  5-MIN K0J4 032350Z AUTO 35003KT 10SM CLR 19/04 A3010 150 35 700 350/03 RMK AO2 $
63870K0J4 0J420160403185513404/03/16 18:55:31  5-MIN K0J4 032355Z AUTO 00000KT 10SM CLR 20/03 A3011 150 33 800 000/00 RMK AO2 SLP193 T02000033 10233 20194 56017 $
63870K0J4 0J420160403190009904/03/16 19:00:31  5-MIN K0J4 040000Z AUTO 00000KT 10SM CLR 19/04 A3011 140 38 700 000/00 RMK AO2 $
63870K0J4 0J420160403190509904/03/16 19:05:31  5-MIN K0J4 040005Z AUTO 00000KT 10SM CLR 18/06 A3011 140 44 500 000/00 RMK AO2 $
63870K0J4 0J420160403191009904/03/16 19:10:31  5-MIN K0J4 040010Z AUTO 00000KT 10SM CLR 17/07 A3010 150 51 400 000/00 RMK AO2 $
63870K0J4 0J420160403191509904/03/16 19:15:31  5-MIN K0J4 040015Z AUTO 00000KT 10SM CLR 16/09 A3011 150 64 300 000/00 RMK AO2 $
63870K0J4 0J420160403192009904/03/16 19:20:31  5-MIN K0J4 040020Z AUTO 00000KT 10SM CLR 16/08 A3011 140 59 300 000/00 RMK AO2 $
63870K0J4 0J420160403192509904/03/16 19:25:31  5-MIN K0J4 040025Z AUTO 00000KT 10SM CLR 16/08 A3011 140 59 300 000/00 RMK AO2 $
63870K0J4 0J420160403193009904/03/16 19:30:31  5-MIN K0J4 040030Z AUTO 00000KT 10SM CLR 16/08 A3011 140 59 300 000/00 RMK AO2 $
63870K0J4 0J420160403193509904/03/16 19:35:31  5-MIN K0J4 040035Z AUTO 00000KT 10SM CLR 15/08 A3011 140 64 200 000/00 RMK AO2 $
63870K0J4 0J420160403194009904/03/16 19:40:31  5-MIN K0J4 040040Z AUTO 00000KT 10SM CLR 14/09 A3011 140 69 100 000/00 RMK AO2 $
63870K0J4 0J420160403194509904/03/16 19:45:31  5-MIN K0J4 040045Z AUTO 00000KT 10SM CLR 14/09 A3011 140 71 100 000/00 RMK AO2 $
63870K0J4 0J420160403195009904/03/16 19:50:31  5-MIN K0J4 040050Z AUTO 00000KT 10SM CLR 14/08 A3011 140 69 100 000/00 RMK AO2 $
63870K0J4 0J420160403195511604/03/16 19:55:31  5-MIN K0J4 040055Z AUTO 00000KT 10SM CLR 14/09 A3011 140 71 100 000/00 RMK AO2 SLP196 T01390089 $
63870K0J4 0J420160403200009704/03/16 20:00:31  5-MIN K0J4 040100Z AUTO 00000KT 10SM CLR 13/09 A3012 140 74 0 000/00 RMK AO2 $
63870K0J4 0J420160403200509704/03/16 20:05:31  5-MIN K0J4 040105Z AUTO 00000KT 10SM CLR 13/08 A3012 130 71 0 000/00 RMK AO2 $
63870K0J4 0J420160403201009704/03/16 20:10:31  5-MIN K0J4 040110Z AUTO 00000KT 10SM CLR 13/09 A3012 130 74 0 000/00 RMK AO2 $
63870K0J4 0J420160403201509704/03/16 20:15:31  5-MIN K0J4 040115Z AUTO 00000KT 10SM CLR 13/09 A3012 130 77 0 000/00 RMK AO2 $
63870K0J4 0J420160403202009704/03/16 20:20:31  5-MIN K0J4 040120Z AUTO 00000KT 10SM CLR 13/09 A3012 130 74 0 000/00 RMK AO2 $
63870K0J4 0J420160403202509704/03/16 20:25:31  5-MIN K0J4 040125Z AUTO 00000KT 10SM CLR 13/09 A3013 130 80 0 000/00 RMK AO2 $
63870K0J4 0J420160403203009704/03/16 20:30:31  5-MIN K0J4 040130Z AUTO 00000KT 10SM CLR 13/10 A3013 130 83 0 000/00 RMK AO2 $
63870K0J4 0J420160403203510004/03/16 20:35:31  5-MIN K0J4 040135Z AUTO 00000KT 10SM CLR 12/09 A3013 120 83 -100 000/00 RMK AO2 $
63870K0J4 0J420160403204009704/03/16 20:40:31  5-MIN K0J4 040140Z AUTO 00000KT 10SM CLR 13/09 A3013 120 80 0 000/00 RMK AO2 $
63870K0J4 0J420160403204509704/03/16 20:45:31  5-MIN K0J4 040145Z AUTO 00000KT 10SM CLR 13/09 A3013 120 80 0 000/00 RMK AO2 $
63870K0J4 0J420160403205009704/03/16 20:50:31  5-MIN K0J4 040150Z AUTO 00000KT 10SM CLR 13/09 A3014 120 80 0 000/00 RMK AO2 $
63870K0J4 0J420160403205511704/03/16 20:55:31  5-MIN K0J4 040155Z AUTO 00000KT 10SM CLR 12/09 A3014 120 86 -200 000/00 RMK AO2 SLP204 T01170094 $
63870K0J4 0J420160403210010004/03/16 21:00:31  5-MIN K0J4 040200Z AUTO 00000KT 10SM CLR 12/08 A3014 110 80 -200 000/00 RMK AO2 $
63870K0J4 0J420160403210510004/03/16 21:05:31  5-MIN K0J4 040205Z AUTO 00000KT 10SM CLR 12/08 A3014 110 80 -200 000/00 RMK AO2 $
63870K0J4 0J420160403211010004/03/16 21:10:31  5-MIN K0J4 040210Z AUTO 00000KT 10SM CLR 12/08 A3014 110 80 -200 000/00 RMK AO2 $
63870K0J4 0J420160403211510004/03/16 21:15:31  5-MIN K0J4 040215Z AUTO 00000KT 10SM CLR 12/08 A3014 110 80 -200 000/00 RMK AO2 $
63870K0J4 0J420160403212010004/03/16 21:20:31  5-MIN K0J4 040220Z AUTO 00000KT 10SM CLR 11/08 A3015 110 83 -200 000/00 RMK AO2 $
63870K0J4 0J420160403212510004/03/16 21:25:31  5-MIN K0J4 040225Z AUTO 00000KT 10SM CLR 11/08 A3015 110 80 -200 000/00 RMK AO2 $
63870K0J4 0J420160403213010004/03/16 21:30:31  5-MIN K0J4 040230Z AUTO 00000KT 10SM CLR 11/08 A3015 110 80 -200 000/00 RMK AO2 $
63870K0J4 0J420160403213510004/03/16 21:35:31  5-MIN K0J4 040235Z AUTO 00000KT 10SM CLR 11/08 A3015 110 83 -200 000/00 RMK AO2 $
63870K0J4 0J420160403214010004/03/16 21:40:31  5-MIN K0J4 040240Z AUTO 00000KT 10SM CLR 11/09 A3015 100 86 -200 000/00 RMK AO2 $
63870K0J4 0J420160403214510004/03/16 21:45:31  5-MIN K0J4 040245Z AUTO 00000KT 10SM CLR 11/08 A3015 100 83 -200 000/00 RMK AO2 $
63870K0J4 0J420160403215010004/03/16 21:50:31  5-MIN K0J4 040250Z AUTO 00000KT 10SM CLR 11/09 A3015 100 86 -200 000/00 RMK AO2 $
63870K0J4 0J420160403215512304/03/16 21:55:31  5-MIN K0J4 040255Z AUTO 00000KT 10SM CLR 11/08 A3015 100 83 -200 000/00 RMK AO2 SLP208 T01110083 53001 $
63870K0J4 0J420160403220010004/03/16 22:00:31  5-MIN K0J4 040300Z AUTO 00000KT 10SM CLR 11/08 A3015 100 83 -200 000/00 RMK AO2 $
63870K0J4 0J420160403220510004/03/16 22:05:31  5-MIN K0J4 040305Z AUTO 00000KT 10SM CLR 11/09 A3015 100 86 -200 000/00 RMK AO2 $
63870K0J4 0J420160403221010004/03/16 22:10:31  5-MIN K0J4 040310Z AUTO 00000KT 10SM CLR 11/08 A3015 100 86 -300 000/00 RMK AO2 $
63870K0J4 0J420160403221510004/03/16 22:15:31  5-MIN K0J4 040315Z AUTO 00000KT 10SM CLR 11/08 A3015 100 83 -300 000/00 RMK AO2 $
63870K0J4 0J420160403222010004/03/16 22:20:31  5-MIN K0J4 040320Z AUTO 00000KT 10SM CLR 11/08 A3015 100 83 -300 000/00 RMK AO2 $
63870K0J4 0J420160403222510004/03/16 22:25:31  5-MIN K0J4 040325Z AUTO 00000KT 10SM CLR 11/08 A3015 100 83 -300 000/00 RMK AO2 $
63870K0J4 0J420160403223010004/03/16 22:30:31  5-MIN K0J4 040330Z AUTO 00000KT 10SM CLR 11/08 A3015 100 83 -300 000/00 RMK AO2 $
63870K0J4 0J420160403223510004/03/16 22:35:31  5-MIN K0J4 040335Z AUTO 00000KT 10SM CLR 11/08 A3015 100 83 -300 000/00 RMK AO2 $
63870K0J4 0J420160403224010004/03/16 22:40:31  5-MIN K0J4 040340Z AUTO 00000KT 10SM CLR 11/08 A3015 100 83 -300 000/00 RMK AO2 $
63870K0J4 0J420160403224510004/03/16 22:45:31  5-MIN K0J4 040345Z AUTO 00000KT 10SM CLR 11/08 A3015 100 83 -300 000/00 RMK AO2 $
63870K0J4 0J420160403225010004/03/16 22:50:31  5-MIN K0J4 040350Z AUTO 00000KT 10SM CLR 10/08 A3015 100 86 -400 000/00 RMK AO2 $
63870K0J4 0J420160403225511704/03/16 22:55:31  5-MIN K0J4 040355Z AUTO 00000KT 10SM CLR 10/08 A3015 100 86 -400 000/00 RMK AO2 SLP208 T01000078 $
63870K0J4 0J420160403230010004/03/16 23:00:31  5-MIN K0J4 040400Z AUTO 00000KT 10SM CLR 10/08 A3015 100 86 -400 000/00 RMK AO2 $
63870K0J4 0J420160403230510004/03/16 23:05:31  5-MIN K0J4 040405Z AUTO 00000KT 10SM CLR 11/07 A3015 100 80 -300 000/00 RMK AO2 $
63870K0J4 0J420160403231010004/03/16 23:10:31  5-MIN K0J4 040410Z AUTO 00000KT 10SM CLR 09/08 A3015 110 89 -400 000/00 RMK AO2 $
63870K0J4 0J420160403231510004/03/16 23:15:31  5-MIN K0J4 040415Z AUTO 00000KT 10SM CLR 09/07 A3015 110 86 -400 000/00 RMK AO2 $
63870K0J4 0J420160403232010004/03/16 23:20:31  5-MIN K0J4 040420Z AUTO 00000KT 10SM CLR 09/07 A3015 100 86 -400 000/00 RMK AO2 $
63870K0J4 0J420160403232510004/03/16 23:25:31  5-MIN K0J4 040425Z AUTO 00000KT 10SM CLR 09/07 A3015 110 86 -400 000/00 RMK AO2 $
63870K0J4 0J420160403233010004/03/16 23:30:31  5-MIN K0J4 040430Z AUTO 00000KT 10SM CLR 09/07 A3015 100 86 -400 000/00 RMK AO2 $
63870K0J4 0J420160403233510004/03/16 23:35:31  5-MIN K0J4 040435Z AUTO 00000KT 10SM CLR 09/07 A3015 100 86 -400 000/00 RMK AO2 $
63870K0J4 0J420160403234010004/03/16 23:40:31  5-MIN K0J4 040440Z AUTO 00000KT 10SM CLR 09/07 A3015 100 86 -400 000/00 RMK AO2 $
63870K0J4 0J420160403234510004/03/16 23:45:31  5-MIN K0J4 040445Z AUTO 00000KT 10SM CLR 09/07 A3015 100 89 -500 000/00 RMK AO2 $
63870K0J4 0J420160403235010004/03/16 23:50:31  5-MIN K0J4 040450Z AUTO 00000KT 10SM CLR 09/07 A3015 100 89 -500 000/00 RMK AO2 $
63870K0J4 0J420160403235512704/03/16 23:55:31  5-MIN K0J4 040455Z AUTO 00000KT 10SM CLR 09/07 A3015 100 89 -500 000/00 RMK AO2 SLP209 T00890072 402330061 $
63870K0J4 0J420160404000010004/04/16 00:00:31  5-MIN K0J4 040500Z AUTO 00000KT 10SM CLR 09/07 A3015 100 86 -500 000/00 RMK AO2 $
63870K0J4 0J420160404000510004/04/16 00:05:31  5-MIN K0J4 040505Z AUTO 00000KT 10SM CLR 09/07 A3015 100 89 -500 000/00 RMK AO2 $
63870K0J4 0J420160404001010004/04/16 00:10:31  5-MIN K0J4 040510Z AUTO 00000KT 10SM CLR 09/07 A3015 100 89 -500 000/00 RMK AO2 $
63870K0J4 0J420160404001510004/04/16 00:15:31  5-MIN K0J4 040515Z AUTO 00000KT 10SM CLR 09/07 A3015 100 89 -500 000/00 RMK AO2 $
63870K0J4 0J420160404002010004/04/16 00:20:31  5-MIN K0J4 040520Z AUTO 00000KT 10SM CLR 08/07 A3015 100 89 -600 000/00 RMK AO2 $
63870K0J4 0J420160404002510004/04/16 00:25:31  5-MIN K0J4 040525Z AUTO 00000KT 10SM CLR 09/07 A3015 100 86 -500 000/00 RMK AO2 $
63870K0J4 0J420160404003010004/04/16 00:30:31  5-MIN K0J4 040530Z AUTO 00000KT 10SM CLR 08/07 A3015 100 89 -600 000/00 RMK AO2 $
63870K0J4 0J420160404003510004/04/16 00:35:31  5-MIN K0J4 040535Z AUTO 00000KT 10SM CLR 08/07 A3015 100 89 -600 000/00 RMK AO2 $
63870K0J4 0J420160404004010004/04/16 00:40:31  5-MIN K0J4 040540Z AUTO 00000KT 10SM CLR 08/07 A3015 100 89 -600 000/00 RMK AO2 $
63870K0J4 0J420160404004510004/04/16 00:45:31  5-MIN K0J4 040545Z AUTO 00000KT 10SM CLR 08/07 A3015 100 89 -600 000/00 RMK AO2 $
63870K0J4 0J420160404005010004/04/16 00:50:31  5-MIN K0J4 040550Z AUTO 00000KT 10SM CLR 08/07 A3015 100 89 -600 000/00 RMK AO2 $
63870K0J4 0J420160404005513504/04/16 00:55:31  5-MIN K0J4 040555Z AUTO 00000KT 10SM CLR 08/07 A3015 100 89 -600 000/00 RMK AO2 SLP209 T00830067 10189 20083 53015 $
63870K0J4 0J420160404010010004/04/16 01:00:31  5-MIN K0J4 040600Z AUTO 00000KT 10SM CLR 08/07 A3015 100 89 -600 000/00 RMK AO2 $
63870K0J4 0J420160404010510004/04/16 01:05:31  5-MIN K0J4 040605Z AUTO 00000KT 10SM CLR 09/07 A3015 110 86 -500 000/00 RMK AO2 $
63870K0J4 0J420160404011010004/04/16 01:10:31  5-MIN K0J4 040610Z AUTO 00000KT 10SM CLR 08/07 A3014 110 89 -600 000/00 RMK AO2 $
63870K0J4 0J420160404011510004/04/16 01:15:31  5-MIN K0J4 040615Z AUTO 00000KT 10SM CLR 09/07 A3014 110 86 -500 000/00 RMK AO2 $
63870K0J4 0J420160404012010004/04/16 01:20:31  5-MIN K0J4 040620Z AUTO 00000KT 10SM CLR 09/07 A3014 110 86 -400 000/00 RMK AO2 $
63870K0J4 0J420160404012510004/04/16 01:25:31  5-MIN K0J4 040625Z AUTO 00000KT 10SM CLR 09/07 A3014 110 89 -500 000/00 RMK AO2 $
63870K0J4 0J420160404013010004/04/16 01:30:31  5-MIN K0J4 040630Z AUTO 00000KT 10SM CLR 08/07 A3014 110 89 -600 000/00 RMK AO2 $
63870K0J4 0J420160404013510004/04/16 01:35:31  5-MIN K0J4 040635Z AUTO 00000KT 10SM CLR 08/07 A3014 110 89 -600 000/00 RMK AO2 $
63870K0J4 0J420160404014010004/04/16 01:40:31  5-MIN K0J4 040640Z AUTO 00000KT 10SM CLR 08/07 A3014 110 89 -600 000/00 RMK AO2 $
63870K0J4 0J420160404014510004/04/16 01:45:31  5-MIN K0J4 040645Z AUTO 00000KT 10SM CLR 08/07 A3014 110 89 -600 000/00 RMK AO2 $
63870K0J4 0J420160404015010004/04/16 01:50:31  5-MIN K0J4 040650Z AUTO 00000KT 10SM CLR 08/07 A3014 110 89 -600 000/00 RMK AO2 $
63870K0J4 0J420160404015513304/04/16 01:55:31  5-MIN K0J4 040655Z AUTO 00000KT 10SM -RA CLR 08/07 A3014 110 89 -600 000/00 RMK AO2 RAB54 SLP204 P0000 T00830067 $
63870K0J4 0J420160404020011004/04/16 02:00:31  5-MIN K0J4 040700Z AUTO 00000KT 10SM -RA CLR 08/07 A3014 110 89 -600 000/00 RMK AO2 P0000 $
63870K0J4 0J420160404020511204/04/16 02:05:31  5-MIN K0J4 040705Z AUTO 00000KT 10SM CLR 08/07 A3014 110 89 -600 000/00 RMK AO2 RAE04 P0000 $
63870K0J4 0J420160404021011204/04/16 02:10:31  5-MIN K0J4 040710Z AUTO 00000KT 10SM CLR 08/07 A3014 110 89 -600 000/00 RMK AO2 RAE04 P0000 $
63870K0J4 0J420160404021511204/04/16 02:15:31  5-MIN K0J4 040715Z AUTO 00000KT 10SM CLR 08/07 A3014 110 89 -600 000/00 RMK AO2 RAE04 P0000 $
63870K0J4 0J420160404022011204/04/16 02:20:31  5-MIN K0J4 040720Z AUTO 00000KT 10SM CLR 08/07 A3014 110 89 -600 000/00 RMK AO2 RAE04 P0000 $
63870K0J4 0J420160404022511204/04/16 02:25:31  5-MIN K0J4 040725Z AUTO 00000KT 10SM CLR 08/07 A3014 110 89 -600 000/00 RMK AO2 RAE04 P0000 $
63870K0J4 0J420160404023011204/04/16 02:30:31  5-MIN K0J4 040730Z AUTO 00000KT 10SM CLR 08/07 A3014 110 93 -600 000/00 RMK AO2 RAE04 P0000 $
63870K0J4 0J420160404023511204/04/16 02:35:31  5-MIN K0J4 040735Z AUTO 00000KT 10SM CLR 08/07 A3014 110 93 -600 000/00 RMK AO2 RAE04 P0000 $
63870K0J4 0J420160404024011204/04/16 02:40:31  5-MIN K0J4 040740Z AUTO 00000KT 10SM CLR 08/07 A3014 110 93 -600 000/00 RMK AO2 RAE04 P0000 $
63870K0J4 0J420160404024511204/04/16 02:45:31  5-MIN K0J4 040745Z AUTO 00000KT 10SM CLR 07/07 A3014 110 96 -700 000/00 RMK AO2 RAE04 P0000 $
63870K0J4 0J420160404025011204/04/16 02:50:31  5-MIN K0J4 040750Z AUTO 00000KT 10SM CLR 08/07 A3014 110 93 -600 000/00 RMK AO2 RAE04 P0000 $
63870K0J4 0J420160404025512904/04/16 02:55:31  5-MIN K0J4 040755Z AUTO 00000KT 10SM CLR 08/07 A3014 110 93 -600 000/00 RMK AO2 RAE04 SLP204 P0000 T00780067 $
63870K0J4 0J420160404030010004/04/16 03:00:31  5-MIN K0J4 040800Z AUTO 00000KT 10SM CLR 08/06 A3014 110 89 -600 000/00 RMK AO2 $
63870K0J4 0J420160404030510004/04/16 03:05:31  5-MIN K0J4 040805Z AUTO 00000KT 10SM CLR 08/06 A3014 110 89 -600 000/00 RMK AO2 $
63870K0J4 0J420160404031010004/04/16 03:10:31  5-MIN K0J4 040810Z AUTO 00000KT 10SM CLR 08/06 A3014 110 89 -600 000/00 RMK AO2 $
63870K0J4 0J420160404031510004/04/16 03:15:31  5-MIN K0J4 040815Z AUTO 00000KT 10SM CLR 08/06 A3014 120 86 -600 000/00 RMK AO2 $
63870K0J4 0J420160404032010004/04/16 03:20:31  5-MIN K0J4 040820Z AUTO 00000KT 10SM CLR 08/07 A3014 120 89 -600 000/00 RMK AO2 $
63870K0J4 0J420160404032510004/04/16 03:25:31  5-MIN K0J4 040825Z AUTO 00000KT 10SM CLR 08/07 A3014 120 89 -600 000/00 RMK AO2 $
63870K0J4 0J420160404033010004/04/16 03:30:31  5-MIN K0J4 040830Z AUTO 00000KT 10SM CLR 09/07 A3014 120 86 -500 000/00 RMK AO2 $
63870K0J4 0J420160404033510004/04/16 03:35:31  5-MIN K0J4 040835Z AUTO 00000KT 10SM CLR 09/06 A3014 120 83 -500 000/00 RMK AO2 $
63870K0J4 0J420160404034010004/04/16 03:40:31  5-MIN K0J4 040840Z AUTO 00000KT 10SM CLR 08/06 A3013 120 82 -600 000/00 RMK AO2 $
63870K0J4 0J420160404034510004/04/16 03:45:31  5-MIN K0J4 040845Z AUTO 00000KT 10SM CLR 08/06 A3013 120 86 -600 000/00 RMK AO2 $
63870K0J4 0J420160404035010004/04/16 03:50:31  5-MIN K0J4 040850Z AUTO 00000KT 10SM CLR 08/06 A3013 120 86 -600 000/00 RMK AO2 $
63870K0J4 0J420160404035512904/04/16 03:55:31  5-MIN K0J4 040855Z AUTO 00000KT 10SM CLR 08/06 A3013 120 82 -600 000/00 RMK AO2 SLP202 60000 T00830056 50000 $
63870K0J4 0J420160404040010004/04/16 04:00:31  5-MIN K0J4 040900Z AUTO 00000KT 10SM CLR 08/06 A3013 120 82 -600 000/00 RMK AO2 $
63870K0J4 0J420160404040510004/04/16 04:05:31  5-MIN K0J4 040905Z AUTO 00000KT 10SM CLR 08/06 A3013 120 82 -600 000/00 RMK AO2 $
63870K0J4 0J420160404041010004/04/16 04:10:31  5-MIN K0J4 040910Z AUTO 00000KT 10SM CLR 08/06 A3013 120 89 -600 000/00 RMK AO2 $
63870K0J4 0J420160404041510004/04/16 04:15:31  5-MIN K0J4 040915Z AUTO 00000KT 10SM CLR 07/06 A3013 120 93 -700 000/00 RMK AO2 $
63870K0J4 0J420160404042010004/04/16 04:20:31  5-MIN K0J4 040920Z AUTO 00000KT 10SM CLR 08/06 A3013 120 86 -600 000/00 RMK AO2 $
63870K0J4 0J420160404042510004/04/16 04:25:31  5-MIN K0J4 040925Z AUTO 00000KT 10SM CLR 08/06 A3013 120 86 -600 000/00 RMK AO2 $
63870K0J4 0J420160404043010004/04/16 04:30:31  5-MIN K0J4 040930Z AUTO 00000KT 10SM CLR 07/06 A3013 120 93 -700 000/00 RMK AO2 $
63870K0J4 0J420160404043510004/04/16 04:35:31  5-MIN K0J4 040935Z AUTO 00000KT 10SM CLR 07/06 A3013 120 89 -700 000/00 RMK AO2 $
63870K0J4 0J420160404044010004/04/16 04:40:31  5-MIN K0J4 040940Z AUTO 00000KT 10SM CLR 07/06 A3013 120 89 -700 000/00 RMK AO2 $
63870K0J4 0J420160404044510004/04/16 04:45:31  5-MIN K0J4 040945Z AUTO 00000KT 10SM CLR 07/06 A3014 120 93 -800 000/00 RMK AO2 $
63870K0J4 0J420160404045010004/04/16 04:50:31  5-MIN K0J4 040950Z AUTO 00000KT 10SM CLR 07/06 A3014 120 93 -800 000/00 RMK AO2 $
63870K0J4 0J420160404045511704/04/16 04:55:31  5-MIN K0J4 040955Z AUTO 00000KT 10SM CLR 07/05 A3014 110 89 -800 000/00 RMK AO2 SLP203 T00670050 $
63870K0J4 0J420160404050010004/04/16 05:00:31  5-MIN K0J4 041000Z AUTO 00000KT 10SM CLR 07/06 A3014 110 93 -800 000/00 RMK AO2 $
63870K0J4 0J420160404050510004/04/16 05:05:31  5-MIN K0J4 041005Z AUTO 00000KT 10SM CLR 07/06 A3014 110 93 -800 000/00 RMK AO2 $
63870K0J4 0J420160404051010004/04/16 05:10:31  5-MIN K0J4 041010Z AUTO 00000KT 10SM CLR 07/06 A3014 110 89 -700 000/00 RMK AO2 $
63870K0J4 0J420160404051510004/04/16 05:15:31  5-MIN K0J4 041015Z AUTO 00000KT 10SM CLR 07/06 A3014 110 89 -700 000/00 RMK AO2 $
63870K0J4 0J420160404052010004/04/16 05:20:31  5-MIN K0J4 041020Z AUTO 00000KT 10SM CLR 07/06 A3014 110 89 -700 000/00 RMK AO2 $
63870K0J4 0J420160404052510004/04/16 05:25:31  5-MIN K0J4 041025Z AUTO 00000KT 10SM CLR 07/05 A3014 110 89 -800 000/00 RMK AO2 $
63870K0J4 0J420160404053010004/04/16 05:30:31  5-MIN K0J4 041030Z AUTO 00000KT 10SM CLR 07/06 A3014 110 89 -700 000/00 RMK AO2 $
63870K0J4 0J420160404053510004/04/16 05:35:31  5-MIN K0J4 041035Z AUTO 00000KT 10SM CLR 07/06 A3014 110 89 -700 000/00 RMK AO2 $
63870K0J4 0J420160404054010004/04/16 05:40:31  5-MIN K0J4 041040Z AUTO 00000KT 10SM CLR 07/06 A3015 110 93 -800 000/00 RMK AO2 $
63870K0J4 0J420160404054510004/04/16 05:45:31  5-MIN K0J4 041045Z AUTO 00000KT 10SM CLR 07/06 A3015 110 93 -800 000/00 RMK AO2 $
63870K0J4 0J420160404055010004/04/16 05:50:31  5-MIN K0J4 041050Z AUTO 00000KT 10SM CLR 07/05 A3015 110 89 -800 000/00 RMK AO2 $
63870K0J4 0J420160404055511704/04/16 05:55:31  5-MIN K0J4 041055Z AUTO 00000KT 10SM CLR 07/05 A3015 110 89 -800 000/00 RMK AO2 SLP208 T00670050 $
63870K0J4 0J420160404060010004/04/16 06:00:31  5-MIN K0J4 041100Z AUTO 00000KT 10SM CLR 07/05 A3015 100 89 -800 000/00 RMK AO2 $
63870K0J4 0J420160404060510004/04/16 06:05:31  5-MIN K0J4 041105Z AUTO 00000KT 10SM CLR 07/05 A3015 100 89 -800 000/00 RMK AO2 $
63870K0J4 0J420160404061010004/04/16 06:10:31  5-MIN K0J4 041110Z AUTO 00000KT 10SM CLR 07/05 A3015 100 89 -800 000/00 RMK AO2 $
63870K0J4 0J420160404061510004/04/16 06:15:31  5-MIN K0J4 041115Z AUTO 00000KT 10SM CLR 07/05 A3015 100 89 -800 000/00 RMK AO2 $
63870K0J4 0J420160404062010004/04/16 06:20:31  5-MIN K0J4 041120Z AUTO 00000KT 10SM CLR 07/06 A3016 100 89 -700 000/00 RMK AO2 $
63870K0J4 0J420160404062510004/04/16 06:25:31  5-MIN K0J4 041125Z AUTO 00000KT 10SM CLR 07/06 A3016 100 93 -800 000/00 RMK AO2 $
63870K0J4 0J420160404063010004/04/16 06:30:31  5-MIN K0J4 041130Z AUTO 00000KT 10SM CLR 07/05 A3016 100 89 -800 000/00 RMK AO2 $
63870K0J4 0J420160404063509904/04/16 06:35:31  5-MIN K0J4 041135Z AUTO 00000KT 10SM CLR 07/06 A3016 90 93 -800 000/00 RMK AO2 $
63870K0J4 0J420160404064009904/04/16 06:40:31  5-MIN K0J4 041140Z AUTO 00000KT 10SM CLR 07/05 A3016 90 89 -800 000/00 RMK AO2 $
63870K0J4 0J420160404064509904/04/16 06:45:31  5-MIN K0J4 041145Z AUTO 00000KT 10SM CLR 07/05 A3016 90 89 -800 000/00 RMK AO2 $
63870K0J4 0J420160404065009904/04/16 06:50:31  5-MIN K0J4 041150Z AUTO 00000KT 10SM CLR 07/06 A3016 90 93 -800 000/00 RMK AO2 $
63870K0J4 0J420160404065514004/04/16 06:55:31  5-MIN K0J4 041155Z AUTO 00000KT 10SM CLR 07/06 A3017 90 89 -700 000/00 RMK AO2 SLP213 60000 T00720056 10094 20067 56006 $
63870K0J4 0J420160404070009904/04/16 07:00:31  5-MIN K0J4 041200Z AUTO 00000KT 10SM CLR 07/06 A3017 90 89 -700 000/00 RMK AO2 $
63870K0J4 0J420160404070509904/04/16 07:05:31  5-MIN K0J4 041205Z AUTO 00000KT 10SM CLR 07/06 A3017 90 89 -700 000/00 RMK AO2 $
63870K0J4 0J420160404071009904/04/16 07:10:31  5-MIN K0J4 041210Z AUTO 00000KT 10SM CLR 08/06 A3017 80 89 -700 000/00 RMK AO2 $
63870K0J4 0J420160404071509904/04/16 07:15:31  5-MIN K0J4 041215Z AUTO 00000KT 10SM CLR 08/06 A3017 80 89 -700 000/00 RMK AO2 $
63870K0J4 0J420160404072009904/04/16 07:20:31  5-MIN K0J4 041220Z AUTO 00000KT 10SM CLR 08/07 A3018 80 89 -600 000/00 RMK AO2 $
63870K0J4 0J420160404072509904/04/16 07:25:31  5-MIN K0J4 041225Z AUTO 00000KT 10SM CLR 09/07 A3018 80 89 -500 000/00 RMK AO2 $
63870K0J4 0J420160404073009904/04/16 07:30:31  5-MIN K0J4 041230Z AUTO 00000KT 10SM CLR 09/07 A3018 80 89 -500 000/00 RMK AO2 $
63870K0J4 0J420160404073509904/04/16 07:35:31  5-MIN K0J4 041235Z AUTO 00000KT 10SM CLR 10/08 A3018 80 86 -400 000/00 RMK AO2 $
63870K0J4 0J420160404074009904/04/16 07:40:31  5-MIN K0J4 041240Z AUTO 00000KT 10SM CLR 11/08 A3018 70 86 -400 000/00 RMK AO2 $
63870K0J4 0J420160404074509904/04/16 07:45:31  5-MIN K0J4 041245Z AUTO 00000KT 10SM CLR 11/09 A3019 70 89 -400 000/00 RMK AO2 $
63870K0J4 0J420160404075009904/04/16 07:50:31  5-MIN K0J4 041250Z AUTO 00000KT 10SM CLR 11/08 A3019 70 83 -300 000/00 RMK AO2 $
63870K0J4 0J420160404075511604/04/16 07:55:31  5-MIN K0J4 041255Z AUTO 00000KT 10SM CLR 12/08 A3019 70 80 -200 000/00 RMK AO2 SLP221 T01170083 $
63870K0J4 0J420160404080009904/04/16 08:00:31  5-MIN K0J4 041300Z AUTO 00000KT 10SM CLR 12/08 A3019 70 77 -200 000/00 RMK AO2 $
63870K0J4 0J420160404080509904/04/16 08:05:31  5-MIN K0J4 041305Z AUTO 00000KT 10SM CLR 13/09 A3019 70 77 -100 000/00 RMK AO2 $
63870K0J4 0J420160404081009604/04/16 08:10:31  5-MIN K0J4 041310Z AUTO 00000KT 10SM CLR 13/09 A3019 70 74 0 000/00 RMK AO2 $
63870K0J4 0J420160404081509604/04/16 08:15:31  5-MIN K0J4 041315Z AUTO 00000KT 10SM CLR 14/09 A3019 70 74 0 000/00 RMK AO2 $
63870K0J4 0J420160404082009804/04/16 08:20:31  5-MIN K0J4 041320Z AUTO 00000KT 10SM CLR 14/09 A3019 60 72 100 000/00 RMK AO2 $
63870K0J4 0J420160404082509804/04/16 08:25:31  5-MIN K0J4 041325Z AUTO 00000KT 10SM CLR 14/09 A3019 60 69 100 000/00 RMK AO2 $
63870K0J4 0J420160404083009804/04/16 08:30:31  5-MIN K0J4 041330Z AUTO 00000KT 10SM CLR 15/08 A3020 60 64 100 000/00 RMK AO2 $
63870K0J4 0J420160404083509804/04/16 08:35:31  5-MIN K0J4 041335Z AUTO 00000KT 10SM CLR 16/08 A3020 60 62 200 000/00 RMK AO2 $
63870K0J4 0J420160404084009804/04/16 08:40:31  5-MIN K0J4 041340Z AUTO 00000KT 10SM CLR 16/08 A3020 60 59 200 000/00 RMK AO2 $
63870K0J4 0J420160404084509804/04/16 08:45:31  5-MIN K0J4 041345Z AUTO 00000KT 10SM CLR 16/08 A3020 60 57 200 000/00 RMK AO2 $
63870K0J4 0J420160404085009804/04/16 08:50:31  5-MIN K0J4 041350Z AUTO 00000KT 10SM CLR 17/08 A3020 60 55 300 000/00 RMK AO2 $
63870K0J4 0J420160404085511304/04/16 08:55:31  5-MIN K0J4 041355Z AUTO 00000KT 10SM CLR 17/08 A3020 60 55 400 000/00 RMK AO2 SLP225 T01720083
63870K0J4 0J420160404090009604/04/16 09:00:31  5-MIN K0J4 041400Z AUTO 00000KT 10SM CLR 18/08 A3020 60 51 400 000/00 RMK AO2
63870K0J4 0J420160404090509604/04/16 09:05:31  5-MIN K0J4 041405Z AUTO 00000KT 10SM CLR 19/07 A3020 60 44 600 000/00 RMK AO2
63870K0J4 0J420160404091009604/04/16 09:10:31  5-MIN K0J4 041410Z AUTO VRB03KT 10SM CLR 18/07 A3020 60 46 500 VRB/03 RMK AO2
63870K0J4 0J420160404091509604/04/16 09:15:31  5-MIN K0J4 041415Z AUTO VRB03KT 10SM CLR 19/07 A3020 60 44 600 VRB/03 RMK AO2
63870K0J4 0J420160404092009604/04/16 09:20:31  5-MIN K0J4 041420Z AUTO 34004KT 10SM CLR 18/06 A3020 60 44 500 340/04 RMK AO2
63870K0J4 0J420160404092509604/04/16 09:25:31  5-MIN K0J4 041425Z AUTO VRB04KT 10SM CLR 19/06 A3020 60 43 600 VRB/04 RMK AO2
63870K0J4 0J420160404093009604/04/16 09:30:31  5-MIN K0J4 041430Z AUTO VRB04KT 10SM CLR 19/07 A3020 60 43 600 VRB/04 RMK AO2
63870K0J4 0J420160404093509604/04/16 09:35:31  5-MIN K0J4 041435Z AUTO 34003KT 10SM CLR 19/07 A3020 60 43 600 340/03 RMK AO2
63870K0J4 0J420160404094009604/04/16 09:40:31  5-MIN K0J4 041440Z AUTO VRB03KT 10SM CLR 19/07 A3020 50 43 600 VRB/03 RMK AO2
63870K0J4 0J420160404094509604/04/16 09:45:31  5-MIN K0J4 041445Z AUTO 00000KT 10SM CLR 20/07 A3021 50 41 700 000/00 RMK AO2
63870K0J4 0J420160404095009604/04/16 09:50:31  5-MIN K0J4 041450Z AUTO VRB03KT 10SM CLR 20/06 A3021 50 40 700 VRB/03 RMK AO2
63870K0J4 0J420160404095511904/04/16 09:55:31  5-MIN K0J4 041455Z AUTO 33003KT 10SM CLR 21/07 A3021 50 40 800 330/03 RMK AO2 SLP226 T02060067 53011
63870K0J4 0J420160404100009604/04/16 10:00:31  5-MIN K0J4 041500Z AUTO 00000KT 10SM CLR 21/07 A3021 50 38 800 000/00 RMK AO2
63870K0J4 0J420160404100509604/04/16 10:05:31  5-MIN K0J4 041505Z AUTO VRB03KT 10SM CLR 21/07 A3021 50 38 800 VRB/03 RMK AO2
63870K0J4 0J420160404101009604/04/16 10:10:31  5-MIN K0J4 041510Z AUTO 00000KT 10SM CLR 21/06 A3021 50 36 800 000/00 RMK AO2
63870K0J4 0J420160404101509604/04/16 10:15:31  5-MIN K0J4 041515Z AUTO 00000KT 10SM CLR 21/06 A3021 50 36 800 000/00 RMK AO2
63870K0J4 0J420160404102009604/04/16 10:20:31  5-MIN K0J4 041520Z AUTO VRB03KT 10SM CLR 22/06 A3021 50 34 900 VRB/03 RMK AO2
63870K0J4 0J420160404102509604/04/16 10:25:31  5-MIN K0J4 041525Z AUTO VRB04KT 10SM CLR 22/06 A3021 50 36 900 VRB/04 RMK AO2
63870K0J4 0J420160404103009604/04/16 10:30:31  5-MIN K0J4 041530Z AUTO VRB04KT 10SM CLR 22/04 A3021 50 31 900 VRB/04 RMK AO2
63870K0J4 0J420160404103509604/04/16 10:35:31  5-MIN K0J4 041535Z AUTO VRB04KT 10SM CLR 22/04 A3021 50 30 900 VRB/04 RMK AO2
63870K0J4 0J420160404104009604/04/16 10:40:31  5-MIN K0J4 041540Z AUTO VRB03KT 10SM CLR 22/05 A3021 50 32 900 VRB/03 RMK AO2
63870K0J4 0J420160404104509704/04/16 10:45:31  5-MIN K0J4 041545Z AUTO VRB04KT 10SM CLR 23/04 A3021 50 29 1000 VRB/04 RMK AO2
63870K0J4 0J420160404105009604/04/16 10:50:31  5-MIN K0J4 041550Z AUTO VRB04KT 10SM CLR 22/04 A3020 50 30 900 VRB/04 RMK AO2
63870K0J4 0J420160404105511304/04/16 10:55:31  5-MIN K0J4 041555Z AUTO VRB05KT 10SM CLR 22/03 A3021 50 27 900 VRB/05 RMK AO2 SLP226 T02220028
63870K0J4 0J420160404110009704/04/16 11:00:31  5-MIN K0J4 041600Z AUTO VRB03KT 10SM CLR 23/04 A3020 50 29 1000 VRB/03 RMK AO2
63870K0J4 0J420160404110509604/04/16 11:05:31  5-MIN K0J4 041605Z AUTO VRB05KT 10SM CLR 22/02 A3020 50 26 900 VRB/05 RMK AO2
63870K0J4 0J420160404111009704/04/16 11:10:31  5-MIN K0J4 041610Z AUTO VRB03KT 10SM CLR 23/03 A3020 60 26 1000 VRB/03 RMK AO2
63870K0J4 0J420160404111509704/04/16 11:15:31  5-MIN K0J4 041615Z AUTO VRB04KT 10SM CLR 22/03 A3020 60 27 1000 VRB/04 RMK AO2
63870K0J4 0J420160404112009704/04/16 11:20:31  5-MIN K0J4 041620Z AUTO 00000KT 10SM CLR 22/03 A3020 60 28 1000 000/00 RMK AO2
63870K0J4 0J420160404112511304/04/16 11:25:31  5-MIN K0J4 041625Z AUTO 30008KT 250V350 10SM CLR 23/03 A3020 60 26 1100 300/08 250V350 RMK AO2
63870K0J4 0J420160404113009704/04/16 11:30:31  5-MIN K0J4 041630Z AUTO 00000KT 10SM CLR 22/02 A3019 60 26 1000 000/00 RMK AO2
63870K0J4 0J420160404113509704/04/16 11:35:31  5-MIN K0J4 041635Z AUTO VRB03KT 10SM CLR 23/02 A3019 70 25 1000 VRB/03 RMK AO2
63870K0J4 0J420160404114009704/04/16 11:40:31  5-MIN K0J4 041640Z AUTO 00000KT 10SM CLR 23/03 A3019 70 26 1100 000/00 RMK AO2
63870K0J4 0J420160404114509704/04/16 11:45:31  5-MIN K0J4 041645Z AUTO 01008KT 10SM CLR 24/04 A3019 70 27 1200 010/08 RMK AO2
63870K0J4 0J420160404115010304/04/16 11:50:31  5-MIN K0J4 041650Z AUTO 01008G14KT 10SM CLR 23/03 A3019 70 25 1100 010/08G14 RMK AO2
63870K0J4 0J420160404115511404/04/16 11:55:31  5-MIN K0J4 041655Z AUTO VRB05KT 10SM CLR 23/03 A3018 70 25 1100 VRB/05 RMK AO2 SLP218 T02330028
63870K0J4 0J420160404120009704/04/16 12:00:31  5-MIN K0J4 041700Z AUTO VRB04KT 10SM CLR 24/03 A3018 80 26 1200 VRB/04 RMK AO2
63870K0J4 0J420160404120509704/04/16 12:05:31  5-MIN K0J4 041705Z AUTO VRB06KT 10SM CLR 23/03 A3018 80 26 1100 VRB/06 RMK AO2
63870K0J4 0J420160404121009704/04/16 12:10:31  5-MIN K0J4 041710Z AUTO VRB04KT 10SM CLR 23/03 A3018 80 25 1100 VRB/04 RMK AO2
63870K0J4 0J420160404121511304/04/16 12:15:31  5-MIN K0J4 041715Z AUTO 02008KT 350V090 10SM CLR 23/03 A3017 80 25 1100 020/08 350V090 RMK AO2
63870K0J4 0J420160404122009704/04/16 12:20:31  5-MIN K0J4 041720Z AUTO VRB06KT 10SM CLR 23/03 A3017 80 25 1100 VRB/06 RMK AO2
63870K0J4 0J420160404122509704/04/16 12:25:31  5-MIN K0J4 041725Z AUTO VRB05KT 10SM CLR 24/04 A3017 80 27 1200 VRB/05 RMK AO2
63870K0J4 0J420160404123009704/04/16 12:30:31  5-MIN K0J4 041730Z AUTO VRB04KT 10SM CLR 24/03 A3017 90 26 1200 VRB/04 RMK AO2
63870K0J4 0J420160404123509704/04/16 12:35:31  5-MIN K0J4 041735Z AUTO VRB05KT 10SM CLR 24/03 A3017 90 25 1200 VRB/05 RMK AO2
63870K0J4 0J420160404124009704/04/16 12:40:31  5-MIN K0J4 041740Z AUTO 00000KT 10SM CLR 24/03 A3016 90 26 1200 000/00 RMK AO2
63870K0J4 0J420160404124509704/04/16 12:45:31  5-MIN K0J4 041745Z AUTO VRB03KT 10SM CLR 23/03 A3016 90 25 1100 VRB/03 RMK AO2
63870K0J4 0J420160404125009804/04/16 12:50:31  5-MIN K0J4 041750Z AUTO 01009KT 10SM CLR 24/04 A3016 100 27 1200 010/09 RMK AO2
63870K0J4 0J420160404125513304/04/16 12:55:31  5-MIN K0J4 041755Z AUTO VRB06KT 10SM CLR 24/04 A3016 100 27 1300 VRB/06 RMK AO2 SLP210 T02440044 10244 20072 51014
63870K0J4 0J420160404130009804/04/16 13:00:31  5-MIN K0J4 041800Z AUTO VRB05KT 10SM CLR 24/03 A3016 100 26 1200 VRB/05 RMK AO2
63870K0J4 0J420160404130509804/04/16 13:05:31  5-MIN K0J4 041805Z AUTO VRB04KT 10SM CLR 24/04 A3015 100 26 1300 VRB/04 RMK AO2
63870K0J4 0J420160404131011404/04/16 13:10:31  5-MIN K0J4 041810Z AUTO 02008KT 330V040 10SM CLR 24/03 A3015 100 25 1300 020/08 330V040 RMK AO2
63870K0J4 0J420160404131512004/04/16 13:15:31  5-MIN K0J4 041815Z AUTO 35007G15KT 280V030 10SM CLR 24/03 A3015 110 26 1200 350/07G15 280V030 RMK AO2
63870K0J4 0J420160404132010404/04/16 13:20:31  5-MIN K0J4 041820Z AUTO VRB04G15KT 10SM CLR 24/03 A3015 110 25 1300 VRB/04G15 RMK AO2
63870K0J4 0J420160404132509804/04/16 13:25:31  5-MIN K0J4 041825Z AUTO VRB03KT 10SM CLR 24/03 A3014 110 26 1200 VRB/03 RMK AO2
63870K0J4 0J420160404133009804/04/16 13:30:31  5-MIN K0J4 041830Z AUTO VRB04KT 10SM CLR 24/03 A3014 110 25 1200 VRB/04 RMK AO2
63870K0J4 0J420160404133509804/04/16 13:35:31  5-MIN K0J4 041835Z AUTO 00000KT 10SM CLR 24/03 A3014 120 25 1200 000/00 RMK AO2
63870K0J4 0J420160404134009804/04/16 13:40:31  5-MIN K0J4 041840Z AUTO VRB03KT 10SM CLR 24/03 A3014 120 25 1300 VRB/03 RMK AO2
63870K0J4 0J420160404134509804/04/16 13:45:31  5-MIN K0J4 041845Z AUTO VRB03KT 10SM CLR 24/04 A3013 120 26 1300 VRB/03 RMK AO2
63870K0J4 0J420160404135009804/04/16 13:50:31  5-MIN K0J4 041850Z AUTO 01004KT 10SM CLR 25/04 A3013 120 25 1300 010/04 RMK AO2
63870K0J4 0J420160404135511504/04/16 13:55:31  5-MIN K0J4 041855Z AUTO VRB03KT 10SM CLR 24/03 A3013 120 25 1300 VRB/03 RMK AO2 SLP200 T02440033
63870K0J4 0J420160404140009804/04/16 14:00:31  5-MIN K0J4 041900Z AUTO VRB04KT 10SM CLR 25/04 A3013 120 26 1400 VRB/04 RMK AO2
63870K0J4 0J420160404140509804/04/16 14:05:31  5-MIN K0J4 041905Z AUTO VRB04KT 10SM CLR 25/04 A3013 120 25 1300 VRB/04 RMK AO2
63870K0J4 0J420160404141011404/04/16 14:10:31  5-MIN K0J4 041910Z AUTO 32007KT 240V360 10SM CLR 25/03 A3013 130 24 1400 320/07 240V360 RMK AO2
63870K0J4 0J420160404141509804/04/16 14:15:31  5-MIN K0J4 041915Z AUTO VRB03KT 10SM CLR 25/03 A3013 130 24 1400 VRB/03 RMK AO2
63870K0J4 0J420160404142009804/04/16 14:20:31  5-MIN K0J4 041920Z AUTO VRB04KT 10SM CLR 24/03 A3012 130 25 1300 VRB/04 RMK AO2
63870K0J4 0J420160404142509804/04/16 14:25:31  5-MIN K0J4 041925Z AUTO VRB03KT 10SM CLR 25/04 A3012 130 25 1400 VRB/03 RMK AO2
63870K0J4 0J420160404143009804/04/16 14:30:31  5-MIN K0J4 041930Z AUTO VRB04KT 10SM CLR 25/03 A3012 130 24 1400 VRB/04 RMK AO2
63870K0J4 0J420160404143509804/04/16 14:35:31  5-MIN K0J4 041935Z AUTO VRB05KT 10SM CLR 25/04 A3012 140 26 1400 VRB/05 RMK AO2
63870K0J4 0J420160404144009804/04/16 14:40:31  5-MIN K0J4 041940Z AUTO 01005KT 10SM CLR 26/05 A3011 140 26 1400 010/05 RMK AO2
63870K0J4 0J420160404144509804/04/16 14:45:31  5-MIN K0J4 041945Z AUTO VRB05KT 10SM CLR 26/04 A3011 140 25 1400 VRB/05 RMK AO2
63870K0J4 0J420160404145009804/04/16 14:50:31  5-MIN K0J4 041950Z AUTO 00000KT 10SM CLR 26/04 A3011 140 24 1400 000/00 RMK AO2
63870K0J4 0J420160404145511504/04/16 14:55:31  5-MIN K0J4 041955Z AUTO VRB06KT 10SM CLR 26/04 A3010 150 25 1400 VRB/06 RMK AO2 SLP192 T02560044
63870K0J4 0J420160404150009804/04/16 15:00:31  5-MIN K0J4 042000Z AUTO VRB04KT 10SM CLR 26/04 A3010 150 25 1400 VRB/04 RMK AO2
63870K0J4 0J420160404150509804/04/16 15:05:31  5-MIN K0J4 042005Z AUTO VRB04KT 10SM CLR 26/04 A3010 150 24 1500 VRB/04 RMK AO2
63870K0J4 0J420160404151009804/04/16 15:10:31  5-MIN K0J4 042010Z AUTO VRB03KT 10SM CLR 25/03 A3010 150 24 1400 VRB/03 RMK AO2
63870K0J4 0J420160404151509804/04/16 15:15:31  5-MIN K0J4 042015Z AUTO 00000KT 10SM CLR 25/03 A3010 150 23 1400 000/00 RMK AO2
63870K0J4 0J420160404152009804/04/16 15:20:31  5-MIN K0J4 042020Z AUTO VRB03KT 10SM CLR 25/02 A3010 150 22 1400 VRB/03 RMK AO2
63870K0J4 0J420160404152509804/04/16 15:25:31  5-MIN K0J4 042025Z AUTO VRB03KT 10SM CLR 25/03 A3010 150 23 1400 VRB/03 RMK AO2
63870K0J4 0J420160404153009804/04/16 15:30:31  5-MIN K0J4 042030Z AUTO 00000KT 10SM CLR 26/03 A3009 160 22 1500 000/00 RMK AO2
63870K0J4 0J420160404153509804/04/16 15:35:31  5-MIN K0J4 042035Z AUTO 00000KT 10SM CLR 25/03 A3009 160 24 1400 000/00 RMK AO2
63870K0J4 0J420160404154009804/04/16 15:40:31  5-MIN K0J4 042040Z AUTO VRB03KT 10SM CLR 25/03 A3009 160 24 1400 VRB/03 RMK AO2
63870K0J4 0J420160404154509804/04/16 15:45:31  5-MIN K0J4 042045Z AUTO VRB03KT 10SM CLR 26/04 A3009 160 24 1500 VRB/03 RMK AO2
63870K0J4 0J420160404155009804/04/16 15:50:31  5-MIN K0J4 042050Z AUTO VRB03KT 10SM CLR 26/04 A3009 160 24 1500 VRB/03 RMK AO2
63870K0J4 0J420160404155512104/04/16 15:55:31  5-MIN K0J4 042055Z AUTO VRB03KT 10SM CLR 26/04 A3008 170 24 1500 VRB/03 RMK AO2 SLP184 T02610044 58017
63870K0J4 0J420160404160009804/04/16 16:00:31  5-MIN K0J4 042100Z AUTO 00000KT 10SM CLR 26/04 A3008 170 24 1500 000/00 RMK AO2
63870K0J4 0J420160404160509804/04/16 16:05:31  5-MIN K0J4 042105Z AUTO VRB03KT 10SM CLR 26/04 A3008 170 24 1500 VRB/03 RMK AO2
63870K0J4 0J420160404161009804/04/16 16:10:31  5-MIN K0J4 042110Z AUTO VRB06KT 10SM CLR 26/03 A3008 170 23 1500 VRB/06 RMK AO2
63870K0J4 0J420160404161509804/04/16 16:15:31  5-MIN K0J4 042115Z AUTO VRB04KT 10SM CLR 26/04 A3008 170 24 1500 VRB/04 RMK AO2
63870K0J4 0J420160404162009804/04/16 16:20:31  5-MIN K0J4 042120Z AUTO VRB05KT 10SM CLR 25/04 A3008 170 25 1400 VRB/05 RMK AO2
63870K0J4 0J420160404162509804/04/16 16:25:31  5-MIN K0J4 042125Z AUTO VRB03KT 10SM CLR 26/03 A3008 170 23 1500 VRB/03 RMK AO2
63870K0J4 0J420160404163009804/04/16 16:30:31  5-MIN K0J4 042130Z AUTO VRB04KT 10SM CLR 26/04 A3008 170 25 1500 VRB/04 RMK AO2
63870K0J4 0J420160404163509804/04/16 16:35:31  5-MIN K0J4 042135Z AUTO VRB03KT 10SM CLR 26/05 A3008 170 26 1500 VRB/03 RMK AO2
63870K0J4 0J420160404164009804/04/16 16:40:31  5-MIN K0J4 042140Z AUTO VRB04KT 10SM CLR 26/04 A3008 170 24 1500 VRB/04 RMK AO2
63870K0J4 0J420160404164509804/04/16 16:45:31  5-MIN K0J4 042145Z AUTO VRB03KT 10SM CLR 25/04 A3008 170 25 1400 VRB/03 RMK AO2
63870K0J4 0J420160404165009804/04/16 16:50:31  5-MIN K0J4 042150Z AUTO VRB04KT 10SM CLR 25/04 A3008 170 26 1400 VRB/04 RMK AO2
63870K0J4 0J420160404165511504/04/16 16:55:31  5-MIN K0J4 042155Z AUTO VRB03KT 10SM CLR 25/05 A3008 170 27 1400 VRB/03 RMK AO2 SLP183 T02500050
63870K0J4 0J420160404170009804/04/16 17:00:31  5-MIN K0J4 042200Z AUTO VRB04KT 10SM CLR 25/05 A3008 170 27 1400 VRB/04 RMK AO2
63870K0J4 0J420160404170509704/04/16 17:05:31  5-MIN K0J4 042205Z AUTO 00000KT 9SM CLR 25/05 A3008 170 27 1400 000/00 RMK AO2
63870K0J4 0J420160404171009704/04/16 17:10:31  5-MIN K0J4 042210Z AUTO 00000KT 9SM CLR 25/05 A3008 170 27 1400 000/00 RMK AO2
63870K0J4 0J420160404171511404/04/16 17:15:31  5-MIN K0J4 042215Z AUTO 33007KT 280V020 10SM CLR 26/05 A3008 170 26 1500 330/07 280V020 RMK AO2
63870K0J4 0J420160404172009804/04/16 17:20:31  5-MIN K0J4 042220Z AUTO VRB03KT 10SM CLR 25/04 A3008 170 26 1400 VRB/03 RMK AO2
63870K0J4 0J420160404172509804/04/16 17:25:31  5-MIN K0J4 042225Z AUTO VRB04KT 10SM CLR 25/04 A3008 170 26 1400 VRB/04 RMK AO2
63870K0J4 0J420160404173009804/04/16 17:30:31  5-MIN K0J4 042230Z AUTO VRB03KT 10SM CLR 25/05 A3008 170 27 1400 VRB/03 RMK AO2
63870K0J4 0J420160404173509804/04/16 17:35:31  5-MIN K0J4 042235Z AUTO VRB03KT 10SM CLR 25/04 A3008 170 26 1400 VRB/03 RMK AO2
63870K0J4 0J420160404174009804/04/16 17:40:31  5-MIN K0J4 042240Z AUTO VRB04KT 10SM CLR 25/04 A3008 170 26 1400 VRB/04 RMK AO2
63870K0J4 0J420160404174509804/04/16 17:45:31  5-MIN K0J4 042245Z AUTO 00000KT 10SM CLR 24/04 A3008 170 26 1300 000/00 RMK AO2
63870K0J4 0J420160404175009804/04/16 17:50:31  5-MIN K0J4 042250Z AUTO 00000KT 10SM CLR 24/04 A3008 170 27 1300 000/00 RMK AO2
63870K0J4 0J420160404175511504/04/16 17:55:31  5-MIN K0J4 042255Z AUTO VRB03KT 10SM CLR 24/04 A3008 170 26 1300 VRB/03 RMK AO2 SLP184 T02440039
63870K0J4 0J420160404180009804/04/16 18:00:31  5-MIN K0J4 042300Z AUTO 00000KT 10SM CLR 24/04 A3008 170 27 1300 000/00 RMK AO2
63870K0J4 0J420160404180509804/04/16 18:05:31  5-MIN K0J4 042305Z AUTO 00000KT 10SM CLR 24/04 A3009 160 27 1300 000/00 RMK AO2
63870K0J4 0J420160404181009804/04/16 18:10:31  5-MIN K0J4 042310Z AUTO 00000KT 10SM CLR 24/05 A3009 160 29 1300 000/00 RMK AO2
63870K0J4 0J420160404181509804/04/16 18:15:31  5-MIN K0J4 042315Z AUTO 00000KT 10SM CLR 23/06 A3009 160 33 1100 000/00 RMK AO2
63870K0J4 0J420160404182009804/04/16 18:20:31  5-MIN K0J4 042320Z AUTO 00000KT 10SM CLR 23/07 A3009 160 35 1100 000/00 RMK AO2
63870K0J4 0J420160404182509804/04/16 18:25:31  5-MIN K0J4 042325Z AUTO 00000KT 10SM CLR 23/06 A3009 160 32 1100 000/00 RMK AO2
63870K0J4 0J420160404183009804/04/16 18:30:31  5-MIN K0J4 042330Z AUTO 00000KT 10SM CLR 22/06 A3009 160 35 1100 000/00 RMK AO2
63870K0J4 0J420160404183509804/04/16 18:35:31  5-MIN K0J4 042335Z AUTO 00000KT 10SM CLR 22/06 A3009 160 35 1100 000/00 RMK AO2
63870K0J4 0J420160404184009804/04/16 18:40:31  5-MIN K0J4 042340Z AUTO 00000KT 10SM CLR 22/07 A3010 150 37 1000 000/00 RMK AO2
63870K0J4 0J420160404184509704/04/16 18:45:31  5-MIN K0J4 042345Z AUTO 00000KT 10SM CLR 21/07 A3010 150 38 900 000/00 RMK AO2
63870K0J4 0J420160404185009704/04/16 18:50:31  5-MIN K0J4 042350Z AUTO 00000KT 10SM CLR 21/08 A3010 150 42 900 000/00 RMK AO2
63870K0J4 0J420160404185513204/04/16 18:55:31  5-MIN K0J4 042355Z AUTO 00000KT 10SM CLR 21/08 A3010 150 45 900 000/00 RMK AO2 SLP190 T02060083 10261 20206 56025
63870K0J4 0J420160404190009704/04/16 19:00:31  5-MIN K0J4 050000Z AUTO 00000KT 10SM CLR 20/09 A3010 150 48 800 000/00 RMK AO2
63870K0J4 0J420160404190509704/04/16 19:05:31  5-MIN K0J4 050005Z AUTO 00000KT 10SM CLR 20/08 A3010 150 45 800 000/00 RMK AO2
63870K0J4 0J420160404191009704/04/16 19:10:31  5-MIN K0J4 050010Z AUTO 00000KT 10SM CLR 20/08 A3010 150 46 800 000/00 RMK AO2
63870K0J4 0J420160404191509704/04/16 19:15:31  5-MIN K0J4 050015Z AUTO 00000KT 10SM CLR 19/09 A3010 150 50 700 000/00 RMK AO2
63870K0J4 0J420160404192009704/04/16 19:20:31  5-MIN K0J4 050020Z AUTO 00000KT 10SM CLR 18/09 A3010 150 54 600 000/00 RMK AO2
63870K0J4 0J420160404192509704/04/16 19:25:31  5-MIN K0J4 050025Z AUTO 00000KT 10SM CLR 19/09 A3011 140 52 700 000/00 RMK AO2
63870K0J4 0J420160404193009704/04/16 19:30:31  5-MIN K0J4 050030Z AUTO 00000KT 10SM CLR 18/09 A3011 140 54 600 000/00 RMK AO2
63870K0J4 0J420160404193509704/04/16 19:35:31  5-MIN K0J4 050035Z AUTO 00000KT 10SM CLR 18/09 A3011 140 54 600 000/00 RMK AO2
63870K0J4 0J420160404194009704/04/16 19:40:31  5-MIN K0J4 050040Z AUTO 00000KT 10SM CLR 18/08 A3011 140 52 600 000/00 RMK AO2
63870K0J4 0J420160404194509704/04/16 19:45:31  5-MIN K0J4 050045Z AUTO 00000KT 10SM CLR 18/08 A3011 140 53 500 000/00 RMK AO2
63870K0J4 0J420160404195009704/04/16 19:50:31  5-MIN K0J4 050050Z AUTO 00000KT 10SM CLR 18/08 A3011 140 50 600 000/00 RMK AO2
63870K0J4 0J420160404195511404/04/16 19:55:31  5-MIN K0J4 050055Z AUTO 00000KT 10SM CLR 18/08 A3011 140 53 500 000/00 RMK AO2 SLP193 T01780083
63870K0J4 0J420160404200009704/04/16 20:00:31  5-MIN K0J4 050100Z AUTO 00000KT 10SM CLR 18/08 A3011 140 51 500 000/00 RMK AO2
63870K0J4 0J420160404200509704/04/16 20:05:31  5-MIN K0J4 050105Z AUTO 00000KT 10SM CLR 17/08 A3011 140 53 500 000/00 RMK AO2
63870K0J4 0J420160404201009704/04/16 20:10:31  5-MIN K0J4 050110Z AUTO 00000KT 10SM CLR 17/08 A3011 140 53 500 000/00 RMK AO2
63870K0J4 0J420160404201509704/04/16 20:15:31  5-MIN K0J4 050115Z AUTO 00000KT 10SM CLR 17/08 A3012 140 53 500 000/00 RMK AO2
63870K0J4 0J420160404202009704/04/16 20:20:31  5-MIN K0J4 050120Z AUTO 00000KT 10SM CLR 17/08 A3012 130 53 500 000/00 RMK AO2
63870K0J4 0J420160404202509704/04/16 20:25:31  5-MIN K0J4 050125Z AUTO 00000KT 10SM CLR 18/08 A3012 130 51 500 000/00 RMK AO2
63870K0J4 0J420160404203009704/04/16 20:30:31  5-MIN K0J4 050130Z AUTO 00000KT 10SM CLR 17/08 A3012 130 55 400 000/00 RMK AO2
63870K0J4 0J420160404203509704/04/16 20:35:31  5-MIN K0J4 050135Z AUTO 00000KT 10SM CLR 17/07 A3012 130 49 500 000/00 RMK AO2
63870K0J4 0J420160404204009704/04/16 20:40:31  5-MIN K0J4 050140Z AUTO 00000KT 10SM CLR 17/07 A3012 130 53 400 000/00 RMK AO2
63870K0J4 0J420160404204509704/04/16 20:45:31  5-MIN K0J4 050145Z AUTO 00000KT 10SM CLR 17/07 A3013 130 53 400 000/00 RMK AO2
63870K0J4 0J420160404205009704/04/16 20:50:31  5-MIN K0J4 050150Z AUTO 00000KT 10SM CLR 17/07 A3013 120 51 400 000/00 RMK AO2
63870K0J4 0J420160404205511404/04/16 20:55:31  5-MIN K0J4 050155Z AUTO 00000KT 10SM CLR 17/07 A3013 120 49 500 000/00 RMK AO2 SLP200 T01720067
63870K0J4 0J420160404210009704/04/16 21:00:31  5-MIN K0J4 050200Z AUTO 00000KT 10SM CLR 17/07 A3013 120 51 400 000/00 RMK AO2
63870K0J4 0J420160404210509704/04/16 21:05:31  5-MIN K0J4 050205Z AUTO 00000KT 10SM CLR 16/07 A3013 120 53 300 000/00 RMK AO2
63870K0J4 0J420160404211009704/04/16 21:10:31  5-MIN K0J4 050210Z AUTO 00000KT 10SM CLR 16/07 A3013 120 53 300 000/00 RMK AO2
63870K0J4 0J420160404211509704/04/16 21:15:31  5-MIN K0J4 050215Z AUTO 00000KT 10SM CLR 16/07 A3013 120 53 300 000/00 RMK AO2
63870K0J4 0J420160404212009704/04/16 21:20:31  5-MIN K0J4 050220Z AUTO 00000KT 10SM CLR 16/07 A3013 120 55 300 000/00 RMK AO2
63870K0J4 0J420160404212509704/04/16 21:25:31  5-MIN K0J4 050225Z AUTO 00000KT 10SM CLR 16/07 A3013 120 57 300 000/00 RMK AO2
63870K0J4 0J420160404213009704/04/16 21:30:31  5-MIN K0J4 050230Z AUTO 00000KT 10SM CLR 16/07 A3014 120 57 300 000/00 RMK AO2
63870K0J4 0J420160404213509704/04/16 21:35:31  5-MIN K0J4 050235Z AUTO 00000KT 10SM CLR 15/08 A3014 120 62 200 000/00 RMK AO2
63870K0J4 0J420160404214009704/04/16 21:40:31  5-MIN K0J4 050240Z AUTO 00000KT 10SM CLR 15/08 A3014 120 62 200 000/00 RMK AO2
63870K0J4 0J420160404214509704/04/16 21:45:31  5-MIN K0J4 050245Z AUTO 00000KT 10SM CLR 15/08 A3014 120 62 200 000/00 RMK AO2
63870K0J4 0J420160404215009704/04/16 21:50:31  5-MIN K0J4 050250Z AUTO 00000KT 10SM CLR 14/08 A3014 110 66 100 000/00 RMK AO2
63870K0J4 0J420160404215512004/04/16 21:55:31  5-MIN K0J4 050255Z AUTO 00000KT 10SM CLR 14/09 A3014 110 69 100 000/00 RMK AO2 SLP204 T01440089 53005
63870K0J4 0J420160404220009504/04/16 22:00:31  5-MIN K0J4 050300Z AUTO 00000KT 10SM CLR 14/08 A3014 110 69 0 000/00 RMK AO2
63870K0J4 0J420160404220509504/04/16 22:05:31  5-MIN K0J4 050305Z AUTO 00000KT 10SM CLR 14/08 A3014 110 69 0 000/00 RMK AO2
63870K0J4 0J420160404221009504/04/16 22:10:31  5-MIN K0J4 050310Z AUTO 00000KT 10SM CLR 14/08 A3014 110 66 0 000/00 RMK AO2
63870K0J4 0J420160404221509504/04/16 22:15:31  5-MIN K0J4 050315Z AUTO 21003KT 10SM CLR 13/08 A3014 110 71 0 210/03 RMK AO2
63870K0J4 0J420160404222009504/04/16 22:20:31  5-MIN K0J4 050320Z AUTO 00000KT 10SM CLR 13/09 A3014 110 77 0 000/00 RMK AO2
63870K0J4 0J420160404222509504/04/16 22:25:31  5-MIN K0J4 050325Z AUTO 00000KT 10SM CLR 13/08 A3015 110 69 0 000/00 RMK AO2
63870K0J4 0J420160404223009504/04/16 22:30:31  5-MIN K0J4 050330Z AUTO 00000KT 10SM CLR 13/09 A3015 110 77 0 000/00 RMK AO2
63870K0J4 0J420160404223509504/04/16 22:35:31  5-MIN K0J4 050335Z AUTO 00000KT 10SM CLR 13/08 A3015 110 71 0 000/00 RMK AO2
63870K0J4 0J420160404224009504/04/16 22:40:31  5-MIN K0J4 050340Z AUTO 00000KT 10SM CLR 13/08 A3015 110 74 0 000/00 RMK AO2
63870K0J4 0J420160404224509504/04/16 22:45:31  5-MIN K0J4 050345Z AUTO 00000KT 10SM CLR 13/08 A3015 110 74 0 000/00 RMK AO2
63870K0J4 0J420160404225009804/04/16 22:50:31  5-MIN K0J4 050350Z AUTO 00000KT 10SM CLR 12/08 A3015 110 77 -100 000/00 RMK AO2
63870K0J4 0J420160404225511204/04/16 22:55:31  5-MIN K0J4 050355Z AUTO 00000KT 10SM CLR 13/08 A3015 110 74 0 000/00 RMK AO2 SLP206 T01280083
63870K0J4 0J420160404230009804/04/16 23:00:31  5-MIN K0J4 050400Z AUTO 00000KT 10SM CLR 12/08 A3015 110 80 -200 000/00 RMK AO2
63870K0J4 0J420160404230509804/04/16 23:05:31  5-MIN K0J4 050405Z AUTO 00000KT 10SM CLR 12/08 A3015 110 77 -100 000/00 RMK AO2
63870K0J4 0J420160404231009804/04/16 23:10:31  5-MIN K0J4 050410Z AUTO 00000KT 10SM CLR 12/08 A3015 110 80 -200 000/00 RMK AO2
63870K0J4 0J420160404231509804/04/16 23:15:31  5-MIN K0J4 050415Z AUTO 00000KT 10SM CLR 12/08 A3015 110 77 -100 000/00 RMK AO2
63870K0J4 0J420160404232009504/04/16 23:20:31  5-MIN K0J4 050420Z AUTO 00000KT 10SM CLR 13/08 A3015 110 74 0 000/00 RMK AO2
63870K0J4 0J420160404232509504/04/16 23:25:31  5-MIN K0J4 050425Z AUTO 00000KT 10SM CLR 13/08 A3015 110 74 0 000/00 RMK AO2
63870K0J4 0J420160404233009504/04/16 23:30:31  5-MIN K0J4 050430Z AUTO 00000KT 10SM CLR 13/08 A3015 110 74 0 000/00 RMK AO2
63870K0J4 0J420160404233509504/04/16 23:35:31  5-MIN K0J4 050435Z AUTO 00000KT 10SM CLR 13/08 A3015 110 74 0 000/00 RMK AO2
63870K0J4 0J420160404234009504/04/16 23:40:31  5-MIN K0J4 050440Z AUTO 00000KT 10SM CLR 13/08 A3015 110 74 0 000/00 RMK AO2
63870K0J4 0J420160404234509504/04/16 23:45:31  5-MIN K0J4 050445Z AUTO 00000KT 10SM CLR 13/08 A3015 110 71 0 000/00 RMK AO2
63870K0J4 0J420160404235009504/04/16 23:50:31  5-MIN K0J4 050450Z AUTO 00000KT 10SM CLR 13/08 A3015 100 71 0 000/00 RMK AO2
63870K0J4 0J420160404235512204/04/16 23:55:31  5-MIN K0J4 050455Z AUTO 00000KT 10SM CLR 13/08 A3015 100 69 0 000/00 RMK AO2 SLP208 T01330078 402610067
63870K0J4 0J420160405000009504/05/16 00:00:31  5-MIN K0J4 050500Z AUTO 00000KT 10SM CLR 13/08 A3015 100 74 0 000/00 RMK AO2
63870K0J4 0J420160405000509804/05/16 00:05:31  5-MIN K0J4 050505Z AUTO 00000KT 10SM CLR 12/08 A3015 100 77 -100 000/00 RMK AO2
63870K0J4 0J420160405001009804/05/16 00:10:31  5-MIN K0J4 050510Z AUTO 00000KT 10SM CLR 12/08 A3015 100 77 -100 000/00 RMK AO2
63870K0J4 0J420160405001509804/05/16 00:15:31  5-MIN K0J4 050515Z AUTO 00000KT 10SM CLR 12/08 A3015 100 80 -200 000/00 RMK AO2
63870K0J4 0J420160405002009504/05/16 00:20:31  5-MIN K0J4 050520Z AUTO 00000KT 10SM CLR 13/08 A3015 100 74 0 000/00 RMK AO2
63870K0J4 0J420160405002509504/05/16 00:25:31  5-MIN K0J4 050525Z AUTO 00000KT 10SM CLR 13/08 A3015 100 74 0 000/00 RMK AO2
63870K0J4 0J420160405003009504/05/16 00:30:31  5-MIN K0J4 050530Z AUTO 00000KT 10SM CLR 13/08 A3015 100 74 0 000/00 RMK AO2
63870K0J4 0J420160405003509504/05/16 00:35:31  5-MIN K0J4 050535Z AUTO 00000KT 10SM CLR 13/08 A3015 100 74 0 000/00 RMK AO2
63870K0J4 0J420160405004009504/05/16 00:40:31  5-MIN K0J4 050540Z AUTO 00000KT 10SM CLR 13/08 A3015 100 74 0 000/00 RMK AO2
63870K0J4 0J420160405004509504/05/16 00:45:31  5-MIN K0J4 050545Z AUTO 00000KT 10SM CLR 13/08 A3015 100 74 0 000/00 RMK AO2
63870K0J4 0J420160405005009804/05/16 00:50:31  5-MIN K0J4 050550Z AUTO 00000KT 10SM CLR 12/08 A3015 100 77 -100 000/00 RMK AO2
63870K0J4 0J420160405005513304/05/16 00:55:31  5-MIN K0J4 050555Z AUTO 00000KT 10SM CLR 12/08 A3015 100 77 -100 000/00 RMK AO2 SLP207 T01220083 10206 20117 52014
63870K0J4 0J420160405010009804/05/16 01:00:31  5-MIN K0J4 050600Z AUTO 00000KT 10SM CLR 12/08 A3015 110 77 -100 000/00 RMK AO2
63870K0J4 0J420160405010509504/05/16 01:05:31  5-MIN K0J4 050605Z AUTO 00000KT 10SM CLR 13/08 A3015 110 74 0 000/00 RMK AO2
63870K0J4 0J420160405011009504/05/16 01:10:31  5-MIN K0J4 050610Z AUTO 00000KT 10SM CLR 13/08 A3015 110 74 0 000/00 RMK AO2
63870K0J4 0J420160405011509504/05/16 01:15:31  5-MIN K0J4 050615Z AUTO 00000KT 10SM CLR 13/08 A3015 110 74 0 000/00 RMK AO2
63870K0J4 0J420160405012009504/05/16 01:20:31  5-MIN K0J4 050620Z AUTO 00000KT 10SM CLR 13/08 A3015 110 74 0 000/00 RMK AO2
63870K0J4 0J420160405012509504/05/16 01:25:31  5-MIN K0J4 050625Z AUTO 00000KT 10SM CLR 13/08 A3014 110 74 0 000/00 RMK AO2
63870K0J4 0J420160405013009504/05/16 01:30:31  5-MIN K0J4 050630Z AUTO 00000KT 10SM CLR 13/08 A3014 110 74 0 000/00 RMK AO2
63870K0J4 0J420160405013509504/05/16 01:35:31  5-MIN K0J4 050635Z AUTO 00000KT 10SM CLR 13/08 A3014 110 74 0 000/00 RMK AO2
63870K0J4 0J420160405014009504/05/16 01:40:31  5-MIN K0J4 050640Z AUTO 00000KT 10SM CLR 13/08 A3014 110 74 0 000/00 RMK AO2
63870K0J4 0J420160405014509504/05/16 01:45:31  5-MIN K0J4 050645Z AUTO 00000KT 10SM CLR 13/08 A3014 110 71 0 000/00 RMK AO2
63870K0J4 0J420160405015009504/05/16 01:50:31  5-MIN K0J4 050650Z AUTO 00000KT 10SM CLR 13/08 A3014 110 74 0 000/00 RMK AO2
63870K0J4 0J420160405015511204/05/16 01:55:31  5-MIN K0J4 050655Z AUTO 00000KT 10SM CLR 13/08 A3014 110 74 0 000/00 RMK AO2 SLP203 T01280083
63870K0J4 0J420160405020009504/05/16 02:00:31  5-MIN K0J4 050700Z AUTO 00000KT 10SM CLR 13/08 A3014 120 74 0 000/00 RMK AO2
63870K0J4 0J420160405020509504/05/16 02:05:31  5-MIN K0J4 050705Z AUTO 00000KT 10SM CLR 13/08 A3014 120 74 0 000/00 RMK AO2
63870K0J4 0J420160405021009504/05/16 02:10:31  5-MIN K0J4 050710Z AUTO 00000KT 10SM CLR 13/08 A3014 120 74 0 000/00 RMK AO2
63870K0J4 0J420160405021509504/05/16 02:15:31  5-MIN K0J4 050715Z AUTO 00000KT 10SM CLR 13/08 A3014 120 74 0 000/00 RMK AO2
63870K0J4 0J420160405022009504/05/16 02:20:31  5-MIN K0J4 050720Z AUTO 00000KT 10SM CLR 13/08 A3014 120 74 0 000/00 RMK AO2
63870K0J4 0J420160405022509504/05/16 02:25:31  5-MIN K0J4 050725Z AUTO 00000KT 10SM CLR 13/08 A3014 120 74 0 000/00 RMK AO2
63870K0J4 0J420160405023009504/05/16 02:30:31  5-MIN K0J4 050730Z AUTO 00000KT 10SM CLR 13/08 A3013 120 74 0 000/00 RMK AO2
63870K0J4 0J420160405023509804/05/16 02:35:31  5-MIN K0J4 050735Z AUTO 00000KT 10SM CLR 12/08 A3013 120 77 -100 000/00 RMK AO2
63870K0J4 0J420160405024009804/05/16 02:40:31  5-MIN K0J4 050740Z AUTO 00000KT 10SM CLR 12/08 A3013 120 80 -200 000/00 RMK AO2
63870K0J4 0J420160405024509804/05/16 02:45:31  5-MIN K0J4 050745Z AUTO 00000KT 10SM CLR 12/08 A3013 120 77 -100 000/00 RMK AO2
63870K0J4 0J420160405025009804/05/16 02:50:31  5-MIN K0J4 050750Z AUTO 00000KT 10SM CLR 12/08 A3013 120 77 -100 000/00 RMK AO2
63870K0J4 0J420160405025511504/05/16 02:55:31  5-MIN K0J4 050755Z AUTO 00000KT 10SM CLR 12/08 A3013 120 77 -100 000/00 RMK AO2 SLP202 T01220083
63870K0J4 0J420160405030009804/05/16 03:00:31  5-MIN K0J4 050800Z AUTO 00000KT 10SM CLR 12/08 A3014 120 77 -100 000/00 RMK AO2
63870K0J4 0J420160405030509804/05/16 03:05:31  5-MIN K0J4 050805Z AUTO 00000KT 10SM CLR 12/08 A3014 120 77 -100 000/00 RMK AO2
63870K0J4 0J420160405031009804/05/16 03:10:31  5-MIN K0J4 050810Z AUTO 00000KT 10SM CLR 12/08 A3013 120 77 -100 000/00 RMK AO2
63870K0J4 0J420160405031509804/05/16 03:15:31  5-MIN K0J4 050815Z AUTO 00000KT 10SM CLR 12/08 A3013 120 77 -100 000/00 RMK AO2
63870K0J4 0J420160405032009804/05/16 03:20:31  5-MIN K0J4 050820Z AUTO 00000KT 10SM CLR 12/08 A3013 120 77 -100 000/00 RMK AO2
63870K0J4 0J420160405032509804/05/16 03:25:31  5-MIN K0J4 050825Z AUTO 00000KT 10SM CLR 12/08 A3014 120 77 -100 000/00 RMK AO2
63870K0J4 0J420160405033009804/05/16 03:30:31  5-MIN K0J4 050830Z AUTO 00000KT 10SM CLR 12/08 A3014 120 80 -200 000/00 RMK AO2
63870K0J4 0J420160405033509804/05/16 03:35:31  5-MIN K0J4 050835Z AUTO 00000KT 10SM CLR 12/08 A3014 120 80 -200 000/00 RMK AO2
63870K0J4 0J420160405034009804/05/16 03:40:31  5-MIN K0J4 050840Z AUTO 00000KT 10SM CLR 12/08 A3014 120 77 -100 000/00 RMK AO2
63870K0J4 0J420160405034509804/05/16 03:45:31  5-MIN K0J4 050845Z AUTO 00000KT 10SM CLR 12/08 A3014 120 80 -200 000/00 RMK AO2
63870K0J4 0J420160405035009804/05/16 03:50:31  5-MIN K0J4 050850Z AUTO 00000KT 10SM CLR 12/08 A3014 120 80 -200 000/00 RMK AO2
63870K0J4 0J420160405035512104/05/16 03:55:31  5-MIN K0J4 050855Z AUTO 00000KT 10SM CLR 12/08 A3014 120 80 -200 000/00 RMK AO2 SLP202 T01170083 50003
63870K0J4 0J420160405040009804/05/16 04:00:31  5-MIN K0J4 050900Z AUTO 00000KT 10SM CLR 12/08 A3014 120 77 -100 000/00 RMK AO2
63870K0J4 0J420160405040509804/05/16 04:05:31  5-MIN K0J4 050905Z AUTO 00000KT 10SM CLR 12/08 A3014 120 80 -200 000/00 RMK AO2
63870K0J4 0J420160405041009804/05/16 04:10:31  5-MIN K0J4 050910Z AUTO 00000KT 10SM CLR 12/08 A3014 120 80 -200 000/00 RMK AO2
63870K0J4 0J420160405041509804/05/16 04:15:31  5-MIN K0J4 050915Z AUTO 00000KT 10SM CLR 12/08 A3014 120 80 -200 000/00 RMK AO2
63870K0J4 0J420160405042009804/05/16 04:20:31  5-MIN K0J4 050920Z AUTO 00000KT 10SM CLR 12/08 A3014 120 80 -200 000/00 RMK AO2
63870K0J4 0J420160405042509804/05/16 04:25:31  5-MIN K0J4 050925Z AUTO 00000KT 10SM CLR 11/08 A3013 120 83 -200 000/00 RMK AO2
63870K0J4 0J420160405043009804/05/16 04:30:31  5-MIN K0J4 050930Z AUTO 00000KT 10SM CLR 11/08 A3014 120 83 -200 000/00 RMK AO2
63870K0J4 0J420160405043509804/05/16 04:35:31  5-MIN K0J4 050935Z AUTO 00000KT 10SM CLR 11/08 A3014 120 83 -200 000/00 RMK AO2
63870K0J4 0J420160405044009804/05/16 04:40:31  5-MIN K0J4 050940Z AUTO 00000KT 10SM CLR 11/08 A3014 110 83 -200 000/00 RMK AO2
63870K0J4 0J420160405044509804/05/16 04:45:31  5-MIN K0J4 050945Z AUTO 00000KT 10SM CLR 12/08 A3014 110 80 -200 000/00 RMK AO2
63870K0J4 0J420160405045009804/05/16 04:50:31  5-MIN K0J4 050950Z AUTO 00000KT 10SM CLR 11/08 A3014 110 83 -200 000/00 RMK AO2
63870K0J4 0J420160405045511504/05/16 04:55:31  5-MIN K0J4 050955Z AUTO 00000KT 10SM CLR 11/08 A3014 110 83 -200 000/00 RMK AO2 SLP205 T01110083
63870K0J4 0J420160405050009804/05/16 05:00:31  5-MIN K0J4 051000Z AUTO 00000KT 10SM CLR 12/08 A3015 110 80 -200 000/00 RMK AO2
63870K0J4 0J420160405050509804/05/16 05:05:31  5-MIN K0J4 051005Z AUTO 00000KT 10SM CLR 12/08 A3015 100 77 -200 000/00 RMK AO2
63870K0J4 0J420160405051009804/05/16 05:10:31  5-MIN K0J4 051010Z AUTO 00000KT 10SM CLR 11/08 A3015 100 83 -200 000/00 RMK AO2
63870K0J4 0J420160405051509804/05/16 05:15:31  5-MIN K0J4 051015Z AUTO 00000KT 10SM CLR 11/08 A3015 100 83 -200 000/00 RMK AO2
63870K0J4 0J420160405052009804/05/16 05:20:31  5-MIN K0J4 051020Z AUTO 00000KT 10SM CLR 11/08 A3015 100 83 -200 000/00 RMK AO2
63870K0J4 0J420160405052509804/05/16 05:25:31  5-MIN K0J4 051025Z AUTO 00000KT 10SM CLR 11/08 A3015 100 83 -300 000/00 RMK AO2
63870K0J4 0J420160405053009804/05/16 05:30:31  5-MIN K0J4 051030Z AUTO 00000KT 10SM CLR 11/08 A3016 100 80 -300 000/00 RMK AO2
63870K0J4 0J420160405053509804/05/16 05:35:31  5-MIN K0J4 051035Z AUTO 00000KT 10SM CLR 11/08 A3016 100 86 -300 000/00 RMK AO2
63870K0J4 0J420160405054009704/05/16 05:40:31  5-MIN K0J4 051040Z AUTO 00000KT 10SM CLR 11/08 A3016 90 86 -300 000/00 RMK AO2
63870K0J4 0J420160405054509704/05/16 05:45:31  5-MIN K0J4 051045Z AUTO 00000KT 10SM CLR 11/08 A3016 90 86 -300 000/00 RMK AO2
63870K0J4 0J420160405055009704/05/16 05:50:31  5-MIN K0J4 051050Z AUTO 00000KT 10SM CLR 11/08 A3016 90 86 -300 000/00 RMK AO2
63870K0J4 0J420160405055511404/05/16 05:55:31  5-MIN K0J4 051055Z AUTO 00000KT 10SM CLR 11/08 A3017 90 86 -300 000/00 RMK AO2 SLP212 T01060083
63870K0J4 0J420160405060009704/05/16 06:00:31  5-MIN K0J4 051100Z AUTO 00000KT 10SM CLR 11/08 A3017 90 80 -300 000/00 RMK AO2
63870K0J4 0J420160405060509704/05/16 06:05:31  5-MIN K0J4 051105Z AUTO 00000KT 10SM CLR 11/08 A3017 90 80 -300 000/00 RMK AO2
63870K0J4 0J420160405061009704/05/16 06:10:31  5-MIN K0J4 051110Z AUTO 33003KT 10SM CLR 12/08 A3017 80 77 -200 330/03 RMK AO2
63870K0J4 0J420160405061509704/05/16 06:15:31  5-MIN K0J4 051115Z AUTO 34003KT 10SM CLR 12/08 A3017 80 77 -200 340/03 RMK AO2
63870K0J4 0J420160405062009704/05/16 06:20:31  5-MIN K0J4 051120Z AUTO 33004KT 10SM CLR 11/08 A3018 80 80 -300 330/04 RMK AO2
63870K0J4 0J420160405062509704/05/16 06:25:31  5-MIN K0J4 051125Z AUTO 33003KT 10SM CLR 11/08 A3018 80 80 -300 330/03 RMK AO2
63870K0J4 0J420160405063009704/05/16 06:30:31  5-MIN K0J4 051130Z AUTO 33004KT 10SM CLR 12/08 A3018 70 77 -200 330/04 RMK AO2
63870K0J4 0J420160405063509704/05/16 06:35:31  5-MIN K0J4 051135Z AUTO 32004KT 10SM CLR 12/08 A3019 70 77 -200 320/04 RMK AO2
63870K0J4 0J420160405064009704/05/16 06:40:31  5-MIN K0J4 051140Z AUTO 32003KT 10SM CLR 12/08 A3019 70 77 -200 320/03 RMK AO2
63870K0J4 0J420160405064509704/05/16 06:45:31  5-MIN K0J4 051145Z AUTO 32003KT 10SM CLR 12/08 A3019 70 77 -200 320/03 RMK AO2
63870K0J4 0J420160405065009704/05/16 06:50:31  5-MIN K0J4 051150Z AUTO 33003KT 10SM CLR 12/08 A3019 60 77 -200 330/03 RMK AO2
63870K0J4 0J420160405065513204/05/16 06:55:31  5-MIN K0J4 051155Z AUTO 33003KT 10SM CLR 12/08 A3020 60 77 -200 330/03 RMK AO2 SLP223 T01170078 10133 20106 55004
63870K0J4 0J420160405070009704/05/16 07:00:31  5-MIN K0J4 051200Z AUTO 33003KT 10SM CLR 12/08 A3020 60 74 -200 330/03 RMK AO2
63870K0J4 0J420160405070509704/05/16 07:05:31  5-MIN K0J4 051205Z AUTO VRB03KT 10SM CLR 12/08 A3020 60 74 -200 VRB/03 RMK AO2
63870K0J4 0J420160405071009704/05/16 07:10:31  5-MIN K0J4 051210Z AUTO 00000KT 10SM CLR 12/08 A3021 50 74 -200 000/00 RMK AO2
63870K0J4 0J420160405071509704/05/16 07:15:31  5-MIN K0J4 051215Z AUTO 00000KT 10SM CLR 12/08 A3021 50 77 -200 000/00 RMK AO2
63870K0J4 0J420160405072009704/05/16 07:20:31  5-MIN K0J4 051220Z AUTO 00000KT 10SM CLR 13/08 A3021 50 71 -100 000/00 RMK AO2
63870K0J4 0J420160405072509704/05/16 07:25:31  5-MIN K0J4 051225Z AUTO 35003KT 10SM CLR 13/08 A3022 40 69 -100 350/03 RMK AO2
63870K0J4 0J420160405073009704/05/16 07:30:31  5-MIN K0J4 051230Z AUTO 00000KT 10SM CLR 13/08 A3022 40 69 -100 000/00 RMK AO2
63870K0J4 0J420160405073509404/05/16 07:35:31  5-MIN K0J4 051235Z AUTO VRB03KT 10SM CLR 14/08 A3022 40 66 0 VRB/03 RMK AO2
63870K0J4 0J420160405074009404/05/16 07:40:31  5-MIN K0J4 051240Z AUTO 36004KT 10SM CLR 14/08 A3022 40 66 0 360/04 RMK AO2
63870K0J4 0J420160405074509404/05/16 07:45:31  5-MIN K0J4 051245Z AUTO 35004KT 10SM CLR 14/08 A3022 40 66 0 350/04 RMK AO2
63870K0J4 0J420160405075009404/05/16 07:50:31  5-MIN K0J4 051250Z AUTO VRB04KT 10SM CLR 14/08 A3022 40 66 0 VRB/04 RMK AO2
63870K0J4 0J420160405075511104/05/16 07:55:31  5-MIN K0J4 051255Z AUTO 01004KT 10SM CLR 14/08 A3022 40 64 0 010/04 RMK AO2 SLP232 T01440078
63870K0J4 0J420160405080009404/05/16 08:00:31  5-MIN K0J4 051300Z AUTO 36004KT 10SM CLR 14/08 A3022 40 64 0 360/04 RMK AO2
63870K0J4 0J420160405080509604/05/16 08:05:31  5-MIN K0J4 051305Z AUTO 01004KT 10SM CLR 15/08 A3022 40 62 100 010/04 RMK AO2
63870K0J4 0J420160405081009604/05/16 08:10:31  5-MIN K0J4 051310Z AUTO 01004KT 10SM CLR 15/08 A3023 40 64 100 010/04 RMK AO2
63870K0J4 0J420160405081509604/05/16 08:15:31  5-MIN K0J4 051315Z AUTO 01005KT 10SM CLR 16/08 A3023 30 62 100 010/05 RMK AO2
63870K0J4 0J420160405082009604/05/16 08:20:31  5-MIN K0J4 051320Z AUTO 03005KT 10SM CLR 16/08 A3023 30 62 100 030/05 RMK AO2
63870K0J4 0J420160405082509604/05/16 08:25:31  5-MIN K0J4 051325Z AUTO 02006KT 10SM CLR 16/09 A3023 30 64 100 020/06 RMK AO2
63870K0J4 0J420160405083009604/05/16 08:30:31  5-MIN K0J4 051330Z AUTO 02006KT 10SM CLR 16/08 A3023 30 59 200 020/06 RMK AO2
63870K0J4 0J420160405083509604/05/16 08:35:31  5-MIN K0J4 051335Z AUTO 01007KT 10SM CLR 16/09 A3023 30 62 200 010/07 RMK AO2
63870K0J4 0J420160405084009604/05/16 08:40:31  5-MIN K0J4 051340Z AUTO 03005KT 10SM CLR 17/08 A3023 30 57 300 030/05 RMK AO2
63870K0J4 0J420160405084510204/05/16 08:45:31  5-MIN K0J4 051345Z AUTO 03009G14KT 10SM CLR 17/08 A3023 30 53 300 030/09G14 RMK AO2
63870K0J4 0J420160405085010204/05/16 08:50:31  5-MIN K0J4 051350Z AUTO 03010G15KT 10SM CLR 17/07 A3023 30 51 300 030/10G15 RMK AO2
63870K0J4 0J420160405085511904/05/16 08:55:31  5-MIN K0J4 051355Z AUTO 03010G15KT 10SM CLR 18/06 A3023 30 46 400 030/10G15 RMK AO2 SLP235 T01780061
63870K0J4 0J420160405090010204/05/16 09:00:31  5-MIN K0J4 051400Z AUTO 03010G15KT 10SM CLR 18/06 A3023 30 42 500 030/10G15 RMK AO2
63870K0J4 0J420160405090509604/05/16 09:05:31  5-MIN K0J4 051405Z AUTO 02008KT 10SM CLR 18/05 A3023 30 41 500 020/08 RMK AO2
63870K0J4 0J420160405091009604/05/16 09:10:31  5-MIN K0J4 051410Z AUTO 04010KT 10SM CLR 19/04 A3023 30 38 500 040/10 RMK AO2
63870K0J4 0J420160405091509604/05/16 09:15:31  5-MIN K0J4 051415Z AUTO 04008KT 10SM CLR 19/04 A3023 30 38 500 040/08 RMK AO2
63870K0J4 0J420160405092009604/05/16 09:20:31  5-MIN K0J4 051420Z AUTO 03009KT 10SM CLR 19/04 A3024 30 38 500 030/09 RMK AO2
63870K0J4 0J420160405092509604/05/16 09:25:31  5-MIN K0J4 051425Z AUTO 04010KT 10SM CLR 19/04 A3024 30 36 500 040/10 RMK AO2
63870K0J4 0J420160405093009604/05/16 09:30:31  5-MIN K0J4 051430Z AUTO 04009KT 10SM CLR 19/03 A3024 20 34 600 040/09 RMK AO2
63870K0J4 0J420160405093509604/05/16 09:35:31  5-MIN K0J4 051435Z AUTO 02010KT 10SM CLR 20/04 A3024 20 34 700 020/10 RMK AO2
63870K0J4 0J420160405094009604/05/16 09:40:31  5-MIN K0J4 051440Z AUTO 04011KT 10SM CLR 19/03 A3024 20 33 600 040/11 RMK AO2
63870K0J4 0J420160405094509604/05/16 09:45:31  5-MIN K0J4 051445Z AUTO 04009KT 10SM CLR 19/03 A3024 20 34 600 040/09 RMK AO2
63870K0J4 0J420160405095009604/05/16 09:50:31  5-MIN K0J4 051450Z AUTO 03011KT 10SM CLR 20/04 A3024 20 34 600 030/11 RMK AO2
63870K0J4 0J420160405095511904/05/16 09:55:31  5-MIN K0J4 051455Z AUTO 05010KT 10SM CLR 20/04 A3025 20 34 600 050/10 RMK AO2 SLP239 T02000039 53021
63870K0J4 0J420160405100009604/05/16 10:00:31  5-MIN K0J4 051500Z AUTO 04009KT 10SM CLR 20/04 A3025 10 34 600 040/09 RMK AO2
63870K0J4 0J420160405100510204/05/16 10:05:31  5-MIN K0J4 051505Z AUTO 05010G15KT 10SM CLR 21/04 A3025 10 33 700 050/10G15 RMK AO2
63870K0J4 0J420160405101010204/05/16 10:10:31  5-MIN K0J4 051510Z AUTO 03010G15KT 10SM CLR 21/04 A3025 10 33 700 030/10G15 RMK AO2
63870K0J4 0J420160405101509604/05/16 10:15:31  5-MIN K0J4 051515Z AUTO 04008KT 10SM CLR 21/04 A3025 10 32 800 040/08 RMK AO2
63870K0J4 0J420160405102009604/05/16 10:20:31  5-MIN K0J4 051520Z AUTO 02009KT 10SM CLR 21/04 A3025 10 32 800 020/09 RMK AO2
63870K0J4 0J420160405102511204/05/16 10:25:31  5-MIN K0J4 051525Z AUTO 03007KT 360V060 10SM CLR 21/04 A3025 10 33 800 030/07 360V060 RMK AO2
63870K0J4 0J420160405103009604/05/16 10:30:31  5-MIN K0J4 051530Z AUTO 02009KT 10SM CLR 22/04 A3025 10 32 800 020/09 RMK AO2
63870K0J4 0J420160405103509604/05/16 10:35:31  5-MIN K0J4 051535Z AUTO 03008KT 10SM CLR 22/04 A3025 10 32 800 030/08 RMK AO2
63870K0J4 0J420160405104009604/05/16 10:40:31  5-MIN K0J4 051540Z AUTO 03007KT 10SM CLR 22/04 A3025 10 31 800 030/07 RMK AO2
63870K0J4 0J420160405104509604/05/16 10:45:31  5-MIN K0J4 051545Z AUTO 04008KT 10SM CLR 22/05 A3025 10 33 800 040/08 RMK AO2
63870K0J4 0J420160405105009604/05/16 10:50:31  5-MIN K0J4 051550Z AUTO 04007KT 10SM CLR 22/05 A3025 10 33 800 040/07 RMK AO2
63870K0J4 0J420160405105511304/05/16 10:55:31  5-MIN K0J4 051555Z AUTO 04007KT 10SM CLR 22/05 A3025 10 32 900 040/07 RMK AO2 SLP241 T02220050
63870K0J4 0J420160405110009604/05/16 11:00:31  5-MIN K0J4 051600Z AUTO 05009KT 10SM CLR 22/05 A3025 10 32 900 050/09 RMK AO2
63870K0J4 0J420160405110509604/05/16 11:05:31  5-MIN K0J4 051605Z AUTO 36009KT 10SM CLR 22/04 A3025 10 30 900 360/09 RMK AO2
63870K0J4 0J420160405111009704/05/16 11:10:31  5-MIN K0J4 051610Z AUTO 02007KT 10SM CLR 23/04 A3025 10 29 1000 020/07 RMK AO2
63870K0J4 0J420160405111509704/05/16 11:15:31  5-MIN K0J4 051615Z AUTO 01008KT 10SM CLR 23/03 A3025 10 27 1000 010/08 RMK AO2
63870K0J4 0J420160405112010304/05/16 11:20:31  5-MIN K0J4 051620Z AUTO 03011G17KT 10SM CLR 23/03 A3025 10 27 1000 030/11G17 RMK AO2
63870K0J4 0J420160405112509704/05/16 11:25:31  5-MIN K0J4 051625Z AUTO 03011KT 10SM CLR 23/04 A3025 20 29 1000 030/11 RMK AO2
63870K0J4 0J420160405113010304/05/16 11:30:31  5-MIN K0J4 051630Z AUTO 03009G16KT 10SM CLR 23/04 A3025 10 30 1000 030/09G16 RMK AO2
63870K0J4 0J420160405113510304/05/16 11:35:31  5-MIN K0J4 051635Z AUTO 03013G16KT 10SM CLR 23/04 A3024 20 28 1000 030/13G16 RMK AO2
63870K0J4 0J420160405114010304/05/16 11:40:31  5-MIN K0J4 051640Z AUTO 02011G16KT 10SM CLR 23/04 A3024 20 29 1000 020/11G16 RMK AO2
63870K0J4 0J420160405114509704/05/16 11:45:31  5-MIN K0J4 051645Z AUTO 04008KT 10SM CLR 23/04 A3024 20 29 1000 040/08 RMK AO2
63870K0J4 0J420160405115010304/05/16 11:50:31  5-MIN K0J4 051650Z AUTO 36010G15KT 10SM CLR 23/04 A3024 20 29 1000 360/10G15 RMK AO2
63870K0J4 0J420160405115512004/05/16 11:55:31  5-MIN K0J4 051655Z AUTO 36008G15KT 10SM CLR 24/04 A3024 20 28 1100 360/08G15 RMK AO2 SLP236 T02390044
63870K0J4 0J420160405120010304/05/16 12:00:31  5-MIN K0J4 051700Z AUTO 03011G15KT 10SM CLR 24/04 A3023 30 28 1100 030/11G15 RMK AO2
63870K0J4 0J420160405120510304/05/16 12:05:31  5-MIN K0J4 051705Z AUTO 02009G16KT 10SM CLR 23/03 A3024 30 26 1000 020/09G16 RMK AO2
63870K0J4 0J420160405121011904/05/16 12:10:31  5-MIN K0J4 051710Z AUTO 36007G16KT 220V050 10SM CLR 24/03 A3023 30 26 1100 360/07G16 220V050 RMK AO2
63870K0J4 0J420160405121510304/05/16 12:15:31  5-MIN K0J4 051715Z AUTO 03014G18KT 10SM CLR 24/04 A3023 30 27 1100 030/14G18 RMK AO2
63870K0J4 0J420160405122010304/05/16 12:20:31  5-MIN K0J4 051720Z AUTO 36009G18KT 10SM CLR 24/03 A3023 30 26 1100 360/09G18 RMK AO2
63870K0J4 0J420160405122510304/05/16 12:25:31  5-MIN K0J4 051725Z AUTO 01009G17KT 10SM CLR 24/03 A3023 30 25 1100 010/09G17 RMK AO2
63870K0J4 0J420160405123010304/05/16 12:30:31  5-MIN K0J4 051730Z AUTO 03010G17KT 10SM CLR 24/03 A3023 30 25 1200 030/10G17 RMK AO2
63870K0J4 0J420160405123510304/05/16 12:35:31  5-MIN K0J4 051735Z AUTO 02012G17KT 10SM CLR 24/03 A3023 30 25 1200 020/12G17 RMK AO2
63870K0J4 0J420160405124010304/05/16 12:40:31  5-MIN K0J4 051740Z AUTO 02009G17KT 10SM CLR 24/03 A3023 30 24 1200 020/09G17 RMK AO2
63870K0J4 0J420160405124511304/05/16 12:45:31  5-MIN K0J4 051745Z AUTO 03010KT 360V060 10SM CLR 24/03 A3022 40 24 1200 030/10 360V060 RMK AO2
63870K0J4 0J420160405125009704/05/16 12:50:31  5-MIN K0J4 051750Z AUTO 02011KT 10SM CLR 24/03 A3022 40 25 1200 020/11 RMK AO2
63870K0J4 0J420160405125515404/05/16 12:55:31  5-MIN K0J4 051755Z AUTO 01008G16KT 340V040 10SM CLR 24/03 A3022 40 24 1200 010/08G16 340V040 RMK AO2 SLP231 T02440028 10244 20122 51016
63870K0J4 0J420160405130010304/05/16 13:00:31  5-MIN K0J4 051800Z AUTO 03012G15KT 10SM CLR 24/03 A3022 40 24 1200 030/12G15 RMK AO2
63870K0J4 0J420160405130510304/05/16 13:05:31  5-MIN K0J4 051805Z AUTO 04011G17KT 10SM CLR 24/03 A3022 40 24 1200 040/11G17 RMK AO2
63870K0J4 0J420160405131010304/05/16 13:10:31  5-MIN K0J4 051810Z AUTO 02009G17KT 10SM CLR 24/03 A3022 40 24 1200 020/09G17 RMK AO2
63870K0J4 0J420160405131510304/05/16 13:15:31  5-MIN K0J4 051815Z AUTO 03010G17KT 10SM CLR 25/03 A3021 50 24 1300 030/10G17 RMK AO2
63870K0J4 0J420160405132010304/05/16 13:20:31  5-MIN K0J4 051820Z AUTO 04010G17KT 10SM CLR 25/03 A3021 50 24 1300 040/10G17 RMK AO2
63870K0J4 0J420160405132510304/05/16 13:25:31  5-MIN K0J4 051825Z AUTO 03008G17KT 10SM CLR 25/03 A3021 50 23 1300 030/08G17 RMK AO2
63870K0J4 0J420160405133011904/05/16 13:30:31  5-MIN K0J4 051830Z AUTO 03014G20KT 340V050 10SM CLR 25/03 A3021 50 24 1300 030/14G20 340V050 RMK AO2
63870K0J4 0J420160405133510304/05/16 13:35:31  5-MIN K0J4 051835Z AUTO 04013G20KT 10SM CLR 25/03 A3021 50 24 1300 040/13G20 RMK AO2
63870K0J4 0J420160405134009704/05/16 13:40:31  5-MIN K0J4 051840Z AUTO 03010KT 10SM CLR 25/03 A3021 50 23 1300 030/10 RMK AO2
63870K0J4 0J420160405134510304/05/16 13:45:31  5-MIN K0J4 051845Z AUTO 03008G19KT 10SM CLR 26/03 A3020 60 23 1300 030/08G19 RMK AO2
63870K0J4 0J420160405135010304/05/16 13:50:31  5-MIN K0J4 051850Z AUTO 03008G19KT 10SM CLR 26/03 A3020 60 23 1300 030/08G19 RMK AO2
63870K0J4 0J420160405135511404/05/16 13:55:31  5-MIN K0J4 051855Z AUTO 35005KT 10SM CLR 26/02 A3020 60 21 1300 350/05 RMK AO2 SLP223 T02560022
63870K0J4 0J420160405140010304/05/16 14:00:31  5-MIN K0J4 051900Z AUTO 36009G19KT 10SM CLR 26/02 A3020 60 21 1300 360/09G19 RMK AO2
63870K0J4 0J420160405140510304/05/16 14:05:31  5-MIN K0J4 051905Z AUTO 01008G19KT 10SM CLR 26/03 A3020 60 22 1300 010/08G19 RMK AO2
63870K0J4 0J420160405141010304/05/16 14:10:31  5-MIN K0J4 051910Z AUTO 01013G19KT 10SM CLR 26/02 A3020 60 21 1300 010/13G19 RMK AO2
63870K0J4 0J420160405141510304/05/16 14:15:31  5-MIN K0J4 051915Z AUTO 03011G19KT 10SM CLR 26/02 A3019 60 21 1300 030/11G19 RMK AO2
63870K0J4 0J420160405142010304/05/16 14:20:31  5-MIN K0J4 051920Z AUTO 03012G17KT 10SM CLR 26/03 A3019 70 21 1400 030/12G17 RMK AO2
63870K0J4 0J420160405142511904/05/16 14:25:31  5-MIN K0J4 051925Z AUTO 36008G17KT 330V040 10SM CLR 26/04 A3019 70 23 1400 360/08G17 330V040 RMK AO2
63870K0J4 0J420160405143010304/05/16 14:30:31  5-MIN K0J4 051930Z AUTO 01012G18KT 10SM CLR 26/02 A3019 70 21 1300 010/12G18 RMK AO2
63870K0J4 0J420160405143511904/05/16 14:35:31  5-MIN K0J4 051935Z AUTO 02010G18KT 350V060 10SM CLR 26/02 A3019 70 21 1400 020/10G18 350V060 RMK AO2
63870K0J4 0J420160405144010304/05/16 14:40:31  5-MIN K0J4 051940Z AUTO 03013G18KT 10SM CLR 26/03 A3019 70 21 1400 030/13G18 RMK AO2
63870K0J4 0J420160405144510304/05/16 14:45:31  5-MIN K0J4 051945Z AUTO 01007G18KT 10SM CLR 26/03 A3019 70 22 1300 010/07G18 RMK AO2
63870K0J4 0J420160405145010304/05/16 14:50:31  5-MIN K0J4 051950Z AUTO 36010G18KT 10SM CLR 26/02 A3018 70 21 1400 360/10G18 RMK AO2
63870K0J4 0J420160405145512004/05/16 14:55:31  5-MIN K0J4 051955Z AUTO 03009G16KT 10SM CLR 26/02 A3018 80 21 1400 030/09G16 RMK AO2 SLP217 T02560022
63870K0J4 0J420160405150011904/05/16 15:00:31  5-MIN K0J4 052000Z AUTO 35007G17KT 320V030 10SM CLR 26/02 A3018 80 21 1400 350/07G17 320V030 RMK AO2
63870K0J4 0J420160405150511904/05/16 15:05:31  5-MIN K0J4 052005Z AUTO 34007G17KT 290V010 10SM CLR 26/02 A3018 80 20 1400 340/07G17 290V010 RMK AO2
63870K0J4 0J420160405151010304/05/16 15:10:31  5-MIN K0J4 052010Z AUTO 36008G14KT 10SM CLR 26/02 A3017 80 21 1400 360/08G14 RMK AO2
63870K0J4 0J420160405151511904/05/16 15:15:31  5-MIN K0J4 052015Z AUTO 33008G14KT 300V360 10SM CLR 26/02 A3017 90 21 1400 330/08G14 300V360 RMK AO2
63870K0J4 0J420160405152010304/05/16 15:20:31  5-MIN K0J4 052020Z AUTO 03009G16KT 10SM CLR 26/02 A3017 90 21 1400 030/09G16 RMK AO2
63870K0J4 0J420160405152510304/05/16 15:25:31  5-MIN K0J4 052025Z AUTO 01006G16KT 10SM CLR 26/02 A3017 90 21 1400 010/06G16 RMK AO2
63870K0J4 0J420160405153010304/05/16 15:30:31  5-MIN K0J4 052030Z AUTO 03013G20KT 10SM CLR 26/02 A3016 90 20 1400 030/13G20 RMK AO2
63870K0J4 0J420160405153513704/05/16 15:35:31  5-MIN K0J4 052035Z AUTO 36010G26KT 310V020 10SM CLR 26/01 A3017 90 19 1400 360/10G26 310V020 RMK AO2 PK WND 01026/2031
63870K0J4 0J420160405154012104/05/16 15:40:31  5-MIN K0J4 052040Z AUTO 36005G26KT 10SM CLR 26/00 A3017 90 18 1400 360/05G26 RMK AO2 PK WND 01026/2031
63870K0J4 0J420160405154511504/05/16 15:45:31  5-MIN K0J4 052045Z AUTO 36008KT 10SM CLR 26/00 A3017 90 18 1400 360/08 RMK AO2 PK WND 01026/2031
63870K0J4 0J420160405155013704/05/16 15:50:31  5-MIN K0J4 052050Z AUTO 35008G14KT 320V020 10SM CLR 26/01 A3017 90 18 1400 350/08G14 320V020 RMK AO2 PK WND 01026/2031
63870K0J4 0J420160405155513904/05/16 15:55:31  5-MIN K0J4 052055Z AUTO 35008KT 10SM CLR 26/M01 A3017 90 17 1400 350/08 RMK AO2 PK WND 01026/2031 SLP213 T02561011 58009
63870K0J4 0J420160405160009804/05/16 16:00:31  5-MIN K0J4 052100Z AUTO VRB05KT 10SM CLR 26/M01 A3016 90 17 1400 VRB/05 RMK AO2
63870K0J4 0J420160405160509804/05/16 16:05:31  5-MIN K0J4 052105Z AUTO 36008KT 10SM CLR 26/M01 A3016 90 17 1400 360/08 RMK AO2
63870K0J4 0J420160405161009704/05/16 16:10:31  5-MIN K0J4 052110Z AUTO 03009KT 10SM CLR 26/00 A3016 90 18 1400 030/09 RMK AO2
63870K0J4 0J420160405161511304/05/16 16:15:31  5-MIN K0J4 052115Z AUTO 36008KT 310V020 10SM CLR 26/00 A3016 90 18 1400 360/08 310V020 RMK AO2
63870K0J4 0J420160405162009704/05/16 16:20:31  5-MIN K0J4 052120Z AUTO 36009KT 10SM CLR 26/00 A3017 90 18 1400 360/09 RMK AO2
63870K0J4 0J420160405162509804/05/16 16:25:31  5-MIN K0J4 052125Z AUTO 01007KT 10SM CLR 26/M01 A3016 90 17 1400 010/07 RMK AO2
63870K0J4 0J420160405163009704/05/16 16:30:31  5-MIN K0J4 052130Z AUTO VRB04KT 10SM CLR 26/00 A3017 90 18 1400 VRB/04 RMK AO2
63870K0J4 0J420160405163509804/05/16 16:35:31  5-MIN K0J4 052135Z AUTO 02007KT 10SM CLR 26/M01 A3016 90 17 1400 020/07 RMK AO2
63870K0J4 0J420160405164009704/05/16 16:40:31  5-MIN K0J4 052140Z AUTO 02008KT 10SM CLR 26/00 A3016 90 18 1400 020/08 RMK AO2
63870K0J4 0J420160405164510404/05/16 16:45:31  5-MIN K0J4 052145Z AUTO 03009G14KT 10SM CLR 26/M01 A3016 90 17 1400 030/09G14 RMK AO2
63870K0J4 0J420160405165010404/05/16 16:50:31  5-MIN K0J4 052150Z AUTO VRB06G14KT 10SM CLR 26/M01 A3016 90 17 1400 VRB/06G14 RMK AO2
63870K0J4 0J420160405165511504/05/16 16:55:31  5-MIN K0J4 052155Z AUTO 02005KT 10SM CLR 26/M01 A3017 90 17 1400 020/05 RMK AO2 SLP212 T02561011
63870K0J4 0J420160405170009804/05/16 17:00:31  5-MIN K0J4 052200Z AUTO 36006KT 10SM CLR 26/M02 A3017 90 16 1400 360/06 RMK AO2
63870K0J4 0J420160405170509804/05/16 17:05:31  5-MIN K0J4 052205Z AUTO 36008KT 10SM CLR 25/M02 A3016 90 16 1300 360/08 RMK AO2
63870K0J4 0J420160405171009804/05/16 17:10:31  5-MIN K0J4 052210Z AUTO 01008KT 10SM CLR 25/M02 A3016 90 16 1300 010/08 RMK AO2
63870K0J4 0J420160405171509804/05/16 17:15:31  5-MIN K0J4 052215Z AUTO VRB04KT 10SM CLR 25/M03 A3016 90 15 1300 VRB/04 RMK AO2
63870K0J4 0J420160405172009804/05/16 17:20:31  5-MIN K0J4 052220Z AUTO VRB06KT 10SM CLR 25/M02 A3016 90 17 1300 VRB/06 RMK AO2
63870K0J4 0J420160405172509804/05/16 17:25:31  5-MIN K0J4 052225Z AUTO 36005KT 10SM CLR 25/M02 A3016 90 16 1300 360/05 RMK AO2
63870K0J4 0J420160405173009804/05/16 17:30:31  5-MIN K0J4 052230Z AUTO 02007KT 10SM CLR 25/M01 A3016 90 17 1300 020/07 RMK AO2
63870K0J4 0J420160405173509804/05/16 17:35:31  5-MIN K0J4 052235Z AUTO VRB06KT 10SM CLR 25/M02 A3017 90 16 1300 VRB/06 RMK AO2
63870K0J4 0J420160405174009804/05/16 17:40:31  5-MIN K0J4 052240Z AUTO 02006KT 10SM CLR 24/M01 A3017 90 19 1200 020/06 RMK AO2
63870K0J4 0J420160405174509704/05/16 17:45:31  5-MIN K0J4 052245Z AUTO 03007KT 10SM CLR 24/01 A3017 90 20 1200 030/07 RMK AO2
63870K0J4 0J420160405175009704/05/16 17:50:31  5-MIN K0J4 052250Z AUTO 04005KT 10SM CLR 24/00 A3017 90 19 1200 040/05 RMK AO2
63870K0J4 0J420160405175511504/05/16 17:55:31  5-MIN K0J4 052255Z AUTO 03007KT 10SM CLR 24/M01 A3017 90 19 1200 030/07 RMK AO2 SLP213 T02441006
63870K0J4 0J420160405180009804/05/16 18:00:31  5-MIN K0J4 052300Z AUTO 02005KT 10SM CLR 24/M01 A3017 90 19 1200 020/05 RMK AO2
63870K0J4 0J420160405180509804/05/16 18:05:31  5-MIN K0J4 052305Z AUTO 03006KT 10SM CLR 23/M01 A3017 90 20 1100 030/06 RMK AO2
63870K0J4 0J420160405181009704/05/16 18:10:31  5-MIN K0J4 052310Z AUTO 03004KT 10SM CLR 23/00 A3017 80 21 1100 030/04 RMK AO2
63870K0J4 0J420160405181509704/05/16 18:15:31  5-MIN K0J4 052315Z AUTO 02004KT 10SM CLR 22/01 A3017 90 24 1000 020/04 RMK AO2
63870K0J4 0J420160405182009704/05/16 18:20:31  5-MIN K0J4 052320Z AUTO 02003KT 10SM CLR 22/01 A3017 80 23 1000 020/03 RMK AO2
63870K0J4 0J420160405182509604/05/16 18:25:31  5-MIN K0J4 052325Z AUTO 02003KT 10SM CLR 22/01 A3018 80 25 900 020/03 RMK AO2
63870K0J4 0J420160405183009604/05/16 18:30:31  5-MIN K0J4 052330Z AUTO 00000KT 10SM CLR 22/01 A3018 80 24 900 000/00 RMK AO2
63870K0J4 0J420160405183509604/05/16 18:35:31  5-MIN K0J4 052335Z AUTO 00000KT 10SM CLR 22/01 A3017 80 25 900 000/00 RMK AO2
63870K0J4 0J420160405184009604/05/16 18:40:31  5-MIN K0J4 052340Z AUTO 00000KT 10SM CLR 22/01 A3017 80 25 900 000/00 RMK AO2
63870K0J4 0J420160405184509604/05/16 18:45:31  5-MIN K0J4 052345Z AUTO 00000KT 10SM CLR 21/02 A3017 80 27 900 000/00 RMK AO2
63870K0J4 0J420160405185009604/05/16 18:50:31  5-MIN K0J4 052350Z AUTO 00000KT 10SM CLR 21/03 A3017 80 30 800 000/00 RMK AO2
63870K0J4 0J420160405185513104/05/16 18:55:31  5-MIN K0J4 052355Z AUTO 00000KT 10SM CLR 19/04 A3017 80 35 700 000/00 RMK AO2 SLP215 T01940039 10261 20194 56018
63870K0J4 0J420160405190009604/05/16 19:00:31  5-MIN K0J4 060000Z AUTO 00000KT 10SM CLR 19/04 A3017 90 38 600 000/00 RMK AO2
63870K0J4 0J420160405190509604/05/16 19:05:31  5-MIN K0J4 060005Z AUTO 00000KT 10SM CLR 17/07 A3017 90 49 400 000/00 RMK AO2
63870K0J4 0J420160405191009604/05/16 19:10:31  5-MIN K0J4 060010Z AUTO 00000KT 10SM CLR 17/06 A3017 90 47 400 000/00 RMK AO2
63870K0J4 0J420160405191509604/05/16 19:15:31  5-MIN K0J4 060015Z AUTO 00000KT 10SM CLR 16/07 A3017 90 53 300 000/00 RMK AO2
63870K0J4 0J420160405192009604/05/16 19:20:31  5-MIN K0J4 060020Z AUTO 00000KT 10SM CLR 16/07 A3017 90 53 300 000/00 RMK AO2
63870K0J4 0J420160405192509604/05/16 19:25:31  5-MIN K0J4 060025Z AUTO 00000KT 10SM CLR 16/07 A3017 80 53 300 000/00 RMK AO2
63870K0J4 0J420160405193009604/05/16 19:30:31  5-MIN K0J4 060030Z AUTO 00000KT 10SM CLR 16/07 A3017 80 57 200 000/00 RMK AO2
63870K0J4 0J420160405193509604/05/16 19:35:31  5-MIN K0J4 060035Z AUTO 00000KT 10SM CLR 15/07 A3017 80 59 100 000/00 RMK AO2
63870K0J4 0J420160405194009604/05/16 19:40:31  5-MIN K0J4 060040Z AUTO 00000KT 10SM CLR 15/07 A3017 80 59 100 000/00 RMK AO2
63870K0J4 0J420160405194509604/05/16 19:45:31  5-MIN K0J4 060045Z AUTO 00000KT 10SM CLR 15/08 A3018 80 62 100 000/00 RMK AO2
63870K0J4 0J420160405195009604/05/16 19:50:31  5-MIN K0J4 060050Z AUTO 00000KT 10SM CLR 14/08 A3018 80 66 100 000/00 RMK AO2
63870K0J4 0J420160405195511104/05/16 19:55:31  5-MIN K0J4 060055Z AUTO 00000KT 10SM CLR 14/08 A3018 80 66 0 000/00 RMK AO2 SLP218 T01390078
63870K0J4 0J420160405200009604/05/16 20:00:31  5-MIN K0J4 060100Z AUTO 00000KT 10SM CLR 14/07 A3018 80 61 100 000/00 RMK AO2
63870K0J4 0J420160405200509404/05/16 20:05:31  5-MIN K0J4 060105Z AUTO 00000KT 10SM CLR 14/07 A3018 80 61 0 000/00 RMK AO2
63870K0J4 0J420160405201009404/05/16 20:10:31  5-MIN K0J4 060110Z AUTO 00000KT 10SM CLR 14/06 A3018 80 59 0 000/00 RMK AO2
63870K0J4 0J420160405201509404/05/16 20:15:31  5-MIN K0J4 060115Z AUTO 00000KT 10SM CLR 13/07 A3018 80 64 0 000/00 RMK AO2
63870K0J4 0J420160405202009404/05/16 20:20:31  5-MIN K0J4 060120Z AUTO 00000KT 10SM CLR 13/06 A3018 80 61 0 000/00 RMK AO2
63870K0J4 0J420160405202509704/05/16 20:25:31  5-MIN K0J4 060125Z AUTO 01003KT 10SM CLR 13/06 A3018 80 63 -100 010/03 RMK AO2
63870K0J4 0J420160405203009704/05/16 20:30:31  5-MIN K0J4 060130Z AUTO 02004KT 10SM CLR 13/06 A3018 80 61 -100 020/04 RMK AO2
63870K0J4 0J420160405203509404/05/16 20:35:31  5-MIN K0J4 060135Z AUTO 02003KT 10SM CLR 13/06 A3018 80 59 0 020/03 RMK AO2
63870K0J4 0J420160405204009704/05/16 20:40:31  5-MIN K0J4 060140Z AUTO 02003KT 10SM CLR 12/07 A3018 70 68 -100 020/03 RMK AO2
63870K0J4 0J420160405204509704/05/16 20:45:31  5-MIN K0J4 060145Z AUTO 02003KT 10SM CLR 12/06 A3018 70 66 -100 020/03 RMK AO2
63870K0J4 0J420160405205009704/05/16 20:50:31  5-MIN K0J4 060150Z AUTO 02003KT 10SM CLR 13/06 A3018 70 61 -100 020/03 RMK AO2
63870K0J4 0J420160405205511404/05/16 20:55:31  5-MIN K0J4 060155Z AUTO 03003KT 10SM CLR 12/06 A3018 70 66 -200 030/03 RMK AO2 SLP218 T01220061
63870K0J4 0J420160405210009704/05/16 21:00:31  5-MIN K0J4 060200Z AUTO 03003KT 10SM CLR 12/06 A3019 70 66 -200 030/03 RMK AO2
63870K0J4 0J420160405210509404/05/16 21:05:31  5-MIN K0J4 060205Z AUTO 02003KT 10SM CLR 13/04 A3019 70 52 0 020/03 RMK AO2
63870K0J4 0J420160405211009704/05/16 21:10:31  5-MIN K0J4 060210Z AUTO 03003KT 10SM CLR 13/05 A3018 70 59 -100 030/03 RMK AO2
63870K0J4 0J420160405211509604/05/16 21:15:31  5-MIN K0J4 060215Z AUTO 03004KT 10SM CLR 14/02 A3018 70 43 100 030/04 RMK AO2
63870K0J4 0J420160405212009604/05/16 21:20:31  5-MIN K0J4 060220Z AUTO 02003KT 10SM CLR 16/00 A3018 70 33 300 020/03 RMK AO2
63870K0J4 0J420160405212509604/05/16 21:25:31  5-MIN K0J4 060225Z AUTO 02003KT 10SM CLR 14/02 A3018 70 43 100 020/03 RMK AO2
63870K0J4 0J420160405213009404/05/16 21:30:31  5-MIN K0J4 060230Z AUTO 00000KT 10SM CLR 14/03 A3019 70 47 0 000/00 RMK AO2
63870K0J4 0J420160405213509704/05/16 21:35:31  5-MIN K0J4 060235Z AUTO 02003KT 10SM CLR 13/04 A3019 70 56 -100 020/03 RMK AO2
63870K0J4 0J420160405214009404/05/16 21:40:31  5-MIN K0J4 060240Z AUTO 02003KT 10SM CLR 13/04 A3019 70 52 0 020/03 RMK AO2
63870K0J4 0J420160405214509704/05/16 21:45:31  5-MIN K0J4 060245Z AUTO 03003KT 10SM CLR 13/04 A3018 70 54 -100 030/03 RMK AO2
63870K0J4 0J420160405215009704/05/16 21:50:31  5-MIN K0J4 060250Z AUTO 04003KT 10SM CLR 12/05 A3019 70 63 -200 040/03 RMK AO2
63870K0J4 0J420160405215512004/05/16 21:55:31  5-MIN K0J4 060255Z AUTO 03003KT 10SM CLR 12/06 A3019 70 66 -200 030/03 RMK AO2 SLP220 T01170056 52002
63870K0J4 0J420160405220009404/05/16 22:00:31  5-MIN K0J4 060300Z AUTO 03003KT 10SM CLR 14/03 A3019 70 47 0 030/03 RMK AO2
63870K0J4 0J420160405220509704/05/16 22:05:31  5-MIN K0J4 060305Z AUTO 00000KT 10SM CLR 12/04 A3019 70 59 -200 000/00 RMK AO2
63870K0J4 0J420160405221009704/05/16 22:10:31  5-MIN K0J4 060310Z AUTO 00000KT 10SM CLR 12/06 A3019 70 66 -200 000/00 RMK AO2
63870K0J4 0J420160405221509704/05/16 22:15:31  5-MIN K0J4 060315Z AUTO 01003KT 10SM CLR 13/04 A3020 60 56 -100 010/03 RMK AO2
63870K0J4 0J420160405222009704/05/16 22:20:31  5-MIN K0J4 060320Z AUTO 00000KT 10SM CLR 12/05 A3020 60 63 -200 000/00 RMK AO2
63870K0J4 0J420160405222509704/05/16 22:25:31  5-MIN K0J4 060325Z AUTO 00000KT 10SM CLR 12/06 A3020 60 68 -200 000/00 RMK AO2
63870K0J4 0J420160405223009704/05/16 22:30:31  5-MIN K0J4 060330Z AUTO 00000KT 10SM CLR 12/05 A3020 60 63 -200 000/00 RMK AO2
63870K0J4 0J420160405223509704/05/16 22:35:31  5-MIN K0J4 060335Z AUTO 00000KT 10SM CLR 12/05 A3020 60 63 -200 000/00 RMK AO2
63870K0J4 0J420160405224009704/05/16 22:40:31  5-MIN K0J4 060340Z AUTO 00000KT 10SM CLR 12/06 A3020 60 63 -200 000/00 RMK AO2
63870K0J4 0J420160405224509704/05/16 22:45:31  5-MIN K0J4 060345Z AUTO 00000KT 10SM CLR 12/06 A3020 60 68 -200 000/00 RMK AO2
63870K0J4 0J420160405225009704/05/16 22:50:31  5-MIN K0J4 060350Z AUTO 00000KT 10SM CLR 11/05 A3020 60 68 -400 000/00 RMK AO2
63870K0J4 0J420160405225511404/05/16 22:55:31  5-MIN K0J4 060355Z AUTO 00000KT 10SM CLR 12/05 A3020 60 63 -200 000/00 RMK AO2 SLP223 T01170050
63870K0J4 0J420160405230009704/05/16 23:00:31  5-MIN K0J4 060400Z AUTO 00000KT 10SM CLR 11/06 A3020 60 68 -300 000/00 RMK AO2
63870K0J4 0J420160405230509704/05/16 23:05:31  5-MIN K0J4 060405Z AUTO 00000KT 10SM CLR 11/05 A3020 60 68 -400 000/00 RMK AO2
63870K0J4 0J420160405231009704/05/16 23:10:31  5-MIN K0J4 060410Z AUTO 00000KT 10SM CLR 11/05 A3020 60 68 -400 000/00 RMK AO2
63870K0J4 0J420160405231509704/05/16 23:15:31  5-MIN K0J4 060415Z AUTO 00000KT 10SM CLR 11/05 A3019 70 68 -400 000/00 RMK AO2
63870K0J4 0J420160405232009704/05/16 23:20:31  5-MIN K0J4 060420Z AUTO 00000KT 10SM CLR 11/05 A3019 70 68 -400 000/00 RMK AO2
63870K0J4 0J420160405232509704/05/16 23:25:31  5-MIN K0J4 060425Z AUTO 04003KT 10SM CLR 11/05 A3019 70 68 -400 040/03 RMK AO2
63870K0J4 0J420160405233009704/05/16 23:30:31  5-MIN K0J4 060430Z AUTO 04003KT 10SM CLR 11/04 A3019 70 63 -300 040/03 RMK AO2
63870K0J4 0J420160405233509704/05/16 23:35:31  5-MIN K0J4 060435Z AUTO 05004KT 10SM CLR 12/04 A3019 70 58 -200 050/04 RMK AO2
63870K0J4 0J420160405234009704/05/16 23:40:31  5-MIN K0J4 060440Z AUTO 05005KT 10SM CLR 12/03 A3019 70 52 -200 050/05 RMK AO2
63870K0J4 0J420160405234509404/05/16 23:45:31  5-MIN K0J4 060445Z AUTO 06004KT 10SM CLR 13/01 A3019 70 43 0 060/04 RMK AO2
63870K0J4 0J420160405235009404/05/16 23:50:31  5-MIN K0J4 060450Z AUTO 05003KT 10SM CLR 14/01 A3019 70 41 0 050/03 RMK AO2
63870K0J4 0J420160405235512104/05/16 23:55:31  5-MIN K0J4 060455Z AUTO 05003KT 10SM CLR 14/01 A3019 70 41 0 050/03 RMK AO2 SLP221 T01390011 402610106
63870K0J4 0J420160406000009404/06/16 00:00:31  5-MIN K0J4 060500Z AUTO 05003KT 10SM CLR 13/02 A3019 70 45 0 050/03 RMK AO2
63870K0J4 0J420160406000509404/06/16 00:05:31  5-MIN K0J4 060505Z AUTO 05003KT 10SM CLR 13/02 A3019 70 45 0 050/03 RMK AO2
63870K0J4 0J420160406001009704/06/16 00:10:31  5-MIN K0J4 060510Z AUTO 05003KT 10SM CLR 13/02 A3019 70 48 -100 050/03 RMK AO2
63870K0J4 0J420160406001509704/06/16 00:15:31  5-MIN K0J4 060515Z AUTO 05003KT 10SM CLR 12/03 A3019 70 52 -200 050/03 RMK AO2
63870K0J4 0J420160406002009704/06/16 00:20:31  5-MIN K0J4 060520Z AUTO 00000KT 10SM CLR 12/04 A3019 70 56 -200 000/00 RMK AO2
63870K0J4 0J420160406002509704/06/16 00:25:31  5-MIN K0J4 060525Z AUTO 00000KT 10SM CLR 12/04 A3019 70 56 -200 000/00 RMK AO2
63870K0J4 0J420160406003009704/06/16 00:30:31  5-MIN K0J4 060530Z AUTO 05003KT 10SM CLR 12/03 A3019 70 52 -200 050/03 RMK AO2
63870K0J4 0J420160406003509704/06/16 00:35:31  5-MIN K0J4 060535Z AUTO 05003KT 10SM CLR 12/03 A3019 70 52 -200 050/03 RMK AO2
63870K0J4 0J420160406004009704/06/16 00:40:31  5-MIN K0J4 060540Z AUTO 04003KT 10SM CLR 12/03 A3019 70 52 -200 040/03 RMK AO2
63870K0J4 0J420160406004509704/06/16 00:45:31  5-MIN K0J4 060545Z AUTO 00000KT 10SM CLR 12/03 A3018 70 54 -200 000/00 RMK AO2
63870K0J4 0J420160406005009704/06/16 00:50:31  5-MIN K0J4 060550Z AUTO 05003KT 10SM CLR 11/03 A3018 70 58 -300 050/03 RMK AO2
63870K0J4 0J420160406005513204/06/16 00:55:31  5-MIN K0J4 060555Z AUTO 07004KT 10SM CLR 11/04 A3018 80 61 -300 070/04 RMK AO2 SLP217 T01110039 10189 20106 51006
63870K0J4 0J420160406010009704/06/16 01:00:31  5-MIN K0J4 060600Z AUTO 08004KT 10SM CLR 12/03 A3018 80 56 -200 080/04 RMK AO2
63870K0J4 0J420160406010509704/06/16 01:05:31  5-MIN K0J4 060605Z AUTO 09003KT 10SM CLR 12/03 A3018 80 52 -100 090/03 RMK AO2
63870K0J4 0J420160406011009704/06/16 01:10:31  5-MIN K0J4 060610Z AUTO 08005KT 10SM CLR 12/03 A3017 80 52 -100 080/05 RMK AO2
63870K0J4 0J420160406011509704/06/16 01:15:31  5-MIN K0J4 060615Z AUTO 08004KT 10SM CLR 12/03 A3017 80 52 -100 080/04 RMK AO2
63870K0J4 0J420160406012009704/06/16 01:20:31  5-MIN K0J4 060620Z AUTO 07003KT 10SM CLR 12/03 A3017 80 54 -100 070/03 RMK AO2
63870K0J4 0J420160406012509704/06/16 01:25:31  5-MIN K0J4 060625Z AUTO 07003KT 10SM CLR 13/02 A3017 80 48 -100 070/03 RMK AO2
63870K0J4 0J420160406013009704/06/16 01:30:31  5-MIN K0J4 060630Z AUTO 09003KT 10SM CLR 13/02 A3017 80 48 -100 090/03 RMK AO2
63870K0J4 0J420160406013509704/06/16 01:35:31  5-MIN K0J4 060635Z AUTO 00000KT 10SM CLR 13/02 A3017 80 48 -100 000/00 RMK AO2
63870K0J4 0J420160406014009704/06/16 01:40:31  5-MIN K0J4 060640Z AUTO 00000KT 10SM CLR 12/03 A3017 90 56 -200 000/00 RMK AO2
63870K0J4 0J420160406014509704/06/16 01:45:31  5-MIN K0J4 060645Z AUTO 00000KT 10SM CLR 11/03 A3017 90 58 -300 000/00 RMK AO2
63870K0J4 0J420160406015009704/06/16 01:50:31  5-MIN K0J4 060650Z AUTO 00000KT 10SM CLR 11/04 A3017 90 63 -300 000/00 RMK AO2
63870K0J4 0J420160406015511404/06/16 01:55:31  5-MIN K0J4 060655Z AUTO 08003KT 10SM CLR 11/04 A3017 90 66 -300 080/03 RMK AO2 SLP214 T01060044
63870K0J4 0J420160406020009704/06/16 02:00:31  5-MIN K0J4 060700Z AUTO 00000KT 10SM CLR 10/05 A3017 90 71 -400 000/00 RMK AO2
63870K0J4 0J420160406020509704/06/16 02:05:31  5-MIN K0J4 060705Z AUTO 00000KT 10SM CLR 09/06 A3017 90 76 -500 000/00 RMK AO2
63870K0J4 0J420160406021009704/06/16 02:10:31  5-MIN K0J4 060710Z AUTO 00000KT 10SM CLR 09/05 A3017 90 76 -500 000/00 RMK AO2
63870K0J4 0J420160406021509704/06/16 02:15:31  5-MIN K0J4 060715Z AUTO 08004KT 10SM CLR 10/04 A3017 90 68 -400 080/04 RMK AO2
63870K0J4 0J420160406022009704/06/16 02:20:31  5-MIN K0J4 060720Z AUTO 08004KT 10SM CLR 11/04 A3016 90 66 -300 080/04 RMK AO2
63870K0J4 0J420160406022509804/06/16 02:25:31  5-MIN K0J4 060725Z AUTO 08005KT 10SM CLR 12/03 A3016 100 56 -200 080/05 RMK AO2
63870K0J4 0J420160406023009704/06/16 02:30:31  5-MIN K0J4 060730Z AUTO 07004KT 10SM CLR 12/03 A3016 90 52 -100 070/04 RMK AO2
63870K0J4 0J420160406023509704/06/16 02:35:31  5-MIN K0J4 060735Z AUTO 08004KT 10SM CLR 12/03 A3016 90 52 -100 080/04 RMK AO2
63870K0J4 0J420160406024009704/06/16 02:40:31  5-MIN K0J4 060740Z AUTO 07003KT 10SM CLR 12/02 A3016 90 50 -100 070/03 RMK AO2
63870K0J4 0J420160406024509804/06/16 02:45:31  5-MIN K0J4 060745Z AUTO 08003KT 10SM CLR 12/03 A3016 100 52 -100 080/03 RMK AO2
63870K0J4 0J420160406025009704/06/16 02:50:31  5-MIN K0J4 060750Z AUTO 07003KT 10SM CLR 12/03 A3016 90 52 -100 070/03 RMK AO2
63870K0J4 0J420160406025511404/06/16 02:55:31  5-MIN K0J4 060755Z AUTO 00000KT 10SM CLR 13/02 A3016 90 48 -100 000/00 RMK AO2 SLP211 T01280022
63870K0J4 0J420160406030009704/06/16 03:00:31  5-MIN K0J4 060800Z AUTO 00000KT 10SM CLR 11/03 A3016 90 58 -300 000/00 RMK AO2
63870K0J4 0J420160406030509704/06/16 03:05:31  5-MIN K0J4 060805Z AUTO 00000KT 10SM CLR 10/03 A3016 90 63 -400 000/00 RMK AO2
63870K0J4 0J420160406031009704/06/16 03:10:31  5-MIN K0J4 060810Z AUTO 00000KT 10SM CLR 09/04 A3016 90 71 -500 000/00 RMK AO2
63870K0J4 0J420160406031509704/06/16 03:15:31  5-MIN K0J4 060815Z AUTO 00000KT 10SM CLR 09/04 A3016 90 68 -500 000/00 RMK AO2
63870K0J4 0J420160406032009704/06/16 03:20:31  5-MIN K0J4 060820Z AUTO 00000KT 10SM CLR 11/03 A3016 90 56 -300 000/00 RMK AO2
63870K0J4 0J420160406032509704/06/16 03:25:31  5-MIN K0J4 060825Z AUTO 00000KT 10SM CLR 11/03 A3016 90 58 -300 000/00 RMK AO2
63870K0J4 0J420160406033009804/06/16 03:30:31  5-MIN K0J4 060830Z AUTO 00000KT 10SM CLR 11/03 A3016 100 61 -300 000/00 RMK AO2
63870K0J4 0J420160406033509804/06/16 03:35:31  5-MIN K0J4 060835Z AUTO 00000KT 10SM CLR 11/03 A3016 100 58 -300 000/00 RMK AO2
63870K0J4 0J420160406034009804/06/16 03:40:31  5-MIN K0J4 060840Z AUTO 00000KT 10SM CLR 11/03 A3015 100 58 -200 000/00 RMK AO2
63870K0J4 0J420160406034509804/06/16 03:45:31  5-MIN K0J4 060845Z AUTO 00000KT 10SM CLR 11/03 A3015 100 58 -200 000/00 RMK AO2
63870K0J4 0J420160406035009804/06/16 03:50:31  5-MIN K0J4 060850Z AUTO 10003KT 10SM CLR 12/03 A3015 100 56 -200 100/03 RMK AO2
63870K0J4 0J420160406035512104/06/16 03:55:31  5-MIN K0J4 060855Z AUTO 09003KT 10SM CLR 12/03 A3015 100 56 -200 090/03 RMK AO2 SLP208 T01170033 58004
63870K0J4 0J420160406040009804/06/16 04:00:31  5-MIN K0J4 060900Z AUTO 09003KT 10SM CLR 12/03 A3015 100 56 -200 090/03 RMK AO2
63870K0J4 0J420160406040509804/06/16 04:05:31  5-MIN K0J4 060905Z AUTO 10003KT 10SM CLR 12/03 A3016 100 56 -200 100/03 RMK AO2
63870K0J4 0J420160406041009804/06/16 04:10:31  5-MIN K0J4 060910Z AUTO 09003KT 10SM CLR 11/04 A3016 100 61 -300 090/03 RMK AO2
63870K0J4 0J420160406041509804/06/16 04:15:31  5-MIN K0J4 060915Z AUTO 00000KT 10SM CLR 11/04 A3016 100 61 -300 000/00 RMK AO2
63870K0J4 0J420160406042009704/06/16 04:20:31  5-MIN K0J4 060920Z AUTO 10003KT 10SM CLR 11/04 A3016 90 61 -300 100/03 RMK AO2
63870K0J4 0J420160406042509704/06/16 04:25:31  5-MIN K0J4 060925Z AUTO 11003KT 10SM CLR 11/04 A3016 90 61 -300 110/03 RMK AO2
63870K0J4 0J420160406043009704/06/16 04:30:31  5-MIN K0J4 060930Z AUTO 11004KT 10SM CLR 11/04 A3017 90 63 -300 110/04 RMK AO2
63870K0J4 0J420160406043509704/06/16 04:35:31  5-MIN K0J4 060935Z AUTO 00000KT 10SM CLR 11/04 A3017 90 63 -300 000/00 RMK AO2
63870K0J4 0J420160406044009704/06/16 04:40:31  5-MIN K0J4 060940Z AUTO 11003KT 10SM CLR 11/04 A3017 90 66 -300 110/03 RMK AO2
63870K0J4 0J420160406044509704/06/16 04:45:31  5-MIN K0J4 060945Z AUTO VRB03KT 10SM CLR 11/05 A3017 90 68 -300 VRB/03 RMK AO2
63870K0J4 0J420160406045009704/06/16 04:50:31  5-MIN K0J4 060950Z AUTO 11003KT 10SM CLR 11/05 A3017 90 68 -300 110/03 RMK AO2
63870K0J4 0J420160406045511404/06/16 04:55:31  5-MIN K0J4 060955Z AUTO VRB03KT 10SM CLR 11/05 A3016 90 68 -300 VRB/03 RMK AO2 SLP212 T01060050
63870K0J4 0J420160406050009704/06/16 05:00:31  5-MIN K0J4 061000Z AUTO 00000KT 10SM CLR 10/05 A3017 90 71 -400 000/00 RMK AO2
63870K0J4 0J420160406050509704/06/16 05:05:31  5-MIN K0J4 061005Z AUTO 00000KT 10SM CLR 10/05 A3016 90 71 -400 000/00 RMK AO2
63870K0J4 0J420160406051009704/06/16 05:10:31  5-MIN K0J4 061010Z AUTO 00000KT 10SM CLR 10/05 A3017 90 71 -400 000/00 RMK AO2
63870K0J4 0J420160406051509704/06/16 05:15:31  5-MIN K0J4 061015Z AUTO 00000KT 10SM CLR 10/05 A3017 90 71 -400 000/00 RMK AO2
63870K0J4 0J420160406052009704/06/16 05:20:31  5-MIN K0J4 061020Z AUTO 00000KT 10SM CLR 10/06 A3017 80 74 -400 000/00 RMK AO2
63870K0J4 0J420160406052509704/06/16 05:25:31  5-MIN K0J4 061025Z AUTO 10003KT 10SM CLR 10/06 A3017 90 74 -400 100/03 RMK AO2
63870K0J4 0J420160406053009704/06/16 05:30:31  5-MIN K0J4 061030Z AUTO 10003KT 10SM CLR 10/06 A3017 90 74 -400 100/03 RMK AO2
63870K0J4 0J420160406053509704/06/16 05:35:31  5-MIN K0J4 061035Z AUTO 00000KT 10SM CLR 10/06 A3016 90 74 -400 000/00 RMK AO2
63870K0J4 0J420160406054009704/06/16 05:40:31  5-MIN K0J4 061040Z AUTO 10004KT 10SM CLR 10/06 A3016 90 74 -400 100/04 RMK AO2
63870K0J4 0J420160406054509704/06/16 05:45:31  5-MIN K0J4 061045Z AUTO 10003KT 10SM CLR 10/06 A3017 90 74 -400 100/03 RMK AO2
63870K0J4 0J420160406055009704/06/16 05:50:31  5-MIN K0J4 061050Z AUTO 10003KT 10SM CLR 10/06 A3016 90 74 -400 100/03 RMK AO2
63870K0J4 0J420160406055511404/06/16 05:55:31  5-MIN K0J4 061055Z AUTO 11003KT 10SM CLR 10/06 A3017 90 74 -400 110/03 RMK AO2 SLP213 T01000056
63870K0J4 0J420160406060009704/06/16 06:00:31  5-MIN K0J4 061100Z AUTO 11003KT 10SM CLR 10/06 A3017 90 74 -400 110/03 RMK AO2
63870K0J4 0J420160406060509704/06/16 06:05:31  5-MIN K0J4 061105Z AUTO 10004KT 10SM CLR 10/06 A3017 80 77 -400 100/04 RMK AO2
63870K0J4 0J420160406061009704/06/16 06:10:31  5-MIN K0J4 061110Z AUTO 11004KT 10SM CLR 10/06 A3017 80 77 -400 110/04 RMK AO2
63870K0J4 0J420160406061509704/06/16 06:15:31  5-MIN K0J4 061115Z AUTO 11003KT 10SM CLR 10/06 A3018 80 77 -400 110/03 RMK AO2
63870K0J4 0J420160406062009704/06/16 06:20:31  5-MIN K0J4 061120Z AUTO 11003KT 10SM CLR 10/06 A3018 80 77 -400 110/03 RMK AO2
63870K0J4 0J420160406062509704/06/16 06:25:31  5-MIN K0J4 061125Z AUTO 11004KT 10SM CLR 10/06 A3018 80 77 -400 110/04 RMK AO2
63870K0J4 0J420160406063009704/06/16 06:30:31  5-MIN K0J4 061130Z AUTO 11004KT 10SM CLR 10/06 A3018 80 77 -400 110/04 RMK AO2
63870K0J4 0J420160406063509704/06/16 06:35:31  5-MIN K0J4 061135Z AUTO VRB03KT 10SM CLR 10/07 A3018 70 80 -400 VRB/03 RMK AO2
63870K0J4 0J420160406064009704/06/16 06:40:31  5-MIN K0J4 061140Z AUTO 12003KT 10SM CLR 10/07 A3018 80 80 -400 120/03 RMK AO2
63870K0J4 0J420160406064509704/06/16 06:45:31  5-MIN K0J4 061145Z AUTO 11003KT 10SM CLR 10/07 A3018 70 80 -400 110/03 RMK AO2
63870K0J4 0J420160406065009704/06/16 06:50:31  5-MIN K0J4 061150Z AUTO VRB03KT 10SM CLR 10/07 A3018 70 80 -400 VRB/03 RMK AO2
63870K0J4 0J420160406065513204/06/16 06:55:31  5-MIN K0J4 061155Z AUTO 11004KT 10SM CLR 10/07 A3018 70 83 -400 110/04 RMK AO2 SLP218 T01000072 10128 20089 57008
63870K0J4 0J420160406070009704/06/16 07:00:31  5-MIN K0J4 061200Z AUTO 11004KT 10SM CLR 10/07 A3018 70 83 -400 110/04 RMK AO2
63870K0J4 0J420160406070509704/06/16 07:05:31  5-MIN K0J4 061205Z AUTO 11004KT 10SM CLR 10/07 A3018 80 83 -400 110/04 RMK AO2
63870K0J4 0J420160406071009704/06/16 07:10:31  5-MIN K0J4 061210Z AUTO 10004KT 10SM CLR 10/07 A3018 80 83 -400 100/04 RMK AO2
63870K0J4 0J420160406071509704/06/16 07:15:31  5-MIN K0J4 061215Z AUTO 10004KT 10SM CLR 11/08 A3018 80 83 -300 100/04 RMK AO2
63870K0J4 0J420160406072009704/06/16 07:20:31  5-MIN K0J4 061220Z AUTO 11003KT 10SM CLR 11/08 A3018 80 83 -300 110/03 RMK AO2
63870K0J4 0J420160406072509704/06/16 07:25:31  5-MIN K0J4 061225Z AUTO 11004KT 10SM CLR 11/08 A3018 70 83 -400 110/04 RMK AO2
63870K0J4 0J420160406073009704/06/16 07:30:31  5-MIN K0J4 061230Z AUTO 10003KT 10SM CLR 11/08 A3019 70 86 -400 100/03 RMK AO2
63870K0J4 0J420160406073509704/06/16 07:35:31  5-MIN K0J4 061235Z AUTO VRB04KT 10SM CLR 11/08 A3018 70 86 -400 VRB/04 RMK AO2
63870K0J4 0J420160406074009704/06/16 07:40:31  5-MIN K0J4 061240Z AUTO VRB03KT 10SM CLR 11/08 A3019 70 83 -300 VRB/03 RMK AO2
63870K0J4 0J420160406074509704/06/16 07:45:31  5-MIN K0J4 061245Z AUTO 12004KT 10SM CLR 11/09 A3019 70 86 -300 120/04 RMK AO2
63870K0J4 0J420160406075009704/06/16 07:50:31  5-MIN K0J4 061250Z AUTO 11005KT 10SM CLR 12/09 A3019 70 83 -200 110/05 RMK AO2
63870K0J4 0J420160406075511404/06/16 07:55:31  5-MIN K0J4 061255Z AUTO 12004KT 10SM CLR 12/09 A3019 70 83 -200 120/04 RMK AO2 SLP222 T01170089
63870K0J4 0J420160406080009704/06/16 08:00:31  5-MIN K0J4 061300Z AUTO 11006KT 10SM CLR 12/09 A3019 70 83 -200 110/06 RMK AO2
63870K0J4 0J420160406080509704/06/16 08:05:31  5-MIN K0J4 061305Z AUTO 12006KT 10SM CLR 12/09 A3019 70 83 -200 120/06 RMK AO2
63870K0J4 0J420160406081009704/06/16 08:10:31  5-MIN K0J4 061310Z AUTO VRB05KT 10SM CLR 12/09 A3018 70 83 -200 VRB/05 RMK AO2
63870K0J4 0J420160406081509704/06/16 08:15:31  5-MIN K0J4 061315Z AUTO 12008KT 10SM CLR 13/10 A3018 80 83 -100 120/08 RMK AO2
63870K0J4 0J420160406082009704/06/16 08:20:31  5-MIN K0J4 061320Z AUTO 12007KT 10SM CLR 13/10 A3018 80 83 -100 120/07 RMK AO2
63870K0J4 0J420160406082509404/06/16 08:25:31  5-MIN K0J4 061325Z AUTO 12006KT 10SM CLR 13/10 A3018 70 80 0 120/06 RMK AO2
63870K0J4 0J420160406083009404/06/16 08:30:31  5-MIN K0J4 061330Z AUTO 13007KT 10SM CLR 13/10 A3018 70 80 0 130/07 RMK AO2
63870K0J4 0J420160406083509404/06/16 08:35:31  5-MIN K0J4 061335Z AUTO VRB05KT 10SM CLR 14/11 A3018 70 80 0 VRB/05 RMK AO2
63870K0J4 0J420160406084009604/06/16 08:40:31  5-MIN K0J4 061340Z AUTO 14004KT 10SM CLR 14/11 A3018 70 77 100 140/04 RMK AO2
63870K0J4 0J420160406084509604/06/16 08:45:31  5-MIN K0J4 061345Z AUTO 13005KT 10SM CLR 14/11 A3018 70 77 100 130/05 RMK AO2
63870K0J4 0J420160406085009604/06/16 08:50:31  5-MIN K0J4 061350Z AUTO VRB06KT 10SM CLR 15/11 A3018 70 77 100 VRB/06 RMK AO2
63870K0J4 0J420160406085511304/06/16 08:55:31  5-MIN K0J4 061355Z AUTO 13005KT 10SM CLR 15/11 A3018 80 77 100 130/05 RMK AO2 SLP219 T01500111
63870K0J4 0J420160406090009604/06/16 09:00:31  5-MIN K0J4 061400Z AUTO VRB04KT 10SM CLR 16/11 A3018 80 74 200 VRB/04 RMK AO2
63870K0J4 0J420160406090509604/06/16 09:05:31  5-MIN K0J4 061405Z AUTO VRB05KT 10SM CLR 16/12 A3018 80 75 300 VRB/05 RMK AO2
63870K0J4 0J420160406091009604/06/16 09:10:31  5-MIN K0J4 061410Z AUTO 15006KT 10SM CLR 16/12 A3018 80 75 300 150/06 RMK AO2
63870K0J4 0J420160406091509604/06/16 09:15:31  5-MIN K0J4 061415Z AUTO 13007KT 10SM CLR 17/12 A3017 80 72 300 130/07 RMK AO2
63870K0J4 0J420160406092009604/06/16 09:20:31  5-MIN K0J4 061420Z AUTO 14009KT 10SM CLR 17/12 A3017 90 72 400 140/09 RMK AO2
63870K0J4 0J420160406092510204/06/16 09:25:31  5-MIN K0J4 061425Z AUTO 14009G15KT 10SM CLR 17/12 A3017 90 72 400 140/09G15 RMK AO2
63870K0J4 0J420160406093010204/06/16 09:30:31  5-MIN K0J4 061430Z AUTO 16008G15KT 10SM CLR 18/12 A3017 90 69 500 160/08G15 RMK AO2
63870K0J4 0J420160406093510204/06/16 09:35:31  5-MIN K0J4 061435Z AUTO 16010G17KT 10SM CLR 18/12 A3017 90 69 500 160/10G17 RMK AO2
63870K0J4 0J420160406094010204/06/16 09:40:31  5-MIN K0J4 061440Z AUTO 17012G17KT 10SM CLR 18/13 A3017 90 70 500 170/12G17 RMK AO2
63870K0J4 0J420160406094511204/06/16 09:45:31  5-MIN K0J4 061445Z AUTO 15011KT 130V190 10SM CLR 18/12 A3017 80 67 500 150/11 130V190 RMK AO2
63870K0J4 0J420160406095009604/06/16 09:50:31  5-MIN K0J4 061450Z AUTO 15009KT 10SM CLR 18/13 A3018 80 70 500 150/09 RMK AO2
63870K0J4 0J420160406095512504/06/16 09:55:31  5-MIN K0J4 061455Z AUTO 17013G19KT 10SM CLR 19/13 A3018 80 67 600 170/13G19 RMK AO2 SLP215 T01890128 53009
63870K0J4 0J420160406100010204/06/16 10:00:31  5-MIN K0J4 061500Z AUTO 15010G19KT 10SM CLR 19/13 A3018 80 67 600 150/10G19 RMK AO2
63870K0J4 0J420160406100510204/06/16 10:05:31  5-MIN K0J4 061505Z AUTO 15009G16KT 10SM CLR 19/13 A3018 80 67 600 150/09G16 RMK AO2
63870K0J4 0J420160406101009604/06/16 10:10:31  5-MIN K0J4 061510Z AUTO 17011KT 10SM CLR 19/13 A3018 80 65 700 170/11 RMK AO2
63870K0J4 0J420160406101510204/06/16 10:15:31  5-MIN K0J4 061515Z AUTO 17013G19KT 10SM CLR 19/13 A3017 90 65 700 170/13G19 RMK AO2
63870K0J4 0J420160406102010204/06/16 10:20:31  5-MIN K0J4 061520Z AUTO 18011G19KT 10SM CLR 19/13 A3017 90 65 700 180/11G19 RMK AO2
63870K0J4 0J420160406102510204/06/16 10:25:31  5-MIN K0J4 061525Z AUTO 17009G17KT 10SM CLR 19/13 A3017 90 65 700 170/09G17 RMK AO2
63870K0J4 0J420160406103010204/06/16 10:30:31  5-MIN K0J4 061530Z AUTO 16009G17KT 10SM CLR 20/13 A3017 90 63 700 160/09G17 RMK AO2
63870K0J4 0J420160406103510204/06/16 10:35:31  5-MIN K0J4 061535Z AUTO 16009G17KT 10SM CLR 20/13 A3017 90 63 700 160/09G17 RMK AO2
63870K0J4 0J420160406104010204/06/16 10:40:31  5-MIN K0J4 061540Z AUTO 17010G16KT 10SM CLR 21/13 A3016 90 63 800 170/10G16 RMK AO2
63870K0J4 0J420160406104510504/06/16 10:45:31  5-MIN K0J4 061545Z AUTO 15009G15KT 10SM FEW027 21/13 A3016 90 63 800 150/09G15 RMK AO2
63870K0J4 0J420160406105010504/06/16 10:50:31  5-MIN K0J4 061550Z AUTO 14010G17KT 10SM FEW027 21/13 A3016 90 60 800 140/10G17 RMK AO2
63870K0J4 0J420160406105512304/06/16 10:55:31  5-MIN K0J4 061555Z AUTO 16011G17KT 10SM FEW027 21/13 A3016 100 61 900 160/11G17 RMK AO2 SLP210 T02110133
63870K0J4 0J420160406110010004/06/16 11:00:31  5-MIN K0J4 061600Z AUTO 16011KT 10SM FEW029 21/13 A3016 100 58 900 160/11 RMK AO2
63870K0J4 0J420160406110510504/06/16 11:05:31  5-MIN K0J4 061605Z AUTO 15011G17KT 10SM FEW029 21/13 A3016 90 58 900 150/11G17 RMK AO2
63870K0J4 0J420160406111010504/06/16 11:10:31  5-MIN K0J4 061610Z AUTO 18011G17KT 10SM FEW029 21/13 A3016 90 58 900 180/11G17 RMK AO2
63870K0J4 0J420160406111510604/06/16 11:15:31  5-MIN K0J4 061615Z AUTO 17009G17KT 10SM FEW031 22/13 A3016 100 58 900 170/09G17 RMK AO2
63870K0J4 0J420160406112010604/06/16 11:20:31  5-MIN K0J4 061620Z AUTO 18011G17KT 10SM SCT031 22/13 A3016 100 58 900 180/11G17 RMK AO2
63870K0J4 0J420160406112510604/06/16 11:25:31  5-MIN K0J4 061625Z AUTO 20012G17KT 10SM SCT031 22/13 A3015 100 56 900 200/12G17 RMK AO2
63870K0J4 0J420160406113010604/06/16 11:30:31  5-MIN K0J4 061630Z AUTO 18012G19KT 10SM SCT031 22/13 A3015 100 56 900 180/12G19 RMK AO2
63870K0J4 0J420160406113512204/06/16 11:35:31  5-MIN K0J4 061635Z AUTO 19010G19KT 140V210 10SM SCT033 22/13 A3015 110 56 900 190/10G19 140V210 RMK AO2
63870K0J4 0J420160406114010104/06/16 11:40:31  5-MIN K0J4 061640Z AUTO 17009KT 10SM SCT033 22/13 A3014 110 54 1000 170/09 RMK AO2
63870K0J4 0J420160406114510604/06/16 11:45:31  5-MIN K0J4 061645Z AUTO 20013G16KT 10SM SCT033 22/13 A3015 100 56 900 200/13G16 RMK AO2
63870K0J4 0J420160406115010604/06/16 11:50:31  5-MIN K0J4 061650Z AUTO 19010G16KT 10SM SCT033 22/13 A3015 100 56 900 190/10G16 RMK AO2
63870K0J4 0J420160406115514004/06/16 11:55:31  5-MIN K0J4 061655Z AUTO 17009G15KT 130V210 10SM SCT035 23/13 A3015 110 55 1100 170/09G15 130V210 RMK AO2 SLP206 T02280133
63870K0J4 0J420160406120010704/06/16 12:00:31  5-MIN K0J4 061700Z AUTO 20014G17KT 10SM SCT035 22/13 A3015 110 54 1000 200/14G17 RMK AO2
63870K0J4 0J420160406120510104/06/16 12:05:31  5-MIN K0J4 061705Z AUTO 19012KT 10SM SCT037 22/13 A3015 100 54 1000 190/12 RMK AO2
63870K0J4 0J420160406121010104/06/16 12:10:31  5-MIN K0J4 061710Z AUTO 20011KT 10SM SCT037 23/13 A3014 110 53 1100 200/11 RMK AO2
63870K0J4 0J420160406121510704/06/16 12:15:31  5-MIN K0J4 061715Z AUTO 19009G17KT 10SM SCT037 23/13 A3014 110 53 1100 190/09G17 RMK AO2
63870K0J4 0J420160406122011704/06/16 12:20:31  5-MIN K0J4 061720Z AUTO 15011KT 120V190 10SM SCT039 23/13 A3014 120 53 1100 150/11 120V190 RMK AO2
63870K0J4 0J420160406122510104/06/16 12:25:31  5-MIN K0J4 061725Z AUTO 17012KT 10SM SCT039 23/12 A3014 110 51 1100 170/12 RMK AO2
63870K0J4 0J420160406123010704/06/16 12:30:31  5-MIN K0J4 061730Z AUTO 18013G17KT 10SM FEW039 23/12 A3013 120 49 1200 180/13G17 RMK AO2
63870K0J4 0J420160406123510704/06/16 12:35:31  5-MIN K0J4 061735Z AUTO 19011G17KT 10SM FEW039 23/12 A3013 120 49 1100 190/11G17 RMK AO2
63870K0J4 0J420160406124010804/06/16 12:40:31  5-MIN K0J4 061740Z AUTO 19012KT 10SM FEW042 SCT065 23/12 A3013 120 49 1100 190/12 RMK AO2
63870K0J4 0J420160406124510804/06/16 12:45:31  5-MIN K0J4 061745Z AUTO 19010KT 10SM SCT042 SCT070 22/12 A3013 120 52 1000 190/10 RMK AO2
63870K0J4 0J420160406125010804/06/16 12:50:31  5-MIN K0J4 061750Z AUTO 18013KT 10SM SCT044 BKN065 22/13 A3013 130 54 1000 180/13 RMK AO2
63870K0J4 0J420160406125515604/06/16 12:55:31  5-MIN K0J4 061755Z AUTO 17012G17KT 10SM SCT044 BKN060 BKN075 22/12 A3012 130 52 1000 170/12G17 RMK AO2 SLP196 T02220122 10233 20100 58002
63870K0J4 0J420160406130012104/06/16 13:00:31  5-MIN K0J4 061800Z AUTO 18012G17KT 10SM SCT044 SCT055 BKN070 23/12 A3012 140 51 1100 180/12G17 RMK AO2
63870K0J4 0J420160406130512104/06/16 13:05:31  5-MIN K0J4 061805Z AUTO 20015G19KT 10SM SCT044 SCT050 BKN060 23/12 A3011 140 51 1100 200/15G19 RMK AO2
63870K0J4 0J420160406131012104/06/16 13:10:31  5-MIN K0J4 061810Z AUTO 20013G19KT 10SM SCT044 BKN060 BKN070 23/12 A3011 140 51 1100 200/13G19 RMK AO2
63870K0J4 0J420160406131512104/06/16 13:15:31  5-MIN K0J4 061815Z AUTO 21013G18KT 10SM SCT044 BKN060 BKN070 23/13 A3011 140 53 1100 210/13G18 RMK AO2
63870K0J4 0J420160406132011404/06/16 13:20:31  5-MIN K0J4 061820Z AUTO 20015G21KT 10SM SCT042 SCT075 23/13 A3011 140 51 1200 200/15G21 RMK AO2
63870K0J4 0J420160406132511404/06/16 13:25:31  5-MIN K0J4 061825Z AUTO 20015G23KT 10SM SCT042 SCT055 23/13 A3011 140 51 1200 200/15G23 RMK AO2
63870K0J4 0J420160406133010704/06/16 13:30:31  5-MIN K0J4 061830Z AUTO 21016G23KT 10SM FEW042 23/13 A3011 140 51 1200 210/16G23 RMK AO2
63870K0J4 0J420160406133510704/06/16 13:35:31  5-MIN K0J4 061835Z AUTO 19013G22KT 10SM FEW042 23/13 A3011 140 51 1200 190/13G22 RMK AO2
63870K0J4 0J420160406134010704/06/16 13:40:31  5-MIN K0J4 061840Z AUTO 20013G21KT 10SM FEW042 23/13 A3011 140 51 1200 200/13G21 RMK AO2
63870K0J4 0J420160406134512104/06/16 13:45:31  5-MIN K0J4 061845Z AUTO 19013G19KT 10SM FEW042 SCT060 SCT070 23/13 A3011 140 51 1200 190/13G19 RMK AO2
63870K0J4 0J420160406135012104/06/16 13:50:31  5-MIN K0J4 061850Z AUTO 20012G19KT 10SM SCT042 SCT050 SCT070 23/12 A3011 140 49 1200 200/12G19 RMK AO2
63870K0J4 0J420160406135513104/06/16 13:55:31  5-MIN K0J4 061855Z AUTO 19017G22KT 10SM SCT042 SCT060 23/13 A3010 150 51 1200 190/17G22 RMK AO2 SLP190 T02330128
63870K0J4 0J420160406140012104/06/16 14:00:31  5-MIN K0J4 061900Z AUTO 20014G22KT 10SM FEW042 SCT049 SCT070 23/12 A3009 160 49 1100 200/14G22 RMK AO2
63870K0J4 0J420160406140512104/06/16 14:05:31  5-MIN K0J4 061905Z AUTO 18012G21KT 10SM FEW042 SCT049 SCT060 23/13 A3009 160 51 1200 180/12G21 RMK AO2
63870K0J4 0J420160406141011404/06/16 14:10:31  5-MIN K0J4 061910Z AUTO 17013G21KT 10SM FEW042 BKN055 23/12 A3009 160 51 1100 170/13G21 RMK AO2
63870K0J4 0J420160406141511404/06/16 14:15:31  5-MIN K0J4 061915Z AUTO 18012G19KT 10SM SCT042 BKN055 23/13 A3009 160 51 1200 180/12G19 RMK AO2
63870K0J4 0J420160407005010004/07/16 00:50:31  5-MIN K0J4 070550Z AUTO 23005KT 10SM OVC090 17/15 A2995 290 87 700 230/05 RMK AO2
63870K0J4 0J420160407005513504/07/16 00:55:31  5-MIN K0J4 070555Z AUTO 23006KT 10SM OVC090 17/15 A2995 290 87 700 230/06 RMK AO2 SLP137 T01720150 10194 20172 56003
63870K0J4 0J420160407010010004/07/16 01:00:31  5-MIN K0J4 070600Z AUTO VRB06KT 10SM OVC090 17/15 A2995 290 87 700 VRB/06 RMK AO2
63870K0J4 0J420160407010510004/07/16 01:05:31  5-MIN K0J4 070605Z AUTO 23006KT 10SM BKN090 17/15 A2995 290 87 700 230/06 RMK AO2
63870K0J4 0J420160407011010004/07/16 01:10:31  5-MIN K0J4 070610Z AUTO 23005KT 10SM BKN090 17/15 A2995 290 87 700 230/05 RMK AO2
63870K0J4 0J420160407011510004/07/16 01:15:31  5-MIN K0J4 070615Z AUTO VRB06KT 10SM BKN090 17/15 A2995 290 87 700 VRB/06 RMK AO2
63870K0J4 0J420160407012010704/07/16 01:20:31  5-MIN K0J4 070620Z AUTO VRB05KT 10SM FEW038 BKN090 17/15 A2994 290 87 700 VRB/05 RMK AO2
63870K0J4 0J420160407012510704/07/16 01:25:31  5-MIN K0J4 070625Z AUTO VRB05KT 10SM FEW038 SCT090 17/15 A2994 290 87 700 VRB/05 RMK AO2
63870K0J4 0J420160407013010004/07/16 01:30:31  5-MIN K0J4 070630Z AUTO 23004KT 10SM FEW090 17/15 A2994 290 87 700 230/04 RMK AO2
63870K0J4 0J420160407013510004/07/16 01:35:31  5-MIN K0J4 070635Z AUTO VRB04KT 10SM FEW090 17/15 A2994 300 87 700 VRB/04 RMK AO2
63870K0J4 0J420160407014009704/07/16 01:40:31  5-MIN K0J4 070640Z AUTO 23005KT 10SM CLR 17/15 A2994 300 87 700 230/05 RMK AO2
63870K0J4 0J420160407014509704/07/16 01:45:31  5-MIN K0J4 070645Z AUTO VRB03KT 10SM CLR 17/15 A2994 300 87 700 VRB/03 RMK AO2
63870K0J4 0J420160407015009704/07/16 01:50:31  5-MIN K0J4 070650Z AUTO VRB03KT 10SM CLR 17/15 A2994 300 87 700 VRB/03 RMK AO2
63870K0J4 0J420160407015511404/07/16 01:55:31  5-MIN K0J4 070655Z AUTO VRB03KT 10SM CLR 17/15 A2994 300 87 700 VRB/03 RMK AO2 SLP135 T01720150
63870K0J4 0J420160407020009704/07/16 02:00:31  5-MIN K0J4 070700Z AUTO VRB03KT 10SM CLR 17/15 A2994 300 87 700 VRB/03 RMK AO2
63870K0J4 0J420160407020509704/07/16 02:05:31  5-MIN K0J4 070705Z AUTO 00000KT 10SM CLR 17/15 A2994 300 87 700 000/00 RMK AO2
63870K0J4 0J420160407021009704/07/16 02:10:31  5-MIN K0J4 070710Z AUTO VRB03KT 10SM CLR 17/15 A2994 300 90 600 VRB/03 RMK AO2
63870K0J4 0J420160407021509704/07/16 02:15:31  5-MIN K0J4 070715Z AUTO 22003KT 10SM CLR 17/15 A2994 300 90 600 220/03 RMK AO2
63870K0J4 0J420160407022009704/07/16 02:20:31  5-MIN K0J4 070720Z AUTO VRB03KT 10SM CLR 17/15 A2994 300 90 600 VRB/03 RMK AO2
63870K0J4 0J420160407022509704/07/16 02:25:31  5-MIN K0J4 070725Z AUTO VRB03KT 10SM CLR 17/15 A2994 300 90 600 VRB/03 RMK AO2
63870K0J4 0J420160407023009704/07/16 02:30:31  5-MIN K0J4 070730Z AUTO 00000KT 10SM CLR 17/15 A2994 300 90 600 000/00 RMK AO2
63870K0J4 0J420160407023509704/07/16 02:35:31  5-MIN K0J4 070735Z AUTO 00000KT 10SM CLR 17/15 A2994 300 90 600 000/00 RMK AO2
63870K0J4 0J420160407024009704/07/16 02:40:31  5-MIN K0J4 070740Z AUTO VRB03KT 10SM CLR 17/15 A2994 300 90 600 VRB/03 RMK AO2
63870K0J4 0J420160407024509704/07/16 02:45:31  5-MIN K0J4 070745Z AUTO VRB03KT 10SM CLR 17/15 A2994 300 90 600 VRB/03 RMK AO2
63870K0J4 0J420160407025009704/07/16 02:50:31  5-MIN K0J4 070750Z AUTO 00000KT 10SM CLR 16/15 A2993 300 93 500 000/00 RMK AO2
63870K0J4 0J420160407025511404/07/16 02:55:31  5-MIN K0J4 070755Z AUTO 22003KT 10SM CLR 17/15 A2993 300 90 600 220/03 RMK AO2 SLP132 T01670150
63870K0J4 0J420160407030009704/07/16 03:00:31  5-MIN K0J4 070800Z AUTO 00000KT 10SM CLR 16/15 A2993 300 93 500 000/00 RMK AO2
63870K0J4 0J420160407030509704/07/16 03:05:31  5-MIN K0J4 070805Z AUTO VRB03KT 10SM CLR 16/14 A2993 310 90 500 VRB/03 RMK AO2
63870K0J4 0J420160407031009704/07/16 03:10:31  5-MIN K0J4 070810Z AUTO 23003KT 10SM CLR 16/15 A2993 310 93 600 230/03 RMK AO2
63870K0J4 0J420160407031509704/07/16 03:15:31  5-MIN K0J4 070815Z AUTO 00000KT 10SM CLR 16/15 A2993 310 93 600 000/00 RMK AO2
63870K0J4 0J420160407032009704/07/16 03:20:31  5-MIN K0J4 070820Z AUTO 00000KT 10SM CLR 16/14 A2993 310 90 600 000/00 RMK AO2
63870K0J4 0J420160407032509704/07/16 03:25:31  5-MIN K0J4 070825Z AUTO VRB03KT 10SM CLR 16/14 A2993 310 90 600 VRB/03 RMK AO2
63870K0J4 0J420160407033009704/07/16 03:30:31  5-MIN K0J4 070830Z AUTO 23003KT 10SM CLR 16/15 A2993 310 93 600 230/03 RMK AO2
63870K0J4 0J420160407033509704/07/16 03:35:31  5-MIN K0J4 070835Z AUTO 00000KT 10SM CLR 16/15 A2993 310 93 600 000/00 RMK AO2
63870K0J4 0J420160407034009704/07/16 03:40:31  5-MIN K0J4 070840Z AUTO 22003KT 10SM CLR 16/15 A2993 310 93 600 220/03 RMK AO2
63870K0J4 0J420160407034509704/07/16 03:45:31  5-MIN K0J4 070845Z AUTO VRB03KT 10SM CLR 16/14 A2992 310 90 600 VRB/03 RMK AO2
63870K0J4 0J420160407035009704/07/16 03:50:31  5-MIN K0J4 070850Z AUTO 23003KT 10SM CLR 16/14 A2992 310 90 600 230/03 RMK AO2
63870K0J4 0J420160407035512004/07/16 03:55:31  5-MIN K0J4 070855Z AUTO 00000KT 10SM CLR 16/14 A2992 320 90 600 000/00 RMK AO2 SLP129 T01610144 56003
63870K0J4 0J420160407040009704/07/16 04:00:31  5-MIN K0J4 070900Z AUTO 22003KT 10SM CLR 16/14 A2992 320 90 600 220/03 RMK AO2
63870K0J4 0J420160407040509704/07/16 04:05:31  5-MIN K0J4 070905Z AUTO 00000KT 10SM CLR 16/15 A2992 320 93 600 000/00 RMK AO2
63870K0J4 0J420160407041009704/07/16 04:10:31  5-MIN K0J4 070910Z AUTO 22003KT 10SM CLR 16/14 A2991 320 90 600 220/03 RMK AO2
63870K0J4 0J420160407041509704/07/16 04:15:31  5-MIN K0J4 070915Z AUTO 22003KT 10SM CLR 16/14 A2992 320 93 500 220/03 RMK AO2
63870K0J4 0J420160407042009704/07/16 04:20:31  5-MIN K0J4 070920Z AUTO 00000KT 10SM CLR 16/14 A2992 320 93 500 000/00 RMK AO2
63870K0J4 0J420160407042509704/07/16 04:25:31  5-MIN K0J4 070925Z AUTO 00000KT 10SM CLR 16/14 A2992 310 93 500 000/00 RMK AO2
63870K0J4 0J420160407043010004/07/16 04:30:31  5-MIN K0J4 070930Z AUTO 00000KT 10SM FEW070 16/14 A2993 310 93 500 000/00 RMK AO2
63870K0J4 0J420160407043510004/07/16 04:35:31  5-MIN K0J4 070935Z AUTO 00000KT 10SM SCT070 16/14 A2993 310 93 500 000/00 RMK AO2
63870K0J4 0J420160407044010004/07/16 04:40:31  5-MIN K0J4 070940Z AUTO 00000KT 10SM BKN070 16/14 A2993 300 93 500 000/00 RMK AO2
63870K0J4 0J420160407044510704/07/16 04:45:31  5-MIN K0J4 070945Z AUTO 00000KT 10SM FEW032 BKN070 16/14 A2993 300 93 500 000/00 RMK AO2
63870K0J4 0J420160407045010704/07/16 04:50:31  5-MIN K0J4 070950Z AUTO 00000KT 10SM FEW032 BKN065 16/15 A2993 300 93 500 000/00 RMK AO2
63870K0J4 0J420160407045514004/07/16 04:55:31  5-MIN K0J4 070955Z AUTO 00000KT 10SM -RA FEW030 BKN065 16/15 A2994 300 93 500 000/00 RMK AO2 RAB53 SLP135 P0000 T01610150
63870K0J4 0J420160407050012204/07/16 05:00:31  5-MIN K0J4 071000Z AUTO 00000KT 8SM RA FEW023 SCT031 OVC065 16/15 A2994 300 93 500 000/00 RMK AO2 P0000
63870K0J4 0J420160407050512304/07/16 05:05:31  5-MIN K0J4 071005Z AUTO 00000KT 7SM -RA FEW023 BKN048 OVC065 16/15 A2994 300 93 500 000/00 RMK AO2 P0001
63870K0J4 0J420160407051012304/07/16 05:10:31  5-MIN K0J4 071010Z AUTO 00000KT 8SM -RA FEW014 BKN032 OVC060 16/15 A2994 300 93 500 000/00 RMK AO2 P0001
63870K0J4 0J420160407051512304/07/16 05:15:31  5-MIN K0J4 071015Z AUTO 00000KT 9SM -RA SCT014 BKN025 OVC065 16/15 A2994 300 93 500 000/00 RMK AO2 P0001
63870K0J4 0J420160407052012404/07/16 05:20:31  5-MIN K0J4 071020Z AUTO 00000KT 10SM -RA SCT014 BKN022 OVC060 16/15 A2994 300 93 500 000/00 RMK AO2 P0001
63870K0J4 0J420160407052512604/07/16 05:25:31  5-MIN K0J4 071025Z AUTO 00000KT 10SM SCT014 BKN022 BKN040 16/15 A2993 300 93 500 000/00 RMK AO2 RAE25 P0001
63870K0J4 0J420160407053012604/07/16 05:30:31  5-MIN K0J4 071030Z AUTO 00000KT 10SM SCT014 SCT022 BKN042 16/15 A2994 300 93 500 000/00 RMK AO2 RAE25 P0001
63870K0J4 0J420160407053511904/07/16 05:35:31  5-MIN K0J4 071035Z AUTO 00000KT 10SM FEW016 SCT022 16/15 A2994 300 93 500 000/00 RMK AO2 RAE25 P0001
63870K0J4 0J420160407054011204/07/16 05:40:31  5-MIN K0J4 071040Z AUTO 00000KT 10SM FEW016 16/15 A2994 300 93 500 000/00 RMK AO2 RAE25 P0001
63870K0J4 0J420160407054511904/07/16 05:45:31  5-MIN K0J4 071045Z AUTO 00000KT 10SM FEW016 SCT075 16/14 A2995 290 93 500 000/00 RMK AO2 RAE25 P0001
63870K0J4 0J420160407055011204/07/16 05:50:31  5-MIN K0J4 071050Z AUTO 00000KT 10SM SCT075 16/15 A2995 290 96 500 000/00 RMK AO2 RAE25 P0001
63870K0J4 0J420160407055512904/07/16 05:55:31  5-MIN K0J4 071055Z AUTO 00000KT 10SM BKN070 16/15 A2995 290 96 500 000/00 RMK AO2 RAE25 SLP138 P0001 T01560150
63870K0J4 0J420160407060010004/07/16 06:00:31  5-MIN K0J4 071100Z AUTO 00000KT 10SM BKN075 16/15 A2995 290 96 500 000/00 RMK AO2
63870K0J4 0J420160407060510004/07/16 06:05:31  5-MIN K0J4 071105Z AUTO 00000KT 10SM BKN075 16/15 A2995 290 96 500 000/00 RMK AO2
63870K0J4 0J420160407061010004/07/16 06:10:31  5-MIN K0J4 071110Z AUTO 00000KT 10SM OVC075 16/14 A2995 280 93 500 000/00 RMK AO2
63870K0J4 0J420160407061510004/07/16 06:15:31  5-MIN K0J4 071115Z AUTO 00000KT 10SM OVC075 16/14 A2996 280 93 500 000/00 RMK AO2
63870K0J4 0J420160407062010004/07/16 06:20:31  5-MIN K0J4 071120Z AUTO 00000KT 10SM OVC075 16/14 A2996 280 93 500 000/00 RMK AO2
63870K0J4 0J420160407062510004/07/16 06:25:31  5-MIN K0J4 071125Z AUTO 00000KT 10SM OVC075 16/14 A2995 280 93 500 000/00 RMK AO2
63870K0J4 0J420160407063009904/07/16 06:30:31  5-MIN K0J4 071130Z AUTO 00000KT 9SM OVC075 16/14 A2995 290 93 500 000/00 RMK AO2
63870K0J4 0J420160407063509904/07/16 06:35:31  5-MIN K0J4 071135Z AUTO 00000KT 8SM BKN075 15/14 A2996 280 96 400 000/00 RMK AO2
63870K0J4 0J420160407064009904/07/16 06:40:31  5-MIN K0J4 071140Z AUTO 00000KT 7SM SCT075 15/14 A2996 280 96 400 000/00 RMK AO2
63870K0J4 0J420160407064510204/07/16 06:45:31  5-MIN K0J4 071145Z AUTO 00000KT 6SM BR SCT075 15/14 A2996 280 96 400 000/00 RMK AO2
63870K0J4 0J420160407065010204/07/16 06:50:31  5-MIN K0J4 071150Z AUTO 00000KT 4SM BR FEW075 15/14 A2996 280 96 400 000/00 RMK AO2
63870K0J4 0J420160407065514904/07/16 06:55:31  5-MIN K0J4 071155Z AUTO 00000KT 3SM BR FEW075 15/14 A2996 280 96 400 000/00 RMK AO2 SLP142 60001 70001 T01500144 10172 20150 58008
63870K0J4 0J420160407070009904/07/16 07:00:31  5-MIN K0J4 071200Z AUTO 00000KT 4SM BR CLR 15/14 A2996 280 96 400 000/00 RMK AO2
63870K0J4 0J420160407070509904/07/16 07:05:31  5-MIN K0J4 071205Z AUTO 00000KT 5SM BR CLR 15/14 A2996 280 96 400 000/00 RMK AO2
63870K0J4 0J420160407071009904/07/16 07:10:31  5-MIN K0J4 071210Z AUTO 00000KT 5SM BR CLR 15/14 A2996 280 96 400 000/00 RMK AO2
63870K0J4 0J420160407071509904/07/16 07:15:31  5-MIN K0J4 071215Z AUTO 00000KT 5SM BR CLR 15/14 A2997 270 96 400 000/00 RMK AO2
63870K0J4 0J420160407072009904/07/16 07:20:31  5-MIN K0J4 071220Z AUTO 00000KT 6SM BR CLR 15/14 A2997 270 96 400 000/00 RMK AO2
63870K0J4 0J420160407072509604/07/16 07:25:31  5-MIN K0J4 071225Z AUTO 00000KT 7SM CLR 16/15 A2997 270 96 400 000/00 RMK AO2
63870K0J4 0J420160407073009604/07/16 07:30:31  5-MIN K0J4 071230Z AUTO 00000KT 8SM CLR 16/15 A2997 270 93 500 000/00 RMK AO2
63870K0J4 0J420160407073509704/07/16 07:35:31  5-MIN K0J4 071235Z AUTO 00000KT 10SM CLR 17/16 A2998 260 93 600 000/00 RMK AO2
63870K0J4 0J420160407074009704/07/16 07:40:31  5-MIN K0J4 071240Z AUTO 01003KT 10SM CLR 17/15 A2998 260 90 600 010/03 RMK AO2
63870K0J4 0J420160407074509704/07/16 07:45:31  5-MIN K0J4 071245Z AUTO 01003KT 10SM CLR 17/15 A2998 260 90 600 010/03 RMK AO2
63870K0J4 0J420160407075010004/07/16 07:50:31  5-MIN K0J4 071250Z AUTO 03004KT 10SM FEW009 16/15 A2998 260 93 500 030/04 RMK AO2
63870K0J4 0J420160407075510604/07/16 07:55:31  5-MIN K0J4 071255Z AUTO 02003KT 9SM FEW003 BKN011 16/15 A2998 260 93 500 020/03 RMK AO2
63870K0J4 0J420160407080011304/07/16 08:00:31  5-MIN K0J4 071300Z AUTO 02003KT 9SM FEW003 SCT008 BKN013 16/15 A2998 260 93 500 020/03 RMK AO2
63870K0J4 0J420160407080510704/07/16 08:05:31  5-MIN K0J4 071305Z AUTO 02004KT 10SM SCT005 BKN013 16/15 A2998 260 93 500 020/04 RMK AO2
63870K0J4 0J420160407081011404/07/16 08:10:31  5-MIN K0J4 071310Z AUTO 02003KT 10SM SCT005 BKN013 OVC020 16/15 A2998 260 93 500 020/03 RMK AO2
63870K0J4 0J420160407081511404/07/16 08:15:31  5-MIN K0J4 071315Z AUTO 00000KT 10SM FEW005 BKN013 OVC020 16/15 A2998 260 93 500 000/00 RMK AO2
63870K0J4 0J420160407082011904/07/16 08:20:31  5-MIN K0J4 071320Z AUTO VRB03KT 10SM FEW005 OVC016 17/15 A2998 260 90 600 VRB/03 RMK AO2 CIG 010V021
63870K0J4 0J420160407082510704/07/16 08:25:31  5-MIN K0J4 071325Z AUTO VRB03KT 10SM FEW005 OVC016 17/15 A2998 260 90 600 VRB/03 RMK AO2
63870K0J4 0J420160407083011404/07/16 08:30:31  5-MIN K0J4 071330Z AUTO VRB03KT 10SM FEW007 BKN014 OVC020 17/15 A2999 250 90 600 VRB/03 RMK AO2
63870K0J4 0J420160407083510704/07/16 08:35:31  5-MIN K0J4 071335Z AUTO 35003KT 10SM BKN014 OVC020 17/14 A2999 260 86 600 350/03 RMK AO2
63870K0J4 0J420160407084010004/07/16 08:40:31  5-MIN K0J4 071340Z AUTO VRB04KT 10SM OVC014 17/15 A2999 250 87 600 VRB/04 RMK AO2
63870K0J4 0J420160407084510704/07/16 08:45:31  5-MIN K0J4 071345Z AUTO 00000KT 10SM FEW008 BKN014 17/14 A2998 260 83 600 000/00 RMK AO2
63870K0J4 0J420160407085010704/07/16 08:50:31  5-MIN K0J4 071350Z AUTO 02004KT 10SM FEW008 BKN014 18/15 A2998 260 83 700 020/04 RMK AO2
63870K0J4 0J420160407085512404/07/16 08:55:31  5-MIN K0J4 071355Z AUTO 00000KT 10SM FEW008 BKN012 17/14 A2998 260 83 600 000/00 RMK AO2 SLP148 T01720144
63870K0J4 0J420160407090011404/07/16 09:00:31  5-MIN K0J4 071400Z AUTO 00000KT 10SM FEW008 BKN012 BKN018 18/14 A2998 260 81 700 000/00 RMK AO2
63870K0J4 0J420160407090511404/07/16 09:05:31  5-MIN K0J4 071405Z AUTO 05004KT 10SM FEW008 SCT012 BKN018 19/15 A2997 270 75 900 050/04 RMK AO2
63870K0J4 0J420160407091010704/07/16 09:10:31  5-MIN K0J4 071410Z AUTO 00000KT 10SM FEW009 SCT015 18/14 A2997 270 78 800 000/00 RMK AO2
63870K0J4 0J420160407091510704/07/16 09:15:31  5-MIN K0J4 071415Z AUTO 00000KT 10SM FEW009 SCT015 18/14 A2997 270 78 800 000/00 RMK AO2
63870K0J4 0J420160407092010004/07/16 09:20:31  5-MIN K0J4 071420Z AUTO 00000KT 10SM FEW011 19/14 A2997 270 75 800 000/00 RMK AO2
63870K0J4 0J420160407092510004/07/16 09:25:31  5-MIN K0J4 071425Z AUTO 00000KT 10SM FEW016 18/13 A2997 270 75 700 000/00 RMK AO2
63870K0J4 0J420160407093009704/07/16 09:30:31  5-MIN K0J4 071430Z AUTO 00000KT 10SM CLR 18/14 A2997 270 75 800 000/00 RMK AO2
63870K0J4 0J420160407093509704/07/16 09:35:31  5-MIN K0J4 071435Z AUTO 00000KT 10SM CLR 18/14 A2996 280 75 800 000/00 RMK AO2
63870K0J4 0J420160407094009704/07/16 09:40:31  5-MIN K0J4 071440Z AUTO 21005KT 10SM CLR 18/14 A2997 270 78 700 210/05 RMK AO2
63870K0J4 0J420160407094509704/07/16 09:45:31  5-MIN K0J4 071445Z AUTO 21004KT 10SM CLR 17/14 A2997 270 83 600 210/04 RMK AO2
63870K0J4 0J420160407095009704/07/16 09:50:31  5-MIN K0J4 071450Z AUTO 21005KT 10SM CLR 18/14 A2997 270 78 800 210/05 RMK AO2
63870K0J4 0J420160407095512004/07/16 09:55:31  5-MIN K0J4 071455Z AUTO 00000KT 10SM CLR 18/14 A2997 270 75 800 000/00 RMK AO2 SLP145 T01830139 51014
63870K0J4 0J420160407100009704/07/16 10:00:31  5-MIN K0J4 071500Z AUTO VRB03KT 10SM CLR 19/14 A2996 280 72 800 VRB/03 RMK AO2
63870K0J4 0J420160407100509704/07/16 10:05:31  5-MIN K0J4 071505Z AUTO VRB03KT 10SM CLR 19/13 A2997 270 67 900 VRB/03 RMK AO2
63870K0J4 0J420160407101010004/07/16 10:10:31  5-MIN K0J4 071510Z AUTO 00000KT 10SM FEW022 19/13 A2997 270 65 900 000/00 RMK AO2
63870K0J4 0J420160407101510104/07/16 10:15:31  5-MIN K0J4 071515Z AUTO 00000KT 10SM FEW022 20/13 A2997 270 65 1000 000/00 RMK AO2
63870K0J4 0J420160407102010104/07/16 10:20:31  5-MIN K0J4 071520Z AUTO VRB03KT 10SM FEW022 20/14 A2997 270 67 1000 VRB/03 RMK AO2
63870K0J4 0J420160407102510004/07/16 10:25:31  5-MIN K0J4 071525Z AUTO 27004KT 10SM FEW022 19/13 A2997 270 65 900 270/04 RMK AO2
63870K0J4 0J420160407103010104/07/16 10:30:31  5-MIN K0J4 071530Z AUTO 00000KT 10SM FEW022 20/12 A2997 270 60 1000 000/00 RMK AO2
63870K0J4 0J420160407103510104/07/16 10:35:31  5-MIN K0J4 071535Z AUTO VRB03KT 10SM FEW022 20/13 A2997 270 63 1000 VRB/03 RMK AO2
63870K0J4 0J420160407104010104/07/16 10:40:31  5-MIN K0J4 071540Z AUTO 00000KT 10SM FEW022 20/13 A2997 270 65 1000 000/00 RMK AO2
63870K0J4 0J420160407104509804/07/16 10:45:31  5-MIN K0J4 071545Z AUTO 00000KT 10SM CLR 21/13 A2997 270 63 1000 000/00 RMK AO2
63870K0J4 0J420160407105009804/07/16 10:50:31  5-MIN K0J4 071550Z AUTO VRB03KT 10SM CLR 21/13 A2997 270 60 1000 VRB/03 RMK AO2
63870K0J4 0J420160407105511504/07/16 10:55:31  5-MIN K0J4 071555Z AUTO VRB03KT 10SM CLR 21/13 A2996 280 58 1100 VRB/03 RMK AO2 SLP143 T02110128
63870K0J4 0J420160407110009804/07/16 11:00:31  5-MIN K0J4 071600Z AUTO VRB04KT 10SM CLR 21/12 A2997 270 56 1000 VRB/04 RMK AO2
63870K0J4 0J420160407110509804/07/16 11:05:31  5-MIN K0J4 071605Z AUTO VRB05KT 10SM CLR 21/12 A2997 270 54 1100 VRB/05 RMK AO2
63870K0J4 0J420160407111010104/07/16 11:10:31  5-MIN K0J4 071610Z AUTO 23005KT 10SM FEW034 21/12 A2996 280 54 1100 230/05 RMK AO2
63870K0J4 0J420160407111510104/07/16 11:15:31  5-MIN K0J4 071615Z AUTO VRB03KT 10SM FEW034 22/12 A2996 280 52 1200 VRB/03 RMK AO2
63870K0J4 0J420160407112010104/07/16 11:20:31  5-MIN K0J4 071620Z AUTO VRB03KT 10SM FEW034 22/12 A2996 280 52 1200 VRB/03 RMK AO2
63870K0J4 0J420160407112510104/07/16 11:25:31  5-MIN K0J4 071625Z AUTO VRB04KT 10SM FEW036 22/12 A2997 270 51 1200 VRB/04 RMK AO2
63870K0J4 0J420160407113010104/07/16 11:30:31  5-MIN K0J4 071630Z AUTO VRB05KT 10SM FEW038 22/12 A2996 280 51 1200 VRB/05 RMK AO2
63870K0J4 0J420160407113510104/07/16 11:35:31  5-MIN K0J4 071635Z AUTO VRB04KT 10SM FEW038 22/11 A2996 280 47 1200 VRB/04 RMK AO2
63870K0J4 0J420160407114010104/07/16 11:40:31  5-MIN K0J4 071640Z AUTO VRB03KT 10SM FEW042 22/11 A2996 280 49 1200 VRB/03 RMK AO2
63870K0J4 0J420160407114510104/07/16 11:45:31  5-MIN K0J4 071645Z AUTO 00000KT 10SM FEW042 23/12 A2995 280 49 1300 000/00 RMK AO2
63870K0J4 0J420160407115010104/07/16 11:50:31  5-MIN K0J4 071650Z AUTO 00000KT 10SM FEW042 22/11 A2995 290 49 1200 000/00 RMK AO2
63870K0J4 0J420160407115511804/07/16 11:55:31  5-MIN K0J4 071655Z AUTO VRB03KT 10SM FEW044 22/11 A2995 290 47 1200 VRB/03 RMK AO2 SLP139 T02220106
63870K0J4 0J420160407120010104/07/16 12:00:31  5-MIN K0J4 071700Z AUTO VRB03KT 10SM FEW045 23/11 A2995 290 45 1300 VRB/03 RMK AO2
63870K0J4 0J420160407120509804/07/16 12:05:31  5-MIN K0J4 071705Z AUTO VRB05KT 10SM CLR 23/10 A2995 290 44 1300 VRB/05 RMK AO2
63870K0J4 0J420160407121010104/07/16 12:10:31  5-MIN K0J4 071710Z AUTO 00000KT 10SM FEW049 23/09 A2995 290 41 1400 000/00 RMK AO2
63870K0J4 0J420160407121510104/07/16 12:15:31  5-MIN K0J4 071715Z AUTO VRB04KT 10SM FEW049 23/10 A2994 290 42 1400 VRB/04 RMK AO2
63870K0J4 0J420160407122010104/07/16 12:20:31  5-MIN K0J4 071720Z AUTO VRB04KT 10SM FEW049 23/10 A2994 300 44 1300 VRB/04 RMK AO2
63870K0J4 0J420160407122510104/07/16 12:25:31  5-MIN K0J4 071725Z AUTO VRB05KT 10SM SCT049 23/10 A2994 290 42 1400 VRB/05 RMK AO2
63870K0J4 0J420160407123010104/07/16 12:30:31  5-MIN K0J4 071730Z AUTO VRB05KT 10SM SCT049 23/09 A2994 290 42 1300 VRB/05 RMK AO2
63870K0J4 0J420160407123510104/07/16 12:35:31  5-MIN K0J4 071735Z AUTO VRB05KT 10SM SCT049 23/10 A2995 290 42 1400 VRB/05 RMK AO2
63870K0J4 0J420160407124010104/07/16 12:40:31  5-MIN K0J4 071740Z AUTO VRB06KT 10SM SCT049 24/09 A2994 290 38 1400 VRB/06 RMK AO2
63870K0J4 0J420160407124510104/07/16 12:45:31  5-MIN K0J4 071745Z AUTO 34007KT 10SM FEW049 24/09 A2994 300 39 1400 340/07 RMK AO2
63870K0J4 0J420160407125010104/07/16 12:50:31  5-MIN K0J4 071750Z AUTO VRB04KT 10SM FEW049 24/08 A2994 300 36 1400 VRB/04 RMK AO2
63870K0J4 0J420160407125513604/07/16 12:55:31  5-MIN K0J4 071755Z AUTO 00000KT 10SM FEW055 23/08 A2994 300 38 1400 000/00 RMK AO2 SLP135 T02330083 10239 20150 50001
63870K0J4 0J420160407130010104/07/16 13:00:31  5-MIN K0J4 071800Z AUTO VRB04KT 10SM FEW055 24/08 A2994 300 36 1400 VRB/04 RMK AO2
63870K0J4 0J420160407130509804/07/16 13:05:31  5-MIN K0J4 071805Z AUTO VRB05KT 10SM CLR 24/08 A2994 300 36 1400 VRB/05 RMK AO2
63870K0J4 0J420160407131009804/07/16 13:10:31  5-MIN K0J4 071810Z AUTO VRB04KT 10SM CLR 23/08 A2994 300 36 1400 VRB/04 RMK AO2
63870K0J4 0J420160407131509804/07/16 13:15:31  5-MIN K0J4 071815Z AUTO VRB06KT 10SM CLR 24/07 A2994 300 34 1400 VRB/06 RMK AO2
63870K0J4 0J420160407132009804/07/16 13:20:31  5-MIN K0J4 071820Z AUTO VRB04KT 10SM CLR 24/07 A2993 300 33 1500 VRB/04 RMK AO2
63870K0J4 0J420160407132509804/07/16 13:25:31  5-MIN K0J4 071825Z AUTO VRB04KT 10SM CLR 24/07 A2993 310 34 1400 VRB/04 RMK AO2
63870K0J4 0J420160407133009804/07/16 13:30:31  5-MIN K0J4 071830Z AUTO VRB06KT 10SM CLR 24/07 A2993 310 33 1500 VRB/06 RMK AO2
63870K0J4 0J420160407133509804/07/16 13:35:31  5-MIN K0J4 071835Z AUTO VRB05KT 10SM CLR 24/07 A2993 310 34 1500 VRB/05 RMK AO2
63870K0J4 0J420160407134009804/07/16 13:40:31  5-MIN K0J4 071840Z AUTO 00000KT 10SM CLR 24/07 A2992 310 33 1500 000/00 RMK AO2
63870K0J4 0J420160407134509804/07/16 13:45:31  5-MIN K0J4 071845Z AUTO VRB05KT 10SM CLR 24/08 A2992 310 35 1500 VRB/05 RMK AO2
63870K0J4 0J420160407135009804/07/16 13:50:31  5-MIN K0J4 071850Z AUTO VRB04KT 10SM CLR 24/08 A2992 310 34 1500 VRB/04 RMK AO2
63870K0J4 0J420160407135511504/07/16 13:55:31  5-MIN K0J4 071855Z AUTO VRB04KT 10SM CLR 24/08 A2992 320 34 1500 VRB/04 RMK AO2 SLP127 T02440078
63870K0J4 0J420160407140009804/07/16 14:00:31  5-MIN K0J4 071900Z AUTO 00000KT 10SM CLR 24/08 A2992 320 35 1500 000/00 RMK AO2
63870K0J4 0J420160407140509804/07/16 14:05:31  5-MIN K0J4 071905Z AUTO 00000KT 10SM CLR 24/08 A2991 320 34 1500 000/00 RMK AO2
63870K0J4 0J420160407141009804/07/16 14:10:31  5-MIN K0J4 071910Z AUTO VRB06KT 10SM CLR 25/08 A2991 320 33 1600 VRB/06 RMK AO2
63870K0J4 0J420160407141509804/07/16 14:15:31  5-MIN K0J4 071915Z AUTO VRB06KT 10SM CLR 25/08 A2991 320 33 1600 VRB/06 RMK AO2
63870K0J4 0J420160407142009804/07/16 14:20:31  5-MIN K0J4 071920Z AUTO VRB06KT 10SM CLR 25/08 A2991 330 33 1600 VRB/06 RMK AO2
63870K0J4 0J420160407142509804/07/16 14:25:31  5-MIN K0J4 071925Z AUTO VRB03KT 10SM CLR 25/08 A2991 320 33 1600 VRB/03 RMK AO2
63870K0J4 0J420160407143009804/07/16 14:30:31  5-MIN K0J4 071930Z AUTO 01004KT 10SM CLR 25/08 A2991 330 33 1600 010/04 RMK AO2
63870K0J4 0J420160407143509804/07/16 14:35:31  5-MIN K0J4 071935Z AUTO VRB05KT 10SM CLR 25/08 A2991 330 33 1600 VRB/05 RMK AO2
63870K0J4 0J420160407144009804/07/16 14:40:31  5-MIN K0J4 071940Z AUTO VRB04KT 10SM CLR 25/07 A2991 330 31 1600 VRB/04 RMK AO2
63870K0J4 0J420160407144509804/07/16 14:45:31  5-MIN K0J4 071945Z AUTO VRB04KT 10SM CLR 25/07 A2991 330 31 1600 VRB/04 RMK AO2
63870K0J4 0J420160407145009804/07/16 14:50:31  5-MIN K0J4 071950Z AUTO VRB03KT 10SM CLR 25/07 A2991 330 31 1600 VRB/03 RMK AO2
63870K0J4 0J420160407145511504/07/16 14:55:31  5-MIN K0J4 071955Z AUTO VRB04KT 10SM CLR 26/08 A2991 330 32 1700 VRB/04 RMK AO2 SLP123 T02560078
63870K0J4 0J420160407150011404/07/16 15:00:31  5-MIN K0J4 072000Z AUTO 35007KT 310V020 10SM CLR 26/07 A2990 330 30 1700 350/07 310V020 RMK AO2
63870K0J4 0J420160407150509804/07/16 15:05:31  5-MIN K0J4 072005Z AUTO 00000KT 10SM CLR 25/07 A2990 330 30 1600 000/00 RMK AO2
63870K0J4 0J420160407151009804/07/16 15:10:31  5-MIN K0J4 072010Z AUTO 35007KT 10SM CLR 26/07 A2990 340 30 1700 350/07 RMK AO2
63870K0J4 0J420160407151509804/07/16 15:15:31  5-MIN K0J4 072015Z AUTO VRB03KT 10SM CLR 26/07 A2990 340 30 1700 VRB/03 RMK AO2
63870K0J4 0J420160407152009804/07/16 15:20:31  5-MIN K0J4 072020Z AUTO 01006KT 10SM CLR 26/07 A2990 340 29 1700 010/06 RMK AO2
63870K0J4 0J420160407152509804/07/16 15:25:31  5-MIN K0J4 072025Z AUTO VRB06KT 10SM CLR 26/08 A2989 340 32 1700 VRB/06 RMK AO2
63870K0J4 0J420160407153009804/07/16 15:30:31  5-MIN K0J4 072030Z AUTO 27004KT 10SM CLR 25/07 A2989 340 31 1600 270/04 RMK AO2
63870K0J4 0J420160407153509804/07/16 15:35:31  5-MIN K0J4 072035Z AUTO VRB05KT 10SM CLR 25/07 A2989 340 31 1600 VRB/05 RMK AO2
63870K0J4 0J420160407154009804/07/16 15:40:31  5-MIN K0J4 072040Z AUTO VRB04KT 10SM CLR 26/08 A2989 340 32 1700 VRB/04 RMK AO2
63870K0J4 0J420160407154509804/07/16 15:45:31  5-MIN K0J4 072045Z AUTO VRB05KT 10SM CLR 26/08 A2989 340 33 1700 VRB/05 RMK AO2
63870K0J4 0J420160407155009804/07/16 15:50:31  5-MIN K0J4 072050Z AUTO VRB03KT 10SM CLR 26/07 A2989 350 30 1700 VRB/03 RMK AO2
63870K0J4 0J420160407155512104/07/16 15:55:31  5-MIN K0J4 072055Z AUTO VRB06KT 10SM CLR 26/07 A2989 350 29 1700 VRB/06 RMK AO2 SLP117 T02560067 58008
63870K0J4 0J420160407160009804/07/16 16:00:31  5-MIN K0J4 072100Z AUTO VRB03KT 10SM CLR 26/07 A2989 350 29 1700 VRB/03 RMK AO2
63870K0J4 0J420160407160509804/07/16 16:05:31  5-MIN K0J4 072105Z AUTO VRB03KT 10SM CLR 26/07 A2989 350 30 1700 VRB/03 RMK AO2
63870K0J4 0J420160407161009804/07/16 16:10:31  5-MIN K0J4 072110Z AUTO VRB05KT 10SM CLR 25/07 A2989 350 30 1600 VRB/05 RMK AO2
63870K0J4 0J420160407161509804/07/16 16:15:31  5-MIN K0J4 072115Z AUTO VRB05KT 10SM CLR 25/07 A2988 350 30 1600 VRB/05 RMK AO2
63870K0J4 0J420160407162009804/07/16 16:20:31  5-MIN K0J4 072120Z AUTO VRB05KT 10SM CLR 26/06 A2988 350 28 1700 VRB/05 RMK AO2
63870K0J4 0J420160407162509804/07/16 16:25:31  5-MIN K0J4 072125Z AUTO VRB03KT 10SM CLR 26/07 A2988 350 29 1700 VRB/03 RMK AO2
63870K0J4 0J420160407163009804/07/16 16:30:31  5-MIN K0J4 072130Z AUTO 00000KT 10SM CLR 26/07 A2988 350 29 1700 000/00 RMK AO2
63870K0J4 0J420160407163509804/07/16 16:35:31  5-MIN K0J4 072135Z AUTO 00000KT 10SM CLR 26/07 A2988 350 29 1800 000/00 RMK AO2
63870K0J4 0J420160407164009804/07/16 16:40:31  5-MIN K0J4 072140Z AUTO VRB05KT 10SM CLR 26/08 A2988 350 31 1800 VRB/05 RMK AO2
63870K0J4 0J420160407164509804/07/16 16:45:31  5-MIN K0J4 072145Z AUTO VRB03KT 10SM CLR 26/07 A2988 360 29 1800 VRB/03 RMK AO2
63870K0J4 0J420160407165009804/07/16 16:50:31  5-MIN K0J4 072150Z AUTO VRB05KT 10SM CLR 26/07 A2988 360 29 1800 VRB/05 RMK AO2
63870K0J4 0J420160407165511504/07/16 16:55:31  5-MIN K0J4 072155Z AUTO VRB03KT 10SM CLR 26/07 A2988 360 30 1700 VRB/03 RMK AO2 SLP113 T02560072
63870K0J4 0J420160407170009804/07/16 17:00:31  5-MIN K0J4 072200Z AUTO 25003KT 10SM CLR 26/07 A2988 360 30 1700 250/03 RMK AO2
63870K0J4 0J420160407170509804/07/16 17:05:31  5-MIN K0J4 072205Z AUTO VRB03KT 10SM CLR 25/07 A2988 360 31 1600 VRB/03 RMK AO2
63870K0J4 0J420160407171009804/07/16 17:10:31  5-MIN K0J4 072210Z AUTO VRB05KT 10SM CLR 26/07 A2987 360 30 1700 VRB/05 RMK AO2
63870K0J4 0J420160407171509804/07/16 17:15:31  5-MIN K0J4 072215Z AUTO VRB04KT 10SM CLR 25/07 A2987 360 30 1600 VRB/04 RMK AO2
63870K0J4 0J420160407172009804/07/16 17:20:31  5-MIN K0J4 072220Z AUTO VRB05KT 10SM CLR 26/07 A2987 360 29 1700 VRB/05 RMK AO2
63870K0J4 0J420160407172509804/07/16 17:25:31  5-MIN K0J4 072225Z AUTO VRB04KT 10SM CLR 26/06 A2987 360 28 1700 VRB/04 RMK AO2
63870K0J4 0J420160407173009804/07/16 17:30:31  5-MIN K0J4 072230Z AUTO VRB03KT 10SM CLR 25/06 A2987 360 29 1600 VRB/03 RMK AO2
63870K0J4 0J420160407173509804/07/16 17:35:31  5-MIN K0J4 072235Z AUTO 00000KT 10SM CLR 25/07 A2987 360 30 1600 000/00 RMK AO2
63870K0J4 0J420160407174009804/07/16 17:40:31  5-MIN K0J4 072240Z AUTO VRB03KT 10SM CLR 25/07 A2987 360 30 1600 VRB/03 RMK AO2
63870K0J4 0J420160407174509804/07/16 17:45:31  5-MIN K0J4 072245Z AUTO VRB03KT 10SM CLR 25/07 A2987 360 30 1600 VRB/03 RMK AO2
63870K0J4 0J420160407175009804/07/16 17:50:31  5-MIN K0J4 072250Z AUTO VRB04KT 10SM CLR 25/07 A2988 360 30 1600 VRB/04 RMK AO2
63870K0J4 0J420160407175511504/07/16 17:55:31  5-MIN K0J4 072255Z AUTO VRB03KT 10SM CLR 25/07 A2988 360 30 1600 VRB/03 RMK AO2 SLP113 T02500067
63870K0J4 0J420160407180009804/07/16 18:00:31  5-MIN K0J4 072300Z AUTO 00000KT 10SM CLR 25/07 A2988 360 30 1600 000/00 RMK AO2
63870K0J4 0J420160407180509804/07/16 18:05:31  5-MIN K0J4 072305Z AUTO VRB03KT 10SM CLR 25/07 A2988 360 31 1600 VRB/03 RMK AO2
63870K0J4 0J420160407181009804/07/16 18:10:31  5-MIN K0J4 072310Z AUTO 00000KT 10SM CLR 24/07 A2988 350 31 1600 000/00 RMK AO2
63870K0J4 0J420160407181509804/07/16 18:15:31  5-MIN K0J4 072315Z AUTO 00000KT 10SM CLR 24/07 A2988 350 32 1500 000/00 RMK AO2
63870K0J4 0J420160407182009804/07/16 18:20:31  5-MIN K0J4 072320Z AUTO 00000KT 10SM CLR 24/07 A2988 350 34 1500 000/00 RMK AO2
63870K0J4 0J420160407182509804/07/16 18:25:31  5-MIN K0J4 072325Z AUTO 00000KT 10SM CLR 23/08 A2988 350 36 1400 000/00 RMK AO2
63870K0J4 0J420160407183009804/07/16 18:30:31  5-MIN K0J4 072330Z AUTO 00000KT 10SM CLR 23/08 A2988 350 38 1400 000/00 RMK AO2
63870K0J4 0J420160407183509804/07/16 18:35:31  5-MIN K0J4 072335Z AUTO 00000KT 10SM CLR 23/09 A2988 350 40 1400 000/00 RMK AO2
63870K0J4 0J420160407184009804/07/16 18:40:31  5-MIN K0J4 072340Z AUTO 00000KT 10SM CLR 22/09 A2989 350 42 1300 000/00 RMK AO2
63870K0J4 0J420160407184509804/07/16 18:45:31  5-MIN K0J4 072345Z AUTO 00000KT 10SM CLR 22/09 A2989 350 43 1200 000/00 RMK AO2
63870K0J4 0J420160407185009804/07/16 18:50:31  5-MIN K0J4 072350Z AUTO 00000KT 10SM CLR 22/09 A2989 350 45 1200 000/00 RMK AO2
63870K0J4 0J420160407185513304/07/16 18:55:31  5-MIN K0J4 072355Z AUTO 00000KT 10SM CLR 22/09 A2989 350 45 1200 000/00 RMK AO2 SLP118 T02170094 10261 20217 56018
63870K0J4 0J420160407190009804/07/16 19:00:31  5-MIN K0J4 080000Z AUTO 00000KT 10SM CLR 21/10 A2989 340 48 1200 000/00 RMK AO2
63870K0J4 0J420160407190509804/07/16 19:05:31  5-MIN K0J4 080005Z AUTO 00000KT 10SM CLR 21/10 A2989 340 50 1100 000/00 RMK AO2
63870K0J4 0J420160407191009804/07/16 19:10:31  5-MIN K0J4 080010Z AUTO 00000KT 10SM CLR 21/10 A2989 340 50 1100 000/00 RMK AO2
63870K0J4 0J420160407191509804/07/16 19:15:31  5-MIN K0J4 080015Z AUTO 00000KT 10SM CLR 20/11 A2989 340 54 1000 000/00 RMK AO2
63870K0J4 0J420160407192009804/07/16 19:20:31  5-MIN K0J4 080020Z AUTO 00000KT 10SM CLR 20/10 A2989 340 52 1000 000/00 RMK AO2
63870K0J4 0J420160407192509804/07/16 19:25:31  5-MIN K0J4 080025Z AUTO 00000KT 10SM CLR 20/10 A2990 340 52 1000 000/00 RMK AO2
63870K0J4 0J420160407193009804/07/16 19:30:31  5-MIN K0J4 080030Z AUTO 00000KT 10SM CLR 19/10 A2989 340 54 1000 000/00 RMK AO2
63870K0J4 0J420160407193509804/07/16 19:35:31  5-MIN K0J4 080035Z AUTO 21004KT 10SM CLR 19/10 A2990 340 54 1000 210/04 RMK AO2
63870K0J4 0J420160407194009704/07/16 19:40:31  5-MIN K0J4 080040Z AUTO 22007KT 10SM CLR 18/11 A2990 330 62 800 220/07 RMK AO2
63870K0J4 0J420160407194509804/07/16 19:45:31  5-MIN K0J4 080045Z AUTO 24004KT 10SM CLR 19/10 A2990 330 54 1000 240/04 RMK AO2
63870K0J4 0J420160407195009804/07/16 19:50:31  5-MIN K0J4 080050Z AUTO 22006KT 10SM CLR 20/09 A2991 330 50 1000 220/06 RMK AO2
63870K0J4 0J420160407195511504/07/16 19:55:31  5-MIN K0J4 080055Z AUTO 23005KT 10SM CLR 20/09 A2991 330 50 1000 230/05 RMK AO2 SLP125 T02000094
63870K0J4 0J420160407200009804/07/16 20:00:31  5-MIN K0J4 080100Z AUTO 22005KT 10SM CLR 20/09 A2991 330 50 1000 220/05 RMK AO2
63870K0J4 0J420160407200509804/07/16 20:05:31  5-MIN K0J4 080105Z AUTO 22006KT 10SM CLR 19/09 A2991 330 52 1000 220/06 RMK AO2
63870K0J4 0J420160407201009804/07/16 20:10:31  5-MIN K0J4 080110Z AUTO 22006KT 10SM CLR 19/09 A2991 320 52 1000 220/06 RMK AO2
63870K0J4 0J420160407201509804/07/16 20:15:31  5-MIN K0J4 080115Z AUTO 22007KT 10SM CLR 19/09 A2991 320 52 1000 220/07 RMK AO2
63870K0J4 0J420160407202009804/07/16 20:20:31  5-MIN K0J4 080120Z AUTO 22007KT 10SM CLR 19/09 A2991 320 52 1000 220/07 RMK AO2
63870K0J4 0J420160407202509804/07/16 20:25:31  5-MIN K0J4 080125Z AUTO 23007KT 10SM CLR 19/09 A2992 320 52 1000 230/07 RMK AO2
63870K0J4 0J420160407203009804/07/16 20:30:31  5-MIN K0J4 080130Z AUTO 22007KT 10SM CLR 19/09 A2992 320 52 1000 220/07 RMK AO2
63870K0J4 0J420160407203509704/07/16 20:35:31  5-MIN K0J4 080135Z AUTO 22006KT 10SM CLR 19/09 A2992 310 52 900 220/06 RMK AO2
63870K0J4 0J420160407204009704/07/16 20:40:31  5-MIN K0J4 080140Z AUTO 22007KT 10SM CLR 19/09 A2992 310 54 900 220/07 RMK AO2
63870K0J4 0J420160407204509704/07/16 20:45:31  5-MIN K0J4 080145Z AUTO 22007KT 10SM CLR 19/09 A2993 310 52 900 220/07 RMK AO2
63870K0J4 0J420160407205009704/07/16 20:50:31  5-MIN K0J4 080150Z AUTO 22006KT 10SM CLR 19/09 A2993 310 54 900 220/06 RMK AO2
63870K0J4 0J420160407205511404/07/16 20:55:31  5-MIN K0J4 080155Z AUTO 22005KT 10SM CLR 19/09 A2993 310 52 900 220/05 RMK AO2 SLP133 T01890089
63870K0J4 0J420160407210009704/07/16 21:00:31  5-MIN K0J4 080200Z AUTO 23006KT 10SM CLR 19/09 A2994 300 52 900 230/06 RMK AO2
63870K0J4 0J420160407210509704/07/16 21:05:31  5-MIN K0J4 080205Z AUTO 23005KT 10SM CLR 19/09 A2994 300 50 900 230/05 RMK AO2
63870K0J4 0J420160407211009704/07/16 21:10:31  5-MIN K0J4 080210Z AUTO 23006KT 10SM CLR 19/09 A2994 300 52 900 230/06 RMK AO2
63870K0J4 0J420160407211509704/07/16 21:15:31  5-MIN K0J4 080215Z AUTO 23005KT 10SM CLR 19/08 A2994 300 50 900 230/05 RMK AO2
63870K0J4 0J420160407212009704/07/16 21:20:31  5-MIN K0J4 080220Z AUTO 23004KT 10SM CLR 19/08 A2994 290 50 900 230/04 RMK AO2
63870K0J4 0J420160407212509704/07/16 21:25:31  5-MIN K0J4 080225Z AUTO 23005KT 10SM CLR 19/08 A2995 290 50 900 230/05 RMK AO2
63870K0J4 0J420160407213009704/07/16 21:30:31  5-MIN K0J4 080230Z AUTO 22005KT 10SM CLR 18/08 A2995 290 52 800 220/05 RMK AO2
63870K0J4 0J420160407213509704/07/16 21:35:31  5-MIN K0J4 080235Z AUTO 22005KT 10SM CLR 18/09 A2995 290 54 800 220/05 RMK AO2
63870K0J4 0J420160407214009704/07/16 21:40:31  5-MIN K0J4 080240Z AUTO 23005KT 10SM CLR 18/09 A2995 290 54 800 230/05 RMK AO2
63870K0J4 0J420160407214509704/07/16 21:45:31  5-MIN K0J4 080245Z AUTO 22004KT 10SM CLR 18/09 A2995 290 54 800 220/04 RMK AO2
63870K0J4 0J420160407215009704/07/16 21:50:31  5-MIN K0J4 080250Z AUTO 22004KT 10SM CLR 18/09 A2995 290 55 700 220/04 RMK AO2
63870K0J4 0J420160407215512004/07/16 21:55:31  5-MIN K0J4 080255Z AUTO 23004KT 10SM CLR 17/09 A2995 290 60 700 230/04 RMK AO2 SLP140 T01720094 53000
63870K0J4 0J420160407220009704/07/16 22:00:31  5-MIN K0J4 080300Z AUTO 22004KT 10SM CLR 18/09 A2995 290 55 700 220/04 RMK AO2
63870K0J4 0J420160407220509704/07/16 22:05:31  5-MIN K0J4 080305Z AUTO 22005KT 10SM CLR 17/09 A2995 290 60 700 220/05 RMK AO2
63870K0J4 0J420160407221009704/07/16 22:10:31  5-MIN K0J4 080310Z AUTO 23004KT 10SM CLR 17/09 A2995 290 60 700 230/04 RMK AO2
63870K0J4 0J420160407221509704/07/16 22:15:31  5-MIN K0J4 080315Z AUTO 22004KT 10SM CLR 17/09 A2995 290 57 700 220/04 RMK AO2
63870K0J4 0J420160407222009704/07/16 22:20:31  5-MIN K0J4 080320Z AUTO 23004KT 10SM CLR 18/09 A2995 290 55 700 230/04 RMK AO2
63870K0J4 0J420160407222509704/07/16 22:25:31  5-MIN K0J4 080325Z AUTO 23005KT 10SM CLR 18/09 A2995 290 55 700 230/05 RMK AO2
63870K0J4 0J420160407223009704/07/16 22:30:31  5-MIN K0J4 080330Z AUTO 23005KT 10SM CLR 17/09 A2995 290 57 700 230/05 RMK AO2
63870K0J4 0J420160407223509704/07/16 22:35:31  5-MIN K0J4 080335Z AUTO 22004KT 10SM CLR 17/09 A2995 290 57 700 220/04 RMK AO2
63870K0J4 0J420160407224009704/07/16 22:40:31  5-MIN K0J4 080340Z AUTO 23004KT 10SM CLR 17/09 A2995 290 60 600 230/04 RMK AO2
63870K0J4 0J420160407224509704/07/16 22:45:31  5-MIN K0J4 080345Z AUTO 23004KT 10SM CLR 17/09 A2995 290 60 600 230/04 RMK AO2
63870K0J4 0J420160407225009704/07/16 22:50:31  5-MIN K0J4 080350Z AUTO 22003KT 10SM CLR 17/08 A2995 290 55 700 220/03 RMK AO2
63870K0J4 0J420160407225511404/07/16 22:55:31  5-MIN K0J4 080355Z AUTO 23004KT 10SM CLR 17/09 A2995 290 60 600 230/04 RMK AO2 SLP138 T01670089
63870K0J4 0J420160407230009704/07/16 23:00:31  5-MIN K0J4 080400Z AUTO 23005KT 10SM CLR 17/08 A2995 290 57 600 230/05 RMK AO2
63870K0J4 0J420160407230509704/07/16 23:05:31  5-MIN K0J4 080405Z AUTO 23004KT 10SM CLR 17/08 A2995 290 57 600 230/04 RMK AO2
63870K0J4 0J420160407231009704/07/16 23:10:31  5-MIN K0J4 080410Z AUTO VRB04KT 10SM CLR 17/08 A2995 290 57 600 VRB/04 RMK AO2
63870K0J4 0J420160407231509704/07/16 23:15:31  5-MIN K0J4 080415Z AUTO 22003KT 10SM CLR 17/08 A2995 290 57 600 220/03 RMK AO2
63870K0J4 0J420160408100510304/08/16 10:05:31  5-MIN K0J4 081505Z AUTO VRB05G16KT 10SM CLR 19/02 A3006 190 32 700 VRB/05G16 RMK AO2
63870K0J4 0J420160408101011304/08/16 10:10:31  5-MIN K0J4 081510Z AUTO 35008KT 320V020 10SM CLR 18/02 A3006 190 32 700 350/08 320V020 RMK AO2
63870K0J4 0J420160408101509704/08/16 10:15:31  5-MIN K0J4 081515Z AUTO VRB05KT 10SM CLR 19/02 A3006 180 32 700 VRB/05 RMK AO2
63870K0J4 0J420160408102009704/08/16 10:20:31  5-MIN K0J4 081520Z AUTO 01006KT 10SM CLR 19/02 A3006 180 32 700 010/06 RMK AO2
63870K0J4 0J420160408102509704/08/16 10:25:31  5-MIN K0J4 081525Z AUTO 02007KT 10SM CLR 19/03 A3006 180 33 800 020/07 RMK AO2
63870K0J4 0J420160408103010304/08/16 10:30:31  5-MIN K0J4 081530Z AUTO 01007G15KT 10SM CLR 19/02 A3007 180 32 700 010/07G15 RMK AO2
63870K0J4 0J420160408103510304/08/16 10:35:31  5-MIN K0J4 081535Z AUTO 35009G18KT 10SM CLR 19/02 A3007 180 31 700 350/09G18 RMK AO2
63870K0J4 0J420160408104011904/08/16 10:40:31  5-MIN K0J4 081540Z AUTO 35007G18KT 310V020 10SM CLR 19/01 A3007 180 30 700 350/07G18 310V020 RMK AO2
63870K0J4 0J420160408104509704/08/16 10:45:31  5-MIN K0J4 081545Z AUTO VRB04KT 10SM CLR 19/01 A3007 180 30 700 VRB/04 RMK AO2
63870K0J4 0J420160408105009704/08/16 10:50:31  5-MIN K0J4 081550Z AUTO 01008KT 10SM CLR 19/02 A3007 180 31 800 010/08 RMK AO2
63870K0J4 0J420160408105511404/08/16 10:55:31  5-MIN K0J4 081555Z AUTO 01008KT 10SM CLR 19/02 A3007 180 30 800 010/08 RMK AO2 SLP178 T01940017
63870K0J4 0J420160408110011304/08/16 11:00:31  5-MIN K0J4 081600Z AUTO 36008KT 310V020 10SM CLR 19/02 A3006 180 30 800 360/08 310V020 RMK AO2
63870K0J4 0J420160408110510304/08/16 11:05:31  5-MIN K0J4 081605Z AUTO 01008G15KT 10SM CLR 19/01 A3006 190 30 700 010/08G15 RMK AO2
63870K0J4 0J420160408111010304/08/16 11:10:31  5-MIN K0J4 081610Z AUTO VRB06G14KT 10SM CLR 19/01 A3006 180 29 800 VRB/06G14 RMK AO2
63870K0J4 0J420160408111509704/08/16 11:15:31  5-MIN K0J4 081615Z AUTO 35005KT 10SM CLR 19/01 A3007 180 29 800 350/05 RMK AO2
63870K0J4 0J420160408112009704/08/16 11:20:31  5-MIN K0J4 081620Z AUTO 36006KT 10SM CLR 19/02 A3007 180 30 800 360/06 RMK AO2
63870K0J4 0J420160408112511304/08/16 11:25:31  5-MIN K0J4 081625Z AUTO 33007KT 300V010 10SM CLR 20/01 A3007 180 28 800 330/07 300V010 RMK AO2
63870K0J4 0J420160408113011304/08/16 11:30:31  5-MIN K0J4 081630Z AUTO 33007KT 290V030 10SM CLR 19/00 A3006 180 27 800 330/07 290V030 RMK AO2
63870K0J4 0J420160408113509704/08/16 11:35:31  5-MIN K0J4 081635Z AUTO 01008KT 10SM CLR 20/01 A3006 190 28 900 010/08 RMK AO2
63870K0J4 0J420160408114009704/08/16 11:40:31  5-MIN K0J4 081640Z AUTO VRB03KT 10SM CLR 20/01 A3006 190 27 900 VRB/03 RMK AO2
63870K0J4 0J420160408114509704/08/16 11:45:31  5-MIN K0J4 081645Z AUTO VRB05KT 10SM CLR 20/00 A3006 190 26 900 VRB/05 RMK AO2
63870K0J4 0J420160408115009704/08/16 11:50:31  5-MIN K0J4 081650Z AUTO VRB04KT 10SM CLR 20/01 A3006 190 27 900 VRB/04 RMK AO2
63870K0J4 0J420160408115511404/08/16 11:55:31  5-MIN K0J4 081655Z AUTO VRB05KT 10SM CLR 21/01 A3005 190 27 900 VRB/05 RMK AO2 SLP175 T02060011
63870K0J4 0J420160408120009704/08/16 12:00:31  5-MIN K0J4 081700Z AUTO VRB06KT 10SM CLR 20/01 A3005 190 27 900 VRB/06 RMK AO2
63870K0J4 0J420160408120509704/08/16 12:05:31  5-MIN K0J4 081705Z AUTO VRB05KT 10SM CLR 21/01 A3005 200 26 900 VRB/05 RMK AO2
63870K0J4 0J420160408121009804/08/16 12:10:31  5-MIN K0J4 081710Z AUTO VRB05KT 10SM CLR 21/01 A3005 200 26 1000 VRB/05 RMK AO2
63870K0J4 0J420160408121509704/08/16 12:15:31  5-MIN K0J4 081715Z AUTO 32007KT 10SM CLR 21/00 A3005 200 25 900 320/07 RMK AO2
63870K0J4 0J420160408122009704/08/16 12:20:31  5-MIN K0J4 081720Z AUTO VRB05KT 10SM CLR 21/01 A3005 200 26 900 VRB/05 RMK AO2
63870K0J4 0J420160408122509804/08/16 12:25:31  5-MIN K0J4 081725Z AUTO 36006KT 10SM CLR 21/02 A3005 190 27 1000 360/06 RMK AO2
63870K0J4 0J420160408123011304/08/16 12:30:31  5-MIN K0J4 081730Z AUTO 31009KT 250V350 10SM CLR 21/01 A3005 200 26 900 310/09 250V350 RMK AO2
63870K0J4 0J420160408123509704/08/16 12:35:31  5-MIN K0J4 081735Z AUTO 35005KT 10SM CLR 21/00 A3005 200 25 900 350/05 RMK AO2
63870K0J4 0J420160408124009804/08/16 12:40:31  5-MIN K0J4 081740Z AUTO VRB06KT 10SM CLR 21/01 A3005 200 25 1000 VRB/06 RMK AO2
63870K0J4 0J420160408124510404/08/16 12:45:31  5-MIN K0J4 081745Z AUTO VRB04G14KT 10SM CLR 21/01 A3004 200 26 1000 VRB/04G14 RMK AO2
63870K0J4 0J420160408125010404/08/16 12:50:31  5-MIN K0J4 081750Z AUTO VRB05G14KT 10SM CLR 21/00 A3004 200 24 1000 VRB/05G14 RMK AO2
63870K0J4 0J420160408125515004/08/16 12:55:31  5-MIN K0J4 081755Z AUTO 32007KT 270V360 10SM CLR 21/M01 A3004 200 22 1000 320/07 270V360 RMK AO2 SLP171 T02111011 10217 20139 51027
63870K0J4 0J420160408130011504/08/16 13:00:31  5-MIN K0J4 081800Z AUTO 31007KT 260V350 10SM CLR 21/M01 A3004 200 23 1000 310/07 260V350 RMK AO2
63870K0J4 0J420160408130509804/08/16 13:05:31  5-MIN K0J4 081805Z AUTO VRB06KT 10SM CLR 21/M01 A3004 200 24 900 VRB/06 RMK AO2
63870K0J4 0J420160408131009804/08/16 13:10:31  5-MIN K0J4 081810Z AUTO VRB04KT 10SM CLR 22/01 A3004 200 25 1100 VRB/04 RMK AO2
63870K0J4 0J420160408131509804/08/16 13:15:31  5-MIN K0J4 081815Z AUTO VRB05KT 10SM CLR 22/01 A3004 210 24 1100 VRB/05 RMK AO2
63870K0J4 0J420160408132012104/08/16 13:20:31  5-MIN K0J4 081820Z AUTO 30007G18KT 210V020 10SM CLR 21/M01 A3004 200 23 1000 300/07G18 210V020 RMK AO2
63870K0J4 0J420160408132510504/08/16 13:25:31  5-MIN K0J4 081825Z AUTO VRB05G18KT 10SM CLR 21/M01 A3004 210 22 1000 VRB/05G18 RMK AO2
63870K0J4 0J420160408133009904/08/16 13:30:31  5-MIN K0J4 081830Z AUTO VRB06KT 10SM CLR 22/M01 A3004 210 22 1100 VRB/06 RMK AO2
63870K0J4 0J420160408133509804/08/16 13:35:31  5-MIN K0J4 081835Z AUTO 33008KT 10SM CLR 22/00 A3004 210 23 1100 330/08 RMK AO2
63870K0J4 0J420160408134009904/08/16 13:40:31  5-MIN K0J4 081840Z AUTO VRB05KT 10SM CLR 21/M01 A3003 210 23 1000 VRB/05 RMK AO2
63870K0J4 0J420160408134511504/08/16 13:45:31  5-MIN K0J4 081845Z AUTO 34007KT 270V020 10SM CLR 22/M01 A3003 210 22 1100 340/07 270V020 RMK AO2
63870K0J4 0J420160408135011504/08/16 13:50:31  5-MIN K0J4 081850Z AUTO 32007KT 250V360 10SM CLR 21/M02 A3003 210 21 1000 320/07 250V360 RMK AO2
63870K0J4 0J420160408135512204/08/16 13:55:31  5-MIN K0J4 081855Z AUTO 35010G16KT 10SM CLR 21/M02 A3003 210 21 1000 350/10G16 RMK AO2 SLP166 T02111017
63870K0J4 0J420160408140012104/08/16 14:00:31  5-MIN K0J4 081900Z AUTO 35008G16KT 310V030 10SM CLR 21/M01 A3003 220 22 1000 350/08G16 310V030 RMK AO2
63870K0J4 0J420160408140512104/08/16 14:05:31  5-MIN K0J4 081905Z AUTO 29007G14KT 260V320 10SM CLR 22/M01 A3003 220 22 1100 290/07G14 260V320 RMK AO2
63870K0J4 0J420160408141009904/08/16 14:10:31  5-MIN K0J4 081910Z AUTO VRB04KT 10SM CLR 21/M01 A3002 220 22 1000 VRB/04 RMK AO2
63870K0J4 0J420160408141509904/08/16 14:15:31  5-MIN K0J4 081915Z AUTO VRB03KT 10SM CLR 22/M01 A3002 220 22 1100 VRB/03 RMK AO2
63870K0J4 0J420160408142011504/08/16 14:20:31  5-MIN K0J4 081920Z AUTO 30007KT 250V330 10SM CLR 22/M01 A3002 220 22 1100 300/07 250V330 RMK AO2
63870K0J4 0J420160408142511504/08/16 14:25:31  5-MIN K0J4 081925Z AUTO 29007KT 220V340 10SM CLR 22/M01 A3002 220 21 1100 290/07 220V340 RMK AO2
63870K0J4 0J420160408143009904/08/16 14:30:31  5-MIN K0J4 081930Z AUTO VRB05KT 10SM CLR 22/M01 A3002 230 21 1100 VRB/05 RMK AO2
63870K0J4 0J420160408143511504/08/16 14:35:31  5-MIN K0J4 081935Z AUTO 33007KT 300V030 10SM CLR 22/M01 A3002 230 21 1100 330/07 300V030 RMK AO2
63870K0J4 0J420160408144009904/08/16 14:40:31  5-MIN K0J4 081940Z AUTO VRB05KT 10SM CLR 22/M01 A3002 230 22 1100 VRB/05 RMK AO2
63870K0J4 0J420160408144511504/08/16 14:45:31  5-MIN K0J4 081945Z AUTO 33009KT 300V010 10SM CLR 22/M01 A3002 230 21 1200 330/09 300V010 RMK AO2
63870K0J4 0J420160408145012104/08/16 14:50:31  5-MIN K0J4 081950Z AUTO 35007G17KT 310V020 10SM CLR 22/M01 A3002 230 22 1100 350/07G17 310V020 RMK AO2
63870K0J4 0J420160408145512104/08/16 14:55:31  5-MIN K0J4 081955Z AUTO 35006G17KT 10SM CLR 22/00 A3002 230 22 1200 350/06G17 RMK AO2 SLP162 T02220000
63870K0J4 0J420160408150009904/08/16 15:00:31  5-MIN K0J4 082000Z AUTO VRB04KT 10SM CLR 22/M01 A3001 230 22 1100 VRB/04 RMK AO2
63870K0J4 0J420160408150509804/08/16 15:05:31  5-MIN K0J4 082005Z AUTO VRB06KT 10SM CLR 22/01 A3001 230 23 1200 VRB/06 RMK AO2
63870K0J4 0J420160408151011504/08/16 15:10:31  5-MIN K0J4 082010Z AUTO 34009KT 290V020 10SM CLR 22/M01 A3001 230 22 1100 340/09 290V020 RMK AO2
63870K0J4 0J420160408151510404/08/16 15:15:31  5-MIN K0J4 082015Z AUTO VRB05G15KT 10SM CLR 22/00 A3001 230 23 1100 VRB/05G15 RMK AO2
63870K0J4 0J420160408152010404/08/16 15:20:31  5-MIN K0J4 082020Z AUTO VRB06G15KT 10SM CLR 22/01 A3001 230 23 1200 VRB/06G15 RMK AO2
63870K0J4 0J420160408152511504/08/16 15:25:31  5-MIN K0J4 082025Z AUTO 32007KT 250V020 10SM CLR 22/M01 A3001 230 21 1200 320/07 250V020 RMK AO2
63870K0J4 0J420160408153009904/08/16 15:30:31  5-MIN K0J4 082030Z AUTO VRB04KT 10SM CLR 22/M01 A3001 230 21 1200 VRB/04 RMK AO2
63870K0J4 0J420160408153511504/08/16 15:35:31  5-MIN K0J4 082035Z AUTO 31008KT 260V340 10SM CLR 22/M01 A3001 230 22 1100 310/08 260V340 RMK AO2
63870K0J4 0J420160408154009904/08/16 15:40:31  5-MIN K0J4 082040Z AUTO VRB04KT 10SM CLR 21/M01 A3001 240 23 1000 VRB/04 RMK AO2
63870K0J4 0J420160408154511404/08/16 15:45:31  5-MIN K0J4 082045Z AUTO 32007KT 290V350 10SM CLR 22/00 A3001 240 23 1100 320/07 290V350 RMK AO2
63870K0J4 0J420160408155009804/08/16 15:50:31  5-MIN K0J4 082050Z AUTO VRB05KT 10SM CLR 22/00 A3000 240 22 1200 VRB/05 RMK AO2
63870K0J4 0J420160408155512704/08/16 15:55:31  5-MIN K0J4 082055Z AUTO VRB06G14KT 10SM CLR 22/00 A3000 240 23 1100 VRB/06G14 RMK AO2 SLP157 T02170000 58006
63870K0J4 0J420160408160010504/08/16 16:00:31  5-MIN K0J4 082100Z AUTO VRB04G14KT 10SM CLR 22/M01 A3000 240 22 1100 VRB/04G14 RMK AO2
63870K0J4 0J420160408160509904/08/16 16:05:31  5-MIN K0J4 082105Z AUTO VRB06KT 10SM CLR 22/M01 A3000 250 22 1100 VRB/06 RMK AO2
63870K0J4 0J420160408161009804/08/16 16:10:31  5-MIN K0J4 082110Z AUTO VRB05KT 10SM CLR 22/00 A3000 250 23 1100 VRB/05 RMK AO2
63870K0J4 0J420160408161509804/08/16 16:15:31  5-MIN K0J4 082115Z AUTO VRB04KT 10SM CLR 22/01 A3000 250 24 1100 VRB/04 RMK AO2
63870K0J4 0J420160408162009804/08/16 16:20:31  5-MIN K0J4 082120Z AUTO VRB06KT 10SM CLR 22/00 A3000 250 23 1100 VRB/06 RMK AO2
63870K0J4 0J420160408162509804/08/16 16:25:31  5-MIN K0J4 082125Z AUTO VRB05KT 10SM CLR 22/01 A3000 250 23 1200 VRB/05 RMK AO2
63870K0J4 0J420160408163009904/08/16 16:30:31  5-MIN K0J4 082130Z AUTO 31005KT 10SM CLR 22/M01 A3000 250 22 1100 310/05 RMK AO2
63870K0J4 0J420160408163509904/08/16 16:35:31  5-MIN K0J4 082135Z AUTO VRB04KT 10SM CLR 22/M01 A2999 250 22 1100 VRB/04 RMK AO2
63870K0J4 0J420160408164009804/08/16 16:40:31  5-MIN K0J4 082140Z AUTO 34007KT 10SM CLR 22/01 A2999 250 23 1200 340/07 RMK AO2
63870K0J4 0J420160408164509904/08/16 16:45:31  5-MIN K0J4 082145Z AUTO VRB04KT 10SM CLR 22/M01 A3000 250 21 1200 VRB/04 RMK AO2
63870K0J4 0J420160408165011504/08/16 16:50:31  5-MIN K0J4 082150Z AUTO 34007KT 280V010 10SM CLR 22/M01 A3000 250 21 1200 340/07 280V010 RMK AO2
63870K0J4 0J420160408165511604/08/16 16:55:31  5-MIN K0J4 082155Z AUTO VRB06KT 10SM CLR 22/M02 A3000 250 20 1100 VRB/06 RMK AO2 SLP154 T02171017
63870K0J4 0J420160408170009904/08/16 17:00:31  5-MIN K0J4 082200Z AUTO VRB03KT 10SM CLR 22/M01 A3000 250 21 1200 VRB/03 RMK AO2
63870K0J4 0J420160408170511504/08/16 17:05:31  5-MIN K0J4 082205Z AUTO 33007KT 310V010 10SM CLR 22/M01 A3000 240 21 1200 330/07 310V010 RMK AO2
63870K0J4 0J420160408171009904/08/16 17:10:31  5-MIN K0J4 082210Z AUTO 34007KT 10SM CLR 22/M01 A3000 250 21 1100 340/07 RMK AO2
63870K0J4 0J420160408171509904/08/16 17:15:31  5-MIN K0J4 082215Z AUTO VRB06KT 10SM CLR 22/M01 A3000 240 21 1100 VRB/06 RMK AO2
63870K0J4 0J420160408172009904/08/16 17:20:31  5-MIN K0J4 082220Z AUTO VRB04KT 10SM CLR 22/M01 A3000 240 22 1100 VRB/04 RMK AO2
63870K0J4 0J420160408172509804/08/16 17:25:31  5-MIN K0J4 082225Z AUTO VRB04KT 10SM CLR 22/00 A3000 240 23 1100 VRB/04 RMK AO2
63870K0J4 0J420160408173009804/08/16 17:30:31  5-MIN K0J4 082230Z AUTO VRB05KT 10SM CLR 22/00 A3000 240 23 1100 VRB/05 RMK AO2
63870K0J4 0J420160408173509904/08/16 17:35:31  5-MIN K0J4 082235Z AUTO VRB06KT 10SM CLR 22/M01 A3001 240 22 1100 VRB/06 RMK AO2
63870K0J4 0J420160408174009904/08/16 17:40:31  5-MIN K0J4 082240Z AUTO VRB04KT 10SM CLR 21/M01 A3001 240 23 1000 VRB/04 RMK AO2
63870K0J4 0J420160408174509904/08/16 17:45:31  5-MIN K0J4 082245Z AUTO 33007KT 10SM CLR 21/M01 A3001 240 23 1000 330/07 RMK AO2
63870K0J4 0J420160408175011504/08/16 17:50:31  5-MIN K0J4 082250Z AUTO 32007KT 290V360 10SM CLR 21/M01 A3001 230 22 1000 320/07 290V360 RMK AO2
63870K0J4 0J420160408175511604/08/16 17:55:31  5-MIN K0J4 082255Z AUTO VRB04KT 10SM CLR 21/M02 A3001 230 21 1000 VRB/04 RMK AO2 SLP160 T02111017
63870K0J4 0J420160408180009904/08/16 18:00:31  5-MIN K0J4 082300Z AUTO VRB05KT 10SM CLR 21/M01 A3001 230 23 1000 VRB/05 RMK AO2
63870K0J4 0J420160408180509904/08/16 18:05:31  5-MIN K0J4 082305Z AUTO VRB05KT 10SM CLR 21/M01 A3001 230 24 1000 VRB/05 RMK AO2
63870K0J4 0J420160408181009904/08/16 18:10:31  5-MIN K0J4 082310Z AUTO 32004KT 10SM CLR 21/M01 A3001 230 23 1000 320/04 RMK AO2
63870K0J4 0J420160408181509804/08/16 18:15:31  5-MIN K0J4 082315Z AUTO 34004KT 10SM CLR 20/M01 A3002 230 24 900 340/04 RMK AO2
63870K0J4 0J420160408182009804/08/16 18:20:31  5-MIN K0J4 082320Z AUTO VRB03KT 10SM CLR 20/M01 A3002 230 25 900 VRB/03 RMK AO2
63870K0J4 0J420160408182509704/08/16 18:25:31  5-MIN K0J4 082325Z AUTO VRB03KT 10SM CLR 19/00 A3002 230 27 800 VRB/03 RMK AO2
63870K0J4 0J420160408183009704/08/16 18:30:31  5-MIN K0J4 082330Z AUTO 33005KT 10SM CLR 19/00 A3002 230 27 800 330/05 RMK AO2
63870K0J4 0J420160408183509704/08/16 18:35:31  5-MIN K0J4 082335Z AUTO 32003KT 10SM CLR 19/00 A3002 230 27 800 320/03 RMK AO2
63870K0J4 0J420160408184009704/08/16 18:40:31  5-MIN K0J4 082340Z AUTO 32003KT 10SM CLR 19/00 A3002 220 28 800 320/03 RMK AO2
63870K0J4 0J420160408184509704/08/16 18:45:31  5-MIN K0J4 082345Z AUTO 00000KT 10SM CLR 19/00 A3002 220 28 800 000/00 RMK AO2
63870K0J4 0J420160408185009704/08/16 18:50:31  5-MIN K0J4 082350Z AUTO 00000KT 10SM CLR 18/02 A3002 220 32 700 000/00 RMK AO2
63870K0J4 0J420160408185513204/08/16 18:55:31  5-MIN K0J4 082355Z AUTO 00000KT 10SM CLR 18/01 A3002 220 31 700 000/00 RMK AO2 SLP164 T01830011 10228 20183 56014
63870K0J4 0J420160408190009704/08/16 19:00:31  5-MIN K0J4 090000Z AUTO 00000KT 10SM CLR 18/02 A3003 220 35 600 000/00 RMK AO2
63870K0J4 0J420160408190509704/08/16 19:05:31  5-MIN K0J4 090005Z AUTO 00000KT 10SM CLR 17/03 A3003 220 37 600 000/00 RMK AO2
63870K0J4 0J420160408191009704/08/16 19:10:31  5-MIN K0J4 090010Z AUTO 00000KT 10SM CLR 17/03 A3003 220 40 500 000/00 RMK AO2
63870K0J4 0J420160408191509704/08/16 19:15:31  5-MIN K0J4 090015Z AUTO 00000KT 10SM CLR 17/03 A3003 210 40 500 000/00 RMK AO2
63870K0J4 0J420160408192009704/08/16 19:20:31  5-MIN K0J4 090020Z AUTO 00000KT 10SM CLR 16/03 A3003 210 42 400 000/00 RMK AO2
63870K0J4 0J420160408192509704/08/16 19:25:31  5-MIN K0J4 090025Z AUTO 00000KT 10SM CLR 16/04 A3003 210 45 400 000/00 RMK AO2
63870K0J4 0J420160408193009704/08/16 19:30:31  5-MIN K0J4 090030Z AUTO 00000KT 10SM CLR 15/04 A3003 210 49 300 000/00 RMK AO2
63870K0J4 0J420160408193509704/08/16 19:35:31  5-MIN K0J4 090035Z AUTO 00000KT 10SM CLR 15/04 A3004 210 49 300 000/00 RMK AO2
63870K0J4 0J420160408194009704/08/16 19:40:31  5-MIN K0J4 090040Z AUTO 00000KT 10SM CLR 15/04 A3004 210 47 300 000/00 RMK AO2
63870K0J4 0J420160408194509704/08/16 19:45:31  5-MIN K0J4 090045Z AUTO 00000KT 10SM CLR 15/04 A3004 200 49 300 000/00 RMK AO2
63870K0J4 0J420160408195009704/08/16 19:50:31  5-MIN K0J4 090050Z AUTO 00000KT 10SM CLR 15/04 A3004 200 47 300 000/00 RMK AO2
63870K0J4 0J420160408195511404/08/16 19:55:31  5-MIN K0J4 090055Z AUTO 00000KT 10SM CLR 14/04 A3004 200 51 200 000/00 RMK AO2 SLP172 T01440044
63870K0J4 0J420160408200009704/08/16 20:00:31  5-MIN K0J4 090100Z AUTO 00000KT 10SM CLR 14/05 A3005 200 55 200 000/00 RMK AO2
63870K0J4 0J420160408200509704/08/16 20:05:31  5-MIN K0J4 090105Z AUTO 00000KT 10SM CLR 14/05 A3005 200 55 200 000/00 RMK AO2
63870K0J4 0J420160408201009704/08/16 20:10:31  5-MIN K0J4 090110Z AUTO 00000KT 10SM CLR 14/04 A3005 200 52 200 000/00 RMK AO2
63870K0J4 0J420160408201509704/08/16 20:15:31  5-MIN K0J4 090115Z AUTO 00000KT 10SM CLR 14/04 A3005 190 52 100 000/00 RMK AO2
63870K0J4 0J420160408202009704/08/16 20:20:31  5-MIN K0J4 090120Z AUTO 00000KT 10SM CLR 14/05 A3006 190 55 100 000/00 RMK AO2
63870K0J4 0J420160408202509704/08/16 20:25:31  5-MIN K0J4 090125Z AUTO 00000KT 10SM CLR 13/05 A3006 190 57 100 000/00 RMK AO2
63870K0J4 0J420160408203009704/08/16 20:30:31  5-MIN K0J4 090130Z AUTO 00000KT 10SM CLR 13/04 A3006 190 54 100 000/00 RMK AO2
63870K0J4 0J420160408203509704/08/16 20:35:31  5-MIN K0J4 090135Z AUTO 00000KT 10SM CLR 13/05 A3006 190 57 100 000/00 RMK AO2
63870K0J4 0J420160408204009704/08/16 20:40:31  5-MIN K0J4 090140Z AUTO 00000KT 10SM CLR 13/05 A3006 190 57 100 000/00 RMK AO2
63870K0J4 0J420160408204509704/08/16 20:45:31  5-MIN K0J4 090145Z AUTO 00000KT 10SM CLR 13/04 A3006 190 54 100 000/00 RMK AO2
63870K0J4 0J420160408205009704/08/16 20:50:31  5-MIN K0J4 090150Z AUTO 00000KT 10SM CLR 13/04 A3006 190 54 100 000/00 RMK AO2
63870K0J4 0J420160408205511204/08/16 20:55:31  5-MIN K0J4 090155Z AUTO 00000KT 10SM CLR 13/05 A3007 180 59 0 000/00 RMK AO2 SLP179 T01280050
63870K0J4 0J420160408210009504/08/16 21:00:31  5-MIN K0J4 090200Z AUTO 00000KT 10SM CLR 13/06 A3007 180 61 0 000/00 RMK AO2
63870K0J4 0J420160408210509504/08/16 21:05:31  5-MIN K0J4 090205Z AUTO 00000KT 10SM CLR 12/06 A3007 170 63 0 000/00 RMK AO2
63870K0J4 0J420160408211009504/08/16 21:10:31  5-MIN K0J4 090210Z AUTO 00000KT 10SM CLR 13/06 A3008 170 61 0 000/00 RMK AO2
63870K0J4 0J420160408211509504/08/16 21:15:31  5-MIN K0J4 090215Z AUTO 00000KT 10SM CLR 12/06 A3008 170 63 0 000/00 RMK AO2
63870K0J4 0J420160408212009504/08/16 21:20:31  5-MIN K0J4 090220Z AUTO 00000KT 10SM CLR 12/06 A3008 170 63 0 000/00 RMK AO2
63870K0J4 0J420160408212509804/08/16 21:25:31  5-MIN K0J4 090225Z AUTO 00000KT 10SM CLR 12/06 A3008 160 66 -100 000/00 RMK AO2
63870K0J4 0J420160408213009504/08/16 21:30:31  5-MIN K0J4 090230Z AUTO 00000KT 10SM CLR 13/04 A3009 160 52 0 000/00 RMK AO2
63870K0J4 0J420160408213509704/08/16 21:35:31  5-MIN K0J4 090235Z AUTO 33003KT 10SM CLR 14/03 A3009 160 47 100 330/03 RMK AO2
63870K0J4 0J420160408214009704/08/16 21:40:31  5-MIN K0J4 090240Z AUTO 00000KT 10SM CLR 14/03 A3009 160 47 100 000/00 RMK AO2
63870K0J4 0J420160408214509704/08/16 21:45:31  5-MIN K0J4 090245Z AUTO VRB03KT 10SM CLR 14/03 A3009 160 47 100 VRB/03 RMK AO2
63870K0J4 0J420160408215009704/08/16 21:50:31  5-MIN K0J4 090250Z AUTO 33005KT 10SM CLR 14/03 A3010 150 47 100 330/05 RMK AO2
63870K0J4 0J420160408215512004/08/16 21:55:31  5-MIN K0J4 090255Z AUTO 34004KT 10SM CLR 14/02 A3010 150 43 100 340/04 RMK AO2 SLP189 T01390017 53008
63870K0J4 0J420160408220009704/08/16 22:00:31  5-MIN K0J4 090300Z AUTO 00000KT 10SM CLR 14/02 A3010 150 41 200 000/00 RMK AO2
63870K0J4 0J420160408220509704/08/16 22:05:31  5-MIN K0J4 090305Z AUTO 00000KT 10SM CLR 14/02 A3010 150 43 100 000/00 RMK AO2
63870K0J4 0J420160408221009504/08/16 22:10:31  5-MIN K0J4 090310Z AUTO VRB03KT 10SM CLR 13/03 A3010 150 48 0 VRB/03 RMK AO2
63870K0J4 0J420160408221509504/08/16 22:15:31  5-MIN K0J4 090315Z AUTO 00000KT 10SM CLR 13/02 A3010 150 46 0 000/00 RMK AO2
63870K0J4 0J420160408222009504/08/16 22:20:31  5-MIN K0J4 090320Z AUTO 00000KT 10SM CLR 13/03 A3010 150 50 0 000/00 RMK AO2
63870K0J4 0J420160408222509804/08/16 22:25:31  5-MIN K0J4 090325Z AUTO VRB03KT 10SM CLR 12/03 A3010 150 52 -100 VRB/03 RMK AO2
63870K0J4 0J420160408223009804/08/16 22:30:31  5-MIN K0J4 090330Z AUTO 00000KT 10SM CLR 12/03 A3011 150 52 -100 000/00 RMK AO2
63870K0J4 0J420160408223509804/08/16 22:35:31  5-MIN K0J4 090335Z AUTO 00000KT 10SM CLR 12/02 A3011 140 50 -100 000/00 RMK AO2
63870K0J4 0J420160408224009504/08/16 22:40:31  5-MIN K0J4 090340Z AUTO VRB03KT 10SM CLR 13/02 A3011 140 45 0 VRB/03 RMK AO2
63870K0J4 0J420160408224509504/08/16 22:45:31  5-MIN K0J4 090345Z AUTO 00000KT 10SM CLR 13/02 A3011 140 48 0 000/00 RMK AO2
63870K0J4 0J420160408225009804/08/16 22:50:31  5-MIN K0J4 090350Z AUTO 00000KT 10SM CLR 12/03 A3011 140 52 -100 000/00 RMK AO2
63870K0J4 0J420160408225511504/08/16 22:55:31  5-MIN K0J4 090355Z AUTO VRB03KT 10SM CLR 12/03 A3011 140 54 -100 VRB/03 RMK AO2 SLP194 T01170028
63870K0J4 0J420160408230009804/08/16 23:00:31  5-MIN K0J4 090400Z AUTO 32003KT 10SM CLR 12/03 A3011 140 54 -100 320/03 RMK AO2
63870K0J4 0J420160408230509804/08/16 23:05:31  5-MIN K0J4 090405Z AUTO 34004KT 10SM CLR 12/02 A3011 140 48 -100 340/04 RMK AO2
63870K0J4 0J420160408231009504/08/16 23:10:31  5-MIN K0J4 090410Z AUTO 00000KT 10SM CLR 13/00 A3012 140 40 0 000/00 RMK AO2
63870K0J4 0J420160408231509504/08/16 23:15:31  5-MIN K0J4 090415Z AUTO VRB04KT 10SM CLR 13/01 A3012 130 41 0 VRB/04 RMK AO2
63870K0J4 0J420160408232009504/08/16 23:20:31  5-MIN K0J4 090420Z AUTO 33004KT 10SM CLR 13/00 A3012 130 40 0 330/04 RMK AO2
63870K0J4 0J420160408232509504/08/16 23:25:31  5-MIN K0J4 090425Z AUTO VRB03KT 10SM CLR 13/00 A3012 130 41 0 VRB/03 RMK AO2
63870K0J4 0J420160408233009504/08/16 23:30:31  5-MIN K0J4 090430Z AUTO 33003KT 10SM CLR 13/00 A3012 130 41 0 330/03 RMK AO2
63870K0J4 0J420160408233509504/08/16 23:35:31  5-MIN K0J4 090435Z AUTO VRB03KT 10SM CLR 13/00 A3012 130 41 0 VRB/03 RMK AO2
63870K0J4 0J420160408234009504/08/16 23:40:31  5-MIN K0J4 090440Z AUTO 34004KT 10SM CLR 13/00 A3012 130 41 0 340/04 RMK AO2
63870K0J4 0J420160408234509504/08/16 23:45:31  5-MIN K0J4 090445Z AUTO VRB03KT 10SM CLR 13/00 A3012 130 41 0 VRB/03 RMK AO2
63870K0J4 0J420160408235009804/08/16 23:50:31  5-MIN K0J4 090450Z AUTO 00000KT 10SM CLR 12/00 A3012 130 43 -100 000/00 RMK AO2
63870K0J4 0J420160408235512504/08/16 23:55:31  5-MIN K0J4 090455Z AUTO 00000KT 10SM CLR 12/01 A3013 130 44 -100 000/00 RMK AO2 SLP199 T01220006 402280117
63870K0J4 0J420160409000009804/09/16 00:00:31  5-MIN K0J4 090500Z AUTO 00000KT 10SM CLR 12/00 A3013 130 43 -100 000/00 RMK AO2
63870K0J4 0J420160409000509804/09/16 00:05:31  5-MIN K0J4 090505Z AUTO 00000KT 10SM CLR 12/01 A3013 120 48 -200 000/00 RMK AO2
63870K0J4 0J420160409001009804/09/16 00:10:31  5-MIN K0J4 090510Z AUTO 00000KT 10SM CLR 11/02 A3013 120 54 -200 000/00 RMK AO2
63870K0J4 0J420160409001509804/09/16 00:15:31  5-MIN K0J4 090515Z AUTO VRB03KT 10SM CLR 11/01 A3013 120 50 -200 VRB/03 RMK AO2
63870K0J4 0J420160409002009804/09/16 00:20:31  5-MIN K0J4 090520Z AUTO 34003KT 10SM CLR 11/01 A3013 120 50 -200 340/03 RMK AO2
63870K0J4 0J420160409002509804/09/16 00:25:31  5-MIN K0J4 090525Z AUTO 00000KT 10SM CLR 11/01 A3013 120 48 -200 000/00 RMK AO2
63870K0J4 0J420160409003009804/09/16 00:30:31  5-MIN K0J4 090530Z AUTO 00000KT 10SM CLR 11/02 A3013 120 54 -300 000/00 RMK AO2
63870K0J4 0J420160409003509804/09/16 00:35:31  5-MIN K0J4 090535Z AUTO 00000KT 10SM CLR 11/02 A3013 120 54 -300 000/00 RMK AO2
63870K0J4 0J420160409004009804/09/16 00:40:31  5-MIN K0J4 090540Z AUTO 00000KT 10SM CLR 10/02 A3013 120 58 -400 000/00 RMK AO2
63870K0J4 0J420160409004509804/09/16 00:45:31  5-MIN K0J4 090545Z AUTO 32003KT 10SM CLR 11/02 A3013 120 54 -300 320/03 RMK AO2
63870K0J4 0J420160409005009804/09/16 00:50:31  5-MIN K0J4 090550Z AUTO 00000KT 10SM CLR 11/02 A3013 120 54 -300 000/00 RMK AO2
63870K0J4 0J420160409005513304/09/16 00:55:31  5-MIN K0J4 090555Z AUTO 00000KT 10SM CLR 11/01 A3013 120 52 -300 000/00 RMK AO2 SLP200 T01060011 10178 20100 53025
63870K0J4 0J420160409010009804/09/16 01:00:31  5-MIN K0J4 090600Z AUTO 00000KT 10SM CLR 11/02 A3013 120 54 -300 000/00 RMK AO2
63870K0J4 0J420160409010509804/09/16 01:05:31  5-MIN K0J4 090605Z AUTO 00000KT 10SM CLR 10/02 A3013 120 56 -400 000/00 RMK AO2
63870K0J4 0J420160409011009804/09/16 01:10:31  5-MIN K0J4 090610Z AUTO VRB03KT 10SM CLR 10/03 A3013 120 60 -400 VRB/03 RMK AO2
63870K0J4 0J420160409011509804/09/16 01:15:31  5-MIN K0J4 090615Z AUTO 00000KT 10SM CLR 10/02 A3013 120 56 -400 000/00 RMK AO2
63870K0J4 0J420160409012009804/09/16 01:20:31  5-MIN K0J4 090620Z AUTO 00000KT 10SM CLR 10/02 A3013 120 58 -400 000/00 RMK AO2
63870K0J4 0J420160409012509804/09/16 01:25:31  5-MIN K0J4 090625Z AUTO 00000KT 10SM CLR 10/02 A3013 120 56 -400 000/00 RMK AO2
63870K0J4 0J420160409013009804/09/16 01:30:31  5-MIN K0J4 090630Z AUTO 00000KT 10SM CLR 10/02 A3013 130 58 -400 000/00 RMK AO2
63870K0J4 0J420160409013509804/09/16 01:35:31  5-MIN K0J4 090635Z AUTO 00000KT 10SM CLR 09/02 A3013 130 60 -400 000/00 RMK AO2
63870K0J4 0J420160409014009804/09/16 01:40:31  5-MIN K0J4 090640Z AUTO 00000KT 10SM CLR 10/02 A3012 130 58 -400 000/00 RMK AO2
63870K0J4 0J420160409014509804/09/16 01:45:31  5-MIN K0J4 090645Z AUTO 00000KT 10SM CLR 10/02 A3012 130 56 -400 000/00 RMK AO2
63870K0J4 0J420160409015009804/09/16 01:50:31  5-MIN K0J4 090650Z AUTO 00000KT 10SM CLR 09/02 A3013 130 60 -400 000/00 RMK AO2
63870K0J4 0J420160409015511504/09/16 01:55:31  5-MIN K0J4 090655Z AUTO 00000KT 10SM CLR 09/02 A3013 130 58 -400 000/00 RMK AO2 SLP199 T00940017
63870K0J4 0J420160409020009804/09/16 02:00:31  5-MIN K0J4 090700Z AUTO 00000KT 10SM CLR 09/02 A3013 130 60 -400 000/00 RMK AO2
63870K0J4 0J420160409020509804/09/16 02:05:31  5-MIN K0J4 090705Z AUTO 00000KT 10SM CLR 09/02 A3012 130 60 -400 000/00 RMK AO2
63870K0J4 0J420160409021009804/09/16 02:10:31  5-MIN K0J4 090710Z AUTO 00000KT 10SM CLR 09/03 A3013 130 65 -500 000/00 RMK AO2
63870K0J4 0J420160409021509804/09/16 02:15:31  5-MIN K0J4 090715Z AUTO 00000KT 10SM CLR 08/03 A3012 130 68 -600 000/00 RMK AO2
63870K0J4 0J420160409022009804/09/16 02:20:31  5-MIN K0J4 090720Z AUTO 00000KT 10SM CLR 08/04 A3012 130 73 -600 000/00 RMK AO2
63870K0J4 0J420160409022509804/09/16 02:25:31  5-MIN K0J4 090725Z AUTO 00000KT 10SM CLR 08/04 A3012 130 76 -600 000/00 RMK AO2
63870K0J4 0J420160409023009804/09/16 02:30:31  5-MIN K0J4 090730Z AUTO 00000KT 10SM CLR 08/03 A3012 130 73 -600 000/00 RMK AO2
63870K0J4 0J420160409023509804/09/16 02:35:31  5-MIN K0J4 090735Z AUTO 00000KT 10SM CLR 08/03 A3012 130 73 -600 000/00 RMK AO2
63870K0J4 0J420160409024009804/09/16 02:40:31  5-MIN K0J4 090740Z AUTO 00000KT 10SM CLR 07/04 A3012 140 79 -700 000/00 RMK AO2
63870K0J4 0J420160409024509804/09/16 02:45:31  5-MIN K0J4 090745Z AUTO 00000KT 10SM CLR 07/04 A3012 140 79 -700 000/00 RMK AO2
63870K0J4 0J420160409025009804/09/16 02:50:31  5-MIN K0J4 090750Z AUTO 00000KT 10SM CLR 07/03 A3012 140 76 -700 000/00 RMK AO2
63870K0J4 0J420160409025511504/09/16 02:55:31  5-MIN K0J4 090755Z AUTO 00000KT 10SM CLR 07/03 A3012 130 76 -700 000/00 RMK AO2 SLP197 T00670028
63870K0J4 0J420160409030009804/09/16 03:00:31  5-MIN K0J4 090800Z AUTO 00000KT 10SM CLR 07/03 A3012 130 76 -700 000/00 RMK AO2
63870K0J4 0J420160409030509804/09/16 03:05:31  5-MIN K0J4 090805Z AUTO 00000KT 10SM CLR 07/04 A3012 130 82 -800 000/00 RMK AO2
63870K0J4 0J420160409031009804/09/16 03:10:31  5-MIN K0J4 090810Z AUTO 00000KT 10SM CLR 07/03 A3012 130 79 -800 000/00 RMK AO2
63870K0J4 0J420160409031509804/09/16 03:15:31  5-MIN K0J4 090815Z AUTO 00000KT 10SM CLR 06/03 A3012 130 82 -800 000/00 RMK AO2
63870K0J4 0J420160409032009804/09/16 03:20:31  5-MIN K0J4 090820Z AUTO 00000KT 10SM CLR 06/03 A3012 130 82 -800 000/00 RMK AO2
63870K0J4 0J420160409032509804/09/16 03:25:31  5-MIN K0J4 090825Z AUTO 00000KT 10SM CLR 06/03 A3012 130 82 -800 000/00 RMK AO2
63870K0J4 0J420160409033009804/09/16 03:30:31  5-MIN K0J4 090830Z AUTO 00000KT 10SM CLR 06/03 A3012 130 85 -900 000/00 RMK AO2
63870K0J4 0J420160409033509804/09/16 03:35:31  5-MIN K0J4 090835Z AUTO 00000KT 10SM CLR 06/03 A3012 130 85 -900 000/00 RMK AO2
63870K0J4 0J420160409034009804/09/16 03:40:31  5-MIN K0J4 090840Z AUTO 00000KT 10SM CLR 06/03 A3012 130 85 -900 000/00 RMK AO2
63870K0J4 0J420160409034509804/09/16 03:45:31  5-MIN K0J4 090845Z AUTO 00000KT 10SM CLR 06/03 A3012 130 85 -900 000/00 RMK AO2
63870K0J4 0J420160409035009804/09/16 03:50:31  5-MIN K0J4 090850Z AUTO 00000KT 10SM CLR 06/03 A3012 130 85 -900 000/00 RMK AO2
63870K0J4 0J420160409035512104/09/16 03:55:31  5-MIN K0J4 090855Z AUTO 00000KT 10SM CLR 06/03 A3012 130 85 -900 000/00 RMK AO2 SLP199 T00560033 51010
63870K0J4 0J420160409040009804/09/16 04:00:31  5-MIN K0J4 090900Z AUTO 00000KT 10SM CLR 06/03 A3012 130 85 -900 000/00 RMK AO2
63870K0J4 0J420160409040509804/09/16 04:05:31  5-MIN K0J4 090905Z AUTO 00000KT 10SM CLR 06/03 A3012 130 85 -900 000/00 RMK AO2
63870K0J4 0J420160409041009804/09/16 04:10:31  5-MIN K0J4 090910Z AUTO 00000KT 10SM CLR 06/03 A3012 130 82 -800 000/00 RMK AO2
63870K0J4 0J420160409041509804/09/16 04:15:31  5-MIN K0J4 090915Z AUTO 00000KT 10SM CLR 06/03 A3012 130 85 -900 000/00 RMK AO2
63870K0J4 0J420160409042009804/09/16 04:20:31  5-MIN K0J4 090920Z AUTO 00000KT 10SM CLR 06/03 A3012 130 82 -800 000/00 RMK AO2
63870K0J4 0J420160409042509804/09/16 04:25:31  5-MIN K0J4 090925Z AUTO 00000KT 10SM CLR 06/03 A3012 130 85 -900 000/00 RMK AO2
63870K0J4 0J420160409043009804/09/16 04:30:31  5-MIN K0J4 090930Z AUTO 00000KT 10SM CLR 06/03 A3012 130 85 -900 000/00 RMK AO2
63870K0J4 0J420160409043509804/09/16 04:35:31  5-MIN K0J4 090935Z AUTO 00000KT 10SM CLR 06/03 A3012 130 85 -900 000/00 RMK AO2
63870K0J4 0J420160409044009904/09/16 04:40:31  5-MIN K0J4 090940Z AUTO 00000KT 10SM CLR 05/03 A3012 130 89 -1000 000/00 RMK AO2
63870K0J4 0J420160409044509904/09/16 04:45:31  5-MIN K0J4 090945Z AUTO 00000KT 10SM CLR 05/03 A3012 130 85 -1000 000/00 RMK AO2
63870K0J4 0J420160409045009904/09/16 04:50:31  5-MIN K0J4 090950Z AUTO 00000KT 10SM CLR 05/03 A3012 130 85 -1000 000/00 RMK AO2
63870K0J4 0J420160409045511604/09/16 04:55:31  5-MIN K0J4 090955Z AUTO 00000KT 10SM CLR 05/03 A3012 130 85 -1000 000/00 RMK AO2 SLP199 T00500028
63870K0J4 0J420160409050009904/09/16 05:00:31  5-MIN K0J4 091000Z AUTO 00000KT 10SM CLR 05/03 A3012 130 85 -1000 000/00 RMK AO2
63870K0J4 0J420160409050509904/09/16 05:05:31  5-MIN K0J4 091005Z AUTO 00000KT 10SM CLR 05/03 A3013 130 85 -1000 000/00 RMK AO2
63870K0J4 0J420160409051009904/09/16 05:10:31  5-MIN K0J4 091010Z AUTO 00000KT 10SM CLR 04/03 A3013 130 89 -1000 000/00 RMK AO2
63870K0J4 0J420160409051509904/09/16 05:15:31  5-MIN K0J4 091015Z AUTO 00000KT 10SM CLR 04/03 A3013 130 89 -1000 000/00 RMK AO2
63870K0J4 0J420160409052009904/09/16 05:20:31  5-MIN K0J4 091020Z AUTO 00000KT 10SM CLR 04/03 A3013 130 89 -1000 000/00 RMK AO2
63870K0J4 0J420160409052509904/09/16 05:25:31  5-MIN K0J4 091025Z AUTO 00000KT 10SM CLR 04/03 A3013 130 89 -1000 000/00 RMK AO2
63870K0J4 0J420160409053009904/09/16 05:30:31  5-MIN K0J4 091030Z AUTO 00000KT 10SM CLR 04/03 A3013 130 89 -1000 000/00 RMK AO2
63870K0J4 0J420160409053509904/09/16 05:35:31  5-MIN K0J4 091035Z AUTO 00000KT 10SM CLR 04/03 A3013 120 89 -1000 000/00 RMK AO2
63870K0J4 0J420160409054009904/09/16 05:40:31  5-MIN K0J4 091040Z AUTO 00000KT 10SM CLR 04/03 A3013 120 89 -1000 000/00 RMK AO2
63870K0J4 0J420160409054509904/09/16 05:45:31  5-MIN K0J4 091045Z AUTO 00000KT 10SM CLR 04/02 A3013 120 89 -1100 000/00 RMK AO2
63870K0J4 0J420160409055009904/09/16 05:50:31  5-MIN K0J4 091050Z AUTO 00000KT 10SM CLR 04/03 A3013 120 89 -1000 000/00 RMK AO2
63870K0J4 0J420160409055511604/09/16 05:55:31  5-MIN K0J4 091055Z AUTO 00000KT 10SM CLR 04/03 A3013 120 89 -1000 000/00 RMK AO2 SLP202 T00440028
63870K0J4 0J420160409060009904/09/16 06:00:31  5-MIN K0J4 091100Z AUTO 00000KT 10SM CLR 04/03 A3013 120 92 -1100 000/00 RMK AO2
63870K0J4 0J420160409060509904/09/16 06:05:31  5-MIN K0J4 091105Z AUTO 00000KT 10SM CLR 04/03 A3013 120 92 -1100 000/00 RMK AO2
63870K0J4 0J420160409061009904/09/16 06:10:31  5-MIN K0J4 091110Z AUTO 00000KT 10SM CLR 04/03 A3013 120 89 -1000 000/00 RMK AO2
63870K0J4 0J420160409061509904/09/16 06:15:31  5-MIN K0J4 091115Z AUTO 00000KT 10SM CLR 04/03 A3013 120 89 -1000 000/00 RMK AO2
63870K0J4 0J420160409062009904/09/16 06:20:31  5-MIN K0J4 091120Z AUTO 00000KT 10SM CLR 04/03 A3014 120 89 -1000 000/00 RMK AO2
63870K0J4 0J420160409062509904/09/16 06:25:31  5-MIN K0J4 091125Z AUTO 00000KT 10SM CLR 04/02 A3014 120 89 -1100 000/00 RMK AO2
63870K0J4 0J420160409063009904/09/16 06:30:31  5-MIN K0J4 091130Z AUTO 00000KT 10SM CLR 04/03 A3014 110 89 -1000 000/00 RMK AO2
63870K0J4 0J420160409063509904/09/16 06:35:31  5-MIN K0J4 091135Z AUTO 00000KT 10SM CLR 04/03 A3014 110 89 -1100 000/00 RMK AO2
63870K0J4 0J420160409064009904/09/16 06:40:31  5-MIN K0J4 091140Z AUTO 00000KT 10SM CLR 04/03 A3014 110 89 -1100 000/00 RMK AO2
63870K0J4 0J420160409064509904/09/16 06:45:31  5-MIN K0J4 091145Z AUTO 00000KT 10SM CLR 04/03 A3014 110 92 -1100 000/00 RMK AO2
63870K0J4 0J420160409065009904/09/16 06:50:31  5-MIN K0J4 091150Z AUTO 00000KT 10SM CLR 04/03 A3014 110 92 -1100 000/00 RMK AO2
63870K0J4 0J420160409065513404/09/16 06:55:31  5-MIN K0J4 091155Z AUTO 00000KT 10SM CLR 05/03 A3015 110 89 -1000 000/00 RMK AO2 SLP208 T00500033 10106 20039 55003
63870K0J4 0J420160409070009804/09/16 07:00:31  5-MIN K0J4 091200Z AUTO 00000KT 10SM CLR 06/04 A3015 100 89 -900 000/00 RMK AO2
63870K0J4 0J420160409070509804/09/16 07:05:31  5-MIN K0J4 091205Z AUTO 00000KT 10SM CLR 06/04 A3015 100 89 -900 000/00 RMK AO2
63870K0J4 0J420160409071009804/09/16 07:10:31  5-MIN K0J4 091210Z AUTO 00000KT 10SM CLR 06/04 A3015 100 89 -900 000/00 RMK AO2
63870K0J4 0J420160409071509804/09/16 07:15:31  5-MIN K0J4 091215Z AUTO 00000KT 10SM CLR 07/04 A3015 100 86 -800 000/00 RMK AO2
63870K0J4 0J420160409072009804/09/16 07:20:31  5-MIN K0J4 091220Z AUTO 00000KT 10SM CLR 07/06 A3016 100 89 -700 000/00 RMK AO2
63870K0J4 0J420160409072509804/09/16 07:25:31  5-MIN K0J4 091225Z AUTO 00000KT 10SM CLR 08/06 A3016 100 86 -700 000/00 RMK AO2
63870K0J4 0J420160409073009704/09/16 07:30:31  5-MIN K0J4 091230Z AUTO 00000KT 10SM CLR 08/06 A3016 90 86 -600 000/00 RMK AO2
63870K0J4 0J420160409073509704/09/16 07:35:31  5-MIN K0J4 091235Z AUTO 00000KT 10SM CLR 09/06 A3016 90 83 -500 000/00 RMK AO2
63870K0J4 0J420160409074009704/09/16 07:40:31  5-MIN K0J4 091240Z AUTO 00000KT 10SM CLR 09/06 A3016 90 79 -500 000/00 RMK AO2
63870K0J4 0J420160409074509704/09/16 07:45:31  5-MIN K0J4 091245Z AUTO 00000KT 10SM CLR 11/06 A3016 90 74 -300 000/00 RMK AO2
63870K0J4 0J420160409075009704/09/16 07:50:31  5-MIN K0J4 091250Z AUTO 00000KT 10SM CLR 11/05 A3016 90 66 -300 000/00 RMK AO2
63870K0J4 0J420160409075511404/09/16 07:55:31  5-MIN K0J4 091255Z AUTO 00000KT 10SM CLR 11/04 A3017 90 63 -300 000/00 RMK AO2 SLP214 T01110044
63870K0J4 0J420160409080009704/09/16 08:00:31  5-MIN K0J4 091300Z AUTO 00000KT 10SM CLR 12/04 A3017 90 61 -200 000/00 RMK AO2
63870K0J4 0J420160409080509704/09/16 08:05:31  5-MIN K0J4 091305Z AUTO 00000KT 10SM CLR 12/04 A3017 90 56 -100 000/00 RMK AO2
63870K0J4 0J420160409081009704/09/16 08:10:31  5-MIN K0J4 091310Z AUTO 00000KT 10SM CLR 12/03 A3017 80 54 -100 000/00 RMK AO2
63870K0J4 0J420160409081509704/09/16 08:15:31  5-MIN K0J4 091315Z AUTO 00000KT 10SM CLR 13/04 A3017 80 54 -100 000/00 RMK AO2
63870K0J4 0J420160409082009404/09/16 08:20:31  5-MIN K0J4 091320Z AUTO 00000KT 10SM CLR 13/04 A3017 80 52 0 000/00 RMK AO2
63870K0J4 0J420160409082509404/09/16 08:25:31  5-MIN K0J4 091325Z AUTO 00000KT 10SM CLR 13/03 A3017 90 50 0 000/00 RMK AO2
63870K0J4 0J420160409083009404/09/16 08:30:31  5-MIN K0J4 091330Z AUTO VRB03KT 10SM CLR 14/03 A3017 90 48 0 VRB/03 RMK AO2
63870K0J4 0J420160409083509604/09/16 08:35:31  5-MIN K0J4 091335Z AUTO 33003KT 10SM CLR 14/02 A3017 90 43 100 330/03 RMK AO2
63870K0J4 0J420160409084009604/09/16 08:40:31  5-MIN K0J4 091340Z AUTO VRB03KT 10SM CLR 14/02 A3017 80 43 100 VRB/03 RMK AO2
63870K0J4 0J420160409084509604/09/16 08:45:31  5-MIN K0J4 091345Z AUTO 00000KT 10SM CLR 15/02 A3017 80 42 100 000/00 RMK AO2
63870K0J4 0J420160409085009604/09/16 08:50:31  5-MIN K0J4 091350Z AUTO 00000KT 10SM CLR 16/03 A3017 80 42 200 000/00 RMK AO2
63870K0J4 0J420160409085511304/09/16 08:55:31  5-MIN K0J4 091355Z AUTO 34003KT 10SM CLR 16/03 A3017 80 40 300 340/03 RMK AO2 SLP216 T01610028
63870K0J4 0J420160409090009604/09/16 09:00:31  5-MIN K0J4 091400Z AUTO 33003KT 10SM CLR 16/02 A3017 80 40 200 330/03 RMK AO2
63870K0J4 0J420160409090509604/09/16 09:05:31  5-MIN K0J4 091405Z AUTO 00000KT 10SM CLR 16/02 A3018 80 39 300 000/00 RMK AO2
63870K0J4 0J420160409091009604/09/16 09:10:31  5-MIN K0J4 091410Z AUTO VRB03KT 10SM CLR 16/01 A3018 80 36 300 VRB/03 RMK AO2
63870K0J4 0J420160409091509604/09/16 09:15:31  5-MIN K0J4 091415Z AUTO 32004KT 10SM CLR 17/01 A3018 80 33 300 320/04 RMK AO2
63870K0J4 0J420160409092009604/09/16 09:20:31  5-MIN K0J4 091420Z AUTO VRB03KT 10SM CLR 17/01 A3018 70 33 300 VRB/03 RMK AO2
63870K0J4 0J420160409092509604/09/16 09:25:31  5-MIN K0J4 091425Z AUTO 00000KT 10SM CLR 17/01 A3019 70 33 400 000/00 RMK AO2
63870K0J4 0J420160409093009604/09/16 09:30:31  5-MIN K0J4 091430Z AUTO 29003KT 10SM CLR 18/01 A3019 70 31 500 290/03 RMK AO2
63870K0J4 0J420160409093509704/09/16 09:35:31  5-MIN K0J4 091435Z AUTO VRB03KT 10SM CLR 18/M01 A3019 70 28 500 VRB/03 RMK AO2
63870K0J4 0J420160409094009604/09/16 09:40:31  5-MIN K0J4 091440Z AUTO VRB03KT 10SM CLR 18/01 A3019 70 30 500 VRB/03 RMK AO2
63870K0J4 0J420160409094509604/09/16 09:45:31  5-MIN K0J4 091445Z AUTO VRB03KT 10SM CLR 18/01 A3019 70 30 500 VRB/03 RMK AO2
63870K0J4 0J420160409095009604/09/16 09:50:31  5-MIN K0J4 091450Z AUTO VRB04KT 10SM CLR 19/00 A3019 70 28 600 VRB/04 RMK AO2
63870K0J4 0J420160409095512004/09/16 09:55:31  5-MIN K0J4 091455Z AUTO VRB04KT 10SM CLR 18/M01 A3019 60 26 500 VRB/04 RMK AO2 SLP222 T01831011 53009
63870K0J4 0J420160409100009704/09/16 10:00:31  5-MIN K0J4 091500Z AUTO VRB05KT 10SM CLR 19/M02 A3020 60 23 600 VRB/05 RMK AO2
63870K0J4 0J420160409100509704/09/16 10:05:31  5-MIN K0J4 091505Z AUTO 34006KT 10SM CLR 19/M02 A3020 60 24 600 340/06 RMK AO2
63870K0J4 0J420160409101009704/09/16 10:10:31  5-MIN K0J4 091510Z AUTO VRB04KT 10SM CLR 19/M02 A3020 60 24 600 VRB/04 RMK AO2
63870K0J4 0J420160409101509704/09/16 10:15:31  5-MIN K0J4 091515Z AUTO VRB05KT 10SM CLR 19/M02 A3020 60 23 600 VRB/05 RMK AO2
63870K0J4 0J420160409102009704/09/16 10:20:31  5-MIN K0J4 091520Z AUTO VRB03KT 10SM CLR 19/M01 A3020 60 25 600 VRB/03 RMK AO2
63870K0J4 0J420160409102509604/09/16 10:25:31  5-MIN K0J4 091525Z AUTO 31006KT 10SM CLR 20/00 A3020 50 26 700 310/06 RMK AO2
63870K0J4 0J420160409103009704/09/16 10:30:31  5-MIN K0J4 091530Z AUTO VRB05KT 10SM CLR 20/M01 A3021 50 25 700 VRB/05 RMK AO2
63870K0J4 0J420160409103509704/09/16 10:35:31  5-MIN K0J4 091535Z AUTO 34007KT 10SM CLR 19/M01 A3021 50 25 600 340/07 RMK AO2
63870K0J4 0J420160409104009704/09/16 10:40:31  5-MIN K0J4 091540Z AUTO VRB05KT 10SM CLR 19/M02 A3021 50 24 600 VRB/05 RMK AO2
63870K0J4 0J420160409104509704/09/16 10:45:31  5-MIN K0J4 091545Z AUTO VRB06KT 10SM CLR 20/M02 A3021 50 23 700 VRB/06 RMK AO2
63870K0J4 0J420160409105010304/09/16 10:50:31  5-MIN K0J4 091550Z AUTO 34007G15KT 10SM CLR 20/M02 A3020 50 23 700 340/07G15 RMK AO2
63870K0J4 0J420160409105512004/09/16 10:55:31  5-MIN K0J4 091555Z AUTO VRB05G15KT 10SM CLR 21/M01 A3021 50 24 800 VRB/05G15 RMK AO2 SLP226 T02061006
63870K0J4 0J420160409110009704/09/16 11:00:31  5-MIN K0J4 091600Z AUTO VRB06KT 10SM CLR 21/M01 A3021 50 24 800 VRB/06 RMK AO2
63870K0J4 0J420160409110509704/09/16 11:05:31  5-MIN K0J4 091605Z AUTO VRB05KT 10SM CLR 21/M01 A3021 50 24 800 VRB/05 RMK AO2
63870K0J4 0J420160409111009704/09/16 11:10:31  5-MIN K0J4 091610Z AUTO VRB03KT 10SM CLR 21/M01 A3021 50 23 800 VRB/03 RMK AO2
63870K0J4 0J420160409111511304/09/16 11:15:31  5-MIN K0J4 091615Z AUTO 32007KT 250V360 10SM CLR 21/M01 A3020 60 24 800 320/07 250V360 RMK AO2
63870K0J4 0J420160409112010304/09/16 11:20:31  5-MIN K0J4 091620Z AUTO VRB06G15KT 10SM CLR 21/M01 A3020 60 24 800 VRB/06G15 RMK AO2
63870K0J4 0J420160409112510304/09/16 11:25:31  5-MIN K0J4 091625Z AUTO 01010G15KT 10SM CLR 21/M01 A3020 60 24 800 010/10G15 RMK AO2
63870K0J4 0J420160409113010204/09/16 11:30:31  5-MIN K0J4 091630Z AUTO 01011G17KT 10SM CLR 21/00 A3020 60 25 800 010/11G17 RMK AO2
63870K0J4 0J420160409113510304/09/16 11:35:31  5-MIN K0J4 091635Z AUTO 36007G17KT 10SM CLR 21/M01 A3020 60 24 800 360/07G17 RMK AO2
63870K0J4 0J420160409114011804/09/16 11:40:31  5-MIN K0J4 091640Z AUTO 35009G16KT 310V030 10SM CLR 21/00 A3020 60 25 800 350/09G16 310V030 RMK AO2
63870K0J4 0J420160409114510304/09/16 11:45:31  5-MIN K0J4 091645Z AUTO 34008G16KT 10SM CLR 21/M01 A3020 60 23 800 340/08G16 RMK AO2
63870K0J4 0J420160409115009704/09/16 11:50:31  5-MIN K0J4 091650Z AUTO VRB05KT 10SM CLR 21/M01 A3020 60 23 800 VRB/05 RMK AO2
63870K0J4 0J420160409115511404/09/16 11:55:31  5-MIN K0J4 091655Z AUTO 34007KT 10SM CLR 21/M01 A3020 60 23 800 340/07 RMK AO2 SLP223 T02111006
63870K0J4 0J420160409120009604/09/16 12:00:31  5-MIN K0J4 091700Z AUTO VRB06KT 10SM CLR 21/00 A3020 60 24 800 VRB/06 RMK AO2
63870K0J4 0J420160409120509604/09/16 12:05:31  5-MIN K0J4 091705Z AUTO 01008KT 10SM CLR 22/01 A3019 70 25 900 010/08 RMK AO2
63870K0J4 0J420160409121011204/09/16 12:10:31  5-MIN K0J4 091710Z AUTO 31008KT 250V350 10SM CLR 21/01 A3019 60 25 800 310/08 250V350 RMK AO2
63870K0J4 0J420160409121509604/09/16 12:15:31  5-MIN K0J4 091715Z AUTO VRB05KT 10SM CLR 21/00 A3019 70 24 800 VRB/05 RMK AO2
63870K0J4 0J420160409122009604/09/16 12:20:31  5-MIN K0J4 091720Z AUTO VRB05KT 10SM CLR 21/00 A3019 70 24 800 VRB/05 RMK AO2
63870K0J4 0J420160409122509604/09/16 12:25:31  5-MIN K0J4 091725Z AUTO 35004KT 10SM CLR 22/01 A3019 60 24 900 350/04 RMK AO2
63870K0J4 0J420160409123009604/09/16 12:30:31  5-MIN K0J4 091730Z AUTO 35008KT 10SM CLR 21/00 A3019 70 24 800 350/08 RMK AO2
63870K0J4 0J420160409123509604/09/16 12:35:31  5-MIN K0J4 091735Z AUTO 25005KT 10SM CLR 21/00 A3019 70 24 800 250/05 RMK AO2
63870K0J4 0J420160409124011204/09/16 12:40:31  5-MIN K0J4 091740Z AUTO 30007KT 260V320 10SM CLR 22/01 A3019 70 24 900 300/07 260V320 RMK AO2
63870K0J4 0J420160409124509704/09/16 12:45:31  5-MIN K0J4 091745Z AUTO 33006KT 10SM CLR 22/01 A3019 70 23 1000 330/06 RMK AO2
63870K0J4 0J420160409125009604/09/16 12:50:31  5-MIN K0J4 091750Z AUTO VRB06KT 10SM CLR 22/00 A3018 70 23 900 VRB/06 RMK AO2
63870K0J4 0J420160409125513204/09/16 12:55:31  5-MIN K0J4 091755Z AUTO VRB06KT 10SM CLR 22/01 A3019 70 23 1000 VRB/06 RMK AO2 SLP219 T02220006 10222 20056 53015
63870K0J4 0J420160409130009704/09/16 13:00:31  5-MIN K0J4 091800Z AUTO VRB05KT 10SM CLR 22/01 A3018 70 23 1000 VRB/05 RMK AO2
63870K0J4 0J420160409130511304/09/16 13:05:31  5-MIN K0J4 091805Z AUTO 33008KT 300V360 10SM CLR 22/01 A3018 70 23 1000 330/08 300V360 RMK AO2
63870K0J4 0J420160409131011304/09/16 13:10:31  5-MIN K0J4 091810Z AUTO 36008KT 300V040 10SM CLR 22/00 A3018 80 22 1000 360/08 300V040 RMK AO2
63870K0J4 0J420160409131511304/09/16 13:15:31  5-MIN K0J4 091815Z AUTO 36008KT 320V030 10SM CLR 22/00 A3018 80 22 1000 360/08 320V030 RMK AO2
63870K0J4 0J420160409132011904/09/16 13:20:31  5-MIN K0J4 091820Z AUTO 30007G17KT 260V330 10SM CLR 22/00 A3018 70 22 1000 300/07G17 260V330 RMK AO2
63870K0J4 0J420160409132510404/09/16 13:25:31  5-MIN K0J4 091825Z AUTO 01009G17KT 10SM CLR 22/M01 A3018 80 21 1000 010/09G17 RMK AO2
63870K0J4 0J420160409133009804/09/16 13:30:31  5-MIN K0J4 091830Z AUTO VRB05KT 10SM CLR 22/M01 A3018 80 21 1000 VRB/05 RMK AO2
63870K0J4 0J420160409133511304/09/16 13:35:31  5-MIN K0J4 091835Z AUTO 33009KT 280V010 10SM CLR 22/00 A3018 80 22 1000 330/09 280V010 RMK AO2
63870K0J4 0J420160409134010404/09/16 13:40:31  5-MIN K0J4 091840Z AUTO 32009G16KT 10SM CLR 22/M01 A3018 80 21 1000 320/09G16 RMK AO2
63870K0J4 0J420160409134510304/09/16 13:45:31  5-MIN K0J4 091845Z AUTO 01007G16KT 10SM CLR 22/01 A3017 80 23 1000 010/07G16 RMK AO2
63870K0J4 0J420160409135011304/09/16 13:50:31  5-MIN K0J4 091850Z AUTO 35008KT 310V030 10SM CLR 23/01 A3017 80 22 1000 350/08 310V030 RMK AO2
63870K0J4 0J420160409135511404/09/16 13:55:31  5-MIN K0J4 091855Z AUTO 34006KT 10SM CLR 23/00 A3017 90 22 1100 340/06 RMK AO2 SLP213 T02280000
63870K0J4 0J420160409140010304/09/16 14:00:31  5-MIN K0J4 091900Z AUTO 01009G14KT 10SM CLR 22/01 A3017 90 23 1000 010/09G14 RMK AO2
63870K0J4 0J420160409140510304/09/16 14:05:31  5-MIN K0J4 091905Z AUTO VRB06G14KT 10SM CLR 23/00 A3017 90 22 1100 VRB/06G14 RMK AO2
63870K0J4 0J420160409141009704/09/16 14:10:31  5-MIN K0J4 091910Z AUTO VRB03KT 10SM CLR 23/01 A3017 90 22 1100 VRB/03 RMK AO2
63870K0J4 0J420160409141509704/09/16 14:15:31  5-MIN K0J4 091915Z AUTO 01008KT 10SM CLR 23/01 A3017 90 23 1100 010/08 RMK AO2
63870K0J4 0J420160409142011904/09/16 14:20:31  5-MIN K0J4 091920Z AUTO 36007G15KT 320V020 10SM CLR 23/01 A3016 90 23 1100 360/07G15 320V020 RMK AO2
63870K0J4 0J420160409142510304/09/16 14:25:31  5-MIN K0J4 091925Z AUTO VRB06G14KT 10SM CLR 23/01 A3016 90 23 1100 VRB/06G14 RMK AO2
63870K0J4 0J420160409143010404/09/16 14:30:31  5-MIN K0J4 091930Z AUTO 01011G16KT 10SM CLR 23/01 A3016 100 22 1100 010/11G16 RMK AO2
63870K0J4 0J420160409143510404/09/16 14:35:31  5-MIN K0J4 091935Z AUTO 36007G16KT 10SM CLR 23/01 A3016 100 23 1100 360/07G16 RMK AO2
63870K0J4 0J420160409144009704/09/16 14:40:31  5-MIN K0J4 091940Z AUTO VRB06KT 10SM CLR 23/01 A3016 90 23 1100 VRB/06 RMK AO2
63870K0J4 0J420160409144511304/09/16 14:45:31  5-MIN K0J4 091945Z AUTO 35007KT 280V010 10SM CLR 23/01 A3016 90 23 1100 350/07 280V010 RMK AO2
63870K0J4 0J420160409145011404/09/16 14:50:31  5-MIN K0J4 091950Z AUTO 33007KT 280V010 10SM CLR 23/01 A3016 100 22 1100 330/07 280V010 RMK AO2
63870K0J4 0J420160409145511504/09/16 14:55:31  5-MIN K0J4 091955Z AUTO VRB06KT 10SM CLR 23/00 A3016 100 22 1100 VRB/06 RMK AO2 SLP210 T02280000
63870K0J4 0J420160409150009804/09/16 15:00:31  5-MIN K0J4 092000Z AUTO VRB03KT 10SM CLR 23/01 A3016 100 22 1100 VRB/03 RMK AO2
63870K0J4 0J420160409150509804/09/16 15:05:31  5-MIN K0J4 092005Z AUTO 35004KT 10SM CLR 23/01 A3016 100 22 1100 350/04 RMK AO2
63870K0J4 0J420160409151011404/09/16 15:10:31  5-MIN K0J4 092010Z AUTO 32007KT 290V360 10SM CLR 23/01 A3016 100 23 1100 320/07 290V360 RMK AO2
63870K0J4 0J420160409151509804/09/16 15:15:31  5-MIN K0J4 092015Z AUTO VRB05KT 10SM CLR 23/01 A3016 100 23 1100 VRB/05 RMK AO2
63870K0J4 0J420160409152011404/09/16 15:20:31  5-MIN K0J4 092020Z AUTO 33008KT 310V010 10SM CLR 23/00 A3016 100 22 1100 330/08 310V010 RMK AO2
63870K0J4 0J420160409152510404/09/16 15:25:31  5-MIN K0J4 092025Z AUTO VRB04G15KT 10SM CLR 23/00 A3016 100 22 1100 VRB/04G15 RMK AO2
63870K0J4 0J420160409153010404/09/16 15:30:31  5-MIN K0J4 092030Z AUTO 36006G15KT 10SM CLR 23/01 A3015 100 22 1100 360/06G15 RMK AO2
63870K0J4 0J420160409153509804/09/16 15:35:31  5-MIN K0J4 092035Z AUTO 01006KT 10SM CLR 23/01 A3015 100 23 1100 010/06 RMK AO2
63870K0J4 0J420160409154009804/09/16 15:40:31  5-MIN K0J4 092040Z AUTO VRB06KT 10SM CLR 23/01 A3015 100 23 1100 VRB/06 RMK AO2
63870K0J4 0J420160409154510404/09/16 15:45:31  5-MIN K0J4 092045Z AUTO 36010G17KT 10SM CLR 23/01 A3015 100 22 1100 360/10G17 RMK AO2
63870K0J4 0J420160409155010404/09/16 15:50:31  5-MIN K0J4 092050Z AUTO VRB05G17KT 10SM CLR 23/01 A3015 100 22 1100 VRB/05G17 RMK AO2
63870K0J4 0J420160409155512704/09/16 15:55:31  5-MIN K0J4 092055Z AUTO VRB06G14KT 10SM CLR 23/01 A3015 100 23 1100 VRB/06G14 RMK AO2 SLP208 T02330011 58004
63870K0J4 0J420160409160012004/09/16 16:00:31  5-MIN K0J4 092100Z AUTO 36009G14KT 320V030 10SM CLR 23/01 A3015 100 23 1100 360/09G14 320V030 RMK AO2
63870K0J4 0J420160409160510404/09/16 16:05:31  5-MIN K0J4 092105Z AUTO 36005G14KT 10SM CLR 23/01 A3015 100 23 1100 360/05G14 RMK AO2
63870K0J4 0J420160409161009804/09/16 16:10:31  5-MIN K0J4 092110Z AUTO VRB04KT 10SM CLR 23/02 A3015 110 24 1100 VRB/04 RMK AO2
63870K0J4 0J420160409161509804/09/16 16:15:31  5-MIN K0J4 092115Z AUTO VRB05KT 10SM CLR 23/01 A3015 110 23 1100 VRB/05 RMK AO2
63870K0J4 0J420160409162009804/09/16 16:20:31  5-MIN K0J4 092120Z AUTO VRB03KT 10SM CLR 23/01 A3015 110 23 1100 VRB/03 RMK AO2
63870K0J4 0J420160409162509804/09/16 16:25:31  5-MIN K0J4 092125Z AUTO VRB03KT 10SM CLR 23/02 A3015 110 24 1100 VRB/03 RMK AO2
63870K0J4 0J420160409163009804/09/16 16:30:31  5-MIN K0J4 092130Z AUTO VRB05KT 10SM CLR 23/02 A3015 110 24 1100 VRB/05 RMK AO2
63870K0J4 0J420160409163509804/09/16 16:35:31  5-MIN K0J4 092135Z AUTO 33006KT 10SM CLR 23/02 A3015 100 24 1100 330/06 RMK AO2
63870K0J4 0J420160409164009804/09/16 16:40:31  5-MIN K0J4 092140Z AUTO 35005KT 10SM CLR 23/02 A3015 100 24 1100 350/05 RMK AO2
63870K0J4 0J420160409164509804/09/16 16:45:31  5-MIN K0J4 092145Z AUTO 36006KT 10SM CLR 23/02 A3015 100 24 1100 360/06 RMK AO2
63870K0J4 0J420160409165009804/09/16 16:50:31  5-MIN K0J4 092150Z AUTO 35006KT 10SM CLR 23/01 A3015 110 23 1100 350/06 RMK AO2
63870K0J4 0J420160409165511504/09/16 16:55:31  5-MIN K0J4 092155Z AUTO 35005KT 10SM CLR 22/02 A3015 110 25 1000 350/05 RMK AO2 SLP207 T02220017
63870K0J4 0J420160409170009804/09/16 17:00:31  5-MIN K0J4 092200Z AUTO 34005KT 10SM CLR 23/02 A3015 100 24 1100 340/05 RMK AO2
63870K0J4 0J420160409170509804/09/16 17:05:31  5-MIN K0J4 092205Z AUTO 35006KT 10SM CLR 22/02 A3015 100 25 1000 350/06 RMK AO2
63870K0J4 0J420160409171009804/09/16 17:10:31  5-MIN K0J4 092210Z AUTO 01006KT 10SM CLR 22/01 A3015 100 24 1000 010/06 RMK AO2
63870K0J4 0J420160409171509804/09/16 17:15:31  5-MIN K0J4 092215Z AUTO 36003KT 10SM CLR 22/02 A3015 100 25 1000 360/03 RMK AO2
63870K0J4 0J420160409172009704/09/16 17:20:31  5-MIN K0J4 092220Z AUTO VRB05KT 10SM CLR 22/02 A3015 110 27 900 VRB/05 RMK AO2
63870K0J4 0J420160409172509704/09/16 17:25:31  5-MIN K0J4 092225Z AUTO 36006KT 10SM CLR 22/02 A3015 110 27 900 360/06 RMK AO2
63870K0J4 0J420160409173009704/09/16 17:30:31  5-MIN K0J4 092230Z AUTO 36006KT 10SM CLR 22/02 A3015 110 27 900 360/06 RMK AO2
63870K0J4 0J420160409173509704/09/16 17:35:31  5-MIN K0J4 092235Z AUTO 36005KT 10SM CLR 22/02 A3015 100 26 900 360/05 RMK AO2
63870K0J4 0J420160409174009704/09/16 17:40:31  5-MIN K0J4 092240Z AUTO 01005KT 10SM CLR 22/02 A3015 100 26 900 010/05 RMK AO2
63870K0J4 0J420160409174509704/09/16 17:45:31  5-MIN K0J4 092245Z AUTO 00000KT 10SM CLR 21/03 A3015 100 30 900 000/00 RMK AO2
63870K0J4 0J420160409175009704/09/16 17:50:31  5-MIN K0J4 092250Z AUTO 36003KT 10SM CLR 21/03 A3015 100 30 900 360/03 RMK AO2
63870K0J4 0J420160409175511404/09/16 17:55:31  5-MIN K0J4 092255Z AUTO 36003KT 10SM CLR 21/03 A3015 100 30 900 360/03 RMK AO2 SLP209 T02110033
63870K0J4 0J420160409180009704/09/16 18:00:31  5-MIN K0J4 092300Z AUTO 00000KT 10SM CLR 21/03 A3015 100 30 900 000/00 RMK AO2
63870K0J4 0J420160409180509704/09/16 18:05:31  5-MIN K0J4 092305Z AUTO 00000KT 10SM CLR 21/04 A3016 100 33 900 000/00 RMK AO2
63870K0J4 0J420160409181009704/09/16 18:10:31  5-MIN K0J4 092310Z AUTO 36004KT 10SM CLR 21/04 A3016 100 32 900 360/04 RMK AO2
63870K0J4 0J420160409181509704/09/16 18:15:31  5-MIN K0J4 092315Z AUTO 36003KT 10SM CLR 21/04 A3016 100 33 900 360/03 RMK AO2
63870K0J4 0J420160409182009704/09/16 18:20:31  5-MIN K0J4 092320Z AUTO 36003KT 10SM CLR 21/05 A3016 100 34 900 360/03 RMK AO2
63870K0J4 0J420160409182509704/09/16 18:25:31  5-MIN K0J4 092325Z AUTO 35003KT 10SM CLR 21/04 A3016 100 32 900 350/03 RMK AO2
63870K0J4 0J420160409183009704/09/16 18:30:31  5-MIN K0J4 092330Z AUTO 00000KT 10SM CLR 21/03 A3016 100 32 800 000/00 RMK AO2
63870K0J4 0J420160409183509704/09/16 18:35:31  5-MIN K0J4 092335Z AUTO 00000KT 10SM CLR 21/03 A3016 100 32 800 000/00 RMK AO2
63870K0J4 0J420160409184009704/09/16 18:40:31  5-MIN K0J4 092340Z AUTO 32003KT 10SM CLR 20/04 A3016 100 34 700 320/03 RMK AO2
63870K0J4 0J420160409184509704/09/16 18:45:31  5-MIN K0J4 092345Z AUTO 00000KT 10SM CLR 20/04 A3016 100 34 700 000/00 RMK AO2
63870K0J4 0J420160409185009604/09/16 18:50:31  5-MIN K0J4 092350Z AUTO 00000KT 10SM CLR 19/04 A3016 90 35 700 000/00 RMK AO2
63870K0J4 0J420160409185513104/09/16 18:55:31  5-MIN K0J4 092355Z AUTO 00000KT 10SM CLR 19/04 A3016 90 35 700 000/00 RMK AO2 SLP212 T01940039 10233 20194 56012
63870K0J4 0J420160409190009604/09/16 19:00:31  5-MIN K0J4 100000Z AUTO 00000KT 10SM CLR 19/04 A3016 90 35 700 000/00 RMK AO2
63870K0J4 0J420160409190509604/09/16 19:05:31  5-MIN K0J4 100005Z AUTO 00000KT 10SM CLR 18/04 A3016 90 38 500 000/00 RMK AO2
63870K0J4 0J420160409191009604/09/16 19:10:31  5-MIN K0J4 100010Z AUTO 00000KT 10SM CLR 17/06 A3016 90 49 400 000/00 RMK AO2
63870K0J4 0J420160409191509604/09/16 19:15:31  5-MIN K0J4 100015Z AUTO 00000KT 10SM CLR 16/08 A3016 90 57 300 000/00 RMK AO2
63870K0J4 0J420160409192009604/09/16 19:20:31  5-MIN K0J4 100020Z AUTO 00000KT 10SM CLR 16/08 A3016 90 57 300 000/00 RMK AO2
63870K0J4 0J420160409192509604/09/16 19:25:31  5-MIN K0J4 100025Z AUTO 00000KT 10SM CLR 16/08 A3017 90 57 300 000/00 RMK AO2
63870K0J4 0J420160409193009604/09/16 19:30:31  5-MIN K0J4 100030Z AUTO 00000KT 10SM CLR 15/09 A3017 90 66 100 000/00 RMK AO2
63870K0J4 0J420160409193509604/09/16 19:35:31  5-MIN K0J4 100035Z AUTO 00000KT 10SM CLR 15/08 A3017 90 64 100 000/00 RMK AO2
63870K0J4 0J420160409194009604/09/16 19:40:31  5-MIN K0J4 100040Z AUTO 00000KT 10SM CLR 15/08 A3017 90 64 100 000/00 RMK AO2
63870K0J4 0J420160409194509604/09/16 19:45:31  5-MIN K0J4 100045Z AUTO 00000KT 10SM CLR 15/08 A3017 90 64 100 000/00 RMK AO2
63870K0J4 0J420160409195009404/09/16 19:50:31  5-MIN K0J4 100050Z AUTO 00000KT 10SM CLR 14/09 A3017 90 74 0 000/00 RMK AO2
63870K0J4 0J420160409195511304/09/16 19:55:31  5-MIN K0J4 100055Z AUTO 00000KT 10SM CLR 14/09 A3017 90 72 100 000/00 RMK AO2 SLP215 T01440094
63870K0J4 0J420160409200009604/09/16 20:00:31  5-MIN K0J4 100100Z AUTO 00000KT 10SM CLR 14/07 A3017 80 61 100 000/00 RMK AO2
63870K0J4 0J420160409200509604/09/16 20:05:31  5-MIN K0J4 100105Z AUTO 00000KT 10SM CLR 14/06 A3017 80 57 100 000/00 RMK AO2
63870K0J4 0J420160409201009404/09/16 20:10:31  5-MIN K0J4 100110Z AUTO 00000KT 10SM CLR 13/08 A3017 80 71 0 000/00 RMK AO2
63870K0J4 0J420160409201509704/09/16 20:15:31  5-MIN K0J4 100115Z AUTO 00000KT 10SM CLR 13/08 A3018 80 74 -100 000/00 RMK AO2
63870K0J4 0J420160409202009704/09/16 20:20:31  5-MIN K0J4 100120Z AUTO 00000KT 10SM CLR 13/08 A3018 80 74 -100 000/00 RMK AO2
63870K0J4 0J420160409202509704/09/16 20:25:31  5-MIN K0J4 100125Z AUTO 00000KT 10SM CLR 13/08 A3018 80 74 -100 000/00 RMK AO2
63870K0J4 0J420160409203009704/09/16 20:30:31  5-MIN K0J4 100130Z AUTO 00000KT 10SM CLR 13/08 A3018 80 74 -100 000/00 RMK AO2
63870K0J4 0J420160409203509704/09/16 20:35:31  5-MIN K0J4 100135Z AUTO 00000KT 10SM CLR 13/08 A3018 80 74 -100 000/00 RMK AO2
63870K0J4 0J420160409204009704/09/16 20:40:31  5-MIN K0J4 100140Z AUTO 00000KT 10SM CLR 12/08 A3018 70 77 -100 000/00 RMK AO2
63870K0J4 0J420160409204509704/09/16 20:45:31  5-MIN K0J4 100145Z AUTO 00000KT 10SM CLR 12/08 A3018 70 77 -200 000/00 RMK AO2
63870K0J4 0J420160409205009704/09/16 20:50:31  5-MIN K0J4 100150Z AUTO 00000KT 10SM CLR 12/08 A3019 70 77 -200 000/00 RMK AO2
63870K0J4 0J420160409205511404/09/16 20:55:31  5-MIN K0J4 100155Z AUTO 00000KT 10SM CLR 12/08 A3019 70 74 -200 000/00 RMK AO2 SLP221 T01220078
63870K0J4 0J420160409210009704/09/16 21:00:31  5-MIN K0J4 100200Z AUTO 00000KT 10SM CLR 12/08 A3019 70 74 -200 000/00 RMK AO2
63870K0J4 0J420160409210508604/09/16 21:05:31  5-MIN K0J4 100205Z AUTO 00000KT M M M 000/00 RMK AO2 PWINO FZRANO $
63870K0J4 0J420160409211009004/09/16 21:10:31  5-MIN K0J4 100210Z AUTO 00000KT 12/08 A3019 70 80 -200 000/00 RMK AO2 $
63870K0J4 0J420160409211509504/09/16 21:15:31  5-MIN K0J4 100215Z AUTO 00000KT 10SM 11/08 A3019 70 80 -300 000/00 RMK AO2 $
63870K0J4 0J420160409212009504/09/16 21:20:31  5-MIN K0J4 100220Z AUTO 00000KT 10SM 12/08 A3019 60 80 -200 000/00 RMK AO2 $
63870K0J4 0J420160409212509504/09/16 21:25:31  5-MIN K0J4 100225Z AUTO 00000KT 10SM 12/08 A3019 60 77 -200 000/00 RMK AO2 $
63870K0J4 0J420160409213009504/09/16 21:30:31  5-MIN K0J4 100230Z AUTO 00000KT 10SM 12/08 A3020 60 80 -200 000/00 RMK AO2 $
63870K0J4 0J420160409213509904/09/16 21:35:31  5-MIN K0J4 100235Z AUTO 00000KT 10SM CLR 11/08 A3020 60 80 -300 000/00 RMK AO2 $
63870K0J4 0J420160409214009904/09/16 21:40:31  5-MIN K0J4 100240Z AUTO 00000KT 10SM CLR 11/08 A3020 60 83 -400 000/00 RMK AO2 $
63870K0J4 0J420160409214509904/09/16 21:45:31  5-MIN K0J4 100245Z AUTO 00000KT 10SM CLR 11/08 A3020 60 83 -400 000/00 RMK AO2 $
63870K0J4 0J420160409215009904/09/16 21:50:31  5-MIN K0J4 100250Z AUTO 00000KT 10SM CLR 10/07 A3020 60 80 -400 000/00 RMK AO2 $
63870K0J4 0J420160409215511604/09/16 21:55:31  5-MIN K0J4 100255Z AUTO 00000KT 10SM CLR 10/07 A3020 60 80 -400 000/00 RMK AO2 SLP226 T01000067 $
63870K0J4 0J420160409220009904/09/16 22:00:31  5-MIN K0J4 100300Z AUTO 00000KT 10SM CLR 10/07 A3020 60 80 -400 000/00 RMK AO2 $
63870K0J4 0J420160409220509904/09/16 22:05:31  5-MIN K0J4 100305Z AUTO 00000KT 10SM CLR 11/07 A3020 60 80 -400 000/00 RMK AO2 $
63870K0J4 0J420160409221009904/09/16 22:10:31  5-MIN K0J4 100310Z AUTO 00000KT 10SM CLR 11/07 A3020 60 80 -400 000/00 RMK AO2 $
63870K0J4 0J420160409221509904/09/16 22:15:31  5-MIN K0J4 100315Z AUTO 00000KT 10SM CLR 11/07 A3020 60 77 -300 000/00 RMK AO2 $
63870K0J4 0J420160409222009904/09/16 22:20:31  5-MIN K0J4 100320Z AUTO 00000KT 10SM CLR 11/07 A3020 60 77 -300 000/00 RMK AO2 $
63870K0J4 0J420160409222509904/09/16 22:25:31  5-MIN K0J4 100325Z AUTO 00000KT 10SM CLR 11/08 A3020 60 83 -400 000/00 RMK AO2 $
63870K0J4 0J420160409223009904/09/16 22:30:31  5-MIN K0J4 100330Z AUTO 00000KT 10SM CLR 09/07 A3020 60 86 -500 000/00 RMK AO2 $
63870K0J4 0J420160409223509904/09/16 22:35:31  5-MIN K0J4 100335Z AUTO 00000KT 10SM CLR 10/07 A3020 60 80 -400 000/00 RMK AO2 $
63870K0J4 0J420160409224009904/09/16 22:40:31  5-MIN K0J4 100340Z AUTO 00000KT 10SM CLR 10/07 A3020 60 83 -400 000/00 RMK AO2 $
63870K0J4 0J420160409224509904/09/16 22:45:31  5-MIN K0J4 100345Z AUTO 00000KT 10SM CLR 11/07 A3020 60 80 -400 000/00 RMK AO2 $
63870K0J4 0J420160409225009904/09/16 22:50:31  5-MIN K0J4 100350Z AUTO 00000KT 10SM CLR 10/07 A3020 60 83 -400 000/00 RMK AO2 $
63870K0J4 0J420160409225511604/09/16 22:55:31  5-MIN K0J4 100355Z AUTO 00000KT 10SM CLR 10/07 A3020 60 83 -400 000/00 RMK AO2 SLP225 T01000072 $
63870K0J4 0J420160409230009904/09/16 23:00:31  5-MIN K0J4 100400Z AUTO 00000KT 10SM CLR 10/08 A3020 60 86 -400 000/00 RMK AO2 $
63870K0J4 0J420160409230509904/09/16 23:05:31  5-MIN K0J4 100405Z AUTO 00000KT 10SM CLR 10/07 A3020 60 83 -400 000/00 RMK AO2 $
63870K0J4 0J420160409231009904/09/16 23:10:31  5-MIN K0J4 100410Z AUTO 00000KT 10SM CLR 09/07 A3021 50 89 -600 000/00 RMK AO2 $
63870K0J4 0J420160409231509904/09/16 23:15:31  5-MIN K0J4 100415Z AUTO 00000KT 10SM CLR 09/07 A3020 50 86 -600 000/00 RMK AO2 $
63870K0J4 0J420160409232009904/09/16 23:20:31  5-MIN K0J4 100420Z AUTO 00000KT 10SM CLR 10/07 A3020 60 80 -400 000/00 RMK AO2 $
63870K0J4 0J420160409232509904/09/16 23:25:31  5-MIN K0J4 100425Z AUTO 00000KT 10SM CLR 09/07 A3020 60 86 -500 000/00 RMK AO2 $
63870K0J4 0J420160409233009904/09/16 23:30:31  5-MIN K0J4 100430Z AUTO 00000KT 10SM CLR 09/07 A3020 60 83 -500 000/00 RMK AO2 $
63870K0J4 0J420160409233509904/09/16 23:35:31  5-MIN K0J4 100435Z AUTO 00000KT 10SM CLR 09/07 A3020 60 86 -500 000/00 RMK AO2 $
63870K0J4 0J420160409234009904/09/16 23:40:31  5-MIN K0J4 100440Z AUTO 00000KT 10SM CLR 09/07 A3020 60 86 -500 000/00 RMK AO2 $
63870K0J4 0J420160409234509904/09/16 23:45:31  5-MIN K0J4 100445Z AUTO 00000KT 10SM CLR 09/07 A3020 60 86 -500 000/00 RMK AO2 $
63870K0J4 0J420160409235009904/09/16 23:50:31  5-MIN K0J4 100450Z AUTO 00000KT 10SM CLR 09/07 A3020 60 86 -500 000/00 RMK AO2 $
63870K0J4 0J420160409235512604/09/16 23:55:31  5-MIN K0J4 100455Z AUTO 00000KT 10SM CLR 09/07 A3020 50 86 -500 000/00 RMK AO2 SLP225 T00940072 402330039 $
63870K0J4 0J420160410000009904/10/16 00:00:31  5-MIN K0J4 100500Z AUTO 00000KT 10SM CLR 09/07 A3020 50 86 -500 000/00 RMK AO2 $
63870K0J4 0J420160410000509904/10/16 00:05:31  5-MIN K0J4 100505Z AUTO 00000KT 10SM CLR 09/07 A3020 50 86 -500 000/00 RMK AO2 $
63870K0J4 0J420160410001009904/10/16 00:10:31  5-MIN K0J4 100510Z AUTO 00000KT 10SM CLR 09/07 A3020 60 86 -600 000/00 RMK AO2 $
63870K0J4 0J420160410001509904/10/16 00:15:31  5-MIN K0J4 100515Z AUTO 00000KT 10SM CLR 09/07 A3020 60 86 -500 000/00 RMK AO2 $
63870K0J4 0J420160410002009904/10/16 00:20:31  5-MIN K0J4 100520Z AUTO 00000KT 10SM CLR 09/07 A3020 60 86 -500 000/00 RMK AO2 $
63870K0J4 0J420160410002509904/10/16 00:25:31  5-MIN K0J4 100525Z AUTO 00000KT 10SM CLR 09/07 A3020 60 83 -500 000/00 RMK AO2 $
63870K0J4 0J420160410003009904/10/16 00:30:31  5-MIN K0J4 100530Z AUTO 00000KT 10SM CLR 10/07 A3020 60 83 -400 000/00 RMK AO2 $
63870K0J4 0J420160410003509904/10/16 00:35:31  5-MIN K0J4 100535Z AUTO 00000KT 10SM CLR 11/08 A3020 60 83 -400 000/00 RMK AO2 $
63870K0J4 0J420160410004009904/10/16 00:40:31  5-MIN K0J4 100540Z AUTO 00000KT 10SM CLR 11/08 A3020 60 86 -400 000/00 RMK AO2 $
63870K0J4 0J420160410004509904/10/16 00:45:31  5-MIN K0J4 100545Z AUTO 00000KT 10SM CLR 10/08 A3020 60 86 -400 000/00 RMK AO2 $
63870K0J4 0J420160410005009904/10/16 00:50:31  5-MIN K0J4 100550Z AUTO 00000KT 10SM CLR 10/08 A3020 60 89 -400 000/00 RMK AO2 $
63870K0J4 0J420160410005512804/10/16 00:55:31  5-MIN K0J4 100555Z AUTO 00000KT 10SM CLR 09/07 A3020 60 86 -500 000/00 RMK AO2 SLP225 T00940072 10194 20089 $
63870K0J4 0J420160410010009904/10/16 01:00:31  5-MIN K0J4 100600Z AUTO 00000KT 10SM CLR 10/08 A3020 60 86 -400 000/00 RMK AO2 $
63870K0J4 0J420160410010509904/10/16 01:05:31  5-MIN K0J4 100605Z AUTO 00000KT 10SM CLR 09/07 A3020 60 86 -500 000/00 RMK AO2 $
63870K0J4 0J420160410011009904/10/16 01:10:31  5-MIN K0J4 100610Z AUTO 00000KT 10SM CLR 09/07 A3020 60 86 -500 000/00 RMK AO2 $
63870K0J4 0J420160410011509904/10/16 01:15:31  5-MIN K0J4 100615Z AUTO 00000KT 10SM CLR 10/08 A3020 60 86 -400 000/00 RMK AO2 $
63870K0J4 0J420160410012009904/10/16 01:20:31  5-MIN K0J4 100620Z AUTO 00000KT 10SM CLR 10/07 A3020 60 83 -400 000/00 RMK AO2 $
63870K0J4 0J420160410012509904/10/16 01:25:31  5-MIN K0J4 100625Z AUTO 00000KT 10SM CLR 10/07 A3020 60 83 -400 000/00 RMK AO2 $
63870K0J4 0J420160410013009904/10/16 01:30:31  5-MIN K0J4 100630Z AUTO 00000KT 10SM CLR 10/07 A3020 60 83 -400 000/00 RMK AO2 $
63870K0J4 0J420160410013509904/10/16 01:35:31  5-MIN K0J4 100635Z AUTO 00000KT 10SM CLR 10/08 A3019 60 86 -400 000/00 RMK AO2 $
63870K0J4 0J420160410014009904/10/16 01:40:31  5-MIN K0J4 100640Z AUTO 00000KT 10SM CLR 11/08 A3020 60 83 -400 000/00 RMK AO2 $
63870K0J4 0J420160410014509904/10/16 01:45:31  5-MIN K0J4 100645Z AUTO 00000KT 10SM CLR 10/08 A3020 60 86 -400 000/00 RMK AO2 $
63870K0J4 0J420160410015009904/10/16 01:50:31  5-MIN K0J4 100650Z AUTO 00000KT 10SM CLR 10/07 A3020 60 83 -400 000/00 RMK AO2 $
63870K0J4 0J420160410015511604/10/16 01:55:31  5-MIN K0J4 100655Z AUTO 00000KT 10SM CLR 09/07 A3019 60 83 -500 000/00 RMK AO2 SLP222 T00940067 $
63870K0J4 0J420160410020009904/10/16 02:00:31  5-MIN K0J4 100700Z AUTO 00000KT 10SM CLR 09/07 A3019 60 86 -500 000/00 RMK AO2 $
63870K0J4 0J420160410020509904/10/16 02:05:31  5-MIN K0J4 100705Z AUTO 00000KT 10SM CLR 09/07 A3019 60 86 -500 000/00 RMK AO2 $
63870K0J4 0J420160410021009904/10/16 02:10:31  5-MIN K0J4 100710Z AUTO 00000KT 10SM CLR 09/07 A3019 60 86 -500 000/00 RMK AO2 $
63870K0J4 0J420160410021509904/10/16 02:15:31  5-MIN K0J4 100715Z AUTO 00000KT 10SM CLR 10/08 A3020 60 86 -400 000/00 RMK AO2 $
63870K0J4 0J420160410022009904/10/16 02:20:31  5-MIN K0J4 100720Z AUTO 00000KT 10SM CLR 10/08 A3020 60 86 -400 000/00 RMK AO2 $
63870K0J4 0J420160410022509904/10/16 02:25:31  5-MIN K0J4 100725Z AUTO 00000KT 10SM CLR 11/07 A3020 60 77 -300 000/00 RMK AO2 $
63870K0J4 0J420160410023009904/10/16 02:30:31  5-MIN K0J4 100730Z AUTO 00000KT 10SM CLR 11/08 A3020 60 83 -400 000/00 RMK AO2 $
63870K0J4 0J420160410023509904/10/16 02:35:31  5-MIN K0J4 100735Z AUTO 00000KT 10SM CLR 11/08 A3020 60 83 -400 000/00 RMK AO2 $
63870K0J4 0J420160410024009904/10/16 02:40:31  5-MIN K0J4 100740Z AUTO 00000KT 10SM CLR 10/08 A3020 60 86 -400 000/00 RMK AO2 $
63870K0J4 0J420160410024509904/10/16 02:45:31  5-MIN K0J4 100745Z AUTO 00000KT 10SM CLR 10/08 A3020 60 86 -400 000/00 RMK AO2 $
63870K0J4 0J420160410025009904/10/16 02:50:31  5-MIN K0J4 100750Z AUTO 00000KT 10SM CLR 10/08 A3020 60 86 -400 000/00 RMK AO2 $
63870K0J4 0J420160410025511604/10/16 02:55:31  5-MIN K0J4 100755Z AUTO 00000KT 10SM CLR 11/08 A3020 60 83 -400 000/00 RMK AO2 SLP223 T01060078 $
63870K0J4 0J420160410030009904/10/16 03:00:31  5-MIN K0J4 100800Z AUTO 00000KT 10SM CLR 11/08 A3020 60 83 -400 000/00 RMK AO2 $
63870K0J4 0J420160410030509904/10/16 03:05:31  5-MIN K0J4 100805Z AUTO 00000KT 10SM CLR 10/08 A3020 60 86 -400 000/00 RMK AO2 $
63870K0J4 0J420160410031009904/10/16 03:10:31  5-MIN K0J4 100810Z AUTO 00000KT 10SM CLR 10/08 A3020 60 86 -400 000/00 RMK AO2 $
63870K0J4 0J420160410031509904/10/16 03:15:31  5-MIN K0J4 100815Z AUTO 00000KT 10SM CLR 11/08 A3020 60 83 -400 000/00 RMK AO2 $
63870K0J4 0J420160410032009904/10/16 03:20:31  5-MIN K0J4 100820Z AUTO 00000KT 10SM CLR 12/08 A3020 60 77 -200 000/00 RMK AO2 $
63870K0J4 0J420160410032509904/10/16 03:25:31  5-MIN K0J4 100825Z AUTO 00000KT 10SM CLR 12/07 A3020 60 68 -200 000/00 RMK AO2 $
63870K0J4 0J420160410033009904/10/16 03:30:31  5-MIN K0J4 100830Z AUTO 00000KT 10SM CLR 11/08 A3020 60 80 -300 000/00 RMK AO2 $
63870K0J4 0J420160410033509904/10/16 03:35:31  5-MIN K0J4 100835Z AUTO 00000KT 10SM CLR 11/08 A3020 60 80 -300 000/00 RMK AO2 $
63870K0J4 0J420160410034009904/10/16 03:40:31  5-MIN K0J4 100840Z AUTO 00000KT 10SM CLR 12/06 A3020 60 63 -200 000/00 RMK AO2 $
63870K0J4 0J420160410034509904/10/16 03:45:31  5-MIN K0J4 100845Z AUTO 00000KT 10SM CLR 13/05 A3020 60 59 -100 000/00 RMK AO2 $
63870K0J4 0J420160410035009904/10/16 03:50:31  5-MIN K0J4 100850Z AUTO 00000KT 10SM CLR 12/06 A3020 60 63 -200 000/00 RMK AO2 $
63870K0J4 0J420160410035512204/10/16 03:55:31  5-MIN K0J4 100855Z AUTO 09003KT 10SM CLR 12/05 A3020 60 61 -200 090/03 RMK AO2 SLP224 T01220050 50000 $
63870K0J4 0J420160410040009904/10/16 04:00:31  5-MIN K0J4 100900Z AUTO 08003KT 10SM CLR 12/06 A3020 60 63 -200 080/03 RMK AO2 $
63870K0J4 0J420160410040509904/10/16 04:05:31  5-MIN K0J4 100905Z AUTO 08003KT 10SM CLR 12/06 A3020 60 66 -200 080/03 RMK AO2 $
63870K0J4 0J420160410041009904/10/16 04:10:31  5-MIN K0J4 100910Z AUTO 07003KT 10SM CLR 12/06 A3020 60 66 -200 070/03 RMK AO2 $
63870K0J4 0J420160410041509904/10/16 04:15:31  5-MIN K0J4 100915Z AUTO 09003KT 10SM CLR 12/06 A3020 60 63 -200 090/03 RMK AO2 $
63870K0J4 0J420160410042009904/10/16 04:20:31  5-MIN K0J4 100920Z AUTO 00000KT 10SM CLR 12/05 A3020 60 61 -200 000/00 RMK AO2 $
63870K0J4 0J420160410042509904/10/16 04:25:31  5-MIN K0J4 100925Z AUTO 00000KT 10SM CLR 12/05 A3020 50 63 -200 000/00 RMK AO2 $
63870K0J4 0J420160410043009904/10/16 04:30:31  5-MIN K0J4 100930Z AUTO 00000KT 10SM CLR 12/05 A3020 60 63 -200 000/00 RMK AO2 $
63870K0J4 0J420160410043509904/10/16 04:35:31  5-MIN K0J4 100935Z AUTO VRB03KT 10SM CLR 12/05 A3020 60 63 -200 VRB/03 RMK AO2 $
63870K0J4 0J420160410044009904/10/16 04:40:31  5-MIN K0J4 100940Z AUTO 10004KT 10SM CLR 12/05 A3020 60 63 -200 100/04 RMK AO2 $
63870K0J4 0J420160410044509904/10/16 04:45:31  5-MIN K0J4 100945Z AUTO 08003KT 10SM CLR 12/05 A3020 60 63 -200 080/03 RMK AO2 $
63870K0J4 0J420160410045009904/10/16 04:50:31  5-MIN K0J4 100950Z AUTO 10004KT 10SM CLR 12/05 A3021 50 63 -200 100/04 RMK AO2 $
63870K0J4 0J420160410045511604/10/16 04:55:31  5-MIN K0J4 100955Z AUTO 09003KT 10SM CLR 12/05 A3020 50 63 -200 090/03 RMK AO2 SLP226 T01170050 $
63870K0J4 0J420160410050009904/10/16 05:00:31  5-MIN K0J4 101000Z AUTO 09003KT 10SM CLR 11/05 A3021 50 66 -300 090/03 RMK AO2 $
63870K0J4 0J420160410050509904/10/16 05:05:31  5-MIN K0J4 101005Z AUTO 07003KT 10SM CLR 11/06 A3021 50 68 -300 070/03 RMK AO2 $
63870K0J4 0J420160410051009904/10/16 05:10:31  5-MIN K0J4 101010Z AUTO 00000KT 10SM CLR 11/05 A3022 40 66 -300 000/00 RMK AO2 $
63870K0J4 0J420160410051509904/10/16 05:15:31  5-MIN K0J4 101015Z AUTO 08004KT 10SM CLR 11/05 A3021 50 66 -300 080/04 RMK AO2 $
63870K0J4 0J420160410052009904/10/16 05:20:31  5-MIN K0J4 101020Z AUTO 07004KT 10SM CLR 11/06 A3021 50 68 -300 070/04 RMK AO2 $
63870K0J4 0J420160410052509904/10/16 05:25:31  5-MIN K0J4 101025Z AUTO 08004KT 10SM CLR 11/05 A3022 40 66 -300 080/04 RMK AO2 $
63870K0J4 0J420160410053009904/10/16 05:30:31  5-MIN K0J4 101030Z AUTO 09003KT 10SM CLR 11/05 A3022 40 66 -300 090/03 RMK AO2 $
63870K0J4 0J420160410053509904/10/16 05:35:31  5-MIN K0J4 101035Z AUTO 08003KT 10SM CLR 11/05 A3022 40 66 -300 080/03 RMK AO2 $
63870K0J4 0J420160410054009904/10/16 05:40:31  5-MIN K0J4 101040Z AUTO 00000KT 10SM CLR 11/05 A3023 40 66 -300 000/00 RMK AO2 $
63870K0J4 0J420160410054509904/10/16 05:45:31  5-MIN K0J4 101045Z AUTO 00000KT 10SM CLR 11/05 A3023 40 66 -300 000/00 RMK AO2 $
63870K0J4 0J420160410055009904/10/16 05:50:31  5-MIN K0J4 101050Z AUTO 00000KT 10SM CLR 11/05 A3023 30 66 -300 000/00 RMK AO2 $
63870K0J4 0J420160410055511604/10/16 05:55:31  5-MIN K0J4 101055Z AUTO 00000KT 10SM CLR 11/05 A3023 30 66 -300 000/00 RMK AO2 SLP234 T01110050 $
63870K0J4 0J420160410060009904/10/16 06:00:31  5-MIN K0J4 101100Z AUTO 00000KT 10SM CLR 11/05 A3023 30 66 -300 000/00 RMK AO2 $
63870K0J4 0J420160410060509904/10/16 06:05:31  5-MIN K0J4 101105Z AUTO 09003KT 10SM CLR 11/05 A3024 30 66 -300 090/03 RMK AO2 $
63870K0J4 0J420160410061009904/10/16 06:10:31  5-MIN K0J4 101110Z AUTO 00000KT 10SM CLR 11/05 A3024 20 66 -300 000/00 RMK AO2 $
63870K0J4 0J420160410061509904/10/16 06:15:31  5-MIN K0J4 101115Z AUTO 00000KT 10SM CLR 11/05 A3024 20 66 -400 000/00 RMK AO2 $
63870K0J4 0J420160410062009904/10/16 06:20:31  5-MIN K0J4 101120Z AUTO 08003KT 10SM CLR 11/05 A3024 20 66 -400 080/03 RMK AO2 $
63870K0J4 0J420160410062509904/10/16 06:25:31  5-MIN K0J4 101125Z AUTO VRB03KT 10SM CLR 11/05 A3024 20 66 -400 VRB/03 RMK AO2 $
63870K0J4 0J420160410063009904/10/16 06:30:31  5-MIN K0J4 101130Z AUTO 00000KT 10SM CLR 11/05 A3025 10 66 -400 000/00 RMK AO2 $
63870K0J4 0J420160410063509904/10/16 06:35:31  5-MIN K0J4 101135Z AUTO 00000KT 10SM CLR 11/05 A3026 10 66 -400 000/00 RMK AO2 $
63870K0J4 0J420160410064009804/10/16 06:40:31  5-MIN K0J4 101140Z AUTO 00000KT 10SM CLR 11/04 A3026 0 63 -400 000/00 RMK AO2 $
63870K0J4 0J420160410064509804/10/16 06:45:31  5-MIN K0J4 101145Z AUTO 07003KT 10SM CLR 11/04 A3026 0 63 -400 070/03 RMK AO2 $
63870K0J4 0J420160410065009804/10/16 06:50:31  5-MIN K0J4 101150Z AUTO 09004KT 10SM CLR 11/04 A3026 0 63 -400 090/04 RMK AO2 $
63870K0J4 0J420160410065513304/10/16 06:55:31  5-MIN K0J4 101155Z AUTO 08003KT 10SM CLR 11/04 A3026 0 63 -400 080/03 RMK AO2 SLP245 T01110044 10128 20094 55000 $
63870K0J4 0J420160410070009804/10/16 07:00:31  5-MIN K0J4 101200Z AUTO 08003KT 10SM CLR 11/04 A3026 0 61 -400 080/03 RMK AO2 $
63870K0J4 0J420160410070509804/10/16 07:05:31  5-MIN K0J4 101205Z AUTO 08004KT 10SM CLR 11/04 A3027 0 61 -400 080/04 RMK AO2 $
63870K0J4 0J420160410071009804/10/16 07:10:31  5-MIN K0J4 101210Z AUTO 08004KT 10SM CLR 11/04 A3027 0 61 -400 080/04 RMK AO2 $
63870K0J4 0J420160410071509804/10/16 07:15:31  5-MIN K0J4 101215Z AUTO 09004KT 10SM CLR 11/03 A3027 0 58 -400 090/04 RMK AO2 $
63870K0J4 0J420160410072010004/10/16 07:20:31  5-MIN K0J4 101220Z AUTO 09003KT 10SM CLR 11/03 A3028 -10 58 -400 090/03 RMK AO2 $
63870K0J4 0J420160410072510004/10/16 07:25:31  5-MIN K0J4 101225Z AUTO 10003KT 10SM CLR 11/03 A3028 -10 58 -400 100/03 RMK AO2 $
63870K0J4 0J420160410073010004/10/16 07:30:31  5-MIN K0J4 101230Z AUTO 09003KT 10SM CLR 11/03 A3028 -10 56 -400 090/03 RMK AO2 $
63870K0J4 0J420160410073510004/10/16 07:35:31  5-MIN K0J4 101235Z AUTO 09003KT 10SM CLR 11/03 A3029 -10 56 -400 090/03 RMK AO2 $
63870K0J4 0J420160410074010004/10/16 07:40:31  5-MIN K0J4 101240Z AUTO 08003KT 10SM CLR 12/03 A3029 -20 56 -300 080/03 RMK AO2 $
63870K0J4 0J420160410074510304/10/16 07:45:31  5-MIN K0J4 101245Z AUTO 07003KT 10SM FEW110 12/03 A3029 -20 54 -300 070/03 RMK AO2 $
63870K0J4 0J420160410075010304/10/16 07:50:31  5-MIN K0J4 101250Z AUTO 08004KT 10SM FEW110 12/03 A3029 -20 56 -300 080/04 RMK AO2 $
63870K0J4 0J420160410075512004/10/16 07:55:31  5-MIN K0J4 101255Z AUTO 09005KT 10SM FEW120 12/03 A3029 -20 54 -300 090/05 RMK AO2 SLP255 T01170028 $
63870K0J4 0J420160410080010304/10/16 08:00:31  5-MIN K0J4 101300Z AUTO 08005KT 10SM SCT110 12/03 A3029 -20 54 -300 080/05 RMK AO2 $
63870K0J4 0J420160410080510304/10/16 08:05:31  5-MIN K0J4 101305Z AUTO 09005KT 10SM BKN110 12/03 A3029 -20 54 -300 090/05 RMK AO2 $
63870K0J4 0J420160410081010304/10/16 08:10:31  5-MIN K0J4 101310Z AUTO 09005KT 10SM SCT110 12/03 A3030 -30 54 -300 090/05 RMK AO2 $
63870K0J4 0J420160410081510304/10/16 08:15:31  5-MIN K0J4 101315Z AUTO 08004KT 10SM SCT110 12/02 A3030 -30 52 -300 080/04 RMK AO2 $
63870K0J4 0J420160410082010304/10/16 08:20:31  5-MIN K0J4 101320Z AUTO VRB03KT 10SM SCT110 12/03 A3030 -30 54 -300 VRB/03 RMK AO2 $
63870K0J4 0J420160410082510304/10/16 08:25:31  5-MIN K0J4 101325Z AUTO 08005KT 10SM SCT110 12/03 A3030 -30 52 -300 080/05 RMK AO2 $
63870K0J4 0J420160410083010304/10/16 08:30:31  5-MIN K0J4 101330Z AUTO 09003KT 10SM FEW120 12/02 A3030 -30 50 -300 090/03 RMK AO2 $
63870K0J4 0J420160410083510304/10/16 08:35:31  5-MIN K0J4 101335Z AUTO VRB05KT 10SM FEW120 13/03 A3031 -30 48 -200 VRB/05 RMK AO2 $
63870K0J4 0J420160410084010304/10/16 08:40:31  5-MIN K0J4 101340Z AUTO 09006KT 10SM FEW120 13/02 A3030 -30 48 -200 090/06 RMK AO2 $
63870K0J4 0J420160410084510304/10/16 08:45:31  5-MIN K0J4 101345Z AUTO VRB06KT 10SM FEW120 13/02 A3030 -30 46 -200 VRB/06 RMK AO2 $
63870K0J4 0J420160410085010304/10/16 08:50:31  5-MIN K0J4 101350Z AUTO 11007KT 10SM SCT120 13/02 A3030 -30 46 -200 110/07 RMK AO2 $
63870K0J4 0J420160410085512004/10/16 08:55:31  5-MIN K0J4 101355Z AUTO VRB06KT 10SM FEW120 14/02 A3031 -40 45 -100 VRB/06 RMK AO2 SLP262 T01390022 $
63870K0J4 0J420160410090010904/10/16 09:00:31  5-MIN K0J4 101400Z AUTO 11007G14KT 10SM SCT120 13/01 A3031 -30 43 -200 110/07G14 RMK AO2 $
63870K0J4 0J420160410090510904/10/16 09:05:31  5-MIN K0J4 101405Z AUTO 12007G14KT 10SM BKN120 14/01 A3031 -30 41 -100 120/07G14 RMK AO2 $
63870K0J4 0J420160410091010304/10/16 09:10:31  5-MIN K0J4 101410Z AUTO 12007KT 10SM BKN120 14/01 A3031 -30 41 -100 120/07 RMK AO2 $
63870K0J4 0J420160410091511604/10/16 09:15:31  5-MIN K0J4 101415Z AUTO 10008KT 060V150 10SM BKN120 14/02 A3031 -30 41 0 100/08 060V150 RMK AO2 $
63870K0J4 0J420160410092010004/10/16 09:20:31  5-MIN K0J4 101420Z AUTO 12008KT 10SM BKN120 14/01 A3030 -30 38 0 120/08 RMK AO2 $
63870K0J4 0J420160410092510304/10/16 09:25:31  5-MIN K0J4 101425Z AUTO 11005KT 10SM SCT120 14/01 A3030 -30 40 -100 110/05 RMK AO2 $
63870K0J4 0J420160410093010004/10/16 09:30:31  5-MIN K0J4 101430Z AUTO VRB06KT 10SM FEW120 14/01 A3030 -30 40 0 VRB/06 RMK AO2 $
63870K0J4 0J420160410093510304/10/16 09:35:31  5-MIN K0J4 101435Z AUTO 11008KT 10SM SCT110 14/01 A3030 -30 40 -100 110/08 RMK AO2 $
63870K0J4 0J420160410094010304/10/16 09:40:31  5-MIN K0J4 101440Z AUTO 13007KT 10SM BKN110 14/00 A3030 -30 38 -100 130/07 RMK AO2 $
63870K0J4 0J420160410094510304/10/16 09:45:31  5-MIN K0J4 101445Z AUTO VRB05KT 10SM SCT110 14/01 A3030 -30 40 -100 VRB/05 RMK AO2 $
63870K0J4 0J420160410095010004/10/16 09:50:31  5-MIN K0J4 101450Z AUTO 12006KT 10SM SCT110 14/01 A3031 -30 38 0 120/06 RMK AO2 $
63870K0J4 0J420160410095512304/10/16 09:55:31  5-MIN K0J4 101455Z AUTO 11007KT 10SM SCT110 15/01 A3030 -30 37 0 110/07 RMK AO2 SLP260 T01500006 53021 $
63870K0J4 0J420160410100010004/10/16 10:00:31  5-MIN K0J4 101500Z AUTO VRB04KT 10SM BKN110 15/01 A3031 -30 37 0 VRB/04 RMK AO2 $
63870K0J4 0J420160410100510204/10/16 10:05:31  5-MIN K0J4 101505Z AUTO VRB06KT 10SM BKN110 16/01 A3030 -30 36 100 VRB/06 RMK AO2 $
63870K0J4 0J420160410101010204/10/16 10:10:31  5-MIN K0J4 101510Z AUTO 11008KT 10SM SCT120 16/01 A3030 -30 34 100 110/08 RMK AO2 $
63870K0J4 0J420160410101510204/10/16 10:15:31  5-MIN K0J4 101515Z AUTO 10008KT 10SM BKN120 16/01 A3030 -30 34 100 100/08 RMK AO2 $
63870K0J4 0J420160410102010204/10/16 10:20:31  5-MIN K0J4 101520Z AUTO 10007KT 10SM BKN110 16/01 A3030 -30 34 100 100/07 RMK AO2 $
63870K0J4 0J420160410102510204/10/16 10:25:31  5-MIN K0J4 101525Z AUTO 11008KT 10SM BKN110 16/01 A3030 -30 34 100 110/08 RMK AO2 $
63870K0J4 0J420160410103010204/10/16 10:30:31  5-MIN K0J4 101530Z AUTO 13006KT 10SM BKN110 16/01 A3030 -30 34 100 130/06 RMK AO2 $
63870K0J4 0J420160410103510204/10/16 10:35:31  5-MIN K0J4 101535Z AUTO VRB05KT 10SM OVC110 16/01 A3030 -30 34 100 VRB/05 RMK AO2 $
63870K0J4 0J420160410104010204/10/16 10:40:31  5-MIN K0J4 101540Z AUTO 11005KT 10SM OVC110 17/01 A3030 -30 34 200 110/05 RMK AO2 $
63870K0J4 0J420160410104510204/10/16 10:45:31  5-MIN K0J4 101545Z AUTO VRB05KT 10SM OVC110 17/01 A3030 -30 33 200 VRB/05 RMK AO2 $
63870K0J4 0J420160410105010204/10/16 10:50:31  5-MIN K0J4 101550Z AUTO 10006KT 10SM OVC110 17/01 A3030 -30 33 200 100/06 RMK AO2 $
63870K0J4 0J420160410105511904/10/16 10:55:31  5-MIN K0J4 101555Z AUTO 11006KT 10SM OVC110 17/01 A3030 -30 33 200 110/06 RMK AO2 SLP259 T01670006 $
63870K0J4 0J420160410110010204/10/16 11:00:31  5-MIN K0J4 101600Z AUTO 11005KT 10SM OVC110 17/01 A3030 -30 34 200 110/05 RMK AO2 $
63870K0J4 0J420160410110510204/10/16 11:05:31  5-MIN K0J4 101605Z AUTO 11006KT 10SM OVC110 17/01 A3030 -30 33 300 110/06 RMK AO2 $
63870K0J4 0J420160410111010204/10/16 11:10:31  5-MIN K0J4 101610Z AUTO 11006KT 10SM OVC110 17/01 A3030 -30 32 300 110/06 RMK AO2 $
63870K0J4 0J420160410111510204/10/16 11:15:31  5-MIN K0J4 101615Z AUTO VRB05KT 10SM OVC110 17/01 A3030 -30 33 300 VRB/05 RMK AO2 $
63870K0J4 0J420160410112010204/10/16 11:20:31  5-MIN K0J4 101620Z AUTO VRB04KT 10SM OVC110 17/01 A3030 -30 32 300 VRB/04 RMK AO2 $
63870K0J4 0J420160410112510204/10/16 11:25:31  5-MIN K0J4 101625Z AUTO 10008KT 10SM OVC110 18/01 A3030 -30 31 300 100/08 RMK AO2 $
63870K0J4 0J420160410113010204/10/16 11:30:31  5-MIN K0J4 101630Z AUTO VRB06KT 10SM BKN110 18/00 A3030 -30 29 400 VRB/06 RMK AO2 $
63870K0J4 0J420160410113510204/10/16 11:35:31  5-MIN K0J4 101635Z AUTO VRB06KT 10SM BKN110 18/01 A3030 -30 30 400 VRB/06 RMK AO2 $
63870K0J4 0J420160410114010204/10/16 11:40:31  5-MIN K0J4 101640Z AUTO 10006KT 10SM BKN110 18/00 A3029 -20 30 300 100/06 RMK AO2 $
63870K0J4 0J420160410114510204/10/16 11:45:31  5-MIN K0J4 101645Z AUTO 12008KT 10SM BKN110 18/01 A3029 -20 30 400 120/08 RMK AO2 $
63870K0J4 0J420160410115010204/10/16 11:50:31  5-MIN K0J4 101650Z AUTO 11007KT 10SM BKN110 18/01 A3029 -20 30 400 110/07 RMK AO2 $
63870K0J4 0J420160410115511904/10/16 11:55:31  5-MIN K0J4 101655Z AUTO 11005KT 10SM BKN110 18/01 A3029 -20 30 400 110/05 RMK AO2 SLP256 T01830006 $
63870K0J4 0J420160410120010204/10/16 12:00:31  5-MIN K0J4 101700Z AUTO VRB06KT 10SM BKN110 19/01 A3029 -20 30 500 VRB/06 RMK AO2 $
63870K0J4 0J420160410120510204/10/16 12:05:31  5-MIN K0J4 101705Z AUTO 09007KT 10SM BKN120 19/01 A3029 -20 30 500 090/07 RMK AO2 $
63870K0J4 0J420160410121010204/10/16 12:10:31  5-MIN K0J4 101710Z AUTO VRB06KT 10SM SCT120 19/02 A3029 -20 31 500 VRB/06 RMK AO2 $
63870K0J4 0J420160410121510204/10/16 12:15:31  5-MIN K0J4 101715Z AUTO 11005KT 10SM SCT110 19/02 A3029 -20 30 500 110/05 RMK AO2 $
63870K0J4 0J420160410122010204/10/16 12:20:31  5-MIN K0J4 101720Z AUTO 09006KT 10SM SCT110 19/02 A3029 -20 30 500 090/06 RMK AO2 $
63870K0J4 0J420160410122510204/10/16 12:25:31  5-MIN K0J4 101725Z AUTO 07005KT 10SM FEW110 19/02 A3029 -20 30 500 070/05 RMK AO2 $
63870K0J4 0J420160410123010204/10/16 12:30:31  5-MIN K0J4 101730Z AUTO 11007KT 10SM FEW120 20/02 A3029 -20 30 600 110/07 RMK AO2 $
63870K0J4 0J420160410123510204/10/16 12:35:31  5-MIN K0J4 101735Z AUTO 10007KT 10SM FEW110 21/02 A3029 -20 29 700 100/07 RMK AO2 $
63870K0J4 0J420160410124010204/10/16 12:40:31  5-MIN K0J4 101740Z AUTO VRB05KT 10SM FEW110 20/02 A3029 -20 30 600 VRB/05 RMK AO2 $
63870K0J4 0J420160410124510204/10/16 12:45:31  5-MIN K0J4 101745Z AUTO VRB06KT 10SM FEW110 21/03 A3028 -10 30 700 VRB/06 RMK AO2 $
63870K0J4 0J420160410125009904/10/16 12:50:31  5-MIN K0J4 101750Z AUTO 05004KT 10SM CLR 21/03 A3028 -10 30 700 050/04 RMK AO2 $
63870K0J4 0J420160410125513404/10/16 12:55:31  5-MIN K0J4 101755Z AUTO 00000KT 10SM CLR 21/03 A3028 -10 30 700 000/00 RMK AO2 SLP252 T02060028 10206 20111 50014 $
63870K0J4 0J420160410130009904/10/16 13:00:31  5-MIN K0J4 101800Z AUTO 18006KT 10SM CLR 21/03 A3028 -10 30 700 180/06 RMK AO2 $
63870K0J4 0J420160410130509904/10/16 13:05:31  5-MIN K0J4 101805Z AUTO VRB03KT 10SM CLR 21/03 A3028 -10 30 700 VRB/03 RMK AO2 $
63870K0J4 0J420160410131009904/10/16 13:10:31  5-MIN K0J4 101810Z AUTO VRB05KT 10SM CLR 21/03 A3028 -10 30 700 VRB/05 RMK AO2 $
63870K0J4 0J420160410131509904/10/16 13:15:31  5-MIN K0J4 101815Z AUTO VRB04KT 10SM CLR 22/03 A3028 -10 29 800 VRB/04 RMK AO2 $
63870K0J4 0J420160410132009904/10/16 13:20:31  5-MIN K0J4 101820Z AUTO 09006KT 10SM CLR 22/04 A3028 -10 31 800 090/06 RMK AO2 $
63870K0J4 0J420160410132509704/10/16 13:25:31  5-MIN K0J4 101825Z AUTO 00000KT 10SM CLR 22/03 A3027 0 29 800 000/00 RMK AO2 $
63870K0J4 0J420160410133009704/10/16 13:30:31  5-MIN K0J4 101830Z AUTO 10006KT 10SM CLR 22/03 A3027 0 29 800 100/06 RMK AO2 $
63870K0J4 0J420160410133509704/10/16 13:35:31  5-MIN K0J4 101835Z AUTO VRB04KT 10SM CLR 22/03 A3027 0 28 800 VRB/04 RMK AO2 $
63870K0J4 0J420160410134009704/10/16 13:40:31  5-MIN K0J4 101840Z AUTO 10006KT 10SM CLR 22/04 A3027 0 31 900 100/06 RMK AO2 $
63870K0J4 0J420160410134511304/10/16 13:45:31  5-MIN K0J4 101845Z AUTO 14007KT 100V170 10SM CLR 22/04 A3027 0 30 900 140/07 100V170 RMK AO2 $
63870K0J4 0J420160410135009704/10/16 13:50:31  5-MIN K0J4 101850Z AUTO VRB04KT 10SM CLR 22/03 A3026 0 29 800 VRB/04 RMK AO2 $
63870K0J4 0J420160410135511404/10/16 13:55:31  5-MIN K0J4 101855Z AUTO VRB05KT 10SM CLR 22/03 A3026 0 28 900 VRB/05 RMK AO2 SLP244 T02220033 $
63870K0J4 0J420160410140011404/10/16 14:00:31  5-MIN K0J4 101900Z AUTO 12007KT 040V150 10SM CLR 22/04 A3026 10 30 900 120/07 040V150 RMK AO2 $
63870K0J4 0J420160410140509804/10/16 14:05:31  5-MIN K0J4 101905Z AUTO VRB03KT 10SM CLR 22/03 A3026 10 28 900 VRB/03 RMK AO2 $
63870K0J4 0J420160410141009904/10/16 14:10:31  5-MIN K0J4 101910Z AUTO 11006KT 10SM CLR 23/04 A3025 10 29 1000 110/06 RMK AO2 $
63870K0J4 0J420160410141509904/10/16 14:15:31  5-MIN K0J4 101915Z AUTO VRB05KT 10SM CLR 23/04 A3025 10 29 1000 VRB/05 RMK AO2 $
63870K0J4 0J420160410142011504/10/16 14:20:31  5-MIN K0J4 101920Z AUTO 16007KT 130V190 10SM CLR 23/03 A3025 10 27 1000 160/07 130V190 RMK AO2 $
63870K0J4 0J420160410142509904/10/16 14:25:31  5-MIN K0J4 101925Z AUTO VRB06KT 10SM CLR 23/03 A3025 20 26 1000 VRB/06 RMK AO2 $
63870K0J4 0J420160410143010504/10/16 14:30:31  5-MIN K0J4 101930Z AUTO VRB04G15KT 10SM CLR 23/03 A3024 20 26 1000 VRB/04G15 RMK AO2 $
63870K0J4 0J420160410143510504/10/16 14:35:31  5-MIN K0J4 101935Z AUTO 10005G15KT 10SM CLR 23/03 A3024 20 26 1000 100/05G15 RMK AO2 $
63870K0J4 0J420160410144009904/10/16 14:40:31  5-MIN K0J4 101940Z AUTO VRB06KT 10SM CLR 23/03 A3024 20 25 1000 VRB/06 RMK AO2 $
63870K0J4 0J420160410144509904/10/16 14:45:31  5-MIN K0J4 101945Z AUTO 20005KT 10SM CLR 23/03 A3024 20 25 1000 200/05 RMK AO2 $
63870K0J4 0J420160410145009904/10/16 14:50:31  5-MIN K0J4 101950Z AUTO 16006KT 10SM CLR 23/03 A3024 20 25 1000 160/06 RMK AO2 $
63870K0J4 0J420160410145511604/10/16 14:55:31  5-MIN K0J4 101955Z AUTO 18006KT 10SM CLR 23/02 A3024 20 25 1000 180/06 RMK AO2 SLP237 T02280022 $
63870K0J4 0J420160410150009904/10/16 15:00:31  5-MIN K0J4 102000Z AUTO VRB05KT 10SM CLR 23/03 A3024 30 25 1000 VRB/05 RMK AO2 $
63870K0J4 0J420160410150509904/10/16 15:05:31  5-MIN K0J4 102005Z AUTO 17008KT 10SM CLR 24/04 A3023 30 27 1100 170/08 RMK AO2 $
63870K0J4 0J420160410151009904/10/16 15:10:31  5-MIN K0J4 102010Z AUTO 15005KT 10SM CLR 23/03 A3023 30 25 1000 150/05 RMK AO2 $
63870K0J4 0J420160410151509904/10/16 15:15:31  5-MIN K0J4 102015Z AUTO VRB03KT 10SM CLR 23/03 A3023 30 25 1000 VRB/03 RMK AO2 $
63870K0J4 0J420160410152009904/10/16 15:20:31  5-MIN K0J4 102020Z AUTO 20005KT 10SM CLR 23/02 A3023 30 24 1100 200/05 RMK AO2 $
63870K0J4 0J420160410152510504/10/16 15:25:31  5-MIN K0J4 102025Z AUTO 18009G15KT 10SM CLR 24/03 A3022 40 26 1100 180/09G15 RMK AO2 $
63870K0J4 0J420160410153009904/10/16 15:30:31  5-MIN K0J4 102030Z AUTO 16009KT 10SM CLR 24/03 A3022 40 25 1100 160/09 RMK AO2 $
63870K0J4 0J420160410153509904/10/16 15:35:31  5-MIN K0J4 102035Z AUTO 16008KT 10SM CLR 24/03 A3022 40 25 1100 160/08 RMK AO2 $
63870K0J4 0J420160410154009904/10/16 15:40:31  5-MIN K0J4 102040Z AUTO 18005KT 10SM CLR 23/02 A3022 40 24 1100 180/05 RMK AO2 $
63870K0J4 0J420160410154509904/10/16 15:45:31  5-MIN K0J4 102045Z AUTO 16008KT 10SM CLR 23/03 A3022 40 25 1100 160/08 RMK AO2 $
63870K0J4 0J420160410155009904/10/16 15:50:31  5-MIN K0J4 102050Z AUTO 18006KT 10SM CLR 24/03 A3021 50 25 1100 180/06 RMK AO2 $
63870K0J4 0J420160410155512204/10/16 15:55:31  5-MIN K0J4 102055Z AUTO 18007KT 10SM CLR 24/03 A3021 50 26 1100 180/07 RMK AO2 SLP229 T02390033 58006 $
63870K0J4 0J420160410160009904/10/16 16:00:31  5-MIN K0J4 102100Z AUTO 16006KT 10SM CLR 24/03 A3021 50 25 1100 160/06 RMK AO2 $
63870K0J4 0J420160410160509904/10/16 16:05:31  5-MIN K0J4 102105Z AUTO 12005KT 10SM CLR 23/02 A3021 50 24 1100 120/05 RMK AO2 $
63870K0J4 0J420160410161009904/10/16 16:10:31  5-MIN K0J4 102110Z AUTO 16009KT 10SM CLR 24/03 A3021 50 25 1100 160/09 RMK AO2 $
63870K0J4 0J420160410161509904/10/16 16:15:31  5-MIN K0J4 102115Z AUTO 15005KT 10SM CLR 24/03 A3021 50 25 1100 150/05 RMK AO2 $
63870K0J4 0J420160410162009904/10/16 16:20:31  5-MIN K0J4 102120Z AUTO 16006KT 10SM CLR 24/03 A3021 50 25 1100 160/06 RMK AO2 $
63870K0J4 0J420160410162509904/10/16 16:25:31  5-MIN K0J4 102125Z AUTO 15006KT 10SM CLR 24/03 A3020 50 25 1100 150/06 RMK AO2 $
63870K0J4 0J420160410163009904/10/16 16:30:31  5-MIN K0J4 102130Z AUTO 14005KT 10SM CLR 24/02 A3020 60 24 1100 140/05 RMK AO2 $
63870K0J4 0J420160410163509904/10/16 16:35:31  5-MIN K0J4 102135Z AUTO 16008KT 10SM CLR 24/03 A3020 60 25 1100 160/08 RMK AO2 $
63870K0J4 0J420160410164009904/10/16 16:40:31  5-MIN K0J4 102140Z AUTO 14007KT 10SM CLR 24/02 A3020 60 24 1100 140/07 RMK AO2 $
63870K0J4 0J420160410164509904/10/16 16:45:31  5-MIN K0J4 102145Z AUTO VRB05KT 10SM CLR 24/02 A3020 60 23 1100 VRB/05 RMK AO2 $
63870K0J4 0J420160410165009904/10/16 16:50:31  5-MIN K0J4 102150Z AUTO 14008KT 10SM CLR 24/03 A3020 60 25 1100 140/08 RMK AO2 $
63870K0J4 0J420160410165511604/10/16 16:55:31  5-MIN K0J4 102155Z AUTO 15006KT 10SM CLR 24/02 A3020 60 24 1100 150/06 RMK AO2 SLP223 T02390022 $
63870K0J4 0J420160410170009904/10/16 17:00:31  5-MIN K0J4 102200Z AUTO 17006KT 10SM CLR 24/02 A3020 60 24 1100 170/06 RMK AO2 $
63870K0J4 0J420160410170509904/10/16 17:05:31  5-MIN K0J4 102205Z AUTO 13006KT 10SM CLR 24/03 A3020 60 25 1100 130/06 RMK AO2 $
63870K0J4 0J420160410171009904/10/16 17:10:31  5-MIN K0J4 102210Z AUTO 13006KT 10SM CLR 23/03 A3020 60 25 1100 130/06 RMK AO2 $
63870K0J4 0J420160410171509904/10/16 17:15:31  5-MIN K0J4 102215Z AUTO 15006KT 10SM CLR 23/02 A3020 60 24 1100 150/06 RMK AO2 $
63870K0J4 0J420160410172009904/10/16 17:20:31  5-MIN K0J4 102220Z AUTO 15006KT 10SM CLR 23/02 A3020 60 24 1100 150/06 RMK AO2 $
63870K0J4 0J420160410172509904/10/16 17:25:31  5-MIN K0J4 102225Z AUTO 15008KT 10SM CLR 23/02 A3020 60 24 1100 150/08 RMK AO2 $
63870K0J4 0J420160410173009904/10/16 17:30:31  5-MIN K0J4 102230Z AUTO 15007KT 10SM CLR 23/03 A3020 60 25 1100 150/07 RMK AO2 $
63870K0J4 0J420160410173509904/10/16 17:35:31  5-MIN K0J4 102235Z AUTO 17007KT 10SM CLR 23/02 A3020 60 24 1100 170/07 RMK AO2 $
63870K0J4 0J420160410174009904/10/16 17:40:31  5-MIN K0J4 102240Z AUTO 17008KT 10SM CLR 23/03 A3020 60 25 1100 170/08 RMK AO2 $
63870K0J4 0J420160410174509904/10/16 17:45:31  5-MIN K0J4 102245Z AUTO 20009KT 10SM CLR 23/04 A3020 60 29 1100 200/09 RMK AO2 $
63870K0J4 0J420160410175009904/10/16 17:50:31  5-MIN K0J4 102250Z AUTO 19010KT 10SM CLR 23/05 A3020 60 31 1000 190/10 RMK AO2 $
63870K0J4 0J420160410175511604/10/16 17:55:31  5-MIN K0J4 102255Z AUTO 21011KT 10SM CLR 23/05 A3020 60 31 1000 210/11 RMK AO2 SLP225 T02280050 $
63870K0J4 0J420160410180009804/10/16 18:00:31  5-MIN K0J4 102300Z AUTO 22011KT 10SM CLR 22/05 A3020 50 32 900 220/11 RMK AO2 $
63870K0J4 0J420160410180509804/10/16 18:05:31  5-MIN K0J4 102305Z AUTO 21010KT 10SM CLR 22/04 A3020 50 31 900 210/10 RMK AO2 $
63870K0J4 0J420160410181009804/10/16 18:10:31  5-MIN K0J4 102310Z AUTO 21011KT 10SM CLR 22/05 A3021 50 32 900 210/11 RMK AO2 $
63870K0J4 0J420160410181509804/10/16 18:15:31  5-MIN K0J4 102315Z AUTO 20012KT 10SM CLR 22/04 A3021 50 32 900 200/12 RMK AO2 $
63870K0J4 0J420160410182009804/10/16 18:20:31  5-MIN K0J4 102320Z AUTO 21011KT 10SM CLR 21/04 A3021 50 33 800 210/11 RMK AO2 $
63870K0J4 0J420160410182509804/10/16 18:25:31  5-MIN K0J4 102325Z AUTO 21009KT 10SM CLR 21/05 A3021 50 34 800 210/09 RMK AO2 $
63870K0J4 0J420160410183009804/10/16 18:30:31  5-MIN K0J4 102330Z AUTO 21009KT 10SM CLR 21/05 A3021 50 35 700 210/09 RMK AO2 $
63870K0J4 0J420160410183509804/10/16 18:35:31  5-MIN K0J4 102335Z AUTO 22008KT 10SM CLR 21/06 A3021 40 37 700 220/08 RMK AO2 $
63870K0J4 0J420160410184009804/10/16 18:40:31  5-MIN K0J4 102340Z AUTO 21009KT 10SM CLR 21/05 A3022 40 35 700 210/09 RMK AO2 $
63870K0J4 0J420160410184509804/10/16 18:45:31  5-MIN K0J4 102345Z AUTO 21008KT 10SM CLR 19/06 A3021 50 40 600 210/08 RMK AO2 $
63870K0J4 0J420160410185009804/10/16 18:50:31  5-MIN K0J4 102350Z AUTO 21008KT 10SM CLR 19/05 A3021 50 38 600 210/08 RMK AO2 $
63870K0J4 0J420160410185513304/10/16 18:55:31  5-MIN K0J4 102355Z AUTO 21005KT 10SM CLR 19/06 A3022 40 40 600 210/05 RMK AO2 SLP229 T01940056 10239 20194 56024 $
63870K0J4 0J420160410190009804/10/16 19:00:31  5-MIN K0J4 110000Z AUTO 21007KT 10SM CLR 19/06 A3022 40 41 600 210/07 RMK AO2 $
63870K0J4 0J420160410190509804/10/16 19:05:31  5-MIN K0J4 110005Z AUTO 20008KT 10SM CLR 18/06 A3021 50 42 500 200/08 RMK AO2 $
63870K0J4 0J420160410191009804/10/16 19:10:31  5-MIN K0J4 110010Z AUTO 20008KT 10SM CLR 19/05 A3021 50 38 600 200/08 RMK AO2 $
63870K0J4 0J420160410191509804/10/16 19:15:31  5-MIN K0J4 110015Z AUTO 19005KT 10SM CLR 19/05 A3021 50 39 600 190/05 RMK AO2 $
63870K0J4 0J420160410192009804/10/16 19:20:31  5-MIN K0J4 110020Z AUTO 18004KT 10SM CLR 18/06 A3021 50 42 500 180/04 RMK AO2 $
63870K0J4 0J420160410192509804/10/16 19:25:31  5-MIN K0J4 110025Z AUTO 18005KT 10SM CLR 18/06 A3021 50 44 400 180/05 RMK AO2 $
63870K0J4 0J420160410193009804/10/16 19:30:31  5-MIN K0J4 110030Z AUTO 19004KT 10SM CLR 18/06 A3021 50 44 400 190/04 RMK AO2 $
63870K0J4 0J420160410193509804/10/16 19:35:31  5-MIN K0J4 110035Z AUTO 19003KT 10SM CLR 18/06 A3021 50 46 400 190/03 RMK AO2 $
63870K0J4 0J420160410194009804/10/16 19:40:31  5-MIN K0J4 110040Z AUTO 19003KT 10SM CLR 17/06 A3021 50 47 400 190/03 RMK AO2 $
63870K0J4 0J420160410194509804/10/16 19:45:31  5-MIN K0J4 110045Z AUTO 18003KT 10SM CLR 17/06 A3021 50 49 300 180/03 RMK AO2 $
63870K0J4 0J420160410195009804/10/16 19:50:31  5-MIN K0J4 110050Z AUTO 19003KT 10SM CLR 17/06 A3021 50 49 300 190/03 RMK AO2 $
63870K0J4 0J420160410195511504/10/16 19:55:31  5-MIN K0J4 110055Z AUTO 00000KT 10SM CLR 16/07 A3021 50 53 200 000/00 RMK AO2 SLP228 T01610067 $
63870K0J4 0J420160410200009804/10/16 20:00:31  5-MIN K0J4 110100Z AUTO 19003KT 10SM CLR 16/06 A3021 50 51 200 190/03 RMK AO2 $
63870K0J4 0J420160410200509804/10/16 20:05:31  5-MIN K0J4 110105Z AUTO 19003KT 10SM CLR 16/07 A3021 50 53 200 190/03 RMK AO2 $
63870K0J4 0J420160410201009804/10/16 20:10:31  5-MIN K0J4 110110Z AUTO 20004KT 10SM CLR 16/07 A3021 50 53 200 200/04 RMK AO2 $
63870K0J4 0J420160410201509804/10/16 20:15:31  5-MIN K0J4 110115Z AUTO 18005KT 10SM CLR 16/07 A3021 50 53 200 180/05 RMK AO2 $
63870K0J4 0J420160410202009804/10/16 20:20:31  5-MIN K0J4 110120Z AUTO 19005KT 10SM CLR 16/07 A3022 40 53 200 190/05 RMK AO2 $
63870K0J4 0J420160410202509804/10/16 20:25:31  5-MIN K0J4 110125Z AUTO 19004KT 10SM CLR 16/07 A3022 40 57 200 190/04 RMK AO2 $
63870K0J4 0J420160410203009804/10/16 20:30:31  5-MIN K0J4 110130Z AUTO 19004KT 10SM CLR 16/07 A3022 40 57 200 190/04 RMK AO2 $
63870K0J4 0J420160410203509804/10/16 20:35:31  5-MIN K0J4 110135Z AUTO 20005KT 10SM CLR 16/07 A3022 40 57 200 200/05 RMK AO2 $
63870K0J4 0J420160410204009804/10/16 20:40:31  5-MIN K0J4 110140Z AUTO 19005KT 10SM CLR 16/08 A3023 30 59 100 190/05 RMK AO2 $
63870K0J4 0J420160410204509804/10/16 20:45:31  5-MIN K0J4 110145Z AUTO 19003KT 10SM CLR 16/08 A3023 30 62 100 190/03 RMK AO2 $
63870K0J4 0J420160410205009804/10/16 20:50:31  5-MIN K0J4 110150Z AUTO 18004KT 10SM CLR 15/08 A3022 40 64 100 180/04 RMK AO2 $
63870K0J4 0J420160410205511504/10/16 20:55:31  5-MIN K0J4 110155Z AUTO 18003KT 10SM CLR 15/08 A3022 40 64 100 180/03 RMK AO2 SLP233 T01500083 $
63870K0J4 0J420160410210009604/10/16 21:00:31  5-MIN K0J4 110200Z AUTO 19003KT 10SM CLR 14/08 A3023 30 66 0 190/03 RMK AO2 $
63870K0J4 0J420160410210509804/10/16 21:05:31  5-MIN K0J4 110205Z AUTO 18003KT 10SM CLR 15/08 A3023 30 64 100 180/03 RMK AO2 $
63870K0J4 0J420160410211009604/10/16 21:10:31  5-MIN K0J4 110210Z AUTO 00000KT 10SM CLR 14/08 A3023 30 69 0 000/00 RMK AO2 $
63870K0J4 0J420160410211509604/10/16 21:15:31  5-MIN K0J4 110215Z AUTO 00000KT 10SM CLR 14/08 A3023 30 69 0 000/00 RMK AO2 $
63870K0J4 0J420160410212009604/10/16 21:20:31  5-MIN K0J4 110220Z AUTO 00000KT 10SM CLR 14/08 A3023 30 66 0 000/00 RMK AO2 $
63870K0J4 0J420160410212509904/10/16 21:25:31  5-MIN K0J4 110225Z AUTO 00000KT 10SM CLR 13/09 A3023 30 74 -100 000/00 RMK AO2 $
63870K0J4 0J420160410213009904/10/16 21:30:31  5-MIN K0J4 110230Z AUTO 00000KT 10SM CLR 13/09 A3023 30 77 -100 000/00 RMK AO2 $
63870K0J4 0J420160410213509904/10/16 21:35:31  5-MIN K0J4 110235Z AUTO 00000KT 10SM CLR 13/08 A3024 30 74 -100 000/00 RMK AO2 $
63870K0J4 0J420160410214009904/10/16 21:40:31  5-MIN K0J4 110240Z AUTO 00000KT 10SM CLR 12/08 A3024 20 77 -200 000/00 RMK AO2 $
63870K0J4 0J420160410214509904/10/16 21:45:31  5-MIN K0J4 110245Z AUTO 00000KT 10SM CLR 12/09 A3023 30 80 -200 000/00 RMK AO2 $
63870K0J4 0J420160410215009904/10/16 21:50:31  5-MIN K0J4 110250Z AUTO 00000KT 10SM CLR 12/08 A3023 30 77 -200 000/00 RMK AO2 $
63870K0J4 0J420160410215512204/10/16 21:55:31  5-MIN K0J4 110255Z AUTO 00000KT 10SM CLR 12/08 A3023 30 80 -300 000/00 RMK AO2 SLP236 T01170083 53001 $
63870K0J4 0J420160410220009904/10/16 22:00:31  5-MIN K0J4 110300Z AUTO 00000KT 10SM CLR 12/08 A3023 30 80 -300 000/00 RMK AO2 $
63870K0J4 0J420160410220509904/10/16 22:05:31  5-MIN K0J4 110305Z AUTO 00000KT 10SM CLR 12/08 A3023 30 80 -300 000/00 RMK AO2 $
63870K0J4 0J420160410221009904/10/16 22:10:31  5-MIN K0J4 110310Z AUTO 00000KT 10SM CLR 12/08 A3023 30 80 -300 000/00 RMK AO2 $
63870K0J4 0J420160410221509904/10/16 22:15:31  5-MIN K0J4 110315Z AUTO 16003KT 10SM CLR 12/08 A3023 40 80 -300 160/03 RMK AO2 $
63870K0J4 0J420160410222009904/10/16 22:20:31  5-MIN K0J4 110320Z AUTO 00000KT 10SM CLR 12/08 A3023 40 77 -200 000/00 RMK AO2 $
63870K0J4 0J420160410222509904/10/16 22:25:31  5-MIN K0J4 110325Z AUTO 17003KT 10SM CLR 12/08 A3022 40 77 -200 170/03 RMK AO2 $
63870K0J4 0J420160410223009904/10/16 22:30:31  5-MIN K0J4 110330Z AUTO 16003KT 10SM CLR 12/08 A3022 40 80 -300 160/03 RMK AO2 $
63870K0J4 0J420160410223509904/10/16 22:35:31  5-MIN K0J4 110335Z AUTO 00000KT 10SM CLR 12/08 A3022 40 77 -200 000/00 RMK AO2 $
63870K0J4 0J420160410224009904/10/16 22:40:31  5-MIN K0J4 110340Z AUTO 00000KT 10SM CLR 13/08 A3022 40 74 -100 000/00 RMK AO2 $
63870K0J4 0J420160410224509904/10/16 22:45:31  5-MIN K0J4 110345Z AUTO 00000KT 10SM CLR 12/08 A3022 40 77 -200 000/00 RMK AO2 $
63870K0J4 0J420160410225009904/10/16 22:50:31  5-MIN K0J4 110350Z AUTO 00000KT 10SM CLR 12/09 A3022 40 80 -200 000/00 RMK AO2 $
63870K0J4 0J420160410225511604/10/16 22:55:31  5-MIN K0J4 110355Z AUTO 00000KT 10SM CLR 12/08 A3022 40 80 -300 000/00 RMK AO2 SLP231 T01170083 $
63870K0J4 0J420160410230009904/10/16 23:00:31  5-MIN K0J4 110400Z AUTO 00000KT 10SM CLR 11/08 A3022 40 83 -300 000/00 RMK AO2 $
63870K0J4 0J420160410230509904/10/16 23:05:31  5-MIN K0J4 110405Z AUTO 00000KT 10SM CLR 11/08 A3022 40 83 -300 000/00 RMK AO2 $
63870K0J4 0J420160410231009904/10/16 23:10:31  5-MIN K0J4 110410Z AUTO 00000KT 10SM CLR 11/08 A3021 50 83 -400 000/00 RMK AO2 $
63870K0J4 0J420160410231509904/10/16 23:15:31  5-MIN K0J4 110415Z AUTO 00000KT 10SM CLR 11/08 A3021 50 80 -300 000/00 RMK AO2 $
63870K0J4 0J420160410232009904/10/16 23:20:31  5-MIN K0J4 110420Z AUTO 00000KT 10SM CLR 11/08 A3021 50 83 -400 000/00 RMK AO2 $
63870K0J4 0J420160410232509904/10/16 23:25:31  5-MIN K0J4 110425Z AUTO 00000KT 10SM CLR 11/08 A3021 50 83 -400 000/00 RMK AO2 $
63870K0J4 0J420160410233009904/10/16 23:30:31  5-MIN K0J4 110430Z AUTO 00000KT 10SM CLR 11/08 A3021 50 83 -400 000/00 RMK AO2 $
63870K0J4 0J420160410233509904/10/16 23:35:31  5-MIN K0J4 110435Z AUTO 16003KT 10SM CLR 10/08 A3021 50 86 -400 160/03 RMK AO2 $
63870K0J4 0J420160410234009904/10/16 23:40:31  5-MIN K0J4 110440Z AUTO 17003KT 10SM CLR 10/08 A3020 50 86 -400 170/03 RMK AO2 $
63870K0J4 0J420160410234509904/10/16 23:45:31  5-MIN K0J4 110445Z AUTO 00000KT 10SM CLR 11/08 A3020 60 83 -400 000/00 RMK AO2 $
63870K0J4 0J420160410235009904/10/16 23:50:31  5-MIN K0J4 110450Z AUTO 00000KT 10SM CLR 11/08 A3020 60 83 -400 000/00 RMK AO2 $
63870K0J4 0J420160410235512604/10/16 23:55:31  5-MIN K0J4 110455Z AUTO 00000KT 10SM CLR 10/08 A3020 60 86 -400 000/00 RMK AO2 SLP224 T01000078 402390089 $
63870K0J4 0J420160411000009904/11/16 00:00:31  5-MIN K0J4 110500Z AUTO 00000KT 10SM CLR 10/08 A3020 60 86 -400 000/00 RMK AO2 $
63870K0J4 0J420160411000509904/11/16 00:05:31  5-MIN K0J4 110505Z AUTO 00000KT 10SM CLR 11/08 A3020 60 83 -400 000/00 RMK AO2 $
63870K0J4 0J420160411001009904/11/16 00:10:31  5-MIN K0J4 110510Z AUTO 00000KT 10SM CLR 11/08 A3020 60 80 -300 000/00 RMK AO2 $
63870K0J4 0J420160411001509904/11/16 00:15:31  5-MIN K0J4 110515Z AUTO 00000KT 10SM CLR 11/08 A3020 50 83 -400 000/00 RMK AO2 $
63870K0J4 0J420160411002009904/11/16 00:20:31  5-MIN K0J4 110520Z AUTO 00000KT 10SM CLR 11/08 A3021 50 83 -400 000/00 RMK AO2 $
63870K0J4 0J420160411002509904/11/16 00:25:31  5-MIN K0J4 110525Z AUTO 00000KT 10SM CLR 10/08 A3020 60 86 -400 000/00 RMK AO2 $
63870K0J4 0J420160411003009904/11/16 00:30:31  5-MIN K0J4 110530Z AUTO 00000KT 10SM CLR 09/07 A3020 60 86 -500 000/00 RMK AO2 $
63870K0J4 0J420160411003509904/11/16 00:35:31  5-MIN K0J4 110535Z AUTO 00000KT 10SM CLR 09/07 A3020 60 86 -500 000/00 RMK AO2 $
63870K0J4 0J420160411004009904/11/16 00:40:31  5-MIN K0J4 110540Z AUTO 00000KT 10SM CLR 10/07 A3020 60 83 -400 000/00 RMK AO2 $
63870K0J4 0J420160411004509904/11/16 00:45:31  5-MIN K0J4 110545Z AUTO 00000KT 10SM CLR 11/07 A3020 60 80 -400 000/00 RMK AO2 $
63870K0J4 0J420160411005009904/11/16 00:50:31  5-MIN K0J4 110550Z AUTO 00000KT 10SM CLR 11/08 A3020 60 83 -400 000/00 RMK AO2 $
63870K0J4 0J420160411005513404/11/16 00:55:31  5-MIN K0J4 110555Z AUTO 00000KT 10SM CLR 09/07 A3020 60 86 -500 000/00 RMK AO2 SLP225 T00940072 10194 20094 53005 $
63870K0J4 0J420160411010009904/11/16 01:00:31  5-MIN K0J4 110600Z AUTO 00000KT 10SM CLR 10/07 A3020 60 83 -400 000/00 RMK AO2 $
63870K0J4 0J420160411010509904/11/16 01:05:31  5-MIN K0J4 110605Z AUTO 00000KT 10SM CLR 09/07 A3020 60 86 -500 000/00 RMK AO2 $
63870K0J4 0J420160411011009904/11/16 01:10:31  5-MIN K0J4 110610Z AUTO 00000KT 10SM CLR 09/07 A3020 60 86 -500 000/00 RMK AO2 $
63870K0J4 0J420160411011509904/11/16 01:15:31  5-MIN K0J4 110615Z AUTO 00000KT 10SM CLR 09/07 A3020 60 89 -600 000/00 RMK AO2 $
63870K0J4 0J420160411012009904/11/16 01:20:31  5-MIN K0J4 110620Z AUTO 00000KT 10SM CLR 09/07 A3020 60 89 -600 000/00 RMK AO2 $
63870K0J4 0J420160411012509904/11/16 01:25:31  5-MIN K0J4 110625Z AUTO 00000KT 10SM CLR 09/07 A3020 60 86 -500 000/00 RMK AO2 $
63870K0J4 0J420160411013009904/11/16 01:30:31  5-MIN K0J4 110630Z AUTO 00000KT 10SM CLR 09/07 A3019 60 89 -600 000/00 RMK AO2 $
63870K0J4 0J420160411013509904/11/16 01:35:31  5-MIN K0J4 110635Z AUTO 00000KT 10SM CLR 09/07 A3019 60 89 -600 000/00 RMK AO2 $
63870K0J4 0J420160411014009904/11/16 01:40:31  5-MIN K0J4 110640Z AUTO 00000KT 10SM CLR 09/07 A3019 70 89 -600 000/00 RMK AO2 $
63870K0J4 0J420160411014509904/11/16 01:45:31  5-MIN K0J4 110645Z AUTO 00000KT 10SM CLR 09/07 A3019 70 86 -600 000/00 RMK AO2 $
63870K0J4 0J420160411015009904/11/16 01:50:31  5-MIN K0J4 110650Z AUTO 00000KT 10SM CLR 09/07 A3019 70 86 -600 000/00 RMK AO2 $
63870K0J4 0J420160411015511604/11/16 01:55:31  5-MIN K0J4 110655Z AUTO 00000KT 10SM CLR 09/07 A3018 80 86 -600 000/00 RMK AO2 SLP218 T00890067 $
63870K0J4 0J420160411020009904/11/16 02:00:31  5-MIN K0J4 110700Z AUTO 00000KT 10SM CLR 09/07 A3018 80 86 -500 000/00 RMK AO2 $
63870K0J4 0J420160411020509904/11/16 02:05:31  5-MIN K0J4 110705Z AUTO 00000KT 10SM CLR 09/07 A3017 80 89 -500 000/00 RMK AO2 $
63870K0J4 0J420160411021009904/11/16 02:10:31  5-MIN K0J4 110710Z AUTO 00000KT 10SM CLR 09/07 A3017 80 89 -500 000/00 RMK AO2 $
63870K0J4 0J420160411021509904/11/16 02:15:31  5-MIN K0J4 110715Z AUTO 00000KT 10SM CLR 08/07 A3017 80 93 -600 000/00 RMK AO2 $
63870K0J4 0J420160411022009904/11/16 02:20:31  5-MIN K0J4 110720Z AUTO 00000KT 10SM CLR 09/07 A3017 90 86 -500 000/00 RMK AO2 $
63870K0J4 0J420160411022509904/11/16 02:25:31  5-MIN K0J4 110725Z AUTO 00000KT 10SM CLR 09/07 A3017 90 86 -500 000/00 RMK AO2 $
63870K0J4 0J420160411023009904/11/16 02:30:31  5-MIN K0J4 110730Z AUTO 00000KT 10SM CLR 09/07 A3017 80 86 -500 000/00 RMK AO2 $
63870K0J4 0J420160411023509904/11/16 02:35:31  5-MIN K0J4 110735Z AUTO 00000KT 10SM CLR 08/07 A3017 90 89 -600 000/00 RMK AO2 $
63870K0J4 0J420160411024009904/11/16 02:40:31  5-MIN K0J4 110740Z AUTO 00000KT 10SM CLR 08/07 A3017 90 89 -600 000/00 RMK AO2 $
63870K0J4 0J420160411024509904/11/16 02:45:31  5-MIN K0J4 110745Z AUTO 00000KT 10SM CLR 08/07 A3017 90 89 -600 000/00 RMK AO2 $
63870K0J4 0J420160411025009904/11/16 02:50:31  5-MIN K0J4 110750Z AUTO 00000KT 10SM CLR 09/07 A3017 90 86 -500 000/00 RMK AO2 $
63870K0J4 0J420160411025511604/11/16 02:55:31  5-MIN K0J4 110755Z AUTO 00000KT 10SM CLR 09/07 A3017 90 86 -500 000/00 RMK AO2 SLP212 T00940072 $
63870K0J4 0J420160411030010904/11/16 03:00:31  5-MIN K0J4 110800Z AUTO 00000KT 10SM -RA CLR 09/07 A3016 90 86 -500 000/00 RMK AO2 P0000 $
63870K0J4 0J420160411030510904/11/16 03:05:31  5-MIN K0J4 110805Z AUTO 00000KT 10SM -RA CLR 09/07 A3017 90 86 -500 000/00 RMK AO2 P0000 $
63870K0J4 0J420160411031011104/11/16 03:10:31  5-MIN K0J4 110810Z AUTO 00000KT 10SM CLR 09/07 A3017 90 86 -500 000/00 RMK AO2 RAE08 P0000 $
63870K0J4 0J420160411031510904/11/16 03:15:31  5-MIN K0J4 110815Z AUTO 00000KT 10SM -RA CLR 08/07 A3017 90 89 -600 000/00 RMK AO2 P0000 $
63870K0J4 0J420160411032010904/11/16 03:20:31  5-MIN K0J4 110820Z AUTO 09003KT 10SM -RA CLR 08/07 A3017 90 89 -600 090/03 RMK AO2 P0000 $
63870K0J4 0J420160411032511104/11/16 03:25:31  5-MIN K0J4 110825Z AUTO 00000KT 10SM CLR 09/07 A3017 80 86 -500 000/00 RMK AO2 RAE22 P0000 $
63870K0J4 0J420160411033011104/11/16 03:30:31  5-MIN K0J4 110830Z AUTO 07003KT 10SM CLR 09/08 A3017 80 89 -500 070/03 RMK AO2 RAE22 P0000 $
63870K0J4 0J420160411033511104/11/16 03:35:31  5-MIN K0J4 110835Z AUTO 08003KT 10SM CLR 09/08 A3017 80 89 -500 080/03 RMK AO2 RAE22 P0000 $
63870K0J4 0J420160411034011104/11/16 03:40:31  5-MIN K0J4 110840Z AUTO 07003KT 10SM CLR 09/07 A3017 80 86 -500 070/03 RMK AO2 RAE22 P0000 $
63870K0J4 0J420160411034511104/11/16 03:45:31  5-MIN K0J4 110845Z AUTO 07003KT 10SM CLR 09/07 A3017 80 86 -500 070/03 RMK AO2 RAE22 P0000 $
63870K0J4 0J420160411035011104/11/16 03:50:31  5-MIN K0J4 110850Z AUTO 00000KT 10SM CLR 09/07 A3018 80 86 -500 000/00 RMK AO2 RAE22 P0000 $
63870K0J4 0J420160411035514004/11/16 03:55:31  5-MIN K0J4 110855Z AUTO 00000KT 10SM CLR 09/07 A3018 80 86 -500 000/00 RMK AO2 RAE22 SLP217 P0000 60000 T00940072 55009 $
63870K0J4 0J420160411040009904/11/16 04:00:31  5-MIN K0J4 110900Z AUTO 00000KT 10SM CLR 09/07 A3018 70 86 -500 000/00 RMK AO2 $
63870K0J4 0J420160411040509904/11/16 04:05:31  5-MIN K0J4 110905Z AUTO 00000KT 10SM CLR 09/07 A3019 70 86 -500 000/00 RMK AO2 $
63870K0J4 0J420160411041009904/11/16 04:10:31  5-MIN K0J4 110910Z AUTO 00000KT 10SM CLR 10/07 A3019 70 83 -400 000/00 RMK AO2 $
63870K0J4 0J420160411041509904/11/16 04:15:31  5-MIN K0J4 110915Z AUTO 00000KT 10SM CLR 10/07 A3019 70 83 -400 000/00 RMK AO2 $
63870K0J4 0J420160411042009904/11/16 04:20:31  5-MIN K0J4 110920Z AUTO 00000KT 10SM CLR 10/07 A3019 70 83 -400 000/00 RMK AO2 $
63870K0J4 0J420160411042509904/11/16 04:25:31  5-MIN K0J4 110925Z AUTO 00000KT 10SM CLR 09/07 A3019 70 89 -600 000/00 RMK AO2 $
63870K0J4 0J420160411043009904/11/16 04:30:31  5-MIN K0J4 110930Z AUTO 00000KT 10SM CLR 08/07 A3019 70 93 -600 000/00 RMK AO2 $
63870K0J4 0J420160411043509904/11/16 04:35:31  5-MIN K0J4 110935Z AUTO 00000KT 10SM CLR 09/07 A3019 70 89 -600 000/00 RMK AO2 $
63870K0J4 0J420160411044009904/11/16 04:40:31  5-MIN K0J4 110940Z AUTO 00000KT 10SM CLR 09/07 A3019 60 89 -600 000/00 RMK AO2 $
63870K0J4 0J420160411044509904/11/16 04:45:31  5-MIN K0J4 110945Z AUTO 00000KT 10SM CLR 09/07 A3020 60 89 -600 000/00 RMK AO2 $
63870K0J4 0J420160411045009904/11/16 04:50:31  5-MIN K0J4 110950Z AUTO 00000KT 10SM CLR 08/07 A3020 60 89 -600 000/00 RMK AO2 $
63870K0J4 0J420160411045513204/11/16 04:55:31  5-MIN K0J4 110955Z AUTO 10003KT 10SM -RA CLR 09/07 A3020 60 89 -600 100/03 RMK AO2 RAB54 SLP225 P0000 T00890072 $
63870K0J4 0J420160411050010904/11/16 05:00:31  5-MIN K0J4 111000Z AUTO 00000KT 10SM -RA CLR 09/08 A3020 60 89 -500 000/00 RMK AO2 P0000 $
63870K0J4 0J420160411050510904/11/16 05:05:31  5-MIN K0J4 111005Z AUTO 00000KT 10SM -RA CLR 09/08 A3019 70 89 -500 000/00 RMK AO2 P0000 $
63870K0J4 0J420160411051011104/11/16 05:10:31  5-MIN K0J4 111010Z AUTO 00000KT 10SM CLR 09/08 A3019 60 89 -500 000/00 RMK AO2 RAE09 P0000 $
63870K0J4 0J420160411051511104/11/16 05:15:31  5-MIN K0J4 111015Z AUTO 00000KT 10SM CLR 09/07 A3020 60 86 -500 000/00 RMK AO2 RAE09 P0000 $
63870K0J4 0J420160411052011104/11/16 05:20:31  5-MIN K0J4 111020Z AUTO 00000KT 10SM CLR 09/07 A3020 60 86 -500 000/00 RMK AO2 RAE09 P0000 $
63870K0J4 0J420160411052511104/11/16 05:25:31  5-MIN K0J4 111025Z AUTO VRB03KT 10SM CLR 09/07 A3020 60 86 -500 VRB/03 RMK AO2 RAE09 P0000 $
63870K0J4 0J420160411053011104/11/16 05:30:31  5-MIN K0J4 111030Z AUTO 11003KT 10SM CLR 09/07 A3020 60 86 -500 110/03 RMK AO2 RAE09 P0000 $
63870K0J4 0J420160411053511104/11/16 05:35:31  5-MIN K0J4 111035Z AUTO 00000KT 10SM CLR 09/07 A3020 60 86 -500 000/00 RMK AO2 RAE09 P0000 $
63870K0J4 0J420160411054011104/11/16 05:40:31  5-MIN K0J4 111040Z AUTO 00000KT 10SM CLR 09/07 A3020 60 86 -500 000/00 RMK AO2 RAE09 P0000 $
63870K0J4 0J420160411054511104/11/16 05:45:31  5-MIN K0J4 111045Z AUTO 00000KT 10SM CLR 09/07 A3020 60 86 -500 000/00 RMK AO2 RAE09 P0000 $
63870K0J4 0J420160411055011104/11/16 05:50:31  5-MIN K0J4 111050Z AUTO 00000KT 10SM CLR 09/07 A3020 60 86 -500 000/00 RMK AO2 RAE09 P0000 $
63870K0J4 0J420160411055512804/11/16 05:55:31  5-MIN K0J4 111055Z AUTO 00000KT 10SM CLR 09/07 A3019 60 86 -500 000/00 RMK AO2 RAE09 SLP222 P0000 T00940072 $
63870K0J4 0J420160411060009904/11/16 06:00:31  5-MIN K0J4 111100Z AUTO 00000KT 10SM CLR 09/07 A3019 60 83 -500 000/00 RMK AO2 $
63870K0J4 0J420160411060509904/11/16 06:05:31  5-MIN K0J4 111105Z AUTO 00000KT 10SM CLR 09/07 A3019 60 83 -500 000/00 RMK AO2 $
63870K0J4 0J420160411061009904/11/16 06:10:31  5-MIN K0J4 111110Z AUTO 00000KT 10SM CLR 09/07 A3019 60 83 -500 000/00 RMK AO2 $
63870K0J4 0J420160411061509904/11/16 06:15:31  5-MIN K0J4 111115Z AUTO 00000KT 10SM CLR 10/07 A3019 60 80 -400 000/00 RMK AO2 $
63870K0J4 0J420160411062009904/11/16 06:20:31  5-MIN K0J4 111120Z AUTO 08003KT 10SM CLR 09/07 A3020 60 83 -500 080/03 RMK AO2 $
63870K0J4 0J420160411062509904/11/16 06:25:31  5-MIN K0J4 111125Z AUTO 00000KT 10SM CLR 09/07 A3020 60 83 -500 000/00 RMK AO2 $
63870K0J4 0J420160411063009904/11/16 06:30:31  5-MIN K0J4 111130Z AUTO 00000KT 10SM CLR 09/07 A3020 50 83 -500 000/00 RMK AO2 $
63870K0J4 0J420160411063509904/11/16 06:35:31  5-MIN K0J4 111135Z AUTO 00000KT 10SM CLR 10/07 A3020 50 80 -400 000/00 RMK AO2 $
63870K0J4 0J420160411064009904/11/16 06:40:31  5-MIN K0J4 111140Z AUTO 00000KT 10SM CLR 10/07 A3021 50 80 -400 000/00 RMK AO2 $
63870K0J4 0J420160411064509904/11/16 06:45:31  5-MIN K0J4 111145Z AUTO 00000KT 10SM CLR 10/07 A3021 50 80 -400 000/00 RMK AO2 $
63870K0J4 0J420160411065009904/11/16 06:50:31  5-MIN K0J4 111150Z AUTO 00000KT 10SM CLR 10/07 A3021 50 80 -500 000/00 RMK AO2 $
63870K0J4 0J420160411065514004/11/16 06:55:31  5-MIN K0J4 111155Z AUTO 00000KT 10SM CLR 10/07 A3022 40 80 -500 000/00 RMK AO2 SLP229 60000 T01000067 10100 20083 55007 $
63870K0J4 0J420160411070009904/11/16 07:00:31  5-MIN K0J4 111200Z AUTO 00000KT 10SM CLR 10/07 A3022 40 80 -500 000/00 RMK AO2 $
63870K0J4 0J420160411070509904/11/16 07:05:31  5-MIN K0J4 111205Z AUTO 00000KT 10SM CLR 11/07 A3022 40 80 -400 000/00 RMK AO2 $
63870K0J4 0J420160411071009704/11/16 07:10:31  5-MIN K0J4 111210Z AUTO 00000KT 10SM CLR 11/07 A3022 40 80 -400 000/00 RMK AO2
63870K0J4 0J420160411071509704/11/16 07:15:31  5-MIN K0J4 111215Z AUTO 00000KT 10SM CLR 11/07 A3023 30 77 -300 000/00 RMK AO2
63870K0J4 0J420160411072009704/11/16 07:20:31  5-MIN K0J4 111220Z AUTO 08003KT 10SM CLR 11/07 A3023 30 77 -300 080/03 RMK AO2
63870K0J4 0J420160411072509704/11/16 07:25:31  5-MIN K0J4 111225Z AUTO 08003KT 10SM CLR 12/07 A3023 30 74 -300 080/03 RMK AO2
63870K0J4 0J420160411073009904/11/16 07:30:31  5-MIN K0J4 111230Z AUTO 10003KT 10SM CLR 12/07 A3024 30 74 -300 100/03 RMK AO2 $
63870K0J4 0J420160411073509904/11/16 07:35:31  5-MIN K0J4 111235Z AUTO 00000KT 10SM CLR 12/07 A3024 20 74 -300 000/00 RMK AO2 $
63870K0J4 0J420160411074009904/11/16 07:40:31  5-MIN K0J4 111240Z AUTO 00000KT 10SM CLR 12/07 A3024 20 74 -300 000/00 RMK AO2 $
63870K0J4 0J420160411074509904/11/16 07:45:31  5-MIN K0J4 111245Z AUTO 00000KT 10SM CLR 12/07 A3024 20 71 -200 000/00 RMK AO2 $
63870K0J4 0J420160411075009904/11/16 07:50:31  5-MIN K0J4 111250Z AUTO 10003KT 10SM CLR 12/07 A3024 20 71 -200 100/03 RMK AO2 $
63870K0J4 0J420160411075511604/11/16 07:55:31  5-MIN K0J4 111255Z AUTO 09004KT 10SM CLR 12/07 A3023 30 71 -200 090/04 RMK AO2 SLP236 T01220072 $
63870K0J4 0J420160411080009904/11/16 08:00:31  5-MIN K0J4 111300Z AUTO 09004KT 10SM CLR 13/07 A3023 30 69 -100 090/04 RMK AO2 $
63870K0J4 0J420160411080509904/11/16 08:05:31  5-MIN K0J4 111305Z AUTO 08003KT 10SM CLR 13/07 A3024 30 69 -100 080/03 RMK AO2 $
63870K0J4 0J420160411081009904/11/16 08:10:31  5-MIN K0J4 111310Z AUTO VRB03KT 10SM CLR 13/08 A3024 20 69 -100 VRB/03 RMK AO2 $
63870K0J4 0J420160411081509904/11/16 08:15:31  5-MIN K0J4 111315Z AUTO 00000KT 10SM CLR 13/08 A3024 20 69 -100 000/00 RMK AO2 $
63870K0J4 0J420160411082009604/11/16 08:20:31  5-MIN K0J4 111320Z AUTO 00000KT 10SM CLR 14/08 A3024 20 66 0 000/00 RMK AO2 $
63870K0J4 0J420160411082509604/11/16 08:25:31  5-MIN K0J4 111325Z AUTO 00000KT 10SM CLR 14/08 A3025 20 64 0 000/00 RMK AO2 $
63870K0J4 0J420160411083009604/11/16 08:30:31  5-MIN K0J4 111330Z AUTO 00000KT 10SM CLR 14/08 A3025 10 66 0 000/00 RMK AO2 $
63870K0J4 0J420160411083509804/11/16 08:35:31  5-MIN K0J4 111335Z AUTO 00000KT 10SM CLR 15/08 A3025 10 64 100 000/00 RMK AO2 $
63870K0J4 0J420160411084009804/11/16 08:40:31  5-MIN K0J4 111340Z AUTO 00000KT 10SM CLR 16/09 A3024 20 64 100 000/00 RMK AO2 $
63870K0J4 0J420160411084509804/11/16 08:45:31  5-MIN K0J4 111345Z AUTO 14003KT 10SM CLR 16/08 A3025 20 62 100 140/03 RMK AO2 $
63870K0J4 0J420160411085009804/11/16 08:50:31  5-MIN K0J4 111350Z AUTO 00000KT 10SM CLR 17/09 A3025 20 60 300 000/00 RMK AO2 $
63870K0J4 0J420160411085511504/11/16 08:55:31  5-MIN K0J4 111355Z AUTO 13003KT 10SM CLR 17/09 A3024 20 60 300 130/03 RMK AO2 SLP238 T01670089 $
63870K0J4 0J420160411090009804/11/16 09:00:31  5-MIN K0J4 111400Z AUTO 00000KT 10SM CLR 16/09 A3024 20 62 200 000/00 RMK AO2 $
63870K0J4 0J420160411090509804/11/16 09:05:31  5-MIN K0J4 111405Z AUTO 00000KT 10SM CLR 17/09 A3025 20 62 300 000/00 RMK AO2 $
63870K0J4 0J420160411091009804/11/16 09:10:31  5-MIN K0J4 111410Z AUTO 17004KT 10SM CLR 18/09 A3025 20 58 400 170/04 RMK AO2 $
63870K0J4 0J420160411091509804/11/16 09:15:31  5-MIN K0J4 111415Z AUTO VRB03KT 10SM CLR 18/09 A3024 20 58 400 VRB/03 RMK AO2 $
63870K0J4 0J420160411092009804/11/16 09:20:31  5-MIN K0J4 111420Z AUTO 00000KT 10SM CLR 18/09 A3024 20 56 500 000/00 RMK AO2 $
63870K0J4 0J420160411092509804/11/16 09:25:31  5-MIN K0J4 111425Z AUTO 00000KT 10SM CLR 19/09 A3024 20 54 500 000/00 RMK AO2 $
63870K0J4 0J420160411093009804/11/16 09:30:31  5-MIN K0J4 111430Z AUTO 19005KT 10SM CLR 19/09 A3025 20 54 500 190/05 RMK AO2 $
63870K0J4 0J420160411093508604/11/16 09:35:31  5-MIN K0J4 111435Z AUTO 16004KT M M M 160/04 RMK AO2 PWINO FZRANO $
63870K0J4 0J420160411094509404/11/16 09:45:31  5-MIN K0J4 111445Z AUTO VRB05KT 10SM 20/09 A3024 20 48 600 VRB/05 RMK AO2 $
63870K0J4 0J420160411095009404/11/16 09:50:31  5-MIN K0J4 111450Z AUTO VRB05KT 10SM 20/09 A3024 30 48 700 VRB/05 RMK AO2 $
63870K0J4 0J420160411095511104/11/16 09:55:31  5-MIN K0J4 111455Z AUTO 17005KT 10SM 20/09 A3024 30 48 700 170/05 RMK AO2 SLP236 T02000089 $
63870K0J4 0J420160411100009404/11/16 10:00:31  5-MIN K0J4 111500Z AUTO 16005KT 10SM 21/08 A3024 20 45 700 160/05 RMK AO2 $
63870K0J4 0J420160411100510104/11/16 10:05:31  5-MIN K0J4 111505Z AUTO 16004KT 10SM FEW039 21/09 A3024 30 46 700 160/04 RMK AO2 $
63870K0J4 0J420160411101010104/11/16 10:10:31  5-MIN K0J4 111510Z AUTO 15004KT 10SM FEW039 21/09 A3023 30 47 800 150/04 RMK AO2 $
63870K0J4 0J420160411101510104/11/16 10:15:31  5-MIN K0J4 111515Z AUTO 15006KT 10SM FEW044 21/09 A3024 20 47 800 150/06 RMK AO2 $
63870K0J4 0J420160411102009804/11/16 10:20:31  5-MIN K0J4 111520Z AUTO 17008KT 10SM CLR 22/09 A3024 20 45 800 170/08 RMK AO2 $
63870K0J4 0J420160411102510104/11/16 10:25:31  5-MIN K0J4 111525Z AUTO 17008KT 10SM FEW042 22/08 A3023 30 42 900 170/08 RMK AO2 $
63870K0J4 0J420160411103010104/11/16 10:30:31  5-MIN K0J4 111530Z AUTO 18007KT 10SM FEW042 22/08 A3023 30 40 900 180/07 RMK AO2 $
63870K0J4 0J420160411103510104/11/16 10:35:31  5-MIN K0J4 111535Z AUTO 18004KT 10SM FEW040 22/08 A3023 30 42 900 180/04 RMK AO2 $
63870K0J4 0J420160411104010204/11/16 10:40:31  5-MIN K0J4 111540Z AUTO 14007KT 10SM FEW040 23/09 A3023 30 42 1000 140/07 RMK AO2 $
63870K0J4 0J420160411104510204/11/16 10:45:31  5-MIN K0J4 111545Z AUTO 17008KT 10SM FEW040 23/08 A3023 30 39 1000 170/08 RMK AO2 $
63870K0J4 0J420160411105010004/11/16 10:50:31  5-MIN K0J4 111550Z AUTO 18008KT 10SM FEW040 23/08 A3023 30 37 1000 180/08 RMK AO2
63870K0J4 0J420160411105513304/11/16 10:55:31  5-MIN K0J4 111555Z AUTO 17007KT 130V200 10SM FEW047 23/08 A3023 30 38 1100 170/07 130V200 RMK AO2 SLP233 T02330083
63870K0J4 0J420160411110010004/11/16 11:00:31  5-MIN K0J4 111600Z AUTO 19007KT 10SM FEW047 23/08 A3022 40 37 1000 190/07 RMK AO2
63870K0J4 0J420160411110509704/11/16 11:05:31  5-MIN K0J4 111605Z AUTO 17008KT 10SM CLR 23/08 A3022 40 39 1000 170/08 RMK AO2
63870K0J4 0J420160411111009704/11/16 11:10:31  5-MIN K0J4 111610Z AUTO 18009KT 10SM CLR 23/08 A3022 40 38 1100 180/09 RMK AO2
63870K0J4 0J420160411111509704/11/16 11:15:31  5-MIN K0J4 111615Z AUTO 17010KT 10SM CLR 23/09 A3022 40 39 1100 170/10 RMK AO2
63870K0J4 0J420160411112009704/11/16 11:20:31  5-MIN K0J4 111620Z AUTO 18007KT 10SM CLR 23/09 A3022 40 39 1100 180/07 RMK AO2
63870K0J4 0J420160411112509704/11/16 11:25:31  5-MIN K0J4 111625Z AUTO 19009KT 10SM CLR 24/09 A3022 40 39 1100 190/09 RMK AO2
63870K0J4 0J420160411113009704/11/16 11:30:31  5-MIN K0J4 111630Z AUTO 17007KT 10SM CLR 24/09 A3021 50 38 1200 170/07 RMK AO2
63870K0J4 0J420160411113511604/11/16 11:35:31  5-MIN K0J4 111635Z AUTO 18009KT 150V220 10SM FEW040 24/10 A3021 50 39 1200 180/09 150V220 RMK AO2
63870K0J4 0J420160411114009704/11/16 11:40:31  5-MIN K0J4 111640Z AUTO 19008KT 10SM CLR 24/11 A3020 60 42 1100 190/08 RMK AO2
63870K0J4 0J420160411114509704/11/16 11:45:31  5-MIN K0J4 111645Z AUTO 20008KT 10SM CLR 24/11 A3020 50 42 1200 200/08 RMK AO2
63870K0J4 0J420160411115011504/11/16 11:50:31  5-MIN K0J4 111650Z AUTO 20011KT 160V230 10SM CLR 24/11 A3020 60 44 1100 200/11 160V230 RMK AO2 $
63870K0J4 0J420160411115512204/11/16 11:55:31  5-MIN K0J4 111655Z AUTO 20010G18KT 10SM CLR 24/12 A3019 70 46 1200 200/10G18 RMK AO2 SLP220 T02390117 $
63870K0J4 0J420160411120011204/11/16 12:00:31  5-MIN K0J4 111700Z AUTO 19007G18KT 10SM CLR 24/12 A3018 80 47 1200 190/07G18 RMK AO2 PRESFR $
63870K0J4 0J420160411120511204/11/16 12:05:31  5-MIN K0J4 111705Z AUTO 16010G14KT 10SM CLR 24/13 A3017 90 47 1200 160/10G14 RMK AO2 PRESFR $
63870K0J4 0J420160411121011204/11/16 12:10:31  5-MIN K0J4 111710Z AUTO 17010G16KT 10SM CLR 24/13 A3016 90 49 1200 170/10G16 RMK AO2 PRESFR $
63870K0J4 0J420160411121510504/11/16 12:15:31  5-MIN K0J4 111715Z AUTO 20014G23KT 10SM CLR 24/13 A3016 90 49 1200 200/14G23 RMK AO2 $
63870K0J4 0J420160411122010504/11/16 12:20:31  5-MIN K0J4 111720Z AUTO 17010G23KT 10SM CLR 25/14 A3017 90 49 1300 170/10G23 RMK AO2 $
63870K0J4 0J420160411122510804/11/16 12:25:31  5-MIN K0J4 111725Z AUTO 18013G20KT 10SM FEW044 25/13 A3017 90 48 1300 180/13G20 RMK AO2 $
63870K0J4 0J420160411123010804/11/16 12:30:31  5-MIN K0J4 111730Z AUTO 17012G20KT 10SM FEW044 25/13 A3017 90 48 1300 170/12G20 RMK AO2 $
63870K0J4 0J420160411123510904/11/16 12:35:31  5-MIN K0J4 111735Z AUTO 19015G19KT 10SM FEW044 25/13 A3016 100 48 1300 190/15G19 RMK AO2 $
63870K0J4 0J420160411124010904/11/16 12:40:31  5-MIN K0J4 111740Z AUTO 17010G19KT 10SM FEW044 25/13 A3016 100 48 1300 170/10G19 RMK AO2 $
63870K0J4 0J420160411124510904/11/16 12:45:31  5-MIN K0J4 111745Z AUTO 19013G18KT 10SM FEW044 25/14 A3015 100 49 1300 190/13G18 RMK AO2 $
63870K0J4 0J420160411125010904/11/16 12:50:31  5-MIN K0J4 111750Z AUTO 16013G18KT 10SM FEW044 25/14 A3015 110 49 1300 160/13G18 RMK AO2 $
63870K0J4 0J420160411125513504/11/16 12:55:31  5-MIN K0J4 111755Z AUTO 18015G19KT 10SM CLR 25/14 A3014 110 49 1300 180/15G19 RMK AO2 SLP204 T02500139 10250 20100 $
63870K0J4 0J420160411130010604/11/16 13:00:31  5-MIN K0J4 111800Z AUTO 18014G22KT 10SM CLR 26/13 A3014 110 46 1400 180/14G22 RMK AO2 $
63870K0J4 0J420160411130510604/11/16 13:05:31  5-MIN K0J4 111805Z AUTO 17015G22KT 10SM CLR 26/13 A3014 110 46 1400 170/15G22 RMK AO2 $
63870K0J4 0J420160411131010604/11/16 13:10:31  5-MIN K0J4 111810Z AUTO 17015G22KT 10SM CLR 25/13 A3013 120 48 1300 170/15G22 RMK AO2 $
63870K0J4 0J420160411131510604/11/16 13:15:31  5-MIN K0J4 111815Z AUTO 18011G22KT 10SM CLR 26/14 A3013 130 48 1400 180/11G22 RMK AO2 $
63870K0J4 0J420160411132010704/11/16 13:20:31  5-MIN K0J4 111820Z AUTO 17013KT 10SM CLR 26/14 A3012 130 46 1500 170/13 RMK AO2 PRESFR $
63870K0J4 0J420160411132510604/11/16 13:25:31  5-MIN K0J4 111825Z AUTO 19016G23KT 10SM CLR 26/14 A3011 140 48 1500 190/16G23 RMK AO2 $
63870K0J4 0J420160411133010604/11/16 13:30:31  5-MIN K0J4 111830Z AUTO 19016G23KT 10SM CLR 26/14 A3011 140 49 1400 190/16G23 RMK AO2 $
63870K0J4 0J420160411133510604/11/16 13:35:31  5-MIN K0J4 111835Z AUTO 17016G23KT 10SM CLR 26/14 A3011 150 49 1400 170/16G23 RMK AO2 $
63870K0J4 0J420160411134010604/11/16 13:40:31  5-MIN K0J4 111840Z AUTO 18014G23KT 10SM CLR 26/15 A3011 140 51 1400 180/14G23 RMK AO2 $
63870K0J4 0J420160411134510604/11/16 13:45:31  5-MIN K0J4 111845Z AUTO 18014G23KT 10SM CLR 26/15 A3010 150 50 1500 180/14G23 RMK AO2 $
63870K0J4 0J420160411135010904/11/16 13:50:31  5-MIN K0J4 111850Z AUTO 17014G24KT 10SM FEW040 26/15 A3011 140 51 1400 170/14G24 RMK AO2 $
63870K0J4 0J420160411135512604/11/16 13:55:31  5-MIN K0J4 111855Z AUTO 17013G24KT 10SM SCT040 26/14 A3011 140 49 1400 170/13G24 RMK AO2 SLP193 T02560144 $
63870K0J4 0J420160411140010904/11/16 14:00:31  5-MIN K0J4 111900Z AUTO 17015G22KT 10SM SCT040 26/14 A3011 140 49 1400 170/15G22 RMK AO2 $
63870K0J4 0J420160411140510904/11/16 14:05:31  5-MIN K0J4 111905Z AUTO 17015G22KT 10SM BKN042 25/14 A3011 140 51 1400 170/15G22 RMK AO2 $
63870K0J4 0J420160411141010904/11/16 14:10:31  5-MIN K0J4 111910Z AUTO 18014G24KT 10SM BKN042 25/14 A3011 140 51 1400 180/14G24 RMK AO2 $
63870K0J4 0J420160411141510904/11/16 14:15:31  5-MIN K0J4 111915Z AUTO 19015G24KT 10SM BKN042 25/14 A3011 140 51 1400 190/15G24 RMK AO2 $
63870K0J4 0J420160411142010904/11/16 14:20:31  5-MIN K0J4 111920Z AUTO 20013G24KT 10SM BKN042 26/14 A3011 150 48 1500 200/13G24 RMK AO2 $
63870K0J4 0J420160411142510904/11/16 14:25:31  5-MIN K0J4 111925Z AUTO 18015G23KT 10SM BKN042 26/14 A3011 140 49 1400 180/15G23 RMK AO2 $
63870K0J4 0J420160411143010904/11/16 14:30:31  5-MIN K0J4 111930Z AUTO 18013G23KT 10SM BKN042 25/14 A3011 140 51 1400 180/13G23 RMK AO2 $
63870K0J4 0J420160411143510904/11/16 14:35:31  5-MIN K0J4 111935Z AUTO 19013G20KT 10SM BKN042 26/14 A3010 150 48 1500 190/13G20 RMK AO2 $
63870K0J4 0J420160411144010904/11/16 14:40:31  5-MIN K0J4 111940Z AUTO 18011G20KT 10SM BKN042 25/14 A3010 150 51 1400 180/11G20 RMK AO2 $
63870K0J4 0J420160411144510904/11/16 14:45:31  5-MIN K0J4 111945Z AUTO 19011G18KT 10SM BKN042 25/14 A3010 150 51 1400 190/11G18 RMK AO2 $
63870K0J4 0J420160411145010904/11/16 14:50:31  5-MIN K0J4 111950Z AUTO 19010G19KT 10SM BKN044 25/14 A3010 150 51 1400 190/10G19 RMK AO2 $
63870K0J4 0J420160411145512604/11/16 14:55:31  5-MIN K0J4 111955Z AUTO 20015G20KT 10SM BKN044 25/14 A3010 150 51 1400 200/15G20 RMK AO2 SLP190 T02500144 $
63870K0J4 0J420160411150010904/11/16 15:00:31  5-MIN K0J4 112000Z AUTO 21015G20KT 10SM SCT044 26/14 A3010 150 49 1400 210/15G20 RMK AO2 $
63870K0J4 0J420160411150510904/11/16 15:05:31  5-MIN K0J4 112005Z AUTO 20012G20KT 10SM SCT044 25/14 A3010 150 51 1400 200/12G20 RMK AO2 $
63870K0J4 0J420160411151010904/11/16 15:10:31  5-MIN K0J4 112010Z AUTO 20012G17KT 10SM SCT044 25/14 A3010 150 51 1400 200/12G17 RMK AO2 $
63870K0J4 0J420160411151510904/11/16 15:15:31  5-MIN K0J4 112015Z AUTO 20015G20KT 10SM SCT044 24/14 A3010 150 53 1300 200/15G20 RMK AO2 $
63870K0J4 0J420160411152010904/11/16 15:20:31  5-MIN K0J4 112020Z AUTO 20015G20KT 10SM SCT046 25/14 A3010 150 51 1400 200/15G20 RMK AO2 $
63870K0J4 0J420160411152510304/11/16 15:25:31  5-MIN K0J4 112025Z AUTO 21017KT 10SM FEW048 26/14 A3010 150 49 1400 210/17 RMK AO2 $
63870K0J4 0J420160411153010904/11/16 15:30:31  5-MIN K0J4 112030Z AUTO 20017G23KT 10SM SCT048 24/14 A3010 150 53 1300 200/17G23 RMK AO2 $
63870K0J4 0J420160411153510904/11/16 15:35:31  5-MIN K0J4 112035Z AUTO 20015G23KT 10SM SCT048 25/14 A3009 160 51 1400 200/15G23 RMK AO2 $
63870K0J4 0J420160411154011604/11/16 15:40:31  5-MIN K0J4 112040Z AUTO 20014G20KT 10SM FEW041 SCT050 24/14 A3009 160 53 1300 200/14G20 RMK AO2 $
63870K0J4 0J420160411154511604/11/16 15:45:31  5-MIN K0J4 112045Z AUTO 19013G22KT 10SM FEW041 SCT050 24/14 A3010 150 53 1300 190/13G22 RMK AO2 $
63870K0J4 0J420160411155010904/11/16 15:50:31  5-MIN K0J4 112050Z AUTO 21015G22KT 10SM BKN048 25/14 A3010 150 51 1400 210/15G22 RMK AO2 $
63870K0J4 0J420160411155513904/11/16 15:55:31  5-MIN K0J4 112055Z AUTO 19012G20KT 10SM SCT039 BKN050 25/15 A3010 150 53 1400 190/12G20 RMK AO2 SLP189 T02500150 58033 $
63870K0J4 0J420160411160011604/11/16 16:00:31  5-MIN K0J4 112100Z AUTO 18014G21KT 10SM SCT039 BKN050 25/15 A3010 150 53 1400 180/14G21 RMK AO2 $
63870K0J4 0J420160411160511604/11/16 16:05:31  5-MIN K0J4 112105Z AUTO 20011G21KT 10SM SCT039 BKN050 25/15 A3010 150 53 1400 200/11G21 RMK AO2 $
63870K0J4 0J420160411161011604/11/16 16:10:31  5-MIN K0J4 112110Z AUTO 21017G22KT 10SM SCT039 BKN050 24/14 A3010 150 53 1300 210/17G22 RMK AO2 $
63870K0J4 0J420160411161511604/11/16 16:15:31  5-MIN K0J4 112115Z AUTO 20013G22KT 10SM FEW041 BKN050 24/15 A3010 150 57 1300 200/13G22 RMK AO2 $
63870K0J4 0J420160411162011604/11/16 16:20:31  5-MIN K0J4 112120Z AUTO 20015G21KT 10SM FEW040 BKN050 25/15 A3010 150 53 1400 200/15G21 RMK AO2 $
63870K0J4 0J420160411162511604/11/16 16:25:31  5-MIN K0J4 112125Z AUTO 21014G21KT 10SM FEW040 SCT050 24/14 A3010 150 53 1300 210/14G21 RMK AO2 $
63870K0J4 0J420160411163011604/11/16 16:30:31  5-MIN K0J4 112130Z AUTO 20014G22KT 10SM FEW042 SCT050 24/15 A3010 150 57 1300 200/14G22 RMK AO2 $
63870K0J4 0J420160411163510904/11/16 16:35:31  5-MIN K0J4 112135Z AUTO 19013G22KT 10SM SCT049 24/14 A3010 150 55 1300 190/13G22 RMK AO2 $
63870K0J4 0J420160411164011604/11/16 16:40:31  5-MIN K0J4 112140Z AUTO 20010G22KT 10SM FEW042 SCT049 24/15 A3010 150 57 1300 200/10G22 RMK AO2 $
63870K0J4 0J420160411164511604/11/16 16:45:31  5-MIN K0J4 112145Z AUTO 19010G18KT 10SM SCT047 SCT100 24/15 A3011 150 57 1300 190/10G18 RMK AO2 $
63870K0J4 0J420160411165011604/11/16 16:50:31  5-MIN K0J4 112150Z AUTO 18010G18KT 10SM BKN046 BKN100 24/15 A3010 150 57 1300 180/10G18 RMK AO2 $
63870K0J4 0J420160411165512704/11/16 16:55:31  5-MIN K0J4 112155Z AUTO 20012KT 10SM FEW042 BKN049 23/14 A3010 150 57 1200 200/12 RMK AO2 SLP192 T02330144 $
63870K0J4 0J420160411170012304/11/16 17:00:31  5-MIN K0J4 112200Z AUTO 18009G16KT 10SM SCT043 BKN050 BKN100 23/14 A3011 140 57 1200 180/09G16 RMK AO2 $
63870K0J4 0J420160411170512304/11/16 17:05:31  5-MIN K0J4 112205Z AUTO 18010G17KT 10SM SCT043 BKN050 BKN100 24/14 A3011 140 55 1200 180/10G17 RMK AO2 $
63870K0J4 0J420160411171011704/11/16 17:10:31  5-MIN K0J4 112210Z AUTO 19009KT 10SM SCT041 BKN050 BKN100 24/14 A3011 140 55 1200 190/09 RMK AO2 $
63870K0J4 0J420160411171512304/11/16 17:15:31  5-MIN K0J4 112215Z AUTO 19010G16KT 10SM SCT041 BKN050 BKN110 24/15 A3011 140 57 1200 190/10G16 RMK AO2 $
63870K0J4 0J420160411172012304/11/16 17:20:31  5-MIN K0J4 112220Z AUTO 19012G19KT 10SM FEW041 BKN050 BKN100 24/14 A3011 140 55 1300 190/12G19 RMK AO2 $
63870K0J4 0J420160411172512304/11/16 17:25:31  5-MIN K0J4 112225Z AUTO 19010G19KT 10SM FEW041 SCT050 BKN100 23/14 A3011 140 57 1200 190/10G19 RMK AO2 $
63870K0J4 0J420160411173011004/11/16 17:30:31  5-MIN K0J4 112230Z AUTO 21013KT 10SM FEW041 BKN110 23/14 A3010 150 57 1200 210/13 RMK AO2 $
63870K0J4 0J420160411173511004/11/16 17:35:31  5-MIN K0J4 112235Z AUTO 20012KT 10SM FEW041 BKN100 23/14 A3010 150 57 1200 200/12 RMK AO2 $
63870K0J4 0J420160411174011004/11/16 17:40:31  5-MIN K0J4 112240Z AUTO 19009KT 10SM FEW048 BKN100 23/14 A3011 150 57 1200 190/09 RMK AO2 $
63870K0J4 0J420160411174511004/11/16 17:45:31  5-MIN K0J4 112245Z AUTO 19008KT 10SM SCT048 BKN100 23/15 A3010 150 59 1200 190/08 RMK AO2 $
63870K0J4 0J420160411175011704/11/16 17:50:31  5-MIN K0J4 112250Z AUTO 19009KT 10SM FEW036 SCT048 BKN095 23/15 A3010 150 59 1200 190/09 RMK AO2 $
63870K0J4 0J420160411175513404/11/16 17:55:31  5-MIN K0J4 112255Z AUTO 19010KT 10SM FEW036 BKN048 BKN100 23/15 A3010 150 59 1200 190/10 RMK AO2 SLP189 T02330150 $
63870K0J4 0J420160411180011704/11/16 18:00:31  5-MIN K0J4 112300Z AUTO 19006KT 10SM FEW034 BKN048 BKN100 23/15 A3010 150 61 1100 190/06 RMK AO2 $
63870K0J4 0J420160411180511704/11/16 18:05:31  5-MIN K0J4 112305Z AUTO 18009KT 10SM FEW034 BKN048 BKN100 23/16 A3009 160 63 1100 180/09 RMK AO2 $
63870K0J4 0J420160411181011004/11/16 18:10:31  5-MIN K0J4 112310Z AUTO 20007KT 10SM FEW034 BKN048 23/16 A3009 160 63 1100 200/07 RMK AO2 $
63870K0J4 0J420160411181511004/11/16 18:15:31  5-MIN K0J4 112315Z AUTO 18010KT 10SM SCT034 BKN048 23/16 A3009 160 63 1100 180/10 RMK AO2 $
63870K0J4 0J420160411182011004/11/16 18:20:31  5-MIN K0J4 112320Z AUTO 20012KT 10SM SCT034 OVC048 23/16 A3009 160 63 1100 200/12 RMK AO2 $
63870K0J4 0J420160411182511004/11/16 18:25:31  5-MIN K0J4 112325Z AUTO 18007KT 10SM SCT036 OVC048 23/16 A3008 160 63 1100 180/07 RMK AO2 $
63870K0J4 0J420160411183011004/11/16 18:30:31  5-MIN K0J4 112330Z AUTO 18010KT 10SM FEW034 OVC048 22/16 A3008 170 65 1100 180/10 RMK AO2 $
63870K0J4 0J420160411183511004/11/16 18:35:31  5-MIN K0J4 112335Z AUTO 18008KT 10SM SCT034 OVC048 22/16 A3008 170 65 1100 180/08 RMK AO2 $
63870K0J4 0J420160411184011004/11/16 18:40:31  5-MIN K0J4 112340Z AUTO 18008KT 10SM FEW035 OVC048 22/16 A3008 170 65 1100 180/08 RMK AO2 $
63870K0J4 0J420160411184511604/11/16 18:45:31  5-MIN K0J4 112345Z AUTO 18011G17KT 10SM FEW032 OVC050 22/16 A3008 170 65 1100 180/11G17 RMK AO2 $
63870K0J4 0J420160411185011604/11/16 18:50:31  5-MIN K0J4 112350Z AUTO 19009G17KT 10SM FEW032 OVC050 22/16 A3009 160 65 1100 190/09G17 RMK AO2 $
63870K0J4 0J420160411185515104/11/16 18:55:31  5-MIN K0J4 112355Z AUTO 20008G14KT 10SM FEW042 OVC050 22/16 A3009 160 65 1100 200/08G14 RMK AO2 SLP185 T02220156 10261 20222 56015 $
63870K0J4 0J420160411190011004/11/16 19:00:31  5-MIN K0J4 120000Z AUTO 19008KT 10SM FEW042 OVC050 22/16 A3009 160 70 1000 190/08 RMK AO2 $
63870K0J4 0J420160411190510904/11/16 19:05:31  5-MIN K0J4 120005Z AUTO 19011G16KT 10SM OVC050 22/16 A3009 160 70 1000 190/11G16 RMK AO2 $
63870K0J4 0J420160411191010904/11/16 19:10:31  5-MIN K0J4 120010Z AUTO 19011G16KT 10SM OVC050 22/16 A3008 170 70 1000 190/11G16 RMK AO2 $
63870K0J4 0J420160411191511004/11/16 19:15:31  5-MIN K0J4 120015Z AUTO 19010KT 10SM FEW042 OVC050 22/16 A3009 160 70 1000 190/10 RMK AO2 $
63870K0J4 0J420160411192011004/11/16 19:20:31  5-MIN K0J4 120020Z AUTO 17010KT 10SM SCT042 OVC050 22/16 A3008 160 70 1000 170/10 RMK AO2 $
63870K0J4 0J420160411192510304/11/16 19:25:31  5-MIN K0J4 120025Z AUTO 18008KT 10SM OVC047 21/16 A3008 160 73 1000 180/08 RMK AO2 $
63870K0J4 0J420160411193010304/11/16 19:30:31  5-MIN K0J4 120030Z AUTO 18007KT 10SM OVC047 21/16 A3008 170 70 1000 180/07 RMK AO2 $
63870K0J4 0J420160411193510304/11/16 19:35:31  5-MIN K0J4 120035Z AUTO 19006KT 10SM OVC047 21/16 A3009 160 73 1000 190/06 RMK AO2 $
63870K0J4 0J420160411194010304/11/16 19:40:31  5-MIN K0J4 120040Z AUTO 17006KT 10SM OVC047 21/16 A3008 170 73 1000 170/06 RMK AO2 $
63870K0J4 0J420160411194510204/11/16 19:45:31  5-MIN K0J4 120045Z AUTO 17008KT 10SM OVC047 21/16 A3008 170 75 900 170/08 RMK AO2 $
63870K0J4 0J420160411195010204/11/16 19:50:31  5-MIN K0J4 120050Z AUTO 17008KT 10SM BKN047 21/16 A3008 170 75 900 170/08 RMK AO2 $
63870K0J4 0J420160411195511904/11/16 19:55:31  5-MIN K0J4 120055Z AUTO 18008KT 10SM BKN047 21/16 A3008 170 75 900 180/08 RMK AO2 SLP182 T02060161 $
63870K0J4 0J420160411200010804/11/16 20:00:31  5-MIN K0J4 120100Z AUTO 18009G16KT 10SM BKN047 21/16 A3008 170 75 900 180/09G16 RMK AO2 $
63870K0J4 0J420160411200510804/11/16 20:05:31  5-MIN K0J4 120105Z AUTO 18006G16KT 10SM SCT047 21/16 A3008 170 75 900 180/06G16 RMK AO2 $
63870K0J4 0J420160411201010204/11/16 20:10:31  5-MIN K0J4 120110Z AUTO 18006KT 10SM FEW047 21/16 A3008 170 75 900 180/06 RMK AO2 $
63870K0J4 0J420160411201510204/11/16 20:15:31  5-MIN K0J4 120115Z AUTO 17005KT 10SM FEW047 20/16 A3008 170 78 800 170/05 RMK AO2 $
63870K0J4 0J420160411202010204/11/16 20:20:31  5-MIN K0J4 120120Z AUTO 17006KT 10SM FEW090 20/16 A3007 170 78 800 170/06 RMK AO2 $
63870K0J4 0J420160411202510204/11/16 20:25:31  5-MIN K0J4 120125Z AUTO 18006KT 10SM FEW090 20/16 A3007 180 75 800 180/06 RMK AO2 $
63870K0J4 0J420160411203010204/11/16 20:30:31  5-MIN K0J4 120130Z AUTO 18007KT 10SM FEW090 20/16 A3006 180 75 900 180/07 RMK AO2 $
63870K0J4 0J420160411203510204/11/16 20:35:31  5-MIN K0J4 120135Z AUTO 18007KT 10SM FEW090 20/16 A3006 180 75 900 180/07 RMK AO2 $
63870K0J4 0J420160411204010204/11/16 20:40:31  5-MIN K0J4 120140Z AUTO 18009KT 10SM FEW090 20/16 A3007 180 75 800 180/09 RMK AO2 $
63870K0J4 0J420160411204509904/11/16 20:45:31  5-MIN K0J4 120145Z AUTO 18009KT 10SM CLR 20/16 A3006 180 75 900 180/09 RMK AO2 $
63870K0J4 0J420160411205009904/11/16 20:50:31  5-MIN K0J4 120150Z AUTO 18008KT 10SM CLR 19/16 A3006 180 78 800 180/08 RMK AO2 $
63870K0J4 0J420160411205511604/11/16 20:55:31  5-MIN K0J4 120155Z AUTO 19007KT 10SM CLR 19/16 A3007 180 78 800 190/07 RMK AO2 SLP180 T01940156 $
63870K0J4 0J420160411210009904/11/16 21:00:31  5-MIN K0J4 120200Z AUTO 18007KT 10SM CLR 19/16 A3007 180 78 800 180/07 RMK AO2 $
63870K0J4 0J420160411210509904/11/16 21:05:31  5-MIN K0J4 120205Z AUTO 18006KT 10SM CLR 19/16 A3007 170 78 800 180/06 RMK AO2 $
63870K0J4 0J420160411211009904/11/16 21:10:31  5-MIN K0J4 120210Z AUTO 19006KT 10SM CLR 19/16 A3008 170 78 800 190/06 RMK AO2 $
63870K0J4 0J420160411211509904/11/16 21:15:31  5-MIN K0J4 120215Z AUTO 18009KT 10SM CLR 19/16 A3008 170 78 800 180/09 RMK AO2 $
63870K0J4 0J420160411212009904/11/16 21:20:31  5-MIN K0J4 120220Z AUTO 19009KT 10SM CLR 19/16 A3008 170 78 800 190/09 RMK AO2 $
63870K0J4 0J420160411212509904/11/16 21:25:31  5-MIN K0J4 120225Z AUTO 19008KT 10SM CLR 19/16 A3008 170 78 800 190/08 RMK AO2 $
63870K0J4 0J420160411213009904/11/16 21:30:31  5-MIN K0J4 120230Z AUTO 18007KT 10SM CLR 19/16 A3008 170 78 800 180/07 RMK AO2 $
63870K0J4 0J420160411213509904/11/16 21:35:31  5-MIN K0J4 120235Z AUTO 18006KT 10SM CLR 19/16 A3008 170 81 700 180/06 RMK AO2 $
63870K0J4 0J420160411214009904/11/16 21:40:31  5-MIN K0J4 120240Z AUTO 18008KT 10SM CLR 19/16 A3009 160 81 700 180/08 RMK AO2 $
63870K0J4 0J420160411214510204/11/16 21:45:31  5-MIN K0J4 120245Z AUTO 19007KT 10SM FEW045 19/16 A3009 160 81 700 190/07 RMK AO2 $
63870K0J4 0J420160411215010204/11/16 21:50:31  5-MIN K0J4 120250Z AUTO 18006KT 10SM SCT045 19/16 A3009 160 81 800 180/06 RMK AO2 $
63870K0J4 0J420160411215512504/11/16 21:55:31  5-MIN K0J4 120255Z AUTO 19007KT 10SM BKN045 19/16 A3009 160 81 800 190/07 RMK AO2 SLP187 T01940161 58003 $
63870K0J4 0J420160411220010204/11/16 22:00:31  5-MIN K0J4 120300Z AUTO 18007KT 10SM BKN045 19/16 A3009 160 81 800 180/07 RMK AO2 $
63870K0J4 0J420160411220510204/11/16 22:05:31  5-MIN K0J4 120305Z AUTO 17008KT 10SM BKN047 19/16 A3009 160 84 700 170/08 RMK AO2 $
63870K0J4 0J420160411221010904/11/16 22:10:31  5-MIN K0J4 120310Z AUTO 18007KT 10SM BKN049 BKN090 19/16 A3009 160 84 700 180/07 RMK AO2 $
63870K0J4 0J420160411221510204/11/16 22:15:31  5-MIN K0J4 120315Z AUTO 18010KT 10SM BKN049 19/16 A3008 160 84 700 180/10 RMK AO2 $
63870K0J4 0J420160411222010904/11/16 22:20:31  5-MIN K0J4 120320Z AUTO 18008KT 10SM SCT049 BKN090 19/16 A3008 170 84 700 180/08 RMK AO2 $
63870K0J4 0J420160411222510904/11/16 22:25:31  5-MIN K0J4 120325Z AUTO 17007KT 10SM FEW049 BKN090 19/16 A3008 170 84 700 170/07 RMK AO2 $
63870K0J4 0J420160411223010904/11/16 22:30:31  5-MIN K0J4 120330Z AUTO 18008KT 10SM FEW049 SCT090 19/16 A3008 170 84 700 180/08 RMK AO2 $
63870K0J4 0J420160411223510204/11/16 22:35:31  5-MIN K0J4 120335Z AUTO 16010KT 10SM SCT090 19/16 A3008 170 84 700 160/10 RMK AO2 $
63870K0J4 0J420160411224010204/11/16 22:40:31  5-MIN K0J4 120340Z AUTO 17008KT 10SM BKN095 19/16 A3007 180 84 700 170/08 RMK AO2 $
63870K0J4 0J420160411224510904/11/16 22:45:31  5-MIN K0J4 120345Z AUTO 16010KT 10SM BKN100 19/16 A3006 190 84 700 160/10 RMK AO2 PRESFR $
63870K0J4 0J420160411225010204/11/16 22:50:31  5-MIN K0J4 120350Z AUTO 17008KT 10SM BKN100 19/16 A3006 190 84 700 170/08 RMK AO2 $
63870K0J4 0J420160411225511904/11/16 22:55:31  5-MIN K0J4 120355Z AUTO 17008KT 10SM BKN095 19/16 A3006 180 84 700 170/08 RMK AO2 SLP176 T01890161 $
63870K0J4 0J420160411230010904/11/16 23:00:31  5-MIN K0J4 120400Z AUTO 17009KT 10SM BKN080 OVC100 19/16 A3006 190 84 700 170/09 RMK AO2 $
63870K0J4 0J420160411230511504/11/16 23:05:31  5-MIN K0J4 120405Z AUTO 17008G15KT 10SM BKN080 OVC100 19/16 A3006 180 84 700 170/08G15 RMK AO2 $
63870K0J4 0J420160411231011504/11/16 23:10:31  5-MIN K0J4 120410Z AUTO 18011G17KT 10SM BKN080 OVC100 19/16 A3007 180 84 700 180/11G17 RMK AO2 $
63870K0J4 0J420160411231510804/11/16 23:15:31  5-MIN K0J4 120415Z AUTO 17009G17KT 10SM OVC080 19/16 A3006 190 84 700 170/09G17 RMK AO2 $
63870K0J4 0J420160411232011104/11/16 23:20:31  5-MIN K0J4 120420Z AUTO 17010KT 10SM TS OVC080 19/16 A3005 200 84 700 170/10 RMK AO2 TSB19 $
63870K0J4 0J420160411232511804/11/16 23:25:31  5-MIN K0J4 120425Z AUTO 17011KT 10SM TS BKN080 OVC100 19/16 A3005 200 84 700 170/11 RMK AO2 TSB19 $
63870K0J4 0J420160411233013804/11/16 23:30:31  5-MIN K0J4 120430Z AUTO 17010G18KT 10SM -TSRA BKN080 OVC100 19/17 A3006 190 87 700 170/10G18 RMK AO2 TSB19RAB26 P0000 $
63870K0J4 0J420160411233513804/11/16 23:35:31  5-MIN K0J4 120435Z AUTO 17008G18KT 10SM -TSRA SCT080 OVC100 19/17 A3006 190 87 700 170/08G18 RMK AO2 TSB19RAB26 P0000 $
63870K0J4 0J420160411234013904/11/16 23:40:31  5-MIN K0J4 120440Z AUTO 20006KT 10SM -TSRA SCT080 OVC100 19/17 A3007 170 87 700 200/06 RMK AO2 TSB19RAB26 PRESRR P0000 $
63870K0J4 0J420160411234514504/11/16 23:45:31  5-MIN K0J4 120445Z AUTO VRB04KT 9SM -TSRA FEW055 BKN080 OVC100 19/17 A3009 160 87 700 VRB/04 RMK AO2 TSB19RAB26 PRESRR P0000 $
63870K0J4 0J420160411235014704/11/16 23:50:31  5-MIN K0J4 120450Z AUTO VRB03KT 6SM TSRA BR FEW012 BKN080 OVC100 19/17 A3010 150 87 700 VRB/03 RMK AO2 TSB19RAB26 PRESRR P0001 $
63870K0J4 0J420160411235517504/11/16 23:55:31  5-MIN K0J4 120455Z AUTO VRB03KT 5SM -TSRA BR SCT012 BKN055 OVC100 19/17 A3011 140 90 700 VRB/03 RMK AO2 TSB19RAB26 PRESRR SLP193 P0004 T01890172 402610083 $
63870K0J4 0J420160412000012904/12/16 00:00:31  5-MIN K0J4 120500Z AUTO 00000KT 4SM TSRA BR SCT012 BKN044 OVC100 18/17 A3010 150 93 600 000/00 RMK AO2 P0001 $
63870K0J4 0J420160412000513004/12/16 00:05:31  5-MIN K0J4 120505Z AUTO 12003KT 5SM -TSRA BR BKN012 BKN044 OVC080 18/17 A3009 160 93 600 120/03 RMK AO2 P0001 $
63870K0J4 0J420160412001012804/12/16 00:10:31  5-MIN K0J4 120510Z AUTO 12003KT 10SM -TSRA BKN012 BKN042 OVC055 18/17 A3010 150 93 600 120/03 RMK AO2 P0001 $
63870K0J4 0J420160412001512404/12/16 00:15:31  5-MIN K0J4 120515Z AUTO 00000KT 10SM TS BKN012 OVC042 18/17 A3010 150 93 600 000/00 RMK AO2 RAE15 P0001 $
63870K0J4 0J420160412002012604/12/16 00:20:31  5-MIN K0J4 120520Z AUTO 11004KT 10SM VCTS BKN012 OVC040 18/17 A3009 160 93 600 110/04 RMK AO2 RAE15 P0001 $
63870K0J4 0J420160412002512604/12/16 00:25:31  5-MIN K0J4 120525Z AUTO 12005KT 10SM BKN012 OVC041 18/17 A3008 170 93 600 120/05 RMK AO2 TSE24RAE15 P0001 $
63870K0J4 0J420160412003011904/12/16 00:30:31  5-MIN K0J4 120530Z AUTO 14005KT 10SM OVC014 18/17 A3007 170 93 600 140/05 RMK AO2 TSE24RAE15 P0001 $
63870K0J4 0J420160412003511904/12/16 00:35:31  5-MIN K0J4 120535Z AUTO 14005KT 10SM OVC014 18/17 A3007 180 93 600 140/05 RMK AO2 TSE24RAE15 P0001 $
63870K0J4 0J420160412004013304/12/16 00:40:31  5-MIN K0J4 120540Z AUTO 14006KT 10SM -RA BKN014 OVC049 18/17 A3007 180 93 700 140/06 RMK AO2 TSE24RAE15B36 P0001 $
63870K0J4 0J420160412004513304/12/16 00:45:31  5-MIN K0J4 120545Z AUTO 15005KT 10SM -RA BKN014 OVC042 18/17 A3007 180 93 700 150/05 RMK AO2 TSE24RAE15B36 P0001 $
63870K0J4 0J420160412005013304/12/16 00:50:31  5-MIN K0J4 120550Z AUTO 15006KT 10SM -RA BKN014 OVC040 18/17 A3007 180 93 700 150/06 RMK AO2 TSE24RAE15B36 P0001 $
63870K0J4 0J420160412005517404/12/16 00:55:31  5-MIN K0J4 120555Z AUTO 15006KT 10SM -RA BKN014 OVC040 18/17 A3006 180 93 700 150/06 RMK AO2 TSE24RAE15B36 SLP177 P0001 60006 T01830172 10217 20183 53002 $
63870K0J4 0J420160412010011904/12/16 01:00:31  5-MIN K0J4 120600Z AUTO 15006KT 10SM -RA BKN014 OVC040 18/17 A3006 190 93 700 150/06 RMK AO2 P0000 $
63870K0J4 0J420160412010511904/12/16 01:05:31  5-MIN K0J4 120605Z AUTO 16006KT 10SM -RA SCT014 OVC040 18/17 A3006 180 93 700 160/06 RMK AO2 P0001 $
63870K0J4 0J420160412011011704/12/16 01:10:31  5-MIN K0J4 120610Z AUTO 16006KT 7SM RA SCT014 OVC040 18/17 A3007 180 93 700 160/06 RMK AO2 P0003 $
63870K0J4 0J420160412011512104/12/16 01:15:31  5-MIN K0J4 120615Z AUTO 16005KT 4SM +RA BR SCT014 OVC038 18/17 A3007 180 93 600 160/05 RMK AO2 P0005 $
63870K0J4 0J420160412012012104/12/16 01:20:31  5-MIN K0J4 120620Z AUTO 15006KT 3SM +RA BR SCT014 OVC038 18/17 A3007 180 93 700 150/06 RMK AO2 P0007 $
63870K0J4 0J420160412012512104/12/16 01:25:31  5-MIN K0J4 120625Z AUTO 13005KT 3SM +RA BR SCT014 OVC038 18/17 A3006 190 93 700 130/05 RMK AO2 P0009 $
63870K0J4 0J420160412013012704/12/16 01:30:31  5-MIN K0J4 120630Z AUTO 13005KT 3SM RA BR SCT014 SCT019 OVC038 18/17 A3006 190 93 700 130/05 RMK AO2 P0012 $
63870K0J4 0J420160412013512704/12/16 01:35:31  5-MIN K0J4 120635Z AUTO 14006KT 3SM RA BR FEW009 BKN012 OVC038 18/17 A3005 190 93 700 140/06 RMK AO2 P0013 $
63870K0J4 0J420160412014013204/12/16 01:40:31  5-MIN K0J4 120640Z AUTO 15003KT 2 1/2SM +RA BR SCT009 BKN014 OVC038 18/17 A3005 190 93 700 150/03 RMK AO2 P0018 $
63870K0J4 0J420160412014513104/12/16 01:45:31  5-MIN K0J4 120645Z AUTO VRB05KT 2 1/2SM RA BR SCT009 BKN016 OVC038 18/17 A3005 190 93 700 VRB/05 RMK AO2 P0019 $
63870K0J4 0J420160412015012704/12/16 01:50:31  5-MIN K0J4 120650Z AUTO VRB05KT 4SM RA BR SCT005 BKN010 OVC021 18/17 A3006 190 93 700 VRB/05 RMK AO2 P0020 $
63870K0J4 0J420160412015514004/12/16 01:55:31  5-MIN K0J4 120655Z AUTO 00000KT 4SM -RA BR SCT003 BKN007 OVC017 18/17 A3005 190 93 700 000/00 RMK AO2 CIG 005V010 P0020 $
63870K0J4 0J420160412020013304/12/16 02:00:31  5-MIN K0J4 120700Z AUTO 00000KT 5SM -RA BR BKN003 OVC010 18/18 A3006 190 96 700 000/00 RMK AO2 CIG 002V006 P0000 $
63870K0J4 0J420160412020513004/12/16 02:05:31  5-MIN K0J4 120705Z AUTO 23005KT 8SM -RA BKN005 OVC013 18/18 A3006 190 96 700 230/05 RMK AO2 CIG 002V009 P0000 $
63870K0J4 0J420160412021013504/12/16 02:10:31  5-MIN K0J4 120710Z AUTO 22009G14KT 7SM RA BKN005 OVC008 18/18 A3006 190 96 700 220/09G14 RMK AO2 CIG 002V007 P0001 $
63870K0J4 0J420160412021513604/12/16 02:15:31  5-MIN K0J4 120715Z AUTO 22008G14KT 8SM -RA BKN005 OVC008 19/18 A3006 190 93 700 220/08G14 RMK AO2 CIG 002V007 P0001 $
63870K0J4 0J420160412022012404/12/16 02:20:31  5-MIN K0J4 120720Z AUTO 23004KT 10SM -RA OVC008 19/18 A3006 190 93 700 230/04 RMK AO2 CIG 002V010 P0001 $
63870K0J4 0J420160412022513304/12/16 02:25:31  5-MIN K0J4 120725Z AUTO 24003KT 10SM BKN008 OVC015 18/18 A3006 190 96 700 240/03 RMK AO2 RAE24 CIG 004V012 P0001 $
63870K0J4 0J420160412023013604/12/16 02:30:31  5-MIN K0J4 120730Z AUTO 24003KT 7SM RA BKN006 BKN010 OVC015 18/18 A3006 180 96 700 240/03 RMK AO2 CIG 005V008 P0002 $
63870K0J4 0J420160412023513304/12/16 02:35:31  5-MIN K0J4 120735Z AUTO 00000KT 6SM -RA BR BKN008 OVC015 18/18 A3007 180 96 700 000/00 RMK AO2 CIG 005V012 P0002 $
63870K0J4 0J420160412024013004/12/16 02:40:31  5-MIN K0J4 120740Z AUTO 24003KT 9SM -RA BKN008 OVC015 18/18 A3006 190 96 700 240/03 RMK AO2 CIG 005V011 P0002 $
63870K0J4 0J420160412024513104/12/16 02:45:31  5-MIN K0J4 120745Z AUTO VRB03KT 10SM -RA BKN008 OVC015 18/17 A3006 180 93 700 VRB/03 RMK AO2 CIG 005V011 P0002 $
63870K0J4 0J420160412025013104/12/16 02:50:31  5-MIN K0J4 120750Z AUTO 00000KT 10SM -RA BKN006 OVC015 18/17 A3006 180 93 700 000/00 RMK AO2 CIG 004V009 P0002 $
63870K0J4 0J420160412025514104/12/16 02:55:31  5-MIN K0J4 120755Z AUTO 00000KT 10SM -RA OVC006 18/17 A3006 190 93 700 000/00 RMK AO2 CIG 004V009 SLP175 P0002 T01830172 $
63870K0J4 0J420160412030012404/12/16 03:00:31  5-MIN K0J4 120800Z AUTO 00000KT 10SM -RA OVC006 18/17 A3006 190 93 700 000/00 RMK AO2 CIG 004V009 P0000 $
63870K0J4 0J420160412030512404/12/16 03:05:31  5-MIN K0J4 120805Z AUTO 00000KT 10SM -RA OVC006 18/17 A3005 190 93 700 000/00 RMK AO2 CIG 004V009 P0000 $
63870K0J4 0J420160412031012404/12/16 03:10:31  5-MIN K0J4 120810Z AUTO 00000KT 10SM -RA OVC006 18/17 A3005 190 96 600 000/00 RMK AO2 CIG 004V009 P0000 $
63870K0J4 0J420160412031512604/12/16 03:15:31  5-MIN K0J4 120815Z AUTO 22003KT 10SM -RA BKN006 BKN010 OVC016 18/17 A3006 190 96 600 220/03 RMK AO2 P0000 $
63870K0J4 0J420160412032013304/12/16 03:20:31  5-MIN K0J4 120820Z AUTO 00000KT 5SM -RA BR BKN006 OVC011 18/17 A3007 180 96 600 000/00 RMK AO2 CIG 004V008 P0000 $
63870K0J4 0J420160412032513504/12/16 03:25:31  5-MIN K0J4 120825Z AUTO 24004KT 4SM -RA BR SCT006 BKN011 OVC027 18/17 A3008 170 96 600 240/04 RMK AO2 PRESRR P0000 $
63870K0J4 0J420160412033012804/12/16 03:30:31  5-MIN K0J4 120830Z AUTO VRB03KT 5SM -RA BR SCT006 BKN013 OVC030 18/17 A3007 180 96 600 VRB/03 RMK AO2 P0002 $
63870K0J4 0J420160412033512804/12/16 03:35:31  5-MIN K0J4 120835Z AUTO 00000KT 3SM +RA BR FEW006 BKN028 OVC047 18/17 A3004 200 96 600 000/00 RMK AO2 P0004 $
63870K0J4 0J420160412034012704/12/16 03:40:31  5-MIN K0J4 120840Z AUTO 00000KT 3SM RA BR SCT010 BKN028 OVC070 18/17 A3004 200 96 600 000/00 RMK AO2 P0005 $
63870K0J4 0J420160412034512804/12/16 03:45:31  5-MIN K0J4 120845Z AUTO VRB03KT 6SM -RA BR SCT008 BKN028 OVC046 18/17 A3004 200 93 600 VRB/03 RMK AO2 P0005 $
63870K0J4 0J420160412035012604/12/16 03:50:31  5-MIN K0J4 120850Z AUTO 00000KT 10SM -RA BKN008 BKN030 OVC110 18/17 A3004 200 93 600 000/00 RMK AO2 P0005 $
63870K0J4 0J420160412035515704/12/16 03:55:31  5-MIN K0J4 120855Z AUTO 00000KT 10SM BKN008 BKN046 BKN100 18/17 A3004 200 93 600 000/00 RMK AO2 RAE55 SLP170 P0005 60028 T01780167 58010 $
63870K0J4 0J420160412040011604/12/16 04:00:31  5-MIN K0J4 120900Z AUTO VRB03KT 10SM BKN008 BKN048 BKN090 18/17 A3005 200 93 600 VRB/03 RMK AO2 $
63870K0J4 0J420160412040511604/12/16 04:05:31  5-MIN K0J4 120905Z AUTO 00000KT 10SM BKN008 BKN042 OVC090 17/17 A3005 190 96 500 000/00 RMK AO2 $
63870K0J4 0J420160412041010904/12/16 04:10:31  5-MIN K0J4 120910Z AUTO 00000KT 10SM BKN008 OVC090 17/17 A3005 200 96 500 000/00 RMK AO2 $
63870K0J4 0J420160412041510904/12/16 04:15:31  5-MIN K0J4 120915Z AUTO 00000KT 10SM BKN008 OVC090 17/17 A3004 200 96 500 000/00 RMK AO2 $
63870K0J4 0J420160412042010904/12/16 04:20:31  5-MIN K0J4 120920Z AUTO 00000KT 10SM BKN008 OVC090 17/17 A3005 200 96 500 000/00 RMK AO2 $
63870K0J4 0J420160412042510904/12/16 04:25:31  5-MIN K0J4 120925Z AUTO 00000KT 10SM BKN006 OVC090 17/17 A3005 200 96 500 000/00 RMK AO2 $
63870K0J4 0J420160412043010204/12/16 04:30:31  5-MIN K0J4 120930Z AUTO 00000KT 10SM OVC006 17/17 A3005 190 96 500 000/00 RMK AO2 $
63870K0J4 0J420160412043510204/12/16 04:35:31  5-MIN K0J4 120935Z AUTO 00000KT 10SM OVC006 17/16 A3005 200 93 500 000/00 RMK AO2 $
63870K0J4 0J420160412044010204/12/16 04:40:31  5-MIN K0J4 120940Z AUTO 00000KT 10SM OVC006 17/16 A3006 190 93 500 000/00 RMK AO2 $
63870K0J4 0J420160412044511804/12/16 04:45:31  5-MIN K0J4 120945Z AUTO 00000KT 10SM -RA OVC006 17/16 A3006 180 93 500 000/00 RMK AO2 RAB43 P0000 $
63870K0J4 0J420160412045011804/12/16 04:50:31  5-MIN K0J4 120950Z AUTO VRB03KT 10SM -RA OVC006 17/16 A3006 190 93 500 VRB/03 RMK AO2 RAB43 P0000 $
63870K0J4 0J420160412045513504/12/16 04:55:31  5-MIN K0J4 120955Z AUTO VRB03KT 10SM -RA OVC006 17/16 A3006 190 93 500 VRB/03 RMK AO2 RAB43 SLP176 P0001 T01720161 $
63870K0J4 0J420160412050011104/12/16 05:00:31  5-MIN K0J4 121000Z AUTO 00000KT 9SM -RA OVC006 17/16 A3007 180 96 500 000/00 RMK AO2 P0000 $
63870K0J4 0J420160412050511204/12/16 05:05:31  5-MIN K0J4 121005Z AUTO VRB03KT 10SM -RA OVC006 17/16 A3007 170 96 500 VRB/03 RMK AO2 P0000 $
63870K0J4 0J420160412051011204/12/16 05:10:31  5-MIN K0J4 121010Z AUTO VRB03KT 10SM -RA OVC006 17/16 A3007 170 96 500 VRB/03 RMK AO2 P0000 $
63870K0J4 0J420160412051511204/12/16 05:15:31  5-MIN K0J4 121015Z AUTO VRB04KT 10SM -RA OVC006 17/16 A3008 170 96 400 VRB/04 RMK AO2 P0001 $
63870K0J4 0J420160412052011904/12/16 05:20:31  5-MIN K0J4 121020Z AUTO 29006KT 10SM -RA OVC006 17/16 A3009 160 96 400 290/06 RMK AO2 PRESRR P0001 $
63870K0J4 0J420160412052513004/12/16 05:25:31  5-MIN K0J4 121025Z AUTO VRB03KT 8SM -RA OVC006 17/16 A3011 140 96 400 VRB/03 RMK AO2 CIG 003V006 PRESRR P0001 $
63870K0J4 0J420160412053012004/12/16 05:30:31  5-MIN K0J4 121030Z AUTO VRB06KT 5SM RA BR BKN006 OVC038 17/16 A3007 180 96 500 VRB/06 RMK AO2 P0004 $
63870K0J4 0J420160412053513504/12/16 05:35:31  5-MIN K0J4 121035Z AUTO 01008KT 4SM +RA BR BKN006 BKN041 OVC110 17/16 A3004 200 93 500 010/08 RMK AO2 PRESFR P0005 $
63870K0J4 0J420160412054012804/12/16 05:40:31  5-MIN K0J4 121040Z AUTO VRB03KT 6SM -RA BR BKN004 BKN041 OVC110 17/16 A3005 200 96 500 VRB/03 RMK AO2 P0006 $
63870K0J4 0J420160412054512604/12/16 05:45:31  5-MIN K0J4 121045Z AUTO 00000KT 10SM -RA BKN004 BKN039 OVC110 17/16 A3006 190 96 500 000/00 RMK AO2 P0006 $
63870K0J4 0J420160412055012604/12/16 05:50:31  5-MIN K0J4 121050Z AUTO 00000KT 10SM -RA BKN004 BKN039 OVC095 17/16 A3008 170 96 400 000/00 RMK AO2 P0006 $
63870K0J4 0J420160412055514504/12/16 05:55:31  5-MIN K0J4 121055Z AUTO VRB03KT 10SM BKN004 BKN039 OVC095 17/16 A3008 170 96 400 VRB/03 RMK AO2 RAE52 SLP183 P0006 T01670161 $
63870K0J4 0J420160412060011604/12/16 06:00:31  5-MIN K0J4 121100Z AUTO VRB04KT 10SM BKN004 BKN095 OVC110 17/16 A3008 170 93 400 VRB/04 RMK AO2 $
63870K0J4 0J420160412060510904/12/16 06:05:31  5-MIN K0J4 121105Z AUTO 36008KT 10SM BKN004 OVC095 17/16 A3006 190 93 500 360/08 RMK AO2 $
63870K0J4 0J420160412061010204/12/16 06:10:31  5-MIN K0J4 121110Z AUTO 36006KT 10SM OVC004 17/16 A3006 190 93 500 360/06 RMK AO2 $
63870K0J4 0J420160412061510204/12/16 06:15:31  5-MIN K0J4 121115Z AUTO 35005KT 10SM OVC002 17/16 A3007 180 96 500 350/05 RMK AO2 $
63870K0J4 0J420160412062010204/12/16 06:20:31  5-MIN K0J4 121120Z AUTO 36005KT 10SM OVC002 17/16 A3007 180 96 500 360/05 RMK AO2 $
63870K0J4 0J420160412062510204/12/16 06:25:31  5-MIN K0J4 121125Z AUTO VRB03KT 10SM OVC002 17/16 A3006 180 96 500 VRB/03 RMK AO2 $
63870K0J4 0J420160412063010204/12/16 06:30:31  5-MIN K0J4 121130Z AUTO 00000KT 10SM OVC002 17/16 A3006 180 96 500 000/00 RMK AO2 $
63870K0J4 0J420160412063510204/12/16 06:35:31  5-MIN K0J4 121135Z AUTO 00000KT 10SM OVC002 17/16 A3007 180 96 500 000/00 RMK AO2 $
63870K0J4 0J420160412064010204/12/16 06:40:31  5-MIN K0J4 121140Z AUTO 00000KT 10SM OVC002 17/16 A3008 170 96 400 000/00 RMK AO2 $
63870K0J4 0J420160412064510204/12/16 06:45:31  5-MIN K0J4 121145Z AUTO 00000KT 10SM OVC002 17/16 A3008 170 96 400 000/00 RMK AO2 $
63870K0J4 0J420160412065010204/12/16 06:50:31  5-MIN K0J4 121150Z AUTO 00000KT 10SM OVC002 17/16 A3009 160 96 400 000/00 RMK AO2 $
63870K0J4 0J420160412065514904/12/16 06:55:31  5-MIN K0J4 121155Z AUTO 00000KT 10SM OVC002 17/16 A3008 170 96 400 000/00 RMK AO2 SLP181 60035 70041 T01670161 10189 20167 58006 $
63870K0J4 0J420160412070010104/12/16 07:00:31  5-MIN K0J4 121200Z AUTO 00000KT 9SM OVC002 17/16 A3008 170 96 400 000/00 RMK AO2 $
63870K0J4 0J420160412070510404/12/16 07:05:31  5-MIN K0J4 121205Z AUTO 00000KT 6SM BR OVC002 17/16 A3008 170 96 400 000/00 RMK AO2 $
63870K0J4 0J420160412071010404/12/16 07:10:31  5-MIN K0J4 121210Z AUTO 36003KT 4SM BR OVC002 17/16 A3008 170 96 400 360/03 RMK AO2 $
63870K0J4 0J420160412071510804/12/16 07:15:31  5-MIN K0J4 121215Z AUTO 36004KT 2 1/2SM BR OVC002 17/16 A3008 170 96 400 360/04 RMK AO2 $
63870K0J4 0J420160412072010804/12/16 07:20:31  5-MIN K0J4 121220Z AUTO 00000KT 2 1/2SM BR OVC002 17/16 A3008 170 96 400 000/00 RMK AO2 $
63870K0J4 0J420160412072510204/12/16 07:25:31  5-MIN K0J4 121225Z AUTO 00000KT 2SM BR OVC002 17/16 A3008 170 96 400 000/00 RMK AO2
63870K0J4 0J420160412073010204/12/16 07:30:31  5-MIN K0J4 121230Z AUTO 00000KT 2SM BR OVC002 17/16 A3009 160 96 400 000/00 RMK AO2
63870K0J4 0J420160412073510604/12/16 07:35:31  5-MIN K0J4 121235Z AUTO 19003KT 2 1/2SM BR OVC002 17/16 A3008 170 96 400 190/03 RMK AO2
63870K0J4 0J420160412074010204/12/16 07:40:31  5-MIN K0J4 121240Z AUTO 22005KT 2SM BR OVC002 17/16 A3010 150 96 400 220/05 RMK AO2
63870K0J4 0J420160412074512204/12/16 07:45:31  5-MIN K0J4 121245Z AUTO VRB03KT 1 1/4SM -RA BR OVC002 17/16 A3010 150 96 400 VRB/03 RMK AO2 RAB44 P0000
63870K0J4 0J420160412075011804/12/16 07:50:31  5-MIN K0J4 121250Z AUTO 21006KT 1SM -RA BR OVC002 17/16 A3010 150 96 400 210/06 RMK AO2 RAB44 P0000
63870K0J4 0J420160412075513804/12/16 07:55:31  5-MIN K0J4 121255Z AUTO 20008KT 1SM -RA BR OVC002 17/17 A3010 150 100 400 200/08 RMK AO2 RAB44 SLP189 P0000 T01670167 $
63870K0J4 0J420160412080011604/12/16 08:00:31  5-MIN K0J4 121300Z AUTO VRB05KT 3/4SM -RA BR OVC002 17/17 A3011 150 96 500 VRB/05 RMK AO2 P0000 $
63870K0J4 0J420160412080511804/12/16 08:05:31  5-MIN K0J4 121305Z AUTO 00000KT 3/4SM BR OVC002 17/17 A3011 140 96 500 000/00 RMK AO2 RAE02 P0000 $
63870K0J4 0J420160412081011804/12/16 08:10:31  5-MIN K0J4 121310Z AUTO 24003KT 3/4SM BR OVC002 17/17 A3011 140 96 500 240/03 RMK AO2 RAE02 P0000 $
63870K0J4 0J420160412081511804/12/16 08:15:31  5-MIN K0J4 121315Z AUTO 31003KT 3/4SM BR OVC002 17/17 A3012 140 96 500 310/03 RMK AO2 RAE02 P0000 $
63870K0J4 0J420160412082011704/12/16 08:20:31  5-MIN K0J4 121320Z AUTO VRB03KT 1/2SM FG VV002 17/17 A3011 140 96 500 VRB/03 RMK AO2 RAE02 P0000 $
63870K0J4 0J420160412082511804/12/16 08:25:31  5-MIN K0J4 121325Z AUTO VRB03KT 3/4SM BR OVC001 17/17 A3011 140 96 500 VRB/03 RMK AO2 RAE02 P0000 $
63870K0J4 0J420160412083011804/12/16 08:30:31  5-MIN K0J4 121330Z AUTO VRB03KT 1/2SM FG OVC001 17/17 A3010 150 96 500 VRB/03 RMK AO2 RAE02 P0000 $
63870K0J4 0J420160412083511804/12/16 08:35:31  5-MIN K0J4 121335Z AUTO 22005KT 3/4SM BR OVC001 17/17 A3010 150 96 500 220/05 RMK AO2 RAE02 P0000 $
63870K0J4 0J420160412084013704/12/16 08:40:31  5-MIN K0J4 121340Z AUTO 23004KT 1 1/2SM -RA BR OVC001 17/17 A3011 140 96 500 230/04 RMK AO2 VIS 3/4V5 RAE02B39 P0000 $
63870K0J4 0J420160412084512304/12/16 08:45:31  5-MIN K0J4 121345Z AUTO 22004KT 4SM -RA BR OVC001 17/17 A3011 150 96 500 220/04 RMK AO2 RAE02B39 P0000 $
63870K0J4 0J420160412085012404/12/16 08:50:31  5-MIN K0J4 121350Z AUTO 25003KT 6SM -RA BR OVC001 17/17 A3011 140 100 400 250/03 RMK AO2 RAE02B39 P0001 $
63870K0J4 0J420160412085513704/12/16 08:55:31  5-MIN K0J4 121355Z AUTO VRB04KT 8SM -RA OVC001 17/17 A3011 140 96 500 VRB/04 RMK AO2 RAE02B39 SLP195 P0001 T01720167 $
63870K0J4 0J420160412090011204/12/16 09:00:31  5-MIN K0J4 121400Z AUTO 00000KT 10SM -RA OVC001 17/17 A3011 140 96 500 000/00 RMK AO2 P0000 $
63870K0J4 0J420160412090511204/12/16 09:05:31  5-MIN K0J4 121405Z AUTO 31003KT 10SM -RA OVC001 17/17 A3012 130 96 500 310/03 RMK AO2 P0000 $
63870K0J4 0J420160412091011204/12/16 09:10:31  5-MIN K0J4 121410Z AUTO VRB03KT 10SM -RA OVC001 17/17 A3012 130 96 500 VRB/03 RMK AO2 P0000 $
63870K0J4 0J420160412091511204/12/16 09:15:31  5-MIN K0J4 121415Z AUTO 00000KT 10SM -RA OVC001 17/17 A3013 120 96 500 000/00 RMK AO2 P0000 $
63870K0J4 0J420160412092011204/12/16 09:20:31  5-MIN K0J4 121420Z AUTO 00000KT 10SM -RA OVC001 17/17 A3013 130 96 500 000/00 RMK AO2 P0000 $
63870K0J4 0J420160412092511404/12/16 09:25:31  5-MIN K0J4 121425Z AUTO 34004KT 10SM OVC001 17/17 A3012 130 96 500 340/04 RMK AO2 RAE25 P0000 $
63870K0J4 0J420160412093011404/12/16 09:30:31  5-MIN K0J4 121430Z AUTO VRB03KT 10SM OVC001 18/17 A3012 130 93 500 VRB/03 RMK AO2 RAE25 P0000 $
63870K0J4 0J420160412093511404/12/16 09:35:31  5-MIN K0J4 121435Z AUTO 35004KT 10SM OVC001 18/17 A3012 130 93 500 350/04 RMK AO2 RAE25 P0000 $
63870K0J4 0J420160412094011404/12/16 09:40:31  5-MIN K0J4 121440Z AUTO 35005KT 10SM OVC001 18/17 A3012 140 93 500 350/05 RMK AO2 RAE25 P0000 $
63870K0J4 0J420160412094511404/12/16 09:45:31  5-MIN K0J4 121445Z AUTO 35006KT 10SM OVC001 18/17 A3011 140 96 500 350/06 RMK AO2 RAE25 P0000 $
63870K0J4 0J420160412095012604/12/16 09:50:31  5-MIN K0J4 121450Z AUTO VRB06KT 10SM OVC003 18/17 A3012 130 93 500 VRB/06 RMK AO2 RAE25 CIG 002V006 P0000 $
63870K0J4 0J420160412095515504/12/16 09:55:31  5-MIN K0J4 121455Z AUTO 01007KT 10SM OVC003 18/17 A3012 130 93 500 010/07 RMK AO2 RAE25 CIG 002V006 SLP198 P0000 60001 T01780167 51012 $
63870K0J4 0J420160412100011404/12/16 10:00:31  5-MIN K0J4 121500Z AUTO 01005KT 10SM OVC003 18/17 A3012 130 93 500 010/05 RMK AO2 CIG 002V006 $
63870K0J4 0J420160412100511404/12/16 10:05:31  5-MIN K0J4 121505Z AUTO 00000KT 10SM OVC003 18/16 A3013 120 90 500 000/00 RMK AO2 CIG 002V007 $
63870K0J4 0J420160412101011404/12/16 10:10:31  5-MIN K0J4 121510Z AUTO 01003KT 10SM OVC003 18/17 A3013 130 90 600 010/03 RMK AO2 CIG 002V007 $
63870K0J4 0J420160412101510204/12/16 10:15:31  5-MIN K0J4 121515Z AUTO 34005KT 10SM OVC005 19/17 A3013 120 87 600 340/05 RMK AO2 $
63870K0J4 0J420160412102011404/12/16 10:20:31  5-MIN K0J4 121520Z AUTO 36006KT 10SM OVC005 19/17 A3013 120 87 600 360/06 RMK AO2 CIG 003V008 $
63870K0J4 0J420160412102510904/12/16 10:25:31  5-MIN K0J4 121525Z AUTO VRB06KT 10SM BKN005 OVC009 19/17 A3014 120 87 600 VRB/06 RMK AO2 $
63870K0J4 0J420160412103012104/12/16 10:30:31  5-MIN K0J4 121530Z AUTO VRB05KT 10SM BKN007 OVC013 19/17 A3014 110 87 600 VRB/05 RMK AO2 CIG 004V010 $
63870K0J4 0J420160412103512104/12/16 10:35:31  5-MIN K0J4 121535Z AUTO 01006KT 10SM BKN007 OVC013 19/17 A3014 110 84 700 010/06 RMK AO2 CIG 004V010 $
63870K0J4 0J420160412104012104/12/16 10:40:31  5-MIN K0J4 121540Z AUTO 34007KT 10SM BKN007 OVC013 19/17 A3014 120 84 700 340/07 RMK AO2 CIG 004V010 $
63870K0J4 0J420160412104512104/12/16 10:45:31  5-MIN K0J4 121545Z AUTO 36006KT 10SM BKN007 OVC013 19/17 A3014 120 84 700 360/06 RMK AO2 CIG 005V009 $
63870K0J4 0J420160412105012104/12/16 10:50:31  5-MIN K0J4 121550Z AUTO 01007KT 10SM BKN009 OVC015 20/17 A3014 110 81 800 010/07 RMK AO2 CIG 007V013 $
63870K0J4 0J420160412105513804/12/16 10:55:31  5-MIN K0J4 121555Z AUTO 32003KT 10SM BKN009 OVC015 20/17 A3014 110 81 800 320/03 RMK AO2 CIG 007V013 SLP203 T02000167 $
63870K0J4 0J420160412110010904/12/16 11:00:31  5-MIN K0J4 121600Z AUTO VRB05KT 10SM BKN011 OVC015 19/17 A3014 110 84 700 VRB/05 RMK AO2 $
63870K0J4 0J420160412110510904/12/16 11:05:31  5-MIN K0J4 121605Z AUTO 01008KT 10SM FEW007 OVC012 19/16 A3015 110 84 600 010/08 RMK AO2 $
63870K0J4 0J420160412111010204/12/16 11:10:31  5-MIN K0J4 121610Z AUTO 36005KT 10SM OVC014 19/16 A3015 100 81 700 360/05 RMK AO2 $
63870K0J4 0J420160412111510904/12/16 11:15:31  5-MIN K0J4 121615Z AUTO VRB05KT 10SM BKN014 OVC019 19/16 A3015 100 81 700 VRB/05 RMK AO2 $
63870K0J4 0J420160412112010904/12/16 11:20:31  5-MIN K0J4 121620Z AUTO VRB04KT 10SM SCT011 OVC018 19/17 A3015 100 84 700 VRB/04 RMK AO2 $
63870K0J4 0J420160412112510904/12/16 11:25:31  5-MIN K0J4 121625Z AUTO VRB04KT 10SM SCT011 OVC022 19/17 A3015 100 84 700 VRB/04 RMK AO2 $
63870K0J4 0J420160412113011604/12/16 11:30:31  5-MIN K0J4 121630Z AUTO 33004KT 10SM FEW011 BKN017 OVC022 20/16 A3015 100 78 700 330/04 RMK AO2 $
63870K0J4 0J420160412113510904/12/16 11:35:31  5-MIN K0J4 121635Z AUTO 32004KT 10SM BKN015 OVC022 20/17 A3015 100 81 800 320/04 RMK AO2 $
63870K0J4 0J420160412114010904/12/16 11:40:31  5-MIN K0J4 121640Z AUTO 35005KT 10SM BKN015 OVC022 20/17 A3015 100 81 800 350/05 RMK AO2 $
63870K0J4 0J420160412114511604/12/16 11:45:31  5-MIN K0J4 121645Z AUTO VRB03KT 10SM SCT015 BKN022 OVC030 20/17 A3016 100 81 700 VRB/03 RMK AO2 $
63870K0J4 0J420160412115011604/12/16 11:50:31  5-MIN K0J4 121650Z AUTO VRB04KT 10SM SCT015 BKN022 OVC030 21/17 A3016 100 78 800 VRB/04 RMK AO2 $
63870K0J4 0J420160412115513304/12/16 11:55:31  5-MIN K0J4 121655Z AUTO 36006KT 10SM SCT015 BKN022 OVC030 21/16 A3016 100 75 800 360/06 RMK AO2 SLP208 T02060161 $
63870K0J4 0J420160412120011604/12/16 12:00:31  5-MIN K0J4 121700Z AUTO 02005KT 10SM SCT015 BKN020 OVC027 21/16 A3016 100 75 800 020/05 RMK AO2 $
63870K0J4 0J420160412120511604/12/16 12:05:31  5-MIN K0J4 121705Z AUTO 01007KT 10SM FEW015 BKN027 OVC035 21/17 A3016 100 75 900 010/07 RMK AO2 $
63870K0J4 0J420160412121011604/12/16 12:10:31  5-MIN K0J4 121710Z AUTO VRB04KT 10SM FEW015 BKN023 OVC031 22/17 A3016 100 73 900 VRB/04 RMK AO2 $
63870K0J4 0J420160412121511604/12/16 12:15:31  5-MIN K0J4 121715Z AUTO VRB05KT 10SM FEW015 BKN021 OVC030 21/16 A3015 100 75 800 VRB/05 RMK AO2 $
63870K0J4 0J420160412122011604/12/16 12:20:31  5-MIN K0J4 121720Z AUTO 01006KT 10SM SCT017 BKN024 OVC028 21/16 A3016 100 73 900 010/06 RMK AO2 $
63870K0J4 0J420160412122511604/12/16 12:25:31  5-MIN K0J4 121725Z AUTO 36008KT 10SM FEW017 BKN028 OVC034 21/16 A3015 100 73 900 360/08 RMK AO2 $
63870K0J4 0J420160412123011704/12/16 12:30:31  5-MIN K0J4 121730Z AUTO 01007KT 10SM FEW017 SCT021 BKN030 22/17 A3015 110 73 1000 010/07 RMK AO2 $
63870K0J4 0J420160412123512304/12/16 12:35:31  5-MIN K0J4 121735Z AUTO VRB06G14KT 10SM SCT017 BKN025 BKN032 22/17 A3014 110 70 1000 VRB/06G14 RMK AO2 $
63870K0J4 0J420160412124013904/12/16 12:40:31  5-MIN K0J4 121740Z AUTO 36008G14KT 300V020 10SM FEW017 SCT027 SCT032 22/16 A3014 110 68 1000 360/08G14 300V020 RMK AO2 $
63870K0J4 0J420160412124511704/12/16 12:45:31  5-MIN K0J4 121745Z AUTO 01006KT 10SM FEW019 SCT027 SCT032 22/16 A3014 110 68 1000 010/06 RMK AO2 $
63870K0J4 0J420160412125010904/12/16 12:50:31  5-MIN K0J4 121750Z AUTO 04007G15KT 10SM FEW017 23/16 A3014 110 65 1100 040/07G15 RMK AO2 $
63870K0J4 0J420160412125515004/12/16 12:55:31  5-MIN K0J4 121755Z AUTO 02006G15KT 10SM SCT019 22/16 A3014 110 68 1000 020/06G15 RMK AO2 SLP202 60001 T02220161 10228 20167 51014 $
63870K0J4 0J420160412130011604/12/16 13:00:31  5-MIN K0J4 121800Z AUTO 03009G14KT 10SM SCT019 BKN026 22/17 A3014 110 73 1000 030/09G14 RMK AO2 $
63870K0J4 0J420160412130511004/12/16 13:05:31  5-MIN K0J4 121805Z AUTO 03008KT 10SM BKN021 BKN026 22/16 A3015 110 70 1000 030/08 RMK AO2 $
63870K0J4 0J420160412131010904/12/16 13:10:31  5-MIN K0J4 121810Z AUTO 02009KT 10SM BKN019 BKN024 21/16 A3015 110 73 900 020/09 RMK AO2 $
63870K0J4 0J420160412131510904/12/16 13:15:31  5-MIN K0J4 121815Z AUTO 02007KT 10SM BKN019 OVC026 21/16 A3014 110 73 900 020/07 RMK AO2 $
63870K0J4 0J420160412132010904/12/16 13:20:31  5-MIN K0J4 121820Z AUTO 36008KT 10SM BKN021 OVC026 21/16 A3015 110 73 900 360/08 RMK AO2 $
63870K0J4 0J420160412132511604/12/16 13:25:31  5-MIN K0J4 121825Z AUTO 02007KT 10SM FEW019 BKN024 OVC031 21/16 A3014 110 73 900 020/07 RMK AO2 $
63870K0J4 0J420160412133011704/12/16 13:30:31  5-MIN K0J4 121830Z AUTO 03006KT 10SM FEW019 BKN029 OVC034 22/16 A3014 110 68 1000 030/06 RMK AO2 $
63870K0J4 0J420160412133511704/12/16 13:35:31  5-MIN K0J4 121835Z AUTO 03007KT 10SM SCT021 BKN029 OVC035 22/16 A3014 110 70 1000 030/07 RMK AO2 $
63870K0J4 0J420160412134011704/12/16 13:40:31  5-MIN K0J4 121840Z AUTO VRB04KT 10SM SCT021 BKN029 OVC037 22/16 A3014 110 68 1000 VRB/04 RMK AO2 $
63870K0J4 0J420160412134511704/12/16 13:45:31  5-MIN K0J4 121845Z AUTO 34004KT 10SM FEW021 SCT025 OVC033 22/16 A3014 110 68 1000 340/04 RMK AO2 $
63870K0J4 0J420160412135011704/12/16 13:50:31  5-MIN K0J4 121850Z AUTO 35004KT 10SM FEW023 BKN034 OVC055 22/16 A3014 110 70 1000 350/04 RMK AO2 $
63870K0J4 0J420160412135513404/12/16 13:55:31  5-MIN K0J4 121855Z AUTO VRB03KT 10SM SCT023 BKN031 OVC055 22/16 A3014 110 68 1000 VRB/03 RMK AO2 SLP203 T02170156 $
63870K0J4 0J420160412140011704/12/16 14:00:31  5-MIN K0J4 121900Z AUTO 35005KT 10SM SCT023 BKN031 OVC038 22/16 A3014 110 68 1000 350/05 RMK AO2 $
63870K0J4 0J420160412140511704/12/16 14:05:31  5-MIN K0J4 121905Z AUTO 02006KT 10SM FEW023 BKN033 OVC055 22/16 A3014 120 65 1000 020/06 RMK AO2 $
63870K0J4 0J420160412141011704/12/16 14:10:31  5-MIN K0J4 121910Z AUTO 01005KT 10SM FEW023 BKN033 OVC055 22/16 A3013 120 68 1000 010/05 RMK AO2 $
63870K0J4 0J420160412141511704/12/16 14:15:31  5-MIN K0J4 121915Z AUTO 01005KT 10SM FEW023 BKN035 OVC055 22/16 A3013 120 65 1000 010/05 RMK AO2 $
63870K0J4 0J420160412142011704/12/16 14:20:31  5-MIN K0J4 121920Z AUTO 02006KT 10SM FEW025 BKN033 OVC055 22/16 A3013 120 68 1000 020/06 RMK AO2 $
63870K0J4 0J420160412142511704/12/16 14:25:31  5-MIN K0J4 121925Z AUTO 02008KT 10SM FEW025 BKN033 OVC055 22/16 A3013 120 68 1000 020/08 RMK AO2 $
63870K0J4 0J420160412143011004/12/16 14:30:31  5-MIN K0J4 121930Z AUTO 02005KT 10SM SCT035 OVC055 22/16 A3013 120 70 1000 020/05 RMK AO2 $
63870K0J4 0J420160412143511704/12/16 14:35:31  5-MIN K0J4 121935Z AUTO VRB05KT 10SM FEW025 SCT035 OVC055 22/16 A3013 120 70 1000 VRB/05 RMK AO2 $
63870K0J4 0J420160412144011604/12/16 14:40:31  5-MIN K0J4 121940Z AUTO 36005KT 10SM FEW025 BKN038 OVC055 21/16 A3013 120 70 900 360/05 RMK AO2 $
63870K0J4 0J420160412144511704/12/16 14:45:31  5-MIN K0J4 121945Z AUTO 36006KT 10SM FEW025 BKN038 OVC055 22/16 A3013 130 68 1000 360/06 RMK AO2 $
63870K0J4 0J420160412145011704/12/16 14:50:31  5-MIN K0J4 121950Z AUTO 02005KT 10SM FEW030 SCT038 OVC055 22/16 A3013 130 68 1000 020/05 RMK AO2 $
63870K0J4 0J420160412145513404/12/16 14:55:31  5-MIN K0J4 121955Z AUTO 03007KT 10SM FEW030 SCT040 OVC055 22/16 A3012 130 68 1000 030/07 RMK AO2 SLP197 T02220161 $
63870K0J4 0J420160412150011704/12/16 15:00:31  5-MIN K0J4 122000Z AUTO 36005KT 10SM FEW030 SCT040 OVC055 22/16 A3012 130 68 1000 360/05 RMK AO2 $
63870K0J4 0J420160412150511004/12/16 15:05:31  5-MIN K0J4 122005Z AUTO 01006KT 10SM FEW030 OVC055 22/16 A3012 130 68 1000 010/06 RMK AO2 $
63870K0J4 0J420160412151011004/12/16 15:10:31  5-MIN K0J4 122010Z AUTO VRB03KT 10SM FEW030 OVC060 22/16 A3012 130 68 1000 VRB/03 RMK AO2 $
63870K0J4 0J420160412151511004/12/16 15:15:31  5-MIN K0J4 122015Z AUTO 04006KT 10SM FEW021 OVC060 22/16 A3012 130 68 1000 040/06 RMK AO2 $
63870K0J4 0J420160412152011704/12/16 15:20:31  5-MIN K0J4 122020Z AUTO 03006KT 10SM SCT021 SCT028 OVC060 22/16 A3012 140 70 1000 030/06 RMK AO2 $
63870K0J4 0J420160412152511004/12/16 15:25:31  5-MIN K0J4 122025Z AUTO 04007KT 10SM SCT023 OVC055 22/16 A3011 140 70 1000 040/07 RMK AO2 $
63870K0J4 0J420160412153011004/12/16 15:30:31  5-MIN K0J4 122030Z AUTO 03006KT 10SM BKN023 OVC055 22/16 A3011 140 68 1100 030/06 RMK AO2 $
63870K0J4 0J420160412153511704/12/16 15:35:31  5-MIN K0J4 122035Z AUTO 02004KT 10SM BKN023 BKN031 OVC055 22/16 A3011 140 68 1100 020/04 RMK AO2 $
63870K0J4 0J420160412154011704/12/16 15:40:31  5-MIN K0J4 122040Z AUTO 02009KT 10SM BKN023 BKN031 OVC050 22/16 A3011 140 68 1100 020/09 RMK AO2 $
63870K0J4 0J420160412154511004/12/16 15:45:31  5-MIN K0J4 122045Z AUTO 02008KT 10SM BKN023 OVC031 22/16 A3011 140 70 1000 020/08 RMK AO2 $
63870K0J4 0J420160412155011704/12/16 15:50:31  5-MIN K0J4 122050Z AUTO 03008KT 10SM BKN023 BKN031 OVC050 22/17 A3011 140 70 1100 030/08 RMK AO2 $
63870K0J4 0J420160412155511704/12/16 15:55:31  5-MIN K0J4 122055Z AUTO 03006KT 10SM SCT023 BKN031 OVC055 22/17 A3011 140 70 1100 030/06 RMK AO2 $
63870K0J4 0J420160412160011704/12/16 16:00:31  5-MIN K0J4 122100Z AUTO 02007KT 10SM SCT023 BKN032 OVC055 22/16 A3011 140 68 1100 020/07 RMK AO2 $
63870K0J4 0J420160412160511704/12/16 16:05:31  5-MIN K0J4 122105Z AUTO 04006KT 10SM FEW021 BKN049 OVC055 22/16 A3011 140 68 1100 040/06 RMK AO2 $
63870K0J4 0J420160412161011704/12/16 16:10:31  5-MIN K0J4 122110Z AUTO 04005KT 10SM FEW027 BKN049 OVC055 22/16 A3011 140 70 1000 040/05 RMK AO2 $
63870K0J4 0J420160412161511704/12/16 16:15:31  5-MIN K0J4 122115Z AUTO 04004KT 10SM FEW037 BKN049 OVC055 22/16 A3011 140 68 1100 040/04 RMK AO2 $
63870K0J4 0J420160412162011704/12/16 16:20:31  5-MIN K0J4 122120Z AUTO 04006KT 10SM FEW021 BKN049 OVC055 22/16 A3011 140 68 1100 040/06 RMK AO2 $
63870K0J4 0J420160412162511704/12/16 16:25:31  5-MIN K0J4 122125Z AUTO 04003KT 10SM FEW021 BKN047 OVC055 22/16 A3010 150 70 1000 040/03 RMK AO2 $
63870K0J4 0J420160412163011004/12/16 16:30:31  5-MIN K0J4 122130Z AUTO 00000KT 10SM FEW023 OVC047 22/16 A3010 150 68 1100 000/00 RMK AO2 $
63870K0J4 0J420160412163511004/12/16 16:35:31  5-MIN K0J4 122135Z AUTO 02004KT 10SM FEW023 OVC047 22/16 A3010 150 70 1000 020/04 RMK AO2 $
63870K0J4 0J420160412164011004/12/16 16:40:31  5-MIN K0J4 122140Z AUTO 02003KT 10SM FEW023 OVC047 22/16 A3010 150 70 1000 020/03 RMK AO2 $
63870K0J4 0J420160412164511004/12/16 16:45:31  5-MIN K0J4 122145Z AUTO 02003KT 10SM FEW023 OVC047 22/16 A3010 150 68 1000 020/03 RMK AO2 $
63870K0J4 0J420160412165010304/12/16 16:50:31  5-MIN K0J4 122150Z AUTO 03005KT 10SM OVC045 22/16 A3010 150 70 1000 030/05 RMK AO2 $
63870K0J4 0J420160412165512704/12/16 16:55:31  5-MIN K0J4 122155Z AUTO 02004KT 10SM FEW025 OVC045 22/16 A3010 150 70 1000 020/04 RMK AO2 SLP190 T02170161 $
63870K0J4 0J420160412170011004/12/16 17:00:31  5-MIN K0J4 122200Z AUTO 03004KT 10SM FEW025 OVC045 22/16 A3010 150 68 1000 030/04 RMK AO2 $
63870K0J4 0J420160412170510304/12/16 17:05:31  5-MIN K0J4 122205Z AUTO 03004KT 10SM OVC045 22/16 A3010 150 68 1000 030/04 RMK AO2 $
63870K0J4 0J420160412171010304/12/16 17:10:31  5-MIN K0J4 122210Z AUTO 04003KT 10SM OVC045 22/16 A3010 150 70 1000 040/03 RMK AO2 $
63870K0J4 0J420160412171510304/12/16 17:15:31  5-MIN K0J4 122215Z AUTO 03003KT 10SM OVC045 22/16 A3011 150 70 1000 030/03 RMK AO2 $
63870K0J4 0J420160412172010304/12/16 17:20:31  5-MIN K0J4 122220Z AUTO 00000KT 10SM OVC045 22/16 A3011 150 70 1000 000/00 RMK AO2 $
63870K0J4 0J420160412172510304/12/16 17:25:31  5-MIN K0J4 122225Z AUTO 00000KT 10SM OVC045 22/16 A3011 150 70 1000 000/00 RMK AO2 $
63870K0J4 0J420160412173011004/12/16 17:30:31  5-MIN K0J4 122230Z AUTO 00000KT 10SM BKN047 OVC055 22/16 A3010 150 70 1000 000/00 RMK AO2 $
63870K0J4 0J420160412173511004/12/16 17:35:31  5-MIN K0J4 122235Z AUTO 00000KT 10SM BKN047 OVC060 22/16 A3010 150 70 1000 000/00 RMK AO2 $
63870K0J4 0J420160412174011004/12/16 17:40:31  5-MIN K0J4 122240Z AUTO 00000KT 10SM BKN050 OVC060 22/16 A3010 150 70 1000 000/00 RMK AO2 $
63870K0J4 0J420160412174511004/12/16 17:45:31  5-MIN K0J4 122245Z AUTO 00000KT 10SM BKN050 OVC060 22/17 A3011 150 73 1000 000/00 RMK AO2 $
63870K0J4 0J420160412175011004/12/16 17:50:31  5-MIN K0J4 122250Z AUTO 00000KT 10SM BKN050 OVC060 22/17 A3011 150 73 1000 000/00 RMK AO2 $
63870K0J4 0J420160412175512604/12/16 17:55:31  5-MIN K0J4 122255Z AUTO 00000KT 10SM FEW045 OVC055 21/17 A3010 150 75 900 000/00 RMK AO2 SLP191 T02110167 $
63870K0J4 0J420160412180010904/12/16 18:00:31  5-MIN K0J4 122300Z AUTO 00000KT 10SM FEW045 OVC055 21/17 A3010 150 75 900 000/00 RMK AO2 $
63870K0J4 0J420160412180510904/12/16 18:05:31  5-MIN K0J4 122305Z AUTO 00000KT 10SM FEW045 OVC055 21/17 A3010 150 75 900 000/00 RMK AO2 $
63870K0J4 0J420160412181010904/12/16 18:10:31  5-MIN K0J4 122310Z AUTO 00000KT 10SM FEW045 OVC055 21/17 A3010 150 75 900 000/00 RMK AO2 $
63870K0J4 0J420160412181511604/12/16 18:15:31  5-MIN K0J4 122315Z AUTO 00000KT 10SM FEW043 BKN055 OVC070 21/17 A3011 150 78 900 000/00 RMK AO2 $
63870K0J4 0J420160412182011604/12/16 18:20:31  5-MIN K0J4 122320Z AUTO 00000KT 10SM FEW045 BKN055 OVC070 21/17 A3011 150 81 900 000/00 RMK AO2 $
63870K0J4 0J420160412182511604/12/16 18:25:31  5-MIN K0J4 122325Z AUTO 00000KT 10SM FEW045 SCT055 OVC070 21/17 A3011 150 81 900 000/00 RMK AO2 $
63870K0J4 0J420160412183010904/12/16 18:30:31  5-MIN K0J4 122330Z AUTO 00000KT 10SM FEW045 OVC065 21/17 A3011 140 81 900 000/00 RMK AO2 $
63870K0J4 0J420160412183510904/12/16 18:35:31  5-MIN K0J4 122335Z AUTO 00000KT 10SM FEW045 OVC065 21/17 A3011 140 81 900 000/00 RMK AO2 $
63870K0J4 0J420160412184010904/12/16 18:40:31  5-MIN K0J4 122340Z AUTO 00000KT 10SM BKN060 OVC070 21/17 A3010 150 81 900 000/00 RMK AO2 $
63870K0J4 0J420160412184510904/12/16 18:45:31  5-MIN K0J4 122345Z AUTO 00000KT 10SM SCT060 OVC075 21/17 A3010 150 81 900 000/00 RMK AO2 $
63870K0J4 0J420160412185010904/12/16 18:50:31  5-MIN K0J4 122350Z AUTO 00000KT 10SM SCT060 OVC075 21/18 A3010 150 84 900 000/00 RMK AO2 $
63870K0J4 0J420160412185513704/12/16 18:55:31  5-MIN K0J4 122355Z AUTO 00000KT 10SM OVC070 21/18 A3010 150 84 900 000/00 RMK AO2 SLP192 T02060178 10228 20200 58011 $
63870K0J4 0J420160412190010904/12/16 19:00:31  5-MIN K0J4 130000Z AUTO 00000KT 10SM FEW055 OVC070 20/17 A3011 140 84 800 000/00 RMK AO2 $
63870K0J4 0J420160412190510904/12/16 19:05:31  5-MIN K0J4 130005Z AUTO 00000KT 10SM FEW060 OVC075 20/18 A3011 150 87 800 000/00 RMK AO2 $
63870K0J4 0J420160413120510304/13/16 12:05:31  5-MIN K0J4 131705Z AUTO 09006KT 10SM BKN033 22/16 A3011 140 70 1000 090/06 RMK AO2 $
63870K0J4 0J420160413121010304/13/16 12:10:31  5-MIN K0J4 131710Z AUTO 09005KT 10SM BKN033 22/16 A3011 140 68 1000 090/05 RMK AO2 $
63870K0J4 0J420160413121510304/13/16 12:15:31  5-MIN K0J4 131715Z AUTO 09004KT 10SM SCT033 22/16 A3011 140 70 1000 090/04 RMK AO2 $
63870K0J4 0J420160413122011004/13/16 12:20:31  5-MIN K0J4 131720Z AUTO 10005KT 10SM SCT035 SCT100 22/16 A3011 140 70 1000 100/05 RMK AO2 $
63870K0J4 0J420160413122510304/13/16 12:25:31  5-MIN K0J4 131725Z AUTO 07007KT 10SM FEW035 22/16 A3011 140 70 1000 070/07 RMK AO2 $
63870K0J4 0J420160413123011004/13/16 12:30:31  5-MIN K0J4 131730Z AUTO 08004KT 10SM FEW035 SCT100 22/16 A3011 140 70 1000 080/04 RMK AO2 $
63870K0J4 0J420160413123510904/13/16 12:35:31  5-MIN K0J4 131735Z AUTO 08005KT 10SM FEW070 BKN095 21/16 A3011 140 73 900 080/05 RMK AO2 $
63870K0J4 0J420160413124012504/13/16 12:40:31  5-MIN K0J4 131740Z AUTO 11003KT 10SM -RA FEW070 BKN100 21/16 A3011 140 73 900 110/03 RMK AO2 RAB38 P0000 $
63870K0J4 0J420160413124512504/13/16 12:45:31  5-MIN K0J4 131745Z AUTO 08004KT 10SM -RA FEW070 BKN100 21/17 A3011 140 75 900 080/04 RMK AO2 RAB38 P0000 $
63870K0J4 0J420160413125012504/13/16 12:50:31  5-MIN K0J4 131750Z AUTO 09004KT 10SM -RA FEW070 OVC100 21/17 A3011 140 75 900 090/04 RMK AO2 RAB38 P0000 $
63870K0J4 0J420160413125512804/13/16 12:55:31  5-MIN K0J4 131755Z AUTO 08003KT 1 3/4SM -RA FEW070 OVC100 21/17 A3011 140 78 900 080/03 RMK AO2 RAB38 P0000 $
63870K0J4 0J420160413130011504/13/16 13:00:31  5-MIN K0J4 131800Z AUTO 00000KT 1 3/4SM -RA OVC100 21/17 A3011 140 81 900 000/00 RMK AO2 P0000 $
63870K0J4 0J420160413130511004/13/16 13:05:31  5-MIN K0J4 131805Z AUTO 00000KT 6SM RA OVC095 21/17 A3011 140 81 900 000/00 RMK AO2 P0001 $
63870K0J4 0J420160413131011704/13/16 13:10:31  5-MIN K0J4 131810Z AUTO 00000KT 5SM RA FEW065 OVC090 21/17 A3011 140 81 900 000/00 RMK AO2 P0002 $
63870K0J4 0J420160413131512804/13/16 13:15:31  5-MIN K0J4 131815Z AUTO 00000KT 5SM -RA BR FEW028 SCT060 OVC090 20/18 A3011 140 87 800 000/00 RMK AO2 P0002 $
63870K0J4 0J420160413132012504/13/16 13:20:31  5-MIN K0J4 131820Z AUTO 06003KT 6SM -RA SCT028 BKN070 OVC090 20/17 A3011 140 84 800 060/03 RMK AO2 P0002 $
63870K0J4 0J420160413132512804/13/16 13:25:31  5-MIN K0J4 131825Z AUTO 00000KT 6SM -RA BR SCT028 BKN060 OVC090 20/18 A3011 140 87 800 000/00 RMK AO2 P0003 $
63870K0J4 0J420160413133012504/13/16 13:30:31  5-MIN K0J4 131830Z AUTO 00000KT 7SM -RA FEW028 BKN085 OVC100 20/18 A3011 140 87 800 000/00 RMK AO2 P0003 $
63870K0J4 0J420160413133512504/13/16 13:35:31  5-MIN K0J4 131835Z AUTO 00000KT 7SM -RA FEW028 BKN090 OVC100 20/18 A3011 140 87 800 000/00 RMK AO2 P0004 $
63870K0J4 0J420160413134012704/13/16 13:40:31  5-MIN K0J4 131840Z AUTO 00000KT 6SM RA BR FEW028 SCT055 OVC095 20/18 A3011 140 87 800 000/00 RMK AO2 P0004 $
63870K0J4 0J420160413134512704/13/16 13:45:31  5-MIN K0J4 131845Z AUTO 00000KT 5SM RA BR FEW028 BKN075 OVC095 20/18 A3011 140 87 800 000/00 RMK AO2 P0005 $
63870K0J4 0J420160413135012704/13/16 13:50:31  5-MIN K0J4 131850Z AUTO 00000KT 4SM RA BR FEW032 BKN070 OVC095 19/18 A3011 140 90 700 000/00 RMK AO2 P0006 $
63870K0J4 0J420160413135514404/13/16 13:55:31  5-MIN K0J4 131855Z AUTO 00000KT 4SM RA BR SCT030 BKN065 OVC095 20/18 A3011 140 87 800 000/00 RMK AO2 SLP193 P0007 T02000178 $
63870K0J4 0J420160413140012804/13/16 14:00:31  5-MIN K0J4 131900Z AUTO 00000KT 4SM -RA BR BKN030 BKN041 OVC095 20/18 A3011 140 87 800 000/00 RMK AO2 P0000 $
63870K0J4 0J420160413140512704/13/16 14:05:31  5-MIN K0J4 131905Z AUTO 00000KT 3SM RA BR BKN030 BKN039 OVC070 19/18 A3011 140 90 700 000/00 RMK AO2 P0001 $
63870K0J4 0J420160413141013204/13/16 14:10:31  5-MIN K0J4 131910Z AUTO 00000KT 1 1/2SM +RA BR SCT024 BKN029 OVC075 19/18 A3011 140 93 700 000/00 RMK AO2 P0004 $
63870K0J4 0J420160413141513204/13/16 14:15:31  5-MIN K0J4 131915Z AUTO 23003KT 1 1/4SM +RA BR BKN022 BKN029 OVC034 19/18 A3011 140 93 700 230/03 RMK AO2 P0006 $
63870K0J4 0J420160413142012504/13/16 14:20:31  5-MIN K0J4 131920Z AUTO 21004KT 1 1/4SM +RA BR BKN022 OVC030 19/18 A3011 140 97 700 210/04 RMK AO2 P0010 $
63870K0J4 0J420160413142512504/13/16 14:25:31  5-MIN K0J4 131925Z AUTO 21004KT 1 1/2SM +RA BR BKN022 OVC030 19/18 A3011 140 93 700 210/04 RMK AO2 P0012 $
63870K0J4 0J420160413143013004/13/16 14:30:31  5-MIN K0J4 131930Z AUTO 19004KT 3/4SM +RA BR SCT018 BKN023 OVC036 19/18 A3011 140 93 700 190/04 RMK AO2 P0024 $
63870K0J4 0J420160413143513004/13/16 14:35:31  5-MIN K0J4 131935Z AUTO 00000KT 3/4SM +RA BR SCT019 BKN025 OVC036 18/18 A3010 150 96 600 000/00 RMK AO2 P0030 $
63870K0J4 0J420160413144012804/13/16 14:40:31  5-MIN K0J4 131940Z AUTO 00000KT 1SM +RA BR SCT019 BKN034 OVC095 19/18 A3009 160 93 700 000/00 RMK AO2 P0032 $
63870K0J4 0J420160413144513104/13/16 14:45:31  5-MIN K0J4 131945Z AUTO 00000KT 2 1/2SM RA BR SCT021 BKN034 OVC095 19/18 A3009 160 93 700 000/00 RMK AO2 P0032 $
63870K0J4 0J420160413145012804/13/16 14:50:31  5-MIN K0J4 131950Z AUTO 00000KT 5SM -RA BR FEW017 BKN070 OVC100 19/18 A3009 160 93 700 000/00 RMK AO2 P0033 $
63870K0J4 0J420160413145512804/13/16 14:55:31  5-MIN K0J4 131955Z AUTO 00000KT 6SM -RA BR FEW006 BKN070 OVC095 19/18 A3009 160 93 700 000/00 RMK AO2 P0033 $
63870K0J4 0J420160413150012804/13/16 15:00:31  5-MIN K0J4 132000Z AUTO 00000KT 6SM -RA BR FEW003 SCT041 OVC095 19/18 A3009 160 93 700 000/00 RMK AO2 P0000 $
63870K0J4 0J420160413150512004/13/16 15:05:31  5-MIN K0J4 132005Z AUTO 00000KT 5SM RA BR FEW003 OVC090 19/18 A3009 160 93 700 000/00 RMK AO2 P0001 $
63870K0J4 0J420160413151012704/13/16 15:10:31  5-MIN K0J4 132010Z AUTO 00000KT 4SM RA BR FEW003 SCT065 OVC090 19/18 A3009 160 93 700 000/00 RMK AO2 P0002 $
63870K0J4 0J420160413151512804/13/16 15:15:31  5-MIN K0J4 132015Z AUTO 00000KT 4SM -RA BR FEW003 BKN080 OVC095 19/18 A3009 160 93 700 000/00 RMK AO2 P0003 $
63870K0J4 0J420160413152012804/13/16 15:20:31  5-MIN K0J4 132020Z AUTO 00000KT 5SM -RA BR FEW003 BKN070 OVC090 19/18 A3009 160 93 700 000/00 RMK AO2 P0003 $
63870K0J4 0J420160413152513104/13/16 15:25:31  5-MIN K0J4 132025Z AUTO 00000KT 2 1/2SM RA BR FEW030 BKN070 OVC090 19/18 A3009 160 93 700 000/00 RMK AO2 P0005 $
63870K0J4 0J420160413153013204/13/16 15:30:31  5-MIN K0J4 132030Z AUTO 00000KT 1 1/4SM +RA BR FEW028 BKN065 OVC080 19/18 A3009 160 93 700 000/00 RMK AO2 P0008 $
63870K0J4 0J420160413153512804/13/16 15:35:31  5-MIN K0J4 132035Z AUTO 22003KT 1SM +RA BR SCT017 BKN048 OVC085 19/18 A3009 160 93 700 220/03 RMK AO2 P0010 $
63870K0J4 0J420160413154013104/13/16 15:40:31  5-MIN K0J4 132040Z AUTO 16003KT 1 3/4SM RA BR SCT017 BKN030 OVC070 19/18 A3009 160 93 700 160/03 RMK AO2 P0012 $
63870K0J4 0J420160413154513104/13/16 15:45:31  5-MIN K0J4 132045Z AUTO 00000KT 2 1/2SM RA BR FEW017 BKN050 OVC070 19/18 A3009 160 93 700 000/00 RMK AO2 P0013 $
63870K0J4 0J420160413155012704/13/16 15:50:31  5-MIN K0J4 132050Z AUTO 18003KT 3SM RA BR SCT019 BKN030 OVC055 19/18 A3009 160 93 700 180/03 RMK AO2 P0014 $
63870K0J4 0J420160413155516004/13/16 15:55:31  5-MIN K0J4 132055Z AUTO 00000KT 2 1/2SM RA BR FEW016 BKN024 OVC050 19/18 A3009 160 93 700 000/00 RMK AO2 SLP185 P0015 60055 T01890178 58002 $
63870K0J4 0J420160413160013104/13/16 16:00:31  5-MIN K0J4 132100Z AUTO 00000KT 1 3/4SM RA BR BKN021 BKN035 OVC050 19/18 A3008 170 93 700 000/00 RMK AO2 P0001 $
63870K0J4 0J420160413160513204/13/16 16:05:31  5-MIN K0J4 132105Z AUTO 00000KT 1 1/4SM +RA BR SCT003 BKN023 OVC050 19/18 A3008 170 93 700 000/00 RMK AO2 P0003 $
63870K0J4 0J420160413161013104/13/16 16:10:31  5-MIN K0J4 132110Z AUTO 00000KT 1 3/4SM RA BR SCT003 BKN023 OVC050 19/18 A3007 170 93 700 000/00 RMK AO2 P0004 $
63870K0J4 0J420160413161512804/13/16 16:15:31  5-MIN K0J4 132115Z AUTO 00000KT 3SM -RA BR BKN005 BKN024 OVC033 19/18 A3007 180 93 700 000/00 RMK AO2 P0005 $
63870K0J4 0J420160413162013504/13/16 16:20:31  5-MIN K0J4 132120Z AUTO 00000KT 5SM -RA BR BKN003 BKN026 OVC070 19/18 A3006 190 93 700 000/00 RMK AO2 PRESFR P0005 $
63870K0J4 0J420160413162512504/13/16 16:25:31  5-MIN K0J4 132125Z AUTO 00000KT 7SM -RA BKN003 BKN028 OVC100 19/18 A3006 180 93 700 000/00 RMK AO2 P0005 $
63870K0J4 0J420160413163013704/13/16 16:30:31  5-MIN K0J4 132130Z AUTO 08003KT 8SM -RA BKN003 BKN070 OVC100 19/18 A3006 190 93 700 080/03 RMK AO2 CIG 001V012 P0005 $
63870K0J4 0J420160413163512504/13/16 16:35:31  5-MIN K0J4 132135Z AUTO 00000KT 9SM -RA SCT005 BKN050 OVC095 19/18 A3006 190 93 700 000/00 RMK AO2 P0006 $
63870K0J4 0J420160413164012604/13/16 16:40:31  5-MIN K0J4 132140Z AUTO 06004KT 10SM -RA SCT005 BKN065 OVC100 19/18 A3006 190 93 700 060/04 RMK AO2 P0006 $
63870K0J4 0J420160413164512604/13/16 16:45:31  5-MIN K0J4 132145Z AUTO 10004KT 10SM -RA FEW005 SCT042 OVC100 19/18 A3006 190 93 700 100/04 RMK AO2 P0006 $
63870K0J4 0J420160413165012604/13/16 16:50:31  5-MIN K0J4 132150Z AUTO 10003KT 10SM -RA FEW005 SCT065 OVC100 19/18 A3006 190 93 700 100/03 RMK AO2 P0006 $
63870K0J4 0J420160413165513604/13/16 16:55:31  5-MIN K0J4 132155Z AUTO 00000KT 10SM -RA FEW005 OVC100 19/18 A3006 190 93 700 000/00 RMK AO2 SLP177 P0006 T01890178 $
63870K0J4 0J420160413170011904/13/16 17:00:31  5-MIN K0J4 132200Z AUTO 09003KT 10SM -RA FEW005 OVC100 19/18 A3006 180 93 700 090/03 RMK AO2 P0000 $
63870K0J4 0J420160413170512104/13/16 17:05:31  5-MIN K0J4 132205Z AUTO 11003KT 10SM FEW005 OVC095 19/18 A3006 180 93 700 110/03 RMK AO2 RAE05 P0000 $
63870K0J4 0J420160413171012104/13/16 17:10:31  5-MIN K0J4 132210Z AUTO 09003KT 10SM FEW003 OVC095 19/18 A3006 190 93 700 090/03 RMK AO2 RAE05 P0000 $
63870K0J4 0J420160413171512104/13/16 17:15:31  5-MIN K0J4 132215Z AUTO VRB04KT 10SM FEW003 OVC095 19/18 A3005 200 93 700 VRB/04 RMK AO2 RAE05 P0000 $
63870K0J4 0J420160413172012604/13/16 17:20:31  5-MIN K0J4 132220Z AUTO 10004KT 10SM -RA FEW003 SCT065 OVC090 19/18 A3005 200 93 700 100/04 RMK AO2 P0000 $
63870K0J4 0J420160413172512604/13/16 17:25:31  5-MIN K0J4 132225Z AUTO 10003KT 10SM -RA FEW003 SCT060 OVC085 19/18 A3005 200 93 700 100/03 RMK AO2 P0000 $
63870K0J4 0J420160413173012604/13/16 17:30:31  5-MIN K0J4 132230Z AUTO 10004KT 10SM -RA FEW003 BKN070 OVC090 19/18 A3005 200 93 700 100/04 RMK AO2 P0000 $
63870K0J4 0J420160413173512604/13/16 17:35:31  5-MIN K0J4 132235Z AUTO 10004KT 10SM -RA FEW003 SCT044 BKN075 19/18 A3005 200 97 700 100/04 RMK AO2 P0000 $
63870K0J4 0J420160413174012804/13/16 17:40:31  5-MIN K0J4 132240Z AUTO 11003KT 10SM FEW003 SCT070 BKN090 19/18 A3005 200 93 700 110/03 RMK AO2 RAE40 P0000 $
63870K0J4 0J420160413174512804/13/16 17:45:31  5-MIN K0J4 132245Z AUTO VRB03KT 10SM FEW050 SCT080 SCT120 19/18 A3005 200 97 700 VRB/03 RMK AO2 RAE40 P0000 $
63870K0J4 0J420160413175012804/13/16 17:50:31  5-MIN K0J4 132250Z AUTO VRB03KT 10SM FEW004 SCT080 SCT120 19/18 A3005 190 97 700 VRB/03 RMK AO2 RAE40 P0000 $
63870K0J4 0J420160413175513104/13/16 17:55:31  5-MIN K0J4 132255Z AUTO 11003KT 10SM FEW004 19/18 A3006 190 97 700 110/03 RMK AO2 RAE40 SLP175 P0000 T01890183 $
63870K0J4 0J420160413180010904/13/16 18:00:31  5-MIN K0J4 132300Z AUTO 00000KT 10SM FEW004 SCT120 19/18 A3006 190 97 700 000/00 RMK AO2 $
63870K0J4 0J420160413180510904/13/16 18:05:31  5-MIN K0J4 132305Z AUTO 11003KT 10SM FEW004 SCT041 19/18 A3006 190 97 700 110/03 RMK AO2 $
63870K0J4 0J420160413181011604/13/16 18:10:31  5-MIN K0J4 132310Z AUTO 00000KT 10SM FEW004 BKN041 BKN050 19/18 A3006 190 97 700 000/00 RMK AO2 $
63870K0J4 0J420160413181511604/13/16 18:15:31  5-MIN K0J4 132315Z AUTO 00000KT 10SM FEW004 BKN041 BKN050 19/18 A3006 190 97 700 000/00 RMK AO2 $
63870K0J4 0J420160413182011604/13/16 18:20:31  5-MIN K0J4 132320Z AUTO 11003KT 10SM FEW004 SCT041 BKN050 19/18 A3005 200 97 700 110/03 RMK AO2 $
63870K0J4 0J420160413182511604/13/16 18:25:31  5-MIN K0J4 132325Z AUTO 00000KT 10SM FEW004 SCT041 BKN070 19/18 A3005 190 93 700 000/00 RMK AO2 $
63870K0J4 0J420160413183011604/13/16 18:30:31  5-MIN K0J4 132330Z AUTO 00000KT 10SM FEW004 SCT041 BKN070 19/18 A3005 190 97 700 000/00 RMK AO2 $
63870K0J4 0J420160413183511604/13/16 18:35:31  5-MIN K0J4 132335Z AUTO 00000KT 10SM SCT004 SCT043 BKN050 19/18 A3005 190 97 700 000/00 RMK AO2 $
63870K0J4 0J420160413184011604/13/16 18:40:31  5-MIN K0J4 132340Z AUTO 00000KT 10SM SCT004 SCT045 BKN070 19/18 A3005 200 93 700 000/00 RMK AO2 $
63870K0J4 0J420160413184511604/13/16 18:45:31  5-MIN K0J4 132345Z AUTO 00000KT 10SM SCT004 SCT070 BKN095 19/18 A3005 200 93 700 000/00 RMK AO2 $
63870K0J4 0J420160413185010204/13/16 18:50:31  5-MIN K0J4 132350Z AUTO 00000KT 10SM BKN004 19/18 A3005 200 93 700 000/00 RMK AO2 $
63870K0J4 0J420160413185515004/13/16 18:55:31  5-MIN K0J4 132355Z AUTO 00000KT 10SM BKN004 BKN090 19/18 A3005 190 93 700 000/00 RMK AO2 SLP174 60062 T01890178 10206 20183 56007 $
63870K0J4 0J420160413190010904/13/16 19:00:31  5-MIN K0J4 140000Z AUTO 00000KT 10SM BKN004 BKN090 19/18 A3006 190 93 700 000/00 RMK AO2 $
63870K0J4 0J420160413190510904/13/16 19:05:31  5-MIN K0J4 140005Z AUTO 00000KT 10SM BKN004 BKN095 19/18 A3006 190 93 700 000/00 RMK AO2 $
63870K0J4 0J420160413191010204/13/16 19:10:31  5-MIN K0J4 140010Z AUTO 00000KT 10SM OVC004 19/18 A3006 190 93 700 000/00 RMK AO2 $
63870K0J4 0J420160413191510204/13/16 19:15:31  5-MIN K0J4 140015Z AUTO 00000KT 10SM OVC004 19/18 A3006 190 93 700 000/00 RMK AO2 $
63870K0J4 0J420160413192010204/13/16 19:20:31  5-MIN K0J4 140020Z AUTO 08003KT 10SM OVC004 19/18 A3005 200 93 700 080/03 RMK AO2 $
63870K0J4 0J420160413192510204/13/16 19:25:31  5-MIN K0J4 140025Z AUTO 07005KT 10SM OVC004 19/18 A3004 200 93 700 070/05 RMK AO2 $
63870K0J4 0J420160413193010904/13/16 19:30:31  5-MIN K0J4 140030Z AUTO 08008KT 10SM OVC004 19/18 A3003 220 93 800 080/08 RMK AO2 PRESFR $
63870K0J4 0J420160413193510204/13/16 19:35:31  5-MIN K0J4 140035Z AUTO 08006KT 10SM OVC004 19/18 A3003 220 93 800 080/06 RMK AO2 $
63870K0J4 0J420160413194010204/13/16 19:40:31  5-MIN K0J4 140040Z AUTO 08007KT 10SM OVC004 19/18 A3003 210 93 800 080/07 RMK AO2 $
63870K0J4 0J420160413194510204/13/16 19:45:31  5-MIN K0J4 140045Z AUTO 09005KT 10SM OVC004 19/18 A3003 210 93 800 090/05 RMK AO2 $
63870K0J4 0J420160413195010204/13/16 19:50:31  5-MIN K0J4 140050Z AUTO 08006KT 10SM OVC004 19/18 A3003 220 93 800 080/06 RMK AO2 $
63870K0J4 0J420160413195511904/13/16 19:55:31  5-MIN K0J4 140055Z AUTO 08006KT 10SM OVC004 19/18 A3003 210 93 800 080/06 RMK AO2 SLP167 T01890178 $
63870K0J4 0J420160413200010204/13/16 20:00:31  5-MIN K0J4 140100Z AUTO 10003KT 10SM OVC004 19/18 A3005 200 93 700 100/03 RMK AO2 $
63870K0J4 0J420160413200510904/13/16 20:05:31  5-MIN K0J4 140105Z AUTO 00000KT 10SM OVC004 19/18 A3005 190 93 700 000/00 RMK AO2 PRESRR $
63870K0J4 0J420160413201011404/13/16 20:10:31  5-MIN K0J4 140110Z AUTO 00000KT 10SM OVC004 19/18 A3006 190 93 700 000/00 RMK AO2 CIG 003V006 $
63870K0J4 0J420160413201511404/13/16 20:15:31  5-MIN K0J4 140115Z AUTO 00000KT 10SM OVC004 19/18 A3006 190 93 700 000/00 RMK AO2 CIG 003V006 $
63870K0J4 0J420160413202011404/13/16 20:20:31  5-MIN K0J4 140120Z AUTO 00000KT 10SM OVC004 19/18 A3006 190 93 700 000/00 RMK AO2 CIG 003V008 $
63870K0J4 0J420160413202511404/13/16 20:25:31  5-MIN K0J4 140125Z AUTO 00000KT 10SM OVC004 19/18 A3006 190 93 700 000/00 RMK AO2 CIG 003V008 $
63870K0J4 0J420160413203012104/13/16 20:30:31  5-MIN K0J4 140130Z AUTO 11003KT 10SM BKN004 OVC044 19/18 A3006 190 93 700 110/03 RMK AO2 CIG 003V008 $
63870K0J4 0J420160413203512104/13/16 20:35:31  5-MIN K0J4 140135Z AUTO 00000KT 10SM BKN004 OVC044 19/18 A3006 180 93 700 000/00 RMK AO2 CIG 003V008 $
63870K0J4 0J420160413204012104/13/16 20:40:31  5-MIN K0J4 140140Z AUTO 00000KT 10SM BKN006 OVC046 19/18 A3006 190 93 700 000/00 RMK AO2 CIG 003V008 $
63870K0J4 0J420160413204510904/13/16 20:45:31  5-MIN K0J4 140145Z AUTO 00000KT 10SM SCT006 OVC046 19/18 A3006 180 93 700 000/00 RMK AO2 $
63870K0J4 0J420160413205011604/13/16 20:50:31  5-MIN K0J4 140150Z AUTO 00000KT 10SM FEW006 BKN047 BKN060 19/18 A3006 180 93 700 000/00 RMK AO2 $
63870K0J4 0J420160413205513304/13/16 20:55:31  5-MIN K0J4 140155Z AUTO 00000KT 10SM SCT008 BKN047 BKN055 19/18 A3006 190 93 700 000/00 RMK AO2 SLP177 T01890178 $
63870K0J4 0J420160413210011604/13/16 21:00:31  5-MIN K0J4 140200Z AUTO 00000KT 10SM SCT008 BKN047 OVC055 19/18 A3006 180 93 700 000/00 RMK AO2 $
63870K0J4 0J420160413210511604/13/16 21:05:31  5-MIN K0J4 140205Z AUTO 00000KT 10SM BKN008 BKN047 OVC055 19/18 A3006 180 93 700 000/00 RMK AO2 $
63870K0J4 0J420160413211010904/13/16 21:10:31  5-MIN K0J4 140210Z AUTO 08003KT 10SM BKN008 OVC055 19/18 A3006 180 93 700 080/03 RMK AO2 $
63870K0J4 0J420160413211510904/13/16 21:15:31  5-MIN K0J4 140215Z AUTO 00000KT 10SM BKN008 BKN055 18/18 A3006 180 96 700 000/00 RMK AO2 $
63870K0J4 0J420160413212010904/13/16 21:20:31  5-MIN K0J4 140220Z AUTO 00000KT 10SM BKN008 BKN055 18/18 A3006 180 96 700 000/00 RMK AO2 $
63870K0J4 0J420160413212510804/13/16 21:25:31  5-MIN K0J4 140225Z AUTO 00000KT 9SM BKN008 BKN055 18/18 A3006 180 96 700 000/00 RMK AO2 $
63870K0J4 0J420160413213010904/13/16 21:30:31  5-MIN K0J4 140230Z AUTO 00000KT 10SM BKN008 BKN055 18/18 A3006 180 96 700 000/00 RMK AO2 $
63870K0J4 0J420160413213510904/13/16 21:35:31  5-MIN K0J4 140235Z AUTO 00000KT 10SM BKN008 BKN055 18/18 A3006 190 96 700 000/00 RMK AO2 $
63870K0J4 0J420160413214010204/13/16 21:40:31  5-MIN K0J4 140240Z AUTO 00000KT 10SM BKN008 18/18 A3006 180 96 700 000/00 RMK AO2 $
63870K0J4 0J420160413214510204/13/16 21:45:31  5-MIN K0J4 140245Z AUTO 00000KT 10SM OVC008 18/18 A3007 180 96 700 000/00 RMK AO2 $
63870K0J4 0J420160413215011404/13/16 21:50:31  5-MIN K0J4 140250Z AUTO 00000KT 10SM OVC008 18/18 A3007 180 96 700 000/00 RMK AO2 CIG 005V008 $
63870K0J4 0J420160413215513704/13/16 21:55:31  5-MIN K0J4 140255Z AUTO 00000KT 10SM OVC006 18/18 A3007 180 96 700 000/00 RMK AO2 CIG 004V008 SLP179 T01830178 56011 $
63870K0J4 0J420160413220011404/13/16 22:00:31  5-MIN K0J4 140300Z AUTO 00000KT 10SM OVC006 19/18 A3007 180 93 700 000/00 RMK AO2 CIG 004V008 $
63870K0J4 0J420160413220511404/13/16 22:05:31  5-MIN K0J4 140305Z AUTO 10004KT 10SM OVC006 18/18 A3007 180 96 700 100/04 RMK AO2 CIG 003V008 $
63870K0J4 0J420160413221011404/13/16 22:10:31  5-MIN K0J4 140310Z AUTO 10005KT 10SM OVC004 18/18 A3006 180 96 700 100/05 RMK AO2 CIG 003V007 $
63870K0J4 0J420160413221510204/13/16 22:15:31  5-MIN K0J4 140315Z AUTO 10004KT 10SM OVC004 18/18 A3006 180 96 700 100/04 RMK AO2 $
63870K0J4 0J420160413222010204/13/16 22:20:31  5-MIN K0J4 140320Z AUTO 10004KT 10SM OVC004 18/18 A3007 180 96 700 100/04 RMK AO2 $
63870K0J4 0J420160413222510204/13/16 22:25:31  5-MIN K0J4 140325Z AUTO 00000KT 10SM OVC004 18/18 A3007 180 96 700 000/00 RMK AO2 $
63870K0J4 0J420160413223010204/13/16 22:30:31  5-MIN K0J4 140330Z AUTO 00000KT 10SM OVC004 18/18 A3007 180 96 700 000/00 RMK AO2 $
63870K0J4 0J420160413223510204/13/16 22:35:31  5-MIN K0J4 140335Z AUTO 09005KT 10SM OVC004 18/18 A3006 190 96 700 090/05 RMK AO2 $
63870K0J4 0J420160413224010204/13/16 22:40:31  5-MIN K0J4 140340Z AUTO 10004KT 10SM OVC004 18/18 A3006 190 96 700 100/04 RMK AO2 $
63870K0J4 0J420160413224510204/13/16 22:45:31  5-MIN K0J4 140345Z AUTO VRB03KT 10SM OVC004 18/18 A3007 180 96 700 VRB/03 RMK AO2 $
63870K0J4 0J420160413225010204/13/16 22:50:31  5-MIN K0J4 140350Z AUTO 12003KT 10SM OVC004 18/18 A3007 180 96 700 120/03 RMK AO2 $
63870K0J4 0J420160413225511904/13/16 22:55:31  5-MIN K0J4 140355Z AUTO 00000KT 10SM OVC004 18/18 A3007 180 96 700 000/00 RMK AO2 SLP178 T01830178 $
63870K0J4 0J420160413230010204/13/16 23:00:31  5-MIN K0J4 140400Z AUTO 11003KT 10SM OVC004 18/18 A3007 180 96 700 110/03 RMK AO2 $
63870K0J4 0J420160413230510204/13/16 23:05:31  5-MIN K0J4 140405Z AUTO 00000KT 10SM OVC004 18/18 A3007 180 96 700 000/00 RMK AO2 $
63870K0J4 0J420160413231010204/13/16 23:10:31  5-MIN K0J4 140410Z AUTO 10004KT 10SM OVC004 18/18 A3006 180 96 700 100/04 RMK AO2 $
63870K0J4 0J420160413231511404/13/16 23:15:31  5-MIN K0J4 140415Z AUTO 11004KT 10SM OVC004 18/18 A3006 180 96 700 110/04 RMK AO2 CIG 002V008 $
63870K0J4 0J420160413232012104/13/16 23:20:31  5-MIN K0J4 140420Z AUTO VRB03KT 10SM BKN004 OVC010 18/18 A3006 190 96 700 VRB/03 RMK AO2 CIG 002V008 $
63870K0J4 0J420160413232512104/13/16 23:25:31  5-MIN K0J4 140425Z AUTO 00000KT 10SM BKN004 OVC010 18/18 A3006 180 96 700 000/00 RMK AO2 CIG 002V008 $
63870K0J4 0J420160413233012104/13/16 23:30:31  5-MIN K0J4 140430Z AUTO 11003KT 10SM BKN004 OVC010 18/18 A3006 180 96 700 110/03 RMK AO2 CIG 002V008 $
63870K0J4 0J420160413233512104/13/16 23:35:31  5-MIN K0J4 140435Z AUTO 00000KT 10SM BKN004 OVC010 18/18 A3006 180 96 700 000/00 RMK AO2 CIG 003V008 $
63870K0J4 0J420160413234012104/13/16 23:40:31  5-MIN K0J4 140440Z AUTO 11003KT 10SM BKN006 OVC012 18/18 A3006 180 96 700 110/03 RMK AO2 CIG 003V009 $
63870K0J4 0J420160413234512104/13/16 23:45:31  5-MIN K0J4 140445Z AUTO 11003KT 10SM BKN006 OVC012 18/18 A3006 180 96 700 110/03 RMK AO2 CIG 003V008 $
63870K0J4 0J420160413235012104/13/16 23:50:31  5-MIN K0J4 140450Z AUTO 00000KT 10SM BKN006 OVC012 18/18 A3006 180 96 700 000/00 RMK AO2 CIG 003V008 $
63870K0J4 0J420160413235514804/13/16 23:55:31  5-MIN K0J4 140455Z AUTO 11004KT 10SM BKN006 OVC012 18/18 A3006 190 96 700 110/04 RMK AO2 CIG 003V009 SLP176 T01830178 402170139 $
63870K0J4 0J420160414000012104/14/16 00:00:31  5-MIN K0J4 140500Z AUTO 11003KT 10SM BKN006 OVC012 18/18 A3006 190 96 700 110/03 RMK AO2 CIG 003V009 $
63870K0J4 0J420160414000512104/14/16 00:05:31  5-MIN K0J4 140505Z AUTO 12003KT 10SM BKN006 OVC012 18/18 A3006 190 96 700 120/03 RMK AO2 CIG 003V009 $
63870K0J4 0J420160414001011404/14/16 00:10:31  5-MIN K0J4 140510Z AUTO VRB04KT 10SM OVC006 18/17 A3005 190 93 700 VRB/04 RMK AO2 CIG 003V009 $
63870K0J4 0J420160414001511404/14/16 00:15:31  5-MIN K0J4 140515Z AUTO 10003KT 10SM OVC006 18/18 A3006 190 96 700 100/03 RMK AO2 CIG 005V009 $
63870K0J4 0J420160414002011404/14/16 00:20:31  5-MIN K0J4 140520Z AUTO 09004KT 10SM OVC006 18/18 A3005 190 96 700 090/04 RMK AO2 CIG 003V009 $
63870K0J4 0J420160414002511404/14/16 00:25:31  5-MIN K0J4 140525Z AUTO 11003KT 10SM OVC004 18/18 A3005 190 96 700 110/03 RMK AO2 CIG 003V007 $
63870K0J4 0J420160414003011404/14/16 00:30:31  5-MIN K0J4 140530Z AUTO 11003KT 10SM OVC004 18/18 A3005 190 96 700 110/03 RMK AO2 CIG 003V008 $
63870K0J4 0J420160414003510204/14/16 00:35:31  5-MIN K0J4 140535Z AUTO 11004KT 10SM OVC004 18/18 A3005 190 96 700 110/04 RMK AO2 $
63870K0J4 0J420160414004011404/14/16 00:40:31  5-MIN K0J4 140540Z AUTO 00000KT 10SM OVC004 18/18 A3005 190 96 700 000/00 RMK AO2 CIG 002V008 $
63870K0J4 0J420160414004510204/14/16 00:45:31  5-MIN K0J4 140545Z AUTO 00000KT 10SM OVC004 18/18 A3005 190 96 700 000/00 RMK AO2 $
63870K0J4 0J420160414005010204/14/16 00:50:31  5-MIN K0J4 140550Z AUTO 11004KT 10SM OVC004 18/17 A3005 200 93 700 110/04 RMK AO2 $
63870K0J4 0J420160414005514904/14/16 00:55:31  5-MIN K0J4 140555Z AUTO VRB03KT 10SM OVC004 18/17 A3005 200 93 700 VRB/03 RMK AO2 CIG 002V006 SLP172 T01830172 10189 20183 53005 $
63870K0J4 0J420160414010011404/14/16 01:00:31  5-MIN K0J4 140600Z AUTO 11005KT 10SM OVC004 18/17 A3005 200 93 700 110/05 RMK AO2 CIG 002V006 $
63870K0J4 0J420160414010511404/14/16 01:05:31  5-MIN K0J4 140605Z AUTO 12004KT 10SM OVC004 18/17 A3005 200 93 700 120/04 RMK AO2 CIG 002V006 $
63870K0J4 0J420160414011011404/14/16 01:10:31  5-MIN K0J4 140610Z AUTO 13003KT 10SM OVC004 18/17 A3005 200 93 700 130/03 RMK AO2 CIG 002V006 $
63870K0J4 0J420160414011510204/14/16 01:15:31  5-MIN K0J4 140615Z AUTO 14003KT 10SM OVC004 18/17 A3005 200 93 700 140/03 RMK AO2 $
63870K0J4 0J420160414012010204/14/16 01:20:31  5-MIN K0J4 140620Z AUTO 14003KT 10SM OVC004 18/17 A3005 200 93 700 140/03 RMK AO2 $
63870K0J4 0J420160414012510204/14/16 01:25:31  5-MIN K0J4 140625Z AUTO 00000KT 10SM OVC004 18/17 A3005 200 93 700 000/00 RMK AO2 $
63870K0J4 0J420160414013011404/14/16 01:30:31  5-MIN K0J4 140630Z AUTO 00000KT 10SM OVC004 18/17 A3005 200 93 700 000/00 RMK AO2 CIG 003V006 $
63870K0J4 0J420160414013511404/14/16 01:35:31  5-MIN K0J4 140635Z AUTO 00000KT 10SM OVC004 18/17 A3004 200 93 700 000/00 RMK AO2 CIG 002V006 $
63870K0J4 0J420160414014010204/14/16 01:40:31  5-MIN K0J4 140640Z AUTO 11005KT 10SM OVC004 18/17 A3004 210 93 700 110/05 RMK AO2 $
63870K0J4 0J420160414014510204/14/16 01:45:31  5-MIN K0J4 140645Z AUTO VRB04KT 10SM OVC004 18/17 A3004 210 93 700 VRB/04 RMK AO2 $
63870K0J4 0J420160414015010204/14/16 01:50:31  5-MIN K0J4 140650Z AUTO VRB04KT 10SM OVC004 18/17 A3004 210 93 700 VRB/04 RMK AO2 $
63870K0J4 0J420160414015511904/14/16 01:55:31  5-MIN K0J4 140655Z AUTO VRB03KT 10SM OVC002 18/17 A3004 210 93 700 VRB/03 RMK AO2 SLP169 T01830172 $
63870K0J4 0J420160414020010204/14/16 02:00:31  5-MIN K0J4 140700Z AUTO 14004KT 10SM OVC002 18/17 A3004 210 93 700 140/04 RMK AO2 $
63870K0J4 0J420160414020510104/14/16 02:05:31  5-MIN K0J4 140705Z AUTO 14004KT 9SM OVC002 18/17 A3004 210 93 700 140/04 RMK AO2 $
63870K0J4 0J420160414021010104/14/16 02:10:31  5-MIN K0J4 140710Z AUTO 13003KT 8SM OVC002 18/17 A3004 210 93 700 130/03 RMK AO2 $
63870K0J4 0J420160414021510104/14/16 02:15:31  5-MIN K0J4 140715Z AUTO 14004KT 7SM OVC002 18/17 A3003 210 93 700 140/04 RMK AO2 $
63870K0J4 0J420160414022010404/14/16 02:20:31  5-MIN K0J4 140720Z AUTO 13003KT 6SM BR OVC002 18/17 A3003 210 96 600 130/03 RMK AO2 $
63870K0J4 0J420160414022510404/14/16 02:25:31  5-MIN K0J4 140725Z AUTO 13003KT 5SM BR OVC002 18/17 A3003 210 96 600 130/03 RMK AO2 $
63870K0J4 0J420160414023010504/14/16 02:30:31  5-MIN K0J4 140730Z AUTO 12004KT 4SM BR OVC002 18/18 A3003 220 100 600 120/04 RMK AO2 $
63870K0J4 0J420160414023510404/14/16 02:35:31  5-MIN K0J4 140735Z AUTO 12005KT 3SM BR OVC002 18/17 A3003 220 96 600 120/05 RMK AO2 $
63870K0J4 0J420160414024010504/14/16 02:40:31  5-MIN K0J4 140740Z AUTO VRB03KT 2SM BR OVC002 18/18 A3003 220 100 600 VRB/03 RMK AO2 $
63870K0J4 0J420160414024510804/14/16 02:45:31  5-MIN K0J4 140745Z AUTO 13004KT 1 1/2SM BR OVC002 18/17 A3003 220 96 600 130/04 RMK AO2 $
63870K0J4 0J420160414025010904/14/16 02:50:31  5-MIN K0J4 140750Z AUTO VRB03KT 1 1/2SM BR OVC002 18/18 A3003 220 100 600 VRB/03 RMK AO2 $
63870K0J4 0J420160414025512504/14/16 02:55:31  5-MIN K0J4 140755Z AUTO 12006KT 1 1/2SM BR OVC002 18/17 A3003 220 96 600 120/06 RMK AO2 SLP165 T01780172 $
63870K0J4 0J420160414030010804/14/16 03:00:31  5-MIN K0J4 140800Z AUTO VRB03KT 1 3/4SM BR OVC002 18/17 A3003 220 96 600 VRB/03 RMK AO2 $
63870K0J4 0J420160414030510804/14/16 03:05:31  5-MIN K0J4 140805Z AUTO 12005KT 1 3/4SM BR OVC002 18/17 A3002 220 96 600 120/05 RMK AO2 $
63870K0J4 0J420160414031010804/14/16 03:10:31  5-MIN K0J4 140810Z AUTO 12003KT 1 1/2SM BR OVC002 18/17 A3002 220 96 600 120/03 RMK AO2 $
63870K0J4 0J420160414031510804/14/16 03:15:31  5-MIN K0J4 140815Z AUTO 14004KT 1 1/2SM BR OVC002 18/17 A3002 220 96 600 140/04 RMK AO2 $
63870K0J4 0J420160414032010804/14/16 03:20:31  5-MIN K0J4 140820Z AUTO 15005KT 1 1/2SM BR OVC002 18/17 A3002 230 96 600 150/05 RMK AO2 $
63870K0J4 0J420160414032510804/14/16 03:25:31  5-MIN K0J4 140825Z AUTO VRB03KT 1 1/2SM BR OVC002 18/17 A3002 220 96 600 VRB/03 RMK AO2 $
63870K0J4 0J420160414033010804/14/16 03:30:31  5-MIN K0J4 140830Z AUTO VRB03KT 1 1/4SM BR OVC002 18/17 A3002 230 96 600 VRB/03 RMK AO2 $
63870K0J4 0J420160414033510804/14/16 03:35:31  5-MIN K0J4 140835Z AUTO 12004KT 1 1/4SM BR OVC002 18/17 A3002 230 96 600 120/04 RMK AO2 $
63870K0J4 0J420160414034010804/14/16 03:40:31  5-MIN K0J4 140840Z AUTO 12004KT 1 1/4SM BR OVC002 18/17 A3002 230 96 600 120/04 RMK AO2 $
63870K0J4 0J420160414034510804/14/16 03:45:31  5-MIN K0J4 140845Z AUTO 11004KT 1 1/2SM BR OVC002 18/17 A3002 230 96 600 110/04 RMK AO2 $
63870K0J4 0J420160414035010804/14/16 03:50:31  5-MIN K0J4 140850Z AUTO 11004KT 1 1/2SM BR OVC002 18/17 A3002 230 96 600 110/04 RMK AO2 $
63870K0J4 0J420160414035513104/14/16 03:55:31  5-MIN K0J4 140855Z AUTO 11005KT 1 3/4SM BR OVC002 18/17 A3002 220 96 600 110/05 RMK AO2 SLP163 T01780172 58007 $
63870K0J4 0J420160414040010404/14/16 04:00:31  5-MIN K0J4 140900Z AUTO 12003KT 2SM BR OVC002 18/17 A3002 230 96 600 120/03 RMK AO2 $
63870K0J4 0J420160414040510404/14/16 04:05:31  5-MIN K0J4 140905Z AUTO 12005KT 3SM BR OVC002 18/17 A3002 220 96 600 120/05 RMK AO2 $
63870K0J4 0J420160414041010404/14/16 04:10:31  5-MIN K0J4 140910Z AUTO 16003KT 5SM BR OVC002 18/17 A3002 220 96 600 160/03 RMK AO2 $
63870K0J4 0J420160414041510104/14/16 04:15:31  5-MIN K0J4 140915Z AUTO 00000KT 7SM OVC002 18/17 A3002 220 96 600 000/00 RMK AO2 $
63870K0J4 0J420160414042010104/14/16 04:20:31  5-MIN K0J4 140920Z AUTO 16003KT 7SM OVC002 18/17 A3002 220 96 600 160/03 RMK AO2 $
63870K0J4 0J420160414042510104/14/16 04:25:31  5-MIN K0J4 140925Z AUTO VRB03KT 8SM OVC002 18/17 A3002 230 96 600 VRB/03 RMK AO2 $
63870K0J4 0J420160414043011704/14/16 04:30:31  5-MIN K0J4 140930Z AUTO 15003KT 9SM -RA OVC002 18/17 A3002 220 96 600 150/03 RMK AO2 RAB29 P0000 $
63870K0J4 0J420160414043511804/14/16 04:35:31  5-MIN K0J4 140935Z AUTO 14003KT 10SM -RA OVC002 18/17 A3001 230 96 600 140/03 RMK AO2 RAB29 P0000 $
63870K0J4 0J420160414044011804/14/16 04:40:31  5-MIN K0J4 140940Z AUTO 14003KT 10SM -RA OVC002 18/17 A3001 230 96 700 140/03 RMK AO2 RAB29 P0000 $
63870K0J4 0J420160414044511704/14/16 04:45:31  5-MIN K0J4 140945Z AUTO 13003KT 10SM OVC002 18/17 A3001 230 96 700 130/03 RMK AO2 RAB29E44 P0000 $
63870K0J4 0J420160414045011704/14/16 04:50:31  5-MIN K0J4 140950Z AUTO 13005KT 8SM -RA OVC002 18/17 A3001 230 96 700 130/05 RMK AO2 RAB29 P0000 $
63870K0J4 0J420160414045513404/14/16 04:55:31  5-MIN K0J4 140955Z AUTO 12003KT 7SM -RA OVC002 18/17 A3001 230 96 700 120/03 RMK AO2 RAB29 SLP159 P0000 T01780172 $
63870K0J4 0J420160414050011104/14/16 05:00:31  5-MIN K0J4 141000Z AUTO 13004KT 7SM -RA OVC002 18/17 A3001 240 96 700 130/04 RMK AO2 P0000 $
63870K0J4 0J420160414050511104/14/16 05:05:31  5-MIN K0J4 141005Z AUTO VRB03KT 8SM -RA OVC002 18/17 A3001 230 96 700 VRB/03 RMK AO2 P0000 $
63870K0J4 0J420160414051011304/14/16 05:10:31  5-MIN K0J4 141010Z AUTO 14004KT 9SM OVC002 18/17 A3001 230 96 700 140/04 RMK AO2 RAE07 P0000 $
63870K0J4 0J420160414051511304/14/16 05:15:31  5-MIN K0J4 141015Z AUTO 14003KT 9SM OVC002 18/17 A3001 230 96 700 140/03 RMK AO2 RAE07 P0000 $
63870K0J4 0J420160414052011304/14/16 05:20:31  5-MIN K0J4 141020Z AUTO 00000KT 7SM OVC002 18/17 A3001 230 96 700 000/00 RMK AO2 RAE07 P0000 $
63870K0J4 0J420160414052511304/14/16 05:25:31  5-MIN K0J4 141025Z AUTO 00000KT 7SM OVC002 18/17 A3001 230 96 700 000/00 RMK AO2 RAE07 P0000 $
63870K0J4 0J420160414053011304/14/16 05:30:31  5-MIN K0J4 141030Z AUTO 12003KT 8SM OVC002 18/17 A3001 240 96 700 120/03 RMK AO2 RAE07 P0000 $
63870K0J4 0J420160414053511304/14/16 05:35:31  5-MIN K0J4 141035Z AUTO 12003KT 8SM OVC002 18/17 A3001 230 96 700 120/03 RMK AO2 RAE07 P0000 $
63870K0J4 0J420160414054011604/14/16 05:40:31  5-MIN K0J4 141040Z AUTO 11003KT 6SM BR OVC002 18/17 A3000 240 96 700 110/03 RMK AO2 RAE07 P0000 $
63870K0J4 0J420160414054511604/14/16 05:45:31  5-MIN K0J4 141045Z AUTO 11006KT 5SM BR OVC002 18/17 A3001 240 96 700 110/06 RMK AO2 RAE07 P0000 $
63870K0J4 0J420160414055011604/14/16 05:50:31  5-MIN K0J4 141050Z AUTO VRB04KT 5SM BR OVC002 18/17 A3001 230 96 700 VRB/04 RMK AO2 RAE07 P0000 $
63870K0J4 0J420160414055513304/14/16 05:55:31  5-MIN K0J4 141055Z AUTO 00000KT 6SM BR OVC002 18/17 A3002 230 96 600 000/00 RMK AO2 RAE07 SLP162 P0000 T01780172 $
63870K0J4 0J420160414060010104/14/16 06:00:31  5-MIN K0J4 141100Z AUTO 12005KT 7SM OVC002 18/17 A3002 230 96 600 120/05 RMK AO2 $
63870K0J4 0J420160414060510104/14/16 06:05:31  5-MIN K0J4 141105Z AUTO 12004KT 7SM OVC002 18/17 A3002 230 96 600 120/04 RMK AO2 $
63870K0J4 0J420160414061010104/14/16 06:10:31  5-MIN K0J4 141110Z AUTO 11004KT 8SM OVC002 18/17 A3002 230 96 600 110/04 RMK AO2 $
63870K0J4 0J420160414061510104/14/16 06:15:31  5-MIN K0J4 141115Z AUTO VRB03KT 8SM OVC002 18/17 A3002 230 96 600 VRB/03 RMK AO2 $
63870K0J4 0J420160414062010104/14/16 06:20:31  5-MIN K0J4 141120Z AUTO 11004KT 9SM OVC002 18/17 A3002 230 96 600 110/04 RMK AO2 $
63870K0J4 0J420160414062510104/14/16 06:25:31  5-MIN K0J4 141125Z AUTO VRB06KT 9SM OVC002 18/17 A3002 230 93 600 VRB/06 RMK AO2 $
63870K0J4 0J420160414063010204/14/16 06:30:31  5-MIN K0J4 141130Z AUTO 13006KT 10SM OVC002 18/17 A3002 220 96 600 130/06 RMK AO2 $
63870K0J4 0J420160414063510104/14/16 06:35:31  5-MIN K0J4 141135Z AUTO 13004KT 9SM OVC002 18/17 A3003 220 96 600 130/04 RMK AO2 $
63870K0J4 0J420160414064010104/14/16 06:40:31  5-MIN K0J4 141140Z AUTO 13003KT 8SM OVC002 18/17 A3003 220 96 600 130/03 RMK AO2 $
63870K0J4 0J420160414064510104/14/16 06:45:31  5-MIN K0J4 141145Z AUTO 12003KT 8SM OVC002 18/17 A3003 210 96 600 120/03 RMK AO2 $
63870K0J4 0J420160414065010104/14/16 06:50:31  5-MIN K0J4 141150Z AUTO VRB04KT 8SM OVC002 18/17 A3003 210 96 600 VRB/04 RMK AO2 $
63870K0J4 0J420160414065514804/14/16 06:55:31  5-MIN K0J4 141155Z AUTO 13003KT 8SM OVC002 18/17 A3004 210 96 600 130/03 RMK AO2 SLP168 60000 70062 T01780172 10183 20178 56010 $
63870K0J4 0J420160414070010104/14/16 07:00:31  5-MIN K0J4 141200Z AUTO 14003KT 7SM OVC002 18/17 A3004 210 96 600 140/03 RMK AO2 $
63870K0J4 0J420160414070510404/14/16 07:05:31  5-MIN K0J4 141205Z AUTO 13005KT 6SM BR OVC002 18/17 A3004 210 96 600 130/05 RMK AO2 $
63870K0J4 0J420160414071010404/14/16 07:10:31  5-MIN K0J4 141210Z AUTO 16006KT 6SM BR OVC002 18/17 A3004 200 96 600 160/06 RMK AO2 $
63870K0J4 0J420160414071510104/14/16 07:15:31  5-MIN K0J4 141215Z AUTO 14006KT 8SM OVC002 18/17 A3004 200 96 600 140/06 RMK AO2 $
63870K0J4 0J420160414072010104/14/16 07:20:31  5-MIN K0J4 141220Z AUTO 16004KT 9SM OVC002 18/17 A3004 200 93 600 160/04 RMK AO2 $
63870K0J4 0J420160414072510204/14/16 07:25:31  5-MIN K0J4 141225Z AUTO 14005KT 10SM OVC002 18/17 A3004 200 96 600 140/05 RMK AO2 $
63870K0J4 0J420160414073010104/14/16 07:30:31  5-MIN K0J4 141230Z AUTO 14003KT 9SM OVC002 18/17 A3004 200 96 600 140/03 RMK AO2 $
63870K0J4 0J420160414073510104/14/16 07:35:31  5-MIN K0J4 141235Z AUTO 14006KT 9SM OVC002 18/17 A3004 200 96 600 140/06 RMK AO2 $
63870K0J4 0J420160414074010104/14/16 07:40:31  5-MIN K0J4 141240Z AUTO 14004KT 9SM OVC002 18/17 A3004 200 96 600 140/04 RMK AO2 $
63870K0J4 0J420160414074510104/14/16 07:45:31  5-MIN K0J4 141245Z AUTO 15006KT 9SM OVC002 18/17 A3004 210 93 600 150/06 RMK AO2 $
63870K0J4 0J420160414075011704/14/16 07:50:31  5-MIN K0J4 141250Z AUTO 14005KT 7SM -RA OVC002 18/17 A3004 210 96 600 140/05 RMK AO2 RAB46 P0000 $
63870K0J4 0J420160414075513704/14/16 07:55:31  5-MIN K0J4 141255Z AUTO 14006KT 6SM -RA BR OVC002 18/17 A3004 210 93 600 140/06 RMK AO2 RAB46 SLP169 P0001 T01780167 $
63870K0J4 0J420160414080011404/14/16 08:00:31  5-MIN K0J4 141300Z AUTO 14006KT 5SM -RA BR OVC002 18/17 A3004 210 93 600 140/06 RMK AO2 P0000 $
63870K0J4 0J420160414080511404/14/16 08:05:31  5-MIN K0J4 141305Z AUTO 14006KT 5SM -RA BR OVC002 18/17 A3003 210 93 600 140/06 RMK AO2 P0000 $
63870K0J4 0J420160414081011404/14/16 08:10:31  5-MIN K0J4 141310Z AUTO VRB05KT 5SM -RA BR OVC002 18/17 A3003 210 93 600 VRB/05 RMK AO2 P0000 $
63870K0J4 0J420160414081511404/14/16 08:15:31  5-MIN K0J4 141315Z AUTO 12005KT 5SM -RA BR OVC002 18/17 A3004 210 96 600 120/05 RMK AO2 P0001 $
63870K0J4 0J420160414082011404/14/16 08:20:31  5-MIN K0J4 141320Z AUTO 14005KT 6SM -RA BR OVC002 18/17 A3003 210 96 600 140/05 RMK AO2 P0001 $
63870K0J4 0J420160414082511404/14/16 08:25:31  5-MIN K0J4 141325Z AUTO 13006KT 6SM -RA BR OVC002 18/17 A3004 210 96 600 130/06 RMK AO2 P0001 $
63870K0J4 0J420160414083011404/14/16 08:30:31  5-MIN K0J4 141330Z AUTO 15004KT 6SM -RA BR OVC002 18/17 A3005 200 96 600 150/04 RMK AO2 P0001 $
63870K0J4 0J420160414083511204/14/16 08:35:31  5-MIN K0J4 141335Z AUTO 14003KT 5SM -RA BR OVC002 18/17 A3005 200 96 600 140/03 RMK AO2 P0001
63870K0J4 0J420160414084011104/14/16 08:40:31  5-MIN K0J4 141340Z AUTO 13005KT 3SM RA BR OVC002 18/17 A3004 200 96 600 130/05 RMK AO2 P0003
63870K0J4 0J420160414084511604/14/16 08:45:31  5-MIN K0J4 141345Z AUTO VRB03KT 1 3/4SM +RA BR OVC002 18/17 A3005 200 93 600 VRB/03 RMK AO2 P0006
63870K0J4 0J420160414085011104/14/16 08:50:31  5-MIN K0J4 141350Z AUTO 11003KT 2SM RA BR OVC002 17/17 A3006 190 96 500 110/03 RMK AO2 P0007
63870K0J4 0J420160414085511204/14/16 08:55:31  5-MIN K0J4 141355Z AUTO VRB04KT 3SM -RA BR OVC002 17/17 A3006 190 96 500 VRB/04 RMK AO2 P0007
63870K0J4 0J420160414090011204/14/16 09:00:31  5-MIN K0J4 141400Z AUTO VRB03KT 5SM -RA BR OVC002 17/17 A3006 190 96 500 VRB/03 RMK AO2 P0000
63870K0J4 0J420160414090511204/14/16 09:05:31  5-MIN K0J4 141405Z AUTO 12005KT 6SM -RA BR OVC002 17/17 A3006 190 96 500 120/05 RMK AO2 P0001
63870K0J4 0J420160414091011204/14/16 09:10:31  5-MIN K0J4 141410Z AUTO 12004KT 6SM -RA BR OVC002 17/17 A3006 180 96 500 120/04 RMK AO2 P0001
63870K0J4 0J420160414091510904/14/16 09:15:31  5-MIN K0J4 141415Z AUTO VRB04KT 7SM -RA OVC002 17/17 A3007 180 96 500 VRB/04 RMK AO2 P0001
63870K0J4 0J420160414092010904/14/16 09:20:31  5-MIN K0J4 141420Z AUTO VRB03KT 7SM -RA OVC004 17/17 A3007 180 96 500 VRB/03 RMK AO2 P0001
63870K0J4 0J420160414092511104/14/16 09:25:31  5-MIN K0J4 141425Z AUTO 11004KT 5SM RA BR OVC004 17/17 A3007 180 96 500 110/04 RMK AO2 P0002
63870K0J4 0J420160414093011104/14/16 09:30:31  5-MIN K0J4 141430Z AUTO 08004KT 3SM RA BR OVC004 17/17 A3007 170 96 500 080/04 RMK AO2 P0004
63870K0J4 0J420160414093511504/14/16 09:35:31  5-MIN K0J4 141435Z AUTO 06007KT 2 1/2SM RA BR OVC004 17/17 A3008 170 96 500 060/07 RMK AO2 P0005
63870K0J4 0J420160414094011204/14/16 09:40:31  5-MIN K0J4 141440Z AUTO 05006KT 3SM -RA BR OVC004 17/17 A3008 170 96 500 050/06 RMK AO2 P0005
63870K0J4 0J420160414094511104/14/16 09:45:31  5-MIN K0J4 141445Z AUTO 05006KT 4SM RA BR OVC004 17/16 A3008 170 93 500 050/06 RMK AO2 P0006
63870K0J4 0J420160414095011204/14/16 09:50:31  5-MIN K0J4 141450Z AUTO 05008KT 3SM +RA BR OVC004 17/16 A3009 160 96 400 050/08 RMK AO2 P0009
63870K0J4 0J420160414095515304/14/16 09:55:31  5-MIN K0J4 141455Z AUTO 05008KT 3SM +RA BR OVC002 17/16 A3008 160 96 400 050/08 RMK AO2 CIG 002V006 SLP185 P0011 60019 T01670161 53006
63870K0J4 0J420160414100012804/14/16 10:00:31  5-MIN K0J4 141500Z AUTO 06008KT 2 1/2SM +RA BR OVC002 17/16 A3009 160 93 400 060/08 RMK AO2 CIG 002V008 P0000
63870K0J4 0J420160414100512304/14/16 10:05:31  5-MIN K0J4 141505Z AUTO 07012KT 2 1/2SM +RA BR BKN004 OVC009 16/16 A3008 170 96 400 070/12 RMK AO2 P0002
63870K0J4 0J420160414101013004/14/16 10:10:31  5-MIN K0J4 141510Z AUTO 07009KT 2 1/2SM +RA BR BKN004 BKN008 OVC011 16/15 A3008 170 93 400 070/09 RMK AO2 P0004
63870K0J4 0J420160414101513504/14/16 10:15:31  5-MIN K0J4 141515Z AUTO 07008G17KT 2 1/2SM RA BR SCT004 BKN011 OVC017 16/16 A3009 160 96 400 070/08G17 RMK AO2 P0005
63870K0J4 0J420160414102013104/14/16 10:20:31  5-MIN K0J4 141520Z AUTO 07010G17KT 3SM RA BR SCT004 BKN009 OVC017 16/16 A3009 160 96 400 070/10G17 RMK AO2 P0005
63870K0J4 0J420160414102512604/14/16 10:25:31  5-MIN K0J4 141525Z AUTO 07010KT 4SM -RA BR BKN004 BKN009 OVC017 16/16 A3010 150 96 400 070/10 RMK AO2 P0006
63870K0J4 0J420160414103012504/14/16 10:30:31  5-MIN K0J4 141530Z AUTO 06009KT 4SM RA BR BKN004 BKN011 OVC017 16/16 A3010 150 96 400 060/09 RMK AO2 P0007
63870K0J4 0J420160414103512504/14/16 10:35:31  5-MIN K0J4 141535Z AUTO 07009KT 4SM RA BR BKN004 BKN011 OVC017 16/15 A3010 150 93 400 070/09 RMK AO2 P0007
63870K0J4 0J420160414104011904/14/16 10:40:31  5-MIN K0J4 141540Z AUTO 08007KT 5SM -RA BR BKN004 OVC011 16/15 A3010 150 93 400 080/07 RMK AO2 P0008
63870K0J4 0J420160414104512304/14/16 10:45:31  5-MIN K0J4 141545Z AUTO 08009KT 8SM -RA BKN004 BKN008 OVC015 16/15 A3010 150 93 400 080/09 RMK AO2 P0008
63870K0J4 0J420160414105012204/14/16 10:50:31  5-MIN K0J4 141550Z AUTO 08009KT 10SM -RA OVC006 16/15 A3009 160 93 400 080/09 RMK AO2 CIG 003V010 P0008
63870K0J4 0J420160414105514104/14/16 10:55:31  5-MIN K0J4 141555Z AUTO 08007KT 10SM OVC006 16/15 A3009 160 93 400 080/07 RMK AO2 RAE55 CIG 003V010 SLP188 P0008 T01610150
63870K0J4 0J420160414110011204/14/16 11:00:31  5-MIN K0J4 141600Z AUTO 08008KT 10SM OVC006 16/15 A3010 150 93 400 080/08 RMK AO2 CIG 004V010
63870K0J4 0J420160414110512804/14/16 11:05:31  5-MIN K0J4 141605Z AUTO 06007KT 10SM -RA OVC006 16/15 A3010 150 93 400 060/07 RMK AO2 RAB04 CIG 004V010 P0000
63870K0J4 0J420160414111012804/14/16 11:10:31  5-MIN K0J4 141610Z AUTO 09008KT 10SM -RA OVC006 16/15 A3010 150 96 300 090/08 RMK AO2 RAB04 CIG 004V010 P0000
63870K0J4 0J420160414111512704/14/16 11:15:31  5-MIN K0J4 141615Z AUTO 07009KT 9SM -RA OVC006 16/15 A3010 150 96 300 070/09 RMK AO2 RAB04 CIG 004V008 P0000
63870K0J4 0J420160414112012704/14/16 11:20:31  5-MIN K0J4 141620Z AUTO 08006KT 7SM -RA OVC006 16/15 A3010 150 96 300 080/06 RMK AO2 RAB04 CIG 004V008 P0001
63870K0J4 0J420160414112513204/14/16 11:25:31  5-MIN K0J4 141625Z AUTO 07007KT 6SM -RA BR OVC006 16/14 A3010 150 93 300 070/07 RMK AO2 RAB04 CIG 004V011 P0001 $
63870K0J4 0J420160414113013904/14/16 11:30:31  5-MIN K0J4 141630Z AUTO 07009KT 6SM -RA BR BKN006 OVC010 16/15 A3010 150 96 300 070/09 RMK AO2 RAB04 CIG 004V008 P0002 $
63870K0J4 0J420160414113513604/14/16 11:35:31  5-MIN K0J4 141635Z AUTO 07009KT 7SM -RA BKN006 OVC010 16/14 A3010 150 93 300 070/09 RMK AO2 RAB04 CIG 004V008 P0002 $
63870K0J4 0J420160414114012904/14/16 11:40:31  5-MIN K0J4 141640Z AUTO 07010KT 8SM -RA OVC006 16/14 A3010 150 93 300 070/10 RMK AO2 RAB04 CIG 004V009 P0002 $
63870K0J4 0J420160414114513704/14/16 11:45:31  5-MIN K0J4 141645Z AUTO 07008KT 10SM -RA BKN006 OVC010 16/14 A3010 150 93 300 070/08 RMK AO2 RAB04 CIG 004V009 P0002 $
63870K0J4 0J420160414115013004/14/16 11:50:31  5-MIN K0J4 141650Z AUTO 08011KT 10SM -RA OVC006 16/14 A3009 160 93 300 080/11 RMK AO2 RAB04 CIG 004V010 P0002 $
63870K0J4 0J420160414115515404/14/16 11:55:31  5-MIN K0J4 141655Z AUTO 09008KT 10SM -RA BKN006 OVC013 16/14 A3009 160 93 300 090/08 RMK AO2 RAB04 CIG 004V010 SLP187 P0002 T01560144 $
63870K0J4 0J420160414120013704/14/16 12:00:31  5-MIN K0J4 141700Z AUTO 08011G17KT 10SM -RA BKN006 OVC013 16/14 A3009 160 93 300 080/11G17 RMK AO2 CIG 004V010 P0000 $
63870K0J4 0J420160414120512704/14/16 12:05:31  5-MIN K0J4 141705Z AUTO 09008G17KT 10SM SCT006 OVC013 15/14 A3009 160 93 200 090/08G17 RMK AO2 RAE05 P0000 $
63870K0J4 0J420160414121013104/14/16 12:10:31  5-MIN K0J4 141710Z AUTO 08008KT 10SM -RA BKN008 OVC013 15/14 A3008 170 96 200 080/08 RMK AO2 CIG 005V011 P0001 $
63870K0J4 0J420160414121511904/14/16 12:15:31  5-MIN K0J4 141715Z AUTO 10008KT 10SM -RA BKN008 OVC013 15/14 A3008 170 96 200 100/08 RMK AO2 P0001 $
63870K0J4 0J420160414122012604/14/16 12:20:31  5-MIN K0J4 141720Z AUTO 10006KT 10SM -RA SCT006 BKN013 OVC023 16/14 A3008 170 93 300 100/06 RMK AO2 P0001 $
63870K0J4 0J420160414122512604/14/16 12:25:31  5-MIN K0J4 141725Z AUTO 10005KT 10SM -RA SCT006 BKN013 OVC023 16/14 A3008 170 93 300 100/05 RMK AO2 P0001 $
63870K0J4 0J420160414123012604/14/16 12:30:31  5-MIN K0J4 141730Z AUTO 12005KT 10SM -RA SCT009 BKN023 OVC032 16/14 A3008 170 93 300 120/05 RMK AO2 P0001 $
63870K0J4 0J420160414123512604/14/16 12:35:31  5-MIN K0J4 141735Z AUTO 12007KT 10SM -RA SCT007 BKN023 OVC095 16/14 A3008 170 93 300 120/07 RMK AO2 P0001 $
63870K0J4 0J420160414124012604/14/16 12:40:31  5-MIN K0J4 141740Z AUTO 11007KT 10SM -RA SCT007 BKN023 OVC100 16/14 A3008 170 93 300 110/07 RMK AO2 P0001 $
63870K0J4 0J420160414124512604/14/16 12:45:31  5-MIN K0J4 141745Z AUTO 12006KT 10SM -RA FEW007 BKN036 OVC095 16/14 A3007 180 93 300 120/06 RMK AO2 P0001 $
63870K0J4 0J420160414125012604/14/16 12:50:31  5-MIN K0J4 141750Z AUTO 12007KT 10SM -RA FEW007 BKN046 OVC095 16/14 A3007 180 93 300 120/07 RMK AO2 P0001 $
63870K0J4 0J420160414125516704/14/16 12:55:31  5-MIN K0J4 141755Z AUTO 12005KT 10SM -RA SCT007 BKN050 OVC095 16/14 A3006 180 93 300 120/05 RMK AO2 SLP178 P0001 60032 T01560144 10178 20150 53017 $
63870K0J4 0J420160414130012604/14/16 13:00:31  5-MIN K0J4 141800Z AUTO 12006KT 10SM -RA SCT007 SCT050 OVC095 16/14 A3006 190 93 300 120/06 RMK AO2 P0000 $
63870K0J4 0J420160414130512604/14/16 13:05:31  5-MIN K0J4 141805Z AUTO 12006KT 10SM -RA SCT005 BKN055 OVC095 16/14 A3006 190 93 300 120/06 RMK AO2 P0000 $
63870K0J4 0J420160414131012604/14/16 13:10:31  5-MIN K0J4 141810Z AUTO 11007KT 10SM -RA SCT005 BKN055 OVC095 16/14 A3005 200 93 300 110/07 RMK AO2 P0000 $
63870K0J4 0J420160414131512604/14/16 13:15:31  5-MIN K0J4 141815Z AUTO 10007KT 10SM -RA BKN005 BKN055 OVC095 16/14 A3005 190 93 300 100/07 RMK AO2 P0001 $
63870K0J4 0J420160414132012604/14/16 13:20:31  5-MIN K0J4 141820Z AUTO 11004KT 10SM -RA BKN005 BKN055 OVC095 16/14 A3006 190 93 300 110/04 RMK AO2 P0001 $
63870K0J4 0J420160414132511704/14/16 13:25:31  5-MIN K0J4 141825Z AUTO 09005KT 8SM RA BKN005 OVC090 16/14 A3006 180 93 300 090/05 RMK AO2 P0001 $
63870K0J4 0J420160414133011104/14/16 13:30:31  5-MIN K0J4 141830Z AUTO 12005KT 7SM -RA OVC005 16/14 A3007 180 93 300 120/05 RMK AO2 P0002 $
63870K0J4 0J420160414133511104/14/16 13:35:31  5-MIN K0J4 141835Z AUTO 13006KT 9SM -RA OVC005 16/14 A3007 180 93 300 130/06 RMK AO2 P0002 $
63870K0J4 0J420160414134011204/14/16 13:40:31  5-MIN K0J4 141840Z AUTO VRB06KT 10SM -RA OVC005 15/14 A3007 180 96 300 VRB/06 RMK AO2 P0002 $
63870K0J4 0J420160414134512404/14/16 13:45:31  5-MIN K0J4 141845Z AUTO VRB06KT 10SM -RA OVC005 16/14 A3007 180 93 300 VRB/06 RMK AO2 CIG 003V009 P0002 $
63870K0J4 0J420160414135012304/14/16 13:50:31  5-MIN K0J4 141850Z AUTO 12006KT 8SM -RA OVC005 16/14 A3007 180 93 300 120/06 RMK AO2 CIG 003V009 P0002 $
63870K0J4 0J420160414135514004/14/16 13:55:31  5-MIN K0J4 141855Z AUTO 12004KT 8SM -RA OVC005 16/14 A3007 170 93 300 120/04 RMK AO2 CIG 004V009 SLP181 P0003 T01560144 $
63870K0J4 0J420160414140012304/14/16 14:00:31  5-MIN K0J4 141900Z AUTO 11005KT 8SM -RA OVC005 15/14 A3007 180 96 300 110/05 RMK AO2 CIG 004V009 P0000 $
63870K0J4 0J420160414140512304/14/16 14:05:31  5-MIN K0J4 141905Z AUTO 12005KT 9SM -RA OVC005 16/14 A3007 180 93 300 120/05 RMK AO2 CIG 003V009 P0000 $
63870K0J4 0J420160414141012304/14/16 14:10:31  5-MIN K0J4 141910Z AUTO 12008KT 9SM -RA OVC005 16/14 A3006 190 93 300 120/08 RMK AO2 CIG 003V009 P0001 $
63870K0J4 0J420160414141512204/14/16 14:15:31  5-MIN K0J4 141915Z AUTO 13004KT 7SM RA OVC005 16/14 A3006 190 93 300 130/04 RMK AO2 CIG 003V009 P0001 $
63870K0J4 0J420160414142012004/14/16 14:20:31  5-MIN K0J4 141920Z AUTO VRB06KT 5SM RA BR BKN005 OVC010 16/14 A3005 200 93 300 VRB/06 RMK AO2 P0002 $
63870K0J4 0J420160414142512104/14/16 14:25:31  5-MIN K0J4 141925Z AUTO 11005KT 5SM -RA BR BKN005 OVC010 16/14 A3005 190 93 300 110/05 RMK AO2 P0003 $
63870K0J4 0J420160414143011804/14/16 14:30:31  5-MIN K0J4 141930Z AUTO 10006KT 8SM -RA BKN005 OVC010 16/14 A3005 190 93 300 100/06 RMK AO2 P0003 $
63870K0J4 0J420160414143511204/14/16 14:35:31  5-MIN K0J4 141935Z AUTO 09005KT 10SM -RA OVC005 16/14 A3005 200 93 300 090/05 RMK AO2 P0003 $
63870K0J4 0J420160414144011204/14/16 14:40:31  5-MIN K0J4 141940Z AUTO VRB04KT 10SM -RA OVC005 16/14 A3005 200 93 300 VRB/04 RMK AO2 P0003 $
63870K0J4 0J420160414144511204/14/16 14:45:31  5-MIN K0J4 141945Z AUTO 09005KT 10SM -RA OVC005 16/14 A3005 200 93 300 090/05 RMK AO2 P0003 $
63870K0J4 0J420160414145012404/14/16 14:50:31  5-MIN K0J4 141950Z AUTO 09007KT 10SM -RA OVC005 16/14 A3005 190 93 300 090/07 RMK AO2 CIG 003V008 P0003 $
63870K0J4 0J420160414145512904/14/16 14:55:31  5-MIN K0J4 141955Z AUTO 09005KT 10SM -RA OVC005 16/14 A3005 190 93 300 090/05 RMK AO2 SLP174 P0003 T01560144 $
63870K0J4 0J420160414150011204/14/16 15:00:31  5-MIN K0J4 142000Z AUTO 08005KT 10SM -RA OVC005 16/14 A3005 190 93 300 080/05 RMK AO2 P0000 $
63870K0J4 0J420160414150512404/14/16 15:05:31  5-MIN K0J4 142005Z AUTO 07007KT 10SM -RA OVC005 16/14 A3005 190 93 300 070/07 RMK AO2 CIG 003V007 P0000 $
63870K0J4 0J420160414151012404/14/16 15:10:31  5-MIN K0J4 142010Z AUTO 07005KT 10SM -RA OVC005 16/14 A3005 190 93 300 070/05 RMK AO2 CIG 003V009 P0001 $
63870K0J4 0J420160414151512404/14/16 15:15:31  5-MIN K0J4 142015Z AUTO 08006KT 10SM -RA OVC005 16/14 A3005 200 93 300 080/06 RMK AO2 CIG 003V009 P0001 $
63870K0J4 0J420160414152012204/14/16 15:20:31  5-MIN K0J4 142020Z AUTO 10005KT 8SM RA OVC005 16/14 A3004 200 93 400 100/05 RMK AO2 CIG 003V009 P0002 $
63870K0J4 0J420160414152512504/14/16 15:25:31  5-MIN K0J4 142025Z AUTO 10006KT 5SM RA BR OVC005 16/15 A3004 210 96 400 100/06 RMK AO2 CIG 003V008 P0002 $
63870K0J4 0J420160414153012604/14/16 15:30:31  5-MIN K0J4 142030Z AUTO 08006KT 5SM -RA BR OVC005 16/15 A3003 210 96 400 080/06 RMK AO2 CIG 003V009 P0003 $
63870K0J4 0J420160414153512304/14/16 15:35:31  5-MIN K0J4 142035Z AUTO 09004KT 7SM -RA OVC005 16/15 A3003 210 96 400 090/04 RMK AO2 CIG 003V009 P0003 $
63870K0J4 0J420160414154012304/14/16 15:40:31  5-MIN K0J4 142040Z AUTO 11005KT 7SM -RA OVC005 16/15 A3003 220 96 400 110/05 RMK AO2 CIG 003V009 P0004 $
63870K0J4 0J420160414154512304/14/16 15:45:31  5-MIN K0J4 142045Z AUTO 11004KT 7SM -RA OVC003 16/15 A3003 220 96 400 110/04 RMK AO2 CIG 002V009 P0004 $
63870K0J4 0J420160414155012304/14/16 15:50:31  5-MIN K0J4 142050Z AUTO VRB04KT 8SM -RA OVC003 16/15 A3002 220 96 400 VRB/04 RMK AO2 CIG 002V006 P0004 $
63870K0J4 0J420160414155515204/14/16 15:55:31  5-MIN K0J4 142055Z AUTO 09005KT 9SM -RA OVC003 16/15 A3003 210 96 400 090/05 RMK AO2 CIG 002V008 SLP166 P0004 60010 T01560150 58008 $
63870K0J4 0J420160414160011204/14/16 16:00:31  5-MIN K0J4 142100Z AUTO 06007KT 10SM -RA OVC003 16/15 A3003 210 96 400 060/07 RMK AO2 P0001 $
63870K0J4 0J420160414160511204/14/16 16:05:31  5-MIN K0J4 142105Z AUTO 07008KT 10SM -RA OVC003 16/15 A3003 210 96 400 070/08 RMK AO2 P0001 $
63870K0J4 0J420160414161011204/14/16 16:10:31  5-MIN K0J4 142110Z AUTO 08006KT 10SM -RA OVC003 16/15 A3003 210 96 400 080/06 RMK AO2 P0001 $
63870K0J4 0J420160414161511204/14/16 16:15:31  5-MIN K0J4 142115Z AUTO 07006KT 10SM -RA OVC003 16/15 A3003 210 96 400 070/06 RMK AO2 P0001 $
63870K0J4 0J420160414162011204/14/16 16:20:31  5-MIN K0J4 142120Z AUTO 07008KT 10SM -RA OVC003 16/15 A3004 210 96 400 070/08 RMK AO2 P0001 $
63870K0J4 0J420160414162511204/14/16 16:25:31  5-MIN K0J4 142125Z AUTO 09007KT 10SM -RA OVC003 16/15 A3004 210 96 400 090/07 RMK AO2 P0001 $
63870K0J4 0J420160414163011204/14/16 16:30:31  5-MIN K0J4 142130Z AUTO 09005KT 10SM -RA OVC003 16/15 A3004 210 96 400 090/05 RMK AO2 P0001 $
63870K0J4 0J420160414163511204/14/16 16:35:31  5-MIN K0J4 142135Z AUTO 09005KT 10SM -RA OVC003 16/15 A3003 210 96 400 090/05 RMK AO2 P0001 $
63870K0J4 0J420160414164012404/14/16 16:40:31  5-MIN K0J4 142140Z AUTO 08007KT 10SM -RA OVC003 16/15 A3004 210 96 400 080/07 RMK AO2 CIG 003V007 P0001 $
63870K0J4 0J420160414164511804/14/16 16:45:31  5-MIN K0J4 142145Z AUTO 08008KT 9SM -RA BKN005 OVC010 16/15 A3003 210 96 400 080/08 RMK AO2 P0001 $
63870K0J4 0J420160414165011804/14/16 16:50:31  5-MIN K0J4 142150Z AUTO 06008KT 9SM -RA BKN005 OVC012 16/15 A3004 210 93 400 060/08 RMK AO2 P0002 $
63870K0J4 0J420160414165513604/14/16 16:55:31  5-MIN K0J4 142155Z AUTO 07009KT 10SM -RA BKN005 OVC010 16/15 A3003 210 93 400 070/09 RMK AO2 SLP167 P0002 T01610150 $
63870K0J4 0J420160414170011904/14/16 17:00:31  5-MIN K0J4 142200Z AUTO 08007KT 10SM -RA BKN005 OVC010 16/15 A3003 220 93 400 080/07 RMK AO2 P0000 $
63870K0J4 0J420160414170511904/14/16 17:05:31  5-MIN K0J4 142205Z AUTO 08007KT 10SM -RA BKN005 OVC012 16/15 A3003 210 93 400 080/07 RMK AO2 P0000 $
63870K0J4 0J420160414171011904/14/16 17:10:31  5-MIN K0J4 142210Z AUTO 08006KT 10SM -RA BKN005 OVC012 16/15 A3003 210 93 400 080/06 RMK AO2 P0000 $
63870K0J4 0J420160414171513104/14/16 17:15:31  5-MIN K0J4 142215Z AUTO 10006KT 10SM -RA BKN005 OVC012 16/15 A3003 210 93 400 100/06 RMK AO2 CIG 003V008 P0000 $
63870K0J4 0J420160414172013104/14/16 17:20:31  5-MIN K0J4 142220Z AUTO 11007KT 10SM -RA BKN005 OVC012 16/15 A3003 210 96 400 110/07 RMK AO2 CIG 003V008 P0000 $
63870K0J4 0J420160414172513104/14/16 17:25:31  5-MIN K0J4 142225Z AUTO 09007KT 10SM -RA BKN005 OVC010 16/15 A3003 220 96 400 090/07 RMK AO2 CIG 003V008 P0000 $
63870K0J4 0J420160414173012404/14/16 17:30:31  5-MIN K0J4 142230Z AUTO 08008KT 10SM -RA OVC007 16/14 A3003 220 93 400 080/08 RMK AO2 CIG 003V012 P0000 $
63870K0J4 0J420160414173512604/14/16 17:35:31  5-MIN K0J4 142235Z AUTO 07008KT 10SM OVC007 16/14 A3003 220 93 400 070/08 RMK AO2 RAE31 CIG 003V010 P0000 $
63870K0J4 0J420160414174012604/14/16 17:40:31  5-MIN K0J4 142240Z AUTO 08008KT 10SM OVC007 16/14 A3003 220 93 400 080/08 RMK AO2 RAE31 CIG 004V010 P0000 $
63870K0J4 0J420160414174512604/14/16 17:45:31  5-MIN K0J4 142245Z AUTO 08009KT 10SM OVC007 16/14 A3003 220 93 400 080/09 RMK AO2 RAE31 CIG 004V010 P0000 $
63870K0J4 0J420160414175012604/14/16 17:50:31  5-MIN K0J4 142250Z AUTO 08007KT 10SM OVC007 16/14 A3002 220 93 400 080/07 RMK AO2 RAE31 CIG 004V010 P0000 $
63870K0J4 0J420160414175514304/14/16 17:55:31  5-MIN K0J4 142255Z AUTO 09009KT 10SM OVC007 16/14 A3002 220 93 400 090/09 RMK AO2 RAE31 CIG 004V009 SLP164 P0000 T01560144 $
63870K0J4 0J420160414180010204/14/16 18:00:31  5-MIN K0J4 142300Z AUTO 07009KT 10SM OVC005 16/14 A3002 230 93 400 070/09 RMK AO2 $
63870K0J4 0J420160414180510204/14/16 18:05:31  5-MIN K0J4 142305Z AUTO 08009KT 10SM OVC005 16/14 A3002 230 93 400 080/09 RMK AO2 $
63870K0J4 0J420160414181010204/14/16 18:10:31  5-MIN K0J4 142310Z AUTO 09007KT 10SM OVC005 16/14 A3002 220 93 400 090/07 RMK AO2 $
63870K0J4 0J420160414181511404/14/16 18:15:31  5-MIN K0J4 142315Z AUTO 09008KT 10SM OVC005 16/14 A3002 220 93 400 090/08 RMK AO2 CIG 004V009 $
63870K0J4 0J420160414182011404/14/16 18:20:31  5-MIN K0J4 142320Z AUTO 08007KT 10SM OVC007 16/14 A3002 230 93 400 080/07 RMK AO2 CIG 004V010 $
63870K0J4 0J420160414182511404/14/16 18:25:31  5-MIN K0J4 142325Z AUTO 09008KT 10SM OVC007 16/14 A3001 230 93 400 090/08 RMK AO2 CIG 004V011 $
63870K0J4 0J420160414183011404/14/16 18:30:31  5-MIN K0J4 142330Z AUTO 08007KT 10SM OVC007 16/14 A3001 230 93 400 080/07 RMK AO2 CIG 004V011 $
63870K0J4 0J420160414183511404/14/16 18:35:31  5-MIN K0J4 142335Z AUTO 07007KT 10SM OVC007 16/14 A3001 230 93 400 070/07 RMK AO2 CIG 004V011 $
63870K0J4 0J420160414184011404/14/16 18:40:31  5-MIN K0J4 142340Z AUTO 07007KT 10SM OVC007 16/14 A3002 230 93 400 070/07 RMK AO2 CIG 005V011 $
63870K0J4 0J420160414184511404/14/16 18:45:31  5-MIN K0J4 142345Z AUTO 07006KT 10SM OVC007 16/14 A3002 230 93 400 070/06 RMK AO2 CIG 006V011 $
63870K0J4 0J420160414185011404/14/16 18:50:31  5-MIN K0J4 142350Z AUTO 07006KT 10SM OVC007 16/14 A3002 230 93 400 070/06 RMK AO2 CIG 006V011 $
63870K0J4 0J420160414185515504/14/16 18:55:31  5-MIN K0J4 142355Z AUTO 08008KT 10SM OVC007 16/14 A3001 230 93 400 080/08 RMK AO2 CIG 006V011 SLP161 60012 T01560144 10161 20150 58010 $
63870K0J4 0J420160414190011404/14/16 19:00:31  5-MIN K0J4 150000Z AUTO 09007KT 10SM OVC007 16/14 A3001 230 93 400 090/07 RMK AO2 CIG 005V011 $
63870K0J4 0J420160414190511404/14/16 19:05:31  5-MIN K0J4 150005Z AUTO 07007KT 10SM OVC007 16/14 A3001 230 93 400 070/07 RMK AO2 CIG 005V011 $
63870K0J4 0J420160414191011404/14/16 19:10:31  5-MIN K0J4 150010Z AUTO 07008KT 10SM OVC007 16/14 A3002 230 93 400 070/08 RMK AO2 CIG 005V011 $
63870K0J4 0J420160414191511404/14/16 19:15:31  5-MIN K0J4 150015Z AUTO 07007KT 10SM OVC007 16/14 A3002 220 93 400 070/07 RMK AO2 CIG 005V011 $
63870K0J4 0J420160414192012104/14/16 19:20:31  5-MIN K0J4 150020Z AUTO 06006KT 10SM BKN007 OVC010 16/14 A3003 220 93 400 060/06 RMK AO2 CIG 004V008 $
63870K0J4 0J420160414192511404/14/16 19:25:31  5-MIN K0J4 150025Z AUTO 06009KT 10SM OVC005 16/14 A3003 220 93 400 060/09 RMK AO2 CIG 004V008 $
63870K0J4 0J420160414193011404/14/16 19:30:31  5-MIN K0J4 150030Z AUTO 06008KT 10SM OVC005 16/14 A3003 220 93 400 060/08 RMK AO2 CIG 004V008 $
63870K0J4 0J420160414193510204/14/16 19:35:31  5-MIN K0J4 150035Z AUTO 05008KT 10SM OVC005 16/14 A3003 220 93 400 050/08 RMK AO2 $
63870K0J4 0J420160414194010204/14/16 19:40:31  5-MIN K0J4 150040Z AUTO 06008KT 10SM OVC005 16/14 A3003 220 93 400 060/08 RMK AO2 $
63870K0J4 0J420160414194510204/14/16 19:45:31  5-MIN K0J4 150045Z AUTO 08011KT 10SM OVC005 16/14 A3003 220 93 400 080/11 RMK AO2 $
63870K0J4 0J420160414195010204/14/16 19:50:31  5-MIN K0J4 150050Z AUTO 07007KT 10SM OVC005 16/14 A3003 220 93 400 070/07 RMK AO2 $
63870K0J4 0J420160414195511904/14/16 19:55:31  5-MIN K0J4 150055Z AUTO 07009KT 10SM OVC005 16/14 A3003 220 93 400 070/09 RMK AO2 SLP166 T01560144 $
63870K0J4 0J420160414200010204/14/16 20:00:31  5-MIN K0J4 150100Z AUTO 08009KT 10SM OVC005 16/14 A3003 210 93 400 080/09 RMK AO2 $
63870K0J4 0J420160414200510204/14/16 20:05:31  5-MIN K0J4 150105Z AUTO 07009KT 10SM OVC005 16/14 A3003 210 93 400 070/09 RMK AO2 $
63870K0J4 0J420160414201010204/14/16 20:10:31  5-MIN K0J4 150110Z AUTO 06008KT 10SM OVC005 16/14 A3003 220 93 400 060/08 RMK AO2 $
63870K0J4 0J420160414201510204/14/16 20:15:31  5-MIN K0J4 150115Z AUTO 05008KT 10SM OVC005 16/14 A3003 220 93 400 050/08 RMK AO2 $
63870K0J4 0J420160414202010204/14/16 20:20:31  5-MIN K0J4 150120Z AUTO 07009KT 10SM OVC005 16/14 A3003 220 93 400 070/09 RMK AO2 $
63870K0J4 0J420160414202510204/14/16 20:25:31  5-MIN K0J4 150125Z AUTO 08008KT 10SM OVC005 16/14 A3003 220 93 400 080/08 RMK AO2 $
63870K0J4 0J420160414203010204/14/16 20:30:31  5-MIN K0J4 150130Z AUTO 07008KT 10SM OVC005 16/14 A3003 220 93 400 070/08 RMK AO2 $
63870K0J4 0J420160414203510204/14/16 20:35:31  5-MIN K0J4 150135Z AUTO 07008KT 10SM OVC005 15/14 A3003 220 96 300 070/08 RMK AO2 $
63870K0J4 0J420160414204010204/14/16 20:40:31  5-MIN K0J4 150140Z AUTO 07009KT 10SM OVC005 15/14 A3003 220 96 300 070/09 RMK AO2 $
63870K0J4 0J420160414204510204/14/16 20:45:31  5-MIN K0J4 150145Z AUTO 08006KT 10SM OVC005 15/14 A3003 220 96 300 080/06 RMK AO2 $
63870K0J4 0J420160414205010204/14/16 20:50:31  5-MIN K0J4 150150Z AUTO 08006KT 10SM OVC005 15/14 A3003 220 93 300 080/06 RMK AO2 $
63870K0J4 0J420160414205511904/14/16 20:55:31  5-MIN K0J4 150155Z AUTO 08010KT 10SM OVC005 15/14 A3003 220 93 300 080/10 RMK AO2 SLP165 T01500139 $
63870K0J4 0J420160414210010204/14/16 21:00:31  5-MIN K0J4 150200Z AUTO 07011KT 10SM OVC005 15/14 A3002 220 93 300 070/11 RMK AO2 $
63870K0J4 0J420160414210511404/14/16 21:05:31  5-MIN K0J4 150205Z AUTO 08010KT 10SM OVC005 15/14 A3003 220 93 300 080/10 RMK AO2 CIG 003V008 $
63870K0J4 0J420160414211010204/14/16 21:10:31  5-MIN K0J4 150210Z AUTO 07012KT 10SM OVC005 15/14 A3003 220 93 300 070/12 RMK AO2 $
63870K0J4 0J420160414211510204/14/16 21:15:31  5-MIN K0J4 150215Z AUTO 08011KT 10SM OVC005 15/14 A3003 210 93 300 080/11 RMK AO2 $
63870K0J4 0J420160414212010204/14/16 21:20:31  5-MIN K0J4 150220Z AUTO 07007KT 10SM OVC005 15/14 A3003 210 93 300 070/07 RMK AO2 $
63870K0J4 0J420160414212510804/14/16 21:25:31  5-MIN K0J4 150225Z AUTO 07010G15KT 10SM OVC005 15/14 A3004 210 93 300 070/10G15 RMK AO2 $
63870K0J4 0J420160414213010804/14/16 21:30:31  5-MIN K0J4 150230Z AUTO 07011G15KT 10SM OVC005 15/14 A3004 210 93 300 070/11G15 RMK AO2 $
63870K0J4 0J420160414213510204/14/16 21:35:31  5-MIN K0J4 150235Z AUTO 07010KT 10SM OVC005 15/14 A3004 210 93 300 070/10 RMK AO2 $
63870K0J4 0J420160414214010204/14/16 21:40:31  5-MIN K0J4 150240Z AUTO 07009KT 10SM OVC005 15/13 A3004 210 90 300 070/09 RMK AO2 $
63870K0J4 0J420160414214510204/14/16 21:45:31  5-MIN K0J4 150245Z AUTO 07010KT 10SM OVC005 14/13 A3004 210 93 200 070/10 RMK AO2 $
63870K0J4 0J420160414215010204/14/16 21:50:31  5-MIN K0J4 150250Z AUTO 08011KT 10SM OVC005 14/13 A3004 200 93 200 080/11 RMK AO2 $
63870K0J4 0J420160414215513104/14/16 21:55:31  5-MIN K0J4 150255Z AUTO 08012G18KT 10SM OVC005 14/13 A3004 200 93 200 080/12G18 RMK AO2 SLP170 T01440133 58006 $
63870K0J4 0J420160414220010804/14/16 22:00:31  5-MIN K0J4 150300Z AUTO 08011G18KT 10SM OVC005 14/13 A3004 200 93 200 080/11G18 RMK AO2 $
63870K0J4 0J420160414220510204/14/16 22:05:31  5-MIN K0J4 150305Z AUTO 07010KT 10SM OVC005 14/13 A3004 200 93 200 070/10 RMK AO2 $
63870K0J4 0J420160414221010804/14/16 22:10:31  5-MIN K0J4 150310Z AUTO 07010G17KT 10SM OVC005 14/13 A3004 200 93 200 070/10G17 RMK AO2 $
63870K0J4 0J420160414221510804/14/16 22:15:31  5-MIN K0J4 150315Z AUTO 08008G15KT 10SM OVC005 14/13 A3004 200 93 200 080/08G15 RMK AO2 $
63870K0J4 0J420160414222010204/14/16 22:20:31  5-MIN K0J4 150320Z AUTO 08010KT 10SM OVC005 14/13 A3004 200 93 200 080/10 RMK AO2 $
63870K0J4 0J420160414222511804/14/16 22:25:31  5-MIN K0J4 150325Z AUTO 09007KT 070V130 10SM OVC005 14/13 A3004 200 93 200 090/07 070V130 RMK AO2 $
63870K0J4 0J420160414223010204/14/16 22:30:31  5-MIN K0J4 150330Z AUTO 08007KT 10SM OVC005 14/13 A3004 200 93 200 080/07 RMK AO2 $
63870K0J4 0J420160414223510204/14/16 22:35:31  5-MIN K0J4 150335Z AUTO 07009KT 10SM OVC005 14/13 A3005 200 93 200 070/09 RMK AO2 $
63870K0J4 0J420160414224010204/14/16 22:40:31  5-MIN K0J4 150340Z AUTO 07007KT 10SM OVC005 14/13 A3005 200 93 200 070/07 RMK AO2 $
63870K0J4 0J420160414224510204/14/16 22:45:31  5-MIN K0J4 150345Z AUTO 07010KT 10SM OVC005 14/13 A3005 200 93 200 070/10 RMK AO2 $
63870K0J4 0J420160414225010204/14/16 22:50:31  5-MIN K0J4 150350Z AUTO 07009KT 10SM OVC005 14/13 A3004 200 93 200 070/09 RMK AO2 $
63870K0J4 0J420160414225511904/14/16 22:55:31  5-MIN K0J4 150355Z AUTO 08009KT 10SM OVC005 14/13 A3005 200 93 200 080/09 RMK AO2 SLP172 T01440133 $
63870K0J4 0J420160414230010204/14/16 23:00:31  5-MIN K0J4 150400Z AUTO 08008KT 10SM OVC005 14/13 A3005 200 93 200 080/08 RMK AO2 $
63870K0J4 0J420160414230510204/14/16 23:05:31  5-MIN K0J4 150405Z AUTO 07008KT 10SM OVC005 14/13 A3005 200 93 200 070/08 RMK AO2 $
63870K0J4 0J420160414231010204/14/16 23:10:31  5-MIN K0J4 150410Z AUTO 08007KT 10SM OVC005 14/13 A3005 200 93 200 080/07 RMK AO2 $
63870K0J4 0J420160414231510204/14/16 23:15:31  5-MIN K0J4 150415Z AUTO 08009KT 10SM OVC005 14/13 A3004 200 93 200 080/09 RMK AO2 $
63870K0J4 0J420160414232010804/14/16 23:20:31  5-MIN K0J4 150420Z AUTO 07009G15KT 10SM OVC005 14/13 A3004 210 93 200 070/09G15 RMK AO2 $
63870K0J4 0J420160414232510204/14/16 23:25:31  5-MIN K0J4 150425Z AUTO 09008KT 10SM OVC005 14/13 A3004 210 93 200 090/08 RMK AO2 $
63870K0J4 0J420160414233010204/14/16 23:30:31  5-MIN K0J4 150430Z AUTO 08007KT 10SM OVC005 14/13 A3004 210 93 200 080/07 RMK AO2 $
63870K0J4 0J420160414233510204/14/16 23:35:31  5-MIN K0J4 150435Z AUTO 08007KT 10SM OVC005 14/13 A3004 210 90 200 080/07 RMK AO2 $
63870K0J4 0J420160414234010804/14/16 23:40:31  5-MIN K0J4 150440Z AUTO 08009G15KT 10SM OVC005 14/13 A3004 210 90 200 080/09G15 RMK AO2 $
63870K0J4 0J420160414234510804/14/16 23:45:31  5-MIN K0J4 150445Z AUTO 09007G15KT 10SM OVC005 14/13 A3004 210 93 200 090/07G15 RMK AO2 $
63870K0J4 0J420160414235010204/14/16 23:50:31  5-MIN K0J4 150450Z AUTO 09009KT 10SM OVC005 14/13 A3004 210 93 200 090/09 RMK AO2 $
63870K0J4 0J420160414235513504/14/16 23:55:31  5-MIN K0J4 150455Z AUTO 08008G14KT 10SM OVC005 14/13 A3004 210 93 200 080/08G14 RMK AO2 SLP169 T01440133 401830139 $
63870K0J4 0J420160415000010804/15/16 00:00:31  5-MIN K0J4 150500Z AUTO 09008G14KT 10SM OVC005 14/13 A3004 210 93 200 090/08G14 RMK AO2 $
63870K0J4 0J420160415000510204/15/16 00:05:31  5-MIN K0J4 150505Z AUTO 09007KT 10SM OVC005 14/13 A3004 210 93 200 090/07 RMK AO2 $
63870K0J4 0J420160415001010204/15/16 00:10:31  5-MIN K0J4 150510Z AUTO 10006KT 10SM OVC005 14/13 A3004 210 93 200 100/06 RMK AO2 $
63870K0J4 0J420160415001510204/15/16 00:15:31  5-MIN K0J4 150515Z AUTO 08008KT 10SM OVC005 14/13 A3004 210 93 200 080/08 RMK AO2 $
63870K0J4 0J420160415002010204/15/16 00:20:31  5-MIN K0J4 150520Z AUTO 08008KT 10SM OVC005 14/13 A3004 210 90 200 080/08 RMK AO2 $
63870K0J4 0J420160415002510204/15/16 00:25:31  5-MIN K0J4 150525Z AUTO 08009KT 10SM OVC005 14/13 A3004 210 90 200 080/09 RMK AO2 $
63870K0J4 0J420160415003010204/15/16 00:30:31  5-MIN K0J4 150530Z AUTO 08007KT 10SM OVC005 14/13 A3004 210 90 200 080/07 RMK AO2 $
63870K0J4 0J420160415003510204/15/16 00:35:31  5-MIN K0J4 150535Z AUTO 08008KT 10SM OVC005 14/13 A3004 210 90 200 080/08 RMK AO2 $
63870K0J4 0J420160415004010204/15/16 00:40:31  5-MIN K0J4 150540Z AUTO 07009KT 10SM OVC005 14/13 A3003 210 90 200 070/09 RMK AO2 $
63870K0J4 0J420160415004510804/15/16 00:45:31  5-MIN K0J4 150545Z AUTO 07012G18KT 10SM OVC005 14/13 A3003 210 93 200 070/12G18 RMK AO2 $
63870K0J4 0J420160415005012004/15/16 00:50:31  5-MIN K0J4 150550Z AUTO 08010G18KT 10SM OVC005 14/13 A3003 210 93 200 080/10G18 RMK AO2 CIG 004V009 $
63870K0J4 0J420160415005514904/15/16 00:55:31  5-MIN K0J4 150555Z AUTO 09007KT 10SM OVC005 14/13 A3003 210 93 200 090/07 RMK AO2 CIG 004V009 SLP167 T01390128 10156 20139 53010 $
63870K0J4 0J420160415010011404/15/16 01:00:31  5-MIN K0J4 150600Z AUTO 09008KT 10SM OVC007 14/13 A3003 210 93 200 090/08 RMK AO2 CIG 004V011 $
63870K0J4 0J420160415010511404/15/16 01:05:31  5-MIN K0J4 150605Z AUTO 09008KT 10SM OVC007 14/12 A3003 220 90 200 090/08 RMK AO2 CIG 004V011 $
63870K0J4 0J420160415011012004/15/16 01:10:31  5-MIN K0J4 150610Z AUTO 09007G15KT 10SM OVC009 14/12 A3003 220 90 200 090/07G15 RMK AO2 CIG 004V011 $
63870K0J4 0J420160415011510804/15/16 01:15:31  5-MIN K0J4 150615Z AUTO 09008G15KT 10SM OVC009 14/12 A3003 220 90 200 090/08G15 RMK AO2 $
63870K0J4 0J420160415012010204/15/16 01:20:31  5-MIN K0J4 150620Z AUTO 09008KT 10SM OVC009 14/12 A3003 220 90 200 090/08 RMK AO2 $
63870K0J4 0J420160415012511804/15/16 01:25:31  5-MIN K0J4 150625Z AUTO 08009KT 10SM -RA OVC009 14/12 A3003 220 90 200 080/09 RMK AO2 RAB24 P0000 $
63870K0J4 0J420160415013012404/15/16 01:30:31  5-MIN K0J4 150630Z AUTO 08012G16KT 10SM -RA OVC009 14/12 A3003 220 90 200 080/12G16 RMK AO2 RAB24 P0000 $
63870K0J4 0J420160415013511804/15/16 01:35:31  5-MIN K0J4 150635Z AUTO 08009KT 10SM -RA OVC009 14/12 A3003 220 90 200 080/09 RMK AO2 RAB24 P0000 $
63870K0J4 0J420160415014011704/15/16 01:40:31  5-MIN K0J4 150640Z AUTO 08008KT 10SM OVC009 14/12 A3003 220 90 200 080/08 RMK AO2 RAB24E39 P0000 $
63870K0J4 0J420160415014511704/15/16 01:45:31  5-MIN K0J4 150645Z AUTO 08009KT 10SM OVC009 14/12 A3003 210 90 200 080/09 RMK AO2 RAB24E39 P0000 $
63870K0J4 0J420160415015011704/15/16 01:50:31  5-MIN K0J4 150650Z AUTO 08007KT 10SM OVC009 14/12 A3003 210 90 200 080/07 RMK AO2 RAB24E39 P0000 $
63870K0J4 0J420160415015514604/15/16 01:55:31  5-MIN K0J4 150655Z AUTO 08007KT 10SM OVC009 14/12 A3003 220 90 200 080/07 RMK AO2 RAB24E39 CIG 008V013 SLP166 P0000 T01390122 $
63870K0J4 0J420160415020011404/15/16 02:00:31  5-MIN K0J4 150700Z AUTO 08008KT 10SM OVC011 14/12 A3003 220 90 200 080/08 RMK AO2 CIG 008V013 $
63870K0J4 0J420160415020510204/15/16 02:05:31  5-MIN K0J4 150705Z AUTO 08007KT 10SM OVC011 14/12 A3003 220 90 200 080/07 RMK AO2 $
63870K0J4 0J420160415021010204/15/16 02:10:31  5-MIN K0J4 150710Z AUTO 08009KT 10SM OVC011 14/12 A3002 220 90 200 080/09 RMK AO2 $
63870K0J4 0J420160415021510904/15/16 02:15:31  5-MIN K0J4 150715Z AUTO 08007KT 10SM BKN013 OVC017 14/12 A3002 220 90 200 080/07 RMK AO2 $
63870K0J4 0J420160415022010204/15/16 02:20:31  5-MIN K0J4 150720Z AUTO 08009KT 10SM OVC015 14/12 A3002 220 90 200 080/09 RMK AO2 $
63870K0J4 0J420160415022510904/15/16 02:25:31  5-MIN K0J4 150725Z AUTO 08008KT 10SM BKN012 OVC017 14/12 A3002 220 90 200 080/08 RMK AO2 $
63870K0J4 0J420160415023010904/15/16 02:30:31  5-MIN K0J4 150730Z AUTO 08009KT 10SM FEW010 OVC017 14/12 A3002 220 90 200 080/09 RMK AO2 $
63870K0J4 0J420160415023510904/15/16 02:35:31  5-MIN K0J4 150735Z AUTO 08008KT 10SM FEW010 OVC017 14/12 A3002 230 86 200 080/08 RMK AO2 $
63870K0J4 0J420160415024010204/15/16 02:40:31  5-MIN K0J4 150740Z AUTO 08009KT 10SM OVC017 14/12 A3002 230 86 200 080/09 RMK AO2 $
63870K0J4 0J420160415024510204/15/16 02:45:31  5-MIN K0J4 150745Z AUTO 08009KT 10SM OVC017 14/12 A3001 230 86 200 080/09 RMK AO2 $
63870K0J4 0J420160415025010204/15/16 02:50:31  5-MIN K0J4 150750Z AUTO 08009KT 10SM OVC017 14/12 A3002 230 86 200 080/09 RMK AO2 $
63870K0J4 0J420160415025511904/15/16 02:55:31  5-MIN K0J4 150755Z AUTO 09007KT 10SM OVC017 14/12 A3002 230 86 200 090/07 RMK AO2 SLP162 T01390117 $
63870K0J4 0J420160415030010204/15/16 03:00:31  5-MIN K0J4 150800Z AUTO 08007KT 10SM OVC017 14/12 A3002 230 86 200 080/07 RMK AO2 $
63870K0J4 0J420160415030510204/15/16 03:05:31  5-MIN K0J4 150805Z AUTO 08007KT 10SM OVC017 14/12 A3001 230 86 200 080/07 RMK AO2 $
63870K0J4 0J420160415031010204/15/16 03:10:31  5-MIN K0J4 150810Z AUTO 08007KT 10SM OVC017 14/12 A3001 230 86 200 080/07 RMK AO2 $
63870K0J4 0J420160415031510204/15/16 03:15:31  5-MIN K0J4 150815Z AUTO 07006KT 10SM OVC017 14/12 A3002 230 86 200 070/06 RMK AO2 $
63870K0J4 0J420160415032010204/15/16 03:20:31  5-MIN K0J4 150820Z AUTO 08005KT 10SM OVC017 14/12 A3002 230 86 200 080/05 RMK AO2 $
63870K0J4 0J420160415032510204/15/16 03:25:31  5-MIN K0J4 150825Z AUTO 08006KT 10SM OVC017 14/12 A3002 230 86 200 080/06 RMK AO2 $
63870K0J4 0J420160415033010204/15/16 03:30:31  5-MIN K0J4 150830Z AUTO 07006KT 10SM OVC019 14/12 A3002 230 86 200 070/06 RMK AO2 $
63870K0J4 0J420160415033510204/15/16 03:35:31  5-MIN K0J4 150835Z AUTO 08006KT 10SM OVC019 14/12 A3002 230 86 200 080/06 RMK AO2 $
63870K0J4 0J420160415034010204/15/16 03:40:31  5-MIN K0J4 150840Z AUTO 08007KT 10SM OVC019 14/11 A3002 230 83 200 080/07 RMK AO2 $
63870K0J4 0J420160415034510204/15/16 03:45:31  5-MIN K0J4 150845Z AUTO 08008KT 10SM OVC019 14/11 A3002 230 83 200 080/08 RMK AO2 $
63870K0J4 0J420160415035010204/15/16 03:50:31  5-MIN K0J4 150850Z AUTO 08007KT 10SM OVC019 14/11 A3001 230 83 200 080/07 RMK AO2 $
63870K0J4 0J420160415035513104/15/16 03:55:31  5-MIN K0J4 150855Z AUTO 08007KT 10SM OVC019 14/11 A3001 230 83 200 080/07 RMK AO2 SLP160 60000 T01390111 58003 $
63870K0J4 0J420160415040010204/15/16 04:00:31  5-MIN K0J4 150900Z AUTO 08006KT 10SM OVC019 13/11 A3001 230 86 100 080/06 RMK AO2 $
63870K0J4 0J420160415040510204/15/16 04:05:31  5-MIN K0J4 150905Z AUTO 08008KT 10SM OVC019 13/11 A3001 230 86 100 080/08 RMK AO2 $
63870K0J4 0J420160415041010204/15/16 04:10:31  5-MIN K0J4 150910Z AUTO 08008KT 10SM OVC019 14/11 A3001 230 83 200 080/08 RMK AO2 $
63870K0J4 0J420160415041510204/15/16 04:15:31  5-MIN K0J4 150915Z AUTO 08007KT 10SM OVC019 14/11 A3001 230 83 200 080/07 RMK AO2 $
63870K0J4 0J420160415042010204/15/16 04:20:31  5-MIN K0J4 150920Z AUTO 08006KT 10SM OVC019 14/11 A3001 230 83 200 080/06 RMK AO2 $
63870K0J4 0J420160415042510204/15/16 04:25:31  5-MIN K0J4 150925Z AUTO 08006KT 10SM OVC017 14/11 A3001 230 83 200 080/06 RMK AO2 $
63870K0J4 0J420160415043010204/15/16 04:30:31  5-MIN K0J4 150930Z AUTO 08005KT 10SM OVC017 14/11 A3001 230 83 200 080/05 RMK AO2 $
63870K0J4 0J420160415043510204/15/16 04:35:31  5-MIN K0J4 150935Z AUTO 08006KT 10SM OVC017 14/11 A3002 230 83 200 080/06 RMK AO2 $
63870K0J4 0J420160415044010204/15/16 04:40:31  5-MIN K0J4 150940Z AUTO 08005KT 10SM OVC017 14/11 A3002 230 83 200 080/05 RMK AO2 $
63870K0J4 0J420160415044510204/15/16 04:45:31  5-MIN K0J4 150945Z AUTO 08006KT 10SM OVC017 13/11 A3002 230 86 100 080/06 RMK AO2 $
63870K0J4 0J420160415045010204/15/16 04:50:31  5-MIN K0J4 150950Z AUTO 08005KT 10SM OVC017 14/11 A3002 230 83 200 080/05 RMK AO2 $
63870K0J4 0J420160415045511904/15/16 04:55:31  5-MIN K0J4 150955Z AUTO 08007KT 10SM OVC017 14/11 A3002 220 83 200 080/07 RMK AO2 SLP163 T01390111 $
63870K0J4 0J420160415050010204/15/16 05:00:31  5-MIN K0J4 151000Z AUTO 08006KT 10SM OVC017 14/11 A3002 220 83 200 080/06 RMK AO2 $
63870K0J4 0J420160415050510204/15/16 05:05:31  5-MIN K0J4 151005Z AUTO 08007KT 10SM OVC017 14/11 A3002 230 83 200 080/07 RMK AO2 $
63870K0J4 0J420160415051010204/15/16 05:10:31  5-MIN K0J4 151010Z AUTO 08006KT 10SM OVC017 14/11 A3002 230 83 200 080/06 RMK AO2 $
63870K0J4 0J420160415051510204/15/16 05:15:31  5-MIN K0J4 151015Z AUTO 07007KT 10SM OVC017 13/11 A3002 230 86 100 070/07 RMK AO2 $
63870K0J4 0J420160415052010204/15/16 05:20:31  5-MIN K0J4 151020Z AUTO 07006KT 10SM OVC017 13/11 A3002 230 86 100 070/06 RMK AO2 $
63870K0J4 0J420160415052510204/15/16 05:25:31  5-MIN K0J4 151025Z AUTO 08006KT 10SM OVC017 13/11 A3002 230 86 100 080/06 RMK AO2 $
63870K0J4 0J420160415053010204/15/16 05:30:31  5-MIN K0J4 151030Z AUTO 07007KT 10SM OVC017 13/11 A3002 220 86 100 070/07 RMK AO2 $
63870K0J4 0J420160415053510204/15/16 05:35:31  5-MIN K0J4 151035Z AUTO 08006KT 10SM OVC017 13/11 A3002 220 86 100 080/06 RMK AO2 $
63870K0J4 0J420160415054010204/15/16 05:40:31  5-MIN K0J4 151040Z AUTO 08008KT 10SM OVC017 13/11 A3002 220 86 100 080/08 RMK AO2 $
63870K0J4 0J420160415054510204/15/16 05:45:31  5-MIN K0J4 151045Z AUTO 07007KT 10SM OVC017 13/11 A3003 220 86 100 070/07 RMK AO2 $
63870K0J4 0J420160415055010204/15/16 05:50:31  5-MIN K0J4 151050Z AUTO 07006KT 10SM OVC017 13/11 A3002 220 86 100 070/06 RMK AO2 $
63870K0J4 0J420160415055511904/15/16 05:55:31  5-MIN K0J4 151055Z AUTO 07007KT 10SM OVC017 13/11 A3003 220 86 100 070/07 RMK AO2 SLP166 T01330111 $
63870K0J4 0J420160415060010204/15/16 06:00:31  5-MIN K0J4 151100Z AUTO 07006KT 10SM OVC017 13/11 A3003 220 86 100 070/06 RMK AO2 $
63870K0J4 0J420160415060510204/15/16 06:05:31  5-MIN K0J4 151105Z AUTO 07008KT 10SM OVC017 13/11 A3003 210 86 100 070/08 RMK AO2 $
63870K0J4 0J420160415061010204/15/16 06:10:31  5-MIN K0J4 151110Z AUTO 07007KT 10SM OVC017 13/11 A3003 210 86 100 070/07 RMK AO2 $
63870K0J4 0J420160415061510204/15/16 06:15:31  5-MIN K0J4 151115Z AUTO 07007KT 10SM OVC017 14/11 A3003 210 83 200 070/07 RMK AO2 $
63870K0J4 0J420160415062010204/15/16 06:20:31  5-MIN K0J4 151120Z AUTO 07008KT 10SM OVC017 14/11 A3003 210 83 200 070/08 RMK AO2 $
63870K0J4 0J420160415062510204/15/16 06:25:31  5-MIN K0J4 151125Z AUTO 06008KT 10SM OVC017 14/11 A3004 210 83 200 060/08 RMK AO2 $
63870K0J4 0J420160415063010204/15/16 06:30:31  5-MIN K0J4 151130Z AUTO 06009KT 10SM OVC017 14/11 A3004 200 83 200 060/09 RMK AO2 $
63870K0J4 0J420160415063510204/15/16 06:35:31  5-MIN K0J4 151135Z AUTO 06008KT 10SM OVC017 14/11 A3004 200 83 200 060/08 RMK AO2 $
63870K0J4 0J420160415064010204/15/16 06:40:31  5-MIN K0J4 151140Z AUTO 07007KT 10SM OVC015 13/11 A3004 200 86 100 070/07 RMK AO2 $
63870K0J4 0J420160415064510204/15/16 06:45:31  5-MIN K0J4 151145Z AUTO 07007KT 10SM OVC015 14/11 A3005 200 83 200 070/07 RMK AO2 $
63870K0J4 0J420160415065010204/15/16 06:50:31  5-MIN K0J4 151150Z AUTO 07007KT 10SM OVC015 14/11 A3005 200 83 200 070/07 RMK AO2 $
63870K0J4 0J420160415065514904/15/16 06:55:31  5-MIN K0J4 151155Z AUTO 07006KT 10SM OVC015 14/11 A3005 200 83 200 070/06 RMK AO2 SLP172 60000 70044 T01390111 10139 20133 58007 $
63870K0J4 0J420160415070010204/15/16 07:00:31  5-MIN K0J4 151200Z AUTO 06008KT 10SM OVC013 14/11 A3005 200 83 200 060/08 RMK AO2 $
63870K0J4 0J420160415070510204/15/16 07:05:31  5-MIN K0J4 151205Z AUTO 06007KT 10SM OVC013 14/11 A3005 200 83 100 060/07 RMK AO2 $
63870K0J4 0J420160415071010204/15/16 07:10:31  5-MIN K0J4 151210Z AUTO 06008KT 10SM OVC013 13/11 A3005 200 86 100 060/08 RMK AO2 $
63870K0J4 0J420160415071510204/15/16 07:15:31  5-MIN K0J4 151215Z AUTO 07008KT 10SM OVC013 14/11 A3005 190 83 100 070/08 RMK AO2 $
63870K0J4 0J420160415072010204/15/16 07:20:31  5-MIN K0J4 151220Z AUTO 07007KT 10SM OVC013 13/11 A3005 190 86 100 070/07 RMK AO2 $
63870K0J4 0J420160415072510204/15/16 07:25:31  5-MIN K0J4 151225Z AUTO 08009KT 10SM OVC013 13/11 A3005 200 86 100 080/09 RMK AO2 $
63870K0J4 0J420160415073010204/15/16 07:30:31  5-MIN K0J4 151230Z AUTO 07009KT 10SM OVC013 14/11 A3005 200 83 100 070/09 RMK AO2 $
63870K0J4 0J420160415073510204/15/16 07:35:31  5-MIN K0J4 151235Z AUTO 08010KT 10SM OVC013 14/11 A3005 190 83 100 080/10 RMK AO2 $
63870K0J4 0J420160415074010804/15/16 07:40:31  5-MIN K0J4 151240Z AUTO 08010G14KT 10SM OVC013 14/11 A3005 190 83 100 080/10G14 RMK AO2 $
63870K0J4 0J420160415074510804/15/16 07:45:31  5-MIN K0J4 151245Z AUTO 07008G17KT 10SM OVC013 14/11 A3006 190 83 100 070/08G17 RMK AO2 $
63870K0J4 0J420160415075010804/15/16 07:50:31  5-MIN K0J4 151250Z AUTO 07010G17KT 10SM OVC013 14/11 A3006 190 83 100 070/10G17 RMK AO2 $
63870K0J4 0J420160415075512504/15/16 07:55:31  5-MIN K0J4 151255Z AUTO 07008G16KT 10SM OVC013 14/11 A3006 190 83 100 070/08G16 RMK AO2 SLP177 T01390111 $
63870K0J4 0J420160415080010804/15/16 08:00:31  5-MIN K0J4 151300Z AUTO 06009G16KT 10SM OVC013 14/11 A3006 180 80 100 060/09G16 RMK AO2 $
63870K0J4 0J420160415080510204/15/16 08:05:31  5-MIN K0J4 151305Z AUTO 08010KT 10SM OVC013 14/11 A3007 180 83 100 080/10 RMK AO2 $
63870K0J4 0J420160415081010204/15/16 08:10:31  5-MIN K0J4 151310Z AUTO 08008KT 10SM OVC013 14/11 A3007 180 83 100 080/08 RMK AO2 $
63870K0J4 0J420160415081510204/15/16 08:15:31  5-MIN K0J4 151315Z AUTO 07011KT 10SM OVC013 13/11 A3007 180 86 100 070/11 RMK AO2 $
63870K0J4 0J420160415082010204/15/16 08:20:31  5-MIN K0J4 151320Z AUTO 08008KT 10SM OVC013 13/11 A3007 180 86 100 080/08 RMK AO2 $
63870K0J4 0J420160415082510204/15/16 08:25:31  5-MIN K0J4 151325Z AUTO 07008KT 10SM OVC013 14/11 A3007 180 83 100 070/08 RMK AO2 $
63870K0J4 0J420160415083010204/15/16 08:30:31  5-MIN K0J4 151330Z AUTO 06010KT 10SM OVC013 13/11 A3007 180 86 100 060/10 RMK AO2 $
63870K0J4 0J420160415083510204/15/16 08:35:31  5-MIN K0J4 151335Z AUTO 06011KT 10SM OVC013 13/11 A3007 180 86 100 060/11 RMK AO2 $
63870K0J4 0J420160415084010804/15/16 08:40:31  5-MIN K0J4 151340Z AUTO 07008G15KT 10SM OVC013 14/11 A3007 180 83 100 070/08G15 RMK AO2 $
63870K0J4 0J420160415084510804/15/16 08:45:31  5-MIN K0J4 151345Z AUTO 07010G17KT 10SM OVC013 14/11 A3007 170 83 100 070/10G17 RMK AO2 $
63870K0J4 0J420160415085010804/15/16 08:50:31  5-MIN K0J4 151350Z AUTO 07008G17KT 10SM OVC013 14/11 A3007 180 83 100 070/08G17 RMK AO2 $
63870K0J4 0J420160415085512504/15/16 08:55:31  5-MIN K0J4 151355Z AUTO 07014G17KT 10SM OVC013 14/11 A3007 180 83 100 070/14G17 RMK AO2 SLP182 T01390111 $
63870K0J4 0J420160415090010804/15/16 09:00:31  5-MIN K0J4 151400Z AUTO 06010G19KT 10SM OVC013 14/11 A3007 170 83 100 060/10G19 RMK AO2 $
63870K0J4 0J420160415090510804/15/16 09:05:31  5-MIN K0J4 151405Z AUTO 07009G19KT 10SM OVC013 14/11 A3008 170 83 100 070/09G19 RMK AO2 $
63870K0J4 0J420160415091010204/15/16 09:10:31  5-MIN K0J4 151410Z AUTO 07011KT 10SM OVC013 14/11 A3008 170 83 100 070/11 RMK AO2 $
63870K0J4 0J420160415091510204/15/16 09:15:31  5-MIN K0J4 151415Z AUTO 06011KT 10SM OVC013 14/11 A3008 170 83 100 060/11 RMK AO2 $
63870K0J4 0J420160415092010204/15/16 09:20:31  5-MIN K0J4 151420Z AUTO 07013KT 10SM OVC013 14/11 A3008 170 83 100 070/13 RMK AO2 $
63870K0J4 0J420160415092510204/15/16 09:25:31  5-MIN K0J4 151425Z AUTO 07009KT 10SM OVC013 14/11 A3008 170 83 100 070/09 RMK AO2 $
63870K0J4 0J420160415093010804/15/16 09:30:31  5-MIN K0J4 151430Z AUTO 07007G15KT 10SM OVC013 14/11 A3008 170 83 100 070/07G15 RMK AO2 $
63870K0J4 0J420160415093510804/15/16 09:35:31  5-MIN K0J4 151435Z AUTO 07010G15KT 10SM OVC013 14/11 A3008 170 83 100 070/10G15 RMK AO2 $
63870K0J4 0J420160415094010804/15/16 09:40:31  5-MIN K0J4 151440Z AUTO 07010G19KT 10SM OVC013 14/11 A3008 170 83 100 070/10G19 RMK AO2 $
63870K0J4 0J420160415094510804/15/16 09:45:31  5-MIN K0J4 151445Z AUTO 08009G19KT 10SM OVC013 14/11 A3008 170 83 100 080/09G19 RMK AO2 $
63870K0J4 0J420160415095010204/15/16 09:50:31  5-MIN K0J4 151450Z AUTO 07014KT 10SM OVC013 14/11 A3008 170 83 100 070/14 RMK AO2 $
63870K0J4 0J420160415095512504/15/16 09:55:31  5-MIN K0J4 151455Z AUTO 08011KT 10SM OVC013 14/11 A3008 170 83 100 080/11 RMK AO2 SLP185 T01390111 53013 $
63870K0J4 0J420160415100010804/15/16 10:00:31  5-MIN K0J4 151500Z AUTO 07009G17KT 10SM OVC013 14/11 A3008 170 80 200 070/09G17 RMK AO2 $
63870K0J4 0J420160415100510804/15/16 10:05:31  5-MIN K0J4 151505Z AUTO 08008G17KT 10SM OVC013 14/12 A3009 160 83 200 080/08G17 RMK AO2 $
63870K0J4 0J420160415101010804/15/16 10:10:31  5-MIN K0J4 151510Z AUTO 08011G17KT 10SM OVC013 14/11 A3009 160 80 200 080/11G17 RMK AO2 $
63870K0J4 0J420160415101510204/15/16 10:15:31  5-MIN K0J4 151515Z AUTO 07010KT 10SM OVC013 14/11 A3009 160 80 200 070/10 RMK AO2 $
63870K0J4 0J420160415102010204/15/16 10:20:31  5-MIN K0J4 151520Z AUTO 07011KT 10SM OVC013 14/11 A3009 160 80 200 070/11 RMK AO2 $
63870K0J4 0J420160415102510204/15/16 10:25:31  5-MIN K0J4 151525Z AUTO 08009KT 10SM OVC013 15/11 A3009 160 77 200 080/09 RMK AO2 $
63870K0J4 0J420160415103010204/15/16 10:30:31  5-MIN K0J4 151530Z AUTO 07010KT 10SM OVC013 14/11 A3009 160 80 200 070/10 RMK AO2 $
63870K0J4 0J420160415103510204/15/16 10:35:31  5-MIN K0J4 151535Z AUTO 08012KT 10SM OVC013 14/11 A3009 160 80 200 080/12 RMK AO2 $
63870K0J4 0J420160415104010204/15/16 10:40:31  5-MIN K0J4 151540Z AUTO 06011KT 10SM OVC013 14/11 A3009 160 80 200 060/11 RMK AO2 $
63870K0J4 0J420160415104510204/15/16 10:45:31  5-MIN K0J4 151545Z AUTO 06009KT 10SM OVC013 14/11 A3010 150 80 200 060/09 RMK AO2 $
63870K0J4 0J420160415105010804/15/16 10:50:31  5-MIN K0J4 151550Z AUTO 05012G16KT 10SM OVC013 14/11 A3010 150 80 200 050/12G16 RMK AO2 $
63870K0J4 0J420160415105512504/15/16 10:55:31  5-MIN K0J4 151555Z AUTO 06013G16KT 10SM OVC013 15/12 A3010 150 80 200 060/13G16 RMK AO2 SLP189 T01500117 $
63870K0J4 0J420160415110010204/15/16 11:00:31  5-MIN K0J4 151600Z AUTO 05008KT 10SM OVC013 15/12 A3010 150 80 200 050/08 RMK AO2 $
63870K0J4 0J420160415110510804/15/16 11:05:31  5-MIN K0J4 151605Z AUTO 06011G17KT 10SM OVC013 15/12 A3010 150 80 200 060/11G17 RMK AO2 $
63870K0J4 0J420160415111010804/15/16 11:10:31  5-MIN K0J4 151610Z AUTO 05010G17KT 10SM OVC013 15/12 A3010 150 80 200 050/10G17 RMK AO2 $
63870K0J4 0J420160415111510204/15/16 11:15:31  5-MIN K0J4 151615Z AUTO 07008KT 10SM OVC013 15/12 A3010 150 80 200 070/08 RMK AO2 $
63870K0J4 0J420160415112011804/15/16 11:20:31  5-MIN K0J4 151620Z AUTO 06008KT 040V110 10SM OVC013 16/12 A3010 150 77 300 060/08 040V110 RMK AO2 $
63870K0J4 0J420160415112510804/15/16 11:25:31  5-MIN K0J4 151625Z AUTO 06012G18KT 10SM OVC013 15/12 A3010 150 80 200 060/12G18 RMK AO2 $
63870K0J4 0J420160415113010804/15/16 11:30:31  5-MIN K0J4 151630Z AUTO 07012G19KT 10SM OVC013 15/12 A3010 150 80 200 070/12G19 RMK AO2 $
63870K0J4 0J420160415113510804/15/16 11:35:31  5-MIN K0J4 151635Z AUTO 07012G19KT 10SM OVC013 15/12 A3009 160 80 200 070/12G19 RMK AO2 $
63870K0J4 0J420160415114010804/15/16 11:40:31  5-MIN K0J4 151640Z AUTO 06012G18KT 10SM OVC013 15/12 A3009 160 80 200 060/12G18 RMK AO2 $
63870K0J4 0J420160415114510204/15/16 11:45:31  5-MIN K0J4 151645Z AUTO 07010KT 10SM OVC013 15/12 A3009 160 80 200 070/10 RMK AO2 $
63870K0J4 0J420160415115010204/15/16 11:50:31  5-MIN K0J4 151650Z AUTO 07010KT 10SM OVC013 16/12 A3009 160 77 300 070/10 RMK AO2 $
63870K0J4 0J420160415115512504/15/16 11:55:31  5-MIN K0J4 151655Z AUTO 06013G18KT 10SM OVC013 16/12 A3009 160 77 300 060/13G18 RMK AO2 SLP186 T01560117 $
63870K0J4 0J420160415120010804/15/16 12:00:31  5-MIN K0J4 151700Z AUTO 07010G18KT 10SM OVC013 16/12 A3009 160 75 400 070/10G18 RMK AO2 $
63870K0J4 0J420160415120510204/15/16 12:05:31  5-MIN K0J4 151705Z AUTO 06011KT 10SM OVC013 16/12 A3009 160 77 400 060/11 RMK AO2 $
63870K0J4 0J420160415121010804/15/16 12:10:31  5-MIN K0J4 151710Z AUTO 07013G16KT 10SM OVC013 16/12 A3009 160 77 400 070/13G16 RMK AO2 $
63870K0J4 0J420160415121510204/15/16 12:15:31  5-MIN K0J4 151715Z AUTO 08010KT 10SM OVC015 16/12 A3009 160 75 400 080/10 RMK AO2 $
63870K0J4 0J420160415122010204/15/16 12:20:31  5-MIN K0J4 151720Z AUTO 09007KT 10SM OVC015 16/12 A3009 160 77 400 090/07 RMK AO2 $
63870K0J4 0J420160415122510804/15/16 12:25:31  5-MIN K0J4 151725Z AUTO 06012G15KT 10SM OVC015 17/12 A3008 170 75 400 060/12G15 RMK AO2 $
63870K0J4 0J420160415123010804/15/16 12:30:31  5-MIN K0J4 151730Z AUTO 08010G15KT 10SM OVC015 17/12 A3008 170 75 400 080/10G15 RMK AO2 $
63870K0J4 0J420160415123510204/15/16 12:35:31  5-MIN K0J4 151735Z AUTO 07011KT 10SM OVC015 16/12 A3008 170 77 400 070/11 RMK AO2 $
63870K0J4 0J420160415124010204/15/16 12:40:31  5-MIN K0J4 151740Z AUTO 07010KT 10SM OVC015 17/12 A3008 170 75 400 070/10 RMK AO2 $
63870K0J4 0J420160415124511804/15/16 12:45:31  5-MIN K0J4 151745Z AUTO 07011KT 050V110 10SM OVC015 17/12 A3008 170 75 400 070/11 050V110 RMK AO2 $
63870K0J4 0J420160415125010204/15/16 12:50:31  5-MIN K0J4 151750Z AUTO 07011KT 10SM OVC015 17/12 A3008 170 75 400 070/11 RMK AO2 $
63870K0J4 0J420160415125514304/15/16 12:55:31  5-MIN K0J4 151755Z AUTO 08009G16KT 10SM OVC015 16/12 A3008 170 77 400 080/09G16 RMK AO2 SLP184 T01610122 10167 20133 51012 $
63870K0J4 0J420160415130010804/15/16 13:00:31  5-MIN K0J4 151800Z AUTO 07011G16KT 10SM OVC015 17/12 A3008 170 75 400 070/11G16 RMK AO2 $
63870K0J4 0J420160415130510204/15/16 13:05:31  5-MIN K0J4 151805Z AUTO 06011KT 10SM OVC015 17/12 A3008 170 75 400 060/11 RMK AO2 $
63870K0J4 0J420160415131010204/15/16 13:10:31  5-MIN K0J4 151810Z AUTO 06012KT 10SM OVC015 17/12 A3008 170 75 400 060/12 RMK AO2 $
63870K0J4 0J420160415131510204/15/16 13:15:31  5-MIN K0J4 151815Z AUTO 08010KT 10SM OVC015 16/12 A3008 170 77 400 080/10 RMK AO2 $
63870K0J4 0J420160415132010204/15/16 13:20:31  5-MIN K0J4 151820Z AUTO 07010KT 10SM OVC015 17/12 A3008 170 75 400 070/10 RMK AO2 $
63870K0J4 0J420160415132510204/15/16 13:25:31  5-MIN K0J4 151825Z AUTO 07010KT 10SM OVC015 17/12 A3008 170 75 400 070/10 RMK AO2 $
63870K0J4 0J420160415133010204/15/16 13:30:31  5-MIN K0J4 151830Z AUTO 07011KT 10SM OVC015 17/13 A3008 170 77 400 070/11 RMK AO2 $
63870K0J4 0J420160415133510804/15/16 13:35:31  5-MIN K0J4 151835Z AUTO 06013G17KT 10SM OVC015 17/13 A3008 170 77 400 060/13G17 RMK AO2 $
63870K0J4 0J420160415134010204/15/16 13:40:31  5-MIN K0J4 151840Z AUTO 07009KT 10SM OVC015 17/13 A3008 170 77 400 070/09 RMK AO2 $
63870K0J4 0J420160415134510204/15/16 13:45:31  5-MIN K0J4 151845Z AUTO 08011KT 10SM OVC015 17/13 A3008 170 77 400 080/11 RMK AO2 $
63870K0J4 0J420160415135010204/15/16 13:50:31  5-MIN K0J4 151850Z AUTO 08009KT 10SM OVC015 17/13 A3007 180 75 500 080/09 RMK AO2 $
63870K0J4 0J420160415135511904/15/16 13:55:31  5-MIN K0J4 151855Z AUTO 08012KT 10SM OVC015 17/13 A3007 180 75 500 080/12 RMK AO2 SLP180 T01720128 $
63870K0J4 0J420160415140010204/15/16 14:00:31  5-MIN K0J4 151900Z AUTO 08009KT 10SM OVC015 17/13 A3007 180 75 500 080/09 RMK AO2 $
63870K0J4 0J420160415140510804/15/16 14:05:31  5-MIN K0J4 151905Z AUTO 07011G16KT 10SM OVC015 17/13 A3007 180 75 500 070/11G16 RMK AO2 $
63870K0J4 0J420160415141010804/15/16 14:10:31  5-MIN K0J4 151910Z AUTO 07012G18KT 10SM OVC015 17/13 A3007 180 75 500 070/12G18 RMK AO2 $
63870K0J4 0J420160415141510804/15/16 14:15:31  5-MIN K0J4 151915Z AUTO 09009G18KT 10SM OVC015 17/13 A3007 180 75 500 090/09G18 RMK AO2 $
63870K0J4 0J420160415142010804/15/16 14:20:31  5-MIN K0J4 151920Z AUTO 09010G17KT 10SM OVC015 17/13 A3007 180 78 500 090/10G17 RMK AO2 $
63870K0J4 0J420160415142510804/15/16 14:25:31  5-MIN K0J4 151925Z AUTO 08007G16KT 10SM OVC015 18/13 A3007 180 75 600 080/07G16 RMK AO2 $
63870K0J4 0J420160415143010204/15/16 14:30:31  5-MIN K0J4 151930Z AUTO 06010KT 10SM OVC015 18/13 A3007 180 75 600 060/10 RMK AO2 $
63870K0J4 0J420160415143510804/15/16 14:35:31  5-MIN K0J4 151935Z AUTO 07008G17KT 10SM OVC015 18/13 A3006 180 75 600 070/08G17 RMK AO2 $
63870K0J4 0J420160415144010804/15/16 14:40:31  5-MIN K0J4 151940Z AUTO 08007G17KT 10SM OVC015 18/13 A3006 180 75 600 080/07G17 RMK AO2 $
63870K0J4 0J420160415144510804/15/16 14:45:31  5-MIN K0J4 151945Z AUTO 08010G17KT 10SM OVC015 18/13 A3006 180 72 700 080/10G17 RMK AO2 $
63870K0J4 0J420160415145010804/15/16 14:50:31  5-MIN K0J4 151950Z AUTO 07011G18KT 10SM OVC015 18/13 A3006 180 75 600 070/11G18 RMK AO2 $
63870K0J4 0J420160415145512504/15/16 14:55:31  5-MIN K0J4 151955Z AUTO 08009G17KT 10SM OVC017 18/13 A3006 180 75 600 080/09G17 RMK AO2 SLP178 T01780133 $
63870K0J4 0J420160415150010804/15/16 15:00:31  5-MIN K0J4 152000Z AUTO 07011G17KT 10SM OVC017 18/13 A3006 180 75 600 070/11G17 RMK AO2 $
63870K0J4 0J420160415150510204/15/16 15:05:31  5-MIN K0J4 152005Z AUTO 07009KT 10SM OVC017 18/13 A3006 180 75 600 070/09 RMK AO2 $
63870K0J4 0J420160415151010204/15/16 15:10:31  5-MIN K0J4 152010Z AUTO 07010KT 10SM OVC017 17/13 A3006 180 78 500 070/10 RMK AO2 $
63870K0J4 0J420160415151510204/15/16 15:15:31  5-MIN K0J4 152015Z AUTO 08008KT 10SM OVC017 17/13 A3006 180 78 500 080/08 RMK AO2 $
63870K0J4 0J420160415152010204/15/16 15:20:31  5-MIN K0J4 152020Z AUTO 09009KT 10SM OVC017 17/13 A3006 190 78 500 090/09 RMK AO2 $
63870K0J4 0J420160415152510204/15/16 15:25:31  5-MIN K0J4 152025Z AUTO 07009KT 10SM OVC017 18/13 A3006 190 75 600 070/09 RMK AO2 $
63870K0J4 0J420160415153010204/15/16 15:30:31  5-MIN K0J4 152030Z AUTO 08006KT 10SM OVC017 18/14 A3006 190 78 600 080/06 RMK AO2 $
63870K0J4 0J420160415153510204/15/16 15:35:31  5-MIN K0J4 152035Z AUTO 07008KT 10SM OVC017 18/14 A3006 190 78 600 070/08 RMK AO2 $
63870K0J4 0J420160415154010204/15/16 15:40:31  5-MIN K0J4 152040Z AUTO 07009KT 10SM OVC017 18/13 A3006 190 75 600 070/09 RMK AO2 $
63870K0J4 0J420160415154510204/15/16 15:45:31  5-MIN K0J4 152045Z AUTO 08009KT 10SM OVC017 18/13 A3006 190 75 600 080/09 RMK AO2 $
63870K0J4 0J420160415155010204/15/16 15:50:31  5-MIN K0J4 152050Z AUTO 08007KT 10SM OVC017 18/14 A3006 190 78 600 080/07 RMK AO2 $
63870K0J4 0J420160415155512504/15/16 15:55:31  5-MIN K0J4 152055Z AUTO 07010KT 10SM OVC017 18/14 A3006 190 78 600 070/10 RMK AO2 SLP177 T01780139 58001 $
63870K0J4 0J420160415160010204/15/16 16:00:31  5-MIN K0J4 152100Z AUTO 08010KT 10SM OVC017 18/14 A3006 190 78 600 080/10 RMK AO2 $
63870K0J4 0J420160415160510204/15/16 16:05:31  5-MIN K0J4 152105Z AUTO 08010KT 10SM OVC017 18/14 A3006 190 78 600 080/10 RMK AO2 $
63870K0J4 0J420160415161010204/15/16 16:10:31  5-MIN K0J4 152110Z AUTO 07010KT 10SM OVC017 18/14 A3006 190 78 600 070/10 RMK AO2 $
63870K0J4 0J420160415161510804/15/16 16:15:31  5-MIN K0J4 152115Z AUTO 07007G14KT 10SM OVC017 18/14 A3006 180 78 600 070/07G14 RMK AO2 $
63870K0J4 0J420160415162010204/15/16 16:20:31  5-MIN K0J4 152120Z AUTO 08008KT 10SM OVC017 18/14 A3006 180 78 600 080/08 RMK AO2 $
63870K0J4 0J420160415162510204/15/16 16:25:31  5-MIN K0J4 152125Z AUTO 08008KT 10SM OVC017 18/14 A3006 180 78 600 080/08 RMK AO2 $
63870K0J4 0J420160415163010204/15/16 16:30:31  5-MIN K0J4 152130Z AUTO 06010KT 10SM OVC017 18/14 A3006 190 78 600 060/10 RMK AO2 $
63870K0J4 0J420160415163510204/15/16 16:35:31  5-MIN K0J4 152135Z AUTO 07008KT 10SM OVC017 18/14 A3006 180 78 600 070/08 RMK AO2 $
63870K0J4 0J420160415164010204/15/16 16:40:31  5-MIN K0J4 152140Z AUTO 07012KT 10SM OVC017 18/14 A3006 180 78 600 070/12 RMK AO2 $
63870K0J4 0J420160415164510804/15/16 16:45:31  5-MIN K0J4 152145Z AUTO 07007G15KT 10SM OVC017 18/14 A3006 190 78 600 070/07G15 RMK AO2 $
63870K0J4 0J420160415165010204/15/16 16:50:31  5-MIN K0J4 152150Z AUTO 07006KT 10SM OVC017 18/14 A3006 190 81 600 070/06 RMK AO2 $
63870K0J4 0J420160415165511904/15/16 16:55:31  5-MIN K0J4 152155Z AUTO 06009KT 10SM OVC017 18/14 A3006 190 78 600 060/09 RMK AO2 SLP177 T01780139 $
63870K0J4 0J420160415170010204/15/16 17:00:31  5-MIN K0J4 152200Z AUTO 07008KT 10SM OVC017 18/14 A3006 190 78 600 070/08 RMK AO2 $
63870K0J4 0J420160415170510204/15/16 17:05:31  5-MIN K0J4 152205Z AUTO 07007KT 10SM OVC017 18/14 A3006 190 81 600 070/07 RMK AO2 $
63870K0J4 0J420160415171010204/15/16 17:10:31  5-MIN K0J4 152210Z AUTO 07009KT 10SM OVC017 18/14 A3006 190 78 600 070/09 RMK AO2 $
63870K0J4 0J420160415171510204/15/16 17:15:31  5-MIN K0J4 152215Z AUTO 07008KT 10SM OVC017 18/14 A3006 190 78 600 070/08 RMK AO2 $
63870K0J4 0J420160415172010204/15/16 17:20:31  5-MIN K0J4 152220Z AUTO 07007KT 10SM OVC017 18/14 A3006 190 81 600 070/07 RMK AO2 $
63870K0J4 0J420160415172510204/15/16 17:25:31  5-MIN K0J4 152225Z AUTO 07008KT 10SM OVC017 18/14 A3006 190 78 600 070/08 RMK AO2 $
63870K0J4 0J420160415173010204/15/16 17:30:31  5-MIN K0J4 152230Z AUTO 08007KT 10SM OVC017 18/14 A3006 190 78 600 080/07 RMK AO2 $
63870K0J4 0J420160415173510204/15/16 17:35:31  5-MIN K0J4 152235Z AUTO 08006KT 10SM OVC017 18/14 A3006 180 81 600 080/06 RMK AO2 $
63870K0J4 0J420160415174010204/15/16 17:40:31  5-MIN K0J4 152240Z AUTO 06007KT 10SM OVC017 18/14 A3006 180 81 600 060/07 RMK AO2 $
63870K0J4 0J420160415174510204/15/16 17:45:31  5-MIN K0J4 152245Z AUTO 07006KT 10SM OVC017 18/14 A3007 180 81 600 070/06 RMK AO2 $
63870K0J4 0J420160415175010204/15/16 17:50:31  5-MIN K0J4 152250Z AUTO 07006KT 10SM OVC017 18/14 A3007 180 81 600 070/06 RMK AO2 $
63870K0J4 0J420160415175511904/15/16 17:55:31  5-MIN K0J4 152255Z AUTO 08008KT 10SM OVC017 18/14 A3007 180 81 600 080/08 RMK AO2 SLP178 T01780144 $
63870K0J4 0J420160415180010204/15/16 18:00:31  5-MIN K0J4 152300Z AUTO 08006KT 10SM OVC017 18/14 A3007 180 81 600 080/06 RMK AO2 $
63870K0J4 0J420160415180510204/15/16 18:05:31  5-MIN K0J4 152305Z AUTO 07006KT 10SM OVC019 18/14 A3006 180 81 600 070/06 RMK AO2 $
63870K0J4 0J420160415181010204/15/16 18:10:31  5-MIN K0J4 152310Z AUTO 07007KT 10SM OVC019 18/14 A3007 180 81 600 070/07 RMK AO2 $
63870K0J4 0J420160415181510204/15/16 18:15:31  5-MIN K0J4 152315Z AUTO 08007KT 10SM OVC019 17/14 A3007 180 83 500 080/07 RMK AO2 $
63870K0J4 0J420160415182010204/15/16 18:20:31  5-MIN K0J4 152320Z AUTO 08006KT 10SM OVC019 17/14 A3007 180 83 500 080/06 RMK AO2 $
63870K0J4 0J420160415182510204/15/16 18:25:31  5-MIN K0J4 152325Z AUTO 08006KT 10SM OVC019 17/14 A3007 180 83 500 080/06 RMK AO2 $
63870K0J4 0J420160415183010204/15/16 18:30:31  5-MIN K0J4 152330Z AUTO 07005KT 10SM OVC019 17/14 A3007 180 83 500 070/05 RMK AO2 $
63870K0J4 0J420160415183510204/15/16 18:35:31  5-MIN K0J4 152335Z AUTO 06005KT 10SM OVC019 17/14 A3007 180 83 500 060/05 RMK AO2 $
63870K0J4 0J420160415184010204/15/16 18:40:31  5-MIN K0J4 152340Z AUTO 06007KT 10SM OVC019 17/14 A3007 180 83 500 060/07 RMK AO2 $
63870K0J4 0J420160415184510204/15/16 18:45:31  5-MIN K0J4 152345Z AUTO 07005KT 10SM OVC019 17/14 A3007 180 83 500 070/05 RMK AO2 $
63870K0J4 0J420160415185010204/15/16 18:50:31  5-MIN K0J4 152350Z AUTO 07005KT 10SM OVC019 17/14 A3007 180 83 500 070/05 RMK AO2 $
63870K0J4 0J420160415185513704/15/16 18:55:31  5-MIN K0J4 152355Z AUTO 07008KT 10SM OVC019 17/14 A3007 180 83 500 070/08 RMK AO2 SLP181 T01720144 10183 20161 56006 $
63870K0J4 0J420160415190010204/15/16 19:00:31  5-MIN K0J4 160000Z AUTO 07007KT 10SM OVC019 17/14 A3007 170 83 500 070/07 RMK AO2 $
63870K0J4 0J420160415190510204/15/16 19:05:31  5-MIN K0J4 160005Z AUTO 06007KT 10SM OVC019 17/14 A3007 180 83 500 060/07 RMK AO2 $
63870K0J4 0J420160415191010204/15/16 19:10:31  5-MIN K0J4 160010Z AUTO 06007KT 10SM OVC019 17/14 A3007 180 83 500 060/07 RMK AO2 $
63870K0J4 0J420160415191510204/15/16 19:15:31  5-MIN K0J4 160015Z AUTO 05006KT 10SM OVC019 17/14 A3007 180 83 500 050/06 RMK AO2 $
63870K0J4 0J420160415192010204/15/16 19:20:31  5-MIN K0J4 160020Z AUTO 05006KT 10SM OVC019 17/14 A3007 180 83 500 050/06 RMK AO2 $
63870K0J4 0J420160415192510204/15/16 19:25:31  5-MIN K0J4 160025Z AUTO 05008KT 10SM OVC019 17/14 A3007 180 83 500 050/08 RMK AO2 $
63870K0J4 0J420160415193010204/15/16 19:30:31  5-MIN K0J4 160030Z AUTO 07007KT 10SM OVC022 17/14 A3007 180 83 500 070/07 RMK AO2 $
63870K0J4 0J420160415193510204/15/16 19:35:31  5-MIN K0J4 160035Z AUTO 06007KT 10SM OVC021 17/14 A3007 180 83 500 060/07 RMK AO2 $
63870K0J4 0J420160415194010904/15/16 19:40:31  5-MIN K0J4 160040Z AUTO 06008KT 10SM SCT017 OVC022 17/14 A3007 180 83 500 060/08 RMK AO2 $
63870K0J4 0J420160415194510204/15/16 19:45:31  5-MIN K0J4 160045Z AUTO 05008KT 10SM OVC022 17/14 A3008 170 83 500 050/08 RMK AO2 $
63870K0J4 0J420160415195010204/15/16 19:50:31  5-MIN K0J4 160050Z AUTO 06009KT 10SM OVC022 17/14 A3008 170 80 500 060/09 RMK AO2 $
63870K0J4 0J420160415195511904/15/16 19:55:31  5-MIN K0J4 160055Z AUTO 06007KT 10SM OVC021 17/14 A3008 170 80 500 060/07 RMK AO2 SLP182 T01720139 $
63870K0J4 0J420160415200010204/15/16 20:00:31  5-MIN K0J4 160100Z AUTO 07008KT 10SM OVC021 17/14 A3008 170 80 500 070/08 RMK AO2 $
63870K0J4 0J420160415202510904/15/16 20:25:31  5-MIN K0J4 160125Z AUTO 07008KT 10SM BKN015 OVC021 17/14 A3009 160 80 500 070/08 RMK AO2 $
63870K0J4 0J420160415203010804/15/16 20:30:31  5-MIN K0J4 160130Z AUTO 08010G19KT 10SM OVC015 17/14 A3009 160 80 500 080/10G19 RMK AO2 $
63870K0J4 0J420160415203510804/15/16 20:35:31  5-MIN K0J4 160135Z AUTO 08010G20KT 10SM OVC015 17/14 A3009 160 83 400 080/10G20 RMK AO2 $
63870K0J4 0J420160415204010804/15/16 20:40:31  5-MIN K0J4 160140Z AUTO 08013G20KT 10SM OVC015 17/14 A3010 150 83 400 080/13G20 RMK AO2 $
63870K0J4 0J420160416060510204/16/16 06:05:31  5-MIN K0J4 161105Z AUTO 07008KT 10SM OVC007 15/13 A3013 130 90 200 070/08 RMK AO2 $
63870K0J4 0J420160416061010204/16/16 06:10:31  5-MIN K0J4 161110Z AUTO 06010KT 10SM OVC007 15/13 A3013 130 90 200 060/10 RMK AO2 $
63870K0J4 0J420160416061510204/16/16 06:15:31  5-MIN K0J4 161115Z AUTO 07009KT 10SM OVC007 15/13 A3013 120 90 200 070/09 RMK AO2 $
63870K0J4 0J420160416062010204/16/16 06:20:31  5-MIN K0J4 161120Z AUTO 07011KT 10SM OVC009 15/13 A3013 120 90 200 070/11 RMK AO2 $
63870K0J4 0J420160416062510204/16/16 06:25:31  5-MIN K0J4 161125Z AUTO 08009KT 10SM OVC009 15/13 A3013 120 90 200 080/09 RMK AO2 $
63870K0J4 0J420160416063010204/16/16 06:30:31  5-MIN K0J4 161130Z AUTO 07008KT 10SM OVC009 15/13 A3013 120 90 200 070/08 RMK AO2 $
63870K0J4 0J420160416063510804/16/16 06:35:31  5-MIN K0J4 161135Z AUTO 07010G18KT 10SM OVC009 15/13 A3013 120 90 200 070/10G18 RMK AO2 $
63870K0J4 0J420160416064010804/16/16 06:40:31  5-MIN K0J4 161140Z AUTO 08012G18KT 10SM OVC009 15/13 A3013 120 90 200 080/12G18 RMK AO2 $
63870K0J4 0J420160416064510804/16/16 06:45:31  5-MIN K0J4 161145Z AUTO 08008G15KT 10SM OVC009 15/13 A3013 120 90 200 080/08G15 RMK AO2 $
63870K0J4 0J420160416065010204/16/16 06:50:31  5-MIN K0J4 161150Z AUTO 07009KT 10SM OVC009 15/13 A3014 120 90 200 070/09 RMK AO2 $
63870K0J4 0J420160416065515504/16/16 06:55:31  5-MIN K0J4 161155Z AUTO 08011G15KT 10SM OVC009 15/13 A3014 110 90 200 080/11G15 RMK AO2 CIG 008V013 SLP203 T01500133 10150 20144 58001 $
63870K0J4 0J420160416070011404/16/16 07:00:31  5-MIN K0J4 161200Z AUTO 08010KT 10SM OVC009 15/13 A3014 110 90 200 080/10 RMK AO2 CIG 008V014 $
63870K0J4 0J420160416070510204/16/16 07:05:31  5-MIN K0J4 161205Z AUTO 08010KT 10SM OVC011 15/13 A3014 110 90 200 080/10 RMK AO2 $
63870K0J4 0J420160416071010204/16/16 07:10:31  5-MIN K0J4 161210Z AUTO 07012KT 10SM OVC011 15/13 A3014 110 90 200 070/12 RMK AO2 $
63870K0J4 0J420160416071510204/16/16 07:15:31  5-MIN K0J4 161215Z AUTO 08010KT 10SM OVC011 15/13 A3014 110 90 200 080/10 RMK AO2 $
63870K0J4 0J420160416072010204/16/16 07:20:31  5-MIN K0J4 161220Z AUTO 08009KT 10SM OVC011 15/13 A3014 110 90 200 080/09 RMK AO2 $
63870K0J4 0J420160416072510804/16/16 07:25:31  5-MIN K0J4 161225Z AUTO 08011G15KT 10SM OVC011 16/13 A3014 110 86 200 080/11G15 RMK AO2 $
63870K0J4 0J420160416073010804/16/16 07:30:31  5-MIN K0J4 161230Z AUTO 07012G15KT 10SM OVC011 16/13 A3014 110 86 200 070/12G15 RMK AO2 $
63870K0J4 0J420160416073510204/16/16 07:35:31  5-MIN K0J4 161235Z AUTO 07011KT 10SM OVC011 16/13 A3014 110 86 200 070/11 RMK AO2 $
63870K0J4 0J420160416074010804/16/16 07:40:31  5-MIN K0J4 161240Z AUTO 08007G18KT 10SM OVC011 16/13 A3015 110 86 200 080/07G18 RMK AO2 $
63870K0J4 0J420160416074510804/16/16 07:45:31  5-MIN K0J4 161245Z AUTO 07008G18KT 10SM OVC011 16/13 A3015 110 86 200 070/08G18 RMK AO2 $
63870K0J4 0J420160416075010204/16/16 07:50:31  5-MIN K0J4 161250Z AUTO 08011KT 10SM OVC011 16/13 A3015 110 86 200 080/11 RMK AO2 $
63870K0J4 0J420160416075511904/16/16 07:55:31  5-MIN K0J4 161255Z AUTO 08011KT 10SM OVC011 16/13 A3015 100 86 200 080/11 RMK AO2 SLP207 T01560133 $
63870K0J4 0J420160416080010204/16/16 08:00:31  5-MIN K0J4 161300Z AUTO 08012KT 10SM OVC011 16/13 A3015 100 86 200 080/12 RMK AO2 $
63870K0J4 0J420160416080510204/16/16 08:05:31  5-MIN K0J4 161305Z AUTO 08011KT 10SM OVC011 16/13 A3015 100 86 200 080/11 RMK AO2 $
63870K0J4 0J420160416081010204/16/16 08:10:31  5-MIN K0J4 161310Z AUTO 07009KT 10SM OVC011 16/13 A3015 100 86 200 070/09 RMK AO2 $
63870K0J4 0J420160416081510204/16/16 08:15:31  5-MIN K0J4 161315Z AUTO 07009KT 10SM OVC011 16/13 A3015 100 86 200 070/09 RMK AO2 $
63870K0J4 0J420160416082010804/16/16 08:20:31  5-MIN K0J4 161320Z AUTO 06012G17KT 10SM OVC011 16/13 A3015 100 86 200 060/12G17 RMK AO2 $
63870K0J4 0J420160416082510804/16/16 08:25:31  5-MIN K0J4 161325Z AUTO 07011G19KT 10SM OVC011 16/13 A3015 100 86 200 070/11G19 RMK AO2 $
63870K0J4 0J420160416083010804/16/16 08:30:31  5-MIN K0J4 161330Z AUTO 08013G19KT 10SM OVC011 16/13 A3016 100 86 200 080/13G19 RMK AO2 $
63870K0J4 0J420160416083510804/16/16 08:35:31  5-MIN K0J4 161335Z AUTO 07014G19KT 10SM OVC011 16/13 A3016 100 83 200 070/14G19 RMK AO2 $
63870K0J4 0J420160416084011504/16/16 08:40:31  5-MIN K0J4 161340Z AUTO 08010G20KT 10SM BKN011 OVC034 16/13 A3016 100 83 300 080/10G20 RMK AO2 $
63870K0J4 0J420160416084510604/16/16 08:45:31  5-MIN K0J4 161345Z AUTO 07012G20KT 10SM OVC011 16/13 A3016 100 80 300 070/12G20 RMK AO2
63870K0J4 0J420160416085010804/16/16 08:50:31  5-MIN K0J4 161350Z AUTO 07011G19KT 10SM OVC013 16/13 A3016 100 80 300 070/11G19 RMK AO2 $
63870K0J4 0J420160416085512504/16/16 08:55:31  5-MIN K0J4 161355Z AUTO 08014G18KT 10SM OVC013 16/13 A3016 100 80 300 080/14G18 RMK AO2 SLP210 T01610128 $
63870K0J4 0J420160416090010204/16/16 09:00:31  5-MIN K0J4 161400Z AUTO 06013KT 10SM OVC013 16/13 A3016 100 80 300 060/13 RMK AO2 $
63870K0J4 0J420160416090510204/16/16 09:05:31  5-MIN K0J4 161405Z AUTO 08010KT 10SM OVC013 16/13 A3016 100 80 300 080/10 RMK AO2 $
63870K0J4 0J420160416091010804/16/16 09:10:31  5-MIN K0J4 161410Z AUTO 07008G17KT 10SM OVC013 16/13 A3016 100 80 300 070/08G17 RMK AO2 $
63870K0J4 0J420160416091511404/16/16 09:15:31  5-MIN K0J4 161415Z AUTO 08013G18KT 10SM BKN013 OVC030 16/13 A3016 90 80 300 080/13G18 RMK AO2 $
63870K0J4 0J420160416092011404/16/16 09:20:31  5-MIN K0J4 161420Z AUTO 08013G18KT 10SM BKN013 OVC030 16/13 A3016 90 80 300 080/13G18 RMK AO2 $
63870K0J4 0J420160416092511404/16/16 09:25:31  5-MIN K0J4 161425Z AUTO 08011G19KT 10SM BKN013 OVC030 16/13 A3017 90 80 300 080/11G19 RMK AO2 $
63870K0J4 0J420160416093011404/16/16 09:30:31  5-MIN K0J4 161430Z AUTO 08008G19KT 10SM SCT013 OVC030 16/13 A3017 90 80 300 080/08G19 RMK AO2 $
63870K0J4 0J420160416093511404/16/16 09:35:31  5-MIN K0J4 161435Z AUTO 08010G15KT 10SM SCT015 OVC030 16/13 A3017 90 80 300 080/10G15 RMK AO2 $
63870K0J4 0J420160416094011404/16/16 09:40:31  5-MIN K0J4 161440Z AUTO 08010G16KT 10SM SCT015 OVC030 16/13 A3017 90 80 300 080/10G16 RMK AO2 $
63870K0J4 0J420160416094511404/16/16 09:45:31  5-MIN K0J4 161445Z AUTO 08008G16KT 10SM SCT015 OVC030 17/13 A3017 90 77 300 080/08G16 RMK AO2 $
63870K0J4 0J420160416095011404/16/16 09:50:31  5-MIN K0J4 161450Z AUTO 07010G15KT 10SM SCT015 OVC030 17/13 A3017 90 77 300 070/10G15 RMK AO2 $
63870K0J4 0J420160416095513704/16/16 09:55:31  5-MIN K0J4 161455Z AUTO 07011G15KT 10SM SCT015 OVC030 17/13 A3017 90 77 300 070/11G15 RMK AO2 SLP214 T01670128 53014 $
63870K0J4 0J420160416100011404/16/16 10:00:31  5-MIN K0J4 161500Z AUTO 09010G15KT 10SM BKN015 OVC030 17/13 A3017 80 77 300 090/10G15 RMK AO2 $
63870K0J4 0J420160416100511404/16/16 10:05:31  5-MIN K0J4 161505Z AUTO 09008G14KT 10SM BKN015 OVC030 16/13 A3017 80 80 300 090/08G14 RMK AO2 $
63870K0J4 0J420160416101010804/16/16 10:10:31  5-MIN K0J4 161510Z AUTO 08011KT 10SM BKN015 OVC030 16/13 A3018 80 80 300 080/11 RMK AO2 $
63870K0J4 0J420160416101510804/16/16 10:15:31  5-MIN K0J4 161515Z AUTO 09010KT 10SM BKN015 OVC032 16/13 A3018 80 80 300 090/10 RMK AO2 $
63870K0J4 0J420160416102010104/16/16 10:20:31  5-MIN K0J4 161520Z AUTO 08008KT 10SM OVC015 17/13 A3018 80 77 300 080/08 RMK AO2 $
63870K0J4 0J420160416102510704/16/16 10:25:31  5-MIN K0J4 161525Z AUTO 10010G15KT 10SM OVC015 17/13 A3018 70 80 300 100/10G15 RMK AO2 $
63870K0J4 0J420160416103010704/16/16 10:30:31  5-MIN K0J4 161530Z AUTO 08011G17KT 10SM OVC015 17/13 A3018 70 80 300 080/11G17 RMK AO2 $
63870K0J4 0J420160416103510704/16/16 10:35:31  5-MIN K0J4 161535Z AUTO 08011G17KT 10SM OVC015 17/13 A3018 70 77 300 080/11G17 RMK AO2 $
63870K0J4 0J420160416104010704/16/16 10:40:31  5-MIN K0J4 161540Z AUTO 09009G16KT 10SM OVC015 17/13 A3018 70 80 300 090/09G16 RMK AO2 $
63870K0J4 0J420160416104510704/16/16 10:45:31  5-MIN K0J4 161545Z AUTO 08011G18KT 10SM OVC015 17/13 A3019 70 80 300 080/11G18 RMK AO2 $
63870K0J4 0J420160416105012304/16/16 10:50:31  5-MIN K0J4 161550Z AUTO 09010G18KT 070V130 10SM OVC015 17/13 A3018 70 80 300 090/10G18 070V130 RMK AO2 $
63870K0J4 0J420160416105513904/16/16 10:55:31  5-MIN K0J4 161555Z AUTO 08008G16KT 9SM -RA OVC015 17/13 A3019 70 80 300 080/08G16 RMK AO2 RAB53 SLP219 P0000 T01670133 $
63870K0J4 0J420160416110011604/16/16 11:00:31  5-MIN K0J4 161600Z AUTO 08010G17KT 8SM -RA OVC013 17/14 A3019 70 83 300 080/10G17 RMK AO2 P0000 $
63870K0J4 0J420160416110511704/16/16 11:05:31  5-MIN K0J4 161605Z AUTO 08009G19KT 10SM -RA OVC013 17/14 A3019 70 80 400 080/09G19 RMK AO2 P0000 $
63870K0J4 0J420160416111011904/16/16 11:10:31  5-MIN K0J4 161610Z AUTO 09011G19KT 10SM OVC013 17/14 A3019 70 80 400 090/11G19 RMK AO2 RAE07 P0000 $
63870K0J4 0J420160416111511904/16/16 11:15:31  5-MIN K0J4 161615Z AUTO 08008G19KT 10SM OVC013 17/14 A3019 70 80 400 080/08G19 RMK AO2 RAE07 P0000 $
63870K0J4 0J420160416112011904/16/16 11:20:31  5-MIN K0J4 161620Z AUTO 07012G17KT 10SM OVC015 18/14 A3019 70 78 500 070/12G17 RMK AO2 RAE07 P0000 $
63870K0J4 0J420160416112511304/16/16 11:25:31  5-MIN K0J4 161625Z AUTO 09010KT 10SM OVC015 18/14 A3019 70 75 500 090/10 RMK AO2 RAE07 P0000 $
63870K0J4 0J420160416113011904/16/16 11:30:31  5-MIN K0J4 161630Z AUTO 09008G17KT 10SM OVC015 18/14 A3019 70 75 500 090/08G17 RMK AO2 RAE07 P0000 $
63870K0J4 0J420160416113511904/16/16 11:35:31  5-MIN K0J4 161635Z AUTO 09010G15KT 10SM OVC015 18/14 A3019 70 75 500 090/10G15 RMK AO2 RAE07 P0000 $
63870K0J4 0J420160416114011904/16/16 11:40:31  5-MIN K0J4 161640Z AUTO 10011G17KT 10SM OVC017 18/14 A3019 70 75 500 100/11G17 RMK AO2 RAE07 P0000 $
63870K0J4 0J420160416114511904/16/16 11:45:31  5-MIN K0J4 161645Z AUTO 07014G17KT 10SM OVC017 18/14 A3019 60 78 400 070/14G17 RMK AO2 RAE07 P0000 $
63870K0J4 0J420160416115011904/16/16 11:50:31  5-MIN K0J4 161650Z AUTO 07011G17KT 10SM OVC017 17/14 A3020 60 80 400 070/11G17 RMK AO2 RAE07 P0000 $
63870K0J4 0J420160416115513004/16/16 11:55:31  5-MIN K0J4 161655Z AUTO 07011KT 10SM OVC017 17/13 A3020 60 80 300 070/11 RMK AO2 RAE07 SLP223 P0000 T01670133 $
63870K0J4 0J420160416120012904/16/16 12:00:31  5-MIN K0J4 161700Z AUTO 09008G16KT 7SM -RA FEW009 OVC015 17/14 A3020 60 83 300 090/08G16 RMK AO2 RAB00 P0000 $
63870K0J4 0J420160416120513304/16/16 12:05:31  5-MIN K0J4 161705Z AUTO 10007KT 4SM -RA BR SCT009 BKN013 OVC018 16/14 A3020 60 90 200 100/07 RMK AO2 RAB00 P0001 $
63870K0J4 0J420160416121014404/16/16 12:10:31  5-MIN K0J4 161710Z AUTO 08005KT 3SM RA BR BKN007 BKN014 OVC040 16/14 A3020 60 90 200 080/05 RMK AO2 RAB00 CIG 005V011 P0001 $
63870K0J4 0J420160416121513304/16/16 12:15:31  5-MIN K0J4 161715Z AUTO 09007KT 3SM -RA BR SCT007 BKN013 OVC040 16/15 A3020 60 93 200 090/07 RMK AO2 RAB00 P0002 $
63870K0J4 0J420160416122014504/16/16 12:20:31  5-MIN K0J4 161720Z AUTO 07008KT 3SM -RA BR SCT007 BKN010 OVC040 16/15 A3020 60 93 200 070/08 RMK AO2 RAB00 CIG 009V012 P0003 $
63870K0J4 0J420160416122513704/16/16 12:25:31  5-MIN K0J4 161725Z AUTO 07008KT 1 3/4SM +RA BR BKN010 BKN017 OVC040 16/14 A3020 60 93 200 070/08 RMK AO2 RAB00 P0005 $
63870K0J4 0J420160416123013704/16/16 12:30:31  5-MIN K0J4 161730Z AUTO 07007KT 1 1/2SM +RA BR SCT007 BKN012 OVC040 16/14 A3020 60 93 200 070/07 RMK AO2 RAB00 P0007 $
63870K0J4 0J420160416123513704/16/16 12:35:31  5-MIN K0J4 161735Z AUTO 07008KT 2 1/2SM -RA BR SCT007 BKN012 OVC040 16/14 A3020 60 93 200 070/08 RMK AO2 RAB00 P0007 $
63870K0J4 0J420160416124013304/16/16 12:40:31  5-MIN K0J4 161740Z AUTO 06008KT 4SM -RA BR FEW007 BKN012 OVC040 16/14 A3020 60 93 200 060/08 RMK AO2 RAB00 P0008 $
63870K0J4 0J420160416124513304/16/16 12:45:31  5-MIN K0J4 161745Z AUTO 07010KT 6SM -RA BR FEW007 BKN014 OVC040 16/14 A3020 60 93 200 070/10 RMK AO2 RAB00 P0008 $
63870K0J4 0J420160416125013004/16/16 12:50:31  5-MIN K0J4 161750Z AUTO 07007KT 7SM -RA FEW007 BKN013 OVC040 16/15 A3020 60 93 200 070/07 RMK AO2 RAB00 P0008 $
63870K0J4 0J420160416125512604/16/16 12:55:31  5-MIN K0J4 161755Z AUTO 06008KT 6SM -RA BR FEW005 OVC016 16/15 A3019 70 93 300 060/08 RMK AO2 RAB00 P0008 $
63870K0J4 0J420160416130012704/16/16 13:00:31  5-MIN K0J4 161800Z AUTO 07008KT 6SM -RA BR FEW005 BKN013 OVC044 16/15 A3019 70 93 300 070/08 RMK AO2 P0000 $
63870K0J4 0J420160416130512604/16/16 13:05:31  5-MIN K0J4 161805Z AUTO 07007KT 7SM FEW005 BKN016 OVC044 16/15 A3019 70 93 300 070/07 RMK AO2 RAE04 P0000 $
63870K0J4 0J420160416131012604/16/16 13:10:31  5-MIN K0J4 161810Z AUTO 07009KT 9SM FEW005 BKN018 OVC050 16/15 A3019 70 93 300 070/09 RMK AO2 RAE04 P0000 $
63870K0J4 0J420160416131514304/16/16 13:15:31  5-MIN K0J4 161815Z AUTO 08007KT 060V120 10SM FEW005 BKN018 OVC050 17/15 A3018 70 90 300 080/07 060V120 RMK AO2 RAE04 P0000 $
63870K0J4 0J420160416132014004/16/16 13:20:31  5-MIN K0J4 161820Z AUTO 09008G15KT 10SM -RA SCT007 BKN016 OVC047 17/15 A3018 70 90 300 090/08G15 RMK AO2 RAE04B20 P0000 $
63870K0J4 0J420160416132513904/16/16 13:25:31  5-MIN K0J4 161825Z AUTO 08005G15KT 8SM -RA SCT007 BKN013 OVC045 17/16 A3018 80 93 300 080/05G15 RMK AO2 RAE04B20 P0000 $
63870K0J4 0J420160416133013304/16/16 13:30:31  5-MIN K0J4 161830Z AUTO 10004KT 8SM -RA FEW007 BKN013 OVC050 17/16 A3018 80 90 400 100/04 RMK AO2 RAE04B20 P0000 $
63870K0J4 0J420160416133513404/16/16 13:35:31  5-MIN K0J4 161835Z AUTO 09008KT 10SM -RA FEW007 BKN018 OVC049 17/15 A3018 80 90 300 090/08 RMK AO2 RAE04B20 P0000 $
63870K0J4 0J420160416134013304/16/16 13:40:31  5-MIN K0J4 161840Z AUTO VRB06KT 10SM FEW007 BKN014 OVC049 17/16 A3018 80 90 400 VRB/06 RMK AO2 RAE04B20E38 P0000 $
63870K0J4 0J420160416134513304/16/16 13:45:31  5-MIN K0J4 161845Z AUTO 09007KT 10SM FEW008 BKN015 OVC049 17/16 A3018 80 90 400 090/07 RMK AO2 RAE04B20E38 P0000 $
63870K0J4 0J420160416135013304/16/16 13:50:31  5-MIN K0J4 161850Z AUTO 08008KT 10SM FEW011 BKN018 OVC049 18/16 A3017 80 87 500 080/08 RMK AO2 RAE04B20E38 P0000 $
63870K0J4 0J420160416135515004/16/16 13:55:31  5-MIN K0J4 161855Z AUTO 09008KT 10SM FEW011 BKN018 OVC049 18/16 A3017 90 87 500 090/08 RMK AO2 RAE04B20E38 SLP214 P0000 T01780156 $
63870K0J4 0J420160416140013104/16/16 14:00:31  5-MIN K0J4 161900Z AUTO 08007KT 060V120 10SM FEW009 BKN050 OVC100 18/16 A3017 90 87 500 080/07 060V120 RMK AO2 $
63870K0J4 0J420160416140513104/16/16 14:05:31  5-MIN K0J4 161905Z AUTO 08007KT 060V120 10SM SCT009 SCT019 BKN055 18/16 A3016 90 87 500 080/07 060V120 RMK AO2 $
63870K0J4 0J420160416141011504/16/16 14:10:31  5-MIN K0J4 161910Z AUTO 07009KT 10SM SCT009 BKN019 BKN055 19/16 A3016 90 81 600 070/09 RMK AO2 $
63870K0J4 0J420160416141511504/16/16 14:15:31  5-MIN K0J4 161915Z AUTO VRB04KT 10SM SCT011 BKN019 BKN050 19/16 A3016 90 84 600 VRB/04 RMK AO2 $
63870K0J4 0J420160416142011504/16/16 14:20:31  5-MIN K0J4 161920Z AUTO 08009KT 10SM SCT011 BKN014 BKN050 19/16 A3016 90 81 600 080/09 RMK AO2 $
63870K0J4 0J420160416142512104/16/16 14:25:31  5-MIN K0J4 161925Z AUTO 08007G15KT 10SM BKN011 BKN018 OVC050 18/16 A3016 90 84 500 080/07G15 RMK AO2 $
63870K0J4 0J420160416143013704/16/16 14:30:31  5-MIN K0J4 161930Z AUTO 09007G15KT 060V130 10SM BKN011 BKN016 OVC050 19/16 A3016 90 81 600 090/07G15 060V130 RMK AO2 $
63870K0J4 0J420160416143510904/16/16 14:35:31  5-MIN K0J4 161935Z AUTO VRB06KT 10SM BKN013 OVC050 19/16 A3016 100 81 600 VRB/06 RMK AO2 $
63870K0J4 0J420160416144010904/16/16 14:40:31  5-MIN K0J4 161940Z AUTO 09006KT 10SM BKN013 OVC019 19/16 A3016 100 81 600 090/06 RMK AO2 $
63870K0J4 0J420160416144511604/16/16 14:45:31  5-MIN K0J4 161945Z AUTO 08006KT 10SM BKN013 BKN017 OVC055 19/16 A3016 100 81 600 080/06 RMK AO2 $
63870K0J4 0J420160416145011604/16/16 14:50:31  5-MIN K0J4 161950Z AUTO 08005KT 10SM SCT013 BKN017 OVC055 19/16 A3015 100 81 700 080/05 RMK AO2 $
63870K0J4 0J420160416145510904/16/16 14:55:31  5-MIN K0J4 161955Z AUTO VRB06KT 10SM SCT013 OVC060 19/16 A3015 100 78 700 VRB/06 RMK AO2 $
63870K0J4 0J420160416150011604/16/16 15:00:31  5-MIN K0J4 162000Z AUTO VRB05KT 10SM FEW013 SCT018 OVC060 19/16 A3015 100 78 700 VRB/05 RMK AO2 $
63870K0J4 0J420160416150510904/16/16 15:05:31  5-MIN K0J4 162005Z AUTO 09008KT 10SM FEW013 OVC060 19/15 A3015 100 75 700 090/08 RMK AO2 $
63870K0J4 0J420160416151010904/16/16 15:10:31  5-MIN K0J4 162010Z AUTO 09008KT 10SM FEW016 OVC060 20/15 A3015 110 72 800 090/08 RMK AO2 $
63870K0J4 0J420160416151510904/16/16 15:15:31  5-MIN K0J4 162015Z AUTO 09008KT 10SM BKN060 OVC075 20/15 A3014 110 72 800 090/08 RMK AO2 $
63870K0J4 0J420160416152010904/16/16 15:20:31  5-MIN K0J4 162020Z AUTO 08009KT 10SM BKN060 OVC075 20/15 A3014 110 72 800 080/09 RMK AO2 $
63870K0J4 0J420160416152510904/16/16 15:25:31  5-MIN K0J4 162025Z AUTO 09007KT 10SM BKN060 BKN080 19/14 A3014 110 72 700 090/07 RMK AO2 $
63870K0J4 0J420160416153010904/16/16 15:30:31  5-MIN K0J4 162030Z AUTO 09010KT 10SM BKN060 BKN075 20/15 A3014 110 72 800 090/10 RMK AO2 $
63870K0J4 0J420160416153510904/16/16 15:35:31  5-MIN K0J4 162035Z AUTO 09010KT 10SM BKN060 BKN075 20/15 A3014 110 72 800 090/10 RMK AO2 $
63870K0J4 0J420160416154011604/16/16 15:40:31  5-MIN K0J4 162040Z AUTO 08007KT 10SM FEW022 BKN060 BKN075 20/15 A3014 110 72 800 080/07 RMK AO2 $
63870K0J4 0J420160416154510904/16/16 15:45:31  5-MIN K0J4 162045Z AUTO 08006KT 10SM FEW022 BKN060 21/16 A3014 110 73 800 080/06 RMK AO2 $
63870K0J4 0J420160416155011504/16/16 15:50:31  5-MIN K0J4 162050Z AUTO 08011G15KT 10SM FEW024 BKN060 21/15 A3014 110 70 800 080/11G15 RMK AO2 $
63870K0J4 0J420160416155514404/16/16 15:55:31  5-MIN K0J4 162055Z AUTO 09009G15KT 10SM FEW022 BKN060 21/14 A3014 110 67 800 090/09G15 RMK AO2 SLP204 60000 T02060144 50001 $
63870K0J4 0J420160416160010904/16/16 16:00:31  5-MIN K0J4 162100Z AUTO 07007KT 10SM FEW025 OVC060 21/15 A3014 110 70 800 070/07 RMK AO2 $
63870K0J4 0J420160416160510904/16/16 16:05:31  5-MIN K0J4 162105Z AUTO 07005KT 10SM SCT025 OVC060 21/15 A3014 110 70 800 070/05 RMK AO2 $
63870K0J4 0J420160416161010904/16/16 16:10:31  5-MIN K0J4 162110Z AUTO 07007KT 10SM SCT027 OVC060 21/15 A3014 110 70 800 070/07 RMK AO2 $
63870K0J4 0J420160416161510904/16/16 16:15:31  5-MIN K0J4 162115Z AUTO 07011KT 10SM SCT027 BKN065 21/14 A3014 110 67 800 070/11 RMK AO2 $
63870K0J4 0J420160416162011604/16/16 16:20:31  5-MIN K0J4 162120Z AUTO 07007KT 10SM FEW027 SCT033 BKN065 21/14 A3014 120 67 800 070/07 RMK AO2 $
63870K0J4 0J420160416162511604/16/16 16:25:31  5-MIN K0J4 162125Z AUTO 09007KT 10SM FEW027 BKN033 BKN065 21/14 A3014 120 65 900 090/07 RMK AO2 $
63870K0J4 0J420160416163011604/16/16 16:30:31  5-MIN K0J4 162130Z AUTO 08009KT 10SM FEW027 BKN033 BKN075 21/14 A3014 120 65 900 080/09 RMK AO2 $
63870K0J4 0J420160416163511704/16/16 16:35:31  5-MIN K0J4 162135Z AUTO 09008KT 10SM FEW027 BKN035 BKN070 22/15 A3013 120 65 1000 090/08 RMK AO2 $
63870K0J4 0J420160416164011004/16/16 16:40:31  5-MIN K0J4 162140Z AUTO 09009KT 10SM BKN035 BKN075 22/15 A3013 120 65 1000 090/09 RMK AO2 $
63870K0J4 0J420160416164510304/16/16 16:45:31  5-MIN K0J4 162145Z AUTO 07009KT 10SM BKN035 22/15 A3013 120 65 1000 070/09 RMK AO2 $
63870K0J4 0J420160416165010304/16/16 16:50:31  5-MIN K0J4 162150Z AUTO 07009KT 10SM OVC038 22/15 A3013 120 63 1000 070/09 RMK AO2 $
63870K0J4 0J420160416165512004/16/16 16:55:31  5-MIN K0J4 162155Z AUTO 07010KT 10SM OVC040 22/15 A3013 120 65 1000 070/10 RMK AO2 SLP201 T02170150 $
63870K0J4 0J420160416170010204/16/16 17:00:31  5-MIN K0J4 162200Z AUTO 08007KT 10SM BKN040 21/14 A3013 120 65 900 080/07 RMK AO2 $
63870K0J4 0J420160416170510304/16/16 17:05:31  5-MIN K0J4 162205Z AUTO 08007KT 10SM BKN040 22/15 A3013 120 65 1000 080/07 RMK AO2 $
63870K0J4 0J420160416171010304/16/16 17:10:31  5-MIN K0J4 162210Z AUTO 09006KT 10SM BKN038 22/15 A3014 120 63 1000 090/06 RMK AO2 $
63870K0J4 0J420160416171510304/16/16 17:15:31  5-MIN K0J4 162215Z AUTO 06009KT 10SM BKN040 22/15 A3013 120 63 1000 060/09 RMK AO2 $
63870K0J4 0J420160416172010304/16/16 17:20:31  5-MIN K0J4 162220Z AUTO 07010KT 10SM BKN040 22/14 A3013 120 61 1000 070/10 RMK AO2 $
63870K0J4 0J420160416172510304/16/16 17:25:31  5-MIN K0J4 162225Z AUTO 07011KT 10SM BKN038 22/14 A3014 120 63 1000 070/11 RMK AO2 $
63870K0J4 0J420160416173010904/16/16 17:30:31  5-MIN K0J4 162230Z AUTO 07011KT 10SM BKN038 BKN045 21/14 A3014 110 65 900 070/11 RMK AO2 $
63870K0J4 0J420160416173510204/16/16 17:35:31  5-MIN K0J4 162235Z AUTO 09011KT 10SM BKN041 21/14 A3014 110 65 900 090/11 RMK AO2 $
63870K0J4 0J420160416174010804/16/16 17:40:31  5-MIN K0J4 162240Z AUTO 07010G16KT 10SM BKN041 21/14 A3014 110 63 900 070/10G16 RMK AO2 $
63870K0J4 0J420160416174510904/16/16 17:45:31  5-MIN K0J4 162245Z AUTO 06009KT 10SM FEW037 BKN045 21/14 A3014 110 65 900 060/09 RMK AO2 $
63870K0J4 0J420160416175010904/16/16 17:50:31  5-MIN K0J4 162250Z AUTO 07009KT 10SM FEW035 BKN045 21/14 A3015 110 65 900 070/09 RMK AO2 $
63870K0J4 0J420160416175511904/16/16 17:55:31  5-MIN K0J4 162255Z AUTO 08008KT 10SM BKN045 21/14 A3015 110 65 900 080/08 RMK AO2 SLP206 T02110144 $
63870K0J4 0J420160416180010204/16/16 18:00:31  5-MIN K0J4 162300Z AUTO 08006KT 10SM BKN045 21/14 A3015 100 65 900 080/06 RMK AO2 $
63870K0J4 0J420160416180510204/16/16 18:05:31  5-MIN K0J4 162305Z AUTO 07008KT 10SM OVC045 21/14 A3015 100 65 900 070/08 RMK AO2 $
63870K0J4 0J420160416181010204/16/16 18:10:31  5-MIN K0J4 162310Z AUTO 08006KT 10SM OVC045 21/14 A3015 100 65 900 080/06 RMK AO2 $
63870K0J4 0J420160416181510204/16/16 18:15:31  5-MIN K0J4 162315Z AUTO 08007KT 10SM BKN045 21/14 A3015 100 67 800 080/07 RMK AO2 $
63870K0J4 0J420160416182010204/16/16 18:20:31  5-MIN K0J4 162320Z AUTO 08005KT 10SM BKN045 21/14 A3015 100 65 800 080/05 RMK AO2 $
63870K0J4 0J420160416182510204/16/16 18:25:31  5-MIN K0J4 162325Z AUTO 07006KT 10SM BKN045 21/14 A3015 100 65 800 070/06 RMK AO2 $
63870K0J4 0J420160416183010204/16/16 18:30:31  5-MIN K0J4 162330Z AUTO 08007KT 10SM SCT045 21/14 A3015 100 65 800 080/07 RMK AO2 $
63870K0J4 0J420160416183510804/16/16 18:35:31  5-MIN K0J4 162335Z AUTO 08009G14KT 10SM FEW045 20/14 A3015 100 67 800 080/09G14 RMK AO2 $
63870K0J4 0J420160416184010804/16/16 18:40:31  5-MIN K0J4 162340Z AUTO 08007G14KT 10SM FEW045 20/14 A3015 100 67 800 080/07G14 RMK AO2 $
63870K0J4 0J420160416184509904/16/16 18:45:31  5-MIN K0J4 162345Z AUTO 07007KT 10SM CLR 20/14 A3015 100 67 800 070/07 RMK AO2 $
63870K0J4 0J420160416185009904/16/16 18:50:31  5-MIN K0J4 162350Z AUTO 06006KT 10SM CLR 20/14 A3015 100 67 700 060/06 RMK AO2 $
63870K0J4 0J420160416185514004/16/16 18:55:31  5-MIN K0J4 162355Z AUTO 07005KT 10SM CLR 19/14 A3016 100 70 700 070/05 RMK AO2 SLP210 60000 T01940139 10222 20156 56017 $
63870K0J4 0J420160416190009804/16/16 19:00:31  5-MIN K0J4 170000Z AUTO 09004KT 10SM CLR 19/14 A3016 90 70 700 090/04 RMK AO2 $
63870K0J4 0J420160416190509804/16/16 19:05:31  5-MIN K0J4 170005Z AUTO 08003KT 10SM CLR 19/14 A3016 90 72 600 080/03 RMK AO2 $
63870K0J4 0J420160416191009804/16/16 19:10:31  5-MIN K0J4 170010Z AUTO 06004KT 10SM CLR 19/14 A3016 90 72 600 060/04 RMK AO2 $
63870K0J4 0J420160416191509804/16/16 19:15:31  5-MIN K0J4 170015Z AUTO 07004KT 10SM CLR 19/14 A3017 90 72 600 070/04 RMK AO2 $
63870K0J4 0J420160416192009804/16/16 19:20:31  5-MIN K0J4 170020Z AUTO 07004KT 10SM CLR 19/14 A3017 90 72 600 070/04 RMK AO2 $
63870K0J4 0J420160416192509804/16/16 19:25:31  5-MIN K0J4 170025Z AUTO 08003KT 10SM CLR 18/14 A3017 80 75 500 080/03 RMK AO2 $
63870K0J4 0J420160416193009804/16/16 19:30:31  5-MIN K0J4 170030Z AUTO 00000KT 10SM CLR 18/14 A3018 80 75 500 000/00 RMK AO2 $
63870K0J4 0J420160416193509804/16/16 19:35:31  5-MIN K0J4 170035Z AUTO 00000KT 10SM CLR 18/14 A3018 80 75 500 000/00 RMK AO2 $
63870K0J4 0J420160416194009804/16/16 19:40:31  5-MIN K0J4 170040Z AUTO 07003KT 10SM CLR 18/14 A3018 80 75 500 070/03 RMK AO2 $
63870K0J4 0J420160416194509804/16/16 19:45:31  5-MIN K0J4 170045Z AUTO 05004KT 10SM CLR 18/14 A3018 80 78 500 050/04 RMK AO2 $
63870K0J4 0J420160416195009804/16/16 19:50:31  5-MIN K0J4 170050Z AUTO 05005KT 10SM CLR 17/14 A3018 80 80 400 050/05 RMK AO2 $
63870K0J4 0J420160416195511504/16/16 19:55:31  5-MIN K0J4 170055Z AUTO 05005KT 10SM CLR 17/14 A3018 80 80 400 050/05 RMK AO2 SLP217 T01720139 $
63870K0J4 0J420160416200009804/16/16 20:00:31  5-MIN K0J4 170100Z AUTO 05004KT 10SM CLR 17/14 A3018 80 80 400 050/04 RMK AO2 $
63870K0J4 0J420160416200509804/16/16 20:05:31  5-MIN K0J4 170105Z AUTO 05004KT 10SM CLR 17/14 A3018 70 80 400 050/04 RMK AO2 $
63870K0J4 0J420160416201009804/16/16 20:10:31  5-MIN K0J4 170110Z AUTO 05004KT 10SM CLR 17/14 A3018 70 80 400 050/04 RMK AO2 $
63870K0J4 0J420160416201509804/16/16 20:15:31  5-MIN K0J4 170115Z AUTO 05004KT 10SM CLR 17/14 A3018 70 83 300 050/04 RMK AO2 $
63870K0J4 0J420160416202009804/16/16 20:20:31  5-MIN K0J4 170120Z AUTO 05004KT 10SM CLR 17/14 A3019 70 83 300 050/04 RMK AO2 $
63870K0J4 0J420160416202509804/16/16 20:25:31  5-MIN K0J4 170125Z AUTO 05003KT 10SM CLR 17/14 A3019 70 83 300 050/03 RMK AO2 $
63870K0J4 0J420160416203009804/16/16 20:30:31  5-MIN K0J4 170130Z AUTO 04004KT 10SM CLR 17/14 A3019 70 83 300 040/04 RMK AO2 $
63870K0J4 0J420160416203510104/16/16 20:35:31  5-MIN K0J4 170135Z AUTO 04004KT 10SM SCT090 17/14 A3019 70 83 300 040/04 RMK AO2 $
63870K0J4 0J420160416204010104/16/16 20:40:31  5-MIN K0J4 170140Z AUTO 04005KT 10SM BKN090 17/14 A3019 60 83 300 040/05 RMK AO2 $
63870K0J4 0J420160416204510104/16/16 20:45:31  5-MIN K0J4 170145Z AUTO 04003KT 10SM BKN090 17/14 A3020 60 83 300 040/03 RMK AO2 $
63870K0J4 0J420160416205010104/16/16 20:50:31  5-MIN K0J4 170150Z AUTO 04004KT 10SM BKN090 17/14 A3020 60 83 300 040/04 RMK AO2 $
63870K0J4 0J420160416205511804/16/16 20:55:31  5-MIN K0J4 170155Z AUTO 05005KT 10SM BKN090 17/14 A3020 60 80 400 050/05 RMK AO2 SLP222 T01720139 $
63870K0J4 0J420160416210010104/16/16 21:00:31  5-MIN K0J4 170200Z AUTO 05005KT 10SM OVC090 17/14 A3020 60 80 400 050/05 RMK AO2 $
63870K0J4 0J420160416210510104/16/16 21:05:31  5-MIN K0J4 170205Z AUTO 05005KT 10SM OVC090 17/14 A3020 60 80 400 050/05 RMK AO2 $
63870K0J4 0J420160416211010104/16/16 21:10:31  5-MIN K0J4 170210Z AUTO 04005KT 10SM BKN090 17/14 A3020 60 80 400 040/05 RMK AO2 $
63870K0J4 0J420160416211510104/16/16 21:15:31  5-MIN K0J4 170215Z AUTO 04004KT 10SM BKN090 17/14 A3020 60 83 300 040/04 RMK AO2 $
63870K0J4 0J420160416212010104/16/16 21:20:31  5-MIN K0J4 170220Z AUTO 04004KT 10SM SCT090 17/14 A3020 60 83 300 040/04 RMK AO2 $
63870K0J4 0J420160416212510104/16/16 21:25:31  5-MIN K0J4 170225Z AUTO 05004KT 10SM SCT090 17/14 A3020 50 83 300 050/04 RMK AO2 $
63870K0J4 0J420160416213010104/16/16 21:30:31  5-MIN K0J4 170230Z AUTO 05004KT 10SM FEW090 17/14 A3021 50 83 300 050/04 RMK AO2 $
63870K0J4 0J420160416213509804/16/16 21:35:31  5-MIN K0J4 170235Z AUTO 05004KT 10SM CLR 17/14 A3021 50 83 300 050/04 RMK AO2 $
63870K0J4 0J420160416214009804/16/16 21:40:31  5-MIN K0J4 170240Z AUTO 05003KT 10SM CLR 17/14 A3021 50 83 300 050/03 RMK AO2 $
63870K0J4 0J420160416214509804/16/16 21:45:31  5-MIN K0J4 170245Z AUTO 05003KT 10SM CLR 17/14 A3021 50 83 300 050/03 RMK AO2 $
63870K0J4 0J420160416215009804/16/16 21:50:31  5-MIN K0J4 170250Z AUTO 06003KT 10SM CLR 17/14 A3021 50 83 300 060/03 RMK AO2 $
63870K0J4 0J420160416215512104/16/16 21:55:31  5-MIN K0J4 170255Z AUTO 06004KT 10SM CLR 17/14 A3022 40 83 300 060/04 RMK AO2 SLP229 T01670139 53007 $
63870K0J4 0J420160416220009804/16/16 22:00:31  5-MIN K0J4 170300Z AUTO 06003KT 10SM CLR 17/14 A3022 40 83 300 060/03 RMK AO2 $
63870K0J4 0J420160416220509804/16/16 22:05:31  5-MIN K0J4 170305Z AUTO 06003KT 10SM CLR 17/14 A3022 40 83 300 060/03 RMK AO2 $
63870K0J4 0J420160416221009804/16/16 22:10:31  5-MIN K0J4 170310Z AUTO 06003KT 10SM CLR 17/14 A3022 40 83 300 060/03 RMK AO2 $
63870K0J4 0J420160416221509804/16/16 22:15:31  5-MIN K0J4 170315Z AUTO 06004KT 10SM CLR 17/14 A3022 40 83 300 060/04 RMK AO2 $
63870K0J4 0J420160416222009804/16/16 22:20:31  5-MIN K0J4 170320Z AUTO 06004KT 10SM CLR 17/14 A3022 40 83 300 060/04 RMK AO2 $
63870K0J4 0J420160416222509804/16/16 22:25:31  5-MIN K0J4 170325Z AUTO 06005KT 10SM CLR 17/14 A3022 40 83 300 060/05 RMK AO2 $
63870K0J4 0J420160416223009804/16/16 22:30:31  5-MIN K0J4 170330Z AUTO 06005KT 10SM CLR 17/14 A3022 40 83 300 060/05 RMK AO2 $
63870K0J4 0J420160416223509804/16/16 22:35:31  5-MIN K0J4 170335Z AUTO 06004KT 10SM CLR 17/14 A3022 40 83 300 060/04 RMK AO2 $
63870K0J4 0J420160416224009804/16/16 22:40:31  5-MIN K0J4 170340Z AUTO 06004KT 10SM CLR 17/14 A3022 40 83 300 060/04 RMK AO2 $
63870K0J4 0J420160416224509804/16/16 22:45:31  5-MIN K0J4 170345Z AUTO 06005KT 10SM CLR 17/14 A3022 40 83 300 060/05 RMK AO2 $
63870K0J4 0J420160416225009804/16/16 22:50:31  5-MIN K0J4 170350Z AUTO 06005KT 10SM CLR 17/14 A3022 40 83 300 060/05 RMK AO2 $
63870K0J4 0J420160416225511504/16/16 22:55:31  5-MIN K0J4 170355Z AUTO 06005KT 10SM CLR 16/14 A3022 40 86 200 060/05 RMK AO2 SLP232 T01610139 $
63870K0J4 0J420160416230009804/16/16 23:00:31  5-MIN K0J4 170400Z AUTO 06005KT 10SM CLR 17/14 A3022 40 83 300 060/05 RMK AO2 $
63870K0J4 0J420160416230509804/16/16 23:05:31  5-MIN K0J4 170405Z AUTO 06005KT 10SM CLR 17/14 A3022 40 83 300 060/05 RMK AO2 $
63870K0J4 0J420160416231009804/16/16 23:10:31  5-MIN K0J4 170410Z AUTO 07005KT 10SM CLR 17/14 A3023 30 83 300 070/05 RMK AO2 $
63870K0J4 0J420160416231509804/16/16 23:15:31  5-MIN K0J4 170415Z AUTO 08004KT 10SM CLR 17/14 A3023 30 83 300 080/04 RMK AO2 $
63870K0J4 0J420160416232009804/16/16 23:20:31  5-MIN K0J4 170420Z AUTO 08005KT 10SM CLR 17/14 A3023 30 83 300 080/05 RMK AO2 $
63870K0J4 0J420160416232509804/16/16 23:25:31  5-MIN K0J4 170425Z AUTO 07005KT 10SM CLR 17/14 A3023 30 83 300 070/05 RMK AO2 $
63870K0J4 0J420160416233009804/16/16 23:30:31  5-MIN K0J4 170430Z AUTO 08006KT 10SM CLR 17/14 A3023 30 83 300 080/06 RMK AO2 $
63870K0J4 0J420160416233509804/16/16 23:35:31  5-MIN K0J4 170435Z AUTO 08006KT 10SM CLR 17/14 A3023 30 83 300 080/06 RMK AO2 $
63870K0J4 0J420160416234009804/16/16 23:40:31  5-MIN K0J4 170440Z AUTO 09004KT 10SM CLR 17/14 A3023 30 83 300 090/04 RMK AO2 $
63870K0J4 0J420160416234509804/16/16 23:45:31  5-MIN K0J4 170445Z AUTO 09005KT 10SM CLR 17/13 A3023 30 80 300 090/05 RMK AO2 $
63870K0J4 0J420160416235009804/16/16 23:50:31  5-MIN K0J4 170450Z AUTO 08006KT 10SM CLR 17/13 A3023 30 80 300 080/06 RMK AO2 $
63870K0J4 0J420160416235512504/16/16 23:55:31  5-MIN K0J4 170455Z AUTO 08006KT 10SM CLR 17/13 A3023 30 80 300 080/06 RMK AO2 SLP235 T01670133 402220144 $
63870K0J4 0J420160417000009804/17/16 00:00:31  5-MIN K0J4 170500Z AUTO 09005KT 10SM CLR 17/13 A3023 30 80 300 090/05 RMK AO2 $
63870K0J4 0J420160417000509804/17/16 00:05:31  5-MIN K0J4 170505Z AUTO 09006KT 10SM CLR 17/13 A3023 30 80 300 090/06 RMK AO2 $
63870K0J4 0J420160417001009804/17/16 00:10:31  5-MIN K0J4 170510Z AUTO 09004KT 10SM CLR 17/13 A3023 30 80 300 090/04 RMK AO2 $
63870K0J4 0J420160417001509804/17/16 00:15:31  5-MIN K0J4 170515Z AUTO 09004KT 10SM CLR 17/13 A3023 30 80 300 090/04 RMK AO2 $
63870K0J4 0J420160417002009804/17/16 00:20:31  5-MIN K0J4 170520Z AUTO 08007KT 10SM CLR 17/13 A3023 30 80 300 080/07 RMK AO2 $
63870K0J4 0J420160417002509804/17/16 00:25:31  5-MIN K0J4 170525Z AUTO 08007KT 10SM CLR 17/13 A3023 30 80 300 080/07 RMK AO2 $
63870K0J4 0J420160417003009804/17/16 00:30:31  5-MIN K0J4 170530Z AUTO 09006KT 10SM CLR 17/13 A3023 30 80 300 090/06 RMK AO2 $
63870K0J4 0J420160417003509804/17/16 00:35:31  5-MIN K0J4 170535Z AUTO 08006KT 10SM CLR 17/13 A3023 30 80 300 080/06 RMK AO2 $
63870K0J4 0J420160417004009804/17/16 00:40:31  5-MIN K0J4 170540Z AUTO 09005KT 10SM CLR 17/13 A3023 30 80 300 090/05 RMK AO2 $
63870K0J4 0J420160417004509804/17/16 00:45:31  5-MIN K0J4 170545Z AUTO 08006KT 10SM CLR 17/13 A3023 30 80 300 080/06 RMK AO2 $
63870K0J4 0J420160417005009804/17/16 00:50:31  5-MIN K0J4 170550Z AUTO 08006KT 10SM CLR 16/13 A3023 30 83 200 080/06 RMK AO2 $
63870K0J4 0J420160417005513304/17/16 00:55:31  5-MIN K0J4 170555Z AUTO 08005KT 10SM CLR 16/13 A3023 30 83 200 080/05 RMK AO2 SLP233 T01610133 10194 20161 53019 $
63870K0J4 0J420160417010009804/17/16 01:00:31  5-MIN K0J4 170600Z AUTO 08005KT 10SM CLR 16/13 A3023 30 83 200 080/05 RMK AO2 $
63870K0J4 0J420160417010509804/17/16 01:05:31  5-MIN K0J4 170605Z AUTO 08006KT 10SM CLR 16/13 A3023 30 83 200 080/06 RMK AO2 $
63870K0J4 0J420160417011009804/17/16 01:10:31  5-MIN K0J4 170610Z AUTO 08004KT 10SM CLR 16/13 A3023 30 83 200 080/04 RMK AO2 $
63870K0J4 0J420160417011509804/17/16 01:15:31  5-MIN K0J4 170615Z AUTO 09003KT 10SM CLR 16/13 A3023 30 83 200 090/03 RMK AO2 $
63870K0J4 0J420160417012009804/17/16 01:20:31  5-MIN K0J4 170620Z AUTO 10003KT 10SM CLR 16/13 A3023 30 83 200 100/03 RMK AO2 $
63870K0J4 0J420160417012509804/17/16 01:25:31  5-MIN K0J4 170625Z AUTO 09004KT 10SM CLR 16/13 A3023 30 86 100 090/04 RMK AO2 $
63870K0J4 0J420160417013009804/17/16 01:30:31  5-MIN K0J4 170630Z AUTO 09005KT 10SM CLR 16/13 A3023 30 83 200 090/05 RMK AO2 $
63870K0J4 0J420160417013509804/17/16 01:35:31  5-MIN K0J4 170635Z AUTO 09005KT 10SM CLR 16/13 A3023 30 86 100 090/05 RMK AO2 $
63870K0J4 0J420160417014009804/17/16 01:40:31  5-MIN K0J4 170640Z AUTO 09005KT 10SM CLR 16/13 A3023 30 86 100 090/05 RMK AO2 $
63870K0J4 0J420160417014509804/17/16 01:45:31  5-MIN K0J4 170645Z AUTO 09004KT 10SM CLR 16/13 A3023 30 83 100 090/04 RMK AO2 $
63870K0J4 0J420160417015009804/17/16 01:50:31  5-MIN K0J4 170650Z AUTO 08005KT 10SM CLR 16/13 A3022 40 83 200 080/05 RMK AO2 $
63870K0J4 0J420160417015511504/17/16 01:55:31  5-MIN K0J4 170655Z AUTO 08005KT 10SM CLR 16/13 A3022 40 83 200 080/05 RMK AO2 SLP231 T01560128 $
63870K0J4 0J420160417020009804/17/16 02:00:31  5-MIN K0J4 170700Z AUTO 08006KT 10SM CLR 16/13 A3022 40 83 200 080/06 RMK AO2 $
63870K0J4 0J420160417020509804/17/16 02:05:31  5-MIN K0J4 170705Z AUTO 09006KT 10SM CLR 16/13 A3022 40 83 200 090/06 RMK AO2 $
63870K0J4 0J420160417021009804/17/16 02:10:31  5-MIN K0J4 170710Z AUTO 08007KT 10SM CLR 16/13 A3022 40 83 200 080/07 RMK AO2 $
63870K0J4 0J420160417021509804/17/16 02:15:31  5-MIN K0J4 170715Z AUTO 09005KT 10SM CLR 16/13 A3022 40 83 200 090/05 RMK AO2 $
63870K0J4 0J420160417022009804/17/16 02:20:31  5-MIN K0J4 170720Z AUTO 09005KT 10SM CLR 16/12 A3022 40 80 200 090/05 RMK AO2 $
63870K0J4 0J420160417022509804/17/16 02:25:31  5-MIN K0J4 170725Z AUTO 10005KT 10SM CLR 16/12 A3022 40 80 200 100/05 RMK AO2 $
63870K0J4 0J420160417023009804/17/16 02:30:31  5-MIN K0J4 170730Z AUTO 08006KT 10SM CLR 16/12 A3021 40 80 200 080/06 RMK AO2 $
63870K0J4 0J420160417023509804/17/16 02:35:31  5-MIN K0J4 170735Z AUTO 09006KT 10SM CLR 16/12 A3022 40 80 200 090/06 RMK AO2 $
63870K0J4 0J420160417024009804/17/16 02:40:31  5-MIN K0J4 170740Z AUTO 09006KT 10SM CLR 15/12 A3022 40 83 100 090/06 RMK AO2 $
63870K0J4 0J420160417024509804/17/16 02:45:31  5-MIN K0J4 170745Z AUTO VRB05KT 10SM CLR 16/12 A3022 40 80 200 VRB/05 RMK AO2 $
63870K0J4 0J420160417025009804/17/16 02:50:31  5-MIN K0J4 170750Z AUTO VRB04KT 10SM CLR 16/12 A3022 40 80 200 VRB/04 RMK AO2 $
63870K0J4 0J420160417025511504/17/16 02:55:31  5-MIN K0J4 170755Z AUTO 10005KT 10SM CLR 16/12 A3022 40 80 200 100/05 RMK AO2 SLP230 T01560122 $
63870K0J4 0J420160417030009804/17/16 03:00:31  5-MIN K0J4 170800Z AUTO 09003KT 10SM CLR 15/12 A3022 40 83 100 090/03 RMK AO2 $
63870K0J4 0J420160417030509804/17/16 03:05:31  5-MIN K0J4 170805Z AUTO 09004KT 10SM CLR 15/12 A3022 40 83 100 090/04 RMK AO2 $
63870K0J4 0J420160417031009804/17/16 03:10:31  5-MIN K0J4 170810Z AUTO 09004KT 10SM CLR 15/12 A3022 40 83 100 090/04 RMK AO2 $
63870K0J4 0J420160417031509804/17/16 03:15:31  5-MIN K0J4 170815Z AUTO 08004KT 10SM CLR 15/12 A3022 40 83 100 080/04 RMK AO2 $
63870K0J4 0J420160417032009604/17/16 03:20:31  5-MIN K0J4 170820Z AUTO 09003KT 10SM CLR 14/12 A3022 40 86 0 090/03 RMK AO2 $
63870K0J4 0J420160417032509804/17/16 03:25:31  5-MIN K0J4 170825Z AUTO 08005KT 10SM CLR 15/12 A3022 40 83 100 080/05 RMK AO2 $
63870K0J4 0J420160417033009804/17/16 03:30:31  5-MIN K0J4 170830Z AUTO 08006KT 10SM CLR 15/12 A3022 40 83 100 080/06 RMK AO2 $
63870K0J4 0J420160417033509604/17/16 03:35:31  5-MIN K0J4 170835Z AUTO 07005KT 10SM CLR 14/12 A3022 40 86 0 070/05 RMK AO2 $
63870K0J4 0J420160417034009604/17/16 03:40:31  5-MIN K0J4 170840Z AUTO 08006KT 10SM CLR 14/12 A3022 40 86 0 080/06 RMK AO2 $
63870K0J4 0J420160417034509804/17/16 03:45:31  5-MIN K0J4 170845Z AUTO 09004KT 10SM CLR 15/12 A3022 40 83 100 090/04 RMK AO2 $
63870K0J4 0J420160417035009604/17/16 03:50:31  5-MIN K0J4 170850Z AUTO 09005KT 10SM CLR 14/12 A3022 40 86 0 090/05 RMK AO2 $
63870K0J4 0J420160417035511904/17/16 03:55:31  5-MIN K0J4 170855Z AUTO 08005KT 10SM CLR 14/12 A3023 30 86 0 080/05 RMK AO2 SLP233 T01440122 50003 $
63870K0J4 0J420160417040009604/17/16 04:00:31  5-MIN K0J4 170900Z AUTO 08006KT 10SM CLR 14/12 A3023 30 86 0 080/06 RMK AO2 $
63870K0J4 0J420160417040509604/17/16 04:05:31  5-MIN K0J4 170905Z AUTO 08005KT 10SM CLR 14/12 A3023 30 86 0 080/05 RMK AO2 $
63870K0J4 0J420160417041009604/17/16 04:10:31  5-MIN K0J4 170910Z AUTO 08006KT 10SM CLR 14/12 A3023 30 86 0 080/06 RMK AO2 $
63870K0J4 0J420160417041509604/17/16 04:15:31  5-MIN K0J4 170915Z AUTO 07006KT 10SM CLR 14/12 A3023 30 86 0 070/06 RMK AO2 $
63870K0J4 0J420160417042009604/17/16 04:20:31  5-MIN K0J4 170920Z AUTO 07007KT 10SM CLR 14/12 A3023 40 86 0 070/07 RMK AO2 $
63870K0J4 0J420160417042509604/17/16 04:25:31  5-MIN K0J4 170925Z AUTO 07007KT 10SM CLR 14/12 A3023 30 86 0 070/07 RMK AO2 $
63870K0J4 0J420160417043009604/17/16 04:30:31  5-MIN K0J4 170930Z AUTO 08007KT 10SM CLR 14/12 A3023 30 86 0 080/07 RMK AO2 $
63870K0J4 0J420160417043509604/17/16 04:35:31  5-MIN K0J4 170935Z AUTO 07007KT 10SM CLR 14/12 A3023 30 86 0 070/07 RMK AO2 $
63870K0J4 0J420160417044009604/17/16 04:40:31  5-MIN K0J4 170940Z AUTO 07009KT 10SM CLR 14/12 A3023 30 86 0 070/09 RMK AO2 $
63870K0J4 0J420160417044509604/17/16 04:45:31  5-MIN K0J4 170945Z AUTO 08007KT 10SM CLR 14/12 A3023 30 86 0 080/07 RMK AO2 $
63870K0J4 0J420160417045009604/17/16 04:50:31  5-MIN K0J4 170950Z AUTO 07007KT 10SM CLR 14/12 A3023 30 86 0 070/07 RMK AO2 $
63870K0J4 0J420160417045511304/17/16 04:55:31  5-MIN K0J4 170955Z AUTO 08007KT 10SM CLR 14/12 A3023 30 83 0 080/07 RMK AO2 SLP235 T01440117 $
63870K0J4 0J420160417050009604/17/16 05:00:31  5-MIN K0J4 171000Z AUTO 08007KT 10SM CLR 14/12 A3024 30 83 0 080/07 RMK AO2 $
63870K0J4 0J420160417050509604/17/16 05:05:31  5-MIN K0J4 171005Z AUTO 08005KT 10SM CLR 14/12 A3024 20 86 0 080/05 RMK AO2 $
63870K0J4 0J420160417145512204/17/16 14:55:31  5-MIN K0J4 171955Z AUTO 06011G17KT 10SM CLR 25/12 A3025 20 44 1200 060/11G17 RMK AO2 SLP239 T02500122 $
63870K0J4 0J420160417150010504/17/16 15:00:31  5-MIN K0J4 172000Z AUTO 08009G17KT 10SM CLR 25/12 A3025 20 44 1200 080/09G17 RMK AO2 $
63870K0J4 0J420160417150509904/17/16 15:05:31  5-MIN K0J4 172005Z AUTO 11005KT 10SM CLR 24/12 A3024 20 44 1200 110/05 RMK AO2 $
63870K0J4 0J420160417151009904/17/16 15:10:31  5-MIN K0J4 172010Z AUTO 06007KT 10SM CLR 24/12 A3024 20 44 1200 060/07 RMK AO2 $
63870K0J4 0J420160417151510504/17/16 15:15:31  5-MIN K0J4 172015Z AUTO 07008G15KT 10SM CLR 25/12 A3024 20 44 1200 070/08G15 RMK AO2 $
63870K0J4 0J420160417152010804/17/16 15:20:31  5-MIN K0J4 172020Z AUTO 05010G15KT 10SM FEW050 24/12 A3024 20 44 1200 050/10G15 RMK AO2 $
63870K0J4 0J420160417152510204/17/16 15:25:31  5-MIN K0J4 172025Z AUTO 07007KT 10SM FEW050 24/12 A3024 20 44 1200 070/07 RMK AO2 $
63870K0J4 0J420160417153009904/17/16 15:30:31  5-MIN K0J4 172030Z AUTO 08009KT 10SM CLR 25/12 A3024 20 44 1200 080/09 RMK AO2 $
63870K0J4 0J420160417153510204/17/16 15:35:31  5-MIN K0J4 172035Z AUTO VRB06KT 10SM FEW050 25/12 A3024 20 44 1200 VRB/06 RMK AO2 $
63870K0J4 0J420160417154011804/17/16 15:40:31  5-MIN K0J4 172040Z AUTO 08009KT 040V110 10SM SCT050 25/12 A3024 20 44 1200 080/09 040V110 RMK AO2 $
63870K0J4 0J420160417154510204/17/16 15:45:31  5-MIN K0J4 172045Z AUTO 09007KT 10SM SCT050 24/12 A3024 20 46 1100 090/07 RMK AO2 $
63870K0J4 0J420160417155010204/17/16 15:50:31  5-MIN K0J4 172050Z AUTO 08009KT 10SM FEW050 24/12 A3024 20 46 1200 080/09 RMK AO2 $
63870K0J4 0J420160417155512504/17/16 15:55:31  5-MIN K0J4 172055Z AUTO 07009KT 10SM FEW050 25/12 A3024 20 44 1200 070/09 RMK AO2 SLP236 T02500122 58010 $
63870K0J4 0J420160417160010204/17/16 16:00:31  5-MIN K0J4 172100Z AUTO 09007KT 10SM FEW050 24/12 A3024 30 44 1200 090/07 RMK AO2 $
63870K0J4 0J420160417160510204/17/16 16:05:31  5-MIN K0J4 172105Z AUTO 10008KT 10SM FEW050 25/12 A3024 20 44 1200 100/08 RMK AO2 $
63870K0J4 0J420160417161010204/17/16 16:10:31  5-MIN K0J4 172110Z AUTO 06008KT 10SM SCT050 25/12 A3024 20 44 1200 060/08 RMK AO2 $
63870K0J4 0J420160417161510204/17/16 16:15:31  5-MIN K0J4 172115Z AUTO 07010KT 10SM SCT050 25/12 A3024 20 44 1200 070/10 RMK AO2 $
63870K0J4 0J420160417162010204/17/16 16:20:31  5-MIN K0J4 172120Z AUTO 07009KT 10SM SCT050 24/12 A3024 20 47 1100 070/09 RMK AO2 $
63870K0J4 0J420160417162510204/17/16 16:25:31  5-MIN K0J4 172125Z AUTO 09006KT 10SM SCT050 23/12 A3024 20 49 1000 090/06 RMK AO2 $
63870K0J4 0J420160417163010204/17/16 16:30:31  5-MIN K0J4 172130Z AUTO 12006KT 10SM SCT050 24/12 A3024 20 46 1200 120/06 RMK AO2 $
63870K0J4 0J420160417163510204/17/16 16:35:31  5-MIN K0J4 172135Z AUTO 11009KT 10SM SCT050 24/12 A3024 20 44 1200 110/09 RMK AO2 $
63870K0J4 0J420160417164010204/17/16 16:40:31  5-MIN K0J4 172140Z AUTO 09007KT 10SM BKN050 24/12 A3024 20 44 1200 090/07 RMK AO2 $
63870K0J4 0J420160417164510204/17/16 16:45:31  5-MIN K0J4 172145Z AUTO 07008KT 10SM SCT050 23/12 A3024 20 47 1000 070/08 RMK AO2 $
63870K0J4 0J420160417165010204/17/16 16:50:31  5-MIN K0J4 172150Z AUTO 07007KT 10SM SCT050 23/12 A3024 20 49 1000 070/07 RMK AO2 $
63870K0J4 0J420160417165511904/17/16 16:55:31  5-MIN K0J4 172155Z AUTO 07008KT 10SM FEW050 24/12 A3024 20 46 1200 070/08 RMK AO2 SLP236 T02440122 $
63870K0J4 0J420160417170010204/17/16 17:00:31  5-MIN K0J4 172200Z AUTO 08003KT 10SM FEW050 24/12 A3024 20 44 1200 080/03 RMK AO2 $
63870K0J4 0J420160417170510204/17/16 17:05:31  5-MIN K0J4 172205Z AUTO 08004KT 10SM FEW050 24/12 A3024 20 44 1200 080/04 RMK AO2 $
63870K0J4 0J420160417171010204/17/16 17:10:31  5-MIN K0J4 172210Z AUTO 09007KT 10SM FEW050 24/12 A3024 20 46 1200 090/07 RMK AO2 $
63870K0J4 0J420160417171511804/17/16 17:15:31  5-MIN K0J4 172215Z AUTO 07007KT 040V100 10SM SCT050 24/12 A3024 20 46 1200 070/07 040V100 RMK AO2 $
63870K0J4 0J420160417172010204/17/16 17:20:31  5-MIN K0J4 172220Z AUTO 08007KT 10SM FEW050 23/12 A3024 20 47 1000 080/07 RMK AO2 $
63870K0J4 0J420160417172510204/17/16 17:25:31  5-MIN K0J4 172225Z AUTO 09005KT 10SM FEW050 23/12 A3024 20 49 1000 090/05 RMK AO2 $
63870K0J4 0J420160417173010204/17/16 17:30:31  5-MIN K0J4 172230Z AUTO VRB05KT 10SM FEW050 24/12 A3024 20 47 1100 VRB/05 RMK AO2 $
63870K0J4 0J420160417173510204/17/16 17:35:31  5-MIN K0J4 172235Z AUTO 09006KT 10SM SCT050 24/12 A3024 20 46 1200 090/06 RMK AO2 $
63870K0J4 0J420160417174010204/17/16 17:40:31  5-MIN K0J4 172240Z AUTO 07009KT 10SM BKN050 24/12 A3024 20 44 1200 070/09 RMK AO2 $
63870K0J4 0J420160417174510204/17/16 17:45:31  5-MIN K0J4 172245Z AUTO 10006KT 10SM SCT050 24/12 A3024 20 46 1100 100/06 RMK AO2 $
63870K0J4 0J420160417175010204/17/16 17:50:31  5-MIN K0J4 172250Z AUTO 10004KT 10SM BKN050 23/12 A3024 20 47 1000 100/04 RMK AO2 $
63870K0J4 0J420160417175511904/17/16 17:55:31  5-MIN K0J4 172255Z AUTO 08003KT 10SM BKN050 23/12 A3024 20 51 1000 080/03 RMK AO2 SLP237 T02280122 $
63870K0J4 0J420160417180010204/17/16 18:00:31  5-MIN K0J4 172300Z AUTO 12004KT 10SM BKN050 23/12 A3024 20 49 1000 120/04 RMK AO2 $
63870K0J4 0J420160417180510204/17/16 18:05:31  5-MIN K0J4 172305Z AUTO 12004KT 10SM SCT050 23/12 A3024 20 51 1000 120/04 RMK AO2 $
63870K0J4 0J420160417181010204/17/16 18:10:31  5-MIN K0J4 172310Z AUTO 12003KT 10SM SCT050 23/13 A3024 20 51 1000 120/03 RMK AO2 $
63870K0J4 0J420160417181510204/17/16 18:15:31  5-MIN K0J4 172315Z AUTO 12003KT 10SM FEW050 23/12 A3024 20 49 1000 120/03 RMK AO2 $
63870K0J4 0J420160417182010204/17/16 18:20:31  5-MIN K0J4 172320Z AUTO 09006KT 10SM SCT050 23/12 A3024 20 49 1000 090/06 RMK AO2 $
63870K0J4 0J420160417182510204/17/16 18:25:31  5-MIN K0J4 172325Z AUTO 10005KT 10SM SCT050 23/12 A3024 20 49 1000 100/05 RMK AO2 $
63870K0J4 0J420160417183010204/17/16 18:30:31  5-MIN K0J4 172330Z AUTO 09004KT 10SM FEW050 23/12 A3024 20 49 1000 090/04 RMK AO2 $
63870K0J4 0J420160417183510104/17/16 18:35:31  5-MIN K0J4 172335Z AUTO 08003KT 10SM FEW050 22/12 A3024 20 52 900 080/03 RMK AO2 $
63870K0J4 0J420160417184010104/17/16 18:40:31  5-MIN K0J4 172340Z AUTO 08004KT 10SM FEW050 22/12 A3024 20 52 900 080/04 RMK AO2 $
63870K0J4 0J420160417184510104/17/16 18:45:31  5-MIN K0J4 172345Z AUTO 09003KT 10SM FEW050 22/12 A3025 20 54 800 090/03 RMK AO2 $
63870K0J4 0J420160417185009804/17/16 18:50:31  5-MIN K0J4 172350Z AUTO 09003KT 10SM CLR 22/12 A3025 20 54 800 090/03 RMK AO2 $
63870K0J4 0J420160417185513304/17/16 18:55:31  5-MIN K0J4 172355Z AUTO 00000KT 10SM CLR 22/12 A3025 20 54 800 000/00 RMK AO2 SLP240 T02170122 10250 20217 56016 $
63870K0J4 0J420160417190009804/17/16 19:00:31  5-MIN K0J4 180000Z AUTO 00000KT 10SM CLR 21/12 A3025 10 56 800 000/00 RMK AO2 $
63870K0J4 0J420160417190509804/17/16 19:05:31  5-MIN K0J4 180005Z AUTO 00000KT 10SM CLR 21/12 A3025 10 56 800 000/00 RMK AO2 $
63870K0J4 0J420160417191009804/17/16 19:10:31  5-MIN K0J4 180010Z AUTO 00000KT 10SM CLR 21/12 A3025 10 56 800 000/00 RMK AO2 $
63870K0J4 0J420160417191509804/17/16 19:15:31  5-MIN K0J4 180015Z AUTO 00000KT 10SM CLR 21/13 A3025 10 60 700 000/00 RMK AO2 $
63870K0J4 0J420160417192009804/17/16 19:20:31  5-MIN K0J4 180020Z AUTO 00000KT 10SM CLR 19/13 A3025 10 65 600 000/00 RMK AO2 $
63870K0J4 0J420160417192509804/17/16 19:25:31  5-MIN K0J4 180025Z AUTO 00000KT 10SM CLR 19/13 A3026 10 70 500 000/00 RMK AO2 $
63870K0J4 0J420160417193009804/17/16 19:30:31  5-MIN K0J4 180030Z AUTO 00000KT 10SM CLR 18/14 A3026 10 78 400 000/00 RMK AO2 $
63870K0J4 0J420160417193509704/17/16 19:35:31  5-MIN K0J4 180035Z AUTO 00000KT 10SM CLR 18/14 A3026 0 78 400 000/00 RMK AO2 $
63870K0J4 0J420160417194009704/17/16 19:40:31  5-MIN K0J4 180040Z AUTO 05003KT 10SM CLR 18/13 A3026 0 75 400 050/03 RMK AO2 $
63870K0J4 0J420160417194509704/17/16 19:45:31  5-MIN K0J4 180045Z AUTO 06003KT 10SM CLR 17/14 A3026 0 80 300 060/03 RMK AO2 $
63870K0J4 0J420160417195009704/17/16 19:50:31  5-MIN K0J4 180050Z AUTO 00000KT 10SM CLR 18/13 A3026 0 75 400 000/00 RMK AO2 $
63870K0J4 0J420160417195511404/17/16 19:55:31  5-MIN K0J4 180055Z AUTO 07003KT 10SM CLR 18/13 A3026 0 75 400 070/03 RMK AO2 SLP245 T01780133 $
63870K0J4 0J420160417200009704/17/16 20:00:31  5-MIN K0J4 180100Z AUTO 00000KT 10SM CLR 18/13 A3026 0 72 400 000/00 RMK AO2 $
63870K0J4 0J420160417200509704/17/16 20:05:31  5-MIN K0J4 180105Z AUTO 06003KT 10SM CLR 18/13 A3027 0 72 400 060/03 RMK AO2 $
63870K0J4 0J420160417201009704/17/16 20:10:31  5-MIN K0J4 180110Z AUTO 06003KT 10SM CLR 18/13 A3027 0 72 400 060/03 RMK AO2 $
63870K0J4 0J420160417201509704/17/16 20:15:31  5-MIN K0J4 180115Z AUTO 07004KT 10SM CLR 18/13 A3027 0 70 400 070/04 RMK AO2 $
63870K0J4 0J420160417202009704/17/16 20:20:31  5-MIN K0J4 180120Z AUTO 07003KT 10SM CLR 18/13 A3027 0 70 400 070/03 RMK AO2 $
63870K0J4 0J420160417202509704/17/16 20:25:31  5-MIN K0J4 180125Z AUTO 08004KT 10SM CLR 18/13 A3027 0 70 400 080/04 RMK AO2 $
63870K0J4 0J420160417203009904/17/16 20:30:31  5-MIN K0J4 180130Z AUTO 08004KT 10SM CLR 18/12 A3027 -10 67 400 080/04 RMK AO2 $
63870K0J4 0J420160417203509904/17/16 20:35:31  5-MIN K0J4 180135Z AUTO 08003KT 10SM CLR 18/12 A3028 -10 67 400 080/03 RMK AO2 $
63870K0J4 0J420160417204009904/17/16 20:40:31  5-MIN K0J4 180140Z AUTO 08003KT 10SM CLR 18/12 A3028 -10 67 400 080/03 RMK AO2 $
63870K0J4 0J420160417204509904/17/16 20:45:31  5-MIN K0J4 180145Z AUTO 08003KT 10SM CLR 18/12 A3028 -10 67 400 080/03 RMK AO2 $
63870K0J4 0J420160417205009904/17/16 20:50:31  5-MIN K0J4 180150Z AUTO 07003KT 10SM CLR 18/12 A3028 -10 67 400 070/03 RMK AO2 $
63870K0J4 0J420160417205511604/17/16 20:55:31  5-MIN K0J4 180155Z AUTO 07004KT 10SM CLR 18/12 A3028 -10 67 400 070/04 RMK AO2 SLP251 T01830122 $
63870K0J4 0J420160417210009904/17/16 21:00:31  5-MIN K0J4 180200Z AUTO 07004KT 10SM CLR 18/12 A3028 -10 69 300 070/04 RMK AO2 $
63870K0J4 0J420160417210509904/17/16 21:05:31  5-MIN K0J4 180205Z AUTO 06003KT 10SM CLR 17/12 A3028 -10 72 300 060/03 RMK AO2 $
63870K0J4 0J420160417211009904/17/16 21:10:31  5-MIN K0J4 180210Z AUTO 07005KT 10SM CLR 17/12 A3028 -10 72 300 070/05 RMK AO2 $
63870K0J4 0J420160417211509904/17/16 21:15:31  5-MIN K0J4 180215Z AUTO 07004KT 10SM CLR 18/12 A3028 -10 69 300 070/04 RMK AO2 $
63870K0J4 0J420160417212009904/17/16 21:20:31  5-MIN K0J4 180220Z AUTO 07005KT 10SM CLR 18/12 A3029 -20 67 300 070/05 RMK AO2 $
63870K0J4 0J420160417212509904/17/16 21:25:31  5-MIN K0J4 180225Z AUTO 07005KT 10SM CLR 17/12 A3029 -20 69 300 070/05 RMK AO2 $
63870K0J4 0J420160417213009904/17/16 21:30:31  5-MIN K0J4 180230Z AUTO 07005KT 10SM CLR 17/12 A3029 -20 69 300 070/05 RMK AO2 $
63870K0J4 0J420160417213509904/17/16 21:35:31  5-MIN K0J4 180235Z AUTO 06004KT 10SM CLR 17/12 A3029 -20 69 300 060/04 RMK AO2 $
63870K0J4 0J420160417214009904/17/16 21:40:31  5-MIN K0J4 180240Z AUTO 07004KT 10SM CLR 17/12 A3029 -20 69 300 070/04 RMK AO2 $
63870K0J4 0J420160417214509904/17/16 21:45:31  5-MIN K0J4 180245Z AUTO 07004KT 10SM CLR 17/12 A3029 -20 69 300 070/04 RMK AO2 $
63870K0J4 0J420160417215009904/17/16 21:50:31  5-MIN K0J4 180250Z AUTO 08004KT 10SM CLR 17/12 A3029 -20 69 300 080/04 RMK AO2 $
63870K0J4 0J420160417215512204/17/16 21:55:31  5-MIN K0J4 180255Z AUTO 07004KT 10SM CLR 17/12 A3029 -20 69 300 070/04 RMK AO2 SLP256 T01720117 53003 $
63870K0J4 0J420160417220009904/17/16 22:00:31  5-MIN K0J4 180300Z AUTO 08004KT 10SM CLR 17/12 A3030 -20 69 300 080/04 RMK AO2 $
63870K0J4 0J420160417220509904/17/16 22:05:31  5-MIN K0J4 180305Z AUTO 08004KT 10SM CLR 17/12 A3030 -30 72 200 080/04 RMK AO2 $
63870K0J4 0J420160417221009904/17/16 22:10:31  5-MIN K0J4 180310Z AUTO 07003KT 10SM CLR 17/11 A3030 -30 67 300 070/03 RMK AO2 $
63870K0J4 0J420160417221509904/17/16 22:15:31  5-MIN K0J4 180315Z AUTO 07004KT 10SM CLR 17/11 A3030 -30 69 200 070/04 RMK AO2 $
63870K0J4 0J420160417222009904/17/16 22:20:31  5-MIN K0J4 180320Z AUTO 08004KT 10SM CLR 17/11 A3030 -30 69 200 080/04 RMK AO2 $
63870K0J4 0J420160417222509904/17/16 22:25:31  5-MIN K0J4 180325Z AUTO 07003KT 10SM CLR 17/11 A3030 -30 69 200 070/03 RMK AO2 $
63870K0J4 0J420160417223009904/17/16 22:30:31  5-MIN K0J4 180330Z AUTO 07003KT 10SM CLR 17/11 A3030 -30 69 200 070/03 RMK AO2 $
63870K0J4 0J420160417223509904/17/16 22:35:31  5-MIN K0J4 180335Z AUTO 07003KT 10SM CLR 16/11 A3030 -30 72 100 070/03 RMK AO2 $
63870K0J4 0J420160417224009904/17/16 22:40:31  5-MIN K0J4 180340Z AUTO 07003KT 10SM CLR 16/11 A3030 -30 72 100 070/03 RMK AO2 $
63870K0J4 0J420160417224509904/17/16 22:45:31  5-MIN K0J4 180345Z AUTO 00000KT 10SM CLR 16/11 A3030 -30 72 100 000/00 RMK AO2 $
63870K0J4 0J420160417225009904/17/16 22:50:31  5-MIN K0J4 180350Z AUTO 00000KT 10SM CLR 16/11 A3030 -30 69 100 000/00 RMK AO2 $
63870K0J4 0J420160417225511604/17/16 22:55:31  5-MIN K0J4 180355Z AUTO 00000KT 10SM CLR 16/11 A3030 -30 72 100 000/00 RMK AO2 SLP258 T01560106 $
63870K0J4 0J420160417230009904/17/16 23:00:31  5-MIN K0J4 180400Z AUTO 00000KT 10SM CLR 16/11 A3030 -30 72 100 000/00 RMK AO2 $
63870K0J4 0J420160417230509904/17/16 23:05:31  5-MIN K0J4 180405Z AUTO 06003KT 10SM CLR 16/10 A3030 -30 69 100 060/03 RMK AO2 $
63870K0J4 0J420160417231009904/17/16 23:10:31  5-MIN K0J4 180410Z AUTO 06003KT 10SM CLR 16/10 A3030 -30 69 100 060/03 RMK AO2 $
63870K0J4 0J420160417231509904/17/16 23:15:31  5-MIN K0J4 180415Z AUTO 06003KT 10SM CLR 16/10 A3030 -30 69 100 060/03 RMK AO2 $
63870K0J4 0J420160417232009904/17/16 23:20:31  5-MIN K0J4 180420Z AUTO 06003KT 10SM CLR 16/10 A3030 -20 69 100 060/03 RMK AO2 $
63870K0J4 0J420160417232509704/17/16 23:25:31  5-MIN K0J4 180425Z AUTO 00000KT 10SM CLR 15/09 A3030 -30 69 0 000/00 RMK AO2 $
63870K0J4 0J420160417233009904/17/16 23:30:31  5-MIN K0J4 180430Z AUTO 06003KT 10SM CLR 16/09 A3030 -30 67 100 060/03 RMK AO2 $
63870K0J4 0J420160417233509704/17/16 23:35:31  5-MIN K0J4 180435Z AUTO 06003KT 10SM CLR 15/09 A3030 -20 69 0 060/03 RMK AO2 $
63870K0J4 0J420160417234009704/17/16 23:40:31  5-MIN K0J4 180440Z AUTO 05003KT 10SM CLR 15/09 A3030 -30 69 0 050/03 RMK AO2 $
63870K0J4 0J420160417234509704/17/16 23:45:31  5-MIN K0J4 180445Z AUTO 00000KT 10SM CLR 15/09 A3030 -30 69 0 000/00 RMK AO2 $
63870K0J4 0J420160417235009704/17/16 23:50:31  5-MIN K0J4 180450Z AUTO 00000KT 10SM CLR 15/09 A3030 -30 66 0 000/00 RMK AO2 $
63870K0J4 0J420160417235512404/17/16 23:55:31  5-MIN K0J4 180455Z AUTO 00000KT 10SM CLR 14/09 A3030 -30 69 0 000/00 RMK AO2 SLP257 T01440089 402500139 $
63870K0J4 0J420160418000009704/18/16 00:00:31  5-MIN K0J4 180500Z AUTO 00000KT 10SM CLR 14/09 A3030 -30 72 0 000/00 RMK AO2 $
63870K0J4 0J420160418000509704/18/16 00:05:31  5-MIN K0J4 180505Z AUTO 00000KT 10SM CLR 14/09 A3030 -30 69 0 000/00 RMK AO2 $
63870K0J4 0J420160418001009704/18/16 00:10:31  5-MIN K0J4 180510Z AUTO 00000KT 10SM CLR 14/09 A3030 -30 69 0 000/00 RMK AO2 $
63870K0J4 0J420160418001509704/18/16 00:15:31  5-MIN K0J4 180515Z AUTO 00000KT 10SM CLR 14/09 A3030 -20 69 0 000/00 RMK AO2 $
63870K0J4 0J420160418002009704/18/16 00:20:31  5-MIN K0J4 180520Z AUTO 07003KT 10SM CLR 14/09 A3030 -20 69 0 070/03 RMK AO2 $
63870K0J4 0J420160418002509704/18/16 00:25:31  5-MIN K0J4 180525Z AUTO 00000KT 10SM CLR 14/09 A3030 -20 69 0 000/00 RMK AO2 $
63870K0J4 0J420160418003010004/18/16 00:30:31  5-MIN K0J4 180530Z AUTO 00000KT 10SM CLR 14/09 A3029 -20 71 -100 000/00 RMK AO2 $
63870K0J4 0J420160418003510004/18/16 00:35:31  5-MIN K0J4 180535Z AUTO 00000KT 10SM CLR 14/09 A3030 -20 71 -100 000/00 RMK AO2 $
63870K0J4 0J420160418004010004/18/16 00:40:31  5-MIN K0J4 180540Z AUTO 07003KT 10SM CLR 14/08 A3029 -20 69 -100 070/03 RMK AO2 $
63870K0J4 0J420160418004510004/18/16 00:45:31  5-MIN K0J4 180545Z AUTO 00000KT 10SM CLR 14/08 A3030 -20 69 -100 000/00 RMK AO2 $
63870K0J4 0J420160418005010004/18/16 00:50:31  5-MIN K0J4 180550Z AUTO 00000KT 10SM CLR 14/08 A3030 -20 69 -100 000/00 RMK AO2 $
63870K0J4 0J420160418005513504/18/16 00:55:31  5-MIN K0J4 180555Z AUTO 00000KT 10SM CLR 14/08 A3030 -20 69 -100 000/00 RMK AO2 SLP256 T01390083 10217 20139 52016 $
63870K0J4 0J420160418010010004/18/16 01:00:31  5-MIN K0J4 180600Z AUTO 00000KT 10SM CLR 13/08 A3030 -20 71 -100 000/00 RMK AO2 $
63870K0J4 0J420160418010510004/18/16 01:05:31  5-MIN K0J4 180605Z AUTO 00000KT 10SM CLR 13/08 A3029 -20 71 -100 000/00 RMK AO2 $
63870K0J4 0J420160418011010004/18/16 01:10:31  5-MIN K0J4 180610Z AUTO 00000KT 10SM CLR 13/09 A3029 -20 74 -100 000/00 RMK AO2 $
63870K0J4 0J420160418011510004/18/16 01:15:31  5-MIN K0J4 180615Z AUTO 00000KT 10SM CLR 13/09 A3029 -20 74 -100 000/00 RMK AO2 $
63870K0J4 0J420160418012010004/18/16 01:20:31  5-MIN K0J4 180620Z AUTO 00000KT 10SM CLR 13/08 A3029 -20 71 -100 000/00 RMK AO2 $
63870K0J4 0J420160418012510004/18/16 01:25:31  5-MIN K0J4 180625Z AUTO 00000KT 10SM CLR 13/08 A3029 -20 74 -200 000/00 RMK AO2 $
63870K0J4 0J420160418013010004/18/16 01:30:31  5-MIN K0J4 180630Z AUTO 00000KT 10SM CLR 13/08 A3029 -20 74 -200 000/00 RMK AO2 $
63870K0J4 0J420160418013510004/18/16 01:35:31  5-MIN K0J4 180635Z AUTO 00000KT 10SM CLR 12/08 A3029 -20 77 -300 000/00 RMK AO2 $
63870K0J4 0J420160418014010004/18/16 01:40:31  5-MIN K0J4 180640Z AUTO 06003KT 10SM CLR 13/08 A3029 -20 74 -200 060/03 RMK AO2 $
63870K0J4 0J420160418014510004/18/16 01:45:31  5-MIN K0J4 180645Z AUTO 06003KT 10SM CLR 13/08 A3029 -20 74 -200 060/03 RMK AO2 $
63870K0J4 0J420160418015010004/18/16 01:50:31  5-MIN K0J4 180650Z AUTO 06003KT 10SM CLR 13/08 A3029 -20 71 -200 060/03 RMK AO2 $
63870K0J4 0J420160418015511704/18/16 01:55:31  5-MIN K0J4 180655Z AUTO 06003KT 10SM CLR 13/08 A3029 -20 71 -200 060/03 RMK AO2 SLP253 T01280078 $
63870K0J4 0J420160418020010004/18/16 02:00:31  5-MIN K0J4 180700Z AUTO 08003KT 10SM CLR 13/08 A3029 -20 71 -200 080/03 RMK AO2 $
63870K0J4 0J420160418020510004/18/16 02:05:31  5-MIN K0J4 180705Z AUTO 08003KT 10SM CLR 13/08 A3029 -10 74 -200 080/03 RMK AO2 $
63870K0J4 0J420160418021010004/18/16 02:10:31  5-MIN K0J4 180710Z AUTO 08004KT 10SM CLR 13/08 A3029 -10 71 -100 080/04 RMK AO2 $
63870K0J4 0J420160418021510004/18/16 02:15:31  5-MIN K0J4 180715Z AUTO 08004KT 10SM CLR 13/08 A3029 -10 71 -100 080/04 RMK AO2 $
63870K0J4 0J420160418022010004/18/16 02:20:31  5-MIN K0J4 180720Z AUTO 07004KT 10SM CLR 13/08 A3029 -20 71 -100 070/04 RMK AO2 $
63870K0J4 0J420160418022510004/18/16 02:25:31  5-MIN K0J4 180725Z AUTO 08003KT 10SM CLR 13/08 A3029 -20 71 -100 080/03 RMK AO2 $
63870K0J4 0J420160418023010004/18/16 02:30:31  5-MIN K0J4 180730Z AUTO 08004KT 10SM CLR 13/08 A3028 -10 69 -100 080/04 RMK AO2 $
63870K0J4 0J420160418023510004/18/16 02:35:31  5-MIN K0J4 180735Z AUTO 08004KT 10SM CLR 13/08 A3028 -10 71 -200 080/04 RMK AO2 $
63870K0J4 0J420160418024010004/18/16 02:40:31  5-MIN K0J4 180740Z AUTO 00000KT 10SM CLR 13/08 A3028 -10 69 -100 000/00 RMK AO2 $
63870K0J4 0J420160418024510004/18/16 02:45:31  5-MIN K0J4 180745Z AUTO 00000KT 10SM CLR 13/08 A3028 -10 69 -100 000/00 RMK AO2 $
63870K0J4 0J420160418025010004/18/16 02:50:31  5-MIN K0J4 180750Z AUTO 08004KT 10SM CLR 13/08 A3028 -10 71 -200 080/04 RMK AO2 $
63870K0J4 0J420160418025511704/18/16 02:55:31  5-MIN K0J4 180755Z AUTO 08005KT 10SM CLR 13/08 A3028 -10 71 -200 080/05 RMK AO2 SLP250 T01280078 $
63870K0J4 0J420160418030010004/18/16 03:00:31  5-MIN K0J4 180800Z AUTO 08005KT 10SM CLR 13/08 A3028 -10 74 -200 080/05 RMK AO2 $
63870K0J4 0J420160418030510004/18/16 03:05:31  5-MIN K0J4 180805Z AUTO 08005KT 10SM CLR 13/08 A3028 -10 71 -200 080/05 RMK AO2 $
63870K0J4 0J420160418031010004/18/16 03:10:31  5-MIN K0J4 180810Z AUTO 08003KT 10SM CLR 13/08 A3028 -10 71 -200 080/03 RMK AO2 $
63870K0J4 0J420160418031510004/18/16 03:15:31  5-MIN K0J4 180815Z AUTO 08004KT 10SM CLR 12/08 A3028 -10 74 -300 080/04 RMK AO2 $
63870K0J4 0J420160418032010004/18/16 03:20:31  5-MIN K0J4 180820Z AUTO 08003KT 10SM CLR 12/08 A3028 -10 74 -300 080/03 RMK AO2 $
63870K0J4 0J420160418032510004/18/16 03:25:31  5-MIN K0J4 180825Z AUTO 08003KT 10SM CLR 12/08 A3028 -10 74 -300 080/03 RMK AO2 $
63870K0J4 0J420160418033010004/18/16 03:30:31  5-MIN K0J4 180830Z AUTO 00000KT 10SM CLR 12/08 A3028 -10 74 -300 000/00 RMK AO2 $
63870K0J4 0J420160418033510004/18/16 03:35:31  5-MIN K0J4 180835Z AUTO 00000KT 10SM CLR 12/08 A3028 -10 74 -300 000/00 RMK AO2 $
63870K0J4 0J420160418034010004/18/16 03:40:31  5-MIN K0J4 180840Z AUTO 00000KT 10SM CLR 12/08 A3028 -10 74 -300 000/00 RMK AO2 $
63870K0J4 0J420160418034510004/18/16 03:45:31  5-MIN K0J4 180845Z AUTO 00000KT 10SM CLR 12/08 A3028 -10 74 -300 000/00 RMK AO2 $
63870K0J4 0J420160418035010004/18/16 03:50:31  5-MIN K0J4 180850Z AUTO 00000KT 10SM CLR 12/08 A3028 -10 74 -300 000/00 RMK AO2 $
63870K0J4 0J420160418035512304/18/16 03:55:31  5-MIN K0J4 180855Z AUTO 09003KT 10SM CLR 12/08 A3028 -10 77 -300 090/03 RMK AO2 SLP252 T01170078 50000 $
63870K0J4 0J420160418040010004/18/16 04:00:31  5-MIN K0J4 180900Z AUTO 09003KT 10SM CLR 12/08 A3028 -10 77 -300 090/03 RMK AO2 $
63870K0J4 0J420160418040510004/18/16 04:05:31  5-MIN K0J4 180905Z AUTO 00000KT 10SM CLR 12/08 A3028 -10 77 -300 000/00 RMK AO2 $
63870K0J4 0J420160418041010004/18/16 04:10:31  5-MIN K0J4 180910Z AUTO 08003KT 10SM CLR 12/08 A3028 -10 77 -300 080/03 RMK AO2 $
63870K0J4 0J420160418041510004/18/16 04:15:31  5-MIN K0J4 180915Z AUTO 08003KT 10SM CLR 12/08 A3028 -10 77 -300 080/03 RMK AO2 $
63870K0J4 0J420160418042010004/18/16 04:20:31  5-MIN K0J4 180920Z AUTO 09003KT 10SM CLR 12/08 A3028 -10 77 -300 090/03 RMK AO2 $
63870K0J4 0J420160418042510004/18/16 04:25:31  5-MIN K0J4 180925Z AUTO 09003KT 10SM CLR 12/08 A3029 -10 77 -300 090/03 RMK AO2 $
63870K0J4 0J420160418043010004/18/16 04:30:31  5-MIN K0J4 180930Z AUTO 09003KT 10SM CLR 12/08 A3028 -10 77 -300 090/03 RMK AO2 $
63870K0J4 0J420160418043510004/18/16 04:35:31  5-MIN K0J4 180935Z AUTO 08005KT 10SM CLR 11/08 A3029 -20 80 -400 080/05 RMK AO2 $
63870K0J4 0J420160418044010004/18/16 04:40:31  5-MIN K0J4 180940Z AUTO 08004KT 10SM CLR 11/08 A3029 -20 80 -400 080/04 RMK AO2 $
63870K0J4 0J420160418044510004/18/16 04:45:31  5-MIN K0J4 180945Z AUTO 09005KT 10SM CLR 11/07 A3029 -20 77 -400 090/05 RMK AO2 $
63870K0J4 0J420160418045010004/18/16 04:50:31  5-MIN K0J4 180950Z AUTO 08004KT 10SM CLR 11/07 A3029 -20 77 -400 080/04 RMK AO2 $
63870K0J4 0J420160418045511704/18/16 04:55:31  5-MIN K0J4 180955Z AUTO 08004KT 10SM CLR 11/07 A3029 -20 77 -400 080/04 RMK AO2 SLP255 T01110072 $
63870K0J4 0J420160418050010004/18/16 05:00:31  5-MIN K0J4 181000Z AUTO 09003KT 10SM CLR 11/07 A3030 -20 77 -400 090/03 RMK AO2 $
63870K0J4 0J420160418050510004/18/16 05:05:31  5-MIN K0J4 181005Z AUTO 08003KT 10SM CLR 11/07 A3030 -30 77 -400 080/03 RMK AO2 $
63870K0J4 0J420160418051010004/18/16 05:10:31  5-MIN K0J4 181010Z AUTO 00000KT 10SM CLR 11/07 A3030 -30 77 -400 000/00 RMK AO2 $
63870K0J4 0J420160418051510004/18/16 05:15:31  5-MIN K0J4 181015Z AUTO 00000KT 10SM CLR 11/07 A3030 -30 77 -400 000/00 RMK AO2 $
63870K0J4 0J420160418052010004/18/16 05:20:31  5-MIN K0J4 181020Z AUTO 00000KT 10SM CLR 11/07 A3030 -30 77 -400 000/00 RMK AO2 $
63870K0J4 0J420160418052510004/18/16 05:25:31  5-MIN K0J4 181025Z AUTO 00000KT 10SM CLR 11/07 A3030 -30 77 -400 000/00 RMK AO2 $
63870K0J4 0J420160418053010004/18/16 05:30:31  5-MIN K0J4 181030Z AUTO 00000KT 10SM CLR 11/07 A3030 -30 77 -400 000/00 RMK AO2 $
63870K0J4 0J420160418053510004/18/16 05:35:31  5-MIN K0J4 181035Z AUTO 00000KT 10SM CLR 11/07 A3030 -30 77 -400 000/00 RMK AO2 $
63870K0J4 0J420160418054010004/18/16 05:40:31  5-MIN K0J4 181040Z AUTO 00000KT 10SM CLR 11/07 A3031 -30 77 -400 000/00 RMK AO2 $
63870K0J4 0J420160418054510004/18/16 05:45:31  5-MIN K0J4 181045Z AUTO 00000KT 10SM CLR 11/07 A3031 -30 80 -500 000/00 RMK AO2 $
63870K0J4 0J420160418055010004/18/16 05:50:31  5-MIN K0J4 181050Z AUTO 08003KT 10SM CLR 10/07 A3031 -30 83 -600 080/03 RMK AO2 $
63870K0J4 0J420160418055511704/18/16 05:55:31  5-MIN K0J4 181055Z AUTO 08003KT 10SM CLR 10/07 A3031 -30 80 -600 080/03 RMK AO2 SLP260 T01000067 $
63870K0J4 0J420160418060010004/18/16 06:00:31  5-MIN K0J4 181100Z AUTO 08003KT 10SM CLR 11/07 A3030 -30 77 -500 080/03 RMK AO2 $
63870K0J4 0J420160418060510004/18/16 06:05:31  5-MIN K0J4 181105Z AUTO 08004KT 10SM CLR 11/07 A3030 -30 77 -500 080/04 RMK AO2 $
63870K0J4 0J420160418061010004/18/16 06:10:31  5-MIN K0J4 181110Z AUTO 09003KT 10SM CLR 10/07 A3030 -30 80 -600 090/03 RMK AO2 $
63870K0J4 0J420160418061510004/18/16 06:15:31  5-MIN K0J4 181115Z AUTO 08003KT 10SM CLR 10/07 A3030 -30 80 -600 080/03 RMK AO2 $
63870K0J4 0J420160418062010004/18/16 06:20:31  5-MIN K0J4 181120Z AUTO 08004KT 10SM CLR 10/07 A3030 -30 80 -600 080/04 RMK AO2 $
63870K0J4 0J420160418062510004/18/16 06:25:31  5-MIN K0J4 181125Z AUTO 08003KT 10SM CLR 10/07 A3030 -30 80 -600 080/03 RMK AO2 $
63870K0J4 0J420160418063010004/18/16 06:30:31  5-MIN K0J4 181130Z AUTO 07004KT 10SM CLR 10/07 A3030 -30 80 -600 070/04 RMK AO2 $
63870K0J4 0J420160418063510004/18/16 06:35:31  5-MIN K0J4 181135Z AUTO 08004KT 10SM CLR 10/07 A3030 -30 80 -600 080/04 RMK AO2 $
63870K0J4 0J420160418064010004/18/16 06:40:31  5-MIN K0J4 181140Z AUTO 08003KT 10SM CLR 11/07 A3030 -30 77 -500 080/03 RMK AO2 $
63870K0J4 0J420160418064510004/18/16 06:45:31  5-MIN K0J4 181145Z AUTO 08003KT 10SM CLR 11/07 A3030 -30 77 -500 080/03 RMK AO2 $
63870K0J4 0J420160418065010004/18/16 06:50:31  5-MIN K0J4 181150Z AUTO 00000KT 10SM CLR 11/07 A3030 -30 77 -500 000/00 RMK AO2 $
63870K0J4 0J420160418065513504/18/16 06:55:31  5-MIN K0J4 181155Z AUTO 09003KT 10SM CLR 11/07 A3030 -30 74 -400 090/03 RMK AO2 SLP258 T01110067 10139 20100 55004 $
63870K0J4 0J420160418070009804/18/16 07:00:31  5-MIN K0J4 181200Z AUTO 08004KT 10SM CLR 11/07 A3030 -30 74 -400 080/04 RMK AO2
63870K0J4 0J420160418070510004/18/16 07:05:31  5-MIN K0J4 181205Z AUTO 08003KT 10SM CLR 12/07 A3030 -30 71 -400 080/03 RMK AO2 $
63870K0J4 0J420160418071010004/18/16 07:10:31  5-MIN K0J4 181210Z AUTO 08004KT 10SM CLR 12/07 A3030 -30 71 -400 080/04 RMK AO2 $
63870K0J4 0J420160418071510004/18/16 07:15:31  5-MIN K0J4 181215Z AUTO 08004KT 10SM CLR 12/07 A3030 -30 71 -400 080/04 RMK AO2 $
63870K0J4 0J420160418072010004/18/16 07:20:31  5-MIN K0J4 181220Z AUTO 08004KT 10SM CLR 12/07 A3031 -30 68 -300 080/04 RMK AO2 $
63870K0J4 0J420160418072510004/18/16 07:25:31  5-MIN K0J4 181225Z AUTO 09003KT 10SM CLR 12/07 A3031 -30 68 -300 090/03 RMK AO2 $
63870K0J4 0J420160418073010004/18/16 07:30:31  5-MIN K0J4 181230Z AUTO 09004KT 10SM CLR 13/07 A3031 -30 66 -200 090/04 RMK AO2 $
63870K0J4 0J420160418073510004/18/16 07:35:31  5-MIN K0J4 181235Z AUTO 09003KT 10SM CLR 13/07 A3031 -40 66 -200 090/03 RMK AO2 $
63870K0J4 0J420160418074010004/18/16 07:40:31  5-MIN K0J4 181240Z AUTO VRB04KT 10SM CLR 13/07 A3031 -40 66 -200 VRB/04 RMK AO2 $
63870K0J4 0J420160418074510004/18/16 07:45:31  5-MIN K0J4 181245Z AUTO VRB03KT 10SM CLR 13/07 A3031 -40 66 -200 VRB/03 RMK AO2 $
63870K0J4 0J420160418075010004/18/16 07:50:31  5-MIN K0J4 181250Z AUTO 09004KT 10SM CLR 13/07 A3031 -40 66 -200 090/04 RMK AO2 $
63870K0J4 0J420160418075511704/18/16 07:55:31  5-MIN K0J4 181255Z AUTO 09005KT 10SM CLR 13/07 A3031 -40 64 -200 090/05 RMK AO2 SLP262 T01330067 $
63870K0J4 0J420160418080010004/18/16 08:00:31  5-MIN K0J4 181300Z AUTO 10005KT 10SM CLR 13/07 A3031 -40 66 -200 100/05 RMK AO2 $
63870K0J4 0J420160418080510004/18/16 08:05:31  5-MIN K0J4 181305Z AUTO 10005KT 10SM CLR 14/07 A3031 -40 64 -100 100/05 RMK AO2 $
63870K0J4 0J420160418081010004/18/16 08:10:31  5-MIN K0J4 181310Z AUTO 09006KT 10SM CLR 14/07 A3031 -40 61 -100 090/06 RMK AO2 $
63870K0J4 0J420160418081509704/18/16 08:15:31  5-MIN K0J4 181315Z AUTO 09004KT 10SM CLR 14/07 A3032 -40 61 0 090/04 RMK AO2 $
63870K0J4 0J420160418082009704/18/16 08:20:31  5-MIN K0J4 181320Z AUTO 10005KT 10SM CLR 15/07 A3031 -40 59 0 100/05 RMK AO2 $
63870K0J4 0J420160418082509704/18/16 08:25:31  5-MIN K0J4 181325Z AUTO 10006KT 10SM CLR 15/07 A3031 -40 57 0 100/06 RMK AO2 $
63870K0J4 0J420160418083009704/18/16 08:30:31  5-MIN K0J4 181330Z AUTO 11005KT 10SM CLR 15/07 A3031 -40 59 0 110/05 RMK AO2 $
63870K0J4 0J420160418083509704/18/16 08:35:31  5-MIN K0J4 181335Z AUTO 00000KT 10SM CLR 16/07 A3031 -40 55 0 000/00 RMK AO2 $
63870K0J4 0J420160418084009704/18/16 08:40:31  5-MIN K0J4 181340Z AUTO VRB04KT 10SM CLR 16/07 A3032 -40 55 0 VRB/04 RMK AO2 $
63870K0J4 0J420160418084509704/18/16 08:45:31  5-MIN K0J4 181345Z AUTO 13005KT 10SM CLR 16/07 A3032 -40 55 0 130/05 RMK AO2 $
63870K0J4 0J420160418085009904/18/16 08:50:31  5-MIN K0J4 181350Z AUTO 12004KT 10SM CLR 16/07 A3032 -40 55 100 120/04 RMK AO2 $
63870K0J4 0J420160418085511604/18/16 08:55:31  5-MIN K0J4 181355Z AUTO 11007KT 10SM CLR 16/07 A3032 -40 53 100 110/07 RMK AO2 SLP264 T01610067 $
63870K0J4 0J420160418090009904/18/16 09:00:31  5-MIN K0J4 181400Z AUTO VRB05KT 10SM CLR 17/07 A3032 -40 53 200 VRB/05 RMK AO2 $
63870K0J4 0J420160418090509904/18/16 09:05:31  5-MIN K0J4 181405Z AUTO VRB05KT 10SM CLR 17/07 A3032 -50 49 200 VRB/05 RMK AO2 $
63870K0J4 0J420160418091009904/18/16 09:10:31  5-MIN K0J4 181410Z AUTO 09008KT 10SM CLR 17/07 A3032 -40 49 200 090/08 RMK AO2 $
63870K0J4 0J420160418091509904/18/16 09:15:31  5-MIN K0J4 181415Z AUTO 12006KT 10SM CLR 17/06 A3032 -50 47 200 120/06 RMK AO2 $
63870K0J4 0J420160418092009904/18/16 09:20:31  5-MIN K0J4 181420Z AUTO VRB04KT 10SM CLR 18/07 A3032 -40 48 300 VRB/04 RMK AO2 $
63870K0J4 0J420160418092509904/18/16 09:25:31  5-MIN K0J4 181425Z AUTO 10006KT 10SM CLR 18/07 A3032 -40 48 300 100/06 RMK AO2 $
63870K0J4 0J420160418093009904/18/16 09:30:31  5-MIN K0J4 181430Z AUTO 08008KT 10SM CLR 18/06 A3032 -40 44 400 080/08 RMK AO2 $
63870K0J4 0J420160418093509904/18/16 09:35:31  5-MIN K0J4 181435Z AUTO 09006KT 10SM CLR 18/07 A3032 -40 46 400 090/06 RMK AO2 $
63870K0J4 0J420160418094009904/18/16 09:40:31  5-MIN K0J4 181440Z AUTO 09008KT 10SM CLR 18/06 A3032 -40 44 400 090/08 RMK AO2 $
63870K0J4 0J420160418094509904/18/16 09:45:31  5-MIN K0J4 181445Z AUTO 10007KT 10SM CLR 18/06 A3032 -50 44 400 100/07 RMK AO2 $
63870K0J4 0J420160418095011504/18/16 09:50:31  5-MIN K0J4 181450Z AUTO 10008KT 060V130 10SM CLR 19/06 A3032 -40 43 400 100/08 060V130 RMK AO2 $
63870K0J4 0J420160418095512204/18/16 09:55:31  5-MIN K0J4 181455Z AUTO 13007KT 10SM CLR 19/06 A3031 -40 43 400 130/07 RMK AO2 SLP262 T01890061 50006 $
63870K0J4 0J420160418100009904/18/16 10:00:31  5-MIN K0J4 181500Z AUTO 11007KT 10SM CLR 19/06 A3031 -40 41 500 110/07 RMK AO2 $
63870K0J4 0J420160418100509904/18/16 10:05:31  5-MIN K0J4 181505Z AUTO 12008KT 10SM CLR 19/06 A3031 -40 40 500 120/08 RMK AO2 $
63870K0J4 0J420160418101009904/18/16 10:10:31  5-MIN K0J4 181510Z AUTO VRB06KT 10SM CLR 20/06 A3032 -40 38 600 VRB/06 RMK AO2 $
63870K0J4 0J420160418101509904/18/16 10:15:31  5-MIN K0J4 181515Z AUTO 11007KT 10SM CLR 20/05 A3032 -50 37 600 110/07 RMK AO2 $
63870K0J4 0J420160418102009904/18/16 10:20:31  5-MIN K0J4 181520Z AUTO 09008KT 10SM CLR 20/05 A3032 -50 37 600 090/08 RMK AO2 $
63870K0J4 0J420160418102509904/18/16 10:25:31  5-MIN K0J4 181525Z AUTO 12007KT 10SM CLR 21/05 A3033 -50 35 600 120/07 RMK AO2 $
63870K0J4 0J420160418103009904/18/16 10:30:31  5-MIN K0J4 181530Z AUTO 11007KT 10SM CLR 21/04 A3033 -50 34 600 110/07 RMK AO2 $
63870K0J4 0J420160418103509904/18/16 10:35:31  5-MIN K0J4 181535Z AUTO 11007KT 10SM CLR 21/04 A3033 -50 34 600 110/07 RMK AO2 $
63870K0J4 0J420160418104009904/18/16 10:40:31  5-MIN K0J4 181540Z AUTO VRB05KT 10SM CLR 21/05 A3033 -50 35 600 VRB/05 RMK AO2 $
63870K0J4 0J420160418104509904/18/16 10:45:31  5-MIN K0J4 181545Z AUTO 10008KT 10SM CLR 21/05 A3033 -60 34 700 100/08 RMK AO2 $
63870K0J4 0J420160418105009904/18/16 10:50:31  5-MIN K0J4 181550Z AUTO 09009KT 10SM CLR 21/04 A3033 -50 33 600 090/09 RMK AO2 $
63870K0J4 0J420160418105511604/18/16 10:55:31  5-MIN K0J4 181555Z AUTO 09009KT 10SM CLR 21/05 A3033 -50 34 700 090/09 RMK AO2 SLP267 T02110050 $
63870K0J4 0J420160418110009904/18/16 11:00:31  5-MIN K0J4 181600Z AUTO 09007KT 10SM CLR 21/05 A3033 -50 34 700 090/07 RMK AO2 $
63870K0J4 0J420160418110509904/18/16 11:05:31  5-MIN K0J4 181605Z AUTO 09008KT 10SM CLR 21/04 A3033 -50 33 700 090/08 RMK AO2 $
63870K0J4 0J420160418111009904/18/16 11:10:31  5-MIN K0J4 181610Z AUTO 08009KT 10SM CLR 22/04 A3033 -50 32 700 080/09 RMK AO2 $
63870K0J4 0J420160418111509904/18/16 11:15:31  5-MIN K0J4 181615Z AUTO 09006KT 10SM CLR 22/04 A3033 -50 32 700 090/06 RMK AO2 $
63870K0J4 0J420160418112009904/18/16 11:20:31  5-MIN K0J4 181620Z AUTO 08009KT 10SM CLR 22/04 A3032 -50 31 800 080/09 RMK AO2 $
63870K0J4 0J420160418112509904/18/16 11:25:31  5-MIN K0J4 181625Z AUTO 09006KT 10SM CLR 22/04 A3032 -50 31 800 090/06 RMK AO2 $
63870K0J4 0J420160418113009904/18/16 11:30:31  5-MIN K0J4 181630Z AUTO 10008KT 10SM CLR 22/04 A3032 -50 30 800 100/08 RMK AO2 $
63870K0J4 0J420160418113511504/18/16 11:35:31  5-MIN K0J4 181635Z AUTO 15007KT 100V180 10SM CLR 22/03 A3032 -50 29 800 150/07 100V180 RMK AO2 $
63870K0J4 0J420160418114009904/18/16 11:40:31  5-MIN K0J4 181640Z AUTO 08007KT 10SM CLR 22/05 A3032 -50 32 800 080/07 RMK AO2 $
63870K0J4 0J420160418114509904/18/16 11:45:31  5-MIN K0J4 181645Z AUTO 11007KT 10SM CLR 22/03 A3032 -50 28 800 110/07 RMK AO2 $
63870K0J4 0J420160418115009904/18/16 11:50:31  5-MIN K0J4 181650Z AUTO 13007KT 10SM CLR 22/04 A3032 -50 30 800 130/07 RMK AO2 $
63870K0J4 0J420160418115511604/18/16 11:55:31  5-MIN K0J4 181655Z AUTO 08009KT 10SM CLR 23/03 A3032 -40 27 900 080/09 RMK AO2 SLP264 T02280033 $
63870K0J4 0J420160418120009904/18/16 12:00:31  5-MIN K0J4 181700Z AUTO 11008KT 10SM CLR 23/03 A3032 -40 26 900 110/08 RMK AO2 $
63870K0J4 0J420160418120509904/18/16 12:05:31  5-MIN K0J4 181705Z AUTO VRB06KT 10SM CLR 22/02 A3031 -40 26 800 VRB/06 RMK AO2 $
63870K0J4 0J420160418121009904/18/16 12:10:31  5-MIN K0J4 181710Z AUTO 09007KT 10SM CLR 23/03 A3031 -40 27 900 090/07 RMK AO2 $
63870K0J4 0J420160418121509904/18/16 12:15:31  5-MIN K0J4 181715Z AUTO 09008KT 10SM CLR 23/03 A3031 -30 27 900 090/08 RMK AO2 $
63870K0J4 0J420160418122009904/18/16 12:20:31  5-MIN K0J4 181720Z AUTO 12005KT 10SM CLR 23/03 A3030 -30 27 900 120/05 RMK AO2 $
63870K0J4 0J420160418122510004/18/16 12:25:31  5-MIN K0J4 181725Z AUTO 06006KT 10SM CLR 23/04 A3030 -30 28 1000 060/06 RMK AO2 $
63870K0J4 0J420160418123010004/18/16 12:30:31  5-MIN K0J4 181730Z AUTO 08007KT 10SM CLR 23/03 A3030 -30 26 1000 080/07 RMK AO2 $
63870K0J4 0J420160418123510004/18/16 12:35:31  5-MIN K0J4 181735Z AUTO 14006KT 10SM CLR 23/04 A3029 -20 28 1000 140/06 RMK AO2 $
63870K0J4 0J420160418124012204/18/16 12:40:31  5-MIN K0J4 181740Z AUTO 09009G14KT 050V120 10SM CLR 24/04 A3029 -20 27 1000 090/09G14 050V120 RMK AO2 $
63870K0J4 0J420160418124510604/18/16 12:45:31  5-MIN K0J4 181745Z AUTO 08006G14KT 10SM CLR 24/03 A3029 -20 26 1000 080/06G14 RMK AO2 $
63870K0J4 0J420160418125010004/18/16 12:50:31  5-MIN K0J4 181750Z AUTO 08008KT 10SM CLR 24/03 A3029 -20 25 1000 080/08 RMK AO2 $
63870K0J4 0J420160418125515104/18/16 12:55:31  5-MIN K0J4 181755Z AUTO 08007KT 060V120 10SM CLR 24/03 A3029 -20 25 1000 080/07 060V120 RMK AO2 SLP255 T02390028 10239 20111 50004 $
63870K0J4 0J420160418130010004/18/16 13:00:31  5-MIN K0J4 181800Z AUTO 05009KT 10SM CLR 24/03 A3029 -20 26 1000 050/09 RMK AO2 $
63870K0J4 0J420160418130510004/18/16 13:05:31  5-MIN K0J4 181805Z AUTO VRB05KT 10SM CLR 24/03 A3028 -10 25 1100 VRB/05 RMK AO2 $
63870K0J4 0J420160418131010004/18/16 13:10:31  5-MIN K0J4 181810Z AUTO 07007KT 10SM CLR 24/03 A3028 -10 25 1100 070/07 RMK AO2 $
63870K0J4 0J420160418131510004/18/16 13:15:31  5-MIN K0J4 181815Z AUTO 07006KT 10SM CLR 24/04 A3028 -10 26 1100 070/06 RMK AO2 $
63870K0J4 0J420160418132010604/18/16 13:20:31  5-MIN K0J4 181820Z AUTO 08010G15KT 10SM CLR 24/03 A3028 -10 25 1100 080/10G15 RMK AO2 $
63870K0J4 0J420160418132510604/18/16 13:25:31  5-MIN K0J4 181825Z AUTO 08005G15KT 10SM CLR 24/03 A3028 -10 24 1100 080/05G15 RMK AO2 $
63870K0J4 0J420160418133011604/18/16 13:30:31  5-MIN K0J4 181830Z AUTO 08007KT 060V120 10SM CLR 24/03 A3028 -10 25 1100 080/07 060V120 RMK AO2 $
63870K0J4 0J420160418133511604/18/16 13:35:31  5-MIN K0J4 181835Z AUTO 12007KT 080V140 10SM CLR 24/02 A3027 -10 23 1100 120/07 080V140 RMK AO2 $
63870K0J4 0J420160418134009804/18/16 13:40:31  5-MIN K0J4 181840Z AUTO 07006KT 10SM CLR 25/03 A3027 0 24 1200 070/06 RMK AO2 $
63870K0J4 0J420160418134509804/18/16 13:45:31  5-MIN K0J4 181845Z AUTO 08009KT 10SM CLR 25/03 A3027 0 24 1200 080/09 RMK AO2 $
63870K0J4 0J420160418135009804/18/16 13:50:31  5-MIN K0J4 181850Z AUTO 09007KT 10SM CLR 24/03 A3027 0 24 1100 090/07 RMK AO2 $
63870K0J4 0J420160418205511304/18/16 20:55:31  5-MIN K0J4 190155Z AUTO 00000KT 10SM CLR 14/10 A3025 10 77 0 000/00 RMK AO2 SLP241 T01390100 $
63870K0J4 0J420160418210009604/18/16 21:00:31  5-MIN K0J4 190200Z AUTO 00000KT 10SM CLR 14/10 A3025 10 77 0 000/00 RMK AO2 $
63870K0J4 0J420160418210509604/18/16 21:05:31  5-MIN K0J4 190205Z AUTO 00000KT 10SM CLR 14/10 A3025 10 77 0 000/00 RMK AO2 $
63870K0J4 0J420160418211009604/18/16 21:10:31  5-MIN K0J4 190210Z AUTO 00000KT 10SM CLR 14/10 A3026 10 77 0 000/00 RMK AO2 $
63870K0J4 0J420160418211509604/18/16 21:15:31  5-MIN K0J4 190215Z AUTO 00000KT 10SM CLR 14/11 A3026 10 80 0 000/00 RMK AO2 $
63870K0J4 0J420160418212009604/18/16 21:20:31  5-MIN K0J4 190220Z AUTO 00000KT 10SM CLR 14/10 A3026 10 77 0 000/00 RMK AO2 $
63870K0J4 0J420160418212509904/18/16 21:25:31  5-MIN K0J4 190225Z AUTO 00000KT 10SM CLR 13/11 A3026 10 86 -100 000/00 RMK AO2 $
63870K0J4 0J420160418213009904/18/16 21:30:31  5-MIN K0J4 190230Z AUTO 00000KT 10SM CLR 13/11 A3026 10 86 -100 000/00 RMK AO2 $
63870K0J4 0J420160418213509804/18/16 21:35:31  5-MIN K0J4 190235Z AUTO 00000KT 10SM CLR 13/11 A3026 0 83 -100 000/00 RMK AO2 $
63870K0J4 0J420160418214009504/18/16 21:40:31  5-MIN K0J4 190240Z AUTO 00000KT 10SM CLR 14/10 A3026 0 77 0 000/00 RMK AO2 $
63870K0J4 0J420160418214509804/18/16 21:45:31  5-MIN K0J4 190245Z AUTO 00000KT 10SM CLR 13/10 A3026 0 80 -100 000/00 RMK AO2 $
63870K0J4 0J420160418215009804/18/16 21:50:31  5-MIN K0J4 190250Z AUTO 23003KT 10SM CLR 13/09 A3026 0 80 -200 230/03 RMK AO2 $
63870K0J4 0J420160418215512104/18/16 21:55:31  5-MIN K0J4 190255Z AUTO 23003KT 10SM CLR 13/10 A3026 0 83 -200 230/03 RMK AO2 SLP246 T01280100 53002 $
63870K0J4 0J420160418220009804/18/16 22:00:31  5-MIN K0J4 190300Z AUTO 23003KT 10SM CLR 13/11 A3027 0 83 -100 230/03 RMK AO2 $
63870K0J4 0J420160418220509804/18/16 22:05:31  5-MIN K0J4 190305Z AUTO 23003KT 10SM CLR 12/10 A3027 0 86 -200 230/03 RMK AO2 $
63870K0J4 0J420160418221009804/18/16 22:10:31  5-MIN K0J4 190310Z AUTO 23003KT 10SM CLR 12/10 A3027 0 86 -200 230/03 RMK AO2 $
63870K0J4 0J420160418221509804/18/16 22:15:31  5-MIN K0J4 190315Z AUTO 22004KT 10SM CLR 12/10 A3027 0 86 -200 220/04 RMK AO2 $
63870K0J4 0J420160418222009804/18/16 22:20:31  5-MIN K0J4 190320Z AUTO 23004KT 10SM CLR 13/10 A3027 0 83 -200 230/04 RMK AO2 $
63870K0J4 0J420160418222509804/18/16 22:25:31  5-MIN K0J4 190325Z AUTO 22003KT 10SM CLR 13/10 A3027 0 83 -200 220/03 RMK AO2 $
63870K0J4 0J420160418223009804/18/16 22:30:31  5-MIN K0J4 190330Z AUTO 22003KT 10SM CLR 13/10 A3026 0 83 -200 220/03 RMK AO2 $
63870K0J4 0J420160418223509804/18/16 22:35:31  5-MIN K0J4 190335Z AUTO 23003KT 10SM CLR 13/10 A3026 0 83 -200 230/03 RMK AO2 $
63870K0J4 0J420160418224009804/18/16 22:40:31  5-MIN K0J4 190340Z AUTO 00000KT 10SM CLR 12/10 A3026 0 86 -200 000/00 RMK AO2 $
63870K0J4 0J420160418224509804/18/16 22:45:31  5-MIN K0J4 190345Z AUTO 24003KT 10SM CLR 12/10 A3026 0 86 -200 240/03 RMK AO2 $
63870K0J4 0J420160418225009804/18/16 22:50:31  5-MIN K0J4 190350Z AUTO 00000KT 10SM CLR 12/10 A3026 0 86 -200 000/00 RMK AO2 $
63870K0J4 0J420160418225511504/18/16 22:55:31  5-MIN K0J4 190355Z AUTO 00000KT 10SM CLR 13/10 A3026 0 83 -200 000/00 RMK AO2 SLP244 T01280100 $
63870K0J4 0J420160418230009804/18/16 23:00:31  5-MIN K0J4 190400Z AUTO 00000KT 10SM CLR 12/10 A3026 0 86 -200 000/00 RMK AO2 $
63870K0J4 0J420160418230509904/18/16 23:05:31  5-MIN K0J4 190405Z AUTO 23003KT 10SM CLR 13/11 A3026 10 86 -200 230/03 RMK AO2 $
63870K0J4 0J420160418231009904/18/16 23:10:31  5-MIN K0J4 190410Z AUTO 00000KT 10SM CLR 13/11 A3026 10 86 -200 000/00 RMK AO2 $
63870K0J4 0J420160418231509904/18/16 23:15:31  5-MIN K0J4 190415Z AUTO 00000KT 10SM CLR 12/10 A3026 10 89 -300 000/00 RMK AO2 $
63870K0J4 0J420160418232009904/18/16 23:20:31  5-MIN K0J4 190420Z AUTO 00000KT 10SM CLR 12/10 A3026 10 89 -300 000/00 RMK AO2 $
63870K0J4 0J420160418232509904/18/16 23:25:31  5-MIN K0J4 190425Z AUTO 00000KT 10SM CLR 12/11 A3025 10 89 -200 000/00 RMK AO2 $
63870K0J4 0J420160418233009904/18/16 23:30:31  5-MIN K0J4 190430Z AUTO 00000KT 10SM CLR 12/10 A3025 10 86 -200 000/00 RMK AO2 $
63870K0J4 0J420160418233509904/18/16 23:35:31  5-MIN K0J4 190435Z AUTO 00000KT 10SM CLR 12/10 A3025 10 89 -300 000/00 RMK AO2 $
63870K0J4 0J420160418234009904/18/16 23:40:31  5-MIN K0J4 190440Z AUTO 00000KT 10SM CLR 12/10 A3025 10 89 -300 000/00 RMK AO2 $
63870K0J4 0J420160418234509904/18/16 23:45:31  5-MIN K0J4 190445Z AUTO 00000KT 10SM CLR 12/10 A3025 10 86 -200 000/00 RMK AO2 $
63870K0J4 0J420160418235009904/18/16 23:50:31  5-MIN K0J4 190450Z AUTO 00000KT 10SM CLR 12/10 A3025 10 89 -300 000/00 RMK AO2 $
63870K0J4 0J420160418235512604/18/16 23:55:31  5-MIN K0J4 190455Z AUTO 00000KT 10SM CLR 12/10 A3025 10 89 -300 000/00 RMK AO2 SLP240 T01170100 402560100 $
63870K0J4 0J420160419000009904/19/16 00:00:31  5-MIN K0J4 190500Z AUTO 00000KT 10SM CLR 12/10 A3025 10 89 -300 000/00 RMK AO2 $
63870K0J4 0J420160419000509904/19/16 00:05:31  5-MIN K0J4 190505Z AUTO 00000KT 10SM CLR 12/09 A3025 10 86 -300 000/00 RMK AO2 $
63870K0J4 0J420160419001009904/19/16 00:10:31  5-MIN K0J4 190510Z AUTO 00000KT 10SM CLR 12/10 A3025 10 89 -300 000/00 RMK AO2 $
63870K0J4 0J420160419001509904/19/16 00:15:31  5-MIN K0J4 190515Z AUTO 00000KT 10SM CLR 12/09 A3025 10 86 -300 000/00 RMK AO2 $
63870K0J4 0J420160419002009904/19/16 00:20:31  5-MIN K0J4 190520Z AUTO 00000KT 10SM CLR 12/10 A3025 10 89 -300 000/00 RMK AO2 $
63870K0J4 0J420160419002509904/19/16 00:25:31  5-MIN K0J4 190525Z AUTO 00000KT 10SM CLR 12/10 A3025 20 89 -300 000/00 RMK AO2 $
63870K0J4 0J420160419003009904/19/16 00:30:31  5-MIN K0J4 190530Z AUTO 00000KT 10SM CLR 12/10 A3025 20 89 -300 000/00 RMK AO2 $
63870K0J4 0J420160419003509904/19/16 00:35:31  5-MIN K0J4 190535Z AUTO 00000KT 10SM CLR 12/10 A3025 20 89 -300 000/00 RMK AO2 $
63870K0J4 0J420160419004009904/19/16 00:40:31  5-MIN K0J4 190540Z AUTO 00000KT 10SM CLR 12/11 A3024 20 93 -300 000/00 RMK AO2 $
63870K0J4 0J420160419004509904/19/16 00:45:31  5-MIN K0J4 190545Z AUTO 00000KT 10SM CLR 12/11 A3024 20 93 -300 000/00 RMK AO2 $
63870K0J4 0J420160419005009904/19/16 00:50:31  5-MIN K0J4 190550Z AUTO 00000KT 10SM CLR 12/11 A3024 20 93 -300 000/00 RMK AO2 $
63870K0J4 0J420160419005513404/19/16 00:55:31  5-MIN K0J4 190555Z AUTO 00000KT 10SM CLR 11/10 A3024 20 93 -300 000/00 RMK AO2 SLP237 T01110100 10189 20111 53010 $
63870K0J4 0J420160419010009904/19/16 01:00:31  5-MIN K0J4 190600Z AUTO 00000KT 10SM CLR 11/10 A3024 20 93 -300 000/00 RMK AO2 $
63870K0J4 0J420160419010509904/19/16 01:05:31  5-MIN K0J4 190605Z AUTO 00000KT 10SM CLR 11/09 A3023 30 93 -400 000/00 RMK AO2 $
63870K0J4 0J420160419011009904/19/16 01:10:31  5-MIN K0J4 190610Z AUTO 00000KT 10SM CLR 11/09 A3023 30 89 -300 000/00 RMK AO2 $
63870K0J4 0J420160419011509904/19/16 01:15:31  5-MIN K0J4 190615Z AUTO 00000KT 10SM CLR 11/09 A3023 30 89 -300 000/00 RMK AO2 $
63870K0J4 0J420160419012009904/19/16 01:20:31  5-MIN K0J4 190620Z AUTO 00000KT 10SM CLR 11/09 A3023 30 89 -300 000/00 RMK AO2 $
63870K0J4 0J420160419012509904/19/16 01:25:31  5-MIN K0J4 190625Z AUTO 00000KT 10SM CLR 11/09 A3023 30 89 -300 000/00 RMK AO2 $
63870K0J4 0J420160419013009904/19/16 01:30:31  5-MIN K0J4 190630Z AUTO 00000KT 10SM CLR 11/09 A3023 30 89 -300 000/00 RMK AO2 $
63870K0J4 0J420160419013509904/19/16 01:35:31  5-MIN K0J4 190635Z AUTO 00000KT 10SM CLR 11/09 A3022 40 93 -400 000/00 RMK AO2 $
63870K0J4 0J420160419014009904/19/16 01:40:31  5-MIN K0J4 190640Z AUTO 00000KT 10SM CLR 11/09 A3022 40 93 -400 000/00 RMK AO2 $
63870K0J4 0J420160419014509904/19/16 01:45:31  5-MIN K0J4 190645Z AUTO 00000KT 10SM CLR 11/09 A3022 40 93 -400 000/00 RMK AO2 $
63870K0J4 0J420160419015009904/19/16 01:50:31  5-MIN K0J4 190650Z AUTO 00000KT 10SM CLR 11/09 A3022 40 93 -400 000/00 RMK AO2 $
63870K0J4 0J420160419015511604/19/16 01:55:31  5-MIN K0J4 190655Z AUTO 00000KT 10SM CLR 11/09 A3022 40 89 -300 000/00 RMK AO2 SLP230 T01110094 $
63870K0J4 0J420160419020009904/19/16 02:00:31  5-MIN K0J4 190700Z AUTO 00000KT 10SM CLR 11/09 A3022 40 89 -300 000/00 RMK AO2 $
63870K0J4 0J420160419020509904/19/16 02:05:31  5-MIN K0J4 190705Z AUTO 00000KT 10SM CLR 11/09 A3022 40 93 -400 000/00 RMK AO2 $
63870K0J4 0J420160419021009904/19/16 02:10:31  5-MIN K0J4 190710Z AUTO 00000KT 10SM CLR 11/09 A3021 40 93 -400 000/00 RMK AO2 $
63870K0J4 0J420160419021509904/19/16 02:15:31  5-MIN K0J4 190715Z AUTO 00000KT 10SM CLR 11/09 A3021 50 93 -400 000/00 RMK AO2 $
63870K0J4 0J420160419022009904/19/16 02:20:31  5-MIN K0J4 190720Z AUTO 00000KT 10SM CLR 11/09 A3021 50 93 -400 000/00 RMK AO2 $
63870K0J4 0J420160419022509904/19/16 02:25:31  5-MIN K0J4 190725Z AUTO 00000KT 10SM CLR 11/09 A3021 50 93 -400 000/00 RMK AO2 $
63870K0J4 0J420160419023009904/19/16 02:30:31  5-MIN K0J4 190730Z AUTO 00000KT 10SM CLR 11/09 A3021 50 93 -400 000/00 RMK AO2 $
63870K0J4 0J420160419023509904/19/16 02:35:31  5-MIN K0J4 190735Z AUTO 00000KT 10SM CLR 11/09 A3021 50 93 -400 000/00 RMK AO2 $
63870K0J4 0J420160419024009904/19/16 02:40:31  5-MIN K0J4 190740Z AUTO 00000KT 10SM CLR 10/09 A3021 50 96 -400 000/00 RMK AO2 $
63870K0J4 0J420160419024509904/19/16 02:45:31  5-MIN K0J4 190745Z AUTO 00000KT 10SM CLR 10/09 A3021 50 96 -400 000/00 RMK AO2 $
63870K0J4 0J420160419025009904/19/16 02:50:31  5-MIN K0J4 190750Z AUTO 00000KT 10SM CLR 10/09 A3021 50 93 -400 000/00 RMK AO2 $
63870K0J4 0J420160419025511604/19/16 02:55:31  5-MIN K0J4 190755Z AUTO 00000KT 10SM CLR 10/09 A3021 50 93 -400 000/00 RMK AO2 SLP226 T01000089 $
63870K0J4 0J420160419030009904/19/16 03:00:31  5-MIN K0J4 190800Z AUTO 00000KT 10SM CLR 10/09 A3021 50 93 -400 000/00 RMK AO2 $
63870K0J4 0J420160419030509904/19/16 03:05:31  5-MIN K0J4 190805Z AUTO 00000KT 10SM CLR 09/09 A3021 50 96 -500 000/00 RMK AO2 $
63870K0J4 0J420160419031009904/19/16 03:10:31  5-MIN K0J4 190810Z AUTO 00000KT 10SM CLR 10/09 A3021 50 93 -400 000/00 RMK AO2 $
63870K0J4 0J420160419031509904/19/16 03:15:31  5-MIN K0J4 190815Z AUTO 00000KT 10SM CLR 10/09 A3021 50 96 -400 000/00 RMK AO2 $
63870K0J4 0J420160419032009904/19/16 03:20:31  5-MIN K0J4 190820Z AUTO 00000KT 10SM CLR 09/09 A3021 50 96 -500 000/00 RMK AO2 $
63870K0J4 0J420160419032509904/19/16 03:25:31  5-MIN K0J4 190825Z AUTO 00000KT 10SM CLR 09/09 A3021 50 96 -500 000/00 RMK AO2 $
63870K0J4 0J420160419033009904/19/16 03:30:31  5-MIN K0J4 190830Z AUTO 00000KT 10SM CLR 09/09 A3020 50 96 -500 000/00 RMK AO2 $
63870K0J4 0J420160419033509904/19/16 03:35:31  5-MIN K0J4 190835Z AUTO 00000KT 10SM CLR 10/09 A3021 50 93 -400 000/00 RMK AO2 $
63870K0J4 0J420160419034009904/19/16 03:40:31  5-MIN K0J4 190840Z AUTO 00000KT 10SM CLR 10/09 A3021 50 93 -400 000/00 RMK AO2 $
63870K0J4 0J420160419034509904/19/16 03:45:31  5-MIN K0J4 190845Z AUTO 00000KT 10SM CLR 10/09 A3020 50 93 -400 000/00 RMK AO2 $
63870K0J4 0J420160419035009904/19/16 03:50:31  5-MIN K0J4 190850Z AUTO 00000KT 10SM CLR 10/09 A3021 50 96 -400 000/00 RMK AO2 $
63870K0J4 0J420160419035512204/19/16 03:55:31  5-MIN K0J4 190855Z AUTO 00000KT 10SM CLR 10/09 A3021 50 93 -400 000/00 RMK AO2 SLP226 T01000089 58009 $
63870K0J4 0J420160419040009904/19/16 04:00:31  5-MIN K0J4 190900Z AUTO 00000KT 10SM CLR 09/09 A3020 60 96 -500 000/00 RMK AO2 $
63870K0J4 0J420160419040509904/19/16 04:05:31  5-MIN K0J4 190905Z AUTO 00000KT 10SM CLR 09/08 A3020 60 93 -500 000/00 RMK AO2 $
63870K0J4 0J420160419041009904/19/16 04:10:31  5-MIN K0J4 190910Z AUTO 00000KT 10SM CLR 09/08 A3020 60 93 -500 000/00 RMK AO2 $
63870K0J4 0J420160419041509904/19/16 04:15:31  5-MIN K0J4 190915Z AUTO 00000KT 10SM CLR 09/09 A3020 60 96 -500 000/00 RMK AO2 $
63870K0J4 0J420160419042009904/19/16 04:20:31  5-MIN K0J4 190920Z AUTO 00000KT 10SM CLR 09/09 A3020 60 96 -500 000/00 RMK AO2 $
63870K0J4 0J420160419042509904/19/16 04:25:31  5-MIN K0J4 190925Z AUTO 00000KT 10SM CLR 09/09 A3020 60 96 -500 000/00 RMK AO2 $
63870K0J4 0J420160419043009904/19/16 04:30:31  5-MIN K0J4 190930Z AUTO 00000KT 10SM CLR 09/08 A3020 60 96 -600 000/00 RMK AO2 $
63870K0J4 0J420160419043509904/19/16 04:35:31  5-MIN K0J4 190935Z AUTO 00000KT 10SM CLR 09/08 A3020 60 93 -600 000/00 RMK AO2 $
63870K0J4 0J420160419044009904/19/16 04:40:31  5-MIN K0J4 190940Z AUTO 00000KT 10SM CLR 09/08 A3020 50 89 -500 000/00 RMK AO2 $
63870K0J4 0J420160419044509904/19/16 04:45:31  5-MIN K0J4 190945Z AUTO 00000KT 10SM CLR 09/08 A3021 50 93 -500 000/00 RMK AO2 $
63870K0J4 0J420160419045009904/19/16 04:50:31  5-MIN K0J4 190950Z AUTO 00000KT 10SM CLR 09/08 A3021 50 93 -500 000/00 RMK AO2 $
63870K0J4 0J420160419045511604/19/16 04:55:31  5-MIN K0J4 190955Z AUTO 00000KT 10SM CLR 09/08 A3021 50 93 -500 000/00 RMK AO2 SLP227 T00940083 $
63870K0J4 0J420160419050009904/19/16 05:00:31  5-MIN K0J4 191000Z AUTO 00000KT 10SM CLR 09/08 A3021 50 93 -500 000/00 RMK AO2 $
63870K0J4 0J420160419050509904/19/16 05:05:31  5-MIN K0J4 191005Z AUTO 00000KT 10SM CLR 09/08 A3021 50 93 -600 000/00 RMK AO2 $
63870K0J4 0J420160419051009904/19/16 05:10:31  5-MIN K0J4 191010Z AUTO 00000KT 10SM CLR 09/08 A3020 50 93 -600 000/00 RMK AO2 $
63870K0J4 0J420160419051509904/19/16 05:15:31  5-MIN K0J4 191015Z AUTO 00000KT 10SM CLR 09/08 A3020 50 93 -600 000/00 RMK AO2 $
63870K0J4 0J420160419052009904/19/16 05:20:31  5-MIN K0J4 191020Z AUTO 00000KT 10SM CLR 09/08 A3021 50 96 -600 000/00 RMK AO2 $
63870K0J4 0J420160419052509904/19/16 05:25:31  5-MIN K0J4 191025Z AUTO 00000KT 10SM CLR 09/08 A3021 50 93 -600 000/00 RMK AO2 $
63870K0J4 0J420160419053009904/19/16 05:30:31  5-MIN K0J4 191030Z AUTO 00000KT 10SM CLR 08/07 A3021 50 93 -600 000/00 RMK AO2 $
63870K0J4 0J420160419053509904/19/16 05:35:31  5-MIN K0J4 191035Z AUTO 00000KT 10SM CLR 08/07 A3021 50 93 -700 000/00 RMK AO2 $
63870K0J4 0J420160419054009904/19/16 05:40:31  5-MIN K0J4 191040Z AUTO 00000KT 10SM CLR 08/07 A3021 50 93 -600 000/00 RMK AO2 $
63870K0J4 0J420160419054509904/19/16 05:45:31  5-MIN K0J4 191045Z AUTO 00000KT 10SM CLR 08/07 A3021 50 93 -600 000/00 RMK AO2 $
63870K0J4 0J420160419055009904/19/16 05:50:31  5-MIN K0J4 191050Z AUTO 00000KT 10SM CLR 08/07 A3021 50 93 -700 000/00 RMK AO2 $
63870K0J4 0J420160419055511604/19/16 05:55:31  5-MIN K0J4 191055Z AUTO 00000KT 10SM CLR 08/07 A3021 50 93 -700 000/00 RMK AO2 SLP228 T00830072 $
63870K0J4 0J420160419060009904/19/16 06:00:31  5-MIN K0J4 191100Z AUTO 00000KT 10SM CLR 08/07 A3021 50 93 -700 000/00 RMK AO2 $
63870K0J4 0J420160419060509904/19/16 06:05:31  5-MIN K0J4 191105Z AUTO 00000KT 10SM CLR 08/07 A3021 50 93 -700 000/00 RMK AO2 $
63870K0J4 0J420160419061009904/19/16 06:10:31  5-MIN K0J4 191110Z AUTO 00000KT 10SM CLR 08/07 A3021 50 93 -700 000/00 RMK AO2 $
63870K0J4 0J420160419061509904/19/16 06:15:31  5-MIN K0J4 191115Z AUTO 00000KT 10SM CLR 08/07 A3021 50 93 -700 000/00 RMK AO2 $
63870K0J4 0J420160419062009904/19/16 06:20:31  5-MIN K0J4 191120Z AUTO 00000KT 10SM CLR 08/07 A3021 50 93 -700 000/00 RMK AO2 $
63870K0J4 0J420160419062509904/19/16 06:25:31  5-MIN K0J4 191125Z AUTO 00000KT 10SM CLR 08/07 A3021 50 93 -700 000/00 RMK AO2 $
63870K0J4 0J420160419063009904/19/16 06:30:31  5-MIN K0J4 191130Z AUTO 00000KT 10SM CLR 09/08 A3021 50 93 -600 000/00 RMK AO2 $
63870K0J4 0J420160419063509904/19/16 06:35:31  5-MIN K0J4 191135Z AUTO 00000KT 10SM CLR 09/08 A3021 50 93 -600 000/00 RMK AO2 $
63870K0J4 0J420160419064009904/19/16 06:40:31  5-MIN K0J4 191140Z AUTO 00000KT 10SM CLR 09/08 A3021 40 96 -600 000/00 RMK AO2 $
63870K0J4 0J420160419064509904/19/16 06:45:31  5-MIN K0J4 191145Z AUTO 00000KT 10SM CLR 09/08 A3021 50 93 -500 000/00 RMK AO2 $
63870K0J4 0J420160419065009904/19/16 06:50:31  5-MIN K0J4 191150Z AUTO 00000KT 10SM CLR 10/09 A3022 40 93 -500 000/00 RMK AO2 $
63870K0J4 0J420160419065513404/19/16 06:55:31  5-MIN K0J4 191155Z AUTO 00000KT 10SM CLR 11/10 A3022 40 93 -300 000/00 RMK AO2 SLP230 T01110100 10111 20078 56012 $
63870K0J4 0J420160419070009904/19/16 07:00:31  5-MIN K0J4 191200Z AUTO 00000KT 10SM CLR 12/11 A3022 40 93 -300 000/00 RMK AO2 $
63870K0J4 0J420160419070509904/19/16 07:05:31  5-MIN K0J4 191205Z AUTO 00000KT 10SM CLR 12/11 A3023 30 89 -200 000/00 RMK AO2 $
63870K0J4 0J420160419071009904/19/16 07:10:31  5-MIN K0J4 191210Z AUTO 00000KT 10SM CLR 12/11 A3023 30 93 -300 000/00 RMK AO2 $
63870K0J4 0J420160419071509904/19/16 07:15:31  5-MIN K0J4 191215Z AUTO 00000KT 10SM CLR 12/11 A3023 30 89 -200 000/00 RMK AO2 $
63870K0J4 0J420160419072009904/19/16 07:20:31  5-MIN K0J4 191220Z AUTO 00000KT 10SM CLR 12/11 A3024 20 93 -200 000/00 RMK AO2 $
63870K0J4 0J420160419072509904/19/16 07:25:31  5-MIN K0J4 191225Z AUTO 00000KT 10SM CLR 12/11 A3024 20 93 -200 000/00 RMK AO2 $
63870K0J4 0J420160419073009904/19/16 07:30:31  5-MIN K0J4 191230Z AUTO 00000KT 10SM CLR 12/11 A3024 20 93 -200 000/00 RMK AO2 $
63870K0J4 0J420160419073509904/19/16 07:35:31  5-MIN K0J4 191235Z AUTO 00000KT 10SM CLR 12/11 A3024 20 93 -200 000/00 RMK AO2 $
63870K0J4 0J420160419074009904/19/16 07:40:31  5-MIN K0J4 191240Z AUTO 00000KT 10SM CLR 13/12 A3024 20 93 -100 000/00 RMK AO2 $
63870K0J4 0J420160419074509904/19/16 07:45:31  5-MIN K0J4 191245Z AUTO 00000KT 10SM CLR 13/12 A3023 30 89 -100 000/00 RMK AO2 $
63870K0J4 0J420160419075009604/19/16 07:50:31  5-MIN K0J4 191250Z AUTO 00000KT 10SM CLR 14/12 A3023 30 86 0 000/00 RMK AO2 $
63870K0J4 0J420160419075511304/19/16 07:55:31  5-MIN K0J4 191255Z AUTO 06003KT 10SM CLR 14/12 A3024 30 86 0 060/03 RMK AO2 SLP236 T01440122 $
63870K0J4 0J420160419080009804/19/16 08:00:31  5-MIN K0J4 191300Z AUTO 00000KT 10SM CLR 15/12 A3024 20 83 100 000/00 RMK AO2 $
63870K0J4 0J420160419080509804/19/16 08:05:31  5-MIN K0J4 191305Z AUTO 00000KT 10SM CLR 16/13 A3025 20 83 100 000/00 RMK AO2 $
63870K0J4 0J420160419081009804/19/16 08:10:31  5-MIN K0J4 191310Z AUTO 00000KT 10SM CLR 16/12 A3025 10 80 100 000/00 RMK AO2 $
63870K0J4 0J420160419081509804/19/16 08:15:31  5-MIN K0J4 191315Z AUTO 00000KT 10SM CLR 16/13 A3025 10 80 200 000/00 RMK AO2 $
63870K0J4 0J420160419082009804/19/16 08:20:31  5-MIN K0J4 191320Z AUTO 00000KT 10SM CLR 16/13 A3025 10 80 200 000/00 RMK AO2 $
63870K0J4 0J420160419082509804/19/16 08:25:31  5-MIN K0J4 191325Z AUTO 00000KT 10SM CLR 17/13 A3025 20 77 300 000/00 RMK AO2 $
63870K0J4 0J420160419083009804/19/16 08:30:31  5-MIN K0J4 191330Z AUTO 08003KT 10SM CLR 17/13 A3024 20 80 300 080/03 RMK AO2 $
63870K0J4 0J420160419083509804/19/16 08:35:31  5-MIN K0J4 191335Z AUTO 06004KT 10SM CLR 17/12 A3025 10 72 300 060/04 RMK AO2 $
63870K0J4 0J420160419084009804/19/16 08:40:31  5-MIN K0J4 191340Z AUTO 07004KT 10SM CLR 18/13 A3025 10 72 400 070/04 RMK AO2 $
63870K0J4 0J420160419084509804/19/16 08:45:31  5-MIN K0J4 191345Z AUTO 08004KT 10SM CLR 18/12 A3025 10 69 400 080/04 RMK AO2 $
63870K0J4 0J420160419085009804/19/16 08:50:31  5-MIN K0J4 191350Z AUTO 08004KT 10SM CLR 18/12 A3025 10 67 400 080/04 RMK AO2 $
63870K0J4 0J420160419085511504/19/16 08:55:31  5-MIN K0J4 191355Z AUTO 07005KT 10SM CLR 18/11 A3025 20 62 500 070/05 RMK AO2 SLP240 T01830111 $
63870K0J4 0J420160419090009804/19/16 09:00:31  5-MIN K0J4 191400Z AUTO 06005KT 10SM CLR 18/11 A3025 20 62 500 060/05 RMK AO2 $
63870K0J4 0J420160419090509804/19/16 09:05:31  5-MIN K0J4 191405Z AUTO 06006KT 10SM CLR 19/11 A3025 20 60 500 060/06 RMK AO2 $
63870K0J4 0J420160419091009804/19/16 09:10:31  5-MIN K0J4 191410Z AUTO 06005KT 10SM CLR 19/11 A3024 20 58 500 060/05 RMK AO2 $
63870K0J4 0J420160419091509804/19/16 09:15:31  5-MIN K0J4 191415Z AUTO 08006KT 10SM CLR 19/11 A3024 20 58 500 080/06 RMK AO2 $
63870K0J4 0J420160419092009804/19/16 09:20:31  5-MIN K0J4 191420Z AUTO 08005KT 10SM CLR 19/11 A3025 20 56 600 080/05 RMK AO2 $
63870K0J4 0J420160419092509804/19/16 09:25:31  5-MIN K0J4 191425Z AUTO 07004KT 10SM CLR 19/11 A3025 20 56 600 070/04 RMK AO2 $
63870K0J4 0J420160419093008604/19/16 09:30:31  5-MIN K0J4 191430Z AUTO 09003KT M M M 090/03 RMK AO2 PWINO FZRANO $
63870K0J4 0J420160419093508904/19/16 09:35:31  5-MIN K0J4 191435Z AUTO 00000KT 20/10 A3025 10 52 600 000/00 RMK AO2 $
63870K0J4 0J420160419094009404/19/16 09:40:31  5-MIN K0J4 191440Z AUTO 00000KT 10SM 21/10 A3025 10 50 700 000/00 RMK AO2 $
63870K0J4 0J420160419094509404/19/16 09:45:31  5-MIN K0J4 191445Z AUTO 09003KT 10SM 21/11 A3025 10 50 800 090/03 RMK AO2 $
63870K0J4 0J420160419095009404/19/16 09:50:31  5-MIN K0J4 191450Z AUTO 00000KT 10SM 21/11 A3025 10 50 800 000/00 RMK AO2 $
63870K0J4 0J420160419095511104/19/16 09:55:31  5-MIN K0J4 191455Z AUTO VRB03KT 10SM 21/11 A3025 10 50 800 VRB/03 RMK AO2 SLP240 T02110106 $
63870K0J4 0J420160419100009804/19/16 10:00:31  5-MIN K0J4 191500Z AUTO VRB03KT 10SM CLR 21/11 A3025 10 50 800 VRB/03 RMK AO2 $
63870K0J4 0J420160419100509804/19/16 10:05:31  5-MIN K0J4 191505Z AUTO 00000KT 10SM CLR 21/10 A3025 10 48 800 000/00 RMK AO2 $
63870K0J4 0J420160419101009804/19/16 10:10:31  5-MIN K0J4 191510Z AUTO 00000KT 10SM CLR 22/11 A3025 10 49 800 000/00 RMK AO2 $
63870K0J4 0J420160419101509804/19/16 10:15:31  5-MIN K0J4 191515Z AUTO 00000KT 10SM CLR 22/11 A3025 10 49 800 000/00 RMK AO2 $
63870K0J4 0J420160419102009804/19/16 10:20:31  5-MIN K0J4 191520Z AUTO 00000KT 10SM CLR 22/11 A3025 20 47 900 000/00 RMK AO2 $
63870K0J4 0J420160419102509804/19/16 10:25:31  5-MIN K0J4 191525Z AUTO 00000KT 10SM CLR 22/11 A3024 20 47 900 000/00 RMK AO2 $
63870K0J4 0J420160419103009804/19/16 10:30:31  5-MIN K0J4 191530Z AUTO 00000KT 10SM CLR 22/11 A3024 20 49 900 000/00 RMK AO2 $
63870K0J4 0J420160419104507004/19/16 10:45:31  5-MIN K0J4 191545Z AUTO M M M M /M RMK AO2 FZRANO $
63870K0J4 0J420160419105009004/19/16 10:50:31  5-MIN K0J4 191550Z AUTO 17003KT 24/11 A3024 30 44 1100 170/03 RMK AO2 $
63870K0J4 0J420160419105511204/19/16 10:55:31  5-MIN K0J4 191555Z AUTO 00000KT 10SM 24/10 A3023 30 41 1100 000/00 RMK AO2 SLP236 T02390100 $
63870K0J4 0J420160419110009504/19/16 11:00:31  5-MIN K0J4 191600Z AUTO 20005KT 10SM 23/10 A3023 30 42 1000 200/05 RMK AO2 $
63870K0J4 0J420160419110509504/19/16 11:05:31  5-MIN K0J4 191605Z AUTO VRB03KT 10SM 24/11 A3023 30 41 1200 VRB/03 RMK AO2 $
63870K0J4 0J420160419111009504/19/16 11:10:31  5-MIN K0J4 191610Z AUTO VRB03KT 10SM 24/10 A3023 30 41 1100 VRB/03 RMK AO2 $
63870K0J4 0J420160419111509504/19/16 11:15:31  5-MIN K0J4 191615Z AUTO 12003KT 10SM 24/10 A3023 30 41 1100 120/03 RMK AO2 $
63870K0J4 0J420160419112009904/19/16 11:20:31  5-MIN K0J4 191620Z AUTO 00000KT 10SM CLR 24/11 A3022 40 41 1200 000/00 RMK AO2 $
63870K0J4 0J420160419112509904/19/16 11:25:31  5-MIN K0J4 191625Z AUTO VRB04KT 10SM CLR 24/10 A3022 40 39 1200 VRB/04 RMK AO2 $
63870K0J4 0J420160419113009904/19/16 11:30:31  5-MIN K0J4 191630Z AUTO 12005KT 10SM CLR 25/09 A3021 40 35 1300 120/05 RMK AO2 $
63870K0J4 0J420160419113509904/19/16 11:35:31  5-MIN K0J4 191635Z AUTO 12005KT 10SM CLR 25/09 A3021 50 35 1300 120/05 RMK AO2 $
63870K0J4 0J420160419114009904/19/16 11:40:31  5-MIN K0J4 191640Z AUTO 12004KT 10SM CLR 24/08 A3021 50 34 1200 120/04 RMK AO2 $
63870K0J4 0J420160419114509904/19/16 11:45:31  5-MIN K0J4 191645Z AUTO 13004KT 10SM CLR 25/07 A3021 50 31 1300 130/04 RMK AO2 $
63870K0J4 0J420160419115009904/19/16 11:50:31  5-MIN K0J4 191650Z AUTO 08006KT 10SM CLR 25/08 A3020 60 33 1300 080/06 RMK AO2 $
63870K0J4 0J420160419115511604/19/16 11:55:31  5-MIN K0J4 191655Z AUTO VRB05KT 10SM CLR 26/06 A3020 60 28 1300 VRB/05 RMK AO2 SLP223 T02560061 $
63870K0J4 0J420160419120009904/19/16 12:00:31  5-MIN K0J4 191700Z AUTO 08006KT 10SM CLR 26/07 A3019 60 30 1300 080/06 RMK AO2 $
63870K0J4 0J420160419120509904/19/16 12:05:31  5-MIN K0J4 191705Z AUTO VRB04KT 10SM CLR 26/06 A3019 70 27 1300 VRB/04 RMK AO2 $
63870K0J4 0J420160419121009904/19/16 12:10:31  5-MIN K0J4 191710Z AUTO 14005KT 10SM CLR 25/04 A3019 70 26 1300 140/05 RMK AO2 $
63870K0J4 0J420160419121509904/19/16 12:15:31  5-MIN K0J4 191715Z AUTO VRB03KT 10SM CLR 26/06 A3019 70 27 1300 VRB/03 RMK AO2 $
63870K0J4 0J420160419122009904/19/16 12:20:31  5-MIN K0J4 191720Z AUTO 08006KT 10SM CLR 26/06 A3019 70 27 1400 080/06 RMK AO2 $
63870K0J4 0J420160419122509704/19/16 12:25:31  5-MIN K0J4 191725Z AUTO VRB06KT 10SM CLR 26/06 A3019 70 28 1300 VRB/06 RMK AO2
63870K0J4 0J420160419134007604/19/16 13:40:31  5-MIN K0J4 191840Z AUTO M M M M /M RMK AO2 PWINO FZRANO $
63870K0J4 0J420160419134508804/19/16 13:45:31  5-MIN K0J4 191845Z AUTO VRB03KT 27/07 A3017 90 27 1500 VRB/03 RMK AO2
63870K0J4 0J420160419135009504/19/16 13:50:31  5-MIN K0J4 191850Z AUTO 00000KT 10SM 27/07 A3017 90 27 1500 000/00 RMK AO2 $
63870K0J4 0J420160419135511204/19/16 13:55:31  5-MIN K0J4 191855Z AUTO VRB05KT 10SM 27/07 A3017 90 27 1500 VRB/05 RMK AO2 SLP211 T02670067 $
63870K0J4 0J420160419140009504/19/16 14:00:31  5-MIN K0J4 191900Z AUTO 12008KT 10SM 26/07 A3017 90 28 1400 120/08 RMK AO2 $
63870K0J4 0J420160419140509504/19/16 14:05:31  5-MIN K0J4 191905Z AUTO VRB03KT 10SM 27/06 A3016 90 26 1500 VRB/03 RMK AO2 $
63870K0J4 0J420160419141009904/19/16 14:10:31  5-MIN K0J4 191910Z AUTO VRB04KT 10SM CLR 27/06 A3016 90 26 1500 VRB/04 RMK AO2 $
63870K0J4 0J420160419141507004/19/16 14:15:31  5-MIN K0J4 191915Z AUTO M M M M /M RMK AO2 FZRANO $
63870K0J4 0J420160419142009104/19/16 14:20:31  5-MIN K0J4 191920Z AUTO 08006KT 27/06 A3015 100 25 1500 080/06 RMK AO2 $
63870K0J4 0J420160419142509604/19/16 14:25:31  5-MIN K0J4 191925Z AUTO 09003KT 10SM 27/05 A3015 100 24 1500 090/03 RMK AO2 $
63870K0J4 0J420160419143009604/19/16 14:30:31  5-MIN K0J4 191930Z AUTO VRB03KT 10SM 27/05 A3015 110 24 1600 VRB/03 RMK AO2 $
63870K0J4 0J420160419143509604/19/16 14:35:31  5-MIN K0J4 191935Z AUTO 09003KT 10SM 27/05 A3015 110 24 1500 090/03 RMK AO2 $
63870K0J4 0J420160419144009604/19/16 14:40:31  5-MIN K0J4 191940Z AUTO 07006KT 10SM 27/05 A3014 110 24 1500 070/06 RMK AO2 $
63870K0J4 0J420160419144510004/19/16 14:45:31  5-MIN K0J4 191945Z AUTO 03004KT 10SM CLR 27/06 A3014 110 25 1600 030/04 RMK AO2 $
63870K0J4 0J420160419145009804/19/16 14:50:31  5-MIN K0J4 191950Z AUTO VRB04KT 10SM CLR 27/06 A3014 110 25 1600 VRB/04 RMK AO2
63870K0J4 0J420160419145511504/19/16 14:55:31  5-MIN K0J4 191955Z AUTO VRB05KT 10SM CLR 27/05 A3014 110 24 1600 VRB/05 RMK AO2 SLP204 T02720050
63870K0J4 0J420160419150009804/19/16 15:00:31  5-MIN K0J4 192000Z AUTO 13004KT 10SM CLR 27/06 A3014 110 24 1600 130/04 RMK AO2
63870K0J4 0J420160419150509804/19/16 15:05:31  5-MIN K0J4 192005Z AUTO VRB03KT 10SM CLR 27/04 A3014 110 22 1500 VRB/03 RMK AO2
63870K0J4 0J420160419151009804/19/16 15:10:31  5-MIN K0J4 192010Z AUTO 00000KT 10SM CLR 27/04 A3015 110 23 1500 000/00 RMK AO2
63870K0J4 0J420160419151509804/19/16 15:15:31  5-MIN K0J4 192015Z AUTO 00000KT 10SM CLR 27/05 A3015 110 24 1600 000/00 RMK AO2
63870K0J4 0J420160419152009804/19/16 15:20:31  5-MIN K0J4 192020Z AUTO 00000KT 10SM CLR 27/04 A3014 110 23 1600 000/00 RMK AO2
63870K0J4 0J420160419152509804/19/16 15:25:31  5-MIN K0J4 192025Z AUTO 12003KT 10SM CLR 27/06 A3014 110 25 1500 120/03 RMK AO2
63870K0J4 0J420160419153009804/19/16 15:30:31  5-MIN K0J4 192030Z AUTO 13004KT 10SM CLR 27/06 A3014 110 25 1500 130/04 RMK AO2
63870K0J4 0J420160419153509804/19/16 15:35:31  5-MIN K0J4 192035Z AUTO 00000KT 10SM CLR 27/06 A3014 120 24 1600 000/00 RMK AO2
63870K0J4 0J420160419154009804/19/16 15:40:31  5-MIN K0J4 192040Z AUTO VRB03KT 10SM CLR 27/06 A3014 120 26 1500 VRB/03 RMK AO2
63870K0J4 0J420160419154509804/19/16 15:45:31  5-MIN K0J4 192045Z AUTO 20006KT 10SM CLR 27/06 A3014 120 25 1600 200/06 RMK AO2
63870K0J4 0J420160419155009804/19/16 15:50:31  5-MIN K0J4 192050Z AUTO 19005KT 10SM CLR 27/06 A3014 120 26 1500 190/05 RMK AO2
63870K0J4 0J420160419155512104/19/16 15:55:31  5-MIN K0J4 192055Z AUTO 16005KT 10SM CLR 27/06 A3014 120 26 1500 160/05 RMK AO2 SLP202 6//// T02670061
63870K0J4 0J420160419160009804/19/16 16:00:31  5-MIN K0J4 192100Z AUTO 20004KT 10SM CLR 27/05 A3013 120 24 1500 200/04 RMK AO2
63870K0J4 0J420160419160509804/19/16 16:05:31  5-MIN K0J4 192105Z AUTO 18003KT 10SM CLR 27/05 A3013 120 24 1500 180/03 RMK AO2
63870K0J4 0J420160419161009804/19/16 16:10:31  5-MIN K0J4 192110Z AUTO 00000KT 10SM CLR 27/05 A3013 120 24 1500 000/00 RMK AO2
63870K0J4 0J420160419161509804/19/16 16:15:31  5-MIN K0J4 192115Z AUTO 00000KT 10SM CLR 27/05 A3013 120 24 1500 000/00 RMK AO2
63870K0J4 0J420160419162009804/19/16 16:20:31  5-MIN K0J4 192120Z AUTO 00000KT 10SM CLR 28/06 A3013 120 24 1700 000/00 RMK AO2
63870K0J4 0J420160419162509804/19/16 16:25:31  5-MIN K0J4 192125Z AUTO 00000KT 10SM CLR 27/06 A3013 130 25 1500 000/00 RMK AO2
63870K0J4 0J420160419163009804/19/16 16:30:31  5-MIN K0J4 192130Z AUTO VRB04KT 10SM CLR 27/05 A3012 130 24 1600 VRB/04 RMK AO2
63870K0J4 0J420160419163509804/19/16 16:35:31  5-MIN K0J4 192135Z AUTO 00000KT 10SM CLR 28/06 A3012 130 25 1700 000/00 RMK AO2
63870K0J4 0J420160419164009804/19/16 16:40:31  5-MIN K0J4 192140Z AUTO VRB03KT 10SM CLR 27/06 A3012 130 25 1600 VRB/03 RMK AO2
63870K0J4 0J420160419164509804/19/16 16:45:31  5-MIN K0J4 192145Z AUTO 11005KT 10SM CLR 27/07 A3012 140 26 1600 110/05 RMK AO2
63870K0J4 0J420160419165009804/19/16 16:50:31  5-MIN K0J4 192150Z AUTO 11003KT 10SM CLR 27/06 A3012 140 26 1600 110/03 RMK AO2
63870K0J4 0J420160419165511504/19/16 16:55:31  5-MIN K0J4 192155Z AUTO VRB03KT 10SM CLR 27/06 A3012 140 25 1600 VRB/03 RMK AO2 SLP195 T02720061
63870K0J4 0J420160419170009804/19/16 17:00:31  5-MIN K0J4 192200Z AUTO 00000KT 10SM CLR 27/06 A3011 140 25 1600 000/00 RMK AO2
63870K0J4 0J420160419170509804/19/16 17:05:31  5-MIN K0J4 192205Z AUTO VRB03KT 10SM CLR 27/06 A3011 140 25 1600 VRB/03 RMK AO2
63870K0J4 0J420160419171009804/19/16 17:10:31  5-MIN K0J4 192210Z AUTO VRB04KT 10SM CLR 27/06 A3011 140 26 1600 VRB/04 RMK AO2
63870K0J4 0J420160419171509804/19/16 17:15:31  5-MIN K0J4 192215Z AUTO 06003KT 10SM CLR 27/06 A3011 140 26 1600 060/03 RMK AO2
63870K0J4 0J420160419172009804/19/16 17:20:31  5-MIN K0J4 192220Z AUTO VRB03KT 10SM CLR 27/07 A3011 140 27 1600 VRB/03 RMK AO2
63870K0J4 0J420160419172509804/19/16 17:25:31  5-MIN K0J4 192225Z AUTO 07005KT 10SM CLR 27/07 A3011 140 27 1600 070/05 RMK AO2
63870K0J4 0J420160419173009804/19/16 17:30:31  5-MIN K0J4 192230Z AUTO 07003KT 10SM CLR 27/07 A3011 140 27 1600 070/03 RMK AO2
63870K0J4 0J420160419173509804/19/16 17:35:31  5-MIN K0J4 192235Z AUTO 00000KT 10SM CLR 27/06 A3011 140 26 1600 000/00 RMK AO2
63870K0J4 0J420160419174009804/19/16 17:40:31  5-MIN K0J4 192240Z AUTO 05004KT 10SM CLR 27/07 A3011 140 27 1600 050/04 RMK AO2
63870K0J4 0J420160419174509804/19/16 17:45:31  5-MIN K0J4 192245Z AUTO 04003KT 10SM CLR 27/07 A3011 140 28 1600 040/03 RMK AO2
63870K0J4 0J420160419175009804/19/16 17:50:31  5-MIN K0J4 192250Z AUTO 05004KT 10SM CLR 27/07 A3011 140 28 1600 050/04 RMK AO2
63870K0J4 0J420160419175511504/19/16 17:55:31  5-MIN K0J4 192255Z AUTO 09003KT 10SM CLR 26/07 A3011 140 29 1500 090/03 RMK AO2 SLP192 T02610072
63870K0J4 0J420160419180009804/19/16 18:00:31  5-MIN K0J4 192300Z AUTO 07004KT 10SM CLR 26/08 A3011 140 31 1500 070/04 RMK AO2
63870K0J4 0J420160419180509804/19/16 18:05:31  5-MIN K0J4 192305Z AUTO 07004KT 10SM CLR 26/08 A3011 140 31 1500 070/04 RMK AO2
63870K0J4 0J420160419181009804/19/16 18:10:31  5-MIN K0J4 192310Z AUTO 07004KT 10SM CLR 26/07 A3011 140 30 1400 070/04 RMK AO2
63870K0J4 0J420160419181509804/19/16 18:15:31  5-MIN K0J4 192315Z AUTO 06003KT 10SM CLR 26/09 A3011 140 34 1400 060/03 RMK AO2
63870K0J4 0J420160419182009804/19/16 18:20:31  5-MIN K0J4 192320Z AUTO 00000KT 10SM CLR 25/09 A3011 140 37 1400 000/00 RMK AO2
63870K0J4 0J420160419182509804/19/16 18:25:31  5-MIN K0J4 192325Z AUTO 00000KT 10SM CLR 24/11 A3011 140 41 1300 000/00 RMK AO2
63870K0J4 0J420160419183009804/19/16 18:30:31  5-MIN K0J4 192330Z AUTO 00000KT 10SM CLR 24/11 A3011 140 44 1200 000/00 RMK AO2
63870K0J4 0J420160419183509804/19/16 18:35:31  5-MIN K0J4 192335Z AUTO 00000KT 10SM CLR 24/10 A3012 140 41 1200 000/00 RMK AO2
63870K0J4 0J420160419184009804/19/16 18:40:31  5-MIN K0J4 192340Z AUTO 00000KT 10SM CLR 24/09 A3012 140 39 1200 000/00 RMK AO2
63870K0J4 0J420160419184509804/19/16 18:45:31  5-MIN K0J4 192345Z AUTO 00000KT 10SM CLR 23/10 A3012 140 42 1200 000/00 RMK AO2
63870K0J4 0J420160419185009804/19/16 18:50:31  5-MIN K0J4 192350Z AUTO 00000KT 10SM CLR 22/12 A3012 140 51 1000 000/00 RMK AO2
63870K0J4 0J420160419185513304/19/16 18:55:31  5-MIN K0J4 192355Z AUTO 21004KT 10SM CLR 22/13 A3012 130 56 1000 210/04 RMK AO2 SLP196 6//// T02170128 10278 20217
63870K0J4 0J420160419190009704/19/16 19:00:31  5-MIN K0J4 200000Z AUTO 19005KT 10SM CLR 21/13 A3012 130 58 900 190/05 RMK AO2
63870K0J4 0J420160419190509804/19/16 19:05:31  5-MIN K0J4 200005Z AUTO 22004KT 10SM CLR 22/12 A3012 130 52 1000 220/04 RMK AO2
63870K0J4 0J420160419191009804/19/16 19:10:31  5-MIN K0J4 200010Z AUTO 19004KT 10SM CLR 22/12 A3012 130 52 1000 190/04 RMK AO2
63870K0J4 0J420160419191509804/19/16 19:15:31  5-MIN K0J4 200015Z AUTO 20006KT 10SM CLR 22/11 A3013 130 50 1000 200/06 RMK AO2
63870K0J4 0J420160419192009704/19/16 19:20:31  5-MIN K0J4 200020Z AUTO 21004KT 10SM CLR 21/11 A3013 130 52 900 210/04 RMK AO2
63870K0J4 0J420160419192509704/19/16 19:25:31  5-MIN K0J4 200025Z AUTO 21005KT 10SM CLR 21/11 A3013 130 54 800 210/05 RMK AO2
63870K0J4 0J420160419193009704/19/16 19:30:31  5-MIN K0J4 200030Z AUTO 22004KT 10SM CLR 21/11 A3013 130 52 900 220/04 RMK AO2
63870K0J4 0J420160419193509704/19/16 19:35:31  5-MIN K0J4 200035Z AUTO 23004KT 10SM CLR 21/11 A3013 130 50 900 230/04 RMK AO2
63870K0J4 0J420160419194009704/19/16 19:40:31  5-MIN K0J4 200040Z AUTO 22004KT 10SM CLR 21/11 A3013 120 50 900 220/04 RMK AO2
63870K0J4 0J420160419194509704/19/16 19:45:31  5-MIN K0J4 200045Z AUTO 21003KT 10SM CLR 20/11 A3013 130 56 800 210/03 RMK AO2
63870K0J4 0J420160419195009704/19/16 19:50:31  5-MIN K0J4 200050Z AUTO 00000KT 10SM CLR 21/11 A3013 120 54 800 000/00 RMK AO2
63870K0J4 0J420160419195511404/19/16 19:55:31  5-MIN K0J4 200055Z AUTO 00000KT 10SM CLR 21/11 A3013 120 54 800 000/00 RMK AO2 SLP200 T02060111
63870K0J4 0J420160419200009704/19/16 20:00:31  5-MIN K0J4 200100Z AUTO 00000KT 10SM CLR 19/11 A3013 120 58 700 000/00 RMK AO2
63870K0J4 0J420160419200509704/19/16 20:05:31  5-MIN K0J4 200105Z AUTO 00000KT 10SM CLR 19/12 A3013 130 60 700 000/00 RMK AO2
63870K0J4 0J420160419201009704/19/16 20:10:31  5-MIN K0J4 200110Z AUTO 00000KT 10SM CLR 18/12 A3012 130 67 600 000/00 RMK AO2
63870K0J4 0J420160419201509704/19/16 20:15:31  5-MIN K0J4 200115Z AUTO 00000KT 10SM CLR 19/12 A3012 130 65 700 000/00 RMK AO2
63870K0J4 0J420160419202007504/19/16 20:20:31  5-MIN K0J4 200120Z AUTO 21003KT 10SM CLR 19/12 A3012 130
63870K0J4 0J420160420013509904/20/16 01:35:31  5-MIN K0J4 200635Z AUTO 00000KT 10SM CLR 15/13 A3011 140 90 200 000/00 RMK AO2 $
63870K0J4 0J420160420014009904/20/16 01:40:31  5-MIN K0J4 200640Z AUTO 00000KT 10SM CLR 15/14 A3011 140 93 200 000/00 RMK AO2 $
63870K0J4 0J420160420014509904/20/16 01:45:31  5-MIN K0J4 200645Z AUTO 00000KT 10SM CLR 14/13 A3011 140 93 200 000/00 RMK AO2 $
63870K0J4 0J420160420015009904/20/16 01:50:31  5-MIN K0J4 200650Z AUTO 00000KT 10SM CLR 14/13 A3010 150 93 200 000/00 RMK AO2 $
63870K0J4 0J420160420015511604/20/16 01:55:31  5-MIN K0J4 200655Z AUTO 00000KT 10SM CLR 14/13 A3010 150 93 100 000/00 RMK AO2 SLP190 T01390128 $
63870K0J4 0J420160420020009904/20/16 02:00:31  5-MIN K0J4 200700Z AUTO 00000KT 10SM CLR 14/13 A3010 150 93 100 000/00 RMK AO2 $
63870K0J4 0J420160420020509704/20/16 02:05:31  5-MIN K0J4 200705Z AUTO 00000KT 10SM CLR 13/12 A3010 150 93 0 000/00 RMK AO2 $
63870K0J4 0J420160420021009704/20/16 02:10:31  5-MIN K0J4 200710Z AUTO 00000KT 10SM CLR 13/12 A3010 150 93 0 000/00 RMK AO2 $
63870K0J4 0J420160420021509704/20/16 02:15:31  5-MIN K0J4 200715Z AUTO 00000KT 10SM CLR 13/12 A3010 150 93 0 000/00 RMK AO2 $
63870K0J4 0J420160420022009904/20/16 02:20:31  5-MIN K0J4 200720Z AUTO 00000KT 10SM CLR 14/13 A3010 150 96 100 000/00 RMK AO2 $
63870K0J4 0J420160420022509704/20/16 02:25:31  5-MIN K0J4 200725Z AUTO 00000KT 10SM CLR 13/12 A3009 160 93 0 000/00 RMK AO2 $
63870K0J4 0J420160420023009704/20/16 02:30:31  5-MIN K0J4 200730Z AUTO 00000KT 10SM CLR 13/12 A3009 160 93 0 000/00 RMK AO2 $
63870K0J4 0J420160420023509904/20/16 02:35:31  5-MIN K0J4 200735Z AUTO 00000KT 10SM CLR 14/13 A3009 160 93 100 000/00 RMK AO2 $
63870K0J4 0J420160420024009704/20/16 02:40:31  5-MIN K0J4 200740Z AUTO 00000KT 10SM CLR 13/12 A3009 160 93 0 000/00 RMK AO2 $
63870K0J4 0J420160420024509704/20/16 02:45:31  5-MIN K0J4 200745Z AUTO 00000KT 10SM CLR 13/12 A3009 160 96 0 000/00 RMK AO2 $
63870K0J4 0J420160420025009704/20/16 02:50:31  5-MIN K0J4 200750Z AUTO 00000KT 10SM CLR 13/12 A3009 160 93 0 000/00 RMK AO2 $
63870K0J4 0J420160420025511404/20/16 02:55:31  5-MIN K0J4 200755Z AUTO 00000KT 10SM CLR 13/12 A3008 170 93 0 000/00 RMK AO2 SLP184 T01330122 $
63870K0J4 0J420160420030009704/20/16 03:00:31  5-MIN K0J4 200800Z AUTO 00000KT 10SM CLR 13/12 A3008 170 93 0 000/00 RMK AO2 $
63870K0J4 0J420160420030509704/20/16 03:05:31  5-MIN K0J4 200805Z AUTO 00000KT 10SM CLR 13/12 A3008 160 93 0 000/00 RMK AO2 $
63870K0J4 0J420160420031009704/20/16 03:10:31  5-MIN K0J4 200810Z AUTO 00000KT 10SM CLR 13/12 A3009 160 93 0 000/00 RMK AO2 $
63870K0J4 0J420160420031509704/20/16 03:15:31  5-MIN K0J4 200815Z AUTO 00000KT 10SM CLR 13/12 A3008 170 96 0 000/00 RMK AO2 $
63870K0J4 0J420160420032009704/20/16 03:20:31  5-MIN K0J4 200820Z AUTO 00000KT 10SM CLR 13/12 A3008 170 93 0 000/00 RMK AO2 $
63870K0J4 0J420160420032509704/20/16 03:25:31  5-MIN K0J4 200825Z AUTO 00000KT 10SM CLR 13/12 A3008 170 93 0 000/00 RMK AO2 $
63870K0J4 0J420160420033009904/20/16 03:30:31  5-MIN K0J4 200830Z AUTO 00000KT 10SM CLR 13/12 A3008 170 93 100 000/00 RMK AO2 $
63870K0J4 0J420160420033509704/20/16 03:35:31  5-MIN K0J4 200835Z AUTO 00000KT 10SM CLR 13/12 A3008 170 96 0 000/00 RMK AO2 $
63870K0J4 0J420160420034009704/20/16 03:40:31  5-MIN K0J4 200840Z AUTO 35003KT 10SM CLR 13/12 A3009 160 93 0 350/03 RMK AO2 $
63870K0J4 0J420160420034509904/20/16 03:45:31  5-MIN K0J4 200845Z AUTO 00000KT 10SM CLR 14/13 A3009 160 90 200 000/00 RMK AO2 $
63870K0J4 0J420160420035009904/20/16 03:50:31  5-MIN K0J4 200850Z AUTO 00000KT 10SM CLR 14/13 A3008 170 90 200 000/00 RMK AO2 $
63870K0J4 0J420160420035512204/20/16 03:55:31  5-MIN K0J4 200855Z AUTO 00000KT 10SM CLR 14/13 A3008 170 90 200 000/00 RMK AO2 SLP183 T01440128 58013 $
63870K0J4 0J420160420040009904/20/16 04:00:31  5-MIN K0J4 200900Z AUTO 00000KT 10SM CLR 14/13 A3008 170 93 100 000/00 RMK AO2 $
63870K0J4 0J420160420040509904/20/16 04:05:31  5-MIN K0J4 200905Z AUTO 00000KT 10SM CLR 14/12 A3008 160 90 100 000/00 RMK AO2 $
63870K0J4 0J420160420041009904/20/16 04:10:31  5-MIN K0J4 200910Z AUTO 00000KT 10SM CLR 14/13 A3008 160 90 200 000/00 RMK AO2 $
63870K0J4 0J420160420041509904/20/16 04:15:31  5-MIN K0J4 200915Z AUTO 00000KT 10SM CLR 14/13 A3009 160 90 200 000/00 RMK AO2 $
63870K0J4 0J420160420042009904/20/16 04:20:31  5-MIN K0J4 200920Z AUTO 00000KT 10SM CLR 14/13 A3009 160 90 200 000/00 RMK AO2 $
63870K0J4 0J420160420042509904/20/16 04:25:31  5-MIN K0J4 200925Z AUTO 00000KT 10SM CLR 14/13 A3009 160 90 200 000/00 RMK AO2 $
63870K0J4 0J420160420043009904/20/16 04:30:31  5-MIN K0J4 200930Z AUTO 00000KT 10SM CLR 14/13 A3009 160 90 200 000/00 RMK AO2 $
63870K0J4 0J420160420043509904/20/16 04:35:31  5-MIN K0J4 200935Z AUTO 00000KT 10SM CLR 14/13 A3009 160 90 200 000/00 RMK AO2 $
63870K0J4 0J420160420044009904/20/16 04:40:31  5-MIN K0J4 200940Z AUTO 36003KT 10SM CLR 14/13 A3009 160 90 200 360/03 RMK AO2 $
63870K0J4 0J420160420044509904/20/16 04:45:31  5-MIN K0J4 200945Z AUTO 00000KT 10SM CLR 14/13 A3009 160 90 200 000/00 RMK AO2 $
63870K0J4 0J420160420045009904/20/16 04:50:31  5-MIN K0J4 200950Z AUTO 36003KT 10SM CLR 14/13 A3009 160 93 100 360/03 RMK AO2 $
63870K0J4 0J420160420045511604/20/16 04:55:31  5-MIN K0J4 200955Z AUTO 01003KT 10SM CLR 14/13 A3009 160 90 200 010/03 RMK AO2 SLP186 T01440128 $
63870K0J4 0J420160420050009904/20/16 05:00:31  5-MIN K0J4 201000Z AUTO 00000KT 10SM CLR 14/13 A3009 160 93 100 000/00 RMK AO2 $
63870K0J4 0J420160420050509904/20/16 05:05:31  5-MIN K0J4 201005Z AUTO 00000KT 10SM CLR 14/12 A3009 160 90 100 000/00 RMK AO2 $
63870K0J4 0J420160420051009904/20/16 05:10:31  5-MIN K0J4 201010Z AUTO 00000KT 10SM CLR 14/13 A3009 160 93 100 000/00 RMK AO2 $
63870K0J4 0J420160420051509904/20/16 05:15:31  5-MIN K0J4 201015Z AUTO 00000KT 10SM CLR 14/13 A3009 160 93 100 000/00 RMK AO2 $
63870K0J4 0J420160420052009704/20/16 05:20:31  5-MIN K0J4 201020Z AUTO 00000KT 10SM CLR 13/12 A3009 160 93 0 000/00 RMK AO2 $
63870K0J4 0J420160420052509704/20/16 05:25:31  5-MIN K0J4 201025Z AUTO 00000KT 10SM CLR 13/12 A3009 160 93 0 000/00 RMK AO2 $
63870K0J4 0J420160420053009704/20/16 05:30:31  5-MIN K0J4 201030Z AUTO 00000KT 10SM CLR 12/12 A3009 160 96 0 000/00 RMK AO2 $
63870K0J4 0J420160420053509704/20/16 05:35:31  5-MIN K0J4 201035Z AUTO 00000KT 10SM CLR 13/11 A3009 160 89 0 000/00 RMK AO2 $
63870K0J4 0J420160420054009704/20/16 05:40:31  5-MIN K0J4 201040Z AUTO 00000KT 10SM CLR 12/11 A3010 150 93 0 000/00 RMK AO2 $
63870K0J4 0J420160420054509704/20/16 05:45:31  5-MIN K0J4 201045Z AUTO 00000KT 10SM CLR 13/11 A3010 150 89 0 000/00 RMK AO2 $
63870K0J4 0J420160420055009704/20/16 05:50:31  5-MIN K0J4 201050Z AUTO 00000KT 10SM CLR 13/12 A3010 150 93 0 000/00 RMK AO2 $
63870K0J4 0J420160420055511704/20/16 05:55:31  5-MIN K0J4 201055Z AUTO 00000KT 10SM CLR 12/11 A3010 150 93 -100 000/00 RMK AO2 SLP188 T01220111 $
63870K0J4 0J420160420060010004/20/16 06:00:31  5-MIN K0J4 201100Z AUTO 00000KT 10SM CLR 12/11 A3010 150 93 -100 000/00 RMK AO2 $
63870K0J4 0J420160420060510004/20/16 06:05:31  5-MIN K0J4 201105Z AUTO 20004KT 10SM CLR 12/11 A3010 150 93 -100 200/04 RMK AO2 $
63870K0J4 0J420160420061010004/20/16 06:10:31  5-MIN K0J4 201110Z AUTO 00000KT 10SM CLR 12/11 A3011 140 93 -100 000/00 RMK AO2 $
63870K0J4 0J420160420061510004/20/16 06:15:31  5-MIN K0J4 201115Z AUTO 00000KT 10SM CLR 12/11 A3011 140 93 -100 000/00 RMK AO2 $
63870K0J4 0J420160420062010004/20/16 06:20:31  5-MIN K0J4 201120Z AUTO 00000KT 10SM CLR 12/11 A3011 140 93 -100 000/00 RMK AO2 $
63870K0J4 0J420160420062510004/20/16 06:25:31  5-MIN K0J4 201125Z AUTO 00000KT 10SM CLR 12/11 A3011 140 93 -100 000/00 RMK AO2 $
63870K0J4 0J420160420063010004/20/16 06:30:31  5-MIN K0J4 201130Z AUTO 00000KT 10SM CLR 12/12 A3012 140 96 -100 000/00 RMK AO2 $
63870K0J4 0J420160420063510004/20/16 06:35:31  5-MIN K0J4 201135Z AUTO 00000KT 10SM CLR 12/12 A3012 130 96 -100 000/00 RMK AO2 $
63870K0J4 0J420160420064009704/20/16 06:40:31  5-MIN K0J4 201140Z AUTO 00000KT 10SM CLR 13/12 A3012 130 93 0 000/00 RMK AO2 $
63870K0J4 0J420160420064509704/20/16 06:45:31  5-MIN K0J4 201145Z AUTO 00000KT 10SM CLR 13/12 A3012 130 93 0 000/00 RMK AO2 $
63870K0J4 0J420160420065009704/20/16 06:50:31  5-MIN K0J4 201150Z AUTO 00000KT 10SM CLR 13/12 A3012 130 93 0 000/00 RMK AO2 $
63870K0J4 0J420160420065513804/20/16 06:55:31  5-MIN K0J4 201155Z AUTO 00000KT 10SM CLR 13/12 A3013 130 96 0 000/00 RMK AO2 SLP199 7//// T01280122 10150 20122 56009 $
63870K0J4 0J420160420070009704/20/16 07:00:31  5-MIN K0J4 201200Z AUTO 00000KT 10SM CLR 13/13 A3013 130 96 0 000/00 RMK AO2 $
63870K0J4 0J420160420070509704/20/16 07:05:31  5-MIN K0J4 201205Z AUTO 00000KT 10SM CLR 13/13 A3013 130 96 0 000/00 RMK AO2 $
63870K0J4 0J420160420071009904/20/16 07:10:31  5-MIN K0J4 201210Z AUTO 00000KT 10SM CLR 14/13 A3013 130 90 100 000/00 RMK AO2 $
63870K0J4 0J420160420071509904/20/16 07:15:31  5-MIN K0J4 201215Z AUTO 03003KT 10SM CLR 14/13 A3013 130 93 100 030/03 RMK AO2 $
63870K0J4 0J420160420072009904/20/16 07:20:31  5-MIN K0J4 201220Z AUTO 00000KT 10SM CLR 15/13 A3013 120 90 200 000/00 RMK AO2 $
63870K0J4 0J420160420072509904/20/16 07:25:31  5-MIN K0J4 201225Z AUTO 00000KT 10SM CLR 15/13 A3013 130 86 200 000/00 RMK AO2 $
63870K0J4 0J420160420073009904/20/16 07:30:31  5-MIN K0J4 201230Z AUTO 00000KT 10SM CLR 16/13 A3013 120 86 300 000/00 RMK AO2 $
63870K0J4 0J420160420073509904/20/16 07:35:31  5-MIN K0J4 201235Z AUTO 00000KT 10SM CLR 16/13 A3013 120 86 300 000/00 RMK AO2 $
63870K0J4 0J420160420074009904/20/16 07:40:31  5-MIN K0J4 201240Z AUTO 00000KT 10SM CLR 16/13 A3013 120 86 300 000/00 RMK AO2 $
63870K0J4 0J420160420074509904/20/16 07:45:31  5-MIN K0J4 201245Z AUTO 00000KT 10SM CLR 16/13 A3013 120 86 300 000/00 RMK AO2 $
63870K0J4 0J420160420075009904/20/16 07:50:31  5-MIN K0J4 201250Z AUTO 00000KT 10SM CLR 16/14 A3013 120 86 300 000/00 RMK AO2 $
63870K0J4 0J420160420075511604/20/16 07:55:31  5-MIN K0J4 201255Z AUTO 00000KT 10SM CLR 16/14 A3014 120 86 300 000/00 RMK AO2 SLP202 T01610139 $
63870K0J4 0J420160420080009904/20/16 08:00:31  5-MIN K0J4 201300Z AUTO 00000KT 10SM CLR 16/14 A3014 120 86 300 000/00 RMK AO2 $
63870K0J4 0J420160420080509904/20/16 08:05:31  5-MIN K0J4 201305Z AUTO 00000KT 10SM CLR 17/13 A3014 120 80 400 000/00 RMK AO2 $
63870K0J4 0J420160420081009904/20/16 08:10:31  5-MIN K0J4 201310Z AUTO 00000KT 10SM CLR 17/13 A3014 120 80 400 000/00 RMK AO2 $
63870K0J4 0J420160420081509904/20/16 08:15:31  5-MIN K0J4 201315Z AUTO 00000KT 10SM CLR 17/13 A3014 120 80 400 000/00 RMK AO2 $
63870K0J4 0J420160420082009904/20/16 08:20:31  5-MIN K0J4 201320Z AUTO 00000KT 10SM CLR 17/13 A3014 120 78 400 000/00 RMK AO2 $
63870K0J4 0J420160420082509904/20/16 08:25:31  5-MIN K0J4 201325Z AUTO 00000KT 10SM CLR 17/13 A3014 120 75 400 000/00 RMK AO2 $
63870K0J4 0J420160420083009904/20/16 08:30:31  5-MIN K0J4 201330Z AUTO 00000KT 10SM CLR 17/13 A3014 120 75 400 000/00 RMK AO2 $
63870K0J4 0J420160420083509904/20/16 08:35:31  5-MIN K0J4 201335Z AUTO 00000KT 10SM CLR 18/13 A3014 120 75 500 000/00 RMK AO2 $
63870K0J4 0J420160420084009904/20/16 08:40:31  5-MIN K0J4 201340Z AUTO 06003KT 10SM CLR 18/13 A3014 120 72 500 060/03 RMK AO2 $
63870K0J4 0J420160420084509904/20/16 08:45:31  5-MIN K0J4 201345Z AUTO 00000KT 10SM CLR 18/13 A3014 120 72 500 000/00 RMK AO2 $
63870K0J4 0J420160420085009904/20/16 08:50:31  5-MIN K0J4 201350Z AUTO 00000KT 10SM CLR 18/13 A3014 120 70 600 000/00 RMK AO2 $
63870K0J4 0J420160420085511604/20/16 08:55:31  5-MIN K0J4 201355Z AUTO 07003KT 10SM CLR 18/13 A3013 120 70 600 070/03 RMK AO2 SLP202 T01830128 $
63870K0J4 0J420160420090009904/20/16 09:00:31  5-MIN K0J4 201400Z AUTO 00000KT 10SM CLR 19/13 A3013 120 67 600 000/00 RMK AO2 $
63870K0J4 0J420160420090509904/20/16 09:05:31  5-MIN K0J4 201405Z AUTO 07003KT 10SM CLR 19/12 A3013 120 62 700 070/03 RMK AO2 $
63870K0J4 0J420160420091009904/20/16 09:10:31  5-MIN K0J4 201410Z AUTO 08004KT 10SM CLR 20/13 A3013 120 63 800 080/04 RMK AO2 $
63870K0J4 0J420160420091509904/20/16 09:15:31  5-MIN K0J4 201415Z AUTO 06004KT 10SM CLR 21/12 A3013 120 58 800 060/04 RMK AO2 $
63870K0J4 0J420160420092009904/20/16 09:20:31  5-MIN K0J4 201420Z AUTO 08004KT 10SM CLR 21/13 A3013 120 58 900 080/04 RMK AO2 $
63870K0J4 0J420160420092510004/20/16 09:25:31  5-MIN K0J4 201425Z AUTO 07005KT 10SM CLR 22/12 A3013 120 52 1000 070/05 RMK AO2 $
63870K0J4 0J420160420093010004/20/16 09:30:31  5-MIN K0J4 201430Z AUTO 06005KT 10SM CLR 22/12 A3013 120 51 1000 060/05 RMK AO2 $
63870K0J4 0J420160420093510004/20/16 09:35:31  5-MIN K0J4 201435Z AUTO 08004KT 10SM CLR 23/11 A3013 120 47 1100 080/04 RMK AO2 $
63870K0J4 0J420160420094010004/20/16 09:40:31  5-MIN K0J4 201440Z AUTO 06006KT 10SM CLR 23/11 A3013 120 47 1100 060/06 RMK AO2 $
63870K0J4 0J420160420094510004/20/16 09:45:31  5-MIN K0J4 201445Z AUTO 06006KT 10SM CLR 23/11 A3013 120 45 1200 060/06 RMK AO2 $
63870K0J4 0J420160420095010004/20/16 09:50:31  5-MIN K0J4 201450Z AUTO 06006KT 10SM CLR 23/11 A3013 120 44 1200 060/06 RMK AO2 $
63870K0J4 0J420160420095512304/20/16 09:55:31  5-MIN K0J4 201455Z AUTO 06006KT 10SM CLR 23/11 A3013 120 45 1200 060/06 RMK AO2 SLP200 T02330111 53014 $
63870K0J4 0J420160420100010004/20/16 10:00:31  5-MIN K0J4 201500Z AUTO VRB05KT 10SM CLR 23/11 A3013 120 45 1200 VRB/05 RMK AO2 $
63870K0J4 0J420160420100510004/20/16 10:05:31  5-MIN K0J4 201505Z AUTO 10003KT 10SM CLR 23/11 A3013 120 45 1200 100/03 RMK AO2 $
63870K0J4 0J420160420101010004/20/16 10:10:31  5-MIN K0J4 201510Z AUTO VRB03KT 10SM CLR 23/11 A3013 120 45 1200 VRB/03 RMK AO2 $
63870K0J4 0J420160420101510004/20/16 10:15:31  5-MIN K0J4 201515Z AUTO 10003KT 10SM CLR 24/12 A3013 120 46 1200 100/03 RMK AO2 $
63870K0J4 0J420160420102010004/20/16 10:20:31  5-MIN K0J4 201520Z AUTO 10003KT 10SM CLR 24/11 A3013 120 41 1300 100/03 RMK AO2 $
63870K0J4 0J420160420102510004/20/16 10:25:31  5-MIN K0J4 201525Z AUTO VRB06KT 10SM CLR 25/11 A3013 120 41 1300 VRB/06 RMK AO2 $
63870K0J4 0J420160420103010004/20/16 10:30:31  5-MIN K0J4 201530Z AUTO 12005KT 10SM CLR 25/11 A3013 120 41 1300 120/05 RMK AO2 $
63870K0J4 0J420160420103510004/20/16 10:35:31  5-MIN K0J4 201535Z AUTO VRB06KT 10SM CLR 24/11 A3013 120 41 1300 VRB/06 RMK AO2 $
63870K0J4 0J420160420104010004/20/16 10:40:31  5-MIN K0J4 201540Z AUTO 12003KT 10SM CLR 24/11 A3013 120 42 1300 120/03 RMK AO2 $
63870K0J4 0J420160420104510004/20/16 10:45:31  5-MIN K0J4 201545Z AUTO 13004KT 10SM CLR 24/11 A3013 120 41 1300 130/04 RMK AO2 $
63870K0J4 0J420160420105010004/20/16 10:50:31  5-MIN K0J4 201550Z AUTO 11004KT 10SM CLR 24/11 A3013 120 42 1300 110/04 RMK AO2 $
63870K0J4 0J420160420105511704/20/16 10:55:31  5-MIN K0J4 201555Z AUTO VRB03KT 10SM CLR 24/11 A3013 120 42 1200 VRB/03 RMK AO2 SLP200 T02390106 $
63870K0J4 0J420160420110010004/20/16 11:00:31  5-MIN K0J4 201600Z AUTO 17005KT 10SM CLR 24/11 A3013 120 41 1300 170/05 RMK AO2 $
63870K0J4 0J420160420110510004/20/16 11:05:31  5-MIN K0J4 201605Z AUTO 15005KT 10SM CLR 24/11 A3014 120 44 1200 150/05 RMK AO2 $
63870K0J4 0J420160420111010004/20/16 11:10:31  5-MIN K0J4 201610Z AUTO VRB06KT 10SM CLR 24/11 A3014 120 44 1200 VRB/06 RMK AO2 $
63870K0J4 0J420160420111510004/20/16 11:15:31  5-MIN K0J4 201615Z AUTO 16005KT 10SM CLR 24/11 A3014 120 41 1300 160/05 RMK AO2 $
63870K0J4 0J420160420112010004/20/16 11:20:31  5-MIN K0J4 201620Z AUTO 20005KT 10SM CLR 24/11 A3013 120 41 1300 200/05 RMK AO2 $
63870K0J4 0J420160420112510004/20/16 11:25:31  5-MIN K0J4 201625Z AUTO 16006KT 10SM CLR 25/11 A3013 120 39 1300 160/06 RMK AO2 $
63870K0J4 0J420160420113010004/20/16 11:30:31  5-MIN K0J4 201630Z AUTO 16006KT 10SM CLR 25/11 A3013 120 41 1400 160/06 RMK AO2 $
63870K0J4 0J420160420113510004/20/16 11:35:31  5-MIN K0J4 201635Z AUTO 14006KT 10SM CLR 25/11 A3013 130 39 1400 140/06 RMK AO2 $
63870K0J4 0J420160420114010004/20/16 11:40:31  5-MIN K0J4 201640Z AUTO 17005KT 10SM CLR 26/11 A3013 130 40 1400 170/05 RMK AO2 $
63870K0J4 0J420160420114510004/20/16 11:45:31  5-MIN K0J4 201645Z AUTO 17005KT 10SM CLR 25/11 A3013 130 41 1400 170/05 RMK AO2 $
63870K0J4 0J420160420115010004/20/16 11:50:31  5-MIN K0J4 201650Z AUTO 17009KT 10SM CLR 26/11 A3013 130 38 1400 170/09 RMK AO2 $
63870K0J4 0J420160420115511704/20/16 11:55:31  5-MIN K0J4 201655Z AUTO 18008KT 10SM CLR 25/11 A3013 120 39 1400 180/08 RMK AO2 SLP199 T02500106 $
63870K0J4 0J420160420120010004/20/16 12:00:31  5-MIN K0J4 201700Z AUTO 19007KT 10SM CLR 26/11 A3013 130 38 1400 190/07 RMK AO2 $
63870K0J4 0J420160420120510004/20/16 12:05:31  5-MIN K0J4 201705Z AUTO 18007KT 10SM CLR 26/11 A3013 130 38 1400 180/07 RMK AO2 $
63870K0J4 0J420160420121010004/20/16 12:10:31  5-MIN K0J4 201710Z AUTO VRB06KT 10SM CLR 26/11 A3013 130 38 1400 VRB/06 RMK AO2 $
63870K0J4 0J420160420121510004/20/16 12:15:31  5-MIN K0J4 201715Z AUTO VRB03KT 10SM CLR 26/11 A3013 130 38 1400 VRB/03 RMK AO2 $
63870K0J4 0J420160420122010604/20/16 12:20:31  5-MIN K0J4 201720Z AUTO 16007G14KT 10SM CLR 26/11 A3013 130 38 1500 160/07G14 RMK AO2 $
63870K0J4 0J420160420122510604/20/16 12:25:31  5-MIN K0J4 201725Z AUTO 16005G14KT 10SM CLR 25/11 A3012 130 39 1400 160/05G14 RMK AO2 $
63870K0J4 0J420160420123010004/20/16 12:30:31  5-MIN K0J4 201730Z AUTO 17009KT 10SM CLR 26/11 A3012 130 40 1400 170/09 RMK AO2 $
63870K0J4 0J420160420123510004/20/16 12:35:31  5-MIN K0J4 201735Z AUTO VRB05KT 10SM CLR 26/11 A3013 130 40 1400 VRB/05 RMK AO2 $
63870K0J4 0J420160420124008904/20/16 12:40:31  5-MIN K0J4 201740Z AUTO 21008KT 10SM CLR 26/11 M 38 M 210/08 RMK AO2 $
63870K0J4 0J420160420131510704/20/16 13:15:31  5-MIN K0J4 201815Z AUTO 17007KT 120V210 26/11 A3012 130 37 1500 170/07 120V210 RMK AO2 $
63870K0J4 0J420160420132010204/20/16 13:20:31  5-MIN K0J4 201820Z AUTO 16009G14KT 10SM 26/11 A3012 140 37 1500 160/09G14 RMK AO2 $
63870K0J4 0J420160420132510204/20/16 13:25:31  5-MIN K0J4 201825Z AUTO 17005G17KT 10SM 26/11 A3011 140 37 1500 170/05G17 RMK AO2 $
63870K0J4 0J420160420133010204/20/16 13:30:31  5-MIN K0J4 201830Z AUTO 18005G17KT 10SM 26/11 A3011 140 37 1500 180/05G17 RMK AO2 $
63870K0J4 0J420160420133509404/20/16 13:35:31  5-MIN K0J4 201835Z AUTO VRB06KT 10SM 26/11 A3011 140 37 1500 VRB/06 RMK AO2
63870K0J4 0J420160420134011404/20/16 13:40:31  5-MIN K0J4 201840Z AUTO 18008KT 140V210 10SM CLR 26/10 A3011 140 36 1500 180/08 140V210 RMK AO2
63870K0J4 0J420160420134510104/20/16 13:45:31  5-MIN K0J4 201845Z AUTO 18006KT 10SM FEW065 26/10 A3010 150 36 1500 180/06 RMK AO2
63870K0J4 0J420160420135010104/20/16 13:50:31  5-MIN K0J4 201850Z AUTO VRB05KT 10SM FEW065 26/11 A3010 150 37 1500 VRB/05 RMK AO2
63870K0J4 0J420160420135511704/20/16 13:55:31  5-MIN K0J4 201855Z AUTO 18008KT 10SM CLR 27/11 A3010 150 37 1600 180/08 RMK AO2 SLP189 T02670111 $
63870K0J4 0J420160420140010004/20/16 14:00:31  5-MIN K0J4 201900Z AUTO VRB05KT 10SM CLR 26/11 A3010 150 38 1500 VRB/05 RMK AO2 $
63870K0J4 0J420160420140511604/20/16 14:05:31  5-MIN K0J4 201905Z AUTO 15008KT 110V180 10SM CLR 27/11 A3009 160 37 1600 150/08 110V180 RMK AO2 $
63870K0J4 0J420160420141010304/20/16 14:10:31  5-MIN K0J4 201910Z AUTO 16010KT 10SM FEW060 27/11 A3009 160 37 1600 160/10 RMK AO2 $
63870K0J4 0J420160420141510304/20/16 14:15:31  5-MIN K0J4 201915Z AUTO 16011KT 10SM FEW060 26/11 A3009 160 37 1500 160/11 RMK AO2 $
63870K0J4 0J420160420142010304/20/16 14:20:31  5-MIN K0J4 201920Z AUTO VRB06KT 10SM FEW060 26/11 A3009 160 37 1500 VRB/06 RMK AO2 $
63870K0J4 0J420160420142510304/20/16 14:25:31  5-MIN K0J4 201925Z AUTO 20008KT 10SM FEW060 26/11 A3009 160 37 1500 200/08 RMK AO2 $
63870K0J4 0J420160420143010304/20/16 14:30:31  5-MIN K0J4 201930Z AUTO 15004KT 10SM FEW065 26/11 A3009 160 37 1500 150/04 RMK AO2 $
63870K0J4 0J420160420143510304/20/16 14:35:31  5-MIN K0J4 201935Z AUTO 12009KT 10SM SCT065 26/11 A3009 160 37 1500 120/09 RMK AO2 $
63870K0J4 0J420160420144011904/20/16 14:40:31  5-MIN K0J4 201940Z AUTO 15008KT 110V190 10SM FEW065 26/11 A3009 160 37 1500 150/08 110V190 RMK AO2 $
63870K0J4 0J420160420144510304/20/16 14:45:31  5-MIN K0J4 201945Z AUTO 14009KT 10SM FEW065 26/11 A3009 160 38 1500 140/09 RMK AO2 $
63870K0J4 0J420160420145010304/20/16 14:50:31  5-MIN K0J4 201950Z AUTO 15005KT 10SM SCT065 26/11 A3008 170 38 1500 150/05 RMK AO2 $
63870K0J4 0J420160420145512004/20/16 14:55:31  5-MIN K0J4 201955Z AUTO 17007KT 10SM BKN065 26/11 A3008 170 37 1500 170/07 RMK AO2 SLP182 T02610106 $
63870K0J4 0J420160420150010304/20/16 15:00:31  5-MIN K0J4 202000Z AUTO 19008KT 10SM SCT065 27/11 A3008 170 37 1600 190/08 RMK AO2 $
63870K0J4 0J420160420150510304/20/16 15:05:31  5-MIN K0J4 202005Z AUTO 19007KT 10SM FEW065 26/12 A3008 170 40 1500 190/07 RMK AO2 $
63870K0J4 0J420160420151010304/20/16 15:10:31  5-MIN K0J4 202010Z AUTO 20006KT 10SM SCT065 26/11 A3007 170 38 1500 200/06 RMK AO2 $
63870K0J4 0J420160420151510304/20/16 15:15:31  5-MIN K0J4 202015Z AUTO VRB05KT 10SM SCT065 26/11 A3007 180 38 1500 VRB/05 RMK AO2 $
63870K0J4 0J420160420152010904/20/16 15:20:31  5-MIN K0J4 202020Z AUTO 20011G14KT 10SM SCT065 26/12 A3007 180 41 1500 200/11G14 RMK AO2 $
63870K0J4 0J420160420152510304/20/16 15:25:31  5-MIN K0J4 202025Z AUTO 20012KT 10SM FEW065 26/11 A3007 180 40 1500 200/12 RMK AO2 $
63870K0J4 0J420160420153010304/20/16 15:30:31  5-MIN K0J4 202030Z AUTO 21008KT 10SM SCT060 26/12 A3007 180 40 1500 210/08 RMK AO2 $
63870K0J4 0J420160420153510304/20/16 15:35:31  5-MIN K0J4 202035Z AUTO 19009KT 10SM SCT060 26/12 A3006 180 41 1500 190/09 RMK AO2 $
63870K0J4 0J420160420154010304/20/16 15:40:31  5-MIN K0J4 202040Z AUTO 22010KT 10SM FEW060 26/12 A3006 180 40 1600 220/10 RMK AO2 $
63870K0J4 0J420160420154510304/20/16 15:45:31  5-MIN K0J4 202045Z AUTO 19006KT 10SM SCT060 27/12 A3006 190 38 1600 190/06 RMK AO2 $
63870K0J4 0J420160420155010304/20/16 15:50:31  5-MIN K0J4 202050Z AUTO 20008KT 10SM SCT060 27/12 A3006 190 38 1600 200/08 RMK AO2 $
63870K0J4 0J420160420155512604/20/16 15:55:31  5-MIN K0J4 202055Z AUTO 18008KT 10SM FEW060 26/12 A3006 190 40 1600 180/08 RMK AO2 SLP175 6//// T02610117 $
63870K0J4 0J420160420160010304/20/16 16:00:31  5-MIN K0J4 202100Z AUTO 21004KT 10SM FEW060 26/12 A3006 190 40 1600 210/04 RMK AO2 $
63870K0J4 0J420160420160510304/20/16 16:05:31  5-MIN K0J4 202105Z AUTO 19008KT 10SM FEW060 27/12 A3006 190 38 1600 190/08 RMK AO2 $
63870K0J4 0J420160420161010304/20/16 16:10:31  5-MIN K0J4 202110Z AUTO 17006KT 10SM FEW060 26/12 A3006 190 40 1600 170/06 RMK AO2 $
63870K0J4 0J420160420161510304/20/16 16:15:31  5-MIN K0J4 202115Z AUTO VRB06KT 10SM FEW060 26/12 A3005 190 40 1600 VRB/06 RMK AO2 $
63870K0J4 0J420160420162010304/20/16 16:20:31  5-MIN K0J4 202120Z AUTO 19005KT 10SM FEW060 26/12 A3005 190 40 1600 190/05 RMK AO2 $
63870K0J4 0J420160420162510304/20/16 16:25:31  5-MIN K0J4 202125Z AUTO 22003KT 10SM FEW060 26/11 A3005 190 38 1500 220/03 RMK AO2 $
63870K0J4 0J420160420163010004/20/16 16:30:31  5-MIN K0J4 202130Z AUTO 17005KT 10SM CLR 26/11 A3005 190 38 1600 170/05 RMK AO2 $
63870K0J4 0J420160420163510004/20/16 16:35:31  5-MIN K0J4 202135Z AUTO 19007KT 10SM CLR 26/11 A3005 190 40 1500 190/07 RMK AO2 $
63870K0J4 0J420160420164010004/20/16 16:40:31  5-MIN K0J4 202140Z AUTO 20008KT 10SM CLR 26/11 A3005 200 40 1500 200/08 RMK AO2 $
63870K0J4 0J420160420164509804/20/16 16:45:31  5-MIN K0J4 202145Z AUTO 19008KT 10SM CLR 26/11 A3005 200 38 1500 190/08 RMK AO2
63870K0J4 0J420160420165010004/20/16 16:50:31  5-MIN K0J4 202150Z AUTO 17006KT 10SM CLR 26/11 A3005 200 38 1500 170/06 RMK AO2 $
63870K0J4 0J420160420165511504/20/16 16:55:31  5-MIN K0J4 202155Z AUTO 18007KT 10SM CLR 26/11 A3005 200 38 1600 180/07 RMK AO2 SLP171 T02610111
63870K0J4 0J420160420170009804/20/16 17:00:31  5-MIN K0J4 202200Z AUTO 19005KT 10SM CLR 26/11 A3005 200 40 1500 190/05 RMK AO2
63870K0J4 0J420160420170510004/20/16 17:05:31  5-MIN K0J4 202205Z AUTO 17007KT 10SM CLR 26/12 A3005 200 40 1600 170/07 RMK AO2 $
63870K0J4 0J420160420171010004/20/16 17:10:31  5-MIN K0J4 202210Z AUTO 17007KT 10SM CLR 26/11 A3005 200 40 1500 170/07 RMK AO2 $
63870K0J4 0J420160420171510004/20/16 17:15:31  5-MIN K0J4 202215Z AUTO 20008KT 10SM CLR 26/11 A3004 200 40 1500 200/08 RMK AO2 $
63870K0J4 0J420160420172010004/20/16 17:20:31  5-MIN K0J4 202220Z AUTO 22007KT 10SM CLR 26/11 A3004 200 40 1500 220/07 RMK AO2 $
63870K0J4 0J420160420172510004/20/16 17:25:31  5-MIN K0J4 202225Z AUTO 18006KT 10SM CLR 26/11 A3004 200 38 1500 180/06 RMK AO2 $
63870K0J4 0J420160420173010004/20/16 17:30:31  5-MIN K0J4 202230Z AUTO 18009KT 10SM CLR 26/12 A3004 200 41 1500 180/09 RMK AO2 $
63870K0J4 0J420160420173510004/20/16 17:35:31  5-MIN K0J4 202235Z AUTO 20010KT 10SM CLR 25/11 A3005 200 41 1400 200/10 RMK AO2 $
63870K0J4 0J420160420174010004/20/16 17:40:31  5-MIN K0J4 202240Z AUTO 20008KT 10SM CLR 25/11 A3005 200 41 1400 200/08 RMK AO2 $
63870K0J4 0J420160420174510004/20/16 17:45:31  5-MIN K0J4 202245Z AUTO 20008KT 10SM CLR 25/11 A3005 200 41 1400 200/08 RMK AO2 $
63870K0J4 0J420160420175010004/20/16 17:50:31  5-MIN K0J4 202250Z AUTO 19007KT 10SM CLR 25/11 A3005 200 41 1400 190/07 RMK AO2 $
63870K0J4 0J420160420175511704/20/16 17:55:31  5-MIN K0J4 202255Z AUTO 19006KT 10SM CLR 25/12 A3005 200 43 1400 190/06 RMK AO2 SLP173 T02500117 $
63870K0J4 0J420160420180010004/20/16 18:00:31  5-MIN K0J4 202300Z AUTO 20005KT 10SM CLR 25/11 A3005 200 41 1400 200/05 RMK AO2 $
63870K0J4 0J420160420180510004/20/16 18:05:31  5-MIN K0J4 202305Z AUTO 19007KT 10SM CLR 25/11 A3005 200 41 1400 190/07 RMK AO2 $
63870K0J4 0J420160420181010004/20/16 18:10:31  5-MIN K0J4 202310Z AUTO 18007KT 10SM CLR 24/12 A3005 200 44 1400 180/07 RMK AO2 $
63870K0J4 0J420160420181510004/20/16 18:15:31  5-MIN K0J4 202315Z AUTO 18006KT 10SM CLR 24/12 A3005 200 44 1400 180/06 RMK AO2 $
63870K0J4 0J420160420182010004/20/16 18:20:31  5-MIN K0J4 202320Z AUTO 20006KT 10SM CLR 24/12 A3005 200 44 1400 200/06 RMK AO2 $
63870K0J4 0J420160420182510004/20/16 18:25:31  5-MIN K0J4 202325Z AUTO 20006KT 10SM CLR 24/12 A3005 200 46 1300 200/06 RMK AO2 $
63870K0J4 0J420160420183010004/20/16 18:30:31  5-MIN K0J4 202330Z AUTO 00000KT 10SM CLR 23/12 A3005 200 47 1200 000/00 RMK AO2 $
63870K0J4 0J420160420183510004/20/16 18:35:31  5-MIN K0J4 202335Z AUTO 22004KT 10SM CLR 23/12 A3005 200 47 1200 220/04 RMK AO2 $
63870K0J4 0J420160420184010004/20/16 18:40:31  5-MIN K0J4 202340Z AUTO 22003KT 10SM CLR 23/12 A3005 200 49 1200 220/03 RMK AO2 $
63870K0J4 0J420160420184510004/20/16 18:45:31  5-MIN K0J4 202345Z AUTO 00000KT 10SM CLR 23/12 A3005 200 49 1200 000/00 RMK AO2 $
63870K0J4 0J420160420185010004/20/16 18:50:31  5-MIN K0J4 202350Z AUTO 00000KT 10SM CLR 22/13 A3005 200 56 1100 000/00 RMK AO2 $
63870K0J4 0J420160420185513504/20/16 18:55:31  5-MIN K0J4 202355Z AUTO 00000KT 10SM CLR 22/12 A3005 200 52 1100 000/00 RMK AO2 SLP172 6//// T02220122 10267 20217 $
63870K0J4 0J420160420190010004/20/16 19:00:31  5-MIN K0J4 210000Z AUTO 00000KT 10SM CLR 22/12 A3005 200 52 1100 000/00 RMK AO2 $
63870K0J4 0J420160420190510004/20/16 19:05:31  5-MIN K0J4 210005Z AUTO 00000KT 10SM CLR 22/13 A3005 200 56 1100 000/00 RMK AO2 $
63870K0J4 0J420160420191010004/20/16 19:10:31  5-MIN K0J4 210010Z AUTO 00000KT 10SM CLR 22/12 A3005 200 52 1100 000/00 RMK AO2 $
63870K0J4 0J420160420191510004/20/16 19:15:31  5-MIN K0J4 210015Z AUTO 00000KT 10SM CLR 22/13 A3005 200 56 1100 000/00 RMK AO2 $
63870K0J4 0J420160420192010004/20/16 19:20:31  5-MIN K0J4 210020Z AUTO 00000KT 10SM CLR 22/13 A3005 200 56 1100 000/00 RMK AO2 $
63870K0J4 0J420160420192510004/20/16 19:25:31  5-MIN K0J4 210025Z AUTO 00000KT 10SM CLR 21/12 A3005 200 56 1000 000/00 RMK AO2 $
63870K0J4 0J420160420193010004/20/16 19:30:31  5-MIN K0J4 210030Z AUTO 00000KT 10SM CLR 21/12 A3005 200 56 1000 000/00 RMK AO2 $
63870K0J4 0J420160420193510004/20/16 19:35:31  5-MIN K0J4 210035Z AUTO 00000KT 10SM CLR 21/12 A3005 190 56 1000 000/00 RMK AO2 $
63870K0J4 0J420160420194009904/20/16 19:40:31  5-MIN K0J4 210040Z AUTO 00000KT 10SM CLR 21/12 A3005 190 58 900 000/00 RMK AO2 $
63870K0J4 0J420160420194509904/20/16 19:45:31  5-MIN K0J4 210045Z AUTO 00000KT 10SM CLR 20/12 A3006 190 60 900 000/00 RMK AO2 $
63870K0J4 0J420160420195009904/20/16 19:50:31  5-MIN K0J4 210050Z AUTO 00000KT 10SM CLR 19/13 A3006 190 65 800 000/00 RMK AO2 $
63870K0J4 0J420160420195511604/20/16 19:55:31  5-MIN K0J4 210055Z AUTO 00000KT 10SM CLR 19/13 A3006 190 70 700 000/00 RMK AO2 SLP177 T01890133 $
63870K0J4 0J420160420200009904/20/16 20:00:31  5-MIN K0J4 210100Z AUTO 00000KT 10SM CLR 18/13 A3006 180 72 700 000/00 RMK AO2 $
63870K0J4 0J420160420200509904/20/16 20:05:31  5-MIN K0J4 210105Z AUTO 00000KT 10SM CLR 19/13 A3007 180 67 700 000/00 RMK AO2 $
63870K0J4 0J420160420201009904/20/16 20:10:31  5-MIN K0J4 210110Z AUTO 00000KT 10SM CLR 18/13 A3007 180 72 700 000/00 RMK AO2 $
63870K0J4 0J420160420201509904/20/16 20:15:31  5-MIN K0J4 210115Z AUTO 00000KT 10SM CLR 18/13 A3007 180 72 600 000/00 RMK AO2 $
63870K0J4 0J420160420202009904/20/16 20:20:31  5-MIN K0J4 210120Z AUTO 00000KT 10SM CLR 18/13 A3008 170 75 600 000/00 RMK AO2 $
63870K0J4 0J420160420202509904/20/16 20:25:31  5-MIN K0J4 210125Z AUTO 00000KT 10SM CLR 18/13 A3008 170 70 600 000/00 RMK AO2 $
63870K0J4 0J420160420203009904/20/16 20:30:31  5-MIN K0J4 210130Z AUTO 00000KT 10SM CLR 18/13 A3008 170 75 600 000/00 RMK AO2 $
63870K0J4 0J420160420203509904/20/16 20:35:31  5-MIN K0J4 210135Z AUTO 00000KT 10SM CLR 18/13 A3008 170 75 600 000/00 RMK AO2 $
63870K0J4 0J420160420204009904/20/16 20:40:31  5-MIN K0J4 210140Z AUTO 23003KT 10SM CLR 18/12 A3008 170 67 600 230/03 RMK AO2 $
63870K0J4 0J420160420204509904/20/16 20:45:31  5-MIN K0J4 210145Z AUTO 22003KT 10SM CLR 18/13 A3008 170 70 600 220/03 RMK AO2 $
63870K0J4 0J420160420205009904/20/16 20:50:31  5-MIN K0J4 210150Z AUTO 22003KT 10SM CLR 18/12 A3008 170 69 600 220/03 RMK AO2 $
63870K0J4 0J420160420205511604/20/16 20:55:31  5-MIN K0J4 210155Z AUTO 22003KT 10SM CLR 18/13 A3009 160 72 600 220/03 RMK AO2 SLP185 T01780128 $
63870K0J4 0J420160420210009904/20/16 21:00:31  5-MIN K0J4 210200Z AUTO 22003KT 10SM CLR 18/12 A3009 160 67 600 220/03 RMK AO2 $
63870K0J4 0J420160420210509904/20/16 21:05:31  5-MIN K0J4 210205Z AUTO 21003KT 10SM CLR 19/12 A3009 160 65 700 210/03 RMK AO2 $
63870K0J4 0J420160420211009904/20/16 21:10:31  5-MIN K0J4 210210Z AUTO 22003KT 10SM CLR 18/12 A3009 160 67 600 220/03 RMK AO2 $
63870K0J4 0J420160420211509904/20/16 21:15:31  5-MIN K0J4 210215Z AUTO 22003KT 10SM CLR 18/12 A3009 160 67 600 220/03 RMK AO2 $
63870K0J4 0J420160420212009904/20/16 21:20:31  5-MIN K0J4 210220Z AUTO 00000KT 10SM CLR 18/12 A3009 160 67 600 000/00 RMK AO2 $
63870K0J4 0J420160420212509904/20/16 21:25:31  5-MIN K0J4 210225Z AUTO 00000KT 10SM CLR 18/12 A3009 160 69 600 000/00 RMK AO2 $
63870K0J4 0J420160420213009904/20/16 21:30:31  5-MIN K0J4 210230Z AUTO 00000KT 10SM CLR 18/12 A3009 160 69 600 000/00 RMK AO2 $
63870K0J4 0J420160420213509904/20/16 21:35:31  5-MIN K0J4 210235Z AUTO 00000KT 10SM CLR 17/12 A3009 160 72 500 000/00 RMK AO2 $
63870K0J4 0J420160420214009904/20/16 21:40:31  5-MIN K0J4 210240Z AUTO 00000KT 10SM CLR 17/13 A3010 150 75 500 000/00 RMK AO2 $
63870K0J4 0J420160420214509904/20/16 21:45:31  5-MIN K0J4 210245Z AUTO 00000KT 10SM CLR 17/13 A3010 150 77 400 000/00 RMK AO2 $
63870K0J4 0J420160420215009904/20/16 21:50:31  5-MIN K0J4 210250Z AUTO 00000KT 10SM CLR 17/13 A3010 150 77 400 000/00 RMK AO2 $
63870K0J4 0J420160420215512204/20/16 21:55:31  5-MIN K0J4 210255Z AUTO 00000KT 10SM CLR 17/12 A3010 150 75 400 000/00 RMK AO2 SLP188 T01670122 56003 $
63870K0J4 0J420160420220009904/20/16 22:00:31  5-MIN K0J4 210300Z AUTO 00000KT 10SM CLR 17/13 A3010 150 77 400 000/00 RMK AO2 $
63870K0J4 0J420160420220509904/20/16 22:05:31  5-MIN K0J4 210305Z AUTO 00000KT 10SM CLR 17/13 A3010 150 77 400 000/00 RMK AO2 $
63870K0J4 0J420160420221009904/20/16 22:10:31  5-MIN K0J4 210310Z AUTO 00000KT 10SM CLR 16/13 A3010 150 80 400 000/00 RMK AO2 $
63870K0J4 0J420160420221510204/20/16 22:15:31  5-MIN K0J4 210315Z AUTO 00000KT 10SM FEW065 16/13 A3010 150 86 300 000/00 RMK AO2 $
63870K0J4 0J420160420222010204/20/16 22:20:31  5-MIN K0J4 210320Z AUTO 00000KT 10SM FEW065 16/12 A3009 160 80 300 000/00 RMK AO2 $
63870K0J4 0J420160420222510204/20/16 22:25:31  5-MIN K0J4 210325Z AUTO 00000KT 10SM FEW065 16/12 A3009 160 80 300 000/00 RMK AO2 $
63870K0J4 0J420160420223010204/20/16 22:30:31  5-MIN K0J4 210330Z AUTO 00000KT 10SM FEW065 16/12 A3009 160 80 300 000/00 RMK AO2 $
63870K0J4 0J420160420223510204/20/16 22:35:31  5-MIN K0J4 210335Z AUTO 00000KT 10SM FEW065 16/12 A3009 160 80 300 000/00 RMK AO2 $
63870K0J4 0J420160420224010204/20/16 22:40:31  5-MIN K0J4 210340Z AUTO 00000KT 10SM FEW065 16/13 A3009 160 83 300 000/00 RMK AO2 $
63870K0J4 0J420160420224510204/20/16 22:45:31  5-MIN K0J4 210345Z AUTO 00000KT 10SM FEW060 15/13 A3009 160 86 200 000/00 RMK AO2 $
63870K0J4 0J420160420225010204/20/16 22:50:31  5-MIN K0J4 210350Z AUTO 00000KT 10SM FEW060 15/12 A3009 160 83 200 000/00 RMK AO2 $
63870K0J4 0J420160420225511904/20/16 22:55:31  5-MIN K0J4 210355Z AUTO 00000KT 10SM FEW060 15/12 A3009 160 83 200 000/00 RMK AO2 SLP185 T01500122 $
63870K0J4 0J420160420230010204/20/16 23:00:31  5-MIN K0J4 210400Z AUTO 00000KT 10SM FEW060 15/12 A3009 160 83 200 000/00 RMK AO2 $
63870K0J4 0J420160420230510204/20/16 23:05:31  5-MIN K0J4 210405Z AUTO 00000KT 10SM FEW060 15/13 A3009 160 86 200 000/00 RMK AO2 $
63870K0J4 0J420160420231009904/20/16 23:10:31  5-MIN K0J4 210410Z AUTO 00000KT 10SM CLR 15/12 A3009 160 83 200 000/00 RMK AO2 $
63870K0J4 0J420160420231509904/20/16 23:15:31  5-MIN K0J4 210415Z AUTO 00000KT 10SM CLR 15/12 A3009 160 83 200 000/00 RMK AO2 $
63870K0J4 0J420160420232009904/20/16 23:20:31  5-MIN K0J4 210420Z AUTO 00000KT 10SM CLR 15/12 A3009 160 83 200 000/00 RMK AO2 $
63870K0J4 0J420160420232509904/20/16 23:25:31  5-MIN K0J4 210425Z AUTO 00000KT 10SM CLR 15/12 A3009 160 83 200 000/00 RMK AO2 $
63870K0J4 0J420160420233009904/20/16 23:30:31  5-MIN K0J4 210430Z AUTO 00000KT 10SM CLR 15/12 A3008 160 83 200 000/00 RMK AO2 $
63870K0J4 0J420160420233509904/20/16 23:35:31  5-MIN K0J4 210435Z AUTO 00000KT 10SM CLR 14/13 A3008 170 90 200 000/00 RMK AO2 $
63870K0J4 0J420160420234009904/20/16 23:40:31  5-MIN K0J4 210440Z AUTO 00000KT 10SM CLR 14/13 A3008 170 90 200 000/00 RMK AO2 $
63870K0J4 0J420160420234509904/20/16 23:45:31  5-MIN K0J4 210445Z AUTO 00000KT 10SM CLR 14/12 A3008 170 90 100 000/00 RMK AO2 $
63870K0J4 0J420160420235010204/20/16 23:50:31  5-MIN K0J4 210450Z AUTO 00000KT 10SM FEW065 14/12 A3008 170 86 200 000/00 RMK AO2 $
63870K0J4 0J420160420235512904/20/16 23:55:31  5-MIN K0J4 210455Z AUTO 00000KT 10SM FEW065 14/12 A3008 170 90 100 000/00 RMK AO2 SLP183 T01390122 402670122 $
63870K0J4 0J420160421000010204/21/16 00:00:31  5-MIN K0J4 210500Z AUTO 00000KT 10SM FEW065 14/12 A3008 170 90 100 000/00 RMK AO2 $
63870K0J4 0J420160421000510204/21/16 00:05:31  5-MIN K0J4 210505Z AUTO 00000KT 10SM FEW065 14/12 A3008 170 86 200 000/00 RMK AO2 $
63870K0J4 0J420160421001010204/21/16 00:10:31  5-MIN K0J4 210510Z AUTO 00000KT 10SM SCT065 14/12 A3008 170 90 100 000/00 RMK AO2 $
63870K0J4 0J420160421001510204/21/16 00:15:31  5-MIN K0J4 210515Z AUTO 00000KT 10SM SCT065 14/12 A3008 170 86 200 000/00 RMK AO2 $
63870K0J4 0J420160421002010204/21/16 00:20:31  5-MIN K0J4 210520Z AUTO 00000KT 10SM SCT065 14/12 A3008 170 86 200 000/00 RMK AO2 $
63870K0J4 0J420160421002510204/21/16 00:25:31  5-MIN K0J4 210525Z AUTO 00000KT 10SM SCT065 14/12 A3008 170 86 200 000/00 RMK AO2 $
63870K0J4 0J420160421003010204/21/16 00:30:31  5-MIN K0J4 210530Z AUTO 00000KT 10SM SCT065 14/12 A3008 170 90 100 000/00 RMK AO2 $
63870K0J4 0J420160421003510204/21/16 00:35:31  5-MIN K0J4 210535Z AUTO 00000KT 10SM SCT065 14/12 A3008 170 90 100 000/00 RMK AO2 $
63870K0J4 0J420160421004010204/21/16 00:40:31  5-MIN K0J4 210540Z AUTO 00000KT 10SM FEW065 14/12 A3008 170 90 100 000/00 RMK AO2 $
63870K0J4 0J420160421004510204/21/16 00:45:31  5-MIN K0J4 210545Z AUTO 00000KT 10SM FEW065 14/12 A3008 170 86 200 000/00 RMK AO2 $
63870K0J4 0J420160421005009904/21/16 00:50:31  5-MIN K0J4 210550Z AUTO 00000KT 10SM CLR 14/12 A3007 170 90 100 000/00 RMK AO2 $
63870K0J4 0J420160421005513404/21/16 00:55:31  5-MIN K0J4 210555Z AUTO 00000KT 10SM CLR 14/12 A3007 180 86 200 000/00 RMK AO2 SLP179 T01440122 10222 20139 51017 $
63870K0J4 0J420160421010009904/21/16 01:00:31  5-MIN K0J4 210600Z AUTO 00000KT 10SM CLR 14/13 A3007 180 93 100 000/00 RMK AO2 $
63870K0J4 0J420160421010509904/21/16 01:05:31  5-MIN K0J4 210605Z AUTO 00000KT 10SM CLR 14/13 A3007 180 90 200 000/00 RMK AO2 $
63870K0J4 0J420160421011009904/21/16 01:10:31  5-MIN K0J4 210610Z AUTO 00000KT 10SM CLR 14/13 A3007 180 90 200 000/00 RMK AO2 $
63870K0J4 0J420160421011509904/21/16 01:15:31  5-MIN K0J4 210615Z AUTO 00000KT 10SM CLR 14/13 A3006 180 90 200 000/00 RMK AO2 $
63870K0J4 0J420160421012009904/21/16 01:20:31  5-MIN K0J4 210620Z AUTO 00000KT 10SM CLR 14/13 A3006 180 90 200 000/00 RMK AO2 $
63870K0J4 0J420160421012509904/21/16 01:25:31  5-MIN K0J4 210625Z AUTO 00000KT 10SM CLR 14/13 A3006 190 93 100 000/00 RMK AO2 $
63870K0J4 0J420160421013009904/21/16 01:30:31  5-MIN K0J4 210630Z AUTO 00000KT 10SM CLR 14/13 A3006 190 90 200 000/00 RMK AO2 $
63870K0J4 0J420160421013509904/21/16 01:35:31  5-MIN K0J4 210635Z AUTO 00000KT 10SM CLR 15/13 A3006 190 86 300 000/00 RMK AO2 $
63870K0J4 0J420160421014009904/21/16 01:40:31  5-MIN K0J4 210640Z AUTO 00000KT 10SM CLR 14/12 A3006 190 86 200 000/00 RMK AO2 $
63870K0J4 0J420160421014509904/21/16 01:45:31  5-MIN K0J4 210645Z AUTO 00000KT 10SM CLR 14/12 A3006 190 86 200 000/00 RMK AO2 $
63870K0J4 0J420160421015009904/21/16 01:50:31  5-MIN K0J4 210650Z AUTO 00000KT 10SM CLR 14/12 A3006 190 90 100 000/00 RMK AO2 $
63870K0J4 0J420160421015511604/21/16 01:55:31  5-MIN K0J4 210655Z AUTO 00000KT 10SM CLR 14/12 A3006 190 90 100 000/00 RMK AO2 SLP174 T01390122 $
63870K0J4 0J420160421020009904/21/16 02:00:31  5-MIN K0J4 210700Z AUTO 00000KT 10SM CLR 13/12 A3006 190 89 100 000/00 RMK AO2 $
63870K0J4 0J420160421020509904/21/16 02:05:31  5-MIN K0J4 210705Z AUTO 00000KT 10SM CLR 13/12 A3006 190 89 100 000/00 RMK AO2 $
63870K0J4 0J420160421021009704/21/16 02:10:31  5-MIN K0J4 210710Z AUTO 00000KT 10SM CLR 13/11 A3006 190 89 0 000/00 RMK AO2 $
63870K0J4 0J420160421021509704/21/16 02:15:31  5-MIN K0J4 210715Z AUTO 00000KT 10SM CLR 13/11 A3005 190 89 0 000/00 RMK AO2 $
63870K0J4 0J420160421022009704/21/16 02:20:31  5-MIN K0J4 210720Z AUTO 00000KT 10SM CLR 12/11 A3005 190 93 0 000/00 RMK AO2 $
63870K0J4 0J420160421022509704/21/16 02:25:31  5-MIN K0J4 210725Z AUTO 00000KT 10SM CLR 12/11 A3005 200 89 0 000/00 RMK AO2 $
63870K0J4 0J420160421023009704/21/16 02:30:31  5-MIN K0J4 210730Z AUTO 00000KT 10SM CLR 12/11 A3005 200 93 0 000/00 RMK AO2 $
63870K0J4 0J420160421023509704/21/16 02:35:31  5-MIN K0J4 210735Z AUTO 00000KT 10SM CLR 13/11 A3005 200 89 0 000/00 RMK AO2 $
63870K0J4 0J420160421024009704/21/16 02:40:31  5-MIN K0J4 210740Z AUTO 00000KT 10SM CLR 13/11 A3005 200 89 0 000/00 RMK AO2 $
63870K0J4 0J420160421024509704/21/16 02:45:31  5-MIN K0J4 210745Z AUTO 00000KT 10SM CLR 12/11 A3005 200 93 0 000/00 RMK AO2 $
63870K0J4 0J420160421025009704/21/16 02:50:31  5-MIN K0J4 210750Z AUTO 00000KT 10SM CLR 13/11 A3004 200 86 0 000/00 RMK AO2 $
63870K0J4 0J420160421025511404/21/16 02:55:31  5-MIN K0J4 210755Z AUTO 00000KT 10SM CLR 13/11 A3004 200 89 0 000/00 RMK AO2 SLP170 T01280111 $
63870K0J4 0J420160421030009704/21/16 03:00:31  5-MIN K0J4 210800Z AUTO 00000KT 10SM CLR 13/11 A3004 200 89 0 000/00 RMK AO2 $
63870K0J4 0J420160421030509704/21/16 03:05:31  5-MIN K0J4 210805Z AUTO 00000KT 10SM CLR 13/11 A3004 200 89 0 000/00 RMK AO2 $
63870K0J4 0J420160421031009704/21/16 03:10:31  5-MIN K0J4 210810Z AUTO 00000KT 10SM CLR 13/11 A3004 210 89 0 000/00 RMK AO2 $
63870K0J4 0J420160421031509704/21/16 03:15:31  5-MIN K0J4 210815Z AUTO 00000KT 10SM CLR 13/11 A3004 210 89 0 000/00 RMK AO2 $
63870K0J4 0J420160421032009704/21/16 03:20:31  5-MIN K0J4 210820Z AUTO 00000KT 10SM CLR 13/11 A3004 210 89 0 000/00 RMK AO2 $
63870K0J4 0J420160421032510004/21/16 03:25:31  5-MIN K0J4 210825Z AUTO 00000KT 10SM CLR 12/11 A3004 210 93 -100 000/00 RMK AO2 $
63870K0J4 0J420160421033010004/21/16 03:30:31  5-MIN K0J4 210830Z AUTO 00000KT 10SM CLR 12/11 A3004 200 93 -100 000/00 RMK AO2 $
63870K0J4 0J420160421033510004/21/16 03:35:31  5-MIN K0J4 210835Z AUTO 00000KT 10SM CLR 12/10 A3004 200 89 -100 000/00 RMK AO2 $
63870K0J4 0J420160421034010004/21/16 03:40:31  5-MIN K0J4 210840Z AUTO 00000KT 10SM CLR 12/10 A3004 200 89 -100 000/00 RMK AO2 $
63870K0J4 0J420160421034510004/21/16 03:45:31  5-MIN K0J4 210845Z AUTO 00000KT 10SM CLR 12/10 A3004 200 89 -100 000/00 RMK AO2 $
63870K0J4 0J420160421035009704/21/16 03:50:31  5-MIN K0J4 210850Z AUTO 00000KT 10SM CLR 12/10 A3004 200 86 0 000/00 RMK AO2 $
63870K0J4 0J420160421035512304/21/16 03:55:31  5-MIN K0J4 210855Z AUTO 00000KT 10SM CLR 12/11 A3004 200 93 -100 000/00 RMK AO2 SLP170 T01170106 58009 $
63870K0J4 0J420160421040010004/21/16 04:00:31  5-MIN K0J4 210900Z AUTO 00000KT 10SM CLR 12/11 A3004 200 93 -100 000/00 RMK AO2 $
63870K0J4 0J420160421040510004/21/16 04:05:31  5-MIN K0J4 210905Z AUTO 00000KT 10SM CLR 12/10 A3005 200 89 -100 000/00 RMK AO2 $
63870K0J4 0J420160421041010004/21/16 04:10:31  5-MIN K0J4 210910Z AUTO 00000KT 10SM CLR 12/10 A3005 200 89 -100 000/00 RMK AO2 $
63870K0J4 0J420160421041510004/21/16 04:15:31  5-MIN K0J4 210915Z AUTO 00000KT 10SM CLR 12/10 A3005 200 89 -100 000/00 RMK AO2 $
63870K0J4 0J420160421042010004/21/16 04:20:31  5-MIN K0J4 210920Z AUTO 00000KT 10SM CLR 12/10 A3005 200 89 -100 000/00 RMK AO2 $
63870K0J4 0J420160421042510004/21/16 04:25:31  5-MIN K0J4 210925Z AUTO 00000KT 10SM CLR 12/10 A3005 200 89 -100 000/00 RMK AO2 $
63870K0J4 0J420160421043010004/21/16 04:30:31  5-MIN K0J4 210930Z AUTO 00000KT 10SM CLR 12/10 A3005 200 89 -100 000/00 RMK AO2 $
63870K0J4 0J420160421043510004/21/16 04:35:31  5-MIN K0J4 210935Z AUTO 00000KT 10SM CLR 12/11 A3005 200 93 -100 000/00 RMK AO2 $
63870K0J4 0J420160421044010304/21/16 04:40:31  5-MIN K0J4 210940Z AUTO 00000KT 10SM FEW001 12/10 A3005 200 89 -100 000/00 RMK AO2 $
63870K0J4 0J420160421044510304/21/16 04:45:31  5-MIN K0J4 210945Z AUTO 00000KT 10SM FEW001 12/11 A3005 200 93 -100 000/00 RMK AO2 $
63870K0J4 0J420160421045010004/21/16 04:50:31  5-MIN K0J4 210950Z AUTO 00000KT 10SM FEW001 12/11 A3005 200 89 0 000/00 RMK AO2 $
63870K0J4 0J420160421045511704/21/16 04:55:31  5-MIN K0J4 210955Z AUTO 00000KT 10SM SCT001 12/11 A3005 200 89 0 000/00 RMK AO2 SLP172 T01220106 $
63870K0J4 0J420160421050010004/21/16 05:00:31  5-MIN K0J4 211000Z AUTO 00000KT 10SM BKN001 12/11 A3005 200 89 0 000/00 RMK AO2 $
63870K0J4 0J420160421050510004/21/16 05:05:31  5-MIN K0J4 211005Z AUTO 00000KT 10SM BKN001 12/11 A3005 200 93 0 000/00 RMK AO2 $
63870K0J4 0J420160421051010204/21/16 05:10:31  5-MIN K0J4 211010Z AUTO 00000KT 10SM BKN001 14/12 A3005 200 90 100 000/00 RMK AO2 $
63870K0J4 0J420160421051510104/21/16 05:15:31  5-MIN K0J4 211015Z AUTO 00000KT 9SM OVC001 14/13 A3005 190 93 200 000/00 RMK AO2 $
63870K0J4 0J420160421052010104/21/16 05:20:31  5-MIN K0J4 211020Z AUTO 00000KT 7SM OVC001 13/13 A3005 190 96 100 000/00 RMK AO2 $
63870K0J4 0J420160421052510404/21/16 05:25:31  5-MIN K0J4 211025Z AUTO 00000KT 6SM BR OVC001 13/12 A3006 190 93 100 000/00 RMK AO2 $
63870K0J4 0J420160421053010404/21/16 05:30:31  5-MIN K0J4 211030Z AUTO 00000KT 4SM BR OVC001 14/13 A3006 190 93 100 000/00 RMK AO2 $
63870K0J4 0J420160421053510804/21/16 05:35:31  5-MIN K0J4 211035Z AUTO 00000KT 1 1/4SM BR OVC001 13/12 A3006 190 93 100 000/00 RMK AO2 $
63870K0J4 0J420160421054010604/21/16 05:40:31  5-MIN K0J4 211040Z AUTO 00000KT 1/2SM FG OVC001 14/13 A3006 190 96 100 000/00 RMK AO2 $
63870K0J4 0J420160421054510504/21/16 05:45:31  5-MIN K0J4 211045Z AUTO 00000KT 1/4SM FG VV001 14/13 A3006 180 96 100 000/00 RMK AO2 $
63870K0J4 0J420160421055010604/21/16 05:50:31  5-MIN K0J4 211050Z AUTO 00000KT 1/4SM FG VV001 14/14 A3007 180 100 100 000/00 RMK AO2 $
63870K0J4 0J420160421055512304/21/16 05:55:31  5-MIN K0J4 211055Z AUTO 00000KT 1/4SM FG VV001 14/14 A3007 180 100 100 000/00 RMK AO2 SLP178 T01390139 $
63870K0J4 0J420160421060010604/21/16 06:00:31  5-MIN K0J4 211100Z AUTO 00000KT 1/4SM FG VV001 14/14 A3007 180 100 100 000/00 RMK AO2 $
63870K0J4 0J420160421060510604/21/16 06:05:31  5-MIN K0J4 211105Z AUTO 00000KT 1/4SM FG VV001 14/14 A3007 180 100 100 000/00 RMK AO2 $
63870K0J4 0J420160421061010604/21/16 06:10:31  5-MIN K0J4 211110Z AUTO 00000KT 1/4SM FG VV001 14/14 A3007 180 100 100 000/00 RMK AO2 $
63870K0J4 0J420160421061510604/21/16 06:15:31  5-MIN K0J4 211115Z AUTO 00000KT 1/4SM FG VV002 14/14 A3007 170 100 100 000/00 RMK AO2 $
63870K0J4 0J420160421062007004/21/16 06:20:31  5-MIN K0J4 211120Z AUTO M M M M /M RMK AO2 FZRANO $
63870K0J4 0J420160421062510204/21/16 06:25:31  5-MIN K0J4 211125Z AUTO 00000KT 14/13 A3007 170 96 100 000/00 RMK AO2 P0001 PWINO $
63870K0J4 0J420160421063010604/21/16 06:30:31  5-MIN K0J4 211130Z AUTO 00000KT 1/4SM FG 14/14 A3008 170 100 100 000/00 RMK AO2 P0001 $
63870K0J4 0J420160421063510604/21/16 06:35:31  5-MIN K0J4 211135Z AUTO 00000KT 1/4SM FG 14/14 A3008 170 100 100 000/00 RMK AO2 P0001 $
63870K0J4 0J420160421064010604/21/16 06:40:31  5-MIN K0J4 211140Z AUTO 00000KT 1/4SM FG 14/14 A3008 170 100 100 000/00 RMK AO2 P0001 $
63870K0J4 0J420160421064510604/21/16 06:45:31  5-MIN K0J4 211145Z AUTO 00000KT 1/4SM FG 14/14 A3008 170 100 100 000/00 RMK AO2 P0001 $
63870K0J4 0J420160421065011204/21/16 06:50:31  5-MIN K0J4 211150Z AUTO 00000KT 1/4SM FG VV002 14/14 A3008 170 100 100 000/00 RMK AO2 P0001 $
63870K0J4 0J420160421065515304/21/16 06:55:31  5-MIN K0J4 211155Z AUTO 00000KT 1/4SM FG VV002 14/14 A3009 160 100 100 000/00 RMK AO2 SLP185 P0001 60001 7//// T01390139 10150 20117 $
63870K0J4 0J420160421070010504/21/16 07:00:31  5-MIN K0J4 211200Z AUTO 00000KT 1/4SM FG VV002 14/14 A3009 160 96 200 000/00 RMK AO2 $
63870K0J4 0J420160421070510504/21/16 07:05:31  5-MIN K0J4 211205Z AUTO 10003KT 1/4SM FG VV002 14/14 A3009 160 96 200 100/03 RMK AO2 $
63870K0J4 0J420160421071010604/21/16 07:10:31  5-MIN K0J4 211210Z AUTO 10004KT 1/2SM FG OVC002 14/14 A3009 160 96 200 100/04 RMK AO2 $
63870K0J4 0J420160421071510804/21/16 07:15:31  5-MIN K0J4 211215Z AUTO 12004KT 1 1/4SM BR OVC002 14/14 A3009 160 96 200 120/04 RMK AO2 $
63870K0J4 0J420160421072010504/21/16 07:20:31  5-MIN K0J4 211220Z AUTO 00000KT 2SM BR OVC002 14/14 A3009 160 100 200 000/00 RMK AO2 $
63870K0J4 0J420160421072510804/21/16 07:25:31  5-MIN K0J4 211225Z AUTO 00000KT 1 1/2SM BR OVC002 15/14 A3010 150 96 200 000/00 RMK AO2 $
63870K0J4 0J420160421073010804/21/16 07:30:31  5-MIN K0J4 211230Z AUTO 13003KT 1 1/2SM BR OVC002 15/14 A3010 150 96 200 130/03 RMK AO2 $
63870K0J4 0J420160421073510404/21/16 07:35:31  5-MIN K0J4 211235Z AUTO 00000KT 2SM BR BKN002 16/15 A3009 160 96 300 000/00 RMK AO2 $
63870K0J4 0J420160421074010404/21/16 07:40:31  5-MIN K0J4 211240Z AUTO 12003KT 3SM BR BKN002 16/15 A3009 160 96 300 120/03 RMK AO2 $
63870K0J4 0J420160421074510404/21/16 07:45:31  5-MIN K0J4 211245Z AUTO 00000KT 4SM BR SCT002 16/15 A3009 160 96 300 000/00 RMK AO2 $
63870K0J4 0J420160421075010404/21/16 07:50:31  5-MIN K0J4 211250Z AUTO 00000KT 5SM BR SCT002 16/15 A3009 160 96 300 000/00 RMK AO2 $
63870K0J4 0J420160421075512804/21/16 07:55:31  5-MIN K0J4 211255Z AUTO 00000KT 6SM BR FEW002 SCT060 16/16 A3010 150 96 400 000/00 RMK AO2 SLP188 T01610156 $
63870K0J4 0J420160421080010104/21/16 08:00:31  5-MIN K0J4 211300Z AUTO 00000KT 7SM FEW060 16/16 A3009 160 96 400 000/00 RMK AO2 $
63870K0J4 0J420160421080510104/21/16 08:05:31  5-MIN K0J4 211305Z AUTO 00000KT 7SM FEW060 16/16 A3009 160 96 400 000/00 RMK AO2 $
63870K0J4 0J420160421081010104/21/16 08:10:31  5-MIN K0J4 211310Z AUTO 00000KT 8SM FEW060 16/16 A3009 160 96 400 000/00 RMK AO2 $
63870K0J4 0J420160421081510104/21/16 08:15:31  5-MIN K0J4 211315Z AUTO 00000KT 9SM FEW060 17/16 A3009 160 96 400 000/00 RMK AO2 $
63870K0J4 0J420160421082010204/21/16 08:20:31  5-MIN K0J4 211320Z AUTO 00000KT 10SM FEW060 17/16 A3009 160 96 400 000/00 RMK AO2 $
63870K0J4 0J420160421082509904/21/16 08:25:31  5-MIN K0J4 211325Z AUTO 00000KT 10SM CLR 17/16 A3009 160 93 500 000/00 RMK AO2 $
63870K0J4 0J420160421083009904/21/16 08:30:31  5-MIN K0J4 211330Z AUTO 00000KT 10SM CLR 17/17 A3009 160 96 500 000/00 RMK AO2 $
63870K0J4 0J420160421083509904/21/16 08:35:31  5-MIN K0J4 211335Z AUTO 00000KT 10SM CLR 17/17 A3009 160 96 500 000/00 RMK AO2 $
63870K0J4 0J420160421084009904/21/16 08:40:31  5-MIN K0J4 211340Z AUTO 11003KT 10SM CLR 17/16 A3009 160 93 500 110/03 RMK AO2 $
63870K0J4 0J420160421084509904/21/16 08:45:31  5-MIN K0J4 211345Z AUTO 12003KT 10SM CLR 18/17 A3008 160 93 600 120/03 RMK AO2 $
63870K0J4 0J420160421085009904/21/16 08:50:31  5-MIN K0J4 211350Z AUTO VRB03KT 10SM CLR 18/17 A3008 160 90 600 VRB/03 RMK AO2 $
63870K0J4 0J420160421085511604/21/16 08:55:31  5-MIN K0J4 211355Z AUTO 14005KT 10SM CLR 19/17 A3009 160 87 700 140/05 RMK AO2 SLP185 T01890167 $
63870K0J4 0J420160421090009904/21/16 09:00:31  5-MIN K0J4 211400Z AUTO 14005KT 10SM CLR 19/16 A3009 160 81 800 140/05 RMK AO2 $
63870K0J4 0J420160421090509904/21/16 09:05:31  5-MIN K0J4 211405Z AUTO 15005KT 10SM CLR 20/17 A3009 160 81 800 150/05 RMK AO2 $
63870K0J4 0J420160421091009904/21/16 09:10:31  5-MIN K0J4 211410Z AUTO 15004KT 10SM CLR 20/16 A3009 160 78 800 150/04 RMK AO2 $
63870K0J4 0J420160421091509904/21/16 09:15:31  5-MIN K0J4 211415Z AUTO VRB04KT 10SM CLR 20/16 A3009 160 78 800 VRB/04 RMK AO2 $
63870K0J4 0J420160421092009904/21/16 09:20:31  5-MIN K0J4 211420Z AUTO 15005KT 10SM CLR 21/16 A3009 160 75 900 150/05 RMK AO2 $
63870K0J4 0J420160421092509904/21/16 09:25:31  5-MIN K0J4 211425Z AUTO 16007KT 10SM CLR 21/16 A3008 160 75 900 160/07 RMK AO2 $
63870K0J4 0J420160421093010004/21/16 09:30:31  5-MIN K0J4 211430Z AUTO 15006KT 10SM CLR 21/17 A3008 160 75 1000 150/06 RMK AO2 $
63870K0J4 0J420160421093510004/21/16 09:35:31  5-MIN K0J4 211435Z AUTO 16006KT 10SM CLR 21/17 A3009 160 75 1000 160/06 RMK AO2 $
63870K0J4 0J420160421094018804/21/16 09:40:31  5-MIN K0J4 211440Z AUTO VRB06KT 10SM CLR 22/17 A3009 160 73 1000 AUTO 16011G15KT 10SM FEW049 26/14 A3005 200 49 1500 160/11G15 RMK AO2 SLP172 T02560144 10261 20139 51001
63870K0J4 0J420160421111011004/21/16 11:10:31  5-MIN K0J4 211610Z AUTO 19008KT 10SM FEW055 BKN075 24/14 A3009 160 55 1300 190/08 RMK AO2 $
63870K0J4 0J420160421111511004/21/16 11:15:31  5-MIN K0J4 211615Z AUTO 17010KT 10SM FEW055 BKN075 24/15 A3009 160 57 1300 170/10 RMK AO2 $
63870K0J4 0J420160421112011004/21/16 11:20:31  5-MIN K0J4 211620Z AUTO 19010KT 10SM FEW055 BKN075 24/15 A3009 160 57 1300 190/10 RMK AO2 $
63870K0J4 0J420160421112511004/21/16 11:25:31  5-MIN K0J4 211625Z AUTO 20009KT 10SM FEW055 BKN075 24/14 A3009 160 51 1300 200/09 RMK AO2 $
63870K0J4 0J420160421113011004/21/16 11:30:31  5-MIN K0J4 211630Z AUTO 18008KT 10SM FEW055 BKN075 24/14 A3009 160 51 1300 180/08 RMK AO2 $
63870K0J4 0J420160421113510304/21/16 11:35:31  5-MIN K0J4 211635Z AUTO 18008KT 10SM BKN080 24/14 A3009 160 53 1300 180/08 RMK AO2 $
63870K0J4 0J420160421114010304/21/16 11:40:31  5-MIN K0J4 211640Z AUTO VRB06KT 10SM BKN080 25/15 A3008 170 53 1400 VRB/06 RMK AO2 $
63870K0J4 0J420160421114511004/21/16 11:45:31  5-MIN K0J4 211645Z AUTO 18006KT 10SM FEW039 SCT080 25/15 A3008 170 53 1400 180/06 RMK AO2 $
63870K0J4 0J420160421115011604/21/16 11:50:31  5-MIN K0J4 211650Z AUTO 20006G14KT 10SM SCT039 SCT080 24/15 A3008 170 55 1300 200/06G14 RMK AO2 $
63870K0J4 0J420160421115514904/21/16 11:55:31  5-MIN K0J4 211655Z AUTO 18008G14KT 140V210 10SM SCT039 SCT080 26/15 A3008 170 51 1500 180/08G14 140V210 RMK AO2 SLP181 T02560150 $
63870K0J4 0J420160421120010704/21/16 12:00:31  5-MIN K0J4 211700Z AUTO 19011G14KT 10SM SCT041 25/14 A3008 170 51 1400 190/11G14 RMK AO2
63870K0J4 0J420160421120510704/21/16 12:05:31  5-MIN K0J4 211705Z AUTO 20006G14KT 10SM SCT041 25/14 A3007 170 49 1400 200/06G14 RMK AO2
63870K0J4 0J420160421121010304/21/16 12:10:31  5-MIN K0J4 211710Z AUTO 17009KT 10SM SCT041 26/14 A3007 180 48 1500 170/09 RMK AO2 $
63870K0J4 0J420160421121510904/21/16 12:15:31  5-MIN K0J4 211715Z AUTO 16009G14KT 10SM SCT043 26/14 A3007 180 48 1500 160/09G14 RMK AO2 $
63870K0J4 0J420160421122010904/21/16 12:20:31  5-MIN K0J4 211720Z AUTO 21009G14KT 10SM SCT043 26/14 A3007 180 48 1500 210/09G14 RMK AO2 $
63870K0J4 0J420160421122510304/21/16 12:25:31  5-MIN K0J4 211725Z AUTO VRB06KT 10SM FEW043 26/14 A3006 180 48 1500 VRB/06 RMK AO2 $
63870K0J4 0J420160421123010104/21/16 12:30:31  5-MIN K0J4 211730Z AUTO 20010KT 10SM FEW045 26/14 A3006 190 46 1600 200/10 RMK AO2
63870K0J4 0J420160421123510104/21/16 12:35:31  5-MIN K0J4 211735Z AUTO 20007KT 10SM FEW045 26/14 A3006 190 46 1600 200/07 RMK AO2
63870K0J4 0J420160421124010104/21/16 12:40:31  5-MIN K0J4 211740Z AUTO 17010KT 10SM FEW047 26/14 A3006 190 46 1600 170/10 RMK AO2
63870K0J4 0J420160421124510104/21/16 12:45:31  5-MIN K0J4 211745Z AUTO 16008KT 10SM FEW049 26/14 A3005 190 48 1600 160/08 RMK AO2
63870K0J4 0J420160421125010704/21/16 12:50:31  5-MIN K0J4 211750Z AUTO 16011G15KT 10SM FEW049 26/14 A3005 200 48 1600 160/11G15 RMK AO2
63870K0J4 0J420160421125514204/21/16 12:55:31  5-MIN K0J4 211755Z AUTO 16011G15KT 10SM FEW049 26/14 A3005 200 49 1500 160/11G15 RMK AO2 SLP172 T02560144 10261 20139 51001
63870K0J4 0J420160421130010704/21/16 13:00:31  5-MIN K0J4 211800Z AUTO 15010G15KT 10SM FEW049 26/15 A3005 200 50 1600 150/10G15 RMK AO2
63870K0J4 0J420160421130510904/21/16 13:05:31  5-MIN K0J4 211805Z AUTO 12007G16KT 10SM FEW049 26/15 A3005 200 50 1600 120/07G16 RMK AO2 $
63870K0J4 0J420160421131010604/21/16 13:10:31  5-MIN K0J4 211810Z AUTO 19009G16KT 10SM CLR 26/14 A3005 200 48 1600 190/09G16 RMK AO2 $
63870K0J4 0J420160421131512204/21/16 13:15:31  5-MIN K0J4 211815Z AUTO 17007G14KT 130V200 10SM CLR 26/14 A3005 200 48 1600 170/07G14 130V200 RMK AO2 $
63870K0J4 0J420160421132010904/21/16 13:20:31  5-MIN K0J4 211820Z AUTO 16009G14KT 10SM FEW045 25/14 A3004 200 51 1400 160/09G14 RMK AO2 $
63870K0J4 0J420160421132510904/21/16 13:25:31  5-MIN K0J4 211825Z AUTO 19008G16KT 10SM FEW045 26/14 A3004 200 49 1500 190/08G16 RMK AO2 $
63870K0J4 0J420160421133010304/21/16 13:30:31  5-MIN K0J4 211830Z AUTO 18005KT 10SM FEW045 26/15 A3004 210 50 1600 180/05 RMK AO2 $
63870K0J4 0J420160421133511004/21/16 13:35:31  5-MIN K0J4 211835Z AUTO 18009KT 10SM FEW045 SCT110 26/14 A3004 210 49 1500 180/09 RMK AO2 $
63870K0J4 0J420160421134011704/21/16 13:40:31  5-MIN K0J4 211840Z AUTO 17008KT 10SM FEW045 SCT095 BKN110 26/14 A3004 210 49 1500 170/08 RMK AO2 $
63870K0J4 0J420160421134513304/21/16 13:45:31  5-MIN K0J4 211845Z AUTO 18009KT 120V220 10SM FEW047 SCT055 BKN095 26/14 A3003 210 49 1500 180/09 120V220 RMK AO2 $
63870K0J4 0J420160421135011704/21/16 13:50:31  5-MIN K0J4 211850Z AUTO 17008KT 10SM FEW049 SCT095 BKN110 27/15 A3003 210 48 1600 170/08 RMK AO2 $
63870K0J4 0J420160421135513404/21/16 13:55:31  5-MIN K0J4 211855Z AUTO 17006KT 10SM FEW049 SCT095 BKN110 27/14 A3003 220 46 1700 170/06 RMK AO2 SLP164 T02670144 $
63870K0J4 0J420160421140011604/21/16 14:00:31  5-MIN K0J4 211900Z AUTO 19012G15KT 10SM FEW049 SCT110 27/14 A3003 220 45 1700 190/12G15 RMK AO2 $
63870K0J4 0J420160421140510904/21/16 14:05:31  5-MIN K0J4 211905Z AUTO 18010G15KT 10SM FEW049 27/14 A3003 220 45 1700 180/10G15 RMK AO2 $
63870K0J4 0J420160421141011004/21/16 14:10:31  5-MIN K0J4 211910Z AUTO 18009KT 10SM FEW049 SCT090 26/14 A3003 220 46 1600 180/09 RMK AO2 $
63870K0J4 0J420160421141511704/21/16 14:15:31  5-MIN K0J4 211915Z AUTO 18007KT 10SM FEW049 SCT080 BKN110 25/14 A3003 220 49 1500 180/07 RMK AO2 $
63870K0J4 0J420160421142011004/21/16 14:20:31  5-MIN K0J4 211920Z AUTO 17005KT 10SM FEW055 BKN085 25/14 A3003 220 51 1500 170/05 RMK AO2 $
63870K0J4 0J420160421142511704/21/16 14:25:31  5-MIN K0J4 211925Z AUTO VRB04KT 10SM FEW050 SCT060 BKN095 26/14 A3002 220 49 1500 VRB/04 RMK AO2 $
63870K0J4 0J420160421143012304/21/16 14:30:31  5-MIN K0J4 211930Z AUTO 16010G14KT 10SM SCT050 BKN060 BKN080 25/14 A3002 220 51 1500 160/10G14 RMK AO2 $
63870K0J4 0J420160421143512304/21/16 14:35:31  5-MIN K0J4 211935Z AUTO 20009G14KT 10SM SCT050 BKN055 OVC080 25/15 A3002 230 53 1500 200/09G14 RMK AO2 $
63870K0J4 0J420160421144012304/21/16 14:40:31  5-MIN K0J4 211940Z AUTO 20009G17KT 10SM BKN050 BKN085 OVC100 25/14 A3002 230 51 1500 200/09G17 RMK AO2 $
63870K0J4 0J420160421144511604/21/16 14:45:31  5-MIN K0J4 211945Z AUTO 20010G17KT 10SM SCT050 OVC085 26/14 A3001 230 49 1500 200/10G17 RMK AO2 $
63870K0J4 0J420160421145011704/21/16 14:50:31  5-MIN K0J4 211950Z AUTO 19010KT 10SM SCT050 BKN065 OVC090 26/14 A3001 230 49 1500 190/10 RMK AO2 $
63870K0J4 0J420160421145513404/21/16 14:55:31  5-MIN K0J4 211955Z AUTO 19009KT 10SM SCT050 SCT065 OVC090 26/14 A3001 230 49 1500 190/09 RMK AO2 SLP158 T02560144 $
63870K0J4 0J420160421150011004/21/16 15:00:31  5-MIN K0J4 212000Z AUTO 19011KT 10SM FEW048 BKN090 26/14 A3001 240 48 1600 190/11 RMK AO2 $
63870K0J4 0J420160421150511704/21/16 15:05:31  5-MIN K0J4 212005Z AUTO 19009KT 10SM FEW048 BKN090 BKN110 25/13 A3001 240 48 1500 190/09 RMK AO2 $
63870K0J4 0J420160421151011704/21/16 15:10:31  5-MIN K0J4 212010Z AUTO 21011KT 10SM FEW048 SCT090 BKN110 26/14 A3001 240 48 1600 210/11 RMK AO2 $
63870K0J4 0J420160421151511004/21/16 15:15:31  5-MIN K0J4 212015Z AUTO 21009KT 10SM FEW048 BKN100 26/14 A3000 240 48 1600 210/09 RMK AO2 $
63870K0J4 0J420160421152011004/21/16 15:20:31  5-MIN K0J4 212020Z AUTO 20009KT 10SM BKN100 BKN110 26/14 A3000 240 49 1600 200/09 RMK AO2 $
63870K0J4 0J420160421152512304/21/16 15:25:31  5-MIN K0J4 212025Z AUTO 22013G18KT 10SM FEW050 BKN100 BKN110 26/14 A3000 240 48 1600 220/13G18 RMK AO2 $
63870K0J4 0J420160421153010904/21/16 15:30:31  5-MIN K0J4 212030Z AUTO 20011G18KT 10SM BKN100 26/14 A3000 240 48 1600 200/11G18 RMK AO2 $
63870K0J4 0J420160421153510304/21/16 15:35:31  5-MIN K0J4 212035Z AUTO 19011KT 10SM BKN100 26/14 A3000 240 48 1600 190/11 RMK AO2 $
63870K0J4 0J420160421154010304/21/16 15:40:31  5-MIN K0J4 212040Z AUTO 20012KT 10SM SCT100 26/14 A3000 240 48 1600 200/12 RMK AO2 $
63870K0J4 0J420160421154510304/21/16 15:45:31  5-MIN K0J4 212045Z AUTO 21011KT 10SM SCT100 26/14 A3000 240 48 1600 210/11 RMK AO2 $
63870K0J4 0J420160421155010304/21/16 15:50:31  5-MIN K0J4 212050Z AUTO 21012KT 10SM SCT100 26/14 A3000 240 48 1600 210/12 RMK AO2 $
63870K0J4 0J420160421155513304/21/16 15:55:31  5-MIN K0J4 212055Z AUTO 20012KT 10SM FEW050 SCT110 26/14 A3000 240 46 1600 200/12 RMK AO2 SLP154 T02610139 58014 $
63870K0J4 0J420160421160011704/21/16 16:00:31  5-MIN K0J4 212100Z AUTO 18012KT 10SM FEW050 SCT095 SCT110 25/14 A3000 240 51 1500 180/12 RMK AO2 $
63870K0J4 0J420160421160512304/21/16 16:05:31  5-MIN K0J4 212105Z AUTO 20009G18KT 10SM FEW048 BKN095 BKN110 25/15 A3000 240 53 1500 200/09G18 RMK AO2 $
63870K0J4 0J420160421161012304/21/16 16:10:31  5-MIN K0J4 212110Z AUTO 20013G17KT 10SM SCT048 BKN100 BKN110 25/15 A3000 240 53 1500 200/13G17 RMK AO2 $
63870K0J4 0J420160421161511704/21/16 16:15:31  5-MIN K0J4 212115Z AUTO 20012KT 10SM FEW048 SCT055 BKN100 25/15 A3000 240 53 1500 200/12 RMK AO2 $
63870K0J4 0J420160421162011004/21/16 16:20:31  5-MIN K0J4 212120Z AUTO 20012KT 10SM FEW048 BKN095 24/14 A3000 240 53 1400 200/12 RMK AO2 $
63870K0J4 0J420160421162511004/21/16 16:25:31  5-MIN K0J4 212125Z AUTO 20013KT 10SM FEW048 BKN095 24/15 A3000 240 55 1400 200/13 RMK AO2 $
63870K0J4 0J420160421163011004/21/16 16:30:31  5-MIN K0J4 212130Z AUTO 20013KT 10SM FEW048 BKN100 24/15 A3000 240 55 1400 200/13 RMK AO2 $
63870K0J4 0J420160421163510304/21/16 16:35:31  5-MIN K0J4 212135Z AUTO 20010KT 10SM SCT100 24/14 A3000 240 53 1400 200/10 RMK AO2 $
63870K0J4 0J420160421164011004/21/16 16:40:31  5-MIN K0J4 212140Z AUTO 20011KT 10SM FEW040 SCT100 24/15 A3000 240 55 1400 200/11 RMK AO2 $
63870K0J4 0J420160421164512304/21/16 16:45:31  5-MIN K0J4 212145Z AUTO 20015G20KT 10SM FEW040 SCT050 BKN100 24/16 A3001 240 57 1400 200/15G20 RMK AO2 $
63870K0J4 0J420160421165012304/21/16 16:50:31  5-MIN K0J4 212150Z AUTO 20009G20KT 10SM FEW038 SCT050 BKN100 24/16 A3001 240 57 1400 200/09G20 RMK AO2 $
63870K0J4 0J420160421165513304/21/16 16:55:31  5-MIN K0J4 212155Z AUTO 20013G20KT 10SM FEW038 SCT100 24/16 A3001 240 57 1400 200/13G20 RMK AO2 SLP158 T02440156 $
63870K0J4 0J420160421170010904/21/16 17:00:31  5-MIN K0J4 212200Z AUTO 18011G20KT 10SM FEW038 24/16 A3001 240 57 1400 180/11G20 RMK AO2 $
63870K0J4 0J420160421170510904/21/16 17:05:31  5-MIN K0J4 212205Z AUTO 19010G18KT 10SM FEW038 24/16 A3001 240 59 1400 190/10G18 RMK AO2 $
63870K0J4 0J420160421171010304/21/16 17:10:31  5-MIN K0J4 212210Z AUTO 19009KT 10SM FEW038 24/16 A3001 230 59 1400 190/09 RMK AO2 $
63870K0J4 0J420160421171510604/21/16 17:15:31  5-MIN K0J4 212215Z AUTO 20011G14KT 10SM CLR 24/16 A3001 230 59 1400 200/11G14 RMK AO2 $
63870K0J4 0J420160421172010604/21/16 17:20:31  5-MIN K0J4 212220Z AUTO 19008G14KT 10SM CLR 24/16 A3001 240 59 1400 190/08G14 RMK AO2 $
63870K0J4 0J420160421172511604/21/16 17:25:31  5-MIN K0J4 212225Z AUTO 20014G18KT 10SM FEW037 SCT110 24/16 A3001 240 59 1400 200/14G18 RMK AO2 $
63870K0J4 0J420160421173011604/21/16 17:30:31  5-MIN K0J4 212230Z AUTO 21014G18KT 10SM FEW037 SCT100 24/15 A3001 230 57 1400 210/14G18 RMK AO2 $
63870K0J4 0J420160421173510304/21/16 17:35:31  5-MIN K0J4 212235Z AUTO 19011KT 10SM BKN100 23/15 A3001 230 59 1300 190/11 RMK AO2 $
63870K0J4 0J420160421174010904/21/16 17:40:31  5-MIN K0J4 212240Z AUTO 20012G18KT 10SM BKN100 23/14 A3001 230 57 1300 200/12G18 RMK AO2 $
63870K0J4 0J420160421174510904/21/16 17:45:31  5-MIN K0J4 212245Z AUTO 20011G18KT 10SM BKN100 23/14 A3001 230 57 1300 200/11G18 RMK AO2 $
63870K0J4 0J420160421175010304/21/16 17:50:31  5-MIN K0J4 212250Z AUTO 20011KT 10SM OVC100 23/15 A3001 230 59 1300 200/11 RMK AO2 $
63870K0J4 0J420160421175512004/21/16 17:55:31  5-MIN K0J4 212255Z AUTO 20012KT 10SM OVC100 23/15 A3001 230 59 1300 200/12 RMK AO2 SLP161 T02330150 $
63870K0J4 0J420160421180010304/21/16 18:00:31  5-MIN K0J4 212300Z AUTO 19010KT 10SM BKN100 23/15 A3001 230 59 1300 190/10 RMK AO2 $
63870K0J4 0J420160421180510904/21/16 18:05:31  5-MIN K0J4 212305Z AUTO 20011G17KT 10SM BKN100 23/15 A3001 230 59 1300 200/11G17 RMK AO2 $
63870K0J4 0J420160421181010304/21/16 18:10:31  5-MIN K0J4 212310Z AUTO 20011KT 10SM BKN100 23/15 A3001 230 61 1200 200/11 RMK AO2 $
63870K0J4 0J420160421181510304/21/16 18:15:31  5-MIN K0J4 212315Z AUTO 20010KT 10SM BKN100 24/15 A3001 230 57 1400 200/10 RMK AO2 $
63870K0J4 0J420160421182010304/21/16 18:20:31  5-MIN K0J4 212320Z AUTO 20008KT 10SM BKN100 23/16 A3001 230 63 1200 200/08 RMK AO2 $
63870K0J4 0J420160421182510304/21/16 18:25:31  5-MIN K0J4 212325Z AUTO 20008KT 10SM SCT100 23/16 A3001 230 63 1200 200/08 RMK AO2 $
63870K0J4 0J420160421183010304/21/16 18:30:31  5-MIN K0J4 212330Z AUTO 19009KT 10SM SCT100 23/16 A3001 230 63 1200 190/09 RMK AO2 $
63870K0J4 0J420160421183510304/21/16 18:35:31  5-MIN K0J4 212335Z AUTO 19008KT 10SM SCT100 23/16 A3001 230 65 1200 190/08 RMK AO2 $
63870K0J4 0J420160421184010304/21/16 18:40:31  5-MIN K0J4 212340Z AUTO 19006KT 10SM FEW100 23/16 A3001 230 65 1200 190/06 RMK AO2 $
63870K0J4 0J420160421184510304/21/16 18:45:31  5-MIN K0J4 212345Z AUTO 18006KT 10SM FEW110 22/16 A3001 240 68 1200 180/06 RMK AO2 $
63870K0J4 0J420160421185010304/21/16 18:50:31  5-MIN K0J4 212350Z AUTO 19006KT 10SM FEW110 22/16 A3001 240 68 1200 190/06 RMK AO2 $
63870K0J4 0J420160421185513804/21/16 18:55:31  5-MIN K0J4 212355Z AUTO 20008KT 10SM FEW110 22/16 A3001 240 68 1200 200/08 RMK AO2 SLP158 T02220161 10272 20222 56016 $
63870K0J4 0J420160421190010004/21/16 19:00:31  5-MIN K0J4 220000Z AUTO 18005KT 10SM CLR 22/16 A3001 240 68 1200 180/05 RMK AO2 $
63870K0J4 0J420160421190510004/21/16 19:05:31  5-MIN K0J4 220005Z AUTO 19008KT 10SM CLR 22/16 A3001 230 68 1200 190/08 RMK AO2 $
63870K0J4 0J420160421191010004/21/16 19:10:31  5-MIN K0J4 220010Z AUTO 19007KT 10SM CLR 22/16 A3001 230 68 1200 190/07 RMK AO2 $
63870K0J4 0J420160421191510304/21/16 19:15:31  5-MIN K0J4 220015Z AUTO 20009KT 10SM FEW100 22/16 A3001 230 68 1200 200/09 RMK AO2 $
63870K0J4 0J420160421192010304/21/16 19:20:31  5-MIN K0J4 220020Z AUTO 19006KT 10SM SCT100 22/16 A3001 230 68 1200 190/06 RMK AO2 $
63870K0J4 0J420160421192510304/21/16 19:25:31  5-MIN K0J4 220025Z AUTO 20007KT 10SM BKN100 22/16 A3001 230 68 1200 200/07 RMK AO2 $
63870K0J4 0J420160421193010304/21/16 19:30:31  5-MIN K0J4 220030Z AUTO 19005KT 10SM BKN100 22/16 A3001 230 68 1200 190/05 RMK AO2 $
63870K0J4 0J420160421193510304/21/16 19:35:31  5-MIN K0J4 220035Z AUTO 20005KT 10SM BKN100 22/16 A3001 230 70 1100 200/05 RMK AO2 $
63870K0J4 0J420160421194010304/21/16 19:40:31  5-MIN K0J4 220040Z AUTO 20006KT 10SM OVC100 22/16 A3001 230 70 1100 200/06 RMK AO2 $
63870K0J4 0J420160421194510304/21/16 19:45:31  5-MIN K0J4 220045Z AUTO 20006KT 10SM OVC100 22/16 A3001 230 70 1100 200/06 RMK AO2 $
63870K0J4 0J420160421195010304/21/16 19:50:31  5-MIN K0J4 220050Z AUTO 20004KT 10SM OVC100 22/16 A3002 230 70 1100 200/04 RMK AO2 $
63870K0J4 0J420160421195512004/21/16 19:55:31  5-MIN K0J4 220055Z AUTO 20004KT 10SM BKN100 21/17 A3002 230 75 1000 200/04 RMK AO2 SLP162 T02110167 $
63870K0J4 0J420160421200010304/21/16 20:00:31  5-MIN K0J4 220100Z AUTO 18003KT 10SM BKN100 21/17 A3002 230 75 1000 180/03 RMK AO2 $
63870K0J4 0J420160421200510304/21/16 20:05:31  5-MIN K0J4 220105Z AUTO 18003KT 10SM SCT100 21/17 A3002 230 78 1000 180/03 RMK AO2 $
63870K0J4 0J420160421201010304/21/16 20:10:31  5-MIN K0J4 220110Z AUTO 17004KT 10SM FEW100 21/17 A3002 230 78 1000 170/04 RMK AO2 $
63870K0J4 0J420160421201510304/21/16 20:15:31  5-MIN K0J4 220115Z AUTO 00000KT 10SM FEW100 21/17 A3002 220 78 1000 000/00 RMK AO2 $
63870K0J4 0J420160421202010004/21/16 20:20:31  5-MIN K0J4 220120Z AUTO 00000KT 10SM CLR 21/17 A3002 220 78 1000 000/00 RMK AO2 $
63870K0J4 0J420160421202509904/21/16 20:25:31  5-MIN K0J4 220125Z AUTO 00000KT 10SM CLR 20/17 A3003 220 81 900 000/00 RMK AO2 $
63870K0J4 0J420160421203009904/21/16 20:30:31  5-MIN K0J4 220130Z AUTO 18003KT 10SM CLR 20/17 A3003 220 81 900 180/03 RMK AO2 $
63870K0J4 0J420160421203509904/21/16 20:35:31  5-MIN K0J4 220135Z AUTO 16004KT 10SM CLR 20/17 A3003 210 81 900 160/04 RMK AO2 $
63870K0J4 0J420160421204009904/21/16 20:40:31  5-MIN K0J4 220140Z AUTO 17004KT 10SM CLR 20/16 A3004 210 78 900 170/04 RMK AO2 $
63870K0J4 0J420160421204509904/21/16 20:45:31  5-MIN K0J4 220145Z AUTO 17004KT 10SM CLR 20/16 A3004 210 78 900 170/04 RMK AO2 $
63870K0J4 0J420160421205009904/21/16 20:50:31  5-MIN K0J4 220150Z AUTO 17004KT 10SM CLR 20/17 A3004 200 81 900 170/04 RMK AO2 $
63870K0J4 0J420160421205511604/21/16 20:55:31  5-MIN K0J4 220155Z AUTO 17004KT 10SM CLR 19/17 A3004 200 84 800 170/04 RMK AO2 SLP169 T01940167 $
63870K0J4 0J420160421210009904/21/16 21:00:31  5-MIN K0J4 220200Z AUTO 16003KT 10SM CLR 19/17 A3004 200 84 800 160/03 RMK AO2 $
63870K0J4 0J420160421210509904/21/16 21:05:31  5-MIN K0J4 220205Z AUTO 18004KT 10SM CLR 19/16 A3004 200 81 800 180/04 RMK AO2 $
63870K0J4 0J420160421211009904/21/16 21:10:31  5-MIN K0J4 220210Z AUTO 18003KT 10SM CLR 19/17 A3005 200 84 800 180/03 RMK AO2 $
63870K0J4 0J420160421211509904/21/16 21:15:31  5-MIN K0J4 220215Z AUTO 19004KT 10SM CLR 19/17 A3005 200 84 800 190/04 RMK AO2 $
63870K0J4 0J420160421212009904/21/16 21:20:31  5-MIN K0J4 220220Z AUTO 18004KT 10SM CLR 19/17 A3005 200 84 800 180/04 RMK AO2 $
63870K0J4 0J420160421212509904/21/16 21:25:31  5-MIN K0J4 220225Z AUTO 18004KT 10SM CLR 19/17 A3005 200 84 800 180/04 RMK AO2 $
63870K0J4 0J420160421213009904/21/16 21:30:31  5-MIN K0J4 220230Z AUTO 18004KT 10SM CLR 19/17 A3005 200 84 800 180/04 RMK AO2 $
63870K0J4 0J420160421213509904/21/16 21:35:31  5-MIN K0J4 220235Z AUTO 19004KT 10SM CLR 19/17 A3005 200 84 800 190/04 RMK AO2 $
63870K0J4 0J420160421214009904/21/16 21:40:31  5-MIN K0J4 220240Z AUTO 18004KT 10SM CLR 19/17 A3005 200 84 800 180/04 RMK AO2 $
63870K0J4 0J420160421214509904/21/16 21:45:31  5-MIN K0J4 220245Z AUTO 18004KT 10SM CLR 19/17 A3005 200 87 700 180/04 RMK AO2 $
63870K0J4 0J420160421215009904/21/16 21:50:31  5-MIN K0J4 220250Z AUTO 18003KT 10SM CLR 19/17 A3005 200 87 700 180/03 RMK AO2 $
63870K0J4 0J420160421215512204/21/16 21:55:31  5-MIN K0J4 220255Z AUTO 18003KT 10SM CLR 19/17 A3005 200 87 700 180/03 RMK AO2 SLP172 T01890167 50002 $
63870K0J4 0J420160421220009904/21/16 22:00:31  5-MIN K0J4 220300Z AUTO 18004KT 10SM CLR 19/17 A3005 190 87 700 180/04 RMK AO2 $
63870K0J4 0J420160421220509904/21/16 22:05:31  5-MIN K0J4 220305Z AUTO 19003KT 10SM CLR 19/17 A3005 190 87 700 190/03 RMK AO2 $
63870K0J4 0J420160421221009904/21/16 22:10:31  5-MIN K0J4 220310Z AUTO 19003KT 10SM CLR 19/17 A3006 190 87 700 190/03 RMK AO2 $
63870K0J4 0J420160421221509904/21/16 22:15:31  5-MIN K0J4 220315Z AUTO 17003KT 10SM CLR 18/17 A3005 190 90 700 170/03 RMK AO2 $
63870K0J4 0J420160421222009904/21/16 22:20:31  5-MIN K0J4 220320Z AUTO 17003KT 10SM CLR 18/17 A3005 190 90 700 170/03 RMK AO2 $
63870K0J4 0J420160421222509904/21/16 22:25:31  5-MIN K0J4 220325Z AUTO 17003KT 10SM CLR 18/17 A3005 190 90 700 170/03 RMK AO2 $
63870K0J4 0J420160421223009904/21/16 22:30:31  5-MIN K0J4 220330Z AUTO 16004KT 10SM CLR 18/17 A3005 200 93 600 160/04 RMK AO2 $
63870K0J4 0J420160421223509904/21/16 22:35:31  5-MIN K0J4 220335Z AUTO 17004KT 10SM CLR 18/17 A3005 200 93 600 170/04 RMK AO2 $
63870K0J4 0J420160421224009904/21/16 22:40:31  5-MIN K0J4 220340Z AUTO 17004KT 10SM CLR 18/17 A3005 200 90 700 170/04 RMK AO2 $
63870K0J4 0J420160421224509904/21/16 22:45:31  5-MIN K0J4 220345Z AUTO 17004KT 10SM CLR 18/17 A3005 200 90 700 170/04 RMK AO2 $
63870K0J4 0J420160421225009904/21/16 22:50:31  5-MIN K0J4 220350Z AUTO 17004KT 10SM CLR 18/17 A3005 200 93 600 170/04 RMK AO2 $
63870K0J4 0J420160421225511604/21/16 22:55:31  5-MIN K0J4 220355Z AUTO 16004KT 10SM CLR 18/17 A3004 200 93 600 160/04 RMK AO2 SLP170 T01780167 $
63870K0J4 0J420160421230009904/21/16 23:00:31  5-MIN K0J4 220400Z AUTO 17004KT 10SM CLR 18/17 A3004 200 93 600 170/04 RMK AO2 $
63870K0J4 0J420160421230509904/21/16 23:05:31  5-MIN K0J4 220405Z AUTO 17003KT 10SM CLR 18/17 A3004 200 93 600 170/03 RMK AO2 $
63870K0J4 0J420160421231009904/21/16 23:10:31  5-MIN K0J4 220410Z AUTO 16003KT 10SM CLR 18/17 A3004 210 93 600 160/03 RMK AO2 $
63870K0J4 0J420160421231509904/21/16 23:15:31  5-MIN K0J4 220415Z AUTO 16004KT 10SM CLR 18/17 A3004 210 93 600 160/04 RMK AO2 $
63870K0J4 0J420160421232009904/21/16 23:20:31  5-MIN K0J4 220420Z AUTO 16004KT 10SM CLR 18/17 A3004 210 93 600 160/04 RMK AO2 $
63870K0J4 0J420160421232509904/21/16 23:25:31  5-MIN K0J4 220425Z AUTO 16004KT 10SM CLR 18/17 A3004 210 93 600 160/04 RMK AO2 $
63870K0J4 0J420160421233009904/21/16 23:30:31  5-MIN K0J4 220430Z AUTO 17004KT 10SM CLR 18/17 A3003 210 93 600 170/04 RMK AO2 $
63870K0J4 0J420160421233509904/21/16 23:35:31  5-MIN K0J4 220435Z AUTO 17004KT 10SM CLR 18/17 A3003 210 93 600 170/04 RMK AO2 $
63870K0J4 0J420160421234009904/21/16 23:40:31  5-MIN K0J4 220440Z AUTO 17005KT 10SM CLR 18/17 A3003 210 93 600 170/05 RMK AO2 $
63870K0J4 0J420160421234509904/21/16 23:45:31  5-MIN K0J4 220445Z AUTO 18004KT 10SM CLR 18/17 A3003 210 93 600 180/04 RMK AO2 $
63870K0J4 0J420160421235009904/21/16 23:50:31  5-MIN K0J4 220450Z AUTO 18004KT 10SM CLR 18/17 A3003 210 93 600 180/04 RMK AO2 $
63870K0J4 0J420160421235512604/21/16 23:55:31  5-MIN K0J4 220455Z AUTO 19004KT 10SM CLR 18/17 A3004 210 93 600 190/04 RMK AO2 SLP167 T01780167 402720117 $
63870K0J4 0J420160422000009904/22/16 00:00:31  5-MIN K0J4 220500Z AUTO 19004KT 10SM CLR 18/17 A3004 210 93 600 190/04 RMK AO2 $
63870K0J4 0J420160422000509904/22/16 00:05:31  5-MIN K0J4 220505Z AUTO 19003KT 10SM CLR 18/17 A3004 210 96 600 190/03 RMK AO2 $
63870K0J4 0J420160422001009904/22/16 00:10:31  5-MIN K0J4 220510Z AUTO 19003KT 10SM CLR 18/17 A3004 210 93 600 190/03 RMK AO2 $
63870K0J4 0J420160422001509804/22/16 00:15:31  5-MIN K0J4 220515Z AUTO 19003KT 9SM CLR 18/17 A3004 210 96 600 190/03 RMK AO2 $
63870K0J4 0J420160422002009804/22/16 00:20:31  5-MIN K0J4 220520Z AUTO 21004KT 9SM CLR 18/17 A3004 210 93 600 210/04 RMK AO2 $
63870K0J4 0J420160422002509804/22/16 00:25:31  5-MIN K0J4 220525Z AUTO 21004KT 9SM CLR 18/17 A3004 210 93 600 210/04 RMK AO2 $
63870K0J4 0J420160422003009804/22/16 00:30:31  5-MIN K0J4 220530Z AUTO 20004KT 9SM CLR 18/17 A3004 210 93 600 200/04 RMK AO2 $
63870K0J4 0J420160422003509804/22/16 00:35:31  5-MIN K0J4 220535Z AUTO 19004KT 9SM CLR 18/17 A3003 210 93 600 190/04 RMK AO2 $
63870K0J4 0J420160422004009804/22/16 00:40:31  5-MIN K0J4 220540Z AUTO 20004KT 9SM CLR 18/17 A3003 210 93 600 200/04 RMK AO2 $
63870K0J4 0J420160422004509804/22/16 00:45:31  5-MIN K0J4 220545Z AUTO 19003KT 9SM CLR 18/17 A3003 210 96 600 190/03 RMK AO2 $
63870K0J4 0J420160422005009804/22/16 00:50:31  5-MIN K0J4 220550Z AUTO 19003KT 8SM CLR 18/17 A3003 220 93 600 190/03 RMK AO2 $
63870K0J4 0J420160422005513304/22/16 00:55:31  5-MIN K0J4 220555Z AUTO 19003KT 8SM CLR 18/17 A3003 220 96 600 190/03 RMK AO2 SLP164 T01780172 10222 20178 51015 $
63870K0J4 0J420160422010009804/22/16 01:00:31  5-MIN K0J4 220600Z AUTO 20003KT 8SM CLR 18/17 A3003 220 96 600 200/03 RMK AO2 $
63870K0J4 0J420160422010509804/22/16 01:05:31  5-MIN K0J4 220605Z AUTO 20004KT 7SM CLR 18/17 A3003 220 93 600 200/04 RMK AO2 $
63870K0J4 0J420160422011009804/22/16 01:10:31  5-MIN K0J4 220610Z AUTO 21004KT 7SM CLR 18/17 A3002 220 93 600 210/04 RMK AO2 $
63870K0J4 0J420160422011510104/22/16 01:15:31  5-MIN K0J4 220615Z AUTO 20004KT 6SM BR CLR 17/17 A3002 220 96 600 200/04 RMK AO2 $
63870K0J4 0J420160422012010104/22/16 01:20:31  5-MIN K0J4 220620Z AUTO 20004KT 6SM BR CLR 17/17 A3002 230 96 600 200/04 RMK AO2 $
63870K0J4 0J420160422012510104/22/16 01:25:31  5-MIN K0J4 220625Z AUTO 19004KT 6SM BR CLR 18/17 A3001 230 93 700 190/04 RMK AO2 $
63870K0J4 0J420160422013009804/22/16 01:30:31  5-MIN K0J4 220630Z AUTO 18004KT 7SM CLR 18/17 A3001 240 96 700 180/04 RMK AO2 $
63870K0J4 0J420160422013509804/22/16 01:35:31  5-MIN K0J4 220635Z AUTO 18004KT 7SM CLR 18/17 A3000 240 96 700 180/04 RMK AO2 $
63870K0J4 0J420160422014009804/22/16 01:40:31  5-MIN K0J4 220640Z AUTO 18003KT 7SM CLR 18/17 A3000 240 96 700 180/03 RMK AO2 $
63870K0J4 0J420160422014509804/22/16 01:45:31  5-MIN K0J4 220645Z AUTO 19003KT 7SM CLR 18/17 A3000 240 96 700 190/03 RMK AO2 $
63870K0J4 0J420160422015010104/22/16 01:50:31  5-MIN K0J4 220650Z AUTO 18003KT 7SM FEW100 18/17 A3000 240 96 700 180/03 RMK AO2 $
63870K0J4 0J420160422015511804/22/16 01:55:31  5-MIN K0J4 220655Z AUTO 18003KT 8SM FEW100 18/17 A3000 240 93 700 180/03 RMK AO2 SLP155 T01780167 $
63870K0J4 0J420160422020010104/22/16 02:00:31  5-MIN K0J4 220700Z AUTO 19003KT 8SM FEW110 18/17 A3000 240 96 700 190/03 RMK AO2 $
63870K0J4 0J420160422020510104/22/16 02:05:31  5-MIN K0J4 220705Z AUTO 20003KT 8SM SCT110 18/17 A3000 240 96 700 200/03 RMK AO2 $
63870K0J4 0J420160422021010104/22/16 02:10:31  5-MIN K0J4 220710Z AUTO 21003KT 9SM SCT110 18/17 A3000 240 93 700 210/03 RMK AO2 $
63870K0J4 0J420160422021510104/22/16 02:15:31  5-MIN K0J4 220715Z AUTO 21004KT 9SM BKN110 18/17 A3000 240 96 700 210/04 RMK AO2 $
63870K0J4 0J420160422022010104/22/16 02:20:31  5-MIN K0J4 220720Z AUTO 20004KT 9SM BKN120 18/17 A3000 240 96 700 200/04 RMK AO2 $
63870K0J4 0J420160422022510104/22/16 02:25:31  5-MIN K0J4 220725Z AUTO 19004KT 9SM BKN120 18/17 A3000 240 96 700 190/04 RMK AO2 $
63870K0J4 0J420160422023010204/22/16 02:30:31  5-MIN K0J4 220730Z AUTO 19004KT 10SM OVC120 18/17 A3000 240 93 700 190/04 RMK AO2 $
63870K0J4 0J420160422023510204/22/16 02:35:31  5-MIN K0J4 220735Z AUTO 20005KT 10SM OVC120 18/17 A3000 240 93 700 200/05 RMK AO2 $
63870K0J4 0J420160422024010204/22/16 02:40:31  5-MIN K0J4 220740Z AUTO 20004KT 10SM OVC110 18/17 A3000 240 93 700 200/04 RMK AO2 $
63870K0J4 0J420160422024510204/22/16 02:45:31  5-MIN K0J4 220745Z AUTO 20004KT 10SM OVC110 18/17 A3000 240 93 700 200/04 RMK AO2 $
63870K0J4 0J420160422025010204/22/16 02:50:31  5-MIN K0J4 220750Z AUTO 20004KT 10SM OVC110 18/17 A3000 240 93 700 200/04 RMK AO2 $
63870K0J4 0J420160422025511904/22/16 02:55:31  5-MIN K0J4 220755Z AUTO 20004KT 10SM OVC110 18/17 A3000 240 93 700 200/04 RMK AO2 SLP155 T01830172 $
63870K0J4 0J420160422030010204/22/16 03:00:31  5-MIN K0J4 220800Z AUTO 20004KT 10SM OVC120 18/17 A3000 240 93 700 200/04 RMK AO2 $
63870K0J4 0J420160422030510204/22/16 03:05:31  5-MIN K0J4 220805Z AUTO 20004KT 10SM OVC120 18/17 A3000 240 93 700 200/04 RMK AO2 $
63870K0J4 0J420160422031010204/22/16 03:10:31  5-MIN K0J4 220810Z AUTO 19004KT 10SM OVC120 18/17 A3000 240 93 700 190/04 RMK AO2 $
63870K0J4 0J420160422031510204/22/16 03:15:31  5-MIN K0J4 220815Z AUTO 19004KT 10SM OVC120 18/18 A2999 250 96 700 190/04 RMK AO2 $
63870K0J4 0J420160422032010204/22/16 03:20:31  5-MIN K0J4 220820Z AUTO 19003KT 10SM OVC120 18/18 A2999 250 96 700 190/03 RMK AO2 $
63870K0J4 0J420160422032510204/22/16 03:25:31  5-MIN K0J4 220825Z AUTO 19004KT 10SM OVC120 18/18 A2999 250 96 700 190/04 RMK AO2 $
63870K0J4 0J420160422033010904/22/16 03:30:31  5-MIN K0J4 220830Z AUTO 18004KT 10SM FEW065 OVC120 18/18 A2999 250 96 700 180/04 RMK AO2 $
63870K0J4 0J420160422033510904/22/16 03:35:31  5-MIN K0J4 220835Z AUTO 19004KT 10SM FEW065 OVC120 18/18 A2999 250 96 700 190/04 RMK AO2 $
63870K0J4 0J420160422034010204/22/16 03:40:31  5-MIN K0J4 220840Z AUTO 00000KT 10SM BKN110 18/18 A2999 250 96 700 000/00 RMK AO2 $
63870K0J4 0J420160422034510204/22/16 03:45:31  5-MIN K0J4 220845Z AUTO 00000KT 10SM BKN120 18/18 A2998 260 96 700 000/00 RMK AO2 $
63870K0J4 0J420160422035010104/22/16 03:50:31  5-MIN K0J4 220850Z AUTO 00000KT 9SM SCT110 18/17 A2998 260 93 700 000/00 RMK AO2 $
63870K0J4 0J420160422035513104/22/16 03:55:31  5-MIN K0J4 220855Z AUTO 00000KT 9SM FEW047 BKN110 18/17 A2998 260 93 700 000/00 RMK AO2 SLP150 T01830172 58008 $
63870K0J4 0J420160422040011504/22/16 04:00:31  5-MIN K0J4 220900Z AUTO 00000KT 9SM FEW047 SCT065 BKN110 18/17 A2998 260 93 800 000/00 RMK AO2 $
63870K0J4 0J420160422040511504/22/16 04:05:31  5-MIN K0J4 220905Z AUTO 00000KT 9SM FEW047 SCT065 BKN110 18/17 A2998 260 93 800 000/00 RMK AO2 $
63870K0J4 0J420160422041010804/22/16 04:10:31  5-MIN K0J4 220910Z AUTO 00000KT 9SM FEW065 SCT110 18/18 A2998 260 96 800 000/00 RMK AO2 $
63870K0J4 0J420160422041510804/22/16 04:15:31  5-MIN K0J4 220915Z AUTO 00000KT 9SM SCT070 BKN110 18/18 A2998 260 96 800 000/00 RMK AO2 $
63870K0J4 0J420160422042010804/22/16 04:20:31  5-MIN K0J4 220920Z AUTO 17003KT 9SM BKN070 BKN110 18/18 A2998 260 96 800 170/03 RMK AO2 $
63870K0J4 0J420160422042510804/22/16 04:25:31  5-MIN K0J4 220925Z AUTO 17003KT 9SM BKN070 OVC110 18/18 A2998 260 96 800 170/03 RMK AO2 $
63870K0J4 0J420160422043010804/22/16 04:30:31  5-MIN K0J4 220930Z AUTO 00000KT 8SM BKN070 OVC110 18/18 A2997 270 96 800 000/00 RMK AO2 $
63870K0J4 0J420160422043510804/22/16 04:35:31  5-MIN K0J4 220935Z AUTO 00000KT 8SM BKN070 OVC110 18/18 A2997 270 96 800 000/00 RMK AO2 $
63870K0J4 0J420160422044010804/22/16 04:40:31  5-MIN K0J4 220940Z AUTO 00000KT 8SM BKN070 OVC110 18/18 A2997 270 96 800 000/00 RMK AO2 $
63870K0J4 0J420160422044510804/22/16 04:45:31  5-MIN K0J4 220945Z AUTO 18003KT 8SM BKN070 BKN110 18/18 A2997 270 96 800 180/03 RMK AO2 $
63870K0J4 0J420160422045010804/22/16 04:50:31  5-MIN K0J4 220950Z AUTO 00000KT 8SM SCT070 BKN110 18/18 A2997 270 96 800 000/00 RMK AO2 $
63870K0J4 0J420160422045513204/22/16 04:55:31  5-MIN K0J4 220955Z AUTO 00000KT 8SM FEW065 SCT075 BKN110 18/18 A2997 270 96 800 000/00 RMK AO2 SLP144 T01830178 $
63870K0J4 0J420160422050010804/22/16 05:00:31  5-MIN K0J4 221000Z AUTO 00000KT 7SM FEW070 BKN100 18/18 A2997 270 96 800 000/00 RMK AO2 $
63870K0J4 0J420160422050510804/22/16 05:05:31  5-MIN K0J4 221005Z AUTO 00000KT 7SM FEW070 BKN100 18/18 A2997 270 96 800 000/00 RMK AO2 $
63870K0J4 0J420160422051010104/22/16 05:10:31  5-MIN K0J4 221010Z AUTO 18004KT 7SM BKN100 18/18 A2997 270 96 800 180/04 RMK AO2 $
63870K0J4 0J420160422051511704/22/16 05:15:31  5-MIN K0J4 221015Z AUTO 19003KT 8SM -RA BKN110 19/18 A2997 270 93 800 190/03 RMK AO2 RAB14 P0000 $
63870K0J4 0J420160422052011704/22/16 05:20:31  5-MIN K0J4 221020Z AUTO 19003KT 8SM -RA BKN110 19/18 A2997 270 93 800 190/03 RMK AO2 RAB14 P0000 $
63870K0J4 0J420160422052511704/22/16 05:25:31  5-MIN K0J4 221025Z AUTO 20003KT 8SM -RA BKN110 19/18 A2997 270 97 800 200/03 RMK AO2 RAB14 P0000 $
63870K0J4 0J420160422053012404/22/16 05:30:31  5-MIN K0J4 221030Z AUTO 19003KT 7SM -RA FEW070 OVC110 19/18 A2997 270 97 800 190/03 RMK AO2 RAB14 P0000 $
63870K0J4 0J420160422053512404/22/16 05:35:31  5-MIN K0J4 221035Z AUTO 00000KT 7SM -RA FEW070 OVC110 19/18 A2997 270 97 800 000/00 RMK AO2 RAB14 P0000 $
63870K0J4 0J420160422054011704/22/16 05:40:31  5-MIN K0J4 221040Z AUTO 00000KT 7SM -RA OVC110 19/18 A2997 270 97 800 000/00 RMK AO2 RAB14 P0001 $
63870K0J4 0J420160422054512704/22/16 05:45:31  5-MIN K0J4 221045Z AUTO 19003KT 6SM -RA BR FEW055 OVC110 19/18 A2997 270 97 800 190/03 RMK AO2 RAB14 P0001 $
63870K0J4 0J420160422055012704/22/16 05:50:31  5-MIN K0J4 221050Z AUTO 19003KT 6SM -RA BR FEW055 OVC110 19/18 A2997 270 97 800 190/03 RMK AO2 RAB14 P0001 $
63870K0J4 0J420160422055513404/22/16 05:55:31  5-MIN K0J4 221055Z AUTO 20005KT 7SM -RA OVC110 19/18 A2997 270 97 800 200/05 RMK AO2 RAB14 SLP146 P0002 T01890183 $
63870K0J4 0J420160422060011804/22/16 06:00:31  5-MIN K0J4 221100Z AUTO 19005KT 7SM -RA FEW085 OVC110 19/18 A2997 270 93 900 190/05 RMK AO2 P0000 $
63870K0J4 0J420160422060511804/22/16 06:05:31  5-MIN K0J4 221105Z AUTO 19005KT 7SM -RA SCT090 OVC110 19/18 A2997 270 93 900 190/05 RMK AO2 P0000 $
63870K0J4 0J420160422061011104/22/16 06:10:31  5-MIN K0J4 221110Z AUTO 18006KT 7SM -RA OVC100 19/18 A2997 270 93 900 180/06 RMK AO2 P0001 $
63870K0J4 0J420160422061511104/22/16 06:15:31  5-MIN K0J4 221115Z AUTO 18006KT 8SM -RA OVC100 19/19 A2997 270 97 900 180/06 RMK AO2 P0001 $
63870K0J4 0J420160422062011804/22/16 06:20:31  5-MIN K0J4 221120Z AUTO 20007KT 9SM -RA FEW004 OVC100 19/19 A2998 260 97 900 200/07 RMK AO2 P0001 $
63870K0J4 0J420160422062512804/22/16 06:25:31  5-MIN K0J4 221125Z AUTO 21008KT 10SM SCT006 SCT080 OVC100 19/19 A2998 260 97 900 210/08 RMK AO2 RAE25 P0001 $
63870K0J4 0J420160422063014604/22/16 06:30:31  5-MIN K0J4 221130Z AUTO 21011G17KT 10SM SCT006 BKN024 OVC100 19/19 A2998 260 97 900 210/11G17 RMK AO2 RAE25 CIG 020V031 P0001 $
63870K0J4 0J420160422063514404/22/16 06:35:31  5-MIN K0J4 221135Z AUTO 21008G17KT 10SM -RA BKN006 BKN024 OVC100 19/19 A2999 260 97 900 210/08G17 RMK AO2 CIG 003V010 P0001 $
63870K0J4 0J420160422064013804/22/16 06:40:31  5-MIN K0J4 221140Z AUTO 21009KT 10SM -RA SCT004 BKN008 OVC100 19/18 A2999 250 93 900 210/09 RMK AO2 CIG 006V012 P0001 $
63870K0J4 0J420160422064513704/22/16 06:45:31  5-MIN K0J4 221145Z AUTO 22009G14KT 10SM -RA BKN006 OVC095 19/18 A2999 250 93 900 220/09G14 RMK AO2 CIG 003V012 P0001 $
63870K0J4 0J420160422065013004/22/16 06:50:31  5-MIN K0J4 221150Z AUTO 22010KT 8SM -RA BKN006 OVC085 19/18 A2999 250 97 800 220/10 RMK AO2 CIG 004V012 P0002 $
63870K0J4 0J420160422065511804/22/16 06:55:31  5-MIN K0J4 221155Z AUTO 22008KT 7SM -RA SCT006 OVC085 19/18 A2999 250 93 800 220/08 RMK AO2 P0002 $
63870K0J4 0J420160422070012104/22/16 07:00:31  5-MIN K0J4 221200Z AUTO 22008KT 6SM -RA BR FEW006 OVC080 19/18 A3000 250 93 800 220/08 RMK AO2 P0000 $
63870K0J4 0J420160422070512104/22/16 07:05:31  5-MIN K0J4 221205Z AUTO 22008KT 6SM -RA BR FEW006 OVC080 18/17 A3000 240 93 700 220/08 RMK AO2 P0000 $
63870K0J4 0J420160422071012004/22/16 07:10:31  5-MIN K0J4 221210Z AUTO 22006KT 5SM RA BR FEW006 OVC080 18/17 A3000 240 93 700 220/06 RMK AO2 P0001 $
63870K0J4 0J420160422071512004/22/16 07:15:31  5-MIN K0J4 221215Z AUTO 21005KT 4SM RA BR BKN080 OVC095 18/17 A3000 240 93 700 210/05 RMK AO2 P0002 $
63870K0J4 0J420160422072012004/22/16 07:20:31  5-MIN K0J4 221220Z AUTO 19007KT 4SM RA BR BKN080 OVC100 18/17 A2999 250 93 700 190/07 RMK AO2 P0003 $
63870K0J4 0J420160422072512004/22/16 07:25:31  5-MIN K0J4 221225Z AUTO 19005KT 4SM RA BR SCT080 OVC100 18/17 A2999 250 93 700 190/05 RMK AO2 P0005 $
63870K0J4 0J420160422073012104/22/16 07:30:31  5-MIN K0J4 221230Z AUTO 19006KT 5SM -RA BR SCT075 OVC100 18/17 A2999 250 93 700 190/06 RMK AO2 P0005 $
63870K0J4 0J420160422073512104/22/16 07:35:31  5-MIN K0J4 221235Z AUTO 19005KT 6SM -RA BR FEW075 OVC100 18/17 A2999 250 93 700 190/05 RMK AO2 P0006 $
63870K0J4 0J420160422074011804/22/16 07:40:31  5-MIN K0J4 221240Z AUTO 19005KT 8SM -RA FEW080 OVC100 18/17 A3000 250 93 700 190/05 RMK AO2 P0006 $
63870K0J4 0J420160422074511804/22/16 07:45:31  5-MIN K0J4 221245Z AUTO 20006KT 9SM -RA FEW080 OVC100 18/17 A3000 250 93 700 200/06 RMK AO2 P0006 $
63870K0J4 0J420160422075011904/22/16 07:50:31  5-MIN K0J4 221250Z AUTO 19005KT 10SM -RA FEW080 BKN100 18/17 A2999 250 93 700 190/05 RMK AO2 P0006 $
63870K0J4 0J420160422075513604/22/16 07:55:31  5-MIN K0J4 221255Z AUTO 21004KT 10SM -RA FEW080 BKN100 18/17 A3000 240 93 700 210/04 RMK AO2 SLP154 P0006 T01780167 $
63870K0J4 0J420160422080010904/22/16 08:00:31  5-MIN K0J4 221300Z AUTO 00000KT 10SM FEW080 SCT110 18/17 A3000 240 93 700 000/00 RMK AO2 $
63870K0J4 0J420160422080510904/22/16 08:05:31  5-MIN K0J4 221305Z AUTO 00000KT 10SM FEW080 SCT110 18/17 A3000 240 93 700 000/00 RMK AO2 $
63870K0J4 0J420160422081010204/22/16 08:10:31  5-MIN K0J4 221310Z AUTO 22003KT 10SM FEW110 18/17 A3000 240 93 700 220/03 RMK AO2 $
63870K0J4 0J420160422081509904/22/16 08:15:31  5-MIN K0J4 221315Z AUTO 20003KT 10SM CLR 18/17 A3000 240 93 700 200/03 RMK AO2 $
63870K0J4 0J420160422082009904/22/16 08:20:31  5-MIN K0J4 221320Z AUTO 19003KT 10SM CLR 18/17 A3000 240 96 700 190/03 RMK AO2 $
63870K0J4 0J420160422082509904/22/16 08:25:31  5-MIN K0J4 221325Z AUTO 20004KT 10SM CLR 18/17 A3000 240 96 700 200/04 RMK AO2 $
63870K0J4 0J420160422083010204/22/16 08:30:31  5-MIN K0J4 221330Z AUTO 20004KT 10SM FEW110 18/17 A3000 240 93 700 200/04 RMK AO2 $
63870K0J4 0J420160422083510204/22/16 08:35:31  5-MIN K0J4 221335Z AUTO 20006KT 10SM SCT110 18/17 A3000 240 93 700 200/06 RMK AO2 $
63870K0J4 0J420160422084010204/22/16 08:40:31  5-MIN K0J4 221340Z AUTO 20005KT 10SM FEW110 18/17 A3000 240 93 700 200/05 RMK AO2 $
63870K0J4 0J420160422084510204/22/16 08:45:31  5-MIN K0J4 221345Z AUTO 20005KT 10SM FEW110 18/17 A3000 240 93 700 200/05 RMK AO2 $
63870K0J4 0J420160422085010204/22/16 08:50:31  5-MIN K0J4 221350Z AUTO 21005KT 10SM FEW110 19/17 A3000 240 90 800 210/05 RMK AO2 $
63870K0J4 0J420160422085511904/22/16 08:55:31  5-MIN K0J4 221355Z AUTO 20005KT 10SM FEW110 19/17 A3000 240 90 800 200/05 RMK AO2 SLP157 T01890172 $
63870K0J4 0J420160422090010204/22/16 09:00:31  5-MIN K0J4 221400Z AUTO 20004KT 10SM FEW110 19/17 A3000 240 90 800 200/04 RMK AO2 $
63870K0J4 0J420160422090510204/22/16 09:05:31  5-MIN K0J4 221405Z AUTO 18004KT 10SM FEW006 19/17 A3001 240 90 800 180/04 RMK AO2 $
63870K0J4 0J420160422091010204/22/16 09:10:31  5-MIN K0J4 221410Z AUTO 20005KT 10SM FEW006 19/17 A3001 230 90 800 200/05 RMK AO2 $
63870K0J4 0J420160422091510904/22/16 09:15:31  5-MIN K0J4 221415Z AUTO 21006KT 10SM FEW006 SCT055 19/17 A3001 230 87 800 210/06 RMK AO2 $
63870K0J4 0J420160422092010904/22/16 09:20:31  5-MIN K0J4 221420Z AUTO 21004KT 10SM FEW006 BKN055 19/17 A3001 240 87 900 210/04 RMK AO2 $
63870K0J4 0J420160422092510904/22/16 09:25:31  5-MIN K0J4 221425Z AUTO 20004KT 10SM FEW006 BKN055 19/17 A3001 240 87 900 200/04 RMK AO2 $
63870K0J4 0J420160422093011604/22/16 09:30:31  5-MIN K0J4 221430Z AUTO 21005KT 10SM SCT008 SCT032 BKN055 19/17 A3001 230 87 800 210/05 RMK AO2 $
63870K0J4 0J420160422093511604/22/16 09:35:31  5-MIN K0J4 221435Z AUTO 20005KT 10SM SCT008 SCT032 BKN055 19/17 A3001 230 87 800 200/05 RMK AO2 $
63870K0J4 0J420160422094011604/22/16 09:40:31  5-MIN K0J4 221440Z AUTO 19005KT 10SM SCT008 SCT032 OVC055 19/17 A3001 230 87 800 190/05 RMK AO2 $
63870K0J4 0J420160422094510904/22/16 09:45:31  5-MIN K0J4 221445Z AUTO 19006KT 10SM SCT008 OVC055 20/17 A3001 230 84 900 190/06 RMK AO2 $
63870K0J4 0J420160422095010904/22/16 09:50:31  5-MIN K0J4 221450Z AUTO 20006KT 10SM SCT008 OVC055 20/17 A3001 230 84 900 200/06 RMK AO2 $
63870K0J4 0J420160422095513904/22/16 09:55:31  5-MIN K0J4 221455Z AUTO 20007KT 10SM SCT008 OVC055 21/17 A3001 230 81 1000 200/07 RMK AO2 SLP159 60006 T02060172 53004 $
63870K0J4 0J420160422100010904/22/16 10:00:31  5-MIN K0J4 221500Z AUTO 19006KT 10SM FEW008 OVC060 20/17 A3001 230 84 900 190/06 RMK AO2 $
63870K0J4 0J420160422100510904/22/16 10:05:31  5-MIN K0J4 221505Z AUTO 19006KT 10SM FEW008 OVC060 20/17 A3001 230 84 900 190/06 RMK AO2 $
63870K0J4 0J420160422101011704/22/16 10:10:31  5-MIN K0J4 221510Z AUTO 20006KT 10SM FEW008 BKN055 OVC100 21/18 A3001 230 84 1000 200/06 RMK AO2 $
63870K0J4 0J420160422101511004/22/16 10:15:31  5-MIN K0J4 221515Z AUTO 21005KT 10SM BKN060 OVC100 21/17 A3001 230 78 1000 210/05 RMK AO2 $
63870K0J4 0J420160422102011004/22/16 10:20:31  5-MIN K0J4 221520Z AUTO 20007KT 10SM SCT060 OVC100 21/17 A3001 230 81 1000 200/07 RMK AO2 $
63870K0J4 0J420160422102511004/22/16 10:25:31  5-MIN K0J4 221525Z AUTO 19007KT 10SM SCT060 OVC100 21/17 A3002 230 78 1000 190/07 RMK AO2 $
63870K0J4 0J420160422103011704/22/16 10:30:31  5-MIN K0J4 221530Z AUTO 19007KT 10SM FEW013 SCT060 OVC100 21/17 A3002 230 81 1000 190/07 RMK AO2 $
63870K0J4 0J420160422103511704/22/16 10:35:31  5-MIN K0J4 221535Z AUTO 19007KT 10SM FEW013 SCT060 OVC100 21/17 A3002 230 78 1000 190/07 RMK AO2 $
63870K0J4 0J420160422104011004/22/16 10:40:31  5-MIN K0J4 221540Z AUTO 20007KT 10SM SCT013 OVC100 21/17 A3002 230 78 1000 200/07 RMK AO2 $
63870K0J4 0J420160422104511004/22/16 10:45:31  5-MIN K0J4 221545Z AUTO 22007KT 10SM FEW013 OVC100 21/18 A3001 230 81 1000 220/07 RMK AO2 $
63870K0J4 0J420160422105011004/22/16 10:50:31  5-MIN K0J4 221550Z AUTO 21007KT 10SM FEW013 OVC100 21/18 A3001 230 81 1000 210/07 RMK AO2 $
63870K0J4 0J420160422105512704/22/16 10:55:31  5-MIN K0J4 221555Z AUTO 21004KT 10SM FEW013 OVC100 22/18 A3001 240 78 1100 210/04 RMK AO2 SLP158 T02170178 $
63870K0J4 0J420160422110011004/22/16 11:00:31  5-MIN K0J4 221600Z AUTO 21006KT 10SM SCT013 OVC100 22/17 A3001 240 75 1100 210/06 RMK AO2 $
63870K0J4 0J420160422110511004/22/16 11:05:31  5-MIN K0J4 221605Z AUTO 21009KT 10SM SCT015 OVC100 22/17 A3001 240 75 1100 210/09 RMK AO2 $
63870K0J4 0J420160422111010804/22/16 11:10:31  5-MIN K0J4 221610Z AUTO 23008KT 10SM SCT015 OVC100 22/18 A3001 240 75 1200 230/08 RMK AO2
63870K0J4 0J420160422111511404/22/16 11:15:31  5-MIN K0J4 221615Z AUTO 22011G14KT 10SM BKN017 OVC100 22/18 A3001 230 75 1200 220/11G14 RMK AO2
63870K0J4 0J420160422112010804/22/16 11:20:31  5-MIN K0J4 221620Z AUTO 21005KT 10SM BKN017 OVC100 22/18 A3001 240 75 1200 210/05 RMK AO2
63870K0J4 0J420160422112510804/22/16 11:25:31  5-MIN K0J4 221625Z AUTO 20005KT 10SM BKN017 OVC100 22/18 A3001 230 75 1200 200/05 RMK AO2
63870K0J4 0J420160422113011004/22/16 11:30:31  5-MIN K0J4 221630Z AUTO VRB05KT 10SM BKN017 OVC100 22/18 A3001 230 75 1200 VRB/05 RMK AO2 $
63870K0J4 0J420160422113511004/22/16 11:35:31  5-MIN K0J4 221635Z AUTO 21006KT 10SM BKN017 OVC025 22/18 A3001 240 75 1200 210/06 RMK AO2 $
63870K0J4 0J420160422114011004/22/16 11:40:31  5-MIN K0J4 221640Z AUTO 23004KT 10SM BKN017 OVC025 22/18 A3000 240 75 1200 230/04 RMK AO2 $
63870K0J4 0J420160422114511704/22/16 11:45:31  5-MIN K0J4 221645Z AUTO 24003KT 10SM BKN017 BKN025 OVC110 23/18 A3000 240 73 1200 240/03 RMK AO2 $
63870K0J4 0J420160422115011704/22/16 11:50:31  5-MIN K0J4 221650Z AUTO 22005KT 10SM SCT017 BKN023 OVC100 22/18 A3000 240 75 1200 220/05 RMK AO2 $
63870K0J4 0J420160422115513404/22/16 11:55:31  5-MIN K0J4 221655Z AUTO 22006KT 10SM BKN017 BKN023 OVC100 22/18 A3000 240 75 1200 220/06 RMK AO2 SLP156 T02220178 $
63870K0J4 0J420160422120011504/22/16 12:00:31  5-MIN K0J4 221700Z AUTO 22004KT 10SM SCT018 BKN023 OVC100 22/18 A3000 240 75 1200 220/04 RMK AO2
63870K0J4 0J420160422120511004/22/16 12:05:31  5-MIN K0J4 221705Z AUTO 22007KT 10SM BKN023 BKN100 23/18 A3000 250 73 1200 220/07 RMK AO2 $
63870K0J4 0J420160422121010804/22/16 12:10:31  5-MIN K0J4 221710Z AUTO 22007KT 10SM SCT021 BKN100 23/18 A2999 250 76 1300 220/07 RMK AO2
63870K0J4 0J420160422121510804/22/16 12:15:31  5-MIN K0J4 221715Z AUTO 22008KT 10SM SCT019 SCT100 23/18 A2999 250 70 1300 220/08 RMK AO2
63870K0J4 0J420160422122010104/22/16 12:20:31  5-MIN K0J4 221720Z AUTO 21008KT 10SM FEW019 23/18 A2999 250 70 1300 210/08 RMK AO2
63870K0J4 0J420160422122510804/22/16 12:25:31  5-MIN K0J4 221725Z AUTO 23005KT 10SM FEW019 SCT027 23/17 A2999 250 68 1300 230/05 RMK AO2
63870K0J4 0J420160422123010804/22/16 12:30:31  5-MIN K0J4 221730Z AUTO 22005KT 10SM FEW019 SCT027 23/17 A2999 250 68 1300 220/05 RMK AO2
63870K0J4 0J420160422123512404/22/16 12:35:31  5-MIN K0J4 221735Z AUTO 22007KT 190V260 10SM SCT024 SCT032 23/18 A2999 250 70 1300 220/07 190V260 RMK AO2
63870K0J4 0J420160422124010804/22/16 12:40:31  5-MIN K0J4 221740Z AUTO 23005KT 10SM FEW021 BKN026 23/18 A2999 250 73 1300 230/05 RMK AO2
63870K0J4 0J420160422124510804/22/16 12:45:31  5-MIN K0J4 221745Z AUTO VRB05KT 10SM SCT021 BKN026 23/18 A2999 250 73 1300 VRB/05 RMK AO2
63870K0J4 0J420160422125011504/22/16 12:50:31  5-MIN K0J4 221750Z AUTO VRB06KT 10SM SCT021 BKN026 BKN060 24/18 A2999 250 71 1400 VRB/06 RMK AO2
63870K0J4 0J420160422125515604/22/16 12:55:31  5-MIN K0J4 221755Z AUTO 23007KT 10SM SCT021 BKN025 BKN065 23/18 A2999 250 70 1300 230/07 RMK AO2 SLP152 60006 T02330178 10239 20178 53005
63870K0J4 0J420160422130011504/22/16 13:00:31  5-MIN K0J4 221800Z AUTO 23007KT 10SM BKN023 BKN032 OVC065 23/18 A2999 250 70 1300 230/07 RMK AO2
63870K0J4 0J420160422130511704/22/16 13:05:31  5-MIN K0J4 221805Z AUTO 19006KT 10SM SCT020 BKN025 OVC060 23/17 A2999 250 70 1300 190/06 RMK AO2 $
63870K0J4 0J420160422131011704/22/16 13:10:31  5-MIN K0J4 221810Z AUTO 21007KT 10SM BKN022 BKN042 OVC065 23/18 A2999 250 70 1300 210/07 RMK AO2 $
63870K0J4 0J420160422131511704/22/16 13:15:31  5-MIN K0J4 221815Z AUTO 19006KT 10SM BKN022 BKN028 OVC044 23/18 A2999 250 70 1300 190/06 RMK AO2 $
63870K0J4 0J420160422132011704/22/16 13:20:31  5-MIN K0J4 221820Z AUTO 21008KT 10SM BKN022 BKN028 OVC044 23/18 A2999 260 70 1300 210/08 RMK AO2 $
63870K0J4 0J420160422132511704/22/16 13:25:31  5-MIN K0J4 221825Z AUTO 20009KT 10SM BKN022 BKN030 OVC060 23/18 A2998 260 73 1300 200/09 RMK AO2 $
63870K0J4 0J420160422133011704/22/16 13:30:31  5-MIN K0J4 221830Z AUTO 19008KT 10SM SCT022 BKN031 BKN043 24/18 A2998 260 71 1400 190/08 RMK AO2 $
63870K0J4 0J420160422133511704/22/16 13:35:31  5-MIN K0J4 221835Z AUTO 20007KT 10SM FEW022 BKN031 OVC060 23/18 A2998 260 70 1300 200/07 RMK AO2 $
63870K0J4 0J420160422134013304/22/16 13:40:31  5-MIN K0J4 221840Z AUTO 21008KT 10SM -RA FEW022 BKN029 OVC060 23/18 A2998 260 73 1300 210/08 RMK AO2 RAB39 P0000 $
63870K0J4 0J420160422134513304/22/16 13:45:31  5-MIN K0J4 221845Z AUTO 20008KT 10SM -RA SCT022 BKN029 OVC070 23/18 A2998 260 73 1300 200/08 RMK AO2 RAB39 P0000 $
63870K0J4 0J420160422135013204/22/16 13:50:31  5-MIN K0J4 221850Z AUTO 21005KT 10SM FEW022 BKN027 OVC070 23/18 A2998 260 73 1300 210/05 RMK AO2 RAB39E50 P0000 $
63870K0J4 0J420160422135514904/22/16 13:55:31  5-MIN K0J4 221855Z AUTO 20006KT 10SM FEW021 BKN027 BKN033 23/17 A2998 260 70 1300 200/06 RMK AO2 RAB39E50 SLP148 P0000 T02280172 $
63870K0J4 0J420160422140012504/22/16 14:00:31  5-MIN K0J4 221900Z AUTO 19003KT 10SM -RA BKN025 BKN030 BKN100 23/18 A2998 260 73 1300 190/03 RMK AO2 P0000
63870K0J4 0J420160422140512504/22/16 14:05:31  5-MIN K0J4 221905Z AUTO 21004KT 10SM -RA FEW022 SCT029 BKN055 23/18 A2998 260 70 1300 210/04 RMK AO2 P0000
63870K0J4 0J420160422141012704/22/16 14:10:31  5-MIN K0J4 221910Z AUTO 21006KT 10SM SCT026 BKN055 BKN070 23/18 A2997 270 73 1300 210/06 RMK AO2 RAE06 P0000
63870K0J4 0J420160422141512704/22/16 14:15:31  5-MIN K0J4 221915Z AUTO 19004KT 10SM -RA SCT026 BKN039 OVC100 23/18 A2997 270 73 1300 190/04 RMK AO2 P0000 $
63870K0J4 0J420160422142012704/22/16 14:20:31  5-MIN K0J4 221920Z AUTO 19005KT 10SM -RA SCT026 BKN055 BKN100 23/18 A2997 270 76 1300 190/05 RMK AO2 P0000 $
63870K0J4 0J420160422142512704/22/16 14:25:31  5-MIN K0J4 221925Z AUTO 20007KT 10SM -RA SCT024 BKN060 OVC100 22/18 A2997 270 78 1200 200/07 RMK AO2 P0000 $
63870K0J4 0J420160422143012704/22/16 14:30:31  5-MIN K0J4 221930Z AUTO 19006KT 10SM -RA SCT024 SCT055 BKN100 22/18 A2997 270 78 1200 190/06 RMK AO2 P0000 $
63870K0J4 0J420160422143512204/22/16 14:35:31  5-MIN K0J4 221935Z AUTO 18005KT 10SM SCT026 SCT100 22/19 A2997 270 84 1200 180/05 RMK AO2 RAE34 P0000 $
63870K0J4 0J420160422144012204/22/16 14:40:31  5-MIN K0J4 221940Z AUTO 19005KT 10SM FEW024 SCT100 22/18 A2997 270 81 1100 190/05 RMK AO2 RAE34 P0000 $
63870K0J4 0J420160422144512204/22/16 14:45:31  5-MIN K0J4 221945Z AUTO 19005KT 10SM FEW024 SCT100 22/18 A2997 270 78 1200 190/05 RMK AO2 RAE34 P0000 $
63870K0J4 0J420160422145011504/22/16 14:50:31  5-MIN K0J4 221950Z AUTO 19008KT 10SM FEW024 23/19 A2996 280 78 1300 190/08 RMK AO2 RAE34 P0000 $
63870K0J4 0J420160422145512904/22/16 14:55:31  5-MIN K0J4 221955Z AUTO 20009KT 10SM CLR 23/19 A2996 280 76 1400 200/09 RMK AO2 RAE34 SLP142 P0000 T02330189 $
63870K0J4 0J420160422150010304/22/16 15:00:31  5-MIN K0J4 222000Z AUTO 20006KT 10SM FEW110 23/19 A2996 280 76 1400 200/06 RMK AO2 $
63870K0J4 0J420160422150510304/22/16 15:05:31  5-MIN K0J4 222005Z AUTO 18004KT 10SM SCT100 24/18 A2995 290 71 1400 180/04 RMK AO2 $
63870K0J4 0J420160422151011004/22/16 15:10:31  5-MIN K0J4 222010Z AUTO 18007KT 10SM FEW055 SCT100 24/18 A2995 290 68 1400 180/07 RMK AO2 $
63870K0J4 0J420160422151511004/22/16 15:15:31  5-MIN K0J4 222015Z AUTO 17006KT 10SM FEW055 SCT100 24/18 A2995 290 71 1400 170/06 RMK AO2 $
63870K0J4 0J420160422152011004/22/16 15:20:31  5-MIN K0J4 222020Z AUTO 16007KT 10SM FEW060 SCT100 24/18 A2995 290 71 1400 160/07 RMK AO2 $
63870K0J4 0J420160422152511904/22/16 15:25:31  5-MIN K0J4 222025Z AUTO 20007KT 10SM TS FEW060 SCT100 23/18 A2995 290 73 1400 200/07 RMK AO2 TSB25 $
63870K0J4 0J420160422153012104/22/16 15:30:31  5-MIN K0J4 222030Z AUTO 19006KT 10SM VCTS FEW060 SCT100 23/18 A2995 290 76 1300 190/06 RMK AO2 TSB25 $
63870K0J4 0J420160422153511904/22/16 15:35:31  5-MIN K0J4 222035Z AUTO 19005KT 10SM TS FEW060 SCT100 23/18 A2995 290 76 1300 190/05 RMK AO2 TSB25 $
63870K0J4 0J420160422154011904/22/16 15:40:31  5-MIN K0J4 222040Z AUTO 18006KT 10SM TS FEW060 BKN100 23/18 A2995 290 76 1300 180/06 RMK AO2 TSB25 $
63870K0J4 0J420160422154511904/22/16 15:45:31  5-MIN K0J4 222045Z AUTO 17006KT 10SM TS FEW060 BKN100 23/18 A2995 290 76 1300 170/06 RMK AO2 TSB25 $
63870K0J4 0J420160422155011904/22/16 15:50:31  5-MIN K0J4 222050Z AUTO 18007KT 10SM FEW043 BKN100 23/18 A2995 290 76 1300 180/07 RMK AO2 TSB25E49 $
63870K0J4 0J420160422155515504/22/16 15:55:31  5-MIN K0J4 222055Z AUTO 20005KT 10SM FEW034 SCT044 OVC110 23/19 A2994 290 78 1300 200/05 RMK AO2 TSB25E49 SLP136 60000 T02280189 58007 $
63870K0J4 0J420160422160011704/22/16 16:00:31  5-MIN K0J4 222100Z AUTO 20007KT 10SM SCT034 BKN044 OVC100 23/19 A2994 290 78 1300 200/07 RMK AO2 $
63870K0J4 0J420160422160511704/22/16 16:05:31  5-MIN K0J4 222105Z AUTO 20007KT 10SM SCT034 BKN060 BKN110 23/19 A2994 300 76 1400 200/07 RMK AO2 $
63870K0J4 0J420160422161011704/22/16 16:10:31  5-MIN K0J4 222110Z AUTO 20007KT 10SM FEW034 SCT060 BKN110 23/19 A2993 300 78 1300 200/07 RMK AO2 $
63870K0J4 0J420160422161511004/22/16 16:15:31  5-MIN K0J4 222115Z AUTO 19010KT 10SM FEW034 SCT110 23/19 A2993 310 76 1400 190/10 RMK AO2 $
63870K0J4 0J420160422162010304/22/16 16:20:31  5-MIN K0J4 222120Z AUTO 20006KT 10SM FEW034 23/18 A2993 310 76 1300 200/06 RMK AO2 $
63870K0J4 0J420160422162510304/22/16 16:25:31  5-MIN K0J4 222125Z AUTO 20008KT 10SM FEW034 23/18 A2993 310 76 1300 200/08 RMK AO2 $
63870K0J4 0J420160422163010004/22/16 16:30:31  5-MIN K0J4 222130Z AUTO 19008KT 10SM CLR 23/19 A2992 310 78 1300 190/08 RMK AO2 $
63870K0J4 0J420160422163510004/22/16 16:35:31  5-MIN K0J4 222135Z AUTO 18007KT 10SM CLR 23/18 A2992 310 76 1300 180/07 RMK AO2 $
63870K0J4 0J420160422164010304/22/16 16:40:31  5-MIN K0J4 222140Z AUTO 18005KT 10SM FEW055 22/18 A2992 310 78 1300 180/05 RMK AO2 $
63870K0J4 0J420160422164510304/22/16 16:45:31  5-MIN K0J4 222145Z AUTO 16005KT 10SM FEW050 23/19 A2992 320 76 1400 160/05 RMK AO2 $
63870K0J4 0J420160422165010304/22/16 16:50:31  5-MIN K0J4 222150Z AUTO 16006KT 10SM FEW050 23/19 A2992 320 76 1400 160/06 RMK AO2 $
63870K0J4 0J420160422165512004/22/16 16:55:31  5-MIN K0J4 222155Z AUTO 18005KT 10SM FEW050 23/19 A2992 320 76 1400 180/05 RMK AO2 SLP127 T02330189 $
63870K0J4 0J420160422170010304/22/16 17:00:31  5-MIN K0J4 222200Z AUTO 18005KT 10SM FEW050 23/19 A2991 330 78 1300 180/05 RMK AO2 $
63870K0J4 0J420160422170510304/22/16 17:05:31  5-MIN K0J4 222205Z AUTO 18006KT 10SM FEW050 23/18 A2991 320 73 1400 180/06 RMK AO2 $
63870K0J4 0J420160422171010004/22/16 17:10:31  5-MIN K0J4 222210Z AUTO 19006KT 10SM CLR 23/18 A2991 330 73 1400 190/06 RMK AO2 $
63870K0J4 0J420160422171510304/22/16 17:15:31  5-MIN K0J4 222215Z AUTO 17006KT 10SM FEW110 24/19 A2991 330 73 1500 170/06 RMK AO2 $
63870K0J4 0J420160422172010304/22/16 17:20:31  5-MIN K0J4 222220Z AUTO 18006KT 10SM FEW110 23/18 A2992 320 73 1400 180/06 RMK AO2 $
63870K0J4 0J420160422172510004/22/16 17:25:31  5-MIN K0J4 222225Z AUTO 19006KT 10SM CLR 23/18 A2991 320 73 1300 190/06 RMK AO2 $
63870K0J4 0J420160422173010004/22/16 17:30:31  5-MIN K0J4 222230Z AUTO 20007KT 10SM CLR 23/18 A2992 320 73 1300 200/07 RMK AO2 $
63870K0J4 0J420160422173510004/22/16 17:35:31  5-MIN K0J4 222235Z AUTO 18006KT 10SM CLR 23/18 A2992 320 76 1300 180/06 RMK AO2 $
63870K0J4 0J420160422174010304/22/16 17:40:31  5-MIN K0J4 222240Z AUTO 19006KT 10SM FEW080 22/18 A2992 320 78 1300 190/06 RMK AO2 $
63870K0J4 0J420160422174511004/22/16 17:45:31  5-MIN K0J4 222245Z AUTO 21006KT 10SM SCT080 SCT100 22/18 A2992 320 78 1300 210/06 RMK AO2 $
63870K0J4 0J420160422175011704/22/16 17:50:31  5-MIN K0J4 222250Z AUTO 21007KT 10SM FEW043 SCT075 BKN095 22/18 A2992 320 78 1300 210/07 RMK AO2 $
63870K0J4 0J420160422175513404/22/16 17:55:31  5-MIN K0J4 222255Z AUTO 22008KT 10SM SCT043 BKN080 BKN095 22/18 A2993 310 81 1200 220/08 RMK AO2 SLP131 T02170183 $
63870K0J4 0J420160422180013304/22/16 18:00:31  5-MIN K0J4 222300Z AUTO 22008KT 10SM -RA BKN041 BKN080 BKN100 21/18 A2993 300 81 1100 220/08 RMK AO2 RAB00 P0000 $
63870K0J4 0J420160422180512504/22/16 18:05:31  5-MIN K0J4 222305Z AUTO 23005KT 9SM -RA BKN041 OVC080 21/17 A2994 300 78 1100 230/05 RMK AO2 RAB00 P0001 $
63870K0J4 0J420160422181013204/22/16 18:10:31  5-MIN K0J4 222310Z AUTO 23003KT 9SM -RA BKN037 BKN044 OVC095 21/17 A2994 300 81 1100 230/03 RMK AO2 RAB00 P0001 $
63870K0J4 0J420160422181511904/22/16 18:15:31  5-MIN K0J4 222315Z AUTO 00000KT 10SM -RA OVC039 20/17 A2994 300 84 1000 000/00 RMK AO2 RAB00 P0001 $
63870K0J4 0J420160422182012604/22/16 18:20:31  5-MIN K0J4 222320Z AUTO 00000KT 10SM -RA BKN036 BKN043 20/18 A2994 300 87 1000 000/00 RMK AO2 RAB00 P0001 $
63870K0J4 0J420160422182513304/22/16 18:25:31  5-MIN K0J4 222325Z AUTO VRB03KT 10SM -RA FEW017 BKN036 OVC110 20/18 A2993 300 87 1000 VRB/03 RMK AO2 RAB00 P0001 $
63870K0J4 0J420160422183013304/22/16 18:30:31  5-MIN K0J4 222330Z AUTO 00000KT 10SM -RA FEW017 BKN038 BKN110 20/18 A2993 310 87 1000 000/00 RMK AO2 RAB00 P0001 $
63870K0J4 0J420160422183513204/22/16 18:35:31  5-MIN K0J4 222335Z AUTO 20003KT 10SM -RA FEW017 SCT036 BKN110 19/18 A2994 300 90 900 200/03 RMK AO2 RAB00 P0001 $
63870K0J4 0J420160422184013204/22/16 18:40:31  5-MIN K0J4 222340Z AUTO 00000KT 10SM FEW017 SCT036 BKN110 20/18 A2994 300 90 1000 000/00 RMK AO2 RAB00E37 P0001 $
63870K0J4 0J420160422184512504/22/16 18:45:31  5-MIN K0J4 222345Z AUTO 00000KT 10SM FEW015 BKN110 20/18 A2994 300 90 1000 000/00 RMK AO2 RAB00E37 P0001 $
63870K0J4 0J420160422185013304/22/16 18:50:31  5-MIN K0J4 222350Z AUTO 00000KT 10SM TS FEW015 BKN110 20/18 A2994 300 90 1000 000/00 RMK AO2 TSB47RAB00E37 P0001 $
63870K0J4 0J420160422185516704/22/16 18:55:31  5-MIN K0J4 222355Z AUTO 00000KT 10SM TS BKN110 20/18 A2994 300 90 1000 000/00 RMK AO2 TSB47RAB00E37 SLP135 P0001 60001 T02000183 10239 20194 58016 $
63870K0J4 0J420160422190010604/22/16 19:00:31  5-MIN K0J4 230000Z AUTO 19003KT 10SM TS BKN110 20/18 A2994 300 87 1000 190/03 RMK AO2 $
63870K0J4 0J420160422190510904/22/16 19:05:31  5-MIN K0J4 230005Z AUTO 00000KT 10SM BKN110 20/18 A2995 290 90 1000 000/00 RMK AO2 TSE02 $
63870K0J4 0J420160422191010904/22/16 19:10:31  5-MIN K0J4 230010Z AUTO 00000KT 10SM BKN110 20/18 A2995 290 90 1000 000/00 RMK AO2 TSE02 $
63870K0J4 0J420160422191510904/22/16 19:15:31  5-MIN K0J4 230015Z AUTO 00000KT 10SM OVC110 20/18 A2994 290 90 1000 000/00 RMK AO2 TSE02 $
63870K0J4 0J420160422192010904/22/16 19:20:31  5-MIN K0J4 230020Z AUTO 00000KT 10SM OVC110 20/18 A2994 300 90 1000 000/00 RMK AO2 TSE02 $
63870K0J4 0J420160422192510804/22/16 19:25:31  5-MIN K0J4 230025Z AUTO 00000KT 10SM BKN110 19/18 A2994 290 90 900 000/00 RMK AO2 TSE02 $
63870K0J4 0J420160422193010804/22/16 19:30:31  5-MIN K0J4 230030Z AUTO 00000KT 10SM BKN110 19/18 A2995 290 90 900 000/00 RMK AO2 TSE02 $
63870K0J4 0J420160422193510804/22/16 19:35:31  5-MIN K0J4 230035Z AUTO 00000KT 10SM BKN110 19/18 A2995 290 90 900 000/00 RMK AO2 TSE02 $
63870K0J4 0J420160422194010804/22/16 19:40:31  5-MIN K0J4 230040Z AUTO 16003KT 10SM BKN110 19/18 A2994 290 90 900 160/03 RMK AO2 TSE02 $
63870K0J4 0J420160422194510804/22/16 19:45:31  5-MIN K0J4 230045Z AUTO 19003KT 10SM FEW110 19/18 A2995 290 93 900 190/03 RMK AO2 TSE02 $
63870K0J4 0J420160422195010804/22/16 19:50:31  5-MIN K0J4 230050Z AUTO 21004KT 10SM FEW110 19/18 A2995 290 93 900 210/04 RMK AO2 TSE02 $
63870K0J4 0J420160422195512504/22/16 19:55:31  5-MIN K0J4 230055Z AUTO 20004KT 10SM FEW110 19/18 A2995 290 93 900 200/04 RMK AO2 TSE02 SLP139 T01890178 $
63870K0J4 0J420160422200010204/22/16 20:00:31  5-MIN K0J4 230100Z AUTO 20003KT 10SM FEW110 19/18 A2995 290 93 900 200/03 RMK AO2 $
63870K0J4 0J420160422200510204/22/16 20:05:31  5-MIN K0J4 230105Z AUTO 20004KT 10SM FEW006 19/18 A2995 290 93 900 200/04 RMK AO2 $
63870K0J4 0J420160422201010204/22/16 20:10:31  5-MIN K0J4 230110Z AUTO 20004KT 10SM FEW006 19/18 A2995 290 93 900 200/04 RMK AO2 $
63870K0J4 0J420160422201509904/22/16 20:15:31  5-MIN K0J4 230115Z AUTO 20004KT 10SM CLR 19/18 A2995 290 93 900 200/04 RMK AO2 $
63870K0J4 0J420160422202009904/22/16 20:20:31  5-MIN K0J4 230120Z AUTO 19004KT 10SM CLR 19/18 A2995 290 93 900 190/04 RMK AO2 $
63870K0J4 0J420160422202509904/22/16 20:25:31  5-MIN K0J4 230125Z AUTO 20005KT 10SM CLR 18/18 A2995 290 96 800 200/05 RMK AO2 $
63870K0J4 0J420160422203009904/22/16 20:30:31  5-MIN K0J4 230130Z AUTO 21004KT 10SM CLR 18/17 A2995 280 93 800 210/04 RMK AO2 $
63870K0J4 0J420160422203509904/22/16 20:35:31  5-MIN K0J4 230135Z AUTO 20005KT 10SM CLR 18/17 A2996 280 93 800 200/05 RMK AO2 $
63870K0J4 0J420160422204009904/22/16 20:40:31  5-MIN K0J4 230140Z AUTO 21004KT 10SM CLR 18/17 A2996 280 93 800 210/04 RMK AO2 $
63870K0J4 0J420160422204509904/22/16 20:45:31  5-MIN K0J4 230145Z AUTO 22003KT 10SM CLR 18/17 A2996 280 93 700 220/03 RMK AO2 $
63870K0J4 0J420160422205009904/22/16 20:50:31  5-MIN K0J4 230150Z AUTO 22004KT 10SM CLR 18/17 A2996 280 93 700 220/04 RMK AO2 $
63870K0J4 0J420160422205511604/22/16 20:55:31  5-MIN K0J4 230155Z AUTO 22004KT 10SM CLR 18/17 A2996 280 93 700 220/04 RMK AO2 SLP141 T01780167 $
63870K0J4 0J420160422210009904/22/16 21:00:31  5-MIN K0J4 230200Z AUTO 22004KT 10SM CLR 18/17 A2996 280 93 700 220/04 RMK AO2 $
63870K0J4 0J420160422210509904/22/16 21:05:31  5-MIN K0J4 230205Z AUTO 24003KT 10SM CLR 18/17 A2996 280 93 700 240/03 RMK AO2 $
63870K0J4 0J420160422211009904/22/16 21:10:31  5-MIN K0J4 230210Z AUTO 24003KT 10SM CLR 18/17 A2996 280 93 700 240/03 RMK AO2 $
63870K0J4 0J420160422211509904/22/16 21:15:31  5-MIN K0J4 230215Z AUTO 00000KT 10SM CLR 18/17 A2996 280 93 700 000/00 RMK AO2 $
63870K0J4 0J420160422212009904/22/16 21:20:31  5-MIN K0J4 230220Z AUTO 21004KT 10SM CLR 18/17 A2996 280 93 700 210/04 RMK AO2 $
63870K0J4 0J420160422212509904/22/16 21:25:31  5-MIN K0J4 230225Z AUTO 22004KT 10SM CLR 17/17 A2996 280 96 600 220/04 RMK AO2 $
63870K0J4 0J420160422213009904/22/16 21:30:31  5-MIN K0J4 230230Z AUTO 24004KT 10SM CLR 17/17 A2997 270 96 600 240/04 RMK AO2 $
63870K0J4 0J420160422213509904/22/16 21:35:31  5-MIN K0J4 230235Z AUTO 22005KT 10SM CLR 17/17 A2997 270 96 600 220/05 RMK AO2 $
63870K0J4 0J420160422214009904/22/16 21:40:31  5-MIN K0J4 230240Z AUTO 23004KT 10SM CLR 17/17 A2997 270 96 600 230/04 RMK AO2 $
63870K0J4 0J420160422214509904/22/16 21:45:31  5-MIN K0J4 230245Z AUTO 23003KT 10SM CLR 17/17 A2997 270 96 600 230/03 RMK AO2 $
63870K0J4 0J420160422215009904/22/16 21:50:31  5-MIN K0J4 230250Z AUTO 00000KT 10SM CLR 17/17 A2997 270 96 600 000/00 RMK AO2 $
63870K0J4 0J420160422215512204/22/16 21:55:31  5-MIN K0J4 230255Z AUTO 21003KT 10SM CLR 17/17 A2998 270 96 600 210/03 RMK AO2 SLP148 T01720167 55001 $
63870K0J4 0J420160422220009904/22/16 22:00:31  5-MIN K0J4 230300Z AUTO 21005KT 10SM CLR 17/17 A2998 270 96 600 210/05 RMK AO2 $
63870K0J4 0J420160422220510204/22/16 22:05:31  5-MIN K0J4 230305Z AUTO 23003KT 10SM FEW039 17/16 A2998 260 93 600 230/03 RMK AO2 $
63870K0J4 0J420160422221010204/22/16 22:10:31  5-MIN K0J4 230310Z AUTO 00000KT 10SM SCT037 17/17 A2998 260 96 600 000/00 RMK AO2 $
63870K0J4 0J420160422221510204/22/16 22:15:31  5-MIN K0J4 230315Z AUTO 00000KT 10SM SCT037 17/17 A2998 260 96 600 000/00 RMK AO2 $
63870K0J4 0J420160422222011604/22/16 22:20:31  5-MIN K0J4 230320Z AUTO 22003KT 10SM SCT037 BKN045 BKN060 17/17 A2998 260 96 600 220/03 RMK AO2 $
63870K0J4 0J420160422222511604/22/16 22:25:31  5-MIN K0J4 230325Z AUTO 23003KT 10SM SCT037 BKN047 BKN060 17/17 A2998 260 96 600 230/03 RMK AO2 $
63870K0J4 0J420160422223011604/22/16 22:30:31  5-MIN K0J4 230330Z AUTO 23003KT 10SM SCT040 BKN050 BKN060 17/16 A2998 260 93 600 230/03 RMK AO2 $
63870K0J4 0J420160422223511604/22/16 22:35:31  5-MIN K0J4 230335Z AUTO 23003KT 10SM SCT038 SCT047 BKN060 17/16 A2998 260 93 600 230/03 RMK AO2 $
63870K0J4 0J420160422224010904/22/16 22:40:31  5-MIN K0J4 230340Z AUTO 00000KT 10SM FEW040 SCT060 17/16 A2998 260 93 600 000/00 RMK AO2 $
63870K0J4 0J420160422224510204/22/16 22:45:31  5-MIN K0J4 230345Z AUTO 00000KT 10SM FEW042 17/16 A2998 270 93 600 000/00 RMK AO2 $
63870K0J4 0J420160422225010204/22/16 22:50:31  5-MIN K0J4 230350Z AUTO 00000KT 10SM FEW042 17/16 A2998 260 93 600 000/00 RMK AO2 $
63870K0J4 0J420160422225511604/22/16 22:55:31  5-MIN K0J4 230355Z AUTO 00000KT 10SM CLR 17/16 A2998 260 96 600 000/00 RMK AO2 SLP148 T01670161 $
63870K0J4 0J420160422230009904/22/16 23:00:31  5-MIN K0J4 230400Z AUTO 00000KT 10SM CLR 17/16 A2998 260 96 600 000/00 RMK AO2 $
63870K0J4 0J420160422230509904/22/16 23:05:31  5-MIN K0J4 230405Z AUTO 00000KT 10SM CLR 17/16 A2998 260 96 600 000/00 RMK AO2 $
63870K0J4 0J420160422231009904/22/16 23:10:31  5-MIN K0J4 230410Z AUTO 00000KT 10SM CLR 17/16 A2998 260 96 600 000/00 RMK AO2 $
63870K0J4 0J420160422231509904/22/16 23:15:31  5-MIN K0J4 230415Z AUTO 00000KT 10SM CLR 17/16 A2998 260 93 600 000/00 RMK AO2 $
63870K0J4 0J420160422232009904/22/16 23:20:31  5-MIN K0J4 230420Z AUTO 00000KT 10SM CLR 17/16 A2998 260 96 600 000/00 RMK AO2 $
63870K0J4 0J420160422232509904/22/16 23:25:31  5-MIN K0J4 230425Z AUTO 00000KT 10SM CLR 17/16 A2998 260 96 600 000/00 RMK AO2 $
63870K0J4 0J420160422233009904/22/16 23:30:31  5-MIN K0J4 230430Z AUTO 00000KT 10SM CLR 17/16 A2998 260 93 600 000/00 RMK AO2 $
63870K0J4 0J420160422233509904/22/16 23:35:31  5-MIN K0J4 230435Z AUTO 00000KT 10SM CLR 16/16 A2998 260 96 500 000/00 RMK AO2 $
63870K0J4 0J420160422234009904/22/16 23:40:31  5-MIN K0J4 230440Z AUTO 00000KT 10SM CLR 17/16 A2998 270 93 600 000/00 RMK AO2 $
63870K0J4 0J420160422234509904/22/16 23:45:31  5-MIN K0J4 230445Z AUTO 00000KT 10SM CLR 16/16 A2997 270 96 500 000/00 RMK AO2 $
63870K0J4 0J420160422235009904/22/16 23:50:31  5-MIN K0J4 230450Z AUTO 00000KT 10SM CLR 16/16 A2998 270 96 500 000/00 RMK AO2 $
63870K0J4 0J420160422235512604/22/16 23:55:31  5-MIN K0J4 230455Z AUTO 00000KT 10SM CLR 16/16 A2998 270 96 500 000/00 RMK AO2 SLP147 T01610156 402390161 $
63870K0J4 0J420160423000009904/23/16 00:00:31  5-MIN K0J4 230500Z AUTO 00000KT 10SM CLR 17/16 A2997 270 93 600 000/00 RMK AO2 $
63870K0J4 0J420160423000509904/23/16 00:05:31  5-MIN K0J4 230505Z AUTO 00000KT 10SM CLR 17/16 A2997 270 93 600 000/00 RMK AO2 $
63870K0J4 0J420160423001009904/23/16 00:10:31  5-MIN K0J4 230510Z AUTO 00000KT 10SM CLR 17/16 A2997 270 93 600 000/00 RMK AO2 $
63870K0J4 0J420160423001509904/23/16 00:15:31  5-MIN K0J4 230515Z AUTO 00000KT 10SM CLR 16/16 A2998 270 96 500 000/00 RMK AO2 $
63870K0J4 0J420160423002009904/23/16 00:20:31  5-MIN K0J4 230520Z AUTO 00000KT 10SM CLR 16/16 A2998 270 96 500 000/00 RMK AO2 $
63870K0J4 0J420160423002509904/23/16 00:25:31  5-MIN K0J4 230525Z AUTO 00000KT 10SM CLR 17/16 A2998 270 93 600 000/00 RMK AO2 $
63870K0J4 0J420160423003009904/23/16 00:30:31  5-MIN K0J4 230530Z AUTO 00000KT 10SM CLR 17/16 A2998 260 93 600 000/00 RMK AO2 $
63870K0J4 0J420160423003509904/23/16 00:35:31  5-MIN K0J4 230535Z AUTO 00000KT 10SM CLR 16/16 A2997 270 96 500 000/00 RMK AO2 $
63870K0J4 0J420160423004009904/23/16 00:40:31  5-MIN K0J4 230540Z AUTO 00000KT 10SM CLR 16/16 A2997 270 96 500 000/00 RMK AO2 $
63870K0J4 0J420160423004510504/23/16 00:45:31  5-MIN K0J4 230545Z AUTO 00000KT 10SM CLR 16/16 A2997 270 96 500 000/00 RMK AO2 P0001 $
63870K0J4 0J420160423005010504/23/16 00:50:31  5-MIN K0J4 230550Z AUTO 00000KT 10SM CLR 16/15 A2997 270 93 500 000/00 RMK AO2 P0001 $
63870K0J4 0J420160423005514604/23/16 00:55:31  5-MIN K0J4 230555Z AUTO 00000KT 10SM CLR 16/15 A2997 270 93 500 000/00 RMK AO2 SLP145 P0001 60001 T01610150 10200 20161 53012 $
63870K0J4 0J420160423010009904/23/16 01:00:31  5-MIN K0J4 230600Z AUTO 00000KT 10SM CLR 16/15 A2997 270 93 500 000/00 RMK AO2 $
63870K0J4 0J420160423010509904/23/16 01:05:31  5-MIN K0J4 230605Z AUTO 00000KT 10SM CLR 16/15 A2997 270 93 500 000/00 RMK AO2 $
63870K0J4 0J420160423011009904/23/16 01:10:31  5-MIN K0J4 230610Z AUTO 00000KT 10SM CLR 16/15 A2997 270 96 400 000/00 RMK AO2 $
63870K0J4 0J420160423011509904/23/16 01:15:31  5-MIN K0J4 230615Z AUTO 00000KT 10SM CLR 16/15 A2997 270 93 500 000/00 RMK AO2 $
63870K0J4 0J420160423012009904/23/16 01:20:31  5-MIN K0J4 230620Z AUTO 00000KT 10SM CLR 16/15 A2996 280 96 400 000/00 RMK AO2 $
63870K0J4 0J420160423012509904/23/16 01:25:31  5-MIN K0J4 230625Z AUTO 00000KT 10SM CLR 16/15 A2996 280 96 400 000/00 RMK AO2 $
63870K0J4 0J420160423013009904/23/16 01:30:31  5-MIN K0J4 230630Z AUTO 00000KT 10SM CLR 16/15 A2996 280 96 400 000/00 RMK AO2 $
63870K0J4 0J420160423013509904/23/16 01:35:31  5-MIN K0J4 230635Z AUTO 00000KT 10SM CLR 16/15 A2996 280 96 400 000/00 RMK AO2 $
63870K0J4 0J420160423014009904/23/16 01:40:31  5-MIN K0J4 230640Z AUTO 00000KT 10SM CLR 16/15 A2996 280 96 400 000/00 RMK AO2 $
63870K0J4 0J420160423014510204/23/16 01:45:31  5-MIN K0J4 230645Z AUTO 00000KT 10SM FEW001 15/14 A2996 280 96 400 000/00 RMK AO2 $
63870K0J4 0J420160423015010204/23/16 01:50:31  5-MIN K0J4 230650Z AUTO 00000KT 10SM FEW001 16/14 A2996 280 93 500 000/00 RMK AO2 $
63870K0J4 0J420160423015511904/23/16 01:55:31  5-MIN K0J4 230655Z AUTO 00000KT 10SM FEW001 15/14 A2996 280 96 400 000/00 RMK AO2 SLP142 T01500144 $
63870K0J4 0J420160423020010204/23/16 02:00:31  5-MIN K0J4 230700Z AUTO 00000KT 10SM FEW001 15/14 A2996 280 96 400 000/00 RMK AO2 $
63870K0J4 0J420160423020510204/23/16 02:05:31  5-MIN K0J4 230705Z AUTO 00000KT 10SM FEW001 15/14 A2996 280 96 400 000/00 RMK AO2 $
63870K0J4 0J420160423021010204/23/16 02:10:31  5-MIN K0J4 230710Z AUTO 00000KT 10SM FEW001 15/14 A2995 290 96 400 000/00 RMK AO2 $
63870K0J4 0J420160423021510204/23/16 02:15:31  5-MIN K0J4 230715Z AUTO 00000KT 10SM SCT001 16/14 A2995 290 93 500 000/00 RMK AO2 $
63870K0J4 0J420160423022010204/23/16 02:20:31  5-MIN K0J4 230720Z AUTO 00000KT 10SM SCT001 16/14 A2995 280 93 500 000/00 RMK AO2 $
63870K0J4 0J420160423022510204/23/16 02:25:31  5-MIN K0J4 230725Z AUTO 00000KT 10SM BKN001 15/14 A2996 280 96 400 000/00 RMK AO2 $
63870K0J4 0J420160423023010204/23/16 02:30:31  5-MIN K0J4 230730Z AUTO 00000KT 10SM BKN001 15/14 A2996 280 96 400 000/00 RMK AO2 $
63870K0J4 0J420160423023510104/23/16 02:35:31  5-MIN K0J4 230735Z AUTO 00000KT 9SM BKN001 15/14 A2996 280 96 400 000/00 RMK AO2 $
63870K0J4 0J420160423024010804/23/16 02:40:31  5-MIN K0J4 230740Z AUTO 00000KT 1 3/4SM BR OVC001 15/14 A2995 280 96 400 000/00 RMK AO2 $
63870K0J4 0J420160423024510604/23/16 02:45:31  5-MIN K0J4 230745Z AUTO 00000KT 3/4SM BR OVC001 15/14 A2996 280 96 400 000/00 RMK AO2 $
63870K0J4 0J420160423025010604/23/16 02:50:31  5-MIN K0J4 230750Z AUTO 00000KT 3/4SM BR OVC001 15/14 A2996 280 96 400 000/00 RMK AO2 $
63870K0J4 0J420160423025510804/23/16 02:55:31  5-MIN K0J4 230755Z AUTO 00000KT 1 1/4SM BR OVC001 15/14 A2996 280 96 400 000/00 RMK AO2 $
63870K0J4 0J420160423030010804/23/16 03:00:31  5-MIN K0J4 230800Z AUTO 00000KT 1 1/4SM BR OVC001 15/14 A2996 280 96 400 000/00 RMK AO2 $
63870K0J4 0J420160423030510604/23/16 03:05:31  5-MIN K0J4 230805Z AUTO 00000KT 1/2SM FG VV001 15/15 A2996 280 100 400 000/00 RMK AO2 $
63870K0J4 0J420160423031010504/23/16 03:10:31  5-MIN K0J4 230810Z AUTO 00000KT 1/4SM FG VV001 16/15 A2996 280 96 500 000/00 RMK AO2 $
63870K0J4 0J420160423031510604/23/16 03:15:31  5-MIN K0J4 230815Z AUTO 00000KT 1/2SM FG VV001 15/15 A2995 290 100 400 000/00 RMK AO2 $
63870K0J4 0J420160423032010604/23/16 03:20:31  5-MIN K0J4 230820Z AUTO 00000KT 1/2SM FG VV001 15/15 A2995 290 100 400 000/00 RMK AO2 $
63870K0J4 0J420160423032510504/23/16 03:25:31  5-MIN K0J4 230825Z AUTO 00000KT 3/4SM BR VV001 15/14 A2996 280 96 400 000/00 RMK AO2 $
63870K0J4 0J420160423033010304/23/16 03:30:31  5-MIN K0J4 230830Z AUTO 00000KT 1SM BR VV001 15/14 A2995 290 96 400 000/00 RMK AO2 $
63870K0J4 0J420160423033510804/23/16 03:35:31  5-MIN K0J4 230835Z AUTO 00000KT 1 3/4SM BR BKN001 14/14 A2995 290 96 300 000/00 RMK AO2 $
63870K0J4 0J420160423034010404/23/16 03:40:31  5-MIN K0J4 230840Z AUTO 00000KT 6SM BR BKN001 14/14 A2996 280 96 300 000/00 RMK AO2 $
63870K0J4 0J420160423034510104/23/16 03:45:31  5-MIN K0J4 230845Z AUTO 00000KT 8SM SCT001 15/14 A2996 280 96 400 000/00 RMK AO2 $
63870K0J4 0J420160423035010204/23/16 03:50:31  5-MIN K0J4 230850Z AUTO 33003KT 8SM FEW001 15/15 A2996 280 100 400 330/03 RMK AO2 $
63870K0J4 0J420160423035512404/23/16 03:55:31  5-MIN K0J4 230855Z AUTO 00000KT 8SM FEW001 16/15 A2996 280 96 500 000/00 RMK AO2 SLP141 T01560150 58003 $
63870K0J4 0J420160423040009804/23/16 04:00:31  5-MIN K0J4 230900Z AUTO 00000KT 8SM CLR 16/15 A2996 280 96 500 000/00 RMK AO2 $
63870K0J4 0J420160423040509804/23/16 04:05:31  5-MIN K0J4 230905Z AUTO 32003KT 8SM CLR 16/15 A2996 280 96 500 320/03 RMK AO2 $
63870K0J4 0J420160423041009804/23/16 04:10:31  5-MIN K0J4 230910Z AUTO VRB03KT 9SM CLR 16/15 A2996 280 96 500 VRB/03 RMK AO2 $
63870K0J4 0J420160423041510204/23/16 04:15:31  5-MIN K0J4 230915Z AUTO VRB03KT 9SM FEW001 16/16 A2996 280 100 500 VRB/03 RMK AO2 $
63870K0J4 0J420160423042010204/23/16 04:20:31  5-MIN K0J4 230920Z AUTO 00000KT 8SM FEW001 16/16 A2996 280 100 500 000/00 RMK AO2 $
63870K0J4 0J420160423042510104/23/16 04:25:31  5-MIN K0J4 230925Z AUTO 33003KT 8SM SCT001 16/15 A2996 280 96 500 330/03 RMK AO2 $
63870K0J4 0J420160423043010104/23/16 04:30:31  5-MIN K0J4 230930Z AUTO VRB03KT 7SM SCT001 16/16 A2996 280 96 500 VRB/03 RMK AO2 $
63870K0J4 0J420160423043510204/23/16 04:35:31  5-MIN K0J4 230935Z AUTO VRB03KT 7SM SCT001 16/16 A2996 280 100 500 VRB/03 RMK AO2 $
63870K0J4 0J420160423044010104/23/16 04:40:31  5-MIN K0J4 230940Z AUTO 34003KT 9SM SCT001 16/16 A2996 280 96 500 340/03 RMK AO2 $
63870K0J4 0J420160423044510204/23/16 04:45:31  5-MIN K0J4 230945Z AUTO VRB03KT 10SM FEW001 16/16 A2996 280 96 500 VRB/03 RMK AO2 $
63870K0J4 0J420160423045010204/23/16 04:50:31  5-MIN K0J4 230950Z AUTO 00000KT 10SM FEW001 16/16 A2996 280 96 500 000/00 RMK AO2 $
63870K0J4 0J420160423045511904/23/16 04:55:31  5-MIN K0J4 230955Z AUTO 00000KT 10SM FEW001 16/16 A2996 280 96 500 000/00 RMK AO2 SLP141 T01610156 $
63870K0J4 0J420160423050009904/23/16 05:00:31  5-MIN K0J4 231000Z AUTO 33003KT 10SM CLR 16/16 A2996 280 96 500 330/03 RMK AO2 $
63870K0J4 0J420160423050509904/23/16 05:05:31  5-MIN K0J4 231005Z AUTO 00000KT 10SM CLR 16/16 A2996 280 96 500 000/00 RMK AO2 $
63870K0J4 0J420160423051009904/23/16 05:10:31  5-MIN K0J4 231010Z AUTO VRB04KT 10SM CLR 16/15 A2996 280 96 400 VRB/04 RMK AO2 $
63870K0J4 0J420160423051509904/23/16 05:15:31  5-MIN K0J4 231015Z AUTO 33004KT 10SM CLR 16/16 A2996 280 96 500 330/04 RMK AO2 $
63870K0J4 0J420160423052009904/23/16 05:20:31  5-MIN K0J4 231020Z AUTO 32003KT 10SM CLR 16/15 A2996 280 96 400 320/03 RMK AO2 $
63870K0J4 0J420160423052509904/23/16 05:25:31  5-MIN K0J4 231025Z AUTO 33003KT 10SM CLR 16/15 A2997 270 96 400 330/03 RMK AO2 $
63870K0J4 0J420160423053009904/23/16 05:30:31  5-MIN K0J4 231030Z AUTO 32004KT 10SM CLR 16/15 A2996 280 96 400 320/04 RMK AO2 $
63870K0J4 0J420160423053509904/23/16 05:35:31  5-MIN K0J4 231035Z AUTO 32004KT 10SM CLR 16/15 A2996 270 96 400 320/04 RMK AO2 $
63870K0J4 0J420160423054009904/23/16 05:40:31  5-MIN K0J4 231040Z AUTO 32003KT 10SM CLR 16/15 A2997 270 96 400 320/03 RMK AO2 $
63870K0J4 0J420160423054509904/23/16 05:45:31  5-MIN K0J4 231045Z AUTO 32003KT 10SM CLR 16/15 A2997 270 96 400 320/03 RMK AO2 $
63870K0J4 0J420160423055009904/23/16 05:50:31  5-MIN K0J4 231050Z AUTO VRB03KT 10SM CLR 16/15 A2997 270 96 400 VRB/03 RMK AO2 $
63870K0J4 0J420160423055511604/23/16 05:55:31  5-MIN K0J4 231055Z AUTO 32003KT 10SM CLR 16/15 A2997 270 96 400 320/03 RMK AO2 SLP146 T01560150 $
63870K0J4 0J420160423060009904/23/16 06:00:31  5-MIN K0J4 231100Z AUTO 32003KT 10SM CLR 16/15 A2997 270 96 400 320/03 RMK AO2 $
63870K0J4 0J420160423060509904/23/16 06:05:31  5-MIN K0J4 231105Z AUTO 32004KT 10SM CLR 16/15 A2998 260 96 400 320/04 RMK AO2 $
63870K0J4 0J420160423061009904/23/16 06:10:31  5-MIN K0J4 231110Z AUTO 33003KT 10SM CLR 16/15 A2998 260 96 400 330/03 RMK AO2 $
63870K0J4 0J420160423061509904/23/16 06:15:31  5-MIN K0J4 231115Z AUTO 33003KT 10SM CLR 16/15 A2998 260 96 400 330/03 RMK AO2 $
63870K0J4 0J420160423062009904/23/16 06:20:31  5-MIN K0J4 231120Z AUTO 33003KT 10SM CLR 16/15 A2998 260 96 400 330/03 RMK AO2 $
63870K0J4 0J420160423062509904/23/16 06:25:31  5-MIN K0J4 231125Z AUTO 33003KT 10SM CLR 16/15 A2998 260 96 400 330/03 RMK AO2 $
63870K0J4 0J420160423063009904/23/16 06:30:31  5-MIN K0J4 231130Z AUTO 33003KT 10SM CLR 16/15 A2999 250 96 400 330/03 RMK AO2 $
63870K0J4 0J420160423063509904/23/16 06:35:31  5-MIN K0J4 231135Z AUTO 33004KT 10SM CLR 16/15 A2999 250 96 400 330/04 RMK AO2 $
63870K0J4 0J420160423064009904/23/16 06:40:31  5-MIN K0J4 231140Z AUTO 34004KT 10SM CLR 16/15 A2999 250 96 400 340/04 RMK AO2 $
63870K0J4 0J420160423064509904/23/16 06:45:31  5-MIN K0J4 231145Z AUTO 33004KT 10SM CLR 16/15 A3000 250 96 400 330/04 RMK AO2 $
63870K0J4 0J420160423065009904/23/16 06:50:31  5-MIN K0J4 231150Z AUTO 33005KT 10SM CLR 16/15 A3000 250 96 400 330/05 RMK AO2 $
63870K0J4 0J420160423065514004/23/16 06:55:31  5-MIN K0J4 231155Z AUTO 33004KT 10SM CLR 16/15 A3000 240 96 400 330/04 RMK AO2 SLP155 70008 T01560150 10161 20144 56000 $
63870K0J4 0J420160423070009904/23/16 07:00:31  5-MIN K0J4 231200Z AUTO 33003KT 10SM CLR 16/15 A3000 240 93 500 330/03 RMK AO2 $
63870K0J4 0J420160423070509904/23/16 07:05:31  5-MIN K0J4 231205Z AUTO 34004KT 10SM CLR 16/15 A3000 240 93 500 340/04 RMK AO2 $
63870K0J4 0J420160423071009904/23/16 07:10:31  5-MIN K0J4 231210Z AUTO 33004KT 10SM CLR 16/15 A3000 240 93 500 330/04 RMK AO2 $
63870K0J4 0J420160423071509904/23/16 07:15:31  5-MIN K0J4 231215Z AUTO VRB04KT 10SM CLR 16/15 A3000 240 93 500 VRB/04 RMK AO2 $
63870K0J4 0J420160423072009904/23/16 07:20:31  5-MIN K0J4 231220Z AUTO 34003KT 10SM CLR 17/15 A3000 240 90 500 340/03 RMK AO2 $
63870K0J4 0J420160423072509904/23/16 07:25:31  5-MIN K0J4 231225Z AUTO 35004KT 10SM CLR 17/15 A3000 240 90 500 350/04 RMK AO2 $
63870K0J4 0J420160423073009904/23/16 07:30:31  5-MIN K0J4 231230Z AUTO 34003KT 10SM CLR 17/15 A3001 240 90 500 340/03 RMK AO2 $
63870K0J4 0J420160423073509904/23/16 07:35:31  5-MIN K0J4 231235Z AUTO 35004KT 10SM CLR 17/15 A3001 240 90 500 350/04 RMK AO2 $
63870K0J4 0J420160423074009904/23/16 07:40:31  5-MIN K0J4 231240Z AUTO 35004KT 10SM CLR 17/15 A3001 240 87 600 350/04 RMK AO2 $
63870K0J4 0J420160423074509904/23/16 07:45:31  5-MIN K0J4 231245Z AUTO 35004KT 10SM CLR 17/15 A3001 230 87 600 350/04 RMK AO2 $
63870K0J4 0J420160423075009904/23/16 07:50:31  5-MIN K0J4 231250Z AUTO 36006KT 10SM CLR 17/15 A3001 230 87 600 360/06 RMK AO2 $
63870K0J4 0J420160423075511604/23/16 07:55:31  5-MIN K0J4 231255Z AUTO 35004KT 10SM CLR 18/15 A3001 230 83 700 350/04 RMK AO2 SLP160 T01780150 $
63870K0J4 0J420160423080009904/23/16 08:00:31  5-MIN K0J4 231300Z AUTO 35005KT 10SM CLR 18/15 A3001 230 83 700 350/05 RMK AO2 $
63870K0J4 0J420160423080509904/23/16 08:05:31  5-MIN K0J4 231305Z AUTO VRB05KT 10SM CLR 18/15 A3001 230 83 700 VRB/05 RMK AO2 $
63870K0J4 0J420160423081009904/23/16 08:10:31  5-MIN K0J4 231310Z AUTO 36007KT 10SM CLR 18/15 A3001 230 83 700 360/07 RMK AO2 $
63870K0J4 0J420160423081509904/23/16 08:15:31  5-MIN K0J4 231315Z AUTO 36003KT 10SM CLR 18/15 A3001 230 81 700 360/03 RMK AO2 $
63870K0J4 0J420160423082009904/23/16 08:20:31  5-MIN K0J4 231320Z AUTO 01006KT 10SM CLR 18/15 A3001 230 81 700 010/06 RMK AO2 $
63870K0J4 0J420160423082509904/23/16 08:25:31  5-MIN K0J4 231325Z AUTO 36006KT 10SM CLR 19/15 A3002 230 78 800 360/06 RMK AO2 $
63870K0J4 0J420160423083009904/23/16 08:30:31  5-MIN K0J4 231330Z AUTO 36005KT 10SM CLR 19/15 A3002 230 78 800 360/05 RMK AO2 $
63870K0J4 0J420160423083509904/23/16 08:35:31  5-MIN K0J4 231335Z AUTO 02005KT 10SM CLR 19/15 A3002 230 75 800 020/05 RMK AO2 $
63870K0J4 0J420160423084009904/23/16 08:40:31  5-MIN K0J4 231340Z AUTO VRB03KT 10SM CLR 19/15 A3002 220 75 800 VRB/03 RMK AO2 $
63870K0J4 0J420160423084509904/23/16 08:45:31  5-MIN K0J4 231345Z AUTO VRB04KT 10SM CLR 20/15 A3002 220 72 900 VRB/04 RMK AO2 $
63870K0J4 0J420160423085009904/23/16 08:50:31  5-MIN K0J4 231350Z AUTO 03004KT 10SM CLR 20/15 A3002 230 72 900 030/04 RMK AO2 $
63870K0J4 0J420160423085511704/23/16 08:55:31  5-MIN K0J4 231355Z AUTO 04006KT 10SM CLR 21/15 A3002 230 70 1000 040/06 RMK AO2 SLP161 T02060150 $
63870K0J4 0J420160423090010004/23/16 09:00:31  5-MIN K0J4 231400Z AUTO 02007KT 10SM CLR 21/15 A3002 230 70 1000 020/07 RMK AO2 $
63870K0J4 0J420160423090510004/23/16 09:05:31  5-MIN K0J4 231405Z AUTO 03007KT 10SM CLR 21/15 A3002 220 68 1000 030/07 RMK AO2 $
63870K0J4 0J420160423091010004/23/16 09:10:31  5-MIN K0J4 231410Z AUTO 36006KT 10SM CLR 21/14 A3002 220 67 1000 360/06 RMK AO2 $
63870K0J4 0J420160423091510004/23/16 09:15:31  5-MIN K0J4 231415Z AUTO 01006KT 10SM CLR 21/15 A3002 220 68 1000 010/06 RMK AO2 $
63870K0J4 0J420160423092010004/23/16 09:20:31  5-MIN K0J4 231420Z AUTO 03007KT 10SM CLR 21/15 A3002 220 68 1000 030/07 RMK AO2 $
63870K0J4 0J420160423092510004/23/16 09:25:31  5-MIN K0J4 231425Z AUTO 06007KT 10SM CLR 21/15 A3002 220 68 1000 060/07 RMK AO2 $
63870K0J4 0J420160423093010004/23/16 09:30:31  5-MIN K0J4 231430Z AUTO 03008KT 10SM CLR 22/14 A3002 220 63 1100 030/08 RMK AO2 $
63870K0J4 0J420160423093510004/23/16 09:35:31  5-MIN K0J4 231435Z AUTO 03007KT 10SM CLR 22/14 A3002 220 63 1100 030/07 RMK AO2 $
63870K0J4 0J420160423094010004/23/16 09:40:31  5-MIN K0J4 231440Z AUTO 04007KT 10SM CLR 22/14 A3003 220 61 1200 040/07 RMK AO2 $
63870K0J4 0J420160423094510004/23/16 09:45:31  5-MIN K0J4 231445Z AUTO 02006KT 10SM CLR 22/14 A3003 220 59 1200 020/06 RMK AO2 $
63870K0J4 0J420160423095010004/23/16 09:50:31  5-MIN K0J4 231450Z AUTO 03006KT 10SM CLR 22/14 A3003 220 61 1200 030/06 RMK AO2 $
63870K0J4 0J420160423095512304/23/16 09:55:31  5-MIN K0J4 231455Z AUTO VRB03KT 10SM CLR 23/14 A3003 220 57 1200 VRB/03 RMK AO2 SLP164 T02280139 53014 $
63870K0J4 0J420160423100010004/23/16 10:00:31  5-MIN K0J4 231500Z AUTO 02005KT 10SM CLR 23/14 A3003 220 59 1200 020/05 RMK AO2 $
63870K0J4 0J420160423100510004/23/16 10:05:31  5-MIN K0J4 231505Z AUTO 01005KT 10SM CLR 23/14 A3003 220 57 1200 010/05 RMK AO2 $
63870K0J4 0J420160423101010004/23/16 10:10:31  5-MIN K0J4 231510Z AUTO 04006KT 10SM CLR 23/14 A3003 220 55 1300 040/06 RMK AO2 $
63870K0J4 0J420160423101510004/23/16 10:15:31  5-MIN K0J4 231515Z AUTO 04006KT 10SM CLR 23/14 A3003 220 57 1300 040/06 RMK AO2 $
63870K0J4 0J420160423102010004/23/16 10:20:31  5-MIN K0J4 231520Z AUTO 02006KT 10SM CLR 23/14 A3003 220 57 1300 020/06 RMK AO2 $
63870K0J4 0J420160423102510004/23/16 10:25:31  5-MIN K0J4 231525Z AUTO 02006KT 10SM CLR 23/14 A3003 220 55 1300 020/06 RMK AO2 $
63870K0J4 0J420160423103010004/23/16 10:30:31  5-MIN K0J4 231530Z AUTO 05007KT 10SM CLR 23/14 A3003 220 55 1300 050/07 RMK AO2 $
63870K0J4 0J420160423103510004/23/16 10:35:31  5-MIN K0J4 231535Z AUTO 36007KT 10SM CLR 24/14 A3003 220 53 1300 360/07 RMK AO2 $
63870K0J4 0J420160423104010004/23/16 10:40:31  5-MIN K0J4 231540Z AUTO 34005KT 10SM CLR 23/13 A3003 220 51 1300 340/05 RMK AO2 $
63870K0J4 0J420160423104510004/23/16 10:45:31  5-MIN K0J4 231545Z AUTO 04007KT 10SM CLR 24/14 A3003 220 53 1300 040/07 RMK AO2 $
63870K0J4 0J420160423105010004/23/16 10:50:31  5-MIN K0J4 231550Z AUTO VRB05KT 10SM CLR 24/14 A3003 220 51 1400 VRB/05 RMK AO2 $
63870K0J4 0J420160423105511704/23/16 10:55:31  5-MIN K0J4 231555Z AUTO 02008KT 10SM CLR 25/13 A3003 220 48 1500 020/08 RMK AO2 SLP164 T02500133 $
63870K0J4 0J420160423110010004/23/16 11:00:31  5-MIN K0J4 231600Z AUTO 01005KT 10SM CLR 24/12 A3003 220 46 1400 010/05 RMK AO2 $
63870K0J4 0J420160423110510004/23/16 11:05:31  5-MIN K0J4 231605Z AUTO 36008KT 10SM CLR 24/12 A3002 220 46 1400 360/08 RMK AO2 $
63870K0J4 0J420160423111010604/23/16 11:10:31  5-MIN K0J4 231610Z AUTO 02008G14KT 10SM CLR 24/11 A3002 220 41 1400 020/08G14 RMK AO2 $
63870K0J4 0J420160423111510604/23/16 11:15:31  5-MIN K0J4 231615Z AUTO 03009G16KT 10SM CLR 24/12 A3002 230 44 1400 030/09G16 RMK AO2 $
63870K0J4 0J420160423112012204/23/16 11:20:31  5-MIN K0J4 231620Z AUTO 01008G16KT 310V030 10SM CLR 24/12 A3002 220 44 1400 010/08G16 310V030 RMK AO2 $
63870K0J4 0J420160423112510004/23/16 11:25:31  5-MIN K0J4 231625Z AUTO VRB06KT 10SM CLR 25/12 A3002 220 43 1500 VRB/06 RMK AO2 $
63870K0J4 0J420160423113010004/23/16 11:30:31  5-MIN K0J4 231630Z AUTO VRB05KT 10SM CLR 25/12 A3002 230 44 1500 VRB/05 RMK AO2 $
63870K0J4 0J420160423113511604/23/16 11:35:31  5-MIN K0J4 231635Z AUTO 01009KT 340V050 10SM CLR 24/12 A3002 230 46 1400 010/09 340V050 RMK AO2 $
63870K0J4 0J420160423114010004/23/16 11:40:31  5-MIN K0J4 231640Z AUTO 33003KT 10SM CLR 24/12 A3001 230 46 1400 330/03 RMK AO2 $
63870K0J4 0J420160423114510004/23/16 11:45:31  5-MIN K0J4 231645Z AUTO VRB06KT 10SM CLR 25/12 A3001 230 44 1500 VRB/06 RMK AO2 $
63870K0J4 0J420160423115010604/23/16 11:50:31  5-MIN K0J4 231650Z AUTO 34008G15KT 10SM CLR 25/11 A3001 230 41 1500 340/08G15 RMK AO2 $
63870K0J4 0J420160423115512304/23/16 11:55:31  5-MIN K0J4 231655Z AUTO 01008G15KT 10SM CLR 26/12 A3001 230 43 1500 010/08G15 RMK AO2 SLP159 T02560122 $
63870K0J4 0J420160423120010004/23/16 12:00:31  5-MIN K0J4 231700Z AUTO 32006KT 10SM CLR 25/12 A3001 230 43 1500 320/06 RMK AO2 $
63870K0J4 0J420160423120510004/23/16 12:05:31  5-MIN K0J4 231705Z AUTO VRB05KT 10SM CLR 25/12 A3001 230 43 1500 VRB/05 RMK AO2 $
63870K0J4 0J420160423121010004/23/16 12:10:31  5-MIN K0J4 231710Z AUTO 01006KT 10SM CLR 25/12 A3001 240 43 1500 010/06 RMK AO2 $
63870K0J4 0J420160423121510004/23/16 12:15:31  5-MIN K0J4 231715Z AUTO VRB04KT 10SM CLR 25/11 A3000 240 41 1500 VRB/04 RMK AO2 $
63870K0J4 0J420160423122010004/23/16 12:20:31  5-MIN K0J4 231720Z AUTO VRB06KT 10SM CLR 26/12 A3000 240 41 1600 VRB/06 RMK AO2 $
63870K0J4 0J420160423122510004/23/16 12:25:31  5-MIN K0J4 231725Z AUTO VRB06KT 10SM CLR 26/12 A3000 240 41 1600 VRB/06 RMK AO2 $
63870K0J4 0J420160423123011604/23/16 12:30:31  5-MIN K0J4 231730Z AUTO 33008KT 270V360 10SM CLR 26/12 A3000 240 41 1600 330/08 270V360 RMK AO2 $
63870K0J4 0J420160423123510604/23/16 12:35:31  5-MIN K0J4 231735Z AUTO VRB05G14KT 10SM CLR 25/12 A3000 240 43 1500 VRB/05G14 RMK AO2 $
63870K0J4 0J420160423124010004/23/16 12:40:31  5-MIN K0J4 231740Z AUTO 36006KT 10SM CLR 26/12 A3000 250 43 1600 360/06 RMK AO2 $
63870K0J4 0J420160423124511904/23/16 12:45:31  5-MIN K0J4 231745Z AUTO 35007KT 300V030 10SM FEW055 25/12 A2999 250 43 1500 350/07 300V030 RMK AO2 $
63870K0J4 0J420160423125010304/23/16 12:50:31  5-MIN K0J4 231750Z AUTO 33005KT 10SM SCT055 25/12 A2999 250 43 1500 330/05 RMK AO2 $
63870K0J4 0J420160423125514404/23/16 12:55:31  5-MIN K0J4 231755Z AUTO 36009G15KT 10SM FEW055 26/11 A2999 250 40 1600 360/09G15 RMK AO2 SLP152 T02560111 10256 20161 51009 $
63870K0J4 0J420160423130010904/23/16 13:00:31  5-MIN K0J4 231800Z AUTO 36009G16KT 10SM FEW055 26/11 A2999 250 40 1600 360/09G16 RMK AO2 $
63870K0J4 0J420160423130510904/23/16 13:05:31  5-MIN K0J4 231805Z AUTO VRB06G16KT 10SM FEW055 26/11 A2999 250 40 1600 VRB/06G16 RMK AO2 $
63870K0J4 0J420160423131011904/23/16 13:10:31  5-MIN K0J4 231810Z AUTO 35007KT 310V030 10SM FEW055 26/11 A2999 250 40 1600 350/07 310V030 RMK AO2 $
63870K0J4 0J420160423131510604/23/16 13:15:31  5-MIN K0J4 231815Z AUTO 36009G15KT 10SM CLR 26/11 A2999 250 38 1600 360/09G15 RMK AO2 $
63870K0J4 0J420160423132010604/23/16 13:20:31  5-MIN K0J4 231820Z AUTO 36006G15KT 10SM CLR 26/11 A2999 260 38 1600 360/06G15 RMK AO2 $
63870K0J4 0J420160423132510004/23/16 13:25:31  5-MIN K0J4 231825Z AUTO 36006KT 10SM CLR 26/11 A2998 260 38 1600 360/06 RMK AO2 $
63870K0J4 0J420160423133010604/23/16 13:30:31  5-MIN K0J4 231830Z AUTO 01010G15KT 10SM CLR 26/11 A2998 260 37 1600 010/10G15 RMK AO2 $
63870K0J4 0J420160423133510604/23/16 13:35:31  5-MIN K0J4 231835Z AUTO 35008G15KT 10SM CLR 26/09 A2999 260 34 1600 350/08G15 RMK AO2 $
63870K0J4 0J420160423134012204/23/16 13:40:31  5-MIN K0J4 231840Z AUTO 35007G15KT 310V010 10SM CLR 26/09 A2998 260 34 1600 350/07G15 310V010 RMK AO2 $
63870K0J4 0J420160423134510004/23/16 13:45:31  5-MIN K0J4 231845Z AUTO 00000KT 10SM CLR 26/09 A2998 260 34 1600 000/00 RMK AO2 $
63870K0J4 0J420160423135011604/23/16 13:50:31  5-MIN K0J4 231850Z AUTO 33007KT 290V010 10SM CLR 26/09 A2998 260 33 1600 330/07 290V010 RMK AO2 $
63870K0J4 0J420160423135513304/23/16 13:55:31  5-MIN K0J4 231855Z AUTO 32008KT 290V360 10SM CLR 26/08 A2998 260 32 1600 320/08 290V360 RMK AO2 SLP149 T02610083 $
63870K0J4 0J420160423140010004/23/16 14:00:31  5-MIN K0J4 231900Z AUTO VRB06KT 10SM CLR 26/09 A2998 260 34 1600 VRB/06 RMK AO2 $
63870K0J4 0J420160423140510004/23/16 14:05:31  5-MIN K0J4 231905Z AUTO VRB06KT 10SM CLR 26/09 A2998 260 33 1600 VRB/06 RMK AO2 $
63870K0J4 0J420160423141010004/23/16 14:10:31  5-MIN K0J4 231910Z AUTO VRB06KT 10SM CLR 26/09 A2997 270 33 1700 VRB/06 RMK AO2 $
63870K0J4 0J420160423141510004/23/16 14:15:31  5-MIN K0J4 231915Z AUTO VRB06KT 10SM CLR 26/09 A2997 270 34 1700 VRB/06 RMK AO2 $
63870K0J4 0J420160423142010004/23/16 14:20:31  5-MIN K0J4 231920Z AUTO VRB06KT 10SM CLR 26/10 A2997 270 36 1700 VRB/06 RMK AO2 $
63870K0J4 0J420160423142511604/23/16 14:25:31  5-MIN K0J4 231925Z AUTO 35007KT 290V040 10SM CLR 27/10 A2997 270 34 1700 350/07 290V040 RMK AO2 $
63870K0J4 0J420160423143011604/23/16 14:30:31  5-MIN K0J4 231930Z AUTO 34007KT 310V010 10SM CLR 26/10 A2997 270 36 1700 340/07 310V010 RMK AO2 $
63870K0J4 0J420160423143510004/23/16 14:35:31  5-MIN K0J4 231935Z AUTO VRB06KT 10SM CLR 27/09 A2997 270 33 1700 VRB/06 RMK AO2 $
63870K0J4 0J420160423144010004/23/16 14:40:31  5-MIN K0J4 231940Z AUTO 02006KT 10SM CLR 27/09 A2997 270 33 1700 020/06 RMK AO2 $
63870K0J4 0J420160423144510004/23/16 14:45:31  5-MIN K0J4 231945Z AUTO VRB03KT 10SM CLR 27/09 A2996 280 33 1700 VRB/03 RMK AO2 $
63870K0J4 0J420160423145010604/23/16 14:50:31  5-MIN K0J4 231950Z AUTO 01008G15KT 10SM CLR 27/09 A2996 280 33 1700 010/08G15 RMK AO2 $
63870K0J4 0J420160423145512304/23/16 14:55:31  5-MIN K0J4 231955Z AUTO VRB06G15KT 10SM CLR 27/10 A2996 280 34 1700 VRB/06G15 RMK AO2 SLP142 T02670100 $
63870K0J4 0J420160423150011604/23/16 15:00:31  5-MIN K0J4 232000Z AUTO 36008KT 280V090 10SM CLR 27/10 A2996 280 34 1700 360/08 280V090 RMK AO2 $
63870K0J4 0J420160423150510604/23/16 15:05:31  5-MIN K0J4 232005Z AUTO VRB04G16KT 10SM CLR 27/09 A2996 280 33 1700 VRB/04G16 RMK AO2 $
63870K0J4 0J420160423151011604/23/16 15:10:31  5-MIN K0J4 232010Z AUTO 36010KT 340V040 10SM CLR 27/09 A2996 280 32 1700 360/10 340V040 RMK AO2 $
63870K0J4 0J420160423151511604/23/16 15:15:31  5-MIN K0J4 232015Z AUTO 35007KT 310V020 10SM CLR 27/09 A2996 280 32 1700 350/07 310V020 RMK AO2 $
63870K0J4 0J420160423152010004/23/16 15:20:31  5-MIN K0J4 232020Z AUTO VRB04KT 10SM CLR 27/08 A2996 280 31 1700 VRB/04 RMK AO2 $
63870K0J4 0J420160423152510004/23/16 15:25:31  5-MIN K0J4 232025Z AUTO 36007KT 10SM CLR 27/09 A2996 280 32 1700 360/07 RMK AO2 $
63870K0J4 0J420160423153011604/23/16 15:30:31  5-MIN K0J4 232030Z AUTO 36007KT 310V030 10SM CLR 27/09 A2995 290 33 1700 360/07 310V030 RMK AO2 $
63870K0J4 0J420160423153510004/23/16 15:35:31  5-MIN K0J4 232035Z AUTO VRB03KT 10SM CLR 26/09 A2995 290 33 1700 VRB/03 RMK AO2 $
63870K0J4 0J420160423154010004/23/16 15:40:31  5-MIN K0J4 232040Z AUTO VRB04KT 10SM CLR 27/09 A2995 290 32 1700 VRB/04 RMK AO2 $
63870K0J4 0J420160423154510004/23/16 15:45:31  5-MIN K0J4 232045Z AUTO VRB04KT 10SM CLR 27/09 A2995 290 32 1800 VRB/04 RMK AO2 $
63870K0J4 0J420160423155010004/23/16 15:50:31  5-MIN K0J4 232050Z AUTO 02008KT 10SM CLR 27/09 A2995 290 33 1700 020/08 RMK AO2 $
63870K0J4 0J420160423155512304/23/16 15:55:31  5-MIN K0J4 232055Z AUTO 02009KT 10SM CLR 27/09 A2995 290 32 1700 020/09 RMK AO2 SLP137 T02670089 58012 $
63870K0J4 0J420160423160010004/23/16 16:00:31  5-MIN K0J4 232100Z AUTO 36007KT 10SM CLR 27/09 A2995 290 33 1700 360/07 RMK AO2 $
63870K0J4 0J420160423160510004/23/16 16:05:31  5-MIN K0J4 232105Z AUTO 35004KT 10SM CLR 27/09 A2995 290 33 1700 350/04 RMK AO2 $
63870K0J4 0J420160423161010004/23/16 16:10:31  5-MIN K0J4 232110Z AUTO VRB05KT 10SM CLR 27/09 A2995 290 33 1700 VRB/05 RMK AO2 $
63870K0J4 0J420160423161510004/23/16 16:15:31  5-MIN K0J4 232115Z AUTO 01007KT 10SM CLR 27/09 A2995 290 32 1700 010/07 RMK AO2 $
63870K0J4 0J420160423162010004/23/16 16:20:31  5-MIN K0J4 232120Z AUTO 34005KT 10SM CLR 27/08 A2995 290 31 1700 340/05 RMK AO2 $
63870K0J4 0J420160423162511604/23/16 16:25:31  5-MIN K0J4 232125Z AUTO 01007KT 320V030 10SM CLR 27/08 A2995 290 31 1700 010/07 320V030 RMK AO2 $
63870K0J4 0J420160423163010004/23/16 16:30:31  5-MIN K0J4 232130Z AUTO 35004KT 10SM CLR 27/09 A2995 290 32 1700 350/04 RMK AO2 $
63870K0J4 0J420160423163510004/23/16 16:35:31  5-MIN K0J4 232135Z AUTO 00000KT 10SM CLR 26/08 A2995 290 32 1700 000/00 RMK AO2 $
63870K0J4 0J420160423164010004/23/16 16:40:31  5-MIN K0J4 232140Z AUTO VRB03KT 10SM CLR 27/09 A2995 290 32 1800 VRB/03 RMK AO2 $
63870K0J4 0J420160423164510004/23/16 16:45:31  5-MIN K0J4 232145Z AUTO 01008KT 10SM CLR 27/09 A2995 290 33 1700 010/08 RMK AO2 $
63870K0J4 0J420160423165010004/23/16 16:50:31  5-MIN K0J4 232150Z AUTO 04006KT 10SM CLR 27/09 A2995 290 33 1700 040/06 RMK AO2 $
63870K0J4 0J420160423165511704/23/16 16:55:31  5-MIN K0J4 232155Z AUTO 36008KT 10SM CLR 27/09 A2995 290 32 1700 360/08 RMK AO2 SLP138 T02670089 $
63870K0J4 0J420160423170010004/23/16 17:00:31  5-MIN K0J4 232200Z AUTO VRB05KT 10SM CLR 26/09 A2995 290 33 1700 VRB/05 RMK AO2 $
63870K0J4 0J420160423170510004/23/16 17:05:31  5-MIN K0J4 232205Z AUTO 36006KT 10SM CLR 27/09 A2995 290 33 1700 360/06 RMK AO2 $
63870K0J4 0J420160423171010004/23/16 17:10:31  5-MIN K0J4 232210Z AUTO 36008KT 10SM CLR 27/09 A2995 290 33 1700 360/08 RMK AO2 $
63870K0J4 0J420160423171510004/23/16 17:15:31  5-MIN K0J4 232215Z AUTO 01006KT 10SM CLR 26/09 A2995 290 34 1700 010/06 RMK AO2 $
63870K0J4 0J420160423172010004/23/16 17:20:31  5-MIN K0J4 232220Z AUTO 02007KT 10SM CLR 26/09 A2995 290 34 1700 020/07 RMK AO2 $
63870K0J4 0J420160423172510004/23/16 17:25:31  5-MIN K0J4 232225Z AUTO VRB05KT 10SM CLR 26/09 A2995 290 34 1700 VRB/05 RMK AO2 $
63870K0J4 0J420160423173010004/23/16 17:30:31  5-MIN K0J4 232230Z AUTO 36004KT 10SM CLR 26/10 A2995 290 36 1700 360/04 RMK AO2 $
63870K0J4 0J420160423173510004/23/16 17:35:31  5-MIN K0J4 232235Z AUTO 35005KT 10SM CLR 26/10 A2995 290 36 1700 350/05 RMK AO2 $
63870K0J4 0J420160423174010004/23/16 17:40:31  5-MIN K0J4 232240Z AUTO 03006KT 10SM CLR 26/10 A2995 290 36 1700 030/06 RMK AO2 $
63870K0J4 0J420160423174510004/23/16 17:45:31  5-MIN K0J4 232245Z AUTO 35004KT 10SM CLR 26/11 A2995 290 37 1700 350/04 RMK AO2 $
63870K0J4 0J420160423175010004/23/16 17:50:31  5-MIN K0J4 232250Z AUTO 01006KT 10SM CLR 26/10 A2995 290 36 1700 010/06 RMK AO2 $
63870K0J4 0J420160423175511704/23/16 17:55:31  5-MIN K0J4 232255Z AUTO 01006KT 10SM CLR 26/10 A2995 290 37 1600 010/06 RMK AO2 SLP138 T02560100 $
63870K0J4 0J420160423180010004/23/16 18:00:31  5-MIN K0J4 232300Z AUTO 34005KT 10SM CLR 26/10 A2995 290 37 1600 340/05 RMK AO2 $
63870K0J4 0J420160423180510004/23/16 18:05:31  5-MIN K0J4 232305Z AUTO VRB05KT 10SM CLR 26/10 A2995 290 37 1600 VRB/05 RMK AO2 $
63870K0J4 0J420160423181008604/23/16 18:10:31  5-MIN K0J4 232310Z AUTO 01006KT M M M 010/06 RMK AO2 PWINO FZRANO $
63870K0J4 0J420160423181509104/23/16 18:15:31  5-MIN K0J4 232315Z AUTO 02005KT 25/11 A2995 290 39 1600 020/05 RMK AO2 $
63870K0J4 0J420160423182009604/23/16 18:20:31  5-MIN K0J4 232320Z AUTO 02005KT 10SM 25/11 A2995 290 39 1600 020/05 RMK AO2 $
63870K0J4 0J420160423182509604/23/16 18:25:31  5-MIN K0J4 232325Z AUTO 01006KT 10SM 24/11 A2995 290 41 1500 010/06 RMK AO2 $
63870K0J4 0J420160423183009604/23/16 18:30:31  5-MIN K0J4 232330Z AUTO 36003KT 10SM 24/11 A2995 290 41 1500 360/03 RMK AO2 $
63870K0J4 0J420160423183509604/23/16 18:35:31  5-MIN K0J4 232335Z AUTO VRB04KT 10SM 24/11 A2995 290 42 1500 VRB/04 RMK AO2 $
63870K0J4 0J420160423184010004/23/16 18:40:31  5-MIN K0J4 232340Z AUTO 36003KT 10SM CLR 24/11 A2995 290 42 1400 360/03 RMK AO2 $
63870K0J4 0J420160423184510004/23/16 18:45:31  5-MIN K0J4 232345Z AUTO 36004KT 10SM CLR 24/11 A2995 280 44 1400 360/04 RMK AO2 $
63870K0J4 0J420160423185010004/23/16 18:50:31  5-MIN K0J4 232350Z AUTO 36003KT 10SM CLR 24/11 A2996 280 42 1400 360/03 RMK AO2 $
63870K0J4 0J420160423185512904/23/16 18:55:31  5-MIN K0J4 232355Z AUTO 01004KT 10SM CLR 23/11 A2996 280 45 1400 010/04 RMK AO2 SLP141 T02330111 10272 20233 $
63870K0J4 0J420160423190010004/23/16 19:00:31  5-MIN K0J4 240000Z AUTO 00000KT 10SM CLR 23/11 A2996 280 47 1300 000/00 RMK AO2 $
63870K0J4 0J420160423190510004/23/16 19:05:31  5-MIN K0J4 240005Z AUTO 00000KT 10SM CLR 23/11 A2996 280 47 1300 000/00 RMK AO2 $
63870K0J4 0J420160423191010004/23/16 19:10:31  5-MIN K0J4 240010Z AUTO 00000KT 10SM CLR 23/11 A2996 280 47 1300 000/00 RMK AO2 $
63870K0J4 0J420160423191510004/23/16 19:15:31  5-MIN K0J4 240015Z AUTO 00000KT 10SM CLR 22/12 A2996 270 52 1200 000/00 RMK AO2 $
63870K0J4 0J420160423192010004/23/16 19:20:31  5-MIN K0J4 240020Z AUTO 00000KT 10SM CLR 21/12 A2997 270 56 1100 000/00 RMK AO2 $
63870K0J4 0J420160423192510004/23/16 19:25:31  5-MIN K0J4 240025Z AUTO 00000KT 10SM CLR 21/12 A2997 270 58 1000 000/00 RMK AO2 $
63870K0J4 0J420160423193010004/23/16 19:30:31  5-MIN K0J4 240030Z AUTO 00000KT 10SM CLR 20/13 A2997 270 63 1000 000/00 RMK AO2 $
63870K0J4 0J420160423193510004/23/16 19:35:31  5-MIN K0J4 240035Z AUTO 00000KT 10SM CLR 20/13 A2997 270 63 1000 000/00 RMK AO2 $
63870K0J4 0J420160423194009904/23/16 19:40:31  5-MIN K0J4 240040Z AUTO 00000KT 10SM CLR 19/13 A2997 270 65 900 000/00 RMK AO2 $
63870K0J4 0J420160423194509904/23/16 19:45:31  5-MIN K0J4 240045Z AUTO 00000KT 10SM CLR 19/13 A2997 270 65 900 000/00 RMK AO2 $
63870K0J4 0J420160423195009904/23/16 19:50:31  5-MIN K0J4 240050Z AUTO 00000KT 10SM CLR 18/14 A2997 270 75 800 000/00 RMK AO2 $
63870K0J4 0J420160423195511604/23/16 19:55:31  5-MIN K0J4 240055Z AUTO 00000KT 10SM CLR 18/14 A2998 270 75 800 000/00 RMK AO2 SLP148 T01830139 $
63870K0J4 0J420160423200009904/23/16 20:00:31  5-MIN K0J4 240100Z AUTO 00000KT 10SM CLR 18/14 A2998 260 75 800 000/00 RMK AO2 $
63870K0J4 0J420160423200509904/23/16 20:05:31  5-MIN K0J4 240105Z AUTO 00000KT 10SM CLR 18/14 A2998 260 75 800 000/00 RMK AO2 $
63870K0J4 0J420160423201009904/23/16 20:10:31  5-MIN K0J4 240110Z AUTO 00000KT 10SM CLR 18/14 A2998 260 78 700 000/00 RMK AO2 $
63870K0J4 0J420160423201509904/23/16 20:15:31  5-MIN K0J4 240115Z AUTO 00000KT 10SM CLR 17/14 A2998 260 80 600 000/00 RMK AO2 $
63870K0J4 0J420160423202009904/23/16 20:20:31  5-MIN K0J4 240120Z AUTO 00000KT 10SM CLR 17/14 A2998 260 80 600 000/00 RMK AO2 $
63870K0J4 0J420160423202509904/23/16 20:25:31  5-MIN K0J4 240125Z AUTO 00000KT 10SM CLR 17/14 A2998 260 80 600 000/00 RMK AO2 $
63870K0J4 0J420160423203009904/23/16 20:30:31  5-MIN K0J4 240130Z AUTO 00000KT 10SM CLR 17/14 A2998 260 80 600 000/00 RMK AO2 $
63870K0J4 0J420160423203509904/23/16 20:35:31  5-MIN K0J4 240135Z AUTO 00000KT 10SM CLR 17/13 A2998 260 78 600 000/00 RMK AO2 $
63870K0J4 0J420160423204009904/23/16 20:40:31  5-MIN K0J4 240140Z AUTO 00000KT 10SM CLR 17/13 A2998 260 78 600 000/00 RMK AO2 $
63870K0J4 0J420160423204509904/23/16 20:45:31  5-MIN K0J4 240145Z AUTO 00000KT 10SM CLR 17/13 A2999 250 78 600 000/00 RMK AO2 $
63870K0J4 0J420160423205009904/23/16 20:50:31  5-MIN K0J4 240150Z AUTO 00000KT 10SM CLR 17/13 A2999 250 80 500 000/00 RMK AO2 $
63870K0J4 0J420160423205511604/23/16 20:55:31  5-MIN K0J4 240155Z AUTO 00000KT 10SM CLR 17/13 A2999 250 77 500 000/00 RMK AO2 SLP153 T01670128 $
63870K0J4 0J420160423210009904/23/16 21:00:31  5-MIN K0J4 240200Z AUTO 00000KT 10SM CLR 17/13 A2999 250 80 500 000/00 RMK AO2 $
63870K0J4 0J420160423210509904/23/16 21:05:31  5-MIN K0J4 240205Z AUTO 00000KT 10SM CLR 17/13 A2999 250 80 500 000/00 RMK AO2 $
63870K0J4 0J420160423211009904/23/16 21:10:31  5-MIN K0J4 240210Z AUTO 00000KT 10SM CLR 17/13 A2999 250 80 500 000/00 RMK AO2 $
63870K0J4 0J420160423211509904/23/16 21:15:31  5-MIN K0J4 240215Z AUTO 00000KT 10SM CLR 16/14 A2999 250 86 500 000/00 RMK AO2 $
63870K0J4 0J420160423212009904/23/16 21:20:31  5-MIN K0J4 240220Z AUTO 00000KT 10SM CLR 17/14 A3000 250 83 500 000/00 RMK AO2 $
63870K0J4 0J420160423212509904/23/16 21:25:31  5-MIN K0J4 240225Z AUTO 00000KT 10SM CLR 16/14 A3000 250 86 500 000/00 RMK AO2 $
63870K0J4 0J420160423213009904/23/16 21:30:31  5-MIN K0J4 240230Z AUTO 00000KT 10SM CLR 16/13 A3000 250 83 500 000/00 RMK AO2 $
63870K0J4 0J420160423213509904/23/16 21:35:31  5-MIN K0J4 240235Z AUTO 00000KT 10SM CLR 16/14 A3000 250 86 500 000/00 RMK AO2 $
63870K0J4 0J420160423214009904/23/16 21:40:31  5-MIN K0J4 240240Z AUTO 00000KT 10SM CLR 16/13 A3000 250 83 500 000/00 RMK AO2 $
63870K0J4 0J420160423214509904/23/16 21:45:31  5-MIN K0J4 240245Z AUTO 00000KT 10SM CLR 16/13 A3000 250 80 500 000/00 RMK AO2 $
63870K0J4 0J420160423215009904/23/16 21:50:31  5-MIN K0J4 240250Z AUTO 00000KT 10SM CLR 16/13 A3000 240 86 400 000/00 RMK AO2 $
63870K0J4 0J420160423215511604/23/16 21:55:31  5-MIN K0J4 240255Z AUTO 00000KT 10SM CLR 16/13 A3000 240 86 400 000/00 RMK AO2 SLP156 T01560133 $
63870K0J4 0J420160423220009904/23/16 22:00:31  5-MIN K0J4 240300Z AUTO 00000KT 10SM CLR 16/13 A3000 240 83 400 000/00 RMK AO2 $
63870K0J4 0J420160423220509904/23/16 22:05:31  5-MIN K0J4 240305Z AUTO 00000KT 10SM CLR 15/12 A3000 240 83 300 000/00 RMK AO2 $
63870K0J4 0J420160423221009904/23/16 22:10:31  5-MIN K0J4 240310Z AUTO 00000KT 10SM CLR 15/12 A3000 240 83 300 000/00 RMK AO2 $
63870K0J4 0J420160423221509904/23/16 22:15:31  5-MIN K0J4 240315Z AUTO 00000KT 10SM CLR 15/12 A3000 240 83 300 000/00 RMK AO2 $
63870K0J4 0J420160423222009904/23/16 22:20:31  5-MIN K0J4 240320Z AUTO 00000KT 10SM CLR 15/12 A3000 240 83 300 000/00 RMK AO2 $
63870K0J4 0J420160423222509904/23/16 22:25:31  5-MIN K0J4 240325Z AUTO 00000KT 10SM CLR 15/13 A3000 240 86 300 000/00 RMK AO2 $
63870K0J4 0J420160423223009904/23/16 22:30:31  5-MIN K0J4 240330Z AUTO 00000KT 10SM CLR 15/13 A3000 240 86 300 000/00 RMK AO2 $
63870K0J4 0J420160423223509904/23/16 22:35:31  5-MIN K0J4 240335Z AUTO 00000KT 10SM CLR 15/13 A3000 240 86 300 000/00 RMK AO2 $
63870K0J4 0J420160423224009904/23/16 22:40:31  5-MIN K0J4 240340Z AUTO 00000KT 10SM CLR 15/13 A3000 240 86 300 000/00 RMK AO2 $
63870K0J4 0J420160423224509904/23/16 22:45:31  5-MIN K0J4 240345Z AUTO 00000KT 10SM CLR 14/12 A3000 240 86 300 000/00 RMK AO2 $
63870K0J4 0J420160423225009904/23/16 22:50:31  5-MIN K0J4 240350Z AUTO 00000KT 10SM CLR 14/12 A3000 240 86 300 000/00 RMK AO2 $
63870K0J4 0J420160423225511604/23/16 22:55:31  5-MIN K0J4 240355Z AUTO 00000KT 10SM CLR 14/12 A3000 240 86 300 000/00 RMK AO2 SLP155 T01440122 $
63870K0J4 0J420160423230009904/23/16 23:00:31  5-MIN K0J4 240400Z AUTO 00000KT 10SM CLR 14/12 A3000 240 86 300 000/00 RMK AO2 $
63870K0J4 0J420160423230509904/23/16 23:05:31  5-MIN K0J4 240405Z AUTO 00000KT 10SM CLR 15/12 A3000 240 83 300 000/00 RMK AO2 $
63870K0J4 0J420160423231009904/23/16 23:10:31  5-MIN K0J4 240410Z AUTO 00000KT 10SM CLR 14/12 A3000 240 86 300 000/00 RMK AO2 $
63870K0J4 0J420160423231509904/23/16 23:15:31  5-MIN K0J4 240415Z AUTO 00000KT 10SM CLR 14/12 A3000 240 90 200 000/00 RMK AO2 $
63870K0J4 0J420160423232009904/23/16 23:20:31  5-MIN K0J4 240420Z AUTO 00000KT 10SM CLR 14/12 A3000 240 86 300 000/00 RMK AO2 $
63870K0J4 0J420160423232509904/23/16 23:25:31  5-MIN K0J4 240425Z AUTO 00000KT 10SM CLR 14/12 A3000 240 86 300 000/00 RMK AO2 $
63870K0J4 0J420160423233009904/23/16 23:30:31  5-MIN K0J4 240430Z AUTO 00000KT 10SM CLR 14/12 A3000 240 90 200 000/00 RMK AO2 $
63870K0J4 0J420160423233509904/23/16 23:35:31  5-MIN K0J4 240435Z AUTO 00000KT 10SM CLR 14/12 A3000 240 90 200 000/00 RMK AO2 $
63870K0J4 0J420160423234009904/23/16 23:40:31  5-MIN K0J4 240440Z AUTO 00000KT 10SM CLR 14/12 A3000 240 90 200 000/00 RMK AO2 $
63870K0J4 0J420160423234509904/23/16 23:45:31  5-MIN K0J4 240445Z AUTO 00000KT 10SM CLR 13/12 A3000 240 89 100 000/00 RMK AO2 $
63870K0J4 0J420160423235009904/23/16 23:50:31  5-MIN K0J4 240450Z AUTO 00000KT 10SM CLR 14/12 A3000 240 86 200 000/00 RMK AO2 $
63870K0J4 0J420160423235512604/23/16 23:55:31  5-MIN K0J4 240455Z AUTO 00000KT 10SM CLR 14/12 A3000 240 86 200 000/00 RMK AO2 SLP155 T01390117 402720133 $
63870K0J4 0J420160424000009904/24/16 00:00:31  5-MIN K0J4 240500Z AUTO 00000KT 10SM CLR 14/12 A3000 240 86 200 000/00 RMK AO2 $
63870K0J4 0J420160424000509904/24/16 00:05:31  5-MIN K0J4 240505Z AUTO 00000KT 10SM CLR 14/12 A3000 240 90 200 000/00 RMK AO2 $
63870K0J4 0J420160424001009904/24/16 00:10:31  5-MIN K0J4 240510Z AUTO 35003KT 10SM CLR 14/12 A3000 240 86 200 350/03 RMK AO2 $
63870K0J4 0J420160424001509904/24/16 00:15:31  5-MIN K0J4 240515Z AUTO 00000KT 10SM CLR 13/12 A3000 240 89 100 000/00 RMK AO2 $
63870K0J4 0J420160424002009904/24/16 00:20:31  5-MIN K0J4 240520Z AUTO 00000KT 10SM CLR 14/12 A3000 240 86 200 000/00 RMK AO2 $
63870K0J4 0J420160424002509904/24/16 00:25:31  5-MIN K0J4 240525Z AUTO 00000KT 10SM CLR 13/12 A3000 240 89 100 000/00 RMK AO2 $
63870K0J4 0J420160424003009904/24/16 00:30:31  5-MIN K0J4 240530Z AUTO 00000KT 10SM CLR 14/12 A3000 250 86 200 000/00 RMK AO2 $
63870K0J4 0J420160424003509904/24/16 00:35:31  5-MIN K0J4 240535Z AUTO 00000KT 10SM CLR 14/12 A3000 250 86 200 000/00 RMK AO2 $
63870K0J4 0J420160424004009904/24/16 00:40:31  5-MIN K0J4 240540Z AUTO 00000KT 10SM CLR 14/12 A3000 250 86 200 000/00 RMK AO2 $
63870K0J4 0J420160424004509904/24/16 00:45:31  5-MIN K0J4 240545Z AUTO 00000KT 10SM CLR 13/12 A3000 250 93 100 000/00 RMK AO2 $
63870K0J4 0J420160424005009904/24/16 00:50:31  5-MIN K0J4 240550Z AUTO 00000KT 10SM CLR 13/12 A3000 240 93 100 000/00 RMK AO2 $
63870K0J4 0J420160424005513404/24/16 00:55:31  5-MIN K0J4 240555Z AUTO 00000KT 10SM CLR 13/12 A3000 250 93 100 000/00 RMK AO2 SLP154 T01280117 10228 20128 51014 $
63870K0J4 0J420160424010009904/24/16 01:00:31  5-MIN K0J4 240600Z AUTO 00000KT 10SM CLR 13/12 A2999 250 93 100 000/00 RMK AO2 $
63870K0J4 0J420160424010509904/24/16 01:05:31  5-MIN K0J4 240605Z AUTO 00000KT 10SM CLR 13/12 A2999 250 89 100 000/00 RMK AO2 $
63870K0J4 0J420160424011009904/24/16 01:10:31  5-MIN K0J4 240610Z AUTO 00000KT 10SM CLR 13/12 A2999 250 89 200 000/00 RMK AO2 $
63870K0J4 0J420160424011509904/24/16 01:15:31  5-MIN K0J4 240615Z AUTO 00000KT 10SM CLR 13/12 A2999 250 89 200 000/00 RMK AO2 $
63870K0J4 0J420160424012009904/24/16 01:20:31  5-MIN K0J4 240620Z AUTO 00000KT 10SM CLR 13/12 A2999 250 89 100 000/00 RMK AO2 $
63870K0J4 0J420160424012509904/24/16 01:25:31  5-MIN K0J4 240625Z AUTO 22003KT 10SM CLR 13/12 A2999 250 93 100 220/03 RMK AO2 $
63870K0J4 0J420160424013009904/24/16 01:30:31  5-MIN K0J4 240630Z AUTO 00000KT 10SM CLR 13/12 A2999 250 89 100 000/00 RMK AO2 $
63870K0J4 0J420160424013509904/24/16 01:35:31  5-MIN K0J4 240635Z AUTO 00000KT 10SM CLR 13/12 A2999 250 89 100 000/00 RMK AO2 $
63870K0J4 0J420160424014009904/24/16 01:40:31  5-MIN K0J4 240640Z AUTO 00000KT 10SM CLR 13/12 A2999 250 89 100 000/00 RMK AO2 $
63870K0J4 0J420160424014509904/24/16 01:45:31  5-MIN K0J4 240645Z AUTO 00000KT 10SM CLR 13/12 A2999 250 89 200 000/00 RMK AO2 $
63870K0J4 0J420160424015009904/24/16 01:50:31  5-MIN K0J4 240650Z AUTO 00000KT 10SM CLR 13/12 A2999 250 89 200 000/00 RMK AO2 $
63870K0J4 0J420160424015511604/24/16 01:55:31  5-MIN K0J4 240655Z AUTO 00000KT 10SM CLR 13/12 A2999 250 89 200 000/00 RMK AO2 SLP151 T01330117 $
63870K0J4 0J420160424020009904/24/16 02:00:31  5-MIN K0J4 240700Z AUTO 00000KT 10SM CLR 13/12 A2999 250 89 200 000/00 RMK AO2 $
63870K0J4 0J420160424020509904/24/16 02:05:31  5-MIN K0J4 240705Z AUTO 00000KT 10SM CLR 13/12 A2999 250 93 100 000/00 RMK AO2 $
63870K0J4 0J420160424021009904/24/16 02:10:31  5-MIN K0J4 240710Z AUTO 00000KT 10SM CLR 13/12 A2999 250 93 100 000/00 RMK AO2 $
63870K0J4 0J420160424021509904/24/16 02:15:31  5-MIN K0J4 240715Z AUTO 00000KT 10SM CLR 13/12 A2999 250 93 100 000/00 RMK AO2 $
63870K0J4 0J420160424022009704/24/16 02:20:31  5-MIN K0J4 240720Z AUTO 00000KT 10SM CLR 12/11 A2999 250 93 0 000/00 RMK AO2 $
63870K0J4 0J420160424022509904/24/16 02:25:31  5-MIN K0J4 240725Z AUTO 00000KT 10SM CLR 13/11 A2999 250 89 100 000/00 RMK AO2 $
63870K0J4 0J420160424023009704/24/16 02:30:31  5-MIN K0J4 240730Z AUTO 00000KT 10SM CLR 12/11 A2999 250 93 0 000/00 RMK AO2 $
63870K0J4 0J420160424023509704/24/16 02:35:31  5-MIN K0J4 240735Z AUTO 00000KT 10SM CLR 12/11 A2999 250 93 0 000/00 RMK AO2 $
63870K0J4 0J420160424024009704/24/16 02:40:31  5-MIN K0J4 240740Z AUTO 00000KT 10SM CLR 12/11 A2999 250 93 0 000/00 RMK AO2 $
63870K0J4 0J420160424024509704/24/16 02:45:31  5-MIN K0J4 240745Z AUTO 00000KT 10SM CLR 12/11 A2999 260 93 0 000/00 RMK AO2 $
63870K0J4 0J420160424025009704/24/16 02:50:31  5-MIN K0J4 240750Z AUTO 00000KT 10SM CLR 12/11 A2998 260 93 0 000/00 RMK AO2 $
63870K0J4 0J420160424025511404/24/16 02:55:31  5-MIN K0J4 240755Z AUTO 00000KT 10SM CLR 12/11 A2999 260 93 0 000/00 RMK AO2 SLP150 T01220111 $
63870K0J4 0J420160424030009704/24/16 03:00:31  5-MIN K0J4 240800Z AUTO 00000KT 10SM CLR 12/11 A2998 260 93 0 000/00 RMK AO2 $
63870K0J4 0J420160424030509904/24/16 03:05:31  5-MIN K0J4 240805Z AUTO 00000KT 10SM CLR 13/11 A2998 260 89 100 000/00 RMK AO2 $
63870K0J4 0J420160424031009704/24/16 03:10:31  5-MIN K0J4 240810Z AUTO 00000KT 10SM CLR 12/11 A2998 260 93 0 000/00 RMK AO2 $
63870K0J4 0J420160424031509704/24/16 03:15:31  5-MIN K0J4 240815Z AUTO 00000KT 10SM CLR 12/11 A2998 260 89 0 000/00 RMK AO2 $
63870K0J4 0J420160424032009704/24/16 03:20:31  5-MIN K0J4 240820Z AUTO 00000KT 10SM CLR 12/11 A2999 260 93 0 000/00 RMK AO2 $
63870K0J4 0J420160424032509704/24/16 03:25:31  5-MIN K0J4 240825Z AUTO 00000KT 10SM CLR 12/11 A2999 250 89 0 000/00 RMK AO2 $
63870K0J4 0J420160424033009704/24/16 03:30:31  5-MIN K0J4 240830Z AUTO 00000KT 10SM CLR 12/11 A2999 250 93 0 000/00 RMK AO2 $
63870K0J4 0J420160424033509704/24/16 03:35:31  5-MIN K0J4 240835Z AUTO 00000KT 10SM CLR 12/11 A2999 250 93 0 000/00 RMK AO2 $
63870K0J4 0J420160424034009704/24/16 03:40:31  5-MIN K0J4 240840Z AUTO 00000KT 10SM CLR 12/11 A2999 250 89 0 000/00 RMK AO2 $
63870K0J4 0J420160424034509704/24/16 03:45:31  5-MIN K0J4 240845Z AUTO 00000KT 10SM CLR 12/11 A2999 250 93 0 000/00 RMK AO2 $
63870K0J4 0J420160424035009704/24/16 03:50:31  5-MIN K0J4 240850Z AUTO 00000KT 10SM CLR 12/11 A3000 250 93 0 000/00 RMK AO2 $
63870K0J4 0J420160424035512004/24/16 03:55:31  5-MIN K0J4 240855Z AUTO 00000KT 10SM CLR 12/11 A3000 250 93 0 000/00 RMK AO2 SLP154 T01170106 58002 $
63870K0J4 0J420160424040009704/24/16 04:00:31  5-MIN K0J4 240900Z AUTO 00000KT 10SM CLR 12/11 A3000 250 93 0 000/00 RMK AO2 $
63870K0J4 0J420160424040509704/24/16 04:05:31  5-MIN K0J4 240905Z AUTO 00000KT 10SM CLR 12/11 A3000 240 93 0 000/00 RMK AO2 $
63870K0J4 0J420160424041009704/24/16 04:10:31  5-MIN K0J4 240910Z AUTO 00000KT 10SM CLR 12/11 A3000 240 89 0 000/00 RMK AO2 $
63870K0J4 0J420160424041509704/24/16 04:15:31  5-MIN K0J4 240915Z AUTO 00000KT 10SM CLR 12/11 A3000 240 93 0 000/00 RMK AO2 $
63870K0J4 0J420160424042009704/24/16 04:20:31  5-MIN K0J4 240920Z AUTO 00000KT 10SM CLR 12/11 A3000 240 93 0 000/00 RMK AO2 $
63870K0J4 0J420160424042509704/24/16 04:25:31  5-MIN K0J4 240925Z AUTO 00000KT 10SM CLR 12/11 A3000 240 93 0 000/00 RMK AO2 $
63870K0J4 0J420160424043009704/24/16 04:30:31  5-MIN K0J4 240930Z AUTO 00000KT 10SM CLR 12/11 A3000 240 93 0 000/00 RMK AO2 $
63870K0J4 0J420160424043510004/24/16 04:35:31  5-MIN K0J4 240935Z AUTO 00000KT 10SM CLR 11/11 A3000 240 96 -100 000/00 RMK AO2 $
63870K0J4 0J420160424044009704/24/16 04:40:31  5-MIN K0J4 240940Z AUTO 00000KT 10SM CLR 12/11 A3000 240 93 0 000/00 RMK AO2 $
63870K0J4 0J420160424044510004/24/16 04:45:31  5-MIN K0J4 240945Z AUTO 00000KT 10SM CLR 11/11 A3001 240 96 -100 000/00 RMK AO2 $
63870K0J4 0J420160424045010004/24/16 04:50:31  5-MIN K0J4 240950Z AUTO 00000KT 10SM CLR 11/10 A3001 240 93 -100 000/00 RMK AO2 $
63870K0J4 0J420160424045511404/24/16 04:55:31  5-MIN K0J4 240955Z AUTO 00000KT 10SM CLR 12/11 A3001 230 93 0 000/00 RMK AO2 SLP159 T01170106 $
63870K0J4 0J420160424050009704/24/16 05:00:31  5-MIN K0J4 241000Z AUTO 00000KT 10SM CLR 12/10 A3001 230 89 0 000/00 RMK AO2 $
63870K0J4 0J420160424050509704/24/16 05:05:31  5-MIN K0J4 241005Z AUTO 00000KT 10SM CLR 12/10 A3001 230 89 0 000/00 RMK AO2 $
63870K0J4 0J420160424051009704/24/16 05:10:31  5-MIN K0J4 241010Z AUTO 00000KT 10SM CLR 12/10 A3002 230 89 0 000/00 RMK AO2 $
63870K0J4 0J420160424051509704/24/16 05:15:31  5-MIN K0J4 241015Z AUTO 00000KT 10SM CLR 12/10 A3002 230 89 0 000/00 RMK AO2 $
63870K0J4 0J420160424052009704/24/16 05:20:31  5-MIN K0J4 241020Z AUTO 00000KT 10SM CLR 12/11 A3002 230 93 0 000/00 RMK AO2 $
63870K0J4 0J420160424052509704/24/16 05:25:31  5-MIN K0J4 241025Z AUTO 00000KT 10SM CLR 12/11 A3002 230 93 0 000/00 RMK AO2 $
63870K0J4 0J420160424053010004/24/16 05:30:31  5-MIN K0J4 241030Z AUTO 00000KT 10SM CLR 11/10 A3002 220 93 -100 000/00 RMK AO2 $
63870K0J4 0J420160424053510004/24/16 05:35:31  5-MIN K0J4 241035Z AUTO 00000KT 10SM CLR 11/10 A3002 220 93 -100 000/00 RMK AO2 $
63870K0J4 0J420160424054010004/24/16 05:40:31  5-MIN K0J4 241040Z AUTO 00000KT 10SM CLR 11/11 A3002 220 96 -100 000/00 RMK AO2 $
63870K0J4 0J420160424054510004/24/16 05:45:31  5-MIN K0J4 241045Z AUTO 00000KT 10SM CLR 11/10 A3002 230 93 -100 000/00 RMK AO2 $
63870K0J4 0J420160424055010004/24/16 05:50:31  5-MIN K0J4 241050Z AUTO 00000KT 10SM CLR 11/10 A3002 230 93 -100 000/00 RMK AO2 $
63870K0J4 0J420160424055511704/24/16 05:55:31  5-MIN K0J4 241055Z AUTO 00000KT 10SM CLR 11/10 A3002 230 93 -100 000/00 RMK AO2 SLP163 T01110100 $
63870K0J4 0J420160424060010004/24/16 06:00:31  5-MIN K0J4 241100Z AUTO 01003KT 10SM CLR 11/09 A3002 220 93 -200 010/03 RMK AO2 $
63870K0J4 0J420160424155512604/24/16 15:55:31  5-MIN K0J4 242055Z AUTO VRB03KT 10SM FEW065 28/11 A2996 280 33 1900 VRB/03 RMK AO2 SLP143 T02830111 58012 $
63870K0J4 0J420160424160010304/24/16 16:00:31  5-MIN K0J4 242100Z AUTO VRB04KT 10SM FEW070 28/11 A2996 280 33 1900 VRB/04 RMK AO2 $
63870K0J4 0J420160424160510304/24/16 16:05:31  5-MIN K0J4 242105Z AUTO 00000KT 10SM SCT070 28/11 A2996 280 33 1900 000/00 RMK AO2 $
63870K0J4 0J420160424161010304/24/16 16:10:31  5-MIN K0J4 242110Z AUTO 13004KT 10SM SCT070 28/12 A2996 280 36 1900 130/04 RMK AO2 $
63870K0J4 0J420160424161510304/24/16 16:15:31  5-MIN K0J4 242115Z AUTO 16004KT 10SM BKN065 27/12 A2996 280 39 1800 160/04 RMK AO2 $
63870K0J4 0J420160424162010304/24/16 16:20:31  5-MIN K0J4 242120Z AUTO 00000KT 10SM BKN065 27/12 A2996 280 40 1700 000/00 RMK AO2 $
63870K0J4 0J420160424162510304/24/16 16:25:31  5-MIN K0J4 242125Z AUTO 00000KT 10SM BKN065 28/13 A2996 280 39 1900 000/00 RMK AO2 $
63870K0J4 0J420160424163010304/24/16 16:30:31  5-MIN K0J4 242130Z AUTO 08003KT 10SM SCT065 28/12 A2996 280 35 1900 080/03 RMK AO2 $
63870K0J4 0J420160424163510304/24/16 16:35:31  5-MIN K0J4 242135Z AUTO 08005KT 10SM SCT065 28/12 A2996 280 36 1900 080/05 RMK AO2 $
63870K0J4 0J420160424164010304/24/16 16:40:31  5-MIN K0J4 242140Z AUTO 08004KT 10SM SCT070 28/12 A2996 280 37 1900 080/04 RMK AO2 $
63870K0J4 0J420160424164510304/24/16 16:45:31  5-MIN K0J4 242145Z AUTO VRB05KT 10SM SCT070 28/12 A2996 280 36 1900 VRB/05 RMK AO2 $
63870K0J4 0J420160424165010304/24/16 16:50:31  5-MIN K0J4 242150Z AUTO VRB04KT 10SM FEW070 27/11 A2996 280 36 1800 VRB/04 RMK AO2 $
63870K0J4 0J420160424165512004/24/16 16:55:31  5-MIN K0J4 242155Z AUTO 10003KT 10SM FEW070 28/12 A2996 280 36 1900 100/03 RMK AO2 SLP141 T02780117 $
63870K0J4 0J420160424170010304/24/16 17:00:31  5-MIN K0J4 242200Z AUTO 10003KT 10SM FEW070 27/11 A2996 280 36 1800 100/03 RMK AO2 $
63870K0J4 0J420160424170510304/24/16 17:05:31  5-MIN K0J4 242205Z AUTO 00000KT 10SM SCT070 27/12 A2996 280 37 1800 000/00 RMK AO2 $
63870K0J4 0J420160424171010304/24/16 17:10:31  5-MIN K0J4 242210Z AUTO 00000KT 10SM SCT070 27/12 A2996 280 37 1800 000/00 RMK AO2 $
63870K0J4 0J420160424171510304/24/16 17:15:31  5-MIN K0J4 242215Z AUTO 00000KT 10SM SCT070 27/12 A2996 280 40 1700 000/00 RMK AO2 $
63870K0J4 0J420160424172010304/24/16 17:20:31  5-MIN K0J4 242220Z AUTO 09003KT 10SM BKN070 27/13 A2996 280 41 1700 090/03 RMK AO2 $
63870K0J4 0J420160424172510304/24/16 17:25:31  5-MIN K0J4 242225Z AUTO 12004KT 10SM BKN070 27/12 A2996 280 39 1800 120/04 RMK AO2 $
63870K0J4 0J420160424173010304/24/16 17:30:31  5-MIN K0J4 242230Z AUTO 09004KT 10SM BKN070 28/12 A2996 280 37 1900 090/04 RMK AO2 $
63870K0J4 0J420160424173510304/24/16 17:35:31  5-MIN K0J4 242235Z AUTO 10004KT 10SM SCT070 27/12 A2996 280 37 1800 100/04 RMK AO2 $
63870K0J4 0J420160424174010304/24/16 17:40:31  5-MIN K0J4 242240Z AUTO 09004KT 10SM SCT070 27/12 A2996 280 37 1800 090/04 RMK AO2 $
63870K0J4 0J420160424174510304/24/16 17:45:31  5-MIN K0J4 242245Z AUTO 11003KT 10SM SCT070 27/12 A2996 280 38 1700 110/03 RMK AO2 $
63870K0J4 0J420160424175010304/24/16 17:50:31  5-MIN K0J4 242250Z AUTO 00000KT 10SM BKN070 26/13 A2996 280 43 1700 000/00 RMK AO2 $
63870K0J4 0J420160424175512004/24/16 17:55:31  5-MIN K0J4 242255Z AUTO 00000KT 10SM BKN070 26/13 A2996 280 43 1700 000/00 RMK AO2 SLP142 T02610128 $
63870K0J4 0J420160424180010304/24/16 18:00:31  5-MIN K0J4 242300Z AUTO 00000KT 10SM BKN070 26/13 A2996 280 43 1700 000/00 RMK AO2 $
63870K0J4 0J420160424180510304/24/16 18:05:31  5-MIN K0J4 242305Z AUTO 00000KT 10SM BKN070 26/13 A2996 280 43 1700 000/00 RMK AO2 $
63870K0J4 0J420160424181010304/24/16 18:10:31  5-MIN K0J4 242310Z AUTO 00000KT 10SM BKN070 26/13 A2996 280 46 1600 000/00 RMK AO2 $
63870K0J4 0J420160424181510304/24/16 18:15:31  5-MIN K0J4 242315Z AUTO 00000KT 10SM SCT070 26/14 A2996 280 48 1600 000/00 RMK AO2 $
63870K0J4 0J420160424182010304/24/16 18:20:31  5-MIN K0J4 242320Z AUTO 00000KT 10SM BKN070 26/14 A2996 280 49 1600 000/00 RMK AO2 $
63870K0J4 0J420160424182510304/24/16 18:25:31  5-MIN K0J4 242325Z AUTO 00000KT 10SM BKN070 25/16 A2996 280 55 1500 000/00 RMK AO2 $
63870K0J4 0J420160424183010304/24/16 18:30:31  5-MIN K0J4 242330Z AUTO 18003KT 10SM BKN070 24/16 A2996 280 59 1500 180/03 RMK AO2 $
63870K0J4 0J420160424183510304/24/16 18:35:31  5-MIN K0J4 242335Z AUTO 24007KT 10SM BKN070 24/16 A2996 280 61 1400 240/07 RMK AO2 $
63870K0J4 0J420160424184010304/24/16 18:40:31  5-MIN K0J4 242340Z AUTO 21009KT 10SM BKN070 25/13 A2997 270 46 1500 210/09 RMK AO2 $
63870K0J4 0J420160424184510304/24/16 18:45:31  5-MIN K0J4 242345Z AUTO 22008KT 10SM SCT070 24/12 A2997 270 46 1500 220/08 RMK AO2 $
63870K0J4 0J420160424185010304/24/16 18:50:31  5-MIN K0J4 242350Z AUTO 21007KT 10SM FEW070 24/12 A2997 270 46 1500 210/07 RMK AO2 $
63870K0J4 0J420160424185513804/24/16 18:55:31  5-MIN K0J4 242355Z AUTO 22004KT 10SM FEW070 24/13 A2997 270 49 1400 220/04 RMK AO2 SLP147 T02390128 10289 20239 56021 $
63870K0J4 0J420160424190010304/24/16 19:00:31  5-MIN K0J4 250000Z AUTO 22004KT 10SM FEW070 24/12 A2997 270 47 1400 220/04 RMK AO2 $
63870K0J4 0J420160424190510004/24/16 19:05:31  5-MIN K0J4 250005Z AUTO 23004KT 10SM CLR 23/12 A2998 270 49 1300 230/04 RMK AO2 $
63870K0J4 0J420160424191010004/24/16 19:10:31  5-MIN K0J4 250010Z AUTO 24004KT 10SM CLR 23/12 A2998 260 49 1300 240/04 RMK AO2 $
63870K0J4 0J420160424191510004/24/16 19:15:31  5-MIN K0J4 250015Z AUTO 23003KT 10SM CLR 23/12 A2998 260 51 1300 230/03 RMK AO2 $
63870K0J4 0J420160424192010004/24/16 19:20:31  5-MIN K0J4 250020Z AUTO 22003KT 10SM CLR 23/13 A2998 260 53 1300 220/03 RMK AO2 $
63870K0J4 0J420160424192510004/24/16 19:25:31  5-MIN K0J4 250025Z AUTO 00000KT 10SM CLR 22/13 A2998 260 56 1100 000/00 RMK AO2 $
63870K0J4 0J420160424193010004/24/16 19:30:31  5-MIN K0J4 250030Z AUTO 00000KT 10SM CLR 22/13 A2998 260 58 1100 000/00 RMK AO2 $
63870K0J4 0J420160424193510004/24/16 19:35:31  5-MIN K0J4 250035Z AUTO 00000KT 10SM CLR 21/13 A2998 260 61 1100 000/00 RMK AO2 $
63870K0J4 0J420160424194010304/24/16 19:40:31  5-MIN K0J4 250040Z AUTO 00000KT 10SM FEW070 22/13 A2998 260 58 1100 000/00 RMK AO2 $
63870K0J4 0J420160424194510304/24/16 19:45:31  5-MIN K0J4 250045Z AUTO 00000KT 10SM SCT070 21/14 A2998 260 65 1000 000/00 RMK AO2 $
63870K0J4 0J420160424195010304/24/16 19:50:31  5-MIN K0J4 250050Z AUTO 00000KT 10SM SCT070 21/14 A2998 260 67 1000 000/00 RMK AO2 $
63870K0J4 0J420160424195512004/24/16 19:55:31  5-MIN K0J4 250055Z AUTO 00000KT 10SM BKN070 21/14 A2998 260 67 1000 000/00 RMK AO2 SLP150 T02060144 $
63870K0J4 0J420160424200010204/24/16 20:00:31  5-MIN K0J4 250100Z AUTO 00000KT 10SM BKN070 20/14 A2999 260 67 900 000/00 RMK AO2 $
63870K0J4 0J420160424200510204/24/16 20:05:31  5-MIN K0J4 250105Z AUTO 00000KT 10SM BKN070 20/14 A2999 260 70 900 000/00 RMK AO2 $
63870K0J4 0J420160424201010204/24/16 20:10:31  5-MIN K0J4 250110Z AUTO 00000KT 10SM SCT070 20/14 A2999 250 70 900 000/00 RMK AO2 $
63870K0J4 0J420160424201510204/24/16 20:15:31  5-MIN K0J4 250115Z AUTO 00000KT 10SM SCT070 19/14 A2999 250 72 900 000/00 RMK AO2 $
63870K0J4 0J420160424202010204/24/16 20:20:31  5-MIN K0J4 250120Z AUTO 00000KT 10SM SCT070 19/14 A2999 250 72 800 000/00 RMK AO2 $
63870K0J4 0J420160424202510204/24/16 20:25:31  5-MIN K0J4 250125Z AUTO 00000KT 10SM FEW070 19/14 A2999 250 70 900 000/00 RMK AO2 $
63870K0J4 0J420160424203010304/24/16 20:30:31  5-MIN K0J4 250130Z AUTO 00000KT 10SM FEW070 21/13 A2999 250 60 1000 000/00 RMK AO2 $
63870K0J4 0J420160424203510304/24/16 20:35:31  5-MIN K0J4 250135Z AUTO 21003KT 10SM FEW070 21/13 A3000 250 63 1000 210/03 RMK AO2 $
63870K0J4 0J420160424204010304/24/16 20:40:31  5-MIN K0J4 250140Z AUTO 00000KT 10SM FEW070 21/13 A2999 250 60 1000 000/00 RMK AO2 $
63870K0J4 0J420160424204510204/24/16 20:45:31  5-MIN K0J4 250145Z AUTO 00000KT 10SM FEW070 19/14 A3000 250 70 900 000/00 RMK AO2 $
63870K0J4 0J420160424205010204/24/16 20:50:31  5-MIN K0J4 250150Z AUTO 00000KT 10SM SCT070 19/14 A3000 240 70 900 000/00 RMK AO2 $
63870K0J4 0J420160424205511904/24/16 20:55:31  5-MIN K0J4 250155Z AUTO 00000KT 10SM SCT070 19/14 A3000 240 70 900 000/00 RMK AO2 SLP155 T01940139 $
63870K0J4 0J420160424210010204/24/16 21:00:31  5-MIN K0J4 250200Z AUTO 00000KT 10SM FEW070 19/14 A3000 240 75 800 000/00 RMK AO2 $
63870K0J4 0J420160424210510204/24/16 21:05:31  5-MIN K0J4 250205Z AUTO 00000KT 10SM SCT070 18/15 A3000 240 81 700 000/00 RMK AO2 $
63870K0J4 0J420160424211010204/24/16 21:10:31  5-MIN K0J4 250210Z AUTO 00000KT 10SM SCT070 18/14 A3001 240 78 700 000/00 RMK AO2 $
63870K0J4 0J420160424211510204/24/16 21:15:31  5-MIN K0J4 250215Z AUTO 00000KT 10SM SCT070 18/14 A3001 240 75 700 000/00 RMK AO2 $
63870K0J4 0J420160424212010204/24/16 21:20:31  5-MIN K0J4 250220Z AUTO 19003KT 10SM SCT070 18/14 A3001 230 78 700 190/03 RMK AO2 $
63870K0J4 0J420160424212510204/24/16 21:25:31  5-MIN K0J4 250225Z AUTO 21003KT 10SM FEW070 19/13 A3001 230 70 800 210/03 RMK AO2 $
63870K0J4 0J420160424213010204/24/16 21:30:31  5-MIN K0J4 250230Z AUTO 20004KT 10SM FEW070 19/13 A3001 230 70 800 200/04 RMK AO2 $
63870K0J4 0J420160424213510204/24/16 21:35:31  5-MIN K0J4 250235Z AUTO 19004KT 10SM FEW070 19/13 A3002 230 70 800 190/04 RMK AO2 $
63870K0J4 0J420160424214010204/24/16 21:40:31  5-MIN K0J4 250240Z AUTO 19004KT 10SM FEW070 19/13 A3002 220 70 800 190/04 RMK AO2 $
63870K0J4 0J420160424214510204/24/16 21:45:31  5-MIN K0J4 250245Z AUTO 19005KT 10SM FEW070 19/13 A3002 220 70 800 190/05 RMK AO2 $
63870K0J4 0J420160424215010204/24/16 21:50:31  5-MIN K0J4 250250Z AUTO 20004KT 10SM FEW070 19/13 A3002 220 67 800 200/04 RMK AO2 $
63870K0J4 0J420160424215512504/24/16 21:55:31  5-MIN K0J4 250255Z AUTO 19004KT 10SM FEW070 19/13 A3002 220 70 800 190/04 RMK AO2 SLP163 T01890133 53004 $
63870K0J4 0J420160424220010204/24/16 22:00:31  5-MIN K0J4 250300Z AUTO 19004KT 10SM FEW070 19/13 A3003 220 70 800 190/04 RMK AO2 $
63870K0J4 0J420160424220509904/24/16 22:05:31  5-MIN K0J4 250305Z AUTO 20005KT 10SM CLR 19/13 A3003 220 67 800 200/05 RMK AO2 $
63870K0J4 0J420160424221009904/24/16 22:10:31  5-MIN K0J4 250310Z AUTO 19003KT 10SM CLR 19/13 A3003 220 70 800 190/03 RMK AO2 $
63870K0J4 0J420160424221509904/24/16 22:15:31  5-MIN K0J4 250315Z AUTO 19004KT 10SM CLR 19/13 A3003 220 70 800 190/04 RMK AO2 $
63870K0J4 0J420160424222009904/24/16 22:20:31  5-MIN K0J4 250320Z AUTO 00000KT 10SM CLR 18/14 A3003 220 75 700 000/00 RMK AO2 $
63870K0J4 0J420160424222509904/24/16 22:25:31  5-MIN K0J4 250325Z AUTO 00000KT 10SM CLR 18/14 A3003 220 75 700 000/00 RMK AO2 $
63870K0J4 0J420160424223009904/24/16 22:30:31  5-MIN K0J4 250330Z AUTO 00000KT 10SM CLR 19/14 A3003 220 72 800 000/00 RMK AO2 $
63870K0J4 0J420160424223509904/24/16 22:35:31  5-MIN K0J4 250335Z AUTO 00000KT 10SM CLR 19/14 A3003 220 72 800 000/00 RMK AO2 $
63870K0J4 0J420160424224009904/24/16 22:40:31  5-MIN K0J4 250340Z AUTO 00000KT 10SM CLR 19/14 A3002 220 72 800 000/00 RMK AO2 $
63870K0J4 0J420160424224509904/24/16 22:45:31  5-MIN K0J4 250345Z AUTO 00000KT 10SM CLR 18/14 A3002 220 75 700 000/00 RMK AO2 $
63870K0J4 0J420160424225009904/24/16 22:50:31  5-MIN K0J4 250350Z AUTO 00000KT 10SM CLR 18/14 A3002 220 81 600 000/00 RMK AO2 $
63870K0J4 0J420160424225511604/24/16 22:55:31  5-MIN K0J4 250355Z AUTO 00000KT 10SM CLR 17/14 A3002 220 83 600 000/00 RMK AO2 SLP163 T01720144 $
63870K0J4 0J420160424230009904/24/16 23:00:31  5-MIN K0J4 250400Z AUTO 00000KT 10SM CLR 17/14 A3002 220 83 600 000/00 RMK AO2 $
63870K0J4 0J420160424230509904/24/16 23:05:31  5-MIN K0J4 250405Z AUTO 00000KT 10SM CLR 17/14 A3002 220 80 600 000/00 RMK AO2 $
63870K0J4 0J420160424231009904/24/16 23:10:31  5-MIN K0J4 250410Z AUTO 00000KT 10SM CLR 17/14 A3002 220 80 600 000/00 RMK AO2 $
63870K0J4 0J420160424231509904/24/16 23:15:31  5-MIN K0J4 250415Z AUTO 00000KT 10SM CLR 17/14 A3002 230 80 600 000/00 RMK AO2 $
63870K0J4 0J420160424232009904/24/16 23:20:31  5-MIN K0J4 250420Z AUTO 00000KT 10SM CLR 17/14 A3002 230 80 600 000/00 RMK AO2 $
63870K0J4 0J420160424232509904/24/16 23:25:31  5-MIN K0J4 250425Z AUTO 00000KT 10SM CLR 17/14 A3002 230 80 600 000/00 RMK AO2 $
63870K0J4 0J420160424233010204/24/16 23:30:31  5-MIN K0J4 250430Z AUTO 00000KT 10SM FEW070 17/14 A3001 230 83 600 000/00 RMK AO2 $
63870K0J4 0J420160424233510204/24/16 23:35:31  5-MIN K0J4 250435Z AUTO 00000KT 10SM FEW070 17/14 A3001 230 86 500 000/00 RMK AO2 $
63870K0J4 0J420160424234010204/24/16 23:40:31  5-MIN K0J4 250440Z AUTO 00000KT 10SM FEW070 17/15 A3001 230 87 600 000/00 RMK AO2 $
63870K0J4 0J420160424234510204/24/16 23:45:31  5-MIN K0J4 250445Z AUTO 00000KT 10SM FEW070 17/14 A3001 230 86 500 000/00 RMK AO2 $
63870K0J4 0J420160424235010204/24/16 23:50:31  5-MIN K0J4 250450Z AUTO 00000KT 10SM FEW070 17/14 A3001 230 86 500 000/00 RMK AO2 $
63870K0J4 0J420160424235512904/24/16 23:55:31  5-MIN K0J4 250455Z AUTO 00000KT 10SM FEW070 17/14 A3001 230 86 500 000/00 RMK AO2 SLP160 T01670144 402890106 $
63870K0J4 0J420160425000010204/25/16 00:00:31  5-MIN K0J4 250500Z AUTO 00000KT 10SM FEW070 17/15 A3001 230 90 500 000/00 RMK AO2 $
63870K0J4 0J420160425000510204/25/16 00:05:31  5-MIN K0J4 250505Z AUTO 00000KT 10SM SCT070 17/15 A3001 230 90 500 000/00 RMK AO2 $
63870K0J4 0J420160425001010204/25/16 00:10:31  5-MIN K0J4 250510Z AUTO 00000KT 10SM FEW070 17/14 A3001 230 86 500 000/00 RMK AO2 $
63870K0J4 0J420160425001510204/25/16 00:15:31  5-MIN K0J4 250515Z AUTO 00000KT 10SM FEW070 16/14 A3001 230 90 500 000/00 RMK AO2 $
63870K0J4 0J420160425002010204/25/16 00:20:31  5-MIN K0J4 250520Z AUTO 00000KT 10SM FEW070 16/14 A3001 230 86 500 000/00 RMK AO2 $
63870K0J4 0J420160425002510204/25/16 00:25:31  5-MIN K0J4 250525Z AUTO 00000KT 10SM FEW070 16/14 A3001 230 90 500 000/00 RMK AO2 $
63870K0J4 0J420160425003009904/25/16 00:30:31  5-MIN K0J4 250530Z AUTO 00000KT 10SM CLR 17/14 A3001 230 86 500 000/00 RMK AO2 $
63870K0J4 0J420160425003509904/25/16 00:35:31  5-MIN K0J4 250535Z AUTO 00000KT 10SM CLR 17/14 A3001 230 86 500 000/00 RMK AO2 $
63870K0J4 0J420160425004009904/25/16 00:40:31  5-MIN K0J4 250540Z AUTO 00000KT 10SM CLR 16/14 A3001 230 90 500 000/00 RMK AO2 $
63870K0J4 0J420160425004509904/25/16 00:45:31  5-MIN K0J4 250545Z AUTO 00000KT 10SM CLR 17/14 A3001 230 86 500 000/00 RMK AO2 $
63870K0J4 0J420160425005009904/25/16 00:50:31  5-MIN K0J4 250550Z AUTO 00000KT 10SM CLR 16/14 A3001 230 90 500 000/00 RMK AO2 $
63870K0J4 0J420160425005513404/25/16 00:55:31  5-MIN K0J4 250555Z AUTO 00000KT 10SM CLR 16/14 A3001 230 90 500 000/00 RMK AO2 SLP158 T01610144 10239 20161 53017 $
63870K0J4 0J420160425010009904/25/16 01:00:31  5-MIN K0J4 250600Z AUTO 00000KT 10SM CLR 16/14 A3001 230 90 500 000/00 RMK AO2 $
63870K0J4 0J420160425010509904/25/16 01:05:31  5-MIN K0J4 250605Z AUTO 00000KT 10SM CLR 16/14 A3001 230 90 500 000/00 RMK AO2 $
63870K0J4 0J420160425011009904/25/16 01:10:31  5-MIN K0J4 250610Z AUTO 00000KT 10SM CLR 16/14 A3001 240 90 500 000/00 RMK AO2 $
63870K0J4 0J420160425011509904/25/16 01:15:31  5-MIN K0J4 250615Z AUTO 00000KT 10SM CLR 16/14 A3001 240 90 500 000/00 RMK AO2 $
63870K0J4 0J420160425012009904/25/16 01:20:31  5-MIN K0J4 250620Z AUTO 00000KT 10SM CLR 16/14 A3001 240 90 400 000/00 RMK AO2 $
63870K0J4 0J420160425012509904/25/16 01:25:31  5-MIN K0J4 250625Z AUTO 00000KT 10SM CLR 16/14 A3000 240 86 500 000/00 RMK AO2 $
63870K0J4 0J420160425013009904/25/16 01:30:31  5-MIN K0J4 250630Z AUTO 00000KT 10SM CLR 16/14 A3000 240 90 400 000/00 RMK AO2 $
63870K0J4 0J420160425013509904/25/16 01:35:31  5-MIN K0J4 250635Z AUTO 00000KT 10SM CLR 16/13 A3000 240 86 400 000/00 RMK AO2 $
63870K0J4 0J420160425014009904/25/16 01:40:31  5-MIN K0J4 250640Z AUTO 00000KT 10SM CLR 16/14 A3000 240 90 400 000/00 RMK AO2 $
63870K0J4 0J420160425014509904/25/16 01:45:31  5-MIN K0J4 250645Z AUTO 00000KT 10SM CLR 16/14 A3000 240 90 400 000/00 RMK AO2 $
63870K0J4 0J420160425015009904/25/16 01:50:31  5-MIN K0J4 250650Z AUTO 00000KT 10SM CLR 16/14 A2999 250 90 400 000/00 RMK AO2 $
63870K0J4 0J420160425015511604/25/16 01:55:31  5-MIN K0J4 250655Z AUTO 00000KT 10SM CLR 16/14 A2999 250 90 400 000/00 RMK AO2 SLP153 T01560139 $
63870K0J4 0J420160425020009904/25/16 02:00:31  5-MIN K0J4 250700Z AUTO 00000KT 10SM CLR 16/14 A2999 250 86 500 000/00 RMK AO2 $
63870K0J4 0J420160425020509904/25/16 02:05:31  5-MIN K0J4 250705Z AUTO 00000KT 10SM CLR 16/14 A2999 250 90 400 000/00 RMK AO2 $
63870K0J4 0J420160425021009904/25/16 02:10:31  5-MIN K0J4 250710Z AUTO 00000KT 10SM CLR 16/14 A2999 250 90 400 000/00 RMK AO2 $
63870K0J4 0J420160425021509904/25/16 02:15:31  5-MIN K0J4 250715Z AUTO 00000KT 10SM CLR 16/14 A2999 250 90 400 000/00 RMK AO2 $
63870K0J4 0J420160425022009904/25/16 02:20:31  5-MIN K0J4 250720Z AUTO 00000KT 10SM CLR 16/14 A2999 250 90 400 000/00 RMK AO2 $
63870K0J4 0J420160425022509904/25/16 02:25:31  5-MIN K0J4 250725Z AUTO 00000KT 10SM CLR 16/14 A2999 250 90 400 000/00 RMK AO2 $
63870K0J4 0J420160425023009904/25/16 02:30:31  5-MIN K0J4 250730Z AUTO 00000KT 10SM CLR 15/14 A2999 250 93 400 000/00 RMK AO2 $
63870K0J4 0J420160425023509904/25/16 02:35:31  5-MIN K0J4 250735Z AUTO 00000KT 10SM CLR 15/13 A2999 250 90 400 000/00 RMK AO2 $
63870K0J4 0J420160425024009904/25/16 02:40:31  5-MIN K0J4 250740Z AUTO 00000KT 10SM CLR 15/13 A2999 250 90 400 000/00 RMK AO2 $
63870K0J4 0J420160425024509904/25/16 02:45:31  5-MIN K0J4 250745Z AUTO 00000KT 10SM CLR 16/14 A2999 260 86 500 000/00 RMK AO2 $
63870K0J4 0J420160425025009904/25/16 02:50:31  5-MIN K0J4 250750Z AUTO 00000KT 10SM CLR 16/14 A2999 250 90 400 000/00 RMK AO2 $
63870K0J4 0J420160425025511604/25/16 02:55:31  5-MIN K0J4 250755Z AUTO 00000KT 10SM CLR 16/14 A2999 260 90 400 000/00 RMK AO2 SLP150 T01560139 $
63870K0J4 0J420160425030009904/25/16 03:00:31  5-MIN K0J4 250800Z AUTO 00000KT 10SM CLR 16/14 A2998 260 90 400 000/00 RMK AO2 $
63870K0J4 0J420160425030509904/25/16 03:05:31  5-MIN K0J4 250805Z AUTO 00000KT 10SM CLR 16/14 A2999 260 90 400 000/00 RMK AO2 $
63870K0J4 0J420160425031009904/25/16 03:10:31  5-MIN K0J4 250810Z AUTO 00000KT 10SM CLR 16/14 A2998 260 86 500 000/00 RMK AO2 $
63870K0J4 0J420160425031509904/25/16 03:15:31  5-MIN K0J4 250815Z AUTO 00000KT 10SM CLR 16/14 A2998 260 86 500 000/00 RMK AO2 $
63870K0J4 0J420160425032009904/25/16 03:20:31  5-MIN K0J4 250820Z AUTO 00000KT 10SM CLR 16/14 A2998 260 86 500 000/00 RMK AO2 $
63870K0J4 0J420160425032509904/25/16 03:25:31  5-MIN K0J4 250825Z AUTO 00000KT 10SM CLR 16/14 A2998 260 86 500 000/00 RMK AO2 $
63870K0J4 0J420160425033009904/25/16 03:30:31  5-MIN K0J4 250830Z AUTO 00000KT 10SM CLR 17/14 A2998 260 83 600 000/00 RMK AO2 $
63870K0J4 0J420160425033509904/25/16 03:35:31  5-MIN K0J4 250835Z AUTO 00000KT 10SM CLR 16/14 A2998 260 86 500 000/00 RMK AO2 $
63870K0J4 0J420160425034009904/25/16 03:40:31  5-MIN K0J4 250840Z AUTO 00000KT 10SM CLR 16/14 A2998 260 86 500 000/00 RMK AO2 $
63870K0J4 0J420160425034509904/25/16 03:45:31  5-MIN K0J4 250845Z AUTO 00000KT 10SM CLR 16/14 A2999 260 86 500 000/00 RMK AO2 $
63870K0J4 0J420160425035009904/25/16 03:50:31  5-MIN K0J4 250850Z AUTO 00000KT 10SM CLR 16/14 A2998 260 90 400 000/00 RMK AO2 $
63870K0J4 0J420160425141010304/25/16 14:10:31  5-MIN K0J4 251910Z AUTO 15006KT 10SM FEW060 28/14 A2999 250 42 1800 150/06 RMK AO2 $
63870K0J4 0J420160425141510304/25/16 14:15:31  5-MIN K0J4 251915Z AUTO 16007KT 10SM FEW060 27/13 A2999 250 42 1800 160/07 RMK AO2 $
63870K0J4 0J420160425142010304/25/16 14:20:31  5-MIN K0J4 251920Z AUTO VRB03KT 10SM FEW060 27/12 A2999 250 39 1800 VRB/03 RMK AO2 $
63870K0J4 0J420160425142511004/25/16 14:25:31  5-MIN K0J4 251925Z AUTO VRB05KT 10SM SCT060 SCT075 27/13 A2999 250 40 1800 VRB/05 RMK AO2 $
63870K0J4 0J420160425143011004/25/16 14:30:31  5-MIN K0J4 251930Z AUTO 16008KT 10SM SCT060 SCT075 28/13 A2999 250 40 1800 160/08 RMK AO2 $
63870K0J4 0J420160425143510304/25/16 14:35:31  5-MIN K0J4 251935Z AUTO VRB04KT 10SM SCT065 27/13 A2999 260 40 1800 VRB/04 RMK AO2 $
63870K0J4 0J420160425144010304/25/16 14:40:31  5-MIN K0J4 251940Z AUTO 15005KT 10SM SCT070 28/13 A2998 260 40 1800 150/05 RMK AO2 $
63870K0J4 0J420160425144510304/25/16 14:45:31  5-MIN K0J4 251945Z AUTO 21005KT 10SM SCT070 27/13 A2998 260 41 1700 210/05 RMK AO2 $
63870K0J4 0J420160425145010304/25/16 14:50:31  5-MIN K0J4 251950Z AUTO VRB06KT 10SM SCT070 28/13 A2998 260 40 1800 VRB/06 RMK AO2 $
63870K0J4 0J420160425145512004/25/16 14:55:31  5-MIN K0J4 251955Z AUTO 17007KT 10SM SCT070 28/13 A2998 260 39 1900 170/07 RMK AO2 SLP148 T02830133 $
63870K0J4 0J420160425150010304/25/16 15:00:31  5-MIN K0J4 252000Z AUTO 14004KT 10SM SCT070 28/12 A2998 260 37 1800 140/04 RMK AO2 $
63870K0J4 0J420160425150510304/25/16 15:05:31  5-MIN K0J4 252005Z AUTO 14007KT 10SM SCT065 28/12 A2998 270 37 1800 140/07 RMK AO2 $
63870K0J4 0J420160425151010304/25/16 15:10:31  5-MIN K0J4 252010Z AUTO 17009KT 10SM BKN065 27/13 A2997 270 40 1800 170/09 RMK AO2 $
63870K0J4 0J420160425151510304/25/16 15:15:31  5-MIN K0J4 252015Z AUTO VRB05KT 10SM BKN065 28/12 A2997 270 37 1800 VRB/05 RMK AO2 $
63870K0J4 0J420160425152011904/25/16 15:20:31  5-MIN K0J4 252020Z AUTO 17007KT 150V230 10SM FEW065 28/12 A2997 270 37 1800 170/07 150V230 RMK AO2 $
63870K0J4 0J420160425152510304/25/16 15:25:31  5-MIN K0J4 252025Z AUTO 17008KT 10SM FEW065 28/13 A2996 280 37 1900 170/08 RMK AO2 $
63870K0J4 0J420160425153010304/25/16 15:30:31  5-MIN K0J4 252030Z AUTO 16008KT 10SM FEW065 28/13 A2996 280 39 1900 160/08 RMK AO2 $
63870K0J4 0J420160425153510304/25/16 15:35:31  5-MIN K0J4 252035Z AUTO 18008KT 10SM FEW065 28/13 A2996 280 39 1900 180/08 RMK AO2 $
63870K0J4 0J420160425154010004/25/16 15:40:31  5-MIN K0J4 252040Z AUTO 19005KT 10SM CLR 27/13 A2996 280 41 1700 190/05 RMK AO2 $
63870K0J4 0J420160425154510304/25/16 15:45:31  5-MIN K0J4 252045Z AUTO 18003KT 10SM FEW080 27/13 A2996 280 42 1800 180/03 RMK AO2 $
63870K0J4 0J420160425155010304/25/16 15:50:31  5-MIN K0J4 252050Z AUTO 20006KT 10SM FEW080 28/13 A2996 280 39 1900 200/06 RMK AO2 $
63870K0J4 0J420160425155512604/25/16 15:55:31  5-MIN K0J4 252055Z AUTO 21004KT 10SM FEW080 28/13 A2996 280 39 1900 210/04 RMK AO2 SLP140 T02830133 58012 $
63870K0J4 0J420160425160011904/25/16 16:00:31  5-MIN K0J4 252100Z AUTO 18008KT 150V210 10SM FEW080 28/13 A2996 280 37 1900 180/08 150V210 RMK AO2 $
63870K0J4 0J420160425160511004/25/16 16:05:31  5-MIN K0J4 252105Z AUTO VRB06KT 10SM FEW065 SCT080 28/13 A2996 280 37 1900 VRB/06 RMK AO2 $
63870K0J4 0J420160425161011004/25/16 16:10:31  5-MIN K0J4 252110Z AUTO 18007KT 10SM FEW065 SCT080 28/13 A2996 280 39 1900 180/07 RMK AO2 $
63870K0J4 0J420160425161510304/25/16 16:15:31  5-MIN K0J4 252115Z AUTO 20006KT 10SM FEW065 28/13 A2996 280 39 1900 200/06 RMK AO2 $
63870K0J4 0J420160425162010304/25/16 16:20:31  5-MIN K0J4 252120Z AUTO 17007KT 10SM FEW065 27/12 A2996 280 39 1800 170/07 RMK AO2 $
63870K0J4 0J420160425162510304/25/16 16:25:31  5-MIN K0J4 252125Z AUTO 17005KT 10SM FEW065 28/13 A2996 280 39 1900 170/05 RMK AO2 $
63870K0J4 0J420160425163010304/25/16 16:30:31  5-MIN K0J4 252130Z AUTO 21008KT 10SM FEW065 28/13 A2995 290 39 1900 210/08 RMK AO2 $
63870K0J4 0J420160425163510004/25/16 16:35:31  5-MIN K0J4 252135Z AUTO 20009KT 10SM CLR 28/13 A2995 290 39 1900 200/09 RMK AO2 $
63870K0J4 0J420160425164010004/25/16 16:40:31  5-MIN K0J4 252140Z AUTO 20007KT 10SM CLR 28/13 A2995 290 39 1900 200/07 RMK AO2 $
63870K0J4 0J420160425164510004/25/16 16:45:31  5-MIN K0J4 252145Z AUTO 18007KT 10SM CLR 28/12 A2995 290 37 1900 180/07 RMK AO2 $
63870K0J4 0J420160425165010004/25/16 16:50:31  5-MIN K0J4 252150Z AUTO 17005KT 10SM CLR 28/13 A2995 290 39 1900 170/05 RMK AO2 $
63870K0J4 0J420160425165511704/25/16 16:55:31  5-MIN K0J4 252155Z AUTO VRB04KT 10SM CLR 28/12 A2995 290 37 1900 VRB/04 RMK AO2 SLP137 T02780122 $
63870K0J4 0J420160425170010004/25/16 17:00:31  5-MIN K0J4 252200Z AUTO 18005KT 10SM CLR 28/13 A2995 290 39 1900 180/05 RMK AO2 $
63870K0J4 0J420160425170510004/25/16 17:05:31  5-MIN K0J4 252205Z AUTO 19006KT 10SM CLR 28/13 A2995 290 39 1900 190/06 RMK AO2 $
63870K0J4 0J420160425171010004/25/16 17:10:31  5-MIN K0J4 252210Z AUTO 23006KT 10SM CLR 28/12 A2994 290 37 1900 230/06 RMK AO2 $
63870K0J4 0J420160425171510004/25/16 17:15:31  5-MIN K0J4 252215Z AUTO 17005KT 10SM CLR 28/12 A2994 300 37 1900 170/05 RMK AO2 $
63870K0J4 0J420160425172010004/25/16 17:20:31  5-MIN K0J4 252220Z AUTO 19007KT 10SM CLR 28/12 A2994 290 37 1900 190/07 RMK AO2 $
63870K0J4 0J420160425172510004/25/16 17:25:31  5-MIN K0J4 252225Z AUTO 19007KT 10SM CLR 28/12 A2994 300 37 1900 190/07 RMK AO2 $
63870K0J4 0J420160425173010004/25/16 17:30:31  5-MIN K0J4 252230Z AUTO 21007KT 10SM CLR 28/12 A2994 290 36 1900 210/07 RMK AO2 $
63870K0J4 0J420160425173510004/25/16 17:35:31  5-MIN K0J4 252235Z AUTO 19005KT 10SM CLR 28/12 A2994 290 36 1900 190/05 RMK AO2 $
63870K0J4 0J420160425174010004/25/16 17:40:31  5-MIN K0J4 252240Z AUTO 18006KT 10SM CLR 28/12 A2994 290 37 1900 180/06 RMK AO2 $
63870K0J4 0J420160425174510004/25/16 17:45:31  5-MIN K0J4 252245Z AUTO 18007KT 10SM CLR 27/12 A2995 290 39 1800 180/07 RMK AO2 $
63870K0J4 0J420160425175010004/25/16 17:50:31  5-MIN K0J4 252250Z AUTO 21005KT 10SM CLR 27/12 A2995 290 39 1800 210/05 RMK AO2 $
63870K0J4 0J420160425175511704/25/16 17:55:31  5-MIN K0J4 252255Z AUTO 20008KT 10SM CLR 27/12 A2995 290 39 1800 200/08 RMK AO2 SLP137 T02720122 $
63870K0J4 0J420160425180010004/25/16 18:00:31  5-MIN K0J4 252300Z AUTO 20008KT 10SM CLR 27/12 A2994 290 37 1800 200/08 RMK AO2 $
63870K0J4 0J420160425180510004/25/16 18:05:31  5-MIN K0J4 252305Z AUTO 19006KT 10SM CLR 27/12 A2994 290 37 1800 190/06 RMK AO2 $
63870K0J4 0J420160425181010004/25/16 18:10:31  5-MIN K0J4 252310Z AUTO 20006KT 10SM CLR 27/12 A2994 300 39 1800 200/06 RMK AO2 $
63870K0J4 0J420160425181510004/25/16 18:15:31  5-MIN K0J4 252315Z AUTO 19005KT 10SM CLR 27/13 A2994 300 41 1700 190/05 RMK AO2 $
63870K0J4 0J420160425182010004/25/16 18:20:31  5-MIN K0J4 252320Z AUTO 21007KT 10SM CLR 26/12 A2994 290 41 1700 210/07 RMK AO2 $
63870K0J4 0J420160425182510004/25/16 18:25:31  5-MIN K0J4 252325Z AUTO 20007KT 10SM CLR 26/13 A2994 290 43 1700 200/07 RMK AO2 $
63870K0J4 0J420160425183010004/25/16 18:30:31  5-MIN K0J4 252330Z AUTO 21005KT 10SM CLR 26/13 A2995 290 46 1600 210/05 RMK AO2 $
63870K0J4 0J420160425183510004/25/16 18:35:31  5-MIN K0J4 252335Z AUTO 20006KT 10SM CLR 26/13 A2995 290 46 1600 200/06 RMK AO2 $
63870K0J4 0J420160425184010004/25/16 18:40:31  5-MIN K0J4 252340Z AUTO 18005KT 10SM CLR 26/13 A2995 290 44 1600 180/05 RMK AO2 $
63870K0J4 0J420160425184510004/25/16 18:45:31  5-MIN K0J4 252345Z AUTO 18006KT 10SM CLR 25/13 A2995 290 48 1600 180/06 RMK AO2 $
63870K0J4 0J420160425185010004/25/16 18:50:31  5-MIN K0J4 252350Z AUTO 18007KT 10SM CLR 25/13 A2995 290 46 1600 180/07 RMK AO2 $
63870K0J4 0J420160425185513504/25/16 18:55:31  5-MIN K0J4 252355Z AUTO 18007KT 10SM CLR 25/12 A2995 290 44 1600 180/07 RMK AO2 SLP138 T02500122 10283 20250 58018 $
63870K0J4 0J420160425190010004/25/16 19:00:31  5-MIN K0J4 260000Z AUTO 18007KT 10SM CLR 24/12 A2995 290 46 1500 180/07 RMK AO2 $
63870K0J4 0J420160425190510004/25/16 19:05:31  5-MIN K0J4 260005Z AUTO 18006KT 10SM CLR 24/12 A2995 290 46 1500 180/06 RMK AO2 $
63870K0J4 0J420160425191010004/25/16 19:10:31  5-MIN K0J4 260010Z AUTO 19005KT 10SM CLR 24/12 A2996 280 47 1400 190/05 RMK AO2 $
63870K0J4 0J420160425191510004/25/16 19:15:31  5-MIN K0J4 260015Z AUTO 19005KT 10SM CLR 24/12 A2996 280 47 1400 190/05 RMK AO2 $
63870K0J4 0J420160425192010004/25/16 19:20:31  5-MIN K0J4 260020Z AUTO 19005KT 10SM CLR 24/12 A2996 280 47 1400 190/05 RMK AO2 $
63870K0J4 0J420160425192510004/25/16 19:25:31  5-MIN K0J4 260025Z AUTO 19005KT 10SM CLR 23/12 A2996 280 49 1400 190/05 RMK AO2 $
63870K0J4 0J420160425193010004/25/16 19:30:31  5-MIN K0J4 260030Z AUTO 19005KT 10SM CLR 23/12 A2996 280 49 1400 190/05 RMK AO2 $
63870K0J4 0J420160425193510004/25/16 19:35:31  5-MIN K0J4 260035Z AUTO 19005KT 10SM CLR 23/12 A2996 280 51 1300 190/05 RMK AO2 $
63870K0J4 0J420160425194010004/25/16 19:40:31  5-MIN K0J4 260040Z AUTO 19005KT 10SM CLR 23/12 A2996 280 51 1300 190/05 RMK AO2 $
63870K0J4 0J420160425194510004/25/16 19:45:31  5-MIN K0J4 260045Z AUTO 19005KT 10SM CLR 23/12 A2996 280 51 1300 190/05 RMK AO2 $
63870K0J4 0J420160425195010004/25/16 19:50:31  5-MIN K0J4 260050Z AUTO 19005KT 10SM CLR 23/12 A2996 280 51 1300 190/05 RMK AO2 $
63870K0J4 0J420160425195511704/25/16 19:55:31  5-MIN K0J4 260055Z AUTO 19005KT 10SM CLR 23/12 A2997 270 51 1300 190/05 RMK AO2 SLP144 T02280122 $
63870K0J4 0J420160425200010004/25/16 20:00:31  5-MIN K0J4 260100Z AUTO 19004KT 10SM CLR 22/12 A2997 270 52 1200 190/04 RMK AO2 $
63870K0J4 0J420160425200510004/25/16 20:05:31  5-MIN K0J4 260105Z AUTO 18004KT 10SM CLR 22/12 A2997 270 54 1200 180/04 RMK AO2 $
63870K0J4 0J420160425201010004/25/16 20:10:31  5-MIN K0J4 260110Z AUTO 18005KT 10SM CLR 22/12 A2997 270 54 1200 180/05 RMK AO2 $
63870K0J4 0J420160425201510004/25/16 20:15:31  5-MIN K0J4 260115Z AUTO 18004KT 10SM CLR 22/12 A2997 270 54 1200 180/04 RMK AO2 $
63870K0J4 0J420160425202010004/25/16 20:20:31  5-MIN K0J4 260120Z AUTO 19004KT 10SM CLR 21/12 A2997 270 56 1100 190/04 RMK AO2 $
63870K0J4 0J420160425202510004/25/16 20:25:31  5-MIN K0J4 260125Z AUTO 20005KT 10SM CLR 21/13 A2997 270 58 1100 200/05 RMK AO2 $
63870K0J4 0J420160425203010004/25/16 20:30:31  5-MIN K0J4 260130Z AUTO 20004KT 10SM CLR 21/13 A2997 270 60 1000 200/04 RMK AO2 $
63870K0J4 0J420160425203510004/25/16 20:35:31  5-MIN K0J4 260135Z AUTO 00000KT 10SM CLR 21/13 A2997 270 60 1000 000/00 RMK AO2 $
63870K0J4 0J420160425204010004/25/16 20:40:31  5-MIN K0J4 260140Z AUTO 00000KT 10SM CLR 21/13 A2997 270 60 1000 000/00 RMK AO2 $
63870K0J4 0J420160425204510004/25/16 20:45:31  5-MIN K0J4 260145Z AUTO 21003KT 10SM CLR 21/13 A2998 270 60 1000 210/03 RMK AO2 $
63870K0J4 0J420160425205010004/25/16 20:50:31  5-MIN K0J4 260150Z AUTO 00000KT 10SM CLR 21/13 A2998 260 60 1000 000/00 RMK AO2 $
63870K0J4 0J420160425205511604/25/16 20:55:31  5-MIN K0J4 260155Z AUTO 20003KT 10SM CLR 21/13 A2998 260 60 1000 200/03 RMK AO2 SLPNO T02060128 $
63870K0J4 0J420160425210010004/25/16 21:00:31  5-MIN K0J4 260200Z AUTO 00000KT 10SM CLR 21/13 A2998 260 60 1000 000/00 RMK AO2 $
63870K0J4 0J420160425210510004/25/16 21:05:31  5-MIN K0J4 260205Z AUTO 22003KT 10SM CLR 21/13 A2998 260 63 1000 220/03 RMK AO2 $
63870K0J4 0J420160425211009904/25/16 21:10:31  5-MIN K0J4 260210Z AUTO 21003KT 10SM CLR 20/13 A2998 260 65 900 210/03 RMK AO2 $
63870K0J4 0J420160425211509904/25/16 21:15:31  5-MIN K0J4 260215Z AUTO 20003KT 10SM CLR 20/14 A2998 260 67 900 200/03 RMK AO2 $
63870K0J4 0J420160425212009904/25/16 21:20:31  5-MIN K0J4 260220Z AUTO 21003KT 10SM CLR 20/14 A2998 260 67 900 210/03 RMK AO2 $
63870K0J4 0J420160425212509904/25/16 21:25:31  5-MIN K0J4 260225Z AUTO 21003KT 10SM CLR 19/14 A2999 250 70 900 210/03 RMK AO2 $
63870K0J4 0J420160425213009904/25/16 21:30:31  5-MIN K0J4 260230Z AUTO 00000KT 10SM CLR 19/14 A2999 250 70 900 000/00 RMK AO2 $
63870K0J4 0J420160425213509904/25/16 21:35:31  5-MIN K0J4 260235Z AUTO 21003KT 10SM CLR 20/14 A2999 250 67 900 210/03 RMK AO2 $
63870K0J4 0J420160425214009904/25/16 21:40:31  5-MIN K0J4 260240Z AUTO 00000KT 10SM CLR 19/14 A2999 250 72 900 000/00 RMK AO2 $
63870K0J4 0J420160425214509904/25/16 21:45:31  5-MIN K0J4 260245Z AUTO 21003KT 10SM CLR 19/14 A2999 250 75 800 210/03 RMK AO2 $
63870K0J4 0J420160425215009904/25/16 21:50:31  5-MIN K0J4 260250Z AUTO 00000KT 10SM CLR 19/14 A2999 260 72 900 000/00 RMK AO2 $
63870K0J4 0J420160425215512204/25/16 21:55:31  5-MIN K0J4 260255Z AUTO 00000KT 10SM CLR 19/14 A2999 250 72 900 000/00 RMK AO2 SLP151 T01940144 55002 $
63870K0J4 0J420160425220009904/25/16 22:00:31  5-MIN K0J4 260300Z AUTO 00000KT 10SM CLR 19/14 A2999 250 75 800 000/00 RMK AO2 $
63870K0J4 0J420160425220509904/25/16 22:05:31  5-MIN K0J4 260305Z AUTO 23003KT 10SM CLR 19/14 A2999 250 75 800 230/03 RMK AO2 $
63870K0J4 0J420160425221009904/25/16 22:10:31  5-MIN K0J4 260310Z AUTO 23003KT 10SM CLR 19/15 A2999 250 78 800 230/03 RMK AO2 $
63870K0J4 0J420160425221509904/25/16 22:15:31  5-MIN K0J4 260315Z AUTO 23003KT 10SM CLR 18/15 A2999 250 81 700 230/03 RMK AO2 $
63870K0J4 0J420160425222009904/25/16 22:20:31  5-MIN K0J4 260320Z AUTO 00000KT 10SM CLR 18/14 A2999 250 78 700 000/00 RMK AO2 $
63870K0J4 0J420160425222509904/25/16 22:25:31  5-MIN K0J4 260325Z AUTO 00000KT 10SM CLR 18/15 A2999 260 83 700 000/00 RMK AO2 $
63870K0J4 0J420160425223009904/25/16 22:30:31  5-MIN K0J4 260330Z AUTO 00000KT 10SM CLR 18/14 A2998 260 81 700 000/00 RMK AO2 $
63870K0J4 0J420160425223509904/25/16 22:35:31  5-MIN K0J4 260335Z AUTO 00000KT 10SM CLR 17/14 A2999 260 83 600 000/00 RMK AO2 $
63870K0J4 0J420160425224009904/25/16 22:40:31  5-MIN K0J4 260340Z AUTO 00000KT 10SM CLR 17/14 A2998 260 80 600 000/00 RMK AO2 $
63870K0J4 0J420160425224509904/25/16 22:45:31  5-MIN K0J4 260345Z AUTO 00000KT 10SM CLR 17/14 A2998 260 80 600 000/00 RMK AO2 $
63870K0J4 0J420160425225009904/25/16 22:50:31  5-MIN K0J4 260350Z AUTO 00000KT 10SM CLR 17/14 A2998 260 80 600 000/00 RMK AO2 $
63870K0J4 0J420160425225511604/25/16 22:55:31  5-MIN K0J4 260355Z AUTO 00000KT 10SM CLR 17/14 A2998 260 86 600 000/00 RMK AO2 SLP149 T01670144 $
63870K0J4 0J420160425230009904/25/16 23:00:31  5-MIN K0J4 260400Z AUTO 00000KT 10SM CLR 17/14 A2998 260 86 600 000/00 RMK AO2 $
63870K0J4 0J420160425230509904/25/16 23:05:31  5-MIN K0J4 260405Z AUTO 00000KT 10SM CLR 17/14 A2998 260 86 600 000/00 RMK AO2 $
63870K0J4 0J420160425231009904/25/16 23:10:31  5-MIN K0J4 260410Z AUTO 00000KT 10SM CLR 17/14 A2998 260 83 600 000/00 RMK AO2 $
63870K0J4 0J420160425231509904/25/16 23:15:31  5-MIN K0J4 260415Z AUTO 00000KT 10SM CLR 17/15 A2998 260 87 600 000/00 RMK AO2 $
63870K0J4 0J420160425232009904/25/16 23:20:31  5-MIN K0J4 260420Z AUTO 00000KT 10SM CLR 17/15 A2998 260 90 600 000/00 RMK AO2 $
63870K0J4 0J420160425232509904/25/16 23:25:31  5-MIN K0J4 260425Z AUTO 00000KT 10SM CLR 17/15 A2998 260 90 600 000/00 RMK AO2 $
63870K0J4 0J420160425233009904/25/16 23:30:31  5-MIN K0J4 260430Z AUTO 00000KT 10SM CLR 17/15 A2998 260 87 600 000/00 RMK AO2 $
63870K0J4 0J420160425233509904/25/16 23:35:31  5-MIN K0J4 260435Z AUTO 00000KT 10SM CLR 17/15 A2997 270 87 600 000/00 RMK AO2 $
63870K0J4 0J420160425234009904/25/16 23:40:31  5-MIN K0J4 260440Z AUTO 00000KT 10SM CLR 17/16 A2998 270 90 600 000/00 RMK AO2 $
63870K0J4 0J420160425234509904/25/16 23:45:31  5-MIN K0J4 260445Z AUTO 00000KT 10SM CLR 17/15 A2998 260 90 600 000/00 RMK AO2 $
63870K0J4 0J420160425235009904/25/16 23:50:31  5-MIN K0J4 260450Z AUTO 00000KT 10SM CLR 17/15 A2998 260 90 600 000/00 RMK AO2 $
63870K0J4 0J420160425235512604/25/16 23:55:31  5-MIN K0J4 260455Z AUTO 00000KT 10SM CLR 17/14 A2998 270 86 600 000/00 RMK AO2 SLP147 T01670144 402830150 $
63870K0J4 0J420160426000009904/26/16 00:00:31  5-MIN K0J4 260500Z AUTO 00000KT 10SM CLR 17/14 A2998 260 86 600 000/00 RMK AO2 $
63870K0J4 0J420160426000509904/26/16 00:05:31  5-MIN K0J4 260505Z AUTO 00000KT 10SM CLR 16/14 A2998 260 90 500 000/00 RMK AO2 $
63870K0J4 0J420160426001009904/26/16 00:10:31  5-MIN K0J4 260510Z AUTO 00000KT 10SM CLR 16/14 A2998 260 86 500 000/00 RMK AO2 $
63870K0J4 0J420160426001509904/26/16 00:15:31  5-MIN K0J4 260515Z AUTO 00000KT 10SM CLR 16/14 A2997 270 90 500 000/00 RMK AO2 $
63870K0J4 0J420160426002009904/26/16 00:20:31  5-MIN K0J4 260520Z AUTO 00000KT 10SM CLR 16/14 A2998 270 90 500 000/00 RMK AO2 $
63870K0J4 0J420160426002509904/26/16 00:25:31  5-MIN K0J4 260525Z AUTO 00000KT 10SM CLR 16/14 A2997 270 90 500 000/00 RMK AO2 $
63870K0J4 0J420160426003009904/26/16 00:30:31  5-MIN K0J4 260530Z AUTO 00000KT 10SM CLR 16/14 A2997 270 90 500 000/00 RMK AO2 $
63870K0J4 0J420160426003509904/26/16 00:35:31  5-MIN K0J4 260535Z AUTO 00000KT 10SM CLR 16/14 A2998 270 90 500 000/00 RMK AO2 $
63870K0J4 0J420160426004010204/26/16 00:40:31  5-MIN K0J4 260540Z AUTO 00000KT 10SM SCT001 16/14 A2998 260 90 500 000/00 RMK AO2 $
63870K0J4 0J420160426004510104/26/16 00:45:31  5-MIN K0J4 260545Z AUTO 00000KT 9SM BKN001 16/15 A2998 260 93 500 000/00 RMK AO2 $
63870K0J4 0J420160426005010104/26/16 00:50:31  5-MIN K0J4 260550Z AUTO 00000KT 7SM BKN001 16/15 A2998 260 93 500 000/00 RMK AO2 $
63870K0J4 0J420160426005514304/26/16 00:55:31  5-MIN K0J4 260555Z AUTO 00000KT 1 1/2SM BR BKN001 17/16 A2998 260 96 600 000/00 RMK AO2 SLP147 T01670161 10244 20161 51013 $
63870K0J4 0J420160426010011904/26/16 01:00:31  5-MIN K0J4 260600Z AUTO 00000KT 3/4SM BR VV001 16/15 A2997 270 93 500 000/00 RMK AO2 VIS 1/2V1 1/2 $
63870K0J4 0J420160426010510504/26/16 01:05:31  5-MIN K0J4 260605Z AUTO 00000KT 1/2SM FG VV001 17/16 A2997 270 96 600 000/00 RMK AO2 $
63870K0J4 0J420160426011010504/26/16 01:10:31  5-MIN K0J4 260610Z AUTO 00000KT 1/4SM FG VV001 17/16 A2997 270 96 600 000/00 RMK AO2 $
63870K0J4 0J420160426011510504/26/16 01:15:31  5-MIN K0J4 260615Z AUTO 00000KT 1/4SM FG VV001 17/16 A2997 270 96 600 000/00 RMK AO2 $
63870K0J4 0J420160426012010604/26/16 01:20:31  5-MIN K0J4 260620Z AUTO 00000KT 1/4SM FG VV001 16/16 A2997 270 100 500 000/00 RMK AO2 $
63870K0J4 0J420160426012510504/26/16 01:25:31  5-MIN K0J4 260625Z AUTO 00000KT 1/4SM FG VV001 17/16 A2997 270 96 600 000/00 RMK AO2 $
63870K0J4 0J420160426013010504/26/16 01:30:31  5-MIN K0J4 260630Z AUTO 00000KT 1/4SM FG VV001 17/16 A2996 280 96 600 000/00 RMK AO2 $
63870K0J4 0J420160426013510504/26/16 01:35:31  5-MIN K0J4 260635Z AUTO 00000KT 1/4SM FG VV001 17/16 A2996 280 96 600 000/00 RMK AO2 $
63870K0J4 0J420160426014010504/26/16 01:40:31  5-MIN K0J4 260640Z AUTO 00000KT 1/4SM FG VV001 17/17 A2996 280 96 600 000/00 RMK AO2 $
63870K0J4 0J420160426014510604/26/16 01:45:31  5-MIN K0J4 260645Z AUTO 00000KT 1/4SM FG VV001 17/17 A2996 280 100 600 000/00 RMK AO2 $
63870K0J4 0J420160426015010504/26/16 01:50:31  5-MIN K0J4 260650Z AUTO 00000KT 1/4SM FG VV001 17/16 A2996 280 96 600 000/00 RMK AO2 $
63870K0J4 0J420160426015512304/26/16 01:55:31  5-MIN K0J4 260655Z AUTO 00000KT 1/4SM FG VV001 17/17 A2996 280 100 600 000/00 RMK AO2 SLP142 T01670167 $
63870K0J4 0J420160426020010504/26/16 02:00:31  5-MIN K0J4 260700Z AUTO 00000KT 1/4SM FG VV001 17/16 A2996 280 96 600 000/00 RMK AO2 $
63870K0J4 0J420160426020510604/26/16 02:05:31  5-MIN K0J4 260705Z AUTO 00000KT 1/4SM FG VV001 16/16 A2996 280 100 500 000/00 RMK AO2 $
63870K0J4 0J420160426021010604/26/16 02:10:31  5-MIN K0J4 260710Z AUTO 00000KT 1/2SM FG VV001 16/16 A2996 280 100 500 000/00 RMK AO2 $
63870K0J4 0J420160426021510604/26/16 02:15:31  5-MIN K0J4 260715Z AUTO 00000KT 1/2SM FG VV001 16/16 A2996 280 100 500 000/00 RMK AO2 $
63870K0J4 0J420160426022010504/26/16 02:20:31  5-MIN K0J4 260720Z AUTO 00000KT 1/4SM FG VV001 16/16 A2995 290 96 500 000/00 RMK AO2 $
63870K0J4 0J420160426022510504/26/16 02:25:31  5-MIN K0J4 260725Z AUTO 00000KT 1/2SM FG VV001 16/16 A2995 290 96 500 000/00 RMK AO2 $
63870K0J4 0J420160426023011304/26/16 02:30:31  5-MIN K0J4 260730Z AUTO 00000KT 1SM BR VV001 16/16 A2995 290 96 500 000/00 RMK AO2 VIS 1/4V5 $
63870K0J4 0J420160426023510404/26/16 02:35:31  5-MIN K0J4 260735Z AUTO 00000KT 3SM BR BKN001 16/15 A2995 290 96 500 000/00 RMK AO2 $
63870K0J4 0J420160426024011504/26/16 02:40:31  5-MIN K0J4 260740Z AUTO 00000KT 3/4SM BR VV001 16/15 A2995 290 96 500 000/00 RMK AO2 VIS 1/4V5 $
63870K0J4 0J420160426024510504/26/16 02:45:31  5-MIN K0J4 260745Z AUTO 00000KT 1/4SM FG VV001 17/16 A2995 290 96 600 000/00 RMK AO2 $
63870K0J4 0J420160426025010504/26/16 02:50:31  5-MIN K0J4 260750Z AUTO 00000KT 1/4SM FG VV001 17/16 A2995 290 96 600 000/00 RMK AO2 $
63870K0J4 0J420160426025512204/26/16 02:55:31  5-MIN K0J4 260755Z AUTO 00000KT 1/4SM FG VV001 16/16 A2994 290 96 500 000/00 RMK AO2 SLP136 T01610156 $
63870K0J4 0J420160426030010504/26/16 03:00:31  5-MIN K0J4 260800Z AUTO 00000KT 1/4SM FG VV001 16/16 A2994 290 96 500 000/00 RMK AO2 $
63870K0J4 0J420160426030510504/26/16 03:05:31  5-MIN K0J4 260805Z AUTO 00000KT 1/2SM FG VV001 16/16 A2994 300 96 500 000/00 RMK AO2 $
63870K0J4 0J420160426031010504/26/16 03:10:31  5-MIN K0J4 260810Z AUTO 00000KT 1/2SM FG VV001 16/16 A2994 300 96 500 000/00 RMK AO2 $
63870K0J4 0J420160426031510504/26/16 03:15:31  5-MIN K0J4 260815Z AUTO 00000KT 1/4SM FG VV001 17/16 A2994 300 96 600 000/00 RMK AO2 $
63870K0J4 0J420160426032010504/26/16 03:20:31  5-MIN K0J4 260820Z AUTO 00000KT 1/4SM FG VV001 17/16 A2994 300 96 600 000/00 RMK AO2 $
63870K0J4 0J420160426032510504/26/16 03:25:31  5-MIN K0J4 260825Z AUTO 00000KT 1/4SM FG VV001 17/16 A2994 300 96 600 000/00 RMK AO2 $
63870K0J4 0J420160426033010504/26/16 03:30:31  5-MIN K0J4 260830Z AUTO 00000KT 1/4SM FG VV001 17/16 A2994 300 96 600 000/00 RMK AO2 $
63870K0J4 0J420160426033510504/26/16 03:35:31  5-MIN K0J4 260835Z AUTO 00000KT 1/4SM FG VV001 17/16 A2994 290 96 600 000/00 RMK AO2 $
63870K0J4 0J420160426034010504/26/16 03:40:31  5-MIN K0J4 260840Z AUTO 00000KT 1/4SM FG VV001 17/16 A2994 300 96 600 000/00 RMK AO2 $
63870K0J4 0J420160426034510604/26/16 03:45:31  5-MIN K0J4 260845Z AUTO 15003KT 1/4SM FG VV002 17/17 A2994 300 100 600 150/03 RMK AO2 $
63870K0J4 0J420160426035010504/26/16 03:50:31  5-MIN K0J4 260850Z AUTO 00000KT 1/4SM FG VV002 17/17 A2994 300 96 700 000/00 RMK AO2 $
63870K0J4 0J420160426035512804/26/16 03:55:31  5-MIN K0J4 260855Z AUTO 00000KT 1/4SM FG VV001 17/17 A2994 300 96 700 000/00 RMK AO2 SLP135 T01720167 56005 $
63870K0J4 0J420160426040010504/26/16 04:00:31  5-MIN K0J4 260900Z AUTO 00000KT 1/4SM FG VV001 17/17 A2994 290 96 700 000/00 RMK AO2 $
63870K0J4 0J420160426040510504/26/16 04:05:31  5-MIN K0J4 260905Z AUTO 00000KT 1/4SM FG VV002 17/17 A2994 290 96 700 000/00 RMK AO2 $
63870K0J4 0J420160426041010504/26/16 04:10:31  5-MIN K0J4 260910Z AUTO 00000KT 1/4SM FG VV002 17/17 A2994 290 96 700 000/00 RMK AO2 $
63870K0J4 0J420160426041510504/26/16 04:15:31  5-MIN K0J4 260915Z AUTO 00000KT 1/4SM FG VV002 17/17 A2995 290 96 700 000/00 RMK AO2 $
63870K0J4 0J420160426042010604/26/16 04:20:31  5-MIN K0J4 260920Z AUTO 00000KT 1/4SM FG VV002 17/17 A2995 290 100 700 000/00 RMK AO2 $
63870K0J4 0J420160426042510604/26/16 04:25:31  5-MIN K0J4 260925Z AUTO 16003KT 1/4SM FG VV002 17/17 A2995 290 100 700 160/03 RMK AO2 $
63870K0J4 0J420160426043010604/26/16 04:30:31  5-MIN K0J4 260930Z AUTO 17003KT 1/4SM FG VV002 17/17 A2995 290 100 700 170/03 RMK AO2 $
63870K0J4 0J420160426043510604/26/16 04:35:31  5-MIN K0J4 260935Z AUTO 00000KT 1/4SM FG VV002 17/17 A2995 290 100 700 000/00 RMK AO2 $
63870K0J4 0J420160426044010504/26/16 04:40:31  5-MIN K0J4 260940Z AUTO 00000KT 1/4SM FG VV002 18/17 A2995 290 96 700 000/00 RMK AO2 $
63870K0J4 0J420160426044510504/26/16 04:45:31  5-MIN K0J4 260945Z AUTO 00000KT 1/4SM FG VV002 18/17 A2995 290 96 700 000/00 RMK AO2 $
63870K0J4 0J420160426045010504/26/16 04:50:31  5-MIN K0J4 260950Z AUTO 00000KT 1/2SM FG VV002 18/17 A2995 290 96 700 000/00 RMK AO2 $
63870K0J4 0J420160426045512304/26/16 04:55:31  5-MIN K0J4 260955Z AUTO 00000KT 1/2SM FG VV002 18/18 A2995 280 100 700 000/00 RMK AO2 SLP140 T01780178 $
63870K0J4 0J420160426050010604/26/16 05:00:31  5-MIN K0J4 261000Z AUTO 00000KT 1/2SM FG VV002 18/18 A2996 280 100 700 000/00 RMK AO2 $
63870K0J4 0J420160426050510604/26/16 05:05:31  5-MIN K0J4 261005Z AUTO 17003KT 1/2SM FG VV002 18/18 A2996 280 100 700 170/03 RMK AO2 $
63870K0J4 0J420160426051010604/26/16 05:10:31  5-MIN K0J4 261010Z AUTO 00000KT 3/4SM BR VV002 18/18 A2996 280 100 700 000/00 RMK AO2 $
63870K0J4 0J420160426051510704/26/16 05:15:31  5-MIN K0J4 261015Z AUTO 00000KT 3/4SM BR OVC001 18/18 A2996 280 100 700 000/00 RMK AO2 $
63870K0J4 0J420160426052010504/26/16 05:20:31  5-MIN K0J4 261020Z AUTO 00000KT 1SM BR OVC001 18/18 A2996 280 100 700 000/00 RMK AO2 $
63870K0J4 0J420160426052510904/26/16 05:25:31  5-MIN K0J4 261025Z AUTO 00000KT 1 1/4SM BR OVC001 18/18 A2996 280 100 700 000/00 RMK AO2 $
63870K0J4 0J420160426053010904/26/16 05:30:31  5-MIN K0J4 261030Z AUTO 16003KT 1 1/4SM BR OVC001 18/18 A2997 270 100 700 160/03 RMK AO2 $
63870K0J4 0J420160426053510504/26/16 05:35:31  5-MIN K0J4 261035Z AUTO 00000KT 1SM BR OVC001 18/18 A2997 270 100 700 000/00 RMK AO2 $
63870K0J4 0J420160426054010704/26/16 05:40:31  5-MIN K0J4 261040Z AUTO 00000KT 3/4SM BR OVC001 18/18 A2997 270 100 700 000/00 RMK AO2 $
63870K0J4 0J420160426054510504/26/16 05:45:31  5-MIN K0J4 261045Z AUTO 00000KT 1/2SM FG VV002 18/17 A2997 270 96 700 000/00 RMK AO2 $
63870K0J4 0J420160426055010604/26/16 05:50:31  5-MIN K0J4 261050Z AUTO 00000KT 1/2SM FG VV002 18/18 A2997 270 100 700 000/00 RMK AO2 $
63870K0J4 0J420160426055512304/26/16 05:55:31  5-MIN K0J4 261055Z AUTO 00000KT 1/2SM FG VV002 18/18 A2997 270 100 700 000/00 RMK AO2 SLP146 T01780178 $
63870K0J4 0J420160426060010604/26/16 06:00:31  5-MIN K0J4 261100Z AUTO 13003KT 1/2SM FG VV002 18/18 A2997 270 100 700 130/03 RMK AO2 $
63870K0J4 0J420160426060510604/26/16 06:05:31  5-MIN K0J4 261105Z AUTO 00000KT 1/2SM FG VV002 18/18 A2997 270 100 700 000/00 RMK AO2 $
63870K0J4 0J420160426061010604/26/16 06:10:31  5-MIN K0J4 261110Z AUTO VRB03KT 1/2SM FG VV002 18/18 A2997 270 100 700 VRB/03 RMK AO2 $
63870K0J4 0J420160426061510404/26/16 06:15:31  5-MIN K0J4 261115Z AUTO 15003KT 1SM BR OVC002 18/17 A2997 270 96 700 150/03 RMK AO2 $
63870K0J4 0J420160426062010804/26/16 06:20:31  5-MIN K0J4 261120Z AUTO 00000KT 1 3/4SM BR OVC002 18/17 A2997 270 96 700 000/00 RMK AO2 $
63870K0J4 0J420160426062510804/26/16 06:25:31  5-MIN K0J4 261125Z AUTO 16003KT 2 1/2SM BR OVC002 18/17 A2997 270 96 700 160/03 RMK AO2 $
63870K0J4 0J420160426063010804/26/16 06:30:31  5-MIN K0J4 261130Z AUTO 00000KT 2 1/2SM BR OVC002 18/17 A2997 270 96 700 000/00 RMK AO2 $
63870K0J4 0J420160426063510804/26/16 06:35:31  5-MIN K0J4 261135Z AUTO 15003KT 2 1/2SM BR OVC002 18/17 A2998 270 96 700 150/03 RMK AO2 $
63870K0J4 0J420160426064010404/26/16 06:40:31  5-MIN K0J4 261140Z AUTO 16004KT 3SM BR OVC002 18/17 A2998 260 96 700 160/04 RMK AO2 $
63870K0J4 0J420160426064510404/26/16 06:45:31  5-MIN K0J4 261145Z AUTO 00000KT 3SM BR OVC002 18/17 A2998 260 96 700 000/00 RMK AO2 $
63870K0J4 0J420160426065010404/26/16 06:50:31  5-MIN K0J4 261150Z AUTO 15003KT 4SM BR OVC002 18/17 A2998 260 96 700 150/03 RMK AO2 $
63870K0J4 0J420160426065513904/26/16 06:55:31  5-MIN K0J4 261155Z AUTO 14003KT 4SM BR OVC002 18/17 A2998 260 96 700 140/03 RMK AO2 SLP150 T01780172 10178 20156 56011 $
63870K0J4 0J420160426070010504/26/16 07:00:31  5-MIN K0J4 261200Z AUTO 00000KT 4SM BR OVC002 18/18 A2999 250 100 700 000/00 RMK AO2 $
63870K0J4 0J420160426070510404/26/16 07:05:31  5-MIN K0J4 261205Z AUTO 16004KT 4SM BR OVC002 18/17 A2999 250 96 700 160/04 RMK AO2 $
63870K0J4 0J420160426071010404/26/16 07:10:31  5-MIN K0J4 261210Z AUTO 15003KT 5SM BR OVC002 18/17 A2999 250 96 700 150/03 RMK AO2 $
63870K0J4 0J420160426071510404/26/16 07:15:31  5-MIN K0J4 261215Z AUTO 14003KT 5SM BR OVC002 18/17 A2999 250 96 700 140/03 RMK AO2 $
63870K0J4 0J420160426072010404/26/16 07:20:31  5-MIN K0J4 261220Z AUTO 15003KT 6SM BR OVC002 18/17 A2999 250 96 700 150/03 RMK AO2 $
63870K0J4 0J420160426072510504/26/16 07:25:31  5-MIN K0J4 261225Z AUTO 00000KT 5SM BR OVC002 18/18 A2999 250 100 700 000/00 RMK AO2 $
63870K0J4 0J420160426073010504/26/16 07:30:31  5-MIN K0J4 261230Z AUTO 00000KT 6SM BR OVC002 18/18 A2999 250 100 700 000/00 RMK AO2 $
63870K0J4 0J420160426073510504/26/16 07:35:31  5-MIN K0J4 261235Z AUTO 17003KT 6SM BR OVC002 18/18 A2999 250 100 700 170/03 RMK AO2 $
63870K0J4 0J420160426074010104/26/16 07:40:31  5-MIN K0J4 261240Z AUTO 10003KT 7SM OVC002 18/18 A2999 250 96 700 100/03 RMK AO2 $
63870K0J4 0J420160426074510104/26/16 07:45:31  5-MIN K0J4 261245Z AUTO 09003KT 7SM OVC002 18/18 A2999 250 96 700 090/03 RMK AO2 $
63870K0J4 0J420160426075010104/26/16 07:50:31  5-MIN K0J4 261250Z AUTO 13003KT 7SM OVC002 18/18 A3000 240 96 700 130/03 RMK AO2 $
63870K0J4 0J420160426075511804/26/16 07:55:31  5-MIN K0J4 261255Z AUTO 00000KT 8SM OVC002 18/18 A3000 240 96 700 000/00 RMK AO2 SLP154 T01830178 $
63870K0J4 0J420160426080010104/26/16 08:00:31  5-MIN K0J4 261300Z AUTO 15003KT 9SM OVC002 18/18 A3000 240 96 700 150/03 RMK AO2 $
63870K0J4 0J420160426080510204/26/16 08:05:31  5-MIN K0J4 261305Z AUTO 13003KT 10SM OVC002 18/18 A3000 240 96 700 130/03 RMK AO2 $
63870K0J4 0J420160426081010204/26/16 08:10:31  5-MIN K0J4 261310Z AUTO 12003KT 10SM OVC002 18/18 A3000 240 96 700 120/03 RMK AO2 $
63870K0J4 0J420160426081510204/26/16 08:15:31  5-MIN K0J4 261315Z AUTO 10004KT 10SM OVC002 18/18 A3000 240 96 700 100/04 RMK AO2 $
63870K0J4 0J420160426082010204/26/16 08:20:31  5-MIN K0J4 261320Z AUTO 00000KT 10SM OVC004 19/18 A3000 240 93 800 000/00 RMK AO2 $
63870K0J4 0J420160426082510204/26/16 08:25:31  5-MIN K0J4 261325Z AUTO 07005KT 10SM OVC004 19/18 A3000 240 93 800 070/05 RMK AO2 $
63870K0J4 0J420160426083010204/26/16 08:30:31  5-MIN K0J4 261330Z AUTO VRB05KT 10SM OVC004 19/18 A3001 240 93 800 VRB/05 RMK AO2 $
63870K0J4 0J420160426083510204/26/16 08:35:31  5-MIN K0J4 261335Z AUTO VRB03KT 10SM OVC004 19/18 A3000 240 90 900 VRB/03 RMK AO2 $
63870K0J4 0J420160426084010204/26/16 08:40:31  5-MIN K0J4 261340Z AUTO 11005KT 10SM OVC004 19/18 A3001 240 90 900 110/05 RMK AO2 $
63870K0J4 0J420160426084511404/26/16 08:45:31  5-MIN K0J4 261345Z AUTO 09005KT 10SM OVC004 19/18 A3001 240 90 900 090/05 RMK AO2 CIG 003V007 $
63870K0J4 0J420160426085011404/26/16 08:50:31  5-MIN K0J4 261350Z AUTO 09005KT 10SM OVC004 20/18 A3001 230 87 900 090/05 RMK AO2 CIG 003V007 $
63870K0J4 0J420160426085511404/26/16 08:55:31  5-MIN K0J4 261355Z AUTO 08005KT 10SM OVC006 20/18 A3002 230 87 900 080/05 RMK AO2 CIG 004V008 $
63870K0J4 0J420160426090011504/26/16 09:00:31  5-MIN K0J4 261400Z AUTO 11005KT 10SM OVC006 21/18 A3002 220 84 1000 110/05 RMK AO2 CIG 005V008 $
63870K0J4 0J420160426090511504/26/16 09:05:31  5-MIN K0J4 261405Z AUTO 10003KT 10SM OVC006 21/18 A3002 220 84 1000 100/03 RMK AO2 CIG 005V008 $
63870K0J4 0J420160426091011504/26/16 09:10:31  5-MIN K0J4 261410Z AUTO VRB04KT 10SM OVC006 21/18 A3002 220 84 1000 VRB/04 RMK AO2 CIG 005V009 $
63870K0J4 0J420160426091511504/26/16 09:15:31  5-MIN K0J4 261415Z AUTO 11005KT 10SM OVC008 22/18 A3002 220 81 1100 110/05 RMK AO2 CIG 006V010 $
63870K0J4 0J420160426092011504/26/16 09:20:31  5-MIN K0J4 261420Z AUTO 09004KT 10SM OVC008 21/18 A3002 220 81 1000 090/04 RMK AO2 CIG 007V010 $
63870K0J4 0J420160426092511504/26/16 09:25:31  5-MIN K0J4 261425Z AUTO 10004KT 10SM OVC008 22/18 A3002 220 78 1100 100/04 RMK AO2 CIG 007V010 $
63870K0J4 0J420160426093010304/26/16 09:30:31  5-MIN K0J4 261430Z AUTO 15004KT 10SM BKN008 22/18 A3002 230 78 1100 150/04 RMK AO2 $
63870K0J4 0J420160426093511504/26/16 09:35:31  5-MIN K0J4 261435Z AUTO VRB04KT 10SM BKN010 22/18 A3002 230 78 1100 VRB/04 RMK AO2 CIG 008V013 $
63870K0J4 0J420160426094010304/26/16 09:40:31  5-MIN K0J4 261440Z AUTO 12004KT 10SM BKN010 22/18 A3002 230 78 1200 120/04 RMK AO2 $
63870K0J4 0J420160426094510304/26/16 09:45:31  5-MIN K0J4 261445Z AUTO VRB03KT 10SM BKN010 22/18 A3002 230 78 1200 VRB/03 RMK AO2 $
63870K0J4 0J420160426095010304/26/16 09:50:31  5-MIN K0J4 261450Z AUTO 11004KT 10SM BKN012 22/18 A3002 230 78 1200 110/04 RMK AO2 $
63870K0J4 0J420160426095512604/26/16 09:55:31  5-MIN K0J4 261455Z AUTO 09006KT 10SM BKN012 23/18 A3002 230 76 1200 090/06 RMK AO2 SLP162 T02280183 53015 $
63870K0J4 0J420160426100010304/26/16 10:00:31  5-MIN K0J4 261500Z AUTO 09005KT 10SM BKN014 23/19 A3002 230 76 1300 090/05 RMK AO2 $
63870K0J4 0J420160426100510304/26/16 10:05:31  5-MIN K0J4 261505Z AUTO 08006KT 10SM BKN014 23/18 A3002 230 73 1300 080/06 RMK AO2 $
63870K0J4 0J420160426101010304/26/16 10:10:31  5-MIN K0J4 261510Z AUTO VRB04KT 10SM BKN014 24/18 A3002 220 71 1300 VRB/04 RMK AO2 $
63870K0J4 0J420160426101510304/26/16 10:15:31  5-MIN K0J4 261515Z AUTO 15004KT 10SM BKN014 23/18 A3002 220 73 1300 150/04 RMK AO2 $
63870K0J4 0J420160426102011904/26/16 10:20:31  5-MIN K0J4 261520Z AUTO 09007KT 070V190 10SM BKN014 23/18 A3002 220 73 1300 090/07 070V190 RMK AO2 $
63870K0J4 0J420160426102510304/26/16 10:25:31  5-MIN K0J4 261525Z AUTO 08004KT 10SM BKN016 23/18 A3002 230 76 1200 080/04 RMK AO2 $
63870K0J4 0J420160426103011904/26/16 10:30:31  5-MIN K0J4 261530Z AUTO 09007KT 060V140 10SM BKN016 23/18 A3002 230 73 1300 090/07 060V140 RMK AO2 $
63870K0J4 0J420160426103510304/26/16 10:35:31  5-MIN K0J4 261535Z AUTO 08006KT 10SM BKN016 24/18 A3002 220 71 1300 080/06 RMK AO2 $
63870K0J4 0J420160426104011004/26/16 10:40:31  5-MIN K0J4 261540Z AUTO 00000KT 10SM BKN016 BKN023 23/18 A3002 230 73 1300 000/00 RMK AO2 $
63870K0J4 0J420160426104511004/26/16 10:45:31  5-MIN K0J4 261545Z AUTO VRB04KT 10SM SCT016 BKN023 24/18 A3002 230 71 1400 VRB/04 RMK AO2 $
63870K0J4 0J420160426105011004/26/16 10:50:31  5-MIN K0J4 261550Z AUTO VRB05KT 10SM BKN017 BKN023 23/18 A3002 230 73 1300 VRB/05 RMK AO2 $
63870K0J4 0J420160426105512704/26/16 10:55:31  5-MIN K0J4 261555Z AUTO 00000KT 10SM BKN019 BKN023 24/18 A3002 230 71 1400 000/00 RMK AO2 SLP160 T02390183 $
63870K0J4 0J420160426110010304/26/16 11:00:31  5-MIN K0J4 261600Z AUTO 08005KT 10SM BKN021 24/18 A3002 230 71 1400 080/05 RMK AO2 $
63870K0J4 0J420160426110511704/26/16 11:05:31  5-MIN K0J4 261605Z AUTO VRB04KT 10SM BKN021 BKN025 OVC033 24/18 A3001 230 68 1400 VRB/04 RMK AO2 $
63870K0J4 0J420160426111011004/26/16 11:10:31  5-MIN K0J4 261610Z AUTO 00000KT 10SM BKN021 BKN025 24/18 A3001 230 68 1400 000/00 RMK AO2 $
63870K0J4 0J420160426111511004/26/16 11:15:31  5-MIN K0J4 261615Z AUTO VRB04KT 10SM BKN021 BKN025 25/18 A3001 230 66 1500 VRB/04 RMK AO2 $
63870K0J4 0J420160426112010304/26/16 11:20:31  5-MIN K0J4 261620Z AUTO VRB05KT 10SM BKN021 24/18 A3001 230 66 1400 VRB/05 RMK AO2 $
63870K0J4 0J420160426112511004/26/16 11:25:31  5-MIN K0J4 261625Z AUTO 00000KT 10SM SCT021 SCT047 25/18 A3001 230 66 1500 000/00 RMK AO2 $
63870K0J4 0J420160426113011004/26/16 11:30:31  5-MIN K0J4 261630Z AUTO VRB06KT 10SM FEW021 SCT045 26/18 A3001 240 62 1600 VRB/06 RMK AO2 $
63870K0J4 0J420160426113511004/26/16 11:35:31  5-MIN K0J4 261635Z AUTO 00000KT 10SM FEW021 BKN045 25/17 A3000 240 61 1500 000/00 RMK AO2 $
63870K0J4 0J420160426114011704/26/16 11:40:31  5-MIN K0J4 261640Z AUTO 00000KT 10SM FEW021 SCT030 SCT047 26/17 A3000 240 57 1600 000/00 RMK AO2 $
63870K0J4 0J420160426114511004/26/16 11:45:31  5-MIN K0J4 261645Z AUTO VRB04KT 10SM SCT030 BKN047 25/17 A3000 240 61 1500 VRB/04 RMK AO2 $
63870K0J4 0J420160426115011004/26/16 11:50:31  5-MIN K0J4 261650Z AUTO VRB05KT 10SM SCT030 BKN047 26/17 A3000 240 57 1600 VRB/05 RMK AO2 $
63870K0J4 0J420160426115512704/26/16 11:55:31  5-MIN K0J4 261655Z AUTO 16006KT 10SM SCT030 SCT045 26/17 A3000 250 57 1600 160/06 RMK AO2 SLP154 T02560167 $
63870K0J4 0J420160426120010304/26/16 12:00:31  5-MIN K0J4 261700Z AUTO VRB03KT 10SM SCT030 26/17 A2999 250 57 1600 VRB/03 RMK AO2 $
63870K0J4 0J420160426120510104/26/16 12:05:31  5-MIN K0J4 261705Z AUTO 19007KT 10SM SCT030 26/17 A2999 250 55 1600 190/07 RMK AO2
63870K0J4 0J420160426121010104/26/16 12:10:31  5-MIN K0J4 261710Z AUTO VRB04KT 10SM FEW030 26/16 A2999 250 53 1600 VRB/04 RMK AO2
63870K0J4 0J420160426121510104/26/16 12:15:31  5-MIN K0J4 261715Z AUTO 14006KT 10SM FEW030 27/17 A2999 250 53 1700 140/06 RMK AO2
63870K0J4 0J420160426122010104/26/16 12:20:31  5-MIN K0J4 261720Z AUTO 17004KT 10SM FEW033 26/17 A2999 250 59 1600 170/04 RMK AO2
63870K0J4 0J420160426122510104/26/16 12:25:31  5-MIN K0J4 261725Z AUTO VRB05KT 10SM FEW036 26/17 A2999 260 57 1600 VRB/05 RMK AO2
63870K0J4 0J420160426123010104/26/16 12:30:31  5-MIN K0J4 261730Z AUTO VRB04KT 10SM FEW034 26/16 A2998 260 53 1600 VRB/04 RMK AO2
63870K0J4 0J420160426123510104/26/16 12:35:31  5-MIN K0J4 261735Z AUTO VRB05KT 10SM FEW038 27/17 A2998 260 53 1700 VRB/05 RMK AO2
63870K0J4 0J420160426124010104/26/16 12:40:31  5-MIN K0J4 261740Z AUTO 11007KT 10SM FEW038 27/17 A2998 270 53 1700 110/07 RMK AO2
63870K0J4 0J420160426124510104/26/16 12:45:31  5-MIN K0J4 261745Z AUTO 16007KT 10SM FEW038 27/17 A2997 270 53 1700 160/07 RMK AO2
63870K0J4 0J420160426125010104/26/16 12:50:31  5-MIN K0J4 261750Z AUTO 00000KT 10SM FEW055 26/17 A2997 270 55 1700 000/00 RMK AO2
63870K0J4 0J420160426125513304/26/16 12:55:31  5-MIN K0J4 261755Z AUTO VRB03KT 10SM CLR 27/16 A2997 270 52 1700 VRB/03 RMK AO2 SLP145 T02670161 10267 20178 51011
63870K0J4 0J420160426130011404/26/16 13:00:31  5-MIN K0J4 261800Z AUTO 19007KT 110V230 10SM CLR 27/16 A2997 270 50 1800 190/07 110V230 RMK AO2
63870K0J4 0J420160426130510104/26/16 13:05:31  5-MIN K0J4 261805Z AUTO VRB03KT 10SM FEW037 27/16 A2997 270 50 1800 VRB/03 RMK AO2
63870K0J4 0J420160426131010104/26/16 13:10:31  5-MIN K0J4 261810Z AUTO 12006KT 10SM FEW040 27/17 A2997 270 54 1800 120/06 RMK AO2
63870K0J4 0J420160426131510104/26/16 13:15:31  5-MIN K0J4 261815Z AUTO 11004KT 10SM SCT040 26/17 A2997 270 55 1700 110/04 RMK AO2
63870K0J4 0J420160426132010804/26/16 13:20:31  5-MIN K0J4 261820Z AUTO 13005KT 10SM SCT040 SCT050 26/17 A2997 270 55 1700 130/05 RMK AO2
63870K0J4 0J420160426132510804/26/16 13:25:31  5-MIN K0J4 261825Z AUTO 13004KT 10SM FEW040 SCT050 26/16 A2997 270 53 1700 130/04 RMK AO2
63870K0J4 0J420160426133010804/26/16 13:30:31  5-MIN K0J4 261830Z AUTO 13004KT 10SM FEW040 SCT055 26/16 A2996 280 51 1700 130/04 RMK AO2
63870K0J4 0J420160426133511504/26/16 13:35:31  5-MIN K0J4 261835Z AUTO 17005KT 10SM SCT042 SCT050 BKN060 26/15 A2996 280 50 1700 170/05 RMK AO2
63870K0J4 0J420160426134010804/26/16 13:40:31  5-MIN K0J4 261840Z AUTO 13004KT 10SM SCT043 BKN055 26/16 A2996 280 51 1700 130/04 RMK AO2
63870K0J4 0J420160426134510804/26/16 13:45:31  5-MIN K0J4 261845Z AUTO 19004KT 10SM SCT048 SCT060 27/16 A2996 280 48 1800 190/04 RMK AO2
63870K0J4 0J420160426135010804/26/16 13:50:31  5-MIN K0J4 261850Z AUTO 22004KT 10SM FEW045 SCT055 27/14 A2996 280 45 1800 220/04 RMK AO2
63870K0J4 0J420160426135512504/26/16 13:55:31  5-MIN K0J4 261855Z AUTO VRB06KT 10SM FEW045 SCT055 28/16 A2996 280 46 1900 VRB/06 RMK AO2 SLP140 T02780156
63870K0J4 0J420160426140010104/26/16 14:00:31  5-MIN K0J4 261900Z AUTO VRB04KT 10SM FEW045 27/14 A2995 290 45 1800 VRB/04 RMK AO2
63870K0J4 0J420160426140509804/26/16 14:05:31  5-MIN K0J4 261905Z AUTO 18006KT 10SM CLR 27/15 A2995 290 46 1800 180/06 RMK AO2
63870K0J4 0J420160426141009804/26/16 14:10:31  5-MIN K0J4 261910Z AUTO VRB03KT 10SM CLR 28/15 A2995 290 45 1900 VRB/03 RMK AO2
63870K0J4 0J420160426141510104/26/16 14:15:31  5-MIN K0J4 261915Z AUTO 10006KT 10SM FEW048 28/16 A2995 290 48 1900 100/06 RMK AO2
63870K0J4 0J420160426142010804/26/16 14:20:31  5-MIN K0J4 261920Z AUTO 10005KT 10SM SCT048 SCT065 28/16 A2994 300 46 1900 100/05 RMK AO2
63870K0J4 0J420160426142510104/26/16 14:25:31  5-MIN K0J4 261925Z AUTO 11006KT 10SM SCT048 28/16 A2994 300 45 1900 110/06 RMK AO2
63870K0J4 0J420160426143010104/26/16 14:30:31  5-MIN K0J4 261930Z AUTO 12005KT 10SM SCT048 28/16 A2994 300 46 1900 120/05 RMK AO2
63870K0J4 0J420160426143510104/26/16 14:35:31  5-MIN K0J4 261935Z AUTO 14006KT 10SM SCT048 27/15 A2993 300 46 1800 140/06 RMK AO2
63870K0J4 0J420160426144010104/26/16 14:40:31  5-MIN K0J4 261940Z AUTO VRB05KT 10SM SCT048 27/15 A2993 310 46 1800 VRB/05 RMK AO2
63870K0J4 0J420160426144510104/26/16 14:45:31  5-MIN K0J4 261945Z AUTO VRB04KT 10SM FEW048 28/15 A2993 310 45 1900 VRB/04 RMK AO2
63870K0J4 0J420160426145010104/26/16 14:50:31  5-MIN K0J4 261950Z AUTO 17007KT 10SM FEW048 28/14 A2993 310 42 2000 170/07 RMK AO2
63870K0J4 0J420160426145511804/26/16 14:55:31  5-MIN K0J4 261955Z AUTO VRB04KT 10SM FEW050 28/14 A2993 310 42 2000 VRB/04 RMK AO2 SLP130 T02830144
63870K0J4 0J420160426150010104/26/16 15:00:31  5-MIN K0J4 262000Z AUTO 15003KT 10SM FEW070 28/14 A2993 310 43 1900 150/03 RMK AO2
63870K0J4 0J420160426150510104/26/16 15:05:31  5-MIN K0J4 262005Z AUTO 18003KT 10SM SCT065 27/14 A2992 310 43 1800 180/03 RMK AO2
63870K0J4 0J420160426151010104/26/16 15:10:31  5-MIN K0J4 262010Z AUTO 00000KT 10SM BKN065 28/15 A2992 310 45 1900 000/00 RMK AO2
63870K0J4 0J420160426151510104/26/16 15:15:31  5-MIN K0J4 262015Z AUTO 18003KT 10SM BKN060 27/14 A2992 310 45 1800 180/03 RMK AO2
63870K0J4 0J420160426152010804/26/16 15:20:31  5-MIN K0J4 262020Z AUTO 15004KT 10SM SCT055 BKN065 27/16 A2992 310 48 1800 150/04 RMK AO2
63870K0J4 0J420160426152510804/26/16 15:25:31  5-MIN K0J4 262025Z AUTO 13003KT 10SM SCT055 OVC065 27/15 A2992 310 46 1800 130/03 RMK AO2
63870K0J4 0J420160426153010804/26/16 15:30:31  5-MIN K0J4 262030Z AUTO 13003KT 10SM FEW055 OVC070 28/15 A2992 310 45 1900 130/03 RMK AO2
63870K0J4 0J420160426153510804/26/16 15:35:31  5-MIN K0J4 262035Z AUTO 17006KT 10SM FEW055 OVC070 28/15 A2992 320 45 1900 170/06 RMK AO2
63870K0J4 0J420160426154010804/26/16 15:40:31  5-MIN K0J4 262040Z AUTO 21005KT 10SM FEW055 OVC070 27/15 A2991 320 46 1800 210/05 RMK AO2
63870K0J4 0J420160426154510804/26/16 15:45:31  5-MIN K0J4 262045Z AUTO 19005KT 10SM FEW055 OVC070 27/15 A2991 320 46 1800 190/05 RMK AO2
63870K0J4 0J420160426155010104/26/16 15:50:31  5-MIN K0J4 262050Z AUTO 17006KT 10SM OVC070 28/15 A2991 320 45 1900 170/06 RMK AO2
63870K0J4 0J420160426155512404/26/16 15:55:31  5-MIN K0J4 262055Z AUTO 17005KT 10SM OVC070 27/15 A2991 330 46 1800 170/05 RMK AO2 SLP124 T02720150 58017
63870K0J4 0J420160426160010104/26/16 16:00:31  5-MIN K0J4 262100Z AUTO 14003KT 10SM OVC070 28/14 A2991 330 43 1900 140/03 RMK AO2
63870K0J4 0J420160426160510804/26/16 16:05:31  5-MIN K0J4 262105Z AUTO 16003KT 10SM FEW050 BKN070 28/16 A2991 330 46 1900 160/03 RMK AO2
63870K0J4 0J420160426161010804/26/16 16:10:31  5-MIN K0J4 262110Z AUTO VRB03KT 10SM FEW050 BKN070 28/16 A2991 330 45 2000 VRB/03 RMK AO2
63870K0J4 0J420160426161510804/26/16 16:15:31  5-MIN K0J4 262115Z AUTO VRB03KT 10SM FEW050 BKN070 28/15 A2990 330 45 1900 VRB/03 RMK AO2
63870K0J4 0J420160426162010804/26/16 16:20:31  5-MIN K0J4 262120Z AUTO 15004KT 10SM SCT050 BKN070 27/16 A2990 330 48 1900 150/04 RMK AO2
63870K0J4 0J420160426162510804/26/16 16:25:31  5-MIN K0J4 262125Z AUTO 19006KT 10SM SCT050 BKN070 28/15 A2990 330 45 1900 190/06 RMK AO2
63870K0J4 0J420160426163010804/26/16 16:30:31  5-MIN K0J4 262130Z AUTO 17005KT 10SM FEW055 BKN070 28/15 A2990 330 45 1900 170/05 RMK AO2
63870K0J4 0J420160426163510804/26/16 16:35:31  5-MIN K0J4 262135Z AUTO 17004KT 10SM FEW055 BKN070 27/16 A2990 330 48 1900 170/04 RMK AO2
63870K0J4 0J420160426164010804/26/16 16:40:31  5-MIN K0J4 262140Z AUTO 17003KT 10SM FEW050 BKN070 27/16 A2990 330 48 1900 170/03 RMK AO2
63870K0J4 0J420160426164510804/26/16 16:45:31  5-MIN K0J4 262145Z AUTO 18003KT 10SM FEW055 BKN070 28/15 A2990 340 45 1900 180/03 RMK AO2
63870K0J4 0J420160426165010104/26/16 16:50:31  5-MIN K0J4 262150Z AUTO 20003KT 10SM BKN070 28/14 A2990 340 43 1900 200/03 RMK AO2
63870K0J4 0J420160426165511804/26/16 16:55:31  5-MIN K0J4 262155Z AUTO 00000KT 10SM SCT070 28/14 A2990 340 43 1900 000/00 RMK AO2 SLP121 T02780144
63870K0J4 0J420160426170010104/26/16 17:00:31  5-MIN K0J4 262200Z AUTO 00000KT 10SM FEW070 28/14 A2990 340 43 1900 000/00 RMK AO2
63870K0J4 0J420160426170510104/26/16 17:05:31  5-MIN K0J4 262205Z AUTO VRB05KT 10SM FEW070 28/15 A2990 340 43 2000 VRB/05 RMK AO2
63870K0J4 0J420160426171010104/26/16 17:10:31  5-MIN K0J4 262210Z AUTO 19008KT 10SM FEW070 28/15 A2989 340 45 1900 190/08 RMK AO2
63870K0J4 0J420160426171510104/26/16 17:15:31  5-MIN K0J4 262215Z AUTO 21005KT 10SM FEW070 28/15 A2989 340 45 1900 210/05 RMK AO2
63870K0J4 0J420160426172009804/26/16 17:20:31  5-MIN K0J4 262220Z AUTO 21008KT 10SM CLR 28/15 A2989 340 45 1900 210/08 RMK AO2
63870K0J4 0J420160426172509804/26/16 17:25:31  5-MIN K0J4 262225Z AUTO 21006KT 10SM CLR 28/16 A2989 340 46 1900 210/06 RMK AO2
63870K0J4 0J420160426173009804/26/16 17:30:31  5-MIN K0J4 262230Z AUTO 21006KT 10SM CLR 27/15 A2989 340 46 1900 210/06 RMK AO2
63870K0J4 0J420160426173509804/26/16 17:35:31  5-MIN K0J4 262235Z AUTO 19007KT 10SM CLR 28/16 A2989 340 46 1900 190/07 RMK AO2
63870K0J4 0J420160426174009804/26/16 17:40:31  5-MIN K0J4 262240Z AUTO 21006KT 10SM CLR 28/16 A2989 340 46 1900 210/06 RMK AO2
63870K0J4 0J420160426174509804/26/16 17:45:31  5-MIN K0J4 262245Z AUTO 19005KT 10SM CLR 27/16 A2989 340 48 1900 190/05 RMK AO2
63870K0J4 0J420160426175009804/26/16 17:50:31  5-MIN K0J4 262250Z AUTO 20006KT 10SM CLR 27/16 A2989 340 48 1900 200/06 RMK AO2
63870K0J4 0J420160426175511804/26/16 17:55:31  5-MIN K0J4 262255Z AUTO 20004KT 10SM FEW070 27/16 A2989 340 48 1900 200/04 RMK AO2 SLP119 T02720156
63870K0J4 0J420160426180010104/26/16 18:00:31  5-MIN K0J4 262300Z AUTO 21005KT 10SM FEW070 27/16 A2989 340 48 1900 210/05 RMK AO2
63870K0J4 0J420160426180509804/26/16 18:05:31  5-MIN K0J4 262305Z AUTO 20006KT 10SM CLR 27/16 A2989 350 48 1900 200/06 RMK AO2
63870K0J4 0J420160426181010104/26/16 18:10:31  5-MIN K0J4 262310Z AUTO 20005KT 10SM FEW070 27/16 A2989 350 48 1900 200/05 RMK AO2
63870K0J4 0J420160426181510104/26/16 18:15:31  5-MIN K0J4 262315Z AUTO 21006KT 10SM SCT070 27/16 A2988 350 48 1900 210/06 RMK AO2
63870K0J4 0J420160426182010104/26/16 18:20:31  5-MIN K0J4 262320Z AUTO 22004KT 10SM SCT070 27/16 A2989 350 50 1800 220/04 RMK AO2
63870K0J4 0J420160426182510104/26/16 18:25:31  5-MIN K0J4 262325Z AUTO 22004KT 10SM BKN070 27/16 A2989 350 50 1800 220/04 RMK AO2
63870K0J4 0J420160426183010104/26/16 18:30:31  5-MIN K0J4 262330Z AUTO 21005KT 10SM BKN070 27/16 A2989 340 50 1800 210/05 RMK AO2
63870K0J4 0J420160426183511404/26/16 18:35:31  5-MIN K0J4 262335Z AUTO 22009G14KT 10SM FEW055 BKN070 26/16 A2989 340 51 1700 220/09G14 RMK AO2
63870K0J4 0J420160426184011404/26/16 18:40:31  5-MIN K0J4 262340Z AUTO 21010G14KT 10SM FEW055 BKN070 26/16 A2989 340 53 1700 210/10G14 RMK AO2
63870K0J4 0J420160426184510104/26/16 18:45:31  5-MIN K0J4 262345Z AUTO 21007KT 10SM SCT070 26/16 A2990 340 53 1700 210/07 RMK AO2
63870K0J4 0J420160426185010104/26/16 18:50:31  5-MIN K0J4 262350Z AUTO 21008KT 10SM FEW070 25/16 A2989 340 57 1600 210/08 RMK AO2
63870K0J4 0J420160426185513604/26/16 18:55:31  5-MIN K0J4 262355Z AUTO 20007KT 10SM FEW070 25/16 A2989 340 55 1600 200/07 RMK AO2 SLP119 T02500156 10289 20250 58020
63870K0J4 0J420160426190009804/26/16 19:00:31  5-MIN K0J4 270000Z AUTO 20007KT 10SM CLR 25/16 A2989 340 55 1600 200/07 RMK AO2
63870K0J4 0J420160426190509804/26/16 19:05:31  5-MIN K0J4 270005Z AUTO 20008KT 10SM CLR 25/15 A2989 340 53 1600 200/08 RMK AO2
63870K0J4 0J420160426191009804/26/16 19:10:31  5-MIN K0J4 270010Z AUTO 19008KT 10SM CLR 25/15 A2989 340 53 1600 190/08 RMK AO2
63870K0J4 0J420160426191509804/26/16 19:15:31  5-MIN K0J4 270015Z AUTO 19006KT 10SM CLR 24/15 A2989 340 55 1600 190/06 RMK AO2
63870K0J4 0J420160426192009804/26/16 19:20:31  5-MIN K0J4 270020Z AUTO 19005KT 10SM CLR 24/15 A2989 340 57 1500 190/05 RMK AO2
63870K0J4 0J420160426192509804/26/16 19:25:31  5-MIN K0J4 270025Z AUTO 19003KT 10SM CLR 23/15 A2989 350 59 1400 190/03 RMK AO2
63870K0J4 0J420160426193009804/26/16 19:30:31  5-MIN K0J4 270030Z AUTO 19003KT 10SM CLR 23/15 A2989 350 59 1400 190/03 RMK AO2
63870K0J4 0J420160426193509804/26/16 19:35:31  5-MIN K0J4 270035Z AUTO 20003KT 10SM CLR 23/15 A2989 350 61 1400 200/03 RMK AO2
63870K0J4 0J420160426194009804/26/16 19:40:31  5-MIN K0J4 270040Z AUTO 21003KT 10SM CLR 23/15 A2989 350 61 1400 210/03 RMK AO2
63870K0J4 0J420160426194509804/26/16 19:45:31  5-MIN K0J4 270045Z AUTO 00000KT 10SM CLR 23/16 A2989 350 63 1400 000/00 RMK AO2
63870K0J4 0J420160426195009804/26/16 19:50:31  5-MIN K0J4 270050Z AUTO 00000KT 10SM CLR 23/15 A2989 350 61 1400 000/00 RMK AO2
63870K0J4 0J420160426195511504/26/16 19:55:31  5-MIN K0J4 270055Z AUTO 00000KT 10SM CLR 22/16 A2989 340 65 1300 000/00 RMK AO2 SLP119 T02220156
63870K0J4 0J420160426200009804/26/16 20:00:31  5-MIN K0J4 270100Z AUTO 20003KT 10SM CLR 22/16 A2989 340 65 1300 200/03 RMK AO2
63870K0J4 0J420160426200509804/26/16 20:05:31  5-MIN K0J4 270105Z AUTO 20003KT 10SM CLR 22/16 A2989 340 68 1200 200/03 RMK AO2
63870K0J4 0J420160426201009804/26/16 20:10:31  5-MIN K0J4 270110Z AUTO 21004KT 10SM CLR 22/16 A2990 340 68 1200 210/04 RMK AO2
63870K0J4 0J420160426201509804/26/16 20:15:31  5-MIN K0J4 270115Z AUTO 21004KT 10SM CLR 22/16 A2990 340 68 1200 210/04 RMK AO2
63870K0J4 0J420160426202009804/26/16 20:20:31  5-MIN K0J4 270120Z AUTO 20004KT 10SM CLR 22/16 A2990 340 68 1200 200/04 RMK AO2
63870K0J4 0J420160426202509804/26/16 20:25:31  5-MIN K0J4 270125Z AUTO 21004KT 10SM CLR 21/16 A2990 340 70 1200 210/04 RMK AO2
63870K0J4 0J420160426203009804/26/16 20:30:31  5-MIN K0J4 270130Z AUTO 21005KT 10SM CLR 21/16 A2990 340 73 1200 210/05 RMK AO2
63870K0J4 0J420160426203509804/26/16 20:35:31  5-MIN K0J4 270135Z AUTO 20005KT 10SM CLR 21/16 A2990 340 73 1200 200/05 RMK AO2
63870K0J4 0J420160426204009804/26/16 20:40:31  5-MIN K0J4 270140Z AUTO 20005KT 10SM CLR 21/16 A2990 340 73 1200 200/05 RMK AO2
63870K0J4 0J420160426204509804/26/16 20:45:31  5-MIN K0J4 270145Z AUTO 20005KT 10SM CLR 21/16 A2990 340 73 1200 200/05 RMK AO2
63870K0J4 0J420160426205009804/26/16 20:50:31  5-MIN K0J4 270150Z AUTO 20005KT 10SM CLR 21/16 A2990 330 73 1200 200/05 RMK AO2
63870K0J4 0J420160426205511504/26/16 20:55:31  5-MIN K0J4 270155Z AUTO 21005KT 10SM CLR 21/16 A2990 330 73 1200 210/05 RMK AO2 SLP121 T02110161
63870K0J4 0J420160426210009804/26/16 21:00:31  5-MIN K0J4 270200Z AUTO 20004KT 10SM CLR 21/16 A2990 330 73 1200 200/04 RMK AO2
63870K0J4 0J420160426210509804/26/16 21:05:31  5-MIN K0J4 270205Z AUTO 21005KT 10SM CLR 21/17 A2991 330 75 1200 210/05 RMK AO2
63870K0J4 0J420160426211009804/26/16 21:10:31  5-MIN K0J4 270210Z AUTO 21005KT 10SM CLR 21/17 A2991 330 75 1200 210/05 RMK AO2
63870K0J4 0J420160426211509804/26/16 21:15:31  5-MIN K0J4 270215Z AUTO 20005KT 10SM CLR 21/17 A2990 330 75 1200 200/05 RMK AO2
63870K0J4 0J420160426212009804/26/16 21:20:31  5-MIN K0J4 270220Z AUTO 20006KT 10SM CLR 21/17 A2990 330 75 1200 200/06 RMK AO2
63870K0J4 0J420160426212509804/26/16 21:25:31  5-MIN K0J4 270225Z AUTO 20006KT 10SM CLR 21/17 A2990 330 75 1200 200/06 RMK AO2
63870K0J4 0J420160426213009804/26/16 21:30:31  5-MIN K0J4 270230Z AUTO 20006KT 10SM CLR 22/17 A2990 330 75 1200 200/06 RMK AO2
63870K0J4 0J420160426213509804/26/16 21:35:31  5-MIN K0J4 270235Z AUTO 20007KT 10SM CLR 21/17 A2991 330 78 1200 200/07 RMK AO2
63870K0J4 0J420160426214009804/26/16 21:40:31  5-MIN K0J4 270240Z AUTO 20007KT 10SM CLR 21/17 A2991 330 78 1200 200/07 RMK AO2
63870K0J4 0J420160426214509804/26/16 21:45:31  5-MIN K0J4 270245Z AUTO 20006KT 10SM CLR 21/17 A2991 330 78 1200 200/06 RMK AO2
63870K0J4 0J420160426215009804/26/16 21:50:31  5-MIN K0J4 270250Z AUTO 20006KT 10SM CLR 21/17 A2991 330 78 1200 200/06 RMK AO2
63870K0J4 0J420160426215512104/26/16 21:55:31  5-MIN K0J4 270255Z AUTO 20006KT 10SM CLR 21/18 A2990 330 81 1200 200/06 RMK AO2 SLP123 T02110178 55005
63870K0J4 0J420160426220009804/26/16 22:00:31  5-MIN K0J4 270300Z AUTO 20005KT 10SM CLR 21/18 A2991 330 84 1100 200/05 RMK AO2
63870K0J4 0J420160426220509804/26/16 22:05:31  5-MIN K0J4 270305Z AUTO 20006KT 10SM CLR 20/18 A2991 330 87 1000 200/06 RMK AO2
63870K0J4 0J420160426221009804/26/16 22:10:31  5-MIN K0J4 270310Z AUTO 20005KT 10SM CLR 21/18 A2991 320 84 1100 200/05 RMK AO2
63870K0J4 0J420160426221509804/26/16 22:15:31  5-MIN K0J4 270315Z AUTO 20005KT 10SM CLR 21/18 A2991 330 84 1100 200/05 RMK AO2
63870K0J4 0J420160426222009804/26/16 22:20:31  5-MIN K0J4 270320Z AUTO 20006KT 10SM CLR 21/18 A2991 330 84 1100 200/06 RMK AO2
63870K0J4 0J420160426222509804/26/16 22:25:31  5-MIN K0J4 270325Z AUTO 20006KT 10SM CLR 21/18 A2991 330 87 1100 200/06 RMK AO2
63870K0J4 0J420160426223009804/26/16 22:30:31  5-MIN K0J4 270330Z AUTO 20006KT 10SM CLR 21/18 A2991 330 87 1100 200/06 RMK AO2
63870K0J4 0J420160426223509804/26/16 22:35:31  5-MIN K0J4 270335Z AUTO 20005KT 10SM CLR 21/18 A2991 330 87 1100 200/05 RMK AO2
63870K0J4 0J420160426224009804/26/16 22:40:31  5-MIN K0J4 270340Z AUTO 19005KT 10SM CLR 21/18 A2991 330 87 1100 190/05 RMK AO2
63870K0J4 0J420160426224509804/26/16 22:45:31  5-MIN K0J4 270345Z AUTO 19005KT 10SM CLR 21/18 A2991 330 87 1100 190/05 RMK AO2
63870K0J4 0J420160426225009804/26/16 22:50:31  5-MIN K0J4 270350Z AUTO 19006KT 10SM CLR 21/19 A2991 330 90 1100 190/06 RMK AO2
63870K0J4 0J420160426225511504/26/16 22:55:31  5-MIN K0J4 270355Z AUTO 19004KT 10SM CLR 20/18 A2990 330 90 1000 190/04 RMK AO2 SLP123 T02000183
63870K0J4 0J420160426230009804/26/16 23:00:31  5-MIN K0J4 270400Z AUTO 19006KT 10SM CLR 20/19 A2990 330 93 1000 190/06 RMK AO2
63870K0J4 0J420160426230509804/26/16 23:05:31  5-MIN K0J4 270405Z AUTO 20006KT 10SM CLR 20/19 A2990 330 93 1000 200/06 RMK AO2
63870K0J4 0J420160426231009804/26/16 23:10:31  5-MIN K0J4 270410Z AUTO 19006KT 10SM CLR 20/19 A2990 330 93 1000 190/06 RMK AO2
63870K0J4 0J420160426231509804/26/16 23:15:31  5-MIN K0J4 270415Z AUTO 19005KT 10SM CLR 20/19 A2990 330 93 1000 190/05 RMK AO2
63870K0J4 0J420160426232009804/26/16 23:20:31  5-MIN K0J4 270420Z AUTO 20005KT 10SM CLR 20/19 A2990 340 93 1000 200/05 RMK AO2
63870K0J4 0J420160426232509804/26/16 23:25:31  5-MIN K0J4 270425Z AUTO 19005KT 10SM CLR 20/19 A2990 340 93 1000 190/05 RMK AO2
63870K0J4 0J420160426233009804/26/16 23:30:31  5-MIN K0J4 270430Z AUTO 20005KT 10SM CLR 20/19 A2990 340 93 1000 200/05 RMK AO2
63870K0J4 0J420160426233510104/26/16 23:35:31  5-MIN K0J4 270435Z AUTO 19005KT 10SM FEW004 20/19 A2990 340 93 1000 190/05 RMK AO2
63870K0J4 0J420160426234010004/26/16 23:40:31  5-MIN K0J4 270440Z AUTO 19004KT 9SM SCT004 20/19 A2990 340 97 1000 190/04 RMK AO2
63870K0J4 0J420160426234510004/26/16 23:45:31  5-MIN K0J4 270445Z AUTO 18005KT 9SM SCT004 20/19 A2990 340 93 1000 180/05 RMK AO2
63870K0J4 0J420160426235010004/26/16 23:50:31  5-MIN K0J4 270450Z AUTO 18005KT 8SM SCT004 20/19 A2990 340 93 1000 180/05 RMK AO2
63870K0J4 0J420160426235511004/26/16 23:55:31  5-MIN K0J4 270455Z AUTO 17005KT 8SM BKN004 20/19 A2990 340 93 1000 170/05 RMK AO2 402890156
63870K0J4 0J420160427000010004/27/16 00:00:31  5-MIN K0J4 270500Z AUTO 17004KT 8SM BKN004 20/19 A2990 340 93 1000 170/04 RMK AO2
63870K0J4 0J420160427000510004/27/16 00:05:31  5-MIN K0J4 270505Z AUTO 17003KT 8SM BKN004 20/19 A2990 340 93 1000 170/03 RMK AO2
63870K0J4 0J420160427001010004/27/16 00:10:31  5-MIN K0J4 270510Z AUTO 17003KT 7SM BKN004 20/19 A2989 340 93 1000 170/03 RMK AO2
63870K0J4 0J420160427001510004/27/16 00:15:31  5-MIN K0J4 270515Z AUTO 17003KT 7SM BKN004 20/19 A2989 340 93 1000 170/03 RMK AO2
63870K0J4 0J420160427002010004/27/16 00:20:31  5-MIN K0J4 270520Z AUTO 00000KT 7SM OVC004 20/19 A2989 340 97 1000 000/00 RMK AO2
63870K0J4 0J420160427002510004/27/16 00:25:31  5-MIN K0J4 270525Z AUTO 18003KT 7SM OVC004 20/19 A2989 340 97 1000 180/03 RMK AO2
63870K0J4 0J420160427003010004/27/16 00:30:31  5-MIN K0J4 270530Z AUTO 19003KT 7SM BKN002 20/19 A2989 350 97 1100 190/03 RMK AO2
63870K0J4 0J420160427003510304/27/16 00:35:31  5-MIN K0J4 270535Z AUTO 17003KT 6SM BR BKN002 20/19 A2989 350 97 1100 170/03 RMK AO2
63870K0J4 0J420160427004010304/27/16 00:40:31  5-MIN K0J4 270540Z AUTO 17003KT 5SM BR BKN002 20/19 A2988 350 93 1100 170/03 RMK AO2
63870K0J4 0J420160427004510304/27/16 00:45:31  5-MIN K0J4 270545Z AUTO 17003KT 5SM BR SCT002 20/19 A2988 350 93 1100 170/03 RMK AO2
63870K0J4 0J420160427005010304/27/16 00:50:31  5-MIN K0J4 270550Z AUTO 17003KT 5SM BR SCT002 19/19 A2988 350 97 1000 170/03 RMK AO2
63870K0J4 0J420160427005513804/27/16 00:55:31  5-MIN K0J4 270555Z AUTO 00000KT 5SM BR FEW002 19/19 A2988 350 97 1000 000/00 RMK AO2 SLP116 T01940189 10222 20194 53004
63870K0J4 0J420160427010010304/27/16 01:00:31  5-MIN K0J4 270600Z AUTO 00000KT 5SM BR SCT002 19/19 A2988 350 97 1000 000/00 RMK AO2
63870K0J4 0J420160427010510304/27/16 01:05:31  5-MIN K0J4 270605Z AUTO 00000KT 5SM BR SCT002 19/19 A2988 350 97 1000 000/00 RMK AO2
63870K0J4 0J420160427011010304/27/16 01:10:31  5-MIN K0J4 270610Z AUTO 00000KT 4SM BR SCT002 19/18 A2988 350 93 1000 000/00 RMK AO2
63870K0J4 0J420160427011510204/27/16 01:15:31  5-MIN K0J4 270615Z AUTO 15003KT 4SM BR SCT002 19/18 A2988 360 97 900 150/03 RMK AO2
63870K0J4 0J420160427012010304/27/16 01:20:31  5-MIN K0J4 270620Z AUTO 15003KT 3SM BR SCT002 19/18 A2988 360 93 1000 150/03 RMK AO2
63870K0J4 0J420160427012511004/27/16 01:25:31  5-MIN K0J4 270625Z AUTO 15003KT 3SM BR BKN002 BKN007 19/19 A2988 360 97 1000 150/03 RMK AO2
63870K0J4 0J420160427013010204/27/16 01:30:31  5-MIN K0J4 270630Z AUTO 00000KT 2SM BR BKN002 19/18 A2988 360 97 900 000/00 RMK AO2
63870K0J4 0J420160427013510704/27/16 01:35:31  5-MIN K0J4 270635Z AUTO 00000KT 1 1/4SM BR BKN002 19/19 A2988 360 97 1000 000/00 RMK AO2
63870K0J4 0J420160427014010204/27/16 01:40:31  5-MIN K0J4 270640Z AUTO 15003KT 1SM BR VV002 19/19 A2987 360 97 1000 150/03 RMK AO2
63870K0J4 0J420160427014510404/27/16 01:45:31  5-MIN K0J4 270645Z AUTO 00000KT 3/4SM BR VV002 19/19 A2988 360 97 1000 000/00 RMK AO2
63870K0J4 0J420160427015010404/27/16 01:50:31  5-MIN K0J4 270650Z AUTO 00000KT 1/2SM FG VV002 19/19 A2988 360 97 1000 000/00 RMK AO2
63870K0J4 0J420160427015512104/27/16 01:55:31  5-MIN K0J4 270655Z AUTO 00000KT 1/2SM FG VV002 19/19 A2987 360 97 1000 000/00 RMK AO2 SLP112 T01940189
63870K0J4 0J420160427020010404/27/16 02:00:31  5-MIN K0J4 270700Z AUTO 00000KT 1/2SM FG VV002 19/19 A2987 360 97 1000 000/00 RMK AO2
63870K0J4 0J420160427020510404/27/16 02:05:31  5-MIN K0J4 270705Z AUTO 00000KT 1/2SM FG VV001 19/19 A2987 370 97 1000 000/00 RMK AO2
63870K0J4 0J420160427021010404/27/16 02:10:31  5-MIN K0J4 270710Z AUTO 00000KT 1/4SM FG VV001 19/19 A2986 370 97 1000 000/00 RMK AO2
63870K0J4 0J420160427021510504/27/16 02:15:31  5-MIN K0J4 270715Z AUTO 00000KT 1/4SM FG VV001 19/19 A2986 370 100 1000 000/00 RMK AO2
63870K0J4 0J420160427022010504/27/16 02:20:31  5-MIN K0J4 270720Z AUTO 00000KT 1/4SM FG VV001 19/19 A2986 370 100 1000 000/00 RMK AO2
63870K0J4 0J420160427022510504/27/16 02:25:31  5-MIN K0J4 270725Z AUTO 00000KT 1/4SM FG VV001 19/19 A2986 370 100 1000 000/00 RMK AO2
63870K0J4 0J420160427023010504/27/16 02:30:31  5-MIN K0J4 270730Z AUTO 00000KT 1/4SM FG VV001 19/19 A2986 370 100 1000 000/00 RMK AO2
63870K0J4 0J420160427023510404/27/16 02:35:31  5-MIN K0J4 270735Z AUTO 00000KT 1/4SM FG VV001 19/19 A2986 370 100 900 000/00 RMK AO2
63870K0J4 0J420160427024010404/27/16 02:40:31  5-MIN K0J4 270740Z AUTO 00000KT 1/4SM FG VV001 19/19 A2986 370 97 1000 000/00 RMK AO2
63870K0J4 0J420160427024510404/27/16 02:45:31  5-MIN K0J4 270745Z AUTO 00000KT 1/4SM FG VV001 19/19 A2986 370 97 1000 000/00 RMK AO2
63870K0J4 0J420160427025010404/27/16 02:50:31  5-MIN K0J4 270750Z AUTO 00000KT 1/4SM FG VV001 19/19 A2986 370 97 1000 000/00 RMK AO2
63870K0J4 0J420160427025512104/27/16 02:55:31  5-MIN K0J4 270755Z AUTO 00000KT 1/4SM FG VV001 19/19 A2986 370 97 1000 000/00 RMK AO2 SLP108 T01940189
63870K0J4 0J420160427030010404/27/16 03:00:31  5-MIN K0J4 270800Z AUTO 00000KT 1/4SM FG VV001 19/19 A2986 370 97 1000 000/00 RMK AO2
63870K0J4 0J420160427030510504/27/16 03:05:31  5-MIN K0J4 270805Z AUTO 15003KT 1/4SM FG VV001 19/19 A2986 370 100 1000 150/03 RMK AO2
63870K0J4 0J420160427031010504/27/16 03:10:31  5-MIN K0J4 270810Z AUTO 14004KT 1/4SM FG VV001 19/19 A2986 370 100 1000 140/04 RMK AO2
63870K0J4 0J420160427031510504/27/16 03:15:31  5-MIN K0J4 270815Z AUTO VRB03KT 1/4SM FG VV001 19/19 A2987 370 100 1000 VRB/03 RMK AO2
63870K0J4 0J420160427032010504/27/16 03:20:31  5-MIN K0J4 270820Z AUTO 14003KT 1/4SM FG VV001 19/19 A2987 360 100 1000 140/03 RMK AO2
63870K0J4 0J420160427032510404/27/16 03:25:31  5-MIN K0J4 270825Z AUTO 14003KT 1/4SM FG VV001 20/19 A2987 360 97 1100 140/03 RMK AO2
63870K0J4 0J420160427033010504/27/16 03:30:31  5-MIN K0J4 270830Z AUTO 15003KT 1/4SM FG VV001 19/19 A2987 360 100 1000 150/03 RMK AO2
63870K0J4 0J420160427033510404/27/16 03:35:31  5-MIN K0J4 270835Z AUTO 14003KT 1/4SM FG VV001 20/19 A2987 360 97 1100 140/03 RMK AO2
63870K0J4 0J420160427034010404/27/16 03:40:31  5-MIN K0J4 270840Z AUTO 14004KT 1/4SM FG VV002 20/19 A2987 360 97 1100 140/04 RMK AO2
63870K0J4 0J420160427034510404/27/16 03:45:31  5-MIN K0J4 270845Z AUTO 00000KT 1/4SM FG VV002 20/19 A2988 360 97 1100 000/00 RMK AO2
63870K0J4 0J420160427035010404/27/16 03:50:31  5-MIN K0J4 270850Z AUTO 00000KT 1/4SM FG VV002 20/19 A2988 360 97 1100 000/00 RMK AO2
63870K0J4 0J420160427035512704/27/16 03:55:31  5-MIN K0J4 270855Z AUTO 00000KT 1/4SM FG VV002 20/19 A2988 360 97 1100 000/00 RMK AO2 SLP112 T02000194 58007
63870K0J4 0J420160427040010404/27/16 04:00:31  5-MIN K0J4 270900Z AUTO 15003KT 1/4SM FG VV002 20/19 A2988 360 97 1100 150/03 RMK AO2
63870K0J4 0J420160427040510404/27/16 04:05:31  5-MIN K0J4 270905Z AUTO 00000KT 1/4SM FG VV002 20/19 A2988 360 97 1100 000/00 RMK AO2
63870K0J4 0J420160427041010404/27/16 04:10:31  5-MIN K0J4 270910Z AUTO 14003KT 1/4SM FG VV002 20/19 A2988 360 97 1100 140/03 RMK AO2
63870K0J4 0J420160427041510404/27/16 04:15:31  5-MIN K0J4 270915Z AUTO 00000KT 1/2SM FG VV002 20/19 A2988 360 97 1100 000/00 RMK AO2
63870K0J4 0J420160427042010404/27/16 04:20:31  5-MIN K0J4 270920Z AUTO 12003KT 1/2SM FG VV002 20/19 A2988 360 97 1100 120/03 RMK AO2
63870K0J4 0J420160427042510404/27/16 04:25:31  5-MIN K0J4 270925Z AUTO 14004KT 1/2SM FG VV002 20/19 A2988 360 97 1100 140/04 RMK AO2
63870K0J4 0J420160427043010404/27/16 04:30:31  5-MIN K0J4 270930Z AUTO 14003KT 1/2SM FG VV002 20/19 A2988 360 97 1100 140/03 RMK AO2
63870K0J4 0J420160427043510404/27/16 04:35:31  5-MIN K0J4 270935Z AUTO 00000KT 1/2SM FG VV002 20/19 A2988 350 97 1100 000/00 RMK AO2
63870K0J4 0J420160427044010404/27/16 04:40:31  5-MIN K0J4 270940Z AUTO 00000KT 1/2SM FG VV002 20/19 A2988 350 97 1100 000/00 RMK AO2
63870K0J4 0J420160427044511004/27/16 04:45:31  5-MIN K0J4 270945Z AUTO 00000KT 1/2SM FG VV002 20/19 A2988 350 97 1100 000/00 RMK AO2 P0001
63870K0J4 0J420160427045011004/27/16 04:50:31  5-MIN K0J4 270950Z AUTO 00000KT 1/2SM FG VV002 20/19 A2988 350 97 1100 000/00 RMK AO2 P0001
63870K0J4 0J420160427045512704/27/16 04:55:31  5-MIN K0J4 270955Z AUTO 00000KT 1/2SM FG VV002 20/19 A2988 350 97 1100 000/00 RMK AO2 SLP115 P0001 T02000194
63870K0J4 0J420160427050010404/27/16 05:00:31  5-MIN K0J4 271000Z AUTO 14003KT 1/2SM FG VV002 20/19 A2988 350 97 1100 140/03 RMK AO2
63870K0J4 0J420160427050510404/27/16 05:05:31  5-MIN K0J4 271005Z AUTO 16003KT 1/2SM FG VV002 20/19 A2989 350 97 1100 160/03 RMK AO2
63870K0J4 0J420160427051010404/27/16 05:10:31  5-MIN K0J4 271010Z AUTO 00000KT 1/2SM FG VV002 20/19 A2989 350 97 1100 000/00 RMK AO2
63870K0J4 0J420160427051510404/27/16 05:15:31  5-MIN K0J4 271015Z AUTO 15003KT 3/4SM BR VV002 20/19 A2988 350 97 1100 150/03 RMK AO2
63870K0J4 0J420160427052010204/27/16 05:20:31  5-MIN K0J4 271020Z AUTO 00000KT 1SM BR VV002 20/19 A2988 350 97 1100 000/00 RMK AO2
63870K0J4 0J420160427052510204/27/16 05:25:31  5-MIN K0J4 271025Z AUTO 15003KT 1SM BR VV002 20/19 A2988 350 97 1100 150/03 RMK AO2
63870K0J4 0J420160427053010404/27/16 05:30:31  5-MIN K0J4 271030Z AUTO 14003KT 3/4SM BR VV002 20/19 A2989 350 97 1100 140/03 RMK AO2
63870K0J4 0J420160427053510404/27/16 05:35:31  5-MIN K0J4 271035Z AUTO 14004KT 3/4SM BR VV002 20/19 A2989 350 97 1100 140/04 RMK AO2
63870K0J4 0J420160427054010404/27/16 05:40:31  5-MIN K0J4 271040Z AUTO 15004KT 3/4SM BR VV002 20/19 A2989 350 97 1100 150/04 RMK AO2
63870K0J4 0J420160427054510404/27/16 05:45:31  5-MIN K0J4 271045Z AUTO 13003KT 3/4SM BR VV002 20/19 A2989 350 97 1100 130/03 RMK AO2
63870K0J4 0J420160427055010404/27/16 05:50:31  5-MIN K0J4 271050Z AUTO 13003KT 3/4SM BR VV002 20/19 A2989 350 97 1100 130/03 RMK AO2
63870K0J4 0J420160427055512104/27/16 05:55:31  5-MIN K0J4 271055Z AUTO 14003KT 3/4SM BR VV002 20/19 A2988 350 97 1100 140/03 RMK AO2 SLP115 T02000194
63870K0J4 0J420160427060010404/27/16 06:00:31  5-MIN K0J4 271100Z AUTO 15003KT 3/4SM BR VV002 20/19 A2988 350 97 1100 150/03 RMK AO2
63870K0J4 0J420160427060510404/27/16 06:05:31  5-MIN K0J4 271105Z AUTO 15003KT 3/4SM BR VV002 20/19 A2988 350 97 1100 150/03 RMK AO2
63870K0J4 0J420160427061010404/27/16 06:10:31  5-MIN K0J4 271110Z AUTO VRB03KT 3/4SM BR VV002 20/19 A2988 350 97 1100 VRB/03 RMK AO2
63870K0J4 0J420160427061510404/27/16 06:15:31  5-MIN K0J4 271115Z AUTO 14004KT 1/2SM FG VV002 20/19 A2988 350 97 1100 140/04 RMK AO2
63870K0J4 0J420160427062010404/27/16 06:20:31  5-MIN K0J4 271120Z AUTO 16005KT 1/2SM FG VV002 20/19 A2988 350 97 1100 160/05 RMK AO2
63870K0J4 0J420160427062510404/27/16 06:25:31  5-MIN K0J4 271125Z AUTO 16003KT 1/4SM FG VV002 20/19 A2988 350 97 1100 160/03 RMK AO2
63870K0J4 0J420160427063010404/27/16 06:30:31  5-MIN K0J4 271130Z AUTO 17004KT 1/4SM FG VV002 20/19 A2988 350 97 1100 170/04 RMK AO2
63870K0J4 0J420160427063510504/27/16 06:35:31  5-MIN K0J4 271135Z AUTO 16004KT 1/4SM FG VV002 20/20 A2988 350 100 1100 160/04 RMK AO2
63870K0J4 0J420160427064010504/27/16 06:40:31  5-MIN K0J4 271140Z AUTO 17005KT 1/4SM FG VV002 20/20 A2989 350 100 1100 170/05 RMK AO2
63870K0J4 0J420160427064510504/27/16 06:45:31  5-MIN K0J4 271145Z AUTO 16007KT 1/4SM FG VV002 20/20 A2988 350 100 1100 160/07 RMK AO2
63870K0J4 0J420160427065010504/27/16 06:50:31  5-MIN K0J4 271150Z AUTO 15006KT 1/2SM FG VV002 20/20 A2989 350 100 1100 150/06 RMK AO2
63870K0J4 0J420160427065515204/27/16 06:55:31  5-MIN K0J4 271155Z AUTO 17005KT 3/4SM BR VV002 20/20 A2989 340 100 1000 170/05 RMK AO2 SLP118 60001 70001 T02000200 10200 20189 55002
63870K0J4 0J420160427070010604/27/16 07:00:31  5-MIN K0J4 271200Z AUTO 16006KT 3/4SM BR OVC001 20/20 A2989 340 100 1000 160/06 RMK AO2
63870K0J4 0J420160427070510604/27/16 07:05:31  5-MIN K0J4 271205Z AUTO 16004KT 3/4SM BR OVC001 20/20 A2989 340 100 1000 160/04 RMK AO2
63870K0J4 0J420160427071010604/27/16 07:10:31  5-MIN K0J4 271210Z AUTO 17003KT 1/2SM FG OVC001 20/20 A2990 340 100 1000 170/03 RMK AO2
63870K0J4 0J420160427071510504/27/16 07:15:31  5-MIN K0J4 271215Z AUTO 15005KT 1/2SM FG OVC001 21/20 A2990 340 97 1100 150/05 RMK AO2
63870K0J4 0J420160427072010504/27/16 07:20:31  5-MIN K0J4 271220Z AUTO 16004KT 3/4SM BR OVC001 21/20 A2990 330 97 1100 160/04 RMK AO2
63870K0J4 0J420160427072510504/27/16 07:25:31  5-MIN K0J4 271225Z AUTO 16003KT 3/4SM BR OVC001 21/20 A2991 330 97 1100 160/03 RMK AO2
63870K0J4 0J420160427073010504/27/16 07:30:31  5-MIN K0J4 271230Z AUTO 14004KT 3/4SM BR OVC001 21/20 A2991 330 97 1100 140/04 RMK AO2
63870K0J4 0J420160427073510304/27/16 07:35:31  5-MIN K0J4 271235Z AUTO 16004KT 1SM BR OVC001 21/20 A2991 330 97 1100 160/04 RMK AO2
63870K0J4 0J420160427074010704/27/16 07:40:31  5-MIN K0J4 271240Z AUTO 17005KT 1 1/2SM BR OVC001 21/20 A2991 330 97 1100 170/05 RMK AO2
63870K0J4 0J420160427074510704/27/16 07:45:31  5-MIN K0J4 271245Z AUTO 16005KT 2 1/2SM BR OVC001 21/20 A2991 320 97 1100 160/05 RMK AO2
63870K0J4 0J420160427075010304/27/16 07:50:31  5-MIN K0J4 271250Z AUTO VRB05KT 4SM BR OVC001 21/20 A2991 320 97 1100 VRB/05 RMK AO2
63870K0J4 0J420160427075513204/27/16 07:55:31  5-MIN K0J4 271255Z AUTO 15004KT 6SM BR OVC001 21/20 A2991 320 97 1100 150/04 RMK AO2 CIG 001V006 SLP126 T02060200
63870K0J4 0J420160427080011204/27/16 08:00:31  5-MIN K0J4 271300Z AUTO 14004KT 7SM OVC003 21/20 A2991 320 97 1100 140/04 RMK AO2 CIG 001V005
63870K0J4 0J420160427080511204/27/16 08:05:31  5-MIN K0J4 271305Z AUTO 16005KT 8SM OVC003 21/20 A2991 330 97 1100 160/05 RMK AO2 CIG 001V007
63870K0J4 0J420160427081011204/27/16 08:10:31  5-MIN K0J4 271310Z AUTO 14005KT 8SM OVC003 21/20 A2991 320 97 1100 140/05 RMK AO2 CIG 001V007
63870K0J4 0J420160427081511204/27/16 08:15:31  5-MIN K0J4 271315Z AUTO 16005KT 9SM OVC005 21/20 A2992 320 97 1100 160/05 RMK AO2 CIG 002V009
63870K0J4 0J420160427082011204/27/16 08:20:31  5-MIN K0J4 271320Z AUTO 16005KT 9SM OVC005 21/20 A2992 320 97 1100 160/05 RMK AO2 CIG 002V009
63870K0J4 0J420160427082511204/27/16 08:25:31  5-MIN K0J4 271325Z AUTO 14004KT 9SM OVC005 21/20 A2992 320 97 1100 140/04 RMK AO2 CIG 003V007
63870K0J4 0J420160427083011204/27/16 08:30:31  5-MIN K0J4 271330Z AUTO 18004KT 9SM OVC005 21/20 A2992 320 97 1100 180/04 RMK AO2 CIG 003V007
63870K0J4 0J420160427083511204/27/16 08:35:31  5-MIN K0J4 271335Z AUTO VRB04KT 9SM OVC005 21/20 A2992 320 97 1100 VRB/04 RMK AO2 CIG 003V007
63870K0J4 0J420160427084011204/27/16 08:40:31  5-MIN K0J4 271340Z AUTO 16004KT 9SM OVC005 21/20 A2992 320 97 1100 160/04 RMK AO2 CIG 003V007
63870K0J4 0J420160427084510004/27/16 08:45:31  5-MIN K0J4 271345Z AUTO 16004KT 9SM OVC005 21/20 A2992 320 97 1100 160/04 RMK AO2
63870K0J4 0J420160427085010104/27/16 08:50:31  5-MIN K0J4 271350Z AUTO VRB03KT 10SM OVC005 21/21 A2992 310 97 1100 VRB/03 RMK AO2
63870K0J4 0J420160427085511804/27/16 08:55:31  5-MIN K0J4 271355Z AUTO 16003KT 10SM OVC005 21/21 A2992 320 97 1100 160/03 RMK AO2 SLP128 T02110206
63870K0J4 0J420160427090011304/27/16 09:00:31  5-MIN K0J4 271400Z AUTO 18004KT 10SM OVC005 21/20 A2992 320 97 1100 180/04 RMK AO2 CIG 003V008
63870K0J4 0J420160427090510104/27/16 09:05:31  5-MIN K0J4 271405Z AUTO 00000KT 10SM OVC005 21/20 A2992 320 93 1100 000/00 RMK AO2
63870K0J4 0J420160427091011304/27/16 09:10:31  5-MIN K0J4 271410Z AUTO 00000KT 10SM OVC005 21/21 A2992 320 97 1100 000/00 RMK AO2 CIG 004V008
63870K0J4 0J420160427091511304/27/16 09:15:31  5-MIN K0J4 271415Z AUTO 17003KT 10SM OVC005 21/21 A2992 320 97 1100 170/03 RMK AO2 CIG 004V008
63870K0J4 0J420160427092011304/27/16 09:20:31  5-MIN K0J4 271420Z AUTO 16004KT 10SM OVC005 21/21 A2992 320 97 1100 160/04 RMK AO2 CIG 004V009
63870K0J4 0J420160427092510804/27/16 09:25:31  5-MIN K0J4 271425Z AUTO 00000KT 10SM BKN005 OVC009 22/21 A2992 320 93 1200 000/00 RMK AO2
63870K0J4 0J420160427093012004/27/16 09:30:31  5-MIN K0J4 271430Z AUTO 15005KT 10SM BKN005 OVC011 22/21 A2992 320 93 1200 150/05 RMK AO2 CIG 004V008
63870K0J4 0J420160427093512004/27/16 09:35:31  5-MIN K0J4 271435Z AUTO 17004KT 10SM SCT005 OVC010 22/21 A2992 320 90 1300 170/04 RMK AO2 CIG 007V013
63870K0J4 0J420160427094012004/27/16 09:40:31  5-MIN K0J4 271440Z AUTO VRB04KT 10SM BKN008 OVC012 23/21 A2992 320 87 1300 VRB/04 RMK AO2 CIG 004V010
63870K0J4 0J420160427094512004/27/16 09:45:31  5-MIN K0J4 271445Z AUTO 17006KT 10SM BKN008 OVC012 23/21 A2992 320 87 1300 170/06 RMK AO2 CIG 005V010
63870K0J4 0J420160427095011504/27/16 09:50:31  5-MIN K0J4 271450Z AUTO 14005KT 10SM FEW006 BKN012 OVC019 23/21 A2992 320 84 1400 140/05 RMK AO2
63870K0J4 0J420160427095513804/27/16 09:55:31  5-MIN K0J4 271455Z AUTO 16005KT 10SM BKN012 BKN019 OVC039 23/21 A2992 320 84 1400 160/05 RMK AO2 SLP127 T02330206 51004
63870K0J4 0J420160427100011504/27/16 10:00:31  5-MIN K0J4 271500Z AUTO 16005KT 10SM SCT009 BKN014 OVC048 23/21 A2992 320 84 1400 160/05 RMK AO2
63870K0J4 0J420160427100511504/27/16 10:05:31  5-MIN K0J4 271505Z AUTO 15007KT 10SM BKN014 BKN028 OVC048 23/21 A2992 320 84 1400 150/07 RMK AO2
63870K0J4 0J420160427101011504/27/16 10:10:31  5-MIN K0J4 271510Z AUTO 16006KT 10SM SCT012 BKN016 OVC039 23/21 A2991 320 84 1400 160/06 RMK AO2
63870K0J4 0J420160427101511504/27/16 10:15:31  5-MIN K0J4 271515Z AUTO 11005KT 10SM SCT012 BKN017 OVC048 23/21 A2991 320 84 1400 110/05 RMK AO2
63870K0J4 0J420160427102011504/27/16 10:20:31  5-MIN K0J4 271520Z AUTO VRB04KT 10SM SCT012 BKN017 BKN029 24/21 A2992 320 81 1500 VRB/04 RMK AO2
63870K0J4 0J420160427102511504/27/16 10:25:31  5-MIN K0J4 271525Z AUTO VRB03KT 10SM SCT012 BKN018 OVC048 24/21 A2992 320 81 1500 VRB/03 RMK AO2
63870K0J4 0J420160427103011504/27/16 10:30:31  5-MIN K0J4 271530Z AUTO 18004KT 10SM SCT012 BKN020 OVC037 24/20 A2991 320 78 1500 180/04 RMK AO2
63870K0J4 0J420160427103511504/27/16 10:35:31  5-MIN K0J4 271535Z AUTO 15005KT 10SM FEW010 BKN014 OVC031 24/21 A2991 320 81 1500 150/05 RMK AO2
63870K0J4 0J420160427104011504/27/16 10:40:31  5-MIN K0J4 271540Z AUTO 16007KT 10SM SCT012 BKN020 OVC029 24/21 A2991 330 78 1500 160/07 RMK AO2
63870K0J4 0J420160427104511504/27/16 10:45:31  5-MIN K0J4 271545Z AUTO VRB05KT 10SM SCT014 BKN023 OVC029 24/20 A2991 320 76 1500 VRB/05 RMK AO2
63870K0J4 0J420160427105010804/27/16 10:50:31  5-MIN K0J4 271550Z AUTO 15005KT 10SM BKN014 OVC023 25/21 A2991 320 76 1600 150/05 RMK AO2
63870K0J4 0J420160427105510804/27/16 10:55:31  5-MIN K0J4 271555Z AUTO 16005KT 10SM BKN016 OVC024 25/21 A2991 320 76 1600 160/05 RMK AO2
63870K0J4 0J420160427110011504/27/16 11:00:31  5-MIN K0J4 271600Z AUTO 16007KT 10SM BKN016 BKN024 BKN032 26/21 A2991 330 73 1700 160/07 RMK AO2
63870K0J4 0J420160427110511504/27/16 11:05:31  5-MIN K0J4 271605Z AUTO 14005KT 10SM SCT016 BKN022 BKN028 26/21 A2991 330 71 1700 140/05 RMK AO2
63870K0J4 0J420160427111011504/27/16 11:10:31  5-MIN K0J4 271610Z AUTO VRB04KT 10SM SCT016 BKN022 BKN042 26/21 A2991 330 71 1700 VRB/04 RMK AO2
63870K0J4 0J420160427111511504/27/16 11:15:31  5-MIN K0J4 271615Z AUTO 19007KT 10SM SCT016 BKN022 BKN042 26/21 A2991 330 73 1700 190/07 RMK AO2
63870K0J4 0J420160427112010104/27/16 11:20:31  5-MIN K0J4 271620Z AUTO 15005KT 10SM BKN020 26/20 A2990 330 71 1700 150/05 RMK AO2
63870K0J4 0J420160427112510804/27/16 11:25:31  5-MIN K0J4 271625Z AUTO 14005KT 10SM BKN020 BKN032 26/21 A2990 330 73 1700 140/05 RMK AO2
63870K0J4 0J420160427113013004/27/16 11:30:31  5-MIN K0J4 271630Z AUTO 19005KT 7SM -RA SCT020 BKN025 BKN032 25/20 A2991 320 73 1600 190/05 RMK AO2 RAB30 P0001
63870K0J4 0J420160427113514504/27/16 11:35:31  5-MIN K0J4 271635Z AUTO 21007KT 180V250 4SM RA BKN020 BKN025 OVC033 24/21 A2992 320 84 1500 210/07 180V250 RMK AO2 RAB30 P0002
63870K0J4 0J420160427114015504/27/16 11:40:31  5-MIN K0J4 271640Z AUTO 00000KT 2 1/2SM TSRA BR SCT018 BKN023 OVC033 23/21 A2992 320 90 1300 000/00 RMK AO2 VIS 1 3/4V3 TSB36RAB30 P0003
63870K0J4 0J420160427114514004/27/16 11:45:31  5-MIN K0J4 271645Z AUTO 00000KT 3SM -TSRA BR SCT018 BKN025 OVC047 23/21 A2992 320 90 1300 000/00 RMK AO2 TSB36RAB30 P0003
63870K0J4 0J420160427115013704/27/16 11:50:31  5-MIN K0J4 271650Z AUTO 16007KT 8SM -TSRA FEW013 BKN018 OVC034 23/21 A2992 320 90 1300 160/07 RMK AO2 TSB36RAB30 P0003
63870K0J4 0J420160427115515504/27/16 11:55:31  5-MIN K0J4 271655Z AUTO 17006KT 10SM TS FEW013 BKN018 OVC037 23/21 A2992 320 90 1300 170/06 RMK AO2 TSB36RAB30E54 SLP126 P0003 T02280211
63870K0J4 0J420160427120012604/27/16 12:00:31  5-MIN K0J4 271700Z AUTO 17008KT 6SM TS BR FEW014 BKN029 OVC043 23/21 A2992 320 87 1300 170/08 RMK AO2 P0002
63870K0J4 0J420160427120513504/27/16 12:05:31  5-MIN K0J4 271705Z AUTO 17007KT 2SM +TSRA BR SCT017 BKN029 OVC055 22/21 A2991 320 90 1300 170/07 RMK AO2 RAB01 P0005
63870K0J4 0J420160427121013404/27/16 12:10:31  5-MIN K0J4 271710Z AUTO 19006KT 2SM TSRA BR FEW017 BKN046 OVC055 22/21 A2991 320 90 1300 190/06 RMK AO2 RAB01 P0006
63870K0J4 0J420160427121515304/27/16 12:15:31  5-MIN K0J4 271715Z AUTO 19004KT 2 1/2SM RA BR FEW016 BKN050 OVC070 22/21 A2991 330 93 1300 190/04 RMK AO2 VIS 1 3/4V3 TSE15RAB01 P0008
63870K0J4 0J420160427122014604/27/16 12:20:31  5-MIN K0J4 271720Z AUTO 17006KT 2SM +RA BR FEW026 BKN047 OVC065 22/21 A2992 320 93 1300 170/06 RMK AO2 VIS 1V3 TSE15RAB01 P0013
63870K0J4 0J420160427122514204/27/16 12:25:31  5-MIN K0J4 271725Z AUTO 14003KT 1 1/2SM +RA BR FEW025 BKN047 OVC065 22/21 A2991 330 93 1200 140/03 RMK AO2 TSE15RAB01 P0020
63870K0J4 0J420160427123013804/27/16 12:30:31  5-MIN K0J4 271730Z AUTO 14004KT 2SM -RA BR SCT023 BKN037 OVC065 22/21 A2991 330 90 1300 140/04 RMK AO2 TSE15RAB01 P0020
63870K0J4 0J420160427123513404/27/16 12:35:31  5-MIN K0J4 271735Z AUTO 15004KT 9SM BKN023 BKN040 OVC065 22/21 A2991 330 90 1300 150/04 RMK AO2 TSE15RAB01E34 P0020
63870K0J4 0J420160427124013504/27/16 12:40:31  5-MIN K0J4 271740Z AUTO 15006KT 10SM SCT023 BKN037 OVC065 23/21 A2991 330 90 1400 150/06 RMK AO2 TSE15RAB01E34 P0020
63870K0J4 0J420160427124513504/27/16 12:45:31  5-MIN K0J4 271745Z AUTO 13004KT 10SM FEW023 BKN029 BKN044 23/21 A2990 330 87 1400 130/04 RMK AO2 TSE15RAB01E34 P0020
63870K0J4 0J420160427125013504/27/16 12:50:31  5-MIN K0J4 271750Z AUTO 15004KT 10SM SCT023 BKN028 BKN035 23/21 A2990 340 87 1400 150/04 RMK AO2 TSE15RAB01E34 P0020
63870K0J4 0J420160427125513504/27/16 12:55:31  5-MIN K0J4 271755Z AUTO 00000KT 10SM FEW023 BKN030 OVC040 24/22 A2990 330 87 1500 000/00 RMK AO2 TSE15RAB01E34 P0020
63870K0J4 0J420160427130011504/27/16 13:00:31  5-MIN K0J4 271800Z AUTO 15005KT 10SM FEW021 BKN028 BKN034 24/22 A2990 340 87 1500 150/05 RMK AO2
63870K0J4 0J420160427130511504/27/16 13:05:31  5-MIN K0J4 271805Z AUTO 13005KT 10SM FEW021 BKN030 BKN039 24/22 A2989 340 87 1500 130/05 RMK AO2
63870K0J4 0J420160427131011504/27/16 13:10:31  5-MIN K0J4 271810Z AUTO 12005KT 10SM FEW023 SCT028 BKN035 24/22 A2989 340 87 1500 120/05 RMK AO2
63870K0J4 0J420160427131511504/27/16 13:15:31  5-MIN K0J4 271815Z AUTO VRB06KT 10SM FEW008 SCT031 BKN039 25/22 A2989 340 84 1600 VRB/06 RMK AO2
63870K0J4 0J420160427132011504/27/16 13:20:31  5-MIN K0J4 271820Z AUTO 11006KT 10SM SCT008 SCT022 BKN029 24/22 A2989 340 87 1600 110/06 RMK AO2
63870K0J4 0J420160427132511504/27/16 13:25:31  5-MIN K0J4 271825Z AUTO VRB05KT 10SM SCT010 BKN022 BKN029 24/22 A2989 340 87 1600 VRB/05 RMK AO2
63870K0J4 0J420160427133011504/27/16 13:30:31  5-MIN K0J4 271830Z AUTO VRB06KT 10SM SCT010 BKN020 BKN030 24/22 A2989 350 87 1600 VRB/06 RMK AO2
63870K0J4 0J420160427133511504/27/16 13:35:31  5-MIN K0J4 271835Z AUTO 15006KT 10SM SCT010 SCT020 BKN034 25/22 A2989 350 84 1600 150/06 RMK AO2
63870K0J4 0J420160427134011504/27/16 13:40:31  5-MIN K0J4 271840Z AUTO 15005KT 10SM SCT010 BKN034 BKN080 25/22 A2988 350 84 1600 150/05 RMK AO2
63870K0J4 0J420160427134512404/27/16 13:45:31  5-MIN K0J4 271845Z AUTO 15004KT 10SM -RA FEW010 BKN032 25/23 A2988 350 87 1600 150/04 RMK AO2 RAB42 P0000
63870K0J4 0J420160427135013104/27/16 13:50:31  5-MIN K0J4 271850Z AUTO 16005KT 10SM -RA FEW012 SCT026 BKN032 26/22 A2988 350 81 1700 160/05 RMK AO2 RAB42 P0000
63870K0J4 0J420160427135514704/27/16 13:55:31  5-MIN K0J4 271855Z AUTO 18009KT 10SM FEW014 SCT026 BKN032 27/22 A2988 360 74 1900 180/09 RMK AO2 RAB42E51 SLP113 P0000 T02720222
63870K0J4 0J420160427140010804/27/16 14:00:31  5-MIN K0J4 271900Z AUTO 18008KT 10SM FEW025 SCT034 27/21 A2987 360 69 1900 180/08 RMK AO2
63870K0J4 0J420160427140510804/27/16 14:05:31  5-MIN K0J4 271905Z AUTO 20010KT 10SM FEW025 SCT034 27/21 A2987 360 66 1900 200/10 RMK AO2
63870K0J4 0J420160427141010804/27/16 14:10:31  5-MIN K0J4 271910Z AUTO 19012KT 10SM FEW025 SCT034 27/20 A2987 370 66 1800 190/12 RMK AO2
63870K0J4 0J420160427141510804/27/16 14:15:31  5-MIN K0J4 271915Z AUTO 19010KT 10SM FEW023 SCT038 27/21 A2987 360 66 1900 190/10 RMK AO2
63870K0J4 0J420160427142010704/27/16 14:20:31  5-MIN K0J4 271920Z AUTO 20011G18KT 10SM FEW034 28/20 A2987 370 62 2000 200/11G18 RMK AO2
63870K0J4 0J420160427142510704/27/16 14:25:31  5-MIN K0J4 271925Z AUTO 20014G20KT 10SM FEW034 27/20 A2986 370 64 1900 200/14G20 RMK AO2
63870K0J4 0J420160427143010704/27/16 14:30:31  5-MIN K0J4 271930Z AUTO 19011G20KT 10SM FEW032 27/21 A2986 370 66 1900 190/11G20 RMK AO2
63870K0J4 0J420160427143509804/27/16 14:35:31  5-MIN K0J4 271935Z AUTO 20012KT 10SM CLR 27/21 A2986 370 66 1900 200/12 RMK AO2
63870K0J4 0J420160427144009804/27/16 14:40:31  5-MIN K0J4 271940Z AUTO 20010KT 10SM CLR 27/21 A2986 370 66 1900 200/10 RMK AO2
63870K0J4 0J420160427144510104/27/16 14:45:31  5-MIN K0J4 271945Z AUTO 19010KT 10SM FEW027 27/21 A2986 370 69 1800 190/10 RMK AO2
63870K0J4 0J420160427145010804/27/16 14:50:31  5-MIN K0J4 271950Z AUTO 19010KT 10SM FEW027 SCT080 26/21 A2986 370 73 1800 190/10 RMK AO2
63870K0J4 0J420160427145513104/27/16 14:55:31  5-MIN K0J4 271955Z AUTO 18008G16KT 10SM SCT025 SCT080 27/21 A2986 370 69 1800 180/08G16 RMK AO2 SLP108 T02670206
63870K0J4 0J420160427150010704/27/16 15:00:31  5-MIN K0J4 272000Z AUTO 20012G16KT 10SM SCT025 27/21 A2986 370 71 1800 200/12G16 RMK AO2
63870K0J4 0J420160427150510104/27/16 15:05:31  5-MIN K0J4 272005Z AUTO 21015KT 10SM FEW025 26/21 A2986 370 71 1800 210/15 RMK AO2
63870K0J4 0J420160427151010804/27/16 15:10:31  5-MIN K0J4 272010Z AUTO 20015KT 10SM FEW025 SCT100 27/21 A2986 380 69 1800 200/15 RMK AO2
63870K0J4 0J420160427151510804/27/16 15:15:31  5-MIN K0J4 272015Z AUTO 20013KT 10SM FEW025 SCT100 27/20 A2986 380 66 1800 200/13 RMK AO2
63870K0J4 0J420160427152010804/27/16 15:20:31  5-MIN K0J4 272020Z AUTO 20010KT 10SM FEW025 SCT100 27/21 A2985 380 69 1900 200/10 RMK AO2
63870K0J4 0J420160427152510104/27/16 15:25:31  5-MIN K0J4 272025Z AUTO 20010KT 10SM SCT100 27/21 A2985 380 69 1900 200/10 RMK AO2
63870K0J4 0J420160427153010704/27/16 15:30:31  5-MIN K0J4 272030Z AUTO 21017G22KT 10SM SCT100 27/21 A2984 390 69 1900 210/17G22 RMK AO2
63870K0J4 0J420160427153511604/27/16 15:35:31  5-MIN K0J4 272035Z AUTO 21016G23KT 10SM TS BKN100 27/20 A2985 380 64 1900 210/16G23 RMK AO2 TSB33
63870K0J4 0J420160427154011604/27/16 15:40:31  5-MIN K0J4 272040Z AUTO 20014G23KT 10SM TS SCT100 26/20 A2985 380 68 1800 200/14G23 RMK AO2 TSB33
63870K0J4 0J420160427154511604/27/16 15:45:31  5-MIN K0J4 272045Z AUTO 20013G20KT 10SM TS SCT110 26/20 A2985 380 68 1800 200/13G20 RMK AO2 TSB33
63870K0J4 0J420160427155011604/27/16 15:50:31  5-MIN K0J4 272050Z AUTO 20017G21KT 10SM TS SCT110 26/21 A2985 380 71 1800 200/17G21 RMK AO2 TSB33
63870K0J4 0J420160427155514504/27/16 15:55:31  5-MIN K0J4 272055Z AUTO 22015G21KT 10SM TS SCT110 26/20 A2985 380 71 1700 220/15G21 RMK AO2 TSB33 SLP104 60000 T02560200 58005
63870K0J4 0J420160427160013104/27/16 16:00:31  5-MIN K0J4 272100Z AUTO 22009G19KT 9SM -TSRA FEW080 BKN110 25/21 A2985 380 76 1700 220/09G19 RMK AO2 RAB00 P0000
63870K0J4 0J420160427160513204/27/16 16:05:31  5-MIN K0J4 272105Z AUTO 22010KT 7SM -TSRA FEW038 SCT090 BKN110 25/21 A2985 380 79 1700 220/10 RMK AO2 RAB00 P0000
63870K0J4 0J420160427161013804/27/16 16:10:31  5-MIN K0J4 272110Z AUTO 22009G15KT 8SM -TSRA FEW038 SCT090 BKN110 26/21 A2985 390 76 1700 220/09G15 RMK AO2 RAB00 P0000
63870K0J4 0J420160427161513404/27/16 16:15:31  5-MIN K0J4 272115Z AUTO 21014G18KT 10SM FEW070 BKN110 26/21 A2985 390 76 1700 210/14G18 RMK AO2 TSE11RAB00E14 P0000
63870K0J4 0J420160427162014104/27/16 16:20:31  5-MIN K0J4 272120Z AUTO 21017G22KT 10SM FEW050 SCT090 BKN110 26/21 A2985 380 73 1700 210/17G22 RMK AO2 TSE11RAB00E14 P0000
63870K0J4 0J420160427162514104/27/16 16:25:31  5-MIN K0J4 272125Z AUTO 21011G22KT 7SM -RA FEW031 SCT049 BKN100 26/21 A2985 380 73 1700 210/11G22 RMK AO2 TSE11RAB00 P0001
63870K0J4 0J420160427163013504/27/16 16:30:31  5-MIN K0J4 272130Z AUTO 21012KT 7SM -RA FEW031 SCT049 BKN100 25/21 A2985 380 79 1700 210/12 RMK AO2 TSE11RAB00 P0001
63870K0J4 0J420160427163512704/27/16 16:35:31  5-MIN K0J4 272135Z AUTO 22009G16KT 10SM FEW021 25/21 A2985 380 79 1700 220/09G16 RMK AO2 TSE11RAB00E35 P0001
63870K0J4 0J420160427164014104/27/16 16:40:31  5-MIN K0J4 272140Z AUTO 19009G16KT 10SM FEW021 SCT031 SCT110 25/21 A2985 380 79 1700 190/09G16 RMK AO2 TSE11RAB00E35 P0001
63870K0J4 0J420160427164512804/27/16 16:45:31  5-MIN K0J4 272145Z AUTO 21010KT 10SM SCT021 SCT031 25/21 A2985 380 79 1700 210/10 RMK AO2 TSE11RAB00E35 P0001
63870K0J4 0J420160427165012804/27/16 16:50:31  5-MIN K0J4 272150Z AUTO 22007KT 9SM -RA SCT022 BKN029 24/21 A2985 380 81 1600 220/07 RMK AO2 TSE11RAB00 P0001
63870K0J4 0J420160427165515104/27/16 16:55:31  5-MIN K0J4 272155Z AUTO VRB06G14KT 9SM -RA FEW020 BKN025 24/21 A2986 380 81 1600 VRB/06G14 RMK AO2 TSE11RAB00 SLP106 P0001 T02440211
63870K0J4 0J420160427170010804/27/16 17:00:31  5-MIN K0J4 272200Z AUTO 21010KT 10SM FEW019 SCT025 24/21 A2986 380 81 1600 210/10 RMK AO2
63870K0J4 0J420160427170510804/27/16 17:05:31  5-MIN K0J4 272205Z AUTO 21009KT 10SM SCT021 BKN025 24/21 A2986 370 81 1600 210/09 RMK AO2
63870K0J4 0J420160427171010804/27/16 17:10:31  5-MIN K0J4 272210Z AUTO 21009KT 10SM SCT021 BKN027 25/21 A2986 370 79 1700 210/09 RMK AO2
63870K0J4 0J420160427171510804/27/16 17:15:31  5-MIN K0J4 272215Z AUTO 21009KT 10SM SCT021 BKN030 25/21 A2986 370 79 1700 210/09 RMK AO2
63870K0J4 0J420160427172010104/27/16 17:20:31  5-MIN K0J4 272220Z AUTO 21009KT 10SM BKN023 25/21 A2986 370 79 1700 210/09 RMK AO2
63870K0J4 0J420160427172510804/27/16 17:25:31  5-MIN K0J4 272225Z AUTO 22006KT 10SM SCT020 SCT025 25/21 A2986 370 79 1700 220/06 RMK AO2
63870K0J4 0J420160427173010104/27/16 17:30:31  5-MIN K0J4 272230Z AUTO 22007KT 10SM SCT022 25/21 A2986 370 79 1700 220/07 RMK AO2
63870K0J4 0J420160427173510104/27/16 17:35:31  5-MIN K0J4 272235Z AUTO 21009KT 10SM SCT022 25/21 A2986 370 76 1700 210/09 RMK AO2
63870K0J4 0J420160427174010104/27/16 17:40:31  5-MIN K0J4 272240Z AUTO 22010KT 10SM SCT022 25/21 A2986 370 79 1700 220/10 RMK AO2
63870K0J4 0J420160427174510804/27/16 17:45:31  5-MIN K0J4 272245Z AUTO 22009KT 10SM FEW020 SCT032 25/21 A2986 370 79 1700 220/09 RMK AO2
63870K0J4 0J420160427175012104/27/16 17:50:31  5-MIN K0J4 272250Z AUTO 22011G16KT 10SM FEW020 SCT027 SCT032 25/21 A2986 370 79 1700 220/11G16 RMK AO2
63870K0J4 0J420160427175512504/27/16 17:55:31  5-MIN K0J4 272255Z AUTO 22008KT 10SM FEW018 SCT032 24/21 A2986 370 78 1600 220/08 RMK AO2 SLP109 T02440206
63870K0J4 0J420160427180010804/27/16 18:00:31  5-MIN K0J4 272300Z AUTO 21012KT 10SM FEW018 SCT032 24/21 A2986 370 81 1600 210/12 RMK AO2
63870K0J4 0J420160427180510704/27/16 18:05:31  5-MIN K0J4 272305Z AUTO 21011G15KT 10SM FEW018 24/21 A2987 370 81 1600 210/11G15 RMK AO2
63870K0J4 0J420160427181010704/27/16 18:10:31  5-MIN K0J4 272310Z AUTO 22012G17KT 10SM FEW018 24/21 A2987 370 81 1600 220/12G17 RMK AO2
63870K0J4 0J420160427181510704/27/16 18:15:31  5-MIN K0J4 272315Z AUTO 21010G17KT 10SM FEW027 24/21 A2987 360 78 1600 210/10G17 RMK AO2
63870K0J4 0J420160427182010104/27/16 18:20:31  5-MIN K0J4 272320Z AUTO 21009KT 10SM FEW024 24/21 A2987 360 78 1600 210/09 RMK AO2
63870K0J4 0J420160427182511704/27/16 18:25:31  5-MIN K0J4 272325Z AUTO 22010KT 10SM -RA FEW024 24/21 A2987 360 78 1600 220/10 RMK AO2 RAB21 P0000
63870K0J4 0J420160427183011604/27/16 18:30:31  5-MIN K0J4 272330Z AUTO 22010KT 10SM FEW024 24/21 A2987 360 78 1600 220/10 RMK AO2 RAB21E30 P0000
63870K0J4 0J420160427183511304/27/16 18:35:31  5-MIN K0J4 272335Z AUTO 22010KT 10SM CLR 24/21 A2987 360 81 1500 220/10 RMK AO2 RAB21E30 P0000
63870K0J4 0J420160427184011304/27/16 18:40:31  5-MIN K0J4 272340Z AUTO 22010KT 10SM CLR 24/21 A2987 360 81 1500 220/10 RMK AO2 RAB21E30 P0000
63870K0J4 0J420160427184511304/27/16 18:45:31  5-MIN K0J4 272345Z AUTO 21010KT 10SM CLR 24/21 A2987 360 81 1500 210/10 RMK AO2 RAB21E30 P0000
63870K0J4 0J420160427185011304/27/16 18:50:31  5-MIN K0J4 272350Z AUTO 20010KT 10SM CLR 24/21 A2988 360 81 1500 200/10 RMK AO2 RAB21E30 P0000
63870K0J4 0J420160427185515704/27/16 18:55:31  5-MIN K0J4 272355Z AUTO 21009KT 10SM FEW021 24/21 A2988 360 84 1500 210/09 RMK AO2 RAB21E30 SLP113 P0000 60001 T02390211 10278 20239 56017
63870K0J4 0J420160427190010104/27/16 19:00:31  5-MIN K0J4 280000Z AUTO 21007KT 10SM FEW021 24/21 A2988 360 84 1500 210/07 RMK AO2
63870K0J4 0J420160427190509804/27/16 19:05:31  5-MIN K0J4 280005Z AUTO 21008KT 10SM CLR 24/21 A2988 360 84 1500 210/08 RMK AO2
63870K0J4 0J420160427191009804/27/16 19:10:31  5-MIN K0J4 280010Z AUTO 21008KT 10SM CLR 24/21 A2988 360 84 1500 210/08 RMK AO2
63870K0J4 0J420160427191509804/27/16 19:15:31  5-MIN K0J4 280015Z AUTO 22008KT 10SM CLR 24/21 A2988 360 84 1500 220/08 RMK AO2
63870K0J4 0J420160427192009804/27/16 19:20:31  5-MIN K0J4 280020Z AUTO 22006KT 10SM CLR 24/21 A2987 360 84 1500 220/06 RMK AO2
63870K0J4 0J420160427192509804/27/16 19:25:31  5-MIN K0J4 280025Z AUTO 21006KT 10SM CLR 23/21 A2987 360 87 1500 210/06 RMK AO2
63870K0J4 0J420160427193009804/27/16 19:30:31  5-MIN K0J4 280030Z AUTO 21006KT 10SM CLR 23/21 A2987 360 87 1500 210/06 RMK AO2
63870K0J4 0J420160427193510904/27/16 19:35:31  5-MIN K0J4 280035Z AUTO 21006KT 10SM VCTS CLR 23/21 A2987 360 87 1500 210/06 RMK AO2 TSB32
63870K0J4 0J420160427194010904/27/16 19:40:31  5-MIN K0J4 280040Z AUTO 22004KT 10SM VCTS CLR 23/21 A2987 370 87 1500 220/04 RMK AO2 TSB32
63870K0J4 0J420160427194510904/27/16 19:45:31  5-MIN K0J4 280045Z AUTO 21006KT 10SM VCTS CLR 23/21 A2987 370 87 1500 210/06 RMK AO2 TSB32
63870K0J4 0J420160427195011204/27/16 19:50:31  5-MIN K0J4 280050Z AUTO 22005KT 10SM VCTS FEW110 23/21 A2987 360 87 1500 220/05 RMK AO2 TSB32
63870K0J4 0J420160427195513404/27/16 19:55:31  5-MIN K0J4 280055Z AUTO 23004KT 10SM TS FEW036 SCT110 23/21 A2988 350 87 1400 230/04 RMK AO2 TSB32 SLP114 T02330211
63870K0J4 0J420160427200011104/27/16 20:00:31  5-MIN K0J4 280100Z AUTO 21007KT 10SM TS FEW036 SCT110 23/21 A2987 360 87 1500 210/07 RMK AO2
63870K0J4 0J420160427200510404/27/16 20:05:31  5-MIN K0J4 280105Z AUTO 19006KT 10SM TS BKN110 23/21 A2986 370 87 1500 190/06 RMK AO2
63870K0J4 0J420160427201012604/27/16 20:10:31  5-MIN K0J4 280110Z AUTO 18006KT 10SM -TSRA FEW039 BKN110 23/21 A2986 370 87 1500 180/06 RMK AO2 RAB09 P0000
63870K0J4 0J420160427201513604/27/16 20:15:31  5-MIN K0J4 280115Z AUTO 18007KT 10SM -RA FEW039 BKN110 23/21 A2985 380 87 1500 180/07 RMK AO2 TSE14RAB09 PRESFR P0000
63870K0J4 0J420160427202014204/27/16 20:20:31  5-MIN K0J4 280120Z AUTO 17004KT 9SM -RA FEW039 SCT100 BKN110 23/21 A2984 390 90 1400 170/04 RMK AO2 TSE14RAB09 PRESFR P0000
63870K0J4 0J420160427202512804/27/16 20:25:31  5-MIN K0J4 280125Z AUTO 18004KT 8SM -RA FEW040 BKN110 23/21 A2984 390 90 1400 180/04 RMK AO2 TSE14RAB09 P0000
63870K0J4 0J420160427203013504/27/16 20:30:31  5-MIN K0J4 280130Z AUTO 24004KT 8SM -RA FEW009 SCT037 BKN100 23/21 A2985 380 90 1400 240/04 RMK AO2 TSE14RAB09 P0000
63870K0J4 0J420160427203512704/27/16 20:35:31  5-MIN K0J4 280135Z AUTO 19006KT 9SM FEW009 BKN110 23/22 A2983 400 93 1400 190/06 RMK AO2 TSE14RAB09E35 P0000
63870K0J4 0J420160427204012704/27/16 20:40:31  5-MIN K0J4 280140Z AUTO 19003KT 9SM FEW009 SCT110 23/22 A2984 390 93 1400 190/03 RMK AO2 TSE14RAB09E35 P0000
63870K0J4 0J420160427204513404/27/16 20:45:31  5-MIN K0J4 280145Z AUTO 22003KT 8SM FEW009 SCT039 SCT095 23/22 A2985 380 93 1400 220/03 RMK AO2 TSE14RAB09E35 P0000
63870K0J4 0J420160427205012704/27/16 20:50:31  5-MIN K0J4 280150Z AUTO 20004KT 8SM SCT009 SCT035 23/22 A2985 380 93 1400 200/04 RMK AO2 TSE14RAB09E35 P0000
63870K0J4 0J420160427205513704/27/16 20:55:31  5-MIN K0J4 280155Z AUTO 17004KT 8SM SCT009 23/22 A2984 390 93 1400 170/04 RMK AO2 TSE14RAB09E35 SLP102 P0000 T02280217
63870K0J4 0J420160427210010004/27/16 21:00:31  5-MIN K0J4 280200Z AUTO 17006KT 8SM FEW009 23/22 A2984 390 93 1400 170/06 RMK AO2
63870K0J4 0J420160427210510004/27/16 21:05:31  5-MIN K0J4 280205Z AUTO 16006KT 8SM SCT009 23/22 A2984 390 93 1400 160/06 RMK AO2
63870K0J4 0J420160427211010004/27/16 21:10:31  5-MIN K0J4 280210Z AUTO 16005KT 8SM BKN009 23/22 A2984 390 93 1400 160/05 RMK AO2
63870K0J4 0J420160427211510004/27/16 21:15:31  5-MIN K0J4 280215Z AUTO 18006KT 8SM BKN009 23/22 A2985 390 93 1400 180/06 RMK AO2
63870K0J4 0J420160427212010004/27/16 21:20:31  5-MIN K0J4 280220Z AUTO 19008KT 8SM BKN009 23/22 A2985 380 93 1400 190/08 RMK AO2
63870K0J4 0J420160427212510004/27/16 21:25:31  5-MIN K0J4 280225Z AUTO 19007KT 9SM BKN009 23/22 A2985 380 93 1400 190/07 RMK AO2
63870K0J4 0J420160427213010004/27/16 21:30:31  5-MIN K0J4 280230Z AUTO 17008KT 9SM BKN009 23/22 A2984 390 93 1400 170/08 RMK AO2
63870K0J4 0J420160427213510004/27/16 21:35:31  5-MIN K0J4 280235Z AUTO 19007KT 9SM BKN009 23/22 A2985 380 93 1400 190/07 RMK AO2
63870K0J4 0J420160427214011204/27/16 21:40:31  5-MIN K0J4 280240Z AUTO 18007KT 9SM BKN009 23/22 A2985 380 93 1400 180/07 RMK AO2 CIG 007V011
63870K0J4 0J420160427214511204/27/16 21:45:31  5-MIN K0J4 280245Z AUTO 18009KT 9SM BKN009 23/22 A2985 380 93 1400 180/09 RMK AO2 CIG 007V011
63870K0J4 0J420160427215011304/27/16 21:50:31  5-MIN K0J4 280250Z AUTO 18006KT 10SM BKN009 23/22 A2985 380 93 1400 180/06 RMK AO2 CIG 007V012
63870K0J4 0J420160427215514104/27/16 21:55:31  5-MIN K0J4 280255Z AUTO 18008KT 9SM BKN009 23/22 A2985 380 93 1400 180/08 RMK AO2 CIG 007V012 SLP105 60000 T02280217 53008
63870K0J4 0J420160427220011904/27/16 22:00:31  5-MIN K0J4 280300Z AUTO 18007G15KT 10SM BKN009 23/22 A2985 380 93 1400 180/07G15 RMK AO2 CIG 007V012
63870K0J4 0J420160427220511904/27/16 22:05:31  5-MIN K0J4 280305Z AUTO 18008G15KT 10SM BKN009 23/22 A2985 380 93 1400 180/08G15 RMK AO2 CIG 007V012
63870K0J4 0J420160427221011304/27/16 22:10:31  5-MIN K0J4 280310Z AUTO 18008KT 10SM BKN009 23/22 A2985 380 93 1400 180/08 RMK AO2 CIG 007V012
63870K0J4 0J420160427221511304/27/16 22:15:31  5-MIN K0J4 280315Z AUTO 18006KT 10SM BKN009 23/22 A2986 370 93 1400 180/06 RMK AO2 CIG 007V013
63870K0J4 0J420160427222011304/27/16 22:20:31  5-MIN K0J4 280320Z AUTO 18005KT 10SM OVC009 23/22 A2986 370 93 1400 180/05 RMK AO2 CIG 007V013
63870K0J4 0J420160427222511304/27/16 22:25:31  5-MIN K0J4 280325Z AUTO 18005KT 10SM OVC009 23/22 A2986 370 93 1400 180/05 RMK AO2 CIG 007V013
63870K0J4 0J420160427223011304/27/16 22:30:31  5-MIN K0J4 280330Z AUTO 18006KT 10SM OVC009 23/22 A2986 380 93 1400 180/06 RMK AO2 CIG 007V013
63870K0J4 0J420160427223511304/27/16 22:35:31  5-MIN K0J4 280335Z AUTO 17004KT 10SM OVC009 23/22 A2985 380 93 1400 170/04 RMK AO2 CIG 007V013
63870K0J4 0J420160427224011304/27/16 22:40:31  5-MIN K0J4 280340Z AUTO 17003KT 10SM OVC009 23/22 A2985 380 93 1400 170/03 RMK AO2 CIG 007V013
63870K0J4 0J420160427224511304/27/16 22:45:31  5-MIN K0J4 280345Z AUTO 17005KT 10SM OVC009 23/22 A2986 380 93 1400 170/05 RMK AO2 CIG 008V012
63870K0J4 0J420160427225011304/27/16 22:50:31  5-MIN K0J4 280350Z AUTO 17005KT 10SM OVC009 23/22 A2986 370 93 1400 170/05 RMK AO2 CIG 007V013
63870K0J4 0J420160427225513004/27/16 22:55:31  5-MIN K0J4 280355Z AUTO 18004KT 10SM OVC009 23/22 A2986 370 93 1400 180/04 RMK AO2 CIG 007V014 SLP106 T02280217
63870K0J4 0J420160427230011304/27/16 23:00:31  5-MIN K0J4 280400Z AUTO 18006KT 10SM OVC009 23/22 A2986 370 93 1400 180/06 RMK AO2 CIG 007V014
63870K0J4 0J420160427230510804/27/16 23:05:31  5-MIN K0J4 280405Z AUTO 18006KT 10SM BKN009 OVC012 23/22 A2986 370 93 1400 180/06 RMK AO2
63870K0J4 0J420160427231011304/27/16 23:10:31  5-MIN K0J4 280410Z AUTO 19005KT 10SM OVC009 23/22 A2986 370 93 1400 190/05 RMK AO2 CIG 007V012
63870K0J4 0J420160427231511304/27/16 23:15:31  5-MIN K0J4 280415Z AUTO 17005KT 10SM OVC009 23/22 A2986 370 93 1400 170/05 RMK AO2 CIG 007V011
63870K0J4 0J420160427232011304/27/16 23:20:31  5-MIN K0J4 280420Z AUTO 19003KT 10SM OVC009 23/22 A2986 370 93 1400 190/03 RMK AO2 CIG 007V011
63870K0J4 0J420160427232510804/27/16 23:25:31  5-MIN K0J4 280425Z AUTO VRB03KT 10SM BKN009 OVC012 23/22 A2986 370 93 1400 VRB/03 RMK AO2
63870K0J4 0J420160427233010804/27/16 23:30:31  5-MIN K0J4 280430Z AUTO 18003KT 10SM BKN009 OVC012 23/22 A2986 370 93 1400 180/03 RMK AO2
63870K0J4 0J420160427233511304/27/16 23:35:31  5-MIN K0J4 280435Z AUTO 19003KT 10SM OVC009 23/22 A2986 370 93 1400 190/03 RMK AO2 CIG 007V013
63870K0J4 0J420160427234011304/27/16 23:40:31  5-MIN K0J4 280440Z AUTO 19003KT 10SM OVC009 23/22 A2986 370 93 1400 190/03 RMK AO2 CIG 007V013
63870K0J4 0J420160427234511304/27/16 23:45:31  5-MIN K0J4 280445Z AUTO 00000KT 10SM OVC009 23/22 A2986 370 90 1500 000/00 RMK AO2 CIG 007V013
63870K0J4 0J420160427235011304/27/16 23:50:31  5-MIN K0J4 280450Z AUTO 00000KT 10SM OVC009 23/22 A2986 370 93 1400 000/00 RMK AO2 CIG 007V012
63870K0J4 0J420160427235513904/27/16 23:55:31  5-MIN K0J4 280455Z AUTO 00000KT 9SM OVC009 23/22 A2986 370 93 1400 000/00 RMK AO2 CIG 007V012 SLP107 T02280217 402780189
63870K0J4 0J420160428000011204/28/16 00:00:31  5-MIN K0J4 280500Z AUTO 00000KT 9SM OVC009 23/22 A2986 370 93 1400 000/00 RMK AO2 CIG 007V011
63870K0J4 0J420160428000510004/28/16 00:05:31  5-MIN K0J4 280505Z AUTO 00000KT 9SM OVC007 23/22 A2987 360 93 1400 000/00 RMK AO2
63870K0J4 0J420160428001011204/28/16 00:10:31  5-MIN K0J4 280510Z AUTO 00000KT 9SM OVC007 23/22 A2986 370 93 1400 000/00 RMK AO2 CIG 006V011
63870K0J4 0J420160428001511204/28/16 00:15:31  5-MIN K0J4 280515Z AUTO 20003KT 9SM OVC007 23/22 A2987 360 93 1400 200/03 RMK AO2 CIG 006V011
63870K0J4 0J420160428002011204/28/16 00:20:31  5-MIN K0J4 280520Z AUTO 00000KT 9SM OVC007 23/22 A2987 360 93 1400 000/00 RMK AO2 CIG 006V011
63870K0J4 0J420160428002510004/28/16 00:25:31  5-MIN K0J4 280525Z AUTO VRB03KT 9SM OVC007 23/22 A2987 360 93 1400 VRB/03 RMK AO2
63870K0J4 0J420160428003011204/28/16 00:30:31  5-MIN K0J4 280530Z AUTO 22004KT 9SM OVC007 23/22 A2987 360 93 1400 220/04 RMK AO2 CIG 006V011
63870K0J4 0J420160428003510704/28/16 00:35:31  5-MIN K0J4 280535Z AUTO 00000KT 9SM BKN007 OVC012 23/22 A2988 360 93 1400 000/00 RMK AO2
63870K0J4 0J420160428004011904/28/16 00:40:31  5-MIN K0J4 280540Z AUTO 23004KT 9SM BKN007 OVC014 23/22 A2988 360 93 1400 230/04 RMK AO2 CIG 005V011
63870K0J4 0J420160428004510704/28/16 00:45:31  5-MIN K0J4 280545Z AUTO 00000KT 9SM SCT007 OVC014 23/22 A2988 360 93 1400 000/00 RMK AO2
63870K0J4 0J420160428005010704/28/16 00:50:31  5-MIN K0J4 280550Z AUTO 21003KT 9SM SCT007 OVC014 23/22 A2988 360 93 1400 210/03 RMK AO2
63870K0J4 0J420160428005511904/28/16 00:55:31  5-MIN K0J4 280555Z AUTO 21003KT 9SM BKN007 OVC012 23/22 A2988 350 93 1400 210/03 RMK AO2 CIG 005V011
63870K0J4 0J420160428010011904/28/16 01:00:31  5-MIN K0J4 280600Z AUTO 21003KT 9SM BKN007 OVC014 23/22 A2988 350 93 1400 210/03 RMK AO2 CIG 005V010
63870K0J4 0J420160428010510704/28/16 01:05:31  5-MIN K0J4 280605Z AUTO 21004KT 9SM SCT007 OVC012 23/22 A2988 350 93 1400 210/04 RMK AO2
63870K0J4 0J420160428011011904/28/16 01:10:31  5-MIN K0J4 280610Z AUTO 22004KT 9SM BKN009 OVC014 23/22 A2988 350 93 1400 220/04 RMK AO2 CIG 005V013
63870K0J4 0J420160428011511904/28/16 01:15:31  5-MIN K0J4 280615Z AUTO 22003KT 9SM BKN009 OVC014 23/22 A2988 350 93 1400 220/03 RMK AO2 CIG 005V013
63870K0J4 0J420160428012011904/28/16 01:20:31  5-MIN K0J4 280620Z AUTO 24003KT 9SM BKN007 OVC014 23/22 A2988 350 93 1400 240/03 RMK AO2 CIG 005V009
63870K0J4 0J420160428012511904/28/16 01:25:31  5-MIN K0J4 280625Z AUTO VRB03KT 9SM BKN007 OVC014 23/21 A2988 350 90 1400 VRB/03 RMK AO2 CIG 005V010
63870K0J4 0J420160428013011504/28/16 01:30:31  5-MIN K0J4 280630Z AUTO VRB05KT 10SM SCT007 BKN011 OVC016 22/21 A2988 350 90 1300 VRB/05 RMK AO2
63870K0J4 0J420160428013511504/28/16 01:35:31  5-MIN K0J4 280635Z AUTO 23004KT 10SM FEW006 BKN011 OVC016 22/19 A2989 350 84 1300 230/04 RMK AO2
63870K0J4 0J420160428014010804/28/16 01:40:31  5-MIN K0J4 280640Z AUTO 24004KT 10SM SCT008 BKN016 22/19 A2989 350 84 1200 240/04 RMK AO2
63870K0J4 0J420160428014511504/28/16 01:45:31  5-MIN K0J4 280645Z AUTO 22005KT 10SM FEW006 SCT010 BKN015 22/19 A2989 350 84 1200 220/05 RMK AO2
63870K0J4 0J420160428015010804/28/16 01:50:31  5-MIN K0J4 280650Z AUTO 23004KT 10SM FEW009 SCT015 22/18 A2989 350 81 1200 230/04 RMK AO2
63870K0J4 0J420160428015511804/28/16 01:55:31  5-MIN K0J4 280655Z AUTO VRB03KT 10SM FEW011 22/18 A2989 350 81 1200 VRB/03 RMK AO2 SLP116 T02170183
63870K0J4 0J420160428020010104/28/16 02:00:31  5-MIN K0J4 280700Z AUTO 25003KT 10SM FEW015 21/18 A2989 350 84 1200 250/03 RMK AO2
63870K0J4 0J420160428020509804/28/16 02:05:31  5-MIN K0J4 280705Z AUTO 00000KT 10SM CLR 21/18 A2989 350 87 1100 000/00 RMK AO2
63870K0J4 0J420160428021009804/28/16 02:10:31  5-MIN K0J4 280710Z AUTO 00000KT 10SM CLR 21/18 A2989 350 87 1100 000/00 RMK AO2
63870K0J4 0J420160428021509804/28/16 02:15:31  5-MIN K0J4 280715Z AUTO 00000KT 10SM CLR 20/18 A2988 350 90 1100 000/00 RMK AO2
63870K0J4 0J420160428022009804/28/16 02:20:31  5-MIN K0J4 280720Z AUTO 00000KT 10SM CLR 20/18 A2988 350 90 1100 000/00 RMK AO2
63870K0J4 0J420160428022509804/28/16 02:25:31  5-MIN K0J4 280725Z AUTO 00000KT 10SM CLR 20/18 A2988 350 90 1100 000/00 RMK AO2
63870K0J4 0J420160428023009804/28/16 02:30:31  5-MIN K0J4 280730Z AUTO 00000KT 10SM CLR 19/18 A2988 350 93 1000 000/00 RMK AO2
63870K0J4 0J420160428023509804/28/16 02:35:31  5-MIN K0J4 280735Z AUTO 00000KT 10SM CLR 19/18 A2988 350 93 1000 000/00 RMK AO2
63870K0J4 0J420160428024009804/28/16 02:40:31  5-MIN K0J4 280740Z AUTO 00000KT 10SM CLR 19/18 A2988 350 93 1000 000/00 RMK AO2
63870K0J4 0J420160428024509804/28/16 02:45:31  5-MIN K0J4 280745Z AUTO 00000KT 10SM CLR 19/18 A2988 350 93 1000 000/00 RMK AO2
63870K0J4 0J420160428025010104/28/16 02:50:31  5-MIN K0J4 280750Z AUTO 00000KT 10SM FEW080 19/18 A2988 350 93 1000 000/00 RMK AO2
63870K0J4 0J420160428025511804/28/16 02:55:31  5-MIN K0J4 280755Z AUTO 00000KT 10SM SCT080 19/18 A2988 350 90 1000 000/00 RMK AO2 SLP115 T01940178
63870K0J4 0J420160428030010004/28/16 03:00:31  5-MIN K0J4 280800Z AUTO 00000KT 10SM SCT080 19/18 A2988 350 93 900 000/00 RMK AO2
63870K0J4 0J420160428030510004/28/16 03:05:31  5-MIN K0J4 280805Z AUTO 00000KT 10SM SCT080 19/18 A2989 350 93 900 000/00 RMK AO2
63870K0J4 0J420160428031010004/28/16 03:10:31  5-MIN K0J4 280810Z AUTO 00000KT 9SM BKN080 19/18 A2989 350 90 1000 000/00 RMK AO2
63870K0J4 0J420160428031509904/28/16 03:15:31  5-MIN K0J4 280815Z AUTO 00000KT 9SM BKN080 19/18 A2989 350 93 900 000/00 RMK AO2
63870K0J4 0J420160428032009904/28/16 03:20:31  5-MIN K0J4 280820Z AUTO 00000KT 9SM BKN075 19/18 A2989 350 97 900 000/00 RMK AO2
63870K0J4 0J420160428032510004/28/16 03:25:31  5-MIN K0J4 280825Z AUTO 00000KT 10SM BKN075 19/18 A2989 350 97 900 000/00 RMK AO2
63870K0J4 0J420160428033010004/28/16 03:30:31  5-MIN K0J4 280830Z AUTO 00000KT 10SM OVC075 19/18 A2989 340 97 900 000/00 RMK AO2
63870K0J4 0J420160428033510004/28/16 03:35:31  5-MIN K0J4 280835Z AUTO 00000KT 10SM OVC075 19/18 A2989 340 97 900 000/00 RMK AO2
63870K0J4 0J420160428034010104/28/16 03:40:31  5-MIN K0J4 280840Z AUTO 00000KT 10SM OVC075 19/18 A2989 340 93 1000 000/00 RMK AO2
63870K0J4 0J420160428034510104/28/16 03:45:31  5-MIN K0J4 280845Z AUTO 00000KT 10SM OVC075 19/18 A2989 340 93 1000 000/00 RMK AO2
63870K0J4 0J420160428035010104/28/16 03:50:31  5-MIN K0J4 280850Z AUTO 00000KT 10SM OVC075 19/18 A2990 340 93 1000 000/00 RMK AO2
63870K0J4 0J420160428035512404/28/16 03:55:31  5-MIN K0J4 280855Z AUTO 00000KT 10SM OVC075 19/19 A2990 340 97 1000 000/00 RMK AO2 SLP121 T01940189 53010
63870K0J4 0J420160428040010104/28/16 04:00:31  5-MIN K0J4 280900Z AUTO 00000KT 10SM OVC075 19/18 A2990 330 93 1000 000/00 RMK AO2
63870K0J4 0J420160428040510104/28/16 04:05:31  5-MIN K0J4 280905Z AUTO 00000KT 10SM OVC075 19/18 A2990 330 93 1000 000/00 RMK AO2
63870K0J4 0J420160428041010104/28/16 04:10:31  5-MIN K0J4 280910Z AUTO 00000KT 10SM OVC075 19/18 A2990 330 93 1000 000/00 RMK AO2
63870K0J4 0J420160428041510104/28/16 04:15:31  5-MIN K0J4 280915Z AUTO 00000KT 10SM OVC070 19/18 A2990 330 93 1000 000/00 RMK AO2
63870K0J4 0J420160428042010104/28/16 04:20:31  5-MIN K0J4 280920Z AUTO 00000KT 10SM OVC070 19/18 A2991 330 93 1000 000/00 RMK AO2
63870K0J4 0J420160428042510104/28/16 04:25:31  5-MIN K0J4 280925Z AUTO 00000KT 10SM OVC070 19/18 A2991 330 93 1000 000/00 RMK AO2
63870K0J4 0J420160428043010104/28/16 04:30:31  5-MIN K0J4 280930Z AUTO 00000KT 10SM OVC075 19/19 A2991 330 97 1000 000/00 RMK AO2
63870K0J4 0J420160428043510104/28/16 04:35:31  5-MIN K0J4 280935Z AUTO 00000KT 10SM OVC080 19/18 A2991 330 93 1000 000/00 RMK AO2
63870K0J4 0J420160428044010104/28/16 04:40:31  5-MIN K0J4 280940Z AUTO 00000KT 10SM OVC080 19/18 A2991 330 93 1000 000/00 RMK AO2
63870K0J4 0J420160428044510104/28/16 04:45:31  5-MIN K0J4 280945Z AUTO 00000KT 10SM OVC075 19/19 A2991 330 97 1000 000/00 RMK AO2
63870K0J4 0J420160428045010804/28/16 04:50:31  5-MIN K0J4 280950Z AUTO 00000KT 10SM BKN075 OVC095 19/19 A2991 330 97 1000 000/00 RMK AO2
63870K0J4 0J420160428045512504/28/16 04:55:31  5-MIN K0J4 280955Z AUTO 00000KT 10SM BKN075 BKN095 19/18 A2991 330 93 1000 000/00 RMK AO2 SLP125 T01940183
63870K0J4 0J420160428050010804/28/16 05:00:31  5-MIN K0J4 281000Z AUTO 00000KT 10SM BKN080 BKN100 19/18 A2991 320 93 1000 000/00 RMK AO2
63870K0J4 0J420160428050510804/28/16 05:05:31  5-MIN K0J4 281005Z AUTO 00000KT 10SM BKN075 OVC100 19/18 A2991 320 93 1000 000/00 RMK AO2
63870K0J4 0J420160428051010804/28/16 05:10:31  5-MIN K0J4 281010Z AUTO 00000KT 10SM SCT075 OVC095 19/18 A2991 320 93 1000 000/00 RMK AO2
63870K0J4 0J420160428051510804/28/16 05:15:31  5-MIN K0J4 281015Z AUTO 00000KT 10SM FEW075 OVC095 19/18 A2991 320 93 1000 000/00 RMK AO2
63870K0J4 0J420160428052010804/28/16 05:20:31  5-MIN K0J4 281020Z AUTO 21003KT 10SM FEW075 OVC095 19/18 A2991 320 93 1000 210/03 RMK AO2
63870K0J4 0J420160428052510804/28/16 05:25:31  5-MIN K0J4 281025Z AUTO 20003KT 10SM SCT075 OVC095 19/19 A2992 320 97 1000 200/03 RMK AO2
63870K0J4 0J420160428053010804/28/16 05:30:31  5-MIN K0J4 281030Z AUTO 20003KT 10SM BKN075 OVC095 19/19 A2991 320 97 1000 200/03 RMK AO2
63870K0J4 0J420160428053510804/28/16 05:35:31  5-MIN K0J4 281035Z AUTO 20003KT 10SM BKN080 OVC095 19/19 A2991 320 97 1000 200/03 RMK AO2
63870K0J4 0J420160428054010804/28/16 05:40:31  5-MIN K0J4 281040Z AUTO 20003KT 10SM SCT075 BKN095 20/18 A2991 320 90 1000 200/03 RMK AO2
63870K0J4 0J420160428054510804/28/16 05:45:31  5-MIN K0J4 281045Z AUTO 20004KT 10SM SCT080 BKN100 19/18 A2992 320 93 1000 200/04 RMK AO2
63870K0J4 0J420160428055010804/28/16 05:50:31  5-MIN K0J4 281050Z AUTO 20004KT 10SM SCT080 SCT100 19/18 A2992 320 93 1000 200/04 RMK AO2
63870K0J4 0J420160428055512404/28/16 05:55:31  5-MIN K0J4 281055Z AUTO 21003KT 10SM FEW080 SCT100 19/18 A2992 310 93 900 210/03 RMK AO2 SLP129 T01940183
63870K0J4 0J420160428060010004/28/16 06:00:31  5-MIN K0J4 281100Z AUTO 20004KT 10SM FEW080 19/18 A2993 310 93 900 200/04 RMK AO2
63870K0J4 0J420160428060510004/28/16 06:05:31  5-MIN K0J4 281105Z AUTO 20004KT 10SM FEW090 19/18 A2993 310 93 900 200/04 RMK AO2
63870K0J4 0J420160428061010004/28/16 06:10:31  5-MIN K0J4 281110Z AUTO 20003KT 10SM FEW110 19/18 A2993 300 93 900 200/03 RMK AO2
63870K0J4 0J420160428061510004/28/16 06:15:31  5-MIN K0J4 281115Z AUTO 21003KT 10SM FEW110 19/18 A2993 300 93 900 210/03 RMK AO2
63870K0J4 0J420160428062009704/28/16 06:20:31  5-MIN K0J4 281120Z AUTO 20003KT 10SM CLR 19/18 A2993 300 93 900 200/03 RMK AO2
63870K0J4 0J420160428062509704/28/16 06:25:31  5-MIN K0J4 281125Z AUTO 00000KT 10SM CLR 19/18 A2994 300 93 900 000/00 RMK AO2
63870K0J4 0J420160428063009704/28/16 06:30:31  5-MIN K0J4 281130Z AUTO 20003KT 10SM CLR 19/18 A2994 300 93 900 200/03 RMK AO2
63870K0J4 0J420160428063509704/28/16 06:35:31  5-MIN K0J4 281135Z AUTO 00000KT 10SM CLR 19/18 A2994 300 93 900 000/00 RMK AO2
63870K0J4 0J420160428064009804/28/16 06:40:31  5-MIN K0J4 281140Z AUTO 21004KT 10SM CLR 20/19 A2994 300 93 1000 210/04 RMK AO2
63870K0J4 0J420160428064509804/28/16 06:45:31  5-MIN K0J4 281145Z AUTO 20004KT 10SM CLR 20/19 A2994 290 93 1000 200/04 RMK AO2
63870K0J4 0J420160428065009804/28/16 06:50:31  5-MIN K0J4 281150Z AUTO 20004KT 10SM CLR 21/19 A2994 300 90 1100 200/04 RMK AO2
63870K0J4 0J420160428065513904/28/16 06:55:31  5-MIN K0J4 281155Z AUTO 20004KT 10SM CLR 21/19 A2994 300 90 1100 200/04 RMK AO2 SLP135 70024 T02060189 10228 20189 53006
63870K0J4 0J420160428070009804/28/16 07:00:31  5-MIN K0J4 281200Z AUTO 19004KT 10SM CLR 21/19 A2994 300 90 1100 190/04 RMK AO2
63870K0J4 0J420160428070509804/28/16 07:05:31  5-MIN K0J4 281205Z AUTO 19004KT 10SM CLR 21/19 A2994 290 87 1100 190/04 RMK AO2
63870K0J4 0J420160428071010104/28/16 07:10:31  5-MIN K0J4 281210Z AUTO 19004KT 10SM FEW080 21/19 A2994 290 87 1100 190/04 RMK AO2
63870K0J4 0J420160428071510104/28/16 07:15:31  5-MIN K0J4 281215Z AUTO 18005KT 10SM SCT080 21/19 A2994 300 87 1100 180/05 RMK AO2
63870K0J4 0J420160428072010104/28/16 07:20:31  5-MIN K0J4 281220Z AUTO 19003KT 10SM FEW080 21/19 A2995 290 87 1100 190/03 RMK AO2
63870K0J4 0J420160428072510104/28/16 07:25:31  5-MIN K0J4 281225Z AUTO 19003KT 10SM FEW080 21/19 A2995 290 87 1100 190/03 RMK AO2
63870K0J4 0J420160428073010104/28/16 07:30:31  5-MIN K0J4 281230Z AUTO 17004KT 10SM FEW080 21/19 A2995 290 87 1100 170/04 RMK AO2
63870K0J4 0J420160428073510104/28/16 07:35:31  5-MIN K0J4 281235Z AUTO 19003KT 10SM FEW080 21/19 A2995 290 87 1100 190/03 RMK AO2
63870K0J4 0J420160428074009804/28/16 07:40:31  5-MIN K0J4 281240Z AUTO 20005KT 10SM CLR 21/19 A2995 290 87 1100 200/05 RMK AO2
63870K0J4 0J420160428074509804/28/16 07:45:31  5-MIN K0J4 281245Z AUTO 21004KT 10SM CLR 21/19 A2996 280 87 1100 210/04 RMK AO2
63870K0J4 0J420160428075009804/28/16 07:50:31  5-MIN K0J4 281250Z AUTO 21004KT 10SM CLR 21/19 A2996 280 90 1100 210/04 RMK AO2
63870K0J4 0J420160428075511504/28/16 07:55:31  5-MIN K0J4 281255Z AUTO 19003KT 10SM CLR 21/19 A2996 280 90 1100 190/03 RMK AO2 SLP141 T02110194
63870K0J4 0J420160428080009804/28/16 08:00:31  5-MIN K0J4 281300Z AUTO 19003KT 10SM CLR 21/19 A2996 280 90 1100 190/03 RMK AO2
63870K0J4 0J420160428080509704/28/16 08:05:31  5-MIN K0J4 281305Z AUTO 19004KT 8SM CLR 22/19 A2996 280 87 1200 190/04 RMK AO2
63870K0J4 0J420160428081009704/28/16 08:10:31  5-MIN K0J4 281310Z AUTO 20004KT 8SM CLR 22/19 A2996 280 87 1200 200/04 RMK AO2
63870K0J4 0J420160428081510004/28/16 08:15:31  5-MIN K0J4 281315Z AUTO 20003KT 9SM FEW085 22/19 A2997 270 87 1200 200/03 RMK AO2
63870K0J4 0J420160428082010104/28/16 08:20:31  5-MIN K0J4 281320Z AUTO 00000KT 10SM FEW013 22/19 A2997 270 87 1200 000/00 RMK AO2
63870K0J4 0J420160428082510104/28/16 08:25:31  5-MIN K0J4 281325Z AUTO 18003KT 10SM SCT013 22/19 A2997 270 87 1100 180/03 RMK AO2
63870K0J4 0J420160428083010804/28/16 08:30:31  5-MIN K0J4 281330Z AUTO 19003KT 10SM FEW013 SCT090 22/19 A2997 270 87 1100 190/03 RMK AO2
63870K0J4 0J420160428083510804/28/16 08:35:31  5-MIN K0J4 281335Z AUTO 20003KT 10SM FEW013 BKN085 22/19 A2998 260 87 1100 200/03 RMK AO2
63870K0J4 0J420160428084010804/28/16 08:40:31  5-MIN K0J4 281340Z AUTO 19005KT 10SM FEW013 BKN080 22/19 A2998 270 87 1100 190/05 RMK AO2
63870K0J4 0J420160428084510804/28/16 08:45:31  5-MIN K0J4 281345Z AUTO 18003KT 10SM FEW013 BKN080 22/19 A2997 270 87 1100 180/03 RMK AO2
63870K0J4 0J420160428085010804/28/16 08:50:31  5-MIN K0J4 281350Z AUTO 00000KT 10SM FEW013 BKN080 22/20 A2998 260 90 1100 000/00 RMK AO2
63870K0J4 0J420160428085511804/28/16 08:55:31  5-MIN K0J4 281355Z AUTO 00000KT 10SM BKN080 22/20 A2998 260 90 1100 000/00 RMK AO2 SLP148 T02170200
63870K0J4 0J420160428090010104/28/16 09:00:31  5-MIN K0J4 281400Z AUTO 18004KT 10SM BKN080 22/20 A2998 260 90 1100 180/04 RMK AO2
63870K0J4 0J420160428090510104/28/16 09:05:31  5-MIN K0J4 281405Z AUTO 17005KT 10SM BKN080 22/20 A2998 260 90 1100 170/05 RMK AO2
63870K0J4 0J420160428091010104/28/16 09:10:31  5-MIN K0J4 281410Z AUTO 17003KT 10SM BKN085 22/20 A2998 260 90 1100 170/03 RMK AO2
63870K0J4 0J420160428091510104/28/16 09:15:31  5-MIN K0J4 281415Z AUTO 15003KT 10SM BKN085 22/20 A2998 260 90 1100 150/03 RMK AO2
63870K0J4 0J420160428092010104/28/16 09:20:31  5-MIN K0J4 281420Z AUTO 16003KT 10SM BKN085 22/20 A2997 270 87 1200 160/03 RMK AO2
63870K0J4 0J420160428092510104/28/16 09:25:31  5-MIN K0J4 281425Z AUTO 18004KT 10SM BKN085 22/20 A2997 270 87 1200 180/04 RMK AO2
63870K0J4 0J420160428093010104/28/16 09:30:31  5-MIN K0J4 281430Z AUTO 18003KT 10SM BKN085 22/20 A2997 270 87 1200 180/03 RMK AO2
63870K0J4 0J420160428093510104/28/16 09:35:31  5-MIN K0J4 281435Z AUTO 18003KT 10SM SCT085 22/20 A2997 270 87 1200 180/03 RMK AO2
63870K0J4 0J420160428094010104/28/16 09:40:31  5-MIN K0J4 281440Z AUTO 20006KT 10SM SCT085 22/20 A2998 260 87 1200 200/06 RMK AO2
63870K0J4 0J420160428094510104/28/16 09:45:31  5-MIN K0J4 281445Z AUTO 21007KT 10SM FEW085 22/20 A2998 260 87 1200 210/07 RMK AO2
63870K0J4 0J420160428095010104/28/16 09:50:31  5-MIN K0J4 281450Z AUTO 23005KT 10SM FEW095 22/20 A2999 250 87 1200 230/05 RMK AO2
63870K0J4 0J420160428095513104/28/16 09:55:31  5-MIN K0J4 281455Z AUTO 23004KT 10SM FEW095 SCT110 22/20 A3000 250 87 1200 230/04 RMK AO2 SLP154 T02220200 53014
63870K0J4 0J420160428100012504/28/16 10:00:31  5-MIN K0J4 281500Z AUTO 23004KT 10SM -RA FEW075 SCT095 BKN120 22/20 A3000 240 87 1200 230/04 RMK AO2 P0000
63870K0J4 0J420160428100512504/28/16 10:05:31  5-MIN K0J4 281505Z AUTO 00000KT 10SM -RA FEW075 SCT095 BKN110 22/20 A3000 240 87 1200 000/00 RMK AO2 P0000
63870K0J4 0J420160428101012504/28/16 10:10:31  5-MIN K0J4 281510Z AUTO 00000KT 10SM -RA FEW075 SCT095 BKN110 22/20 A3000 240 87 1200 000/00 RMK AO2 P0000
63870K0J4 0J420160428101511704/28/16 10:15:31  5-MIN K0J4 281515Z AUTO 00000KT 8SM -RA FEW075 OVC100 22/20 A3000 240 87 1200 000/00 RMK AO2 P0000
63870K0J4 0J420160428102012404/28/16 10:20:31  5-MIN K0J4 281520Z AUTO 00000KT 8SM -RA FEW075 BKN090 OVC110 22/20 A3001 230 90 1100 000/00 RMK AO2 P0001
63870K0J4 0J420160428102512504/28/16 10:25:31  5-MIN K0J4 281525Z AUTO 00000KT 10SM -RA FEW036 BKN090 OVC110 22/21 A3001 230 90 1200 000/00 RMK AO2 P0001
63870K0J4 0J420160428103012504/28/16 10:30:31  5-MIN K0J4 281530Z AUTO 00000KT 10SM -RA FEW036 SCT090 BKN110 22/21 A3001 240 90 1200 000/00 RMK AO2 P0001
63870K0J4 0J420160428103512704/28/16 10:35:31  5-MIN K0J4 281535Z AUTO 00000KT 10SM FEW036 SCT095 SCT110 22/21 A3001 230 90 1200 000/00 RMK AO2 RAE35 P0001
63870K0J4 0J420160428104012004/28/16 10:40:31  5-MIN K0J4 281540Z AUTO 00000KT 10SM FEW036 SCT095 23/21 A3001 230 87 1200 000/00 RMK AO2 RAE35 P0001
63870K0J4 0J420160428104511304/28/16 10:45:31  5-MIN K0J4 281545Z AUTO 00000KT 10SM FEW036 23/21 A3002 230 87 1200 000/00 RMK AO2 RAE35 P0001
63870K0J4 0J420160428105011304/28/16 10:50:31  5-MIN K0J4 281550Z AUTO 00000KT 10SM FEW034 23/21 A3002 230 87 1200 000/00 RMK AO2 RAE35 P0001
63870K0J4 0J420160428105512704/28/16 10:55:31  5-MIN K0J4 281555Z AUTO 00000KT 10SM CLR 23/21 A3002 230 87 1200 000/00 RMK AO2 RAE35 SLP161 P0001 T02280206
63870K0J4 0J420160428110009804/28/16 11:00:31  5-MIN K0J4 281600Z AUTO 00000KT 10SM CLR 23/21 A3002 230 87 1200 000/00 RMK AO2
63870K0J4 0J420160428110509804/28/16 11:05:31  5-MIN K0J4 281605Z AUTO 00000KT 10SM CLR 23/21 A3002 230 87 1200 000/00 RMK AO2
63870K0J4 0J420160428111009804/28/16 11:10:31  5-MIN K0J4 281610Z AUTO 19003KT 10SM CLR 23/21 A3001 230 87 1200 190/03 RMK AO2
63870K0J4 0J420160428111509804/28/16 11:15:31  5-MIN K0J4 281615Z AUTO 20004KT 10SM CLR 23/21 A3001 230 87 1200 200/04 RMK AO2
63870K0J4 0J420160428112009804/28/16 11:20:31  5-MIN K0J4 281620Z AUTO 20004KT 10SM CLR 23/21 A3002 230 84 1300 200/04 RMK AO2
63870K0J4 0J420160428112509804/28/16 11:25:31  5-MIN K0J4 281625Z AUTO 21003KT 10SM CLR 24/21 A3002 230 81 1400 210/03 RMK AO2
63870K0J4 0J420160428113009804/28/16 11:30:31  5-MIN K0J4 281630Z AUTO 22004KT 10SM CLR 24/21 A3002 230 81 1400 220/04 RMK AO2
63870K0J4 0J420160428113509804/28/16 11:35:31  5-MIN K0J4 281635Z AUTO 22004KT 10SM CLR 24/21 A3002 230 81 1400 220/04 RMK AO2
63870K0J4 0J420160428114010104/28/16 11:40:31  5-MIN K0J4 281640Z AUTO 22003KT 10SM FEW014 24/21 A3002 230 81 1400 220/03 RMK AO2
63870K0J4 0J420160428114510104/28/16 11:45:31  5-MIN K0J4 281645Z AUTO 19005KT 10SM SCT014 24/21 A3001 230 81 1400 190/05 RMK AO2
63870K0J4 0J420160428115010804/28/16 11:50:31  5-MIN K0J4 281650Z AUTO 19005KT 10SM SCT014 BKN080 24/21 A3001 230 81 1400 190/05 RMK AO2
63870K0J4 0J420160428115512504/28/16 11:55:31  5-MIN K0J4 281655Z AUTO 19005KT 10SM SCT014 BKN080 24/21 A3000 240 81 1400 190/05 RMK AO2 SLP157 T02390206
63870K0J4 0J420160428120010804/28/16 12:00:31  5-MIN K0J4 281700Z AUTO 19006KT 10SM BKN014 BKN080 24/21 A3000 240 81 1400 190/06 RMK AO2
63870K0J4 0J420160428120510804/28/16 12:05:31  5-MIN K0J4 281705Z AUTO 19006KT 10SM BKN014 BKN080 24/21 A2999 250 81 1400 190/06 RMK AO2
63870K0J4 0J420160428121010804/28/16 12:10:31  5-MIN K0J4 281710Z AUTO 20007KT 10SM BKN014 BKN080 24/21 A2999 250 84 1400 200/07 RMK AO2
63870K0J4 0J420160428121510804/28/16 12:15:31  5-MIN K0J4 281715Z AUTO 20007KT 10SM SCT014 BKN080 24/21 A2999 250 81 1400 200/07 RMK AO2
63870K0J4 0J420160428122010104/28/16 12:20:31  5-MIN K0J4 281720Z AUTO 21008KT 10SM SCT014 24/21 A2998 260 81 1500 210/08 RMK AO2
63870K0J4 0J420160428122510104/28/16 12:25:31  5-MIN K0J4 281725Z AUTO 18008KT 10SM SCT014 24/21 A2998 260 81 1500 180/08 RMK AO2
63870K0J4 0J420160428123010104/28/16 12:30:31  5-MIN K0J4 281730Z AUTO 20007KT 10SM FEW014 24/21 A2998 260 81 1500 200/07 RMK AO2
63870K0J4 0J420160428123510104/28/16 12:35:31  5-MIN K0J4 281735Z AUTO 19006KT 10SM FEW012 25/22 A2998 260 81 1500 190/06 RMK AO2
63870K0J4 0J420160428124010104/28/16 12:40:31  5-MIN K0J4 281740Z AUTO 21007KT 10SM FEW012 25/22 A2998 260 81 1500 210/07 RMK AO2
63870K0J4 0J420160428124510104/28/16 12:45:31  5-MIN K0J4 281745Z AUTO 21008KT 10SM FEW012 25/22 A2998 260 81 1500 210/08 RMK AO2
63870K0J4 0J420160428125009804/28/16 12:50:31  5-MIN K0J4 281750Z AUTO 22009KT 10SM CLR 25/22 A2998 260 81 1500 220/09 RMK AO2
63870K0J4 0J420160428125514204/28/16 12:55:31  5-MIN K0J4 281755Z AUTO 21010KT 10SM FEW060 26/22 A2998 260 79 1600 210/10 RMK AO2 SLP149 60001 T02560217 10256 20206 53018
63870K0J4 0J420160428130012404/28/16 13:00:31  5-MIN K0J4 281800Z AUTO 21007KT 190V290 10SM FEW014 SCT060 26/22 A2999 260 79 1600 210/07 190V290 RMK AO2
63870K0J4 0J420160428130510804/28/16 13:05:31  5-MIN K0J4 281805Z AUTO 22007KT 10SM FEW015 SCT060 26/22 A2999 250 79 1600 220/07 RMK AO2
63870K0J4 0J420160428131010804/28/16 13:10:31  5-MIN K0J4 281810Z AUTO 20007KT 10SM FEW015 SCT060 26/22 A2998 260 79 1600 200/07 RMK AO2
63870K0J4 0J420160428131510804/28/16 13:15:31  5-MIN K0J4 281815Z AUTO 18007KT 10SM FEW015 SCT060 26/22 A2998 260 76 1600 180/07 RMK AO2
63870K0J4 0J420160428132010804/28/16 13:20:31  5-MIN K0J4 281820Z AUTO 19009KT 10SM FEW015 SCT060 26/22 A2998 260 76 1600 190/09 RMK AO2
63870K0J4 0J420160428132510104/28/16 13:25:31  5-MIN K0J4 281825Z AUTO 20008KT 10SM FEW015 26/21 A2998 260 73 1600 200/08 RMK AO2
63870K0J4 0J420160428133010104/28/16 13:30:31  5-MIN K0J4 281830Z AUTO 21009KT 10SM FEW060 26/21 A2998 260 73 1600 210/09 RMK AO2
63870K0J4 0J420160428133510104/28/16 13:35:31  5-MIN K0J4 281835Z AUTO 21010KT 10SM FEW019 26/21 A2999 260 73 1600 210/10 RMK AO2
63870K0J4 0J420160428134010104/28/16 13:40:31  5-MIN K0J4 281840Z AUTO 21010KT 10SM FEW021 26/21 A2999 260 73 1600 210/10 RMK AO2
63870K0J4 0J420160428134510104/28/16 13:45:31  5-MIN K0J4 281845Z AUTO 20010KT 10SM FEW021 26/21 A2998 260 73 1600 200/10 RMK AO2
63870K0J4 0J420160428135012104/28/16 13:50:31  5-MIN K0J4 281850Z AUTO 20012G17KT 10SM FEW021 SCT028 SCT036 26/21 A2998 260 71 1600 200/12G17 RMK AO2
63870K0J4 0J420160428135513104/28/16 13:55:31  5-MIN K0J4 281855Z AUTO 20009G18KT 10SM FEW021 SCT036 26/21 A2998 260 73 1600 200/09G18 RMK AO2 SLP148 T02610211
63870K0J4 0J420160428140010704/28/16 14:00:31  5-MIN K0J4 281900Z AUTO 20010G18KT 10SM FEW021 26/21 A2999 260 73 1600 200/10G18 RMK AO2
63870K0J4 0J420160428140511404/28/16 14:05:31  5-MIN K0J4 281905Z AUTO 19011G17KT 10SM FEW023 SCT031 26/21 A2998 260 71 1600 190/11G17 RMK AO2
63870K0J4 0J420160428141010804/28/16 14:10:31  5-MIN K0J4 281910Z AUTO 20009KT 10SM FEW023 SCT031 26/21 A2998 260 71 1600 200/09 RMK AO2
63870K0J4 0J420160428141510104/28/16 14:15:31  5-MIN K0J4 281915Z AUTO 19010KT 10SM FEW031 26/21 A2998 260 71 1600 190/10 RMK AO2
63870K0J4 0J420160428142010104/28/16 14:20:31  5-MIN K0J4 281920Z AUTO 20013KT 10SM FEW031 26/21 A2998 260 71 1600 200/13 RMK AO2
63870K0J4 0J420160428142510104/28/16 14:25:31  5-MIN K0J4 281925Z AUTO 20009KT 10SM FEW028 26/20 A2998 260 68 1600 200/09 RMK AO2
63870K0J4 0J420160428143010104/28/16 14:30:31  5-MIN K0J4 281930Z AUTO 21007KT 10SM FEW028 26/21 A2997 270 71 1700 210/07 RMK AO2
63870K0J4 0J420160428143510104/28/16 14:35:31  5-MIN K0J4 281935Z AUTO 21006KT 10SM FEW028 26/21 A2997 270 71 1700 210/06 RMK AO2
63870K0J4 0J420160428144010104/28/16 14:40:31  5-MIN K0J4 281940Z AUTO 20009KT 10SM FEW026 26/20 A2997 270 68 1700 200/09 RMK AO2
63870K0J4 0J420160428144510104/28/16 14:45:31  5-MIN K0J4 281945Z AUTO 21010KT 10SM FEW026 26/20 A2997 270 68 1700 210/10 RMK AO2
63870K0J4 0J420160428145010104/28/16 14:50:31  5-MIN K0J4 281950Z AUTO 21008KT 10SM FEW026 27/21 A2997 270 69 1700 210/08 RMK AO2
63870K0J4 0J420160428145511804/28/16 14:55:31  5-MIN K0J4 281955Z AUTO 21010KT 10SM FEW026 26/20 A2997 270 68 1700 210/10 RMK AO2 SLP143 T02610200
63870K0J4 0J420160428150010104/28/16 15:00:31  5-MIN K0J4 282000Z AUTO 21010KT 10SM FEW026 26/20 A2997 270 68 1700 210/10 RMK AO2
63870K0J4 0J420160428150510104/28/16 15:05:31  5-MIN K0J4 282005Z AUTO 21010KT 10SM FEW026 26/20 A2997 270 68 1700 210/10 RMK AO2
63870K0J4 0J420160428151010104/28/16 15:10:31  5-MIN K0J4 282010Z AUTO 21007KT 10SM FEW026 26/20 A2997 270 68 1700 210/07 RMK AO2
63870K0J4 0J420160428151510104/28/16 15:15:31  5-MIN K0J4 282015Z AUTO 20007KT 10SM SCT026 26/20 A2997 270 68 1700 200/07 RMK AO2
63870K0J4 0J420160428152010104/28/16 15:20:31  5-MIN K0J4 282020Z AUTO 20007KT 10SM SCT026 26/20 A2997 270 68 1700 200/07 RMK AO2
63870K0J4 0J420160428152510104/28/16 15:25:31  5-MIN K0J4 282025Z AUTO 20007KT 10SM SCT026 26/20 A2996 280 68 1700 200/07 RMK AO2
63870K0J4 0J420160428153010104/28/16 15:30:31  5-MIN K0J4 282030Z AUTO 20005KT 10SM SCT026 26/21 A2996 280 71 1700 200/05 RMK AO2
63870K0J4 0J420160428153510104/28/16 15:35:31  5-MIN K0J4 282035Z AUTO 19008KT 10SM FEW026 26/20 A2996 280 68 1700 190/08 RMK AO2
63870K0J4 0J420160428154010104/28/16 15:40:31  5-MIN K0J4 282040Z AUTO 21008KT 10SM FEW026 26/20 A2996 280 68 1700 210/08 RMK AO2
63870K0J4 0J420160428154510104/28/16 15:45:31  5-MIN K0J4 282045Z AUTO 19008KT 10SM FEW026 26/20 A2996 280 68 1700 190/08 RMK AO2
63870K0J4 0J420160428155009804/28/16 15:50:31  5-MIN K0J4 282050Z AUTO 20009KT 10SM CLR 26/20 A2996 280 68 1700 200/09 RMK AO2
63870K0J4 0J420160428155512104/28/16 15:55:31  5-MIN K0J4 282055Z AUTO 19008KT 10SM CLR 26/20 A2996 280 71 1600 190/08 RMK AO2 SLP141 T02560200 58004
63870K0J4 0J420160428160009804/28/16 16:00:31  5-MIN K0J4 282100Z AUTO 20009KT 10SM CLR 26/20 A2996 280 71 1600 200/09 RMK AO2
63870K0J4 0J420160428160509804/28/16 16:05:31  5-MIN K0J4 282105Z AUTO 20006KT 10SM CLR 26/20 A2996 280 68 1700 200/06 RMK AO2
63870K0J4 0J420160428161009804/28/16 16:10:31  5-MIN K0J4 282110Z AUTO 23005KT 10SM CLR 26/21 A2996 280 71 1700 230/05 RMK AO2
63870K0J4 0J420160428161509804/28/16 16:15:31  5-MIN K0J4 282115Z AUTO 22008KT 10SM CLR 26/20 A2996 280 68 1700 220/08 RMK AO2
63870K0J4 0J420160428162009804/28/16 16:20:31  5-MIN K0J4 282120Z AUTO 24004KT 10SM CLR 26/19 A2996 280 68 1600 240/04 RMK AO2
63870K0J4 0J420160428162509804/28/16 16:25:31  5-MIN K0J4 282125Z AUTO 22008KT 10SM CLR 26/20 A2996 280 71 1600 220/08 RMK AO2
63870K0J4 0J420160428163009804/28/16 16:30:31  5-MIN K0J4 282130Z AUTO 22008KT 10SM CLR 26/19 A2997 270 68 1600 220/08 RMK AO2
63870K0J4 0J420160428163509804/28/16 16:35:31  5-MIN K0J4 282135Z AUTO 22006KT 10SM CLR 26/19 A2997 270 68 1600 220/06 RMK AO2
63870K0J4 0J420160428164009804/28/16 16:40:31  5-MIN K0J4 282140Z AUTO 22005KT 10SM CLR 26/19 A2997 270 68 1600 220/05 RMK AO2
63870K0J4 0J420160428164509804/28/16 16:45:31  5-MIN K0J4 282145Z AUTO 21007KT 10SM CLR 26/19 A2997 270 68 1600 210/07 RMK AO2
63870K0J4 0J420160428165009804/28/16 16:50:31  5-MIN K0J4 282150Z AUTO 21008KT 10SM CLR 26/19 A2997 270 68 1600 210/08 RMK AO2
63870K0J4 0J420160428165511504/28/16 16:55:31  5-MIN K0J4 282155Z AUTO 22006KT 10SM CLR 26/19 A2997 270 68 1600 220/06 RMK AO2 SLP145 T02560194
63870K0J4 0J420160428170009804/28/16 17:00:31  5-MIN K0J4 282200Z AUTO 22004KT 10SM CLR 26/19 A2997 270 68 1600 220/04 RMK AO2
63870K0J4 0J420160428170509804/28/16 17:05:31  5-MIN K0J4 282205Z AUTO 22005KT 10SM CLR 26/19 A2997 270 68 1600 220/05 RMK AO2
63870K0J4 0J420160428171009804/28/16 17:10:31  5-MIN K0J4 282210Z AUTO 21007KT 10SM CLR 26/19 A2997 270 68 1600 210/07 RMK AO2
63870K0J4 0J420160428171509804/28/16 17:15:31  5-MIN K0J4 282215Z AUTO 20006KT 10SM CLR 26/19 A2997 270 68 1600 200/06 RMK AO2
63870K0J4 0J420160428172009804/28/16 17:20:31  5-MIN K0J4 282220Z AUTO 20009KT 10SM CLR 26/19 A2997 270 68 1600 200/09 RMK AO2
63870K0J4 0J420160428172509804/28/16 17:25:31  5-MIN K0J4 282225Z AUTO 22006KT 10SM CLR 26/19 A2997 270 68 1600 220/06 RMK AO2
63870K0J4 0J420160428173009804/28/16 17:30:31  5-MIN K0J4 282230Z AUTO 20006KT 10SM CLR 26/19 A2997 270 68 1600 200/06 RMK AO2
63870K0J4 0J420160428173509804/28/16 17:35:31  5-MIN K0J4 282235Z AUTO 20005KT 10SM CLR 26/19 A2997 270 68 1600 200/05 RMK AO2
63870K0J4 0J420160428174009804/28/16 17:40:31  5-MIN K0J4 282240Z AUTO 22004KT 10SM CLR 25/19 A2997 270 71 1500 220/04 RMK AO2
63870K0J4 0J420160428174509804/28/16 17:45:31  5-MIN K0J4 282245Z AUTO 22003KT 10SM CLR 25/19 A2997 270 71 1500 220/03 RMK AO2
63870K0J4 0J420160428175009804/28/16 17:50:31  5-MIN K0J4 282250Z AUTO 24003KT 10SM CLR 25/20 A2997 270 73 1500 240/03 RMK AO2
63870K0J4 0J420160428175511504/28/16 17:55:31  5-MIN K0J4 282255Z AUTO 00000KT 10SM CLR 25/20 A2997 270 73 1500 000/00 RMK AO2 SLP144 T02500200
63870K0J4 0J420160428180009804/28/16 18:00:31  5-MIN K0J4 282300Z AUTO 00000KT 10SM CLR 25/20 A2997 270 73 1500 000/00 RMK AO2
63870K0J4 0J420160428180509804/28/16 18:05:31  5-MIN K0J4 282305Z AUTO 00000KT 10SM CLR 25/20 A2997 270 73 1500 000/00 RMK AO2
63870K0J4 0J420160428181009804/28/16 18:10:31  5-MIN K0J4 282310Z AUTO 00000KT 10SM CLR 25/20 A2997 270 73 1500 000/00 RMK AO2
63870K0J4 0J420160428181509804/28/16 18:15:31  5-MIN K0J4 282315Z AUTO 23003KT 10SM CLR 25/20 A2997 270 73 1500 230/03 RMK AO2
63870K0J4 0J420160428182009804/28/16 18:20:31  5-MIN K0J4 282320Z AUTO 23003KT 10SM CLR 25/20 A2997 270 73 1500 230/03 RMK AO2
63870K0J4 0J420160428182509804/28/16 18:25:31  5-MIN K0J4 282325Z AUTO 22003KT 10SM CLR 25/20 A2997 270 73 1500 220/03 RMK AO2
63870K0J4 0J420160428183009804/28/16 18:30:31  5-MIN K0J4 282330Z AUTO 22004KT 10SM CLR 25/19 A2997 270 71 1500 220/04 RMK AO2
63870K0J4 0J420160428183509804/28/16 18:35:31  5-MIN K0J4 282335Z AUTO 22005KT 10SM CLR 25/19 A2997 270 71 1500 220/05 RMK AO2
63870K0J4 0J420160428184009804/28/16 18:40:31  5-MIN K0J4 282340Z AUTO 22004KT 10SM CLR 24/19 A2997 270 73 1500 220/04 RMK AO2
63870K0J4 0J420160428184509804/28/16 18:45:31  5-MIN K0J4 282345Z AUTO 22003KT 10SM CLR 24/20 A2997 270 76 1500 220/03 RMK AO2
63870K0J4 0J420160428185009804/28/16 18:50:31  5-MIN K0J4 282350Z AUTO 23004KT 10SM CLR 24/20 A2997 270 76 1500 230/04 RMK AO2
63870K0J4 0J420160428185513304/28/16 18:55:31  5-MIN K0J4 282355Z AUTO 23003KT 10SM CLR 24/20 A2997 270 76 1500 230/03 RMK AO2 SLP144 T02440200 10267 20244 58008
63870K0J4 0J420160428190009804/28/16 19:00:31  5-MIN K0J4 290000Z AUTO 00000KT 10SM CLR 24/20 A2997 270 78 1400 000/00 RMK AO2
63870K0J4 0J420160428190509804/28/16 19:05:31  5-MIN K0J4 290005Z AUTO 00000KT 10SM CLR 24/20 A2997 270 78 1400 000/00 RMK AO2
63870K0J4 0J420160428191009804/28/16 19:10:31  5-MIN K0J4 290010Z AUTO 00000KT 10SM CLR 23/20 A2996 280 81 1300 000/00 RMK AO2
63870K0J4 0J420160428191509804/28/16 19:15:31  5-MIN K0J4 290015Z AUTO 00000KT 10SM CLR 23/20 A2996 280 81 1300 000/00 RMK AO2
63870K0J4 0J420160428192009804/28/16 19:20:31  5-MIN K0J4 290020Z AUTO 00000KT 10SM CLR 23/20 A2996 280 81 1300 000/00 RMK AO2
63870K0J4 0J420160428192509804/28/16 19:25:31  5-MIN K0J4 290025Z AUTO 00000KT 10SM CLR 23/20 A2996 280 84 1300 000/00 RMK AO2
63870K0J4 0J420160428193009804/28/16 19:30:31  5-MIN K0J4 290030Z AUTO 00000KT 10SM CLR 23/20 A2996 280 84 1300 000/00 RMK AO2
63870K0J4 0J420160428193509704/28/16 19:35:31  5-MIN K0J4 290035Z AUTO 00000KT 9SM CLR 22/20 A2996 280 87 1200 000/00 RMK AO2
63870K0J4 0J420160428194009704/28/16 19:40:31  5-MIN K0J4 290040Z AUTO 00000KT 9SM CLR 22/20 A2997 270 90 1200 000/00 RMK AO2
63870K0J4 0J420160428194509804/28/16 19:45:31  5-MIN K0J4 290045Z AUTO 00000KT 10SM CLR 22/20 A2997 270 90 1200 000/00 RMK AO2
63870K0J4 0J420160428195009804/28/16 19:50:31  5-MIN K0J4 290050Z AUTO 00000KT 10SM CLR 21/20 A2997 270 93 1100 000/00 RMK AO2
63870K0J4 0J420160428195511504/28/16 19:55:31  5-MIN K0J4 290055Z AUTO 00000KT 10SM CLR 21/19 A2997 270 90 1100 000/00 RMK AO2 SLP145 T02110194
63870K0J4 0J420160428200009804/28/16 20:00:31  5-MIN K0J4 290100Z AUTO 00000KT 10SM CLR 21/19 A2997 270 90 1100 000/00 RMK AO2
63870K0J4 0J420160428200509804/28/16 20:05:31  5-MIN K0J4 290105Z AUTO 00000KT 10SM CLR 21/19 A2998 260 90 1100 000/00 RMK AO2
63870K0J4 0J420160428201009704/28/16 20:10:31  5-MIN K0J4 290110Z AUTO 00000KT 9SM CLR 21/19 A2998 260 93 1000 000/00 RMK AO2
63870K0J4 0J420160428201509704/28/16 20:15:31  5-MIN K0J4 290115Z AUTO 00000KT 9SM CLR 21/19 A2998 260 90 1100 000/00 RMK AO2
63870K0J4 0J420160428202009804/28/16 20:20:31  5-MIN K0J4 290120Z AUTO 00000KT 10SM CLR 21/19 A2998 260 90 1100 000/00 RMK AO2
63870K0J4 0J420160428202509804/28/16 20:25:31  5-MIN K0J4 290125Z AUTO 00000KT 10SM CLR 21/19 A2999 260 90 1000 000/00 RMK AO2
63870K0J4 0J420160428203009804/28/16 20:30:31  5-MIN K0J4 290130Z AUTO 00000KT 10SM CLR 21/19 A2999 250 90 1000 000/00 RMK AO2
63870K0J4 0J420160428203509804/28/16 20:35:31  5-MIN K0J4 290135Z AUTO 00000KT 10SM CLR 21/19 A2999 250 90 1000 000/00 RMK AO2
63870K0J4 0J420160428204009804/28/16 20:40:31  5-MIN K0J4 290140Z AUTO 00000KT 10SM CLR 21/19 A2999 250 90 1000 000/00 RMK AO2
63870K0J4 0J420160428204509804/28/16 20:45:31  5-MIN K0J4 290145Z AUTO 00000KT 10SM CLR 21/19 A2999 250 90 1000 000/00 RMK AO2
63870K0J4 0J420160428205009804/28/16 20:50:31  5-MIN K0J4 290150Z AUTO 00000KT 10SM CLR 21/19 A3000 250 90 1000 000/00 RMK AO2
63870K0J4 0J420160428205511404/28/16 20:55:31  5-MIN K0J4 290155Z AUTO 00000KT 10SM CLR 20/18 A3000 250 90 900 000/00 RMK AO2 SLP154 T02000183
63870K0J4 0J420160428210009804/28/16 21:00:31  5-MIN K0J4 290200Z AUTO 00000KT 10SM CLR 21/19 A3000 250 90 1000 000/00 RMK AO2
63870K0J4 0J420160428210509804/28/16 21:05:31  5-MIN K0J4 290205Z AUTO 00000KT 10SM CLR 21/19 A3000 240 90 1000 000/00 RMK AO2
63870K0J4 0J420160428211009704/28/16 21:10:31  5-MIN K0J4 290210Z AUTO 00000KT 10SM CLR 20/19 A3000 240 93 900 000/00 RMK AO2
63870K0J4 0J420160428211509604/28/16 21:15:31  5-MIN K0J4 290215Z AUTO 00000KT 9SM CLR 20/18 A3000 240 90 900 000/00 RMK AO2
63870K0J4 0J420160428212009604/28/16 21:20:31  5-MIN K0J4 290220Z AUTO 00000KT 9SM CLR 20/18 A3000 240 90 900 000/00 RMK AO2
63870K0J4 0J420160428212509604/28/16 21:25:31  5-MIN K0J4 290225Z AUTO 00000KT 9SM CLR 20/18 A3000 240 90 900 000/00 RMK AO2
63870K0J4 0J420160428213009604/28/16 21:30:31  5-MIN K0J4 290230Z AUTO 00000KT 9SM CLR 19/18 A3000 240 93 900 000/00 RMK AO2
63870K0J4 0J420160428213509604/28/16 21:35:31  5-MIN K0J4 290235Z AUTO 00000KT 9SM CLR 19/18 A3000 240 93 900 000/00 RMK AO2
63870K0J4 0J420160428214009604/28/16 21:40:31  5-MIN K0J4 290240Z AUTO 00000KT 9SM CLR 19/18 A3000 240 90 900 000/00 RMK AO2
63870K0J4 0J420160428214509704/28/16 21:45:31  5-MIN K0J4 290245Z AUTO 00000KT 10SM CLR 19/18 A3000 240 93 800 000/00 RMK AO2
63870K0J4 0J420160428215009704/28/16 21:50:31  5-MIN K0J4 290250Z AUTO 00000KT 10SM CLR 19/18 A3001 240 93 900 000/00 RMK AO2
63870K0J4 0J420160428215512004/28/16 21:55:31  5-MIN K0J4 290255Z AUTO 00000KT 10SM CLR 20/18 A3000 240 90 900 000/00 RMK AO2 SLP157 T02000183 51002
63870K0J4 0J420160428220009704/28/16 22:00:31  5-MIN K0J4 290300Z AUTO 00000KT 10SM CLR 19/18 A3000 240 93 900 000/00 RMK AO2
63870K0J4 0J420160428220509604/28/16 22:05:31  5-MIN K0J4 290305Z AUTO 00000KT 9SM CLR 19/18 A3000 240 93 800 000/00 RMK AO2
63870K0J4 0J420160428221009704/28/16 22:10:31  5-MIN K0J4 290310Z AUTO 00000KT 10SM CLR 20/18 A3000 240 90 900 000/00 RMK AO2
63870K0J4 0J420160428221509704/28/16 22:15:31  5-MIN K0J4 290315Z AUTO 00000KT 10SM CLR 19/18 A3000 240 93 900 000/00 RMK AO2
63870K0J4 0J420160428222009604/28/16 22:20:31  5-MIN K0J4 290320Z AUTO 00000KT 9SM CLR 19/18 A3000 240 93 800 000/00 RMK AO2
63870K0J4 0J420160428222509604/28/16 22:25:31  5-MIN K0J4 290325Z AUTO 00000KT 8SM CLR 19/18 A3000 240 93 800 000/00 RMK AO2
63870K0J4 0J420160428223009604/28/16 22:30:31  5-MIN K0J4 290330Z AUTO 00000KT 8SM CLR 19/17 A3000 240 90 800 000/00 RMK AO2
63870K0J4 0J420160428223509604/28/16 22:35:31  5-MIN K0J4 290335Z AUTO 00000KT 8SM CLR 19/17 A3000 240 90 800 000/00 RMK AO2
63870K0J4 0J420160428224009604/28/16 22:40:31  5-MIN K0J4 290340Z AUTO 00000KT 8SM CLR 19/17 A3000 240 90 800 000/00 RMK AO2
63870K0J4 0J420160428224509604/28/16 22:45:31  5-MIN K0J4 290345Z AUTO 00000KT 8SM CLR 19/18 A3000 240 90 900 000/00 RMK AO2
63870K0J4 0J420160428225009604/28/16 22:50:31  5-MIN K0J4 290350Z AUTO 00000KT 8SM CLR 19/18 A3000 240 93 800 000/00 RMK AO2
63870K0J4 0J420160428225511304/28/16 22:55:31  5-MIN K0J4 290355Z AUTO 00000KT 8SM CLR 19/18 A3000 240 93 800 000/00 RMK AO2 SLP155 T01890178
63870K0J4 0J420160428230009604/28/16 23:00:31  5-MIN K0J4 290400Z AUTO 00000KT 8SM CLR 18/17 A3000 240 93 700 000/00 RMK AO2
63870K0J4 0J420160428230509604/28/16 23:05:31  5-MIN K0J4 290405Z AUTO 00000KT 9SM CLR 18/17 A3000 240 93 700 000/00 RMK AO2
63870K0J4 0J420160428231009604/28/16 23:10:31  5-MIN K0J4 290410Z AUTO 00000KT 9SM CLR 18/17 A3000 240 93 700 000/00 RMK AO2
63870K0J4 0J420160428231509604/28/16 23:15:31  5-MIN K0J4 290415Z AUTO 00000KT 9SM CLR 18/17 A3000 250 93 700 000/00 RMK AO2
63870K0J4 0J420160428232009604/28/16 23:20:31  5-MIN K0J4 290420Z AUTO 00000KT 9SM CLR 18/17 A3000 250 93 700 000/00 RMK AO2
63870K0J4 0J420160428232509704/28/16 23:25:31  5-MIN K0J4 290425Z AUTO 00000KT 10SM CLR 19/17 A3000 250 90 800 000/00 RMK AO2
63870K0J4 0J420160428233009704/28/16 23:30:31  5-MIN K0J4 290430Z AUTO 00000KT 10SM CLR 19/18 A3000 250 93 800 000/00 RMK AO2
63870K0J4 0J420160428233509704/28/16 23:35:31  5-MIN K0J4 290435Z AUTO 00000KT 10SM CLR 19/18 A3000 250 90 900 000/00 RMK AO2
63870K0J4 0J420160428234009704/28/16 23:40:31  5-MIN K0J4 290440Z AUTO 00000KT 10SM CLR 19/18 A3000 240 93 800 000/00 RMK AO2
63870K0J4 0J420160428234509704/28/16 23:45:31  5-MIN K0J4 290445Z AUTO 00000KT 10SM CLR 19/18 A3000 250 90 900 000/00 RMK AO2
63870K0J4 0J420160428235009704/28/16 23:50:31  5-MIN K0J4 290450Z AUTO 00000KT 10SM CLR 19/18 A3000 250 93 800 000/00 RMK AO2
63870K0J4 0J420160428235512404/28/16 23:55:31  5-MIN K0J4 290455Z AUTO 00000KT 10SM CLR 19/18 A3000 240 93 800 000/00 RMK AO2 SLP154 T01890178 402670183
63870K0J4 0J420160429000009604/29/16 00:00:31  5-MIN K0J4 290500Z AUTO 00000KT 9SM CLR 19/18 A3000 250 93 800 000/00 RMK AO2
63870K0J4 0J420160429000509604/29/16 00:05:31  5-MIN K0J4 290505Z AUTO 00000KT 9SM CLR 19/17 A2999 250 90 800 000/00 RMK AO2
63870K0J4 0J420160429001009604/29/16 00:10:31  5-MIN K0J4 290510Z AUTO 00000KT 9SM CLR 19/18 A2999 250 93 800 000/00 RMK AO2
63870K0J4 0J420160429001509604/29/16 00:15:31  5-MIN K0J4 290515Z AUTO 00000KT 9SM CLR 19/18 A2999 250 93 800 000/00 RMK AO2
63870K0J4 0J420160429002009604/29/16 00:20:31  5-MIN K0J4 290520Z AUTO 00000KT 8SM CLR 19/18 A2999 250 93 800 000/00 RMK AO2
63870K0J4 0J420160429002509604/29/16 00:25:31  5-MIN K0J4 290525Z AUTO 00000KT 7SM CLR 19/18 A2999 250 93 800 000/00 RMK AO2
63870K0J4 0J420160429003009604/29/16 00:30:31  5-MIN K0J4 290530Z AUTO 00000KT 7SM CLR 19/18 A2999 250 93 800 000/00 RMK AO2
63870K0J4 0J420160429030509904/29/16 03:05:31  5-MIN K0J4 290805Z AUTO 00000KT 6SM BR CLR 17/17 A3000 250 96 600 000/00 RMK AO2
63870K0J4 0J420160429031009904/29/16 03:10:31  5-MIN K0J4 290810Z AUTO 00000KT 6SM BR CLR 18/17 A3000 250 93 700 000/00 RMK AO2
63870K0J4 0J420160429031509904/29/16 03:15:31  5-MIN K0J4 290815Z AUTO 00000KT 5SM BR CLR 18/17 A3000 250 93 700 000/00 RMK AO2
63870K0J4 0J420160429032009904/29/16 03:20:31  5-MIN K0J4 290820Z AUTO 00000KT 5SM BR CLR 18/17 A3000 240 93 700 000/00 RMK AO2
63870K0J4 0J420160429032509904/29/16 03:25:31  5-MIN K0J4 290825Z AUTO 00000KT 5SM BR CLR 18/17 A3000 240 96 700 000/00 RMK AO2
63870K0J4 0J420160429033009904/29/16 03:30:31  5-MIN K0J4 290830Z AUTO 00000KT 6SM BR CLR 17/16 A3000 240 93 600 000/00 RMK AO2
63870K0J4 0J420160429033509904/29/16 03:35:31  5-MIN K0J4 290835Z AUTO 00000KT 6SM BR CLR 17/17 A3000 240 96 600 000/00 RMK AO2
63870K0J4 0J420160429034009604/29/16 03:40:31  5-MIN K0J4 290840Z AUTO 00000KT 7SM CLR 17/16 A3000 240 93 600 000/00 RMK AO2
63870K0J4 0J420160429034509904/29/16 03:45:31  5-MIN K0J4 290845Z AUTO 00000KT 6SM BR CLR 17/16 A3000 240 93 600 000/00 RMK AO2
63870K0J4 0J420160429035009604/29/16 03:50:31  5-MIN K0J4 290850Z AUTO 00000KT 7SM CLR 17/16 A3000 240 93 600 000/00 RMK AO2
63870K0J4 0J420160429035512204/29/16 03:55:31  5-MIN K0J4 290855Z AUTO 00000KT 7SM SCT055 17/16 A3001 240 93 600 000/00 RMK AO2 SLP157 T01720161 56002
63870K0J4 0J420160429040009904/29/16 04:00:31  5-MIN K0J4 290900Z AUTO 00000KT 7SM SCT055 17/16 A3000 240 93 600 000/00 RMK AO2
63870K0J4 0J420160429040509904/29/16 04:05:31  5-MIN K0J4 290905Z AUTO 00000KT 7SM SCT055 17/16 A3001 240 93 600 000/00 RMK AO2
63870K0J4 0J420160429041010204/29/16 04:10:31  5-MIN K0J4 290910Z AUTO 00000KT 6SM BR FEW055 17/16 A3001 240 96 500 000/00 RMK AO2
63870K0J4 0J420160429041510204/29/16 04:15:31  5-MIN K0J4 290915Z AUTO 00000KT 5SM BR FEW055 17/16 A3001 240 96 500 000/00 RMK AO2
63870K0J4 0J420160429042010204/29/16 04:20:31  5-MIN K0J4 290920Z AUTO 00000KT 6SM BR FEW055 17/16 A3001 240 96 500 000/00 RMK AO2
63870K0J4 0J420160429042509904/29/16 04:25:31  5-MIN K0J4 290925Z AUTO 00000KT 7SM FEW055 17/16 A3001 240 93 600 000/00 RMK AO2
63870K0J4 0J420160429043009904/29/16 04:30:31  5-MIN K0J4 290930Z AUTO 00000KT 6SM BR CLR 17/17 A3001 240 96 600 000/00 RMK AO2
63870K0J4 0J420160429043509904/29/16 04:35:31  5-MIN K0J4 290935Z AUTO 00000KT 6SM BR CLR 17/16 A3001 240 93 600 000/00 RMK AO2
63870K0J4 0J420160429044009904/29/16 04:40:31  5-MIN K0J4 290940Z AUTO 00000KT 6SM BR CLR 17/16 A3001 240 93 600 000/00 RMK AO2
63870K0J4 0J420160429044509904/29/16 04:45:31  5-MIN K0J4 290945Z AUTO 00000KT 6SM BR CLR 17/16 A3001 240 93 600 000/00 RMK AO2
63870K0J4 0J420160429045009904/29/16 04:50:31  5-MIN K0J4 290950Z AUTO 00000KT 6SM BR CLR 17/16 A3001 240 96 500 000/00 RMK AO2
63870K0J4 0J420160429045511604/29/16 04:55:31  5-MIN K0J4 290955Z AUTO 00000KT 6SM BR CLR 17/16 A3001 240 96 500 000/00 RMK AO2 SLP157 T01670161
63870K0J4 0J420160429050009904/29/16 05:00:31  5-MIN K0J4 291000Z AUTO 00000KT 6SM BR CLR 17/16 A3001 240 96 500 000/00 RMK AO2
63870K0J4 0J420160429050509604/29/16 05:05:31  5-MIN K0J4 291005Z AUTO 00000KT 7SM CLR 17/16 A3001 240 96 500 000/00 RMK AO2
63870K0J4 0J420160429051009604/29/16 05:10:31  5-MIN K0J4 291010Z AUTO 00000KT 7SM CLR 17/16 A3001 240 93 500 000/00 RMK AO2
63870K0J4 0J420160429051509604/29/16 05:15:31  5-MIN K0J4 291015Z AUTO 00000KT 7SM CLR 17/16 A3001 230 96 500 000/00 RMK AO2
63870K0J4 0J420160429052009604/29/16 05:20:31  5-MIN K0J4 291020Z AUTO 00000KT 7SM CLR 17/16 A3001 230 93 500 000/00 RMK AO2
63870K0J4 0J420160429052509604/29/16 05:25:31  5-MIN K0J4 291025Z AUTO 00000KT 8SM CLR 17/16 A3001 230 93 500 000/00 RMK AO2
63870K0J4 0J420160429053009604/29/16 05:30:31  5-MIN K0J4 291030Z AUTO 00000KT 9SM CLR 17/16 A3001 240 96 500 000/00 RMK AO2
63870K0J4 0J420160429053509704/29/16 05:35:31  5-MIN K0J4 291035Z AUTO 00000KT 10SM CLR 17/16 A3001 230 93 500 000/00 RMK AO2
63870K0J4 0J420160429054009704/29/16 05:40:31  5-MIN K0J4 291040Z AUTO 00000KT 10SM CLR 17/15 A3001 230 90 500 000/00 RMK AO2
63870K0J4 0J420160429054509604/29/16 05:45:31  5-MIN K0J4 291045Z AUTO 00000KT 9SM CLR 17/16 A3001 230 93 500 000/00 RMK AO2
63870K0J4 0J420160429055009604/29/16 05:50:31  5-MIN K0J4 291050Z AUTO 00000KT 9SM CLR 17/16 A3001 230 93 500 000/00 RMK AO2
63870K0J4 0J420160429055511304/29/16 05:55:31  5-MIN K0J4 291055Z AUTO 00000KT 8SM CLR 16/16 A3001 230 96 500 000/00 RMK AO2 SLP159 T01610156
63870K0J4 0J420160429060009604/29/16 06:00:31  5-MIN K0J4 291100Z AUTO 00000KT 7SM CLR 17/16 A3001 230 93 500 000/00 RMK AO2
63870K0J4 0J420160429060509604/29/16 06:05:31  5-MIN K0J4 291105Z AUTO 00000KT 7SM CLR 16/16 A3001 230 96 500 000/00 RMK AO2
63870K0J4 0J420160429061009604/29/16 06:10:31  5-MIN K0J4 291110Z AUTO 00000KT 7SM CLR 17/16 A3001 230 93 500 000/00 RMK AO2
63870K0J4 0J420160429061509604/29/16 06:15:31  5-MIN K0J4 291115Z AUTO 00000KT 8SM CLR 17/16 A3001 230 93 500 000/00 RMK AO2
63870K0J4 0J420160429062009604/29/16 06:20:31  5-MIN K0J4 291120Z AUTO 00000KT 8SM CLR 17/16 A3001 230 93 500 000/00 RMK AO2
63870K0J4 0J420160429062509604/29/16 06:25:31  5-MIN K0J4 291125Z AUTO 00000KT 8SM CLR 17/16 A3001 230 93 500 000/00 RMK AO2
63870K0J4 0J420160429063009604/29/16 06:30:31  5-MIN K0J4 291130Z AUTO 00000KT 8SM CLR 17/16 A3001 230 93 500 000/00 RMK AO2
63870K0J4 0J420160429063509604/29/16 06:35:31  5-MIN K0J4 291135Z AUTO 00000KT 8SM CLR 17/16 A3001 230 93 600 000/00 RMK AO2
63870K0J4 0J420160429064009604/29/16 06:40:31  5-MIN K0J4 291140Z AUTO 00000KT 8SM CLR 17/16 A3001 230 93 600 000/00 RMK AO2
63870K0J4 0J420160429064509604/29/16 06:45:31  5-MIN K0J4 291145Z AUTO 00000KT 9SM CLR 18/17 A3001 230 93 600 000/00 RMK AO2
63870K0J4 0J420160429065009604/29/16 06:50:31  5-MIN K0J4 291150Z AUTO 00000KT 9SM CLR 18/17 A3001 230 93 600 000/00 RMK AO2
63870K0J4 0J420160429065514004/29/16 06:55:31  5-MIN K0J4 291155Z AUTO 00000KT 9SM FEW060 18/17 A3001 230 93 700 000/00 RMK AO2 SLP160 70001 T01830172 10189 20161 53003
63870K0J4 0J420160429070009904/29/16 07:00:31  5-MIN K0J4 291200Z AUTO 00000KT 9SM FEW060 19/17 A3002 230 90 800 000/00 RMK AO2
63870K0J4 0J420160429070509904/29/16 07:05:31  5-MIN K0J4 291205Z AUTO 00000KT 9SM FEW060 19/18 A3002 230 93 800 000/00 RMK AO2
63870K0J4 0J420160429071009904/29/16 07:10:31  5-MIN K0J4 291210Z AUTO 00000KT 9SM FEW060 19/18 A3002 230 93 800 000/00 RMK AO2
63870K0J4 0J420160429071509904/29/16 07:15:31  5-MIN K0J4 291215Z AUTO 00000KT 9SM FEW060 19/18 A3002 230 90 800 000/00 RMK AO2
63870K0J4 0J420160429072009904/29/16 07:20:31  5-MIN K0J4 291220Z AUTO 00000KT 9SM FEW060 19/18 A3002 230 93 800 000/00 RMK AO2
63870K0J4 0J420160429072510004/29/16 07:25:31  5-MIN K0J4 291225Z AUTO 00000KT 10SM FEW060 20/18 A3002 230 90 900 000/00 RMK AO2
63870K0J4 0J420160429073010104/29/16 07:30:31  5-MIN K0J4 291230Z AUTO 00000KT 10SM FEW060 21/18 A3002 220 87 1000 000/00 RMK AO2
63870K0J4 0J420160429073510104/29/16 07:35:31  5-MIN K0J4 291235Z AUTO 00000KT 10SM FEW060 21/19 A3002 230 90 1000 000/00 RMK AO2
63870K0J4 0J420160429074009804/29/16 07:40:31  5-MIN K0J4 291240Z AUTO 00000KT 10SM CLR 21/18 A3002 230 84 1000 000/00 RMK AO2
63870K0J4 0J420160429074509804/29/16 07:45:31  5-MIN K0J4 291245Z AUTO 00000KT 10SM CLR 21/19 A3002 230 87 1000 000/00 RMK AO2
63870K0J4 0J420160429075009804/29/16 07:50:31  5-MIN K0J4 291250Z AUTO 00000KT 10SM CLR 22/19 A3002 230 84 1100 000/00 RMK AO2
63870K0J4 0J420160429075511504/29/16 07:55:31  5-MIN K0J4 291255Z AUTO 00000KT 10SM CLR 22/19 A3002 220 81 1200 000/00 RMK AO2 SLP162 T02220189
63870K0J4 0J420160429080009804/29/16 08:00:31  5-MIN K0J4 291300Z AUTO 00000KT 10SM CLR 23/19 A3002 230 78 1200 000/00 RMK AO2
63870K0J4 0J420160429080509804/29/16 08:05:31  5-MIN K0J4 291305Z AUTO 00000KT 10SM CLR 23/18 A3002 230 76 1200 000/00 RMK AO2
63870K0J4 0J420160429081009804/29/16 08:10:31  5-MIN K0J4 291310Z AUTO 00000KT 10SM CLR 23/19 A3002 230 81 1200 000/00 RMK AO2
63870K0J4 0J420160429081509804/29/16 08:15:31  5-MIN K0J4 291315Z AUTO 00000KT 10SM CLR 23/19 A3002 230 81 1200 000/00 RMK AO2
63870K0J4 0J420160429082009804/29/16 08:20:31  5-MIN K0J4 291320Z AUTO 00000KT 10SM CLR 23/19 A3002 230 76 1300 000/00 RMK AO2
63870K0J4 0J420160429082509804/29/16 08:25:31  5-MIN K0J4 291325Z AUTO 00000KT 10SM CLR 23/18 A3002 230 73 1300 000/00 RMK AO2
63870K0J4 0J420160429083009804/29/16 08:30:31  5-MIN K0J4 291330Z AUTO 00000KT 10SM CLR 24/18 A3002 220 68 1300 000/00 RMK AO2
63870K0J4 0J420160429083509804/29/16 08:35:31  5-MIN K0J4 291335Z AUTO 00000KT 10SM CLR 24/18 A3002 230 66 1400 000/00 RMK AO2
63870K0J4 0J420160429084009804/29/16 08:40:31  5-MIN K0J4 291340Z AUTO 00000KT 10SM CLR 24/18 A3002 230 68 1400 000/00 RMK AO2
63870K0J4 0J420160429084509804/29/16 08:45:31  5-MIN K0J4 291345Z AUTO 00000KT 10SM CLR 24/18 A3002 230 68 1400 000/00 RMK AO2
63870K0J4 0J420160429085009804/29/16 08:50:31  5-MIN K0J4 291350Z AUTO 00000KT 10SM CLR 25/19 A3002 230 68 1500 000/00 RMK AO2
63870K0J4 0J420160429085511504/29/16 08:55:31  5-MIN K0J4 291355Z AUTO 00000KT 10SM CLR 24/19 A3002 230 71 1400 000/00 RMK AO2 SLP160 T02440189
63870K0J4 0J420160429090009804/29/16 09:00:31  5-MIN K0J4 291400Z AUTO 00000KT 10SM CLR 25/19 A3001 230 68 1500 000/00 RMK AO2
63870K0J4 0J420160429090509804/29/16 09:05:31  5-MIN K0J4 291405Z AUTO 12003KT 10SM CLR 26/19 A3002 230 68 1500 120/03 RMK AO2
63870K0J4 0J420160429091009804/29/16 09:10:31  5-MIN K0J4 291410Z AUTO 00000KT 10SM CLR 26/19 A3002 230 68 1500 000/00 RMK AO2
63870K0J4 0J420160429091509804/29/16 09:15:31  5-MIN K0J4 291415Z AUTO 00000KT 10SM CLR 26/19 A3001 230 66 1600 000/00 RMK AO2
63870K0J4 0J420160429092009804/29/16 09:20:31  5-MIN K0J4 291420Z AUTO 13004KT 10SM CLR 26/19 A3001 230 66 1600 130/04 RMK AO2
63870K0J4 0J420160429092509804/29/16 09:25:31  5-MIN K0J4 291425Z AUTO 07004KT 10SM CLR 26/19 A3001 230 66 1600 070/04 RMK AO2
63870K0J4 0J420160429093009804/29/16 09:30:31  5-MIN K0J4 291430Z AUTO 08003KT 10SM CLR 26/19 A3001 230 66 1600 080/03 RMK AO2
63870K0J4 0J420160429093509804/29/16 09:35:31  5-MIN K0J4 291435Z AUTO 08005KT 10SM CLR 27/20 A3001 230 66 1700 080/05 RMK AO2
63870K0J4 0J420160429094009804/29/16 09:40:31  5-MIN K0J4 291440Z AUTO 08004KT 10SM CLR 26/19 A3002 230 66 1600 080/04 RMK AO2
63870K0J4 0J420160429094509804/29/16 09:45:31  5-MIN K0J4 291445Z AUTO 13005KT 10SM CLR 27/19 A3002 230 64 1700 130/05 RMK AO2
63870K0J4 0J420160429095009804/29/16 09:50:31  5-MIN K0J4 291450Z AUTO 12004KT 10SM CLR 26/19 A3002 230 66 1600 120/04 RMK AO2
63870K0J4 0J420160429095512104/29/16 09:55:31  5-MIN K0J4 291455Z AUTO 07005KT 10SM CLR 27/19 A3002 230 64 1700 070/05 RMK AO2 SLP160 T02670194 53004
63870K0J4 0J420160429100009804/29/16 10:00:31  5-MIN K0J4 291500Z AUTO VRB03KT 10SM CLR 27/19 A3001 230 62 1700 VRB/03 RMK AO2
63870K0J4 0J420160429100507504/29/16 10:05:31  5-MIN K0J4 291505Z AUTO 16004KT 10SM CLR 27/20 A3001 230
63870K0J4 0J420160429141010804/29/16 14:10:31  5-MIN K0J4 291910Z AUTO 20005KT 10SM SCT049 SCT085 30/19 A2995 290 51 2100 200/05 RMK AO2
63870K0J4 0J420160429141510804/29/16 14:15:31  5-MIN K0J4 291915Z AUTO VRB04KT 10SM FEW049 BKN085 31/19 A2994 290 49 2200 VRB/04 RMK AO2
63870K0J4 0J420160429142010804/29/16 14:20:31  5-MIN K0J4 291920Z AUTO VRB05KT 10SM SCT049 BKN085 31/19 A2994 290 49 2200 VRB/05 RMK AO2
63870K0J4 0J420160429142510804/29/16 14:25:31  5-MIN K0J4 291925Z AUTO VRB03KT 10SM SCT049 BKN085 31/19 A2994 300 47 2200 VRB/03 RMK AO2
63870K0J4 0J420160429143011504/29/16 14:30:31  5-MIN K0J4 291930Z AUTO 16006KT 10SM SCT047 SCT055 BKN090 31/18 A2994 300 47 2200 160/06 RMK AO2
63870K0J4 0J420160429143510804/29/16 14:35:31  5-MIN K0J4 291935Z AUTO 14006KT 10SM SCT049 BKN090 31/19 A2994 300 47 2200 140/06 RMK AO2
63870K0J4 0J420160429144010804/29/16 14:40:31  5-MIN K0J4 291940Z AUTO 10006KT 10SM BKN049 BKN090 31/18 A2993 300 47 2200 100/06 RMK AO2
63870K0J4 0J420160429144510804/29/16 14:45:31  5-MIN K0J4 291945Z AUTO 12005KT 10SM BKN049 BKN090 31/19 A2994 300 47 2300 120/05 RMK AO2
63870K0J4 0J420160429145010104/29/16 14:50:31  5-MIN K0J4 291950Z AUTO 18005KT 10SM BKN049 31/18 A2994 300 47 2200 180/05 RMK AO2
63870K0J4 0J420160429145511804/29/16 14:55:31  5-MIN K0J4 291955Z AUTO 21006KT 10SM BKN049 31/19 A2993 300 49 2200 210/06 RMK AO2 SLP132 T03060189
63870K0J4 0J420160429150011504/29/16 15:00:31  5-MIN K0J4 292000Z AUTO 16004KT 10SM BKN049 BKN060 BKN075 31/18 A2993 300 47 2200 160/04 RMK AO2
63870K0J4 0J420160429150511504/29/16 15:05:31  5-MIN K0J4 292005Z AUTO 00000KT 10SM SCT049 BKN060 BKN075 31/18 A2993 310 46 2300 000/00 RMK AO2
63870K0J4 0J420160429151010104/29/16 15:10:31  5-MIN K0J4 292010Z AUTO 18004KT 10SM SCT049 31/18 A2993 310 47 2200 180/04 RMK AO2
63870K0J4 0J420160429151510104/29/16 15:15:31  5-MIN K0J4 292015Z AUTO 22005KT 10SM FEW049 31/18 A2993 310 46 2200 220/05 RMK AO2
63870K0J4 0J420160429152010104/29/16 15:20:31  5-MIN K0J4 292020Z AUTO 18005KT 10SM SCT055 31/18 A2993 310 47 2200 180/05 RMK AO2
63870K0J4 0J420160429152510104/29/16 15:25:31  5-MIN K0J4 292025Z AUTO 18006KT 10SM BKN055 31/18 A2993 310 46 2300 180/06 RMK AO2
63870K0J4 0J420160429153010104/29/16 15:30:31  5-MIN K0J4 292030Z AUTO 18007KT 10SM BKN055 31/19 A2993 300 47 2300 180/07 RMK AO2
63870K0J4 0J420160429153510104/29/16 15:35:31  5-MIN K0J4 292035Z AUTO 18006KT 10SM BKN055 30/19 A2993 310 51 2100 180/06 RMK AO2
63870K0J4 0J420160429154010804/29/16 15:40:31  5-MIN K0J4 292040Z AUTO 17004KT 10SM BKN055 BKN075 30/19 A2993 310 51 2100 170/04 RMK AO2
63870K0J4 0J420160429154511504/29/16 15:45:31  5-MIN K0J4 292045Z AUTO 17005KT 10SM SCT050 BKN060 OVC095 31/19 A2993 310 49 2200 170/05 RMK AO2
63870K0J4 0J420160429155011504/29/16 15:50:31  5-MIN K0J4 292050Z AUTO 16004KT 10SM FEW050 BKN060 OVC100 30/19 A2993 310 51 2100 160/04 RMK AO2
63870K0J4 0J420160429155513804/29/16 15:55:31  5-MIN K0J4 292055Z AUTO VRB05KT 10SM FEW050 SCT060 BKN100 31/19 A2992 310 49 2200 VRB/05 RMK AO2 SLP128 T03060189 58016
63870K0J4 0J420160429160012104/29/16 16:00:31  5-MIN K0J4 292100Z AUTO 18010G15KT 10SM FEW050 SCT060 BKN100 31/19 A2992 320 49 2200 180/10G15 RMK AO2
63870K0J4 0J420160429160511504/29/16 16:05:31  5-MIN K0J4 292105Z AUTO 19009KT 10SM BKN055 BKN080 BKN100 31/18 A2992 320 44 2300 190/09 RMK AO2
63870K0J4 0J420160429161010804/29/16 16:10:31  5-MIN K0J4 292110Z AUTO 20012KT 10SM SCT055 BKN100 31/17 A2992 320 42 2300 200/12 RMK AO2
63870K0J4 0J420160429161510804/29/16 16:15:31  5-MIN K0J4 292115Z AUTO 20009KT 10SM SCT055 BKN100 31/17 A2992 320 41 2300 200/09 RMK AO2
63870K0J4 0J420160429162010104/29/16 16:20:31  5-MIN K0J4 292120Z AUTO 22007KT 10SM SCT055 31/17 A2992 320 41 2300 220/07 RMK AO2
63870K0J4 0J420160429162510104/29/16 16:25:31  5-MIN K0J4 292125Z AUTO 21011KT 10SM SCT055 31/17 A2992 320 42 2200 210/11 RMK AO2
63870K0J4 0J420160429163010104/29/16 16:30:31  5-MIN K0J4 292130Z AUTO 20011KT 10SM FEW055 31/16 A2992 320 41 2200 200/11 RMK AO2
63870K0J4 0J420160429163510104/29/16 16:35:31  5-MIN K0J4 292135Z AUTO 21011KT 10SM FEW060 31/16 A2992 320 41 2200 210/11 RMK AO2
63870K0J4 0J420160429164010704/29/16 16:40:31  5-MIN K0J4 292140Z AUTO 21008G15KT 10SM FEW060 31/16 A2992 320 41 2200 210/08G15 RMK AO2
63870K0J4 0J420160429164509804/29/16 16:45:31  5-MIN K0J4 292145Z AUTO 23008KT 10SM CLR 31/17 A2992 320 42 2200 230/08 RMK AO2
63870K0J4 0J420160429165010404/29/16 16:50:31  5-MIN K0J4 292150Z AUTO 22006G16KT 10SM CLR 30/16 A2992 320 42 2100 220/06G16 RMK AO2
63870K0J4 0J420160429165512104/29/16 16:55:31  5-MIN K0J4 292155Z AUTO 22008G16KT 10SM CLR 30/17 A2992 320 44 2200 220/08G16 RMK AO2 SLP127 T03000167
63870K0J4 0J420160429170009804/29/16 17:00:31  5-MIN K0J4 292200Z AUTO 22008KT 10SM CLR 30/16 A2992 320 42 2200 220/08 RMK AO2
63870K0J4 0J420160429170509804/29/16 17:05:31  5-MIN K0J4 292205Z AUTO 21007KT 10SM CLR 30/16 A2991 320 42 2200 210/07 RMK AO2
63870K0J4 0J420160429171009804/29/16 17:10:31  5-MIN K0J4 292210Z AUTO 21010KT 10SM CLR 30/17 A2992 320 44 2200 210/10 RMK AO2
