03949KAQV AQV20160701215011507/01/16 21:50:31  5-MIN KAQV 020350Z AUTO 00000KT 10SM CLR 23/21 A3002 280 87 1400 000/00 RMK AO2 SLP163 T02330211
03949KAQV AQV20160701215511507/01/16 21:55:31  5-MIN KAQV 020355Z AUTO 00000KT 10SM CLR 23/21 A3003 280 87 1400 000/00 RMK AO2 SLP164 T02330211
03949KAQV AQV20160701220010807/01/16 22:00:31  5-MIN KAQV 020400Z AUTO 00000KT 10SM CLR 23/21 A3003 280 87 1400 000/00 RMK AO2 T02330211
03949KAQV AQV20160701220510807/01/16 22:05:31  5-MIN KAQV 020405Z AUTO 00000KT 10SM CLR 23/21 A3003 280 87 1400 000/00 RMK AO2 T02330211
03949KAQV AQV20160701221010807/01/16 22:10:31  5-MIN KAQV 020410Z AUTO 00000KT 10SM CLR 23/21 A3003 280 87 1400 000/00 RMK AO2 T02330211
03949KAQV AQV20160701221510807/01/16 22:15:31  5-MIN KAQV 020415Z AUTO 00000KT 10SM CLR 23/21 A3003 280 90 1300 000/00 RMK AO2 T02280211
03949KAQV AQV20160701222010807/01/16 22:20:31  5-MIN KAQV 020420Z AUTO 00000KT 10SM CLR 23/21 A3003 280 90 1300 000/00 RMK AO2 T02280211
03949KAQV AQV20160701222510807/01/16 22:25:31  5-MIN KAQV 020425Z AUTO 00000KT 10SM CLR 23/21 A3003 280 87 1300 000/00 RMK AO2 T02280206
03949KAQV AQV20160701223010807/01/16 22:30:31  5-MIN KAQV 020430Z AUTO 00000KT 10SM CLR 23/21 A3003 280 87 1300 000/00 RMK AO2 T02280206
03949KAQV AQV20160701223510807/01/16 22:35:31  5-MIN KAQV 020435Z AUTO 00000KT 10SM CLR 23/21 A3003 280 87 1300 000/00 RMK AO2 T02280206
03949KAQV AQV20160701224010807/01/16 22:40:31  5-MIN KAQV 020440Z AUTO 00000KT 10SM CLR 23/21 A3003 280 87 1300 000/00 RMK AO2 T02280206
03949KAQV AQV20160701224510807/01/16 22:45:31  5-MIN KAQV 020445Z AUTO 00000KT 10SM CLR 23/21 A3003 280 87 1300 000/00 RMK AO2 T02280206
03949KAQV AQV20160701225011507/01/16 22:50:31  5-MIN KAQV 020450Z AUTO 00000KT 10SM CLR 22/21 A3002 280 90 1200 000/00 RMK AO2 SLP164 T02220206
03949KAQV AQV20160701225511507/01/16 22:55:31  5-MIN KAQV 020455Z AUTO 00000KT 10SM CLR 22/21 A3002 280 90 1200 000/00 RMK AO2 SLP163 T02220206
03949KAQV AQV20160701230010807/01/16 23:00:31  5-MIN KAQV 020500Z AUTO 00000KT 10SM CLR 22/21 A3002 280 90 1200 000/00 RMK AO2 T02220206
03949KAQV AQV20160701230510807/01/16 23:05:31  5-MIN KAQV 020505Z AUTO 00000KT 10SM CLR 22/21 A3002 280 90 1200 000/00 RMK AO2 T02220206
03949KAQV AQV20160701231010807/01/16 23:10:31  5-MIN KAQV 020510Z AUTO 00000KT 10SM CLR 22/20 A3002 280 87 1200 000/00 RMK AO2 T02220200
03949KAQV AQV20160701231510807/01/16 23:15:31  5-MIN KAQV 020515Z AUTO 00000KT 10SM CLR 22/21 A3002 280 90 1200 000/00 RMK AO2 T02220206
03949KAQV AQV20160701232010807/01/16 23:20:31  5-MIN KAQV 020520Z AUTO 00000KT 10SM CLR 22/21 A3002 280 90 1200 000/00 RMK AO2 T02220206
03949KAQV AQV20160701232510807/01/16 23:25:31  5-MIN KAQV 020525Z AUTO 00000KT 10SM CLR 22/21 A3002 280 90 1200 000/00 RMK AO2 T02220206
03949KAQV AQV20160701233010807/01/16 23:30:31  5-MIN KAQV 020530Z AUTO 00000KT 10SM CLR 22/21 A3002 280 93 1200 000/00 RMK AO2 T02170206
03949KAQV AQV20160701233510807/01/16 23:35:31  5-MIN KAQV 020535Z AUTO 00000KT 10SM CLR 22/20 A3002 280 90 1200 000/00 RMK AO2 T02170200
03949KAQV AQV20160701234010807/01/16 23:40:31  5-MIN KAQV 020540Z AUTO 00000KT 10SM CLR 22/20 A3002 280 90 1200 000/00 RMK AO2 T02170200
03949KAQV AQV20160701234510707/01/16 23:45:31  5-MIN KAQV 020545Z AUTO 00000KT 9SM CLR 21/21 A3002 280 97 1100 000/00 RMK AO2 T02110206
03949KAQV AQV20160701235014207/01/16 23:50:31  5-MIN KAQV 020550Z AUTO 00000KT 9SM CLR 21/20 A3002 280 93 1100 000/00 RMK AO2 SLP162 T02110200 10333 20211 403560189 53010
03949KAQV AQV20160701235514207/01/16 23:55:31  5-MIN KAQV 020555Z AUTO 00000KT 9SM CLR 21/20 A3002 280 93 1100 000/00 RMK AO2 SLP162 T02110200 10333 20211 403560189 53010
03949KAQV AQV20160702000010707/02/16 00:00:31  5-MIN KAQV 020600Z AUTO 00000KT 9SM CLR 21/20 A3002 290 93 1100 000/00 RMK AO2 T02110200
03949KAQV AQV20160702000510707/02/16 00:05:31  5-MIN KAQV 020605Z AUTO 00000KT 9SM CLR 21/20 A3002 290 93 1100 000/00 RMK AO2 T02110200
03949KAQV AQV20160702001010707/02/16 00:10:31  5-MIN KAQV 020610Z AUTO 00000KT 8SM CLR 21/20 A3001 290 93 1100 000/00 RMK AO2 T02110200
03949KAQV AQV20160702001510707/02/16 00:15:31  5-MIN KAQV 020615Z AUTO 00000KT 7SM CLR 21/20 A3001 290 93 1100 000/00 RMK AO2 T02110200
03949KAQV AQV20160702002010707/02/16 00:20:31  5-MIN KAQV 020620Z AUTO 00000KT 7SM CLR 21/20 A3001 290 93 1100 000/00 RMK AO2 T02110200
03949KAQV AQV20160702002510707/02/16 00:25:31  5-MIN KAQV 020625Z AUTO 00000KT 8SM CLR 21/20 A3001 290 93 1100 000/00 RMK AO2 T02110200
03949KAQV AQV20160702003010707/02/16 00:30:31  5-MIN KAQV 020630Z AUTO 00000KT 8SM CLR 21/20 A3001 290 93 1100 000/00 RMK AO2 T02110200
03949KAQV AQV20160702003510707/02/16 00:35:31  5-MIN KAQV 020635Z AUTO 00000KT 9SM CLR 21/20 A3001 290 93 1100 000/00 RMK AO2 T02110200
03949KAQV AQV20160702004010707/02/16 00:40:31  5-MIN KAQV 020640Z AUTO 00000KT 9SM CLR 21/20 A3001 290 93 1100 000/00 RMK AO2 T02110200
03949KAQV AQV20160702004510707/02/16 00:45:31  5-MIN KAQV 020645Z AUTO 00000KT 9SM CLR 21/20 A3001 290 93 1100 000/00 RMK AO2 T02110200
03949KAQV AQV20160702005011407/02/16 00:50:31  5-MIN KAQV 020650Z AUTO 00000KT 9SM CLR 21/20 A3001 290 93 1100 000/00 RMK AO2 SLP159 T02110200
03949KAQV AQV20160702005511507/02/16 00:55:31  5-MIN KAQV 020655Z AUTO 00000KT 10SM CLR 21/20 A3001 290 93 1100 000/00 RMK AO2 SLP159 T02110200
03949KAQV AQV20160702010010807/02/16 01:00:31  5-MIN KAQV 020700Z AUTO 20003KT 10SM CLR 21/20 A3001 290 93 1100 200/03 RMK AO2 T02110200
03949KAQV AQV20160702010510807/02/16 01:05:31  5-MIN KAQV 020705Z AUTO 00000KT 10SM CLR 21/20 A3001 290 93 1100 000/00 RMK AO2 T02110200
03949KAQV AQV20160702011010807/02/16 01:10:31  5-MIN KAQV 020710Z AUTO 00000KT 10SM CLR 21/20 A3001 290 93 1100 000/00 RMK AO2 T02110200
03949KAQV AQV20160702011510807/02/16 01:15:31  5-MIN KAQV 020715Z AUTO 00000KT 10SM CLR 21/20 A3001 290 93 1100 000/00 RMK AO2 T02110200
03949KAQV AQV20160702012010807/02/16 01:20:31  5-MIN KAQV 020720Z AUTO 00000KT 10SM CLR 21/20 A3001 290 93 1100 000/00 RMK AO2 T02110200
03949KAQV AQV20160702012510807/02/16 01:25:31  5-MIN KAQV 020725Z AUTO 00000KT 10SM CLR 22/20 A3001 290 90 1200 000/00 RMK AO2 T02170200
03949KAQV AQV20160702013010807/02/16 01:30:31  5-MIN KAQV 020730Z AUTO 00000KT 10SM CLR 22/20 A3001 290 90 1200 000/00 RMK AO2 T02170200
03949KAQV AQV20160702013510807/02/16 01:35:31  5-MIN KAQV 020735Z AUTO 00000KT 10SM CLR 22/20 A3001 290 90 1200 000/00 RMK AO2 T02170200
03949KAQV AQV20160702014010807/02/16 01:40:31  5-MIN KAQV 020740Z AUTO 00000KT 10SM CLR 22/20 A3001 290 90 1200 000/00 RMK AO2 T02170200
03949KAQV AQV20160702014510807/02/16 01:45:31  5-MIN KAQV 020745Z AUTO 00000KT 10SM CLR 22/20 A3001 290 90 1200 000/00 RMK AO2 T02170200
03949KAQV AQV20160702015011507/02/16 01:50:31  5-MIN KAQV 020750Z AUTO 00000KT 10SM CLR 21/20 A3001 290 93 1100 000/00 RMK AO2 SLP159 T02110200
03949KAQV AQV20160702015511407/02/16 01:55:31  5-MIN KAQV 020755Z AUTO 00000KT 9SM CLR 21/20 A3001 290 93 1100 000/00 RMK AO2 SLP158 T02110200
03949KAQV AQV20160702020010707/02/16 02:00:31  5-MIN KAQV 020800Z AUTO 00000KT 9SM CLR 21/20 A3001 300 93 1100 000/00 RMK AO2 T02110200
03949KAQV AQV20160702020510707/02/16 02:05:31  5-MIN KAQV 020805Z AUTO 00000KT 9SM CLR 21/20 A3001 300 93 1100 000/00 RMK AO2 T02110200
03949KAQV AQV20160702021010707/02/16 02:10:31  5-MIN KAQV 020810Z AUTO 00000KT 9SM CLR 21/20 A3001 300 93 1100 000/00 RMK AO2 T02110200
03949KAQV AQV20160702021510807/02/16 02:15:31  5-MIN KAQV 020815Z AUTO 00000KT 10SM CLR 21/20 A3001 300 93 1100 000/00 RMK AO2 T02110200
03949KAQV AQV20160702022010807/02/16 02:20:31  5-MIN KAQV 020820Z AUTO 00000KT 10SM CLR 21/20 A3001 300 93 1100 000/00 RMK AO2 T02110200
03949KAQV AQV20160702022510807/02/16 02:25:31  5-MIN KAQV 020825Z AUTO 00000KT 10SM CLR 21/20 A3001 300 93 1100 000/00 RMK AO2 T02110200
03949KAQV AQV20160702023010707/02/16 02:30:31  5-MIN KAQV 020830Z AUTO 00000KT 9SM CLR 21/20 A3001 300 93 1100 000/00 RMK AO2 T02110200
03949KAQV AQV20160702023510707/02/16 02:35:31  5-MIN KAQV 020835Z AUTO 00000KT 9SM CLR 21/20 A3001 300 93 1100 000/00 RMK AO2 T02110200
03949KAQV AQV20160702024010807/02/16 02:40:31  5-MIN KAQV 020840Z AUTO 00000KT 10SM CLR 21/19 A3001 290 93 1100 000/00 RMK AO2 T02060194
03949KAQV AQV20160702024510807/02/16 02:45:31  5-MIN KAQV 020845Z AUTO 00000KT 10SM CLR 21/19 A3001 290 93 1100 000/00 RMK AO2 T02060194
03949KAQV AQV20160702025012007/02/16 02:50:31  5-MIN KAQV 020850Z AUTO 00000KT 9SM CLR 21/19 A3001 290 93 1100 000/00 RMK AO2 SLP158 T02060194 50003
03949KAQV AQV20160702025512107/02/16 02:55:31  5-MIN KAQV 020855Z AUTO 00000KT 10SM CLR 21/19 A3001 290 93 1100 000/00 RMK AO2 SLP158 T02060194 50003
03949KAQV AQV20160702030010807/02/16 03:00:31  5-MIN KAQV 020900Z AUTO 00000KT 10SM CLR 21/19 A3001 290 93 1000 000/00 RMK AO2 T02060194
03949KAQV AQV20160702030510807/02/16 03:05:31  5-MIN KAQV 020905Z AUTO 00000KT 10SM CLR 21/20 A3001 290 97 1000 000/00 RMK AO2 T02060200
03949KAQV AQV20160702031010807/02/16 03:10:31  5-MIN KAQV 020910Z AUTO 00000KT 10SM CLR 21/20 A3002 290 93 1100 000/00 RMK AO2 T02110200
03949KAQV AQV20160702031510807/02/16 03:15:31  5-MIN KAQV 020915Z AUTO 00000KT 10SM CLR 21/20 A3002 290 93 1100 000/00 RMK AO2 T02110200
03949KAQV AQV20160702032010707/02/16 03:20:31  5-MIN KAQV 020920Z AUTO 00000KT 9SM CLR 21/20 A3001 290 93 1100 000/00 RMK AO2 T02110200
03949KAQV AQV20160702032510707/02/16 03:25:31  5-MIN KAQV 020925Z AUTO 00000KT 8SM CLR 21/20 A3002 290 93 1100 000/00 RMK AO2 T02110200
03949KAQV AQV20160702033010707/02/16 03:30:31  5-MIN KAQV 020930Z AUTO 00000KT 8SM CLR 21/20 A3002 290 93 1100 000/00 RMK AO2 T02110200
03949KAQV AQV20160702033510707/02/16 03:35:31  5-MIN KAQV 020935Z AUTO 00000KT 9SM CLR 21/20 A3002 290 97 1000 000/00 RMK AO2 T02060200
03949KAQV AQV20160702034010707/02/16 03:40:31  5-MIN KAQV 020940Z AUTO 00000KT 9SM CLR 21/20 A3002 290 97 1000 000/00 RMK AO2 T02060200
03949KAQV AQV20160702034510707/02/16 03:45:31  5-MIN KAQV 020945Z AUTO 00000KT 8SM CLR 21/20 A3002 290 97 1000 000/00 RMK AO2 T02060200
03949KAQV AQV20160702035011407/02/16 03:50:31  5-MIN KAQV 020950Z AUTO 00000KT 7SM CLR 21/19 A3002 280 93 1000 000/00 RMK AO2 SLP162 T02060194
03949KAQV AQV20160702035511407/02/16 03:55:31  5-MIN KAQV 020955Z AUTO 00000KT 7SM CLR 21/20 A3002 280 97 1000 000/00 RMK AO2 SLP162 T02060200
03949KAQV AQV20160702040010707/02/16 04:00:31  5-MIN KAQV 021000Z AUTO 00000KT 7SM CLR 21/20 A3002 280 93 1100 000/00 RMK AO2 T02110200
03949KAQV AQV20160702040510707/02/16 04:05:31  5-MIN KAQV 021005Z AUTO 00000KT 7SM CLR 21/20 A3003 280 93 1100 000/00 RMK AO2 T02110200
03949KAQV AQV20160702041010707/02/16 04:10:31  5-MIN KAQV 021010Z AUTO 00000KT 8SM CLR 21/20 A3003 280 93 1100 000/00 RMK AO2 T02110200
03949KAQV AQV20160702041510707/02/16 04:15:31  5-MIN KAQV 021015Z AUTO 00000KT 8SM CLR 21/20 A3003 280 97 1000 000/00 RMK AO2 T02060200
03949KAQV AQV20160702042010707/02/16 04:20:31  5-MIN KAQV 021020Z AUTO 00000KT 8SM CLR 21/20 A3003 270 97 1000 000/00 RMK AO2 T02060200
03949KAQV AQV20160702042510707/02/16 04:25:31  5-MIN KAQV 021025Z AUTO 00000KT 8SM CLR 21/19 A3003 270 93 1000 000/00 RMK AO2 T02060194
03949KAQV AQV20160702043010707/02/16 04:30:31  5-MIN KAQV 021030Z AUTO 00000KT 8SM CLR 21/19 A3004 270 93 1000 000/00 RMK AO2 T02060194
03949KAQV AQV20160702043510707/02/16 04:35:31  5-MIN KAQV 021035Z AUTO 00000KT 8SM CLR 21/19 A3004 270 93 1000 000/00 RMK AO2 T02060194
03949KAQV AQV20160702044010707/02/16 04:40:31  5-MIN KAQV 021040Z AUTO 00000KT 8SM CLR 21/19 A3004 270 93 1000 000/00 RMK AO2 T02060194
03949KAQV AQV20160702044510707/02/16 04:45:31  5-MIN KAQV 021045Z AUTO 00000KT 8SM CLR 21/19 A3004 270 93 1000 000/00 RMK AO2 T02060194
03949KAQV AQV20160702045011407/02/16 04:50:31  5-MIN KAQV 021050Z AUTO 00000KT 7SM CLR 20/19 A3004 270 97 1000 000/00 RMK AO2 SLP169 T02000194
03949KAQV AQV20160702045511407/02/16 04:55:31  5-MIN KAQV 021055Z AUTO 00000KT 7SM CLR 20/19 A3004 270 97 1000 000/00 RMK AO2 SLP168 T02000194
03949KAQV AQV20160702050010707/02/16 05:00:31  5-MIN KAQV 021100Z AUTO 00000KT 7SM CLR 20/19 A3004 270 97 1000 000/00 RMK AO2 T02000194
03949KAQV AQV20160702050511007/02/16 05:05:31  5-MIN KAQV 021105Z AUTO 00000KT 6SM BR CLR 21/19 A3004 260 93 1000 000/00 RMK AO2 T02060194
03949KAQV AQV20160702051011007/02/16 05:10:31  5-MIN KAQV 021110Z AUTO 00000KT 6SM BR CLR 21/19 A3004 260 93 1000 000/00 RMK AO2 T02060194
03949KAQV AQV20160702051511007/02/16 05:15:31  5-MIN KAQV 021115Z AUTO 00000KT 5SM BR CLR 21/19 A3004 260 93 1000 000/00 RMK AO2 T02060194
03949KAQV AQV20160702052011007/02/16 05:20:31  5-MIN KAQV 021120Z AUTO 00000KT 6SM BR CLR 21/19 A3005 260 93 1000 000/00 RMK AO2 T02060194
03949KAQV AQV20160702052510607/02/16 05:25:31  5-MIN KAQV 021125Z AUTO 00000KT 7SM CLR 20/19 A3005 260 97 900 000/00 RMK AO2 T02000194
03949KAQV AQV20160702053010907/02/16 05:30:31  5-MIN KAQV 021130Z AUTO 00000KT 6SM BR CLR 20/19 A3004 260 97 900 000/00 RMK AO2 T02000194
03949KAQV AQV20160702053511007/02/16 05:35:31  5-MIN KAQV 021135Z AUTO 00000KT 6SM BR CLR 21/19 A3004 260 93 1000 000/00 RMK AO2 T02060194
03949KAQV AQV20160702054011007/02/16 05:40:31  5-MIN KAQV 021140Z AUTO 00000KT 5SM BR CLR 21/20 A3005 260 97 1000 000/00 RMK AO2 T02060200
03949KAQV AQV20160702054511007/02/16 05:45:31  5-MIN KAQV 021145Z AUTO 00000KT 4SM BR CLR 21/20 A3005 260 93 1100 000/00 RMK AO2 T02110200
03949KAQV AQV20160702055013507/02/16 05:50:31  5-MIN KAQV 021150Z AUTO 00000KT 4SM BR CLR 21/21 A3005 260 97 1100 000/00 RMK AO2 SLP171 T02110206 10217 20200 55003
03949KAQV AQV20160702055513507/02/16 05:55:31  5-MIN KAQV 021155Z AUTO 00000KT 4SM BR CLR 21/21 A3005 250 97 1100 000/00 RMK AO2 SLP173 T02110206 10217 20200 55003
03949KAQV AQV20160702060011007/02/16 06:00:31  5-MIN KAQV 021200Z AUTO 00000KT 4SM BR CLR 21/21 A3005 250 97 1100 000/00 RMK AO2 T02110206
03949KAQV AQV20160702060511007/02/16 06:05:31  5-MIN KAQV 021205Z AUTO 00000KT 5SM BR CLR 21/21 A3005 250 97 1100 000/00 RMK AO2 T02110206
03949KAQV AQV20160702061011007/02/16 06:10:31  5-MIN KAQV 021210Z AUTO 00000KT 5SM BR CLR 22/21 A3006 250 93 1100 000/00 RMK AO2 T02170206
03949KAQV AQV20160702061511007/02/16 06:15:31  5-MIN KAQV 021215Z AUTO 00000KT 6SM BR CLR 22/21 A3006 250 93 1200 000/00 RMK AO2 T02220211
03949KAQV AQV20160702062010707/02/16 06:20:31  5-MIN KAQV 021220Z AUTO 00000KT 7SM CLR 23/22 A3006 250 93 1200 000/00 RMK AO2 T02280217
03949KAQV AQV20160702062510707/02/16 06:25:31  5-MIN KAQV 021225Z AUTO 00000KT 7SM CLR 23/22 A3006 250 93 1200 000/00 RMK AO2 T02280217
03949KAQV AQV20160702063010707/02/16 06:30:31  5-MIN KAQV 021230Z AUTO 00000KT 7SM CLR 23/22 A3006 250 93 1200 000/00 RMK AO2 T02280217
03949KAQV AQV20160702063510707/02/16 06:35:31  5-MIN KAQV 021235Z AUTO 00000KT 7SM CLR 24/22 A3006 240 90 1400 000/00 RMK AO2 T02390222
03949KAQV AQV20160702064010707/02/16 06:40:31  5-MIN KAQV 021240Z AUTO 00000KT 7SM CLR 24/22 A3006 240 90 1400 000/00 RMK AO2 T02390222
03949KAQV AQV20160702064510707/02/16 06:45:31  5-MIN KAQV 021245Z AUTO 00000KT 8SM CLR 24/22 A3007 240 87 1400 000/00 RMK AO2 T02440222
03949KAQV AQV20160702065011407/02/16 06:50:31  5-MIN KAQV 021250Z AUTO 00000KT 9SM CLR 25/23 A3007 240 87 1500 000/00 RMK AO2 SLP178 T02500228
03949KAQV AQV20160702065511507/02/16 06:55:31  5-MIN KAQV 021255Z AUTO 00000KT 10SM CLR 26/23 A3007 240 87 1600 000/00 RMK AO2 SLP178 T02560233
03949KAQV AQV20160702070010807/02/16 07:00:31  5-MIN KAQV 021300Z AUTO 00000KT 10SM CLR 26/23 A3007 240 84 1600 000/00 RMK AO2 T02610233
03949KAQV AQV20160702070510807/02/16 07:05:31  5-MIN KAQV 021305Z AUTO 00000KT 10SM CLR 27/23 A3007 240 79 1700 000/00 RMK AO2 T02720233
03949KAQV AQV20160702071010807/02/16 07:10:31  5-MIN KAQV 021310Z AUTO 25003KT 10SM CLR 27/23 A3007 240 79 1700 250/03 RMK AO2 T02720233
03949KAQV AQV20160702071510807/02/16 07:15:31  5-MIN KAQV 021315Z AUTO 25003KT 10SM CLR 27/23 A3007 240 79 1700 240/03 RMK AO2 T02720233
03949KAQV AQV20160702072010807/02/16 07:20:31  5-MIN KAQV 021320Z AUTO 26003KT 10SM CLR 27/23 A3007 240 79 1700 250/03 RMK AO2 T02720233
03949KAQV AQV20160702072510807/02/16 07:25:31  5-MIN KAQV 021325Z AUTO 00000KT 10SM CLR 28/23 A3007 240 76 1800 000/00 RMK AO2 T02780233
03949KAQV AQV20160702073010807/02/16 07:30:31  5-MIN KAQV 021330Z AUTO 00000KT 10SM CLR 28/23 A3007 240 74 1900 000/00 RMK AO2 T02830233
03949KAQV AQV20160702073510807/02/16 07:35:31  5-MIN KAQV 021335Z AUTO 26003KT 10SM CLR 28/23 A3007 240 74 1900 250/03 RMK AO2 T02830233
03949KAQV AQV20160702074010807/02/16 07:40:31  5-MIN KAQV 021340Z AUTO VRB03KT 10SM CLR 28/23 A3007 240 74 1900 VRB/03 RMK AO2 T02830233
03949KAQV AQV20160702074510807/02/16 07:45:31  5-MIN KAQV 021345Z AUTO VRB03KT 10SM CLR 29/23 A3007 240 71 1900 VRB/03 RMK AO2 T02890233
03949KAQV AQV20160702075011507/02/16 07:50:31  5-MIN KAQV 021350Z AUTO 26003KT 10SM CLR 29/23 A3007 240 71 1900 260/03 RMK AO2 SLP178 T02890233
03949KAQV AQV20160702075511507/02/16 07:55:31  5-MIN KAQV 021355Z AUTO VRB04KT 10SM CLR 29/23 A3006 240 69 1900 VRB/04 RMK AO2 SLP177 T02890228
03949KAQV AQV20160702080010807/02/16 08:00:31  5-MIN KAQV 021400Z AUTO 20004KT 10SM CLR 29/23 A3006 240 69 1900 200/04 RMK AO2 T02890228
03949KAQV AQV20160702080510807/02/16 08:05:31  5-MIN KAQV 021405Z AUTO VRB03KT 10SM CLR 29/23 A3006 240 67 2000 VRB/03 RMK AO2 T02940228
03949KAQV AQV20160702081010807/02/16 08:10:31  5-MIN KAQV 021410Z AUTO VRB03KT 10SM CLR 29/23 A3007 240 67 2000 VRB/03 RMK AO2 T02940228
03949KAQV AQV20160702081510807/02/16 08:15:31  5-MIN KAQV 021415Z AUTO VRB03KT 10SM CLR 29/23 A3006 240 67 2000 VRB/03 RMK AO2 T02940228
03949KAQV AQV20160702082010807/02/16 08:20:31  5-MIN KAQV 021420Z AUTO VRB03KT 10SM CLR 30/23 A3007 240 65 2100 VRB/03 RMK AO2 T03000228
03949KAQV AQV20160702082510807/02/16 08:25:31  5-MIN KAQV 021425Z AUTO 18004KT 10SM CLR 30/23 A3007 240 65 2100 170/04 RMK AO2 T03000228
03949KAQV AQV20160702083010807/02/16 08:30:31  5-MIN KAQV 021430Z AUTO 17004KT 10SM CLR 30/23 A3007 240 65 2100 160/04 RMK AO2 T03000228
03949KAQV AQV20160702083510807/02/16 08:35:31  5-MIN KAQV 021435Z AUTO 16003KT 10SM CLR 30/23 A3006 240 65 2100 150/03 RMK AO2 T03000228
03949KAQV AQV20160702084010807/02/16 08:40:31  5-MIN KAQV 021440Z AUTO 15005KT 10SM CLR 31/22 A3006 240 60 2100 140/05 RMK AO2 T03060222
03949KAQV AQV20160702084510807/02/16 08:45:31  5-MIN KAQV 021445Z AUTO 16003KT 10SM CLR 30/22 A3006 240 62 2100 160/03 RMK AO2 T03000222
03949KAQV AQV20160702085012107/02/16 08:50:31  5-MIN KAQV 021450Z AUTO 20003KT 10SM CLR 31/23 A3006 250 62 2100 190/03 RMK AO2 SLP176 T03060228 53014
03949KAQV AQV20160702085512107/02/16 08:55:31  5-MIN KAQV 021455Z AUTO VRB04KT 10SM CLR 31/22 A3006 250 58 2200 VRB/04 RMK AO2 SLP175 T03110222 53014
03949KAQV AQV20160702090010807/02/16 09:00:31  5-MIN KAQV 021500Z AUTO VRB05KT 10SM CLR 31/22 A3006 250 60 2100 VRB/05 RMK AO2 T03060222
03949KAQV AQV20160702090510807/02/16 09:05:31  5-MIN KAQV 021505Z AUTO VRB04KT 10SM CLR 31/22 A3006 250 60 2100 VRB/04 RMK AO2 T03060222
03949KAQV AQV20160702091010807/02/16 09:10:31  5-MIN KAQV 021510Z AUTO 00000KT 10SM CLR 31/22 A3006 250 58 2200 000/00 RMK AO2 T03110222
03949KAQV AQV20160702091510807/02/16 09:15:31  5-MIN KAQV 021515Z AUTO VRB05KT 10SM CLR 31/22 A3006 250 58 2200 VRB/05 RMK AO2 T03110222
03949KAQV AQV20160702092010807/02/16 09:20:31  5-MIN KAQV 021520Z AUTO 21004KT 10SM CLR 31/23 A3006 250 60 2200 200/04 RMK AO2 T03110228
03949KAQV AQV20160702092510807/02/16 09:25:31  5-MIN KAQV 021525Z AUTO VRB05KT 10SM CLR 31/22 A3006 250 58 2200 VRB/05 RMK AO2 T03110222
03949KAQV AQV20160702093010807/02/16 09:30:31  5-MIN KAQV 021530Z AUTO VRB03KT 10SM CLR 31/22 A3006 250 58 2200 VRB/03 RMK AO2 T03110222
03949KAQV AQV20160702093510807/02/16 09:35:31  5-MIN KAQV 021535Z AUTO 20005KT 10SM CLR 31/22 A3006 250 58 2200 200/05 RMK AO2 T03110222
03949KAQV AQV20160702094010807/02/16 09:40:31  5-MIN KAQV 021540Z AUTO VRB06KT 10SM CLR 32/22 A3005 250 56 2300 VRB/06 RMK AO2 T03170222
03949KAQV AQV20160702094510807/02/16 09:45:31  5-MIN KAQV 021545Z AUTO 20006KT 10SM CLR 31/22 A3005 250 56 2200 190/06 RMK AO2 T03110217
03949KAQV AQV20160702193510807/02/16 19:35:31  5-MIN KAQV 030135Z AUTO 18003KT 10SM CLR 26/23 A2998 320 87 1700 170/03 RMK AO2 T02560233
03949KAQV AQV20160702194010807/02/16 19:40:31  5-MIN KAQV 030140Z AUTO 00000KT 10SM CLR 28/23 A2998 320 74 1900 000/00 RMK AO2 T02780228
03949KAQV AQV20160702194510807/02/16 19:45:31  5-MIN KAQV 030145Z AUTO 00000KT 10SM CLR 28/23 A2998 320 74 1900 000/00 RMK AO2 T02780228
03949KAQV AQV20160702195011507/02/16 19:50:31  5-MIN KAQV 030150Z AUTO 00000KT 10SM CLR 27/23 A2998 320 79 1800 000/00 RMK AO2 SLP147 T02720233
03949KAQV AQV20160702195511507/02/16 19:55:31  5-MIN KAQV 030155Z AUTO 18003KT 10SM CLR 27/23 A2998 320 82 1800 170/03 RMK AO2 SLP147 T02670233
03949KAQV AQV20160702200010807/02/16 20:00:31  5-MIN KAQV 030200Z AUTO 00000KT 10SM CLR 26/23 A2998 320 84 1700 000/00 RMK AO2 T02610233
03949KAQV AQV20160702200510807/02/16 20:05:31  5-MIN KAQV 030205Z AUTO 17003KT 10SM CLR 26/23 A2998 320 87 1700 170/03 RMK AO2 T02560233
03949KAQV AQV20160702201010807/02/16 20:10:31  5-MIN KAQV 030210Z AUTO 00000KT 10SM CLR 24/23 A2998 320 93 1500 000/00 RMK AO2 T02440233
03949KAQV AQV20160702201510807/02/16 20:15:31  5-MIN KAQV 030215Z AUTO 00000KT 10SM CLR 24/23 A2998 320 93 1500 000/00 RMK AO2 T02440233
03949KAQV AQV20160702202010807/02/16 20:20:31  5-MIN KAQV 030220Z AUTO 00000KT 10SM CLR 25/23 A2998 320 90 1600 000/00 RMK AO2 T02500233
03949KAQV AQV20160702202510807/02/16 20:25:31  5-MIN KAQV 030225Z AUTO 00000KT 10SM CLR 26/23 A2998 320 84 1700 000/00 RMK AO2 T02610233
03949KAQV AQV20160702203010807/02/16 20:30:31  5-MIN KAQV 030230Z AUTO 17004KT 10SM CLR 26/23 A2998 320 84 1700 170/04 RMK AO2 T02610233
03949KAQV AQV20160702203510807/02/16 20:35:31  5-MIN KAQV 030235Z AUTO VRB03KT 10SM CLR 26/23 A2998 320 84 1700 VRB/03 RMK AO2 T02610233
03949KAQV AQV20160702204010807/02/16 20:40:31  5-MIN KAQV 030240Z AUTO 00000KT 10SM CLR 26/23 A2998 320 84 1700 000/00 RMK AO2 T02610233
03949KAQV AQV20160702204510707/02/16 20:45:31  5-MIN KAQV 030245Z AUTO 00000KT 9SM CLR 26/23 A2998 320 84 1700 000/00 RMK AO2 T02610233
03949KAQV AQV20160702205012007/02/16 20:50:31  5-MIN KAQV 030250Z AUTO 17003KT 8SM CLR 26/23 A2998 320 84 1700 170/03 RMK AO2 SLP147 T02610233 58006
03949KAQV AQV20160702205512107/02/16 20:55:31  5-MIN KAQV 030255Z AUTO 17003KT 10SM CLR 26/23 A2998 320 84 1700 160/03 RMK AO2 SLP147 T02610233 58006
03949KAQV AQV20160704043510807/04/16 04:35:31  5-MIN KAQV 041035Z AUTO 19004KT 10SM CLR 24/24 A2997 330 97 1500 180/04 RMK AO2 T02440239
03949KAQV AQV20160704044010807/04/16 04:40:31  5-MIN KAQV 041040Z AUTO VRB03KT 10SM CLR 24/24 A2997 330 97 1500 VRB/03 RMK AO2 T02440239
03949KAQV AQV20160704044510807/04/16 04:45:31  5-MIN KAQV 041045Z AUTO 00000KT 10SM CLR 24/24 A2997 330 97 1500 000/00 RMK AO2 T02440239
03949KAQV AQV20160704045011507/04/16 04:50:31  5-MIN KAQV 041050Z AUTO VRB04KT 10SM CLR 24/24 A2997 330 97 1500 VRB/04 RMK AO2 SLP145 T02440239
03949KAQV AQV20160704045511507/04/16 04:55:31  5-MIN KAQV 041055Z AUTO VRB03KT 10SM CLR 24/24 A2997 330 97 1500 VRB/03 RMK AO2 SLP144 T02440239
03949KAQV AQV20160704050010807/04/16 05:00:31  5-MIN KAQV 041100Z AUTO VRB04KT 10SM CLR 24/24 A2997 330 97 1500 VRB/04 RMK AO2 T02440239
03949KAQV AQV20160704050510807/04/16 05:05:31  5-MIN KAQV 041105Z AUTO 18004KT 10SM CLR 24/24 A2997 330 97 1500 180/04 RMK AO2 T02440239
03949KAQV AQV20160704051010807/04/16 05:10:31  5-MIN KAQV 041110Z AUTO 20004KT 10SM CLR 24/24 A2997 330 97 1500 190/04 RMK AO2 T02440239
03949KAQV AQV20160704051510707/04/16 05:15:31  5-MIN KAQV 041115Z AUTO 00000KT 9SM CLR 24/24 A2997 330 97 1500 000/00 RMK AO2 T02440239
03949KAQV AQV20160704052010707/04/16 05:20:31  5-MIN KAQV 041120Z AUTO VRB03KT 9SM CLR 24/24 A2997 330 97 1500 VRB/03 RMK AO2 T02440239
03949KAQV AQV20160704052510707/04/16 05:25:31  5-MIN KAQV 041125Z AUTO VRB03KT 9SM CLR 24/24 A2997 330 97 1500 VRB/03 RMK AO2 T02440239
03949KAQV AQV20160704053010707/04/16 05:30:31  5-MIN KAQV 041130Z AUTO VRB03KT 9SM CLR 24/24 A2997 330 97 1500 VRB/03 RMK AO2 T02440239
03949KAQV AQV20160704053510707/04/16 05:35:31  5-MIN KAQV 041135Z AUTO VRB04KT 9SM CLR 24/24 A2997 330 97 1500 VRB/04 RMK AO2 T02440239
03949KAQV AQV20160704054010707/04/16 05:40:31  5-MIN KAQV 041140Z AUTO 16003KT 8SM CLR 24/24 A2997 330 97 1500 160/03 RMK AO2 T02440239
03949KAQV AQV20160704054510707/04/16 05:45:31  5-MIN KAQV 041145Z AUTO 18004KT 8SM CLR 24/24 A2997 330 97 1500 170/04 RMK AO2 T02440239
03949KAQV AQV20160704055013207/04/16 05:50:31  5-MIN KAQV 041150Z AUTO 19003KT 9SM CLR 24/24 A2998 320 97 1500 180/03 RMK AO2 SLP147 T02440239 10244 20244 55006
03949KAQV AQV20160704055513207/04/16 05:55:31  5-MIN KAQV 041155Z AUTO 19005KT 9SM CLR 24/24 A2998 320 97 1500 180/05 RMK AO2 SLP147 T02440239 10244 20244 55006
03949KAQV AQV20160704060010807/04/16 06:00:31  5-MIN KAQV 041200Z AUTO 18005KT 10SM CLR 24/24 A2997 330 97 1500 180/05 RMK AO2 T02440239
03949KAQV AQV20160704060510807/04/16 06:05:31  5-MIN KAQV 041205Z AUTO 20004KT 10SM CLR 25/24 A2998 320 93 1600 190/04 RMK AO2 T02500239
03949KAQV AQV20160704061010807/04/16 06:10:31  5-MIN KAQV 041210Z AUTO VRB03KT 10SM CLR 25/24 A2998 320 97 1600 VRB/03 RMK AO2 T02500244
03949KAQV AQV20160704061510807/04/16 06:15:31  5-MIN KAQV 041215Z AUTO 18005KT 10SM CLR 25/24 A2998 320 97 1600 180/05 RMK AO2 T02500244
03949KAQV AQV20160704062010807/04/16 06:20:31  5-MIN KAQV 041220Z AUTO 18006KT 10SM CLR 25/24 A2999 320 97 1600 180/06 RMK AO2 T02500244
03949KAQV AQV20160704062510807/04/16 06:25:31  5-MIN KAQV 041225Z AUTO 18005KT 10SM CLR 25/24 A2998 320 97 1600 180/05 RMK AO2 T02500244
03949KAQV AQV20160704063010807/04/16 06:30:31  5-MIN KAQV 041230Z AUTO VRB04KT 10SM CLR 25/24 A2998 320 97 1600 VRB/04 RMK AO2 T02500244
03949KAQV AQV20160704063510807/04/16 06:35:31  5-MIN KAQV 041235Z AUTO VRB03KT 10SM CLR 26/24 A2999 310 93 1600 VRB/03 RMK AO2 T02560244
03949KAQV AQV20160704064010807/04/16 06:40:31  5-MIN KAQV 041240Z AUTO VRB04KT 10SM CLR 26/24 A2999 310 93 1600 VRB/04 RMK AO2 T02560244
03949KAQV AQV20160704064510807/04/16 06:45:31  5-MIN KAQV 041245Z AUTO 20005KT 10SM CLR 26/24 A2999 310 93 1600 200/05 RMK AO2 T02560244
03949KAQV AQV20160704065011807/04/16 06:50:31  5-MIN KAQV 041250Z AUTO VRB04KT 10SM FEW041 26/24 A2999 310 93 1600 VRB/04 RMK AO2 SLP153 T02560244
03949KAQV AQV20160704065512507/04/16 06:55:31  5-MIN KAQV 041255Z AUTO 00000KT 10SM FEW027 SCT038 26/25 A3000 300 93 1700 000/00 RMK AO2 SLP154 T02610250
03949KAQV AQV20160704070012507/04/16 07:00:31  5-MIN KAQV 041300Z AUTO VRB04KT 10SM FEW020 SCT027 BKN036 26/24 A3000 300 93 1600 VRB/04 RMK AO2 T02560244
03949KAQV AQV20160704070512507/04/16 07:05:31  5-MIN KAQV 041305Z AUTO VRB04KT 10SM SCT020 BKN027 BKN038 26/25 A3000 300 93 1700 VRB/04 RMK AO2 T02610250
03949KAQV AQV20160704071012507/04/16 07:10:31  5-MIN KAQV 041310Z AUTO VRB03KT 10SM FEW012 SCT020 BKN027 26/25 A3000 300 93 1700 VRB/03 RMK AO2 T02610250
03949KAQV AQV20160704071512507/04/16 07:15:31  5-MIN KAQV 041315Z AUTO VRB06KT 10SM FEW012 SCT020 SCT028 26/24 A3000 300 90 1700 VRB/06 RMK AO2 T02610244
03949KAQV AQV20160704072012507/04/16 07:20:31  5-MIN KAQV 041320Z AUTO VRB05KT 10SM FEW012 SCT020 BKN028 26/25 A3000 300 93 1700 VRB/05 RMK AO2 T02610250
03949KAQV AQV20160704072513407/04/16 07:25:31  5-MIN KAQV 041325Z AUTO 19007KT 170V240 10SM SCT012 SCT020 26/25 A3000 300 93 1700 190/07 170V240 RMK AO2 T02610250
03949KAQV AQV20160704073011107/04/16 07:30:31  5-MIN KAQV 041330Z AUTO 19007KT 10SM SCT014 27/25 A3000 300 90 1800 190/07 RMK AO2 T02670250
03949KAQV AQV20160704073511107/04/16 07:35:31  5-MIN KAQV 041335Z AUTO 24003KT 10SM SCT014 27/25 A3000 300 90 1800 240/03 RMK AO2 T02670250
03949KAQV AQV20160704074012707/04/16 07:40:31  5-MIN KAQV 041340Z AUTO 21007KT 170V240 10SM SCT016 27/25 A3000 300 90 1800 210/07 170V240 RMK AO2 T02670250
03949KAQV AQV20160704074512707/04/16 07:45:31  5-MIN KAQV 041345Z AUTO 20008KT 160V230 10SM BKN016 27/25 A3000 300 87 1800 200/08 160V230 RMK AO2 T02720250
03949KAQV AQV20160704075012507/04/16 07:50:31  5-MIN KAQV 041350Z AUTO VRB06KT 10SM BKN016 BKN022 27/25 A3000 300 87 1800 VRB/06 RMK AO2 SLP156 T02720250
03949KAQV AQV20160704075512507/04/16 07:55:31  5-MIN KAQV 041355Z AUTO VRB06KT 10SM BKN016 BKN022 28/25 A3000 300 84 1900 VRB/06 RMK AO2 SLP156 T02780250
03949KAQV AQV20160704080014007/04/16 08:00:31  5-MIN KAQV 041400Z AUTO 20008G15KT 170V240 10SM BKN018 BKN024 28/25 A3000 300 84 1900 200/08G15 170V240 RMK AO2 T02780250
03949KAQV AQV20160704080512407/04/16 08:05:31  5-MIN KAQV 041405Z AUTO VRB06G15KT 10SM BKN018 OVC024 28/25 A3000 300 84 1900 VRB/06G15 RMK AO2 T02780250
03949KAQV AQV20160704081013407/04/16 08:10:31  5-MIN KAQV 041410Z AUTO 21007KT 180V260 10SM BKN018 OVC026 28/24 A3000 300 82 1900 210/07 180V260 RMK AO2 T02780244
03949KAQV AQV20160704081514107/04/16 08:15:31  5-MIN KAQV 041415Z AUTO 20007KT 170V260 10SM SCT018 BKN026 OVC035 28/25 A3000 300 82 1900 200/07 170V260 RMK AO2 T02830250
03949KAQV AQV20160704082014707/04/16 08:20:31  5-MIN KAQV 041420Z AUTO 19009G14KT 160V220 10SM SCT018 BKN026 OVC035 28/24 A3000 300 79 1900 190/09G14 160V220 RMK AO2 T02830244
03949KAQV AQV20160704082513107/04/16 08:25:31  5-MIN KAQV 041425Z AUTO 19010G17KT 10SM SCT018 BKN026 OVC035 28/24 A3000 300 79 1900 190/10G17 RMK AO2 T02830244
03949KAQV AQV20160704083014707/04/16 08:30:31  5-MIN KAQV 041430Z AUTO 19009G17KT 160V230 10SM FEW018 BKN028 OVC036 28/24 A3000 300 79 1900 190/09G17 160V230 RMK AO2 T02830244
03949KAQV AQV20160704083513107/04/16 08:35:31  5-MIN KAQV 041435Z AUTO 20008G14KT 10SM FEW018 BKN026 BKN032 28/24 A3001 300 79 1900 200/08G14 RMK AO2 T02830244
03949KAQV AQV20160704084014107/04/16 08:40:31  5-MIN KAQV 041440Z AUTO 20007KT 170V230 10SM SCT022 BKN028 BKN035 29/24 A3001 300 76 2000 200/07 170V230 RMK AO2 T02890244
03949KAQV AQV20160704084514007/04/16 08:45:31  5-MIN KAQV 041445Z AUTO 22008G14KT 170V260 10SM BKN024 BKN033 29/24 A3001 300 76 2000 210/08G14 170V260 RMK AO2 T02890244
03949KAQV AQV20160704085015307/04/16 08:50:31  5-MIN KAQV 041450Z AUTO 21008G14KT 170V270 10SM BKN024 BKN033 29/24 A3001 290 76 2000 210/08G14 170V270 RMK AO2 SLP158 T02890244 51005
03949KAQV AQV20160704085513807/04/16 08:55:31  5-MIN KAQV 041455Z AUTO VRB05KT 10SM BKN024 BKN033 BKN042 29/24 A3001 290 74 2100 VRB/05 RMK AO2 SLP159 T02940244 51005
03949KAQV AQV20160704090012507/04/16 09:00:31  5-MIN KAQV 041500Z AUTO VRB06KT 10SM SCT022 BKN028 BKN035 29/24 A3001 290 74 2100 VRB/06 RMK AO2 T02940244
03949KAQV AQV20160704090512507/04/16 09:05:31  5-MIN KAQV 041505Z AUTO VRB06KT 10SM BKN025 BKN030 BKN043 29/24 A3001 290 74 2100 VRB/06 RMK AO2 T02940244
03949KAQV AQV20160704091012507/04/16 09:10:31  5-MIN KAQV 041510Z AUTO VRB06KT 10SM BKN025 BKN033 BKN043 30/24 A3001 290 72 2100 VRB/06 RMK AO2 T03000244
03949KAQV AQV20160704091512507/04/16 09:15:31  5-MIN KAQV 041515Z AUTO VRB06KT 10SM SCT023 BKN033 BKN042 31/24 A3002 290 69 2200 VRB/06 RMK AO2 T03060244
03949KAQV AQV20160704092014107/04/16 09:20:31  5-MIN KAQV 041520Z AUTO 20008KT 170V240 10SM SCT025 BKN033 BKN042 30/24 A3002 280 72 2100 190/08 170V240 RMK AO2 T03000244
03949KAQV AQV20160704092511807/04/16 09:25:31  5-MIN KAQV 041525Z AUTO VRB04KT 10SM SCT025 BKN035 30/24 A3002 280 72 2100 VRB/04 RMK AO2 T03000244
03949KAQV AQV20160704093012507/04/16 09:30:31  5-MIN KAQV 041530Z AUTO 25008KT 10SM SCT025 BKN035 BKN044 31/24 A3002 280 69 2200 250/08 RMK AO2 T03060244
03949KAQV AQV20160704093513107/04/16 09:35:31  5-MIN KAQV 041535Z AUTO VRB03G19KT 10SM FEW025 SCT030 BKN042 31/24 A3003 280 65 2200 VRB/03G19 RMK AO2 T03110239
03949KAQV AQV20160704094013107/04/16 09:40:31  5-MIN KAQV 041540Z AUTO 19008G19KT 10SM FEW025 SCT033 BKN042 32/24 A3003 280 63 2300 190/08G19 RMK AO2 T03170239
03949KAQV AQV20160704094514707/04/16 09:45:31  5-MIN KAQV 041545Z AUTO 22008G20KT 180V260 10SM FEW025 SCT030 BKN042 31/24 A3003 280 65 2200 210/08G20 180V260 RMK AO2 T03110239
03949KAQV AQV20160704095013807/04/16 09:50:31  5-MIN KAQV 041550Z AUTO 22006G20KT 10SM SCT027 BKN038 BKN046 32/24 A3003 280 63 2300 220/06G20 RMK AO2 SLP164 T03170239
03949KAQV AQV20160704095515407/04/16 09:55:31  5-MIN KAQV 041555Z AUTO 23007G15KT 190V270 10SM SCT029 BKN038 BKN045 31/24 A3003 280 65 2200 230/07G15 190V270 RMK AO2 SLP163 T03110239
03949KAQV AQV20160704100010807/04/16 10:00:31  5-MIN KAQV 041600Z AUTO 10SM SCT029 BKN042 31/24 A3003 280 67 2200 M /M RMK AO2 T03060239
03949KAQV AQV20160704100514107/04/16 10:05:31  5-MIN KAQV 041605Z AUTO 22008KT 190V250 10SM SCT031 BKN038 BKN048 31/24 A3003 280 65 2200 210/08 190V250 RMK AO2 T03110239
03949KAQV AQV20160704101013107/04/16 10:10:31  5-MIN KAQV 041610Z AUTO VRB06G17KT 10SM SCT029 BKN036 BKN045 31/23 A3003 270 63 2200 VRB/06G17 RMK AO2 T03110233
03949KAQV AQV20160704101514707/04/16 10:15:31  5-MIN KAQV 041615Z AUTO VRB06G17KT 10SM -RA SCT031 BKN045 BKN060 32/24 A3003 270 63 2300 VRB/06G17 RMK AO2 RAB11 P0000 T03170239
03949KAQV AQV20160704102028407/04/16 10:20:31  5-MIN KAQV 041620Z AUTO 21008KT 190V260 10SM SCT031 SCT040 BKN060 32/24 A3003 280 61 2300 210/08 190V260 RMK AO2 RAB11E20 P0000 T032202390004 T0216 P0004 T0289026107/04/16 12:35:31  5-19KT 160V230 10SM CLR 31/23 A2996 340 63 2300 190/11G19 160V230 RMK AO2 T03110233
03949KAQV AQV20160704142513007/04/16 14:25:31  5-MIN KAQV 042025Z AUTO 19009G17KT 160V220 10SM CLR 32/23 A2996 340 59 2400 190/09G17 160V220 RMK AO2 T03220233
03949KAQV AQV20160704143011407/04/16 14:30:31  5-MIN KAQV 042030Z AUTO 19009G17KT 10SM CLR 32/23 A2995 350 59 2400 190/09G17 RMK AO2 T03220233
03949KAQV AQV20160704143511407/04/16 14:35:31  5-MIN KAQV 042035Z AUTO 20006G17KT 10SM CLR 32/23 A2995 350 57 2400 200/06G17 RMK AO2 T03220228
03949KAQV AQV20160704144011407/04/16 14:40:31  5-MIN KAQV 042040Z AUTO 20005G15KT 10SM CLR 32/23 A2995 350 59 2400 190/05G15 RMK AO2 T03220233
03949KAQV AQV20160704144510807/04/16 14:45:31  5-MIN KAQV 042045Z AUTO VRB06KT 10SM CLR 32/23 A2995 350 61 2400 VRB/06 RMK AO2 T03170233
03949KAQV AQV20160704145013307/04/16 14:50:31  5-MIN KAQV 042050Z AUTO VRB06G15KT 10SM CLR 32/23 A2995 350 59 2400 VRB/06G15 RMK AO2 SLP138 60004 T03220233 50002
03949KAQV AQV20160704145514907/04/16 14:55:31  5-MIN KAQV 042055Z AUTO 21009G16KT 170V240 10SM CLR 32/23 A2995 350 59 2400 210/09G16 170V240 RMK AO2 SLP138 60004 T03220233 50002
03949KAQV AQV20160704150011407/04/16 15:00:31  5-MIN KAQV 042100Z AUTO 22008G16KT 10SM CLR 32/23 A2995 350 59 2400 220/08G16 RMK AO2 T03220233
03949KAQV AQV20160704150513007/04/16 15:05:31  5-MIN KAQV 042105Z AUTO 20009G16KT 170V230 10SM CLR 32/23 A2995 350 59 2400 200/09G16 170V230 RMK AO2 T03220233
03949KAQV AQV20160704151013007/04/16 15:10:31  5-MIN KAQV 042110Z AUTO 22007G16KT 170V260 10SM CLR 32/24 A2996 340 61 2400 210/07G16 170V260 RMK AO2 T03220239
03949KAQV AQV20160704151510807/04/16 15:15:31  5-MIN KAQV 042115Z AUTO VRB06KT 10SM CLR 32/23 A2996 340 61 2400 VRB/06 RMK AO2 T03170233
03949KAQV AQV20160704152010807/04/16 15:20:31  5-MIN KAQV 042120Z AUTO VRB05KT 10SM CLR 32/24 A2996 340 61 2400 VRB/05 RMK AO2 T03220239
03949KAQV AQV20160704152510807/04/16 15:25:31  5-MIN KAQV 042125Z AUTO VRB05KT 10SM CLR 28/24 A2996 340 76 2000 VRB/05 RMK AO2 T02830239
03949KAQV AQV20160704153012407/04/16 15:30:31  5-MIN KAQV 042130Z AUTO 24007KT 150V280 10SM CLR 31/24 A2996 340 67 2200 240/07 150V280 RMK AO2 T03060239
03949KAQV AQV20160704153510807/04/16 15:35:31  5-MIN KAQV 042135Z AUTO VRB06KT 10SM CLR 32/23 A2997 330 61 2400 VRB/06 RMK AO2 T03170233
03949KAQV AQV20160704154012407/04/16 15:40:31  5-MIN KAQV 042140Z AUTO 20007KT 150V220 10SM CLR 32/23 A2997 330 61 2400 190/07 150V220 RMK AO2 T03170233
03949KAQV AQV20160704154510807/04/16 15:45:31  5-MIN KAQV 042145Z AUTO VRB04KT 10SM CLR 32/24 A2997 330 61 2400 VRB/04 RMK AO2 T03220239
03949KAQV AQV20160704155011507/04/16 15:50:31  5-MIN KAQV 042150Z AUTO VRB04KT 10SM CLR 32/24 A2997 330 63 2400 VRB/04 RMK AO2 SLP144 T03170239
03949KAQV AQV20160704155506907/04/16 15:55:31  5-MIN KAQV 042155Z AUTO 22006KT 10SM CLR T03170233
03949KAQV AQV20160704162010807/04/16 16:20:31  5-MIN KAQV 042220Z AUTO VRB04KT 10SM CLR 31/24 A2995 350 65 2300 VRB/04 RMK AO2 T03110239
03949KAQV AQV20160704162510807/04/16 16:25:31  5-MIN KAQV 042225Z AUTO VRB06KT 10SM CLR 31/24 A2995 350 65 2300 VRB/06 RMK AO2 T03110239
03949KAQV AQV20160704163010807/04/16 16:30:31  5-MIN KAQV 042230Z AUTO VRB04KT 10SM CLR 31/24 A2995 350 67 2300 VRB/04 RMK AO2 T03110244
03949KAQV AQV20160705133011107/05/16 13:30:31  5-MIN KAQV 051930Z AUTO VRB05KT 10SM FEW043 33/23 A3004 270 53 2500 VRB/05 RMK AO2 T03330228
03949KAQV AQV20160705133511107/05/16 13:35:31  5-MIN KAQV 051935Z AUTO 25005KT 10SM FEW044 33/23 A3003 270 53 2500 250/05 RMK AO2 T03330228
03949KAQV AQV20160705134011107/05/16 13:40:31  5-MIN KAQV 051940Z AUTO VRB04KT 10SM FEW044 33/22 A3003 270 53 2400 VRB/04 RMK AO2 T03280222
03949KAQV AQV20160705134511107/05/16 13:45:31  5-MIN KAQV 051945Z AUTO 19005KT 10SM SCT042 33/23 A3003 270 53 2500 180/05 RMK AO2 T03330228
03949KAQV AQV20160705135011807/05/16 13:50:31  5-MIN KAQV 051950Z AUTO VRB04KT 10SM SCT042 33/23 A3003 270 55 2400 VRB/04 RMK AO2 SLP165 T03280228
03949KAQV AQV20160705135512507/05/16 13:55:31  5-MIN KAQV 051955Z AUTO VRB04KT 10SM SCT042 SCT065 33/23 A3003 270 57 2400 VRB/04 RMK AO2 SLP165 T03280233
03949KAQV AQV20160705140011807/05/16 14:00:31  5-MIN KAQV 052000Z AUTO VRB03KT 10SM SCT044 BKN060 33/23 A3003 280 57 2400 VRB/03 RMK AO2 T03280233
03949KAQV AQV20160705140511807/05/16 14:05:31  5-MIN KAQV 052005Z AUTO VRB03KT 10SM SCT044 BKN060 33/23 A3003 280 57 2400 VRB/03 RMK AO2 T03280233
03949KAQV AQV20160705141011807/05/16 14:10:31  5-MIN KAQV 052010Z AUTO 20004KT 10SM SCT044 BKN060 32/23 A3003 280 59 2300 200/04 RMK AO2 T03220233
03949KAQV AQV20160705141511807/05/16 14:15:31  5-MIN KAQV 052015Z AUTO 19004KT 10SM SCT044 BKN060 33/23 A3002 280 57 2400 190/04 RMK AO2 T03280233
03949KAQV AQV20160705142011807/05/16 14:20:31  5-MIN KAQV 052020Z AUTO VRB04KT 10SM FEW044 SCT060 32/23 A3002 290 57 2400 VRB/04 RMK AO2 T03220228
03949KAQV AQV20160705142511807/05/16 14:25:31  5-MIN KAQV 052025Z AUTO 19005KT 10SM FEW044 FEW060 32/23 A3002 290 59 2400 180/05 RMK AO2 T03220233
03949KAQV AQV20160705143011807/05/16 14:30:31  5-MIN KAQV 052030Z AUTO VRB06KT 10SM FEW044 FEW060 32/23 A3002 290 57 2400 VRB/06 RMK AO2 T03220228
03949KAQV AQV20160705143511107/05/16 14:35:31  5-MIN KAQV 052035Z AUTO 19005KT 10SM FEW044 32/23 A3001 290 57 2400 190/05 RMK AO2 T03220228
03949KAQV AQV20160705144010807/05/16 14:40:31  5-MIN KAQV 052040Z AUTO VRB04KT 10SM CLR 32/23 A3001 290 57 2400 VRB/04 RMK AO2 T03220228
03949KAQV AQV20160705144510807/05/16 14:45:31  5-MIN KAQV 052045Z AUTO VRB04KT 10SM CLR 32/23 A3001 290 57 2400 VRB/04 RMK AO2 T03220228
03949KAQV AQV20160705145012107/05/16 14:50:31  5-MIN KAQV 052050Z AUTO VRB03KT 10SM CLR 32/23 A3001 290 59 2400 VRB/03 RMK AO2 SLP158 T03220233 50012
03949KAQV AQV20160705145512107/05/16 14:55:31  5-MIN KAQV 052055Z AUTO VRB03KT 10SM CLR 32/23 A3001 290 59 2400 VRB/03 RMK AO2 SLP158 T03220233 50012
03949KAQV AQV20160705150010807/05/16 15:00:31  5-MIN KAQV 052100Z AUTO VRB03KT 10SM CLR 32/23 A3001 300 59 2400 VRB/03 RMK AO2 T03220233
03949KAQV AQV20160705150510807/05/16 15:05:31  5-MIN KAQV 052105Z AUTO 19004KT 10SM CLR 32/23 A3000 300 61 2300 180/04 RMK AO2 T03170233
03949KAQV AQV20160705151010807/05/16 15:10:31  5-MIN KAQV 052110Z AUTO VRB03KT 10SM CLR 32/24 A3000 300 63 2300 VRB/03 RMK AO2 T03170239
03949KAQV AQV20160705151510807/05/16 15:15:31  5-MIN KAQV 052115Z AUTO 19004KT 10SM CLR 32/24 A3000 300 63 2300 180/04 RMK AO2 T03170239
03949KAQV AQV20160705152010807/05/16 15:20:31  5-MIN KAQV 052120Z AUTO 18005KT 10SM CLR 32/24 A3000 300 63 2300 170/05 RMK AO2 T03170239
03949KAQV AQV20160705152510807/05/16 15:25:31  5-MIN KAQV 052125Z AUTO VRB04KT 10SM CLR 32/24 A3000 300 63 2300 VRB/04 RMK AO2 T03170239
03949KAQV AQV20160705153010807/05/16 15:30:31  5-MIN KAQV 052130Z AUTO 19005KT 10SM CLR 32/24 A3000 300 63 2300 190/05 RMK AO2 T03170239
03949KAQV AQV20160705153510807/05/16 15:35:31  5-MIN KAQV 052135Z AUTO VRB04KT 10SM CLR 32/24 A3000 300 63 2300 VRB/04 RMK AO2 T03170239
03949KAQV AQV20160705154010807/05/16 15:40:31  5-MIN KAQV 052140Z AUTO VRB04KT 10SM CLR 32/24 A3000 300 63 2300 VRB/04 RMK AO2 T03170239
03949KAQV AQV20160705154510807/05/16 15:45:31  5-MIN KAQV 052145Z AUTO VRB04KT 10SM CLR 32/24 A3000 300 63 2300 VRB/04 RMK AO2 T03170239
03949KAQV AQV20160705155011507/05/16 15:50:31  5-MIN KAQV 052150Z AUTO 19004KT 10SM CLR 31/24 A3000 300 65 2300 190/04 RMK AO2 SLP156 T03110239
03949KAQV AQV20160705155511507/05/16 15:55:31  5-MIN KAQV 052155Z AUTO VRB03KT 10SM CLR 31/24 A3000 300 65 2300 VRB/03 RMK AO2 SLP155 T03110239
03949KAQV AQV20160705160010807/05/16 16:00:31  5-MIN KAQV 052200Z AUTO 18004KT 10SM CLR 31/24 A3000 310 65 2300 180/04 RMK AO2 T03110239
03949KAQV AQV20160705160510807/05/16 16:05:31  5-MIN KAQV 052205Z AUTO 19005KT 10SM CLR 31/24 A3000 310 65 2300 180/05 RMK AO2 T03110239
03949KAQV AQV20160705161010807/05/16 16:10:31  5-MIN KAQV 052210Z AUTO VRB05KT 10SM CLR 31/24 A2999 310 65 2300 VRB/05 RMK AO2 T03110239
03949KAQV AQV20160705161510807/05/16 16:15:31  5-MIN KAQV 052215Z AUTO VRB04KT 10SM CLR 31/24 A2999 310 67 2300 VRB/04 RMK AO2 T03110244
03949KAQV AQV20160705162010807/05/16 16:20:31  5-MIN KAQV 052220Z AUTO 20003KT 10SM CLR 31/24 A2999 310 67 2300 190/03 RMK AO2 T03110244
03949KAQV AQV20160705162510807/05/16 16:25:31  5-MIN KAQV 052225Z AUTO VRB03KT 10SM CLR 31/24 A2999 310 67 2300 VRB/03 RMK AO2 T03110244
03949KAQV AQV20160705163010807/05/16 16:30:31  5-MIN KAQV 052230Z AUTO VRB04KT 10SM CLR 31/24 A2999 310 65 2300 VRB/04 RMK AO2 T03110239
03949KAQV AQV20160705163510807/05/16 16:35:31  5-MIN KAQV 052235Z AUTO VRB04KT 10SM CLR 28/24 A2999 310 76 2000 VRB/04 RMK AO2 T02830239
03949KAQV AQV20160705164010807/05/16 16:40:31  5-MIN KAQV 052240Z AUTO 19004KT 10SM CLR 28/24 A2999 310 79 2000 180/04 RMK AO2 T02830244
03949KAQV AQV20160705164510807/05/16 16:45:31  5-MIN KAQV 052245Z AUTO 19004KT 10SM CLR 31/24 A2999 310 69 2200 190/04 RMK AO2 T03060244
03949KAQV AQV20160705165011507/05/16 16:50:31  5-MIN KAQV 052250Z AUTO 19003KT 10SM CLR 31/24 A2999 310 69 2200 190/03 RMK AO2 SLP152 T03060244
03949KAQV AQV20160705165511507/05/16 16:55:31  5-MIN KAQV 052255Z AUTO 17004KT 10SM CLR 31/24 A2999 310 69 2200 170/04 RMK AO2 SLP151 T03060244
03949KAQV AQV20160705170010807/05/16 17:00:31  5-MIN KAQV 052300Z AUTO 19003KT 10SM CLR 30/24 A2999 310 72 2100 180/03 RMK AO2 T03000244
03949KAQV AQV20160705170510807/05/16 17:05:31  5-MIN KAQV 052305Z AUTO 18004KT 10SM CLR 31/24 A2999 310 69 2200 170/04 RMK AO2 T03060244
03949KAQV AQV20160705171010807/05/16 17:10:31  5-MIN KAQV 052310Z AUTO 18004KT 10SM CLR 31/24 A2999 310 69 2200 180/04 RMK AO2 T03060244
03949KAQV AQV20160705171510807/05/16 17:15:31  5-MIN KAQV 052315Z AUTO 18003KT 10SM CLR 30/24 A2999 310 72 2100 180/03 RMK AO2 T03000244
03949KAQV AQV20160705172010807/05/16 17:20:31  5-MIN KAQV 052320Z AUTO 18004KT 10SM CLR 30/24 A2999 310 72 2100 180/04 RMK AO2 T03000244
03949KAQV AQV20160705172510807/05/16 17:25:31  5-MIN KAQV 052325Z AUTO VRB04KT 10SM CLR 30/24 A2999 310 72 2100 VRB/04 RMK AO2 T03000244
03949KAQV AQV20160705173010807/05/16 17:30:31  5-MIN KAQV 052330Z AUTO 18005KT 10SM CLR 30/24 A2999 310 72 2100 180/05 RMK AO2 T03000244
03949KAQV AQV20160705173510807/05/16 17:35:31  5-MIN KAQV 052335Z AUTO 18006KT 10SM CLR 30/24 A2999 310 72 2100 180/06 RMK AO2 T03000244
03949KAQV AQV20160705174010807/05/16 17:40:31  5-MIN KAQV 052340Z AUTO VRB04KT 10SM CLR 30/24 A2998 320 72 2100 VRB/04 RMK AO2 T03000244
03949KAQV AQV20160705174510807/05/16 17:45:31  5-MIN KAQV 052345Z AUTO 17004KT 10SM CLR 29/24 A2998 320 76 2000 170/04 RMK AO2 T02890244
03949KAQV AQV20160705175013307/05/16 17:50:31  5-MIN KAQV 052350Z AUTO 18006KT 10SM CLR 27/24 A2998 320 84 1800 170/06 RMK AO2 SLP149 T02720244 10333 20267 58014
03949KAQV AQV20160705175513307/05/16 17:55:31  5-MIN KAQV 052355Z AUTO VRB03KT 10SM CLR 29/24 A2998 320 74 2100 VRB/03 RMK AO2 SLP148 T02940244 10333 20267 58014
03949KAQV AQV20160705180010807/05/16 18:00:31  5-MIN KAQV 060000Z AUTO 19004KT 10SM CLR 29/24 A2998 330 74 2100 190/04 RMK AO2 T02940244
03949KAQV AQV20160705180510807/05/16 18:05:31  5-MIN KAQV 060005Z AUTO 18006KT 10SM CLR 29/24 A2997 330 74 2100 170/06 RMK AO2 T02940244
03949KAQV AQV20160705181010807/05/16 18:10:31  5-MIN KAQV 060010Z AUTO VRB05KT 10SM CLR 29/24 A2997 330 74 2100 VRB/05 RMK AO2 T02940244
03949KAQV AQV20160705181510807/05/16 18:15:31  5-MIN KAQV 060015Z AUTO 18006KT 10SM CLR 30/24 A2997 330 72 2200 170/06 RMK AO2 T03000244
03949KAQV AQV20160705182010807/05/16 18:20:31  5-MIN KAQV 060020Z AUTO 19006KT 10SM CLR 29/24 A2997 330 74 2000 180/06 RMK AO2 T02890239
03949KAQV AQV20160705182510807/05/16 18:25:31  5-MIN KAQV 060025Z AUTO VRB04KT 10SM CLR 27/24 A2997 330 84 1800 VRB/04 RMK AO2 T02670239
03949KAQV AQV20160705183010807/05/16 18:30:31  5-MIN KAQV 060030Z AUTO VRB05KT 10SM CLR 29/24 A2997 330 71 2100 VRB/05 RMK AO2 T02940239
03949KAQV AQV20160705183510807/05/16 18:35:31  5-MIN KAQV 060035Z AUTO 17007KT 10SM CLR 29/24 A2997 330 71 2100 170/07 RMK AO2 T02940239
03949KAQV AQV20160705184010807/05/16 18:40:31  5-MIN KAQV 060040Z AUTO VRB06KT 10SM CLR 28/24 A2997 330 79 1900 VRB/06 RMK AO2 T02780239
03949KAQV AQV20160705184510807/05/16 18:45:31  5-MIN KAQV 060045Z AUTO 19006KT 10SM CLR 26/24 A2997 330 87 1700 180/06 RMK AO2 T02610239
03949KAQV AQV20160705185011507/05/16 18:50:31  5-MIN KAQV 060050Z AUTO 18005KT 10SM CLR 26/24 A2997 330 87 1700 170/05 RMK AO2 SLP146 T02610239
03949KAQV AQV20160705185511507/05/16 18:55:31  5-MIN KAQV 060055Z AUTO 19005KT 10SM CLR 29/24 A2998 330 74 2000 180/05 RMK AO2 SLP147 T02890239
03949KAQV AQV20160705190010807/05/16 19:00:31  5-MIN KAQV 060100Z AUTO 18006KT 10SM CLR 26/24 A2997 330 87 1700 170/06 RMK AO2 T02610239
03949KAQV AQV20160705190510807/05/16 19:05:31  5-MIN KAQV 060105Z AUTO 17004KT 10SM CLR 26/24 A2997 330 87 1700 170/04 RMK AO2 T02610239
03949KAQV AQV20160705191010807/05/16 19:10:31  5-MIN KAQV 060110Z AUTO 18004KT 10SM CLR 28/24 A2997 330 76 2000 180/04 RMK AO2 T02830239
03949KAQV AQV20160705191510807/05/16 19:15:31  5-MIN KAQV 060115Z AUTO 17005KT 10SM CLR 28/24 A2997 330 79 1900 170/05 RMK AO2 T02780239
03949KAQV AQV20160705192010807/05/16 19:20:31  5-MIN KAQV 060120Z AUTO 17004KT 10SM CLR 26/24 A2997 330 90 1700 170/04 RMK AO2 T02560239
03949KAQV AQV20160705192510807/05/16 19:25:31  5-MIN KAQV 060125Z AUTO 18005KT 10SM CLR 26/24 A2997 330 87 1700 180/05 RMK AO2 T02610239
03949KAQV AQV20160705193010807/05/16 19:30:31  5-MIN KAQV 060130Z AUTO VRB04KT 10SM CLR 28/24 A2997 330 79 1900 VRB/04 RMK AO2 T02780239
03949KAQV AQV20160705193510807/05/16 19:35:31  5-MIN KAQV 060135Z AUTO 19005KT 10SM CLR 26/24 A2997 330 87 1700 180/05 RMK AO2 T02610239
03949KAQV AQV20160705194010807/05/16 19:40:31  5-MIN KAQV 060140Z AUTO 18004KT 10SM CLR 26/24 A2997 330 90 1700 180/04 RMK AO2 T02560239
03949KAQV AQV20160705194510807/05/16 19:45:31  5-MIN KAQV 060145Z AUTO 18004KT 10SM CLR 27/24 A2997 330 82 1900 180/04 RMK AO2 T02720239
03949KAQV AQV20160705195011507/05/16 19:50:31  5-MIN KAQV 060150Z AUTO 00000KT 10SM CLR 27/24 A2998 320 82 1800 000/00 RMK AO2 SLP147 T02720239
03949KAQV AQV20160705195511507/05/16 19:55:31  5-MIN KAQV 060155Z AUTO 19004KT 10SM CLR 26/24 A2998 320 90 1700 180/04 RMK AO2 SLP148 T02560239
03949KAQV AQV20160705200010807/05/16 20:00:31  5-MIN KAQV 060200Z AUTO 18005KT 10SM CLR 26/24 A2997 330 87 1700 170/05 RMK AO2 T02610239
03949KAQV AQV20160705200510807/05/16 20:05:31  5-MIN KAQV 060205Z AUTO VRB06KT 10SM CLR 27/24 A2997 330 84 1800 VRB/06 RMK AO2 T02670239
03949KAQV AQV20160705201010807/05/16 20:10:31  5-MIN KAQV 060210Z AUTO 19004KT 10SM CLR 26/24 A2998 320 90 1700 180/04 RMK AO2 T02560239
03949KAQV AQV20160705201510807/05/16 20:15:31  5-MIN KAQV 060215Z AUTO VRB03KT 10SM CLR 26/24 A2998 320 90 1700 VRB/03 RMK AO2 T02560239
03949KAQV AQV20160705202010807/05/16 20:20:31  5-MIN KAQV 060220Z AUTO VRB03KT 10SM CLR 26/24 A2998 320 90 1700 VRB/03 RMK AO2 T02560239
03949KAQV AQV20160705202510807/05/16 20:25:31  5-MIN KAQV 060225Z AUTO 18004KT 10SM CLR 26/24 A2998 320 90 1700 180/04 RMK AO2 T02560239
03949KAQV AQV20160705203010807/05/16 20:30:31  5-MIN KAQV 060230Z AUTO 18003KT 10SM CLR 26/24 A2998 320 90 1700 180/03 RMK AO2 T02560239
03949KAQV AQV20160705203510807/05/16 20:35:31  5-MIN KAQV 060235Z AUTO 00000KT 10SM CLR 26/24 A2999 320 90 1600 000/00 RMK AO2 T02560239
03949KAQV AQV20160705204010807/05/16 20:40:31  5-MIN KAQV 060240Z AUTO 22003KT 10SM CLR 27/24 A2999 310 84 1800 210/03 RMK AO2 T02670239
03949KAQV AQV20160705204510807/05/16 20:45:31  5-MIN KAQV 060245Z AUTO 17003KT 10SM CLR 26/24 A2999 310 90 1600 170/03 RMK AO2 T02560239
03949KAQV AQV20160705205012107/05/16 20:50:31  5-MIN KAQV 060250Z AUTO 19003KT 10SM CLR 26/24 A2999 310 87 1700 180/03 RMK AO2 SLP152 T02610239 56010
03949KAQV AQV20160705205512107/05/16 20:55:31  5-MIN KAQV 060255Z AUTO 18004KT 10SM CLR 26/24 A3000 310 90 1600 180/04 RMK AO2 SLP153 T02560239 56010
03949KAQV AQV20160705210010807/05/16 21:00:31  5-MIN KAQV 060300Z AUTO 19003KT 10SM CLR 25/24 A3000 310 93 1600 180/03 RMK AO2 T02500239
03949KAQV AQV20160705210510807/05/16 21:05:31  5-MIN KAQV 060305Z AUTO 19003KT 10SM CLR 25/24 A3000 310 93 1600 190/03 RMK AO2 T02500239
03949KAQV AQV20160705211010807/05/16 21:10:31  5-MIN KAQV 060310Z AUTO 19004KT 10SM CLR 25/24 A3000 310 93 1600 190/04 RMK AO2 T02500239
03949KAQV AQV20160705211510807/05/16 21:15:31  5-MIN KAQV 060315Z AUTO VRB04KT 10SM CLR 25/24 A3000 300 93 1600 VRB/04 RMK AO2 T02500239
03949KAQV AQV20160705212010807/05/16 21:20:31  5-MIN KAQV 060320Z AUTO 18005KT 10SM CLR 25/24 A3000 300 93 1600 180/05 RMK AO2 T02500239
03949KAQV AQV20160705212510807/05/16 21:25:31  5-MIN KAQV 060325Z AUTO VRB04KT 10SM CLR 25/24 A3000 300 93 1600 VRB/04 RMK AO2 T02500239
03949KAQV AQV20160705213010807/05/16 21:30:31  5-MIN KAQV 060330Z AUTO VRB03KT 10SM CLR 25/24 A3001 300 93 1600 VRB/03 RMK AO2 T02500239
03949KAQV AQV20160705213510807/05/16 21:35:31  5-MIN KAQV 060335Z AUTO 17005KT 10SM CLR 25/24 A3000 300 93 1600 170/05 RMK AO2 T02500239
03949KAQV AQV20160705214010807/05/16 21:40:31  5-MIN KAQV 060340Z AUTO 17004KT 10SM CLR 25/24 A3000 300 93 1600 170/04 RMK AO2 T02500239
03949KAQV AQV20160705214510807/05/16 21:45:31  5-MIN KAQV 060345Z AUTO 18004KT 10SM CLR 25/24 A3000 300 93 1600 180/04 RMK AO2 T02500239
03949KAQV AQV20160705215011507/05/16 21:50:31  5-MIN KAQV 060350Z AUTO 20003KT 10SM CLR 25/24 A3001 300 93 1600 190/03 RMK AO2 SLP157 T02500239
03949KAQV AQV20160705215511507/05/16 21:55:31  5-MIN KAQV 060355Z AUTO 20004KT 10SM CLR 25/24 A3001 290 93 1600 190/04 RMK AO2 SLP158 T02500239
03949KAQV AQV20160705220010807/05/16 22:00:31  5-MIN KAQV 060400Z AUTO VRB04KT 10SM CLR 25/24 A3001 290 93 1600 VRB/04 RMK AO2 T02500239
03949KAQV AQV20160705220510807/05/16 22:05:31  5-MIN KAQV 060405Z AUTO 19005KT 10SM CLR 25/24 A3001 290 93 1600 180/05 RMK AO2 T02500239
03949KAQV AQV20160705221010807/05/16 22:10:31  5-MIN KAQV 060410Z AUTO 18004KT 10SM CLR 26/24 A3001 290 90 1600 180/04 RMK AO2 T02560239
03949KAQV AQV20160705221510807/05/16 22:15:31  5-MIN KAQV 060415Z AUTO 18005KT 10SM CLR 27/24 A3001 300 84 1700 180/05 RMK AO2 T02670239
03949KAQV AQV20160705222010807/05/16 22:20:31  5-MIN KAQV 060420Z AUTO 18006KT 10SM CLR 26/24 A3001 300 90 1600 180/06 RMK AO2 T02560239
03949KAQV AQV20160705222510807/05/16 22:25:31  5-MIN KAQV 060425Z AUTO VRB03KT 10SM CLR 25/24 A3001 290 93 1600 VRB/03 RMK AO2 T02500239
03949KAQV AQV20160705223017407/05/16 22:30:31  5-MIN KAQV 060430Z AUTO VRB04KT 10SM CLR 25/24 A3001 290 93 1600 VRB/04 RMK AO7 1600 190/05 RMK AO2 T0250024407/06/16 00:15:31  5-MVRB/05 RMK AO2 T02500244
03949KAQV AQV20160706004011107/06/16 00:40:31  5-MIN KAQV 060640Z AUTO VRB04KT 10SM FEW020 25/24 A3000 310 97 1600 VRB/04 RMK AO2 T02500244
03949KAQV AQV20160706004511107/06/16 00:45:31  5-MIN KAQV 060645Z AUTO VRB04KT 10SM FEW020 25/24 A3000 310 97 1600 VRB/04 RMK AO2 T02500244
03949KAQV AQV20160706005011807/06/16 00:50:31  5-MIN KAQV 060650Z AUTO 19004KT 10SM FEW020 26/24 A3000 300 93 1600 190/04 RMK AO2 SLP153 T02560244
03949KAQV AQV20160706005511807/06/16 00:55:31  5-MIN KAQV 060655Z AUTO VRB03KT 10SM SCT020 26/24 A3000 310 93 1600 VRB/03 RMK AO2 SLP153 T02560244
03949KAQV AQV20160706010011107/06/16 01:00:31  5-MIN KAQV 060700Z AUTO 19004KT 10SM SCT018 26/24 A2999 310 93 1600 180/04 RMK AO2 T02560244
03949KAQV AQV20160706010511107/06/16 01:05:31  5-MIN KAQV 060705Z AUTO 19004KT 10SM FEW018 26/24 A2999 310 93 1600 180/04 RMK AO2 T02560244
03949KAQV AQV20160706011011107/06/16 01:10:31  5-MIN KAQV 060710Z AUTO VRB04KT 10SM FEW018 26/24 A2999 310 93 1600 VRB/04 RMK AO2 T02560244
03949KAQV AQV20160706011511107/06/16 01:15:31  5-MIN KAQV 060715Z AUTO 19004KT 10SM FEW018 26/24 A2999 310 93 1600 180/04 RMK AO2 T02560244
03949KAQV AQV20160706012011107/06/16 01:20:31  5-MIN KAQV 060720Z AUTO 19004KT 10SM FEW018 26/24 A2999 310 93 1600 190/04 RMK AO2 T02560244
03949KAQV AQV20160706012510807/06/16 01:25:31  5-MIN KAQV 060725Z AUTO VRB05KT 10SM CLR 26/24 A2999 310 93 1600 VRB/05 RMK AO2 T02560244
03949KAQV AQV20160706211510807/06/16 21:15:31  5-MIN KAQV 070315Z AUTO 18004KT 10SM CLR 24/23 A2999 310 93 1500 170/04 RMK AO2 T02390228
03949KAQV AQV20160706212010807/06/16 21:20:31  5-MIN KAQV 070320Z AUTO 18005KT 10SM CLR 24/23 A2999 310 93 1500 180/05 RMK AO2 T02390228
03949KAQV AQV20160706212510807/06/16 21:25:31  5-MIN KAQV 070325Z AUTO 18004KT 10SM CLR 24/23 A2999 310 93 1500 180/04 RMK AO2 T02390228
03949KAQV AQV20160706213010807/06/16 21:30:31  5-MIN KAQV 070330Z AUTO 18003KT 10SM CLR 24/23 A2999 310 93 1500 180/03 RMK AO2 T02390228
03949KAQV AQV20160706213510807/06/16 21:35:31  5-MIN KAQV 070335Z AUTO 18004KT 10SM CLR 24/23 A2999 310 93 1400 170/04 RMK AO2 T02390228
03949KAQV AQV20160706214010807/06/16 21:40:31  5-MIN KAQV 070340Z AUTO 18004KT 10SM CLR 24/23 A2999 310 93 1500 180/04 RMK AO2 T02390228
03949KAQV AQV20160706214510807/06/16 21:45:31  5-MIN KAQV 070345Z AUTO 18004KT 10SM CLR 24/23 A2999 310 93 1500 180/04 RMK AO2 T02390228
03949KAQV AQV20160706215011507/06/16 21:50:31  5-MIN KAQV 070350Z AUTO 18003KT 10SM CLR 24/23 A2999 310 93 1500 180/03 RMK AO2 SLP153 T02390228
03949KAQV AQV20160706215511507/06/16 21:55:31  5-MIN KAQV 070355Z AUTO VRB04KT 10SM CLR 24/23 A3000 310 93 1400 VRB/04 RMK AO2 SLP154 T02390228
03949KAQV AQV20160706220010807/06/16 22:00:31  5-MIN KAQV 070400Z AUTO 18006KT 10SM CLR 24/23 A3000 310 93 1400 180/06 RMK AO2 T02390228
03949KAQV AQV20160706220510807/06/16 22:05:31  5-MIN KAQV 070405Z AUTO 18005KT 10SM CLR 24/23 A3000 310 93 1400 170/05 RMK AO2 T02390228
03949KAQV AQV20160706221010807/06/16 22:10:31  5-MIN KAQV 070410Z AUTO 19005KT 10SM CLR 24/23 A3000 300 90 1500 180/05 RMK AO2 T02440228
03949KAQV AQV20160706221510807/06/16 22:15:31  5-MIN KAQV 070415Z AUTO 18003KT 10SM CLR 25/23 A3000 300 87 1600 180/03 RMK AO2 T02500228
03949KAQV AQV20160706222010807/06/16 22:20:31  5-MIN KAQV 070420Z AUTO 18004KT 10SM CLR 24/23 A3000 300 93 1400 180/04 RMK AO2 T02390228
03949KAQV AQV20160706222510807/06/16 22:25:31  5-MIN KAQV 070425Z AUTO 18004KT 10SM CLR 24/23 A3000 300 93 1400 180/04 RMK AO2 T02390228
03949KAQV AQV20160706223010807/06/16 22:30:31  5-MIN KAQV 070430Z AUTO 19004KT 10SM CLR 24/23 A3000 310 93 1400 180/04 RMK AO2 T02390228
03949KAQV AQV20160706223510807/06/16 22:35:31  5-MIN KAQV 070435Z AUTO VRB05KT 10SM CLR 24/23 A3000 310 90 1500 VRB/05 RMK AO2 T02440228
03949KAQV AQV20160706224010807/06/16 22:40:31  5-MIN KAQV 070440Z AUTO 18005KT 10SM CLR 24/23 A3000 310 90 1500 180/05 RMK AO2 T02440228
03949KAQV AQV20160706224510807/06/16 22:45:31  5-MIN KAQV 070445Z AUTO 19004KT 10SM CLR 24/23 A3000 300 90 1500 180/04 RMK AO2 T02440228
03949KAQV AQV20160706225011507/06/16 22:50:31  5-MIN KAQV 070450Z AUTO 18004KT 10SM CLR 24/23 A3000 300 93 1500 170/04 RMK AO2 SLP155 T02440233
03949KAQV AQV20160706225511507/06/16 22:55:31  5-MIN KAQV 070455Z AUTO 18004KT 10SM CLR 24/23 A3000 310 90 1500 180/04 RMK AO2 SLP154 T02440228
03949KAQV AQV20160706230010807/06/16 23:00:31  5-MIN KAQV 070500Z AUTO 18006KT 10SM CLR 24/23 A2999 310 93 1500 180/06 RMK AO2 T02390228
03949KAQV AQV20160706230510807/06/16 23:05:31  5-MIN KAQV 070505Z AUTO VRB05KT 10SM CLR 24/23 A2999 310 93 1500 VRB/05 RMK AO2 T02440233
03949KAQV AQV20160706231010807/06/16 23:10:31  5-MIN KAQV 070510Z AUTO 19004KT 10SM CLR 24/23 A2999 310 93 1500 180/04 RMK AO2 T02440233
03949KAQV AQV20160706231510807/06/16 23:15:31  5-MIN KAQV 070515Z AUTO 19005KT 10SM CLR 24/23 A2999 310 93 1500 180/05 RMK AO2 T02440233
03949KAQV AQV20160706232010807/06/16 23:20:31  5-MIN KAQV 070520Z AUTO VRB05KT 10SM CLR 24/23 A2999 310 93 1500 VRB/05 RMK AO2 T02440233
03949KAQV AQV20160706232510807/06/16 23:25:31  5-MIN KAQV 070525Z AUTO 19006KT 10SM CLR 24/23 A2999 310 93 1500 180/06 RMK AO2 T02440233
03949KAQV AQV20160706233010807/06/16 23:30:31  5-MIN KAQV 070530Z AUTO 19005KT 10SM CLR 24/23 A2999 320 93 1500 190/05 RMK AO2 T02440233
03949KAQV AQV20160706233510807/06/16 23:35:31  5-MIN KAQV 070535Z AUTO 19006KT 10SM CLR 24/23 A2999 320 93 1500 190/06 RMK AO2 T02440233
03949KAQV AQV20160706234010807/06/16 23:40:31  5-MIN KAQV 070540Z AUTO 19006KT 10SM CLR 24/23 A2999 310 93 1500 190/06 RMK AO2 T02440233
03949KAQV AQV20160706234510807/06/16 23:45:31  5-MIN KAQV 070545Z AUTO VRB04KT 10SM CLR 24/23 A2999 310 93 1500 VRB/04 RMK AO2 T02440233
03949KAQV AQV20160706235014307/06/16 23:50:31  5-MIN KAQV 070550Z AUTO 19005KT 10SM CLR 24/23 A2999 310 93 1500 190/05 RMK AO2 SLP150 T02440233 10317 20239 403560239 51005
03949KAQV AQV20160706235514307/06/16 23:55:31  5-MIN KAQV 070555Z AUTO 18007KT 10SM CLR 24/23 A2999 310 93 1500 180/07 RMK AO2 SLP152 T02440233 10317 20239 403560239 51005
03949KAQV AQV20160707000010807/07/16 00:00:31  5-MIN KAQV 070600Z AUTO 19004KT 10SM CLR 24/23 A2999 310 93 1500 190/04 RMK AO2 T02440233
03949KAQV AQV20160707000510807/07/16 00:05:31  5-MIN KAQV 070605Z AUTO VRB04KT 10SM CLR 24/23 A2999 310 93 1500 VRB/04 RMK AO2 T02440233
03949KAQV AQV20160707001010807/07/16 00:10:31  5-MIN KAQV 070610Z AUTO 18005KT 10SM CLR 24/23 A3000 310 93 1500 180/05 RMK AO2 T02440233
03949KAQV AQV20160707001510807/07/16 00:15:31  5-MIN KAQV 070615Z AUTO 18006KT 10SM CLR 24/23 A2999 310 93 1500 180/06 RMK AO2 T02440233
03949KAQV AQV20160707002010807/07/16 00:20:31  5-MIN KAQV 070620Z AUTO VRB04KT 10SM CLR 24/23 A2999 310 93 1500 VRB/04 RMK AO2 T02440233
03949KAQV AQV20160707002510807/07/16 00:25:31  5-MIN KAQV 070625Z AUTO 20003KT 10SM CLR 24/23 A2999 310 93 1500 190/03 RMK AO2 T02440233
03949KAQV AQV20160707003010807/07/16 00:30:31  5-MIN KAQV 070630Z AUTO 00000KT 10SM CLR 24/23 A3000 310 93 1500 000/00 RMK AO2 T02440233
03949KAQV AQV20160707003510807/07/16 00:35:31  5-MIN KAQV 070635Z AUTO 18004KT 10SM CLR 24/23 A3000 310 93 1500 180/04 RMK AO2 T02440233
03949KAQV AQV20160707004010807/07/16 00:40:31  5-MIN KAQV 070640Z AUTO 00000KT 10SM CLR 24/23 A3000 310 93 1500 000/00 RMK AO2 T02440233
03949KAQV AQV20160707004510807/07/16 00:45:31  5-MIN KAQV 070645Z AUTO 00000KT 10SM CLR 24/23 A3000 300 93 1500 000/00 RMK AO2 T02440233
03949KAQV AQV20160707005011507/07/16 00:50:31  5-MIN KAQV 070650Z AUTO 00000KT 10SM CLR 24/23 A3000 300 93 1500 000/00 RMK AO2 SLP154 T02440233
03949KAQV AQV20160707005511507/07/16 00:55:31  5-MIN KAQV 070655Z AUTO 00000KT 10SM CLR 24/23 A3000 300 93 1500 000/00 RMK AO2 SLP155 T02440233
03949KAQV AQV20160707010010807/07/16 01:00:31  5-MIN KAQV 070700Z AUTO 00000KT 10SM CLR 24/23 A3000 300 93 1500 000/00 RMK AO2 T02440233
03949KAQV AQV20160707010510807/07/16 01:05:31  5-MIN KAQV 070705Z AUTO 00000KT 10SM CLR 24/23 A3000 300 93 1500 000/00 RMK AO2 T02440233
03949KAQV AQV20160707011010807/07/16 01:10:31  5-MIN KAQV 070710Z AUTO 00000KT 10SM CLR 24/23 A3000 300 97 1400 000/00 RMK AO2 T02390233
03949KAQV AQV20160707011510707/07/16 01:15:31  5-MIN KAQV 070715Z AUTO 00000KT 9SM CLR 24/23 A3000 300 97 1400 000/00 RMK AO2 T02390233
03949KAQV AQV20160707012010707/07/16 01:20:31  5-MIN KAQV 070720Z AUTO 00000KT 9SM CLR 24/23 A3000 300 97 1400 000/00 RMK AO2 T02390233
03949KAQV AQV20160707012510707/07/16 01:25:31  5-MIN KAQV 070725Z AUTO 00000KT 8SM CLR 24/23 A3000 310 97 1400 000/00 RMK AO2 T02390233
03949KAQV AQV20160707013010707/07/16 01:30:31  5-MIN KAQV 070730Z AUTO 00000KT 7SM CLR 24/23 A2999 310 97 1500 000/00 RMK AO2 T02390233
03949KAQV AQV20160707013510807/07/16 01:35:31  5-MIN KAQV 070735Z AUTO 00000KT 7SM CLR 23/23 A2999 310 100 1400 000/00 RMK AO2 T02330233
03949KAQV AQV20160707014010707/07/16 01:40:31  5-MIN KAQV 070740Z AUTO 00000KT 7SM CLR 24/23 A2999 310 97 1500 000/00 RMK AO2 T02390233
03949KAQV AQV20160707014510707/07/16 01:45:31  5-MIN KAQV 070745Z AUTO 00000KT 7SM CLR 24/23 A2999 310 97 1500 000/00 RMK AO2 T02390233
03949KAQV AQV20160707015011407/07/16 01:50:31  5-MIN KAQV 070750Z AUTO 19003KT 7SM CLR 23/23 A2999 320 97 1400 190/03 RMK AO2 SLP149 T02330228
03949KAQV AQV20160707015511707/07/16 01:55:31  5-MIN KAQV 070755Z AUTO 00000KT 6SM BR CLR 24/23 A2999 320 97 1500 000/00 RMK AO2 SLP149 T02390233
03949KAQV AQV20160707020011007/07/16 02:00:31  5-MIN KAQV 070800Z AUTO 00000KT 6SM BR CLR 24/23 A2999 320 97 1500 000/00 RMK AO2 T02390233
03949KAQV AQV20160707020510707/07/16 02:05:31  5-MIN KAQV 070805Z AUTO VRB03KT 7SM CLR 24/23 A2999 310 97 1500 VRB/03 RMK AO2 T02390233
03949KAQV AQV20160707021010707/07/16 02:10:31  5-MIN KAQV 070810Z AUTO 18003KT 7SM CLR 24/23 A2999 320 97 1500 170/03 RMK AO2 T02390233
03949KAQV AQV20160707021510707/07/16 02:15:31  5-MIN KAQV 070815Z AUTO 18004KT 7SM CLR 24/23 A2998 320 97 1500 170/04 RMK AO2 T02390233
03949KAQV AQV20160707022010707/07/16 02:20:31  5-MIN KAQV 070820Z AUTO VRB03KT 8SM CLR 24/23 A2998 320 97 1500 VRB/03 RMK AO2 T02390233
03949KAQV AQV20160707022510707/07/16 02:25:31  5-MIN KAQV 070825Z AUTO 18003KT 8SM CLR 24/23 A2997 330 97 1500 180/03 RMK AO2 T02390233
03949KAQV AQV20160707023010707/07/16 02:30:31  5-MIN KAQV 070830Z AUTO 18004KT 7SM CLR 24/23 A2997 330 97 1500 180/04 RMK AO2 T02390233
03949KAQV AQV20160707023510707/07/16 02:35:31  5-MIN KAQV 070835Z AUTO VRB04KT 7SM CLR 24/23 A2997 330 97 1500 VRB/04 RMK AO2 T02390233
03949KAQV AQV20160707024010707/07/16 02:40:31  5-MIN KAQV 070840Z AUTO 17004KT 7SM CLR 24/23 A2997 330 97 1500 170/04 RMK AO2 T02390233
03949KAQV AQV20160707024510807/07/16 02:45:31  5-MIN KAQV 070845Z AUTO 18004KT 7SM CLR 24/24 A2997 330 100 1500 180/04 RMK AO2 T02390239
03949KAQV AQV20160707025012107/07/16 02:50:31  5-MIN KAQV 070850Z AUTO VRB03KT 7SM CLR 24/24 A2997 330 100 1500 VRB/03 RMK AO2 SLP145 T02390239 58000
03949KAQV AQV20160707025512007/07/16 02:55:31  5-MIN KAQV 070855Z AUTO 19004KT 7SM CLR 24/24 A2997 330 97 1500 180/04 RMK AO2 SLP145 T02440239 58000
03949KAQV AQV20160707030010707/07/16 03:00:31  5-MIN KAQV 070900Z AUTO 18003KT 7SM CLR 24/24 A2997 330 97 1500 180/03 RMK AO2 T02440239
03949KAQV AQV20160707030510707/07/16 03:05:31  5-MIN KAQV 070905Z AUTO VRB04KT 7SM CLR 24/24 A2997 330 97 1500 VRB/04 RMK AO2 T02440239
03949KAQV AQV20160707031010707/07/16 03:10:31  5-MIN KAQV 070910Z AUTO 00000KT 8SM CLR 24/24 A2998 320 97 1500 000/00 RMK AO2 T02440239
03949KAQV AQV20160707031510707/07/16 03:15:31  5-MIN KAQV 070915Z AUTO VRB04KT 8SM CLR 24/24 A2998 320 97 1500 VRB/04 RMK AO2 T02440239
03949KAQV AQV20160707032010707/07/16 03:20:31  5-MIN KAQV 070920Z AUTO VRB03KT 8SM CLR 24/24 A2998 320 97 1500 VRB/03 RMK AO2 T02440239
03949KAQV AQV20160707032510707/07/16 03:25:31  5-MIN KAQV 070925Z AUTO 18003KT 8SM CLR 24/24 A2998 320 97 1500 180/03 RMK AO2 T02440239
03949KAQV AQV20160707033010707/07/16 03:30:31  5-MIN KAQV 070930Z AUTO 19004KT 7SM CLR 24/24 A2998 330 97 1500 190/04 RMK AO2 T02440239
03949KAQV AQV20160707033510707/07/16 03:35:31  5-MIN KAQV 070935Z AUTO 18003KT 7SM CLR 24/24 A2997 330 97 1500 180/03 RMK AO2 T02440239
03949KAQV AQV20160707034010707/07/16 03:40:31  5-MIN KAQV 070940Z AUTO 20003KT 7SM CLR 24/24 A2998 320 97 1500 200/03 RMK AO2 T02440239
03949KAQV AQV20160707034510707/07/16 03:45:31  5-MIN KAQV 070945Z AUTO VRB03KT 7SM CLR 24/24 A2998 320 97 1500 VRB/03 RMK AO2 T02440239
03949KAQV AQV20160707035011707/07/16 03:50:31  5-MIN KAQV 070950Z AUTO VRB03KT 6SM BR CLR 24/24 A2998 330 97 1500 VRB/03 RMK AO2 SLP146 T02440239
03949KAQV AQV20160707035512007/07/16 03:55:31  5-MIN KAQV 070955Z AUTO VRB03KT 6SM BR FEW012 24/24 A2998 320 97 1500 VRB/03 RMK AO2 SLP146 T02440239
03949KAQV AQV20160707040011307/07/16 04:00:31  5-MIN KAQV 071000Z AUTO 19003KT 6SM BR SCT012 24/24 A2998 320 97 1500 180/03 RMK AO2 T02440239
03949KAQV AQV20160707040511307/07/16 04:05:31  5-MIN KAQV 071005Z AUTO 19004KT 6SM BR SCT012 24/24 A2997 330 97 1500 180/04 RMK AO2 T02440239
03949KAQV AQV20160707041011307/07/16 04:10:31  5-MIN KAQV 071010Z AUTO 18003KT 6SM BR SCT012 24/24 A2997 330 97 1500 180/03 RMK AO2 T02440239
03949KAQV AQV20160707041511307/07/16 04:15:31  5-MIN KAQV 071015Z AUTO VRB03KT 5SM BR SCT012 24/24 A2996 340 97 1500 VRB/03 RMK AO2 T02440239
03949KAQV AQV20160707042011307/07/16 04:20:31  5-MIN KAQV 071020Z AUTO 18005KT 5SM BR FEW012 24/24 A2996 340 97 1600 170/05 RMK AO2 T02440239
03949KAQV AQV20160707042512007/07/16 04:25:31  5-MIN KAQV 071025Z AUTO 18004KT 5SM BR FEW005 SCT012 24/24 A2996 340 97 1600 180/04 RMK AO2 T02440239
03949KAQV AQV20160707043012007/07/16 04:30:31  5-MIN KAQV 071030Z AUTO 18005KT 5SM BR FEW005 SCT013 24/24 A2996 340 97 1600 180/05 RMK AO2 T02440239
03949KAQV AQV20160707043512007/07/16 04:35:31  5-MIN KAQV 071035Z AUTO VRB03KT 5SM BR FEW005 SCT015 24/24 A2996 340 97 1500 VRB/03 RMK AO2 T02440239
03949KAQV AQV20160707044012007/07/16 04:40:31  5-MIN KAQV 071040Z AUTO VRB03KT 5SM BR SCT005 SCT015 24/24 A2997 330 97 1500 VRB/03 RMK AO2 T02440239
03949KAQV AQV20160707044512007/07/16 04:45:31  5-MIN KAQV 071045Z AUTO VRB04KT 5SM BR SCT005 SCT015 24/24 A2997 330 97 1500 VRB/04 RMK AO2 T02440239
03949KAQV AQV20160707045011007/07/16 04:50:31  5-MIN KAQV 071050Z AUTO 19005KT 5SM BR SCT005 BKN016 24/24 A2996 340 97 1500 180/05 RMK AO2
03949KAQV AQV20160707045512707/07/16 04:55:31  5-MIN KAQV 071055Z AUTO VRB04KT 6SM BR BKN005 BKN016 24/24 A2997 330 97 1500 VRB/04 RMK AO2 SLP143 T02440239
03949KAQV AQV20160707050012007/07/16 05:00:31  5-MIN KAQV 071100Z AUTO VRB03KT 6SM BR BKN005 BKN016 24/24 A2997 330 97 1500 VRB/03 RMK AO2 T02440239
03949KAQV AQV20160707050512007/07/16 05:05:31  5-MIN KAQV 071105Z AUTO 19004KT 6SM BR BKN005 BKN018 24/24 A2997 330 97 1500 190/04 RMK AO2 T02440239
03949KAQV AQV20160707051012007/07/16 05:10:31  5-MIN KAQV 071110Z AUTO 20003KT 6SM BR SCT005 BKN018 24/24 A2997 330 97 1500 190/03 RMK AO2 T02440239
03949KAQV AQV20160707051512707/07/16 05:15:31  5-MIN KAQV 071115Z AUTO 19004KT 5SM BR SCT005 BKN018 BKN022 24/24 A2997 330 97 1500 190/04 RMK AO2 T02440239
03949KAQV AQV20160707052012007/07/16 05:20:31  5-MIN KAQV 071120Z AUTO 19003KT 5SM BR SCT005 BKN018 24/24 A2998 320 97 1500 190/03 RMK AO2 T02440239
03949KAQV AQV20160707052512007/07/16 05:25:31  5-MIN KAQV 071125Z AUTO 19003KT 5SM BR FEW005 BKN018 24/24 A2998 320 97 1500 190/03 RMK AO2 T02440239
03949KAQV AQV20160707053012707/07/16 05:30:31  5-MIN KAQV 071130Z AUTO 19003KT 5SM BR FEW005 BKN016 BKN021 24/24 A2998 320 97 1500 190/03 RMK AO2 T02440239
03949KAQV AQV20160707053512807/07/16 05:35:31  5-MIN KAQV 071135Z AUTO VRB03KT 5SM BR FEW005 BKN014 BKN021 24/24 A2998 320 100 1500 VRB/03 RMK AO2 T02440244
03949KAQV AQV20160707054012107/07/16 05:40:31  5-MIN KAQV 071140Z AUTO 00000KT 5SM BR FEW006 BKN014 24/24 A2998 320 100 1500 000/00 RMK AO2 T02440244
03949KAQV AQV20160707054512107/07/16 05:45:31  5-MIN KAQV 071145Z AUTO 00000KT 5SM BR FEW006 BKN014 24/24 A2998 320 100 1500 000/00 RMK AO2 T02440244
03949KAQV AQV20160707055014507/07/16 05:50:31  5-MIN KAQV 071150Z AUTO VRB03KT 5SM BR SCT007 OVC014 25/24 A2999 310 97 1600 VRB/03 RMK AO2 SLP150 T02500244 10250 20233 58006
03949KAQV AQV20160707055514507/07/16 05:55:31  5-MIN KAQV 071155Z AUTO 00000KT 5SM BR BKN007 OVC014 25/24 A2999 310 97 1600 000/00 RMK AO2 SLP153 T02500244 10250 20233 58006
03949KAQV AQV20160707060012007/07/16 06:00:31  5-MIN KAQV 071200Z AUTO VRB03KT 5SM BR BKN007 OVC014 25/24 A3000 300 97 1600 VRB/03 RMK AO2 T02500244
03949KAQV AQV20160707060512007/07/16 06:05:31  5-MIN KAQV 071205Z AUTO 00000KT 5SM BR BKN006 OVC012 25/24 A3000 300 97 1600 000/00 RMK AO2 T02500244
03949KAQV AQV20160707061011307/07/16 06:10:31  5-MIN KAQV 071210Z AUTO VRB05KT 6SM BR OVC006 25/24 A3000 300 97 1600 VRB/05 RMK AO2 T02500244
03949KAQV AQV20160707061511307/07/16 06:15:31  5-MIN KAQV 071215Z AUTO VRB03KT 6SM BR OVC005 25/24 A3001 300 97 1600 VRB/03 RMK AO2 T02500244
03949KAQV AQV20160707062011307/07/16 06:20:31  5-MIN KAQV 071220Z AUTO VRB04KT 5SM BR OVC005 25/24 A3001 300 97 1600 VRB/04 RMK AO2 T02500244
03949KAQV AQV20160707062511307/07/16 06:25:31  5-MIN KAQV 071225Z AUTO VRB03KT 5SM BR OVC005 25/24 A3001 300 97 1600 VRB/03 RMK AO2 T02500244
03949KAQV AQV20160707063011307/07/16 06:30:31  5-MIN KAQV 071230Z AUTO VRB04KT 5SM BR OVC005 25/24 A3001 290 97 1600 VRB/04 RMK AO2 T02500244
03949KAQV AQV20160707063511307/07/16 06:35:31  5-MIN KAQV 071235Z AUTO VRB04KT 5SM BR OVC005 25/24 A3001 290 97 1600 VRB/04 RMK AO2 T02500244
03949KAQV AQV20160707064011407/07/16 06:40:31  5-MIN KAQV 071240Z AUTO 19005KT 4SM BR OVC004 25/25 A3001 290 100 1600 190/05 RMK AO2 T02500250
03949KAQV AQV20160707064511307/07/16 06:45:31  5-MIN KAQV 071245Z AUTO VRB03KT 5SM BR OVC004 26/25 A3001 290 97 1600 VRB/03 RMK AO2 T02560250
03949KAQV AQV20160707065012007/07/16 06:50:31  5-MIN KAQV 071250Z AUTO VRB04KT 5SM BR OVC004 26/25 A3001 290 97 1600 VRB/04 RMK AO2 SLP160 T02560250
03949KAQV AQV20160707065513207/07/16 06:55:31  5-MIN KAQV 071255Z AUTO 19005KT 5SM BR OVC004 26/25 A3001 290 97 1600 180/05 RMK AO2 CIG 004V007 SLP160 T02560250
03949KAQV AQV20160707070012507/07/16 07:00:31  5-MIN KAQV 071300Z AUTO 19004KT 5SM BR OVC006 26/25 A3001 290 97 1600 190/04 RMK AO2 CIG 004V009 T02560250
03949KAQV AQV20160707070512507/07/16 07:05:31  5-MIN KAQV 071305Z AUTO VRB06KT 6SM BR OVC006 26/25 A3002 290 97 1600 VRB/06 RMK AO2 CIG 004V009 T02560250
03949KAQV AQV20160707071012507/07/16 07:10:31  5-MIN KAQV 071310Z AUTO VRB04KT 6SM BR OVC006 26/25 A3002 290 97 1600 VRB/04 RMK AO2 CIG 004V010 T02560250
03949KAQV AQV20160707071512507/07/16 07:15:31  5-MIN KAQV 071315Z AUTO 20005KT 6SM BR OVC006 26/25 A3002 290 97 1600 190/05 RMK AO2 CIG 005V010 T02560250
03949KAQV AQV20160707072012207/07/16 07:20:31  5-MIN KAQV 071320Z AUTO VRB05KT 7SM BKN006 26/25 A3002 290 93 1700 VRB/05 RMK AO2 CIG 005V010 T02610250
03949KAQV AQV20160707072511007/07/16 07:25:31  5-MIN KAQV 071325Z AUTO VRB06KT 8SM BKN008 26/25 A3002 290 93 1700 VRB/06 RMK AO2 T02610250
03949KAQV AQV20160707073011007/07/16 07:30:31  5-MIN KAQV 071330Z AUTO 19004KT 9SM BKN008 26/25 A3002 290 93 1700 190/04 RMK AO2 T02610250
03949KAQV AQV20160707073511107/07/16 07:35:31  5-MIN KAQV 071335Z AUTO VRB05KT 10SM BKN010 26/25 A3002 280 93 1700 VRB/05 RMK AO2 T02610250
03949KAQV AQV20160707074011107/07/16 07:40:31  5-MIN KAQV 071340Z AUTO VRB06KT 10SM BKN010 26/25 A3002 280 93 1700 VRB/06 RMK AO2 T02610250
03949KAQV AQV20160707074511107/07/16 07:45:31  5-MIN KAQV 071345Z AUTO VRB05KT 10SM BKN010 26/25 A3003 280 93 1700 VRB/05 RMK AO2 T02610250
03949KAQV AQV20160707075011807/07/16 07:50:31  5-MIN KAQV 071350Z AUTO VRB04KT 10SM BKN010 26/25 A3003 280 93 1700 VRB/04 RMK AO2 SLP165 T02610250
03949KAQV AQV20160707075512507/07/16 07:55:31  5-MIN KAQV 071355Z AUTO VRB05KT 10SM BKN012 BKN019 26/25 A3003 270 93 1700 VRB/05 RMK AO2 SLP166 T02610250
03949KAQV AQV20160707080011807/07/16 08:00:31  5-MIN KAQV 071400Z AUTO VRB04KT 10SM BKN014 OVC019 26/25 A3004 270 93 1700 VRB/04 RMK AO2 T02610250
03949KAQV AQV20160707080511807/07/16 08:05:31  5-MIN KAQV 071405Z AUTO VRB06KT 10SM BKN012 OVC019 27/25 A3004 270 90 1700 VRB/06 RMK AO2 T02670250
03949KAQV AQV20160707081014707/07/16 08:10:31  5-MIN KAQV 071410Z AUTO 19008G15KT 160V240 10SM BKN012 BKN019 BKN025 26/25 A3004 270 93 1700 190/08G15 160V240 RMK AO2 T02610250
03949KAQV AQV20160707081512407/07/16 08:15:31  5-MIN KAQV 071415Z AUTO 19007G15KT 10SM BKN014 BKN022 27/24 A3004 270 87 1700 190/07G15 RMK AO2 T02670244
03949KAQV AQV20160707082011807/07/16 08:20:31  5-MIN KAQV 071420Z AUTO VRB05KT 10SM BKN016 BKN022 27/25 A3003 270 87 1800 VRB/05 RMK AO2 T02720250
03949KAQV AQV20160707082511807/07/16 08:25:31  5-MIN KAQV 071425Z AUTO 20008KT 10SM SCT016 BKN022 27/24 A3003 270 84 1800 200/08 RMK AO2 T02720244
03949KAQV AQV20160707083012507/07/16 08:30:31  5-MIN KAQV 071430Z AUTO 18009KT 10SM SCT015 BKN021 BKN026 28/24 A3003 270 79 1900 170/09 RMK AO2 T02830244
03949KAQV AQV20160707083513407/07/16 08:35:31  5-MIN KAQV 071435Z AUTO 22008KT 160V270 10SM SCT019 BKN026 28/24 A3003 270 79 1900 210/08 160V270 RMK AO2 T02830244
03949KAQV AQV20160707084012407/07/16 08:40:31  5-MIN KAQV 071440Z AUTO 21006G15KT 10SM SCT019 BKN026 28/24 A3004 270 79 1900 210/06G15 RMK AO2 T02830244
03949KAQV AQV20160707084514007/07/16 08:45:31  5-MIN KAQV 071445Z AUTO 19008G15KT 160V220 10SM SCT021 BKN028 29/24 A3004 270 76 2000 190/08G15 160V220 RMK AO2 T02890244
03949KAQV AQV20160707085014407/07/16 08:50:31  5-MIN KAQV 071450Z AUTO 18008G15KT 10SM BKN021 BKN028 BKN032 29/24 A3004 270 74 2000 170/08G15 RMK AO2 SLP168 T02890239 53006
03949KAQV AQV20160707085513707/07/16 08:55:31  5-MIN KAQV 071455Z AUTO VRB06G17KT 10SM SCT023 BKN032 31/24 A3004 270 67 2100 VRB/06G17 RMK AO2 SLP168 T03060239 53006
03949KAQV AQV20160707090014007/07/16 09:00:31  5-MIN KAQV 071500Z AUTO 20007G17KT 140V260 10SM SCT023 BKN029 30/24 A3004 270 69 2100 190/07G17 140V260 RMK AO2 T03000239
03949KAQV AQV20160707090512407/07/16 09:05:31  5-MIN KAQV 071505Z AUTO 19010G14KT 10SM SCT023 BKN032 27/24 A3004 270 84 1700 180/10G14 RMK AO2 T02670239
03949KAQV AQV20160707091014007/07/16 09:10:31  5-MIN KAQV 071510Z AUTO 20007G14KT 160V240 10SM SCT023 BKN033 29/24 A3004 270 74 2000 190/07G14 160V240 RMK AO2 T02890239
03949KAQV AQV20160707091514107/07/16 09:15:31  5-MIN KAQV 071515Z AUTO 22007KT 170V260 10SM FEW023 SCT030 SCT037 29/24 A3004 270 71 2000 220/07 170V260 RMK AO2 T02940239
03949KAQV AQV20160707092012407/07/16 09:20:31  5-MIN KAQV 071520Z AUTO VRB05KT 9SM FEW025 FEW030 SCT036 26/23 A3004 270 84 1700 VRB/05 RMK AO2 T02610233
03949KAQV AQV20160707092514007/07/16 09:25:31  5-MIN KAQV 071525Z AUTO 20007KT 160V260 8SM FEW025 FEW030 SCT039 29/23 A3004 270 71 2000 190/07 160V260 RMK AO2 T02890233
03949KAQV AQV20160707093012507/07/16 09:30:31  5-MIN KAQV 071530Z AUTO 19008G14KT 9SM FEW028 SCT038 30/23 A3004 270 65 2100 190/08G14 RMK AO2 T03000228 $
03949KAQV AQV20160707093512507/07/16 09:35:31  5-MIN KAQV 071535Z AUTO 20008G14KT 9SM FEW028 FEW038 31/23 A3004 260 62 2100 190/08G14 RMK AO2 T03060228 $
03949KAQV AQV20160707094013407/07/16 09:40:31  5-MIN KAQV 071540Z AUTO 19009G15KT 160V230 9SM FEW039 31/23 A3004 270 63 2200 190/09G15 160V230 RMK AO2 T03110233 $
03949KAQV AQV20160707094511907/07/16 09:45:31  5-MIN KAQV 071545Z AUTO 19009G15KT 10SM FEW039 31/23 A3004 270 63 2200 190/09G15 RMK AO2 T03110233 $
03949KAQV AQV20160707095011707/07/16 09:50:31  5-MIN KAQV 071550Z AUTO VRB06KT 10SM CLR 28/23 A3004 270 76 1800 VRB/06 RMK AO2 SLP168 T02780233 $
03949KAQV AQV20160707095511707/07/16 09:55:31  5-MIN KAQV 071555Z AUTO 21010KT 10SM CLR 30/23 A3004 270 65 2100 210/10 RMK AO2 SLP168 T03000228 $
03949KAQV AQV20160707100011007/07/16 10:00:31  5-MIN KAQV 071600Z AUTO VRB06KT 10SM CLR 32/23 A3004 270 58 2300 VRB/06 RMK AO2 T03170228 $
03949KAQV AQV20160707100511607/07/16 10:05:31  5-MIN KAQV 071605Z AUTO 19010G16KT 10SM CLR 32/23 A3004 270 58 2300 190/10G16 RMK AO2 T03170228 $
03949KAQV AQV20160707101011607/07/16 10:10:31  5-MIN KAQV 071610Z AUTO 20006G16KT 10SM CLR 32/23 A3004 270 58 2300 190/06G16 RMK AO2 T03170228 $
03949KAQV AQV20160707101513207/07/16 10:15:31  5-MIN KAQV 071615Z AUTO 22007G15KT 180V270 10SM CLR 32/22 A3004 270 56 2300 220/07G15 180V270 RMK AO2 T03170222 $
03949KAQV AQV20160707102013207/07/16 10:20:31  5-MIN KAQV 071620Z AUTO 20009G16KT 170V250 10SM CLR 32/23 A3004 270 57 2300 200/09G16 170V250 RMK AO2 T03220228 $
03949KAQV AQV20160707102511607/07/16 10:25:31  5-MIN KAQV 071625Z AUTO VRB06G16KT 10SM CLR 32/22 A3004 270 56 2300 VRB/06G16 RMK AO2 T03170222 $
03949KAQV AQV20160707103013207/07/16 10:30:31  5-MIN KAQV 071630Z AUTO 21010G19KT 170V250 10SM CLR 32/22 A3004 270 53 2300 210/10G19 170V250 RMK AO2 T03220217 $
03949KAQV AQV20160707103513207/07/16 10:35:31  5-MIN KAQV 071635Z AUTO 24008G19KT 170V290 10SM CLR 32/22 A3004 270 53 2300 240/08G19 170V290 RMK AO2 T03220217 $
03949KAQV AQV20160707104013207/07/16 10:40:31  5-MIN KAQV 071640Z AUTO 23007G17KT 170V310 10SM CLR 33/22 A3004 270 51 2400 230/07G17 170V310 RMK AO2 T03280217 $
03949KAQV AQV20160707104512607/07/16 10:45:31  5-MIN KAQV 071645Z AUTO 23008KT 180V270 10SM CLR 32/22 A3004 270 53 2300 230/08 180V270 RMK AO2 T03220217 $
03949KAQV AQV20160707105013307/07/16 10:50:31  5-MIN KAQV 071650Z AUTO 18007KT 150V210 10SM CLR 33/22 A3004 270 51 2400 180/07 150V210 RMK AO2 SLP167 T03280217 $
03949KAQV AQV20160707105513907/07/16 10:55:31  5-MIN KAQV 071655Z AUTO 21007G15KT 150V260 10SM CLR 33/22 A3004 270 51 2400 200/07G15 150V260 RMK AO2 SLP168 T03280217 $
03949KAQV AQV20160707110011907/07/16 11:00:31  5-MIN KAQV 071700Z AUTO 23009G15KT 10SM FEW043 33/22 A3004 260 51 2400 230/09G15 RMK AO2 T03280217 $
03949KAQV AQV20160707110511307/07/16 11:05:31  5-MIN KAQV 071705Z AUTO VRB05KT 10SM FEW043 33/22 A3004 270 50 2500 VRB/05 RMK AO2 T03330217 $
03949KAQV AQV20160707111011907/07/16 11:10:31  5-MIN KAQV 071710Z AUTO VRB06G17KT 10SM FEW043 32/22 A3004 270 53 2300 VRB/06G17 RMK AO2 T03220217 $
03949KAQV AQV20160707111511907/07/16 11:15:31  5-MIN KAQV 071715Z AUTO VRB04G17KT 10SM FEW043 33/22 A3004 260 53 2400 VRB/04G17 RMK AO2 T03280222 $
03949KAQV AQV20160707112012907/07/16 11:20:31  5-MIN KAQV 071720Z AUTO 19007KT 140V240 10SM FEW043 33/22 A3004 270 50 2500 190/07 140V240 RMK AO2 T03330217 $
03949KAQV AQV20160707112513507/07/16 11:25:31  5-MIN KAQV 071725Z AUTO 21008G15KT 170V260 10SM FEW043 33/22 A3004 270 50 2500 210/08G15 170V260 RMK AO2 T03330217 $
03949KAQV AQV20160707113013507/07/16 11:30:31  5-MIN KAQV 071730Z AUTO 19010G17KT 140V240 10SM FEW045 34/22 A3004 270 48 2500 190/10G17 140V240 RMK AO2 T03390217 $
03949KAQV AQV20160707113511907/07/16 11:35:31  5-MIN KAQV 071735Z AUTO 18009G17KT 10SM FEW047 33/22 A3004 270 50 2500 180/09G17 RMK AO2 T03330217 $
03949KAQV AQV20160707114013507/07/16 11:40:31  5-MIN KAQV 071740Z AUTO 21008G15KT 170V240 10SM FEW047 33/22 A3003 270 50 2500 210/08G15 170V240 RMK AO2 T03330217 $
03949KAQV AQV20160707114511307/07/16 11:45:31  5-MIN KAQV 071745Z AUTO 19007KT 10SM FEW047 33/22 A3003 270 50 2500 190/07 RMK AO2 T03330217 $
03949KAQV AQV20160707115016007/07/16 11:50:31  5-MIN KAQV 071750Z AUTO 19011G15KT 160V220 10SM FEW047 34/22 A3003 270 50 2500 180/11G15 160V220 RMK AO2 SLP165 T03390222 10339 20250 51015 $
03949KAQV AQV20160707115514407/07/16 11:55:31  5-MIN KAQV 071755Z AUTO VRB05G15KT 10SM FEW045 34/22 A3003 270 48 2500 VRB/05G15 RMK AO2 SLP165 T03390217 10339 20250 51015 $
03949KAQV AQV20160707120011307/07/16 12:00:31  5-MIN KAQV 071800Z AUTO VRB05KT 10SM FEW047 34/22 A3003 270 48 2600 VRB/05 RMK AO2 T03440222 $
03949KAQV AQV20160707120511307/07/16 12:05:31  5-MIN KAQV 071805Z AUTO VRB05KT 10SM FEW047 33/22 A3003 280 51 2500 VRB/05 RMK AO2 T03330222 $
03949KAQV AQV20160707121011307/07/16 12:10:31  5-MIN KAQV 071810Z AUTO 21006KT 10SM FEW046 34/22 A3003 280 48 2500 210/06 RMK AO2 T03390217 $
03949KAQV AQV20160707121511307/07/16 12:15:31  5-MIN KAQV 071815Z AUTO VRB06KT 10SM FEW046 34/22 A3002 280 48 2500 VRB/06 RMK AO2 T03390217 $
03949KAQV AQV20160707122012907/07/16 12:20:31  5-MIN KAQV 071820Z AUTO 20009KT 160V300 10SM FEW046 34/22 A3002 280 46 2600 190/09 160V300 RMK AO2 T03440217 $
03949KAQV AQV20160707122511307/07/16 12:25:31  5-MIN KAQV 071825Z AUTO 21007KT 10SM FEW046 34/22 A3002 280 48 2500 200/07 RMK AO2 T03390217 $
03949KAQV AQV20160707123012907/07/16 12:30:31  5-MIN KAQV 071830Z AUTO 21007KT 170V250 10SM FEW046 34/22 A3002 290 48 2600 200/07 170V250 RMK AO2 T03440222 $
03949KAQV AQV20160707123512907/07/16 12:35:31  5-MIN KAQV 071835Z AUTO 18008KT 120V200 10SM FEW047 34/22 A3002 290 48 2600 180/08 120V200 RMK AO2 T03440222 $
03949KAQV AQV20160707124011307/07/16 12:40:31  5-MIN KAQV 071840Z AUTO VRB05KT 10SM FEW047 34/22 A3002 290 46 2600 VRB/05 RMK AO2 T03440217 $
03949KAQV AQV20160707124511307/07/16 12:45:31  5-MIN KAQV 071845Z AUTO VRB05KT 10SM FEW047 34/22 A3001 290 48 2500 VRB/05 RMK AO2 T03390217 $
03949KAQV AQV20160707125012007/07/16 12:50:31  5-MIN KAQV 071850Z AUTO VRB04KT 10SM SCT049 34/22 A3001 290 48 2500 VRB/04 RMK AO2 SLP158 T03390217 $
03949KAQV AQV20160707125512007/07/16 12:55:31  5-MIN KAQV 071855Z AUTO 18008KT 10SM SCT049 34/22 A3001 290 46 2600 170/08 RMK AO2 SLP159 T03440217 $
03949KAQV AQV20160707130012907/07/16 13:00:31  5-MIN KAQV 071900Z AUTO 21007KT 180V250 10SM SCT049 34/22 A3001 290 46 2600 210/07 180V250 RMK AO2 T03440217 $
03949KAQV AQV20160707130512907/07/16 13:05:31  5-MIN KAQV 071905Z AUTO 21008KT 180V240 10SM FEW049 34/21 A3001 290 45 2600 210/08 180V240 RMK AO2 T03440211 $
03949KAQV AQV20160707131013507/07/16 13:10:31  5-MIN KAQV 071910Z AUTO 18009G16KT 140V230 10SM FEW049 34/22 A3001 290 46 2600 180/09G16 140V230 RMK AO2 T03440217 $
03949KAQV AQV20160707131511907/07/16 13:15:31  5-MIN KAQV 071915Z AUTO 20006G16KT 10SM SCT049 34/21 A3001 300 45 2600 190/06G16 RMK AO2 T03440211 $
03949KAQV AQV20160707132012907/07/16 13:20:31  5-MIN KAQV 071920Z AUTO 20008KT 140V240 10SM FEW049 35/22 A3001 300 45 2700 190/08 140V240 RMK AO2 T03500217 $
03949KAQV AQV20160707132512907/07/16 13:25:31  5-MIN KAQV 071925Z AUTO 17008KT 130V200 10SM FEW050 35/22 A3001 300 45 2700 160/08 130V200 RMK AO2 T03500217 $
03949KAQV AQV20160707133013507/07/16 13:30:31  5-MIN KAQV 071930Z AUTO 18007G15KT 120V220 10SM FEW050 35/21 A3001 300 43 2700 180/07G15 120V220 RMK AO2 T03500211 $
03949KAQV AQV20160707133511907/07/16 13:35:31  5-MIN KAQV 071935Z AUTO 20008G19KT 10SM FEW050 34/21 A3001 300 45 2600 190/08G19 RMK AO2 T03440211 $
03949KAQV AQV20160707134011907/07/16 13:40:31  5-MIN KAQV 071940Z AUTO 21006G19KT 10SM SCT050 35/21 A3001 300 43 2700 200/06G19 RMK AO2 T03500211 $
03949KAQV AQV20160707134512907/07/16 13:45:31  5-MIN KAQV 071945Z AUTO 19007KT 130V230 10SM FEW050 35/21 A3000 300 43 2700 180/07 130V230 RMK AO2 T03500211 $
03949KAQV AQV20160707135013607/07/16 13:50:31  5-MIN KAQV 071950Z AUTO 19008KT 160V220 10SM FEW050 36/21 A3000 300 42 2700 190/08 160V220 RMK AO2 SLP155 T03560211 $
03949KAQV AQV20160707135512007/07/16 13:55:31  5-MIN KAQV 071955Z AUTO VRB06KT 10SM FEW050 36/21 A3000 300 42 2700 VRB/06 RMK AO2 SLP154 T03560211 $
03949KAQV AQV20160707140011307/07/16 14:00:31  5-MIN KAQV 072000Z AUTO VRB06KT 10SM FEW050 36/21 A3000 300 42 2700 VRB/06 RMK AO2 T03560211 $
03949KAQV AQV20160707140511907/07/16 14:05:31  5-MIN KAQV 072005Z AUTO 17007G17KT 10SM FEW050 35/21 A3000 300 42 2700 170/07G17 RMK AO2 T03500206 $
03949KAQV AQV20160707141013207/07/16 14:10:31  5-MIN KAQV 072010Z AUTO 20008G17KT 170V250 10SM CLR 35/21 A3000 300 43 2700 190/08G17 170V250 RMK AO2 T03500211 $
03949KAQV AQV20160707141512607/07/16 14:15:31  5-MIN KAQV 072015Z AUTO 20007KT 170V230 10SM CLR 36/21 A3000 300 42 2700 200/07 170V230 RMK AO2 T03560211 $
03949KAQV AQV20160707142011307/07/16 14:20:31  5-MIN KAQV 072020Z AUTO 20006KT 10SM FEW050 35/21 A3000 310 43 2700 190/06 RMK AO2 T03500211 $
03949KAQV AQV20160707142511307/07/16 14:25:31  5-MIN KAQV 072025Z AUTO 18007KT 10SM FEW055 34/21 A3000 310 45 2600 170/07 RMK AO2 T03440211 $
03949KAQV AQV20160707143011307/07/16 14:30:31  5-MIN KAQV 072030Z AUTO VRB05KT 10SM SCT055 35/21 A2999 310 43 2700 VRB/05 RMK AO2 T03500211 $
03949KAQV AQV20160707143512907/07/16 14:35:31  5-MIN KAQV 072035Z AUTO 19009KT 160V230 10SM SCT055 36/21 A2999 310 42 2700 180/09 160V230 RMK AO2 T03560211 $
03949KAQV AQV20160707144012907/07/16 14:40:31  5-MIN KAQV 072040Z AUTO 18007KT 140V230 10SM SCT055 35/21 A2999 310 43 2700 170/07 140V230 RMK AO2 T03500211 $
03949KAQV AQV20160707144511907/07/16 14:45:31  5-MIN KAQV 072045Z AUTO VRB06G16KT 10SM SCT055 35/21 A2999 310 42 2700 VRB/06G16 RMK AO2 T03500206 $
03949KAQV AQV20160707145013207/07/16 14:50:31  5-MIN KAQV 072050Z AUTO 20006G16KT 10SM SCT055 36/21 A2999 310 42 2800 190/06G16 RMK AO2 SLP150 T03560211 58003 $
03949KAQV AQV20160707145514207/07/16 14:55:31  5-MIN KAQV 072055Z AUTO 20008KT 170V240 10SM SCT055 35/21 A2999 320 43 2700 190/08 170V240 RMK AO2 SLP149 T03500211 58003 $
03949KAQV AQV20160707150011307/07/16 15:00:31  5-MIN KAQV 072100Z AUTO 19006KT 10SM FEW055 36/21 A2999 310 42 2800 190/06 RMK AO2 T03560211 $
03949KAQV AQV20160707150511907/07/16 15:05:31  5-MIN KAQV 072105Z AUTO VRB06G16KT 10SM FEW055 35/21 A2998 320 43 2700 VRB/06G16 RMK AO2 T03500211 $
03949KAQV AQV20160707151011907/07/16 15:10:31  5-MIN KAQV 072110Z AUTO VRB06G16KT 10SM FEW055 34/21 A2999 320 45 2600 VRB/06G16 RMK AO2 T03440211 $
03949KAQV AQV20160707151511307/07/16 15:15:31  5-MIN KAQV 072115Z AUTO VRB06KT 10SM FEW055 35/22 A2998 320 45 2700 VRB/06 RMK AO2 T03500217 $
03949KAQV AQV20160707152012907/07/16 15:20:31  5-MIN KAQV 072120Z AUTO 19009KT 160V240 10SM FEW055 35/21 A2998 320 43 2700 190/09 160V240 RMK AO2 T03500211 $
03949KAQV AQV20160707152511307/07/16 15:25:31  5-MIN KAQV 072125Z AUTO 18006KT 10SM FEW050 35/21 A2998 320 43 2700 180/06 RMK AO2 T03500211 $
03949KAQV AQV20160707153011307/07/16 15:30:31  5-MIN KAQV 072130Z AUTO VRB06KT 10SM SCT055 36/21 A2998 320 42 2800 VRB/06 RMK AO2 T03560211 $
03949KAQV AQV20160707153511307/07/16 15:35:31  5-MIN KAQV 072135Z AUTO 18005KT 10SM SCT055 36/21 A2998 320 42 2800 170/05 RMK AO2 T03560211 $
03949KAQV AQV20160707154013507/07/16 15:40:31  5-MIN KAQV 072140Z AUTO 19009G14KT 130V230 10SM BKN055 36/22 A2998 320 44 2800 180/09G14 130V230 RMK AO2 T03560217 $
03949KAQV AQV20160707154513507/07/16 15:45:31  5-MIN KAQV 072145Z AUTO 19007G14KT 170V250 10SM SCT055 35/21 A2998 320 43 2700 190/07G14 170V250 RMK AO2 T03500211 $
03949KAQV AQV20160707155012607/07/16 15:50:31  5-MIN KAQV 072150Z AUTO 17006G14KT 10SM SCT055 35/21 A2998 320 42 2700 160/06G14 RMK AO2 SLP146 T03500206 $
03949KAQV AQV20160707155512607/07/16 15:55:31  5-MIN KAQV 072155Z AUTO VRB05G14KT 10SM SCT055 35/21 A2998 320 43 2700 VRB/05G14 RMK AO2 SLP146 T03500211 $
03949KAQV AQV20160707160011307/07/16 16:00:31  5-MIN KAQV 072200Z AUTO VRB05KT 10SM FEW055 36/21 A2997 330 42 2800 VRB/05 RMK AO2 T03560211 $
03949KAQV AQV20160707160512907/07/16 16:05:31  5-MIN KAQV 072205Z AUTO 19007KT 160V240 10SM FEW055 34/21 A2997 330 45 2600 190/07 160V240 RMK AO2 T03440211 $
03949KAQV AQV20160707161011007/07/16 16:10:31  5-MIN KAQV 072210Z AUTO 18008KT 10SM CLR 35/22 A2997 330 45 2700 170/08 RMK AO2 T03500217 $
03949KAQV AQV20160707161511307/07/16 16:15:31  5-MIN KAQV 072215Z AUTO 19006KT 10SM FEW055 35/22 A2997 330 45 2700 180/06 RMK AO2 T03500217 $
03949KAQV AQV20160707162011907/07/16 16:20:31  5-MIN KAQV 072220Z AUTO 17010G16KT 10SM SCT055 35/22 A2997 330 45 2700 170/10G16 RMK AO2 T03500217 $
03949KAQV AQV20160707162513507/07/16 16:25:31  5-MIN KAQV 072225Z AUTO 17009G16KT 150V210 10SM SCT055 34/22 A2997 330 46 2700 170/09G16 150V210 RMK AO2 T03440217 $
03949KAQV AQV20160707163013507/07/16 16:30:31  5-MIN KAQV 072230Z AUTO 18007G16KT 150V230 10SM SCT055 34/22 A2996 340 46 2700 180/07G16 150V230 RMK AO2 T03440217 $
03949KAQV AQV20160707163512907/07/16 16:35:31  5-MIN KAQV 072235Z AUTO 20007KT 170V230 10SM FEW055 34/22 A2996 340 46 2700 190/07 170V230 RMK AO2 T03440217 $
03949KAQV AQV20160707164012907/07/16 16:40:31  5-MIN KAQV 072240Z AUTO 20008KT 160V240 10SM FEW055 34/22 A2996 340 46 2700 200/08 160V240 RMK AO2 T03440217 $
03949KAQV AQV20160707164511307/07/16 16:45:31  5-MIN KAQV 072245Z AUTO VRB06KT 10SM FEW055 34/21 A2996 340 46 2600 VRB/06 RMK AO2 T03390211 $
03949KAQV AQV20160707165012007/07/16 16:50:31  5-MIN KAQV 072250Z AUTO 20005KT 10SM FEW050 34/22 A2996 340 46 2700 190/05 RMK AO2 SLP140 T03440217 $
03949KAQV AQV20160707165513307/07/16 16:55:31  5-MIN KAQV 072255Z AUTO 19007KT 160V240 10SM CLR 34/22 A2996 340 48 2600 190/07 160V240 RMK AO2 SLP140 T03390217 $
03949KAQV AQV20160707170011007/07/16 17:00:31  5-MIN KAQV 072300Z AUTO VRB04KT 10SM CLR 34/22 A2996 340 46 2700 VRB/04 RMK AO2 T03440217 $
03949KAQV AQV20160707170511307/07/16 17:05:31  5-MIN KAQV 072305Z AUTO VRB05KT 10SM FEW050 34/22 A2996 340 46 2700 VRB/05 RMK AO2 T03440217 $
03949KAQV AQV20160707171011307/07/16 17:10:31  5-MIN KAQV 072310Z AUTO 19009KT 10SM SCT048 34/22 A2995 340 48 2600 180/09 RMK AO2 T03390217 $
03949KAQV AQV20160707171512007/07/16 17:15:31  5-MIN KAQV 072315Z AUTO VRB06KT 10SM SCT048 BKN055 34/22 A2995 350 50 2600 VRB/06 RMK AO2 T03390222 $
03949KAQV AQV20160707172014207/07/16 17:20:31  5-MIN KAQV 072320Z AUTO 20010G15KT 160V230 10SM SCT048 BKN055 34/22 A2996 340 50 2600 190/10G15 160V230 RMK AO2 T03390222 $
03949KAQV AQV20160707172512607/07/16 17:25:31  5-MIN KAQV 072325Z AUTO 18006G15KT 10SM SCT047 SCT055 33/23 A2996 340 53 2500 180/06G15 RMK AO2 T03330228 $
03949KAQV AQV20160707173012007/07/16 17:30:31  5-MIN KAQV 072330Z AUTO 19007KT 10SM SCT047 SCT055 33/23 A2996 340 53 2500 190/07 RMK AO2 T03330228 $
03949KAQV AQV20160707173512007/07/16 17:35:31  5-MIN KAQV 072335Z AUTO 20005KT 10SM SCT047 BKN055 33/23 A2996 340 53 2500 190/05 RMK AO2 T03330228 $
03949KAQV AQV20160707174012007/07/16 17:40:31  5-MIN KAQV 072340Z AUTO 19004KT 10SM SCT046 BKN055 33/23 A2996 340 55 2500 190/04 RMK AO2 T03280228 $
03949KAQV AQV20160707174511307/07/16 17:45:31  5-MIN KAQV 072345Z AUTO VRB06KT 10SM BKN049 33/23 A2996 340 53 2500 VRB/06 RMK AO2 T03330228 $
03949KAQV AQV20160707175013507/07/16 17:50:31  5-MIN KAQV 072350Z AUTO 10SM SCT047 BKN055 33/23 A2996 340 55 2500 M /M RMK AO2 SLP140 T03280228 10356 20328 56015 $
03949KAQV AQV20160707175515107/07/16 17:55:31  5-MIN KAQV 072355Z AUTO 17007G15KT 10SM BKN047 BKN055 33/22 A2996 340 53 2500 170/07G15 RMK AO2 SLP140 T03280222 10356 20328 56015 $
03949KAQV AQV20160707180012607/07/16 18:00:31  5-MIN KAQV 080000Z AUTO VRB05G15KT 10SM BKN046 BKN055 32/22 A2996 340 55 2400 VRB/05G15 RMK AO2 T03220222 $
03949KAQV AQV20160707180511307/07/16 18:05:31  5-MIN KAQV 080005Z AUTO 19007KT 10SM SCT046 33/22 A2996 340 53 2500 190/07 RMK AO2 T03280222 $
03949KAQV AQV20160707181012907/07/16 18:10:31  5-MIN KAQV 080010Z AUTO 20007KT 170V250 10SM SCT046 32/22 A2996 340 55 2400 200/07 170V250 RMK AO2 T03220222 $
03949KAQV AQV20160707181511307/07/16 18:15:31  5-MIN KAQV 080015Z AUTO VRB06KT 10SM FEW046 32/22 A2996 340 55 2400 VRB/06 RMK AO2 T03220222 $
03949KAQV AQV20160707182011307/07/16 18:20:31  5-MIN KAQV 080020Z AUTO 18005KT 10SM FEW046 32/22 A2996 340 55 2400 180/05 RMK AO2 T03220222 $
03949KAQV AQV20160707182511307/07/16 18:25:31  5-MIN KAQV 080025Z AUTO 19005KT 10SM FEW044 32/22 A2996 340 56 2400 190/05 RMK AO2 T03170222 $
03949KAQV AQV20160707183011007/07/16 18:30:31  5-MIN KAQV 080030Z AUTO 18005KT 10SM CLR 32/22 A2996 340 56 2400 180/05 RMK AO2 T03170222 $
03949KAQV AQV20160707183511007/07/16 18:35:31  5-MIN KAQV 080035Z AUTO 18005KT 10SM CLR 32/23 A2996 340 58 2400 170/05 RMK AO2 T03170228 $
03949KAQV AQV20160707184011007/07/16 18:40:31  5-MIN KAQV 080040Z AUTO 17004KT 10SM CLR 31/22 A2996 340 58 2300 170/04 RMK AO2 T03110222 $
03949KAQV AQV20160707184511007/07/16 18:45:31  5-MIN KAQV 080045Z AUTO VRB04KT 10SM CLR 31/23 A2997 330 60 2300 VRB/04 RMK AO2 T03110228 $
03949KAQV AQV20160707185011707/07/16 18:50:31  5-MIN KAQV 080050Z AUTO 18004KT 10SM CLR 31/23 A2996 340 60 2300 180/04 RMK AO2 SLP143 T03110228 $
03949KAQV AQV20160707185511707/07/16 18:55:31  5-MIN KAQV 080055Z AUTO 18004KT 10SM CLR 30/23 A2997 330 65 2200 170/04 RMK AO2 SLP143 T03000228 $
03949KAQV AQV20160707190011007/07/16 19:00:31  5-MIN KAQV 080100Z AUTO VRB05KT 10SM CLR 31/23 A2997 330 62 2200 VRB/05 RMK AO2 T03060228 $
03949KAQV AQV20160707190511007/07/16 19:05:31  5-MIN KAQV 080105Z AUTO 18004KT 10SM CLR 30/23 A2997 330 67 2200 170/04 RMK AO2 T03000233 $
03949KAQV AQV20160707191011007/07/16 19:10:31  5-MIN KAQV 080110Z AUTO 18004KT 10SM CLR 28/23 A2997 330 74 2000 180/04 RMK AO2 T02830233 $
03949KAQV AQV20160707191511007/07/16 19:15:31  5-MIN KAQV 080115Z AUTO 18004KT 10SM CLR 29/23 A2997 330 69 2100 180/04 RMK AO2 T02940233 $
03949KAQV AQV20160707192011007/07/16 19:20:31  5-MIN KAQV 080120Z AUTO 18006KT 10SM CLR 30/23 A2997 330 67 2200 180/06 RMK AO2 T03000233 $
03949KAQV AQV20160707192511007/07/16 19:25:31  5-MIN KAQV 080125Z AUTO 18004KT 10SM CLR 29/23 A2997 330 69 2100 180/04 RMK AO2 T02940233 $
03949KAQV AQV20160707193011007/07/16 19:30:31  5-MIN KAQV 080130Z AUTO VRB03KT 10SM CLR 29/23 A2997 330 69 2100 VRB/03 RMK AO2 T02940233 $
03949KAQV AQV20160707193511007/07/16 19:35:31  5-MIN KAQV 080135Z AUTO 18004KT 10SM CLR 29/23 A2997 330 69 2100 180/04 RMK AO2 T02940233 $
03949KAQV AQV20160707194011007/07/16 19:40:31  5-MIN KAQV 080140Z AUTO 18003KT 10SM CLR 29/23 A2997 330 69 2100 180/03 RMK AO2 T02940233 $
03949KAQV AQV20160707194511007/07/16 19:45:31  5-MIN KAQV 080145Z AUTO 18003KT 10SM CLR 28/23 A2997 330 74 2000 180/03 RMK AO2 T02830233 $
03949KAQV AQV20160707195011707/07/16 19:50:31  5-MIN KAQV 080150Z AUTO 00000KT 10SM CLR 25/23 A2997 330 90 1600 000/00 RMK AO2 SLP146 T02500233 $
03949KAQV AQV20160707195511707/07/16 19:55:31  5-MIN KAQV 080155Z AUTO 18003KT 10SM CLR 25/23 A2997 330 90 1600 180/03 RMK AO2 SLP146 T02500233 $
03949KAQV AQV20160707200011007/07/16 20:00:31  5-MIN KAQV 080200Z AUTO 19003KT 10SM CLR 25/23 A2997 330 90 1600 180/03 RMK AO2 T02500233 $
03949KAQV AQV20160707200511007/07/16 20:05:31  5-MIN KAQV 080205Z AUTO 00000KT 10SM CLR 25/23 A2998 320 90 1600 000/00 RMK AO2 T02500233 $
03949KAQV AQV20160707201011007/07/16 20:10:31  5-MIN KAQV 080210Z AUTO 00000KT 10SM CLR 25/23 A2998 320 90 1600 000/00 RMK AO2 T02500233 $
03949KAQV AQV20160707214511007/07/16 21:45:31  5-MIN KAQV 080345Z AUTO 18004KT 10SM CLR 24/23 A2999 310 93 1500 180/04 RMK AO2 T02440233 $
03949KAQV AQV20160707215011707/07/16 21:50:31  5-MIN KAQV 080350Z AUTO VRB03KT 10SM CLR 24/23 A2999 310 93 1500 VRB/03 RMK AO2 SLP153 T02440233 $
03949KAQV AQV20160707215511707/07/16 21:55:31  5-MIN KAQV 080355Z AUTO 19004KT 10SM CLR 24/23 A2999 310 93 1500 180/04 RMK AO2 SLP152 T02440233 $
03949KAQV AQV20160707220011007/07/16 22:00:31  5-MIN KAQV 080400Z AUTO 18003KT 10SM CLR 26/23 A2999 310 87 1600 170/03 RMK AO2 T02560233 $
03949KAQV AQV20160707220511007/07/16 22:05:31  5-MIN KAQV 080405Z AUTO 18004KT 10SM CLR 26/23 A2999 310 87 1600 170/04 RMK AO2 T02560233 $
03949KAQV AQV20160707221011007/07/16 22:10:31  5-MIN KAQV 080410Z AUTO 18004KT 10SM CLR 24/23 A2999 310 93 1500 180/04 RMK AO2 T02440233 $
03949KAQV AQV20160707221511007/07/16 22:15:31  5-MIN KAQV 080415Z AUTO 19004KT 10SM CLR 24/23 A2999 310 93 1500 180/04 RMK AO2 T02440233 $
03949KAQV AQV20160707222011007/07/16 22:20:31  5-MIN KAQV 080420Z AUTO 19003KT 10SM CLR 24/23 A2999 310 93 1500 180/03 RMK AO2 T02440233 $
03949KAQV AQV20160707222511007/07/16 22:25:31  5-MIN KAQV 080425Z AUTO 19004KT 10SM CLR 24/23 A2999 310 93 1500 180/04 RMK AO2 T02440233 $
03949KAQV AQV20160707223011007/07/16 22:30:31  5-MIN KAQV 080430Z AUTO VRB03KT 10SM CLR 24/24 A2999 310 97 1500 VRB/03 RMK AO2 T02440239 $
03949KAQV AQV20160707223511007/07/16 22:35:31  5-MIN KAQV 080435Z AUTO 18003KT 10SM CLR 24/24 A2999 310 97 1500 180/03 RMK AO2 T02440239 $
03949KAQV AQV20160707224011007/07/16 22:40:31  5-MIN KAQV 080440Z AUTO 18004KT 10SM CLR 24/24 A2999 310 97 1500 170/04 RMK AO2 T02440239 $
03949KAQV AQV20160707224511007/07/16 22:45:31  5-MIN KAQV 080445Z AUTO 00000KT 10SM CLR 24/24 A2999 310 97 1500 000/00 RMK AO2 T02440239 $
03949KAQV AQV20160707225011707/07/16 22:50:31  5-MIN KAQV 080450Z AUTO 00000KT 10SM CLR 24/24 A2999 310 97 1500 000/00 RMK AO2 SLP152 T02440239 $
03949KAQV AQV20160707225511707/07/16 22:55:31  5-MIN KAQV 080455Z AUTO 00000KT 10SM CLR 24/24 A2999 310 97 1500 000/00 RMK AO2 SLP152 T02440239 $
03949KAQV AQV20160707230011007/07/16 23:00:31  5-MIN KAQV 080500Z AUTO 17003KT 10SM CLR 24/24 A2999 310 97 1500 170/03 RMK AO2 T02440239 $
03949KAQV AQV20160707230511007/07/16 23:05:31  5-MIN KAQV 080505Z AUTO 17003KT 10SM CLR 24/24 A2999 310 97 1500 170/03 RMK AO2 T02440239 $
03949KAQV AQV20160707231011007/07/16 23:10:31  5-MIN KAQV 080510Z AUTO 00000KT 10SM CLR 24/24 A2999 310 97 1500 000/00 RMK AO2 T02440239 $
03949KAQV AQV20160707231511007/07/16 23:15:31  5-MIN KAQV 080515Z AUTO 18003KT 10SM CLR 24/24 A2999 310 97 1500 170/03 RMK AO2 T02440239 $
03949KAQV AQV20160707232011007/07/16 23:20:31  5-MIN KAQV 080520Z AUTO VRB03KT 10SM CLR 24/24 A2999 310 97 1500 VRB/03 RMK AO2 T02440239 $
03949KAQV AQV20160707232511007/07/16 23:25:31  5-MIN KAQV 080525Z AUTO 18004KT 10SM CLR 24/24 A2999 310 97 1500 170/04 RMK AO2 T02440239 $
03949KAQV AQV20160707233011007/07/16 23:30:31  5-MIN KAQV 080530Z AUTO VRB03KT 10SM CLR 24/24 A2998 320 97 1500 VRB/03 RMK AO2 T02440239 $
03949KAQV AQV20160707233511007/07/16 23:35:31  5-MIN KAQV 080535Z AUTO 00000KT 10SM CLR 24/24 A2999 310 97 1500 000/00 RMK AO2 T02440239 $
03949KAQV AQV20160707234011007/07/16 23:40:31  5-MIN KAQV 080540Z AUTO 00000KT 10SM CLR 24/24 A2999 310 97 1500 000/00 RMK AO2 T02440239 $
03949KAQV AQV20160707234511007/07/16 23:45:31  5-MIN KAQV 080545Z AUTO 19003KT 10SM CLR 24/24 A2998 320 97 1500 180/03 RMK AO2 T02440239 $
03949KAQV AQV20160707235014107/07/16 23:50:31  5-MIN KAQV 080550Z AUTO 18003KT 10SM CLR 24/24 A2998 320R FEW019 SCT026 24/23 A3002 280 93 1500 000/00 RMK AO2 T02440233 $
03949KAQV AQV20160708041511907/08/16 04:15:31  5-MIN KAQV 081015Z AUTO 00000KT 7SM SCT017 BKN026 24/24 A3001 290 97 1500 000/00 RMK AO2 T02440239 $
03949KAQV AQV20160708042012207/08/16 04:20:31  5-MIN KAQV 081020Z AUTO 00000KT 6SM BR FEW017 BKN026 24/24 A3002 290 97 1500 000/00 RMK AO2 T02440239 $
03949KAQV AQV20160708042512207/08/16 04:25:31  5-MIN KAQV 081025Z AUTO 00000KT 6SM BR FEW017 SCT026 24/24 A3002 280 97 1500 000/00 RMK AO2 T02440239 $
03949KAQV AQV20160708043012207/08/16 04:30:31  5-MIN KAQV 081030Z AUTO 00000KT 6SM BR FEW019 SCT026 24/23 A3002 280 93 1500 000/00 RMK AO2 T02440233 $
03949KAQV AQV20160708043512207/08/16 04:35:31  5-MIN KAQV 081035Z AUTO 00000KT 6SM BR FEW019 SCT028 24/23 A3002 290 93 1500 000/00 RMK AO2 T02440233 $
03949KAQV AQV20160708044011507/08/16 04:40:31  5-MIN KAQV 081040Z AUTO 00000KT 5SM BR SCT030 24/23 A3002 280 97 1400 000/00 RMK AO2 T02390233 $
03949KAQV AQV20160708044511507/08/16 04:45:31  5-MIN KAQV 081045Z AUTO 00000KT 5SM BR BKN030 24/23 A3002 280 97 1400 000/00 RMK AO2 T02390233 $
03949KAQV AQV20160708045012207/08/16 04:50:31  5-MIN KAQV 081050Z AUTO 00000KT 4SM BR BKN030 24/23 A3002 280 97 1400 000/00 RMK AO2 SLP162 T02390233 $
03949KAQV AQV20160708045512207/08/16 04:55:31  5-MIN KAQV 081055Z AUTO 00000KT 4SM BR BKN030 24/23 A3003 280 97 1400 000/00 RMK AO2 SLP163 T02390233 $
03949KAQV AQV20160708050011507/08/16 05:00:31  5-MIN KAQV 081100Z AUTO 00000KT 4SM BR OVC030 24/23 A3003 280 97 1400 000/00 RMK AO2 T02390233 $
03949KAQV AQV20160708050018607/08/16 05:00:31  5-MIN KAQV 081100Z AUTO 00000KT 4SM BR OVC030 24/23 A3003 280 97 1400 000/00 RMK AO2 T02390233 00000KT 3SM BR SCT024 24/23 A3004 270 97 1400 000/00 RMK AO2 T02390233 $
03949KAQV AQV20160708050511507/08/16 05:05:31  5-MIN KAQV 081105Z AUTO 00000KT 5SM BR OVC028 24/23 A3003 280 97 1400 000/00 RMK AO2 T02390233 $
03949KAQV AQV20160708051011507/08/16 05:10:31  5-MIN KAQV 081110Z AUTO 00000KT 4SM BR OVC028 24/23 A3003 280 97 1400 000/00 RMK AO2 T02390233 $
03949KAQV AQV20160708051511507/08/16 05:15:31  5-MIN KAQV 081115Z AUTO 00000KT 3SM BR OVC026 24/23 A3003 280 97 1400 000/00 RMK AO2 T02390233 $
03949KAQV AQV20160708052011907/08/16 05:20:31  5-MIN KAQV 081120Z AUTO 00000KT 2 1/2SM BR BKN026 24/23 A3003 270 97 1400 000/00 RMK AO2 T02390233 $
03949KAQV AQV20160708052511907/08/16 05:25:31  5-MIN KAQV 081125Z AUTO 00000KT 2 1/2SM BR BKN024 24/23 A3003 270 97 1400 000/00 RMK AO2 T02390233 $
03949KAQV AQV20160708053011507/08/16 05:30:31  5-MIN KAQV 081130Z AUTO 00000KT 3SM BR SCT024 24/23 A3003 270 97 1400 000/00 RMK AO2 T02390233 $
03949KAQV AQV20160708053511507/08/16 05:35:31  5-MIN KAQV 081135Z AUTO 00000KT 3SM BR SCT024 24/23 A3004 270 97 1400 000/00 RMK AO2 T02390233 $
03949KAQV AQV20160708054011507/08/16 05:40:31  5-MIN KAQV 081140Z AUTO 00000KT 3SM BR SCT022 24/23 A3004 270 97 1400 000/00 RMK AO2 T02390233 $
03949KAQV AQV20160708054511507/08/16 05:45:31  5-MIN KAQV 081145Z AUTO 00000KT 3SM BR SCT020 24/23 A3004 270 97 1400 000/00 RMK AO2 T02390233 $
03949KAQV AQV20160708055010507/08/16 05:50:31  5-MIN KAQV 081150Z AUTO 00000KT 3SM BR BKN020 24/23 A3004 270 97 1400 000/00 RMK AO2 $
03949KAQV AQV20160708055514407/08/16 05:55:31  5-MIN KAQV 081155Z AUTO 00000KT 2 1/2SM BR BKN018 24/23 A3004 270 97 1400 000/00 RMK AO2 SLP168 T02390233 10250 20239 51017 $
03949KAQV AQV20160708060011507/08/16 06:00:31  5-MIN KAQV 081200Z AUTO 00000KT 2SM BR BKN018 24/23 A3004 270 97 1400 000/00 RMK AO2 T02390233 $
03949KAQV AQV20160708060511907/08/16 06:05:31  5-MIN KAQV 081205Z AUTO 00000KT 1 3/4SM BR BKN018 24/23 A3004 270 97 1400 000/00 RMK AO2 T02390233 $
03949KAQV AQV20160708061011907/08/16 06:10:31  5-MIN KAQV 081210Z AUTO 00000KT 2 1/2SM BR BKN018 24/24 A3004 260 97 1500 000/00 RMK AO2 T02440239 $
03949KAQV AQV20160708061512207/08/16 06:15:31  5-MIN KAQV 081215Z AUTO 00000KT 4SM BR FEW005 OVC017 24/24 A3005 260 97 1500 000/00 RMK AO2 T02440239 $
03949KAQV AQV20160708062012207/08/16 06:20:31  5-MIN KAQV 081220Z AUTO 00000KT 5SM BR SCT005 OVC017 25/24 A3005 260 97 1500 000/00 RMK AO2 T02500244 $
03949KAQV AQV20160708062512207/08/16 06:25:31  5-MIN KAQV 081225Z AUTO 00000KT 5SM BR SCT004 OVC017 25/24 A3005 250 97 1500 000/00 RMK AO2 T02500244 $
03949KAQV AQV20160708063012207/08/16 06:30:31  5-MIN KAQV 081230Z AUTO 00000KT 5SM BR BKN004 OVC016 25/24 A3006 250 97 1500 000/00 RMK AO2 T02500244 $
03949KAQV AQV20160708063512207/08/16 06:35:31  5-MIN KAQV 081235Z AUTO 19003KT 6SM BR SCT004 BKN016 25/24 A3006 240 97 1500 180/03 RMK AO2 T02500244 $
03949KAQV AQV20160708064012207/08/16 06:40:31  5-MIN KAQV 081240Z AUTO 17003KT 6SM BR SCT004 BKN016 25/24 A3007 240 97 1500 170/03 RMK AO2 T02500244 $
03949KAQV AQV20160708064512207/08/16 06:45:31  5-MIN KAQV 081245Z AUTO 00000KT 6SM BR SCT004 SCT016 25/24 A3007 240 97 1500 000/00 RMK AO2 T02500244 $
03949KAQV AQV20160708065011907/08/16 06:50:31  5-MIN KAQV 081250Z AUTO VRB03KT 8SM FEW004 26/24 A3007 230 93 1500 VRB/03 RMK AO2 SLP180 T02560244 $
03949KAQV AQV20160708065511907/08/16 06:55:31  5-MIN KAQV 081255Z AUTO 17003KT 9SM FEW004 26/24 A3007 230 93 1500 170/03 RMK AO2 SLP180 T02560244 $
03949KAQV AQV20160708070011207/08/16 07:00:31  5-MIN KAQV 081300Z AUTO 18003KT 9SM FEW007 26/24 A3007 230 93 1500 180/03 RMK AO2 T02560244 $
03949KAQV AQV20160708070511307/08/16 07:05:31  5-MIN KAQV 081305Z AUTO 19003KT 10SM FEW007 26/24 A3007 230 93 1500 180/03 RMK AO2 T02560244 $
03949KAQV AQV20160708071011307/08/16 07:10:31  5-MIN KAQV 081310Z AUTO VRB03KT 10SM FEW007 26/24 A3008 230 93 1500 VRB/03 RMK AO2 T02560244 $
03949KAQV AQV20160708071511307/08/16 07:15:31  5-MIN KAQV 081315Z AUTO 23003KT 10SM FEW007 26/24 A3008 230 93 1500 230/03 RMK AO2 T02560244 $
03949KAQV AQV20160708072011307/08/16 07:20:31  5-MIN KAQV 081320Z AUTO VRB03KT 10SM FEW009 26/24 A3008 230 93 1500 VRB/03 RMK AO2 T02560244 $
03949KAQV AQV20160708072511307/08/16 07:25:31  5-MIN KAQV 081325Z AUTO VRB04KT 10SM SCT009 26/24 A3008 230 93 1500 VRB/04 RMK AO2 T02560244 $
03949KAQV AQV20160708073011307/08/16 07:30:31  5-MIN KAQV 081330Z AUTO VRB04KT 10SM FEW011 26/24 A3008 230 90 1600 VRB/04 RMK AO2 T02610244 $
03949KAQV AQV20160708073512007/08/16 07:35:31  5-MIN KAQV 081335Z AUTO 19006KT 10SM FEW011 SCT014 26/24 A3009 220 93 1500 190/06 RMK AO2 T02560244 $
03949KAQV AQV20160708074012007/08/16 07:40:31  5-MIN KAQV 081340Z AUTO VRB04KT 10SM FEW010 SCT014 26/24 A3009 220 93 1500 VRB/04 RMK AO2 T02560244 $
03949KAQV AQV20160708074511307/08/16 07:45:31  5-MIN KAQV 081345Z AUTO VRB06KT 10SM SCT012 26/24 A3009 220 90 1600 VRB/06 RMK AO2 T02610244 $
03949KAQV AQV20160708075012007/08/16 07:50:31  5-MIN KAQV 081350Z AUTO VRB03KT 10SM SCT012 26/24 A3009 220 87 1600 VRB/03 RMK AO2 SLP186 T02610239 $
03949KAQV AQV20160708075511907/08/16 07:55:31  5-MIN KAQV 081355Z AUTO VRB04KT 9SM FEW014 26/24 A3009 220 90 1600 VRB/04 RMK AO2 SLP187 T02610244 $
03949KAQV AQV20160708080011907/08/16 08:00:31  5-MIN KAQV 081400Z AUTO 23005KT 9SM SCT016 SCT023 26/24 A3009 220 87 1600 220/05 RMK AO2 T02610239 $
03949KAQV AQV20160708080512007/08/16 08:05:31  5-MIN KAQV 081405Z AUTO VRB03KT 10SM SCT016 SCT023 27/24 A3009 220 84 1700 VRB/03 RMK AO2 T02670239 $
03949KAQV AQV20160708081012007/08/16 08:10:31  5-MIN KAQV 081410Z AUTO VRB05KT 10SM FEW017 SCT023 27/24 A3009 220 84 1700 VRB/05 RMK AO2 T02670239 $
03949KAQV AQV20160708081512007/08/16 08:15:31  5-MIN KAQV 081415Z AUTO VRB06KT 10SM FEW017 FEW022 27/23 A3009 220 82 1700 VRB/06 RMK AO2 T02670233 $
03949KAQV AQV20160708082011307/08/16 08:20:31  5-MIN KAQV 081420Z AUTO VRB05KT 10SM FEW019 27/23 A3009 220 79 1700 VRB/05 RMK AO2 T02720233 $
03949KAQV AQV20160708082512007/08/16 08:25:31  5-MIN KAQV 081425Z AUTO 21004KT 10SM FEW019 FEW023 28/23 A3009 220 74 1800 210/04 RMK AO2 T02830233 $
03949KAQV AQV20160708083011307/08/16 08:30:31  5-MIN KAQV 081430Z AUTO VRB06KT 10SM FEW021 30/24 A3009 220 69 2000 VRB/06 RMK AO2 T03000239 $
03949KAQV AQV20160708083512007/08/16 08:35:31  5-MIN KAQV 081435Z AUTO VRB04KT 10SM FEW021 FEW030 28/23 A3008 230 74 1900 VRB/04 RMK AO2 T02830233 $
03949KAQV AQV20160708084012907/08/16 08:40:31  5-MIN KAQV 081440Z AUTO 20007KT 170V250 10SM FEW030 29/23 A3008 230 71 1900 190/07 170V250 RMK AO2 T02890233 $
03949KAQV AQV20160708084511007/08/16 08:45:31  5-MIN KAQV 081445Z AUTO VRB06KT 10SM CLR 30/23 A3009 220 67 2000 VRB/06 RMK AO2 T03000233 $
03949KAQV AQV20160708085012307/08/16 08:50:31  5-MIN KAQV 081450Z AUTO VRB04KT 10SM CLR 30/23 A3008 230 65 2000 VRB/04 RMK AO2 SLP184 T03000228 50011 $
03949KAQV AQV20160708085512607/08/16 08:55:31  5-MIN KAQV 081455Z AUTO VRB05KT 10SM FEW026 29/23 A3008 230 69 2000 VRB/05 RMK AO2 SLP183 T02940233 50011 $
03949KAQV AQV20160708090013507/08/16 09:00:31  5-MIN KAQV 081500Z AUTO 20007KT 170V240 9SM FEW028 FEW034 29/23 A3008 220 67 2000 190/07 170V240 RMK AO2 T02940228 $
03949KAQV AQV20160708090511207/08/16 09:05:31  5-MIN KAQV 081505Z AUTO VRB04KT 9SM FEW030 31/23 A3008 230 62 2100 VRB/04 RMK AO2 T03060228 $
03949KAQV AQV20160708091012007/08/16 09:10:31  5-MIN KAQV 081510Z AUTO 20006KT 10SM SCT028 SCT034 31/23 A3008 230 65 2100 190/06 RMK AO2 T03060233 $
03949KAQV AQV20160708091512007/08/16 09:15:31  5-MIN KAQV 081515Z AUTO VRB05KT 10SM SCT028 SCT034 31/23 A3008 230 63 2200 VRB/05 RMK AO2 T03110233 $
03949KAQV AQV20160708092012007/08/16 09:20:31  5-MIN KAQV 081520Z AUTO 21006KT 10SM FEW028 SCT033 30/23 A3008 230 65 2000 210/06 RMK AO2 T03000228 $
03949KAQV AQV20160708092512007/08/16 09:25:31  5-MIN KAQV 081525Z AUTO VRB05KT 10SM FEW028 SCT033 30/23 A3008 230 67 2000 VRB/05 RMK AO2 T03000233 $
03949KAQV AQV20160708093012007/08/16 09:30:31  5-MIN KAQV 081530Z AUTO VRB06KT 10SM FEW027 SCT036 31/23 A3008 230 62 2100 VRB/06 RMK AO2 T03060228 $
03949KAQV AQV20160708093512007/08/16 09:35:31  5-MIN KAQV 081535Z AUTO VRB06KT 10SM FEW027 SCT035 31/23 A3008 230 62 2100 VRB/06 RMK AO2 T03060228 $
03949KAQV AQV20160708094013607/08/16 09:40:31  5-MIN KAQV 081540Z AUTO 23008KT 200V260 10SM FEW029 FEW035 31/23 A3008 220 62 2100 230/08 200V260 RMK AO2 T03060228 $
03949KAQV AQV20160708094512007/08/16 09:45:31  5-MIN KAQV 081545Z AUTO 22005KT 10SM FEW027 FEW036 31/23 A3008 230 60 2200 210/05 RMK AO2 T03110228 $
03949KAQV AQV20160708095011707/08/16 09:50:31  5-MIN KAQV 081550Z AUTO 10SM FEW028 SCT036 32/23 A3009 220 61 2200 M /M RMK AO2 SLP185 T03170233 $
03949KAQV AQV20160708095512607/08/16 09:55:31  5-MIN KAQV 081555Z AUTO 23006KT 9SM FEW030 FEW037 30/23 A3009 220 67 2000 230/06 RMK AO2 SLP186 T03000233 $
03949KAQV AQV20160708100011907/08/16 10:00:31  5-MIN KAQV 081600Z AUTO VRB06KT 9SM FEW034 SCT046 32/23 A3009 220 58 2200 VRB/06 RMK AO2 T03170228 $
03949KAQV AQV20160708100512007/08/16 10:05:31  5-MIN KAQV 081605Z AUTO VRB03KT 10SM FEW034 SCT046 32/23 A3009 220 58 2200 VRB/03 RMK AO2 T03170228 $
03949KAQV AQV20160708101012007/08/16 10:10:31  5-MIN KAQV 081610Z AUTO VRB05KT 10SM SCT034 SCT044 32/23 A3009 220 58 2200 VRB/05 RMK AO2 T03170228 $
03949KAQV AQV20160708101512007/08/16 10:15:31  5-MIN KAQV 081615Z AUTO VRB05KT 10SM FEW030 SCT041 26/23 A3009 220 84 1500 VRB/05 RMK AO2 T02560228 $
03949KAQV AQV20160708102012007/08/16 10:20:31  5-MIN KAQV 081620Z AUTO VRB04KT 10SM FEW034 SCT043 31/23 A3009 220 60 2200 VRB/04 RMK AO2 T03110228 $
03949KAQV AQV20160708102512007/08/16 10:25:31  5-MIN KAQV 081625Z AUTO VRB05KT 10SM SCT034 SCT043 31/23 A3009 220 62 2100 VRB/05 RMK AO2 T03060228 $
03949KAQV AQV20160708103012007/08/16 10:30:31  5-MIN KAQV 081630Z AUTO 25007KT 10SM SCT034 SCT043 31/23 A3009 220 60 2100 250/07 RMK AO2 T03110228 $
03949KAQV AQV20160708103511307/08/16 10:35:31  5-MIN KAQV 081635Z AUTO 21004KT 10SM FEW034 32/22 A3009 220 56 2200 210/04 RMK AO2 T03170222 $
03949KAQV AQV20160708104012707/08/16 10:40:31  5-MIN KAQV 081640Z AUTO VRB04KT 10SM FEW034 SCT050 SCT060 32/23 A3009 220 58 2200 VRB/04 RMK AO2 T03170228 $
03949KAQV AQV20160708104512707/08/16 10:45:31  5-MIN KAQV 081645Z AUTO 23003KT 10SM SCT036 BKN050 BKN060 32/22 A3009 220 56 2200 230/03 RMK AO2 T03170222 $
03949KAQV AQV20160708105013407/08/16 10:50:31  5-MIN KAQV 081650Z AUTO 26006KT 10SM SCT036 BKN050 BKN060 31/23 A3009 220 60 2200 260/06 RMK AO2 SLP185 T03110228 $
03949KAQV AQV20160708105513407/08/16 10:55:31  5-MIN KAQV 081655Z AUTO 28005KT 10SM FEW036 BKN050 BKN060 28/23 A3009 220 71 1800 270/05 RMK AO2 SLP185 T02830228 $
03949KAQV AQV20160708110012707/08/16 11:00:31  5-MIN KAQV 081700Z AUTO VRB04KT 10SM FEW038 BKN050 BKN060 32/22 A3009 220 55 2300 VRB/04 RMK AO2 T03220222 $
03949KAQV AQV20160708110512707/08/16 11:05:31  5-MIN KAQV 081705Z AUTO VRB06KT 10SM FEW038 SCT050 BKN060 33/22 A3009 220 53 2300 VRB/06 RMK AO2 T03280222 $
03949KAQV AQV20160708111012707/08/16 11:10:31  5-MIN KAQV 081710Z AUTO VRB03KT 10SM FEW039 SCT050 SCT075 31/22 A3008 230 56 2200 VRB/03 RMK AO2 T03110217 $
03949KAQV AQV20160708111512007/08/16 11:15:31  5-MIN KAQV 081715Z AUTO VRB04KT 10SM FEW050 FEW070 32/22 A3008 230 55 2300 VRB/04 RMK AO2 T03220222 $
03949KAQV AQV20160708112011307/08/16 11:20:31  5-MIN KAQV 081720Z AUTO VRB05KT 10SM FEW040 33/22 A3008 230 53 2300 VRB/05 RMK AO2 T03280222 $
03949KAQV AQV20160708112511307/08/16 11:25:31  5-MIN KAQV 081725Z AUTO VRB04KT 10SM FEW040 33/22 A3008 230 53 2300 VRB/04 RMK AO2 T03280222 $
03949KAQV AQV20160708113011307/08/16 11:30:31  5-MIN KAQV 081730Z AUTO VRB03KT 10SM FEW050 33/22 A3008 230 51 2400 VRB/03 RMK AO2 T03330222 $
03949KAQV AQV20160708113512007/08/16 11:35:31  5-MIN KAQV 081735Z AUTO VRB04KT 10SM FEW042 FEW055 33/22 A3008 230 50 2400 VRB/04 RMK AO2 T03330217 $
03949KAQV AQV20160708114012007/08/16 11:40:31  5-MIN KAQV 081740Z AUTO VRB04KT 10SM FEW042 SCT060 33/22 A3008 230 50 2400 VRB/04 RMK AO2 T03330217 $
03949KAQV AQV20160708114511307/08/16 11:45:31  5-MIN KAQV 081745Z AUTO VRB04KT 10SM SCT042 32/22 A3007 240 53 2300 VRB/04 RMK AO2 T03220217 $
03949KAQV AQV20160708115014507/08/16 11:50:31  5-MIN KAQV 081750Z AUTO VRB04KT 10SM SCT042 BKN060 33/22 A3007 240 53 2400 VRB/04 RMK AO2 SLP179 T03280222 10333 20239 50015 $
03949KAQV AQV20160708115515207/08/16 11:55:31  5-MIN KAQV 081755Z AUTO VRB03KT 10SM SCT042 SCT049 BKN060 32/22 A3007 240 53 2300 VRB/03 RMK AO2 SLP180 T03220217 10333 20239 50015 $
03949KAQV AQV20160708120012007/08/16 12:00:31  5-MIN KAQV 081800Z AUTO VRB03KT 10SM SCT042 BKN060 32/22 A3007 240 53 2300 VRB/03 RMK AO2 T03220217 $
03949KAQV AQV20160708120512707/08/16 12:05:31  5-MIN KAQV 081805Z AUTO VRB05KT 10SM FEW042 SCT050 BKN060 33/22 A3007 240 51 2400 VRB/05 RMK AO2 T03280217 $
03949KAQV AQV20160708121012707/08/16 12:10:31  5-MIN KAQV 081810Z AUTO VRB05KT 10SM FEW042 BKN060 BKN075 34/22 A3007 240 50 2500 VRB/05 RMK AO2 T03390222 $
03949KAQV AQV20160708121512707/08/16 12:15:31  5-MIN KAQV 081815Z AUTO VRB03KT 10SM FEW043 SCT060 BKN075 33/22 A3006 250 50 2400 VRB/03 RMK AO2 T03330217 $
03949KAQV AQV20160708122012707/08/16 12:20:31  5-MIN KAQV 081820Z AUTO VRB03KT 10SM FEW047 SCT060 BKN075 34/22 A3006 250 50 2500 VRB/03 RMK AO2 T03390222 $
03949KAQV AQV20160708122512707/08/16 12:25:31  5-MIN KAQV 081825Z AUTO VRB04KT 10SM FEW047 SCT060 BKN075 34/22 A3006 250 46 2600 VRB/04 RMK AO2 T03440217 $
03949KAQV AQV20160708123012007/08/16 12:30:31  5-MIN KAQV 081830Z AUTO 19005KT 10SM FEW047 SCT060 34/22 A3006 250 48 2500 180/05 RMK AO2 T03390217 $
03949KAQV AQV20160708123512007/08/16 12:35:31  5-MIN KAQV 081835Z AUTO VRB06KT 10SM FEW047 SCT060 34/21 A3005 260 46 2500 VRB/06 RMK AO2 T03390211 $
03949KAQV AQV20160708124012007/08/16 12:40:31  5-MIN KAQV 081840Z AUTO VRB04KT 10SM SCT046 SCT055 33/21 A3005 260 48 2400 VRB/04 RMK AO2 T03330211 $
03949KAQV AQV20160708124512007/08/16 12:45:31  5-MIN KAQV 081845Z AUTO 23006KT 10SM SCT046 BKN055 33/22 A3005 260 51 2400 230/06 RMK AO2 T03280217 $
03949KAQV AQV20160708125012707/08/16 12:50:31  5-MIN KAQV 081850Z AUTO VRB03KT 10SM SCT046 BKN055 33/22 A3005 260 51 2400 VRB/03 RMK AO2 SLP170 T03280217 $
03949KAQV AQV20160708125512707/08/16 12:55:31  5-MIN KAQV 081855Z AUTO VRB03KT 10SM BKN046 BKN055 33/22 A3004 260 53 2400 VRB/03 RMK AO2 SLP169 T03280222 $
03949KAQV AQV20160708130012007/08/16 13:00:31  5-MIN KAQV 081900Z AUTO VRB05KT 10SM SCT046 BKN055 33/22 A3004 260 51 2500 VRB/05 RMK AO2 T03330222 $
03949KAQV AQV20160708130512007/08/16 13:05:31  5-MIN KAQV 081905Z AUTO VRB05KT 10SM SCT046 BKN055 34/22 A3004 260 48 2500 VRB/05 RMK AO2 T03390217 $
03949KAQV AQV20160708131012007/08/16 13:10:31  5-MIN KAQV 081910Z AUTO VRB04KT 10SM SCT046 BKN060 34/22 A3004 260 46 2600 VRB/04 RMK AO2 T03440217 $
03949KAQV AQV20160708131512007/08/16 13:15:31  5-MIN KAQV 081915Z AUTO VRB04KT 10SM FEW047 SCT060 34/22 A3004 270 46 2600 VRB/04 RMK AO2 T03440217 $
03949KAQV AQV20160708132011307/08/16 13:20:31  5-MIN KAQV 081920Z AUTO 00000KT 10SM FEW047 34/21 A3004 270 46 2500 000/00 RMK AO2 T03390211 $
03949KAQV AQV20160708132512007/08/16 13:25:31  5-MIN KAQV 081925Z AUTO VRB04KT 10SM SCT049 SCT060 33/21 A3004 270 48 2500 VRB/04 RMK AO2 T03330211 $
03949KAQV AQV20160708133012007/08/16 13:30:31  5-MIN KAQV 081930Z AUTO VRB04KT 10SM SCT049 BKN060 33/22 A3004 270 50 2500 VRB/04 RMK AO2 T03330217 $
03949KAQV AQV20160708133512007/08/16 13:35:31  5-MIN KAQV 081935Z AUTO VRB04KT 10SM SCT049 SCT055 33/22 A3004 270 50 2500 VRB/04 RMK AO2 T03330217 $
03949KAQV AQV20160708134012007/08/16 13:40:31  5-MIN KAQV 081940Z AUTO 23006KT 10SM SCT049 SCT055 34/22 A3004 270 48 2500 230/06 RMK AO2 T03390217 $
03949KAQV AQV20160708134511307/08/16 13:45:31  5-MIN KAQV 081945Z AUTO VRB04KT 10SM FEW049 34/22 A3004 270 46 2600 VRB/04 RMK AO2 T03440217 $
03949KAQV AQV20160708135012007/08/16 13:50:31  5-MIN KAQV 081950Z AUTO VRB05KT 10SM FEW049 35/22 A3003 270 47 2600 VRB/05 RMK AO2 SLP165 T03500222 $
03949KAQV AQV20160708135512007/08/16 13:55:31  5-MIN KAQV 081955Z AUTO 00000KT 10SM FEW049 35/22 A3003 280 47 2600 000/00 RMK AO2 SLP164 T03500222 $
03949KAQV AQV20160708140011307/08/16 14:00:31  5-MIN KAQV 082000Z AUTO VRB05KT 10SM FEW100 35/22 A3003 280 47 2600 VRB/05 RMK AO2 T03500222 $
03949KAQV AQV20160708140511907/08/16 14:05:31  5-MIN KAQV 082005Z AUTO 19004KT 9SM FEW050 FEW100 36/22 A3003 280 45 2700 190/04 RMK AO2 T03560222 $
03949KAQV AQV20160708141011207/08/16 14:10:31  5-MIN KAQV 082010Z AUTO VRB05KT 8SM FEW050 35/22 A3003 280 45 2700 VRB/05 RMK AO2 T03500217 $
03949KAQV AQV20160708141511007/08/16 14:15:31  5-MIN KAQV 082015Z AUTO 19007KT 10SM CLR 35/22 A3002 280 45 2700 190/07 RMK AO2 T03500217 $
03949KAQV AQV20160708142011007/08/16 14:20:31  5-MIN KAQV 082020Z AUTO VRB06KT 10SM CLR 35/22 A3002 280 45 2700 VRB/06 RMK AO2 T03500217 $
03949KAQV AQV20160708142510007/08/16 14:25:31  5-MIN KAQV 082025Z AUTO 10SM CLR 35/22 A3002 280 45 2700 M /M RMK AO2 T03500217 $
03949KAQV AQV20160708143011007/08/16 14:30:31  5-MIN KAQV 082030Z AUTO 27004KT 10SM CLR 36/22 A3002 290 45 2700 260/04 RMK AO2 T03560222 $
03949KAQV AQV20160708143511007/08/16 14:35:31  5-MIN KAQV 082035Z AUTO VRB04KT 10SM CLR 36/22 A3001 290 45 2700 VRB/04 RMK AO2 T03560222 $
03949KAQV AQV20160708144011007/08/16 14:40:31  5-MIN KAQV 082040Z AUTO 00000KT 10SM CLR 36/22 A3001 290 44 2700 000/00 RMK AO2 T03560217 $
03949KAQV AQV20160708144510307/08/16 14:45:31  5-MIN KAQV 082045Z AUTO 10SM FEW050 35/22 A3001 290 45 2700 M /M RMK AO2 T03500217 $
03949KAQV AQV20160708145012607/08/16 14:50:31  5-MIN KAQV 082050Z AUTO 00000KT 10SM FEW050 35/22 A3001 300 45 2700 000/00 RMK AO2 SLP157 T03500217 58003 $
03949KAQV AQV20160708145513307/08/16 14:55:31  5-MIN KAQV 082055Z AUTO 19006KT 10SM FEW050 FEW070 35/22 A3001 300 45 2700 180/06 RMK AO2 SLP156 T03500217 58003 $
03949KAQV AQV20160708150012007/08/16 15:00:31  5-MIN KAQV 082100Z AUTO 18004KT 10SM FEW050 FEW070 35/21 A3000 300 43 2700 180/04 RMK AO2 T03500211 $
03949KAQV AQV20160708150511307/08/16 15:05:31  5-MIN KAQV 082105Z AUTO VRB04KT 10SM FEW050 35/21 A3000 300 43 2700 VRB/04 RMK AO2 T03500211 $
03949KAQV AQV20160708151011307/08/16 15:10:31  5-MIN KAQV 082110Z AUTO VRB04KT 10SM FEW050 35/21 A3000 300 42 2700 VRB/04 RMK AO2 T03500206 $
03949KAQV AQV20160708151511307/08/16 15:15:31  5-MIN KAQV 082115Z AUTO VRB03KT 10SM FEW050 36/21 A3000 300 42 2700 VRB/03 RMK AO2 T03560211 $
03949KAQV AQV20160708152011007/08/16 15:20:31  5-MIN KAQV 082120Z AUTO VRB05KT 10SM CLR 35/21 A3000 300 42 2700 VRB/05 RMK AO2 T03500206 $
03949KAQV AQV20160708152511007/08/16 15:25:31  5-MIN KAQV 082125Z AUTO VRB04KT 10SM CLR 35/21 A2999 310 42 2700 VRB/04 RMK AO2 T03500206 $
03949KAQV AQV20160708153011007/08/16 15:30:31  5-MIN KAQV 082130Z AUTO VRB04KT 10SM CLR 36/21 A2999 310 42 2700 VRB/04 RMK AO2 T03560211 $
03949KAQV AQV20160708153511007/08/16 15:35:31  5-MIN KAQV 082135Z AUTO VRB04KT 10SM CLR 36/21 A2999 310 41 2800 VRB/04 RMK AO2 T03560206 $
03949KAQV AQV20160708154011007/08/16 15:40:31  5-MIN KAQV 082140Z AUTO VRB04KT 10SM CLR 36/21 A2999 310 42 2800 VRB/04 RMK AO2 T03560211 $
03949KAQV AQV20160708154511007/08/16 15:45:31  5-MIN KAQV 082145Z AUTO VRB04KT 10SM CLR 36/21 A2999 310 41 2800 VRB/04 RMK AO2 T03560206 $
03949KAQV AQV20160708155011707/08/16 15:50:31  5-MIN KAQV 082150Z AUTO VRB05KT 10SM CLR 36/20 A2999 310 39 2800 VRB/05 RMK AO2 SLP150 T03560200 $
03949KAQV AQV20160708155511707/08/16 15:55:31  5-MIN KAQV 082155Z AUTO VRB04KT 10SM CLR 36/20 A2999 310 39 2800 VRB/04 RMK AO2 SLP150 T03560200 $
03949KAQV AQV20160708160011007/08/16 16:00:31  5-MIN KAQV 082200Z AUTO VRB06KT 10SM CLR 36/21 A2999 320 41 2800 VRB/06 RMK AO2 T03560206 $
03949KAQV AQV20160708160510007/08/16 16:05:31  5-MIN KAQV 082205Z AUTO 10SM CLR 36/21 A2998 320 42 2800 M /M RMK AO2 T03560211 $
03949KAQV AQV20160708161011007/08/16 16:10:31  5-MIN KAQV 082210Z AUTO 21004KT 10SM CLR 36/21 A2998 320 42 2800 200/04 RMK AO2 T03560211 $
03949KAQV AQV20160708161511007/08/16 16:15:31  5-MIN KAQV 082215Z AUTO VRB04KT 10SM CLR 35/20 A2998 320 40 2700 VRB/04 RMK AO2 T03500200 $
03949KAQV AQV20160708162011307/08/16 16:20:31  5-MIN KAQV 082220Z AUTO VRB06KT 10SM FEW060 36/21 A2998 320 41 2800 VRB/06 RMK AO2 T03560206 $
03949KAQV AQV20160708162511307/08/16 16:25:31  5-MIN KAQV 082225Z AUTO 18005KT 10SM FEW060 35/21 A2998 320 43 2700 170/05 RMK AO2 T03500211 $
03949KAQV AQV20160708163011307/08/16 16:30:31  5-MIN KAQV 082230Z AUTO VRB03KT 10SM FEW060 36/21 A2997 330 42 2800 VRB/03 RMK AO2 T03560211 $
03949KAQV AQV20160708163511307/08/16 16:35:31  5-MIN KAQV 082235Z AUTO VRB04KT 10SM SCT060 36/21 A2997 330 42 2800 VRB/04 RMK AO2 T03560211 $
03949KAQV AQV20160708164012607/08/16 16:40:31  5-MIN KAQV 082240Z AUTO 19010G17KT 10SM SCT060 BKN070 34/21 A2997 330 45 2600 190/10G17 RMK AO2 T03440211 $
03949KAQV AQV20160708164512607/08/16 16:45:31  5-MIN KAQV 082245Z AUTO VRB06G17KT 10SM SCT060 SCT070 34/23 A2997 330 51 2600 VRB/06G17 RMK AO2 T03390228 $
03949KAQV AQV20160708165012707/08/16 16:50:31  5-MIN KAQV 082250Z AUTO 20007KT 10SM FEW060 SCT070 34/23 A2997 330 53 2600 200/07 RMK AO2 SLP145 T03390233 $
03949KAQV AQV20160708165513307/08/16 16:55:31  5-MIN KAQV 082255Z AUTO 18011G16KT 10SM FEW060 FEW070 33/24 A2997 330 57 2500 180/11G16 RMK AO2 SLP146 T03330239 $
03949KAQV AQV20160708170012607/08/16 17:00:31  5-MIN KAQV 082300Z AUTO 19006G16KT 10SM FEW055 FEW070 33/24 A2997 330 57 2500 180/06G16 RMK AO2 T03330239 $
03949KAQV AQV20160708170511607/08/16 17:05:31  5-MIN KAQV 082305Z AUTO 19007G15KT 10SM CLR 33/24 A2998 320 57 2500 190/07G15 RMK AO2 T03330239 $
03949KAQV AQV20160708171011007/08/16 17:10:31  5-MIN KAQV 082310Z AUTO VRB05KT 10SM CLR 33/24 A2998 320 59 2500 VRB/05 RMK AO2 T03280239 $
03949KAQV AQV20160708171512607/08/16 17:15:31  5-MIN KAQV 082315Z AUTO 18008KT 130V210 10SM CLR 33/23 A2998 320 57 2500 180/08 130V210 RMK AO2 T03280233 $
03949KAQV AQV20160708172011007/08/16 17:20:31  5-MIN KAQV 082320Z AUTO 20006KT 10SM CLR 33/23 A2998 320 57 2500 190/06 RMK AO2 T03280233 $
03949KAQV AQV20160708172511007/08/16 17:25:31  5-MIN KAQV 082325Z AUTO VRB06KT 10SM CLR 33/23 A2998 320 55 2500 VRB/06 RMK AO2 T03280228 $
03949KAQV AQV20160708173011007/08/16 17:30:31  5-MIN KAQV 082330Z AUTO VRB05KT 10SM CLR 32/23 A2998 320 57 2400 VRB/05 RMK AO2 T03220228 $
03949KAQV AQV20160708173511007/08/16 17:35:31  5-MIN KAQV 082335Z AUTO VRB04KT 10SM CLR 32/23 A2998 320 57 2400 VRB/04 RMK AO2 T03220228 $
03949KAQV AQV20160708174010907/08/16 17:40:31  5-MIN KAQV 082340Z AUTO VRB05KT 9SM CLR 32/23 A2998 320 57 2400 VRB/05 RMK AO2 T03220228 $
03949KAQV AQV20160708174512507/08/16 17:45:31  5-MIN KAQV 082345Z AUTO 20007KT 150V220 9SM CLR 32/22 A2998 320 55 2400 190/07 150V220 RMK AO2 T03220222 $
03949KAQV AQV20160708175013507/08/16 17:50:31  5-MIN KAQV 082350Z AUTO VRB05KT 10SM CLR 32/22 A2998 320 55 2400 VRB/05 RMK AO2 SLP147 T03220222 10356 20322 56022 $
03949KAQV AQV20160708175513507/08/16 17:55:31  5-MIN KAQV 082355Z AUTO 19009KT 10SM CLR 32/22 A2998 320 55 2400 180/09 RMK AO2 SLP148 T03220222 10356 20322 56022 $
03949KAQV AQV20160708180011007/08/16 18:00:31  5-MIN KAQV 090000Z AUTO VRB06KT 10SM CLR 31/22 A2998 320 56 2300 VRB/06 RMK AO2 T03110217 $
03949KAQV AQV20160708180511007/08/16 18:05:31  5-MIN KAQV 090005Z AUTO 19006KT 10SM CLR 32/22 A2998 320 56 2300 180/06 RMK AO2 T03170222 $
03949KAQV AQV20160708181011007/08/16 18:10:31  5-MIN KAQV 090010Z AUTO VRB05KT 10SM CLR 32/22 A2998 320 56 2300 VRB/05 RMK AO2 T03170222 $
03949KAQV AQV20160708181511007/08/16 18:15:31  5-MIN KAQV 090015Z AUTO VRB04KT 10SM CLR 31/22 A2998 320 58 2300 VRB/04 RMK AO2 T03110222 $
03949KAQV AQV20160708182011007/08/16 18:20:31  5-MIN KAQV 090020Z AUTO VRB04KT 10SM CLR 31/22 A2998 320 60 2200 VRB/04 RMK AO2 T03060222 $
03949KAQV AQV20160708182511007/08/16 18:25:31  5-MIN KAQV 090025Z AUTO 19004KT 10SM CLR 31/22 A2998 320 60 2200 190/04 RMK AO2 T03060222 $
03949KAQV AQV20160708183011007/08/16 18:30:31  5-MIN KAQV 090030Z AUTO VRB04KT 10SM CLR 31/22 A2998 320 60 2200 VRB/04 RMK AO2 T03060222 $
03949KAQV AQV20160708183511007/08/16 18:35:31  5-MIN KAQV 090035Z AUTO 18004KT 10SM CLR 31/22 A2998 320 60 2200 170/04 RMK AO2 T03060222 $
03949KAQV AQV20160708184011007/08/16 18:40:31  5-MIN KAQV 090040Z AUTO VRB04KT 10SM CLR 31/23 A2998 320 62 2200 VRB/04 RMK AO2 T03060228 $
03949KAQV AQV20160708184511007/08/16 18:45:31  5-MIN KAQV 090045Z AUTO 18003KT 10SM CLR 30/23 A2998 320 65 2200 180/03 RMK AO2 T03000228 $
03949KAQV AQV20160708185011707/08/16 18:50:31  5-MIN KAQV 090050Z AUTO 18005KT 10SM CLR 30/23 A2998 320 65 2200 180/05 RMK AO2 SLP147 T03000228 $
03949KAQV AQV20160708185511707/08/16 18:55:31  5-MIN KAQV 090055Z AUTO 19005KT 10SM CLR 30/23 A2997 330 65 2200 180/05 RMK AO2 SLP146 T03000228 $
03949KAQV AQV20160708190011007/08/16 19:00:31  5-MIN KAQV 090100Z AUTO 18004KT 10SM CLR 30/23 A2997 330 65 2200 180/04 RMK AO2 T03000228 $
03949KAQV AQV20160708190511007/08/16 19:05:31  5-MIN KAQV 090105Z AUTO 17003KT 10SM CLR 29/23 A2997 330 67 2100 160/03 RMK AO2 T02940228 $
03949KAQV AQV20160708191011007/08/16 19:10:31  5-MIN KAQV 090110Z AUTO 17004KT 10SM CLR 29/23 A2997 330 67 2100 160/04 RMK AO2 T02940228 $
03949KAQV AQV20160708191511007/08/16 19:15:31  5-MIN KAQV 090115Z AUTO 18003KT 10SM CLR 29/23 A2997 330 69 2000 170/03 RMK AO2 T02890228 $
03949KAQV AQV20160708192011007/08/16 19:20:31  5-MIN KAQV 090120Z AUTO 00000KT 10SM CLR 29/23 A2997 330 69 2000 000/00 RMK AO2 T02890228 $
03949KAQV AQV20160708192511007/08/16 19:25:31  5-MIN KAQV 090125Z AUTO 17003KT 10SM CLR 29/23 A2997 330 69 2000 170/03 RMK AO2 T02890228 $
03949KAQV AQV20160708193011007/08/16 19:30:31  5-MIN KAQV 090130Z AUTO 17003KT 10SM CLR 28/23 A2997 330 71 2000 170/03 RMK AO2 T02830228 $
03949KAQV AQV20160708193511007/08/16 19:35:31  5-MIN KAQV 090135Z AUTO 00000KT 10SM CLR 28/23 A2997 330 74 2000 000/00 RMK AO2 T02830233 $
03949KAQV AQV20160708194011007/08/16 19:40:31  5-MIN KAQV 090140Z AUTO 18003KT 10SM CLR 28/23 A2997 330 74 2000 170/03 RMK AO2 T02830233 $
03949KAQV AQV20160708194511007/08/16 19:45:31  5-MIN KAQV 090145Z AUTO 17003KT 10SM CLR 28/23 A2997 330 74 2000 170/03 RMK AO2 T02830233 $
03949KAQV AQV20160708195011707/08/16 19:50:31  5-MIN KAQV 090150Z AUTO 17003KT 10SM CLR 28/23 A2997 330 74 2000 160/03 RMK AO2 SLP146 T02830233 $
03949KAQV AQV20160708195511707/08/16 19:55:31  5-MIN KAQV 090155Z AUTO 00000KT 10SM CLR 28/23 A2997 330 76 1900 000/00 RMK AO2 SLP147 T02780233 $
03949KAQV AQV20160708200011007/08/16 20:00:31  5-MIN KAQV 090200Z AUTO 17003KT 10SM CLR 28/23 A2997 330 76 1900 160/03 RMK AO2 T02780233 $
03949KAQV AQV20160708200511007/08/16 20:05:31  5-MIN KAQV 090205Z AUTO 17003KT 10SM CLR 28/23 A2997 330 76 1900 160/03 RMK AO2 T02780233 $
03949KAQV AQV20160708201011007/08/16 20:10:31  5-MIN KAQV 090210Z AUTO 00000KT 10SM CLR 28/23 A2998 330 76 1900 000/00 RMK AO2 T02780233 $
03949KAQV AQV20160708201511007/08/16 20:15:31  5-MIN KAQV 090215Z AUTO 00000KT 10SM CLR 28/23 A2998 320 76 1900 000/00 RMK AO2 T02780233 $
03949KAQV AQV20160708202011007/08/16 20:20:31  5-MIN KAQV 090220Z AUTO 00000KT 10SM CLR 27/23 A2998 320 79 1800 000/00 RMK AO2 T02720233 $
03949KAQV AQV20160708202511007/08/16 20:25:31  5-MIN KAQV 090225Z AUTO 00000KT 10SM CLR 27/23 A2998 320 79 1800 000/00 RMK AO2 T02720233 $
03949KAQV AQV20160708203011007/08/16 20:30:31  5-MIN KAQV 090230Z AUTO VRB03KT 10SM CLR 27/23 A2998 320 79 1800 VRB/03 RMK AO2 T02720233 $
03949KAQV AQV20160708203511007/08/16 20:35:31  5-MIN KAQV 090235Z AUTO 18003KT 10SM CLR 25/23 A2999 320 90 1600 180/03 RMK AO2 T02500233 $
03949KAQV AQV20160708204011007/08/16 20:40:31  5-MIN KAQV 090240Z AUTO 18003KT 10SM CLR 25/23 A2999 310 90 1600 180/03 RMK AO2 T02500233 $
03949KAQV AQV20160708204511007/08/16 20:45:31  5-MIN KAQV 090245Z AUTO 18003KT 10SM CLR 25/23 A2999 310 90 1600 180/03 RMK AO2 T02500233 $
03949KAQV AQV20160708205012307/08/16 20:50:31  5-MIN KAQV 090250Z AUTO 18003KT 10SM CLR 25/23 A2999 310 90 1600 170/03 RMK AO2 SLP153 T02500233 55008 $
03949KAQV AQV20160708205512307/08/16 20:55:31  5-MIN KAQV 090255Z AUTO 18004KT 10SM CLR 25/23 A3000 310 90 1600 180/04 RMK AO2 SLP154 T02500233 55008 $
03949KAQV AQV20160708210011007/08/16 21:00:31  5-MIN KAQV 090300Z AUTO 18004KT 10SM CLR 25/24 A3000 300 93 1600 170/04 RMK AO2 T02500239 $
03949KAQV AQV20160708210511007/08/16 21:05:31  5-MIN KAQV 090305Z AUTO 00000KT 10SM CLR 25/24 A3000 300 93 1600 000/00 RMK AO2 T02500239 $
03949KAQV AQV20160708211011007/08/16 21:10:31  5-MIN KAQV 090310Z AUTO 20003KT 10SM CLR 25/24 A3001 300 93 1600 190/03 RMK AO2 T02500239 $
03949KAQV AQV20160708211511007/08/16 21:15:31  5-MIN KAQV 090315Z AUTO VRB03KT 10SM CLR 25/24 A3001 290 93 1600 VRB/03 RMK AO2 T02500239 $
03949KAQV AQV20160708212011707/08/16 21:20:31  5-MIN KAQV 090320Z AUTO 00000KT 10SM CLR 25/24 A3002 280 93 1500 000/00 RMK AO2 PRESRR T02500239 $
03949KAQV AQV20160708212511007/08/16 21:25:31  5-MIN KAQV 090325Z AUTO 19003KT 10SM CLR 25/24 A3002 280 93 1500 180/03 RMK AO2 T02500239 $
03949KAQV AQV20160708213011007/08/16 21:30:31  5-MIN KAQV 090330Z AUTO 00000KT 10SM CLR 25/24 A3003 280 93 1500 000/00 RMK AO2 T02500239 $
03949KAQV AQV20160708213511007/08/16 21:35:31  5-MIN KAQV 090335Z AUTO 00000KT 10SM CLR 25/24 A3003 280 93 1500 000/00 RMK AO2 T02500239 $
03949KAQV AQV20160708214011007/08/16 21:40:31  5-MIN KAQV 090340Z AUTO 00000KT 10SM CLR 25/24 A3003 270 93 1500 000/00 RMK AO2 T02500239 $
03949KAQV AQV20160708214511007/08/16 21:45:31  5-MIN KAQV 090345Z AUTO 00000KT 10SM CLR 25/24 A3004 270 93 1500 000/00 RMK AO2 T02500239 $
03949KAQV AQV20160708215011707/08/16 21:50:31  5-MIN KAQV 090350Z AUTO 00000KT 10SM CLR 25/24 A3004 260 93 1500 000/00 RMK AO2 SLP169 T02500239 $
03949KAQV AQV20160708215511707/08/16 21:55:31  5-MIN KAQV 090355Z AUTO 00000KT 10SM CLR 25/24 A3005 260 93 1500 000/00 RMK AO2 SLP171 T02500239 $
03949KAQV AQV20160708220011707/08/16 22:00:31  5-MIN KAQV 090400Z AUTO 00000KT 10SM CLR 25/24 A3006 250 93 1500 000/00 RMK AO2 PRESRR T02500239 $
03949KAQV AQV20160708220511007/08/16 22:05:31  5-MIN KAQV 090405Z AUTO 00000KT 10SM CLR 25/24 A3006 250 93 1500 000/00 RMK AO2 T02500239 $
03949KAQV AQV20160708221012007/08/16 22:10:31  5-MIN KAQV 090410Z AUTO 00000KT 10SM FEW025 25/24 A3007 240 93 1500 000/00 RMK AO2 PRESRR T02500239 $
03949KAQV AQV20160708221511307/08/16 22:15:31  5-MIN KAQV 090415Z AUTO 00000KT 10SM FEW025 25/24 A3007 240 93 1500 000/00 RMK AO2 T02500239 $
03949KAQV AQV20160708222011307/08/16 22:20:31  5-MIN KAQV 090420Z AUTO 00000KT 10SM FEW025 25/24 A3007 240 93 1500 000/00 RMK AO2 T02500239 $
03949KAQV AQV20160708222511307/08/16 22:25:31  5-MIN KAQV 090425Z AUTO 00000KT 10SM FEW025 25/24 A3007 240 93 1500 000/00 RMK AO2 T02500239 $
03949KAQV AQV20160708223011307/08/16 22:30:31  5-MIN KAQV 090430Z AUTO 00000KT 10SM FEW025 25/24 A3007 230 93 1500 000/00 RMK AO2 T02500239 $
03949KAQV AQV20160708223511307/08/16 22:35:31  5-MIN KAQV 090435Z AUTO 00000KT 10SM FEW027 25/24 A3007 230 97 1500 000/00 RMK AO2 T02500244 $
03949KAQV AQV20160708224011307/08/16 22:40:31  5-MIN KAQV 090440Z AUTO 00000KT 10SM FEW025 25/24 A3007 240 97 1500 000/00 RMK AO2 T02500244 $
03949KAQV AQV20160708224511307/08/16 22:45:31  5-MIN KAQV 090445Z AUTO 00000KT 10SM FEW023 25/24 A3007 230 97 1500 000/00 RMK AO2 T02500244 $
03949KAQV AQV20160708225011707/08/16 22:50:31  5-MIN KAQV 090450Z AUTO 00000KT 10SM CLR 25/24 A3007 230 97 1500 000/00 RMK AO2 SLP180 T02500244 $
03949KAQV AQV20160708225511707/08/16 22:55:31  5-MIN KAQV 090455Z AUTO 00000KT 10SM CLR 25/24 A3007 240 93 1500 000/00 RMK AO2 SLP179 T02500239 $
03949KAQV AQV20160708230011007/08/16 23:00:31  5-MIN KAQV 090500Z AUTO 00000KT 10SM CLR 25/24 A3007 240 93 1500 000/00 RMK AO2 T02500239 $
03949KAQV AQV20160708230511007/08/16 23:05:31  5-MIN KAQV 090505Z AUTO VRB03KT 10SM CLR 25/24 A3007 240 97 1500 VRB/03 RMK AO2 T02500244 $
03949KAQV AQV20160708231011007/08/16 23:10:31  5-MIN KAQV 090510Z AUTO 00000KT 10SM CLR 25/24 A3007 240 97 1500 000/00 RMK AO2 T02500244 $
03949KAQV AQV20160708231511007/08/16 23:15:31  5-MIN KAQV 090515Z AUTO VRB03KT 10SM CLR 25/24 A3006 240 97 1500 VRB/03 RMK AO2 T02500244 $
03949KAQV AQV20160708232011007/08/16 23:20:31  5-MIN KAQV 090520Z AUTO 00000KT 10SM CLR 25/24 A3006 240 97 1500 000/00 RMK AO2 T02500244 $
03949KAQV AQV20160708232511007/08/16 23:25:31  5-MIN KAQV 090525Z AUTO VRB03KT 10SM CLR 25/24 A3006 250 97 1500 VRB/03 RMK AO2 T02500244 $
03949KAQV AQV20160708233011007/08/16 23:30:31  5-MIN KAQV 090530Z AUTO 19003KT 10SM CLR 25/24 A3006 250 97 1500 180/03 RMK AO2 T02500244 $
03949KAQV AQV20160708233511007/08/16 23:35:31  5-MIN KAQV 090535Z AUTO 18004KT 10SM CLR 25/24 A3005 260 97 1500 170/04 RMK AO2 T02500244 $
03949KAQV AQV20160708234011007/08/16 23:40:31  5-MIN KAQV 090540Z AUTO 19004KT 10SM CLR 25/24 A3005 260 97 1500 180/04 RMK AO2 T02500244 $
03949KAQV AQV20160708234511007/08/16 23:45:31  5-MIN KAQV 090545Z AUTO 19003KT 10SM CLR 25/24 A3005 260 97 1500 190/03 RMK AO2 T02500244 $
03949KAQV AQV20160708235014507/08/16 23:50:31  5-MIN KAQV 090550Z AUTO VRB03KT 10SM CLR 25/24 A3005 260 97 1500 VRB/03 RMK AO2 SLP170 T02500244 10317 20250 403560239 53005 $
03949KAQV AQV20160708235514507/08/16 23:55:31  5-MIN KAQV 090555Z AUTO 00000KT 10SM CLR 25/24 A3005 260 97 1500 000/00 RMK AO2 SLP170 T02500244 10317 20250 403560239 53005 $
03949KAQV AQV20160709000011007/09/16 00:00:31  5-MIN KAQV 090600Z AUTO 00000KT 10SM CLR 25/24 A3005 260 97 1500 000/00 RMK AO2 T02500244 $
03949KAQV AQV20160709000511007/09/16 00:05:31  5-MIN KAQV 090605Z AUTO 00000KT 10SM CLR 25/24 A3004 260 97 1500 000/00 RMK AO2 T02500244 $
03949KAQV AQV20160709001011007/09/16 00:10:31  5-MIN KAQV 090610Z AUTO 00000KT 10SM CLR 25/24 A3005 260 97 1500 000/00 RMK AO2 T02500244 $
03949KAQV AQV20160709001511007/09/16 00:15:31  5-MIN KAQV 090615Z AUTO 00000KT 10SM CLR 25/24 A3005 260 97 1500 000/00 RMK AO2 T02500244 $
03949KAQV AQV20160709002011007/09/16 00:20:31  5-MIN KAQV 090620Z AUTO 00000KT 10SM CLR 25/24 A3005 260 97 1500 000/00 RMK AO2 T02500244 $
03949KAQV AQV20160709002511007/09/16 00:25:31  5-MIN KAQV 090625Z AUTO 00000KT 10SM CLR 25/24 A3004 260 97 1500 000/00 RMK AO2 T02500244 $
03949KAQV AQV20160709003011007/09/16 00:30:31  5-MIN KAQV 090630Z AUTO VRB03KT 10SM CLR 25/24 A3004 270 97 1500 VRB/03 RMK AO2 T02500244 $
03949KAQV AQV20160709003511007/09/16 00:35:31  5-MIN KAQV 090635Z AUTO VRB03KT 10SM CLR 25/24 A3004 270 97 1500 VRB/03 RMK AO2 T02500244 $
03949KAQV AQV20160709004011007/09/16 00:40:31  5-MIN KAQV 090640Z AUTO VRB03KT 10SM CLR 25/24 A3003 270 97 1500 VRB/03 RMK AO2 T02500244 $
03949KAQV AQV20160709004511007/09/16 00:45:31  5-MIN KAQV 090645Z AUTO 18004KT 10SM CLR 25/24 A3003 280 97 1500 170/04 RMK AO2 T02500244 $
03949KAQV AQV20160709005011707/09/16 00:50:31  5-MIN KAQV 090650Z AUTO VRB03KT 10SM CLR 25/24 A3002 280 97 1500 VRB/03 RMK AO2 SLP162 T02500244 $
03949KAQV AQV20160709005511607/09/16 00:55:31  5-MIN KAQV 090655Z AUTO 20004KT 9SM CLR 25/24 A3002 280 97 1500 200/04 RMK AO2 SLP161 T02500244 $
03949KAQV AQV20160709010010907/09/16 01:00:31  5-MIN KAQV 090700Z AUTO 00000KT 9SM CLR 25/24 A3002 280 97 1500 000/00 RMK AO2 T02500244 $
03949KAQV AQV20160709010510907/09/16 01:05:31  5-MIN KAQV 090705Z AUTO 00000KT 9SM CLR 25/24 A3002 290 97 1500 000/00 RMK AO2 T02500244 $
03949KAQV AQV20160709011010907/09/16 01:10:31  5-MIN KAQV 090710Z AUTO 00000KT 9SM CLR 25/24 A3002 290 97 1600 000/00 RMK AO2 T02500244 $
03949KAQV AQV20160709011510907/09/16 01:15:31  5-MIN KAQV 090715Z AUTO VRB03KT 9SM CLR 25/24 A3002 290 97 1600 VRB/03 RMK AO2 T02500244 $
03949KAQV AQV20160709012010907/09/16 01:20:31  5-MIN KAQV 090720Z AUTO 00000KT 9SM CLR 25/24 A3002 290 97 1600 000/00 RMK AO2 T02500244 $
03949KAQV AQV20160709012510907/09/16 01:25:31  5-MIN KAQV 090725Z AUTO 00000KT 9SM CLR 25/24 A3002 290 97 1600 000/00 RMK AO2 T02500244 $
03949KAQV AQV20160709013010907/09/16 01:30:31  5-MIN KAQV 090730Z AUTO 00000KT 9SM CLR 25/24 A3002 290 97 1600 000/00 RMK AO2 T02500244 $
03949KAQV AQV20160709013510907/09/16 01:35:31  5-MIN KAQV 090735Z AUTO 00000KT 9SM CLR 25/24 A3002 290 97 1600 000/00 RMK AO2 T02500244 $
03949KAQV AQV20160709014010907/09/16 01:40:31  5-MIN KAQV 090740Z AUTO VRB03KT 9SM CLR 25/24 A3002 280 97 1500 VRB/03 RMK AO2 T02500244 $
03949KAQV AQV20160709014510907/09/16 01:45:31  5-MIN KAQV 090745Z AUTO 00000KT 9SM CLR 25/24 A3002 290 97 1500 000/00 RMK AO2 T02500244 $
03949KAQV AQV20160709015011607/09/16 01:50:31  5-MIN KAQV 090750Z AUTO VRB03KT 9SM CLR 25/24 A3002 280 97 1500 VRB/03 RMK AO2 SLP161 T02500244 $
03949KAQV AQV20160709015511607/09/16 01:55:31  5-MIN KAQV 090755Z AUTO VRB03KT 9SM CLR 25/24 A3002 280 97 1500 VRB/03 RMK AO2 SLP162 T02500244 $
03949KAQV AQV20160709020010907/09/16 02:00:31  5-MIN KAQV 090800Z AUTO 00000KT 9SM CLR 25/24 A3002 280 97 1500 000/00 RMK AO2 T02500244 $
03949KAQV AQV20160709020510907/09/16 02:05:31  5-MIN KAQV 090805Z AUTO 00000KT 8SM CLR 25/24 A3002 280 93 1500 000/00 RMK AO2 T02500239 $
03949KAQV AQV20160709021010907/09/16 02:10:31  5-MIN KAQV 090810Z AUTO 00000KT 8SM CLR 25/24 A3002 280 93 1500 000/00 RMK AO2 T02500239 $
03949KAQV AQV20160709021510907/09/16 02:15:31  5-MIN KAQV 090815Z AUTO VRB03KT 8SM CLR 25/24 A3003 280 93 1500 VRB/03 RMK AO2 T02500239 $
03949KAQV AQV20160709022010907/09/16 02:20:31  5-MIN KAQV 090820Z AUTO 00000KT 8SM CLR 25/24 A3003 280 93 1500 000/00 RMK AO2 T02500239 $
03949KAQV AQV20160709022510907/09/16 02:25:31  5-MIN KAQV 090825Z AUTO 00000KT 8SM CLR 24/24 A3002 280 97 1500 000/00 RMK AO2 T02440239 $
03949KAQV AQV20160709023010907/09/16 02:30:31  5-MIN KAQV 090830Z AUTO 00000KT 8SM CLR 24/24 A3002 280 97 1500 000/00 RMK AO2 T02440239 $
03949KAQV AQV20160709023510907/09/16 02:35:31  5-MIN KAQV 090835Z AUTO 00000KT 8SM CLR 24/24 A3002 280 97 1500 000/00 RMK AO2 T02440239 $
03949KAQV AQV20160709024010907/09/16 02:40:31  5-MIN KAQV 090840Z AUTO 00000KT 8SM CLR 24/24 A3002 280 97 1500 000/00 RMK AO2 T02440239 $
03949KAQV AQV20160709024510907/09/16 02:45:31  5-MIN KAQV 090845Z AUTO 00000KT 8SM CLR 24/24 A3002 280 97 1500 000/00 RMK AO2 T02440239 $
03949KAQV AQV20160709025012207/09/16 02:50:31  5-MIN KAQV 090850Z AUTO 00000KT 8SM CLR 24/24 A3002 280 97 1500 000/00 RMK AO2 SLP163 T02440239 50017 $
03949KAQV AQV20160709025512207/09/16 02:55:31  5-MIN KAQV 090855Z AUTO 00000KT 7SM CLR 24/24 A3003 280 97 1500 000/00 RMK AO2 SLP164 T02440239 50017 $
03949KAQV AQV20160709030010907/09/16 03:00:31  5-MIN KAQV 090900Z AUTO 00000KT 8SM CLR 24/24 A3003 280 97 1500 000/00 RMK AO2 T02440239 $
03949KAQV AQV20160709030510907/09/16 03:05:31  5-MIN KAQV 090905Z AUTO 00000KT 7SM CLR 24/24 A3003 280 97 1500 000/00 RMK AO2 T02440239 $
03949KAQV AQV20160709031010907/09/16 03:10:31  5-MIN KAQV 090910Z AUTO 00000KT 7SM CLR 24/24 A3003 270 97 1500 000/00 RMK AO2 T02440239 $
03949KAQV AQV20160709031510907/09/16 03:15:31  5-MIN KAQV 090915Z AUTO 00000KT 8SM CLR 24/24 A3004 270 97 1500 000/00 RMK AO2 T02440239 $
03949KAQV AQV20160709032010907/09/16 03:20:31  5-MIN KAQV 090920Z AUTO 00000KT 8SM CLR 24/24 A3004 270 97 1500 000/00 RMK AO2 T02440239 $
03949KAQV AQV20160709032510907/09/16 03:25:31  5-MIN KAQV 090925Z AUTO 00000KT 8SM CLR 24/24 A3004 270 97 1500 000/00 RMK AO2 T02440239 $
03949KAQV AQV20160709033010907/09/16 03:30:31  5-MIN KAQV 090930Z AUTO 00000KT 8SM CLR 24/24 A3004 270 97 1500 000/00 RMK AO2 T02440239 $
03949KAQV AQV20160709033510907/09/16 03:35:31  5-MIN KAQV 090935Z AUTO 00000KT 8SM CLR 24/24 A3004 270 97 1500 000/00 RMK AO2 T02440239 $
03949KAQV AQV20160709034010907/09/16 03:40:31  5-MIN KAQV 090940Z AUTO 00000KT 8SM CLR 24/24 A3004 270 97 1500 000/00 RMK AO2 T02440239 $
03949KAQV AQV20160709034510907/09/16 03:45:31  5-MIN KAQV 090945Z AUTO 00000KT 7SM CLR 24/24 A3004 260 97 1500 000/00 RMK AO2 T02440239 $
03949KAQV AQV20160709035011607/09/16 03:50:31  5-MIN KAQV 090950Z AUTO 00000KT 7SM CLR 24/23 A3004 260 97 1400 000/00 RMK AO2 SLP169 T02390233 $
03949KAQV AQV20160709035511907/09/16 03:55:31  5-MIN KAQV 090955Z AUTO 00000KT 6SM BR CLR 24/23 A3005 260 97 1400 000/00 RMK AO2 SLP170 T02390233 $
03949KAQV AQV20160709040011207/09/16 04:00:31  5-MIN KAQV 091000Z AUTO 00000KT 6SM BR CLR 24/23 A3005 260 97 1400 000/00 RMK AO2 T02390233 $
03949KAQV AQV20160709040511207/09/16 04:05:31  5-MIN KAQV 091005Z AUTO 00000KT 5SM BR CLR 24/23 A3005 260 97 1400 000/00 RMK AO2 T02390233 $
03949KAQV AQV20160709041011207/09/16 04:10:31  5-MIN KAQV 091010Z AUTO 00000KT 5SM BR CLR 24/23 A3005 250 97 1400 000/00 RMK AO2 T02390233 $
03949KAQV AQV20160709041511207/09/16 04:15:31  5-MIN KAQV 091015Z AUTO 00000KT 5SM BR CLR 24/23 A3006 250 97 1400 000/00 RMK AO2 T02390233 $
03949KAQV AQV20160709042011207/09/16 04:20:31  5-MIN KAQV 091020Z AUTO 00000KT 6SM BR CLR 24/23 A3006 250 97 1400 000/00 RMK AO2 T02390233 $
03949KAQV AQV20160709042511207/09/16 04:25:31  5-MIN KAQV 091025Z AUTO 00000KT 5SM BR CLR 24/23 A3006 250 97 1400 000/00 RMK AO2 T02390233 $
03949KAQV AQV20160709043011207/09/16 04:30:31  5-MIN KAQV 091030Z AUTO 00000KT 5SM BR CLR 24/23 A3006 250 97 1400 000/00 RMK AO2 T02390233 $
03949KAQV AQV20160709043511207/09/16 04:35:31  5-MIN KAQV 091035Z AUTO 00000KT 5SM BR CLR 24/23 A3006 250 97 1400 000/00 RMK AO2 T02390233 $
03949KAQV AQV20160709044011207/09/16 04:40:31  5-MIN KAQV 091040Z AUTO 00000KT 5SM BR CLR 24/23 A3006 240 97 1400 000/00 RMK AO2 T02390233 $
03949KAQV AQV20160709044511207/09/16 04:45:31  5-MIN KAQV 091045Z AUTO 00000KT 5SM BR CLR 24/23 A3007 240 97 1400 000/00 RMK AO2 T02390233 $
03949KAQV AQV20160709045011907/09/16 04:50:31  5-MIN KAQV 091050Z AUTO 00000KT 5SM BR CLR 24/23 A3006 240 97 1400 000/00 RMK AO2 SLP176 T02390233 $
03949KAQV AQV20160709045511907/09/16 04:55:31  5-MIN KAQV 091055Z AUTO 00000KT 4SM BR CLR 24/23 A3006 240 97 1400 000/00 RMK AO2 SLP176 T02390233 $
03949KAQV AQV20160709050011207/09/16 05:00:31  5-MIN KAQV 091100Z AUTO 00000KT 4SM BR CLR 24/23 A3006 240 97 1400 000/00 RMK AO2 T02390233 $
03949KAQV AQV20160709050511207/09/16 05:05:31  5-MIN KAQV 091105Z AUTO 00000KT 4SM BR CLR 24/23 A3006 240 97 1400 000/00 RMK AO2 T02390233 $
03949KAQV AQV20160709051011207/09/16 05:10:31  5-MIN KAQV 091110Z AUTO 00000KT 3SM BR CLR 24/23 A3006 240 97 1400 000/00 RMK AO2 T02390233 $
03949KAQV AQV20160709051511207/09/16 05:15:31  5-MIN KAQV 091115Z AUTO 00000KT 3SM BR CLR 24/23 A3006 240 97 1400 000/00 RMK AO2 T02390233 $
03949KAQV AQV20160709052011207/09/16 05:20:31  5-MIN KAQV 091120Z AUTO 00000KT 4SM BR CLR 24/23 A3006 240 97 1400 000/00 RMK AO2 T02390233 $
03949KAQV AQV20160709052511207/09/16 05:25:31  5-MIN KAQV 091125Z AUTO 00000KT 4SM BR CLR 24/23 A3007 240 97 1400 000/00 RMK AO2 T02390233 $
03949KAQV AQV20160709053011207/09/16 05:30:31  5-MIN KAQV 091130Z AUTO 00000KT 3SM BR CLR 24/23 A3007 240 97 1400 000/00 RMK AO2 T02390233 $
03949KAQV AQV20160709053511207/09/16 05:35:31  5-MIN KAQV 091135Z AUTO 00000KT 3SM BR CLR 23/23 A3007 240 97 1300 000/00 RMK AO2 T02330228 $
03949KAQV AQV20160709054011207/09/16 05:40:31  5-MIN KAQV 091140Z AUTO 00000KT 3SM BR CLR 23/23 A3007 240 97 1300 000/00 RMK AO2 T02330228 $
03949KAQV AQV20160709054511207/09/16 05:45:31  5-MIN KAQV 091145Z AUTO 00000KT 3SM BR CLR 23/23 A3008 230 97 1300 000/00 RMK AO2 T02330228 $
03949KAQV AQV20160709055013707/09/16 05:50:31  5-MIN KAQV 091150Z AUTO 00000KT 3SM BR CLR 23/23 A3008 230 97 1300 000/00 RMK AO2 SLP181 T02330228 10250 20233 55006 $
03949KAQV AQV20160709055513707/09/16 05:55:31  5-MIN KAQV 091155Z AUTO 00000KT 3SM BR CLR 23/23 A3008 230 97 1300 000/00 RMK AO2 SLP181 T02330228 10250 20233 55006 $
03949KAQV AQV20160709060011207/09/16 06:00:31  5-MIN KAQV 091200Z AUTO 00000KT 4SM BR CLR 23/23 A3008 230 97 1300 000/00 RMK AO2 T02330228 $
03949KAQV AQV20160709060511307/09/16 06:05:31  5-MIN KAQV 091205Z AUTO 00000KT 4SM BR CLR 23/23 A3008 230 100 1300 000/00 RMK AO2 T02330233 $
03949KAQV AQV20160709061011207/09/16 06:10:31  5-MIN KAQV 091210Z AUTO 00000KT 4SM BR CLR 24/23 A3008 230 97 1400 000/00 RMK AO2 T02390233 $
03949KAQV AQV20160709061511207/09/16 06:15:31  5-MIN KAQV 091215Z AUTO 00000KT 4SM BR CLR 24/23 A3008 230 97 1400 000/00 RMK AO2 T02390233 $
03949KAQV AQV20160709062011207/09/16 06:20:31  5-MIN KAQV 091220Z AUTO 00000KT 4SM BR CLR 24/23 A3008 230 97 1400 000/00 RMK AO2 T02390233 $
03949KAQV AQV20160709062511207/09/16 06:25:31  5-MIN KAQV 091225Z AUTO 00000KT 5SM BR CLR 24/24 A3008 230 97 1400 000/00 RMK AO2 T02440239 $
03949KAQV AQV20160709063011207/09/16 06:30:31  5-MIN KAQV 091230Z AUTO 00000KT 6SM BR CLR 24/24 A3008 230 97 1400 000/00 RMK AO2 T02440239 $
03949KAQV AQV20160709063510907/09/16 06:35:31  5-MIN KAQV 091235Z AUTO 00000KT 7SM CLR 25/24 A3008 230 97 1500 000/00 RMK AO2 T02500244 $
03949KAQV AQV20160709064010907/09/16 06:40:31  5-MIN KAQV 091240Z AUTO VRB04KT 8SM CLR 25/24 A3008 230 97 1500 VRB/04 RMK AO2 T02500244 $
03949KAQV AQV20160709064510907/09/16 06:45:31  5-MIN KAQV 091245Z AUTO VRB03KT 9SM CLR 25/24 A3008 230 97 1500 VRB/03 RMK AO2 T02500244 $
03949KAQV AQV20160709065011607/09/16 06:50:31  5-MIN KAQV 091250Z AUTO 22005KT 9SM CLR 25/24 A3008 230 97 1500 220/05 RMK AO2 SLP183 T02500244 $
03949KAQV AQV20160709065511707/09/16 06:55:31  5-MIN KAQV 091255Z AUTO VRB03KT 10SM CLR 25/24 A3008 230 97 1500 VRB/03 RMK AO2 SLP183 T02500244 $
03949KAQV AQV20160709070011007/09/16 07:00:31  5-MIN KAQV 091300Z AUTO VRB03KT 10SM CLR 26/24 A3008 230 93 1500 VRB/03 RMK AO2 T02560244 $
03949KAQV AQV20160709070511007/09/16 07:05:31  5-MIN KAQV 091305Z AUTO 24005KT 10SM CLR 26/24 A3008 230 93 1500 230/05 RMK AO2 T02560244 $
03949KAQV AQV20160709071011007/09/16 07:10:31  5-MIN KAQV 091310Z AUTO VRB04KT 10SM CLR 25/24 A3008 230 97 1500 VRB/04 RMK AO2 T02500244 $
03949KAQV AQV20160709071511007/09/16 07:15:31  5-MIN KAQV 091315Z AUTO 00000KT 10SM CLR 26/24 A3008 230 93 1500 000/00 RMK AO2 T02560244 $
03949KAQV AQV20160709072011007/09/16 07:20:31  5-MIN KAQV 091320Z AUTO VRB05KT 10SM CLR 26/24 A3008 230 93 1500 VRB/05 RMK AO2 T02560244 $
03949KAQV AQV20160709072511007/09/16 07:25:31  5-MIN KAQV 091325Z AUTO VRB05KT 10SM CLR 26/24 A3009 220 90 1500 VRB/05 RMK AO2 T02560239 $
03949KAQV AQV20160709073011007/09/16 07:30:31  5-MIN KAQV 091330Z AUTO VRB05KT 10SM CLR 26/24 A3009 220 90 1500 VRB/05 RMK AO2 T02560239 $
03949KAQV AQV20160709073511007/09/16 07:35:31  5-MIN KAQV 091335Z AUTO VRB05KT 10SM CLR 26/24 A3009 220 93 1500 VRB/05 RMK AO2 T02560244 $
03949KAQV AQV20160709074011207/09/16 07:40:31  5-MIN KAQV 091340Z AUTO VRB05KT 9SM FEW014 26/24 A3008 220 90 1500 VRB/05 RMK AO2 T02560239 $
03949KAQV AQV20160709074511207/09/16 07:45:31  5-MIN KAQV 091345Z AUTO VRB04KT 9SM FEW014 26/24 A3009 220 93 1500 VRB/04 RMK AO2 T02560244 $
03949KAQV AQV20160709075012007/09/16 07:50:31  5-MIN KAQV 091350Z AUTO VRB05KT 10SM SCT014 26/24 A3009 220 93 1500 VRB/05 RMK AO2 SLP184 T02560244 $
03949KAQV AQV20160709075512707/09/16 07:55:31  5-MIN KAQV 091355Z AUTO VRB06KT 10SM SCT014 SCT020 26/24 A3009 220 93 1500 VRB/06 RMK AO2 SLP184 T02560244 $
03949KAQV AQV20160709080012007/09/16 08:00:31  5-MIN KAQV 091400Z AUTO VRB05KT 10SM SCT014 SCT020 26/24 A3009 220 87 1600 VRB/05 RMK AO2 T02610239 $
03949KAQV AQV20160709080511307/09/16 08:05:31  5-MIN KAQV 091405Z AUTO VRB05KT 10SM SCT014 26/24 A3009 220 90 1500 VRB/05 RMK AO2 T02560239 $
03949KAQV AQV20160709081012007/09/16 08:10:31  5-MIN KAQV 091410Z AUTO VRB03KT 10SM SCT015 SCT020 26/24 A3009 220 90 1500 VRB/03 RMK AO2 T02560239 $
03949KAQV AQV20160709081511307/09/16 08:15:31  5-MIN KAQV 091415Z AUTO VRB04KT 10SM BKN017 26/24 A3009 220 87 1600 VRB/04 RMK AO2 T02610239 $
03949KAQV AQV20160709082011307/09/16 08:20:31  5-MIN KAQV 091420Z AUTO VRB06KT 10SM BKN019 27/24 A3009 220 84 1700 VRB/06 RMK AO2 T02670239 $
03949KAQV AQV20160709082512007/09/16 08:25:31  5-MIN KAQV 091425Z AUTO 21006KT 10SM SCT019 BKN024 27/24 A3008 220 84 1700 210/06 RMK AO2 T02670239 $
03949KAQV AQV20160709083012007/09/16 08:30:31  5-MIN KAQV 091430Z AUTO VRB04KT 10SM FEW017 SCT022 27/23 A3008 220 82 1700 VRB/04 RMK AO2 T02670233 $
03949KAQV AQV20160709083512007/09/16 08:35:31  5-MIN KAQV 091435Z AUTO VRB03KT 10SM SCT019 SCT027 27/23 A3008 220 79 1700 VRB/03 RMK AO2 T02720233 $
03949KAQV AQV20160709084011207/09/16 08:40:31  5-MIN KAQV 091440Z AUTO 25005KT 9SM SCT021 28/23 A3008 230 76 1800 250/05 RMK AO2 T02780233 $
03949KAQV AQV20160709084511207/09/16 08:45:31  5-MIN KAQV 091445Z AUTO VRB05KT 9SM BKN023 28/24 A3008 230 76 1900 VRB/05 RMK AO2 T02830239 $
03949KAQV AQV20160709085013207/09/16 08:50:31  5-MIN KAQV 091450Z AUTO VRB05KT 8SM BKN023 BKN028 29/24 A3008 230 74 1900 VRB/05 RMK AO2 SLP183 T02890239 51016 $
03949KAQV AQV20160709085513907/09/16 08:55:31  5-MIN KAQV 091455Z AUTO VRB05KT 8SM SCT021 BKN026 BKN033 28/23 A3008 230 76 1800 VRB/05 RMK AO2 SLP183 T02780233 51016 $
03949KAQV AQV20160709090012707/09/16 09:00:31  5-MIN KAQV 091500Z AUTO VRB04KT 10SM SCT021 BKN026 BKN033 28/23 A3008 230 76 1800 VRB/04 RMK AO2 T02780233 $
03949KAQV AQV20160709090512007/09/16 09:05:31  5-MIN KAQV 091505Z AUTO VRB05KT 10SM SCT023 SCT029 28/23 A3008 230 76 1800 VRB/05 RMK AO2 T02780233 $
03949KAQV AQV20160709091011307/09/16 09:10:31  5-MIN KAQV 091510Z AUTO VRB06KT 10SM FEW023 28/23 A3008 230 74 1900 VRB/06 RMK AO2 T02830233 $
03949KAQV AQV20160709091512007/09/16 09:15:31  5-MIN KAQV 091515Z AUTO VRB03KT 10SM FEW021 FEW033 29/23 A3008 230 69 2000 VRB/03 RMK AO2 T02940233 $
03949KAQV AQV20160709092011307/09/16 09:20:31  5-MIN KAQV 091520Z AUTO VRB04KT 10SM FEW029 29/23 A3008 230 69 2000 VRB/04 RMK AO2 T02940233 $
03949KAQV AQV20160709092511307/09/16 09:25:31  5-MIN KAQV 091525Z AUTO VRB04KT 10SM SCT027 29/23 A3008 230 69 2000 VRB/04 RMK AO2 T02940233 $
03949KAQV AQV20160709093011307/09/16 09:30:31  5-MIN KAQV 091530Z AUTO VRB03KT 10SM FEW027 31/24 A3008 230 67 2100 VRB/03 RMK AO2 T03060239 $
03949KAQV AQV20160709093511307/09/16 09:35:31  5-MIN KAQV 091535Z AUTO VRB04KT 10SM SCT025 30/23 A3008 230 67 2000 VRB/04 RMK AO2 T03000233 $
03949KAQV AQV20160709094011307/09/16 09:40:31  5-MIN KAQV 091540Z AUTO VRB04KT 10SM SCT025 29/23 A3008 230 67 2000 VRB/04 RMK AO2 T02940228 $
03949KAQV AQV20160709094511307/09/16 09:45:31  5-MIN KAQV 091545Z AUTO VRB06KT 10SM SCT025 29/23 A3008 230 69 1900 VRB/06 RMK AO2 T02890228 $
03949KAQV AQV20160709095012007/09/16 09:50:31  5-MIN KAQV 091550Z AUTO VRB05KT 10SM FEW025 29/23 A3008 230 69 1900 VRB/05 RMK AO2 SLP183 T02890228 $
03949KAQV AQV20160709095512007/09/16 09:55:31  5-MIN KAQV 091555Z AUTO 00000KT 10SM FEW025 30/23 A3008 230 67 2000 000/00 RMK AO2 SLP183 T03000233 $
03949KAQV AQV20160709100011307/09/16 10:00:31  5-MIN KAQV 091600Z AUTO VRB05KT 10SM FEW025 31/23 A3008 230 63 2200 VRB/05 RMK AO2 T03110233 $
03949KAQV AQV20160709100511307/09/16 10:05:31  5-MIN KAQV 091605Z AUTO VRB05KT 10SM FEW027 31/23 A3009 220 62 2100 VRB/05 RMK AO2 T03060228 $
03949KAQV AQV20160709101012007/09/16 10:10:31  5-MIN KAQV 091610Z AUTO VRB05KT 10SM SCT027 SCT038 30/23 A3009 220 65 2000 VRB/05 RMK AO2 T03000228 $
03949KAQV AQV20160709101512007/09/16 10:15:31  5-MIN KAQV 091615Z AUTO VRB03KT 10SM SCT027 BKN038 29/23 A3009 220 67 2000 VRB/03 RMK AO2 T02940228 $
03949KAQV AQV20160709102011007/09/16 10:20:31  5-MIN KAQV 091620Z AUTO 10SM SCT029 SCT036 31/23 A3008 230 62 2100 M /M RMK AO2 T03060228 $
03949KAQV AQV20160709102511307/09/16 10:25:31  5-MIN KAQV 091625Z AUTO VRB05KT 10SM BKN029 32/23 A3008 220 61 2200 VRB/05 RMK AO2 T03170233 $
03949KAQV AQV20160709103011307/09/16 10:30:31  5-MIN KAQV 091630Z AUTO 27006KT 10SM BKN029 32/23 A3009 220 61 2200 270/06 RMK AO2 T03170233 $
03949KAQV AQV20160709103511307/09/16 10:35:31  5-MIN KAQV 091635Z AUTO VRB05KT 10SM BKN029 31/22 A3009 220 58 2200 VRB/05 RMK AO2 T03110222 $
03949KAQV AQV20160709104011307/09/16 10:40:31  5-MIN KAQV 091640Z AUTO 24005KT 10SM BKN031 31/22 A3009 220 60 2100 240/05 RMK AO2 T03060222 $
03949KAQV AQV20160709104511307/09/16 10:45:31  5-MIN KAQV 091645Z AUTO 21004KT 10SM BKN031 31/22 A3009 220 60 2100 210/04 RMK AO2 T03060222 $
03949KAQV AQV20160709105012007/09/16 10:50:31  5-MIN KAQV 091650Z AUTO 27005KT 10SM BKN031 31/22 A3009 220 60 2100 260/05 RMK AO2 SLP184 T03060222 $
03949KAQV AQV20160709105512007/09/16 10:55:31  5-MIN KAQV 091655Z AUTO VRB05KT 10SM SCT031 26/22 A3008 220 79 1500 VRB/05 RMK AO2 SLP184 T02560217 $
03949KAQV AQV20160709110011307/09/16 11:00:31  5-MIN KAQV 091700Z AUTO VRB03KT 10SM FEW031 31/22 A3008 220 60 2100 VRB/03 RMK AO2 T03060222 $
03949KAQV AQV20160709110511307/09/16 11:05:31  5-MIN KAQV 091705Z AUTO VRB03KT 10SM FEW031 31/22 A3008 230 58 2200 VRB/03 RMK AO2 T03110222 $
03949KAQV AQV20160709111011307/09/16 11:10:31  5-MIN KAQV 091710Z AUTO VRB03KT 10SM SCT034 31/22 A3008 230 58 2200 VRB/03 RMK AO2 T03110222 $
03949KAQV AQV20160709111511307/09/16 11:15:31  5-MIN KAQV 091715Z AUTO VRB04KT 10SM FEW034 32/22 A3008 220 56 2200 VRB/04 RMK AO2 T03170222 $
03949KAQV AQV20160709112011307/09/16 11:20:31  5-MIN KAQV 091720Z AUTO 00000KT 10SM FEW034 32/22 A3008 230 56 2200 000/00 RMK AO2 T03170222 $
03949KAQV AQV20160709112511307/09/16 11:25:31  5-MIN KAQV 091725Z AUTO VRB04KT 10SM FEW034 32/22 A3008 230 55 2300 VRB/04 RMK AO2 T03220222 $
03949KAQV AQV20160709113011307/09/16 11:30:31  5-MIN KAQV 091730Z AUTO VRB04KT 10SM FEW034 32/22 A3008 230 56 2200 VRB/04 RMK AO2 T03170222 $
03949KAQV AQV20160709113511307/09/16 11:35:31  5-MIN KAQV 091735Z AUTO VRB03KT 10SM FEW036 32/22 A3008 230 56 2200 VRB/03 RMK AO2 T03170222 $
03949KAQV AQV20160709114011307/09/16 11:40:31  5-MIN KAQV 091740Z AUTO 18004KT 10SM FEW036 31/22 A3008 230 60 2100 170/04 RMK AO2 T03060222 $
03949KAQV AQV20160709114511307/09/16 11:45:31  5-MIN KAQV 091745Z AUTO VRB04KT 10SM SCT036 32/22 A3008 230 56 2200 VRB/04 RMK AO2 T03170222 $
03949KAQV AQV20160709115013807/09/16 11:50:31  5-MIN KAQV 091750Z AUTO VRB04KT 10SM SCT036 33/22 A3008 230 53 2400 VRB/04 RMK AO2 SLP180 T03280222 10328 20233 50001 $
03949KAQV AQV20160709115513807/09/16 11:55:31  5-MIN KAQV 091755Z AUTO VRB05KT 10SM FEW036 33/22 A3007 230 51 2400 VRB/05 RMK AO2 SLP180 T03280217 10333 20233 50001 $
03949KAQV AQV20160709120012007/09/16 12:00:31  5-MIN KAQV 091800Z AUTO 00000KT 10SM FEW036 SCT044 32/22 A3007 230 53 2300 000/00 RMK AO2 T03220217 $
03949KAQV AQV20160709120512007/09/16 12:05:31  5-MIN KAQV 091805Z AUTO 19004KT 10SM FEW036 SCT044 32/22 A3007 240 55 2300 190/04 RMK AO2 T03220222 $
03949KAQV AQV20160709121012007/09/16 12:10:31  5-MIN KAQV 091810Z AUTO VRB05KT 10SM FEW036 SCT045 32/22 A3007 240 53 2300 VRB/05 RMK AO2 T03220217 $
03949KAQV AQV20160709121511307/09/16 12:15:31  5-MIN KAQV 091815Z AUTO VRB05KT 10SM SCT043 32/22 A3007 240 55 2300 VRB/05 RMK AO2 T03220222 $
03949KAQV AQV20160709122011307/09/16 12:20:31  5-MIN KAQV 091820Z AUTO 16004KT 10SM SCT043 33/22 A3007 240 51 2400 160/04 RMK AO2 T03280217 $
03949KAQV AQV20160709122511307/09/16 12:25:31  5-MIN KAQV 091825Z AUTO VRB06KT 10SM FEW043 34/22 A3006 240 48 2500 VRB/06 RMK AO2 T03390217 $
03949KAQV AQV20160709123011307/09/16 12:30:31  5-MIN KAQV 091830Z AUTO 17006KT 10SM FEW043 33/22 A3006 250 51 2400 170/06 RMK AO2 T03330222 $
03949KAQV AQV20160709123511307/09/16 12:35:31  5-MIN KAQV 091835Z AUTO VRB04KT 10SM FEW043 33/22 A3006 250 50 2400 VRB/04 RMK AO2 T03330217 $
03949KAQV AQV20160709124011307/09/16 12:40:31  5-MIN KAQV 091840Z AUTO VRB06KT 10SM FEW043 34/22 A3006 250 50 2500 VRB/06 RMK AO2 T03390222 $
03949KAQV AQV20160709124511007/09/16 12:45:31  5-MIN KAQV 091845Z AUTO VRB05KT 10SM CLR 34/22 A3005 250 50 2500 VRB/05 RMK AO2 T03390222 $
03949KAQV AQV20160709125012007/09/16 12:50:31  5-MIN KAQV 091850Z AUTO VRB04KT 10SM FEW049 33/22 A3005 250 50 2400 VRB/04 RMK AO2 SLP172 T03330217 $
03949KAQV AQV20160709125512007/09/16 12:55:31  5-MIN KAQV 091855Z AUTO 16004KT 10SM SCT049 33/22 A3005 260 50 2400 150/04 RMK AO2 SLP171 T03330217 $
03949KAQV AQV20160709130011307/09/16 13:00:31  5-MIN KAQV 091900Z AUTO VRB04KT 10SM BKN047 33/22 A3005 260 51 2400 VRB/04 RMK AO2 T03280217 $
03949KAQV AQV20160709130511307/09/16 13:05:31  5-MIN KAQV 091905Z AUTO VRB04KT 10SM BKN047 33/21 A3004 260 46 2400 VRB/04 RMK AO2 T03330206 $
03949KAQV AQV20160709131011307/09/16 13:10:31  5-MIN KAQV 091910Z AUTO 23004KT 10SM BKN047 33/21 A3004 260 48 2500 230/04 RMK AO2 T03330211 $
03949KAQV AQV20160709131512007/09/16 13:15:31  5-MIN KAQV 091915Z AUTO VRB05KT 10SM SCT047 BKN055 34/20 A3004 270 43 2500 VRB/05 RMK AO2 T03390200 $
03949KAQV AQV20160709132012007/09/16 13:20:31  5-MIN KAQV 091920Z AUTO 00000KT 10SM BKN049 BKN060 33/21 A3004 270 46 2500 000/00 RMK AO2 T03330206 $
03949KAQV AQV20160709132512007/09/16 13:25:31  5-MIN KAQV 091925Z AUTO 22006KT 10SM BKN049 BKN060 34/20 A3004 270 43 2500 220/06 RMK AO2 T03390200 $
03949KAQV AQV20160709133011307/09/16 13:30:31  5-MIN KAQV 091930Z AUTO 17005KT 10SM SCT055 34/19 A3003 270 39 2600 170/05 RMK AO2 T03440189 $
03949KAQV AQV20160709133511307/09/16 13:35:31  5-MIN KAQV 091935Z AUTO VRB03KT 10SM SCT055 34/19 A3003 280 40 2600 VRB/03 RMK AO2 T03440194 $
03949KAQV AQV20160709134011307/09/16 13:40:31  5-MIN KAQV 091940Z AUTO VRB06KT 10SM SCT055 34/20 A3003 280 42 2600 VRB/06 RMK AO2 T03440200 $
03949KAQV AQV20160709134511307/09/16 13:45:31  5-MIN KAQV 091945Z AUTO VRB05KT 10SM SCT055 35/19 A3003 280 39 2600 VRB/05 RMK AO2 T03500194 $
03949KAQV AQV20160709135012007/09/16 13:50:31  5-MIN KAQV 091950Z AUTO VRB05KT 10SM FEW055 34/20 A3003 280 42 2600 VRB/05 RMK AO2 SLP163 T03440200 $
03949KAQV AQV20160709135512007/09/16 13:55:31  5-MIN KAQV 091955Z AUTO VRB03KT 10SM FEW055 34/19 A3002 280 40 2600 VRB/03 RMK AO2 SLP162 T03440194 $
03949KAQV AQV20160709140011307/09/16 14:00:31  5-MIN KAQV 092000Z AUTO 28004KT 10SM FEW055 35/20 A3002 280 40 2700 270/04 RMK AO2 T03500200 $
03949KAQV AQV20160709140511307/09/16 14:05:31  5-MIN KAQV 092005Z AUTO VRB03KT 10SM FEW060 33/20 A3002 280 45 2500 VRB/03 RMK AO2 T03330200 $
03949KAQV AQV20160709141011307/09/16 14:10:31  5-MIN KAQV 092010Z AUTO VRB04KT 10SM SCT060 34/21 A3002 290 46 2500 VRB/04 RMK AO2 T03390211 $
03949KAQV AQV20160709141511307/09/16 14:15:31  5-MIN KAQV 092015Z AUTO VRB05KT 10SM SCT060 34/21 A3002 290 45 2500 VRB/05 RMK AO2 T03390206 $
03949KAQV AQV20160709142011307/09/16 14:20:31  5-MIN KAQV 092020Z AUTO VRB03KT 10SM SCT060 34/20 A3002 290 42 2600 VRB/03 RMK AO2 T03440200 $
03949KAQV AQV20160709142511307/09/16 14:25:31  5-MIN KAQV 092025Z AUTO 00000KT 10SM SCT060 33/20 A3001 290 45 2500 000/00 RMK AO2 T03330200 $
03949KAQV AQV20160709143011307/09/16 14:30:31  5-MIN KAQV 092030Z AUTO VRB03KT 10SM SCT060 34/21 A3001 290 46 2500 VRB/03 RMK AO2 T03390211 $
03949KAQV AQV20160709143511307/09/16 14:35:31  5-MIN KAQV 092035Z AUTO VRB04KT 10SM SCT055 34/20 A3001 300 43 2600 VRB/04 RMK AO2 T03390200 $
03949KAQV AQV20160709144011307/09/16 14:40:31  5-MIN KAQV 092040Z AUTO VRB05KT 10SM FEW055 34/20 A3000 300 42 2600 VRB/05 RMK AO2 T03440200 $
03949KAQV AQV20160709144511307/09/16 14:45:31  5-MIN KAQV 092045Z AUTO VRB05KT 10SM FEW055 34/21 A3000 300 45 2600 VRB/05 RMK AO2 T03440211 $
03949KAQV AQV20160709145012607/09/16 14:50:31  5-MIN KAQV 092050Z AUTO VRB05KT 10SM FEW060 34/21 A3000 300 45 2600 VRB/05 RMK AO2 SLP154 T03390206 58002 $
03949KAQV AQV20160709145512607/09/16 14:55:31  5-MIN KAQV 092055Z AUTO VRB04KT 10SM FEW060 33/21 A3000 300 46 2500 VRB/04 RMK AO2 SLP154 T03330206 58002 $
03949KAQV AQV20160709150011307/09/16 15:00:31  5-MIN KAQV 092100Z AUTO 17004KT 10SM SCT055 33/21 A3000 310 46 2500 170/04 RMK AO2 T03330206 $
03949KAQV AQV20160709150511307/09/16 15:05:31  5-MIN KAQV 092105Z AUTO VRB04KT 10SM SCT060 34/21 A3000 310 43 2600 VRB/04 RMK AO2 T03440206 $
03949KAQV AQV20160709151011307/09/16 15:10:31  5-MIN KAQV 092110Z AUTO VRB04KT 10SM SCT060 34/21 A3000 310 43 2600 VRB/04 RMK AO2 T03440206 $
03949KAQV AQV20160709151511307/09/16 15:15:31  5-MIN KAQV 092115Z AUTO 19006KT 10SM FEW060 34/21 A3000 310 43 2600 190/06 RMK AO2 T03440206 $
03949KAQV AQV20160709152011307/09/16 15:20:31  5-MIN KAQV 092120Z AUTO 19006KT 10SM FEW060 34/21 A3000 310 43 2600 190/06 RMK AO2 T03440206 $
03949KAQV AQV20160709152511307/09/16 15:25:31  5-MIN KAQV 092125Z AUTO VRB04KT 10SM FEW060 34/21 A3000 310 43 2600 VRB/04 RMK AO2 T03440206 $
03949KAQV AQV20160709153011307/09/16 15:30:31  5-MIN KAQV 092130Z AUTO VRB05KT 10SM FEW060 34/21 A3000 300 43 2600 VRB/05 RMK AO2 T03440206 $
03949KAQV AQV20160709153511307/09/16 15:35:31  5-MIN KAQV 092135Z AUTO 19005KT 10SM SCT060 34/21 A3000 300 43 2600 180/05 RMK AO2 T03440206 $
03949KAQV AQV20160709154011307/09/16 15:40:31  5-MIN KAQV 092140Z AUTO VRB05KT 10SM SCT060 34/21 A3000 300 45 2600 VRB/05 RMK AO2 T03440211 $
03949KAQV AQV20160709154511307/09/16 15:45:31  5-MIN KAQV 092145Z AUTO 21005KT 10SM BKN060 35/21 A3000 310 43 2700 210/05 RMK AO2 T03500211 $
03949KAQV AQV20160709155012007/09/16 15:50:31  5-MIN KAQV 092150Z AUTO VRB06KT 10SM BKN060 34/21 A2999 310 43 2600 VRB/06 RMK AO2 SLP152 T03440206 $
03949KAQV AQV20160709155512007/09/16 15:55:31  5-MIN KAQV 092155Z AUTO 20003KT 10SM SCT060 34/21 A3000 310 45 2600 200/03 RMK AO2 SLP153 T03440211 $
03949KAQV AQV20160709160011307/09/16 16:00:31  5-MIN KAQV 092200Z AUTO 26005KT 10SM SCT060 34/21 A3000 310 43 2600 260/05 RMK AO2 T03440206 $
03949KAQV AQV20160709160511307/09/16 16:05:31  5-MIN KAQV 092205Z AUTO 27003KT 10SM FEW060 34/21 A3000 310 43 2600 260/03 RMK AO2 T03440206 $
03949KAQV AQV20160709161011307/09/16 16:10:31  5-MIN KAQV 092210Z AUTO 27005KT 10SM FEW060 34/21 A2999 310 45 2600 270/05 RMK AO2 T03390206 $
03949KAQV AQV20160709161511307/09/16 16:15:31  5-MIN KAQV 092215Z AUTO VRB04KT 10SM FEW060 33/21 A2999 310 46 2500 VRB/04 RMK AO2 T03330206 $
03949KAQV AQV20160709162011007/09/16 16:20:31  5-MIN KAQV 092220Z AUTO VRB04KT 10SM CLR 34/21 A2999 310 46 2600 VRB/04 RMK AO2 T03390211 $
03949KAQV AQV20160709162511007/09/16 16:25:31  5-MIN KAQV 092225Z AUTO 25004KT 10SM CLR 34/21 A2999 310 45 2600 250/04 RMK AO2 T03390206 $
03949KAQV AQV20160709163011007/09/16 16:30:31  5-MIN KAQV 092230Z AUTO 25005KT 10SM CLR 34/21 A2999 310 45 2600 250/05 RMK AO2 T03390206 $
03949KAQV AQV20160709163511007/09/16 16:35:31  5-MIN KAQV 092235Z AUTO VRB03KT 10SM CLR 34/21 A2999 320 45 2600 VRB/03 RMK AO2 T03390206 $
03949KAQV AQV20160709164011007/09/16 16:40:31  5-MIN KAQV 092240Z AUTO 00000KT 10SM CLR 34/20 A2998 320 42 2600 000/00 RMK AO2 T03440200 $
03949KAQV AQV20160709164511007/09/16 16:45:31  5-MIN KAQV 092245Z AUTO VRB04KT 10SM CLR 34/21 A2998 320 43 2600 VRB/04 RMK AO2 T03440206 $
03949KAQV AQV20160709165011707/09/16 16:50:31  5-MIN KAQV 092250Z AUTO VRB03KT 10SM CLR 34/20 A2998 320 42 2600 VRB/03 RMK AO2 SLP148 T03440200 $
03949KAQV AQV20160709165511707/09/16 16:55:31  5-MIN KAQV 092255Z AUTO VRB04KT 10SM CLR 34/20 A2998 320 42 2600 VRB/04 RMK AO2 SLP147 T03440200 $
03949KAQV AQV20160709170011007/09/16 17:00:31  5-MIN KAQV 092300Z AUTO VRB04KT 10SM CLR 34/20 A2998 320 43 2600 VRB/04 RMK AO2 T03390200 $
03949KAQV AQV20160709170511007/09/16 17:05:31  5-MIN KAQV 092305Z AUTO VRB04KT 10SM CLR 34/20 A2998 320 43 2600 VRB/04 RMK AO2 T03390200 $
03949KAQV AQV20160709171011007/09/16 17:10:31  5-MIN KAQV 092310Z AUTO VRB03KT 10SM CLR 34/20 A2997 330 43 2600 VRB/03 RMK AO2 T03390200 $
03949KAQV AQV20160709171511007/09/16 17:15:31  5-MIN KAQV 092315Z AUTO 19004KT 10SM CLR 34/21 A2997 330 45 2600 180/04 RMK AO2 T03390206 $
03949KAQV AQV20160709172011007/09/16 17:20:31  5-MIN KAQV 092320Z AUTO VRB03KT 10SM CLR 33/21 A2997 330 46 2500 VRB/03 RMK AO2 T03330206 $
03949KAQV AQV20160709172511007/09/16 17:25:31  5-MIN KAQV 092325Z AUTO 00000KT 10SM CLR 33/21 A2997 330 46 2500 000/00 RMK AO2 T03330206 $
03949KAQV AQV20160709173011007/09/16 17:30:31  5-MIN KAQV 092330Z AUTO VRB03KT 10SM CLR 33/21 A2997 330 46 2500 VRB/03 RMK AO2 T03330206 $
03949KAQV AQV20160709173511007/09/16 17:35:31  5-MIN KAQV 092335Z AUTO VRB03KT 10SM CLR 33/21 A2997 330 46 2500 VRB/03 RMK AO2 T03330206 $
03949KAQV AQV20160709174011007/09/16 17:40:31  5-MIN KAQV 092340Z AUTO 20003KT 10SM CLR 34/21 A2997 330 46 2600 200/03 RMK AO2 T03390211 $
03949KAQV AQV20160709174511007/09/16 17:45:31  5-MIN KAQV 092345Z AUTO 21003KT 10SM CLR 33/21 A2996 340 46 2500 210/03 RMK AO2 T03330206 $
03949KAQV AQV20160709175013507/09/16 17:50:31  5-MIN KAQV 092350Z AUTO 19004KT 10SM CLR 33/21 A2996 340 48 2500 180/04 RMK AO2 SLP142 T03330211 10350 20322 57025 $
03949KAQV AQV20160709175513507/09/16 17:55:31  5-MIN KAQV 092355Z AUTO 19003KT 10SM CLR 33/21 A2996 340 48 2500 190/03 RMK AO2 SLP141 T03330211 10350 20322 57025 $
03949KAQV AQV20160709180011007/09/16 18:00:31  5-MIN KAQV 100000Z AUTO 18005KT 10SM CLR 33/21 A2996 340 48 2500 180/05 RMK AO2 T03330211 $
03949KAQV AQV20160709180511007/09/16 18:05:31  5-MIN KAQV 100005Z AUTO 00000KT 10SM CLR 33/21 A2996 340 49 2500 000/00 RMK AO2 T03280211 $
03949KAQV AQV20160709181011007/09/16 18:10:31  5-MIN KAQV 100010Z AUTO 19004KT 10SM CLR 33/22 A2996 340 51 2500 190/04 RMK AO2 T03280217 $
03949KAQV AQV20160709181511007/09/16 18:15:31  5-MIN KAQV 100015Z AUTO VRB04KT 10SM CLR 33/22 A2996 340 51 2500 VRB/04 RMK AO2 T03280217 $
03949KAQV AQV20160709182011007/09/16 18:20:31  5-MIN KAQV 100020Z AUTO 20003KT 10SM CLR 32/22 A2997 330 53 2400 190/03 RMK AO2 T03220217 $
03949KAQV AQV20160709182511007/09/16 18:25:31  5-MIN KAQV 100025Z AUTO 18003KT 10SM CLR 32/22 A2997 330 53 2400 180/03 RMK AO2 T03220217 $
03949KAQV AQV20160709183011007/09/16 18:30:31  5-MIN KAQV 100030Z AUTO 00000KT 10SM CLR 32/22 A2997 330 55 2400 000/00 RMK AO2 T03220222 $
03949KAQV AQV20160709183511007/09/16 18:35:31  5-MIN KAQV 100035Z AUTO 00000KT 10SM CLR 32/22 A2997 330 55 2400 000/00 RMK AO2 T03220222 $
03949KAQV AQV20160709184011007/09/16 18:40:31  5-MIN KAQV 100040Z AUTO 00000KT 10SM CLR 32/22 A2997 330 56 2300 000/00 RMK AO2 T03170222 $
03949KAQV AQV20160709184511007/09/16 18:45:31  5-MIN KAQV 100045Z AUTO 00000KT 10SM CLR 32/22 A2997 330 56 2300 000/00 RMK AO2 T03170222 $
03949KAQV AQV20160709185011707/09/16 18:50:31  5-MIN KAQV 100050Z AUTO 00000KT 10SM CLR 31/23 A2997 330 60 2300 000/00 RMK AO2 SLP146 T03110228 $
03949KAQV AQV20160709185511707/09/16 18:55:31  5-MIN KAQV 100055Z AUTO 00000KT 10SM CLR 31/23 A2998 320 65 2200 000/00 RMK AO2 SLP147 T03060233 $
03949KAQV AQV20160709190011007/09/16 19:00:31  5-MIN KAQV 100100Z AUTO 00000KT 10SM CLR 30/23 A2997 330 67 2200 000/00 RMK AO2 T03000233 $
03949KAQV AQV20160709190511007/09/16 19:05:31  5-MIN KAQV 100105Z AUTO 00000KT 10SM CLR 29/24 A2998 320 71 2100 000/00 RMK AO2 T02940239 $
03949KAQV AQV20160709191011007/09/16 19:10:31  5-MIN KAQV 100110Z AUTO 00000KT 10SM CLR 29/23 A2998 320 69 2100 000/00 RMK AO2 T02940233 $
03949KAQV AQV20160709191511007/09/16 19:15:31  5-MIN KAQV 100115Z AUTO 00000KT 10SM CLR 29/24 A2998 320 74 2000 000/00 RMK AO2 T02890239 $
03949KAQV AQV20160709192010907/09/16 19:20:31  5-MIN KAQV 100120Z AUTO 00000KT 8SM CLR 28/24 A2998 320 76 2000 000/00 RMK AO2 T02830239 $
03949KAQV AQV20160709192511207/09/16 19:25:31  5-MIN KAQV 100125Z AUTO 00000KT 4SM HZ CLR 28/24 A2998 320 79 2000 000/00 RMK AO2 T02830244 $
03949KAQV AQV20160709193011207/09/16 19:30:31  5-MIN KAQV 100130Z AUTO 00000KT 4SM HZ CLR 28/24 A2999 320 76 2000 000/00 RMK AO2 T02830239 $
03949KAQV AQV20160709193510907/09/16 19:35:31  5-MIN KAQV 100135Z AUTO 00000KT 7SM CLR 28/24 A2999 310 76 2000 000/00 RMK AO2 T02830239 $
03949KAQV AQV20160709194010907/09/16 19:40:31  5-MIN KAQV 100140Z AUTO 00000KT 7SM CLR 28/24 A2999 310 76 2000 000/00 RMK AO2 T02830239 $
03949KAQV AQV20160709194510907/09/16 19:45:31  5-MIN KAQV 100145Z AUTO 00000KT 7SM CLR 28/24 A2999 310 79 1900 000/00 RMK AO2 T02780239 $
03949KAQV AQV20160709195011707/09/16 19:50:31  5-MIN KAQV 100150Z AUTO 00000KT 10SM CLR 28/24 A2999 310 79 1900 000/00 RMK AO2 SLP152 T02780239 $
03949KAQV AQV20160709195511707/09/16 19:55:31  5-MIN KAQV 100155Z AUTO 00000KT 10SM CLR 28/24 A3000 310 79 1900 000/00 RMK AO2 SLP154 T02780239 $
03949KAQV AQV20160709200010907/09/16 20:00:31  5-MIN KAQV 100200Z AUTO 00000KT 9SM CLR 28/24 A3000 300 79 1900 000/00 RMK AO2 T02780239 $
03949KAQV AQV20160709200510907/09/16 20:05:31  5-MIN KAQV 100205Z AUTO 00000KT 9SM CLR 28/24 A3000 300 79 1900 000/00 RMK AO2 T02780239 $
03949KAQV AQV20160709201011007/09/16 20:10:31  5-MIN KAQV 100210Z AUTO 00000KT 10SM CLR 28/23 A3000 300 76 1900 000/00 RMK AO2 T02780233 $
03949KAQV AQV20160709201511007/09/16 20:15:31  5-MIN KAQV 100215Z AUTO 00000KT 10SM CLR 27/24 A3000 300 82 1800 000/00 RMK AO2 T02720239 $
03949KAQV AQV20160709202011007/09/16 20:20:31  5-MIN KAQV 100220Z AUTO 00000KT 10SM CLR 27/24 A3000 300 82 1800 000/00 RMK AO2 T02720239 $
03949KAQV AQV20160709202511007/09/16 20:25:31  5-MIN KAQV 100225Z AUTO 00000KT 10SM CLR 27/24 A3000 300 82 1800 000/00 RMK AO2 T02720239 $
03949KAQV AQV20160709203011007/09/16 20:30:31  5-MIN KAQV 100230Z AUTO 00000KT 10SM CLR 27/23 A3000 300 79 1800 000/00 RMK AO2 T02720233 $
03949KAQV AQV20160709203511007/09/16 20:35:31  5-MIN KAQV 100235Z AUTO 00000KT 10SM CLR 27/23 A3000 300 79 1800 000/00 RMK AO2 T02720233 $
03949KAQV AQV20160709204011007/09/16 20:40:31  5-MIN KAQV 100240Z AUTO 18003KT 10SM CLR 27/24 A3000 300 84 1800 170/03 RMK AO2 T02670239 $
03949KAQV AQV20160709204511007/09/16 20:45:31  5-MIN KAQV 100245Z AUTO 00000KT 10SM CLR 27/24 A3000 300 84 1800 000/00 RMK AO2 T02670239 $
03949KAQV AQV20160709205012307/09/16 20:50:31  5-MIN KAQV 100250Z AUTO 00000KT 10SM CLR 27/24 A3000 300 84 1800 000/00 RMK AO2 SLP156 T02670239 58013 $
03949KAQV AQV20160709205512307/09/16 20:55:31  5-MIN KAQV 100255Z AUTO 16003KT 10SM CLR 27/23 A3000 300 82 1800 160/03 RMK AO2 SLP157 T02670233 58013 $
03949KAQV AQV20160709210011007/09/16 21:00:31  5-MIN KAQV 100300Z AUTO 18004KT 10SM CLR 27/23 A3000 300 82 1800 180/04 RMK AO2 T02670233 $
03949KAQV AQV20160709210511007/09/16 21:05:31  5-MIN KAQV 100305Z AUTO 18003KT 10SM CLR 27/23 A3000 300 82 1800 170/03 RMK AO2 T02670233 $
03949KAQV AQV20160709211011007/09/16 21:10:31  5-MIN KAQV 100310Z AUTO 00000KT 10SM CLR 27/23 A3000 300 82 1800 000/00 RMK AO2 T02670233 $
03949KAQV AQV20160709211511007/09/16 21:15:31  5-MIN KAQV 100315Z AUTO 19003KT 10SM CLR 27/23 A3000 300 82 1800 190/03 RMK AO2 T02670233 $
03949KAQV AQV20160709212011007/09/16 21:20:31  5-MIN KAQV 100320Z AUTO 00000KT 10SM CLR 27/23 A3000 300 79 1800 000/00 RMK AO2 T02720233 $
03949KAQV AQV20160709212511007/09/16 21:25:31  5-MIN KAQV 100325Z AUTO VRB04KT 10SM CLR 27/23 A3000 300 82 1800 VRB/04 RMK AO2 T02670233 $
03949KAQV AQV20160709213011007/09/16 21:30:31  5-MIN KAQV 100330Z AUTO VRB03KT 10SM CLR 27/23 A3000 300 82 1800 VRB/03 RMK AO2 T02670233 $
03949KAQV AQV20160709213511007/09/16 21:35:31  5-MIN KAQV 100335Z AUTO VRB04KT 10SM CLR 27/23 A3000 300 82 1800 VRB/04 RMK AO2 T02670233 $
03949KAQV AQV20160709214011007/09/16 21:40:31  5-MIN KAQV 100340Z AUTO 19003KT 10SM CLR 27/23 A3000 300 82 1800 180/03 RMK AO2 T02670233 $
03949KAQV AQV20160709214511007/09/16 21:45:31  5-MIN KAQV 100345Z AUTO 19004KT 10SM CLR 27/23 A3001 300 79 1800 190/04 RMK AO2 T02720233 $
03949KAQV AQV20160709215011707/09/16 21:50:31  5-MIN KAQV 100350Z AUTO 18004KT 10SM CLR 27/23 A3001 290 79 1800 180/04 RMK AO2 SLP158 T02720233 $
03949KAQV AQV20160709215511707/09/16 21:55:31  5-MIN KAQV 100355Z AUTO VRB03KT 10SM CLR 27/23 A3001 290 82 1700 VRB/03 RMK AO2 SLP160 T02670233 $
03949KAQV AQV20160709220011007/09/16 22:00:31  5-MIN KAQV 100400Z AUTO VRB03KT 10SM CLR 27/23 A3002 280 82 1700 VRB/03 RMK AO2 T02670233 $
03949KAQV AQV20160709220511007/09/16 22:05:31  5-MIN KAQV 100405Z AUTO 19003KT 10SM CLR 27/23 A3002 280 82 1700 180/03 RMK AO2 T02670233 $
03949KAQV AQV20160709221011007/09/16 22:10:31  5-MIN KAQV 100410Z AUTO 20003KT 10SM CLR 27/23 A3002 290 82 1700 190/03 RMK AO2 T02670233 $
03949KAQV AQV20160709221511007/09/16 22:15:31  5-MIN KAQV 100415Z AUTO 20003KT 10SM CLR 27/23 A3002 290 82 1700 200/03 RMK AO2 T02670233 $
03949KAQV AQV20160709222011007/09/16 22:20:31  5-MIN KAQV 100420Z AUTO 20003KT 10SM CLR 27/23 A3002 290 82 1700 200/03 RMK AO2 T02670233 $
03949KAQV AQV20160709222511007/09/16 22:25:31  5-MIN KAQV 100425Z AUTO VRB03KT 10SM CLR 27/23 A3002 280 82 1700 VRB/03 RMK AO2 T02670233 $
03949KAQV AQV20160709223011007/09/16 22:30:31  5-MIN KAQV 100430Z AUTO VRB03KT 10SM CLR 27/24 A3002 280 84 1700 VRB/03 RMK AO2 T02670239 $
03949KAQV AQV20160709223511007/09/16 22:35:31  5-MIN KAQV 100435Z AUTO VRB03KT 10SM CLR 27/24 A3002 290 84 1700 VRB/03 RMK AO2 T02670239 $
03949KAQV AQV20160709224011007/09/16 22:40:31  5-MIN KAQV 100440Z AUTO 21004KT 10SM CLR 27/24 A3002 290 84 1700 200/04 RMK AO2 T02670239 $
03949KAQV AQV20160709224511007/09/16 22:45:31  5-MIN KAQV 100445Z AUTO VRB03KT 10SM CLR 27/24 A3002 290 84 1700 VRB/03 RMK AO2 T02670239 $
03949KAQV AQV20160709225011707/09/16 22:50:31  5-MIN KAQV 100450Z AUTO VRB05KT 10SM CLR 27/24 A3002 290 84 1700 VRB/05 RMK AO2 SLP160 T02670239 $
03949KAQV AQV20160709225511707/09/16 22:55:31  5-MIN KAQV 100455Z AUTO VRB03KT 10SM CLR 27/24 A3002 290 84 1700 VRB/03 RMK AO2 SLP161 T02670239 $
03949KAQV AQV20160709230011007/09/16 23:00:31  5-MIN KAQV 100500Z AUTO VRB04KT 10SM CLR 27/24 A3001 290 84 1700 VRB/04 RMK AO2 T02670239 $
03949KAQV AQV20160709230511007/09/16 23:05:31  5-MIN KAQV 100505Z AUTO VRB04KT 10SM CLR 27/24 A3001 290 84 1700 VRB/04 RMK AO2 T02670239 $
03949KAQV AQV20160709231011007/09/16 23:10:31  5-MIN KAQV 100510Z AUTO VRB05KT 10SM CLR 27/24 A3001 290 84 1700 VRB/05 RMK AO2 T02670239 $
03949KAQV AQV20160709231511007/09/16 23:15:31  5-MIN KAQV 100515Z AUTO 18004KT 10SM CLR 27/24 A3001 290 84 1700 180/04 RMK AO2 T02670239 $
03949KAQV AQV20160709232011007/09/16 23:20:31  5-MIN KAQV 100520Z AUTO VRB04KT 10SM CLR 27/24 A3001 290 84 1700 VRB/04 RMK AO2 T02670239 $
03949KAQV AQV20160709232511007/09/16 23:25:31  5-MIN KAQV 100525Z AUTO 19004KT 10SM CLR 26/24 A3001 290 87 1700 180/04 RMK AO2 T02610239 $
03949KAQV AQV20160709233011007/09/16 23:30:31  5-MIN KAQV 100530Z AUTO VRB03KT 10SM CLR 26/23 A3001 290 84 1700 VRB/03 RMK AO2 T02610233 $
03949KAQV AQV20160709233511007/09/16 23:35:31  5-MIN KAQV 100535Z AUTO VRB04KT 10SM CLR 27/23 A3002 290 82 1700 VRB/04 RMK AO2 T02670233 $
03949KAQV AQV20160709234011007/09/16 23:40:31  5-MIN KAQV 100540Z AUTO VRB03KT 10SM CLR 27/23 A3002 290 82 1700 VRB/03 RMK AO2 T02670233 $
03949KAQV AQV20160709234511007/09/16 23:45:31  5-MIN KAQV 100545Z AUTO VRB03KT 10SM CLR 27/23 A3001 290 82 1700 VRB/03 RMK AO2 T02670233 $
03949KAQV AQV20160709235014507/09/16 23:50:31  5-MIN KAQV 100550Z AUTO VRB04KT 10SM CLR 26/23 A3001 290 84 1700 VRB/04 RMK AO2 SLP159 T02610233 10333 20261 403500233 51015 $
03949KAQV AQV20160709235514507/09/16 23:55:31  5-MIN KAQV 100555Z AUTO 20004KT 10SM CLR 26/23 A3002 290 84 1700 190/04 RMK AO2 SLP160 T02610233 10333 20261 403500233 51015 $
03949KAQV AQV20160710000011007/10/16 00:00:31  5-MIN KAQV 100600Z AUTO VRB04KT 10SM CLR 26/23 A3001 290 84 1700 VRB/04 RMK AO2 T02610233 $
03949KAQV AQV20160710000511007/10/16 00:05:31  5-MIN KAQV 100605Z AUTO VRB04KT 10SM CLR 26/23 A3001 290 84 1700 VRB/04 RMK AO2 T02610233 $
03949KAQV AQV20160710001011007/10/16 00:10:31  5-MIN KAQV 100610Z AUTO 22005KT 10SM CLR 26/23 A3001 290 84 1700 210/05 RMK AO2 T02610233 $
03949KAQV AQV20160710001511007/10/16 00:15:31  5-MIN KAQV 100615Z AUTO VRB04KT 10SM CLR 26/23 A3001 290 84 1700 VRB/04 RMK AO2 T02610233 $
03949KAQV AQV20160710002011007/10/16 00:20:31  5-MIN KAQV 100620Z AUTO VRB04KT 10SM CLR 26/24 A3002 290 87 1700 VRB/04 RMK AO2 T02610239 $
03949KAQV AQV20160710002511007/10/16 00:25:31  5-MIN KAQV 100625Z AUTO 00000KT 10SM CLR 26/24 A3002 290 87 1700 000/00 RMK AO2 T02610239 $
03949KAQV AQV20160710003011007/10/16 00:30:31  5-MIN KAQV 100630Z AUTO VRB04KT 10SM CLR 26/24 A3001 290 87 1700 VRB/04 RMK AO2 T02610239 $
03949KAQV AQV20160710003511007/10/16 00:35:31  5-MIN KAQV 100635Z AUTO VRB04KT 10SM CLR 26/24 A3001 290 90 1600 VRB/04 RMK AO2 T02560239 $
03949KAQV AQV20160710004011007/10/16 00:40:31  5-MIN KAQV 100640Z AUTO 21004KT 10SM CLR 24/24 A3001 290 97 1500 200/04 RMK AO2 T02440239 $
03949KAQV AQV20160710004511007/10/16 00:45:31  5-MIN KAQV 100645Z AUTO VRB05KT 10SM CLR 24/24 A3001 290 97 1500 VRB/05 RMK AO2 T02440239 $
03949KAQV AQV20160710005011707/10/16 00:50:31  5-MIN KAQV 100650Z AUTO VRB04KT 10SM CLR 25/24 A3001 290 93 1600 VRB/04 RMK AO2 SLP159 T02500239 $
03949KAQV AQV20160710005511707/10/16 00:55:31  5-MIN KAQV 100655Z AUTO VRB03KT 10SM CLR 24/24 A3001 290 97 1500 VRB/03 RMK AO2 SLP158 T02440239 $
03949KAQV AQV20160710010011007/10/16 01:00:31  5-MIN KAQV 100700Z AUTO VRB03KT 10SM CLR 24/24 A3001 300 97 1500 VRB/03 RMK AO2 T02440239 $
03949KAQV AQV20160710010511007/10/16 01:05:31  5-MIN KAQV 100705Z AUTO 20004KT 10SM CLR 24/24 A3001 300 97 1500 190/04 RMK AO2 T02440239 $
03949KAQV AQV20160710011011007/10/16 01:10:31  5-MIN KAQV 100710Z AUTO 22004KT 10SM CLR 25/24 A3001 300 93 1600 210/04 RMK AO2 T02500239 $
03949KAQV AQV20160710112011007/10/16 11:20:31  5-MIN KAQV 101720Z AUTO VRB03KT 10SM CLR 32/22 A3003 280 55 2300 VRB/03 RMK AO2 T03220222 $
03949KAQV AQV20160710112511307/10/16 11:25:31  5-MIN KAQV 101725Z AUTO VRB05KT 10SM FEW041 33/22 A3002 280 51 2400 VRB/05 RMK AO2 T03280217 $
03949KAQV AQV20160710113011307/10/16 11:30:31  5-MIN KAQV 101730Z AUTO VRB05KT 10SM FEW041 33/21 A3002 280 49 2400 VRB/05 RMK AO2 T03280211 $
03949KAQV AQV20160710113510307/10/16 11:35:31  5-MIN KAQV 101735Z AUTO 10SM FEW041 33/21 A3002 280 48 2500 M /M RMK AO2 T03330211 $
03949KAQV AQV20160710114011307/10/16 11:40:31  5-MIN KAQV 101740Z AUTO VRB03KT 10SM FEW041 34/21 A3002 280 46 2500 VRB/03 RMK AO2 T03390211 $
03949KAQV AQV20160710114512007/10/16 11:45:31  5-MIN KAQV 101745Z AUTO 26006KT 10SM FEW043 FEW050 33/21 A3002 280 48 2400 260/06 RMK AO2 T03280206 $
03949KAQV AQV20160710115013807/10/16 11:50:31  5-MIN KAQV 101750Z AUTO 26009KT 10SM SCT046 32/23 A3002 280 58 2300 260/09 RMK AO2 SLP162 T03170228 10339 20250 50007 $
03949KAQV AQV20160710115513807/10/16 11:55:31  5-MIN KAQV 101755Z AUTO VRB06KT 10SM SCT048 31/23 A3002 280 60 2200 VRB/06 RMK AO2 SLP163 T03110228 10339 20250 50007 $
03949KAQV AQV20160710120012007/10/16 12:00:31  5-MIN KAQV 101800Z AUTO VRB03KT 10SM SCT046 BKN075 31/22 A3002 280 56 2200 VRB/03 RMK AO2 T03110217 $
03949KAQV AQV20160710120512707/10/16 12:05:31  5-MIN KAQV 101805Z AUTO VRB03KT 10SM SCT048 BKN075 BKN095 31/22 A3002 280 60 2200 VRB/03 RMK AO2 T03060222 $
03949KAQV AQV20160710121012707/10/16 12:10:31  5-MIN KAQV 101810Z AUTO VRB04KT 10SM FEW048 SCT075 BKN100 31/23 A3002 290 60 2200 VRB/04 RMK AO2 T03110228 $
03949KAQV AQV20160710121512707/10/16 12:15:31  5-MIN KAQV 101815Z AUTO 27005KT 10SM FEW048 SCT075 BKN095 31/22 A3001 290 60 2200 260/05 RMK AO2 T03060222 $
03949KAQV AQV20160710122012707/10/16 12:20:31  5-MIN KAQV 101820Z AUTO 00000KT 10SM FEW048 SCT075 BKN100 31/22 A3001 290 58 2200 000/00 RMK AO2 T03110222 $
03949KAQV AQV20160710122512007/10/16 12:25:31  5-MIN KAQV 101825Z AUTO VRB03KT 10SM FEW075 BKN100 33/22 A3001 300 51 2400 VRB/03 RMK AO2 T03280217 $
03949KAQV AQV20160710123012007/10/16 12:30:31  5-MIN KAQV 101830Z AUTO VRB04KT 10SM FEW075 BKN100 33/22 A3000 300 50 2500 VRB/04 RMK AO2 T03330217 $
03949KAQV AQV20160710123511307/10/16 12:35:31  5-MIN KAQV 101835Z AUTO VRB03KT 10SM FEW100 33/23 A3000 300 53 2500 VRB/03 RMK AO2 T03330228 $
03949KAQV AQV20160710124011307/10/16 12:40:31  5-MIN KAQV 101840Z AUTO 00000KT 10SM FEW100 33/23 A3000 300 53 2500 000/00 RMK AO2 T03330228 $
03949KAQV AQV20160710124511307/10/16 12:45:31  5-MIN KAQV 101845Z AUTO VRB03KT 10SM FEW100 34/21 A3000 310 45 2600 VRB/03 RMK AO2 T03390206 $
03949KAQV AQV20160710125011707/10/16 12:50:31  5-MIN KAQV 101850Z AUTO VRB03KT 10SM CLR 34/21 A2999 310 45 2600 VRB/03 RMK AO2 SLP152 T03390206 $
03949KAQV AQV20160710125512007/10/16 12:55:31  5-MIN KAQV 101855Z AUTO VRB05KT 10SM FEW048 33/20 A2999 310 45 2500 VRB/05 RMK AO2 SLP152 T03330200 $
03949KAQV AQV20160710130011307/10/16 13:00:31  5-MIN KAQV 101900Z AUTO VRB05KT 10SM FEW048 34/21 A2999 310 45 2600 VRB/05 RMK AO2 T03390206 $
03949KAQV AQV20160710130512207/10/16 13:05:31  5-MIN KAQV 101905Z AUTO 23006KT 10SM TS FEW050 33/20 A2999 310 46 2400 230/06 RMK AO2 TSB01 T03280200 $
03949KAQV AQV20160710131012207/10/16 13:10:31  5-MIN KAQV 101910Z AUTO 24004KT 10SM TS FEW050 32/21 A2999 310 49 2400 240/04 RMK AO2 TSB01 T03220206 $
03949KAQV AQV20160710131512207/10/16 13:15:31  5-MIN KAQV 101915Z AUTO 22006KT 10SM TS SCT047 32/21 A2999 310 53 2300 210/06 RMK AO2 TSB01 T03170211 $
03949KAQV AQV20160710132012207/10/16 13:20:31  5-MIN KAQV 101920Z AUTO VRB03KT 10SM TS FEW047 32/22 A2999 320 55 2300 VRB/03 RMK AO2 TSB01 T03170217 $
03949KAQV AQV20160710132514407/10/16 13:25:31  5-MIN KAQV 101925Z AUTO 23011G20KT 170V270 10SM TS SCT045 31/22 A3000 300 56 2300 230/11G20 170V270 RMK AO2 TSB01 T03110217 $
03949KAQV AQV20160710133015107/10/16 13:30:31  5-MIN KAQV 101930Z AUTO 23007G20KT 190V270 10SM TS SCT045 BKN080 28/21 A3000 300 64 1900 220/07G20 190V270 RMK AO2 TSB01 T02780206 $
03949KAQV AQV20160710133514207/10/16 13:35:31  5-MIN KAQV 101935Z AUTO 22008G20KT 10SM TS SCT045 BKN080 BKN110 26/21 A2999 310 71 1700 220/08G20 RMK AO2 TSB01 T02610206 $
03949KAQV AQV20160710134013607/10/16 13:40:31  5-MIN KAQV 101940Z AUTO VRB04KT 10SM TS FEW045 SCT080 BKN100 26/20 A2998 320 68 1700 VRB/04 RMK AO2 TSB01 T02610200 $
03949KAQV AQV20160710134515107/10/16 13:45:31  5-MIN KAQV 101945Z AUTO VRB03KT 10SM -TSRA FEW045 BKN100 BKN120 26/19 A2999 310 66 1600 VRB/03 RMK AO2 RAB41 TSB01 P0000 T02560189 $
03949KAQV AQV20160710135015807/10/16 13:50:31  5-MIN KAQV 101950Z AUTO VRB06KT 10SM -TSRA FEW044 FEW080 BKN110 26/18 A2999 310 64 1600 VRB/06 RMK AO2 RAB41 TSB01 SLP152 P0000 T02560183 $
03949KAQV AQV20160710135515807/10/16 13:55:31  5-MIN KAQV 101955Z AUTO VRB04KT 10SM -TSRA FEW044 FEW080 BKN110 26/18 A2999 310 59 1700 VRB/04 RMK AO2 RAB41 TSB01 SLP152 P0000 T02610178 $
03949KAQV AQV20160710140013707/10/16 14:00:31  5-MIN KAQV 102000Z AUTO 18006KT 10SM TS SCT095 BKN120 26/18 A2999 310 61 1600 180/06 RMK AO2 RAE1958 P0000 T02560178 $
03949KAQV AQV20160710140513707/10/16 14:05:31  5-MIN KAQV 102005Z AUTO 19005KT 10SM TS SCT095 BKN120 24/19 A2999 310 73 1500 190/05 RMK AO2 RAE1958 P0000 T02390189 $
03949KAQV AQV20160710141013207/10/16 14:10:31  5-MIN KAQV 102010Z AUTO 16005KT 10SM -TSRA FEW100 BKN120 23/19 A2999 310 76 1400 160/05 RMK AO2 P0000 T02330189 $
03949KAQV AQV20160710141512407/10/16 14:15:31  5-MIN KAQV 102015Z AUTO 14005KT 9SM -TSRA BKN110 23/20 A2998 320 81 1400 140/05 RMK AO2 P0000 T02330200 $
03949KAQV AQV20160710142012507/10/16 14:20:31  5-MIN KAQV 102020Z AUTO VRB06KT 10SM -TSRA SCT110 23/20 A2998 320 81 1400 VRB/06 RMK AO2 P0000 T02330200 $
03949KAQV AQV20160710142512807/10/16 14:25:31  5-MIN KAQV 102025Z AUTO 16005KT 10SM TS SCT110 24/20 A2998 320 78 1500 160/05 RMK AO2 RAE24 P0000 T02390200 $
03949KAQV AQV20160710143012807/10/16 14:30:31  5-MIN KAQV 102030Z AUTO 16004KT 10SM TS FEW110 24/20 A2998 320 76 1500 160/04 RMK AO2 RAE24 P0000 T02440200 $
03949KAQV AQV20160710143513507/10/16 14:35:31  5-MIN KAQV 102035Z AUTO VRB05KT 10SM TS FEW050 SCT110 25/20 A2998 320 73 1600 VRB/05 RMK AO2 RAE24 P0000 T02500200 $
03949KAQV AQV20160710144013207/10/16 14:40:31  5-MIN KAQV 102040Z AUTO 17005KT 10SM -TSRA FEW050 SCT110 24/21 A2998 320 78 1500 170/05 RMK AO2 P0000 T02440206 $
03949KAQV AQV20160710144513907/10/16 14:45:31  5-MIN KAQV 102045Z AUTO 18006KT 10SM -TSRA FEW050 SCT090 BKN110 25/21 A2998 320 79 1600 180/06 RMK AO2 P0000 T02500211 $
03949KAQV AQV20160710145015807/10/16 14:50:31  5-MIN KAQV 102050Z AUTO 16005KT 10SM -TSRA FEW070 SCT090 BKN110 24/22 A2997 330 84 1500 150/05 RMK AO2 SLP147 P0000 60000 T02440217 58003 $
03949KAQV AQV20160710145515807/10/16 14:55:31  5-MIN KAQV 102055Z AUTO VRB03KT 10SM -TSRA FEW055 SCT070 BKN090 25/22 A2997 330 81 1600 VRB/03 RMK AO2 SLP147 P0000 60000 T02500217 58003 $
03949KAQV AQV20160710150013907/10/16 15:00:31  5-MIN KAQV 102100Z AUTO 15003KT 10SM -TSRA SCT050 BKN090 OVC110 24/22 A2998 320 87 1500 150/03 RMK AO2 P0000 T02440222 $
03949KAQV AQV20160710150513907/10/16 15:05:31  5-MIN KAQV 102105Z AUTO 16004KT 10SM -TSRA FEW050 SCT070 BKN090 23/22 A2998 320 90 1400 160/04 RMK AO2 P0000 T02330217 $
03949KAQV AQV20160710151014507/10/16 15:10:31  5-MIN KAQV 102110Z AUTO 00000KT 10SM FEW050 BKN090 BKN110 23/22 A2998 320 93 1400 000/00 RMK AO2 RAE09 TSE09 P0000 T02330222 $
03949KAQV AQV20160710151514507/10/16 15:15:31  5-MIN KAQV 102115Z AUTO 00000KT 10SM FEW050 FEW070 SCT095 24/22 A2999 320 87 1500 000/00 RMK AO2 RAE09 TSE09 P0000 T02440222 $
03949KAQV AQV20160710152013807/10/16 15:20:31  5-MIN KAQV 102120Z AUTO 17003KT 10SM FEW050 FEW095 24/22 A2999 320 87 1500 160/03 RMK AO2 RAE09 TSE09 P0000 T02390217 $
03949KAQV AQV20160710152513807/10/16 15:25:31  5-MIN KAQV 102125Z AUTO 00000KT 10SM FEW044 FEW095 24/22 A2999 310 87 1500 000/00 RMK AO2 RAE09 TSE09 P0000 T02390217 $
03949KAQV AQV20160710153012807/10/16 15:30:31  5-MIN KAQV 102130Z AUTO 00000KT 10SM CLR 24/22 A2999 320 87 1500 000/00 RMK AO2 RAE09 TSE09 P0000 T02390217 $
03949KAQV AQV20160710153512807/10/16 15:35:31  5-MIN KAQV 102135Z AUTO 07003KT 10SM CLR 24/22 A2998 320 87 1500 060/03 RMK AO2 RAE09 TSE09 P0000 T02390217 $
03949KAQV AQV20160710154012807/10/16 15:40:31  5-MIN KAQV 102140Z AUTO VRB03KT 10SM CLR 24/22 A2998 320 90 1500 VRB/03 RMK AO2 RAE09 TSE09 P0000 T02390222 $
03949KAQV AQV20160710154512807/10/16 15:45:31  5-MIN KAQV 102145Z AUTO VRB03KT 10SM CLR 24/22 A2998 320 90 1500 VRB/03 RMK AO2 RAE09 TSE09 P0000 T02390222 $
03949KAQV AQV20160710155013507/10/16 15:50:31  5-MIN KAQV 102150Z AUTO VRB03KT 10SM CLR 24/22 A2998 320 90 1500 VRB/03 RMK AO2 RAE09 TSE09 SLP149 P0000 T02390222 $
03949KAQV AQV20160710155513507/10/16 15:55:31  5-MIN KAQV 102155Z AUTO VRB03KT 10SM CLR 24/22 A2998 320 87 1500 VRB/03 RMK AO2 RAE09 TSE09 SLP149 P0000 T02390217 $
03949KAQV AQV20160710160011007/10/16 16:00:31  5-MIN KAQV 102200Z AUTO 00000KT 10SM CLR 25/22 A2998 320 84 1600 000/00 RMK AO2 T02500222 $
03949KAQV AQV20160710160511007/10/16 16:05:31  5-MIN KAQV 102205Z AUTO 00000KT 10SM CLR 24/22 A2997 330 90 1500 000/00 RMK AO2 T02390222 $
03949KAQV AQV20160710161011307/10/16 16:10:31  5-MIN KAQV 102210Z AUTO VRB03KT 10SM FEW048 26/22 A2998 320 81 1700 VRB/03 RMK AO2 T02560222 $
03949KAQV AQV20160710161511307/10/16 16:15:31  5-MIN KAQV 102215Z AUTO VRB05KT 10SM FEW048 24/22 A2997 330 87 1500 VRB/05 RMK AO2 T02440222 $
03949KAQV AQV20160710162011007/10/16 16:20:31  5-MIN KAQV 102220Z AUTO VRB04KT 10SM CLR 25/21 A2997 330 79 1600 VRB/04 RMK AO2 T02500211 $
03949KAQV AQV20160710162511307/10/16 16:25:31  5-MIN KAQV 102225Z AUTO VRB03KT 10SM SCT055 25/21 A2997 330 79 1600 VRB/03 RMK AO2 T02500211 $
03949KAQV AQV20160710163014307/10/16 16:30:31  5-MIN KAQV 102230Z AUTO 15004KT 10SM -RA FEW035 SCT050 BKN060 24/21 A2997 330 81 1500 150/04 RMK AO2 RAB26 P0000 T02440211 $
03949KAQV AQV20160710163513507/10/16 16:35:31  5-MIN KAQV 102235Z AUTO VRB03KT 10SM FEW035 SCT047 27/22 A2997 330 73 1800 VRB/03 RMK AO2 RAB26E35 P0000 T02670217 $
03949KAQV AQV20160710164012807/10/16 16:40:31  5-MIN KAQV 102240Z AUTO 00000KT 10SM FEW047 24/22 A2996 340 84 1500 000/00 RMK AO2 RAB26E35 P0000 T02440217 $
03949KAQV AQV20160710164512807/10/16 16:45:31  5-MIN KAQV 102245Z AUTO 16004KT 10SM FEW047 25/22 A2996 340 81 1600 150/04 RMK AO2 RAB26E35 P0000 T02500217 $
03949KAQV AQV20160710165013507/10/16 16:50:31  5-MIN KAQV 102250Z AUTO VRB04KT 10SM FEW048 25/22 A2996 340 81 1600 VRB/04 RMK AO2 RAB26E35 SLP144 P0000 T02500217 $
03949KAQV AQV20160710165513507/10/16 16:55:31  5-MIN KAQV 102255Z AUTO 00000KT 10SM FEW037 24/22 A2996 340 84 1600 000/00 RMK AO2 RAB26E35 SLP142 P0000 T02440217 $
03949KAQV AQV20160710170011007/10/16 17:00:31  5-MIN KAQV 102300Z AUTO 00000KT 10SM CLR 26/22 A2996 340 79 1700 000/00 RMK AO2 T02610222 $
03949KAQV AQV20160710170511007/10/16 17:05:31  5-MIN KAQV 102305Z AUTO VRB03KT 10SM CLR 27/22 A2996 340 76 1800 VRB/03 RMK AO2 T02670222 $
03949KAQV AQV20160710171011007/10/16 17:10:31  5-MIN KAQV 102310Z AUTO 00000KT 10SM CLR 23/22 A2996 340 90 1400 000/00 RMK AO2 T02330217 $
03949KAQV AQV20160710171511007/10/16 17:15:31  5-MIN KAQV 102315Z AUTO VRB03KT 10SM CLR 24/22 A2996 340 87 1500 VRB/03 RMK AO2 T02390217 $
03949KAQV AQV20160710172011007/10/16 17:20:31  5-MIN KAQV 102320Z AUTO 00000KT 10SM CLR 24/22 A2996 340 90 1500 000/00 RMK AO2 T02390222 $
03949KAQV AQV20160710172511007/10/16 17:25:31  5-MIN KAQV 102325Z AUTO 00000KT 10SM CLR 26/22 A2996 340 79 1700 000/00 RMK AO2 T02560217 $
03949KAQV AQV20160710173011007/10/16 17:30:31  5-MIN KAQV 102330Z AUTO 17003KT 10SM CLR 25/22 A2996 340 81 1600 170/03 RMK AO2 T02500217 $
03949KAQV AQV20160710173511007/10/16 17:35:31  5-MIN KAQV 102335Z AUTO 15003KT 10SM CLR 25/21 A2996 340 79 1600 150/03 RMK AO2 T02500211 $
03949KAQV AQV20160710174011007/10/16 17:40:31  5-MIN KAQV 102340Z AUTO 17004KT 10SM CLR 24/22 A2995 340 87 1500 160/04 RMK AO2 T02390217 $
03949KAQV AQV20160710174511007/10/16 17:45:31  5-MIN KAQV 102345Z AUTO VRB04KT 10SM CLR 26/21 A2995 350 76 1700 VRB/04 RMK AO2 T02560211 $
03949KAQV AQV20160710175014107/10/16 17:50:31  5-MIN KAQV 102350Z AUTO VRB04KT 10SM CLR 27/22 A2995 350 73 1800 VRB/04 RMK AO2 SLP138 60000 T02670217 10344 20233 56017 $
03949KAQV AQV20160710175514107/10/16 17:55:31  5-MIN KAQV 102355Z AUTO 17003KT 10SM CLR 24/22 A2995 350 87 1500 170/03 RMK AO2 SLP138 60000 T02390217 10344 20233 56017 $
03949KAQV AQV20160710180011007/10/16 18:00:31  5-MIN KAQV 110000Z AUTO 17005KT 10SM CLR 23/21 A2995 350 87 1400 170/05 RMK AO2 T02330211 $
03949KAQV AQV20160710180511007/10/16 18:05:31  5-MIN KAQV 110005Z AUTO 17004KT 10SM CLR 23/22 A2995 350 90 1400 160/04 RMK AO2 T02330217 $
03949KAQV AQV20160710181011007/10/16 18:10:31  5-MIN KAQV 110010Z AUTO VRB03KT 10SM CLR 26/22 A2995 350 79 1700 VRB/03 RMK AO2 T02560217 $
03949KAQV AQV20160710181511007/10/16 18:15:31  5-MIN KAQV 110015Z AUTO 17005KT 10SM CLR 24/22 A2995 350 87 1500 170/05 RMK AO2 T02390217 $
03949KAQV AQV20160710182011007/10/16 18:20:31  5-MIN KAQV 110020Z AUTO 17003KT 10SM CLR 24/22 A2995 350 84 1600 160/03 RMK AO2 T02440217 $
03949KAQV AQV20160710182511007/10/16 18:25:31  5-MIN KAQV 110025Z AUTO 15004KT 10SM CLR 24/22 A2995 350 90 1500 150/04 RMK AO2 T02390222 $
03949KAQV AQV20160710183011007/10/16 18:30:31  5-MIN KAQV 110030Z AUTO 14003KT 10SM CLR 24/22 A2995 350 90 1500 130/03 RMK AO2 T02390222 $
03949KAQV AQV20160710183511007/10/16 18:35:31  5-MIN KAQV 110035Z AUTO VRB04KT 10SM CLR 24/22 A2995 350 87 1600 VRB/04 RMK AO2 T02440222 $
03949KAQV AQV20160710184011007/10/16 18:40:31  5-MIN KAQV 110040Z AUTO VRB04KT 10SM CLR 24/22 A2995 350 90 1500 VRB/04 RMK AO2 T02390222 $
03949KAQV AQV20160710184511007/10/16 18:45:31  5-MIN KAQV 110045Z AUTO 19003KT 10SM CLR 24/22 A2995 350 90 1500 190/03 RMK AO2 T02390222 $
03949KAQV AQV20160710185011707/10/16 18:50:31  5-MIN KAQV 110050Z AUTO VRB03KT 10SM CLR 24/23 A2994 350 93 1500 VRB/03 RMK AO2 SLP137 T02390228 $
03949KAQV AQV20160710185511707/10/16 18:55:31  5-MIN KAQV 110055Z AUTO VRB03KT 10SM CLR 24/23 A2995 350 90 1600 VRB/03 RMK AO2 SLP137 T02440228 $
03949KAQV AQV20160710190011007/10/16 19:00:31  5-MIN KAQV 110100Z AUTO 00000KT 10SM CLR 24/23 A2994 350 93 1500 000/00 RMK AO2 T02390228 $
03949KAQV AQV20160710190511007/10/16 19:05:31  5-MIN KAQV 110105Z AUTO 00000KT 10SM CLR 24/23 A2995 350 93 1500 000/00 RMK AO2 T02390228 $
03949KAQV AQV20160710191011007/10/16 19:10:31  5-MIN KAQV 110110Z AUTO 00000KT 10SM CLR 24/23 A2995 350 90 1600 000/00 RMK AO2 T02440228 $
03949KAQV AQV20160710191511007/10/16 19:15:31  5-MIN KAQV 110115Z AUTO 00000KT 10SM CLR 24/23 A2995 350 90 1600 000/00 RMK AO2 T02440228 $
03949KAQV AQV20160710192011007/10/16 19:20:31  5-MIN KAQV 110120Z AUTO 00000KT 10SM CLR 24/23 A2995 350 90 1600 000/00 RMK AO2 T02440228 $
03949KAQV AQV20160710192511007/10/16 19:25:31  5-MIN KAQV 110125Z AUTO 00000KT 10SM CLR 24/23 A2996 340 93 1500 000/00 RMK AO2 T02390228 $
03949KAQV AQV20160710193011007/10/16 19:30:31  5-MIN KAQV 110130Z AUTO 00000KT 10SM CLR 24/23 A2996 340 93 1500 000/00 RMK AO2 T02390228 $
03949KAQV AQV20160710193511007/10/16 19:35:31  5-MIN KAQV 110135Z AUTO 00000KT 10SM CLR 24/23 A2996 340 93 1500 000/00 RMK AO2 T02390228 $
03949KAQV AQV20160710194011007/10/16 19:40:31  5-MIN KAQV 110140Z AUTO 00000KT 10SM CLR 24/23 A2996 340 90 1500 000/00 RMK AO2 T02440228 $
03949KAQV AQV20160710194511007/10/16 19:45:31  5-MIN KAQV 110145Z AUTO 00000KT 10SM CLR 24/23 A2996 340 93 1500 000/00 RMK AO2 T02390228 $
03949KAQV AQV20160710195011707/10/16 19:50:31  5-MIN KAQV 110150Z AUTO 00000KT 10SM CLR 24/23 A2997 330 93 1500 000/00 RMK AO2 SLP144 T02390228 $
03949KAQV AQV20160710195511707/10/16 19:55:31  5-MIN KAQV 110155Z AUTO 00000KT 10SM CLR 23/23 A2997 330 97 1400 000/00 RMK AO2 SLP144 T02330228 $
03949KAQV AQV20160710200011007/10/16 20:00:31  5-MIN KAQV 110200Z AUTO 00000KT 10SM CLR 23/23 A2997 330 97 1400 000/00 RMK AO2 T02330228 $
03949KAQV AQV20160710200511007/10/16 20:05:31  5-MIN KAQV 110205Z AUTO 00000KT 10SM CLR 23/23 A2997 330 97 1400 000/00 RMK AO2 T02330228 $
03949KAQV AQV20160710201011007/10/16 20:10:31  5-MIN KAQV 110210Z AUTO 00000KT 10SM CLR 24/22 A2998 320 90 1500 000/00 RMK AO2 T02390222 $
03949KAQV AQV20160710201511007/10/16 20:15:31  5-MIN KAQV 110215Z AUTO 00000KT 10SM CLR 24/22 A2998 320 90 1500 000/00 RMK AO2 T02390222 $
03949KAQV AQV20160710202011007/10/16 20:20:31  5-MIN KAQV 110220Z AUTO 00000KT 10SM CLR 24/22 A2998 320 90 1500 000/00 RMK AO2 T02390222 $
03949KAQV AQV20160710202511007/10/16 20:25:31  5-MIN KAQV 110225Z AUTO 00000KT 10SM CLR 23/22 A2999 320 93 1400 000/00 RMK AO2 T02330222 $
03949KAQV AQV20160710203011007/10/16 20:30:31  5-MIN KAQV 110230Z AUTO 00000KT 10SM CLR 23/22 A2999 310 93 1400 000/00 RMK AO2 T02330222 $
03949KAQV AQV20160710203511007/10/16 20:35:31  5-MIN KAQV 110235Z AUTO 00000KT 10SM CLR 23/22 A2999 310 93 1400 000/00 RMK AO2 T02330222 $
03949KAQV AQV20160710204011007/10/16 20:40:31  5-MIN KAQV 110240Z AUTO 00000KT 10SM CLR 23/22 A2999 310 93 1400 000/00 RMK AO2 T02330222 $
03949KAQV AQV20160710204511007/10/16 20:45:31  5-MIN KAQV 110245Z AUTO 14003KT 10SM CLR 23/22 A3000 310 90 1400 140/03 RMK AO2 T02330217 $
03949KAQV AQV20160710205012307/10/16 20:50:31  5-MIN KAQV 110250Z AUTO VRB03KT 10SM CLR 24/22 A3000 310 87 1400 VRB/03 RMK AO2 SLP154 T02390217 58010 $
03949KAQV AQV20160710205512307/10/16 20:55:31  5-MIN KAQV 110255Z AUTO 00000KT 10SM CLR 24/22 A2999 310 87 1500 000/00 RMK AO2 SLP153 T02390217 58010 $
03949KAQV AQV20160710210011007/10/16 21:00:31  5-MIN KAQV 110300Z AUTO VRB03KT 10SM CLR 23/22 A3000 310 90 1400 VRB/03 RMK AO2 T02330217 $
03949KAQV AQV20160710210511007/10/16 21:05:31  5-MIN KAQV 110305Z AUTO VRB03KT 10SM CLR 24/22 A3000 310 87 1400 VRB/03 RMK AO2 T02390217 $
03949KAQV AQV20160710211011007/10/16 21:10:31  5-MIN KAQV 110310Z AUTO 00000KT 10SM CLR 24/22 A3000 310 84 1500 000/00 RMK AO2 T02440217 $
03949KAQV AQV20160710211511007/10/16 21:15:31  5-MIN KAQV 110315Z AUTO 15003KT 10SM CLR 24/22 A3000 300 84 1500 150/03 RMK AO2 T02440217 $
03949KAQV AQV20160710212011007/10/16 21:20:31  5-MIN KAQV 110320Z AUTO 15003KT 10SM CLR 24/22 A3000 300 84 1500 150/03 RMK AO2 T02440217 $
03949KAQV AQV20160710212511007/10/16 21:25:31  5-MIN KAQV 110325Z AUTO 15003KT 10SM CLR 24/22 A3000 300 84 1500 150/03 RMK AO2 T02440217 $
03949KAQV AQV20160710213011007/10/16 21:30:31  5-MIN KAQV 110330Z AUTO VRB03KT 10SM CLR 24/22 A3000 300 84 1500 VRB/03 RMK AO2 T02440217 $
03949KAQV AQV20160710213511007/10/16 21:35:31  5-MIN KAQV 110335Z AUTO 00000KT 10SM CLR 24/22 A3000 300 87 1400 000/00 RMK AO2 T02390217 $
03949KAQV AQV20160710214011007/10/16 21:40:31  5-MIN KAQV 110340Z AUTO 16003KT 10SM CLR 24/22 A3000 300 87 1400 160/03 RMK AO2 T02390217 $
03949KAQV AQV20160710214511007/10/16 21:45:31  5-MIN KAQV 110345Z AUTO 16003KT 10SM CLR 24/22 A3000 300 84 1500 160/03 RMK AO2 T02440217 $
03949KAQV AQV20160710215011707/10/16 21:50:31  5-MIN KAQV 110350Z AUTO 15003KT 10SM CLR 24/22 A3000 300 84 1500 150/03 RMK AO2 SLP156 T02440217 $
03949KAQV AQV20160710215511707/10/16 21:55:31  5-MIN KAQV 110355Z AUTO 16003KT 10SM CLR 24/22 A3000 300 84 1500 160/03 RMK AO2 SLP156 T02440217 $
03949KAQV AQV20160710220011007/10/16 22:00:31  5-MIN KAQV 110400Z AUTO 16004KT 10SM CLR 24/22 A3000 300 84 1500 150/04 RMK AO2 T02440217 $
03949KAQV AQV20160710220511007/10/16 22:05:31  5-MIN KAQV 110405Z AUTO 16004KT 10SM CLR 24/22 A3000 300 84 1500 160/04 RMK AO2 T02440217 $
03949KAQV AQV20160710221011007/10/16 22:10:31  5-MIN KAQV 110410Z AUTO VRB03KT 10SM CLR 24/22 A3000 300 87 1400 VRB/03 RMK AO2 T02390217 $
03949KAQV AQV20160710221511007/10/16 22:15:31  5-MIN KAQV 110415Z AUTO VRB05KT 10SM CLR 23/22 A3000 300 93 1300 VRB/05 RMK AO2 T02280217 $
03949KAQV AQV20160710222011007/10/16 22:20:31  5-MIN KAQV 110420Z AUTO 00000KT 10SM CLR 23/22 A3000 300 93 1300 000/00 RMK AO2 T02280217 $
03949KAQV AQV20160710222511007/10/16 22:25:31  5-MIN KAQV 110425Z AUTO 00000KT 10SM CLR 23/21 A3000 300 90 1300 000/00 RMK AO2 T02280211 $
03949KAQV AQV20160710223011007/10/16 22:30:31  5-MIN KAQV 110430Z AUTO 00000KT 10SM CLR 22/21 A3000 300 93 1300 000/00 RMK AO2 T02220211 $
03949KAQV AQV20160710223511007/10/16 22:35:31  5-MIN KAQV 110435Z AUTO VRB03KT 10SM CLR 22/21 A3000 300 93 1300 VRB/03 RMK AO2 T02220211 $
03949KAQV AQV20160710224011007/10/16 22:40:31  5-MIN KAQV 110440Z AUTO 00000KT 10SM CLR 22/21 A3000 310 93 1300 000/00 RMK AO2 T02220211 $
03949KAQV AQV20160710224511007/10/16 22:45:31  5-MIN KAQV 110445Z AUTO 16003KT 10SM CLR 22/21 A2999 310 93 1300 150/03 RMK AO2 T02220211 $
03949KAQV AQV20160710225011707/10/16 22:50:31  5-MIN KAQV 110450Z AUTO 17004KT 10SM CLR 22/21 A2999 310 93 1300 160/04 RMK AO2 SLP151 T02220211 $
03949KAQV AQV20160710225511707/10/16 22:55:31  5-MIN KAQV 110455Z AUTO 16003KT 10SM CLR 22/21 A2998 320 93 1300 160/03 RMK AO2 SLP150 T02220211 $
03949KAQV AQV20160710230011007/10/16 23:00:31  5-MIN KAQV 110500Z AUTO 16003KT 10SM CLR 22/21 A2999 320 93 1300 160/03 RMK AO2 T02220211 $
03949KAQV AQV20160710230511007/10/16 23:05:31  5-MIN KAQV 110505Z AUTO VRB03KT 10SM CLR 22/21 A2999 320 93 1300 VRB/03 RMK AO2 T02220211 $
03949KAQV AQV20160710231011007/10/16 23:10:31  5-MIN KAQV 110510Z AUTO 00000KT 10SM CLR 22/21 A2998 320 93 1300 000/00 RMK AO2 T02220211 $
03949KAQV AQV20160710231511007/10/16 23:15:31  5-MIN KAQV 110515Z AUTO 00000KT 10SM CLR 22/21 A2999 320 93 1300 000/00 RMK AO2 T02220211 $
03949KAQV AQV20160710232011007/10/16 23:20:31  5-MIN KAQV 110520Z AUTO 00000KT 10SM CLR 22/21 A2999 320 93 1300 000/00 RMK AO2 T02220211 $
03949KAQV AQV20160710232511007/10/16 23:25:31  5-MIN KAQV 110525Z AUTO VRB03KT 10SM CLR 22/21 A2999 320 93 1300 VRB/03 RMK AO2 T02220211 $
03949KAQV AQV20160710233011007/10/16 23:30:31  5-MIN KAQV 110530Z AUTO VRB03KT 10SM CLR 22/21 A2998 320 93 1300 VRB/03 RMK AO2 T02220211 $
03949KAQV AQV20160710233511007/10/16 23:35:31  5-MIN KAQV 110535Z AUTO VRB03KT 10SM CLR 22/21 A2998 320 93 1300 VRB/03 RMK AO2 T02220211 $
03949KAQV AQV20160710234011007/10/16 23:40:31  5-MIN KAQV 110540Z AUTO VRB04KT 10SM CLR 22/21 A2998 320 93 1300 VRB/04 RMK AO2 T02220211 $
03949KAQV AQV20160710234511007/10/16 23:45:31  5-MIN KAQV 110545Z AUTO VRB03KT 10SM CLR 22/21 A2998 320 93 1300 VRB/03 RMK AO2 T02220211 $
03949KAQV AQV20160710235014507/10/16 23:50:31  5-MIN KAQV 110550Z AUTO VRB03KT 10SM CLR 22/21 A2998 320 93 1300 VRB/03 RMK AO2 SLP150 T02220211 10256 20222 403440222 53016 $
03949KAQV AQV20160710235514507/10/16 23:55:31  5-MIN KAQV 110555Z AUTO 15004KT 10SM CLR 22/21 A2998 320 93 1300 140/04 RMK AO2 SLP150 T02220211 10256 20222 403440222 53016 $
03949KAQV AQV20160711000011007/11/16 00:00:31  5-MIN KAQV 110600Z AUTO VRB03KT 10SM CLR 22/21 A2998 320 93 1300 VRB/03 RMK AO2 T02220211 $
03949KAQV AQV20160711000511007/11/16 00:05:31  5-MIN KAQV 110605Z AUTO 16003KT 10SM CLR 22/21 A2998 320 93 1300 150/03 RMK AO2 T02220211 $
03949KAQV AQV20160711001011007/11/16 00:10:31  5-MIN KAQV 110610Z AUTO 17003KT 10SM CLR 22/21 A2998 320 93 1300 160/03 RMK AO2 T02220211 $
03949KAQV AQV20160711001511007/11/16 00:15:31  5-MIN KAQV 110615Z AUTO 16003KT 10SM CLR 22/21 A2998 330 93 1300 150/03 RMK AO2 T02220211 $
03949KAQV AQV20160711002011007/11/16 00:20:31  5-MIN KAQV 110620Z AUTO 16003KT 10SM CLR 22/21 A2998 320 93 1300 160/03 RMK AO2 T02220211 $
03949KAQV AQV20160711002511007/11/16 00:25:31  5-MIN KAQV 110625Z AUTO 16003KT 10SM CLR 22/21 A2998 320 93 1300 160/03 RMK AO2 T02220211 $
03949KAQV AQV20160711003011007/11/16 00:30:31  5-MIN KAQV 110630Z AUTO 15003KT 10SM CLR 22/21 A2998 320 93 1300 150/03 RMK AO2 T02220211 $
03949KAQV AQV20160711003511007/11/16 00:35:31  5-MIN KAQV 110635Z AUTO VRB03KT 10SM CLR 22/21 A2998 330 93 1300 VRB/03 RMK AO2 T02220211 $
03949KAQV AQV20160711004011007/11/16 00:40:31  5-MIN KAQV 110640Z AUTO 15003KT 10SM CLR 22/21 A2998 320 93 1300 140/03 RMK AO2 T02220211 $
03949KAQV AQV20160711004511007/11/16 00:45:31  5-MIN KAQV 110645Z AUTO 16004KT 10SM CLR 22/21 A2998 320 93 1300 150/04 RMK AO2 T02220211 $
03949KAQV AQV20160711005011707/11/16 00:50:31  5-MIN KAQV 110650Z AUTO 00000KT 10SM CLR 22/21 A2998 320 93 1300 000/00 RMK AO2 SLP147 T02220211 $
03949KAQV AQV20160711005511707/11/16 00:55:31  5-MIN KAQV 110655Z AUTO 16003KT 10SM CLR 22/21 A2997 330 93 1300 160/03 RMK AO2 SLP146 T02220211 $
03949KAQV AQV20160711010011007/11/16 01:00:31  5-MIN KAQV 110700Z AUTO VRB03KT 10SM CLR 22/21 A2997 330 93 1300 VRB/03 RMK AO2 T02220211 $
03949KAQV AQV20160711010511007/11/16 01:05:31  5-MIN KAQV 110705Z AUTO 16004KT 10SM CLR 22/22 A2997 330 97 1300 150/04 RMK AO2 T02220217 $
03949KAQV AQV20160711011011007/11/16 01:10:31  5-MIN KAQV 110710Z AUTO 17003KT 10SM CLR 22/22 A2997 330 97 1300 160/03 RMK AO2 T02220217 $
03949KAQV AQV20160711011511007/11/16 01:15:31  5-MIN KAQV 110715Z AUTO VRB03KT 10SM CLR 22/22 A2997 330 97 1300 VRB/03 RMK AO2 T02220217 $
03949KAQV AQV20160711012011007/11/16 01:20:31  5-MIN KAQV 110720Z AUTO 18003KT 10SM CLR 22/22 A2997 330 97 1300 170/03 RMK AO2 T02220217 $
03949KAQV AQV20160711012511007/11/16 01:25:31  5-MIN KAQV 110725Z AUTO 18003KT 10SM CLR 22/22 A2997 330 97 1300 170/03 RMK AO2 T02220217 $
03949KAQV AQV20160711013011007/11/16 01:30:31  5-MIN KAQV 110730Z AUTO 17004KT 10SM CLR 22/22 A2997 330 97 1300 160/04 RMK AO2 T02220217 $
03949KAQV AQV20160711013511007/11/16 01:35:31  5-MIN KAQV 110735Z AUTO 16003KT 10SM CLR 22/22 A2997 330 97 1300 160/03 RMK AO2 T02220217 $
03949KAQV AQV20160711014011007/11/16 01:40:31  5-MIN KAQV 110740Z AUTO 00000KT 10SM CLR 22/22 A2997 330 97 1300 000/00 RMK AO2 T02220217 $
03949KAQV AQV20160711014511007/11/16 01:45:31  5-MIN KAQV 110745Z AUTO 00000KT 10SM CLR 22/22 A2997 330 97 1300 000/00 RMK AO2 T02220217 $
03949KAQV AQV20160711015011707/11/16 01:50:31  5-MIN KAQV 110750Z AUTO 00000KT 10SM CLR 22/22 A2997 330 97 1300 000/00 RMK AO2 SLP146 T02220217 $
03949KAQV AQV20160711015511707/11/16 01:55:31  5-MIN KAQV 110755Z AUTO 00000KT 10SM CLR 22/22 A2997 330 97 1300 000/00 RMK AO2 SLP147 T02220217 $
03949KAQV AQV20160711020011007/11/16 02:00:31  5-MIN KAQV 110800Z AUTO 00000KT 10SM CLR 22/22 A2998 330 97 1300 000/00 RMK AO2 T02220217 $
03949KAQV AQV20160711020511007/11/16 02:05:31  5-MIN KAQV 110805Z AUTO 00000KT 10SM CLR 22/22 A2998 320 97 1300 000/00 RMK AO2 T02220217 $
03949KAQV AQV20160711021011007/11/16 02:10:31  5-MIN KAQV 110810Z AUTO 00000KT 10SM CLR 22/22 A2998 320 97 1300 000/00 RMK AO2 T02220217 $
03949KAQV AQV20160711021511007/11/16 02:15:31  5-MIN KAQV 110815Z AUTO 00000KT 10SM CLR 22/22 A2998 320 97 1300 000/00 RMK AO2 T02220217 $
03949KAQV AQV20160711022011007/11/16 02:20:31  5-MIN KAQV 110820Z AUTO 00000KT 10SM CLR 22/22 A2998 320 97 1300 000/00 RMK AO2 T02220217 $
03949KAQV AQV20160711022511007/11/16 02:25:31  5-MIN KAQV 110825Z AUTO 00000KT 10SM CLR 22/22 A2998 320 97 1300 000/00 RMK AO2 T02220217 $
03949KAQV AQV20160711023011007/11/16 02:30:31  5-MIN KAQV 110830Z AUTO 00000KT 10SM CLR 22/22 A2998 320 97 1300 000/00 RMK AO2 T02220217 $
03949KAQV AQV20160711023511007/11/16 02:35:31  5-MIN KAQV 110835Z AUTO 17003KT 10SM CLR 22/22 A2998 320 97 1300 160/03 RMK AO2 T02220217 $
03949KAQV AQV20160711024011007/11/16 02:40:31  5-MIN KAQV 110840Z AUTO 17003KT 10SM CLR 22/22 A2998 320 97 1300 160/03 RMK AO2 T02220217 $
03949KAQV AQV20160711024511007/11/16 02:45:31  5-MIN KAQV 110845Z AUTO 16003KT 10SM CLR 22/22 A2998 320 97 1300 160/03 RMK AO2 T02220217 $
03949KAQV AQV20160711025012307/11/16 02:50:31  5-MIN KAQV 110850Z AUTO 17003KT 10SM CLR 22/22 A2998 320 97 1300 160/03 RMK AO2 SLP149 T02220217 58003 $
03949KAQV AQV20160711025512307/11/16 02:55:31  5-MIN KAQV 110855Z AUTO 17004KT 10SM CLR 22/22 A2998 320 97 1300 160/04 RMK AO2 SLP148 T02220217 58003 $
03949KAQV AQV20160711030011007/11/16 03:00:31  5-MIN KAQV 110900Z AUTO 00000KT 10SM CLR 22/22 A2998 320 97 1300 000/00 RMK AO2 T02220217 $
03949KAQV AQV20160711030511007/11/16 03:05:31  5-MIN KAQV 110905Z AUTO 16003KT 10SM CLR 22/22 A2998 320 97 1300 160/03 RMK AO2 T02220217 $
03949KAQV AQV20160711031011007/11/16 03:10:31  5-MIN KAQV 110910Z AUTO 00000KT 10SM CLR 22/22 A2998 320 97 1300 000/00 RMK AO2 T02220217 $
03949KAQV AQV20160711031511007/11/16 03:15:31  5-MIN KAQV 110915Z AUTO 00000KT 10SM CLR 22/22 A2998 320 97 1300 000/00 RMK AO2 T02220217 $
03949KAQV AQV20160711032011007/11/16 03:20:31  5-MIN KAQV 110920Z AUTO 00000KT 10SM CLR 22/22 A2998 320 97 1300 000/00 RMK AO2 T02220217 $
03949KAQV AQV20160711032511007/11/16 03:25:31  5-MIN KAQV 110925Z AUTO 00000KT 10SM CLR 22/22 A2998 320 97 1300 000/00 RMK AO2 T02220217 $
03949KAQV AQV20160711033011307/11/16 03:30:31  5-MIN KAQV 110930Z AUTO 00000KT 10SM FEW021 23/22 A2998 320 97 1300 000/00 RMK AO2 T02280222 $
03949KAQV AQV20160711033511007/11/16 03:35:31  5-MIN KAQV 110935Z AUTO 00000KT 10SM CLR 23/22 A2998 320 97 1300 000/00 RMK AO2 T02280222 $
03949KAQV AQV20160711034011007/11/16 03:40:31  5-MIN KAQV 110940Z AUTO VRB03KT 10SM CLR 23/22 A2998 320 97 1300 VRB/03 RMK AO2 T02280222 $
03949KAQV AQV20160711034511007/11/16 03:45:31  5-MIN KAQV 110945Z AUTO 00000KT 10SM CLR 23/22 A2998 320 97 1300 000/00 RMK AO2 T02280222 $
03949KAQV AQV20160711035011707/11/16 03:50:31  5-MIN KAQV 110950Z AUTO 18003KT 10SM CLR 23/22 A2998 320 97 1300 170/03 RMK AO2 SLP150 T02280222 $
03949KAQV AQV20160711035511707/11/16 03:55:31  5-MIN KAQV 110955Z AUTO 00000KT 10SM CLR 23/22 A2998 320 97 1300 000/00 RMK AO2 SLP150 T02280222 $
03949KAQV AQV20160711040011007/11/16 04:00:31  5-MIN KAQV 111000Z AUTO 00000KT 10SM CLR 23/22 A2998 320 97 1300 000/00 RMK AO2 T02280222 $
03949KAQV AQV20160711040511007/11/16 04:05:31  5-MIN KAQV 111005Z AUTO 00000KT 10SM CLR 23/22 A2998 320 97 1300 000/00 RMK AO2 T02280222 $
03949KAQV AQV20160711041010907/11/16 04:10:31  5-MIN KAQV 111010Z AUTO 00000KT 9SM CLR 23/22 A2999 320 97 1300 000/00 RMK AO2 T02280222 $
03949KAQV AQV20160711041510907/11/16 04:15:31  5-MIN KAQV 111015Z AUTO 00000KT 9SM CLR 23/22 A2999 320 97 1300 000/00 RMK AO2 T02280222 $
03949KAQV AQV20160711042011007/11/16 04:20:31  5-MIN KAQV 111020Z AUTO 00000KT 9SM CLR 22/22 A2999 310 100 1300 000/00 RMK AO2 T02220222 $
03949KAQV AQV20160711042510907/11/16 04:25:31  5-MIN KAQV 111025Z AUTO 16003KT 9SM CLR 22/22 A2999 310 97 1300 160/03 RMK AO2 T02220217 $
03949KAQV AQV20160711043011007/11/16 04:30:31  5-MIN KAQV 111030Z AUTO 16003KT 8SM CLR 22/22 A2999 310 100 1300 160/03 RMK AO2 T02220222 $
03949KAQV AQV20160711043510907/11/16 04:35:31  5-MIN KAQV 111035Z AUTO VRB03KT 9SM CLR 23/22 A2999 310 97 1300 VRB/03 RMK AO2 T02280222 $
03949KAQV AQV20160711044010907/11/16 04:40:31  5-MIN KAQV 111040Z AUTO 00000KT 9SM CLR 23/22 A2999 310 97 1300 000/00 RMK AO2 T02280222 $
03949KAQV AQV20160711044510907/11/16 04:45:31  5-MIN KAQV 111045Z AUTO 17004KT 9SM CLR 23/22 A2999 310 97 1300 170/04 RMK AO2 T02280222 $
03949KAQV AQV20160711045011607/11/16 04:50:31  5-MIN KAQV 111050Z AUTO 18003KT 9SM CLR 23/22 A2999 310 97 1300 170/03 RMK AO2 SLP153 T02280222 $
03949KAQV AQV20160711045511607/11/16 04:55:31  5-MIN KAQV 111055Z AUTO 17003KT 9SM CLR 23/22 A2999 310 97 1300 170/03 RMK AO2 SLP153 T02280222 $
03949KAQV AQV20160711050010907/11/16 05:00:31  5-MIN KAQV 111100Z AUTO VRB04KT 8SM CLR 23/22 A2999 310 97 1300 VRB/04 RMK AO2 T02280222 $
03949KAQV AQV20160711050510907/11/16 05:05:31  5-MIN KAQV 111105Z AUTO 00000KT 8SM CLR 23/22 A2999 310 97 1300 000/00 RMK AO2 T02280222 $
03949KAQV AQV20160711051010907/11/16 05:10:31  5-MIN KAQV 111110Z AUTO 00000KT 8SM CLR 23/22 A2999 310 97 1300 000/00 RMK AO2 T02280222 $
03949KAQV AQV20160711051510907/11/16 05:15:31  5-MIN KAQV 111115Z AUTO 00000KT 8SM CLR 23/22 A2999 310 97 1300 000/00 RMK AO2 T02280222 $
03949KAQV AQV20160711052011007/11/16 05:20:31  5-MIN KAQV 111120Z AUTO 00000KT 7SM CLR 22/22 A2999 310 100 1300 000/00 RMK AO2 T02220222 $
03949KAQV AQV20160711052511307/11/16 05:25:31  5-MIN KAQV 111125Z AUTO 00000KT 6SM BR CLR 22/22 A3000 310 100 1300 000/00 RMK AO2 T02220222 $
03949KAQV AQV20160711053011207/11/16 05:30:31  5-MIN KAQV 111130Z AUTO 00000KT 6SM BR CLR 22/22 A3000 300 97 1300 000/00 RMK AO2 T02220217 $
03949KAQV AQV20160711053511207/11/16 05:35:31  5-MIN KAQV 111135Z AUTO 00000KT 6SM BR CLR 22/22 A3000 300 97 1300 000/00 RMK AO2 T02220217 $
03949KAQV AQV20160711054011607/11/16 05:40:31  5-MIN KAQV 111140Z AUTO 00000KT 6SM BR FEW032 22/22 A3000 300 100 1300 000/00 RMK AO2 T02220222 $
03949KAQV AQV20160711054512207/11/16 05:45:31  5-MIN KAQV 111145Z AUTO 00000KT 6SM BR FEW021 SCT030 23/22 A3000 300 97 1300 000/00 RMK AO2 T02280222 $
03949KAQV AQV20160711055014707/11/16 05:50:31  5-MIN KAQV 111150Z AUTO 00000KT 6SM BR FEW021 FEW030 23/22 A3000 300 97 1300 000/00 RMK AO2 SLP156 T02280222 10228 20222 55003 $
03949KAQV AQV20160711055514007/11/16 05:55:31  5-MIN KAQV 111155Z AUTO 00000KT 6SM BR FEW030 23/22 A3000 300 97 1300 000/00 RMK AO2 SLP157 T02280222 10228 20222 55003 $
03949KAQV AQV20160711060011507/11/16 06:00:31  5-MIN KAQV 111200Z AUTO 00000KT 6SM BR FEW030 23/22 A3000 300 97 1300 000/00 RMK AO2 T02280222 $
03949KAQV AQV20160711060511507/11/16 06:05:31  5-MIN KAQV 111205Z AUTO 00000KT 6SM BR FEW032 23/22 A3000 300 97 1300 000/00 RMK AO2 T02280222 $
03949KAQV AQV20160711061011507/11/16 06:10:31  5-MIN KAQV 111210Z AUTO 00000KT 6SM BR FEW032 23/22 A3000 300 97 1300 000/00 RMK AO2 T02280222 $
03949KAQV AQV20160711061511507/11/16 06:15:31  5-MIN KAQV 111215Z AUTO 00000KT 6SM BR FEW034 23/22 A3000 300 97 1300 000/00 RMK AO2 T02280222 $
03949KAQV AQV20160711062011307/11/16 06:20:31  5-MIN KAQV 111220Z AUTO 00000KT 7SM SCT032 23/23 A3001 300 100 1300 000/00 RMK AO2 T02280228 $
03949KAQV AQV20160711062511207/11/16 06:25:31  5-MIN KAQV 111225Z AUTO 00000KT 8SM SCT032 23/23 A3001 290 97 1400 000/00 RMK AO2 T02330228 $
03949KAQV AQV20160711063011207/11/16 06:30:31  5-MIN KAQV 111230Z AUTO 00000KT 8SM SCT032 23/23 A3001 290 97 1400 000/00 RMK AO2 T02330228 $
03949KAQV AQV20160711063511207/11/16 06:35:31  5-MIN KAQV 111235Z AUTO 16003KT 8SM FEW032 23/23 A3001 290 97 1400 160/03 RMK AO2 T02330228 $
03949KAQV AQV20160711064011207/11/16 06:40:31  5-MIN KAQV 111240Z AUTO 00000KT 9SM FEW032 23/23 A3002 290 97 1400 000/00 RMK AO2 T02330228 $
03949KAQV AQV20160711064511307/11/16 06:45:31  5-MIN KAQV 111245Z AUTO 00000KT 10SM FEW031 24/23 A3002 290 93 1400 000/00 RMK AO2 T02390228 $
03949KAQV AQV20160711065011907/11/16 06:50:31  5-MIN KAQV 111250Z AUTO 00000KT 9SM FEW033 24/23 A3002 290 97 1400 000/00 RMK AO2 SLP162 T02390233 $
03949KAQV AQV20160711065511607/11/16 06:55:31  5-MIN KAQV 111255Z AUTO 00000KT 9SM CLR 24/23 A3002 290 97 1400 000/00 RMK AO2 SLP162 T02390233 $
03949KAQV AQV20160711070010907/11/16 07:00:31  5-MIN KAQV 111300Z AUTO 18004KT 9SM CLR 24/23 A3002 290 93 1500 180/04 RMK AO2 T02440233 $
03949KAQV AQV20160711070510907/11/16 07:05:31  5-MIN KAQV 111305Z AUTO 18004KT 9SM CLR 24/23 A3002 290 93 1500 170/04 RMK AO2 T02440233 $
03949KAQV AQV20160711071011007/11/16 07:10:31  5-MIN KAQV 111310Z AUTO 19004KT 10SM CLR 24/23 A3002 280 93 1500 180/04 RMK AO2 T02440233 $
03949KAQV AQV20160711071511007/11/16 07:15:31  5-MIN KAQV 111315Z AUTO VRB03KT 10SM CLR 24/24 A3002 280 97 1500 VRB/03 RMK AO2 T02440239 $
03949KAQV AQV20160711072011007/11/16 07:20:31  5-MIN KAQV 111320Z AUTO 18004KT 10SM CLR 24/24 A3002 280 97 1500 180/04 RMK AO2 T02440239 $
03949KAQV AQV20160711072510907/11/16 07:25:31  5-MIN KAQV 111325Z AUTO 17004KT 8SM CLR 25/24 A3002 280 93 1500 170/04 RMK AO2 T02500239 $
03949KAQV AQV20160711073010907/11/16 07:30:31  5-MIN KAQV 111330Z AUTO VRB03KT 8SM CLR 25/24 A3002 280 93 1500 VRB/03 RMK AO2 T02500239 $
03949KAQV AQV20160711073511007/11/16 07:35:31  5-MIN KAQV 111335Z AUTO 15003KT 10SM CLR 25/24 A3002 280 93 1500 140/03 RMK AO2 T02500239 $
03949KAQV AQV20160711074011007/11/16 07:40:31  5-MIN KAQV 111340Z AUTO 16003KT 10SM CLR 25/24 A3003 280 93 1500 160/03 RMK AO2 T02500239 $
03949KAQV AQV20160711074510007/11/16 07:45:31  5-MIN KAQV 111345Z AUTO 10SM CLR 26/24 A3003 280 93 1600 M /M RMK AO2 T02560244 $
03949KAQV AQV20160711075011707/11/16 07:50:31  5-MIN KAQV 111350Z AUTO 19005KT 10SM CLR 26/24 A3003 280 93 1600 180/05 RMK AO2 SLP164 T02560244 $
03949KAQV AQV20160711075511707/11/16 07:55:31  5-MIN KAQV 111355Z AUTO 20004KT 10SM CLR 26/24 A3003 280 90 1700 190/04 RMK AO2 SLP165 T02610244 $
03949KAQV AQV20160711080011007/11/16 08:00:31  5-MIN KAQV 111400Z AUTO VRB05KT 10SM CLR 27/24 A3003 280 87 1700 VRB/05 RMK AO2 T02670244 $
03949KAQV AQV20160711080511307/11/16 08:05:31  5-MIN KAQV 111405Z AUTO 17006KT 10SM FEW016 27/24 A3003 270 84 1800 170/06 RMK AO2 T02720244 $
03949KAQV AQV20160711081011307/11/16 08:10:31  5-MIN KAQV 111410Z AUTO 19005KT 10SM FEW016 27/24 A3003 270 84 1800 190/05 RMK AO2 T02720244 $
03949KAQV AQV20160711081512907/11/16 08:15:31  5-MIN KAQV 111415Z AUTO 18007KT 160V220 10SM FEW016 27/24 A3003 280 84 1800 180/07 160V220 RMK AO2 T02720244 $
03949KAQV AQV20160711082011307/11/16 08:20:31  5-MIN KAQV 111420Z AUTO 19007KT 10SM FEW016 28/24 A3003 280 82 1900 190/07 RMK AO2 T02780244 $
03949KAQV AQV20160711082511307/11/16 08:25:31  5-MIN KAQV 111425Z AUTO VRB05KT 10SM FEW016 28/24 A3003 280 79 1900 VRB/05 RMK AO2 T02830244 $
03949KAQV AQV20160711083011307/11/16 08:30:31  5-MIN KAQV 111430Z AUTO 20007KT 10SM SCT016 28/24 A3003 280 79 1900 190/07 RMK AO2 T02830244 $
03949KAQV AQV20160711083512807/11/16 08:35:31  5-MIN KAQV 111435Z AUTO 21007KT 160V250 9SM FEW018 28/24 A3003 280 79 1900 200/07 160V250 RMK AO2 T02780239 $
03949KAQV AQV20160711084011807/11/16 08:40:31  5-MIN KAQV 111440Z AUTO 20009G16KT 9SM FEW018 29/24 A3002 280 74 2000 200/09G16 RMK AO2 T02890239 $
03949KAQV AQV20160711084511907/11/16 08:45:31  5-MIN KAQV 111445Z AUTO 19010G16KT 10SM FEW020 29/24 A3002 280 71 2000 180/10G16 RMK AO2 T02940239 $
03949KAQV AQV20160711085014807/11/16 08:50:31  5-MIN KAQV 111450Z AUTO 23008G16KT 180V270 10SM FEW020 29/24 A3003 280 74 2000 230/08G16 180V270 RMK AO2 SLP164 T02890239 53009 $
03949KAQV AQV20160711085514807/11/16 08:55:31  5-MIN KAQV 111455Z AUTO 20008G16KT 180V250 10SM FEW020 30/24 A3002 280 69 2100 200/08G16 180V250 RMK AO2 SLP163 T03000239 53009 $
03949KAQV AQV20160711090011907/11/16 09:00:31  5-MIN KAQV 111500Z AUTO 19006G14KT 10SM FEW020 30/24 A3002 280 69 2100 190/06G14 RMK AO2 T03000239 $
03949KAQV AQV20160711090511907/11/16 09:05:31  5-MIN KAQV 111505Z AUTO VRB05G14KT 10SM FEW023 31/24 A3002 280 67 2200 VRB/05G14 RMK AO2 T03060239 $
03949KAQV AQV20160711091011207/11/16 09:10:31  5-MIN KAQV 111510Z AUTO VRB06KT 8SM FEW023 29/24 A3002 280 71 2000 VRB/06 RMK AO2 T02940239 $
03949KAQV AQV20160711091513407/11/16 09:15:31  5-MIN KAQV 111515Z AUTO 19009G15KT 150V240 8SM FEW022 30/24 A3002 280 69 2100 190/09G15 150V240 RMK AO2 T03000239 $
03949KAQV AQV20160711092013407/11/16 09:20:31  5-MIN KAQV 111520Z AUTO 21007G15KT 170V240 9SM FEW022 30/23 A3002 280 67 2100 210/07G15 170V240 RMK AO2 T03000233 $
03949KAQV AQV20160711092513507/11/16 09:25:31  5-MIN KAQV 111525Z AUTO 20009G15KT 170V240 10SM FEW022 31/23 A3002 280 62 2200 200/09G15 170V240 RMK AO2 T03060228 $
03949KAQV AQV20160711093011507/11/16 09:30:31  5-MIN KAQV 111530Z AUTO VRB06G15KT 9SM CLR 30/23 A3002 280 65 2100 VRB/06G15 RMK AO2 T03000228 $
03949KAQV AQV20160711093511807/11/16 09:35:31  5-MIN KAQV 111535Z AUTO VRB05G14KT 8SM FEW031 26/23 A3002 280 87 1600 VRB/05G14 RMK AO2 T02560233 $
03949KAQV AQV20160711094011207/11/16 09:40:31  5-MIN KAQV 111540Z AUTO VRB05KT 9SM FEW031 29/23 A3002 280 69 2000 VRB/05 RMK AO2 T02940233 $
03949KAQV AQV20160711094511207/11/16 09:45:31  5-MIN KAQV 111545Z AUTO VRB05KT 9SM FEW031 32/23 A3002 280 61 2300 VRB/05 RMK AO2 T03170233 $
03949KAQV AQV20160711095011907/11/16 09:50:31  5-MIN KAQV 111550Z AUTO 19007KT 9SM FEW031 31/23 A3002 280 60 2200 180/07 RMK AO2 SLP163 T03110228 $
03949KAQV AQV20160711095511907/11/16 09:55:31  5-MIN KAQV 111555Z AUTO 20008KT 9SM FEW031 31/23 A3002 280 60 2200 190/08 RMK AO2 SLP163 T03110228 $
03949KAQV AQV20160711100011307/11/16 10:00:31  5-MIN KAQV 111600Z AUTO 19006KT 10SM FEW031 32/23 A3003 280 58 2300 190/06 RMK AO2 T03170228 $
03949KAQV AQV20160711100511307/11/16 10:05:31  5-MIN KAQV 111605Z AUTO 19005KT 10SM SCT033 31/23 A3003 280 60 2200 190/05 RMK AO2 T03110228 $
03949KAQV AQV20160711101011307/11/16 10:10:31  5-MIN KAQV 111610Z AUTO VRB05KT 10SM SCT033 32/23 A3003 280 58 2300 VRB/05 RMK AO2 T03170228 $
03949KAQV AQV20160711101511307/11/16 10:15:31  5-MIN KAQV 111615Z AUTO 21005KT 10SM BKN033 32/23 A3002 280 58 2300 210/05 RMK AO2 T03170228 $
03949KAQV AQV20160711102012907/11/16 10:20:31  5-MIN KAQV 111620Z AUTO 21007KT 150V240 10SM SCT033 32/23 A3003 280 58 2300 200/07 150V240 RMK AO2 T03170228 $
03949KAQV AQV20160711102512907/11/16 10:25:31  5-MIN KAQV 111625Z AUTO 19007KT 150V230 10SM SCT033 31/23 A3002 280 60 2200 190/07 150V230 RMK AO2 T03110228 $
03949KAQV AQV20160711103011307/11/16 10:30:31  5-MIN KAQV 111630Z AUTO 18008KT 10SM SCT035 32/22 A3002 280 56 2300 180/08 RMK AO2 T03170222 $
03949KAQV AQV20160711103512907/11/16 10:35:31  5-MIN KAQV 111635Z AUTO 19007KT 160V240 10SM FEW033 31/22 A3002 280 60 2200 180/07 160V240 RMK AO2 T03060222 $
03949KAQV AQV20160711104011307/11/16 10:40:31  5-MIN KAQV 111640Z AUTO 20006KT 10SM FEW033 32/22 A3002 280 55 2300 190/06 RMK AO2 T03220222 $
03949KAQV AQV20160711104511307/11/16 10:45:31  5-MIN KAQV 111645Z AUTO 20006KT 10SM FEW037 32/22 A3002 280 55 2400 190/06 RMK AO2 T03220222 $
03949KAQV AQV20160711105013607/11/16 10:50:31  5-MIN KAQV 111650Z AUTO 19007KT 150V220 10SM FEW037 32/22 A3002 280 55 2400 180/07 150V220 RMK AO2 SLP162 T03220222 $
03949KAQV AQV20160711105512707/11/16 10:55:31  5-MIN KAQV 111655Z AUTO VRB06KT 10SM FEW036 SCT044 32/22 A3002 280 55 2400 VRB/06 RMK AO2 SLP162 T03220222 $
03949KAQV AQV20160711110011907/11/16 11:00:31  5-MIN KAQV 111700Z AUTO 19009G14KT 10SM SCT040 33/22 A3002 280 53 2400 180/09G14 RMK AO2 T03280222 $
03949KAQV AQV20160711110511907/11/16 11:05:31  5-MIN KAQV 111705Z AUTO 18010G14KT 10SM SCT038 32/22 A3002 290 55 2400 180/10G14 RMK AO2 T03220222 $
03949KAQV AQV20160711111011307/11/16 11:10:31  5-MIN KAQV 111710Z AUTO VRB06KT 10SM SCT038 33/22 A3002 290 53 2400 VRB/06 RMK AO2 T03280222 $
03949KAQV AQV20160711111511307/11/16 11:15:31  5-MIN KAQV 111715Z AUTO VRB06KT 10SM SCT040 33/23 A3002 290 53 2500 VRB/06 RMK AO2 T03330228 $
03949KAQV AQV20160711112013507/11/16 11:20:31  5-MIN KAQV 111720Z AUTO 19007G18KT 160V230 10SM BKN040 33/22 A3002 290 51 2400 190/07G18 160V230 RMK AO2 T03280217 $
03949KAQV AQV20160711112512607/11/16 11:25:31  5-MIN KAQV 111725Z AUTO 19005G18KT 10SM BKN038 BKN045 32/22 A3002 290 55 2400 180/05G18 RMK AO2 T03220222 $
03949KAQV AQV20160711113011307/11/16 11:30:31  5-MIN KAQV 111730Z AUTO VRB05KT 10SM BKN040 32/22 A3002 290 55 2400 VRB/05 RMK AO2 T03220222 $
03949KAQV AQV20160711113511307/11/16 11:35:31  5-MIN KAQV 111735Z AUTO 18007KT 10SM BKN040 33/22 A3001 290 53 2400 170/07 RMK AO2 T03280222 $
03949KAQV AQV20160711114011307/11/16 11:40:31  5-MIN KAQV 111740Z AUTO 20005KT 10SM BKN042 33/22 A3001 290 53 2400 200/05 RMK AO2 T03280222 $
03949KAQV AQV20160711114512907/11/16 11:45:31  5-MIN KAQV 111745Z AUTO 20007KT 170V230 10SM BKN042 33/22 A3001 290 51 2400 190/07 170V230 RMK AO2 T03280217 $
03949KAQV AQV20160711115013807/11/16 11:50:31  5-MIN KAQV 111750Z AUTO VRB06KT 10SM SCT042 33/22 A3001 290 50 2500 VRB/06 RMK AO2 SLP158 T03330217 10333 20228 50006 $
03949KAQV AQV20160711115513807/11/16 11:55:31  5-MIN KAQV 111755Z AUTO VRB06KT 10SM SCT042 33/22 A3001 300 53 2400 VRB/06 RMK AO2 SLP158 T03280222 10333 20228 50006 $
03949KAQV AQV20160711120012907/11/16 12:00:31  5-MIN KAQV 111800Z AUTO 17007KT 150V210 10SM SCT044 33/22 A3001 300 50 2500 170/07 150V210 RMK AO2 T03330217 $
03949KAQV AQV20160711120511307/11/16 12:05:31  5-MIN KAQV 111805Z AUTO VRB06KT 10SM SCT044 33/21 A3001 300 48 2500 VRB/06 RMK AO2 T03330211 $
03949KAQV AQV20160711121011307/11/16 12:10:31  5-MIN KAQV 111810Z AUTO VRB04KT 10SM SCT046 33/22 A3000 300 50 2500 VRB/04 RMK AO2 T03330217 $
03949KAQV AQV20160711121510307/11/16 12:15:31  5-MIN KAQV 111815Z AUTO 10SM SCT046 29/21 A3000 300 62 2000 M /M RMK AO2 T02890211 $
03949KAQV AQV20160711122011307/11/16 12:20:31  5-MIN KAQV 111820Z AUTO VRB05KT 10SM FEW046 33/21 A3000 310 48 2500 VRB/05 RMK AO2 T03330211 $
03949KAQV AQV20160711122511307/11/16 12:25:31  5-MIN KAQV 111825Z AUTO 17008KT 10SM FEW046 33/21 A3000 310 48 2500 160/08 RMK AO2 T03330211 $
03949KAQV AQV20160711123011307/11/16 12:30:31  5-MIN KAQV 111830Z AUTO 22007KT 10SM FEW046 34/22 A3000 310 48 2600 210/07 RMK AO2 T03390217 $
03949KAQV AQV20160711123511307/11/16 12:35:31  5-MIN KAQV 111835Z AUTO 19006KT 10SM SCT047 33/21 A2999 310 48 2500 190/06 RMK AO2 T03330211 $
03949KAQV AQV20160711124012007/11/16 12:40:31  5-MIN KAQV 111840Z AUTO VRB05KT 10SM SCT047 SCT055 34/22 A2999 310 48 2600 VRB/05 RMK AO2 T03390217 $
03949KAQV AQV20160711124512007/11/16 12:45:31  5-MIN KAQV 111845Z AUTO 18009KT 10SM SCT047 SCT055 34/21 A2999 310 46 2600 180/09 RMK AO2 T03390211 $
03949KAQV AQV20160711125012007/11/16 12:50:31  5-MIN KAQV 111850Z AUTO 17008KT 10SM SCT049 34/21 A2999 310 46 2600 170/08 RMK AO2 SLP151 T03390211 $
03949KAQV AQV20160711125512007/11/16 12:55:31  5-MIN KAQV 111855Z AUTO 17009KT 10SM SCT049 34/22 A2999 310 48 2600 170/09 RMK AO2 SLP151 T03390217 $
03949KAQV AQV20160711130011307/11/16 13:00:31  5-MIN KAQV 111900Z AUTO VRB05KT 10SM SCT049 33/21 A2999 320 48 2500 VRB/05 RMK AO2 T03330211 $
03949KAQV AQV20160711130511307/11/16 13:05:31  5-MIN KAQV 111905Z AUTO 18004KT 10SM SCT049 33/22 A2998 320 50 2500 170/04 RMK AO2 T03330217 $
03949KAQV AQV20160711131011207/11/16 13:10:31  5-MIN KAQV 111910Z AUTO VRB06KT 9SM SCT049 33/22 A2998 320 50 2500 VRB/06 RMK AO2 T03330217 $
03949KAQV AQV20160711131512807/11/16 13:15:31  5-MIN KAQV 111915Z AUTO 17007KT 130V200 9SM SCT049 34/22 A2998 320 48 2600 160/07 130V200 RMK AO2 T03390217 $
03949KAQV AQV20160711132012007/11/16 13:20:31  5-MIN KAQV 111920Z AUTO 19006KT 10SM SCT047 SCT055 34/22 A2998 320 46 2600 180/06 RMK AO2 T03440217 $
03949KAQV AQV20160711132510307/11/16 13:25:31  5-MIN KAQV 111925Z AUTO 10SM SCT049 34/21 A2998 320 46 2600 M /M RMK AO2 T03390211 $
03949KAQV AQV20160711133012007/11/16 13:30:31  5-MIN KAQV 111930Z AUTO VRB05KT 10SM SCT047 BKN055 34/21 A2998 320 46 2600 VRB/05 RMK AO2 T03390211 $
03949KAQV AQV20160711133511307/11/16 13:35:31  5-MIN KAQV 111935Z AUTO 18008KT 10SM BKN045 33/22 A2998 320 51 2500 170/08 RMK AO2 T03280217 $
03949KAQV AQV20160711134011307/11/16 13:40:31  5-MIN KAQV 111940Z AUTO VRB05KT 10SM BKN045 33/22 A2998 320 53 2500 VRB/05 RMK AO2 T03280222 $
03949KAQV AQV20160711134512907/11/16 13:45:31  5-MIN KAQV 111945Z AUTO 18007KT 150V230 10SM BKN045 34/22 A2997 330 50 2600 180/07 150V230 RMK AO2 T03390222 $
03949KAQV AQV20160711135013607/11/16 13:50:31  5-MIN KAQV 111950Z AUTO 21008KT 150V250 10SM BKN045 34/22 A2997 330 48 2700 210/08 150V250 RMK AO2 SLP146 T03440222 $
03949KAQV AQV20160711135512007/11/16 13:55:31  5-MIN KAQV 111955Z AUTO 19006KT 10SM BKN045 33/22 A2997 330 51 2500 190/06 RMK AO2 SLP146 T03330222 $
03949KAQV AQV20160711140011307/11/16 14:00:31  5-MIN KAQV 112000Z AUTO 18006KT 10SM BKN045 33/22 A2997 330 53 2500 180/06 RMK AO2 T03280222 $
03949KAQV AQV20160711140512007/11/16 14:05:31  5-MIN KAQV 112005Z AUTO 17008KT 10SM BKN045 BKN060 33/22 A2997 330 51 2500 170/08 RMK AO2 T03280217 $
03949KAQV AQV20160711141012007/11/16 14:10:31  5-MIN KAQV 112010Z AUTO VRB06KT 10SM SCT045 BKN090 33/22 A2997 330 53 2500 VRB/06 RMK AO2 T03280222 $
03949KAQV AQV20160711141512707/11/16 14:15:31  5-MIN KAQV 112015Z AUTO 19005KT 10SM SCT045 SCT060 BKN095 33/22 A2997 330 53 2500 180/05 RMK AO2 T03280222 $
03949KAQV AQV20160711142012707/11/16 14:20:31  5-MIN KAQV 112020Z AUTO VRB05KT 10SM SCT045 SCT060 BKN095 33/22 A2996 340 51 2500 VRB/05 RMK AO2 T03330222 $
03949KAQV AQV20160711142513607/11/16 14:25:31  5-MIN KAQV 112025Z AUTO 20007KT 160V250 10SM FEW045 SCT095 33/22 A2996 340 50 2500 200/07 160V250 RMK AO2 T03330217 $
03949KAQV AQV20160711143012007/11/16 14:30:31  5-MIN KAQV 112030Z AUTO 20004KT 10SM FEW047 SCT095 34/22 A2996 340 48 2600 200/04 RMK AO2 T03390217 $
03949KAQV AQV20160711143512007/11/16 14:35:31  5-MIN KAQV 112035Z AUTO VRB06KT 10SM FEW050 SCT095 33/22 A2996 340 50 2500 VRB/06 RMK AO2 T03330217 $
03949KAQV AQV20160711144013607/11/16 14:40:31  5-MIN KAQV 112040Z AUTO 18007KT 140V220 10SM FEW050 FEW100 33/22 A2996 340 50 2500 180/07 140V220 RMK AO2 T03330217 $
03949KAQV AQV20160711144512707/11/16 14:45:31  5-MIN KAQV 112045Z AUTO 18007KT 10SM FEW050 FEW060 SCT090 33/22 A2996 340 51 2500 170/07 RMK AO2 T03280217 $
03949KAQV AQV20160711145014007/11/16 14:50:31  5-MIN KAQV 112050Z AUTO 19006KT 10SM FEW050 FEW060 SCT100 33/22 A2996 340 51 2500 190/06 RMK AO2 SLP140 T03280217 58005 $
03949KAQV AQV20160711145513307/11/16 14:55:31  5-MIN KAQV 112055Z AUTO VRB06KT 10SM FEW050 FEW100 34/22 A2995 350 50 2600 VRB/06 RMK AO2 SLP139 T03390222 58005 $
03949KAQV AQV20160711150012007/11/16 15:00:31  5-MIN KAQV 112100Z AUTO VRB06KT 10SM FEW050 FEW095 34/22 A2995 350 48 2600 VRB/06 RMK AO2 T03390217 $
03949KAQV AQV20160711150512707/11/16 15:05:31  5-MIN KAQV 112105Z AUTO 19006KT 10SM FEW050 SCT080 SCT095 33/22 A2995 350 51 2500 180/06 RMK AO2 T03280217 $
03949KAQV AQV20160711151012707/11/16 15:10:31  5-MIN KAQV 112110Z AUTO VRB06KT 10SM FEW055 FEW075 SCT090 33/21 A2995 350 48 2600 VRB/06 RMK AO2 T03330211 $
03949KAQV AQV20160711151511207/11/16 15:15:31  5-MIN KAQV 112115Z AUTO VRB04KT 9SM FEW090 34/20 A2995 350 42 2700 VRB/04 RMK AO2 T03440200 $
03949KAQV AQV20160711152012807/11/16 15:20:31  5-MIN KAQV 112120Z AUTO 19007KT 160V230 9SM FEW085 34/20 A2995 350 42 2700 180/07 160V230 RMK AO2 T03440200 $
03949KAQV AQV20160711152511207/11/16 15:25:31  5-MIN KAQV 112125Z AUTO 19005KT 9SM FEW085 34/20 A2995 340 43 2600 190/05 RMK AO2 T03390200 $
03949KAQV AQV20160711153012907/11/16 15:30:31  5-MIN KAQV 112130Z AUTO 18008KT 140V220 10SM FEW085 34/20 A2995 340 43 2600 180/08 140V220 RMK AO2 T03390200 $
03949KAQV AQV20160711153511307/11/16 15:35:31  5-MIN KAQV 112135Z AUTO 18007KT 10SM FEW090 34/19 A2995 350 40 2700 180/07 RMK AO2 T03440194 $
03949KAQV AQV20160711154011007/11/16 15:40:31  5-MIN KAQV 112140Z AUTO VRB06KT 10SM CLR 35/20 A2995 350 40 2700 VRB/06 RMK AO2 T03500200 $
03949KAQV AQV20160711154511307/11/16 15:45:31  5-MIN KAQV 112145Z AUTO 19007KT 10SM FEW080 34/20 A2995 350 43 2600 190/07 RMK AO2 T03390200 $
03949KAQV AQV20160711155012707/11/16 15:50:31  5-MIN KAQV 112150Z AUTO 19007KT 10SM FEW060 FEW080 34/20 A2995 350 43 2600 180/07 RMK AO2 SLP139 T03390200 $
03949KAQV AQV20160711155512707/11/16 15:55:31  5-MIN KAQV 112155Z AUTO VRB06KT 10SM FEW060 FEW080 34/21 A2995 350 45 2600 VRB/06 RMK AO2 SLP137 T03390206 $
03949KAQV AQV20160711160012007/11/16 16:00:31  5-MIN KAQV 112200Z AUTO VRB05KT 10SM FEW055 SCT080 34/21 A2994 350 43 2700 VRB/05 RMK AO2 T03440206 $
03949KAQV AQV20160711160512607/11/16 16:05:31  5-MIN KAQV 112205Z AUTO 18009G15KT 10SM FEW055 SCT080 34/21 A2995 350 43 2700 180/09G15 RMK AO2 T03440206 $
03949KAQV AQV20160711161014207/11/16 16:10:31  5-MIN KAQV 112210Z AUTO 19007G15KT 160V230 10SM FEW055 FEW080 34/21 A2995 350 43 2700 190/07G15 160V230 RMK AO2 T03440206 $
03949KAQV AQV20160711161511307/11/16 16:15:31  5-MIN KAQV 112215Z AUTO 18009KT 10SM FEW060 34/21 A2994 350 46 2600 180/09 RMK AO2 T03390211 $
03949KAQV AQV20160711162012607/11/16 16:20:31  5-MIN KAQV 112220Z AUTO 18008G17KT 10SM SCT055 SCT070 33/21 A2994 350 48 2600 170/08G17 RMK AO2 T03330211 $
03949KAQV AQV20160711162512607/11/16 16:25:31  5-MIN KAQV 112225Z AUTO 16008G18KT 10SM SCT050 BKN065 33/22 A2995 350 50 2600 160/08G18 RMK AO2 T03330217 $
03949KAQV AQV20160711163014207/11/16 16:30:31  5-MIN KAQV 112230Z AUTO 17008G18KT 140V200 10SM FEW050 SCT065 33/22 A2995 350 51 2500 170/08G18 140V200 RMK AO2 T03280217 $
03949KAQV AQV20160711163512007/11/16 16:35:31  5-MIN KAQV 112235Z AUTO 19006KT 10SM FEW050 SCT065 33/22 A2995 350 50 2600 190/06 RMK AO2 T03330217 $
03949KAQV AQV20160711164012707/11/16 16:40:31  5-MIN KAQV 112240Z AUTO VRB05KT 10SM FEW050 SCT065 SCT090 33/22 A2995 350 50 2600 VRB/05 RMK AO2 T03330217 $
03949KAQV AQV20160711164512007/11/16 16:45:31  5-MIN KAQV 112245Z AUTO VRB06KT 10SM FEW050 FEW090 33/22 A2995 350 50 2600 VRB/06 RMK AO2 T03330217 $
03949KAQV AQV20160711165014207/11/16 16:50:31  5-MIN KAQV 112250Z AUTO 18007G14KT 140V210 10SM FEW060 33/22 A2995 350 50 2600 180/07G14 140V210 RMK AO2 SLP137 T03330217 $
03949KAQV AQV20160711165512307/11/16 16:55:31  5-MIN KAQV 112255Z AUTO 18007G14KT 10SM CLR 33/22 A2995 350 51 2500 170/07G14 RMK AO2 SLP138 T03280217 $
03949KAQV AQV20160711170011007/11/16 17:00:31  5-MIN KAQV 112300Z AUTO 18008KT 10SM CLR 32/22 A2995 350 53 2400 170/08 RMK AO2 T03220217 $
03949KAQV AQV20160711170511007/11/16 17:05:31  5-MIN KAQV 112305Z AUTO VRB04KT 10SM CLR 33/22 A2994 360 51 2600 VRB/04 RMK AO2 T03330222 $
03949KAQV AQV20160711171011007/11/16 17:10:31  5-MIN KAQV 112310Z AUTO 18005KT 10SM CLR 33/22 A2994 360 53 2500 170/05 RMK AO2 T03280222 $
03949KAQV AQV20160711171511007/11/16 17:15:31  5-MIN KAQV 112315Z AUTO 18006KT 10SM CLR 33/22 A2994 360 53 2500 180/06 RMK AO2 T03280222 $
03949KAQV AQV20160711172011007/11/16 17:20:31  5-MIN KAQV 112320Z AUTO 20006KT 10SM CLR 33/23 A2994 360 55 2500 190/06 RMK AO2 T03280228 $
03949KAQV AQV20160711172511007/11/16 17:25:31  5-MIN KAQV 112325Z AUTO VRB06KT 10SM CLR 33/23 A2994 360 55 2500 VRB/06 RMK AO2 T03280228 $
03949KAQV AQV20160711173011007/11/16 17:30:31  5-MIN KAQV 112330Z AUTO 17008KT 10SM CLR 33/22 A2994 350 53 2500 170/08 RMK AO2 T03280222 $
03949KAQV AQV20160711173511007/11/16 17:35:31  5-MIN KAQV 112335Z AUTO VRB05KT 10SM CLR 33/22 A2994 360 53 2500 VRB/05 RMK AO2 T03280222 $
03949KAQV AQV20160711174011007/11/16 17:40:31  5-MIN KAQV 112340Z AUTO 19005KT 10SM CLR 33/22 A2994 350 53 2500 190/05 RMK AO2 T03280222 $
03949KAQV AQV20160711174511007/11/16 17:45:31  5-MIN KAQV 112345Z AUTO 20006KT 10SM CLR 32/22 A2995 350 53 2400 190/06 RMK AO2 T03220217 $
03949KAQV AQV20160711175013507/11/16 17:50:31  5-MIN KAQV 112350Z AUTO 19004KT 10SM CLR 32/22 A2995 350 55 2400 180/04 RMK AO2 SLP137 T03220222 10350 20289 57018 $
03949KAQV AQV20160711175513507/11/16 17:55:31  5-MIN KAQV 112355Z AUTO VRB06KT 10SM CLR 32/22 A2994 350 55 2400 VRB/06 RMK AO2 SLP136 T03220222 10350 20289 57018 $
03949KAQV AQV20160711180012607/11/16 18:00:31  5-MIN KAQV 120000Z AUTO 18007KT 150V230 10SM CLR 32/22 A2995 350 55 2400 170/07 150V230 RMK AO2 T03220222 $
03949KAQV AQV20160711180511007/11/16 18:05:31  5-MIN KAQV 120005Z AUTO VRB04KT 10SM CLR 32/22 A2995 350 56 2400 VRB/04 RMK AO2 T03170222 $
03949KAQV AQV20160711181011007/11/16 18:10:31  5-MIN KAQV 120010Z AUTO 18005KT 10SM CLR 32/22 A2995 350 56 2400 170/05 RMK AO2 T03170222 $
03949KAQV AQV20160711181511007/11/16 18:15:31  5-MIN KAQV 120015Z AUTO VRB04KT 10SM CLR 32/22 A2995 350 56 2400 VRB/04 RMK AO2 T03170222 $
03949KAQV AQV20160711182011307/11/16 18:20:31  5-MIN KAQV 120020Z AUTO VRB03KT 10SM FEW045 32/22 A2995 350 56 2400 VRB/03 RMK AO2 T03170222 $
03949KAQV AQV20160711182510307/11/16 18:25:31  5-MIN KAQV 120025Z AUTO 10SM FEW045 32/22 A2996 340 56 2400 M /M RMK AO2 T03170222 $
03949KAQV AQV20160711183011307/11/16 18:30:31  5-MIN KAQV 120030Z AUTO VRB06KT 10SM SCT044 30/20 A2996 340 54 2200 VRB/06 RMK AO2 T03000200 $
03949KAQV AQV20160711183512007/11/16 18:35:31  5-MIN KAQV 120035Z AUTO 16008KT 10SM SCT044 BKN070 29/19 A2996 340 54 2100 160/08 RMK AO2 T02940194 $
03949KAQV AQV20160711184014307/11/16 18:40:31  5-MIN KAQV 120040Z AUTO 16007KT 120V200 10SM SCT044 SCT060 BKN075 29/19 A2996 340 54 2100 160/07 120V200 RMK AO2 T02940194 $
03949KAQV AQV20160711184512707/11/16 18:45:31  5-MIN KAQV 120045Z AUTO 16007KT 10SM SCT044 SCT060 BKN080 29/19 A2996 340 56 2100 160/07 RMK AO2 T02890194 $
03949KAQV AQV20160711185013307/11/16 18:50:31  5-MIN KAQV 120050Z AUTO 17007G15KT 10SM FEW044 SCT075 29/19 A2996 340 56 2100 170/07G15 RMK AO2 SLP141 T02890194 $
03949KAQV AQV20160711185512707/11/16 18:55:31  5-MIN KAQV 120055Z AUTO 17005KT 10SM FEW044 FEW075 28/19 A2996 340 58 2000 170/05 RMK AO2 SLP142 T02830194 $
03949KAQV AQV20160711190012007/11/16 19:00:31  5-MIN KAQV 120100Z AUTO 17004KT 10SM FEW045 FEW075 28/19 A2996 340 58 2000 170/04 RMK AO2 T02830194 $
03949KAQV AQV20160711190511007/11/16 19:05:31  5-MIN KAQV 120105Z AUTO VRB05KT 10SM CLR 28/20 A2996 340 60 2000 VRB/05 RMK AO2 T02830200 $
03949KAQV AQV20160711191011007/11/16 19:10:31  5-MIN KAQV 120110Z AUTO 17005KT 10SM CLR 28/20 A2996 340 62 1900 170/05 RMK AO2 T02780200 $
03949KAQV AQV20160711191511007/11/16 19:15:31  5-MIN KAQV 120115Z AUTO VRB06KT 10SM CLR 27/20 A2996 340 64 1900 VRB/06 RMK AO2 T02720200 $
03949KAQV AQV20160711192011007/11/16 19:20:31  5-MIN KAQV 120120Z AUTO 18004KT 10SM CLR 27/20 A2996 340 64 1900 170/04 RMK AO2 T02720200 $
03949KAQV AQV20160711192511007/11/16 19:25:31  5-MIN KAQV 120125Z AUTO 18006KT 10SM CLR 27/20 A2996 340 64 1900 170/06 RMK AO2 T02720200 $
03949KAQV AQV20160711193011007/11/16 19:30:31  5-MIN KAQV 120130Z AUTO VRB04KT 10SM CLR 28/20 A2996 340 62 1900 VRB/04 RMK AO2 T02780200 $
03949KAQV AQV20160711193511007/11/16 19:35:31  5-MIN KAQV 120135Z AUTO VRB03KT 10SM CLR 27/21 A2996 340 66 1900 VRB/03 RMK AO2 T02720206 $
03949KAQV AQV20160711194011007/11/16 19:40:31  5-MIN KAQV 120140Z AUTO VRB03KT 10SM CLR 27/21 A2996 340 66 1900 VRB/03 RMK AO2 T02720206 $
03949KAQV AQV20160711194511007/11/16 19:45:31  5-MIN KAQV 120145Z AUTO 18005KT 10SM CLR 27/21 A2996 340 66 1900 180/05 RMK AO2 T02720206 $
03949KAQV AQV20160711195011707/11/16 19:50:31  5-MIN KAQV 120150Z AUTO 16004KT 10SM CLR 27/21 A2997 330 66 1900 160/04 RMK AO2 SLP144 T02720206 $
03949KAQV AQV20160711195511707/11/16 19:55:31  5-MIN KAQV 120155Z AUTO 16004KT 10SM CLR 27/21 A2997 330 66 1900 160/04 RMK AO2 SLP145 T02720206 $
03949KAQV AQV20160711200011007/11/16 20:00:31  5-MIN KAQV 120200Z AUTO 16004KT 10SM CLR 27/21 A2997 330 69 1800 160/04 RMK AO2 T02670206 $
03949KAQV AQV20160711200511007/11/16 20:05:31  5-MIN KAQV 120205Z AUTO 17005KT 10SM CLR 27/21 A2997 330 69 1800 160/05 RMK AO2 T02670206 $
03949KAQV AQV20160711201011007/11/16 20:10:31  5-MIN KAQV 120210Z AUTO 17005KT 10SM CLR 27/21 A2997 330 69 1800 170/05 RMK AO2 T02670206 $
03949KAQV AQV20160711201511007/11/16 20:15:31  5-MIN KAQV 120215Z AUTO 16005KT 10SM CLR 25/21 A2997 330 76 1600 160/05 RMK AO2 T02500206 $
03949KAQV AQV20160711202011007/11/16 20:20:31  5-MIN KAQV 120220Z AUTO VRB04KT 10SM CLR 26/21 A2997 330 71 1700 VRB/04 RMK AO2 T02610206 $
03949KAQV AQV20160711202511007/11/16 20:25:31  5-MIN KAQV 120225Z AUTO VRB04KT 10SM CLR 26/21 A2997 330 71 1700 VRB/04 RMK AO2 T02610206 $
03949KAQV AQV20160711203011007/11/16 20:30:31  5-MIN KAQV 120230Z AUTO 16005KT 10SM CLR 27/20 A2997 330 66 1800 150/05 RMK AO2 T02670200 $
03949KAQV AQV20160711203511007/11/16 20:35:31  5-MIN KAQV 120235Z AUTO 16004KT 10SM CLR 27/20 A2998 330 66 1800 160/04 RMK AO2 T02670200 $
03949KAQV AQV20160711204011007/11/16 20:40:31  5-MIN KAQV 120240Z AUTO VRB04KT 10SM CLR 26/20 A2997 330 68 1700 VRB/04 RMK AO2 T02610200 $
03949KAQV AQV20160711204511007/11/16 20:45:31  5-MIN KAQV 120245Z AUTO 16004KT 10SM CLR 26/21 A2998 320 71 1700 160/04 RMK AO2 T02610206 $
03949KAQV AQV20160711205012307/11/16 20:50:31  5-MIN KAQV 120250Z AUTO VRB05KT 10SM CLR 26/21 A2998 320 71 1700 VRB/05 RMK AO2 SLP148 T02610206 56003 $
03949KAQV AQV20160711205512307/11/16 20:55:31  5-MIN KAQV 120255Z AUTO 17004KT 10SM CLR 26/21 A2998 320 71 1700 170/04 RMK AO2 SLP147 T02610206 56003 $
03949KAQV AQV20160711210011007/11/16 21:00:31  5-MIN KAQV 120300Z AUTO 17003KT 10SM CLR 26/21 A2998 320 71 1700 160/03 RMK AO2 T02610206 $
03949KAQV AQV20160711210511007/11/16 21:05:31  5-MIN KAQV 120305Z AUTO VRB04KT 10SM CLR 26/21 A2998 320 73 1700 VRB/04 RMK AO2 T02560206 $
03949KAQV AQV20160711211011007/11/16 21:10:31  5-MIN KAQV 120310Z AUTO VRB03KT 10SM CLR 26/21 A2998 320 73 1700 VRB/03 RMK AO2 T02560206 $
03949KAQV AQV20160711211511007/11/16 21:15:31  5-MIN KAQV 120315Z AUTO 00000KT 10SM CLR 26/21 A2998 320 73 1700 000/00 RMK AO2 T02560206 $
03949KAQV AQV20160711212011007/11/16 21:20:31  5-MIN KAQV 120320Z AUTO VRB03KT 10SM CLR 25/21 A2998 320 76 1600 VRB/03 RMK AO2 T02500206 $
03949KAQV AQV20160711212511007/11/16 21:25:31  5-MIN KAQV 120325Z AUTO 17003KT 10SM CLR 25/21 A2998 320 76 1600 160/03 RMK AO2 T02500206 $
03949KAQV AQV20160711213011007/11/16 21:30:31  5-MIN KAQV 120330Z AUTO VRB03KT 10SM CLR 25/21 A2998 320 76 1600 VRB/03 RMK AO2 T02500206 $
03949KAQV AQV20160711213511007/11/16 21:35:31  5-MIN KAQV 120335Z AUTO 00000KT 10SM CLR 25/21 A2998 320 76 1600 000/00 RMK AO2 T02500206 $
03949KAQV AQV20160711214011007/11/16 21:40:31  5-MIN KAQV 120340Z AUTO 16003KT 10SM CLR 25/21 A2997 330 76 1600 160/03 RMK AO2 T02500206 $
03949KAQV AQV20160711214511007/11/16 21:45:31  5-MIN KAQV 120345Z AUTO 00000KT 10SM CLR 24/21 A2997 330 78 1500 000/00 RMK AO2 T02440206 $
03949KAQV AQV20160711215011707/11/16 21:50:31  5-MIN KAQV 120350Z AUTO 16003KT 10SM CLR 24/21 A2998 330 81 1500 160/03 RMK AO2 SLP147 T02440211 $
03949KAQV AQV20160711215511707/11/16 21:55:31  5-MIN KAQV 120355Z AUTO 00000KT 10SM CLR 24/21 A2997 330 81 1500 000/00 RMK AO2 SLP146 T02440211 $
03949KAQV AQV20160711220011007/11/16 22:00:31  5-MIN KAQV 120400Z AUTO 16003KT 10SM CLR 24/21 A2997 330 81 1500 160/03 RMK AO2 T02440211 $
03949KAQV AQV20160711220511007/11/16 22:05:31  5-MIN KAQV 120405Z AUTO 00000KT 10SM CLR 24/21 A2997 330 81 1500 000/00 RMK AO2 T02440211 $
03949KAQV AQV20160711221011007/11/16 22:10:31  5-MIN KAQV 120410Z AUTO 00000KT 10SM CLR 24/21 A2997 330 84 1500 000/00 RMK AO2 T02390211 $
03949KAQV AQV20160711221511007/11/16 22:15:31  5-MIN KAQV 120415Z AUTO 00000KT 10SM CLR 24/21 A2997 330 84 1500 000/00 RMK AO2 T02390211 $
03949KAQV AQV20160711222011007/11/16 22:20:31  5-MIN KAQV 120420Z AUTO 00000KT 10SM CLR 24/21 A2998 330 84 1500 000/00 RMK AO2 T02390211 $
03949KAQV AQV20160711222511007/11/16 22:25:31  5-MIN KAQV 120425Z AUTO 00000KT 10SM CLR 24/21 A2998 320 84 1500 000/00 RMK AO2 T02390211 $
03949KAQV AQV20160711223011007/11/16 22:30:31  5-MIN KAQV 120430Z AUTO 00000KT 10SM CLR 24/21 A2998 320 84 1500 000/00 RMK AO2 T02390211 $
03949KAQV AQV20160711223511007/11/16 22:35:31  5-MIN KAQV 120435Z AUTO 00000KT 10SM CLR 24/21 A2998 320 84 1500 000/00 RMK AO2 T02390211 $
03949KAQV AQV20160711224011007/11/16 22:40:31  5-MIN KAQV 120440Z AUTO 00000KT 10SM CLR 24/21 A2998 320 84 1500 000/00 RMK AO2 T02390211 $
03949KAQV AQV20160711224511007/11/16 22:45:31  5-MIN KAQV 120445Z AUTO 00000KT 10SM CLR 23/21 A2998 320 87 1400 000/00 RMK AO2 T02330211 $
03949KAQV AQV20160711225011707/11/16 22:50:31  5-MIN KAQV 120450Z AUTO 00000KT 10SM CLR 23/21 A2998 320 87 1400 000/00 RMK AO2 SLP148 T02330211 $
03949KAQV AQV20160711225511707/11/16 22:55:31  5-MIN KAQV 120455Z AUTO VRB03KT 10SM CLR 23/21 A2998 320 87 1400 VRB/03 RMK AO2 SLP149 T02330211 $
03949KAQV AQV20160711230011007/11/16 23:00:31  5-MIN KAQV 120500Z AUTO VRB03KT 10SM CLR 23/21 A2998 320 87 1400 VRB/03 RMK AO2 T02330211 $
03949KAQV AQV20160711230511007/11/16 23:05:31  5-MIN KAQV 120505Z AUTO 16003KT 10SM CLR 23/21 A2998 320 87 1400 150/03 RMK AO2 T02330211 $
03949KAQV AQV20160711231011007/11/16 23:10:31  5-MIN KAQV 120510Z AUTO VRB03KT 10SM CLR 23/21 A2998 320 87 1400 VRB/03 RMK AO2 T02330211 $
03949KAQV AQV20160711231511007/11/16 23:15:31  5-MIN KAQV 120515Z AUTO 16003KT 10SM CLR 23/21 A2998 320 87 1400 150/03 RMK AO2 T02330211 $
03949KAQV AQV20160711232011007/11/16 23:20:31  5-MIN KAQV 120520Z AUTO 17003KT 10SM CLR 23/21 A2998 320 87 1400 160/03 RMK AO2 T02330211 $
03949KAQV AQV20160711232511007/11/16 23:25:31  5-MIN KAQV 120525Z AUTO VRB03KT 10SM CLR 23/21 A2999 320 87 1400 VRB/03 RMK AO2 T02330211 $
03949KAQV AQV20160711233011007/11/16 23:30:31  5-MIN KAQV 120530Z AUTO 00000KT 10SM CLR 23/21 A2999 320 87 1400 000/00 RMK AO2 T02330211 $
03949KAQV AQV20160711233511007/11/16 23:35:31  5-MIN KAQV 120535Z AUTO 00000KT 10SM CLR 23/21 A2999 310 90 1300 000/00 RMK AO2 T02280211 $
03949KAQV AQV20160711234011007/11/16 23:40:31  5-MIN KAQV 120540Z AUTO 16003KT 10SM CLR 23/21 A2999 310 90 1300 160/03 RMK AO2 T02280211 $
03949KAQV AQV20160711234511307/11/16 23:45:31  5-MIN KAQV 120545Z AUTO 16003KT 10SM FEW021 22/21 A2999 310 93 1300 150/03 RMK AO2 T02220211 $
03949KAQV AQV20160711235014807/11/16 23:50:31  5-MIN KAQV 120550Z AUTO 17003KT 10SM FEW021 22/21 A2999 320 93 1300 160/03 RMK AO2 SLP150 T02220211 10322 20222 403500222 51011 $
03949KAQV AQV20160711235514807/11/16 23:55:31  5-MIN KAQV 120555Z AUTO VRB03KT 10SM SCT021 22/21 A2999 310 93 1300 VRB/03 RMK AO2 SLP151 T02220211 10322 20222 403500222 51011 $
03949KAQV AQV20160712000011307/12/16 00:00:31  5-MIN KAQV 120600Z AUTO VRB04KT 10SM SCT021 22/22 A2999 320 97 1300 VRB/04 RMK AO2 T02220217 $
03949KAQV AQV20160712000511307/12/16 00:05:31  5-MIN KAQV 120605Z AUTO 17005KT 10SM FEW022 22/22 A2998 320 97 1300 160/05 RMK AO2 T02220217 $
03949KAQV AQV20160712001011307/12/16 00:10:31  5-MIN KAQV 120610Z AUTO 17003KT 10SM FEW022 22/22 A2999 320 97 1300 170/03 RMK AO2 T02220217 $
03949KAQV AQV20160712001511307/12/16 00:15:31  5-MIN KAQV 120615Z AUTO VRB04KT 10SM FEW022 22/22 A2998 320 97 1300 VRB/04 RMK AO2 T02220217 $
03949KAQV AQV20160712002011307/12/16 00:20:31  5-MIN KAQV 120620Z AUTO 16003KT 10SM FEW022 22/22 A2998 320 97 1300 160/03 RMK AO2 T02220217 $
03949KAQV AQV20160712002511007/12/16 00:25:31  5-MIN KAQV 120625Z AUTO VRB04KT 10SM CLR 22/22 A2998 320 97 1300 VRB/04 RMK AO2 T02220217 $
03949KAQV AQV20160712003011007/12/16 00:30:31  5-MIN KAQV 120630Z AUTO 17003KT 10SM CLR 22/22 A2998 320 97 1300 170/03 RMK AO2 T02220217 $
03949KAQV AQV20160712003511007/12/16 00:35:31  5-MIN KAQV 120635Z AUTO 18003KT 10SM CLR 23/22 A2998 320 93 1300 180/03 RMK AO2 T02280217 $
03949KAQV AQV20160712004011007/12/16 00:40:31  5-MIN KAQV 120640Z AUTO 00000KT 10SM CLR 22/22 A2998 320 97 1300 000/00 RMK AO2 T02220217 $
03949KAQV AQV20160712004511007/12/16 00:45:31  5-MIN KAQV 120645Z AUTO 17003KT 10SM CLR 23/22 A2998 320 93 1300 170/03 RMK AO2 T02280217 $
03949KAQV AQV20160712005011707/12/16 00:50:31  5-MIN KAQV 120650Z AUTO VRB04KT 10SM CLR 23/22 A2998 320 93 1300 VRB/04 RMK AO2 SLP149 T02280217 $
03949KAQV AQV20160712005511707/12/16 00:55:31  5-MIN KAQV 120655Z AUTO 18003KT 10SM CLR 23/22 A2998 320 93 1300 170/03 RMK AO2 SLP149 T02280217 $
03949KAQV AQV20160712010011007/12/16 01:00:31  5-MIN KAQV 120700Z AUTO 00000KT 10SM CLR 23/22 A2998 320 93 1300 000/00 RMK AO2 T02280217 $
03949KAQV AQV20160712010511007/12/16 01:05:31  5-MIN KAQV 120705Z AUTO 18003KT 10SM CLR 23/22 A2998 320 93 1300 180/03 RMK AO2 T02280217 $
03949KAQV AQV20160712011011007/12/16 01:10:31  5-MIN KAQV 120710Z AUTO 18003KT 10SM CLR 23/22 A2998 320 93 1300 180/03 RMK AO2 T02280217 $
03949KAQV AQV20160712011511007/12/16 01:15:31  5-MIN KAQV 120715Z AUTO 18003KT 10SM CLR 23/22 A2998 320 93 1300 170/03 RMK AO2 T02280217 $
03949KAQV AQV20160712012011007/12/16 01:20:31  5-MIN KAQV 120720Z AUTO 00000KT 10SM CLR 23/22 A2998 320 97 1300 000/00 RMK AO2 T02280222 $
03949KAQV AQV20160712012511007/12/16 01:25:31  5-MIN KAQV 120725Z AUTO VRB03KT 10SM CLR 23/22 A2997 330 97 1300 VRB/03 RMK AO2 T02280222 $
03949KAQV AQV20160712013011007/12/16 01:30:31  5-MIN KAQV 120730Z AUTO 18003KT 10SM CLR 23/22 A2997 330 97 1300 180/03 RMK AO2 T02280222 $
03949KAQV AQV20160712013511007/12/16 01:35:31  5-MIN KAQV 120735Z AUTO 00000KT 10SM CLR 23/22 A2997 330 97 1400 000/00 RMK AO2 T02280222 $
03949KAQV AQV20160712014011007/12/16 01:40:31  5-MIN KAQV 120740Z AUTO 00000KT 10SM CLR 23/22 A2997 330 97 1400 000/00 RMK AO2 T02280222 $
03949KAQV AQV20160712014511007/12/16 01:45:31  5-MIN KAQV 120745Z AUTO 00000KT 10SM CLR 23/22 A2997 330 97 1400 000/00 RMK AO2 T02280222 $
03949KAQV AQV20160712015011707/12/16 01:50:31  5-MIN KAQV 120750Z AUTO 17003KT 10SM CLR 23/22 A2997 330 97 1400 170/03 RMK AO2 SLP144 T02280222 $
03949KAQV AQV20160712015511707/12/16 01:55:31  5-MIN KAQV 120755Z AUTO 00000KT 10SM CLR 23/22 A2997 330 97 1400 000/00 RMK AO2 SLP145 T02280222 $
03949KAQV AQV20160712020011007/12/16 02:00:31  5-MIN KAQV 120800Z AUTO VRB04KT 10SM CLR 23/22 A2997 330 97 1400 VRB/04 RMK AO2 T02280222 $
03949KAQV AQV20160712020511007/12/16 02:05:31  5-MIN KAQV 120805Z AUTO 17003KT 10SM CLR 23/22 A2997 330 97 1400 160/03 RMK AO2 T02280222 $
03949KAQV AQV20160712021011007/12/16 02:10:31  5-MIN KAQV 120810Z AUTO 17003KT 10SM CLR 23/22 A2997 330 97 1400 170/03 RMK AO2 T02280222 $
03949KAQV AQV20160712021511007/12/16 02:15:31  5-MIN KAQV 120815Z AUTO 00000KT 10SM CLR 23/22 A2997 330 97 1400 000/00 RMK AO2 T02280222 $
03949KAQV AQV20160712022011007/12/16 02:20:31  5-MIN KAQV 120820Z AUTO 16003KT 10SM CLR 23/22 A2997 330 97 1400 150/03 RMK AO2 T02280222 $
03949KAQV AQV20160712022511007/12/16 02:25:31  5-MIN KAQV 120825Z AUTO 00000KT 10SM CLR 23/22 A2997 330 97 1400 000/00 RMK AO2 T02280222 $
03949KAQV AQV20160712023011007/12/16 02:30:31  5-MIN KAQV 120830Z AUTO 00000KT 10SM CLR 23/22 A2997 330 97 1400 000/00 RMK AO2 T02280222 $
03949KAQV AQV20160712023511007/12/16 02:35:31  5-MIN KAQV 120835Z AUTO 00000KT 10SM CLR 23/22 A2997 330 97 1400 000/00 RMK AO2 T02280222 $
03949KAQV AQV20160712024010907/12/16 02:40:31  5-MIN KAQV 120840Z AUTO 00000KT 9SM CLR 23/22 A2997 330 97 1400 000/00 RMK AO2 T02280222 $
03949KAQV AQV20160712024510907/12/16 02:45:31  5-MIN KAQV 120845Z AUTO 00000KT 9SM CLR 23/22 A2997 330 97 1400 000/00 RMK AO2 T02280222 $
03949KAQV AQV20160712025012207/12/16 02:50:31  5-MIN KAQV 120850Z AUTO 00000KT 8SM CLR 23/22 A2997 330 97 1400 000/00 RMK AO2 SLP145 T02280222 53003 $
03949KAQV AQV20160712025512207/12/16 02:55:31  5-MIN KAQV 120855Z AUTO 00000KT 8SM CLR 23/22 A2997 330 97 1400 000/00 RMK AO2 SLP145 T02280222 53003 $
03949KAQV AQV20160712030010907/12/16 03:00:31  5-MIN KAQV 120900Z AUTO 00000KT 8SM CLR 23/22 A2997 330 97 1400 000/00 RMK AO2 T02280222 $
03949KAQV AQV20160712030510907/12/16 03:05:31  5-MIN KAQV 120905Z AUTO 00000KT 8SM CLR 23/22 A2997 330 97 1300 000/00 RMK AO2 T02280222 $
03949KAQV AQV20160712031010907/12/16 03:10:31  5-MIN KAQV 120910Z AUTO 00000KT 7SM CLR 23/22 A2997 330 97 1300 000/00 RMK AO2 T02280222 $
03949KAQV AQV20160712031510907/12/16 03:15:31  5-MIN KAQV 120915Z AUTO 00000KT 7SM CLR 22/22 A2997 330 97 1300 000/00 RMK AO2 T02220217 $
03949KAQV AQV20160712032010907/12/16 03:20:31  5-MIN KAQV 120920Z AUTO 00000KT 7SM CLR 22/22 A2997 330 97 1300 000/00 RMK AO2 T02220217 $
03949KAQV AQV20160712032511207/12/16 03:25:31  5-MIN KAQV 120925Z AUTO 00000KT 6SM BR CLR 22/22 A2997 330 97 1300 000/00 RMK AO2 T02220217 $
03949KAQV AQV20160712033011207/12/16 03:30:31  5-MIN KAQV 120930Z AUTO 00000KT 6SM BR CLR 22/22 A2997 330 97 1300 000/00 RMK AO2 T02220217 $
03949KAQV AQV20160712033511207/12/16 03:35:31  5-MIN KAQV 120935Z AUTO 00000KT 6SM BR CLR 22/22 A2997 330 97 1300 000/00 RMK AO2 T02220217 $
03949KAQV AQV20160712034011207/12/16 03:40:31  5-MIN KAQV 120940Z AUTO 00000KT 6SM BR CLR 22/22 A2997 330 97 1300 000/00 RMK AO2 T02220217 $
03949KAQV AQV20160712034511207/12/16 03:45:31  5-MIN KAQV 120945Z AUTO 00000KT 6SM BR CLR 22/22 A2997 330 97 1300 000/00 RMK AO2 T02220217 $
03949KAQV AQV20160712035011907/12/16 03:50:31  5-MIN KAQV 120950Z AUTO 00000KT 6SM BR CLR 22/22 A2997 330 97 1300 000/00 RMK AO2 SLP143 T02220217 $
03949KAQV AQV20160712035511907/12/16 03:55:31  5-MIN KAQV 120955Z AUTO 00000KT 5SM BR CLR 22/22 A2997 330 97 1300 000/00 RMK AO2 SLP144 T02220217 $
03949KAQV AQV20160712040011207/12/16 04:00:31  5-MIN KAQV 121000Z AUTO 00000KT 5SM BR CLR 22/22 A2997 330 97 1300 000/00 RMK AO2 T02220217 $
03949KAQV AQV20160712040511207/12/16 04:05:31  5-MIN KAQV 121005Z AUTO 00000KT 6SM BR CLR 22/22 A2997 330 97 1300 000/00 RMK AO2 T02220217 $
03949KAQV AQV20160712041011207/12/16 04:10:31  5-MIN KAQV 121010Z AUTO 00000KT 6SM BR CLR 22/22 A2997 330 97 1300 000/00 RMK AO2 T02220217 $
03949KAQV AQV20160712041511207/12/16 04:15:31  5-MIN KAQV 121015Z AUTO 00000KT 6SM BR CLR 22/22 A2997 330 97 1300 000/00 RMK AO2 T02220217 $
03949KAQV AQV20160712042011207/12/16 04:20:31  5-MIN KAQV 121020Z AUTO 00000KT 6SM BR CLR 22/22 A2997 330 97 1300 000/00 RMK AO2 T02220217 $
03949KAQV AQV20160712042511207/12/16 04:25:31  5-MIN KAQV 121025Z AUTO 00000KT 6SM BR CLR 23/22 A2997 330 97 1300 000/00 RMK AO2 T02280222 $
03949KAQV AQV20160712043011207/12/16 04:30:31  5-MIN KAQV 121030Z AUTO 16003KT 6SM BR CLR 22/22 A2997 330 97 1300 150/03 RMK AO2 T02220217 $
03949KAQV AQV20160712043511207/12/16 04:35:31  5-MIN KAQV 121035Z AUTO 00000KT 6SM BR CLR 22/22 A2997 330 97 1300 000/00 RMK AO2 T02220217 $
03949KAQV AQV20160712044011307/12/16 04:40:31  5-MIN KAQV 121040Z AUTO 00000KT 6SM BR CLR 22/22 A2997 330 100 1300 000/00 RMK AO2 T02220222 $
03949KAQV AQV20160712044511207/12/16 04:45:31  5-MIN KAQV 121045Z AUTO 00000KT 6SM BR CLR 22/22 A2998 320 97 1300 000/00 RMK AO2 T02220217 $
03949KAQV AQV20160712045012007/12/16 04:50:31  5-MIN KAQV 121050Z AUTO 00000KT 6SM BR CLR 22/22 A2998 320 100 1300 000/00 RMK AO2 SLP148 T02220222 $
03949KAQV AQV20160712045512007/12/16 04:55:31  5-MIN KAQV 121055Z AUTO 00000KT 6SM BR CLR 22/22 A2998 320 100 1300 000/00 RMK AO2 SLP148 T02220222 $
03949KAQV AQV20160712050011207/12/16 05:00:31  5-MIN KAQV 121100Z AUTO 00000KT 6SM BR CLR 23/22 A2998 320 97 1300 000/00 RMK AO2 T02280222 $
03949KAQV AQV20160712050511207/12/16 05:05:31  5-MIN KAQV 121105Z AUTO 00000KT 6SM BR CLR 23/22 A2998 320 97 1300 000/00 RMK AO2 T02280222 $
03949KAQV AQV20160712051011207/12/16 05:10:31  5-MIN KAQV 121110Z AUTO 00000KT 6SM BR CLR 23/22 A2999 320 97 1300 000/00 RMK AO2 T02280222 $
03949KAQV AQV20160712051511207/12/16 05:15:31  5-MIN KAQV 121115Z AUTO 00000KT 6SM BR CLR 23/22 A2999 310 97 1300 000/00 RMK AO2 T02280222 $
03949KAQV AQV20160712052011207/12/16 05:20:31  5-MIN KAQV 121120Z AUTO 00000KT 4SM BR CLR 22/22 A2999 310 97 1300 000/00 RMK AO2 T02220217 $
03949KAQV AQV20160712052511207/12/16 05:25:31  5-MIN KAQV 121125Z AUTO 00000KT 3SM BR CLR 22/22 A2999 310 97 1300 000/00 RMK AO2 T02220217 $
03949KAQV AQV20160712053011207/12/16 05:30:31  5-MIN KAQV 121130Z AUTO 00000KT 3SM BR CLR 22/22 A2999 310 97 1300 000/00 RMK AO2 T02220217 $
03949KAQV AQV20160712053511207/12/16 05:35:31  5-MIN KAQV 121135Z AUTO 00000KT 3SM BR CLR 22/22 A2999 310 97 1300 000/00 RMK AO2 T02220217 $
03949KAQV AQV20160712054011207/12/16 05:40:31  5-MIN KAQV 121140Z AUTO 00000KT 2SM BR CLR 22/22 A3000 310 97 1300 000/00 RMK AO2 T02220217 $
03949KAQV AQV20160712054511607/12/16 05:45:31  5-MIN KAQV 121145Z AUTO 00000KT 2 1/2SM BR CLR 22/22 A3000 310 97 1300 000/00 RMK AO2 T02220217 $
03949KAQV AQV20160712055010207/12/16 05:50:31  5-MIN KAQV 121150Z AUTO 00000KT 4SM BR CLR 22/22 A3000 310 97 1300 000/00 RMK AO2 $
03949KAQV AQV20160712055513807/12/16 05:55:31  5-MIN KAQV 121155Z AUTO 00000KT 5SM BR CLR 22/22 A3000 300 100 1300 000/00 RMK AO2 SLP155 T02220222 10228 20222 53009 $
03949KAQV AQV20160712060011307/12/16 06:00:31  5-MIN KAQV 121200Z AUTO 00000KT 6SM BR CLR 22/22 A3000 300 100 1200 000/00 RMK AO2 T02220222 $
03949KAQV AQV20160712060511207/12/16 06:05:31  5-MIN KAQV 121205Z AUTO 00000KT 6SM BR CLR 23/22 A3001 300 97 1300 000/00 RMK AO2 T02280222 $
03949KAQV AQV20160712061011307/12/16 06:10:31  5-MIN KAQV 121210Z AUTO 00000KT 6SM BR CLR 23/23 A3001 300 100 1300 000/00 RMK AO2 T02280228 $
03949KAQV AQV20160712061511607/12/16 06:15:31  5-MIN KAQV 121215Z AUTO 00000KT 5SM BR FEW003 23/23 A3001 290 100 1300 000/00 RMK AO2 T02280228 $
03949KAQV AQV20160712062011207/12/16 06:20:31  5-MIN KAQV 121220Z AUTO 00000KT 6SM BR CLR 23/23 A3001 290 97 1400 000/00 RMK AO2 T02330228 $
03949KAQV AQV20160712062511207/12/16 06:25:31  5-MIN KAQV 121225Z AUTO 00000KT 6SM BR CLR 23/23 A3001 290 97 1400 000/00 RMK AO2 T02330228 $
03949KAQV AQV20160712063010907/12/16 06:30:31  5-MIN KAQV 121230Z AUTO 00000KT 7SM CLR 23/23 A3001 290 97 1400 000/00 RMK AO2 T02330228 $
03949KAQV AQV20160712063511207/12/16 06:35:31  5-MIN KAQV 121235Z AUTO 00000KT 7SM FEW003 23/23 A3002 290 97 1400 000/00 RMK AO2 T02330228 $
03949KAQV AQV20160712064012007/12/16 06:40:31  5-MIN KAQV 121240Z AUTO 14003KT 8SM FEW003 SCT025 23/23 A3002 280 100 1400 130/03 RMK AO2 T02330233 $
03949KAQV AQV20160712064511907/12/16 06:45:31  5-MIN KAQV 121245Z AUTO 00000KT 8SM FEW003 FEW025 23/23 A3002 280 97 1400 000/00 RMK AO2 T02330228 $
03949KAQV AQV20160712065012607/12/16 06:50:31  5-MIN KAQV 121250Z AUTO VRB03KT 9SM FEW005 FEW025 24/23 A3002 280 97 1400 VRB/03 RMK AO2 SLP162 T02390233 $
03949KAQV AQV20160712065512607/12/16 06:55:31  5-MIN KAQV 121255Z AUTO VRB03KT 9SM FEW005 FEW025 24/23 A3003 280 97 1400 VRB/03 RMK AO2 SLP164 T02390233 $
03949KAQV AQV20160712070012707/12/16 07:00:31  5-MIN KAQV 121300Z AUTO VRB03KT 10SM FEW004 SCT025 SCT032 24/23 A3003 280 97 1400 VRB/03 RMK AO2 T02390233 $
03949KAQV AQV20160712070512707/12/16 07:05:31  5-MIN KAQV 121305Z AUTO 17003KT 10SM FEW004 FEW025 SCT032 24/23 A3003 280 97 1400 170/03 RMK AO2 T02390233 $
03949KAQV AQV20160712071011307/12/16 07:10:31  5-MIN KAQV 121310Z AUTO 17005KT 10SM FEW025 24/23 A3003 280 93 1500 170/05 RMK AO2 T02440233 $
03949KAQV AQV20160712071511307/12/16 07:15:31  5-MIN KAQV 121315Z AUTO 17005KT 10SM FEW025 24/23 A3003 270 93 1500 160/05 RMK AO2 T02440233 $
03949KAQV AQV20160712072011007/12/16 07:20:31  5-MIN KAQV 121320Z AUTO VRB03KT 10SM CLR 24/23 A3003 270 93 1500 VRB/03 RMK AO2 T02440233 $
03949KAQV AQV20160712072512007/12/16 07:25:31  5-MIN KAQV 121325Z AUTO 18005KT 10SM FEW020 FEW028 24/24 A3004 270 97 1500 170/05 RMK AO2 T02440239 $
03949KAQV AQV20160712073011307/12/16 07:30:31  5-MIN KAQV 121330Z AUTO 16005KT 10SM FEW020 24/24 A3004 270 97 1500 160/05 RMK AO2 T02440239 $
03949KAQV AQV20160712073511307/12/16 07:35:31  5-MIN KAQV 121335Z AUTO 18004KT 10SM FEW020 25/24 A3004 270 93 1500 170/04 RMK AO2 T02500239 $
03949KAQV AQV20160712074011307/12/16 07:40:31  5-MIN KAQV 121340Z AUTO VRB04KT 10SM FEW020 25/24 A3004 270 93 1500 VRB/04 RMK AO2 T02500239 $
03949KAQV AQV20160712074511307/12/16 07:45:31  5-MIN KAQV 121345Z AUTO VRB03KT 10SM FEW020 25/24 A3004 260 93 1500 VRB/03 RMK AO2 T02500239 $
03949KAQV AQV20160712075012007/12/16 07:50:31  5-MIN KAQV 121350Z AUTO 19004KT 10SM FEW020 25/24 A3004 260 93 1500 180/04 RMK AO2 SLP170 T02500239 $
03949KAQV AQV20160712075512007/12/16 07:55:31  5-MIN KAQV 121355Z AUTO VRB05KT 10SM FEW021 25/24 A3004 260 93 1500 VRB/05 RMK AO2 SLP170 T02500239 $
03949KAQV AQV20160712080011307/12/16 08:00:31  5-MIN KAQV 121400Z AUTO VRB04KT 10SM FEW021 26/24 A3004 260 87 1600 VRB/04 RMK AO2 T02610239 $
03949KAQV AQV20160712080511307/12/16 08:05:31  5-MIN KAQV 121405Z AUTO VRB04KT 10SM SCT021 28/24 A3004 260 79 1800 VRB/04 RMK AO2 T02780239 $
03949KAQV AQV20160712081012707/12/16 08:10:31  5-MIN KAQV 121410Z AUTO 00000KT 10SM SCT021 BKN027 BKN033 28/24 A3004 270 76 1900 000/00 RMK AO2 T02830239 $
03949KAQV AQV20160712081512707/12/16 08:15:31  5-MIN KAQV 121415Z AUTO VRB04KT 10SM SCT019 BKN024 BKN033 28/24 A3004 260 76 1900 VRB/04 RMK AO2 T02830239 $
03949KAQV AQV20160712082012707/12/16 08:20:31  5-MIN KAQV 121420Z AUTO VRB04KT 10SM SCT017 BKN023 BKN031 28/24 A3004 260 76 1900 VRB/04 RMK AO2 T02830239 $
03949KAQV AQV20160712082512607/12/16 08:25:31  5-MIN KAQV 121425Z AUTO VRB03KT 7SM BKN019 BKN024 OVC032 29/24 A3004 260 74 2000 VRB/03 RMK AO2 T02890239 $
03949KAQV AQV20160712083012607/12/16 08:30:31  5-MIN KAQV 121430Z AUTO VRB03KT 7SM SCT016 BKN022 OVC032 28/24 A3004 260 76 1900 VRB/03 RMK AO2 T02830239 $
03949KAQV AQV20160712083512607/12/16 08:35:31  5-MIN KAQV 121435Z AUTO VRB03KT 9SM BKN018 BKN022 OVC028 28/24 A3004 270 79 1800 VRB/03 RMK AO2 T02780239 $
03949KAQV AQV20160712084012707/12/16 08:40:31  5-MIN KAQV 121440Z AUTO 22005KT 10SM BKN018 BKN022 OVC030 28/24 A3004 260 79 1800 210/05 RMK AO2 T02780239 $
03949KAQV AQV20160712084511307/12/16 08:45:31  5-MIN KAQV 121445Z AUTO VRB04KT 10SM OVC017 29/24 A3004 270 76 2000 VRB/04 RMK AO2 T02890244 $
03949KAQV AQV20160712085013307/12/16 08:50:31  5-MIN KAQV 121450Z AUTO VRB04KT 10SM BKN019 OVC030 30/24 A3004 260 72 2100 VRB/04 RMK AO2 SLP169 T03000244 51011 $
03949KAQV AQV20160712085513307/12/16 08:55:31  5-MIN KAQV 121455Z AUTO VRB04KT 10SM BKN019 BKN033 30/24 A3004 260 69 2100 VRB/04 RMK AO2 SLP170 T03000239 51011 $
03949KAQV AQV20160712090012707/12/16 09:00:31  5-MIN KAQV 121500Z AUTO 21005KT 10SM BKN019 BKN029 OVC037 29/23 A3005 260 71 2000 200/05 RMK AO2 T02890233 $
03949KAQV AQV20160712090512007/12/16 09:05:31  5-MIN KAQV 121505Z AUTO 19006KT 10SM BKN019 BKN037 29/23 A3005 260 69 2000 190/06 RMK AO2 T02940233 $
03949KAQV AQV20160712091012707/12/16 09:10:31  5-MIN KAQV 121510Z AUTO VRB05KT 10SM SCT019 BKN025 BKN031 29/23 A3005 260 69 2000 VRB/05 RMK AO2 T02940233 $
03949KAQV AQV20160712091512707/12/16 09:15:31  5-MIN KAQV 121515Z AUTO VRB06KT 10SM SCT021 SCT026 BKN035 30/24 A3004 260 69 2100 VRB/06 RMK AO2 T03000239 $
03949KAQV AQV20160712092012607/12/16 09:20:31  5-MIN KAQV 121520Z AUTO VRB06KT 9SM SCT021 SCT031 SCT038 31/23 A3005 260 63 2200 VRB/06 RMK AO2 T03110233 $
03949KAQV AQV20160712092513507/12/16 09:25:31  5-MIN KAQV 121525Z AUTO 19007KT 140V210 9SM FEW022 SCT030 31/23 A3005 260 65 2100 180/07 140V210 RMK AO2 T03060233 $
03949KAQV AQV20160712093013307/12/16 09:30:31  5-MIN KAQV 121530Z AUTO 18008G15KT 10SM FEW025 SCT030 SCT038 31/23 A3005 260 60 2200 170/08G15 RMK AO2 T03110228 $
03949KAQV AQV20160712093513307/12/16 09:35:31  5-MIN KAQV 121535Z AUTO VRB06G15KT 10SM FEW025 SCT030 SCT038 31/23 A3005 260 62 2100 VRB/06G15 RMK AO2 T03060228 $
03949KAQV AQV20160712094011307/12/16 09:40:31  5-MIN KAQV 121540Z AUTO 19008KT 10SM FEW025 31/22 A3005 260 60 2100 190/08 RMK AO2 T03060222 $
03949KAQV AQV20160712094511307/12/16 09:45:31  5-MIN KAQV 121545Z AUTO VRB05KT 10SM FEW027 31/22 A3005 260 58 2100 VRB/05 RMK AO2 T03060217 $
03949KAQV AQV20160712095012007/12/16 09:50:31  5-MIN KAQV 121550Z AUTO 18004KT 10SM FEW029 31/22 A3005 250 58 2200 180/04 RMK AO2 SLP173 T03110222 $
03949KAQV AQV20160712095511707/12/16 09:55:31  5-MIN KAQV 121555Z AUTO VRB03KT 10SM CLR 31/22 A3005 250 58 2200 VRB/03 RMK AO2 SLP173 T03110222 $
03949KAQV AQV20160712100011007/12/16 10:00:31  5-MIN KAQV 121600Z AUTO 18003KT 10SM CLR 31/22 A3005 250 58 2200 170/03 RMK AO2 T03110222 $
03949KAQV AQV20160712100512007/12/16 10:05:31  5-MIN KAQV 121605Z AUTO 17004KT 10SM FEW033 FEW043 31/22 A3005 250 58 2200 170/04 RMK AO2 T03110222 $
03949KAQV AQV20160712101012007/12/16 10:10:31  5-MIN KAQV 121610Z AUTO 00000KT 10SM FEW033 FEW043 32/22 A3005 260 56 2300 000/00 RMK AO2 T03170222 $
03949KAQV AQV20160712101510307/12/16 10:15:31  5-MIN KAQV 121615Z AUTO 10SM FEW033 32/22 A3005 260 55 2300 M /M RMK AO2 T03220222 $
03949KAQV AQV20160712102012007/12/16 10:20:31  5-MIN KAQV 121620Z AUTO VRB04KT 10SM FEW033 FEW042 32/22 A3005 260 55 2300 VRB/04 RMK AO2 T03220222 $
03949KAQV AQV20160712102512007/12/16 10:25:31  5-MIN KAQV 121625Z AUTO VRB04KT 10SM FEW033 FEW042 32/22 A3005 260 56 2300 VRB/04 RMK AO2 T03170222 $
03949KAQV AQV20160712103012007/12/16 10:30:31  5-MIN KAQV 121630Z AUTO 19007KT 10SM FEW035 SCT044 32/22 A3005 250 56 2300 190/07 RMK AO2 T03170222 $
03949KAQV AQV20160712103512007/12/16 10:35:31  5-MIN KAQV 121635Z AUTO 22007KT 10SM FEW037 SCT044 32/22 A3005 260 55 2300 210/07 RMK AO2 T03220222 $
03949KAQV AQV20160712104011307/12/16 10:40:31  5-MIN KAQV 121640Z AUTO VRB05KT 10SM SCT040 32/22 A3005 260 55 2300 VRB/05 RMK AO2 T03220222 $
03949KAQV AQV20160712104512007/12/16 10:45:31  5-MIN KAQV 121645Z AUTO VRB05KT 10SM SCT035 BKN045 33/22 A3005 260 53 2400 VRB/05 RMK AO2 T03280222 $
03949KAQV AQV20160712105012507/12/16 10:50:31  5-MIN KAQV 121650Z AUTO 19005KT 10SM BKN037 BKN047 33/23 A3005 260 55 2400 180/05 RMK AO2 SLP171 T03280228
03949KAQV AQV20160712105514107/12/16 10:55:31  5-MIN KAQV 121655Z AUTO 17008KT 110V200 10SM SCT037 BKN045 33/23 A3005 260 53 2400 160/08 110V200 RMK AO2 SLP171 T03330228
03949KAQV AQV20160712110014107/12/16 11:00:31  5-MIN KAQV 121700Z AUTO 24007KT 180V300 10SM SCT037 BKN045 BKN050 33/22 A3005 260 51 2400 230/07 180V300 RMK AO2 T03330222
03949KAQV AQV20160712110512507/12/16 11:05:31  5-MIN KAQV 121705Z AUTO VRB05KT 10SM SCT037 BKN045 BKN055 32/23 A3005 260 57 2300 VRB/05 RMK AO2 T03220228
03949KAQV AQV20160712111013407/12/16 11:10:31  5-MIN KAQV 121710Z AUTO 23007KT 190V270 10SM FEW034 SCT043 32/22 A3005 260 55 2300 220/07 190V270 RMK AO2 T03220222
03949KAQV AQV20160712111511807/12/16 11:15:31  5-MIN KAQV 121715Z AUTO VRB05KT 10SM FEW036 FEW050 32/22 A3005 260 53 2300 VRB/05 RMK AO2 T03220217
03949KAQV AQV20160712112012407/12/16 11:20:31  5-MIN KAQV 121720Z AUTO VRB06G16KT 10SM FEW040 FEW055 33/21 A3004 260 48 2400 VRB/06G16 RMK AO2 T03330211
03949KAQV AQV20160712112512407/12/16 11:25:31  5-MIN KAQV 121725Z AUTO 20007G16KT 10SM SCT042 SCT055 32/21 A3005 260 51 2300 200/07G16 RMK AO2 T03220211
03949KAQV AQV20160712113012407/12/16 11:30:31  5-MIN KAQV 121730Z AUTO VRB06G16KT 10SM FEW044 SCT060 33/22 A3004 260 51 2400 VRB/06G16 RMK AO2 T03280217
03949KAQV AQV20160712113511107/12/16 11:35:31  5-MIN KAQV 121735Z AUTO 19006KT 10SM FEW044 32/21 A3004 260 51 2300 180/06 RMK AO2 T03220211
03949KAQV AQV20160712114011107/12/16 11:40:31  5-MIN KAQV 121740Z AUTO VRB06KT 10SM FEW044 33/21 A3004 270 48 2500 VRB/06 RMK AO2 T03330211
03949KAQV AQV20160712114511807/12/16 11:45:31  5-MIN KAQV 121745Z AUTO VRB06KT 10SM FEW044 SCT060 33/21 A3004 270 49 2400 VRB/06 RMK AO2 T03280211
03949KAQV AQV20160712115014307/12/16 11:50:31  5-MIN KAQV 121750Z AUTO VRB04KT 10SM FEW044 SCT055 33/21 A3003 270 49 2400 VRB/04 RMK AO2 SLP167 T03280211 10339 20222 51015
03949KAQV AQV20160712115514307/12/16 11:55:31  5-MIN KAQV 121755Z AUTO VRB06KT 10SM FEW044 SCT055 33/21 A3003 270 49 2400 VRB/06 RMK AO2 SLP167 T03280211 10339 20222 51015
03949KAQV AQV20160712120011807/12/16 12:00:31  5-MIN KAQV 121800Z AUTO VRB06KT 10SM FEW044 SCT050 33/21 A3003 270 48 2500 VRB/06 RMK AO2 T03330211
03949KAQV AQV20160712120513407/12/16 12:05:31  5-MIN KAQV 121805Z AUTO 21008KT 170V250 10SM SCT047 SCT055 34/22 A3003 270 48 2500 210/08 170V250 RMK AO2 T03390217
03949KAQV AQV20160712121011807/12/16 12:10:31  5-MIN KAQV 121810Z AUTO VRB06KT 10SM SCT045 SCT055 33/21 A3003 280 49 2400 VRB/06 RMK AO2 T03280211
03949KAQV AQV20160712121511807/12/16 12:15:31  5-MIN KAQV 121815Z AUTO VRB06KT 10SM FEW045 SCT050 34/21 A3002 280 46 2500 VRB/06 RMK AO2 T03390211
03949KAQV AQV20160712122011107/12/16 12:20:31  5-MIN KAQV 121820Z AUTO 00000KT 10SM SCT047 33/21 A3002 280 48 2500 000/00 RMK AO2 T03330211
03949KAQV AQV20160712122511007/12/16 12:25:31  5-MIN KAQV 121825Z AUTO VRB03KT 9SM BKN045 33/21 A3002 280 49 2400 VRB/03 RMK AO2 T03280211
03949KAQV AQV20160712123011007/12/16 12:30:31  5-MIN KAQV 121830Z AUTO VRB05KT 9SM SCT045 33/22 A3002 280 50 2500 VRB/05 RMK AO2 T03330217
03949KAQV AQV20160712123511107/12/16 12:35:31  5-MIN KAQV 121835Z AUTO VRB06KT 10SM SCT045 34/22 A3002 280 48 2500 VRB/06 RMK AO2 T03390217
03949KAQV AQV20160712124011007/12/16 12:40:31  5-MIN KAQV 121840Z AUTO 19006KT 9SM SCT045 33/21 A3002 280 48 2500 180/06 RMK AO2 T03330211
03949KAQV AQV20160712124511007/12/16 12:45:31  5-MIN KAQV 121845Z AUTO VRB06KT 9SM SCT045 33/21 A3002 290 48 2500 VRB/06 RMK AO2 T03330211
03949KAQV AQV20160712125013307/12/16 12:50:31  5-MIN KAQV 121850Z AUTO 22007KT 190V260 8SM SCT045 34/22 A3002 290 46 2600 220/07 190V260 RMK AO2 SLP159 T03440217
03949KAQV AQV20160712125511707/12/16 12:55:31  5-MIN KAQV 121855Z AUTO 20006KT 8SM SCT045 34/21 A3001 290 46 2500 190/06 RMK AO2 SLP159 T03390211
03949KAQV AQV20160712130011107/12/16 13:00:31  5-MIN KAQV 121900Z AUTO VRB06KT 10SM FEW047 34/21 A3001 290 46 2500 VRB/06 RMK AO2 T03390211
03949KAQV AQV20160712130511107/12/16 13:05:31  5-MIN KAQV 121905Z AUTO 20007KT 10SM FEW047 34/21 A3001 290 43 2600 200/07 RMK AO2 T03440206
03949KAQV AQV20160712131011107/12/16 13:10:31  5-MIN KAQV 121910Z AUTO VRB06KT 10SM FEW047 34/20 A3001 290 43 2500 VRB/06 RMK AO2 T03390200
03949KAQV AQV20160712131511107/12/16 13:15:31  5-MIN KAQV 121915Z AUTO 18009KT 10SM FEW049 34/20 A3001 290 43 2500 170/09 RMK AO2 T03390200
03949KAQV AQV20160712132012707/12/16 13:20:31  5-MIN KAQV 121920Z AUTO 17007KT 120V220 10SM FEW049 34/20 A3001 290 42 2600 160/07 120V220 RMK AO2 T03440200
03949KAQV AQV20160712132511707/12/16 13:25:31  5-MIN KAQV 121925Z AUTO VRB06G14KT 10SM FEW050 34/19 A3001 290 40 2600 VRB/06G14 RMK AO2 T03440194
03949KAQV AQV20160712133013307/12/16 13:30:31  5-MIN KAQV 121930Z AUTO 21007G14KT 170V260 10SM FEW050 34/19 A3001 300 40 2600 200/07G14 170V260 RMK AO2 T03440194
03949KAQV AQV20160712133512707/12/16 13:35:31  5-MIN KAQV 121935Z AUTO 20008KT 170V230 10SM FEW050 34/19 A3001 300 40 2600 190/08 170V230 RMK AO2 T03440194
03949KAQV AQV20160712134011007/12/16 13:40:31  5-MIN KAQV 121940Z AUTO 17008KT 9SM FEW050 34/18 A3001 300 38 2600 170/08 RMK AO2 T03440183
03949KAQV AQV20160712134510707/12/16 13:45:31  5-MIN KAQV 121945Z AUTO VRB06KT 9SM CLR 34/18 A3001 300 38 2600 VRB/06 RMK AO2 T03440183
03949KAQV AQV20160712135011507/12/16 13:50:31  5-MIN KAQV 121950Z AUTO 17007KT 10SM CLR 35/19 A3001 300 38 2700 160/07 RMK AO2 SLP156 T03500189
03949KAQV AQV20160712135513107/12/16 13:55:31  5-MIN KAQV 121955Z AUTO 18007KT 130V240 10SM CLR 36/19 A3001 300 37 2700 180/07 130V240 RMK AO2 SLP156 T03560189
03949KAQV AQV20160712140011107/12/16 14:00:31  5-MIN KAQV 122000Z AUTO 17006KT 10SM FEW060 34/19 A3000 300 39 2600 170/06 RMK AO2 T03440189
03949KAQV AQV20160712140511107/12/16 14:05:31  5-MIN KAQV 122005Z AUTO 18007KT 10SM SCT060 34/19 A3001 300 42 2600 180/07 RMK AO2 T03390194
03949KAQV AQV20160712141012707/12/16 14:10:31  5-MIN KAQV 122010Z AUTO 18007KT 140V250 10SM SCT060 34/19 A3000 300 40 2600 180/07 140V250 RMK AO2 T03440194
03949KAQV AQV20160712141511107/12/16 14:15:31  5-MIN KAQV 122015Z AUTO VRB03KT 10SM SCT060 35/18 A3000 300 36 2700 VRB/03 RMK AO2 T03500183
03949KAQV AQV20160712142011107/12/16 14:20:31  5-MIN KAQV 122020Z AUTO 19006KT 10SM SCT060 35/19 A3001 300 38 2700 190/06 RMK AO2 T03500189
03949KAQV AQV20160712142511107/12/16 14:25:31  5-MIN KAQV 122025Z AUTO VRB06KT 10SM BKN060 35/19 A3001 300 39 2700 VRB/06 RMK AO2 T03500194
03949KAQV AQV20160712143011107/12/16 14:30:31  5-MIN KAQV 122030Z AUTO VRB05KT 10SM BKN060 35/19 A3000 300 38 2700 VRB/05 RMK AO2 T03500189
03949KAQV AQV20160712143511107/12/16 14:35:31  5-MIN KAQV 122035Z AUTO VRB04KT 10SM BKN060 35/19 A3000 300 38 2700 VRB/04 RMK AO2 T03500189
03949KAQV AQV20160712144011107/12/16 14:40:31  5-MIN KAQV 122040Z AUTO VRB05KT 10SM BKN060 35/19 A3001 300 39 2700 VRB/05 RMK AO2 T03500194
03949KAQV AQV20160712144511107/12/16 14:45:31  5-MIN KAQV 122045Z AUTO VRB05KT 10SM BKN060 35/19 A3001 300 39 2700 VRB/05 RMK AO2 T03500194
03949KAQV AQV20160712145012407/12/16 14:50:31  5-MIN KAQV 122050Z AUTO VRB05KT 10SM BKN060 34/19 A3000 300 40 2600 VRB/05 RMK AO2 SLP156 T03440194 58003
03949KAQV AQV20160712145512407/12/16 14:55:31  5-MIN KAQV 122055Z AUTO VRB03KT 10SM BKN060 34/19 A3001 300 40 2600 VRB/03 RMK AO2 SLP156 T03440194 58003
03949KAQV AQV20160712150011107/12/16 15:00:31  5-MIN KAQV 122100Z AUTO VRB06KT 10SM BKN060 34/20 A3000 300 43 2600 VRB/06 RMK AO2 T03390200
03949KAQV AQV20160712150511107/12/16 15:05:31  5-MIN KAQV 122105Z AUTO VRB06KT 10SM BKN065 34/20 A3000 300 42 2600 VRB/06 RMK AO2 T03440200
03949KAQV AQV20160712151011107/12/16 15:10:31  5-MIN KAQV 122110Z AUTO VRB05KT 10SM BKN065 35/19 A3000 300 38 2700 VRB/05 RMK AO2 T03500189
03949KAQV AQV20160712151511107/12/16 15:15:31  5-MIN KAQV 122115Z AUTO 17007KT 10SM BKN060 34/19 A3000 310 40 2600 170/07 RMK AO2 T03440194
03949KAQV AQV20160712152012407/12/16 15:20:31  5-MIN KAQV 122120Z AUTO VRB03G14KT 10SM BKN060 BKN070 35/19 A3000 300 38 2700 VRB/03G14 RMK AO2 T03500189
03949KAQV AQV20160712152511807/12/16 15:25:31  5-MIN KAQV 122125Z AUTO VRB05KT 10SM SCT060 SCT070 35/19 A2999 310 38 2700 VRB/05 RMK AO2 T03500189
03949KAQV AQV20160712153011107/12/16 15:30:31  5-MIN KAQV 122130Z AUTO VRB06KT 10SM SCT060 36/19 A2999 310 37 2700 VRB/06 RMK AO2 T03560189
03949KAQV AQV20160712153511107/12/16 15:35:31  5-MIN KAQV 122135Z AUTO VRB04KT 10SM SCT060 35/19 A2999 310 39 2700 VRB/04 RMK AO2 T03500194
03949KAQV AQV20160712154011107/12/16 15:40:31  5-MIN KAQV 122140Z AUTO VRB05KT 10SM SCT060 36/19 A2998 320 38 2800 VRB/05 RMK AO2 T03560194
03949KAQV AQV20160712154511107/12/16 15:45:31  5-MIN KAQV 122145Z AUTO VRB05KT 10SM FEW060 36/20 A2998 320 39 2800 VRB/05 RMK AO2 T03560200
03949KAQV AQV20160712155011807/12/16 15:50:31  5-MIN KAQV 122150Z AUTO VRB05KT 10SM SCT060 35/19 A2998 320 39 2700 VRB/05 RMK AO2 SLP148 T03500194
03949KAQV AQV20160712155511807/12/16 15:55:31  5-MIN KAQV 122155Z AUTO VRB05KT 10SM SCT060 35/19 A2998 320 39 2700 VRB/05 RMK AO2 SLP148 T03500194
03949KAQV AQV20160712160011107/12/16 16:00:31  5-MIN KAQV 122200Z AUTO 16008KT 10SM SCT065 35/20 A2998 320 40 2700 160/08 RMK AO2 T03500200
03949KAQV AQV20160712160511807/12/16 16:05:31  5-MIN KAQV 122205Z AUTO VRB05KT 10SM SCT060 BKN075 35/20 A2998 320 40 2700 VRB/05 RMK AO2 T03500200
03949KAQV AQV20160712161010807/12/16 16:10:31  5-MIN KAQV 122210Z AUTO 10SM BKN060 BKN075 36/20 A2998 320 39 2800 M /M RMK AO2 T03560200
03949KAQV AQV20160712161511807/12/16 16:15:31  5-MIN KAQV 122215Z AUTO 18007KT 10SM SCT060 BKN075 35/20 A2998 320 40 2700 180/07 RMK AO2 T03500200
03949KAQV AQV20160712162013407/12/16 16:20:31  5-MIN KAQV 122220Z AUTO 17008KT 140V200 10SM SCT060 BKN075 35/20 A2998 320 40 2700 160/08 140V200 RMK AO2 T03500200
03949KAQV AQV20160712162511107/12/16 16:25:31  5-MIN KAQV 122225Z AUTO 18007KT 10SM BKN060 35/20 A2998 320 40 2700 170/07 RMK AO2 T03500200
03949KAQV AQV20160712163011107/12/16 16:30:31  5-MIN KAQV 122230Z AUTO VRB05KT 10SM BKN060 34/19 A2998 320 40 2600 VRB/05 RMK AO2 T03440194
03949KAQV AQV20160712163511107/12/16 16:35:31  5-MIN KAQV 122235Z AUTO 17005KT 10SM SCT065 33/19 A2998 320 43 2500 170/05 RMK AO2 T03330194
03949KAQV AQV20160712164011107/12/16 16:40:31  5-MIN KAQV 122240Z AUTO 18006KT 10SM SCT060 34/20 A2998 320 43 2600 170/06 RMK AO2 T03390200
03949KAQV AQV20160712164511107/12/16 16:45:31  5-MIN KAQV 122245Z AUTO 18005KT 10SM SCT065 34/20 A2998 320 42 2600 170/05 RMK AO2 T03440200
03949KAQV AQV20160712165011807/12/16 16:50:31  5-MIN KAQV 122250Z AUTO VRB04KT 10SM FEW065 34/20 A2997 330 42 2600 VRB/04 RMK AO2 SLP146 T03440200
03949KAQV AQV20160712165511807/12/16 16:55:31  5-MIN KAQV 122255Z AUTO VRB05KT 10SM FEW065 34/20 A2997 330 42 2600 VRB/05 RMK AO2 SLP146 T03440200
03949KAQV AQV20160712170012707/12/16 17:00:31  5-MIN KAQV 122300Z AUTO 16007KT 120V190 10SM FEW060 34/20 A2998 320 42 2600 160/07 120V190 RMK AO2 T03440200
03949KAQV AQV20160712170511807/12/16 17:05:31  5-MIN KAQV 122305Z AUTO VRB04KT 10SM SCT060 SCT080 35/20 A2997 330 40 2700 VRB/04 RMK AO2 T03500200
03949KAQV AQV20160712171012507/12/16 17:10:31  5-MIN KAQV 122310Z AUTO VRB05KT 10SM SCT055 SCT070 BKN080 34/20 A2997 330 42 2600 VRB/05 RMK AO2 T03440200
03949KAQV AQV20160712171511807/12/16 17:15:31  5-MIN KAQV 122315Z AUTO VRB06KT 10SM BKN055 BKN070 34/20 A2997 330 42 2600 VRB/06 RMK AO2 T03440200
03949KAQV AQV20160712172013407/12/16 17:20:31  5-MIN KAQV 122320Z AUTO 16007KT 120V190 10SM BKN055 BKN070 34/21 A2998 330 43 2600 150/07 120V190 RMK AO2 T03440206
03949KAQV AQV20160712172511807/12/16 17:25:31  5-MIN KAQV 122325Z AUTO VRB04KT 10SM BKN055 BKN065 34/21 A2998 320 43 2600 VRB/04 RMK AO2 T03440206
03949KAQV AQV20160712173011807/12/16 17:30:31  5-MIN KAQV 122330Z AUTO VRB06KT 10SM BKN055 OVC070 34/21 A2998 320 43 2600 VRB/06 RMK AO2 T03440206
03949KAQV AQV20160712173512507/12/16 17:35:31  5-MIN KAQV 122335Z AUTO 16007KT 10SM BKN055 BKN070 OVC090 33/21 A2998 320 46 2500 160/07 RMK AO2 T03330206
03949KAQV AQV20160712174012507/12/16 17:40:31  5-MIN KAQV 122340Z AUTO VRB04KT 10SM BKN055 BKN070 OVC090 33/21 A2998 320 48 2500 VRB/04 RMK AO2 T03330211
03949KAQV AQV20160712174512507/12/16 17:45:31  5-MIN KAQV 122345Z AUTO VRB04KT 10SM SCT050 BKN065 OVC090 33/21 A2998 320 49 2500 VRB/04 RMK AO2 T03280211
03949KAQV AQV20160712175015007/12/16 17:50:31  5-MIN KAQV 122350Z AUTO 00000KT 10SM SCT050 BKN065 BKN090 33/22 A2998 320 51 2500 000/00 RMK AO2 SLP148 T03280217 10356 20328 55009
03949KAQV AQV20160712175515007/12/16 17:55:31  5-MIN KAQV 122355Z AUTO 19004KT 10SM FEW050 SCT070 BKN090 33/22 A2998 320 51 2500 190/04 RMK AO2 SLP148 T03280217 10356 20328 55009
03949KAQV AQV20160712180012507/12/16 18:00:31  5-MIN KAQV 130000Z AUTO 19005KT 10SM FEW050 SCT065 SCT090 33/22 A2998 320 51 2500 180/05 RMK AO2 T03280217
03949KAQV AQV20160712180511807/12/16 18:05:31  5-MIN KAQV 130005Z AUTO 19005KT 10SM SCT055 SCT090 33/22 A2998 320 51 2500 190/05 RMK AO2 T03280217
03949KAQV AQV20160712181011107/12/16 18:10:31  5-MIN KAQV 130010Z AUTO VRB05KT 10SM FEW055 33/22 A2998 320 51 2500 VRB/05 RMK AO2 T03280217
03949KAQV AQV20160712181511107/12/16 18:15:31  5-MIN KAQV 130015Z AUTO VRB05KT 10SM FEW055 32/22 A2998 320 53 2400 VRB/05 RMK AO2 T03220217
03949KAQV AQV20160712182011107/12/16 18:20:31  5-MIN KAQV 130020Z AUTO 17004KT 10SM FEW055 33/22 A2998 320 51 2500 170/04 RMK AO2 T03280217
03949KAQV AQV20160712182511107/12/16 18:25:31  5-MIN KAQV 130025Z AUTO 20005KT 10SM SCT055 32/22 A2999 320 53 2400 200/05 RMK AO2 T03220217
03949KAQV AQV20160712183011107/12/16 18:30:31  5-MIN KAQV 130030Z AUTO VRB05KT 10SM SCT049 32/22 A2999 320 53 2400 VRB/05 RMK AO2 T03220217
03949KAQV AQV20160712183512507/12/16 18:35:31  5-MIN KAQV 130035Z AUTO 19006KT 10SM SCT049 SCT055 BKN070 32/22 A2999 310 55 2400 180/06 RMK AO2 T03220222
03949KAQV AQV20160712184012507/12/16 18:40:31  5-MIN KAQV 130040Z AUTO VRB03KT 10SM SCT045 BKN049 BKN070 32/22 A2999 310 55 2400 VRB/03 RMK AO2 T03220222
03949KAQV AQV20160712184512507/12/16 18:45:31  5-MIN KAQV 130045Z AUTO 17003KT 10SM BKN047 BKN065 BKN080 32/22 A2999 310 55 2400 170/03 RMK AO2 T03220222
03949KAQV AQV20160712185013207/12/16 18:50:31  5-MIN KAQV 130050Z AUTO VRB03KT 10SM BKN047 BKN070 BKN085 32/23 A2999 310 58 2300 VRB/03 RMK AO2 SLP152 T03170228
03949KAQV AQV20160712185513207/12/16 18:55:31  5-MIN KAQV 130055Z AUTO VRB03KT 10SM SCT045 BKN055 OVC070 32/23 A2999 310 58 2300 VRB/03 RMK AO2 SLP152 T03170228
03949KAQV AQV20160712190011807/12/16 19:00:31  5-MIN KAQV 130100Z AUTO VRB04KT 10SM BKN048 OVC070 31/23 A2999 310 60 2300 VRB/04 RMK AO2 T03110228
03949KAQV AQV20160712190511807/12/16 19:05:31  5-MIN KAQV 130105Z AUTO 17003KT 10SM BKN048 BKN065 31/23 A2999 310 60 2300 170/03 RMK AO2 T03110228
03949KAQV AQV20160712191011807/12/16 19:10:31  5-MIN KAQV 130110Z AUTO 16003KT 10SM SCT048 BKN070 31/23 A2999 310 62 2200 160/03 RMK AO2 T03060228
03949KAQV AQV20160712191511807/12/16 19:15:31  5-MIN KAQV 130115Z AUTO 18003KT 10SM SCT048 SCT070 31/23 A2999 310 62 2200 170/03 RMK AO2 T03060228
03949KAQV AQV20160712192011807/12/16 19:20:31  5-MIN KAQV 130120Z AUTO VRB03KT 10SM FEW048 SCT065 30/23 A2999 310 65 2100 VRB/03 RMK AO2 T03000228
03949KAQV AQV20160712192511807/12/16 19:25:31  5-MIN KAQV 130125Z AUTO 18003KT 10SM FEW046 FEW060 30/23 A2999 310 65 2100 170/03 RMK AO2 T03000228
03949KAQV AQV20160712193011107/12/16 19:30:31  5-MIN KAQV 130130Z AUTO 18003KT 10SM FEW046 29/23 A2999 310 67 2100 180/03 RMK AO2 T02940228
03949KAQV AQV20160712193510807/12/16 19:35:31  5-MIN KAQV 130135Z AUTO 00000KT 10SM CLR 29/23 A2999 310 69 2000 000/00 RMK AO2 T02890228
03949KAQV AQV20160712194010807/12/16 19:40:31  5-MIN KAQV 130140Z AUTO 19003KT 10SM CLR 29/23 A2999 320 69 2000 190/03 RMK AO2 T02890228
03949KAQV AQV20160712194510807/12/16 19:45:31  5-MIN KAQV 130145Z AUTO 18004KT 10SM CLR 27/23 A2998 320 76 1800 180/04 RMK AO2 T02720228
03949KAQV AQV20160712195011507/12/16 19:50:31  5-MIN KAQV 130150Z AUTO VRB05KT 10SM CLR 28/22 A2998 320 69 2000 VRB/05 RMK AO2 SLP148 T02830222
03949KAQV AQV20160712195511507/12/16 19:55:31  5-MIN KAQV 130155Z AUTO VRB05KT 10SM CLR 28/22 A2998 320 69 2000 VRB/05 RMK AO2 SLP148 T02830222
03949KAQV AQV20160712200010807/12/16 20:00:31  5-MIN KAQV 130200Z AUTO 19005KT 10SM CLR 28/22 A2998 320 69 2000 190/05 RMK AO2 T02830222
03949KAQV AQV20160712200510807/12/16 20:05:31  5-MIN KAQV 130205Z AUTO 19004KT 10SM CLR 28/22 A2998 320 69 2000 190/04 RMK AO2 T02830222
03949KAQV AQV20160712201010807/12/16 20:10:31  5-MIN KAQV 130210Z AUTO 19003KT 10SM CLR 28/22 A2999 320 69 2000 190/03 RMK AO2 T02830222
03949KAQV AQV20160712201510807/12/16 20:15:31  5-MIN KAQV 130215Z AUTO 18004KT 10SM CLR 28/22 A2999 310 69 2000 180/04 RMK AO2 T02830222
03949KAQV AQV20160712202010807/12/16 20:20:31  5-MIN KAQV 130220Z AUTO 19004KT 10SM CLR 28/22 A2999 310 69 2000 190/04 RMK AO2 T02830222
03949KAQV AQV20160712202510807/12/16 20:25:31  5-MIN KAQV 130225Z AUTO VRB03KT 10SM CLR 28/22 A2999 310 71 1900 VRB/03 RMK AO2 T02780222
03949KAQV AQV20160712203010807/12/16 20:30:31  5-MIN KAQV 130230Z AUTO 19005KT 10SM CLR 28/22 A2999 310 71 1900 190/05 RMK AO2 T02780222
03949KAQV AQV20160712203510807/12/16 20:35:31  5-MIN KAQV 130235Z AUTO 18004KT 10SM CLR 28/22 A2999 310 71 1900 180/04 RMK AO2 T02780222
03949KAQV AQV20160712204010807/12/16 20:40:31  5-MIN KAQV 130240Z AUTO VRB03KT 10SM CLR 28/22 A2999 310 69 2000 VRB/03 RMK AO2 T02830222
03949KAQV AQV20160712204510807/12/16 20:45:31  5-MIN KAQV 130245Z AUTO 00000KT 10SM CLR 27/22 A3000 310 74 1800 000/00 RMK AO2 T02720222
03949KAQV AQV20160712205012107/12/16 20:50:31  5-MIN KAQV 130250Z AUTO 00000KT 10SM CLR 27/22 A3000 310 76 1800 000/00 RMK AO2 SLP154 T02670222 55009
03949KAQV AQV20160712205512107/12/16 20:55:31  5-MIN KAQV 130255Z AUTO 00000KT 10SM CLR 26/22 A3000 300 79 1700 000/00 RMK AO2 SLP155 T02610222 55009
03949KAQV AQV20160712210010807/12/16 21:00:31  5-MIN KAQV 130300Z AUTO 00000KT 10SM CLR 26/22 A3000 300 79 1700 000/00 RMK AO2 T02610222
03949KAQV AQV20160712210510807/12/16 21:05:31  5-MIN KAQV 130305Z AUTO 00000KT 10SM CLR 26/22 A3001 300 81 1600 000/00 RMK AO2 T02560222
03949KAQV AQV20160712211010807/12/16 21:10:31  5-MIN KAQV 130310Z AUTO 00000KT 10SM CLR 24/22 A3001 300 90 1400 000/00 RMK AO2 T02390222
03949KAQV AQV20160712211510807/12/16 21:15:31  5-MIN KAQV 130315Z AUTO 00000KT 10SM CLR 24/22 A3001 300 90 1400 000/00 RMK AO2 T02390222
03949KAQV AQV20160712212010807/12/16 21:20:31  5-MIN KAQV 130320Z AUTO 00000KT 10SM CLR 24/23 A3001 290 90 1500 000/00 RMK AO2 T02440228
03949KAQV AQV20160712212510807/12/16 21:25:31  5-MIN KAQV 130325Z AUTO 00000KT 10SM CLR 25/23 A3001 290 87 1600 000/00 RMK AO2 T02500228
03949KAQV AQV20160712213010807/12/16 21:30:31  5-MIN KAQV 130330Z AUTO 17003KT 10SM CLR 24/23 A3001 290 93 1400 170/03 RMK AO2 T02390228
03949KAQV AQV20160712213510807/12/16 21:35:31  5-MIN KAQV 130335Z AUTO 18003KT 10SM CLR 24/22 A3001 290 90 1400 180/03 RMK AO2 T02390222
03949KAQV AQV20160712214010707/12/16 21:40:31  5-MIN KAQV 130340Z AUTO 00000KT 8SM CLR 24/23 A3001 290 93 1400 000/00 RMK AO2 T02390228
03949KAQV AQV20160712214510707/12/16 21:45:31  5-MIN KAQV 130345Z AUTO 00000KT 8SM CLR 24/23 A3002 290 93 1400 000/00 RMK AO2 T02390228
03949KAQV AQV20160712215011507/12/16 21:50:31  5-MIN KAQV 130350Z AUTO 00000KT 10SM CLR 24/23 A3002 280 93 1400 000/00 RMK AO2 SLP162 T02390228
03949KAQV AQV20160712215511507/12/16 21:55:31  5-MIN KAQV 130355Z AUTO 00000KT 10SM CLR 24/23 A3002 280 93 1400 000/00 RMK AO2 SLP162 T02390228
03949KAQV AQV20160712220010807/12/16 22:00:31  5-MIN KAQV 130400Z AUTO 00000KT 10SM CLR 24/22 A3002 290 90 1400 000/00 RMK AO2 T02390222
03949KAQV AQV20160712220510807/12/16 22:05:31  5-MIN KAQV 130405Z AUTO 00000KT 10SM CLR 23/23 A3002 290 97 1400 000/00 RMK AO2 T02330228
03949KAQV AQV20160712221010807/12/16 22:10:31  5-MIN KAQV 130410Z AUTO 00000KT 10SM CLR 23/23 A3002 280 97 1400 000/00 RMK AO2 T02330228
03949KAQV AQV20160712221510807/12/16 22:15:31  5-MIN KAQV 130415Z AUTO VRB03KT 10SM CLR 23/23 A3002 280 97 1400 VRB/03 RMK AO2 T02330228
03949KAQV AQV20160712222010807/12/16 22:20:31  5-MIN KAQV 130420Z AUTO 16003KT 10SM CLR 23/23 A3003 280 97 1400 160/03 RMK AO2 T02330228
03949KAQV AQV20160712222510807/12/16 22:25:31  5-MIN KAQV 130425Z AUTO 17004KT 10SM CLR 24/23 A3002 280 93 1400 160/04 RMK AO2 T02390228
03949KAQV AQV20160712223010807/12/16 22:30:31  5-MIN KAQV 130430Z AUTO 18004KT 10SM CLR 23/23 A3002 280 97 1400 170/04 RMK AO2 T02330228
03949KAQV AQV20160712223510807/12/16 22:35:31  5-MIN KAQV 130435Z AUTO 18004KT 10SM CLR 23/23 A3002 280 97 1400 170/04 RMK AO2 T02330228
03949KAQV AQV20160712224010807/12/16 22:40:31  5-MIN KAQV 130440Z AUTO 18004KT 10SM CLR 23/22 A3002 280 93 1400 170/04 RMK AO2 T02330222
03949KAQV AQV20160712224510807/12/16 22:45:31  5-MIN KAQV 130445Z AUTO 19003KT 10SM CLR 23/22 A3002 280 93 1400 180/03 RMK AO2 T02330222
03949KAQV AQV20160712225011507/12/16 22:50:31  5-MIN KAQV 130450Z AUTO 00000KT 10SM CLR 23/23 A3003 280 97 1400 000/00 RMK AO2 SLP164 T02330228
03949KAQV AQV20160712225511507/12/16 22:55:31  5-MIN KAQV 130455Z AUTO 00000KT 10SM CLR 24/23 A3003 270 93 1400 000/00 RMK AO2 SLP164 T02390228
03949KAQV AQV20160712230010807/12/16 23:00:31  5-MIN KAQV 130500Z AUTO 00000KT 10SM CLR 23/23 A3003 270 97 1300 000/00 RMK AO2 T02330228
03949KAQV AQV20160712230510807/12/16 23:05:31  5-MIN KAQV 130505Z AUTO 00000KT 10SM CLR 23/22 A3004 270 93 1300 000/00 RMK AO2 T02330222
03949KAQV AQV20160712231010807/12/16 23:10:31  5-MIN KAQV 130510Z AUTO 00000KT 10SM CLR 23/22 A3004 270 93 1300 000/00 RMK AO2 T02330222
03949KAQV AQV20160712231510807/12/16 23:15:31  5-MIN KAQV 130515Z AUTO 00000KT 10SM CLR 23/22 A3003 270 93 1300 000/00 RMK AO2 T02330222
03949KAQV AQV20160712232010807/12/16 23:20:31  5-MIN KAQV 130520Z AUTO 00000KT 10SM CLR 23/22 A3003 270 93 1300 000/00 RMK AO2 T02330222
03949KAQV AQV20160712232510807/12/16 23:25:31  5-MIN KAQV 130525Z AUTO 00000KT 10SM CLR 23/22 A3003 270 93 1300 000/00 RMK AO2 T02330222
03949KAQV AQV20160712233010807/12/16 23:30:31  5-MIN KAQV 130530Z AUTO 00000KT 10SM CLR 23/22 A3003 270 93 1300 000/00 RMK AO2 T02330222
03949KAQV AQV20160712233510807/12/16 23:35:31  5-MIN KAQV 130535Z AUTO 18003KT 10SM CLR 23/22 A3003 270 97 1300 170/03 RMK AO2 T02280222
03949KAQV AQV20160712234010807/12/16 23:40:31  5-MIN KAQV 130540Z AUTO VRB03KT 10SM CLR 23/22 A3003 280 97 1300 VRB/03 RMK AO2 T02280222
03949KAQV AQV20160712234510807/12/16 23:45:31  5-MIN KAQV 130545Z AUTO 18004KT 10SM CLR 23/22 A3003 280 93 1400 180/04 RMK AO2 T02330222
03949KAQV AQV20160712235014307/12/16 23:50:31  5-MIN KAQV 130550Z AUTO 19003KT 10SM CLR 23/22 A3002 280 93 1400 180/03 RMK AO2 SLP164 T02330222 10328 20228 403560222 53007
03949KAQV AQV20160712235514307/12/16 23:55:31  5-MIN KAQV 130555Z AUTO 18003KT 10SM CLR 23/22 A3003 280 93 1400 180/03 RMK AO2 SLP164 T02330222 10328 20228 403560222 53007
03949KAQV AQV20160713000010807/13/16 00:00:31  5-MIN KAQV 130600Z AUTO 19003KT 10SM CLR 23/23 A3003 280 97 1400 180/03 RMK AO2 T02330228
03949KAQV AQV20160713000510807/13/16 00:05:31  5-MIN KAQV 130605Z AUTO 19003KT 10SM CLR 23/23 A3002 280 97 1400 190/03 RMK AO2 T02330228
03949KAQV AQV20160713001010807/13/16 00:10:31  5-MIN KAQV 130610Z AUTO VRB03KT 10SM CLR 23/23 A3002 280 97 1400 VRB/03 RMK AO2 T02330228
03949KAQV AQV20160713001510807/13/16 00:15:31  5-MIN KAQV 130615Z AUTO VRB03KT 10SM CLR 23/23 A3002 280 97 1400 VRB/03 RMK AO2 T02330228
03949KAQV AQV20160713002010807/13/16 00:20:31  5-MIN KAQV 130620Z AUTO 19003KT 10SM CLR 23/23 A3002 280 97 1400 180/03 RMK AO2 T02330228
03949KAQV AQV20160713002510807/13/16 00:25:31  5-MIN KAQV 130625Z AUTO 00000KT 10SM CLR 23/23 A3002 280 97 1400 000/00 RMK AO2 T02330228
03949KAQV AQV20160713003010807/13/16 00:30:31  5-MIN KAQV 130630Z AUTO 17003KT 10SM CLR 23/23 A3002 280 97 1400 170/03 RMK AO2 T02330228
03949KAQV AQV20160713003510807/13/16 00:35:31  5-MIN KAQV 130635Z AUTO 17003KT 10SM CLR 23/23 A3002 280 97 1400 160/03 RMK AO2 T02330228
03949KAQV AQV20160713004010807/13/16 00:40:31  5-MIN KAQV 130640Z AUTO 17003KT 10SM CLR 23/23 A3002 280 97 1400 170/03 RMK AO2 T02330228
03949KAQV AQV20160713004511107/13/16 00:45:31  5-MIN KAQV 130645Z AUTO 17003KT 10SM FEW018 23/23 A3002 280 97 1400 160/03 RMK AO2 T02330228
03949KAQV AQV20160713005011807/13/16 00:50:31  5-MIN KAQV 130650Z AUTO 17003KT 10SM FEW018 23/23 A3002 280 97 1400 170/03 RMK AO2 SLP161 T02330228
03949KAQV AQV20160713005511807/13/16 00:55:31  5-MIN KAQV 130655Z AUTO 00000KT 10SM FEW018 23/23 A3002 280 97 1400 000/00 RMK AO2 SLP161 T02330228
03949KAQV AQV20160713010011107/13/16 01:00:31  5-MIN KAQV 130700Z AUTO 18003KT 10SM FEW018 23/23 A3002 290 97 1400 170/03 RMK AO2 T02330228
03949KAQV AQV20160713010511107/13/16 01:05:31  5-MIN KAQV 130705Z AUTO 19003KT 10SM FEW018 23/23 A3002 280 97 1400 180/03 RMK AO2 T02330228
03949KAQV AQV20160713011011107/13/16 01:10:31  5-MIN KAQV 130710Z AUTO 00000KT 10SM FEW018 23/23 A3002 280 97 1400 000/00 RMK AO2 T02330228
03949KAQV AQV20160713011510807/13/16 01:15:31  5-MIN KAQV 130715Z AUTO 17004KT 10SM CLR 24/23 A3002 280 93 1400 170/04 RMK AO2 T02390228
03949KAQV AQV20160713012010807/13/16 01:20:31  5-MIN KAQV 130720Z AUTO 18003KT 10SM CLR 23/23 A3002 280 97 1400 180/03 RMK AO2 T02330228
03949KAQV AQV20160713012510807/13/16 01:25:31  5-MIN KAQV 130725Z AUTO 16003KT 10SM CLR 23/23 A3003 280 97 1400 160/03 RMK AO2 T02330228
03949KAQV AQV20160713013010707/13/16 01:30:31  5-MIN KAQV 130730Z AUTO 00000KT 9SM CLR 24/23 A3002 280 97 1400 000/00 RMK AO2 T02390233
03949KAQV AQV20160713013510707/13/16 01:35:31  5-MIN KAQV 130735Z AUTO 00000KT 9SM CLR 24/23 A3002 280 97 1400 000/00 RMK AO2 T02390233
03949KAQV AQV20160713014010707/13/16 01:40:31  5-MIN KAQV 130740Z AUTO 00000KT 9SM CLR 24/23 A3003 280 93 1400 000/00 RMK AO2 T02390228
03949KAQV AQV20160713014510707/13/16 01:45:31  5-MIN KAQV 130745Z AUTO 00000KT 8SM CLR 23/23 A3003 280 97 1400 000/00 RMK AO2 T02330228
03949KAQV AQV20160713015011707/13/16 01:50:31  5-MIN KAQV 130750Z AUTO 00000KT 8SM FEW020 23/23 A3003 280 97 1300 000/00 RMK AO2 SLP164 T02330228
03949KAQV AQV20160713015511707/13/16 01:55:31  5-MIN KAQV 130755Z AUTO 00000KT 7SM FEW020 23/23 A3003 280 97 1300 000/00 RMK AO2 SLP164 T02330228
03949KAQV AQV20160713020011007/13/16 02:00:31  5-MIN KAQV 130800Z AUTO 00000KT 7SM FEW020 23/23 A3003 280 97 1300 000/00 RMK AO2 T02330228
03949KAQV AQV20160713020511007/13/16 02:05:31  5-MIN KAQV 130805Z AUTO 00000KT 7SM SCT018 23/23 A3003 280 97 1300 000/00 RMK AO2 T02330228
03949KAQV AQV20160713021011007/13/16 02:10:31  5-MIN KAQV 130810Z AUTO 00000KT 7SM SCT018 23/23 A3003 280 97 1300 000/00 RMK AO2 T02330228
03949KAQV AQV20160713021511007/13/16 02:15:31  5-MIN KAQV 130815Z AUTO 00000KT 7SM SCT018 23/23 A3003 280 97 1400 000/00 RMK AO2 T02330228
03949KAQV AQV20160713022011307/13/16 02:20:31  5-MIN KAQV 130820Z AUTO 00000KT 6SM BR FEW018 23/23 A3003 280 97 1400 000/00 RMK AO2 T02330228
03949KAQV AQV20160713022511307/13/16 02:25:31  5-MIN KAQV 130825Z AUTO 00000KT 6SM BR FEW018 23/23 A3002 280 97 1400 000/00 RMK AO2 T02330228
03949KAQV AQV20160713023011407/13/16 02:30:31  5-MIN KAQV 130830Z AUTO 00000KT 5SM BR FEW018 23/23 A3002 280 100 1300 000/00 RMK AO2 T02280228
03949KAQV AQV20160713023511307/13/16 02:35:31  5-MIN KAQV 130835Z AUTO 00000KT 6SM BR FEW018 23/22 A3002 280 97 1300 000/00 RMK AO2 T02280222
03949KAQV AQV20160713024011007/13/16 02:40:31  5-MIN KAQV 130840Z AUTO 00000KT 6SM BR CLR 23/22 A3002 280 97 1300 000/00 RMK AO2 T02280222
03949KAQV AQV20160713024511007/13/16 02:45:31  5-MIN KAQV 130845Z AUTO 00000KT 5SM BR CLR 23/22 A3003 280 97 1300 000/00 RMK AO2 T02280222
03949KAQV AQV20160713025012307/13/16 02:50:31  5-MIN KAQV 130850Z AUTO 00000KT 5SM BR CLR 23/22 A3003 280 97 1300 000/00 RMK AO2 SLP163 T02280222 50009
03949KAQV AQV20160713025512307/13/16 02:55:31  5-MIN KAQV 130855Z AUTO 00000KT 5SM BR CLR 23/22 A3003 280 97 1300 000/00 RMK AO2 SLP163 T02280222 50009
03949KAQV AQV20160713030011007/13/16 03:00:31  5-MIN KAQV 130900Z AUTO 00000KT 5SM BR CLR 23/22 A3003 280 97 1300 000/00 RMK AO2 T02280222
03949KAQV AQV20160713030511107/13/16 03:05:31  5-MIN KAQV 130905Z AUTO 00000KT 5SM BR CLR 22/22 A3003 280 100 1200 000/00 RMK AO2 T02220222
03949KAQV AQV20160713031011007/13/16 03:10:31  5-MIN KAQV 130910Z AUTO 17003KT 5SM BR CLR 22/22 A3003 280 97 1200 170/03 RMK AO2 T02220217
03949KAQV AQV20160713031511007/13/16 03:15:31  5-MIN KAQV 130915Z AUTO 00000KT 3SM BR CLR 23/22 A3003 280 93 1300 000/00 RMK AO2 T02280217
03949KAQV AQV20160713032011007/13/16 03:20:31  5-MIN KAQV 130920Z AUTO 00000KT 2SM BR CLR 23/22 A3003 280 97 1300 000/00 RMK AO2 T02280222
03949KAQV AQV20160713032511407/13/16 03:25:31  5-MIN KAQV 130925Z AUTO 00000KT 2 1/2SM BR CLR 23/22 A3003 280 97 1300 000/00 RMK AO2 T02280222
03949KAQV AQV20160713033011107/13/16 03:30:31  5-MIN KAQV 130930Z AUTO 00000KT 4SM BR CLR 23/23 A3003 280 100 1300 000/00 RMK AO2 T02280228
03949KAQV AQV20160713033511007/13/16 03:35:31  5-MIN KAQV 130935Z AUTO 00000KT 4SM BR CLR 23/22 A3003 280 93 1300 000/00 RMK AO2 T02330222
03949KAQV AQV20160713034011007/13/16 03:40:31  5-MIN KAQV 130940Z AUTO 00000KT 5SM BR CLR 23/22 A3003 280 97 1300 000/00 RMK AO2 T02280222
03949KAQV AQV20160713034511007/13/16 03:45:31  5-MIN KAQV 130945Z AUTO 00000KT 5SM BR CLR 23/23 A3003 270 97 1300 000/00 RMK AO2 T02330228
03949KAQV AQV20160713035011707/13/16 03:50:31  5-MIN KAQV 130950Z AUTO 00000KT 5SM BR CLR 23/23 A3004 270 97 1300 000/00 RMK AO2 SLP166 T02330228
03949KAQV AQV20160713035512007/13/16 03:55:31  5-MIN KAQV 130955Z AUTO 00000KT 5SM BR FEW018 23/23 A3004 270 97 1300 000/00 RMK AO2 SLP167 T02330228
03949KAQV AQV20160713040011307/13/16 04:00:31  5-MIN KAQV 131000Z AUTO 00000KT 5SM BR FEW016 23/23 A3004 270 97 1300 000/00 RMK AO2 T02330228
03949KAQV AQV20160713040511307/13/16 04:05:31  5-MIN KAQV 131005Z AUTO 00000KT 5SM BR FEW016 23/23 A3004 270 97 1300 000/00 RMK AO2 T02330228
03949KAQV AQV20160713041011307/13/16 04:10:31  5-MIN KAQV 131010Z AUTO 00000KT 5SM BR FEW016 23/22 A3004 270 97 1300 000/00 RMK AO2 T02280222
03949KAQV AQV20160713041511307/13/16 04:15:31  5-MIN KAQV 131015Z AUTO 00000KT 4SM BR FEW016 23/22 A3004 270 97 1300 000/00 RMK AO2 T02280222
03949KAQV AQV20160713042011007/13/16 04:20:31  5-MIN KAQV 131020Z AUTO 00000KT 3SM BR CLR 23/22 A3004 270 97 1300 000/00 RMK AO2 T02280222
03949KAQV AQV20160713042511007/13/16 04:25:31  5-MIN KAQV 131025Z AUTO 00000KT 3SM BR CLR 23/22 A3004 260 97 1300 000/00 RMK AO2 T02280222
03949KAQV AQV20160713043011007/13/16 04:30:31  5-MIN KAQV 131030Z AUTO 00000KT 4SM BR CLR 23/22 A3004 260 97 1300 000/00 RMK AO2 T02280222
03949KAQV AQV20160713043511007/13/16 04:35:31  5-MIN KAQV 131035Z AUTO 00000KT 4SM BR CLR 23/22 A3004 260 97 1300 000/00 RMK AO2 T02280222
03949KAQV AQV20160713044011407/13/16 04:40:31  5-MIN KAQV 131040Z AUTO 00000KT 4SM BR FEW024 23/23 A3004 260 100 1300 000/00 RMK AO2 T02280228
03949KAQV AQV20160713044511307/13/16 04:45:31  5-MIN KAQV 131045Z AUTO 00000KT 4SM BR FEW024 23/23 A3005 260 97 1300 000/00 RMK AO2 T02330228
03949KAQV AQV20160713045011707/13/16 04:50:31  5-MIN KAQV 131050Z AUTO 00000KT 4SM BR CLR 23/23 A3005 260 97 1300 000/00 RMK AO2 SLP170 T02330228
03949KAQV AQV20160713045511707/13/16 04:55:31  5-MIN KAQV 131055Z AUTO 00000KT 5SM BR CLR 23/22 A3005 260 93 1300 000/00 RMK AO2 SLP171 T02330222
03949KAQV AQV20160713050011007/13/16 05:00:31  5-MIN KAQV 131100Z AUTO 00000KT 6SM BR CLR 23/22 A3005 260 97 1300 000/00 RMK AO2 T02280222
03949KAQV AQV20160713050511307/13/16 05:05:31  5-MIN KAQV 131105Z AUTO 00000KT 5SM BR FEW024 23/22 A3005 260 97 1300 000/00 RMK AO2 T02280222
03949KAQV AQV20160713051011007/13/16 05:10:31  5-MIN KAQV 131110Z AUTO 00000KT 5SM BR CLR 23/22 A3005 250 97 1300 000/00 RMK AO2 T02280222
03949KAQV AQV20160713051511007/13/16 05:15:31  5-MIN KAQV 131115Z AUTO 00000KT 5SM BR CLR 23/22 A3006 250 97 1300 000/00 RMK AO2 T02280222
03949KAQV AQV20160713052011007/13/16 05:20:31  5-MIN KAQV 131120Z AUTO 00000KT 5SM BR CLR 23/22 A3006 250 93 1300 000/00 RMK AO2 T02330222
03949KAQV AQV20160713052511307/13/16 05:25:31  5-MIN KAQV 131125Z AUTO 00000KT 4SM BR FEW027 23/23 A3006 250 97 1300 000/00 RMK AO2 T02330228
03949KAQV AQV20160713053011307/13/16 05:30:31  5-MIN KAQV 131130Z AUTO 00000KT 4SM BR SCT027 23/23 A3006 250 97 1300 000/00 RMK AO2 T02330228
03949KAQV AQV20160713053511407/13/16 05:35:31  5-MIN KAQV 131135Z AUTO 00000KT 4SM BR SCT029 23/23 A3006 250 100 1200 000/00 RMK AO2 T02280228
03949KAQV AQV20160713054011307/13/16 05:40:31  5-MIN KAQV 131140Z AUTO 00000KT 4SM BR SCT029 23/23 A3006 250 97 1300 000/00 RMK AO2 T02330228
03949KAQV AQV20160713054512707/13/16 05:45:31  5-MIN KAQV 131145Z AUTO 00000KT 3SM BR FEW002 SCT023 BKN027 23/23 A3006 240 97 1300 000/00 RMK AO2 T02330228
03949KAQV AQV20160713055015207/13/16 05:50:31  5-MIN KAQV 131150Z AUTO 00000KT 3SM BR FEW002 SCT023 BKN027 24/23 A3006 240 97 1400 000/00 RMK AO2 SLP177 T02390233 10239 20222 56001
03949KAQV AQV20160713055515207/13/16 05:55:31  5-MIN KAQV 131155Z AUTO 00000KT 4SM BR FEW002 FEW023 SCT029 24/23 A3007 240 97 1400 000/00 RMK AO2 SLP177 T02390233 10239 20222 56001
03949KAQV AQV20160713060012707/13/16 06:00:31  5-MIN KAQV 131200Z AUTO 00000KT 3SM BR FEW002 SCT023 SCT029 24/23 A3007 240 97 1400 000/00 RMK AO2 T02390233
03949KAQV AQV20160713060512007/13/16 06:05:31  5-MIN KAQV 131205Z AUTO 00000KT 3SM BR FEW004 SCT023 24/23 A3007 240 97 1400 000/00 RMK AO2 T02390233
03949KAQV AQV20160713061012007/13/16 06:10:31  5-MIN KAQV 131210Z AUTO 00000KT 3SM BR FEW004 FEW023 24/23 A3007 240 97 1400 000/00 RMK AO2 T02390233
03949KAQV AQV20160713061511407/13/16 06:15:31  5-MIN KAQV 131215Z AUTO 00000KT 4SM BR FEW004 24/24 A3007 240 100 1400 000/00 RMK AO2 T02390239
03949KAQV AQV20160713062011307/13/16 06:20:31  5-MIN KAQV 131220Z AUTO 00000KT 4SM BR FEW003 24/24 A3007 240 97 1400 000/00 RMK AO2 T02440239
03949KAQV AQV20160713062511307/13/16 06:25:31  5-MIN KAQV 131225Z AUTO 00000KT 5SM BR FEW003 24/24 A3007 230 97 1400 000/00 RMK AO2 T02440239
03949KAQV AQV20160713063012007/13/16 06:30:31  5-MIN KAQV 131230Z AUTO 00000KT 5SM BR FEW003 FEW028 24/24 A3007 230 97 1400 000/00 RMK AO2 T02440239
03949KAQV AQV20160713063512007/13/16 06:35:31  5-MIN KAQV 131235Z AUTO 14003KT 5SM BR FEW004 FEW028 24/24 A3007 230 97 1400 130/03 RMK AO2 T02440239
03949KAQV AQV20160713064012007/13/16 06:40:31  5-MIN KAQV 131240Z AUTO 00000KT 6SM BR FEW020 SCT028 24/24 A3008 230 97 1400 000/00 RMK AO2 T02440239
03949KAQV AQV20160713064511707/13/16 06:45:31  5-MIN KAQV 131245Z AUTO 18003KT 7SM FEW020 SCT028 25/24 A3008 230 97 1500 180/03 RMK AO2 T02500244
03949KAQV AQV20160713065012407/13/16 06:50:31  5-MIN KAQV 131250Z AUTO 00000KT 7SM FEW020 FEW029 25/24 A3008 230 97 1500 000/00 RMK AO2 SLP181 T02500244
03949KAQV AQV20160713065512407/13/16 06:55:31  5-MIN KAQV 131255Z AUTO 18003KT 7SM FEW020 FEW029 25/24 A3008 230 97 1500 180/03 RMK AO2 SLP181 T02500244
03949KAQV AQV20160713070011007/13/16 07:00:31  5-MIN KAQV 131300Z AUTO VRB03KT 8SM FEW020 25/24 A3008 230 97 1500 VRB/03 RMK AO2 T02500244
03949KAQV AQV20160713070511007/13/16 07:05:31  5-MIN KAQV 131305Z AUTO 19004KT 9SM FEW020 25/24 A3008 230 97 1500 180/04 RMK AO2 T02500244
03949KAQV AQV20160713071010807/13/16 07:10:31  5-MIN KAQV 131310Z AUTO 18003KT 10SM CLR 26/24 A3008 230 93 1500 180/03 RMK AO2 T02560244
03949KAQV AQV20160713071510707/13/16 07:15:31  5-MIN KAQV 131315Z AUTO 17005KT 9SM CLR 26/24 A3008 230 93 1500 160/05 RMK AO2 T02560244
03949KAQV AQV20160713072010707/13/16 07:20:31  5-MIN KAQV 131320Z AUTO 17004KT 9SM CLR 26/24 A3008 230 93 1500 170/04 RMK AO2 T02560244
03949KAQV AQV20160713072510807/13/16 07:25:31  5-MIN KAQV 131325Z AUTO VRB03KT 10SM CLR 26/24 A3008 230 93 1500 VRB/03 RMK AO2 T02560244
03949KAQV AQV20160713073010807/13/16 07:30:31  5-MIN KAQV 131330Z AUTO 18004KT 10SM CLR 26/25 A3008 230 93 1600 180/04 RMK AO2 T02610250
03949KAQV AQV20160713073510807/13/16 07:35:31  5-MIN KAQV 131335Z AUTO 18005KT 10SM CLR 26/24 A3008 230 90 1600 170/05 RMK AO2 T02610244
03949KAQV AQV20160713074010807/13/16 07:40:31  5-MIN KAQV 131340Z AUTO VRB04KT 10SM CLR 26/24 A3008 230 90 1600 VRB/04 RMK AO2 T02610244
03949KAQV AQV20160713074510807/13/16 07:45:31  5-MIN KAQV 131345Z AUTO 18005KT 10SM CLR 26/24 A3009 220 90 1600 180/05 RMK AO2 T02610244
03949KAQV AQV20160713075011507/13/16 07:50:31  5-MIN KAQV 131350Z AUTO VRB04KT 10SM CLR 26/24 A3009 220 90 1600 VRB/04 RMK AO2 SLP185 T02610244
03949KAQV AQV20160713075511507/13/16 07:55:31  5-MIN KAQV 131355Z AUTO VRB05KT 10SM CLR 26/25 A3009 220 93 1600 VRB/05 RMK AO2 SLP186 T02610250
03949KAQV AQV20160713080010807/13/16 08:00:31  5-MIN KAQV 131400Z AUTO VRB03KT 10SM CLR 27/25 A3009 220 90 1700 VRB/03 RMK AO2 T02670250
03949KAQV AQV20160713080510807/13/16 08:05:31  5-MIN KAQV 131405Z AUTO 18004KT 10SM CLR 27/25 A3009 220 90 1700 170/04 RMK AO2 T02670250
03949KAQV AQV20160713081011107/13/16 08:10:31  5-MIN KAQV 131410Z AUTO VRB05KT 10SM FEW017 27/25 A3009 220 87 1700 VRB/05 RMK AO2 T02720250
03949KAQV AQV20160713081512507/13/16 08:15:31  5-MIN KAQV 131415Z AUTO VRB05KT 10SM SCT015 SCT021 SCT026 27/25 A3009 220 87 1700 VRB/05 RMK AO2 T02720250
03949KAQV AQV20160713082012507/13/16 08:20:31  5-MIN KAQV 131420Z AUTO VRB04KT 10SM SCT015 SCT020 BKN026 27/25 A3009 220 87 1700 VRB/04 RMK AO2 T02720250
03949KAQV AQV20160713082512507/13/16 08:25:31  5-MIN KAQV 131425Z AUTO VRB06KT 10SM FEW015 SCT020 SCT026 28/25 A3009 220 84 1800 VRB/06 RMK AO2 T02780250
03949KAQV AQV20160713083011707/13/16 08:30:31  5-MIN KAQV 131430Z AUTO VRB03KT 9SM FEW015 BKN021 28/25 A3010 220 84 1800 VRB/03 RMK AO2 T02780250
03949KAQV AQV20160713083511707/13/16 08:35:31  5-MIN KAQV 131435Z AUTO VRB03KT 9SM BKN017 BKN025 28/25 A3010 210 82 1800 VRB/03 RMK AO2 T02830250
03949KAQV AQV20160713084011807/13/16 08:40:31  5-MIN KAQV 131440Z AUTO VRB04KT 10SM BKN017 BKN025 29/25 A3010 210 79 1900 VRB/04 RMK AO2 T02890250
03949KAQV AQV20160713084511807/13/16 08:45:31  5-MIN KAQV 131445Z AUTO 18008KT 10SM BKN019 BKN025 28/24 A3010 210 79 1800 170/08 RMK AO2 T02830244
03949KAQV AQV20160713085013107/13/16 08:50:31  5-MIN KAQV 131450Z AUTO 18007KT 10SM BKN020 BKN027 29/24 A3010 210 76 1900 170/07 RMK AO2 SLP189 T02890244 53013
03949KAQV AQV20160713085515407/13/16 08:55:31  5-MIN KAQV 131455Z AUTO 17008KT 130V200 10SM SCT018 BKN023 OVC027 29/24 A3010 210 74 2000 170/08 130V200 RMK AO2 SLP188 T02940244 53013
03949KAQV AQV20160713090011807/13/16 09:00:31  5-MIN KAQV 131500Z AUTO 20007KT 10SM BKN021 OVC027 30/24 A3010 210 69 2000 190/07 RMK AO2 T03000239
03949KAQV AQV20160713090511807/13/16 09:05:31  5-MIN KAQV 131505Z AUTO VRB05KT 10SM BKN021 OVC028 31/24 A3010 210 65 2100 VRB/05 RMK AO2 T03110239
03949KAQV AQV20160713091012507/13/16 09:10:31  5-MIN KAQV 131510Z AUTO VRB03KT 10SM BKN021 BKN028 BKN033 31/24 A3010 210 67 2100 VRB/03 RMK AO2 T03060239
03949KAQV AQV20160713091511807/13/16 09:15:31  5-MIN KAQV 131515Z AUTO VRB05KT 10SM BKN024 BKN033 30/23 A3010 210 67 2000 VRB/05 RMK AO2 T03000233
03949KAQV AQV20160713092011107/13/16 09:20:31  5-MIN KAQV 131520Z AUTO VRB05KT 10SM SCT024 30/23 A3010 210 67 2000 VRB/05 RMK AO2 T03000233
03949KAQV AQV20160713092511107/13/16 09:25:31  5-MIN KAQV 131525Z AUTO 19006KT 10SM SCT024 31/23 A3010 210 65 2100 190/06 RMK AO2 T03060233
03949KAQV AQV20160713093011107/13/16 09:30:31  5-MIN KAQV 131530Z AUTO VRB03KT 10SM FEW024 30/23 A3010 210 67 2000 VRB/03 RMK AO2 T03000233
03949KAQV AQV20160713093512407/13/16 09:35:31  5-MIN KAQV 131535Z AUTO 19007KT 160V240 10SM CLR 31/23 A3010 210 63 2100 190/07 160V240 RMK AO2 T03110233
03949KAQV AQV20160713094010807/13/16 09:40:31  5-MIN KAQV 131540Z AUTO 18005KT 10SM CLR 32/23 A3010 210 61 2200 180/05 RMK AO2 T03170233
03949KAQV AQV20160713094511107/13/16 09:45:31  5-MIN KAQV 131545Z AUTO 19005KT 10SM FEW036 32/23 A3010 210 58 2200 190/05 RMK AO2 T03170228
03949KAQV AQV20160713095011807/13/16 09:50:31  5-MIN KAQV 131550Z AUTO VRB05KT 10SM FEW034 32/23 A3010 210 57 2300 VRB/05 RMK AO2 SLP188 T03220228
03949KAQV AQV20160713095511807/13/16 09:55:31  5-MIN KAQV 131555Z AUTO 19007KT 10SM FEW034 32/22 A3010 210 56 2200 190/07 RMK AO2 SLP188 T03170222
03949KAQV AQV20160713100011107/13/16 10:00:31  5-MIN KAQV 131600Z AUTO VRB06KT 10SM FEW034 32/22 A3010 210 55 2300 VRB/06 RMK AO2 T03220222
03949KAQV AQV20160713100511107/13/16 10:05:31  5-MIN KAQV 131605Z AUTO VRB05KT 10SM FEW036 33/22 A3010 210 53 2300 VRB/05 RMK AO2 T03280222
03949KAQV AQV20160713101011107/13/16 10:10:31  5-MIN KAQV 131610Z AUTO VRB05KT 10SM SCT036 33/22 A3010 210 51 2400 VRB/05 RMK AO2 T03330222
03949KAQV AQV20160713101511107/13/16 10:15:31  5-MIN KAQV 131615Z AUTO VRB05KT 10SM SCT038 32/22 A3010 210 55 2300 VRB/05 RMK AO2 T03220222
03949KAQV AQV20160713102011107/13/16 10:20:31  5-MIN KAQV 131620Z AUTO VRB06KT 10SM BKN036 32/23 A3010 210 57 2300 VRB/06 RMK AO2 T03220228
03949KAQV AQV20160713102511107/13/16 10:25:31  5-MIN KAQV 131625Z AUTO VRB05KT 10SM SCT036 33/23 A3010 210 55 2300 VRB/05 RMK AO2 T03280228
03949KAQV AQV20160713103011107/13/16 10:30:31  5-MIN KAQV 131630Z AUTO VRB06KT 10SM SCT038 32/22 A3010 210 55 2300 VRB/06 RMK AO2 T03220222
03949KAQV AQV20160713103512607/13/16 10:35:31  5-MIN KAQV 131635Z AUTO 19007KT 170V240 9SM SCT038 33/22 A3010 210 53 2300 190/07 170V240 RMK AO2 T03280222
03949KAQV AQV20160713104011007/13/16 10:40:31  5-MIN KAQV 131640Z AUTO VRB05KT 9SM SCT036 33/22 A3010 210 51 2400 VRB/05 RMK AO2 T03330222
03949KAQV AQV20160713104511107/13/16 10:45:31  5-MIN KAQV 131645Z AUTO VRB05KT 10SM FEW038 33/23 A3010 210 53 2400 VRB/05 RMK AO2 T03330228
03949KAQV AQV20160713105011807/13/16 10:50:31  5-MIN KAQV 131650Z AUTO 16008KT 10SM FEW038 33/22 A3010 210 51 2400 160/08 RMK AO2 SLP189 T03330222
03949KAQV AQV20160713105513407/13/16 10:55:31  5-MIN KAQV 131655Z AUTO 19007KT 150V220 10SM FEW038 33/22 A3010 210 51 2300 190/07 150V220 RMK AO2 SLP189 T03280217
03949KAQV AQV20160713110011107/13/16 11:00:31  5-MIN KAQV 131700Z AUTO VRB05KT 10SM FEW042 34/22 A3010 210 48 2400 VRB/05 RMK AO2 T03390217
03949KAQV AQV20160713110512707/13/16 11:05:31  5-MIN KAQV 131705Z AUTO 21007KT 180V250 10SM FEW042 33/22 A3010 210 50 2400 200/07 180V250 RMK AO2 T03330217
03949KAQV AQV20160713111011107/13/16 11:10:31  5-MIN KAQV 131710Z AUTO VRB05KT 10SM SCT042 33/22 A3009 220 50 2400 VRB/05 RMK AO2 T03330217
03949KAQV AQV20160713111511107/13/16 11:15:31  5-MIN KAQV 131715Z AUTO VRB04KT 10SM SCT042 33/22 A3009 220 51 2400 VRB/04 RMK AO2 T03330222
03949KAQV AQV20160713112011107/13/16 11:20:31  5-MIN KAQV 131720Z AUTO VRB04KT 10SM BKN042 33/22 A3009 220 51 2400 VRB/04 RMK AO2 T03330222
03949KAQV AQV20160713112512707/13/16 11:25:31  5-MIN KAQV 131725Z AUTO 19008KT 160V240 10SM BKN042 33/22 A3009 220 51 2400 180/08 160V240 RMK AO2 T03330222
03949KAQV AQV20160713113011107/13/16 11:30:31  5-MIN KAQV 131730Z AUTO VRB06KT 10SM SCT042 34/22 A3009 220 48 2500 VRB/06 RMK AO2 T03390217
03949KAQV AQV20160713113511007/13/16 11:35:31  5-MIN KAQV 131735Z AUTO VRB06KT 9SM BKN044 34/22 A3009 220 48 2500 VRB/06 RMK AO2 T03390217
03949KAQV AQV20160713114011007/13/16 11:40:31  5-MIN KAQV 131740Z AUTO 26007KT 9SM BKN044 33/21 A3008 230 48 2400 260/07 RMK AO2 T03330211
03949KAQV AQV20160713114511107/13/16 11:45:31  5-MIN KAQV 131745Z AUTO VRB04KT 10SM SCT042 35/22 A3008 230 45 2600 VRB/04 RMK AO2 T03500217
03949KAQV AQV20160713115013607/13/16 11:50:31  5-MIN KAQV 131750Z AUTO VRB05KT 10SM FEW044 34/21 A3008 230 45 2500 VRB/05 RMK AO2 SLP182 T03440211 10350 20239 51011
03949KAQV AQV20160713115513607/13/16 11:55:31  5-MIN KAQV 131755Z AUTO 17007KT 10SM FEW044 35/21 A3008 230 43 2600 170/07 RMK AO2 SLP181 T03500211 10356 20239 51011
03949KAQV AQV20160713120011107/13/16 12:00:31  5-MIN KAQV 131800Z AUTO VRB06KT 10SM FEW044 34/21 A3008 230 45 2500 VRB/06 RMK AO2 T03440211
03949KAQV AQV20160713120511707/13/16 12:05:31  5-MIN KAQV 131805Z AUTO 18009G14KT 10SM FEW044 34/21 A3008 230 45 2500 170/09G14 RMK AO2 T03440211
03949KAQV AQV20160713121011707/13/16 12:10:31  5-MIN KAQV 131810Z AUTO VRB06G14KT 10SM FEW048 34/21 A3007 230 45 2500 VRB/06G14 RMK AO2 T03440211
03949KAQV AQV20160713121512707/13/16 12:15:31  5-MIN KAQV 131815Z AUTO 19007KT 160V230 10SM FEW048 35/21 A3007 240 43 2600 180/07 160V230 RMK AO2 T03500211
03949KAQV AQV20160713122011107/13/16 12:20:31  5-MIN KAQV 131820Z AUTO VRB06KT 10SM FEW048 34/21 A3007 240 45 2500 VRB/06 RMK AO2 T03440211
03949KAQV AQV20160713122512707/13/16 12:25:31  5-MIN KAQV 131825Z AUTO 17007KT 120V200 10SM FEW048 35/21 A3007 240 43 2600 160/07 120V200 RMK AO2 T03500211
03949KAQV AQV20160713123011007/13/16 12:30:31  5-MIN KAQV 131830Z AUTO VRB05KT 9SM SCT048 34/21 A3006 240 43 2500 VRB/05 RMK AO2 T03440206
03949KAQV AQV20160713123511307/13/16 12:35:31  5-MIN KAQV 131835Z AUTO VRB05KT 5SM HZ SCT048 34/21 A3006 250 45 2600 VRB/05 RMK AO2 T03440211
03949KAQV AQV20160713124011307/13/16 12:40:31  5-MIN KAQV 131840Z AUTO VRB05KT 6SM HZ SCT050 34/21 A3006 250 46 2500 VRB/05 RMK AO2 T03390211
03949KAQV AQV20160713124511107/13/16 12:45:31  5-MIN KAQV 131845Z AUTO VRB05KT 10SM SCT050 34/22 A3006 250 46 2600 VRB/05 RMK AO2 T03440217
03949KAQV AQV20160713125011807/13/16 12:50:31  5-MIN KAQV 131850Z AUTO VRB06KT 10SM SCT050 36/22 A3006 250 44 2700 VRB/06 RMK AO2 SLP173 T03560217
03949KAQV AQV20160713125512407/13/16 12:55:31  5-MIN KAQV 131855Z AUTO 18011G16KT 10SM FEW050 35/21 A3005 250 43 2600 180/11G16 RMK AO2 SLP172 T03500211
03949KAQV AQV20160713130011707/13/16 13:00:31  5-MIN KAQV 131900Z AUTO 22008G16KT 10SM FEW050 35/21 A3005 260 43 2600 220/08G16 RMK AO2 T03500211
03949KAQV AQV20160713130511107/13/16 13:05:31  5-MIN KAQV 131905Z AUTO 21005KT 10SM SCT050 34/21 A3005 260 45 2600 210/05 RMK AO2 T03440211
03949KAQV AQV20160713131011107/13/16 13:10:31  5-MIN KAQV 131910Z AUTO VRB06KT 10SM FEW050 36/22 A3005 260 44 2700 VRB/06 RMK AO2 T03560217
03949KAQV AQV20160713131510107/13/16 13:15:31  5-MIN KAQV 131915Z AUTO 10SM FEW050 35/21 A3004 260 43 2600 M /M RMK AO2 T03500211
03949KAQV AQV20160713132011007/13/16 13:20:31  5-MIN KAQV 131920Z AUTO VRB05KT 9SM FEW050 36/22 A3005 260 44 2700 VRB/05 RMK AO2 T03560217
03949KAQV AQV20160713132511307/13/16 13:25:31  5-MIN KAQV 131925Z AUTO VRB05KT 6SM HZ FEW050 36/22 A3004 260 44 2700 VRB/05 RMK AO2 T03560217
03949KAQV AQV20160713133010307/13/16 13:30:31  5-MIN KAQV 131930Z AUTO 6SM HZ FEW050 35/21 A3004 270 43 2600 M /M RMK AO2 T03500211
03949KAQV AQV20160713133511107/13/16 13:35:31  5-MIN KAQV 131935Z AUTO 19006KT 10SM FEW050 35/21 A3004 270 43 2600 190/06 RMK AO2 T03500211
03949KAQV AQV20160713134012407/13/16 13:40:31  5-MIN KAQV 131940Z AUTO 24008KT 190V270 10SM CLR 35/21 A3004 270 43 2600 240/08 190V270 RMK AO2 T03500211
03949KAQV AQV20160713134511407/13/16 13:45:31  5-MIN KAQV 131945Z AUTO VRB06G14KT 10SM CLR 36/21 A3003 270 41 2700 VRB/06G14 RMK AO2 T03560206
03949KAQV AQV20160713135013107/13/16 13:50:31  5-MIN KAQV 131950Z AUTO 18008KT 160V220 10SM CLR 36/21 A3003 270 41 2700 180/08 160V220 RMK AO2 SLP165 T03560206
03949KAQV AQV20160713135511507/13/16 13:55:31  5-MIN KAQV 131955Z AUTO 20007KT 10SM CLR 36/21 A3003 270 41 2700 200/07 RMK AO2 SLP165 T03560206
03949KAQV AQV20160713140010807/13/16 14:00:31  5-MIN KAQV 132000Z AUTO 18008KT 10SM CLR 36/21 A3003 280 41 2700 180/08 RMK AO2 T03560206
03949KAQV AQV20160713140512407/13/16 14:05:31  5-MIN KAQV 132005Z AUTO 18007KT 160V230 10SM CLR 36/21 A3003 280 41 2700 180/07 160V230 RMK AO2 T03560206
03949KAQV AQV20160713141010807/13/16 14:10:31  5-MIN KAQV 132010Z AUTO VRB05KT 10SM CLR 36/21 A3002 280 42 2700 VRB/05 RMK AO2 T03560211
03949KAQV AQV20160713141512407/13/16 14:15:31  5-MIN KAQV 132015Z AUTO 23008KT 200V280 10SM CLR 36/21 A3002 280 41 2800 220/08 200V280 RMK AO2 T03610211
03949KAQV AQV20160713142010807/13/16 14:20:31  5-MIN KAQV 132020Z AUTO VRB06KT 10SM CLR 36/22 A3002 280 42 2800 VRB/06 RMK AO2 T03610217
03949KAQV AQV20160713142511107/13/16 14:25:31  5-MIN KAQV 132025Z AUTO VRB04KT 10SM FEW050 36/22 A3002 280 44 2700 VRB/04 RMK AO2 T03560217
03949KAQV AQV20160713143013307/13/16 14:30:31  5-MIN KAQV 132030Z AUTO 24007G15KT 210V270 10SM FEW050 36/22 A3002 290 44 2700 240/07G15 210V270 RMK AO2 T03560217
03949KAQV AQV20160713143513007/13/16 14:35:31  5-MIN KAQV 132035Z AUTO 19007G15KT 160V230 10SM CLR 36/21 A3002 290 42 2700 190/07G15 160V230 RMK AO2 T03560211
03949KAQV AQV20160713144010807/13/16 14:40:31  5-MIN KAQV 132040Z AUTO 26008KT 10SM CLR 36/21 A3001 290 42 2700 250/08 RMK AO2 T03560211
03949KAQV AQV20160713144512407/13/16 14:45:31  5-MIN KAQV 132045Z AUTO 21008KT 160V240 10SM CLR 36/22 A3001 290 44 2700 210/08 160V240 RMK AO2 T03560217
03949KAQV AQV20160713145012107/13/16 14:50:31  5-MIN KAQV 132050Z AUTO VRB05KT 10SM CLR 36/22 A3001 290 44 2700 VRB/05 RMK AO2 SLP158 T03560217 58006
03949KAQV AQV20160713145513707/13/16 14:55:31  5-MIN KAQV 132055Z AUTO 23007KT 180V250 10SM CLR 36/22 A3001 290 45 2700 220/07 180V250 RMK AO2 SLP157 T03560222 58006
03949KAQV AQV20160713150011107/13/16 15:00:31  5-MIN KAQV 132100Z AUTO 20007KT 10SM FEW055 35/22 A3001 290 47 2700 200/07 RMK AO2 T03500222
03949KAQV AQV20160713150512707/13/16 15:05:31  5-MIN KAQV 132105Z AUTO 23007KT 180V270 10SM FEW055 35/22 A3001 300 45 2700 230/07 180V270 RMK AO2 T03500217
03949KAQV AQV20160713151010807/13/16 15:10:31  5-MIN KAQV 132110Z AUTO 23008KT 10SM CLR 36/21 A3001 290 42 2700 230/08 RMK AO2 T03560211
03949KAQV AQV20160713151510807/13/16 15:15:31  5-MIN KAQV 132115Z AUTO VRB06KT 10SM CLR 36/21 A3000 300 41 2800 VRB/06 RMK AO2 T03610211
03949KAQV AQV20160713152013007/13/16 15:20:31  5-MIN KAQV 132120Z AUTO 19009G15KT 170V230 10SM CLR 36/22 A3000 300 42 2800 190/09G15 170V230 RMK AO2 T03610217
03949KAQV AQV20160713152511407/13/16 15:25:31  5-MIN KAQV 132125Z AUTO VRB06G15KT 10SM CLR 36/22 A3000 300 44 2700 VRB/06G15 RMK AO2 T03560217
03949KAQV AQV20160713153010807/13/16 15:30:31  5-MIN KAQV 132130Z AUTO VRB04KT 10SM CLR 36/22 A3000 310 45 2700 VRB/04 RMK AO2 T03560222
03949KAQV AQV20160713153510807/13/16 15:35:31  5-MIN KAQV 132135Z AUTO 22007KT 10SM CLR 36/22 A3000 310 45 2700 210/07 RMK AO2 T03560222
03949KAQV AQV20160713154010807/13/16 15:40:31  5-MIN KAQV 132140Z AUTO VRB06KT 10SM CLR 35/21 A2999 310 43 2700 VRB/06 RMK AO2 T03500211
03949KAQV AQV20160713154510807/13/16 15:45:31  5-MIN KAQV 132145Z AUTO VRB05KT 10SM CLR 36/20 A2999 310 39 2700 VRB/05 RMK AO2 T03560200
03949KAQV AQV20160713155011407/13/16 15:50:31  5-MIN KAQV 132150Z AUTO VRB06KT 7SM CLR 36/21 A2999 310 41 2700 VRB/06 RMK AO2 SLP151 T03560206
03949KAQV AQV20160713155513007/13/16 15:55:31  5-MIN KAQV 132155Z AUTO 21007KT 170V250 7SM CLR 36/20 A2999 310 39 2700 200/07 170V250 RMK AO2 SLP151 T03560200
03949KAQV AQV20160713160010807/13/16 16:00:31  5-MIN KAQV 132200Z AUTO VRB06KT 10SM CLR 36/20 A2999 310 39 2800 VRB/06 RMK AO2 T03560200
03949KAQV AQV20160713160512407/13/16 16:05:31  5-MIN KAQV 132205Z AUTO 23007KT 180V280 10SM CLR 35/20 A2999 310 40 2700 220/07 180V280 RMK AO2 T03500200
03949KAQV AQV20160713161010807/13/16 16:10:31  5-MIN KAQV 132210Z AUTO 18007KT 10SM CLR 36/20 A2999 310 39 2800 180/07 RMK AO2 T03560200
03949KAQV AQV20160713161510807/13/16 16:15:31  5-MIN KAQV 132215Z AUTO VRB06KT 10SM CLR 36/20 A2999 310 39 2800 VRB/06 RMK AO2 T03560200
03949KAQV AQV20160713162010807/13/16 16:20:31  5-MIN KAQV 132220Z AUTO VRB05KT 10SM CLR 35/20 A2999 310 40 2700 VRB/05 RMK AO2 T03500200
03949KAQV AQV20160713162510807/13/16 16:25:31  5-MIN KAQV 132225Z AUTO VRB05KT 10SM CLR 36/21 A2999 310 41 2800 VRB/05 RMK AO2 T03560206
03949KAQV AQV20160713163010807/13/16 16:30:31  5-MIN KAQV 132230Z AUTO VRB06KT 10SM CLR 36/21 A2999 320 41 2800 VRB/06 RMK AO2 T03560206
03949KAQV AQV20160713163510807/13/16 16:35:31  5-MIN KAQV 132235Z AUTO VRB06KT 10SM CLR 35/21 A2999 320 42 2700 VRB/06 RMK AO2 T03500206
03949KAQV AQV20160713164010807/13/16 16:40:31  5-MIN KAQV 132240Z AUTO VRB04KT 10SM CLR 35/21 A2999 320 42 2700 VRB/04 RMK AO2 T03500206
03949KAQV AQV20160713164510807/13/16 16:45:31  5-MIN KAQV 132245Z AUTO VRB04KT 10SM CLR 35/21 A2999 320 43 2700 VRB/04 RMK AO2 T03500211
03949KAQV AQV20160713165011507/13/16 16:50:31  5-MIN KAQV 132250Z AUTO VRB04KT 10SM CLR 35/21 A2999 310 43 2700 VRB/04 RMK AO2 SLP150 T03500211
03949KAQV AQV20160713165511507/13/16 16:55:31  5-MIN KAQV 132255Z AUTO VRB05KT 10SM CLR 35/22 A2999 310 45 2700 VRB/05 RMK AO2 SLP151 T03500217
03949KAQV AQV20160713170010807/13/16 17:00:31  5-MIN KAQV 132300Z AUTO VRB05KT 10SM CLR 34/22 A2999 310 46 2600 VRB/05 RMK AO2 T03440217
03949KAQV AQV20160713170510807/13/16 17:05:31  5-MIN KAQV 132305Z AUTO VRB05KT 10SM CLR 34/22 A3000 310 48 2600 VRB/05 RMK AO2 T03440222
03949KAQV AQV20160713171010807/13/16 17:10:31  5-MIN KAQV 132310Z AUTO VRB05KT 10SM CLR 34/23 A3000 300 51 2600 VRB/05 RMK AO2 T03390228
03949KAQV AQV20160713171510807/13/16 17:15:31  5-MIN KAQV 132315Z AUTO VRB06KT 10SM CLR 34/23 A3000 310 51 2600 VRB/06 RMK AO2 T03390228
03949KAQV AQV20160713172010807/13/16 17:20:31  5-MIN KAQV 132320Z AUTO VRB06KT 10SM CLR 34/22 A2999 310 48 2600 VRB/06 RMK AO2 T03440222
03949KAQV AQV20160713172512407/13/16 17:25:31  5-MIN KAQV 132325Z AUTO 20007KT 170V240 10SM CLR 34/22 A2999 310 50 2600 200/07 170V240 RMK AO2 T03390222
03949KAQV AQV20160713173010807/13/16 17:30:31  5-MIN KAQV 132330Z AUTO VRB05KT 10SM CLR 34/23 A2999 310 51 2600 VRB/05 RMK AO2 T03390228
03949KAQV AQV20160713173510807/13/16 17:35:31  5-MIN KAQV 132335Z AUTO VRB06KT 10SM CLR 34/23 A2999 310 50 2600 VRB/06 RMK AO2 T03440228
03949KAQV AQV20160713174010807/13/16 17:40:31  5-MIN KAQV 132340Z AUTO VRB05KT 10SM CLR 34/23 A2999 310 51 2600 VRB/05 RMK AO2 T03390228
03949KAQV AQV20160713174510807/13/16 17:45:31  5-MIN KAQV 132345Z AUTO VRB05KT 10SM CLR 34/23 A2999 310 51 2600 VRB/05 RMK AO2 T03390228
03949KAQV AQV20160713175013307/13/16 17:50:31  5-MIN KAQV 132350Z AUTO 19009KT 10SM CLR 33/23 A2999 310 53 2500 180/09 RMK AO2 SLP152 T03330228 10361 20333 56023
03949KAQV AQV20160713175513507/13/16 17:55:31  5-MIN KAQV 132355Z AUTO 20005KT 5SM HZ CLR 33/23 A3000 310 53 2500 190/05 RMK AO2 SLP153 T03330228 10361 20333 56023
03949KAQV AQV20160713180011007/13/16 18:00:31  5-MIN KAQV 140000Z AUTO VRB05KT 5SM HZ CLR 33/23 A2999 310 53 2500 VRB/05 RMK AO2 T03330228
03949KAQV AQV20160713180510807/13/16 18:05:31  5-MIN KAQV 140005Z AUTO VRB04KT 10SM CLR 33/23 A2999 310 53 2500 VRB/04 RMK AO2 T03330228
03949KAQV AQV20160713181010807/13/16 18:10:31  5-MIN KAQV 140010Z AUTO 19005KT 10SM CLR 33/23 A2999 310 57 2400 190/05 RMK AO2 T03280233
03949KAQV AQV20160713181510807/13/16 18:15:31  5-MIN KAQV 140015Z AUTO 18006KT 10SM CLR 33/23 A3000 310 57 2400 180/06 RMK AO2 T03280233
03949KAQV AQV20160713182010807/13/16 18:20:31  5-MIN KAQV 140020Z AUTO VRB05KT 10SM CLR 33/24 A2999 310 59 2400 VRB/05 RMK AO2 T03280239
03949KAQV AQV20160713182512407/13/16 18:25:31  5-MIN KAQV 140025Z AUTO 18007KT 140V230 10SM CLR 33/23 A3000 310 57 2400 180/07 140V230 RMK AO2 T03280233
03949KAQV AQV20160713183012407/13/16 18:30:31  5-MIN KAQV 140030Z AUTO 19007KT 150V240 10SM CLR 32/23 A3000 310 59 2400 190/07 150V240 RMK AO2 T03220233
03949KAQV AQV20160713183510807/13/16 18:35:31  5-MIN KAQV 140035Z AUTO 19006KT 10SM CLR 32/23 A3000 310 59 2400 190/06 RMK AO2 T03220233
03949KAQV AQV20160713184010807/13/16 18:40:31  5-MIN KAQV 140040Z AUTO VRB04KT 10SM CLR 32/23 A3000 300 59 2400 VRB/04 RMK AO2 T03220233
03949KAQV AQV20160713184509807/13/16 18:45:31  5-MIN KAQV 140045Z AUTO 10SM CLR 32/23 A3000 310 57 2400 M /M RMK AO2 T03220228
03949KAQV AQV20160713185011507/13/16 18:50:31  5-MIN KAQV 140050Z AUTO VRB03KT 10SM CLR 32/23 A3000 300 57 2400 VRB/03 RMK AO2 SLP154 T03220228
03949KAQV AQV20160713185511507/13/16 18:55:31  5-MIN KAQV 140055Z AUTO VRB04KT 10SM CLR 32/23 A3000 300 58 2300 VRB/04 RMK AO2 SLP156 T03170228
03949KAQV AQV20160713190010807/13/16 19:00:31  5-MIN KAQV 140100Z AUTO 20004KT 10SM CLR 32/23 A3000 300 58 2300 200/04 RMK AO2 T03170228
03949KAQV AQV20160713190510807/13/16 19:05:31  5-MIN KAQV 140105Z AUTO VRB03KT 10SM CLR 32/23 A3000 300 58 2300 VRB/03 RMK AO2 T03170228
03949KAQV AQV20160713191010807/13/16 19:10:31  5-MIN KAQV 140110Z AUTO VRB03KT 10SM CLR 31/23 A3001 300 60 2200 VRB/03 RMK AO2 T03110228
03949KAQV AQV20160713191510807/13/16 19:15:31  5-MIN KAQV 140115Z AUTO 19004KT 10SM CLR 31/23 A3001 300 60 2200 180/04 RMK AO2 T03110228
03949KAQV AQV20160713192010807/13/16 19:20:31  5-MIN KAQV 140120Z AUTO VRB03KT 10SM CLR 31/23 A3001 300 62 2200 VRB/03 RMK AO2 T03060228
03949KAQV AQV20160713192510707/13/16 19:25:31  5-MIN KAQV 140125Z AUTO 21003KT 9SM CLR 31/23 A3001 300 62 2200 200/03 RMK AO2 T03060228
03949KAQV AQV20160713193011007/13/16 19:30:31  5-MIN KAQV 140130Z AUTO 17003KT 4SM HZ CLR 31/23 A3001 300 62 2200 170/03 RMK AO2 T03060228
03949KAQV AQV20160713193511007/13/16 19:35:31  5-MIN KAQV 140135Z AUTO 18003KT 2SM HZ CLR 30/23 A3001 300 67 2100 170/03 RMK AO2 T03000233
03949KAQV AQV20160713194011007/13/16 19:40:31  5-MIN KAQV 140140Z AUTO 18004KT 3SM HZ CLR 30/23 A3001 300 65 2100 180/04 RMK AO2 T03000228
03949KAQV AQV20160713194511007/13/16 19:45:31  5-MIN KAQV 140145Z AUTO VRB04KT 6SM HZ CLR 30/23 A3001 290 65 2100 VRB/04 RMK AO2 T03000228
03949KAQV AQV20160713195011407/13/16 19:50:31  5-MIN KAQV 140150Z AUTO VRB04KT 7SM CLR 30/23 A3001 290 65 2100 VRB/04 RMK AO2 SLP160 T03000228
03949KAQV AQV20160713195511507/13/16 19:55:31  5-MIN KAQV 140155Z AUTO 18004KT 10SM CLR 30/22 A3001 290 62 2100 180/04 RMK AO2 SLP160 T03000222
03949KAQV AQV20160713200010807/13/16 20:00:31  5-MIN KAQV 140200Z AUTO 18004KT 10SM CLR 29/22 A3001 290 64 2100 180/04 RMK AO2 T02940222
03949KAQV AQV20160713200510807/13/16 20:05:31  5-MIN KAQV 140205Z AUTO 18003KT 10SM CLR 29/22 A3001 290 64 2100 180/03 RMK AO2 T02940222
03949KAQV AQV20160713201010807/13/16 20:10:31  5-MIN KAQV 140210Z AUTO VRB03KT 10SM CLR 29/22 A3001 290 64 2100 VRB/03 RMK AO2 T02940222
03949KAQV AQV20160713201510807/13/16 20:15:31  5-MIN KAQV 140215Z AUTO 18004KT 10SM CLR 29/22 A3002 290 64 2100 170/04 RMK AO2 T02940222
03949KAQV AQV20160713202010807/13/16 20:20:31  5-MIN KAQV 140220Z AUTO 18004KT 10SM CLR 29/22 A3002 290 64 2100 180/04 RMK AO2 T02940222
03949KAQV AQV20160713202510807/13/16 20:25:31  5-MIN KAQV 140225Z AUTO 19004KT 10SM CLR 29/22 A3001 290 67 2000 180/04 RMK AO2 T02890222
03949KAQV AQV20160713203010807/13/16 20:30:31  5-MIN KAQV 140230Z AUTO 18005KT 10SM CLR 29/22 A3002 290 64 2100 180/05 RMK AO2 T02940222
03949KAQV AQV20160713203510807/13/16 20:35:31  5-MIN KAQV 140235Z AUTO 19004KT 10SM CLR 29/22 A3002 290 67 2000 180/04 RMK AO2 T02890222
03949KAQV AQV20160713204010807/13/16 20:40:31  5-MIN KAQV 140240Z AUTO 19004KT 10SM CLR 29/22 A3002 280 67 2000 190/04 RMK AO2 T02890222
03949KAQV AQV20160713204510707/13/16 20:45:31  5-MIN KAQV 140245Z AUTO VRB04KT 8SM CLR 29/22 A3002 280 67 2000 VRB/04 RMK AO2 T02890222
03949KAQV AQV20160713205012007/13/16 20:50:31  5-MIN KAQV 140250Z AUTO VRB04KT 8SM CLR 28/22 A3002 280 69 1900 VRB/04 RMK AO2 SLP161 T02830222 55005
03949KAQV AQV20160713205512107/13/16 20:55:31  5-MIN KAQV 140255Z AUTO VRB05KT 10SM CLR 29/22 A3002 280 67 2000 VRB/05 RMK AO2 SLP161 T02890222 55005
03949KAQV AQV20160713210010807/13/16 21:00:31  5-MIN KAQV 140300Z AUTO VRB04KT 10SM CLR 28/22 A3002 290 69 1900 VRB/04 RMK AO2 T02830222
03949KAQV AQV20160713210510807/13/16 21:05:31  5-MIN KAQV 140305Z AUTO 19005KT 10SM CLR 28/22 A3002 290 69 1900 190/05 RMK AO2 T02830222
03949KAQV AQV20160713211010807/13/16 21:10:31  5-MIN KAQV 140310Z AUTO VRB03KT 10SM CLR 28/22 A3002 290 69 1900 VRB/03 RMK AO2 T02830222
03949KAQV AQV20160713211510807/13/16 21:15:31  5-MIN KAQV 140315Z AUTO VRB04KT 10SM CLR 28/23 A3002 280 71 1900 VRB/04 RMK AO2 T02830228
03949KAQV AQV20160713212010807/13/16 21:20:31  5-MIN KAQV 140320Z AUTO VRB05KT 10SM CLR 28/23 A3003 280 71 1900 VRB/05 RMK AO2 T02830228
03949KAQV AQV20160713212510807/13/16 21:25:31  5-MIN KAQV 140325Z AUTO 19005KT 10SM CLR 28/23 A3003 280 71 1900 190/05 RMK AO2 T02830228
03949KAQV AQV20160713213010807/13/16 21:30:31  5-MIN KAQV 140330Z AUTO VRB05KT 10SM CLR 28/23 A3003 280 71 1900 VRB/05 RMK AO2 T02830228
03949KAQV AQV20160713213510807/13/16 21:35:31  5-MIN KAQV 140335Z AUTO VRB06KT 10SM CLR 28/23 A3003 280 71 1900 VRB/06 RMK AO2 T02830228
03949KAQV AQV20160713214010807/13/16 21:40:31  5-MIN KAQV 140340Z AUTO 19005KT 10SM CLR 28/23 A3002 280 74 1900 190/05 RMK AO2 T02780228
03949KAQV AQV20160713214510807/13/16 21:45:31  5-MIN KAQV 140345Z AUTO 19006KT 10SM CLR 28/23 A3003 280 74 1900 180/06 RMK AO2 T02780228
03949KAQV AQV20160713215011507/13/16 21:50:31  5-MIN KAQV 140350Z AUTO 19004KT 10SM CLR 28/23 A3003 280 74 1900 190/04 RMK AO2 SLP164 T02780228
03949KAQV AQV20160713215511507/13/16 21:55:31  5-MIN KAQV 140355Z AUTO VRB05KT 10SM CLR 28/23 A3003 280 74 1900 VRB/05 RMK AO2 SLP163 T02780228
03949KAQV AQV20160713220010807/13/16 22:00:31  5-MIN KAQV 140400Z AUTO VRB04KT 10SM CLR 28/23 A3003 280 74 1900 VRB/04 RMK AO2 T02780228
03949KAQV AQV20160713220510807/13/16 22:05:31  5-MIN KAQV 140405Z AUTO 20005KT 10SM CLR 28/23 A3003 280 74 1900 190/05 RMK AO2 T02780228
03949KAQV AQV20160713221010807/13/16 22:10:31  5-MIN KAQV 140410Z AUTO 19003KT 10SM CLR 28/23 A3003 280 74 1800 190/03 RMK AO2 T02780228
03949KAQV AQV20160713221510807/13/16 22:15:31  5-MIN KAQV 140415Z AUTO VRB04KT 10SM CLR 27/23 A3003 270 76 1800 VRB/04 RMK AO2 T02720228
03949KAQV AQV20160713222010807/13/16 22:20:31  5-MIN KAQV 140420Z AUTO 19005KT 10SM CLR 27/23 A3003 270 76 1800 190/05 RMK AO2 T02720228
03949KAQV AQV20160713222510807/13/16 22:25:31  5-MIN KAQV 140425Z AUTO 19004KT 10SM CLR 27/23 A3003 270 76 1800 180/04 RMK AO2 T02720228
03949KAQV AQV20160713223010807/13/16 22:30:31  5-MIN KAQV 140430Z AUTO VRB06KT 10SM CLR 27/23 A3003 270 76 1800 VRB/06 RMK AO2 T02720228
03949KAQV AQV20160713223510807/13/16 22:35:31  5-MIN KAQV 140435Z AUTO 19005KT 10SM CLR 27/23 A3003 270 76 1800 180/05 RMK AO2 T02720228
03949KAQV AQV20160713224010807/13/16 22:40:31  5-MIN KAQV 140440Z AUTO 19004KT 10SM CLR 27/23 A3004 270 76 1800 180/04 RMK AO2 T02720228
03949KAQV AQV20160713224510807/13/16 22:45:31  5-MIN KAQV 140445Z AUTO VRB04KT 10SM CLR 27/23 A3004 270 79 1700 VRB/04 RMK AO2 T02670228
03949KAQV AQV20160713225011507/13/16 22:50:31  5-MIN KAQV 140450Z AUTO VRB03KT 10SM CLR 27/23 A3003 270 79 1700 VRB/03 RMK AO2 SLP166 T02670228
03949KAQV AQV20160713225511507/13/16 22:55:31  5-MIN KAQV 140455Z AUTO 00000KT 10SM CLR 27/23 A3003 270 79 1700 000/00 RMK AO2 SLP166 T02670228
03949KAQV AQV20160713230010807/13/16 23:00:31  5-MIN KAQV 140500Z AUTO 00000KT 10SM CLR 27/23 A3004 270 79 1700 000/00 RMK AO2 T02670228
03949KAQV AQV20160713230510807/13/16 23:05:31  5-MIN KAQV 140505Z AUTO 00000KT 10SM CLR 27/23 A3004 260 79 1700 000/00 RMK AO2 T02670228
03949KAQV AQV20160713231010807/13/16 23:10:31  5-MIN KAQV 140510Z AUTO 00000KT 10SM CLR 26/23 A3004 270 81 1700 000/00 RMK AO2 T02610228
03949KAQV AQV20160713231510807/13/16 23:15:31  5-MIN KAQV 140515Z AUTO 00000KT 10SM CLR 26/23 A3004 270 84 1600 000/00 RMK AO2 T02560228
03949KAQV AQV20160713232010807/13/16 23:20:31  5-MIN KAQV 140520Z AUTO 00000KT 10SM CLR 26/23 A3004 270 84 1600 000/00 RMK AO2 T02560228
03949KAQV AQV20160713232510807/13/16 23:25:31  5-MIN KAQV 140525Z AUTO 00000KT 10SM CLR 26/23 A3004 270 81 1600 000/00 RMK AO2 T02610228
03949KAQV AQV20160713233010807/13/16 23:30:31  5-MIN KAQV 140530Z AUTO 19003KT 10SM CLR 26/23 A3004 270 84 1600 190/03 RMK AO2 T02560228
03949KAQV AQV20160713233510807/13/16 23:35:31  5-MIN KAQV 140535Z AUTO 19003KT 10SM CLR 25/23 A3003 270 87 1500 190/03 RMK AO2 T02500228
03949KAQV AQV20160713234010807/13/16 23:40:31  5-MIN KAQV 140540Z AUTO VRB03KT 10SM CLR 25/23 A3003 270 87 1500 VRB/03 RMK AO2 T02500228
03949KAQV AQV20160713234510807/13/16 23:45:31  5-MIN KAQV 140545Z AUTO VRB03KT 10SM CLR 25/23 A3003 280 87 1500 VRB/03 RMK AO2 T02500228
03949KAQV AQV20160713235014307/13/16 23:50:31  5-MIN KAQV 140550Z AUTO 19003KT 10SM CLR 25/23 A3003 280 87 1500 180/03 RMK AO2 SLP163 T02500228 10333 20250 403610222 51008
03949KAQV AQV20160713235514307/13/16 23:55:31  5-MIN KAQV 140555Z AUTO VRB03KT 10SM CLR 25/23 A3003 280 87 1500 VRB/03 RMK AO2 SLP163 T02500228 10333 20250 403610222 51008
03949KAQV AQV20160714000010807/14/16 00:00:31  5-MIN KAQV 140600Z AUTO 19003KT 10SM CLR 25/23 A3002 280 90 1500 190/03 RMK AO2 T02500233
03949KAQV AQV20160714000510807/14/16 00:05:31  5-MIN KAQV 140605Z AUTO VRB03KT 10SM CLR 25/23 A3002 280 87 1500 VRB/03 RMK AO2 T02500228
03949KAQV AQV20160714001010807/14/16 00:10:31  5-MIN KAQV 140610Z AUTO VRB04KT 10SM CLR 26/23 A3002 290 87 1600 VRB/04 RMK AO2 T02560233
03949KAQV AQV20160714001510807/14/16 00:15:31  5-MIN KAQV 140615Z AUTO 22003KT 10SM CLR 25/23 A3002 280 90 1500 220/03 RMK AO2 T02500233
03949KAQV AQV20160714002010807/14/16 00:20:31  5-MIN KAQV 140620Z AUTO 00000KT 10SM CLR 26/23 A3002 290 87 1600 000/00 RMK AO2 T02560233
03949KAQV AQV20160714002510807/14/16 00:25:31  5-MIN KAQV 140625Z AUTO 20003KT 10SM CLR 26/23 A3002 280 87 1600 190/03 RMK AO2 T02560233
03949KAQV AQV20160714003010807/14/16 00:30:31  5-MIN KAQV 140630Z AUTO VRB03KT 10SM CLR 25/23 A3002 280 90 1500 VRB/03 RMK AO2 T02500233
03949KAQV AQV20160714003510807/14/16 00:35:31  5-MIN KAQV 140635Z AUTO 00000KT 10SM CLR 26/23 A3002 280 87 1600 000/00 RMK AO2 T02560233
03949KAQV AQV20160714004010807/14/16 00:40:31  5-MIN KAQV 140640Z AUTO 00000KT 10SM CLR 25/23 A3002 280 90 1500 000/00 RMK AO2 T02500233
03949KAQV AQV20160714004510807/14/16 00:45:31  5-MIN KAQV 140645Z AUTO VRB03KT 10SM CLR 25/23 A3002 280 90 1500 VRB/03 RMK AO2 T02500233
03949KAQV AQV20160714005011507/14/16 00:50:31  5-MIN KAQV 140650Z AUTO VRB03KT 10SM CLR 25/23 A3002 280 90 1500 VRB/03 RMK AO2 SLP162 T02500233
03949KAQV AQV20160714005511507/14/16 00:55:31  5-MIN KAQV 140655Z AUTO 19003KT 10SM CLR 25/23 A3002 280 90 1500 180/03 RMK AO2 SLP162 T02500233
03949KAQV AQV20160714010010807/14/16 01:00:31  5-MIN KAQV 140700Z AUTO 19003KT 10SM CLR 25/23 A3002 280 90 1500 180/03 RMK AO2 T02500233
03949KAQV AQV20160714010510807/14/16 01:05:31  5-MIN KAQV 140705Z AUTO 20004KT 10SM CLR 24/23 A3002 290 93 1500 190/04 RMK AO2 T02440233
03949KAQV AQV20160714011010807/14/16 01:10:31  5-MIN KAQV 140710Z AUTO 19005KT 10SM CLR 24/23 A3001 290 93 1500 190/05 RMK AO2 T02440233
03949KAQV AQV20160714011510807/14/16 01:15:31  5-MIN KAQV 140715Z AUTO 19004KT 10SM CLR 24/23 A3001 290 93 1500 190/04 RMK AO2 T02440233
03949KAQV AQV20160714012010807/14/16 01:20:31  5-MIN KAQV 140720Z AUTO VRB04KT 10SM CLR 25/23 A3001 290 90 1600 VRB/04 RMK AO2 T02500233
03949KAQV AQV20160714012510807/14/16 01:25:31  5-MIN KAQV 140725Z AUTO VRB04KT 10SM CLR 25/23 A3001 290 90 1600 VRB/04 RMK AO2 T02500233
03949KAQV AQV20160714013010807/14/16 01:30:31  5-MIN KAQV 140730Z AUTO VRB03KT 10SM CLR 25/23 A3001 290 90 1600 VRB/03 RMK AO2 T02500233
03949KAQV AQV20160714013510807/14/16 01:35:31  5-MIN KAQV 140735Z AUTO 19004KT 10SM CLR 25/23 A3001 290 90 1600 190/04 RMK AO2 T02500233
03949KAQV AQV20160714014010807/14/16 01:40:31  5-MIN KAQV 140740Z AUTO VRB03KT 10SM CLR 25/23 A3002 290 90 1600 VRB/03 RMK AO2 T02500233
03949KAQV AQV20160714014510807/14/16 01:45:31  5-MIN KAQV 140745Z AUTO 20004KT 10SM CLR 25/23 A3001 290 90 1600 200/04 RMK AO2 T02500233
03949KAQV AQV20160714015011507/14/16 01:50:31  5-MIN KAQV 140750Z AUTO 00000KT 10SM CLR 25/24 A3002 290 93 1600 000/00 RMK AO2 SLP160 T02500239
03949KAQV AQV20160714015511507/14/16 01:55:31  5-MIN KAQV 140755Z AUTO 20003KT 10SM CLR 25/24 A3003 280 93 1500 200/03 RMK AO2 SLP163 T02500239
03949KAQV AQV20160714020010807/14/16 02:00:31  5-MIN KAQV 140800Z AUTO 00000KT 10SM CLR 25/24 A3003 280 93 1500 000/00 RMK AO2 T02500239
03949KAQV AQV20160714020510707/14/16 02:05:31  5-MIN KAQV 140805Z AUTO 19003KT 9SM CLR 24/24 A3002 280 97 1500 190/03 RMK AO2 T02440239
03949KAQV AQV20160714021010707/14/16 02:10:31  5-MIN KAQV 140810Z AUTO 00000KT 9SM CLR 24/23 A3002 290 93 1500 000/00 RMK AO2 T02440233
03949KAQV AQV20160714021510807/14/16 02:15:31  5-MIN KAQV 140815Z AUTO 00000KT 10SM CLR 24/23 A3002 290 93 1500 000/00 RMK AO2 T02440233
03949KAQV AQV20160714022010807/14/16 02:20:31  5-MIN KAQV 140820Z AUTO 19003KT 10SM CLR 24/23 A3002 290 93 1500 190/03 RMK AO2 T02440233
03949KAQV AQV20160714022510707/14/16 02:25:31  5-MIN KAQV 140825Z AUTO 00000KT 9SM CLR 24/24 A3002 280 97 1500 000/00 RMK AO2 T02440239
03949KAQV AQV20160714023011007/14/16 02:30:31  5-MIN KAQV 140830Z AUTO 00000KT 9SM FEW013 24/24 A3002 280 97 1500 000/00 RMK AO2 T02440239
03949KAQV AQV20160714023511007/14/16 02:35:31  5-MIN KAQV 140835Z AUTO 00000KT 9SM SCT013 24/24 A3002 280 97 1500 000/00 RMK AO2 T02440239
03949KAQV AQV20160714024011007/14/16 02:40:31  5-MIN KAQV 140840Z AUTO 00000KT 9SM BKN013 24/24 A3002 280 97 1500 000/00 RMK AO2 T02440239
03949KAQV AQV20160714024511007/14/16 02:45:31  5-MIN KAQV 140845Z AUTO 00000KT 9SM SCT013 24/24 A3002 280 97 1500 000/00 RMK AO2 T02440239
03949KAQV AQV20160714025010007/14/16 02:50:31  5-MIN KAQV 140850Z AUTO 00000KT 9SM SCT013 24/24 A3002 280 97 1500 000/00 RMK AO2
03949KAQV AQV20160714025512307/14/16 02:55:31  5-MIN KAQV 140855Z AUTO 00000KT 8SM SCT013 24/23 A3003 280 93 1500 000/00 RMK AO2 SLP163 T02440233 57001
03949KAQV AQV20160714030011007/14/16 03:00:31  5-MIN KAQV 140900Z AUTO 00000KT 8SM FEW013 24/24 A3003 280 97 1500 000/00 RMK AO2 T02440239
03949KAQV AQV20160714030511007/14/16 03:05:31  5-MIN KAQV 140905Z AUTO 00000KT 8SM FEW013 24/23 A3003 280 93 1500 000/00 RMK AO2 T02440233
03949KAQV AQV20160714031011007/14/16 03:10:31  5-MIN KAQV 140910Z AUTO 18003KT 8SM FEW008 24/23 A3003 270 93 1500 180/03 RMK AO2 T02440233
03949KAQV AQV20160714031511007/14/16 03:15:31  5-MIN KAQV 140915Z AUTO 00000KT 8SM FEW008 24/23 A3003 270 93 1500 000/00 RMK AO2 T02440233
03949KAQV AQV20160714032011007/14/16 03:20:31  5-MIN KAQV 140920Z AUTO 00000KT 7SM FEW008 24/23 A3003 270 93 1500 000/00 RMK AO2 T02440233
03949KAQV AQV20160714032511007/14/16 03:25:31  5-MIN KAQV 140925Z AUTO 00000KT 7SM FEW008 24/23 A3003 270 93 1500 000/00 RMK AO2 T02440233
03949KAQV AQV20160714033011707/14/16 03:30:31  5-MIN KAQV 140930Z AUTO 00000KT 7SM FEW008 SCT015 24/23 A3003 270 93 1500 000/00 RMK AO2 T02440233
03949KAQV AQV20160714033511707/14/16 03:35:31  5-MIN KAQV 140935Z AUTO 00000KT 7SM FEW009 SCT015 24/23 A3003 280 93 1500 000/00 RMK AO2 T02440233
03949KAQV AQV20160714034011707/14/16 03:40:31  5-MIN KAQV 140940Z AUTO 00000KT 7SM FEW009 SCT014 24/23 A3003 270 93 1500 000/00 RMK AO2 T02440233
03949KAQV AQV20160714034511007/14/16 03:45:31  5-MIN KAQV 140945Z AUTO 00000KT 7SM SCT014 24/23 A3003 270 93 1500 000/00 RMK AO2 T02440233
03949KAQV AQV20160714035011707/14/16 03:50:31  5-MIN KAQV 140950Z AUTO 00000KT 7SM SCT014 24/24 A3003 270 97 1500 000/00 RMK AO2 SLP165 T02440239
03949KAQV AQV20160714035511707/14/16 03:55:31  5-MIN KAQV 140955Z AUTO 00000KT 7SM BKN014 24/24 A3003 270 97 1500 000/00 RMK AO2 SLP165 T02440239
03949KAQV AQV20160714040011007/14/16 04:00:31  5-MIN KAQV 141000Z AUTO 21003KT 7SM BKN012 24/23 A3003 280 93 1500 210/03 RMK AO2 T02440233
03949KAQV AQV20160714040511707/14/16 04:05:31  5-MIN KAQV 141005Z AUTO VRB03KT 7SM BKN010 BKN015 24/23 A3002 280 93 1500 VRB/03 RMK AO2 T02440233
03949KAQV AQV20160714041012707/14/16 04:10:31  5-MIN KAQV 141010Z AUTO VRB03KT 6SM BR SCT008 BKN013 BKN018 24/24 A3002 280 97 1500 VRB/03 RMK AO2 T02440239
03949KAQV AQV20160714041511707/14/16 04:15:31  5-MIN KAQV 141015Z AUTO 19004KT 7SM BKN008 BKN016 24/24 A3003 280 97 1500 190/04 RMK AO2 T02440239
03949KAQV AQV20160714042011707/14/16 04:20:31  5-MIN KAQV 141020Z AUTO VRB03KT 7SM BKN008 OVC016 25/24 A3003 280 93 1500 VRB/03 RMK AO2 T02500239
03949KAQV AQV20160714042512907/14/16 04:25:31  5-MIN KAQV 141025Z AUTO VRB04KT 7SM BKN008 OVC016 25/24 A3003 280 93 1500 VRB/04 RMK AO2 CIG 004V012 T02500239
03949KAQV AQV20160714043012207/14/16 04:30:31  5-MIN KAQV 141030Z AUTO VRB03KT 7SM OVC008 25/24 A3002 280 93 1500 VRB/03 RMK AO2 CIG 004V012 T02500239
03949KAQV AQV20160714043512207/14/16 04:35:31  5-MIN KAQV 141035Z AUTO 00000KT 7SM OVC007 25/24 A3002 280 93 1500 000/00 RMK AO2 CIG 004V012 T02500239
03949KAQV AQV20160714044011707/14/16 04:40:31  5-MIN KAQV 141040Z AUTO VRB04KT 7SM BKN005 OVC009 25/24 A3002 280 93 1500 VRB/04 RMK AO2 T02500239
03949KAQV AQV20160714044511007/14/16 04:45:31  5-MIN KAQV 141045Z AUTO VRB03KT 8SM OVC005 25/24 A3002 280 93 1500 VRB/03 RMK AO2 T02500239
03949KAQV AQV20160714045011707/14/16 04:50:31  5-MIN KAQV 141050Z AUTO VRB05KT 8SM OVC005 25/24 A3003 280 97 1500 VRB/05 RMK AO2 SLP163 T02500244
03949KAQV AQV20160714045511707/14/16 04:55:31  5-MIN KAQV 141055Z AUTO 19003KT 8SM OVC004 25/24 A3003 280 97 1500 180/03 RMK AO2 SLP164 T02500244
03949KAQV AQV20160714050011007/14/16 05:00:31  5-MIN KAQV 141100Z AUTO 19004KT 8SM OVC004 25/24 A3003 270 97 1500 190/04 RMK AO2 T02500244
03949KAQV AQV20160714050511007/14/16 05:05:31  5-MIN KAQV 141105Z AUTO VRB04KT 7SM OVC004 25/24 A3003 270 97 1500 VRB/04 RMK AO2 T02500244
03949KAQV AQV20160714051011007/14/16 05:10:31  5-MIN KAQV 141110Z AUTO 18003KT 7SM OVC004 25/24 A3004 270 97 1500 180/03 RMK AO2 T02500244
03949KAQV AQV20160714051511007/14/16 05:15:31  5-MIN KAQV 141115Z AUTO VRB03KT 8SM OVC004 25/24 A3004 270 97 1500 VRB/03 RMK AO2 T02500244
03949KAQV AQV20160714052011007/14/16 05:20:31  5-MIN KAQV 141120Z AUTO 00000KT 7SM OVC004 25/24 A3004 260 97 1500 000/00 RMK AO2 T02500244
03949KAQV AQV20160714052511307/14/16 05:25:31  5-MIN KAQV 141125Z AUTO 00000KT 6SM BR OVC004 25/24 A3005 260 97 1500 000/00 RMK AO2 T02500244
03949KAQV AQV20160714053011307/14/16 05:30:31  5-MIN KAQV 141130Z AUTO 00000KT 6SM BR OVC005 25/24 A3005 250 97 1500 000/00 RMK AO2 T02500244
03949KAQV AQV20160714053511307/14/16 05:35:31  5-MIN KAQV 141135Z AUTO 00000KT 4SM BR OVC005 25/24 A3006 250 97 1500 000/00 RMK AO2 T02500244
03949KAQV AQV20160714054011307/14/16 05:40:31  5-MIN KAQV 141140Z AUTO 00000KT 3SM BR OVC005 25/24 A3006 250 97 1500 000/00 RMK AO2 T02500244
03949KAQV AQV20160714054511307/14/16 05:45:31  5-MIN KAQV 141145Z AUTO 00000KT 4SM BR OVC005 25/24 A3006 240 97 1500 000/00 RMK AO2 T02500244
03949KAQV AQV20160714055013807/14/16 05:50:31  5-MIN KAQV 141150Z AUTO 00000KT 5SM BR OVC005 25/24 A3007 240 97 1500 000/00 RMK AO2 SLP177 T02500244 10256 20244 51001
03949KAQV AQV20160714055513807/14/16 05:55:31  5-MIN KAQV 141155Z AUTO 00000KT 6SM BR OVC005 25/24 A3007 240 97 1500 000/00 RMK AO2 SLP178 T02500244 10256 20244 51001
03949KAQV AQV20160714060011307/14/16 06:00:31  5-MIN KAQV 141200Z AUTO 00000KT 6SM BR OVC005 26/24 A3007 240 93 1600 000/00 RMK AO2 T02560244
03949KAQV AQV20160714060512007/14/16 06:05:31  5-MIN KAQV 141205Z AUTO 00000KT 6SM BR BKN005 OVC017 26/24 A3007 240 93 1600 000/00 RMK AO2 T02560244
03949KAQV AQV20160714061012007/14/16 06:10:31  5-MIN KAQV 141210Z AUTO 00000KT 6SM BR BKN005 OVC022 26/24 A3007 230 93 1500 000/00 RMK AO2 T02560244
03949KAQV AQV20160714061511707/14/16 06:15:31  5-MIN KAQV 141215Z AUTO 00000KT 7SM SCT005 BKN022 26/24 A3008 230 93 1500 000/00 RMK AO2 T02560244
03949KAQV AQV20160714062011707/14/16 06:20:31  5-MIN KAQV 141220Z AUTO 00000KT 8SM SCT005 BKN020 26/24 A3008 230 93 1500 000/00 RMK AO2 T02560244
03949KAQV AQV20160714062512407/14/16 06:25:31  5-MIN KAQV 141225Z AUTO 00000KT 9SM SCT005 SCT017 BKN023 26/24 A3008 230 90 1600 000/00 RMK AO2 T02610244
03949KAQV AQV20160714063012407/14/16 06:30:31  5-MIN KAQV 141230Z AUTO 00000KT 9SM FEW005 FEW017 SCT023 26/24 A3008 230 90 1600 000/00 RMK AO2 T02610244
03949KAQV AQV20160714063511807/14/16 06:35:31  5-MIN KAQV 141235Z AUTO VRB03KT 10SM FEW005 FEW022 27/24 A3008 230 87 1700 VRB/03 RMK AO2 T02670244
03949KAQV AQV20160714064011107/14/16 06:40:31  5-MIN KAQV 141240Z AUTO VRB03KT 10SM FEW005 27/24 A3008 230 87 1700 VRB/03 RMK AO2 T02670244
03949KAQV AQV20160714064511107/14/16 06:45:31  5-MIN KAQV 141245Z AUTO VRB04KT 10SM FEW007 27/24 A3008 230 87 1700 VRB/04 RMK AO2 T02670244
03949KAQV AQV20160714065011807/14/16 06:50:31  5-MIN KAQV 141250Z AUTO 24004KT 10SM SCT009 27/24 A3008 230 84 1700 240/04 RMK AO2 SLP181 T02720244
03949KAQV AQV20160714065511807/14/16 06:55:31  5-MIN KAQV 141255Z AUTO VRB03KT 10SM SCT009 27/24 A3008 230 84 1700 VRB/03 RMK AO2 SLP181 T02720244
03949KAQV AQV20160714070013907/14/16 07:00:31  5-MIN KAQV 141300Z AUTO 22007KT 190V250 10SM BKN009 27/24 A3008 230 84 1700 220/07 190V250 RMK AO2 CIG 007V013 T02720244
03949KAQV AQV20160714070512207/14/16 07:05:31  5-MIN KAQV 141305Z AUTO 00000KT 9SM BKN009 27/24 A3008 230 84 1700 000/00 RMK AO2 CIG 007V013 T02720244
03949KAQV AQV20160714071012907/14/16 07:10:31  5-MIN KAQV 141310Z AUTO VRB03KT 9SM BKN011 BKN020 27/24 A3008 230 84 1700 VRB/03 RMK AO2 CIG 008V013 T02720244
03949KAQV AQV20160714071511807/14/16 07:15:31  5-MIN KAQV 141315Z AUTO VRB06KT 10SM BKN011 BKN018 28/24 A3008 230 82 1800 VRB/06 RMK AO2 T02780244
03949KAQV AQV20160714072011807/14/16 07:20:31  5-MIN KAQV 141320Z AUTO VRB03KT 10SM BKN011 BKN020 28/24 A3008 230 82 1800 VRB/03 RMK AO2 T02780244
03949KAQV AQV20160714072511807/14/16 07:25:31  5-MIN KAQV 141325Z AUTO 21004KT 10SM SCT011 BKN018 28/24 A3008 230 79 1900 210/04 RMK AO2 T02830244
03949KAQV AQV20160714073011807/14/16 07:30:31  5-MIN KAQV 141330Z AUTO VRB04KT 10SM SCT013 BKN018 28/24 A3008 230 82 1800 VRB/04 RMK AO2 T02780244
03949KAQV AQV20160714073513307/14/16 07:35:31  5-MIN KAQV 141335Z AUTO 23007KT 210V270 9SM BKN015 BKN021 28/24 A3008 230 79 1900 230/07 210V270 RMK AO2 T02830244
03949KAQV AQV20160714074011707/14/16 07:40:31  5-MIN KAQV 141340Z AUTO VRB06KT 9SM BKN015 BKN021 28/24 A3008 230 76 1900 VRB/06 RMK AO2 T02830239
03949KAQV AQV20160714074511807/14/16 07:45:31  5-MIN KAQV 141345Z AUTO VRB05KT 10SM BKN015 BKN021 28/24 A3008 230 79 1800 VRB/05 RMK AO2 T02780239
03949KAQV AQV20160714075012507/14/16 07:50:31  5-MIN KAQV 141350Z AUTO VRB06KT 10SM BKN016 BKN021 28/24 A3008 230 79 1800 VRB/06 RMK AO2 SLP180 T02780239
03949KAQV AQV20160714075512507/14/16 07:55:31  5-MIN KAQV 141355Z AUTO 25006KT 10SM BKN016 BKN021 28/24 A3008 230 79 1900 250/06 RMK AO2 SLP181 T02830244
03949KAQV AQV20160714080011807/14/16 08:00:31  5-MIN KAQV 141400Z AUTO VRB05KT 10SM BKN016 BKN021 28/24 A3008 230 76 1900 VRB/05 RMK AO2 T02830239
03949KAQV AQV20160714080511807/14/16 08:05:31  5-MIN KAQV 141405Z AUTO VRB06KT 10SM SCT016 SCT021 28/24 A3008 230 76 1900 VRB/06 RMK AO2 T02830239
03949KAQV AQV20160714081011107/14/16 08:10:31  5-MIN KAQV 141410Z AUTO VRB06KT 10SM SCT016 28/24 A3008 230 76 1900 VRB/06 RMK AO2 T02830239
03949KAQV AQV20160714081512707/14/16 08:15:31  5-MIN KAQV 141415Z AUTO 24007KT 210V310 10SM SCT016 28/24 A3008 230 76 1900 240/07 210V310 RMK AO2 T02830239
03949KAQV AQV20160714082011107/14/16 08:20:31  5-MIN KAQV 141420Z AUTO VRB06KT 10SM FEW017 28/24 A3007 230 79 1800 VRB/06 RMK AO2 T02780239
03949KAQV AQV20160714082512707/14/16 08:25:31  5-MIN KAQV 141425Z AUTO 23007KT 200V270 10SM FEW019 28/24 A3007 240 76 1900 230/07 200V270 RMK AO2 T02830239
03949KAQV AQV20160714083011107/14/16 08:30:31  5-MIN KAQV 141430Z AUTO VRB03KT 10SM FEW018 29/24 A3007 240 74 1900 VRB/03 RMK AO2 T02890239
03949KAQV AQV20160714083511107/14/16 08:35:31  5-MIN KAQV 141435Z AUTO VRB04KT 10SM SCT020 29/24 A3007 240 71 2000 VRB/04 RMK AO2 T02940239
03949KAQV AQV20160714084011107/14/16 08:40:31  5-MIN KAQV 141440Z AUTO VRB06KT 10SM SCT020 29/24 A3007 230 74 1900 VRB/06 RMK AO2 T02890239
03949KAQV AQV20160714084511107/14/16 08:45:31  5-MIN KAQV 141445Z AUTO VRB05KT 10SM BKN020 29/23 A3008 230 71 1900 VRB/05 RMK AO2 T02890233
03949KAQV AQV20160714085010107/14/16 08:50:31  5-MIN KAQV 141450Z AUTO VRB03KT 10SM BKN020 29/23 A3008 220 71 1900 VRB/03 RMK AO2
03949KAQV AQV20160714085513107/14/16 08:55:31  5-MIN KAQV 141455Z AUTO 21004KT 10SM SCT021 SCT027 29/23 A3009 220 71 1900 200/04 RMK AO2 SLP184 T02890233 51005
03949KAQV AQV20160714090011707/14/16 09:00:31  5-MIN KAQV 141500Z AUTO 21005KT 9SM SCT021 BKN029 29/23 A3009 220 71 1900 210/05 RMK AO2 T02890233
03949KAQV AQV20160714090511707/14/16 09:05:31  5-MIN KAQV 141505Z AUTO VRB05KT 9SM SCT023 BKN029 30/23 A3009 220 67 2000 VRB/05 RMK AO2 T03000233
03949KAQV AQV20160714091011807/14/16 09:10:31  5-MIN KAQV 141510Z AUTO VRB03KT 10SM BKN023 BKN032 30/23 A3009 220 65 2000 VRB/03 RMK AO2 T03000228
03949KAQV AQV20160714091511807/14/16 09:15:31  5-MIN KAQV 141515Z AUTO 20005KT 10SM BKN025 BKN032 31/23 A3008 230 65 2100 200/05 RMK AO2 T03060233
03949KAQV AQV20160714092011807/14/16 09:20:31  5-MIN KAQV 141520Z AUTO VRB06KT 10SM BKN025 BKN032 31/23 A3008 230 63 2200 VRB/06 RMK AO2 T03110233
03949KAQV AQV20160714092511807/14/16 09:25:31  5-MIN KAQV 141525Z AUTO VRB04KT 10SM SCT025 BKN032 31/23 A3008 230 63 2200 VRB/04 RMK AO2 T03110233
03949KAQV AQV20160714093011807/14/16 09:30:31  5-MIN KAQV 141530Z AUTO 27008KT 10SM BKN025 BKN032 32/23 A3009 220 61 2200 260/08 RMK AO2 T03170233
03949KAQV AQV20160714093512407/14/16 09:35:31  5-MIN KAQV 141535Z AUTO VRB06G15KT 10SM BKN025 BKN030 26/23 A3010 210 81 1600 VRB/06G15 RMK AO2 T02610228
03949KAQV AQV20160714094012407/14/16 09:40:31  5-MIN KAQV 141540Z AUTO VRB06G15KT 10SM SCT027 BKN033 30/23 A3009 220 65 2000 VRB/06G15 RMK AO2 T03000228
03949KAQV AQV20160714094511807/14/16 09:45:31  5-MIN KAQV 141545Z AUTO VRB05KT 10SM SCT027 BKN032 31/23 A3010 210 62 2100 VRB/05 RMK AO2 T03060228
03949KAQV AQV20160714095013207/14/16 09:50:31  5-MIN KAQV 141550Z AUTO 25006KT 10SM SCT026 SCT032 BKN040 31/23 A3009 220 62 2100 240/06 RMK AO2 SLP186 T03060228
03949KAQV AQV20160714095512507/14/16 09:55:31  5-MIN KAQV 141555Z AUTO 24006KT 10SM SCT026 SCT038 31/23 A3009 220 60 2100 230/06 RMK AO2 SLP185 T03110228
03949KAQV AQV20160714100011807/14/16 10:00:31  5-MIN KAQV 141600Z AUTO VRB06KT 10SM FEW028 SCT038 31/23 A3009 220 60 2200 VRB/06 RMK AO2 T03110228
03949KAQV AQV20160714100511107/14/16 10:05:31  5-MIN KAQV 141605Z AUTO 26007KT 10SM FEW028 31/23 A3008 230 60 2200 260/07 RMK AO2 T03110228
03949KAQV AQV20160714101011107/14/16 10:10:31  5-MIN KAQV 141610Z AUTO VRB06KT 10SM FEW028 31/23 A3009 220 62 2100 VRB/06 RMK AO2 T03060228
03949KAQV AQV20160714101510807/14/16 10:15:31  5-MIN KAQV 141615Z AUTO VRB05KT 10SM CLR 31/22 A3008 230 58 2200 VRB/05 RMK AO2 T03110222
03949KAQV AQV20160714102010807/14/16 10:20:31  5-MIN KAQV 141620Z AUTO VRB05KT 10SM CLR 31/22 A3008 230 58 2200 VRB/05 RMK AO2 T03110222
03949KAQV AQV20160714102510807/14/16 10:25:31  5-MIN KAQV 141625Z AUTO VRB06KT 10SM CLR 32/22 A3007 230 55 2300 VRB/06 RMK AO2 T03220222
03949KAQV AQV20160714103010107/14/16 10:30:31  5-MIN KAQV 141630Z AUTO 10SM FEW035 32/22 A3007 230 55 2300 M /M RMK AO2 T03220222
03949KAQV AQV20160714103511107/14/16 10:35:31  5-MIN KAQV 141635Z AUTO VRB05KT 10SM FEW035 32/22 A3008 230 53 2300 VRB/05 RMK AO2 T03220217
03949KAQV AQV20160714104011107/14/16 10:40:31  5-MIN KAQV 141640Z AUTO VRB06KT 10SM FEW033 32/22 A3008 230 55 2300 VRB/06 RMK AO2 T03220222
03949KAQV AQV20160714104511107/14/16 10:45:31  5-MIN KAQV 141645Z AUTO VRB05KT 10SM FEW035 33/22 A3008 230 53 2300 VRB/05 RMK AO2 T03280222
03949KAQV AQV20160714105013407/14/16 10:50:31  5-MIN KAQV 141650Z AUTO 25007KT 220V300 10SM SCT037 33/22 A3008 230 53 2300 250/07 220V300 RMK AO2 SLP181 T03280222
03949KAQV AQV20160714105511807/14/16 10:55:31  5-MIN KAQV 141655Z AUTO 27006KT 10SM FEW037 33/22 A3008 230 51 2300 270/06 RMK AO2 SLP181 T03280217
03949KAQV AQV20160714110011107/14/16 11:00:31  5-MIN KAQV 141700Z AUTO VRB04KT 10SM SCT037 32/22 A3008 230 53 2300 VRB/04 RMK AO2 T03220217
03949KAQV AQV20160714110510807/14/16 11:05:31  5-MIN KAQV 141705Z AUTO 10SM SCT037 SCT044 33/22 A3008 230 51 2400 M /M RMK AO2 T03330222
03949KAQV AQV20160714111011807/14/16 11:10:31  5-MIN KAQV 141710Z AUTO VRB05KT 10SM SCT037 SCT044 33/22 A3008 230 51 2300 VRB/05 RMK AO2 T03280217
03949KAQV AQV20160714111511107/14/16 11:15:31  5-MIN KAQV 141715Z AUTO VRB04KT 10SM SCT037 33/22 A3007 240 50 2400 VRB/04 RMK AO2 T03330217
03949KAQV AQV20160714112012707/14/16 11:20:31  5-MIN KAQV 141720Z AUTO 19008KT 160V230 10SM SCT039 33/22 A3007 240 50 2400 190/08 160V230 RMK AO2 T03330217
03949KAQV AQV20160714112512707/14/16 11:25:31  5-MIN KAQV 141725Z AUTO 20007KT 150V230 10SM SCT039 33/22 A3007 240 51 2400 200/07 150V230 RMK AO2 T03280217
03949KAQV AQV20160714113011107/14/16 11:30:31  5-MIN KAQV 141730Z AUTO VRB05KT 10SM FEW041 33/22 A3006 250 50 2400 VRB/05 RMK AO2 T03330217
03949KAQV AQV20160714113511107/14/16 11:35:31  5-MIN KAQV 141735Z AUTO 22006KT 10SM FEW041 33/21 A3006 250 49 2400 210/06 RMK AO2 T03280211
03949KAQV AQV20160714114011107/14/16 11:40:31  5-MIN KAQV 141740Z AUTO 20007KT 10SM FEW040 33/22 A3006 240 50 2400 190/07 RMK AO2 T03330217
03949KAQV AQV20160714114511107/14/16 11:45:31  5-MIN KAQV 141745Z AUTO VRB05KT 10SM FEW040 33/22 A3006 250 50 2400 VRB/05 RMK AO2 T03330217
03949KAQV AQV20160714115013607/14/16 11:50:31  5-MIN KAQV 141750Z AUTO 18007KT 10SM FEW042 34/21 A3006 250 46 2500 170/07 RMK AO2 SLP175 T03390211 10339 20256 53003
03949KAQV AQV20160714115514307/14/16 11:55:31  5-MIN KAQV 141755Z AUTO VRB06KT 10SM FEW042 SCT050 34/22 A3006 250 48 2500 VRB/06 RMK AO2 SLP175 T03390217 10339 20256 53003
03949KAQV AQV20160714120011107/14/16 12:00:31  5-MIN KAQV 141800Z AUTO 21007KT 10SM SCT045 33/21 A3006 250 49 2400 210/07 RMK AO2 T03280211
03949KAQV AQV20160714120511707/14/16 12:05:31  5-MIN KAQV 141805Z AUTO 19007G15KT 10SM FEW043 33/21 A3006 250 48 2400 190/07G15 RMK AO2 T03330211
03949KAQV AQV20160714121011707/14/16 12:10:31  5-MIN KAQV 141810Z AUTO VRB04G15KT 10SM FEW045 34/21 A3006 250 45 2500 VRB/04G15 RMK AO2 T03390206
03949KAQV AQV20160714121511107/14/16 12:15:31  5-MIN KAQV 141815Z AUTO 18007KT 10SM FEW043 34/21 A3005 250 46 2500 180/07 RMK AO2 T03390211
03949KAQV AQV20160714122012707/14/16 12:20:31  5-MIN KAQV 141820Z AUTO 22007KT 160V270 10SM FEW045 34/21 A3005 260 46 2500 220/07 160V270 RMK AO2 T03390211
03949KAQV AQV20160714122510807/14/16 12:25:31  5-MIN KAQV 141825Z AUTO VRB04KT 10SM CLR 34/21 A3004 260 43 2600 VRB/04 RMK AO2 T03440206
03949KAQV AQV20160714123012407/14/16 12:30:31  5-MIN KAQV 141830Z AUTO 26007KT 220V290 10SM CLR 34/21 A3004 260 45 2600 250/07 220V290 RMK AO2 T03440211
03949KAQV AQV20160714123510807/14/16 12:35:31  5-MIN KAQV 141835Z AUTO 19005KT 10SM CLR 34/21 A3004 270 43 2600 180/05 RMK AO2 T03440206
03949KAQV AQV20160714124010807/14/16 12:40:31  5-MIN KAQV 141840Z AUTO VRB06KT 10SM CLR 34/19 A3004 270 42 2500 VRB/06 RMK AO2 T03390194
03949KAQV AQV20160714124512407/14/16 12:45:31  5-MIN KAQV 141845Z AUTO 19007KT 160V220 10SM CLR 34/19 A3004 270 40 2600 180/07 160V220 RMK AO2 T03440194
03949KAQV AQV20160714125011807/14/16 12:50:31  5-MIN KAQV 141850Z AUTO VRB05KT 10SM FEW050 34/20 A3003 270 43 2500 VRB/05 RMK AO2 SLP164 T03390200
03949KAQV AQV20160714125510807/14/16 12:55:31  5-MIN KAQV 141855Z AUTO 10SM SCT055 33/20 A3003 280 45 2500 M /M RMK AO2 SLP163 T03330200
03949KAQV AQV20160714130011107/14/16 13:00:31  5-MIN KAQV 141900Z AUTO VRB04KT 10SM SCT050 34/21 A3002 280 45 2500 VRB/04 RMK AO2 T03390206
03949KAQV AQV20160714130512707/14/16 13:05:31  5-MIN KAQV 141905Z AUTO 23007KT 190V300 10SM SCT050 35/20 A3002 280 40 2700 220/07 190V300 RMK AO2 T03500200
03949KAQV AQV20160714131011107/14/16 13:10:31  5-MIN KAQV 141910Z AUTO 20007KT 10SM FEW050 34/19 A3002 290 39 2600 190/07 RMK AO2 T03440189
03949KAQV AQV20160714131512707/14/16 13:15:31  5-MIN KAQV 141915Z AUTO 21007KT 160V230 10SM FEW050 35/19 A3001 290 39 2700 200/07 160V230 RMK AO2 T03500194
03949KAQV AQV20160714132011107/14/16 13:20:31  5-MIN KAQV 141920Z AUTO 19007KT 10SM FEW050 35/19 A3001 290 39 2700 190/07 RMK AO2 T03500194
03949KAQV AQV20160714132511107/14/16 13:25:31  5-MIN KAQV 141925Z AUTO VRB04KT 10SM FEW050 35/20 A3000 300 40 2700 VRB/04 RMK AO2 T03500200
03949KAQV AQV20160714133010807/14/16 13:30:31  5-MIN KAQV 141930Z AUTO VRB06KT 10SM CLR 36/21 A3001 300 41 2700 VRB/06 RMK AO2 T03560206
03949KAQV AQV20160714133511107/14/16 13:35:31  5-MIN KAQV 141935Z AUTO VRB03KT 10SM FEW055 34/20 A3001 300 42 2600 VRB/03 RMK AO2 T03440200
03949KAQV AQV20160714134011107/14/16 13:40:31  5-MIN KAQV 141940Z AUTO VRB05KT 10SM FEW055 35/20 A3001 300 40 2700 VRB/05 RMK AO2 T03500200
03949KAQV AQV20160714134511107/14/16 13:45:31  5-MIN KAQV 141945Z AUTO 26008KT 10SM FEW055 36/21 A3001 300 41 2700 250/08 RMK AO2 T03560206
03949KAQV AQV20160714135011807/14/16 13:50:31  5-MIN KAQV 141950Z AUTO VRB03KT 10SM FEW055 34/19 A3000 300 40 2600 VRB/03 RMK AO2 SLP156 T03440194
03949KAQV AQV20160714135511807/14/16 13:55:31  5-MIN KAQV 141955Z AUTO VRB05KT 10SM FEW055 36/19 A3001 300 37 2800 VRB/05 RMK AO2 SLP156 T03610194
03949KAQV AQV20160714140011107/14/16 14:00:31  5-MIN KAQV 142000Z AUTO VRB05KT 10SM FEW055 35/19 A3000 300 39 2700 VRB/05 RMK AO2 T03500194
03949KAQV AQV20160714140511107/14/16 14:05:31  5-MIN KAQV 142005Z AUTO VRB06KT 10SM FEW055 36/19 A3000 300 38 2700 VRB/06 RMK AO2 T03560194
03949KAQV AQV20160714141012407/14/16 14:10:31  5-MIN KAQV 142010Z AUTO 21007KT 170V240 10SM CLR 36/19 A3000 300 37 2700 200/07 170V240 RMK AO2 T03560189
03949KAQV AQV20160714141510807/14/16 14:15:31  5-MIN KAQV 142015Z AUTO VRB06KT 10SM CLR 35/18 A3000 310 36 2700 VRB/06 RMK AO2 T03500183
03949KAQV AQV20160714142010807/14/16 14:20:31  5-MIN KAQV 142020Z AUTO VRB05KT 10SM CLR 36/19 A3000 300 38 2700 VRB/05 RMK AO2 T03560194
03949KAQV AQV20160714142510807/14/16 14:25:31  5-MIN KAQV 142025Z AUTO 19005KT 10SM CLR 35/20 A3000 300 40 2700 190/05 RMK AO2 T03500200
03949KAQV AQV20160714143011107/14/16 14:30:31  5-MIN KAQV 142030Z AUTO VRB04KT 10SM FEW060 34/20 A3000 300 42 2600 VRB/04 RMK AO2 T03440200
03949KAQV AQV20160714143511107/14/16 14:35:31  5-MIN KAQV 142035Z AUTO 18004KT 10SM FEW060 34/20 A3000 300 42 2600 170/04 RMK AO2 T03440200
03949KAQV AQV20160714144011107/14/16 14:40:31  5-MIN KAQV 142040Z AUTO VRB06KT 10SM SCT065 35/19 A3000 300 39 2700 VRB/06 RMK AO2 T03500194
03949KAQV AQV20160714144511107/14/16 14:45:31  5-MIN KAQV 142045Z AUTO VRB04KT 10SM SCT065 36/19 A3000 300 37 2800 VRB/04 RMK AO2 T03610194
03949KAQV AQV20160714145012407/14/16 14:50:31  5-MIN KAQV 142050Z AUTO 18006KT 10SM SCT060 35/19 A3000 310 39 2700 170/06 RMK AO2 SLP153 T03500194 58009
03949KAQV AQV20160714145512407/14/16 14:55:31  5-MIN KAQV 142055Z AUTO 22005KT 10SM SCT060 35/20 A3000 310 40 2700 220/05 RMK AO2 SLP153 T03500200 58009
03949KAQV AQV20160714150011107/14/16 15:00:31  5-MIN KAQV 142100Z AUTO VRB06KT 10SM FEW065 35/20 A3000 300 40 2700 VRB/06 RMK AO2 T03500200
03949KAQV AQV20160714150511107/14/16 15:05:31  5-MIN KAQV 142105Z AUTO 17006KT 10SM FEW065 36/19 A2999 310 37 2700 170/06 RMK AO2 T03560189
03949KAQV AQV20160714151011107/14/16 15:10:31  5-MIN KAQV 142110Z AUTO VRB04KT 10SM FEW060 36/18 A2999 310 35 2800 VRB/04 RMK AO2 T03560183
03949KAQV AQV20160714151510807/14/16 15:15:31  5-MIN KAQV 142115Z AUTO VRB04KT 10SM CLR 36/19 A2998 320 37 2800 VRB/04 RMK AO2 T03610194
03949KAQV AQV20160714152010807/14/16 15:20:31  5-MIN KAQV 142120Z AUTO 20005KT 10SM CLR 36/19 A2998 320 35 2800 200/05 RMK AO2 T03610189
03949KAQV AQV20160714152510807/14/16 15:25:31  5-MIN KAQV 142125Z AUTO 18005KT 10SM CLR 36/19 A2998 320 37 2800 180/05 RMK AO2 T03560189
03949KAQV AQV20160714153010807/14/16 15:30:31  5-MIN KAQV 142130Z AUTO VRB06KT 10SM CLR 36/19 A2997 330 35 2800 VRB/06 RMK AO2 T03610189
03949KAQV AQV20160714153510807/14/16 15:35:31  5-MIN KAQV 142135Z AUTO VRB04KT 10SM CLR 36/19 A2997 330 35 2800 VRB/04 RMK AO2 T03610189
03949KAQV AQV20160714154010807/14/16 15:40:31  5-MIN KAQV 142140Z AUTO VRB06KT 10SM CLR 36/19 A2997 330 37 2800 VRB/06 RMK AO2 T03610194
03949KAQV AQV20160714154510807/14/16 15:45:31  5-MIN KAQV 142145Z AUTO VRB06KT 10SM CLR 36/19 A2997 330 38 2800 VRB/06 RMK AO2 T03560194
03949KAQV AQV20160714155011507/14/16 15:50:31  5-MIN KAQV 142150Z AUTO VRB04KT 10SM CLR 36/19 A2997 330 37 2800 VRB/04 RMK AO2 SLP143 T03610194
03949KAQV AQV20160714155511507/14/16 15:55:31  5-MIN KAQV 142155Z AUTO VRB06KT 10SM CLR 36/19 A2997 330 38 2800 VRB/06 RMK AO2 SLP143 T03560194
03949KAQV AQV20160714160010807/14/16 16:00:31  5-MIN KAQV 142200Z AUTO 26004KT 10SM CLR 36/19 A2997 330 37 2800 260/04 RMK AO2 T03610194
03949KAQV AQV20160714160511107/14/16 16:05:31  5-MIN KAQV 142205Z AUTO VRB04KT 10SM FEW060 36/20 A2997 330 38 2800 VRB/04 RMK AO2 T03610200
03949KAQV AQV20160714161011107/14/16 16:10:31  5-MIN KAQV 142210Z AUTO VRB06KT 10SM FEW060 36/19 A2997 330 37 2800 VRB/06 RMK AO2 T03610194
03949KAQV AQV20160714161511107/14/16 16:15:31  5-MIN KAQV 142215Z AUTO 19007KT 10SM FEW060 36/19 A2997 330 38 2800 190/07 RMK AO2 T03560194
03949KAQV AQV20160714162011107/14/16 16:20:31  5-MIN KAQV 142220Z AUTO VRB05KT 10SM FEW060 36/19 A2997 330 38 2800 VRB/05 RMK AO2 T03560194
03949KAQV AQV20160714162511107/14/16 16:25:31  5-MIN KAQV 142225Z AUTO 19007KT 10SM FEW060 36/20 A2997 330 39 2800 190/07 RMK AO2 T03560200
03949KAQV AQV20160714163011107/14/16 16:30:31  5-MIN KAQV 142230Z AUTO VRB05KT 10SM FEW060 36/19 A2997 330 38 2800 VRB/05 RMK AO2 T03560194
03949KAQV AQV20160714163511107/14/16 16:35:31  5-MIN KAQV 142235Z AUTO VRB03KT 10SM FEW060 36/19 A2997 330 37 2800 VRB/03 RMK AO2 T03560189
03949KAQV AQV20160714164010807/14/16 16:40:31  5-MIN KAQV 142240Z AUTO VRB04KT 10SM CLR 36/19 A2997 330 37 2800 VRB/04 RMK AO2 T03610194
03949KAQV AQV20160714164510807/14/16 16:45:31  5-MIN KAQV 142245Z AUTO 21006KT 10SM CLR 36/19 A2997 330 38 2800 200/06 RMK AO2 T03560194
03949KAQV AQV20160714165011507/14/16 16:50:31  5-MIN KAQV 142250Z AUTO VRB03KT 10SM CLR 36/19 A2998 330 38 2800 VRB/03 RMK AO2 SLP146 T03560194
03949KAQV AQV20160714165511507/14/16 16:55:31  5-MIN KAQV 142255Z AUTO VRB05KT 10SM CLR 36/20 A2997 330 39 2800 VRB/05 RMK AO2 SLP145 T03560200
03949KAQV AQV20160714170011107/14/16 17:00:31  5-MIN KAQV 142300Z AUTO VRB06KT 10SM FEW060 35/21 A2997 330 42 2700 VRB/06 RMK AO2 T03500206
03949KAQV AQV20160714170512707/14/16 17:05:31  5-MIN KAQV 142305Z AUTO 15008KT 120V190 10SM SCT060 34/22 A2998 330 46 2600 150/08 120V190 RMK AO2 T03440217
03949KAQV AQV20160714171011807/14/16 17:10:31  5-MIN KAQV 142310Z AUTO VRB06KT 10SM SCT060 SCT070 33/23 A2997 330 55 2500 VRB/06 RMK AO2 T03280228
03949KAQV AQV20160714171512407/14/16 17:15:31  5-MIN KAQV 142315Z AUTO VRB06G16KT 10SM BKN060 BKN070 32/23 A2998 320 58 2300 VRB/06G16 RMK AO2 T03170228
03949KAQV AQV20160714172011707/14/16 17:20:31  5-MIN KAQV 142320Z AUTO 16005G16KT 10SM BKN055 31/23 A2998 320 60 2300 160/05G16 RMK AO2 T03110228
03949KAQV AQV20160714172511107/14/16 17:25:31  5-MIN KAQV 142325Z AUTO VRB05KT 10SM SCT060 32/23 A2998 320 58 2300 VRB/05 RMK AO2 T03170228
03949KAQV AQV20160714173011807/14/16 17:30:31  5-MIN KAQV 142330Z AUTO VRB04KT 10SM SCT060 SCT085 32/23 A2998 320 58 2300 VRB/04 RMK AO2 T03170228
03949KAQV AQV20160714173511107/14/16 17:35:31  5-MIN KAQV 142335Z AUTO 17006KT 10SM SCT055 32/23 A2998 320 58 2300 170/06 RMK AO2 T03170228
03949KAQV AQV20160714174011107/14/16 17:40:31  5-MIN KAQV 142340Z AUTO 16005KT 10SM FEW055 32/23 A2998 320 61 2300 160/05 RMK AO2 T03170233
03949KAQV AQV20160714174511107/14/16 17:45:31  5-MIN KAQV 142345Z AUTO 00000KT 10SM FEW060 31/23 A2998 320 60 2300 000/00 RMK AO2 T03110228
03949KAQV AQV20160714175013307/14/16 17:50:31  5-MIN KAQV 142350Z AUTO VRB04KT 10SM CLR 30/23 A2999 320 67 2100 VRB/04 RMK AO2 SLP150 T03000233 10361 20300 56021
03949KAQV AQV20160714175513307/14/16 17:55:31  5-MIN KAQV 142355Z AUTO VRB04KT 10SM CLR 31/23 A2998 320 65 2200 VRB/04 RMK AO2 SLP150 T03060233 10361 20300 56021
03949KAQV AQV20160714180010807/14/16 18:00:31  5-MIN KAQV 150000Z AUTO 17004KT 10SM CLR 31/23 A2999 310 65 2200 170/04 RMK AO2 T03060233
03949KAQV AQV20160714180511107/14/16 18:05:31  5-MIN KAQV 150005Z AUTO VRB04KT 10SM TS CLR 31/23 A2999 310 65 2200 VRB/04 RMK AO2 T03060233
03949KAQV AQV20160714181011107/14/16 18:10:31  5-MIN KAQV 150010Z AUTO 16004KT 10SM TS CLR 31/23 A2999 310 65 2200 160/04 RMK AO2 T03060233
03949KAQV AQV20160714181511107/14/16 18:15:31  5-MIN KAQV 150015Z AUTO 15003KT 10SM TS CLR 31/23 A2999 310 65 2200 150/03 RMK AO2 T03060233
03949KAQV AQV20160714182012207/14/16 18:20:31  5-MIN KAQV 150020Z AUTO VRB03KT 10SM VCTS FEW110 31/23 A3000 310 65 2200 VRB/03 RMK AO2 TSE19 T03060233
03949KAQV AQV20160714182511707/14/16 18:25:31  5-MIN KAQV 150025Z AUTO 00000KT 10SM FEW110 31/23 A3000 300 65 2200 000/00 RMK AO2 TSE19 T03060233
03949KAQV AQV20160714183011407/14/16 18:30:31  5-MIN KAQV 150030Z AUTO 17003KT 10SM CLR 30/23 A3000 300 67 2100 170/03 RMK AO2 TSE19 T03000233
03949KAQV AQV20160714183511407/14/16 18:35:31  5-MIN KAQV 150035Z AUTO VRB03KT 10SM CLR 31/23 A3000 300 65 2200 VRB/03 RMK AO2 TSE19 T03060233
03949KAQV AQV20160714184011407/14/16 18:40:31  5-MIN KAQV 150040Z AUTO VRB03KT 10SM CLR 31/23 A3000 300 65 2200 VRB/03 RMK AO2 TSE19 T03060233
03949KAQV AQV20160714184511707/14/16 18:45:31  5-MIN KAQV 150045Z AUTO 18003KT 10SM FEW070 31/23 A3000 300 65 2200 170/03 RMK AO2 TSE19 T03060233
03949KAQV AQV20160714185014707/14/16 18:50:31  5-MIN KAQV 150050Z AUTO 16003KT 10SM -RA FEW047 SCT070 31/24 A3000 300 67 2200 160/03 RMK AO2 RAB49 TSE19 SLP155 P0000 T03060239
03949KAQV AQV20160714185514707/14/16 18:55:31  5-MIN KAQV 150055Z AUTO 00000KT 10SM -RA FEW044 SCT070 29/24 A3000 300 74 2100 000/00 RMK AO2 RAB49 TSE19 SLP156 P0000 T02940244
03949KAQV AQV20160714190012807/14/16 19:00:31  5-MIN KAQV 150100Z AUTO 17004KT 10SM -RA FEW041 FEW070 29/25 A3000 300 79 2000 160/04 RMK AO2 P0000 T02890250
03949KAQV AQV20160714190513007/14/16 19:05:31  5-MIN KAQV 150105Z AUTO 00000KT 10SM FEW044 FEW070 29/25 A3000 300 79 2000 000/00 RMK AO2 RAE02 P0000 T02890250
03949KAQV AQV20160714191013907/14/16 19:10:31  5-MIN KAQV 150110Z AUTO 00000KT 10SM TS FEW044 FEW070 28/25 A3001 300 82 1900 000/00 RMK AO2 RAE02 TSB09 P0000 T02830250
03949KAQV AQV20160714191513907/14/16 19:15:31  5-MIN KAQV 150115Z AUTO 00000KT 10SM TS FEW044 SCT065 28/25 A3001 290 82 1900 000/00 RMK AO2 RAE02 TSB09 P0000 T02830250
03949KAQV AQV20160714192013907/14/16 19:20:31  5-MIN KAQV 150120Z AUTO 17003KT 10SM TS FEW065 FEW085 28/25 A3001 290 82 1900 170/03 RMK AO2 RAE02 TSB09 P0000 T02830250
03949KAQV AQV20160714192513907/14/16 19:25:31  5-MIN KAQV 150125Z AUTO 15003KT 10SM TS FEW065 FEW085 28/24 A3001 290 79 1900 150/03 RMK AO2 RAE02 TSB09 P0000 T02830244
03949KAQV AQV20160714193013207/14/16 19:30:31  5-MIN KAQV 150130Z AUTO 00000KT 10SM TS FEW065 28/24 A3001 290 79 1900 000/00 RMK AO2 RAE02 TSB09 P0000 T02830244
03949KAQV AQV20160714193513207/14/16 19:35:31  5-MIN KAQV 150135Z AUTO VRB03KT 10SM TS FEW065 28/24 A3002 290 76 1900 VRB/03 RMK AO2 RAE02 TSB09 P0000 T02830239
03949KAQV AQV20160714194012907/14/16 19:40:31  5-MIN KAQV 150140Z AUTO VRB03KT 10SM TS CLR 28/24 A3002 290 76 1900 VRB/03 RMK AO2 RAE02 TSB09 P0000 T02830239
03949KAQV AQV20160714194513207/14/16 19:45:31  5-MIN KAQV 150145Z AUTO 17004KT 10SM TS CLR 28/24 A3002 290 82 1900 170/04 RMK AO2 RAE02 TSB09B42 P0000 T02780244
03949KAQV AQV20160714195014207/14/16 19:50:31  5-MIN KAQV 150150Z AUTO 17004KT 10SM TS CLR 28/24 A3001 290 79 1900 170/04 RMK AO2 RAE02 TSB09B42B46 SLP159 P0000 T02780239
03949KAQV AQV20160714195514207/14/16 19:55:31  5-MIN KAQV 150155Z AUTO 15004KT 10SM TS CLR 28/24 A3002 290 79 1900 150/04 RMK AO2 RAE02 TSB09B42B46 SLP161 P0000 T02780239
03949KAQV AQV20160714200011407/14/16 20:00:31  5-MIN KAQV 150200Z AUTO VRB03KT 10SM TS FEW060 28/24 A3003 270 79 1800 VRB/03 RMK AO2 T02780239
03949KAQV AQV20160714200512107/14/16 20:05:31  5-MIN KAQV 150205Z AUTO 16004KT 10SM TS FEW060 SCT085 28/24 A3003 270 79 1800 160/04 RMK AO2 T02780239
03949KAQV AQV20160714201012107/14/16 20:10:31  5-MIN KAQV 150210Z AUTO 17003KT 10SM TS FEW060 SCT085 27/24 A3003 280 82 1800 170/03 RMK AO2 T02720239
03949KAQV AQV20160714201511407/14/16 20:15:31  5-MIN KAQV 150215Z AUTO 00000KT 10SM TS FEW060 28/24 A3003 270 79 1800 000/00 RMK AO2 T02780239
03949KAQV AQV20160714202011407/14/16 20:20:31  5-MIN KAQV 150220Z AUTO 01007KT 10SM TS SCT060 28/24 A3004 260 79 1800 010/07 RMK AO2 T02780239
03949KAQV AQV20160714202514907/14/16 20:25:31  5-MIN KAQV 150225Z AUTO 03004KT 10SM -TSRA SCT060 SCT085 BKN110 28/24 A3005 260 79 1800 020/04 RMK AO2 RAB23 TSB25 P0000 T02780239
03949KAQV AQV20160714203014907/14/16 20:30:31  5-MIN KAQV 150230Z AUTO VRB03KT 10SM -TSRA BKN060 BKN085 BKN110 28/24 A3005 250 79 1800 VRB/03 RMK AO2 RAB23 TSB25 P0001 T02780239
03949KAQV AQV20160714203514707/14/16 20:35:31  5-MIN KAQV 150235Z AUTO 02003KT 8SM TSRA FEW033 FEW048 BKN055 27/24 A3005 260 84 1800 020/03 RMK AO2 RAB23 TSB25 P0002 T02720244
03949KAQV AQV20160714204015007/14/16 20:40:31  5-MIN KAQV 150240Z AUTO 00000KT 5SM TSRA BR FEW033 SCT045 BKN055 27/25 A3004 260 90 1700 000/00 RMK AO2 RAB23 TSB25 P0003 T02670250
03949KAQV AQV20160714204515007/14/16 20:45:31  5-MIN KAQV 150245Z AUTO 19003KT 4SM TSRA BR FEW033 BKN055 OVC110 26/25 A3004 270 93 1700 180/03 RMK AO2 RAB23 TSB25 P0004 T02610250
03949KAQV AQV20160714205017007/14/16 20:50:31  5-MIN KAQV 150250Z AUTO 00000KT 5SM -TSRA BR FEW033 BKN055 OVC110 26/25 A3004 260 93 1600 000/00 RMK AO2 RAB23 TSB25 SLP170 P0005 60005 T02610250 55004
03949KAQV AQV20160714205517007/14/16 20:55:31  5-MIN KAQV 150255Z AUTO 00000KT 6SM -TSRA BR FEW033 BKN055 OVC090 26/25 A3005 260 93 1600 000/00 RMK AO2 RAB23 TSB25 SLP171 P0005 60005 T02610250 55004
03949KAQV AQV20160714210013607/14/16 21:00:31  5-MIN KAQV 150300Z AUTO 00000KT 7SM -TSRA FEW035 BKN055 OVC090 26/25 A3005 260 93 1600 000/00 RMK AO2 P0000 T02610250
03949KAQV AQV20160714210513607/14/16 21:05:31  5-MIN KAQV 150305Z AUTO 00000KT 8SM -TSRA SCT055 BKN070 OVC085 26/25 A3005 260 93 1600 000/00 RMK AO2 P0000 T02610250
03949KAQV AQV20160714211013807/14/16 21:10:31  5-MIN KAQV 150310Z AUTO 00000KT 6SM TSRA BR FEW042 BKN070 OVC085 26/25 A3005 260 93 1600 000/00 RMK AO2 P0002 T02610250
03949KAQV AQV20160714211513907/14/16 21:15:31  5-MIN KAQV 150315Z AUTO 16003KT 5SM -TSRA BR SCT040 BKN055 OVC090 26/25 A3004 270 93 1700 150/03 RMK AO2 P0003 T02610250
03949KAQV AQV20160714212013907/14/16 21:20:31  5-MIN KAQV 150320Z AUTO 00000KT 5SM -TSRA BR SCT037 BKN055 OVC070 26/25 A3003 270 93 1700 000/00 RMK AO2 P0003 T02610250
03949KAQV AQV20160714212513907/14/16 21:25:31  5-MIN KAQV 150325Z AUTO 16003KT 6SM -TSRA BR SCT037 BKN060 OVC075 26/25 A3004 270 97 1600 160/03 RMK AO2 P0004 T02560250
03949KAQV AQV20160714213014607/14/16 21:30:31  5-MIN KAQV 150330Z AUTO 18005KT 10SM -TSRA SCT037 BKN055 BKN070 26/25 A3004 270 97 1600 170/05 RMK AO2 TSB26B29 P0004 T02560250
03949KAQV AQV20160714213514207/14/16 21:35:31  5-MIN KAQV 150335Z AUTO 18004KT 10SM TS SCT037 SCT050 26/24 A3004 270 93 1600 180/04 RMK AO2 RAE33 TSB26B29 P0004 T02560244
03949KAQV AQV20160714214014207/14/16 21:40:31  5-MIN KAQV 150340Z AUTO VRB04KT 10SM TS FEW037 SCT055 26/24 A3004 270 93 1600 VRB/04 RMK AO2 RAE33 TSB26B29 P0004 T02560244
03949KAQV AQV20160714214514207/14/16 21:45:31  5-MIN KAQV 150345Z AUTO VRB04KT 10SM TS FEW035 SCT055 26/24 A3004 270 93 1600 VRB/04 RMK AO2 RAE33 TSB26B29 P0004 T02560244
03949KAQV AQV20160714215012507/14/16 21:50:31  5-MIN KAQV 150350Z AUTO VRB04KT 10SM FEW055 26/24 A3004 270 93 1600 VRB/04 RMK AO2 RAE33 TSB26B29E46 P0004
03949KAQV AQV20160714215513907/14/16 21:55:31  5-MIN KAQV 150355Z AUTO VRB03KT 10SM CLR 26/24 A3004 270 93 1600 VRB/03 RMK AO2 RAE33 TSB26B29E46 SLP169 P0004 T02560244
03949KAQV AQV20160714220011107/14/16 22:00:31  5-MIN KAQV 150400Z AUTO 03009KT 10SM FEW007 26/24 A3005 250 93 1600 030/09 RMK AO2 T02560244
03949KAQV AQV20160714220511707/14/16 22:05:31  5-MIN KAQV 150405Z AUTO 04008G15KT 10SM SCT007 26/24 A3005 260 93 1600 040/08G15 RMK AO2 T02560244
03949KAQV AQV20160714221012907/14/16 22:10:31  5-MIN KAQV 150410Z AUTO VRB03G15KT 10SM BKN009 26/24 A3005 250 93 1600 VRB/03G15 RMK AO2 CIG 007V011 T02560244
03949KAQV AQV20160714221512307/14/16 22:15:31  5-MIN KAQV 150415Z AUTO VRB04KT 10SM BKN009 26/24 A3005 260 93 1600 VRB/04 RMK AO2 CIG 007V013 T02560244
03949KAQV AQV20160714222012307/14/16 22:20:31  5-MIN KAQV 150420Z AUTO 05004KT 10SM BKN009 26/24 A3005 250 93 1600 050/04 RMK AO2 CIG 007V013 T02560244
03949KAQV AQV20160714222511807/14/16 22:25:31  5-MIN KAQV 150425Z AUTO 06005KT 10SM BKN010 BKN014 26/24 A3005 260 93 1600 060/05 RMK AO2 T02560244
03949KAQV AQV20160714223011807/14/16 22:30:31  5-MIN KAQV 150430Z AUTO 05005KT 10SM BKN010 OVC016 26/24 A3005 260 93 1600 050/05 RMK AO2 T02560244
03949KAQV AQV20160714223511807/14/16 22:35:31  5-MIN KAQV 150435Z AUTO 06006KT 10SM BKN014 OVC019 26/24 A3005 260 93 1600 060/06 RMK AO2 T02560244
03949KAQV AQV20160714224011807/14/16 22:40:31  5-MIN KAQV 150440Z AUTO 08005KT 10SM BKN014 OVC019 26/24 A3005 260 90 1600 080/05 RMK AO2 T02560239
03949KAQV AQV20160714224511807/14/16 22:45:31  5-MIN KAQV 150445Z AUTO 06004KT 10SM BKN017 OVC024 25/24 A3005 260 93 1500 060/04 RMK AO2 T02500239
03949KAQV AQV20160714225010107/14/16 22:50:31  5-MIN KAQV 150450Z AUTO VRB06KT 10SM OVC017 25/24 A3005 260 93 1500 VRB/06 RMK AO2
03949KAQV AQV20160714225513207/14/16 22:55:31  5-MIN KAQV 150455Z AUTO VRB05KT 10SM BKN018 BKN024 OVC042 25/24 A3004 260 93 1500 VRB/05 RMK AO2 SLP169 T02500239
03949KAQV AQV20160714230012507/14/16 23:00:31  5-MIN KAQV 150500Z AUTO VRB03KT 10SM BKN018 BKN024 BKN042 24/23 A3004 260 93 1500 VRB/03 RMK AO2 T02440233
03949KAQV AQV20160714230512507/14/16 23:05:31  5-MIN KAQV 150505Z AUTO VRB03KT 10SM SCT018 BKN023 BKN037 24/23 A3004 270 93 1500 VRB/03 RMK AO2 T02440233
03949KAQV AQV20160714231011807/14/16 23:10:31  5-MIN KAQV 150510Z AUTO 00000KT 10SM BKN021 BKN040 24/23 A3003 270 93 1500 000/00 RMK AO2 T02440233
03949KAQV AQV20160714231511807/14/16 23:15:31  5-MIN KAQV 150515Z AUTO 00000KT 10SM SCT021 BKN040 24/23 A3003 270 93 1500 000/00 RMK AO2 T02440233
03949KAQV AQV20160714232011807/14/16 23:20:31  5-MIN KAQV 150520Z AUTO VRB03KT 10SM FEW022 SCT040 24/23 A3003 270 93 1400 VRB/03 RMK AO2 T02390228
03949KAQV AQV20160714232511107/14/16 23:25:31  5-MIN KAQV 150525Z AUTO 00000KT 10SM FEW022 24/23 A3004 270 93 1400 000/00 RMK AO2 T02390228
03949KAQV AQV20160714233011107/14/16 23:30:31  5-MIN KAQV 150530Z AUTO 00000KT 10SM FEW022 24/23 A3003 270 93 1400 000/00 RMK AO2 T02390228
03949KAQV AQV20160714233511107/14/16 23:35:31  5-MIN KAQV 150535Z AUTO 00000KT 10SM FEW022 24/23 A3003 270 93 1400 000/00 RMK AO2 T02390228
03949KAQV AQV20160714234010807/14/16 23:40:31  5-MIN KAQV 150540Z AUTO 00000KT 10SM CLR 24/23 A3003 280 93 1400 000/00 RMK AO2 T02390228
03949KAQV AQV20160714234510807/14/16 23:45:31  5-MIN KAQV 150545Z AUTO 00000KT 10SM CLR 24/23 A3003 280 93 1400 000/00 RMK AO2 T02390228
03949KAQV AQV20160714235015207/14/16 23:50:31  5-MIN KAQV 150550Z AUTO 00000KT 10SM FEW020 24/23 A3003 270 93 1400 000/00 RMK AO2 SLP165 60010 T02390228 10289 20239 403610239 53021
03949KAQV AQV20160714235515207/14/16 23:55:31  5-MIN KAQV 150555Z AUTO 00000KT 10SM FEW018 24/23 A3003 280 93 1400 000/00 RMK AO2 SLP163 60010 T02390228 10289 20239 403610239 53021
03949KAQV AQV20160715000011107/15/16 00:00:31  5-MIN KAQV 150600Z AUTO 00000KT 10SM SCT018 24/23 A3002 280 93 1400 000/00 RMK AO2 T02390228
03949KAQV AQV20160715000511107/15/16 00:05:31  5-MIN KAQV 150605Z AUTO 00000KT 10SM FEW018 24/23 A3002 280 93 1400 000/00 RMK AO2 T02390228
03949KAQV AQV20160715001011107/15/16 00:10:31  5-MIN KAQV 150610Z AUTO 00000KT 10SM FEW018 24/23 A3002 290 93 1400 000/00 RMK AO2 T02390228
03949KAQV AQV20160715001511107/15/16 00:15:31  5-MIN KAQV 150615Z AUTO 00000KT 10SM FEW018 24/23 A3002 280 93 1400 000/00 RMK AO2 T02390228
03949KAQV AQV20160715002011107/15/16 00:20:31  5-MIN KAQV 150620Z AUTO 00000KT 10SM FEW018 24/23 A3002 280 93 1400 000/00 RMK AO2 T02390228
03949KAQV AQV20160715002510707/15/16 00:25:31  5-MIN KAQV 150625Z AUTO 00000KT 9SM CLR 24/23 A3002 280 93 1400 000/00 RMK AO2 T02390228
03949KAQV AQV20160715003010707/15/16 00:30:31  5-MIN KAQV 150630Z AUTO 00000KT 9SM CLR 24/23 A3003 280 93 1400 000/00 RMK AO2 T02390228
03949KAQV AQV20160715003511107/15/16 00:35:31  5-MIN KAQV 150635Z AUTO 07003KT 10SM FEW019 24/23 A3003 280 93 1400 070/03 RMK AO2 T02390228
03949KAQV AQV20160715004011107/15/16 00:40:31  5-MIN KAQV 150640Z AUTO 07003KT 10SM SCT019 23/23 A3003 280 97 1300 070/03 RMK AO2 T02330228
03949KAQV AQV20160715004511107/15/16 00:45:31  5-MIN KAQV 150645Z AUTO 00000KT 10SM BKN017 24/23 A3003 280 93 1400 000/00 RMK AO2 T02390228
03949KAQV AQV20160715005011807/15/16 00:50:31  5-MIN KAQV 150650Z AUTO VRB03KT 10SM BKN017 24/23 A3003 280 93 1400 VRB/03 RMK AO2 SLP163 T02390228
03949KAQV AQV20160715005511807/15/16 00:55:31  5-MIN KAQV 150655Z AUTO 00000KT 10SM BKN017 24/22 A3003 280 90 1400 000/00 RMK AO2 SLP164 T02390222
03949KAQV AQV20160715010011107/15/16 01:00:31  5-MIN KAQV 150700Z AUTO 08003KT 10SM OVC017 24/22 A3003 280 90 1400 080/03 RMK AO2 T02390222
03949KAQV AQV20160715010511107/15/16 01:05:31  5-MIN KAQV 150705Z AUTO 00000KT 10SM OVC017 24/22 A3003 280 90 1400 000/00 RMK AO2 T02390222
03949KAQV AQV20160715011011107/15/16 01:10:31  5-MIN KAQV 150710Z AUTO 00000KT 10SM OVC017 23/22 A3003 280 93 1300 000/00 RMK AO2 T02330222
03949KAQV AQV20160715011511107/15/16 01:15:31  5-MIN KAQV 150715Z AUTO 00000KT 10SM OVC017 23/22 A3003 280 93 1400 000/00 RMK AO2 T02330222
03949KAQV AQV20160715012011107/15/16 01:20:31  5-MIN KAQV 150720Z AUTO 00000KT 10SM BKN017 23/22 A3003 280 93 1400 000/00 RMK AO2 T02330222
03949KAQV AQV20160715012511107/15/16 01:25:31  5-MIN KAQV 150725Z AUTO 00000KT 10SM SCT016 23/22 A3002 280 93 1400 000/00 RMK AO2 T02330222
03949KAQV AQV20160715013011107/15/16 01:30:31  5-MIN KAQV 150730Z AUTO 00000KT 10SM SCT016 23/22 A3002 280 93 1400 000/00 RMK AO2 T02330222
03949KAQV AQV20160715013511107/15/16 01:35:31  5-MIN KAQV 150735Z AUTO 20003KT 10SM FEW016 23/22 A3002 280 93 1400 190/03 RMK AO2 T02330222
03949KAQV AQV20160715014011107/15/16 01:40:31  5-MIN KAQV 150740Z AUTO 00000KT 10SM FEW016 23/22 A3002 290 93 1400 000/00 RMK AO2 T02330222
03949KAQV AQV20160715014510807/15/16 01:45:31  5-MIN KAQV 150745Z AUTO 00000KT 10SM CLR 23/22 A3001 290 93 1400 000/00 RMK AO2 T02330222
03949KAQV AQV20160715015011507/15/16 01:50:31  5-MIN KAQV 150750Z AUTO 00000KT 10SM CLR 23/22 A3001 290 93 1400 000/00 RMK AO2 SLP159 T02330222
03949KAQV AQV20160715015511507/15/16 01:55:31  5-MIN KAQV 150755Z AUTO 18003KT 10SM CLR 23/22 A3001 290 93 1400 180/03 RMK AO2 SLP158 T02330222
03949KAQV AQV20160715020010807/15/16 02:00:31  5-MIN KAQV 150800Z AUTO 20003KT 10SM CLR 23/22 A3001 290 93 1400 200/03 RMK AO2 T02330222
03949KAQV AQV20160715020510807/15/16 02:05:31  5-MIN KAQV 150805Z AUTO 00000KT 10SM CLR 23/22 A3001 290 93 1400 000/00 RMK AO2 T02330222
03949KAQV AQV20160715021010807/15/16 02:10:31  5-MIN KAQV 150810Z AUTO 00000KT 10SM CLR 23/22 A3001 290 93 1400 000/00 RMK AO2 T02330222
03949KAQV AQV20160716212010807/16/16 21:20:31  5-MIN KAQV 170320Z AUTO 00000KT 10SM CLR 23/22 A3005 260 93 1300 000/00 RMK AO2 T02330222
03949KAQV AQV20160716212510807/16/16 21:25:31  5-MIN KAQV 170325Z AUTO 00000KT 10SM CLR 23/22 A3005 260 93 1300 000/00 RMK AO2 T02330222
03949KAQV AQV20160716213010807/16/16 21:30:31  5-MIN KAQV 170330Z AUTO 00000KT 10SM CLR 23/22 A3005 260 93 1300 000/00 RMK AO2 T02330222
03949KAQV AQV20160716213510807/16/16 21:35:31  5-MIN KAQV 170335Z AUTO 00000KT 10SM CLR 23/22 A3005 260 93 1300 000/00 RMK AO2 T02330222
03949KAQV AQV20160716214010807/16/16 21:40:31  5-MIN KAQV 170340Z AUTO 00000KT 10SM CLR 23/22 A3005 250 97 1300 000/00 RMK AO2 T02280222
03949KAQV AQV20160716214510807/16/16 21:45:31  5-MIN KAQV 170345Z AUTO 00000KT 10SM CLR 23/22 A3005 250 97 1300 000/00 RMK AO2 T02280222
03949KAQV AQV20160716215011507/16/16 21:50:31  5-MIN KAQV 170350Z AUTO 00000KT 10SM CLR 23/22 A3006 250 97 1300 000/00 RMK AO2 SLP174 T02280222
03949KAQV AQV20160716215511507/16/16 21:55:31  5-MIN KAQV 170355Z AUTO 00000KT 10SM CLR 23/23 A3006 250 97 1300 000/00 RMK AO2 SLP175 T02330228
03949KAQV AQV20160716220010807/16/16 22:00:31  5-MIN KAQV 170400Z AUTO 00000KT 10SM CLR 23/22 A3006 250 93 1300 000/00 RMK AO2 T02330222
03949KAQV AQV20160716220510807/16/16 22:05:31  5-MIN KAQV 170405Z AUTO 00000KT 10SM CLR 23/22 A3006 250 93 1300 000/00 RMK AO2 T02330222
03949KAQV AQV20160716221010807/16/16 22:10:31  5-MIN KAQV 170410Z AUTO 00000KT 10SM CLR 23/22 A3006 250 97 1300 000/00 RMK AO2 T02280222
03949KAQV AQV20160716221510807/16/16 22:15:31  5-MIN KAQV 170415Z AUTO 00000KT 10SM CLR 23/22 A3006 250 97 1300 000/00 RMK AO2 T02280222
03949KAQV AQV20160716222010807/16/16 22:20:31  5-MIN KAQV 170420Z AUTO 00000KT 10SM CLR 23/22 A3006 250 97 1300 000/00 RMK AO2 T02280222
03949KAQV AQV20160716222510807/16/16 22:25:31  5-MIN KAQV 170425Z AUTO 00000KT 10SM CLR 23/22 A3006 250 97 1200 000/00 RMK AO2 T02280222
03949KAQV AQV20160716223010807/16/16 22:30:31  5-MIN KAQV 170430Z AUTO 00000KT 10SM CLR 23/22 A3006 250 97 1300 000/00 RMK AO2 T02280222
03949KAQV AQV20160716223510807/16/16 22:35:31  5-MIN KAQV 170435Z AUTO 00000KT 10SM CLR 23/22 A3006 250 97 1200 000/00 RMK AO2 T02280222
03949KAQV AQV20160716224010807/16/16 22:40:31  5-MIN KAQV 170440Z AUTO 00000KT 10SM CLR 23/22 A3006 250 97 1200 000/00 RMK AO2 T02280222
03949KAQV AQV20160716224510807/16/16 22:45:31  5-MIN KAQV 170445Z AUTO 00000KT 10SM CLR 23/22 A3006 250 97 1200 000/00 RMK AO2 T02280222
03949KAQV AQV20160716225011507/16/16 22:50:31  5-MIN KAQV 170450Z AUTO 18003KT 10SM CLR 23/22 A3006 250 97 1300 170/03 RMK AO2 SLP175 T02280222
03949KAQV AQV20160716225511507/16/16 22:55:31  5-MIN KAQV 170455Z AUTO 00000KT 10SM CLR 23/22 A3006 250 97 1300 000/00 RMK AO2 SLP174 T02280222
03949KAQV AQV20160716230010807/16/16 23:00:31  5-MIN KAQV 170500Z AUTO 00000KT 10SM CLR 23/22 A3006 250 97 1300 000/00 RMK AO2 T02280222
03949KAQV AQV20160716230510807/16/16 23:05:31  5-MIN KAQV 170505Z AUTO 00000KT 10SM CLR 23/22 A3006 250 97 1300 000/00 RMK AO2 T02280222
03949KAQV AQV20160716231010807/16/16 23:10:31  5-MIN KAQV 170510Z AUTO 00000KT 10SM CLR 23/22 A3006 250 97 1300 000/00 RMK AO2 T02280222
03949KAQV AQV20160716231510807/16/16 23:15:31  5-MIN KAQV 170515Z AUTO 00000KT 10SM CLR 23/22 A3005 250 97 1300 000/00 RMK AO2 T02280222
03949KAQV AQV20160716232010807/16/16 23:20:31  5-MIN KAQV 170520Z AUTO 00000KT 10SM CLR 23/22 A3005 250 97 1300 000/00 RMK AO2 T02280222
03949KAQV AQV20160716232510807/16/16 23:25:31  5-MIN KAQV 170525Z AUTO 00000KT 10SM CLR 23/22 A3005 260 97 1300 000/00 RMK AO2 T02280222
03949KAQV AQV20160716233010807/16/16 23:30:31  5-MIN KAQV 170530Z AUTO 00000KT 10SM CLR 23/22 A3005 260 97 1300 000/00 RMK AO2 T02280222
03949KAQV AQV20160716233510807/16/16 23:35:31  5-MIN KAQV 170535Z AUTO 00000KT 10SM CLR 23/22 A3005 260 97 1300 000/00 RMK AO2 T02280222
03949KAQV AQV20160716234010807/16/16 23:40:31  5-MIN KAQV 170540Z AUTO 00000KT 10SM CLR 23/22 A3005 260 97 1300 000/00 RMK AO2 T02280222
03949KAQV AQV20160716234510807/16/16 23:45:31  5-MIN KAQV 170545Z AUTO 00000KT 10SM CLR 23/22 A3005 260 97 1300 000/00 RMK AO2 T02280222
03949KAQV AQV20160716235014307/16/16 23:50:31  5-MIN KAQV 170550Z AUTO 00000KT 10SM CLR 23/22 A3005 260 97 1300 000/00 RMK AO2 SLP171 T02280222 10289 20228 403390211 53014
03949KAQV AQV20160716235514207/16/16 23:55:31  5-MIN KAQV 170555Z AUTO 00000KT 9SM CLR 23/22 A3004 260 97 1300 000/00 RMK AO2 SLP170 T02280222 10289 20228 403390211 53014
03949KAQV AQV20160717000010707/17/16 00:00:31  5-MIN KAQV 170600Z AUTO 00000KT 9SM CLR 23/22 A3004 260 97 1300 000/00 RMK AO2 T02280222
03949KAQV AQV20160717000510707/17/16 00:05:31  5-MIN KAQV 170605Z AUTO 00000KT 8SM CLR 23/22 A3004 260 97 1300 000/00 RMK AO2 T02280222
03949KAQV AQV20160717001010707/17/16 00:10:31  5-MIN KAQV 170610Z AUTO 00000KT 8SM CLR 23/22 A3004 270 93 1300 000/00 RMK AO2 T02280217
03949KAQV AQV20160717001510707/17/16 00:15:31  5-MIN KAQV 170615Z AUTO 00000KT 8SM CLR 22/22 A3004 260 97 1200 000/00 RMK AO2 T02220217
03949KAQV AQV20160717002010807/17/16 00:20:31  5-MIN KAQV 170620Z AUTO 00000KT 8SM CLR 22/22 A3004 260 100 1200 000/00 RMK AO2 T02220222
03949KAQV AQV20160717002510707/17/16 00:25:31  5-MIN KAQV 170625Z AUTO 00000KT 9SM CLR 23/22 A3004 270 97 1300 000/00 RMK AO2 T02280222
03949KAQV AQV20160717003010707/17/16 00:30:31  5-MIN KAQV 170630Z AUTO 00000KT 9SM CLR 23/22 A3004 270 97 1300 000/00 RMK AO2 T02280222
03949KAQV AQV20160717003510707/17/16 00:35:31  5-MIN KAQV 170635Z AUTO 00000KT 9SM CLR 23/22 A3004 270 97 1300 000/00 RMK AO2 T02280222
03949KAQV AQV20160717004010707/17/16 00:40:31  5-MIN KAQV 170640Z AUTO 00000KT 9SM CLR 23/22 A3004 270 97 1300 000/00 RMK AO2 T02280222
03949KAQV AQV20160717004510807/17/16 00:45:31  5-MIN KAQV 170645Z AUTO 00000KT 10SM CLR 23/22 A3004 270 97 1300 000/00 RMK AO2 T02280222
03949KAQV AQV20160717005011507/17/16 00:50:31  5-MIN KAQV 170650Z AUTO 00000KT 10SM CLR 23/22 A3004 270 97 1300 000/00 RMK AO2 SLP167 T02280222
03949KAQV AQV20160717005511507/17/16 00:55:31  5-MIN KAQV 170655Z AUTO 00000KT 10SM CLR 23/22 A3004 270 97 1300 000/00 RMK AO2 SLP167 T02280222
03949KAQV AQV20160717010010707/17/16 01:00:31  5-MIN KAQV 170700Z AUTO 00000KT 9SM CLR 23/22 A3004 270 97 1300 000/00 RMK AO2 T02280222
03949KAQV AQV20160717010510707/17/16 01:05:31  5-MIN KAQV 170705Z AUTO 00000KT 9SM CLR 23/22 A3003 270 97 1300 000/00 RMK AO2 T02280222
03949KAQV AQV20160717011010707/17/16 01:10:31  5-MIN KAQV 170710Z AUTO 00000KT 9SM CLR 22/22 A3003 270 97 1200 000/00 RMK AO2 T02220217
03949KAQV AQV20160717011510707/17/16 01:15:31  5-MIN KAQV 170715Z AUTO 00000KT 8SM CLR 22/22 A3003 270 97 1200 000/00 RMK AO2 T02220217
03949KAQV AQV20160717012010707/17/16 01:20:31  5-MIN KAQV 170720Z AUTO 00000KT 8SM CLR 22/22 A3003 270 97 1200 000/00 RMK AO2 T02220217
03949KAQV AQV20160717012510707/17/16 01:25:31  5-MIN KAQV 170725Z AUTO 00000KT 8SM CLR 22/22 A3003 280 97 1200 000/00 RMK AO2 T02220217
03949KAQV AQV20160717013010707/17/16 01:30:31  5-MIN KAQV 170730Z AUTO 00000KT 9SM CLR 22/22 A3003 280 97 1200 000/00 RMK AO2 T02220217
03949KAQV AQV20160717013510807/17/16 01:35:31  5-MIN KAQV 170735Z AUTO 00000KT 10SM CLR 22/22 A3003 280 97 1200 000/00 RMK AO2 T02220217
03949KAQV AQV20160717014010807/17/16 01:40:31  5-MIN KAQV 170740Z AUTO 00000KT 10SM CLR 22/22 A3003 280 97 1200 000/00 RMK AO2 T02220217
03949KAQV AQV20160717014510807/17/16 01:45:31  5-MIN KAQV 170745Z AUTO 00000KT 10SM CLR 22/22 A3003 280 97 1200 000/00 RMK AO2 T02220217
03949KAQV AQV20160717015011407/17/16 01:50:31  5-MIN KAQV 170750Z AUTO 00000KT 9SM CLR 22/22 A3003 280 97 1200 000/00 RMK AO2 SLP164 T02220217
03949KAQV AQV20160717015511407/17/16 01:55:31  5-MIN KAQV 170755Z AUTO 00000KT 9SM CLR 22/22 A3003 280 97 1200 000/00 RMK AO2 SLP164 T02220217
03949KAQV AQV20160717020010707/17/16 02:00:31  5-MIN KAQV 170800Z AUTO 00000KT 9SM CLR 22/22 A3003 280 97 1200 000/00 RMK AO2 T02220217
03949KAQV AQV20160717020510707/17/16 02:05:31  5-MIN KAQV 170805Z AUTO 00000KT 9SM CLR 22/22 A3003 270 97 1200 000/00 RMK AO2 T02220217
03949KAQV AQV20160717021010707/17/16 02:10:31  5-MIN KAQV 170810Z AUTO 00000KT 9SM CLR 22/22 A3003 270 97 1200 000/00 RMK AO2 T02220217
03949KAQV AQV20160717021510707/17/16 02:15:31  5-MIN KAQV 170815Z AUTO 00000KT 9SM CLR 22/22 A3003 270 97 1200 000/00 RMK AO2 T02220217
03949KAQV AQV20160717022010707/17/16 02:20:31  5-MIN KAQV 170820Z AUTO 00000KT 8SM CLR 22/22 A3003 270 97 1200 000/00 RMK AO2 T02220217
03949KAQV AQV20160717022510707/17/16 02:25:31  5-MIN KAQV 170825Z AUTO 00000KT 8SM CLR 22/22 A3003 270 97 1200 000/00 RMK AO2 T02220217
03949KAQV AQV20160717023010707/17/16 02:30:31  5-MIN KAQV 170830Z AUTO 00000KT 8SM CLR 22/22 A3003 270 97 1200 000/00 RMK AO2 T02220217
03949KAQV AQV20160717023510707/17/16 02:35:31  5-MIN KAQV 170835Z AUTO 00000KT 8SM CLR 22/22 A3003 270 97 1200 000/00 RMK AO2 T02220217
03949KAQV AQV20160717024010707/17/16 02:40:31  5-MIN KAQV 170840Z AUTO 00000KT 8SM CLR 22/22 A3003 270 97 1200 000/00 RMK AO2 T02220217
03949KAQV AQV20160717024510707/17/16 02:45:31  5-MIN KAQV 170845Z AUTO 00000KT 8SM CLR 22/22 A3003 270 97 1200 000/00 RMK AO2 T02220217
03949KAQV AQV20160717025012007/17/16 02:50:31  5-MIN KAQV 170850Z AUTO 00000KT 7SM CLR 22/22 A3003 270 97 1200 000/00 RMK AO2 SLP166 T02220217 50001
03949KAQV AQV20160717025512007/17/16 02:55:31  5-MIN KAQV 170855Z AUTO 00000KT 7SM CLR 22/22 A3003 270 97 1200 000/00 RMK AO2 SLP166 T02220217 50001
03949KAQV AQV20160717030010707/17/16 03:00:31  5-MIN KAQV 170900Z AUTO 00000KT 7SM CLR 22/22 A3003 270 97 1200 000/00 RMK AO2 T02220217
03949KAQV AQV20160717030510707/17/16 03:05:31  5-MIN KAQV 170905Z AUTO 00000KT 7SM CLR 22/21 A3003 270 97 1200 000/00 RMK AO2 T02170211
03949KAQV AQV20160717031010707/17/16 03:10:31  5-MIN KAQV 170910Z AUTO 00000KT 7SM CLR 22/21 A3003 270 97 1200 000/00 RMK AO2 T02170211
03949KAQV AQV20160717031510707/17/16 03:15:31  5-MIN KAQV 170915Z AUTO 00000KT 7SM CLR 22/21 A3003 270 97 1200 000/00 RMK AO2 T02170211
03949KAQV AQV20160717032010707/17/16 03:20:31  5-MIN KAQV 170920Z AUTO 00000KT 7SM CLR 22/21 A3003 270 97 1200 000/00 RMK AO2 T02170211
03949KAQV AQV20160717032510707/17/16 03:25:31  5-MIN KAQV 170925Z AUTO 00000KT 7SM CLR 22/21 A3003 270 97 1200 000/00 RMK AO2 T02170211
03949KAQV AQV20160717033010707/17/16 03:30:31  5-MIN KAQV 170930Z AUTO 00000KT 7SM CLR 22/21 A3003 270 97 1200 000/00 RMK AO2 T02170211
03949KAQV AQV20160717033510707/17/16 03:35:31  5-MIN KAQV 170935Z AUTO 00000KT 7SM CLR 22/21 A3003 270 97 1200 000/00 RMK AO2 T02170211
03949KAQV AQV20160717034010707/17/16 03:40:31  5-MIN KAQV 170940Z AUTO 00000KT 7SM CLR 22/21 A3003 270 97 1200 000/00 RMK AO2 T02170211
03949KAQV AQV20160717034510707/17/16 03:45:31  5-MIN KAQV 170945Z AUTO 00000KT 7SM CLR 22/21 A3004 270 97 1100 000/00 RMK AO2 T02170211
03949KAQV AQV20160717035011407/17/16 03:50:31  5-MIN KAQV 170950Z AUTO 00000KT 7SM CLR 22/21 A3004 270 97 1100 000/00 RMK AO2 SLP168 T02170211
03949KAQV AQV20160717035511407/17/16 03:55:31  5-MIN KAQV 170955Z AUTO 00000KT 7SM CLR 22/21 A3004 260 97 1100 000/00 RMK AO2 SLP169 T02170211
03949KAQV AQV20160717040010707/17/16 04:00:31  5-MIN KAQV 171000Z AUTO 00000KT 8SM CLR 22/22 A3004 260 97 1200 000/00 RMK AO2 T02220217
03949KAQV AQV20160717040510707/17/16 04:05:31  5-MIN KAQV 171005Z AUTO 00000KT 8SM CLR 22/22 A3004 260 97 1200 000/00 RMK AO2 T02220217
03949KAQV AQV20160717041010707/17/16 04:10:31  5-MIN KAQV 171010Z AUTO 00000KT 8SM CLR 22/22 A3004 260 97 1200 000/00 RMK AO2 T02220217
03949KAQV AQV20160717041510807/17/16 04:15:31  5-MIN KAQV 171015Z AUTO 00000KT 7SM CLR 22/22 A3005 260 100 1100 000/00 RMK AO2 T02170217
03949KAQV AQV20160717042010807/17/16 04:20:31  5-MIN KAQV 171020Z AUTO 00000KT 7SM CLR 22/22 A3005 260 100 1100 000/00 RMK AO2 T02170217
03949KAQV AQV20160717042510707/17/16 04:25:31  5-MIN KAQV 171025Z AUTO 00000KT 7SM CLR 22/21 A3005 260 97 1100 000/00 RMK AO2 T02170211
03949KAQV AQV20160717043010707/17/16 04:30:31  5-MIN KAQV 171030Z AUTO 00000KT 7SM CLR 22/21 A3005 260 97 1100 000/00 RMK AO2 T02170211
03949KAQV AQV20160717043510707/17/16 04:35:31  5-MIN KAQV 171035Z AUTO 00000KT 7SM CLR 22/21 A3005 260 97 1100 000/00 RMK AO2 T02170211
03949KAQV AQV20160717044010707/17/16 04:40:31  5-MIN KAQV 171040Z AUTO 00000KT 7SM CLR 22/21 A3005 260 97 1100 000/00 RMK AO2 T02170211
03949KAQV AQV20160717044510707/17/16 04:45:31  5-MIN KAQV 171045Z AUTO 00000KT 7SM CLR 22/21 A3005 250 97 1100 000/00 RMK AO2 T02170211
03949KAQV AQV20160717045011807/17/16 04:50:31  5-MIN KAQV 171050Z AUTO 00000KT 6SM BR CLR 22/22 A3005 250 100 1100 000/00 RMK AO2 SLP174 T02170217
03949KAQV AQV20160717045511807/17/16 04:55:31  5-MIN KAQV 171055Z AUTO 00000KT 6SM BR CLR 22/22 A3006 250 100 1100 000/00 RMK AO2 SLP175 T02170217
03949KAQV AQV20160717050011007/17/16 05:00:31  5-MIN KAQV 171100Z AUTO 00000KT 6SM BR CLR 22/21 A3006 250 97 1100 000/00 RMK AO2 T02170211
03949KAQV AQV20160717050511007/17/16 05:05:31  5-MIN KAQV 171105Z AUTO 00000KT 6SM BR CLR 22/21 A3006 250 97 1100 000/00 RMK AO2 T02170211
03949KAQV AQV20160717051011007/17/16 05:10:31  5-MIN KAQV 171110Z AUTO 00000KT 6SM BR CLR 22/21 A3006 250 97 1100 000/00 RMK AO2 T02170211
03949KAQV AQV20160717051511007/17/16 05:15:31  5-MIN KAQV 171115Z AUTO 00000KT 5SM BR CLR 22/21 A3006 250 97 1100 000/00 RMK AO2 T02170211
03949KAQV AQV20160717052011007/17/16 05:20:31  5-MIN KAQV 171120Z AUTO 00000KT 5SM BR CLR 22/21 A3006 250 97 1100 000/00 RMK AO2 T02170211
03949KAQV AQV20160717052511007/17/16 05:25:31  5-MIN KAQV 171125Z AUTO 00000KT 5SM BR CLR 22/21 A3006 250 97 1100 000/00 RMK AO2 T02170211
03949KAQV AQV20160717053011007/17/16 05:30:31  5-MIN KAQV 171130Z AUTO 00000KT 5SM BR CLR 22/21 A3006 250 97 1100 000/00 RMK AO2 T02170211
03949KAQV AQV20160717053511007/17/16 05:35:31  5-MIN KAQV 171135Z AUTO 00000KT 5SM BR CLR 22/21 A3006 240 97 1100 000/00 RMK AO2 T02170211
03949KAQV AQV20160717054011007/17/16 05:40:31  5-MIN KAQV 171140Z AUTO 00000KT 5SM BR CLR 22/21 A3006 240 97 1100 000/00 RMK AO2 T02170211
03949KAQV AQV20160717054511007/17/16 05:45:31  5-MIN KAQV 171145Z AUTO 00000KT 5SM BR CLR 22/21 A3007 240 97 1100 000/00 RMK AO2 T02170211
03949KAQV AQV20160717055013507/17/16 05:50:31  5-MIN KAQV 171150Z AUTO 00000KT 5SM BR CLR 22/21 A3007 240 97 1100 000/00 RMK AO2 SLP179 T02170211 10228 20217 55004
03949KAQV AQV20160717055513507/17/16 05:55:31  5-MIN KAQV 171155Z AUTO 00000KT 4SM BR CLR 22/22 A3007 240 97 1200 000/00 RMK AO2 SLP179 T02220217 10228 20217 55004
03949KAQV AQV20160717060011107/17/16 06:00:31  5-MIN KAQV 171200Z AUTO 00000KT 4SM BR CLR 22/22 A3007 230 100 1100 000/00 RMK AO2 T02170217
03949KAQV AQV20160717060511007/17/16 06:05:31  5-MIN KAQV 171205Z AUTO 00000KT 5SM BR CLR 22/22 A3008 230 97 1200 000/00 RMK AO2 T02220217
03949KAQV AQV20160717061011007/17/16 06:10:31  5-MIN KAQV 171210Z AUTO 00000KT 6SM BR CLR 22/22 A3007 230 97 1200 000/00 RMK AO2 T02220217
03949KAQV AQV20160717061510707/17/16 06:15:31  5-MIN KAQV 171215Z AUTO 00000KT 7SM CLR 22/22 A3007 230 97 1200 000/00 RMK AO2 T02220217
03949KAQV AQV20160717062010707/17/16 06:20:31  5-MIN KAQV 171220Z AUTO 00000KT 7SM CLR 23/22 A3008 230 97 1200 000/00 RMK AO2 T02280222
03949KAQV AQV20160717062510707/17/16 06:25:31  5-MIN KAQV 171225Z AUTO 00000KT 9SM CLR 23/22 A3008 230 97 1200 000/00 RMK AO2 T02280222
03949KAQV AQV20160717063010707/17/16 06:30:31  5-MIN KAQV 171230Z AUTO 00000KT 9SM CLR 23/22 A3008 230 97 1200 000/00 RMK AO2 T02280222
03949KAQV AQV20160717063510907/17/16 06:35:31  5-MIN KAQV 171235Z AUTO 00000KT 10SM CLR 23/23 A3008 230 100 1200 000/00 RMK AO2 T02280228
03949KAQV AQV20160717064010807/17/16 06:40:31  5-MIN KAQV 171240Z AUTO 00000KT 10SM CLR 23/23 A3008 230 97 1300 000/00 RMK AO2 T02330228
03949KAQV AQV20160717064510807/17/16 06:45:31  5-MIN KAQV 171245Z AUTO 00000KT 10SM CLR 23/23 A3008 230 97 1300 000/00 RMK AO2 T02330228
03949KAQV AQV20160717065011507/17/16 06:50:31  5-MIN KAQV 171250Z AUTO 18003KT 10SM CLR 23/23 A3008 230 97 1300 180/03 RMK AO2 SLP183 T02330228
03949KAQV AQV20160717065511507/17/16 06:55:31  5-MIN KAQV 171255Z AUTO VRB03KT 10SM CLR 23/23 A3008 230 97 1300 VRB/03 RMK AO2 SLP183 T02330228
03949KAQV AQV20160717070010807/17/16 07:00:31  5-MIN KAQV 171300Z AUTO 18003KT 10SM CLR 24/23 A3008 230 93 1400 180/03 RMK AO2 T02390228
03949KAQV AQV20160717070510807/17/16 07:05:31  5-MIN KAQV 171305Z AUTO 00000KT 10SM CLR 24/23 A3009 220 93 1300 000/00 RMK AO2 T02390228
03949KAQV AQV20160717071010807/17/16 07:10:31  5-MIN KAQV 171310Z AUTO 17003KT 10SM CLR 24/23 A3009 220 93 1300 170/03 RMK AO2 T02390228
03949KAQV AQV20160717071510807/17/16 07:15:31  5-MIN KAQV 171315Z AUTO 18003KT 10SM CLR 24/23 A3009 220 93 1300 180/03 RMK AO2 T02390228
03949KAQV AQV20160717072010807/17/16 07:20:31  5-MIN KAQV 171320Z AUTO VRB03KT 10SM CLR 24/23 A3009 220 93 1300 VRB/03 RMK AO2 T02390228
03949KAQV AQV20160717072510807/17/16 07:25:31  5-MIN KAQV 171325Z AUTO 17003KT 10SM CLR 24/23 A3009 220 90 1400 170/03 RMK AO2 T02440228
03949KAQV AQV20160717073010807/17/16 07:30:31  5-MIN KAQV 171330Z AUTO 00000KT 10SM CLR 24/23 A3010 210 93 1400 000/00 RMK AO2 T02440233
03949KAQV AQV20160717073510807/17/16 07:35:31  5-MIN KAQV 171335Z AUTO VRB03KT 10SM CLR 26/23 A3010 210 87 1500 VRB/03 RMK AO2 T02560233
03949KAQV AQV20160717074010807/17/16 07:40:31  5-MIN KAQV 171340Z AUTO 00000KT 10SM CLR 27/23 A3010 210 82 1600 000/00 RMK AO2 T02670233
03949KAQV AQV20160717074510807/17/16 07:45:31  5-MIN KAQV 171345Z AUTO 00000KT 10SM CLR 28/23 A3010 210 76 1800 000/00 RMK AO2 T02780233
03949KAQV AQV20160717075011507/17/16 07:50:31  5-MIN KAQV 171350Z AUTO 00000KT 10SM CLR 28/23 A3009 220 76 1800 000/00 RMK AO2 SLP187 T02780233
03949KAQV AQV20160717075511507/17/16 07:55:31  5-MIN KAQV 171355Z AUTO 00000KT 10SM CLR 28/23 A3010 210 74 1800 000/00 RMK AO2 SLP188 T02830233
03949KAQV AQV20160717080010807/17/16 08:00:31  5-MIN KAQV 171400Z AUTO 00000KT 10SM CLR 28/23 A3010 210 74 1800 000/00 RMK AO2 T02830233
03949KAQV AQV20160717080510807/17/16 08:05:31  5-MIN KAQV 171405Z AUTO VRB04KT 10SM CLR 28/23 A3010 210 74 1800 VRB/04 RMK AO2 T02830233
03949KAQV AQV20160717081010807/17/16 08:10:31  5-MIN KAQV 171410Z AUTO VRB03KT 10SM CLR 28/23 A3010 210 74 1800 VRB/03 RMK AO2 T02830233
03949KAQV AQV20160717081510807/17/16 08:15:31  5-MIN KAQV 171415Z AUTO 21003KT 10SM CLR 29/23 A3010 210 71 1900 200/03 RMK AO2 T02890233
03949KAQV AQV20160717082010807/17/16 08:20:31  5-MIN KAQV 171420Z AUTO VRB03KT 10SM CLR 28/23 A3010 210 74 1800 VRB/03 RMK AO2 T02830233
03949KAQV AQV20160717082510807/17/16 08:25:31  5-MIN KAQV 171425Z AUTO 00000KT 10SM CLR 29/23 A3010 210 71 1900 000/00 RMK AO2 T02890233
03949KAQV AQV20160717083011107/17/16 08:30:31  5-MIN KAQV 171430Z AUTO 00000KT 10SM FEW020 29/23 A3010 210 71 1900 000/00 RMK AO2 T02890233
03949KAQV AQV20160717083511807/17/16 08:35:31  5-MIN KAQV 171435Z AUTO VRB03KT 10SM SCT022 SCT028 30/23 A3010 210 67 2000 VRB/03 RMK AO2 T03000233
03949KAQV AQV20160717084011107/17/16 08:40:31  5-MIN KAQV 171440Z AUTO VRB04KT 10SM SCT025 30/23 A3010 210 65 2000 VRB/04 RMK AO2 T03000228
03949KAQV AQV20160717084511107/17/16 08:45:31  5-MIN KAQV 171445Z AUTO 00000KT 10SM SCT025 29/23 A3010 210 69 1900 000/00 RMK AO2 T02890228
03949KAQV AQV20160717085012407/17/16 08:50:31  5-MIN KAQV 171450Z AUTO 00000KT 10SM SCT025 29/22 A3010 210 67 1900 000/00 RMK AO2 SLP190 T02890222 53013
03949KAQV AQV20160717085512407/17/16 08:55:31  5-MIN KAQV 171455Z AUTO 00000KT 10SM SCT026 29/22 A3011 200 67 1900 000/00 RMK AO2 SLP191 T02890222 53013
03949KAQV AQV20160717090011107/17/16 09:00:31  5-MIN KAQV 171500Z AUTO 00000KT 10SM SCT026 29/22 A3011 200 67 1900 000/00 RMK AO2 T02890222
03949KAQV AQV20160717090511107/17/16 09:05:31  5-MIN KAQV 171505Z AUTO 00000KT 10SM FEW028 29/22 A3011 200 67 1900 000/00 RMK AO2 T02890222
03949KAQV AQV20160717091011107/17/16 09:10:31  5-MIN KAQV 171510Z AUTO 00000KT 10SM FEW028 29/22 A3011 200 67 1900 000/00 RMK AO2 T02890222
03949KAQV AQV20160717091511107/17/16 09:15:31  5-MIN KAQV 171515Z AUTO 00000KT 10SM FEW028 29/22 A3011 200 64 1900 000/00 RMK AO2 T02890217
03949KAQV AQV20160717092010807/17/16 09:20:31  5-MIN KAQV 171520Z AUTO 00000KT 10SM CLR 29/22 A3011 200 62 1900 000/00 RMK AO2 T02940217
03949KAQV AQV20160717092511807/17/16 09:25:31  5-MIN KAQV 171525Z AUTO 04003KT 10SM FEW028 FEW065 31/22 A3011 200 58 2100 030/03 RMK AO2 T03060217
03949KAQV AQV20160717093011107/17/16 09:30:31  5-MIN KAQV 171530Z AUTO VRB03KT 10SM FEW065 32/22 A3011 200 56 2200 VRB/03 RMK AO2 T03170222
03949KAQV AQV20160717093510807/17/16 09:35:31  5-MIN KAQV 171535Z AUTO 05003KT 10SM CLR 31/22 A3011 200 58 2100 050/03 RMK AO2 T03110222
03949KAQV AQV20160717094010807/17/16 09:40:31  5-MIN KAQV 171540Z AUTO VRB04KT 10SM CLR 32/22 A3011 200 56 2200 VRB/04 RMK AO2 T03170222
03949KAQV AQV20160717094510807/17/16 09:45:31  5-MIN KAQV 171545Z AUTO VRB05KT 10SM CLR 32/22 A3011 200 56 2200 VRB/05 RMK AO2 T03170222
03949KAQV AQV20160717095011507/17/16 09:50:31  5-MIN KAQV 171550Z AUTO 06004KT 10SM CLR 31/22 A3012 190 60 2100 060/04 RMK AO2 SLP195 T03060222
03949KAQV AQV20160717095511507/17/16 09:55:31  5-MIN KAQV 171555Z AUTO 04004KT 10SM CLR 27/22 A3012 190 76 1600 030/04 RMK AO2 SLP195 T02670222
03949KAQV AQV20160717100010807/17/16 10:00:31  5-MIN KAQV 171600Z AUTO 00000KT 10SM CLR 30/22 A3012 190 60 2000 000/00 RMK AO2 T03000217
03949KAQV AQV20160717100510807/17/16 10:05:31  5-MIN KAQV 171605Z AUTO 07003KT 10SM CLR 31/22 A3012 190 58 2100 070/03 RMK AO2 T03060217
03949KAQV AQV20160717101010807/17/16 10:10:31  5-MIN KAQV 171610Z AUTO 00000KT 10SM CLR 31/22 A3012 190 56 2100 000/00 RMK AO2 T03110217
03949KAQV AQV20160717101511107/17/16 10:15:31  5-MIN KAQV 171615Z AUTO 00000KT 10SM FEW046 31/22 A3012 190 60 2100 000/00 RMK AO2 T03060222
03949KAQV AQV20160717102011107/17/16 10:20:31  5-MIN KAQV 171620Z AUTO VRB03KT 10SM FEW046 32/22 A3012 190 56 2200 VRB/03 RMK AO2 T03170222
03949KAQV AQV20160717102511807/17/16 10:25:31  5-MIN KAQV 171625Z AUTO 00000KT 10SM FEW035 FEW047 32/22 A3012 190 55 2200 000/00 RMK AO2 T03170217
03949KAQV AQV20160717103011807/17/16 10:30:31  5-MIN KAQV 171630Z AUTO 07004KT 10SM FEW035 FEW047 31/22 A3012 190 56 2100 070/04 RMK AO2 T03110217
03949KAQV AQV20160717103512507/17/16 10:35:31  5-MIN KAQV 171635Z AUTO 00000KT 10SM FEW037 FEW047 SCT065 31/22 A3012 200 56 2100 000/00 RMK AO2 T03110217
03949KAQV AQV20160717104012507/17/16 10:40:31  5-MIN KAQV 171640Z AUTO 00000KT 10SM SCT035 SCT047 SCT065 31/22 A3012 200 56 2100 000/00 RMK AO2 T03110217
03949KAQV AQV20160717104512507/17/16 10:45:31  5-MIN KAQV 171645Z AUTO 07005KT 10SM SCT035 SCT050 BKN065 31/22 A3012 200 56 2100 070/05 RMK AO2 T03110217
03949KAQV AQV20160717105013207/17/16 10:50:31  5-MIN KAQV 171650Z AUTO VRB05KT 10SM SCT037 SCT050 BKN065 32/22 A3012 190 53 2200 VRB/05 RMK AO2 SLP195 T03220217
03949KAQV AQV20160717105513207/17/16 10:55:31  5-MIN KAQV 171655Z AUTO VRB04KT 10SM SCT037 SCT065 BKN080 32/22 A3012 190 53 2200 VRB/04 RMK AO2 SLP195 T03220217
03949KAQV AQV20160717110012507/17/16 11:00:31  5-MIN KAQV 171700Z AUTO VRB03KT 10SM SCT037 SCT065 SCT080 32/22 A3012 190 55 2200 VRB/03 RMK AO2 T03170217
03949KAQV AQV20160717110511107/17/16 11:05:31  5-MIN KAQV 171705Z AUTO 00000KT 10SM FEW037 31/22 A3012 200 56 2100 000/00 RMK AO2 T03110217
03949KAQV AQV20160717111011107/17/16 11:10:31  5-MIN KAQV 171710Z AUTO 00000KT 10SM SCT039 31/22 A3012 200 56 2100 000/00 RMK AO2 T03110217
03949KAQV AQV20160717111511807/17/16 11:15:31  5-MIN KAQV 171715Z AUTO 00000KT 10SM SCT039 SCT055 31/21 A3011 200 56 2100 000/00 RMK AO2 T03060211
03949KAQV AQV20160717112012507/17/16 11:20:31  5-MIN KAQV 171720Z AUTO VRB04KT 10SM FEW039 SCT055 BKN085 31/22 A3011 200 56 2100 VRB/04 RMK AO2 T03110217
03949KAQV AQV20160717112512507/17/16 11:25:31  5-MIN KAQV 171725Z AUTO 00000KT 10SM FEW041 SCT049 BKN075 32/22 A3011 200 55 2200 000/00 RMK AO2 T03170217
03949KAQV AQV20160717113012507/17/16 11:30:31  5-MIN KAQV 171730Z AUTO 08006KT 10SM FEW041 SCT049 BKN080 33/22 A3011 200 51 2300 070/06 RMK AO2 T03280217
03949KAQV AQV20160717113511807/17/16 11:35:31  5-MIN KAQV 171735Z AUTO VRB03KT 10SM FEW041 BKN080 33/22 A3011 200 51 2300 VRB/03 RMK AO2 T03280217
03949KAQV AQV20160717114011807/17/16 11:40:31  5-MIN KAQV 171740Z AUTO 00000KT 10SM FEW041 SCT080 33/22 A3010 210 50 2400 000/00 RMK AO2 T03330217
03949KAQV AQV20160717114510107/17/16 11:45:31  5-MIN KAQV 171745Z AUTO 10SM FEW080 33/21 A3010 210 46 2400 M /M RMK AO2 T03330206
03949KAQV AQV20160717115013607/17/16 11:50:31  5-MIN KAQV 171750Z AUTO VRB06KT 10SM FEW080 33/21 A3010 210 46 2400 VRB/06 RMK AO2 SLP190 T03330206 10339 20217 51012
03949KAQV AQV20160717115513607/17/16 11:55:31  5-MIN KAQV 171755Z AUTO 18006KT 10SM FEW080 33/19 A3010 210 44 2300 180/06 RMK AO2 SLP189 T03280194 10339 20217 51012
03949KAQV AQV20160717120010807/17/16 12:00:31  5-MIN KAQV 171800Z AUTO 00000KT 10SM CLR 33/20 A3010 210 46 2300 000/00 RMK AO2 T03280200
03949KAQV AQV20160717120510807/17/16 12:05:31  5-MIN KAQV 171805Z AUTO 00000KT 10SM CLR 34/21 A3010 210 46 2400 000/00 RMK AO2 T03390211
03949KAQV AQV20160717121011107/17/16 12:10:31  5-MIN KAQV 171810Z AUTO VRB05KT 10SM FEW043 33/21 A3010 210 46 2400 VRB/05 RMK AO2 T03330206
03949KAQV AQV20160717121511107/17/16 12:15:31  5-MIN KAQV 171815Z AUTO 05005KT 10SM FEW043 34/21 A3010 210 45 2500 050/05 RMK AO2 T03390206
03949KAQV AQV20160717122010807/17/16 12:20:31  5-MIN KAQV 171820Z AUTO VRB06KT 10SM CLR 34/21 A3009 220 45 2500 VRB/06 RMK AO2 T03390206
03949KAQV AQV20160717122510807/17/16 12:25:31  5-MIN KAQV 171825Z AUTO 00000KT 10SM CLR 34/21 A3009 220 45 2500 000/00 RMK AO2 T03390206
03949KAQV AQV20160717123011107/17/16 12:30:31  5-MIN KAQV 171830Z AUTO 10003KT 10SM FEW045 33/21 A3009 220 46 2400 100/03 RMK AO2 T03330206
03949KAQV AQV20160717123511107/17/16 12:35:31  5-MIN KAQV 171835Z AUTO VRB03KT 10SM FEW045 34/21 A3009 220 45 2500 VRB/03 RMK AO2 T03390206
03949KAQV AQV20160717124011107/17/16 12:40:31  5-MIN KAQV 171840Z AUTO VRB04KT 10SM FEW046 34/20 A3009 220 43 2500 VRB/04 RMK AO2 T03390200
03949KAQV AQV20160717124511107/17/16 12:45:31  5-MIN KAQV 171845Z AUTO 09004KT 10SM FEW046 34/20 A3009 220 43 2500 080/04 RMK AO2 T03390200
03949KAQV AQV20160717125011807/17/16 12:50:31  5-MIN KAQV 171850Z AUTO VRB03KT 10SM FEW047 34/20 A3009 220 42 2500 VRB/03 RMK AO2 SLP185 T03440200
03949KAQV AQV20160717125511807/17/16 12:55:31  5-MIN KAQV 171855Z AUTO VRB04KT 10SM FEW047 34/20 A3009 220 43 2500 VRB/04 RMK AO2 SLP185 T03390200
03949KAQV AQV20160717130011807/17/16 13:00:31  5-MIN KAQV 171900Z AUTO VRB03KT 10SM FEW047 SCT060 33/21 A3009 220 48 2300 VRB/03 RMK AO2 T03280206
03949KAQV AQV20160717130511807/17/16 13:05:31  5-MIN KAQV 171905Z AUTO VRB04KT 10SM FEW049 SCT060 34/21 A3008 230 45 2500 VRB/04 RMK AO2 T03390206
03949KAQV AQV20160717131011107/17/16 13:10:31  5-MIN KAQV 171910Z AUTO VRB06KT 10SM FEW047 34/21 A3008 230 43 2500 VRB/06 RMK AO2 T03440206
03949KAQV AQV20160717131511107/17/16 13:15:31  5-MIN KAQV 171915Z AUTO VRB03KT 10SM FEW047 34/21 A3008 230 45 2500 VRB/03 RMK AO2 T03440211
03949KAQV AQV20160717132011107/17/16 13:20:31  5-MIN KAQV 171920Z AUTO VRB04KT 10SM FEW047 34/21 A3008 230 43 2500 VRB/04 RMK AO2 T03440206
03949KAQV AQV20160717132511807/17/16 13:25:31  5-MIN KAQV 171925Z AUTO VRB06KT 10SM FEW049 FEW060 34/21 A3008 230 45 2500 VRB/06 RMK AO2 T03390206
03949KAQV AQV20160717133011107/17/16 13:30:31  5-MIN KAQV 171930Z AUTO VRB03KT 10SM FEW049 34/21 A3008 230 45 2500 VRB/03 RMK AO2 T03440211
03949KAQV AQV20160717133511107/17/16 13:35:31  5-MIN KAQV 171935Z AUTO 18003KT 10SM FEW049 34/21 A3008 230 43 2500 170/03 RMK AO2 T03440206
03949KAQV AQV20160717134011107/17/16 13:40:31  5-MIN KAQV 171940Z AUTO VRB06KT 10SM FEW049 34/21 A3008 230 45 2500 VRB/06 RMK AO2 T03390206
03949KAQV AQV20160717134511107/17/16 13:45:31  5-MIN KAQV 171945Z AUTO VRB04KT 10SM FEW049 34/21 A3008 230 45 2500 VRB/04 RMK AO2 T03390206
03949KAQV AQV20160717135012507/17/16 13:50:31  5-MIN KAQV 171950Z AUTO VRB04KT 10SM SCT049 SCT065 33/20 A3007 230 45 2400 VRB/04 RMK AO2 SLP181 T03330200
03949KAQV AQV20160717135513207/17/16 13:55:31  5-MIN KAQV 171955Z AUTO VRB03KT 10SM FEW049 SCT065 SCT100 33/21 A3007 230 48 2400 VRB/03 RMK AO2 SLP180 T03280206
03949KAQV AQV20160717140012507/17/16 14:00:31  5-MIN KAQV 172000Z AUTO VRB06KT 10SM FEW049 SCT065 SCT100 33/21 A3007 230 48 2400 VRB/06 RMK AO2 T03330211
03949KAQV AQV20160717140511807/17/16 14:05:31  5-MIN KAQV 172005Z AUTO VRB04KT 10SM FEW049 SCT065 33/21 A3007 230 48 2400 VRB/04 RMK AO2 T03330211
03949KAQV AQV20160717141011807/17/16 14:10:31  5-MIN KAQV 172010Z AUTO VRB04KT 10SM SCT049 SCT065 34/21 A3007 240 45 2500 VRB/04 RMK AO2 T03440211
03949KAQV AQV20160717141511507/17/16 14:15:31  5-MIN KAQV 172015Z AUTO 10SM SCT050 BKN065 BKN100 34/21 A3007 240 45 2500 M /M RMK AO2 T03390206
03949KAQV AQV20160717142011807/17/16 14:20:31  5-MIN KAQV 172020Z AUTO 12005KT 10SM FEW050 SCT070 34/21 A3007 240 45 2500 120/05 RMK AO2 T03390206
03949KAQV AQV20160717142511807/17/16 14:25:31  5-MIN KAQV 172025Z AUTO VRB04KT 10SM FEW050 SCT075 34/21 A3007 240 45 2500 VRB/04 RMK AO2 T03390206
03949KAQV AQV20160717143011807/17/16 14:30:31  5-MIN KAQV 172030Z AUTO VRB06KT 10SM FEW050 FEW070 33/21 A3007 240 48 2400 VRB/06 RMK AO2 T03330211
03949KAQV AQV20160717143511807/17/16 14:35:31  5-MIN KAQV 172035Z AUTO 14007KT 10SM SCT050 SCT070 34/21 A3007 240 46 2500 140/07 RMK AO2 T03390211
03949KAQV AQV20160717144011807/17/16 14:40:31  5-MIN KAQV 172040Z AUTO VRB06KT 10SM FEW050 SCT070 34/22 A3007 240 48 2500 VRB/06 RMK AO2 T03390217
03949KAQV AQV20160717144511107/17/16 14:45:31  5-MIN KAQV 172045Z AUTO VRB05KT 10SM FEW050 34/22 A3007 240 48 2500 VRB/05 RMK AO2 T03390217
03949KAQV AQV20160717145012407/17/16 14:50:31  5-MIN KAQV 172050Z AUTO VRB04KT 10SM FEW050 34/22 A3007 240 46 2500 VRB/04 RMK AO2 SLP178 T03440217 58002
03949KAQV AQV20160717145512407/17/16 14:55:31  5-MIN KAQV 172055Z AUTO VRB06KT 10SM FEW050 34/21 A3007 240 45 2500 VRB/06 RMK AO2 SLP178 T03440211 58002
03949KAQV AQV20160717150011107/17/16 15:00:31  5-MIN KAQV 172100Z AUTO VRB03KT 10SM FEW050 34/22 A3007 240 46 2500 VRB/03 RMK AO2 T03440217
03949KAQV AQV20160717150510807/17/16 15:05:31  5-MIN KAQV 172105Z AUTO VRB03KT 10SM CLR 34/22 A3006 240 46 2500 VRB/03 RMK AO2 T03440217
03949KAQV AQV20160717151010807/17/16 15:10:31  5-MIN KAQV 172110Z AUTO VRB05KT 10SM CLR 34/22 A3006 250 48 2500 VRB/05 RMK AO2 T03390217
03949KAQV AQV20160717151510807/17/16 15:15:31  5-MIN KAQV 172115Z AUTO VRB05KT 10SM CLR 34/22 A3006 250 48 2500 VRB/05 RMK AO2 T03390217
03949KAQV AQV20160717152010807/17/16 15:20:31  5-MIN KAQV 172120Z AUTO VRB04KT 10SM CLR 34/21 A3006 250 45 2600 VRB/04 RMK AO2 T03440211
03949KAQV AQV20160717152510807/17/16 15:25:31  5-MIN KAQV 172125Z AUTO VRB06KT 10SM CLR 34/21 A3006 250 45 2600 VRB/06 RMK AO2 T03440211
03949KAQV AQV20160717153010807/17/16 15:30:31  5-MIN KAQV 172130Z AUTO VRB04KT 10SM CLR 34/21 A3006 250 45 2600 VRB/04 RMK AO2 T03440211
03949KAQV AQV20160717153510807/17/16 15:35:31  5-MIN KAQV 172135Z AUTO VRB06KT 10SM CLR 34/21 A3006 250 45 2600 VRB/06 RMK AO2 T03440211
03949KAQV AQV20160717154010807/17/16 15:40:31  5-MIN KAQV 172140Z AUTO VRB05KT 10SM CLR 34/21 A3006 250 45 2600 VRB/05 RMK AO2 T03440211
03949KAQV AQV20160717154510807/17/16 15:45:31  5-MIN KAQV 172145Z AUTO VRB05KT 10SM CLR 34/21 A3005 250 43 2600 VRB/05 RMK AO2 T03440206
03949KAQV AQV20160717155011507/17/16 15:50:31  5-MIN KAQV 172150Z AUTO VRB04KT 10SM CLR 34/21 A3006 250 45 2500 VRB/04 RMK AO2 SLP174 T03390206
03949KAQV AQV20160717155511507/17/16 15:55:31  5-MIN KAQV 172155Z AUTO VRB05KT 10SM CLR 35/21 A3006 250 43 2600 VRB/05 RMK AO2 SLP174 T03500211
03949KAQV AQV20160717160011107/17/16 16:00:31  5-MIN KAQV 172200Z AUTO VRB04KT 10SM FEW049 34/21 A3005 250 45 2600 VRB/04 RMK AO2 T03440211
03949KAQV AQV20160717160511107/17/16 16:05:31  5-MIN KAQV 172205Z AUTO VRB04KT 10SM FEW049 34/21 A3006 250 45 2600 VRB/04 RMK AO2 T03440211
03949KAQV AQV20160717161011107/17/16 16:10:31  5-MIN KAQV 172210Z AUTO 00000KT 10SM FEW050 34/21 A3005 250 46 2500 000/00 RMK AO2 T03390211
03949KAQV AQV20160717161511107/17/16 16:15:31  5-MIN KAQV 172215Z AUTO VRB05KT 10SM FEW050 35/21 A3005 260 43 2600 VRB/05 RMK AO2 T03500211
03949KAQV AQV20160717162011107/17/16 16:20:31  5-MIN KAQV 172220Z AUTO VRB05KT 10SM FEW050 34/21 A3005 250 46 2500 VRB/05 RMK AO2 T03390211
03949KAQV AQV20160717162511807/17/16 16:25:31  5-MIN KAQV 172225Z AUTO VRB03KT 10SM FEW050 FEW060 34/21 A3005 260 45 2500 VRB/03 RMK AO2 T03390206
03949KAQV AQV20160717163011107/17/16 16:30:31  5-MIN KAQV 172230Z AUTO VRB06KT 10SM FEW070 34/21 A3005 260 46 2500 VRB/06 RMK AO2 T03390211
03949KAQV AQV20160717163511107/17/16 16:35:31  5-MIN KAQV 172235Z AUTO VRB04KT 10SM FEW070 34/21 A3005 260 46 2500 VRB/04 RMK AO2 T03390211
03949KAQV AQV20160717164011107/17/16 16:40:31  5-MIN KAQV 172240Z AUTO VRB05KT 10SM FEW070 34/22 A3005 250 48 2500 VRB/05 RMK AO2 T03390217
03949KAQV AQV20160717164512707/17/16 16:45:31  5-MIN KAQV 172245Z AUTO 14007KT 110V170 10SM FEW070 33/22 A3005 260 50 2400 140/07 110V170 RMK AO2 T03330217
03949KAQV AQV20160717165011807/17/16 16:50:31  5-MIN KAQV 172250Z AUTO VRB04KT 10SM FEW070 33/22 A3005 260 50 2400 VRB/04 RMK AO2 SLP172 T03330217
03949KAQV AQV20160717165511507/17/16 16:55:31  5-MIN KAQV 172255Z AUTO VRB04KT 10SM CLR 33/22 A3005 260 50 2400 VRB/04 RMK AO2 SLP172 T03330217
03949KAQV AQV20160717170010807/17/16 17:00:31  5-MIN KAQV 172300Z AUTO VRB05KT 10SM CLR 33/22 A3005 260 50 2400 VRB/05 RMK AO2 T03330217
03949KAQV AQV20160717170509807/17/16 17:05:31  5-MIN KAQV 172305Z AUTO 10SM CLR 34/22 A3005 260 48 2500 M /M RMK AO2 T03390217
03949KAQV AQV20160717171010807/17/16 17:10:31  5-MIN KAQV 172310Z AUTO 15006KT 10SM CLR 33/22 A3005 260 50 2400 150/06 RMK AO2 T03330217
03949KAQV AQV20160717171510807/17/16 17:15:31  5-MIN KAQV 172315Z AUTO VRB03KT 10SM CLR 33/22 A3005 260 50 2400 VRB/03 RMK AO2 T03330217
03949KAQV AQV20160717172010807/17/16 17:20:31  5-MIN KAQV 172320Z AUTO 15005KT 10SM CLR 33/22 A3005 260 50 2400 150/05 RMK AO2 T03330217
03949KAQV AQV20160717172510807/17/16 17:25:31  5-MIN KAQV 172325Z AUTO VRB03KT 10SM CLR 33/22 A3004 260 50 2400 VRB/03 RMK AO2 T03330217
03949KAQV AQV20160717173010807/17/16 17:30:31  5-MIN KAQV 172330Z AUTO 17004KT 10SM CLR 33/22 A3004 260 50 2400 160/04 RMK AO2 T03330217
03949KAQV AQV20160717173511107/17/16 17:35:31  5-MIN KAQV 172335Z AUTO VRB06KT 10SM FEW045 33/22 A3004 260 51 2400 VRB/06 RMK AO2 T03280217
03949KAQV AQV20160717174012007/17/16 17:40:31  5-MIN KAQV 172340Z AUTO VRB06KT 10SM TS FEW045 32/22 A3005 260 55 2300 VRB/06 RMK AO2 TSB37 T03220222
03949KAQV AQV20160717174512007/17/16 17:45:31  5-MIN KAQV 172345Z AUTO VRB05KT 10SM TS FEW046 32/22 A3005 260 56 2300 VRB/05 RMK AO2 TSB37 T03170222
03949KAQV AQV20160717175014507/17/16 17:50:31  5-MIN KAQV 172350Z AUTO VRB05KT 10SM TS FEW046 32/22 A3005 250 56 2300 VRB/05 RMK AO2 TSB37 SLP173 T03170222 10350 20317 56011
03949KAQV AQV20160717175515407/17/16 17:55:31  5-MIN KAQV 172355Z AUTO 17006KT 10SM TS FEW046 31/22 A3006 250 58 2200 160/06 RMK AO2 TSB37E52B54B55 SLP175 T03110222 10350 20311 56011
03949KAQV AQV20160717180011407/17/16 18:00:31  5-MIN KAQV 180000Z AUTO 19004KT 10SM TS FEW046 31/22 A3006 250 58 2200 180/04 RMK AO2 T03110222
03949KAQV AQV20160717180511107/17/16 18:05:31  5-MIN KAQV 180005Z AUTO VRB03KT 10SM TS CLR 31/22 A3006 250 60 2100 VRB/03 RMK AO2 T03060222
03949KAQV AQV20160717181011107/17/16 18:10:31  5-MIN KAQV 180010Z AUTO VRB05KT 10SM TS CLR 31/23 A3006 250 62 2100 VRB/05 RMK AO2 T03060228
03949KAQV AQV20160717181511107/17/16 18:15:31  5-MIN KAQV 180015Z AUTO 17003KT 10SM TS CLR 30/22 A3006 250 62 2100 160/03 RMK AO2 T03000222
03949KAQV AQV20160717182011107/17/16 18:20:31  5-MIN KAQV 180020Z AUTO 18003KT 10SM TS CLR 30/22 A3006 240 62 2100 180/03 RMK AO2 T03000222
03949KAQV AQV20160717182511107/17/16 18:25:31  5-MIN KAQV 180025Z AUTO 00000KT 10SM TS CLR 30/22 A3007 240 62 2100 000/00 RMK AO2 T03000222
03949KAQV AQV20160717183011907/17/16 18:30:31  5-MIN KAQV 180030Z AUTO 18003KT 10SM VCTS CLR 29/23 A3007 240 67 2000 170/03 RMK AO2 TSE27 T02940228
03949KAQV AQV20160717183511407/17/16 18:35:31  5-MIN KAQV 180035Z AUTO 18003KT 10SM CLR 29/23 A3007 240 67 2000 180/03 RMK AO2 TSE27 T02940228
03949KAQV AQV20160717184011407/17/16 18:40:31  5-MIN KAQV 180040Z AUTO 18003KT 10SM CLR 29/23 A3007 240 67 2000 170/03 RMK AO2 TSE27 T02940228
03949KAQV AQV20160717184511407/17/16 18:45:31  5-MIN KAQV 180045Z AUTO 00000KT 10SM CLR 29/23 A3007 240 67 2000 000/00 RMK AO2 TSE27 T02940228
03949KAQV AQV20160717185012107/17/16 18:50:31  5-MIN KAQV 180050Z AUTO 00000KT 10SM CLR 29/23 A3007 240 67 2000 000/00 RMK AO2 TSE27 SLP179 T02940228
03949KAQV AQV20160717185512107/17/16 18:55:31  5-MIN KAQV 180055Z AUTO 00000KT 10SM CLR 27/23 A3007 240 76 1700 000/00 RMK AO2 TSE27 SLP180 T02720228
03949KAQV AQV20160717190010807/17/16 19:00:31  5-MIN KAQV 180100Z AUTO 21005KT 10SM CLR 28/23 A3007 240 71 1900 200/05 RMK AO2 T02830228
03949KAQV AQV20160717190510807/17/16 19:05:31  5-MIN KAQV 180105Z AUTO VRB03KT 10SM CLR 28/23 A3007 230 71 1900 VRB/03 RMK AO2 T02830228
03949KAQV AQV20160717191010807/17/16 19:10:31  5-MIN KAQV 180110Z AUTO 19003KT 10SM CLR 28/23 A3007 230 74 1900 180/03 RMK AO2 T02830233
03949KAQV AQV20160717191510807/17/16 19:15:31  5-MIN KAQV 180115Z AUTO 19003KT 10SM CLR 28/23 A3008 230 74 1900 180/03 RMK AO2 T02830233
03949KAQV AQV20160717192010807/17/16 19:20:31  5-MIN KAQV 180120Z AUTO 20003KT 10SM CLR 28/23 A3008 230 76 1800 200/03 RMK AO2 T02780233
03949KAQV AQV20160717192510807/17/16 19:25:31  5-MIN KAQV 180125Z AUTO 19003KT 10SM CLR 28/23 A3008 230 76 1800 180/03 RMK AO2 T02780233
03949KAQV AQV20160717193010807/17/16 19:30:31  5-MIN KAQV 180130Z AUTO 20003KT 10SM CLR 28/23 A3008 230 76 1800 190/03 RMK AO2 T02780233
03949KAQV AQV20160717193510807/17/16 19:35:31  5-MIN KAQV 180135Z AUTO 19003KT 10SM CLR 26/23 A3008 230 87 1500 190/03 RMK AO2 T02560233
03949KAQV AQV20160717194010807/17/16 19:40:31  5-MIN KAQV 180140Z AUTO 00000KT 10SM CLR 25/23 A3008 230 90 1500 000/00 RMK AO2 T02500233
03949KAQV AQV20160717194510807/17/16 19:45:31  5-MIN KAQV 180145Z AUTO VRB03KT 10SM CLR 25/23 A3008 230 90 1500 VRB/03 RMK AO2 T02500233
03949KAQV AQV20160717195010707/17/16 19:50:31  5-MIN KAQV 180150Z AUTO 00000KT 10SM TS CLR 25/23 A3008 230 90 1500 000/00 RMK AO2 TSB48
03949KAQV AQV20160717195512407/17/16 19:55:31  5-MIN KAQV 180155Z AUTO 00000KT 10SM TS CLR 25/23 A3008 230 90 1500 000/00 RMK AO2 TSB48 SLP183 T02500233
03949KAQV AQV20160717200011107/17/16 20:00:31  5-MIN KAQV 180200Z AUTO 00000KT 10SM TS CLR 25/23 A3008 230 90 1500 000/00 RMK AO2 T02500233
03949KAQV AQV20160717200511407/17/16 20:05:31  5-MIN KAQV 180205Z AUTO 00000KT 10SM CLR 25/23 A3009 220 90 1500 000/00 RMK AO2 TSE05 T02500233
03949KAQV AQV20160717201011407/17/16 20:10:31  5-MIN KAQV 180210Z AUTO 18003KT 10SM CLR 25/24 A3008 230 93 1500 180/03 RMK AO2 TSE05 T02500239
03949KAQV AQV20160718232010707/18/16 23:20:31  5-MIN KAQV 190520Z AUTO 00000KT 8SM CLR 23/23 A3014 180 97 1200 000/00 RMK AO2 T02330228
03949KAQV AQV20160718232510707/18/16 23:25:31  5-MIN KAQV 190525Z AUTO 00000KT 8SM CLR 23/23 A3014 180 97 1200 000/00 RMK AO2 T02330228
03949KAQV AQV20160718233010707/18/16 23:30:31  5-MIN KAQV 190530Z AUTO 00000KT 7SM CLR 23/23 A3014 180 97 1200 000/00 RMK AO2 T02330228
03949KAQV AQV20160718233510707/18/16 23:35:31  5-MIN KAQV 190535Z AUTO 00000KT 7SM CLR 23/23 A3013 180 97 1200 000/00 RMK AO2 T02330228
03949KAQV AQV20160718234010707/18/16 23:40:31  5-MIN KAQV 190540Z AUTO 00000KT 7SM CLR 23/23 A3013 180 97 1200 000/00 RMK AO2 T02330228
03949KAQV AQV20160718234510707/18/16 23:45:31  5-MIN KAQV 190545Z AUTO 00000KT 7SM CLR 23/23 A3014 180 97 1200 000/00 RMK AO2 T02330228
03949KAQV AQV20160718235014207/18/16 23:50:31  5-MIN KAQV 190550Z AUTO 00000KT 8SM CLR 23/22 A3014 180 93 1200 000/00 RMK AO2 SLP202 T02330222 10250 20228 403390222 53004
03949KAQV AQV20160718235514207/18/16 23:55:31  5-MIN KAQV 190555Z AUTO 00000KT 8SM CLR 23/22 A3014 180 93 1200 000/00 RMK AO2 SLP201 T02330222 10250 20228 403390222 53004
03949KAQV AQV20160719000010707/19/16 00:00:31  5-MIN KAQV 190600Z AUTO 00000KT 7SM CLR 23/22 A3014 170 93 1200 000/00 RMK AO2 T02330222
03949KAQV AQV20160719000510707/19/16 00:05:31  5-MIN KAQV 190605Z AUTO 00000KT 8SM CLR 23/22 A3014 170 93 1200 000/00 RMK AO2 T02330222
03949KAQV AQV20160719001010707/19/16 00:10:31  5-MIN KAQV 190610Z AUTO 00000KT 8SM CLR 23/22 A3014 170 93 1200 000/00 RMK AO2 T02330222
03949KAQV AQV20160719001510707/19/16 00:15:31  5-MIN KAQV 190615Z AUTO 00000KT 8SM CLR 23/22 A3014 170 93 1200 000/00 RMK AO2 T02330222
03949KAQV AQV20160719002010707/19/16 00:20:31  5-MIN KAQV 190620Z AUTO 00000KT 8SM CLR 23/22 A3014 170 93 1200 000/00 RMK AO2 T02330222
03949KAQV AQV20160719002510707/19/16 00:25:31  5-MIN KAQV 190625Z AUTO 00000KT 7SM CLR 23/22 A3014 170 93 1200 000/00 RMK AO2 T02330222
03949KAQV AQV20160719003010707/19/16 00:30:31  5-MIN KAQV 190630Z AUTO 00000KT 7SM CLR 23/22 A3014 170 97 1200 000/00 RMK AO2 T02280222
03949KAQV AQV20160719003510707/19/16 00:35:31  5-MIN KAQV 190635Z AUTO 00000KT 7SM CLR 23/22 A3014 170 93 1200 000/00 RMK AO2 T02330222
03949KAQV AQV20160719004010707/19/16 00:40:31  5-MIN KAQV 190640Z AUTO 00000KT 8SM CLR 23/22 A3014 170 97 1200 000/00 RMK AO2 T02280222
03949KAQV AQV20160719004510707/19/16 00:45:31  5-MIN KAQV 190645Z AUTO 00000KT 8SM CLR 23/22 A3014 170 97 1200 000/00 RMK AO2 T02280222
03949KAQV AQV20160719005011407/19/16 00:50:31  5-MIN KAQV 190650Z AUTO 00000KT 7SM CLR 23/22 A3014 170 97 1200 000/00 RMK AO2 SLP203 T02280222
03949KAQV AQV20160719005511407/19/16 00:55:31  5-MIN KAQV 190655Z AUTO 00000KT 7SM CLR 23/22 A3014 180 97 1200 000/00 RMK AO2 SLP203 T02280222
03949KAQV AQV20160719010010707/19/16 01:00:31  5-MIN KAQV 190700Z AUTO 00000KT 8SM CLR 23/22 A3014 180 93 1200 000/00 RMK AO2 T02330222
03949KAQV AQV20160719010510707/19/16 01:05:31  5-MIN KAQV 190705Z AUTO 00000KT 9SM CLR 23/22 A3014 180 93 1200 000/00 RMK AO2 T02330222
03949KAQV AQV20160719011010707/19/16 01:10:31  5-MIN KAQV 190710Z AUTO 00000KT 8SM CLR 23/22 A3014 170 97 1200 000/00 RMK AO2 T02280222
03949KAQV AQV20160719011511007/19/16 01:15:31  5-MIN KAQV 190715Z AUTO 00000KT 6SM BR CLR 23/22 A3014 170 97 1200 000/00 RMK AO2 T02280222
03949KAQV AQV20160719012011007/19/16 01:20:31  5-MIN KAQV 190720Z AUTO 00000KT 6SM BR CLR 23/22 A3014 170 97 1200 000/00 RMK AO2 T02280222
03949KAQV AQV20160719012510707/19/16 01:25:31  5-MIN KAQV 190725Z AUTO 00000KT 7SM CLR 23/22 A3014 170 97 1200 000/00 RMK AO2 T02280222
03949KAQV AQV20160719013010707/19/16 01:30:31  5-MIN KAQV 190730Z AUTO 00000KT 7SM CLR 23/22 A3014 170 97 1200 000/00 RMK AO2 T02280222
03949KAQV AQV20160719013510707/19/16 01:35:31  5-MIN KAQV 190735Z AUTO 00000KT 7SM CLR 23/22 A3014 170 97 1200 000/00 RMK AO2 T02280222
03949KAQV AQV20160719014010707/19/16 01:40:31  5-MIN KAQV 190740Z AUTO 00000KT 8SM CLR 23/22 A3014 180 97 1200 000/00 RMK AO2 T02280222
03949KAQV AQV20160719014510707/19/16 01:45:31  5-MIN KAQV 190745Z AUTO 00000KT 8SM CLR 23/22 A3014 180 97 1200 000/00 RMK AO2 T02280222
03949KAQV AQV20160719015011407/19/16 01:50:31  5-MIN KAQV 190750Z AUTO 00000KT 7SM CLR 23/22 A3013 180 97 1200 000/00 RMK AO2 SLP202 T02280222
03949KAQV AQV20160719015511407/19/16 01:55:31  5-MIN KAQV 190755Z AUTO 00000KT 7SM CLR 23/22 A3014 180 97 1200 000/00 RMK AO2 SLP202 T02280222
03949KAQV AQV20160719020010707/19/16 02:00:31  5-MIN KAQV 190800Z AUTO 00000KT 7SM CLR 23/22 A3014 180 97 1200 000/00 RMK AO2 T02280222
03949KAQV AQV20160719020510707/19/16 02:05:31  5-MIN KAQV 190805Z AUTO 00000KT 7SM CLR 23/22 A3014 180 97 1200 000/00 RMK AO2 T02280222
03949KAQV AQV20160719021010707/19/16 02:10:31  5-MIN KAQV 190810Z AUTO 00000KT 7SM CLR 23/22 A3014 180 97 1200 000/00 RMK AO2 T02280222
03949KAQV AQV20160719021510707/19/16 02:15:31  5-MIN KAQV 190815Z AUTO 00000KT 7SM CLR 23/22 A3014 180 97 1200 000/00 RMK AO2 T02280222
03949KAQV AQV20160719022010707/19/16 02:20:31  5-MIN KAQV 190820Z AUTO 00000KT 7SM CLR 23/22 A3014 180 97 1200 000/00 RMK AO2 T02280222
03949KAQV AQV20160719022510707/19/16 02:25:31  5-MIN KAQV 190825Z AUTO 00000KT 7SM CLR 23/22 A3014 180 97 1200 000/00 RMK AO2 T02280222
03949KAQV AQV20160719023010707/19/16 02:30:31  5-MIN KAQV 190830Z AUTO 00000KT 7SM CLR 23/22 A3014 170 97 1200 000/00 RMK AO2 T02280222
03949KAQV AQV20160719023510707/19/16 02:35:31  5-MIN KAQV 190835Z AUTO 00000KT 7SM CLR 23/22 A3014 170 97 1200 000/00 RMK AO2 T02280222
03949KAQV AQV20160719024011007/19/16 02:40:31  5-MIN KAQV 190840Z AUTO 00000KT 7SM FEW001 23/22 A3014 170 97 1200 000/00 RMK AO2 T02280222
03949KAQV AQV20160719024511007/19/16 02:45:31  5-MIN KAQV 190845Z AUTO 00000KT 7SM SCT001 23/22 A3014 170 93 1200 000/00 RMK AO2 T02280217
03949KAQV AQV20160719025010007/19/16 02:50:31  5-MIN KAQV 190850Z AUTO 00000KT 7SM BKN001 23/22 A3014 170 97 1200 000/00 RMK AO2
03949KAQV AQV20160719025512307/19/16 02:55:31  5-MIN KAQV 190855Z AUTO 00000KT 7SM BKN001 23/22 A3014 170 93 1200 000/00 RMK AO2 SLP205 T02280217 53002
03949KAQV AQV20160719030011307/19/16 03:00:31  5-MIN KAQV 190900Z AUTO 00000KT 5SM BR BKN002 23/22 A3014 170 93 1200 000/00 RMK AO2 T02280217
03949KAQV AQV20160719030511307/19/16 03:05:31  5-MIN KAQV 190905Z AUTO 00000KT 5SM BR BKN002 22/22 A3014 170 97 1100 000/00 RMK AO2 T02220217
03949KAQV AQV20160719031011307/19/16 03:10:31  5-MIN KAQV 190910Z AUTO 00000KT 3SM BR OVC002 22/22 A3015 170 97 1100 000/00 RMK AO2 T02220217
03949KAQV AQV20160719031511707/19/16 03:15:31  5-MIN KAQV 190915Z AUTO 00000KT 2 1/2SM BR OVC002 22/22 A3015 170 97 1100 000/00 RMK AO2 T02220217
03949KAQV AQV20160719032011707/19/16 03:20:31  5-MIN KAQV 190920Z AUTO 00000KT 2 1/2SM BR BKN003 22/22 A3015 170 97 1100 000/00 RMK AO2 T02220217
03949KAQV AQV20160719032511307/19/16 03:25:31  5-MIN KAQV 190925Z AUTO 00000KT 4SM BR BKN003 22/22 A3015 170 97 1100 000/00 RMK AO2 T02220217
03949KAQV AQV20160719033011307/19/16 03:30:31  5-MIN KAQV 190930Z AUTO 00000KT 6SM BR SCT003 22/22 A3014 170 97 1100 000/00 RMK AO2 T02220217
03949KAQV AQV20160719033511307/19/16 03:35:31  5-MIN KAQV 190935Z AUTO 00000KT 6SM BR SCT003 22/22 A3015 170 97 1100 000/00 RMK AO2 T02220217
03949KAQV AQV20160719034011007/19/16 03:40:31  5-MIN KAQV 190940Z AUTO 00000KT 7SM FEW003 22/22 A3015 170 97 1100 000/00 RMK AO2 T02220217
03949KAQV AQV20160719034511007/19/16 03:45:31  5-MIN KAQV 190945Z AUTO 00000KT 8SM FEW003 22/22 A3015 170 97 1100 000/00 RMK AO2 T02220217
03949KAQV AQV20160719035011407/19/16 03:50:31  5-MIN KAQV 190950Z AUTO 00000KT 8SM CLR 22/22 A3015 160 97 1100 000/00 RMK AO2 SLP207 T02220217
03949KAQV AQV20160719035511407/19/16 03:55:31  5-MIN KAQV 190955Z AUTO 00000KT 8SM CLR 22/22 A3015 160 97 1100 000/00 RMK AO2 SLP207 T02220217
03949KAQV AQV20160719040010707/19/16 04:00:31  5-MIN KAQV 191000Z AUTO 00000KT 8SM CLR 22/22 A3015 170 97 1100 000/00 RMK AO2 T02220217
03949KAQV AQV20160719040511307/19/16 04:05:31  5-MIN KAQV 191005Z AUTO 00000KT 3SM BR FEW002 22/21 A3015 170 97 1000 000/00 RMK AO2 T02170211
03949KAQV AQV20160719041011307/19/16 04:10:31  5-MIN KAQV 191010Z AUTO 00000KT 3SM BR SCT002 22/21 A3014 170 97 1000 000/00 RMK AO2 T02170211
03949KAQV AQV20160719041511307/19/16 04:15:31  5-MIN KAQV 191015Z AUTO 00000KT 5SM BR BKN002 22/21 A3015 170 97 1000 000/00 RMK AO2 T02170211
03949KAQV AQV20160719042011007/19/16 04:20:31  5-MIN KAQV 191020Z AUTO 00000KT 7SM BKN001 22/21 A3015 170 97 1000 000/00 RMK AO2 T02170211
03949KAQV AQV20160719042511007/19/16 04:25:31  5-MIN KAQV 191025Z AUTO 00000KT 8SM BKN001 22/21 A3015 170 97 1000 000/00 RMK AO2 T02170211
03949KAQV AQV20160719043011007/19/16 04:30:31  5-MIN KAQV 191030Z AUTO 00000KT 9SM OVC001 22/22 A3020 120 56 2000 160/04 RMK AO2 T03110217
03949KAQV AQV20160719101511107/19/16 10:15:31  5-MIN KAQV 191615Z AUTO 08005KT 10SM FEW029 31/23 A3021 110 60 2000 070/05 RMK AO2 T03110228
03949KAQV AQV20160719102011107/19/16 10:20:31  5-MIN KAQV 191620Z AUTO 00000KT 10SM FEW029 32/23 A3020 110 58 2100 000/00 RMK AO2 T03170228
03949KAQV AQV20160719102510807/19/16 10:25:31  5-MIN KAQV 191625Z AUTO 16004KT 10SM CLR 31/22 A3020 120 56 2000 160/04 RMK AO2 T03110217
03949KAQV AQV20160719103010807/19/16 10:30:31  5-MIN KAQV 191630Z AUTO VRB03KT 10SM CLR 32/22 A3020 110 55 2100 VRB/03 RMK AO2 T03170217
03949KAQV AQV20160719103511107/19/16 10:35:31  5-MIN KAQV 191635Z AUTO 00000KT 10SM FEW034 32/22 A3020 120 53 2200 000/00 RMK AO2 T03220217
03949KAQV AQV20160719103511107/19/16 10:35:31  5-MIN KAQV 191635Z AUTO 00000KT 10SM FEW034 32/22 A3020 120 55 2100 000/00 RMK AO2 T03170217
03949KAQV AQV20160719104011107/19/16 10:40:31  5-MIN KAQV 191640Z AUTO 04003KT 10SM SCT034 32/22 A3020 120 55 2100 030/03 RMK AO2 T03220222
03949KAQV AQV20160719104511107/19/16 10:45:31  5-MIN KAQV 191645Z AUTO 05006KT 10SM FEW034 32/22 A3020 120 55 2200 040/06 RMK AO2 T03220222
03949KAQV AQV20160719105011807/19/16 10:50:31  5-MIN KAQV 191650Z AUTO 16005KT 10SM FEW036 32/22 A3020 120 55 2200 160/05 RMK AO2 SLP222 T03220222
03949KAQV AQV20160719105017807/19/16 10:50:31  5-MIN KAQV 191650Z AUTO 16005KT 10SM FEW036 32/22 A3020 120 55 2200 160/05 RMK AO2 SLP222 T0322022207/19/16 10:55:31  5-MI 130 51 2200 VRB/05 RMK AO2 T03280217
03949KAQV AQV20160719105511807/19/16 10:55:31  5-MIN KAQV 191655Z AUTO VRB05KT 10SM FEW036 32/22 A3020 120 55 2200 VRB/05 RMK AO2 SLP222 T03220222
03949KAQV AQV20160719110011107/19/16 11:00:31  5-MIN KAQV 191700Z AUTO 00000KT 10SM FEW035 32/22 A3019 120 53 2200 000/00 RMK AO2 T03220217
03949KAQV AQV20160719110511107/19/16 11:05:31  5-MIN KAQV 191705Z AUTO VRB03KT 10SM FEW035 33/22 A3019 120 53 2200 VRB/03 RMK AO2 T03280222
03949KAQV AQV20160719111010807/19/16 11:10:31  5-MIN KAQV 191710Z AUTO VRB04KT 10SM CLR 33/22 A3019 130 50 2300 VRB/04 RMK AO2 T03330217
03949KAQV AQV20160719111510807/19/16 11:15:31  5-MIN KAQV 191715Z AUTO VRB05KT 10SM CLR 33/22 A3019 130 51 2200 VRB/05 RMK AO2 T03280217
03949KAQV AQV20160719112010807/19/16 11:20:31  5-MIN KAQV 191720Z AUTO VRB03KT 10SM CLR 33/22 A3019 130 51 2200 VRB/03 RMK AO2 T03280217
03949KAQV AQV20160719112511107/19/16 11:25:31  5-MIN KAQV 191725Z AUTO 08005KT 10SM FEW039 33/22 A3019 130 53 2200 070/05 RMK AO2 T03280222
03949KAQV AQV20160719113010807/19/16 11:30:31  5-MIN KAQV 191730Z AUTO VRB03KT 10SM CLR 32/22 A3018 130 55 2200 VRB/03 RMK AO2 T03220222
03949KAQV AQV20160719113509807/19/16 11:35:31  5-MIN KAQV 191735Z AUTO 10SM CLR 32/22 A3018 140 53 2200 M /M RMK AO2 T03220217
03949KAQV AQV20160719114011107/19/16 11:40:31  5-MIN KAQV 191740Z AUTO VRB03KT 10SM FEW040 33/22 A3018 140 53 2200 VRB/03 RMK AO2 T03280222
03949KAQV AQV20160719114511107/19/16 11:45:31  5-MIN KAQV 191745Z AUTO 06006KT 10SM FEW040 33/22 A3018 140 51 2200 060/06 RMK AO2 T03280217
03949KAQV AQV20160719115013607/19/16 11:50:31  5-MIN KAQV 191750Z AUTO VRB03KT 10SM FEW040 33/22 A3018 140 51 2200 VRB/03 RMK AO2 SLP216 T03280217 10333 20222 50011
03949KAQV AQV20160719115513607/19/16 11:55:31  5-MIN KAQV 191755Z AUTO 06005KT 10SM FEW040 33/22 A3018 140 53 2200 060/05 RMK AO2 SLP216 T03280222 10333 20222 50011
03949KAQV AQV20160719120011107/19/16 12:00:31  5-MIN KAQV 191800Z AUTO VRB03KT 10SM FEW040 33/22 A3018 140 51 2200 VRB/03 RMK AO2 T03280217
03949KAQV AQV20160719120511107/19/16 12:05:31  5-MIN KAQV 191805Z AUTO VRB03KT 10SM FEW040 33/22 A3017 140 51 2300 VRB/03 RMK AO2 T03330222
03949KAQV AQV20160719121010807/19/16 12:10:31  5-MIN KAQV 191810Z AUTO VRB04KT 10SM CLR 33/22 A3017 140 51 2300 VRB/04 RMK AO2 T03330222
03949KAQV AQV20160719121510807/19/16 12:15:31  5-MIN KAQV 191815Z AUTO 07007KT 10SM CLR 33/22 A3017 140 51 2200 070/07 RMK AO2 T03280217
03949KAQV AQV20160719122010807/19/16 12:20:31  5-MIN KAQV 191820Z AUTO VRB05KT 10SM CLR 33/22 A3017 150 50 2300 VRB/05 RMK AO2 T03330217
03949KAQV AQV20160719122510807/19/16 12:25:31  5-MIN KAQV 191825Z AUTO VRB03KT 10SM CLR 33/22 A3017 140 50 2300 VRB/03 RMK AO2 T03330217
03949KAQV AQV20160719123010807/19/16 12:30:31  5-MIN KAQV 191830Z AUTO VRB03KT 10SM CLR 33/22 A3017 150 50 2300 VRB/03 RMK AO2 T03330217
03949KAQV AQV20160719123510807/19/16 12:35:31  5-MIN KAQV 191835Z AUTO VRB04KT 10SM CLR 33/22 A3017 150 50 2300 VRB/04 RMK AO2 T03330217
03949KAQV AQV20160719124011107/19/16 12:40:31  5-MIN KAQV 191840Z AUTO VRB05KT 10SM FEW042 33/22 A3017 150 51 2300 VRB/05 RMK AO2 T03330222
03949KAQV AQV20160719124511807/19/16 12:45:31  5-MIN KAQV 191845Z AUTO VRB05KT 10SM FEW042 FEW065 33/22 A3017 140 51 2200 VRB/05 RMK AO2 T03280217
03949KAQV AQV20160719125012507/19/16 12:50:31  5-MIN KAQV 191850Z AUTO VRB04KT 10SM FEW042 FEW065 32/22 A3017 140 55 2200 VRB/04 RMK AO2 SLP214 T03220222
03949KAQV AQV20160719125511807/19/16 12:55:31  5-MIN KAQV 191855Z AUTO VRB03KT 10SM FEW042 33/22 A3017 150 50 2300 VRB/03 RMK AO2 SLP213 T03330217
03949KAQV AQV20160719130011107/19/16 13:00:31  5-MIN KAQV 191900Z AUTO 00000KT 10SM SCT045 33/22 A3017 150 50 2300 000/00 RMK AO2 T03330217
03949KAQV AQV20160719130511107/19/16 13:05:31  5-MIN KAQV 191905Z AUTO VRB05KT 10SM SCT045 34/22 A3017 150 50 2400 VRB/05 RMK AO2 T03390222
03949KAQV AQV20160719131011107/19/16 13:10:31  5-MIN KAQV 191910Z AUTO VRB04KT 10SM FEW045 34/22 A3017 150 48 2400 VRB/04 RMK AO2 T03390217
03949KAQV AQV20160719131511107/19/16 13:15:31  5-MIN KAQV 191915Z AUTO VRB06KT 10SM FEW045 34/21 A3017 150 45 2400 VRB/06 RMK AO2 T03390206
03949KAQV AQV20160719132011107/19/16 13:20:31  5-MIN KAQV 191920Z AUTO VRB04KT 10SM FEW047 34/21 A3016 150 45 2400 VRB/04 RMK AO2 T03390206
03949KAQV AQV20160719132511107/19/16 13:25:31  5-MIN KAQV 191925Z AUTO VRB05KT 10SM FEW047 34/20 A3016 150 42 2400 VRB/05 RMK AO2 T03440200
03949KAQV AQV20160719133010807/19/16 13:30:31  5-MIN KAQV 191930Z AUTO 00000KT 10SM CLR 34/21 A3016 160 45 2400 000/00 RMK AO2 T03390206
03949KAQV AQV20160719133511107/19/16 13:35:31  5-MIN KAQV 191935Z AUTO VRB04KT 10SM FEW055 34/21 A3016 160 46 2400 VRB/04 RMK AO2 T03390211
03949KAQV AQV20160719134011107/19/16 13:40:31  5-MIN KAQV 191940Z AUTO VRB03KT 10SM FEW050 34/21 A3015 160 45 2400 VRB/03 RMK AO2 T03390206
03949KAQV AQV20160719134510107/19/16 13:45:31  5-MIN KAQV 191945Z AUTO 10SM FEW050 34/20 A3015 170 43 2400 M /M RMK AO2 T03390200
03949KAQV AQV20160719135011807/19/16 13:50:31  5-MIN KAQV 191950Z AUTO VRB03KT 10SM FEW050 34/20 A3015 170 42 2500 VRB/03 RMK AO2 SLP204 T03440200
03949KAQV AQV20160719135511807/19/16 13:55:31  5-MIN KAQV 191955Z AUTO 06005KT 10SM FEW050 34/20 A3014 170 43 2400 060/05 RMK AO2 SLP204 T03390200
03949KAQV AQV20160719140011107/19/16 14:00:31  5-MIN KAQV 192000Z AUTO VRB04KT 10SM FEW050 34/20 A3014 170 43 2400 VRB/04 RMK AO2 T03390200
03949KAQV AQV20160719140510807/19/16 14:05:31  5-MIN KAQV 192005Z AUTO VRB05KT 10SM CLR 34/20 A3014 170 42 2500 VRB/05 RMK AO2 T03440200
03949KAQV AQV20160719141010807/19/16 14:10:31  5-MIN KAQV 192010Z AUTO VRB04KT 10SM CLR 34/20 A3014 170 42 2500 VRB/04 RMK AO2 T03440200
03949KAQV AQV20160719141510807/19/16 14:15:31  5-MIN KAQV 192015Z AUTO VRB05KT 10SM CLR 34/20 A3014 180 42 2500 VRB/05 RMK AO2 T03440200
03949KAQV AQV20160719142010807/19/16 14:20:31  5-MIN KAQV 192020Z AUTO VRB04KT 10SM CLR 34/20 A3013 180 43 2400 VRB/04 RMK AO2 T03390200
03949KAQV AQV20160719142510807/19/16 14:25:31  5-MIN KAQV 192025Z AUTO 08006KT 10SM CLR 34/20 A3013 180 42 2500 070/06 RMK AO2 T03440200
03949KAQV AQV20160719143010807/19/16 14:30:31  5-MIN KAQV 192030Z AUTO VRB03KT 10SM CLR 34/21 A3013 180 43 2500 VRB/03 RMK AO2 T03440206
03949KAQV AQV20160719143509807/19/16 14:35:31  5-MIN KAQV 192035Z AUTO 10SM CLR 35/21 A3013 180 42 2500 M /M RMK AO2 T03500206
03949KAQV AQV20160719144010807/19/16 14:40:31  5-MIN KAQV 192040Z AUTO VRB05KT 10SM CLR 34/21 A3013 180 45 2400 VRB/05 RMK AO2 T03390206
03949KAQV AQV20160719144510807/19/16 14:45:31  5-MIN KAQV 192045Z AUTO 00000KT 10SM CLR 34/20 A3013 180 42 2500 000/00 RMK AO2 T03440200
03949KAQV AQV20160719145012107/19/16 14:50:31  5-MIN KAQV 192050Z AUTO VRB04KT 10SM CLR 34/21 A3013 180 43 2500 VRB/04 RMK AO2 SLP198 T03440206 57017
03949KAQV AQV20160719145512107/19/16 14:55:31  5-MIN KAQV 192055Z AUTO VRB03KT 10SM CLR 34/21 A3013 180 43 2500 VRB/03 RMK AO2 SLP198 T03440206 57017
03949KAQV AQV20160719150010807/19/16 15:00:31  5-MIN KAQV 192100Z AUTO VRB03KT 10SM CLR 34/21 A3013 190 43 2500 VRB/03 RMK AO2 T03440206
03949KAQV AQV20160719150511107/19/16 15:05:31  5-MIN KAQV 192105Z AUTO VRB03KT 10SM FEW050 35/21 A3012 190 43 2500 VRB/03 RMK AO2 T03500211
03949KAQV AQV20160719151011107/19/16 15:10:31  5-MIN KAQV 192110Z AUTO VRB04KT 10SM FEW050 34/21 A3012 190 46 2400 VRB/04 RMK AO2 T03390211
03949KAQV AQV20160719151511107/19/16 15:15:31  5-MIN KAQV 192115Z AUTO VRB05KT 10SM FEW050 34/21 A3012 190 45 2500 VRB/05 RMK AO2 T03440211
03949KAQV AQV20160719152011107/19/16 15:20:31  5-MIN KAQV 192120Z AUTO 00000KT 10SM FEW050 34/21 A3012 190 45 2500 000/00 RMK AO2 T03440211
03949KAQV AQV20160719152511107/19/16 15:25:31  5-MIN KAQV 192125Z AUTO VRB03KT 10SM FEW050 34/21 A3012 190 45 2500 VRB/03 RMK AO2 T03440211
03949KAQV AQV20160719153011107/19/16 15:30:31  5-MIN KAQV 192130Z AUTO VRB05KT 10SM FEW050 34/21 A3012 190 45 2500 VRB/05 RMK AO2 T03440211
03949KAQV AQV20160719153511807/19/16 15:35:31  5-MIN KAQV 192135Z AUTO 19004KT 10SM FEW050 FEW090 34/21 A3012 190 45 2500 190/04 RMK AO2 T03440211
03949KAQV AQV20160719154011807/19/16 15:40:31  5-MIN KAQV 192140Z AUTO VRB03KT 10SM SCT050 SCT090 34/22 A3012 190 46 2500 VRB/03 RMK AO2 T03440217
03949KAQV AQV20160719154512507/19/16 15:45:31  5-MIN KAQV 192145Z AUTO VRB04KT 10SM SCT050 BKN060 BKN090 35/22 A3012 190 45 2500 VRB/04 RMK AO2 T03500217
03949KAQV AQV20160719155013207/19/16 15:50:31  5-MIN KAQV 192150Z AUTO VRB04KT 10SM SCT049 SCT060 BKN090 34/22 A3012 190 48 2400 VRB/04 RMK AO2 SLP196 T03390217
03949KAQV AQV20160719155513207/19/16 15:55:31  5-MIN KAQV 192155Z AUTO 00000KT 10SM FEW049 SCT060 BKN090 34/22 A3012 190 48 2400 000/00 RMK AO2 SLP196 T03390217
03949KAQV AQV20160719160012507/19/16 16:00:31  5-MIN KAQV 192200Z AUTO 10005KT 10SM SCT049 SCT060 BKN090 35/22 A3012 200 47 2500 100/05 RMK AO2 T03500222
03949KAQV AQV20160719160512507/19/16 16:05:31  5-MIN KAQV 192205Z AUTO VRB03KT 10SM SCT049 SCT060 BKN090 33/22 A3011 200 51 2400 VRB/03 RMK AO2 T03330222
03949KAQV AQV20160719161012507/19/16 16:10:31  5-MIN KAQV 192210Z AUTO VRB04KT 10SM FEW049 FEW060 BKN090 34/22 A3011 200 50 2400 VRB/04 RMK AO2 T03390222
03949KAQV AQV20160719161511807/19/16 16:15:31  5-MIN KAQV 192215Z AUTO VRB04KT 10SM FEW049 SCT090 34/22 A3011 200 48 2400 VRB/04 RMK AO2 T03390217
03949KAQV AQV20160719162011807/19/16 16:20:31  5-MIN KAQV 192220Z AUTO 00000KT 10SM FEW050 FEW085 34/21 A3010 210 46 2400 000/00 RMK AO2 T03390211
03949KAQV AQV20160719162511107/19/16 16:25:31  5-MIN KAQV 192225Z AUTO VRB04KT 10SM FEW050 34/21 A3010 210 45 2500 VRB/04 RMK AO2 T03440211
03949KAQV AQV20160719163011107/19/16 16:30:31  5-MIN KAQV 192230Z AUTO VRB04KT 10SM FEW050 34/22 A3010 210 46 2500 VRB/04 RMK AO2 T03440217
03949KAQV AQV20160719163512707/19/16 16:35:31  5-MIN KAQV 192235Z AUTO 15007KT 100V180 10SM SCT050 33/22 A3011 210 51 2400 140/07 100V180 RMK AO2 T03330222
03949KAQV AQV20160719164011107/19/16 16:40:31  5-MIN KAQV 192240Z AUTO 17005KT 10SM SCT049 32/23 A3010 210 58 2200 170/05 RMK AO2 T03170228
03949KAQV AQV20160719164511107/19/16 16:45:31  5-MIN KAQV 192245Z AUTO VRB03KT 10SM FEW049 33/23 A3010 210 55 2300 VRB/03 RMK AO2 T03280228
03949KAQV AQV20160719165011807/19/16 16:50:31  5-MIN KAQV 192250Z AUTO VRB04KT 10SM FEW049 33/23 A3010 210 55 2300 VRB/04 RMK AO2 SLP188 T03280228
03949KAQV AQV20160719165512407/19/16 16:55:31  5-MIN KAQV 192255Z AUTO 18009G14KT 10SM FEW049 32/23 A3010 210 59 2300 180/09G14 RMK AO2 SLP189 T03220233
03949KAQV AQV20160719170011707/19/16 17:00:31  5-MIN KAQV 192300Z AUTO VRB05G14KT 10SM FEW049 32/23 A3010 210 58 2200 VRB/05G14 RMK AO2 T03170228
03949KAQV AQV20160719170510807/19/16 17:05:31  5-MIN KAQV 192305Z AUTO VRB03KT 10SM CLR 32/23 A3010 210 61 2200 VRB/03 RMK AO2 T03170233
03949KAQV AQV20160719171010807/19/16 17:10:31  5-MIN KAQV 192310Z AUTO 17006KT 10SM CLR 32/24 A3010 210 63 2200 160/06 RMK AO2 T03170239
03949KAQV AQV20160719171510807/19/16 17:15:31  5-MIN KAQV 192315Z AUTO VRB04KT 10SM CLR 32/24 A3009 220 63 2200 VRB/04 RMK AO2 T03170239
03949KAQV AQV20160719172010807/19/16 17:20:31  5-MIN KAQV 192320Z AUTO VRB04KT 10SM CLR 31/23 A3009 220 60 2100 VRB/04 RMK AO2 T03110228
03949KAQV AQV20160719172510807/19/16 17:25:31  5-MIN KAQV 192325Z AUTO VRB04KT 10SM CLR 31/23 A3009 220 63 2200 VRB/04 RMK AO2 T03110233
03949KAQV AQV20160719173010807/19/16 17:30:31  5-MIN KAQV 192330Z AUTO 17006KT 10SM CLR 31/23 A3009 220 60 2200 160/06 RMK AO2 T03110228
03949KAQV AQV20160719173510807/19/16 17:35:31  5-MIN KAQV 192335Z AUTO 19004KT 10SM CLR 31/23 A3009 220 60 2100 180/04 RMK AO2 T03110228
03949KAQV AQV20160719174010807/19/16 17:40:31  5-MIN KAQV 192340Z AUTO VRB06KT 10SM CLR 31/23 A3009 220 63 2100 VRB/06 RMK AO2 T03110233
03949KAQV AQV20160719174510807/19/16 17:45:31  5-MIN KAQV 192345Z AUTO 18004KT 10SM CLR 31/23 A3009 220 63 2100 170/04 RMK AO2 T03110233
03949KAQV AQV20160719175013307/19/16 17:50:31  5-MIN KAQV 192350Z AUTO VRB03KT 10SM CLR 31/23 A3010 210 65 2100 VRB/03 RMK AO2 SLP188 T03060233 10350 20306 58016
03949KAQV AQV20160719175513307/19/16 17:55:31  5-MIN KAQV 192355Z AUTO VRB04KT 10SM CLR 31/23 A3010 210 63 2100 VRB/04 RMK AO2 SLP189 T03110233 10350 20306 58016
03949KAQV AQV20160719180010807/19/16 18:00:31  5-MIN KAQV 200000Z AUTO VRB05KT 10SM CLR 31/23 A3010 220 63 2100 VRB/05 RMK AO2 T03110233
03949KAQV AQV20160719180510807/19/16 18:05:31  5-MIN KAQV 200005Z AUTO 17004KT 10SM CLR 31/23 A3010 210 62 2100 170/04 RMK AO2 T03060228
03949KAQV AQV20160719181010807/19/16 18:10:31  5-MIN KAQV 200010Z AUTO 19006KT 10SM CLR 31/23 A3010 210 65 2100 180/06 RMK AO2 T03060233
03949KAQV AQV20160719181510807/19/16 18:15:31  5-MIN KAQV 200015Z AUTO 18005KT 10SM CLR 30/23 A3009 220 67 2000 180/05 RMK AO2 T03000233
03949KAQV AQV20160719182010807/19/16 18:20:31  5-MIN KAQV 200020Z AUTO VRB05KT 10SM CLR 30/23 A3010 210 65 2000 VRB/05 RMK AO2 T03000228
03949KAQV AQV20160719182510807/19/16 18:25:31  5-MIN KAQV 200025Z AUTO 19004KT 10SM CLR 30/23 A3010 210 65 2000 180/04 RMK AO2 T03000228
03949KAQV AQV20160719183010807/19/16 18:30:31  5-MIN KAQV 200030Z AUTO 18005KT 10SM CLR 30/23 A3010 210 65 2000 180/05 RMK AO2 T03000228
03949KAQV AQV20160719183510807/19/16 18:35:31  5-MIN KAQV 200035Z AUTO 17004KT 10SM CLR 30/23 A3010 210 65 2000 170/04 RMK AO2 T03000228
03949KAQV AQV20160719184010807/19/16 18:40:31  5-MIN KAQV 200040Z AUTO VRB03KT 10SM CLR 29/23 A3011 200 67 1900 VRB/03 RMK AO2 T02940228
03949KAQV AQV20160719184510807/19/16 18:45:31  5-MIN KAQV 200045Z AUTO 16004KT 10SM CLR 29/23 A3010 210 67 2000 160/04 RMK AO2 T02940228
03949KAQV AQV20160719185011507/19/16 18:50:31  5-MIN KAQV 200050Z AUTO 00000KT 10SM CLR 29/23 A3011 200 67 1900 000/00 RMK AO2 SLP191 T02940228
03949KAQV AQV20160719185511507/19/16 18:55:31  5-MIN KAQV 200055Z AUTO 17005KT 10SM CLR 29/23 A3011 200 69 1900 160/05 RMK AO2 SLP192 T02890228
03949KAQV AQV20160719190010807/19/16 19:00:31  5-MIN KAQV 200100Z AUTO VRB03KT 10SM CLR 29/23 A3011 200 69 1900 VRB/03 RMK AO2 T02890228
03949KAQV AQV20160719190510807/19/16 19:05:31  5-MIN KAQV 200105Z AUTO 17003KT 10SM CLR 28/23 A3011 200 74 1800 160/03 RMK AO2 T02780228
03949KAQV AQV20160719191010807/19/16 19:10:31  5-MIN KAQV 200110Z AUTO 17003KT 10SM CLR 27/23 A3011 200 79 1600 160/03 RMK AO2 T02670228
03949KAQV AQV20160719191510807/19/16 19:15:31  5-MIN KAQV 200115Z AUTO 18003KT 10SM CLR 28/23 A3011 210 74 1800 180/03 RMK AO2 T02780228
03949KAQV AQV20160719192010807/19/16 19:20:31  5-MIN KAQV 200120Z AUTO 18003KT 10SM CLR 27/23 A3011 200 79 1700 180/03 RMK AO2 T02720233
03949KAQV AQV20160719192510807/19/16 19:25:31  5-MIN KAQV 200125Z AUTO 00000KT 10SM CLR 27/23 A3011 200 79 1700 000/00 RMK AO2 T02720233
03949KAQV AQV20160719193010807/19/16 19:30:31  5-MIN KAQV 200130Z AUTO 00000KT 10SM CLR 27/23 A3011 200 79 1700 000/00 RMK AO2 T02720233
03949KAQV AQV20160719193510807/19/16 19:35:31  5-MIN KAQV 200135Z AUTO 18003KT 10SM CLR 27/23 A3011 200 79 1700 180/03 RMK AO2 T02720233
03949KAQV AQV20160719194010807/19/16 19:40:31  5-MIN KAQV 200140Z AUTO 00000KT 10SM CLR 26/23 A3011 200 84 1600 000/00 RMK AO2 T02610233
03949KAQV AQV20160719194510807/19/16 19:45:31  5-MIN KAQV 200145Z AUTO 00000KT 10SM CLR 26/23 A3011 200 84 1600 000/00 RMK AO2 T02610233
03949KAQV AQV20160719195011507/19/16 19:50:31  5-MIN KAQV 200150Z AUTO 00000KT 10SM CLR 26/23 A3011 200 84 1600 000/00 RMK AO2 SLP192 T02610233
03949KAQV AQV20160719195511507/19/16 19:55:31  5-MIN KAQV 200155Z AUTO 00000KT 10SM CLR 26/23 A3011 200 84 1600 000/00 RMK AO2 SLP192 T02610233
03949KAQV AQV20160719200010807/19/16 20:00:31  5-MIN KAQV 200200Z AUTO 00000KT 10SM CLR 26/23 A3011 200 87 1500 000/00 RMK AO2 T02560233
03949KAQV AQV20160719200510807/19/16 20:05:31  5-MIN KAQV 200205Z AUTO 00000KT 10SM CLR 26/24 A3012 200 90 1500 000/00 RMK AO2 T02560239
03949KAQV AQV20160719201010807/19/16 20:10:31  5-MIN KAQV 200210Z AUTO 00000KT 10SM CLR 26/23 A3012 190 87 1500 000/00 RMK AO2 T02560233
03949KAQV AQV20160719201510807/19/16 20:15:31  5-MIN KAQV 200215Z AUTO 00000KT 10SM CLR 26/23 A3012 190 87 1500 000/00 RMK AO2 T02560233
03949KAQV AQV20160719202010807/19/16 20:20:31  5-MIN KAQV 200220Z AUTO 00000KT 10SM CLR 26/23 A3012 190 87 1500 000/00 RMK AO2 T02560233
03949KAQV AQV20160719202510807/19/16 20:25:31  5-MIN KAQV 200225Z AUTO 00000KT 10SM CLR 26/23 A3012 190 87 1500 000/00 RMK AO2 T02560233
03949KAQV AQV20160719203010807/19/16 20:30:31  5-MIN KAQV 200230Z AUTO 00000KT 10SM CLR 26/23 A3012 190 87 1500 000/00 RMK AO2 T02560233
03949KAQV AQV20160719203510807/19/16 20:35:31  5-MIN KAQV 200235Z AUTO 00000KT 10SM CLR 24/23 A3012 190 93 1400 000/00 RMK AO2 T02440233
03949KAQV AQV20160719204010807/19/16 20:40:31  5-MIN KAQV 200240Z AUTO 00000KT 10SM CLR 24/23 A3012 190 93 1400 000/00 RMK AO2 T02440233
03949KAQV AQV20160719204510807/19/16 20:45:31  5-MIN KAQV 200245Z AUTO 00000KT 10SM CLR 24/23 A3013 180 93 1400 000/00 RMK AO2 T02440233
03949KAQV AQV20160719205012107/19/16 20:50:31  5-MIN KAQV 200250Z AUTO 00000KT 10SM CLR 24/23 A3013 180 93 1400 000/00 RMK AO2 SLP200 T02440233 56011
03949KAQV AQV20160719205512107/19/16 20:55:31  5-MIN KAQV 200255Z AUTO 00000KT 10SM CLR 24/23 A3013 180 93 1300 000/00 RMK AO2 SLP200 T02390228 56011
03949KAQV AQV20160719210010807/19/16 21:00:31  5-MIN KAQV 200300Z AUTO 17003KT 10SM CLR 24/23 A3014 180 90 1400 160/03 RMK AO2 T02440228
03949KAQV AQV20160719210510807/19/16 21:05:31  5-MIN KAQV 200305Z AUTO 17003KT 10SM CLR 25/23 A3014 170 87 1400 170/03 RMK AO2 T02500228
03949KAQV AQV20160719211010807/19/16 21:10:31  5-MIN KAQV 200310Z AUTO 00000KT 10SM CLR 26/23 A3014 180 84 1500 000/00 RMK AO2 T02560228
03949KAQV AQV20160719211510807/19/16 21:15:31  5-MIN KAQV 200315Z AUTO 00000KT 10SM CLR 25/23 A3014 170 87 1400 000/00 RMK AO2 T02500228
03949KAQV AQV20160719212010807/19/16 21:20:31  5-MIN KAQV 200320Z AUTO 00000KT 10SM CLR 26/23 A3014 170 84 1500 000/00 RMK AO2 T02560228
03949KAQV AQV20160719212510807/19/16 21:25:31  5-MIN KAQV 200325Z AUTO 00000KT 10SM CLR 26/23 A3014 170 87 1500 000/00 RMK AO2 T02560233
03949KAQV AQV20160719213010807/19/16 21:30:31  5-MIN KAQV 200330Z AUTO 00000KT 10SM CLR 26/23 A3014 170 87 1500 000/00 RMK AO2 T02560233
03949KAQV AQV20160719213510807/19/16 21:35:31  5-MIN KAQV 200335Z AUTO 00000KT 10SM CLR 25/23 A3014 170 87 1400 000/00 RMK AO2 T02500228
03949KAQV AQV20160719214010807/19/16 21:40:31  5-MIN KAQV 200340Z AUTO 00000KT 10SM CLR 25/23 A3014 170 90 1400 000/00 RMK AO2 T02500233
03949KAQV AQV20160719214510807/19/16 21:45:31  5-MIN KAQV 200345Z AUTO 00000KT 10SM CLR 24/23 A3014 170 90 1300 000/00 RMK AO2 T02440228
03949KAQV AQV20160719215011507/19/16 21:50:31  5-MIN KAQV 200350Z AUTO 00000KT 10SM CLR 24/23 A3015 170 93 1300 000/00 RMK AO2 SLP204 T02440233
03949KAQV AQV20160719215511507/19/16 21:55:31  5-MIN KAQV 200355Z AUTO 00000KT 10SM CLR 24/23 A3014 170 90 1300 000/00 RMK AO2 SLP204 T02440228
03949KAQV AQV20160719220010807/19/16 22:00:31  5-MIN KAQV 200400Z AUTO 00000KT 10SM CLR 24/23 A3015 170 90 1300 000/00 RMK AO2 T02440228
03949KAQV AQV20160719220510807/19/16 22:05:31  5-MIN KAQV 200405Z AUTO 00000KT 10SM CLR 24/23 A3015 170 90 1300 000/00 RMK AO2 T02440228
03949KAQV AQV20160719221010807/19/16 22:10:31  5-MIN KAQV 200410Z AUTO 00000KT 10SM CLR 24/23 A3014 170 90 1300 000/00 RMK AO2 T02440228
03949KAQV AQV20160720171510807/20/16 17:15:31  5-MIN KAQV 202315Z AUTO 00000KT 10SM CLR 35/18 A3009 220 35 2600 000/00 RMK AO2 T03500178
03949KAQV AQV20160720172010807/20/16 17:20:31  5-MIN KAQV 202320Z AUTO 16004KT 10SM CLR 35/18 A3009 220 36 2600 160/04 RMK AO2 T03500183
03949KAQV AQV20160720172510807/20/16 17:25:31  5-MIN KAQV 202325Z AUTO 00000KT 10SM CLR 34/18 A3009 220 36 2500 000/00 RMK AO2 T03440178
03949KAQV AQV20160720173010807/20/16 17:30:31  5-MIN KAQV 202330Z AUTO 00000KT 10SM CLR 35/18 A3009 220 35 2600 000/00 RMK AO2 T03500178
03949KAQV AQV20160720173510807/20/16 17:35:31  5-MIN KAQV 202335Z AUTO 16003KT 10SM CLR 34/18 A3009 220 38 2500 160/03 RMK AO2 T03440183
03949KAQV AQV20160720174010807/20/16 17:40:31  5-MIN KAQV 202340Z AUTO 15004KT 10SM CLR 34/18 A3009 220 36 2500 140/04 RMK AO2 T03440178
03949KAQV AQV20160720174510807/20/16 17:45:31  5-MIN KAQV 202345Z AUTO VRB03KT 10SM CLR 34/18 A3009 220 38 2500 VRB/03 RMK AO2 T03440183
03949KAQV AQV20160720175013307/20/16 17:50:31  5-MIN KAQV 202350Z AUTO 18004KT 10SM CLR 34/19 A3009 220 39 2500 170/04 RMK AO2 SLP184 T03440189 10361 20333 56019
03949KAQV AQV20160720175513307/20/16 17:55:31  5-MIN KAQV 202355Z AUTO 00000KT 10SM CLR 34/19 A3009 220 40 2500 000/00 RMK AO2 SLP185 T03390189 10361 20333 56019
03949KAQV AQV20160720180010807/20/16 18:00:31  5-MIN KAQV 210000Z AUTO 15003KT 10SM CLR 34/19 A3009 220 40 2500 140/03 RMK AO2 T03390189
03949KAQV AQV20160720180510807/20/16 18:05:31  5-MIN KAQV 210005Z AUTO VRB03KT 10SM CLR 34/19 A3009 220 40 2500 VRB/03 RMK AO2 T03390189
03949KAQV AQV20160720181010807/20/16 18:10:31  5-MIN KAQV 210010Z AUTO 00000KT 10SM CLR 34/19 A3009 220 40 2500 000/00 RMK AO2 T03390189
03949KAQV AQV20160720181510807/20/16 18:15:31  5-MIN KAQV 210015Z AUTO 15003KT 10SM CLR 33/19 A3009 220 42 2400 150/03 RMK AO2 T03330189
03949KAQV AQV20160720182010807/20/16 18:20:31  5-MIN KAQV 210020Z AUTO 00000KT 10SM CLR 33/19 A3010 220 43 2400 000/00 RMK AO2 T03330194
03949KAQV AQV20160720182510807/20/16 18:25:31  5-MIN KAQV 210025Z AUTO 00000KT 10SM CLR 33/20 A3009 220 46 2300 000/00 RMK AO2 T03280200
03949KAQV AQV20160720183010807/20/16 18:30:31  5-MIN KAQV 210030Z AUTO 00000KT 10SM CLR 33/21 A3010 210 48 2300 000/00 RMK AO2 T03280206
03949KAQV AQV20160720183510807/20/16 18:35:31  5-MIN KAQV 210035Z AUTO 00000KT 10SM CLR 32/22 A3010 210 53 2300 000/00 RMK AO2 T03220217
03949KAQV AQV20160720184010807/20/16 18:40:31  5-MIN KAQV 210040Z AUTO 00000KT 10SM CLR 32/22 A3010 210 55 2200 000/00 RMK AO2 T03170217
03949KAQV AQV20160720184510807/20/16 18:45:31  5-MIN KAQV 210045Z AUTO 00000KT 10SM CLR 31/22 A3010 210 58 2100 000/00 RMK AO2 T03110222
03949KAQV AQV20160720185011507/20/16 18:50:31  5-MIN KAQV 210050Z AUTO 00000KT 10SM CLR 31/22 A3010 210 60 2100 000/00 RMK AO2 SLP188 T03060222
03949KAQV AQV20160720185511507/20/16 18:55:31  5-MIN KAQV 210055Z AUTO 00000KT 10SM CLR 30/22 A3010 210 62 2000 000/00 RMK AO2 SLP188 T03000222
03949KAQV AQV20160720190010807/20/16 19:00:31  5-MIN KAQV 210100Z AUTO 00000KT 10SM CLR 30/23 A3010 210 65 2000 000/00 RMK AO2 T03000228
03949KAQV AQV20160720190510807/20/16 19:05:31  5-MIN KAQV 210105Z AUTO 00000KT 10SM CLR 29/22 A3010 210 64 2000 000/00 RMK AO2 T02940222
03949KAQV AQV20160720191010807/20/16 19:10:31  5-MIN KAQV 210110Z AUTO 00000KT 10SM CLR 29/23 A3010 210 71 1900 000/00 RMK AO2 T02890233
03949KAQV AQV20160720191510807/20/16 19:15:31  5-MIN KAQV 210115Z AUTO 00000KT 10SM CLR 29/23 A3010 210 71 1900 000/00 RMK AO2 T02890233
03949KAQV AQV20160720192010807/20/16 19:20:31  5-MIN KAQV 210120Z AUTO 00000KT 10SM CLR 29/23 A3010 210 71 1900 000/00 RMK AO2 T02890233
03949KAQV AQV20160720192510807/20/16 19:25:31  5-MIN KAQV 210125Z AUTO 00000KT 10SM CLR 28/23 A3010 210 74 1800 000/00 RMK AO2 T02830233
03949KAQV AQV20160720193010807/20/16 19:30:31  5-MIN KAQV 210130Z AUTO 00000KT 10SM CLR 28/23 A3010 210 76 1800 000/00 RMK AO2 T02780233
03949KAQV AQV20160720193510807/20/16 19:35:31  5-MIN KAQV 210135Z AUTO 00000KT 10SM CLR 28/23 A3010 210 76 1800 000/00 RMK AO2 T02780233
03949KAQV AQV20160720194010807/20/16 19:40:31  5-MIN KAQV 210140Z AUTO 00000KT 10SM CLR 27/23 A3010 210 79 1700 000/00 RMK AO2 T02720233
03949KAQV AQV20160720194510807/20/16 19:45:31  5-MIN KAQV 210145Z AUTO 00000KT 10SM CLR 27/23 A3010 210 79 1700 000/00 RMK AO2 T02720233
03949KAQV AQV20160720195011507/20/16 19:50:31  5-MIN KAQV 210150Z AUTO 00000KT 10SM CLR 27/23 A3010 210 79 1700 000/00 RMK AO2 SLP191 T02720233
03949KAQV AQV20160720195511507/20/16 19:55:31  5-MIN KAQV 210155Z AUTO 00000KT 10SM CLR 27/23 A3010 210 79 1700 000/00 RMK AO2 SLP190 T02720233
03949KAQV AQV20160720200010807/20/16 20:00:31  5-MIN KAQV 210200Z AUTO 00000KT 10SM CLR 27/23 A3010 210 76 1700 000/00 RMK AO2 T02720228
03949KAQV AQV20160720200510807/20/16 20:05:31  5-MIN KAQV 210205Z AUTO 00000KT 10SM CLR 27/23 A3010 210 79 1700 000/00 RMK AO2 T02720233
03949KAQV AQV20160720201010807/20/16 20:10:31  5-MIN KAQV 210210Z AUTO 00000KT 10SM CLR 27/23 A3010 210 79 1600 000/00 RMK AO2 T02670228
03949KAQV AQV20160720201510807/20/16 20:15:31  5-MIN KAQV 210215Z AUTO 00000KT 10SM CLR 27/23 A3010 210 82 1600 000/00 RMK AO2 T02670233
03949KAQV AQV20160720202010807/20/16 20:20:31  5-MIN KAQV 210220Z AUTO 00000KT 10SM CLR 27/23 A3011 200 82 1600 000/00 RMK AO2 T02670233
03949KAQV AQV20160720202510807/20/16 20:25:31  5-MIN KAQV 210225Z AUTO 00000KT 10SM CLR 27/23 A3011 200 82 1600 000/00 RMK AO2 T02670233
03949KAQV AQV20160720203010807/20/16 20:30:31  5-MIN KAQV 210230Z AUTO 00000KT 10SM CLR 26/23 A3011 200 84 1600 000/00 RMK AO2 T02610233
03949KAQV AQV20160720203510807/20/16 20:35:31  5-MIN KAQV 210235Z AUTO 00000KT 10SM CLR 26/23 A3011 200 84 1600 000/00 RMK AO2 T02610233
03949KAQV AQV20160720204010807/20/16 20:40:31  5-MIN KAQV 210240Z AUTO 00000KT 10SM CLR 26/23 A3011 200 84 1600 000/00 RMK AO2 T02610233
03949KAQV AQV20160720204510807/20/16 20:45:31  5-MIN KAQV 210245Z AUTO 00000KT 10SM CLR 26/23 A3011 200 84 1600 000/00 RMK AO2 T02610233
03949KAQV AQV20160720205012107/20/16 20:50:31  5-MIN KAQV 210250Z AUTO 00000KT 10SM CLR 26/23 A3011 200 84 1600 000/00 RMK AO2 SLP193 T02610233 55010
03949KAQV AQV20160720205512107/20/16 20:55:31  5-MIN KAQV 210255Z AUTO 00000KT 10SM CLR 26/23 A3011 200 84 1600 000/00 RMK AO2 SLP194 T02610233 55010
03949KAQV AQV20160720210010807/20/16 21:00:31  5-MIN KAQV 210300Z AUTO 00000KT 10SM CLR 26/23 A3011 200 81 1600 000/00 RMK AO2 T02610228
03949KAQV AQV20160720210510807/20/16 21:05:31  5-MIN KAQV 210305Z AUTO 00000KT 10SM CLR 26/23 A3011 200 81 1600 000/00 RMK AO2 T02610228
03949KAQV AQV20160720211010807/20/16 21:10:31  5-MIN KAQV 210310Z AUTO 00000KT 10SM CLR 26/22 A3012 200 79 1600 000/00 RMK AO2 T02610222
03949KAQV AQV20160720211510807/20/16 21:15:31  5-MIN KAQV 210315Z AUTO 00000KT 10SM CLR 26/23 A3012 200 84 1500 000/00 RMK AO2 T02560228
03949KAQV AQV20160720212010807/20/16 21:20:31  5-MIN KAQV 210320Z AUTO 00000KT 10SM CLR 26/23 A3011 200 84 1500 000/00 RMK AO2 T02560228
03949KAQV AQV20160720212510807/20/16 21:25:31  5-MIN KAQV 210325Z AUTO 00000KT 10SM CLR 26/23 A3012 190 84 1500 000/00 RMK AO2 T02560228
03949KAQV AQV20160720213010807/20/16 21:30:31  5-MIN KAQV 210330Z AUTO 00000KT 10SM CLR 26/23 A3012 190 84 1500 000/00 RMK AO2 T02560228
03949KAQV AQV20160720213510807/20/16 21:35:31  5-MIN KAQV 210335Z AUTO 00000KT 10SM CLR 26/23 A3012 190 87 1500 000/00 RMK AO2 T02560233
03949KAQV AQV20160720214010807/20/16 21:40:31  5-MIN KAQV 210340Z AUTO 00000KT 10SM CLR 26/23 A3012 190 87 1500 000/00 RMK AO2 T02560233
03949KAQV AQV20160720214510807/20/16 21:45:31  5-MIN KAQV 210345Z AUTO 00000KT 10SM CLR 26/23 A3012 200 84 1500 000/00 RMK AO2 T02560228
03949KAQV AQV20160720215011507/20/16 21:50:31  5-MIN KAQV 210350Z AUTO 00000KT 10SM CLR 26/23 A3012 200 84 1500 000/00 RMK AO2 SLP194 T02560228
03949KAQV AQV20160720215511507/20/16 21:55:31  5-MIN KAQV 210355Z AUTO 00000KT 10SM CLR 26/23 A3012 190 84 1500 000/00 RMK AO2 SLP195 T02560228
03949KAQV AQV20160720220010807/20/16 22:00:31  5-MIN KAQV 210400Z AUTO 00000KT 10SM CLR 25/23 A3012 190 87 1400 000/00 RMK AO2 T02500228
03949KAQV AQV20160720220510807/20/16 22:05:31  5-MIN KAQV 210405Z AUTO 00000KT 10SM CLR 25/23 A3012 190 87 1400 000/00 RMK AO2 T02500228
03949KAQV AQV20160720221010807/20/16 22:10:31  5-MIN KAQV 210410Z AUTO 00000KT 10SM CLR 25/23 A3012 190 87 1400 000/00 RMK AO2 T02500228
03949KAQV AQV20160720221510807/20/16 22:15:31  5-MIN KAQV 210415Z AUTO 00000KT 10SM CLR 24/23 A3012 190 90 1400 000/00 RMK AO2 T02440228
03949KAQV AQV20160720222010807/20/16 22:20:31  5-MIN KAQV 210420Z AUTO 00000KT 10SM CLR 25/23 A3012 190 87 1400 000/00 RMK AO2 T02500228
03949KAQV AQV20160720222510807/20/16 22:25:31  5-MIN KAQV 210425Z AUTO 00000KT 10SM CLR 25/22 A3012 190 84 1400 000/00 RMK AO2 T02500222
03949KAQV AQV20160720223010807/20/16 22:30:31  5-MIN KAQV 210430Z AUTO 00000KT 10SM CLR 25/23 A3012 190 87 1400 000/00 RMK AO2 T02500228
03949KAQV AQV20160720223510807/20/16 22:35:31  5-MIN KAQV 210435Z AUTO 00000KT 10SM CLR 25/23 A3012 190 87 1400 000/00 RMK AO2 T02500228
03949KAQV AQV20160720224010807/20/16 22:40:31  5-MIN KAQV 210440Z AUTO 00000KT 10SM CLR 25/23 A3012 190 87 1400 000/00 RMK AO2 T02500228
03949KAQV AQV20160720224510807/20/16 22:45:31  5-MIN KAQV 210445Z AUTO 00000KT 10SM CLR 25/22 A3012 190 84 1400 000/00 RMK AO2 T02500222
03949KAQV AQV20160720225011507/20/16 22:50:31  5-MIN KAQV 210450Z AUTO 00000KT 10SM CLR 25/23 A3012 190 87 1400 000/00 RMK AO2 SLP196 T02500228
03949KAQV AQV20160720225511507/20/16 22:55:31  5-MIN KAQV 210455Z AUTO 00000KT 10SM CLR 25/23 A3012 190 87 1400 000/00 RMK AO2 SLP195 T02500228
03949KAQV AQV20160720230010807/20/16 23:00:31  5-MIN KAQV 210500Z AUTO 00000KT 10SM CLR 25/22 A3012 190 84 1400 000/00 RMK AO2 T02500222
03949KAQV AQV20160720230510807/20/16 23:05:31  5-MIN KAQV 210505Z AUTO 00000KT 10SM CLR 25/23 A3012 190 87 1400 000/00 RMK AO2 T02500228
03949KAQV AQV20160720231010807/20/16 23:10:31  5-MIN KAQV 210510Z AUTO 00000KT 10SM CLR 25/23 A3012 190 87 1400 000/00 RMK AO2 T02500228
03949KAQV AQV20160720231510807/20/16 23:15:31  5-MIN KAQV 210515Z AUTO 00000KT 10SM CLR 25/22 A3012 190 84 1400 000/00 RMK AO2 T02500222
03949KAQV AQV20160720232010807/20/16 23:20:31  5-MIN KAQV 210520Z AUTO 00000KT 10SM CLR 25/22 A3012 190 84 1400 000/00 RMK AO2 T02500222
03949KAQV AQV20160720232510807/20/16 23:25:31  5-MIN KAQV 210525Z AUTO 00000KT 10SM CLR 25/22 A3012 190 84 1400 000/00 RMK AO2 T02500222
03949KAQV AQV20160720233010807/20/16 23:30:31  5-MIN KAQV 210530Z AUTO 00000KT 10SM CLR 25/23 A3012 190 87 1400 000/00 RMK AO2 T02500228
03949KAQV AQV20160720233510807/20/16 23:35:31  5-MIN KAQV 210535Z AUTO 00000KT 10SM CLR 25/23 A3012 200 87 1400 000/00 RMK AO2 T02500228
03949KAQV AQV20160720234010807/20/16 23:40:31  5-MIN KAQV 210540Z AUTO 00000KT 10SM CLR 25/22 A3011 200 84 1400 000/00 RMK AO2 T02500222
03949KAQV AQV20160720234510807/20/16 23:45:31  5-MIN KAQV 210545Z AUTO 00000KT 10SM CLR 24/22 A3011 200 87 1400 000/00 RMK AO2 T02440222
03949KAQV AQV20160720235014307/20/16 23:50:31  5-MIN KAQV 210550Z AUTO 00000KT 10SM CLR 24/22 A3011 200 87 1400 000/00 RMK AO2 SLP193 T02440222 10339 20244 403610222 53009
03949KAQV AQV20160720235514307/20/16 23:55:31  5-MIN KAQV 210555Z AUTO 00000KT 10SM CLR 24/22 A3011 200 87 1400 000/00 RMK AO2 SLP192 T02440222 10339 20244 403610222 53009
03949KAQV AQV20160721000010807/21/16 00:00:31  5-MIN KAQV 210600Z AUTO 00000KT 10SM CLR 24/22 A3011 200 87 1400 000/00 RMK AO2 T02440222
03949KAQV AQV20160721000510807/21/16 00:05:31  5-MIN KAQV 210605Z AUTO 00000KT 10SM CLR 24/22 A3011 200 87 1400 000/00 RMK AO2 T02440222
03949KAQV AQV20160721001010807/21/16 00:10:31  5-MIN KAQV 210610Z AUTO 00000KT 10SM CLR 24/22 A3010 210 87 1400 000/00 RMK AO2 T02440222
03949KAQV AQV20160721001510807/21/16 00:15:31  5-MIN KAQV 210615Z AUTO 00000KT 10SM CLR 24/22 A3010 210 87 1400 000/00 RMK AO2 T02440222
03949KAQV AQV20160721002010807/21/16 00:20:31  5-MIN KAQV 210620Z AUTO 00000KT 10SM CLR 24/22 A3010 210 87 1400 000/00 RMK AO2 T02440222
03949KAQV AQV20160721002510807/21/16 00:25:31  5-MIN KAQV 210625Z AUTO 00000KT 10SM CLR 24/22 A3010 210 87 1400 000/00 RMK AO2 T02440222
03949KAQV AQV20160721003010807/21/16 00:30:31  5-MIN KAQV 210630Z AUTO 00000KT 10SM CLR 24/22 A3010 210 90 1300 000/00 RMK AO2 T02390222
03949KAQV AQV20160721003510807/21/16 00:35:31  5-MIN KAQV 210635Z AUTO 00000KT 10SM CLR 24/22 A3010 220 87 1400 000/00 RMK AO2 T02440222
03949KAQV AQV20160721004010807/21/16 00:40:31  5-MIN KAQV 210640Z AUTO 00000KT 10SM CLR 24/22 A3009 220 87 1400 000/00 RMK AO2 T02440222
03949KAQV AQV20160721004510807/21/16 00:45:31  5-MIN KAQV 210645Z AUTO 00000KT 10SM CLR 24/22 A3009 220 87 1400 000/00 RMK AO2 T02440222
03949KAQV AQV20160721005011507/21/16 00:50:31  5-MIN KAQV 210650Z AUTO 00000KT 10SM CLR 24/22 A3009 220 87 1400 000/00 RMK AO2 SLP186 T02440222
03949KAQV AQV20160721005511507/21/16 00:55:31  5-MIN KAQV 210655Z AUTO 00000KT 10SM CLR 26/22 A3009 220 79 1500 000/00 RMK AO2 SLP185 T02560217
03949KAQV AQV20160721010010807/21/16 01:00:31  5-MIN KAQV 210700Z AUTO 00000KT 10SM CLR 26/22 A3009 220 79 1500 000/00 RMK AO2 T02560217
03949KAQV AQV20160721010510807/21/16 01:05:31  5-MIN KAQV 210705Z AUTO 00000KT 10SM CLR 25/22 A3009 220 84 1500 000/00 RMK AO2 T02500222
03949KAQV AQV20160721011010807/21/16 01:10:31  5-MIN KAQV 210710Z AUTO 00000KT 10SM CLR 25/22 A3009 220 84 1500 000/00 RMK AO2 T02500222
03949KAQV AQV20160721011510807/21/16 01:15:31  5-MIN KAQV 210715Z AUTO 00000KT 10SM CLR 25/22 A3009 220 84 1500 000/00 RMK AO2 T02500222
03949KAQV AQV20160721012010807/21/16 01:20:31  5-MIN KAQV 210720Z AUTO 00000KT 10SM CLR 24/22 A3008 230 87 1400 000/00 RMK AO2 T02440222
03949KAQV AQV20160721012510807/21/16 01:25:31  5-MIN KAQV 210725Z AUTO 00000KT 10SM CLR 24/22 A3008 230 87 1400 000/00 RMK AO2 T02440222
03949KAQV AQV20160721013010807/21/16 01:30:31  5-MIN KAQV 210730Z AUTO 00000KT 10SM CLR 24/22 A3008 230 87 1400 000/00 RMK AO2 T02440222
03949KAQV AQV20160721013510807/21/16 01:35:31  5-MIN KAQV 210735Z AUTO 00000KT 10SM CLR 25/22 A3008 230 81 1500 000/00 RMK AO2 T02500217
03949KAQV AQV20160721014010807/21/16 01:40:31  5-MIN KAQV 210740Z AUTO 00000KT 10SM CLR 25/22 A3008 230 81 1500 000/00 RMK AO2 T02500217
03949KAQV AQV20160721014510807/21/16 01:45:31  5-MIN KAQV 210745Z AUTO 00000KT 10SM CLR 25/22 A3008 230 81 1500 000/00 RMK AO2 T02500217
03949KAQV AQV20160721015011507/21/16 01:50:31  5-MIN KAQV 210750Z AUTO 00000KT 10SM CLR 25/22 A3008 230 81 1500 000/00 RMK AO2 SLP180 T02500217
03949KAQV AQV20160721015511507/21/16 01:55:31  5-MIN KAQV 210755Z AUTO 00000KT 10SM CLR 25/22 A3008 230 81 1500 000/00 RMK AO2 SLP180 T02500217
03949KAQV AQV20160721020010807/21/16 02:00:31  5-MIN KAQV 210800Z AUTO 00000KT 10SM CLR 25/22 A3008 230 84 1500 000/00 RMK AO2 T02500222
03949KAQV AQV20160721020510807/21/16 02:05:31  5-MIN KAQV 210805Z AUTO 00000KT 10SM CLR 25/22 A3008 220 84 1500 000/00 RMK AO2 T02500222
03949KAQV AQV20160721021010807/21/16 02:10:31  5-MIN KAQV 210810Z AUTO 00000KT 10SM CLR 25/22 A3008 230 84 1500 000/00 RMK AO2 T02500222
03949KAQV AQV20160721021510807/21/16 02:15:31  5-MIN KAQV 210815Z AUTO 00000KT 10SM CLR 25/22 A3008 230 84 1500 000/00 RMK AO2 T02500222
03949KAQV AQV20160721022010807/21/16 02:20:31  5-MIN KAQV 210820Z AUTO 00000KT 10SM CLR 25/22 A3008 230 84 1500 000/00 RMK AO2 T02500222
03949KAQV AQV20160721022510807/21/16 02:25:31  5-MIN KAQV 210825Z AUTO 00000KT 10SM CLR 24/22 A3008 230 87 1400 000/00 RMK AO2 T02440222
03949KAQV AQV20160721023010807/21/16 02:30:31  5-MIN KAQV 210830Z AUTO 22003KT 10SM CLR 24/22 A3009 220 90 1300 220/03 RMK AO2 T02390222
03949KAQV AQV20160721023510807/21/16 02:35:31  5-MIN KAQV 210835Z AUTO 00000KT 10SM CLR 24/22 A3009 220 90 1300 000/00 RMK AO2 T02390222
03949KAQV AQV20160721024010807/21/16 02:40:31  5-MIN KAQV 210840Z AUTO 00000KT 10SM CLR 24/22 A3009 220 87 1400 000/00 RMK AO2 T02440222
03949KAQV AQV20160721024510807/21/16 02:45:31  5-MIN KAQV 210845Z AUTO 00000KT 10SM CLR 24/22 A3009 220 90 1300 000/00 RMK AO2 T02390222
03949KAQV AQV20160721025012107/21/16 02:50:31  5-MIN KAQV 210850Z AUTO 00000KT 10SM CLR 24/22 A3009 220 87 1400 000/00 RMK AO2 SLP185 T02440222 58001
03949KAQV AQV20160721025512107/21/16 02:55:31  5-MIN KAQV 210855Z AUTO 00000KT 10SM CLR 24/22 A3009 220 90 1300 000/00 RMK AO2 SLP183 T02390222 58001
03949KAQV AQV20160721030010807/21/16 03:00:31  5-MIN KAQV 210900Z AUTO 00000KT 10SM CLR 24/22 A3008 220 87 1400 000/00 RMK AO2 T02440222
03949KAQV AQV20160721030510807/21/16 03:05:31  5-MIN KAQV 210905Z AUTO 00000KT 10SM CLR 24/22 A3008 220 90 1300 000/00 RMK AO2 T02390222
03949KAQV AQV20160721031010807/21/16 03:10:31  5-MIN KAQV 210910Z AUTO 00000KT 10SM CLR 24/22 A3009 220 90 1300 000/00 RMK AO2 T02390222
03949KAQV AQV20160721031510707/21/16 03:15:31  5-MIN KAQV 210915Z AUTO 00000KT 7SM CLR 24/22 A3009 220 90 1300 000/00 RMK AO2 T02390222
03949KAQV AQV20160721032011007/21/16 03:20:31  5-MIN KAQV 210920Z AUTO 00000KT 6SM BR CLR 24/22 A3009 220 90 1300 000/00 RMK AO2 T02390222
03949KAQV AQV20160721032510707/21/16 03:25:31  5-MIN KAQV 210925Z AUTO 00000KT 8SM CLR 24/22 A3009 220 87 1400 000/00 RMK AO2 T02440222
03949KAQV AQV20160721033010807/21/16 03:30:31  5-MIN KAQV 210930Z AUTO 00000KT 10SM CLR 24/23 A3008 230 90 1400 000/00 RMK AO2 T02440228
03949KAQV AQV20160721033510807/21/16 03:35:31  5-MIN KAQV 210935Z AUTO 00000KT 10SM CLR 24/23 A3008 220 90 1400 000/00 RMK AO2 T02440228
03949KAQV AQV20160721034010707/21/16 03:40:31  5-MIN KAQV 210940Z AUTO 00000KT 9SM CLR 24/22 A3009 220 90 1300 000/00 RMK AO2 T02390222
03949KAQV AQV20160721034510707/21/16 03:45:31  5-MIN KAQV 210945Z AUTO 00000KT 8SM CLR 23/22 A3009 220 93 1300 000/00 RMK AO2 T02330222
03949KAQV AQV20160721035011407/21/16 03:50:31  5-MIN KAQV 210950Z AUTO 00000KT 8SM CLR 24/22 A3009 220 90 1300 000/00 RMK AO2 SLP186 T02390222
03949KAQV AQV20160721035511407/21/16 03:55:31  5-MIN KAQV 210955Z AUTO 00000KT 8SM CLR 24/22 A3009 220 90 1300 000/00 RMK AO2 SLP186 T02390222
03949KAQV AQV20160721040010707/21/16 04:00:31  5-MIN KAQV 211000Z AUTO 00000KT 7SM CLR 24/22 A3010 220 90 1300 000/00 RMK AO2 T02390222
03949KAQV AQV20160721040510707/21/16 04:05:31  5-MIN KAQV 211005Z AUTO 00000KT 9SM CLR 24/22 A3010 210 90 1300 000/00 RMK AO2 T02390222
03949KAQV AQV20160721041010707/21/16 04:10:31  5-MIN KAQV 211010Z AUTO 00000KT 9SM CLR 24/22 A3010 210 90 1300 000/00 RMK AO2 T02390222
03949KAQV AQV20160721041510707/21/16 04:15:31  5-MIN KAQV 211015Z AUTO 00000KT 8SM CLR 23/22 A3010 210 93 1300 000/00 RMK AO2 T02330222
03949KAQV AQV20160721042010707/21/16 04:20:31  5-MIN KAQV 211020Z AUTO 00000KT 9SM CLR 23/22 A3010 210 93 1300 000/00 RMK AO2 T02330222
03949KAQV AQV20160721042510807/21/16 04:25:31  5-MIN KAQV 211025Z AUTO 00000KT 10SM CLR 23/22 A3010 210 93 1300 000/00 RMK AO2 T02330222
03949KAQV AQV20160721043010807/21/16 04:30:31  5-MIN KAQV 211030Z AUTO 00000KT 10SM CLR 23/22 A3010 210 93 1300 000/00 RMK AO2 T02330222
03949KAQV AQV20160721043510807/21/16 04:35:31  5-MIN KAQV 211035Z AUTO 00000KT 10SM CLR 24/22 A3010 210 90 1300 000/00 RMK AO2 T02390222
03949KAQV AQV20160721044010807/21/16 04:40:31  5-MIN KAQV 211040Z AUTO 00000KT 10SM CLR 24/23 A3010 210 93 1300 000/00 RMK AO2 T02390228
03949KAQV AQV20160721044510807/21/16 04:45:31  5-MIN KAQV 211045Z AUTO 00000KT 10SM CLR 24/23 A3010 210 93 1300 000/00 RMK AO2 T02390228
03949KAQV AQV20160721045011507/21/16 04:50:31  5-MIN KAQV 211050Z AUTO 00000KT 10SM CLR 24/23 A3011 200 93 1300 000/00 RMK AO2 SLP190 T02390228
03949KAQV AQV20160721045511507/21/16 04:55:31  5-MIN KAQV 211055Z AUTO 00000KT 10SM CLR 24/23 A3011 200 93 1300 000/00 RMK AO2 SLP191 T02390228
03949KAQV AQV20160721050010707/21/16 05:00:31  5-MIN KAQV 211100Z AUTO 00000KT 7SM CLR 24/23 A3011 200 93 1300 000/00 RMK AO2 T02390228
03949KAQV AQV20160721050510707/21/16 05:05:31  5-MIN KAQV 211105Z AUTO 00000KT 7SM CLR 24/23 A3011 200 93 1300 000/00 RMK AO2 T02390228
03949KAQV AQV20160721051010707/21/16 05:10:31  5-MIN KAQV 211110Z AUTO 00000KT 8SM CLR 23/23 A3011 200 97 1300 000/00 RMK AO2 T02330228
03949KAQV AQV20160721051510707/21/16 05:15:31  5-MIN KAQV 211115Z AUTO 00000KT 7SM CLR 23/22 A3011 200 93 1300 000/00 RMK AO2 T02330222
03949KAQV AQV20160721052010707/21/16 05:20:31  5-MIN KAQV 211120Z AUTO 00000KT 7SM CLR 23/22 A3011 200 93 1300 000/00 RMK AO2 T02330222
03949KAQV AQV20160721052510707/21/16 05:25:31  5-MIN KAQV 211125Z AUTO 00000KT 8SM CLR 23/23 A3011 200 97 1300 000/00 RMK AO2 T02330228
03949KAQV AQV20160721053010707/21/16 05:30:31  5-MIN KAQV 211130Z AUTO 00000KT 7SM CLR 23/22 A3011 200 93 1300 000/00 RMK AO2 T02330222
03949KAQV AQV20160721053510707/21/16 05:35:31  5-MIN KAQV 211135Z AUTO 00000KT 8SM CLR 23/23 A3011 200 97 1300 000/00 RMK AO2 T02330228
03949KAQV AQV20160721054010707/21/16 05:40:31  5-MIN KAQV 211140Z AUTO 00000KT 9SM CLR 24/23 A3011 200 93 1300 000/00 RMK AO2 T02390228
03949KAQV AQV20160721054510707/21/16 05:45:31  5-MIN KAQV 211145Z AUTO 00000KT 9SM CLR 24/23 A3011 200 93 1300 000/00 RMK AO2 T02390228
03949KAQV AQV20160721055013207/21/16 05:50:31  5-MIN KAQV 211150Z AUTO 00000KT 9SM CLR 24/23 A3012 190 93 1300 000/00 RMK AO2 SLP194 T02390228 10256 20233 55008
03949KAQV AQV20160721055513207/21/16 05:55:31  5-MIN KAQV 211155Z AUTO 00000KT 9SM CLR 24/23 A3012 190 90 1400 000/00 RMK AO2 SLP195 T02440228 10256 20233 55008
03949KAQV AQV20160721060010807/21/16 06:00:31  5-MIN KAQV 211200Z AUTO 00000KT 10SM CLR 24/23 A3012 190 93 1400 000/00 RMK AO2 T02440233
03949KAQV AQV20160721060510807/21/16 06:05:31  5-MIN KAQV 211205Z AUTO 00000KT 10SM CLR 25/23 A3012 190 90 1400 000/00 RMK AO2 T02500233
03949KAQV AQV20160721061010807/21/16 06:10:31  5-MIN KAQV 211210Z AUTO 00000KT 10SM CLR 25/23 A3012 190 90 1400 000/00 RMK AO2 T02500233
03949KAQV AQV20160721061510807/21/16 06:15:31  5-MIN KAQV 211215Z AUTO 00000KT 10SM CLR 26/24 A3012 190 90 1500 000/00 RMK AO2 T02560239
03949KAQV AQV20160721062010807/21/16 06:20:31  5-MIN KAQV 211220Z AUTO 00000KT 10SM CLR 26/24 A3013 180 90 1500 000/00 RMK AO2 T02560239
03949KAQV AQV20160721062510807/21/16 06:25:31  5-MIN KAQV 211225Z AUTO 00000KT 10SM CLR 26/23 A3013 180 84 1500 000/00 RMK AO2 T02610233
03949KAQV AQV20160721063010807/21/16 06:30:31  5-MIN KAQV 211230Z AUTO 00000KT 10SM CLR 26/23 A3013 180 84 1500 000/00 RMK AO2 T02610233
03949KAQV AQV20160721063510807/21/16 06:35:31  5-MIN KAQV 211235Z AUTO 00000KT 10SM CLR 26/24 A3013 180 87 1500 000/00 RMK AO2 T02610239
03949KAQV AQV20160721064010807/21/16 06:40:31  5-MIN KAQV 211240Z AUTO 00000KT 10SM CLR 26/23 A3013 180 84 1500 000/00 RMK AO2 T02610233
03949KAQV AQV20160721064510807/21/16 06:45:31  5-MIN KAQV 211245Z AUTO VRB03KT 10SM CLR 27/23 A3014 180 82 1600 VRB/03 RMK AO2 T02670233
03949KAQV AQV20160721065011507/21/16 06:50:31  5-MIN KAQV 211250Z AUTO 00000KT 10SM CLR 27/24 A3014 180 84 1600 000/00 RMK AO2 SLP201 T02670239
03949KAQV AQV20160721065511507/21/16 06:55:31  5-MIN KAQV 211255Z AUTO 00000KT 10SM CLR 27/24 A3014 170 84 1600 000/00 RMK AO2 SLP202 T02670239
03949KAQV AQV20160721070010807/21/16 07:00:31  5-MIN KAQV 211300Z AUTO VRB03KT 10SM CLR 27/23 A3014 170 82 1600 VRB/03 RMK AO2 T02670233
03949KAQV AQV20160721070510807/21/16 07:05:31  5-MIN KAQV 211305Z AUTO VRB03KT 10SM CLR 27/23 A3014 170 79 1700 VRB/03 RMK AO2 T02720233
03949KAQV AQV20160721071010807/21/16 07:10:31  5-MIN KAQV 211310Z AUTO 00000KT 10SM CLR 27/23 A3014 170 79 1700 000/00 RMK AO2 T02720233
03949KAQV AQV20160721071510807/21/16 07:15:31  5-MIN KAQV 211315Z AUTO 00000KT 10SM CLR 28/24 A3014 170 79 1700 000/00 RMK AO2 T02780239
03949KAQV AQV20160721072010807/21/16 07:20:31  5-MIN KAQV 211320Z AUTO 00000KT 10SM CLR 28/24 A3014 170 79 1700 000/00 RMK AO2 T02780239
03949KAQV AQV20160721072510807/21/16 07:25:31  5-MIN KAQV 211325Z AUTO 00000KT 10SM CLR 28/23 A3014 170 74 1800 000/00 RMK AO2 T02830233
03949KAQV AQV20160721073010807/21/16 07:30:31  5-MIN KAQV 211330Z AUTO 33004KT 10SM CLR 28/23 A3014 170 74 1800 320/04 RMK AO2 T02830233
03949KAQV AQV20160721073510807/21/16 07:35:31  5-MIN KAQV 211335Z AUTO VRB04KT 10SM CLR 29/23 A3015 170 71 1800 VRB/04 RMK AO2 T02890233
03949KAQV AQV20160721074010807/21/16 07:40:31  5-MIN KAQV 211340Z AUTO VRB03KT 10SM CLR 29/23 A3015 160 71 1800 VRB/03 RMK AO2 T02890233
03949KAQV AQV20160721074510807/21/16 07:45:31  5-MIN KAQV 211345Z AUTO VRB03KT 10SM CLR 29/23 A3015 160 69 1900 VRB/03 RMK AO2 T02940233
03949KAQV AQV20160721075011507/21/16 07:50:31  5-MIN KAQV 211350Z AUTO VRB04KT 10SM CLR 29/23 A3015 160 69 1900 VRB/04 RMK AO2 SLP207 T02940233
03949KAQV AQV20160721075511507/21/16 07:55:31  5-MIN KAQV 211355Z AUTO VRB03KT 10SM CLR 29/23 A3015 160 69 1900 VRB/03 RMK AO2 SLP207 T02940233
03949KAQV AQV20160721080010807/21/16 08:00:31  5-MIN KAQV 211400Z AUTO VRB03KT 10SM CLR 30/23 A3015 160 65 2000 VRB/03 RMK AO2 T03000228
03949KAQV AQV20160721080509807/21/16 08:05:31  5-MIN KAQV 211405Z AUTO 10SM CLR 31/23 A3016 160 62 2000 M /M RMK AO2 T03060228
03949KAQV AQV20160721081010807/21/16 08:10:31  5-MIN KAQV 211410Z AUTO VRB03KT 10SM CLR 31/22 A3016 160 60 2000 VRB/03 RMK AO2 T03060222
03949KAQV AQV20160721081510807/21/16 08:15:31  5-MIN KAQV 211415Z AUTO VRB04KT 10SM CLR 31/22 A3016 160 60 2000 VRB/04 RMK AO2 T03060222
03949KAQV AQV20160721082010807/21/16 08:20:31  5-MIN KAQV 211420Z AUTO VRB03KT 10SM CLR 31/22 A3016 160 58 2100 VRB/03 RMK AO2 T03110222
03949KAQV AQV20160721082510807/21/16 08:25:31  5-MIN KAQV 211425Z AUTO VRB03KT 10SM CLR 31/22 A3016 160 60 2000 VRB/03 RMK AO2 T03060222
03949KAQV AQV20160721083010807/21/16 08:30:31  5-MIN KAQV 211430Z AUTO VRB04KT 10SM CLR 31/22 A3016 160 56 2100 VRB/04 RMK AO2 T03110217
03949KAQV AQV20160721083510807/21/16 08:35:31  5-MIN KAQV 211435Z AUTO 34004KT 10SM CLR 31/22 A3016 160 56 2100 340/04 RMK AO2 T03110217
03949KAQV AQV20160721084010807/21/16 08:40:31  5-MIN KAQV 211440Z AUTO 00000KT 10SM CLR 31/22 A3016 160 58 2100 000/00 RMK AO2 T03110222
03949KAQV AQV20160721084510807/21/16 08:45:31  5-MIN KAQV 211445Z AUTO 00000KT 10SM CLR 31/22 A3016 160 56 2100 000/00 RMK AO2 T03110217
03949KAQV AQV20160721085012107/21/16 08:50:31  5-MIN KAQV 211450Z AUTO VRB04KT 10SM CLR 32/22 A3016 160 56 2100 VRB/04 RMK AO2 SLP207 T03170222 53012
03949KAQV AQV20160721085512107/21/16 08:55:31  5-MIN KAQV 211455Z AUTO VRB03KT 10SM CLR 32/22 A3016 160 56 2100 VRB/03 RMK AO2 SLP207 T03170222 53012
03949KAQV AQV20160721090010807/21/16 09:00:31  5-MIN KAQV 211500Z AUTO VRB03KT 10SM CLR 32/22 A3016 160 55 2100 VRB/03 RMK AO2 T03170217
03949KAQV AQV20160721090510807/21/16 09:05:31  5-MIN KAQV 211505Z AUTO VRB04KT 10SM CLR 32/22 A3016 160 56 2100 VRB/04 RMK AO2 T03170222
03949KAQV AQV20160721091010807/21/16 09:10:31  5-MIN KAQV 211510Z AUTO VRB03KT 10SM CLR 33/23 A3016 150 55 2300 VRB/03 RMK AO2 T03280228
03949KAQV AQV20160721091510807/21/16 09:15:31  5-MIN KAQV 211515Z AUTO VRB03KT 10SM CLR 32/22 A3016 160 55 2200 VRB/03 RMK AO2 T03220222
03949KAQV AQV20160721092010807/21/16 09:20:31  5-MIN KAQV 211520Z AUTO VRB05KT 10SM CLR 32/22 A3016 160 55 2200 VRB/05 RMK AO2 T03220222
03949KAQV AQV20160721092510807/21/16 09:25:31  5-MIN KAQV 211525Z AUTO VRB05KT 10SM CLR 33/23 A3016 150 55 2300 VRB/05 RMK AO2 T03280228
03949KAQV AQV20160721093010807/21/16 09:30:31  5-MIN KAQV 211530Z AUTO VRB03KT 10SM CLR 33/22 A3016 150 53 2300 VRB/03 RMK AO2 T03280222
03949KAQV AQV20160721093510807/21/16 09:35:31  5-MIN KAQV 211535Z AUTO 00000KT 10SM CLR 33/22 A3016 160 53 2300 000/00 RMK AO2 T03280222
03949KAQV AQV20160721094009807/21/16 09:40:31  5-MIN KAQV 211540Z AUTO 10SM CLR 33/22 A3016 160 53 2300 M /M RMK AO2 T03280222
03949KAQV AQV20160721094510807/21/16 09:45:31  5-MIN KAQV 211545Z AUTO 00000KT 10SM CLR 33/22 A3016 160 51 2300 000/00 RMK AO2 T03280217
03949KAQV AQV20160721095011507/21/16 09:50:31  5-MIN KAQV 211550Z AUTO 00000KT 10SM CLR 32/22 A3016 160 55 2200 000/00 RMK AO2 SLP208 T03220222
03949KAQV AQV20160721095511507/21/16 09:55:31  5-MIN KAQV 211555Z AUTO 00000KT 10SM CLR 33/22 A3016 160 53 2300 000/00 RMK AO2 SLP208 T03280222
03949KAQV AQV20160721100010807/21/16 10:00:31  5-MIN KAQV 211600Z AUTO VRB04KT 10SM CLR 33/23 A3016 160 55 2300 VRB/04 RMK AO2 T03280228
03949KAQV AQV20160721100510807/21/16 10:05:31  5-MIN KAQV 211605Z AUTO VRB04KT 10SM CLR 33/22 A3016 160 51 2300 VRB/04 RMK AO2 T03330222
03949KAQV AQV20160721101010807/21/16 10:10:31  5-MIN KAQV 211610Z AUTO 01006KT 10SM CLR 33/23 A3016 160 53 2300 360/06 RMK AO2 T03330228
03949KAQV AQV20160721101510807/21/16 10:15:31  5-MIN KAQV 211615Z AUTO 07005KT 10SM CLR 33/23 A3016 160 53 2300 070/05 RMK AO2 T03330228
03949KAQV AQV20160721102010807/21/16 10:20:31  5-MIN KAQV 211620Z AUTO 02005KT 10SM CLR 34/23 A3016 160 51 2400 010/05 RMK AO2 T03390228
03949KAQV AQV20160721102510807/21/16 10:25:31  5-MIN KAQV 211625Z AUTO VRB05KT 10SM CLR 34/22 A3016 160 50 2400 VRB/05 RMK AO2 T03390222
03949KAQV AQV20160721103010807/21/16 10:30:31  5-MIN KAQV 211630Z AUTO 02007KT 10SM CLR 34/22 A3015 160 50 2400 020/07 RMK AO2 T03390222
03949KAQV AQV20160721103510807/21/16 10:35:31  5-MIN KAQV 211635Z AUTO 00000KT 10SM CLR 33/22 A3015 160 50 2300 000/00 RMK AO2 T03330217
03949KAQV AQV20160721104010807/21/16 10:40:31  5-MIN KAQV 211640Z AUTO VRB03KT 10SM CLR 33/22 A3015 160 50 2300 VRB/03 RMK AO2 T03330217
03949KAQV AQV20160721104510807/21/16 10:45:31  5-MIN KAQV 211645Z AUTO 00000KT 10SM CLR 33/22 A3015 160 50 2300 000/00 RMK AO2 T03330217
03949KAQV AQV20160721105011507/21/16 10:50:31  5-MIN KAQV 211650Z AUTO VRB03KT 10SM CLR 34/22 A3015 160 48 2400 VRB/03 RMK AO2 SLP205 T03390217
03949KAQV AQV20160721105511507/21/16 10:55:31  5-MIN KAQV 211655Z AUTO VRB03KT 10SM CLR 34/22 A3015 170 50 2400 VRB/03 RMK AO2 SLP205 T03390222
03949KAQV AQV20160721110010807/21/16 11:00:31  5-MIN KAQV 211700Z AUTO 27003KT 10SM CLR 34/22 A3015 170 50 2400 260/03 RMK AO2 T03390222
03949KAQV AQV20160721110510807/21/16 11:05:31  5-MIN KAQV 211705Z AUTO 00000KT 10SM CLR 34/22 A3015 160 50 2400 000/00 RMK AO2 T03390222
03949KAQV AQV20160721111010807/21/16 11:10:31  5-MIN KAQV 211710Z AUTO VRB03KT 10SM CLR 35/22 A3015 170 47 2500 VRB/03 RMK AO2 T03500222
03949KAQV AQV20160721111509807/21/16 11:15:31  5-MIN KAQV 211715Z AUTO 10SM CLR 34/22 A3015 170 46 2500 M /M RMK AO2 T03440217
03949KAQV AQV20160721112010807/21/16 11:20:31  5-MIN KAQV 211720Z AUTO 00000KT 10SM CLR 34/22 A3014 170 46 2500 000/00 RMK AO2 T03440217
03949KAQV AQV20160721112510807/21/16 11:25:31  5-MIN KAQV 211725Z AUTO VRB03KT 10SM CLR 34/22 A3015 170 48 2400 VRB/03 RMK AO2 T03390217
03949KAQV AQV20160721113010807/21/16 11:30:31  5-MIN KAQV 211730Z AUTO 00000KT 10SM CLR 33/22 A3014 170 50 2300 000/00 RMK AO2 T03330217
03949KAQV AQV20160721113511107/21/16 11:35:31  5-MIN KAQV 211735Z AUTO 00000KT 10SM FEW075 33/22 A3014 170 50 2300 000/00 RMK AO2 T03330217
03949KAQV AQV20160721114011807/21/16 11:40:31  5-MIN KAQV 211740Z AUTO 00000KT 10SM SCT075 SCT110 33/22 A3014 170 50 2300 000/00 RMK AO2 T03330217
03949KAQV AQV20160721114511807/21/16 11:45:31  5-MIN KAQV 211745Z AUTO VRB03KT 10SM FEW080 SCT110 34/22 A3014 170 50 2400 VRB/03 RMK AO2 T03390222
03949KAQV AQV20160721115015007/21/16 11:50:31  5-MIN KAQV 211750Z AUTO 00000KT 10SM FEW050 SCT080 SCT110 33/21 A3014 180 48 2300 000/00 RMK AO2 SLP201 T03330211 10350 20244 51012
03949KAQV AQV20160721115515007/21/16 11:55:31  5-MIN KAQV 211755Z AUTO 00000KT 10SM FEW048 SCT055 BKN075 33/22 A3014 180 50 2300 000/00 RMK AO2 SLP200 T03330217 10350 20244 51012
03949KAQV AQV20160721120012507/21/16 12:00:31  5-MIN KAQV 211800Z AUTO 00000KT 10SM FEW048 BKN055 BKN075 34/22 A3013 180 48 2400 000/00 RMK AO2 T03390217
03949KAQV AQV20160721120512507/21/16 12:05:31  5-MIN KAQV 211805Z AUTO 23003KT 10SM FEW050 SCT055 BKN070 34/22 A3013 180 48 2400 230/03 RMK AO2 T03390217
03949KAQV AQV20160721121011807/21/16 12:10:31  5-MIN KAQV 211810Z AUTO VRB03KT 10SM SCT050 SCT060 34/22 A3013 180 46 2500 VRB/03 RMK AO2 T03440217
03949KAQV AQV20160721121511807/21/16 12:15:31  5-MIN KAQV 211815Z AUTO 00000KT 10SM SCT050 BKN060 34/22 A3013 180 46 2500 000/00 RMK AO2 T03440217
03949KAQV AQV20160721122011107/21/16 12:20:31  5-MIN KAQV 211820Z AUTO VRB03KT 10SM BKN055 35/22 A3013 180 45 2500 VRB/03 RMK AO2 T03500217
03949KAQV AQV20160721122511107/21/16 12:25:31  5-MIN KAQV 211825Z AUTO VRB03KT 10SM BKN055 34/21 A3013 190 45 2500 VRB/03 RMK AO2 T03440211
03949KAQV AQV20160721123011107/21/16 12:30:31  5-MIN KAQV 211830Z AUTO VRB04KT 10SM BKN055 35/22 A3013 190 45 2500 VRB/04 RMK AO2 T03500217
03949KAQV AQV20160721123511107/21/16 12:35:31  5-MIN KAQV 211835Z AUTO 00000KT 10SM SCT055 35/21 A3012 190 43 2500 000/00 RMK AO2 T03500211
03949KAQV AQV20160721124011107/21/16 12:40:31  5-MIN KAQV 211840Z AUTO 00000KT 10SM SCT055 34/21 A3012 190 46 2400 000/00 RMK AO2 T03390211
03949KAQV AQV20160721152015307/21/16 15:20:31  5-MIN KAQV 212120Z AUTO 13007KT 080V170 10SM TS FEW046 BKN060 OVC100 32/23 A3008 230 58 2200 130/07 080V170 RMK AO2 TSB17B18 T03170228
03949KAQV AQV20160721152514407/21/16 15:25:31  5-MIN KAQV 212125Z AUTO 00000KT 10SM TS SCT046 BKN060 OVC100 31/23 A3008 230 65 2100 000/00 RMK AO2 TSB17B18 PRESRR T03060233
03949KAQV AQV20160721153015807/21/16 15:30:31  5-MIN KAQV 212130Z AUTO 16005KT 4SM -TSRA FEW031 BKN046 OVC060 29/24 A3009 220 74 1900 150/05 RMK AO2 RAB28 TSB17B18 PRESRR P0006 T02890239
03949KAQV AQV20160721153516007/21/16 15:35:31  5-MIN KAQV 212135Z AUTO 17013G21KT 1SM +TSRA BR FEW016 BKN046 OVC060 27/24 A3009 220 87 1700 160/13G21 RMK AO2 RAB28 TSB17B18 P0024 T02670244
03949KAQV AQV20160721154016207/21/16 15:40:31  5-MIN KAQV 212140Z AUTO 20010G22KT 1/2SM +TSRA FG SCT022 BKN046 OVC055 26/24 A3008 230 90 1500 190/10G22 RMK AO2 RAB28 TSB17B18 P0041 T02560239
03949KAQV AQV20160721154516207/21/16 15:45:31  5-MIN KAQV 212145Z AUTO VRB05G22KT 1/2SM -TSRA FG SCT022 BKN046 OVC110 25/23 A3008 220 90 1500 VRB/05G22 RMK AO2 RAB28 TSB17B18 P0042 T02500233
03949KAQV AQV20160721155016707/21/16 15:50:31  5-MIN KAQV 212150Z AUTO VRB03G16KT 3SM -TSRA BR SCT034 BKN050 OVC110 25/23 A3008 230 90 1500 VRB/03G16 RMK AO2 RAB28 TSB17B18 SLP184 P0042 T02500233
03949KAQV AQV20160721155514907/21/16 15:55:31  5-MIN KAQV 212155Z AUTO 10SM TS SCT036 BKN055 BKN090 26/23 A3008 230 87 1500 M /M RMK AO2 RAB28E54 TSB17B18 SLP182 P0042 T02560233
03949KAQV AQV20160721160012807/21/16 16:00:31  5-MIN KAQV 212200Z AUTO VRB03KT 10SM TS SCT035 SCT050 BKN090 26/23 A3008 230 87 1500 VRB/03 RMK AO2 T02560233
03949KAQV AQV20160721160512807/21/16 16:05:31  5-MIN KAQV 212205Z AUTO VRB04KT 10SM TS SCT047 SCT055 BKN070 25/24 A3008 230 93 1500 VRB/04 RMK AO2 T02500239
03949KAQV AQV20160721161012807/21/16 16:10:31  5-MIN KAQV 212210Z AUTO VRB03KT 10SM TS SCT055 BKN070 BKN110 25/24 A3007 230 93 1500 VRB/03 RMK AO2 T02500239
03949KAQV AQV20160721161513107/21/16 16:15:31  5-MIN KAQV 212215Z AUTO VRB03KT 10SM FEW050 SCT070 SCT120 26/24 A3007 240 90 1600 VRB/03 RMK AO2 TSE14 T02610244
03949KAQV AQV20160721162012407/21/16 16:20:31  5-MIN KAQV 212220Z AUTO 00000KT 10SM FEW055 SCT070 26/24 A3006 250 90 1600 000/00 RMK AO2 TSE14 T02610244
03949KAQV AQV20160721162512407/21/16 16:25:31  5-MIN KAQV 212225Z AUTO 00000KT 10SM FEW055 FEW070 26/24 A3006 240 90 1600 000/00 RMK AO2 TSE14 T02610244
03949KAQV AQV20160721163012407/21/16 16:30:31  5-MIN KAQV 212230Z AUTO 17003KT 10SM FEW050 FEW070 26/25 A3006 250 93 1600 160/03 RMK AO2 TSE14 T02610250
03949KAQV AQV20160721163511407/21/16 16:35:31  5-MIN KAQV 212235Z AUTO 00000KT 10SM CLR 26/24 A3005 250 90 1600 000/00 RMK AO2 TSE14 T02610244
03949KAQV AQV20160721164011407/21/16 16:40:31  5-MIN KAQV 212240Z AUTO 00000KT 10SM CLR 27/25 A3005 250 90 1700 000/00 RMK AO2 TSE14 T02670250
03949KAQV AQV20160721164511407/21/16 16:45:31  5-MIN KAQV 212245Z AUTO 00000KT 10SM CLR 27/24 A3005 260 84 1800 000/00 RMK AO2 TSE14 T02720244
03949KAQV AQV20160721165012107/21/16 16:50:31  5-MIN KAQV 212250Z AUTO 00000KT 10SM CLR 27/24 A3005 260 84 1800 000/00 RMK AO2 TSE14 SLP171 T02720244
03949KAQV AQV20160721165512107/21/16 16:55:31  5-MIN KAQV 212255Z AUTO 00000KT 10SM CLR 27/25 A3005 260 87 1800 000/00 RMK AO2 TSE14 SLP172 T02720250
03949KAQV AQV20160721170010807/21/16 17:00:31  5-MIN KAQV 212300Z AUTO 00000KT 10SM CLR 27/26 A3005 260 90 1800 000/00 RMK AO2 T02720256
03949KAQV AQV20160721170510807/21/16 17:05:31  5-MIN KAQV 212305Z AUTO 00000KT 10SM CLR 27/25 A3005 260 87 1800 000/00 RMK AO2 T02720250
03949KAQV AQV20160721171010807/21/16 17:10:31  5-MIN KAQV 212310Z AUTO 00000KT 10SM CLR 27/25 A3005 260 87 1800 000/00 RMK AO2 T02720250
03949KAQV AQV20160721171510807/21/16 17:15:31  5-MIN KAQV 212315Z AUTO VRB03KT 10SM CLR 27/25 A3005 260 87 1800 VRB/03 RMK AO2 T02720250
03949KAQV AQV20160721172010807/21/16 17:20:31  5-MIN KAQV 212320Z AUTO 00000KT 10SM CLR 27/25 A3004 260 87 1800 000/00 RMK AO2 T02720250
03949KAQV AQV20160721172510807/21/16 17:25:31  5-MIN KAQV 212325Z AUTO 00000KT 10SM CLR 27/26 A3004 260 90 1800 000/00 RMK AO2 T02720256
03949KAQV AQV20160721173010807/21/16 17:30:31  5-MIN KAQV 212330Z AUTO 00000KT 10SM CLR 27/26 A3004 260 90 1800 000/00 RMK AO2 T02720256
03949KAQV AQV20160721173510807/21/16 17:35:31  5-MIN KAQV 212335Z AUTO 00000KT 10SM CLR 27/26 A3004 260 90 1800 000/00 RMK AO2 T02720256
03949KAQV AQV20160721174010807/21/16 17:40:31  5-MIN KAQV 212340Z AUTO 00000KT 10SM CLR 28/26 A3004 260 87 1800 000/00 RMK AO2 T02780256
03949KAQV AQV20160721174510807/21/16 17:45:31  5-MIN KAQV 212345Z AUTO 00000KT 10SM CLR 28/26 A3004 260 87 1800 000/00 RMK AO2 T02780256
03949KAQV AQV20160721175013907/21/16 17:50:31  5-MIN KAQV 212350Z AUTO 00000KT 10SM CLR 28/26 A3004 260 87 1800 000/00 RMK AO2 SLP170 60042 T02780256 10367 20250 56025
03949KAQV AQV20160721175513907/21/16 17:55:31  5-MIN KAQV 212355Z AUTO 00000KT 10SM CLR 28/25 A3004 260 82 1900 000/00 RMK AO2 SLP169 60042 T02830250 10367 20250 56025
03949KAQV AQV20160721180010807/21/16 18:00:31  5-MIN KAQV 220000Z AUTO 00000KT 10SM CLR 28/25 A3004 270 82 1900 000/00 RMK AO2 T02830250
03949KAQV AQV20160721180510807/21/16 18:05:31  5-MIN KAQV 220005Z AUTO 00000KT 10SM CLR 29/25 A3004 270 79 2000 000/00 RMK AO2 T02890250
03949KAQV AQV20160721181010807/21/16 18:10:31  5-MIN KAQV 220010Z AUTO 00000KT 10SM CLR 29/25 A3004 260 79 2000 000/00 RMK AO2 T02890250
03949KAQV AQV20160721181510807/21/16 18:15:31  5-MIN KAQV 220015Z AUTO 00000KT 10SM CLR 29/25 A3004 260 79 2000 000/00 RMK AO2 T02890250
03949KAQV AQV20160721182010807/21/16 18:20:31  5-MIN KAQV 220020Z AUTO 00000KT 10SM CLR 29/25 A3004 270 79 2000 000/00 RMK AO2 T02890250
03949KAQV AQV20160721182510807/21/16 18:25:31  5-MIN KAQV 220025Z AUTO 00000KT 10SM CLR 28/26 A3004 270 85 1900 000/00 RMK AO2 T02830256
03949KAQV AQV20160721183010807/21/16 18:30:31  5-MIN KAQV 220030Z AUTO 00000KT 10SM CLR 28/26 A3005 260 85 1900 000/00 RMK AO2 T02830256
03949KAQV AQV20160721183510807/21/16 18:35:31  5-MIN KAQV 220035Z AUTO 00000KT 10SM CLR 28/26 A3005 260 85 1900 000/00 RMK AO2 T02830256
03949KAQV AQV20160721184010807/21/16 18:40:31  5-MIN KAQV 220040Z AUTO 00000KT 10SM CLR 28/26 A3005 260 85 1900 000/00 RMK AO2 T02830256
03949KAQV AQV20160721184510807/21/16 18:45:31  5-MIN KAQV 220045Z AUTO 00000KT 10SM CLR 28/26 A3005 260 85 1900 000/00 RMK AO2 T02830256
03949KAQV AQV20160721185011507/21/16 18:50:31  5-MIN KAQV 220050Z AUTO 00000KT 10SM CLR 28/26 A3005 260 87 1900 000/00 RMK AO2 SLP172 T02830261
03949KAQV AQV20160721185511507/21/16 18:55:31  5-MIN KAQV 220055Z AUTO 00000KT 10SM CLR 28/26 A3005 260 90 1800 000/00 RMK AO2 SLP172 T02780261
03949KAQV AQV20160721190010807/21/16 19:00:31  5-MIN KAQV 220100Z AUTO 00000KT 10SM CLR 28/27 A3005 260 94 1800 000/00 RMK AO2 T02780267
03949KAQV AQV20160721190510807/21/16 19:05:31  5-MIN KAQV 220105Z AUTO 00000KT 10SM CLR 27/26 A3005 260 93 1800 000/00 RMK AO2 T02720261
03949KAQV AQV20160721191010807/21/16 19:10:31  5-MIN KAQV 220110Z AUTO 00000KT 10SM CLR 27/26 A3005 260 93 1800 000/00 RMK AO2 T02720261
03949KAQV AQV20160721191510707/21/16 19:15:31  5-MIN KAQV 220115Z AUTO 00000KT 9SM CLR 27/26 A3005 260 93 1800 000/00 RMK AO2 T02720261
03949KAQV AQV20160721192010707/21/16 19:20:31  5-MIN KAQV 220120Z AUTO 00000KT 8SM CLR 27/26 A3005 260 93 1800 000/00 RMK AO2 T02720261
03949KAQV AQV20160721192511007/21/16 19:25:31  5-MIN KAQV 220125Z AUTO 00000KT 6SM BR CLR 27/26 A3005 260 97 1700 000/00 RMK AO2 T02670261
03949KAQV AQV20160721193011007/21/16 19:30:31  5-MIN KAQV 220130Z AUTO 00000KT 6SM BR CLR 27/26 A3005 260 97 1700 000/00 RMK AO2 T02670261
03949KAQV AQV20160721193510707/21/16 19:35:31  5-MIN KAQV 220135Z AUTO 00000KT 8SM CLR 27/26 A3005 250 90 1800 000/00 RMK AO2 T02720256
03949KAQV AQV20160721194010807/21/16 19:40:31  5-MIN KAQV 220140Z AUTO 00000KT 10SM CLR 27/26 A3005 250 90 1800 000/00 RMK AO2 T02720256
03949KAQV AQV20160721194510707/21/16 19:45:31  5-MIN KAQV 220145Z AUTO 00000KT 9SM CLR 27/26 A3005 250 93 1700 000/00 RMK AO2 T02670256
03949KAQV AQV20160721195011407/21/16 19:50:31  5-MIN KAQV 220150Z AUTO 00000KT 8SM CLR 27/26 A3006 250 93 1700 000/00 RMK AO2 SLP174 T02670256
03949KAQV AQV20160721195511407/21/16 19:55:31  5-MIN KAQV 220155Z AUTO 00000KT 7SM CLR 27/26 A3006 250 93 1700 000/00 RMK AO2 SLP175 T02670256
03949KAQV AQV20160721200010707/21/16 20:00:31  5-MIN KAQV 220200Z AUTO 00000KT 7SM CLR 27/26 A3006 250 93 1700 000/00 RMK AO2 T02670256
03949KAQV AQV20160721200511007/21/16 20:05:31  5-MIN KAQV 220205Z AUTO 00000KT 7SM FEW080 26/26 A3006 250 97 1600 000/00 RMK AO2 T02610256
03949KAQV AQV20160721201011007/21/16 20:10:31  5-MIN KAQV 220210Z AUTO 00000KT 7SM FEW080 26/26 A3006 250 97 1600 000/00 RMK AO2 T02610256
03949KAQV AQV20160721201510707/21/16 20:15:31  5-MIN KAQV 220215Z AUTO 00000KT 7SM CLR 26/26 A3006 240 97 1600 000/00 RMK AO2 T02610256
03949KAQV AQV20160721202010707/21/16 20:20:31  5-MIN KAQV 220220Z AUTO 00000KT 7SM CLR 26/26 A3006 240 97 1600 000/00 RMK AO2 T02610256
03949KAQV AQV20160721202510707/21/16 20:25:31  5-MIN KAQV 220225Z AUTO 00000KT 7SM CLR 26/26 A3006 240 97 1600 000/00 RMK AO2 T02610256
03949KAQV AQV20160721203011007/21/16 20:30:31  5-MIN KAQV 220230Z AUTO 00000KT 6SM BR CLR 26/25 A3006 250 93 1600 000/00 RMK AO2 T02610250
03949KAQV AQV20160721203511007/21/16 20:35:31  5-MIN KAQV 220235Z AUTO 00000KT 6SM BR CLR 26/26 A3006 250 97 1600 000/00 RMK AO2 T02610256
03949KAQV AQV20160721204011007/21/16 20:40:31  5-MIN KAQV 220240Z AUTO 00000KT 6SM BR CLR 26/25 A3006 250 93 1600 000/00 RMK AO2 T02610250
03949KAQV AQV20160721204511007/21/16 20:45:31  5-MIN KAQV 220245Z AUTO 00000KT 6SM BR CLR 26/25 A3006 250 93 1600 000/00 RMK AO2 T02610250
03949KAQV AQV20160721205012307/21/16 20:50:31  5-MIN KAQV 220250Z AUTO 00000KT 5SM BR CLR 26/25 A3006 240 93 1600 000/00 RMK AO2 SLP176 T02610250 58007
03949KAQV AQV20160721205512307/21/16 20:55:31  5-MIN KAQV 220255Z AUTO 00000KT 5SM BR CLR 26/25 A3007 240 97 1600 000/00 RMK AO2 SLP177 T02560250 58007
03949KAQV AQV20160721210011007/21/16 21:00:31  5-MIN KAQV 220300Z AUTO 00000KT 4SM BR CLR 26/25 A3007 240 97 1600 000/00 RMK AO2 T02560250
03949KAQV AQV20160721210511007/21/16 21:05:31  5-MIN KAQV 220305Z AUTO 00000KT 5SM BR CLR 26/25 A3007 240 97 1600 000/00 RMK AO2 T02560250
03949KAQV AQV20160721211011007/21/16 21:10:31  5-MIN KAQV 220310Z AUTO 00000KT 6SM BR CLR 26/25 A3007 240 97 1600 000/00 RMK AO2 T02560250
03949KAQV AQV20160721211510707/21/16 21:15:31  5-MIN KAQV 220315Z AUTO 00000KT 7SM CLR 26/25 A3007 240 97 1600 000/00 RMK AO2 T02560250
03949KAQV AQV20160721212010707/21/16 21:20:31  5-MIN KAQV 220320Z AUTO 00000KT 7SM CLR 26/25 A3007 240 97 1600 000/00 RMK AO2 T02560250
03949KAQV AQV20160721212510707/21/16 21:25:31  5-MIN KAQV 220325Z AUTO 00000KT 8SM CLR 26/24 A3007 240 93 1600 000/00 RMK AO2 T02560244
03949KAQV AQV20160721213010707/21/16 21:30:31  5-MIN KAQV 220330Z AUTO 00000KT 9SM CLR 26/24 A3008 230 90 1600 000/00 RMK AO2 T02610244
03949KAQV AQV20160721213510807/21/16 21:35:31  5-MIN KAQV 220335Z AUTO 17003KT 10SM CLR 26/24 A3007 230 90 1600 160/03 RMK AO2 T02610244
03949KAQV AQV20160721214010807/21/16 21:40:31  5-MIN KAQV 220340Z AUTO 17003KT 10SM CLR 26/24 A3007 230 90 1600 160/03 RMK AO2 T02610244
03949KAQV AQV20160721214510807/21/16 21:45:31  5-MIN KAQV 220345Z AUTO 00000KT 10SM CLR 26/24 A3008 230 93 1500 000/00 RMK AO2 T02560244
03949KAQV AQV20160721215011507/21/16 21:50:31  5-MIN KAQV 220350Z AUTO 00000KT 10SM CLR 26/24 A3008 230 93 1500 000/00 RMK AO2 SLP180 T02560244
03949KAQV AQV20160721215511507/21/16 21:55:31  5-MIN KAQV 220355Z AUTO 00000KT 10SM CLR 26/24 A3008 230 93 1500 000/00 RMK AO2 SLP181 T02560244
03949KAQV AQV20160721220010807/21/16 22:00:31  5-MIN KAQV 220400Z AUTO 17003KT 10SM CLR 26/24 A3008 230 93 1500 170/03 RMK AO2 T02560244
03949KAQV AQV20160721220510807/21/16 22:05:31  5-MIN KAQV 220405Z AUTO 00000KT 10SM CLR 26/24 A3008 230 93 1500 000/00 RMK AO2 T02560244
03949KAQV AQV20160721221010707/21/16 22:10:31  5-MIN KAQV 220410Z AUTO 00000KT 9SM CLR 26/24 A3008 230 93 1500 000/00 RMK AO2 T02560244
03949KAQV AQV20160721221510707/21/16 22:15:31  5-MIN KAQV 220415Z AUTO 00000KT 9SM CLR 26/24 A3008 230 93 1500 000/00 RMK AO2 T02560244
03949KAQV AQV20160721222010707/21/16 22:20:31  5-MIN KAQV 220420Z AUTO 00000KT 8SM CLR 26/24 A3008 230 93 1500 000/00 RMK AO2 T02560244
03949KAQV AQV20160721222510707/21/16 22:25:31  5-MIN KAQV 220425Z AUTO 00000KT 8SM CLR 26/24 A3008 230 93 1500 000/00 RMK AO2 T02560244
03949KAQV AQV20160721223010707/21/16 22:30:31  5-MIN KAQV 220430Z AUTO 00000KT 8SM CLR 26/24 A3008 230 93 1500 000/00 RMK AO2 T02560244
03949KAQV AQV20160721223510707/21/16 22:35:31  5-MIN KAQV 220435Z AUTO 00000KT 7SM CLR 25/24 A3008 230 97 1500 000/00 RMK AO2 T02500244
03949KAQV AQV20160721224010707/21/16 22:40:31  5-MIN KAQV 220440Z AUTO 00000KT 7SM CLR 25/24 A3008 230 97 1500 000/00 RMK AO2 T02500244
03949KAQV AQV20160721224511007/21/16 22:45:31  5-MIN KAQV 220445Z AUTO 00000KT 6SM BR CLR 25/24 A3008 230 97 1500 000/00 RMK AO2 T02500244
03949KAQV AQV20160721225011707/21/16 22:50:31  5-MIN KAQV 220450Z AUTO 00000KT 6SM BR CLR 25/24 A3008 230 97 1500 000/00 RMK AO2 SLP181 T02500244
03949KAQV AQV20160721225511707/21/16 22:55:31  5-MIN KAQV 220455Z AUTO 00000KT 6SM BR CLR 25/24 A3008 230 97 1500 000/00 RMK AO2 SLP180 T02500244
03949KAQV AQV20160721230010707/21/16 23:00:31  5-MIN KAQV 220500Z AUTO 00000KT 7SM CLR 25/24 A3008 230 97 1500 000/00 RMK AO2 T02500244
03949KAQV AQV20160721230511007/21/16 23:05:31  5-MIN KAQV 220505Z AUTO 00000KT 6SM BR CLR 25/24 A3008 230 97 1500 000/00 RMK AO2 T02500244
03949KAQV AQV20160721231011007/21/16 23:10:31  5-MIN KAQV 220510Z AUTO 00000KT 6SM BR CLR 25/24 A3007 240 97 1500 000/00 RMK AO2 T02500244
03949KAQV AQV20160721231511007/21/16 23:15:31  5-MIN KAQV 220515Z AUTO 00000KT 6SM BR CLR 25/24 A3007 240 97 1500 000/00 RMK AO2 T02500244
03949KAQV AQV20160721232011007/21/16 23:20:31  5-MIN KAQV 220520Z AUTO 00000KT 5SM BR CLR 25/24 A3007 240 97 1500 000/00 RMK AO2 T02500244
03949KAQV AQV20160721232511007/21/16 23:25:31  5-MIN KAQV 220525Z AUTO 00000KT 5SM BR CLR 25/24 A3007 240 97 1500 000/00 RMK AO2 T02500244
03949KAQV AQV20160721233011007/21/16 23:30:31  5-MIN KAQV 220530Z AUTO 00000KT 5SM BR CLR 25/24 A3007 240 93 1500 000/00 RMK AO2 T02500239
03949KAQV AQV20160721233511007/21/16 23:35:31  5-MIN KAQV 220535Z AUTO 00000KT 5SM BR CLR 24/24 A3006 240 97 1400 000/00 RMK AO2 T02440239
03949KAQV AQV20160721234011007/21/16 23:40:31  5-MIN KAQV 220540Z AUTO 00000KT 5SM BR CLR 24/24 A3006 250 97 1400 000/00 RMK AO2 T02440239
03949KAQV AQV20160721234511007/21/16 23:45:31  5-MIN KAQV 220545Z AUTO 00000KT 5SM BR CLR 24/24 A3006 250 97 1400 000/00 RMK AO2 T02440239
03949KAQV AQV20160721235014507/21/16 23:50:31  5-MIN KAQV 220550Z AUTO 00000KT 6SM BR CLR 25/24 A3006 250 93 1500 000/00 RMK AO2 SLP174 T02500239 10289 20244 403670233 53008
03949KAQV AQV20160721235514207/21/16 23:55:31  5-MIN KAQV 220555Z AUTO 00000KT 7SM CLR 25/24 A3006 250 93 1500 000/00 RMK AO2 SLP174 T02500239 10289 20244 403670233 53008
03949KAQV AQV20160722000010707/22/16 00:00:31  5-MIN KAQV 220600Z AUTO 00000KT 7SM CLR 25/24 A3006 250 93 1500 000/00 RMK AO2 T02500239
03949KAQV AQV20160722000510707/22/16 00:05:31  5-MIN KAQV 220605Z AUTO 00000KT 8SM CLR 26/24 A3006 250 93 1600 000/00 RMK AO2 T02560244
03949KAQV AQV20160722001010707/22/16 00:10:31  5-MIN KAQV 220610Z AUTO 00000KT 9SM CLR 25/24 A3006 250 97 1500 000/00 RMK AO2 T02500244
03949KAQV AQV20160722001510707/22/16 00:15:31  5-MIN KAQV 220615Z AUTO 00000KT 8SM CLR 25/24 A3006 250 97 1500 000/00 RMK AO2 T02500244
03949KAQV AQV20160722002010707/22/16 00:20:31  5-MIN KAQV 220620Z AUTO 00000KT 8SM CLR 26/24 A3006 250 93 1600 000/00 RMK AO2 T02560244
03949KAQV AQV20160722002510707/22/16 00:25:31  5-MIN KAQV 220625Z AUTO 00000KT 9SM CLR 26/24 A3006 250 93 1600 000/00 RMK AO2 T02560244
03949KAQV AQV20160722003010707/22/16 00:30:31  5-MIN KAQV 220630Z AUTO 00000KT 9SM CLR 26/24 A3006 250 93 1600 000/00 RMK AO2 T02560244
03949KAQV AQV20160722003510707/22/16 00:35:31  5-MIN KAQV 220635Z AUTO 00000KT 8SM CLR 25/24 A3005 250 97 1500 000/00 RMK AO2 T02500244
03949KAQV AQV20160722004010707/22/16 00:40:31  5-MIN KAQV 220640Z AUTO 00000KT 7SM CLR 25/24 A3005 250 97 1500 000/00 RMK AO2 T02500244
03949KAQV AQV20160722004510707/22/16 00:45:31  5-MIN KAQV 220645Z AUTO 00000KT 7SM CLR 25/24 A3005 250 97 1500 000/00 RMK AO2 T02500244
03949KAQV AQV20160722005011407/22/16 00:50:31  5-MIN KAQV 220650Z AUTO 00000KT 8SM CLR 25/24 A3005 250 93 1500 000/00 RMK AO2 SLP172 T02500239
03949KAQV AQV20160722005511407/22/16 00:55:31  5-MIN KAQV 220655Z AUTO 00000KT 9SM CLR 26/24 A3005 260 90 1600 000/00 RMK AO2 SLP171 T02560239
03949KAQV AQV20160722010010807/22/16 01:00:31  5-MIN KAQV 220700Z AUTO 00000KT 10SM CLR 26/24 A3005 260 90 1600 000/00 RMK AO2 T02560239
03949KAQV AQV20160722010510807/22/16 01:05:31  5-MIN KAQV 220705Z AUTO 00000KT 10SM CLR 26/24 A3005 260 90 1600 000/00 RMK AO2 T02560239
03949KAQV AQV20160722011010807/22/16 01:10:31  5-MIN KAQV 220710Z AUTO 00000KT 10SM CLR 25/24 A3004 260 93 1500 000/00 RMK AO2 T02500239
03949KAQV AQV20160722011510707/22/16 01:15:31  5-MIN KAQV 220715Z AUTO 00000KT 9SM CLR 25/24 A3004 260 93 1500 000/00 RMK AO2 T02500239
03949KAQV AQV20160722012010707/22/16 01:20:31  5-MIN KAQV 220720Z AUTO 00000KT 8SM CLR 25/24 A3004 260 93 1500 000/00 RMK AO2 T02500239
03949KAQV AQV20160722012510707/22/16 01:25:31  5-MIN KAQV 220725Z AUTO 00000KT 9SM CLR 26/24 A3004 260 90 1600 000/00 RMK AO2 T02560239
03949KAQV AQV20160722013010807/22/16 01:30:31  5-MIN KAQV 220730Z AUTO 00000KT 10SM CLR 25/24 A3004 270 93 1500 000/00 RMK AO2 T02500239
03949KAQV AQV20160722013510807/22/16 01:35:31  5-MIN KAQV 220735Z AUTO 00000KT 10SM CLR 25/24 A3004 260 93 1500 000/00 RMK AO2 T02500239
03949KAQV AQV20160722014010707/22/16 01:40:31  5-MIN KAQV 220740Z AUTO 00000KT 8SM CLR 24/24 A3004 260 97 1500 000/00 RMK AO2 T02440239
03949KAQV AQV20160722014510707/22/16 01:45:31  5-MIN KAQV 220745Z AUTO 00000KT 7SM CLR 24/24 A3004 260 97 1500 000/00 RMK AO2 T02440239
03949KAQV AQV20160722015011407/22/16 01:50:31  5-MIN KAQV 220750Z AUTO 00000KT 7SM CLR 25/24 A3004 270 93 1500 000/00 RMK AO2 SLP168 T02500239
03949KAQV AQV20160722015511407/22/16 01:55:31  5-MIN KAQV 220755Z AUTO 00000KT 8SM CLR 25/24 A3004 270 93 1500 000/00 RMK AO2 SLP168 T02500239
03949KAQV AQV20160722020010707/22/16 02:00:31  5-MIN KAQV 220800Z AUTO 00000KT 8SM CLR 25/24 A3004 270 93 1500 000/00 RMK AO2 T02500239
03949KAQV AQV20160722020510707/22/16 02:05:31  5-MIN KAQV 220805Z AUTO 00000KT 8SM CLR 25/24 A3004 270 93 1500 000/00 RMK AO2 T02500239
03949KAQV AQV20160722021010707/22/16 02:10:31  5-MIN KAQV 220810Z AUTO 00000KT 9SM CLR 25/24 A3004 270 93 1500 000/00 RMK AO2 T02500239
03949KAQV AQV20160722021510707/22/16 02:15:31  5-MIN KAQV 220815Z AUTO 00000KT 8SM CLR 25/24 A3004 270 93 1500 000/00 RMK AO2 T02500239
03949KAQV AQV20160722022010707/22/16 02:20:31  5-MIN KAQV 220820Z AUTO 00000KT 7SM CLR 25/24 A3004 270 93 1500 000/00 RMK AO2 T02500239
03949KAQV AQV20160722022510707/22/16 02:25:31  5-MIN KAQV 220825Z AUTO 00000KT 7SM CLR 25/24 A3004 260 93 1500 000/00 RMK AO2 T02500239
03949KAQV AQV20160722023010707/22/16 02:30:31  5-MIN KAQV 220830Z AUTO 00000KT 7SM CLR 25/24 A3004 270 93 1500 000/00 RMK AO2 T02500239
03949KAQV AQV20160722023511007/22/16 02:35:31  5-MIN KAQV 220835Z AUTO 00000KT 6SM BR CLR 25/24 A3004 260 93 1500 000/00 RMK AO2 T02500239
03949KAQV AQV20160722024011007/22/16 02:40:31  5-MIN KAQV 220840Z AUTO 00000KT 6SM BR CLR 25/24 A3004 260 93 1500 000/00 RMK AO2 T02500239
03949KAQV AQV20160722024511007/22/16 02:45:31  5-MIN KAQV 220845Z AUTO 00000KT 6SM BR CLR 25/24 A3004 260 93 1500 000/00 RMK AO2 T02500239
03949KAQV AQV20160722025012307/22/16 02:50:31  5-MIN KAQV 220850Z AUTO 00000KT 5SM BR CLR 25/24 A3005 260 93 1500 000/00 RMK AO2 SLP169 T02500239 58003
03949KAQV AQV20160722025512307/22/16 02:55:31  5-MIN KAQV 220855Z AUTO 00000KT 5SM BR CLR 25/24 A3005 260 93 1500 000/00 RMK AO2 SLP170 T02500239 58003
03949KAQV AQV20160722030011007/22/16 03:00:31  5-MIN KAQV 220900Z AUTO 00000KT 6SM BR CLR 25/24 A3005 260 93 1500 000/00 RMK AO2 T02500239
03949KAQV AQV20160722030511007/22/16 03:05:31  5-MIN KAQV 220905Z AUTO 00000KT 5SM BR CLR 25/24 A3005 260 93 1500 000/00 RMK AO2 T02500239
03949KAQV AQV20160722031011007/22/16 03:10:31  5-MIN KAQV 220910Z AUTO 17003KT 5SM BR CLR 24/24 A3005 260 97 1500 170/03 RMK AO2 T02440239
03949KAQV AQV20160722031511007/22/16 03:15:31  5-MIN KAQV 220915Z AUTO 00000KT 4SM BR CLR 24/23 A3005 260 93 1500 000/00 RMK AO2 T02440233
03949KAQV AQV20160722032011007/22/16 03:20:31  5-MIN KAQV 220920Z AUTO 00000KT 3SM BR CLR 24/24 A3005 260 97 1500 000/00 RMK AO2 T02440239
03949KAQV AQV20160722032511007/22/16 03:25:31  5-MIN KAQV 220925Z AUTO 00000KT 4SM BR CLR 24/23 A3005 260 93 1500 000/00 RMK AO2 T02440233
03949KAQV AQV20160722033011007/22/16 03:30:31  5-MIN KAQV 220930Z AUTO 00000KT 4SM BR CLR 24/23 A3005 260 93 1500 000/00 RMK AO2 T02440233
03949KAQV AQV20160722033511007/22/16 03:35:31  5-MIN KAQV 220935Z AUTO 00000KT 4SM BR CLR 24/23 A3005 260 93 1500 000/00 RMK AO2 T02440233
03949KAQV AQV20160722034011007/22/16 03:40:31  5-MIN KAQV 220940Z AUTO 00000KT 5SM BR CLR 24/24 A3005 260 97 1500 000/00 RMK AO2 T02440239
03949KAQV AQV20160722034511007/22/16 03:45:31  5-MIN KAQV 220945Z AUTO 00000KT 6SM BR CLR 24/24 A3005 260 97 1500 000/00 RMK AO2 T02440239
03949KAQV AQV20160722035011707/22/16 03:50:31  5-MIN KAQV 220950Z AUTO 00000KT 6SM BR CLR 24/24 A3005 260 97 1500 000/00 RMK AO2 SLP171 T02440239
03949KAQV AQV20160722035511707/22/16 03:55:31  5-MIN KAQV 220955Z AUTO 00000KT 6SM BR CLR 24/24 A3005 260 97 1500 000/00 RMK AO2 SLP171 T02440239
03949KAQV AQV20160722040011007/22/16 04:00:31  5-MIN KAQV 221000Z AUTO 00000KT 5SM BR CLR 24/24 A3005 260 97 1500 000/00 RMK AO2 T02440239
03949KAQV AQV20160722040511007/22/16 04:05:31  5-MIN KAQV 221005Z AUTO 00000KT 3SM BR CLR 24/23 A3005 260 97 1400 000/00 RMK AO2 T02390233
03949KAQV AQV20160722041011007/22/16 04:10:31  5-MIN KAQV 221010Z AUTO 00000KT 3SM BR CLR 24/23 A3005 250 97 1400 000/00 RMK AO2 T02390233
03949KAQV AQV20160722041511007/22/16 04:15:31  5-MIN KAQV 221015Z AUTO 00000KT 3SM BR CLR 24/23 A3005 250 97 1400 000/00 RMK AO2 T02390233
03949KAQV AQV20160722042011007/22/16 04:20:31  5-MIN KAQV 221020Z AUTO 00000KT 3SM BR CLR 24/23 A3006 250 97 1400 000/00 RMK AO2 T02390233
03949KAQV AQV20160722042511007/22/16 04:25:31  5-MIN KAQV 221025Z AUTO 00000KT 4SM BR CLR 24/23 A3006 250 97 1400 000/00 RMK AO2 T02390233
03949KAQV AQV20160722043011007/22/16 04:30:31  5-MIN KAQV 221030Z AUTO 00000KT 4SM BR CLR 24/23 A3006 250 97 1400 000/00 RMK AO2 T02390233
03949KAQV AQV20160722043511007/22/16 04:35:31  5-MIN KAQV 221035Z AUTO 00000KT 3SM BR CLR 24/23 A3006 250 97 1400 000/00 RMK AO2 T02390233
03949KAQV AQV20160722044011007/22/16 04:40:31  5-MIN KAQV 221040Z AUTO 00000KT 3SM BR CLR 24/23 A3006 250 97 1400 000/00 RMK AO2 T02390233
03949KAQV AQV20160722044511007/22/16 04:45:31  5-MIN KAQV 221045Z AUTO 00000KT 3SM BR CLR 24/23 A3006 240 97 1400 000/00 RMK AO2 T02390233
03949KAQV AQV20160722045011707/22/16 04:50:31  5-MIN KAQV 221050Z AUTO 00000KT 3SM BR CLR 24/23 A3007 240 97 1400 000/00 RMK AO2 SLP177 T02390233
03949KAQV AQV20160722045511707/22/16 04:55:31  5-MIN KAQV 221055Z AUTO 00000KT 3SM BR CLR 24/23 A3006 240 97 1400 000/00 RMK AO2 SLP177 T02390233
03949KAQV AQV20160722050011007/22/16 05:00:31  5-MIN KAQV 221100Z AUTO 00000KT 3SM BR CLR 24/23 A3006 240 97 1400 000/00 RMK AO2 T02390233
03949KAQV AQV20160722050511007/22/16 05:05:31  5-MIN KAQV 221105Z AUTO 00000KT 3SM BR CLR 24/23 A3006 240 97 1400 000/00 RMK AO2 T02390233
03949KAQV AQV20160722051011007/22/16 05:10:31  5-MIN KAQV 221110Z AUTO 00000KT 3SM BR CLR 24/23 A3007 240 97 1400 000/00 RMK AO2 T02390233
03949KAQV AQV20160722051511007/22/16 05:15:31  5-MIN KAQV 221115Z AUTO 00000KT 3SM BR CLR 24/23 A3007 240 97 1400 000/00 RMK AO2 T02390233
03949KAQV AQV20160722052011007/22/16 05:20:31  5-MIN KAQV 221120Z AUTO 00000KT 3SM BR CLR 24/23 A3007 240 97 1400 000/00 RMK AO2 T02390233
03949KAQV AQV20160722052511007/22/16 05:25:31  5-MIN KAQV 221125Z AUTO 00000KT 3SM BR CLR 24/23 A3007 240 97 1400 000/00 RMK AO2 T02390233
03949KAQV AQV20160722053011407/22/16 05:30:31  5-MIN KAQV 221130Z AUTO 00000KT 2 1/2SM BR CLR 24/23 A3007 240 97 1400 000/00 RMK AO2 T02390233
03949KAQV AQV20160722053511407/22/16 05:35:31  5-MIN KAQV 221135Z AUTO 00000KT 2 1/2SM BR CLR 24/23 A3006 240 97 1400 000/00 RMK AO2 T02390233
03949KAQV AQV20160722054011407/22/16 05:40:31  5-MIN KAQV 221140Z AUTO 00000KT 2 1/2SM BR CLR 24/23 A3007 240 97 1400 000/00 RMK AO2 T02390233
03949KAQV AQV20160722054511407/22/16 05:45:31  5-MIN KAQV 221145Z AUTO 00000KT 2 1/2SM BR CLR 24/23 A3007 240 97 1400 000/00 RMK AO2 T02390233
03949KAQV AQV20160722055014507/22/16 05:50:31  5-MIN KAQV 221150Z AUTO 00000KT 2 1/2SM BR CLR 24/23 A3007 240 93 1400 000/00 RMK AO2 SLP179 70042 T02440233 10256 20239 55004
03949KAQV AQV20160722055514507/22/16 05:55:31  5-MIN KAQV 221155Z AUTO 00000KT 2 1/2SM BR CLR 24/24 A3007 240 97 1400 000/00 RMK AO2 SLP179 70042 T02440239 10256 20239 55004
03949KAQV AQV20160722060011407/22/16 06:00:31  5-MIN KAQV 221200Z AUTO 00000KT 2 1/2SM BR CLR 24/23 A3007 240 93 1400 000/00 RMK AO2 T02440233
03949KAQV AQV20160722060511007/22/16 06:05:31  5-MIN KAQV 221205Z AUTO 00000KT 3SM BR CLR 24/23 A3007 240 93 1400 000/00 RMK AO2 T02440233
03949KAQV AQV20160722061011007/22/16 06:10:31  5-MIN KAQV 221210Z AUTO 00000KT 4SM BR CLR 24/24 A3007 240 97 1400 000/00 RMK AO2 T02440239
03949KAQV AQV20160722061511007/22/16 06:15:31  5-MIN KAQV 221215Z AUTO 00000KT 5SM BR CLR 25/24 A3007 240 93 1500 000/00 RMK AO2 T02500239
03949KAQV AQV20160722062011007/22/16 06:20:31  5-MIN KAQV 221220Z AUTO 00000KT 5SM BR CLR 25/24 A3007 230 93 1500 000/00 RMK AO2 T02500239
03949KAQV AQV20160722062511007/22/16 06:25:31  5-MIN KAQV 221225Z AUTO 00000KT 5SM BR CLR 24/24 A3008 230 97 1400 000/00 RMK AO2 T02440239
03949KAQV AQV20160722063011007/22/16 06:30:31  5-MIN KAQV 221230Z AUTO 00000KT 6SM BR CLR 25/24 A3008 230 93 1500 000/00 RMK AO2 T02500239
03949KAQV AQV20160722063510707/22/16 06:35:31  5-MIN KAQV 221235Z AUTO 00000KT 7SM CLR 25/24 A3008 230 93 1500 000/00 RMK AO2 T02500239
03949KAQV AQV20160722064010707/22/16 06:40:31  5-MIN KAQV 221240Z AUTO 00000KT 8SM CLR 26/24 A3008 230 93 1500 000/00 RMK AO2 T02560244
03949KAQV AQV20160722064510707/22/16 06:45:31  5-MIN KAQV 221245Z AUTO 00000KT 9SM CLR 26/24 A3007 230 90 1600 000/00 RMK AO2 T02610244
03949KAQV AQV20160722065011507/22/16 06:50:31  5-MIN KAQV 221250Z AUTO VRB03KT 10SM CLR 26/24 A3008 230 87 1600 VRB/03 RMK AO2 SLP181 T02610239
03949KAQV AQV20160722065511507/22/16 06:55:31  5-MIN KAQV 221255Z AUTO VRB03KT 10SM CLR 27/23 A3008 230 82 1700 VRB/03 RMK AO2 SLP181 T02670233
03949KAQV AQV20160722070010807/22/16 07:00:31  5-MIN KAQV 221300Z AUTO 00000KT 10SM CLR 27/24 A3008 230 84 1700 000/00 RMK AO2 T02670239
03949KAQV AQV20160722070510807/22/16 07:05:31  5-MIN KAQV 221305Z AUTO 00000KT 10SM CLR 27/24 A3008 230 82 1700 000/00 RMK AO2 T02720239
03949KAQV AQV20160722071010807/22/16 07:10:31  5-MIN KAQV 221310Z AUTO 26003KT 10SM CLR 27/24 A3008 230 82 1700 250/03 RMK AO2 T02720239
03949KAQV AQV20160722071510807/22/16 07:15:31  5-MIN KAQV 221315Z AUTO 00000KT 10SM CLR 28/24 A3008 230 79 1800 000/00 RMK AO2 T02780239
03949KAQV AQV20160722072010807/22/16 07:20:31  5-MIN KAQV 221320Z AUTO VRB03KT 10SM CLR 28/23 A3008 230 76 1800 VRB/03 RMK AO2 T02780233
03949KAQV AQV20160722072510807/22/16 07:25:31  5-MIN KAQV 221325Z AUTO 00000KT 10SM CLR 28/24 A3008 230 76 1900 000/00 RMK AO2 T02830239
03949KAQV AQV20160722073010807/22/16 07:30:31  5-MIN KAQV 221330Z AUTO 00000KT 10SM CLR 28/24 A3008 230 76 1900 000/00 RMK AO2 T02830239
03949KAQV AQV20160722073510807/22/16 07:35:31  5-MIN KAQV 221335Z AUTO VRB03KT 10SM CLR 28/24 A3008 230 76 1900 VRB/03 RMK AO2 T02830239
03949KAQV AQV20160722074010807/22/16 07:40:31  5-MIN KAQV 221340Z AUTO VRB04KT 10SM CLR 28/24 A3008 230 76 1900 VRB/04 RMK AO2 T02830239
03949KAQV AQV20160722074510807/22/16 07:45:31  5-MIN KAQV 221345Z AUTO VRB04KT 10SM CLR 29/24 A3008 230 74 1900 VRB/04 RMK AO2 T02890239
03949KAQV AQV20160722075011507/22/16 07:50:31  5-MIN KAQV 221350Z AUTO VRB03KT 10SM CLR 29/24 A3008 230 71 2000 VRB/03 RMK AO2 SLP182 T02940239
03949KAQV AQV20160722075511507/22/16 07:55:31  5-MIN KAQV 221355Z AUTO VRB05KT 10SM CLR 29/24 A3008 230 71 2000 VRB/05 RMK AO2 SLP182 T02940239
03949KAQV AQV20160722080010807/22/16 08:00:31  5-MIN KAQV 221400Z AUTO VRB04KT 10SM CLR 29/23 A3008 230 69 2000 VRB/04 RMK AO2 T02940233
03949KAQV AQV20160722080510807/22/16 08:05:31  5-MIN KAQV 221405Z AUTO VRB04KT 10SM CLR 30/23 A3008 230 67 2000 VRB/04 RMK AO2 T03000233
03949KAQV AQV20160722081010807/22/16 08:10:31  5-MIN KAQV 221410Z AUTO 00000KT 10SM CLR 30/23 A3008 230 67 2000 000/00 RMK AO2 T03000233
03949KAQV AQV20160722081510807/22/16 08:15:31  5-MIN KAQV 221415Z AUTO VRB03KT 10SM CLR 31/23 A3008 230 65 2100 VRB/03 RMK AO2 T03060233
03949KAQV AQV20160722082010807/22/16 08:20:31  5-MIN KAQV 221420Z AUTO VRB04KT 10SM CLR 31/23 A3008 230 62 2100 VRB/04 RMK AO2 T03060228
03949KAQV AQV20160722082510807/22/16 08:25:31  5-MIN KAQV 221425Z AUTO VRB05KT 10SM CLR 31/23 A3008 230 62 2100 VRB/05 RMK AO2 T03060228
03949KAQV AQV20160722083010807/22/16 08:30:31  5-MIN KAQV 221430Z AUTO VRB04KT 10SM CLR 31/23 A3008 230 62 2100 VRB/04 RMK AO2 T03060228
03949KAQV AQV20160722083511107/22/16 08:35:31  5-MIN KAQV 221435Z AUTO VRB03KT 10SM FEW055 31/23 A3008 220 60 2200 VRB/03 RMK AO2 T03110228
03949KAQV AQV20160722084011107/22/16 08:40:31  5-MIN KAQV 221440Z AUTO 28004KT 10SM SCT055 31/22 A3008 230 60 2100 270/04 RMK AO2 T03060222
03949KAQV AQV20160722084511107/22/16 08:45:31  5-MIN KAQV 221445Z AUTO 29004KT 10SM BKN055 31/22 A3008 230 60 2100 280/04 RMK AO2 T03060222
03949KAQV AQV20160722085012407/22/16 08:50:31  5-MIN KAQV 221450Z AUTO VRB04KT 10SM BKN055 31/22 A3008 230 58 2200 VRB/04 RMK AO2 SLP181 T03110222 53008
03949KAQV AQV20160722085512407/22/16 08:55:31  5-MIN KAQV 221455Z AUTO VRB03KT 10SM BKN055 31/22 A3008 230 58 2200 VRB/03 RMK AO2 SLP183 T03110222 53008
03949KAQV AQV20160722090011107/22/16 09:00:31  5-MIN KAQV 221500Z AUTO VRB03KT 10SM OVC055 31/22 A3009 220 58 2200 VRB/03 RMK AO2 T03110222
03949KAQV AQV20160722090511107/22/16 09:05:31  5-MIN KAQV 221505Z AUTO VRB03KT 10SM OVC060 32/22 A3009 220 56 2200 VRB/03 RMK AO2 T03170222
03949KAQV AQV20160722091011107/22/16 09:10:31  5-MIN KAQV 221510Z AUTO VRB03KT 10SM BKN060 31/23 A3009 220 60 2200 VRB/03 RMK AO2 T03110228
03949KAQV AQV20160722091511107/22/16 09:15:31  5-MIN KAQV 221515Z AUTO VRB03KT 10SM BKN060 32/23 A3009 220 58 2200 VRB/03 RMK AO2 T03170228
03949KAQV AQV20160722092011107/22/16 09:20:31  5-MIN KAQV 221520Z AUTO 00000KT 10SM SCT060 32/23 A3009 220 58 2200 000/00 RMK AO2 T03170228
03949KAQV AQV20160722092511107/22/16 09:25:31  5-MIN KAQV 221525Z AUTO VRB04KT 10SM BKN060 32/22 A3009 220 55 2300 VRB/04 RMK AO2 T03220222
03949KAQV AQV20160722093011107/22/16 09:30:31  5-MIN KAQV 221530Z AUTO 36006KT 10SM BKN055 32/22 A3009 220 56 2200 350/06 RMK AO2 T03170222
03949KAQV AQV20160722093511107/22/16 09:35:31  5-MIN KAQV 221535Z AUTO VRB06KT 10SM BKN055 32/23 A3009 220 57 2300 VRB/06 RMK AO2 T03220228
03949KAQV AQV20160722094011107/22/16 09:40:31  5-MIN KAQV 221540Z AUTO 36004KT 10SM BKN055 32/23 A3009 220 57 2300 350/04 RMK AO2 T03220228
03949KAQV AQV20160722094511107/22/16 09:45:31  5-MIN KAQV 221545Z AUTO 32004KT 10SM BKN055 32/23 A3009 220 58 2200 320/04 RMK AO2 T03170228
03949KAQV AQV20160722095011807/22/16 09:50:31  5-MIN KAQV 221550Z AUTO 00000KT 10SM BKN055 32/23 A3009 220 57 2300 000/00 RMK AO2 SLP185 T03220228
03949KAQV AQV20160722095511807/22/16 09:55:31  5-MIN KAQV 221555Z AUTO VRB03KT 10SM BKN055 32/23 A3009 220 57 2300 VRB/03 RMK AO2 SLP185 T03220228
03949KAQV AQV20160722100011107/22/16 10:00:31  5-MIN KAQV 221600Z AUTO VRB04KT 10SM BKN055 33/23 A3009 220 55 2300 VRB/04 RMK AO2 T03280228
03949KAQV AQV20160722100511107/22/16 10:05:31  5-MIN KAQV 221605Z AUTO VRB03KT 10SM SCT055 33/23 A3009 220 55 2300 VRB/03 RMK AO2 T03280228
03949KAQV AQV20160722101011107/22/16 10:10:31  5-MIN KAQV 221610Z AUTO 36004KT 10SM BKN055 32/23 A3009 220 57 2300 350/04 RMK AO2 T03220228
03949KAQV AQV20160722101511107/22/16 10:15:31  5-MIN KAQV 221615Z AUTO 00000KT 10SM SCT055 33/23 A3009 220 55 2300 000/00 RMK AO2 T03280228
03949KAQV AQV20160722102011107/22/16 10:20:31  5-MIN KAQV 221620Z AUTO 28003KT 10SM SCT055 33/23 A3009 220 55 2300 270/03 RMK AO2 T03280228
03949KAQV AQV20160722102510107/22/16 10:25:31  5-MIN KAQV 221625Z AUTO 10SM SCT055 33/23 A3009 220 57 2300 M /M RMK AO2 T03280233
03949KAQV AQV20160722103011107/22/16 10:30:31  5-MIN KAQV 221630Z AUTO 34003KT 10SM SCT055 33/23 A3009 220 55 2300 340/03 RMK AO2 T03280228
03949KAQV AQV20160722103511107/22/16 10:35:31  5-MIN KAQV 221635Z AUTO 01003KT 10SM FEW055 33/23 A3009 220 53 2400 360/03 RMK AO2 T03330228
03949KAQV AQV20160722104011107/22/16 10:40:31  5-MIN KAQV 221640Z AUTO VRB03KT 10SM FEW055 34/23 A3009 220 51 2500 VRB/03 RMK AO2 T03390228
03949KAQV AQV20160722104511107/22/16 10:45:31  5-MIN KAQV 221645Z AUTO VRB03KT 10SM FEW055 34/23 A3009 220 51 2500 VRB/03 RMK AO2 T03390228
03949KAQV AQV20160722105011807/22/16 10:50:31  5-MIN KAQV 221650Z AUTO 30003KT 10SM FEW055 33/22 A3009 220 53 2300 290/03 RMK AO2 SLP185 T03280222
03949KAQV AQV20160722105511507/22/16 10:55:31  5-MIN KAQV 221655Z AUTO VRB03KT 10SM CLR 33/23 A3009 220 53 2400 VRB/03 RMK AO2 SLP185 T03330228
03949KAQV AQV20160722110010807/22/16 11:00:31  5-MIN KAQV 221700Z AUTO VRB04KT 10SM CLR 34/23 A3009 220 51 2500 VRB/04 RMK AO2 T03390228
03949KAQV AQV20160722110510807/22/16 11:05:31  5-MIN KAQV 221705Z AUTO VRB03KT 10SM CLR 34/22 A3009 220 50 2500 VRB/03 RMK AO2 T03390222
03949KAQV AQV20160722111009807/22/16 11:10:31  5-MIN KAQV 221710Z AUTO 10SM CLR 34/23 A3009 220 50 2500 M /M RMK AO2 T03440228
03949KAQV AQV20160722111510807/22/16 11:15:31  5-MIN KAQV 221715Z AUTO VRB04KT 10SM CLR 34/23 A3009 220 51 2500 VRB/04 RMK AO2 T03390228
03949KAQV AQV20160722112010807/22/16 11:20:31  5-MIN KAQV 221720Z AUTO VRB03KT 10SM CLR 34/23 A3009 220 51 2500 VRB/03 RMK AO2 T03390228
03949KAQV AQV20160722112510807/22/16 11:25:31  5-MIN KAQV 221725Z AUTO VRB04KT 10SM CLR 34/23 A3008 230 50 2500 VRB/04 RMK AO2 T03440228
03949KAQV AQV20160722113010807/22/16 11:30:31  5-MIN KAQV 221730Z AUTO VRB05KT 10SM CLR 34/23 A3008 230 50 2500 VRB/05 RMK AO2 T03440228
03949KAQV AQV20160722113510807/22/16 11:35:31  5-MIN KAQV 221735Z AUTO 00000KT 10SM CLR 34/22 A3008 230 50 2500 000/00 RMK AO2 T03390222
03949KAQV AQV20160722114010807/22/16 11:40:31  5-MIN KAQV 221740Z AUTO 00000KT 10SM CLR 34/22 A3008 230 50 2500 000/00 RMK AO2 T03390222
03949KAQV AQV20160722114510807/22/16 11:45:31  5-MIN KAQV 221745Z AUTO 27004KT 10SM CLR 34/23 A3008 230 50 2500 270/04 RMK AO2 T03440228
03949KAQV AQV20160722115013307/22/16 11:50:31  5-MIN KAQV 221750Z AUTO 00000KT 10SM CLR 34/23 A3008 230 51 2500 000/00 RMK AO2 SLP181 T03390228 10344 20244 51005
03949KAQV AQV20160722115513307/22/16 11:55:31  5-MIN KAQV 221755Z AUTO 03004KT 10SM CLR 34/22 A3008 230 48 2500 030/04 RMK AO2 SLP180 T03440222 10344 20244 51005
03949KAQV AQV20160722120010807/22/16 12:00:31  5-MIN KAQV 221800Z AUTO VRB03KT 10SM CLR 34/22 A3007 240 48 2500 VRB/03 RMK AO2 T03440222
03949KAQV AQV20160722120510807/22/16 12:05:31  5-MIN KAQV 221805Z AUTO VRB03KT 10SM CLR 35/22 A3007 240 47 2600 VRB/03 RMK AO2 T03500222
03949KAQV AQV20160722121011107/22/16 12:10:31  5-MIN KAQV 221810Z AUTO 00000KT 10SM FEW046 35/22 A3007 240 47 2600 000/00 RMK AO2 T03500222
03949KAQV AQV20160722121510107/22/16 12:15:31  5-MIN KAQV 221815Z AUTO 10SM SCT046 35/22 A3007 240 47 2600 M /M RMK AO2 T03500222
03949KAQV AQV20160722122011107/22/16 12:20:31  5-MIN KAQV 221820Z AUTO 31003KT 10SM FEW048 34/22 A3006 240 50 2500 310/03 RMK AO2 T03390222
03949KAQV AQV20160722122511107/22/16 12:25:31  5-MIN KAQV 221825Z AUTO 00000KT 10SM FEW048 34/22 A3006 250 48 2500 000/00 RMK AO2 T03390217
03949KAQV AQV20160722123011107/22/16 12:30:31  5-MIN KAQV 221830Z AUTO 20004KT 10SM FEW048 34/23 A3006 250 50 2600 200/04 RMK AO2 T03440228
03949KAQV AQV20160722123511107/22/16 12:35:31  5-MIN KAQV 221835Z AUTO VRB05KT 10SM FEW047 34/23 A3006 250 50 2600 VRB/05 RMK AO2 T03440228
03949KAQV AQV20160722124011107/22/16 12:40:31  5-MIN KAQV 221840Z AUTO VRB03KT 10SM SCT049 34/23 A3006 250 51 2500 VRB/03 RMK AO2 T03390228
03949KAQV AQV20160722124511807/22/16 12:45:31  5-MIN KAQV 221845Z AUTO VRB03KT 10SM SCT049 SCT065 35/23 A3006 250 50 2600 VRB/03 RMK AO2 T03500233
03949KAQV AQV20160722125012507/22/16 12:50:31  5-MIN KAQV 221850Z AUTO 00000KT 10SM FEW049 SCT065 34/23 A3005 250 51 2500 000/00 RMK AO2 SLP172 T03390228
03949KAQV AQV20160722125512507/22/16 12:55:31  5-MIN KAQV 221855Z AUTO VRB05KT 10SM FEW049 SCT065 35/23 A3005 260 48 2600 VRB/05 RMK AO2 SLP171 T03500228
03949KAQV AQV20160722130011807/22/16 13:00:31  5-MIN KAQV 221900Z AUTO 29004KT 10SM FEW050 SCT065 35/23 A3005 260 48 2600 280/04 RMK AO2 T03500228
03949KAQV AQV20160722130511807/22/16 13:05:31  5-MIN KAQV 221905Z AUTO 25005KT 10SM FEW050 SCT070 34/23 A3005 260 50 2600 250/05 RMK AO2 T03440228
03949KAQV AQV20160722131011807/22/16 13:10:31  5-MIN KAQV 221910Z AUTO 00000KT 10SM FEW050 SCT070 34/22 A3005 260 48 2600 000/00 RMK AO2 T03440222
03949KAQV AQV20160722131511107/22/16 13:15:31  5-MIN KAQV 221915Z AUTO VRB03KT 10SM SCT065 36/22 A3005 260 45 2700 VRB/03 RMK AO2 T03560222
03949KAQV AQV20160722132011107/22/16 13:20:31  5-MIN KAQV 221920Z AUTO VRB06KT 10SM SCT065 36/23 A3004 260 47 2700 VRB/06 RMK AO2 T03560228
03949KAQV AQV20160722132511107/22/16 13:25:31  5-MIN KAQV 221925Z AUTO 00000KT 10SM SCT065 35/22 A3004 260 47 2600 000/00 RMK AO2 T03500222
03949KAQV AQV20160722133011807/22/16 13:30:31  5-MIN KAQV 221930Z AUTO 18007KT 10SM FEW050 SCT070 36/23 A3004 270 48 2700 180/07 RMK AO2 T03560233
03949KAQV AQV20160722133511807/22/16 13:35:31  5-MIN KAQV 221935Z AUTO VRB03KT 10SM FEW050 SCT070 36/23 A3004 270 48 2700 VRB/03 RMK AO2 T03560233
03949KAQV AQV20160722134011107/22/16 13:40:31  5-MIN KAQV 221940Z AUTO VRB03KT 10SM FEW070 36/23 A3003 270 48 2700 VRB/03 RMK AO2 T03560233
03949KAQV AQV20160722134510807/22/16 13:45:31  5-MIN KAQV 221945Z AUTO 24003KT 10SM CLR 34/22 A3003 270 50 2500 240/03 RMK AO2 T03390222
03949KAQV AQV20160722135011507/22/16 13:50:31  5-MIN KAQV 221950Z AUTO VRB03KT 10SM CLR 35/22 A3003 280 47 2600 VRB/03 RMK AO2 SLP164 T03500222
03949KAQV AQV20160722135511507/22/16 13:55:31  5-MIN KAQV 221955Z AUTO 00000KT 10SM CLR 36/22 A3003 280 45 2700 000/00 RMK AO2 SLP163 T03560222
03949KAQV AQV20160722140010807/22/16 14:00:31  5-MIN KAQV 222000Z AUTO 20005KT 10SM CLR 36/23 A3002 280 47 2700 190/05 RMK AO2 T03560228
03949KAQV AQV20160722140510807/22/16 14:05:31  5-MIN KAQV 222005Z AUTO 19005KT 10SM CLR 35/22 A3002 280 47 2700 190/05 RMK AO2 T03500222
03949KAQV AQV20160722141010807/22/16 14:10:31  5-MIN KAQV 222010Z AUTO 00000KT 10SM CLR 35/22 A3002 290 47 2700 000/00 RMK AO2 T03500222
03949KAQV AQV20160722141510807/22/16 14:15:31  5-MIN KAQV 222015Z AUTO VRB03KT 10SM CLR 35/22 A3002 280 47 2700 VRB/03 RMK AO2 T03500222
03949KAQV AQV20160722142010807/22/16 14:20:31  5-MIN KAQV 222020Z AUTO VRB03KT 10SM CLR 34/22 A3001 290 48 2600 VRB/03 RMK AO2 T03440222
03949KAQV AQV20160722142511107/22/16 14:25:31  5-MIN KAQV 222025Z AUTO 00000KT 10SM FEW050 34/23 A3001 290 50 2600 000/00 RMK AO2 T03440228
03949KAQV AQV20160722143011107/22/16 14:30:31  5-MIN KAQV 222030Z AUTO 26003KT 10SM FEW050 34/23 A3001 290 50 2600 250/03 RMK AO2 T03440228
03949KAQV AQV20160722143511107/22/16 14:35:31  5-MIN KAQV 222035Z AUTO 00000KT 10SM FEW050 35/23 A3001 300 48 2700 000/00 RMK AO2 T03500228
03949KAQV AQV20160722144011107/22/16 14:40:31  5-MIN KAQV 222040Z AUTO 00000KT 10SM FEW050 34/22 A3000 300 48 2600 000/00 RMK AO2 T03440222
03949KAQV AQV20160722144512507/22/16 14:45:31  5-MIN KAQV 222045Z AUTO VRB04KT 10SM FEW050 FEW060 SCT120 35/23 A3000 300 48 2700 VRB/04 RMK AO2 T03500228
03949KAQV AQV20160722145013807/22/16 14:50:31  5-MIN KAQV 222050Z AUTO VRB03KT 10SM FEW050 SCT065 SCT120 33/23 A2999 310 55 2500 VRB/03 RMK AO2 SLP152 T03330233 58003
03949KAQV AQV20160722145513107/22/16 14:55:31  5-MIN KAQV 222055Z AUTO 00000KT 10SM FEW050 SCT065 33/23 A2999 310 55 2500 000/00 RMK AO2 SLP151 T03330233 58003
03949KAQV AQV20160722150011107/22/16 15:00:31  5-MIN KAQV 222100Z AUTO 00000KT 10SM FEW055 33/24 A2999 310 57 2500 000/00 RMK AO2 T03330239
03949KAQV AQV20160722150511107/22/16 15:05:31  5-MIN KAQV 222105Z AUTO VRB04KT 10SM FEW060 33/23 A2999 310 57 2400 VRB/04 RMK AO2 T03280233
03949KAQV AQV20160722151011107/22/16 15:10:31  5-MIN KAQV 222110Z AUTO 00000KT 10SM SCT055 33/24 A3000 310 57 2500 000/00 RMK AO2 T03330239
03949KAQV AQV20160722151511107/22/16 15:15:31  5-MIN KAQV 222115Z AUTO VRB03KT 10SM BKN060 33/24 A3000 300 57 2500 VRB/03 RMK AO2 T03330239
03949KAQV AQV20160722152011807/22/16 15:20:31  5-MIN KAQV 222120Z AUTO VRB04KT 10SM SCT055 BKN075 33/24 A3000 300 57 2500 VRB/04 RMK AO2 T03330239
03949KAQV AQV20160722152511807/22/16 15:25:31  5-MIN KAQV 222125Z AUTO 35005KT 10SM BKN055 BKN075 33/24 A3000 300 59 2500 350/05 RMK AO2 T03330244
03949KAQV AQV20160722153011807/22/16 15:30:31  5-MIN KAQV 222130Z AUTO 35004KT 10SM BKN055 BKN075 34/24 A3000 300 55 2600 350/04 RMK AO2 T03390239
03949KAQV AQV20160722153511807/22/16 15:35:31  5-MIN KAQV 222135Z AUTO VRB03KT 10SM BKN055 BKN075 34/24 A3001 300 55 2600 VRB/03 RMK AO2 T03390239
03949KAQV AQV20160722154011807/22/16 15:40:31  5-MIN KAQV 222140Z AUTO 36003KT 10SM SCT055 BKN075 34/23 A3000 300 52 2600 350/03 RMK AO2 T03440233
03949KAQV AQV20160722154511807/22/16 15:45:31  5-MIN KAQV 222145Z AUTO 00000KT 10SM FEW050 BKN075 35/23 A3000 300 50 2700 000/00 RMK AO2 T03500233
03949KAQV AQV20160722155012507/22/16 15:50:31  5-MIN KAQV 222150Z AUTO 00000KT 10SM FEW050 SCT075 35/23 A3001 300 48 2700 000/00 RMK AO2 SLP156 T03500228
03949KAQV AQV20160722155512507/22/16 15:55:31  5-MIN KAQV 222155Z AUTO 36005KT 10SM FEW050 FEW075 36/23 A3000 300 48 2700 360/05 RMK AO2 SLP155 T03560233
03949KAQV AQV20160722160010807/22/16 16:00:31  5-MIN KAQV 222200Z AUTO VRB04KT 10SM CLR 36/23 A3000 310 48 2700 VRB/04 RMK AO2 T03560233
03949KAQV AQV20160722160510807/22/16 16:05:31  5-MIN KAQV 222205Z AUTO VRB03KT 10SM CLR 35/23 A2999 310 48 2700 VRB/03 RMK AO2 T03500228
03949KAQV AQV20160722161011707/22/16 16:10:31  5-MIN KAQV 222210Z AUTO 00000KT 10SM TS CLR 35/22 A2999 310 47 2700 000/00 RMK AO2 TSB07 T03500222
03949KAQV AQV20160722161510707/22/16 16:15:31  5-MIN KAQV 222215Z AUTO 10SM TS CLR 34/22 A2999 320 48 2600 M /M RMK AO2 TSB07 T03440222
03949KAQV AQV20160722162011707/22/16 16:20:31  5-MIN KAQV 222220Z AUTO VRB06KT 10SM TS CLR 35/23 A2998 320 48 2700 VRB/06 RMK AO2 TSB07 T03500228
03949KAQV AQV20160722162511707/22/16 16:25:31  5-MIN KAQV 222225Z AUTO VRB04KT 10SM TS CLR 35/23 A2998 320 50 2700 VRB/04 RMK AO2 TSB07 T03500233
03949KAQV AQV20160722163011707/22/16 16:30:31  5-MIN KAQV 222230Z AUTO VRB03KT 10SM TS CLR 34/23 A2998 320 52 2600 VRB/03 RMK AO2 TSB07 T03440233
03949KAQV AQV20160722163511707/22/16 16:35:31  5-MIN KAQV 222235Z AUTO VRB03KT 10SM TS CLR 35/23 A2999 320 48 2700 VRB/03 RMK AO2 TSB07 T03500228
03949KAQV AQV20160722164011707/22/16 16:40:31  5-MIN KAQV 222240Z AUTO 22004KT 10SM TS CLR 34/23 A2998 320 50 2600 220/04 RMK AO2 TSB07 T03440228
03949KAQV AQV20160722164511707/22/16 16:45:31  5-MIN KAQV 222245Z AUTO VRB03KT 10SM TS CLR 34/23 A2999 310 52 2600 VRB/03 RMK AO2 TSB07 T03440233
03949KAQV AQV20160722165012407/22/16 16:50:31  5-MIN KAQV 222250Z AUTO VRB03KT 10SM TS CLR 34/23 A3000 300 52 2600 VRB/03 RMK AO2 TSB07 SLP153 T03440233
03949KAQV AQV20160722165512707/22/16 16:55:31  5-MIN KAQV 222255Z AUTO 22003KT 10SM TS FEW080 34/23 A2998 320 52 2600 210/03 RMK AO2 TSB07 SLP149 T03440233
03949KAQV AQV20160722170012207/22/16 17:00:31  5-MIN KAQV 222300Z AUTO 00000KT 10SM TS FEW080 34/23 A2998 320 53 2600 000/00 RMK AO2 TSB2258 T03390233
03949KAQV AQV20160722170512207/22/16 17:05:31  5-MIN KAQV 222305Z AUTO 00000KT 10SM TS FEW080 34/23 A2999 320 53 2600 000/00 RMK AO2 TSB2258 T03390233
03949KAQV AQV20160722171011907/22/16 17:10:31  5-MIN KAQV 222310Z AUTO 10SM TS SCT050 SCT080 32/24 A2998 320 61 2400 M /M RMK AO2 TSB2258 T03220239
03949KAQV AQV20160722171513607/22/16 17:15:31  5-MIN KAQV 222315Z AUTO VRB04KT 10SM TS SCT050 BKN060 BKN080 32/24 A2999 310 63 2300 VRB/04 RMK AO2 TSB2258 T03170239
03949KAQV AQV20160722172014507/22/16 17:20:31  5-MIN KAQV 222320Z AUTO 12007KT 080V170 10SM TS BKN055 31/24 A3001 300 67 2200 120/07 080V170 RMK AO2 TSB2258 PRESRR T03060239
03949KAQV AQV20160722172512207/22/16 17:25:31  5-MIN KAQV 222325Z AUTO VRB06KT 10SM TS BKN060 30/23 A3000 300 67 2100 VRB/06 RMK AO2 TSB2258 T03000233
03949KAQV AQV20160722173012907/22/16 17:30:31  5-MIN KAQV 222330Z AUTO 17007KT 10SM TS FEW050 BKN065 29/23 A3000 300 69 2000 160/07 RMK AO2 TSB2258 T02890228
03949KAQV AQV20160722173512907/22/16 17:35:31  5-MIN KAQV 222335Z AUTO VRB05KT 10SM TS FEW050 SCT060 29/23 A3000 300 71 2000 VRB/05 RMK AO2 TSB2258 T02890233
03949KAQV AQV20160722174012207/22/16 17:40:31  5-MIN KAQV 222340Z AUTO VRB04KT 10SM TS SCT060 29/23 A3000 300 69 2000 VRB/04 RMK AO2 TSB2258 T02890228
03949KAQV AQV20160722174512207/22/16 17:45:31  5-MIN KAQV 222345Z AUTO 17004KT 10SM TS FEW060 29/23 A3000 300 69 2000 170/04 RMK AO2 TSB2258 T02890228
03949KAQV AQV20160722175014407/22/16 17:50:31  5-MIN KAQV 222350Z AUTO 16004KT 10SM TS CLR 28/23 A3000 300 76 1900 160/04 RMK AO2 TSB2258 SLP156 T02780233 10361 20278 58028
03949KAQV AQV20160722175514707/22/16 17:55:31  5-MIN KAQV 222355Z AUTO 00000KT 10SM FEW100 28/23 A3000 300 76 1900 000/00 RMK AO2 TSB2258E53 SLP154 T02780233 10361 20278 58028
03949KAQV AQV20160722180013407/22/16 18:00:31  5-MIN KAQV 230000Z AUTO 08003KT 10SM -RA SCT090 SCT110 26/23 A2999 310 87 1600 080/03 RMK AO2 RAB00 P0000 T02560233
03949KAQV AQV20160722180514107/22/16 18:05:31  5-MIN KAQV 230005Z AUTO 00000KT 10SM -RA FEW050 SCT070 BKN090 25/24 A2999 310 93 1600 000/00 RMK AO2 RAB00 P0000 T02500239
03949KAQV AQV20160722181014907/22/16 18:10:31  5-MIN KAQV 230010Z AUTO 00000KT 10SM -TSRA SCT055 BKN070 BKN090 25/24 A2999 310 93 1600 000/00 RMK AO2 RAB00 TSB09 P0000 T02500239
03949KAQV AQV20160722181514907/22/16 18:15:31  5-MIN KAQV 230015Z AUTO 00000KT 10SM -TSRA BKN060 BKN090 OVC110 25/24 A2999 310 93 1600 000/00 RMK AO2 RAB00 TSB09 P0000 T02500239
03949KAQV AQV20160722182014907/22/16 18:20:31  5-MIN KAQV 230020Z AUTO 00000KT 10SM TS BKN060 BKN090 BKN110 25/24 A2999 310 93 1600 000/00 RMK AO2 RAB00E18 TSB09 P0000 T02500239
03949KAQV AQV20160722182514207/22/16 18:25:31  5-MIN KAQV 230025Z AUTO 00000KT 10SM SCT060 SCT100 25/24 A2999 310 97 1600 000/00 RMK AO2 RAB00E18 TSB09E25 P0000 T02500244
03949KAQV AQV20160722183014207/22/16 18:30:31  5-MIN KAQV 230030Z AUTO VRB03KT 10SM SCT060 SCT085 25/24 A2999 310 93 1600 VRB/03 RMK AO2 RAB00E18 TSB09E25 P0000 T02500239
03949KAQV AQV20160722183513507/22/16 18:35:31  5-MIN KAQV 230035Z AUTO 16003KT 10SM SCT060 25/23 A2999 310 90 1600 160/03 RMK AO2 RAB00E18 TSB09E25 P0000 T02500233
03949KAQV AQV20160722184014207/22/16 18:40:31  5-MIN KAQV 230040Z AUTO 00000KT 10SM FEW060 SCT085 25/23 A2999 310 90 1600 000/00 RMK AO2 RAB00E18 TSB09E25 P0000 T02500233
03949KAQV AQV20160722184513507/22/16 18:45:31  5-MIN KAQV 230045Z AUTO 00000KT 10SM BKN080 25/23 A2999 320 90 1600 000/00 RMK AO2 RAB00E18 TSB09E25 P0000 T02500233
03949KAQV AQV20160722185014207/22/16 18:50:31  5-MIN KAQV 230050Z AUTO 00000KT 10SM BKN080 25/23 A2998 320 90 1600 000/00 RMK AO2 RAB00E18 TSB09E25 SLP149 P0000 T02500233
03949KAQV AQV20160722185514207/22/16 18:55:31  5-MIN KAQV 230055Z AUTO 00000KT 10SM BKN080 25/23 A2998 320 90 1600 000/00 RMK AO2 RAB00E18 TSB09E25 SLP148 P0000 T02500233
03949KAQV AQV20160722190011107/22/16 19:00:31  5-MIN KAQV 230100Z AUTO 00000KT 10SM BKN080 25/23 A2998 320 90 1600 000/00 RMK AO2 T02500233
03949KAQV AQV20160722190511107/22/16 19:05:31  5-MIN KAQV 230105Z AUTO 00000KT 10SM BKN080 24/23 A2997 330 93 1500 000/00 RMK AO2 T02440233
03949KAQV AQV20160722191011107/22/16 19:10:31  5-MIN KAQV 230110Z AUTO 00000KT 10SM BKN080 25/23 A2997 330 90 1600 000/00 RMK AO2 T02500233
03949KAQV AQV20160722191511107/22/16 19:15:31  5-MIN KAQV 230115Z AUTO 00000KT 10SM BKN080 24/23 A2997 330 93 1500 000/00 RMK AO2 T02440233
03949KAQV AQV20160722192011107/22/16 19:20:31  5-MIN KAQV 230120Z AUTO 00000KT 10SM BKN080 24/23 A2998 330 93 1500 000/00 RMK AO2 T02440233
03949KAQV AQV20160722192511107/22/16 19:25:31  5-MIN KAQV 230125Z AUTO 00000KT 10SM BKN080 24/23 A2998 320 93 1500 000/00 RMK AO2 T02440233
03949KAQV AQV20160722193011107/22/16 19:30:31  5-MIN KAQV 230130Z AUTO 00000KT 10SM BKN080 24/23 A2998 320 93 1500 000/00 RMK AO2 T02440233
03949KAQV AQV20160722193511107/22/16 19:35:31  5-MIN KAQV 230135Z AUTO 00000KT 10SM OVC080 25/23 A2999 320 90 1600 000/00 RMK AO2 T02500233
03949KAQV AQV20160722194011807/22/16 19:40:31  5-MIN KAQV 230140Z AUTO 00000KT 10SM BKN080 OVC090 24/23 A2999 320 93 1500 000/00 RMK AO2 T02440233
03949KAQV AQV20160722194511807/22/16 19:45:31  5-MIN KAQV 230145Z AUTO 20003KT 10SM FEW070 BKN085 24/23 A2999 310 93 1500 200/03 RMK AO2 T02440233
03949KAQV AQV20160722195012507/22/16 19:50:31  5-MIN KAQV 230150Z AUTO VRB03KT 10SM FEW075 SCT085 24/23 A2998 320 93 1500 VRB/03 RMK AO2 SLP150 T02440233
03949KAQV AQV20160722195512507/22/16 19:55:31  5-MIN KAQV 230155Z AUTO 15003KT 10SM FEW070 SCT085 24/23 A2999 310 93 1500 140/03 RMK AO2 SLP151 T02440233
03949KAQV AQV20160722200011807/22/16 20:00:31  5-MIN KAQV 230200Z AUTO 00000KT 10SM FEW070 FEW085 24/23 A2999 310 93 1500 000/00 RMK AO2 T02440233
03949KAQV AQV20160722200511107/22/16 20:05:31  5-MIN KAQV 230205Z AUTO 00000KT 10SM FEW070 24/23 A2999 310 90 1500 000/00 RMK AO2 T02440228
03949KAQV AQV20160722201010807/22/16 20:10:31  5-MIN KAQV 230210Z AUTO 00000KT 10SM CLR 24/23 A2999 310 90 1500 000/00 RMK AO2 T02440228
03949KAQV AQV20160722201510807/22/16 20:15:31  5-MIN KAQV 230215Z AUTO 00000KT 10SM CLR 24/23 A2999 310 90 1500 000/00 RMK AO2 T02440228
03949KAQV AQV20160722202010807/22/16 20:20:31  5-MIN KAQV 230220Z AUTO 00000KT 10SM CLR 24/23 A3000 300 90 1500 000/00 RMK AO2 T02440228
03949KAQV AQV20160722202510807/22/16 20:25:31  5-MIN KAQV 230225Z AUTO 16003KT 10SM CLR 24/23 A3000 300 93 1500 150/03 RMK AO2 T02440233
03949KAQV AQV20160722203010807/22/16 20:30:31  5-MIN KAQV 230230Z AUTO 00000KT 10SM CLR 24/23 A3001 300 90 1500 000/00 RMK AO2 T02440228
03949KAQV AQV20160722203511107/22/16 20:35:31  5-MIN KAQV 230235Z AUTO VRB03KT 10SM FEW085 24/23 A3001 300 90 1500 VRB/03 RMK AO2 T02440228
03949KAQV AQV20160722204011807/22/16 20:40:31  5-MIN KAQV 230240Z AUTO VRB03KT 10SM FEW090 SCT100 24/23 A3000 300 93 1500 VRB/03 RMK AO2 T02440233
03949KAQV AQV20160722204511807/22/16 20:45:31  5-MIN KAQV 230245Z AUTO 17003KT 10SM FEW085 BKN110 24/23 A3000 300 93 1400 170/03 RMK AO2 T02390228
03949KAQV AQV20160722205013707/22/16 20:50:31  5-MIN KAQV 230250Z AUTO 19003KT 10SM FEW085 BKN110 24/23 A3000 300 93 1400 180/03 RMK AO2 SLP156 60000 T02390228 53002
03949KAQV AQV20160722205513707/22/16 20:55:31  5-MIN KAQV 230255Z AUTO 16003KT 10SM FEW085 BKN110 24/23 A3000 300 93 1400 150/03 RMK AO2 SLP156 60000 T02390228 53002
03949KAQV AQV20160722210011807/22/16 21:00:31  5-MIN KAQV 230300Z AUTO 17003KT 10SM FEW085 SCT110 24/23 A3000 300 93 1400 160/03 RMK AO2 T02390228
03949KAQV AQV20160722210511107/22/16 21:05:31  5-MIN KAQV 230305Z AUTO 00000KT 10SM SCT100 24/23 A3000 300 93 1400 000/00 RMK AO2 T02390228
03949KAQV AQV20160722211011107/22/16 21:10:31  5-MIN KAQV 230310Z AUTO VRB04KT 10SM FEW110 24/23 A3000 300 93 1400 VRB/04 RMK AO2 T02390228
03949KAQV AQV20160722211511107/22/16 21:15:31  5-MIN KAQV 230315Z AUTO VRB04KT 10SM FEW110 24/23 A3000 300 93 1400 VRB/04 RMK AO2 T02390228
03949KAQV AQV20160722212010807/22/16 21:20:31  5-MIN KAQV 230320Z AUTO VRB04KT 10SM CLR 24/23 A3001 300 93 1400 VRB/04 RMK AO2 T02390228
03949KAQV AQV20160722212510807/22/16 21:25:31  5-MIN KAQV 230325Z AUTO VRB03KT 10SM CLR 24/23 A3001 300 93 1400 VRB/03 RMK AO2 T02390228
03949KAQV AQV20160722213010807/22/16 21:30:31  5-MIN KAQV 230330Z AUTO 00000KT 10SM CLR 24/23 A3001 300 93 1400 000/00 RMK AO2 T02390228
03949KAQV AQV20160722213510807/22/16 21:35:31  5-MIN KAQV 230335Z AUTO VRB03KT 10SM CLR 24/23 A3000 300 93 1400 VRB/03 RMK AO2 T02390228
03949KAQV AQV20160722214010807/22/16 21:40:31  5-MIN KAQV 230340Z AUTO 00000KT 10SM CLR 24/23 A3000 300 97 1400 000/00 RMK AO2 T02390233
03949KAQV AQV20160722214510807/22/16 21:45:31  5-MIN KAQV 230345Z AUTO 00000KT 10SM CLR 24/23 A3000 300 97 1400 000/00 RMK AO2 T02390233
03949KAQV AQV20160722215011507/22/16 21:50:31  5-MIN KAQV 230350Z AUTO 00000KT 10SM CLR 24/23 A3000 300 93 1500 000/00 RMK AO2 SLP155 T02440233
03949KAQV AQV20160722215511507/22/16 21:55:31  5-MIN KAQV 230355Z AUTO 00000KT 10SM CLR 24/23 A3000 300 97 1400 000/00 RMK AO2 SLP154 T02390233
03949KAQV AQV20160722220010807/22/16 22:00:31  5-MIN KAQV 230400Z AUTO 00000KT 10SM CLR 24/23 A3000 300 93 1500 000/00 RMK AO2 T02440233
03949KAQV AQV20160722220510807/22/16 22:05:31  5-MIN KAQV 230405Z AUTO 00000KT 10SM CLR 25/23 A3000 300 90 1600 000/00 RMK AO2 T02500233
03949KAQV AQV20160722221010807/22/16 22:10:31  5-MIN KAQV 230410Z AUTO 00000KT 10SM CLR 25/23 A3000 310 90 1600 000/00 RMK AO2 T02500233
03949KAQV AQV20160722221510807/22/16 22:15:31  5-MIN KAQV 230415Z AUTO 26003KT 10SM CLR 24/23 A3000 310 93 1500 260/03 RMK AO2 T02440233
03949KAQV AQV20160722222010807/22/16 22:20:31  5-MIN KAQV 230420Z AUTO 00000KT 10SM CLR 24/23 A2999 310 93 1500 000/00 RMK AO2 T02440233
03949KAQV AQV20160722222510807/22/16 22:25:31  5-MIN KAQV 230425Z AUTO 00000KT 10SM CLR 24/23 A3000 310 93 1500 000/00 RMK AO2 T02440233
03949KAQV AQV20160722223010807/22/16 22:30:31  5-MIN KAQV 230430Z AUTO 00000KT 10SM CLR 24/23 A3000 310 93 1500 000/00 RMK AO2 T02440233
03949KAQV AQV20160722223510807/22/16 22:35:31  5-MIN KAQV 230435Z AUTO 00000KT 10SM CLR 24/23 A3000 310 93 1500 000/00 RMK AO2 T02440233
03949KAQV AQV20160722224010807/22/16 22:40:31  5-MIN KAQV 230440Z AUTO 00000KT 10SM CLR 24/23 A3000 300 93 1500 000/00 RMK AO2 T02440233
03949KAQV AQV20160722224510807/22/16 22:45:31  5-MIN KAQV 230445Z AUTO 00000KT 10SM CLR 24/23 A3000 300 93 1500 000/00 RMK AO2 T02440233
03949KAQV AQV20160722225011507/22/16 22:50:31  5-MIN KAQV 230450Z AUTO 00000KT 10SM CLR 24/23 A3000 300 93 1500 000/00 RMK AO2 SLP154 T02440233
03949KAQV AQV20160722225511507/22/16 22:55:31  5-MIN KAQV 230455Z AUTO 00000KT 10SM CLR 24/23 A3000 300 93 1500 000/00 RMK AO2 SLP154 T02440233
03949KAQV AQV20160722230010807/22/16 23:00:31  5-MIN KAQV 230500Z AUTO 00000KT 10SM CLR 24/23 A3000 300 93 1500 000/00 RMK AO2 T02440233
03949KAQV AQV20160722230510807/22/16 23:05:31  5-MIN KAQV 230505Z AUTO 00000KT 10SM CLR 24/23 A3000 300 93 1500 000/00 RMK AO2 T02440233
03949KAQV AQV20160722231010807/22/16 23:10:31  5-MIN KAQV 230510Z AUTO 00000KT 10SM CLR 24/23 A3000 310 93 1500 000/00 RMK AO2 T02440233
03949KAQV AQV20160722231510807/22/16 23:15:31  5-MIN KAQV 230515Z AUTO 00000KT 10SM CLR 24/23 A3000 300 97 1400 000/00 RMK AO2 T02390233
03949KAQV AQV20160722232010807/22/16 23:20:31  5-MIN KAQV 230520Z AUTO 00000KT 10SM CLR 24/23 A3000 300 97 1400 000/00 RMK AO2 T02390233
03949KAQV AQV20160722232510807/22/16 23:25:31  5-MIN KAQV 230525Z AUTO 00000KT 10SM CLR 24/23 A3000 300 93 1500 000/00 RMK AO2 T02440233
03949KAQV AQV20160722233010807/22/16 23:30:31  5-MIN KAQV 230530Z AUTO 00000KT 10SM CLR 24/23 A3000 300 97 1400 000/00 RMK AO2 T02390233
03949KAQV AQV20160722233510807/22/16 23:35:31  5-MIN KAQV 230535Z AUTO 00000KT 10SM CLR 24/23 A3000 300 97 1400 000/00 RMK AO2 T02390233
03949KAQV AQV20160722234010807/22/16 23:40:31  5-MIN KAQV 230540Z AUTO 00000KT 10SM CLR 24/23 A3000 300 97 1400 000/00 RMK AO2 T02390233
03949KAQV AQV20160722234510807/22/16 23:45:31  5-MIN KAQV 230545Z AUTO 00000KT 10SM CLR 24/23 A3000 300 97 1400 000/00 RMK AO2 T02390233
03949KAQV AQV20160722235014807/22/16 23:50:31  5-MIN KAQV 230550Z AUTO 00000KT 9SM CLR 24/23 A3000 300 97 1400 000/00 RMK AO2 SLP153 60000 T02390233 10272 20239 403610239 53002
03949KAQV AQV20160722235514807/22/16 23:55:31  5-MIN KAQV 230555Z AUTO 00000KT 9SM CLR 24/23 A3000 310 97 1400 000/00 RMK AO2 SLP153 60000 T02390233 10272 20239 403610239 53002
03949KAQV AQV20160723000010807/23/16 00:00:31  5-MIN KAQV 230600Z AUTO 00000KT 10SM CLR 24/23 A3000 310 97 1400 000/00 RMK AO2 T02390233
03949KAQV AQV20160723000510807/23/16 00:05:31  5-MIN KAQV 230605Z AUTO 00000KT 10SM CLR 24/23 A2999 310 97 1500 000/00 RMK AO2 T02390233
03949KAQV AQV20160723001010707/23/16 00:10:31  5-MIN KAQV 230610Z AUTO 00000KT 9SM CLR 24/23 A2999 310 97 1500 000/00 RMK AO2 T02390233
03949KAQV AQV20160723001510807/23/16 00:15:31  5-MIN KAQV 230615Z AUTO 00000KT 10SM CLR 24/23 A2999 310 97 1500 000/00 RMK AO2 T02390233
03949KAQV AQV20160723002010807/23/16 00:20:31  5-MIN KAQV 230620Z AUTO 00000KT 10SM CLR 24/23 A2999 310 97 1500 000/00 RMK AO2 T02390233
03949KAQV AQV20160723002510807/23/16 00:25:31  5-MIN KAQV 230625Z AUTO 00000KT 10SM CLR 24/23 A2999 310 97 1400 000/00 RMK AO2 T02390233
03949KAQV AQV20160723003010707/23/16 00:30:31  5-MIN KAQV 230630Z AUTO 00000KT 9SM CLR 24/23 A2999 310 97 1400 000/00 RMK AO2 T02390233
03949KAQV AQV20160723003510707/23/16 00:35:31  5-MIN KAQV 230635Z AUTO 00000KT 9SM CLR 24/23 A2999 310 97 1500 000/00 RMK AO2 T02390233
03949KAQV AQV20160723004010707/23/16 00:40:31  5-MIN KAQV 230640Z AUTO 00000KT 8SM CLR 24/23 A2999 310 97 1500 000/00 RMK AO2 T02390233
03949KAQV AQV20160723004510707/23/16 00:45:31  5-MIN KAQV 230645Z AUTO 00000KT 8SM CLR 24/23 A2999 310 97 1500 000/00 RMK AO2 T02390233
03949KAQV AQV20160723005011407/23/16 00:50:31  5-MIN KAQV 230650Z AUTO 00000KT 8SM CLR 24/23 A2999 310 97 1500 000/00 RMK AO2 SLP151 T02390233
03949KAQV AQV20160723005511407/23/16 00:55:31  5-MIN KAQV 230655Z AUTO 00000KT 8SM CLR 24/23 A2999 310 97 1500 000/00 RMK AO2 SLP152 T02390233
03949KAQV AQV20160723010010707/23/16 01:00:31  5-MIN KAQV 230700Z AUTO 00000KT 8SM CLR 24/23 A2999 310 97 1500 000/00 RMK AO2 T02390233
03949KAQV AQV20160723010510707/23/16 01:05:31  5-MIN KAQV 230705Z AUTO 00000KT 7SM CLR 24/23 A2999 310 97 1500 000/00 RMK AO2 T02390233
03949KAQV AQV20160723011010707/23/16 01:10:31  5-MIN KAQV 230710Z AUTO 00000KT 8SM CLR 24/23 A2999 310 97 1500 000/00 RMK AO2 T02390233
03949KAQV AQV20160723011510707/23/16 01:15:31  5-MIN KAQV 230715Z AUTO 00000KT 7SM CLR 24/23 A2999 320 97 1500 000/00 RMK AO2 T02390233
03949KAQV AQV20160723012010707/23/16 01:20:31  5-MIN KAQV 230720Z AUTO 00000KT 7SM CLR 24/23 A2998 320 97 1500 000/00 RMK AO2 T02390233
03949KAQV AQV20160723012510707/23/16 01:25:31  5-MIN KAQV 230725Z AUTO 00000KT 7SM CLR 24/23 A2998 320 97 1500 000/00 RMK AO2 T02390233
03949KAQV AQV20160723013010707/23/16 01:30:31  5-MIN KAQV 230730Z AUTO 00000KT 7SM CLR 24/23 A2998 320 97 1500 000/00 RMK AO2 T02390233
03949KAQV AQV20160723013510707/23/16 01:35:31  5-MIN KAQV 230735Z AUTO 00000KT 7SM CLR 24/23 A2998 320 97 1500 000/00 RMK AO2 T02390233
03949KAQV AQV20160723014010707/23/16 01:40:31  5-MIN KAQV 230740Z AUTO 00000KT 7SM CLR 24/23 A2997 330 97 1500 000/00 RMK AO2 T02390233
03949KAQV AQV20160723014510707/23/16 01:45:31  5-MIN KAQV 230745Z AUTO 00000KT 7SM CLR 24/23 A2997 330 97 1500 000/00 RMK AO2 T02390233
03949KAQV AQV20160723015011407/23/16 01:50:31  5-MIN KAQV 230750Z AUTO 17003KT 7SM CLR 24/23 A2997 330 97 1500 160/03 RMK AO2 SLP144 T02390233
03949KAQV AQV20160723015511407/23/16 01:55:31  5-MIN KAQV 230755Z AUTO 00000KT 7SM CLR 24/23 A2997 330 97 1500 000/00 RMK AO2 SLP143 T02390233
03949KAQV AQV20160723020010707/23/16 02:00:31  5-MIN KAQV 230800Z AUTO 00000KT 7SM CLR 24/23 A2997 330 97 1500 000/00 RMK AO2 T02390233
03949KAQV AQV20160723020510707/23/16 02:05:31  5-MIN KAQV 230805Z AUTO 00000KT 7SM CLR 24/23 A2997 330 97 1500 000/00 RMK AO2 T02390233
03949KAQV AQV20160723021010707/23/16 02:10:31  5-MIN KAQV 230810Z AUTO 00000KT 7SM CLR 24/23 A2997 330 97 1500 000/00 RMK AO2 T02390233
03949KAQV AQV20160723021510707/23/16 02:15:31  5-MIN KAQV 230815Z AUTO 00000KT 7SM CLR 24/23 A2997 330 97 1500 000/00 RMK AO2 T02390233
03949KAQV AQV20160723022010707/23/16 02:20:31  5-MIN KAQV 230820Z AUTO 00000KT 7SM CLR 24/23 A2997 330 97 1500 000/00 RMK AO2 T02390233
03949KAQV AQV20160723022510707/23/16 02:25:31  5-MIN KAQV 230825Z AUTO 00000KT 7SM CLR 24/23 A2997 330 97 1500 000/00 RMK AO2 T02390233
03949KAQV AQV20160723023010707/23/16 02:30:31  5-MIN KAQV 230830Z AUTO 17003KT 7SM CLR 24/23 A2997 330 97 1500 160/03 RMK AO2 T02390233
03949KAQV AQV20160723023510707/23/16 02:35:31  5-MIN KAQV 230835Z AUTO 00000KT 7SM CLR 24/23 A2997 330 97 1500 000/00 RMK AO2 T02390233
03949KAQV AQV20160723024010707/23/16 02:40:31  5-MIN KAQV 230840Z AUTO 00000KT 7SM CLR 24/23 A2997 330 97 1500 000/00 RMK AO2 T02390233
03949KAQV AQV20160723024510707/23/16 02:45:31  5-MIN KAQV 230845Z AUTO 00000KT 7SM CLR 24/23 A2997 330 97 1500 000/00 RMK AO2 T02390233
03949KAQV AQV20160723025012407/23/16 02:50:31  5-MIN KAQV 230850Z AUTO 00000KT 6SM BR CLR 23/23 A2997 330 100 1400 000/00 RMK AO2 SLP144 T02330233 57002
03949KAQV AQV20160723025512307/23/16 02:55:31  5-MIN KAQV 230855Z AUTO 00000KT 6SM BR CLR 23/23 A2997 330 97 1400 000/00 RMK AO2 SLP144 T02330228 57002
03949KAQV AQV20160723030011007/23/16 03:00:31  5-MIN KAQV 230900Z AUTO 00000KT 5SM BR CLR 23/23 A2997 330 97 1400 000/00 RMK AO2 T02330228
03949KAQV AQV20160723030511007/23/16 03:05:31  5-MIN KAQV 230905Z AUTO 00000KT 5SM BR CLR 23/23 A2997 330 97 1400 000/00 RMK AO2 T02330228
03949KAQV AQV20160723031011007/23/16 03:10:31  5-MIN KAQV 230910Z AUTO 00000KT 5SM BR CLR 23/23 A2997 330 97 1400 000/00 RMK AO2 T02330228
03949KAQV AQV20160723031511007/23/16 03:15:31  5-MIN KAQV 230915Z AUTO 00000KT 4SM BR CLR 23/23 A2997 330 97 1400 000/00 RMK AO2 T02330228
03949KAQV AQV20160723032011007/23/16 03:20:31  5-MIN KAQV 230920Z AUTO 00000KT 5SM BR CLR 23/23 A2997 330 97 1400 000/00 RMK AO2 T02330228
03949KAQV AQV20160723032511007/23/16 03:25:31  5-MIN KAQV 230925Z AUTO 00000KT 5SM BR CLR 23/23 A2997 330 97 1400 000/00 RMK AO2 T02330228
03949KAQV AQV20160723033011007/23/16 03:30:31  5-MIN KAQV 230930Z AUTO 00000KT 5SM BR CLR 23/23 A2997 330 97 1400 000/00 RMK AO2 T02330228
03949KAQV AQV20160723033511007/23/16 03:35:31  5-MIN KAQV 230935Z AUTO 00000KT 5SM BR CLR 23/23 A2997 330 97 1400 000/00 RMK AO2 T02330228
03949KAQV AQV20160723034011007/23/16 03:40:31  5-MIN KAQV 230940Z AUTO 00000KT 5SM BR CLR 23/23 A2997 330 97 1400 000/00 RMK AO2 T02330228
03949KAQV AQV20160723034511007/23/16 03:45:31  5-MIN KAQV 230945Z AUTO 00000KT 5SM BR CLR 24/23 A2997 330 97 1500 000/00 RMK AO2 T02390233
03949KAQV AQV20160723035011807/23/16 03:50:31  5-MIN KAQV 230950Z AUTO 00000KT 5SM BR CLR 23/23 A2996 340 100 1400 000/00 RMK AO2 SLP142 T02330233
03949KAQV AQV20160723035511707/23/16 03:55:31  5-MIN KAQV 230955Z AUTO 00000KT 5SM BR CLR 24/23 A2996 340 97 1500 000/00 RMK AO2 SLP142 T02390233
03949KAQV AQV20160723040011007/23/16 04:00:31  5-MIN KAQV 231000Z AUTO 00000KT 4SM BR CLR 23/23 A2996 340 97 1400 000/00 RMK AO2 T02330228
03949KAQV AQV20160723040511007/23/16 04:05:31  5-MIN KAQV 231005Z AUTO 00000KT 4SM BR CLR 23/23 A2997 330 97 1400 000/00 RMK AO2 T02330228
03949KAQV AQV20160723041011007/23/16 04:10:31  5-MIN KAQV 231010Z AUTO 00000KT 4SM BR CLR 23/23 A2997 330 97 1400 000/00 RMK AO2 T02330228
03949KAQV AQV20160723041511007/23/16 04:15:31  5-MIN KAQV 231015Z AUTO 00000KT 4SM BR CLR 23/23 A2997 330 97 1400 000/00 RMK AO2 T02330228
03949KAQV AQV20160723042011007/23/16 04:20:31  5-MIN KAQV 231020Z AUTO 00000KT 4SM BR CLR 23/23 A2997 330 97 1400 000/00 RMK AO2 T02330228
03949KAQV AQV20160723042511007/23/16 04:25:31  5-MIN KAQV 231025Z AUTO 00000KT 4SM BR CLR 23/23 A2997 330 97 1400 000/00 RMK AO2 T02330228
03949KAQV AQV20160723043011007/23/16 04:30:31  5-MIN KAQV 231030Z AUTO 00000KT 4SM BR CLR 24/23 A2997 330 97 1500 000/00 RMK AO2 T02390233
03949KAQV AQV20160723043511007/23/16 04:35:31  5-MIN KAQV 231035Z AUTO 00000KT 5SM BR CLR 24/23 A2997 330 97 1500 000/00 RMK AO2 T02390233
03949KAQV AQV20160723044011007/23/16 04:40:31  5-MIN KAQV 231040Z AUTO 00000KT 5SM BR CLR 24/23 A2997 330 97 1500 000/00 RMK AO2 T02390233
03949KAQV AQV20160723044511007/23/16 04:45:31  5-MIN KAQV 231045Z AUTO 00000KT 5SM BR CLR 24/23 A2997 330 97 1500 000/00 RMK AO2 T02390233
03949KAQV AQV20160723045011707/23/16 04:50:31  5-MIN KAQV 231050Z AUTO 00000KT 5SM BR CLR 24/23 A2997 330 97 1500 000/00 RMK AO2 SLP144 T02390233
03949KAQV AQV20160723045511707/23/16 04:55:31  5-MIN KAQV 231055Z AUTO 00000KT 6SM BR CLR 24/23 A2997 330 97 1500 000/00 RMK AO2 SLP144 T02390233
03949KAQV AQV20160723050011007/23/16 05:00:31  5-MIN KAQV 231100Z AUTO 00000KT 5SM BR CLR 24/23 A2997 330 97 1500 000/00 RMK AO2 T02390233
03949KAQV AQV20160723050511007/23/16 05:05:31  5-MIN KAQV 231105Z AUTO 00000KT 5SM BR CLR 24/23 A2997 330 97 1500 000/00 RMK AO2 T02390233
03949KAQV AQV20160723051011007/23/16 05:10:31  5-MIN KAQV 231110Z AUTO 00000KT 6SM BR CLR 24/23 A2997 330 97 1500 000/00 RMK AO2 T02390233
03949KAQV AQV20160723051511007/23/16 05:15:31  5-MIN KAQV 231115Z AUTO 00000KT 6SM BR CLR 24/23 A2998 330 93 1500 000/00 RMK AO2 T02440233
03949KAQV AQV20160723052010707/23/16 05:20:31  5-MIN KAQV 231120Z AUTO 00000KT 7SM CLR 24/24 A2998 320 97 1500 000/00 RMK AO2 T02440239
03949KAQV AQV20160723052510707/23/16 05:25:31  5-MIN KAQV 231125Z AUTO 00000KT 7SM CLR 24/24 A2998 320 97 1500 000/00 RMK AO2 T02440239
03949KAQV AQV20160723053011007/23/16 05:30:31  5-MIN KAQV 231130Z AUTO 00000KT 6SM BR CLR 24/24 A2998 320 97 1500 000/00 RMK AO2 T02440239
03949KAQV AQV20160723053511007/23/16 05:35:31  5-MIN KAQV 231135Z AUTO 00000KT 6SM BR CLR 24/24 A2998 320 97 1500 000/00 RMK AO2 T02440239
03949KAQV AQV20160723054011007/23/16 05:40:31  5-MIN KAQV 231140Z AUTO 00000KT 6SM BR CLR 24/24 A2998 320 97 1500 000/00 RMK AO2 T02440239
03949KAQV AQV20160723054511007/23/16 05:45:31  5-MIN KAQV 231145Z AUTO 00000KT 6SM BR CLR 24/24 A2998 320 97 1500 000/00 RMK AO2 T02440239
03949KAQV AQV20160723055013507/23/16 05:50:31  5-MIN KAQV 231150Z AUTO 00000KT 6SM BR CLR 24/24 A2998 320 97 1500 000/00 RMK AO2 SLP150 T02440239 10244 20233 56009
03949KAQV AQV20160723055513507/23/16 05:55:31  5-MIN KAQV 231155Z AUTO 00000KT 6SM BR CLR 24/24 A2998 320 97 1500 000/00 RMK AO2 SLP150 T02440239 10244 20233 56009
03949KAQV AQV20160723060011007/23/16 06:00:31  5-MIN KAQV 231200Z AUTO 00000KT 6SM BR CLR 24/24 A2998 320 97 1500 000/00 RMK AO2 T02440239
03949KAQV AQV20160723060511007/23/16 06:05:31  5-MIN KAQV 231205Z AUTO 00000KT 6SM BR CLR 24/24 A2999 320 97 1500 000/00 RMK AO2 T02440239
03949KAQV AQV20160723061010707/23/16 06:10:31  5-MIN KAQV 231210Z AUTO 00000KT 7SM CLR 25/24 A2999 310 93 1600 000/00 RMK AO2 T02500239
03949KAQV AQV20160723061510707/23/16 06:15:31  5-MIN KAQV 231215Z AUTO 00000KT 7SM CLR 25/24 A2999 310 97 1600 000/00 RMK AO2 T02500244
03949KAQV AQV20160723062010707/23/16 06:20:31  5-MIN KAQV 231220Z AUTO 00000KT 7SM CLR 25/24 A2999 310 93 1600 000/00 RMK AO2 T02500239
03949KAQV AQV20160723062510707/23/16 06:25:31  5-MIN KAQV 231225Z AUTO 00000KT 8SM CLR 25/24 A3000 310 97 1600 000/00 RMK AO2 T02500244
03949KAQV AQV20160723063010707/23/16 06:30:31  5-MIN KAQV 231230Z AUTO 00000KT 9SM CLR 25/24 A3000 310 97 1600 000/00 RMK AO2 T02500244
03949KAQV AQV20160723063510707/23/16 06:35:31  5-MIN KAQV 231235Z AUTO 00000KT 9SM CLR 25/24 A3000 310 97 1600 000/00 RMK AO2 T02500244
03949KAQV AQV20160723064010707/23/16 06:40:31  5-MIN KAQV 231240Z AUTO 00000KT 9SM CLR 25/24 A3000 310 97 1600 000/00 RMK AO2 T02500244
03949KAQV AQV20160723064510807/23/16 06:45:31  5-MIN KAQV 231245Z AUTO 00000KT 10SM CLR 25/24 A3000 310 97 1600 000/00 RMK AO2 T02500244
03949KAQV AQV20160723065011507/23/16 06:50:31  5-MIN KAQV 231250Z AUTO VRB03KT 10SM CLR 25/24 A3000 300 97 1600 VRB/03 RMK AO2 SLP155 T02500244
03949KAQV AQV20160723065511507/23/16 06:55:31  5-MIN KAQV 231255Z AUTO VRB04KT 10SM CLR 26/24 A3000 300 93 1600 VRB/04 RMK AO2 SLP154 T02560244
03949KAQV AQV20160723070010807/23/16 07:00:31  5-MIN KAQV 231300Z AUTO 23003KT 10SM CLR 26/24 A3000 300 93 1600 230/03 RMK AO2 T02560244
03949KAQV AQV20160723070510807/23/16 07:05:31  5-MIN KAQV 231305Z AUTO 26004KT 10SM CLR 26/24 A3000 300 90 1700 260/04 RMK AO2 T02610244
03949KAQV AQV20160723071010807/23/16 07:10:31  5-MIN KAQV 231310Z AUTO VRB03KT 10SM CLR 26/24 A3000 300 90 1700 VRB/03 RMK AO2 T02610244
03949KAQV AQV20160723071510807/23/16 07:15:31  5-MIN KAQV 231315Z AUTO VRB05KT 10SM CLR 26/24 A3000 300 90 1700 VRB/05 RMK AO2 T02610244
03949KAQV AQV20160723072010807/23/16 07:20:31  5-MIN KAQV 231320Z AUTO VRB04KT 10SM CLR 27/24 A3000 300 87 1800 VRB/04 RMK AO2 T02670244
03949KAQV AQV20160723072510807/23/16 07:25:31  5-MIN KAQV 231325Z AUTO VRB04KT 10SM CLR 28/24 A3000 300 82 1900 VRB/04 RMK AO2 T02780244
03949KAQV AQV20160723073010807/23/16 07:30:31  5-MIN KAQV 231330Z AUTO VRB06KT 10SM CLR 28/24 A3000 300 82 1900 VRB/06 RMK AO2 T02780244
03949KAQV AQV20160723073510807/23/16 07:35:31  5-MIN KAQV 231335Z AUTO 26004KT 10SM CLR 28/24 A3000 300 79 1900 260/04 RMK AO2 T02830244
03949KAQV AQV20160723074010807/23/16 07:40:31  5-MIN KAQV 231340Z AUTO VRB04KT 10SM CLR 28/24 A3000 300 79 1900 VRB/04 RMK AO2 T02830244
03949KAQV AQV20160723074510807/23/16 07:45:31  5-MIN KAQV 231345Z AUTO 27005KT 10SM CLR 28/24 A3000 300 79 1900 270/05 RMK AO2 T02830244
03949KAQV AQV20160723075011507/23/16 07:50:31  5-MIN KAQV 231350Z AUTO VRB05KT 10SM CLR 29/24 A3000 300 76 2000 VRB/05 RMK AO2 SLP156 T02890244
03949KAQV AQV20160723075511507/23/16 07:55:31  5-MIN KAQV 231355Z AUTO VRB05KT 10SM CLR 29/24 A3001 300 74 2000 VRB/05 RMK AO2 SLP157 T02890239
03949KAQV AQV20160723080010807/23/16 08:00:31  5-MIN KAQV 231400Z AUTO VRB04KT 10SM CLR 29/24 A3000 300 71 2100 VRB/04 RMK AO2 T02940239
03949KAQV AQV20160723080510807/23/16 08:05:31  5-MIN KAQV 231405Z AUTO VRB04KT 10SM CLR 29/24 A3001 300 71 2100 VRB/04 RMK AO2 T02940239
03949KAQV AQV20160723081010807/23/16 08:10:31  5-MIN KAQV 231410Z AUTO 30005KT 10SM CLR 29/24 A3001 300 71 2100 300/05 RMK AO2 T02940239
03949KAQV AQV20160723081510807/23/16 08:15:31  5-MIN KAQV 231415Z AUTO VRB03KT 10SM CLR 28/24 A3001 300 79 1900 VRB/03 RMK AO2 T02780239
03949KAQV AQV20160723082010807/23/16 08:20:31  5-MIN KAQV 231420Z AUTO 27007KT 10SM CLR 26/23 A3001 290 84 1700 260/07 RMK AO2 T02610233
03949KAQV AQV20160723082510807/23/16 08:25:31  5-MIN KAQV 231425Z AUTO 00000KT 10SM CLR 29/23 A3001 290 69 2100 000/00 RMK AO2 T02940233
03949KAQV AQV20160723083011107/23/16 08:30:31  5-MIN KAQV 231430Z AUTO VRB03KT 10SM SCT055 30/23 A3001 290 67 2100 VRB/03 RMK AO2 T03000233
03949KAQV AQV20160723083511107/23/16 08:35:31  5-MIN KAQV 231435Z AUTO VRB04KT 10SM BKN055 30/23 A3001 290 67 2100 VRB/04 RMK AO2 T03000233
03949KAQV AQV20160723084011107/23/16 08:40:31  5-MIN KAQV 231440Z AUTO VRB04KT 10SM BKN050 30/23 A3001 290 67 2100 VRB/04 RMK AO2 T03000233
03949KAQV AQV20160723084511107/23/16 08:45:31  5-MIN KAQV 231445Z AUTO VRB03KT 10SM BKN055 30/24 A3001 290 69 2100 VRB/03 RMK AO2 T03000239
03949KAQV AQV20160723085012407/23/16 08:50:31  5-MIN KAQV 231450Z AUTO VRB04KT 10SM BKN055 30/23 A3001 290 67 2100 VRB/04 RMK AO2 SLP159 T03000233 53005
03949KAQV AQV20160723085512407/23/16 08:55:31  5-MIN KAQV 231455Z AUTO 29004KT 10SM BKN055 30/23 A3001 290 67 2100 280/04 RMK AO2 SLP159 T03000233 53005
03949KAQV AQV20160723090011107/23/16 09:00:31  5-MIN KAQV 231500Z AUTO 28004KT 10SM BKN055 31/23 A3001 290 65 2200 270/04 RMK AO2 T03060233
03949KAQV AQV20160723090511107/23/16 09:05:31  5-MIN KAQV 231505Z AUTO 27004KT 10SM BKN055 31/23 A3001 290 65 2200 270/04 RMK AO2 T03060233
03949KAQV AQV20160723091011107/23/16 09:10:31  5-MIN KAQV 231510Z AUTO VRB04KT 10SM BKN055 31/23 A3001 290 63 2200 VRB/04 RMK AO2 T03110233
03949KAQV AQV20160723091511107/23/16 09:15:31  5-MIN KAQV 231515Z AUTO VRB04KT 10SM SCT055 32/23 A3001 300 61 2300 VRB/04 RMK AO2 T03170233
03949KAQV AQV20160723092011107/23/16 09:20:31  5-MIN KAQV 231520Z AUTO VRB05KT 10SM SCT055 31/23 A3000 300 63 2200 VRB/05 RMK AO2 T03110233
03949KAQV AQV20160723092511807/23/16 09:25:31  5-MIN KAQV 231525Z AUTO VRB04KT 10SM FEW050 FEW060 31/23 A3000 300 63 2200 VRB/04 RMK AO2 T03110233
03949KAQV AQV20160723093011107/23/16 09:30:31  5-MIN KAQV 231530Z AUTO VRB03KT 10SM FEW050 32/23 A3000 300 61 2300 VRB/03 RMK AO2 T03170233
03949KAQV AQV20160723093511107/23/16 09:35:31  5-MIN KAQV 231535Z AUTO VRB04KT 10SM FEW050 32/23 A3000 300 61 2300 VRB/04 RMK AO2 T03170233
03949KAQV AQV20160723094010807/23/16 09:40:31  5-MIN KAQV 231540Z AUTO VRB03KT 10SM CLR 31/23 A3000 300 63 2300 VRB/03 RMK AO2 T03110233
03949KAQV AQV20160723094510807/23/16 09:45:31  5-MIN KAQV 231545Z AUTO VRB04KT 10SM CLR 31/23 A3000 300 63 2300 VRB/04 RMK AO2 T03110233
03949KAQV AQV20160723095011807/23/16 09:50:31  5-MIN KAQV 231550Z AUTO VRB03KT 10SM FEW048 31/23 A3000 300 60 2300 VRB/03 RMK AO2 SLP156 T03110228
03949KAQV AQV20160723095511807/23/16 09:55:31  5-MIN KAQV 231555Z AUTO VRB04KT 10SM SCT048 31/23 A3000 300 63 2300 VRB/04 RMK AO2 SLP155 T03110233
03949KAQV AQV20160723100011107/23/16 10:00:31  5-MIN KAQV 231600Z AUTO VRB03KT 10SM SCT048 32/23 A3000 300 61 2300 VRB/03 RMK AO2 T03170233
03949KAQV AQV20160723100511107/23/16 10:05:31  5-MIN KAQV 231605Z AUTO 00000KT 10SM SCT048 28/23 A3000 300 74 1900 000/00 RMK AO2 T02830233
03949KAQV AQV20160723101011107/23/16 10:10:31  5-MIN KAQV 231610Z AUTO 26006KT 10SM SCT049 30/23 A3000 300 65 2100 260/06 RMK AO2 T03000228
03949KAQV AQV20160723101511807/23/16 10:15:31  5-MIN KAQV 231615Z AUTO VRB04KT 10SM SCT049 BKN055 32/23 A3000 300 58 2300 VRB/04 RMK AO2 T03170228
03949KAQV AQV20160723102011107/23/16 10:20:31  5-MIN KAQV 231620Z AUTO VRB04KT 10SM BKN049 32/23 A3000 300 58 2300 VRB/04 RMK AO2 T03170228
03949KAQV AQV20160723102511107/23/16 10:25:31  5-MIN KAQV 231625Z AUTO VRB04KT 10SM BKN050 32/23 A3000 300 58 2300 VRB/04 RMK AO2 T03170228
03949KAQV AQV20160723103011107/23/16 10:30:31  5-MIN KAQV 231630Z AUTO VRB05KT 10SM BKN055 33/23 A3000 300 55 2400 VRB/05 RMK AO2 T03280228
03949KAQV AQV20160723103511807/23/16 10:35:31  5-MIN KAQV 231635Z AUTO VRB04KT 10SM BKN055 BKN070 32/23 A3000 300 58 2300 VRB/04 RMK AO2 T03170228
03949KAQV AQV20160723104011807/23/16 10:40:31  5-MIN KAQV 231640Z AUTO VRB04KT 10SM BKN055 BKN070 32/23 A3000 300 58 2300 VRB/04 RMK AO2 T03170228
03949KAQV AQV20160723104511807/23/16 10:45:31  5-MIN KAQV 231645Z AUTO 19004KT 10SM BKN055 BKN070 32/23 A3000 300 57 2400 180/04 RMK AO2 T03220228
03949KAQV AQV20160723105012507/23/16 10:50:31  5-MIN KAQV 231650Z AUTO VRB03KT 10SM BKN055 BKN070 33/22 A3000 300 53 2400 VRB/03 RMK AO2 SLP154 T03280222
03949KAQV AQV20160723105512507/23/16 10:55:31  5-MIN KAQV 231655Z AUTO VRB05KT 10SM BKN055 BKN070 33/22 A3000 310 53 2400 VRB/05 RMK AO2 SLP153 T03280222
03949KAQV AQV20160723110011807/23/16 11:00:31  5-MIN KAQV 231700Z AUTO VRB04KT 10SM SCT050 BKN065 33/23 A3000 310 55 2400 VRB/04 RMK AO2 T03280228
03949KAQV AQV20160723110511807/23/16 11:05:31  5-MIN KAQV 231705Z AUTO VRB03KT 10SM FEW050 SCT060 33/23 A2999 310 53 2500 VRB/03 RMK AO2 T03330228
03949KAQV AQV20160723111012507/23/16 11:10:31  5-MIN KAQV 231710Z AUTO VRB03KT 10SM FEW040 FEW050 SCT060 33/23 A2999 310 55 2400 VRB/03 RMK AO2 T03280228
03949KAQV AQV20160723111512507/23/16 11:15:31  5-MIN KAQV 231715Z AUTO VRB03KT 10SM SCT040 SCT050 SCT060 33/23 A2999 310 53 2500 VRB/03 RMK AO2 T03330228
03949KAQV AQV20160723112011807/23/16 11:20:31  5-MIN KAQV 231720Z AUTO VRB03KT 10SM SCT040 BKN050 33/23 A2999 310 53 2500 VRB/03 RMK AO2 T03330228
03949KAQV AQV20160723112511807/23/16 11:25:31  5-MIN KAQV 231725Z AUTO VRB03KT 10SM SCT041 SCT050 33/23 A2999 310 53 2500 VRB/03 RMK AO2 T03330228
03949KAQV AQV20160723113011007/23/16 11:30:31  5-MIN KAQV 231730Z AUTO VRB04KT 9SM SCT041 33/23 A2999 310 53 2500 VRB/04 RMK AO2 T03330228
03949KAQV AQV20160723113511007/23/16 11:35:31  5-MIN KAQV 231735Z AUTO VRB04KT 9SM SCT041 33/23 A2999 310 53 2500 VRB/04 RMK AO2 T03330228
03949KAQV AQV20160723114011107/23/16 11:40:31  5-MIN KAQV 231740Z AUTO VRB03KT 10SM SCT040 34/23 A2999 310 51 2600 VRB/03 RMK AO2 T03390228
03949KAQV AQV20160723114511107/23/16 11:45:31  5-MIN KAQV 231745Z AUTO VRB04KT 10SM FEW040 34/23 A2999 320 51 2600 VRB/04 RMK AO2 T03390228
03949KAQV AQV20160723115013607/23/16 11:50:31  5-MIN KAQV 231750Z AUTO VRB03KT 10SM FEW040 33/23 A2998 320 53 2500 VRB/03 RMK AO2 SLP149 T03330228 10339 20244 51009
03949KAQV AQV20160723115513607/23/16 11:55:31  5-MIN KAQV 231755Z AUTO 00000KT 10SM SCT043 34/23 A2998 320 50 2600 000/00 RMK AO2 SLP148 T03440228 10344 20244 51009
03949KAQV AQV20160723120011107/23/16 12:00:31  5-MIN KAQV 231800Z AUTO VRB03KT 10SM BKN043 34/23 A2998 320 50 2600 VRB/03 RMK AO2 T03440228
03949KAQV AQV20160723120511107/23/16 12:05:31  5-MIN KAQV 231805Z AUTO 00000KT 10SM BKN043 33/23 A2998 320 53 2500 000/00 RMK AO2 T03330228
03949KAQV AQV20160723121011107/23/16 12:10:31  5-MIN KAQV 231810Z AUTO 00000KT 10SM BKN043 34/23 A2997 330 51 2600 000/00 RMK AO2 T03390228
03949KAQV AQV20160723121511107/23/16 12:15:31  5-MIN KAQV 231815Z AUTO 18005KT 10SM SCT043 34/23 A2997 330 50 2600 180/05 RMK AO2 T03440228
03949KAQV AQV20160723122011107/23/16 12:20:31  5-MIN KAQV 231820Z AUTO 18005KT 10SM SCT043 34/23 A2997 330 50 2700 170/05 RMK AO2 T03440228
03949KAQV AQV20160723122511107/23/16 12:25:31  5-MIN KAQV 231825Z AUTO 16005KT 10SM FEW043 34/23 A2997 330 50 2700 150/05 RMK AO2 T03440228
03949KAQV AQV20160723123011107/23/16 12:30:31  5-MIN KAQV 231830Z AUTO VRB03KT 10SM FEW043 34/22 A2997 330 48 2700 VRB/03 RMK AO2 T03440222
03949KAQV AQV20160723123510807/23/16 12:35:31  5-MIN KAQV 231835Z AUTO VRB05KT 10SM CLR 34/23 A2997 330 50 2700 VRB/05 RMK AO2 T03440228
03949KAQV AQV20160723124010807/23/16 12:40:31  5-MIN KAQV 231840Z AUTO VRB04KT 10SM CLR 34/23 A2997 330 50 2700 VRB/04 RMK AO2 T03440228
03949KAQV AQV20160723124510807/23/16 12:45:31  5-MIN KAQV 231845Z AUTO 00000KT 10SM CLR 34/22 A2997 330 50 2600 000/00 RMK AO2 T03390222
03949KAQV AQV20160723125011507/23/16 12:50:31  5-MIN KAQV 231850Z AUTO 00000KT 10SM CLR 34/22 A2997 330 48 2600 000/00 RMK AO2 SLP143 T03390217
03949KAQV AQV20160723125511507/23/16 12:55:31  5-MIN KAQV 231855Z AUTO 00000KT 10SM CLR 34/22 A2997 330 50 2600 000/00 RMK AO2 SLP142 T03390222
03949KAQV AQV20160723130010807/23/16 13:00:31  5-MIN KAQV 231900Z AUTO 00000KT 10SM CLR 34/23 A2997 330 51 2600 000/00 RMK AO2 T03390228
03949KAQV AQV20160723130511107/23/16 13:05:31  5-MIN KAQV 231905Z AUTO VRB03KT 10SM FEW080 34/23 A2997 330 50 2700 VRB/03 RMK AO2 T03440228
03949KAQV AQV20160723131011107/23/16 13:10:31  5-MIN KAQV 231910Z AUTO 00000KT 10SM FEW080 33/22 A2996 340 51 2500 000/00 RMK AO2 T03330222
03949KAQV AQV20160723131511807/23/16 13:15:31  5-MIN KAQV 231915Z AUTO 00000KT 10SM FEW047 FEW075 33/22 A2996 340 51 2500 000/00 RMK AO2 T03330222
03949KAQV AQV20160723132011807/23/16 13:20:31  5-MIN KAQV 231920Z AUTO 00000KT 10SM SCT047 SCT075 34/23 A2996 340 51 2600 000/00 RMK AO2 T03390228
03949KAQV AQV20160723132512507/23/16 13:25:31  5-MIN KAQV 231925Z AUTO 00000KT 10SM SCT047 SCT060 BKN075 34/22 A2996 340 48 2700 000/00 RMK AO2 T03440222
03949KAQV AQV20160723133012507/23/16 13:30:31  5-MIN KAQV 231930Z AUTO VRB03KT 10SM SCT048 SCT060 SCT075 35/23 A2995 350 48 2700 VRB/03 RMK AO2 T03500228
03949KAQV AQV20160723133511807/23/16 13:35:31  5-MIN KAQV 231935Z AUTO VRB03KT 10SM SCT048 BKN060 35/22 A2995 350 47 2700 VRB/03 RMK AO2 T03500222
03949KAQV AQV20160723134011807/23/16 13:40:31  5-MIN KAQV 231940Z AUTO VRB03KT 10SM BKN048 BKN055 34/22 A2995 350 48 2700 VRB/03 RMK AO2 T03440222
03949KAQV AQV20160723134510107/23/16 13:45:31  5-MIN KAQV 231945Z AUTO 10SM BKN050 36/23 A2994 350 47 2800 M /M RMK AO2 T03560228
03949KAQV AQV20160723135012507/23/16 13:50:31  5-MIN KAQV 231950Z AUTO VRB05KT 10SM SCT047 SCT055 34/22 A2994 360 48 2700 VRB/05 RMK AO2 SLP135 T03440222
03949KAQV AQV20160723135512507/23/16 13:55:31  5-MIN KAQV 231955Z AUTO 13003KT 10SM BKN047 BKN055 34/22 A2994 360 50 2600 130/03 RMK AO2 SLP135 T03390222
03949KAQV AQV20160723140011807/23/16 14:00:31  5-MIN KAQV 232000Z AUTO VRB05KT 10SM BKN049 BKN065 34/22 A2994 360 50 2600 VRB/05 RMK AO2 T03390222
03949KAQV AQV20160723140511807/23/16 14:05:31  5-MIN KAQV 232005Z AUTO 18004KT 10SM BKN047 BKN060 33/23 A2994 360 53 2600 170/04 RMK AO2 T03330228
03949KAQV AQV20160723141011807/23/16 14:10:31  5-MIN KAQV 232010Z AUTO VRB03KT 10SM BKN047 BKN060 33/23 A2993 360 53 2600 VRB/03 RMK AO2 T03330228
03949KAQV AQV20160723141511807/23/16 14:15:31  5-MIN KAQV 232015Z AUTO 00000KT 10SM BKN047 OVC060 34/23 A2993 370 51 2600 000/00 RMK AO2 T03390228
03949KAQV AQV20160723142011107/23/16 14:20:31  5-MIN KAQV 232020Z AUTO VRB03KT 10SM OVC048 34/23 A2993 370 51 2600 VRB/03 RMK AO2 T03390228
03949KAQV AQV20160723142511107/23/16 14:25:31  5-MIN KAQV 232025Z AUTO 16005KT 10SM OVC048 34/23 A2992 370 51 2600 160/05 RMK AO2 T03390228
03949KAQV AQV20160723143011807/23/16 14:30:31  5-MIN KAQV 232030Z AUTO 18005KT 10SM BKN048 OVC060 35/22 A2992 380 47 2800 170/05 RMK AO2 T03500222
03949KAQV AQV20160723143512507/23/16 14:35:31  5-MIN KAQV 232035Z AUTO 18005KT 10SM BKN050 BKN060 OVC095 35/23 A2992 380 48 2800 180/05 RMK AO2 T03500228
03949KAQV AQV20160723144012507/23/16 14:40:31  5-MIN KAQV 232040Z AUTO 00000KT 10SM SCT050 BKN060 BKN095 34/23 A2992 380 50 2700 000/00 RMK AO2 T03440228
03949KAQV AQV20160723144512507/23/16 14:45:31  5-MIN KAQV 232045Z AUTO VRB04KT 10SM SCT048 BKN060 BKN095 35/23 A2992 380 50 2800 VRB/04 RMK AO2 T03500233
03949KAQV AQV20160723145013807/23/16 14:50:31  5-MIN KAQV 232050Z AUTO 17004KT 10SM SCT048 BKN060 BKN095 34/23 A2992 380 50 2700 170/04 RMK AO2 SLP126 T03440228 58010
03949KAQV AQV20160723145513807/23/16 14:55:31  5-MIN KAQV 232055Z AUTO VRB03KT 10SM SCT049 BKN060 BKN095 34/23 A2992 380 50 2700 VRB/03 RMK AO2 SLP127 T03440228 58010
03949KAQV AQV20160723150012707/23/16 15:00:31  5-MIN KAQV 232100Z AUTO 19007KT 150V230 10SM BKN050 34/23 A2992 380 51 2700 180/07 150V230 RMK AO2 T03390228
03949KAQV AQV20160723150511807/23/16 15:05:31  5-MIN KAQV 232105Z AUTO VRB04KT 10SM BKN050 BKN060 34/23 A2992 380 51 2700 VRB/04 RMK AO2 T03390228
03949KAQV AQV20160723151012507/23/16 15:10:31  5-MIN KAQV 232110Z AUTO VRB03KT 10SM SCT048 BKN055 BKN080 33/23 A2992 380 53 2600 VRB/03 RMK AO2 T03330228
03949KAQV AQV20160723151511807/23/16 15:15:31  5-MIN KAQV 232115Z AUTO VRB03KT 10SM SCT050 BKN080 33/23 A2992 380 55 2600 VRB/03 RMK AO2 T03330233
03949KAQV AQV20160723152012507/23/16 15:20:31  5-MIN KAQV 232120Z AUTO 00000KT 10SM SCT050 SCT080 BKN100 33/23 A2991 380 55 2600 000/00 RMK AO2 T03330233
03949KAQV AQV20160723152512507/23/16 15:25:31  5-MIN KAQV 232125Z AUTO 19005KT 10SM FEW048 SCT055 BKN100 34/23 A2991 390 53 2700 180/05 RMK AO2 T03390233
03949KAQV AQV20160723153012507/23/16 15:30:31  5-MIN KAQV 232130Z AUTO 00000KT 10SM FEW055 SCT080 BKN100 33/23 A2991 390 55 2600 000/00 RMK AO2 T03330233
03949KAQV AQV20160723153512507/23/16 15:35:31  5-MIN KAQV 232135Z AUTO 00000KT 10SM FEW050 FEW080 SCT100 33/23 A2991 380 55 2600 000/00 RMK AO2 T03330233
03949KAQV AQV20160723154011807/23/16 15:40:31  5-MIN KAQV 232140Z AUTO VRB03KT 10SM SCT055 SCT095 33/23 A2991 380 55 2600 VRB/03 RMK AO2 T03330233
03949KAQV AQV20160723154511807/23/16 15:45:31  5-MIN KAQV 232145Z AUTO VRB03KT 10SM SCT055 BKN095 33/23 A2991 380 55 2500 VRB/03 RMK AO2 T03280228
03949KAQV AQV20160723155011707/23/16 15:50:31  5-MIN KAQV 232150Z AUTO 00000KT 10SM TS FEW055 SCT095 33/23 A2991 380 57 2500 000/00 RMK AO2 TSB47
03949KAQV AQV20160723155512707/23/16 15:55:31  5-MIN KAQV 232155Z AUTO 18003KT 10SM TS FEW055 33/24 A2991 390 59 2500 180/03 RMK AO2 TSB47 SLP124 T03280239
03949KAQV AQV20160723160011407/23/16 16:00:31  5-MIN KAQV 232200Z AUTO 17003KT 10SM TS FEW055 32/24 A2991 390 61 2500 170/03 RMK AO2 T03220239
03949KAQV AQV20160723160511707/23/16 16:05:31  5-MIN KAQV 232205Z AUTO 18003KT 10SM FEW055 32/24 A2991 390 61 2500 180/03 RMK AO2 TSE02 T03220239
03949KAQV AQV20160723161011407/23/16 16:10:31  5-MIN KAQV 232210Z AUTO 16003KT 10SM CLR 32/24 A2990 390 61 2500 150/03 RMK AO2 TSE02 T03220239
03949KAQV AQV20160723161511407/23/16 16:15:31  5-MIN KAQV 232215Z AUTO 00000KT 10SM CLR 32/24 A2990 390 61 2500 000/00 RMK AO2 TSE02 T03220239
03949KAQV AQV20160723162011707/23/16 16:20:31  5-MIN KAQV 232220Z AUTO 00000KT 10SM SCT050 33/23 A2990 390 57 2500 000/00 RMK AO2 TSE02 T03280233
03949KAQV AQV20160723162512407/23/16 16:25:31  5-MIN KAQV 232225Z AUTO 00000KT 10SM SCT050 BKN065 33/24 A2990 400 59 2500 000/00 RMK AO2 TSE02 T03280239
03949KAQV AQV20160723163012407/23/16 16:30:31  5-MIN KAQV 232230Z AUTO 16003KT 10SM SCT050 BKN065 33/23 A2990 400 57 2600 150/03 RMK AO2 TSE02 T03280233
03949KAQV AQV20160723163512407/23/16 16:35:31  5-MIN KAQV 232235Z AUTO 00000KT 10SM BKN050 BKN065 32/23 A2989 400 59 2500 000/00 RMK AO2 TSE02 T03220233
03949KAQV AQV20160723164012407/23/16 16:40:31  5-MIN KAQV 232240Z AUTO 00000KT 10SM BKN050 BKN065 33/24 A2989 400 59 2600 000/00 RMK AO2 TSE02 T03280239
03949KAQV AQV20160723164512407/23/16 16:45:31  5-MIN KAQV 232245Z AUTO 00000KT 10SM BKN050 OVC065 33/24 A2989 410 59 2600 000/00 RMK AO2 TSE02 T03280239
03949KAQV AQV20160723165013107/23/16 16:50:31  5-MIN KAQV 232250Z AUTO 00000KT 10SM BKN050 OVC060 33/24 A2989 410 61 2600 000/00 RMK AO2 TSE02 SLP116 T03280244
03949KAQV AQV20160723165513107/23/16 16:55:31  5-MIN KAQV 232255Z AUTO 00000KT 10SM BKN050 OVC065 33/25 A2988 410 61 2600 000/00 RMK AO2 TSE02 SLP114 T03330250
03949KAQV AQV20160723170011107/23/16 17:00:31  5-MIN KAQV 232300Z AUTO 00000KT 10SM OVC050 34/24 A2988 410 55 2700 000/00 RMK AO2 T03390239
03949KAQV AQV20160723170511107/23/16 17:05:31  5-MIN KAQV 232305Z AUTO VRB05KT 10SM OVC049 31/23 A2988 410 65 2300 VRB/05 RMK AO2 T03060233
03949KAQV AQV20160723171011807/23/16 17:10:31  5-MIN KAQV 232310Z AUTO 00000KT 10SM BKN049 OVC060 33/23 A2988 410 55 2600 000/00 RMK AO2 T03330233
03949KAQV AQV20160723171514107/23/16 17:15:31  5-MIN KAQV 232315Z AUTO VRB03KT 10SM -RA FEW032 BKN049 BKN060 33/23 A2988 410 55 2600 VRB/03 RMK AO2 RAB11 P0000 T03330233
03949KAQV AQV20160723172013407/23/16 17:20:31  5-MIN KAQV 232320Z AUTO 00000KT 10SM -RA FEW032 BKN050 32/24 A2989 410 63 2500 000/00 RMK AO2 RAB11 P0000 T03220244
03949KAQV AQV20160723172513307/23/16 17:25:31  5-MIN KAQV 232325Z AUTO 00000KT 10SM FEW032 BKN050 30/25 A2989 410 74 2300 000/00 RMK AO2 RAB11E22 P0000 T03000250
03949KAQV AQV20160723173013307/23/16 17:30:31  5-MIN KAQV 232330Z AUTO 00000KT 10SM FEW032 BKN050 32/25 A2989 410 67 2400 000/00 RMK AO2 RAB11E22 P0000 T03170250
03949KAQV AQV20160723173514207/23/16 17:35:31  5-MIN KAQV 232335Z AUTO 00000KT 10SM TS FEW032 BKN050 32/25 A2989 410 67 2400 000/00 RMK AO2 RAB11E22 TSB34 P0000 T03170250
03949KAQV AQV20160723174014507/23/16 17:40:31  5-MIN KAQV 232340Z AUTO 00000KT 10SM TS FEW032 BKN050 32/26 A2989 400 67 2500 000/00 RMK AO2 RAB11E22 TSB34B37 P0000 T03220256
03949KAQV AQV20160723174513807/23/16 17:45:31  5-MIN KAQV 232345Z AUTO 00000KT 10SM TS SCT055 32/25 A2989 410 65 2500 000/00 RMK AO2 RAB11E22 TSB34B37 P0000 T03220250
03949KAQV AQV20160723175016907/23/16 17:50:31  5-MIN KAQV 232350Z AUTO 00000KT 10SM TS SCT055 33/25 A2989 410 63 2600 000/00 RMK AO2 RAB11E22 TSB34B37 SLP116 P0000 60000 T03280250 10356 20300 58021
03949KAQV AQV20160723175516907/23/16 17:55:31  5-MIN KAQV 232355Z AUTO 00000KT 10SM TS SCT055 32/25 A2989 400 65 2500 000/00 RMK AO2 RAB11E22 TSB34B37 SLP118 P0000 60000 T03220250 10356 20300 58021
03949KAQV AQV20160723180011407/23/16 18:00:31  5-MIN KAQV 240000Z AUTO 00000KT 10SM TS FEW055 32/24 A2989 400 61 2500 000/00 RMK AO2 T03220239
03949KAQV AQV20160723180511407/23/16 18:05:31  5-MIN KAQV 240005Z AUTO 00000KT 10SM TS FEW060 32/24 A2989 400 61 2500 000/00 RMK AO2 T03220239
03949KAQV AQV20160723181011407/23/16 18:10:31  5-MIN KAQV 240010Z AUTO 33003KT 10SM TS FEW060 32/24 A2990 400 63 2400 320/03 RMK AO2 T03170239
03949KAQV AQV20160723181511107/23/16 18:15:31  5-MIN KAQV 240015Z AUTO 00000KT 10SM TS CLR 32/24 A2990 400 63 2400 000/00 RMK AO2 T03170239
03949KAQV AQV20160723182011107/23/16 18:20:31  5-MIN KAQV 240020Z AUTO 00000KT 10SM TS CLR 32/23 A2990 390 61 2400 000/00 RMK AO2 T03170233
03949KAQV AQV20160723182511107/23/16 18:25:31  5-MIN KAQV 240025Z AUTO 00000KT 10SM TS CLR 32/24 A2990 400 63 2400 000/00 RMK AO2 T03170239
03949KAQV AQV20160723183011107/23/16 18:30:31  5-MIN KAQV 240030Z AUTO 00000KT 10SM TS CLR 32/24 A2990 390 63 2400 000/00 RMK AO2 T03170239
03949KAQV AQV20160723183511107/23/16 18:35:31  5-MIN KAQV 240035Z AUTO 00000KT 10SM TS CLR 31/24 A2990 390 67 2400 000/00 RMK AO2 T03110244
03949KAQV AQV20160723184011407/23/16 18:40:31  5-MIN KAQV 240040Z AUTO 00000KT 10SM CLR 31/24 A2990 390 67 2400 000/00 RMK AO2 TSE40 T03110244
03949KAQV AQV20160723184511407/23/16 18:45:31  5-MIN KAQV 240045Z AUTO 00000KT 10SM CLR 31/24 A2990 390 67 2400 000/00 RMK AO2 TSE40 T03110244
03949KAQV AQV20160723185012707/23/16 18:50:31  5-MIN KAQV 240050Z AUTO 00000KT 10SM TS CLR 31/25 A2991 390 72 2300 000/00 RMK AO2 TSE40B46 SLP124 T03060250
03949KAQV AQV20160723185512707/23/16 18:55:31  5-MIN KAQV 240055Z AUTO 00000KT 10SM TS CLR 31/25 A2991 390 72 2300 000/00 RMK AO2 TSE40B46 SLP125 T03060250
03949KAQV AQV20160723190011407/23/16 19:00:31  5-MIN KAQV 240100Z AUTO 00000KT 10SM TS FEW050 31/25 A2991 390 72 2300 000/00 RMK AO2 T03060250
03949KAQV AQV20160723190511707/23/16 19:05:31  5-MIN KAQV 240105Z AUTO 00000KT 10SM FEW050 30/25 A2991 390 74 2200 000/00 RMK AO2 TSE01 T03000250
03949KAQV AQV20160723191011707/23/16 19:10:31  5-MIN KAQV 240110Z AUTO 00000KT 10SM SCT050 30/26 A2991 390 77 2200 000/00 RMK AO2 TSE01 T03000256
03949KAQV AQV20160723191511707/23/16 19:15:31  5-MIN KAQV 240115Z AUTO 00000KT 10SM SCT055 29/26 A2991 390 79 2200 000/00 RMK AO2 TSE01 T02940256
03949KAQV AQV20160723192011707/23/16 19:20:31  5-MIN KAQV 240120Z AUTO 00000KT 10SM SCT055 29/26 A2991 390 79 2200 000/00 RMK AO2 TSE01 T02940256
03949KAQV AQV20160723192511707/23/16 19:25:31  5-MIN KAQV 240125Z AUTO 05003KT 10SM SCT055 29/25 A2991 380 76 2200 040/03 RMK AO2 TSE01 T02940250
03949KAQV AQV20160723193012407/23/16 19:30:31  5-MIN KAQV 240130Z AUTO 04003KT 10SM SCT050 SCT060 29/25 A2992 380 76 2200 040/03 RMK AO2 TSE01 T02940250
03949KAQV AQV20160723193511707/23/16 19:35:31  5-MIN KAQV 240135Z AUTO 00000KT 10SM BKN050 29/25 A2992 380 76 2200 000/00 RMK AO2 TSE01 T02940250
03949KAQV AQV20160723194011707/23/16 19:40:31  5-MIN KAQV 240140Z AUTO 00000KT 10SM BKN055 29/26 A2992 380 82 2100 000/00 RMK AO2 TSE01 T02890256
03949KAQV AQV20160723194511707/23/16 19:45:31  5-MIN KAQV 240145Z AUTO 00000KT 10SM SCT055 29/26 A2992 380 82 2100 000/00 RMK AO2 TSE01 T02890256
03949KAQV AQV20160723195012407/23/16 19:50:31  5-MIN KAQV 240150Z AUTO 00000KT 10SM SCT055 29/25 A2992 380 76 2200 000/00 RMK AO2 TSE01 SLP127 T02940250
03949KAQV AQV20160723195512407/23/16 19:55:31  5-MIN KAQV 240155Z AUTO 00000KT 10SM SCT050 29/25 A2992 370 79 2100 000/00 RMK AO2 TSE01 SLP129 T02890250
03949KAQV AQV20160723200011107/23/16 20:00:31  5-MIN KAQV 240200Z AUTO 00000KT 10SM FEW055 29/26 A2993 370 82 2100 000/00 RMK AO2 T02890256
03949KAQV AQV20160723200511107/23/16 20:05:31  5-MIN KAQV 240205Z AUTO 00000KT 10SM FEW055 28/25 A2993 370 82 2000 000/00 RMK AO2 T02830250
03949KAQV AQV20160723201010807/23/16 20:10:31  5-MIN KAQV 240210Z AUTO 00000KT 10SM CLR 28/26 A2993 370 85 2000 000/00 RMK AO2 T02830256
03949KAQV AQV20160723201510807/23/16 20:15:31  5-MIN KAQV 240215Z AUTO 00000KT 10SM CLR 28/26 A2993 360 85 2000 000/00 RMK AO2 T02830256
03949KAQV AQV20160723202010807/23/16 20:20:31  5-MIN KAQV 240220Z AUTO 00000KT 10SM CLR 28/25 A2994 360 82 2000 000/00 RMK AO2 T02830250
03949KAQV AQV20160723202510807/23/16 20:25:31  5-MIN KAQV 240225Z AUTO 00000KT 10SM CLR 28/25 A2994 360 84 2000 000/00 RMK AO2 T02780250
03949KAQV AQV20160723203010807/23/16 20:30:31  5-MIN KAQV 240230Z AUTO 00000KT 10SM CLR 28/26 A2994 360 87 1900 000/00 RMK AO2 T02780256
03949KAQV AQV20160723203510807/23/16 20:35:31  5-MIN KAQV 240235Z AUTO 00000KT 10SM CLR 28/25 A2994 360 82 2000 000/00 RMK AO2 T02830250
03949KAQV AQV20160723204010807/23/16 20:40:31  5-MIN KAQV 240240Z AUTO 00000KT 10SM CLR 28/26 A2994 350 87 1900 000/00 RMK AO2 T02780256
03949KAQV AQV20160723204510807/23/16 20:45:31  5-MIN KAQV 240245Z AUTO 00000KT 10SM CLR 28/26 A2994 360 87 1900 000/00 RMK AO2 T02780256
03949KAQV AQV20160723205012107/23/16 20:50:31  5-MIN KAQV 240250Z AUTO 00000KT 10SM CLR 28/25 A2994 360 84 1900 000/00 RMK AO2 SLP134 T02780250 55006
03949KAQV AQV20160723205512107/23/16 20:55:31  5-MIN KAQV 240255Z AUTO 00000KT 10SM CLR 28/25 A2994 360 82 2000 000/00 RMK AO2 SLP134 T02830250 55006
03949KAQV AQV20160723210010707/23/16 21:00:31  5-MIN KAQV 240300Z AUTO 00000KT 9SM CLR 28/25 A2994 360 84 1900 000/00 RMK AO2 T02780250
03949KAQV AQV20160723210510807/23/16 21:05:31  5-MIN KAQV 240305Z AUTO 00000KT 10SM CLR 28/25 A2994 360 84 1900 000/00 RMK AO2 T02780250
03949KAQV AQV20160723211010807/23/16 21:10:31  5-MIN KAQV 240310Z AUTO 00000KT 10SM CLR 28/25 A2994 360 84 1900 000/00 RMK AO2 T02780250
03949KAQV AQV20160723211510807/23/16 21:15:31  5-MIN KAQV 240315Z AUTO 00000KT 10SM CLR 27/25 A2995 350 87 1900 000/00 RMK AO2 T02720250
03949KAQV AQV20160723212010807/23/16 21:20:31  5-MIN KAQV 240320Z AUTO 00000KT 10SM CLR 27/26 A2995 350 90 1900 000/00 RMK AO2 T02720256
03949KAQV AQV20160723212510807/23/16 21:25:31  5-MIN KAQV 240325Z AUTO 00000KT 10SM CLR 27/25 A2995 350 87 1900 000/00 RMK AO2 T02720250
03949KAQV AQV20160723213010807/23/16 21:30:31  5-MIN KAQV 240330Z AUTO 00000KT 10SM CLR 27/26 A2995 350 90 1900 000/00 RMK AO2 T02720256
03949KAQV AQV20160723213510807/23/16 21:35:31  5-MIN KAQV 240335Z AUTO 00000KT 10SM CLR 28/25 A2995 350 84 1900 000/00 RMK AO2 T02780250
03949KAQV AQV20160723214010807/23/16 21:40:31  5-MIN KAQV 240340Z AUTO 00000KT 10SM CLR 27/25 A2995 350 87 1900 000/00 RMK AO2 T02720250
03949KAQV AQV20160723214510807/23/16 21:45:31  5-MIN KAQV 240345Z AUTO 00000KT 10SM CLR 27/25 A2995 350 90 1800 000/00 RMK AO2 T02670250
03949KAQV AQV20160723215011507/23/16 21:50:31  5-MIN KAQV 240350Z AUTO 00000KT 10SM CLR 27/25 A2995 350 87 1900 000/00 RMK AO2 SLP138 T02720250
03949KAQV AQV20160723215511507/23/16 21:55:31  5-MIN KAQV 240355Z AUTO 00000KT 10SM CLR 27/25 A2995 350 87 1900 000/00 RMK AO2 SLP137 T02720250
03949KAQV AQV20160723220010807/23/16 22:00:31  5-MIN KAQV 240400Z AUTO 00000KT 10SM CLR 27/25 A2995 350 90 1800 000/00 RMK AO2 T02670250
03949KAQV AQV20160723220510807/23/16 22:05:31  5-MIN KAQV 240405Z AUTO 00000KT 10SM CLR 27/25 A2995 350 90 1800 000/00 RMK AO2 T02670250
03949KAQV AQV20160723221010807/23/16 22:10:31  5-MIN KAQV 240410Z AUTO 00000KT 10SM CLR 27/25 A2994 350 90 1800 000/00 RMK AO2 T02670250
03949KAQV AQV20160723221510807/23/16 22:15:31  5-MIN KAQV 240415Z AUTO 00000KT 10SM CLR 27/25 A2994 360 90 1800 000/00 RMK AO2 T02670250
03949KAQV AQV20160723222010807/23/16 22:20:31  5-MIN KAQV 240420Z AUTO 00000KT 10SM CLR 27/25 A2994 360 90 1800 000/00 RMK AO2 T02670250
03949KAQV AQV20160723222510807/23/16 22:25:31  5-MIN KAQV 240425Z AUTO 00000KT 10SM CLR 27/25 A2994 360 90 1800 000/00 RMK AO2 T02670250
03949KAQV AQV20160723223010807/23/16 22:30:31  5-MIN KAQV 240430Z AUTO 00000KT 10SM CLR 27/25 A2994 360 90 1800 000/00 RMK AO2 T02670250
03949KAQV AQV20160723223510807/23/16 22:35:31  5-MIN KAQV 240435Z AUTO 00000KT 10SM CLR 27/25 A2994 360 90 1800 000/00 RMK AO2 T02670250
03949KAQV AQV20160723224010807/23/16 22:40:31  5-MIN KAQV 240440Z AUTO 00000KT 10SM CLR 27/25 A2994 360 90 1800 000/00 RMK AO2 T02670250
03949KAQV AQV20160723224510807/23/16 22:45:31  5-MIN KAQV 240445Z AUTO 00000KT 10SM CLR 26/25 A2994 360 93 1800 000/00 RMK AO2 T02610250
03949KAQV AQV20160723225011507/23/16 22:50:31  5-MIN KAQV 240450Z AUTO 00000KT 10SM CLR 27/24 A2994 360 87 1800 000/00 RMK AO2 SLP134 T02670244
03949KAQV AQV20160723225511507/23/16 22:55:31  5-MIN KAQV 240455Z AUTO 00000KT 10SM CLR 27/25 A2994 360 90 1800 000/00 RMK AO2 SLP134 T02670250
03949KAQV AQV20160723230010807/23/16 23:00:31  5-MIN KAQV 240500Z AUTO 00000KT 10SM CLR 27/25 A2994 360 90 1800 000/00 RMK AO2 T02670250
03949KAQV AQV20160723230510807/23/16 23:05:31  5-MIN KAQV 240505Z AUTO 00000KT 10SM CLR 26/25 A2994 360 93 1800 000/00 RMK AO2 T02610250
03949KAQV AQV20160723231010807/23/16 23:10:31  5-MIN KAQV 240510Z AUTO 00000KT 10SM CLR 26/24 A2993 370 90 1800 000/00 RMK AO2 T02610244
03949KAQV AQV20160723231510807/23/16 23:15:31  5-MIN KAQV 240515Z AUTO 00000KT 10SM CLR 26/24 A2993 370 90 1800 000/00 RMK AO2 T02610244
03949KAQV AQV20160723232010807/23/16 23:20:31  5-MIN KAQV 240520Z AUTO 00000KT 10SM CLR 27/24 A2993 370 87 1800 000/00 RMK AO2 T02670244
03949KAQV AQV20160723232510807/23/16 23:25:31  5-MIN KAQV 240525Z AUTO 00000KT 10SM CLR 27/24 A2992 370 87 1800 000/00 RMK AO2 T02670244
03949KAQV AQV20160723233010807/23/16 23:30:31  5-MIN KAQV 240530Z AUTO 00000KT 10SM CLR 27/24 A2992 380 87 1900 000/00 RMK AO2 T02670244
03949KAQV AQV20160723233510807/23/16 23:35:31  5-MIN KAQV 240535Z AUTO 00000KT 10SM CLR 27/24 A2992 380 87 1900 000/00 RMK AO2 T02670244
03949KAQV AQV20160723234010807/23/16 23:40:31  5-MIN KAQV 240540Z AUTO 00000KT 10SM CLR 26/24 A2991 380 90 1800 000/00 RMK AO2 T02610244
03949KAQV AQV20160723234510807/23/16 23:45:31  5-MIN KAQV 240545Z AUTO 18003KT 10SM CLR 26/24 A2991 390 90 1800 170/03 RMK AO2 T02610244
03949KAQV AQV20160723235014307/23/16 23:50:31  5-MIN KAQV 240550Z AUTO 19003KT 10SM CLR 27/24 A2991 380 87 1900 180/03 RMK AO2 SLP124 T02670244 10322 20261 403560233 51017
03949KAQV AQV20160723235514307/23/16 23:55:31  5-MIN KAQV 240555Z AUTO VRB03KT 10SM CLR 27/24 A2991 380 87 1900 VRB/03 RMK AO2 SLP125 T02670244 10322 20261 403560233 51017
03949KAQV AQV20160724000010807/24/16 00:00:31  5-MIN KAQV 240600Z AUTO 18003KT 10SM CLR 27/24 A2991 380 87 1900 180/03 RMK AO2 T02670244
03949KAQV AQV20160724000510807/24/16 00:05:31  5-MIN KAQV 240605Z AUTO VRB04KT 10SM CLR 27/24 A2991 380 87 1900 VRB/04 RMK AO2 T02670244
03949KAQV AQV20160724001010807/24/16 00:10:31  5-MIN KAQV 240610Z AUTO VRB04KT 10SM CLR 27/24 A2992 380 87 1900 VRB/04 RMK AO2 T02670244
03949KAQV AQV20160724001510807/24/16 00:15:31  5-MIN KAQV 240615Z AUTO 18004KT 10SM CLR 27/24 A2992 380 87 1900 170/04 RMK AO2 T02670244
03949KAQV AQV20160724002010807/24/16 00:20:31  5-MIN KAQV 240620Z AUTO 18004KT 10SM CLR 27/24 A2992 380 87 1900 180/04 RMK AO2 T02670244
03949KAQV AQV20160724002510807/24/16 00:25:31  5-MIN KAQV 240625Z AUTO VRB04KT 10SM CLR 27/24 A2992 380 87 1900 VRB/04 RMK AO2 T02670244
03949KAQV AQV20160724003010807/24/16 00:30:31  5-MIN KAQV 240630Z AUTO VRB03KT 10SM CLR 27/24 A2992 380 87 1800 VRB/03 RMK AO2 T02670244
03949KAQV AQV20160724003510807/24/16 00:35:31  5-MIN KAQV 240635Z AUTO VRB03KT 10SM CLR 27/24 A2992 380 87 1800 VRB/03 RMK AO2 T02670244
03949KAQV AQV20160724004010807/24/16 00:40:31  5-MIN KAQV 240640Z AUTO 19004KT 10SM CLR 27/24 A2992 370 87 1800 190/04 RMK AO2 T02670244
03949KAQV AQV20160724004510807/24/16 00:45:31  5-MIN KAQV 240645Z AUTO 00000KT 10SM CLR 27/24 A2993 370 84 1800 000/00 RMK AO2 T02670239
03949KAQV AQV20160724005011507/24/16 00:50:31  5-MIN KAQV 240650Z AUTO 00000KT 10SM CLR 27/24 A2993 370 84 1800 000/00 RMK AO2 SLP129 T02670239
03949KAQV AQV20160724005511507/24/16 00:55:31  5-MIN KAQV 240655Z AUTO VRB03KT 10SM CLR 27/24 A2993 370 84 1800 VRB/03 RMK AO2 SLP130 T02670239
03949KAQV AQV20160724010010807/24/16 01:00:31  5-MIN KAQV 240700Z AUTO VRB03KT 10SM CLR 27/24 A2993 370 84 1800 VRB/03 RMK AO2 T02670239
03949KAQV AQV20160724010510807/24/16 01:05:31  5-MIN KAQV 240705Z AUTO VRB04KT 10SM CLR 27/24 A2993 370 84 1800 VRB/04 RMK AO2 T02670239
03949KAQV AQV20160724011010807/24/16 01:10:31  5-MIN KAQV 240710Z AUTO VRB04KT 10SM CLR 27/24 A2993 370 84 1800 VRB/04 RMK AO2 T02670239
03949KAQV AQV20160724011510807/24/16 01:15:31  5-MIN KAQV 240715Z AUTO VRB03KT 10SM CLR 27/24 A2993 360 84 1800 VRB/03 RMK AO2 T02670239
03949KAQV AQV20160724012010807/24/16 01:20:31  5-MIN KAQV 240720Z AUTO 00000KT 10SM CLR 27/24 A2994 360 84 1800 000/00 RMK AO2 T02670239
03949KAQV AQV20160724012510807/24/16 01:25:31  5-MIN KAQV 240725Z AUTO 00000KT 10SM CLR 27/24 A2993 360 84 1800 000/00 RMK AO2 T02670239
03949KAQV AQV20160724013010807/24/16 01:30:31  5-MIN KAQV 240730Z AUTO 00000KT 10SM CLR 27/24 A2994 360 84 1800 000/00 RMK AO2 T02670239
03949KAQV AQV20160724013510807/24/16 01:35:31  5-MIN KAQV 240735Z AUTO VRB03KT 10SM CLR 27/24 A2994 360 84 1800 VRB/03 RMK AO2 T02670239
03949KAQV AQV20160724014010807/24/16 01:40:31  5-MIN KAQV 240740Z AUTO 00000KT 10SM CLR 27/24 A2994 360 84 1800 000/00 RMK AO2 T02670239
03949KAQV AQV20160724014510807/24/16 01:45:31  5-MIN KAQV 240745Z AUTO 00000KT 10SM CLR 27/24 A2994 360 84 1800 000/00 RMK AO2 T02670239
03949KAQV AQV20160724015011507/24/16 01:50:31  5-MIN KAQV 240750Z AUTO 00000KT 10SM CLR 27/24 A2994 360 84 1800 000/00 RMK AO2 SLP133 T02670239
03949KAQV AQV20160724015511507/24/16 01:55:31  5-MIN KAQV 240755Z AUTO 00000KT 10SM CLR 26/24 A2994 360 87 1800 000/00 RMK AO2 SLP133 T02610239
03949KAQV AQV20160724020010807/24/16 02:00:31  5-MIN KAQV 240800Z AUTO 00000KT 10SM CLR 27/24 A2994 360 84 1800 000/00 RMK AO2 T02670239
03949KAQV AQV20160724020510807/24/16 02:05:31  5-MIN KAQV 240805Z AUTO 00000KT 10SM CLR 27/24 A2994 360 84 1800 000/00 RMK AO2 T02670239
03949KAQV AQV20160724021010807/24/16 02:10:31  5-MIN KAQV 240810Z AUTO 00000KT 10SM CLR 26/24 A2994 360 87 1800 000/00 RMK AO2 T02610239
03949KAQV AQV20160724021511107/24/16 02:15:31  5-MIN KAQV 240815Z AUTO 00000KT 10SM FEW060 26/24 A2994 360 87 1800 000/00 RMK AO2 T02610239
03949KAQV AQV20160724022011107/24/16 02:20:31  5-MIN KAQV 240820Z AUTO 00000KT 10SM FEW060 26/24 A2994 360 87 1800 000/00 RMK AO2 T02610239
03949KAQV AQV20160724022510807/24/16 02:25:31  5-MIN KAQV 240825Z AUTO 00000KT 10SM CLR 26/24 A2994 360 90 1700 000/00 RMK AO2 T02560239
03949KAQV AQV20160724023010807/24/16 02:30:31  5-MIN KAQV 240830Z AUTO 00000KT 10SM CLR 26/24 A2994 360 90 1700 000/00 RMK AO2 T02560239
03949KAQV AQV20160724023510807/24/16 02:35:31  5-MIN KAQV 240835Z AUTO 00000KT 10SM CLR 26/24 A2993 360 90 1700 000/00 RMK AO2 T02560239
03949KAQV AQV20160724024010807/24/16 02:40:31  5-MIN KAQV 240840Z AUTO 00000KT 10SM CLR 26/24 A2993 360 90 1700 000/00 RMK AO2 T02560239
03949KAQV AQV20160724024510707/24/16 02:45:31  5-MIN KAQV 240845Z AUTO 00000KT 9SM CLR 26/24 A2994 360 90 1700 000/00 RMK AO2 T02560239
03949KAQV AQV20160724025012007/24/16 02:50:31  5-MIN KAQV 240850Z AUTO 00000KT 9SM CLR 26/24 A2994 360 90 1700 000/00 RMK AO2 SLP132 T02560239 58010
03949KAQV AQV20160724025512007/24/16 02:55:31  5-MIN KAQV 240855Z AUTO 00000KT 9SM CLR 26/24 A2994 360 90 1700 000/00 RMK AO2 SLP133 T02560239 58010
03949KAQV AQV20160724030010807/24/16 03:00:31  5-MIN KAQV 240900Z AUTO 00000KT 10SM CLR 26/24 A2994 360 90 1700 000/00 RMK AO2 T02560239
03949KAQV AQV20160724030510807/24/16 03:05:31  5-MIN KAQV 240905Z AUTO 00000KT 10SM CLR 25/24 A2994 360 93 1600 000/00 RMK AO2 T02500239
03949KAQV AQV20160724031010807/24/16 03:10:31  5-MIN KAQV 240910Z AUTO 00000KT 10SM CLR 25/23 A2994 360 90 1600 000/00 RMK AO2 T02500233
03949KAQV AQV20160724031510807/24/16 03:15:31  5-MIN KAQV 240915Z AUTO 00000KT 10SM CLR 25/23 A2994 360 90 1600 000/00 RMK AO2 T02500233
03949KAQV AQV20160724032010807/24/16 03:20:31  5-MIN KAQV 240920Z AUTO 00000KT 10SM CLR 25/23 A2994 360 90 1600 000/00 RMK AO2 T02500233
03949KAQV AQV20160724032510707/24/16 03:25:31  5-MIN KAQV 240925Z AUTO 00000KT 9SM CLR 25/23 A2994 360 90 1600 000/00 RMK AO2 T02500233
03949KAQV AQV20160724033010807/24/16 03:30:31  5-MIN KAQV 240930Z AUTO 00000KT 10SM CLR 26/23 A2994 360 87 1700 000/00 RMK AO2 T02560233
03949KAQV AQV20160724033510807/24/16 03:35:31  5-MIN KAQV 240935Z AUTO 00000KT 10SM CLR 25/23 A2994 360 90 1600 000/00 RMK AO2 T02500233
03949KAQV AQV20160724034010807/24/16 03:40:31  5-MIN KAQV 240940Z AUTO 00000KT 10SM CLR 26/23 A2994 360 87 1700 000/00 RMK AO2 T02560233
03949KAQV AQV20160724034510807/24/16 03:45:31  5-MIN KAQV 240945Z AUTO 00000KT 10SM CLR 25/23 A2994 360 90 1600 000/00 RMK AO2 T02500233
03949KAQV AQV20160724035011507/24/16 03:50:31  5-MIN KAQV 240950Z AUTO 00000KT 10SM CLR 25/23 A2994 360 90 1600 000/00 RMK AO2 SLP134 T02500233
03949KAQV AQV20160724035511507/24/16 03:55:31  5-MIN KAQV 240955Z AUTO 00000KT 10SM CLR 26/23 A2994 360 87 1700 000/00 RMK AO2 SLP134 T02560233
03949KAQV AQV20160724040010807/24/16 04:00:31  5-MIN KAQV 241000Z AUTO 00000KT 10SM CLR 25/23 A2994 360 90 1600 000/00 RMK AO2 T02500233
03949KAQV AQV20160724040510807/24/16 04:05:31  5-MIN KAQV 241005Z AUTO 00000KT 10SM CLR 25/23 A2994 360 90 1600 000/00 RMK AO2 T02500233
03949KAQV AQV20160724041010807/24/16 04:10:31  5-MIN KAQV 241010Z AUTO 00000KT 10SM CLR 25/23 A2994 350 90 1600 000/00 RMK AO2 T02500233
03949KAQV AQV20160724041510807/24/16 04:15:31  5-MIN KAQV 241015Z AUTO 00000KT 10SM CLR 25/23 A2995 350 90 1600 000/00 RMK AO2 T02500233
03949KAQV AQV20160724042010807/24/16 04:20:31  5-MIN KAQV 241020Z AUTO 00000KT 10SM CLR 25/23 A2995 350 90 1600 000/00 RMK AO2 T02500233
03949KAQV AQV20160724042510807/24/16 04:25:31  5-MIN KAQV 241025Z AUTO 00000KT 10SM CLR 25/23 A2995 350 90 1600 000/00 RMK AO2 T02500233
03949KAQV AQV20160724043010807/24/16 04:30:31  5-MIN KAQV 241030Z AUTO 00000KT 10SM CLR 25/23 A2995 350 90 1600 000/00 RMK AO2 T02500233
03949KAQV AQV20160724043511107/24/16 04:35:31  5-MIN KAQV 241035Z AUTO 00000KT 10SM FEW014 24/23 A2995 350 93 1600 000/00 RMK AO2 T02440233
03949KAQV AQV20160724044011007/24/16 04:40:31  5-MIN KAQV 241040Z AUTO 00000KT 9SM FEW014 24/23 A2995 350 93 1600 000/00 RMK AO2 T02440233
03949KAQV AQV20160724044511007/24/16 04:45:31  5-MIN KAQV 241045Z AUTO 00000KT 9SM FEW014 24/23 A2995 350 93 1600 000/00 RMK AO2 T02440233
03949KAQV AQV20160724045011807/24/16 04:50:31  5-MIN KAQV 241050Z AUTO 00000KT 10SM FEW014 24/23 A2995 350 93 1600 000/00 RMK AO2 SLP138 T02440233
03949KAQV AQV20160724045511807/24/16 04:55:31  5-MIN KAQV 241055Z AUTO 00000KT 10SM FEW014 24/23 A2995 350 93 1600 000/00 RMK AO2 SLP138 T02440233
03949KAQV AQV20160724050011107/24/16 05:00:31  5-MIN KAQV 241100Z AUTO 00000KT 10SM FEW014 24/23 A2995 350 93 1600 000/00 RMK AO2 T02440233
03949KAQV AQV20160724050511107/24/16 05:05:31  5-MIN KAQV 241105Z AUTO 00000KT 10SM FEW015 24/23 A2995 350 93 1600 000/00 RMK AO2 T02440233
03949KAQV AQV20160724051010807/24/16 05:10:31  5-MIN KAQV 241110Z AUTO 00000KT 10SM CLR 24/23 A2995 350 93 1600 000/00 RMK AO2 T02440233
03949KAQV AQV20160724051510807/24/16 05:15:31  5-MIN KAQV 241115Z AUTO 00000KT 10SM CLR 24/23 A2995 340 93 1600 000/00 RMK AO2 T02440233
03949KAQV AQV20160724052010807/24/16 05:20:31  5-MIN KAQV 241120Z AUTO 00000KT 10SM CLR 24/23 A2995 340 93 1600 000/00 RMK AO2 T02440233
03949KAQV AQV20160724052510807/24/16 05:25:31  5-MIN KAQV 241125Z AUTO 00000KT 10SM CLR 25/23 A2996 340 90 1600 000/00 RMK AO2 T02500233
03949KAQV AQV20160724053010807/24/16 05:30:31  5-MIN KAQV 241130Z AUTO 00000KT 10SM CLR 25/23 A2996 340 90 1600 000/00 RMK AO2 T02500233
03949KAQV AQV20160724053510807/24/16 05:35:31  5-MIN KAQV 241135Z AUTO VRB03KT 10SM CLR 25/24 A2996 340 93 1600 VRB/03 RMK AO2 T02500239
03949KAQV AQV20160724054010807/24/16 05:40:31  5-MIN KAQV 241140Z AUTO 00000KT 10SM CLR 25/24 A2995 340 93 1600 000/00 RMK AO2 T02500239
03949KAQV AQV20160724054510807/24/16 05:45:31  5-MIN KAQV 241145Z AUTO 00000KT 10SM CLR 25/24 A2996 340 93 1600 000/00 RMK AO2 T02500239
03949KAQV AQV20160724055013307/24/16 05:50:31  5-MIN KAQV 241150Z AUTO 00000KT 10SM CLR 26/24 A2996 340 90 1700 000/00 RMK AO2 SLP141 T02560239 10267 20244 50008
03949KAQV AQV20160724055513307/24/16 05:55:31  5-MIN KAQV 241155Z AUTO 00000KT 10SM CLR 26/24 A2996 340 90 1700 000/00 RMK AO2 SLP141 T02560239 10267 20244 50008
03949KAQV AQV20160724060010807/24/16 06:00:31  5-MIN KAQV 241200Z AUTO 00000KT 10SM CLR 26/24 A2996 340 90 1700 000/00 RMK AO2 T02560239
03949KAQV AQV20160724060510807/24/16 06:05:31  5-MIN KAQV 241205Z AUTO 00000KT 10SM CLR 26/24 A2997 330 90 1700 000/00 RMK AO2 T02560239
03949KAQV AQV20160724061010807/24/16 06:10:31  5-MIN KAQV 241210Z AUTO 00000KT 10SM CLR 26/24 A2997 330 87 1700 000/00 RMK AO2 T02610239
03949KAQV AQV20160724061510807/24/16 06:15:31  5-MIN KAQV 241215Z AUTO 00000KT 10SM CLR 26/24 A2997 330 87 1700 000/00 RMK AO2 T02610239
03949KAQV AQV20160724062010807/24/16 06:20:31  5-MIN KAQV 241220Z AUTO 00000KT 10SM CLR 26/24 A2997 330 87 1700 000/00 RMK AO2 T02610239
03949KAQV AQV20160724062510807/24/16 06:25:31  5-MIN KAQV 241225Z AUTO 00000KT 10SM CLR 26/24 A2997 330 87 1700 000/00 RMK AO2 T02610239
03949KAQV AQV20160724063010807/24/16 06:30:31  5-MIN KAQV 241230Z AUTO 00000KT 10SM CLR 27/24 A2997 330 87 1800 000/00 RMK AO2 T02670244
03949KAQV AQV20160724063510807/24/16 06:35:31  5-MIN KAQV 241235Z AUTO VRB03KT 10SM CLR 27/24 A2997 330 87 1800 VRB/03 RMK AO2 T02670244
03949KAQV AQV20160724064010807/24/16 06:40:31  5-MIN KAQV 241240Z AUTO 26003KT 10SM CLR 27/24 A2997 330 87 1800 250/03 RMK AO2 T02670244
03949KAQV AQV20160724064510807/24/16 06:45:31  5-MIN KAQV 241245Z AUTO 27003KT 10SM CLR 27/24 A2997 330 84 1900 270/03 RMK AO2 T02720244
03949KAQV AQV20160724065011507/24/16 06:50:31  5-MIN KAQV 241250Z AUTO VRB04KT 10SM CLR 27/24 A2997 330 84 1900 VRB/04 RMK AO2 SLP145 T02720244
03949KAQV AQV20160724065511507/24/16 06:55:31  5-MIN KAQV 241255Z AUTO VRB04KT 10SM CLR 27/24 A2997 330 84 1900 VRB/04 RMK AO2 SLP144 T02720244
03949KAQV AQV20160724070010807/24/16 07:00:31  5-MIN KAQV 241300Z AUTO VRB04KT 10SM CLR 28/24 A2997 330 82 1900 VRB/04 RMK AO2 T02780244
03949KAQV AQV20160724070510807/24/16 07:05:31  5-MIN KAQV 241305Z AUTO VRB04KT 10SM CLR 28/24 A2998 320 82 1900 VRB/04 RMK AO2 T02780244
03949KAQV AQV20160724071010807/24/16 07:10:31  5-MIN KAQV 241310Z AUTO VRB03KT 10SM CLR 28/24 A2998 320 82 1900 VRB/03 RMK AO2 T02780244
03949KAQV AQV20160724071510807/24/16 07:15:31  5-MIN KAQV 241315Z AUTO 25006KT 10SM CLR 28/24 A2998 320 82 1900 250/06 RMK AO2 T02780244
03949KAQV AQV20160724072010807/24/16 07:20:31  5-MIN KAQV 241320Z AUTO VRB05KT 10SM CLR 28/24 A2998 320 79 2000 VRB/05 RMK AO2 T02830244
03949KAQV AQV20160724072511107/24/16 07:25:31  5-MIN KAQV 241325Z AUTO VRB05KT 10SM FEW015 28/24 A2998 320 79 2000 VRB/05 RMK AO2 T02830244
03949KAQV AQV20160724073011107/24/16 07:30:31  5-MIN KAQV 241330Z AUTO VRB04KT 10SM FEW015 28/24 A2999 310 79 2000 VRB/04 RMK AO2 T02830244
03949KAQV AQV20160724073511107/24/16 07:35:31  5-MIN KAQV 241335Z AUTO 25007KT 10SM FEW015 29/24 A2999 310 76 2000 250/07 RMK AO2 T02890244
03949KAQV AQV20160724074011107/24/16 07:40:31  5-MIN KAQV 241340Z AUTO 26006KT 10SM FEW015 29/24 A2999 310 76 2000 260/06 RMK AO2 T02890244
03949KAQV AQV20160724074511707/24/16 07:45:31  5-MIN KAQV 241345Z AUTO VRB04G15KT 10SM FEW015 29/24 A2999 310 76 2000 VRB/04G15 RMK AO2 T02890244
03949KAQV AQV20160724075012407/24/16 07:50:31  5-MIN KAQV 241350Z AUTO VRB05G15KT 10SM FEW015 29/24 A2999 310 74 2100 VRB/05G15 RMK AO2 SLP150 T02940244
03949KAQV AQV20160724075511807/24/16 07:55:31  5-MIN KAQV 241355Z AUTO 25005KT 10SM FEW015 29/24 A2999 310 74 2100 250/05 RMK AO2 SLP151 T02940244
03949KAQV AQV20160724080011107/24/16 08:00:31  5-MIN KAQV 241400Z AUTO VRB05KT 10SM FEW018 29/24 A2999 310 74 2100 VRB/05 RMK AO2 T02940244
03949KAQV AQV20160724080511107/24/16 08:05:31  5-MIN KAQV 241405Z AUTO VRB03KT 10SM FEW018 29/24 A2999 310 74 2100 VRB/03 RMK AO2 T02940244
03949KAQV AQV20160724081012707/24/16 08:10:31  5-MIN KAQV 241410Z AUTO 26007KT 210V360 10SM FEW018 29/24 A2999 310 74 2100 260/07 210V360 RMK AO2 T02940244
03949KAQV AQV20160724081511107/24/16 08:15:31  5-MIN KAQV 241415Z AUTO 27006KT 10SM FEW018 30/24 A2999 310 72 2100 270/06 RMK AO2 T03000244
03949KAQV AQV20160724082011107/24/16 08:20:31  5-MIN KAQV 241420Z AUTO 27004KT 10SM FEW018 30/24 A2999 310 72 2100 260/04 RMK AO2 T03000244
03949KAQV AQV20160724082511107/24/16 08:25:31  5-MIN KAQV 241425Z AUTO VRB04KT 10SM SCT020 30/24 A2999 310 72 2100 VRB/04 RMK AO2 T03000244
03949KAQV AQV20160724083011107/24/16 08:30:31  5-MIN KAQV 241430Z AUTO 28007KT 10SM SCT020 29/24 A2999 310 71 2100 270/07 RMK AO2 T02940239
03949KAQV AQV20160724083511107/24/16 08:35:31  5-MIN KAQV 241435Z AUTO VRB06KT 10SM FEW020 30/24 A2999 310 69 2100 VRB/06 RMK AO2 T03000239
03949KAQV AQV20160724084011107/24/16 08:40:31  5-MIN KAQV 241440Z AUTO VRB03KT 10SM FEW020 30/24 A2999 310 69 2100 VRB/03 RMK AO2 T03000239
03949KAQV AQV20160724084510107/24/16 08:45:31  5-MIN KAQV 241445Z AUTO 10SM FEW020 31/24 A2999 310 67 2200 M /M RMK AO2 T03060239
03949KAQV AQV20160724085012407/24/16 08:50:31  5-MIN KAQV 241450Z AUTO VRB05KT 10SM FEW022 31/24 A2999 310 67 2200 VRB/05 RMK AO2 SLP151 T03060239 53008
03949KAQV AQV20160724085512407/24/16 08:55:31  5-MIN KAQV 241455Z AUTO VRB04KT 10SM FEW022 31/24 A2999 310 67 2200 VRB/04 RMK AO2 SLP151 T03060239 53008
03949KAQV AQV20160724090011107/24/16 09:00:31  5-MIN KAQV 241500Z AUTO VRB06KT 10SM FEW023 31/24 A2999 310 65 2300 VRB/06 RMK AO2 T03110239
03949KAQV AQV20160724090511107/24/16 09:05:31  5-MIN KAQV 241505Z AUTO VRB04KT 10SM FEW023 31/24 A2999 310 67 2300 VRB/04 RMK AO2 T03110244
03949KAQV AQV20160724091011107/24/16 09:10:31  5-MIN KAQV 241510Z AUTO VRB03KT 10SM FEW023 31/24 A2999 310 65 2300 VRB/03 RMK AO2 T03110239
03949KAQV AQV20160724091510807/24/16 09:15:31  5-MIN KAQV 241515Z AUTO 27007KT 10SM CLR 31/23 A2999 310 63 2300 260/07 RMK AO2 T03110233
03949KAQV AQV20160724092010807/24/16 09:20:31  5-MIN KAQV 241520Z AUTO VRB05KT 10SM CLR 31/23 A2999 310 63 2300 VRB/05 RMK AO2 T03110233
03949KAQV AQV20160724092510807/24/16 09:25:31  5-MIN KAQV 241525Z AUTO VRB04KT 10SM CLR 31/23 A2999 310 60 2300 VRB/04 RMK AO2 T03110228
03949KAQV AQV20160724093011107/24/16 09:30:31  5-MIN KAQV 241530Z AUTO 00000KT 10SM FEW027 32/23 A2999 310 61 2300 000/00 RMK AO2 T03170233
03949KAQV AQV20160724093510107/24/16 09:35:31  5-MIN KAQV 241535Z AUTO 10SM FEW029 31/23 A2999 310 60 2300 M /M RMK AO2 T03110228
03949KAQV AQV20160724094011107/24/16 09:40:31  5-MIN KAQV 241540Z AUTO VRB04KT 10SM FEW029 31/23 A2999 310 60 2300 VRB/04 RMK AO2 T03110228
03949KAQV AQV20160724094511107/24/16 09:45:31  5-MIN KAQV 241545Z AUTO VRB03KT 10SM FEW029 32/23 A2999 310 58 2300 VRB/03 RMK AO2 T03170228
03949KAQV AQV20160724095011807/24/16 09:50:31  5-MIN KAQV 241550Z AUTO 00000KT 10SM SCT029 32/23 A2999 310 59 2400 000/00 RMK AO2 SLP151 T03220233
03949KAQV AQV20160724095511807/24/16 09:55:31  5-MIN KAQV 241555Z AUTO VRB04KT 10SM SCT029 31/23 A2999 310 63 2300 VRB/04 RMK AO2 SLP151 T03110233
03949KAQV AQV20160724100011107/24/16 10:00:31  5-MIN KAQV 241600Z AUTO 28004KT 10SM SCT030 32/23 A2999 310 58 2300 270/04 RMK AO2 T03170228
03949KAQV AQV20160724100511107/24/16 10:05:31  5-MIN KAQV 241605Z AUTO VRB03KT 10SM FEW030 32/23 A2999 310 59 2400 VRB/03 RMK AO2 T03220233
03949KAQV AQV20160724101011107/24/16 10:10:31  5-MIN KAQV 241610Z AUTO 00000KT 10SM FEW030 32/23 A2999 310 59 2400 000/00 RMK AO2 T03220233
03949KAQV AQV20160724101510107/24/16 10:15:31  5-MIN KAQV 241615Z AUTO 10SM SCT031 32/23 A2999 310 59 2400 M /M RMK AO2 T03220233
03949KAQV AQV20160724102011107/24/16 10:20:31  5-MIN KAQV 241620Z AUTO VRB04KT 10SM SCT031 32/23 A2999 310 59 2400 VRB/04 RMK AO2 T03220233
03949KAQV AQV20160724102511107/24/16 10:25:31  5-MIN KAQV 241625Z AUTO VRB03KT 10SM FEW032 32/23 A2999 310 59 2400 VRB/03 RMK AO2 T03220233
03949KAQV AQV20160724103011107/24/16 10:30:31  5-MIN KAQV 241630Z AUTO VRB03KT 10SM FEW032 32/23 A2999 310 57 2400 VRB/03 RMK AO2 T03220228
03949KAQV AQV20160724103511107/24/16 10:35:31  5-MIN KAQV 241635Z AUTO 17003KT 10SM FEW032 32/22 A2999 320 55 2400 160/03 RMK AO2 T03220222
03949KAQV AQV20160724104011107/24/16 10:40:31  5-MIN KAQV 241640Z AUTO 24004KT 10SM FEW032 32/22 A2999 320 55 2400 230/04 RMK AO2 T03220222
03949KAQV AQV20160724104511107/24/16 10:45:31  5-MIN KAQV 241645Z AUTO VRB03KT 10SM SCT036 33/22 A2999 320 53 2500 VRB/03 RMK AO2 T03280222
03949KAQV AQV20160724105011807/24/16 10:50:31  5-MIN KAQV 241650Z AUTO 16003KT 10SM SCT038 33/22 A2999 320 53 2500 160/03 RMK AO2 SLP149 T03280222
03949KAQV AQV20160724105511807/24/16 10:55:31  5-MIN KAQV 241655Z AUTO VRB04KT 10SM SCT038 33/22 A2998 320 51 2500 VRB/04 RMK AO2 SLP149 T03330222
03949KAQV AQV20160724110011107/24/16 11:00:31  5-MIN KAQV 241700Z AUTO 23004KT 10SM SCT038 33/22 A2998 320 53 2500 220/04 RMK AO2 T03280222
03949KAQV AQV20160724110511107/24/16 11:05:31  5-MIN KAQV 241705Z AUTO VRB03KT 10SM SCT039 32/22 A2998 320 55 2400 VRB/03 RMK AO2 T03220222
03949KAQV AQV20160724111011107/24/16 11:10:31  5-MIN KAQV 241710Z AUTO VRB03KT 10SM SCT039 33/22 A2998 320 51 2500 VRB/03 RMK AO2 T03280217
03949KAQV AQV20160724111511107/24/16 11:15:31  5-MIN KAQV 241715Z AUTO VRB03KT 10SM FEW041 33/22 A2997 330 50 2500 VRB/03 RMK AO2 T03330217
03949KAQV AQV20160724112011107/24/16 11:20:31  5-MIN KAQV 241720Z AUTO VRB05KT 10SM FEW041 34/22 A2997 330 50 2600 VRB/05 RMK AO2 T03390222
03949KAQV AQV20160724112511107/24/16 11:25:31  5-MIN KAQV 241725Z AUTO VRB03KT 10SM FEW041 34/22 A2997 330 48 2700 VRB/03 RMK AO2 T03440222
03949KAQV AQV20160724113010807/24/16 11:30:31  5-MIN KAQV 241730Z AUTO VRB03KT 10SM CLR 34/22 A2997 330 48 2600 VRB/03 RMK AO2 T03390217
03949KAQV AQV20160724113510807/24/16 11:35:31  5-MIN KAQV 241735Z AUTO 00000KT 10SM CLR 34/22 A2997 330 50 2600 000/00 RMK AO2 T03390222
03949KAQV AQV20160724114011107/24/16 11:40:31  5-MIN KAQV 241740Z AUTO 23004KT 10SM FEW044 34/22 A2997 330 50 2600 230/04 RMK AO2 T03390222
03949KAQV AQV20160724114511107/24/16 11:45:31  5-MIN KAQV 241745Z AUTO VRB03KT 10SM SCT044 34/23 A2997 330 51 2600 VRB/03 RMK AO2 T03390228
03949KAQV AQV20160724115014307/24/16 11:50:31  5-MIN KAQV 241750Z AUTO VRB04KT 10SM BKN043 BKN050 33/22 A2997 330 53 2500 VRB/04 RMK AO2 SLP143 T03280222 10344 20256 50009
03949KAQV AQV20160724115514307/24/16 11:55:31  5-MIN KAQV 241755Z AUTO VRB03KT 10SM BKN043 BKN055 33/22 A2997 330 51 2500 VRB/03 RMK AO2 SLP143 T03330222 10344 20256 50009
03949KAQV AQV20160724120011807/24/16 12:00:31  5-MIN KAQV 241800Z AUTO 36004KT 10SM SCT043 BKN055 34/23 A2996 340 50 2700 360/04 RMK AO2 T03440228
03949KAQV AQV20160724120511807/24/16 12:05:31  5-MIN KAQV 241805Z AUTO 00000KT 10SM SCT043 BKN055 34/22 A2996 340 48 2700 000/00 RMK AO2 T03440222
03949KAQV AQV20160724121011807/24/16 12:10:31  5-MIN KAQV 241810Z AUTO VRB03KT 10SM FEW043 SCT055 34/22 A2996 340 48 2700 VRB/03 RMK AO2 T03440222
03949KAQV AQV20160724121511807/24/16 12:15:31  5-MIN KAQV 241815Z AUTO 01004KT 10SM FEW043 SCT055 34/22 A2996 340 46 2700 360/04 RMK AO2 T03440217
03949KAQV AQV20160724122011107/24/16 12:20:31  5-MIN KAQV 241820Z AUTO 00000KT 10SM FEW060 35/22 A2996 340 47 2700 000/00 RMK AO2 T03500222
03949KAQV AQV20160724122511107/24/16 12:25:31  5-MIN KAQV 241825Z AUTO 23004KT 10SM FEW047 33/22 A2995 340 50 2500 230/04 RMK AO2 T03330217
03949KAQV AQV20160724123011107/24/16 12:30:31  5-MIN KAQV 241830Z AUTO 00000KT 10SM SCT047 33/22 A2995 350 50 2600 000/00 RMK AO2 T03330217
03949KAQV AQV20160724123511107/24/16 12:35:31  5-MIN KAQV 241835Z AUTO VRB04KT 10SM BKN047 33/22 A2995 350 50 2600 VRB/04 RMK AO2 T03330217
03949KAQV AQV20160724124011107/24/16 12:40:31  5-MIN KAQV 241840Z AUTO VRB04KT 10SM BKN047 33/22 A2995 350 51 2600 VRB/04 RMK AO2 T03330222
03949KAQV AQV20160724124511807/24/16 12:45:31  5-MIN KAQV 241845Z AUTO VRB04KT 10SM BKN049 BKN065 34/22 A2995 350 48 2700 VRB/04 RMK AO2 T03440222
03949KAQV AQV20160724125012507/24/16 12:50:31  5-MIN KAQV 241850Z AUTO VRB03KT 10SM SCT049 BKN065 35/23 A2994 360 48 2700 VRB/03 RMK AO2 SLP134 T03500228
03949KAQV AQV20160724125512507/24/16 12:55:31  5-MIN KAQV 241855Z AUTO 00000KT 10SM SCT049 SCT065 35/22 A2994 360 47 2700 000/00 RMK AO2 SLP134 T03500222
03949KAQV AQV20160724130011807/24/16 13:00:31  5-MIN KAQV 241900Z AUTO 00000KT 10SM FEW049 SCT065 34/22 A2994 360 46 2700 000/00 RMK AO2 T03440217
03949KAQV AQV20160724130511807/24/16 13:05:31  5-MIN KAQV 241905Z AUTO 34004KT 10SM FEW049 FEW065 35/22 A2993 360 45 2800 330/04 RMK AO2 T03500217
03949KAQV AQV20160724131011807/24/16 13:10:31  5-MIN KAQV 241910Z AUTO 00000KT 10SM FEW049 FEW060 34/21 A2993 370 45 2700 000/00 RMK AO2 T03440211
03949KAQV AQV20160724131511107/24/16 13:15:31  5-MIN KAQV 241915Z AUTO VRB03KT 10SM SCT049 34/22 A2993 370 48 2700 VRB/03 RMK AO2 T03440222
03949KAQV AQV20160724132011807/24/16 13:20:31  5-MIN KAQV 241920Z AUTO 32004KT 10SM SCT049 SCT060 36/22 A2993 370 45 2800 320/04 RMK AO2 T03560222
03949KAQV AQV20160724132511807/24/16 13:25:31  5-MIN KAQV 241925Z AUTO VRB03KT 10SM SCT049 SCT060 35/22 A2993 370 47 2800 VRB/03 RMK AO2 T03500222
03949KAQV AQV20160724133011807/24/16 13:30:31  5-MIN KAQV 241930Z AUTO VRB04KT 10SM FEW049 SCT060 36/22 A2993 370 45 2800 VRB/04 RMK AO2 T03560222
03949KAQV AQV20160724133512507/24/16 13:35:31  5-MIN KAQV 241935Z AUTO VRB03KT 10SM FEW049 SCT060 SCT095 35/22 A2992 370 45 2800 VRB/03 RMK AO2 T03500217
03949KAQV AQV20160724134012507/24/16 13:40:31  5-MIN KAQV 241940Z AUTO VRB04KT 10SM FEW049 FEW060 SCT095 35/22 A2992 370 45 2800 VRB/04 RMK AO2 T03500217
03949KAQV AQV20160724134511807/24/16 13:45:31  5-MIN KAQV 241945Z AUTO 00000KT 10SM FEW049 FEW095 35/22 A2992 380 45 2800 000/00 RMK AO2 T03500217
03949KAQV AQV20160724135011807/24/16 13:50:31  5-MIN KAQV 241950Z AUTO VRB03KT 10SM FEW100 35/22 A2992 380 45 2800 VRB/03 RMK AO2 SLP127 T03500217
03949KAQV AQV20160724135512507/24/16 13:55:31  5-MIN KAQV 241955Z AUTO 00000KT 10SM FEW055 FEW095 34/22 A2992 380 46 2700 000/00 RMK AO2 SLP127 T03440217
03949KAQV AQV20160724140012407/24/16 14:00:31  5-MIN KAQV 242000Z AUTO 08008G14KT 10SM SCT050 SCT095 33/22 A2993 370 51 2600 070/08G14 RMK AO2 T03330222
03949KAQV AQV20160724140512407/24/16 14:05:31  5-MIN KAQV 242005Z AUTO VRB05G14KT 10SM SCT050 BKN070 32/23 A2993 370 61 2400 VRB/05G14 RMK AO2 T03170233
03949KAQV AQV20160724141012507/24/16 14:10:31  5-MIN KAQV 242010Z AUTO VRB06KT 10SM SCT050 BKN070 BKN090 31/24 A2992 370 65 2300 VRB/06 RMK AO2 T03110239
03949KAQV AQV20160724141512507/24/16 14:15:31  5-MIN KAQV 242015Z AUTO VRB05KT 10SM SCT050 SCT075 BKN110 31/24 A2992 380 65 2300 VRB/05 RMK AO2 T03110239
03949KAQV AQV20160724142011807/24/16 14:20:31  5-MIN KAQV 242020Z AUTO VRB06KT 10SM SCT050 SCT070 31/24 A2992 370 65 2300 VRB/06 RMK AO2 T03110239
03949KAQV AQV20160724142511807/24/16 14:25:31  5-MIN KAQV 242025Z AUTO VRB06KT 10SM FEW050 SCT070 31/23 A2993 370 65 2300 VRB/06 RMK AO2 T03060233
03949KAQV AQV20160724143011807/24/16 14:30:31  5-MIN KAQV 242030Z AUTO VRB06KT 10SM FEW050 FEW070 31/23 A2993 370 65 2300 VRB/06 RMK AO2 T03060233
03949KAQV AQV20160724143510807/24/16 14:35:31  5-MIN KAQV 242035Z AUTO VRB06KT 10SM CLR 31/23 A2993 370 63 2300 VRB/06 RMK AO2 T03110233
03949KAQV AQV20160724144010807/24/16 14:40:31  5-MIN KAQV 242040Z AUTO VRB06KT 10SM CLR 31/22 A2993 370 60 2300 VRB/06 RMK AO2 T03060222
03949KAQV AQV20160724144510807/24/16 14:45:31  5-MIN KAQV 242045Z AUTO VRB03KT 10SM CLR 31/22 A2992 370 60 2300 VRB/03 RMK AO2 T03060222
03949KAQV AQV20160724145012107/24/16 14:50:31  5-MIN KAQV 242050Z AUTO VRB05KT 10SM CLR 30/23 A2992 370 65 2200 VRB/05 RMK AO2 SLP129 T03000228 58008
03949KAQV AQV20160724145512107/24/16 14:55:31  5-MIN KAQV 242055Z AUTO VRB05KT 10SM CLR 30/23 A2992 370 65 2200 VRB/05 RMK AO2 SLP129 T03000228 58008
03949KAQV AQV20160724150010807/24/16 15:00:31  5-MIN KAQV 242100Z AUTO VRB03KT 10SM CLR 30/23 A2992 380 65 2200 VRB/03 RMK AO2 T03000228
03949KAQV AQV20160724150510807/24/16 15:05:31  5-MIN KAQV 242105Z AUTO VRB04KT 10SM CLR 31/23 A2992 380 62 2300 VRB/04 RMK AO2 T03060228
03949KAQV AQV20160724151010807/24/16 15:10:31  5-MIN KAQV 242110Z AUTO VRB04KT 10SM CLR 31/22 A2992 380 60 2300 VRB/04 RMK AO2 T03060222
03949KAQV AQV20160724151510807/24/16 15:15:31  5-MIN KAQV 242115Z AUTO VRB05KT 10SM CLR 31/22 A2992 370 60 2300 VRB/05 RMK AO2 T03060222
03949KAQV AQV20160724152010807/24/16 15:20:31  5-MIN KAQV 242120Z AUTO VRB04KT 10SM CLR 31/22 A2993 370 58 2300 VRB/04 RMK AO2 T03110222
03949KAQV AQV20160724152510807/24/16 15:25:31  5-MIN KAQV 242125Z AUTO VRB04KT 10SM CLR 31/22 A2993 370 58 2300 VRB/04 RMK AO2 T03110222
03949KAQV AQV20160724153010807/24/16 15:30:31  5-MIN KAQV 242130Z AUTO VRB03KT 10SM CLR 31/23 A2993 360 60 2300 VRB/03 RMK AO2 T03110228
03949KAQV AQV20160724153510807/24/16 15:35:31  5-MIN KAQV 242135Z AUTO VRB04KT 10SM CLR 31/22 A2993 370 60 2300 VRB/04 RMK AO2 T03060222
03949KAQV AQV20160724154010807/24/16 15:40:31  5-MIN KAQV 242140Z AUTO VRB04KT 10SM CLR 31/22 A2993 370 60 2300 VRB/04 RMK AO2 T03060222
03949KAQV AQV20160724154510807/24/16 15:45:31  5-MIN KAQV 242145Z AUTO 07005KT 10SM CLR 31/22 A2994 360 60 2300 070/05 RMK AO2 T03060222
03949KAQV AQV20160724155011807/24/16 15:50:31  5-MIN KAQV 242150Z AUTO VRB04KT 10SM FEW060 31/22 A2994 360 60 2300 VRB/04 RMK AO2 SLP135 T03060222
03949KAQV AQV20160724155511807/24/16 15:55:31  5-MIN KAQV 242155Z AUTO VRB04KT 10SM FEW060 30/22 A2994 360 62 2200 VRB/04 RMK AO2 SLP135 T03000222
03949KAQV AQV20160724160011107/24/16 16:00:31  5-MIN KAQV 242200Z AUTO VRB03KT 10SM FEW060 27/23 A2994 360 76 1900 VRB/03 RMK AO2 T02720228
03949KAQV AQV20160724160511107/24/16 16:05:31  5-MIN KAQV 242205Z AUTO VRB05KT 10SM SCT060 29/22 A2994 360 64 2100 VRB/05 RMK AO2 T02940222
03949KAQV AQV20160724161011107/24/16 16:10:31  5-MIN KAQV 242210Z AUTO VRB04KT 10SM SCT060 30/23 A2994 360 65 2200 VRB/04 RMK AO2 T03000228
03949KAQV AQV20160724161511107/24/16 16:15:31  5-MIN KAQV 242215Z AUTO VRB05KT 10SM FEW060 29/23 A2994 360 67 2100 VRB/05 RMK AO2 T02940228
03949KAQV AQV20160724162011107/24/16 16:20:31  5-MIN KAQV 242220Z AUTO 13005KT 10SM FEW060 29/23 A2994 360 67 2100 130/05 RMK AO2 T02940228
03949KAQV AQV20160724162511107/24/16 16:25:31  5-MIN KAQV 242225Z AUTO VRB03KT 10SM FEW060 29/23 A2994 360 69 2100 VRB/03 RMK AO2 T02890228
03949KAQV AQV20160724163011107/24/16 16:30:31  5-MIN KAQV 242230Z AUTO VRB04KT 10SM FEW060 29/23 A2994 360 67 2100 VRB/04 RMK AO2 T02940228
03949KAQV AQV20160724163510807/24/16 16:35:31  5-MIN KAQV 242235Z AUTO 00000KT 10SM CLR 29/23 A2993 370 67 2100 000/00 RMK AO2 T02940228
03949KAQV AQV20160724164010807/24/16 16:40:31  5-MIN KAQV 242240Z AUTO VRB06KT 10SM CLR 29/23 A2993 370 67 2100 VRB/06 RMK AO2 T02940228
03949KAQV AQV20160724164510807/24/16 16:45:31  5-MIN KAQV 242245Z AUTO VRB04KT 10SM CLR 29/22 A2993 370 64 2100 VRB/04 RMK AO2 T02940222
03949KAQV AQV20160724165011507/24/16 16:50:31  5-MIN KAQV 242250Z AUTO 00000KT 10SM CLR 29/23 A2993 370 67 2100 000/00 RMK AO2 SLP132 T02940228
03949KAQV AQV20160724165511507/24/16 16:55:31  5-MIN KAQV 242255Z AUTO VRB05KT 10SM CLR 27/23 A2993 370 76 1900 VRB/05 RMK AO2 SLP130 T02720228
03949KAQV AQV20160724170010807/24/16 17:00:31  5-MIN KAQV 242300Z AUTO VRB03KT 10SM CLR 28/23 A2993 370 74 2000 VRB/03 RMK AO2 T02780228
03949KAQV AQV20160724170510807/24/16 17:05:31  5-MIN KAQV 242305Z AUTO VRB03KT 10SM CLR 29/23 A2993 370 69 2100 VRB/03 RMK AO2 T02890228
03949KAQV AQV20160724171009807/24/16 17:10:31  5-MIN KAQV 242310Z AUTO 10SM CLR 29/23 A2993 370 69 2100 M /M RMK AO2 T02890228
03949KAQV AQV20160724171510807/24/16 17:15:31  5-MIN KAQV 242315Z AUTO VRB04KT 10SM CLR 29/23 A2994 360 69 2100 VRB/04 RMK AO2 T02890228
03949KAQV AQV20160724172010807/24/16 17:20:31  5-MIN KAQV 242320Z AUTO 00000KT 10SM CLR 29/23 A2994 360 69 2100 000/00 RMK AO2 T02890228
03949KAQV AQV20160724172510807/24/16 17:25:31  5-MIN KAQV 242325Z AUTO 08004KT 10SM CLR 29/23 A2994 360 69 2100 080/04 RMK AO2 T02890228
03949KAQV AQV20160724173010807/24/16 17:30:31  5-MIN KAQV 242330Z AUTO VRB03KT 10SM CLR 29/23 A2994 360 69 2100 VRB/03 RMK AO2 T02890228
03949KAQV AQV20160724173510807/24/16 17:35:31  5-MIN KAQV 242335Z AUTO 00000KT 10SM CLR 28/23 A2994 360 71 2000 000/00 RMK AO2 T02830228
03949KAQV AQV20160724174010807/24/16 17:40:31  5-MIN KAQV 242340Z AUTO VRB03KT 10SM CLR 28/23 A2994 360 71 2000 VRB/03 RMK AO2 T02830228
03949KAQV AQV20160724174510807/24/16 17:45:31  5-MIN KAQV 242345Z AUTO VRB04KT 10SM CLR 28/23 A2994 360 71 2000 VRB/04 RMK AO2 T02830228
03949KAQV AQV20160724175013307/24/16 17:50:31  5-MIN KAQV 242350Z AUTO VRB03KT 10SM CLR 28/22 A2993 360 69 2000 VRB/03 RMK AO2 SLP133 T02830222 10356 20261 56015
03949KAQV AQV20160724175513307/24/16 17:55:31  5-MIN KAQV 242355Z AUTO 00000KT 10SM CLR 28/22 A2994 360 71 2000 000/00 RMK AO2 SLP134 T02780222 10356 20261 56015
03949KAQV AQV20160724180010807/24/16 18:00:31  5-MIN KAQV 250000Z AUTO 00000KT 10SM CLR 28/23 A2994 360 74 2000 000/00 RMK AO2 T02780228
03949KAQV AQV20160724180510807/24/16 18:05:31  5-MIN KAQV 250005Z AUTO 07003KT 10SM CLR 24/23 A2994 360 90 1600 070/03 RMK AO2 T02440228
03949KAQV AQV20160724181010807/24/16 18:10:31  5-MIN KAQV 250010Z AUTO 00000KT 10SM CLR 25/22 A2995 350 84 1600 000/00 RMK AO2 T02500222
03949KAQV AQV20160724181510807/24/16 18:15:31  5-MIN KAQV 250015Z AUTO 07003KT 10SM CLR 28/22 A2995 350 71 1900 070/03 RMK AO2 T02780222
03949KAQV AQV20160724182010807/24/16 18:20:31  5-MIN KAQV 250020Z AUTO 07003KT 10SM CLR 28/22 A2995 350 71 1900 070/03 RMK AO2 T02780222
03949KAQV AQV20160724182510807/24/16 18:25:31  5-MIN KAQV 250025Z AUTO 05003KT 10SM CLR 28/22 A2995 350 71 1900 040/03 RMK AO2 T02780222
03949KAQV AQV20160724183010807/24/16 18:30:31  5-MIN KAQV 250030Z AUTO 00000KT 10SM CLR 27/22 A2995 350 74 1900 000/00 RMK AO2 T02720222
03949KAQV AQV20160724183510807/24/16 18:35:31  5-MIN KAQV 250035Z AUTO VRB03KT 10SM CLR 27/22 A2995 350 74 1900 VRB/03 RMK AO2 T02720222
03949KAQV AQV20160724184010807/24/16 18:40:31  5-MIN KAQV 250040Z AUTO VRB03KT 10SM CLR 27/22 A2995 350 74 1900 VRB/03 RMK AO2 T02720222
03949KAQV AQV20160724184510807/24/16 18:45:31  5-MIN KAQV 250045Z AUTO 00000KT 10SM CLR 27/22 A2995 350 74 1900 000/00 RMK AO2 T02720222
03949KAQV AQV20160724185011507/24/16 18:50:31  5-MIN KAQV 250050Z AUTO 00000KT 10SM CLR 27/23 A2995 350 76 1900 000/00 RMK AO2 SLP138 T02720228
03949KAQV AQV20160724185511507/24/16 18:55:31  5-MIN KAQV 250055Z AUTO VRB03KT 10SM CLR 27/23 A2995 350 79 1800 VRB/03 RMK AO2 SLP138 T02670228
03949KAQV AQV20160724190010807/24/16 19:00:31  5-MIN KAQV 250100Z AUTO 00000KT 10SM CLR 27/23 A2995 350 79 1800 000/00 RMK AO2 T02670228
03949KAQV AQV20160724190510807/24/16 19:05:31  5-MIN KAQV 250105Z AUTO 00000KT 10SM CLR 27/23 A2995 350 79 1800 000/00 RMK AO2 T02670228
03949KAQV AQV20160724191010807/24/16 19:10:31  5-MIN KAQV 250110Z AUTO 00000KT 10SM CLR 27/23 A2996 340 79 1800 000/00 RMK AO2 T02670228
03949KAQV AQV20160724191510807/24/16 19:15:31  5-MIN KAQV 250115Z AUTO 00000KT 10SM CLR 27/23 A2996 340 79 1800 000/00 RMK AO2 T02670228
03949KAQV AQV20160724192010807/24/16 19:20:31  5-MIN KAQV 250120Z AUTO 00000KT 10SM CLR 26/23 A2996 340 81 1700 000/00 RMK AO2 T02610228
03949KAQV AQV20160724192510807/24/16 19:25:31  5-MIN KAQV 250125Z AUTO 00000KT 10SM CLR 26/23 A2996 340 81 1700 000/00 RMK AO2 T02610228
03949KAQV AQV20160724193010807/24/16 19:30:31  5-MIN KAQV 250130Z AUTO 00000KT 10SM CLR 26/23 A2996 340 81 1700 000/00 RMK AO2 T02610228
03949KAQV AQV20160724193510807/24/16 19:35:31  5-MIN KAQV 250135Z AUTO 00000KT 10SM CLR 26/23 A2996 340 81 1700 000/00 RMK AO2 T02610228
03949KAQV AQV20160724194010807/24/16 19:40:31  5-MIN KAQV 250140Z AUTO 00000KT 10SM CLR 26/23 A2997 330 84 1700 000/00 RMK AO2 T02560228
03949KAQV AQV20160724194510807/24/16 19:45:31  5-MIN KAQV 250145Z AUTO VRB03KT 10SM CLR 26/23 A2997 330 84 1700 VRB/03 RMK AO2 T02560228
03949KAQV AQV20160724195011507/24/16 19:50:31  5-MIN KAQV 250150Z AUTO 00000KT 10SM CLR 26/23 A2997 330 87 1700 000/00 RMK AO2 SLP146 T02560233
03949KAQV AQV20160724195511507/24/16 19:55:31  5-MIN KAQV 250155Z AUTO 00000KT 10SM CLR 26/23 A2997 330 84 1700 000/00 RMK AO2 SLP146 T02610233
03949KAQV AQV20160724200010807/24/16 20:00:31  5-MIN KAQV 250200Z AUTO 00000KT 10SM CLR 26/23 A2997 330 84 1700 000/00 RMK AO2 T02610233
03949KAQV AQV20160724200510807/24/16 20:05:31  5-MIN KAQV 250205Z AUTO 00000KT 10SM CLR 26/23 A2997 330 87 1700 000/00 RMK AO2 T02560233
03949KAQV AQV20160724201010807/24/16 20:10:31  5-MIN KAQV 250210Z AUTO 00000KT 10SM CLR 26/23 A2997 330 87 1700 000/00 RMK AO2 T02560233
03949KAQV AQV20160724201510807/24/16 20:15:31  5-MIN KAQV 250215Z AUTO 00000KT 10SM CLR 26/23 A2996 340 87 1700 000/00 RMK AO2 T02560233
03949KAQV AQV20160724202010807/24/16 20:20:31  5-MIN KAQV 250220Z AUTO 00000KT 10SM CLR 26/23 A2997 330 87 1700 000/00 RMK AO2 T02560233
03949KAQV AQV20160724202510807/24/16 20:25:31  5-MIN KAQV 250225Z AUTO 00000KT 10SM CLR 25/23 A2997 330 90 1600 000/00 RMK AO2 T02500233
03949KAQV AQV20160724203010807/24/16 20:30:31  5-MIN KAQV 250230Z AUTO 00000KT 10SM CLR 25/23 A2997 330 90 1600 000/00 RMK AO2 T02500233
03949KAQV AQV20160724203510807/24/16 20:35:31  5-MIN KAQV 250235Z AUTO 00000KT 10SM CLR 26/23 A2997 330 87 1700 000/00 RMK AO2 T02560233
03949KAQV AQV20160724204010807/24/16 20:40:31  5-MIN KAQV 250240Z AUTO 00000KT 10SM CLR 26/23 A2997 330 87 1700 000/00 RMK AO2 T02560233
03949KAQV AQV20160724204510807/24/16 20:45:31  5-MIN KAQV 250245Z AUTO 00000KT 10SM CLR 25/23 A2997 330 90 1600 000/00 RMK AO2 T02500233
03949KAQV AQV20160724205012107/24/16 20:50:31  5-MIN KAQV 250250Z AUTO 00000KT 10SM CLR 25/23 A2997 330 90 1600 000/00 RMK AO2 SLP145 T02500233 51005
03949KAQV AQV20160724205512107/24/16 20:55:31  5-MIN KAQV 250255Z AUTO 00000KT 10SM CLR 25/23 A2997 330 90 1600 000/00 RMK AO2 SLP144 T02500233 51005
03949KAQV AQV20160724210010807/24/16 21:00:31  5-MIN KAQV 250300Z AUTO 00000KT 10SM CLR 25/23 A2997 330 90 1600 000/00 RMK AO2 T02500233
03949KAQV AQV20160724210510807/24/16 21:05:31  5-MIN KAQV 250305Z AUTO 00000KT 10SM CLR 25/23 A2997 330 90 1600 000/00 RMK AO2 T02500233
03949KAQV AQV20160724211010807/24/16 21:10:31  5-MIN KAQV 250310Z AUTO 00000KT 10SM CLR 25/23 A2997 330 90 1600 000/00 RMK AO2 T02500233
03949KAQV AQV20160724211510807/24/16 21:15:31  5-MIN KAQV 250315Z AUTO 00000KT 10SM CLR 25/23 A2997 330 90 1600 000/00 RMK AO2 T02500233
03949KAQV AQV20160724212010807/24/16 21:20:31  5-MIN KAQV 250320Z AUTO 00000KT 10SM CLR 25/23 A2997 330 90 1600 000/00 RMK AO2 T02500233
03949KAQV AQV20160724212510807/24/16 21:25:31  5-MIN KAQV 250325Z AUTO 00000KT 10SM CLR 25/23 A2998 320 90 1600 000/00 RMK AO2 T02500233
03949KAQV AQV20160724213010807/24/16 21:30:31  5-MIN KAQV 250330Z AUTO 00000KT 10SM CLR 24/23 A2998 320 93 1500 000/00 RMK AO2 T02440233
03949KAQV AQV20160724213510807/24/16 21:35:31  5-MIN KAQV 250335Z AUTO 00000KT 10SM CLR 25/23 A2998 320 90 1600 000/00 RMK AO2 T02500233
03949KAQV AQV20160724214010807/24/16 21:40:31  5-MIN KAQV 250340Z AUTO 00000KT 10SM CLR 24/23 A2998 320 93 1500 000/00 RMK AO2 T02440233
03949KAQV AQV20160724214510807/24/16 21:45:31  5-MIN KAQV 250345Z AUTO 00000KT 10SM CLR 24/23 A2998 320 93 1500 000/00 RMK AO2 T02440233
03949KAQV AQV20160724215011507/24/16 21:50:31  5-MIN KAQV 250350Z AUTO 00000KT 10SM CLR 24/23 A2998 320 93 1500 000/00 RMK AO2 SLP149 T02440233
03949KAQV AQV20160724215511507/24/16 21:55:31  5-MIN KAQV 250355Z AUTO 00000KT 10SM CLR 24/23 A2998 320 93 1500 000/00 RMK AO2 SLP149 T02440233
03949KAQV AQV20160724220011107/24/16 22:00:31  5-MIN KAQV 250400Z AUTO 00000KT 10SM FEW025 24/23 A2998 320 93 1500 000/00 RMK AO2 T02440233
03949KAQV AQV20160724220511107/24/16 22:05:31  5-MIN KAQV 250405Z AUTO 00000KT 10SM BKN025 24/23 A2998 320 93 1500 000/00 RMK AO2 T02440233
03949KAQV AQV20160724221011107/24/16 22:10:31  5-MIN KAQV 250410Z AUTO 00000KT 10SM BKN025 24/23 A2998 320 93 1500 000/00 RMK AO2 T02440233
03949KAQV AQV20160724221511107/24/16 22:15:31  5-MIN KAQV 250415Z AUTO 00000KT 10SM BKN024 24/23 A2998 320 93 1500 000/00 RMK AO2 T02440233
03949KAQV AQV20160724222011107/24/16 22:20:31  5-MIN KAQV 250420Z AUTO 00000KT 10SM BKN024 24/23 A2998 330 97 1500 000/00 RMK AO2 T02390233
03949KAQV AQV20160724222511107/24/16 22:25:31  5-MIN KAQV 250425Z AUTO 00000KT 10SM SCT025 24/23 A2997 330 93 1500 000/00 RMK AO2 T02390228
03949KAQV AQV20160724223011107/24/16 22:30:31  5-MIN KAQV 250430Z AUTO 00000KT 10SM SCT025 24/23 A2997 330 93 1500 000/00 RMK AO2 T02390228
03949KAQV AQV20160724223511107/24/16 22:35:31  5-MIN KAQV 250435Z AUTO 00000KT 10SM FEW025 24/23 A2997 330 93 1500 000/00 RMK AO2 T02390228
03949KAQV AQV20160724224010807/24/16 22:40:31  5-MIN KAQV 250440Z AUTO 00000KT 10SM CLR 24/23 A2997 330 93 1500 000/00 RMK AO2 T02390228
03949KAQV AQV20160724224510807/24/16 22:45:31  5-MIN KAQV 250445Z AUTO 00000KT 10SM CLR 24/23 A2997 330 93 1500 000/00 RMK AO2 T02390228
03949KAQV AQV20160724225011507/24/16 22:50:31  5-MIN KAQV 250450Z AUTO 00000KT 10SM CLR 24/23 A2997 330 93 1500 000/00 RMK AO2 SLP143 T02390228
03949KAQV AQV20160724225511507/24/16 22:55:31  5-MIN KAQV 250455Z AUTO 00000KT 10SM CLR 24/23 A2996 340 93 1500 000/00 RMK AO2 SLP142 T02390228
03949KAQV AQV20160724230010807/24/16 23:00:31  5-MIN KAQV 250500Z AUTO 00000KT 10SM CLR 24/23 A2996 340 93 1500 000/00 RMK AO2 T02390228
03949KAQV AQV20160724230510807/24/16 23:05:31  5-MIN KAQV 250505Z AUTO 00000KT 10SM CLR 24/23 A2996 340 93 1500 000/00 RMK AO2 T02390228
03949KAQV AQV20160724231010807/24/16 23:10:31  5-MIN KAQV 250510Z AUTO 00000KT 10SM CLR 24/23 A2996 340 93 1500 000/00 RMK AO2 T02390228
03949KAQV AQV20160724231510807/24/16 23:15:31  5-MIN KAQV 250515Z AUTO 16003KT 10SM CLR 23/23 A2995 350 97 1400 160/03 RMK AO2 T02330228
03949KAQV AQV20160724232010807/24/16 23:20:31  5-MIN KAQV 250520Z AUTO 00000KT 10SM CLR 24/23 A2995 350 93 1500 000/00 RMK AO2 T02390228
03949KAQV AQV20160724232510807/24/16 23:25:31  5-MIN KAQV 250525Z AUTO 00000KT 10SM CLR 24/23 A2995 350 93 1500 000/00 RMK AO2 T02390228
03949KAQV AQV20160724233010807/24/16 23:30:31  5-MIN KAQV 250530Z AUTO 00000KT 10SM CLR 24/23 A2995 350 93 1500 000/00 RMK AO2 T02390228
03949KAQV AQV20160724233510807/24/16 23:35:31  5-MIN KAQV 250535Z AUTO 00000KT 10SM CLR 24/23 A2995 350 93 1500 000/00 RMK AO2 T02390228
03949KAQV AQV20160724234010807/24/16 23:40:31  5-MIN KAQV 250540Z AUTO 00000KT 10SM CLR 24/23 A2995 350 93 1500 000/00 RMK AO2 T02390228
03949KAQV AQV20160724234510807/24/16 23:45:31  5-MIN KAQV 250545Z AUTO 00000KT 10SM CLR 23/23 A2994 360 97 1400 000/00 RMK AO2 T02330228
03949KAQV AQV20160724235014307/24/16 23:50:31  5-MIN KAQV 250550Z AUTO 00000KT 10SM CLR 23/23 A2994 360 97 1500 000/00 RMK AO2 SLP134 T02330228 10283 20233 403560233 50010
03949KAQV AQV20160724235514307/24/16 23:55:31  5-MIN KAQV 250555Z AUTO 00000KT 10SM CLR 23/23 A2994 360 97 1500 000/00 RMK AO2 SLP134 T02330228 10283 20233 403560233 50010
03949KAQV AQV20160725000010807/25/16 00:00:31  5-MIN KAQV 250600Z AUTO 00000KT 10SM CLR 24/23 A2994 360 93 1500 000/00 RMK AO2 T02390228
03949KAQV AQV20160725000510807/25/16 00:05:31  5-MIN KAQV 250605Z AUTO 00000KT 10SM CLR 24/23 A2993 360 93 1500 000/00 RMK AO2 T02390228
03949KAQV AQV20160725001010807/25/16 00:10:31  5-MIN KAQV 250610Z AUTO 00000KT 10SM CLR 23/23 A2993 370 97 1500 000/00 RMK AO2 T02330228
03949KAQV AQV20160725001510807/25/16 00:15:31  5-MIN KAQV 250615Z AUTO 00000KT 10SM CLR 23/22 A2993 370 93 1500 000/00 RMK AO2 T02330222
03949KAQV AQV20160725002010807/25/16 00:20:31  5-MIN KAQV 250620Z AUTO 00000KT 10SM CLR 23/22 A2993 370 93 1500 000/00 RMK AO2 T02330222
03949KAQV AQV20160725002510807/25/16 00:25:31  5-MIN KAQV 250625Z AUTO 00000KT 10SM CLR 23/22 A2993 360 93 1500 000/00 RMK AO2 T02330222
03949KAQV AQV20160725003010807/25/16 00:30:31  5-MIN KAQV 250630Z AUTO 00000KT 10SM CLR 23/23 A2994 360 97 1500 000/00 RMK AO2 T02330228
03949KAQV AQV20160725003510807/25/16 00:35:31  5-MIN KAQV 250635Z AUTO 00000KT 10SM CLR 23/23 A2994 360 97 1400 000/00 RMK AO2 T02330228
03949KAQV AQV20160725004010807/25/16 00:40:31  5-MIN KAQV 250640Z AUTO 00000KT 10SM CLR 23/23 A2994 360 97 1400 000/00 RMK AO2 T02330228
03949KAQV AQV20160725004510807/25/16 00:45:31  5-MIN KAQV 250645Z AUTO 00000KT 10SM CLR 23/22 A2994 360 93 1500 000/00 RMK AO2 T02330222
03949KAQV AQV20160725005011507/25/16 00:50:31  5-MIN KAQV 250650Z AUTO 00000KT 10SM CLR 23/22 A2994 360 93 1500 000/00 RMK AO2 SLP132 T02330222
03949KAQV AQV20160725005511507/25/16 00:55:31  5-MIN KAQV 250655Z AUTO 00000KT 10SM CLR 23/22 A2994 360 93 1500 000/00 RMK AO2 SLP132 T02330222
03949KAQV AQV20160725010010807/25/16 01:00:31  5-MIN KAQV 250700Z AUTO 00000KT 10SM CLR 24/23 A2994 360 93 1500 000/00 RMK AO2 T02390228
03949KAQV AQV20160725010510807/25/16 01:05:31  5-MIN KAQV 250705Z AUTO 00000KT 10SM CLR 24/23 A2994 360 93 1500 000/00 RMK AO2 T02390228
03949KAQV AQV20160725011010807/25/16 01:10:31  5-MIN KAQV 250710Z AUTO 00000KT 10SM CLR 23/23 A2994 360 97 1400 000/00 RMK AO2 T02330228
03949KAQV AQV20160725011510807/25/16 01:15:31  5-MIN KAQV 250715Z AUTO 00000KT 10SM CLR 23/22 A2994 360 93 1500 000/00 RMK AO2 T02330222
03949KAQV AQV20160725012010807/25/16 01:20:31  5-MIN KAQV 250720Z AUTO 00000KT 10SM CLR 23/22 A2994 360 93 1400 000/00 RMK AO2 T02330222
03949KAQV AQV20160725012510707/25/16 01:25:31  5-MIN KAQV 250725Z AUTO 00000KT 9SM CLR 23/23 A2994 360 97 1400 000/00 RMK AO2 T02330228
03949KAQV AQV20160725013010807/25/16 01:30:31  5-MIN KAQV 250730Z AUTO 00000KT 10SM CLR 23/22 A2994 360 93 1400 000/00 RMK AO2 T02330222
03949KAQV AQV20160725013510807/25/16 01:35:31  5-MIN KAQV 250735Z AUTO 00000KT 10SM CLR 23/22 A2994 360 93 1400 000/00 RMK AO2 T02330222
03949KAQV AQV20160725014010807/25/16 01:40:31  5-MIN KAQV 250740Z AUTO 00000KT 10SM CLR 23/22 A2995 350 93 1400 000/00 RMK AO2 T02330222
03949KAQV AQV20160725014510807/25/16 01:45:31  5-MIN KAQV 250745Z AUTO 00000KT 10SM CLR 23/22 A2994 350 93 1400 000/00 RMK AO2 T02330222
03949KAQV AQV20160725015011507/25/16 01:50:31  5-MIN KAQV 250750Z AUTO 00000KT 10SM CLR 23/22 A2995 350 93 1400 000/00 RMK AO2 SLP136 T02330222
03949KAQV AQV20160725015511507/25/16 01:55:31  5-MIN KAQV 250755Z AUTO 00000KT 10SM CLR 23/22 A2995 350 93 1400 000/00 RMK AO2 SLP136 T02330222
03949KAQV AQV20160725020010807/25/16 02:00:31  5-MIN KAQV 250800Z AUTO 00000KT 10SM CLR 23/22 A2994 350 93 1400 000/00 RMK AO2 T02330222
03949KAQV AQV20160725020510807/25/16 02:05:31  5-MIN KAQV 250805Z AUTO 00000KT 10SM CLR 23/22 A2994 360 93 1400 000/00 RMK AO2 T02330222
03949KAQV AQV20160725021010807/25/16 02:10:31  5-MIN KAQV 250810Z AUTO 00000KT 10SM CLR 23/22 A2995 350 93 1400 000/00 RMK AO2 T02330222
03949KAQV AQV20160725021510807/25/16 02:15:31  5-MIN KAQV 250815Z AUTO 00000KT 10SM CLR 23/22 A2994 360 93 1400 000/00 RMK AO2 T02330222
03949KAQV AQV20160725022010807/25/16 02:20:31  5-MIN KAQV 250820Z AUTO 00000KT 10SM CLR 23/22 A2994 360 93 1400 000/00 RMK AO2 T02330222
03949KAQV AQV20160725022510807/25/16 02:25:31  5-MIN KAQV 250825Z AUTO 00000KT 10SM CLR 23/22 A2994 360 93 1400 000/00 RMK AO2 T02330222
03949KAQV AQV20160725023010807/25/16 02:30:31  5-MIN KAQV 250830Z AUTO 00000KT 10SM CLR 23/22 A2994 360 93 1500 000/00 RMK AO2 T02330222
03949KAQV AQV20160725023510807/25/16 02:35:31  5-MIN KAQV 250835Z AUTO 00000KT 10SM CLR 23/22 A2993 370 93 1500 000/00 RMK AO2 T02330222
03949KAQV AQV20160725024010707/25/16 02:40:31  5-MIN KAQV 250840Z AUTO 00000KT 9SM CLR 23/22 A2993 370 93 1500 000/00 RMK AO2 T02330222
03949KAQV AQV20160725024510807/25/16 02:45:31  5-MIN KAQV 250845Z AUTO 00000KT 10SM CLR 23/22 A2993 360 93 1500 000/00 RMK AO2 T02330222
03949KAQV AQV20160725025012107/25/16 02:50:31  5-MIN KAQV 250850Z AUTO 00000KT 10SM CLR 23/22 A2993 360 93 1500 000/00 RMK AO2 SLP133 T02330222 58010
03949KAQV AQV20160725025512107/25/16 02:55:31  5-MIN KAQV 250855Z AUTO 00000KT 10SM CLR 23/22 A2994 360 93 1500 000/00 RMK AO2 SLP133 T02330222 58010
03949KAQV AQV20160725030010807/25/16 03:00:31  5-MIN KAQV 250900Z AUTO 00000KT 10SM CLR 23/22 A2994 360 93 1400 000/00 RMK AO2 T02330222
03949KAQV AQV20160725030510807/25/16 03:05:31  5-MIN KAQV 250905Z AUTO 00000KT 10SM CLR 23/22 A2994 360 93 1400 000/00 RMK AO2 T02330222
03949KAQV AQV20160725031010807/25/16 03:10:31  5-MIN KAQV 250910Z AUTO 00000KT 10SM CLR 23/22 A2994 350 93 1400 000/00 RMK AO2 T02330222
03949KAQV AQV20160725031510807/25/16 03:15:31  5-MIN KAQV 250915Z AUTO 04003KT 10SM CLR 23/22 A2994 360 93 1400 040/03 RMK AO2 T02330222
03949KAQV AQV20160725032010807/25/16 03:20:31  5-MIN KAQV 250920Z AUTO 00000KT 10SM CLR 23/22 A2994 360 93 1400 000/00 RMK AO2 T02330222
03949KAQV AQV20160725032510807/25/16 03:25:31  5-MIN KAQV 250925Z AUTO 00000KT 10SM CLR 24/22 A2994 360 90 1500 000/00 RMK AO2 T02390222
03949KAQV AQV20160725033010807/25/16 03:30:31  5-MIN KAQV 250930Z AUTO 00000KT 10SM CLR 24/22 A2994 350 90 1500 000/00 RMK AO2 T02390222
03949KAQV AQV20160725033510807/25/16 03:35:31  5-MIN KAQV 250935Z AUTO 00000KT 10SM CLR 23/22 A2995 350 93 1400 000/00 RMK AO2 T02330222
03949KAQV AQV20160725034010807/25/16 03:40:31  5-MIN KAQV 250940Z AUTO 00000KT 10SM CLR 23/22 A2994 350 93 1400 000/00 RMK AO2 T02330222
03949KAQV AQV20160725034510807/25/16 03:45:31  5-MIN KAQV 250945Z AUTO 00000KT 10SM CLR 23/22 A2994 360 93 1400 000/00 RMK AO2 T02330222
03949KAQV AQV20160725035011507/25/16 03:50:31  5-MIN KAQV 250950Z AUTO 00000KT 10SM CLR 24/22 A2994 350 90 1500 000/00 RMK AO2 SLP136 T02390222
03949KAQV AQV20160725035511507/25/16 03:55:31  5-MIN KAQV 250955Z AUTO 00000KT 10SM CLR 24/22 A2995 350 90 1500 000/00 RMK AO2 SLP137 T02390222
03949KAQV AQV20160725040010807/25/16 04:00:31  5-MIN KAQV 251000Z AUTO 00000KT 10SM CLR 24/22 A2995 350 90 1500 000/00 RMK AO2 T02390222
03949KAQV AQV20160725040510807/25/16 04:05:31  5-MIN KAQV 251005Z AUTO 00000KT 10SM CLR 24/22 A2995 350 90 1500 000/00 RMK AO2 T02390222
03949KAQV AQV20160725041010807/25/16 04:10:31  5-MIN KAQV 251010Z AUTO 00000KT 10SM CLR 24/22 A2996 340 90 1500 000/00 RMK AO2 T02390222
03949KAQV AQV20160725041510807/25/16 04:15:31  5-MIN KAQV 251015Z AUTO 00000KT 10SM CLR 24/22 A2996 340 90 1500 000/00 RMK AO2 T02390222
03949KAQV AQV20160725042010807/25/16 04:20:31  5-MIN KAQV 251020Z AUTO 00000KT 10SM CLR 24/22 A2996 340 90 1500 000/00 RMK AO2 T02390222
03949KAQV AQV20160725042510807/25/16 04:25:31  5-MIN KAQV 251025Z AUTO 00000KT 10SM CLR 24/22 A2996 340 90 1500 000/00 RMK AO2 T02390222
03949KAQV AQV20160725043010807/25/16 04:30:31  5-MIN KAQV 251030Z AUTO 00000KT 10SM CLR 24/22 A2996 340 90 1500 000/00 RMK AO2 T02390222
03949KAQV AQV20160725043510807/25/16 04:35:31  5-MIN KAQV 251035Z AUTO 00000KT 10SM CLR 24/22 A2996 340 90 1500 000/00 RMK AO2 T02390222
03949KAQV AQV20160725044010807/25/16 04:40:31  5-MIN KAQV 251040Z AUTO 00000KT 10SM CLR 24/22 A2996 340 90 1500 000/00 RMK AO2 T02390222
03949KAQV AQV20160725044510807/25/16 04:45:31  5-MIN KAQV 251045Z AUTO 00000KT 10SM CLR 24/22 A2997 330 90 1500 000/00 RMK AO2 T02390222
03949KAQV AQV20160725045011507/25/16 04:50:31  5-MIN KAQV 251050Z AUTO 00000KT 10SM CLR 24/22 A2997 330 90 1500 000/00 RMK AO2 SLP144 T02390222
03949KAQV AQV20160725045511407/25/16 04:55:31  5-MIN KAQV 251055Z AUTO 00000KT 9SM CLR 24/22 A2997 330 90 1500 000/00 RMK AO2 SLP144 T02390222
03949KAQV AQV20160725050010807/25/16 05:00:31  5-MIN KAQV 251100Z AUTO 00000KT 10SM CLR 23/23 A2997 330 97 1400 000/00 RMK AO2 T02330228
03949KAQV AQV20160725050510807/25/16 05:05:31  5-MIN KAQV 251105Z AUTO 00000KT 10SM CLR 24/23 A2997 330 93 1500 000/00 RMK AO2 T02390228
03949KAQV AQV20160725051010807/25/16 05:10:31  5-MIN KAQV 251110Z AUTO 00000KT 10SM CLR 23/23 A2997 330 97 1400 000/00 RMK AO2 T02330228
03949KAQV AQV20160725051510807/25/16 05:15:31  5-MIN KAQV 251115Z AUTO 00000KT 10SM CLR 23/23 A2997 330 97 1400 000/00 RMK AO2 T02330228
03949KAQV AQV20160725052010707/25/16 05:20:31  5-MIN KAQV 251120Z AUTO 00000KT 9SM CLR 23/22 A2997 330 93 1400 000/00 RMK AO2 T02330222
03949KAQV AQV20160725052510707/25/16 05:25:31  5-MIN KAQV 251125Z AUTO 00000KT 9SM CLR 23/23 A2997 330 97 1400 000/00 RMK AO2 T02330228
03949KAQV AQV20160725053010707/25/16 05:30:31  5-MIN KAQV 251130Z AUTO 00000KT 9SM CLR 23/23 A2997 330 97 1400 000/00 RMK AO2 T02330228
03949KAQV AQV20160725053510707/25/16 05:35:31  5-MIN KAQV 251135Z AUTO 00000KT 8SM CLR 23/23 A2998 320 97 1400 000/00 RMK AO2 T02330228
03949KAQV AQV20160725054010707/25/16 05:40:31  5-MIN KAQV 251140Z AUTO 00000KT 8SM CLR 24/23 A2998 320 93 1500 000/00 RMK AO2 T02390228
03949KAQV AQV20160725054510707/25/16 05:45:31  5-MIN KAQV 251145Z AUTO 00000KT 9SM CLR 24/22 A2998 320 90 1500 000/00 RMK AO2 T02390222
03949KAQV AQV20160725055013307/25/16 05:50:31  5-MIN KAQV 251150Z AUTO 00000KT 10SM CLR 24/22 A2998 320 90 1500 000/00 RMK AO2 SLP149 T02390222 10239 20233 58001
03949KAQV AQV20160725055515507/25/16 05:55:31  5-MIN KAQV 251155Z AUTO 00000KT 10SM -RA CLR 24/22 A2998 320 90 1500 000/00 RMK AO2 RAB54 SLP149 P0000 60000 T02390222 10239 20233 58001
03949KAQV AQV20160725060011807/25/16 06:00:31  5-MIN KAQV 251200Z AUTO 00000KT 10SM -RA CLR 24/22 A2998 320 90 1500 000/00 RMK AO2 P0000 T02390222
03949KAQV AQV20160725060511807/25/16 06:05:31  5-MIN KAQV 251205Z AUTO 00000KT 10SM -RA CLR 24/23 A2998 320 93 1500 000/00 RMK AO2 P0000 T02390228
03949KAQV AQV20160725061012007/25/16 06:10:31  5-MIN KAQV 251210Z AUTO 00000KT 10SM CLR 24/22 A2998 320 90 1500 000/00 RMK AO2 RAE07 P0000 T02390222
03949KAQV AQV20160725061512007/25/16 06:15:31  5-MIN KAQV 251215Z AUTO 00000KT 10SM CLR 24/22 A2998 320 90 1500 000/00 RMK AO2 RAE07 P0000 T02390222
03949KAQV AQV20160725062012007/25/16 06:20:31  5-MIN KAQV 251220Z AUTO 00000KT 10SM CLR 24/22 A2998 320 90 1500 000/00 RMK AO2 RAE07 P0000 T02390222
03949KAQV AQV20160725062512007/25/16 06:25:31  5-MIN KAQV 251225Z AUTO 00000KT 10SM CLR 24/23 A2998 320 93 1500 000/00 RMK AO2 RAE07 P0000 T02390228
03949KAQV AQV20160725063012007/25/16 06:30:31  5-MIN KAQV 251230Z AUTO 00000KT 10SM CLR 24/23 A2998 320 93 1500 000/00 RMK AO2 RAE07 P0000 T02390228
03949KAQV AQV20160725063512007/25/16 06:35:31  5-MIN KAQV 251235Z AUTO 00000KT 10SM CLR 24/23 A2999 320 93 1500 000/00 RMK AO2 RAE07 P0000 T02390228
03949KAQV AQV20160725064012007/25/16 06:40:31  5-MIN KAQV 251240Z AUTO 00000KT 10SM CLR 24/23 A2999 310 90 1500 000/00 RMK AO2 RAE07 P0000 T02440228
03949KAQV AQV20160725064512007/25/16 06:45:31  5-MIN KAQV 251245Z AUTO 00000KT 10SM CLR 24/23 A2999 310 90 1500 000/00 RMK AO2 RAE07 P0000 T02440228
03949KAQV AQV20160725065012707/25/16 06:50:31  5-MIN KAQV 251250Z AUTO 00000KT 10SM CLR 24/23 A2999 310 90 1500 000/00 RMK AO2 RAE07 SLP151 P0000 T02440228
03949KAQV AQV20160725065512707/25/16 06:55:31  5-MIN KAQV 251255Z AUTO 00000KT 10SM CLR 24/23 A2999 310 90 1500 000/00 RMK AO2 RAE07 SLP152 P0000 T02440228
03949KAQV AQV20160725070011107/25/16 07:00:31  5-MIN KAQV 251300Z AUTO 00000KT 10SM FEW037 24/23 A2999 310 90 1500 000/00 RMK AO2 T02440228
03949KAQV AQV20160725070511107/25/16 07:05:31  5-MIN KAQV 251305Z AUTO 00000KT 10SM SCT037 24/23 A2999 310 90 1500 000/00 RMK AO2 T02440228
03949KAQV AQV20160725071011107/25/16 07:10:31  5-MIN KAQV 251310Z AUTO 00000KT 10SM SCT037 25/23 A2999 310 87 1600 000/00 RMK AO2 T02500228
03949KAQV AQV20160725071511107/25/16 07:15:31  5-MIN KAQV 251315Z AUTO 07003KT 10SM SCT035 24/23 A2999 310 90 1500 070/03 RMK AO2 T02440228
03949KAQV AQV20160725072011107/25/16 07:20:31  5-MIN KAQV 251320Z AUTO 00000KT 10SM BKN035 25/23 A3000 310 87 1600 000/00 RMK AO2 T02500228
03949KAQV AQV20160725072511107/25/16 07:25:31  5-MIN KAQV 251325Z AUTO 00000KT 10SM BKN035 25/23 A2999 310 87 1600 000/00 RMK AO2 T02500228
03949KAQV AQV20160725073011107/25/16 07:30:31  5-MIN KAQV 251330Z AUTO 00000KT 10SM BKN037 25/23 A2999 310 87 1600 000/00 RMK AO2 T02500228
03949KAQV AQV20160725073511107/25/16 07:35:31  5-MIN KAQV 251335Z AUTO 00000KT 10SM SCT037 25/23 A2999 310 87 1600 000/00 RMK AO2 T02500228
03949KAQV AQV20160725074011107/25/16 07:40:31  5-MIN KAQV 251340Z AUTO 00000KT 10SM SCT037 25/23 A2999 310 87 1600 000/00 RMK AO2 T02500228
03949KAQV AQV20160725074511107/25/16 07:45:31  5-MIN KAQV 251345Z AUTO 00000KT 10SM SCT036 25/23 A2999 310 87 1600 000/00 RMK AO2 T02500228
03949KAQV AQV20160725075011807/25/16 07:50:31  5-MIN KAQV 251350Z AUTO 00000KT 10SM SCT036 25/23 A2999 310 87 1600 000/00 RMK AO2 SLP153 T02500228
03949KAQV AQV20160725075511807/25/16 07:55:31  5-MIN KAQV 251355Z AUTO 00000KT 10SM SCT036 26/23 A3000 310 84 1600 000/00 RMK AO2 SLP154 T02560228
03949KAQV AQV20160725080011107/25/16 08:00:31  5-MIN KAQV 251400Z AUTO 00000KT 10SM BKN035 25/23 A3000 310 87 1600 000/00 RMK AO2 T02500228
03949KAQV AQV20160725080511107/25/16 08:05:31  5-MIN KAQV 251405Z AUTO 00000KT 10SM BKN035 26/23 A3000 310 84 1600 000/00 RMK AO2 T02560228
03949KAQV AQV20160725081011807/25/16 08:10:31  5-MIN KAQV 251410Z AUTO 00000KT 10SM BKN035 OVC043 26/23 A3000 310 84 1600 000/00 RMK AO2 T02560228
03949KAQV AQV20160725081511807/25/16 08:15:31  5-MIN KAQV 251415Z AUTO 00000KT 10SM BKN035 BKN043 26/23 A2999 310 84 1600 000/00 RMK AO2 T02560228
03949KAQV AQV20160725082011107/25/16 08:20:31  5-MIN KAQV 251420Z AUTO 00000KT 10SM BKN037 26/23 A2999 310 81 1700 000/00 RMK AO2 T02610228
03949KAQV AQV20160725082511807/25/16 08:25:31  5-MIN KAQV 251425Z AUTO 00000KT 10SM SCT037 BKN045 26/23 A2999 310 81 1700 000/00 RMK AO2 T02610228
03949KAQV AQV20160725083011807/25/16 08:30:31  5-MIN KAQV 251430Z AUTO 00000KT 10SM SCT037 SCT045 26/23 A2999 310 81 1700 000/00 RMK AO2 T02610228
03949KAQV AQV20160725083511807/25/16 08:35:31  5-MIN KAQV 251435Z AUTO 00000KT 10SM FEW037 FEW045 27/23 A2999 310 82 1800 000/00 RMK AO2 T02670233
03949KAQV AQV20160725084011107/25/16 08:40:31  5-MIN KAQV 251440Z AUTO 00000KT 10SM FEW041 26/23 A2999 310 81 1700 000/00 RMK AO2 T02610228
03949KAQV AQV20160725084510807/25/16 08:45:31  5-MIN KAQV 251445Z AUTO 00000KT 10SM CLR 27/23 A2999 310 79 1800 000/00 RMK AO2 T02670228
03949KAQV AQV20160725085012707/25/16 08:50:31  5-MIN KAQV 251450Z AUTO 00000KT 10SM CLR 27/23 A2999 320 76 1800 000/00 RMK AO2 SLP151 60000 T02720228 53015
03949KAQV AQV20160725085512707/25/16 08:55:31  5-MIN KAQV 251455Z AUTO 00000KT 10SM CLR 27/23 A2999 320 79 1800 000/00 RMK AO2 SLP150 60000 T02720233 53015
03949KAQV AQV20160725090010807/25/16 09:00:31  5-MIN KAQV 251500Z AUTO 00000KT 10SM CLR 27/23 A2998 320 79 1800 000/00 RMK AO2 T02720233
03949KAQV AQV20160725090510807/25/16 09:05:31  5-MIN KAQV 251505Z AUTO 00000KT 10SM CLR 28/23 A2999 320 76 1900 000/00 RMK AO2 T02780233
03949KAQV AQV20160725091010807/25/16 09:10:31  5-MIN KAQV 251510Z AUTO 00000KT 10SM CLR 28/23 A2999 320 76 1900 000/00 RMK AO2 T02780233
03949KAQV AQV20160725091510807/25/16 09:15:31  5-MIN KAQV 251515Z AUTO 00000KT 10SM CLR 28/23 A2999 320 74 2000 000/00 RMK AO2 T02830233
03949KAQV AQV20160725092010807/25/16 09:20:31  5-MIN KAQV 251520Z AUTO 00000KT 10SM CLR 29/24 A2998 320 74 2000 000/00 RMK AO2 T02890239
03949KAQV AQV20160725092510807/25/16 09:25:31  5-MIN KAQV 251525Z AUTO 00000KT 10SM CLR 29/24 A2998 320 74 2000 000/00 RMK AO2 T02890239
03949KAQV AQV20160725093010807/25/16 09:30:31  5-MIN KAQV 251530Z AUTO 00000KT 10SM CLR 29/24 A2998 320 71 2100 000/00 RMK AO2 T02940239
03949KAQV AQV20160725093510807/25/16 09:35:31  5-MIN KAQV 251535Z AUTO 00000KT 10SM CLR 30/24 A2998 320 72 2200 000/00 RMK AO2 T03000244
03949KAQV AQV20160725094011807/25/16 09:40:31  5-MIN KAQV 251540Z AUTO VRB03KT 10SM FEW019 FEW038 31/24 A2998 320 67 2200 VRB/03 RMK AO2 T03060239
03949KAQV AQV20160725094511807/25/16 09:45:31  5-MIN KAQV 251545Z AUTO 03003KT 10SM FEW019 SCT038 31/24 A2998 320 69 2200 020/03 RMK AO2 T03060244
03949KAQV AQV20160725095012507/25/16 09:50:31  5-MIN KAQV 251550Z AUTO VRB05KT 10SM FEW019 FEW038 31/24 A2998 320 65 2300 VRB/05 RMK AO2 SLP148 T03110239
03949KAQV AQV20160725095511807/25/16 09:55:31  5-MIN KAQV 251555Z AUTO 36004KT 10SM FEW021 31/24 A2998 320 65 2300 360/04 RMK AO2 SLP148 T03110239
03949KAQV AQV20160725100011807/25/16 10:00:31  5-MIN KAQV 251600Z AUTO 36005KT 10SM FEW021 SCT026 31/24 A2998 330 67 2300 360/05 RMK AO2 T03110244
03949KAQV AQV20160725100511807/25/16 10:05:31  5-MIN KAQV 251605Z AUTO VRB05KT 10SM FEW021 SCT026 32/24 A2997 330 63 2300 VRB/05 RMK AO2 T03170239
03949KAQV AQV20160725101011107/25/16 10:10:31  5-MIN KAQV 251610Z AUTO 02005KT 10SM FEW023 32/24 A2997 330 63 2300 010/05 RMK AO2 T03170239
03949KAQV AQV20160725101511107/25/16 10:15:31  5-MIN KAQV 251615Z AUTO 01006KT 10SM FEW025 32/24 A2997 330 63 2300 360/06 RMK AO2 T03170239
03949KAQV AQV20160725102011107/25/16 10:20:31  5-MIN KAQV 251620Z AUTO 36006KT 10SM FEW025 32/24 A2997 330 63 2300 360/06 RMK AO2 T03170239
03949KAQV AQV20160725102511107/25/16 10:25:31  5-MIN KAQV 251625Z AUTO VRB05KT 10SM FEW025 32/24 A2997 330 63 2300 VRB/05 RMK AO2 T03170239
03949KAQV AQV20160725103010107/25/16 10:30:31  5-MIN KAQV 251630Z AUTO 10SM FEW027 32/24 A2997 330 63 2300 M /M RMK AO2 T03170239
03949KAQV AQV20160725103510807/25/16 10:35:31  5-MIN KAQV 251635Z AUTO 34006KT 10SM CLR 32/23 A2997 330 59 2400 340/06 RMK AO2 T03220233
03949KAQV AQV20160725104010807/25/16 10:40:31  5-MIN KAQV 251640Z AUTO VRB03KT 10SM CLR 32/24 A2997 330 63 2400 VRB/03 RMK AO2 T03170239
03949KAQV AQV20160725104513407/25/16 10:45:31  5-MIN KAQV 251645Z AUTO 02007KT 340V050 10SM FEW027 FEW043 29/23 A2997 330 69 2100 010/07 340V050 RMK AO2 T02940233
03949KAQV AQV20160725105013207/25/16 10:50:31  5-MIN KAQV 251650Z AUTO 01009KT 10SM FEW027 FEW043 SCT060 31/24 A2997 330 67 2200 010/09 RMK AO2 SLP144 T03060239
03949KAQV AQV20160725105512507/25/16 10:55:31  5-MIN KAQV 251655Z AUTO 01009KT 10SM FEW027 SCT060 31/24 A2996 330 65 2300 360/09 RMK AO2 SLP143 T03110239
03949KAQV AQV20160725110012507/25/16 11:00:31  5-MIN KAQV 251700Z AUTO 01007KT 10SM FEW031 SCT042 BKN055 31/24 A2996 340 65 2300 010/07 RMK AO2 T03110239
03949KAQV AQV20160725110512507/25/16 11:05:31  5-MIN KAQV 251705Z AUTO 03005KT 10SM FEW031 SCT042 BKN055 31/24 A2996 340 67 2200 030/05 RMK AO2 T03060239
03949KAQV AQV20160725111012507/25/16 11:10:31  5-MIN KAQV 251710Z AUTO 04006KT 10SM FEW027 SCT060 BKN090 31/24 A2996 340 65 2300 030/06 RMK AO2 T03110239
03949KAQV AQV20160725111512507/25/16 11:15:31  5-MIN KAQV 251715Z AUTO 02005KT 10SM FEW040 SCT055 BKN090 29/24 A2996 340 74 2100 020/05 RMK AO2 T02940244
03949KAQV AQV20160725112014107/25/16 11:20:31  5-MIN KAQV 251720Z AUTO 04008KT 010V080 10SM FEW033 SCT050 SCT090 30/24 A2996 340 72 2200 040/08 010V080 RMK AO2 T03000244
03949KAQV AQV20160725112511807/25/16 11:25:31  5-MIN KAQV 251725Z AUTO 01009KT 10SM FEW043 FEW090 32/24 A2996 340 61 2400 010/09 RMK AO2 T03220239
03949KAQV AQV20160725113011107/25/16 11:30:31  5-MIN KAQV 251730Z AUTO 36007KT 10SM FEW090 33/24 A2996 340 59 2500 360/07 RMK AO2 T03280239
03949KAQV AQV20160725113512707/25/16 11:35:31  5-MIN KAQV 251735Z AUTO 04008KT 010V070 10SM FEW042 32/23 A2996 340 59 2400 040/08 010V070 RMK AO2 T03220233
03949KAQV AQV20160725114011107/25/16 11:40:31  5-MIN KAQV 251740Z AUTO 03007KT 10SM FEW042 33/23 A2996 340 57 2500 030/07 RMK AO2 T03280233
03949KAQV AQV20160725114510807/25/16 11:45:31  5-MIN KAQV 251745Z AUTO VRB06KT 10SM CLR 33/23 A2995 350 57 2500 VRB/06 RMK AO2 T03280233
03949KAQV AQV20160725115016107/25/16 11:50:31  5-MIN KAQV 251750Z AUTO 04008G17KT 010V070 10SM CLR 33/24 A2995 350 57 2600 040/08G17 010V070 RMK AO2 SLP138 60000 T03330239 10333 20239 50001
03949KAQV AQV20160725115514507/25/16 11:55:31  5-MIN KAQV 251755Z AUTO VRB06G17KT 10SM CLR 33/23 A2994 350 55 2500 VRB/06G17 RMK AO2 SLP136 60000 T03280228 10333 20239 50001
03949KAQV AQV20160725120010807/25/16 12:00:31  5-MIN KAQV 251800Z AUTO 01011KT 10SM CLR 33/23 A2994 360 53 2600 010/11 RMK AO2 T03330228
03949KAQV AQV20160725120511107/25/16 12:05:31  5-MIN KAQV 251805Z AUTO 01008KT 10SM FEW033 33/23 A2994 360 55 2500 010/08 RMK AO2 T03280228
03949KAQV AQV20160725121012707/25/16 12:10:31  5-MIN KAQV 251810Z AUTO 07007KT 030V100 10SM FEW035 33/23 A2994 360 57 2500 070/07 030V100 RMK AO2 T03280233
03949KAQV AQV20160725121512707/25/16 12:15:31  5-MIN KAQV 251815Z AUTO 02007KT 350V060 10SM FEW035 33/23 A2994 360 55 2600 020/07 350V060 RMK AO2 T03330233
03949KAQV AQV20160725122011107/25/16 12:20:31  5-MIN KAQV 251820Z AUTO 03008KT 10SM FEW035 33/23 A2993 360 55 2600 020/08 RMK AO2 T03330233
03949KAQV AQV20160725122511107/25/16 12:25:31  5-MIN KAQV 251825Z AUTO 01010KT 10SM FEW035 33/22 A2993 370 51 2600 010/10 RMK AO2 T03330222
03949KAQV AQV20160725123011707/25/16 12:30:31  5-MIN KAQV 251830Z AUTO VRB05G14KT 10SM SCT037 33/22 A2993 370 51 2600 VRB/05G14 RMK AO2 T03330222
03949KAQV AQV20160725123511107/25/16 12:35:31  5-MIN KAQV 251835Z AUTO 02005KT 10SM SCT039 33/23 A2992 370 53 2600 010/05 RMK AO2 T03330228
03949KAQV AQV20160725124011107/25/16 12:40:31  5-MIN KAQV 251840Z AUTO 02008KT 10SM BKN039 33/23 A2992 380 53 2600 020/08 RMK AO2 T03330228
03949KAQV AQV20160725124511107/25/16 12:45:31  5-MIN KAQV 251845Z AUTO 04007KT 10SM BKN041 33/22 A2992 380 53 2500 040/07 RMK AO2 T03280222
03949KAQV AQV20160725125011807/25/16 12:50:31  5-MIN KAQV 251850Z AUTO 03007KT 10SM SCT041 33/22 A2992 380 51 2600 020/07 RMK AO2 SLP127 T03330222
03949KAQV AQV20160725125513407/25/16 12:55:31  5-MIN KAQV 251855Z AUTO 06008KT 020V080 10SM SCT041 34/22 A2991 380 50 2700 050/08 020V080 RMK AO2 SLP125 T03390222
03949KAQV AQV20160725130011107/25/16 13:00:31  5-MIN KAQV 251900Z AUTO VRB06KT 10SM BKN041 33/22 A2991 390 53 2500 VRB/06 RMK AO2 T03280222
03949KAQV AQV20160725130511107/25/16 13:05:31  5-MIN KAQV 251905Z AUTO 06005KT 10SM SCT043 34/23 A2991 390 51 2700 060/05 RMK AO2 T03390228
03949KAQV AQV20160725131011107/25/16 13:10:31  5-MIN KAQV 251910Z AUTO 03006KT 10SM SCT041 33/23 A2990 390 53 2600 030/06 RMK AO2 T03330228
03949KAQV AQV20160725131511107/25/16 13:15:31  5-MIN KAQV 251915Z AUTO 03006KT 10SM SCT041 34/23 A2990 390 50 2700 020/06 RMK AO2 T03440228
03949KAQV AQV20160725132011107/25/16 13:20:31  5-MIN KAQV 251920Z AUTO 05008KT 10SM SCT041 34/23 A2990 390 51 2700 040/08 RMK AO2 T03390228
03949KAQV AQV20160725132511107/25/16 13:25:31  5-MIN KAQV 251925Z AUTO VRB05KT 10SM SCT041 33/23 A2990 400 55 2600 VRB/05 RMK AO2 T03280228
03949KAQV AQV20160725133011807/25/16 13:30:31  5-MIN KAQV 251930Z AUTO 04007KT 10SM FEW040 FEW047 34/23 A2990 400 51 2700 040/07 RMK AO2 T03390228
03949KAQV AQV20160725133511107/25/16 13:35:31  5-MIN KAQV 251935Z AUTO 03008KT 10SM FEW040 34/23 A2989 400 50 2700 020/08 RMK AO2 T03440228
03949KAQV AQV20160725134011107/25/16 13:40:31  5-MIN KAQV 251940Z AUTO 04007KT 10SM SCT042 33/22 A2989 400 51 2600 040/07 RMK AO2 T03330222
03949KAQV AQV20160725134511107/25/16 13:45:31  5-MIN KAQV 251945Z AUTO 03007KT 10SM FEW042 34/23 A2989 400 51 2700 030/07 RMK AO2 T03390228
03949KAQV AQV20160725135011807/25/16 13:50:31  5-MIN KAQV 251950Z AUTO VRB04KT 10SM FEW042 34/22 A2989 410 48 2700 VRB/04 RMK AO2 SLP116 T03440222
03949KAQV AQV20160725135511807/25/16 13:55:31  5-MIN KAQV 251955Z AUTO 08005KT 10SM FEW042 34/22 A2989 410 50 2700 070/05 RMK AO2 SLP116 T03390222
03949KAQV AQV20160725140011107/25/16 14:00:31  5-MIN KAQV 252000Z AUTO 03008KT 10SM SCT042 34/23 A2989 410 51 2700 030/08 RMK AO2 T03390228
03949KAQV AQV20160725140512707/25/16 14:05:31  5-MIN KAQV 252005Z AUTO 05008KT 020V090 10SM SCT042 34/22 A2988 410 48 2800 040/08 020V090 RMK AO2 T03440222
03949KAQV AQV20160725141012707/25/16 14:10:31  5-MIN KAQV 252010Z AUTO 05007KT 010V090 10SM FEW042 34/22 A2988 410 48 2800 050/07 010V090 RMK AO2 T03440222
03949KAQV AQV20160725141511107/25/16 14:15:31  5-MIN KAQV 252015Z AUTO 03007KT 10SM FEW043 34/22 A2988 420 48 2800 030/07 RMK AO2 T03440222
03949KAQV AQV20160725142011807/25/16 14:20:31  5-MIN KAQV 252020Z AUTO 07009KT 10SM SCT043 SCT055 34/22 A2988 420 50 2700 060/09 RMK AO2 T03390222
03949KAQV AQV20160725142511807/25/16 14:25:31  5-MIN KAQV 252025Z AUTO 06005KT 10SM SCT043 SCT050 34/23 A2987 420 51 2700 060/05 RMK AO2 T03390228
03949KAQV AQV20160725143011107/25/16 14:30:31  5-MIN KAQV 252030Z AUTO 03006KT 10SM FEW043 34/22 A2987 420 48 2800 020/06 RMK AO2 T03440222
03949KAQV AQV20160725143511807/25/16 14:35:31  5-MIN KAQV 252035Z AUTO 03004KT 10SM FEW045 FEW055 35/22 A2987 420 47 2800 030/04 RMK AO2 T03500222
03949KAQV AQV20160725144011807/25/16 14:40:31  5-MIN KAQV 252040Z AUTO 07007KT 10SM SCT045 SCT055 34/22 A2987 420 48 2800 060/07 RMK AO2 T03440222
03949KAQV AQV20160725144511107/25/16 14:45:31  5-MIN KAQV 252045Z AUTO VRB03KT 10SM SCT045 34/22 A2987 420 50 2700 VRB/03 RMK AO2 T03390222
03949KAQV AQV20160725145012407/25/16 14:50:31  5-MIN KAQV 252050Z AUTO VRB06KT 10SM BKN045 34/23 A2987 420 50 2800 VRB/06 RMK AO2 SLP111 T03440228 58014
03949KAQV AQV20160725145512407/25/16 14:55:31  5-MIN KAQV 252055Z AUTO VRB05KT 10SM SCT045 33/22 A2988 420 51 2600 VRB/05 RMK AO2 SLP113 T03330222 58014
03949KAQV AQV20160725150011107/25/16 15:00:31  5-MIN KAQV 252100Z AUTO 05005KT 10SM SCT046 34/23 A2988 420 51 2700 050/05 RMK AO2 T03390228
03949KAQV AQV20160725150511107/25/16 15:05:31  5-MIN KAQV 252105Z AUTO VRB04KT 10SM SCT046 35/22 A2987 420 47 2800 VRB/04 RMK AO2 T03500222
03949KAQV AQV20160725151011107/25/16 15:10:31  5-MIN KAQV 252110Z AUTO VRB05KT 10SM FEW046 35/22 A2988 420 47 2800 VRB/05 RMK AO2 T03500222
03949KAQV AQV20160725151511707/25/16 15:15:31  5-MIN KAQV 252115Z AUTO 11010G17KT 10SM SCT046 33/23 A2989 410 53 2600 110/10G17 RMK AO2 T03330228
03949KAQV AQV20160725152013307/25/16 15:20:31  5-MIN KAQV 252120Z AUTO 12007G17KT 050V170 10SM BKN046 31/23 A2989 400 62 2300 120/07G17 050V170 RMK AO2 T03060228
03949KAQV AQV20160725152513307/25/16 15:25:31  5-MIN KAQV 252125Z AUTO VRB06G17KT 10SM TS SCT046 SCT050 29/23 A2989 400 69 2100 VRB/06G17 RMK AO2 TSB23 T02890228
03949KAQV AQV20160725153014807/25/16 15:30:31  5-MIN KAQV 252130Z AUTO VRB04KT 7SM -TSRA FEW044 SCT050 SCT085 27/23 A2990 400 79 1900 VRB/04 RMK AO2 RAB29 TSB23 P0000 T02720233
03949KAQV AQV20160725153514807/25/16 15:35:31  5-MIN KAQV 252135Z AUTO 00000KT 7SM -TSRA SCT046 BKN070 BKN090 29/25 A2990 390 79 2100 000/00 RMK AO2 RAB29 TSB23 P0000 T02890250
03949KAQV AQV20160725154014907/25/16 15:40:31  5-MIN KAQV 252140Z AUTO VRB04KT 10SM -TSRA FEW044 SCT050 BKN075 29/24 A2991 390 76 2100 VRB/04 RMK AO2 RAB29 TSB23 P0000 T02890244
03949KAQV AQV20160725154514907/25/16 15:45:31  5-MIN KAQV 252145Z AUTO VRB05KT 10SM TS FEW048 BKN080 BKN100 29/24 A2990 390 74 2100 VRB/05 RMK AO2 RAB29E42 TSB23 P0000 T02890239
03949KAQV AQV20160725155015607/25/16 15:50:31  5-MIN KAQV 252150Z AUTO VRB05KT 10SM TS FEW050 BKN090 OVC110 29/23 A2990 390 71 2100 VRB/05 RMK AO2 RAB29E42 TSB23 SLP122 P0000 T02890233
03949KAQV AQV20160725155515607/25/16 15:55:31  5-MIN KAQV 252155Z AUTO VRB04KT 10SM TS FEW050 SCT080 BKN100 28/23 A2990 390 74 2100 VRB/04 RMK AO2 RAB29E42 TSB23 SLP122 P0000 T02830233
03949KAQV AQV20160725160012107/25/16 16:00:31  5-MIN KAQV 252200Z AUTO VRB05KT 10SM TS FEW075 BKN100 28/23 A2991 390 71 2000 VRB/05 RMK AO2 T02830228
03949KAQV AQV20160725160512807/25/16 16:05:31  5-MIN KAQV 252205Z AUTO 17008KT 10SM TS FEW070 BKN100 BKN120 28/23 A2992 380 71 2000 160/08 RMK AO2 T02830228
03949KAQV AQV20160725161012107/25/16 16:10:31  5-MIN KAQV 252210Z AUTO 18008KT 10SM TS SCT095 SCT120 28/23 A2991 380 76 2000 170/08 RMK AO2 T02780233
03949KAQV AQV20160725161511407/25/16 16:15:31  5-MIN KAQV 252215Z AUTO VRB05KT 10SM TS FEW095 26/24 A2991 380 87 1800 VRB/05 RMK AO2 T02610239
03949KAQV AQV20160725162012107/25/16 16:20:31  5-MIN KAQV 252220Z AUTO 19007KT 10SM TS FEW100 FEW120 25/24 A2992 380 93 1700 190/07 RMK AO2 T02500239
03949KAQV AQV20160725162512107/25/16 16:25:31  5-MIN KAQV 252225Z AUTO 20007KT 10SM TS FEW100 FEW120 26/23 A2992 370 87 1700 200/07 RMK AO2 T02560233
03949KAQV AQV20160725163011407/25/16 16:30:31  5-MIN KAQV 252230Z AUTO 21007KT 10SM TS FEW120 25/23 A2992 370 90 1700 200/07 RMK AO2 T02500233
03949KAQV AQV20160725163511107/25/16 16:35:31  5-MIN KAQV 252235Z AUTO 19005KT 10SM TS CLR 24/23 A2991 380 93 1600 180/05 RMK AO2 T02440233
03949KAQV AQV20160725164011107/25/16 16:40:31  5-MIN KAQV 252240Z AUTO VRB03KT 10SM TS CLR 24/23 A2990 390 93 1600 VRB/03 RMK AO2 T02390228
03949KAQV AQV20160725164511107/25/16 16:45:31  5-MIN KAQV 252245Z AUTO VRB03KT 10SM TS CLR 24/23 A2990 390 93 1600 VRB/03 RMK AO2 T02390228
03949KAQV AQV20160725165011807/25/16 16:50:31  5-MIN KAQV 252250Z AUTO VRB04KT 10SM TS CLR 24/23 A2990 390 93 1600 VRB/04 RMK AO2 SLP123 T02390228
03949KAQV AQV20160725165511807/25/16 16:55:31  5-MIN KAQV 252255Z AUTO VRB03KT 10SM TS CLR 24/23 A2991 390 93 1500 VRB/03 RMK AO2 SLP125 T02390228
03949KAQV AQV20160725170011107/25/16 17:00:31  5-MIN KAQV 252300Z AUTO VRB04KT 10SM TS CLR 24/23 A2991 390 93 1500 VRB/04 RMK AO2 T02390228
03949KAQV AQV20160725170511407/25/16 17:05:31  5-MIN KAQV 252305Z AUTO VRB04KT 10SM CLR 24/23 A2990 390 93 1600 VRB/04 RMK AO2 TSE01 T02390228
03949KAQV AQV20160725171011407/25/16 17:10:31  5-MIN KAQV 252310Z AUTO 00000KT 10SM CLR 24/23 A2990 400 93 1600 000/00 RMK AO2 TSE01 T02390228
03949KAQV AQV20160725171511407/25/16 17:15:31  5-MIN KAQV 252315Z AUTO 00000KT 10SM CLR 24/23 A2990 400 93 1600 000/00 RMK AO2 TSE01 T02390228
03949KAQV AQV20160725172011407/25/16 17:20:31  5-MIN KAQV 252320Z AUTO VRB03KT 10SM CLR 24/23 A2990 400 93 1600 VRB/03 RMK AO2 TSE01 T02390228
03949KAQV AQV20160725172511407/25/16 17:25:31  5-MIN KAQV 252325Z AUTO 23004KT 10SM CLR 25/22 A2990 400 84 1700 230/04 RMK AO2 TSE01 T02500222
03949KAQV AQV20160725173011407/25/16 17:30:31  5-MIN KAQV 252330Z AUTO VRB03KT 10SM CLR 24/22 A2990 390 87 1600 VRB/03 RMK AO2 TSE01 T02440222
03949KAQV AQV20160725173511407/25/16 17:35:31  5-MIN KAQV 252335Z AUTO VRB05KT 10SM CLR 24/22 A2991 390 87 1600 VRB/05 RMK AO2 TSE01 T02440222
03949KAQV AQV20160725174011407/25/16 17:40:31  5-MIN KAQV 252340Z AUTO 00000KT 10SM CLR 25/22 A2991 390 84 1700 000/00 RMK AO2 TSE01 T02500222
03949KAQV AQV20160725174511407/25/16 17:45:31  5-MIN KAQV 252345Z AUTO 00000KT 10SM CLR 26/22 A2991 390 81 1700 000/00 RMK AO2 TSE01 T02560222
03949KAQV AQV20160725175014507/25/16 17:50:31  5-MIN KAQV 252350Z AUTO 00000KT 10SM CLR 25/22 A2991 390 84 1700 000/00 RMK AO2 TSE01 SLP125 60000 T02500222 10350 20239 56022
03949KAQV AQV20160725175514507/25/16 17:55:31  5-MIN KAQV 252355Z AUTO 00000KT 10SM CLR 25/22 A2991 390 84 1700 000/00 RMK AO2 TSE01 SLP124 60000 T02500222 10350 20239 56022
03949KAQV AQV20160725180010807/25/16 18:00:31  5-MIN KAQV 260000Z AUTO 00000KT 10SM CLR 26/22 A2991 390 81 1700 000/00 RMK AO2 T02560222
03949KAQV AQV20160725180510807/25/16 18:05:31  5-MIN KAQV 260005Z AUTO 00000KT 10SM CLR 26/22 A2991 390 81 1700 000/00 RMK AO2 T02560222
03949KAQV AQV20160725181010807/25/16 18:10:31  5-MIN KAQV 260010Z AUTO 00000KT 10SM CLR 26/22 A2991 380 81 1700 000/00 RMK AO2 T02560222
03949KAQV AQV20160725181510807/25/16 18:15:31  5-MIN KAQV 260015Z AUTO 00000KT 10SM CLR 25/22 A2992 380 84 1700 000/00 RMK AO2 T02500222
03949KAQV AQV20160725182010807/25/16 18:20:31  5-MIN KAQV 260020Z AUTO VRB03KT 10SM CLR 25/22 A2992 380 84 1700 VRB/03 RMK AO2 T02500222
03949KAQV AQV20160725182510807/25/16 18:25:31  5-MIN KAQV 260025Z AUTO 19003KT 10SM CLR 25/22 A2992 370 84 1700 180/03 RMK AO2 T02500222
03949KAQV AQV20160725183010807/25/16 18:30:31  5-MIN KAQV 260030Z AUTO 00000KT 10SM CLR 25/22 A2992 370 84 1700 000/00 RMK AO2 T02500222
03949KAQV AQV20160725183510807/25/16 18:35:31  5-MIN KAQV 260035Z AUTO 00000KT 10SM CLR 24/22 A2993 370 87 1600 000/00 RMK AO2 T02440222
03949KAQV AQV20160725184010807/25/16 18:40:31  5-MIN KAQV 260040Z AUTO 00000KT 10SM CLR 24/23 A2992 380 90 1600 000/00 RMK AO2 T02440228
03949KAQV AQV20160725184511707/25/16 18:45:31  5-MIN KAQV 260045Z AUTO 19003KT 10SM TS CLR 24/23 A2992 380 90 1600 190/03 RMK AO2 TSB42 T02440228
03949KAQV AQV20160725185012407/25/16 18:50:31  5-MIN KAQV 260050Z AUTO VRB03KT 10SM TS CLR 24/23 A2993 370 90 1600 VRB/03 RMK AO2 TSB42 SLP131 T02440228
03949KAQV AQV20160725185512407/25/16 18:55:31  5-MIN KAQV 260055Z AUTO 00000KT 10SM TS CLR 25/23 A2993 370 87 1600 000/00 RMK AO2 TSB42 SLP132 T02500228
03949KAQV AQV20160725190012107/25/16 19:00:31  5-MIN KAQV 260100Z AUTO 13005KT 10SM TS FEW050 25/22 A2995 350 84 1600 130/05 RMK AO2 PRESRR T02500222
03949KAQV AQV20160725190512707/25/16 19:05:31  5-MIN KAQV 260105Z AUTO VRB06G19KT 10SM TS FEW010 SCT048 25/23 A2995 350 87 1600 VRB/06G19 RMK AO2 T02500228
03949KAQV AQV20160725191012707/25/16 19:10:31  5-MIN KAQV 260110Z AUTO VRB04G19KT 10SM TS FEW010 SCT048 24/22 A2995 350 87 1600 VRB/04G19 RMK AO2 T02440222
03949KAQV AQV20160725191512707/25/16 19:15:31  5-MIN KAQV 260115Z AUTO 00000KT 10SM TS FEW011 FEW055 24/22 A2996 340 87 1600 000/00 RMK AO2 TSB14 T02440222
03949KAQV AQV20160725192013407/25/16 19:20:31  5-MIN KAQV 260120Z AUTO VRB03KT 10SM TS FEW011 SCT025 SCT055 24/22 A2997 330 87 1500 VRB/03 RMK AO2 TSB14 T02440222
03949KAQV AQV20160725192513407/25/16 19:25:31  5-MIN KAQV 260125Z AUTO 00000KT 10SM TS FEW011 SCT024 BKN029 25/22 A2995 340 84 1600 000/00 RMK AO2 TSB14 T02500222
03949KAQV AQV20160725193013407/25/16 19:30:31  5-MIN KAQV 260130Z AUTO 00000KT 10SM TS FEW011 FEW022 SCT029 25/22 A2995 340 84 1600 000/00 RMK AO2 TSB14 T02500222
03949KAQV AQV20160725193512707/25/16 19:35:31  5-MIN KAQV 260135Z AUTO 00000KT 10SM TS FEW024 FEW029 24/22 A2995 350 87 1600 000/00 RMK AO2 TSB14 T02440222
03949KAQV AQV20160725194013007/25/16 19:40:31  5-MIN KAQV 260140Z AUTO 00000KT 10SM TS FEW024 FEW029 24/22 A2994 360 87 1600 000/00 RMK AO2 TSB14B39 T02440222
03949KAQV AQV20160725194513707/25/16 19:45:31  5-MIN KAQV 260145Z AUTO 00000KT 10SM TS FEW024 FEW029 SCT110 24/23 A2995 350 90 1600 000/00 RMK AO2 TSB14B39 T02440228
03949KAQV AQV20160725195013707/25/16 19:50:31  5-MIN KAQV 260150Z AUTO VRB03KT 10SM TS FEW029 SCT110 25/22 A2995 350 84 1600 VRB/03 RMK AO2 TSB14B39 SLP137 T02500222
03949KAQV AQV20160725195513007/25/16 19:55:31  5-MIN KAQV 260155Z AUTO 00000KT 10SM TS SCT110 24/22 A2994 360 87 1600 000/00 RMK AO2 TSB14B39 SLP135 T02440222
03949KAQV AQV20160725200012107/25/16 20:00:31  5-MIN KAQV 260200Z AUTO 00000KT 10SM TS FEW090 BKN110 24/23 A2993 370 90 1600 000/00 RMK AO2 T02440228
03949KAQV AQV20160725200512107/25/16 20:05:31  5-MIN KAQV 260205Z AUTO 00000KT 10SM TS FEW090 BKN110 24/23 A2993 370 90 1600 000/00 RMK AO2 T02440228
03949KAQV AQV20160725201011707/25/16 20:10:31  5-MIN KAQV 260210Z AUTO 00000KT 10SM BKN110 24/22 A2993 370 87 1600 000/00 RMK AO2 TSE07 T02440222
03949KAQV AQV20160725201514007/25/16 20:15:31  5-MIN KAQV 260215Z AUTO 00000KT 10SM -RA FEW100 SCT110 24/22 A2993 370 87 1600 000/00 RMK AO2 RAB12 TSE07 P0000 T02440222
03949KAQV AQV20160725202014607/25/16 20:20:31  5-MIN KAQV 260220Z AUTO 02003KT 9SM -RA FEW065 SCT090 BKN110 24/23 A2993 370 90 1600 020/03 RMK AO2 RAB12 TSE07 P0001 T02440228
03949KAQV AQV20160725202514607/25/16 20:25:31  5-MIN KAQV 260225Z AUTO 00000KT 9SM -RA FEW070 SCT090 BKN110 24/23 A2993 370 90 1600 000/00 RMK AO2 RAB12 TSE07 P0001 T02440228
03949KAQV AQV20160725203014007/25/16 20:30:31  5-MIN KAQV 260230Z AUTO 00000KT 10SM -RA FEW085 SCT110 24/23 A2993 370 93 1500 000/00 RMK AO2 RAB12 TSE07 P0001 T02390228
03949KAQV AQV20160725203513907/25/16 20:35:31  5-MIN KAQV 260235Z AUTO 00000KT 10SM FEW070 FEW090 24/23 A2993 370 93 1500 000/00 RMK AO2 RAB12E35 TSE07 P0001 T02390228
03949KAQV AQV20160725204013907/25/16 20:40:31  5-MIN KAQV 260240Z AUTO 30003KT 10SM FEW070 FEW090 24/23 A2993 370 93 1500 300/03 RMK AO2 RAB12E35 TSE07 P0001 T02390228
03949KAQV AQV20160725204513907/25/16 20:45:31  5-MIN KAQV 260245Z AUTO VRB03KT 10SM FEW070 FEW090 24/23 A2993 370 93 1500 VRB/03 RMK AO2 RAB12E35 TSE07 P0001 T02390228
03949KAQV AQV20160725205015107/25/16 20:50:31  5-MIN KAQV 260250Z AUTO 00000KT 10SM FEW085 24/23 A2993 370 93 1500 000/00 RMK AO2 RAB12E35 TSE07 SLP131 P0001 60001 T02390228 50010
03949KAQV AQV20160725205514807/25/16 20:55:31  5-MIN KAQV 260255Z AUTO 00000KT 10SM CLR 23/23 A2993 370 97 1500 000/00 RMK AO2 RAB12E35 TSE07 SLP131 P0001 60001 T02330228 50010
03949KAQV AQV20160725210010807/25/16 21:00:31  5-MIN KAQV 260300Z AUTO 00000KT 10SM CLR 23/23 A2992 370 97 1500 000/00 RMK AO2 T02330228
03949KAQV AQV20160725210510807/25/16 21:05:31  5-MIN KAQV 260305Z AUTO 00000KT 10SM CLR 23/23 A2993 370 97 1500 000/00 RMK AO2 T02330228
03949KAQV AQV20160725211010807/25/16 21:10:31  5-MIN KAQV 260310Z AUTO 00000KT 10SM CLR 23/23 A2993 370 97 1500 000/00 RMK AO2 T02330228
03949KAQV AQV20160725211510807/25/16 21:15:31  5-MIN KAQV 260315Z AUTO 00000KT 10SM CLR 23/23 A2992 370 97 1500 000/00 RMK AO2 T02330228
03949KAQV AQV20160725212010807/25/16 21:20:31  5-MIN KAQV 260320Z AUTO 00000KT 10SM CLR 23/23 A2992 370 97 1500 000/00 RMK AO2 T02330228
03949KAQV AQV20160725212510807/25/16 21:25:31  5-MIN KAQV 260325Z AUTO 00000KT 10SM CLR 23/23 A2992 380 97 1500 000/00 RMK AO2 T02330228
03949KAQV AQV20160725213010807/25/16 21:30:31  5-MIN KAQV 260330Z AUTO 00000KT 10SM CLR 23/23 A2992 380 97 1500 000/00 RMK AO2 T02330228
03949KAQV AQV20160725213510807/25/16 21:35:31  5-MIN KAQV 260335Z AUTO 00000KT 10SM CLR 23/23 A2992 380 97 1500 000/00 RMK AO2 T02330228
03949KAQV AQV20160725214010807/25/16 21:40:31  5-MIN KAQV 260340Z AUTO 00000KT 10SM CLR 23/23 A2992 380 97 1500 000/00 RMK AO2 T02330228
03949KAQV AQV20160725214510807/25/16 21:45:31  5-MIN KAQV 260345Z AUTO 00000KT 10SM CLR 23/23 A2992 370 97 1500 000/00 RMK AO2 T02330228
03949KAQV AQV20160725215011507/25/16 21:50:31  5-MIN KAQV 260350Z AUTO 00000KT 10SM CLR 23/23 A2992 370 97 1500 000/00 RMK AO2 SLP129 T02330228
03949KAQV AQV20160725215511507/25/16 21:55:31  5-MIN KAQV 260355Z AUTO 00000KT 10SM CLR 23/23 A2993 370 97 1500 000/00 RMK AO2 SLP130 T02330228
03949KAQV AQV20160725220010807/25/16 22:00:31  5-MIN KAQV 260400Z AUTO 00000KT 10SM CLR 23/23 A2993 370 97 1500 000/00 RMK AO2 T02330228
03949KAQV AQV20160725220510807/25/16 22:05:31  5-MIN KAQV 260405Z AUTO 00000KT 10SM CLR 23/23 A2993 370 97 1500 000/00 RMK AO2 T02330228
03949KAQV AQV20160725221010807/25/16 22:10:31  5-MIN KAQV 260410Z AUTO 00000KT 10SM CLR 23/23 A2992 370 97 1500 000/00 RMK AO2 T02330228
03949KAQV AQV20160725221510907/25/16 22:15:31  5-MIN KAQV 260415Z AUTO 00000KT 10SM CLR 23/23 A2992 370 100 1400 000/00 RMK AO2 T02280228
03949KAQV AQV20160725222010707/25/16 22:20:31  5-MIN KAQV 260420Z AUTO 00000KT 9SM CLR 23/22 A2993 370 97 1400 000/00 RMK AO2 T02280222
03949KAQV AQV20160725222510707/25/16 22:25:31  5-MIN KAQV 260425Z AUTO 00000KT 9SM CLR 23/22 A2993 370 97 1400 000/00 RMK AO2 T02280222
03949KAQV AQV20160725223010707/25/16 22:30:31  5-MIN KAQV 260430Z AUTO 00000KT 9SM CLR 23/22 A2993 370 97 1400 000/00 RMK AO2 T02280222
03949KAQV AQV20160725223510707/25/16 22:35:31  5-MIN KAQV 260435Z AUTO 00000KT 9SM CLR 23/22 A2993 370 97 1400 000/00 RMK AO2 T02280222
03949KAQV AQV20160725224010707/25/16 22:40:31  5-MIN KAQV 260440Z AUTO 00000KT 9SM CLR 23/22 A2993 370 97 1400 000/00 RMK AO2 T02280222
03949KAQV AQV20160725224510707/25/16 22:45:31  5-MIN KAQV 260445Z AUTO 00000KT 9SM CLR 23/22 A2993 370 97 1400 000/00 RMK AO2 T02280222
03949KAQV AQV20160725225011407/25/16 22:50:31  5-MIN KAQV 260450Z AUTO 00000KT 9SM CLR 23/22 A2993 370 97 1400 000/00 RMK AO2 SLP130 T02280222
03949KAQV AQV20160725225511707/25/16 22:55:31  5-MIN KAQV 260455Z AUTO 00000KT 9SM FEW002 23/22 A2993 370 97 1400 000/00 RMK AO2 SLP130 T02280222
03949KAQV AQV20160725230011007/25/16 23:00:31  5-MIN KAQV 260500Z AUTO 00000KT 9SM SCT002 23/22 A2993 370 97 1400 000/00 RMK AO2 T02280222
03949KAQV AQV20160725230511007/25/16 23:05:31  5-MIN KAQV 260505Z AUTO 00000KT 8SM BKN002 23/22 A2993 370 97 1400 000/00 RMK AO2 T02280222
03949KAQV AQV20160725231011007/25/16 23:10:31  5-MIN KAQV 260510Z AUTO 00000KT 8SM BKN002 23/22 A2992 370 97 1400 000/00 RMK AO2 T02280222
03949KAQV AQV20160725231511007/25/16 23:15:31  5-MIN KAQV 260515Z AUTO 00000KT 8SM BKN002 23/22 A2993 370 97 1400 000/00 RMK AO2 T02280222
03949KAQV AQV20160725232011007/25/16 23:20:31  5-MIN KAQV 260520Z AUTO 00000KT 8SM OVC002 23/22 A2993 370 97 1400 000/00 RMK AO2 T02280222
03949KAQV AQV20160725232511007/25/16 23:25:31  5-MIN KAQV 260525Z AUTO 00000KT 7SM OVC002 23/22 A2992 370 97 1400 000/00 RMK AO2 T02280222
03949KAQV AQV20160725233011307/25/16 23:30:31  5-MIN KAQV 260530Z AUTO 00000KT 6SM BR OVC002 23/22 A2992 380 97 1400 000/00 RMK AO2 T02280222
03949KAQV AQV20160725233511007/25/16 23:35:31  5-MIN KAQV 260535Z AUTO 00000KT 7SM OVC002 23/22 A2992 380 97 1400 000/00 RMK AO2 T02280222
03949KAQV AQV20160725234011007/25/16 23:40:31  5-MIN KAQV 260540Z AUTO 00000KT 7SM OVC002 23/22 A2992 380 97 1400 000/00 RMK AO2 T02280222
03949KAQV AQV20160725234511007/25/16 23:45:31  5-MIN KAQV 260545Z AUTO 00000KT 7SM OVC002 23/22 A2991 380 97 1400 000/00 RMK AO2 T02280222
03949KAQV AQV20160725235015107/25/16 23:50:31  5-MIN KAQV 260550Z AUTO 00000KT 9SM OVC002 23/22 A2991 380 97 1400 000/00 RMK AO2 SLP126 60001 T02280222 10256 20228 403500228 50007
03949KAQV AQV20160725235515107/25/16 23:55:31  5-MIN KAQV 260555Z AUTO 00000KT 9SM OVC002 23/22 A2991 390 97 1400 000/00 RMK AO2 SLP124 60001 T02280222 10256 20228 403500228 50007
03949KAQV AQV20160726000011007/26/16 00:00:31  5-MIN KAQV 260600Z AUTO 00000KT 9SM BKN002 23/22 A2991 390 97 1400 000/00 RMK AO2 T02280222
03949KAQV AQV20160726000511007/26/16 00:05:31  5-MIN KAQV 260605Z AUTO 00000KT 9SM BKN002 23/22 A2991 390 97 1400 000/00 RMK AO2 T02280222
03949KAQV AQV20160726001011107/26/16 00:10:31  5-MIN KAQV 260610Z AUTO 00000KT 10SM SCT002 23/22 A2991 390 97 1400 000/00 RMK AO2 T02280222
03949KAQV AQV20160726001511107/26/16 00:15:31  5-MIN KAQV 260615Z AUTO 00000KT 10SM FEW002 23/22 A2991 390 97 1400 000/00 RMK AO2 T02280222
03949KAQV AQV20160726002011107/26/16 00:20:31  5-MIN KAQV 260620Z AUTO 00000KT 10SM FEW002 23/22 A2991 390 97 1400 000/00 RMK AO2 T02280222
03949KAQV AQV20160726002510807/26/16 00:25:31  5-MIN KAQV 260625Z AUTO 00000KT 10SM CLR 23/22 A2991 390 97 1400 000/00 RMK AO2 T02280222
03949KAQV AQV20160726003010707/26/16 00:30:31  5-MIN KAQV 260630Z AUTO 00000KT 9SM CLR 23/22 A2991 390 97 1400 000/00 RMK AO2 T02280222
03949KAQV AQV20160726003510707/26/16 00:35:31  5-MIN KAQV 260635Z AUTO 00000KT 8SM CLR 22/22 A2991 390 97 1400 000/00 RMK AO2 T02220217
03949KAQV AQV20160726004011007/26/16 00:40:31  5-MIN KAQV 260640Z AUTO 00000KT 8SM FEW003 23/22 A2991 390 93 1400 000/00 RMK AO2 T02280217
03949KAQV AQV20160726004510807/26/16 00:45:31  5-MIN KAQV 260645Z AUTO 00000KT 8SM CLR 22/22 A2991 390 100 1400 000/00 RMK AO2 T02220222
03949KAQV AQV20160726005011407/26/16 00:50:31  5-MIN KAQV 260650Z AUTO 00000KT 8SM CLR 23/22 A2991 390 93 1400 000/00 RMK AO2 SLP124 T02280217
03949KAQV AQV20160726005511407/26/16 00:55:31  5-MIN KAQV 260655Z AUTO 00000KT 8SM CLR 22/22 A2991 390 97 1400 000/00 RMK AO2 SLP124 T02220217
03949KAQV AQV20160726010010707/26/16 01:00:31  5-MIN KAQV 260700Z AUTO 00000KT 9SM CLR 22/22 A2991 380 97 1400 000/00 RMK AO2 T02220217
03949KAQV AQV20160726010510707/26/16 01:05:31  5-MIN KAQV 260705Z AUTO 00000KT 8SM CLR 22/22 A2991 380 97 1400 000/00 RMK AO2 T02220217
03949KAQV AQV20160726011011007/26/16 01:10:31  5-MIN KAQV 260710Z AUTO 00000KT 8SM FEW003 22/22 A2992 380 97 1300 000/00 RMK AO2 T02220217
03949KAQV AQV20160726011511007/26/16 01:15:31  5-MIN KAQV 260715Z AUTO 00000KT 9SM FEW003 22/22 A2992 380 97 1300 000/00 RMK AO2 T02220217
03949KAQV AQV20160726012010707/26/16 01:20:31  5-MIN KAQV 260720Z AUTO 00000KT 9SM CLR 22/22 A2991 380 97 1400 000/00 RMK AO2 T02220217
03949KAQV AQV20160726012510707/26/16 01:25:31  5-MIN KAQV 260725Z AUTO 00000KT 8SM CLR 22/22 A2991 380 97 1400 000/00 RMK AO2 T02220217
03949KAQV AQV20160726013010707/26/16 01:30:31  5-MIN KAQV 260730Z AUTO 00000KT 8SM CLR 22/22 A2991 380 97 1400 000/00 RMK AO2 T02220217
03949KAQV AQV20160726013510707/26/16 01:35:31  5-MIN KAQV 260735Z AUTO 00000KT 8SM CLR 22/22 A2992 380 97 1300 000/00 RMK AO2 T02220217
03949KAQV AQV20160726014010707/26/16 01:40:31  5-MIN KAQV 260740Z AUTO 00000KT 8SM CLR 22/22 A2992 380 97 1300 000/00 RMK AO2 T02220217
03949KAQV AQV20160726014510707/26/16 01:45:31  5-MIN KAQV 260745Z AUTO 00000KT 9SM CLR 22/22 A2992 380 97 1300 000/00 RMK AO2 T02220217
03949KAQV AQV20160726015011407/26/16 01:50:31  5-MIN KAQV 260750Z AUTO 00000KT 8SM CLR 22/22 A2992 380 97 1300 000/00 RMK AO2 SLP128 T02220217
03949KAQV AQV20160726015511407/26/16 01:55:31  5-MIN KAQV 260755Z AUTO 00000KT 8SM CLR 22/22 A2992 370 97 1300 000/00 RMK AO2 SLP129 T02220217
03949KAQV AQV20160726020010707/26/16 02:00:31  5-MIN KAQV 260800Z AUTO 00000KT 8SM CLR 22/22 A2992 370 97 1300 000/00 RMK AO2 T02220217
03949KAQV AQV20160726020511007/26/16 02:05:31  5-MIN KAQV 260805Z AUTO 00000KT 8SM FEW003 22/22 A2992 370 97 1300 000/00 RMK AO2 T02220217
03949KAQV AQV20160726021011007/26/16 02:10:31  5-MIN KAQV 260810Z AUTO 00000KT 8SM SCT003 22/22 A2993 370 97 1300 000/00 RMK AO2 T02220217
03949KAQV AQV20160726021511307/26/16 02:15:31  5-MIN KAQV 260815Z AUTO 00000KT 6SM BR BKN003 22/22 A2993 370 97 1300 000/00 RMK AO2 T02220217
03949KAQV AQV20160726022011307/26/16 02:20:31  5-MIN KAQV 260820Z AUTO 00000KT 3SM BR BKN003 22/22 A2993 360 97 1300 000/00 RMK AO2 T02220217
03949KAQV AQV20160726022511707/26/16 02:25:31  5-MIN KAQV 260825Z AUTO 00000KT 1 1/4SM BR BKN003 22/22 A2994 360 97 1300 000/00 RMK AO2 T02220217
03949KAQV AQV20160726023011507/26/16 02:30:31  5-MIN KAQV 260830Z AUTO 00000KT 3/4SM BR OVC003 22/22 A2994 360 97 1300 000/00 RMK AO2 T02220217
03949KAQV AQV20160726023511507/26/16 02:35:31  5-MIN KAQV 260835Z AUTO 00000KT 1/2SM FG OVC003 22/22 A2994 360 97 1300 000/00 RMK AO2 T02220217
03949KAQV AQV20160726024011407/26/16 02:40:31  5-MIN KAQV 260840Z AUTO 00000KT 1/2SM FG VV003 22/22 A2994 360 97 1300 000/00 RMK AO2 T02220217
03949KAQV AQV20160726024511407/26/16 02:45:31  5-MIN KAQV 260845Z AUTO 00000KT 1/2SM FG VV003 22/22 A2994 360 97 1300 000/00 RMK AO2 T02220217
03949KAQV AQV20160726025012707/26/16 02:50:31  5-MIN KAQV 260850Z AUTO 00000KT 1/2SM FG VV002 22/22 A2994 360 97 1300 000/00 RMK AO2 SLP135 T02220217 58006
03949KAQV AQV20160726025512707/26/16 02:55:31  5-MIN KAQV 260855Z AUTO 00000KT 1/2SM FG VV002 22/22 A2994 360 97 1300 000/00 RMK AO2 SLP135 T02220217 58006
03949KAQV AQV20160726030011407/26/16 03:00:31  5-MIN KAQV 260900Z AUTO 00000KT 1/2SM FG VV002 22/22 A2994 360 97 1300 000/00 RMK AO2 T02220217
03949KAQV AQV20160726030511407/26/16 03:05:31  5-MIN KAQV 260905Z AUTO 00000KT 1/4SM FG VV002 22/22 A2994 360 97 1300 000/00 RMK AO2 T02220217
03949KAQV AQV20160726031011407/26/16 03:10:31  5-MIN KAQV 260910Z AUTO 00000KT 1/4SM FG VV002 22/22 A2994 360 97 1300 000/00 RMK AO2 T02220217
03949KAQV AQV20160726031511507/26/16 03:15:31  5-MIN KAQV 260915Z AUTO 00000KT 1/4SM FG VV002 22/22 A2994 360 100 1300 000/00 RMK AO2 T02220222
03949KAQV AQV20160726032011507/26/16 03:20:31  5-MIN KAQV 260920Z AUTO 00000KT 1/4SM FG VV002 22/22 A2994 360 100 1300 000/00 RMK AO2 T02220222
03949KAQV AQV20160726032511507/26/16 03:25:31  5-MIN KAQV 260925Z AUTO 00000KT 1/4SM FG VV002 22/22 A2994 360 100 1300 000/00 RMK AO2 T02220222
03949KAQV AQV20160726033011507/26/16 03:30:31  5-MIN KAQV 260930Z AUTO 00000KT 1/4SM FG VV002 22/22 A2994 360 100 1300 000/00 RMK AO2 T02220222
03949KAQV AQV20160726033511507/26/16 03:35:31  5-MIN KAQV 260935Z AUTO 00000KT 1/4SM FG VV002 22/22 A2994 360 100 1300 000/00 RMK AO2 T02220222
03949KAQV AQV20160726034011507/26/16 03:40:31  5-MIN KAQV 260940Z AUTO 00000KT 1/4SM FG VV002 22/22 A2994 360 100 1300 000/00 RMK AO2 T02220222
03949KAQV AQV20160726034511407/26/16 03:45:31  5-MIN KAQV 260945Z AUTO 00000KT 1/4SM FG VV002 23/22 A2994 360 97 1400 000/00 RMK AO2 T02280222
03949KAQV AQV20160726035012107/26/16 03:50:31  5-MIN KAQV 260950Z AUTO 00000KT 1/4SM FG VV002 23/22 A2994 360 97 1400 000/00 RMK AO2 SLP135 T02280222
03949KAQV AQV20160726035512207/26/16 03:55:31  5-MIN KAQV 260955Z AUTO 00000KT 1/2SM FG VV002 22/22 A2995 350 100 1300 000/00 RMK AO2 SLP136 T02220222
03949KAQV AQV20160726040011407/26/16 04:00:31  5-MIN KAQV 261000Z AUTO 00000KT 1/2SM FG VV002 23/22 A2995 350 97 1400 000/00 RMK AO2 T02280222
03949KAQV AQV20160726040511407/26/16 04:05:31  5-MIN KAQV 261005Z AUTO 00000KT 1/2SM FG VV002 23/22 A2995 350 97 1400 000/00 RMK AO2 T02280222
03949KAQV AQV20160726041011407/26/16 04:10:31  5-MIN KAQV 261010Z AUTO 00000KT 1/2SM FG VV002 23/22 A2995 350 97 1400 000/00 RMK AO2 T02280222
03949KAQV AQV20160726041511407/26/16 04:15:31  5-MIN KAQV 261015Z AUTO 00000KT 1/2SM FG VV002 23/22 A2995 350 97 1400 000/00 RMK AO2 T02280222
03949KAQV AQV20160726042011407/26/16 04:20:31  5-MIN KAQV 261020Z AUTO 00000KT 1/2SM FG VV002 23/22 A2995 350 97 1400 000/00 RMK AO2 T02280222
03949KAQV AQV20160726042511407/26/16 04:25:31  5-MIN KAQV 261025Z AUTO 00000KT 1/2SM FG VV002 23/22 A2995 350 97 1400 000/00 RMK AO2 T02280222
03949KAQV AQV20160726043011407/26/16 04:30:31  5-MIN KAQV 261030Z AUTO 00000KT 1/2SM FG VV002 23/22 A2995 350 97 1400 000/00 RMK AO2 T02280222
03949KAQV AQV20160726043511407/26/16 04:35:31  5-MIN KAQV 261035Z AUTO 00000KT 1/4SM FG VV002 23/22 A2994 350 97 1400 000/00 RMK AO2 T02280222
03949KAQV AQV20160726044011407/26/16 04:40:31  5-MIN KAQV 261040Z AUTO 00000KT 1/4SM FG VV002 23/22 A2994 350 97 1400 000/00 RMK AO2 T02280222
03949KAQV AQV20160726044511407/26/16 04:45:31  5-MIN KAQV 261045Z AUTO 00000KT 1/4SM FG VV002 23/22 A2995 350 97 1400 000/00 RMK AO2 T02280222
03949KAQV AQV20160726045012107/26/16 04:50:31  5-MIN KAQV 261050Z AUTO 00000KT 1/4SM FG VV002 23/22 A2994 350 97 1400 000/00 RMK AO2 SLP137 T02280222
03949KAQV AQV20160726045512207/26/16 04:55:31  5-MIN KAQV 261055Z AUTO 00000KT 1/4SM FG VV002 22/22 A2994 360 100 1300 000/00 RMK AO2 SLP136 T02220222
03949KAQV AQV20160726050011507/26/16 05:00:31  5-MIN KAQV 261100Z AUTO 00000KT 1/4SM FG VV002 22/22 A2994 350 100 1300 000/00 RMK AO2 T02220222
03949KAQV AQV20160726050511507/26/16 05:05:31  5-MIN KAQV 261105Z AUTO 00000KT 1/2SM FG VV002 22/22 A2995 350 100 1300 000/00 RMK AO2 T02220222
03949KAQV AQV20160726051011407/26/16 05:10:31  5-MIN KAQV 261110Z AUTO 00000KT 1/2SM FG VV002 22/22 A2995 350 97 1300 000/00 RMK AO2 T02220217
03949KAQV AQV20160726051511407/26/16 05:15:31  5-MIN KAQV 261115Z AUTO 00000KT 1/2SM FG VV002 22/22 A2995 350 97 1300 000/00 RMK AO2 T02220217
03949KAQV AQV20160726052011407/26/16 05:20:31  5-MIN KAQV 261120Z AUTO 00000KT 1/2SM FG VV002 22/22 A2995 350 97 1300 000/00 RMK AO2 T02220217
03949KAQV AQV20160726052511407/26/16 05:25:31  5-MIN KAQV 261125Z AUTO 00000KT 1/2SM FG VV002 22/22 A2994 360 97 1300 000/00 RMK AO2 T02220217
03949KAQV AQV20160726053011407/26/16 05:30:31  5-MIN KAQV 261130Z AUTO 00000KT 1/4SM FG VV002 22/22 A2994 360 97 1300 000/00 RMK AO2 T02220217
03949KAQV AQV20160726053511407/26/16 05:35:31  5-MIN KAQV 261135Z AUTO 00000KT 1/4SM FG VV002 22/22 A2994 350 97 1300 000/00 RMK AO2 T02220217
03949KAQV AQV20160726054011407/26/16 05:40:31  5-MIN KAQV 261140Z AUTO 07003KT 1/4SM FG VV002 22/22 A2994 350 97 1300 060/03 RMK AO2 T02220217
03949KAQV AQV20160726054511407/26/16 05:45:31  5-MIN KAQV 261145Z AUTO 00000KT 1/4SM FG VV002 22/22 A2994 350 97 1300 000/00 RMK AO2 T02220217
03949KAQV AQV20160726055014507/26/16 05:50:31  5-MIN KAQV 261150Z AUTO 00000KT 1/4SM FG VV002 22/22 A2995 350 97 1300 000/00 RMK AO2 SLP138 70001 T02220217 10228 20222 53010
03949KAQV AQV20160726055514607/26/16 05:55:31  5-MIN KAQV 261155Z AUTO 00000KT 1/4SM FG VV002 22/22 A2995 350 100 1300 000/00 RMK AO2 SLP138 70001 T02220222 10228 20222 53010
03949KAQV AQV20160726060011507/26/16 06:00:31  5-MIN KAQV 261200Z AUTO 00000KT 1/4SM FG VV002 22/22 A2995 350 100 1300 000/00 RMK AO2 T02220222
03949KAQV AQV20160726060511507/26/16 06:05:31  5-MIN KAQV 261205Z AUTO 00000KT 1/4SM FG VV002 22/22 A2995 350 100 1300 000/00 RMK AO2 T02220222
03949KAQV AQV20160726061011407/26/16 06:10:31  5-MIN KAQV 261210Z AUTO 00000KT 1/4SM FG VV002 23/22 A2995 350 97 1400 000/00 RMK AO2 T02280222
03949KAQV AQV20160726061511507/26/16 06:15:31  5-MIN KAQV 261215Z AUTO 00000KT 1/4SM FG VV002 22/22 A2995 350 100 1300 000/00 RMK AO2 T02220222
03949KAQV AQV20160726062011407/26/16 06:20:31  5-MIN KAQV 261220Z AUTO 00000KT 1/4SM FG VV002 23/22 A2995 350 97 1400 000/00 RMK AO2 T02280222
03949KAQV AQV20160726062511407/26/16 06:25:31  5-MIN KAQV 261225Z AUTO 00000KT 1/4SM FG VV002 23/22 A2995 350 97 1400 000/00 RMK AO2 T02280222
03949KAQV AQV20160726063011407/26/16 06:30:31  5-MIN KAQV 261230Z AUTO 00000KT 1/4SM FG VV002 23/22 A2995 350 97 1400 000/00 RMK AO2 T02280222
03949KAQV AQV20160726063511407/26/16 06:35:31  5-MIN KAQV 261235Z AUTO 00000KT 1/2SM FG VV002 23/22 A2995 350 97 1400 000/00 RMK AO2 T02280222
03949KAQV AQV20160726064011607/26/16 06:40:31  5-MIN KAQV 261240Z AUTO 00000KT 3/4SM BR OVC002 23/23 A2995 350 100 1400 000/00 RMK AO2 T02280228
03949KAQV AQV20160726064511707/26/16 06:45:31  5-MIN KAQV 261245Z AUTO 00000KT 1 1/2SM BR OVC002 23/23 A2995 350 97 1400 000/00 RMK AO2 T02330228
03949KAQV AQV20160726065010407/26/16 06:50:31  5-MIN KAQV 261250Z AUTO 00000KT 4SM BR OVC002 23/23 A2995 350 100 1400 000/00 RMK AO2
03949KAQV AQV20160726065512007/26/16 06:55:31  5-MIN KAQV 261255Z AUTO 00000KT 6SM BR OVC002 23/23 A2995 350 97 1400 000/00 RMK AO2 SLP138 T02330228
03949KAQV AQV20160726070011007/26/16 07:00:31  5-MIN KAQV 261300Z AUTO 00000KT 8SM OVC002 23/23 A2995 350 97 1400 000/00 RMK AO2 T02330228
03949KAQV AQV20160726070511207/26/16 07:05:31  5-MIN KAQV 261305Z AUTO 00000KT 10SM OVC002 23/23 A2995 350 100 1400 000/00 RMK AO2 T02330233
03949KAQV AQV20160726071011107/26/16 07:10:31  5-MIN KAQV 261310Z AUTO 00000KT 10SM OVC002 24/23 A2995 350 97 1500 000/00 RMK AO2 T02390233
03949KAQV AQV20160726071511107/26/16 07:15:31  5-MIN KAQV 261315Z AUTO 00000KT 10SM OVC003 24/23 A2995 350 93 1500 000/00 RMK AO2 T02390228
03949KAQV AQV20160726072012307/26/16 07:20:31  5-MIN KAQV 261320Z AUTO 00000KT 10SM OVC003 23/23 A2995 350 97 1400 000/00 RMK AO2 CIG 002V006 T02330228
03949KAQV AQV20160726072512307/26/16 07:25:31  5-MIN KAQV 261325Z AUTO 07004KT 10SM OVC003 24/23 A2995 350 93 1500 070/04 RMK AO2 CIG 002V006 T02390228
03949KAQV AQV20160726073012307/26/16 07:30:31  5-MIN KAQV 261330Z AUTO 06003KT 10SM OVC004 24/23 A2995 350 97 1500 050/03 RMK AO2 CIG 003V007 T02390233
03949KAQV AQV20160726073511107/26/16 07:35:31  5-MIN KAQV 261335Z AUTO 00000KT 10SM BKN004 24/23 A2995 350 97 1500 000/00 RMK AO2 T02390233
03949KAQV AQV20160726074011107/26/16 07:40:31  5-MIN KAQV 261340Z AUTO 11003KT 10SM BKN005 24/23 A2995 350 97 1500 110/03 RMK AO2 T02390233
03949KAQV AQV20160726074511107/26/16 07:45:31  5-MIN KAQV 261345Z AUTO VRB03KT 10SM BKN005 24/23 A2995 350 97 1500 VRB/03 RMK AO2 T02390233
03949KAQV AQV20160726075011807/26/16 07:50:31  5-MIN KAQV 261350Z AUTO VRB03KT 10SM BKN005 24/23 A2995 350 93 1500 VRB/03 RMK AO2 SLP138 T02390228
03949KAQV AQV20160726075513007/26/16 07:55:31  5-MIN KAQV 261355Z AUTO 00000KT 10SM BKN005 24/23 A2995 350 93 1500 000/00 RMK AO2 CIG 005V009 SLP140 T02390228
03949KAQV AQV20160726080012307/26/16 08:00:31  5-MIN KAQV 261400Z AUTO 00000KT 10SM BKN007 24/23 A2995 350 93 1500 000/00 RMK AO2 CIG 005V009 T02390228
03949KAQV AQV20160726080512307/26/16 08:05:31  5-MIN KAQV 261405Z AUTO 07004KT 10SM BKN007 24/23 A2995 350 93 1500 070/04 RMK AO2 CIG 005V010 T02390228
03949KAQV AQV20160726081012307/26/16 08:10:31  5-MIN KAQV 261410Z AUTO VRB04KT 10SM BKN007 24/23 A2995 350 93 1500 VRB/04 RMK AO2 CIG 006V011 T02390228
03949KAQV AQV20160726081512307/26/16 08:15:31  5-MIN KAQV 261415Z AUTO 00000KT 10SM BKN009 24/23 A2995 350 93 1500 000/00 RMK AO2 CIG 006V012 T02390228
03949KAQV AQV20160726082013007/26/16 08:20:31  5-MIN KAQV 261420Z AUTO VRB03KT 10SM BKN009 BKN013 24/23 A2995 350 93 1500 VRB/03 RMK AO2 CIG 006V011 T02390228
03949KAQV AQV20160726082513007/26/16 08:25:31  5-MIN KAQV 261425Z AUTO 08003KT 10SM BKN009 OVC013 24/23 A2995 350 93 1500 070/03 RMK AO2 CIG 007V012 T02390228
03949KAQV AQV20160726083011107/26/16 08:30:31  5-MIN KAQV 261430Z AUTO 00000KT 10SM OVC012 24/23 A2995 350 93 1600 000/00 RMK AO2 T02440233
03949KAQV AQV20160726083511107/26/16 08:35:31  5-MIN KAQV 261435Z AUTO VRB03KT 10SM OVC012 24/23 A2995 350 93 1600 VRB/03 RMK AO2 T02440233
03949KAQV AQV20160726084011107/26/16 08:40:31  5-MIN KAQV 261440Z AUTO VRB03KT 10SM OVC012 26/23 A2995 350 87 1700 VRB/03 RMK AO2 T02560233
03949KAQV AQV20160726084511107/26/16 08:45:31  5-MIN KAQV 261445Z AUTO VRB03KT 10SM OVC012 26/23 A2995 350 81 1800 VRB/03 RMK AO2 T02610228
03949KAQV AQV20160726085012407/26/16 08:50:31  5-MIN KAQV 261450Z AUTO 07005KT 10SM OVC012 26/23 A2995 350 81 1800 060/05 RMK AO2 SLP138 T02610228 53002
03949KAQV AQV20160726085512407/26/16 08:55:31  5-MIN KAQV 261455Z AUTO VRB03KT 10SM OVC012 26/23 A2995 350 81 1800 VRB/03 RMK AO2 SLP138 T02610228 53002
03949KAQV AQV20160726090011107/26/16 09:00:31  5-MIN KAQV 261500Z AUTO 05004KT 10SM OVC012 26/23 A2995 350 84 1700 050/04 RMK AO2 T02610233
03949KAQV AQV20160726090511107/26/16 09:05:31  5-MIN KAQV 261505Z AUTO VRB04KT 10SM OVC012 26/23 A2995 350 81 1700 VRB/04 RMK AO2 T02610228
03949KAQV AQV20160726091011107/26/16 09:10:31  5-MIN KAQV 261510Z AUTO VRB04KT 10SM OVC012 27/23 A2995 340 79 1800 VRB/04 RMK AO2 T02670228
03949KAQV AQV20160726091511107/26/16 09:15:31  5-MIN KAQV 261515Z AUTO VRB04KT 10SM OVC012 27/23 A2995 340 82 1800 VRB/04 RMK AO2 T02670233
03949KAQV AQV20160726092011107/26/16 09:20:31  5-MIN KAQV 261520Z AUTO VRB05KT 10SM OVC012 27/23 A2995 340 82 1800 VRB/05 RMK AO2 T02670233
03949KAQV AQV20160726092511107/26/16 09:25:31  5-MIN KAQV 261525Z AUTO 00000KT 10SM OVC012 27/23 A2996 340 79 1800 000/00 RMK AO2 T02670228
03949KAQV AQV20160726093011107/26/16 09:30:31  5-MIN KAQV 261530Z AUTO VRB03KT 10SM OVC014 27/23 A2996 340 79 1900 VRB/03 RMK AO2 T02720233
03949KAQV AQV20160726093511107/26/16 09:35:31  5-MIN KAQV 261535Z AUTO VRB03KT 10SM BKN014 27/23 A2996 340 76 1900 VRB/03 RMK AO2 T02720228
03949KAQV AQV20160726094011807/26/16 09:40:31  5-MIN KAQV 261540Z AUTO VRB03KT 10SM BKN014 BKN019 28/23 A2996 340 74 2000 VRB/03 RMK AO2 T02830233
03949KAQV AQV20160726094511107/26/16 09:45:31  5-MIN KAQV 261545Z AUTO VRB05KT 10SM BKN016 28/23 A2996 340 74 1900 VRB/05 RMK AO2 T02780228
03949KAQV AQV20160726095011807/26/16 09:50:31  5-MIN KAQV 261550Z AUTO VRB03KT 10SM BKN018 28/23 A2996 340 74 1900 VRB/03 RMK AO2 SLP142 T02780228
03949KAQV AQV20160726095512507/26/16 09:55:31  5-MIN KAQV 261555Z AUTO 00000KT 10SM BKN018 BKN023 28/23 A2996 340 74 2000 000/00 RMK AO2 SLP141 T02830233
03949KAQV AQV20160726100011807/26/16 10:00:31  5-MIN KAQV 261600Z AUTO VRB05KT 10SM BKN018 BKN023 29/23 A2996 340 71 2100 VRB/05 RMK AO2 T02890233
03949KAQV AQV20160726100511107/26/16 10:05:31  5-MIN KAQV 261605Z AUTO VRB05KT 10SM BKN020 29/23 A2996 340 69 2100 VRB/05 RMK AO2 T02890228
03949KAQV AQV20160726101011107/26/16 10:10:31  5-MIN KAQV 261610Z AUTO VRB04KT 10SM BKN020 29/23 A2996 340 69 2100 VRB/04 RMK AO2 T02940233
03949KAQV AQV20160726101511107/26/16 10:15:31  5-MIN KAQV 261615Z AUTO VRB04KT 10SM BKN020 29/23 A2995 350 69 2100 VRB/04 RMK AO2 T02940233
03949KAQV AQV20160726102011107/26/16 10:20:31  5-MIN KAQV 261620Z AUTO VRB04KT 10SM BKN020 29/23 A2995 350 69 2100 VRB/04 RMK AO2 T02940233
03949KAQV AQV20160726102511107/26/16 10:25:31  5-MIN KAQV 261625Z AUTO VRB05KT 10SM BKN020 30/23 A2995 350 67 2200 VRB/05 RMK AO2 T03000233
03949KAQV AQV20160726103011807/26/16 10:30:31  5-MIN KAQV 261630Z AUTO VRB04KT 10SM SCT020 SCT027 29/23 A2995 350 69 2100 VRB/04 RMK AO2 T02890228
03949KAQV AQV20160726103511107/26/16 10:35:31  5-MIN KAQV 261635Z AUTO VRB05KT 10SM BKN021 29/23 A2995 350 71 2100 VRB/05 RMK AO2 T02890233
03949KAQV AQV20160726104011807/26/16 10:40:31  5-MIN KAQV 261640Z AUTO VRB03KT 10SM SCT021 SCT026 29/23 A2995 350 69 2100 VRB/03 RMK AO2 T02940233
03949KAQV AQV20160726104511107/26/16 10:45:31  5-MIN KAQV 261645Z AUTO VRB03KT 10SM BKN024 29/23 A2995 350 67 2100 VRB/03 RMK AO2 T02940228
03949KAQV AQV20160726105011807/26/16 10:50:31  5-MIN KAQV 261650Z AUTO VRB03KT 10SM BKN026 29/23 A2995 350 69 2100 VRB/03 RMK AO2 SLP138 T02940233
03949KAQV AQV20160726105511807/26/16 10:55:31  5-MIN KAQV 261655Z AUTO VRB05KT 10SM BKN024 30/23 A2995 350 67 2200 VRB/05 RMK AO2 SLP138 T03000233
03949KAQV AQV20160726110011107/26/16 11:00:31  5-MIN KAQV 261700Z AUTO VRB03KT 10SM BKN024 30/23 A2995 350 65 2200 VRB/03 RMK AO2 T03000228
03949KAQV AQV20160726110511807/26/16 11:05:31  5-MIN KAQV 261705Z AUTO 08004KT 10SM BKN025 BKN030 29/23 A2995 350 67 2100 070/04 RMK AO2 T02940228
03949KAQV AQV20160726111011807/26/16 11:10:31  5-MIN KAQV 261710Z AUTO 08006KT 10SM BKN025 BKN032 29/23 A2995 350 67 2100 070/06 RMK AO2 T02940228
03949KAQV AQV20160726111511807/26/16 11:15:31  5-MIN KAQV 261715Z AUTO VRB04KT 10SM BKN025 BKN032 30/23 A2995 350 65 2200 VRB/04 RMK AO2 T03000228
03949KAQV AQV20160726112011807/26/16 11:20:31  5-MIN KAQV 261720Z AUTO VRB04KT 10SM BKN025 BKN032 30/23 A2995 350 65 2200 VRB/04 RMK AO2 T03000228
03949KAQV AQV20160726112511807/26/16 11:25:31  5-MIN KAQV 261725Z AUTO 06005KT 10SM BKN025 BKN032 31/23 A2995 350 62 2200 060/05 RMK AO2 T03060228
03949KAQV AQV20160726113011507/26/16 11:30:31  5-MIN KAQV 261730Z AUTO 10SM BKN025 BKN032 BKN040 31/23 A2995 350 62 2300 M /M RMK AO2 T03060228
03949KAQV AQV20160726113511807/26/16 11:35:31  5-MIN KAQV 261735Z AUTO 06004KT 10SM BKN025 OVC037 30/23 A2995 350 65 2200 060/04 RMK AO2 T03000228
03949KAQV AQV20160726114013407/26/16 11:40:31  5-MIN KAQV 261740Z AUTO 06007KT 030V110 10SM SCT027 BKN037 31/23 A2994 360 60 2300 060/07 030V110 RMK AO2 T03110228
03949KAQV AQV20160726114512507/26/16 11:45:31  5-MIN KAQV 261745Z AUTO VRB04KT 10SM SCT027 SCT034 SCT041 31/23 A2994 360 60 2300 VRB/04 RMK AO2 T03110228
03949KAQV AQV20160726115015007/26/16 11:50:31  5-MIN KAQV 261750Z AUTO VRB04KT 10SM FEW025 SCT034 SCT041 32/23 A2994 360 58 2400 VRB/04 RMK AO2 SLP136 T03170228 10317 20222 50001
03949KAQV AQV20160726115515007/26/16 11:55:31  5-MIN KAQV 261755Z AUTO VRB05KT 10SM FEW027 SCT034 SCT041 32/23 A2994 360 58 2400 VRB/05 RMK AO2 SLP135 T03170228 10317 20222 50001
03949KAQV AQV20160726120011807/26/16 12:00:31  5-MIN KAQV 261800Z AUTO VRB04KT 10SM FEW030 SCT038 32/23 A2994 360 58 2400 VRB/04 RMK AO2 T03170228
03949KAQV AQV20160726120511807/26/16 12:05:31  5-MIN KAQV 261805Z AUTO VRB06KT 10SM FEW028 SCT038 31/23 A2994 360 62 2300 VRB/06 RMK AO2 T03060228
03949KAQV AQV20160726121011807/26/16 12:10:31  5-MIN KAQV 261810Z AUTO VRB05KT 10SM SCT030 BKN038 31/23 A2994 360 62 2300 VRB/05 RMK AO2 T03060228
03949KAQV AQV20160726121511807/26/16 12:15:31  5-MIN KAQV 261815Z AUTO 04005KT 10SM SCT030 BKN038 31/23 A2994 360 62 2300 040/05 RMK AO2 T03060228
03949KAQV AQV20160726122011807/26/16 12:20:31  5-MIN KAQV 261820Z AUTO 08004KT 10SM SCT030 BKN041 31/23 A2994 360 62 2300 070/04 RMK AO2 T03060228
03949KAQV AQV20160726122510807/26/16 12:25:31  5-MIN KAQV 261825Z AUTO 10SM SCT030 BKN039 32/23 A2993 360 58 2400 M /M RMK AO2 T03170228
03949KAQV AQV20160726123011807/26/16 12:30:31  5-MIN KAQV 261830Z AUTO VRB03KT 10SM SCT030 BKN041 31/23 A2994 360 62 2300 VRB/03 RMK AO2 T03060228
03949KAQV AQV20160726123512507/26/16 12:35:31  5-MIN KAQV 261835Z AUTO VRB06KT 10SM SCT030 SCT036 BKN043 31/23 A2993 360 60 2300 VRB/06 RMK AO2 T03110228
03949KAQV AQV20160726124012507/26/16 12:40:31  5-MIN KAQV 261840Z AUTO VRB03KT 10SM FEW028 SCT040 SCT060 32/23 A2993 370 58 2400 VRB/03 RMK AO2 T03170228
03949KAQV AQV20160726124511807/26/16 12:45:31  5-MIN KAQV 261845Z AUTO VRB03KT 10SM FEW032 FEW041 31/22 A2993 370 58 2300 VRB/03 RMK AO2 T03110222
03949KAQV AQV20160726125012507/26/16 12:50:31  5-MIN KAQV 261850Z AUTO VRB03KT 10SM FEW032 SCT041 32/22 A2993 370 56 2400 VRB/03 RMK AO2 SLP131 T03170222
03949KAQV AQV20160726125512507/26/16 12:55:31  5-MIN KAQV 261855Z AUTO VRB05KT 10SM SCT035 SCT043 31/22 A2993 370 58 2300 VRB/05 RMK AO2 SLP130 T03110222
03949KAQV AQV20160726130011807/26/16 13:00:31  5-MIN KAQV 261900Z AUTO VRB03KT 10SM SCT035 SCT043 32/23 A2992 370 58 2400 VRB/03 RMK AO2 T03170228
03949KAQV AQV20160726130511807/26/16 13:05:31  5-MIN KAQV 261905Z AUTO 07007KT 10SM SCT036 SCT044 32/23 A2992 380 57 2500 060/07 RMK AO2 T03220228
03949KAQV AQV20160726131011807/26/16 13:10:31  5-MIN KAQV 261910Z AUTO VRB05KT 10SM SCT036 BKN045 32/22 A2992 380 55 2500 VRB/05 RMK AO2 T03220222
03949KAQV AQV20160726131511807/26/16 13:15:31  5-MIN KAQV 261915Z AUTO 00000KT 10SM SCT034 BKN043 31/22 A2992 380 58 2300 000/00 RMK AO2 T03110222
03949KAQV AQV20160726132011807/26/16 13:20:31  5-MIN KAQV 261920Z AUTO VRB03KT 10SM SCT034 BKN046 31/23 A2992 380 60 2300 VRB/03 RMK AO2 T03110228
03949KAQV AQV20160726132512507/26/16 13:25:31  5-MIN KAQV 261925Z AUTO VRB05KT 10SM FEW036 SCT043 SCT049 32/23 A2991 380 57 2500 VRB/05 RMK AO2 T03220228
03949KAQV AQV20160726133011807/26/16 13:30:31  5-MIN KAQV 261930Z AUTO VRB04KT 10SM FEW036 SCT043 32/22 A2991 390 55 2500 VRB/04 RMK AO2 T03220222
03949KAQV AQV20160726133511807/26/16 13:35:31  5-MIN KAQV 261935Z AUTO VRB06KT 10SM FEW036 FEW046 33/22 A2991 390 53 2500 VRB/06 RMK AO2 T03280222
03949KAQV AQV20160726134011107/26/16 13:40:31  5-MIN KAQV 261940Z AUTO VRB03KT 10SM FEW036 33/23 A2990 390 55 2500 VRB/03 RMK AO2 T03280228
03949KAQV AQV20160726134510807/26/16 13:45:31  5-MIN KAQV 261945Z AUTO 00000KT 10SM CLR 32/22 A2990 400 55 2500 000/00 RMK AO2 T03220222
03949KAQV AQV20160726135011507/26/16 13:50:31  5-MIN KAQV 261950Z AUTO VRB03KT 10SM CLR 33/22 A2989 400 53 2600 VRB/03 RMK AO2 SLP119 T03280222
03949KAQV AQV20160726135511807/26/16 13:55:31  5-MIN KAQV 261955Z AUTO 18005KT 10SM FEW038 33/22 A2989 400 53 2600 170/05 RMK AO2 SLP118 T03280222
03949KAQV AQV20160726140011107/26/16 14:00:31  5-MIN KAQV 262000Z AUTO VRB04KT 10SM FEW040 33/22 A2989 410 51 2600 VRB/04 RMK AO2 T03330222
03949KAQV AQV20160726140511107/26/16 14:05:31  5-MIN KAQV 262005Z AUTO VRB05KT 10SM SCT040 33/22 A2988 410 51 2600 VRB/05 RMK AO2 T03330222
03949KAQV AQV20160726141011107/26/16 14:10:31  5-MIN KAQV 262010Z AUTO 17004KT 10SM SCT040 33/22 A2988 410 51 2600 160/04 RMK AO2 T03280217
03949KAQV AQV20160726141511107/26/16 14:15:31  5-MIN KAQV 262015Z AUTO VRB05KT 10SM SCT040 33/22 A2988 410 51 2600 VRB/05 RMK AO2 T03280217
03949KAQV AQV20160726142011107/26/16 14:20:31  5-MIN KAQV 262020Z AUTO VRB05KT 10SM SCT040 33/22 A2988 410 51 2600 VRB/05 RMK AO2 T03330222
03949KAQV AQV20160726142511107/26/16 14:25:31  5-MIN KAQV 262025Z AUTO VRB06KT 10SM SCT040 33/22 A2988 420 50 2600 VRB/06 RMK AO2 T03330217
03949KAQV AQV20160726143011107/26/16 14:30:31  5-MIN KAQV 262030Z AUTO VRB03KT 10SM FEW042 33/22 A2987 420 51 2600 VRB/03 RMK AO2 T03280217
03949KAQV AQV20160726143511107/26/16 14:35:31  5-MIN KAQV 262035Z AUTO VRB03KT 10SM FEW042 33/22 A2987 420 51 2600 VRB/03 RMK AO2 T03280217
03949KAQV AQV20160726144011107/26/16 14:40:31  5-MIN KAQV 262040Z AUTO VRB04KT 10SM FEW042 33/22 A2987 420 51 2600 VRB/04 RMK AO2 T03330222
03949KAQV AQV20160726144510807/26/16 14:45:31  5-MIN KAQV 262045Z AUTO VRB04KT 10SM CLR 33/22 A2987 430 51 2600 VRB/04 RMK AO2 T03330222
03949KAQV AQV20160726145012107/26/16 14:50:31  5-MIN KAQV 262050Z AUTO 14004KT 10SM CLR 33/22 A2987 430 51 2600 140/04 RMK AO2 SLP109 T03330222 58003
03949KAQV AQV20160726145512107/26/16 14:55:31  5-MIN KAQV 262055Z AUTO VRB03KT 10SM CLR 33/22 A2986 430 51 2600 VRB/03 RMK AO2 SLP108 T03280217 58003
03949KAQV AQV20160726150011107/26/16 15:00:31  5-MIN KAQV 262100Z AUTO VRB03KT 10SM FEW042 33/22 A2986 430 51 2600 VRB/03 RMK AO2 T03280217
03949KAQV AQV20160726150512707/26/16 15:05:31  5-MIN KAQV 262105Z AUTO 16007KT 120V190 10SM SCT042 33/21 A2986 430 48 2700 160/07 120V190 RMK AO2 T03330211
03949KAQV AQV20160726151011107/26/16 15:10:31  5-MIN KAQV 262110Z AUTO VRB03KT 10SM SCT042 34/22 A2986 440 48 2700 VRB/03 RMK AO2 T03390217
03949KAQV AQV20160726151511107/26/16 15:15:31  5-MIN KAQV 262115Z AUTO VRB03KT 10SM FEW041 33/22 A2986 440 51 2600 VRB/03 RMK AO2 T03280217
03949KAQV AQV20160726152011107/26/16 15:20:31  5-MIN KAQV 262120Z AUTO 17006KT 10SM FEW041 33/22 A2986 430 50 2700 170/06 RMK AO2 T03330217
03949KAQV AQV20160726152511107/26/16 15:25:31  5-MIN KAQV 262125Z AUTO VRB04KT 10SM FEW041 33/21 A2986 430 49 2600 VRB/04 RMK AO2 T03280211
03949KAQV AQV20160726153011107/26/16 15:30:31  5-MIN KAQV 262130Z AUTO 00000KT 10SM FEW041 33/21 A2986 440 48 2700 000/00 RMK AO2 T03330211
03949KAQV AQV20160726153510807/26/16 15:35:31  5-MIN KAQV 262135Z AUTO VRB03KT 10SM CLR 33/22 A2986 440 50 2700 VRB/03 RMK AO2 T03330217
03949KAQV AQV20160726154012507/26/16 15:40:31  5-MIN KAQV 262140Z AUTO VRB03KT 10SM FEW042 SCT080 SCT095 34/22 A2986 440 48 2700 VRB/03 RMK AO2 T03390217
03949KAQV AQV20160726154511807/26/16 15:45:31  5-MIN KAQV 262145Z AUTO 15005KT 10SM SCT042 BKN085 33/22 A2986 440 50 2700 150/05 RMK AO2 T03330217
03949KAQV AQV20160726155013207/26/16 15:50:31  5-MIN KAQV 262150Z AUTO VRB03KT 10SM SCT043 BKN075 BKN090 32/21 A2985 440 51 2500 VRB/03 RMK AO2 SLP106 T03220211
03949KAQV AQV20160726155513207/26/16 15:55:31  5-MIN KAQV 262155Z AUTO VRB04KT 10SM FEW043 BKN075 BKN090 33/21 A2986 440 48 2700 VRB/04 RMK AO2 SLP106 T03330211
03949KAQV AQV20160726160012507/26/16 16:00:31  5-MIN KAQV 262200Z AUTO 16004KT 10SM FEW043 BKN075 BKN090 33/21 A2986 440 48 2700 160/04 RMK AO2 T03330211
03949KAQV AQV20160726160511807/26/16 16:05:31  5-MIN KAQV 262205Z AUTO VRB04KT 10SM FEW043 SCT075 33/21 A2985 440 46 2700 VRB/04 RMK AO2 T03330206
03949KAQV AQV20160726161011807/26/16 16:10:31  5-MIN KAQV 262210Z AUTO VRB04KT 10SM FEW043 SCT075 34/21 A2986 430 45 2700 VRB/04 RMK AO2 T03390206
03949KAQV AQV20160726161511107/26/16 16:15:31  5-MIN KAQV 262215Z AUTO VRB03KT 10SM FEW075 33/21 A2986 430 46 2700 VRB/03 RMK AO2 T03330206
03949KAQV AQV20160726162011107/26/16 16:20:31  5-MIN KAQV 262220Z AUTO VRB03KT 10SM FEW075 33/21 A2986 430 46 2700 VRB/03 RMK AO2 T03330206
03949KAQV AQV20160726162510807/26/16 16:25:31  5-MIN KAQV 262225Z AUTO 00000KT 10SM CLR 33/21 A2986 440 46 2700 000/00 RMK AO2 T03330206
03949KAQV AQV20160726163010807/26/16 16:30:31  5-MIN KAQV 262230Z AUTO VRB03KT 10SM CLR 34/22 A2986 440 48 2700 VRB/03 RMK AO2 T03390217
03949KAQV AQV20160726163510807/26/16 16:35:31  5-MIN KAQV 262235Z AUTO VRB03KT 10SM CLR 33/22 A2985 440 50 2700 VRB/03 RMK AO2 T03330217
03949KAQV AQV20160726164010807/26/16 16:40:31  5-MIN KAQV 262240Z AUTO 17005KT 10SM CLR 33/21 A2985 440 48 2700 170/05 RMK AO2 T03330211
03949KAQV AQV20160726164510807/26/16 16:45:31  5-MIN KAQV 262245Z AUTO VRB04KT 10SM CLR 33/21 A2985 440 48 2700 VRB/04 RMK AO2 T03330211
03949KAQV AQV20160726165011507/26/16 16:50:31  5-MIN KAQV 262250Z AUTO VRB03KT 10SM CLR 33/21 A2985 440 48 2700 VRB/03 RMK AO2 SLP104 T03330211
03949KAQV AQV20160726165511507/26/16 16:55:31  5-MIN KAQV 262255Z AUTO 19004KT 10SM CLR 33/22 A2985 440 50 2700 180/04 RMK AO2 SLP103 T03330217
03949KAQV AQV20160726170010807/26/16 17:00:31  5-MIN KAQV 262300Z AUTO VRB03KT 10SM CLR 33/21 A2985 440 48 2700 VRB/03 RMK AO2 T03330211
03949KAQV AQV20160726170511107/26/16 17:05:31  5-MIN KAQV 262305Z AUTO 00000KT 10SM FEW046 33/21 A2985 440 49 2600 000/00 RMK AO2 T03280211
03949KAQV AQV20160726171012307/26/16 17:10:31  5-MIN KAQV 262310Z AUTO 00000KT 10SM TS SCT046 32/21 A2986 440 51 2500 000/00 RMK AO2 TSB06B09 T03220211
03949KAQV AQV20160726171512307/26/16 17:15:31  5-MIN KAQV 262315Z AUTO 00000KT 10SM TS SCT048 33/22 A2986 430 51 2600 000/00 RMK AO2 TSB06B09 T03280217
03949KAQV AQV20160726172013007/26/16 17:20:31  5-MIN KAQV 262320Z AUTO 00000KT 10SM TS FEW048 SCT080 33/22 A2986 440 51 2600 000/00 RMK AO2 TSB06B09 T03280217
03949KAQV AQV20160726172513007/26/16 17:25:31  5-MIN KAQV 262325Z AUTO 00000KT 10SM TS SCT048 SCT080 32/22 A2986 430 53 2500 000/00 RMK AO2 TSB06B09 T03220217
03949KAQV AQV20160726173012307/26/16 17:30:31  5-MIN KAQV 262330Z AUTO 04006KT 10SM TS BKN048 33/22 A2986 430 51 2600 040/06 RMK AO2 TSB06B09 T03280217
03949KAQV AQV20160726173512907/26/16 17:35:31  5-MIN KAQV 262335Z AUTO VRB06G16KT 10SM TS BKN046 31/23 A2986 430 62 2300 VRB/06G16 RMK AO2 TSB06B09 T03060228
03949KAQV AQV20160726174013607/26/16 17:40:31  5-MIN KAQV 262340Z AUTO 03006G16KT 10SM BKN046 BKN050 30/23 A2987 430 65 2300 020/06G16 RMK AO2 TSB06B09E40 T03000228
03949KAQV AQV20160726174513007/26/16 17:45:31  5-MIN KAQV 262345Z AUTO 04007KT 10SM SCT046 BKN055 30/23 A2987 420 65 2300 040/07 RMK AO2 TSB06B09E40 T03000228
03949KAQV AQV20160726175016207/26/16 17:50:31  5-MIN KAQV 262350Z AUTO 02006KT 10SM SCT045 BKN055 BKN120 29/23 A2987 420 67 2200 020/06 RMK AO2 TSB06B09E40 SLP111 T02940228 10339 20294 58027
03949KAQV AQV20160726175518407/26/16 17:55:31  5-MIN KAQV 262355Z AUTO 03006KT 10SM -RA SCT043 BKN055 BKN110 29/23 A2987 420 69 2200 020/06 RMK AO2 RAB55 TSB06B09E40 SLP112 P0000 60000 T02890228 10339 20289 58027
03949KAQV AQV20160726180013507/26/16 18:00:31  5-MIN KAQV 270000Z AUTO 04004KT 10SM -RA SCT043 SCT055 BKN110 29/23 A2987 420 69 2200 030/04 RMK AO2 P0000 T02890228
03949KAQV AQV20160726180513507/26/16 18:05:31  5-MIN KAQV 270005Z AUTO 04004KT 10SM -RA FEW041 SCT080 BKN110 29/23 A2987 420 69 2200 040/04 RMK AO2 P0000 T02890228
03949KAQV AQV20160726181014307/26/16 18:10:31  5-MIN KAQV 270010Z AUTO 08003KT 10SM -TSRA FEW035 SCT080 BKN110 28/23 A2988 410 74 2100 080/03 RMK AO2 TSB06 P0000 T02830233
03949KAQV AQV20160726181514607/26/16 18:15:31  5-MIN KAQV 270015Z AUTO 08004KT 10SM TS FEW035 FEW080 BKN110 28/23 A2988 410 76 2000 070/04 RMK AO2 RAE15 TSB06 P0000 T02780233
03949KAQV AQV20160726182014607/26/16 18:20:31  5-MIN KAQV 270020Z AUTO 07004KT 10SM TS FEW038 SCT085 BKN110 28/23 A2988 410 76 2000 070/04 RMK AO2 RAE15 TSB06 P0000 T02780233
03949KAQV AQV20160726182513907/26/16 18:25:31  5-MIN KAQV 270025Z AUTO VRB05KT 10SM TS SCT080 BKN110 28/23 A2989 400 74 2000 VRB/05 RMK AO2 RAE15 TSB06 P0000 T02780228
03949KAQV AQV20160726183014607/26/16 18:30:31  5-MIN KAQV 270030Z AUTO VRB04KT 10SM TS FEW070 SCT080 BKN100 28/23 A2990 400 74 2000 VRB/04 RMK AO2 RAE15 TSB06 P0000 T02780228
03949KAQV AQV20160726183515307/26/16 18:35:31  5-MIN KAQV 270035Z AUTO 10006KT 10SM TS SCT060 BKN080 BKN100 27/23 A2990 390 79 1900 090/06 RMK AO2 RAE15 TSB06 PRESRR P0000 T02670228
03949KAQV AQV20160726184016907/26/16 18:40:31  5-MIN KAQV 270040Z AUTO 12007KT 070V150 10SM TS SCT055 BKN070 BKN080 26/23 A2991 390 84 1700 120/07 070V150 RMK AO2 RAE15 TSB06 PRESRR P0000 T02560228
03949KAQV AQV20160726184514607/26/16 18:45:31  5-MIN KAQV 270045Z AUTO VRB06KT 10SM TS SCT055 BKN065 BKN085 23/22 A2991 380 93 1500 VRB/06 RMK AO2 RAE15 TSB06 P0000 T02330222
03949KAQV AQV20160726185015307/26/16 18:50:31  5-MIN KAQV 270050Z AUTO 11006KT 10SM TS SCT055 SCT065 BKN090 23/22 A2991 380 93 1500 100/06 RMK AO2 RAE15 TSB06 SLP127 P0000 T02330222
03949KAQV AQV20160726185515307/26/16 18:55:31  5-MIN KAQV 270055Z AUTO VRB05KT 10SM TS FEW046 SCT055 BKN090 24/23 A2992 380 93 1500 VRB/05 RMK AO2 RAE15 TSB06 SLP128 P0000 T02390228
03949KAQV AQV20160726190012807/26/16 19:00:31  5-MIN KAQV 270100Z AUTO VRB05KT 10SM TS FEW046 BKN075 OVC090 24/23 A2991 390 93 1500 VRB/05 RMK AO2 T02390228
03949KAQV AQV20160726190511107/26/16 19:05:31  5-MIN KAQV 270105Z AUTO 10SM TS FEW055 BKN090 23/23 A2991 390 97 1500 M /M RMK AO2 T02330228
03949KAQV AQV20160726191012807/26/16 19:10:31  5-MIN KAQV 270110Z AUTO VRB04KT 10SM TS SCT055 BKN080 OVC095 23/23 A2992 380 97 1500 VRB/04 RMK AO2 T02330228
03949KAQV AQV20160726191512807/26/16 19:15:31  5-MIN KAQV 270115Z AUTO VRB04KT 10SM TS SCT055 SCT075 BKN090 23/23 A2992 380 97 1500 VRB/04 RMK AO2 T02330228
03949KAQV AQV20160726192012807/26/16 19:20:31  5-MIN KAQV 270120Z AUTO VRB03KT 10SM TS FEW060 SCT075 BKN090 23/22 A2991 380 93 1500 VRB/03 RMK AO2 T02330222
03949KAQV AQV20160726192512107/26/16 19:25:31  5-MIN KAQV 270125Z AUTO VRB04KT 10SM TS FEW055 SCT080 23/22 A2991 380 93 1500 VRB/04 RMK AO2 T02330222
03949KAQV AQV20160726193012107/26/16 19:30:31  5-MIN KAQV 270130Z AUTO VRB05KT 10SM TS FEW055 SCT080 23/22 A2992 380 93 1500 VRB/05 RMK AO2 T02330222
03949KAQV AQV20160726193511407/26/16 19:35:31  5-MIN KAQV 270135Z AUTO VRB04KT 10SM TS FEW055 23/22 A2992 380 93 1500 VRB/04 RMK AO2 T02330222
03949KAQV AQV20160726194011107/26/16 19:40:31  5-MIN KAQV 270140Z AUTO 18003KT 10SM TS CLR 23/22 A2992 380 93 1500 180/03 RMK AO2 T02330222
03949KAQV AQV20160726194511107/26/16 19:45:31  5-MIN KAQV 270145Z AUTO 19004KT 10SM TS CLR 23/22 A2992 380 93 1500 180/04 RMK AO2 T02330222
03949KAQV AQV20160726195012107/26/16 19:50:31  5-MIN KAQV 270150Z AUTO 18003KT 10SM TS FEW070 23/22 A2992 380 93 1500 180/03 RMK AO2 SLP129 T02330222
03949KAQV AQV20160726195512107/26/16 19:55:31  5-MIN KAQV 270155Z AUTO VRB04KT 10SM TS FEW070 23/23 A2992 380 97 1500 VRB/04 RMK AO2 SLP129 T02330228
03949KAQV AQV20160726200012107/26/16 20:00:31  5-MIN KAQV 270200Z AUTO 18005KT 10SM TS FEW060 SCT075 23/22 A2992 370 93 1500 180/05 RMK AO2 T02330222
03949KAQV AQV20160726200512107/26/16 20:05:31  5-MIN KAQV 270205Z AUTO VRB04KT 10SM TS FEW060 FEW075 23/22 A2992 380 93 1500 VRB/04 RMK AO2 T02330222
03949KAQV AQV20160726201011407/26/16 20:10:31  5-MIN KAQV 270210Z AUTO 00000KT 10SM TS FEW075 23/23 A2992 380 97 1500 000/00 RMK AO2 T02330228
03949KAQV AQV20160726201511407/26/16 20:15:31  5-MIN KAQV 270215Z AUTO 00000KT 10SM TS FEW075 23/23 A2992 380 97 1500 000/00 RMK AO2 T02330228
03949KAQV AQV20160726202011407/26/16 20:20:31  5-MIN KAQV 270220Z AUTO 00000KT 10SM TS FEW080 23/23 A2992 370 97 1500 000/00 RMK AO2 T02330228
03949KAQV AQV20160726202511107/26/16 20:25:31  5-MIN KAQV 270225Z AUTO 26003KT 10SM TS CLR 23/23 A2993 370 97 1500 260/03 RMK AO2 T02330228
03949KAQV AQV20160726203011107/26/16 20:30:31  5-MIN KAQV 270230Z AUTO 25003KT 10SM TS CLR 23/23 A2993 370 97 1500 250/03 RMK AO2 T02330228
03949KAQV AQV20160726203512107/26/16 20:35:31  5-MIN KAQV 270235Z AUTO VRB03KT 10SM TS FEW055 FEW110 23/23 A2993 370 97 1500 VRB/03 RMK AO2 T02330228
03949KAQV AQV20160726204012107/26/16 20:40:31  5-MIN KAQV 270240Z AUTO 00000KT 10SM TS FEW050 SCT110 23/23 A2992 370 97 1500 000/00 RMK AO2 T02330228
03949KAQV AQV20160726204512407/26/16 20:45:31  5-MIN KAQV 270245Z AUTO 00000KT 10SM FEW050 SCT120 23/23 A2992 370 97 1500 000/00 RMK AO2 TSE41 T02330228
03949KAQV AQV20160726205014307/26/16 20:50:31  5-MIN KAQV 270250Z AUTO 36003KT 10SM FEW050 SCT120 23/23 A2993 370 97 1500 350/03 RMK AO2 TSE41 SLP130 60000 T02330228 53004
03949KAQV AQV20160726205514307/26/16 20:55:31  5-MIN KAQV 270255Z AUTO 00000KT 10SM FEW050 FEW120 23/23 A2993 370 97 1500 000/00 RMK AO2 TSE41 SLP131 60000 T02330228 53004
03949KAQV AQV20160726210011807/26/16 21:00:31  5-MIN KAQV 270300Z AUTO 00000KT 10SM FEW050 FEW120 23/23 A2993 370 97 1500 000/00 RMK AO2 T02330228
03949KAQV AQV20160726210511107/26/16 21:05:31  5-MIN KAQV 270305Z AUTO 00000KT 10SM FEW120 23/23 A2992 370 97 1500 000/00 RMK AO2 T02330228
03949KAQV AQV20160726211011107/26/16 21:10:31  5-MIN KAQV 270310Z AUTO 00000KT 10SM FEW120 23/23 A2992 380 97 1500 000/00 RMK AO2 T02330228
03949KAQV AQV20160726211510807/26/16 21:15:31  5-MIN KAQV 270315Z AUTO 00000KT 10SM CLR 23/23 A2993 370 97 1500 000/00 RMK AO2 T02330228
03949KAQV AQV20160726212010807/26/16 21:20:31  5-MIN KAQV 270320Z AUTO 05003KT 10SM CLR 23/23 A2993 370 97 1500 040/03 RMK AO2 T02330228
03949KAQV AQV20160726212510807/26/16 21:25:31  5-MIN KAQV 270325Z AUTO 00000KT 10SM CLR 23/23 A2993 370 97 1500 000/00 RMK AO2 T02330228
03949KAQV AQV20160726213010807/26/16 21:30:31  5-MIN KAQV 270330Z AUTO 00000KT 10SM CLR 23/23 A2993 370 97 1500 000/00 RMK AO2 T02330228
03949KAQV AQV20160726213510807/26/16 21:35:31  5-MIN KAQV 270335Z AUTO 00000KT 10SM CLR 23/23 A2992 370 97 1500 000/00 RMK AO2 T02330228
03949KAQV AQV20160726214010807/26/16 21:40:31  5-MIN KAQV 270340Z AUTO 00000KT 10SM CLR 23/23 A2992 370 97 1500 000/00 RMK AO2 T02330228
03949KAQV AQV20160726214510807/26/16 21:45:31  5-MIN KAQV 270345Z AUTO 00000KT 10SM CLR 23/23 A2992 370 97 1500 000/00 RMK AO2 T02330228
03949KAQV AQV20160726215011507/26/16 21:50:31  5-MIN KAQV 270350Z AUTO 00000KT 10SM CLR 23/23 A2992 380 97 1500 000/00 RMK AO2 SLP128 T02330228
03949KAQV AQV20160726215511507/26/16 21:55:31  5-MIN KAQV 270355Z AUTO 00000KT 10SM CLR 23/23 A2992 370 97 1500 000/00 RMK AO2 SLP129 T02330228
03949KAQV AQV20160726220010807/26/16 22:00:31  5-MIN KAQV 270400Z AUTO 00000KT 10SM CLR 23/23 A2992 370 97 1500 000/00 RMK AO2 T02330228
03949KAQV AQV20160726220511107/26/16 22:05:31  5-MIN KAQV 270405Z AUTO 00000KT 10SM FEW003 23/23 A2992 370 97 1500 000/00 RMK AO2 T02330228
03949KAQV AQV20160726221011107/26/16 22:10:31  5-MIN KAQV 270410Z AUTO 00000KT 10SM FEW003 23/23 A2992 370 97 1500 000/00 RMK AO2 T02330228
03949KAQV AQV20160726221511107/26/16 22:15:31  5-MIN KAQV 270415Z AUTO 00000KT 10SM FEW003 23/23 A2992 370 97 1500 000/00 RMK AO2 T02330228
03949KAQV AQV20160726222011107/26/16 22:20:31  5-MIN KAQV 270420Z AUTO 16003KT 10SM FEW003 23/23 A2992 380 97 1500 160/03 RMK AO2 T02330228
03949KAQV AQV20160726222511107/26/16 22:25:31  5-MIN KAQV 270425Z AUTO 00000KT 10SM FEW003 23/23 A2992 380 97 1500 000/00 RMK AO2 T02330228
03949KAQV AQV20160726223010807/26/16 22:30:31  5-MIN KAQV 270430Z AUTO 00000KT 10SM CLR 23/23 A2992 380 97 1500 000/00 RMK AO2 T02330228
03949KAQV AQV20160726223510807/26/16 22:35:31  5-MIN KAQV 270435Z AUTO 00000KT 10SM CLR 23/23 A2992 380 97 1500 000/00 RMK AO2 T02330228
03949KAQV AQV20160726224010807/26/16 22:40:31  5-MIN KAQV 270440Z AUTO 00000KT 10SM CLR 23/23 A2992 380 97 1500 000/00 RMK AO2 T02330228
03949KAQV AQV20160726224510807/26/16 22:45:31  5-MIN KAQV 270445Z AUTO 00000KT 10SM CLR 23/23 A2992 370 97 1500 000/00 RMK AO2 T02330228
03949KAQV AQV20160726225011507/26/16 22:50:31  5-MIN KAQV 270450Z AUTO 00000KT 10SM CLR 23/23 A2993 370 97 1500 000/00 RMK AO2 SLP130 T02330228
03949KAQV AQV20160726225511507/26/16 22:55:31  5-MIN KAQV 270455Z AUTO 00000KT 10SM CLR 23/23 A2993 370 97 1500 000/00 RMK AO2 SLP130 T02330228
03949KAQV AQV20160726230010807/26/16 23:00:31  5-MIN KAQV 270500Z AUTO 00000KT 10SM CLR 23/23 A2992 370 97 1500 000/00 RMK AO2 T02330228
03949KAQV AQV20160726230510907/26/16 23:05:31  5-MIN KAQV 270505Z AUTO 00000KT 10SM CLR 23/23 A2992 380 100 1400 000/00 RMK AO2 T02280228
03949KAQV AQV20160726231010907/26/16 23:10:31  5-MIN KAQV 270510Z AUTO 00000KT 10SM CLR 23/23 A2992 370 100 1400 000/00 RMK AO2 T02280228
03949KAQV AQV20160726231510807/26/16 23:15:31  5-MIN KAQV 270515Z AUTO 20003KT 10SM CLR 23/22 A2992 370 97 1400 200/03 RMK AO2 T02280222
03949KAQV AQV20160726232010807/26/16 23:20:31  5-MIN KAQV 270520Z AUTO 00000KT 10SM CLR 23/22 A2992 380 97 1400 000/00 RMK AO2 T02280222
03949KAQV AQV20160726232510807/26/16 23:25:31  5-MIN KAQV 270525Z AUTO 18003KT 10SM CLR 23/22 A2992 380 97 1400 180/03 RMK AO2 T02280222
03949KAQV AQV20160726233010807/26/16 23:30:31  5-MIN KAQV 270530Z AUTO 19003KT 10SM CLR 23/22 A2992 380 97 1400 190/03 RMK AO2 T02280222
03949KAQV AQV20160726233510807/26/16 23:35:31  5-MIN KAQV 270535Z AUTO 00000KT 10SM CLR 23/22 A2992 380 97 1400 000/00 RMK AO2 T02280222
03949KAQV AQV20160726234010807/26/16 23:40:31  5-MIN KAQV 270540Z AUTO 17003KT 10SM CLR 23/22 A2992 370 97 1400 160/03 RMK AO2 T02280222
03949KAQV AQV20160726234510807/26/16 23:45:31  5-MIN KAQV 270545Z AUTO 00000KT 10SM CLR 23/22 A2993 370 97 1400 000/00 RMK AO2 T02280222
03949KAQV AQV20160726235014907/26/16 23:50:31  5-MIN KAQV 270550Z AUTO 00000KT 10SM CLR 23/22 A2993 370 97 1400 000/00 RMK AO2 SLP130 60000 T02280222 10289 20228 403390222 51018
03949KAQV AQV20160726235514907/26/16 23:55:31  5-MIN KAQV 270555Z AUTO 00000KT 10SM CLR 23/22 A2992 370 97 1400 000/00 RMK AO2 SLP129 60000 T02280222 10289 20228 403390222 51018
03949KAQV AQV20160727000010807/27/16 00:00:31  5-MIN KAQV 270600Z AUTO 00000KT 10SM CLR 23/22 A2992 370 97 1400 000/00 RMK AO2 T02280222
03949KAQV AQV20160727000510807/27/16 00:05:31  5-MIN KAQV 270605Z AUTO 00000KT 10SM CLR 23/22 A2992 370 97 1400 000/00 RMK AO2 T02280222
03949KAQV AQV20160727001010807/27/16 00:10:31  5-MIN KAQV 270610Z AUTO 00000KT 10SM CLR 23/22 A2992 370 97 1400 000/00 RMK AO2 T02280222
03949KAQV AQV20160727001510807/27/16 00:15:31  5-MIN KAQV 270615Z AUTO 00000KT 10SM CLR 23/22 A2992 370 97 1400 000/00 RMK AO2 T02280222
03949KAQV AQV20160727002010807/27/16 00:20:31  5-MIN KAQV 270620Z AUTO 00000KT 10SM CLR 23/22 A2992 370 97 1400 000/00 RMK AO2 T02280222
03949KAQV AQV20160727002510807/27/16 00:25:31  5-MIN KAQV 270625Z AUTO 00000KT 10SM CLR 23/22 A2992 380 97 1400 000/00 RMK AO2 T02280222
03949KAQV AQV20160727003010807/27/16 00:30:31  5-MIN KAQV 270630Z AUTO 00000KT 10SM CLR 23/22 A2992 380 97 1400 000/00 RMK AO2 T02280222
03949KAQV AQV20160727003510807/27/16 00:35:31  5-MIN KAQV 270635Z AUTO 00000KT 10SM CLR 23/22 A2992 380 97 1400 000/00 RMK AO2 T02280222
03949KAQV AQV20160727004010807/27/16 00:40:31  5-MIN KAQV 270640Z AUTO 00000KT 10SM CLR 23/22 A2992 380 97 1400 000/00 RMK AO2 T02280222
03949KAQV AQV20160727004510807/27/16 00:45:31  5-MIN KAQV 270645Z AUTO 00000KT 10SM CLR 23/22 A2992 380 97 1400 000/00 RMK AO2 T02280222
03949KAQV AQV20160727005010107/27/16 00:50:31  5-MIN KAQV 270650Z AUTO 00000KT 10SM FEW008 23/22 A2992 380 97 1400 000/00 RMK AO2
03949KAQV AQV20160727005511807/27/16 00:55:31  5-MIN KAQV 270655Z AUTO 00000KT 10SM SCT008 23/22 A2992 380 97 1400 000/00 RMK AO2 SLP126 T02280222
03949KAQV AQV20160727010011107/27/16 01:00:31  5-MIN KAQV 270700Z AUTO 00000KT 10SM BKN008 23/22 A2991 380 97 1400 000/00 RMK AO2 T02280222
03949KAQV AQV20160727010511107/27/16 01:05:31  5-MIN KAQV 270705Z AUTO 00000KT 10SM BKN006 23/22 A2991 380 97 1400 000/00 RMK AO2 T02280222
03949KAQV AQV20160727011011107/27/16 01:10:31  5-MIN KAQV 270710Z AUTO 00000KT 10SM BKN006 23/22 A2991 390 97 1400 000/00 RMK AO2 T02280222
03949KAQV AQV20160727011512307/27/16 01:15:31  5-MIN KAQV 270715Z AUTO 00000KT 10SM OVC006 23/22 A2991 390 97 1400 000/00 RMK AO2 CIG 005V008 T02280222
03949KAQV AQV20160727012011107/27/16 01:20:31  5-MIN KAQV 270720Z AUTO 00000KT 10SM OVC006 23/22 A2991 380 97 1400 000/00 RMK AO2 T02280222
03949KAQV AQV20160727012511107/27/16 01:25:31  5-MIN KAQV 270725Z AUTO 00000KT 10SM OVC005 23/22 A2991 380 97 1400 000/00 RMK AO2 T02280222
03949KAQV AQV20160727013011107/27/16 01:30:31  5-MIN KAQV 270730Z AUTO 00000KT 10SM OVC005 23/22 A2991 380 97 1400 000/00 RMK AO2 T02280222
03949KAQV AQV20160727013511107/27/16 01:35:31  5-MIN KAQV 270735Z AUTO 00000KT 10SM OVC004 23/22 A2991 390 97 1400 000/00 RMK AO2 T02280222
03949KAQV AQV20160727014011107/27/16 01:40:31  5-MIN KAQV 270740Z AUTO 00000KT 10SM OVC004 23/22 A2991 390 97 1400 000/00 RMK AO2 T02280222
03949KAQV AQV20160727014511107/27/16 01:45:31  5-MIN KAQV 270745Z AUTO 00000KT 10SM OVC004 23/22 A2991 390 97 1400 000/00 RMK AO2 T02280222
03949KAQV AQV20160727015011707/27/16 01:50:31  5-MIN KAQV 270750Z AUTO 00000KT 9SM OVC003 23/22 A2990 390 97 1400 000/00 RMK AO2 SLP123 T02280222
03949KAQV AQV20160727015511707/27/16 01:55:31  5-MIN KAQV 270755Z AUTO 00000KT 8SM OVC003 23/22 A2990 390 97 1400 000/00 RMK AO2 SLP122 T02280222
03949KAQV AQV20160727020011007/27/16 02:00:31  5-MIN KAQV 270800Z AUTO 00000KT 7SM OVC003 23/22 A2990 390 97 1400 000/00 RMK AO2 T02280222
03949KAQV AQV20160727020511007/27/16 02:05:31  5-MIN KAQV 270805Z AUTO 00000KT 7SM BKN003 23/22 A2990 390 97 1400 000/00 RMK AO2 T02280222
03949KAQV AQV20160727021011107/27/16 02:10:31  5-MIN KAQV 270810Z AUTO 00000KT 7SM BKN003 23/23 A2990 390 100 1400 000/00 RMK AO2 T02280228
03949KAQV AQV20160727021511007/27/16 02:15:31  5-MIN KAQV 270815Z AUTO 00000KT 7SM BKN002 23/22 A2990 390 97 1400 000/00 RMK AO2 T02280222
03949KAQV AQV20160727022012007/27/16 02:20:31  5-MIN KAQV 270820Z AUTO 00000KT 6SM BR SCT002 SCT060 23/22 A2990 390 97 1400 000/00 RMK AO2 T02280222
03949KAQV AQV20160727022512707/27/16 02:25:31  5-MIN KAQV 270825Z AUTO 00000KT 6SM BR FEW002 SCT050 BKN060 23/22 A2991 390 97 1400 000/00 RMK AO2 T02280222
03949KAQV AQV20160727023012707/27/16 02:30:31  5-MIN KAQV 270830Z AUTO 00000KT 6SM BR FEW002 SCT050 BKN060 23/23 A2991 390 97 1500 000/00 RMK AO2 T02330228
03949KAQV AQV20160727023511707/27/16 02:35:31  5-MIN KAQV 270835Z AUTO 00000KT 7SM BKN050 BKN060 23/23 A2991 390 97 1500 000/00 RMK AO2 T02330228
03949KAQV AQV20160727024011707/27/16 02:40:31  5-MIN KAQV 270840Z AUTO 00000KT 7SM BKN050 BKN060 23/23 A2991 390 97 1500 000/00 RMK AO2 T02330228
03949KAQV AQV20160727024511707/27/16 02:45:31  5-MIN KAQV 270845Z AUTO 00000KT 7SM BKN050 OVC060 23/23 A2991 380 97 1500 000/00 RMK AO2 T02330228
03949KAQV AQV20160727025013007/27/16 02:50:31  5-MIN KAQV 270850Z AUTO 00000KT 7SM BKN050 OVC060 23/23 A2991 390 97 1500 000/00 RMK AO2 SLP124 T02330228 56001
03949KAQV AQV20160727025513007/27/16 02:55:31  5-MIN KAQV 270855Z AUTO 00000KT 7SM BKN050 OVC060 23/23 A2991 390 97 1500 000/00 RMK AO2 SLP125 T02330228 56001
03949KAQV AQV20160727030011707/27/16 03:00:31  5-MIN KAQV 270900Z AUTO 00000KT 8SM SCT050 BKN060 23/23 A2991 380 97 1500 000/00 RMK AO2 T02330228
03949KAQV AQV20160727030511707/27/16 03:05:31  5-MIN KAQV 270905Z AUTO 00000KT 7SM FEW050 BKN060 23/23 A2991 380 97 1500 000/00 RMK AO2 T02330228
03949KAQV AQV20160727031011707/27/16 03:10:31  5-MIN KAQV 270910Z AUTO 00000KT 7SM FEW050 SCT060 23/23 A2991 380 97 1500 000/00 RMK AO2 T02330228
03949KAQV AQV20160727031512707/27/16 03:15:31  5-MIN KAQV 270915Z AUTO 00000KT 6SM BR FEW005 FEW050 SCT065 23/23 A2992 380 97 1500 000/00 RMK AO2 T02330228
03949KAQV AQV20160727032012007/27/16 03:20:31  5-MIN KAQV 270920Z AUTO 00000KT 5SM BR FEW005 SCT065 23/23 A2992 380 97 1500 000/00 RMK AO2 T02330228
03949KAQV AQV20160727032512007/27/16 03:25:31  5-MIN KAQV 270925Z AUTO 00000KT 5SM BR FEW005 FEW065 23/23 A2991 380 97 1500 000/00 RMK AO2 T02330228
03949KAQV AQV20160727033012007/27/16 03:30:31  5-MIN KAQV 270930Z AUTO 00000KT 6SM BR FEW004 FEW065 23/23 A2991 380 97 1500 000/00 RMK AO2 T02330228
03949KAQV AQV20160727033512007/27/16 03:35:31  5-MIN KAQV 270935Z AUTO 00000KT 6SM BR FEW004 SCT060 23/23 A2991 390 97 1500 000/00 RMK AO2 T02330228
03949KAQV AQV20160727034012007/27/16 03:40:31  5-MIN KAQV 270940Z AUTO 00000KT 6SM BR FEW004 SCT060 23/23 A2991 390 97 1500 000/00 RMK AO2 T02330228
03949KAQV AQV20160727034511307/27/16 03:45:31  5-MIN KAQV 270945Z AUTO 00000KT 6SM BR FEW060 23/23 A2991 390 97 1500 000/00 RMK AO2 T02330228
03949KAQV AQV20160727035012007/27/16 03:50:31  5-MIN KAQV 270950Z AUTO 00000KT 5SM BR FEW065 23/23 A2991 380 97 1500 000/00 RMK AO2 SLP125 T02330228
03949KAQV AQV20160727035512007/27/16 03:55:31  5-MIN KAQV 270955Z AUTO 00000KT 5SM BR SCT060 23/23 A2991 380 97 1500 000/00 RMK AO2 SLP126 T02330228
03949KAQV AQV20160727040011307/27/16 04:00:31  5-MIN KAQV 271000Z AUTO 00000KT 5SM BR BKN060 23/23 A2991 380 97 1500 000/00 RMK AO2 T02330228
03949KAQV AQV20160727040512007/27/16 04:05:31  5-MIN KAQV 271005Z AUTO 00000KT 5SM BR SCT055 BKN065 23/23 A2992 380 97 1500 000/00 RMK AO2 T02330228
03949KAQV AQV20160727041012007/27/16 04:10:31  5-MIN KAQV 271010Z AUTO 00000KT 5SM BR BKN055 BKN065 23/23 A2992 380 97 1500 000/00 RMK AO2 T02330228
03949KAQV AQV20160727041512007/27/16 04:15:31  5-MIN KAQV 271015Z AUTO 00000KT 6SM BR BKN055 OVC065 23/23 A2992 380 97 1500 000/00 RMK AO2 T02330228
03949KAQV AQV20160727042012007/27/16 04:20:31  5-MIN KAQV 271020Z AUTO 00000KT 6SM BR BKN055 OVC065 23/23 A2992 380 97 1500 000/00 RMK AO2 T02330228
03949KAQV AQV20160727042512007/27/16 04:25:31  5-MIN KAQV 271025Z AUTO 19003KT 6SM BR BKN055 OVC065 23/23 A2992 370 97 1500 190/03 RMK AO2 T02330228
03949KAQV AQV20160727043011407/27/16 04:30:31  5-MIN KAQV 271030Z AUTO 00000KT 6SM BR OVC055 23/23 A2993 370 100 1500 000/00 RMK AO2 T02330233
03949KAQV AQV20160727043511407/27/16 04:35:31  5-MIN KAQV 271035Z AUTO 00000KT 6SM BR OVC055 23/23 A2993 370 100 1500 000/00 RMK AO2 T02330233
03949KAQV AQV20160727044011007/27/16 04:40:31  5-MIN KAQV 271040Z AUTO 00000KT 7SM OVC055 24/23 A2993 370 97 1500 000/00 RMK AO2 T02390233
03949KAQV AQV20160727044511007/27/16 04:45:31  5-MIN KAQV 271045Z AUTO 20003KT 7SM OVC055 24/23 A2993 370 97 1500 200/03 RMK AO2 T02390233
03949KAQV AQV20160727045011707/27/16 04:50:31  5-MIN KAQV 271050Z AUTO 00000KT 7SM OVC055 24/23 A2993 360 97 1500 000/00 RMK AO2 SLP131 T02390233
03949KAQV AQV20160727045511707/27/16 04:55:31  5-MIN KAQV 271055Z AUTO 00000KT 7SM OVC055 24/23 A2994 360 97 1500 000/00 RMK AO2 SLP133 T02390233
03949KAQV AQV20160727050012407/27/16 05:00:31  5-MIN KAQV 271100Z AUTO 00000KT 7SM FEW004 BKN055 OVC075 24/23 A2994 360 97 1500 000/00 RMK AO2 T02390233
03949KAQV AQV20160727050512407/27/16 05:05:31  5-MIN KAQV 271105Z AUTO 00000KT 8SM FEW004 BKN055 OVC070 24/23 A2994 360 97 1500 000/00 RMK AO2 T02390233
03949KAQV AQV20160727051012407/27/16 05:10:31  5-MIN KAQV 271110Z AUTO 00000KT 8SM FEW004 BKN060 BKN075 24/23 A2994 360 97 1500 000/00 RMK AO2 T02390233
03949KAQV AQV20160727051512407/27/16 05:15:31  5-MIN KAQV 271115Z AUTO VRB03KT 7SM FEW004 BKN060 BKN075 24/23 A2994 360 97 1500 VRB/03 RMK AO2 T02390233
03949KAQV AQV20160727052012407/27/16 05:20:31  5-MIN KAQV 271120Z AUTO 00000KT 7SM FEW004 BKN060 BKN075 24/23 A2994 350 97 1500 000/00 RMK AO2 T02390233
03949KAQV AQV20160727052511707/27/16 05:25:31  5-MIN KAQV 271125Z AUTO 00000KT 7SM FEW004 BKN060 24/23 A2995 350 97 1500 000/00 RMK AO2 T02390233
03949KAQV AQV20160727053011707/27/16 05:30:31  5-MIN KAQV 271130Z AUTO 00000KT 8SM FEW004 SCT060 24/23 A2994 350 97 1500 000/00 RMK AO2 T02390233
03949KAQV AQV20160727053512407/27/16 05:35:31  5-MIN KAQV 271135Z AUTO 00000KT 7SM FEW004 FEW060 SCT100 24/23 A2995 350 97 1500 000/00 RMK AO2 T02390233
03949KAQV AQV20160727054012407/27/16 05:40:31  5-MIN KAQV 271140Z AUTO 00000KT 7SM FEW004 SCT060 SCT100 24/23 A2995 350 97 1500 000/00 RMK AO2 T02390233
03949KAQV AQV20160727054512007/27/16 05:45:31  5-MIN KAQV 271145Z AUTO 22003KT 6SM BR FEW005 FEW100 24/23 A2995 350 97 1500 220/03 RMK AO2 T02390233
03949KAQV AQV20160727055014507/27/16 05:50:31  5-MIN KAQV 271150Z AUTO 00000KT 6SM BR FEW005 FEW100 24/23 A2995 350 97 1500 000/00 RMK AO2 SLP139 T02390233 10239 20228 55001
03949KAQV AQV20160727055514507/27/16 05:55:31  5-MIN KAQV 271155Z AUTO 00000KT 6SM BR FEW005 FEW100 24/23 A2995 350 97 1500 000/00 RMK AO2 SLP139 T02390233 10239 20228 55001
03949KAQV AQV20160727060012707/27/16 06:00:31  5-MIN KAQV 271200Z AUTO 00000KT 6SM BR FEW005 SCT080 SCT100 24/23 A2995 350 97 1500 000/00 RMK AO2 T02390233
03949KAQV AQV20160727060512007/27/16 06:05:31  5-MIN KAQV 271205Z AUTO 00000KT 6SM BR SCT005 BKN080 24/23 A2995 350 97 1500 000/00 RMK AO2 T02390233
03949KAQV AQV20160727061011707/27/16 06:10:31  5-MIN KAQV 271210Z AUTO 24003KT 7SM SCT005 BKN080 24/23 A2996 340 97 1500 240/03 RMK AO2 T02390233
03949KAQV AQV20160727061511707/27/16 06:15:31  5-MIN KAQV 271215Z AUTO 25003KT 7SM SCT005 BKN080 24/23 A2996 340 97 1500 240/03 RMK AO2 T02390233
03949KAQV AQV20160727062011707/27/16 06:20:31  5-MIN KAQV 271220Z AUTO 00000KT 7SM BKN005 BKN080 24/23 A2996 340 97 1500 000/00 RMK AO2 T02390233
03949KAQV AQV20160727062511707/27/16 06:25:31  5-MIN KAQV 271225Z AUTO 00000KT 7SM BKN005 BKN080 24/23 A2996 340 93 1600 000/00 RMK AO2 T02440233
03949KAQV AQV20160727063011007/27/16 06:30:31  5-MIN KAQV 271230Z AUTO 00000KT 8SM BKN005 24/23 A2996 340 97 1500 000/00 RMK AO2 T02390233
03949KAQV AQV20160727063511007/27/16 06:35:31  5-MIN KAQV 271235Z AUTO 00000KT 8SM BKN005 24/23 A2996 340 97 1500 000/00 RMK AO2 T02390233
03949KAQV AQV20160727064011007/27/16 06:40:31  5-MIN KAQV 271240Z AUTO 00000KT 8SM BKN005 24/24 A2997 330 97 1500 000/00 RMK AO2 T02440239
03949KAQV AQV20160727064511007/27/16 06:45:31  5-MIN KAQV 271245Z AUTO 00000KT 8SM BKN005 24/24 A2997 330 97 1500 000/00 RMK AO2 T02440239
03949KAQV AQV20160727065011707/27/16 06:50:31  5-MIN KAQV 271250Z AUTO VRB03KT 8SM BKN005 24/24 A2997 330 97 1500 VRB/03 RMK AO2 SLP145 T02440239
03949KAQV AQV20160727065511707/27/16 06:55:31  5-MIN KAQV 271255Z AUTO VRB03KT 8SM OVC006 24/24 A2997 330 97 1500 VRB/03 RMK AO2 SLP145 T02440239
03949KAQV AQV20160727070011007/27/16 07:00:31  5-MIN KAQV 271300Z AUTO VRB04KT 9SM OVC006 24/24 A2997 330 97 1500 VRB/04 RMK AO2 T02440239
03949KAQV AQV20160727070511707/27/16 07:05:31  5-MIN KAQV 271305Z AUTO 00000KT 8SM BKN006 OVC100 24/24 A2997 330 97 1500 000/00 RMK AO2 T02440239
03949KAQV AQV20160727071012907/27/16 07:10:31  5-MIN KAQV 271310Z AUTO VRB03KT 8SM BKN006 OVC100 24/24 A2997 330 97 1500 VRB/03 RMK AO2 CIG 004V010 T02440239
03949KAQV AQV20160727071512407/27/16 07:15:31  5-MIN KAQV 271315Z AUTO 00000KT 9SM SCT006 BKN010 OVC100 24/24 A2997 330 97 1500 000/00 RMK AO2 T02440239
03949KAQV AQV20160727072012507/27/16 07:20:31  5-MIN KAQV 271320Z AUTO VRB03KT 10SM SCT006 BKN070 OVC100 24/24 A2997 330 97 1500 VRB/03 RMK AO2 T02440239
03949KAQV AQV20160727072512507/27/16 07:25:31  5-MIN KAQV 271325Z AUTO 00000KT 10SM FEW006 BKN070 OVC100 24/24 A2997 330 97 1500 000/00 RMK AO2 T02440239
03949KAQV AQV20160727073012507/27/16 07:30:31  5-MIN KAQV 271330Z AUTO 00000KT 10SM FEW008 SCT070 OVC100 24/24 A2997 330 97 1500 000/00 RMK AO2 T02440239
03949KAQV AQV20160727073512507/27/16 07:35:31  5-MIN KAQV 271335Z AUTO VRB03KT 10SM FEW008 SCT070 OVC100 24/24 A2997 330 97 1500 VRB/03 RMK AO2 T02440239
03949KAQV AQV20160727074011807/27/16 07:40:31  5-MIN KAQV 271340Z AUTO VRB03KT 10SM FEW070 OVC100 24/24 A2997 330 97 1500 VRB/03 RMK AO2 T02440239
03949KAQV AQV20160727074511107/27/16 07:45:31  5-MIN KAQV 271345Z AUTO 26004KT 10SM OVC100 25/24 A2997 330 93 1600 260/04 RMK AO2 T02500239
03949KAQV AQV20160727075011807/27/16 07:50:31  5-MIN KAQV 271350Z AUTO 23004KT 10SM OVC100 25/24 A2997 330 93 1600 220/04 RMK AO2 SLP146 T02500239
03949KAQV AQV20160727075511807/27/16 07:55:31  5-MIN KAQV 271355Z AUTO VRB03KT 10SM OVC110 25/24 A2997 330 93 1600 VRB/03 RMK AO2 SLP147 T02500239
03949KAQV AQV20160727080011107/27/16 08:00:31  5-MIN KAQV 271400Z AUTO VRB04KT 10SM OVC110 26/24 A2997 330 90 1700 VRB/04 RMK AO2 T02560239
03949KAQV AQV20160727080511807/27/16 08:05:31  5-MIN KAQV 271405Z AUTO VRB03KT 10SM FEW011 BKN110 26/24 A2997 330 87 1700 VRB/03 RMK AO2 T02610239
03949KAQV AQV20160727081011807/27/16 08:10:31  5-MIN KAQV 271410Z AUTO VRB03KT 10SM SCT011 BKN110 27/24 A2997 330 84 1800 VRB/03 RMK AO2 T02670239
03949KAQV AQV20160727081511807/27/16 08:15:31  5-MIN KAQV 271415Z AUTO 25003KT 10SM SCT012 BKN110 27/24 A2997 330 82 1900 250/03 RMK AO2 T02720239
03949KAQV AQV20160727082011807/27/16 08:20:31  5-MIN KAQV 271420Z AUTO VRB05KT 10SM SCT012 BKN110 27/24 A2997 330 82 1900 VRB/05 RMK AO2 T02720239
03949KAQV AQV20160727082511807/27/16 08:25:31  5-MIN KAQV 271425Z AUTO VRB04KT 10SM SCT012 BKN110 28/24 A2997 330 79 1900 VRB/04 RMK AO2 T02780239
03949KAQV AQV20160727083011107/27/16 08:30:31  5-MIN KAQV 271430Z AUTO VRB03KT 10SM SCT012 28/23 A2997 330 76 1900 VRB/03 RMK AO2 T02780233
03949KAQV AQV20160727083510807/27/16 08:35:31  5-MIN KAQV 271435Z AUTO 10SM SCT012 BKN020 28/23 A2998 320 74 2000 M /M RMK AO2 T02830233
03949KAQV AQV20160727084011307/27/16 08:40:31  5-MIN KAQV 271440Z AUTO 10SM BKN018 28/23 A2998 320 76 1900 M /M RMK AO2 CIG 011V022 T02780233
03949KAQV AQV20160727084511807/27/16 08:45:31  5-MIN KAQV 271445Z AUTO VRB03KT 10SM SCT016 SCT021 28/23 A2998 320 76 1900 VRB/03 RMK AO2 T02780233
03949KAQV AQV20160727085010107/27/16 08:50:31  5-MIN KAQV 271450Z AUTO VRB05KT 10SM SCT018 29/23 A2997 330 71 2000 VRB/05 RMK AO2
03949KAQV AQV20160727085512407/27/16 08:55:31  5-MIN KAQV 271455Z AUTO VRB05KT 10SM SCT018 29/23 A2998 320 69 2100 VRB/05 RMK AO2 SLP147 T02940233 51007
03949KAQV AQV20160727090011107/27/16 09:00:31  5-MIN KAQV 271500Z AUTO VRB04KT 10SM FEW018 29/23 A2998 320 69 2000 VRB/04 RMK AO2 T02890228
03949KAQV AQV20160727090511807/27/16 09:05:31  5-MIN KAQV 271505Z AUTO 26006KT 10SM FEW018 FEW037 29/23 A2998 320 71 2000 250/06 RMK AO2 T02890233
03949KAQV AQV20160727091011807/27/16 09:10:31  5-MIN KAQV 271510Z AUTO VRB04KT 10SM FEW021 FEW037 29/23 A2998 320 69 2100 VRB/04 RMK AO2 T02940233
03949KAQV AQV20160727091511807/27/16 09:15:31  5-MIN KAQV 271515Z AUTO VRB05KT 10SM SCT021 SCT070 29/23 A2999 320 71 2000 VRB/05 RMK AO2 T02890233
03949KAQV AQV20160727092011707/27/16 09:20:31  5-MIN KAQV 271520Z AUTO VRB05KT 9SM FEW021 BKN070 29/23 A2999 310 69 2000 VRB/05 RMK AO2 T02890228
03949KAQV AQV20160727092511707/27/16 09:25:31  5-MIN KAQV 271525Z AUTO VRB03KT 9SM FEW021 BKN070 29/23 A2999 310 69 2000 VRB/03 RMK AO2 T02890228
03949KAQV AQV20160727093011807/27/16 09:30:31  5-MIN KAQV 271530Z AUTO 27005KT 10SM FEW021 BKN070 29/23 A2999 310 67 2100 270/05 RMK AO2 T02940228
03949KAQV AQV20160727093512507/27/16 09:35:31  5-MIN KAQV 271535Z AUTO VRB06KT 10SM FEW021 SCT027 OVC070 29/23 A2999 310 67 2100 VRB/06 RMK AO2 T02940228
03949KAQV AQV20160727094012507/27/16 09:40:31  5-MIN KAQV 271540Z AUTO VRB06KT 10SM FEW021 SCT029 OVC070 29/23 A2999 310 67 2100 VRB/06 RMK AO2 T02940228
03949KAQV AQV20160727094512507/27/16 09:45:31  5-MIN KAQV 271545Z AUTO 25008KT 10SM FEW024 BKN070 OVC080 30/23 A2999 310 65 2100 250/08 RMK AO2 T03000228
03949KAQV AQV20160727095013207/27/16 09:50:31  5-MIN KAQV 271550Z AUTO VRB04KT 10SM FEW028 SCT035 BKN070 30/23 A2999 310 65 2100 VRB/04 RMK AO2 SLP153 T03000228
03949KAQV AQV20160727095513207/27/16 09:55:31  5-MIN KAQV 271555Z AUTO VRB05KT 10SM FEW028 SCT035 BKN070 30/23 A2999 310 65 2100 VRB/05 RMK AO2 SLP153 T03000228
03949KAQV AQV20160727100012507/27/16 10:00:31  5-MIN KAQV 271600Z AUTO VRB04KT 10SM SCT027 SCT035 BKN070 29/22 A2999 310 64 2100 VRB/04 RMK AO2 T02940222
03949KAQV AQV20160727100512507/27/16 10:05:31  5-MIN KAQV 271605Z AUTO VRB03KT 10SM SCT026 BKN070 BKN080 30/23 A2999 310 65 2100 VRB/03 RMK AO2 T03000228
03949KAQV AQV20160727101012507/27/16 10:10:31  5-MIN KAQV 271610Z AUTO VRB04KT 10SM SCT024 BKN034 BKN070 30/23 A2999 310 67 2100 VRB/04 RMK AO2 T03000233
03949KAQV AQV20160727101512507/27/16 10:15:31  5-MIN KAQV 271615Z AUTO VRB06KT 10SM SCT024 BKN029 BKN038 29/23 A2999 310 71 2000 VRB/06 RMK AO2 T02890233
03949KAQV AQV20160727102012507/27/16 10:20:31  5-MIN KAQV 271620Z AUTO VRB06KT 10SM SCT023 BKN029 BKN060 29/23 A3000 310 71 2000 VRB/06 RMK AO2 T02890233
03949KAQV AQV20160727102513107/27/16 10:25:31  5-MIN KAQV 271625Z AUTO VRB06G15KT 10SM FEW023 SCT028 BKN065 28/24 A3000 310 76 1900 VRB/06G15 RMK AO2 T02830239
03949KAQV AQV20160727103014707/27/16 10:30:31  5-MIN KAQV 271630Z AUTO VRB06G15KT 10SM -RA FEW023 BKN065 OVC080 28/23 A2999 310 76 1900 VRB/06G15 RMK AO2 RAB29 P0000 T02780233
03949KAQV AQV20160727103514107/27/16 10:35:31  5-MIN KAQV 271635Z AUTO VRB04KT 10SM -RA SCT028 SCT065 BKN080 27/22 A2999 310 74 1800 VRB/04 RMK AO2 RAB29 P0000 T02720222
03949KAQV AQV20160727104014007/27/16 10:40:31  5-MIN KAQV 271640Z AUTO VRB04KT 10SM FEW024 FEW065 SCT080 27/22 A2999 310 76 1800 VRB/04 RMK AO2 RAB29E38 P0000 T02670222
03949KAQV AQV20160727104513407/27/16 10:45:31  5-MIN KAQV 271645Z AUTO 21004KT 10SM -RA FEW065 SCT080 27/23 A2999 310 79 1800 210/04 RMK AO2 RAB29 P0000 T02670228
03949KAQV AQV20160727105013207/27/16 10:50:31  5-MIN KAQV 271650Z AUTO 22004KT 10SM -TSRA FEW070 SCT085 27/23 A2999 310 82 1800 220/04 RMK AO2 RAB29 TSB49 P0000
03949KAQV AQV20160727105514207/27/16 10:55:31  5-MIN KAQV 271655Z AUTO VRB04KT 10SM TS FEW075 27/23 A2999 310 79 1800 VRB/04 RMK AO2 RAB29E53 TSB49 SLP152 P0000 T02720233
03949KAQV AQV20160727110011407/27/16 11:00:31  5-MIN KAQV 271700Z AUTO VRB04KT 10SM TS FEW090 28/24 A2999 320 76 2000 VRB/04 RMK AO2 T02830239
03949KAQV AQV20160727110512107/27/16 11:05:31  5-MIN KAQV 271705Z AUTO 22005KT 10SM TS FEW065 SCT090 28/24 A2998 320 76 2000 210/05 RMK AO2 T02830239
03949KAQV AQV20160727111012807/27/16 11:10:31  5-MIN KAQV 271710Z AUTO VRB04KT 10SM TS FEW065 SCT080 SCT090 28/23 A2998 320 74 2000 VRB/04 RMK AO2 T02830233
03949KAQV AQV20160727111512807/27/16 11:15:31  5-MIN KAQV 271715Z AUTO VRB05KT 10SM TS FEW060 SCT090 BKN120 28/23 A2998 320 74 2000 VRB/05 RMK AO2 T02830233
03949KAQV AQV20160727112012807/27/16 11:20:31  5-MIN KAQV 271720Z AUTO VRB05KT 10SM TS FEW060 SCT090 BKN110 29/23 A2998 320 71 2000 VRB/05 RMK AO2 T02890233
03949KAQV AQV20160727112513107/27/16 11:25:31  5-MIN KAQV 271725Z AUTO VRB04KT 10SM FEW065 SCT090 BKN110 29/23 A2998 320 71 2000 VRB/04 RMK AO2 TSE21 T02890233
03949KAQV AQV20160727113013107/27/16 11:30:31  5-MIN KAQV 271730Z AUTO 22004KT 10SM FEW065 FEW090 BKN110 29/23 A2998 320 71 2000 210/04 RMK AO2 TSE21 T02890233
03949KAQV AQV20160727113513107/27/16 11:35:31  5-MIN KAQV 271735Z AUTO VRB05KT 10SM SCT060 SCT080 BKN120 29/24 A2999 320 74 2000 VRB/05 RMK AO2 TSE21 T02890239
03949KAQV AQV20160727114015307/27/16 11:40:31  5-MIN KAQV 271740Z AUTO 20009G17KT 160V240 10SM FEW019 SCT060 BKN090 28/23 A2999 310 74 2000 200/09G17 160V240 RMK AO2 TSE21 T02830233
03949KAQV AQV20160727114516107/27/16 11:45:31  5-MIN KAQV 271745Z AUTO 20009G18KT 170V240 5SM HZ FEW026 BKN060 OVC110 27/23 A3000 310 79 1800 190/09G18 170V240 RMK AO2 TSE21 P0002 T02670228
03949KAQV AQV20160727115015307/27/16 11:50:31  5-MIN KAQV 271750Z AUTO 20007G18KT 2SM +RA BR FEW022 BKN055 OVC110 25/23 A3000 310 90 1600 190/07G18 RMK AO2 VIS 1V5 RAB46 TSE21 P0005
03949KAQV AQV20160727115519707/27/16 11:55:31  5-MIN KAQV 271755Z AUTO VRB06G15KT 2SM RA BR FEW022 BKN055 OVC120 25/23 A3000 300 90 1600 VRB/06G15 RMK AO2 VIS 1 1/4V4 RAB46 TSE21 SLP156 P0006 60006 T02500233 10306 20239 51003
03949KAQV AQV20160727120015907/27/16 12:00:31  5-MIN KAQV 271800Z AUTO 20007G15KT 160V230 4SM -RA BR FEW024 SCT049 OVC060 25/23 A2999 310 90 1600 190/07G15 160V230 RMK AO2 P0001 T02500233
03949KAQV AQV20160727120513407/27/16 12:05:31  5-MIN KAQV 271805Z AUTO 18008KT 8SM -RA FEW024 BKN060 OVC085 25/23 A2999 310 90 1600 180/08 RMK AO2 P0001 T02500233
03949KAQV AQV20160727121013707/27/16 12:10:31  5-MIN KAQV 271810Z AUTO VRB06KT 10SM FEW024 BKN055 OVC085 24/23 A2999 310 93 1500 VRB/06 RMK AO2 RAE07 P0001 T02440233
03949KAQV AQV20160727121513707/27/16 12:15:31  5-MIN KAQV 271815Z AUTO VRB06KT 10SM FEW009 BKN055 OVC085 24/23 A3000 310 90 1500 VRB/06 RMK AO2 RAE07 P0001 T02440228
03949KAQV AQV20160727122013507/27/16 12:20:31  5-MIN KAQV 271820Z AUTO VRB04KT 10SM -RA FEW009 BKN055 OVC085 24/23 A2999 310 93 1500 VRB/04 RMK AO2 P0001 T02440233
03949KAQV AQV20160727122513507/27/16 12:25:31  5-MIN KAQV 271825Z AUTO VRB06KT 10SM -RA SCT009 BKN055 OVC085 24/23 A2999 310 93 1500 VRB/06 RMK AO2 P0001 T02440233
03949KAQV AQV20160727123015107/27/16 12:30:31  5-MIN KAQV 271830Z AUTO 22007KT 190V250 10SM -RA SCT010 BKN075 BKN085 24/23 A2999 310 90 1500 220/07 190V250 RMK AO2 P0001 T02440228
03949KAQV AQV20160727123513707/27/16 12:35:31  5-MIN KAQV 271835Z AUTO 20006KT 10SM SCT010 BKN035 BKN070 24/23 A2999 310 90 1500 190/06 RMK AO2 RAE32 P0001 T02440228
03949KAQV AQV20160727124015707/27/16 12:40:31  5-MIN KAQV 271840Z AUTO 21007G15KT 180V260 10SM -RA SCT010 SCT034 BKN046 24/22 A3000 310 87 1500 210/07G15 180V260 RMK AO2 P0001 T02440222
03949KAQV AQV20160727124514107/27/16 12:45:31  5-MIN KAQV 271845Z AUTO VRB05G15KT 10SM -RA SCT011 BKN034 BKN047 24/22 A3000 300 87 1500 VRB/05G15 RMK AO2 P0001 T02440222
03949KAQV AQV20160727125014207/27/16 12:50:31  5-MIN KAQV 271850Z AUTO VRB06KT 10SM -RA SCT013 BKN042 OVC100 24/22 A3000 300 87 1500 VRB/06 RMK AO2 SLP156 P0001 T02440222
03949KAQV AQV20160727125515807/27/16 12:55:31  5-MIN KAQV 271855Z AUTO 21007KT 180V240 10SM -RA FEW013 BKN065 OVC100 24/22 A3000 300 87 1500 210/07 180V240 RMK AO2 SLP156 P0001 T02440222
03949KAQV AQV20160727130016107/27/16 13:00:31  5-MIN KAQV 271900Z AUTO 20008G15KT 170V240 10SM FEW015 BKN065 OVC080 25/23 A3000 300 87 1600 200/08G15 170V240 RMK AO2 RAE1858 P0000 T02500228
03949KAQV AQV20160727130514507/27/16 13:05:31  5-MIN KAQV 271905Z AUTO VRB06G15KT 10SM FEW015 BKN065 OVC110 25/22 A3000 310 84 1600 VRB/06G15 RMK AO2 RAE1858 P0000 T02500222
03949KAQV AQV20160727131013907/27/16 13:10:31  5-MIN KAQV 271910Z AUTO VRB05KT 10SM FEW015 BKN065 OVC110 26/22 A2999 310 81 1600 VRB/05 RMK AO2 RAE1858 P0000 T02560222
03949KAQV AQV20160727131513907/27/16 13:15:31  5-MIN KAQV 271915Z AUTO VRB05KT 10SM FEW015 SCT065 OVC085 26/23 A2999 310 84 1600 VRB/05 RMK AO2 RAE1858 P0000 T02560228
03949KAQV AQV20160727132013907/27/16 13:20:31  5-MIN KAQV 271920Z AUTO VRB05KT 10SM FEW015 SCT065 OVC090 26/23 A2999 310 81 1700 VRB/05 RMK AO2 RAE1858 P0000 T02610228
03949KAQV AQV20160727132513907/27/16 13:25:31  5-MIN KAQV 271925Z AUTO VRB05KT 10SM SCT016 BKN090 BKN110 26/22 A2999 310 79 1700 VRB/05 RMK AO2 RAE1858 P0000 T02610222
03949KAQV AQV20160727133012907/27/16 13:30:31  5-MIN KAQV 271930Z AUTO 10SM FEW016 BKN095 OVC120 26/23 A2999 310 81 1700 M /M RMK AO2 RAE1858 P0000 T02610228
03949KAQV AQV20160727133514607/27/16 13:35:31  5-MIN KAQV 271935Z AUTO VRB06KT 10SM -RA FEW016 BKN080 OVC120 26/22 A2999 310 79 1700 VRB/06 RMK AO2 RAE1858B31 P0000 T02610222
03949KAQV AQV20160727134014507/27/16 13:40:31  5-MIN KAQV 271940Z AUTO VRB04KT 10SM FEW016 BKN090 BKN110 26/22 A2998 320 79 1700 VRB/04 RMK AO2 RAE1858B31E40 P0000 T02610222
03949KAQV AQV20160727134514507/27/16 13:45:31  5-MIN KAQV 271945Z AUTO VRB05KT 10SM FEW016 FEW080 BKN100 27/23 A2998 320 79 1800 VRB/05 RMK AO2 RAE1858B31E40 P0000 T02670228
03949KAQV AQV20160727135013707/27/16 13:50:31  5-MIN KAQV 271950Z AUTO VRB05KT 10SM TS FEW080 BKN110 27/23 A2998 320 76 1800 VRB/05 RMK AO2 RAE1858B31E40 TSB48 P0000
03949KAQV AQV20160727135516007/27/16 13:55:31  5-MIN KAQV 271955Z AUTO 24008G14KT 10SM TS FEW080 BKN110 27/22 A2998 320 74 1800 230/08G14 RMK AO2 RAE1858B31E40 TSB48 SLP148 P0000 T02720222
03949KAQV AQV20160727140012007/27/16 14:00:31  5-MIN KAQV 272000Z AUTO 23006G14KT 10SM TS BKN110 27/22 A2998 330 74 1800 220/06G14 RMK AO2 T02720222
03949KAQV AQV20160727140511707/27/16 14:05:31  5-MIN KAQV 272005Z AUTO VRB05KT 10SM BKN110 27/22 A2997 330 74 1900 VRB/05 RMK AO2 TSE04 T02720222
03949KAQV AQV20160727141013307/27/16 14:10:31  5-MIN KAQV 272010Z AUTO 22007KT 200V260 10SM BKN110 27/22 A2997 330 74 1900 220/07 200V260 RMK AO2 TSE04 T02720222
03949KAQV AQV20160727141511707/27/16 14:15:31  5-MIN KAQV 272015Z AUTO 22007KT 10SM BKN110 27/22 A2997 330 71 1900 210/07 RMK AO2 TSE04 T02720217
03949KAQV AQV20160727142011707/27/16 14:20:31  5-MIN KAQV 272020Z AUTO 23007KT 10SM BKN110 28/22 A2997 330 69 1900 220/07 RMK AO2 TSE04 T02780217
03949KAQV AQV20160727142511707/27/16 14:25:31  5-MIN KAQV 272025Z AUTO VRB06KT 10SM BKN120 28/22 A2997 330 71 1900 VRB/06 RMK AO2 TSE04 T02780222
03949KAQV AQV20160727143011707/27/16 14:30:31  5-MIN KAQV 272030Z AUTO VRB05KT 10SM BKN110 28/22 A2997 330 69 1900 VRB/05 RMK AO2 TSE04 T02780217
03949KAQV AQV20160727143512407/27/16 14:35:31  5-MIN KAQV 272035Z AUTO VRB06KT 10SM FEW085 BKN110 28/22 A2997 330 69 1900 VRB/06 RMK AO2 TSE04 T02780217
03949KAQV AQV20160727144011407/27/16 14:40:31  5-MIN KAQV 272040Z AUTO 10SM SCT085 BKN120 28/22 A2997 330 69 1900 M /M RMK AO2 TSE04 T02780217
03949KAQV AQV20160727144512407/27/16 14:45:31  5-MIN KAQV 272045Z AUTO 24007KT 10SM SCT080 BKN110 28/22 A2997 330 69 1900 230/07 RMK AO2 TSE04 T02780217
03949KAQV AQV20160727145014307/27/16 14:50:31  5-MIN KAQV 272050Z AUTO 22007KT 10SM BKN080 BKN120 28/22 A2997 330 69 1900 220/07 RMK AO2 TSE04 SLP145 60001 T02780217 53001
03949KAQV AQV20160727145515007/27/16 14:55:31  5-MIN KAQV 272055Z AUTO VRB03KT 10SM FEW028 BKN080 BKN120 28/22 A2997 330 71 1900 VRB/03 RMK AO2 TSE04 SLP146 60001 T02780222 53001
03949KAQV AQV20160727150012507/27/16 15:00:31  5-MIN KAQV 272100Z AUTO 00000KT 10SM FEW028 BKN080 OVC120 28/22 A2997 330 69 2000 000/00 RMK AO2 T02830222
03949KAQV AQV20160727150512507/27/16 15:05:31  5-MIN KAQV 272105Z AUTO VRB03KT 10SM FEW028 BKN080 OVC120 28/22 A2997 330 71 1900 VRB/03 RMK AO2 T02780222
03949KAQV AQV20160727151012507/27/16 15:10:31  5-MIN KAQV 272110Z AUTO 21003KT 10SM SCT030 SCT080 OVC120 28/22 A2997 330 71 1900 200/03 RMK AO2 T02780222
03949KAQV AQV20160727151512507/27/16 15:15:31  5-MIN KAQV 272115Z AUTO VRB03KT 10SM SCT030 BKN080 OVC120 28/22 A2997 330 71 1900 VRB/03 RMK AO2 T02780222
03949KAQV AQV20160727152014107/27/16 15:20:31  5-MIN KAQV 272120Z AUTO VRB04KT 10SM -RA FEW030 SCT070 OVC120 28/22 A2997 330 71 1900 VRB/04 RMK AO2 RAB16 P0000 T02780222
03949KAQV AQV20160727152514107/27/16 15:25:31  5-MIN KAQV 272125Z AUTO VRB04KT 10SM -RA FEW030 BKN085 OVC120 28/22 A2997 330 71 1900 VRB/04 RMK AO2 RAB16 P0000 T02780222
03949KAQV AQV20160727153014007/27/16 15:30:31  5-MIN KAQV 272130Z AUTO 00000KT 10SM FEW030 BKN085 BKN110 28/22 A2997 330 69 2000 000/00 RMK AO2 RAB16E26 P0000 T02830222
03949KAQV AQV20160727153514007/27/16 15:35:31  5-MIN KAQV 272135Z AUTO VRB03KT 10SM FEW030 SCT085 SCT110 28/23 A2996 340 74 1900 VRB/03 RMK AO2 RAB16E26 P0000 T02780228
03949KAQV AQV20160727154014007/27/16 15:40:31  5-MIN KAQV 272140Z AUTO VRB03KT 10SM FEW030 SCT085 SCT110 28/22 A2996 340 69 2000 VRB/03 RMK AO2 RAB16E26 P0000 T02830222
03949KAQV AQV20160727154512607/27/16 15:45:31  5-MIN KAQV 272145Z AUTO VRB04KT 10SM FEW085 28/22 A2996 340 69 2000 VRB/04 RMK AO2 RAB16E26 P0000 T02830222
03949KAQV AQV20160727155013307/27/16 15:50:31  5-MIN KAQV 272150Z AUTO 20004KT 10SM FEW085 28/23 A2996 340 71 2000 190/04 RMK AO2 RAB16E26 SLP140 P0000 T02830228
03949KAQV AQV20160727155513007/27/16 15:55:31  5-MIN KAQV 272155Z AUTO 18004KT 10SM CLR 28/22 A2996 340 69 2000 180/04 RMK AO2 RAB16E26 SLP140 P0000 T02830222
03949KAQV AQV20160727160010807/27/16 16:00:31  5-MIN KAQV 272200Z AUTO VRB03KT 10SM CLR 28/23 A2996 340 71 2000 VRB/03 RMK AO2 T02830228
03949KAQV AQV20160727160511107/27/16 16:05:31  5-MIN KAQV 272205Z AUTO 17003KT 10SM FEW110 28/23 A2996 340 74 1900 170/03 RMK AO2 T02780228
03949KAQV AQV20160727161011807/27/16 16:10:31  5-MIN KAQV 272210Z AUTO 00000KT 10SM FEW090 SCT110 28/23 A2996 340 74 1900 000/00 RMK AO2 T02780228
03949KAQV AQV20160727161511807/27/16 16:15:31  5-MIN KAQV 272215Z AUTO 18003KT 10SM FEW090 SCT110 28/23 A2996 340 74 1900 180/03 RMK AO2 T02780228
03949KAQV AQV20160727162011807/27/16 16:20:31  5-MIN KAQV 272220Z AUTO 00000KT 10SM SCT100 SCT120 28/23 A2996 340 74 1900 000/00 RMK AO2 T02780228
03949KAQV AQV20160727162511807/27/16 16:25:31  5-MIN KAQV 272225Z AUTO 00000KT 10SM SCT100 SCT120 28/23 A2996 340 71 2000 000/00 RMK AO2 T02830228
03949KAQV AQV20160727163011807/27/16 16:30:31  5-MIN KAQV 272230Z AUTO 17003KT 10SM SCT095 SCT120 28/23 A2995 340 74 2000 160/03 RMK AO2 T02830233
03949KAQV AQV20160727163511107/27/16 16:35:31  5-MIN KAQV 272235Z AUTO VRB03KT 10SM SCT100 28/23 A2995 350 71 2000 VRB/03 RMK AO2 T02830228
03949KAQV AQV20160727164011107/27/16 16:40:31  5-MIN KAQV 272240Z AUTO VRB04KT 10SM SCT100 28/23 A2995 350 71 2000 VRB/04 RMK AO2 T02830228
03949KAQV AQV20160727164511107/27/16 16:45:31  5-MIN KAQV 272245Z AUTO VRB03KT 10SM FEW100 28/23 A2994 350 74 2000 VRB/03 RMK AO2 T02830233
03949KAQV AQV20160727165011807/27/16 16:50:31  5-MIN KAQV 272250Z AUTO VRB03KT 10SM FEW100 28/23 A2994 360 71 2000 VRB/03 RMK AO2 SLP135 T02830228
03949KAQV AQV20160727165511807/27/16 16:55:31  5-MIN KAQV 272255Z AUTO VRB03KT 10SM FEW100 28/23 A2994 360 71 2000 VRB/03 RMK AO2 SLP134 T02830228
03949KAQV AQV20160727170011107/27/16 17:00:31  5-MIN KAQV 272300Z AUTO 19003KT 10SM FEW100 28/23 A2994 360 71 2000 190/03 RMK AO2 T02830228
03949KAQV AQV20160727170510807/27/16 17:05:31  5-MIN KAQV 272305Z AUTO 18003KT 10SM CLR 28/23 A2993 370 71 2000 180/03 RMK AO2 T02830228
03949KAQV AQV20160727171010807/27/16 17:10:31  5-MIN KAQV 272310Z AUTO VRB03KT 10SM CLR 28/23 A2993 360 71 2000 VRB/03 RMK AO2 T02830228
03949KAQV AQV20160727171510807/27/16 17:15:31  5-MIN KAQV 272315Z AUTO VRB03KT 10SM CLR 28/23 A2993 370 71 2000 VRB/03 RMK AO2 T02830228
03949KAQV AQV20160727172010807/27/16 17:20:31  5-MIN KAQV 272320Z AUTO 17003KT 10SM CLR 28/23 A2993 370 76 2000 170/03 RMK AO2 T02780233
03949KAQV AQV20160727172510807/27/16 17:25:31  5-MIN KAQV 272325Z AUTO 00000KT 10SM CLR 28/23 A2993 370 76 2000 000/00 RMK AO2 T02780233
03949KAQV AQV20160727173010807/27/16 17:30:31  5-MIN KAQV 272330Z AUTO 00000KT 10SM CLR 28/23 A2993 370 76 2000 000/00 RMK AO2 T02780233
03949KAQV AQV20160727173510807/27/16 17:35:31  5-MIN KAQV 272335Z AUTO VRB03KT 10SM CLR 28/23 A2993 370 76 2000 VRB/03 RMK AO2 T02780233
03949KAQV AQV20160727174010807/27/16 17:40:31  5-MIN KAQV 272340Z AUTO VRB03KT 10SM CLR 28/23 A2993 370 74 2000 VRB/03 RMK AO2 T02780228
03949KAQV AQV20160727174510807/27/16 17:45:31  5-MIN KAQV 272345Z AUTO VRB04KT 10SM CLR 28/23 A2993 370 74 2000 VRB/04 RMK AO2 T02780228
03949KAQV AQV20160727175013907/27/16 17:50:31  5-MIN KAQV 272350Z AUTO VRB03KT 10SM CLR 27/23 A2993 370 76 1900 VRB/03 RMK AO2 SLP131 60001 T02720228 10283 20244 56008
03949KAQV AQV20160727175513907/27/16 17:55:31  5-MIN KAQV 272355Z AUTO VRB03KT 10SM CLR 27/23 A2993 370 76 1900 VRB/03 RMK AO2 SLP131 60001 T02720228 10283 20244 56008
03949KAQV AQV20160727180010807/27/16 18:00:31  5-MIN KAQV 280000Z AUTO VRB03KT 10SM CLR 27/23 A2993 370 76 1900 VRB/03 RMK AO2 T02720228
03949KAQV AQV20160727180510807/27/16 18:05:31  5-MIN KAQV 280005Z AUTO 19004KT 10SM CLR 27/22 A2993 370 74 1900 180/04 RMK AO2 T02720222
03949KAQV AQV20160727181010807/27/16 18:10:31  5-MIN KAQV 280010Z AUTO 19003KT 10SM CLR 27/23 A2993 370 76 1900 190/03 RMK AO2 T02720228
03949KAQV AQV20160727181510807/27/16 18:15:31  5-MIN KAQV 280015Z AUTO 19004KT 10SM CLR 27/22 A2993 370 76 1800 180/04 RMK AO2 T02670222
03949KAQV AQV20160727182010807/27/16 18:20:31  5-MIN KAQV 280020Z AUTO VRB04KT 10SM CLR 26/22 A2993 370 81 1700 VRB/04 RMK AO2 T02560222
03949KAQV AQV20160727182510807/27/16 18:25:31  5-MIN KAQV 280025Z AUTO 19004KT 10SM CLR 26/22 A2993 370 81 1700 180/04 RMK AO2 T02560222
03949KAQV AQV20160727183010807/27/16 18:30:31  5-MIN KAQV 280030Z AUTO VRB04KT 10SM CLR 27/22 A2993 370 76 1800 VRB/04 RMK AO2 T02670222
03949KAQV AQV20160727183510807/27/16 18:35:31  5-MIN KAQV 280035Z AUTO 19003KT 10SM CLR 26/22 A2993 370 79 1800 180/03 RMK AO2 T02610222
03949KAQV AQV20160727184010807/27/16 18:40:31  5-MIN KAQV 280040Z AUTO 00000KT 10SM CLR 26/22 A2993 360 79 1800 000/00 RMK AO2 T02610222
03949KAQV AQV20160727184510807/27/16 18:45:31  5-MIN KAQV 280045Z AUTO 00000KT 10SM CLR 26/22 A2993 360 79 1800 000/00 RMK AO2 T02610222
03949KAQV AQV20160727185011507/27/16 18:50:31  5-MIN KAQV 280050Z AUTO VRB03KT 10SM CLR 26/22 A2994 360 79 1800 VRB/03 RMK AO2 SLP133 T02610222
03949KAQV AQV20160727185511507/27/16 18:55:31  5-MIN KAQV 280055Z AUTO 18003KT 10SM CLR 26/22 A2994 360 79 1800 180/03 RMK AO2 SLP134 T02610222
03949KAQV AQV20160727190010807/27/16 19:00:31  5-MIN KAQV 280100Z AUTO 00000KT 10SM CLR 25/23 A2994 360 87 1600 000/00 RMK AO2 T02500228
03949KAQV AQV20160727190510807/27/16 19:05:31  5-MIN KAQV 280105Z AUTO 00000KT 10SM CLR 25/23 A2994 360 87 1600 000/00 RMK AO2 T02500228
03949KAQV AQV20160727191010807/27/16 19:10:31  5-MIN KAQV 280110Z AUTO 00000KT 10SM CLR 24/22 A2995 350 87 1600 000/00 RMK AO2 T02440222
03949KAQV AQV20160727191510807/27/16 19:15:31  5-MIN KAQV 280115Z AUTO 00000KT 10SM CLR 24/22 A2995 350 87 1600 000/00 RMK AO2 T02440222
03949KAQV AQV20160727192010807/27/16 19:20:31  5-MIN KAQV 280120Z AUTO 00000KT 10SM CLR 24/23 A2995 350 90 1600 000/00 RMK AO2 T02440228
03949KAQV AQV20160727192510807/27/16 19:25:31  5-MIN KAQV 280125Z AUTO 00000KT 10SM CLR 24/23 A2995 350 90 1600 000/00 RMK AO2 T02440228
03949KAQV AQV20160727193010807/27/16 19:30:31  5-MIN KAQV 280130Z AUTO 00000KT 10SM CLR 24/23 A2996 340 90 1600 000/00 RMK AO2 T02440228
03949KAQV AQV20160727193510807/27/16 19:35:31  5-MIN KAQV 280135Z AUTO 00000KT 10SM CLR 24/23 A2996 340 90 1600 000/00 RMK AO2 T02440228
03949KAQV AQV20160727194010807/27/16 19:40:31  5-MIN KAQV 280140Z AUTO 00000KT 10SM CLR 24/23 A2996 340 90 1600 000/00 RMK AO2 T02440228
03949KAQV AQV20160727194510807/27/16 19:45:31  5-MIN KAQV 280145Z AUTO 00000KT 10SM CLR 24/22 A2996 340 87 1600 000/00 RMK AO2 T02440222
03949KAQV AQV20160727195011507/27/16 19:50:31  5-MIN KAQV 280150Z AUTO 00000KT 10SM CLR 24/22 A2996 340 87 1600 000/00 RMK AO2 SLP142 T02440222
03949KAQV AQV20160727195511507/27/16 19:55:31  5-MIN KAQV 280155Z AUTO 00000KT 10SM CLR 24/22 A2996 340 87 1500 000/00 RMK AO2 SLP142 T02440222
03949KAQV AQV20160727200010807/27/16 20:00:31  5-MIN KAQV 280200Z AUTO 00000KT 10SM CLR 24/22 A2996 340 87 1500 000/00 RMK AO2 T02440222
03949KAQV AQV20160727200510807/27/16 20:05:31  5-MIN KAQV 280205Z AUTO 00000KT 10SM CLR 24/23 A2997 330 90 1500 000/00 RMK AO2 T02440228
03949KAQV AQV20160727201010807/27/16 20:10:31  5-MIN KAQV 280210Z AUTO 00000KT 10SM CLR 24/23 A2997 330 90 1500 000/00 RMK AO2 T02440228
03949KAQV AQV20160727201510807/27/16 20:15:31  5-MIN KAQV 280215Z AUTO 00000KT 10SM CLR 24/23 A2997 330 90 1500 000/00 RMK AO2 T02440228
03949KAQV AQV20160727202011107/27/16 20:20:31  5-MIN KAQV 280220Z AUTO 00000KT 10SM FEW065 24/23 A2997 330 93 1500 000/00 RMK AO2 T02390228
03949KAQV AQV20160727202511107/27/16 20:25:31  5-MIN KAQV 280225Z AUTO 00000KT 10SM SCT070 24/23 A2997 330 93 1500 000/00 RMK AO2 T02390228
03949KAQV AQV20160727203011107/27/16 20:30:31  5-MIN KAQV 280230Z AUTO 00000KT 10SM SCT070 24/23 A2997 330 93 1500 000/00 RMK AO2 T02390228
03949KAQV AQV20160727203511107/27/16 20:35:31  5-MIN KAQV 280235Z AUTO 00000KT 10SM BKN070 24/23 A2998 320 93 1500 000/00 RMK AO2 T02390228
03949KAQV AQV20160727204011107/27/16 20:40:31  5-MIN KAQV 280240Z AUTO 00000KT 10SM BKN070 24/23 A2998 320 93 1500 000/00 RMK AO2 T02390228
03949KAQV AQV20160727204511107/27/16 20:45:31  5-MIN KAQV 280245Z AUTO 00000KT 10SM OVC070 24/23 A2998 320 93 1500 000/00 RMK AO2 T02390228
03949KAQV AQV20160727205012407/27/16 20:50:31  5-MIN KAQV 280250Z AUTO 17003KT 10SM OVC070 24/23 A2997 330 93 1500 170/03 RMK AO2 SLP147 T02390228 56015
03949KAQV AQV20160727205512407/27/16 20:55:31  5-MIN KAQV 280255Z AUTO 17004KT 10SM BKN070 24/22 A2998 320 90 1500 170/04 RMK AO2 SLP148 T02390222 56015
03949KAQV AQV20160727210011107/27/16 21:00:31  5-MIN KAQV 280300Z AUTO 19003KT 10SM BKN070 24/22 A2998 320 87 1500 180/03 RMK AO2 T02440222
03949KAQV AQV20160727210511107/27/16 21:05:31  5-MIN KAQV 280305Z AUTO 00000KT 10SM SCT070 24/22 A2998 320 90 1500 000/00 RMK AO2 T02390222
03949KAQV AQV20160727211011807/27/16 21:10:31  5-MIN KAQV 280310Z AUTO 00000KT 10SM FEW027 BKN070 24/23 A2998 320 90 1500 000/00 RMK AO2 T02440228
03949KAQV AQV20160727211511807/27/16 21:15:31  5-MIN KAQV 280315Z AUTO 00000KT 10SM FEW027 BKN070 24/23 A2999 320 90 1500 000/00 RMK AO2 T02440228
03949KAQV AQV20160727212011807/27/16 21:20:31  5-MIN KAQV 280320Z AUTO 18003KT 10SM FEW027 BKN075 24/22 A2998 320 87 1500 180/03 RMK AO2 T02440222
03949KAQV AQV20160727212511807/27/16 21:25:31  5-MIN KAQV 280325Z AUTO 18004KT 10SM FEW027 BKN075 24/22 A2998 320 87 1500 180/04 RMK AO2 T02440222
03949KAQV AQV20160727213011807/27/16 21:30:31  5-MIN KAQV 280330Z AUTO 18004KT 10SM FEW027 BKN075 24/22 A2998 320 87 1500 170/04 RMK AO2 T02440222
03949KAQV AQV20160727213511807/27/16 21:35:31  5-MIN KAQV 280335Z AUTO 18004KT 10SM FEW027 BKN080 24/22 A2998 320 87 1500 180/04 RMK AO2 T02440222
03949KAQV AQV20160727214011107/27/16 21:40:31  5-MIN KAQV 280340Z AUTO 18003KT 10SM BKN080 24/22 A2998 320 87 1500 180/03 RMK AO2 T02440222
03949KAQV AQV20160727214511107/27/16 21:45:31  5-MIN KAQV 280345Z AUTO 18004KT 10SM BKN080 24/22 A2998 320 87 1500 170/04 RMK AO2 T02440222
03949KAQV AQV20160727215011807/27/16 21:50:31  5-MIN KAQV 280350Z AUTO 19004KT 10SM BKN080 24/22 A2998 320 87 1500 180/04 RMK AO2 SLP150 T02440222
03949KAQV AQV20160727215511807/27/16 21:55:31  5-MIN KAQV 280355Z AUTO VRB03KT 10SM BKN080 24/22 A2998 320 87 1500 VRB/03 RMK AO2 SLP150 T02440222
03949KAQV AQV20160727220011107/27/16 22:00:31  5-MIN KAQV 280400Z AUTO VRB03KT 10SM BKN080 24/22 A2999 320 87 1500 VRB/03 RMK AO2 T02440222
03949KAQV AQV20160727220511107/27/16 22:05:31  5-MIN KAQV 280405Z AUTO 19003KT 10SM SCT080 24/22 A2998 320 87 1500 190/03 RMK AO2 T02440222
03949KAQV AQV20160727221011807/27/16 22:10:31  5-MIN KAQV 280410Z AUTO 19003KT 10SM FEW023 SCT080 24/22 A2998 320 87 1500 190/03 RMK AO2 T02440222
03949KAQV AQV20160727221511807/27/16 22:15:31  5-MIN KAQV 280415Z AUTO VRB04KT 10SM FEW023 FEW080 24/22 A2998 320 87 1500 VRB/04 RMK AO2 T02440222
03949KAQV AQV20160727222011107/27/16 22:20:31  5-MIN KAQV 280420Z AUTO VRB04KT 10SM FEW023 24/22 A2998 320 87 1500 VRB/04 RMK AO2 T02440222
03949KAQV AQV20160727222511107/27/16 22:25:31  5-MIN KAQV 280425Z AUTO 18003KT 10SM FEW023 24/22 A2998 320 87 1500 180/03 RMK AO2 T02440222
03949KAQV AQV20160727223011107/27/16 22:30:31  5-MIN KAQV 280430Z AUTO 00000KT 10SM FEW023 24/22 A2998 320 87 1500 000/00 RMK AO2 T02440222
03949KAQV AQV20160727223510807/27/16 22:35:31  5-MIN KAQV 280435Z AUTO 20003KT 10SM CLR 24/22 A2998 320 90 1500 200/03 RMK AO2 T02390222
03949KAQV AQV20160727224010807/27/16 22:40:31  5-MIN KAQV 280440Z AUTO 00000KT 10SM CLR 24/22 A2998 320 87 1500 000/00 RMK AO2 T02440222
03949KAQV AQV20160727224510807/27/16 22:45:31  5-MIN KAQV 280445Z AUTO 19003KT 10SM CLR 24/22 A2998 320 87 1500 180/03 RMK AO2 T02440222
03949KAQV AQV20160727225011507/27/16 22:50:31  5-MIN KAQV 280450Z AUTO 19004KT 10SM CLR 24/22 A2997 330 87 1500 180/04 RMK AO2 SLP147 T02440222
03949KAQV AQV20160727225511507/27/16 22:55:31  5-MIN KAQV 280455Z AUTO VRB03KT 10SM CLR 24/22 A2998 320 87 1500 VRB/03 RMK AO2 SLP147 T02440222
03949KAQV AQV20160727230010807/27/16 23:00:31  5-MIN KAQV 280500Z AUTO 19004KT 10SM CLR 24/22 A2997 330 87 1500 180/04 RMK AO2 T02440222
03949KAQV AQV20160727230510807/27/16 23:05:31  5-MIN KAQV 280505Z AUTO 20003KT 10SM CLR 24/22 A2997 330 87 1500 190/03 RMK AO2 T02440222
03949KAQV AQV20160727231010807/27/16 23:10:31  5-MIN KAQV 280510Z AUTO VRB03KT 10SM CLR 24/22 A2998 330 87 1500 VRB/03 RMK AO2 T02440222
03949KAQV AQV20160727231510807/27/16 23:15:31  5-MIN KAQV 280515Z AUTO VRB03KT 10SM CLR 24/22 A2997 330 87 1500 VRB/03 RMK AO2 T02440222
03949KAQV AQV20160727232010807/27/16 23:20:31  5-MIN KAQV 280520Z AUTO VRB04KT 10SM CLR 24/22 A2997 330 87 1500 VRB/04 RMK AO2 T02440222
03949KAQV AQV20160727232510807/27/16 23:25:31  5-MIN KAQV 280525Z AUTO VRB03KT 10SM CLR 24/22 A2998 330 87 1500 VRB/03 RMK AO2 T02440222
03949KAQV AQV20160727233010807/27/16 23:30:31  5-MIN KAQV 280530Z AUTO 19003KT 10SM CLR 24/23 A2998 330 90 1500 190/03 RMK AO2 T02440228
03949KAQV AQV20160727233510807/27/16 23:35:31  5-MIN KAQV 280535Z AUTO 20003KT 10SM CLR 24/23 A2997 330 90 1500 200/03 RMK AO2 T02440228
03949KAQV AQV20160727234010807/27/16 23:40:31  5-MIN KAQV 280540Z AUTO VRB03KT 10SM CLR 24/23 A2998 320 90 1500 VRB/03 RMK AO2 T02440228
03949KAQV AQV20160727234510807/27/16 23:45:31  5-MIN KAQV 280545Z AUTO 00000KT 10SM CLR 24/23 A2998 320 90 1500 000/00 RMK AO2 T02440228
03949KAQV AQV20160727235014307/27/16 23:50:31  5-MIN KAQV 280550Z AUTO 00000KT 10SM CLR 24/23 A2997 330 90 1500 000/00 RMK AO2 SLP146 T02440228 10272 20239 403060228 53017
03949KAQV AQV20160727235514307/27/16 23:55:31  5-MIN KAQV 280555Z AUTO 00000KT 10SM CLR 24/23 A2997 330 90 1500 000/00 RMK AO2 SLP146 T02440228 10272 20239 403060228 53017
03949KAQV AQV20160728000010807/28/16 00:00:31  5-MIN KAQV 280600Z AUTO 18003KT 10SM CLR 24/23 A2997 330 90 1500 170/03 RMK AO2 T02440228
03949KAQV AQV20160728000510807/28/16 00:05:31  5-MIN KAQV 280605Z AUTO 18003KT 10SM CLR 24/23 A2997 330 93 1500 180/03 RMK AO2 T02390228
03949KAQV AQV20160728001010807/28/16 00:10:31  5-MIN KAQV 280610Z AUTO 17003KT 10SM CLR 24/23 A2997 330 93 1500 170/03 RMK AO2 T02390228
03949KAQV AQV20160728001510807/28/16 00:15:31  5-MIN KAQV 280615Z AUTO 17003KT 10SM CLR 24/23 A2997 330 93 1500 170/03 RMK AO2 T02390228
03949KAQV AQV20160728002010807/28/16 00:20:31  5-MIN KAQV 280620Z AUTO 18003KT 10SM CLR 24/23 A2997 330 93 1500 170/03 RMK AO2 T02390228
03949KAQV AQV20160728002510807/28/16 00:25:31  5-MIN KAQV 280625Z AUTO 18004KT 10SM CLR 24/23 A2997 330 93 1500 180/04 RMK AO2 T02390228
03949KAQV AQV20160728003010807/28/16 00:30:31  5-MIN KAQV 280630Z AUTO 18003KT 10SM CLR 24/23 A2997 330 93 1500 170/03 RMK AO2 T02390228
03949KAQV AQV20160728003510807/28/16 00:35:31  5-MIN KAQV 280635Z AUTO VRB03KT 10SM CLR 23/23 A2997 330 97 1400 VRB/03 RMK AO2 T02330228
03949KAQV AQV20160728004010807/28/16 00:40:31  5-MIN KAQV 280640Z AUTO 19003KT 10SM CLR 23/23 A2998 320 97 1400 180/03 RMK AO2 T02330228
03949KAQV AQV20160728004510807/28/16 00:45:31  5-MIN KAQV 280645Z AUTO VRB03KT 10SM CLR 23/23 A2998 330 97 1400 VRB/03 RMK AO2 T02330228
03949KAQV AQV20160728005011507/28/16 00:50:31  5-MIN KAQV 280650Z AUTO 18004KT 10SM CLR 23/23 A2997 330 97 1400 180/04 RMK AO2 SLP147 T02330228
03949KAQV AQV20160728005511507/28/16 00:55:31  5-MIN KAQV 280655Z AUTO 18004KT 10SM CLR 23/23 A2997 330 97 1400 180/04 RMK AO2 SLP147 T02330228
03949KAQV AQV20160728010010807/28/16 01:00:31  5-MIN KAQV 280700Z AUTO VRB03KT 10SM CLR 23/23 A2998 320 97 1400 VRB/03 RMK AO2 T02330228
03949KAQV AQV20160728010510807/28/16 01:05:31  5-MIN KAQV 280705Z AUTO 18003KT 10SM CLR 23/23 A2998 320 97 1400 180/03 RMK AO2 T02330228
03949KAQV AQV20160728011010807/28/16 01:10:31  5-MIN KAQV 280710Z AUTO 19003KT 10SM CLR 23/23 A2998 320 97 1400 180/03 RMK AO2 T02330228
03949KAQV AQV20160728011510807/28/16 01:15:31  5-MIN KAQV 280715Z AUTO VRB03KT 10SM CLR 23/23 A2998 320 97 1400 VRB/03 RMK AO2 T02330228
03949KAQV AQV20160728012010807/28/16 01:20:31  5-MIN KAQV 280720Z AUTO VRB03KT 10SM CLR 23/23 A2998 320 97 1400 VRB/03 RMK AO2 T02330228
03949KAQV AQV20160728012510807/28/16 01:25:31  5-MIN KAQV 280725Z AUTO 19003KT 10SM CLR 23/23 A2998 320 97 1400 180/03 RMK AO2 T02330228
03949KAQV AQV20160728013010807/28/16 01:30:31  5-MIN KAQV 280730Z AUTO 18003KT 10SM CLR 23/23 A2998 320 97 1400 180/03 RMK AO2 T02330228
03949KAQV AQV20160728013510807/28/16 01:35:31  5-MIN KAQV 280735Z AUTO 00000KT 10SM CLR 23/23 A2998 320 97 1400 000/00 RMK AO2 T02330228
03949KAQV AQV20160728014010807/28/16 01:40:31  5-MIN KAQV 280740Z AUTO 19003KT 10SM CLR 23/23 A2998 320 97 1400 190/03 RMK AO2 T02330228
03949KAQV AQV20160728014510807/28/16 01:45:31  5-MIN KAQV 280745Z AUTO 00000KT 10SM CLR 23/23 A2998 330 97 1400 000/00 RMK AO2 T02330228
03949KAQV AQV20160728015011507/28/16 01:50:31  5-MIN KAQV 280750Z AUTO 00000KT 10SM CLR 23/23 A2997 330 97 1400 000/00 RMK AO2 SLP146 T02330228
03949KAQV AQV20160728015511507/28/16 01:55:31  5-MIN KAQV 280755Z AUTO 18003KT 10SM CLR 23/23 A2997 330 97 1400 170/03 RMK AO2 SLP146 T02330228
03949KAQV AQV20160728020010807/28/16 02:00:31  5-MIN KAQV 280800Z AUTO VRB03KT 10SM CLR 23/23 A2997 330 97 1400 VRB/03 RMK AO2 T02330228
03949KAQV AQV20160728020510807/28/16 02:05:31  5-MIN KAQV 280805Z AUTO 17003KT 10SM CLR 23/23 A2997 330 97 1400 170/03 RMK AO2 T02330228
03949KAQV AQV20160728021010807/28/16 02:10:31  5-MIN KAQV 280810Z AUTO 00000KT 10SM CLR 23/23 A2998 330 97 1400 000/00 RMK AO2 T02330228
03949KAQV AQV20160728021510807/28/16 02:15:31  5-MIN KAQV 280815Z AUTO 18003KT 10SM CLR 23/23 A2998 320 97 1400 180/03 RMK AO2 T02330228
03949KAQV AQV20160728022010807/28/16 02:20:31  5-MIN KAQV 280820Z AUTO 18003KT 10SM CLR 23/23 A2998 320 97 1400 180/03 RMK AO2 T02330228
03949KAQV AQV20160728022510807/28/16 02:25:31  5-MIN KAQV 280825Z AUTO 00000KT 10SM CLR 23/23 A2998 320 97 1400 000/00 RMK AO2 T02330228
03949KAQV AQV20160728023010807/28/16 02:30:31  5-MIN KAQV 280830Z AUTO 00000KT 10SM CLR 23/23 A2998 320 97 1400 000/00 RMK AO2 T02330228
03949KAQV AQV20160728023511107/28/16 02:35:31  5-MIN KAQV 280835Z AUTO 00000KT 10SM FEW012 23/23 A2998 320 97 1400 000/00 RMK AO2 T02330228
03949KAQV AQV20160728024011107/28/16 02:40:31  5-MIN KAQV 280840Z AUTO 00000KT 10SM SCT012 23/23 A2998 320 97 1400 000/00 RMK AO2 T02330228
03949KAQV AQV20160728024511107/28/16 02:45:31  5-MIN KAQV 280845Z AUTO 00000KT 10SM BKN012 23/23 A2998 320 97 1400 000/00 RMK AO2 T02330228
03949KAQV AQV20160728025012407/28/16 02:50:31  5-MIN KAQV 280850Z AUTO 00000KT 10SM BKN012 23/23 A2998 320 97 1400 000/00 RMK AO2 SLP149 T02330228 58002
03949KAQV AQV20160728025512407/28/16 02:55:31  5-MIN KAQV 280855Z AUTO 00000KT 10SM BKN013 23/23 A2998 320 97 1400 000/00 RMK AO2 SLP149 T02330228 58002
03949KAQV AQV20160728030011107/28/16 03:00:31  5-MIN KAQV 280900Z AUTO 00000KT 10SM OVC013 23/23 A2998 320 97 1400 000/00 RMK AO2 T02330228
03949KAQV AQV20160728030511007/28/16 03:05:31  5-MIN KAQV 280905Z AUTO 17003KT 9SM OVC013 23/23 A2998 320 97 1400 170/03 RMK AO2 T02330228
03949KAQV AQV20160728031011007/28/16 03:10:31  5-MIN KAQV 280910Z AUTO 19003KT 8SM OVC013 23/23 A2998 320 97 1400 180/03 RMK AO2 T02330228
03949KAQV AQV20160728031511707/28/16 03:15:31  5-MIN KAQV 280915Z AUTO 18003KT 8SM BKN013 OVC023 23/23 A2998 320 97 1400 170/03 RMK AO2 T02330228
03949KAQV AQV20160728032012407/28/16 03:20:31  5-MIN KAQV 280920Z AUTO 17004KT 9SM BKN013 BKN023 OVC095 23/23 A2998 320 97 1400 170/04 RMK AO2 T02330228
03949KAQV AQV20160728032512407/28/16 03:25:31  5-MIN KAQV 280925Z AUTO 19004KT 9SM SCT013 BKN021 OVC095 23/23 A2998 320 97 1400 180/04 RMK AO2 T02330228
03949KAQV AQV20160728033012507/28/16 03:30:31  5-MIN KAQV 280930Z AUTO 18003KT 10SM SCT016 BKN024 OVC095 23/23 A2998 320 97 1400 180/03 RMK AO2 T02330228
03949KAQV AQV20160728033512507/28/16 03:35:31  5-MIN KAQV 280935Z AUTO 00000KT 10SM FEW015 BKN024 OVC095 23/23 A2998 320 97 1400 000/00 RMK AO2 T02330228
03949KAQV AQV20160728034012507/28/16 03:40:31  5-MIN KAQV 280940Z AUTO VRB03KT 10SM SCT017 BKN024 OVC120 23/23 A2999 320 97 1400 VRB/03 RMK AO2 T02330228
03949KAQV AQV20160728034512507/28/16 03:45:31  5-MIN KAQV 280945Z AUTO 18004KT 10SM FEW018 BKN030 OVC120 24/23 A2999 320 97 1500 180/04 RMK AO2 T02390233
03949KAQV AQV20160728035013207/28/16 03:50:31  5-MIN KAQV 280950Z AUTO VRB03KT 10SM SCT021 BKN028 OVC120 24/23 A2999 320 97 1500 VRB/03 RMK AO2 SLP150 T02390233
03949KAQV AQV20160728035513207/28/16 03:55:31  5-MIN KAQV 280955Z AUTO 00000KT 10SM SCT021 SCT028 BKN035 24/23 A2999 310 97 1500 000/00 RMK AO2 SLP151 T02390233
03949KAQV AQV20160728040012507/28/16 04:00:31  5-MIN KAQV 281000Z AUTO VRB03KT 10SM FEW019 SCT031 BKN120 24/23 A2999 320 97 1500 VRB/03 RMK AO2 T02390233
03949KAQV AQV20160728040511807/28/16 04:05:31  5-MIN KAQV 281005Z AUTO 18005KT 10SM FEW019 SCT120 24/23 A2999 310 97 1500 180/05 RMK AO2 T02390233
03949KAQV AQV20160728041011807/28/16 04:10:31  5-MIN KAQV 281010Z AUTO VRB04KT 10SM FEW024 FEW120 24/23 A2999 310 97 1500 VRB/04 RMK AO2 T02390233
03949KAQV AQV20160728041511807/28/16 04:15:31  5-MIN KAQV 281015Z AUTO VRB03KT 10SM FEW032 FEW120 24/23 A2999 310 97 1500 VRB/03 RMK AO2 T02390233
03949KAQV AQV20160728042011107/28/16 04:20:31  5-MIN KAQV 281020Z AUTO VRB03KT 10SM FEW029 24/23 A2999 310 97 1500 VRB/03 RMK AO2 T02390233
03949KAQV AQV20160728042510807/28/16 04:25:31  5-MIN KAQV 281025Z AUTO VRB04KT 10SM CLR 24/23 A2999 310 97 1500 VRB/04 RMK AO2 T02390233
03949KAQV AQV20160728043011107/28/16 04:30:31  5-MIN KAQV 281030Z AUTO VRB03KT 10SM FEW110 24/24 A2999 310 97 1500 VRB/03 RMK AO2 T02440239
03949KAQV AQV20160728043511007/28/16 04:35:31  5-MIN KAQV 281035Z AUTO 20003KT 9SM SCT110 24/24 A2999 310 97 1500 190/03 RMK AO2 T02440239
03949KAQV AQV20160728044011107/28/16 04:40:31  5-MIN KAQV 281040Z AUTO VRB03KT 10SM BKN100 24/24 A2999 310 97 1500 VRB/03 RMK AO2 T02440239
03949KAQV AQV20160728044511107/28/16 04:45:31  5-MIN KAQV 281045Z AUTO 18004KT 10SM BKN100 24/24 A2999 310 97 1500 180/04 RMK AO2 T02440239
03949KAQV AQV20160728045011807/28/16 04:50:31  5-MIN KAQV 281050Z AUTO VRB03KT 10SM BKN100 24/24 A2999 310 97 1500 VRB/03 RMK AO2 SLP152 T02440239
03949KAQV AQV20160728045511807/28/16 04:55:31  5-MIN KAQV 281055Z AUTO 00000KT 10SM OVC100 24/24 A2999 310 97 1500 000/00 RMK AO2 SLP153 T02440239
03949KAQV AQV20160728050011107/28/16 05:00:31  5-MIN KAQV 281100Z AUTO VRB03KT 10SM OVC100 24/24 A3000 310 97 1500 VRB/03 RMK AO2 T02440239
03949KAQV AQV20160728050511107/28/16 05:05:31  5-MIN KAQV 281105Z AUTO VRB04KT 10SM OVC100 24/24 A3000 310 97 1500 VRB/04 RMK AO2 T02440239
03949KAQV AQV20160728051011107/28/16 05:10:31  5-MIN KAQV 281110Z AUTO VRB03KT 10SM OVC100 24/24 A3000 310 97 1500 VRB/03 RMK AO2 T02440239
03949KAQV AQV20160728051511107/28/16 05:15:31  5-MIN KAQV 281115Z AUTO 19004KT 10SM OVC100 24/24 A3000 310 97 1500 180/04 RMK AO2 T02440239
03949KAQV AQV20160728052011107/28/16 05:20:31  5-MIN KAQV 281120Z AUTO 18005KT 10SM OVC100 24/24 A2999 310 97 1500 180/05 RMK AO2 T02440239
03949KAQV AQV20160728052511107/28/16 05:25:31  5-MIN KAQV 281125Z AUTO VRB04KT 10SM OVC110 24/24 A3000 310 97 1500 VRB/04 RMK AO2 T02440239
03949KAQV AQV20160728053011107/28/16 05:30:31  5-MIN KAQV 281130Z AUTO 19004KT 10SM BKN110 24/24 A3000 310 97 1500 180/04 RMK AO2 T02440239
03949KAQV AQV20160728053511107/28/16 05:35:31  5-MIN KAQV 281135Z AUTO 19004KT 10SM BKN110 24/24 A3000 310 97 1500 180/04 RMK AO2 T02440239
03949KAQV AQV20160728054011007/28/16 05:40:31  5-MIN KAQV 281140Z AUTO VRB03KT 9SM OVC110 24/24 A3000 310 97 1500 VRB/03 RMK AO2 T02440239
03949KAQV AQV20160728054511007/28/16 05:45:31  5-MIN KAQV 281145Z AUTO 19003KT 8SM OVC110 25/24 A3000 310 93 1600 180/03 RMK AO2 T02500239
03949KAQV AQV20160728055014107/28/16 05:50:31  5-MIN KAQV 281150Z AUTO VRB03KT 8SM OVC110 25/24 A2999 310 93 1600 VRB/03 RMK AO2 SLP153 70007 T02500239 10250 20233 53003
03949KAQV AQV20160728055514107/28/16 05:55:31  5-MIN KAQV 281155Z AUTO VRB03KT 8SM OVC110 25/24 A2999 310 93 1600 VRB/03 RMK AO2 SLP153 70007 T02500239 10250 20233 53003
03949KAQV AQV20160728060011007/28/16 06:00:31  5-MIN KAQV 281200Z AUTO VRB03KT 8SM OVC110 25/24 A2999 310 97 1600 VRB/03 RMK AO2 T02500244
03949KAQV AQV20160728060511007/28/16 06:05:31  5-MIN KAQV 281205Z AUTO VRB04KT 8SM OVC110 25/24 A2999 310 97 1600 VRB/04 RMK AO2 T02500244
03949KAQV AQV20160728061011007/28/16 06:10:31  5-MIN KAQV 281210Z AUTO VRB03KT 8SM OVC110 25/24 A2999 310 97 1600 VRB/03 RMK AO2 T02500244
03949KAQV AQV20160728061511007/28/16 06:15:31  5-MIN KAQV 281215Z AUTO 21004KT 8SM BKN110 25/24 A2999 310 97 1600 200/04 RMK AO2 T02500244
03949KAQV AQV20160728062011007/28/16 06:20:31  5-MIN KAQV 281220Z AUTO VRB03KT 8SM OVC100 25/24 A2999 310 97 1600 VRB/03 RMK AO2 T02500244
03949KAQV AQV20160728062511007/28/16 06:25:31  5-MIN KAQV 281225Z AUTO VRB04KT 8SM BKN110 25/24 A3000 310 97 1600 VRB/04 RMK AO2 T02500244
03949KAQV AQV20160728063011007/28/16 06:30:31  5-MIN KAQV 281230Z AUTO VRB04KT 8SM BKN110 25/24 A3000 310 97 1600 VRB/04 RMK AO2 T02500244
03949KAQV AQV20160728063511007/28/16 06:35:31  5-MIN KAQV 281235Z AUTO VRB03KT 9SM BKN110 25/24 A3000 310 97 1600 VRB/03 RMK AO2 T02500244
03949KAQV AQV20160728064011007/28/16 06:40:31  5-MIN KAQV 281240Z AUTO VRB03KT 9SM BKN110 25/24 A3000 300 97 1600 VRB/03 RMK AO2 T02500244
03949KAQV AQV20160728064511007/28/16 06:45:31  5-MIN KAQV 281245Z AUTO VRB03KT 9SM BKN100 25/24 A3000 300 97 1600 VRB/03 RMK AO2 T02500244
03949KAQV AQV20160728065011707/28/16 06:50:31  5-MIN KAQV 281250Z AUTO VRB05KT 9SM BKN110 26/24 A3000 300 93 1600 VRB/05 RMK AO2 SLP155 T02560244
03949KAQV AQV20160728065511707/28/16 06:55:31  5-MIN KAQV 281255Z AUTO 00000KT 9SM BKN110 26/24 A3000 300 93 1600 000/00 RMK AO2 SLP155 T02560244
03949KAQV AQV20160728070011007/28/16 07:00:31  5-MIN KAQV 281300Z AUTO VRB04KT 9SM BKN110 26/24 A3000 300 93 1600 VRB/04 RMK AO2 T02560244
03949KAQV AQV20160728070511007/28/16 07:05:31  5-MIN KAQV 281305Z AUTO VRB05KT 9SM BKN110 26/24 A3000 300 93 1600 VRB/05 RMK AO2 T02560244
03949KAQV AQV20160728071011007/28/16 07:10:31  5-MIN KAQV 281310Z AUTO VRB05KT 9SM SCT110 26/24 A3000 300 93 1600 VRB/05 RMK AO2 T02560244
03949KAQV AQV20160728071511007/28/16 07:15:31  5-MIN KAQV 281315Z AUTO 21003KT 9SM SCT110 26/25 A3000 300 97 1600 200/03 RMK AO2 T02560250
03949KAQV AQV20160728072010107/28/16 07:20:31  5-MIN KAQV 281320Z AUTO 10SM FEW120 26/25 A3001 300 97 1600 M /M RMK AO2 T02560250
03949KAQV AQV20160728072511107/28/16 07:25:31  5-MIN KAQV 281325Z AUTO 22005KT 10SM SCT110 26/24 A3001 290 93 1600 210/05 RMK AO2 T02560244
03949KAQV AQV20160728073011107/28/16 07:30:31  5-MIN KAQV 281330Z AUTO VRB03KT 10SM SCT110 26/24 A3001 290 93 1600 VRB/03 RMK AO2 T02560244
03949KAQV AQV20160728073511107/28/16 07:35:31  5-MIN KAQV 281335Z AUTO 00000KT 10SM SCT110 26/25 A3001 290 93 1700 000/00 RMK AO2 T02610250
03949KAQV AQV20160728074011107/28/16 07:40:31  5-MIN KAQV 281340Z AUTO VRB03KT 10SM BKN110 26/25 A3001 290 93 1700 VRB/03 RMK AO2 T02610250
03949KAQV AQV20160728074511107/28/16 07:45:31  5-MIN KAQV 281345Z AUTO VRB04KT 10SM BKN110 26/25 A3001 290 93 1700 VRB/04 RMK AO2 T02610250
03949KAQV AQV20160728075011807/28/16 07:50:31  5-MIN KAQV 281350Z AUTO VRB03KT 10SM BKN110 26/25 A3001 290 93 1700 VRB/03 RMK AO2 SLP159 T02610250
03949KAQV AQV20160728075511807/28/16 07:55:31  5-MIN KAQV 281355Z AUTO VRB05KT 10SM OVC110 26/25 A3001 290 93 1700 VRB/05 RMK AO2 SLP159 T02610250
03949KAQV AQV20160728080011007/28/16 08:00:31  5-MIN KAQV 281400Z AUTO VRB03KT 8SM OVC110 26/25 A3001 290 93 1700 VRB/03 RMK AO2 T02610250
03949KAQV AQV20160728080511007/28/16 08:05:31  5-MIN KAQV 281405Z AUTO 00000KT 8SM OVC110 26/25 A3001 290 93 1700 000/00 RMK AO2 T02610250
03949KAQV AQV20160728081011107/28/16 08:10:31  5-MIN KAQV 281410Z AUTO VRB04KT 10SM BKN110 26/25 A3001 290 93 1700 VRB/04 RMK AO2 T02610250
03949KAQV AQV20160728081511107/28/16 08:15:31  5-MIN KAQV 281415Z AUTO VRB06KT 10SM BKN110 27/25 A3001 290 90 1700 VRB/06 RMK AO2 T02670250
03949KAQV AQV20160728082011107/28/16 08:20:31  5-MIN KAQV 281420Z AUTO 00000KT 10SM BKN110 27/25 A3001 290 90 1700 000/00 RMK AO2 T02670250
03949KAQV AQV20160728082511107/28/16 08:25:31  5-MIN KAQV 281425Z AUTO VRB04KT 10SM BKN110 27/25 A3002 290 90 1700 VRB/04 RMK AO2 T02670250
03949KAQV AQV20160728083011107/28/16 08:30:31  5-MIN KAQV 281430Z AUTO VRB04KT 10SM BKN110 27/25 A3002 290 87 1800 VRB/04 RMK AO2 T02720250
03949KAQV AQV20160728083511807/28/16 08:35:31  5-MIN KAQV 281435Z AUTO VRB03KT 10SM FEW014 BKN110 28/25 A3001 290 84 1900 VRB/03 RMK AO2 T02780250
03949KAQV AQV20160728084011807/28/16 08:40:31  5-MIN KAQV 281440Z AUTO VRB05KT 10SM SCT014 BKN110 28/25 A3001 290 82 1900 VRB/05 RMK AO2 T02830250
03949KAQV AQV20160728084511807/28/16 08:45:31  5-MIN KAQV 281445Z AUTO VRB04KT 10SM SCT014 BKN110 28/25 A3001 290 82 1900 VRB/04 RMK AO2 T02830250
03949KAQV AQV20160728085010807/28/16 08:50:31  5-MIN KAQV 281450Z AUTO VRB03KT 10SM BKN014 BKN110 29/25 A3001 290 79 2000 VRB/03 RMK AO2
03949KAQV AQV20160728085513107/28/16 08:55:31  5-MIN KAQV 281455Z AUTO 23006KT 10SM BKN014 BKN120 29/25 A3001 290 79 2000 220/06 RMK AO2 SLP160 T02890250 51006
03949KAQV AQV20160728090011107/28/16 09:00:31  5-MIN KAQV 281500Z AUTO 19007KT 10SM BKN014 29/25 A3001 290 76 2100 190/07 RMK AO2 T02940250
03949KAQV AQV20160728090513407/28/16 09:05:31  5-MIN KAQV 281505Z AUTO 21007KT 180V240 10SM BKN016 BKN023 29/25 A3001 290 79 2000 210/07 180V240 RMK AO2 T02890250
03949KAQV AQV20160728091013407/28/16 09:10:31  5-MIN KAQV 281510Z AUTO 21007KT 170V240 10SM BKN016 BKN023 29/25 A3001 290 79 2000 210/07 170V240 RMK AO2 T02890250
03949KAQV AQV20160728091511807/28/16 09:15:31  5-MIN KAQV 281515Z AUTO VRB05KT 10SM SCT016 BKN023 29/25 A3001 290 76 2100 VRB/05 RMK AO2 T02940250
03949KAQV AQV20160728092011807/28/16 09:20:31  5-MIN KAQV 281520Z AUTO VRB06KT 10SM BKN019 BKN026 31/25 A3001 290 72 2200 VRB/06 RMK AO2 T03060250
03949KAQV AQV20160728092512507/28/16 09:25:31  5-MIN KAQV 281525Z AUTO VRB04KT 10SM SCT019 BKN023 BKN030 31/24 A3001 290 69 2200 VRB/04 RMK AO2 T03060244
03949KAQV AQV20160728093011807/28/16 09:30:31  5-MIN KAQV 281530Z AUTO VRB05KT 10SM BKN021 BKN029 31/24 A3001 290 69 2200 VRB/05 RMK AO2 T03060244
03949KAQV AQV20160728093513407/28/16 09:35:31  5-MIN KAQV 281535Z AUTO 25007KT 170V270 10SM SCT021 BKN031 31/24 A3001 290 69 2200 240/07 170V270 RMK AO2 T03060244
03949KAQV AQV20160728094012507/28/16 09:40:31  5-MIN KAQV 281540Z AUTO 25008KT 10SM FEW019 BKN027 BKN033 31/24 A3001 290 67 2200 250/08 RMK AO2 T03060239
03949KAQV AQV20160728094514707/28/16 09:45:31  5-MIN KAQV 281545Z AUTO 24009G16KT 210V280 10SM FEW019 SCT027 BKN035 31/24 A3001 290 67 2200 240/09G16 210V280 RMK AO2 T03060239
03949KAQV AQV20160728095013707/28/16 09:50:31  5-MIN KAQV 281550Z AUTO 24007G16KT 210V270 10SM FEW025 BKN032 BKN040 31/24 A3001 290 65 2200 240/07G16 210V270 RMK AO2
03949KAQV AQV20160728095513807/28/16 09:55:31  5-MIN KAQV 281555Z AUTO 21008G16KT 10SM FEW027 SCT034 SCT041 32/24 A3001 290 63 2300 200/08G16 RMK AO2 SLP158 T03170239
03949KAQV AQV20160728100011807/28/16 10:00:31  5-MIN KAQV 281600Z AUTO 25006KT 10SM FEW027 SCT036 32/24 A3000 300 63 2300 240/06 RMK AO2 T03170239
03949KAQV AQV20160728100512507/28/16 10:05:31  5-MIN KAQV 281605Z AUTO VRB06KT 10SM FEW027 SCT036 SCT046 32/23 A3000 300 61 2300 VRB/06 RMK AO2 T03170233
03949KAQV AQV20160728101010807/28/16 10:10:31  5-MIN KAQV 281610Z AUTO 10SM SCT034 BKN046 32/24 A3000 300 61 2400 M /M RMK AO2 T03220239
03949KAQV AQV20160728101511807/28/16 10:15:31  5-MIN KAQV 281615Z AUTO VRB05KT 10SM BKN032 BKN041 31/23 A3000 300 63 2200 VRB/05 RMK AO2 T03110233
03949KAQV AQV20160728102012507/28/16 10:20:31  5-MIN KAQV 281620Z AUTO VRB05KT 10SM SCT029 BKN034 BKN047 31/24 A3001 300 67 2200 VRB/05 RMK AO2 T03060239
03949KAQV AQV20160728102512507/28/16 10:25:31  5-MIN KAQV 281625Z AUTO VRB05KT 10SM SCT029 BKN038 BKN047 31/24 A3001 300 67 2200 VRB/05 RMK AO2 T03060239
03949KAQV AQV20160728103012507/28/16 10:30:31  5-MIN KAQV 281630Z AUTO VRB06KT 10SM SCT029 BKN038 BKN048 31/24 A3001 300 67 2200 VRB/06 RMK AO2 T03060239
03949KAQV AQV20160728103511807/28/16 10:35:31  5-MIN KAQV 281635Z AUTO 25004KT 10SM SCT029 SCT038 31/24 A3001 300 67 2200 250/04 RMK AO2 T03060239
03949KAQV AQV20160728104012507/28/16 10:40:31  5-MIN KAQV 281640Z AUTO VRB06KT 10SM SCT027 SCT034 BKN041 31/24 A3000 300 67 2200 VRB/06 RMK AO2 T03060239
03949KAQV AQV20160728104512507/28/16 10:45:31  5-MIN KAQV 281645Z AUTO VRB05KT 10SM SCT027 BKN034 BKN041 31/24 A3000 300 65 2300 VRB/05 RMK AO2 T03110239
03949KAQV AQV20160728105013207/28/16 10:50:31  5-MIN KAQV 281650Z AUTO VRB05KT 10SM FEW025 SCT030 BKN041 31/24 A3000 300 67 2200 VRB/05 RMK AO2 SLP155 T03060239
03949KAQV AQV20160728105514107/28/16 10:55:31  5-MIN KAQV 281655Z AUTO 26007KT 230V300 10SM FEW025 SCT032 31/24 A3000 300 67 2300 260/07 230V300 RMK AO2 SLP155 T03110244
03949KAQV AQV20160728110014007/28/16 11:00:31  5-MIN KAQV 281700Z AUTO 26009G14KT 210V280 10SM FEW025 SCT032 32/24 A3000 300 65 2300 250/09G14 210V280 RMK AO2 T03170244
03949KAQV AQV20160728110512407/28/16 11:05:31  5-MIN KAQV 281705Z AUTO VRB06G14KT 10SM SCT026 BKN037 31/24 A3000 300 67 2200 VRB/06G14 RMK AO2 T03060239
03949KAQV AQV20160728111012507/28/16 11:10:31  5-MIN KAQV 281710Z AUTO VRB05KT 10SM SCT026 SCT039 BKN055 31/22 A3000 300 58 2200 VRB/05 RMK AO2 T03060217
03949KAQV AQV20160728111512507/28/16 11:15:31  5-MIN KAQV 281715Z AUTO VRB05KT 10SM FEW026 FEW033 SCT055 31/22 A3000 300 58 2200 VRB/05 RMK AO2 T03060217
03949KAQV AQV20160728112011107/28/16 11:20:31  5-MIN KAQV 281720Z AUTO 23007KT 10SM FEW026 30/23 A3000 300 65 2100 220/07 RMK AO2 T03000228
03949KAQV AQV20160728112511107/28/16 11:25:31  5-MIN KAQV 281725Z AUTO VRB05KT 10SM FEW026 31/23 A3000 310 65 2200 VRB/05 RMK AO2 T03060233
03949KAQV AQV20160728113012707/28/16 11:30:31  5-MIN KAQV 281730Z AUTO 21007KT 160V230 10SM FEW025 31/24 A3000 310 67 2200 210/07 160V230 RMK AO2 T03060239
03949KAQV AQV20160728113510807/28/16 11:35:31  5-MIN KAQV 281735Z AUTO 24004KT 10SM CLR 30/24 A3000 300 69 2100 230/04 RMK AO2 T03000239
03949KAQV AQV20160728114010807/28/16 11:40:31  5-MIN KAQV 281740Z AUTO VRB03KT 10SM CLR 31/24 A3000 300 67 2200 VRB/03 RMK AO2 T03060239
03949KAQV AQV20160728114510807/28/16 11:45:31  5-MIN KAQV 281745Z AUTO VRB04KT 10SM CLR 31/24 A3000 300 67 2300 VRB/04 RMK AO2 T03110244
03949KAQV AQV20160728115013307/28/16 11:50:31  5-MIN KAQV 281750Z AUTO VRB03KT 10SM CLR 31/24 A3000 300 67 2200 VRB/03 RMK AO2 SLP156 T03060239 10322 20250 50005
03949KAQV AQV20160728115513307/28/16 11:55:31  5-MIN KAQV 281755Z AUTO VRB04KT 10SM CLR 31/24 A3000 300 67 2200 VRB/04 RMK AO2 SLP155 T03060239 10322 20250 50005
03949KAQV AQV20160728120010807/28/16 12:00:31  5-MIN KAQV 281800Z AUTO VRB03KT 10SM CLR 31/23 A3000 300 65 2200 VRB/03 RMK AO2 T03060233
03949KAQV AQV20160728120511707/28/16 12:05:31  5-MIN KAQV 281805Z AUTO VRB04KT 10SM TS CLR 31/23 A2999 310 65 2200 VRB/04 RMK AO2 TSB02 T03060233
03949KAQV AQV20160728121011707/28/16 12:10:31  5-MIN KAQV 281810Z AUTO 25005KT 10SM TS CLR 31/23 A2999 310 65 2200 250/05 RMK AO2 TSB02 T03060233
03949KAQV AQV20160728121511707/28/16 12:15:31  5-MIN KAQV 281815Z AUTO VRB04KT 10SM TS CLR 31/24 A2999 310 65 2300 VRB/04 RMK AO2 TSB02 T03110239
03949KAQV AQV20160728122011707/28/16 12:20:31  5-MIN KAQV 281820Z AUTO VRB04KT 10SM TS CLR 31/23 A3000 300 63 2300 VRB/04 RMK AO2 TSB02 T03110233
03949KAQV AQV20160728122511707/28/16 12:25:31  5-MIN KAQV 281825Z AUTO VRB06KT 10SM TS CLR 31/24 A3000 300 65 2200 VRB/06 RMK AO2 TSB02 T03110239
03949KAQV AQV20160728123011707/28/16 12:30:31  5-MIN KAQV 281830Z AUTO VRB05KT 10SM TS CLR 31/23 A3000 300 63 2300 VRB/05 RMK AO2 TSB02 T03110233
03949KAQV AQV20160728123512007/28/16 12:35:31  5-MIN KAQV 281835Z AUTO 25007KT 10SM TS FEW048 31/23 A3001 290 63 2200 250/07 RMK AO2 TSB02 T03110233
03949KAQV AQV20160728124013307/28/16 12:40:31  5-MIN KAQV 281840Z AUTO 27007G17KT 10SM TS FEW032 SCT048 28/21 A3001 290 62 1900 260/07G17 RMK AO2 TSB02 T02830206
03949KAQV AQV20160728124514007/28/16 12:45:31  5-MIN KAQV 281845Z AUTO 27007G17KT 10SM TS FEW032 SCT050 SCT060 28/20 A3002 280 62 1900 270/07G17 RMK AO2 TSB02 T02780200
03949KAQV AQV20160728125014107/28/16 12:50:31  5-MIN KAQV 281850Z AUTO VRB05KT 10SM TS FEW032 SCT055 BKN090 27/20 A3002 280 66 1700 VRB/05 RMK AO2 TSB02 SLP162 T02670200
03949KAQV AQV20160728125515607/28/16 12:55:31  5-MIN KAQV 281855Z AUTO VRB06KT 10SM -TSRA FEW031 SCT050 BKN080 26/20 A3001 290 68 1700 VRB/06 RMK AO2 RAB51 TSB02 SLP159 P0000 T02610200
03949KAQV AQV20160728130013707/28/16 13:00:31  5-MIN KAQV 281900Z AUTO VRB04KT 10SM -TSRA FEW031 SCT055 BKN080 26/20 A3001 290 71 1600 VRB/04 RMK AO2 P0000 T02560200
03949KAQV AQV20160728130513707/28/16 13:05:31  5-MIN KAQV 281905Z AUTO VRB05KT 10SM -TSRA FEW031 SCT070 BKN085 25/20 A3000 300 73 1600 VRB/05 RMK AO2 P0000 T02500200
03949KAQV AQV20160728131014407/28/16 13:10:31  5-MIN KAQV 281910Z AUTO VRB03KT 10SM -TSRA FEW055 BKN090 BKN110 25/20 A2999 310 73 1600 VRB/03 RMK AO2 PRESFR P0000 T02500200
03949KAQV AQV20160728131513707/28/16 13:15:31  5-MIN KAQV 281915Z AUTO VRB03KT 10SM -TSRA FEW065 BKN090 BKN110 25/20 A2999 310 73 1600 VRB/03 RMK AO2 P0000 T02500200
03949KAQV AQV20160728132014007/28/16 13:20:31  5-MIN KAQV 281920Z AUTO 36004KT 10SM TS FEW033 BKN090 BKN110 25/20 A2999 310 73 1600 360/04 RMK AO2 RAE18 P0000 T02500200
03949KAQV AQV20160728132514007/28/16 13:25:31  5-MIN KAQV 281925Z AUTO VRB03KT 10SM TS FEW045 SCT090 BKN110 25/19 A2999 310 71 1600 VRB/03 RMK AO2 RAE18 P0000 T02500194
03949KAQV AQV20160728133014007/28/16 13:30:31  5-MIN KAQV 281930Z AUTO 03003KT 10SM TS FEW080 SCT095 BKN110 26/20 A2999 310 71 1600 030/03 RMK AO2 RAE18 P0000 T02560200
03949KAQV AQV20160728133513307/28/16 13:35:31  5-MIN KAQV 281935Z AUTO 03003KT 10SM TS FEW095 SCT110 26/20 A2999 320 71 1600 030/03 RMK AO2 RAE18 P0000 T02560200
03949KAQV AQV20160728134013307/28/16 13:40:31  5-MIN KAQV 281940Z AUTO 06003KT 10SM TS FEW095 FEW110 26/19 A2999 320 68 1600 050/03 RMK AO2 RAE18 P0000 T02560194
03949KAQV AQV20160728134512607/28/16 13:45:31  5-MIN KAQV 281945Z AUTO 07003KT 10SM TS FEW110 26/20 A2999 310 71 1600 060/03 RMK AO2 RAE18 P0000 T02560200
03949KAQV AQV20160728135013307/28/16 13:50:31  5-MIN KAQV 281950Z AUTO VRB05KT 10SM TS FEW110 26/20 A3001 300 68 1700 VRB/05 RMK AO2 RAE18 SLP157 P0000 T02610200
03949KAQV AQV20160728135515207/28/16 13:55:31  5-MIN KAQV 281955Z AUTO 06010G15KT 030V100 10SM TS CLR 26/21 A3001 300 71 1700 060/10G15 030V100 RMK AO2 RAE18 SLP157 P0000 T02610206
03949KAQV AQV20160728140011707/28/16 14:00:31  5-MIN KAQV 282000Z AUTO 04008G15KT 10SM TS CLR 25/21 A3000 310 76 1600 040/08G15 RMK AO2 T02500206
03949KAQV AQV20160728140511707/28/16 14:05:31  5-MIN KAQV 282005Z AUTO 05006KT 10SM TS CLR 25/21 A2999 310 76 1600 050/06 RMK AO2 TSB02 T02500206
03949KAQV AQV20160728141011707/28/16 14:10:31  5-MIN KAQV 282010Z AUTO VRB03KT 10SM TS CLR 25/21 A3000 300 76 1600 VRB/03 RMK AO2 TSB02 T02500206
03949KAQV AQV20160728141512007/28/16 14:15:31  5-MIN KAQV 282015Z AUTO 06004KT 10SM TS FEW039 26/21 A3001 300 73 1600 060/04 RMK AO2 TSB02 T02560206
03949KAQV AQV20160728142012007/28/16 14:20:31  5-MIN KAQV 282020Z AUTO VRB05KT 10SM TS FEW039 26/21 A3001 290 76 1600 VRB/05 RMK AO2 TSB02 T02560211
03949KAQV AQV20160728142512007/28/16 14:25:31  5-MIN KAQV 282025Z AUTO VRB05KT 10SM TS FEW039 26/22 A3001 290 79 1600 VRB/05 RMK AO2 TSB02 T02560217
03949KAQV AQV20160728143012007/28/16 14:30:31  5-MIN KAQV 282030Z AUTO 06006KT 10SM TS FEW039 26/22 A3001 300 79 1600 060/06 RMK AO2 TSB02 T02560217
03949KAQV AQV20160728143512007/28/16 14:35:31  5-MIN KAQV 282035Z AUTO VRB03KT 10SM FEW039 26/22 A3001 300 79 1600 VRB/03 RMK AO2 TSB02E31 T02560217
03949KAQV AQV20160728144012007/28/16 14:40:31  5-MIN KAQV 282040Z AUTO 10005KT 10SM FEW039 25/22 A3000 300 81 1600 100/05 RMK AO2 TSB02E31 T02500217
03949KAQV AQV20160728144512707/28/16 14:45:31  5-MIN KAQV 282045Z AUTO VRB06KT 10SM FEW011 FEW039 25/22 A3000 300 84 1600 VRB/06 RMK AO2 TSB02E31 T02500222
03949KAQV AQV20160728145013907/28/16 14:50:31  5-MIN KAQV 282050Z AUTO VRB05KT 10SM FEW011 25/22 A3001 300 84 1600 VRB/05 RMK AO2 TSB02E31 SLP158 60000 T02500222 55003
03949KAQV AQV20160728145515507/28/16 14:55:31  5-MIN KAQV 282055Z AUTO 13007KT 080V160 10SM SCT010 24/22 A3001 290 84 1500 120/07 080V160 RMK AO2 TSB02E31 SLP160 60000 T02440217 55003
03949KAQV AQV20160728150013907/28/16 15:00:31  5-MIN KAQV 282100Z AUTO 12007KT 060V150 10SM BKN010 24/22 A3001 290 84 1500 120/07 060V150 RMK AO2 CIG 008V011 T02440217
03949KAQV AQV20160728150511107/28/16 15:05:31  5-MIN KAQV 282105Z AUTO VRB03KT 10SM BKN008 24/22 A3000 300 84 1500 VRB/03 RMK AO2 T02440217
03949KAQV AQV20160728151012307/28/16 15:10:31  5-MIN KAQV 282110Z AUTO 00000KT 10SM BKN008 24/22 A3000 300 84 1500 000/00 RMK AO2 CIG 008V011 T02440217
03949KAQV AQV20160728151511107/28/16 15:15:31  5-MIN KAQV 282115Z AUTO VRB05KT 10SM SCT008 25/22 A3000 310 81 1600 VRB/05 RMK AO2 T02500217
03949KAQV AQV20160728152011107/28/16 15:20:31  5-MIN KAQV 282120Z AUTO VRB06KT 10SM SCT008 24/22 A2999 310 84 1500 VRB/06 RMK AO2 T02440217
03949KAQV AQV20160728152511107/28/16 15:25:31  5-MIN KAQV 282125Z AUTO VRB04KT 10SM SCT008 24/22 A3000 300 84 1500 VRB/04 RMK AO2 T02440217
03949KAQV AQV20160728153012007/28/16 15:30:31  5-MIN KAQV 282130Z AUTO 06008KT 10SM TS SCT008 24/22 A3000 300 84 1500 050/08 RMK AO2 TSB28 T02440217
03949KAQV AQV20160728153512007/28/16 15:35:31  5-MIN KAQV 282135Z AUTO VRB04KT 10SM TS FEW008 24/22 A3001 290 84 1500 VRB/04 RMK AO2 TSB28 T02440217
03949KAQV AQV20160728154013407/28/16 15:40:31  5-MIN KAQV 282140Z AUTO 00000KT 10SM TS SCT010 SCT060 25/22 A3002 280 81 1500 000/00 RMK AO2 TSB28 PRESRR T02500217
03949KAQV AQV20160728154512707/28/16 15:45:31  5-MIN KAQV 282145Z AUTO VRB03KT 10SM TS SCT010 BKN060 24/22 A3003 280 84 1500 VRB/03 RMK AO2 TSB28 T02440217
03949KAQV AQV20160728155011007/28/16 15:50:31  5-MIN KAQV 282150Z AUTO 00000KT 10SM BKN010 24/22 A3002 290 84 1500 000/00 RMK AO2 TSB28E46
03949KAQV AQV20160728155513407/28/16 15:55:31  5-MIN KAQV 282155Z AUTO VRB05KT 10SM BKN010 BKN014 24/22 A3003 280 84 1500 VRB/05 RMK AO2 TSB28E46 SLP165 T02440217
03949KAQV AQV20160728160012507/28/16 16:00:31  5-MIN KAQV 282200Z AUTO VRB04KT 10SM BKN010 BKN014 BKN040 24/22 A3002 280 84 1500 VRB/04 RMK AO2 T02440217
03949KAQV AQV20160728160512507/28/16 16:05:31  5-MIN KAQV 282205Z AUTO VRB03KT 10SM SCT010 BKN014 OVC050 24/22 A3002 280 84 1500 VRB/03 RMK AO2 T02440217
03949KAQV AQV20160728161012507/28/16 16:10:31  5-MIN KAQV 282210Z AUTO VRB03KT 10SM BKN010 BKN041 OVC050 25/22 A3003 280 81 1500 VRB/03 RMK AO2 T02500217
03949KAQV AQV20160728161512507/28/16 16:15:31  5-MIN KAQV 282215Z AUTO 27003KT 10SM BKN012 BKN041 OVC050 24/22 A3004 260 84 1500 260/03 RMK AO2 T02440217
03949KAQV AQV20160728162013207/28/16 16:20:31  5-MIN KAQV 282220Z AUTO 00000KT 10SM BKN012 BKN041 OVC050 24/22 A3005 260 84 1500 000/00 RMK AO2 PRESRR T02440217
03949KAQV AQV20160728162512507/28/16 16:25:31  5-MIN KAQV 282225Z AUTO VRB04KT 10SM BKN012 BKN041 OVC050 24/22 A3005 260 84 1500 VRB/04 RMK AO2 T02440217
03949KAQV AQV20160728163014707/28/16 16:30:31  5-MIN KAQV 282230Z AUTO 00000KT 1 1/2SM +RA BR SCT012 BKN041 OVC050 24/22 A3005 260 90 1400 000/00 RMK AO2 RAB27 P0005 T02390222
03949KAQV AQV20160728163514507/28/16 16:35:31  5-MIN KAQV 282235Z AUTO 00000KT 3/4SM +RA BR SCT012 BKN042 OVC050 24/22 A3005 260 90 1400 000/00 RMK AO2 RAB27 P0009 T02390222
03949KAQV AQV20160728164014207/28/16 16:40:31  5-MIN KAQV 282240Z AUTO 00000KT 1SM RA BR SCT012 BKN044 OVC070 23/23 A3005 250 97 1300 000/00 RMK AO2 RAB27 P0011 T02330228
03949KAQV AQV20160728164514507/28/16 16:45:31  5-MIN KAQV 282245Z AUTO 24004KT 3/4SM +RA BR FEW014 BKN034 OVC070 23/22 A3006 250 93 1300 240/04 RMK AO2 RAB27 P0020 T02330222
03949KAQV AQV20160728165013507/28/16 16:50:31  5-MIN KAQV 282250Z AUTO 00000KT 1/4SM +RA FG FEW019 BKN029 OVC043 23/22 A3005 260 97 1300 000/00 RMK AO2 RAB27 P0038
03949KAQV AQV20160728165514507/28/16 16:55:31  5-MIN KAQV 282255Z AUTO 00000KT 1/4SM +RA FG BKN029 OVC070 23/22 A3005 260 97 1300 000/00 RMK AO2 RAB27 SLP172 P0048 T02280222
03949KAQV AQV20160728170013207/28/16 17:00:31  5-MIN KAQV 282300Z AUTO 00000KT 1/2SM +RA FG BKN034 OVC070 23/22 A3005 260 97 1300 000/00 RMK AO2 P0003 T02280222
03949KAQV AQV20160728170512907/28/16 17:05:31  5-MIN KAQV 282305Z AUTO 23003KT 1SM RA BR FEW022 OVC036 23/22 A3005 260 97 1300 230/03 RMK AO2 P0006 T02280222
03949KAQV AQV20160728171013707/28/16 17:10:31  5-MIN KAQV 282310Z AUTO VRB03KT 1SM +RA BR FEW022 BKN036 OVC085 23/22 A3005 260 97 1300 VRB/03 RMK AO2 P0009 T02280222
03949KAQV AQV20160728171514007/28/16 17:15:31  5-MIN KAQV 282315Z AUTO 23004KT 1 1/4SM RA BR BKN036 BKN075 OVC100 23/22 A3004 260 97 1300 220/04 RMK AO2 P0010 T02280222
03949KAQV AQV20160728172014107/28/16 17:20:31  5-MIN KAQV 282320Z AUTO 25005KT 2 1/2SM -RA BR SCT040 BKN075 OVC100 23/22 A3004 260 97 1300 250/05 RMK AO2 P0010 T02280222
03949KAQV AQV20160728172514007/28/16 17:25:31  5-MIN KAQV 282325Z AUTO VRB04KT 2 1/2SM RA BR FEW013 BKN080 OVC100 23/22 A3004 270 97 1300 VRB/04 RMK AO2 P0012 T02280222
03949KAQV AQV20160728173013607/28/16 17:30:31  5-MIN KAQV 282330Z AUTO VRB04KT 2SM RA BR FEW013 BKN080 OVC110 23/22 A3003 270 97 1300 VRB/04 RMK AO2 P0014 T02280222
03949KAQV AQV20160728173513607/28/16 17:35:31  5-MIN KAQV 282335Z AUTO 23004KT 2SM RA BR FEW055 SCT080 OVC100 23/22 A3003 280 97 1300 230/04 RMK AO2 P0016 T02280222
03949KAQV AQV20160728174012907/28/16 17:40:31  5-MIN KAQV 282340Z AUTO VRB03KT 2SM RA BR FEW080 OVC100 23/22 A3002 280 97 1300 VRB/03 RMK AO2 P0018 T02280222
03949KAQV AQV20160728174513407/28/16 17:45:31  5-MIN KAQV 282345Z AUTO VRB04KT 1 1/2SM +RA BR FEW075 OVC100 23/22 A3002 290 97 1300 VRB/04 RMK AO2 P0021 T02280222
03949KAQV AQV20160728175017207/28/16 17:50:31  5-MIN KAQV 282350Z AUTO VRB04KT 1 1/2SM +RA BR BKN090 OVC110 23/22 A3001 290 97 1300 VRB/04 RMK AO2 PRESFR SLP160 P0023 60071 T02280222 10317 20228 51003
03949KAQV AQV20160728175517107/28/16 17:55:31  5-MIN KAQV 282355Z AUTO VRB03KT 1 3/4SM RA BR BKN090 OVC110 23/22 A3000 300 93 1300 VRB/03 RMK AO2 PRESFR SLP158 P0025 60073 T02280217 10317 20228 51003
03949KAQV AQV20160728180014107/28/16 18:00:31  5-MIN KAQV 290000Z AUTO VRB03KT 2 1/2SM -RA BR BKN100 OVC110 23/22 A3000 310 93 1300 VRB/03 RMK AO2 PRESFR P0001 T02280217
03949KAQV AQV20160728180513707/28/16 18:05:31  5-MIN KAQV 290005Z AUTO 00000KT 5SM -RA BR FEW080 BKN100 23/22 A2999 310 93 1300 000/00 RMK AO2 PRESFR P0001 T02280217
03949KAQV AQV20160728181013407/28/16 18:10:31  5-MIN KAQV 290010Z AUTO 00000KT 8SM -RA FEW085 BKN110 23/22 A2998 320 93 1300 000/00 RMK AO2 PRESFR P0001 T02280217
03949KAQV AQV20160728181513507/28/16 18:15:31  5-MIN KAQV 290015Z AUTO 00000KT 10SM -RA FEW085 BKN110 23/22 A2997 330 93 1300 000/00 RMK AO2 PRESFR P0001 T02280217
03949KAQV AQV20160728182012807/28/16 18:20:31  5-MIN KAQV 290020Z AUTO 00000KT 10SM -RA BKN110 23/22 A2997 330 93 1400 000/00 RMK AO2 PRESFR P0002 T02280217
03949KAQV AQV20160728182512807/28/16 18:25:31  5-MIN KAQV 290025Z AUTO 00000KT 10SM -RA BKN110 23/22 A2996 340 93 1400 000/00 RMK AO2 PRESFR P0002 T02280217
03949KAQV AQV20160728183012107/28/16 18:30:31  5-MIN KAQV 290030Z AUTO 00000KT 10SM -RA SCT110 23/22 A2995 340 93 1400 000/00 RMK AO2 P0002 T02280217
03949KAQV AQV20160728183512107/28/16 18:35:31  5-MIN KAQV 290035Z AUTO 00000KT 10SM -RA SCT110 23/22 A2995 350 93 1400 000/00 RMK AO2 P0002 T02280217
03949KAQV AQV20160728184012107/28/16 18:40:31  5-MIN KAQV 290040Z AUTO 19003KT 10SM -RA FEW110 22/22 A2995 350 97 1300 180/03 RMK AO2 P0002 T02220217
03949KAQV AQV20160728184511807/28/16 18:45:31  5-MIN KAQV 290045Z AUTO 00000KT 10SM -RA CLR 22/22 A2995 350 97 1300 000/00 RMK AO2 P0002 T02220217
03949KAQV AQV20160728185012507/28/16 18:50:31  5-MIN KAQV 290050Z AUTO 00000KT 10SM -RA CLR 23/22 A2995 350 93 1400 000/00 RMK AO2 SLP138 P0002 T02280217
03949KAQV AQV20160728185512507/28/16 18:55:31  5-MIN KAQV 290055Z AUTO 00000KT 10SM -RA CLR 23/22 A2995 350 93 1400 000/00 RMK AO2 SLP138 P0002 T02280217
03949KAQV AQV20160728190011807/28/16 19:00:31  5-MIN KAQV 290100Z AUTO 00000KT 10SM -RA CLR 23/22 A2995 350 93 1400 000/00 RMK AO2 P0000 T02280217
03949KAQV AQV20160728190511807/28/16 19:05:31  5-MIN KAQV 290105Z AUTO 00000KT 10SM -RA CLR 23/22 A2995 350 93 1400 000/00 RMK AO2 P0000 T02280217
03949KAQV AQV20160728191012307/28/16 19:10:31  5-MIN KAQV 290110Z AUTO 03003KT 10SM FEW120 23/22 A2995 350 93 1400 020/03 RMK AO2 RAE07 P0000 T02280217
03949KAQV AQV20160728191512307/28/16 19:15:31  5-MIN KAQV 290115Z AUTO 02004KT 10SM FEW120 23/22 A2995 350 93 1400 010/04 RMK AO2 RAE07 P0000 T02280217
03949KAQV AQV20160728192012307/28/16 19:20:31  5-MIN KAQV 290120Z AUTO 02004KT 10SM FEW120 23/22 A2995 350 93 1400 020/04 RMK AO2 RAE07 P0000 T02280217
03949KAQV AQV20160728192512307/28/16 19:25:31  5-MIN KAQV 290125Z AUTO 03004KT 10SM FEW120 22/22 A2995 350 97 1300 020/04 RMK AO2 RAE07 P0000 T02220217
03949KAQV AQV20160728193012307/28/16 19:30:31  5-MIN KAQV 290130Z AUTO 03004KT 10SM FEW120 22/22 A2995 350 97 1300 020/04 RMK AO2 RAE07 P0000 T02220217
03949KAQV AQV20160728193512307/28/16 19:35:31  5-MIN KAQV 290135Z AUTO 02004KT 10SM FEW120 22/22 A2995 350 97 1300 010/04 RMK AO2 RAE07 P0000 T02220217
03949KAQV AQV20160728194012007/28/16 19:40:31  5-MIN KAQV 290140Z AUTO 02003KT 10SM CLR 22/22 A2995 350 97 1300 020/03 RMK AO2 RAE07 P0000 T02220217
03949KAQV AQV20160728194512007/28/16 19:45:31  5-MIN KAQV 290145Z AUTO 04003KT 10SM CLR 22/22 A2995 340 97 1300 030/03 RMK AO2 RAE07 P0000 T02220217
03949KAQV AQV20160728195012707/28/16 19:50:31  5-MIN KAQV 290150Z AUTO 00000KT 10SM CLR 22/22 A2996 340 97 1300 000/00 RMK AO2 RAE07 SLP141 P0000 T02220217
03949KAQV AQV20160728195512707/28/16 19:55:31  5-MIN KAQV 290155Z AUTO 00000KT 10SM CLR 22/22 A2996 340 97 1300 000/00 RMK AO2 RAE07 SLP142 P0000 T02220217
03949KAQV AQV20160728200010807/28/16 20:00:31  5-MIN KAQV 290200Z AUTO 00000KT 10SM CLR 22/22 A2996 340 97 1300 000/00 RMK AO2 T02220217
03949KAQV AQV20160728200510807/28/16 20:05:31  5-MIN KAQV 290205Z AUTO 00000KT 10SM CLR 22/22 A2996 340 97 1300 000/00 RMK AO2 T02220217
03949KAQV AQV20160728201010807/28/16 20:10:31  5-MIN KAQV 290210Z AUTO 00000KT 10SM CLR 22/22 A2997 330 97 1300 000/00 RMK AO2 T02220217
03949KAQV AQV20160728201510807/28/16 20:15:31  5-MIN KAQV 290215Z AUTO 00000KT 10SM CLR 22/22 A2997 330 97 1300 000/00 RMK AO2 T02220217
03949KAQV AQV20160728202010807/28/16 20:20:31  5-MIN KAQV 290220Z AUTO 00000KT 10SM CLR 22/22 A2997 330 97 1300 000/00 RMK AO2 T02220217
03949KAQV AQV20160728202510807/28/16 20:25:31  5-MIN KAQV 290225Z AUTO 00000KT 10SM CLR 22/22 A2997 330 97 1300 000/00 RMK AO2 T02220217
03949KAQV AQV20160728203010807/28/16 20:30:31  5-MIN KAQV 290230Z AUTO 16003KT 10SM CLR 22/22 A2997 330 97 1300 150/03 RMK AO2 T02220217
03949KAQV AQV20160728203510807/28/16 20:35:31  5-MIN KAQV 290235Z AUTO 17004KT 10SM CLR 22/22 A2997 330 97 1300 170/04 RMK AO2 T02220217
03949KAQV AQV20160728204011107/28/16 20:40:31  5-MIN KAQV 290240Z AUTO 17005KT 10SM FEW002 22/22 A2998 330 97 1300 170/05 RMK AO2 T02220217
03949KAQV AQV20160728204511107/28/16 20:45:31  5-MIN KAQV 290245Z AUTO VRB04KT 10SM FEW002 22/22 A2998 320 97 1300 VRB/04 RMK AO2 T02220217
03949KAQV AQV20160728205013007/28/16 20:50:31  5-MIN KAQV 290250Z AUTO 18004KT 10SM FEW002 22/22 A2998 320 97 1300 180/04 RMK AO2 SLP148 60002 T02220217 58007
03949KAQV AQV20160728205512707/28/16 20:55:31  5-MIN KAQV 290255Z AUTO 18004KT 10SM CLR 22/22 A2998 320 97 1300 180/04 RMK AO2 SLP148 60002 T02220217 58007
03949KAQV AQV20160728210010807/28/16 21:00:31  5-MIN KAQV 290300Z AUTO 18005KT 10SM CLR 22/22 A2998 320 97 1300 170/05 RMK AO2 T02220217
03949KAQV AQV20160728210511107/28/16 21:05:31  5-MIN KAQV 290305Z AUTO 17006KT 10SM FEW002 22/22 A2998 320 97 1300 170/06 RMK AO2 T02220217
03949KAQV AQV20160728211011107/28/16 21:10:31  5-MIN KAQV 290310Z AUTO 17006KT 10SM FEW002 22/22 A2998 320 97 1300 160/06 RMK AO2 T02220217
03949KAQV AQV20160728211511107/28/16 21:15:31  5-MIN KAQV 290315Z AUTO VRB06KT 10SM FEW002 22/22 A2998 320 97 1300 VRB/06 RMK AO2 T02220217
03949KAQV AQV20160728212011107/28/16 21:20:31  5-MIN KAQV 290320Z AUTO VRB03KT 10SM FEW002 22/22 A2998 320 97 1300 VRB/03 RMK AO2 T02220217
03949KAQV AQV20160728212511107/28/16 21:25:31  5-MIN KAQV 290325Z AUTO 00000KT 10SM FEW002 23/22 A2998 320 93 1300 000/00 RMK AO2 T02280217
03949KAQV AQV20160728213011107/28/16 21:30:31  5-MIN KAQV 290330Z AUTO 00000KT 10SM FEW002 23/22 A2998 320 93 1300 000/00 RMK AO2 T02280217
03949KAQV AQV20160728213510807/28/16 21:35:31  5-MIN KAQV 290335Z AUTO 00000KT 10SM CLR 23/22 A2999 310 93 1300 000/00 RMK AO2 T02280217
03949KAQV AQV20160728214010807/28/16 21:40:31  5-MIN KAQV 290340Z AUTO 00000KT 10SM CLR 23/22 A2999 310 93 1300 000/00 RMK AO2 T02280217
03949KAQV AQV20160728214510807/28/16 21:45:31  5-MIN KAQV 290345Z AUTO 35004KT 10SM CLR 23/22 A3000 310 93 1300 350/04 RMK AO2 T02280217
03949KAQV AQV20160728215011507/28/16 21:50:31  5-MIN KAQV 290350Z AUTO 36005KT 10SM CLR 23/22 A3000 300 93 1300 360/05 RMK AO2 SLP155 T02280217
03949KAQV AQV20160728215511507/28/16 21:55:31  5-MIN KAQV 290355Z AUTO 00000KT 10SM CLR 22/22 A3000 300 97 1300 000/00 RMK AO2 SLP155 T02220217
03949KAQV AQV20160728220010807/28/16 22:00:31  5-MIN KAQV 290400Z AUTO 00000KT 10SM CLR 22/22 A3000 300 97 1300 000/00 RMK AO2 T02220217
03949KAQV AQV20160728220510807/28/16 22:05:31  5-MIN KAQV 290405Z AUTO 00000KT 10SM CLR 22/22 A3000 300 97 1300 000/00 RMK AO2 T02220217
03949KAQV AQV20160728221010807/28/16 22:10:31  5-MIN KAQV 290410Z AUTO 00000KT 10SM CLR 22/22 A3000 300 97 1300 000/00 RMK AO2 T02220217
03949KAQV AQV20160728221510807/28/16 22:15:31  5-MIN KAQV 290415Z AUTO 00000KT 10SM CLR 22/22 A3000 300 97 1300 000/00 RMK AO2 T02220217
03949KAQV AQV20160728222010807/28/16 22:20:31  5-MIN KAQV 290420Z AUTO 00000KT 10SM CLR 22/22 A3000 300 97 1300 000/00 RMK AO2 T02220217
03949KAQV AQV20160728222510807/28/16 22:25:31  5-MIN KAQV 290425Z AUTO 00000KT 10SM CLR 22/22 A3000 300 97 1300 000/00 RMK AO2 T02220217
03949KAQV AQV20160728223010807/28/16 22:30:31  5-MIN KAQV 290430Z AUTO 00000KT 10SM CLR 22/22 A3000 300 97 1200 000/00 RMK AO2 T02220217
03949KAQV AQV20160728223510707/28/16 22:35:31  5-MIN KAQV 290435Z AUTO 00000KT 9SM CLR 22/22 A3000 300 97 1200 000/00 RMK AO2 T02220217
03949KAQV AQV20160728224011007/28/16 22:40:31  5-MIN KAQV 290440Z AUTO 00000KT 9SM FEW001 22/22 A3000 300 97 1300 000/00 RMK AO2 T02220217
03949KAQV AQV20160728224511007/28/16 22:45:31  5-MIN KAQV 290445Z AUTO 00000KT 8SM FEW001 22/22 A3000 300 97 1300 000/00 RMK AO2 T02220217
03949KAQV AQV20160728225011707/28/16 22:50:31  5-MIN KAQV 290450Z AUTO 00000KT 7SM FEW001 22/22 A3000 300 97 1300 000/00 RMK AO2 SLP155 T02220217
03949KAQV AQV20160728225511707/28/16 22:55:31  5-MIN KAQV 290455Z AUTO 00000KT 7SM FEW001 22/21 A3000 300 93 1300 000/00 RMK AO2 SLP156 T02220211
03949KAQV AQV20160728230011307/28/16 23:00:31  5-MIN KAQV 290500Z AUTO 00000KT 6SM BR FEW001 22/21 A3000 300 97 1200 000/00 RMK AO2 T02170211
03949KAQV AQV20160728230511307/28/16 23:05:31  5-MIN KAQV 290505Z AUTO 00000KT 6SM BR FEW001 22/21 A3000 300 97 1200 000/00 RMK AO2 T02170211
03949KAQV AQV20160728231011007/28/16 23:10:31  5-MIN KAQV 290510Z AUTO 00000KT 6SM BR CLR 22/21 A3000 300 97 1200 000/00 RMK AO2 T02170211
03949KAQV AQV20160728231511307/28/16 23:15:31  5-MIN KAQV 290515Z AUTO 00000KT 6SM BR FEW002 22/21 A3000 300 97 1200 000/00 RMK AO2 T02170211
03949KAQV AQV20160728232011307/28/16 23:20:31  5-MIN KAQV 290520Z AUTO 00000KT 6SM BR FEW002 22/21 A3000 300 97 1200 000/00 RMK AO2 T02170211
03949KAQV AQV20160728232511307/28/16 23:25:31  5-MIN KAQV 290525Z AUTO 19003KT 6SM BR FEW002 22/21 A3000 300 97 1200 180/03 RMK AO2 T02170211
03949KAQV AQV20160728233011307/28/16 23:30:31  5-MIN KAQV 290530Z AUTO 00000KT 6SM BR FEW002 22/21 A3000 300 97 1200 000/00 RMK AO2 T02170211
03949KAQV AQV20160728233511007/28/16 23:35:31  5-MIN KAQV 290535Z AUTO 00000KT 7SM FEW002 22/21 A3000 300 97 1200 000/00 RMK AO2 T02170211
03949KAQV AQV20160728234011007/28/16 23:40:31  5-MIN KAQV 290540Z AUTO 00000KT 8SM FEW002 22/21 A3001 290 97 1200 000/00 RMK AO2 T02170211
03949KAQV AQV20160728234511007/28/16 23:45:31  5-MIN KAQV 290545Z AUTO 00000KT 8SM FEW002 22/21 A3001 300 97 1200 000/00 RMK AO2 T02170211
03949KAQV AQV20160728235015107/28/16 23:50:31  5-MIN KAQV 290550Z AUTO 00000KT 8SM FEW002 22/21 A3001 300 97 1200 000/00 RMK AO2 SLP158 60002 T02170211 10228 20217 403220217 55008
03949KAQV AQV20160728235515107/28/16 23:55:31  5-MIN KAQV 290555Z AUTO 00000KT 8SM FEW002 22/21 A3001 290 97 1200 000/00 RMK AO2 SLP158 60002 T02170211 10228 20217 403220217 55008
03949KAQV AQV20160729000010707/29/16 00:00:31  5-MIN KAQV 290600Z AUTO 00000KT 8SM CLR 22/21 A3001 290 97 1200 000/00 RMK AO2 T02170211
03949KAQV AQV20160729000510707/29/16 00:05:31  5-MIN KAQV 290605Z AUTO 00000KT 8SM CLR 22/21 A3001 290 97 1200 000/00 RMK AO2 T02170211
03949KAQV AQV20160729001010707/29/16 00:10:31  5-MIN KAQV 290610Z AUTO 00000KT 7SM CLR 22/21 A3001 290 97 1200 000/00 RMK AO2 T02170211
03949KAQV AQV20160729001511007/29/16 00:15:31  5-MIN KAQV 290615Z AUTO 00000KT 6SM BR CLR 22/21 A3001 290 97 1200 000/00 RMK AO2 T02170211
03949KAQV AQV20160729002011307/29/16 00:20:31  5-MIN KAQV 290620Z AUTO 00000KT 6SM BR FEW001 22/21 A3001 290 97 1200 000/00 RMK AO2 T02170211
03949KAQV AQV20160729002511307/29/16 00:25:31  5-MIN KAQV 290625Z AUTO 00000KT 6SM BR SCT001 22/21 A3001 290 97 1200 000/00 RMK AO2 T02170211
03949KAQV AQV20160729003011307/29/16 00:30:31  5-MIN KAQV 290630Z AUTO 00000KT 5SM BR BKN001 22/21 A3001 290 97 1200 000/00 RMK AO2 T02170211
03949KAQV AQV20160729003511307/29/16 00:35:31  5-MIN KAQV 290635Z AUTO 00000KT 3SM BR BKN001 21/21 A3001 290 97 1100 000/00 RMK AO2 T02110206
03949KAQV AQV20160729004011707/29/16 00:40:31  5-MIN KAQV 290640Z AUTO 00000KT 1 1/4SM BR BKN001 21/21 A3001 290 97 1100 000/00 RMK AO2 T02110206
03949KAQV AQV20160729004511407/29/16 00:45:31  5-MIN KAQV 290645Z AUTO 00000KT 3/4SM BR VV002 21/21 A3001 290 97 1100 000/00 RMK AO2 T02110206
03949KAQV AQV20160729005012107/29/16 00:50:31  5-MIN KAQV 290650Z AUTO 00000KT 3/4SM BR VV002 21/21 A3001 290 97 1100 000/00 RMK AO2 SLP160 T02110206
03949KAQV AQV20160729005511907/29/16 00:55:31  5-MIN KAQV 290655Z AUTO 00000KT 1SM BR VV002 21/21 A3001 290 97 1100 000/00 RMK AO2 SLP161 T02110206
03949KAQV AQV20160729010011707/29/16 01:00:31  5-MIN KAQV 290700Z AUTO 00000KT 2 1/2SM BR BKN002 21/21 A3001 290 97 1100 000/00 RMK AO2 T02110206
03949KAQV AQV20160729010511307/29/16 01:05:31  5-MIN KAQV 290705Z AUTO 00000KT 5SM BR BKN002 21/21 A3001 290 97 1100 000/00 RMK AO2 T02110206
03949KAQV AQV20160729011011007/29/16 01:10:31  5-MIN KAQV 290710Z AUTO 00000KT 8SM SCT002 21/21 A3001 290 97 1100 000/00 RMK AO2 T02110206
03949KAQV AQV20160729011511007/29/16 01:15:31  5-MIN KAQV 290715Z AUTO 00000KT 8SM SCT002 21/21 A3001 290 97 1100 000/00 RMK AO2 T02110206
03949KAQV AQV20160729012011107/29/16 01:20:31  5-MIN KAQV 290720Z AUTO 00000KT 7SM FEW002 21/21 A3001 290 100 1100 000/00 RMK AO2 T02110211
03949KAQV AQV20160729012511307/29/16 01:25:31  5-MIN KAQV 290725Z AUTO 00000KT 6SM BR FEW002 21/21 A3001 300 97 1100 000/00 RMK AO2 T02110206
03949KAQV AQV20160729013011007/29/16 01:30:31  5-MIN KAQV 290730Z AUTO 00000KT 6SM BR CLR 22/21 A3001 300 97 1200 000/00 RMK AO2 T02170211
03949KAQV AQV20160729013510707/29/16 01:35:31  5-MIN KAQV 290735Z AUTO 00000KT 8SM CLR 22/21 A3000 300 97 1200 000/00 RMK AO2 T02170211
03949KAQV AQV20160729014010707/29/16 01:40:31  5-MIN KAQV 290740Z AUTO 00000KT 8SM CLR 22/21 A3000 300 97 1200 000/00 RMK AO2 T02170211
03949KAQV AQV20160729014510707/29/16 01:45:31  5-MIN KAQV 290745Z AUTO 18003KT 9SM CLR 22/21 A3000 300 97 1200 170/03 RMK AO2 T02170211
03949KAQV AQV20160729015011407/29/16 01:50:31  5-MIN KAQV 290750Z AUTO 00000KT 9SM CLR 22/21 A3000 300 97 1200 000/00 RMK AO2 SLP158 T02170211
03949KAQV AQV20160729015511507/29/16 01:55:31  5-MIN KAQV 290755Z AUTO 00000KT 10SM CLR 22/21 A3000 300 97 1200 000/00 RMK AO2 SLP158 T02170211
03949KAQV AQV20160729020010707/29/16 02:00:31  5-MIN KAQV 290800Z AUTO 00000KT 9SM CLR 22/21 A3000 300 97 1200 000/00 RMK AO2 T02170211
03949KAQV AQV20160729020510707/29/16 02:05:31  5-MIN KAQV 290805Z AUTO 00000KT 8SM CLR 22/21 A3000 300 97 1200 000/00 RMK AO2 T02170211
03949KAQV AQV20160729021010707/29/16 02:10:31  5-MIN KAQV 290810Z AUTO 00000KT 9SM CLR 22/21 A3000 300 97 1200 000/00 RMK AO2 T02170211
03949KAQV AQV20160729021510707/29/16 02:15:31  5-MIN KAQV 290815Z AUTO 00000KT 9SM CLR 22/21 A3000 300 97 1200 000/00 RMK AO2 T02170211
03949KAQV AQV20160729022010707/29/16 02:20:31  5-MIN KAQV 290820Z AUTO 19003KT 8SM CLR 22/21 A3000 300 97 1200 190/03 RMK AO2 T02170211
03949KAQV AQV20160729022510707/29/16 02:25:31  5-MIN KAQV 290825Z AUTO 00000KT 8SM CLR 22/21 A3000 300 97 1200 000/00 RMK AO2 T02170211
03949KAQV AQV20160729023010707/29/16 02:30:31  5-MIN KAQV 290830Z AUTO 00000KT 8SM CLR 22/21 A3000 300 97 1200 000/00 RMK AO2 T02170211
03949KAQV AQV20160729023510707/29/16 02:35:31  5-MIN KAQV 290835Z AUTO 00000KT 9SM CLR 22/21 A3000 300 97 1200 000/00 RMK AO2 T02170211
03949KAQV AQV20160729024010707/29/16 02:40:31  5-MIN KAQV 290840Z AUTO 00000KT 9SM CLR 22/21 A3000 300 97 1200 000/00 RMK AO2 T02170211
03949KAQV AQV20160729024510807/29/16 02:45:31  5-MIN KAQV 290845Z AUTO 17003KT 10SM CLR 22/21 A3000 300 97 1200 170/03 RMK AO2 T02170211
03949KAQV AQV20160729025012107/29/16 02:50:31  5-MIN KAQV 290850Z AUTO 00000KT 10SM CLR 22/21 A3000 310 97 1200 000/00 RMK AO2 SLP155 T02170211 51010
03949KAQV AQV20160729025512007/29/16 02:55:31  5-MIN KAQV 290855Z AUTO 00000KT 9SM CLR 22/21 A3000 300 97 1200 000/00 RMK AO2 SLP156 T02170211 51010
03949KAQV AQV20160729030010707/29/16 03:00:31  5-MIN KAQV 290900Z AUTO 00000KT 9SM CLR 22/21 A3000 300 97 1200 000/00 RMK AO2 T02170211
03949KAQV AQV20160729030510707/29/16 03:05:31  5-MIN KAQV 290905Z AUTO 00000KT 9SM CLR 22/21 A3000 300 97 1200 000/00 RMK AO2 T02170211
03949KAQV AQV20160729031010707/29/16 03:10:31  5-MIN KAQV 290910Z AUTO 00000KT 9SM CLR 22/21 A3000 300 97 1200 000/00 RMK AO2 T02170211
03949KAQV AQV20160729031510707/29/16 03:15:31  5-MIN KAQV 290915Z AUTO 00000KT 8SM CLR 22/21 A3000 300 97 1200 000/00 RMK AO2 T02170211
03949KAQV AQV20160729032010707/29/16 03:20:31  5-MIN KAQV 290920Z AUTO 00000KT 9SM CLR 22/21 A3001 300 97 1200 000/00 RMK AO2 T02170211
03949KAQV AQV20160729032510807/29/16 03:25:31  5-MIN KAQV 290925Z AUTO 00000KT 10SM CLR 22/21 A3001 300 97 1200 000/00 RMK AO2 T02170211
03949KAQV AQV20160729033010807/29/16 03:30:31  5-MIN KAQV 290930Z AUTO 00000KT 10SM CLR 22/21 A3000 300 97 1200 000/00 RMK AO2 T02170211
03949KAQV AQV20160729033510807/29/16 03:35:31  5-MIN KAQV 290935Z AUTO 00000KT 10SM CLR 22/21 A3000 300 93 1200 000/00 RMK AO2 T02220211
03949KAQV AQV20160729034010807/29/16 03:40:31  5-MIN KAQV 290940Z AUTO 00000KT 10SM CLR 22/21 A3001 300 93 1200 000/00 RMK AO2 T02220211
03949KAQV AQV20160729034510807/29/16 03:45:31  5-MIN KAQV 290945Z AUTO 00000KT 10SM CLR 22/21 A3000 300 93 1200 000/00 RMK AO2 T02220211
03949KAQV AQV20160729035011507/29/16 03:50:31  5-MIN KAQV 290950Z AUTO 00000KT 10SM CLR 22/21 A3000 300 93 1200 000/00 RMK AO2 SLP157 T02220211
03949KAQV AQV20160729035511507/29/16 03:55:31  5-MIN KAQV 290955Z AUTO 00000KT 10SM CLR 22/21 A3000 300 93 1300 000/00 RMK AO2 SLP157 T02220211
03949KAQV AQV20160729040010807/29/16 04:00:31  5-MIN KAQV 291000Z AUTO 00000KT 10SM CLR 22/21 A3000 300 93 1200 000/00 RMK AO2 T02220211
03949KAQV AQV20160729040510707/29/16 04:05:31  5-MIN KAQV 291005Z AUTO 00000KT 9SM CLR 22/21 A3000 300 93 1200 000/00 RMK AO2 T02220211
03949KAQV AQV20160729041010707/29/16 04:10:31  5-MIN KAQV 291010Z AUTO 00000KT 9SM CLR 22/21 A3000 300 93 1200 000/00 RMK AO2 T02220211
03949KAQV AQV20160729041510707/29/16 04:15:31  5-MIN KAQV 291015Z AUTO 00000KT 9SM CLR 22/21 A3000 300 93 1300 000/00 RMK AO2 T02220211
03949KAQV AQV20160729042010707/29/16 04:20:31  5-MIN KAQV 291020Z AUTO 00000KT 9SM CLR 22/21 A3000 300 93 1300 000/00 RMK AO2 T02220211
03949KAQV AQV20160729042510707/29/16 04:25:31  5-MIN KAQV 291025Z AUTO 00000KT 9SM CLR 22/21 A3000 300 93 1300 000/00 RMK AO2 T02220211
03949KAQV AQV20160729043010707/29/16 04:30:31  5-MIN KAQV 291030Z AUTO 00000KT 8SM CLR 22/22 A3000 300 97 1300 000/00 RMK AO2 T02220217
03949KAQV AQV20160729043510707/29/16 04:35:31  5-MIN KAQV 291035Z AUTO 00000KT 7SM CLR 22/22 A3000 300 97 1300 000/00 RMK AO2 T02220217
03949KAQV AQV20160729044010707/29/16 04:40:31  5-MIN KAQV 291040Z AUTO 00000KT 7SM CLR 22/21 A3000 300 97 1200 000/00 RMK AO2 T02170211
03949KAQV AQV20160729044511007/29/16 04:45:31  5-MIN KAQV 291045Z AUTO 00000KT 6SM BR CLR 22/21 A3000 300 97 1200 000/00 RMK AO2 T02170211
03949KAQV AQV20160729045011707/29/16 04:50:31  5-MIN KAQV 291050Z AUTO 00000KT 6SM BR CLR 22/21 A3000 300 97 1200 000/00 RMK AO2 SLP157 T02170211
03949KAQV AQV20160729045511707/29/16 04:55:31  5-MIN KAQV 291055Z AUTO 00000KT 6SM BR CLR 22/21 A3000 300 97 1200 000/00 RMK AO2 SLP156 T02170211
03949KAQV AQV20160729050011307/29/16 05:00:31  5-MIN KAQV 291100Z AUTO 00000KT 6SM BR FEW100 22/21 A3000 300 97 1200 000/00 RMK AO2 T02170211
03949KAQV AQV20160729050512407/29/16 05:05:31  5-MIN KAQV 291105Z AUTO 00000KT 7SM FEW060 FEW080 SCT100 22/21 A3000 300 97 1200 000/00 RMK AO2 T02170211
03949KAQV AQV20160729051012407/29/16 05:10:31  5-MIN KAQV 291110Z AUTO 17003KT 8SM FEW060 FEW080 SCT100 22/21 A3000 300 97 1200 170/03 RMK AO2 T02170211
03949KAQV AQV20160729051512607/29/16 05:15:31  5-MIN KAQV 291115Z AUTO 00000KT 9SM -RA FEW100 22/21 A3000 300 97 1200 000/00 RMK AO2 RAB13 P0000 T02170211
03949KAQV AQV20160729052013307/29/16 05:20:31  5-MIN KAQV 291120Z AUTO 00000KT 9SM -RA FEW060 SCT080 22/21 A3000 300 97 1200 000/00 RMK AO2 RAB13 P0001 T02170211
03949KAQV AQV20160729052513307/29/16 05:25:31  5-MIN KAQV 291125Z AUTO 00000KT 10SM FEW060 SCT080 22/21 A3000 300 97 1200 000/00 RMK AO2 RAB13E24 P0001 T02170211
03949KAQV AQV20160729053013307/29/16 05:30:31  5-MIN KAQV 291130Z AUTO 00000KT 10SM FEW060 SCT080 22/21 A3000 300 97 1200 000/00 RMK AO2 RAB13E24 P0001 T02170211
03949KAQV AQV20160729053512507/29/16 05:35:31  5-MIN KAQV 291135Z AUTO 00000KT 9SM FEW085 22/21 A3000 300 97 1200 000/00 RMK AO2 RAB13E24 P0001 T02170211
03949KAQV AQV20160729054012507/29/16 05:40:31  5-MIN KAQV 291140Z AUTO 00000KT 9SM FEW085 22/21 A3000 300 97 1200 000/00 RMK AO2 RAB13E24 P0001 T02170211
03949KAQV AQV20160729054512507/29/16 05:45:31  5-MIN KAQV 291145Z AUTO 00000KT 9SM FEW085 22/21 A3000 300 97 1200 000/00 RMK AO2 RAB13E24 P0001 T02170211
03949KAQV AQV20160729055015907/29/16 05:50:31  5-MIN KAQV 291150Z AUTO 00000KT 9SM CLR 22/21 A3000 300 93 1200 000/00 RMK AO2 RAB13E24 SLP158 P0001 60001 70076 T02220211 10222 20211 58003
03949KAQV AQV20160729055515907/29/16 05:55:31  5-MIN KAQV 291155Z AUTO 00000KT 9SM CLR 22/21 A3000 300 93 1200 000/00 RMK AO2 RAB13E24 SLP158 P0001 60001 70076 T02220211 10222 20211 58003
03949KAQV AQV20160729060010707/29/16 06:00:31  5-MIN KAQV 291200Z AUTO 00000KT 9SM CLR 22/21 A3001 300 93 1200 000/00 RMK AO2 T02220211
03949KAQV AQV20160729060510707/29/16 06:05:31  5-MIN KAQV 291205Z AUTO 00000KT 9SM CLR 22/21 A3001 300 93 1200 000/00 RMK AO2 T02220211
03949KAQV AQV20160729061010707/29/16 06:10:31  5-MIN KAQV 291210Z AUTO 00000KT 8SM CLR 22/21 A3001 290 93 1200 000/00 RMK AO2 T02220211
03949KAQV AQV20160729061510707/29/16 06:15:31  5-MIN KAQV 291215Z AUTO 00000KT 9SM CLR 22/22 A3001 290 97 1200 000/00 RMK AO2 T02220217
03949KAQV AQV20160729062010707/29/16 06:20:31  5-MIN KAQV 291220Z AUTO 00000KT 9SM CLR 22/22 A3001 290 97 1200 000/00 RMK AO2 T02220217
03949KAQV AQV20160729062510707/29/16 06:25:31  5-MIN KAQV 291225Z AUTO 00000KT 9SM CLR 22/22 A3002 290 97 1200 000/00 RMK AO2 T02220217
03949KAQV AQV20160729063010807/29/16 06:30:31  5-MIN KAQV 291230Z AUTO 00000KT 10SM CLR 22/22 A3002 280 97 1200 000/00 RMK AO2 T02220217
03949KAQV AQV20160729063510807/29/16 06:35:31  5-MIN KAQV 291235Z AUTO 00000KT 10SM CLR 23/22 A3003 280 93 1300 000/00 RMK AO2 T02280217
03949KAQV AQV20160729064010807/29/16 06:40:31  5-MIN KAQV 291240Z AUTO 00000KT 10SM CLR 23/22 A3002 280 97 1300 000/00 RMK AO2 T02280222
03949KAQV AQV20160729064510807/29/16 06:45:31  5-MIN KAQV 291245Z AUTO 18003KT 10SM CLR 23/22 A3003 280 93 1300 180/03 RMK AO2 T02280217
03949KAQV AQV20160729065011507/29/16 06:50:31  5-MIN KAQV 291250Z AUTO 18004KT 10SM CLR 23/22 A3003 280 93 1300 170/04 RMK AO2 SLP165 T02280217
03949KAQV AQV20160729065511507/29/16 06:55:31  5-MIN KAQV 291255Z AUTO VRB04KT 10SM CLR 23/22 A3003 280 93 1400 VRB/04 RMK AO2 SLP165 T02330222
03949KAQV AQV20160729070010807/29/16 07:00:31  5-MIN KAQV 291300Z AUTO 19003KT 10SM CLR 23/22 A3003 280 93 1300 180/03 RMK AO2 T02330222
03949KAQV AQV20160729070510807/29/16 07:05:31  5-MIN KAQV 291305Z AUTO VRB03KT 10SM CLR 24/22 A3003 280 90 1400 VRB/03 RMK AO2 T02390222
03949KAQV AQV20160729071010807/29/16 07:10:31  5-MIN KAQV 291310Z AUTO 20003KT 10SM CLR 24/22 A3003 280 90 1400 190/03 RMK AO2 T02390222
03949KAQV AQV20160729071510807/29/16 07:15:31  5-MIN KAQV 291315Z AUTO VRB03KT 10SM CLR 24/22 A3003 270 87 1500 VRB/03 RMK AO2 T02440222
03949KAQV AQV20160729072010807/29/16 07:20:31  5-MIN KAQV 291320Z AUTO 00000KT 10SM CLR 24/22 A3003 270 87 1500 000/00 RMK AO2 T02440222
03949KAQV AQV20160729072510807/29/16 07:25:31  5-MIN KAQV 291325Z AUTO 19003KT 10SM CLR 24/23 A3004 270 90 1500 190/03 RMK AO2 T02440228
03949KAQV AQV20160729073010807/29/16 07:30:31  5-MIN KAQV 291330Z AUTO 20003KT 10SM CLR 24/22 A3004 270 87 1500 200/03 RMK AO2 T02440222
03949KAQV AQV20160729073511107/29/16 07:35:31  5-MIN KAQV 291335Z AUTO 00000KT 10SM FEW110 24/22 A3004 270 87 1500 000/00 RMK AO2 T02440222
03949KAQV AQV20160729074011107/29/16 07:40:31  5-MIN KAQV 291340Z AUTO VRB03KT 10SM SCT110 24/23 A3004 260 90 1500 VRB/03 RMK AO2 T02440228
03949KAQV AQV20160729074511107/29/16 07:45:31  5-MIN KAQV 291345Z AUTO 00000KT 10SM SCT110 24/23 A3004 260 90 1500 000/00 RMK AO2 T02440228
03949KAQV AQV20160729075011807/29/16 07:50:31  5-MIN KAQV 291350Z AUTO 24003KT 10SM SCT110 25/23 A3005 260 87 1500 230/03 RMK AO2 SLP172 T02500228
03949KAQV AQV20160729075511807/29/16 07:55:31  5-MIN KAQV 291355Z AUTO 00000KT 10SM SCT110 25/23 A3005 260 87 1500 000/00 RMK AO2 SLP173 T02500228
03949KAQV AQV20160729080011107/29/16 08:00:31  5-MIN KAQV 291400Z AUTO VRB03KT 10SM SCT110 26/23 A3005 250 84 1600 VRB/03 RMK AO2 T02560228
03949KAQV AQV20160729080511107/29/16 08:05:31  5-MIN KAQV 291405Z AUTO VRB03KT 10SM FEW110 26/23 A3005 250 87 1600 VRB/03 RMK AO2 T02560233
03949KAQV AQV20160729081011107/29/16 08:10:31  5-MIN KAQV 291410Z AUTO 23004KT 10SM FEW110 26/23 A3005 250 84 1600 230/04 RMK AO2 T02610233
03949KAQV AQV20160729081511107/29/16 08:15:31  5-MIN KAQV 291415Z AUTO VRB03KT 10SM FEW110 26/23 A3006 250 84 1600 VRB/03 RMK AO2 T02610233
03949KAQV AQV20160729082010807/29/16 08:20:31  5-MIN KAQV 291420Z AUTO VRB03KT 10SM CLR 27/24 A3006 250 84 1700 VRB/03 RMK AO2 T02670239
03949KAQV AQV20160729082510807/29/16 08:25:31  5-MIN KAQV 291425Z AUTO 00000KT 10SM CLR 27/24 A3006 250 84 1700 000/00 RMK AO2 T02670239
03949KAQV AQV20160729083010807/29/16 08:30:31  5-MIN KAQV 291430Z AUTO VRB05KT 10SM CLR 27/24 A3006 250 84 1800 VRB/05 RMK AO2 T02720244
03949KAQV AQV20160729083510807/29/16 08:35:31  5-MIN KAQV 291435Z AUTO 18004KT 10SM CLR 27/24 A3006 250 82 1800 180/04 RMK AO2 T02720239
03949KAQV AQV20160729084010807/29/16 08:40:31  5-MIN KAQV 291440Z AUTO VRB04KT 10SM CLR 27/24 A3006 250 84 1800 VRB/04 RMK AO2 T02720244
03949KAQV AQV20160729084511107/29/16 08:45:31  5-MIN KAQV 291445Z AUTO 20004KT 10SM FEW110 27/24 A3006 250 84 1800 190/04 RMK AO2 T02720244
03949KAQV AQV20160729085013107/29/16 08:50:31  5-MIN KAQV 291450Z AUTO VRB05KT 10SM FEW012 FEW110 27/24 A3006 250 84 1800 VRB/05 RMK AO2 SLP175 T02720244 53001
03949KAQV AQV20160729085513107/29/16 08:55:31  5-MIN KAQV 291455Z AUTO VRB04KT 10SM FEW012 SCT110 28/24 A3006 250 82 1800 VRB/04 RMK AO2 SLP174 T02780244 53001
03949KAQV AQV20160729090011807/29/16 09:00:31  5-MIN KAQV 291500Z AUTO VRB03KT 10SM FEW012 FEW110 28/25 A3006 250 82 1900 VRB/03 RMK AO2 T02830250
03949KAQV AQV20160729090511807/29/16 09:05:31  5-MIN KAQV 291505Z AUTO 19006KT 10SM FEW012 SCT110 28/24 A3006 250 79 1900 180/06 RMK AO2 T02830244
03949KAQV AQV20160729091011807/29/16 09:10:31  5-MIN KAQV 291510Z AUTO VRB05KT 10SM SCT014 SCT110 28/24 A3006 250 82 1800 VRB/05 RMK AO2 T02780244
03949KAQV AQV20160729091511107/29/16 09:15:31  5-MIN KAQV 291515Z AUTO VRB03KT 10SM SCT014 28/25 A3006 250 82 1900 VRB/03 RMK AO2 T02830250
03949KAQV AQV20160729092011107/29/16 09:20:31  5-MIN KAQV 291520Z AUTO 00000KT 10SM SCT014 28/25 A3006 250 82 1900 000/00 RMK AO2 T02830250
03949KAQV AQV20160729092511107/29/16 09:25:31  5-MIN KAQV 291525Z AUTO 25004KT 10SM SCT014 29/24 A3006 250 76 1900 250/04 RMK AO2 T02890244
03949KAQV AQV20160729093011107/29/16 09:30:31  5-MIN KAQV 291530Z AUTO VRB05KT 10SM SCT016 29/24 A3006 250 76 1900 VRB/05 RMK AO2 T02890244
03949KAQV AQV20160729093511107/29/16 09:35:31  5-MIN KAQV 291535Z AUTO VRB05KT 10SM BKN018 29/24 A3006 250 74 2000 VRB/05 RMK AO2 T02940244
03949KAQV AQV20160729094011107/29/16 09:40:31  5-MIN KAQV 291540Z AUTO VRB04KT 10SM BKN018 29/24 A3006 250 76 1900 VRB/04 RMK AO2 T02890244
03949KAQV AQV20160729094512507/29/16 09:45:31  5-MIN KAQV 291545Z AUTO VRB03KT 10SM BKN018 BKN024 BKN029 29/24 A3006 250 74 2000 VRB/03 RMK AO2 T02940244
03949KAQV AQV20160729095012507/29/16 09:50:31  5-MIN KAQV 291550Z AUTO VRB03KT 10SM BKN020 BKN030 29/24 A3006 250 74 2000 VRB/03 RMK AO2 SLP176 T02940244
03949KAQV AQV20160729095512507/29/16 09:55:31  5-MIN KAQV 291555Z AUTO VRB05KT 10SM BKN020 BKN028 29/24 A3006 240 74 2000 VRB/05 RMK AO2 SLP177 T02940244
03949KAQV AQV20160729100012507/29/16 10:00:31  5-MIN KAQV 291600Z AUTO 26006KT 10SM SCT020 BKN028 BKN110 29/24 A3006 240 71 2000 260/06 RMK AO2 T02940239
03949KAQV AQV20160729100511507/29/16 10:05:31  5-MIN KAQV 291605Z AUTO 10SM SCT020 BKN026 BKN110 29/24 A3006 240 71 2000 M /M RMK AO2 T02940239
03949KAQV AQV20160729101012507/29/16 10:10:31  5-MIN KAQV 291610Z AUTO VRB04KT 10SM SCT020 SCT026 BKN110 29/24 A3006 250 71 2000 VRB/04 RMK AO2 T02940239
03949KAQV AQV20160729101512507/29/16 10:15:31  5-MIN KAQV 291615Z AUTO VRB05KT 10SM FEW020 SCT025 SCT100 29/24 A3006 250 71 2000 VRB/05 RMK AO2 T02940239
03949KAQV AQV20160729102012507/29/16 10:20:31  5-MIN KAQV 291620Z AUTO VRB04KT 10SM FEW023 SCT027 SCT110 29/24 A3006 250 71 2000 VRB/04 RMK AO2 T02940239
03949KAQV AQV20160729102511807/29/16 10:25:31  5-MIN KAQV 291625Z AUTO 00000KT 10SM SCT023 SCT110 30/24 A3006 250 69 2100 000/00 RMK AO2 T03000239
03949KAQV AQV20160729103011107/29/16 10:30:31  5-MIN KAQV 291630Z AUTO 26007KT 10SM SCT023 30/24 A3006 250 69 2100 260/07 RMK AO2 T03000239
03949KAQV AQV20160729103511107/29/16 10:35:31  5-MIN KAQV 291635Z AUTO VRB03KT 10SM SCT023 30/24 A3006 250 69 2100 VRB/03 RMK AO2 T03000239
03949KAQV AQV20160729104011107/29/16 10:40:31  5-MIN KAQV 291640Z AUTO VRB05KT 10SM SCT023 30/24 A3006 250 69 2100 VRB/05 RMK AO2 T03000239
03949KAQV AQV20160729104511107/29/16 10:45:31  5-MIN KAQV 291645Z AUTO VRB03KT 10SM BKN024 30/24 A3005 250 69 2100 VRB/03 RMK AO2 T03000239
03949KAQV AQV20160729105010107/29/16 10:50:31  5-MIN KAQV 291650Z AUTO 24004KT 10SM BKN024 30/24 A3005 250 72 2100 240/04 RMK AO2
03949KAQV AQV20160729105511807/29/16 10:55:31  5-MIN KAQV 291655Z AUTO VRB04KT 10SM BKN024 30/24 A3005 250 69 2100 VRB/04 RMK AO2 SLP173 T03000239
03949KAQV AQV20160729110011107/29/16 11:00:31  5-MIN KAQV 291700Z AUTO VRB03KT 10SM BKN024 30/24 A3005 260 69 2100 VRB/03 RMK AO2 T03000239
03949KAQV AQV20160729110511107/29/16 11:05:31  5-MIN KAQV 291705Z AUTO VRB04KT 10SM BKN024 30/24 A3005 260 69 2100 VRB/04 RMK AO2 T03000239
03949KAQV AQV20160729111011107/29/16 11:10:31  5-MIN KAQV 291710Z AUTO VRB03KT 10SM BKN024 30/23 A3005 260 67 2100 VRB/03 RMK AO2 T03000233
03949KAQV AQV20160729111511107/29/16 11:15:31  5-MIN KAQV 291715Z AUTO VRB03KT 10SM SCT024 30/24 A3005 260 69 2100 VRB/03 RMK AO2 T03000239
03949KAQV AQV20160729112011107/29/16 11:20:31  5-MIN KAQV 291720Z AUTO VRB05KT 10SM SCT024 30/24 A3005 260 69 2100 VRB/05 RMK AO2 T03000239
03949KAQV AQV20160729112511107/29/16 11:25:31  5-MIN KAQV 291725Z AUTO VRB03KT 10SM SCT024 30/24 A3005 260 69 2100 VRB/03 RMK AO2 T03000239
03949KAQV AQV20160729113011107/29/16 11:30:31  5-MIN KAQV 291730Z AUTO VRB04KT 10SM SCT024 30/24 A3004 260 69 2100 VRB/04 RMK AO2 T03000239
03949KAQV AQV20160729113511107/29/16 11:35:31  5-MIN KAQV 291735Z AUTO VRB06KT 10SM SCT024 31/23 A3004 260 65 2100 VRB/06 RMK AO2 T03060233
03949KAQV AQV20160729114011107/29/16 11:40:31  5-MIN KAQV 291740Z AUTO VRB06KT 10SM SCT024 31/23 A3004 270 65 2100 VRB/06 RMK AO2 T03060233
03949KAQV AQV20160729114511107/29/16 11:45:31  5-MIN KAQV 291745Z AUTO VRB05KT 10SM FEW024 31/24 A3004 270 65 2200 VRB/05 RMK AO2 T03110239
03949KAQV AQV20160729115013607/29/16 11:50:31  5-MIN KAQV 291750Z AUTO VRB04KT 10SM FEW024 31/24 A3004 270 65 2200 VRB/04 RMK AO2 SLP167 T03110239 10311 20233 51017
03949KAQV AQV20160729115512607/29/16 11:55:31  5-MIN KAQV 291755Z AUTO 10SM FEW024 31/23 A3003 270 63 2200 M /M RMK AO2 SLP166 T03110233 10311 20233 51017
03949KAQV AQV20160729120011107/29/16 12:00:31  5-MIN KAQV 291800Z AUTO 29005KT 10SM FEW025 32/23 A3003 270 58 2300 290/05 RMK AO2 T03170228
03949KAQV AQV20160729120510807/29/16 12:05:31  5-MIN KAQV 291805Z AUTO VRB04KT 10SM CLR 31/23 A3003 280 60 2200 VRB/04 RMK AO2 T03110228
03949KAQV AQV20160729121010807/29/16 12:10:31  5-MIN KAQV 291810Z AUTO VRB06KT 10SM CLR 31/23 A3002 280 63 2200 VRB/06 RMK AO2 T03110233
03949KAQV AQV20160729121510807/29/16 12:15:31  5-MIN KAQV 291815Z AUTO VRB06KT 10SM CLR 32/23 A3002 280 61 2300 VRB/06 RMK AO2 T03170233
03949KAQV AQV20160729122010807/29/16 12:20:31  5-MIN KAQV 291820Z AUTO 27006KT 10SM CLR 31/23 A3002 280 65 2200 270/06 RMK AO2 T03060233
03949KAQV AQV20160729122510807/29/16 12:25:31  5-MIN KAQV 291825Z AUTO 29004KT 10SM CLR 31/23 A3002 290 60 2200 280/04 RMK AO2 T03110228
03949KAQV AQV20160729123011107/29/16 12:30:31  5-MIN KAQV 291830Z AUTO VRB05KT 10SM FEW036 31/23 A3002 290 63 2200 VRB/05 RMK AO2 T03110233
03949KAQV AQV20160729123511807/29/16 12:35:31  5-MIN KAQV 291835Z AUTO 23004KT 10SM FEW030 SCT038 31/23 A3001 290 65 2200 220/04 RMK AO2 T03060233
03949KAQV AQV20160729124011807/29/16 12:40:31  5-MIN KAQV 291840Z AUTO VRB04KT 10SM FEW030 SCT055 30/23 A3001 290 67 2100 VRB/04 RMK AO2 T03000233
03949KAQV AQV20160729124511807/29/16 12:45:31  5-MIN KAQV 291845Z AUTO VRB03KT 10SM FEW030 FEW055 31/24 A3001 290 65 2200 VRB/03 RMK AO2 T03110239
03949KAQV AQV20160729125012507/29/16 12:50:31  5-MIN KAQV 291850Z AUTO 22005KT 10SM FEW030 FEW055 32/23 A3001 290 61 2300 220/05 RMK AO2 SLP159 T03170233
03949KAQV AQV20160729125512507/29/16 12:55:31  5-MIN KAQV 291855Z AUTO VRB03KT 10SM FEW030 FEW055 32/23 A3001 290 59 2400 VRB/03 RMK AO2 SLP159 T03220233
03949KAQV AQV20160729130011807/29/16 13:00:31  5-MIN KAQV 291900Z AUTO VRB03KT 10SM FEW030 FEW037 32/23 A3001 290 57 2400 VRB/03 RMK AO2 T03220228
03949KAQV AQV20160729130511807/29/16 13:05:31  5-MIN KAQV 291905Z AUTO 28006KT 10SM SCT039 SCT048 32/23 A3001 290 58 2300 270/06 RMK AO2 T03170228
03949KAQV AQV20160729131011807/29/16 13:10:31  5-MIN KAQV 291910Z AUTO VRB05KT 10SM SCT039 SCT048 32/23 A3001 300 57 2400 VRB/05 RMK AO2 T03220228
03949KAQV AQV20160729131511107/29/16 13:15:31  5-MIN KAQV 291915Z AUTO 24005KT 10SM FEW039 33/22 A3001 300 53 2400 230/05 RMK AO2 T03280222
03949KAQV AQV20160729132011107/29/16 13:20:31  5-MIN KAQV 291920Z AUTO VRB04KT 10SM FEW039 33/22 A3000 300 51 2500 VRB/04 RMK AO2 T03330222
03949KAQV AQV20160729132511807/29/16 13:25:31  5-MIN KAQV 291925Z AUTO 27005KT 10SM SCT039 SCT047 33/22 A3000 300 51 2400 270/05 RMK AO2 T03280217
03949KAQV AQV20160729133011107/29/16 13:30:31  5-MIN KAQV 291930Z AUTO 26007KT 10SM SCT042 33/21 A3000 300 48 2400 260/07 RMK AO2 T03280206
03949KAQV AQV20160729133512707/29/16 13:35:31  5-MIN KAQV 291935Z AUTO 27008KT 250V330 10SM FEW042 33/21 A3000 300 49 2400 270/08 250V330 RMK AO2 T03280211
03949KAQV AQV20160729134011107/29/16 13:40:31  5-MIN KAQV 291940Z AUTO VRB03KT 10SM FEW042 33/22 A3000 300 50 2500 VRB/03 RMK AO2 T03330217
03949KAQV AQV20160729134511107/29/16 13:45:31  5-MIN KAQV 291945Z AUTO VRB06KT 10SM FEW043 34/22 A3000 310 48 2600 VRB/06 RMK AO2 T03390217
03949KAQV AQV20160729135011807/29/16 13:50:31  5-MIN KAQV 291950Z AUTO VRB05KT 10SM FEW043 33/21 A2999 310 48 2500 VRB/05 RMK AO2 SLP152 T03330211
03949KAQV AQV20160729135511807/29/16 13:55:31  5-MIN KAQV 291955Z AUTO 26006KT 10SM FEW045 33/21 A2999 310 46 2500 250/06 RMK AO2 SLP151 T03330206
03949KAQV AQV20160729140011107/29/16 14:00:31  5-MIN KAQV 292000Z AUTO 27006KT 10SM SCT047 33/21 A2999 320 48 2500 260/06 RMK AO2 T03330211
03949KAQV AQV20160729140511107/29/16 14:05:31  5-MIN KAQV 292005Z AUTO VRB05KT 10SM FEW049 33/21 A2998 320 48 2500 VRB/05 RMK AO2 T03330211
03949KAQV AQV20160729141011107/29/16 14:10:31  5-MIN KAQV 292010Z AUTO VRB06KT 10SM FEW049 33/20 A2998 320 45 2500 VRB/06 RMK AO2 T03330200
03949KAQV AQV20160729141511107/29/16 14:15:31  5-MIN KAQV 292015Z AUTO 24006KT 10SM SCT049 33/20 A2998 320 45 2500 230/06 RMK AO2 T03330200
03949KAQV AQV20160729142011107/29/16 14:20:31  5-MIN KAQV 292020Z AUTO VRB06KT 10SM FEW049 33/19 A2998 320 44 2500 VRB/06 RMK AO2 T03280194
03949KAQV AQV20160729142511107/29/16 14:25:31  5-MIN KAQV 292025Z AUTO VRB05KT 10SM SCT049 33/20 A2998 320 46 2500 VRB/05 RMK AO2 T03280200
03949KAQV AQV20160729143011807/29/16 14:30:31  5-MIN KAQV 292030Z AUTO VRB04KT 10SM FEW049 SCT075 32/21 A2998 320 49 2400 VRB/04 RMK AO2 T03220206
03949KAQV AQV20160729143512507/29/16 14:35:31  5-MIN KAQV 292035Z AUTO VRB04KT 10SM FEW049 FEW060 SCT075 33/21 A2999 320 49 2500 VRB/04 RMK AO2 T03280211
03949KAQV AQV20160729144012507/29/16 14:40:31  5-MIN KAQV 292040Z AUTO 27007KT 10SM FEW049 FEW060 FEW075 33/21 A2999 320 46 2500 270/07 RMK AO2 T03330206
03949KAQV AQV20160729144511807/29/16 14:45:31  5-MIN KAQV 292045Z AUTO VRB03KT 10SM FEW049 FEW075 33/20 A2998 320 45 2500 VRB/03 RMK AO2 T03330200
03949KAQV AQV20160729145013107/29/16 14:50:31  5-MIN KAQV 292050Z AUTO VRB03KT 10SM FEW050 FEW075 33/20 A2998 320 45 2500 VRB/03 RMK AO2 SLP149 T03330200 58007
03949KAQV AQV20160729145512407/29/16 14:55:31  5-MIN KAQV 292055Z AUTO VRB05KT 10SM FEW075 33/20 A2998 320 45 2500 VRB/05 RMK AO2 SLP149 T03330200 58007
03949KAQV AQV20160729150010807/29/16 15:00:31  5-MIN KAQV 292100Z AUTO VRB03KT 10SM CLR 33/20 A2998 320 45 2500 VRB/03 RMK AO2 T03330200
03949KAQV AQV20160729150509807/29/16 15:05:31  5-MIN KAQV 292105Z AUTO 10SM CLR 33/19 A2998 320 43 2500 M /M RMK AO2 T03330194
03949KAQV AQV20160729151010807/29/16 15:10:31  5-MIN KAQV 292110Z AUTO VRB05KT 10SM CLR 33/20 A2998 320 45 2500 VRB/05 RMK AO2 T03330200
03949KAQV AQV20160729151510807/29/16 15:15:31  5-MIN KAQV 292115Z AUTO VRB03KT 10SM CLR 33/21 A2998 320 48 2500 VRB/03 RMK AO2 T03280206
03949KAQV AQV20160729152010807/29/16 15:20:31  5-MIN KAQV 292120Z AUTO 25004KT 10SM CLR 33/21 A2997 330 46 2500 250/04 RMK AO2 T03330206
03949KAQV AQV20160729152510807/29/16 15:25:31  5-MIN KAQV 292125Z AUTO 23005KT 10SM CLR 32/21 A2997 330 49 2400 230/05 RMK AO2 T03220206
03949KAQV AQV20160729153010807/29/16 15:30:31  5-MIN KAQV 292130Z AUTO 22003KT 10SM CLR 32/21 A2997 330 51 2300 220/03 RMK AO2 T03170206
03949KAQV AQV20160729153511107/29/16 15:35:31  5-MIN KAQV 292135Z AUTO 28004KT 10SM FEW050 33/21 A2997 330 49 2500 280/04 RMK AO2 T03280211
03949KAQV AQV20160729154011107/29/16 15:40:31  5-MIN KAQV 292140Z AUTO 27005KT 10SM FEW050 32/21 A2997 330 51 2400 260/05 RMK AO2 T03220211
03949KAQV AQV20160729154511107/29/16 15:45:31  5-MIN KAQV 292145Z AUTO VRB04KT 10SM SCT045 32/22 A2997 330 53 2400 VRB/04 RMK AO2 T03220217
03949KAQV AQV20160729155011807/29/16 15:50:31  5-MIN KAQV 292150Z AUTO VRB03KT 10SM SCT043 33/21 A2997 330 49 2500 VRB/03 RMK AO2 SLP144 T03280211
03949KAQV AQV20160729155512507/29/16 15:55:31  5-MIN KAQV 292155Z AUTO VRB03KT 10SM SCT041 SCT055 32/22 A2997 330 55 2400 VRB/03 RMK AO2 SLP144 T03220222
03949KAQV AQV20160729160011807/29/16 16:00:31  5-MIN KAQV 292200Z AUTO VRB03KT 10SM SCT043 BKN055 32/21 A2997 330 51 2400 VRB/03 RMK AO2 T03220211
03949KAQV AQV20160729160511807/29/16 16:05:31  5-MIN KAQV 292205Z AUTO 29005KT 10SM BKN043 BKN055 33/21 A2997 330 49 2500 290/05 RMK AO2 T03280211
03949KAQV AQV20160729161011107/29/16 16:10:31  5-MIN KAQV 292210Z AUTO 29005KT 10SM BKN043 32/21 A2996 340 51 2400 280/05 RMK AO2 T03220211
03949KAQV AQV20160729161511107/29/16 16:15:31  5-MIN KAQV 292215Z AUTO 00000KT 10SM SCT043 32/21 A2996 340 51 2400 000/00 RMK AO2 T03220211
03949KAQV AQV20160729162011107/29/16 16:20:31  5-MIN KAQV 292220Z AUTO VRB03KT 10SM FEW043 33/21 A2996 340 49 2500 VRB/03 RMK AO2 T03280211
03949KAQV AQV20160729162511107/29/16 16:25:31  5-MIN KAQV 292225Z AUTO 00000KT 10SM FEW043 32/21 A2996 340 51 2400 000/00 RMK AO2 T03220211
03949KAQV AQV20160729163011107/29/16 16:30:31  5-MIN KAQV 292230Z AUTO VRB03KT 10SM FEW047 32/22 A2995 350 53 2400 VRB/03 RMK AO2 T03220217
03949KAQV AQV20160729163511107/29/16 16:35:31  5-MIN KAQV 292235Z AUTO 27004KT 10SM FEW050 32/21 A2995 350 49 2400 270/04 RMK AO2 T03220206
03949KAQV AQV20160729164010807/29/16 16:40:31  5-MIN KAQV 292240Z AUTO 00000KT 10SM CLR 32/21 A2995 350 49 2400 000/00 RMK AO2 T03220206
03949KAQV AQV20160729164510807/29/16 16:45:31  5-MIN KAQV 292245Z AUTO 00000KT 10SM CLR 32/20 A2995 350 48 2400 000/00 RMK AO2 T03220200
03949KAQV AQV20160729165011507/29/16 16:50:31  5-MIN KAQV 292250Z AUTO 00000KT 10SM CLR 33/21 A2995 350 48 2500 000/00 RMK AO2 SLP139 T03280206
03949KAQV AQV20160729165511507/29/16 16:55:31  5-MIN KAQV 292255Z AUTO 27003KT 10SM CLR 33/21 A2995 350 48 2500 270/03 RMK AO2 SLP140 T03280206
03949KAQV AQV20160729170010807/29/16 17:00:31  5-MIN KAQV 292300Z AUTO 27003KT 10SM CLR 33/20 A2995 350 46 2500 260/03 RMK AO2 T03280200
03949KAQV AQV20160729170510807/29/16 17:05:31  5-MIN KAQV 292305Z AUTO 00000KT 10SM CLR 33/21 A2995 350 48 2500 000/00 RMK AO2 T03280206
03949KAQV AQV20160729171010807/29/16 17:10:31  5-MIN KAQV 292310Z AUTO VRB03KT 10SM CLR 33/21 A2995 350 48 2500 VRB/03 RMK AO2 T03280206
03949KAQV AQV20160729171510807/29/16 17:15:31  5-MIN KAQV 292315Z AUTO 27004KT 10SM CLR 33/21 A2995 350 48 2500 270/04 RMK AO2 T03280206
03949KAQV AQV20160729172010807/29/16 17:20:31  5-MIN KAQV 292320Z AUTO 00000KT 10SM CLR 32/21 A2995 350 49 2400 000/00 RMK AO2 T03220206
03949KAQV AQV20160729172510807/29/16 17:25:31  5-MIN KAQV 292325Z AUTO 24003KT 10SM CLR 32/21 A2995 350 49 2400 240/03 RMK AO2 T03220206
03949KAQV AQV20160729173010807/29/16 17:30:31  5-MIN KAQV 292330Z AUTO VRB03KT 10SM CLR 32/21 A2994 350 49 2400 VRB/03 RMK AO2 T03220206
03949KAQV AQV20160729173510807/29/16 17:35:31  5-MIN KAQV 292335Z AUTO 00000KT 10SM CLR 32/20 A2994 360 48 2400 000/00 RMK AO2 T03220200
03949KAQV AQV20160729174010807/29/16 17:40:31  5-MIN KAQV 292340Z AUTO 00000KT 10SM CLR 32/20 A2994 360 48 2400 000/00 RMK AO2 T03220200
03949KAQV AQV20160729174510807/29/16 17:45:31  5-MIN KAQV 292345Z AUTO 00000KT 10SM CLR 32/21 A2994 360 51 2400 000/00 RMK AO2 T03220211
03949KAQV AQV20160729175013307/29/16 17:50:31  5-MIN KAQV 292350Z AUTO 00000KT 10SM CLR 32/21 A2994 360 51 2400 000/00 RMK AO2 SLP135 T03220211 10339 20300 56018
03949KAQV AQV20160729175513307/29/16 17:55:31  5-MIN KAQV 292355Z AUTO 00000KT 10SM CLR 32/21 A2994 350 51 2400 000/00 RMK AO2 SLP136 T03220211 10339 20300 56018
03949KAQV AQV20160729180010807/29/16 18:00:31  5-MIN KAQV 300000Z AUTO 00000KT 10SM CLR 32/21 A2994 360 49 2400 000/00 RMK AO2 T03220206
03949KAQV AQV20160729180510807/29/16 18:05:31  5-MIN KAQV 300005Z AUTO 00000KT 10SM CLR 32/22 A2995 350 55 2400 000/00 RMK AO2 T03170217
03949KAQV AQV20160729181010807/29/16 18:10:31  5-MIN KAQV 300010Z AUTO 16005KT 10SM CLR 30/23 A2995 350 67 2200 160/05 RMK AO2 T03000233
03949KAQV AQV20160729181510807/29/16 18:15:31  5-MIN KAQV 300015Z AUTO VRB04KT 10SM CLR 30/23 A2994 350 67 2200 VRB/04 RMK AO2 T03000233
03949KAQV AQV20160729182010807/29/16 18:20:31  5-MIN KAQV 300020Z AUTO VRB04KT 10SM CLR 30/23 A2995 350 67 2200 VRB/04 RMK AO2 T03000233
03949KAQV AQV20160729182510807/29/16 18:25:31  5-MIN KAQV 300025Z AUTO VRB03KT 10SM CLR 29/24 A2995 350 71 2100 VRB/03 RMK AO2 T02940239
03949KAQV AQV20160729183010807/29/16 18:30:31  5-MIN KAQV 300030Z AUTO VRB03KT 10SM CLR 29/24 A2995 350 71 2100 VRB/03 RMK AO2 T02940239
03949KAQV AQV20160729183510807/29/16 18:35:31  5-MIN KAQV 300035Z AUTO 00000KT 10SM CLR 29/24 A2995 350 74 2100 000/00 RMK AO2 T02890239
03949KAQV AQV20160729184010807/29/16 18:40:31  5-MIN KAQV 300040Z AUTO 00000KT 10SM CLR 28/23 A2995 350 74 2000 000/00 RMK AO2 T02830233
03949KAQV AQV20160729184510807/29/16 18:45:31  5-MIN KAQV 300045Z AUTO VRB04KT 10SM CLR 28/23 A2995 350 74 2000 VRB/04 RMK AO2 T02830233
03949KAQV AQV20160729185011507/29/16 18:50:31  5-MIN KAQV 300050Z AUTO VRB04KT 10SM CLR 28/23 A2995 350 74 2000 VRB/04 RMK AO2 SLP138 T02830233
03949KAQV AQV20160729185511507/29/16 18:55:31  5-MIN KAQV 300055Z AUTO 00000KT 10SM CLR 28/23 A2995 350 76 1900 000/00 RMK AO2 SLP138 T02780233
03949KAQV AQV20160729190010807/29/16 19:00:31  5-MIN KAQV 300100Z AUTO VRB03KT 10SM CLR 28/23 A2995 350 76 1900 VRB/03 RMK AO2 T02780233
03949KAQV AQV20160729190510807/29/16 19:05:31  5-MIN KAQV 300105Z AUTO 16003KT 10SM CLR 28/23 A2995 350 76 1900 160/03 RMK AO2 T02780233
03949KAQV AQV20160729191010807/29/16 19:10:31  5-MIN KAQV 300110Z AUTO 00000KT 10SM CLR 28/23 A2996 340 76 1900 000/00 RMK AO2 T02780233
03949KAQV AQV20160729191510807/29/16 19:15:31  5-MIN KAQV 300115Z AUTO 00000KT 10SM CLR 28/23 A2996 340 76 1900 000/00 RMK AO2 T02780233
03949KAQV AQV20160729192010807/29/16 19:20:31  5-MIN KAQV 300120Z AUTO 00000KT 10SM CLR 27/23 A2996 340 79 1900 000/00 RMK AO2 T02720233
03949KAQV AQV20160729192510807/29/16 19:25:31  5-MIN KAQV 300125Z AUTO 00000KT 10SM CLR 27/23 A2996 340 82 1800 000/00 RMK AO2 T02670233
03949KAQV AQV20160729193010807/29/16 19:30:31  5-MIN KAQV 300130Z AUTO 00000KT 10SM CLR 26/23 A2996 340 84 1700 000/00 RMK AO2 T02610233
03949KAQV AQV20160729193510807/29/16 19:35:31  5-MIN KAQV 300135Z AUTO 00000KT 10SM CLR 26/23 A2997 330 84 1700 000/00 RMK AO2 T02610233
03949KAQV AQV20160729194010807/29/16 19:40:31  5-MIN KAQV 300140Z AUTO 00000KT 10SM CLR 26/23 A2996 340 84 1700 000/00 RMK AO2 T02610233
03949KAQV AQV20160729194510807/29/16 19:45:31  5-MIN KAQV 300145Z AUTO 00000KT 10SM CLR 26/23 A2996 340 87 1700 000/00 RMK AO2 T02560233
03949KAQV AQV20160729195011507/29/16 19:50:31  5-MIN KAQV 300150Z AUTO 00000KT 10SM CLR 26/23 A2996 340 87 1700 000/00 RMK AO2 SLP143 T02560233
03949KAQV AQV20160729195511507/29/16 19:55:31  5-MIN KAQV 300155Z AUTO 00000KT 10SM CLR 26/24 A2996 340 90 1700 000/00 RMK AO2 SLP143 T02560239
03949KAQV AQV20160729200010807/29/16 20:00:31  5-MIN KAQV 300200Z AUTO 00000KT 10SM CLR 26/23 A2996 340 87 1700 000/00 RMK AO2 T02560233
03949KAQV AQV20160729200510807/29/16 20:05:31  5-MIN KAQV 300205Z AUTO 00000KT 10SM CLR 26/24 A2996 340 90 1700 000/00 RMK AO2 T02560239
03949KAQV AQV20160729201010807/29/16 20:10:31  5-MIN KAQV 300210Z AUTO 00000KT 10SM CLR 26/23 A2997 330 87 1700 000/00 RMK AO2 T02560233
03949KAQV AQV20160729201510807/29/16 20:15:31  5-MIN KAQV 300215Z AUTO 00000KT 10SM CLR 26/23 A2997 330 87 1700 000/00 RMK AO2 T02560233
03949KAQV AQV20160729202010807/29/16 20:20:31  5-MIN KAQV 300220Z AUTO 00000KT 10SM CLR 26/24 A2997 330 90 1700 000/00 RMK AO2 T02560239
03949KAQV AQV20160729202510807/29/16 20:25:31  5-MIN KAQV 300225Z AUTO 00000KT 10SM CLR 25/23 A2997 330 90 1600 000/00 RMK AO2 T02500233
03949KAQV AQV20160729203010807/29/16 20:30:31  5-MIN KAQV 300230Z AUTO 00000KT 10SM CLR 25/23 A2997 330 90 1600 000/00 RMK AO2 T02500233
03949KAQV AQV20160729203510807/29/16 20:35:31  5-MIN KAQV 300235Z AUTO 00000KT 10SM CLR 25/23 A2997 330 90 1600 000/00 RMK AO2 T02500233
03949KAQV AQV20160729204010807/29/16 20:40:31  5-MIN KAQV 300240Z AUTO 00000KT 10SM CLR 25/23 A2997 330 90 1600 000/00 RMK AO2 T02500233
03949KAQV AQV20160729204510807/29/16 20:45:31  5-MIN KAQV 300245Z AUTO 00000KT 10SM CLR 25/23 A2998 320 90 1600 000/00 RMK AO2 T02500233
03949KAQV AQV20160729205012107/29/16 20:50:31  5-MIN KAQV 300250Z AUTO 16003KT 10SM CLR 25/23 A2998 320 90 1600 160/03 RMK AO2 SLP148 T02500233 56012
03949KAQV AQV20160729205512107/29/16 20:55:31  5-MIN KAQV 300255Z AUTO 16003KT 10SM CLR 24/23 A2998 320 93 1500 160/03 RMK AO2 SLP148 T02440233 56012
03949KAQV AQV20160729210010807/29/16 21:00:31  5-MIN KAQV 300300Z AUTO VRB03KT 10SM CLR 24/23 A2998 320 93 1500 VRB/03 RMK AO2 T02440233
03949KAQV AQV20160729210510807/29/16 21:05:31  5-MIN KAQV 300305Z AUTO 00000KT 10SM CLR 24/23 A2998 320 93 1500 000/00 RMK AO2 T02440233
03949KAQV AQV20160729211010807/29/16 21:10:31  5-MIN KAQV 300310Z AUTO 00000KT 10SM CLR 25/23 A2998 320 90 1600 000/00 RMK AO2 T02500233
03949KAQV AQV20160729211510807/29/16 21:15:31  5-MIN KAQV 300315Z AUTO 15003KT 10SM CLR 24/23 A2998 320 93 1500 140/03 RMK AO2 T02440233
03949KAQV AQV20160729212010807/29/16 21:20:31  5-MIN KAQV 300320Z AUTO VRB03KT 10SM CLR 24/23 A2998 330 90 1500 VRB/03 RMK AO2 T02440228
03949KAQV AQV20160729212510807/29/16 21:25:31  5-MIN KAQV 300325Z AUTO 16004KT 10SM CLR 24/23 A2997 330 90 1500 160/04 RMK AO2 T02440228
03949KAQV AQV20160729213010807/29/16 21:30:31  5-MIN KAQV 300330Z AUTO 17004KT 10SM CLR 24/23 A2997 330 90 1500 160/04 RMK AO2 T02440228
03949KAQV AQV20160729213510807/29/16 21:35:31  5-MIN KAQV 300335Z AUTO 17004KT 10SM CLR 24/23 A2997 330 90 1500 170/04 RMK AO2 T02440228
03949KAQV AQV20160729214010807/29/16 21:40:31  5-MIN KAQV 300340Z AUTO VRB03KT 10SM CLR 24/23 A2998 320 90 1500 VRB/03 RMK AO2 T02440228
03949KAQV AQV20160729214510807/29/16 21:45:31  5-MIN KAQV 300345Z AUTO 00000KT 10SM CLR 24/22 A2998 320 87 1500 000/00 RMK AO2 T02440222
03949KAQV AQV20160729215011507/29/16 21:50:31  5-MIN KAQV 300350Z AUTO VRB03KT 10SM CLR 24/22 A2998 320 87 1500 VRB/03 RMK AO2 SLP149 T02440222
03949KAQV AQV20160729215511507/29/16 21:55:31  5-MIN KAQV 300355Z AUTO 17003KT 10SM CLR 24/22 A2998 320 87 1500 170/03 RMK AO2 SLP150 T02440222
03949KAQV AQV20160729220010807/29/16 22:00:31  5-MIN KAQV 300400Z AUTO 00000KT 10SM CLR 24/22 A2999 310 87 1500 000/00 RMK AO2 T02440222
03949KAQV AQV20160729220510807/29/16 22:05:31  5-MIN KAQV 300405Z AUTO 00000KT 10SM CLR 25/22 A2999 310 84 1600 000/00 RMK AO2 T02500222
03949KAQV AQV20160729221010807/29/16 22:10:31  5-MIN KAQV 300410Z AUTO 00000KT 10SM CLR 24/22 A2999 310 87 1500 000/00 RMK AO2 T02440222
03949KAQV AQV20160729221510807/29/16 22:15:31  5-MIN KAQV 300415Z AUTO 00000KT 10SM CLR 24/23 A2999 310 93 1400 000/00 RMK AO2 T02390228
03949KAQV AQV20160729222010807/29/16 22:20:31  5-MIN KAQV 300420Z AUTO 00000KT 10SM CLR 24/23 A3000 310 93 1400 000/00 RMK AO2 T02390228
03949KAQV AQV20160729222510807/29/16 22:25:31  5-MIN KAQV 300425Z AUTO 00000KT 10SM CLR 24/23 A3000 310 93 1400 000/00 RMK AO2 T02390228
03949KAQV AQV20160729223010807/29/16 22:30:31  5-MIN KAQV 300430Z AUTO 16003KT 10SM CLR 24/23 A3000 310 93 1400 150/03 RMK AO2 T02390228
03949KAQV AQV20160729223510807/29/16 22:35:31  5-MIN KAQV 300435Z AUTO 00000KT 10SM CLR 24/22 A3000 300 90 1400 000/00 RMK AO2 T02390222
03949KAQV AQV20160729224010807/29/16 22:40:31  5-MIN KAQV 300440Z AUTO 00000KT 10SM CLR 24/22 A3000 300 90 1400 000/00 RMK AO2 T02390222
03949KAQV AQV20160729224510807/29/16 22:45:31  5-MIN KAQV 300445Z AUTO 00000KT 10SM CLR 24/22 A3000 300 90 1400 000/00 RMK AO2 T02390222
03949KAQV AQV20160729225011507/29/16 22:50:31  5-MIN KAQV 300450Z AUTO 00000KT 10SM CLR 24/23 A3000 300 93 1400 000/00 RMK AO2 SLP155 T02390228
03949KAQV AQV20160729225511507/29/16 22:55:31  5-MIN KAQV 300455Z AUTO 16003KT 10SM CLR 24/23 A3000 300 93 1400 160/03 RMK AO2 SLP155 T02390228
03949KAQV AQV20160729230010807/29/16 23:00:31  5-MIN KAQV 300500Z AUTO 16003KT 10SM CLR 24/23 A3000 310 93 1400 160/03 RMK AO2 T02390228
03949KAQV AQV20160729230510807/29/16 23:05:31  5-MIN KAQV 300505Z AUTO 00000KT 10SM CLR 24/22 A3000 300 90 1400 000/00 RMK AO2 T02390222
03949KAQV AQV20160729231010807/29/16 23:10:31  5-MIN KAQV 300510Z AUTO 00000KT 10SM CLR 24/22 A3000 300 90 1400 000/00 RMK AO2 T02390222
03949KAQV AQV20160729231510807/29/16 23:15:31  5-MIN KAQV 300515Z AUTO 00000KT 10SM CLR 24/22 A3000 300 87 1500 000/00 RMK AO2 T02440222
03949KAQV AQV20160729232010807/29/16 23:20:31  5-MIN KAQV 300520Z AUTO 00000KT 10SM CLR 24/22 A3000 300 87 1500 000/00 RMK AO2 T02440222
03949KAQV AQV20160729232510807/29/16 23:25:31  5-MIN KAQV 300525Z AUTO 00000KT 10SM CLR 24/22 A3000 300 87 1500 000/00 RMK AO2 T02440222
03949KAQV AQV20160729233010807/29/16 23:30:31  5-MIN KAQV 300530Z AUTO 00000KT 10SM CLR 24/22 A3000 300 87 1500 000/00 RMK AO2 T02440222
03949KAQV AQV20160729233510807/29/16 23:35:31  5-MIN KAQV 300535Z AUTO 00000KT 10SM CLR 24/22 A3001 300 90 1400 000/00 RMK AO2 T02390222
03949KAQV AQV20160729234010807/29/16 23:40:31  5-MIN KAQV 300540Z AUTO 00000KT 10SM CLR 24/22 A3001 290 90 1400 000/00 RMK AO2 T02390222
03949KAQV AQV20160729234510807/29/16 23:45:31  5-MIN KAQV 300545Z AUTO 00000KT 10SM CLR 24/22 A3001 290 90 1400 000/00 RMK AO2 T02390222
03949KAQV AQV20160729235014307/29/16 23:50:31  5-MIN KAQV 300550Z AUTO 00000KT 10SM CLR 24/23 A3001 290 93 1400 000/00 RMK AO2 SLP159 T02390228 10322 20239 403390211 53012
03949KAQV AQV20160729235514307/29/16 23:55:31  5-MIN KAQV 300555Z AUTO 00000KT 10SM CLR 24/23 A3001 290 93 1400 000/00 RMK AO2 SLP159 T02390228 10322 20239 403390211 53012
03949KAQV AQV20160730000010807/30/16 00:00:31  5-MIN KAQV 300600Z AUTO 00000KT 10SM CLR 24/23 A3001 290 93 1400 000/00 RMK AO2 T02390228
03949KAQV AQV20160730000510807/30/16 00:05:31  5-MIN KAQV 300605Z AUTO 00000KT 10SM CLR 24/23 A3001 290 93 1400 000/00 RMK AO2 T02390228
03949KAQV AQV20160730001010807/30/16 00:10:31  5-MIN KAQV 300610Z AUTO 00000KT 10SM CLR 24/23 A3001 290 93 1400 000/00 RMK AO2 T02390228
03949KAQV AQV20160730001510807/30/16 00:15:31  5-MIN KAQV 300615Z AUTO 00000KT 10SM CLR 24/23 A3001 300 90 1500 000/00 RMK AO2 T02440228
03949KAQV AQV20160730002011107/30/16 00:20:31  5-MIN KAQV 300620Z AUTO 00000KT 10SM SCT120 24/23 A3001 300 93 1400 000/00 RMK AO2 T02390228
03949KAQV AQV20160730002511107/30/16 00:25:31  5-MIN KAQV 300625Z AUTO 00000KT 10SM BKN120 24/23 A3001 290 93 1400 000/00 RMK AO2 T02390228
03949KAQV AQV20160730003011107/30/16 00:30:31  5-MIN KAQV 300630Z AUTO 00000KT 10SM SCT120 24/23 A3001 290 93 1400 000/00 RMK AO2 T02390228
03949KAQV AQV20160730003511107/30/16 00:35:31  5-MIN KAQV 300635Z AUTO 00000KT 10SM SCT120 24/23 A3001 300 93 1400 000/00 RMK AO2 T02390228
03949KAQV AQV20160730004011107/30/16 00:40:31  5-MIN KAQV 300640Z AUTO 00000KT 10SM SCT120 24/23 A3001 300 93 1400 000/00 RMK AO2 T02390228
03949KAQV AQV20160730004511107/30/16 00:45:31  5-MIN KAQV 300645Z AUTO 00000KT 10SM SCT120 24/23 A3000 300 90 1500 000/00 RMK AO2 T02440228
03949KAQV AQV20160730005011807/30/16 00:50:31  5-MIN KAQV 300650Z AUTO 00000KT 10SM FEW120 24/23 A3000 300 90 1500 000/00 RMK AO2 SLP157 T02440228
03949KAQV AQV20160730005511807/30/16 00:55:31  5-MIN KAQV 300655Z AUTO 00000KT 10SM FEW120 24/23 A3000 300 90 1500 000/00 RMK AO2 SLP157 T02440228
03949KAQV AQV20160730010011107/30/16 01:00:31  5-MIN KAQV 300700Z AUTO 00000KT 10SM FEW120 24/23 A3000 300 90 1500 000/00 RMK AO2 T02440228
03949KAQV AQV20160730010510807/30/16 01:05:31  5-MIN KAQV 300705Z AUTO 00000KT 10SM CLR 24/23 A3000 300 90 1500 000/00 RMK AO2 T02440228
03949KAQV AQV20160730011010807/30/16 01:10:31  5-MIN KAQV 300710Z AUTO 00000KT 10SM CLR 24/23 A3000 300 90 1500 000/00 RMK AO2 T02440228
03949KAQV AQV20160730011510807/30/16 01:15:31  5-MIN KAQV 300715Z AUTO 00000KT 10SM CLR 24/23 A3000 300 93 1400 000/00 RMK AO2 T02390228
03949KAQV AQV20160730012010807/30/16 01:20:31  5-MIN KAQV 300720Z AUTO 00000KT 10SM CLR 24/23 A3000 300 93 1400 000/00 RMK AO2 T02390228
03949KAQV AQV20160730012510807/30/16 01:25:31  5-MIN KAQV 300725Z AUTO 00000KT 10SM CLR 24/23 A3000 310 93 1400 000/00 RMK AO2 T02390228
03949KAQV AQV20160730013010807/30/16 01:30:31  5-MIN KAQV 300730Z AUTO 00000KT 10SM CLR 24/23 A3000 310 90 1500 000/00 RMK AO2 T02440228
03949KAQV AQV20160730013510807/30/16 01:35:31  5-MIN KAQV 300735Z AUTO 20003KT 10SM CLR 24/23 A2999 310 90 1500 200/03 RMK AO2 T02440228
03949KAQV AQV20160730014010807/30/16 01:40:31  5-MIN KAQV 300740Z AUTO 00000KT 10SM CLR 24/23 A2999 310 90 1500 000/00 RMK AO2 T02440228
03949KAQV AQV20160730014510807/30/16 01:45:31  5-MIN KAQV 300745Z AUTO 00000KT 10SM CLR 24/23 A2999 310 90 1500 000/00 RMK AO2 T02440228
03949KAQV AQV20160730015011507/30/16 01:50:31  5-MIN KAQV 300750Z AUTO 00000KT 10SM CLR 24/23 A3000 310 90 1500 000/00 RMK AO2 SLP153 T02440228
03949KAQV AQV20160730015511507/30/16 01:55:31  5-MIN KAQV 300755Z AUTO 00000KT 10SM CLR 24/23 A2999 310 90 1500 000/00 RMK AO2 SLP152 T02440228
03949KAQV AQV20160730020010807/30/16 02:00:31  5-MIN KAQV 300800Z AUTO 00000KT 10SM CLR 24/23 A2999 310 90 1500 000/00 RMK AO2 T02440228
03949KAQV AQV20160730020510807/30/16 02:05:31  5-MIN KAQV 300805Z AUTO 00000KT 10SM CLR 24/23 A2999 310 90 1500 000/00 RMK AO2 T02440228
03949KAQV AQV20160730021010807/30/16 02:10:31  5-MIN KAQV 300810Z AUTO 00000KT 10SM CLR 25/23 A2999 310 87 1600 000/00 RMK AO2 T02500228
03949KAQV AQV20160730021510807/30/16 02:15:31  5-MIN KAQV 300815Z AUTO 00000KT 10SM CLR 24/23 A2999 310 90 1500 000/00 RMK AO2 T02440228
03949KAQV AQV20160730022010807/30/16 02:20:31  5-MIN KAQV 300820Z AUTO 00000KT 10SM CLR 24/23 A2999 310 90 1500 000/00 RMK AO2 T02440228
03949KAQV AQV20160730022510807/30/16 02:25:31  5-MIN KAQV 300825Z AUTO 00000KT 10SM CLR 24/23 A2999 310 90 1500 000/00 RMK AO2 T02440228
03949KAQV AQV20160730023010807/30/16 02:30:31  5-MIN KAQV 300830Z AUTO 00000KT 10SM CLR 24/23 A2999 310 90 1500 000/00 RMK AO2 T02440228
03949KAQV AQV20160730023510807/30/16 02:35:31  5-MIN KAQV 300835Z AUTO 00000KT 10SM CLR 24/23 A2999 310 90 1500 000/00 RMK AO2 T02440228
03949KAQV AQV20160730024010807/30/16 02:40:31  5-MIN KAQV 300840Z AUTO 18003KT 10SM CLR 24/23 A2999 310 90 1500 180/03 RMK AO2 T02440228
03949KAQV AQV20160730024510807/30/16 02:45:31  5-MIN KAQV 300845Z AUTO 00000KT 10SM CLR 24/23 A2999 310 93 1500 000/00 RMK AO2 T02440233
03949KAQV AQV20160730025012107/30/16 02:50:31  5-MIN KAQV 300850Z AUTO 00000KT 10SM CLR 24/23 A2999 310 90 1500 000/00 RMK AO2 SLP152 T02440228 53010
03949KAQV AQV20160730025512107/30/16 02:55:31  5-MIN KAQV 300855Z AUTO 18003KT 10SM CLR 24/23 A2999 310 93 1500 180/03 RMK AO2 SLP152 T02390228 53010
03949KAQV AQV20160730030010807/30/16 03:00:31  5-MIN KAQV 300900Z AUTO 00000KT 10SM CLR 24/23 A2999 310 93 1500 000/00 RMK AO2 T02390228
03949KAQV AQV20160730030510807/30/16 03:05:31  5-MIN KAQV 300905Z AUTO 19003KT 10SM CLR 24/23 A2999 310 93 1500 180/03 RMK AO2 T02390228
03949KAQV AQV20160730031010807/30/16 03:10:31  5-MIN KAQV 300910Z AUTO 00000KT 10SM CLR 24/23 A2999 310 93 1500 000/00 RMK AO2 T02390228
03949KAQV AQV20160730031510807/30/16 03:15:31  5-MIN KAQV 300915Z AUTO 19003KT 10SM CLR 24/23 A2999 310 93 1500 190/03 RMK AO2 T02390228
03949KAQV AQV20160730032010807/30/16 03:20:31  5-MIN KAQV 300920Z AUTO 00000KT 10SM CLR 24/23 A2999 310 93 1500 000/00 RMK AO2 T02390228
03949KAQV AQV20160730032510807/30/16 03:25:31  5-MIN KAQV 300925Z AUTO 00000KT 10SM CLR 24/23 A2999 310 93 1500 000/00 RMK AO2 T02390228
03949KAQV AQV20160730033010807/30/16 03:30:31  5-MIN KAQV 300930Z AUTO 19003KT 10SM CLR 24/23 A2999 310 93 1500 180/03 RMK AO2 T02390228
03949KAQV AQV20160730033510807/30/16 03:35:31  5-MIN KAQV 300935Z AUTO 00000KT 10SM CLR 24/23 A2999 310 93 1500 000/00 RMK AO2 T02390228
03949KAQV AQV20160730034010807/30/16 03:40:31  5-MIN KAQV 300940Z AUTO VRB03KT 10SM CLR 24/23 A2999 310 93 1500 VRB/03 RMK AO2 T02390228
03949KAQV AQV20160730034510807/30/16 03:45:31  5-MIN KAQV 300945Z AUTO VRB03KT 10SM CLR 24/23 A2999 310 93 1500 VRB/03 RMK AO2 T02390228
03949KAQV AQV20160730035011507/30/16 03:50:31  5-MIN KAQV 300950Z AUTO 21003KT 10SM CLR 24/23 A2999 310 93 1500 210/03 RMK AO2 SLP152 T02390228
03949KAQV AQV20160730035511507/30/16 03:55:31  5-MIN KAQV 300955Z AUTO 00000KT 10SM CLR 24/23 A2999 310 90 1500 000/00 RMK AO2 SLP152 T02440228
03949KAQV AQV20160730040010807/30/16 04:00:31  5-MIN KAQV 301000Z AUTO 00000KT 10SM CLR 24/23 A2999 310 90 1500 000/00 RMK AO2 T02440228
03949KAQV AQV20160730040510807/30/16 04:05:31  5-MIN KAQV 301005Z AUTO VRB03KT 10SM CLR 24/23 A2999 310 90 1500 VRB/03 RMK AO2 T02440228
03949KAQV AQV20160730041010807/30/16 04:10:31  5-MIN KAQV 301010Z AUTO 00000KT 10SM CLR 24/23 A2999 310 90 1500 000/00 RMK AO2 T02440228
03949KAQV AQV20160730041510807/30/16 04:15:31  5-MIN KAQV 301015Z AUTO VRB03KT 10SM CLR 24/23 A3000 310 90 1500 VRB/03 RMK AO2 T02440228
03949KAQV AQV20160730042010807/30/16 04:20:31  5-MIN KAQV 301020Z AUTO 00000KT 10SM CLR 24/23 A3000 310 90 1500 000/00 RMK AO2 T02440228
03949KAQV AQV20160730042510807/30/16 04:25:31  5-MIN KAQV 301025Z AUTO 00000KT 10SM CLR 24/23 A3000 310 90 1500 000/00 RMK AO2 T02440228
03949KAQV AQV20160730043010807/30/16 04:30:31  5-MIN KAQV 301030Z AUTO 00000KT 10SM CLR 24/23 A3000 310 93 1500 000/00 RMK AO2 T02440233
03949KAQV AQV20160730043510807/30/16 04:35:31  5-MIN KAQV 301035Z AUTO 00000KT 10SM CLR 24/23 A3000 300 93 1500 000/00 RMK AO2 T02440233
03949KAQV AQV20160730044010807/30/16 04:40:31  5-MIN KAQV 301040Z AUTO 00000KT 10SM CLR 24/23 A3000 300 93 1500 000/00 RMK AO2 T02440233
03949KAQV AQV20160730044510807/30/16 04:45:31  5-MIN KAQV 301045Z AUTO 00000KT 10SM CLR 24/23 A3000 300 93 1500 000/00 RMK AO2 T02440233
03949KAQV AQV20160730045011507/30/16 04:50:31  5-MIN KAQV 301050Z AUTO 00000KT 10SM CLR 24/23 A3000 300 93 1500 000/00 RMK AO2 SLP154 T02440233
03949KAQV AQV20160730045511507/30/16 04:55:31  5-MIN KAQV 301055Z AUTO 00000KT 10SM CLR 24/23 A3000 300 93 1500 000/00 RMK AO2 SLP154 T02440233
03949KAQV AQV20160730050010807/30/16 05:00:31  5-MIN KAQV 301100Z AUTO VRB03KT 10SM CLR 24/23 A3000 300 93 1500 VRB/03 RMK AO2 T02440233
03949KAQV AQV20160730050510807/30/16 05:05:31  5-MIN KAQV 301105Z AUTO VRB03KT 10SM CLR 24/23 A3000 300 93 1500 VRB/03 RMK AO2 T02440233
03949KAQV AQV20160730051010807/30/16 05:10:31  5-MIN KAQV 301110Z AUTO VRB03KT 10SM CLR 25/23 A3000 300 90 1600 VRB/03 RMK AO2 T02500233
03949KAQV AQV20160730051510807/30/16 05:15:31  5-MIN KAQV 301115Z AUTO VRB03KT 10SM CLR 25/23 A3000 300 90 1600 VRB/03 RMK AO2 T02500233
03949KAQV AQV20160730052010807/30/16 05:20:31  5-MIN KAQV 301120Z AUTO VRB03KT 10SM CLR 25/23 A3000 300 90 1600 VRB/03 RMK AO2 T02500233
03949KAQV AQV20160730052510807/30/16 05:25:31  5-MIN KAQV 301125Z AUTO 00000KT 10SM CLR 25/23 A3000 300 90 1600 000/00 RMK AO2 T02500233
03949KAQV AQV20160730053010807/30/16 05:30:31  5-MIN KAQV 301130Z AUTO VRB03KT 10SM CLR 25/23 A3001 300 90 1600 VRB/03 RMK AO2 T02500233
03949KAQV AQV20160730053510807/30/16 05:35:31  5-MIN KAQV 301135Z AUTO 00000KT 10SM CLR 25/23 A3001 300 90 1600 000/00 RMK AO2 T02500233
03949KAQV AQV20160730054010807/30/16 05:40:31  5-MIN KAQV 301140Z AUTO 00000KT 10SM CLR 25/23 A3001 300 90 1600 000/00 RMK AO2 T02500233
03949KAQV AQV20160730054510807/30/16 05:45:31  5-MIN KAQV 301145Z AUTO VRB03KT 10SM CLR 25/23 A3001 290 90 1600 VRB/03 RMK AO2 T02500233
03949KAQV AQV20160730055013307/30/16 05:50:31  5-MIN KAQV 301150Z AUTO VRB03KT 10SM CLR 25/23 A3001 290 90 1600 VRB/03 RMK AO2 SLP158 T02500233 10250 20239 56005
03949KAQV AQV20160730055513307/30/16 05:55:31  5-MIN KAQV 301155Z AUTO VRB04KT 10SM CLR 25/23 A3001 290 90 1600 VRB/04 RMK AO2 SLP158 T02500233 10250 20239 56005
03949KAQV AQV20160730060010807/30/16 06:00:31  5-MIN KAQV 301200Z AUTO VRB03KT 10SM CLR 25/23 A3001 290 90 1600 VRB/03 RMK AO2 T02500233
03949KAQV AQV20160730060510807/30/16 06:05:31  5-MIN KAQV 301205Z AUTO VRB03KT 10SM CLR 25/23 A3002 290 90 1600 VRB/03 RMK AO2 T02500233
03949KAQV AQV20160730061010807/30/16 06:10:31  5-MIN KAQV 301210Z AUTO VRB03KT 10SM CLR 25/23 A3002 290 90 1500 VRB/03 RMK AO2 T02500233
03949KAQV AQV20160730061510807/30/16 06:15:31  5-MIN KAQV 301215Z AUTO 00000KT 10SM CLR 25/23 A3002 280 90 1500 000/00 RMK AO2 T02500233
03949KAQV AQV20160730062010807/30/16 06:20:31  5-MIN KAQV 301220Z AUTO 00000KT 10SM CLR 25/23 A3002 280 90 1500 000/00 RMK AO2 T02500233
03949KAQV AQV20160730062510807/30/16 06:25:31  5-MIN KAQV 301225Z AUTO VRB03KT 10SM CLR 25/23 A3002 280 90 1500 VRB/03 RMK AO2 T02500233
03949KAQV AQV20160730063010807/30/16 06:30:31  5-MIN KAQV 301230Z AUTO VRB03KT 10SM CLR 26/23 A3003 280 87 1600 VRB/03 RMK AO2 T02560233
03949KAQV AQV20160730063510807/30/16 06:35:31  5-MIN KAQV 301235Z AUTO VRB03KT 10SM CLR 26/23 A3003 280 87 1600 VRB/03 RMK AO2 T02560233
03949KAQV AQV20160730064010807/30/16 06:40:31  5-MIN KAQV 301240Z AUTO VRB03KT 10SM CLR 26/23 A3003 280 87 1600 VRB/03 RMK AO2 T02560233
03949KAQV AQV20160730064510807/30/16 06:45:31  5-MIN KAQV 301245Z AUTO VRB03KT 10SM CLR 26/23 A3003 270 87 1600 VRB/03 RMK AO2 T02560233
03949KAQV AQV20160730065011507/30/16 06:50:31  5-MIN KAQV 301250Z AUTO 00000KT 10SM CLR 26/23 A3003 270 87 1600 000/00 RMK AO2 SLP166 T02560233
03949KAQV AQV20160730065511507/30/16 06:55:31  5-MIN KAQV 301255Z AUTO 00000KT 10SM CLR 26/24 A3003 270 90 1600 000/00 RMK AO2 SLP166 T02560239
03949KAQV AQV20160730070010807/30/16 07:00:31  5-MIN KAQV 301300Z AUTO VRB03KT 10SM CLR 26/24 A3003 270 90 1600 VRB/03 RMK AO2 T02560239
03949KAQV AQV20160730070510807/30/16 07:05:31  5-MIN KAQV 301305Z AUTO 00000KT 10SM CLR 26/24 A3003 270 87 1700 000/00 RMK AO2 T02610239
03949KAQV AQV20160730071010807/30/16 07:10:31  5-MIN KAQV 301310Z AUTO VRB03KT 10SM CLR 26/24 A3003 270 87 1700 VRB/03 RMK AO2 T02610239
03949KAQV AQV20160730071510807/30/16 07:15:31  5-MIN KAQV 301315Z AUTO 00000KT 10SM CLR 27/24 A3003 270 84 1700 000/00 RMK AO2 T02670239
03949KAQV AQV20160730072010807/30/16 07:20:31  5-MIN KAQV 301320Z AUTO VRB04KT 10SM CLR 27/24 A3003 270 82 1800 VRB/04 RMK AO2 T02720239
03949KAQV AQV20160730072510807/30/16 07:25:31  5-MIN KAQV 301325Z AUTO 27004KT 10SM CLR 27/24 A3003 270 82 1800 260/04 RMK AO2 T02720239
03949KAQV AQV20160730073010807/30/16 07:30:31  5-MIN KAQV 301330Z AUTO VRB04KT 10SM CLR 27/24 A3004 270 82 1800 VRB/04 RMK AO2 T02720239
03949KAQV AQV20160730073510807/30/16 07:35:31  5-MIN KAQV 301335Z AUTO 23003KT 10SM CLR 28/24 A3004 270 82 1800 230/03 RMK AO2 T02780244
03949KAQV AQV20160730074010807/30/16 07:40:31  5-MIN KAQV 301340Z AUTO 28005KT 10SM CLR 28/24 A3004 270 82 1800 280/05 RMK AO2 T02780244
03949KAQV AQV20160730074510807/30/16 07:45:31  5-MIN KAQV 301345Z AUTO 27005KT 10SM CLR 28/24 A3004 270 82 1800 270/05 RMK AO2 T02780244
03949KAQV AQV20160730075011807/30/16 07:50:31  5-MIN KAQV 301350Z AUTO 27004KT 10SM FEW014 28/24 A3004 270 82 1800 260/04 RMK AO2 SLP169 T02780244
03949KAQV AQV20160730075511807/30/16 07:55:31  5-MIN KAQV 301355Z AUTO VRB04KT 10SM FEW014 28/24 A3004 260 79 1900 VRB/04 RMK AO2 SLP169 T02830244
03949KAQV AQV20160730080011107/30/16 08:00:31  5-MIN KAQV 301400Z AUTO VRB05KT 10SM SCT014 28/24 A3004 260 82 1800 VRB/05 RMK AO2 T02780244
03949KAQV AQV20160730080511107/30/16 08:05:31  5-MIN KAQV 301405Z AUTO VRB04KT 10SM SCT014 28/24 A3004 270 79 1900 VRB/04 RMK AO2 T02830244
03949KAQV AQV20160730081011107/30/16 08:10:31  5-MIN KAQV 301410Z AUTO VRB03KT 10SM BKN014 28/24 A3004 270 79 1900 VRB/03 RMK AO2 T02830244
03949KAQV AQV20160730081511107/30/16 08:15:31  5-MIN KAQV 301415Z AUTO VRB03KT 10SM BKN015 28/24 A3004 270 79 1900 VRB/03 RMK AO2 T02830244
03949KAQV AQV20160730082011107/30/16 08:20:31  5-MIN KAQV 301420Z AUTO VRB05KT 10SM SCT015 29/24 A3004 270 76 2000 VRB/05 RMK AO2 T02890244
03949KAQV AQV20160730082511107/30/16 08:25:31  5-MIN KAQV 301425Z AUTO VRB04KT 10SM SCT015 29/24 A3004 270 74 2000 VRB/04 RMK AO2 T02890239
03949KAQV AQV20160730083011107/30/16 08:30:31  5-MIN KAQV 301430Z AUTO VRB05KT 10SM SCT015 29/24 A3004 270 74 2000 VRB/05 RMK AO2 T02940244
03949KAQV AQV20160730083512707/30/16 08:35:31  5-MIN KAQV 301435Z AUTO 26008KT 220V280 10SM FEW016 29/24 A3004 270 71 2000 250/08 220V280 RMK AO2 T02940239
03949KAQV AQV20160730084011107/30/16 08:40:31  5-MIN KAQV 301440Z AUTO 28006KT 10SM FEW018 29/23 A3004 270 69 2000 270/06 RMK AO2 T02940233
03949KAQV AQV20160730084511107/30/16 08:45:31  5-MIN KAQV 301445Z AUTO 25005KT 10SM FEW018 30/23 A3004 270 67 2100 240/05 RMK AO2 T03000233
03949KAQV AQV20160730085012407/30/16 08:50:31  5-MIN KAQV 301450Z AUTO 23006KT 10SM FEW020 30/23 A3004 270 67 2100 230/06 RMK AO2 SLP167 T03000233 53006
03949KAQV AQV20160730085512107/30/16 08:55:31  5-MIN KAQV 301455Z AUTO VRB06KT 10SM CLR 29/23 A3004 270 69 2000 VRB/06 RMK AO2 SLP167 T02940233 53006
03949KAQV AQV20160730090010807/30/16 09:00:31  5-MIN KAQV 301500Z AUTO VRB05KT 10SM CLR 30/23 A3004 270 67 2100 VRB/05 RMK AO2 T03000233
03949KAQV AQV20160730090510807/30/16 09:05:31  5-MIN KAQV 301505Z AUTO VRB05KT 10SM CLR 29/23 A3004 270 67 2000 VRB/05 RMK AO2 T02940228
03949KAQV AQV20160730091010807/30/16 09:10:31  5-MIN KAQV 301510Z AUTO VRB05KT 10SM CLR 31/23 A3004 270 65 2200 VRB/05 RMK AO2 T03060233
03949KAQV AQV20160730091510807/30/16 09:15:31  5-MIN KAQV 301515Z AUTO VRB03KT 10SM CLR 30/23 A3003 270 67 2100 VRB/03 RMK AO2 T03000233
03949KAQV AQV20160730092010807/30/16 09:20:31  5-MIN KAQV 301520Z AUTO 00000KT 10SM CLR 31/23 A3003 270 65 2200 000/00 RMK AO2 T03060233
03949KAQV AQV20160730092510807/30/16 09:25:31  5-MIN KAQV 301525Z AUTO 29005KT 10SM CLR 29/23 A3003 270 69 2000 290/05 RMK AO2 T02940233
03949KAQV AQV20160730093010807/30/16 09:30:31  5-MIN KAQV 301530Z AUTO VRB04KT 10SM CLR 31/23 A3003 270 63 2200 VRB/04 RMK AO2 T03110233
03949KAQV AQV20160730093510807/30/16 09:35:31  5-MIN KAQV 301535Z AUTO VRB03KT 10SM CLR 31/23 A3003 270 62 2200 VRB/03 RMK AO2 T03060228
03949KAQV AQV20160730094010807/30/16 09:40:31  5-MIN KAQV 301540Z AUTO 00000KT 10SM CLR 31/23 A3003 270 60 2200 000/00 RMK AO2 T03110228
03949KAQV AQV20160730094510807/30/16 09:45:31  5-MIN KAQV 301545Z AUTO 00000KT 10SM CLR 31/23 A3003 270 60 2200 000/00 RMK AO2 T03110228
03949KAQV AQV20160730095011507/30/16 09:50:31  5-MIN KAQV 301550Z AUTO VRB03KT 10SM CLR 32/23 A3003 270 58 2300 VRB/03 RMK AO2 SLP166 T03170228
03949KAQV AQV20160730095511507/30/16 09:55:31  5-MIN KAQV 301555Z AUTO VRB04KT 10SM CLR 32/23 A3003 270 58 2300 VRB/04 RMK AO2 SLP166 T03170228
03949KAQV AQV20160730100011107/30/16 10:00:31  5-MIN KAQV 301600Z AUTO 00000KT 10SM FEW110 32/22 A3003 270 56 2300 000/00 RMK AO2 T03170222
03949KAQV AQV20160730100511107/30/16 10:05:31  5-MIN KAQV 301605Z AUTO 00000KT 10SM FEW110 32/23 A3003 270 58 2300 000/00 RMK AO2 T03170228
03949KAQV AQV20160730101011107/30/16 10:10:31  5-MIN KAQV 301610Z AUTO VRB05KT 10SM FEW110 32/23 A3003 270 58 2300 VRB/05 RMK AO2 T03170228
03949KAQV AQV20160730101511107/30/16 10:15:31  5-MIN KAQV 301615Z AUTO 00000KT 10SM SCT110 32/23 A3003 270 57 2300 000/00 RMK AO2 T03220228
03949KAQV AQV20160730102011107/30/16 10:20:31  5-MIN KAQV 301620Z AUTO VRB03KT 10SM BKN110 32/22 A3003 270 55 2300 VRB/03 RMK AO2 T03220222
03949KAQV AQV20160730102511107/30/16 10:25:31  5-MIN KAQV 301625Z AUTO 00000KT 10SM BKN110 32/22 A3003 270 55 2300 000/00 RMK AO2 T03170217
03949KAQV AQV20160730103011107/30/16 10:30:31  5-MIN KAQV 301630Z AUTO 00000KT 10SM SCT110 32/22 A3003 270 56 2300 000/00 RMK AO2 T03170222
03949KAQV AQV20160730103511107/30/16 10:35:31  5-MIN KAQV 301635Z AUTO 00000KT 10SM SCT110 32/23 A3003 270 58 2300 000/00 RMK AO2 T03170228
03949KAQV AQV20160730104011107/30/16 10:40:31  5-MIN KAQV 301640Z AUTO 00000KT 10SM SCT110 32/22 A3003 270 56 2300 000/00 RMK AO2 T03170222
03949KAQV AQV20160730104511107/30/16 10:45:31  5-MIN KAQV 301645Z AUTO VRB03KT 10SM FEW110 32/22 A3003 270 53 2300 VRB/03 RMK AO2 T03220217
03949KAQV AQV20160730105010807/30/16 10:50:31  5-MIN KAQV 301650Z AUTO 10SM FEW110 32/22 A3003 280 53 2300 M /M RMK AO2 SLP165 T03220217
03949KAQV AQV20160730105511507/30/16 10:55:31  5-MIN KAQV 301655Z AUTO 26006KT 10SM CLR 32/21 A3003 280 51 2300 250/06 RMK AO2 SLP165 T03220211
03949KAQV AQV20160730110010807/30/16 11:00:31  5-MIN KAQV 301700Z AUTO VRB05KT 10SM CLR 33/22 A3003 280 51 2400 VRB/05 RMK AO2 T03280217
03949KAQV AQV20160730110510807/30/16 11:05:31  5-MIN KAQV 301705Z AUTO VRB04KT 10SM CLR 33/21 A3003 280 48 2400 VRB/04 RMK AO2 T03280206
03949KAQV AQV20160730111011107/30/16 11:10:31  5-MIN KAQV 301710Z AUTO VRB04KT 10SM FEW040 33/21 A3003 280 49 2400 VRB/04 RMK AO2 T03280211
03949KAQV AQV20160730111511107/30/16 11:15:31  5-MIN KAQV 301715Z AUTO VRB03KT 10SM FEW040 33/21 A3002 280 49 2400 VRB/03 RMK AO2 T03280211
03949KAQV AQV20160730112011107/30/16 11:20:31  5-MIN KAQV 301720Z AUTO VRB03KT 10SM FEW040 33/22 A3002 280 51 2400 VRB/03 RMK AO2 T03280217
03949KAQV AQV20160730112511307/30/16 11:25:31  5-MIN KAQV 301725Z AUTO VRB04KT 10SM FEW041 33/21 A3002 280 49 2400 VRB/04 RMK AO2 T03280211 $
03949KAQV AQV20160730113011307/30/16 11:30:31  5-MIN KAQV 301730Z AUTO VRB03KT 10SM FEW041 32/21 A3002 280 49 2400 VRB/03 RMK AO2 T03220206 $
03949KAQV AQV20160730113511307/30/16 11:35:31  5-MIN KAQV 301735Z AUTO VRB05KT 10SM FEW041 34/21 A3002 280 46 2500 VRB/05 RMK AO2 T03390211 $
03949KAQV AQV20160730114011007/30/16 11:40:31  5-MIN KAQV 301740Z AUTO VRB03KT 10SM CLR 34/21 A3002 280 46 2500 VRB/03 RMK AO2 T03390211 $
03949KAQV AQV20160730114511007/30/16 11:45:31  5-MIN KAQV 301745Z AUTO VRB04KT 10SM CLR 33/21 A3002 280 48 2500 VRB/04 RMK AO2 T03330211 $
03949KAQV AQV20160730115013807/30/16 11:50:31  5-MIN KAQV 301750Z AUTO VRB03KT 10SM FEW047 33/21 A3002 280 48 2500 VRB/03 RMK AO2 SLP161 T03330211 10339 20250 50008 $
03949KAQV AQV20160730115513807/30/16 11:55:31  5-MIN KAQV 301755Z AUTO VRB04KT 10SM FEW047 33/21 A3002 290 48 2500 VRB/04 RMK AO2 SLP160 T03330211 10339 20250 50008 $
03949KAQV AQV20160730120011307/30/16 12:00:31  5-MIN KAQV 301800Z AUTO 25004KT 10SM FEW047 33/22 A3002 290 50 2500 240/04 RMK AO2 T03330217 $
03949KAQV AQV20160730120511307/30/16 12:05:31  5-MIN KAQV 301805Z AUTO VRB03KT 10SM FEW047 33/22 A3002 290 50 2500 VRB/03 RMK AO2 T03330217 $
03949KAQV AQV20160730121011307/30/16 12:10:31  5-MIN KAQV 301810Z AUTO 19005KT 10SM FEW047 33/22 A3002 290 50 2500 180/05 RMK AO2 T03330217 $
03949KAQV AQV20160730121511307/30/16 12:15:31  5-MIN KAQV 301815Z AUTO VRB04KT 10SM FEW047 33/22 A3002 290 50 2500 VRB/04 RMK AO2 T03330217 $
03949KAQV AQV20160730122011307/30/16 12:20:31  5-MIN KAQV 301820Z AUTO VRB03KT 10SM FEW046 34/22 A3001 290 48 2500 VRB/03 RMK AO2 T03390217 $
03949KAQV AQV20160730122511307/30/16 12:25:31  5-MIN KAQV 301825Z AUTO 00000KT 10SM SCT046 33/21 A3001 290 49 2400 000/00 RMK AO2 T03280211 $
03949KAQV AQV20160730123012007/30/16 12:30:31  5-MIN KAQV 301830Z AUTO 00000KT 10SM BKN046 BKN060 33/22 A3001 290 51 2400 000/00 RMK AO2 T03280217 $
03949KAQV AQV20160730123512007/30/16 12:35:31  5-MIN KAQV 301835Z AUTO 00000KT 10SM SCT046 BKN060 34/22 A3001 290 50 2500 000/00 RMK AO2 T03390222 $
03949KAQV AQV20160730124012007/30/16 12:40:31  5-MIN KAQV 301840Z AUTO VRB04KT 10SM SCT046 SCT060 34/22 A3001 300 48 2600 VRB/04 RMK AO2 T03440222 $
03949KAQV AQV20160730124512007/30/16 12:45:31  5-MIN KAQV 301845Z AUTO VRB03KT 10SM SCT046 SCT060 34/21 A3001 300 46 2600 VRB/03 RMK AO2 T03390211 $
03949KAQV AQV20160730125012707/30/16 12:50:31  5-MIN KAQV 301850Z AUTO VRB05KT 10SM SCT046 SCT060 34/22 A3000 300 48 2600 VRB/05 RMK AO2 SLP155 T03390217 $
03949KAQV AQV20160730125512707/30/16 12:55:31  5-MIN KAQV 301855Z AUTO 27005KT 10SM FEW048 SCT060 34/22 A3000 300 48 2600 270/05 RMK AO2 SLP155 T03390217 $
03949KAQV AQV20160730130011307/30/16 13:00:31  5-MIN KAQV 301900Z AUTO VRB04KT 10SM FEW048 34/22 A3000 300 46 2600 VRB/04 RMK AO2 T03440217 $
03949KAQV AQV20160730130511307/30/16 13:05:31  5-MIN KAQV 301905Z AUTO VRB03KT 10SM FEW048 34/21 A3000 300 45 2600 VRB/03 RMK AO2 T03440211 $
03949KAQV AQV20160730131011307/30/16 13:10:31  5-MIN KAQV 301910Z AUTO VRB03KT 10SM FEW048 34/22 A3000 300 46 2600 VRB/03 RMK AO2 T03440217 $
03949KAQV AQV20160730131511307/30/16 13:15:31  5-MIN KAQV 301915Z AUTO VRB03KT 10SM FEW048 34/21 A3000 310 45 2600 VRB/03 RMK AO2 T03390206 $
03949KAQV AQV20160730132011007/30/16 13:20:31  5-MIN KAQV 301920Z AUTO 00000KT 10SM CLR 34/21 A2999 310 45 2600 000/00 RMK AO2 T03440211 $
03949KAQV AQV20160730132511007/30/16 13:25:31  5-MIN KAQV 301925Z AUTO 00000KT 10SM CLR 33/21 A2999 310 48 2500 000/00 RMK AO2 T03330211 $
03949KAQV AQV20160730133011307/30/16 13:30:31  5-MIN KAQV 301930Z AUTO 28005KT 10SM FEW060 33/22 A2999 310 50 2500 270/05 RMK AO2 T03330217 $
03949KAQV AQV20160730133511307/30/16 13:35:31  5-MIN KAQV 301935Z AUTO 00000KT 10SM FEW060 33/21 A2999 310 48 2500 000/00 RMK AO2 T03330211 $
03949KAQV AQV20160730134011307/30/16 13:40:31  5-MIN KAQV 301940Z AUTO 00000KT 10SM FEW050 34/21 A2999 310 45 2600 000/00 RMK AO2 T03440211 $
03949KAQV AQV20160730134511307/30/16 13:45:31  5-MIN KAQV 301945Z AUTO VRB03KT 10SM SCT050 34/21 A2999 310 45 2600 VRB/03 RMK AO2 T03440211 $
03949KAQV AQV20160730135012007/30/16 13:50:31  5-MIN KAQV 301950Z AUTO 00000KT 10SM BKN050 35/21 A2998 320 43 2700 000/00 RMK AO2 SLP149 T03500211 $
03949KAQV AQV20160730135512007/30/16 13:55:31  5-MIN KAQV 301955Z AUTO 01005KT 10SM BKN050 35/22 A2998 320 47 2700 010/05 RMK AO2 SLP148 T03500222 $
03949KAQV AQV20160730140012007/30/16 14:00:31  5-MIN KAQV 302000Z AUTO 01004KT 10SM SCT050 BKN060 35/22 A2998 320 47 2700 010/04 RMK AO2 T03500222 $
03949KAQV AQV20160730140512007/30/16 14:05:31  5-MIN KAQV 302005Z AUTO VRB03KT 10SM SCT050 BKN060 35/22 A2998 320 45 2700 VRB/03 RMK AO2 T03500217 $
03949KAQV AQV20160730141012007/30/16 14:10:31  5-MIN KAQV 302010Z AUTO 00000KT 10SM BKN050 BKN070 34/22 A2997 330 46 2600 000/00 RMK AO2 T03440217 $
03949KAQV AQV20160730141512007/30/16 14:15:31  5-MIN KAQV 302015Z AUTO 20003KT 10SM BKN055 BKN070 34/21 A2997 330 46 2600 200/03 RMK AO2 T03390211 $
03949KAQV AQV20160730142012007/30/16 14:20:31  5-MIN KAQV 302020Z AUTO 00000KT 10SM BKN060 BKN085 34/21 A2997 330 43 2700 000/00 RMK AO2 T03440206 $
03949KAQV AQV20160730142512007/30/16 14:25:31  5-MIN KAQV 302025Z AUTO VRB03KT 10SM SCT060 BKN090 36/21 A2997 330 42 2800 VRB/03 RMK AO2 T03560211 $
03949KAQV AQV20160730143012007/30/16 14:30:31  5-MIN KAQV 302030Z AUTO 00000KT 10SM FEW060 SCT085 34/21 A2997 330 43 2700 000/00 RMK AO2 T03440206 $
03949KAQV AQV20160730143512007/30/16 14:35:31  5-MIN KAQV 302035Z AUTO 00000KT 10SM FEW060 SCT090 34/21 A2997 330 45 2600 000/00 RMK AO2 T03390206 $
03949KAQV AQV20160730144012007/30/16 14:40:31  5-MIN KAQV 302040Z AUTO 00000KT 10SM FEW060 SCT090 34/21 A2997 330 45 2600 000/00 RMK AO2 T03390206 $
03949KAQV AQV20160730144512007/30/16 14:45:31  5-MIN KAQV 302045Z AUTO 00000KT 10SM FEW060 SCT090 33/19 A2997 330 43 2500 000/00 RMK AO2 T03330194 $
03949KAQV AQV20160730145013307/30/16 14:50:31  5-MIN KAQV 302050Z AUTO 00000KT 10SM FEW060 FEW090 34/21 A2997 330 43 2700 000/00 RMK AO2 SLP142 T03440206 58006 $
03949KAQV AQV20160730145513307/30/16 14:55:31  5-MIN KAQV 302055Z AUTO 08003KT 10SM FEW060 SCT090 34/21 A2996 340 46 2600 070/03 RMK AO2 SLP142 T03390211 58006 $
03949KAQV AQV20160730150012007/30/16 15:00:31  5-MIN KAQV 302100Z AUTO VRB03KT 10SM SCT060 BKN090 34/21 A2996 340 45 2600 VRB/03 RMK AO2 T03390206 $
03949KAQV AQV20160730150512007/30/16 15:05:31  5-MIN KAQV 302105Z AUTO 12003KT 10SM BKN060 BKN090 34/21 A2996 340 46 2600 110/03 RMK AO2 T03390211 $
03949KAQV AQV20160730151011307/30/16 15:10:31  5-MIN KAQV 302110Z AUTO 00000KT 10SM BKN060 34/21 A2996 340 46 2600 000/00 RMK AO2 T03390211 $
03949KAQV AQV20160730151512007/30/16 15:15:31  5-MIN KAQV 302115Z AUTO 00000KT 10SM BKN060 BKN090 33/22 A2996 340 50 2500 000/00 RMK AO2 T03330217 $
03949KAQV AQV20160730152012007/30/16 15:20:31  5-MIN KAQV 302120Z AUTO VRB04KT 10SM BKN060 BKN090 34/22 A2996 340 50 2600 VRB/04 RMK AO2 T03390222 $
03949KAQV AQV20160730152512007/30/16 15:25:31  5-MIN KAQV 302125Z AUTO VRB03KT 10SM BKN060 OVC090 34/22 A2996 340 48 2700 VRB/03 RMK AO2 T03440222 $
03949KAQV AQV20160730153012007/30/16 15:30:31  5-MIN KAQV 302130Z AUTO 10004KT 10SM BKN060 OVC090 33/22 A2996 340 51 2500 100/04 RMK AO2 T03330222 $
03949KAQV AQV20160730153512007/30/16 15:35:31  5-MIN KAQV 302135Z AUTO VRB03KT 10SM BKN060 BKN090 33/22 A2996 340 53 2500 VRB/03 RMK AO2 T03280222 $
03949KAQV AQV20160730154012007/30/16 15:40:31  5-MIN KAQV 302140Z AUTO 00000KT 10SM BKN060 BKN090 33/23 A2996 340 53 2500 000/00 RMK AO2 T03330228 $
03949KAQV AQV20160730154511307/30/16 15:45:31  5-MIN KAQV 302145Z AUTO 00000KT 10SM BKN060 33/22 A2996 340 53 2500 000/00 RMK AO2 T03280222 $
03949KAQV AQV20160730155012707/30/16 15:50:31  5-MIN KAQV 302150Z AUTO VRB03KT 10SM BKN060 BKN120 33/23 A2996 340 55 2500 VRB/03 RMK AO2 SLP141 T03280228 $
03949KAQV AQV20160730155512707/30/16 15:55:31  5-MIN KAQV 302155Z AUTO 00000KT 10SM SCT060 BKN120 33/23 A2996 340 57 2500 000/00 RMK AO2 SLP140 T03280233 $
03949KAQV AQV20160730160012007/30/16 16:00:31  5-MIN KAQV 302200Z AUTO 00000KT 10SM SCT060 BKN110 33/23 A2996 340 55 2500 000/00 RMK AO2 T03280228 $
03949KAQV AQV20160730160512007/30/16 16:05:31  5-MIN KAQV 302205Z AUTO 00000KT 10SM SCT060 BKN110 33/23 A2996 340 55 2500 000/00 RMK AO2 T03280228 $
03949KAQV AQV20160730161012007/30/16 16:10:31  5-MIN KAQV 302210Z AUTO 00000KT 10SM SCT060 BKN110 33/23 A2996 340 57 2500 000/00 RMK AO2 T03280233 $
03949KAQV AQV20160730161512007/30/16 16:15:31  5-MIN KAQV 302215Z AUTO 08003KT 10SM BKN060 BKN110 33/23 A2996 340 55 2500 080/03 RMK AO2 T03280228 $
03949KAQV AQV20160730162012007/30/16 16:20:31  5-MIN KAQV 302220Z AUTO 00000KT 10SM SCT060 BKN110 33/23 A2995 340 55 2500 000/00 RMK AO2 T03280228 $
03949KAQV AQV20160730162512007/30/16 16:25:31  5-MIN KAQV 302225Z AUTO 00000KT 10SM SCT060 BKN110 33/23 A2995 350 55 2500 000/00 RMK AO2 T03280228 $
03949KAQV AQV20160730163012007/30/16 16:30:31  5-MIN KAQV 302230Z AUTO 00000KT 10SM BKN060 BKN110 33/23 A2995 350 55 2500 000/00 RMK AO2 T03280228 $
03949KAQV AQV20160730163512007/30/16 16:35:31  5-MIN KAQV 302235Z AUTO 00000KT 10SM BKN060 BKN110 33/23 A2995 350 53 2600 000/00 RMK AO2 T03330228 $
03949KAQV AQV20160730164012007/30/16 16:40:31  5-MIN KAQV 302240Z AUTO 00000KT 10SM SCT060 BKN110 33/22 A2995 350 51 2600 000/00 RMK AO2 T03330222 $
03949KAQV AQV20160730164512007/30/16 16:45:31  5-MIN KAQV 302245Z AUTO 00000KT 10SM SCT060 BKN110 33/22 A2995 350 53 2500 000/00 RMK AO2 T03280222 $
03949KAQV AQV20160730165012707/30/16 16:50:31  5-MIN KAQV 302250Z AUTO VRB03KT 10SM BKN060 BKN110 33/23 A2995 350 55 2500 VRB/03 RMK AO2 SLP136 T03280228 $
03949KAQV AQV20160730165512707/30/16 16:55:31  5-MIN KAQV 302255Z AUTO 07003KT 10SM BKN060 BKN110 33/23 A2995 350 53 2600 060/03 RMK AO2 SLP136 T03330228 $
03949KAQV AQV20160730170011307/30/16 17:00:31  5-MIN KAQV 302300Z AUTO 08003KT 10SM BKN055 34/22 A2995 350 50 2600 080/03 RMK AO2 T03390222 $
03949KAQV AQV20160730170511307/30/16 17:05:31  5-MIN KAQV 302305Z AUTO VRB04KT 10SM BKN055 34/22 A2995 350 48 2600 VRB/04 RMK AO2 T03390217 $
03949KAQV AQV20160730171011307/30/16 17:10:31  5-MIN KAQV 302310Z AUTO VRB04KT 10SM BKN055 34/21 A2995 350 45 2700 VRB/04 RMK AO2 T03440211 $
03949KAQV AQV20160730171512007/30/16 17:15:31  5-MIN KAQV 302315Z AUTO VRB04KT 10SM BKN055 BKN065 34/22 A2995 340 46 2700 VRB/04 RMK AO2 T03440217 $
03949KAQV AQV20160730172012007/30/16 17:20:31  5-MIN KAQV 302320Z AUTO VRB05KT 10SM BKN055 BKN065 34/22 A2996 340 48 2600 VRB/05 RMK AO2 T03390217 $
03949KAQV AQV20160730172512007/30/16 17:25:31  5-MIN KAQV 302325Z AUTO VRB04KT 10SM BKN055 OVC065 34/22 A2995 340 48 2600 VRB/04 RMK AO2 T03390217 $
03949KAQV AQV20160730173012007/30/16 17:30:31  5-MIN KAQV 302330Z AUTO 00000KT 10SM BKN055 OVC065 34/22 A2995 350 50 2600 000/00 RMK AO2 T03390222 $
03949KAQV AQV20160730173512007/30/16 17:35:31  5-MIN KAQV 302335Z AUTO VRB05KT 10SM BKN055 OVC065 33/22 A2995 350 51 2600 VRB/05 RMK AO2 T03330222 $
03949KAQV AQV20160730174011307/30/16 17:40:31  5-MIN KAQV 302340Z AUTO 00000KT 10SM OVC055 33/22 A2995 350 51 2600 000/00 RMK AO2 T03330222 $
03949KAQV AQV20160730174511307/30/16 17:45:31  5-MIN KAQV 302345Z AUTO 18005KT 10SM OVC055 33/22 A2995 350 51 2600 170/05 RMK AO2 T03330222 $
03949KAQV AQV20160730175013807/30/16 17:50:31  5-MIN KAQV 302350Z AUTO VRB04KT 10SM BKN055 33/23 A2995 350 53 2600 VRB/04 RMK AO2 SLP136 T03330228 10356 20322 58018 $
03949KAQV AQV20160730175513807/30/16 17:55:31  5-MIN KAQV 302355Z AUTO 17003KT 10SM SCT055 33/22 A2994 350 53 2500 170/03 RMK AO2 SLP135 T03280222 10356 20322 58018 $
03949KAQV AQV20160730180011307/30/16 18:00:31  5-MIN KAQV 310000Z AUTO VRB03KT 10SM SCT055 33/22 A2994 350 50 2600 VRB/03 RMK AO2 T03330217 $
03949KAQV AQV20160730180511307/30/16 18:05:31  5-MIN KAQV 310005Z AUTO 20005KT 10SM FEW055 33/21 A2994 350 49 2500 200/05 RMK AO2 T03280211 $
03949KAQV AQV20160730181011307/30/16 18:10:31  5-MIN KAQV 310010Z AUTO VRB03KT 10SM FEW060 33/21 A2994 350 49 2500 VRB/03 RMK AO2 T03280211 $
03949KAQV AQV20160730181511007/30/16 18:15:31  5-MIN KAQV 310015Z AUTO 00000KT 10SM CLR 33/21 A2994 350 49 2500 000/00 RMK AO2 T03280211 $
03949KAQV AQV20160730182011007/30/16 18:20:31  5-MIN KAQV 310020Z AUTO 00000KT 10SM CLR 33/21 A2994 350 49 2500 000/00 RMK AO2 T03280211 $
03949KAQV AQV20160730182511007/30/16 18:25:31  5-MIN KAQV 310025Z AUTO 00000KT 10SM CLR 32/22 A2995 350 55 2400 000/00 RMK AO2 T03220222 $
03949KAQV AQV20160730183011007/30/16 18:30:31  5-MIN KAQV 310030Z AUTO VRB03KT 10SM CLR 32/22 A2995 350 53 2400 VRB/03 RMK AO2 T03220217 $
03949KAQV AQV20160730183511007/30/16 18:35:31  5-MIN KAQV 310035Z AUTO 00000KT 10SM CLR 32/22 A2995 350 53 2400 000/00 RMK AO2 T03220217 $
03949KAQV AQV20160730184011007/30/16 18:40:31  5-MIN KAQV 310040Z AUTO 00000KT 10SM CLR 31/22 A2995 350 56 2300 000/00 RMK AO2 T03110217 $
03949KAQV AQV20160730184511007/30/16 18:45:31  5-MIN KAQV 310045Z AUTO 00000KT 10SM CLR 31/23 A2995 350 62 2200 000/00 RMK AO2 T03060228 $
03949KAQV AQV20160730185011707/30/16 18:50:31  5-MIN KAQV 310050Z AUTO 00000KT 10SM CLR 31/23 A2995 350 65 2200 000/00 RMK AO2 SLP139 T03060233 $
03949KAQV AQV20160730185511707/30/16 18:55:31  5-MIN KAQV 310055Z AUTO 00000KT 10SM CLR 30/23 A2995 350 67 2200 000/00 RMK AO2 SLP139 T03000233 $
03949KAQV AQV20160730190011007/30/16 19:00:31  5-MIN KAQV 310100Z AUTO 00000KT 10SM CLR 30/23 A2995 350 65 2200 000/00 RMK AO2 T03000228 $
03949KAQV AQV20160730190511007/30/16 19:05:31  5-MIN KAQV 310105Z AUTO 00000KT 10SM CLR 29/23 A2995 350 69 2100 000/00 RMK AO2 T02940233 $
03949KAQV AQV20160730191011007/30/16 19:10:31  5-MIN KAQV 310110Z AUTO 00000KT 10SM CLR 29/23 A2995 350 69 2100 000/00 RMK AO2 T02940233 $
03949KAQV AQV20160730191511007/30/16 19:15:31  5-MIN KAQV 310115Z AUTO 00000KT 10SM CLR 26/24 A2995 350 87 1700 000/00 RMK AO2 T02610239 $
03949KAQV AQV20160730192011007/30/16 19:20:31  5-MIN KAQV 310120Z AUTO 00000KT 10SM CLR 26/24 A2996 340 87 1700 000/00 RMK AO2 T02610239 $
03949KAQV AQV20160730192511007/30/16 19:25:31  5-MIN KAQV 310125Z AUTO 00000KT 10SM CLR 28/23 A2996 340 74 2000 000/00 RMK AO2 T02830233 $
03949KAQV AQV20160730193011007/30/16 19:30:31  5-MIN KAQV 310130Z AUTO 00000KT 10SM CLR 28/24 A2996 340 76 2000 000/00 RMK AO2 T02830239 $
03949KAQV AQV20160730193511007/30/16 19:35:31  5-MIN KAQV 310135Z AUTO 00000KT 10SM CLR 28/24 A2997 330 79 1900 000/00 RMK AO2 T02780239 $
03949KAQV AQV20160730194011007/30/16 19:40:31  5-MIN KAQV 310140Z AUTO 00000KT 10SM CLR 28/24 A2997 330 79 1900 000/00 RMK AO2 T02780239 $
03949KAQV AQV20160730194511007/30/16 19:45:31  5-MIN KAQV 310145Z AUTO 00000KT 10SM CLR 28/24 A2997 330 79 1900 000/00 RMK AO2 T02780239 $
03949KAQV AQV20160730195011707/30/16 19:50:31  5-MIN KAQV 310150Z AUTO 00000KT 10SM CLR 28/24 A2998 320 79 1900 000/00 RMK AO2 SLP147 T02780239 $
03949KAQV AQV20160730195511707/30/16 19:55:31  5-MIN KAQV 310155Z AUTO 00000KT 10SM CLR 27/24 A2998 330 84 1800 000/00 RMK AO2 SLP147 T02720244 $
03949KAQV AQV20160730200011007/30/16 20:00:31  5-MIN KAQV 310200Z AUTO 00000KT 10SM CLR 27/24 A2997 330 84 1800 000/00 RMK AO2 T02670239 $
03949KAQV AQV20160730200511007/30/16 20:05:31  5-MIN KAQV 310205Z AUTO 00000KT 10SM CLR 27/24 A2998 330 84 1800 000/00 RMK AO2 T02670239 $
03949KAQV AQV20160730201011007/30/16 20:10:31  5-MIN KAQV 310210Z AUTO 00000KT 10SM CLR 27/24 A2998 320 87 1800 000/00 RMK AO2 T02670244 $
03949KAQV AQV20160730201511007/30/16 20:15:31  5-MIN KAQV 310215Z AUTO 00000KT 10SM CLR 27/24 A2998 320 87 1800 000/00 RMK AO2 T02670244 $
03949KAQV AQV20160730202011007/30/16 20:20:31  5-MIN KAQV 310220Z AUTO 00000KT 10SM CLR 27/24 A2998 320 84 1800 000/00 RMK AO2 T02670239 $
03949KAQV AQV20160730202511007/30/16 20:25:31  5-MIN KAQV 310225Z AUTO 00000KT 10SM CLR 27/24 A2998 320 87 1800 000/00 RMK AO2 T02670244 $
03949KAQV AQV20160730203011007/30/16 20:30:31  5-MIN KAQV 310230Z AUTO 00000KT 10SM CLR 26/24 A2999 310 90 1700 000/00 RMK AO2 T02610244 $
03949KAQV AQV20160730203511007/30/16 20:35:31  5-MIN KAQV 310235Z AUTO 00000KT 10SM CLR 26/24 A2999 310 87 1700 000/00 RMK AO2 T02610239 $
03949KAQV AQV20160730204011007/30/16 20:40:31  5-MIN KAQV 310240Z AUTO 00000KT 10SM CLR 26/24 A2999 320 87 1700 000/00 RMK AO2 T02610239 $
03949KAQV AQV20160730204511007/30/16 20:45:31  5-MIN KAQV 310245Z AUTO 00000KT 10SM CLR 26/24 A2998 320 90 1700 000/00 RMK AO2 T02610244 $
03949KAQV AQV20160730205012307/30/16 20:50:31  5-MIN KAQV 310250Z AUTO 00000KT 10SM CLR 26/24 A2999 310 90 1700 000/00 RMK AO2 SLP151 T02610244 56007 $
03949KAQV AQV20160730205512307/30/16 20:55:31  5-MIN KAQV 310255Z AUTO 00000KT 10SM CLR 26/24 A2999 310 87 1700 000/00 RMK AO2 SLP152 T02610239 56007 $
03949KAQV AQV20160730210011007/30/16 21:00:31  5-MIN KAQV 310300Z AUTO 00000KT 10SM CLR 26/24 A3000 310 87 1700 000/00 RMK AO2 T02610239 $
03949KAQV AQV20160730210511007/30/16 21:05:31  5-MIN KAQV 310305Z AUTO 00000KT 10SM CLR 26/24 A3000 300 87 1700 000/00 RMK AO2 T02610239 $
03949KAQV AQV20160730211011007/30/16 21:10:31  5-MIN KAQV 310310Z AUTO 00000KT 10SM CLR 26/24 A3000 300 87 1700 000/00 RMK AO2 T02610239 $
03949KAQV AQV20160730211511007/30/16 21:15:31  5-MIN KAQV 310315Z AUTO 00000KT 10SM CLR 26/24 A3000 300 90 1600 000/00 RMK AO2 T02560239 $
03949KAQV AQV20160730212011007/30/16 21:20:31  5-MIN KAQV 310320Z AUTO 00000KT 10SM CLR 26/24 A3000 300 90 1600 000/00 RMK AO2 T02560239 $
03949KAQV AQV20160730212511007/30/16 21:25:31  5-MIN KAQV 310325Z AUTO 00000KT 10SM CLR 26/24 A3000 300 90 1600 000/00 RMK AO2 T02560239 $
03949KAQV AQV20160730213011007/30/16 21:30:31  5-MIN KAQV 310330Z AUTO 00000KT 10SM CLR 26/24 A3000 300 90 1600 000/00 RMK AO2 T02560239 $
03949KAQV AQV20160730213511007/30/16 21:35:31  5-MIN KAQV 310335Z AUTO 00000KT 10SM CLR 26/24 A3000 300 90 1600 000/00 RMK AO2 T02560239 $
03949KAQV AQV20160730214011007/30/16 21:40:31  5-MIN KAQV 310340Z AUTO 00000KT 10SM CLR 26/24 A3000 300 90 1600 000/00 RMK AO2 T02560239 $
03949KAQV AQV20160730214511007/30/16 21:45:31  5-MIN KAQV 310345Z AUTO 00000KT 10SM CLR 26/24 A3000 300 90 1600 000/00 RMK AO2 T02560239 $
03949KAQV AQV20160730215011707/30/16 21:50:31  5-MIN KAQV 310350Z AUTO 00000KT 10SM CLR 26/24 A3000 300 90 1600 000/00 RMK AO2 SLP154 T02560239 $
03949KAQV AQV20160730215511707/30/16 21:55:31  5-MIN KAQV 310355Z AUTO 00000KT 10SM CLR 26/24 A3000 300 90 1600 000/00 RMK AO2 SLP154 T02560239 $
03949KAQV AQV20160730220011007/30/16 22:00:31  5-MIN KAQV 310400Z AUTO 00000KT 10SM CLR 26/24 A3000 300 90 1600 000/00 RMK AO2 T02560239 $
03949KAQV AQV20160730220511007/30/16 22:05:31  5-MIN KAQV 310405Z AUTO 00000KT 10SM CLR 26/24 A3000 300 90 1600 000/00 RMK AO2 T02560239 $
03949KAQV AQV20160730221011007/30/16 22:10:31  5-MIN KAQV 310410Z AUTO 00000KT 10SM CLR 26/24 A3000 300 90 1600 000/00 RMK AO2 T02560239 $
03949KAQV AQV20160730221511007/30/16 22:15:31  5-MIN KAQV 310415Z AUTO 00000KT 10SM CLR 25/23 A3000 300 90 1600 000/00 RMK AO2 T02500233 $
03949KAQV AQV20160730222011007/30/16 22:20:31  5-MIN KAQV 310420Z AUTO 00000KT 10SM CLR 25/24 A3000 300 93 1600 000/00 RMK AO2 T02500239 $
03949KAQV AQV20160730222511007/30/16 22:25:31  5-MIN KAQV 310425Z AUTO 00000KT 10SM CLR 25/23 A3000 300 90 1600 000/00 RMK AO2 T02500233 $
03949KAQV AQV20160730223011007/30/16 22:30:31  5-MIN KAQV 310430Z AUTO 00000KT 10SM CLR 26/23 A3000 300 87 1600 000/00 RMK AO2 T02560233 $
03949KAQV AQV20160730223511007/30/16 22:35:31  5-MIN KAQV 310435Z AUTO 00000KT 10SM CLR 26/24 A3000 300 90 1600 000/00 RMK AO2 T02560239 $
03949KAQV AQV20160730224011007/30/16 22:40:31  5-MIN KAQV 310440Z AUTO 00000KT 10SM CLR 26/24 A3000 300 90 1600 000/00 RMK AO2 T02560239 $
03949KAQV AQV20160730224511007/30/16 22:45:31  5-MIN KAQV 310445Z AUTO 00000KT 10SM CLR 26/24 A3000 300 90 1600 000/00 RMK AO2 T02560239 $
03949KAQV AQV20160730225011707/30/16 22:50:31  5-MIN KAQV 310450Z AUTO 00000KT 10SM CLR 25/24 A3000 300 93 1600 000/00 RMK AO2 SLP154 T02500239 $
03949KAQV AQV20160730225511707/30/16 22:55:31  5-MIN KAQV 310455Z AUTO 00000KT 10SM CLR 25/24 A3000 300 93 1600 000/00 RMK AO2 SLP154 T02500239 $
03949KAQV AQV20160730230011007/30/16 23:00:31  5-MIN KAQV 310500Z AUTO 00000KT 10SM CLR 26/23 A3000 300 87 1600 000/00 RMK AO2 T02560233 $
03949KAQV AQV20160730230511007/30/16 23:05:31  5-MIN KAQV 310505Z AUTO 00000KT 10SM CLR 26/23 A3000 300 87 1600 000/00 RMK AO2 T02560233 $
03949KAQV AQV20160730231011007/30/16 23:10:31  5-MIN KAQV 310510Z AUTO 00000KT 10SM CLR 25/23 A3000 300 90 1600 000/00 RMK AO2 T02500233 $
03949KAQV AQV20160730231511007/30/16 23:15:31  5-MIN KAQV 310515Z AUTO 00000KT 10SM CLR 25/23 A3000 310 90 1600 000/00 RMK AO2 T02500233 $
03949KAQV AQV20160730232011007/30/16 23:20:31  5-MIN KAQV 310520Z AUTO 00000KT 10SM CLR 25/23 A3000 310 90 1600 000/00 RMK AO2 T02500233 $
03949KAQV AQV20160730232511007/30/16 23:25:31  5-MIN KAQV 310525Z AUTO 00000KT 10SM CLR 25/23 A3000 300 90 1600 000/00 RMK AO2 T02500233 $
03949KAQV AQV20160730233011007/30/16 23:30:31  5-MIN KAQV 310530Z AUTO 00000KT 10SM CLR 25/23 A3000 300 90 1600 000/00 RMK AO2 T02500233 $
03949KAQV AQV20160730233511007/30/16 23:35:31  5-MIN KAQV 310535Z AUTO 00000KT 10SM CLR 25/23 A3000 300 90 1600 000/00 RMK AO2 T02500233 $
03949KAQV AQV20160730234011007/30/16 23:40:31  5-MIN KAQV 310540Z AUTO 18003KT 10SM CLR 25/23 A3000 300 90 1600 170/03 RMK AO2 T02500233 $
03949KAQV AQV20160730234511007/30/16 23:45:31  5-MIN KAQV 310545Z AUTO 00000KT 10SM CLR 26/24 A3000 300 90 1600 000/00 RMK AO2 T02560239 $
03949KAQV AQV20160730235014507/30/16 23:50:31  5-MIN KAQV 310550Z AUTO 00000KT 10SM CLR 26/24 A3000 300 90 1600 000/00 RMK AO2 SLP153 T02560239 10333 20250 403560239 53016 $
03949KAQV AQV20160730235514507/30/16 23:55:31  5-MIN KAQV 310555Z AUTO 00000KT 10SM CLR 26/23 A3000 300 87 1600 000/00 RMK AO2 SLP154 T02560233 10333 20250 403560239 53016 $
03949KAQV AQV20160731000011007/31/16 00:00:31  5-MIN KAQV 310600Z AUTO 00000KT 10SM CLR 26/23 A3000 300 87 1600 000/00 RMK AO2 T02560233 $
03949KAQV AQV20160731000511007/31/16 00:05:31  5-MIN KAQV 310605Z AUTO 00000KT 10SM CLR 26/24 A3000 300 90 1600 000/00 RMK AO2 T02560239 $
03949KAQV AQV20160731001011007/31/16 00:10:31  5-MIN KAQV 310610Z AUTO 00000KT 10SM CLR 25/24 A3000 300 93 1600 000/00 RMK AO2 T02500239 $
03949KAQV AQV20160731001511007/31/16 00:15:31  5-MIN KAQV 310615Z AUTO 00000KT 10SM CLR 26/24 A3000 300 90 1600 000/00 RMK AO2 T02560239 $
03949KAQV AQV20160731002011007/31/16 00:20:31  5-MIN KAQV 310620Z AUTO 00000KT 10SM CLR 26/24 A3000 300 90 1600 000/00 RMK AO2 T02560239 $
03949KAQV AQV20160731002511007/31/16 00:25:31  5-MIN KAQV 310625Z AUTO 00000KT 10SM CLR 26/24 A3000 310 90 1600 000/00 RMK AO2 T02560239 $
03949KAQV AQV20160731003011007/31/16 00:30:31  5-MIN KAQV 310630Z AUTO 00000KT 10SM CLR 25/23 A3000 300 90 1600 000/00 RMK AO2 T02500233 $
03949KAQV AQV20160731003511007/31/16 00:35:31  5-MIN KAQV 310635Z AUTO 00000KT 10SM CLR 25/23 A3000 300 90 1600 000/00 RMK AO2 T02500233 $
03949KAQV AQV20160731004011007/31/16 00:40:31  5-MIN KAQV 310640Z AUTO 00000KT 10SM CLR 25/23 A3000 310 90 1600 000/00 RMK AO2 T02500233 $
03949KAQV AQV20160731004511007/31/16 00:45:31  5-MIN KAQV 310645Z AUTO 00000KT 10SM CLR 25/23 A3000 300 90 1600 000/00 RMK AO2 T02500233 $
03949KAQV AQV20160731005011707/31/16 00:50:31  5-MIN KAQV 310650Z AUTO 00000KT 10SM CLR 25/23 A3000 300 90 1600 000/00 RMK AO2 SLP154 T02500233 $
03949KAQV AQV20160731005511707/31/16 00:55:31  5-MIN KAQV 310655Z AUTO 00000KT 10SM CLR 24/23 A3000 310 93 1500 000/00 RMK AO2 SLP153 T02440233 $
03949KAQV AQV20160731010010907/31/16 01:00:31  5-MIN KAQV 310700Z AUTO 00000KT 9SM CLR 24/23 A3000 310 93 1500 000/00 RMK AO2 T02440233 $
03949KAQV AQV20160731010510907/31/16 01:05:31  5-MIN KAQV 310705Z AUTO 00000KT 9SM CLR 24/23 A3000 300 93 1500 000/00 RMK AO2 T02440233 $
03949KAQV AQV20160731011011007/31/16 01:10:31  5-MIN KAQV 310710Z AUTO 00000KT 10SM CLR 24/23 A3000 310 93 1500 000/00 RMK AO2 T02440233 $
03949KAQV AQV20160731011510907/31/16 01:15:31  5-MIN KAQV 310715Z AUTO 00000KT 9SM CLR 24/23 A2999 310 93 1500 000/00 RMK AO2 T02440233 $
03949KAQV AQV20160731012010907/31/16 01:20:31  5-MIN KAQV 310720Z AUTO 00000KT 9SM CLR 24/23 A2999 310 93 1500 000/00 RMK AO2 T02440233 $
03949KAQV AQV20160731012510907/31/16 01:25:31  5-MIN KAQV 310725Z AUTO 00000KT 9SM CLR 24/23 A3000 310 93 1500 000/00 RMK AO2 T02440233 $
03949KAQV AQV20160731013010907/31/16 01:30:31  5-MIN KAQV 310730Z AUTO 00000KT 9SM CLR 24/23 A3000 300 93 1500 000/00 RMK AO2 T02440233 $
03949KAQV AQV20160731013510907/31/16 01:35:31  5-MIN KAQV 310735Z AUTO 00000KT 8SM CLR 24/23 A3000 300 93 1500 000/00 RMK AO2 T02440233 $
03949KAQV AQV20160731014010907/31/16 01:40:31  5-MIN KAQV 310740Z AUTO 05003KT 8SM CLR 24/23 A3000 300 93 1500 040/03 RMK AO2 T02440233 $
03949KAQV AQV20160731014510907/31/16 01:45:31  5-MIN KAQV 310745Z AUTO 00000KT 8SM CLR 24/23 A3000 300 93 1500 000/00 RMK AO2 T02440233 $
03949KAQV AQV20160731015011607/31/16 01:50:31  5-MIN KAQV 310750Z AUTO 00000KT 8SM CLR 24/23 A3000 300 97 1400 000/00 RMK AO2 SLP153 T02390233 $
03949KAQV AQV20160731015511607/31/16 01:55:31  5-MIN KAQV 310755Z AUTO 00000KT 7SM CLR 24/23 A3000 300 97 1400 000/00 RMK AO2 SLP154 T02390233 $
03949KAQV AQV20160731020010907/31/16 02:00:31  5-MIN KAQV 310800Z AUTO 07003KT 7SM CLR 24/23 A3000 300 93 1500 070/03 RMK AO2 T02440233 $
03949KAQV AQV20160731020510907/31/16 02:05:31  5-MIN KAQV 310805Z AUTO 00000KT 8SM CLR 24/23 A3000 300 93 1500 000/00 RMK AO2 T02440233 $
03949KAQV AQV20160731021010907/31/16 02:10:31  5-MIN KAQV 310810Z AUTO 00000KT 7SM CLR 24/23 A3000 300 97 1400 000/00 RMK AO2 T02390233 $
03949KAQV AQV20160731021510907/31/16 02:15:31  5-MIN KAQV 310815Z AUTO 00000KT 7SM CLR 24/23 A3000 300 97 1400 000/00 RMK AO2 T02390233 $
03949KAQV AQV20160731022010907/31/16 02:20:31  5-MIN KAQV 310820Z AUTO 00000KT 7SM CLR 24/23 A3000 310 97 1400 000/00 RMK AO2 T02390233 $
03949KAQV AQV20160731022511207/31/16 02:25:31  5-MIN KAQV 310825Z AUTO 00000KT 6SM BR CLR 24/23 A3000 300 97 1400 000/00 RMK AO2 T02390233 $
03949KAQV AQV20160731023011207/31/16 02:30:31  5-MIN KAQV 310830Z AUTO 00000KT 6SM BR CLR 24/23 A3000 310 93 1400 000/00 RMK AO2 T02390228 $
03949KAQV AQV20160731023511207/31/16 02:35:31  5-MIN KAQV 310835Z AUTO 00000KT 6SM BR CLR 24/23 A2999 310 93 1500 000/00 RMK AO2 T02390228 $
03949KAQV AQV20160731024011207/31/16 02:40:31  5-MIN KAQV 310840Z AUTO 00000KT 5SM BR CLR 23/23 A2999 310 97 1400 000/00 RMK AO2 T02330228 $
03949KAQV AQV20160731024511207/31/16 02:45:31  5-MIN KAQV 310845Z AUTO 00000KT 5SM BR CLR 23/23 A2999 310 97 1400 000/00 RMK AO2 T02330228 $
03949KAQV AQV20160731025012507/31/16 02:50:31  5-MIN KAQV 310850Z AUTO 00000KT 5SM BR CLR 23/23 A2999 310 97 1400 000/00 RMK AO2 SLP151 T02330228 51003 $
03949KAQV AQV20160731025512507/31/16 02:55:31  5-MIN KAQV 310855Z AUTO 00000KT 6SM BR CLR 24/23 A2999 310 97 1500 000/00 RMK AO2 SLP152 T02390233 51003 $
03949KAQV AQV20160731030011207/31/16 03:00:31  5-MIN KAQV 310900Z AUTO 00000KT 6SM BR CLR 24/23 A2999 310 97 1500 000/00 RMK AO2 T02390233 $
03949KAQV AQV20160731030511207/31/16 03:05:31  5-MIN KAQV 310905Z AUTO 00000KT 6SM BR CLR 24/23 A2999 310 93 1500 000/00 RMK AO2 T02390228 $
03949KAQV AQV20160731031011207/31/16 03:10:31  5-MIN KAQV 310910Z AUTO 00000KT 6SM BR CLR 24/23 A2999 310 93 1500 000/00 RMK AO2 T02390228 $
03949KAQV AQV20160731031511207/31/16 03:15:31  5-MIN KAQV 310915Z AUTO 00000KT 5SM BR CLR 24/23 A2999 310 93 1400 000/00 RMK AO2 T02390228 $
03949KAQV AQV20160731032011207/31/16 03:20:31  5-MIN KAQV 310920Z AUTO 00000KT 5SM BR CLR 23/23 A2999 310 97 1400 000/00 RMK AO2 T02330228 $
03949KAQV AQV20160731032511207/31/16 03:25:31  5-MIN KAQV 310925Z AUTO 00000KT 5SM BR CLR 24/23 A3000 310 93 1400 000/00 RMK AO2 T02390228 $
03949KAQV AQV20160731033011207/31/16 03:30:31  5-MIN KAQV 310930Z AUTO 00000KT 5SM BR CLR 24/23 A3000 310 93 1400 000/00 RMK AO2 T02390228 $
03949KAQV AQV20160731033511207/31/16 03:35:31  5-MIN KAQV 310935Z AUTO 00000KT 5SM BR CLR 23/23 A2999 310 97 1400 000/00 RMK AO2 T02330228 $
03949KAQV AQV20160731034011207/31/16 03:40:31  5-MIN KAQV 310940Z AUTO 00000KT 5SM BR CLR 23/23 A3000 310 97 1400 000/00 RMK AO2 T02330228 $
03949KAQV AQV20160731034511207/31/16 03:45:31  5-MIN KAQV 310945Z AUTO 00000KT 5SM BR CLR 23/23 A3000 310 97 1400 000/00 RMK AO2 T02330228 $
03949KAQV AQV20160731035011907/31/16 03:50:31  5-MIN KAQV 310950Z AUTO 00000KT 5SM BR CLR 23/23 A3000 300 97 1400 000/00 RMK AO2 SLP154 T02330228 $
03949KAQV AQV20160731035511907/31/16 03:55:31  5-MIN KAQV 310955Z AUTO 00000KT 5SM BR CLR 23/23 A3000 300 97 1400 000/00 RMK AO2 SLP154 T02330228 $
03949KAQV AQV20160731040011207/31/16 04:00:31  5-MIN KAQV 311000Z AUTO 00000KT 5SM BR CLR 23/23 A3000 300 97 1400 000/00 RMK AO2 T02330228 $
03949KAQV AQV20160731040511207/31/16 04:05:31  5-MIN KAQV 311005Z AUTO 00000KT 5SM BR CLR 23/23 A3000 300 97 1400 000/00 RMK AO2 T02330228 $
03949KAQV AQV20160731041011207/31/16 04:10:31  5-MIN KAQV 311010Z AUTO 00000KT 5SM BR CLR 23/23 A3000 300 97 1400 000/00 RMK AO2 T02330228 $
03949KAQV AQV20160731041511207/31/16 04:15:31  5-MIN KAQV 311015Z AUTO 00000KT 5SM BR CLR 23/23 A3000 300 97 1400 000/00 RMK AO2 T02330228 $
03949KAQV AQV20160731042011207/31/16 04:20:31  5-MIN KAQV 311020Z AUTO 00000KT 5SM BR CLR 23/23 A3000 300 97 1400 000/00 RMK AO2 T02330228 $
03949KAQV AQV20160731042511207/31/16 04:25:31  5-MIN KAQV 311025Z AUTO 00000KT 6SM BR CLR 23/23 A3001 300 97 1400 000/00 RMK AO2 T02330228 $
03949KAQV AQV20160731043010907/31/16 04:30:31  5-MIN KAQV 311030Z AUTO 00000KT 7SM CLR 23/23 A3001 300 97 1400 000/00 RMK AO2 T02330228 $
03949KAQV AQV20160731043511207/31/16 04:35:31  5-MIN KAQV 311035Z AUTO 00000KT 6SM BR CLR 23/22 A3001 300 93 1400 000/00 RMK AO2 T02330222 $
03949KAQV AQV20160731044011207/31/16 04:40:31  5-MIN KAQV 311040Z AUTO 00000KT 5SM BR CLR 23/23 A3001 300 97 1400 000/00 RMK AO2 T02330228 $
03949KAQV AQV20160731044511207/31/16 04:45:31  5-MIN KAQV 311045Z AUTO 00000KT 4SM BR CLR 23/23 A3001 300 97 1400 000/00 RMK AO2 T02330228 $
03949KAQV AQV20160731045011907/31/16 04:50:31  5-MIN KAQV 311050Z AUTO 00000KT 3SM BR CLR 23/22 A3001 300 97 1300 000/00 RMK AO2 SLP157 T02280222 $
03949KAQV AQV20160731045511907/31/16 04:55:31  5-MIN KAQV 311055Z AUTO 00000KT 4SM BR CLR 23/22 A3001 300 97 1300 000/00 RMK AO2 SLP158 T02280222 $
03949KAQV AQV20160731050011207/31/16 05:00:31  5-MIN KAQV 311100Z AUTO 00000KT 5SM BR CLR 23/22 A3001 290 97 1300 000/00 RMK AO2 T02280222 $
03949KAQV AQV20160731050511207/31/16 05:05:31  5-MIN KAQV 311105Z AUTO 00000KT 4SM BR CLR 23/22 A3001 290 97 1300 000/00 RMK AO2 T02280222 $
03949KAQV AQV20160731051011207/31/16 05:10:31  5-MIN KAQV 311110Z AUTO 00000KT 4SM BR CLR 23/22 A3001 290 97 1300 000/00 RMK AO2 T02280222 $
03949KAQV AQV20160731051511207/31/16 05:15:31  5-MIN KAQV 311115Z AUTO 00000KT 5SM BR CLR 23/22 A3001 290 97 1300 000/00 RMK AO2 T02280222 $
03949KAQV AQV20160731052011207/31/16 05:20:31  5-MIN KAQV 311120Z AUTO 00000KT 5SM BR CLR 23/22 A3002 290 97 1300 000/00 RMK AO2 T02280222 $
03949KAQV AQV20160731052511207/31/16 05:25:31  5-MIN KAQV 311125Z AUTO 00000KT 5SM BR CLR 23/22 A3002 290 97 1300 000/00 RMK AO2 T02280222 $
03949KAQV AQV20160731053011507/31/16 05:30:31  5-MIN KAQV 311130Z AUTO 00000KT 5SM BR SCT008 23/22 A3002 290 97 1300 000/00 RMK AO2 T02280222 $
03949KAQV AQV20160731053511507/31/16 05:35:31  5-MIN KAQV 311135Z AUTO 00000KT 4SM BR SCT008 23/22 A3002 290 97 1300 000/00 RMK AO2 T02280222 $
03949KAQV AQV20160731054011507/31/16 05:40:31  5-MIN KAQV 311140Z AUTO 00000KT 3SM BR FEW007 23/22 A3002 290 97 1300 000/00 RMK AO2 T02280222 $
03949KAQV AQV20160731054511907/31/16 05:45:31  5-MIN KAQV 311145Z AUTO 00000KT 2 1/2SM BR SCT007 23/22 A3002 290 97 1300 000/00 RMK AO2 T02280222 $
03949KAQV AQV20160731055010507/31/16 05:50:31  5-MIN KAQV 311150Z AUTO 00000KT 3SM BR BKN009 23/22 A3002 280 97 1300 000/00 RMK AO2 $
03949KAQV AQV20160731055514007/31/16 05:55:31  5-MIN KAQV 311155Z AUTO 00000KT 4SM BR BKN009 23/22 A3002 280 97 1300 000/00 RMK AO2 SLP163 T02280222 10256 20228 53010 $
03949KAQV AQV20160731060012607/31/16 06:00:31  5-MIN KAQV 311200Z AUTO 00000KT 2 1/2SM BR FEW001 BKN007 23/22 A3002 280 93 1400 000/00 RMK AO2 T02330222 $
03949KAQV AQV20160731060512607/31/16 06:05:31  5-MIN KAQV 311205Z AUTO 00000KT 1 1/2SM BR SCT001 BKN007 23/23 A3002 280 97 1400 000/00 RMK AO2 T02330228 $
03949KAQV AQV20160731061012607/31/16 06:10:31  5-MIN KAQV 311210Z AUTO 00000KT 1 1/4SM BR SCT001 OVC005 23/23 A3002 280 97 1400 000/00 RMK AO2 T02330228 $
03949KAQV AQV20160731061511607/31/16 06:15:31  5-MIN KAQV 311215Z AUTO 00000KT 1/2SM FG VV003 23/23 A3003 280 97 1400 000/00 RMK AO2 T02330228 $
03949KAQV AQV20160731062011707/31/16 06:20:31  5-MIN KAQV 311220Z AUTO 00000KT 1/4SM FG VV003 23/23 A3002 280 100 1400 000/00 RMK AO2 T02330233 $
03949KAQV AQV20160731062511707/31/16 06:25:31  5-MIN KAQV 311225Z AUTO 00000KT 1/4SM FG VV004 23/23 A3003 280 100 1400 000/00 RMK AO2 T02330233 $
03949KAQV AQV20160731063012507/31/16 06:30:31  5-MIN KAQV 311230Z AUTO 00000KT 1/2SM FG FEW001 OVC005 23/23 A3003 280 100 1300 000/00 RMK AO2 T02330233 $
03949KAQV AQV20160731063511607/31/16 06:35:31  5-MIN KAQV 311235Z AUTO 00000KT 3/4SM BR VV006 24/23 A3003 280 97 1400 000/00 RMK AO2 T02390233 $
03949KAQV AQV20160731064011507/31/16 06:40:31  5-MIN KAQV 311240Z AUTO 00000KT 2SM BR BKN006 24/23 A3003 270 97 1400 000/00 RMK AO2 T02390233 $
03949KAQV AQV20160731064512207/31/16 06:45:31  5-MIN KAQV 311245Z AUTO 00000KT 5SM BR SCT006 SCT011 24/24 A3003 270 97 1500 000/00 RMK AO2 T02440239 $
03949KAQV AQV20160731065011907/31/16 06:50:31  5-MIN KAQV 311250Z AUTO 00000KT 8SM BKN009 25/24 A3003 270 93 1500 000/00 RMK AO2 SLP167 T02500239 $
03949KAQV AQV20160731065511907/31/16 06:55:31  5-MIN KAQV 311255Z AUTO 00000KT 9SM BKN011 25/24 A3003 270 93 1500 000/00 RMK AO2 SLP167 T02500239 $
03949KAQV AQV20160731070011207/31/16 07:00:31  5-MIN KAQV 311300Z AUTO 00000KT 9SM BKN011 25/24 A3003 270 93 1500 000/00 RMK AO2 T02500239 $
03949KAQV AQV20160731070511207/31/16 07:05:31  5-MIN KAQV 311305Z AUTO 00000KT 9SM BKN011 26/24 A3004 270 93 1600 000/00 RMK AO2 T02560244 $
03949KAQV AQV20160731071011307/31/16 07:10:31  5-MIN KAQV 311310Z AUTO 00000KT 10SM BKN011 26/24 A3004 270 93 1600 000/00 RMK AO2 T02560244 $
03949KAQV AQV20160731071511307/31/16 07:15:31  5-MIN KAQV 311315Z AUTO 00000KT 10SM BKN011 26/24 A3004 270 93 1600 000/00 RMK AO2 T02560244 $
03949KAQV AQV20160731072011307/31/16 07:20:31  5-MIN KAQV 311320Z AUTO 00000KT 10SM BKN011 26/24 A3004 270 90 1700 000/00 RMK AO2 T02610244 $
03949KAQV AQV20160731072511307/31/16 07:25:31  5-MIN KAQV 311325Z AUTO 00000KT 10SM SCT011 26/24 A3004 260 90 1600 000/00 RMK AO2 T02610244 $
03949KAQV AQV20160731073011307/31/16 07:30:31  5-MIN KAQV 311330Z AUTO 00000KT 10SM SCT011 26/24 A3004 260 90 1600 000/00 RMK AO2 T02610244 $
03949KAQV AQV20160731073511307/31/16 07:35:31  5-MIN KAQV 311335Z AUTO 00000KT 10SM BKN011 27/24 A3004 260 87 1700 000/00 RMK AO2 T02670244 $
03949KAQV AQV20160731074011307/31/16 07:40:31  5-MIN KAQV 311340Z AUTO 00000KT 10SM BKN012 27/24 A3004 260 87 1700 000/00 RMK AO2 T02670244 $
03949KAQV AQV20160731074511307/31/16 07:45:31  5-MIN KAQV 311345Z AUTO 18003KT 10SM BKN012 27/25 A3004 260 87 1800 170/03 RMK AO2 T02720250 $
03949KAQV AQV20160731075012007/31/16 07:50:31  5-MIN KAQV 311350Z AUTO 21003KT 10SM BKN012 27/25 A3005 260 87 1800 210/03 RMK AO2 SLP171 T02720250 $
03949KAQV AQV20160731075512007/31/16 07:55:31  5-MIN KAQV 311355Z AUTO 00000KT 10SM OVC012 28/25 A3005 260 84 1800 000/00 RMK AO2 SLP171 T02780250 $
03949KAQV AQV20160731080011307/31/16 08:00:31  5-MIN KAQV 311400Z AUTO 27004KT 10SM OVC012 28/25 A3005 260 84 1800 260/04 RMK AO2 T02780250 $
03949KAQV AQV20160731080511307/31/16 08:05:31  5-MIN KAQV 311405Z AUTO VRB03KT 10SM BKN012 28/25 A3005 260 82 1900 VRB/03 RMK AO2 T02830250 $
03949KAQV AQV20160731081011307/31/16 08:10:31  5-MIN KAQV 311410Z AUTO 28005KT 10SM BKN012 28/25 A3004 260 82 1900 270/05 RMK AO2 T02830250 $
03949KAQV AQV20160731081512007/31/16 08:15:31  5-MIN KAQV 311415Z AUTO VRB05KT 10SM BKN012 BKN019 28/24 A3005 260 79 1900 VRB/05 RMK AO2 T02830244 $
03949KAQV AQV20160731082011307/31/16 08:20:31  5-MIN KAQV 311420Z AUTO VRB04KT 10SM BKN014 28/24 A3005 260 79 1900 VRB/04 RMK AO2 T02830244 $
03949KAQV AQV20160731082511307/31/16 08:25:31  5-MIN KAQV 311425Z AUTO 26004KT 10SM BKN014 28/24 A3005 260 79 1900 260/04 RMK AO2 T02830244 $
03949KAQV AQV20160731083011307/31/16 08:30:31  5-MIN KAQV 311430Z AUTO 00000KT 10SM SCT014 29/24 A3005 260 74 2000 000/00 RMK AO2 T02940244 $
03949KAQV AQV20160731083511307/31/16 08:35:31  5-MIN KAQV 311435Z AUTO 26005KT 10SM SCT015 29/24 A3005 260 74 1900 250/05 RMK AO2 T02890239 $
03949KAQV AQV20160731084011307/31/16 08:40:31  5-MIN KAQV 311440Z AUTO 25005KT 10SM FEW017 29/24 A3005 250 74 1900 240/05 RMK AO2 T02890239 $
03949KAQV AQV20160731084511307/31/16 08:45:31  5-MIN KAQV 311445Z AUTO VRB06KT 10SM FEW017 29/24 A3005 250 71 2000 VRB/06 RMK AO2 T02940239 $
03949KAQV AQV20160731085012607/31/16 08:50:31  5-MIN KAQV 311450Z AUTO VRB05KT 10SM FEW019 29/24 A3005 250 71 2000 VRB/05 RMK AO2 SLP174 T02940239 51008 $
03949KAQV AQV20160731085512607/31/16 08:55:31  5-MIN KAQV 311455Z AUTO VRB03KT 10SM SCT019 29/24 A3006 250 71 2000 VRB/03 RMK AO2 SLP175 T02940239 51008 $
03949KAQV AQV20160731090011307/31/16 09:00:31  5-MIN KAQV 311500Z AUTO VRB05KT 10SM SCT021 30/24 A3006 250 69 2100 VRB/05 RMK AO2 T03000239 $
03949KAQV AQV20160731090511307/31/16 09:05:31  5-MIN KAQV 311505Z AUTO VRB05KT 10SM SCT021 30/24 A3006 250 69 2100 VRB/05 RMK AO2 T03000239 $
03949KAQV AQV20160731091010307/31/16 09:10:31  5-MIN KAQV 311510Z AUTO 10SM SCT021 30/24 A3006 250 69 2100 M /M RMK AO2 T03000239 $
03949KAQV AQV20160731091511307/31/16 09:15:31  5-MIN KAQV 311515Z AUTO 00000KT 10SM FEW021 31/23 A3006 250 62 2100 000/00 RMK AO2 T03060228 $
03949KAQV AQV20160731092011307/31/16 09:20:31  5-MIN KAQV 311520Z AUTO VRB04KT 10SM SCT024 31/23 A3006 250 65 2100 VRB/04 RMK AO2 T03060233 $
03949KAQV AQV20160731092511307/31/16 09:25:31  5-MIN KAQV 311525Z AUTO VRB04KT 10SM SCT026 28/23 A3006 250 76 1800 VRB/04 RMK AO2 T02780233 $
03949KAQV AQV20160731093011307/31/16 09:30:31  5-MIN KAQV 311530Z AUTO VRB04KT 10SM FEW026 31/23 A3006 250 62 2100 VRB/04 RMK AO2 T03060228 $
03949KAQV AQV20160731093511307/31/16 09:35:31  5-MIN KAQV 311535Z AUTO VRB04KT 10SM FEW026 31/23 A3006 250 60 2200 VRB/04 RMK AO2 T03110228 $
03949KAQV AQV20160731094011307/31/16 09:40:31  5-MIN KAQV 311540Z AUTO VRB03KT 10SM FEW026 32/23 A3006 250 61 2300 VRB/03 RMK AO2 T03170233 $
03949KAQV AQV20160731094511007/31/16 09:45:31  5-MIN KAQV 311545Z AUTO 10SM SCT026 SCT032 31/23 A3006 250 60 2200 M /M RMK AO2 T03110228 $
03949KAQV AQV20160731095012707/31/16 09:50:31  5-MIN KAQV 311550Z AUTO VRB03KT 10SM FEW026 SCT032 31/23 A3006 250 60 2200 VRB/03 RMK AO2 SLP174 T03110228 $
03949KAQV AQV20160731095512007/31/16 09:55:31  5-MIN KAQV 311555Z AUTO VRB04KT 10SM FEW027 31/23 A3006 250 60 2200 VRB/04 RMK AO2 SLP174 T03110228 $
03949KAQV AQV20160731100010307/31/16 10:00:31  5-MIN KAQV 311600Z AUTO 10SM FEW030 32/22 A3006 250 56 2300 M /M RMK AO2 T03170222 $
03949KAQV AQV20160731100511307/31/16 10:05:31  5-MIN KAQV 311605Z AUTO VRB03KT 10SM SCT030 32/23 A3006 250 58 2300 VRB/03 RMK AO2 T03170228 $
03949KAQV AQV20160731101011307/31/16 10:10:31  5-MIN KAQV 311610Z AUTO VRB04KT 10SM FEW032 32/22 A3006 250 56 2300 VRB/04 RMK AO2 T03170222 $
03949KAQV AQV20160731101511307/31/16 10:15:31  5-MIN KAQV 311615Z AUTO VRB04KT 10SM FEW032 32/22 A3005 250 56 2300 VRB/04 RMK AO2 T03170222 $
03949KAQV AQV20160731102011307/31/16 10:20:31  5-MIN KAQV 311620Z AUTO VRB04KT 10SM FEW032 32/22 A3005 250 56 2300 VRB/04 RMK AO2 T03170222 $
03949KAQV AQV20160731102511307/31/16 10:25:31  5-MIN KAQV 311625Z AUTO VRB05KT 10SM FEW032 32/23 A3005 250 57 2300 VRB/05 RMK AO2 T03220228 $
03949KAQV AQV20160731103011307/31/16 10:30:31  5-MIN KAQV 311630Z AUTO VRB04KT 10SM FEW032 32/22 A3005 260 56 2300 VRB/04 RMK AO2 T03170222 $
03949KAQV AQV20160731103511307/31/16 10:35:31  5-MIN KAQV 311635Z AUTO VRB05KT 10SM FEW034 32/22 A3005 260 56 2300 VRB/05 RMK AO2 T03170222 $
03949KAQV AQV20160731104011307/31/16 10:40:31  5-MIN KAQV 311640Z AUTO VRB03KT 10SM FEW034 32/22 A3005 260 55 2300 VRB/03 RMK AO2 T03220222 $
03949KAQV AQV20160731104512907/31/16 10:45:31  5-MIN KAQV 311645Z AUTO 25007KT 230V300 10SM SCT036 32/22 A3005 260 55 2300 250/07 230V300 RMK AO2 T03220222 $
03949KAQV AQV20160731105012007/31/16 10:50:31  5-MIN KAQV 311650Z AUTO VRB03KT 10SM SCT036 32/21 A3005 260 51 2300 VRB/03 RMK AO2 SLP171 T03220211 $
03949KAQV AQV20160731105512007/31/16 10:55:31  5-MIN KAQV 311655Z AUTO 20003KT 10SM FEW036 32/22 A3005 260 53 2300 200/03 RMK AO2 SLP171 T03220217 $
03949KAQV AQV20160731110011307/31/16 11:00:31  5-MIN KAQV 311700Z AUTO VRB03KT 10SM SCT036 32/22 A3005 260 55 2300 VRB/03 RMK AO2 T03220222 $
03949KAQV AQV20160731110511307/31/16 11:05:31  5-MIN KAQV 311705Z AUTO VRB04KT 10SM BKN038 32/22 A3005 250 55 2300 VRB/04 RMK AO2 T03220222 $
03949KAQV AQV20160731111011307/31/16 11:10:31  5-MIN KAQV 311710Z AUTO 00000KT 10SM BKN038 32/22 A3005 260 56 2300 000/00 RMK AO2 T03170222 $
03949KAQV AQV20160731111511307/31/16 11:15:31  5-MIN KAQV 311715Z AUTO VRB04KT 10SM SCT038 32/22 A3005 260 55 2300 VRB/04 RMK AO2 T03220222 $
03949KAQV AQV20160731112011307/31/16 11:20:31  5-MIN KAQV 311720Z AUTO VRB03KT 10SM BKN038 31/22 A3005 260 58 2200 VRB/03 RMK AO2 T03110222 $
03949KAQV AQV20160731112511307/31/16 11:25:31  5-MIN KAQV 311725Z AUTO 00000KT 10SM BKN038 32/22 A3005 260 55 2300 000/00 RMK AO2 T03220222 $
03949KAQV AQV20160731113011307/31/16 11:30:31  5-MIN KAQV 311730Z AUTO VRB06KT 10SM BKN040 32/22 A3005 260 55 2300 VRB/06 RMK AO2 T03220222 $
03949KAQV AQV20160731113511307/31/16 11:35:31  5-MIN KAQV 311735Z AUTO 25003KT 10SM SCT040 32/22 A3005 260 55 2300 250/03 RMK AO2 T03170217 $
03949KAQV AQV20160731114010307/31/16 11:40:31  5-MIN KAQV 311740Z AUTO 10SM SCT040 32/22 A3004 260 53 2300 M /M RMK AO2 T03220217 $
03949KAQV AQV20160731114511307/31/16 11:45:31  5-MIN KAQV 311745Z AUTO 26003KT 10SM FEW040 33/22 A3004 260 53 2400 250/03 RMK AO2 T03280222 $
03949KAQV AQV20160731115013807/31/16 11:50:31  5-MIN KAQV 311750Z AUTO 00000KT 10SM FEW042 33/22 A3004 270 50 2500 000/00 RMK AO2 SLP168 T03330217 10333 20228 51012 $
03949KAQV AQV20160731115513507/31/16 11:55:31  5-MIN KAQV 311755Z AUTO VRB04KT 10SM CLR 33/22 A3004 270 51 2400 VRB/04 RMK AO2 SLP167 T03280217 10333 20228 51012 $
03949KAQV AQV20160731120010007/31/16 12:00:31  5-MIN KAQV 311800Z AUTO 10SM CLR 32/21 A3004 270 51 2300 M /M RMK AO2 T03220211 $
03949KAQV AQV20160731120511007/31/16 12:05:31  5-MIN KAQV 311805Z AUTO VRB03KT 10SM CLR 33/21 A3004 270 49 2400 VRB/03 RMK AO2 T03280211 $
03949KAQV AQV20160731121011007/31/16 12:10:31  5-MIN KAQV 311810Z AUTO 00000KT 10SM CLR 32/21 A3004 270 51 2300 000/00 RMK AO2 T03220211 $
03949KAQV AQV20160731121511007/31/16 12:15:31  5-MIN KAQV 311815Z AUTO 00000KT 10SM CLR 32/21 A3004 270 51 2300 000/00 RMK AO2 T03220211 $
03949KAQV AQV20160731122011007/31/16 12:20:31  5-MIN KAQV 311820Z AUTO VRB03KT 10SM CLR 32/21 A3004 270 51 2300 VRB/03 RMK AO2 T03220211 $
03949KAQV AQV20160731122511007/31/16 12:25:31  5-MIN KAQV 311825Z AUTO 00000KT 10SM CLR 32/21 A3004 270 51 2300 000/00 RMK AO2 T03220211 $
03949KAQV AQV20160731123011007/31/16 12:30:31  5-MIN KAQV 311830Z AUTO VRB04KT 10SM CLR 33/22 A3003 270 51 2400 VRB/04 RMK AO2 T03280217 $
03949KAQV AQV20160731123511007/31/16 12:35:31  5-MIN KAQV 311835Z AUTO VRB03KT 10SM CLR 33/22 A3003 270 51 2400 VRB/03 RMK AO2 T03280217 $
03949KAQV AQV20160731124011007/31/16 12:40:31  5-MIN KAQV 311840Z AUTO VRB03KT 10SM CLR 34/22 A3003 270 50 2500 VRB/03 RMK AO2 T03390222 $
03949KAQV AQV20160731124511007/31/16 12:45:31  5-MIN KAQV 311845Z AUTO 00000KT 10SM CLR 33/22 A3003 270 50 2500 000/00 RMK AO2 T03330217 $
03949KAQV AQV20160731125012007/31/16 12:50:31  5-MIN KAQV 311850Z AUTO 00000KT 10SM FEW043 33/22 A3003 280 51 2500 000/00 RMK AO2 SLP164 T03330222 $
03949KAQV AQV20160731125512007/31/16 12:55:31  5-MIN KAQV 311855Z AUTO 00000KT 10SM SCT043 33/22 A3003 280 51 2400 000/00 RMK AO2 SLP163 T03280217 $
03949KAQV AQV20160731130011307/31/16 13:00:31  5-MIN KAQV 311900Z AUTO 00000KT 10SM SCT043 34/22 A3002 280 48 2600 000/00 RMK AO2 T03440222 $
03949KAQV AQV20160731130511307/31/16 13:05:31  5-MIN KAQV 311905Z AUTO 00000KT 10SM SCT043 34/22 A3002 280 50 2500 000/00 RMK AO2 T03390222 $
03949KAQV AQV20160731131011307/31/16 13:10:31  5-MIN KAQV 311910Z AUTO VRB03KT 10SM SCT043 33/22 A3002 290 50 2500 VRB/03 RMK AO2 T03330217 $
03949KAQV AQV20160731131511307/31/16 13:15:31  5-MIN KAQV 311915Z AUTO VRB03KT 10SM SCT043 33/22 A3002 290 51 2500 VRB/03 RMK AO2 T03330222 $
03949KAQV AQV20160731132011307/31/16 13:20:31  5-MIN KAQV 311920Z AUTO VRB03KT 10SM FEW041 33/22 A3002 290 51 2400 VRB/03 RMK AO2 T03280217 $
03949KAQV AQV20160731132511007/31/16 13:25:31  5-MIN KAQV 311925Z AUTO 26003KT 10SM CLR 33/22 A3001 290 51 2400 260/03 RMK AO2 T03280217 $
03949KAQV AQV20160731133011007/31/16 13:30:31  5-MIN KAQV 311930Z AUTO 00000KT 10SM CLR 33/22 A3001 290 51 2400 000/00 RMK AO2 T03280217 $
03949KAQV AQV20160731133511007/31/16 13:35:31  5-MIN KAQV 311935Z AUTO VRB03KT 10SM CLR 33/22 A3001 290 51 2400 VRB/03 RMK AO2 T03280217 $
03949KAQV AQV20160731134011007/31/16 13:40:31  5-MIN KAQV 311940Z AUTO VRB03KT 10SM CLR 33/22 A3001 290 53 2400 VRB/03 RMK AO2 T03280222 $
03949KAQV AQV20160731134511007/31/16 13:45:31  5-MIN KAQV 311945Z AUTO 00000KT 10SM CLR 33/22 A3001 290 53 2400 000/00 RMK AO2 T03280222 $
03949KAQV AQV20160731135011707/31/16 13:50:31  5-MIN KAQV 311950Z AUTO 24003KT 10SM CLR 33/22 A3001 300 53 2400 240/03 RMK AO2 SLP158 T03280222 $
03949KAQV AQV20160731135511707/31/16 13:55:31  5-MIN KAQV 311955Z AUTO VRB04KT 10SM CLR 33/23 A3001 300 55 2400 VRB/04 RMK AO2 SLP158 T03280228 $
03949KAQV AQV20160731140011007/31/16 14:00:31  5-MIN KAQV 312000Z AUTO VRB03KT 10SM CLR 33/23 A3001 290 55 2500 VRB/03 RMK AO2 T03330233 $
03949KAQV AQV20160731140511007/31/16 14:05:31  5-MIN KAQV 312005Z AUTO VRB03KT 10SM CLR 33/23 A3001 290 55 2400 VRB/03 RMK AO2 T03280228 $
03949KAQV AQV20160731141011007/31/16 14:10:31  5-MIN KAQV 312010Z AUTO 00000KT 10SM CLR 33/23 A3001 290 55 2400 000/00 RMK AO2 T03280228 $
03949KAQV AQV20160731141511007/31/16 14:15:31  5-MIN KAQV 312015Z AUTO VRB03KT 10SM CLR 33/23 A3001 300 53 2500 VRB/03 RMK AO2 T03330228 $
03949KAQV AQV20160731142011007/31/16 14:20:31  5-MIN KAQV 312020Z AUTO VRB03KT 10SM CLR 34/23 A3000 300 51 2600 VRB/03 RMK AO2 T03390228 $
03949KAQV AQV20160731142511007/31/16 14:25:31  5-MIN KAQV 312025Z AUTO 00000KT 10SM CLR 33/22 A3001 300 51 2500 000/00 RMK AO2 T03330222 $
03949KAQV AQV20160731143011007/31/16 14:30:31  5-MIN KAQV 312030Z AUTO VRB03KT 10SM CLR 34/23 A3000 300 51 2600 VRB/03 RMK AO2 T03390228 $
03949KAQV AQV20160731143511007/31/16 14:35:31  5-MIN KAQV 312035Z AUTO VRB03KT 10SM CLR 33/23 A3000 300 53 2500 VRB/03 RMK AO2 T03330228 $
03949KAQV AQV20160731144011007/31/16 14:40:31  5-MIN KAQV 312040Z AUTO 19004KT 10SM CLR 34/23 A3000 300 51 2600 190/04 RMK AO2 T03390228 $
03949KAQV AQV20160731144511007/31/16 14:45:31  5-MIN KAQV 312045Z AUTO 00000KT 10SM CLR 33/22 A3000 300 51 2500 000/00 RMK AO2 T03330222 $
03949KAQV AQV20160731145012307/31/16 14:50:31  5-MIN KAQV 312050Z AUTO VRB03KT 10SM CLR 34/22 A3000 300 48 2600 VRB/03 RMK AO2 SLP153 T03440222 58006 $
03949KAQV AQV20160731145512307/31/16 14:55:31  5-MIN KAQV 312055Z AUTO 17005KT 10SM CLR 34/22 A3000 310 50 2600 170/05 RMK AO2 SLP153 T03390222 58006 $
03949KAQV AQV20160731150011007/31/16 15:00:31  5-MIN KAQV 312100Z AUTO 19005KT 10SM CLR 34/22 A3000 310 50 2600 190/05 RMK AO2 T03390222 $
03949KAQV AQV20160731150511007/31/16 15:05:31  5-MIN KAQV 312105Z AUTO VRB03KT 10SM CLR 33/22 A3000 310 51 2500 VRB/03 RMK AO2 T03330222 $
03949KAQV AQV20160731151011007/31/16 15:10:31  5-MIN KAQV 312110Z AUTO 26003KT 10SM CLR 33/22 A3000 310 53 2400 250/03 RMK AO2 T03280222 $
03949KAQV AQV20160731151511007/31/16 15:15:31  5-MIN KAQV 312115Z AUTO 00000KT 10SM CLR 34/22 A3000 310 50 2600 000/00 RMK AO2 T03390222 $
03949KAQV AQV20160731152011007/31/16 15:20:31  5-MIN KAQV 312120Z AUTO 00000KT 10SM CLR 34/22 A3000 310 48 2600 000/00 RMK AO2 T03390217 $
03949KAQV AQV20160731152511007/31/16 15:25:31  5-MIN KAQV 312125Z AUTO 00000KT 10SM CLR 33/22 A2999 310 50 2500 000/00 RMK AO2 T03330217 $
03949KAQV AQV20160731153011007/31/16 15:30:31  5-MIN KAQV 312130Z AUTO 00000KT 10SM CLR 33/22 A2999 310 51 2500 000/00 RMK AO2 T03330222 $
03949KAQV AQV20160731153511007/31/16 15:35:31  5-MIN KAQV 312135Z AUTO VRB03KT 10SM CLR 33/23 A2999 310 55 2400 VRB/03 RMK AO2 T03280228 $
03949KAQV AQV20160731154011007/31/16 15:40:31  5-MIN KAQV 312140Z AUTO 20003KT 10SM CLR 33/22 A2999 310 53 2400 200/03 RMK AO2 T03280222 $
03949KAQV AQV20160731154511007/31/16 15:45:31  5-MIN KAQV 312145Z AUTO 00000KT 10SM CLR 33/23 A2998 320 53 2500 000/00 RMK AO2 T03330228 $
03949KAQV AQV20160731155011707/31/16 15:50:31  5-MIN KAQV 312150Z AUTO 00000KT 10SM CLR 33/23 A2998 320 55 2500 000/00 RMK AO2 SLP149 T03280228 $
03949KAQV AQV20160731155511707/31/16 15:55:31  5-MIN KAQV 312155Z AUTO 20003KT 10SM CLR 33/23 A2998 320 55 2500 190/03 RMK AO2 SLP148 T03280228 $
03949KAQV AQV20160731160011007/31/16 16:00:31  5-MIN KAQV 312200Z AUTO 18004KT 10SM CLR 33/22 A2998 320 51 2500 180/04 RMK AO2 T03330222 $
03949KAQV AQV20160731160511007/31/16 16:05:31  5-MIN KAQV 312205Z AUTO 21003KT 10SM CLR 33/22 A2998 320 51 2500 210/03 RMK AO2 T03330222 $
03949KAQV AQV20160731161011007/31/16 16:10:31  5-MIN KAQV 312210Z AUTO VRB04KT 10SM CLR 33/22 A2998 320 51 2500 VRB/04 RMK AO2 T03280217 $
03949KAQV AQV20160731161511007/31/16 16:15:31  5-MIN KAQV 312215Z AUTO VRB03KT 10SM CLR 33/22 A2998 320 53 2500 VRB/03 RMK AO2 T03280222 $
03949KAQV AQV20160731162011007/31/16 16:20:31  5-MIN KAQV 312220Z AUTO 19004KT 10SM CLR 33/22 A2998 330 53 2500 180/04 RMK AO2 T03280222 $
03949KAQV AQV20160731162511007/31/16 16:25:31  5-MIN KAQV 312225Z AUTO 20003KT 10SM CLR 33/22 A2997 330 53 2500 200/03 RMK AO2 T03280222 $
03949KAQV AQV20160731163011007/31/16 16:30:31  5-MIN KAQV 312230Z AUTO VRB04KT 10SM CLR 33/22 A2997 330 51 2500 VRB/04 RMK AO2 T03330222 $
03949KAQV AQV20160731163511007/31/16 16:35:31  5-MIN KAQV 312235Z AUTO 17005KT 10SM CLR 33/22 A2997 330 50 2500 170/05 RMK AO2 T03330217 $
03949KAQV AQV20160731164011007/31/16 16:40:31  5-MIN KAQV 312240Z AUTO VRB04KT 10SM CLR 34/22 A2997 330 50 2600 VRB/04 RMK AO2 T03390222 $
03949KAQV AQV20160731164511007/31/16 16:45:31  5-MIN KAQV 312245Z AUTO 16006KT 10SM CLR 33/22 A2997 330 51 2500 160/06 RMK AO2 T03330222 $
03949KAQV AQV20160731165011707/31/16 16:50:31  5-MIN KAQV 312250Z AUTO VRB04KT 10SM CLR 33/22 A2998 330 51 2500 VRB/04 RMK AO2 SLP147 T03330222 $
03949KAQV AQV20160731165511707/31/16 16:55:31  5-MIN KAQV 312255Z AUTO 18005KT 10SM CLR 33/22 A2997 330 50 2500 170/05 RMK AO2 SLP146 T03330217 $
03949KAQV AQV20160731170011007/31/16 17:00:31  5-MIN KAQV 312300Z AUTO VRB04KT 10SM CLR 33/22 A2998 330 50 2500 VRB/04 RMK AO2 T03330217 $
03949KAQV AQV20160731170511007/31/16 17:05:31  5-MIN KAQV 312305Z AUTO VRB04KT 10SM CLR 33/22 A2998 330 51 2500 VRB/04 RMK AO2 T03330222 $
03949KAQV AQV20160731171011007/31/16 17:10:31  5-MIN KAQV 312310Z AUTO 18005KT 10SM CLR 33/22 A2998 320 50 2500 170/05 RMK AO2 T03330217 $
03949KAQV AQV20160731171511007/31/16 17:15:31  5-MIN KAQV 312315Z AUTO 00000KT 10SM CLR 33/21 A2998 320 48 2500 000/00 RMK AO2 T03330211 $
03949KAQV AQV20160731172011007/31/16 17:20:31  5-MIN KAQV 312320Z AUTO VRB03KT 10SM CLR 33/22 A2998 320 50 2500 VRB/03 RMK AO2 T03330217 $
03949KAQV AQV20160731172511007/31/16 17:25:31  5-MIN KAQV 312325Z AUTO 19004KT 10SM CLR 33/22 A2998 320 51 2500 180/04 RMK AO2 T03280217 $
03949KAQV AQV20160731173011007/31/16 17:30:31  5-MIN KAQV 312330Z AUTO VRB03KT 10SM CLR 33/22 A2998 320 51 2500 VRB/03 RMK AO2 T03280217 $
03949KAQV AQV20160731173511007/31/16 17:35:31  5-MIN KAQV 312335Z AUTO VRB04KT 10SM CLR 33/22 A2998 320 50 2500 VRB/04 RMK AO2 T03330217 $
03949KAQV AQV20160731174011007/31/16 17:40:31  5-MIN KAQV 312340Z AUTO VRB03KT 10SM CLR 33/22 A2997 330 51 2500 VRB/03 RMK AO2 T03280217 $
03949KAQV AQV20160731174511007/31/16 17:45:31  5-MIN KAQV 312345Z AUTO 18003KT 10SM CLR 33/22 A2997 330 51 2500 170/03 RMK AO2 T03280217 $
03949KAQV AQV20160731175013507/31/16 17:50:31  5-MIN KAQV 312350Z AUTO 00000KT 10SM CLR 33/22 A2997 330 51 2500 000/00 RMK AO2 SLP146 T03280217 10344 20322 56014 $
03949KAQV AQV20160731175513507/31/16 17:55:31  5-MIN KAQV 312355Z AUTO VRB03KT 10SM CLR 33/22 A2997 330 51 2500 VRB/03 RMK AO2 SLP145 T03280217 10344 20322 56014 $
03949KAQV AQV20160731180011007/31/16 18:00:31  5-MIN KAQV 010000Z AUTO 15003KT 10SM CLR 33/22 A2997 330 51 2500 150/03 RMK AO2 T03280217 $
03949KAQV AQV20160731180511007/31/16 18:05:31  5-MIN KAQV 010005Z AUTO 00000KT 10SM CLR 33/21 A2997 330 49 2500 000/00 RMK AO2 T03280211 $
03949KAQV AQV20160731181011007/31/16 18:10:31  5-MIN KAQV 010010Z AUTO 00000KT 10SM CLR 32/21 A2997 330 51 2400 000/00 RMK AO2 T03220211 $
03949KAQV AQV20160731181511007/31/16 18:15:31  5-MIN KAQV 010015Z AUTO 15004KT 10SM CLR 32/21 A2997 330 51 2400 150/04 RMK AO2 T03220211 $
03949KAQV AQV20160731182011007/31/16 18:20:31  5-MIN KAQV 010020Z AUTO 00000KT 10SM CLR 32/21 A2997 330 51 2400 000/00 RMK AO2 T03220211 $
03949KAQV AQV20160731182511007/31/16 18:25:31  5-MIN KAQV 010025Z AUTO 00000KT 10SM CLR 32/21 A2997 330 51 2400 000/00 RMK AO2 T03220211 $
03949KAQV AQV20160731183011007/31/16 18:30:31  5-MIN KAQV 010030Z AUTO 00000KT 10SM CLR 32/21 A2998 320 53 2300 000/00 RMK AO2 T03170211 $
03949KAQV AQV20160731183511007/31/16 18:35:31  5-MIN KAQV 010035Z AUTO 00000KT 10SM CLR 32/22 A2998 320 55 2300 000/00 RMK AO2 T03170217 $
03949KAQV AQV20160731184011007/31/16 18:40:31  5-MIN KAQV 010040Z AUTO 00000KT 10SM CLR 31/22 A2998 320 58 2300 000/00 RMK AO2 T03110222 $
03949KAQV AQV20160731184511007/31/16 18:45:31  5-MIN KAQV 010045Z AUTO 00000KT 10SM CLR 31/23 A2998 320 62 2200 000/00 RMK AO2 T03060228 $
03949KAQV AQV20160731185011707/31/16 18:50:31  5-MIN KAQV 010050Z AUTO 00000KT 10SM CLR 30/23 A2998 320 67 2200 000/00 RMK AO2 SLP148 T03000233 $
03949KAQV AQV20160731185511707/31/16 18:55:31  5-MIN KAQV 010055Z AUTO 00000KT 10SM CLR 29/23 A2998 320 69 2100 000/00 RMK AO2 SLP148 T02940233 $
03949KAQV AQV20160731190011007/31/16 19:00:31  5-MIN KAQV 010100Z AUTO 00000KT 10SM CLR 29/23 A2998 320 71 2000 000/00 RMK AO2 T02890233 $
03949KAQV AQV20160731190511007/31/16 19:05:31  5-MIN KAQV 010105Z AUTO 00000KT 10SM CLR 29/23 A2998 320 71 2000 000/00 RMK AO2 T02890233 $
03949KAQV AQV20160731191011007/31/16 19:10:31  5-MIN KAQV 010110Z AUTO 00000KT 10SM CLR 28/24 A2998 320 76 2000 000/00 RMK AO2 T02830239 $
03949KAQV AQV20160731191511007/31/16 19:15:31  5-MIN KAQV 010115Z AUTO 00000KT 10SM CLR 28/24 A2998 320 76 2000 000/00 RMK AO2 T02830239 $
03949KAQV AQV20160731192011007/31/16 19:20:31  5-MIN KAQV 010120Z AUTO 00000KT 10SM CLR 28/23 A2998 320 74 2000 000/00 RMK AO2 T02830233 $
03949KAQV AQV20160731192511007/31/16 19:25:31  5-MIN KAQV 010125Z AUTO 00000KT 10SM CLR 28/24 A2999 320 79 1900 000/00 RMK AO2 T02780239 $
03949KAQV AQV20160731193011007/31/16 19:30:31  5-MIN KAQV 010130Z AUTO 00000KT 10SM CLR 28/24 A2999 310 79 1900 000/00 RMK AO2 T02780239 $
03949KAQV AQV20160731193511007/31/16 19:35:31  5-MIN KAQV 010135Z AUTO 00000KT 10SM CLR 28/24 A2999 310 79 1900 000/00 RMK AO2 T02780239 $
03949KAQV AQV20160731194011007/31/16 19:40:31  5-MIN KAQV 010140Z AUTO 00000KT 10SM CLR 27/24 A2999 310 82 1800 000/00 RMK AO2 T02720239 $
03949KAQV AQV20160731194511007/31/16 19:45:31  5-MIN KAQV 010145Z AUTO 00000KT 10SM CLR 27/24 A2999 310 82 1800 000/00 RMK AO2 T02720239 $
03949KAQV AQV20160731195011707/31/16 19:50:31  5-MIN KAQV 010150Z AUTO 00000KT 10SM CLR 27/24 A2999 310 84 1800 000/00 RMK AO2 SLP151 T02670239 $
03949KAQV AQV20160731195511707/31/16 19:55:31  5-MIN KAQV 010155Z AUTO 00000KT 10SM CLR 27/24 A2999 310 84 1800 000/00 RMK AO2 SLP151 T02670239 $
03949KAQV AQV20160731200011007/31/16 20:00:31  5-MIN KAQV 010200Z AUTO 00000KT 10SM CLR 26/24 A2999 310 87 1700 000/00 RMK AO2 T02610239 $
03949KAQV AQV20160731200511007/31/16 20:05:31  5-MIN KAQV 010205Z AUTO 00000KT 10SM CLR 26/24 A2999 310 87 1700 000/00 RMK AO2 T02610239 $
03949KAQV AQV20160731201011007/31/16 20:10:31  5-MIN KAQV 010210Z AUTO 00000KT 10SM CLR 26/23 A2999 310 84 1700 000/00 RMK AO2 T02610233 $
03949KAQV AQV20160731201511007/31/16 20:15:31  5-MIN KAQV 010215Z AUTO 00000KT 10SM CLR 26/24 A2999 310 87 1700 000/00 RMK AO2 T02610239 $
03949KAQV AQV20160731202011007/31/16 20:20:31  5-MIN KAQV 010220Z AUTO 00000KT 10SM CLR 26/24 A2999 310 87 1700 000/00 RMK AO2 T02610239 $
03949KAQV AQV20160731202511007/31/16 20:25:31  5-MIN KAQV 010225Z AUTO 00000KT 10SM CLR 26/24 A2999 310 87 1700 000/00 RMK AO2 T02610239 $
03949KAQV AQV20160731203011007/31/16 20:30:31  5-MIN KAQV 010230Z AUTO 00000KT 10SM CLR 26/24 A3000 300 87 1700 000/00 RMK AO2 T02610239 $
03949KAQV AQV20160731203511007/31/16 20:35:31  5-MIN KAQV 010235Z AUTO 00000KT 10SM CLR 26/24 A3000 300 87 1700 000/00 RMK AO2 T02610239 $
03949KAQV AQV20160731204011007/31/16 20:40:31  5-MIN KAQV 010240Z AUTO 00000KT 10SM CLR 26/24 A3000 300 87 1700 000/00 RMK AO2 T02610239 $
03949KAQV AQV20160731204511007/31/16 20:45:31  5-MIN KAQV 010245Z AUTO 00000KT 10SM CLR 26/24 A3000 300 87 1700 000/00 RMK AO2 T02610239 $
03949KAQV AQV20160731205012307/31/16 20:50:31  5-MIN KAQV 010250Z AUTO 00000KT 10SM CLR 26/24 A3000 300 87 1700 000/00 RMK AO2 SLP156 T02610239 56009 $
03949KAQV AQV20160731205512307/31/16 20:55:31  5-MIN KAQV 010255Z AUTO 00000KT 10SM CLR 26/23 A3000 300 84 1700 000/00 RMK AO2 SLP156 T02610233 56009 $
03949KAQV AQV20160731210011007/31/16 21:00:31  5-MIN KAQV 010300Z AUTO 00000KT 10SM CLR 26/24 A3001 300 87 1700 000/00 RMK AO2 T02610239 $
03949KAQV AQV20160731210511007/31/16 21:05:31  5-MIN KAQV 010305Z AUTO 00000KT 10SM CLR 26/24 A3001 300 87 1700 000/00 RMK AO2 T02610239 $
03949KAQV AQV20160731211011007/31/16 21:10:31  5-MIN KAQV 010310Z AUTO 00000KT 10SM CLR 26/23 A3001 300 87 1600 000/00 RMK AO2 T02560233 $
03949KAQV AQV20160731211511007/31/16 21:15:31  5-MIN KAQV 010315Z AUTO 00000KT 10SM CLR 26/23 A3001 300 87 1600 000/00 RMK AO2 T02560233 $
03949KAQV AQV20160731212011007/31/16 21:20:31  5-MIN KAQV 010320Z AUTO 00000KT 10SM CLR 26/23 A3001 290 87 1600 000/00 RMK AO2 T02560233 $
03949KAQV AQV20160731212511007/31/16 21:25:31  5-MIN KAQV 010325Z AUTO 00000KT 10SM CLR 26/23 A3001 290 87 1600 000/00 RMK AO2 T02560233 $
03949KAQV AQV20160731213011007/31/16 21:30:31  5-MIN KAQV 010330Z AUTO 00000KT 10SM CLR 26/23 A3001 290 87 1600 000/00 RMK AO2 T02560233 $
03949KAQV AQV20160731213511007/31/16 21:35:31  5-MIN KAQV 010335Z AUTO 00000KT 10SM CLR 26/23 A3002 290 87 1600 000/00 RMK AO2 T02560233 $
03949KAQV AQV20160731214011007/31/16 21:40:31  5-MIN KAQV 010340Z AUTO 00000KT 10SM CLR 26/23 A3002 290 87 1600 000/00 RMK AO2 T02560233 $
03949KAQV AQV20160731214511007/31/16 21:45:31  5-MIN KAQV 010345Z AUTO 00000KT 10SM CLR 26/23 A3002 290 87 1600 000/00 RMK AO2 T02560233 $
03949KAQV AQV20160731215011707/31/16 21:50:31  5-MIN KAQV 010350Z AUTO 00000KT 10SM CLR 26/23 A3002 280 87 1600 000/00 RMK AO2 SLP162 T02560233 $
03949KAQV AQV20160731215511707/31/16 21:55:31  5-MIN KAQV 010355Z AUTO 00000KT 10SM CLR 26/24 A3002 280 90 1600 000/00 RMK AO2 SLP162 T02560239 $
03949KAQV AQV20160731220011007/31/16 22:00:31  5-MIN KAQV 010400Z AUTO 00000KT 10SM CLR 25/24 A3002 280 93 1500 000/00 RMK AO2 T02500239 $
03949KAQV AQV20160731220511007/31/16 22:05:31  5-MIN KAQV 010405Z AUTO 00000KT 10SM CLR 25/24 A3002 280 93 1500 000/00 RMK AO2 T02500239 $
03949KAQV AQV20160731221011007/31/16 22:10:31  5-MIN KAQV 010410Z AUTO 00000KT 10SM CLR 25/23 A3003 280 90 1500 000/00 RMK AO2 T02500233 $
03949KAQV AQV20160731221511007/31/16 22:15:31  5-MIN KAQV 010415Z AUTO 00000KT 10SM CLR 25/23 A3003 280 90 1500 000/00 RMK AO2 T02500233 $
03949KAQV AQV20160731222011007/31/16 22:20:31  5-MIN KAQV 010420Z AUTO 00000KT 10SM CLR 25/23 A3002 280 90 1500 000/00 RMK AO2 T02500233 $
03949KAQV AQV20160731222511007/31/16 22:25:31  5-MIN KAQV 010425Z AUTO 00000KT 10SM CLR 25/23 A3003 280 90 1500 000/00 RMK AO2 T02500233 $
03949KAQV AQV20160731223011007/31/16 22:30:31  5-MIN KAQV 010430Z AUTO 00000KT 10SM CLR 25/23 A3003 280 90 1500 000/00 RMK AO2 T02500233 $
03949KAQV AQV20160731223511007/31/16 22:35:31  5-MIN KAQV 010435Z AUTO 00000KT 10SM CLR 25/23 A3003 280 90 1500 000/00 RMK AO2 T02500233 $
03949KAQV AQV20160731224011007/31/16 22:40:31  5-MIN KAQV 010440Z AUTO 00000KT 10SM CLR 25/23 A3003 270 90 1500 000/00 RMK AO2 T02500233 $
03949KAQV AQV20160731224511007/31/16 22:45:31  5-MIN KAQV 010445Z AUTO 00000KT 10SM CLR 25/23 A3003 270 90 1500 000/00 RMK AO2 T02500233 $
03949KAQV AQV20160731225011707/31/16 22:50:31  5-MIN KAQV 010450Z AUTO 00000KT 10SM CLR 25/23 A3003 270 90 1500 000/00 RMK AO2 SLP165 T02500233 $
03949KAQV AQV20160731225511707/31/16 22:55:31  5-MIN KAQV 010455Z AUTO 00000KT 10SM CLR 25/23 A3003 270 90 1500 000/00 RMK AO2 SLP165 T02500233 $
03949KAQV AQV20160731230011007/31/16 23:00:31  5-MIN KAQV 010500Z AUTO 00000KT 10SM CLR 25/23 A3003 270 90 1500 000/00 RMK AO2 T02500233 $
03949KAQV AQV20160731230511007/31/16 23:05:31  5-MIN KAQV 010505Z AUTO 00000KT 10SM CLR 24/23 A3003 270 93 1500 000/00 RMK AO2 T02440233 $
03949KAQV AQV20160731231011007/31/16 23:10:31  5-MIN KAQV 010510Z AUTO 00000KT 10SM CLR 24/23 A3003 270 93 1500 000/00 RMK AO2 T02440233 $
03949KAQV AQV20160731231511007/31/16 23:15:31  5-MIN KAQV 010515Z AUTO 00000KT 10SM CLR 24/23 A3003 270 93 1500 000/00 RMK AO2 T02440233 $
03949KAQV AQV20160731232011007/31/16 23:20:31  5-MIN KAQV 010520Z AUTO 00000KT 10SM CLR 24/23 A3003 270 93 1500 000/00 RMK AO2 T02440233 $
03949KAQV AQV20160731232511007/31/16 23:25:31  5-MIN KAQV 010525Z AUTO 00000KT 10SM CLR 24/23 A3003 270 93 1500 000/00 RMK AO2 T02440233 $
03949KAQV AQV20160731233011007/31/16 23:30:31  5-MIN KAQV 010530Z AUTO 00000KT 10SM CLR 24/23 A3003 270 93 1500 000/00 RMK AO2 T02440233 $
03949KAQV AQV20160731233511007/31/16 23:35:31  5-MIN KAQV 010535Z AUTO 00000KT 10SM CLR 24/23 A3004 270 93 1500 000/00 RMK AO2 T02440233 $
03949KAQV AQV20160731234011007/31/16 23:40:31  5-MIN KAQV 010540Z AUTO 00000KT 10SM CLR 24/23 A3004 270 93 1500 000/00 RMK AO2 T02440233 $
03949KAQV AQV20160731234511007/31/16 23:45:31  5-MIN KAQV 010545Z AUTO 00000KT 10SM CLR 24/23 A3004 260 93 1500 000/00 RMK AO2 T02440233 $
03949KAQV AQV20160731235014507/31/16 23:50:31  5-MIN KAQV 010550Z AUTO 00000KT 10SM CLR 24/23 A3004 260 93 1500 000/00 RMK AO2 SLP169 T02440233 10328 20244 403440228 53012 $
03949KAQV AQV20160731235514507/31/16 23:55:31  5-MIN KAQV 010555Z AUTO 00000KT 10SM CLR 24/23 A3004 260 93 1500 000/00 RMK AO2 SLP169 T02440233 10328 20244 403440228 53012 $
