13870KAMG AMG20160301000010603/01/16 00:00:31  5-MIN KAMG 010500Z AUTO 00000KT 7SM CLR 10/10 A3014 0 100 -500 000/00 RMK AO2 T01000100
13870KAMG AMG20160301000510503/01/16 00:05:31  5-MIN KAMG 010505Z AUTO 00000KT 8SM CLR 11/10 A3014 0 96 -400 000/00 RMK AO2 T01060100
13870KAMG AMG20160301001010503/01/16 00:10:31  5-MIN KAMG 010510Z AUTO 00000KT 7SM CLR 11/10 A3014 0 96 -400 000/00 RMK AO2 T01060100
13870KAMG AMG20160301001510503/01/16 00:15:31  5-MIN KAMG 010515Z AUTO 00000KT 7SM CLR 11/10 A3014 0 96 -400 000/00 RMK AO2 T01060100
13870KAMG AMG20160301002010603/01/16 00:20:31  5-MIN KAMG 010520Z AUTO 00000KT 7SM CLR 11/11 A3014 0 100 -400 000/00 RMK AO2 T01060106
13870KAMG AMG20160301002510503/01/16 00:25:31  5-MIN KAMG 010525Z AUTO 00000KT 7SM CLR 11/11 A3013 0 96 -400 000/00 RMK AO2 T01110106
13870KAMG AMG20160301003010503/01/16 00:30:31  5-MIN KAMG 010530Z AUTO 00000KT 7SM CLR 11/11 A3013 0 96 -400 000/00 RMK AO2 T01110106
13870KAMG AMG20160301003510503/01/16 00:35:31  5-MIN KAMG 010535Z AUTO 00000KT 7SM CLR 11/10 A3013 0 96 -400 000/00 RMK AO2 T01060100
13870KAMG AMG20160301004010503/01/16 00:40:31  5-MIN KAMG 010540Z AUTO 00000KT 7SM CLR 11/10 A3013 0 96 -400 000/00 RMK AO2 T01060100
13870KAMG AMG20160301004511003/01/16 00:45:31  5-MIN KAMG 010545Z AUTO 00000KT 6SM BR CLR 10/10 A3013 10 100 -500 000/00 RMK AO2 T01000100
13870KAMG AMG20160301005013503/01/16 00:50:31  5-MIN KAMG 010550Z AUTO 00000KT 6SM BR CLR 10/10 A3013 10 100 -500 000/00 RMK AO2 SLP203 T01000100 10167 20100 52010
13870KAMG AMG20160301005510703/01/16 00:55:31  5-MIN KAMG 010555Z AUTO 00000KT 7SM CLR 10/10 A3013 10 100 -500 000/00 RMK AO2 T01000100
13870KAMG AMG20160301010010703/01/16 01:00:31  5-MIN KAMG 010600Z AUTO 00000KT 7SM CLR 10/10 A3013 10 100 -500 000/00 RMK AO2 T01000100
13870KAMG AMG20160301010510703/01/16 01:05:31  5-MIN KAMG 010605Z AUTO 00000KT 7SM CLR 10/10 A3013 10 100 -500 000/00 RMK AO2 T01000100
13870KAMG AMG20160301011011003/01/16 01:10:31  5-MIN KAMG 010610Z AUTO 00000KT 6SM BR CLR 10/10 A3013 10 100 -500 000/00 RMK AO2 T01000100
13870KAMG AMG20160301011511003/01/16 01:15:31  5-MIN KAMG 010615Z AUTO 00000KT 6SM BR CLR 10/10 A3013 10 100 -500 000/00 RMK AO2 T01000100
13870KAMG AMG20160301012010703/01/16 01:20:31  5-MIN KAMG 010620Z AUTO 00000KT 7SM CLR 10/10 A3013 10 100 -500 000/00 RMK AO2 T01000100
13870KAMG AMG20160301012510903/01/16 01:25:31  5-MIN KAMG 010625Z AUTO 00000KT 6SM BR CLR 10/09 A3013 10 96 -500 000/00 RMK AO2 T01000094
13870KAMG AMG20160301013010903/01/16 01:30:31  5-MIN KAMG 010630Z AUTO 00000KT 3SM BR CLR 10/09 A3013 10 96 -500 000/00 RMK AO2 T01000094
13870KAMG AMG20160301013510903/01/16 01:35:31  5-MIN KAMG 010635Z AUTO 00000KT 2SM BR CLR 10/09 A3013 10 96 -500 000/00 RMK AO2 T01000094
13870KAMG AMG20160301014010903/01/16 01:40:31  5-MIN KAMG 010640Z AUTO 00000KT 3SM BR CLR 11/09 A3013 10 93 -400 000/00 RMK AO2 T01060094
13870KAMG AMG20160301014511003/01/16 01:45:31  5-MIN KAMG 010645Z AUTO 00000KT 5SM BR CLR 10/10 A3013 10 100 -500 000/00 RMK AO2 T01000100
13870KAMG AMG20160301015011703/01/16 01:50:31  5-MIN KAMG 010650Z AUTO 00000KT 5SM BR CLR 10/10 A3013 10 100 -500 000/00 RMK AO2 SLP201 T01000100
13870KAMG AMG20160301015511003/01/16 01:55:31  5-MIN KAMG 010655Z AUTO 00000KT 6SM BR CLR 10/10 A3013 10 100 -500 000/00 RMK AO2 T01000100
13870KAMG AMG20160301020010903/01/16 02:00:31  5-MIN KAMG 010700Z AUTO 00000KT 6SM BR CLR 10/09 A3012 10 96 -500 000/00 RMK AO2 T01000094
13870KAMG AMG20160301020510903/01/16 02:05:31  5-MIN KAMG 010705Z AUTO 00000KT 4SM BR CLR 10/09 A3012 20 96 -500 000/00 RMK AO2 T01000094
13870KAMG AMG20160301021010903/01/16 02:10:31  5-MIN KAMG 010710Z AUTO 00000KT 3SM BR CLR 10/09 A3012 20 96 -500 000/00 RMK AO2 T01000094
13870KAMG AMG20160301021512003/01/16 02:15:31  5-MIN KAMG 010715Z AUTO 00000KT 2SM BR CLR 09/09 A3012 20 100 -600 000/00 RMK AO2 VIS 1/2V5 T00940094
13870KAMG AMG20160301022011003/01/16 02:20:31  5-MIN KAMG 010720Z AUTO 00000KT 1SM BR CLR 09/09 A3012 20 100 -600 000/00 RMK AO2 T00890089
13870KAMG AMG20160301022511003/01/16 02:25:31  5-MIN KAMG 010725Z AUTO 00000KT 1SM BR CLR 09/09 A3011 20 100 -500 000/00 RMK AO2 T00940094
13870KAMG AMG20160301023011403/01/16 02:30:31  5-MIN KAMG 010730Z AUTO 00000KT 1 1/2SM BR CLR 09/09 A3011 20 100 -500 000/00 RMK AO2 T00940094
13870KAMG AMG20160301023511703/01/16 02:35:31  5-MIN KAMG 010735Z AUTO 00000KT 1 1/4SM BR FEW010 09/09 A3011 30 100 -600 000/00 RMK AO2 T00890089
13870KAMG AMG20160301024011703/01/16 02:40:31  5-MIN KAMG 010740Z AUTO 00000KT 1 1/2SM BR FEW010 09/09 A3011 30 100 -600 000/00 RMK AO2 T00890089
13870KAMG AMG20160301024510903/01/16 02:45:31  5-MIN KAMG 010745Z AUTO 00000KT 6SM BR CLR 09/09 A3011 30 96 -500 000/00 RMK AO2 T00940089
13870KAMG AMG20160301025011303/01/16 02:50:31  5-MIN KAMG 010750Z AUTO 00000KT 7SM CLR 09/09 A3011 30 96 -500 000/00 RMK AO2 SLP195 T00940089
13870KAMG AMG20160301025510703/01/16 02:55:31  5-MIN KAMG 010755Z AUTO 00000KT 7SM CLR 09/09 A3011 30 100 -600 000/00 RMK AO2 T00890089
13870KAMG AMG20160301030010903/01/16 03:00:31  5-MIN KAMG 010800Z AUTO 00000KT 6SM BR CLR 09/08 A3011 30 96 -600 000/00 RMK AO2 T00890083
13870KAMG AMG20160301030510903/01/16 03:05:31  5-MIN KAMG 010805Z AUTO 00000KT 5SM BR CLR 09/09 A3011 30 96 -500 000/00 RMK AO2 T00940089
13870KAMG AMG20160301031010903/01/16 03:10:31  5-MIN KAMG 010810Z AUTO 00000KT 5SM BR CLR 09/09 A3011 30 96 -500 000/00 RMK AO2 T00940089
13870KAMG AMG20160301031510903/01/16 03:15:31  5-MIN KAMG 010815Z AUTO 00000KT 6SM BR CLR 09/09 A3011 30 96 -500 000/00 RMK AO2 T00940089
13870KAMG AMG20160301032011203/01/16 03:20:31  5-MIN KAMG 010820Z AUTO 00000KT 2SM BR FEW011 09/09 A3011 30 96 -500 000/00 RMK AO2 T00940089
13870KAMG AMG20160301032511403/01/16 03:25:31  5-MIN KAMG 010825Z AUTO 00000KT 3/4SM BR VV011 09/09 A3010 30 100 -600 000/00 RMK AO2 T00890089
13870KAMG AMG20160301033011103/01/16 03:30:31  5-MIN KAMG 010830Z AUTO 00000KT 1SM BR VV011 09/08 A3010 30 96 -600 000/00 RMK AO2 T00890083
13870KAMG AMG20160301033511303/01/16 03:35:31  5-MIN KAMG 010835Z AUTO 00000KT 6SM BR FEW011 09/09 A3010 30 100 -600 000/00 RMK AO2 T00890089
13870KAMG AMG20160301034011303/01/16 03:40:31  5-MIN KAMG 010840Z AUTO 00000KT 6SM BR FEW011 09/09 A3011 30 100 -600 000/00 RMK AO2 T00890089
13870KAMG AMG20160301034510903/01/16 03:45:31  5-MIN KAMG 010845Z AUTO 00000KT 7SM FEW011 09/08 A3010 30 96 -600 000/00 RMK AO2 T00890083
13870KAMG AMG20160301035011903/01/16 03:50:31  5-MIN KAMG 010850Z AUTO 00000KT 7SM CLR 09/08 A3010 30 96 -600 000/00 RMK AO2 SLP192 T00890083 51002
13870KAMG AMG20160301035510603/01/16 03:55:31  5-MIN KAMG 010855Z AUTO 00000KT 7SM CLR 09/08 A3010 30 96 -600 000/00 RMK AO2 T00890083
13870KAMG AMG20160301040010703/01/16 04:00:31  5-MIN KAMG 010900Z AUTO 00000KT 7SM CLR 08/08 A3010 40 100 -700 000/00 RMK AO2 T00830083
13870KAMG AMG20160301040511003/01/16 04:05:31  5-MIN KAMG 010905Z AUTO 00000KT 6SM BR CLR 08/08 A3010 30 100 -700 000/00 RMK AO2 T00830083
13870KAMG AMG20160301041011003/01/16 04:10:31  5-MIN KAMG 010910Z AUTO 00000KT 5SM BR CLR 08/08 A3010 30 100 -700 000/00 RMK AO2 T00830083
13870KAMG AMG20160301041511103/01/16 04:15:31  5-MIN KAMG 010915Z AUTO 00000KT 1SM BR VV008 09/08 A3010 30 96 -600 000/00 RMK AO2 T00890083
13870KAMG AMG20160301042011603/01/16 04:20:31  5-MIN KAMG 010920Z AUTO 00000KT 1 1/4SM BR FEW007 09/08 A3010 30 96 -600 000/00 RMK AO2 T00890083
13870KAMG AMG20160301042511303/01/16 04:25:31  5-MIN KAMG 010925Z AUTO 00000KT 6SM BR FEW009 08/08 A3010 30 100 -700 000/00 RMK AO2 T00830083
13870KAMG AMG20160301043010903/01/16 04:30:31  5-MIN KAMG 010930Z AUTO 00000KT 7SM FEW009 09/08 A3010 30 96 -600 000/00 RMK AO2 T00890083
13870KAMG AMG20160301043511203/01/16 04:35:31  5-MIN KAMG 010935Z AUTO 00000KT 5SM BR FEW008 09/08 A3010 30 96 -600 000/00 RMK AO2 T00890083
13870KAMG AMG20160301044011303/01/16 04:40:31  5-MIN KAMG 010940Z AUTO 00000KT 4SM BR FEW008 08/08 A3010 30 100 -700 000/00 RMK AO2 T00830083
13870KAMG AMG20160301044510903/01/16 04:45:31  5-MIN KAMG 010945Z AUTO 00000KT 3SM BR CLR 08/08 A3011 30 96 -700 000/00 RMK AO2 T00830078
13870KAMG AMG20160301045012103/01/16 04:50:31  5-MIN KAMG 010950Z AUTO 00000KT 1 1/2SM BR CLR 08/08 A3010 30 100 -700 000/00 RMK AO2 SLP193 T00780078
13870KAMG AMG20160301045511003/01/16 04:55:31  5-MIN KAMG 010955Z AUTO 00000KT 1SM BR CLR 08/08 A3011 30 100 -700 000/00 RMK AO2 T00830083
13870KAMG AMG20160301050011203/01/16 05:00:31  5-MIN KAMG 011000Z AUTO 00000KT 3/4SM BR CLR 08/08 A3011 30 100 -700 000/00 RMK AO2 T00830083
13870KAMG AMG20160301050511403/01/16 05:05:31  5-MIN KAMG 011005Z AUTO 00000KT 1/2SM FG VV004 08/08 A3011 30 100 -700 000/00 RMK AO2 T00780078
13870KAMG AMG20160301051011403/01/16 05:10:31  5-MIN KAMG 011010Z AUTO 00000KT 1/4SM FG VV004 08/08 A3011 30 100 -700 000/00 RMK AO2 T00830083
13870KAMG AMG20160301051511303/01/16 05:15:31  5-MIN KAMG 011015Z AUTO 00000KT 1/4SM FG VV004 08/08 A3011 30 96 -700 000/00 RMK AO2 T00830078
13870KAMG AMG20160301052011603/01/16 05:20:31  5-MIN KAMG 011020Z AUTO 00000KT 1 3/4SM BR SCT004 08/08 A3011 30 96 -700 000/00 RMK AO2 T00830078
13870KAMG AMG20160301052512103/01/16 05:25:31  5-MIN KAMG 011025Z AUTO 00000KT 1SM BR VV004 08/08 A3011 30 96 -700 000/00 RMK AO2 VIS 1/4V5 T00830078
13870KAMG AMG20160301053011403/01/16 05:30:31  5-MIN KAMG 011030Z AUTO 00000KT 1/4SM FG VV004 08/08 A3011 30 100 -700 000/00 RMK AO2 T00780078
13870KAMG AMG20160301053511403/01/16 05:35:31  5-MIN KAMG 011035Z AUTO 00000KT 1/4SM FG VV004 08/08 A3011 30 100 -700 000/00 RMK AO2 T00780078
13870KAMG AMG20160301054011403/01/16 05:40:31  5-MIN KAMG 011040Z AUTO 00000KT 1/4SM FG VV004 08/08 A3011 30 100 -700 000/00 RMK AO2 T00780078
13870KAMG AMG20160301054511403/01/16 05:45:31  5-MIN KAMG 011045Z AUTO 00000KT 1/4SM FG VV004 08/08 A3011 30 100 -700 000/00 RMK AO2 T00780078
13870KAMG AMG20160301055010403/01/16 05:50:31  5-MIN KAMG 011050Z AUTO 00000KT 1/4SM FG VV003 08/08 A3011 30 100 -700 000/00 RMK AO2
13870KAMG AMG20160301055511303/01/16 05:55:31  5-MIN KAMG 011055Z AUTO 00000KT 1/4SM FG VV003 08/08 A3011 20 96 -700 000/00 RMK AO2 T00830078
13870KAMG AMG20160301060011403/01/16 06:00:31  5-MIN KAMG 011100Z AUTO 00000KT 3/4SM BR VV003 08/08 A3012 20 100 -800 000/00 RMK AO2 T00780078
13870KAMG AMG20160301060511203/01/16 06:05:31  5-MIN KAMG 011105Z AUTO 00000KT 5SM BR BKN003 08/07 A3012 20 96 -800 000/00 RMK AO2 T00780072
13870KAMG AMG20160301061010903/01/16 06:10:31  5-MIN KAMG 011110Z AUTO 00000KT 7SM SCT003 08/07 A3013 10 96 -800 000/00 RMK AO2 T00780072
13870KAMG AMG20160301061511303/01/16 06:15:31  5-MIN KAMG 011115Z AUTO 00000KT 6SM BR SCT003 08/08 A3013 10 100 -800 000/00 RMK AO2 T00780078
13870KAMG AMG20160301062011303/01/16 06:20:31  5-MIN KAMG 011120Z AUTO 00000KT 6SM BR BKN003 08/08 A3013 10 100 -800 000/00 RMK AO2 T00780078
13870KAMG AMG20160301062511203/01/16 06:25:31  5-MIN KAMG 011125Z AUTO 00000KT 6SM BR BKN004 08/07 A3013 10 96 -800 000/00 RMK AO2 T00780072
13870KAMG AMG20160301063011203/01/16 06:30:31  5-MIN KAMG 011130Z AUTO 00000KT 6SM BR BKN004 08/07 A3013 10 96 -800 000/00 RMK AO2 T00780072
13870KAMG AMG20160301063511303/01/16 06:35:31  5-MIN KAMG 011135Z AUTO 00000KT 5SM BR SCT004 08/08 A3013 10 100 -800 000/00 RMK AO2 T00780078
13870KAMG AMG20160301064011203/01/16 06:40:31  5-MIN KAMG 011140Z AUTO 00000KT 4SM BR SCT004 08/07 A3013 10 96 -800 000/00 RMK AO2 T00780072
13870KAMG AMG20160301064511303/01/16 06:45:31  5-MIN KAMG 011145Z AUTO 00000KT 4SM BR SCT004 08/08 A3013 10 100 -800 000/00 RMK AO2 T00780078
13870KAMG AMG20160301065013703/01/16 06:50:31  5-MIN KAMG 011150Z AUTO 00000KT 5SM BR SCT004 08/08 A3014 0 100 -800 000/00 RMK AO2 SLP203 T00780078 10106 20078 57011
13870KAMG AMG20160301065511303/01/16 06:55:31  5-MIN KAMG 011155Z AUTO 00000KT 4SM BR FEW004 07/07 A3013 10 100 -800 000/00 RMK AO2 T00720072
13870KAMG AMG20160301070011703/01/16 07:00:31  5-MIN KAMG 011200Z AUTO 00000KT 1 1/4SM BR SCT004 07/07 A3013 10 100 -800 000/00 RMK AO2 T00720072
13870KAMG AMG20160301070511503/01/16 07:05:31  5-MIN KAMG 011205Z AUTO 00000KT 1 1/4SM BR BKN002 08/07 A3014 0 96 -800 000/00 RMK AO2 T00780072
13870KAMG AMG20160301071011103/01/16 07:10:31  5-MIN KAMG 011210Z AUTO 00000KT 4SM BR BKN002 08/07 A3014 0 96 -800 000/00 RMK AO2 T00780072
13870KAMG AMG20160301071511103/01/16 07:15:31  5-MIN KAMG 011215Z AUTO 00000KT 5SM BR BKN002 08/07 A3014 0 96 -800 000/00 RMK AO2 T00780072
13870KAMG AMG20160301072011203/01/16 07:20:31  5-MIN KAMG 011220Z AUTO 00000KT 5SM BR BKN001 08/08 A3014 0 100 -800 000/00 RMK AO2 T00780078
13870KAMG AMG20160301072511103/01/16 07:25:31  5-MIN KAMG 011225Z AUTO 00000KT 5SM BR OVC001 08/08 A3014 0 96 -700 000/00 RMK AO2 T00830078
13870KAMG AMG20160301073011203/01/16 07:30:31  5-MIN KAMG 011230Z AUTO 00000KT 5SM BR OVC001 08/08 A3014 0 100 -700 000/00 RMK AO2 T00830083
13870KAMG AMG20160301073511603/01/16 07:35:31  5-MIN KAMG 011235Z AUTO 00000KT 1 3/4SM BR OVC001 08/08 A3014 0 100 -700 000/00 RMK AO2 T00830083
13870KAMG AMG20160301074011303/01/16 07:40:31  5-MIN KAMG 011240Z AUTO 00000KT 1/4SM FG VV002 09/09 A3014 0 100 -600 000/00 RMK AO2 T00890089
13870KAMG AMG20160301074511303/01/16 07:45:31  5-MIN KAMG 011245Z AUTO 00000KT 1/4SM FG VV002 09/09 A3014 0 100 -600 000/00 RMK AO2 T00940094
13870KAMG AMG20160301075012003/01/16 07:50:31  5-MIN KAMG 011250Z AUTO 19003KT 1/4SM FG VV002 09/09 A3014 0 100 -600 200/03 RMK AO2 SLP205 T00940094
13870KAMG AMG20160301075511403/01/16 07:55:31  5-MIN KAMG 011255Z AUTO 18003KT M1/4SM FG VV002 09/09 A3014 0 100 -600 190/03 RMK AO2 T00940094
13870KAMG AMG20160301080011403/01/16 08:00:31  5-MIN KAMG 011300Z AUTO 00000KT M1/4SM FG VV002 09/09 A3015 0 100 -600 000/00 RMK AO2 T00940094
13870KAMG AMG20160301080511603/01/16 08:05:31  5-MIN KAMG 011305Z AUTO 00000KT M1/4SM FG VV002 10/10 A3015 -10 100 -500 000/00 RMK AO2 T01000100
13870KAMG AMG20160301081011603/01/16 08:10:31  5-MIN KAMG 011310Z AUTO 21003KT M1/4SM FG VV002 10/10 A3016 -10 100 -500 210/03 RMK AO2 T01000100
13870KAMG AMG20160301081511603/01/16 08:15:31  5-MIN KAMG 011315Z AUTO 21004KT M1/4SM FG VV002 10/10 A3016 -10 100 -500 220/04 RMK AO2 T01000100
13870KAMG AMG20160301082011603/01/16 08:20:31  5-MIN KAMG 011320Z AUTO 21004KT M1/4SM FG VV002 10/10 A3016 -10 100 -500 220/04 RMK AO2 T01000100
13870KAMG AMG20160301082511603/01/16 08:25:31  5-MIN KAMG 011325Z AUTO 21003KT M1/4SM FG VV002 11/11 A3016 -20 100 -500 220/03 RMK AO2 T01060106
13870KAMG AMG20160301083011503/01/16 08:30:31  5-MIN KAMG 011330Z AUTO 22003KT 1/4SM FG VV002 11/11 A3016 -10 100 -500 230/03 RMK AO2 T01060106
13870KAMG AMG20160301083511503/01/16 08:35:31  5-MIN KAMG 011335Z AUTO 00000KT 1/4SM FG VV002 11/11 A3016 -10 100 -500 000/00 RMK AO2 T01060106
13870KAMG AMG20160301084011503/01/16 08:40:31  5-MIN KAMG 011340Z AUTO 25003KT 1/4SM FG VV002 11/11 A3016 -20 100 -400 250/03 RMK AO2 T01110111
13870KAMG AMG20160301084511603/01/16 08:45:31  5-MIN KAMG 011345Z AUTO 24003KT 3/4SM BR OVC002 11/11 A3016 -20 100 -400 250/03 RMK AO2 T01110111
13870KAMG AMG20160301085012503/01/16 08:50:31  5-MIN KAMG 011350Z AUTO 00000KT 1 1/2SM BR OVC002 12/12 A3016 -20 100 -300 000/00 RMK AO2 SLP213 T01170117
13870KAMG AMG20160301085511803/01/16 08:55:31  5-MIN KAMG 011355Z AUTO 25003KT 2 1/2SM BR BKN002 12/12 A3016 -20 100 -300 260/03 RMK AO2 T01170117
13870KAMG AMG20160301090011403/01/16 09:00:31  5-MIN KAMG 011400Z AUTO 00000KT 3SM BR SCT002 12/12 A3016 -20 100 -300 000/00 RMK AO2 T01220122
13870KAMG AMG20160301090511403/01/16 09:05:31  5-MIN KAMG 011405Z AUTO 27003KT 4SM BR SCT002 13/13 A3016 -20 100 -200 280/03 RMK AO2 T01280128
13870KAMG AMG20160301091011303/01/16 09:10:31  5-MIN KAMG 011410Z AUTO 26003KT 5SM BR FEW002 13/13 A3016 -20 96 -100 270/03 RMK AO2 T01330128
13870KAMG AMG20160301091511303/01/16 09:15:31  5-MIN KAMG 011415Z AUTO 25005KT 6SM BR FEW002 14/13 A3016 -20 96 -100 250/05 RMK AO2 T01390133
13870KAMG AMG20160301092010703/01/16 09:20:31  5-MIN KAMG 011420Z AUTO 26003KT 7SM CLR 14/13 A3016 -10 93 -100 260/03 RMK AO2 T01390128
13870KAMG AMG20160301092510403/01/16 09:25:31  5-MIN KAMG 011425Z AUTO 27005KT 8SM CLR 14/13 A3016 -10 93 0 280/05 RMK AO2 T01440133
13870KAMG AMG20160301093010403/01/16 09:30:31  5-MIN KAMG 011430Z AUTO 28004KT 8SM CLR 15/13 A3016 -10 86 0 280/04 RMK AO2 T01500128
13870KAMG AMG20160301093510603/01/16 09:35:31  5-MIN KAMG 011435Z AUTO VRB04KT 9SM CLR 16/13 A3016 -10 83 100 VRB/04 RMK AO2 T01610133
13870KAMG AMG20160301094010703/01/16 09:40:31  5-MIN KAMG 011440Z AUTO 30006KT 10SM CLR 17/13 A3016 -10 77 200 310/06 RMK AO2 T01670128
13870KAMG AMG20160301094510703/01/16 09:45:31  5-MIN KAMG 011445Z AUTO 30006KT 10SM CLR 17/13 A3016 -10 77 200 300/06 RMK AO2 T01670128
13870KAMG AMG20160301095012003/01/16 09:50:31  5-MIN KAMG 011450Z AUTO VRB05KT 10SM CLR 17/13 A3016 -10 75 300 VRB/05 RMK AO2 SLP211 T01720128 53011
13870KAMG AMG20160301095510703/01/16 09:55:31  5-MIN KAMG 011455Z AUTO 28005KT 10SM CLR 17/13 A3016 -10 75 300 280/05 RMK AO2 T01720128
13870KAMG AMG20160301100010703/01/16 10:00:31  5-MIN KAMG 011500Z AUTO VRB05KT 10SM CLR 18/13 A3015 -10 72 400 VRB/05 RMK AO2 T01780128
13870KAMG AMG20160301100510703/01/16 10:05:31  5-MIN KAMG 011505Z AUTO 27005KT 10SM CLR 18/13 A3015 -10 72 400 280/05 RMK AO2 T01780128
13870KAMG AMG20160301101010703/01/16 10:10:31  5-MIN KAMG 011510Z AUTO 28005KT 10SM CLR 18/13 A3015 -10 70 400 280/05 RMK AO2 T01830128
13870KAMG AMG20160301101510503/01/16 10:15:31  5-MIN KAMG 011515Z AUTO VRB05KT 10SM CLR 18/13 A3015 0 70 400 VRB/05 RMK AO2 T01830128
13870KAMG AMG20160301102010503/01/16 10:20:31  5-MIN KAMG 011520Z AUTO 29005KT 10SM CLR 18/13 A3015 0 70 400 290/05 RMK AO2 T01830128
13870KAMG AMG20160301102510503/01/16 10:25:31  5-MIN KAMG 011525Z AUTO 00000KT 10SM CLR 19/13 A3014 0 67 500 000/00 RMK AO2 T01890128
13870KAMG AMG20160301103010503/01/16 10:30:31  5-MIN KAMG 011530Z AUTO 29004KT 10SM CLR 19/13 A3014 0 65 600 290/04 RMK AO2 T01940128
13870KAMG AMG20160301103510503/01/16 10:35:31  5-MIN KAMG 011535Z AUTO 27003KT 10SM CLR 19/12 A3014 0 62 600 270/03 RMK AO2 T01940122
13870KAMG AMG20160301104010503/01/16 10:40:31  5-MIN KAMG 011540Z AUTO 27003KT 10SM CLR 19/12 A3014 0 62 600 280/03 RMK AO2 T01940122
13870KAMG AMG20160301104510503/01/16 10:45:31  5-MIN KAMG 011545Z AUTO 30004KT 10SM CLR 19/12 A3014 0 62 600 310/04 RMK AO2 T01940122
13870KAMG AMG20160301105011303/01/16 10:50:31  5-MIN KAMG 011550Z AUTO 29004KT 10SM CLR 20/12 A3013 10 60 600 300/04 RMK AO2 SLP203 T02000122
13870KAMG AMG20160301105510603/01/16 10:55:31  5-MIN KAMG 011555Z AUTO VRB04KT 10SM CLR 20/12 A3013 10 60 600 VRB/04 RMK AO2 T02000122
13870KAMG AMG20160301110010603/01/16 11:00:31  5-MIN KAMG 011600Z AUTO 28003KT 10SM CLR 20/12 A3013 10 60 600 290/03 RMK AO2 T02000122
13870KAMG AMG20160301110510603/01/16 11:05:31  5-MIN KAMG 011605Z AUTO 30004KT 10SM CLR 21/12 A3013 10 58 700 300/04 RMK AO2 T02060122
13870KAMG AMG20160301111010603/01/16 11:10:31  5-MIN KAMG 011610Z AUTO VRB05KT 10SM CLR 21/12 A3013 10 56 800 VRB/05 RMK AO2 T02110122
13870KAMG AMG20160301111510603/01/16 11:15:31  5-MIN KAMG 011615Z AUTO VRB03KT 10SM CLR 21/12 A3013 10 54 800 VRB/03 RMK AO2 T02110117
13870KAMG AMG20160301112010603/01/16 11:20:31  5-MIN KAMG 011620Z AUTO VRB03KT 10SM CLR 21/12 A3013 10 54 800 VRB/03 RMK AO2 T02110117
13870KAMG AMG20160301112510603/01/16 11:25:31  5-MIN KAMG 011625Z AUTO 24005KT 10SM CLR 21/12 A3013 10 54 800 250/05 RMK AO2 T02110117
13870KAMG AMG20160301113010603/01/16 11:30:31  5-MIN KAMG 011630Z AUTO 21005KT 10SM CLR 22/12 A3012 10 52 800 220/05 RMK AO2 T02170117
13870KAMG AMG20160301113510603/01/16 11:35:31  5-MIN KAMG 011635Z AUTO 21004KT 10SM CLR 22/12 A3012 20 54 800 220/04 RMK AO2 T02170122
13870KAMG AMG20160301114010603/01/16 11:40:31  5-MIN KAMG 011640Z AUTO VRB05KT 10SM CLR 22/12 A3012 20 54 800 VRB/05 RMK AO2 T02170122
13870KAMG AMG20160301114510603/01/16 11:45:31  5-MIN KAMG 011645Z AUTO VRB05KT 10SM CLR 22/12 A3012 20 52 800 VRB/05 RMK AO2 T02170117
13870KAMG AMG20160301115011303/01/16 11:50:31  5-MIN KAMG 011650Z AUTO VRB06KT 10SM CLR 22/12 A3011 20 51 900 VRB/06 RMK AO2 SLP195 T02220117
13870KAMG AMG20160301115510603/01/16 11:55:31  5-MIN KAMG 011655Z AUTO 23008KT 10SM CLR 22/11 A3011 30 50 900 240/08 RMK AO2 T02170111
13870KAMG AMG20160301120010603/01/16 12:00:31  5-MIN KAMG 011700Z AUTO 20009KT 10SM CLR 22/11 A3011 30 49 900 210/09 RMK AO2 T02220111
13870KAMG AMG20160301120510903/01/16 12:05:31  5-MIN KAMG 011705Z AUTO 21009KT 10SM FEW045 22/11 A3010 30 49 900 210/09 RMK AO2 T02220111
13870KAMG AMG20160301121010903/01/16 12:10:31  5-MIN KAMG 011710Z AUTO 22007KT 10SM FEW045 22/11 A3010 30 49 900 230/07 RMK AO2 T02220111
13870KAMG AMG20160301121510903/01/16 12:15:31  5-MIN KAMG 011715Z AUTO 23007KT 10SM FEW045 22/11 A3010 40 47 900 240/07 RMK AO2 T02220106
13870KAMG AMG20160301122011603/01/16 12:20:31  5-MIN KAMG 011720Z AUTO 22008KT 10SM FEW045 SCT055 22/11 A3010 40 47 900 230/08 RMK AO2 T02220106
13870KAMG AMG20160301122511603/01/16 12:25:31  5-MIN KAMG 011725Z AUTO 19009KT 10SM FEW046 FEW055 22/11 A3009 40 49 900 200/09 RMK AO2 T02220111
13870KAMG AMG20160301123011603/01/16 12:30:31  5-MIN KAMG 011730Z AUTO 19010KT 10SM SCT049 SCT060 22/11 A3009 40 49 900 200/10 RMK AO2 T02220111
13870KAMG AMG20160301123511603/01/16 12:35:31  5-MIN KAMG 011735Z AUTO 22008KT 10SM FEW049 SCT060 22/11 A3009 40 50 900 220/08 RMK AO2 T02170111
13870KAMG AMG20160301124010903/01/16 12:40:31  5-MIN KAMG 011740Z AUTO 22007KT 10SM BKN055 22/11 A3009 50 50 900 220/07 RMK AO2 T02170111
13870KAMG AMG20160301124511603/01/16 12:45:31  5-MIN KAMG 011745Z AUTO 21007KT 10SM SCT050 BKN060 22/11 A3008 50 50 900 210/07 RMK AO2 T02170111
13870KAMG AMG20160301125013403/01/16 12:50:31  5-MIN KAMG 011750Z AUTO 22008KT 10SM BKN055 22/11 A3008 50 49 900 230/08 RMK AO2 SLP184 T02220111 10228 20072 50008
13870KAMG AMG20160301125511003/01/16 12:55:31  5-MIN KAMG 011755Z AUTO 24006KT 10SM BKN055 22/11 A3008 60 49 1000 240/06 RMK AO2 T02220111
13870KAMG AMG20160301130011003/01/16 13:00:31  5-MIN KAMG 011800Z AUTO 20009KT 10SM BKN055 23/11 A3007 60 47 1000 200/09 RMK AO2 T02280111
13870KAMG AMG20160301130511603/01/16 13:05:31  5-MIN KAMG 011805Z AUTO 23010G15KT 10SM BKN055 24/11 A3007 60 44 1100 230/10G15 RMK AO2 T02390111
13870KAMG AMG20160301131011703/01/16 13:10:31  5-MIN KAMG 011810Z AUTO 20008KT 10SM SCT050 BKN060 23/11 A3007 60 44 1100 210/08 RMK AO2 T02330106
13870KAMG AMG20160301131511703/01/16 13:15:31  5-MIN KAMG 011815Z AUTO 21010KT 10SM FEW050 BKN060 23/11 A3007 70 45 1000 220/10 RMK AO2 T02280106
13870KAMG AMG20160301132011703/01/16 13:20:31  5-MIN KAMG 011820Z AUTO 21009KT 10SM FEW050 BKN060 23/11 A3006 70 44 1100 210/09 RMK AO2 T02330106
13870KAMG AMG20160301132511703/01/16 13:25:31  5-MIN KAMG 011825Z AUTO 20011KT 10SM FEW050 BKN060 23/11 A3006 70 45 1000 200/11 RMK AO2 T02280106
13870KAMG AMG20160301133011603/01/16 13:30:31  5-MIN KAMG 011830Z AUTO 23010G15KT 10SM BKN060 23/11 A3006 70 44 1100 230/10G15 RMK AO2 T02330106
13870KAMG AMG20160301133511603/01/16 13:35:31  5-MIN KAMG 011835Z AUTO 21009G15KT 10SM SCT060 23/10 A3006 70 42 1100 210/09G15 RMK AO2 T02330100
13870KAMG AMG20160301134011003/01/16 13:40:31  5-MIN KAMG 011840Z AUTO 21011KT 10SM FEW060 24/11 A3006 70 42 1200 220/11 RMK AO2 T02390106
13870KAMG AMG20160301134511003/01/16 13:45:31  5-MIN KAMG 011845Z AUTO 22009KT 10SM SCT065 23/10 A3006 70 44 1000 220/09 RMK AO2 T02280100
13870KAMG AMG20160301135012303/01/16 13:50:31  5-MIN KAMG 011850Z AUTO 21012G17KT 10SM BKN065 23/11 A3006 70 44 1100 220/12G17 RMK AO2 SLP177 T02330106
13870KAMG AMG20160301135511603/01/16 13:55:31  5-MIN KAMG 011855Z AUTO 23009G17KT 10SM BKN065 23/10 A3006 80 44 1000 240/09G17 RMK AO2 T02280100
13870KAMG AMG20160301140011603/01/16 14:00:31  5-MIN KAMG 011900Z AUTO 23006G15KT 10SM BKN060 23/11 A3005 80 45 1000 240/06G15 RMK AO2 T02280106
13870KAMG AMG20160301140511703/01/16 14:05:31  5-MIN KAMG 011905Z AUTO 21008KT 10SM BKN055 BKN070 24/11 A3004 90 44 1200 220/08 RMK AO2 T02390111
13870KAMG AMG20160301141012603/01/16 14:10:31  5-MIN KAMG 011910Z AUTO 21007KT 180V240 10SM BKN060 24/10 A3004 90 41 1200 220/07 190V250 RMK AO2 T02390100
13870KAMG AMG20160301141511703/01/16 14:15:31  5-MIN KAMG 011915Z AUTO 23011KT 10SM BKN055 BKN070 24/11 A3004 90 41 1200 230/11 RMK AO2 T02440106
13870KAMG AMG20160301142011703/01/16 14:20:31  5-MIN KAMG 011920Z AUTO 25009KT 10SM BKN055 BKN070 23/09 A3004 90 41 1100 260/09 RMK AO2 T02330094
13870KAMG AMG20160301142511803/01/16 14:25:31  5-MIN KAMG 011925Z AUTO 23010KT 10SM BKN055 BKN070 23/10 A3004 100 42 1100 230/10 RMK AO2 T02330100
13870KAMG AMG20160301143011803/01/16 14:30:31  5-MIN KAMG 011930Z AUTO 23008KT 10SM SCT055 SCT070 23/10 A3003 100 44 1100 230/08 RMK AO2 T02280100
13870KAMG AMG20160301143511703/01/16 14:35:31  5-MIN KAMG 011935Z AUTO 21009G15KT 10SM BKN060 23/10 A3003 100 42 1100 210/09G15 RMK AO2 T02330100
13870KAMG AMG20160301144011703/01/16 14:40:31  5-MIN KAMG 011940Z AUTO 23010G16KT 10SM BKN060 24/10 A3003 100 41 1200 240/10G16 RMK AO2 T02390100
13870KAMG AMG20160301144511103/01/16 14:45:31  5-MIN KAMG 011945Z AUTO 22011KT 10SM SCT060 24/10 A3003 100 41 1200 230/11 RMK AO2 T02390100
13870KAMG AMG20160301145011803/01/16 14:50:31  5-MIN KAMG 011950Z AUTO 23010KT 10SM SCT060 24/10 A3003 100 41 1200 240/10 RMK AO2 SLP166 T02390100
13870KAMG AMG20160301145511703/01/16 14:55:31  5-MIN KAMG 011955Z AUTO 19011G16KT 10SM SCT060 23/10 A3003 100 42 1100 200/11G16 RMK AO2 T02330100
13870KAMG AMG20160301150011703/01/16 15:00:31  5-MIN KAMG 012000Z AUTO 21011G16KT 10SM BKN060 24/11 A3002 110 42 1200 210/11G16 RMK AO2 T02390106
13870KAMG AMG20160301150511103/01/16 15:05:31  5-MIN KAMG 012005Z AUTO 20010KT 10SM SCT060 24/10 A3002 110 41 1200 210/10 RMK AO2 T02390100
13870KAMG AMG20160301151011103/01/16 15:10:31  5-MIN KAMG 012010Z AUTO 24009KT 10SM SCT060 24/11 A3001 120 42 1200 240/09 RMK AO2 T02390106
13870KAMG AMG20160301151511103/01/16 15:15:31  5-MIN KAMG 012015Z AUTO 21011KT 10SM SCT060 24/10 A3002 110 41 1200 220/11 RMK AO2 T02390100
13870KAMG AMG20160301152011103/01/16 15:20:31  5-MIN KAMG 012020Z AUTO 23010KT 10SM SCT060 24/10 A3002 110 41 1200 230/10 RMK AO2 T02390100
13870KAMG AMG20160301152511103/01/16 15:25:31  5-MIN KAMG 012025Z AUTO 22009KT 10SM BKN060 24/10 A3003 100 41 1200 220/09 RMK AO2 T02390100
13870KAMG AMG20160301153011103/01/16 15:30:31  5-MIN KAMG 012030Z AUTO 21009KT 10SM SCT060 23/10 A3003 110 42 1100 210/09 RMK AO2 T02330100
13870KAMG AMG20160301153511103/01/16 15:35:31  5-MIN KAMG 012035Z AUTO 24008KT 10SM BKN060 23/10 A3002 110 42 1100 240/08 RMK AO2 T02330100
13870KAMG AMG20160301154011103/01/16 15:40:31  5-MIN KAMG 012040Z AUTO 22006KT 10SM BKN060 23/10 A3002 110 42 1100 220/06 RMK AO2 T02330100
13870KAMG AMG20160301154511103/01/16 15:45:31  5-MIN KAMG 012045Z AUTO 24010KT 10SM BKN060 24/10 A3002 110 41 1200 250/10 RMK AO2 T02390100
13870KAMG AMG20160301155013003/01/16 15:50:31  5-MIN KAMG 012050Z AUTO 23012G18KT 10SM BKN060 24/10 A3002 110 41 1200 230/12G18 RMK AO2 SLP164 T02390100 58026
13870KAMG AMG20160301155511703/01/16 15:55:31  5-MIN KAMG 012055Z AUTO 23009G18KT 10SM BKN060 23/10 A3002 110 42 1100 230/09G18 RMK AO2 T02330100
13870KAMG AMG20160301160011103/01/16 16:00:31  5-MIN KAMG 012100Z AUTO 24009KT 10SM BKN060 24/10 A3002 110 41 1200 240/09 RMK AO2 T02390100
13870KAMG AMG20160301160511103/01/16 16:05:31  5-MIN KAMG 012105Z AUTO 25009KT 10SM BKN065 23/10 A3002 110 42 1100 250/09 RMK AO2 T02330100
13870KAMG AMG20160301161011703/01/16 16:10:31  5-MIN KAMG 012110Z AUTO 23011G16KT 10SM BKN065 23/09 A3002 110 41 1100 240/11G16 RMK AO2 T02330094
13870KAMG AMG20160301161511103/01/16 16:15:31  5-MIN KAMG 012115Z AUTO 23010KT 10SM BKN070 23/09 A3002 110 39 1100 240/10 RMK AO2 T02330089
13870KAMG AMG20160301162011103/01/16 16:20:31  5-MIN KAMG 012120Z AUTO 23010KT 10SM BKN070 23/09 A3002 110 41 1100 230/10 RMK AO2 T02330094
13870KAMG AMG20160301162511103/01/16 16:25:31  5-MIN KAMG 012125Z AUTO 25008KT 10SM BKN070 23/10 A3002 110 42 1100 250/08 RMK AO2 T02330100
13870KAMG AMG20160301163011103/01/16 16:30:31  5-MIN KAMG 012130Z AUTO 22008KT 10SM BKN070 24/10 A3001 120 41 1200 230/08 RMK AO2 T02390100
13870KAMG AMG20160301163511703/01/16 16:35:31  5-MIN KAMG 012135Z AUTO 24010G14KT 10SM BKN070 24/10 A3001 120 41 1200 240/10G14 RMK AO2 T02390100
13870KAMG AMG20160301164011103/01/16 16:40:31  5-MIN KAMG 012140Z AUTO 24010KT 10SM BKN070 23/09 A3001 120 41 1200 250/10 RMK AO2 T02330094
13870KAMG AMG20160301164511103/01/16 16:45:31  5-MIN KAMG 012145Z AUTO 24011KT 10SM BKN070 23/09 A3002 110 42 1100 240/11 RMK AO2 T02280094
13870KAMG AMG20160301165011803/01/16 16:50:31  5-MIN KAMG 012150Z AUTO 25008KT 10SM BKN070 23/09 A3002 110 42 1100 250/08 RMK AO2 SLP163 T02280094
13870KAMG AMG20160301165511103/01/16 16:55:31  5-MIN KAMG 012155Z AUTO 23007KT 10SM BKN070 23/10 A3002 110 42 1100 240/07 RMK AO2 T02330100
13870KAMG AMG20160301170011103/01/16 17:00:31  5-MIN KAMG 012200Z AUTO 21010KT 10SM BKN070 23/10 A3001 120 42 1200 220/10 RMK AO2 T02330100
13870KAMG AMG20160301170511103/01/16 17:05:31  5-MIN KAMG 012205Z AUTO 25009KT 10SM BKN070 23/10 A3001 120 42 1200 250/09 RMK AO2 T02330100
13870KAMG AMG20160301171011103/01/16 17:10:31  5-MIN KAMG 012210Z AUTO 23010KT 10SM BKN070 23/10 A3001 120 44 1100 240/10 RMK AO2 T02280100
13870KAMG AMG20160301171511103/01/16 17:15:31  5-MIN KAMG 012215Z AUTO 23008KT 10SM SCT070 23/10 A3001 120 42 1200 230/08 RMK AO2 T02330100
13870KAMG AMG20160301172011103/01/16 17:20:31  5-MIN KAMG 012220Z AUTO 23008KT 10SM FEW070 23/10 A3001 120 44 1100 240/08 RMK AO2 T02280100
13870KAMG AMG20160301172511103/01/16 17:25:31  5-MIN KAMG 012225Z AUTO 24007KT 10SM FEW075 23/10 A3001 120 44 1100 240/07 RMK AO2 T02280100
13870KAMG AMG20160301173011103/01/16 17:30:31  5-MIN KAMG 012230Z AUTO 24007KT 10SM FEW075 23/10 A3001 120 44 1100 240/07 RMK AO2 T02280100
13870KAMG AMG20160301173511103/01/16 17:35:31  5-MIN KAMG 012235Z AUTO 23007KT 10SM FEW075 23/10 A3001 120 44 1100 240/07 RMK AO2 T02280100
13870KAMG AMG20160301174011103/01/16 17:40:31  5-MIN KAMG 012240Z AUTO 23007KT 10SM FEW075 23/10 A3001 120 44 1100 240/07 RMK AO2 T02280100
13870KAMG AMG20160301174511103/01/16 17:45:31  5-MIN KAMG 012245Z AUTO 24007KT 10SM FEW075 23/10 A3001 120 44 1100 240/07 RMK AO2 T02280100
13870KAMG AMG20160301175011803/01/16 17:50:31  5-MIN KAMG 012250Z AUTO 23007KT 10SM FEW075 22/10 A3001 120 45 1000 230/07 RMK AO2 SLP162 T02220100
13870KAMG AMG20160301175510803/01/16 17:55:31  5-MIN KAMG 012255Z AUTO 23005KT 10SM CLR 22/10 A3001 120 45 1000 230/05 RMK AO2 T02220100
13870KAMG AMG20160301180011103/01/16 18:00:31  5-MIN KAMG 012300Z AUTO 22005KT 10SM FEW080 22/11 A3001 120 49 1000 230/05 RMK AO2 T02170106
13870KAMG AMG20160301180511103/01/16 18:05:31  5-MIN KAMG 012305Z AUTO 23005KT 10SM SCT080 22/11 A3001 120 49 1000 230/05 RMK AO2 T02170106
13870KAMG AMG20160301181011103/01/16 18:10:31  5-MIN KAMG 012310Z AUTO 22004KT 10SM SCT080 22/11 A3001 120 49 1000 220/04 RMK AO2 T02170106
13870KAMG AMG20160301181511003/01/16 18:15:31  5-MIN KAMG 012315Z AUTO 20004KT 10SM BKN080 21/11 A3001 120 50 900 210/04 RMK AO2 T02110106
13870KAMG AMG20160301182011003/01/16 18:20:31  5-MIN KAMG 012320Z AUTO 20004KT 10SM BKN080 21/11 A3001 120 54 800 210/04 RMK AO2 T02060111
13870KAMG AMG20160301182511003/01/16 18:25:31  5-MIN KAMG 012325Z AUTO 21004KT 10SM BKN080 21/11 A3001 120 54 800 220/04 RMK AO2 T02060111
13870KAMG AMG20160301183011003/01/16 18:30:31  5-MIN KAMG 012330Z AUTO 21003KT 10SM BKN080 21/11 A3000 130 54 800 210/03 RMK AO2 T02060111
13870KAMG AMG20160301183511003/01/16 18:35:31  5-MIN KAMG 012335Z AUTO 19003KT 10SM BKN075 20/11 A3000 130 54 800 190/03 RMK AO2 T02000106
13870KAMG AMG20160301184011003/01/16 18:40:31  5-MIN KAMG 012340Z AUTO 19004KT 10SM BKN075 19/11 A3000 130 60 700 190/04 RMK AO2 T01890111
13870KAMG AMG20160301184511003/01/16 18:45:31  5-MIN KAMG 012345Z AUTO 19003KT 10SM BKN075 19/11 A3000 130 60 700 200/03 RMK AO2 T01890111
13870KAMG AMG20160301185013503/01/16 18:50:31  5-MIN KAMG 012350Z AUTO 18004KT 10SM BKN075 19/11 A2999 130 60 700 190/04 RMK AO2 SLP155 T01890111 10244 20189 56018
13870KAMG AMG20160301185511003/01/16 18:55:31  5-MIN KAMG 012355Z AUTO 18004KT 10SM SCT075 18/11 A2999 140 62 600 180/04 RMK AO2 T01830111
13870KAMG AMG20160301190011003/01/16 19:00:31  5-MIN KAMG 020000Z AUTO 19003KT 10SM FEW075 18/11 A2999 140 62 600 190/03 RMK AO2 T01830111
13870KAMG AMG20160301190511003/01/16 19:05:31  5-MIN KAMG 020005Z AUTO 18003KT 10SM FEW075 18/11 A2999 140 62 600 180/03 RMK AO2 T01830111
13870KAMG AMG20160301191011003/01/16 19:10:31  5-MIN KAMG 020010Z AUTO 18004KT 10SM FEW075 18/11 A2999 140 64 500 190/04 RMK AO2 T01780111
13870KAMG AMG20160301191510703/01/16 19:15:31  5-MIN KAMG 020015Z AUTO 18004KT 10SM CLR 18/11 A2999 140 64 500 180/04 RMK AO2 T01780111
13870KAMG AMG20160301192010703/01/16 19:20:31  5-MIN KAMG 020020Z AUTO 18004KT 10SM CLR 18/11 A2999 140 64 500 180/04 RMK AO2 T01780111
13870KAMG AMG20160301192510703/01/16 19:25:31  5-MIN KAMG 020025Z AUTO 00000KT 10SM CLR 17/11 A2999 140 67 500 000/00 RMK AO2 T01720111
13870KAMG AMG20160301193010703/01/16 19:30:31  5-MIN KAMG 020030Z AUTO 19003KT 10SM CLR 18/11 A2998 140 64 500 190/03 RMK AO2 T01780111
13870KAMG AMG20160301193510703/01/16 19:35:31  5-MIN KAMG 020035Z AUTO 19003KT 10SM CLR 17/11 A2998 140 67 500 190/03 RMK AO2 T01720111
13870KAMG AMG20160301194010703/01/16 19:40:31  5-MIN KAMG 020040Z AUTO 18003KT 10SM CLR 17/11 A2998 140 67 500 190/03 RMK AO2 T01720111
13870KAMG AMG20160301194510703/01/16 19:45:31  5-MIN KAMG 020045Z AUTO 18003KT 10SM CLR 17/13 A2998 150 77 400 180/03 RMK AO2 T01670128
13870KAMG AMG20160301195011403/01/16 19:50:31  5-MIN KAMG 020050Z AUTO 18004KT 10SM CLR 16/12 A2998 150 77 400 190/04 RMK AO2 SLP151 T01610122
13870KAMG AMG20160301195510703/01/16 19:55:31  5-MIN KAMG 020055Z AUTO 18004KT 10SM CLR 17/12 A2998 150 72 400 190/04 RMK AO2 T01670117
13870KAMG AMG20160301200010703/01/16 20:00:31  5-MIN KAMG 020100Z AUTO 17004KT 10SM CLR 16/11 A2998 150 72 400 180/04 RMK AO2 T01610111
13870KAMG AMG20160301200510703/01/16 20:05:31  5-MIN KAMG 020105Z AUTO 19005KT 10SM CLR 17/11 A2998 150 69 400 190/05 RMK AO2 T01670111
13870KAMG AMG20160301201010703/01/16 20:10:31  5-MIN KAMG 020110Z AUTO 20004KT 10SM CLR 18/11 A2998 150 62 600 210/04 RMK AO2 T01780106
13870KAMG AMG20160301201510703/01/16 20:15:31  5-MIN KAMG 020115Z AUTO 19005KT 10SM CLR 18/11 A2997 150 64 600 190/05 RMK AO2 T01780111
13870KAMG AMG20160301202010703/01/16 20:20:31  5-MIN KAMG 020120Z AUTO 20005KT 10SM CLR 18/11 A2997 150 62 600 210/05 RMK AO2 T01780106
13870KAMG AMG20160301202510703/01/16 20:25:31  5-MIN KAMG 020125Z AUTO 20005KT 10SM CLR 18/11 A2997 150 64 600 210/05 RMK AO2 T01780111
13870KAMG AMG20160301203010703/01/16 20:30:31  5-MIN KAMG 020130Z AUTO 20006KT 10SM CLR 18/11 A2997 150 64 600 200/06 RMK AO2 T01780111
13870KAMG AMG20160301203510703/01/16 20:35:31  5-MIN KAMG 020135Z AUTO 20006KT 10SM CLR 18/11 A2997 150 64 600 210/06 RMK AO2 T01780111
13870KAMG AMG20160301204010703/01/16 20:40:31  5-MIN KAMG 020140Z AUTO 20007KT 10SM CLR 18/11 A2998 150 64 600 200/07 RMK AO2 T01780111
13870KAMG AMG20160301204511303/01/16 20:45:31  5-MIN KAMG 020145Z AUTO 20010G18KT 10SM CLR 18/11 A2998 150 62 600 210/10G18 RMK AO2 T01830111
13870KAMG AMG20160301205012003/01/16 20:50:31  5-MIN KAMG 020150Z AUTO 21011G18KT 10SM CLR 18/12 A2998 150 65 600 210/11G18 RMK AO2 SLP151 T01830117
13870KAMG AMG20160301205510703/01/16 20:55:31  5-MIN KAMG 020155Z AUTO 21011KT 10SM CLR 18/12 A2998 150 65 600 210/11 RMK AO2 T01830117
13870KAMG AMG20160301210010703/01/16 21:00:31  5-MIN KAMG 020200Z AUTO 20009KT 10SM CLR 18/12 A2998 150 65 600 210/09 RMK AO2 T01830117
13870KAMG AMG20160301210510703/01/16 21:05:31  5-MIN KAMG 020205Z AUTO 20010KT 10SM CLR 18/12 A2998 150 65 600 210/10 RMK AO2 T01830117
13870KAMG AMG20160301211010703/01/16 21:10:31  5-MIN KAMG 020210Z AUTO 21009KT 10SM CLR 18/12 A2998 150 67 600 210/09 RMK AO2 T01830122
13870KAMG AMG20160301211510703/01/16 21:15:31  5-MIN KAMG 020215Z AUTO 21010KT 10SM CLR 18/12 A2998 150 67 600 220/10 RMK AO2 T01830122
13870KAMG AMG20160301212010703/01/16 21:20:31  5-MIN KAMG 020220Z AUTO 21010KT 10SM CLR 18/12 A2998 150 67 600 210/10 RMK AO2 T01830122
13870KAMG AMG20160301212510703/01/16 21:25:31  5-MIN KAMG 020225Z AUTO 21009KT 10SM CLR 18/12 A2998 150 67 600 210/09 RMK AO2 T01830122
13870KAMG AMG20160301213010703/01/16 21:30:31  5-MIN KAMG 020230Z AUTO 21009KT 10SM CLR 18/12 A2998 150 67 600 210/09 RMK AO2 T01830122
13870KAMG AMG20160301213510703/01/16 21:35:31  5-MIN KAMG 020235Z AUTO 21011KT 10SM CLR 18/12 A2998 150 67 600 210/11 RMK AO2 T01830122
13870KAMG AMG20160301214010703/01/16 21:40:31  5-MIN KAMG 020240Z AUTO 21012KT 10SM CLR 18/12 A2998 150 67 600 210/12 RMK AO2 T01830122
13870KAMG AMG20160301214510703/01/16 21:45:31  5-MIN KAMG 020245Z AUTO 21012KT 10SM CLR 18/12 A2997 150 67 600 210/12 RMK AO2 T01830122
13870KAMG AMG20160301215012003/01/16 21:50:31  5-MIN KAMG 020250Z AUTO 21011KT 10SM CLR 18/12 A2997 150 65 600 210/11 RMK AO2 SLP148 T01830117 58011
13870KAMG AMG20160301215510703/01/16 21:55:31  5-MIN KAMG 020255Z AUTO 21010KT 10SM CLR 18/12 A2997 160 65 600 220/10 RMK AO2 T01830117
13870KAMG AMG20160301220010703/01/16 22:00:31  5-MIN KAMG 020300Z AUTO 21010KT 10SM CLR 18/12 A2997 160 65 600 210/10 RMK AO2 T01830117
13870KAMG AMG20160301220510703/01/16 22:05:31  5-MIN KAMG 020305Z AUTO 21008KT 10SM CLR 18/11 A2997 150 64 600 210/08 RMK AO2 T01780111
13870KAMG AMG20160301221011303/01/16 22:10:31  5-MIN KAMG 020310Z AUTO 21011G16KT 10SM CLR 18/11 A2998 150 64 600 210/11G16 RMK AO2 T01780111
13870KAMG AMG20160301221510703/01/16 22:15:31  5-MIN KAMG 020315Z AUTO 21009KT 10SM CLR 18/11 A2998 150 64 500 220/09 RMK AO2 T01780111
13870KAMG AMG20160301222010703/01/16 22:20:31  5-MIN KAMG 020320Z AUTO 21011KT 10SM CLR 18/11 A2998 150 62 500 220/11 RMK AO2 T01780106
13870KAMG AMG20160301222510703/01/16 22:25:31  5-MIN KAMG 020325Z AUTO 21009KT 10SM CLR 18/11 A2998 150 62 600 220/09 RMK AO2 T01780106
13870KAMG AMG20160301223010703/01/16 22:30:31  5-MIN KAMG 020330Z AUTO 21009KT 10SM CLR 18/11 A2998 150 62 600 220/09 RMK AO2 T01780106
13870KAMG AMG20160301223510703/01/16 22:35:31  5-MIN KAMG 020335Z AUTO 21008KT 10SM CLR 18/11 A2998 150 62 600 210/08 RMK AO2 T01780106
13870KAMG AMG20160301224010703/01/16 22:40:31  5-MIN KAMG 020340Z AUTO 22010KT 10SM CLR 18/10 A2998 150 60 500 220/10 RMK AO2 T01780100
13870KAMG AMG20160301224510703/01/16 22:45:31  5-MIN KAMG 020345Z AUTO 22007KT 10SM CLR 18/10 A2998 140 60 500 220/07 RMK AO2 T01780100
13870KAMG AMG20160301225011403/01/16 22:50:31  5-MIN KAMG 020350Z AUTO 22010KT 10SM CLR 18/10 A2999 140 60 500 230/10 RMK AO2 SLP152 T01780100
13870KAMG AMG20160301225510703/01/16 22:55:31  5-MIN KAMG 020355Z AUTO 22008KT 10SM CLR 18/10 A2999 140 60 500 220/08 RMK AO2 T01780100
13870KAMG AMG20160301230010703/01/16 23:00:31  5-MIN KAMG 020400Z AUTO 22009KT 10SM CLR 18/10 A2999 140 60 500 230/09 RMK AO2 T01780100
13870KAMG AMG20160301230511003/01/16 23:05:31  5-MIN KAMG 020405Z AUTO 22009KT 10SM FEW050 18/10 A2999 140 60 500 230/09 RMK AO2 T01780100
13870KAMG AMG20160301231011003/01/16 23:10:31  5-MIN KAMG 020410Z AUTO 21011KT 10SM SCT048 18/10 A2999 140 60 500 210/11 RMK AO2 T01780100
13870KAMG AMG20160301231511703/01/16 23:15:31  5-MIN KAMG 020415Z AUTO 20008KT 10SM BKN048 BKN060 18/10 A2998 150 60 500 210/08 RMK AO2 T01780100
13870KAMG AMG20160301232011703/01/16 23:20:31  5-MIN KAMG 020420Z AUTO 21010KT 10SM SCT048 BKN060 17/09 A2998 150 60 500 210/10 RMK AO2 T01720094
13870KAMG AMG20160301232511703/01/16 23:25:31  5-MIN KAMG 020425Z AUTO 21009KT 10SM SCT048 SCT060 17/09 A2998 150 60 500 220/09 RMK AO2 T01720094
13870KAMG AMG20160301233011703/01/16 23:30:31  5-MIN KAMG 020430Z AUTO 21009KT 10SM SCT048 SCT060 17/09 A2998 150 60 500 220/09 RMK AO2 T01720094
13870KAMG AMG20160301233511703/01/16 23:35:31  5-MIN KAMG 020435Z AUTO 21008KT 10SM FEW048 SCT060 17/09 A2998 150 60 500 220/08 RMK AO2 T01720094
13870KAMG AMG20160301234011003/01/16 23:40:31  5-MIN KAMG 020440Z AUTO 21009KT 10SM FEW060 17/09 A2998 150 60 500 220/09 RMK AO2 T01720094
13870KAMG AMG20160301234510703/01/16 23:45:31  5-MIN KAMG 020445Z AUTO 21010KT 10SM CLR 17/09 A2998 150 60 500 220/10 RMK AO2 T01720094
13870KAMG AMG20160301235012403/01/16 23:50:31  5-MIN KAMG 020450Z AUTO 22009KT 10SM CLR 17/09 A2998 150 60 500 220/09 RMK AO2 SLP149 T01720094 402440072
13870KAMG AMG20160301235511003/01/16 23:55:31  5-MIN KAMG 020455Z AUTO 21008KT 10SM FEW049 17/09 A2997 160 60 500 210/08 RMK AO2 T01720094
13870KAMG AMG20160302000010703/02/16 00:00:31  5-MIN KAMG 020500Z AUTO 21010KT 10SM CLR 17/09 A2997 150 62 400 210/10 RMK AO2 T01670094
13870KAMG AMG20160302000511003/02/16 00:05:31  5-MIN KAMG 020505Z AUTO 22009KT 10SM FEW042 17/09 A2998 150 60 500 220/09 RMK AO2 T01720094
13870KAMG AMG20160302001011003/02/16 00:10:31  5-MIN KAMG 020510Z AUTO 21009KT 10SM FEW042 17/09 A2998 150 60 500 220/09 RMK AO2 T01720094
13870KAMG AMG20160302001511003/02/16 00:15:31  5-MIN KAMG 020515Z AUTO 21007KT 10SM FEW042 16/09 A2998 150 64 400 220/07 RMK AO2 T01610094
13870KAMG AMG20160302002011003/02/16 00:20:31  5-MIN KAMG 020520Z AUTO 20007KT 10SM FEW044 17/09 A2997 160 62 400 210/07 RMK AO2 T01670094
13870KAMG AMG20160302002511003/02/16 00:25:31  5-MIN KAMG 020525Z AUTO 20008KT 10SM FEW044 17/09 A2997 160 62 400 210/08 RMK AO2 T01670094
13870KAMG AMG20160302003011003/02/16 00:30:31  5-MIN KAMG 020530Z AUTO 21008KT 10SM SCT043 17/09 A2997 160 62 400 210/08 RMK AO2 T01670094
13870KAMG AMG20160302003511003/02/16 00:35:31  5-MIN KAMG 020535Z AUTO 21009KT 10SM SCT041 17/09 A2997 160 62 400 210/09 RMK AO2 T01670094
13870KAMG AMG20160302004011703/02/16 00:40:31  5-MIN KAMG 020540Z AUTO 22007KT 10SM FEW033 SCT041 17/09 A2997 150 62 400 220/07 RMK AO2 T01670094
13870KAMG AMG20160302004511703/02/16 00:45:31  5-MIN KAMG 020545Z AUTO 21006KT 10SM SCT035 BKN044 17/09 A2997 160 62 400 210/06 RMK AO2 T01670094
13870KAMG AMG20160302005014903/02/16 00:50:31  5-MIN KAMG 020550Z AUTO 21007KT 10SM FEW025 SCT033 SCT041 17/09 A2997 160 62 400 220/07 RMK AO2 SLP145 T01670094 10183 20161 56006
13870KAMG AMG20160302005512403/02/16 00:55:31  5-MIN KAMG 020555Z AUTO 22007KT 10SM FEW025 SCT033 BKN041 17/09 A2997 160 62 400 220/07 RMK AO2 T01670094
13870KAMG AMG20160302010011703/02/16 01:00:31  5-MIN KAMG 020600Z AUTO 21008KT 10SM FEW027 SCT036 17/09 A2997 160 62 400 220/08 RMK AO2 T01670094
13870KAMG AMG20160302010511703/02/16 01:05:31  5-MIN KAMG 020605Z AUTO 21010KT 10SM FEW027 SCT036 17/09 A2997 160 62 400 210/10 RMK AO2 T01670094
13870KAMG AMG20160302011011703/02/16 01:10:31  5-MIN KAMG 020610Z AUTO 21009KT 10SM FEW027 FEW034 17/09 A2997 160 62 400 220/09 RMK AO2 T01670094
13870KAMG AMG20160302011511003/02/16 01:15:31  5-MIN KAMG 020615Z AUTO 21010KT 10SM FEW027 17/09 A2996 160 62 400 210/10 RMK AO2 T01670094
13870KAMG AMG20160302012010703/02/16 01:20:31  5-MIN KAMG 020620Z AUTO 20011KT 10SM CLR 17/09 A2996 170 62 400 210/11 RMK AO2 T01670094
13870KAMG AMG20160302012511003/02/16 01:25:31  5-MIN KAMG 020625Z AUTO 21008KT 10SM FEW120 17/09 A2996 170 62 400 210/08 RMK AO2 T01670094
13870KAMG AMG20160302013011003/02/16 01:30:31  5-MIN KAMG 020630Z AUTO 20009KT 10SM FEW120 17/09 A2996 170 62 400 210/09 RMK AO2 T01670094
13870KAMG AMG20160302013511703/02/16 01:35:31  5-MIN KAMG 020635Z AUTO 20009KT 10SM FEW028 FEW120 17/09 A2996 170 62 400 210/09 RMK AO2 T01670094
13870KAMG AMG20160302014011703/02/16 01:40:31  5-MIN KAMG 020640Z AUTO 21007KT 10SM FEW028 FEW120 17/09 A2995 170 62 400 210/07 RMK AO2 T01670094
13870KAMG AMG20160302014511703/02/16 01:45:31  5-MIN KAMG 020645Z AUTO 22008KT 10SM FEW028 FEW120 17/09 A2995 170 62 400 220/08 RMK AO2 T01670094
13870KAMG AMG20160302015012403/02/16 01:50:31  5-MIN KAMG 020650Z AUTO 21008KT 10SM FEW026 SCT110 17/10 A2995 170 64 400 210/08 RMK AO2 SLP140 T01670100
13870KAMG AMG20160302015512403/02/16 01:55:31  5-MIN KAMG 020655Z AUTO 21008KT 10SM FEW028 FEW039 SCT110 17/10 A2995 180 64 500 220/08 RMK AO2 T01670100
13870KAMG AMG20160302020012403/02/16 02:00:31  5-MIN KAMG 020700Z AUTO 21007KT 10SM FEW023 SCT038 BKN110 17/10 A2994 180 64 500 220/07 RMK AO2 T01670100
13870KAMG AMG20160302020512403/02/16 02:05:31  5-MIN KAMG 020705Z AUTO 21008KT 10SM FEW018 SCT027 BKN100 16/10 A2994 190 67 400 210/08 RMK AO2 T01610100
13870KAMG AMG20160302021013103/02/16 02:10:31  5-MIN KAMG 020710Z AUTO 20008KT 10SM FEW018 FEW027 BKN100 16/10 A2993 190 67 400 210/08 RMK AO2 PRESFR T01610100
13870KAMG AMG20160302021513103/02/16 02:15:31  5-MIN KAMG 020715Z AUTO 19009KT 10SM SCT018 SCT027 BKN100 16/10 A2992 200 67 400 200/09 RMK AO2 PRESFR T01610100
13870KAMG AMG20160302022011703/02/16 02:20:31  5-MIN KAMG 020720Z AUTO 20009KT 10SM SCT017 SCT100 16/11 A2992 200 69 400 210/09 RMK AO2 T01610106
13870KAMG AMG20160302022511703/02/16 02:25:31  5-MIN KAMG 020725Z AUTO 21008KT 10SM SCT017 SCT100 16/11 A2993 190 69 400 220/08 RMK AO2 T01610106
13870KAMG AMG20160302023011003/02/16 02:30:31  5-MIN KAMG 020730Z AUTO 22008KT 10SM SCT017 16/11 A2994 190 69 400 230/08 RMK AO2 T01610106
13870KAMG AMG20160302023511003/02/16 02:35:31  5-MIN KAMG 020735Z AUTO 23008KT 10SM SCT017 17/11 A2994 190 67 500 230/08 RMK AO2 T01670106
13870KAMG AMG20160302024011003/02/16 02:40:31  5-MIN KAMG 020740Z AUTO 23007KT 10SM BKN017 17/11 A2994 190 69 500 240/07 RMK AO2 T01670111
13870KAMG AMG20160302024511003/02/16 02:45:31  5-MIN KAMG 020745Z AUTO 25007KT 10SM BKN018 17/11 A2994 180 69 500 260/07 RMK AO2 T01670111
13870KAMG AMG20160302025011703/02/16 02:50:31  5-MIN KAMG 020750Z AUTO 23007KT 10SM BKN018 17/11 A2994 190 69 500 240/07 RMK AO2 SLP135 T01670111
13870KAMG AMG20160302025511003/02/16 02:55:31  5-MIN KAMG 020755Z AUTO 23006KT 10SM OVC018 17/11 A2994 190 69 500 230/06 RMK AO2 T01670111
13870KAMG AMG20160302030011003/02/16 03:00:31  5-MIN KAMG 020800Z AUTO 25004KT 10SM OVC017 17/11 A2994 180 69 500 260/04 RMK AO2 T01670111
13870KAMG AMG20160302030511003/02/16 03:05:31  5-MIN KAMG 020805Z AUTO 24007KT 10SM OVC017 17/12 A2994 180 72 500 250/07 RMK AO2 T01670117
13870KAMG AMG20160302031011003/02/16 03:10:31  5-MIN KAMG 020810Z AUTO 25006KT 10SM OVC017 17/12 A2994 190 72 500 250/06 RMK AO2 T01670117
13870KAMG AMG20160302031511003/02/16 03:15:31  5-MIN KAMG 020815Z AUTO VRB06KT 10SM OVC017 17/12 A2993 190 75 500 VRB/06 RMK AO2 T01670122
13870KAMG AMG20160302032011003/02/16 03:20:31  5-MIN KAMG 020820Z AUTO 22009KT 10SM OVC017 17/12 A2993 200 75 500 220/09 RMK AO2 T01670122
13870KAMG AMG20160302032511703/02/16 03:25:31  5-MIN KAMG 020825Z AUTO 22009KT 10SM BKN017 OVC038 17/13 A2993 200 77 500 220/09 RMK AO2 T01670128
13870KAMG AMG20160302033011703/02/16 03:30:31  5-MIN KAMG 020830Z AUTO 22010KT 10SM BKN017 BKN038 17/13 A2992 200 77 500 230/10 RMK AO2 T01670128
13870KAMG AMG20160302033511703/02/16 03:35:31  5-MIN KAMG 020835Z AUTO 22008KT 10SM SCT017 BKN039 17/13 A2992 200 80 500 230/08 RMK AO2 T01670133
13870KAMG AMG20160302034012403/02/16 03:40:31  5-MIN KAMG 020840Z AUTO 23007KT 10SM FEW017 SCT039 BKN085 17/13 A2992 200 80 500 230/07 RMK AO2 T01670133
13870KAMG AMG20160302034512403/02/16 03:45:31  5-MIN KAMG 020845Z AUTO 23007KT 10SM FEW017 SCT041 BKN085 17/14 A2992 200 83 500 230/07 RMK AO2 T01670139
13870KAMG AMG20160302035013003/02/16 03:50:31  5-MIN KAMG 020850Z AUTO 23008KT 10SM BKN043 BKN085 17/14 A2992 200 83 500 230/08 RMK AO2 SLP131 T01720144 58002
13870KAMG AMG20160302035512403/02/16 03:55:31  5-MIN KAMG 020855Z AUTO 24007KT 10SM FEW017 BKN043 BKN085 17/14 A2992 200 83 500 240/07 RMK AO2 T01720144
13870KAMG AMG20160302040012403/02/16 04:00:31  5-MIN KAMG 020900Z AUTO 24008KT 10SM FEW017 BKN043 BKN085 17/14 A2992 200 83 500 250/08 RMK AO2 T01720144
13870KAMG AMG20160302040514003/02/16 04:05:31  5-MIN KAMG 020905Z AUTO 27008KT 230V300 10SM FEW017 BKN043 OVC085 17/15 A2993 190 87 500 280/08 240V310 RMK AO2 T01720150
13870KAMG AMG20160302041015403/02/16 04:10:31  5-MIN KAMG 020910Z AUTO 31014G25KT 6SM RA BR FEW017 BKN031 OVC043 17/14 A2994 180 86 500 320/14G25 RMK AO2 RAB10 PRESRR P0000 T01670144
13870KAMG AMG20160302041515503/02/16 04:15:31  5-MIN KAMG 020915Z AUTO 29010G25KT 5SM -RA BR FEW017 BKN030 OVC043 16/14 A2995 180 90 300 290/10G25 RMK AO2 RAB10 PRESRR P0000 T01560139
13870KAMG AMG20160302042014203/02/16 04:20:31  5-MIN KAMG 020920Z AUTO 30008KT 5SM -RA BR FEW010 BKN030 OVC043 15/14 A2995 170 96 300 310/08 RMK AO2 RAB10 P0001 T01500144
13870KAMG AMG20160302042514203/02/16 04:25:31  5-MIN KAMG 020925Z AUTO 30008KT 6SM -RA BR FEW013 BKN030 OVC043 15/14 A2995 170 96 300 310/08 RMK AO2 RAB10 P0001 T01500144
13870KAMG AMG20160302043013903/02/16 04:30:31  5-MIN KAMG 020930Z AUTO 30007KT 10SM FEW013 SCT023 OVC035 15/14 A2995 170 96 300 310/07 RMK AO2 RAB10E30 P0001 T01500144
13870KAMG AMG20160302043513903/02/16 04:35:31  5-MIN KAMG 020935Z AUTO 31007KT 10SM FEW013 SCT029 OVC035 15/14 A2996 170 96 200 310/07 RMK AO2 RAB10E30 P0001 T01500144
13870KAMG AMG20160302044013903/02/16 04:40:31  5-MIN KAMG 020940Z AUTO 31009KT 10SM FEW013 SCT029 OVC035 15/14 A2996 160 96 200 320/09 RMK AO2 RAB10E30 P0001 T01500144
13870KAMG AMG20160302044513203/02/16 04:45:31  5-MIN KAMG 020945Z AUTO 31010KT 10SM FEW013 OVC037 15/14 A2996 160 93 200 310/10 RMK AO2 RAB10E30 P0001 T01500139
13870KAMG AMG20160302045014503/02/16 04:50:31  5-MIN KAMG 020950Z AUTO 31010KT 7SM -RA FEW022 OVC037 15/14 A2997 160 93 200 310/10 RMK AO2 RAB10E30B50 SLP145 P0001 T01500139
13870KAMG AMG20160302045512903/02/16 04:55:31  5-MIN KAMG 020955Z AUTO 31008KT 6SM -RA BR FEW022 OVC039 15/14 A2996 160 93 200 320/08 RMK AO2 P0000 T01500139
13870KAMG AMG20160302050012603/02/16 05:00:31  5-MIN KAMG 021000Z AUTO 32008KT 9SM -RA FEW022 OVC041 14/14 A2997 160 96 200 320/08 RMK AO2 P0000 T01440139
13870KAMG AMG20160302050512903/02/16 05:05:31  5-MIN KAMG 021005Z AUTO 31008KT 10SM FEW022 OVC041 14/14 A2997 160 96 200 310/08 RMK AO2 RAE01 P0000 T01440139
13870KAMG AMG20160303002510603/03/16 00:25:31  5-MIN KAMG 030525Z AUTO 00000KT 10SM CLR 09/01 A3014 0 56 -600 000/00 RMK AO2 T00890006
13870KAMG AMG20160303003010603/03/16 00:30:31  5-MIN KAMG 030530Z AUTO 01003KT 10SM CLR 08/01 A3014 0 58 -700 020/03 RMK AO2 T00830006
13870KAMG AMG20160303003510603/03/16 00:35:31  5-MIN KAMG 030535Z AUTO 00000KT 10SM CLR 08/01 A3014 0 58 -700 000/00 RMK AO2 T00830006
13870KAMG AMG20160303004010603/03/16 00:40:31  5-MIN KAMG 030540Z AUTO 02003KT 10SM CLR 08/01 A3014 0 58 -700 030/03 RMK AO2 T00830006
13870KAMG AMG20160303004510603/03/16 00:45:31  5-MIN KAMG 030545Z AUTO 01003KT 10SM CLR 08/01 A3013 0 58 -700 010/03 RMK AO2 T00830006
13870KAMG AMG20160303005013103/03/16 00:50:31  5-MIN KAMG 030550Z AUTO 00000KT 10SM CLR 08/01 A3013 0 58 -700 000/00 RMK AO2 SLP203 T00830006 10144 20061 51016
13870KAMG AMG20160303005510703/03/16 00:55:31  5-MIN KAMG 030555Z AUTO 01003KT 10SM CLR 08/01 A3013 10 58 -700 020/03 RMK AO2 T00830006
13870KAMG AMG20160303010010703/03/16 01:00:31  5-MIN KAMG 030600Z AUTO VRB03KT 10SM CLR 08/01 A3013 10 58 -700 VRB/03 RMK AO2 T00830006
13870KAMG AMG20160303010510703/03/16 01:05:31  5-MIN KAMG 030605Z AUTO 02003KT 10SM CLR 08/01 A3013 10 60 -800 020/03 RMK AO2 T00780006
13870KAMG AMG20160303011010703/03/16 01:10:31  5-MIN KAMG 030610Z AUTO 03003KT 10SM CLR 08/01 A3013 10 60 -800 040/03 RMK AO2 T00780006
13870KAMG AMG20160303011510603/03/16 01:15:31  5-MIN KAMG 030615Z AUTO 02003KT 10SM CLR 08/01 A3013 0 60 -800 020/03 RMK AO2 T00780006
13870KAMG AMG20160303012010603/03/16 01:20:31  5-MIN KAMG 030620Z AUTO 00000KT 10SM CLR 08/01 A3014 0 60 -800 000/00 RMK AO2 T00780006
13870KAMG AMG20160303012510603/03/16 01:25:31  5-MIN KAMG 030625Z AUTO 00000KT 10SM CLR 08/01 A3014 0 60 -800 000/00 RMK AO2 T00780006
13870KAMG AMG20160303013010603/03/16 01:30:31  5-MIN KAMG 030630Z AUTO 00000KT 10SM CLR 07/01 A3014 0 62 -800 000/00 RMK AO2 T00720006
13870KAMG AMG20160303013510603/03/16 01:35:31  5-MIN KAMG 030635Z AUTO 00000KT 10SM CLR 07/01 A3014 0 65 -900 000/00 RMK AO2 T00670006
13870KAMG AMG20160303014010603/03/16 01:40:31  5-MIN KAMG 030640Z AUTO 00000KT 10SM CLR 07/01 A3014 0 65 -900 000/00 RMK AO2 T00670006
13870KAMG AMG20160303014510703/03/16 01:45:31  5-MIN KAMG 030645Z AUTO 00000KT 10SM CLR 06/01 A3015 0 67 -1000 000/00 RMK AO2 T00610006
13870KAMG AMG20160303015011303/03/16 01:50:31  5-MIN KAMG 030650Z AUTO 00000KT 10SM CLR 07/01 A3014 0 65 -900 000/00 RMK AO2 SLP205 T00670006
13870KAMG AMG20160303015510703/03/16 01:55:31  5-MIN KAMG 030655Z AUTO 00000KT 10SM CLR 06/00 A3014 0 65 -1000 000/00 RMK AO2 T00610000
13870KAMG AMG20160303020010703/03/16 02:00:31  5-MIN KAMG 030700Z AUTO 00000KT 10SM CLR 06/00 A3014 0 67 -1100 000/00 RMK AO2 T00560000
13870KAMG AMG20160303020510703/03/16 02:05:31  5-MIN KAMG 030705Z AUTO 00000KT 10SM CLR 06/01 A3014 0 70 -1100 000/00 RMK AO2 T00560006
13870KAMG AMG20160303021010703/03/16 02:10:31  5-MIN KAMG 030710Z AUTO 00000KT 10SM CLR 06/01 A3014 0 70 -1100 000/00 RMK AO2 T00560006
13870KAMG AMG20160303021510703/03/16 02:15:31  5-MIN KAMG 030715Z AUTO 00000KT 10SM CLR 06/01 A3014 0 70 -1100 000/00 RMK AO2 T00560006
13870KAMG AMG20160303022010703/03/16 02:20:31  5-MIN KAMG 030720Z AUTO 00000KT 10SM CLR 05/01 A3014 0 73 -1100 000/00 RMK AO2 T00500006
13870KAMG AMG20160303022510703/03/16 02:25:31  5-MIN KAMG 030725Z AUTO 00000KT 10SM CLR 06/01 A3014 0 73 -1100 000/00 RMK AO2 T00560011
13870KAMG AMG20160303023010703/03/16 02:30:31  5-MIN KAMG 030730Z AUTO 00000KT 10SM CLR 04/01 A3014 0 79 -1200 000/00 RMK AO2 T00440011
13870KAMG AMG20160303023510703/03/16 02:35:31  5-MIN KAMG 030735Z AUTO 00000KT 10SM CLR 04/01 A3014 0 79 -1200 000/00 RMK AO2 T00440011
13870KAMG AMG20160303024010803/03/16 02:40:31  5-MIN KAMG 030740Z AUTO 00000KT 10SM CLR 04/01 A3013 10 82 -1200 000/00 RMK AO2 T00390011
13870KAMG AMG20160303024510803/03/16 02:45:31  5-MIN KAMG 030745Z AUTO 00000KT 10SM CLR 04/01 A3013 10 82 -1200 000/00 RMK AO2 T00390011
13870KAMG AMG20160303025011503/03/16 02:50:31  5-MIN KAMG 030750Z AUTO 00000KT 10SM CLR 03/01 A3012 20 85 -1300 000/00 RMK AO2 SLP199 T00330011
13870KAMG AMG20160303025510803/03/16 02:55:31  5-MIN KAMG 030755Z AUTO 36003KT 10SM CLR 04/01 A3012 20 82 -1200 360/03 RMK AO2 T00390011
13870KAMG AMG20160303030010803/03/16 03:00:31  5-MIN KAMG 030800Z AUTO 00000KT 10SM CLR 04/02 A3012 20 85 -1200 000/00 RMK AO2 T00390017
13870KAMG AMG20160303030510803/03/16 03:05:31  5-MIN KAMG 030805Z AUTO 36003KT 10SM CLR 04/02 A3012 20 85 -1200 360/03 RMK AO2 T00390017
13870KAMG AMG20160303031010803/03/16 03:10:31  5-MIN KAMG 030810Z AUTO 00000KT 10SM CLR 04/01 A3012 10 82 -1200 000/00 RMK AO2 T00390011
13870KAMG AMG20160303031510803/03/16 03:15:31  5-MIN KAMG 030815Z AUTO 00000KT 10SM CLR 03/01 A3012 20 85 -1300 000/00 RMK AO2 T00330011
13870KAMG AMG20160303032010803/03/16 03:20:31  5-MIN KAMG 030820Z AUTO 00000KT 10SM CLR 04/01 A3012 20 82 -1200 000/00 RMK AO2 T00390011
13870KAMG AMG20160303032510803/03/16 03:25:31  5-MIN KAMG 030825Z AUTO 00000KT 10SM CLR 04/02 A3012 20 82 -1200 000/00 RMK AO2 T00440017
13870KAMG AMG20160303033010803/03/16 03:30:31  5-MIN KAMG 030830Z AUTO 32003KT 10SM CLR 04/02 A3012 20 82 -1200 320/03 RMK AO2 T00440017
13870KAMG AMG20160303033510803/03/16 03:35:31  5-MIN KAMG 030835Z AUTO 00000KT 10SM CLR 05/02 A3011 30 79 -1100 000/00 RMK AO2 T00500017
13870KAMG AMG20160303034010803/03/16 03:40:31  5-MIN KAMG 030840Z AUTO 00000KT 10SM CLR 05/02 A3011 30 79 -1100 000/00 RMK AO2 T00500017
13870KAMG AMG20160303034510803/03/16 03:45:31  5-MIN KAMG 030845Z AUTO 00000KT 10SM CLR 04/02 A3011 30 85 -1200 000/00 RMK AO2 T00390017
13870KAMG AMG20160303035012103/03/16 03:50:31  5-MIN KAMG 030850Z AUTO 00000KT 10SM CLR 03/02 A3011 20 89 -1300 000/00 RMK AO2 SLP196 T00330017 50000
13870KAMG AMG20160303035510803/03/16 03:55:31  5-MIN KAMG 030855Z AUTO 00000KT 10SM CLR 03/02 A3012 20 92 -1400 000/00 RMK AO2 T00280017
13870KAMG AMG20160303040010803/03/16 04:00:31  5-MIN KAMG 030900Z AUTO 00000KT 10SM CLR 03/02 A3012 20 92 -1400 000/00 RMK AO2 T00280017
13870KAMG AMG20160303040510803/03/16 04:05:31  5-MIN KAMG 030905Z AUTO 00000KT 10SM CLR 03/02 A3012 20 89 -1300 000/00 RMK AO2 T00330017
13870KAMG AMG20160303041010803/03/16 04:10:31  5-MIN KAMG 030910Z AUTO 00000KT 10SM CLR 03/02 A3011 20 89 -1300 000/00 RMK AO2 T00330017
13870KAMG AMG20160303041510803/03/16 04:15:31  5-MIN KAMG 030915Z AUTO 00000KT 10SM CLR 03/02 A3011 20 92 -1400 000/00 RMK AO2 T00280017
13870KAMG AMG20160303042010803/03/16 04:20:31  5-MIN KAMG 030920Z AUTO 34003KT 10SM CLR 03/01 A3011 20 85 -1300 350/03 RMK AO2 T00330011
13870KAMG AMG20160303042510803/03/16 04:25:31  5-MIN KAMG 030925Z AUTO 00000KT 10SM CLR 04/02 A3012 20 85 -1200 000/00 RMK AO2 T00390017
13870KAMG AMG20160303043010803/03/16 04:30:31  5-MIN KAMG 030930Z AUTO 00000KT 10SM CLR 04/02 A3012 20 85 -1200 000/00 RMK AO2 T00390017
13870KAMG AMG20160303043510803/03/16 04:35:31  5-MIN KAMG 030935Z AUTO 00000KT 10SM CLR 04/02 A3011 30 82 -1200 000/00 RMK AO2 T00440017
13870KAMG AMG20160303044010803/03/16 04:40:31  5-MIN KAMG 030940Z AUTO 35003KT 10SM CLR 04/02 A3011 30 82 -1200 360/03 RMK AO2 T00440017
13870KAMG AMG20160303044510803/03/16 04:45:31  5-MIN KAMG 030945Z AUTO 00000KT 10SM CLR 04/02 A3011 30 85 -1200 000/00 RMK AO2 T00390017
13870KAMG AMG20160303045011503/03/16 04:50:31  5-MIN KAMG 030950Z AUTO 00000KT 10SM CLR 03/01 A3011 30 89 -1400 000/00 RMK AO2 SLP195 T00280011
13870KAMG AMG20160303045510803/03/16 04:55:31  5-MIN KAMG 030955Z AUTO 00000KT 10SM CLR 03/01 A3011 30 89 -1400 000/00 RMK AO2 T00280011
13870KAMG AMG20160303050010803/03/16 05:00:31  5-MIN KAMG 031000Z AUTO 00000KT 10SM CLR 02/01 A3011 30 92 -1400 000/00 RMK AO2 T00220011
13870KAMG AMG20160303050510803/03/16 05:05:31  5-MIN KAMG 031005Z AUTO 00000KT 10SM CLR 02/01 A3011 30 92 -1400 000/00 RMK AO2 T00220011
13870KAMG AMG20160303051010803/03/16 05:10:31  5-MIN KAMG 031010Z AUTO 00000KT 10SM CLR 02/01 A3011 30 92 -1400 000/00 RMK AO2 T00220011
13870KAMG AMG20160303051510803/03/16 05:15:31  5-MIN KAMG 031015Z AUTO 00000KT 10SM CLR 03/01 A3011 30 89 -1400 000/00 RMK AO2 T00280011
13870KAMG AMG20160303052010803/03/16 05:20:31  5-MIN KAMG 031020Z AUTO 00000KT 10SM CLR 03/01 A3011 30 89 -1400 000/00 RMK AO2 T00280011
13870KAMG AMG20160303052510803/03/16 05:25:31  5-MIN KAMG 031025Z AUTO 00000KT 10SM CLR 03/01 A3011 30 89 -1400 000/00 RMK AO2 T00280011
13870KAMG AMG20160303053010803/03/16 05:30:31  5-MIN KAMG 031030Z AUTO 00000KT 10SM CLR 02/01 A3011 30 92 -1400 000/00 RMK AO2 T00220011
13870KAMG AMG20160303053510803/03/16 05:35:31  5-MIN KAMG 031035Z AUTO 00000KT 10SM CLR 02/01 A3011 30 92 -1400 000/00 RMK AO2 T00220011
13870KAMG AMG20160303054010803/03/16 05:40:31  5-MIN KAMG 031040Z AUTO 00000KT 10SM CLR 03/02 A3011 30 92 -1400 000/00 RMK AO2 T00280017
13870KAMG AMG20160303054510803/03/16 05:45:31  5-MIN KAMG 031045Z AUTO 00000KT 10SM CLR 02/01 A3011 30 92 -1400 000/00 RMK AO2 T00220011
13870KAMG AMG20160303055011503/03/16 05:50:31  5-MIN KAMG 031050Z AUTO 00000KT 10SM CLR 03/01 A3011 30 89 -1400 000/00 RMK AO2 SLP194 T00280011
13870KAMG AMG20160303055510803/03/16 05:55:31  5-MIN KAMG 031055Z AUTO 00000KT 10SM CLR 03/01 A3011 30 89 -1400 000/00 RMK AO2 T00280011
13870KAMG AMG20160303060010803/03/16 06:00:31  5-MIN KAMG 031100Z AUTO 00000KT 10SM CLR 02/01 A3011 30 92 -1400 000/00 RMK AO2 T00220011
13870KAMG AMG20160303060510803/03/16 06:05:31  5-MIN KAMG 031105Z AUTO 00000KT 10SM CLR 02/01 A3011 30 89 -1400 000/00 RMK AO2 T00220006
13870KAMG AMG20160303061010803/03/16 06:10:31  5-MIN KAMG 031110Z AUTO 00000KT 10SM CLR 02/01 A3011 30 96 -1500 000/00 RMK AO2 T00170011
13870KAMG AMG20160303061510803/03/16 06:15:31  5-MIN KAMG 031115Z AUTO 00000KT 10SM CLR 02/01 A3011 30 92 -1400 000/00 RMK AO2 T00220011
13870KAMG AMG20160303062010803/03/16 06:20:31  5-MIN KAMG 031120Z AUTO 00000KT 10SM CLR 02/01 A3011 30 89 -1400 000/00 RMK AO2 T00220006
13870KAMG AMG20160303062510803/03/16 06:25:31  5-MIN KAMG 031125Z AUTO 00000KT 10SM CLR 02/01 A3011 30 89 -1400 000/00 RMK AO2 T00220006
13870KAMG AMG20160303063010803/03/16 06:30:31  5-MIN KAMG 031130Z AUTO 00000KT 10SM CLR 02/01 A3011 30 96 -1500 000/00 RMK AO2 T00170011
13870KAMG AMG20160303063510803/03/16 06:35:31  5-MIN KAMG 031135Z AUTO 00000KT 10SM CLR 02/01 A3011 30 92 -1400 000/00 RMK AO2 T00220011
13870KAMG AMG20160303064010803/03/16 06:40:31  5-MIN KAMG 031140Z AUTO 00000KT 10SM CLR 02/01 A3011 30 89 -1400 000/00 RMK AO2 T00220006
13870KAMG AMG20160303064510803/03/16 06:45:31  5-MIN KAMG 031145Z AUTO 00000KT 10SM CLR 02/01 A3011 30 92 -1400 000/00 RMK AO2 T00220011
13870KAMG AMG20160303065013303/03/16 06:50:31  5-MIN KAMG 031150Z AUTO 00000KT 10SM CLR 02/01 A3011 30 92 -1400 000/00 RMK AO2 SLP194 T00220011 10083 20017 58005
13870KAMG AMG20160303065510803/03/16 06:55:31  5-MIN KAMG 031155Z AUTO 00000KT 10SM CLR 02/01 A3011 30 92 -1400 000/00 RMK AO2 T00220011
13870KAMG AMG20160303070010803/03/16 07:00:31  5-MIN KAMG 031200Z AUTO 01003KT 10SM CLR 03/01 A3011 30 85 -1400 020/03 RMK AO2 T00280006
13870KAMG AMG20160303070510803/03/16 07:05:31  5-MIN KAMG 031205Z AUTO 01003KT 10SM CLR 03/01 A3011 20 82 -1300 020/03 RMK AO2 T00330006
13870KAMG AMG20160303071010803/03/16 07:10:31  5-MIN KAMG 031210Z AUTO 35004KT 10SM CLR 04/01 A3012 20 82 -1200 360/04 RMK AO2 T00390011
13870KAMG AMG20160303071510803/03/16 07:15:31  5-MIN KAMG 031215Z AUTO 00000KT 10SM CLR 04/01 A3012 20 79 -1200 000/00 RMK AO2 T00440011
13870KAMG AMG20160303072010803/03/16 07:20:31  5-MIN KAMG 031220Z AUTO 00000KT 10SM CLR 04/01 A3012 20 79 -1200 000/00 RMK AO2 T00440011
13870KAMG AMG20160303072510803/03/16 07:25:31  5-MIN KAMG 031225Z AUTO 00000KT 10SM CLR 04/01 A3013 10 79 -1200 000/00 RMK AO2 T00440011
13870KAMG AMG20160303073010803/03/16 07:30:31  5-MIN KAMG 031230Z AUTO 01003KT 10SM CLR 05/01 A3013 10 76 -1100 010/03 RMK AO2 T00500011
13870KAMG AMG20160303073510803/03/16 07:35:31  5-MIN KAMG 031235Z AUTO 01003KT 10SM CLR 06/01 A3013 10 73 -1000 020/03 RMK AO2 T00560011
13870KAMG AMG20160303074010803/03/16 07:40:31  5-MIN KAMG 031240Z AUTO 36003KT 10SM CLR 06/01 A3013 10 73 -1000 010/03 RMK AO2 T00560011
13870KAMG AMG20160303074510803/03/16 07:45:31  5-MIN KAMG 031245Z AUTO 00000KT 10SM CLR 06/01 A3013 10 70 -1000 000/00 RMK AO2 T00610011
13870KAMG AMG20160303075011503/03/16 07:50:31  5-MIN KAMG 031250Z AUTO VRB03KT 10SM CLR 06/02 A3013 10 73 -1000 VRB/03 RMK AO2 SLP201 T00610017
13870KAMG AMG20160303075510703/03/16 07:55:31  5-MIN KAMG 031255Z AUTO VRB03KT 10SM CLR 07/02 A3013 10 70 -900 VRB/03 RMK AO2 T00670017
13870KAMG AMG20160303080010703/03/16 08:00:31  5-MIN KAMG 031300Z AUTO 07003KT 10SM CLR 07/02 A3013 10 68 -800 080/03 RMK AO2 T00720017
13870KAMG AMG20160303080510703/03/16 08:05:31  5-MIN KAMG 031305Z AUTO 00000KT 10SM CLR 07/02 A3013 10 70 -800 000/00 RMK AO2 T00720022
13870KAMG AMG20160303081010703/03/16 08:10:31  5-MIN KAMG 031310Z AUTO 08003KT 10SM CLR 07/02 A3013 10 70 -800 080/03 RMK AO2 T00720022
13870KAMG AMG20160303081510703/03/16 08:15:31  5-MIN KAMG 031315Z AUTO 06004KT 10SM CLR 08/02 A3013 10 68 -800 070/04 RMK AO2 T00780022
13870KAMG AMG20160303082010603/03/16 08:20:31  5-MIN KAMG 031320Z AUTO VRB03KT 10SM CLR 08/02 A3014 0 65 -700 VRB/03 RMK AO2 T00830022
13870KAMG AMG20160303082510603/03/16 08:25:31  5-MIN KAMG 031325Z AUTO 06004KT 10SM CLR 08/02 A3014 0 65 -700 070/04 RMK AO2 T00830022
13870KAMG AMG20160303083010603/03/16 08:30:31  5-MIN KAMG 031330Z AUTO VRB03KT 10SM CLR 08/02 A3014 0 65 -700 VRB/03 RMK AO2 T00830022
13870KAMG AMG20160303083510603/03/16 08:35:31  5-MIN KAMG 031335Z AUTO 07003KT 10SM CLR 09/03 A3014 0 63 -600 070/03 RMK AO2 T00940028
13870KAMG AMG20160303084010603/03/16 08:40:31  5-MIN KAMG 031340Z AUTO VRB03KT 10SM CLR 09/03 A3014 0 65 -600 VRB/03 RMK AO2 T00940033
13870KAMG AMG20160303084510603/03/16 08:45:31  5-MIN KAMG 031345Z AUTO VRB04KT 10SM CLR 10/03 A3014 0 63 -500 VRB/04 RMK AO2 T01000033
13870KAMG AMG20160303085011303/03/16 08:50:31  5-MIN KAMG 031350Z AUTO 08005KT 10SM CLR 10/03 A3014 0 63 -500 080/05 RMK AO2 SLP205 T01000033
13870KAMG AMG20160303085510603/03/16 08:55:31  5-MIN KAMG 031355Z AUTO 10005KT 10SM CLR 10/04 A3014 0 65 -500 100/05 RMK AO2 T01000039
13870KAMG AMG20160303090010603/03/16 09:00:31  5-MIN KAMG 031400Z AUTO 11005KT 10SM CLR 11/04 A3014 0 63 -400 110/05 RMK AO2 T01060039
13870KAMG AMG20160303090510603/03/16 09:05:31  5-MIN KAMG 031405Z AUTO VRB03KT 10SM CLR 11/04 A3015 0 63 -400 VRB/03 RMK AO2 T01110044
13870KAMG AMG20160303091010603/03/16 09:10:31  5-MIN KAMG 031410Z AUTO VRB03KT 10SM CLR 11/04 A3014 0 63 -400 VRB/03 RMK AO2 T01110044
13870KAMG AMG20160303091510603/03/16 09:15:31  5-MIN KAMG 031415Z AUTO 11005KT 10SM CLR 12/05 A3015 0 63 -300 120/05 RMK AO2 T01170050
13870KAMG AMG20160303092010603/03/16 09:20:31  5-MIN KAMG 031420Z AUTO VRB05KT 10SM CLR 12/05 A3014 0 63 -300 VRB/05 RMK AO2 T01170050
13870KAMG AMG20160303092510603/03/16 09:25:31  5-MIN KAMG 031425Z AUTO 12006KT 10SM CLR 12/06 A3014 0 63 -200 120/06 RMK AO2 T01220056
13870KAMG AMG20160303093010603/03/16 09:30:31  5-MIN KAMG 031430Z AUTO 10006KT 10SM CLR 13/06 A3015 0 61 -200 110/06 RMK AO2 T01280056
13870KAMG AMG20160303093510603/03/16 09:35:31  5-MIN KAMG 031435Z AUTO VRB05KT 10SM CLR 13/06 A3015 0 61 -200 VRB/05 RMK AO2 T01280056
13870KAMG AMG20160303094010603/03/16 09:40:31  5-MIN KAMG 031440Z AUTO 12005KT 10SM CLR 13/06 A3015 0 61 -100 130/05 RMK AO2 T01330061
13870KAMG AMG20160303094510303/03/16 09:45:31  5-MIN KAMG 031445Z AUTO 13005KT 10SM CLR 14/06 A3015 0 59 0 140/05 RMK AO2 T01390061
13870KAMG AMG20160303095011903/03/16 09:50:31  5-MIN KAMG 031450Z AUTO 10005KT 10SM CLR 14/06 A3015 0 59 -100 110/05 RMK AO2 SLP208 T01390061 56004
13870KAMG AMG20160303095510603/03/16 09:55:31  5-MIN KAMG 031455Z AUTO 12004KT 10SM CLR 14/06 A3015 0 59 -100 120/04 RMK AO2 T01390061
13870KAMG AMG20160303100010303/03/16 10:00:31  5-MIN KAMG 031500Z AUTO VRB04KT 10SM CLR 14/06 A3015 0 57 0 VRB/04 RMK AO2 T01440061
13870KAMG AMG20160303100510303/03/16 10:05:31  5-MIN KAMG 031505Z AUTO VRB04KT 10SM CLR 15/06 A3015 0 55 0 VRB/04 RMK AO2 T01500061
13870KAMG AMG20160303101010303/03/16 10:10:31  5-MIN KAMG 031510Z AUTO 14007KT 10SM CLR 15/06 A3014 0 55 0 140/07 RMK AO2 T01500061
13870KAMG AMG20160303101510303/03/16 10:15:31  5-MIN KAMG 031515Z AUTO 13008KT 10SM CLR 15/06 A3014 0 53 0 140/08 RMK AO2 T01500056
13870KAMG AMG20160303102010603/03/16 10:20:31  5-MIN KAMG 031520Z AUTO 14010KT 10SM CLR 16/06 A3013 10 51 100 140/10 RMK AO2 T01560056
13870KAMG AMG20160303102510603/03/16 10:25:31  5-MIN KAMG 031525Z AUTO 14012KT 10SM CLR 16/05 A3013 10 49 100 150/12 RMK AO2 T01560050
13870KAMG AMG20160303103011303/03/16 10:30:31  5-MIN KAMG 031530Z AUTO 14010KT 10SM CLR 16/04 A3012 20 47 100 140/10 RMK AO2 PRESFR T01560044
13870KAMG AMG20160303103511303/03/16 10:35:31  5-MIN KAMG 031535Z AUTO 14010KT 10SM CLR 16/05 A3011 30 47 200 140/10 RMK AO2 PRESFR T01610050
13870KAMG AMG20160303104010603/03/16 10:40:31  5-MIN KAMG 031540Z AUTO 12007KT 10SM CLR 16/05 A3011 30 47 200 130/07 RMK AO2 T01610050
13870KAMG AMG20160303104510603/03/16 10:45:31  5-MIN KAMG 031545Z AUTO 14007KT 10SM CLR 17/05 A3011 30 45 300 140/07 RMK AO2 T01670050
13870KAMG AMG20160303105011303/03/16 10:50:31  5-MIN KAMG 031550Z AUTO 14011KT 10SM CLR 17/04 A3010 30 44 300 150/11 RMK AO2 SLP192 T01670044
13870KAMG AMG20160303105511203/03/16 10:55:31  5-MIN KAMG 031555Z AUTO 14008G17KT 10SM CLR 17/04 A3010 40 41 300 150/08G17 RMK AO2 T01720039
13870KAMG AMG20160303110011203/03/16 11:00:31  5-MIN KAMG 031600Z AUTO 14012G18KT 10SM CLR 17/03 A3009 40 39 300 150/12G18 RMK AO2 T01670028
13870KAMG AMG20160303110511203/03/16 11:05:31  5-MIN KAMG 031605Z AUTO 15013G18KT 10SM CLR 17/03 A3009 40 39 400 160/13G18 RMK AO2 T01720033
13870KAMG AMG20160303111010603/03/16 11:10:31  5-MIN KAMG 031610Z AUTO 15010KT 10SM CLR 18/03 A3010 40 36 400 150/10 RMK AO2 T01780028
13870KAMG AMG20160303111510603/03/16 11:15:31  5-MIN KAMG 031615Z AUTO 14010KT 10SM CLR 17/03 A3010 40 39 400 150/10 RMK AO2 T01720033
13870KAMG AMG20160303112010603/03/16 11:20:31  5-MIN KAMG 031620Z AUTO 14008KT 10SM CLR 18/03 A3009 40 36 400 150/08 RMK AO2 T01780028
13870KAMG AMG20160303112510603/03/16 11:25:31  5-MIN KAMG 031625Z AUTO 16010KT 10SM CLR 18/03 A3009 40 36 500 170/10 RMK AO2 T01830033
13870KAMG AMG20160303113010603/03/16 11:30:31  5-MIN KAMG 031630Z AUTO 17011KT 10SM CLR 18/03 A3009 50 36 500 170/11 RMK AO2 T01830033
13870KAMG AMG20160303113510603/03/16 11:35:31  5-MIN KAMG 031635Z AUTO 11008KT 10SM CLR 18/03 A3008 50 35 500 120/08 RMK AO2 T01830028
13870KAMG AMG20160303114011203/03/16 11:40:31  5-MIN KAMG 031640Z AUTO 15010G14KT 10SM CLR 19/03 A3008 50 34 600 160/10G14 RMK AO2 T01890028
13870KAMG AMG20160303114511203/03/16 11:45:31  5-MIN KAMG 031645Z AUTO 16009G14KT 10SM CLR 19/02 A3008 50 32 600 160/09G14 RMK AO2 T01890022
13870KAMG AMG20160303115012903/03/16 11:50:31  5-MIN KAMG 031650Z AUTO 15009KT 110V180 10SM CLR 19/03 A3008 60 34 600 150/09 120V190 RMK AO2 SLP185 T01890028
13870KAMG AMG20160303115510603/03/16 11:55:31  5-MIN KAMG 031655Z AUTO 12007KT 10SM CLR 19/03 A3008 60 34 600 120/07 RMK AO2 T01890028
13870KAMG AMG20160303120010603/03/16 12:00:31  5-MIN KAMG 031700Z AUTO VRB06KT 10SM CLR 19/03 A3008 60 34 600 VRB/06 RMK AO2 T01890028
13870KAMG AMG20160303120510603/03/16 12:05:31  5-MIN KAMG 031705Z AUTO 14009KT 10SM CLR 19/03 A3007 70 33 600 140/09 RMK AO2 T01940028
13870KAMG AMG20160303121010603/03/16 12:10:31  5-MIN KAMG 031710Z AUTO 15010KT 10SM CLR 19/03 A3007 70 33 600 160/10 RMK AO2 T01940028
13870KAMG AMG20160303121511203/03/16 12:15:31  5-MIN KAMG 031715Z AUTO 17006G15KT 10SM CLR 19/02 A3006 70 31 700 180/06G15 RMK AO2 T01940022
13870KAMG AMG20160303122011203/03/16 12:20:31  5-MIN KAMG 031720Z AUTO 15009G14KT 10SM CLR 20/02 A3006 80 30 700 150/09G14 RMK AO2 T02000022
13870KAMG AMG20160303122510603/03/16 12:25:31  5-MIN KAMG 031725Z AUTO 15007KT 10SM CLR 19/02 A3006 80 30 700 160/07 RMK AO2 T01940017
13870KAMG AMG20160303123010603/03/16 12:30:31  5-MIN KAMG 031730Z AUTO VRB06KT 10SM CLR 20/02 A3005 80 29 700 VRB/06 RMK AO2 T02000017
13870KAMG AMG20160303123510603/03/16 12:35:31  5-MIN KAMG 031735Z AUTO 16010KT 10SM CLR 20/02 A3005 80 30 700 170/10 RMK AO2 T02000022
13870KAMG AMG20160303124010603/03/16 12:40:31  5-MIN KAMG 031740Z AUTO 18006KT 10SM CLR 20/02 A3005 80 30 700 190/06 RMK AO2 T02000022
13870KAMG AMG20160303124510603/03/16 12:45:31  5-MIN KAMG 031745Z AUTO 14008KT 10SM CLR 20/03 A3005 80 31 700 150/08 RMK AO2 T02000028
13870KAMG AMG20160303125013103/03/16 12:50:31  5-MIN KAMG 031750Z AUTO 15008KT 10SM CLR 20/03 A3005 80 31 700 160/08 RMK AO2 SLP174 T02000028 10206 20022 51014
13870KAMG AMG20160303125510603/03/16 12:55:31  5-MIN KAMG 031755Z AUTO 19009KT 10SM CLR 21/03 A3005 90 30 800 190/09 RMK AO2 T02060028
13870KAMG AMG20160303130010603/03/16 13:00:31  5-MIN KAMG 031800Z AUTO 18009KT 10SM CLR 21/02 A3004 90 29 800 190/09 RMK AO2 T02060022
13870KAMG AMG20160303130510603/03/16 13:05:31  5-MIN KAMG 031805Z AUTO 00000KT 10SM CLR 20/02 A3004 90 30 700 000/00 RMK AO2 T02000022
13870KAMG AMG20160303131009603/03/16 13:10:31  5-MIN KAMG 031810Z AUTO 10SM CLR 21/03 A3004 90 32 800 M /M RMK AO2 T02060033
13870KAMG AMG20160303131510603/03/16 13:15:31  5-MIN KAMG 031815Z AUTO 19007KT 10SM CLR 21/03 A3004 90 29 900 190/07 RMK AO2 T02110028
13870KAMG AMG20160303132011303/03/16 13:20:31  5-MIN KAMG 031820Z AUTO 18010G15KT 10SM CLR 21/03 A3003 100 30 900 190/10G15 RMK AO2 T02110033
13870KAMG AMG20160303132511303/03/16 13:25:31  5-MIN KAMG 031825Z AUTO 21008G15KT 10SM CLR 21/03 A3003 100 30 800 210/08G15 RMK AO2 T02060028
13870KAMG AMG20160303133010703/03/16 13:30:31  5-MIN KAMG 031830Z AUTO VRB04KT 10SM CLR 21/03 A3002 110 32 800 VRB/04 RMK AO2 T02060033
13870KAMG AMG20160303133510803/03/16 13:35:31  5-MIN KAMG 031835Z AUTO VRB06KT 10SM CLR 22/03 A3002 110 29 1000 VRB/06 RMK AO2 T02170033
13870KAMG AMG20160303134010703/03/16 13:40:31  5-MIN KAMG 031840Z AUTO 22010KT 10SM CLR 21/03 A3002 110 29 900 220/10 RMK AO2 T02110028
13870KAMG AMG20160303134510703/03/16 13:45:31  5-MIN KAMG 031845Z AUTO 22007KT 10SM CLR 21/03 A3001 120 29 900 230/07 RMK AO2 T02110028
13870KAMG AMG20160303135011403/03/16 13:50:31  5-MIN KAMG 031850Z AUTO 22004KT 10SM CLR 21/03 A3000 130 30 900 220/04 RMK AO2 SLP159 T02110033
13870KAMG AMG20160303135512403/03/16 13:55:31  5-MIN KAMG 031855Z AUTO 19008KT 160V220 10SM CLR 22/03 A3000 130 27 1000 200/08 170V230 RMK AO2 T02220028
13870KAMG AMG20160303140010803/03/16 14:00:31  5-MIN KAMG 031900Z AUTO 18011KT 10SM CLR 22/03 A3000 130 28 1000 180/11 RMK AO2 T02170028
13870KAMG AMG20160303140510803/03/16 14:05:31  5-MIN KAMG 031905Z AUTO 17010KT 10SM CLR 22/03 A3000 130 28 1000 170/10 RMK AO2 T02170028
13870KAMG AMG20160303141010803/03/16 14:10:31  5-MIN KAMG 031910Z AUTO 20005KT 10SM CLR 22/03 A3000 130 29 1000 200/05 RMK AO2 T02170033
13870KAMG AMG20160303141510703/03/16 14:15:31  5-MIN KAMG 031915Z AUTO 22008KT 8SM CLR 22/03 A2999 130 29 1000 220/08 RMK AO2 T02170033
13870KAMG AMG20160303142012303/03/16 14:20:31  5-MIN KAMG 031920Z AUTO 15008KT 110V190 8SM CLR 22/03 A2999 140 27 1100 160/08 120V200 RMK AO2 T02220028
13870KAMG AMG20160303142511403/03/16 14:25:31  5-MIN KAMG 031925Z AUTO 20008G15KT 10SM CLR 22/02 A2999 140 26 1100 200/08G15 RMK AO2 T02220022
13870KAMG AMG20160303143011403/03/16 14:30:31  5-MIN KAMG 031930Z AUTO 21009G15KT 10SM CLR 22/02 A2999 140 25 1100 210/09G15 RMK AO2 T02220017
13870KAMG AMG20160303143510803/03/16 14:35:31  5-MIN KAMG 031935Z AUTO 16010KT 10SM CLR 22/02 A2998 150 26 1100 170/10 RMK AO2 T02220022
13870KAMG AMG20160303144010803/03/16 14:40:31  5-MIN KAMG 031940Z AUTO 17009KT 10SM CLR 22/02 A2997 150 25 1100 170/09 RMK AO2 T02220017
13870KAMG AMG20160303144512103/03/16 14:45:31  5-MIN KAMG 031945Z AUTO 19010G17KT 10SM CLR 23/01 A2997 160 23 1100 190/10G17 RMK AO2 PRESFR T02280011
13870KAMG AMG20160303145012103/03/16 14:50:31  5-MIN KAMG 031950Z AUTO 19010G17KT 10SM CLR 23/01 A2996 160 23 1100 200/10G17 RMK AO2 SLP145 T02280011
13870KAMG AMG20160303145510803/03/16 14:55:31  5-MIN KAMG 031955Z AUTO 18011KT 10SM CLR 23/01 A2996 170 23 1200 190/11 RMK AO2 T02280011
13870KAMG AMG20160303150010803/03/16 15:00:31  5-MIN KAMG 032000Z AUTO 18010KT 10SM CLR 22/01 A2996 170 24 1100 190/10 RMK AO2 T02220011
13870KAMG AMG20160303150510803/03/16 15:05:31  5-MIN KAMG 032005Z AUTO 17009KT 10SM CLR 23/02 A2995 170 24 1200 170/09 RMK AO2 T02280017
13870KAMG AMG20160303151010803/03/16 15:10:31  5-MIN KAMG 032010Z AUTO 20008KT 10SM CLR 23/02 A2995 170 24 1200 210/08 RMK AO2 T02280017
13870KAMG AMG20160303151511403/03/16 15:15:31  5-MIN KAMG 032015Z AUTO 21013G16KT 10SM CLR 23/01 A2995 170 23 1200 220/13G16 RMK AO2 T02280011
13870KAMG AMG20160303152010803/03/16 15:20:31  5-MIN KAMG 032020Z AUTO 23009KT 10SM CLR 22/01 A2995 170 24 1100 230/09 RMK AO2 T02220011
13870KAMG AMG20160303152510803/03/16 15:25:31  5-MIN KAMG 032025Z AUTO 21010KT 10SM CLR 22/02 A2995 170 25 1100 220/10 RMK AO2 T02220017
13870KAMG AMG20160303153010803/03/16 15:30:31  5-MIN KAMG 032030Z AUTO VRB04KT 10SM CLR 23/01 A2995 180 23 1200 VRB/04 RMK AO2 T02280011
13870KAMG AMG20160303153509803/03/16 15:35:31  5-MIN KAMG 032035Z AUTO 10SM CLR 23/02 A2995 170 24 1200 M /M RMK AO2 T02280017
13870KAMG AMG20160303154013003/03/16 15:40:31  5-MIN KAMG 032040Z AUTO 19010G15KT 160V230 10SM CLR 23/02 A2995 180 24 1200 200/10G15 170V240 RMK AO2 T02280017
13870KAMG AMG20160303154511403/03/16 15:45:31  5-MIN KAMG 032045Z AUTO 20012G15KT 10SM CLR 23/02 A2995 180 24 1200 200/12G15 RMK AO2 T02280017
13870KAMG AMG20160303155012103/03/16 15:50:31  5-MIN KAMG 032050Z AUTO 23010KT 10SM CLR 23/02 A2994 180 24 1200 230/10 RMK AO2 SLP138 T02280017 56034
13870KAMG AMG20160303155511403/03/16 15:55:31  5-MIN KAMG 032055Z AUTO 21010G16KT 10SM CLR 23/02 A2994 190 25 1200 220/10G16 RMK AO2 T02280022
13870KAMG AMG20160303160010803/03/16 16:00:31  5-MIN KAMG 032100Z AUTO 21010KT 10SM CLR 23/02 A2994 190 25 1200 220/10 RMK AO2 T02280022
13870KAMG AMG20160303160510803/03/16 16:05:31  5-MIN KAMG 032105Z AUTO 22009KT 10SM CLR 23/02 A2993 190 24 1200 230/09 RMK AO2 T02280017
13870KAMG AMG20160303161010803/03/16 16:10:31  5-MIN KAMG 032110Z AUTO 20013KT 10SM CLR 23/02 A2993 190 24 1200 200/13 RMK AO2 T02280017
13870KAMG AMG20160303161510803/03/16 16:15:31  5-MIN KAMG 032115Z AUTO 21008KT 10SM CLR 23/02 A2992 200 24 1200 210/08 RMK AO2 T02280017
13870KAMG AMG20160303162010803/03/16 16:20:31  5-MIN KAMG 032120Z AUTO 20010KT 10SM CLR 23/03 A2992 210 26 1200 200/10 RMK AO2 T02280028
13870KAMG AMG20160303162511503/03/16 16:25:31  5-MIN KAMG 032125Z AUTO 18009KT 10SM CLR 23/03 A2991 210 26 1200 180/09 RMK AO2 PRESFR T02280028
13870KAMG AMG20160303163012103/03/16 16:30:31  5-MIN KAMG 032130Z AUTO 15017G21KT 10SM CLR 23/03 A2989 230 26 1200 160/17G21 RMK AO2 PRESFR T02280028
13870KAMG AMG20160303163511403/03/16 16:35:31  5-MIN KAMG 032135Z AUTO 16014G21KT 10SM CLR 22/03 A2989 230 27 1200 170/14G21 RMK AO2 T02220028
13870KAMG AMG20160303164010803/03/16 16:40:31  5-MIN KAMG 032140Z AUTO 16013KT 10SM CLR 22/03 A2989 230 28 1200 160/13 RMK AO2 T02220033
13870KAMG AMG20160303164511403/03/16 16:45:31  5-MIN KAMG 032145Z AUTO 17015G21KT 10SM CLR 22/03 A2989 230 27 1200 180/15G21 RMK AO2 T02220028
13870KAMG AMG20160303165012403/03/16 16:50:31  5-MIN KAMG 032150Z AUTO 18011G21KT 10SM FEW090 22/02 A2989 230 26 1200 190/11G21 RMK AO2 SLP120 T02220022
13870KAMG AMG20160303165511703/03/16 16:55:31  5-MIN KAMG 032155Z AUTO 17012G19KT 10SM SCT095 22/02 A2989 230 27 1100 180/12G19 RMK AO2 T02170022
13870KAMG AMG20160303170011703/03/16 17:00:31  5-MIN KAMG 032200Z AUTO 17011G19KT 10SM BKN095 22/03 A2988 240 28 1100 170/11G19 RMK AO2 T02170028
13870KAMG AMG20160303170511103/03/16 17:05:31  5-MIN KAMG 032205Z AUTO 18011KT 10SM BKN095 22/03 A2989 230 28 1100 190/11 RMK AO2 T02170028
13870KAMG AMG20160303171011103/03/16 17:10:31  5-MIN KAMG 032210Z AUTO 18010KT 10SM BKN095 22/02 A2988 240 27 1100 180/10 RMK AO2 T02170022
13870KAMG AMG20160303171511703/03/16 17:15:31  5-MIN KAMG 032215Z AUTO 18013G18KT 10SM OVC095 22/02 A2988 240 27 1100 190/13G18 RMK AO2 T02170022
13870KAMG AMG20160303172011103/03/16 17:20:31  5-MIN KAMG 032220Z AUTO 18010KT 10SM OVC095 22/02 A2988 240 27 1100 180/10 RMK AO2 T02170022
13870KAMG AMG20160303172511103/03/16 17:25:31  5-MIN KAMG 032225Z AUTO 18010KT 10SM OVC095 22/02 A2988 240 27 1100 180/10 RMK AO2 T02170022
13870KAMG AMG20160303173011103/03/16 17:30:31  5-MIN KAMG 032230Z AUTO 18009KT 10SM OVC095 22/03 A2988 240 28 1100 180/09 RMK AO2 T02170028
13870KAMG AMG20160303173511103/03/16 17:35:31  5-MIN KAMG 032235Z AUTO 17010KT 10SM OVC095 22/03 A2987 250 28 1100 180/10 RMK AO2 T02170028
13870KAMG AMG20160303174011103/03/16 17:40:31  5-MIN KAMG 032240Z AUTO 17008KT 10SM OVC095 21/03 A2987 250 29 1100 180/08 RMK AO2 T02110028
13870KAMG AMG20160303174511103/03/16 17:45:31  5-MIN KAMG 032245Z AUTO 18009KT 10SM OVC095 22/03 A2987 250 28 1100 190/09 RMK AO2 T02170028
13870KAMG AMG20160303175011803/03/16 17:50:31  5-MIN KAMG 032250Z AUTO 17009KT 10SM OVC095 21/03 A2987 250 29 1100 180/09 RMK AO2 SLP114 T02110028
13870KAMG AMG20160303175511103/03/16 17:55:31  5-MIN KAMG 032255Z AUTO 18007KT 10SM OVC095 21/03 A2987 250 30 1100 180/07 RMK AO2 T02110033
13870KAMG AMG20160303180011103/03/16 18:00:31  5-MIN KAMG 032300Z AUTO 17009KT 10SM OVC095 21/03 A2987 250 30 1100 180/09 RMK AO2 T02110033
13870KAMG AMG20160303180511103/03/16 18:05:31  5-MIN KAMG 032305Z AUTO 18008KT 10SM OVC095 21/03 A2987 250 30 1100 190/08 RMK AO2 T02110033
13870KAMG AMG20160303181011103/03/16 18:10:31  5-MIN KAMG 032310Z AUTO 18008KT 10SM OVC095 21/03 A2987 250 30 1100 180/08 RMK AO2 T02110033
13870KAMG AMG20160303181511103/03/16 18:15:31  5-MIN KAMG 032315Z AUTO 18009KT 10SM OVC095 21/03 A2987 250 30 1100 180/09 RMK AO2 T02110033
13870KAMG AMG20160303182011103/03/16 18:20:31  5-MIN KAMG 032320Z AUTO 18009KT 10SM OVC095 21/03 A2986 260 32 1000 180/09 RMK AO2 T02060033
13870KAMG AMG20160303182511103/03/16 18:25:31  5-MIN KAMG 032325Z AUTO 18009KT 10SM OVC095 21/03 A2986 250 30 1100 180/09 RMK AO2 T02110033
13870KAMG AMG20160303183011103/03/16 18:30:31  5-MIN KAMG 032330Z AUTO 18008KT 10SM OVC095 21/03 A2986 250 30 1100 180/08 RMK AO2 T02110033
13870KAMG AMG20160303183511803/03/16 18:35:31  5-MIN KAMG 032335Z AUTO 18007KT 10SM FEW075 OVC095 21/03 A2986 250 32 1000 190/07 RMK AO2 T02060033
13870KAMG AMG20160303184011803/03/16 18:40:31  5-MIN KAMG 032340Z AUTO 19007KT 10SM SCT075 OVC095 21/03 A2987 250 32 1000 190/07 RMK AO2 T02060033
13870KAMG AMG20160303184511803/03/16 18:45:31  5-MIN KAMG 032345Z AUTO 19006KT 10SM BKN075 OVC095 21/03 A2987 250 32 1000 190/06 RMK AO2 T02060033
13870KAMG AMG20160303185014303/03/16 18:50:31  5-MIN KAMG 032350Z AUTO 18006KT 10SM BKN075 OVC095 21/03 A2987 250 32 1000 190/06 RMK AO2 SLP112 T02060033 10228 20200 56036
13870KAMG AMG20160303185511803/03/16 18:55:31  5-MIN KAMG 032355Z AUTO 19005KT 10SM BKN075 OVC095 21/03 A2987 250 32 1000 190/05 RMK AO2 T02060033
13870KAMG AMG20160303190011103/03/16 19:00:31  5-MIN KAMG 040000Z AUTO 18005KT 10SM OVC075 21/04 A2986 250 33 1000 180/05 RMK AO2 T02060039
13870KAMG AMG20160303190511003/03/16 19:05:31  5-MIN KAMG 040005Z AUTO 18004KT 10SM OVC075 20/04 A2987 250 34 900 180/04 RMK AO2 T02000039
13870KAMG AMG20160303191011003/03/16 19:10:31  5-MIN KAMG 040010Z AUTO 18004KT 10SM OVC070 20/04 A2987 250 34 900 190/04 RMK AO2 T02000039
13870KAMG AMG20160303191511103/03/16 19:15:31  5-MIN KAMG 040015Z AUTO 18004KT 10SM OVC070 21/04 A2987 250 33 1000 190/04 RMK AO2 T02060039
13870KAMG AMG20160303192011003/03/16 19:20:31  5-MIN KAMG 040020Z AUTO 18003KT 10SM OVC070 20/04 A2986 260 34 900 190/03 RMK AO2 T02000039
13870KAMG AMG20160303192511003/03/16 19:25:31  5-MIN KAMG 040025Z AUTO 17005KT 10SM OVC070 20/04 A2986 260 34 900 180/05 RMK AO2 T02000039
13870KAMG AMG20160303193011003/03/16 19:30:31  5-MIN KAMG 040030Z AUTO 18005KT 10SM OVC065 20/04 A2986 260 35 900 180/05 RMK AO2 T02000044
13870KAMG AMG20160303193511003/03/16 19:35:31  5-MIN KAMG 040035Z AUTO 17005KT 10SM OVC065 20/04 A2986 260 35 900 180/05 RMK AO2 T02000044
13870KAMG AMG20160303194011003/03/16 19:40:31  5-MIN KAMG 040040Z AUTO 18005KT 10SM OVC065 20/04 A2986 260 35 900 190/05 RMK AO2 T02000044
13870KAMG AMG20160303194511003/03/16 19:45:31  5-MIN KAMG 040045Z AUTO 17005KT 10SM OVC065 20/04 A2986 260 34 900 180/05 RMK AO2 T02000039
13870KAMG AMG20160303195012403/03/16 19:50:31  5-MIN KAMG 040050Z AUTO 18004KT 10SM BKN060 OVC075 20/04 A2986 260 35 900 180/04 RMK AO2 SLP109 T02000044
13870KAMG AMG20160303195511703/03/16 19:55:31  5-MIN KAMG 040055Z AUTO 18005KT 10SM BKN060 OVC075 20/04 A2986 260 34 900 190/05 RMK AO2 T02000039
13870KAMG AMG20160303200011703/03/16 20:00:31  5-MIN KAMG 040100Z AUTO 19006KT 10SM BKN065 OVC075 20/04 A2986 260 34 900 190/06 RMK AO2 T02000039
13870KAMG AMG20160303200511703/03/16 20:05:31  5-MIN KAMG 040105Z AUTO 19006KT 10SM BKN060 OVC075 20/04 A2986 260 34 900 190/06 RMK AO2 T02000039
13870KAMG AMG20160303201012403/03/16 20:10:31  5-MIN KAMG 040110Z AUTO 18008KT 10SM FEW050 BKN060 OVC070 20/04 A2986 260 34 900 190/08 RMK AO2 T02000039
13870KAMG AMG20160303201511703/03/16 20:15:31  5-MIN KAMG 040115Z AUTO 19007KT 10SM SCT060 OVC075 20/03 A2986 260 33 900 190/07 RMK AO2 T02000033
13870KAMG AMG20160303202012503/03/16 20:20:31  5-MIN KAMG 040120Z AUTO 19009KT 10SM SCT060 BKN070 OVC100 20/03 A2985 270 33 1000 190/09 RMK AO2 T02000033
13870KAMG AMG20160303202511803/03/16 20:25:31  5-MIN KAMG 040125Z AUTO 18010KT 10SM BKN060 OVC075 20/03 A2984 270 31 1000 190/10 RMK AO2 T02000028
13870KAMG AMG20160303203012503/03/16 20:30:31  5-MIN KAMG 040130Z AUTO 18012KT 10SM BKN060 BKN070 OVC100 20/03 A2984 270 31 1000 190/12 RMK AO2 T02000028
13870KAMG AMG20160303203511803/03/16 20:35:31  5-MIN KAMG 040135Z AUTO 19011KT 10SM BKN065 OVC100 20/02 A2984 270 30 1000 190/11 RMK AO2 T02000022
13870KAMG AMG20160303204013003/03/16 20:40:31  5-MIN KAMG 040140Z AUTO 19009KT 10SM SCT060 OVC100 20/02 A2984 280 30 1000 200/09 RMK AO2 LTG DSNT NE T02000022
13870KAMG AMG20160303204513003/03/16 20:45:31  5-MIN KAMG 040145Z AUTO 19011KT 10SM SCT060 OVC110 20/02 A2984 280 29 1000 200/11 RMK AO2 LTG DSNT NE T02000017
13870KAMG AMG20160303205013703/03/16 20:50:31  5-MIN KAMG 040150Z AUTO 18010KT 10SM SCT060 OVC100 20/02 A2984 280 29 1000 190/10 RMK AO2 LTG DSNT NE SLP102 T02000017
13870KAMG AMG20160303205511803/03/16 20:55:31  5-MIN KAMG 040155Z AUTO 19008KT 10SM FEW055 OVC100 20/02 A2983 280 29 1000 190/08 RMK AO2 T02000017
13870KAMG AMG20160303210012503/03/16 21:00:31  5-MIN KAMG 040200Z AUTO 20009KT 10SM FEW055 SCT090 OVC110 20/02 A2983 280 29 1000 200/09 RMK AO2 T02000017
13870KAMG AMG20160303210512503/03/16 21:05:31  5-MIN KAMG 040205Z AUTO 20009KT 10SM SCT055 BKN090 OVC110 20/02 A2983 280 29 1000 200/09 RMK AO2 T02000017
13870KAMG AMG20160303211012503/03/16 21:10:31  5-MIN KAMG 040210Z AUTO 20010KT 10SM BKN055 BKN085 OVC110 20/02 A2983 290 29 1000 200/10 RMK AO2 T02000017
13870KAMG AMG20160303211514303/03/16 21:15:31  5-MIN KAMG 040215Z AUTO 21008KT 10SM SCT050 BKN085 OVC110 20/01 A2983 290 28 1000 210/08 RMK AO2 LTG DSNT W AND NW T02000011
13870KAMG AMG20160303212013803/03/16 21:20:31  5-MIN KAMG 040220Z AUTO VRB05KT 10SM SCT048 BKN055 OVC085 20/01 A2984 280 28 1000 VRB/05 RMK AO2 LTG DSNT W-N T02000011
13870KAMG AMG20160303212513803/03/16 21:25:31  5-MIN KAMG 040225Z AUTO 31007KT 10SM BKN047 BKN055 OVC085 20/01 A2984 280 27 1000 320/07 RMK AO2 LTG DSNT W-N T02000006
13870KAMG AMG20160303213013603/03/16 21:30:31  5-MIN KAMG 040230Z AUTO 33012G19KT 10SM BKN049 OVC085 19/03 A2984 280 34 800 340/12G19 RMK AO2 LTG DSNT W-N T01890028
13870KAMG AMG20160303213514503/03/16 21:35:31  5-MIN KAMG 040235Z AUTO 03007G22KT 360V060 10SM OVC049 18/05 A2984 280 42 700 030/07G22 010V070 RMK AO2 LTG DSNT W-N T01780050
13870KAMG AMG20160303214015203/03/16 21:40:31  5-MIN KAMG 040240Z AUTO 04010G22KT 010V080 10SM SCT047 OVC055 18/06 A2984 280 44 700 050/10G22 020V090 RMK AO2 LTG DSNT W-N T01780056
13870KAMG AMG20160303214514503/03/16 21:45:31  5-MIN KAMG 040245Z AUTO 31007G15KT 280V350 10SM OVC050 17/07 A2985 270 49 600 320/07G15 290V360 RMK AO2 LTG DSNT W-N T01720067
13870KAMG AMG20160303215014203/03/16 21:50:31  5-MIN KAMG 040250Z AUTO 36012G19KT 10SM OVC050 16/08 A2985 270 62 400 010/12G19 RMK AO2 LTG DSNT W-N SLP106 T01560083 56025
13870KAMG AMG20160303215512303/03/16 21:55:31  5-MIN KAMG 040255Z AUTO 34011G19KT 10SM OVC050 14/09 A2987 250 72 300 350/11G19 RMK AO2 PRESRR T01440094
13870KAMG AMG20160303220016403/03/16 22:00:31  5-MIN KAMG 040300Z AUTO 35022G34KT 10SM VCTS FEW012 OVC050 13/09 A2991 210 80 0 360/22G34 RMK AO2 PK WND 35034/0259 LTG DSNT W-N PRESRR T01280094
13870KAMG AMG20160303220519503/03/16 22:05:31  5-MIN KAMG 040305Z AUTO 36016G34KT 330V090 6SM VCTS -RA BR SCT012 OVC050 11/09 A2988 240 89 -100 010/16G34 340V100 RMK AO2 PK WND 35034/0301 LTG DSNT W-NE RAB01 P0001 T01110094
13870KAMG AMG20160303221017903/03/16 22:10:31  5-MIN KAMG 040310Z AUTO 01013G34KT 5SM VCTS -RA BR SCT011 OVC050 11/09 A2987 250 93 -100 010/13G34 RMK AO2 PK WND 35034/0301 LTG DSNT W-NE RAB01 P0001 T01060094
13870KAMG AMG20160303221517703/03/16 22:15:31  5-MIN KAMG 040315Z AUTO 01014G21KT 7SM VCTS -RA SCT011 OVC055 10/09 A2987 250 96 -200 010/14G21 RMK AO2 PK WND 35034/0301 LTG DSNT ALQDS RAB01 P0001 T01000094
13870KAMG AMG20160303222018903/03/16 22:20:31  5-MIN KAMG 040320Z AUTO 35018G23KT 8SM VCTS -RA BKN009 OVC055 10/09 A2991 210 96 -200 360/18G23 RMK AO2 PK WND 35034/0301 LTG DSNT ALQDS RAB01 CIG 007V015 P0002 T01000094
13870KAMG AMG20160303222519303/03/16 22:25:31  5-MIN KAMG 040325Z AUTO 35014G27KT 3SM VCTS RA BR BKN009 BKN026 OVC055 10/09 A2995 170 96 -300 350/14G27 RMK AO2 PK WND 35034/0301 LTG DSNT ALQDS RAB01 PRESRR P0010 T01000094
13870KAMG AMG20160303223019403/03/16 22:30:31  5-MIN KAMG 040330Z AUTO 02010G27KT 1 3/4SM +TSRA BR BKN009 BKN031 OVC060 10/09 A2992 200 96 -300 030/10G27 RMK AO2 PK WND 35034/0301 LTG DSNT ALQDS RAB01 TSB27 P0017 T01000094
13870KAMG AMG20160303223521003/03/16 22:35:31  5-MIN KAMG 040335Z AUTO 01008G24KT 340V050 1 3/4SM +TSRA BR SCT009 BKN034 OVC060 10/09 A2993 190 96 -300 020/08G24 350V060 RMK AO2 PK WND 35034/0301 LTG DSNT ALQDS RAB01 TSB27 P0020 T01000094
13870KAMG AMG20160303224019003/03/16 22:40:31  5-MIN KAMG 040340Z AUTO 03009G18KT 3SM TSRA BR FEW009 BKN038 OVC060 10/10 A2992 200 100 -300 030/09G18 RMK AO2 PK WND 35034/0301 LTG DSNT ALQDS RAB01 TSB27 P0021 T01000100
13870KAMG AMG20160303224518403/03/16 22:45:31  5-MIN KAMG 040345Z AUTO 02007KT 3SM TSRA BR SCT013 BKN042 OVC080 10/10 A2992 200 100 -300 020/07 RMK AO2 PK WND 35034/0301 LTG DSNT ALQDS RAB01 TSB27 P0022 T01000100
13870KAMG AMG20160303225018103/03/16 22:50:31  5-MIN KAMG 040350Z AUTO 03007KT 3SM VCTS -RA BR FEW011 BKN040 OVC095 10/10 A2992 210 100 -300 040/07 RMK AO2 PK WND 35034/0301 LTG DSNT ALQDS RAB01 TSB27E46 P0023
13870KAMG AMG20160303225516503/03/16 22:55:31  5-MIN KAMG 040355Z AUTO 03007KT 5SM VCTS -RA BR FEW013 BKN060 OVC095 10/10 A2990 220 100 -200 040/07 RMK AO2 LTG DSNT ALQDS PRESFR P0001 T01000100
13870KAMG AMG20160303230018103/03/16 23:00:31  5-MIN KAMG 040400Z AUTO 04007KT 010V070 4SM VCTS -RA BR FEW017 SCT070 OVC090 10/10 A2989 230 100 -200 040/07 020V080 RMK AO2 LTG DSNT ALQDS PRESFR P0002 T01000100
13870KAMG AMG20160303230515803/03/16 23:05:31  5-MIN KAMG 040405Z AUTO 04004KT 4SM VCTS -RA BR FEW021 SCT065 OVC090 10/10 A2989 230 100 -200 040/04 RMK AO2 LTG DSNT ALQDS P0003 T01000100
13870KAMG AMG20160303231016903/03/16 23:10:31  5-MIN KAMG 040410Z AUTO 02007KT 350V060 4SM -RA BR FEW006 SCT060 OVC090 10/10 A2990 220 100 -200 030/07 360V070 RMK AO2 LTG DSNT ALQDS P0003 T01000100
13870KAMG AMG20160303231515703/03/16 23:15:31  5-MIN KAMG 040415Z AUTO 02006KT 4SM VCTS RA BR SCT009 BKN075 OVC095 10/10 A2990 220 100 -200 030/06 RMK AO2 LTG DSNT ALQDS P0005 T01000100
13870KAMG AMG20160303232015703/03/16 23:20:31  5-MIN KAMG 040420Z AUTO 36007KT 4SM VCTS RA BR SCT006 BKN050 OVC095 10/10 A2990 220 100 -200 010/07 RMK AO2 LTG DSNT ALQDS P0006 T01000100
13870KAMG AMG20160303232515603/03/16 23:25:31  5-MIN KAMG 040425Z AUTO VRB06KT 3SM VCTS RA BR BKN006 BKN060 OVC095 10/10 A2988 240 100 -200 VRB/06 RMK AO2 LTG DSNT S-NW P0009 T01000100
13870KAMG AMG20160303233015503/03/16 23:30:31  5-MIN KAMG 040430Z AUTO 03006KT 3SM RA BR BKN006 BKN048 OVC095 10/10 A2988 240 100 -200 040/06 RMK AO2 LTG DSNT S AND SW P0011 T01000100
13870KAMG AMG20160303233514803/03/16 23:35:31  5-MIN KAMG 040435Z AUTO 36007KT 4SM RA BR BKN006 OVC048 10/10 A2990 220 100 -200 010/07 RMK AO2 LTG DSNT S AND SW P0012 T01000100
13870KAMG AMG20160303234013803/03/16 23:40:31  5-MIN KAMG 040440Z AUTO 35009KT 4SM RA BR OVC006 10/10 A2992 200 100 -300 360/09 RMK AO2 LTG DSNT SE-SW P0014 T01000100
13870KAMG AMG20160303234514503/03/16 23:45:31  5-MIN KAMG 040445Z AUTO 35006KT 3SM RA BR OVC006 10/10 A2993 190 100 -300 350/06 RMK AO2 LTG DSNT SE-SW PRESRR P0016 T01000100
13870KAMG AMG20160303235013303/03/16 23:50:31  5-MIN KAMG 040450Z AUTO 01004KT 2 1/2SM +RA BR OVC006 10/10 A2991 210 100 -200 020/04 RMK AO2 LTG DSNT SE-SW P0020
13870KAMG AMG20160303235514303/03/16 23:55:31  5-MIN KAMG 040455Z AUTO VRB03KT 2 1/2SM +RA BR OVC006 10/10 A2989 230 100 -200 VRB/03 RMK AO2 LTG DSNT SE-SW P0001 T01000100
13870KAMG AMG20160304000016503/04/16 00:00:31  5-MIN KAMG 040500Z AUTO 06007KT 2 1/2SM VCTS RA BR OVC006 10/10 A2988 240 100 -200 060/07 RMK AO2 LTG DSNT E-SW CIG 004V009 PRESFR P0003 T01000100
13870KAMG AMG20160304000514103/04/16 00:05:31  5-MIN KAMG 040505Z AUTO 00000KT 4SM VCTS RA BR OVC005 10/10 A2989 230 100 -200 000/00 RMK AO2 LTG DSNT E-S P0003 T01000100
13870KAMG AMG20160304001014203/04/16 00:10:31  5-MIN KAMG 040510Z AUTO 05004KT 5SM VCTS -RA BR OVC005 10/10 A2988 240 100 -200 060/04 RMK AO2 LTG DSNT E-S P0003 T01000100
13870KAMG AMG20160304001514603/04/16 00:15:31  5-MIN KAMG 040515Z AUTO 06006KT 7SM -RA BKN006 OVC085 10/10 A2986 250 100 -200 070/06 RMK AO2 LTG DSNT E AND SE P0004 T01000100
13870KAMG AMG20160304002015303/04/16 00:20:31  5-MIN KAMG 040520Z AUTO 06006KT 8SM -RA BKN006 BKN090 10/10 A2985 270 100 -200 070/06 RMK AO2 LTG DSNT E AND SE PRESFR P0004 T01000100
13870KAMG AMG20160304002515303/04/16 00:25:31  5-MIN KAMG 040525Z AUTO 07008KT 8SM -RA BKN006 BKN090 OVC110 10/10 A2984 280 100 -200 070/08 RMK AO2 LTG DSNT E PRESFR P0004 T01000100
13870KAMG AMG20160304003015803/04/16 00:30:31  5-MIN KAMG 040530Z AUTO 09011G16KT 9SM -RA BKN008 BKN060 OVC110 10/09 A2981 300 96 -100 090/11G16 RMK AO2 LTG DSNT E PRESFR P0004 T01000094
13870KAMG AMG20160304003514803/04/16 00:35:31  5-MIN KAMG 040535Z AUTO 10008KT 10SM BKN008 BKN070 BKN110 10/09 A2983 290 96 -200 100/08 RMK AO2 LTG DSNT E RAE35 P0004 T01000094
13870KAMG AMG20160304004014903/04/16 00:40:31  5-MIN KAMG 040540Z AUTO 08004KT 10SM BKN006 BKN070 OVC110 10/10 A2985 270 100 -200 090/04 RMK AO2 LTG DSNT E RAE35 P0004 T01000100
13870KAMG AMG20160304004515603/04/16 00:45:31  5-MIN KAMG 040545Z AUTO VRB03KT 10SM BKN006 BKN070 OVC110 10/10 A2986 260 100 -200 VRB/03 RMK AO2 LTG DSNT E RAE35 PRESRR P0004 T01000100
13870KAMG AMG20160304005017303/04/16 00:50:31  5-MIN KAMG 040550Z AUTO VRB04KT 10SM BKN006 10/10 A2988 240 100 -200 VRB/04 RMK AO2 LTG DSNT N RAE35 PRESRR SLP117 P0004 60049 T01000100 10206 20100 55005
13870KAMG AMG20160304005512303/04/16 00:55:31  5-MIN KAMG 040555Z AUTO 00000KT 10SM OVC006 10/10 A2988 240 100 -200 000/00 RMK AO2 LTG DSNT N T01000100
13870KAMG AMG20160304010012203/04/16 01:00:31  5-MIN KAMG 040600Z AUTO 00000KT 10SM OVC006 11/10 A2988 240 96 -100 000/00 RMK AO2 LTG DSNT N T01060100
13870KAMG AMG20160304010513403/04/16 01:05:31  5-MIN KAMG 040605Z AUTO 29003KT 10SM -RA OVC006 11/10 A2991 210 96 -200 300/03 RMK AO2 RAB04 PRESRR P0000 T01060100
13870KAMG AMG20160304011012703/04/16 01:10:31  5-MIN KAMG 040610Z AUTO 29003KT 10SM -RA OVC006 11/10 A2991 210 96 -200 290/03 RMK AO2 RAB04 P0000 T01060100
13870KAMG AMG20160304011513303/04/16 01:15:31  5-MIN KAMG 040615Z AUTO 27004KT 10SM OVC007 11/10 A2992 200 96 -200 280/04 RMK AO2 RAB04E14 PRESRR P0000 T01060100
13870KAMG AMG20160304012012603/04/16 01:20:31  5-MIN KAMG 040620Z AUTO 00000KT 10SM OVC007 11/10 A2990 220 96 -200 000/00 RMK AO2 RAB04E14 P0000 T01060100
13870KAMG AMG20160304012513403/04/16 01:25:31  5-MIN KAMG 040625Z AUTO 36004KT 10SM OVC007 11/11 A2989 230 100 -200 360/04 RMK AO2 RAB04E14 PRESFR P0000 T01060106
13870KAMG AMG20160304013012603/04/16 01:30:31  5-MIN KAMG 040630Z AUTO 30004KT 10SM OVC007 11/10 A2990 230 96 -200 310/04 RMK AO2 RAB04E14 P0000 T01060100
13870KAMG AMG20160304013512603/04/16 01:35:31  5-MIN KAMG 040635Z AUTO 26005KT 10SM OVC007 11/10 A2991 210 96 -200 270/05 RMK AO2 RAB04E14 P0000 T01060100
13870KAMG AMG20160304014012703/04/16 01:40:31  5-MIN KAMG 040640Z AUTO 21004KT 10SM OVC007 11/11 A2990 220 100 -200 220/04 RMK AO2 RAB04E14 P0000 T01060106
13870KAMG AMG20160304014512703/04/16 01:45:31  5-MIN KAMG 040645Z AUTO 24005KT 10SM OVC007 11/11 A2991 210 100 -200 240/05 RMK AO2 RAB04E14 P0000 T01060106
13870KAMG AMG20160304015013403/04/16 01:50:31  5-MIN KAMG 040650Z AUTO 24006KT 10SM OVC007 11/11 A2992 210 100 -200 250/06 RMK AO2 RAB04E14 SLP128 P0000 T01060106
13870KAMG AMG20160304015511203/04/16 01:55:31  5-MIN KAMG 040655Z AUTO 25007KT 10SM OVC007 11/11 A2992 200 100 -200 260/07 RMK AO2 T01060106
13870KAMG AMG20160304020011203/04/16 02:00:31  5-MIN KAMG 040700Z AUTO 25006KT 10SM OVC007 11/11 A2991 210 100 -200 260/06 RMK AO2 T01060106
13870KAMG AMG20160304020511203/04/16 02:05:31  5-MIN KAMG 040705Z AUTO 23003KT 10SM OVC007 11/11 A2989 230 100 -200 240/03 RMK AO2 T01060106
13870KAMG AMG20160304021011203/04/16 02:10:31  5-MIN KAMG 040710Z AUTO 24003KT 10SM OVC007 11/11 A2989 230 100 -200 250/03 RMK AO2 T01060106
13870KAMG AMG20160304021511203/04/16 02:15:31  5-MIN KAMG 040715Z AUTO 27005KT 10SM OVC007 11/11 A2992 200 100 -200 270/05 RMK AO2 T01060106
13870KAMG AMG20160304022011203/04/16 02:20:31  5-MIN KAMG 040720Z AUTO 00000KT 10SM OVC007 11/11 A2990 220 100 -200 000/00 RMK AO2 T01060106
13870KAMG AMG20160304022511103/04/16 02:25:31  5-MIN KAMG 040725Z AUTO 12003KT 9SM OVC007 11/11 A2989 230 100 -200 130/03 RMK AO2 T01060106
13870KAMG AMG20160304023011703/04/16 02:30:31  5-MIN KAMG 040730Z AUTO VRB05KT 9SM BKN007 11/10 A2987 250 96 -100 VRB/05 RMK AO2 PRESFR T01060100
13870KAMG AMG20160304023513703/04/16 02:35:31  5-MIN KAMG 040735Z AUTO 12008KT 8SM BKN007 OVC080 11/11 A2985 270 100 -100 120/08 RMK AO2 CIG 004V008 PRESFR T01060106
13870KAMG AMG20160304024013703/04/16 02:40:31  5-MIN KAMG 040740Z AUTO 13005KT 7SM BKN007 OVC080 10/10 A2984 280 100 -200 130/05 RMK AO2 CIG 002V008 PRESFR T01000100
13870KAMG AMG20160304024512503/04/16 02:45:31  5-MIN KAMG 040745Z AUTO 15006KT 7SM SCT003 BKN007 OVC027 10/10 A2984 270 100 -200 160/06 RMK AO2 T01000100
13870KAMG AMG20160304025011303/04/16 02:50:31  5-MIN KAMG 040750Z AUTO VRB04KT 8SM OVC003 11/11 A2983 290 100 -100 VRB/04 RMK AO2 CIG 002V008
13870KAMG AMG20160304025512303/04/16 02:55:31  5-MIN KAMG 040755Z AUTO 00000KT 8SM OVC003 11/11 A2985 260 100 -100 000/00 RMK AO2 CIG 002V007 T01060106
13870KAMG AMG20160304030013003/04/16 03:00:31  5-MIN KAMG 040800Z AUTO 00000KT 9SM OVC004 11/11 A2986 260 100 -100 000/00 RMK AO2 CIG 002V007 PRESRR T01060106
13870KAMG AMG20160304030511103/04/16 03:05:31  5-MIN KAMG 040805Z AUTO 00000KT 9SM OVC004 11/11 A2986 260 100 -100 000/00 RMK AO2 T01060106
13870KAMG AMG20160304031011203/04/16 03:10:31  5-MIN KAMG 040810Z AUTO 00000KT 10SM OVC004 11/11 A2986 260 100 -100 000/00 RMK AO2 T01060106
13870KAMG AMG20160304031511203/04/16 03:15:31  5-MIN KAMG 040815Z AUTO 21003KT 10SM OVC004 11/11 A2986 260 100 -100 220/03 RMK AO2 T01060106
13870KAMG AMG20160304032011803/04/16 03:20:31  5-MIN KAMG 040820Z AUTO 31013KT 10SM OVC004 11/10 A2990 220 96 -200 320/13 RMK AO2 PRESRR T01060100
13870KAMG AMG20160304032511803/04/16 03:25:31  5-MIN KAMG 040825Z AUTO 32014KT 10SM OVC004 11/10 A2990 220 96 -200 320/14 RMK AO2 PRESRR T01060100
13870KAMG AMG20160304033011203/04/16 03:30:31  5-MIN KAMG 040830Z AUTO 32010KT 10SM OVC004 11/11 A2990 220 100 -200 320/10 RMK AO2 T01060106
13870KAMG AMG20160304033512303/04/16 03:35:31  5-MIN KAMG 040835Z AUTO 32010KT 10SM OVC004 11/11 A2990 220 100 -200 330/10 RMK AO2 WSHFT 0819 T01060106
13870KAMG AMG20160304034012203/04/16 03:40:31  5-MIN KAMG 040840Z AUTO 33009KT 9SM OVC004 11/11 A2990 220 100 -200 340/09 RMK AO2 WSHFT 0819 T01060106
13870KAMG AMG20160304034512203/04/16 03:45:31  5-MIN KAMG 040845Z AUTO 33010KT 9SM OVC004 11/11 A2990 220 100 -200 330/10 RMK AO2 WSHFT 0819 T01060106
13870KAMG AMG20160304035014103/04/16 03:50:31  5-MIN KAMG 040850Z AUTO 33010KT 9SM OVC004 11/11 A2990 220 100 -200 330/10 RMK AO2 WSHFT 0819 SLP124 60000 T01060106 58012
13870KAMG AMG20160304035511003/04/16 03:55:31  5-MIN KAMG 040855Z AUTO 33010KT 9SM OVC004 11/10 A2991 220 96 -200 340/10 RMK AO2 T01060100
13870KAMG AMG20160304040011103/04/16 04:00:31  5-MIN KAMG 040900Z AUTO 34009KT 9SM OVC004 11/11 A2991 210 100 -200 340/09 RMK AO2 T01060106
13870KAMG AMG20160304040511003/04/16 04:05:31  5-MIN KAMG 040905Z AUTO 33008KT 9SM OVC004 11/10 A2991 210 96 -200 330/08 RMK AO2 T01060100
13870KAMG AMG20160304041011003/04/16 04:10:31  5-MIN KAMG 040910Z AUTO 32011KT 9SM OVC004 11/10 A2992 200 96 -200 330/11 RMK AO2 T01060100
13870KAMG AMG20160304041511003/04/16 04:15:31  5-MIN KAMG 040915Z AUTO 33012KT 9SM OVC004 11/10 A2992 200 96 -200 330/12 RMK AO2 T01060100
13870KAMG AMG20160304042011103/04/16 04:20:31  5-MIN KAMG 040920Z AUTO 33012KT 9SM OVC004 10/10 A2992 200 100 -300 330/12 RMK AO2 T01000100
13870KAMG AMG20160304042511203/04/16 04:25:31  5-MIN KAMG 040925Z AUTO 33009KT 10SM OVC004 10/10 A2992 210 100 -300 340/09 RMK AO2 T01000100
13870KAMG AMG20160304043012403/04/16 04:30:31  5-MIN KAMG 040930Z AUTO 33010KT 10SM OVC004 10/10 A2992 200 100 -300 340/10 RMK AO2 CIG 004V007 T01000100
13870KAMG AMG20160304043511203/04/16 04:35:31  5-MIN KAMG 040935Z AUTO 32010KT 10SM OVC004 10/10 A2993 200 100 -300 330/10 RMK AO2 T01000100
13870KAMG AMG20160304044011203/04/16 04:40:31  5-MIN KAMG 040940Z AUTO 34006KT 10SM OVC005 10/10 A2992 200 100 -300 340/06 RMK AO2 T01000100
13870KAMG AMG20160304044511203/04/16 04:45:31  5-MIN KAMG 040945Z AUTO 35007KT 10SM OVC005 10/10 A2992 200 100 -300 350/07 RMK AO2 T01000100
13870KAMG AMG20160304045011803/04/16 04:50:31  5-MIN KAMG 040950Z AUTO 35008KT 10SM OVC005 10/09 A2992 210 96 -300 360/08 RMK AO2 SLP128 T01000094
13870KAMG AMG20160304045511103/04/16 04:55:31  5-MIN KAMG 040955Z AUTO 35006KT 10SM OVC006 10/09 A2992 200 96 -300 350/06 RMK AO2 T01000094
13870KAMG AMG20160304050011103/04/16 05:00:31  5-MIN KAMG 041000Z AUTO 35007KT 10SM OVC006 10/09 A2992 200 96 -300 350/07 RMK AO2 T01000094
13870KAMG AMG20160304050511103/04/16 05:05:31  5-MIN KAMG 041005Z AUTO 35006KT 10SM OVC006 10/09 A2992 200 96 -300 350/06 RMK AO2 T01000094
13870KAMG AMG20160304051011103/04/16 05:10:31  5-MIN KAMG 041010Z AUTO 34006KT 10SM OVC006 10/09 A2993 190 96 -300 340/06 RMK AO2 T01000094
13870KAMG AMG20160304051511103/04/16 05:15:31  5-MIN KAMG 041015Z AUTO 33009KT 10SM OVC006 10/09 A2993 190 96 -300 340/09 RMK AO2 T01000094
13870KAMG AMG20160304052011103/04/16 05:20:31  5-MIN KAMG 041020Z AUTO 33007KT 10SM OVC006 10/09 A2994 190 96 -300 330/07 RMK AO2 T01000094
13870KAMG AMG20160304052511103/04/16 05:25:31  5-MIN KAMG 041025Z AUTO 34006KT 10SM OVC006 10/09 A2994 180 96 -300 340/06 RMK AO2 T01000094
13870KAMG AMG20160304053011103/04/16 05:30:31  5-MIN KAMG 041030Z AUTO 33006KT 10SM OVC006 10/09 A2994 180 96 -300 340/06 RMK AO2 T01000094
13870KAMG AMG20160304053511103/04/16 05:35:31  5-MIN KAMG 041035Z AUTO 33006KT 10SM OVC006 10/09 A2995 180 96 -300 340/06 RMK AO2 T01000094
13870KAMG AMG20160304054011103/04/16 05:40:31  5-MIN KAMG 041040Z AUTO 32006KT 10SM OVC006 10/09 A2995 170 96 -300 320/06 RMK AO2 T01000094
13870KAMG AMG20160304054511103/04/16 05:45:31  5-MIN KAMG 041045Z AUTO 33007KT 10SM OVC006 10/09 A2996 160 96 -300 330/07 RMK AO2 T01000094
13870KAMG AMG20160304055011803/04/16 05:50:31  5-MIN KAMG 041050Z AUTO 32010KT 10SM OVC006 10/09 A2997 160 96 -300 330/10 RMK AO2 SLP146 T01000094
13870KAMG AMG20160304055511103/04/16 05:55:31  5-MIN KAMG 041055Z AUTO 32008KT 10SM OVC006 10/09 A2997 160 96 -300 330/08 RMK AO2 T01000094
13870KAMG AMG20160304060011103/04/16 06:00:31  5-MIN KAMG 041100Z AUTO 32009KT 10SM OVC006 10/09 A2997 160 96 -300 330/09 RMK AO2 T01000094
13870KAMG AMG20160304060511103/04/16 06:05:31  5-MIN KAMG 041105Z AUTO 31008KT 10SM OVC006 10/09 A2997 150 96 -300 320/08 RMK AO2 T01000094
13870KAMG AMG20160304061011103/04/16 06:10:31  5-MIN KAMG 041110Z AUTO 33007KT 10SM OVC006 10/09 A2997 150 96 -300 330/07 RMK AO2 T01000094
13870KAMG AMG20160304061511103/04/16 06:15:31  5-MIN KAMG 041115Z AUTO 33006KT 10SM OVC006 10/09 A2997 150 96 -300 340/06 RMK AO2 T01000094
13870KAMG AMG20160304062011103/04/16 06:20:31  5-MIN KAMG 041120Z AUTO 32006KT 10SM OVC006 10/09 A2997 150 96 -300 320/06 RMK AO2 T01000094
13870KAMG AMG20160304062511003/04/16 06:25:31  5-MIN KAMG 041125Z AUTO 32006KT 9SM OVC006 10/09 A2997 150 96 -300 320/06 RMK AO2 T01000094
13870KAMG AMG20160304063011003/04/16 06:30:31  5-MIN KAMG 041130Z AUTO 32006KT 9SM OVC006 10/09 A2997 150 96 -300 330/06 RMK AO2 T01000094
13870KAMG AMG20160304063511003/04/16 06:35:31  5-MIN KAMG 041135Z AUTO 32007KT 8SM OVC006 10/09 A2998 150 96 -300 330/07 RMK AO2 T01000094
13870KAMG AMG20160304064011003/04/16 06:40:31  5-MIN KAMG 041140Z AUTO 31006KT 8SM OVC006 10/09 A2998 140 96 -300 310/06 RMK AO2 T01000094
13870KAMG AMG20160304064511003/04/16 06:45:31  5-MIN KAMG 041145Z AUTO 30005KT 8SM OVC006 10/09 A2999 140 96 -300 310/05 RMK AO2 T01000094
13870KAMG AMG20160304065014703/04/16 06:50:31  5-MIN KAMG 041150Z AUTO 31005KT 9SM OVC006 10/09 A2999 140 96 -300 320/05 RMK AO2 SLP154 60000 70049 T01000094 10106 20100 53009
13870KAMG AMG20160304065511003/04/16 06:55:31  5-MIN KAMG 041155Z AUTO 33004KT 8SM OVC006 10/09 A2999 140 96 -300 330/04 RMK AO2 T01000094
13870KAMG AMG20160304070011403/04/16 07:00:31  5-MIN KAMG 041200Z AUTO 30004KT 6SM BR OVC006 10/10 A2999 140 100 -300 310/04 RMK AO2 T01000100
13870KAMG AMG20160304070511303/04/16 07:05:31  5-MIN KAMG 041205Z AUTO 00000KT 6SM BR OVC006 10/09 A2999 140 96 -300 000/00 RMK AO2 T01000094
13870KAMG AMG20160304071011403/04/16 07:10:31  5-MIN KAMG 041210Z AUTO 31004KT 6SM BR OVC006 10/10 A2999 140 100 -300 320/04 RMK AO2 T01000100
13870KAMG AMG20160304071511403/04/16 07:15:31  5-MIN KAMG 041215Z AUTO 33005KT 6SM BR OVC006 10/10 A2999 140 100 -300 330/05 RMK AO2 T01000100
13870KAMG AMG20160304072011403/04/16 07:20:31  5-MIN KAMG 041220Z AUTO 31005KT 6SM BR OVC006 10/10 A3000 130 100 -300 310/05 RMK AO2 T01000100
13870KAMG AMG20160304072511403/04/16 07:25:31  5-MIN KAMG 041225Z AUTO 31005KT 5SM BR OVC005 10/10 A3000 130 100 -300 310/05 RMK AO2 T01000100
13870KAMG AMG20160304073011303/04/16 07:30:31  5-MIN KAMG 041230Z AUTO 32004KT 5SM BR OVC005 10/09 A3000 130 96 -300 330/04 RMK AO2 T01000094
13870KAMG AMG20160304073511403/04/16 07:35:31  5-MIN KAMG 041235Z AUTO 32006KT 5SM BR OVC005 10/10 A3000 130 100 -400 330/06 RMK AO2 T01000100
13870KAMG AMG20160304074011303/04/16 07:40:31  5-MIN KAMG 041240Z AUTO 33006KT 5SM BR OVC005 10/09 A3001 120 96 -400 330/06 RMK AO2 T01000094
13870KAMG AMG20160304074511303/04/16 07:45:31  5-MIN KAMG 041245Z AUTO 33006KT 5SM BR OVC005 10/09 A3001 120 96 -400 330/06 RMK AO2 T01000094
13870KAMG AMG20160304075012003/04/16 07:50:31  5-MIN KAMG 041250Z AUTO 33005KT 6SM BR OVC005 10/09 A3001 120 96 -400 340/05 RMK AO2 SLP162 T01000094
13870KAMG AMG20160304075512203/04/16 07:55:31  5-MIN KAMG 041255Z AUTO 33005KT 7SM OVC006 11/09 A3002 110 93 -300 340/05 RMK AO2 CIG 005V009 T01060094
13870KAMG AMG20160304080012203/04/16 08:00:31  5-MIN KAMG 041300Z AUTO 34007KT 7SM OVC006 10/09 A3002 110 96 -400 350/07 RMK AO2 CIG 005V009 T01000094
13870KAMG AMG20160304080512903/04/16 08:05:31  5-MIN KAMG 041305Z AUTO 34007KT 7SM BKN006 OVC011 10/09 A3003 100 96 -400 340/07 RMK AO2 CIG 005V009 T01000094
13870KAMG AMG20160304081012903/04/16 08:10:31  5-MIN KAMG 041310Z AUTO 34007KT 7SM BKN006 OVC011 10/09 A3003 100 96 -400 350/07 RMK AO2 CIG 005V010 T01000094
13870KAMG AMG20160304081512903/04/16 08:15:31  5-MIN KAMG 041315Z AUTO 33008KT 7SM BKN006 OVC011 10/09 A3003 100 96 -400 340/08 RMK AO2 CIG 005V010 T01000094
13870KAMG AMG20160304082012903/04/16 08:20:31  5-MIN KAMG 041320Z AUTO 33009KT 8SM BKN008 OVC013 10/09 A3003 100 96 -400 340/09 RMK AO2 CIG 005V011 T01000094
13870KAMG AMG20160304082512903/04/16 08:25:31  5-MIN KAMG 041325Z AUTO 33008KT 8SM BKN010 OVC015 10/09 A3003 100 93 -400 330/08 RMK AO2 CIG 005V012 T01000089
13870KAMG AMG20160304083012403/04/16 08:30:31  5-MIN KAMG 041330Z AUTO 32008KT 8SM SCT008 BKN015 OVC023 11/09 A3004 100 89 -300 330/08 RMK AO2 T01060089
13870KAMG AMG20160304083512303/04/16 08:35:31  5-MIN KAMG 041335Z AUTO 33009KT 8SM SCT008 BKN014 OVC024 11/09 A3004 90 89 -300 340/09 RMK AO2 T01060089
13870KAMG AMG20160304084011603/04/16 08:40:31  5-MIN KAMG 041340Z AUTO 34011KT 9SM BKN012 OVC017 11/09 A3004 90 89 -300 340/11 RMK AO2 T01060089
13870KAMG AMG20160304084511603/04/16 08:45:31  5-MIN KAMG 041345Z AUTO 33006KT 9SM BKN012 OVC023 10/08 A3004 90 89 -400 340/06 RMK AO2 T01000083
13870KAMG AMG20160304085012303/04/16 08:50:31  5-MIN KAMG 041350Z AUTO 32008KT 9SM BKN012 OVC023 11/09 A3004 90 89 -300 330/08 RMK AO2 SLP172 T01060089
13870KAMG AMG20160304085511703/04/16 08:55:31  5-MIN KAMG 041355Z AUTO 32009KT 10SM BKN012 OVC023 11/08 A3004 90 86 -300 320/09 RMK AO2 T01060083
13870KAMG AMG20160304090011703/04/16 09:00:31  5-MIN KAMG 041400Z AUTO 33008KT 10SM BKN012 OVC023 11/09 A3004 90 89 -300 340/08 RMK AO2 T01060089
13870KAMG AMG20160304090511703/04/16 09:05:31  5-MIN KAMG 041405Z AUTO 33008KT 10SM BKN010 OVC023 10/09 A3004 90 93 -400 340/08 RMK AO2 T01000089
13870KAMG AMG20160304091011603/04/16 09:10:31  5-MIN KAMG 041410Z AUTO 34008KT 9SM BKN010 OVC023 10/09 A3005 90 93 -400 340/08 RMK AO2 T01000089
13870KAMG AMG20160304091511703/04/16 09:15:31  5-MIN KAMG 041415Z AUTO 34007KT 10SM BKN012 OVC018 11/09 A3005 80 89 -300 340/07 RMK AO2 T01060089
13870KAMG AMG20160304092011703/04/16 09:20:31  5-MIN KAMG 041420Z AUTO 33008KT 10SM BKN012 OVC017 11/08 A3005 80 86 -300 330/08 RMK AO2 T01060083
13870KAMG AMG20160304092511003/04/16 09:25:31  5-MIN KAMG 041425Z AUTO 33007KT 10SM OVC012 11/08 A3005 80 86 -300 340/07 RMK AO2 T01060083
13870KAMG AMG20160304093011003/04/16 09:30:31  5-MIN KAMG 041430Z AUTO 33010KT 10SM OVC012 11/08 A3006 70 86 -300 330/10 RMK AO2 T01060083
13870KAMG AMG20160304093511003/04/16 09:35:31  5-MIN KAMG 041435Z AUTO 34007KT 10SM OVC011 11/08 A3006 80 86 -300 340/07 RMK AO2 T01060083
13870KAMG AMG20160304094011003/04/16 09:40:31  5-MIN KAMG 041440Z AUTO 34009KT 10SM OVC011 11/08 A3006 70 86 -300 340/09 RMK AO2 T01060083
13870KAMG AMG20160304094511003/04/16 09:45:31  5-MIN KAMG 041445Z AUTO 33007KT 10SM OVC011 11/08 A3006 80 86 -300 340/07 RMK AO2 T01060083
13870KAMG AMG20160304095013003/04/16 09:50:31  5-MIN KAMG 041450Z AUTO 33008KT 10SM BKN011 OVC030 11/08 A3006 70 86 -400 340/08 RMK AO2 SLP178 T01060083 53028
13870KAMG AMG20160304095511703/04/16 09:55:31  5-MIN KAMG 041455Z AUTO 35009KT 10SM BKN011 OVC030 11/08 A3006 80 83 -300 360/09 RMK AO2 T01060078
13870KAMG AMG20160304100011703/04/16 10:00:31  5-MIN KAMG 041500Z AUTO 35009KT 10SM BKN013 OVC030 11/08 A3006 80 83 -300 350/09 RMK AO2 T01060078
13870KAMG AMG20160304100511703/04/16 10:05:31  5-MIN KAMG 041505Z AUTO 35007KT 10SM BKN013 OVC030 11/08 A3006 70 83 -300 350/07 RMK AO2 T01110083
13870KAMG AMG20160304101011703/04/16 10:10:31  5-MIN KAMG 041510Z AUTO 33006KT 10SM BKN013 OVC030 11/08 A3006 70 80 -300 340/06 RMK AO2 T01110078
13870KAMG AMG20160304101511703/04/16 10:15:31  5-MIN KAMG 041515Z AUTO 33007KT 10SM BKN014 OVC030 11/08 A3006 70 83 -300 330/07 RMK AO2 T01110083
13870KAMG AMG20160304102011703/04/16 10:20:31  5-MIN KAMG 041520Z AUTO 33009KT 10SM BKN014 OVC030 11/08 A3006 70 80 -300 330/09 RMK AO2 T01110078
13870KAMG AMG20160304102511703/04/16 10:25:31  5-MIN KAMG 041525Z AUTO 33009KT 10SM BKN014 OVC030 11/08 A3006 70 80 -300 330/09 RMK AO2 T01110078
13870KAMG AMG20160304103011703/04/16 10:30:31  5-MIN KAMG 041530Z AUTO 33009KT 10SM BKN014 BKN030 12/08 A3006 70 80 -200 330/09 RMK AO2 T01170083
13870KAMG AMG20160304103511703/04/16 10:35:31  5-MIN KAMG 041535Z AUTO 33010KT 10SM BKN016 BKN030 12/08 A3006 70 77 -200 330/10 RMK AO2 T01170078
13870KAMG AMG20160304104011703/04/16 10:40:31  5-MIN KAMG 041540Z AUTO 36007KT 10SM BKN016 OVC030 12/08 A3006 70 74 -200 360/07 RMK AO2 T01220078
13870KAMG AMG20160304104512403/04/16 10:45:31  5-MIN KAMG 041545Z AUTO 32008KT 10SM BKN016 BKN021 BKN030 12/08 A3007 70 80 -200 320/08 RMK AO2 T01170083
13870KAMG AMG20160304105012403/04/16 10:50:31  5-MIN KAMG 041550Z AUTO 32007KT 10SM BKN016 BKN021 12/08 A3007 70 80 -200 330/07 RMK AO2 SLP180 T01170083
13870KAMG AMG20160304105511703/04/16 10:55:31  5-MIN KAMG 041555Z AUTO 32006KT 10SM BKN014 OVC020 12/08 A3006 70 80 -200 320/06 RMK AO2 T01170083
13870KAMG AMG20160304110011003/04/16 11:00:31  5-MIN KAMG 041600Z AUTO 31006KT 10SM OVC014 11/08 A3006 70 83 -300 320/06 RMK AO2 T01110083
13870KAMG AMG20160304110511703/04/16 11:05:31  5-MIN KAMG 041605Z AUTO 34007KT 10SM BKN014 OVC019 12/08 A3006 70 80 -200 350/07 RMK AO2 T01170083
13870KAMG AMG20160304111011703/04/16 11:10:31  5-MIN KAMG 041610Z AUTO 33007KT 10SM BKN014 OVC021 12/08 A3007 70 80 -200 340/07 RMK AO2 T01170083
13870KAMG AMG20160304111511703/04/16 11:15:31  5-MIN KAMG 041615Z AUTO 33007KT 10SM BKN016 OVC021 12/08 A3007 60 74 -200 340/07 RMK AO2 T01220078
13870KAMG AMG20160304112011703/04/16 11:20:31  5-MIN KAMG 041620Z AUTO 29008KT 10SM BKN016 OVC023 12/08 A3007 60 80 -200 300/08 RMK AO2 T01170083
13870KAMG AMG20160304112511003/04/16 11:25:31  5-MIN KAMG 041625Z AUTO 31008KT 10SM OVC016 12/08 A3008 60 80 -200 310/08 RMK AO2 T01170083
13870KAMG AMG20160304113011003/04/16 11:30:31  5-MIN KAMG 041630Z AUTO 29009KT 10SM OVC018 12/08 A3008 60 80 -200 290/09 RMK AO2 T01170083
13870KAMG AMG20160304113511003/04/16 11:35:31  5-MIN KAMG 041635Z AUTO 28008KT 10SM OVC018 11/08 A3008 50 80 -300 290/08 RMK AO2 T01110078
13870KAMG AMG20160304114011003/04/16 11:40:31  5-MIN KAMG 041640Z AUTO 30010KT 10SM OVC016 12/08 A3008 50 77 -200 310/10 RMK AO2 T01170078
13870KAMG AMG20160304114511003/04/16 11:45:31  5-MIN KAMG 041645Z AUTO 31009KT 10SM OVC016 12/08 A3008 50 77 -200 320/09 RMK AO2 T01170078
13870KAMG AMG20160304115011703/04/16 11:50:31  5-MIN KAMG 041650Z AUTO 32010KT 10SM OVC018 12/08 A3008 50 74 -200 330/10 RMK AO2 SLP185 T01220078
13870KAMG AMG20160304115511003/04/16 11:55:31  5-MIN KAMG 041655Z AUTO 32008KT 10SM OVC020 12/07 A3008 60 71 -200 330/08 RMK AO2 T01220072
13870KAMG AMG20160304120011003/04/16 12:00:31  5-MIN KAMG 041700Z AUTO 32009KT 10SM OVC020 12/08 A3008 60 74 -200 330/09 RMK AO2 T01220078
13870KAMG AMG20160304120511703/04/16 12:05:31  5-MIN KAMG 041705Z AUTO 32010KT 10SM BKN019 OVC026 13/08 A3008 60 71 -100 330/10 RMK AO2 T01280078
13870KAMG AMG20160304121011703/04/16 12:10:31  5-MIN KAMG 041710Z AUTO 32009KT 10SM BKN019 OVC026 12/08 A3008 60 74 -200 320/09 RMK AO2 T01220078
13870KAMG AMG20160304121511003/04/16 12:15:31  5-MIN KAMG 041715Z AUTO 31008KT 10SM OVC021 12/07 A3007 60 71 -200 310/08 RMK AO2 T01220072
13870KAMG AMG20160304122012303/04/16 12:20:31  5-MIN KAMG 041720Z AUTO 32007G14KT 10SM BKN021 OVC026 13/08 A3007 60 71 -100 330/07G14 RMK AO2 T01280078
13870KAMG AMG20160304122512003/04/16 12:25:31  5-MIN KAMG 041725Z AUTO 32010G14KT 10SM BKN021 OVC026 13/08 A3007 60 69 0 320/10G14 RMK AO2 T01330078
13870KAMG AMG20160304123011603/04/16 12:30:31  5-MIN KAMG 041730Z AUTO 33005G14KT 10SM OVC021 13/07 A3008 60 69 -100 340/05G14 RMK AO2 T01280072
13870KAMG AMG20160304123510703/04/16 12:35:31  5-MIN KAMG 041735Z AUTO 30009KT 10SM OVC021 13/08 A3008 60 69 0 300/09 RMK AO2 T01330078
13870KAMG AMG20160304124010703/04/16 12:40:31  5-MIN KAMG 041740Z AUTO 33010KT 10SM OVC022 13/08 A3007 60 69 0 340/10 RMK AO2 T01330078
13870KAMG AMG20160304124511003/04/16 12:45:31  5-MIN KAMG 041745Z AUTO 35008KT 10SM OVC022 13/07 A3007 60 69 -100 350/08 RMK AO2 T01280072
13870KAMG AMG20160304125013503/04/16 12:50:31  5-MIN KAMG 041750Z AUTO 30008KT 10SM OVC022 12/08 A3007 70 74 -200 300/08 RMK AO2 SLP181 T01220078 10133 20100 51024
13870KAMG AMG20160304125511703/04/16 12:55:31  5-MIN KAMG 041755Z AUTO 31008KT 10SM BKN022 OVC030 13/08 A3007 70 71 -100 310/08 RMK AO2 T01280078
13870KAMG AMG20160304130011403/04/16 13:00:31  5-MIN KAMG 041800Z AUTO 32009KT 10SM BKN024 OVC030 14/08 A3007 70 66 0 320/09 RMK AO2 T01390078
13870KAMG AMG20160304130511403/04/16 13:05:31  5-MIN KAMG 041805Z AUTO 32009KT 10SM BKN024 OVC030 13/07 A3007 70 66 0 320/09 RMK AO2 T01330072
13870KAMG AMG20160304131011403/04/16 13:10:31  5-MIN KAMG 041810Z AUTO 33008KT 10SM FEW020 OVC028 14/07 A3006 70 64 0 330/08 RMK AO2 T01390072
13870KAMG AMG20160304131511403/04/16 13:15:31  5-MIN KAMG 041815Z AUTO 31009KT 10SM BKN026 OVC031 14/07 A3006 70 64 0 320/09 RMK AO2 T01390072
13870KAMG AMG20160304132010703/04/16 13:20:31  5-MIN KAMG 041820Z AUTO 33007KT 10SM OVC028 13/07 A3006 70 66 0 330/07 RMK AO2 T01330072
13870KAMG AMG20160304132510703/04/16 13:25:31  5-MIN KAMG 041825Z AUTO 35008KT 10SM OVC028 14/07 A3006 70 64 0 350/08 RMK AO2 T01390072
13870KAMG AMG20160304133010703/04/16 13:30:31  5-MIN KAMG 041830Z AUTO 32007KT 10SM OVC028 13/07 A3006 70 64 0 320/07 RMK AO2 T01330067
13870KAMG AMG20160304133510703/04/16 13:35:31  5-MIN KAMG 041835Z AUTO 35006KT 10SM OVC027 14/07 A3006 70 64 0 350/06 RMK AO2 T01390072
13870KAMG AMG20160304134012303/04/16 13:40:31  5-MIN KAMG 041840Z AUTO 31008KT 270V340 10SM OVC027 13/07 A3006 70 66 0 310/08 280V350 RMK AO2 T01330072
13870KAMG AMG20160304134511403/04/16 13:45:31  5-MIN KAMG 041845Z AUTO 34005KT 10SM BKN029 OVC037 13/07 A3006 80 66 0 340/05 RMK AO2 T01330072
13870KAMG AMG20160304135012103/04/16 13:50:31  5-MIN KAMG 041850Z AUTO 33005KT 10SM BKN029 OVC035 14/07 A3006 80 61 0 330/05 RMK AO2 SLP177 T01390067
13870KAMG AMG20160304135511403/04/16 13:55:31  5-MIN KAMG 041855Z AUTO 33007KT 10SM SCT029 BKN035 14/07 A3006 80 61 0 340/07 RMK AO2 T01390067
13870KAMG AMG20160304140011403/04/16 14:00:31  5-MIN KAMG 041900Z AUTO 32005KT 10SM FEW027 BKN035 14/07 A3006 80 64 0 320/05 RMK AO2 T01390072
13870KAMG AMG20160304140510703/04/16 14:05:31  5-MIN KAMG 041905Z AUTO 30006KT 10SM OVC035 14/07 A3006 80 64 0 310/06 RMK AO2 T01390072
13870KAMG AMG20160304141010703/04/16 14:10:31  5-MIN KAMG 041910Z AUTO 32004KT 10SM OVC035 14/07 A3005 80 61 0 320/04 RMK AO2 T01390067
13870KAMG AMG20160304141510703/04/16 14:15:31  5-MIN KAMG 041915Z AUTO VRB05KT 10SM BKN034 14/07 A3005 80 64 0 VRB/05 RMK AO2 T01390072
13870KAMG AMG20160304142010703/04/16 14:20:31  5-MIN KAMG 041920Z AUTO 31005KT 10SM BKN034 14/07 A3005 80 64 0 310/05 RMK AO2 T01390072
13870KAMG AMG20160304142510903/04/16 14:25:31  5-MIN KAMG 041925Z AUTO 29007KT 10SM OVC034 14/07 A3005 80 59 100 300/07 RMK AO2 T01440067
13870KAMG AMG20160304143010903/04/16 14:30:31  5-MIN KAMG 041930Z AUTO 32005KT 10SM BKN034 15/07 A3005 80 59 100 330/05 RMK AO2 T01500072
13870KAMG AMG20160304143510903/04/16 14:35:31  5-MIN KAMG 041935Z AUTO 00000KT 10SM BKN034 15/07 A3005 80 57 100 000/00 RMK AO2 T01500067
13870KAMG AMG20160304144010903/04/16 14:40:31  5-MIN KAMG 041940Z AUTO 27006KT 10SM BKN034 15/07 A3005 80 59 100 280/06 RMK AO2 T01500072
13870KAMG AMG20160304144510903/04/16 14:45:31  5-MIN KAMG 041945Z AUTO 28006KT 10SM OVC034 16/08 A3005 80 57 300 280/06 RMK AO2 T01610078
13870KAMG AMG20160304145011603/04/16 14:50:31  5-MIN KAMG 041950Z AUTO 28007KT 10SM OVC034 16/07 A3005 90 57 200 280/07 RMK AO2 SLP173 T01560072
13870KAMG AMG20160304145511503/04/16 14:55:31  5-MIN KAMG 041955Z AUTO VRB06G15KT 10SM OVC034 16/07 A3005 80 57 200 VRB/06G15 RMK AO2 T01560072
13870KAMG AMG20160304150011503/04/16 15:00:31  5-MIN KAMG 042000Z AUTO VRB05G15KT 10SM OVC034 16/07 A3005 90 57 200 VRB/05G15 RMK AO2 T01560072
13870KAMG AMG20160304150510903/04/16 15:05:31  5-MIN KAMG 042005Z AUTO 04004KT 10SM OVC034 16/07 A3004 90 57 200 050/04 RMK AO2 T01560072
13870KAMG AMG20160304151010903/04/16 15:10:31  5-MIN KAMG 042010Z AUTO 04005KT 10SM OVC034 15/07 A3004 90 59 100 050/05 RMK AO2 T01500072
13870KAMG AMG20160304151510903/04/16 15:15:31  5-MIN KAMG 042015Z AUTO VRB03KT 10SM OVC034 15/07 A3004 90 59 100 VRB/03 RMK AO2 T01500072
13870KAMG AMG20160304152010903/04/16 15:20:31  5-MIN KAMG 042020Z AUTO VRB03KT 10SM OVC034 16/07 A3005 90 57 200 VRB/03 RMK AO2 T01560072
13870KAMG AMG20160304152511603/04/16 15:25:31  5-MIN KAMG 042025Z AUTO VRB03KT 10SM BKN034 OVC041 15/07 A3004 90 59 100 VRB/03 RMK AO2 T01500072
13870KAMG AMG20160304153011603/04/16 15:30:31  5-MIN KAMG 042030Z AUTO 36005KT 10SM BKN034 BKN041 15/07 A3004 90 59 100 360/05 RMK AO2 T01500072
13870KAMG AMG20160304153511603/04/16 15:35:31  5-MIN KAMG 042035Z AUTO 35005KT 10SM SCT034 BKN041 15/07 A3004 90 57 200 360/05 RMK AO2 T01500067
13870KAMG AMG20160304154010903/04/16 15:40:31  5-MIN KAMG 042040Z AUTO 36005KT 10SM BKN037 15/07 A3004 90 57 200 010/05 RMK AO2 T01500067
13870KAMG AMG20160304154510903/04/16 15:45:31  5-MIN KAMG 042045Z AUTO 33003KT 10SM BKN037 15/07 A3004 90 57 200 340/03 RMK AO2 T01500067
13870KAMG AMG20160304155012203/04/16 15:50:31  5-MIN KAMG 042050Z AUTO 35003KT 10SM SCT039 15/07 A3004 90 57 200 360/03 RMK AO2 SLP170 T01500067 50003
13870KAMG AMG20160304155511003/04/16 15:55:31  5-MIN KAMG 042055Z AUTO 33005KT 10SM FEW041 15/07 A3003 100 57 200 340/05 RMK AO2 T01500067
13870KAMG AMG20160304160011003/04/16 16:00:31  5-MIN KAMG 042100Z AUTO 33007KT 10SM FEW041 16/07 A3003 100 55 200 330/07 RMK AO2 T01560067
13870KAMG AMG20160304160511003/04/16 16:05:31  5-MIN KAMG 042105Z AUTO 34004KT 10SM FEW038 15/07 A3003 100 57 200 350/04 RMK AO2 T01500067
13870KAMG AMG20160304161011003/04/16 16:10:31  5-MIN KAMG 042110Z AUTO 30004KT 10SM FEW038 16/07 A3003 100 55 200 300/04 RMK AO2 T01560067
13870KAMG AMG20160304161511003/04/16 16:15:31  5-MIN KAMG 042115Z AUTO VRB04KT 10SM SCT038 17/07 A3003 100 53 400 VRB/04 RMK AO2 T01670072
13870KAMG AMG20160304162011003/04/16 16:20:31  5-MIN KAMG 042120Z AUTO VRB04KT 10SM SCT038 17/07 A3003 100 51 400 VRB/04 RMK AO2 T01670067
13870KAMG AMG20160304162511003/04/16 16:25:31  5-MIN KAMG 042125Z AUTO 00000KT 10SM SCT038 17/07 A3003 100 51 400 000/00 RMK AO2 T01670067
13870KAMG AMG20160304163011003/04/16 16:30:31  5-MIN KAMG 042130Z AUTO VRB04KT 10SM SCT038 16/07 A3003 100 53 300 VRB/04 RMK AO2 T01610067
13870KAMG AMG20160304163511003/04/16 16:35:31  5-MIN KAMG 042135Z AUTO VRB05KT 10SM SCT038 16/06 A3003 100 51 300 VRB/05 RMK AO2 T01610061
13870KAMG AMG20160304164011003/04/16 16:40:31  5-MIN KAMG 042140Z AUTO 02006KT 10SM SCT038 17/07 A3003 100 51 400 020/06 RMK AO2 T01670067
13870KAMG AMG20160304164510903/04/16 16:45:31  5-MIN KAMG 042145Z AUTO 00000KT 10SM FEW038 16/07 A3004 90 53 300 000/00 RMK AO2 T01610067
13870KAMG AMG20160304165011603/04/16 16:50:31  5-MIN KAMG 042150Z AUTO 33006KT 10SM FEW038 17/07 A3004 90 51 400 340/06 RMK AO2 SLP171 T01670067
13870KAMG AMG20160304165510603/04/16 16:55:31  5-MIN KAMG 042155Z AUTO VRB04KT 10SM CLR 16/07 A3004 90 53 300 VRB/04 RMK AO2 T01610067
13870KAMG AMG20160304170010603/04/16 17:00:31  5-MIN KAMG 042200Z AUTO 31006KT 10SM CLR 17/06 A3004 90 49 300 320/06 RMK AO2 T01670061
13870KAMG AMG20160304170510603/04/16 17:05:31  5-MIN KAMG 042205Z AUTO 35006KT 10SM CLR 17/07 A3004 90 51 300 360/06 RMK AO2 T01670067
13870KAMG AMG20160304171010603/04/16 17:10:31  5-MIN KAMG 042210Z AUTO 36004KT 10SM CLR 17/06 A3005 90 49 300 360/04 RMK AO2 T01670061
13870KAMG AMG20160304171510903/04/16 17:15:31  5-MIN KAMG 042215Z AUTO VRB03KT 10SM FEW041 17/07 A3005 90 51 300 VRB/03 RMK AO2 T01670067
13870KAMG AMG20160304172010903/04/16 17:20:31  5-MIN KAMG 042220Z AUTO 01003KT 10SM FEW041 17/07 A3005 80 51 300 020/03 RMK AO2 T01670067
13870KAMG AMG20160304172510903/04/16 17:25:31  5-MIN KAMG 042225Z AUTO 35005KT 10SM FEW043 17/06 A3005 80 49 300 360/05 RMK AO2 T01670061
13870KAMG AMG20160304173010903/04/16 17:30:31  5-MIN KAMG 042230Z AUTO 36004KT 10SM FEW043 17/07 A3005 80 51 300 010/04 RMK AO2 T01670067
13870KAMG AMG20160304173510903/04/16 17:35:31  5-MIN KAMG 042235Z AUTO 32005KT 10SM FEW041 16/07 A3005 80 53 300 320/05 RMK AO2 T01610067
13870KAMG AMG20160304174010903/04/16 17:40:31  5-MIN KAMG 042240Z AUTO 32006KT 10SM SCT041 16/06 A3005 80 51 300 330/06 RMK AO2 T01610061
13870KAMG AMG20160304174510903/04/16 17:45:31  5-MIN KAMG 042245Z AUTO 30003KT 10SM SCT041 16/07 A3005 80 55 200 310/03 RMK AO2 T01560067
13870KAMG AMG20160304175011603/04/16 17:50:31  5-MIN KAMG 042250Z AUTO 33004KT 10SM FEW041 16/06 A3006 70 51 300 330/04 RMK AO2 SLP178 T01610061
13870KAMG AMG20160304175510903/04/16 17:55:31  5-MIN KAMG 042255Z AUTO 01004KT 10SM FEW041 16/06 A3006 70 53 200 010/04 RMK AO2 T01560061
13870KAMG AMG20160304180010903/04/16 18:00:31  5-MIN KAMG 042300Z AUTO 35003KT 10SM FEW041 16/07 A3007 70 55 200 350/03 RMK AO2 T01560067
13870KAMG AMG20160304180510903/04/16 18:05:31  5-MIN KAMG 042305Z AUTO 01003KT 10SM FEW041 15/07 A3007 60 59 100 020/03 RMK AO2 T01500072
13870KAMG AMG20160304181010903/04/16 18:10:31  5-MIN KAMG 042310Z AUTO 00000KT 10SM FEW041 15/07 A3007 60 59 100 000/00 RMK AO2 T01500072
13870KAMG AMG20160304181510403/04/16 18:15:31  5-MIN KAMG 042315Z AUTO 36003KT 10SM CLR 14/07 A3008 60 61 0 010/03 RMK AO2 T01440072
13870KAMG AMG20160304182010403/04/16 18:20:31  5-MIN KAMG 042320Z AUTO 00000KT 10SM CLR 14/07 A3008 50 61 0 000/00 RMK AO2 T01440072
13870KAMG AMG20160304182510403/04/16 18:25:31  5-MIN KAMG 042325Z AUTO 00000KT 10SM CLR 14/07 A3008 50 64 0 000/00 RMK AO2 T01390072
13870KAMG AMG20160304183010703/04/16 18:30:31  5-MIN KAMG 042330Z AUTO 00000KT 10SM CLR 13/08 A3008 50 71 -100 000/00 RMK AO2 T01280078
13870KAMG AMG20160304183510703/04/16 18:35:31  5-MIN KAMG 042335Z AUTO 02004KT 10SM CLR 13/08 A3008 60 71 -100 020/04 RMK AO2 T01280078
13870KAMG AMG20160304184010703/04/16 18:40:31  5-MIN KAMG 042340Z AUTO 02003KT 10SM CLR 13/07 A3008 50 69 -100 030/03 RMK AO2 T01280072
13870KAMG AMG20160304184510703/04/16 18:45:31  5-MIN KAMG 042345Z AUTO 03003KT 10SM CLR 13/07 A3008 50 69 -100 030/03 RMK AO2 T01280072
13870KAMG AMG20160304185013203/04/16 18:50:31  5-MIN KAMG 042350Z AUTO 01004KT 10SM CLR 13/07 A3008 50 69 -100 020/04 RMK AO2 SLP186 T01280072 10167 20122 57011
13870KAMG AMG20160304185510703/04/16 18:55:31  5-MIN KAMG 042355Z AUTO 01004KT 10SM CLR 13/07 A3009 50 69 -100 020/04 RMK AO2 T01280072
13870KAMG AMG20160304190010703/04/16 19:00:31  5-MIN KAMG 050000Z AUTO 02004KT 10SM CLR 13/07 A3009 50 69 -100 020/04 RMK AO2 T01280072
13870KAMG AMG20160304190510703/04/16 19:05:31  5-MIN KAMG 050005Z AUTO 01004KT 10SM CLR 13/07 A3009 40 69 -100 020/04 RMK AO2 T01280072
13870KAMG AMG20160304191010703/04/16 19:10:31  5-MIN KAMG 050010Z AUTO 01004KT 10SM CLR 12/07 A3009 40 71 -200 020/04 RMK AO2 T01220072
13870KAMG AMG20160304191510703/04/16 19:15:31  5-MIN KAMG 050015Z AUTO 02004KT 10SM CLR 12/07 A3009 40 71 -200 020/04 RMK AO2 T01220072
13870KAMG AMG20160304192010703/04/16 19:20:31  5-MIN KAMG 050020Z AUTO VRB03KT 10SM CLR 12/07 A3010 40 71 -200 VRB/03 RMK AO2 T01220072
13870KAMG AMG20160304192510703/04/16 19:25:31  5-MIN KAMG 050025Z AUTO VRB03KT 10SM CLR 12/07 A3010 40 71 -200 VRB/03 RMK AO2 T01220072
13870KAMG AMG20160304193010703/04/16 19:30:31  5-MIN KAMG 050030Z AUTO 02004KT 10SM CLR 12/07 A3010 30 74 -300 030/04 RMK AO2 T01170072
13870KAMG AMG20160304193510703/04/16 19:35:31  5-MIN KAMG 050035Z AUTO VRB03KT 10SM CLR 12/07 A3010 30 74 -300 VRB/03 RMK AO2 T01170072
13870KAMG AMG20160304194010703/04/16 19:40:31  5-MIN KAMG 050040Z AUTO 00000KT 10SM CLR 12/07 A3010 30 74 -300 000/00 RMK AO2 T01170072
13870KAMG AMG20160304194510703/04/16 19:45:31  5-MIN KAMG 050045Z AUTO VRB03KT 10SM CLR 11/07 A3010 30 77 -300 VRB/03 RMK AO2 T01110072
13870KAMG AMG20160304195011403/04/16 19:50:31  5-MIN KAMG 050050Z AUTO 04003KT 10SM CLR 11/07 A3010 30 77 -300 040/03 RMK AO2 SLP192 T01110072
13870KAMG AMG20160304195510703/04/16 19:55:31  5-MIN KAMG 050055Z AUTO 04003KT 10SM CLR 11/07 A3010 30 74 -300 040/03 RMK AO2 T01110067
13870KAMG AMG20160304200010703/04/16 20:00:31  5-MIN KAMG 050100Z AUTO VRB03KT 10SM CLR 11/07 A3010 30 74 -300 VRB/03 RMK AO2 T01110067
13870KAMG AMG20160304200510703/04/16 20:05:31  5-MIN KAMG 050105Z AUTO 05003KT 10SM CLR 11/07 A3011 30 74 -300 050/03 RMK AO2 T01110067
13870KAMG AMG20160304201010703/04/16 20:10:31  5-MIN KAMG 050110Z AUTO 05004KT 10SM CLR 11/07 A3011 30 77 -400 060/04 RMK AO2 T01060067
13870KAMG AMG20160304201510703/04/16 20:15:31  5-MIN KAMG 050115Z AUTO 04004KT 10SM CLR 11/07 A3011 20 77 -400 040/04 RMK AO2 T01060067
13870KAMG AMG20160304202010703/04/16 20:20:31  5-MIN KAMG 050120Z AUTO VRB04KT 10SM CLR 11/07 A3011 30 77 -400 VRB/04 RMK AO2 T01060067
13870KAMG AMG20160304202510703/04/16 20:25:31  5-MIN KAMG 050125Z AUTO 05004KT 10SM CLR 11/07 A3011 30 77 -400 060/04 RMK AO2 T01060067
13870KAMG AMG20160304203010703/04/16 20:30:31  5-MIN KAMG 050130Z AUTO VRB05KT 10SM CLR 11/07 A3011 20 77 -400 VRB/05 RMK AO2 T01060067
13870KAMG AMG20160304203510703/04/16 20:35:31  5-MIN KAMG 050135Z AUTO 06003KT 10SM CLR 10/07 A3012 20 80 -500 070/03 RMK AO2 T01000067
13870KAMG AMG20160304204010603/04/16 20:40:31  5-MIN KAMG 050140Z AUTO VRB04KT 9SM CLR 10/07 A3013 10 80 -500 VRB/04 RMK AO2 T01000067
13870KAMG AMG20160304204510603/04/16 20:45:31  5-MIN KAMG 050145Z AUTO 07003KT 9SM CLR 10/07 A3013 10 80 -500 080/03 RMK AO2 T01000067
13870KAMG AMG20160304205011303/04/16 20:50:31  5-MIN KAMG 050150Z AUTO 08004KT 9SM CLR 09/07 A3013 10 83 -600 080/04 RMK AO2 SLP200 T00940067
13870KAMG AMG20160304205510703/04/16 20:55:31  5-MIN KAMG 050155Z AUTO 07004KT 10SM CLR 09/07 A3013 10 83 -600 070/04 RMK AO2 T00940067
13870KAMG AMG20160304210010703/04/16 21:00:31  5-MIN KAMG 050200Z AUTO 07003KT 10SM CLR 09/07 A3013 10 86 -600 070/03 RMK AO2 T00890067
13870KAMG AMG20160304210510703/04/16 21:05:31  5-MIN KAMG 050205Z AUTO 07003KT 10SM CLR 09/06 A3013 10 83 -600 080/03 RMK AO2 T00890061
13870KAMG AMG20160304211010703/04/16 21:10:31  5-MIN KAMG 050210Z AUTO 07003KT 10SM CLR 09/06 A3013 10 83 -600 080/03 RMK AO2 T00890061
13870KAMG AMG20160304211510703/04/16 21:15:31  5-MIN KAMG 050215Z AUTO 08003KT 10SM CLR 09/06 A3013 10 83 -600 090/03 RMK AO2 T00890061
13870KAMG AMG20160304212010703/04/16 21:20:31  5-MIN KAMG 050220Z AUTO 09003KT 10SM CLR 09/06 A3013 10 83 -600 090/03 RMK AO2 T00890061
13870KAMG AMG20160304212510703/04/16 21:25:31  5-MIN KAMG 050225Z AUTO 00000KT 10SM CLR 09/06 A3013 10 83 -600 000/00 RMK AO2 T00890061
13870KAMG AMG20160304213010703/04/16 21:30:31  5-MIN KAMG 050230Z AUTO 09003KT 10SM CLR 09/06 A3013 10 83 -600 090/03 RMK AO2 T00890061
13870KAMG AMG20160304213510703/04/16 21:35:31  5-MIN KAMG 050235Z AUTO 09003KT 10SM CLR 08/06 A3012 10 86 -700 090/03 RMK AO2 T00830061
13870KAMG AMG20160304214010703/04/16 21:40:31  5-MIN KAMG 050240Z AUTO 08003KT 10SM CLR 08/06 A3013 10 86 -700 090/03 RMK AO2 T00830061
13870KAMG AMG20160304214510703/04/16 21:45:31  5-MIN KAMG 050245Z AUTO 08003KT 10SM CLR 08/06 A3013 10 86 -700 080/03 RMK AO2 T00830061
13870KAMG AMG20160304215012003/04/16 21:50:31  5-MIN KAMG 050250Z AUTO 00000KT 10SM CLR 08/06 A3013 10 89 -800 000/00 RMK AO2 SLP202 T00780061 53017
13870KAMG AMG20160304215510703/04/16 21:55:31  5-MIN KAMG 050255Z AUTO 00000KT 10SM CLR 08/06 A3013 10 89 -800 000/00 RMK AO2 T00780061
13870KAMG AMG20160304220010703/04/16 22:00:31  5-MIN KAMG 050300Z AUTO 08003KT 10SM CLR 08/06 A3013 10 86 -700 090/03 RMK AO2 T00830061
13870KAMG AMG20160304220510603/04/16 22:05:31  5-MIN KAMG 050305Z AUTO 00000KT 10SM CLR 08/06 A3014 0 89 -800 000/00 RMK AO2 T00780061
13870KAMG AMG20160304221010603/04/16 22:10:31  5-MIN KAMG 050310Z AUTO 00000KT 10SM CLR 08/06 A3014 0 86 -700 000/00 RMK AO2 T00830061
13870KAMG AMG20160304221510603/04/16 22:15:31  5-MIN KAMG 050315Z AUTO 00000KT 10SM CLR 08/06 A3014 0 89 -800 000/00 RMK AO2 T00780061
13870KAMG AMG20160304222010603/04/16 22:20:31  5-MIN KAMG 050320Z AUTO 00000KT 10SM CLR 07/06 A3015 0 89 -900 000/00 RMK AO2 T00720056
13870KAMG AMG20160304222510603/04/16 22:25:31  5-MIN KAMG 050325Z AUTO 00000KT 10SM CLR 07/06 A3014 0 89 -900 000/00 RMK AO2 T00720056
13870KAMG AMG20160304223010603/04/16 22:30:31  5-MIN KAMG 050330Z AUTO 00000KT 10SM CLR 07/06 A3015 0 89 -900 000/00 RMK AO2 T00720056
13870KAMG AMG20160304223510603/04/16 22:35:31  5-MIN KAMG 050335Z AUTO 00000KT 10SM CLR 07/06 A3015 0 89 -900 000/00 RMK AO2 T00720056
13870KAMG AMG20160304224010603/04/16 22:40:31  5-MIN KAMG 050340Z AUTO 00000KT 10SM CLR 07/06 A3015 0 93 -900 000/00 RMK AO2 T00670056
13870KAMG AMG20160304224510603/04/16 22:45:31  5-MIN KAMG 050345Z AUTO 00000KT 10SM CLR 07/06 A3015 0 93 -900 000/00 RMK AO2 T00670056
13870KAMG AMG20160304225011603/04/16 22:50:31  5-MIN KAMG 050350Z AUTO 00000KT 10SM CLR 06/06 A3015 -10 96 -1000 000/00 RMK AO2 SLP210 T00610056
13870KAMG AMG20160304225510703/04/16 22:55:31  5-MIN KAMG 050355Z AUTO 00000KT 10SM CLR 06/06 A3015 0 96 -1000 000/00 RMK AO2 T00610056
13870KAMG AMG20160304230010903/04/16 23:00:31  5-MIN KAMG 050400Z AUTO 00000KT 10SM CLR 06/06 A3015 -10 96 -1000 000/00 RMK AO2 T00610056
13870KAMG AMG20160304230510903/04/16 23:05:31  5-MIN KAMG 050405Z AUTO 00000KT 10SM CLR 06/06 A3015 -10 96 -1000 000/00 RMK AO2 T00610056
13870KAMG AMG20160304231010803/04/16 23:10:31  5-MIN KAMG 050410Z AUTO 00000KT 9SM CLR 06/06 A3015 -10 96 -1000 000/00 RMK AO2 T00610056
13870KAMG AMG20160304231510803/04/16 23:15:31  5-MIN KAMG 050415Z AUTO 00000KT 9SM CLR 06/06 A3015 -10 96 -1000 000/00 RMK AO2 T00610056
13870KAMG AMG20160304232010803/04/16 23:20:31  5-MIN KAMG 050420Z AUTO 00000KT 9SM CLR 06/06 A3015 -10 96 -1000 000/00 RMK AO2 T00610056
13870KAMG AMG20160304232510803/04/16 23:25:31  5-MIN KAMG 050425Z AUTO 00000KT 9SM CLR 06/06 A3015 -10 96 -1000 000/00 RMK AO2 T00610056
13870KAMG AMG20160304233010903/04/16 23:30:31  5-MIN KAMG 050430Z AUTO 00000KT 9SM CLR 05/05 A3015 -10 100 -1100 000/00 RMK AO2 T00500050
13870KAMG AMG20160304233510803/04/16 23:35:31  5-MIN KAMG 050435Z AUTO 00000KT 9SM CLR 06/05 A3016 -20 96 -1100 000/00 RMK AO2 T00560050
13870KAMG AMG20160304234010803/04/16 23:40:31  5-MIN KAMG 050440Z AUTO 00000KT 8SM CLR 06/05 A3016 -20 96 -1100 000/00 RMK AO2 T00560050
13870KAMG AMG20160304234511103/04/16 23:45:31  5-MIN KAMG 050445Z AUTO 00000KT 9SM FEW048 06/05 A3016 -10 93 -1000 000/00 RMK AO2 T00610050
13870KAMG AMG20160304235012803/04/16 23:50:31  5-MIN KAMG 050450Z AUTO 00000KT 9SM SCT048 06/05 A3015 -10 96 -1100 000/00 RMK AO2 SLP211 T00560050 401670050
13870KAMG AMG20160304235511403/04/16 23:55:31  5-MIN KAMG 050455Z AUTO 00000KT 6SM BR SCT048 06/05 A3015 -10 96 -1100 000/00 RMK AO2 T00560050
13870KAMG AMG20160305000011403/05/16 00:00:31  5-MIN KAMG 050500Z AUTO 00000KT 4SM BR FEW048 06/05 A3015 -10 96 -1100 000/00 RMK AO2 T00560050
13870KAMG AMG20160305000511303/05/16 00:05:31  5-MIN KAMG 050505Z AUTO 00000KT 4SM BR FEW048 05/05 A3015 0 100 -1100 000/00 RMK AO2 T00500050
13870KAMG AMG20160305001011303/05/16 00:10:31  5-MIN KAMG 050510Z AUTO 00000KT 4SM BR FEW048 05/05 A3014 0 100 -1100 000/00 RMK AO2 T00500050
13870KAMG AMG20160305001511203/05/16 00:15:31  5-MIN KAMG 050515Z AUTO 00000KT 4SM BR FEW046 05/04 A3014 0 96 -1100 000/00 RMK AO2 T00500044
13870KAMG AMG20160305002011303/05/16 00:20:31  5-MIN KAMG 050520Z AUTO 00000KT 4SM BR FEW046 05/05 A3014 0 100 -1100 000/00 RMK AO2 T00500050
13870KAMG AMG20160305002512003/05/16 00:25:31  5-MIN KAMG 050525Z AUTO 00000KT 3SM BR FEW002 FEW046 05/05 A3015 0 100 -1100 000/00 RMK AO2 T00500050
13870KAMG AMG20160305003012303/05/16 00:30:31  5-MIN KAMG 050530Z AUTO 00000KT 2 1/2SM BR FEW002 SCT046 06/05 A3015 0 96 -1100 000/00 RMK AO2 T00560050
13870KAMG AMG20160305003511303/05/16 00:35:31  5-MIN KAMG 050535Z AUTO 00000KT 3SM BR BKN046 05/05 A3014 0 100 -1100 000/00 RMK AO2 T00500050
13870KAMG AMG20160305004011303/05/16 00:40:31  5-MIN KAMG 050540Z AUTO 00000KT 4SM BR BKN046 05/05 A3014 0 100 -1100 000/00 RMK AO2 T00500050
13870KAMG AMG20160305004511303/05/16 00:45:31  5-MIN KAMG 050545Z AUTO 00000KT 3SM BR BKN046 05/05 A3014 0 100 -1100 000/00 RMK AO2 T00500050
13870KAMG AMG20160305005010703/05/16 00:50:31  5-MIN KAMG 050550Z AUTO 00000KT 2 1/2SM BR BKN046 05/05 A3014 0 100 -1100 000/00 RMK AO2
13870KAMG AMG20160305005511703/05/16 00:55:31  5-MIN KAMG 050555Z AUTO 00000KT 2 1/2SM BR BKN046 05/05 A3014 0 100 -1100 000/00 RMK AO2 T00500050
13870KAMG AMG20160305010011203/05/16 01:00:31  5-MIN KAMG 050600Z AUTO 00000KT 3SM BR BKN046 06/05 A3014 0 96 -1100 000/00 RMK AO2 T00560050
13870KAMG AMG20160305010511203/05/16 01:05:31  5-MIN KAMG 050605Z AUTO 00000KT 4SM BR BKN046 06/05 A3014 0 96 -1100 000/00 RMK AO2 T00560050
13870KAMG AMG20160305011011303/05/16 01:10:31  5-MIN KAMG 050610Z AUTO 00000KT 4SM BR BKN046 05/05 A3014 0 100 -1100 000/00 RMK AO2 T00500050
13870KAMG AMG20160305011511303/05/16 01:15:31  5-MIN KAMG 050615Z AUTO 00000KT 4SM BR SCT046 05/05 A3014 0 100 -1100 000/00 RMK AO2 T00500050
13870KAMG AMG20160305012011303/05/16 01:20:31  5-MIN KAMG 050620Z AUTO 00000KT 4SM BR SCT046 04/04 A3014 0 100 -1200 000/00 RMK AO2 T00440044
13870KAMG AMG20160305012511303/05/16 01:25:31  5-MIN KAMG 050625Z AUTO 00000KT 4SM BR FEW046 04/04 A3014 0 100 -1200 000/00 RMK AO2 T00440044
13870KAMG AMG20160305013011203/05/16 01:30:31  5-MIN KAMG 050630Z AUTO 00000KT 3SM BR FEW046 05/04 A3014 0 96 -1100 000/00 RMK AO2 T00500044
13870KAMG AMG20160305013511003/05/16 01:35:31  5-MIN KAMG 050635Z AUTO 00000KT 4SM BR CLR 05/04 A3013 10 96 -1100 000/00 RMK AO2 T00500044
13870KAMG AMG20160305014011003/05/16 01:40:31  5-MIN KAMG 050640Z AUTO 00000KT 4SM BR CLR 05/04 A3013 10 96 -1100 000/00 RMK AO2 T00500044
13870KAMG AMG20160305014511003/05/16 01:45:31  5-MIN KAMG 050645Z AUTO 00000KT 3SM BR CLR 04/04 A3013 10 96 -1200 000/00 RMK AO2 T00440039
13870KAMG AMG20160305015010103/05/16 01:50:31  5-MIN KAMG 050650Z AUTO 00000KT 2SM BR CLR 04/04 A3013 10 100 -1200 000/00 RMK AO2
13870KAMG AMG20160305015511103/05/16 01:55:31  5-MIN KAMG 050655Z AUTO 00000KT 2SM BR CLR 04/04 A3013 10 100 -1200 000/00 RMK AO2 T00440044
13870KAMG AMG20160305020011503/05/16 02:00:31  5-MIN KAMG 050700Z AUTO 00000KT 2 1/2SM BR CLR 04/04 A3013 10 100 -1200 000/00 RMK AO2 T00440044
13870KAMG AMG20160305020511103/05/16 02:05:31  5-MIN KAMG 050705Z AUTO 00000KT 3SM BR CLR 04/04 A3013 10 100 -1200 000/00 RMK AO2 T00440044
13870KAMG AMG20160305021011103/05/16 02:10:31  5-MIN KAMG 050710Z AUTO 00000KT 4SM BR CLR 04/04 A3013 10 100 -1200 000/00 RMK AO2 T00440044
13870KAMG AMG20160305021511103/05/16 02:15:31  5-MIN KAMG 050715Z AUTO 00000KT 4SM BR CLR 04/04 A3013 10 100 -1200 000/00 RMK AO2 T00440044
13870KAMG AMG20160305022011003/05/16 02:20:31  5-MIN KAMG 050720Z AUTO 00000KT 4SM BR CLR 04/04 A3013 10 96 -1200 000/00 RMK AO2 T00440039
13870KAMG AMG20160305022511003/05/16 02:25:31  5-MIN KAMG 050725Z AUTO 00000KT 4SM BR CLR 04/04 A3013 10 96 -1200 000/00 RMK AO2 T00440039
13870KAMG AMG20160305023011003/05/16 02:30:31  5-MIN KAMG 050730Z AUTO 00000KT 4SM BR CLR 04/04 A3013 10 96 -1200 000/00 RMK AO2 T00440039
13870KAMG AMG20160305023511103/05/16 02:35:31  5-MIN KAMG 050735Z AUTO 00000KT 5SM BR CLR 04/04 A3013 10 100 -1200 000/00 RMK AO2 T00440044
13870KAMG AMG20160305024010803/05/16 02:40:31  5-MIN KAMG 050740Z AUTO 00000KT 7SM CLR 04/04 A3013 10 100 -1200 000/00 RMK AO2 T00440044
13870KAMG AMG20160305024510703/05/16 02:45:31  5-MIN KAMG 050745Z AUTO 00000KT 8SM CLR 05/04 A3013 10 96 -1100 000/00 RMK AO2 T00500044
13870KAMG AMG20160305025011403/05/16 02:50:31  5-MIN KAMG 050750Z AUTO 00000KT 8SM CLR 05/04 A3013 10 96 -1100 000/00 RMK AO2 SLP202 T00500044
13870KAMG AMG20160305025510703/05/16 02:55:31  5-MIN KAMG 050755Z AUTO 00000KT 8SM CLR 05/04 A3013 10 96 -1100 000/00 RMK AO2 T00500044
13870KAMG AMG20160305030010803/05/16 03:00:31  5-MIN KAMG 050800Z AUTO 00000KT 7SM CLR 04/04 A3013 10 100 -1200 000/00 RMK AO2 T00440044
13870KAMG AMG20160305030511003/05/16 03:05:31  5-MIN KAMG 050805Z AUTO 00000KT 6SM BR CLR 04/04 A3012 10 96 -1200 000/00 RMK AO2 T00440039
13870KAMG AMG20160305031011003/05/16 03:10:31  5-MIN KAMG 050810Z AUTO 00000KT 6SM BR CLR 04/04 A3012 20 96 -1200 000/00 RMK AO2 T00440039
13870KAMG AMG20160305031510703/05/16 03:15:31  5-MIN KAMG 050815Z AUTO 00000KT 7SM CLR 04/04 A3012 20 96 -1200 000/00 RMK AO2 T00440039
13870KAMG AMG20160305032010703/05/16 03:20:31  5-MIN KAMG 050820Z AUTO 00000KT 7SM CLR 04/04 A3012 20 96 -1200 000/00 RMK AO2 T00440039
13870KAMG AMG20160305032510703/05/16 03:25:31  5-MIN KAMG 050825Z AUTO 00000KT 7SM CLR 04/04 A3012 20 96 -1200 000/00 RMK AO2 T00440039
13870KAMG AMG20160305033010703/05/16 03:30:31  5-MIN KAMG 050830Z AUTO 00000KT 7SM CLR 04/04 A3012 20 96 -1200 000/00 RMK AO2 T00440039
13870KAMG AMG20160305033510703/05/16 03:35:31  5-MIN KAMG 050835Z AUTO 00000KT 8SM CLR 04/03 A3012 10 96 -1200 000/00 RMK AO2 T00390033
13870KAMG AMG20160305034010703/05/16 03:40:31  5-MIN KAMG 050840Z AUTO 00000KT 8SM CLR 04/04 A3012 10 96 -1200 000/00 RMK AO2 T00440039
13870KAMG AMG20160305034511003/05/16 03:45:31  5-MIN KAMG 050845Z AUTO 00000KT 6SM BR CLR 04/04 A3013 10 96 -1200 000/00 RMK AO2 T00440039
13870KAMG AMG20160305035012403/05/16 03:50:31  5-MIN KAMG 050850Z AUTO 00000KT 5SM BR CLR 04/04 A3013 10 100 -1200 000/00 RMK AO2 SLP200 T00390039 50003
13870KAMG AMG20160305035511103/05/16 03:55:31  5-MIN KAMG 050855Z AUTO 00000KT 3SM BR CLR 04/04 A3013 10 100 -1200 000/00 RMK AO2 T00390039
13870KAMG AMG20160305040011403/05/16 04:00:31  5-MIN KAMG 050900Z AUTO 00000KT 2 1/2SM BR CLR 04/03 A3013 10 96 -1200 000/00 RMK AO2 T00390033
13870KAMG AMG20160305040511503/05/16 04:05:31  5-MIN KAMG 050905Z AUTO 00000KT 2 1/2SM BR CLR 03/03 A3013 10 100 -1300 000/00 RMK AO2 T00330033
13870KAMG AMG20160305041011003/05/16 04:10:31  5-MIN KAMG 050910Z AUTO 00000KT 4SM BR CLR 03/03 A3014 0 100 -1300 000/00 RMK AO2 T00330033
13870KAMG AMG20160305041510903/05/16 04:15:31  5-MIN KAMG 050915Z AUTO 00000KT 5SM BR CLR 04/03 A3014 0 96 -1300 000/00 RMK AO2 T00390033
13870KAMG AMG20160305042010603/05/16 04:20:31  5-MIN KAMG 050920Z AUTO 00000KT 9SM CLR 04/03 A3014 0 96 -1300 000/00 RMK AO2 T00390033
13870KAMG AMG20160305042510703/05/16 04:25:31  5-MIN KAMG 050925Z AUTO 00000KT 9SM CLR 04/03 A3013 10 96 -1200 000/00 RMK AO2 T00390033
13870KAMG AMG20160305043010803/05/16 04:30:31  5-MIN KAMG 050930Z AUTO 00000KT 7SM CLR 03/03 A3013 10 100 -1300 000/00 RMK AO2 T00330033
13870KAMG AMG20160305043511103/05/16 04:35:31  5-MIN KAMG 050935Z AUTO 00000KT 3SM BR CLR 03/03 A3013 10 100 -1300 000/00 RMK AO2 T00330033
13870KAMG AMG20160305044011303/05/16 04:40:31  5-MIN KAMG 050940Z AUTO 35003KT 2 1/2SM BR CLR 03/03 A3014 0 96 -1300 360/03 RMK AO2 T00330028
13870KAMG AMG20160305044511403/05/16 04:45:31  5-MIN KAMG 050945Z AUTO 34003KT 2 1/2SM BR CLR 03/03 A3014 0 100 -1300 350/03 RMK AO2 T00330033
13870KAMG AMG20160305045010003/05/16 04:50:31  5-MIN KAMG 050950Z AUTO 00000KT 3SM BR CLR 04/04 A3014 0 100 -1300 000/00 RMK AO2
13870KAMG AMG20160305045511003/05/16 04:55:31  5-MIN KAMG 050955Z AUTO 00000KT 3SM BR CLR 03/03 A3014 0 100 -1300 000/00 RMK AO2 T00330033
13870KAMG AMG20160305050011403/05/16 05:00:31  5-MIN KAMG 051000Z AUTO 00000KT 2 1/2SM BR CLR 03/03 A3014 0 100 -1300 000/00 RMK AO2 T00330033
13870KAMG AMG20160305050510903/05/16 05:05:31  5-MIN KAMG 051005Z AUTO 00000KT 3SM BR CLR 03/03 A3014 0 96 -1300 000/00 RMK AO2 T00330028
13870KAMG AMG20160305051011003/05/16 05:10:31  5-MIN KAMG 051010Z AUTO 00000KT 4SM BR CLR 03/03 A3015 0 100 -1400 000/00 RMK AO2 T00280028
13870KAMG AMG20160305051510903/05/16 05:15:31  5-MIN KAMG 051015Z AUTO 00000KT 4SM BR CLR 03/03 A3014 0 96 -1300 000/00 RMK AO2 T00330028
13870KAMG AMG20160305052012703/05/16 05:20:31  5-MIN KAMG 051020Z AUTO 00000KT 1 1/4SM BR FEW002 03/03 A3015 0 100 -1300 000/00 RMK AO2 VIS 1/2V4 T00330033
13870KAMG AMG20160305052511703/05/16 05:25:31  5-MIN KAMG 051025Z AUTO 00000KT 1 1/4SM BR FEW002 03/03 A3015 0 100 -1400 000/00 RMK AO2 T00280028
13870KAMG AMG20160305053011303/05/16 05:30:31  5-MIN KAMG 051030Z AUTO 00000KT 4SM BR FEW003 03/03 A3015 0 100 -1400 000/00 RMK AO2 T00280028
13870KAMG AMG20160305053511303/05/16 05:35:31  5-MIN KAMG 051035Z AUTO 00000KT 5SM BR FEW003 03/03 A3015 0 100 -1300 000/00 RMK AO2 T00330033
13870KAMG AMG20160305054011503/05/16 05:40:31  5-MIN KAMG 051040Z AUTO 00000KT 4SM BR FEW003 03/03 A3015 -10 100 -1300 000/00 RMK AO2 T00330033
13870KAMG AMG20160305054511903/05/16 05:45:31  5-MIN KAMG 051045Z AUTO 00000KT 2 1/2SM BR FEW003 03/03 A3016 -10 100 -1400 000/00 RMK AO2 T00280028
13870KAMG AMG20160305055010103/05/16 05:50:31  5-MIN KAMG 051050Z AUTO 00000KT 2SM BR CLR 03/03 A3016 -10 96 -1300 000/00 RMK AO2
13870KAMG AMG20160305055511203/05/16 05:55:31  5-MIN KAMG 051055Z AUTO 00000KT 3SM BR CLR 03/03 A3016 -10 100 -1400 000/00 RMK AO2 T00330033
13870KAMG AMG20160305060010803/05/16 06:00:31  5-MIN KAMG 051100Z AUTO 00000KT 7SM CLR 03/03 A3017 -20 96 -1400 000/00 RMK AO2 T00330028
13870KAMG AMG20160305060510803/05/16 06:05:31  5-MIN KAMG 051105Z AUTO 00000KT 8SM CLR 03/03 A3017 -20 96 -1400 000/00 RMK AO2 T00330028
13870KAMG AMG20160305061010803/05/16 06:10:31  5-MIN KAMG 051110Z AUTO 00000KT 8SM CLR 03/03 A3017 -20 96 -1400 000/00 RMK AO2 T00330028
13870KAMG AMG20160305061510803/05/16 06:15:31  5-MIN KAMG 051115Z AUTO 00000KT 8SM CLR 03/03 A3016 -20 96 -1400 000/00 RMK AO2 T00330028
13870KAMG AMG20160305062011103/05/16 06:20:31  5-MIN KAMG 051120Z AUTO 00000KT 6SM BR CLR 03/02 A3016 -10 96 -1400 000/00 RMK AO2 T00280022
13870KAMG AMG20160305062511603/05/16 06:25:31  5-MIN KAMG 051125Z AUTO 00000KT 1 3/4SM BR CLR 03/03 A3016 -10 100 -1400 000/00 RMK AO2 T00280028
13870KAMG AMG20160305063011203/05/16 06:30:31  5-MIN KAMG 051130Z AUTO 00000KT 1SM BR CLR 03/03 A3016 -10 100 -1400 000/00 RMK AO2 T00280028
13870KAMG AMG20160305063511603/05/16 06:35:31  5-MIN KAMG 051135Z AUTO 00000KT 1 3/4SM BR CLR 02/02 A3016 -20 100 -1500 000/00 RMK AO2 T00220022
13870KAMG AMG20160305064011503/05/16 06:40:31  5-MIN KAMG 051140Z AUTO 00000KT 2 1/2SM BR CLR 03/02 A3017 -20 96 -1400 000/00 RMK AO2 T00280022
13870KAMG AMG20160305064511803/05/16 06:45:31  5-MIN KAMG 051145Z AUTO 00000KT 2 1/2SM BR FEW002 03/02 A3017 -30 92 -1400 000/00 RMK AO2 T00330022
13870KAMG AMG20160305065014003/05/16 06:50:31  5-MIN KAMG 051150Z AUTO 00000KT 3SM BR FEW002 03/03 A3018 -30 100 -1400 000/00 RMK AO2 SLP218 T00280028 10056 20022 56005
13870KAMG AMG20160305065511503/05/16 06:55:31  5-MIN KAMG 051155Z AUTO 00000KT 4SM BR FEW002 03/03 A3018 -30 100 -1400 000/00 RMK AO2 T00280028
13870KAMG AMG20160305070011503/05/16 07:00:31  5-MIN KAMG 051200Z AUTO 00000KT 3SM BR FEW002 03/03 A3018 -30 100 -1400 000/00 RMK AO2 T00280028
13870KAMG AMG20160305070511403/05/16 07:05:31  5-MIN KAMG 051205Z AUTO 00000KT 2SM BR FEW002 03/02 A3018 -30 96 -1400 000/00 RMK AO2 T00280022
13870KAMG AMG20160305071011903/05/16 07:10:31  5-MIN KAMG 051210Z AUTO 00000KT 1 1/2SM BR FEW002 03/03 A3018 -30 100 -1400 000/00 RMK AO2 T00280028
13870KAMG AMG20160305071511103/05/16 07:15:31  5-MIN KAMG 051215Z AUTO 00000KT 2SM BR CLR 03/03 A3018 -40 96 -1400 000/00 RMK AO2 T00330028
13870KAMG AMG20160305072011203/05/16 07:20:31  5-MIN KAMG 051220Z AUTO 00000KT 6SM BR CLR 03/03 A3019 -40 100 -1400 000/00 RMK AO2 T00330033
13870KAMG AMG20160305072510903/05/16 07:25:31  5-MIN KAMG 051225Z AUTO 00000KT 7SM CLR 04/04 A3019 -40 100 -1300 000/00 RMK AO2 T00390039
13870KAMG AMG20160305073011203/05/16 07:30:31  5-MIN KAMG 051230Z AUTO 00000KT 4SM BR CLR 04/04 A3019 -40 100 -1300 000/00 RMK AO2 T00390039
13870KAMG AMG20160305073511203/05/16 07:35:31  5-MIN KAMG 051235Z AUTO 00000KT 3SM BR CLR 04/04 A3019 -50 100 -1300 000/00 RMK AO2 T00440044
13870KAMG AMG20160305074011203/05/16 07:40:31  5-MIN KAMG 051240Z AUTO 00000KT 4SM BR CLR 05/05 A3019 -40 100 -1200 000/00 RMK AO2 T00500050
13870KAMG AMG20160305074511103/05/16 07:45:31  5-MIN KAMG 051245Z AUTO 00000KT 6SM BR CLR 06/05 A3020 -50 96 -1100 000/00 RMK AO2 T00560050
13870KAMG AMG20160305075011603/05/16 07:50:31  5-MIN KAMG 051250Z AUTO 00000KT 7SM CLR 06/06 A3020 -50 100 -1100 000/00 RMK AO2 SLP226 T00560056
13870KAMG AMG20160305075510803/05/16 07:55:31  5-MIN KAMG 051255Z AUTO 00000KT 7SM CLR 06/06 A3020 -50 96 -1100 000/00 RMK AO2 T00610056
13870KAMG AMG20160305080010803/05/16 08:00:31  5-MIN KAMG 051300Z AUTO 00000KT 7SM CLR 07/06 A3020 -50 93 -1000 000/00 RMK AO2 T00670056
13870KAMG AMG20160305080510703/05/16 08:05:31  5-MIN KAMG 051305Z AUTO 00000KT 7SM CLR 07/06 A3020 -50 93 -900 000/00 RMK AO2 T00720061
13870KAMG AMG20160305081010703/05/16 08:10:31  5-MIN KAMG 051310Z AUTO 00000KT 8SM CLR 07/06 A3021 -60 93 -900 000/00 RMK AO2 T00720061
13870KAMG AMG20160305081510703/05/16 08:15:31  5-MIN KAMG 051315Z AUTO 00000KT 9SM CLR 08/07 A3021 -60 93 -900 000/00 RMK AO2 T00780067
13870KAMG AMG20160305082010703/05/16 08:20:31  5-MIN KAMG 051320Z AUTO 00000KT 9SM CLR 08/07 A3021 -60 93 -900 000/00 RMK AO2 T00780067
13870KAMG AMG20160305082510703/05/16 08:25:31  5-MIN KAMG 051325Z AUTO 00000KT 9SM CLR 08/07 A3021 -60 89 -800 000/00 RMK AO2 T00830067
13870KAMG AMG20160305083010703/05/16 08:30:31  5-MIN KAMG 051330Z AUTO 01003KT 9SM CLR 09/07 A3021 -60 89 -700 010/03 RMK AO2 T00890072
13870KAMG AMG20160305083510703/05/16 08:35:31  5-MIN KAMG 051335Z AUTO 00000KT 9SM CLR 09/07 A3021 -60 89 -700 000/00 RMK AO2 T00890072
13870KAMG AMG20160305084010803/05/16 08:40:31  5-MIN KAMG 051340Z AUTO 00000KT 10SM CLR 09/07 A3021 -60 86 -700 000/00 RMK AO2 T00940072
13870KAMG AMG20160305084510803/05/16 08:45:31  5-MIN KAMG 051345Z AUTO 35003KT 10SM CLR 09/07 A3021 -60 86 -700 360/03 RMK AO2 T00940072
13870KAMG AMG20160305085011503/05/16 08:50:31  5-MIN KAMG 051350Z AUTO 00000KT 10SM CLR 10/07 A3021 -60 83 -600 000/00 RMK AO2 SLP229 T01000072
13870KAMG AMG20160305085510803/05/16 08:55:31  5-MIN KAMG 051355Z AUTO 00000KT 10SM CLR 10/07 A3021 -60 83 -600 000/00 RMK AO2 T01000072
13870KAMG AMG20160305090010803/05/16 09:00:31  5-MIN KAMG 051400Z AUTO 00000KT 10SM CLR 10/07 A3021 -60 83 -600 000/00 RMK AO2 T01000072
13870KAMG AMG20160305090510803/05/16 09:05:31  5-MIN KAMG 051405Z AUTO 00000KT 10SM CLR 10/07 A3021 -60 80 -600 000/00 RMK AO2 T01000067
13870KAMG AMG20160305091010803/05/16 09:10:31  5-MIN KAMG 051410Z AUTO 00000KT 10SM CLR 11/07 A3021 -60 80 -500 000/00 RMK AO2 T01060072
13870KAMG AMG20160305091510803/05/16 09:15:31  5-MIN KAMG 051415Z AUTO 00000KT 10SM CLR 11/07 A3022 -70 77 -500 000/00 RMK AO2 T01110072
13870KAMG AMG20160305092010803/05/16 09:20:31  5-MIN KAMG 051420Z AUTO 00000KT 10SM CLR 11/07 A3022 -70 77 -500 000/00 RMK AO2 T01060067
13870KAMG AMG20160305092510803/05/16 09:25:31  5-MIN KAMG 051425Z AUTO 00000KT 10SM CLR 12/07 A3022 -70 71 -400 000/00 RMK AO2 T01170067
13870KAMG AMG20160305093010803/05/16 09:30:31  5-MIN KAMG 051430Z AUTO 00000KT 10SM CLR 11/07 A3022 -70 74 -500 000/00 RMK AO2 T01110067
13870KAMG AMG20160305093510803/05/16 09:35:31  5-MIN KAMG 051435Z AUTO 15003KT 10SM CLR 11/07 A3022 -70 74 -500 160/03 RMK AO2 T01110067
13870KAMG AMG20160305094010803/05/16 09:40:31  5-MIN KAMG 051440Z AUTO 00000KT 10SM CLR 12/07 A3022 -70 74 -400 000/00 RMK AO2 T01170072
13870KAMG AMG20160305094510803/05/16 09:45:31  5-MIN KAMG 051445Z AUTO VRB04KT 10SM CLR 12/07 A3021 -60 71 -300 VRB/04 RMK AO2 T01220072
13870KAMG AMG20160305095012103/05/16 09:50:31  5-MIN KAMG 051450Z AUTO 34006KT 10SM CLR 13/07 A3021 -60 69 -300 350/06 RMK AO2 SLP229 T01280072 51014
13870KAMG AMG20160305095510803/05/16 09:55:31  5-MIN KAMG 051455Z AUTO 34005KT 10SM CLR 13/07 A3021 -60 69 -300 350/05 RMK AO2 T01280072
13870KAMG AMG20160305100010803/05/16 10:00:31  5-MIN KAMG 051500Z AUTO 33006KT 10SM CLR 13/07 A3021 -60 69 -300 330/06 RMK AO2 T01280072
13870KAMG AMG20160305100510803/05/16 10:05:31  5-MIN KAMG 051505Z AUTO 35005KT 10SM CLR 13/07 A3021 -60 66 -200 360/05 RMK AO2 T01330072
13870KAMG AMG20160305101010803/05/16 10:10:31  5-MIN KAMG 051510Z AUTO 34005KT 10SM CLR 14/07 A3021 -60 64 -100 340/05 RMK AO2 T01390072
13870KAMG AMG20160305101510803/05/16 10:15:31  5-MIN KAMG 051515Z AUTO 33005KT 10SM CLR 14/07 A3021 -60 64 -100 340/05 RMK AO2 T01390072
13870KAMG AMG20160305102010803/05/16 10:20:31  5-MIN KAMG 051520Z AUTO 31005KT 10SM CLR 14/07 A3021 -60 61 -100 310/05 RMK AO2 T01440072
13870KAMG AMG20160305102510803/05/16 10:25:31  5-MIN KAMG 051525Z AUTO VRB03KT 10SM CLR 14/06 A3021 -60 57 -100 VRB/03 RMK AO2 T01390056
13870KAMG AMG20160305103010803/05/16 10:30:31  5-MIN KAMG 051530Z AUTO 01003KT 10SM CLR 14/06 A3021 -60 57 -100 010/03 RMK AO2 T01440061
13870KAMG AMG20160305103510503/05/16 10:35:31  5-MIN KAMG 051535Z AUTO 00000KT 10SM CLR 15/07 A3020 -50 57 0 000/00 RMK AO2 T01500067
13870KAMG AMG20160305104010503/05/16 10:40:31  5-MIN KAMG 051540Z AUTO 00000KT 10SM CLR 15/07 A3020 -50 57 0 000/00 RMK AO2 T01500067
13870KAMG AMG20160305104510503/05/16 10:45:31  5-MIN KAMG 051545Z AUTO 33003KT 10SM CLR 16/07 A3020 -50 55 0 340/03 RMK AO2 T01560067
13870KAMG AMG20160305105011203/05/16 10:50:31  5-MIN KAMG 051550Z AUTO VRB03KT 10SM CLR 16/06 A3020 -50 53 0 VRB/03 RMK AO2 SLP225 T01560061
13870KAMG AMG20160305105510503/05/16 10:55:31  5-MIN KAMG 051555Z AUTO 00000KT 10SM CLR 16/05 A3020 -50 49 0 000/00 RMK AO2 T01560050
13870KAMG AMG20160305110010703/05/16 11:00:31  5-MIN KAMG 051600Z AUTO 28004KT 10SM CLR 16/06 A3020 -50 49 100 280/04 RMK AO2 T01610056
13870KAMG AMG20160305110510503/05/16 11:05:31  5-MIN KAMG 051605Z AUTO 25003KT 10SM CLR 15/05 A3020 -50 51 0 250/03 RMK AO2 T01500050
13870KAMG AMG20160305111010503/05/16 11:10:31  5-MIN KAMG 051610Z AUTO 00000KT 10SM CLR 16/04 A3020 -50 47 0 000/00 RMK AO2 T01560044
13870KAMG AMG20160305111510503/05/16 11:15:31  5-MIN KAMG 051615Z AUTO 00000KT 10SM CLR 16/04 A3020 -50 47 0 000/00 RMK AO2 T01560044
13870KAMG AMG20160305112010503/05/16 11:20:31  5-MIN KAMG 051620Z AUTO 00000KT 10SM CLR 16/04 A3020 -50 45 0 000/00 RMK AO2 T01560039
13870KAMG AMG20160305112510703/05/16 11:25:31  5-MIN KAMG 051625Z AUTO 00000KT 10SM CLR 16/04 A3020 -50 45 100 000/00 RMK AO2 T01610044
13870KAMG AMG20160305113010703/05/16 11:30:31  5-MIN KAMG 051630Z AUTO 13003KT 10SM CLR 16/04 A3020 -50 45 100 140/03 RMK AO2 T01610044
13870KAMG AMG20160305113510703/05/16 11:35:31  5-MIN KAMG 051635Z AUTO 00000KT 10SM CLR 17/06 A3019 -50 47 200 000/00 RMK AO2 T01670056
13870KAMG AMG20160305114010703/05/16 11:40:31  5-MIN KAMG 051640Z AUTO VRB04KT 10SM CLR 17/04 A3019 -50 44 200 VRB/04 RMK AO2 T01670044
13870KAMG AMG20160305114510703/05/16 11:45:31  5-MIN KAMG 051645Z AUTO 00000KT 10SM CLR 16/04 A3019 -40 44 100 000/00 RMK AO2 T01610039
13870KAMG AMG20160305115011403/05/16 11:50:31  5-MIN KAMG 051650Z AUTO 00000KT 10SM CLR 17/04 A3019 -40 44 200 000/00 RMK AO2 SLP222 T01670044
13870KAMG AMG20160305115510703/05/16 11:55:31  5-MIN KAMG 051655Z AUTO VRB05KT 10SM CLR 17/04 A3019 -40 44 200 VRB/05 RMK AO2 T01670044
13870KAMG AMG20160305120010703/05/16 12:00:31  5-MIN KAMG 051700Z AUTO 33004KT 10SM CLR 17/05 A3018 -30 44 300 340/04 RMK AO2 T01720050
13870KAMG AMG20160305120510703/05/16 12:05:31  5-MIN KAMG 051705Z AUTO 00000KT 10SM CLR 16/04 A3018 -30 44 100 000/00 RMK AO2 T01610039
13870KAMG AMG20160305121010703/05/16 12:10:31  5-MIN KAMG 051710Z AUTO 33005KT 10SM CLR 17/04 A3018 -30 44 200 330/05 RMK AO2 T01670044
13870KAMG AMG20160305121510703/05/16 12:15:31  5-MIN KAMG 051715Z AUTO 32004KT 10SM CLR 17/04 A3018 -30 42 300 330/04 RMK AO2 T01720044
13870KAMG AMG20160305122010703/05/16 12:20:31  5-MIN KAMG 051720Z AUTO 00000KT 10SM CLR 18/04 A3018 -30 41 300 000/00 RMK AO2 T01780044
13870KAMG AMG20160305122510703/05/16 12:25:31  5-MIN KAMG 051725Z AUTO VRB03KT 10SM CLR 18/04 A3017 -30 41 300 VRB/03 RMK AO2 T01780044
13870KAMG AMG20160305123009703/05/16 12:30:31  5-MIN KAMG 051730Z AUTO 10SM CLR 17/04 A3017 -20 42 300 M /M RMK AO2 T01720044
13870KAMG AMG20160305123510703/05/16 12:35:31  5-MIN KAMG 051735Z AUTO 31004KT 10SM CLR 17/04 A3017 -20 42 300 320/04 RMK AO2 T01720044
13870KAMG AMG20160305124010703/05/16 12:40:31  5-MIN KAMG 051740Z AUTO VRB05KT 10SM CLR 17/04 A3017 -20 41 300 VRB/05 RMK AO2 T01720039
13870KAMG AMG20160305124510703/05/16 12:45:31  5-MIN KAMG 051745Z AUTO 29004KT 10SM CLR 18/04 A3016 -20 41 300 300/04 RMK AO2 T01780044
13870KAMG AMG20160305125013203/05/16 12:50:31  5-MIN KAMG 051750Z AUTO VRB04KT 10SM CLR 18/05 A3016 -10 42 300 VRB/04 RMK AO2 SLP211 T01780050 10178 20028 50012
13870KAMG AMG20160305125510703/05/16 12:55:31  5-MIN KAMG 051755Z AUTO 25004KT 10SM CLR 18/04 A3016 -10 41 300 260/04 RMK AO2 T01780044
13870KAMG AMG20160305130010703/05/16 13:00:31  5-MIN KAMG 051800Z AUTO 21005KT 10SM CLR 18/04 A3015 -10 41 400 220/05 RMK AO2 T01780044
13870KAMG AMG20160305130510503/05/16 13:05:31  5-MIN KAMG 051805Z AUTO 00000KT 10SM CLR 17/04 A3015 0 42 300 000/00 RMK AO2 T01720044
13870KAMG AMG20160305131010503/05/16 13:10:31  5-MIN KAMG 051810Z AUTO 02004KT 10SM CLR 18/04 A3014 0 39 400 030/04 RMK AO2 T01830044
13870KAMG AMG20160305131510503/05/16 13:15:31  5-MIN KAMG 051815Z AUTO 33004KT 10SM CLR 18/05 A3014 0 41 400 330/04 RMK AO2 T01830050
13870KAMG AMG20160305132009503/05/16 13:20:31  5-MIN KAMG 051820Z AUTO 10SM CLR 18/05 A3014 0 41 400 M /M RMK AO2 T01830050
13870KAMG AMG20160305132510503/05/16 13:25:31  5-MIN KAMG 051825Z AUTO 29006KT 10SM CLR 18/04 A3013 0 38 400 300/06 RMK AO2 T01830039
13870KAMG AMG20160305133010603/05/16 13:30:31  5-MIN KAMG 051830Z AUTO 25006KT 10SM CLR 18/04 A3013 10 41 400 250/06 RMK AO2 T01780044
13870KAMG AMG20160305133510603/05/16 13:35:31  5-MIN KAMG 051835Z AUTO VRB04KT 10SM CLR 18/04 A3013 10 39 400 VRB/04 RMK AO2 T01780039
13870KAMG AMG20160305134009603/05/16 13:40:31  5-MIN KAMG 051840Z AUTO 10SM CLR 18/04 A3013 10 41 400 M /M RMK AO2 T01780044
13870KAMG AMG20160305134510603/05/16 13:45:31  5-MIN KAMG 051845Z AUTO VRB06KT 10SM CLR 18/04 A3013 10 38 400 VRB/06 RMK AO2 T01830039
13870KAMG AMG20160305135011303/05/16 13:50:31  5-MIN KAMG 051850Z AUTO VRB05KT 10SM CLR 18/04 A3012 20 39 500 VRB/05 RMK AO2 SLP199 T01830044
13870KAMG AMG20160305135510603/05/16 13:55:31  5-MIN KAMG 051855Z AUTO 34006KT 10SM CLR 18/03 A3012 20 36 500 350/06 RMK AO2 T01830033
13870KAMG AMG20160305140010603/05/16 14:00:31  5-MIN KAMG 051900Z AUTO VRB05KT 10SM CLR 18/03 A3012 20 35 500 VRB/05 RMK AO2 T01830028
13870KAMG AMG20160305140510603/05/16 14:05:31  5-MIN KAMG 051905Z AUTO VRB04KT 10SM CLR 18/03 A3012 20 36 500 VRB/04 RMK AO2 T01830033
13870KAMG AMG20160305141010603/05/16 14:10:31  5-MIN KAMG 051910Z AUTO VRB05KT 10SM CLR 19/04 A3011 20 37 600 VRB/05 RMK AO2 T01940044
13870KAMG AMG20160305141510603/05/16 14:15:31  5-MIN KAMG 051915Z AUTO 01004KT 10SM CLR 19/04 A3011 30 36 500 010/04 RMK AO2 T01890039
13870KAMG AMG20160305142010603/05/16 14:20:31  5-MIN KAMG 051920Z AUTO 00000KT 10SM CLR 19/04 A3011 30 38 500 000/00 RMK AO2 T01890044
13870KAMG AMG20160305142510603/05/16 14:25:31  5-MIN KAMG 051925Z AUTO 00000KT 10SM CLR 19/04 A3011 30 36 500 000/00 RMK AO2 T01890039
13870KAMG AMG20160305143010603/05/16 14:30:31  5-MIN KAMG 051930Z AUTO 26005KT 10SM CLR 19/04 A3011 30 38 500 270/05 RMK AO2 T01890044
13870KAMG AMG20160305143510603/05/16 14:35:31  5-MIN KAMG 051935Z AUTO VRB03KT 10SM CLR 19/05 A3011 30 38 600 VRB/03 RMK AO2 T01940050
13870KAMG AMG20160305144012203/05/16 14:40:31  5-MIN KAMG 051940Z AUTO 26008KT 230V330 10SM CLR 19/05 A3011 30 38 600 270/08 240V340 RMK AO2 T01940050
13870KAMG AMG20160305144510603/05/16 14:45:31  5-MIN KAMG 051945Z AUTO 00000KT 10SM CLR 19/04 A3010 30 38 500 000/00 RMK AO2 T01890044
13870KAMG AMG20160305145010303/05/16 14:50:31  5-MIN KAMG 051950Z AUTO 10SM CLR 19/04 A3011 30 37 600 M /M RMK AO2 SLP193 T01940044
13870KAMG AMG20160305145510603/05/16 14:55:31  5-MIN KAMG 051955Z AUTO 33007KT 10SM CLR 19/04 A3011 30 35 600 340/07 RMK AO2 T01940039
13870KAMG AMG20160305150010603/05/16 15:00:31  5-MIN KAMG 052000Z AUTO 30008KT 10SM CLR 19/04 A3011 30 35 600 310/08 RMK AO2 T01940039
13870KAMG AMG20160305150510603/05/16 15:05:31  5-MIN KAMG 052005Z AUTO VRB05KT 10SM CLR 19/03 A3011 30 34 600 VRB/05 RMK AO2 T01940033
13870KAMG AMG20160305151010603/05/16 15:10:31  5-MIN KAMG 052010Z AUTO VRB03KT 10SM CLR 18/03 A3010 30 36 500 VRB/03 RMK AO2 T01830033
13870KAMG AMG20160305151509603/05/16 15:15:31  5-MIN KAMG 052015Z AUTO 10SM CLR 19/03 A3010 30 34 500 M /M RMK AO2 T01890028
13870KAMG AMG20160305152010603/05/16 15:20:31  5-MIN KAMG 052020Z AUTO 00000KT 10SM CLR 19/03 A3010 40 35 500 000/00 RMK AO2 T01890033
13870KAMG AMG20160305152510603/05/16 15:25:31  5-MIN KAMG 052025Z AUTO 00000KT 10SM CLR 19/03 A3010 40 34 600 000/00 RMK AO2 T01940033
13870KAMG AMG20160305153010603/05/16 15:30:31  5-MIN KAMG 052030Z AUTO 28005KT 10SM CLR 19/04 A3010 40 35 600 290/05 RMK AO2 T01940039
13870KAMG AMG20160305153510603/05/16 15:35:31  5-MIN KAMG 052035Z AUTO 27006KT 10SM CLR 19/04 A3010 40 38 500 270/06 RMK AO2 T01890044
13870KAMG AMG20160305154010603/05/16 15:40:31  5-MIN KAMG 052040Z AUTO VRB03KT 10SM CLR 19/04 A3009 40 38 500 VRB/03 RMK AO2 T01890044
13870KAMG AMG20160305154510603/05/16 15:45:31  5-MIN KAMG 052045Z AUTO 27004KT 10SM CLR 19/04 A3009 40 36 500 270/04 RMK AO2 T01890039
13870KAMG AMG20160305155011903/05/16 15:50:31  5-MIN KAMG 052050Z AUTO 00000KT 10SM CLR 19/04 A3009 40 37 600 000/00 RMK AO2 SLP188 T01940044 58019
13870KAMG AMG20160305155510603/05/16 15:55:31  5-MIN KAMG 052055Z AUTO VRB05KT 10SM CLR 19/04 A3009 50 37 600 VRB/05 RMK AO2 T01940044
13870KAMG AMG20160305160010603/05/16 16:00:31  5-MIN KAMG 052100Z AUTO 35005KT 10SM CLR 20/04 A3009 50 35 700 350/05 RMK AO2 T02000044
13870KAMG AMG20160305160510603/05/16 16:05:31  5-MIN KAMG 052105Z AUTO VRB03KT 10SM CLR 19/04 A3008 50 37 600 VRB/03 RMK AO2 T01940044
13870KAMG AMG20160305161010603/05/16 16:10:31  5-MIN KAMG 052110Z AUTO 30005KT 10SM CLR 19/05 A3008 50 38 600 310/05 RMK AO2 T01940050
13870KAMG AMG20160305161510603/05/16 16:15:31  5-MIN KAMG 052115Z AUTO 24006KT 10SM CLR 19/05 A3008 50 39 600 250/06 RMK AO2 T01890050
13870KAMG AMG20160305162010603/05/16 16:20:31  5-MIN KAMG 052120Z AUTO VRB04KT 10SM CLR 19/05 A3008 50 39 600 VRB/04 RMK AO2 T01890050
13870KAMG AMG20160305162510603/05/16 16:25:31  5-MIN KAMG 052125Z AUTO 00000KT 10SM CLR 19/05 A3008 60 39 600 000/00 RMK AO2 T01890050
13870KAMG AMG20160305163010603/05/16 16:30:31  5-MIN KAMG 052130Z AUTO 32005KT 10SM CLR 19/05 A3008 60 39 600 320/05 RMK AO2 T01890050
13870KAMG AMG20160305163510603/05/16 16:35:31  5-MIN KAMG 052135Z AUTO 35005KT 10SM CLR 19/05 A3007 60 38 600 360/05 RMK AO2 T01940050
13870KAMG AMG20160305164010603/05/16 16:40:31  5-MIN KAMG 052140Z AUTO 27003KT 10SM CLR 19/06 A3007 60 41 600 270/03 RMK AO2 T01890056
13870KAMG AMG20160305164510603/05/16 16:45:31  5-MIN KAMG 052145Z AUTO 33003KT 10SM CLR 19/05 A3007 60 39 600 330/03 RMK AO2 T01890050
13870KAMG AMG20160305165011303/05/16 16:50:31  5-MIN KAMG 052150Z AUTO 26003KT 10SM CLR 19/05 A3007 60 39 600 270/03 RMK AO2 SLP181 T01890050
13870KAMG AMG20160305165510603/05/16 16:55:31  5-MIN KAMG 052155Z AUTO 00000KT 10SM CLR 19/05 A3007 70 39 600 000/00 RMK AO2 T01890050
13870KAMG AMG20160305170010603/05/16 17:00:31  5-MIN KAMG 052200Z AUTO 00000KT 10SM CLR 19/05 A3006 70 39 600 000/00 RMK AO2 T01890050
13870KAMG AMG20160305170510603/05/16 17:05:31  5-MIN KAMG 052205Z AUTO 00000KT 10SM CLR 19/05 A3007 70 39 600 000/00 RMK AO2 T01890050
13870KAMG AMG20160305171010603/05/16 17:10:31  5-MIN KAMG 052210Z AUTO 00000KT 10SM CLR 19/05 A3007 70 39 600 000/00 RMK AO2 T01890050
13870KAMG AMG20160305171510603/05/16 17:15:31  5-MIN KAMG 052215Z AUTO 31003KT 10SM CLR 19/06 A3006 70 41 600 310/03 RMK AO2 T01890056
13870KAMG AMG20160305172010603/05/16 17:20:31  5-MIN KAMG 052220Z AUTO 00000KT 10SM CLR 19/05 A3007 70 39 600 000/00 RMK AO2 T01890050
13870KAMG AMG20160305172510603/05/16 17:25:31  5-MIN KAMG 052225Z AUTO 00000KT 10SM CLR 19/05 A3007 70 39 600 000/00 RMK AO2 T01890050
13870KAMG AMG20160305173010603/05/16 17:30:31  5-MIN KAMG 052230Z AUTO 00000KT 10SM CLR 19/05 A3007 70 39 600 000/00 RMK AO2 T01890050
13870KAMG AMG20160305173510603/05/16 17:35:31  5-MIN KAMG 052235Z AUTO 00000KT 10SM CLR 19/05 A3007 70 39 600 000/00 RMK AO2 T01890050
13870KAMG AMG20160305174010603/05/16 17:40:31  5-MIN KAMG 052240Z AUTO 07003KT 10SM CLR 19/06 A3007 70 41 600 070/03 RMK AO2 T01890056
13870KAMG AMG20160305174510603/05/16 17:45:31  5-MIN KAMG 052245Z AUTO 00000KT 10SM CLR 18/06 A3006 70 42 500 000/00 RMK AO2 T01830056
13870KAMG AMG20160305175011303/05/16 17:50:31  5-MIN KAMG 052250Z AUTO 00000KT 10SM CLR 19/05 A3006 70 39 600 000/00 RMK AO2 SLP180 T01890050
13870KAMG AMG20160305175510603/05/16 17:55:31  5-MIN KAMG 052255Z AUTO 00000KT 10SM CLR 19/05 A3006 70 39 600 000/00 RMK AO2 T01890050
13870KAMG AMG20160305180010603/05/16 18:00:31  5-MIN KAMG 052300Z AUTO 00000KT 10SM CLR 18/06 A3006 70 44 500 000/00 RMK AO2 T01830061
13870KAMG AMG20160305180510603/05/16 18:05:31  5-MIN KAMG 052305Z AUTO 00000KT 10SM CLR 18/06 A3006 70 42 500 000/00 RMK AO2 T01830056
13870KAMG AMG20160305181010603/05/16 18:10:31  5-MIN KAMG 052310Z AUTO 00000KT 10SM CLR 18/06 A3007 70 46 500 000/00 RMK AO2 T01780061
13870KAMG AMG20160305181510603/05/16 18:15:31  5-MIN KAMG 052315Z AUTO 00000KT 10SM CLR 18/06 A3007 70 46 400 000/00 RMK AO2 T01780061
13870KAMG AMG20160305182010603/05/16 18:20:31  5-MIN KAMG 052320Z AUTO 27003KT 10SM CLR 17/06 A3007 60 47 400 280/03 RMK AO2 T01720061
13870KAMG AMG20160305182510603/05/16 18:25:31  5-MIN KAMG 052325Z AUTO 29003KT 10SM CLR 17/07 A3007 60 53 300 290/03 RMK AO2 T01670072
13870KAMG AMG20160305183010603/05/16 18:30:31  5-MIN KAMG 052330Z AUTO 00000KT 10SM CLR 16/08 A3008 60 62 200 000/00 RMK AO2 T01560083
13870KAMG AMG20160305183510603/05/16 18:35:31  5-MIN KAMG 052335Z AUTO 00000KT 10SM CLR 15/08 A3008 50 62 100 000/00 RMK AO2 T01500078
13870KAMG AMG20160305184010603/05/16 18:40:31  5-MIN KAMG 052340Z AUTO 00000KT 10SM CLR 15/08 A3009 50 64 100 000/00 RMK AO2 T01500083
13870KAMG AMG20160305184510603/05/16 18:45:31  5-MIN KAMG 052345Z AUTO 00000KT 10SM CLR 15/08 A3009 50 64 100 000/00 RMK AO2 T01500083
13870KAMG AMG20160305185013203/05/16 18:50:31  5-MIN KAMG 052350Z AUTO 00000KT 10SM CLR 13/08 A3009 50 69 -100 000/00 RMK AO2 SLP189 T01330078 10200 20133 56022
13870KAMG AMG20160305185510703/05/16 18:55:31  5-MIN KAMG 052355Z AUTO 34003KT 10SM CLR 13/08 A3009 40 69 -100 350/03 RMK AO2 T01330078
13870KAMG AMG20160305190010703/05/16 19:00:31  5-MIN KAMG 060000Z AUTO 00000KT 10SM CLR 12/08 A3009 40 77 -200 000/00 RMK AO2 T01220083
13870KAMG AMG20160305190510703/05/16 19:05:31  5-MIN KAMG 060005Z AUTO 00000KT 10SM CLR 13/08 A3009 40 74 -100 000/00 RMK AO2 T01280083
13870KAMG AMG20160305191010703/05/16 19:10:31  5-MIN KAMG 060010Z AUTO 00000KT 10SM CLR 12/08 A3009 40 77 -200 000/00 RMK AO2 T01220083
13870KAMG AMG20160305191510703/05/16 19:15:31  5-MIN KAMG 060015Z AUTO 00000KT 10SM CLR 12/08 A3009 40 77 -300 000/00 RMK AO2 T01170078
13870KAMG AMG20160305192010703/05/16 19:20:31  5-MIN KAMG 060020Z AUTO 00000KT 10SM CLR 12/08 A3010 40 74 -200 000/00 RMK AO2 T01220078
13870KAMG AMG20160305192510703/05/16 19:25:31  5-MIN KAMG 060025Z AUTO 00000KT 10SM CLR 12/08 A3010 40 77 -300 000/00 RMK AO2 T01170078
13870KAMG AMG20160305193010703/05/16 19:30:31  5-MIN KAMG 060030Z AUTO 33003KT 10SM CLR 11/08 A3010 30 80 -300 340/03 RMK AO2 T01110078
13870KAMG AMG20160305193510703/05/16 19:35:31  5-MIN KAMG 060035Z AUTO 00000KT 10SM CLR 12/08 A3010 30 77 -200 000/00 RMK AO2 T01220083
13870KAMG AMG20160305194010703/05/16 19:40:31  5-MIN KAMG 060040Z AUTO 00000KT 10SM CLR 12/08 A3010 30 80 -300 000/00 RMK AO2 T01170083
13870KAMG AMG20160305194510703/05/16 19:45:31  5-MIN KAMG 060045Z AUTO 00000KT 10SM CLR 11/08 A3010 30 83 -300 000/00 RMK AO2 T01110083
13870KAMG AMG20160305195011403/05/16 19:50:31  5-MIN KAMG 060050Z AUTO 00000KT 10SM CLR 11/08 A3011 30 83 -400 000/00 RMK AO2 SLP194 T01060078
13870KAMG AMG20160305195510703/05/16 19:55:31  5-MIN KAMG 060055Z AUTO 00000KT 10SM CLR 11/08 A3011 30 86 -400 000/00 RMK AO2 T01060083
13870KAMG AMG20160305200010703/05/16 20:00:31  5-MIN KAMG 060100Z AUTO 00000KT 10SM CLR 11/08 A3011 30 86 -400 000/00 RMK AO2 T01060083
13870KAMG AMG20160305200510703/05/16 20:05:31  5-MIN KAMG 060105Z AUTO 00000KT 10SM CLR 11/08 A3011 30 83 -400 000/00 RMK AO2 T01060078
13870KAMG AMG20160305201010703/05/16 20:10:31  5-MIN KAMG 060110Z AUTO 00000KT 10SM CLR 10/08 A3011 30 86 -500 000/00 RMK AO2 T01000078
13870KAMG AMG20160305201510703/05/16 20:15:31  5-MIN KAMG 060115Z AUTO 00000KT 10SM CLR 10/08 A3011 20 86 -500 000/00 RMK AO2 T01000078
13870KAMG AMG20160305202010703/05/16 20:20:31  5-MIN KAMG 060120Z AUTO 00000KT 10SM CLR 11/08 A3012 20 83 -400 000/00 RMK AO2 T01060078
13870KAMG AMG20160305202510703/05/16 20:25:31  5-MIN KAMG 060125Z AUTO 00000KT 10SM CLR 11/08 A3011 20 83 -400 000/00 RMK AO2 T01060078
13870KAMG AMG20160305203010703/05/16 20:30:31  5-MIN KAMG 060130Z AUTO 00000KT 10SM CLR 10/08 A3012 20 86 -500 000/00 RMK AO2 T01000078
13870KAMG AMG20160305203510703/05/16 20:35:31  5-MIN KAMG 060135Z AUTO 00000KT 10SM CLR 10/08 A3012 20 86 -500 000/00 RMK AO2 T01000078
13870KAMG AMG20160305204010703/05/16 20:40:31  5-MIN KAMG 060140Z AUTO 00000KT 10SM CLR 10/08 A3012 20 86 -500 000/00 RMK AO2 T01000078
13870KAMG AMG20160305204510703/05/16 20:45:31  5-MIN KAMG 060145Z AUTO 00000KT 10SM CLR 09/08 A3012 20 89 -600 000/00 RMK AO2 T00940078
13870KAMG AMG20160305205011403/05/16 20:50:31  5-MIN KAMG 060150Z AUTO 00000KT 10SM CLR 10/08 A3012 20 86 -500 000/00 RMK AO2 SLP197 T01000078
13870KAMG AMG20160305205510703/05/16 20:55:31  5-MIN KAMG 060155Z AUTO 00000KT 10SM CLR 09/08 A3012 20 89 -600 000/00 RMK AO2 T00940078
13870KAMG AMG20160305210010703/05/16 21:00:31  5-MIN KAMG 060200Z AUTO 00000KT 10SM CLR 09/08 A3012 20 93 -600 000/00 RMK AO2 T00890078
13870KAMG AMG20160305210510703/05/16 21:05:31  5-MIN KAMG 060205Z AUTO 00000KT 10SM CLR 10/08 A3012 20 86 -500 000/00 RMK AO2 T01000078
13870KAMG AMG20160305211010703/05/16 21:10:31  5-MIN KAMG 060210Z AUTO 00000KT 10SM CLR 10/08 A3013 10 86 -500 000/00 RMK AO2 T01000078
13870KAMG AMG20160305211510703/05/16 21:15:31  5-MIN KAMG 060215Z AUTO 00000KT 10SM CLR 10/08 A3013 10 86 -500 000/00 RMK AO2 T01000078
13870KAMG AMG20160305212010703/05/16 21:20:31  5-MIN KAMG 060220Z AUTO 00000KT 10SM CLR 09/08 A3013 10 93 -600 000/00 RMK AO2 T00940083
13870KAMG AMG20160305212510703/05/16 21:25:31  5-MIN KAMG 060225Z AUTO 00000KT 10SM CLR 09/08 A3013 10 93 -600 000/00 RMK AO2 T00940083
13870KAMG AMG20160305213010703/05/16 21:30:31  5-MIN KAMG 060230Z AUTO 00000KT 10SM CLR 09/08 A3013 10 93 -600 000/00 RMK AO2 T00940083
13870KAMG AMG20160305213510703/05/16 21:35:31  5-MIN KAMG 060235Z AUTO 00000KT 10SM CLR 09/08 A3013 10 93 -600 000/00 RMK AO2 T00940083
13870KAMG AMG20160305214010703/05/16 21:40:31  5-MIN KAMG 060240Z AUTO 00000KT 10SM CLR 09/08 A3013 10 93 -600 000/00 RMK AO2 T00890078
13870KAMG AMG20160305214510603/05/16 21:45:31  5-MIN KAMG 060245Z AUTO 00000KT 10SM CLR 09/08 A3014 0 93 -600 000/00 RMK AO2 T00890078
13870KAMG AMG20160305215011903/05/16 21:50:31  5-MIN KAMG 060250Z AUTO 00000KT 10SM CLR 09/08 A3014 0 93 -600 000/00 RMK AO2 SLP204 T00890078 53000
13870KAMG AMG20160305215510603/05/16 21:55:31  5-MIN KAMG 060255Z AUTO 00000KT 10SM CLR 09/08 A3014 0 93 -600 000/00 RMK AO2 T00890078
13870KAMG AMG20160305220010603/05/16 22:00:31  5-MIN KAMG 060300Z AUTO 00000KT 10SM CLR 08/08 A3014 0 96 -700 000/00 RMK AO2 T00830078
13870KAMG AMG20160305220510703/05/16 22:05:31  5-MIN KAMG 060305Z AUTO 00000KT 10SM CLR 09/08 A3013 10 96 -600 000/00 RMK AO2 T00890083
13870KAMG AMG20160305221010603/05/16 22:10:31  5-MIN KAMG 060310Z AUTO 00000KT 10SM CLR 09/08 A3013 0 96 -600 000/00 RMK AO2 T00890083
13870KAMG AMG20160305221510803/05/16 22:15:31  5-MIN KAMG 060315Z AUTO 00000KT 10SM CLR 08/08 A3013 10 100 -700 000/00 RMK AO2 T00830083
13870KAMG AMG20160305222010603/05/16 22:20:31  5-MIN KAMG 060320Z AUTO 00000KT 10SM CLR 09/08 A3014 0 93 -600 000/00 RMK AO2 T00890078
13870KAMG AMG20160305222510603/05/16 22:25:31  5-MIN KAMG 060325Z AUTO 00000KT 10SM CLR 09/08 A3014 0 93 -600 000/00 RMK AO2 T00890078
13870KAMG AMG20160305223010603/05/16 22:30:31  5-MIN KAMG 060330Z AUTO 00000KT 10SM CLR 09/08 A3014 0 93 -600 000/00 RMK AO2 T00890078
13870KAMG AMG20160305223510603/05/16 22:35:31  5-MIN KAMG 060335Z AUTO 00000KT 10SM CLR 09/08 A3013 0 93 -600 000/00 RMK AO2 T00890078
13870KAMG AMG20160305224010703/05/16 22:40:31  5-MIN KAMG 060340Z AUTO 00000KT 10SM CLR 09/08 A3013 10 93 -600 000/00 RMK AO2 T00890078
13870KAMG AMG20160305224510603/05/16 22:45:31  5-MIN KAMG 060345Z AUTO 00000KT 10SM CLR 08/08 A3014 0 96 -700 000/00 RMK AO2 T00830078
13870KAMG AMG20160305225011303/05/16 22:50:31  5-MIN KAMG 060350Z AUTO 00000KT 10SM CLR 09/08 A3014 0 93 -600 000/00 RMK AO2 SLP206 T00890078
13870KAMG AMG20160305225510603/05/16 22:55:31  5-MIN KAMG 060355Z AUTO 00000KT 10SM CLR 08/08 A3014 0 96 -700 000/00 RMK AO2 T00830078
13870KAMG AMG20160305230010503/05/16 23:00:31  5-MIN KAMG 060400Z AUTO 00000KT 9SM CLR 08/08 A3015 0 96 -700 000/00 RMK AO2 T00830078
13870KAMG AMG20160305230510503/05/16 23:05:31  5-MIN KAMG 060405Z AUTO 00000KT 9SM CLR 08/08 A3015 0 96 -700 000/00 RMK AO2 T00830078
13870KAMG AMG20160305231010603/05/16 23:10:31  5-MIN KAMG 060410Z AUTO 00000KT 9SM CLR 08/08 A3015 0 100 -800 000/00 RMK AO2 T00780078
13870KAMG AMG20160305231510503/05/16 23:15:31  5-MIN KAMG 060415Z AUTO 00000KT 9SM CLR 08/08 A3015 0 96 -700 000/00 RMK AO2 T00830078
13870KAMG AMG20160305232010603/05/16 23:20:31  5-MIN KAMG 060420Z AUTO 00000KT 8SM CLR 08/08 A3015 0 100 -800 000/00 RMK AO2 T00780078
13870KAMG AMG20160305232510503/05/16 23:25:31  5-MIN KAMG 060425Z AUTO 00000KT 8SM CLR 08/07 A3015 0 96 -800 000/00 RMK AO2 T00780072
13870KAMG AMG20160305233010503/05/16 23:30:31  5-MIN KAMG 060430Z AUTO 00000KT 8SM CLR 08/07 A3015 0 96 -800 000/00 RMK AO2 T00780072
13870KAMG AMG20160305233510503/05/16 23:35:31  5-MIN KAMG 060435Z AUTO 00000KT 8SM CLR 08/07 A3015 0 96 -800 000/00 RMK AO2 T00780072
13870KAMG AMG20160305234010603/05/16 23:40:31  5-MIN KAMG 060440Z AUTO 00000KT 8SM CLR 07/07 A3015 0 100 -900 000/00 RMK AO2 T00720072
13870KAMG AMG20160305234510503/05/16 23:45:31  5-MIN KAMG 060445Z AUTO 00000KT 7SM CLR 07/07 A3015 0 96 -900 000/00 RMK AO2 T00720067
13870KAMG AMG20160305235012203/05/16 23:50:31  5-MIN KAMG 060450Z AUTO 00000KT 8SM CLR 08/07 A3014 0 96 -800 000/00 RMK AO2 SLP207 T00780072 402000022
13870KAMG AMG20160305235510503/05/16 23:55:31  5-MIN KAMG 060455Z AUTO 00000KT 9SM CLR 08/07 A3014 0 96 -800 000/00 RMK AO2 T00780072
13870KAMG AMG20160306000010603/06/16 00:00:31  5-MIN KAMG 060500Z AUTO 00000KT 10SM CLR 08/07 A3015 0 96 -800 000/00 RMK AO2 T00780072
13870KAMG AMG20160306000510503/06/16 00:05:31  5-MIN KAMG 060505Z AUTO 00000KT 9SM CLR 08/07 A3015 0 93 -800 000/00 RMK AO2 T00780067
13870KAMG AMG20160306001010503/06/16 00:10:31  5-MIN KAMG 060510Z AUTO 00000KT 9SM CLR 08/07 A3015 0 96 -800 000/00 RMK AO2 T00780072
13870KAMG AMG20160306001510503/06/16 00:15:31  5-MIN KAMG 060515Z AUTO 00000KT 9SM CLR 08/07 A3015 0 96 -800 000/00 RMK AO2 T00780072
13870KAMG AMG20160306002010503/06/16 00:20:31  5-MIN KAMG 060520Z AUTO 00000KT 9SM CLR 08/07 A3015 0 96 -800 000/00 RMK AO2 T00780072
13870KAMG AMG20160306002510503/06/16 00:25:31  5-MIN KAMG 060525Z AUTO 00000KT 9SM CLR 07/07 A3015 0 96 -900 000/00 RMK AO2 T00720067
13870KAMG AMG20160306003010503/06/16 00:30:31  5-MIN KAMG 060530Z AUTO 00000KT 7SM CLR 07/07 A3015 0 96 -900 000/00 RMK AO2 T00720067
13870KAMG AMG20160306003510503/06/16 00:35:31  5-MIN KAMG 060535Z AUTO 00000KT 7SM CLR 08/07 A3015 0 93 -800 000/00 RMK AO2 T00780067
13870KAMG AMG20160306004010503/06/16 00:40:31  5-MIN KAMG 060540Z AUTO 00000KT 7SM CLR 07/07 A3014 0 96 -900 000/00 RMK AO2 T00720067
13870KAMG AMG20160306004510503/06/16 00:45:31  5-MIN KAMG 060545Z AUTO 00000KT 7SM CLR 07/07 A3014 0 96 -900 000/00 RMK AO2 T00720067
13870KAMG AMG20160306005013003/06/16 00:50:31  5-MIN KAMG 060550Z AUTO 00000KT 7SM CLR 07/06 A3014 0 96 -900 000/00 RMK AO2 SLP205 T00670061 10133 20067 53016
13870KAMG AMG20160306005510503/06/16 00:55:31  5-MIN KAMG 060555Z AUTO 00000KT 7SM CLR 07/06 A3014 0 93 -800 000/00 RMK AO2 T00720061
13870KAMG AMG20160306010010503/06/16 01:00:31  5-MIN KAMG 060600Z AUTO 00000KT 7SM CLR 07/07 A3014 0 96 -800 000/00 RMK AO2 T00720067
13870KAMG AMG20160306010510503/06/16 01:05:31  5-MIN KAMG 060605Z AUTO 00000KT 7SM CLR 07/07 A3014 0 96 -800 000/00 RMK AO2 T00720067
13870KAMG AMG20160306011010503/06/16 01:10:31  5-MIN KAMG 060610Z AUTO 00000KT 8SM CLR 07/07 A3014 0 96 -800 000/00 RMK AO2 T00720067
13870KAMG AMG20160306011510503/06/16 01:15:31  5-MIN KAMG 060615Z AUTO 00000KT 8SM CLR 07/06 A3014 0 96 -900 000/00 RMK AO2 T00670061
13870KAMG AMG20160306012010503/06/16 01:20:31  5-MIN KAMG 060620Z AUTO 00000KT 7SM CLR 07/06 A3014 0 96 -900 000/00 RMK AO2 T00670061
13870KAMG AMG20160306012510503/06/16 01:25:31  5-MIN KAMG 060625Z AUTO 00000KT 7SM CLR 07/06 A3014 0 96 -900 000/00 RMK AO2 T00670061
13870KAMG AMG20160306013010603/06/16 01:30:31  5-MIN KAMG 060630Z AUTO 00000KT 7SM CLR 06/06 A3014 0 96 -1000 000/00 RMK AO2 T00610056
13870KAMG AMG20160306013510603/06/16 01:35:31  5-MIN KAMG 060635Z AUTO 00000KT 7SM CLR 06/06 A3014 0 96 -1000 000/00 RMK AO2 T00610056
13870KAMG AMG20160306014010503/06/16 01:40:31  5-MIN KAMG 060640Z AUTO 00000KT 7SM CLR 07/06 A3014 0 93 -800 000/00 RMK AO2 T00720061
13870KAMG AMG20160306014510503/06/16 01:45:31  5-MIN KAMG 060645Z AUTO 00000KT 7SM CLR 07/06 A3014 0 96 -900 000/00 RMK AO2 T00670061
13870KAMG AMG20160306015011303/06/16 01:50:31  5-MIN KAMG 060650Z AUTO 00000KT 7SM CLR 06/06 A3014 0 96 -1000 000/00 RMK AO2 SLP204 T00610056
13870KAMG AMG20160306015511003/06/16 01:55:31  5-MIN KAMG 060655Z AUTO 00000KT 4SM BR CLR 06/06 A3014 0 100 -1000 000/00 RMK AO2 T00610061
13870KAMG AMG20160306020012603/06/16 02:00:31  5-MIN KAMG 060700Z AUTO 00000KT 2 1/2SM BR CLR 06/06 A3014 0 100 -1000 000/00 RMK AO2 VIS 1 1/2V5 T00610061
13870KAMG AMG20160306020511303/06/16 02:05:31  5-MIN KAMG 060705Z AUTO 00000KT 2 1/2SM BR CLR 06/06 A3014 0 96 -1000 000/00 RMK AO2 T00610056
13870KAMG AMG20160306021010903/06/16 02:10:31  5-MIN KAMG 060710Z AUTO 00000KT 4SM BR CLR 06/06 A3014 0 96 -1000 000/00 RMK AO2 T00610056
13870KAMG AMG20160306021510903/06/16 02:15:31  5-MIN KAMG 060715Z AUTO 00000KT 5SM BR CLR 06/06 A3014 0 96 -1000 000/00 RMK AO2 T00610056
13870KAMG AMG20160306022010903/06/16 02:20:31  5-MIN KAMG 060720Z AUTO 00000KT 5SM BR CLR 06/05 A3014 0 96 -1000 000/00 RMK AO2 T00560050
13870KAMG AMG20160306022510903/06/16 02:25:31  5-MIN KAMG 060725Z AUTO 00000KT 6SM BR CLR 06/05 A3014 0 96 -1000 000/00 RMK AO2 T00560050
13870KAMG AMG20160306023010903/06/16 02:30:31  5-MIN KAMG 060730Z AUTO 00000KT 6SM BR CLR 06/05 A3014 0 96 -1000 000/00 RMK AO2 T00560050
13870KAMG AMG20160306023510603/06/16 02:35:31  5-MIN KAMG 060735Z AUTO 00000KT 7SM CLR 06/06 A3013 0 96 -1000 000/00 RMK AO2 T00610056
13870KAMG AMG20160306024010803/06/16 02:40:31  5-MIN KAMG 060740Z AUTO 00000KT 8SM CLR 06/06 A3013 10 100 -1000 000/00 RMK AO2 T00560056
13870KAMG AMG20160306024510803/06/16 02:45:31  5-MIN KAMG 060745Z AUTO 00000KT 8SM CLR 06/06 A3013 10 100 -1000 000/00 RMK AO2 T00560056
13870KAMG AMG20160306025011403/06/16 02:50:31  5-MIN KAMG 060750Z AUTO 00000KT 8SM CLR 06/05 A3013 10 96 -1000 000/00 RMK AO2 SLP202 T00560050
13870KAMG AMG20160306025510703/06/16 02:55:31  5-MIN KAMG 060755Z AUTO 00000KT 8SM CLR 06/05 A3013 10 93 -1000 000/00 RMK AO2 T00610050
13870KAMG AMG20160306030010703/06/16 03:00:31  5-MIN KAMG 060800Z AUTO 00000KT 8SM CLR 06/05 A3013 10 96 -1000 000/00 RMK AO2 T00560050
13870KAMG AMG20160306030510703/06/16 03:05:31  5-MIN KAMG 060805Z AUTO 00000KT 8SM CLR 06/05 A3012 10 96 -1000 000/00 RMK AO2 T00560050
13870KAMG AMG20160306031010703/06/16 03:10:31  5-MIN KAMG 060810Z AUTO 00000KT 8SM CLR 06/05 A3012 10 96 -1000 000/00 RMK AO2 T00560050
13870KAMG AMG20160306031510703/06/16 03:15:31  5-MIN KAMG 060815Z AUTO 00000KT 9SM CLR 06/06 A3012 10 96 -1000 000/00 RMK AO2 T00610056
13870KAMG AMG20160306032010703/06/16 03:20:31  5-MIN KAMG 060820Z AUTO 00000KT 9SM CLR 06/05 A3012 20 96 -1000 000/00 RMK AO2 T00560050
13870KAMG AMG20160306032510703/06/16 03:25:31  5-MIN KAMG 060825Z AUTO 00000KT 9SM CLR 06/05 A3012 20 96 -1000 000/00 RMK AO2 T00560050
13870KAMG AMG20160306033010703/06/16 03:30:31  5-MIN KAMG 060830Z AUTO 00000KT 8SM CLR 06/05 A3012 20 96 -1000 000/00 RMK AO2 T00560050
13870KAMG AMG20160306033510703/06/16 03:35:31  5-MIN KAMG 060835Z AUTO 00000KT 8SM CLR 06/05 A3012 20 93 -1000 000/00 RMK AO2 T00610050
13870KAMG AMG20160306034010703/06/16 03:40:31  5-MIN KAMG 060840Z AUTO 00000KT 8SM CLR 06/05 A3012 10 96 -1000 000/00 RMK AO2 T00560050
13870KAMG AMG20160306034511003/06/16 03:45:31  5-MIN KAMG 060845Z AUTO 00000KT 6SM BR CLR 05/04 A3012 20 96 -1100 000/00 RMK AO2 T00500044
13870KAMG AMG20160306035012303/06/16 03:50:31  5-MIN KAMG 060850Z AUTO 00000KT 6SM BR CLR 06/04 A3012 10 92 -1000 000/00 RMK AO2 SLP200 T00560044 50001
13870KAMG AMG20160306035510703/06/16 03:55:31  5-MIN KAMG 060855Z AUTO 00000KT 8SM CLR 06/05 A3012 20 96 -1000 000/00 RMK AO2 T00560050
13870KAMG AMG20160306040010703/06/16 04:00:31  5-MIN KAMG 060900Z AUTO 00000KT 9SM CLR 06/05 A3012 20 96 -1000 000/00 RMK AO2 T00560050
13870KAMG AMG20160306040510703/06/16 04:05:31  5-MIN KAMG 060905Z AUTO 00000KT 9SM CLR 06/04 A3012 20 92 -1000 000/00 RMK AO2 T00560044
13870KAMG AMG20160306041010703/06/16 04:10:31  5-MIN KAMG 060910Z AUTO 00000KT 9SM CLR 05/04 A3012 20 96 -1100 000/00 RMK AO2 T00500044
13870KAMG AMG20160306041510703/06/16 04:15:31  5-MIN KAMG 060915Z AUTO 00000KT 8SM CLR 05/04 A3012 20 96 -1100 000/00 RMK AO2 T00500044
13870KAMG AMG20160306042010703/06/16 04:20:31  5-MIN KAMG 060920Z AUTO 00000KT 9SM CLR 05/04 A3012 20 96 -1100 000/00 RMK AO2 T00500044
13870KAMG AMG20160306042510703/06/16 04:25:31  5-MIN KAMG 060925Z AUTO 00000KT 9SM CLR 05/04 A3012 20 96 -1100 000/00 RMK AO2 T00500044
13870KAMG AMG20160306043010703/06/16 04:30:31  5-MIN KAMG 060930Z AUTO 00000KT 7SM CLR 05/04 A3012 20 96 -1100 000/00 RMK AO2 T00500044
13870KAMG AMG20160306043510703/06/16 04:35:31  5-MIN KAMG 060935Z AUTO 00000KT 8SM CLR 05/04 A3012 20 96 -1100 000/00 RMK AO2 T00500044
13870KAMG AMG20160306044010703/06/16 04:40:31  5-MIN KAMG 060940Z AUTO 00000KT 9SM CLR 05/04 A3012 20 96 -1100 000/00 RMK AO2 T00500044
13870KAMG AMG20160306044510703/06/16 04:45:31  5-MIN KAMG 060945Z AUTO 00000KT 9SM CLR 06/04 A3012 20 92 -1000 000/00 RMK AO2 T00560044
13870KAMG AMG20160306045011403/06/16 04:50:31  5-MIN KAMG 060950Z AUTO 00000KT 9SM CLR 05/04 A3012 20 96 -1100 000/00 RMK AO2 SLP198 T00500044
13870KAMG AMG20160306045510703/06/16 04:55:31  5-MIN KAMG 060955Z AUTO 00000KT 8SM CLR 05/04 A3012 20 96 -1100 000/00 RMK AO2 T00500044
13870KAMG AMG20160306050010703/06/16 05:00:31  5-MIN KAMG 061000Z AUTO 00000KT 8SM CLR 05/04 A3012 20 96 -1100 000/00 RMK AO2 T00500044
13870KAMG AMG20160306050510703/06/16 05:05:31  5-MIN KAMG 061005Z AUTO 00000KT 9SM CLR 05/04 A3012 20 96 -1100 000/00 RMK AO2 T00500044
13870KAMG AMG20160306051010703/06/16 05:10:31  5-MIN KAMG 061010Z AUTO 33003KT 9SM CLR 06/04 A3013 10 92 -1000 330/03 RMK AO2 T00560044
13870KAMG AMG20160306051510703/06/16 05:15:31  5-MIN KAMG 061015Z AUTO 00000KT 9SM CLR 06/04 A3013 10 92 -1000 000/00 RMK AO2 T00560044
13870KAMG AMG20160306052010703/06/16 05:20:31  5-MIN KAMG 061020Z AUTO 00000KT 9SM CLR 06/04 A3013 10 92 -1000 000/00 RMK AO2 T00560044
13870KAMG AMG20160306052510703/06/16 05:25:31  5-MIN KAMG 061025Z AUTO 32003KT 9SM CLR 06/05 A3013 10 96 -1000 330/03 RMK AO2 T00560050
13870KAMG AMG20160306053010703/06/16 05:30:31  5-MIN KAMG 061030Z AUTO 32003KT 9SM CLR 04/04 A3014 0 100 -1200 330/03 RMK AO2 T00440044
13870KAMG AMG20160306053510703/06/16 05:35:31  5-MIN KAMG 061035Z AUTO 32003KT 9SM CLR 05/05 A3014 0 100 -1100 330/03 RMK AO2 T00500050
13870KAMG AMG20160306054010703/06/16 05:40:31  5-MIN KAMG 061040Z AUTO 00000KT 10SM CLR 05/04 A3014 0 96 -1100 000/00 RMK AO2 T00500044
13870KAMG AMG20160306054510703/06/16 05:45:31  5-MIN KAMG 061045Z AUTO 32003KT 10SM CLR 06/04 A3014 0 92 -1100 320/03 RMK AO2 T00560044
13870KAMG AMG20160306055011403/06/16 05:50:31  5-MIN KAMG 061050Z AUTO 32004KT 10SM CLR 06/05 A3014 0 93 -1000 330/04 RMK AO2 SLP206 T00610050
13870KAMG AMG20160306055510603/06/16 05:55:31  5-MIN KAMG 061055Z AUTO 31003KT 10SM CLR 07/05 A3015 0 89 -900 320/03 RMK AO2 T00670050
13870KAMG AMG20160306060010603/06/16 06:00:31  5-MIN KAMG 061100Z AUTO 31003KT 10SM CLR 07/05 A3015 0 89 -900 310/03 RMK AO2 T00670050
13870KAMG AMG20160306060510803/06/16 06:05:31  5-MIN KAMG 061105Z AUTO 30003KT 10SM CLR 07/05 A3015 -10 86 -900 310/03 RMK AO2 T00720050
13870KAMG AMG20160306061010603/06/16 06:10:31  5-MIN KAMG 061110Z AUTO 31004KT 10SM CLR 07/05 A3015 0 89 -900 320/04 RMK AO2 T00670050
13870KAMG AMG20160306061510803/06/16 06:15:31  5-MIN KAMG 061115Z AUTO 32004KT 10SM CLR 07/05 A3015 -10 86 -900 320/04 RMK AO2 T00720050
13870KAMG AMG20160306062010803/06/16 06:20:31  5-MIN KAMG 061120Z AUTO 31004KT 10SM CLR 07/05 A3016 -10 86 -900 320/04 RMK AO2 T00720050
13870KAMG AMG20160306062510803/06/16 06:25:31  5-MIN KAMG 061125Z AUTO 31005KT 10SM CLR 07/05 A3016 -10 86 -900 320/05 RMK AO2 T00720050
13870KAMG AMG20160306063010803/06/16 06:30:31  5-MIN KAMG 061130Z AUTO 31004KT 10SM CLR 07/05 A3016 -20 86 -900 320/04 RMK AO2 T00720050
13870KAMG AMG20160306063510803/06/16 06:35:31  5-MIN KAMG 061135Z AUTO 31004KT 10SM CLR 08/05 A3016 -20 82 -800 320/04 RMK AO2 T00780050
13870KAMG AMG20160306064010803/06/16 06:40:31  5-MIN KAMG 061140Z AUTO 31004KT 10SM CLR 08/05 A3016 -20 82 -800 310/04 RMK AO2 T00780050
13870KAMG AMG20160306064510803/06/16 06:45:31  5-MIN KAMG 061145Z AUTO 32005KT 10SM CLR 08/05 A3017 -20 82 -800 320/05 RMK AO2 T00780050
13870KAMG AMG20160306065013303/06/16 06:50:31  5-MIN KAMG 061150Z AUTO 32005KT 10SM CLR 08/05 A3017 -20 82 -800 320/05 RMK AO2 SLP215 T00780050 10078 20044 58006
13870KAMG AMG20160306065510803/06/16 06:55:31  5-MIN KAMG 061155Z AUTO 32005KT 10SM CLR 08/05 A3017 -20 82 -800 330/05 RMK AO2 T00780050
13870KAMG AMG20160306070010803/06/16 07:00:31  5-MIN KAMG 061200Z AUTO 33006KT 10SM CLR 08/05 A3017 -30 82 -800 330/06 RMK AO2 T00780050
13870KAMG AMG20160306070510803/06/16 07:05:31  5-MIN KAMG 061205Z AUTO 33004KT 10SM CLR 08/05 A3017 -30 82 -800 340/04 RMK AO2 T00780050
13870KAMG AMG20160306071010803/06/16 07:10:31  5-MIN KAMG 061210Z AUTO 32004KT 10SM CLR 08/05 A3018 -30 79 -800 330/04 RMK AO2 T00830050
13870KAMG AMG20160306071510803/06/16 07:15:31  5-MIN KAMG 061215Z AUTO 32004KT 10SM CLR 08/05 A3018 -30 79 -800 330/04 RMK AO2 T00830050
13870KAMG AMG20160306072010803/06/16 07:20:31  5-MIN KAMG 061220Z AUTO 31003KT 10SM CLR 08/05 A3018 -40 79 -800 310/03 RMK AO2 T00830050
13870KAMG AMG20160306072510803/06/16 07:25:31  5-MIN KAMG 061225Z AUTO 32004KT 10SM CLR 09/05 A3019 -40 76 -700 330/04 RMK AO2 T00890050
13870KAMG AMG20160306073010803/06/16 07:30:31  5-MIN KAMG 061230Z AUTO 33005KT 10SM CLR 09/05 A3019 -40 76 -700 330/05 RMK AO2 T00890050
13870KAMG AMG20160306073510803/06/16 07:35:31  5-MIN KAMG 061235Z AUTO 34006KT 10SM CLR 09/05 A3019 -40 74 -600 340/06 RMK AO2 T00940050
13870KAMG AMG20160306074010803/06/16 07:40:31  5-MIN KAMG 061240Z AUTO 34005KT 10SM CLR 09/05 A3019 -40 74 -600 340/05 RMK AO2 T00940050
13870KAMG AMG20160306074510803/06/16 07:45:31  5-MIN KAMG 061245Z AUTO 33006KT 10SM CLR 10/05 A3019 -40 71 -600 340/06 RMK AO2 T01000050
13870KAMG AMG20160306075011503/06/16 07:50:31  5-MIN KAMG 061250Z AUTO 33006KT 10SM CLR 10/05 A3019 -50 71 -600 340/06 RMK AO2 SLP223 T01000050
13870KAMG AMG20160306075510803/06/16 07:55:31  5-MIN KAMG 061255Z AUTO 33007KT 10SM CLR 10/05 A3020 -50 71 -600 330/07 RMK AO2 T01000050
13870KAMG AMG20160306080010803/06/16 08:00:31  5-MIN KAMG 061300Z AUTO 34007KT 10SM CLR 11/05 A3020 -50 68 -500 340/07 RMK AO2 T01060050
13870KAMG AMG20160306080510803/06/16 08:05:31  5-MIN KAMG 061305Z AUTO 35008KT 10SM CLR 11/06 A3020 -50 71 -500 350/08 RMK AO2 T01060056
13870KAMG AMG20160306081010803/06/16 08:10:31  5-MIN KAMG 061310Z AUTO 35007KT 10SM CLR 11/06 A3020 -50 71 -500 350/07 RMK AO2 T01060056
13870KAMG AMG20160306081510803/06/16 08:15:31  5-MIN KAMG 061315Z AUTO 34007KT 10SM CLR 11/06 A3020 -50 71 -500 350/07 RMK AO2 T01060056
13870KAMG AMG20160306082010803/06/16 08:20:31  5-MIN KAMG 061320Z AUTO 34007KT 10SM CLR 11/06 A3021 -60 68 -500 350/07 RMK AO2 T01110056
13870KAMG AMG20160306082510803/06/16 08:25:31  5-MIN KAMG 061325Z AUTO 35009KT 10SM CLR 11/06 A3021 -60 68 -500 350/09 RMK AO2 T01110056
13870KAMG AMG20160306083010803/06/16 08:30:31  5-MIN KAMG 061330Z AUTO 35009KT 10SM CLR 11/06 A3021 -60 68 -500 350/09 RMK AO2 T01110056
13870KAMG AMG20160306083510803/06/16 08:35:31  5-MIN KAMG 061335Z AUTO 35009KT 10SM CLR 12/06 A3021 -60 66 -400 350/09 RMK AO2 T01170056
13870KAMG AMG20160306084010803/06/16 08:40:31  5-MIN KAMG 061340Z AUTO 35009KT 10SM CLR 12/06 A3021 -60 66 -400 350/09 RMK AO2 T01170056
13870KAMG AMG20160306084510803/06/16 08:45:31  5-MIN KAMG 061345Z AUTO 35008KT 10SM CLR 12/06 A3022 -70 66 -400 360/08 RMK AO2 T01170056
13870KAMG AMG20160306085011503/06/16 08:50:31  5-MIN KAMG 061350Z AUTO 35008KT 10SM CLR 12/06 A3022 -70 63 -300 350/08 RMK AO2 SLP232 T01220056
13870KAMG AMG20160306085510803/06/16 08:55:31  5-MIN KAMG 061355Z AUTO 34011KT 10SM CLR 12/06 A3022 -70 63 -300 350/11 RMK AO2 T01220056
13870KAMG AMG20160306090010803/06/16 09:00:31  5-MIN KAMG 061400Z AUTO 35007KT 10SM CLR 12/05 A3023 -70 61 -300 350/07 RMK AO2 T01220050
13870KAMG AMG20160306090511403/06/16 09:05:31  5-MIN KAMG 061405Z AUTO 35010G15KT 10SM CLR 13/05 A3023 -80 59 -300 360/10G15 RMK AO2 T01280050
13870KAMG AMG20160306091013003/06/16 09:10:31  5-MIN KAMG 061410Z AUTO 35008G15KT 310V010 10SM CLR 13/05 A3023 -80 59 -300 350/08G15 320V020 RMK AO2 T01280050
13870KAMG AMG20160306091512403/06/16 09:15:31  5-MIN KAMG 061415Z AUTO 34007KT 310V020 10SM CLR 13/05 A3023 -80 57 -200 350/07 320V030 RMK AO2 T01330050
13870KAMG AMG20160306092010803/06/16 09:20:31  5-MIN KAMG 061420Z AUTO 35007KT 10SM CLR 13/06 A3023 -80 59 -200 350/07 RMK AO2 T01330056
13870KAMG AMG20160306092510803/06/16 09:25:31  5-MIN KAMG 061425Z AUTO 35007KT 10SM CLR 14/05 A3023 -80 55 -100 360/07 RMK AO2 T01390050
13870KAMG AMG20160306093010803/06/16 09:30:31  5-MIN KAMG 061430Z AUTO 35009KT 10SM CLR 14/05 A3024 -80 55 -200 350/09 RMK AO2 T01390050
13870KAMG AMG20160306093510803/06/16 09:35:31  5-MIN KAMG 061435Z AUTO 36007KT 10SM CLR 14/05 A3024 -80 53 -100 360/07 RMK AO2 T01440050
13870KAMG AMG20160306094010803/06/16 09:40:31  5-MIN KAMG 061440Z AUTO 34007KT 10SM CLR 14/05 A3024 -80 53 -100 350/07 RMK AO2 T01440050
13870KAMG AMG20160306094510803/06/16 09:45:31  5-MIN KAMG 061445Z AUTO 35005KT 10SM CLR 14/05 A3024 -80 53 -100 350/05 RMK AO2 T01440050
13870KAMG AMG20160306095012103/06/16 09:50:31  5-MIN KAMG 061450Z AUTO 36011KT 10SM CLR 14/05 A3024 -80 53 -100 010/11 RMK AO2 SLP238 T01440050 53016
13870KAMG AMG20160306095512103/06/16 09:55:31  5-MIN KAMG 061455Z AUTO 35007KT 330V040 10SM CLR 15/05 A3024 -90 51 0 360/07 340V050 RMK AO2 T01500050
13870KAMG AMG20160306100010503/06/16 10:00:31  5-MIN KAMG 061500Z AUTO 34009KT 10SM CLR 15/05 A3024 -90 51 0 340/09 RMK AO2 T01500050
13870KAMG AMG20160306100510503/06/16 10:05:31  5-MIN KAMG 061505Z AUTO VRB06KT 10SM CLR 15/04 A3024 -90 49 0 VRB/06 RMK AO2 T01500044
13870KAMG AMG20160306101012103/06/16 10:10:31  5-MIN KAMG 061510Z AUTO 35008KT 320V030 10SM CLR 16/05 A3024 -90 49 0 360/08 330V040 RMK AO2 T01560050
13870KAMG AMG20160306101510503/06/16 10:15:31  5-MIN KAMG 061515Z AUTO 35010KT 10SM CLR 15/05 A3024 -90 51 0 350/10 RMK AO2 T01500050
13870KAMG AMG20160306102010503/06/16 10:20:31  5-MIN KAMG 061520Z AUTO 36007KT 10SM CLR 16/05 A3024 -90 49 0 360/07 RMK AO2 T01560050
13870KAMG AMG20160306102510503/06/16 10:25:31  5-MIN KAMG 061525Z AUTO 35006KT 10SM CLR 16/04 A3024 -90 47 0 360/06 RMK AO2 T01560044
13870KAMG AMG20160306103011103/06/16 10:30:31  5-MIN KAMG 061530Z AUTO 33010G15KT 10SM CLR 16/05 A3024 -90 49 0 330/10G15 RMK AO2 T01560050
13870KAMG AMG20160306103511303/06/16 10:35:31  5-MIN KAMG 061535Z AUTO 01010G17KT 10SM CLR 16/05 A3024 -90 47 100 010/10G17 RMK AO2 T01610050
13870KAMG AMG20160306104012903/06/16 10:40:31  5-MIN KAMG 061540Z AUTO 35008G17KT 320V040 10SM CLR 16/05 A3024 -90 47 100 360/08G17 330V050 RMK AO2 T01610050
13870KAMG AMG20160306104511303/06/16 10:45:31  5-MIN KAMG 061545Z AUTO 34010G15KT 10SM CLR 16/05 A3024 -90 47 100 350/10G15 RMK AO2 T01610050
13870KAMG AMG20160306105012003/06/16 10:50:31  5-MIN KAMG 061550Z AUTO 34008G15KT 10SM CLR 16/05 A3024 -90 47 100 350/08G15 RMK AO2 SLP240 T01610050
13870KAMG AMG20160306105510703/06/16 10:55:31  5-MIN KAMG 061555Z AUTO VRB05KT 10SM CLR 16/05 A3024 -90 47 100 VRB/05 RMK AO2 T01610050
13870KAMG AMG20160306110010703/06/16 11:00:31  5-MIN KAMG 061600Z AUTO 03007KT 10SM CLR 17/05 A3024 -90 45 100 030/07 RMK AO2 T01670050
13870KAMG AMG20160306110510703/06/16 11:05:31  5-MIN KAMG 061605Z AUTO VRB06KT 10SM CLR 16/05 A3024 -90 47 100 VRB/06 RMK AO2 T01610050
13870KAMG AMG20160306111010703/06/16 11:10:31  5-MIN KAMG 061610Z AUTO 36006KT 10SM CLR 17/05 A3024 -80 45 100 010/06 RMK AO2 T01670050
13870KAMG AMG20160306111510703/06/16 11:15:31  5-MIN KAMG 061615Z AUTO 36008KT 10SM CLR 17/04 A3024 -80 44 100 010/08 RMK AO2 T01670044
13870KAMG AMG20160306112010703/06/16 11:20:31  5-MIN KAMG 061620Z AUTO 06006KT 10SM CLR 17/05 A3024 -80 45 100 060/06 RMK AO2 T01670050
13870KAMG AMG20160306112510703/06/16 11:25:31  5-MIN KAMG 061625Z AUTO 35010KT 10SM CLR 17/05 A3024 -80 44 200 350/10 RMK AO2 T01720050
13870KAMG AMG20160306113010703/06/16 11:30:31  5-MIN KAMG 061630Z AUTO 34007KT 10SM CLR 17/04 A3024 -80 41 200 350/07 RMK AO2 T01720039
13870KAMG AMG20160306113510703/06/16 11:35:31  5-MIN KAMG 061635Z AUTO VRB04KT 10SM CLR 17/04 A3023 -80 42 200 VRB/04 RMK AO2 T01720044
13870KAMG AMG20160306114010703/06/16 11:40:31  5-MIN KAMG 061640Z AUTO VRB06KT 10SM CLR 17/04 A3023 -80 42 200 VRB/06 RMK AO2 T01720044
13870KAMG AMG20160306114512303/06/16 11:45:31  5-MIN KAMG 061645Z AUTO 36007KT 320V040 10SM CLR 17/04 A3023 -80 41 200 010/07 330V050 RMK AO2 T01720039
13870KAMG AMG20160306115011403/06/16 11:50:31  5-MIN KAMG 061650Z AUTO VRB06KT 10SM CLR 18/04 A3023 -80 41 300 VRB/06 RMK AO2 SLP236 T01780044
13870KAMG AMG20160306115512303/06/16 11:55:31  5-MIN KAMG 061655Z AUTO 35007KT 310V020 10SM CLR 18/04 A3023 -80 41 300 350/07 320V030 RMK AO2 T01780044
13870KAMG AMG20160306120010703/06/16 12:00:31  5-MIN KAMG 061700Z AUTO 32006KT 10SM CLR 18/04 A3023 -80 41 300 320/06 RMK AO2 T01780044
13870KAMG AMG20160306120511303/06/16 12:05:31  5-MIN KAMG 061705Z AUTO 04006G15KT 10SM CLR 18/04 A3023 -80 41 300 040/06G15 RMK AO2 T01780044
13870KAMG AMG20160306121011303/06/16 12:10:31  5-MIN KAMG 061710Z AUTO VRB05G15KT 10SM CLR 18/04 A3023 -80 41 300 VRB/05G15 RMK AO2 T01780044
13870KAMG AMG20160306121510703/06/16 12:15:31  5-MIN KAMG 061715Z AUTO 03007KT 10SM CLR 18/04 A3023 -80 41 300 030/07 RMK AO2 T01780044
13870KAMG AMG20160306122010703/06/16 12:20:31  5-MIN KAMG 061720Z AUTO 04006KT 10SM CLR 18/04 A3023 -70 39 300 050/06 RMK AO2 T01780039
13870KAMG AMG20160306122510703/06/16 12:25:31  5-MIN KAMG 061725Z AUTO VRB06KT 10SM CLR 18/04 A3023 -70 41 300 VRB/06 RMK AO2 T01780044
13870KAMG AMG20160306123012303/06/16 12:30:31  5-MIN KAMG 061730Z AUTO 02007KT 330V040 10SM CLR 18/05 A3023 -70 41 300 020/07 340V050 RMK AO2 T01830050
13870KAMG AMG20160306123510703/06/16 12:35:31  5-MIN KAMG 061735Z AUTO 35009KT 10SM CLR 18/04 A3022 -70 39 300 360/09 RMK AO2 T01830044
13870KAMG AMG20160306124010703/06/16 12:40:31  5-MIN KAMG 061740Z AUTO VRB06KT 10SM CLR 18/04 A3022 -70 38 300 VRB/06 RMK AO2 T01830039
13870KAMG AMG20160306124510703/06/16 12:45:31  5-MIN KAMG 061745Z AUTO 34007KT 10SM CLR 18/04 A3022 -70 39 300 350/07 RMK AO2 T01830044
13870KAMG AMG20160306125013803/06/16 12:50:31  5-MIN KAMG 061750Z AUTO VRB06G15KT 10SM CLR 18/04 A3022 -70 38 300 VRB/06G15 RMK AO2 SLP232 T01830039 10183 20078 51023
13870KAMG AMG20160306125511303/06/16 12:55:31  5-MIN KAMG 061755Z AUTO VRB06G15KT 10SM CLR 18/04 A3022 -70 38 300 VRB/06G15 RMK AO2 T01830039
13870KAMG AMG20160306130010703/06/16 13:00:31  5-MIN KAMG 061800Z AUTO VRB03KT 10SM CLR 18/04 A3022 -60 38 300 VRB/03 RMK AO2 T01830039
13870KAMG AMG20160306130510703/06/16 13:05:31  5-MIN KAMG 061805Z AUTO 02004KT 10SM CLR 18/04 A3021 -60 38 300 020/04 RMK AO2 T01830039
13870KAMG AMG20160306131010703/06/16 13:10:31  5-MIN KAMG 061810Z AUTO VRB06KT 10SM CLR 18/04 A3021 -60 38 400 VRB/06 RMK AO2 T01830039
13870KAMG AMG20160306131512903/06/16 13:15:31  5-MIN KAMG 061815Z AUTO 36007G14KT 340V050 10SM CLR 19/04 A3021 -60 35 500 360/07G14 350V060 RMK AO2 T01940039
13870KAMG AMG20160306132011303/06/16 13:20:31  5-MIN KAMG 061820Z AUTO VRB06G14KT 10SM CLR 19/03 A3021 -60 35 400 VRB/06G14 RMK AO2 T01890033
13870KAMG AMG20160306132510703/06/16 13:25:31  5-MIN KAMG 061825Z AUTO VRB06KT 10SM CLR 19/03 A3021 -60 34 500 VRB/06 RMK AO2 T01940033
13870KAMG AMG20160306133010703/06/16 13:30:31  5-MIN KAMG 061830Z AUTO VRB05KT 10SM CLR 19/04 A3020 -50 35 500 VRB/05 RMK AO2 T01940039
13870KAMG AMG20160306133510703/06/16 13:35:31  5-MIN KAMG 061835Z AUTO 04007KT 10SM CLR 19/04 A3020 -50 35 500 050/07 RMK AO2 T01940039
13870KAMG AMG20160306134010703/06/16 13:40:31  5-MIN KAMG 061840Z AUTO VRB06KT 10SM CLR 19/03 A3020 -50 34 500 VRB/06 RMK AO2 T01940033
13870KAMG AMG20160306134510703/06/16 13:45:31  5-MIN KAMG 061845Z AUTO VRB03KT 10SM CLR 19/03 A3020 -50 34 400 VRB/03 RMK AO2 T01890028
13870KAMG AMG20160306135011403/06/16 13:50:31  5-MIN KAMG 061850Z AUTO VRB05KT 10SM CLR 19/03 A3019 -50 34 400 VRB/05 RMK AO2 SLP223 T01890028
13870KAMG AMG20160306135512303/06/16 13:55:31  5-MIN KAMG 061855Z AUTO 33007KT 300V020 10SM CLR 19/03 A3019 -50 34 500 340/07 310V030 RMK AO2 T01940033
13870KAMG AMG20160306140010703/06/16 14:00:31  5-MIN KAMG 061900Z AUTO 01009KT 10SM CLR 19/04 A3019 -40 35 500 010/09 RMK AO2 T01940039
13870KAMG AMG20160306140510703/06/16 14:05:31  5-MIN KAMG 061905Z AUTO 00000KT 10SM CLR 19/03 A3019 -40 35 400 000/00 RMK AO2 T01890033
13870KAMG AMG20160306141010703/06/16 14:10:31  5-MIN KAMG 061910Z AUTO 36006KT 10SM CLR 20/04 A3019 -40 34 600 360/06 RMK AO2 T02000039
13870KAMG AMG20160306141510703/06/16 14:15:31  5-MIN KAMG 061915Z AUTO 00000KT 10SM CLR 19/03 A3019 -40 34 500 000/00 RMK AO2 T01940033
13870KAMG AMG20160306142012303/06/16 14:20:31  5-MIN KAMG 061920Z AUTO 04007KT 360V100 10SM CLR 19/04 A3019 -40 35 500 050/07 010V110 RMK AO2 T01940039
13870KAMG AMG20160306142510703/06/16 14:25:31  5-MIN KAMG 061925Z AUTO VRB05KT 10SM CLR 21/04 A3019 -40 34 600 VRB/05 RMK AO2 T02060044
13870KAMG AMG20160306143010703/06/16 14:30:31  5-MIN KAMG 061930Z AUTO 34006KT 10SM CLR 19/03 A3019 -40 34 500 340/06 RMK AO2 T01940033
13870KAMG AMG20160306143510703/06/16 14:35:31  5-MIN KAMG 061935Z AUTO VRB06KT 10SM CLR 19/04 A3019 -40 35 500 VRB/06 RMK AO2 T01940039
13870KAMG AMG20160306144010703/06/16 14:40:31  5-MIN KAMG 061940Z AUTO VRB06KT 10SM CLR 20/04 A3019 -40 34 600 VRB/06 RMK AO2 T02000039
13870KAMG AMG20160306144510703/06/16 14:45:31  5-MIN KAMG 061945Z AUTO 06004KT 10SM CLR 19/04 A3019 -40 35 500 070/04 RMK AO2 T01940039
13870KAMG AMG20160306145011403/06/16 14:50:31  5-MIN KAMG 061950Z AUTO VRB03KT 10SM CLR 19/04 A3019 -40 35 500 VRB/03 RMK AO2 SLP221 T01940039
13870KAMG AMG20160306145510703/06/16 14:55:31  5-MIN KAMG 061955Z AUTO 36008KT 10SM CLR 19/04 A3019 -40 35 500 360/08 RMK AO2 T01940039
13870KAMG AMG20160306150010703/06/16 15:00:31  5-MIN KAMG 062000Z AUTO 33005KT 10SM CLR 19/04 A3019 -40 35 500 340/05 RMK AO2 T01940039
13870KAMG AMG20160306150510703/06/16 15:05:31  5-MIN KAMG 062005Z AUTO VRB04KT 10SM CLR 21/04 A3018 -40 34 600 VRB/04 RMK AO2 T02060044
13870KAMG AMG20160306151010703/06/16 15:10:31  5-MIN KAMG 062010Z AUTO VRB04KT 10SM CLR 20/04 A3018 -30 34 600 VRB/04 RMK AO2 T02000039
13870KAMG AMG20160306151510703/06/16 15:15:31  5-MIN KAMG 062015Z AUTO VRB04KT 10SM CLR 20/04 A3018 -40 34 600 VRB/04 RMK AO2 T02000039
13870KAMG AMG20160306152010703/06/16 15:20:31  5-MIN KAMG 062020Z AUTO 34005KT 10SM CLR 21/04 A3018 -30 34 600 350/05 RMK AO2 T02060044
13870KAMG AMG20160306152510703/06/16 15:25:31  5-MIN KAMG 062025Z AUTO 36007KT 10SM CLR 20/04 A3018 -40 34 600 360/07 RMK AO2 T02000039
13870KAMG AMG20160306153012303/06/16 15:30:31  5-MIN KAMG 062030Z AUTO 05007KT 020V080 10SM CLR 20/04 A3018 -40 35 600 050/07 030V090 RMK AO2 T02000044
13870KAMG AMG20160306153510703/06/16 15:35:31  5-MIN KAMG 062035Z AUTO 06003KT 10SM CLR 19/03 A3018 -30 34 500 060/03 RMK AO2 T01940033
13870KAMG AMG20160306154010703/06/16 15:40:31  5-MIN KAMG 062040Z AUTO VRB05KT 10SM CLR 20/04 A3018 -30 34 600 VRB/05 RMK AO2 T02000039
13870KAMG AMG20160306154510703/06/16 15:45:31  5-MIN KAMG 062045Z AUTO VRB05KT 10SM CLR 20/04 A3018 -40 34 600 VRB/05 RMK AO2 T02000039
13870KAMG AMG20160306155012003/06/16 15:50:31  5-MIN KAMG 062050Z AUTO 06007KT 10SM CLR 20/03 A3018 -40 33 600 070/07 RMK AO2 SLP220 T02000033 58006
13870KAMG AMG20160306155510703/06/16 15:55:31  5-MIN KAMG 062055Z AUTO 36006KT 10SM CLR 20/04 A3019 -40 34 600 360/06 RMK AO2 T02000039
13870KAMG AMG20160306160010703/06/16 16:00:31  5-MIN KAMG 062100Z AUTO 35005KT 10SM CLR 21/04 A3019 -40 34 600 360/05 RMK AO2 T02060044
13870KAMG AMG20160306160509703/06/16 16:05:31  5-MIN KAMG 062105Z AUTO 10SM CLR 20/04 A3018 -40 34 600 M /M RMK AO2 T02000039
13870KAMG AMG20160306161010703/06/16 16:10:31  5-MIN KAMG 062110Z AUTO VRB05KT 10SM CLR 21/04 A3018 -30 34 600 VRB/05 RMK AO2 T02060044
13870KAMG AMG20160306161510703/06/16 16:15:31  5-MIN KAMG 062115Z AUTO 36007KT 10SM CLR 21/04 A3018 -40 34 600 010/07 RMK AO2 T02060044
13870KAMG AMG20160306162010703/06/16 16:20:31  5-MIN KAMG 062120Z AUTO 33005KT 10SM CLR 21/04 A3019 -40 34 600 340/05 RMK AO2 T02060044
13870KAMG AMG20160306162510703/06/16 16:25:31  5-MIN KAMG 062125Z AUTO 36007KT 10SM CLR 20/04 A3019 -40 35 600 010/07 RMK AO2 T02000044
13870KAMG AMG20160306163010703/06/16 16:30:31  5-MIN KAMG 062130Z AUTO 00000KT 10SM CLR 20/04 A3018 -30 34 600 000/00 RMK AO2 T02000039
13870KAMG AMG20160306163510703/06/16 16:35:31  5-MIN KAMG 062135Z AUTO VRB05KT 10SM CLR 21/04 A3018 -40 33 600 VRB/05 RMK AO2 T02060039
13870KAMG AMG20160306164010703/06/16 16:40:31  5-MIN KAMG 062140Z AUTO 01004KT 10SM CLR 21/03 A3018 -40 32 600 010/04 RMK AO2 T02060033
13870KAMG AMG20160306164510703/06/16 16:45:31  5-MIN KAMG 062145Z AUTO VRB05KT 10SM CLR 20/04 A3018 -40 34 600 VRB/05 RMK AO2 T02000039
13870KAMG AMG20160306165011403/06/16 16:50:31  5-MIN KAMG 062150Z AUTO VRB04KT 10SM CLR 20/04 A3019 -40 34 600 VRB/04 RMK AO2 SLP220 T02000039
13870KAMG AMG20160306165510703/06/16 16:55:31  5-MIN KAMG 062155Z AUTO VRB04KT 10SM CLR 20/04 A3019 -40 34 600 VRB/04 RMK AO2 T02000039
13870KAMG AMG20160306170010703/06/16 17:00:31  5-MIN KAMG 062200Z AUTO VRB04KT 10SM CLR 20/03 A3019 -40 33 600 VRB/04 RMK AO2 T02000033
13870KAMG AMG20160306170510703/06/16 17:05:31  5-MIN KAMG 062205Z AUTO 00000KT 10SM CLR 20/04 A3019 -40 34 600 000/00 RMK AO2 T02000039
13870KAMG AMG20160306171010703/06/16 17:10:31  5-MIN KAMG 062210Z AUTO 36006KT 10SM CLR 20/04 A3019 -40 34 600 010/06 RMK AO2 T02000039
13870KAMG AMG20160306171510703/06/16 17:15:31  5-MIN KAMG 062215Z AUTO 05004KT 10SM CLR 20/04 A3019 -40 34 600 050/04 RMK AO2 T02000039
13870KAMG AMG20160306172010703/06/16 17:20:31  5-MIN KAMG 062220Z AUTO VRB03KT 10SM CLR 19/04 A3019 -40 35 500 VRB/03 RMK AO2 T01940039
13870KAMG AMG20160306172510703/06/16 17:25:31  5-MIN KAMG 062225Z AUTO VRB04KT 10SM CLR 19/04 A3019 -40 35 500 VRB/04 RMK AO2 T01940039
13870KAMG AMG20160306173010703/06/16 17:30:31  5-MIN KAMG 062230Z AUTO 05007KT 10SM CLR 19/04 A3020 -50 36 400 060/07 RMK AO2 T01890039
13870KAMG AMG20160306173510703/06/16 17:35:31  5-MIN KAMG 062235Z AUTO VRB03KT 10SM CLR 19/04 A3020 -50 36 400 VRB/03 RMK AO2 T01890039
13870KAMG AMG20160306174010703/06/16 17:40:31  5-MIN KAMG 062240Z AUTO 05004KT 10SM CLR 19/04 A3020 -50 37 500 060/04 RMK AO2 T01940044
13870KAMG AMG20160306174510703/06/16 17:45:31  5-MIN KAMG 062245Z AUTO VRB03KT 10SM CLR 19/04 A3020 -50 35 500 VRB/03 RMK AO2 T01940039
13870KAMG AMG20160306175011403/06/16 17:50:31  5-MIN KAMG 062250Z AUTO 00000KT 10SM CLR 19/04 A3020 -50 36 400 000/00 RMK AO2 SLP225 T01890039
13870KAMG AMG20160306175510703/06/16 17:55:31  5-MIN KAMG 062255Z AUTO 04003KT 10SM CLR 19/04 A3020 -50 36 400 050/03 RMK AO2 T01890039
13870KAMG AMG20160306180010703/06/16 18:00:31  5-MIN KAMG 062300Z AUTO 00000KT 10SM CLR 19/04 A3020 -50 38 400 000/00 RMK AO2 T01890044
13870KAMG AMG20160306180510703/06/16 18:05:31  5-MIN KAMG 062305Z AUTO 04003KT 10SM CLR 18/04 A3020 -50 39 400 040/03 RMK AO2 T01830044
13870KAMG AMG20160306181010703/06/16 18:10:31  5-MIN KAMG 062310Z AUTO 04003KT 10SM CLR 18/04 A3020 -50 39 300 050/03 RMK AO2 T01780039
13870KAMG AMG20160306181510703/06/16 18:15:31  5-MIN KAMG 062315Z AUTO 03003KT 10SM CLR 17/04 A3020 -50 42 200 040/03 RMK AO2 T01720044
13870KAMG AMG20160306182010703/06/16 18:20:31  5-MIN KAMG 062320Z AUTO 00000KT 10SM CLR 17/04 A3020 -50 44 200 000/00 RMK AO2 T01670044
13870KAMG AMG20160306182510703/06/16 18:25:31  5-MIN KAMG 062325Z AUTO 00000KT 10SM CLR 16/05 A3020 -50 47 100 000/00 RMK AO2 T01610050
13870KAMG AMG20160306183010503/06/16 18:30:31  5-MIN KAMG 062330Z AUTO 00000KT 10SM CLR 16/05 A3021 -60 49 0 000/00 RMK AO2 T01560050
13870KAMG AMG20160306183510503/06/16 18:35:31  5-MIN KAMG 062335Z AUTO 00000KT 10SM CLR 16/04 A3021 -60 47 0 000/00 RMK AO2 T01560044
13870KAMG AMG20160306184010803/06/16 18:40:31  5-MIN KAMG 062340Z AUTO 00000KT 10SM CLR 14/05 A3021 -60 53 -100 000/00 RMK AO2 T01440050
13870KAMG AMG20160306184510803/06/16 18:45:31  5-MIN KAMG 062345Z AUTO 00000KT 10SM CLR 14/06 A3021 -60 59 -100 000/00 RMK AO2 T01390061
13870KAMG AMG20160306185013303/06/16 18:50:31  5-MIN KAMG 062350Z AUTO 00000KT 10SM CLR 13/07 A3021 -60 66 -300 000/00 RMK AO2 SLP229 T01280067 10206 20128 56012
13870KAMG AMG20160306185510803/06/16 18:55:31  5-MIN KAMG 062355Z AUTO 00000KT 10SM CLR 13/07 A3021 -60 66 -300 000/00 RMK AO2 T01280067
13870KAMG AMG20160306190010803/06/16 19:00:31  5-MIN KAMG 070000Z AUTO 00000KT 10SM CLR 12/06 A3021 -60 66 -300 000/00 RMK AO2 T01220061
13870KAMG AMG20160306190510803/06/16 19:05:31  5-MIN KAMG 070005Z AUTO 00000KT 10SM CLR 12/06 A3021 -60 68 -400 000/00 RMK AO2 T01170061
13870KAMG AMG20160306191010803/06/16 19:10:31  5-MIN KAMG 070010Z AUTO 00000KT 10SM CLR 12/06 A3021 -60 68 -400 000/00 RMK AO2 T01170061
13870KAMG AMG20160306191510803/06/16 19:15:31  5-MIN KAMG 070015Z AUTO 00000KT 10SM CLR 12/06 A3022 -60 68 -400 000/00 RMK AO2 T01170061
13870KAMG AMG20160306192010803/06/16 19:20:31  5-MIN KAMG 070020Z AUTO 00000KT 10SM CLR 12/06 A3022 -70 68 -400 000/00 RMK AO2 T01170061
13870KAMG AMG20160306192510803/06/16 19:25:31  5-MIN KAMG 070025Z AUTO 00000KT 10SM CLR 11/06 A3022 -70 71 -500 000/00 RMK AO2 T01110061
13870KAMG AMG20160306193010803/06/16 19:30:31  5-MIN KAMG 070030Z AUTO 00000KT 10SM CLR 11/07 A3022 -70 74 -500 000/00 RMK AO2 T01110067
13870KAMG AMG20160306193510803/06/16 19:35:31  5-MIN KAMG 070035Z AUTO 00000KT 10SM CLR 11/07 A3023 -70 77 -500 000/00 RMK AO2 T01060067
13870KAMG AMG20160306194010803/06/16 19:40:31  5-MIN KAMG 070040Z AUTO 00000KT 10SM CLR 11/06 A3023 -80 74 -500 000/00 RMK AO2 T01060061
13870KAMG AMG20160306194510803/06/16 19:45:31  5-MIN KAMG 070045Z AUTO 00000KT 10SM CLR 11/06 A3023 -80 74 -500 000/00 RMK AO2 T01060061
13870KAMG AMG20160306195011503/06/16 19:50:31  5-MIN KAMG 070050Z AUTO 00000KT 10SM CLR 10/07 A3023 -80 80 -600 000/00 RMK AO2 SLP236 T01000067
13870KAMG AMG20160306195510803/06/16 19:55:31  5-MIN KAMG 070055Z AUTO 00000KT 10SM CLR 10/07 A3023 -80 80 -600 000/00 RMK AO2 T01000067
13870KAMG AMG20160306200010803/06/16 20:00:31  5-MIN KAMG 070100Z AUTO 00000KT 10SM CLR 09/07 A3023 -80 83 -700 000/00 RMK AO2 T00940067
13870KAMG AMG20160306200510803/06/16 20:05:31  5-MIN KAMG 070105Z AUTO 00000KT 10SM CLR 09/07 A3024 -80 83 -700 000/00 RMK AO2 T00940067
13870KAMG AMG20160306201010803/06/16 20:10:31  5-MIN KAMG 070110Z AUTO 00000KT 10SM CLR 09/07 A3024 -90 83 -700 000/00 RMK AO2 T00940067
13870KAMG AMG20160306201510803/06/16 20:15:31  5-MIN KAMG 070115Z AUTO 00000KT 10SM CLR 09/07 A3024 -90 83 -700 000/00 RMK AO2 T00940067
13870KAMG AMG20160306202010803/06/16 20:20:31  5-MIN KAMG 070120Z AUTO 00000KT 10SM CLR 09/07 A3024 -90 83 -700 000/00 RMK AO2 T00940067
13870KAMG AMG20160306202510803/06/16 20:25:31  5-MIN KAMG 070125Z AUTO 10006KT 10SM CLR 09/07 A3025 -90 83 -700 110/06 RMK AO2 T00940067
13870KAMG AMG20160306203010803/06/16 20:30:31  5-MIN KAMG 070130Z AUTO 10006KT 10SM CLR 11/07 A3025 -90 74 -500 100/06 RMK AO2 T01110067
13870KAMG AMG20160306203510903/06/16 20:35:31  5-MIN KAMG 070135Z AUTO 09004KT 10SM CLR 12/06 A3025 -100 66 -400 100/04 RMK AO2 T01220061
13870KAMG AMG20160306204010903/06/16 20:40:31  5-MIN KAMG 070140Z AUTO 10005KT 10SM CLR 12/06 A3025 -100 66 -400 100/05 RMK AO2 T01220061
13870KAMG AMG20160306204510903/06/16 20:45:31  5-MIN KAMG 070145Z AUTO 11005KT 10SM CLR 13/07 A3026 -100 66 -300 110/05 RMK AO2 T01280067
13870KAMG AMG20160306205011603/06/16 20:50:31  5-MIN KAMG 070150Z AUTO 10005KT 10SM CLR 13/07 A3026 -100 66 -300 110/05 RMK AO2 SLP245 T01280067
13870KAMG AMG20160306205510903/06/16 20:55:31  5-MIN KAMG 070155Z AUTO 10006KT 10SM CLR 12/07 A3026 -100 71 -400 110/06 RMK AO2 T01220072
13870KAMG AMG20160306210010903/06/16 21:00:31  5-MIN KAMG 070200Z AUTO 11005KT 10SM CLR 12/07 A3026 -100 71 -400 110/05 RMK AO2 T01220072
13870KAMG AMG20160306210510903/06/16 21:05:31  5-MIN KAMG 070205Z AUTO 11005KT 10SM CLR 13/08 A3026 -110 71 -300 110/05 RMK AO2 T01280078
13870KAMG AMG20160306211010903/06/16 21:10:31  5-MIN KAMG 070210Z AUTO 11005KT 10SM CLR 13/08 A3026 -110 71 -300 110/05 RMK AO2 T01280078
13870KAMG AMG20160306211510903/06/16 21:15:31  5-MIN KAMG 070215Z AUTO 11004KT 10SM CLR 13/08 A3027 -110 71 -300 110/04 RMK AO2 T01280078
13870KAMG AMG20160306212010903/06/16 21:20:31  5-MIN KAMG 070220Z AUTO 11005KT 10SM CLR 12/08 A3027 -110 77 -400 120/05 RMK AO2 T01220083
13870KAMG AMG20160306212510903/06/16 21:25:31  5-MIN KAMG 070225Z AUTO 12004KT 10SM CLR 13/08 A3027 -120 74 -300 130/04 RMK AO2 T01280083
13870KAMG AMG20160306213010903/06/16 21:30:31  5-MIN KAMG 070230Z AUTO 12004KT 10SM CLR 12/08 A3027 -120 77 -400 130/04 RMK AO2 T01220083
13870KAMG AMG20160306213510903/06/16 21:35:31  5-MIN KAMG 070235Z AUTO 11005KT 10SM CLR 12/08 A3027 -120 77 -400 120/05 RMK AO2 T01220083
13870KAMG AMG20160306214010903/06/16 21:40:31  5-MIN KAMG 070240Z AUTO 11004KT 10SM CLR 12/08 A3027 -120 77 -400 120/04 RMK AO2 T01220083
13870KAMG AMG20160306214510903/06/16 21:45:31  5-MIN KAMG 070245Z AUTO 13004KT 10SM CLR 12/08 A3028 -120 77 -400 130/04 RMK AO2 T01220083
13870KAMG AMG20160306215012203/06/16 21:50:31  5-MIN KAMG 070250Z AUTO 12004KT 10SM CLR 12/08 A3028 -120 77 -500 120/04 RMK AO2 SLP251 T01170078 53009
13870KAMG AMG20160306215510903/06/16 21:55:31  5-MIN KAMG 070255Z AUTO 11004KT 10SM CLR 12/08 A3028 -120 77 -500 120/04 RMK AO2 T01170078
13870KAMG AMG20160306220010903/06/16 22:00:31  5-MIN KAMG 070300Z AUTO 12004KT 10SM CLR 12/08 A3028 -120 77 -500 120/04 RMK AO2 T01170078
13870KAMG AMG20160306220510903/06/16 22:05:31  5-MIN KAMG 070305Z AUTO 12004KT 10SM CLR 12/08 A3028 -120 77 -500 120/04 RMK AO2 T01170078
13870KAMG AMG20160306221010903/06/16 22:10:31  5-MIN KAMG 070310Z AUTO 11003KT 10SM CLR 11/08 A3028 -120 80 -500 110/03 RMK AO2 T01110078
13870KAMG AMG20160306221510903/06/16 22:15:31  5-MIN KAMG 070315Z AUTO 09003KT 10SM CLR 11/08 A3028 -120 80 -500 090/03 RMK AO2 T01110078
13870KAMG AMG20160306222010903/06/16 22:20:31  5-MIN KAMG 070320Z AUTO 10004KT 10SM CLR 11/08 A3028 -120 80 -500 110/04 RMK AO2 T01110078
13870KAMG AMG20160306222510903/06/16 22:25:31  5-MIN KAMG 070325Z AUTO 11003KT 10SM CLR 11/08 A3028 -130 83 -600 110/03 RMK AO2 T01060078
13870KAMG AMG20160306223010903/06/16 22:30:31  5-MIN KAMG 070330Z AUTO 00000KT 10SM CLR 10/08 A3028 -130 86 -700 000/00 RMK AO2 T01000078
13870KAMG AMG20160306223510903/06/16 22:35:31  5-MIN KAMG 070335Z AUTO 00000KT 10SM CLR 09/07 A3028 -130 86 -700 000/00 RMK AO2 T00940072
13870KAMG AMG20160306224010903/06/16 22:40:31  5-MIN KAMG 070340Z AUTO 00000KT 10SM CLR 09/07 A3028 -130 86 -700 000/00 RMK AO2 T00940072
13870KAMG AMG20160306224510903/06/16 22:45:31  5-MIN KAMG 070345Z AUTO 00000KT 10SM CLR 09/08 A3028 -130 89 -700 000/00 RMK AO2 T00940078
13870KAMG AMG20160306225011603/06/16 22:50:31  5-MIN KAMG 070350Z AUTO 00000KT 10SM CLR 09/08 A3028 -120 93 -800 000/00 RMK AO2 SLP253 T00890078
13870KAMG AMG20160306225510903/06/16 22:55:31  5-MIN KAMG 070355Z AUTO 10003KT 10SM CLR 08/07 A3028 -120 93 -900 100/03 RMK AO2 T00830072
13870KAMG AMG20160306230010903/06/16 23:00:31  5-MIN KAMG 070400Z AUTO 00000KT 10SM CLR 08/07 A3028 -120 96 -900 000/00 RMK AO2 T00780072
13870KAMG AMG20160306230510903/06/16 23:05:31  5-MIN KAMG 070405Z AUTO 09003KT 10SM CLR 08/07 A3028 -130 96 -900 100/03 RMK AO2 T00780072
13870KAMG AMG20160306231011003/06/16 23:10:31  5-MIN KAMG 070410Z AUTO 00000KT 10SM CLR 07/07 A3028 -130 96 -1000 000/00 RMK AO2 T00720067
13870KAMG AMG20160306231510903/06/16 23:15:31  5-MIN KAMG 070415Z AUTO 09003KT 10SM CLR 08/07 A3028 -130 96 -900 100/03 RMK AO2 T00780072
13870KAMG AMG20160306232010903/06/16 23:20:31  5-MIN KAMG 070420Z AUTO 00000KT 10SM CLR 08/07 A3028 -130 96 -900 000/00 RMK AO2 T00780072
13870KAMG AMG20160306232510903/06/16 23:25:31  5-MIN KAMG 070425Z AUTO 00000KT 10SM CLR 08/07 A3028 -130 96 -900 000/00 RMK AO2 T00780072
13870KAMG AMG20160306233011103/06/16 23:30:31  5-MIN KAMG 070430Z AUTO 00000KT 10SM CLR 07/07 A3029 -130 100 -1000 000/00 RMK AO2 T00720072
13870KAMG AMG20160306233510903/06/16 23:35:31  5-MIN KAMG 070435Z AUTO 00000KT 10SM CLR 08/07 A3028 -130 93 -900 000/00 RMK AO2 T00780067
13870KAMG AMG20160306234010903/06/16 23:40:31  5-MIN KAMG 070440Z AUTO 00000KT 10SM CLR 08/07 A3028 -130 96 -900 000/00 RMK AO2 T00780072
13870KAMG AMG20160306234511103/06/16 23:45:31  5-MIN KAMG 070445Z AUTO 00000KT 10SM CLR 07/07 A3028 -120 100 -1000 000/00 RMK AO2 T00720072
13870KAMG AMG20160306235012603/06/16 23:50:31  5-MIN KAMG 070450Z AUTO 00000KT 9SM CLR 07/07 A3028 -120 96 -1000 000/00 RMK AO2 SLP253 T00720067 402060044
13870KAMG AMG20160306235510903/06/16 23:55:31  5-MIN KAMG 070455Z AUTO 00000KT 9SM CLR 07/07 A3028 -120 96 -1000 000/00 RMK AO2 T00720067
13870KAMG AMG20160307000010903/07/16 00:00:31  5-MIN KAMG 070500Z AUTO 00000KT 9SM CLR 07/07 A3028 -120 96 -1000 000/00 RMK AO2 T00720067
13870KAMG AMG20160307000511003/07/16 00:05:31  5-MIN KAMG 070505Z AUTO 00000KT 9SM CLR 07/07 A3028 -120 100 -1100 000/00 RMK AO2 T00670067
13870KAMG AMG20160307001011003/07/16 00:10:31  5-MIN KAMG 070510Z AUTO 00000KT 8SM CLR 06/06 A3028 -120 100 -1100 000/00 RMK AO2 T00610061
13870KAMG AMG20160307001510903/07/16 00:15:31  5-MIN KAMG 070515Z AUTO 00000KT 8SM CLR 07/06 A3028 -120 96 -1100 000/00 RMK AO2 T00670061
13870KAMG AMG20160307002010903/07/16 00:20:31  5-MIN KAMG 070520Z AUTO 00000KT 8SM CLR 07/06 A3028 -130 93 -1000 000/00 RMK AO2 T00720061
13870KAMG AMG20160307002510903/07/16 00:25:31  5-MIN KAMG 070525Z AUTO 00000KT 8SM CLR 07/06 A3028 -130 96 -1100 000/00 RMK AO2 T00670061
13870KAMG AMG20160307003010903/07/16 00:30:31  5-MIN KAMG 070530Z AUTO 00000KT 9SM CLR 07/06 A3028 -130 96 -1100 000/00 RMK AO2 T00670061
13870KAMG AMG20160307003510903/07/16 00:35:31  5-MIN KAMG 070535Z AUTO 00000KT 8SM CLR 07/06 A3028 -130 96 -1100 000/00 RMK AO2 T00670061
13870KAMG AMG20160307004011003/07/16 00:40:31  5-MIN KAMG 070540Z AUTO 00000KT 7SM CLR 06/06 A3028 -120 100 -1100 000/00 RMK AO2 T00610061
13870KAMG AMG20160307004511303/07/16 00:45:31  5-MIN KAMG 070545Z AUTO 00000KT 6SM BR CLR 06/06 A3028 -120 100 -1100 000/00 RMK AO2 T00610061
13870KAMG AMG20160307005013703/07/16 00:50:31  5-MIN KAMG 070550Z AUTO 06003KT 6SM BR CLR 06/06 A3028 -120 96 -1100 060/03 RMK AO2 SLP251 T00610056 10128 20061 51021
13870KAMG AMG20160307005511203/07/16 00:55:31  5-MIN KAMG 070555Z AUTO 00000KT 4SM BR CLR 06/06 A3028 -120 96 -1100 000/00 RMK AO2 T00610056
13870KAMG AMG20160307010011303/07/16 01:00:31  5-MIN KAMG 070600Z AUTO 00000KT 5SM BR CLR 06/06 A3027 -120 100 -1200 000/00 RMK AO2 T00560056
13870KAMG AMG20160307010511203/07/16 01:05:31  5-MIN KAMG 070605Z AUTO 00000KT 5SM BR CLR 06/06 A3028 -120 96 -1100 000/00 RMK AO2 T00610056
13870KAMG AMG20160307011011203/07/16 01:10:31  5-MIN KAMG 070610Z AUTO 00000KT 6SM BR CLR 06/06 A3027 -120 96 -1100 000/00 RMK AO2 T00610056
13870KAMG AMG20160307011511303/07/16 01:15:31  5-MIN KAMG 070615Z AUTO 00000KT 6SM BR CLR 06/06 A3027 -120 100 -1200 000/00 RMK AO2 T00560056
13870KAMG AMG20160307012011303/07/16 01:20:31  5-MIN KAMG 070620Z AUTO 00000KT 5SM BR CLR 06/06 A3027 -120 100 -1200 000/00 RMK AO2 T00560056
13870KAMG AMG20160307012511303/07/16 01:25:31  5-MIN KAMG 070625Z AUTO 09003KT 5SM BR CLR 06/06 A3027 -110 100 -1200 090/03 RMK AO2 T00560056
13870KAMG AMG20160307013011203/07/16 01:30:31  5-MIN KAMG 070630Z AUTO 09004KT 5SM BR CLR 06/05 A3027 -110 96 -1200 090/04 RMK AO2 T00560050
13870KAMG AMG20160307013511003/07/16 01:35:31  5-MIN KAMG 070635Z AUTO 09004KT 7SM CLR 06/06 A3026 -110 100 -1200 090/04 RMK AO2 T00560056
13870KAMG AMG20160307014010903/07/16 01:40:31  5-MIN KAMG 070640Z AUTO 10004KT 8SM CLR 07/06 A3026 -110 93 -1100 100/04 RMK AO2 T00670056
13870KAMG AMG20160307014511003/07/16 01:45:31  5-MIN KAMG 070645Z AUTO 11004KT 8SM CLR 07/07 A3026 -110 100 -1100 110/04 RMK AO2 T00670067
13870KAMG AMG20160307015011603/07/16 01:50:31  5-MIN KAMG 070650Z AUTO 10004KT 8SM CLR 07/07 A3026 -110 96 -1000 110/04 RMK AO2 SLP246 T00720067
13870KAMG AMG20160307015510903/07/16 01:55:31  5-MIN KAMG 070655Z AUTO 10005KT 9SM CLR 07/07 A3026 -110 96 -1000 100/05 RMK AO2 T00720067
13870KAMG AMG20160307020010803/07/16 02:00:31  5-MIN KAMG 070700Z AUTO 10004KT 9SM CLR 08/07 A3026 -100 96 -900 100/04 RMK AO2 T00780072
13870KAMG AMG20160307020510803/07/16 02:05:31  5-MIN KAMG 070705Z AUTO 10005KT 8SM CLR 08/07 A3025 -100 96 -900 110/05 RMK AO2 T00780072
13870KAMG AMG20160307021010803/07/16 02:10:31  5-MIN KAMG 070710Z AUTO 10005KT 8SM CLR 08/07 A3025 -100 96 -900 110/05 RMK AO2 T00780072
13870KAMG AMG20160307021510803/07/16 02:15:31  5-MIN KAMG 070715Z AUTO 10004KT 8SM CLR 08/08 A3025 -100 96 -800 100/04 RMK AO2 T00830078
13870KAMG AMG20160307022010803/07/16 02:20:31  5-MIN KAMG 070720Z AUTO 09004KT 8SM CLR 08/08 A3025 -100 96 -800 100/04 RMK AO2 T00830078
13870KAMG AMG20160307022510803/07/16 02:25:31  5-MIN KAMG 070725Z AUTO 10004KT 8SM CLR 09/08 A3025 -100 96 -800 100/04 RMK AO2 T00890083
13870KAMG AMG20160307023010803/07/16 02:30:31  5-MIN KAMG 070730Z AUTO 08004KT 7SM CLR 09/08 A3025 -100 96 -800 090/04 RMK AO2 T00890083
13870KAMG AMG20160307023510903/07/16 02:35:31  5-MIN KAMG 070735Z AUTO 09003KT 7SM CLR 08/08 A3025 -100 100 -800 090/03 RMK AO2 T00830083
13870KAMG AMG20160307024010803/07/16 02:40:31  5-MIN KAMG 070740Z AUTO 08003KT 7SM CLR 08/08 A3025 -100 96 -800 090/03 RMK AO2 T00830078
13870KAMG AMG20160307024511203/07/16 02:45:31  5-MIN KAMG 070745Z AUTO 00000KT 6SM BR CLR 08/08 A3025 -100 100 -900 000/00 RMK AO2 T00780078
13870KAMG AMG20160307025011803/07/16 02:50:31  5-MIN KAMG 070750Z AUTO 08003KT 5SM BR CLR 08/07 A3025 -100 96 -900 090/03 RMK AO2 SLP242 T00780072
13870KAMG AMG20160307025511103/07/16 02:55:31  5-MIN KAMG 070755Z AUTO 08003KT 5SM BR CLR 08/07 A3025 -100 96 -900 090/03 RMK AO2 T00780072
13870KAMG AMG20160307030011303/07/16 03:00:31  5-MIN KAMG 070800Z AUTO 08003KT 5SM BR CLR 07/07 A3025 -100 100 -1000 080/03 RMK AO2 T00720072
13870KAMG AMG20160307030511303/07/16 03:05:31  5-MIN KAMG 070805Z AUTO 08003KT 3SM BR CLR 07/07 A3025 -100 100 -1000 090/03 RMK AO2 T00720072
13870KAMG AMG20160307031011703/07/16 03:10:31  5-MIN KAMG 070810Z AUTO 08003KT 1 1/4SM BR CLR 07/07 A3025 -100 100 -1000 090/03 RMK AO2 T00670067
13870KAMG AMG20160307031511203/07/16 03:15:31  5-MIN KAMG 070815Z AUTO 08003KT 1SM BR CLR 07/07 A3025 -90 100 -1000 080/03 RMK AO2 T00670067
13870KAMG AMG20160307032011203/07/16 03:20:31  5-MIN KAMG 070820Z AUTO 08003KT 1SM BR CLR 07/07 A3025 -90 100 -1000 080/03 RMK AO2 T00670067
13870KAMG AMG20160307032512103/07/16 03:25:31  5-MIN KAMG 070825Z AUTO 08003KT 2SM BR CLR 07/07 A3025 -100 100 -1000 080/03 RMK AO2 VIS 1V3 T00670067
13870KAMG AMG20160307033011603/07/16 03:30:31  5-MIN KAMG 070830Z AUTO 08003KT 1 1/2SM BR CLR 07/07 A3025 -90 100 -1000 080/03 RMK AO2 T00670067
13870KAMG AMG20160307033511403/07/16 03:35:31  5-MIN KAMG 070835Z AUTO 08003KT 3/4SM BR CLR 07/07 A3025 -90 100 -1000 090/03 RMK AO2 T00670067
13870KAMG AMG20160307034011403/07/16 03:40:31  5-MIN KAMG 070840Z AUTO 07003KT 1/2SM FG CLR 06/06 A3025 -90 100 -1100 080/03 RMK AO2 T00610061
13870KAMG AMG20160307034511403/07/16 03:45:31  5-MIN KAMG 070845Z AUTO 00000KT 1/4SM FG CLR 06/06 A3025 -90 100 -1100 000/00 RMK AO2 T00610061
13870KAMG AMG20160307035010503/07/16 03:50:31  5-MIN KAMG 070850Z AUTO 00000KT 1/4SM FG CLR 06/06 A3025 -100 100 -1200 000/00 RMK AO2
13870KAMG AMG20160307035511503/07/16 03:55:31  5-MIN KAMG 070855Z AUTO 00000KT 3/4SM BR CLR 06/06 A3025 -100 100 -1100 000/00 RMK AO2 T00610061
13870KAMG AMG20160307040011703/07/16 04:00:31  5-MIN KAMG 070900Z AUTO 00000KT 1 1/4SM BR CLR 06/06 A3025 -100 100 -1100 000/00 RMK AO2 T00610061
13870KAMG AMG20160307040511303/07/16 04:05:31  5-MIN KAMG 070905Z AUTO 00000KT 2SM BR CLR 06/06 A3025 -100 100 -1200 000/00 RMK AO2 T00560056
13870KAMG AMG20160307041011303/07/16 04:10:31  5-MIN KAMG 070910Z AUTO 00000KT 3SM BR CLR 06/06 A3025 -100 100 -1200 000/00 RMK AO2 T00560056
13870KAMG AMG20160307041511203/07/16 04:15:31  5-MIN KAMG 070915Z AUTO 00000KT 3SM BR CLR 06/06 A3026 -100 96 -1100 000/00 RMK AO2 T00610056
13870KAMG AMG20160307042011503/07/16 04:20:31  5-MIN KAMG 070920Z AUTO 00000KT 3/4SM BR CLR 06/06 A3025 -100 100 -1100 000/00 RMK AO2 T00610061
13870KAMG AMG20160307191010803/07/16 19:10:31  5-MIN KAMG 080010Z AUTO 12005KT 10SM CLR 18/11 A3026 -110 60 300 120/05 RMK AO2 T01830106
13870KAMG AMG20160307191510803/07/16 19:15:31  5-MIN KAMG 080015Z AUTO 12005KT 10SM CLR 18/11 A3027 -110 60 300 120/05 RMK AO2 T01830106
13870KAMG AMG20160307192010803/07/16 19:20:31  5-MIN KAMG 080020Z AUTO 11005KT 10SM CLR 18/11 A3027 -110 60 300 110/05 RMK AO2 T01830106
13870KAMG AMG20160307192510803/07/16 19:25:31  5-MIN KAMG 080025Z AUTO 11006KT 10SM CLR 18/11 A3026 -110 62 200 110/06 RMK AO2 T01780106
13870KAMG AMG20160307193010803/07/16 19:30:31  5-MIN KAMG 080030Z AUTO 12006KT 10SM CLR 18/11 A3026 -110 62 200 130/06 RMK AO2 T01780106
13870KAMG AMG20160307193510803/07/16 19:35:31  5-MIN KAMG 080035Z AUTO 12006KT 10SM CLR 18/11 A3026 -110 62 200 130/06 RMK AO2 T01780106
13870KAMG AMG20160307194010803/07/16 19:40:31  5-MIN KAMG 080040Z AUTO 11005KT 10SM CLR 17/11 A3026 -110 67 200 120/05 RMK AO2 T01720111
13870KAMG AMG20160307194510803/07/16 19:45:31  5-MIN KAMG 080045Z AUTO 11006KT 10SM CLR 17/11 A3026 -110 67 200 110/06 RMK AO2 T01720111
13870KAMG AMG20160307195011503/07/16 19:50:31  5-MIN KAMG 080050Z AUTO 11006KT 10SM CLR 17/11 A3027 -110 67 200 120/06 RMK AO2 SLP248 T01720111
13870KAMG AMG20160307195510803/07/16 19:55:31  5-MIN KAMG 080055Z AUTO 11005KT 10SM CLR 17/11 A3027 -110 67 200 110/05 RMK AO2 T01720111
13870KAMG AMG20160307200010803/07/16 20:00:31  5-MIN KAMG 080100Z AUTO 11006KT 10SM CLR 17/11 A3027 -110 67 200 110/06 RMK AO2 T01720111
13870KAMG AMG20160307200510803/07/16 20:05:31  5-MIN KAMG 080105Z AUTO 12007KT 10SM CLR 17/11 A3027 -110 67 200 130/07 RMK AO2 T01720111
13870KAMG AMG20160307201010803/07/16 20:10:31  5-MIN KAMG 080110Z AUTO 11005KT 10SM CLR 17/11 A3027 -110 67 200 120/05 RMK AO2 T01720111
13870KAMG AMG20160307201510803/07/16 20:15:31  5-MIN KAMG 080115Z AUTO 11005KT 10SM CLR 17/11 A3027 -110 69 100 120/05 RMK AO2 T01670111
13870KAMG AMG20160307202010803/07/16 20:20:31  5-MIN KAMG 080120Z AUTO 12005KT 10SM CLR 17/11 A3027 -120 69 100 120/05 RMK AO2 T01670111
13870KAMG AMG20160307202510803/07/16 20:25:31  5-MIN KAMG 080125Z AUTO 12005KT 10SM CLR 17/11 A3027 -120 69 100 130/05 RMK AO2 T01670111
13870KAMG AMG20160307203010803/07/16 20:30:31  5-MIN KAMG 080130Z AUTO 13006KT 10SM CLR 17/11 A3027 -120 67 100 130/06 RMK AO2 T01670106
13870KAMG AMG20160307203510803/07/16 20:35:31  5-MIN KAMG 080135Z AUTO 13005KT 10SM CLR 17/11 A3027 -120 67 100 130/05 RMK AO2 T01670106
13870KAMG AMG20160307204010803/07/16 20:40:31  5-MIN KAMG 080140Z AUTO 12006KT 10SM CLR 17/11 A3027 -120 67 100 130/06 RMK AO2 T01670106
13870KAMG AMG20160307204510603/07/16 20:45:31  5-MIN KAMG 080145Z AUTO 12005KT 10SM CLR 16/11 A3027 -120 69 0 130/05 RMK AO2 T01610106
13870KAMG AMG20160307205011303/07/16 20:50:31  5-MIN KAMG 080150Z AUTO 12004KT 10SM CLR 16/11 A3027 -120 69 0 120/04 RMK AO2 SLP251 T01610106
13870KAMG AMG20160307205510603/07/16 20:55:31  5-MIN KAMG 080155Z AUTO 11005KT 10SM CLR 16/11 A3028 -120 69 0 120/05 RMK AO2 T01610106
13870KAMG AMG20160307210010603/07/16 21:00:31  5-MIN KAMG 080200Z AUTO 12005KT 10SM CLR 16/11 A3028 -120 69 0 120/05 RMK AO2 T01610106
13870KAMG AMG20160307210510603/07/16 21:05:31  5-MIN KAMG 080205Z AUTO 11004KT 10SM CLR 16/11 A3028 -120 72 0 120/04 RMK AO2 T01560106
13870KAMG AMG20160307211010603/07/16 21:10:31  5-MIN KAMG 080210Z AUTO 11005KT 10SM CLR 16/11 A3028 -120 72 0 120/05 RMK AO2 T01560106
13870KAMG AMG20160307211510603/07/16 21:15:31  5-MIN KAMG 080215Z AUTO 11005KT 10SM CLR 16/11 A3028 -120 72 0 120/05 RMK AO2 T01560106
13870KAMG AMG20160307212010603/07/16 21:20:31  5-MIN KAMG 080220Z AUTO 12005KT 10SM CLR 16/11 A3028 -130 72 0 120/05 RMK AO2 T01560106
13870KAMG AMG20160307212510903/07/16 21:25:31  5-MIN KAMG 080225Z AUTO 11005KT 10SM CLR 15/11 A3028 -130 74 -100 110/05 RMK AO2 T01500106
13870KAMG AMG20160307213010603/07/16 21:30:31  5-MIN KAMG 080230Z AUTO 12005KT 10SM CLR 16/11 A3029 -130 72 0 120/05 RMK AO2 T01560106
13870KAMG AMG20160307213510903/07/16 21:35:31  5-MIN KAMG 080235Z AUTO 12005KT 10SM CLR 15/11 A3029 -130 74 -100 120/05 RMK AO2 T01500106
13870KAMG AMG20160307214010903/07/16 21:40:31  5-MIN KAMG 080240Z AUTO 11004KT 10SM CLR 15/11 A3029 -130 74 -100 120/04 RMK AO2 T01500106
13870KAMG AMG20160307214510903/07/16 21:45:31  5-MIN KAMG 080245Z AUTO 13004KT 10SM CLR 15/11 A3029 -130 74 -100 130/04 RMK AO2 T01500106
13870KAMG AMG20160307215012203/07/16 21:50:31  5-MIN KAMG 080250Z AUTO 12005KT 10SM CLR 15/11 A3029 -130 74 -100 120/05 RMK AO2 SLP254 T01500106 53003
13870KAMG AMG20160307215510903/07/16 21:55:31  5-MIN KAMG 080255Z AUTO 12005KT 10SM CLR 15/11 A3029 -130 74 -100 120/05 RMK AO2 T01500106
13870KAMG AMG20160307220010903/07/16 22:00:31  5-MIN KAMG 080300Z AUTO 12005KT 10SM CLR 15/11 A3029 -130 74 -100 120/05 RMK AO2 T01500106
13870KAMG AMG20160307220510903/07/16 22:05:31  5-MIN KAMG 080305Z AUTO 11004KT 10SM CLR 14/11 A3029 -130 77 -100 120/04 RMK AO2 T01440106
13870KAMG AMG20160307221010903/07/16 22:10:31  5-MIN KAMG 080310Z AUTO 12004KT 10SM CLR 14/11 A3029 -130 77 -100 130/04 RMK AO2 T01440106
13870KAMG AMG20160307221510903/07/16 22:15:31  5-MIN KAMG 080315Z AUTO 11005KT 10SM CLR 14/11 A3029 -130 77 -100 110/05 RMK AO2 T01440106
13870KAMG AMG20160307222010903/07/16 22:20:31  5-MIN KAMG 080320Z AUTO 11004KT 10SM CLR 14/11 A3029 -130 77 -100 110/04 RMK AO2 T01440106
13870KAMG AMG20160307222510903/07/16 22:25:31  5-MIN KAMG 080325Z AUTO 11004KT 10SM CLR 14/11 A3029 -130 77 -100 120/04 RMK AO2 T01440106
13870KAMG AMG20160307223010903/07/16 22:30:31  5-MIN KAMG 080330Z AUTO 11005KT 10SM CLR 14/11 A3029 -130 80 -200 120/05 RMK AO2 T01390106
13870KAMG AMG20160307223510903/07/16 22:35:31  5-MIN KAMG 080335Z AUTO 11005KT 10SM CLR 14/11 A3029 -130 80 -200 120/05 RMK AO2 T01390106
13870KAMG AMG20160307224010903/07/16 22:40:31  5-MIN KAMG 080340Z AUTO 11004KT 10SM CLR 14/11 A3029 -130 80 -200 120/04 RMK AO2 T01390106
13870KAMG AMG20160307224510903/07/16 22:45:31  5-MIN KAMG 080345Z AUTO 11004KT 10SM CLR 14/11 A3029 -130 80 -200 120/04 RMK AO2 T01390106
13870KAMG AMG20160307225011603/07/16 22:50:31  5-MIN KAMG 080350Z AUTO 12005KT 10SM CLR 14/11 A3029 -130 80 -200 120/05 RMK AO2 SLP255 T01390106
13870KAMG AMG20160307225510903/07/16 22:55:31  5-MIN KAMG 080355Z AUTO 12005KT 10SM CLR 14/11 A3029 -130 80 -200 120/05 RMK AO2 T01390106
13870KAMG AMG20160307230010903/07/16 23:00:31  5-MIN KAMG 080400Z AUTO 11004KT 10SM CLR 14/11 A3029 -130 80 -200 120/04 RMK AO2 T01390106
13870KAMG AMG20160307230510903/07/16 23:05:31  5-MIN KAMG 080405Z AUTO 09004KT 10SM CLR 13/11 A3029 -130 83 -300 100/04 RMK AO2 T01330106
13870KAMG AMG20160307231010903/07/16 23:10:31  5-MIN KAMG 080410Z AUTO 10004KT 10SM CLR 13/10 A3029 -130 80 -300 100/04 RMK AO2 T01330100
13870KAMG AMG20160307231510903/07/16 23:15:31  5-MIN KAMG 080415Z AUTO 10004KT 10SM CLR 13/10 A3029 -130 80 -300 100/04 RMK AO2 T01330100
13870KAMG AMG20160307232010903/07/16 23:20:31  5-MIN KAMG 080420Z AUTO 10005KT 10SM CLR 13/10 A3029 -130 80 -300 110/05 RMK AO2 T01330100
13870KAMG AMG20160307232510903/07/16 23:25:31  5-MIN KAMG 080425Z AUTO 10005KT 10SM CLR 13/10 A3028 -130 83 -300 110/05 RMK AO2 T01280100
13870KAMG AMG20160307233010903/07/16 23:30:31  5-MIN KAMG 080430Z AUTO 10004KT 10SM CLR 13/10 A3028 -120 80 -300 110/04 RMK AO2 T01330100
13870KAMG AMG20160307233510903/07/16 23:35:31  5-MIN KAMG 080435Z AUTO 11004KT 10SM CLR 13/11 A3028 -130 86 -300 110/04 RMK AO2 T01280106
13870KAMG AMG20160307234010903/07/16 23:40:31  5-MIN KAMG 080440Z AUTO 11005KT 10SM CLR 13/11 A3028 -120 83 -300 110/05 RMK AO2 T01330106
13870KAMG AMG20160307234510903/07/16 23:45:31  5-MIN KAMG 080445Z AUTO 11005KT 10SM CLR 13/11 A3028 -120 86 -300 110/05 RMK AO2 T01280106
13870KAMG AMG20160307235012603/07/16 23:50:31  5-MIN KAMG 080450Z AUTO 11004KT 10SM CLR 13/11 A3028 -120 86 -300 110/04 RMK AO2 SLP252 T01280106 402390050
13870KAMG AMG20160307235510903/07/16 23:55:31  5-MIN KAMG 080455Z AUTO 10004KT 10SM CLR 13/11 A3028 -120 86 -300 110/04 RMK AO2 T01280106
13870KAMG AMG20160308000010903/08/16 00:00:31  5-MIN KAMG 080500Z AUTO 11003KT 10SM CLR 13/11 A3028 -120 86 -300 120/03 RMK AO2 T01280106
13870KAMG AMG20160308000510903/08/16 00:05:31  5-MIN KAMG 080505Z AUTO 11003KT 10SM CLR 13/11 A3028 -120 86 -300 110/03 RMK AO2 T01280106
13870KAMG AMG20160308001010903/08/16 00:10:31  5-MIN KAMG 080510Z AUTO 10003KT 10SM CLR 12/11 A3028 -120 89 -400 110/03 RMK AO2 T01220106
13870KAMG AMG20160308001510903/08/16 00:15:31  5-MIN KAMG 080515Z AUTO 11003KT 10SM CLR 12/11 A3027 -120 89 -400 110/03 RMK AO2 T01220106
13870KAMG AMG20160308002010903/08/16 00:20:31  5-MIN KAMG 080520Z AUTO 10003KT 10SM CLR 12/11 A3027 -120 89 -400 110/03 RMK AO2 T01220106
13870KAMG AMG20160308002510903/08/16 00:25:31  5-MIN KAMG 080525Z AUTO 11003KT 10SM CLR 12/11 A3027 -120 89 -400 110/03 RMK AO2 T01220106
13870KAMG AMG20160308003010903/08/16 00:30:31  5-MIN KAMG 080530Z AUTO 11003KT 10SM CLR 12/11 A3028 -120 89 -400 120/03 RMK AO2 T01220106
13870KAMG AMG20160308003510903/08/16 00:35:31  5-MIN KAMG 080535Z AUTO 00000KT 10SM CLR 12/11 A3028 -120 89 -400 000/00 RMK AO2 T01220106
13870KAMG AMG20160308004010903/08/16 00:40:31  5-MIN KAMG 080540Z AUTO 00000KT 10SM CLR 12/11 A3028 -120 89 -400 000/00 RMK AO2 T01220106
13870KAMG AMG20160308004510903/08/16 00:45:31  5-MIN KAMG 080545Z AUTO 00000KT 10SM CLR 12/11 A3028 -120 93 -500 000/00 RMK AO2 T01170106
13870KAMG AMG20160308005013403/08/16 00:50:31  5-MIN KAMG 080550Z AUTO 00000KT 10SM CLR 12/11 A3028 -120 93 -500 000/00 RMK AO2 SLP251 T01170106 10189 20117 53011
13870KAMG AMG20160308005510903/08/16 00:55:31  5-MIN KAMG 080555Z AUTO 00000KT 10SM CLR 12/11 A3028 -120 93 -500 000/00 RMK AO2 T01170106
13870KAMG AMG20160308010010903/08/16 01:00:31  5-MIN KAMG 080600Z AUTO 00000KT 10SM CLR 11/10 A3028 -120 93 -500 000/00 RMK AO2 T01110100
13870KAMG AMG20160308010510903/08/16 01:05:31  5-MIN KAMG 080605Z AUTO 00000KT 10SM CLR 11/10 A3028 -130 93 -500 000/00 RMK AO2 T01110100
13870KAMG AMG20160308011010903/08/16 01:10:31  5-MIN KAMG 080610Z AUTO 00000KT 10SM CLR 11/10 A3028 -130 96 -600 000/00 RMK AO2 T01060100
13870KAMG AMG20160308011510903/08/16 01:15:31  5-MIN KAMG 080615Z AUTO 00000KT 10SM CLR 11/10 A3029 -130 96 -600 000/00 RMK AO2 T01060100
13870KAMG AMG20160308012010903/08/16 01:20:31  5-MIN KAMG 080620Z AUTO 00000KT 10SM CLR 11/10 A3029 -130 96 -600 000/00 RMK AO2 T01060100
13870KAMG AMG20160308012510903/08/16 01:25:31  5-MIN KAMG 080625Z AUTO 00000KT 10SM CLR 10/09 A3029 -130 96 -700 000/00 RMK AO2 T01000094
13870KAMG AMG20160308013010903/08/16 01:30:31  5-MIN KAMG 080630Z AUTO 00000KT 9SM CLR 09/09 A3028 -130 100 -700 000/00 RMK AO2 T00940094
13870KAMG AMG20160308013510803/08/16 01:35:31  5-MIN KAMG 080635Z AUTO 00000KT 8SM CLR 10/09 A3028 -130 96 -700 000/00 RMK AO2 T01000094
13870KAMG AMG20160308014010903/08/16 01:40:31  5-MIN KAMG 080640Z AUTO 00000KT 8SM CLR 10/10 A3028 -130 100 -700 000/00 RMK AO2 T01000100
13870KAMG AMG20160308014510903/08/16 01:45:31  5-MIN KAMG 080645Z AUTO 00000KT 7SM CLR 09/09 A3028 -120 100 -700 000/00 RMK AO2 T00940094
13870KAMG AMG20160308015011903/08/16 01:50:31  5-MIN KAMG 080650Z AUTO 00000KT 6SM BR CLR 09/09 A3028 -120 100 -700 000/00 RMK AO2 SLP251 T00940094
13870KAMG AMG20160308015511103/08/16 01:55:31  5-MIN KAMG 080655Z AUTO 00000KT 5SM BR CLR 09/09 A3028 -120 96 -700 000/00 RMK AO2 T00940089
13870KAMG AMG20160308020011103/08/16 02:00:31  5-MIN KAMG 080700Z AUTO 00000KT 5SM BR CLR 09/09 A3028 -120 96 -700 000/00 RMK AO2 T00940089
13870KAMG AMG20160308020511203/08/16 02:05:31  5-MIN KAMG 080705Z AUTO 00000KT 4SM BR CLR 09/09 A3028 -120 100 -800 000/00 RMK AO2 T00890089
13870KAMG AMG20160308021011103/08/16 02:10:31  5-MIN KAMG 080710Z AUTO 00000KT 3SM BR CLR 09/09 A3027 -120 96 -700 000/00 RMK AO2 T00940089
13870KAMG AMG20160308021511503/08/16 02:15:31  5-MIN KAMG 080715Z AUTO 00000KT 2 1/2SM BR CLR 09/09 A3027 -120 96 -700 000/00 RMK AO2 T00940089
13870KAMG AMG20160308022011203/08/16 02:20:31  5-MIN KAMG 080720Z AUTO 00000KT 3SM BR CLR 09/09 A3027 -120 100 -700 000/00 RMK AO2 T00940094
13870KAMG AMG20160308022511203/08/16 02:25:31  5-MIN KAMG 080725Z AUTO 00000KT 4SM BR CLR 09/09 A3027 -110 100 -800 000/00 RMK AO2 T00890089
13870KAMG AMG20160308023011103/08/16 02:30:31  5-MIN KAMG 080730Z AUTO 00000KT 4SM BR CLR 09/09 A3027 -110 96 -700 000/00 RMK AO2 T00940089
13870KAMG AMG20160308023511103/08/16 02:35:31  5-MIN KAMG 080735Z AUTO 00000KT 3SM BR CLR 09/09 A3027 -110 96 -700 000/00 RMK AO2 T00940089
13870KAMG AMG20160308024011503/08/16 02:40:31  5-MIN KAMG 080740Z AUTO 00000KT 2 1/2SM BR CLR 09/09 A3027 -110 96 -700 000/00 RMK AO2 T00940089
13870KAMG AMG20160308024511603/08/16 02:45:31  5-MIN KAMG 080745Z AUTO 00000KT 2 1/2SM BR CLR 09/09 A3027 -110 100 -800 000/00 RMK AO2 T00890089
13870KAMG AMG20160308025010103/08/16 02:50:31  5-MIN KAMG 080750Z AUTO 00000KT 3SM BR CLR 09/09 A3026 -110 96 -700 000/00 RMK AO2
13870KAMG AMG20160308025511203/08/16 02:55:31  5-MIN KAMG 080755Z AUTO 00000KT 2SM BR CLR 09/09 A3026 -110 100 -800 000/00 RMK AO2 T00890089
13870KAMG AMG20160308030011603/08/16 03:00:31  5-MIN KAMG 080800Z AUTO 00000KT 1 3/4SM BR CLR 08/08 A3026 -100 100 -800 000/00 RMK AO2 T00830083
13870KAMG AMG20160308030511203/08/16 03:05:31  5-MIN KAMG 080805Z AUTO 00000KT 2SM BR CLR 08/08 A3026 -100 100 -800 000/00 RMK AO2 T00830083
13870KAMG AMG20160308031011503/08/16 03:10:31  5-MIN KAMG 080810Z AUTO 00000KT 2 1/2SM BR CLR 09/08 A3025 -100 96 -800 000/00 RMK AO2 T00890083
13870KAMG AMG20160308031511203/08/16 03:15:31  5-MIN KAMG 080815Z AUTO 00000KT 3SM BR CLR 08/08 A3025 -100 100 -800 000/00 RMK AO2 T00830083
13870KAMG AMG20160308032011603/08/16 03:20:31  5-MIN KAMG 080820Z AUTO 00000KT 2 1/2SM BR CLR 08/08 A3025 -100 100 -900 000/00 RMK AO2 T00780078
13870KAMG AMG20160308032511503/08/16 03:25:31  5-MIN KAMG 080825Z AUTO 00000KT 2 1/2SM BR CLR 08/08 A3025 -100 96 -800 000/00 RMK AO2 T00830078
13870KAMG AMG20160308033011403/08/16 03:30:31  5-MIN KAMG 080830Z AUTO 00000KT 2 1/2SM BR CLR 09/08 A3025 -90 96 -800 000/00 RMK AO2 T00890083
13870KAMG AMG20160308033511003/08/16 03:35:31  5-MIN KAMG 080835Z AUTO 00000KT 4SM BR CLR 09/08 A3025 -90 96 -800 000/00 RMK AO2 T00890083
13870KAMG AMG20160308034011003/08/16 03:40:31  5-MIN KAMG 080840Z AUTO 00000KT 4SM BR CLR 09/08 A3025 -90 96 -800 000/00 RMK AO2 T00890083
13870KAMG AMG20160308034511103/08/16 03:45:31  5-MIN KAMG 080845Z AUTO 00000KT 4SM BR CLR 08/08 A3025 -90 100 -800 000/00 RMK AO2 T00830083
13870KAMG AMG20160308035012403/08/16 03:50:31  5-MIN KAMG 080850Z AUTO 00000KT 3SM BR CLR 08/08 A3025 -90 100 -900 000/00 RMK AO2 SLP241 T00780078 58003
13870KAMG AMG20160308035511103/08/16 03:55:31  5-MIN KAMG 080855Z AUTO 00000KT 3SM BR CLR 08/08 A3025 -90 100 -800 000/00 RMK AO2 T00830083
13870KAMG AMG20160308040011103/08/16 04:00:31  5-MIN KAMG 080900Z AUTO 00000KT 4SM BR CLR 08/08 A3025 -90 100 -800 000/00 RMK AO2 T00830083
13870KAMG AMG20160308040511003/08/16 04:05:31  5-MIN KAMG 080905Z AUTO 00000KT 5SM BR CLR 09/08 A3024 -90 96 -800 000/00 RMK AO2 T00890083
13870KAMG AMG20160308041011503/08/16 04:10:31  5-MIN KAMG 080910Z AUTO 00000KT 2 1/2SM BR CLR 08/08 A3024 -90 100 -800 000/00 RMK AO2 T00830083
13870KAMG AMG20160308041511103/08/16 04:15:31  5-MIN KAMG 080915Z AUTO 00000KT 2SM BR CLR 08/08 A3024 -90 100 -800 000/00 RMK AO2 T00830083
13870KAMG AMG20160308042011503/08/16 04:20:31  5-MIN KAMG 080920Z AUTO 00000KT 2 1/2SM BR CLR 08/08 A3024 -90 100 -900 000/00 RMK AO2 T00780078
13870KAMG AMG20160308042511103/08/16 04:25:31  5-MIN KAMG 080925Z AUTO 00000KT 3SM BR CLR 08/08 A3024 -90 100 -900 000/00 RMK AO2 T00780078
13870KAMG AMG20160308043011003/08/16 04:30:31  5-MIN KAMG 080930Z AUTO 00000KT 4SM BR CLR 08/08 A3024 -90 96 -800 000/00 RMK AO2 T00830078
13870KAMG AMG20160308043511003/08/16 04:35:31  5-MIN KAMG 080935Z AUTO 00000KT 4SM BR CLR 08/08 A3024 -90 96 -800 000/00 RMK AO2 T00830078
13870KAMG AMG20160308044011003/08/16 04:40:31  5-MIN KAMG 080940Z AUTO 00000KT 3SM BR CLR 08/08 A3024 -90 96 -800 000/00 RMK AO2 T00830078
13870KAMG AMG20160308044511003/08/16 04:45:31  5-MIN KAMG 080945Z AUTO 00000KT 3SM BR CLR 08/08 A3024 -90 96 -800 000/00 RMK AO2 T00830078
13870KAMG AMG20160308045010503/08/16 04:50:31  5-MIN KAMG 080950Z AUTO 00000KT 2 1/2SM BR CLR 08/08 A3025 -90 100 -900 000/00 RMK AO2
13870KAMG AMG20160308045511503/08/16 04:55:31  5-MIN KAMG 080955Z AUTO 00000KT 2 1/2SM BR CLR 08/08 A3025 -90 100 -900 000/00 RMK AO2 T00780078
13870KAMG AMG20160308050011003/08/16 05:00:31  5-MIN KAMG 081000Z AUTO 00000KT 3SM BR CLR 08/08 A3025 -90 96 -800 000/00 RMK AO2 T00830078
13870KAMG AMG20160308050511603/08/16 05:05:31  5-MIN KAMG 081005Z AUTO 00000KT 2 1/2SM BR CLR 08/08 A3025 -100 100 -900 000/00 RMK AO2 T00780078
13870KAMG AMG20160308051011503/08/16 05:10:31  5-MIN KAMG 081010Z AUTO 00000KT 1 3/4SM BR CLR 08/08 A3025 -100 96 -800 000/00 RMK AO2 T00830078
13870KAMG AMG20160308051511203/08/16 05:15:31  5-MIN KAMG 081015Z AUTO 00000KT 2SM BR CLR 08/08 A3025 -100 100 -900 000/00 RMK AO2 T00780078
13870KAMG AMG20160308052011603/08/16 05:20:31  5-MIN KAMG 081020Z AUTO 00000KT 2 1/2SM BR CLR 08/08 A3025 -100 100 -900 000/00 RMK AO2 T00780078
13870KAMG AMG20160308052511203/08/16 05:25:31  5-MIN KAMG 081025Z AUTO 00000KT 3SM BR CLR 08/08 A3026 -100 100 -900 000/00 RMK AO2 T00780078
13870KAMG AMG20160308053011603/08/16 05:30:31  5-MIN KAMG 081030Z AUTO 00000KT 2 1/2SM BR CLR 08/08 A3026 -100 100 -900 000/00 RMK AO2 T00780078
13870KAMG AMG20160308053511503/08/16 05:35:31  5-MIN KAMG 081035Z AUTO 00000KT 2 1/2SM BR CLR 08/07 A3026 -110 96 -900 000/00 RMK AO2 T00780072
13870KAMG AMG20160308054011603/08/16 05:40:31  5-MIN KAMG 081040Z AUTO 00000KT 2 1/2SM BR CLR 08/08 A3026 -110 100 -900 000/00 RMK AO2 T00780078
13870KAMG AMG20160308054511203/08/16 05:45:31  5-MIN KAMG 081045Z AUTO 00000KT 3SM BR CLR 08/08 A3026 -110 100 -900 000/00 RMK AO2 T00780078
13870KAMG AMG20160308055011903/08/16 05:50:31  5-MIN KAMG 081050Z AUTO 00000KT 3SM BR CLR 08/08 A3026 -110 100 -900 000/00 RMK AO2 SLP247 T00780078
13870KAMG AMG20160308055511103/08/16 05:55:31  5-MIN KAMG 081055Z AUTO 00000KT 2SM BR CLR 08/07 A3026 -110 96 -900 000/00 RMK AO2 T00780072
13870KAMG AMG20160308060011203/08/16 06:00:31  5-MIN KAMG 081100Z AUTO 00000KT 2SM BR CLR 08/08 A3027 -110 100 -900 000/00 RMK AO2 T00780078
13870KAMG AMG20160308060511603/08/16 06:05:31  5-MIN KAMG 081105Z AUTO 00000KT 1 1/2SM BR CLR 08/08 A3027 -110 100 -900 000/00 RMK AO2 T00780078
13870KAMG AMG20160308061011203/08/16 06:10:31  5-MIN KAMG 081110Z AUTO 00000KT 1SM BR CLR 08/08 A3027 -110 100 -900 000/00 RMK AO2 T00780078
13870KAMG AMG20160308061511603/08/16 06:15:31  5-MIN KAMG 081115Z AUTO 00000KT 1 1/4SM BR CLR 08/08 A3027 -110 100 -900 000/00 RMK AO2 T00780078
13870KAMG AMG20160308062011603/08/16 06:20:31  5-MIN KAMG 081120Z AUTO 00000KT 1 1/4SM BR CLR 08/08 A3027 -120 100 -900 000/00 RMK AO2 T00780078
13870KAMG AMG20160308062511603/08/16 06:25:31  5-MIN KAMG 081125Z AUTO 00000KT 1 1/4SM BR CLR 08/08 A3027 -120 100 -900 000/00 RMK AO2 T00780078
13870KAMG AMG20160308063011603/08/16 06:30:31  5-MIN KAMG 081130Z AUTO 00000KT 1 1/2SM BR CLR 08/08 A3027 -120 100 -900 000/00 RMK AO2 T00780078
13870KAMG AMG20160308063511203/08/16 06:35:31  5-MIN KAMG 081135Z AUTO 00000KT 2SM BR CLR 08/08 A3028 -120 100 -900 000/00 RMK AO2 T00780078
13870KAMG AMG20160308064011603/08/16 06:40:31  5-MIN KAMG 081140Z AUTO 00000KT 2 1/2SM BR CLR 08/08 A3028 -120 100 -900 000/00 RMK AO2 T00780078
13870KAMG AMG20160308064511603/08/16 06:45:31  5-MIN KAMG 081145Z AUTO 00000KT 1 1/2SM BR CLR 08/08 A3028 -120 100 -900 000/00 RMK AO2 T00780078
13870KAMG AMG20160308065011503/08/16 06:50:31  5-MIN KAMG 081150Z AUTO 00000KT 3/4SM BR CLR 07/07 A3028 -120 100 -1000 000/00 RMK AO2 T00720072
13870KAMG AMG20160308065511503/08/16 06:55:31  5-MIN KAMG 081155Z AUTO 00000KT 3/4SM BR CLR 07/07 A3028 -120 100 -1000 000/00 RMK AO2 T00720072
13870KAMG AMG20160308070011703/08/16 07:00:31  5-MIN KAMG 081200Z AUTO 00000KT 1 1/2SM BR CLR 07/07 A3028 -130 100 -1000 000/00 RMK AO2 T00720072
13870KAMG AMG20160308070511203/08/16 07:05:31  5-MIN KAMG 081205Z AUTO 00000KT 2SM BR CLR 08/08 A3029 -130 100 -900 000/00 RMK AO2 T00780078
13870KAMG AMG20160308071011603/08/16 07:10:31  5-MIN KAMG 081210Z AUTO 00000KT 2 1/2SM BR CLR 08/08 A3029 -130 100 -900 000/00 RMK AO2 T00780078
13870KAMG AMG20160308071511603/08/16 07:15:31  5-MIN KAMG 081215Z AUTO 00000KT 2 1/2SM BR CLR 08/08 A3029 -130 100 -900 000/00 RMK AO2 T00830083
13870KAMG AMG20160308072011603/08/16 07:20:31  5-MIN KAMG 081220Z AUTO 00000KT 2 1/2SM BR CLR 08/08 A3029 -130 100 -900 000/00 RMK AO2 T00830083
13870KAMG AMG20160308072511203/08/16 07:25:31  5-MIN KAMG 081225Z AUTO 00000KT 3SM BR CLR 09/09 A3029 -130 100 -800 000/00 RMK AO2 T00890089
13870KAMG AMG20160308073011203/08/16 07:30:31  5-MIN KAMG 081230Z AUTO 00000KT 3SM BR CLR 09/09 A3029 -140 100 -800 000/00 RMK AO2 T00890089
13870KAMG AMG20160308073511203/08/16 07:35:31  5-MIN KAMG 081235Z AUTO 00000KT 3SM BR CLR 09/09 A3030 -140 100 -800 000/00 RMK AO2 T00940094
13870KAMG AMG20160308074011203/08/16 07:40:31  5-MIN KAMG 081240Z AUTO 00000KT 3SM BR CLR 10/10 A3030 -140 100 -700 000/00 RMK AO2 T01000100
13870KAMG AMG20160308074511203/08/16 07:45:31  5-MIN KAMG 081245Z AUTO 00000KT 4SM BR CLR 11/11 A3030 -140 100 -600 000/00 RMK AO2 T01060106
13870KAMG AMG20160308075011903/08/16 07:50:31  5-MIN KAMG 081250Z AUTO 00000KT 5SM BR CLR 11/11 A3030 -150 100 -600 000/00 RMK AO2 SLP260 T01110111
13870KAMG AMG20160308075511203/08/16 07:55:31  5-MIN KAMG 081255Z AUTO 00000KT 6SM BR CLR 12/12 A3031 -150 100 -500 000/00 RMK AO2 T01170117
13870KAMG AMG20160308080010803/08/16 08:00:31  5-MIN KAMG 081300Z AUTO 00000KT 7SM CLR 12/12 A3031 -150 96 -400 000/00 RMK AO2 T01220117
13870KAMG AMG20160308080510803/08/16 08:05:31  5-MIN KAMG 081305Z AUTO 00000KT 8SM CLR 13/12 A3031 -150 96 -400 000/00 RMK AO2 T01280122
13870KAMG AMG20160308081010803/08/16 08:10:31  5-MIN KAMG 081310Z AUTO 00000KT 8SM CLR 14/13 A3031 -150 93 -200 000/00 RMK AO2 T01390128
13870KAMG AMG20160308081510803/08/16 08:15:31  5-MIN KAMG 081315Z AUTO 00000KT 9SM CLR 14/13 A3031 -150 93 -200 000/00 RMK AO2 T01390128
13870KAMG AMG20160308082010903/08/16 08:20:31  5-MIN KAMG 081320Z AUTO 00000KT 10SM CLR 14/13 A3031 -150 90 -200 000/00 RMK AO2 T01440128
13870KAMG AMG20160308082510903/08/16 08:25:31  5-MIN KAMG 081325Z AUTO 00000KT 10SM CLR 15/13 A3031 -150 86 -100 000/00 RMK AO2 T01500128
13870KAMG AMG20160308083010903/08/16 08:30:31  5-MIN KAMG 081330Z AUTO 13003KT 10SM CLR 15/13 A3032 -160 86 -100 140/03 RMK AO2 T01500128
13870KAMG AMG20160308083510603/08/16 08:35:31  5-MIN KAMG 081335Z AUTO 11003KT 10SM CLR 16/13 A3031 -160 83 0 120/03 RMK AO2 T01560128
13870KAMG AMG20160308084010603/08/16 08:40:31  5-MIN KAMG 081340Z AUTO 12003KT 10SM CLR 16/13 A3032 -160 83 0 130/03 RMK AO2 T01560128
13870KAMG AMG20160308084510603/08/16 08:45:31  5-MIN KAMG 081345Z AUTO 12003KT 10SM CLR 16/13 A3032 -160 80 0 120/03 RMK AO2 T01610128
13870KAMG AMG20160308085011303/08/16 08:50:31  5-MIN KAMG 081350Z AUTO 15004KT 10SM CLR 17/13 A3031 -150 77 0 150/04 RMK AO2 SLP263 T01670128
13870KAMG AMG20160308085510603/08/16 08:55:31  5-MIN KAMG 081355Z AUTO 12004KT 10SM CLR 17/13 A3031 -160 77 0 120/04 RMK AO2 T01670128
13870KAMG AMG20160308090010803/08/16 09:00:31  5-MIN KAMG 081400Z AUTO 12003KT 10SM CLR 17/13 A3032 -160 75 100 120/03 RMK AO2 T01720128
13870KAMG AMG20160308090510803/08/16 09:05:31  5-MIN KAMG 081405Z AUTO 00000KT 10SM CLR 17/13 A3032 -160 75 100 000/00 RMK AO2 T01720128
13870KAMG AMG20160308091010803/08/16 09:10:31  5-MIN KAMG 081410Z AUTO VRB03KT 10SM CLR 18/13 A3032 -160 72 200 VRB/03 RMK AO2 T01780128
13870KAMG AMG20160308091510803/08/16 09:15:31  5-MIN KAMG 081415Z AUTO 18003KT 10SM CLR 18/12 A3032 -160 69 200 190/03 RMK AO2 T01780122
13870KAMG AMG20160308092010803/08/16 09:20:31  5-MIN KAMG 081420Z AUTO 18004KT 10SM CLR 18/12 A3032 -160 67 200 190/04 RMK AO2 T01830122
13870KAMG AMG20160308092510803/08/16 09:25:31  5-MIN KAMG 081425Z AUTO 18006KT 10SM CLR 18/12 A3032 -160 67 200 190/06 RMK AO2 T01830122
13870KAMG AMG20160308093010803/08/16 09:30:31  5-MIN KAMG 081430Z AUTO 18005KT 10SM CLR 19/12 A3033 -170 62 300 190/05 RMK AO2 T01890117
13870KAMG AMG20160308093510803/08/16 09:35:31  5-MIN KAMG 081435Z AUTO 18006KT 10SM CLR 19/12 A3032 -160 65 300 190/06 RMK AO2 T01890122
13870KAMG AMG20160308094010803/08/16 09:40:31  5-MIN KAMG 081440Z AUTO 18006KT 10SM CLR 19/12 A3033 -170 62 300 190/06 RMK AO2 T01940122
13870KAMG AMG20160308094510803/08/16 09:45:31  5-MIN KAMG 081445Z AUTO 18006KT 10SM CLR 19/12 A3033 -170 60 300 190/06 RMK AO2 T01940117
13870KAMG AMG20160308095012103/08/16 09:50:31  5-MIN KAMG 081450Z AUTO 19006KT 10SM CLR 19/12 A3033 -170 60 300 200/06 RMK AO2 SLP269 T01940117 51010
13870KAMG AMG20160308095510803/08/16 09:55:31  5-MIN KAMG 081455Z AUTO 19006KT 10SM CLR 20/12 A3033 -170 60 400 190/06 RMK AO2 T02000122
13870KAMG AMG20160308100010803/08/16 10:00:31  5-MIN KAMG 081500Z AUTO 16006KT 10SM CLR 20/12 A3033 -170 60 400 160/06 RMK AO2 T02000122
13870KAMG AMG20160308100510803/08/16 10:05:31  5-MIN KAMG 081505Z AUTO 17006KT 10SM CLR 21/12 A3033 -170 58 500 170/06 RMK AO2 T02060122
13870KAMG AMG20160308101010803/08/16 10:10:31  5-MIN KAMG 081510Z AUTO 18005KT 10SM CLR 21/12 A3034 -180 58 500 190/05 RMK AO2 T02060122
13870KAMG AMG20160308101510803/08/16 10:15:31  5-MIN KAMG 081515Z AUTO 17006KT 10SM CLR 21/12 A3034 -180 56 500 180/06 RMK AO2 T02110122
13870KAMG AMG20160308102010803/08/16 10:20:31  5-MIN KAMG 081520Z AUTO 19008KT 10SM CLR 22/12 A3034 -170 54 600 190/08 RMK AO2 T02170122
13870KAMG AMG20160308102510803/08/16 10:25:31  5-MIN KAMG 081525Z AUTO 20006KT 10SM CLR 21/12 A3033 -170 54 500 200/06 RMK AO2 T02110117
13870KAMG AMG20160308103012403/08/16 10:30:31  5-MIN KAMG 081530Z AUTO 18008KT 140V220 10SM CLR 22/12 A3033 -170 52 700 190/08 150V230 RMK AO2 T02220122
13870KAMG AMG20160308103510803/08/16 10:35:31  5-MIN KAMG 081535Z AUTO 20005KT 10SM CLR 22/12 A3034 -180 54 600 210/05 RMK AO2 T02170122
13870KAMG AMG20160308104010803/08/16 10:40:31  5-MIN KAMG 081540Z AUTO 18005KT 10SM CLR 22/12 A3034 -180 52 600 180/05 RMK AO2 T02170117
13870KAMG AMG20160308104510803/08/16 10:45:31  5-MIN KAMG 081545Z AUTO 15008KT 10SM CLR 22/12 A3033 -170 52 600 160/08 RMK AO2 T02170117
13870KAMG AMG20160308105011503/08/16 10:50:31  5-MIN KAMG 081550Z AUTO 20008KT 10SM CLR 22/12 A3033 -170 51 700 200/08 RMK AO2 SLP269 T02220117
13870KAMG AMG20160308105510803/08/16 10:55:31  5-MIN KAMG 081555Z AUTO 21009KT 10SM CLR 22/12 A3033 -170 51 700 220/09 RMK AO2 T02220117
13870KAMG AMG20160308110010803/08/16 11:00:31  5-MIN KAMG 081600Z AUTO VRB06KT 10SM CLR 22/12 A3033 -170 51 700 VRB/06 RMK AO2 T02220117
13870KAMG AMG20160308110512403/08/16 11:05:31  5-MIN KAMG 081605Z AUTO 19008KT 150V210 10SM CLR 22/12 A3033 -170 51 700 200/08 160V220 RMK AO2 T02220117
13870KAMG AMG20160308111010803/08/16 11:10:31  5-MIN KAMG 081610Z AUTO 17007KT 10SM CLR 23/12 A3033 -170 49 700 180/07 RMK AO2 T02280117
13870KAMG AMG20160308111510803/08/16 11:15:31  5-MIN KAMG 081615Z AUTO 16008KT 10SM CLR 23/12 A3032 -160 49 700 170/08 RMK AO2 T02280117
13870KAMG AMG20160308112010803/08/16 11:20:31  5-MIN KAMG 081620Z AUTO 15010KT 10SM CLR 23/11 A3032 -160 47 700 160/10 RMK AO2 T02280111
13870KAMG AMG20160308112511403/08/16 11:25:31  5-MIN KAMG 081625Z AUTO 16008G15KT 10SM CLR 23/11 A3032 -160 45 800 160/08G15 RMK AO2 T02330111
13870KAMG AMG20160308113011403/08/16 11:30:31  5-MIN KAMG 081630Z AUTO 16013G19KT 10SM CLR 23/11 A3032 -160 45 800 170/13G19 RMK AO2 T02330111
13870KAMG AMG20160308113513003/08/16 11:35:31  5-MIN KAMG 081635Z AUTO 15007G19KT 110V180 10SM CLR 23/11 A3032 -160 45 800 160/07G19 120V190 RMK AO2 T02330111
13870KAMG AMG20160308114010803/08/16 11:40:31  5-MIN KAMG 081640Z AUTO 18007KT 10SM CLR 24/11 A3032 -160 44 900 180/07 RMK AO2 T02390111
13870KAMG AMG20160308114510803/08/16 11:45:31  5-MIN KAMG 081645Z AUTO 17009KT 10SM CLR 24/11 A3031 -150 44 900 170/09 RMK AO2 T02390111
13870KAMG AMG20160308115011503/08/16 11:50:31  5-MIN KAMG 081650Z AUTO 19008KT 10SM CLR 23/11 A3031 -150 45 800 200/08 RMK AO2 SLP263 T02330111
13870KAMG AMG20160308115510803/08/16 11:55:31  5-MIN KAMG 081655Z AUTO 19008KT 10SM CLR 23/11 A3031 -150 47 800 200/08 RMK AO2 T02280111
13870KAMG AMG20160308120010803/08/16 12:00:31  5-MIN KAMG 081700Z AUTO 17009KT 10SM CLR 24/11 A3031 -150 44 900 170/09 RMK AO2 T02390111
13870KAMG AMG20160308120510803/08/16 12:05:31  5-MIN KAMG 081705Z AUTO 17006KT 10SM CLR 24/11 A3030 -150 42 900 170/06 RMK AO2 T02390106
13870KAMG AMG20160308121011503/08/16 12:10:31  5-MIN KAMG 081710Z AUTO 17010G14KT 10SM CLR 24/12 A3030 -150 44 1000 180/10G14 RMK AO2 T02440117
13870KAMG AMG20160308121511403/08/16 12:15:31  5-MIN KAMG 081715Z AUTO 18007G14KT 10SM CLR 24/11 A3030 -140 44 900 190/07G14 RMK AO2 T02390111
13870KAMG AMG20160308122010803/08/16 12:20:31  5-MIN KAMG 081720Z AUTO 18007KT 10SM CLR 24/11 A3030 -140 42 900 190/07 RMK AO2 T02390106
13870KAMG AMG20160308122510803/08/16 12:25:31  5-MIN KAMG 081725Z AUTO 17005KT 10SM CLR 24/11 A3030 -140 44 900 180/05 RMK AO2 T02390111
13870KAMG AMG20160308123011703/08/16 12:30:31  5-MIN KAMG 081730Z AUTO 16011G15KT 10SM FEW049 24/11 A3029 -140 44 900 170/11G15 RMK AO2 T02390111
13870KAMG AMG20160308123511703/08/16 12:35:31  5-MIN KAMG 081735Z AUTO 16006G15KT 10SM FEW049 24/11 A3029 -130 44 900 170/06G15 RMK AO2 T02390111
13870KAMG AMG20160308124010803/08/16 12:40:31  5-MIN KAMG 081740Z AUTO 18007KT 10SM CLR 24/11 A3028 -130 44 900 180/07 RMK AO2 T02390111
13870KAMG AMG20160308124512503/08/16 12:45:31  5-MIN KAMG 081745Z AUTO 14009KT 110V170 10SM CLR 24/11 A3028 -130 41 1000 150/09 120V180 RMK AO2 T02440106
13870KAMG AMG20160308125013303/08/16 12:50:31  5-MIN KAMG 081750Z AUTO 16009KT 10SM CLR 24/11 A3028 -120 44 900 160/09 RMK AO2 SLP252 T02390111 10244 20111 51019
13870KAMG AMG20160308125510803/08/16 12:55:31  5-MIN KAMG 081755Z AUTO 17007KT 10SM CLR 24/11 A3027 -120 44 900 180/07 RMK AO2 T02390111
13870KAMG AMG20160308130012503/08/16 13:00:31  5-MIN KAMG 081800Z AUTO 13009KT 090V160 10SM CLR 24/11 A3027 -120 42 1000 130/09 100V170 RMK AO2 T02440111
13870KAMG AMG20160308130510903/08/16 13:05:31  5-MIN KAMG 081805Z AUTO 14007KT 10SM CLR 24/11 A3027 -110 41 1000 140/07 RMK AO2 T02440106
13870KAMG AMG20160308131011503/08/16 13:10:31  5-MIN KAMG 081810Z AUTO 13008G15KT 10SM CLR 24/11 A3027 -110 41 1000 130/08G15 RMK AO2 T02440106
13870KAMG AMG20160308131513103/08/16 13:15:31  5-MIN KAMG 081815Z AUTO 15007G15KT 100V180 10SM CLR 24/11 A3027 -110 41 1000 150/07G15 110V190 RMK AO2 T02440106
13870KAMG AMG20160308132011503/08/16 13:20:31  5-MIN KAMG 081820Z AUTO 13008G15KT 10SM CLR 25/11 A3026 -100 39 1100 130/08G15 RMK AO2 T02500106
13870KAMG AMG20160308132510903/08/16 13:25:31  5-MIN KAMG 081825Z AUTO 13008KT 10SM CLR 24/11 A3026 -100 41 1000 140/08 RMK AO2 T02440106
13870KAMG AMG20160308133010903/08/16 13:30:31  5-MIN KAMG 081830Z AUTO 15011KT 10SM CLR 25/11 A3025 -100 39 1100 160/11 RMK AO2 T02500106
13870KAMG AMG20160308133510903/08/16 13:35:31  5-MIN KAMG 081835Z AUTO 13007KT 10SM CLR 25/11 A3025 -100 39 1100 130/07 RMK AO2 T02500106
13870KAMG AMG20160308134011403/08/16 13:40:31  5-MIN KAMG 081840Z AUTO 13009G14KT 10SM CLR 24/11 A3025 -90 41 1000 130/09G14 RMK AO2 T02440106
13870KAMG AMG20160308134511403/08/16 13:45:31  5-MIN KAMG 081845Z AUTO 12009G15KT 10SM CLR 25/11 A3024 -90 39 1100 130/09G15 RMK AO2 T02500106
13870KAMG AMG20160308135011503/08/16 13:50:31  5-MIN KAMG 081850Z AUTO 12008KT 10SM CLR 25/11 A3024 -80 39 1100 130/08 RMK AO2 SLP237 T02500106
13870KAMG AMG20160308135510803/08/16 13:55:31  5-MIN KAMG 081855Z AUTO 14007KT 10SM CLR 25/11 A3023 -80 41 1100 150/07 RMK AO2 T02500111
13870KAMG AMG20160308140010803/08/16 14:00:31  5-MIN KAMG 081900Z AUTO 11007KT 10SM CLR 25/11 A3023 -80 39 1100 110/07 RMK AO2 T02500106
13870KAMG AMG20160308140511403/08/16 14:05:31  5-MIN KAMG 081905Z AUTO 16012G15KT 10SM CLR 26/11 A3023 -80 38 1200 160/12G15 RMK AO2 T02560106
13870KAMG AMG20160308141011403/08/16 14:10:31  5-MIN KAMG 081910Z AUTO 14007G15KT 10SM CLR 25/11 A3023 -70 39 1100 150/07G15 RMK AO2 T02500106
13870KAMG AMG20160308141512403/08/16 14:15:31  5-MIN KAMG 081915Z AUTO 16008KT 090V190 10SM CLR 25/11 A3023 -70 39 1100 170/08 100V200 RMK AO2 T02500106
13870KAMG AMG20160308142012403/08/16 14:20:31  5-MIN KAMG 081920Z AUTO 19008KT 150V220 10SM CLR 25/11 A3022 -70 39 1100 200/08 160V230 RMK AO2 T02500106
13870KAMG AMG20160308142511403/08/16 14:25:31  5-MIN KAMG 081925Z AUTO 15007G15KT 10SM CLR 25/11 A3022 -70 39 1100 150/07G15 RMK AO2 T02500106
13870KAMG AMG20160308143010803/08/16 14:30:31  5-MIN KAMG 081930Z AUTO 16007KT 10SM CLR 26/11 A3022 -70 40 1200 160/07 RMK AO2 T02560111
13870KAMG AMG20160308143510803/08/16 14:35:31  5-MIN KAMG 081935Z AUTO 15007KT 10SM CLR 26/11 A3021 -60 40 1200 150/07 RMK AO2 T02560111
13870KAMG AMG20160308144010803/08/16 14:40:31  5-MIN KAMG 081940Z AUTO VRB05KT 10SM CLR 26/11 A3021 -60 38 1200 VRB/05 RMK AO2 T02560106
13870KAMG AMG20160308144510803/08/16 14:45:31  5-MIN KAMG 081945Z AUTO 14005KT 10SM CLR 25/11 A3021 -60 39 1100 140/05 RMK AO2 T02500106
13870KAMG AMG20160308145010503/08/16 14:50:31  5-MIN KAMG 081950Z AUTO 10SM CLR 26/11 A3021 -60 38 1200 M /M RMK AO2 SLP229 T02560106
13870KAMG AMG20160308145512403/08/16 14:55:31  5-MIN KAMG 081955Z AUTO 17010KT 120V190 10SM CLR 26/11 A3021 -60 40 1200 180/10 130V200 RMK AO2 T02560111
13870KAMG AMG20160308150012403/08/16 15:00:31  5-MIN KAMG 082000Z AUTO 17008KT 110V200 10SM CLR 26/11 A3021 -60 38 1200 180/08 120V210 RMK AO2 T02560106
13870KAMG AMG20160308150510803/08/16 15:05:31  5-MIN KAMG 082005Z AUTO VRB06KT 10SM CLR 26/11 A3021 -60 40 1200 VRB/06 RMK AO2 T02560111
13870KAMG AMG20160308151010803/08/16 15:10:31  5-MIN KAMG 082010Z AUTO 14003KT 10SM CLR 26/11 A3021 -60 38 1200 150/03 RMK AO2 T02560106
13870KAMG AMG20160308151510803/08/16 15:15:31  5-MIN KAMG 082015Z AUTO 17006KT 10SM CLR 26/11 A3020 -50 40 1200 170/06 RMK AO2 T02560111
13870KAMG AMG20160308152010803/08/16 15:20:31  5-MIN KAMG 082020Z AUTO VRB06KT 10SM CLR 26/11 A3020 -50 40 1200 VRB/06 RMK AO2 T02560111
13870KAMG AMG20160308152510803/08/16 15:25:31  5-MIN KAMG 082025Z AUTO 11005KT 10SM CLR 26/11 A3020 -50 38 1300 120/05 RMK AO2 T02610111
13870KAMG AMG20160308153010803/08/16 15:30:31  5-MIN KAMG 082030Z AUTO 10006KT 10SM CLR 26/11 A3020 -50 38 1200 100/06 RMK AO2 T02560106
13870KAMG AMG20160308153510803/08/16 15:35:31  5-MIN KAMG 082035Z AUTO 12008KT 10SM CLR 25/11 A3019 -50 39 1100 130/08 RMK AO2 T02500106
13870KAMG AMG20160308154010803/08/16 15:40:31  5-MIN KAMG 082040Z AUTO VRB03KT 10SM CLR 24/11 A3019 -40 41 1100 VRB/03 RMK AO2 T02440106
13870KAMG AMG20160308154510803/08/16 15:45:31  5-MIN KAMG 082045Z AUTO 15007KT 10SM CLR 25/11 A3019 -40 39 1100 160/07 RMK AO2 T02500106
13870KAMG AMG20160308155012103/08/16 15:50:31  5-MIN KAMG 082050Z AUTO 15008KT 10SM CLR 25/11 A3019 -40 41 1100 160/08 RMK AO2 SLP221 T02500111 58019
13870KAMG AMG20160308155510803/08/16 15:55:31  5-MIN KAMG 082055Z AUTO 15007KT 10SM CLR 26/11 A3019 -40 38 1300 150/07 RMK AO2 T02610111
13870KAMG AMG20160308160010803/08/16 16:00:31  5-MIN KAMG 082100Z AUTO 15006KT 10SM CLR 26/11 A3019 -40 38 1300 160/06 RMK AO2 T02610111
13870KAMG AMG20160308160510803/08/16 16:05:31  5-MIN KAMG 082105Z AUTO 14006KT 10SM CLR 26/11 A3019 -40 38 1300 140/06 RMK AO2 T02610111
13870KAMG AMG20160308161010803/08/16 16:10:31  5-MIN KAMG 082110Z AUTO VRB04KT 10SM CLR 26/11 A3018 -40 40 1200 VRB/04 RMK AO2 T02560111
13870KAMG AMG20160308161510803/08/16 16:15:31  5-MIN KAMG 082115Z AUTO 11006KT 10SM CLR 26/11 A3019 -40 40 1200 120/06 RMK AO2 T02560111
13870KAMG AMG20160308162010803/08/16 16:20:31  5-MIN KAMG 082120Z AUTO 14006KT 10SM CLR 26/11 A3018 -40 38 1200 140/06 RMK AO2 T02560106
13870KAMG AMG20160308162510803/08/16 16:25:31  5-MIN KAMG 082125Z AUTO 12005KT 10SM CLR 26/11 A3018 -30 40 1200 130/05 RMK AO2 T02560111
13870KAMG AMG20160308163012403/08/16 16:30:31  5-MIN KAMG 082130Z AUTO 11007KT 070V150 10SM CLR 26/11 A3018 -30 40 1200 120/07 080V160 RMK AO2 T02560111
13870KAMG AMG20160308163510803/08/16 16:35:31  5-MIN KAMG 082135Z AUTO 16009KT 10SM CLR 26/11 A3018 -30 40 1200 170/09 RMK AO2 T02560111
13870KAMG AMG20160308164010803/08/16 16:40:31  5-MIN KAMG 082140Z AUTO 15004KT 10SM CLR 25/11 A3018 -30 39 1200 160/04 RMK AO2 T02500106
13870KAMG AMG20160308164510803/08/16 16:45:31  5-MIN KAMG 082145Z AUTO 15005KT 10SM CLR 26/11 A3018 -30 40 1200 150/05 RMK AO2 T02560111
13870KAMG AMG20160308165011503/08/16 16:50:31  5-MIN KAMG 082150Z AUTO 11007KT 10SM CLR 26/11 A3018 -30 40 1200 120/07 RMK AO2 SLP216 T02560111
13870KAMG AMG20160308165510803/08/16 16:55:31  5-MIN KAMG 082155Z AUTO 14009KT 10SM CLR 26/11 A3018 -30 38 1200 150/09 RMK AO2 T02560106
13870KAMG AMG20160308170010803/08/16 17:00:31  5-MIN KAMG 082200Z AUTO 12005KT 10SM CLR 26/11 A3018 -30 40 1200 130/05 RMK AO2 T02560111
13870KAMG AMG20160308170510803/08/16 17:05:31  5-MIN KAMG 082205Z AUTO 13006KT 10SM CLR 26/11 A3018 -30 38 1200 130/06 RMK AO2 T02560106
13870KAMG AMG20160308171010803/08/16 17:10:31  5-MIN KAMG 082210Z AUTO 14008KT 10SM CLR 25/11 A3018 -30 41 1200 140/08 RMK AO2 T02500111
13870KAMG AMG20160308171510803/08/16 17:15:31  5-MIN KAMG 082215Z AUTO 14007KT 10SM CLR 25/11 A3018 -30 39 1200 140/07 RMK AO2 T02500106
13870KAMG AMG20160308172010803/08/16 17:20:31  5-MIN KAMG 082220Z AUTO 14006KT 10SM CLR 25/11 A3018 -30 41 1200 140/06 RMK AO2 T02500111
13870KAMG AMG20160308172510803/08/16 17:25:31  5-MIN KAMG 082225Z AUTO 13006KT 10SM CLR 25/11 A3018 -30 39 1200 130/06 RMK AO2 T02500106
13870KAMG AMG20160308173010803/08/16 17:30:31  5-MIN KAMG 082230Z AUTO 11005KT 10SM CLR 24/11 A3018 -30 41 1100 120/05 RMK AO2 T02440106
13870KAMG AMG20160308173511103/08/16 17:35:31  5-MIN KAMG 082235Z AUTO 12008KT 10SM FEW060 24/11 A3018 -40 42 1000 130/08 RMK AO2 T02390106
13870KAMG AMG20160308174011103/08/16 17:40:31  5-MIN KAMG 082240Z AUTO 13006KT 10SM SCT060 24/11 A3018 -40 42 1000 140/06 RMK AO2 T02390106
13870KAMG AMG20160308174511103/08/16 17:45:31  5-MIN KAMG 082245Z AUTO 13004KT 10SM FEW060 24/11 A3019 -40 44 1000 130/04 RMK AO2 T02390111
13870KAMG AMG20160308175011803/08/16 17:50:31  5-MIN KAMG 082250Z AUTO 12005KT 10SM FEW060 24/11 A3019 -40 42 1000 130/05 RMK AO2 SLP220 T02390106
13870KAMG AMG20160308175511103/08/16 17:55:31  5-MIN KAMG 082255Z AUTO 14004KT 10SM FEW060 24/11 A3019 -40 42 1000 140/04 RMK AO2 T02390106
13870KAMG AMG20160308180011103/08/16 18:00:31  5-MIN KAMG 082300Z AUTO 13004KT 10SM FEW060 23/11 A3019 -40 45 1000 130/04 RMK AO2 T02330111
13870KAMG AMG20160308180511103/08/16 18:05:31  5-MIN KAMG 082305Z AUTO 12004KT 10SM SCT065 23/11 A3019 -40 45 1000 130/04 RMK AO2 T02330111
13870KAMG AMG20160308181011003/08/16 18:10:31  5-MIN KAMG 082310Z AUTO 12005KT 10SM SCT065 23/11 A3019 -40 45 900 120/05 RMK AO2 T02330111
13870KAMG AMG20160308181511003/08/16 18:15:31  5-MIN KAMG 082315Z AUTO 11009KT 10SM SCT065 23/12 A3019 -40 51 900 110/09 RMK AO2 T02280122
13870KAMG AMG20160308182011003/08/16 18:20:31  5-MIN KAMG 082320Z AUTO 11005KT 10SM SCT065 23/13 A3019 -40 53 900 120/05 RMK AO2 T02280128
13870KAMG AMG20160308182511003/08/16 18:25:31  5-MIN KAMG 082325Z AUTO 12007KT 10SM SCT065 22/13 A3019 -40 54 800 130/07 RMK AO2 T02220128
13870KAMG AMG20160308183011003/08/16 18:30:31  5-MIN KAMG 082330Z AUTO 11007KT 10SM SCT065 22/13 A3020 -50 54 800 120/07 RMK AO2 T02220128
13870KAMG AMG20160308183511003/08/16 18:35:31  5-MIN KAMG 082335Z AUTO 12008KT 10SM FEW060 22/13 A3019 -50 56 800 130/08 RMK AO2 T02220133
13870KAMG AMG20160308184011003/08/16 18:40:31  5-MIN KAMG 082340Z AUTO 13009KT 10SM FEW060 22/13 A3019 -40 58 800 140/09 RMK AO2 T02170133
13870KAMG AMG20160308184511003/08/16 18:45:31  5-MIN KAMG 082345Z AUTO 13007KT 10SM FEW060 22/13 A3019 -50 58 800 130/07 RMK AO2 T02170133
13870KAMG AMG20160308185013503/08/16 18:50:31  5-MIN KAMG 082350Z AUTO 12009KT 10SM FEW060 22/13 A3019 -50 58 800 130/09 RMK AO2 SLP224 T02170133 10261 20217 56029
13870KAMG AMG20160308185510703/08/16 18:55:31  5-MIN KAMG 082355Z AUTO 11008KT 10SM CLR 21/13 A3019 -40 61 700 120/08 RMK AO2 T02110133
13870KAMG AMG20160308190010703/08/16 19:00:31  5-MIN KAMG 090000Z AUTO 12008KT 10SM CLR 21/13 A3019 -50 61 700 130/08 RMK AO2 T02110133
13870KAMG AMG20160308190510703/08/16 19:05:31  5-MIN KAMG 090005Z AUTO 12007KT 10SM CLR 21/13 A3020 -50 61 700 120/07 RMK AO2 T02110133
13870KAMG AMG20160308191010703/08/16 19:10:31  5-MIN KAMG 090010Z AUTO 12006KT 10SM CLR 21/13 A3020 -50 61 700 120/06 RMK AO2 T02110133
13870KAMG AMG20160308191510703/08/16 19:15:31  5-MIN KAMG 090015Z AUTO 12007KT 10SM CLR 21/13 A3020 -50 63 600 130/07 RMK AO2 T02060133
13870KAMG AMG20160308192010703/08/16 19:20:31  5-MIN KAMG 090020Z AUTO 11006KT 10SM CLR 21/13 A3020 -50 63 600 110/06 RMK AO2 T02060133
13870KAMG AMG20160308192510703/08/16 19:25:31  5-MIN KAMG 090025Z AUTO 12008KT 10SM CLR 21/13 A3020 -50 63 600 120/08 RMK AO2 T02060133
13870KAMG AMG20160308193010703/08/16 19:30:31  5-MIN KAMG 090030Z AUTO 11008KT 10SM CLR 20/13 A3020 -50 63 600 120/08 RMK AO2 T02000128
13870KAMG AMG20160308193510703/08/16 19:35:31  5-MIN KAMG 090035Z AUTO 11008KT 10SM CLR 20/13 A3020 -50 63 600 120/08 RMK AO2 T02000128
13870KAMG AMG20160308194010703/08/16 19:40:31  5-MIN KAMG 090040Z AUTO 11007KT 10SM CLR 20/13 A3020 -50 63 600 110/07 RMK AO2 T02000128
13870KAMG AMG20160308194510703/08/16 19:45:31  5-MIN KAMG 090045Z AUTO 12007KT 10SM CLR 20/13 A3020 -50 63 600 120/07 RMK AO2 T02000128
13870KAMG AMG20160308195011403/08/16 19:50:31  5-MIN KAMG 090050Z AUTO 12008KT 10SM CLR 20/13 A3020 -50 63 600 120/08 RMK AO2 SLP225 T02000128
13870KAMG AMG20160308195511303/08/16 19:55:31  5-MIN KAMG 090055Z AUTO 12009G15KT 10SM CLR 20/13 A3020 -50 63 600 120/09G15 RMK AO2 T02000128
13870KAMG AMG20160308200010703/08/16 20:00:31  5-MIN KAMG 090100Z AUTO 11007KT 10SM CLR 19/13 A3020 -50 65 500 120/07 RMK AO2 T01940128
13870KAMG AMG20160308200510703/08/16 20:05:31  5-MIN KAMG 090105Z AUTO 12006KT 10SM CLR 19/13 A3020 -50 65 500 120/06 RMK AO2 T01940128
13870KAMG AMG20160308201010703/08/16 20:10:31  5-MIN KAMG 090110Z AUTO 11007KT 10SM CLR 19/13 A3020 -50 65 500 120/07 RMK AO2 T01940128
13870KAMG AMG20160308201510703/08/16 20:15:31  5-MIN KAMG 090115Z AUTO 12007KT 10SM CLR 19/13 A3021 -60 65 500 120/07 RMK AO2 T01940128
13870KAMG AMG20160308202010703/08/16 20:20:31  5-MIN KAMG 090120Z AUTO 12005KT 10SM CLR 19/13 A3020 -50 67 400 120/05 RMK AO2 T01890128
13870KAMG AMG20160308202510703/08/16 20:25:31  5-MIN KAMG 090125Z AUTO 12006KT 10SM CLR 19/13 A3020 -50 67 400 120/06 RMK AO2 T01890128
13870KAMG AMG20160308203010703/08/16 20:30:31  5-MIN KAMG 090130Z AUTO 12007KT 10SM CLR 19/13 A3020 -50 67 400 120/07 RMK AO2 T01890128
13870KAMG AMG20160308203510703/08/16 20:35:31  5-MIN KAMG 090135Z AUTO 12007KT 10SM CLR 19/13 A3020 -50 67 400 120/07 RMK AO2 T01890128
13870KAMG AMG20160308204010703/08/16 20:40:31  5-MIN KAMG 090140Z AUTO 11008KT 10SM CLR 19/13 A3021 -60 67 400 120/08 RMK AO2 T01890128
13870KAMG AMG20160308204510703/08/16 20:45:31  5-MIN KAMG 090145Z AUTO 11007KT 10SM CLR 19/12 A3020 -50 65 400 120/07 RMK AO2 T01890122
13870KAMG AMG20160308205011403/08/16 20:50:31  5-MIN KAMG 090150Z AUTO 11006KT 10SM CLR 18/12 A3020 -50 67 400 120/06 RMK AO2 SLP226 T01830122
13870KAMG AMG20160308205510703/08/16 20:55:31  5-MIN KAMG 090155Z AUTO 11007KT 10SM CLR 18/12 A3021 -60 67 400 110/07 RMK AO2 T01830122
13870KAMG AMG20160308210010703/08/16 21:00:31  5-MIN KAMG 090200Z AUTO 10006KT 10SM CLR 18/12 A3021 -60 67 300 100/06 RMK AO2 T01830122
13870KAMG AMG20160308210510703/08/16 21:05:31  5-MIN KAMG 090205Z AUTO 11005KT 10SM CLR 18/12 A3022 -70 67 300 110/05 RMK AO2 T01830122
13870KAMG AMG20160308211010703/08/16 21:10:31  5-MIN KAMG 090210Z AUTO 11007KT 10SM CLR 18/12 A3021 -60 69 300 120/07 RMK AO2 T01780122
13870KAMG AMG20160308211510703/08/16 21:15:31  5-MIN KAMG 090215Z AUTO 12006KT 10SM CLR 18/12 A3021 -60 69 300 130/06 RMK AO2 T01780122
13870KAMG AMG20160308212010703/08/16 21:20:31  5-MIN KAMG 090220Z AUTO 12007KT 10SM CLR 18/12 A3021 -60 69 300 130/07 RMK AO2 T01780122
13870KAMG AMG20160308212510703/08/16 21:25:31  5-MIN KAMG 090225Z AUTO 13004KT 10SM CLR 18/12 A3022 -70 69 300 130/04 RMK AO2 T01780122
13870KAMG AMG20160308213010703/08/16 21:30:31  5-MIN KAMG 090230Z AUTO 12006KT 10SM CLR 18/12 A3022 -70 69 300 120/06 RMK AO2 T01780122
13870KAMG AMG20160308213510703/08/16 21:35:31  5-MIN KAMG 090235Z AUTO 12005KT 10SM CLR 18/12 A3022 -70 69 300 130/05 RMK AO2 T01780122
13870KAMG AMG20160308214010703/08/16 21:40:31  5-MIN KAMG 090240Z AUTO 12006KT 10SM CLR 18/12 A3022 -70 69 300 130/06 RMK AO2 T01780122
13870KAMG AMG20160308214510703/08/16 21:45:31  5-MIN KAMG 090245Z AUTO 13006KT 10SM CLR 18/12 A3022 -70 69 300 130/06 RMK AO2 T01780122
13870KAMG AMG20160308215012003/08/16 21:50:31  5-MIN KAMG 090250Z AUTO 12005KT 10SM CLR 17/12 A3022 -70 72 200 120/05 RMK AO2 SLP231 T01720122 53001
13870KAMG AMG20160308215510703/08/16 21:55:31  5-MIN KAMG 090255Z AUTO 13005KT 10SM CLR 17/12 A3022 -70 72 200 130/05 RMK AO2 T01720122
13870KAMG AMG20160308220010703/08/16 22:00:31  5-MIN KAMG 090300Z AUTO 13005KT 10SM CLR 17/12 A3022 -70 72 200 130/05 RMK AO2 T01720122
13870KAMG AMG20160308220510703/08/16 22:05:31  5-MIN KAMG 090305Z AUTO 12004KT 10SM CLR 17/12 A3023 -80 72 200 130/04 RMK AO2 T01720122
13870KAMG AMG20160308221010703/08/16 22:10:31  5-MIN KAMG 090310Z AUTO 13004KT 10SM CLR 17/12 A3023 -80 72 200 140/04 RMK AO2 T01720122
13870KAMG AMG20160308221510703/08/16 22:15:31  5-MIN KAMG 090315Z AUTO 14004KT 10SM CLR 17/13 A3023 -80 75 200 140/04 RMK AO2 T01720128
13870KAMG AMG20160308222010703/08/16 22:20:31  5-MIN KAMG 090320Z AUTO 13004KT 10SM CLR 17/12 A3023 -80 75 100 140/04 RMK AO2 T01670122
13870KAMG AMG20160308222510703/08/16 22:25:31  5-MIN KAMG 090325Z AUTO 14004KT 10SM CLR 17/12 A3024 -80 75 100 140/04 RMK AO2 T01670122
13870KAMG AMG20160308223010703/08/16 22:30:31  5-MIN KAMG 090330Z AUTO 13003KT 10SM CLR 17/12 A3024 -80 75 100 140/03 RMK AO2 T01670122
13870KAMG AMG20160308223510703/08/16 22:35:31  5-MIN KAMG 090335Z AUTO 13004KT 10SM CLR 17/12 A3023 -80 75 100 140/04 RMK AO2 T01670122
13870KAMG AMG20160308224010703/08/16 22:40:31  5-MIN KAMG 090340Z AUTO 12004KT 10SM CLR 16/12 A3023 -80 77 100 130/04 RMK AO2 T01610122
13870KAMG AMG20160308224510703/08/16 22:45:31  5-MIN KAMG 090345Z AUTO 13004KT 10SM CLR 16/12 A3023 -80 77 100 130/04 RMK AO2 T01610122
13870KAMG AMG20160308225011403/08/16 22:50:31  5-MIN KAMG 090350Z AUTO 14005KT 10SM CLR 16/12 A3023 -80 77 100 140/05 RMK AO2 SLP236 T01610122
13870KAMG AMG20160308225510703/08/16 22:55:31  5-MIN KAMG 090355Z AUTO 13004KT 10SM CLR 16/12 A3023 -80 77 100 130/04 RMK AO2 T01610122
13870KAMG AMG20160308230010703/08/16 23:00:31  5-MIN KAMG 090400Z AUTO 13004KT 10SM CLR 16/12 A3023 -80 77 100 130/04 RMK AO2 T01610122
13870KAMG AMG20160308230510503/08/16 23:05:31  5-MIN KAMG 090405Z AUTO 12004KT 10SM CLR 16/12 A3023 -80 80 0 130/04 RMK AO2 T01560122
13870KAMG AMG20160308231010703/08/16 23:10:31  5-MIN KAMG 090410Z AUTO 12005KT 10SM CLR 16/12 A3023 -80 77 100 120/05 RMK AO2 T01610122
13870KAMG AMG20160308231510503/08/16 23:15:31  5-MIN KAMG 090415Z AUTO 12004KT 10SM CLR 16/12 A3023 -80 80 0 130/04 RMK AO2 T01560122
13870KAMG AMG20160308232010703/08/16 23:20:31  5-MIN KAMG 090420Z AUTO 12004KT 10SM CLR 16/12 A3023 -70 77 100 130/04 RMK AO2 T01610122
13870KAMG AMG20160308232510703/08/16 23:25:31  5-MIN KAMG 090425Z AUTO 12004KT 10SM CLR 16/12 A3022 -70 77 100 130/04 RMK AO2 T01610122
13870KAMG AMG20160308233010503/08/16 23:30:31  5-MIN KAMG 090430Z AUTO 12005KT 10SM CLR 16/12 A3022 -70 80 0 130/05 RMK AO2 T01560122
13870KAMG AMG20160308233510703/08/16 23:35:31  5-MIN KAMG 090435Z AUTO 12005KT 10SM CLR 16/12 A3022 -70 77 100 130/05 RMK AO2 T01610122
13870KAMG AMG20160308234010503/08/16 23:40:31  5-MIN KAMG 090440Z AUTO 12005KT 10SM CLR 16/12 A3022 -70 80 0 130/05 RMK AO2 T01560122
13870KAMG AMG20160308234510703/08/16 23:45:31  5-MIN KAMG 090445Z AUTO 12004KT 10SM CLR 16/12 A3022 -70 77 100 130/04 RMK AO2 T01610122
13870KAMG AMG20160308235012203/08/16 23:50:31  5-MIN KAMG 090450Z AUTO 13005KT 10SM CLR 16/12 A3022 -70 80 0 140/05 RMK AO2 SLP232 T01560122 402610072
13870KAMG AMG20160308235510503/08/16 23:55:31  5-MIN KAMG 090455Z AUTO 14005KT 10SM CLR 16/13 A3022 -70 83 0 140/05 RMK AO2 T01560128
13870KAMG AMG20160309000010703/09/16 00:00:31  5-MIN KAMG 090500Z AUTO 13005KT 10SM CLR 16/13 A3022 -70 80 100 140/05 RMK AO2 T01610128
13870KAMG AMG20160309000510703/09/16 00:05:31  5-MIN KAMG 090505Z AUTO 13005KT 10SM CLR 16/13 A3022 -70 80 100 140/05 RMK AO2 T01610128
13870KAMG AMG20160309001010703/09/16 00:10:31  5-MIN KAMG 090510Z AUTO 15004KT 10SM CLR 16/13 A3022 -70 80 100 150/04 RMK AO2 T01610128
13870KAMG AMG20160309001510503/09/16 00:15:31  5-MIN KAMG 090515Z AUTO 14005KT 10SM CLR 16/13 A3022 -70 83 0 150/05 RMK AO2 T01560128
13870KAMG AMG20160309002010703/09/16 00:20:31  5-MIN KAMG 090520Z AUTO 15007KT 10SM CLR 16/13 A3022 -70 80 100 150/07 RMK AO2 T01610128
13870KAMG AMG20160309002510703/09/16 00:25:31  5-MIN KAMG 090525Z AUTO 15006KT 10SM CLR 16/13 A3022 -60 80 100 150/06 RMK AO2 T01610128
13870KAMG AMG20160309003010703/09/16 00:30:31  5-MIN KAMG 090530Z AUTO 14006KT 10SM CLR 16/13 A3021 -60 80 100 150/06 RMK AO2 T01610128
13870KAMG AMG20160309003510703/09/16 00:35:31  5-MIN KAMG 090535Z AUTO 14005KT 10SM CLR 16/13 A3021 -60 80 100 150/05 RMK AO2 T01610128
13870KAMG AMG20160309004010703/09/16 00:40:31  5-MIN KAMG 090540Z AUTO 14006KT 10SM CLR 16/13 A3022 -60 80 100 150/06 RMK AO2 T01610128
13870KAMG AMG20160309004510703/09/16 00:45:31  5-MIN KAMG 090545Z AUTO 14005KT 10SM CLR 16/13 A3022 -70 80 100 150/05 RMK AO2 T01610128
13870KAMG AMG20160309005013203/09/16 00:50:31  5-MIN KAMG 090550Z AUTO 14005KT 10SM CLR 16/13 A3022 -70 80 100 150/05 RMK AO2 SLP231 T01610128 10211 20156 53009
13870KAMG AMG20160309005510503/09/16 00:55:31  5-MIN KAMG 090555Z AUTO 13005KT 10SM CLR 16/13 A3021 -60 83 0 140/05 RMK AO2 T01560128
13870KAMG AMG20160309010010703/09/16 01:00:31  5-MIN KAMG 090600Z AUTO 13005KT 10SM CLR 16/13 A3021 -60 80 100 140/05 RMK AO2 T01610128
13870KAMG AMG20160309010510703/09/16 01:05:31  5-MIN KAMG 090605Z AUTO 14006KT 10SM CLR 16/13 A3021 -60 80 100 140/06 RMK AO2 T01610128
13870KAMG AMG20160309011010703/09/16 01:10:31  5-MIN KAMG 090610Z AUTO 14005KT 10SM CLR 16/13 A3021 -60 80 100 150/05 RMK AO2 T01610128
13870KAMG AMG20160309011510703/09/16 01:15:31  5-MIN KAMG 090615Z AUTO 14006KT 10SM CLR 16/13 A3021 -60 80 100 150/06 RMK AO2 T01610128
13870KAMG AMG20160309012010703/09/16 01:20:31  5-MIN KAMG 090620Z AUTO 14005KT 10SM CLR 16/13 A3020 -50 80 100 140/05 RMK AO2 T01610128
13870KAMG AMG20160309012510503/09/16 01:25:31  5-MIN KAMG 090625Z AUTO 14006KT 10SM CLR 16/13 A3020 -50 83 0 150/06 RMK AO2 T01560128
13870KAMG AMG20160309013010703/09/16 01:30:31  5-MIN KAMG 090630Z AUTO 14005KT 10SM CLR 16/13 A3020 -50 80 100 150/05 RMK AO2 T01610128
13870KAMG AMG20160309013510703/09/16 01:35:31  5-MIN KAMG 090635Z AUTO 14005KT 10SM CLR 16/13 A3020 -50 80 100 150/05 RMK AO2 T01610128
13870KAMG AMG20160309014010503/09/16 01:40:31  5-MIN KAMG 090640Z AUTO 14005KT 10SM CLR 16/13 A3020 -50 83 0 150/05 RMK AO2 T01560128
13870KAMG AMG20160309014510503/09/16 01:45:31  5-MIN KAMG 090645Z AUTO 14006KT 10SM CLR 16/13 A3020 -50 83 0 140/06 RMK AO2 T01560128
13870KAMG AMG20160309015011203/09/16 01:50:31  5-MIN KAMG 090650Z AUTO 14005KT 10SM CLR 16/13 A3020 -50 83 0 150/05 RMK AO2 SLP223 T01560128
13870KAMG AMG20160309015510503/09/16 01:55:31  5-MIN KAMG 090655Z AUTO 15004KT 10SM CLR 16/13 A3020 -50 83 0 150/04 RMK AO2 T01560128
13870KAMG AMG20160309020010503/09/16 02:00:31  5-MIN KAMG 090700Z AUTO 15004KT 10SM CLR 16/13 A3020 -50 83 0 150/04 RMK AO2 T01560128
13870KAMG AMG20160309020510503/09/16 02:05:31  5-MIN KAMG 090705Z AUTO 15004KT 10SM CLR 16/13 A3020 -50 83 0 160/04 RMK AO2 T01560128
13870KAMG AMG20160309021010503/09/16 02:10:31  5-MIN KAMG 090710Z AUTO 16005KT 10SM CLR 16/13 A3020 -50 83 0 160/05 RMK AO2 T01560128
13870KAMG AMG20160309021510503/09/16 02:15:31  5-MIN KAMG 090715Z AUTO 15005KT 10SM CLR 15/13 A3020 -50 86 0 160/05 RMK AO2 T01500128
13870KAMG AMG20160309022010503/09/16 02:20:31  5-MIN KAMG 090720Z AUTO 15004KT 10SM CLR 15/13 A3020 -50 86 0 160/04 RMK AO2 T01500128
13870KAMG AMG20160309022510503/09/16 02:25:31  5-MIN KAMG 090725Z AUTO 15004KT 10SM CLR 15/13 A3020 -50 86 0 150/04 RMK AO2 T01500128
13870KAMG AMG20160309023010503/09/16 02:30:31  5-MIN KAMG 090730Z AUTO 15004KT 10SM CLR 15/13 A3019 -50 86 0 150/04 RMK AO2 T01500128
13870KAMG AMG20160309023510503/09/16 02:35:31  5-MIN KAMG 090735Z AUTO 15003KT 10SM CLR 15/13 A3019 -50 86 0 150/03 RMK AO2 T01500128
13870KAMG AMG20160309024010503/09/16 02:40:31  5-MIN KAMG 090740Z AUTO 14003KT 10SM CLR 15/13 A3019 -40 86 0 140/03 RMK AO2 T01500128
13870KAMG AMG20160309024510503/09/16 02:45:31  5-MIN KAMG 090745Z AUTO 13003KT 10SM CLR 15/13 A3019 -40 86 0 130/03 RMK AO2 T01500128
13870KAMG AMG20160309025011203/09/16 02:50:31  5-MIN KAMG 090750Z AUTO 13003KT 10SM CLR 14/13 A3019 -40 90 0 130/03 RMK AO2 SLP221 T01440128
13870KAMG AMG20160309025510503/09/16 02:55:31  5-MIN KAMG 090755Z AUTO 13003KT 10SM CLR 14/13 A3019 -40 90 0 130/03 RMK AO2 T01440128
13870KAMG AMG20160309030010503/09/16 03:00:31  5-MIN KAMG 090800Z AUTO 13003KT 10SM CLR 14/13 A3019 -40 90 0 130/03 RMK AO2 T01440128
13870KAMG AMG20160309030510503/09/16 03:05:31  5-MIN KAMG 090805Z AUTO 13003KT 10SM CLR 14/13 A3019 -50 90 0 130/03 RMK AO2 T01440128
13870KAMG AMG20160309031010503/09/16 03:10:31  5-MIN KAMG 090810Z AUTO 12003KT 10SM CLR 14/13 A3020 -50 90 0 130/03 RMK AO2 T01440128
13870KAMG AMG20160309031510803/09/16 03:15:31  5-MIN KAMG 090815Z AUTO 00000KT 10SM CLR 14/13 A3019 -50 93 -100 000/00 RMK AO2 T01390128
13870KAMG AMG20160309032010803/09/16 03:20:31  5-MIN KAMG 090820Z AUTO 11003KT 10SM CLR 13/13 A3019 -40 96 -200 120/03 RMK AO2 T01330128
13870KAMG AMG20160309032510803/09/16 03:25:31  5-MIN KAMG 090825Z AUTO 11003KT 10SM CLR 13/12 A3019 -50 93 -200 110/03 RMK AO2 T01330122
13870KAMG AMG20160309033010803/09/16 03:30:31  5-MIN KAMG 090830Z AUTO 00000KT 10SM CLR 13/12 A3020 -50 96 -200 000/00 RMK AO2 T01280122
13870KAMG AMG20160309033510803/09/16 03:35:31  5-MIN KAMG 090835Z AUTO 00000KT 10SM CLR 12/12 A3019 -50 96 -300 000/00 RMK AO2 T01220117
13870KAMG AMG20160309034010803/09/16 03:40:31  5-MIN KAMG 090840Z AUTO 00000KT 10SM CLR 13/12 A3019 -40 93 -200 000/00 RMK AO2 T01280117
13870KAMG AMG20160309034510803/09/16 03:45:31  5-MIN KAMG 090845Z AUTO 00000KT 10SM CLR 13/12 A3019 -40 93 -200 000/00 RMK AO2 T01280117
13870KAMG AMG20160309035012203/09/16 03:50:31  5-MIN KAMG 090850Z AUTO 00000KT 10SM CLR 12/12 A3019 -40 100 -400 000/00 RMK AO2 SLP222 T01170117 58002
13870KAMG AMG20160309035510803/09/16 03:55:31  5-MIN KAMG 090855Z AUTO 00000KT 10SM CLR 12/11 A3019 -40 96 -400 000/00 RMK AO2 T01170111
13870KAMG AMG20160309040010803/09/16 04:00:31  5-MIN KAMG 090900Z AUTO 11003KT 10SM CLR 12/11 A3019 -40 96 -400 120/03 RMK AO2 T01170111
13870KAMG AMG20160309040510903/09/16 04:05:31  5-MIN KAMG 090905Z AUTO 11004KT 10SM CLR 11/11 A3019 -40 100 -400 120/04 RMK AO2 T01110111
13870KAMG AMG20160309041010903/09/16 04:10:31  5-MIN KAMG 090910Z AUTO 00000KT 10SM CLR 11/11 A3019 -40 100 -400 000/00 RMK AO2 T01110111
13870KAMG AMG20160309041510903/09/16 04:15:31  5-MIN KAMG 090915Z AUTO 12003KT 10SM CLR 11/11 A3019 -40 100 -400 120/03 RMK AO2 T01110111
13870KAMG AMG20160309042010903/09/16 04:20:31  5-MIN KAMG 090920Z AUTO 11003KT 10SM CLR 11/11 A3019 -40 100 -400 120/03 RMK AO2 T01110111
13870KAMG AMG20160309042510903/09/16 04:25:31  5-MIN KAMG 090925Z AUTO 11003KT 10SM CLR 11/11 A3020 -50 100 -500 110/03 RMK AO2 T01060106
13870KAMG AMG20160309043010903/09/16 04:30:31  5-MIN KAMG 090930Z AUTO 10003KT 10SM CLR 11/11 A3019 -50 100 -500 110/03 RMK AO2 T01060106
13870KAMG AMG20160309043510903/09/16 04:35:31  5-MIN KAMG 090935Z AUTO 10004KT 10SM CLR 11/11 A3019 -40 100 -400 100/04 RMK AO2 T01110111
13870KAMG AMG20160309044010903/09/16 04:40:31  5-MIN KAMG 090940Z AUTO 11003KT 10SM CLR 11/11 A3019 -50 100 -400 110/03 RMK AO2 T01110111
13870KAMG AMG20160309044510903/09/16 04:45:31  5-MIN KAMG 090945Z AUTO 12003KT 10SM CLR 11/11 A3020 -50 100 -400 120/03 RMK AO2 T01110111
13870KAMG AMG20160309045011603/09/16 04:50:31  5-MIN KAMG 090950Z AUTO 12003KT 10SM CLR 11/11 A3020 -50 100 -400 130/03 RMK AO2 SLP224 T01110111
13870KAMG AMG20160309045510903/09/16 04:55:31  5-MIN KAMG 090955Z AUTO 12003KT 10SM CLR 11/11 A3020 -50 100 -400 120/03 RMK AO2 T01110111
13870KAMG AMG20160309050010703/09/16 05:00:31  5-MIN KAMG 091000Z AUTO 00000KT 9SM CLR 11/10 A3020 -50 96 -500 000/00 RMK AO2 T01060100
13870KAMG AMG20160309050510703/09/16 05:05:31  5-MIN KAMG 091005Z AUTO 12003KT 8SM CLR 11/10 A3020 -50 93 -400 120/03 RMK AO2 T01110100
13870KAMG AMG20160309051010703/09/16 05:10:31  5-MIN KAMG 091010Z AUTO 10004KT 9SM CLR 11/10 A3020 -50 96 -500 110/04 RMK AO2 T01060100
13870KAMG AMG20160309051510803/09/16 05:15:31  5-MIN KAMG 091015Z AUTO 11003KT 10SM CLR 11/10 A3021 -60 96 -500 120/03 RMK AO2 T01060100
13870KAMG AMG20160309052010903/09/16 05:20:31  5-MIN KAMG 091020Z AUTO 11003KT 10SM CLR 11/11 A3021 -60 100 -500 120/03 RMK AO2 T01060106
13870KAMG AMG20160309052510903/09/16 05:25:31  5-MIN KAMG 091025Z AUTO 12003KT 10SM CLR 11/11 A3021 -60 100 -500 120/03 RMK AO2 T01060106
13870KAMG AMG20160309053010903/09/16 05:30:31  5-MIN KAMG 091030Z AUTO 00000KT 10SM CLR 10/10 A3021 -60 100 -600 000/00 RMK AO2 T01000100
13870KAMG AMG20160309053510703/09/16 05:35:31  5-MIN KAMG 091035Z AUTO 12003KT 9SM CLR 11/10 A3021 -60 96 -500 120/03 RMK AO2 T01060100
13870KAMG AMG20160309054010703/09/16 05:40:31  5-MIN KAMG 091040Z AUTO 12004KT 8SM CLR 11/10 A3021 -60 96 -500 120/04 RMK AO2 T01060100
13870KAMG AMG20160309054510703/09/16 05:45:31  5-MIN KAMG 091045Z AUTO 12003KT 9SM CLR 11/11 A3021 -60 96 -500 120/03 RMK AO2 T01110106
13870KAMG AMG20160309055011603/09/16 05:50:31  5-MIN KAMG 091050Z AUTO 10003KT 10SM CLR 11/11 A3021 -60 100 -500 110/03 RMK AO2 SLP229 T01110111
13870KAMG AMG20160309055510903/09/16 05:55:31  5-MIN KAMG 091055Z AUTO 10003KT 10SM CLR 11/11 A3021 -60 100 -500 100/03 RMK AO2 T01110111
13870KAMG AMG20160309060010903/09/16 06:00:31  5-MIN KAMG 091100Z AUTO 10003KT 10SM CLR 11/11 A3022 -70 100 -500 100/03 RMK AO2 T01110111
13870KAMG AMG20160309060510903/09/16 06:05:31  5-MIN KAMG 091105Z AUTO 11003KT 10SM CLR 11/11 A3022 -70 100 -500 110/03 RMK AO2 T01110111
13870KAMG AMG20160309061010903/09/16 06:10:31  5-MIN KAMG 091110Z AUTO 10003KT 10SM CLR 11/11 A3022 -70 100 -500 110/03 RMK AO2 T01110111
13870KAMG AMG20160309061510903/09/16 06:15:31  5-MIN KAMG 091115Z AUTO 10004KT 10SM CLR 11/11 A3022 -70 100 -500 110/04 RMK AO2 T01060106
13870KAMG AMG20160309062010803/09/16 06:20:31  5-MIN KAMG 091120Z AUTO 10003KT 10SM CLR 11/11 A3023 -70 96 -500 110/03 RMK AO2 T01110106
13870KAMG AMG20160309062510903/09/16 06:25:31  5-MIN KAMG 091125Z AUTO 11003KT 10SM CLR 11/11 A3023 -80 100 -500 110/03 RMK AO2 T01060106
13870KAMG AMG20160309063010903/09/16 06:30:31  5-MIN KAMG 091130Z AUTO 11003KT 10SM CLR 11/11 A3023 -80 100 -500 110/03 RMK AO2 T01060106
13870KAMG AMG20160309063510903/09/16 06:35:31  5-MIN KAMG 091135Z AUTO 11003KT 10SM CLR 11/11 A3023 -80 100 -500 110/03 RMK AO2 T01060106
13870KAMG AMG20160309064010903/09/16 06:40:31  5-MIN KAMG 091140Z AUTO 10003KT 10SM CLR 11/11 A3023 -80 100 -500 110/03 RMK AO2 T01060106
13870KAMG AMG20160309064510803/09/16 06:45:31  5-MIN KAMG 091145Z AUTO 10003KT 9SM CLR 11/11 A3023 -80 100 -500 110/03 RMK AO2 T01060106
13870KAMG AMG20160309065013303/09/16 06:50:31  5-MIN KAMG 091150Z AUTO 09003KT 9SM CLR 11/11 A3023 -80 100 -500 100/03 RMK AO2 SLP236 T01110111 10161 20100 56008
13870KAMG AMG20160309065510803/09/16 06:55:31  5-MIN KAMG 091155Z AUTO 09003KT 8SM CLR 11/11 A3024 -80 100 -600 100/03 RMK AO2 T01060106
13870KAMG AMG20160309070010703/09/16 07:00:31  5-MIN KAMG 091200Z AUTO 11003KT 7SM CLR 11/11 A3023 -80 96 -500 110/03 RMK AO2 T01110106
13870KAMG AMG20160309070511003/09/16 07:05:31  5-MIN KAMG 091205Z AUTO 09003KT 6SM BR CLR 11/11 A3023 -80 96 -500 100/03 RMK AO2 T01110106
13870KAMG AMG20160309071010803/09/16 07:10:31  5-MIN KAMG 091210Z AUTO 09003KT 7SM CLR 11/11 A3024 -80 100 -500 100/03 RMK AO2 T01110111
13870KAMG AMG20160309071510803/09/16 07:15:31  5-MIN KAMG 091215Z AUTO 10004KT 8SM CLR 11/11 A3024 -90 100 -500 100/04 RMK AO2 T01110111
13870KAMG AMG20160309072010703/09/16 07:20:31  5-MIN KAMG 091220Z AUTO 11003KT 8SM CLR 12/12 A3024 -90 96 -400 120/03 RMK AO2 T01220117
13870KAMG AMG20160309072510803/09/16 07:25:31  5-MIN KAMG 091225Z AUTO 10003KT 9SM CLR 12/12 A3025 -90 100 -400 100/03 RMK AO2 T01220122
13870KAMG AMG20160309073010903/09/16 07:30:31  5-MIN KAMG 091230Z AUTO 11003KT 9SM CLR 13/13 A3025 -100 100 -300 110/03 RMK AO2 T01280128
13870KAMG AMG20160309073510903/09/16 07:35:31  5-MIN KAMG 091235Z AUTO 10003KT 9SM CLR 13/13 A3025 -100 100 -300 110/03 RMK AO2 T01280128
13870KAMG AMG20160309074011003/09/16 07:40:31  5-MIN KAMG 091240Z AUTO 11003KT 10SM CLR 13/13 A3025 -100 100 -200 110/03 RMK AO2 T01330133
13870KAMG AMG20160309074510903/09/16 07:45:31  5-MIN KAMG 091245Z AUTO 11004KT 10SM CLR 14/13 A3026 -100 96 -200 120/04 RMK AO2 T01390133
13870KAMG AMG20160309075011903/09/16 07:50:31  5-MIN KAMG 091250Z AUTO 10003KT 10SM FEW043 13/13 A3026 -100 96 -200 100/03 RMK AO2 SLP244 T01330128
13870KAMG AMG20160309075511103/09/16 07:55:31  5-MIN KAMG 091255Z AUTO 00000KT 9SM SCT043 14/13 A3026 -110 96 -200 000/00 RMK AO2 T01390133
13870KAMG AMG20160309080011103/09/16 08:00:31  5-MIN KAMG 091300Z AUTO 00000KT 9SM BKN043 14/13 A3027 -110 93 -100 000/00 RMK AO2 T01440133
13870KAMG AMG20160309080511103/09/16 08:05:31  5-MIN KAMG 091305Z AUTO 00000KT 9SM BKN043 14/14 A3027 -110 96 -100 000/00 RMK AO2 T01440139
13870KAMG AMG20160309081011103/09/16 08:10:31  5-MIN KAMG 091310Z AUTO 00000KT 9SM BKN043 14/14 A3027 -120 96 -100 000/00 RMK AO2 T01440139
13870KAMG AMG20160309081511203/09/16 08:15:31  5-MIN KAMG 091315Z AUTO 12003KT 10SM OVC043 15/14 A3027 -120 93 -100 130/03 RMK AO2 T01500139
13870KAMG AMG20160309082011203/09/16 08:20:31  5-MIN KAMG 091320Z AUTO VRB03KT 10SM OVC044 15/14 A3028 -120 93 -100 VRB/03 RMK AO2 T01500139
13870KAMG AMG20160309082511203/09/16 08:25:31  5-MIN KAMG 091325Z AUTO 08003KT 10SM OVC044 15/14 A3028 -120 93 -100 090/03 RMK AO2 T01500139
13870KAMG AMG20160309083010903/09/16 08:30:31  5-MIN KAMG 091330Z AUTO VRB03KT 10SM OVC044 16/14 A3028 -130 90 0 VRB/03 RMK AO2 T01560139
13870KAMG AMG20160309083510903/09/16 08:35:31  5-MIN KAMG 091335Z AUTO 00000KT 10SM OVC044 16/14 A3028 -130 90 0 000/00 RMK AO2 T01560139
13870KAMG AMG20160309084010903/09/16 08:40:31  5-MIN KAMG 091340Z AUTO 00000KT 10SM OVC044 16/14 A3028 -130 90 0 000/00 RMK AO2 T01560139
13870KAMG AMG20160309084510903/09/16 08:45:31  5-MIN KAMG 091345Z AUTO 00000KT 10SM OVC044 16/14 A3028 -130 86 0 000/00 RMK AO2 T01610139
13870KAMG AMG20160309085011603/09/16 08:50:31  5-MIN KAMG 091350Z AUTO 00000KT 10SM OVC044 16/14 A3028 -130 86 0 000/00 RMK AO2 SLP253 T01610139
13870KAMG AMG20160309085510903/09/16 08:55:31  5-MIN KAMG 091355Z AUTO 17003KT 10SM OVC044 16/14 A3029 -130 86 0 170/03 RMK AO2 T01610139
13870KAMG AMG20160309090011103/09/16 09:00:31  5-MIN KAMG 091400Z AUTO 15003KT 10SM OVC044 17/14 A3029 -130 83 100 160/03 RMK AO2 T01670139
13870KAMG AMG20160309090511103/09/16 09:05:31  5-MIN KAMG 091405Z AUTO 13003KT 10SM OVC044 17/14 A3029 -130 83 100 140/03 RMK AO2 T01670139
13870KAMG AMG20160309091011103/09/16 09:10:31  5-MIN KAMG 091410Z AUTO 14003KT 10SM OVC044 17/14 A3029 -130 80 100 140/03 RMK AO2 T01720139
13870KAMG AMG20160309091511103/09/16 09:15:31  5-MIN KAMG 091415Z AUTO 00000KT 10SM OVC044 17/14 A3029 -130 80 100 000/00 RMK AO2 T01720139
13870KAMG AMG20160309092011103/09/16 09:20:31  5-MIN KAMG 091420Z AUTO 16003KT 10SM OVC044 18/14 A3029 -130 78 200 160/03 RMK AO2 T01780139
13870KAMG AMG20160309092511103/09/16 09:25:31  5-MIN KAMG 091425Z AUTO 17004KT 10SM OVC044 18/14 A3029 -130 78 200 170/04 RMK AO2 T01780139
13870KAMG AMG20160309093011103/09/16 09:30:31  5-MIN KAMG 091430Z AUTO 14003KT 10SM OVC044 18/14 A3029 -130 75 300 140/03 RMK AO2 T01830139
13870KAMG AMG20160309093511103/09/16 09:35:31  5-MIN KAMG 091435Z AUTO 16003KT 10SM OVC044 18/14 A3029 -140 75 300 160/03 RMK AO2 T01830139
13870KAMG AMG20160309094011103/09/16 09:40:31  5-MIN KAMG 091440Z AUTO 00000KT 10SM OVC044 19/14 A3029 -130 72 300 000/00 RMK AO2 T01890139
13870KAMG AMG20160309094511103/09/16 09:45:31  5-MIN KAMG 091445Z AUTO 13003KT 10SM OVC044 19/14 A3029 -130 70 400 140/03 RMK AO2 T01940139
13870KAMG AMG20160309095012403/09/16 09:50:31  5-MIN KAMG 091450Z AUTO 12005KT 10SM OVC044 19/14 A3029 -140 70 400 120/05 RMK AO2 SLP256 T01940139 53015
13870KAMG AMG20160309095511103/09/16 09:55:31  5-MIN KAMG 091455Z AUTO 13004KT 10SM OVC044 19/14 A3029 -130 70 400 140/04 RMK AO2 T01940139
13870KAMG AMG20160309100011103/09/16 10:00:31  5-MIN KAMG 091500Z AUTO 13005KT 10SM OVC044 19/14 A3030 -140 70 400 140/05 RMK AO2 T01940139
13870KAMG AMG20160309100511103/09/16 10:05:31  5-MIN KAMG 091505Z AUTO 14004KT 10SM OVC044 20/14 A3029 -140 70 500 140/04 RMK AO2 T02000144
13870KAMG AMG20160309111511703/09/16 11:15:31  5-MIN KAMG 091615Z AUTO 16009G16KT 10SM OVC044 22/14 A3029 -130 59 700 170/09G16 RMK AO2 T02220139
13870KAMG AMG20160309112011103/09/16 11:20:31  5-MIN KAMG 091620Z AUTO 17010KT 10SM OVC043 23/14 A3028 -130 57 800 170/10 RMK AO2 T02280139
13870KAMG AMG20160309112511103/09/16 11:25:31  5-MIN KAMG 091625Z AUTO 15009KT 10SM OVC043 22/14 A3028 -130 59 700 150/09 RMK AO2 T02220139
13870KAMG AMG20160309113011103/09/16 11:30:31  5-MIN KAMG 091630Z AUTO 14011KT 10SM OVC041 22/14 A3028 -120 59 700 150/11 RMK AO2 T02220139
13870KAMG AMG20160309113511103/09/16 11:35:31  5-MIN KAMG 091635Z AUTO 18010KT 10SM OVC041 23/13 A3028 -120 55 800 180/10 RMK AO2 T02280133
13870KAMG AMG20160309114011703/09/16 11:40:31  5-MIN KAMG 091640Z AUTO 17011G17KT 10SM OVC041 23/13 A3028 -120 55 800 180/11G17 RMK AO2 T02280133
13870KAMG AMG20160309114511103/09/16 11:45:31  5-MIN KAMG 091645Z AUTO 16012KT 10SM OVC041 23/13 A3028 -120 53 900 170/12 RMK AO2 T02330133
13870KAMG AMG20160309115012403/09/16 11:50:31  5-MIN KAMG 091650Z AUTO 16013G18KT 10SM OVC043 23/13 A3027 -120 53 900 170/13G18 RMK AO2 SLP250 T02330133
13870KAMG AMG20160309115511703/09/16 11:55:31  5-MIN KAMG 091655Z AUTO 15008G18KT 10SM BKN043 23/13 A3027 -120 55 800 150/08G18 RMK AO2 T02280133
13870KAMG AMG20160309120011103/09/16 12:00:31  5-MIN KAMG 091700Z AUTO 16010KT 10SM BKN043 23/13 A3027 -110 55 800 160/10 RMK AO2 T02280133
13870KAMG AMG20160309120511103/09/16 12:05:31  5-MIN KAMG 091705Z AUTO 16010KT 10SM OVC043 23/13 A3027 -110 53 900 160/10 RMK AO2 T02330133
13870KAMG AMG20160309121011103/09/16 12:10:31  5-MIN KAMG 091710Z AUTO 16012KT 10SM BKN043 24/13 A3026 -110 51 900 170/12 RMK AO2 T02390133
13870KAMG AMG20160309121511103/09/16 12:15:31  5-MIN KAMG 091715Z AUTO 14010KT 10SM BKN043 23/13 A3026 -110 51 900 140/10 RMK AO2 T02330128
13870KAMG AMG20160309122011103/09/16 12:20:31  5-MIN KAMG 091720Z AUTO 17010KT 10SM BKN043 23/13 A3026 -110 51 900 170/10 RMK AO2 T02330128
13870KAMG AMG20160309122511103/09/16 12:25:31  5-MIN KAMG 091725Z AUTO 16012KT 10SM BKN042 23/13 A3026 -100 53 900 160/12 RMK AO2 T02330133
13870KAMG AMG20160309123011103/09/16 12:30:31  5-MIN KAMG 091730Z AUTO 15008KT 10SM BKN042 24/13 A3025 -100 51 900 160/08 RMK AO2 T02390133
13870KAMG AMG20160309123511103/09/16 12:35:31  5-MIN KAMG 091735Z AUTO 14012KT 10SM BKN042 24/13 A3025 -100 49 900 140/12 RMK AO2 T02390128
13870KAMG AMG20160309124011103/09/16 12:40:31  5-MIN KAMG 091740Z AUTO 16011KT 10SM BKN044 24/13 A3025 -100 49 900 160/11 RMK AO2 T02390128
13870KAMG AMG20160309124511103/09/16 12:45:31  5-MIN KAMG 091745Z AUTO 15010KT 10SM BKN044 24/13 A3025 -90 49 1000 160/10 RMK AO2 T02440133
13870KAMG AMG20160309125014203/09/16 12:50:31  5-MIN KAMG 091750Z AUTO 16013G18KT 10SM BKN044 24/13 A3025 -90 49 1000 170/13G18 RMK AO2 SLP240 T02390128 10244 20106 51020
13870KAMG AMG20160309125511703/09/16 12:55:31  5-MIN KAMG 091755Z AUTO 12009G18KT 10SM BKN044 24/13 A3024 -90 51 1000 120/09G18 RMK AO2 T02390133
13870KAMG AMG20160309130011703/09/16 13:00:31  5-MIN KAMG 091800Z AUTO 12009G18KT 10SM BKN044 24/13 A3024 -90 47 1000 130/09G18 RMK AO2 T02440128
13870KAMG AMG20160309130511703/09/16 13:05:31  5-MIN KAMG 091805Z AUTO 17011G18KT 10SM BKN044 25/13 A3024 -90 48 1100 180/11G18 RMK AO2 T02500133
13870KAMG AMG20160309131011703/09/16 13:10:31  5-MIN KAMG 091810Z AUTO 16011G19KT 10SM SCT044 25/13 A3024 -80 48 1100 160/11G19 RMK AO2 T02500133
13870KAMG AMG20160309131511703/09/16 13:15:31  5-MIN KAMG 091815Z AUTO 16011G19KT 10SM SCT046 24/13 A3023 -80 47 1000 170/11G19 RMK AO2 T02440128
13870KAMG AMG20160309132011703/09/16 13:20:31  5-MIN KAMG 091820Z AUTO 16006G17KT 10SM SCT046 25/13 A3023 -80 48 1100 170/06G17 RMK AO2 T02500133
13870KAMG AMG20160309132511703/09/16 13:25:31  5-MIN KAMG 091825Z AUTO 18010G16KT 10SM SCT046 26/13 A3023 -80 46 1200 180/10G16 RMK AO2 T02560133
13870KAMG AMG20160309133011703/09/16 13:30:31  5-MIN KAMG 091830Z AUTO 13010G16KT 10SM FEW046 25/13 A3022 -70 46 1100 130/10G16 RMK AO2 T02500128
13870KAMG AMG20160309133511103/09/16 13:35:31  5-MIN KAMG 091835Z AUTO 13010KT 10SM FEW046 25/13 A3022 -60 46 1100 130/10 RMK AO2 T02500128
13870KAMG AMG20160309134011703/09/16 13:40:31  5-MIN KAMG 091840Z AUTO 14012G17KT 10SM FEW046 25/13 A3021 -60 46 1100 150/12G17 RMK AO2 T02500128
13870KAMG AMG20160309134511703/09/16 13:45:31  5-MIN KAMG 091845Z AUTO 15009G17KT 10SM FEW047 25/13 A3021 -60 46 1100 160/09G17 RMK AO2 T02500128
13870KAMG AMG20160309135012403/09/16 13:50:31  5-MIN KAMG 091850Z AUTO 16012G20KT 10SM FEW047 25/13 A3021 -60 46 1100 160/12G20 RMK AO2 SLP228 T02500128
13870KAMG AMG20160309135511403/09/16 13:55:31  5-MIN KAMG 091855Z AUTO 15009G20KT 10SM CLR 26/13 A3021 -60 46 1200 160/09G20 RMK AO2 T02560133
13870KAMG AMG20160309140011403/09/16 14:00:31  5-MIN KAMG 091900Z AUTO 17013G19KT 10SM CLR 26/13 A3021 -60 46 1200 180/13G19 RMK AO2 T02560133
13870KAMG AMG20160309140511703/09/16 14:05:31  5-MIN KAMG 091905Z AUTO 15009G19KT 10SM FEW050 26/13 A3020 -50 46 1200 160/09G19 RMK AO2 T02560133
13870KAMG AMG20160309141011103/09/16 14:10:31  5-MIN KAMG 091910Z AUTO 16010KT 10SM FEW050 26/13 A3021 -60 46 1200 160/10 RMK AO2 T02560133
13870KAMG AMG20160309141510803/09/16 14:15:31  5-MIN KAMG 091915Z AUTO 16009KT 10SM CLR 26/13 A3020 -50 46 1200 170/09 RMK AO2 T02560133
13870KAMG AMG20160309142010803/09/16 14:20:31  5-MIN KAMG 091920Z AUTO 14009KT 10SM CLR 26/13 A3020 -50 44 1200 140/09 RMK AO2 T02560128
13870KAMG AMG20160309142510803/09/16 14:25:31  5-MIN KAMG 091925Z AUTO 17012KT 10SM CLR 26/13 A3020 -50 44 1300 180/12 RMK AO2 T02610133
13870KAMG AMG20160309143010803/09/16 14:30:31  5-MIN KAMG 091930Z AUTO 15012KT 10SM CLR 26/13 A3019 -40 44 1300 160/12 RMK AO2 T02610133
13870KAMG AMG20160309143511403/09/16 14:35:31  5-MIN KAMG 091935Z AUTO 16011G17KT 10SM CLR 26/13 A3019 -40 43 1300 160/11G17 RMK AO2 T02610128
13870KAMG AMG20160309144011403/09/16 14:40:31  5-MIN KAMG 091940Z AUTO 15011G17KT 10SM CLR 26/13 A3019 -40 44 1200 150/11G17 RMK AO2 T02560128
13870KAMG AMG20160309144513003/09/16 14:45:31  5-MIN KAMG 091945Z AUTO 15008G17KT 120V190 10SM CLR 26/13 A3018 -30 43 1300 160/08G17 130V200 RMK AO2 T02610128
13870KAMG AMG20160309145011503/09/16 14:50:31  5-MIN KAMG 091950Z AUTO 17008KT 10SM CLR 26/13 A3018 -30 43 1300 170/08 RMK AO2 SLP217 T02610128
13870KAMG AMG20160309145510803/09/16 14:55:31  5-MIN KAMG 091955Z AUTO 14008KT 10SM CLR 27/13 A3018 -30 43 1300 150/08 RMK AO2 T02670133
13870KAMG AMG20160309150010803/09/16 15:00:31  5-MIN KAMG 092000Z AUTO 16008KT 10SM CLR 27/13 A3018 -30 43 1300 160/08 RMK AO2 T02670133
13870KAMG AMG20160309150510803/09/16 15:05:31  5-MIN KAMG 092005Z AUTO 17011KT 10SM CLR 27/13 A3018 -30 42 1400 180/11 RMK AO2 T02720133
13870KAMG AMG20160309151010803/09/16 15:10:31  5-MIN KAMG 092010Z AUTO 17011KT 10SM CLR 27/13 A3018 -30 41 1300 170/11 RMK AO2 T02670128
13870KAMG AMG20160309151510803/09/16 15:15:31  5-MIN KAMG 092015Z AUTO 16013KT 10SM CLR 27/13 A3017 -20 41 1400 170/13 RMK AO2 T02670128
13870KAMG AMG20160309152010803/09/16 15:20:31  5-MIN KAMG 092020Z AUTO 18011KT 10SM CLR 27/13 A3017 -20 41 1400 190/11 RMK AO2 T02670128
13870KAMG AMG20160309152510803/09/16 15:25:31  5-MIN KAMG 092025Z AUTO 17009KT 10SM CLR 27/13 A3016 -20 41 1400 170/09 RMK AO2 T02670128
13870KAMG AMG20160309153012703/09/16 15:30:31  5-MIN KAMG 092030Z AUTO 14007KT 080V180 10SM FEW055 27/13 A3016 -10 40 1400 150/07 090V190 RMK AO2 T02720128
13870KAMG AMG20160309153511103/09/16 15:35:31  5-MIN KAMG 092035Z AUTO VRB06KT 10SM FEW055 27/13 A3016 -10 41 1400 VRB/06 RMK AO2 T02670128
13870KAMG AMG20160309154011103/09/16 15:40:31  5-MIN KAMG 092040Z AUTO 13010KT 10SM FEW055 27/13 A3015 -10 41 1400 130/10 RMK AO2 T02670128
13870KAMG AMG20160309154510603/09/16 15:45:31  5-MIN KAMG 092045Z AUTO 15007KT 10SM CLR 27/13 A3015 0 41 1400 150/07 RMK AO2 T02670128
13870KAMG AMG20160309155014103/09/16 15:50:31  5-MIN KAMG 092050Z AUTO 15008G15KT 120V180 10SM CLR 27/13 A3015 0 41 1400 150/08G15 130V190 RMK AO2 SLP206 T02670128 58017
13870KAMG AMG20160309155510603/09/16 15:55:31  5-MIN KAMG 092055Z AUTO 17010KT 10SM CLR 27/13 A3014 0 41 1400 180/10 RMK AO2 T02670128
13870KAMG AMG20160309160011503/09/16 16:00:31  5-MIN KAMG 092100Z AUTO 16011G18KT 10SM FEW060 27/13 A3014 0 40 1400 160/11G18 RMK AO2 T02720128
13870KAMG AMG20160309160511203/09/16 16:05:31  5-MIN KAMG 092105Z AUTO 15008G18KT 10SM CLR 27/13 A3014 0 41 1400 160/08G18 RMK AO2 T02670128
13870KAMG AMG20160309161011203/09/16 16:10:31  5-MIN KAMG 092110Z AUTO 16008G16KT 10SM CLR 27/13 A3014 0 40 1500 170/08G16 RMK AO2 T02720128
13870KAMG AMG20160309161510603/09/16 16:15:31  5-MIN KAMG 092115Z AUTO 17014KT 10SM CLR 27/13 A3014 0 42 1500 170/14 RMK AO2 T02720133
13870KAMG AMG20160309162011203/09/16 16:20:31  5-MIN KAMG 092120Z AUTO 15009G17KT 10SM CLR 27/13 A3014 0 41 1400 160/09G17 RMK AO2 T02670128
13870KAMG AMG20160309162510603/09/16 16:25:31  5-MIN KAMG 092125Z AUTO 15007KT 10SM CLR 26/13 A3014 0 43 1300 150/07 RMK AO2 T02610128
13870KAMG AMG20160309163012503/09/16 16:30:31  5-MIN KAMG 092130Z AUTO 13008KT 110V180 10SM FEW055 27/13 A3014 0 41 1400 140/08 120V190 RMK AO2 T02670128
13870KAMG AMG20160309163510903/09/16 16:35:31  5-MIN KAMG 092135Z AUTO 11008KT 10SM FEW055 27/13 A3014 0 43 1400 120/08 RMK AO2 T02670133
13870KAMG AMG20160309164012503/09/16 16:40:31  5-MIN KAMG 092140Z AUTO 13007KT 090V170 10SM FEW055 27/13 A3014 0 43 1400 140/07 100V180 RMK AO2 T02670133
13870KAMG AMG20160309164511503/09/16 16:45:31  5-MIN KAMG 092145Z AUTO 11009G15KT 10SM FEW055 27/13 A3014 0 43 1400 110/09G15 RMK AO2 T02670133
13870KAMG AMG20160309165012203/09/16 16:50:31  5-MIN KAMG 092150Z AUTO 12009G15KT 10SM FEW055 27/13 A3014 0 43 1400 130/09G15 RMK AO2 SLP205 T02670133
13870KAMG AMG20160309165510903/09/16 16:55:31  5-MIN KAMG 092155Z AUTO 13009KT 10SM FEW055 27/13 A3015 0 43 1400 140/09 RMK AO2 T02670133
13870KAMG AMG20160309170010903/09/16 17:00:31  5-MIN KAMG 092200Z AUTO 12008KT 10SM FEW055 26/13 A3015 0 44 1300 120/08 RMK AO2 T02610133
13870KAMG AMG20160309170511703/09/16 17:05:31  5-MIN KAMG 092205Z AUTO 11007G15KT 10SM SCT055 26/13 A3016 -10 44 1300 110/07G15 RMK AO2 T02610133
13870KAMG AMG20160309171011103/09/16 17:10:31  5-MIN KAMG 092210Z AUTO 11007KT 10SM SCT055 26/14 A3016 -10 46 1300 120/07 RMK AO2 T02610139
13870KAMG AMG20160309171511103/09/16 17:15:31  5-MIN KAMG 092215Z AUTO 11007KT 10SM FEW055 26/14 A3016 -20 48 1200 110/07 RMK AO2 T02560139
13870KAMG AMG20160309172011103/09/16 17:20:31  5-MIN KAMG 092220Z AUTO 10007KT 10SM FEW055 25/14 A3017 -20 49 1200 110/07 RMK AO2 T02500139
13870KAMG AMG20160309172511103/09/16 17:25:31  5-MIN KAMG 092225Z AUTO 11006KT 10SM FEW055 25/14 A3017 -20 49 1200 120/06 RMK AO2 T02500139
13870KAMG AMG20160309173011103/09/16 17:30:31  5-MIN KAMG 092230Z AUTO 10008KT 10SM FEW055 25/14 A3017 -20 49 1200 100/08 RMK AO2 T02500139
13870KAMG AMG20160309173511403/09/16 17:35:31  5-MIN KAMG 092235Z AUTO 12007G17KT 10SM CLR 25/14 A3017 -20 51 1200 120/07G17 RMK AO2 T02500144
13870KAMG AMG20160309174011403/09/16 17:40:31  5-MIN KAMG 092240Z AUTO 11008G17KT 10SM CLR 25/14 A3017 -20 51 1200 120/08G17 RMK AO2 T02500144
13870KAMG AMG20160309174510803/09/16 17:45:31  5-MIN KAMG 092245Z AUTO 11007KT 10SM CLR 24/14 A3017 -20 53 1100 120/07 RMK AO2 T02440144
13870KAMG AMG20160309175011503/09/16 17:50:31  5-MIN KAMG 092250Z AUTO 11007KT 10SM CLR 24/14 A3017 -30 53 1100 110/07 RMK AO2 SLP215 T02440144
13870KAMG AMG20160309175510803/09/16 17:55:31  5-MIN KAMG 092255Z AUTO 11009KT 10SM CLR 24/14 A3018 -30 53 1100 120/09 RMK AO2 T02440144
13870KAMG AMG20160309180010803/09/16 18:00:31  5-MIN KAMG 092300Z AUTO 11007KT 10SM CLR 24/14 A3018 -30 55 1000 120/07 RMK AO2 T02390144
13870KAMG AMG20160309180511403/09/16 18:05:31  5-MIN KAMG 092305Z AUTO 10009G15KT 10SM CLR 24/15 A3017 -30 57 1000 100/09G15 RMK AO2 T02390150
13870KAMG AMG20160309181011403/09/16 18:10:31  5-MIN KAMG 092310Z AUTO 11009G15KT 10SM CLR 23/15 A3018 -30 59 1000 120/09G15 RMK AO2 T02330150
13870KAMG AMG20160309181510803/09/16 18:15:31  5-MIN KAMG 092315Z AUTO 11008KT 10SM CLR 23/15 A3018 -30 59 1000 120/08 RMK AO2 T02330150
13870KAMG AMG20160309182010803/09/16 18:20:31  5-MIN KAMG 092320Z AUTO 11007KT 10SM CLR 23/15 A3018 -30 59 1000 120/07 RMK AO2 T02330150
13870KAMG AMG20160309182510703/09/16 18:25:31  5-MIN KAMG 092325Z AUTO 12008KT 10SM CLR 23/15 A3018 -40 61 900 120/08 RMK AO2 T02280150
13870KAMG AMG20160309183011303/09/16 18:30:31  5-MIN KAMG 092330Z AUTO 12006G15KT 10SM CLR 23/15 A3019 -40 61 900 120/06G15 RMK AO2 T02280150
13870KAMG AMG20160309183510703/09/16 18:35:31  5-MIN KAMG 092335Z AUTO 10007KT 10SM CLR 22/15 A3018 -40 63 800 110/07 RMK AO2 T02220150
13870KAMG AMG20160309184010703/09/16 18:40:31  5-MIN KAMG 092340Z AUTO 10009KT 10SM CLR 22/15 A3019 -40 63 800 110/09 RMK AO2 T02220150
13870KAMG AMG20160309184510703/09/16 18:45:31  5-MIN KAMG 092345Z AUTO 10007KT 10SM CLR 22/15 A3019 -40 63 800 100/07 RMK AO2 T02220150
13870KAMG AMG20160309185013203/09/16 18:50:31  5-MIN KAMG 092350Z AUTO 11007KT 10SM CLR 22/15 A3019 -40 63 800 110/07 RMK AO2 SLP220 T02220150 10272 20222 56033
13870KAMG AMG20160309185510703/09/16 18:55:31  5-MIN KAMG 092355Z AUTO 12009KT 10SM CLR 22/15 A3019 -40 63 800 120/09 RMK AO2 T02220150
13870KAMG AMG20160309190010703/09/16 19:00:31  5-MIN KAMG 100000Z AUTO 11008KT 10SM CLR 22/15 A3019 -40 65 800 110/08 RMK AO2 T02170150
13870KAMG AMG20160309190510703/09/16 19:05:31  5-MIN KAMG 100005Z AUTO 11006KT 10SM CLR 22/15 A3019 -40 65 800 120/06 RMK AO2 T02170150
13870KAMG AMG20160309191010703/09/16 19:10:31  5-MIN KAMG 100010Z AUTO 11007KT 10SM CLR 22/14 A3019 -40 63 800 110/07 RMK AO2 T02170144
13870KAMG AMG20160309191510703/09/16 19:15:31  5-MIN KAMG 100015Z AUTO 10007KT 10SM CLR 21/14 A3019 -40 65 700 110/07 RMK AO2 T02110144
13870KAMG AMG20160309192010703/09/16 19:20:31  5-MIN KAMG 100020Z AUTO 10006KT 10SM CLR 21/14 A3019 -40 65 700 110/06 RMK AO2 T02110144
13870KAMG AMG20160309192510703/09/16 19:25:31  5-MIN KAMG 100025Z AUTO 11007KT 10SM CLR 21/14 A3020 -50 65 700 110/07 RMK AO2 T02110144
13870KAMG AMG20160309193010703/09/16 19:30:31  5-MIN KAMG 100030Z AUTO 12006KT 10SM CLR 21/14 A3020 -50 63 700 120/06 RMK AO2 T02110139
13870KAMG AMG20160309193510703/09/16 19:35:31  5-MIN KAMG 100035Z AUTO 11006KT 10SM CLR 21/14 A3020 -50 65 600 120/06 RMK AO2 T02060139
13870KAMG AMG20160309194010703/09/16 19:40:31  5-MIN KAMG 100040Z AUTO 11008KT 10SM CLR 21/14 A3020 -50 65 600 120/08 RMK AO2 T02060139
13870KAMG AMG20160309194510703/09/16 19:45:31  5-MIN KAMG 100045Z AUTO 11007KT 10SM CLR 21/14 A3020 -50 65 600 120/07 RMK AO2 T02060139
13870KAMG AMG20160309195011403/09/16 19:50:31  5-MIN KAMG 100050Z AUTO 11007KT 10SM CLR 21/14 A3020 -50 65 600 110/07 RMK AO2 SLP224 T02060139
13870KAMG AMG20160309195510703/09/16 19:55:31  5-MIN KAMG 100055Z AUTO 11007KT 10SM CLR 21/14 A3020 -50 65 600 120/07 RMK AO2 T02060139
13870KAMG AMG20160309200010703/09/16 20:00:31  5-MIN KAMG 100100Z AUTO 11006KT 10SM CLR 21/14 A3020 -50 65 600 120/06 RMK AO2 T02060139
13870KAMG AMG20160309200510703/09/16 20:05:31  5-MIN KAMG 100105Z AUTO 11006KT 10SM CLR 20/14 A3020 -50 67 600 120/06 RMK AO2 T02000139
13870KAMG AMG20160309201010703/09/16 20:10:31  5-MIN KAMG 100110Z AUTO 12008KT 10SM CLR 21/14 A3020 -50 65 600 120/08 RMK AO2 T02060139
13870KAMG AMG20160309201510703/09/16 20:15:31  5-MIN KAMG 100115Z AUTO 12007KT 10SM CLR 21/14 A3020 -50 65 600 120/07 RMK AO2 T02060139
13870KAMG AMG20160309202010703/09/16 20:20:31  5-MIN KAMG 100120Z AUTO 12007KT 10SM CLR 20/14 A3020 -50 67 600 120/07 RMK AO2 T02000139
13870KAMG AMG20160309202510703/09/16 20:25:31  5-MIN KAMG 100125Z AUTO 12008KT 10SM CLR 20/14 A3020 -50 70 600 120/08 RMK AO2 T02000144
13870KAMG AMG20160309203010703/09/16 20:30:31  5-MIN KAMG 100130Z AUTO 11006KT 10SM CLR 20/14 A3020 -50 70 600 120/06 RMK AO2 T02000144
13870KAMG AMG20160309203510703/09/16 20:35:31  5-MIN KAMG 100135Z AUTO 13006KT 10SM CLR 20/14 A3020 -50 70 600 130/06 RMK AO2 T02000144
13870KAMG AMG20160309204010703/09/16 20:40:31  5-MIN KAMG 100140Z AUTO 12008KT 10SM CLR 20/14 A3020 -50 70 600 120/08 RMK AO2 T02000144
13870KAMG AMG20160309204510703/09/16 20:45:31  5-MIN KAMG 100145Z AUTO 12007KT 10SM CLR 20/14 A3020 -50 70 600 130/07 RMK AO2 T02000144
13870KAMG AMG20160309205011403/09/16 20:50:31  5-MIN KAMG 100150Z AUTO 12005KT 10SM CLR 20/14 A3020 -50 70 600 120/05 RMK AO2 SLP225 T02000144
13870KAMG AMG20160309205510703/09/16 20:55:31  5-MIN KAMG 100155Z AUTO 12005KT 10SM CLR 19/14 A3020 -50 72 500 130/05 RMK AO2 T01940144
13870KAMG AMG20160309210010703/09/16 21:00:31  5-MIN KAMG 100200Z AUTO 12006KT 10SM CLR 19/14 A3020 -50 72 500 130/06 RMK AO2 T01940144
13870KAMG AMG20160309210510703/09/16 21:05:31  5-MIN KAMG 100205Z AUTO 12006KT 10SM CLR 19/14 A3020 -50 72 500 120/06 RMK AO2 T01940144
13870KAMG AMG20160309211010703/09/16 21:10:31  5-MIN KAMG 100210Z AUTO 11007KT 10SM CLR 19/14 A3020 -50 72 500 120/07 RMK AO2 T01940144
13870KAMG AMG20160309211510703/09/16 21:15:31  5-MIN KAMG 100215Z AUTO 12006KT 10SM CLR 19/14 A3020 -50 72 500 120/06 RMK AO2 T01940144
13870KAMG AMG20160309212010703/09/16 21:20:31  5-MIN KAMG 100220Z AUTO 12006KT 10SM CLR 19/14 A3020 -50 75 400 130/06 RMK AO2 T01890144
13870KAMG AMG20160309212510703/09/16 21:25:31  5-MIN KAMG 100225Z AUTO 12007KT 10SM CLR 19/14 A3020 -50 75 400 130/07 RMK AO2 T01890144
13870KAMG AMG20160309213010703/09/16 21:30:31  5-MIN KAMG 100230Z AUTO 12005KT 10SM CLR 19/14 A3020 -50 75 400 130/05 RMK AO2 T01890144
13870KAMG AMG20160309213510703/09/16 21:35:31  5-MIN KAMG 100235Z AUTO 13005KT 10SM CLR 19/14 A3021 -60 75 400 130/05 RMK AO2 T01890144
13870KAMG AMG20160309214010703/09/16 21:40:31  5-MIN KAMG 100240Z AUTO 12005KT 10SM CLR 19/14 A3021 -60 75 400 130/05 RMK AO2 T01890144
13870KAMG AMG20160309214510703/09/16 21:45:31  5-MIN KAMG 100245Z AUTO 12005KT 10SM CLR 19/14 A3020 -50 75 400 130/05 RMK AO2 T01890144
13870KAMG AMG20160309215012003/09/16 21:50:31  5-MIN KAMG 100250Z AUTO 13005KT 10SM CLR 19/14 A3021 -60 75 400 130/05 RMK AO2 SLP226 T01890144 53014
13870KAMG AMG20160309215510703/09/16 21:55:31  5-MIN KAMG 100255Z AUTO 13004KT 10SM CLR 19/14 A3021 -60 75 400 130/04 RMK AO2 T01890144
13870KAMG AMG20160309220010703/09/16 22:00:31  5-MIN KAMG 100300Z AUTO 13005KT 10SM CLR 19/14 A3021 -60 75 400 130/05 RMK AO2 T01890144
13870KAMG AMG20160309220510703/09/16 22:05:31  5-MIN KAMG 100305Z AUTO 13004KT 10SM CLR 18/15 A3021 -60 81 400 140/04 RMK AO2 T01830150
13870KAMG AMG20160309221010703/09/16 22:10:31  5-MIN KAMG 100310Z AUTO 13005KT 10SM CLR 18/15 A3021 -60 81 400 130/05 RMK AO2 T01830150
13870KAMG AMG20160309221510703/09/16 22:15:31  5-MIN KAMG 100315Z AUTO 13005KT 10SM CLR 18/15 A3021 -60 81 400 130/05 RMK AO2 T01830150
13870KAMG AMG20160309222010703/09/16 22:20:31  5-MIN KAMG 100320Z AUTO 13005KT 10SM CLR 19/15 A3021 -60 78 400 130/05 RMK AO2 T01890150
13870KAMG AMG20160309222510703/09/16 22:25:31  5-MIN KAMG 100325Z AUTO 13006KT 10SM CLR 19/15 A3021 -60 78 400 130/06 RMK AO2 T01890150
13870KAMG AMG20160309223010703/09/16 22:30:31  5-MIN KAMG 100330Z AUTO 13006KT 10SM CLR 19/15 A3021 -60 78 400 140/06 RMK AO2 T01890150
13870KAMG AMG20160309223510703/09/16 22:35:31  5-MIN KAMG 100335Z AUTO 13006KT 10SM CLR 18/15 A3021 -60 81 300 140/06 RMK AO2 T01830150
13870KAMG AMG20160309224010703/09/16 22:40:31  5-MIN KAMG 100340Z AUTO 13006KT 10SM CLR 19/15 A3022 -70 78 400 140/06 RMK AO2 T01890150
13870KAMG AMG20160309224510703/09/16 22:45:31  5-MIN KAMG 100345Z AUTO 14005KT 10SM CLR 18/15 A3021 -60 81 300 140/05 RMK AO2 T01830150
13870KAMG AMG20160309225011403/09/16 22:50:31  5-MIN KAMG 100350Z AUTO 13006KT 10SM CLR 18/15 A3021 -60 81 300 140/06 RMK AO2 SLP229 T01830150
13870KAMG AMG20160309225510703/09/16 22:55:31  5-MIN KAMG 100355Z AUTO 13008KT 10SM CLR 18/15 A3021 -60 81 300 130/08 RMK AO2 T01830150
13870KAMG AMG20160309230010703/09/16 23:00:31  5-MIN KAMG 100400Z AUTO 14006KT 10SM CLR 18/16 A3022 -70 84 300 140/06 RMK AO2 T01830156
13870KAMG AMG20160309230510703/09/16 23:05:31  5-MIN KAMG 100405Z AUTO 14006KT 10SM CLR 18/16 A3022 -70 84 300 150/06 RMK AO2 T01830156
13870KAMG AMG20160309231010703/09/16 23:10:31  5-MIN KAMG 100410Z AUTO 14005KT 10SM CLR 18/16 A3022 -70 84 300 150/05 RMK AO2 T01830156
13870KAMG AMG20160309231510703/09/16 23:15:31  5-MIN KAMG 100415Z AUTO 13006KT 10SM CLR 18/16 A3022 -70 84 300 140/06 RMK AO2 T01830156
13870KAMG AMG20160309232010703/09/16 23:20:31  5-MIN KAMG 100420Z AUTO 15006KT 10SM CLR 18/16 A3022 -70 84 300 150/06 RMK AO2 T01830156
13870KAMG AMG20160309232510703/09/16 23:25:31  5-MIN KAMG 100425Z AUTO 14006KT 10SM CLR 18/16 A3022 -70 84 300 150/06 RMK AO2 T01830156
13870KAMG AMG20160309233010703/09/16 23:30:31  5-MIN KAMG 100430Z AUTO 15007KT 10SM CLR 18/16 A3022 -70 84 300 150/07 RMK AO2 T01830156
13870KAMG AMG20160309233510703/09/16 23:35:31  5-MIN KAMG 100435Z AUTO 14006KT 10SM CLR 18/16 A3022 -70 84 300 150/06 RMK AO2 T01830156
13870KAMG AMG20160309234010703/09/16 23:40:31  5-MIN KAMG 100440Z AUTO 15005KT 10SM CLR 18/16 A3023 -70 84 300 150/05 RMK AO2 T01830156
13870KAMG AMG20160309234510703/09/16 23:45:31  5-MIN KAMG 100445Z AUTO 15007KT 10SM CLR 18/16 A3022 -70 84 300 150/07 RMK AO2 T01830156
13870KAMG AMG20160309235012403/09/16 23:50:31  5-MIN KAMG 100450Z AUTO 14007KT 10SM CLR 18/16 A3022 -70 84 300 150/07 RMK AO2 SLP232 T01830156 402720100
13870KAMG AMG20160309235510703/09/16 23:55:31  5-MIN KAMG 100455Z AUTO 14007KT 10SM CLR 18/16 A3022 -70 84 300 150/07 RMK AO2 T01830156
13870KAMG AMG20160310000010703/10/16 00:00:31  5-MIN KAMG 100500Z AUTO 15007KT 10SM CLR 18/16 A3022 -60 84 300 150/07 RMK AO2 T01830156
13870KAMG AMG20160310000510703/10/16 00:05:31  5-MIN KAMG 100505Z AUTO 15007KT 10SM CLR 18/16 A3021 -60 84 300 150/07 RMK AO2 T01830156
13870KAMG AMG20160310001010703/10/16 00:10:31  5-MIN KAMG 100510Z AUTO 15007KT 10SM CLR 18/16 A3022 -70 84 300 150/07 RMK AO2 T01830156
13870KAMG AMG20160310001510703/10/16 00:15:31  5-MIN KAMG 100515Z AUTO 15009KT 10SM CLR 18/16 A3022 -70 87 300 150/09 RMK AO2 T01830161
13870KAMG AMG20160310002010703/10/16 00:20:31  5-MIN KAMG 100520Z AUTO 15007KT 10SM CLR 18/16 A3022 -70 87 300 150/07 RMK AO2 T01830161
13870KAMG AMG20160310002510703/10/16 00:25:31  5-MIN KAMG 100525Z AUTO 14008KT 10SM CLR 18/16 A3021 -60 84 300 150/08 RMK AO2 T01830156
13870KAMG AMG20160310003010703/10/16 00:30:31  5-MIN KAMG 100530Z AUTO 14006KT 10SM CLR 18/16 A3021 -60 84 400 140/06 RMK AO2 T01830156
13870KAMG AMG20160310003510703/10/16 00:35:31  5-MIN KAMG 100535Z AUTO 15008KT 10SM CLR 18/16 A3021 -60 84 300 160/08 RMK AO2 T01830156
13870KAMG AMG20160310004010703/10/16 00:40:31  5-MIN KAMG 100540Z AUTO 16006KT 10SM CLR 18/16 A3021 -60 84 300 160/06 RMK AO2 T01830156
13870KAMG AMG20160310004510703/10/16 00:45:31  5-MIN KAMG 100545Z AUTO 15006KT 10SM CLR 18/16 A3022 -70 84 300 160/06 RMK AO2 T01830156
13870KAMG AMG20160310005013203/10/16 00:50:31  5-MIN KAMG 100550Z AUTO 16006KT 10SM CLR 18/16 A3022 -70 84 300 160/06 RMK AO2 SLP231 T01830156 10222 20183 51007
13870KAMG AMG20160310005510703/10/16 00:55:31  5-MIN KAMG 100555Z AUTO 15006KT 10SM CLR 18/16 A3022 -70 87 300 160/06 RMK AO2 T01780156
13870KAMG AMG20160310010010703/10/16 01:00:31  5-MIN KAMG 100600Z AUTO 16005KT 10SM CLR 18/16 A3022 -70 87 300 170/05 RMK AO2 T01780156
13870KAMG AMG20160310010510703/10/16 01:05:31  5-MIN KAMG 100605Z AUTO 16006KT 10SM CLR 18/16 A3022 -70 87 300 160/06 RMK AO2 T01780156
13870KAMG AMG20160310011010703/10/16 01:10:31  5-MIN KAMG 100610Z AUTO 15005KT 10SM CLR 18/16 A3022 -70 87 300 160/05 RMK AO2 T01780156
13870KAMG AMG20160310011510703/10/16 01:15:31  5-MIN KAMG 100615Z AUTO 16005KT 10SM CLR 18/16 A3022 -70 87 300 160/05 RMK AO2 T01780156
13870KAMG AMG20160310012010703/10/16 01:20:31  5-MIN KAMG 100620Z AUTO 15005KT 10SM CLR 18/16 A3022 -70 87 300 160/05 RMK AO2 T01780156
13870KAMG AMG20160310012510703/10/16 01:25:31  5-MIN KAMG 100625Z AUTO 15003KT 10SM CLR 18/16 A3022 -70 87 300 160/03 RMK AO2 T01780156
13870KAMG AMG20160310013010703/10/16 01:30:31  5-MIN KAMG 100630Z AUTO 15004KT 10SM CLR 18/16 A3022 -70 87 300 150/04 RMK AO2 T01780156
13870KAMG AMG20160310013510703/10/16 01:35:31  5-MIN KAMG 100635Z AUTO 14004KT 10SM CLR 18/16 A3022 -70 87 300 140/04 RMK AO2 T01780156
13870KAMG AMG20160310014010703/10/16 01:40:31  5-MIN KAMG 100640Z AUTO 13004KT 10SM CLR 17/16 A3022 -70 90 200 140/04 RMK AO2 T01720156
13870KAMG AMG20160310014510703/10/16 01:45:31  5-MIN KAMG 100645Z AUTO 13004KT 10SM CLR 18/16 A3022 -70 87 300 140/04 RMK AO2 T01780156
13870KAMG AMG20160310015011403/10/16 01:50:31  5-MIN KAMG 100650Z AUTO 13003KT 10SM CLR 17/16 A3022 -70 90 200 140/03 RMK AO2 SLP232 T01720156
13870KAMG AMG20160310015510703/10/16 01:55:31  5-MIN KAMG 100655Z AUTO 15003KT 10SM CLR 17/16 A3022 -70 90 200 150/03 RMK AO2 T01720156
13870KAMG AMG20160310020010703/10/16 02:00:31  5-MIN KAMG 100700Z AUTO 14003KT 10SM CLR 17/16 A3022 -70 90 200 150/03 RMK AO2 T01720156
13870KAMG AMG20160310020510703/10/16 02:05:31  5-MIN KAMG 100705Z AUTO 14003KT 10SM CLR 17/16 A3022 -70 90 200 150/03 RMK AO2 T01720156
13870KAMG AMG20160310021010703/10/16 02:10:31  5-MIN KAMG 100710Z AUTO 14003KT 10SM CLR 17/16 A3022 -70 90 200 150/03 RMK AO2 T01720156
13870KAMG AMG20160310021510703/10/16 02:15:31  5-MIN KAMG 100715Z AUTO 13003KT 10SM CLR 17/16 A3022 -70 90 200 140/03 RMK AO2 T01720156
13870KAMG AMG20160310022010703/10/16 02:20:31  5-MIN KAMG 100720Z AUTO 13003KT 10SM CLR 17/16 A3022 -70 93 100 140/03 RMK AO2 T01670156
13870KAMG AMG20160310022510703/10/16 02:25:31  5-MIN KAMG 100725Z AUTO 12003KT 10SM CLR 17/16 A3022 -60 93 200 130/03 RMK AO2 T01670156
13870KAMG AMG20160310023010703/10/16 02:30:31  5-MIN KAMG 100730Z AUTO 13003KT 10SM CLR 17/15 A3022 -70 90 100 130/03 RMK AO2 T01670150
13870KAMG AMG20160310023510703/10/16 02:35:31  5-MIN KAMG 100735Z AUTO 13003KT 10SM CLR 17/15 A3022 -60 90 200 140/03 RMK AO2 T01670150
13870KAMG AMG20160310024010703/10/16 02:40:31  5-MIN KAMG 100740Z AUTO 13003KT 10SM CLR 17/15 A3021 -60 90 200 130/03 RMK AO2 T01670150
13870KAMG AMG20160310024510703/10/16 02:45:31  5-MIN KAMG 100745Z AUTO 12003KT 10SM CLR 17/15 A3021 -60 90 200 130/03 RMK AO2 T01670150
13870KAMG AMG20160310025011403/10/16 02:50:31  5-MIN KAMG 100750Z AUTO 12004KT 10SM CLR 16/15 A3021 -60 93 100 130/04 RMK AO2 SLP229 T01610150
13870KAMG AMG20160310025510703/10/16 02:55:31  5-MIN KAMG 100755Z AUTO 13004KT 10SM CLR 16/15 A3022 -70 93 100 130/04 RMK AO2 T01610150
13870KAMG AMG20160310030010703/10/16 03:00:31  5-MIN KAMG 100800Z AUTO 13004KT 10SM CLR 16/15 A3022 -70 93 100 130/04 RMK AO2 T01610150
13870KAMG AMG20160310030510703/10/16 03:05:31  5-MIN KAMG 100805Z AUTO 12003KT 10SM CLR 16/15 A3021 -60 93 100 130/03 RMK AO2 T01610150
13870KAMG AMG20160310031010703/10/16 03:10:31  5-MIN KAMG 100810Z AUTO 12003KT 10SM CLR 16/15 A3021 -60 93 100 130/03 RMK AO2 T01610150
13870KAMG AMG20160310031510503/10/16 03:15:31  5-MIN KAMG 100815Z AUTO 13004KT 10SM CLR 16/15 A3021 -60 96 0 130/04 RMK AO2 T01560150
13870KAMG AMG20160310032010503/10/16 03:20:31  5-MIN KAMG 100820Z AUTO 13004KT 10SM CLR 16/15 A3021 -60 96 0 130/04 RMK AO2 T01560150
13870KAMG AMG20160310032510503/10/16 03:25:31  5-MIN KAMG 100825Z AUTO 13004KT 10SM CLR 16/15 A3021 -60 96 0 130/04 RMK AO2 T01560150
13870KAMG AMG20160310033010703/10/16 03:30:31  5-MIN KAMG 100830Z AUTO 13004KT 10SM CLR 16/15 A3021 -60 93 100 130/04 RMK AO2 T01610150
13870KAMG AMG20160310033510703/10/16 03:35:31  5-MIN KAMG 100835Z AUTO 13004KT 10SM CLR 16/15 A3021 -60 93 100 130/04 RMK AO2 T01610150
13870KAMG AMG20160310034010703/10/16 03:40:31  5-MIN KAMG 100840Z AUTO 13004KT 10SM CLR 16/15 A3021 -60 93 100 130/04 RMK AO2 T01610150
13870KAMG AMG20160310034510703/10/16 03:45:31  5-MIN KAMG 100845Z AUTO 13004KT 10SM CLR 16/15 A3021 -60 93 100 140/04 RMK AO2 T01610150
13870KAMG AMG20160310035012003/10/16 03:50:31  5-MIN KAMG 100850Z AUTO 13004KT 10SM CLR 16/15 A3021 -60 93 100 130/04 RMK AO2 SLP227 T01610150 51004
13870KAMG AMG20160310035510503/10/16 03:55:31  5-MIN KAMG 100855Z AUTO 12004KT 10SM CLR 16/15 A3021 -60 96 0 130/04 RMK AO2 T01560150
13870KAMG AMG20160310040010503/10/16 04:00:31  5-MIN KAMG 100900Z AUTO 11004KT 10SM CLR 16/15 A3021 -60 96 0 120/04 RMK AO2 T01560150
13870KAMG AMG20160310040510503/10/16 04:05:31  5-MIN KAMG 100905Z AUTO 12003KT 10SM CLR 16/15 A3021 -60 96 0 130/03 RMK AO2 T01560150
13870KAMG AMG20160310041010503/10/16 04:10:31  5-MIN KAMG 100910Z AUTO 13003KT 10SM CLR 16/15 A3021 -60 96 0 130/03 RMK AO2 T01560150
13870KAMG AMG20160310041510503/10/16 04:15:31  5-MIN KAMG 100915Z AUTO 12003KT 10SM CLR 16/15 A3021 -60 96 0 130/03 RMK AO2 T01560150
13870KAMG AMG20160310042010503/10/16 04:20:31  5-MIN KAMG 100920Z AUTO 13003KT 10SM CLR 16/15 A3021 -60 96 0 130/03 RMK AO2 T01560150
13870KAMG AMG20160310042510503/10/16 04:25:31  5-MIN KAMG 100925Z AUTO 13003KT 10SM CLR 16/15 A3021 -60 96 0 130/03 RMK AO2 T01560150
13870KAMG AMG20160310043010503/10/16 04:30:31  5-MIN KAMG 100930Z AUTO 13003KT 10SM CLR 16/15 A3021 -60 96 0 130/03 RMK AO2 T01560150
13870KAMG AMG20160310043510403/10/16 04:35:31  5-MIN KAMG 100935Z AUTO 13003KT 9SM CLR 16/15 A3020 -50 96 0 140/03 RMK AO2 T01560150
13870KAMG AMG20160310044010503/10/16 04:40:31  5-MIN KAMG 100940Z AUTO 14004KT 9SM CLR 15/15 A3021 -60 100 0 140/04 RMK AO2 T01500150
13870KAMG AMG20160310044510503/10/16 04:45:31  5-MIN KAMG 100945Z AUTO 13004KT 9SM CLR 15/15 A3021 -60 100 0 140/04 RMK AO2 T01500150
13870KAMG AMG20160310045011203/10/16 04:50:31  5-MIN KAMG 100950Z AUTO 13004KT 9SM CLR 15/15 A3021 -60 100 0 140/04 RMK AO2 SLP227 T01500150
13870KAMG AMG20160310045510503/10/16 04:55:31  5-MIN KAMG 100955Z AUTO 13004KT 9SM CLR 15/15 A3021 -60 100 0 130/04 RMK AO2 T01500150
13870KAMG AMG20160310050010503/10/16 05:00:31  5-MIN KAMG 101000Z AUTO 13004KT 9SM CLR 15/15 A3021 -60 100 0 130/04 RMK AO2 T01500150
13870KAMG AMG20160310050510503/10/16 05:05:31  5-MIN KAMG 101005Z AUTO 13004KT 9SM CLR 15/15 A3021 -60 100 0 130/04 RMK AO2 T01500150
13870KAMG AMG20160310051010403/10/16 05:10:31  5-MIN KAMG 101010Z AUTO 13004KT 9SM CLR 16/15 A3021 -60 96 0 140/04 RMK AO2 T01560150
13870KAMG AMG20160310051510403/10/16 05:15:31  5-MIN KAMG 101015Z AUTO 14004KT 9SM CLR 16/15 A3021 -60 96 0 150/04 RMK AO2 T01560150
13870KAMG AMG20160310052010403/10/16 05:20:31  5-MIN KAMG 101020Z AUTO 14004KT 9SM CLR 16/15 A3021 -60 96 0 140/04 RMK AO2 T01560150
13870KAMG AMG20160310052510403/10/16 05:25:31  5-MIN KAMG 101025Z AUTO 14004KT 9SM CLR 16/15 A3021 -60 96 0 140/04 RMK AO2 T01560150
13870KAMG AMG20160310053010403/10/16 05:30:31  5-MIN KAMG 101030Z AUTO 13004KT 9SM CLR 16/15 A3021 -60 96 0 140/04 RMK AO2 T01560150
13870KAMG AMG20160310053510403/10/16 05:35:31  5-MIN KAMG 101035Z AUTO 13004KT 9SM CLR 16/15 A3021 -60 96 0 130/04 RMK AO2 T01560150
13870KAMG AMG20160310054010403/10/16 05:40:31  5-MIN KAMG 101040Z AUTO 13004KT 9SM CLR 16/15 A3021 -60 96 0 130/04 RMK AO2 T01560150
13870KAMG AMG20160310054510403/10/16 05:45:31  5-MIN KAMG 101045Z AUTO 13004KT 9SM CLR 16/15 A3021 -60 96 0 140/04 RMK AO2 T01560150
13870KAMG AMG20160310055011103/10/16 05:50:31  5-MIN KAMG 101050Z AUTO 14004KT 9SM CLR 16/15 A3021 -60 96 0 140/04 RMK AO2 SLP228 T01560150
13870KAMG AMG20160310055510403/10/16 05:55:31  5-MIN KAMG 101055Z AUTO 14003KT 9SM CLR 16/15 A3021 -60 96 0 150/03 RMK AO2 T01560150
13870KAMG AMG20160310060010403/10/16 06:00:31  5-MIN KAMG 101100Z AUTO 14004KT 9SM CLR 16/15 A3021 -60 96 0 140/04 RMK AO2 T01560150
13870KAMG AMG20160310060510403/10/16 06:05:31  5-MIN KAMG 101105Z AUTO 14004KT 9SM CLR 16/15 A3022 -70 96 0 140/04 RMK AO2 T01560150
13870KAMG AMG20160310061010703/10/16 06:10:31  5-MIN KAMG 101110Z AUTO 15004KT 9SM FEW028 16/15 A3022 -70 96 0 150/04 RMK AO2 T01560150
13870KAMG AMG20160310061510703/10/16 06:15:31  5-MIN KAMG 101115Z AUTO 14005KT 9SM SCT032 16/15 A3022 -70 96 0 140/05 RMK AO2 T01560150
13870KAMG AMG20160310062010803/10/16 06:20:31  5-MIN KAMG 101120Z AUTO 14004KT 9SM BKN032 16/16 A3022 -70 100 0 140/04 RMK AO2 T01560156
13870KAMG AMG20160310062510803/10/16 06:25:31  5-MIN KAMG 101125Z AUTO 15004KT 9SM BKN032 16/16 A3022 -70 100 0 150/04 RMK AO2 T01560156
13870KAMG AMG20160310063010803/10/16 06:30:31  5-MIN KAMG 101130Z AUTO 15004KT 9SM BKN033 16/16 A3022 -70 100 0 160/04 RMK AO2 T01560156
13870KAMG AMG20160310063510703/10/16 06:35:31  5-MIN KAMG 101135Z AUTO 14004KT 9SM OVC033 16/15 A3022 -70 96 0 150/04 RMK AO2 T01560150
13870KAMG AMG20160310064010703/10/16 06:40:31  5-MIN KAMG 101140Z AUTO 13003KT 8SM OVC033 16/15 A3022 -70 96 0 130/03 RMK AO2 T01560150
13870KAMG AMG20160310064510703/10/16 06:45:31  5-MIN KAMG 101145Z AUTO 13004KT 8SM OVC033 16/15 A3022 -70 96 0 140/04 RMK AO2 T01560150
13870KAMG AMG20160310065013203/10/16 06:50:31  5-MIN KAMG 101150Z AUTO 13004KT 8SM BKN033 16/15 A3022 -70 96 0 140/04 RMK AO2 SLP233 T01560150 10183 20150 58004
13870KAMG AMG20160310065510703/10/16 06:55:31  5-MIN KAMG 101155Z AUTO 13004KT 8SM BKN034 16/15 A3023 -70 96 0 130/04 RMK AO2 T01560150
13870KAMG AMG20160310070010703/10/16 07:00:31  5-MIN KAMG 101200Z AUTO 13004KT 8SM SCT034 16/15 A3023 -70 96 0 130/04 RMK AO2 T01560150
13870KAMG AMG20160310070510703/10/16 07:05:31  5-MIN KAMG 101205Z AUTO 13003KT 8SM SCT034 16/15 A3023 -70 96 0 140/03 RMK AO2 T01560150
13870KAMG AMG20160310071010803/10/16 07:10:31  5-MIN KAMG 101210Z AUTO 13003KT 8SM SCT034 16/16 A3023 -80 100 0 140/03 RMK AO2 T01560156
13870KAMG AMG20160310071510803/10/16 07:15:31  5-MIN KAMG 101215Z AUTO 13003KT 8SM FEW033 16/16 A3023 -80 100 0 130/03 RMK AO2 T01560156
13870KAMG AMG20160310072010903/10/16 07:20:31  5-MIN KAMG 101220Z AUTO 13003KT 8SM FEW033 16/16 A3023 -80 96 100 130/03 RMK AO2 T01610156
13870KAMG AMG20160310072510903/10/16 07:25:31  5-MIN KAMG 101225Z AUTO 13003KT 8SM FEW033 16/16 A3023 -80 96 100 130/03 RMK AO2 T01610156
13870KAMG AMG20160310073010903/10/16 07:30:31  5-MIN KAMG 101230Z AUTO 13003KT 8SM FEW033 16/16 A3023 -80 96 100 130/03 RMK AO2 T01610156
13870KAMG AMG20160310073510603/10/16 07:35:31  5-MIN KAMG 101235Z AUTO 13004KT 9SM CLR 16/16 A3023 -80 96 100 140/04 RMK AO2 T01610156
13870KAMG AMG20160310074010603/10/16 07:40:31  5-MIN KAMG 101240Z AUTO 13004KT 9SM CLR 17/16 A3023 -80 93 100 140/04 RMK AO2 T01670156
13870KAMG AMG20160310074510703/10/16 07:45:31  5-MIN KAMG 101245Z AUTO 14005KT 10SM CLR 17/16 A3023 -80 96 100 140/05 RMK AO2 T01670161
13870KAMG AMG20160310075011403/10/16 07:50:31  5-MIN KAMG 101250Z AUTO 14006KT 10SM CLR 17/16 A3023 -80 93 200 140/06 RMK AO2 SLP236 T01720161
13870KAMG AMG20160310075510703/10/16 07:55:31  5-MIN KAMG 101255Z AUTO 14007KT 10SM CLR 17/16 A3024 -80 93 200 140/07 RMK AO2 T01720161
13870KAMG AMG20160310080010703/10/16 08:00:31  5-MIN KAMG 101300Z AUTO 14006KT 10SM CLR 17/16 A3024 -80 93 200 150/06 RMK AO2 T01720161
13870KAMG AMG20160310080510703/10/16 08:05:31  5-MIN KAMG 101305Z AUTO 15005KT 10SM CLR 17/16 A3024 -80 93 200 150/05 RMK AO2 T01720161
13870KAMG AMG20160310081010703/10/16 08:10:31  5-MIN KAMG 101310Z AUTO 15007KT 10SM CLR 17/16 A3024 -80 93 200 150/07 RMK AO2 T01720161
13870KAMG AMG20160310081510703/10/16 08:15:31  5-MIN KAMG 101315Z AUTO 15007KT 10SM CLR 18/16 A3024 -90 90 300 150/07 RMK AO2 T01780161
13870KAMG AMG20160310082010703/10/16 08:20:31  5-MIN KAMG 101320Z AUTO 15007KT 10SM CLR 18/16 A3024 -80 90 300 150/07 RMK AO2 T01780161
13870KAMG AMG20160310082511003/10/16 08:25:31  5-MIN KAMG 101325Z AUTO 15006KT 10SM FEW038 18/16 A3024 -80 87 300 150/06 RMK AO2 T01830161
13870KAMG AMG20160310083011003/10/16 08:30:31  5-MIN KAMG 101330Z AUTO 15008KT 10SM SCT038 18/16 A3024 -80 87 300 160/08 RMK AO2 T01830161
13870KAMG AMG20160310083511003/10/16 08:35:31  5-MIN KAMG 101335Z AUTO 15007KT 10SM SCT036 18/17 A3024 -90 90 300 160/07 RMK AO2 T01830167
13870KAMG AMG20160310084011003/10/16 08:40:31  5-MIN KAMG 101340Z AUTO 15007KT 10SM SCT036 18/17 A3024 -90 90 300 150/07 RMK AO2 T01830167
13870KAMG AMG20160310084511003/10/16 08:45:31  5-MIN KAMG 101345Z AUTO 15006KT 10SM SCT038 19/17 A3024 -90 87 400 150/06 RMK AO2 T01890167
13870KAMG AMG20160310085011703/10/16 08:50:31  5-MIN KAMG 101350Z AUTO 15008KT 10SM SCT038 19/17 A3024 -90 84 400 160/08 RMK AO2 SLP238 T01940167
13870KAMG AMG20160310085511003/10/16 08:55:31  5-MIN KAMG 101355Z AUTO 16009KT 10SM FEW037 19/17 A3024 -90 84 400 160/09 RMK AO2 T01940167
13870KAMG AMG20160310090011003/10/16 09:00:31  5-MIN KAMG 101400Z AUTO 15009KT 10SM FEW039 20/17 A3024 -90 81 500 150/09 RMK AO2 T02000167
13870KAMG AMG20160310090511003/10/16 09:05:31  5-MIN KAMG 101405Z AUTO 15010KT 10SM FEW039 20/17 A3024 -90 81 500 150/10 RMK AO2 T02000167
13870KAMG AMG20160310091011003/10/16 09:10:31  5-MIN KAMG 101410Z AUTO 15008KT 10SM FEW039 20/17 A3024 -90 81 500 160/08 RMK AO2 T02000167
13870KAMG AMG20160310091511003/10/16 09:15:31  5-MIN KAMG 101415Z AUTO 16007KT 10SM FEW039 21/17 A3025 -90 78 600 160/07 RMK AO2 T02060167
13870KAMG AMG20160310092011003/10/16 09:20:31  5-MIN KAMG 101420Z AUTO 15009KT 10SM SCT041 21/17 A3025 -90 81 600 160/09 RMK AO2 T02060172
13870KAMG AMG20160310092511003/10/16 09:25:31  5-MIN KAMG 101425Z AUTO 16009KT 10SM BKN041 21/17 A3024 -90 81 600 170/09 RMK AO2 T02060172
13870KAMG AMG20160310093011003/10/16 09:30:31  5-MIN KAMG 101430Z AUTO 16008KT 10SM BKN041 21/17 A3025 -90 78 600 160/08 RMK AO2 T02110172
13870KAMG AMG20160310093511003/10/16 09:35:31  5-MIN KAMG 101435Z AUTO 15008KT 10SM BKN041 21/17 A3025 -90 78 600 160/08 RMK AO2 T02110172
13870KAMG AMG20160310094011003/10/16 09:40:31  5-MIN KAMG 101440Z AUTO 16009KT 10SM OVC041 22/17 A3024 -90 75 700 170/09 RMK AO2 T02170172
13870KAMG AMG20160310094511003/10/16 09:45:31  5-MIN KAMG 101445Z AUTO 17008KT 10SM OVC041 22/17 A3025 -90 75 700 180/08 RMK AO2 T02170172
13870KAMG AMG20160310095012303/10/16 09:50:31  5-MIN KAMG 101450Z AUTO 16008KT 10SM OVC041 23/17 A3025 -90 70 800 160/08 RMK AO2 SLP240 T02280172 53006
13870KAMG AMG20160310095511603/10/16 09:55:31  5-MIN KAMG 101455Z AUTO 19010G17KT 10SM BKN041 23/17 A3025 -90 68 900 190/10G17 RMK AO2 T02330172
13870KAMG AMG20160310100011603/10/16 10:00:31  5-MIN KAMG 101500Z AUTO 16008G17KT 10SM BKN041 23/17 A3024 -90 66 900 170/08G17 RMK AO2 T02330167
13870KAMG AMG20160310100512303/10/16 10:05:31  5-MIN KAMG 101505Z AUTO 18011G14KT 10SM FEW030 BKN041 23/17 A3024 -90 66 900 180/11G14 RMK AO2 T02330167
13870KAMG AMG20160310101011703/10/16 10:10:31  5-MIN KAMG 101510Z AUTO 15014KT 10SM BKN034 BKN041 23/17 A3024 -90 66 900 160/14 RMK AO2 T02330167
13870KAMG AMG20160310101512303/10/16 10:15:31  5-MIN KAMG 101515Z AUTO 15015G21KT 10SM BKN034 BKN042 23/16 A3024 -90 65 800 150/15G21 RMK AO2 T02280161
13870KAMG AMG20160310102012303/10/16 10:20:31  5-MIN KAMG 101520Z AUTO 17015G21KT 10SM SCT030 BKN037 23/17 A3025 -90 66 900 170/15G21 RMK AO2 T02330167
13870KAMG AMG20160310102512303/10/16 10:25:31  5-MIN KAMG 101525Z AUTO 18011G20KT 10SM SCT030 BKN039 23/16 A3025 -90 63 900 180/11G20 RMK AO2 T02330161
13870KAMG AMG20160310103011703/10/16 10:30:31  5-MIN KAMG 101530Z AUTO 17016KT 10SM BKN033 BKN041 23/16 A3024 -90 63 900 170/16 RMK AO2 T02330161
13870KAMG AMG20160310103512303/10/16 10:35:31  5-MIN KAMG 101535Z AUTO 17015G21KT 10SM SCT031 BKN041 23/16 A3024 -90 63 900 180/15G21 RMK AO2 T02330161
13870KAMG AMG20160310104012303/10/16 10:40:31  5-MIN KAMG 101540Z AUTO 17012G21KT 10SM FEW031 BKN041 23/16 A3024 -80 61 900 180/12G21 RMK AO2 T02330156
13870KAMG AMG20160310104512303/10/16 10:45:31  5-MIN KAMG 101545Z AUTO 17011G21KT 10SM SCT033 BKN041 23/16 A3024 -90 63 900 180/11G21 RMK AO2 T02330161
13870KAMG AMG20160310105012503/10/16 10:50:31  5-MIN KAMG 101550Z AUTO 15012KT 10SM SCT033 BKN041 24/16 A3024 -80 61 1000 160/12 RMK AO2 SLP236 T02390161
13870KAMG AMG20160310105511703/10/16 10:55:31  5-MIN KAMG 101555Z AUTO 17017G20KT 10SM BKN036 24/16 A3024 -80 61 1000 180/17G20 RMK AO2 T02390161
13870KAMG AMG20160310110011703/10/16 11:00:31  5-MIN KAMG 101600Z AUTO 17015G20KT 10SM BKN036 24/16 A3024 -80 59 1000 180/15G20 RMK AO2 T02390156
13870KAMG AMG20160310110512403/10/16 11:05:31  5-MIN KAMG 101605Z AUTO 17014G20KT 10SM SCT036 SCT043 24/16 A3024 -90 57 1000 170/14G20 RMK AO2 T02440156
13870KAMG AMG20160310111011703/10/16 11:10:31  5-MIN KAMG 101610Z AUTO 17016G24KT 10SM SCT036 24/16 A3024 -90 57 1000 180/16G24 RMK AO2 T02440156
13870KAMG AMG20160310111512403/10/16 11:15:31  5-MIN KAMG 101615Z AUTO 16015G24KT 10SM SCT036 SCT044 25/16 A3025 -90 55 1100 170/15G24 RMK AO2 T02500156
13870KAMG AMG20160310112011703/10/16 11:20:31  5-MIN KAMG 101620Z AUTO 18012G22KT 10SM BKN040 25/16 A3024 -90 55 1100 180/12G22 RMK AO2 T02500156
13870KAMG AMG20160310112511103/10/16 11:25:31  5-MIN KAMG 101625Z AUTO 17012KT 10SM BKN040 26/16 A3024 -90 55 1100 170/12 RMK AO2 T02560161
13870KAMG AMG20160310113011703/10/16 11:30:31  5-MIN KAMG 101630Z AUTO 19016G24KT 10SM BKN042 25/15 A3024 -90 53 1100 200/16G24 RMK AO2 T02500150
13870KAMG AMG20160310113511703/10/16 11:35:31  5-MIN KAMG 101635Z AUTO 16014G24KT 10SM BKN042 25/15 A3024 -90 53 1100 170/14G24 RMK AO2 T02500150
13870KAMG AMG20160310114012403/10/16 11:40:31  5-MIN KAMG 101640Z AUTO 17015G20KT 10SM BKN040 BKN047 26/15 A3024 -90 51 1100 180/15G20 RMK AO2 T02560150
13870KAMG AMG20160310114512403/10/16 11:45:31  5-MIN KAMG 101645Z AUTO 19013G20KT 10SM BKN040 BKN047 26/15 A3024 -90 51 1100 200/13G20 RMK AO2 T02560150
13870KAMG AMG20160310115012403/10/16 11:50:31  5-MIN KAMG 101650Z AUTO 16013G20KT 10SM BKN042 26/15 A3024 -80 50 1200 160/13G20 RMK AO2 SLP237 T02610150
13870KAMG AMG20160310115511703/10/16 11:55:31  5-MIN KAMG 101655Z AUTO 19013G22KT 10SM BKN042 26/15 A3024 -80 51 1200 190/13G22 RMK AO2 T02560150
13870KAMG AMG20160310120011703/10/16 12:00:31  5-MIN KAMG 101700Z AUTO 19012G22KT 10SM BKN042 26/15 A3024 -80 51 1200 200/12G22 RMK AO2 T02560150
13870KAMG AMG20160310120511703/10/16 12:05:31  5-MIN KAMG 101705Z AUTO 16012G19KT 10SM SCT042 25/14 A3023 -80 51 1100 170/12G19 RMK AO2 T02500144
13870KAMG AMG20160310121011703/10/16 12:10:31  5-MIN KAMG 101710Z AUTO 16013G20KT 10SM BKN042 26/15 A3023 -80 51 1200 170/13G20 RMK AO2 T02560150
13870KAMG AMG20160310121511703/10/16 12:15:31  5-MIN KAMG 101715Z AUTO 20012G20KT 10SM BKN044 26/15 A3023 -80 50 1200 210/12G20 RMK AO2 T02610150
13870KAMG AMG20160310122011103/10/16 12:20:31  5-MIN KAMG 101720Z AUTO 17011KT 10SM BKN046 26/15 A3023 -70 51 1200 170/11 RMK AO2 T02560150
13870KAMG AMG20160310122511703/10/16 12:25:31  5-MIN KAMG 101725Z AUTO 18009G18KT 10SM BKN046 26/15 A3023 -70 51 1200 180/09G18 RMK AO2 T02560150
13870KAMG AMG20160310123011703/10/16 12:30:31  5-MIN KAMG 101730Z AUTO 18014G19KT 10SM BKN046 26/15 A3023 -70 50 1200 180/14G19 RMK AO2 T02610150
13870KAMG AMG20160310123511703/10/16 12:35:31  5-MIN KAMG 101735Z AUTO 18011G19KT 10SM BKN046 26/14 A3022 -70 48 1200 180/11G19 RMK AO2 T02610144
13870KAMG AMG20160310124013303/10/16 12:40:31  5-MIN KAMG 101740Z AUTO 18009G15KT 130V200 10SM BKN048 27/15 A3022 -70 48 1300 190/09G15 140V210 RMK AO2 T02670150
13870KAMG AMG20160310124511703/10/16 12:45:31  5-MIN KAMG 101745Z AUTO 18013G17KT 10SM BKN048 27/15 A3022 -70 48 1300 180/13G17 RMK AO2 T02670150
13870KAMG AMG20160310125014203/10/16 12:50:31  5-MIN KAMG 101750Z AUTO 16009G17KT 10SM BKN048 26/14 A3022 -70 48 1200 160/09G17 RMK AO2 SLP230 T02610144 10267 20156 51007
13870KAMG AMG20160310125511103/10/16 12:55:31  5-MIN KAMG 101755Z AUTO 19009KT 10SM BKN048 27/15 A3022 -60 48 1300 190/09 RMK AO2 T02670150
13870KAMG AMG20160310130011703/10/16 13:00:31  5-MIN KAMG 101800Z AUTO 20014G17KT 10SM SCT050 27/14 A3021 -60 45 1400 210/14G17 RMK AO2 T02720144
13870KAMG AMG20160310130511703/10/16 13:05:31  5-MIN KAMG 101805Z AUTO 15011G17KT 10SM SCT050 27/14 A3021 -60 45 1400 150/11G17 RMK AO2 T02720144
13870KAMG AMG20160310131011103/10/16 13:10:31  5-MIN KAMG 101810Z AUTO 19012KT 10SM SCT050 27/14 A3021 -60 46 1300 190/12 RMK AO2 T02670144
13870KAMG AMG20160310131511103/10/16 13:15:31  5-MIN KAMG 101815Z AUTO 19010KT 10SM SCT050 27/14 A3021 -60 46 1300 190/10 RMK AO2 T02670144
13870KAMG AMG20160310132011703/10/16 13:20:31  5-MIN KAMG 101820Z AUTO 17012G19KT 10SM SCT050 27/14 A3020 -50 46 1300 180/12G19 RMK AO2 T02670144
13870KAMG AMG20160310132511703/10/16 13:25:31  5-MIN KAMG 101825Z AUTO 18013G19KT 10SM SCT050 27/14 A3020 -50 46 1300 180/13G19 RMK AO2 T02670144
13870KAMG AMG20160310133011703/10/16 13:30:31  5-MIN KAMG 101830Z AUTO 16013G20KT 10SM SCT050 26/14 A3020 -50 48 1300 170/13G20 RMK AO2 T02610144
13870KAMG AMG20160310133511703/10/16 13:35:31  5-MIN KAMG 101835Z AUTO 14015G20KT 10SM SCT050 27/14 A3019 -40 46 1300 150/15G20 RMK AO2 T02670144
13870KAMG AMG20160310134011703/10/16 13:40:31  5-MIN KAMG 101840Z AUTO 16013G20KT 10SM SCT050 27/14 A3019 -40 45 1400 160/13G20 RMK AO2 T02720144
13870KAMG AMG20160310134511703/10/16 13:45:31  5-MIN KAMG 101845Z AUTO 17014G20KT 10SM SCT050 27/14 A3019 -40 46 1300 180/14G20 RMK AO2 T02670144
13870KAMG AMG20160310135012403/10/16 13:50:31  5-MIN KAMG 101850Z AUTO 16009G20KT 10SM SCT050 27/14 A3018 -40 45 1400 160/09G20 RMK AO2 SLP219 T02720144
13870KAMG AMG20160310135511703/10/16 13:55:31  5-MIN KAMG 101855Z AUTO 15015G21KT 10SM FEW050 27/14 A3018 -30 45 1400 160/15G21 RMK AO2 T02720144
13870KAMG AMG20160310140011703/10/16 14:00:31  5-MIN KAMG 101900Z AUTO 18015G21KT 10SM FEW050 27/14 A3018 -30 43 1400 190/15G21 RMK AO2 T02720139
13870KAMG AMG20160310140511703/10/16 14:05:31  5-MIN KAMG 101905Z AUTO 15012G21KT 10SM FEW050 27/14 A3017 -20 43 1400 160/12G21 RMK AO2 T02720139
13870KAMG AMG20160310141011703/10/16 14:10:31  5-MIN KAMG 101910Z AUTO 15015G21KT 10SM FEW050 27/14 A3017 -20 43 1400 160/15G21 RMK AO2 T02720139
13870KAMG AMG20160310141511403/10/16 14:15:31  5-MIN KAMG 101915Z AUTO 17011G21KT 10SM CLR 27/14 A3017 -20 43 1400 170/11G21 RMK AO2 T02720139
13870KAMG AMG20160310142011403/10/16 14:20:31  5-MIN KAMG 101920Z AUTO 18010G18KT 10SM CLR 28/14 A3017 -20 43 1500 190/10G18 RMK AO2 T02780144
13870KAMG AMG20160310142511403/10/16 14:25:31  5-MIN KAMG 101925Z AUTO 17014G20KT 10SM CLR 28/14 A3016 -20 42 1500 180/14G20 RMK AO2 T02780139
13870KAMG AMG20160310143011403/10/16 14:30:31  5-MIN KAMG 101930Z AUTO 18015G22KT 10SM CLR 27/14 A3017 -20 43 1400 180/15G22 RMK AO2 T02720139
13870KAMG AMG20160310143511403/10/16 14:35:31  5-MIN KAMG 101935Z AUTO 18013G22KT 10SM CLR 28/14 A3017 -20 42 1500 180/13G22 RMK AO2 T02780139
13870KAMG AMG20160310144011403/10/16 14:40:31  5-MIN KAMG 101940Z AUTO 17013G22KT 10SM CLR 28/14 A3016 -20 42 1500 180/13G22 RMK AO2 T02780139
13870KAMG AMG20160310144511703/10/16 14:45:31  5-MIN KAMG 101945Z AUTO 18010G18KT 10SM FEW055 28/14 A3016 -10 43 1500 180/10G18 RMK AO2 T02780144
13870KAMG AMG20160310145012403/10/16 14:50:31  5-MIN KAMG 101950Z AUTO 18013G20KT 10SM FEW055 28/14 A3016 -20 40 1600 180/13G20 RMK AO2 SLP211 T02830139
13870KAMG AMG20160310145511703/10/16 14:55:31  5-MIN KAMG 101955Z AUTO 21010G20KT 10SM FEW055 28/14 A3016 -20 42 1500 210/10G20 RMK AO2 T02780139
13870KAMG AMG20160310150011703/10/16 15:00:31  5-MIN KAMG 102000Z AUTO 20014G24KT 10SM FEW055 28/14 A3016 -10 42 1500 210/14G24 RMK AO2 T02780139
13870KAMG AMG20160310150511703/10/16 15:05:31  5-MIN KAMG 102005Z AUTO 17013G24KT 10SM FEW055 28/14 A3016 -20 42 1600 170/13G24 RMK AO2 T02830144
13870KAMG AMG20160310151011703/10/16 15:10:31  5-MIN KAMG 102010Z AUTO 20010G20KT 10SM FEW055 28/14 A3016 -10 42 1500 200/10G20 RMK AO2 T02780139
13870KAMG AMG20160310151511103/10/16 15:15:31  5-MIN KAMG 102015Z AUTO 18010KT 10SM FEW055 28/14 A3016 -10 40 1600 190/10 RMK AO2 T02830139
13870KAMG AMG20160310152011103/10/16 15:20:31  5-MIN KAMG 102020Z AUTO 15012KT 10SM FEW055 28/14 A3016 -10 42 1500 160/12 RMK AO2 T02780139
13870KAMG AMG20160310152511103/10/16 15:25:31  5-MIN KAMG 102025Z AUTO 16011KT 10SM SCT055 28/14 A3016 -10 43 1500 160/11 RMK AO2 T02780144
13870KAMG AMG20160310153011103/10/16 15:30:31  5-MIN KAMG 102030Z AUTO 19010KT 10SM FEW055 28/14 A3015 -10 42 1600 190/10 RMK AO2 T02830144
13870KAMG AMG20160310153511703/10/16 15:35:31  5-MIN KAMG 102035Z AUTO 17014G18KT 10SM SCT055 28/14 A3015 -10 40 1600 180/14G18 RMK AO2 T02830139
13870KAMG AMG20160310154011703/10/16 15:40:31  5-MIN KAMG 102040Z AUTO 18011G18KT 10SM SCT055 28/14 A3015 -10 42 1500 190/11G18 RMK AO2 T02780139
13870KAMG AMG20160310154511103/10/16 15:45:31  5-MIN KAMG 102045Z AUTO 17008KT 10SM FEW055 28/14 A3015 -10 40 1600 180/08 RMK AO2 T02830139
13870KAMG AMG20160310155013003/10/16 15:50:31  5-MIN KAMG 102050Z AUTO 17012G17KT 10SM FEW055 28/14 A3015 -10 42 1500 170/12G17 RMK AO2 SLP208 T02780139 58010
13870KAMG AMG20160310155510903/10/16 15:55:31  5-MIN KAMG 102055Z AUTO 17013KT 10SM FEW055 28/14 A3015 0 42 1500 170/13 RMK AO2 T02780139
13870KAMG AMG20160310160013303/10/16 16:00:31  5-MIN KAMG 102100Z AUTO 15007G18KT 120V180 10SM FEW055 28/14 A3015 -10 42 1500 150/07G18 130V190 RMK AO2 T02780139
13870KAMG AMG20160310160511403/10/16 16:05:31  5-MIN KAMG 102105Z AUTO 19008G18KT 10SM CLR 28/14 A3015 -10 42 1500 190/08G18 RMK AO2 T02780139
13870KAMG AMG20160310161012203/10/16 16:10:31  5-MIN KAMG 102110Z AUTO 16008KT 130V190 10SM CLR 28/14 A3015 0 42 1500 170/08 140V200 RMK AO2 T02780139
13870KAMG AMG20160310161510903/10/16 16:15:31  5-MIN KAMG 102115Z AUTO 17011KT 10SM FEW055 28/14 A3015 0 43 1500 180/11 RMK AO2 T02780144
13870KAMG AMG20160310162010903/10/16 16:20:31  5-MIN KAMG 102120Z AUTO 15010KT 10SM SCT060 28/14 A3015 0 43 1500 160/10 RMK AO2 T02780144
13870KAMG AMG20160310162510903/10/16 16:25:31  5-MIN KAMG 102125Z AUTO 16009KT 10SM SCT060 28/14 A3015 0 43 1500 160/09 RMK AO2 T02780144
13870KAMG AMG20160310163010903/10/16 16:30:31  5-MIN KAMG 102130Z AUTO 16012KT 10SM SCT060 28/14 A3015 0 40 1600 160/12 RMK AO2 T02830139
13870KAMG AMG20160310163510903/10/16 16:35:31  5-MIN KAMG 102135Z AUTO 15011KT 10SM BKN060 28/14 A3015 0 42 1500 160/11 RMK AO2 T02780139
13870KAMG AMG20160310164010903/10/16 16:40:31  5-MIN KAMG 102140Z AUTO 17007KT 10SM BKN060 28/14 A3015 0 42 1500 180/07 RMK AO2 T02780139
13870KAMG AMG20160310164511503/10/16 16:45:31  5-MIN KAMG 102145Z AUTO 19012G17KT 10SM BKN060 28/14 A3015 0 40 1600 190/12G17 RMK AO2 T02830139
13870KAMG AMG20160310165012203/10/16 16:50:31  5-MIN KAMG 102150Z AUTO 19008G17KT 10SM SCT060 28/14 A3015 0 42 1500 200/08G17 RMK AO2 SLP207 T02780139
13870KAMG AMG20160310165510903/10/16 16:55:31  5-MIN KAMG 102155Z AUTO 19010KT 10SM SCT060 27/14 A3015 0 43 1400 200/10 RMK AO2 T02720139
13870KAMG AMG20160310170010903/10/16 17:00:31  5-MIN KAMG 102200Z AUTO 20007KT 10SM SCT060 28/13 A3015 0 40 1500 200/07 RMK AO2 T02780133
13870KAMG AMG20160310170510903/10/16 17:05:31  5-MIN KAMG 102205Z AUTO 20007KT 10SM FEW060 28/13 A3015 0 40 1500 210/07 RMK AO2 T02780133
13870KAMG AMG20160310171010603/10/16 17:10:31  5-MIN KAMG 102210Z AUTO 19007KT 10SM CLR 28/14 A3015 0 42 1500 190/07 RMK AO2 T02780139
13870KAMG AMG20160310171510903/10/16 17:15:31  5-MIN KAMG 102215Z AUTO 18006KT 10SM FEW065 27/14 A3015 0 43 1400 190/06 RMK AO2 T02720139
13870KAMG AMG20160310172010903/10/16 17:20:31  5-MIN KAMG 102220Z AUTO 18007KT 10SM SCT060 27/14 A3015 0 43 1400 180/07 RMK AO2 T02720139
13870KAMG AMG20160310172510903/10/16 17:25:31  5-MIN KAMG 102225Z AUTO 17007KT 10SM SCT060 27/14 A3015 0 43 1400 180/07 RMK AO2 T02720139
13870KAMG AMG20160310173010903/10/16 17:30:31  5-MIN KAMG 102230Z AUTO 18010KT 10SM FEW060 27/14 A3015 0 43 1400 180/10 RMK AO2 T02720139
13870KAMG AMG20160310173511103/10/16 17:35:31  5-MIN KAMG 102235Z AUTO 18008KT 10SM FEW060 27/14 A3015 -10 45 1400 190/08 RMK AO2 T02670139
13870KAMG AMG20160310174010903/10/16 17:40:31  5-MIN KAMG 102240Z AUTO 18006KT 10SM FEW060 27/14 A3015 0 45 1400 190/06 RMK AO2 T02670139
13870KAMG AMG20160310174511103/10/16 17:45:31  5-MIN KAMG 102245Z AUTO 18006KT 10SM FEW060 27/14 A3015 -10 45 1400 190/06 RMK AO2 T02670139
13870KAMG AMG20160310175011503/10/16 17:50:31  5-MIN KAMG 102250Z AUTO 18006KT 10SM CLR 27/14 A3015 -10 45 1400 180/06 RMK AO2 SLP209 T02670139
13870KAMG AMG20160310175510803/10/16 17:55:31  5-MIN KAMG 102255Z AUTO 18006KT 10SM CLR 26/14 A3015 -10 46 1300 180/06 RMK AO2 T02610139
13870KAMG AMG20160310180010803/10/16 18:00:31  5-MIN KAMG 102300Z AUTO 18006KT 10SM CLR 26/14 A3015 -10 46 1300 180/06 RMK AO2 T02610139
13870KAMG AMG20160310180510803/10/16 18:05:31  5-MIN KAMG 102305Z AUTO 18006KT 10SM CLR 26/14 A3015 -10 48 1200 180/06 RMK AO2 T02560139
13870KAMG AMG20160310181011103/10/16 18:10:31  5-MIN KAMG 102310Z AUTO 17005KT 10SM FEW065 26/14 A3016 -10 48 1200 180/05 RMK AO2 T02560139
13870KAMG AMG20160310181511103/10/16 18:15:31  5-MIN KAMG 102315Z AUTO 17005KT 10SM FEW065 25/14 A3016 -10 51 1200 180/05 RMK AO2 T02500144
13870KAMG AMG20160310182011103/10/16 18:20:31  5-MIN KAMG 102320Z AUTO 16004KT 10SM SCT065 25/14 A3015 -10 51 1200 160/04 RMK AO2 T02500144
13870KAMG AMG20160310182511103/10/16 18:25:31  5-MIN KAMG 102325Z AUTO 15004KT 10SM SCT065 24/14 A3015 -10 53 1100 150/04 RMK AO2 T02440144
13870KAMG AMG20160310183011103/10/16 18:30:31  5-MIN KAMG 102330Z AUTO 15003KT 10SM BKN065 24/14 A3016 -10 53 1100 150/03 RMK AO2 T02440144
13870KAMG AMG20160310183511103/10/16 18:35:31  5-MIN KAMG 102335Z AUTO 15003KT 10SM BKN070 24/14 A3016 -10 55 1100 150/03 RMK AO2 T02390144
13870KAMG AMG20160310184011103/10/16 18:40:31  5-MIN KAMG 102340Z AUTO 14003KT 10SM BKN070 24/14 A3016 -10 55 1100 150/03 RMK AO2 T02390144
13870KAMG AMG20160310184511103/10/16 18:45:31  5-MIN KAMG 102345Z AUTO 15003KT 10SM BKN070 23/14 A3016 -10 57 1000 150/03 RMK AO2 T02330144
13870KAMG AMG20160310185013603/10/16 18:50:31  5-MIN KAMG 102350Z AUTO 15003KT 10SM SCT070 23/14 A3016 -10 57 1000 160/03 RMK AO2 SLP210 T02330144 10283 20233 56022
13870KAMG AMG20160310185511003/10/16 18:55:31  5-MIN KAMG 102355Z AUTO 14003KT 10SM BKN065 23/14 A3016 -10 59 900 140/03 RMK AO2 T02280144
13870KAMG AMG20160310190011003/10/16 19:00:31  5-MIN KAMG 110000Z AUTO 12004KT 10SM BKN065 22/15 A3016 -10 63 900 130/04 RMK AO2 T02220150
13870KAMG AMG20160310190511003/10/16 19:05:31  5-MIN KAMG 110005Z AUTO 11006KT 10SM BKN065 22/15 A3016 -10 63 900 110/06 RMK AO2 T02220150
13870KAMG AMG20160310191011103/10/16 19:10:31  5-MIN KAMG 110010Z AUTO 11007KT 10SM BKN065 23/16 A3016 -10 63 1000 120/07 RMK AO2 T02330161
13870KAMG AMG20160310191511103/10/16 19:15:31  5-MIN KAMG 110015Z AUTO 12008KT 10SM BKN065 23/17 A3016 -20 66 1000 120/08 RMK AO2 T02330167
13870KAMG AMG20160310192011103/10/16 19:20:31  5-MIN KAMG 110020Z AUTO 11005KT 10SM BKN065 23/17 A3017 -20 68 1000 110/05 RMK AO2 T02330172
13870KAMG AMG20160310192511103/10/16 19:25:31  5-MIN KAMG 110025Z AUTO 10005KT 10SM BKN065 23/17 A3016 -20 68 1000 110/05 RMK AO2 T02330172
13870KAMG AMG20160310193011003/10/16 19:30:31  5-MIN KAMG 110030Z AUTO 11005KT 10SM SCT065 23/17 A3017 -20 70 900 120/05 RMK AO2 T02280172
13870KAMG AMG20160310193511003/10/16 19:35:31  5-MIN KAMG 110035Z AUTO 12006KT 10SM FEW065 23/17 A3017 -20 70 900 120/06 RMK AO2 T02280172
13870KAMG AMG20160310194011003/10/16 19:40:31  5-MIN KAMG 110040Z AUTO 12004KT 10SM FEW065 23/17 A3017 -30 70 900 130/04 RMK AO2 T02280172
13870KAMG AMG20160310194510703/10/16 19:45:31  5-MIN KAMG 110045Z AUTO 12007KT 10SM CLR 23/17 A3018 -30 70 900 130/07 RMK AO2 T02280172
13870KAMG AMG20160310195011703/10/16 19:50:31  5-MIN KAMG 110050Z AUTO 12006KT 10SM FEW065 23/17 A3018 -30 70 900 120/06 RMK AO2 SLP217 T02280172
13870KAMG AMG20160310195511003/10/16 19:55:31  5-MIN KAMG 110055Z AUTO 13007KT 10SM FEW065 23/17 A3018 -30 70 900 130/07 RMK AO2 T02280172
13870KAMG AMG20160310200011003/10/16 20:00:31  5-MIN KAMG 110100Z AUTO 12006KT 10SM FEW065 22/17 A3018 -40 73 800 130/06 RMK AO2 T02220172
13870KAMG AMG20160310200511003/10/16 20:05:31  5-MIN KAMG 110105Z AUTO 12006KT 10SM FEW065 22/17 A3018 -40 73 800 120/06 RMK AO2 T02220172
13870KAMG AMG20160310201011003/10/16 20:10:31  5-MIN KAMG 110110Z AUTO 13007KT 10SM FEW065 22/17 A3019 -40 73 800 130/07 RMK AO2 T02220172
13870KAMG AMG20160310201511003/10/16 20:15:31  5-MIN KAMG 110115Z AUTO 12006KT 10SM FEW065 22/17 A3019 -40 73 800 130/06 RMK AO2 T02220172
13870KAMG AMG20160310202011003/10/16 20:20:31  5-MIN KAMG 110120Z AUTO 12006KT 10SM FEW065 22/17 A3019 -40 75 800 120/06 RMK AO2 T02170172
13870KAMG AMG20160310202511003/10/16 20:25:31  5-MIN KAMG 110125Z AUTO 12005KT 10SM FEW065 22/17 A3019 -40 75 800 120/05 RMK AO2 T02170172
13870KAMG AMG20160310203010703/10/16 20:30:31  5-MIN KAMG 110130Z AUTO 12006KT 10SM CLR 22/17 A3019 -40 75 800 120/06 RMK AO2 T02170172
13870KAMG AMG20160310203510703/10/16 20:35:31  5-MIN KAMG 110135Z AUTO 12005KT 10SM CLR 22/17 A3019 -40 75 800 120/05 RMK AO2 T02170172
13870KAMG AMG20160310204010703/10/16 20:40:31  5-MIN KAMG 110140Z AUTO 12005KT 10SM CLR 22/17 A3019 -40 75 800 120/05 RMK AO2 T02170172
13870KAMG AMG20160310204510703/10/16 20:45:31  5-MIN KAMG 110145Z AUTO 12005KT 10SM CLR 21/17 A3019 -40 78 700 120/05 RMK AO2 T02110172
13870KAMG AMG20160310205011403/10/16 20:50:31  5-MIN KAMG 110150Z AUTO 12005KT 10SM CLR 21/17 A3019 -50 78 700 120/05 RMK AO2 SLP222 T02110172
13870KAMG AMG20160310205510703/10/16 20:55:31  5-MIN KAMG 110155Z AUTO 13005KT 10SM CLR 21/17 A3019 -50 78 700 130/05 RMK AO2 T02110172
13870KAMG AMG20160310210010703/10/16 21:00:31  5-MIN KAMG 110200Z AUTO 12005KT 10SM CLR 21/17 A3020 -50 78 700 130/05 RMK AO2 T02110172
13870KAMG AMG20160310210510703/10/16 21:05:31  5-MIN KAMG 110205Z AUTO 12004KT 10SM CLR 21/17 A3020 -50 78 700 130/04 RMK AO2 T02110172
13870KAMG AMG20160310211010703/10/16 21:10:31  5-MIN KAMG 110210Z AUTO 13004KT 10SM CLR 21/17 A3020 -50 78 700 130/04 RMK AO2 T02110172
13870KAMG AMG20160310211510703/10/16 21:15:31  5-MIN KAMG 110215Z AUTO VRB05KT 10SM CLR 21/17 A3020 -50 78 700 VRB/05 RMK AO2 T02110172
13870KAMG AMG20160310212011403/10/16 21:20:31  5-MIN KAMG 110220Z AUTO 25009KT 10SM CLR 21/17 A3022 -70 81 600 260/09 RMK AO2 PRESRR T02060172
13870KAMG AMG20160310212511703/10/16 21:25:31  5-MIN KAMG 110225Z AUTO 00000KT 10SM FEW040 SCT060 21/17 A3021 -60 81 600 000/00 RMK AO2 T02060172
13870KAMG AMG20160310213011703/10/16 21:30:31  5-MIN KAMG 110230Z AUTO 21003KT 10SM FEW042 BKN060 21/17 A3022 -70 81 600 220/03 RMK AO2 T02060172
13870KAMG AMG20160310213511703/10/16 21:35:31  5-MIN KAMG 110235Z AUTO 23003KT 10SM FEW046 BKN060 21/17 A3022 -70 81 600 230/03 RMK AO2 T02060172
13870KAMG AMG20160310214011703/10/16 21:40:31  5-MIN KAMG 110240Z AUTO 00000KT 10SM SCT048 BKN060 21/17 A3022 -70 81 600 000/00 RMK AO2 T02060172
13870KAMG AMG20160310214511703/10/16 21:45:31  5-MIN KAMG 110245Z AUTO 00000KT 10SM BKN048 OVC060 20/17 A3023 -70 84 500 000/00 RMK AO2 T02000172
13870KAMG AMG20160310215013003/10/16 21:50:31  5-MIN KAMG 110250Z AUTO 00000KT 10SM BKN048 OVC060 20/17 A3023 -80 84 500 000/00 RMK AO2 SLP234 T02000172 53003
13870KAMG AMG20160310215511703/10/16 21:55:31  5-MIN KAMG 110255Z AUTO 20003KT 10SM BKN048 OVC060 19/17 A3023 -80 87 500 200/03 RMK AO2 T01940172
13870KAMG AMG20160310220011703/10/16 22:00:31  5-MIN KAMG 110300Z AUTO 19003KT 10SM BKN050 OVC060 19/17 A3023 -80 87 500 190/03 RMK AO2 T01940172
13870KAMG AMG20160310220511703/10/16 22:05:31  5-MIN KAMG 110305Z AUTO 19003KT 10SM BKN048 OVC060 19/17 A3023 -80 90 400 190/03 RMK AO2 T01890172
13870KAMG AMG20160310221011003/10/16 22:10:31  5-MIN KAMG 110310Z AUTO 16003KT 10SM OVC048 19/17 A3023 -80 90 400 170/03 RMK AO2 T01890172
13870KAMG AMG20160310221511003/10/16 22:15:31  5-MIN KAMG 110315Z AUTO 14003KT 10SM OVC050 19/17 A3023 -80 90 400 150/03 RMK AO2 T01890172
13870KAMG AMG20160310222011703/10/16 22:20:31  5-MIN KAMG 110320Z AUTO 14003KT 10SM BKN050 BKN060 18/17 A3024 -80 93 300 150/03 RMK AO2 T01830172
13870KAMG AMG20160310222511703/10/16 22:25:31  5-MIN KAMG 110325Z AUTO 14003KT 10SM BKN050 BKN060 18/17 A3024 -90 93 300 150/03 RMK AO2 T01830172
13870KAMG AMG20160310223011703/10/16 22:30:31  5-MIN KAMG 110330Z AUTO 00000KT 10SM SCT050 BKN060 19/17 A3024 -90 90 400 000/00 RMK AO2 T01890172
13870KAMG AMG20160310223511003/10/16 22:35:31  5-MIN KAMG 110335Z AUTO 15003KT 10SM SCT050 19/17 A3024 -90 90 400 150/03 RMK AO2 T01890172
13870KAMG AMG20160310224011003/10/16 22:40:31  5-MIN KAMG 110340Z AUTO 13004KT 10SM FEW055 18/17 A3024 -90 93 300 130/04 RMK AO2 T01830172
13870KAMG AMG20160310224511003/10/16 22:45:31  5-MIN KAMG 110345Z AUTO 13004KT 10SM FEW055 18/17 A3024 -90 93 300 140/04 RMK AO2 T01780167
13870KAMG AMG20160310225011703/10/16 22:50:31  5-MIN KAMG 110350Z AUTO 13003KT 10SM FEW060 18/17 A3024 -90 93 300 140/03 RMK AO2 SLP238 T01780167
13870KAMG AMG20160310225510703/10/16 22:55:31  5-MIN KAMG 110355Z AUTO 14003KT 10SM CLR 18/17 A3024 -90 93 300 150/03 RMK AO2 T01830172
13870KAMG AMG20160310230010703/10/16 23:00:31  5-MIN KAMG 110400Z AUTO 00000KT 10SM CLR 18/17 A3024 -90 93 200 000/00 RMK AO2 T01780167
13870KAMG AMG20160310230510703/10/16 23:05:31  5-MIN KAMG 110405Z AUTO 00000KT 10SM CLR 18/17 A3024 -90 93 200 000/00 RMK AO2 T01780167
13870KAMG AMG20160310231010703/10/16 23:10:31  5-MIN KAMG 110410Z AUTO 00000KT 10SM CLR 18/17 A3025 -90 93 200 000/00 RMK AO2 T01780167
13870KAMG AMG20160310231510703/10/16 23:15:31  5-MIN KAMG 110415Z AUTO 00000KT 10SM CLR 18/17 A3025 -90 93 200 000/00 RMK AO2 T01780167
13870KAMG AMG20160310232010703/10/16 23:20:31  5-MIN KAMG 110420Z AUTO 00000KT 10SM CLR 18/17 A3024 -90 93 200 000/00 RMK AO2 T01780167
13870KAMG AMG20160310232510603/10/16 23:25:31  5-MIN KAMG 110425Z AUTO 00000KT 9SM CLR 17/17 A3024 -90 96 200 000/00 RMK AO2 T01720167
13870KAMG AMG20160310233010603/10/16 23:30:31  5-MIN KAMG 110430Z AUTO 00000KT 8SM CLR 17/16 A3024 -90 93 200 000/00 RMK AO2 T01720161
13870KAMG AMG20160310233510603/10/16 23:35:31  5-MIN KAMG 110435Z AUTO 11003KT 8SM CLR 17/16 A3024 -90 96 100 110/03 RMK AO2 T01670161
13870KAMG AMG20160310234010703/10/16 23:40:31  5-MIN KAMG 110440Z AUTO 00000KT 8SM CLR 16/16 A3024 -90 100 100 000/00 RMK AO2 T01610161
13870KAMG AMG20160310234510503/10/16 23:45:31  5-MIN KAMG 110445Z AUTO 00000KT 8SM CLR 16/16 A3024 -90 100 0 000/00 RMK AO2 T01560156
13870KAMG AMG20160310235012303/10/16 23:50:31  5-MIN KAMG 110450Z AUTO 00000KT 7SM CLR 17/16 A3024 -90 93 100 000/00 RMK AO2 SLP238 T01670156 402830150
13870KAMG AMG20160310235510703/10/16 23:55:31  5-MIN KAMG 110455Z AUTO 00000KT 7SM CLR 16/16 A3024 -90 100 100 000/00 RMK AO2 T01610161
13870KAMG AMG20160311000010603/11/16 00:00:31  5-MIN KAMG 110500Z AUTO 00000KT 7SM CLR 16/16 A3024 -90 96 100 000/00 RMK AO2 T01610156
13870KAMG AMG20160311000510903/11/16 00:05:31  5-MIN KAMG 110505Z AUTO 00000KT 6SM BR CLR 16/16 A3024 -90 96 100 000/00 RMK AO2 T01610156
13870KAMG AMG20160311001010803/11/16 00:10:31  5-MIN KAMG 110510Z AUTO 00000KT 5SM BR CLR 16/16 A3024 -90 100 0 000/00 RMK AO2 T01560156
13870KAMG AMG20160311001510903/11/16 00:15:31  5-MIN KAMG 110515Z AUTO 00000KT 6SM BR CLR 16/16 A3024 -90 96 100 000/00 RMK AO2 T01610156
13870KAMG AMG20160311002010803/11/16 00:20:31  5-MIN KAMG 110520Z AUTO 10003KT 6SM BR CLR 16/16 A3024 -90 100 0 110/03 RMK AO2 T01560156
13870KAMG AMG20160311002510703/11/16 00:25:31  5-MIN KAMG 110525Z AUTO 00000KT 6SM BR CLR 16/16 A3025 -90 96 0 000/00 RMK AO2 T01610156
13870KAMG AMG20160311003010803/11/16 00:30:31  5-MIN KAMG 110530Z AUTO 00000KT 5SM BR CLR 16/16 A3025 -90 100 0 000/00 RMK AO2 T01560156
13870KAMG AMG20160311003510803/11/16 00:35:31  5-MIN KAMG 110535Z AUTO 00000KT 4SM BR CLR 16/16 A3025 -100 96 0 000/00 RMK AO2 T01610156
13870KAMG AMG20160311004010803/11/16 00:40:31  5-MIN KAMG 110540Z AUTO 00000KT 6SM BR CLR 16/16 A3025 -100 96 0 000/00 RMK AO2 T01610156
13870KAMG AMG20160311004510703/11/16 00:45:31  5-MIN KAMG 110545Z AUTO 00000KT 8SM CLR 17/16 A3025 -100 96 100 000/00 RMK AO2 T01670161
13870KAMG AMG20160311005013103/11/16 00:50:31  5-MIN KAMG 110550Z AUTO 00000KT 9SM CLR 16/16 A3025 -100 100 0 000/00 RMK AO2 SLP242 T01610161 10233 20156 53022
13870KAMG AMG20160311005510603/11/16 00:55:31  5-MIN KAMG 110555Z AUTO 00000KT 9SM CLR 16/16 A3025 -100 100 0 000/00 RMK AO2 T01610161
13870KAMG AMG20160311010010603/11/16 01:00:31  5-MIN KAMG 110600Z AUTO 00000KT 8SM CLR 16/16 A3025 -100 100 0 000/00 RMK AO2 T01610161
13870KAMG AMG20160311010510503/11/16 01:05:31  5-MIN KAMG 110605Z AUTO 00000KT 7SM CLR 16/16 A3025 -100 96 0 000/00 RMK AO2 T01610156
13870KAMG AMG20160311011010903/11/16 01:10:31  5-MIN KAMG 110610Z AUTO 00000KT 6SM BR CLR 16/16 A3025 -100 100 0 000/00 RMK AO2 T01560156
13870KAMG AMG20160311011510803/11/16 01:15:31  5-MIN KAMG 110615Z AUTO 00000KT 4SM BR CLR 16/16 A3025 -100 96 0 000/00 RMK AO2 T01610156
13870KAMG AMG20160311012012803/11/16 01:20:31  5-MIN KAMG 110620Z AUTO 00000KT 2 1/2SM BR FEW048 16/16 A3025 -100 100 0 000/00 RMK AO2 VIS 1 1/2V4 T01560156
13870KAMG AMG20160311012512503/11/16 01:25:31  5-MIN KAMG 110625Z AUTO 00000KT 1 1/2SM BR SCT039 16/16 A3025 -100 96 0 000/00 RMK AO2 VIS 1/2V4 T01610156
13870KAMG AMG20160311013012203/11/16 01:30:31  5-MIN KAMG 110630Z AUTO 00000KT 1SM BR SCT036 16/16 A3025 -100 100 0 000/00 RMK AO2 VIS 1/2V5 T01560156
13870KAMG AMG20160311013512303/11/16 01:35:31  5-MIN KAMG 110635Z AUTO 00000KT 1 1/2SM BR SCT036 BKN055 16/16 A3025 -100 100 0 000/00 RMK AO2 T01560156
13870KAMG AMG20160311014013403/11/16 01:40:31  5-MIN KAMG 110640Z AUTO 00000KT 2 1/2SM BR FEW038 BKN055 16/15 A3025 -100 96 0 000/00 RMK AO2 VIS 1 1/4V5 T01560150
13870KAMG AMG20160311014511903/11/16 01:45:31  5-MIN KAMG 110645Z AUTO 00000KT 3SM BR FEW038 BKN055 16/16 A3025 -100 100 0 000/00 RMK AO2 T01560156
13870KAMG AMG20160311015010503/11/16 01:50:31  5-MIN KAMG 110650Z AUTO 00000KT 7SM FEW040 BKN055 16/15 A3025 -100 96 0 000/00 RMK AO2
13870KAMG AMG20160311015511603/11/16 01:55:31  5-MIN KAMG 110655Z AUTO 00000KT 7SM FEW045 BKN055 16/16 A3026 -100 100 0 000/00 RMK AO2 T01560156
13870KAMG AMG20160311020011203/11/16 02:00:31  5-MIN KAMG 110700Z AUTO 00000KT 6SM BR BKN055 16/16 A3026 -100 100 0 000/00 RMK AO2 T01560156
13870KAMG AMG20160311020511203/11/16 02:05:31  5-MIN KAMG 110705Z AUTO 00000KT 6SM BR BKN055 16/16 A3026 -100 100 0 000/00 RMK AO2 T01560156
13870KAMG AMG20160311021010803/11/16 02:10:31  5-MIN KAMG 110710Z AUTO 35003KT 7SM BKN055 16/16 A3025 -100 96 0 360/03 RMK AO2 T01610156
13870KAMG AMG20160311021510803/11/16 02:15:31  5-MIN KAMG 110715Z AUTO 00000KT 7SM OVC055 16/16 A3025 -100 96 0 000/00 RMK AO2 T01610156
13870KAMG AMG20160311022011203/11/16 02:20:31  5-MIN KAMG 110720Z AUTO 00000KT 6SM BR OVC055 16/16 A3025 -100 100 0 000/00 RMK AO2 T01610161
13870KAMG AMG20160311022511203/11/16 02:25:31  5-MIN KAMG 110725Z AUTO 00000KT 6SM BR OVC055 16/16 A3025 -100 100 0 000/00 RMK AO2 T01560156
13870KAMG AMG20160311023011203/11/16 02:30:31  5-MIN KAMG 110730Z AUTO 00000KT 4SM BR OVC055 16/16 A3025 -100 100 0 000/00 RMK AO2 T01560156
13870KAMG AMG20160311023511203/11/16 02:35:31  5-MIN KAMG 110735Z AUTO 00000KT 2SM BR OVC050 16/16 A3025 -100 100 0 000/00 RMK AO2 T01560156
13870KAMG AMG20160311024012303/11/16 02:40:31  5-MIN KAMG 110740Z AUTO 00000KT 1 3/4SM BR BKN050 OVC060 16/16 A3025 -100 100 0 000/00 RMK AO2 T01560156
13870KAMG AMG20160311024512703/11/16 02:45:31  5-MIN KAMG 110745Z AUTO 00000KT 2SM BR BKN050 OVC060 16/16 A3025 -100 100 0 000/00 RMK AO2 VIS 1V5 T01560156
13870KAMG AMG20160311025010403/11/16 02:50:31  5-MIN KAMG 110750Z AUTO 00000KT 2 1/2SM BR OVC055 16/15 A3025 -90 96 0 000/00 RMK AO2
13870KAMG AMG20160311025511803/11/16 02:55:31  5-MIN KAMG 110755Z AUTO 00000KT 3SM BR SCT049 OVC060 15/15 A3025 -90 100 0 000/00 RMK AO2 T01500150
13870KAMG AMG20160311030012503/11/16 03:00:31  5-MIN KAMG 110800Z AUTO 00000KT 1 1/2SM BR SCT046 OVC060 14/14 A3024 -90 100 -100 000/00 RMK AO2 T01440144
13870KAMG AMG20160311030512303/11/16 03:05:31  5-MIN KAMG 110805Z AUTO 00000KT 1/2SM FG SCT041 OVC060 14/14 A3024 -90 100 -100 000/00 RMK AO2 T01440144
13870KAMG AMG20160311031011903/11/16 03:10:31  5-MIN KAMG 110810Z AUTO 00000KT 1/4SM FG BKN037 OVC060 15/14 A3024 -90 96 0 000/00 RMK AO2 T01500144
13870KAMG AMG20160311031512003/11/16 03:15:31  5-MIN KAMG 110815Z AUTO 00000KT 1/2SM FG BKN037 OVC060 15/15 A3024 -90 100 0 000/00 RMK AO2 T01500150
13870KAMG AMG20160311032011703/11/16 03:20:31  5-MIN KAMG 110820Z AUTO 00000KT 1SM BR BKN037 OVC060 15/14 A3024 -80 96 0 000/00 RMK AO2 T01500144
13870KAMG AMG20160311032512503/11/16 03:25:31  5-MIN KAMG 110825Z AUTO 00000KT 1SM BR OVC037 15/15 A3023 -80 100 0 000/00 RMK AO2 VIS 3/4V1 3/4 T01500150
13870KAMG AMG20160311033011603/11/16 03:30:31  5-MIN KAMG 110830Z AUTO 00000KT 1/2SM FG OVC037 14/14 A3023 -80 100 -100 000/00 RMK AO2 T01440144
13870KAMG AMG20160311033511303/11/16 03:35:31  5-MIN KAMG 110835Z AUTO 00000KT 1/2SM FG OVC037 15/15 A3022 -70 100 0 000/00 RMK AO2 T01500150
13870KAMG AMG20160311034011603/11/16 03:40:31  5-MIN KAMG 110840Z AUTO 00000KT 3/4SM BR OVC036 14/14 A3022 -70 100 -100 000/00 RMK AO2 T01440144
13870KAMG AMG20160311034511803/11/16 03:45:31  5-MIN KAMG 110845Z AUTO 00000KT 1 1/4SM BR OVC038 14/14 A3022 -70 100 -100 000/00 RMK AO2 T01440144
13870KAMG AMG20160311035014503/11/16 03:50:31  5-MIN KAMG 110850Z AUTO 00000KT 1 1/4SM BR OVC038 14/14 A3022 -70 100 -100 000/00 RMK AO2 VIS 1/2V2 1/2 SLP230 T01390139 58013
13870KAMG AMG20160311035511503/11/16 03:55:31  5-MIN KAMG 110855Z AUTO 00000KT 3/4SM BR OVC036 14/14 A3022 -60 96 -100 000/00 RMK AO2 T01440139
13870KAMG AMG20160311040011603/11/16 04:00:31  5-MIN KAMG 110900Z AUTO 00000KT 3/4SM BR OVC036 14/14 A3022 -70 100 -100 000/00 RMK AO2 T01390139
13870KAMG AMG20160311040511603/11/16 04:05:31  5-MIN KAMG 110905Z AUTO 00000KT 1/2SM FG OVC036 14/14 A3021 -60 100 -100 000/00 RMK AO2 T01390139
13870KAMG AMG20160311041011603/11/16 04:10:31  5-MIN KAMG 110910Z AUTO 00000KT 1/2SM FG OVC036 14/14 A3021 -60 100 -100 000/00 RMK AO2 T01390139
13870KAMG AMG20160311041511603/11/16 04:15:31  5-MIN KAMG 110915Z AUTO 00000KT 1/2SM FG OVC036 14/14 A3021 -60 100 -100 000/00 RMK AO2 T01390139
13870KAMG AMG20160311042011603/11/16 04:20:31  5-MIN KAMG 110920Z AUTO 00000KT 1/2SM FG OVC034 14/14 A3021 -60 100 -100 000/00 RMK AO2 T01390139
13870KAMG AMG20160311042511803/11/16 04:25:31  5-MIN KAMG 110925Z AUTO 00000KT 1 1/2SM BR OVC036 14/14 A3021 -60 100 -100 000/00 RMK AO2 T01440144
13870KAMG AMG20160311043011403/11/16 04:30:31  5-MIN KAMG 110930Z AUTO 00000KT 6SM BR OVC040 14/14 A3021 -60 100 -100 000/00 RMK AO2 T01440144
13870KAMG AMG20160311043510803/11/16 04:35:31  5-MIN KAMG 110935Z AUTO 00000KT 8SM OVC042 14/14 A3020 -50 100 0 000/00 RMK AO2 T01440144
13870KAMG AMG20160311044010803/11/16 04:40:31  5-MIN KAMG 110940Z AUTO 00000KT 8SM OVC042 14/14 A3020 -50 100 0 000/00 RMK AO2 T01440144
13870KAMG AMG20160311044511403/11/16 04:45:31  5-MIN KAMG 110945Z AUTO 00000KT 6SM BR OVC040 14/14 A3020 -50 100 -100 000/00 RMK AO2 T01390139
13870KAMG AMG20160311045011703/11/16 04:50:31  5-MIN KAMG 110950Z AUTO 00000KT 5SM BR OVC040 14/14 A3020 -50 96 0 000/00 RMK AO2 SLP225 T01440139
13870KAMG AMG20160311045511403/11/16 04:55:31  5-MIN KAMG 110955Z AUTO 00000KT 6SM BR OVC040 14/14 A3020 -50 100 -100 000/00 RMK AO2 T01390139
13870KAMG AMG20160311050011103/11/16 05:00:31  5-MIN KAMG 111000Z AUTO 00000KT 8SM OVC040 14/14 A3020 -50 100 -100 000/00 RMK AO2 T01390139
13870KAMG AMG20160311050511103/11/16 05:05:31  5-MIN KAMG 111005Z AUTO 00000KT 5SM BR OVC040 14/14 A3020 -50 100 0 000/00 RMK AO2 T01440144
13870KAMG AMG20160311051011603/11/16 05:10:31  5-MIN KAMG 111010Z AUTO 00000KT 3/4SM BR OVC038 14/14 A3020 -50 100 -100 000/00 RMK AO2 T01390139
13870KAMG AMG20160311051511603/11/16 05:15:31  5-MIN KAMG 111015Z AUTO 00000KT 1/2SM FG OVC036 13/13 A3019 -50 100 -200 000/00 RMK AO2 T01330133
13870KAMG AMG20160311052011603/11/16 05:20:31  5-MIN KAMG 111020Z AUTO 00000KT 1/2SM FG OVC034 13/13 A3019 -50 100 -200 000/00 RMK AO2 T01330133
13870KAMG AMG20160311052511603/11/16 05:25:31  5-MIN KAMG 111025Z AUTO 00000KT 1/4SM FG OVC032 13/13 A3019 -40 100 -200 000/00 RMK AO2 T01330133
13870KAMG AMG20160311053011603/11/16 05:30:31  5-MIN KAMG 111030Z AUTO 00000KT 1/4SM FG OVC030 13/13 A3019 -50 100 -200 000/00 RMK AO2 T01280128
13870KAMG AMG20160311053511603/11/16 05:35:31  5-MIN KAMG 111035Z AUTO 00000KT 1/2SM FG OVC030 13/13 A3020 -50 100 -200 000/00 RMK AO2 T01330133
13870KAMG AMG20160311054011603/11/16 05:40:31  5-MIN KAMG 111040Z AUTO 00000KT 1/2SM FG OVC030 14/14 A3020 -50 100 -100 000/00 RMK AO2 T01390139
13870KAMG AMG20160311054511603/11/16 05:45:31  5-MIN KAMG 111045Z AUTO 00000KT 3/4SM BR OVC032 14/14 A3020 -50 100 -100 000/00 RMK AO2 T01390139
13870KAMG AMG20160311055010403/11/16 05:50:31  5-MIN KAMG 111050Z AUTO 00000KT 1SM BR OVC032 14/14 A3020 -50 100 -100 000/00 RMK AO2
13870KAMG AMG20160311055511403/11/16 05:55:31  5-MIN KAMG 111055Z AUTO 00000KT 1SM BR OVC032 14/14 A3020 -50 100 -100 000/00 RMK AO2 T01390139
13870KAMG AMG20160311060011403/11/16 06:00:31  5-MIN KAMG 111100Z AUTO 00000KT 1SM BR OVC034 14/14 A3020 -50 100 -100 000/00 RMK AO2 T01390139
13870KAMG AMG20160311060511803/11/16 06:05:31  5-MIN KAMG 111105Z AUTO 00000KT 1 3/4SM BR OVC034 14/14 A3020 -50 100 -100 000/00 RMK AO2 T01390139
13870KAMG AMG20160311061013003/11/16 06:10:31  5-MIN KAMG 111110Z AUTO 00000KT 2 1/2SM BR OVC035 14/14 A3021 -60 100 -100 000/00 RMK AO2 VIS 1 1/2V4 T01390139
13870KAMG AMG20160311061511103/11/16 06:15:31  5-MIN KAMG 111115Z AUTO 00000KT 1SM BR OVC035 14/14 A3020 -50 100 0 000/00 RMK AO2 T01440144
13870KAMG AMG20160311062011603/11/16 06:20:31  5-MIN KAMG 111120Z AUTO 00000KT 1/2SM FG OVC033 13/13 A3021 -60 100 -200 000/00 RMK AO2 T01330133
13870KAMG AMG20160311062511603/11/16 06:25:31  5-MIN KAMG 111125Z AUTO 14004KT 1/4SM FG OVC033 14/14 A3021 -60 100 -100 150/04 RMK AO2 T01390139
13870KAMG AMG20160311063011603/11/16 06:30:31  5-MIN KAMG 111130Z AUTO 15003KT 1/2SM FG OVC033 14/14 A3021 -60 100 -100 150/03 RMK AO2 T01390139
13870KAMG AMG20160311063511803/11/16 06:35:31  5-MIN KAMG 111135Z AUTO 00000KT 1 1/4SM BR OVC035 14/14 A3021 -60 100 -100 000/00 RMK AO2 T01390139
13870KAMG AMG20160311064011803/11/16 06:40:31  5-MIN KAMG 111140Z AUTO 00000KT 1 1/4SM BR OVC035 14/14 A3021 -60 100 -100 000/00 RMK AO2 T01390139
13870KAMG AMG20160311064511003/11/16 06:45:31  5-MIN KAMG 111145Z AUTO 00000KT 1SM BR OVC035 15/14 A3022 -70 96 0 000/00 RMK AO2 T01500144
13870KAMG AMG20160311065010103/11/16 06:50:31  5-MIN KAMG 111150Z AUTO 16003KT 2SM BR OVC035 15/15 A3022 -70 100 0 160/03 RMK AO2
13870KAMG AMG20160311065511103/11/16 06:55:31  5-MIN KAMG 111155Z AUTO 16004KT 3SM BR OVC037 16/16 A3021 -60 100 0 160/04 RMK AO2 T01560156
13870KAMG AMG20160311070011503/11/16 07:00:31  5-MIN KAMG 111200Z AUTO 17004KT 2 1/2SM BR OVC037 16/16 A3022 -70 100 0 180/04 RMK AO2 T01560156
13870KAMG AMG20160311070511503/11/16 07:05:31  5-MIN KAMG 111205Z AUTO 16003KT 2 1/2SM BR OVC035 16/16 A3022 -70 100 0 160/03 RMK AO2 T01560156
13870KAMG AMG20160311071011103/11/16 07:10:31  5-MIN KAMG 111210Z AUTO 00000KT 3SM BR OVC035 16/16 A3022 -70 100 0 000/00 RMK AO2 T01560156
13870KAMG AMG20160311071511503/11/16 07:15:31  5-MIN KAMG 111215Z AUTO 00000KT 2 1/2SM BR OVC033 16/16 A3022 -70 100 0 000/00 RMK AO2 T01560156
13870KAMG AMG20160311072011703/11/16 07:20:31  5-MIN KAMG 111220Z AUTO 15004KT 2 1/2SM BR OVC033 16/16 A3022 -70 100 100 160/04 RMK AO2 T01610161
13870KAMG AMG20160311072511303/11/16 07:25:31  5-MIN KAMG 111225Z AUTO 16006KT 3SM BR OVC033 16/16 A3022 -70 100 100 170/06 RMK AO2 T01610161
13870KAMG AMG20160311073011303/11/16 07:30:31  5-MIN KAMG 111230Z AUTO 16004KT 3SM BR BKN033 17/17 A3022 -70 100 100 170/04 RMK AO2 T01670167
13870KAMG AMG20160311073511303/11/16 07:35:31  5-MIN KAMG 111235Z AUTO 15004KT 4SM BR BKN033 17/17 A3021 -60 100 200 160/04 RMK AO2 T01670167
13870KAMG AMG20160311074011303/11/16 07:40:31  5-MIN KAMG 111240Z AUTO 15004KT 5SM BR BKN034 17/17 A3021 -60 100 200 150/04 RMK AO2 T01670167
13870KAMG AMG20160311074511303/11/16 07:45:31  5-MIN KAMG 111245Z AUTO 16006KT 5SM BR BKN034 17/17 A3021 -60 100 200 160/06 RMK AO2 T01720172
13870KAMG AMG20160311075012003/11/16 07:50:31  5-MIN KAMG 111250Z AUTO 16007KT 5SM BR SCT035 17/17 A3020 -50 100 200 170/07 RMK AO2 SLP226 T01720172
13870KAMG AMG20160311075511303/11/16 07:55:31  5-MIN KAMG 111255Z AUTO 16007KT 5SM BR FEW035 17/17 A3021 -60 100 200 170/07 RMK AO2 T01720172
13870KAMG AMG20160311080011303/11/16 08:00:31  5-MIN KAMG 111300Z AUTO 15006KT 5SM BR FEW035 17/17 A3020 -50 100 200 160/06 RMK AO2 T01720172
13870KAMG AMG20160311080511303/11/16 08:05:31  5-MIN KAMG 111305Z AUTO 17004KT 5SM BR SCT035 17/17 A3020 -50 100 200 180/04 RMK AO2 T01720172
13870KAMG AMG20160311081011303/11/16 08:10:31  5-MIN KAMG 111310Z AUTO 17003KT 5SM BR SCT033 17/17 A3020 -50 100 200 180/03 RMK AO2 T01720172
13870KAMG AMG20160311081511303/11/16 08:15:31  5-MIN KAMG 111315Z AUTO 18005KT 6SM BR FEW033 17/17 A3020 -50 100 200 190/05 RMK AO2 T01720172
13870KAMG AMG20160311082011303/11/16 08:20:31  5-MIN KAMG 111320Z AUTO 17005KT 6SM BR FEW033 18/18 A3020 -50 100 300 180/05 RMK AO2 T01780178
13870KAMG AMG20160311082511303/11/16 08:25:31  5-MIN KAMG 111325Z AUTO 17006KT 6SM BR FEW033 18/18 A3020 -50 100 300 170/06 RMK AO2 T01780178
13870KAMG AMG20160311083011303/11/16 08:30:31  5-MIN KAMG 111330Z AUTO 18004KT 6SM BR FEW033 18/18 A3020 -50 100 300 190/04 RMK AO2 T01780178
13870KAMG AMG20160311083511003/11/16 08:35:31  5-MIN KAMG 111335Z AUTO 19004KT 7SM FEW033 18/18 A3020 -50 100 300 200/04 RMK AO2 T01780178
13870KAMG AMG20160311084010703/11/16 08:40:31  5-MIN KAMG 111340Z AUTO 18003KT 7SM CLR 18/18 A3020 -50 100 300 180/03 RMK AO2 T01780178
13870KAMG AMG20160311084510603/11/16 08:45:31  5-MIN KAMG 111345Z AUTO 19005KT 7SM CLR 18/18 A3021 -60 96 400 200/05 RMK AO2 T01830178
13870KAMG AMG20160311085011303/11/16 08:50:31  5-MIN KAMG 111350Z AUTO 20005KT 7SM CLR 18/18 A3021 -60 96 300 210/05 RMK AO2 SLP229 T01830178
13870KAMG AMG20160311085510603/11/16 08:55:31  5-MIN KAMG 111355Z AUTO 19005KT 7SM CLR 18/18 A3021 -60 96 300 200/05 RMK AO2 T01830178
13870KAMG AMG20160311090010603/11/16 09:00:31  5-MIN KAMG 111400Z AUTO 21005KT 7SM CLR 18/18 A3021 -60 96 300 220/05 RMK AO2 T01830178
13870KAMG AMG20160311090510603/11/16 09:05:31  5-MIN KAMG 111405Z AUTO 21004KT 8SM CLR 18/18 A3021 -60 96 400 210/04 RMK AO2 T01830178
13870KAMG AMG20160311091010603/11/16 09:10:31  5-MIN KAMG 111410Z AUTO 20004KT 8SM CLR 19/18 A3021 -60 93 400 200/04 RMK AO2 T01890178
13870KAMG AMG20160311091510603/11/16 09:15:31  5-MIN KAMG 111415Z AUTO 21003KT 9SM CLR 19/18 A3021 -60 93 400 220/03 RMK AO2 T01890178
13870KAMG AMG20160311092010603/11/16 09:20:31  5-MIN KAMG 111420Z AUTO VRB03KT 9SM CLR 19/18 A3022 -70 93 500 VRB/03 RMK AO2 T01940183
13870KAMG AMG20160311092510703/11/16 09:25:31  5-MIN KAMG 111425Z AUTO 22004KT 10SM CLR 20/18 A3022 -60 87 500 220/04 RMK AO2 T02000178
13870KAMG AMG20160311093010703/11/16 09:30:31  5-MIN KAMG 111430Z AUTO 19005KT 10SM CLR 20/18 A3022 -70 87 500 200/05 RMK AO2 T02000178
13870KAMG AMG20160311093510703/11/16 09:35:31  5-MIN KAMG 111435Z AUTO 19007KT 10SM CLR 21/18 A3022 -70 84 600 200/07 RMK AO2 T02060178
13870KAMG AMG20160311094010703/11/16 09:40:31  5-MIN KAMG 111440Z AUTO 20009KT 10SM CLR 20/18 A3022 -70 87 500 200/09 RMK AO2 T02000178
13870KAMG AMG20160311094510703/11/16 09:45:31  5-MIN KAMG 111445Z AUTO 20007KT 10SM CLR 20/18 A3022 -70 87 500 200/07 RMK AO2 T02000178
13870KAMG AMG20160311095012003/11/16 09:50:31  5-MIN KAMG 111450Z AUTO 19006KT 10SM CLR 21/18 A3022 -70 81 700 200/06 RMK AO2 SLP232 T02110178 55000
13870KAMG AMG20160311095510703/11/16 09:55:31  5-MIN KAMG 111455Z AUTO 20009KT 10SM CLR 21/18 A3022 -70 81 700 200/09 RMK AO2 T02110178
13870KAMG AMG20160311100010703/11/16 10:00:31  5-MIN KAMG 111500Z AUTO 19011KT 10SM CLR 21/18 A3022 -70 81 700 200/11 RMK AO2 T02110178
13870KAMG AMG20160311100510703/11/16 10:05:31  5-MIN KAMG 111505Z AUTO 20009KT 10SM CLR 22/18 A3022 -70 78 700 210/09 RMK AO2 T02170178
13870KAMG AMG20160311101010703/11/16 10:10:31  5-MIN KAMG 111510Z AUTO 19010KT 10SM CLR 22/18 A3021 -60 75 800 190/10 RMK AO2 T02220178
13870KAMG AMG20160311101510703/11/16 10:15:31  5-MIN KAMG 111515Z AUTO 20010KT 10SM CLR 23/18 A3022 -70 73 900 210/10 RMK AO2 T02280178
13870KAMG AMG20160311102010703/11/16 10:20:31  5-MIN KAMG 111520Z AUTO 19007KT 10SM CLR 23/18 A3022 -70 73 900 190/07 RMK AO2 T02280178
13870KAMG AMG20160311102510703/11/16 10:25:31  5-MIN KAMG 111525Z AUTO 20009KT 10SM CLR 23/18 A3022 -60 73 900 200/09 RMK AO2 T02280178
13870KAMG AMG20160311103010703/11/16 10:30:31  5-MIN KAMG 111530Z AUTO 20012KT 10SM CLR 23/17 A3021 -60 68 900 200/12 RMK AO2 T02330172
13870KAMG AMG20160311103510803/11/16 10:35:31  5-MIN KAMG 111535Z AUTO 19010KT 10SM CLR 24/17 A3022 -60 66 1000 190/10 RMK AO2 T02390172
13870KAMG AMG20160311104010803/11/16 10:40:31  5-MIN KAMG 111540Z AUTO 19009KT 10SM CLR 24/17 A3022 -70 66 1000 200/09 RMK AO2 T02390172
13870KAMG AMG20160311104510803/11/16 10:45:31  5-MIN KAMG 111545Z AUTO 18011KT 10SM CLR 24/17 A3022 -60 66 1000 190/11 RMK AO2 T02390172
13870KAMG AMG20160311105011503/11/16 10:50:31  5-MIN KAMG 111550Z AUTO 20010KT 10SM CLR 24/17 A3021 -60 66 1000 200/10 RMK AO2 SLP228 T02390172
13870KAMG AMG20160311105510803/11/16 10:55:31  5-MIN KAMG 111555Z AUTO 18009KT 10SM CLR 24/17 A3021 -60 63 1100 190/09 RMK AO2 T02440172
13870KAMG AMG20160311110010803/11/16 11:00:31  5-MIN KAMG 111600Z AUTO 20010KT 10SM CLR 25/17 A3021 -60 61 1100 210/10 RMK AO2 T02500172
13870KAMG AMG20160311110510803/11/16 11:05:31  5-MIN KAMG 111605Z AUTO 20008KT 10SM CLR 24/17 A3021 -60 63 1100 200/08 RMK AO2 T02440172
13870KAMG AMG20160311111012403/11/16 11:10:31  5-MIN KAMG 111610Z AUTO 19010KT 150V220 10SM CLR 25/17 A3021 -60 61 1100 190/10 160V230 RMK AO2 T02500172
13870KAMG AMG20160311111510803/11/16 11:15:31  5-MIN KAMG 111615Z AUTO 16010KT 10SM CLR 25/17 A3020 -50 61 1100 160/10 RMK AO2 T02500172
13870KAMG AMG20160311112011403/11/16 11:20:31  5-MIN KAMG 111620Z AUTO 19010G15KT 10SM CLR 25/17 A3020 -50 61 1100 190/10G15 RMK AO2 T02500172
13870KAMG AMG20160311112510803/11/16 11:25:31  5-MIN KAMG 111625Z AUTO 19010KT 10SM CLR 26/17 A3020 -50 57 1200 200/10 RMK AO2 T02560167
13870KAMG AMG20160311113010803/11/16 11:30:31  5-MIN KAMG 111630Z AUTO 19011KT 10SM CLR 26/17 A3020 -50 57 1200 200/11 RMK AO2 T02560167
13870KAMG AMG20160311113510803/11/16 11:35:31  5-MIN KAMG 111635Z AUTO 18010KT 10SM CLR 26/17 A3020 -50 57 1200 190/10 RMK AO2 T02560167
13870KAMG AMG20160311114010803/11/16 11:40:31  5-MIN KAMG 111640Z AUTO 18010KT 10SM CLR 26/17 A3019 -50 57 1300 180/10 RMK AO2 T02610172
13870KAMG AMG20160311114511403/11/16 11:45:31  5-MIN KAMG 111645Z AUTO 14011G17KT 10SM CLR 26/17 A3019 -40 55 1300 150/11G17 RMK AO2 T02610167
13870KAMG AMG20160311115012103/11/16 11:50:31  5-MIN KAMG 111650Z AUTO 16008G17KT 10SM CLR 26/17 A3019 -40 57 1300 160/08G17 RMK AO2 SLP221 T02610172
13870KAMG AMG20160311115511403/11/16 11:55:31  5-MIN KAMG 111655Z AUTO 19009G16KT 10SM CLR 27/17 A3019 -40 55 1300 190/09G16 RMK AO2 T02670172
13870KAMG AMG20160311120011403/11/16 12:00:31  5-MIN KAMG 111700Z AUTO 18010G16KT 10SM CLR 27/17 A3019 -40 53 1300 190/10G16 RMK AO2 T02670167
13870KAMG AMG20160311120510803/11/16 12:05:31  5-MIN KAMG 111705Z AUTO 18007KT 10SM CLR 27/17 A3019 -40 53 1300 180/07 RMK AO2 T02670167
13870KAMG AMG20160311121013003/11/16 12:10:31  5-MIN KAMG 111710Z AUTO 18009G16KT 140V210 10SM CLR 27/17 A3019 -40 55 1300 190/09G16 150V220 RMK AO2 T02670172
13870KAMG AMG20160311121510803/11/16 12:15:31  5-MIN KAMG 111715Z AUTO 16011KT 10SM CLR 27/17 A3018 -40 55 1300 170/11 RMK AO2 T02670172
13870KAMG AMG20160311122010803/11/16 12:20:31  5-MIN KAMG 111720Z AUTO 14008KT 10SM CLR 27/17 A3018 -30 53 1300 150/08 RMK AO2 T02670167
13870KAMG AMG20160311122510803/11/16 12:25:31  5-MIN KAMG 111725Z AUTO 17007KT 10SM CLR 28/17 A3018 -30 50 1500 170/07 RMK AO2 T02780167
13870KAMG AMG20160311123010803/11/16 12:30:31  5-MIN KAMG 111730Z AUTO 15008KT 10SM CLR 27/17 A3018 -40 52 1400 150/08 RMK AO2 T02720167
13870KAMG AMG20160311123511403/11/16 12:35:31  5-MIN KAMG 111735Z AUTO 14011G15KT 10SM CLR 28/17 A3018 -40 50 1500 140/11G15 RMK AO2 T02780167
13870KAMG AMG20160311124011403/11/16 12:40:31  5-MIN KAMG 111740Z AUTO 15012G16KT 10SM CLR 27/16 A3018 -30 50 1400 160/12G16 RMK AO2 T02720161
13870KAMG AMG20160311124511403/11/16 12:45:31  5-MIN KAMG 111745Z AUTO 14008G16KT 10SM CLR 27/16 A3018 -30 50 1400 140/08G16 RMK AO2 T02720161
13870KAMG AMG20160311125013903/11/16 12:50:31  5-MIN KAMG 111750Z AUTO 16009G15KT 10SM CLR 27/17 A3018 -30 52 1400 160/09G15 RMK AO2 SLP216 T02720167 10278 20156 53003
13870KAMG AMG20160311125510803/11/16 12:55:31  5-MIN KAMG 111755Z AUTO 18009KT 10SM CLR 28/17 A3018 -30 50 1500 190/09 RMK AO2 T02780167
13870KAMG AMG20160311130010803/11/16 13:00:31  5-MIN KAMG 111800Z AUTO 16004KT 10SM CLR 27/17 A3017 -20 52 1400 170/04 RMK AO2 T02720167
13870KAMG AMG20160311130510803/11/16 13:05:31  5-MIN KAMG 111805Z AUTO 18010KT 10SM CLR 27/16 A3017 -20 48 1400 180/10 RMK AO2 T02720156
13870KAMG AMG20160311131010803/11/16 13:10:31  5-MIN KAMG 111810Z AUTO 19008KT 10SM CLR 28/15 A3017 -20 45 1500 200/08 RMK AO2 T02780150
13870KAMG AMG20160311131510803/11/16 13:15:31  5-MIN KAMG 111815Z AUTO 16008KT 10SM CLR 27/16 A3017 -20 48 1400 170/08 RMK AO2 T02720156
13870KAMG AMG20160311132010803/11/16 13:20:31  5-MIN KAMG 111820Z AUTO VRB04KT 10SM CLR 28/16 A3016 -20 48 1500 VRB/04 RMK AO2 T02780161
13870KAMG AMG20160311132510803/11/16 13:25:31  5-MIN KAMG 111825Z AUTO 17006KT 10SM CLR 28/16 A3017 -20 46 1500 180/06 RMK AO2 T02780156
13870KAMG AMG20160311133010803/11/16 13:30:31  5-MIN KAMG 111830Z AUTO 00000KT 10SM CLR 28/16 A3017 -20 48 1500 000/00 RMK AO2 T02780161
13870KAMG AMG20160311133510803/11/16 13:35:31  5-MIN KAMG 111835Z AUTO 17007KT 10SM CLR 28/16 A3017 -20 48 1500 170/07 RMK AO2 T02780161
13870KAMG AMG20160311134010803/11/16 13:40:31  5-MIN KAMG 111840Z AUTO 19007KT 10SM CLR 28/15 A3016 -20 45 1500 200/07 RMK AO2 T02780150
13870KAMG AMG20160311134510803/11/16 13:45:31  5-MIN KAMG 111845Z AUTO 20005KT 10SM CLR 28/15 A3016 -20 45 1500 200/05 RMK AO2 T02780150
13870KAMG AMG20160311135011503/11/16 13:50:31  5-MIN KAMG 111850Z AUTO 15008KT 10SM CLR 28/15 A3017 -20 43 1500 160/08 RMK AO2 SLP213 T02830150
13870KAMG AMG20160311135510803/11/16 13:55:31  5-MIN KAMG 111855Z AUTO 16008KT 10SM CLR 28/15 A3016 -20 45 1500 160/08 RMK AO2 T02780150
13870KAMG AMG20160311140010803/11/16 14:00:31  5-MIN KAMG 111900Z AUTO 21004KT 10SM CLR 27/16 A3016 -10 48 1400 220/04 RMK AO2 T02720156
13870KAMG AMG20160311140510803/11/16 14:05:31  5-MIN KAMG 111905Z AUTO 21006KT 10SM CLR 27/15 A3016 -10 46 1400 210/06 RMK AO2 T02720150
13870KAMG AMG20160311141010803/11/16 14:10:31  5-MIN KAMG 111910Z AUTO 16009KT 10SM CLR 28/16 A3016 -10 46 1500 160/09 RMK AO2 T02780156
13870KAMG AMG20160311141510803/11/16 14:15:31  5-MIN KAMG 111915Z AUTO 16008KT 10SM CLR 28/16 A3016 -10 46 1500 170/08 RMK AO2 T02780156
13870KAMG AMG20160311142010803/11/16 14:20:31  5-MIN KAMG 111920Z AUTO 14006KT 10SM CLR 27/15 A3016 -10 46 1400 150/06 RMK AO2 T02720150
13870KAMG AMG20160311142510803/11/16 14:25:31  5-MIN KAMG 111925Z AUTO 18009KT 10SM CLR 27/15 A3016 -10 46 1400 180/09 RMK AO2 T02720150
13870KAMG AMG20160311143010803/11/16 14:30:31  5-MIN KAMG 111930Z AUTO 18007KT 10SM CLR 28/16 A3015 -10 45 1600 190/07 RMK AO2 T02830156
13870KAMG AMG20160311143510803/11/16 14:35:31  5-MIN KAMG 111935Z AUTO 20006KT 10SM CLR 28/16 A3015 -10 45 1600 210/06 RMK AO2 T02830156
13870KAMG AMG20160311144010603/11/16 14:40:31  5-MIN KAMG 111940Z AUTO VRB06KT 10SM CLR 28/15 A3015 0 43 1600 VRB/06 RMK AO2 T02830150
13870KAMG AMG20160311144510903/11/16 14:45:31  5-MIN KAMG 111945Z AUTO 17006KT 10SM FEW050 28/16 A3014 0 45 1600 170/06 RMK AO2 T02830156
13870KAMG AMG20160311145011603/11/16 14:50:31  5-MIN KAMG 111950Z AUTO VRB05KT 10SM FEW050 28/15 A3014 0 45 1500 VRB/05 RMK AO2 SLP206 T02780150
13870KAMG AMG20160311145510903/11/16 14:55:31  5-MIN KAMG 111955Z AUTO 15010KT 10SM SCT050 28/15 A3014 0 45 1500 150/10 RMK AO2 T02780150
13870KAMG AMG20160311150010903/11/16 15:00:31  5-MIN KAMG 112000Z AUTO 19005KT 10SM SCT050 28/16 A3014 0 46 1500 190/05 RMK AO2 T02780156
13870KAMG AMG20160311150510903/11/16 15:05:31  5-MIN KAMG 112005Z AUTO 19007KT 10SM FEW050 28/16 A3014 0 45 1600 200/07 RMK AO2 T02830156
13870KAMG AMG20160311151010903/11/16 15:10:31  5-MIN KAMG 112010Z AUTO 00000KT 10SM FEW050 28/16 A3014 0 45 1600 000/00 RMK AO2 T02830156
13870KAMG AMG20160311151509903/11/16 15:15:31  5-MIN KAMG 112015Z AUTO 10SM FEW050 28/15 A3015 0 43 1600 M /M RMK AO2 T02830150
13870KAMG AMG20160311152011103/11/16 15:20:31  5-MIN KAMG 112020Z AUTO 19012KT 10SM FEW050 28/15 A3016 -10 43 1600 190/12 RMK AO2 T02830150
13870KAMG AMG20160311152511103/11/16 15:25:31  5-MIN KAMG 112025Z AUTO 18011KT 10SM FEW055 28/15 A3015 -10 43 1600 180/11 RMK AO2 T02830150
13870KAMG AMG20160311153011103/11/16 15:30:31  5-MIN KAMG 112030Z AUTO 20009KT 10SM FEW055 28/15 A3015 -10 43 1600 200/09 RMK AO2 T02830150
13870KAMG AMG20160311153510803/11/16 15:35:31  5-MIN KAMG 112035Z AUTO 18007KT 10SM CLR 28/15 A3015 -10 43 1600 190/07 RMK AO2 T02830150
13870KAMG AMG20160311154011403/11/16 15:40:31  5-MIN KAMG 112040Z AUTO 15010G16KT 10SM CLR 28/15 A3015 -10 45 1500 150/10G16 RMK AO2 T02780150
13870KAMG AMG20160311154511203/11/16 15:45:31  5-MIN KAMG 112045Z AUTO VRB05G16KT 10SM CLR 28/16 A3015 0 45 1600 VRB/05G16 RMK AO2 T02830156
13870KAMG AMG20160311155012203/11/16 15:50:31  5-MIN KAMG 112050Z AUTO 16010KT 10SM FEW055 28/16 A3015 0 45 1600 170/10 RMK AO2 SLP207 T02830156 58016
13870KAMG AMG20160311155510903/11/16 15:55:31  5-MIN KAMG 112055Z AUTO 18009KT 10SM FEW050 29/16 A3015 0 44 1600 190/09 RMK AO2 T02890156
13870KAMG AMG20160311160010903/11/16 16:00:31  5-MIN KAMG 112100Z AUTO 18009KT 10SM FEW050 28/15 A3014 0 43 1600 190/09 RMK AO2 T02830150
13870KAMG AMG20160311160510603/11/16 16:05:31  5-MIN KAMG 112105Z AUTO VRB03KT 10SM CLR 28/15 A3013 0 43 1600 VRB/03 RMK AO2 T02830150
13870KAMG AMG20160311161010603/11/16 16:10:31  5-MIN KAMG 112110Z AUTO VRB04KT 10SM CLR 28/15 A3014 0 43 1600 VRB/04 RMK AO2 T02830150
13870KAMG AMG20160311161510603/11/16 16:15:31  5-MIN KAMG 112115Z AUTO 18009KT 10SM CLR 28/15 A3014 0 43 1600 180/09 RMK AO2 T02830150
13870KAMG AMG20160311162010603/11/16 16:20:31  5-MIN KAMG 112120Z AUTO 16008KT 10SM CLR 28/15 A3014 0 43 1600 170/08 RMK AO2 T02830150
13870KAMG AMG20160311162510603/11/16 16:25:31  5-MIN KAMG 112125Z AUTO 18008KT 10SM CLR 28/15 A3014 0 43 1600 190/08 RMK AO2 T02830150
13870KAMG AMG20160311163010603/11/16 16:30:31  5-MIN KAMG 112130Z AUTO 19006KT 10SM CLR 28/15 A3014 0 43 1600 190/06 RMK AO2 T02830150
13870KAMG AMG20160311163510603/11/16 16:35:31  5-MIN KAMG 112135Z AUTO 16007KT 10SM CLR 28/15 A3014 0 45 1500 170/07 RMK AO2 T02780150
13870KAMG AMG20160311164010603/11/16 16:40:31  5-MIN KAMG 112140Z AUTO 18005KT 10SM CLR 28/15 A3014 0 45 1500 180/05 RMK AO2 T02780150
13870KAMG AMG20160311164510703/11/16 16:45:31  5-MIN KAMG 112145Z AUTO 19006KT 10SM CLR 28/14 A3013 10 43 1500 200/06 RMK AO2 T02780144
13870KAMG AMG20160311165011303/11/16 16:50:31  5-MIN KAMG 112150Z AUTO 18006KT 10SM CLR 28/14 A3014 0 43 1500 190/06 RMK AO2 SLP203 T02780144
13870KAMG AMG20160311165510603/11/16 16:55:31  5-MIN KAMG 112155Z AUTO 20005KT 10SM CLR 28/14 A3014 0 43 1500 210/05 RMK AO2 T02780144
13870KAMG AMG20160311170010703/11/16 17:00:31  5-MIN KAMG 112200Z AUTO 20007KT 10SM CLR 28/14 A3013 10 43 1500 200/07 RMK AO2 T02780144
13870KAMG AMG20160311170510603/11/16 17:05:31  5-MIN KAMG 112205Z AUTO 17005KT 10SM CLR 28/14 A3014 0 43 1500 180/05 RMK AO2 T02780144
13870KAMG AMG20160311171010603/11/16 17:10:31  5-MIN KAMG 112210Z AUTO 19005KT 10SM CLR 28/14 A3014 0 43 1500 190/05 RMK AO2 T02780144
13870KAMG AMG20160311171510603/11/16 17:15:31  5-MIN KAMG 112215Z AUTO 17006KT 10SM CLR 28/14 A3014 0 43 1500 170/06 RMK AO2 T02780144
13870KAMG AMG20160311172010603/11/16 17:20:31  5-MIN KAMG 112220Z AUTO 15005KT 10SM CLR 28/15 A3014 0 45 1500 160/05 RMK AO2 T02780150
13870KAMG AMG20160311172510603/11/16 17:25:31  5-MIN KAMG 112225Z AUTO 18004KT 10SM CLR 28/15 A3014 0 45 1500 190/04 RMK AO2 T02780150
13870KAMG AMG20160311173010603/11/16 17:30:31  5-MIN KAMG 112230Z AUTO 18005KT 10SM CLR 27/15 A3015 0 46 1400 180/05 RMK AO2 T02720150
13870KAMG AMG20160311173510803/11/16 17:35:31  5-MIN KAMG 112235Z AUTO 18004KT 10SM CLR 27/14 A3015 -10 45 1400 180/04 RMK AO2 T02720144
13870KAMG AMG20160311174010803/11/16 17:40:31  5-MIN KAMG 112240Z AUTO 20005KT 10SM CLR 27/14 A3015 -10 45 1400 200/05 RMK AO2 T02720144
13870KAMG AMG20160311174510803/11/16 17:45:31  5-MIN KAMG 112245Z AUTO 18004KT 10SM CLR 27/15 A3015 -10 46 1400 190/04 RMK AO2 T02720150
13870KAMG AMG20160311175011503/11/16 17:50:31  5-MIN KAMG 112250Z AUTO 21004KT 10SM CLR 27/14 A3016 -10 45 1400 220/04 RMK AO2 SLP210 T02720144
13870KAMG AMG20160311175510803/11/16 17:55:31  5-MIN KAMG 112255Z AUTO 19004KT 10SM CLR 27/15 A3016 -10 46 1400 200/04 RMK AO2 T02720150
13870KAMG AMG20160311180010803/11/16 18:00:31  5-MIN KAMG 112300Z AUTO 19003KT 10SM CLR 27/15 A3016 -10 48 1400 200/03 RMK AO2 T02670150
13870KAMG AMG20160311180510803/11/16 18:05:31  5-MIN KAMG 112305Z AUTO 22003KT 10SM CLR 27/15 A3016 -10 48 1400 220/03 RMK AO2 T02670150
13870KAMG AMG20160311181010803/11/16 18:10:31  5-MIN KAMG 112310Z AUTO 00000KT 10SM CLR 27/15 A3016 -20 48 1400 000/00 RMK AO2 T02670150
13870KAMG AMG20160311181510803/11/16 18:15:31  5-MIN KAMG 112315Z AUTO 00000KT 10SM CLR 26/16 A3016 -20 53 1200 000/00 RMK AO2 T02560156
13870KAMG AMG20160311182010803/11/16 18:20:31  5-MIN KAMG 112320Z AUTO 00000KT 10SM CLR 25/16 A3016 -10 57 1200 000/00 RMK AO2 T02500161
13870KAMG AMG20160311182510803/11/16 18:25:31  5-MIN KAMG 112325Z AUTO 22003KT 10SM CLR 24/16 A3017 -20 57 1100 230/03 RMK AO2 T02440156
13870KAMG AMG20160311183010803/11/16 18:30:31  5-MIN KAMG 112330Z AUTO 00000KT 10SM CLR 24/16 A3017 -20 59 1100 000/00 RMK AO2 T02440161
13870KAMG AMG20160311183510803/11/16 18:35:31  5-MIN KAMG 112335Z AUTO 00000KT 10SM CLR 23/16 A3017 -20 63 1000 000/00 RMK AO2 T02330161
13870KAMG AMG20160311184010703/11/16 18:40:31  5-MIN KAMG 112340Z AUTO 00000KT 10SM CLR 22/17 A3017 -20 70 800 000/00 RMK AO2 T02220167
13870KAMG AMG20160311184510703/11/16 18:45:31  5-MIN KAMG 112345Z AUTO 00000KT 10SM CLR 22/16 A3017 -30 68 800 000/00 RMK AO2 T02220161
13870KAMG AMG20160311185013203/11/16 18:50:31  5-MIN KAMG 112350Z AUTO 00000KT 10SM CLR 22/16 A3018 -30 68 800 000/00 RMK AO2 SLP216 T02220161 10289 20222 55009
13870KAMG AMG20160311185510703/11/16 18:55:31  5-MIN KAMG 112355Z AUTO 00000KT 10SM CLR 22/16 A3018 -30 70 800 000/00 RMK AO2 T02170161
13870KAMG AMG20160311190010703/11/16 19:00:31  5-MIN KAMG 120000Z AUTO 00000KT 10SM CLR 21/16 A3018 -30 75 600 000/00 RMK AO2 T02060161
13870KAMG AMG20160311190511003/11/16 19:05:31  5-MIN KAMG 120005Z AUTO 00000KT 10SM FEW060 21/16 A3018 -30 75 600 000/00 RMK AO2 T02060161
13870KAMG AMG20160311191011003/11/16 19:10:31  5-MIN KAMG 120010Z AUTO 00000KT 10SM SCT060 20/16 A3018 -30 78 600 000/00 RMK AO2 T02000161
13870KAMG AMG20160311191511003/11/16 19:15:31  5-MIN KAMG 120015Z AUTO 00000KT 10SM SCT060 20/17 A3018 -40 81 600 000/00 RMK AO2 T02000167
13870KAMG AMG20160311192011003/11/16 19:20:31  5-MIN KAMG 120020Z AUTO 00000KT 10SM SCT060 20/17 A3018 -30 81 600 000/00 RMK AO2 T02000167
13870KAMG AMG20160311192511003/11/16 19:25:31  5-MIN KAMG 120025Z AUTO 00000KT 10SM BKN060 20/17 A3018 -30 81 600 000/00 RMK AO2 T02000167
13870KAMG AMG20160311193011003/11/16 19:30:31  5-MIN KAMG 120030Z AUTO 00000KT 10SM BKN060 20/17 A3018 -40 81 600 000/00 RMK AO2 T02000167
13870KAMG AMG20160311193511003/11/16 19:35:31  5-MIN KAMG 120035Z AUTO 00000KT 10SM BKN060 20/17 A3019 -40 81 600 000/00 RMK AO2 T02000167
13870KAMG AMG20160311194011003/11/16 19:40:31  5-MIN KAMG 120040Z AUTO 00000KT 10SM BKN060 21/17 A3019 -40 78 600 000/00 RMK AO2 T02060167
13870KAMG AMG20160311194511003/11/16 19:45:31  5-MIN KAMG 120045Z AUTO 00000KT 10SM BKN060 19/17 A3019 -40 84 500 000/00 RMK AO2 T01940167
13870KAMG AMG20160311195011703/11/16 19:50:31  5-MIN KAMG 120050Z AUTO 00000KT 10SM BKN060 19/17 A3019 -40 84 500 000/00 RMK AO2 SLP221 T01940167
13870KAMG AMG20160311195511003/11/16 19:55:31  5-MIN KAMG 120055Z AUTO 00000KT 10SM BKN060 19/17 A3019 -40 84 500 000/00 RMK AO2 T01940167
13870KAMG AMG20160311200011003/11/16 20:00:31  5-MIN KAMG 120100Z AUTO 00000KT 10SM BKN060 19/17 A3019 -40 84 500 000/00 RMK AO2 T01940167
13870KAMG AMG20160311200511003/11/16 20:05:31  5-MIN KAMG 120105Z AUTO 00000KT 10SM BKN060 19/17 A3019 -40 84 500 000/00 RMK AO2 T01940167
13870KAMG AMG20160311201011003/11/16 20:10:31  5-MIN KAMG 120110Z AUTO 00000KT 10SM BKN060 19/17 A3019 -40 84 500 000/00 RMK AO2 T01940167
13870KAMG AMG20160311201511003/11/16 20:15:31  5-MIN KAMG 120115Z AUTO 00000KT 10SM BKN060 19/17 A3019 -40 84 500 000/00 RMK AO2 T01940167
13870KAMG AMG20160311202011003/11/16 20:20:31  5-MIN KAMG 120120Z AUTO 00000KT 10SM BKN060 19/17 A3019 -50 84 500 000/00 RMK AO2 T01940167
13870KAMG AMG20160311202511003/11/16 20:25:31  5-MIN KAMG 120125Z AUTO 00000KT 10SM BKN060 19/17 A3020 -50 87 400 000/00 RMK AO2 T01890167
13870KAMG AMG20160311203011003/11/16 20:30:31  5-MIN KAMG 120130Z AUTO 00000KT 10SM BKN060 19/17 A3020 -50 84 500 000/00 RMK AO2 T01940167
13870KAMG AMG20160311203511003/11/16 20:35:31  5-MIN KAMG 120135Z AUTO 00000KT 10SM SCT060 19/17 A3020 -50 84 500 000/00 RMK AO2 T01940167
13870KAMG AMG20160311204011003/11/16 20:40:31  5-MIN KAMG 120140Z AUTO 00000KT 10SM SCT060 19/17 A3020 -50 84 500 000/00 RMK AO2 T01940167
13870KAMG AMG20160311204511003/11/16 20:45:31  5-MIN KAMG 120145Z AUTO 00000KT 10SM SCT060 19/17 A3020 -50 84 500 000/00 RMK AO2 T01940167
13870KAMG AMG20160311205011703/11/16 20:50:31  5-MIN KAMG 120150Z AUTO 00000KT 10SM SCT060 19/17 A3020 -50 84 500 000/00 RMK AO2 SLP224 T01940167
13870KAMG AMG20160311205511003/11/16 20:55:31  5-MIN KAMG 120155Z AUTO 00000KT 10SM FEW060 19/17 A3020 -50 87 400 000/00 RMK AO2 T01890167
13870KAMG AMG20160311210011003/11/16 21:00:31  5-MIN KAMG 120200Z AUTO 00000KT 10SM FEW060 18/17 A3020 -50 90 400 000/00 RMK AO2 T01830167
13870KAMG AMG20160311210511003/11/16 21:05:31  5-MIN KAMG 120205Z AUTO 00000KT 10SM FEW060 18/17 A3020 -50 90 400 000/00 RMK AO2 T01830167
13870KAMG AMG20160311211011003/11/16 21:10:31  5-MIN KAMG 120210Z AUTO 00000KT 10SM FEW060 18/17 A3020 -50 93 300 000/00 RMK AO2 T01780167
13870KAMG AMG20160311211510703/11/16 21:15:31  5-MIN KAMG 120215Z AUTO 00000KT 10SM CLR 18/17 A3020 -50 93 300 000/00 RMK AO2 T01780167
13870KAMG AMG20160311212010703/11/16 21:20:31  5-MIN KAMG 120220Z AUTO 00000KT 10SM CLR 18/17 A3020 -50 90 400 000/00 RMK AO2 T01830167
13870KAMG AMG20160311212511003/11/16 21:25:31  5-MIN KAMG 120225Z AUTO 00000KT 10SM FEW060 18/17 A3020 -50 90 400 000/00 RMK AO2 T01830167
13870KAMG AMG20160311213010903/11/16 21:30:31  5-MIN KAMG 120230Z AUTO 00000KT 9SM SCT060 18/17 A3020 -50 90 400 000/00 RMK AO2 T01830167
13870KAMG AMG20160311213510903/11/16 21:35:31  5-MIN KAMG 120235Z AUTO 00000KT 9SM SCT060 18/17 A3020 -50 93 300 000/00 RMK AO2 T01780167
13870KAMG AMG20160311214011003/11/16 21:40:31  5-MIN KAMG 120240Z AUTO 00000KT 10SM BKN060 18/17 A3020 -50 90 400 000/00 RMK AO2 T01830167
13870KAMG AMG20160311214511003/11/16 21:45:31  5-MIN KAMG 120245Z AUTO 24003KT 10SM BKN060 19/17 A3020 -50 90 400 250/03 RMK AO2 T01890172
13870KAMG AMG20160311215012203/11/16 21:50:31  5-MIN KAMG 120250Z AUTO 00000KT 8SM SCT060 19/17 A3020 -50 87 400 000/00 RMK AO2 SLP224 T01890167 53010
13870KAMG AMG20160311215510903/11/16 21:55:31  5-MIN KAMG 120255Z AUTO 00000KT 7SM SCT060 18/17 A3020 -50 90 400 000/00 RMK AO2 T01830167
13870KAMG AMG20160311220011203/11/16 22:00:31  5-MIN KAMG 120300Z AUTO 08003KT 6SM BR FEW055 18/17 A3020 -50 93 300 080/03 RMK AO2 T01780167
13870KAMG AMG20160311220510903/11/16 22:05:31  5-MIN KAMG 120305Z AUTO 07004KT 7SM FEW055 18/16 A3020 -50 90 300 080/04 RMK AO2 T01780161
13870KAMG AMG20160311221010603/11/16 22:10:31  5-MIN KAMG 120310Z AUTO 10004KT 9SM CLR 17/16 A3020 -50 93 200 110/04 RMK AO2 T01720161
13870KAMG AMG20160311221510603/11/16 22:15:31  5-MIN KAMG 120315Z AUTO 11004KT 9SM CLR 17/16 A3021 -60 93 200 120/04 RMK AO2 T01720161
13870KAMG AMG20160311222010703/11/16 22:20:31  5-MIN KAMG 120320Z AUTO 12003KT 10SM CLR 17/16 A3021 -60 93 200 120/03 RMK AO2 T01720161
13870KAMG AMG20160311222511003/11/16 22:25:31  5-MIN KAMG 120325Z AUTO 11004KT 10SM FEW055 18/16 A3021 -60 90 300 110/04 RMK AO2 T01780161
13870KAMG AMG20160311223011003/11/16 22:30:31  5-MIN KAMG 120330Z AUTO 09003KT 10SM FEW055 18/16 A3020 -50 90 300 100/03 RMK AO2 T01780161
13870KAMG AMG20160311223510703/11/16 22:35:31  5-MIN KAMG 120335Z AUTO 08003KT 10SM CLR 17/16 A3020 -50 93 200 090/03 RMK AO2 T01720161
13870KAMG AMG20160311224010703/11/16 22:40:31  5-MIN KAMG 120340Z AUTO 09003KT 10SM CLR 17/16 A3020 -50 93 200 090/03 RMK AO2 T01720161
13870KAMG AMG20160311224510703/11/16 22:45:31  5-MIN KAMG 120345Z AUTO 08003KT 10SM CLR 18/16 A3020 -50 90 300 080/03 RMK AO2 T01780161
13870KAMG AMG20160311225011403/11/16 22:50:31  5-MIN KAMG 120350Z AUTO 00000KT 10SM CLR 17/16 A3020 -50 93 200 000/00 RMK AO2 SLP223 T01670156
13870KAMG AMG20160311225510603/11/16 22:55:31  5-MIN KAMG 120355Z AUTO 00000KT 9SM CLR 17/16 A3020 -50 93 200 000/00 RMK AO2 T01670156
13870KAMG AMG20160311230010703/11/16 23:00:31  5-MIN KAMG 120400Z AUTO 00000KT 10SM CLR 17/16 A3020 -50 93 200 000/00 RMK AO2 T01670156
13870KAMG AMG20160311230510703/11/16 23:05:31  5-MIN KAMG 120405Z AUTO 00000KT 10SM CLR 17/16 A3020 -50 96 200 000/00 RMK AO2 T01670161
13870KAMG AMG20160311231010703/11/16 23:10:31  5-MIN KAMG 120410Z AUTO 00000KT 10SM CLR 17/16 A3020 -50 93 200 000/00 RMK AO2 T01670156
13870KAMG AMG20160311231510703/11/16 23:15:31  5-MIN KAMG 120415Z AUTO 00000KT 10SM CLR 17/16 A3020 -50 90 200 000/00 RMK AO2 T01720156
13870KAMG AMG20160311232010703/11/16 23:20:31  5-MIN KAMG 120420Z AUTO 00000KT 10SM CLR 17/16 A3020 -50 93 200 000/00 RMK AO2 T01720161
13870KAMG AMG20160311232510703/11/16 23:25:31  5-MIN KAMG 120425Z AUTO 00000KT 10SM CLR 17/16 A3020 -50 93 200 000/00 RMK AO2 T01720161
13870KAMG AMG20160311233010703/11/16 23:30:31  5-MIN KAMG 120430Z AUTO 00000KT 10SM CLR 17/16 A3020 -50 93 200 000/00 RMK AO2 T01720161
13870KAMG AMG20160311233510703/11/16 23:35:31  5-MIN KAMG 120435Z AUTO 00000KT 10SM CLR 17/16 A3020 -50 90 200 000/00 RMK AO2 T01720156
13870KAMG AMG20160311234010703/11/16 23:40:31  5-MIN KAMG 120440Z AUTO 00000KT 10SM CLR 17/16 A3020 -50 93 200 000/00 RMK AO2 T01670156
13870KAMG AMG20160311234511003/11/16 23:45:31  5-MIN KAMG 120445Z AUTO 00000KT 10SM FEW055 17/16 A3020 -50 90 200 000/00 RMK AO2 T01720156
13870KAMG AMG20160311235012703/11/16 23:50:31  5-MIN KAMG 120450Z AUTO 00000KT 10SM SCT055 17/16 A3020 -50 93 200 000/00 RMK AO2 SLP224 T01670156 402890128
13870KAMG AMG20160311235511003/11/16 23:55:31  5-MIN KAMG 120455Z AUTO 00000KT 10SM SCT055 17/16 A3020 -50 93 200 000/00 RMK AO2 T01670156
13870KAMG AMG20160312000011003/12/16 00:00:31  5-MIN KAMG 120500Z AUTO 00000KT 10SM SCT055 16/16 A3020 -50 96 100 000/00 RMK AO2 T01610156
13870KAMG AMG20160312000511003/12/16 00:05:31  5-MIN KAMG 120505Z AUTO 00000KT 10SM SCT055 16/16 A3020 -50 96 100 000/00 RMK AO2 T01610156
13870KAMG AMG20160312001010903/12/16 00:10:31  5-MIN KAMG 120510Z AUTO 00000KT 9SM BKN055 16/16 A3020 -50 96 100 000/00 RMK AO2 T01610156
13870KAMG AMG20160312001510903/12/16 00:15:31  5-MIN KAMG 120515Z AUTO 00000KT 9SM BKN055 16/16 A3020 -50 96 100 000/00 RMK AO2 T01610156
13870KAMG AMG20160312002010903/12/16 00:20:31  5-MIN KAMG 120520Z AUTO 00000KT 9SM BKN055 16/15 A3020 -50 93 100 000/00 RMK AO2 T01610150
13870KAMG AMG20160312002510903/12/16 00:25:31  5-MIN KAMG 120525Z AUTO 00000KT 9SM SCT055 16/16 A3020 -50 96 100 000/00 RMK AO2 T01610156
13870KAMG AMG20160312003010703/12/16 00:30:31  5-MIN KAMG 120530Z AUTO 00000KT 9SM SCT055 16/15 A3020 -50 96 0 000/00 RMK AO2 T01560150
13870KAMG AMG20160312003510903/12/16 00:35:31  5-MIN KAMG 120535Z AUTO 00000KT 9SM SCT055 16/16 A3020 -50 96 100 000/00 RMK AO2 T01610156
13870KAMG AMG20160312004010703/12/16 00:40:31  5-MIN KAMG 120540Z AUTO 00000KT 9SM FEW060 16/15 A3020 -50 96 0 000/00 RMK AO2 T01560150
13870KAMG AMG20160312004510403/12/16 00:45:31  5-MIN KAMG 120545Z AUTO 00000KT 8SM CLR 16/15 A3019 -40 96 0 000/00 RMK AO2 T01560150
13870KAMG AMG20160312005012903/12/16 00:50:31  5-MIN KAMG 120550Z AUTO 00000KT 7SM CLR 15/14 A3019 -40 96 0 000/00 RMK AO2 SLP221 T01500144 10217 20150 50007
13870KAMG AMG20160312005510703/12/16 00:55:31  5-MIN KAMG 120555Z AUTO 00000KT 6SM BR CLR 15/14 A3019 -40 96 0 000/00 RMK AO2 T01500144
13870KAMG AMG20160312010010803/12/16 01:00:31  5-MIN KAMG 120600Z AUTO 07003KT 6SM BR CLR 15/15 A3019 -40 100 0 070/03 RMK AO2 T01500150
13870KAMG AMG20160312010510503/12/16 01:05:31  5-MIN KAMG 120605Z AUTO 00000KT 7SM CLR 15/15 A3019 -40 100 0 000/00 RMK AO2 T01500150
13870KAMG AMG20160312011010503/12/16 01:10:31  5-MIN KAMG 120610Z AUTO 00000KT 7SM CLR 15/15 A3019 -40 100 0 000/00 RMK AO2 T01500150
13870KAMG AMG20160312011510403/12/16 01:15:31  5-MIN KAMG 120615Z AUTO 00000KT 7SM CLR 15/14 A3019 -40 96 0 000/00 RMK AO2 T01500144
13870KAMG AMG20160312012010503/12/16 01:20:31  5-MIN KAMG 120620Z AUTO 00000KT 7SM CLR 14/14 A3018 -40 100 0 000/00 RMK AO2 T01440144
13870KAMG AMG20160312012510503/12/16 01:25:31  5-MIN KAMG 120625Z AUTO 00000KT 7SM CLR 14/14 A3018 -30 100 0 000/00 RMK AO2 T01440144
13870KAMG AMG20160312013010403/12/16 01:30:31  5-MIN KAMG 120630Z AUTO 00000KT 7SM CLR 15/14 A3019 -40 96 0 000/00 RMK AO2 T01500144
13870KAMG AMG20160312013510803/12/16 01:35:31  5-MIN KAMG 120635Z AUTO 00000KT 6SM BR CLR 14/14 A3018 -30 100 0 000/00 RMK AO2 T01440144
13870KAMG AMG20160312014010703/12/16 01:40:31  5-MIN KAMG 120640Z AUTO 00000KT 6SM BR CLR 15/14 A3018 -40 96 0 000/00 RMK AO2 T01500144
13870KAMG AMG20160312014510503/12/16 01:45:31  5-MIN KAMG 120645Z AUTO 00000KT 7SM CLR 15/15 A3018 -40 100 0 000/00 RMK AO2 T01500150
13870KAMG AMG20160312015011403/12/16 01:50:31  5-MIN KAMG 120650Z AUTO 00000KT 6SM BR CLR 15/14 A3018 -40 96 0 000/00 RMK AO2 SLP219 T01500144
13870KAMG AMG20160312015510803/12/16 01:55:31  5-MIN KAMG 120655Z AUTO 00000KT 5SM BR CLR 15/15 A3018 -40 100 0 000/00 RMK AO2 T01500150
13870KAMG AMG20160312020010703/12/16 02:00:31  5-MIN KAMG 120700Z AUTO 00000KT 4SM BR CLR 15/14 A3019 -40 96 0 000/00 RMK AO2 T01500144
13870KAMG AMG20160312020510803/12/16 02:05:31  5-MIN KAMG 120705Z AUTO 00000KT 5SM BR CLR 14/14 A3018 -40 100 0 000/00 RMK AO2 T01440144
13870KAMG AMG20160312021010803/12/16 02:10:31  5-MIN KAMG 120710Z AUTO 00000KT 3SM BR CLR 14/14 A3018 -40 100 0 000/00 RMK AO2 T01440144
13870KAMG AMG20160312021511203/12/16 02:15:31  5-MIN KAMG 120715Z AUTO 00000KT 2 1/2SM BR CLR 14/14 A3018 -30 100 0 000/00 RMK AO2 T01440144
13870KAMG AMG20160312022010803/12/16 02:20:31  5-MIN KAMG 120720Z AUTO 00000KT 3SM BR CLR 14/14 A3018 -30 100 0 000/00 RMK AO2 T01440144
13870KAMG AMG20160312022510703/12/16 02:25:31  5-MIN KAMG 120725Z AUTO 00000KT 5SM BR CLR 15/14 A3018 -30 96 0 000/00 RMK AO2 T01500144
13870KAMG AMG20160312023011103/12/16 02:30:31  5-MIN KAMG 120730Z AUTO 00000KT 3SM BR CLR 14/14 A3018 -30 100 -100 000/00 RMK AO2 T01390139
13870KAMG AMG20160312023511203/12/16 02:35:31  5-MIN KAMG 120735Z AUTO 00000KT 2 1/2SM BR CLR 14/14 A3017 -20 100 0 000/00 RMK AO2 T01440144
13870KAMG AMG20160312024011103/12/16 02:40:31  5-MIN KAMG 120740Z AUTO 00000KT 2SM BR CLR 14/14 A3017 -20 100 -100 000/00 RMK AO2 T01390139
13870KAMG AMG20160312024511103/12/16 02:45:31  5-MIN KAMG 120745Z AUTO 00000KT 1SM BR CLR 14/14 A3018 -30 100 -100 000/00 RMK AO2 T01390139
13870KAMG AMG20160312025010103/12/16 02:50:31  5-MIN KAMG 120750Z AUTO 00000KT 1SM BR CLR 14/14 A3017 -30 100 -100 000/00 RMK AO2
13870KAMG AMG20160312025511503/12/16 02:55:31  5-MIN KAMG 120755Z AUTO 00000KT 1 3/4SM BR CLR 14/14 A3017 -20 100 -100 000/00 RMK AO2 T01390139
13870KAMG AMG20160312030012703/12/16 03:00:31  5-MIN KAMG 120800Z AUTO 00000KT 2 1/2SM BR CLR 14/14 A3016 -20 100 -100 000/00 RMK AO2 VIS 1 3/4V5 T01390139
13870KAMG AMG20160312030511103/12/16 03:05:31  5-MIN KAMG 120805Z AUTO 00000KT 3SM BR CLR 14/14 A3016 -20 100 -100 000/00 RMK AO2 T01390139
13870KAMG AMG20160312031011103/12/16 03:10:31  5-MIN KAMG 120810Z AUTO 00000KT 3SM BR CLR 14/14 A3016 -10 100 -100 000/00 RMK AO2 T01390139
13870KAMG AMG20160312031511003/12/16 03:15:31  5-MIN KAMG 120815Z AUTO 00000KT 3SM BR CLR 14/13 A3016 -10 96 -100 000/00 RMK AO2 T01390133
13870KAMG AMG20160312032011503/12/16 03:20:31  5-MIN KAMG 120820Z AUTO 00000KT 1 3/4SM BR CLR 14/14 A3016 -10 100 -100 000/00 RMK AO2 T01390139
13870KAMG AMG20160312032511503/12/16 03:25:31  5-MIN KAMG 120825Z AUTO 00000KT 1 3/4SM BR CLR 14/14 A3016 -10 100 -100 000/00 RMK AO2 T01390139
13870KAMG AMG20160312033011503/12/16 03:30:31  5-MIN KAMG 120830Z AUTO 00000KT 2 1/2SM BR CLR 13/13 A3016 -10 100 -100 000/00 RMK AO2 T01330133
13870KAMG AMG20160312033511103/12/16 03:35:31  5-MIN KAMG 120835Z AUTO 00000KT 2SM BR CLR 14/14 A3015 -10 100 -100 000/00 RMK AO2 T01390139
13870KAMG AMG20160312034011503/12/16 03:40:31  5-MIN KAMG 120840Z AUTO 00000KT 1 1/2SM BR CLR 13/13 A3015 -10 100 -100 000/00 RMK AO2 T01330133
13870KAMG AMG20160312034511203/12/16 03:45:31  5-MIN KAMG 120845Z AUTO 00000KT 3/4SM BR CLR 14/13 A3015 -10 96 -100 000/00 RMK AO2 T01390133
13870KAMG AMG20160312035012403/12/16 03:50:31  5-MIN KAMG 120850Z AUTO 00000KT 3/4SM BR CLR 13/13 A3015 0 100 -100 000/00 RMK AO2 SLP207 T01330133 58003
13870KAMG AMG20160312035510903/12/16 03:55:31  5-MIN KAMG 120855Z AUTO 00000KT 1SM BR CLR 13/13 A3015 0 100 -100 000/00 RMK AO2 T01330133
13870KAMG AMG20160312040010903/12/16 04:00:31  5-MIN KAMG 120900Z AUTO 00000KT 1SM BR CLR 13/13 A3015 0 100 -100 000/00 RMK AO2 T01330133
13870KAMG AMG20160312040511303/12/16 04:05:31  5-MIN KAMG 120905Z AUTO 00000KT 1 1/4SM BR CLR 13/13 A3015 0 100 -100 000/00 RMK AO2 T01330133
13870KAMG AMG20160312041010903/12/16 04:10:31  5-MIN KAMG 120910Z AUTO 00000KT 2SM BR CLR 13/13 A3015 0 100 -100 000/00 RMK AO2 T01330133
13870KAMG AMG20160312041511503/12/16 04:15:31  5-MIN KAMG 120915Z AUTO 00000KT 1 1/4SM BR CLR 13/13 A3015 -10 100 -100 000/00 RMK AO2 T01330133
13870KAMG AMG20160312042011303/12/16 04:20:31  5-MIN KAMG 120920Z AUTO 00000KT 1 1/4SM BR CLR 14/14 A3015 0 100 -100 000/00 RMK AO2 T01390139
13870KAMG AMG20160312042510903/12/16 04:25:31  5-MIN KAMG 120925Z AUTO 00000KT 2SM BR CLR 13/13 A3015 0 100 -100 000/00 RMK AO2 T01330133
13870KAMG AMG20160312043011303/12/16 04:30:31  5-MIN KAMG 120930Z AUTO 00000KT 2 1/2SM BR CLR 13/13 A3015 0 100 -100 000/00 RMK AO2 T01330133
13870KAMG AMG20160312043511303/12/16 04:35:31  5-MIN KAMG 120935Z AUTO 00000KT 1 1/4SM BR CLR 13/13 A3015 0 100 -100 000/00 RMK AO2 T01330133
13870KAMG AMG20160312044011203/12/16 04:40:31  5-MIN KAMG 120940Z AUTO 00000KT 1 1/4SM BR CLR 14/13 A3015 0 96 -100 000/00 RMK AO2 T01390133
13870KAMG AMG20160312044510803/12/16 04:45:31  5-MIN KAMG 120945Z AUTO 00000KT 2SM BR CLR 14/13 A3015 0 96 -100 000/00 RMK AO2 T01390133
13870KAMG AMG20160312045011603/12/16 04:50:31  5-MIN KAMG 120950Z AUTO 00000KT 2SM BR CLR 14/14 A3015 0 100 -100 000/00 RMK AO2 SLP207 T01390139
13870KAMG AMG20160312045511303/12/16 04:55:31  5-MIN KAMG 120955Z AUTO 00000KT 1 1/4SM BR CLR 13/13 A3015 0 100 -100 000/00 RMK AO2 T01330133
13870KAMG AMG20160312050010903/12/16 05:00:31  5-MIN KAMG 121000Z AUTO 00000KT 1SM BR CLR 13/13 A3015 0 100 -100 000/00 RMK AO2 T01330133
13870KAMG AMG20160312050511303/12/16 05:05:31  5-MIN KAMG 121005Z AUTO 00000KT 1 1/4SM BR CLR 13/13 A3015 0 100 -100 000/00 RMK AO2 T01330133
13870KAMG AMG20160312051010903/12/16 05:10:31  5-MIN KAMG 121010Z AUTO 00000KT 2SM BR CLR 13/13 A3015 0 100 -100 000/00 RMK AO2 T01330133
13870KAMG AMG20160312051511103/12/16 05:15:31  5-MIN KAMG 121015Z AUTO 00000KT 3/4SM BR CLR 13/13 A3015 0 100 -100 000/00 RMK AO2 T01330133
13870KAMG AMG20160312052011103/12/16 05:20:31  5-MIN KAMG 121020Z AUTO 00000KT 1/2SM FG CLR 13/13 A3015 0 100 -100 000/00 RMK AO2 T01330133
13870KAMG AMG20160312052511503/12/16 05:25:31  5-MIN KAMG 121025Z AUTO 00000KT 1/2SM FG VV010 13/13 A3015 -10 100 -200 000/00 RMK AO2 T01280128
13870KAMG AMG20160312053011503/12/16 05:30:31  5-MIN KAMG 121030Z AUTO 00000KT 1/2SM FG VV011 13/13 A3015 -10 100 -200 000/00 RMK AO2 T01280128
13870KAMG AMG20160312053511503/12/16 05:35:31  5-MIN KAMG 121035Z AUTO 00000KT 1/2SM FG VV012 13/13 A3015 -10 100 -200 000/00 RMK AO2 T01280128
13870KAMG AMG20160312054011503/12/16 05:40:31  5-MIN KAMG 121040Z AUTO 00000KT 1/2SM FG VV012 13/13 A3016 -10 100 -200 000/00 RMK AO2 T01280128
13870KAMG AMG20160312054511803/12/16 05:45:31  5-MIN KAMG 121045Z AUTO 00000KT 1 1/4SM BR FEW012 13/13 A3016 -20 100 -200 000/00 RMK AO2 T01280128
13870KAMG AMG20160312055012103/12/16 05:50:31  5-MIN KAMG 121050Z AUTO 07003KT 3SM BR FEW012 13/13 A3016 -20 100 -200 070/03 RMK AO2 SLP211 T01280128
13870KAMG AMG20160312055511403/12/16 05:55:31  5-MIN KAMG 121055Z AUTO 07003KT 2SM BR FEW012 13/13 A3016 -10 100 -200 080/03 RMK AO2 T01280128
13870KAMG AMG20160312060011103/12/16 06:00:31  5-MIN KAMG 121100Z AUTO 00000KT 2SM BR CLR 13/13 A3016 -10 100 -200 000/00 RMK AO2 T01280128
13870KAMG AMG20160312060511003/12/16 06:05:31  5-MIN KAMG 121105Z AUTO 09003KT 3SM BR CLR 13/13 A3016 -20 96 -100 090/03 RMK AO2 T01330128
13870KAMG AMG20160312061011003/12/16 06:10:31  5-MIN KAMG 121110Z AUTO 00000KT 4SM BR CLR 14/13 A3016 -20 96 -100 000/00 RMK AO2 T01390133
13870KAMG AMG20160312061511103/12/16 06:15:31  5-MIN KAMG 121115Z AUTO 00000KT 4SM BR CLR 14/14 A3016 -20 100 -100 000/00 RMK AO2 T01390139
13870KAMG AMG20160312062010803/12/16 06:20:31  5-MIN KAMG 121120Z AUTO 13003KT 5SM BR CLR 14/14 A3017 -20 100 0 140/03 RMK AO2 T01440144
13870KAMG AMG20160312062511103/12/16 06:25:31  5-MIN KAMG 121125Z AUTO 15003KT 5SM BR CLR 14/14 A3017 -20 100 -100 150/03 RMK AO2 T01390139
13870KAMG AMG20160312063011103/12/16 06:30:31  5-MIN KAMG 121130Z AUTO 00000KT 4SM BR CLR 14/14 A3017 -20 100 -100 000/00 RMK AO2 T01390139
13870KAMG AMG20160312063510803/12/16 06:35:31  5-MIN KAMG 121135Z AUTO 00000KT 5SM BR CLR 14/14 A3017 -20 100 0 000/00 RMK AO2 T01440144
13870KAMG AMG20160312064010803/12/16 06:40:31  5-MIN KAMG 121140Z AUTO 13003KT 4SM BR CLR 14/14 A3017 -20 100 0 140/03 RMK AO2 T01440144
13870KAMG AMG20160312064510803/12/16 06:45:31  5-MIN KAMG 121145Z AUTO 11003KT 4SM BR CLR 14/14 A3017 -20 100 0 120/03 RMK AO2 T01440144
13870KAMG AMG20160312065013303/12/16 06:50:31  5-MIN KAMG 121150Z AUTO 12003KT 3SM BR CLR 14/14 A3017 -20 100 0 120/03 RMK AO2 SLP214 T01440144 10150 20122 58014
13870KAMG AMG20160312065511203/12/16 06:55:31  5-MIN KAMG 121155Z AUTO 11003KT 2 1/2SM BR CLR 14/14 A3017 -20 100 0 110/03 RMK AO2 T01440144
13870KAMG AMG20160312070011203/12/16 07:00:31  5-MIN KAMG 121200Z AUTO 00000KT 2 1/2SM BR CLR 15/15 A3017 -30 100 0 000/00 RMK AO2 T01500150
13870KAMG AMG20160312070510803/12/16 07:05:31  5-MIN KAMG 121205Z AUTO 10003KT 3SM BR CLR 15/15 A3017 -20 100 0 100/03 RMK AO2 T01500150
13870KAMG AMG20160312071010803/12/16 07:10:31  5-MIN KAMG 121210Z AUTO 00000KT 3SM BR CLR 15/15 A3017 -20 100 0 000/00 RMK AO2 T01500150
13870KAMG AMG20160312071510803/12/16 07:15:31  5-MIN KAMG 121215Z AUTO 00000KT 3SM BR CLR 15/15 A3017 -20 100 0 000/00 RMK AO2 T01500150
13870KAMG AMG20160312072010803/12/16 07:20:31  5-MIN KAMG 121220Z AUTO 00000KT 3SM BR CLR 15/15 A3017 -20 100 0 000/00 RMK AO2 T01500150
13870KAMG AMG20160312072510803/12/16 07:25:31  5-MIN KAMG 121225Z AUTO 10003KT 3SM BR CLR 15/15 A3017 -20 100 0 100/03 RMK AO2 T01500150
13870KAMG AMG20160312073011203/12/16 07:30:31  5-MIN KAMG 121230Z AUTO 00000KT 2 1/2SM BR CLR 15/15 A3017 -20 100 0 000/00 RMK AO2 T01500150
13870KAMG AMG20160312073511003/12/16 07:35:31  5-MIN KAMG 121235Z AUTO 09003KT 3SM BR CLR 16/16 A3017 -20 100 100 090/03 RMK AO2 T01560156
13870KAMG AMG20160312074011003/12/16 07:40:31  5-MIN KAMG 121240Z AUTO 00000KT 3SM BR CLR 16/16 A3017 -20 100 100 000/00 RMK AO2 T01560156
13870KAMG AMG20160312074511003/12/16 07:45:31  5-MIN KAMG 121245Z AUTO 11003KT 4SM BR CLR 16/16 A3018 -30 100 100 110/03 RMK AO2 T01560156
13870KAMG AMG20160312075011603/12/16 07:50:31  5-MIN KAMG 121250Z AUTO 11003KT 4SM BR CLR 16/16 A3017 -30 96 100 120/03 RMK AO2 SLP215 T01610156
13870KAMG AMG20160312075510903/12/16 07:55:31  5-MIN KAMG 121255Z AUTO 11003KT 4SM BR CLR 16/16 A3018 -30 96 100 120/03 RMK AO2 T01610156
13870KAMG AMG20160312080011003/12/16 08:00:31  5-MIN KAMG 121300Z AUTO 11003KT 4SM BR CLR 16/16 A3018 -30 100 100 120/03 RMK AO2 T01610161
13870KAMG AMG20160312080511003/12/16 08:05:31  5-MIN KAMG 121305Z AUTO 11003KT 5SM BR CLR 16/16 A3018 -30 100 100 110/03 RMK AO2 T01610161
13870KAMG AMG20160312081011003/12/16 08:10:31  5-MIN KAMG 121310Z AUTO 10003KT 5SM BR CLR 16/16 A3018 -30 100 100 110/03 RMK AO2 T01610161
13870KAMG AMG20160312081510903/12/16 08:15:31  5-MIN KAMG 121315Z AUTO 11005KT 5SM BR CLR 17/16 A3018 -30 96 200 110/05 RMK AO2 T01670161
13870KAMG AMG20160312082010903/12/16 08:20:31  5-MIN KAMG 121320Z AUTO 11004KT 5SM BR CLR 17/16 A3018 -30 96 200 110/04 RMK AO2 T01670161
13870KAMG AMG20160312082511003/12/16 08:25:31  5-MIN KAMG 121325Z AUTO 11005KT 6SM BR CLR 17/17 A3018 -30 100 200 110/05 RMK AO2 T01670167
13870KAMG AMG20160312083010903/12/16 08:30:31  5-MIN KAMG 121330Z AUTO 11005KT 6SM BR CLR 17/17 A3018 -30 96 300 110/05 RMK AO2 T01720167
13870KAMG AMG20160312083510603/12/16 08:35:31  5-MIN KAMG 121335Z AUTO 11006KT 7SM CLR 17/17 A3018 -30 96 300 110/06 RMK AO2 T01720167
13870KAMG AMG20160312084010603/12/16 08:40:31  5-MIN KAMG 121340Z AUTO 10008KT 7SM CLR 17/17 A3018 -30 96 300 110/08 RMK AO2 T01720167
13870KAMG AMG20160312084510903/12/16 08:45:31  5-MIN KAMG 121345Z AUTO 12007KT 6SM BR CLR 17/17 A3019 -40 96 200 120/07 RMK AO2 T01720167
13870KAMG AMG20160312085010203/12/16 08:50:31  5-MIN KAMG 121350Z AUTO 12005KT 6SM BR FEW004 17/17 A3019 -40 96 200 130/05 RMK AO2
13870KAMG AMG20160312085511203/12/16 08:55:31  5-MIN KAMG 121355Z AUTO 13006KT 6SM BR FEW004 17/17 A3019 -40 96 200 130/06 RMK AO2 T01720167
13870KAMG AMG20160312090011203/12/16 09:00:31  5-MIN KAMG 121400Z AUTO 11005KT 6SM BR SCT004 17/17 A3019 -40 96 200 110/05 RMK AO2 T01720167
13870KAMG AMG20160312090511203/12/16 09:05:31  5-MIN KAMG 121405Z AUTO 11005KT 6SM BR SCT004 18/17 A3019 -40 93 300 120/05 RMK AO2 T01780167
13870KAMG AMG20160312091011203/12/16 09:10:31  5-MIN KAMG 121410Z AUTO 12005KT 6SM BR SCT004 18/17 A3020 -50 93 400 120/05 RMK AO2 T01830172
13870KAMG AMG20160312091510903/12/16 09:15:31  5-MIN KAMG 121415Z AUTO 13006KT 7SM SCT004 18/17 A3020 -50 93 400 130/06 RMK AO2 T01830172
13870KAMG AMG20160312092010903/12/16 09:20:31  5-MIN KAMG 121420Z AUTO 11005KT 7SM SCT004 18/17 A3019 -50 93 400 120/05 RMK AO2 T01830172
13870KAMG AMG20160312092510903/12/16 09:25:31  5-MIN KAMG 121425Z AUTO 12006KT 7SM SCT004 18/17 A3020 -50 93 400 130/06 RMK AO2 T01830172
13870KAMG AMG20160312093010903/12/16 09:30:31  5-MIN KAMG 121430Z AUTO 12006KT 7SM FEW005 19/17 A3020 -50 90 400 130/06 RMK AO2 T01890172
13870KAMG AMG20160312093510903/12/16 09:35:31  5-MIN KAMG 121435Z AUTO 11006KT 8SM FEW005 19/17 A3020 -50 90 400 110/06 RMK AO2 T01890172
13870KAMG AMG20160312094010903/12/16 09:40:31  5-MIN KAMG 121440Z AUTO 11005KT 8SM FEW005 19/17 A3020 -50 90 400 120/05 RMK AO2 T01890172
13870KAMG AMG20160312094510603/12/16 09:45:31  5-MIN KAMG 121445Z AUTO 11006KT 8SM CLR 19/18 A3020 -50 90 500 120/06 RMK AO2 T01940178
13870KAMG AMG20160312095011903/12/16 09:50:31  5-MIN KAMG 121450Z AUTO 12004KT 8SM CLR 20/18 A3020 -50 87 600 120/04 RMK AO2 SLP224 T02000178 53007
13870KAMG AMG20160312095510603/12/16 09:55:31  5-MIN KAMG 121455Z AUTO 11004KT 8SM CLR 20/18 A3020 -50 87 600 120/04 RMK AO2 T02000178
13870KAMG AMG20160312100010603/12/16 10:00:31  5-MIN KAMG 121500Z AUTO 10004KT 9SM CLR 21/18 A3020 -50 84 600 110/04 RMK AO2 T02060178
13870KAMG AMG20160312100510603/12/16 10:05:31  5-MIN KAMG 121505Z AUTO 12004KT 9SM CLR 21/18 A3020 -50 81 700 130/04 RMK AO2 T02110178
13870KAMG AMG20160312101010603/12/16 10:10:31  5-MIN KAMG 121510Z AUTO VRB03KT 9SM CLR 21/18 A3020 -50 84 600 VRB/03 RMK AO2 T02060178
13870KAMG AMG20160312101510603/12/16 10:15:31  5-MIN KAMG 121515Z AUTO 15007KT 9SM CLR 22/18 A3019 -50 78 800 160/07 RMK AO2 T02170178
13870KAMG AMG20160312102010703/12/16 10:20:31  5-MIN KAMG 121520Z AUTO 16007KT 10SM CLR 22/18 A3019 -40 75 800 170/07 RMK AO2 T02220178
13870KAMG AMG20160312102510703/12/16 10:25:31  5-MIN KAMG 121525Z AUTO 14006KT 10SM CLR 22/18 A3019 -40 75 800 150/06 RMK AO2 T02220178
13870KAMG AMG20160312103010703/12/16 10:30:31  5-MIN KAMG 121530Z AUTO 16006KT 10SM CLR 23/18 A3019 -40 73 900 160/06 RMK AO2 T02280178
13870KAMG AMG20160312103510703/12/16 10:35:31  5-MIN KAMG 121535Z AUTO 16007KT 10SM CLR 23/18 A3019 -40 73 900 170/07 RMK AO2 T02280178
13870KAMG AMG20160312104010703/12/16 10:40:31  5-MIN KAMG 121540Z AUTO 11006KT 10SM CLR 23/18 A3018 -30 73 900 120/06 RMK AO2 T02280178
13870KAMG AMG20160312104510803/12/16 10:45:31  5-MIN KAMG 121545Z AUTO 13005KT 10SM CLR 23/18 A3018 -30 70 1000 140/05 RMK AO2 T02330178
13870KAMG AMG20160312105011503/12/16 10:50:31  5-MIN KAMG 121550Z AUTO 15007KT 10SM CLR 24/18 A3019 -40 71 1000 160/07 RMK AO2 SLP220 T02390183
13870KAMG AMG20160312105510803/12/16 10:55:31  5-MIN KAMG 121555Z AUTO 14009KT 10SM CLR 23/18 A3018 -30 70 1000 140/09 RMK AO2 T02330178
13870KAMG AMG20160312110010803/12/16 11:00:31  5-MIN KAMG 121600Z AUTO 15006KT 10SM CLR 24/18 A3018 -30 68 1100 160/06 RMK AO2 T02440183
13870KAMG AMG20160312110510803/12/16 11:05:31  5-MIN KAMG 121605Z AUTO 15008KT 10SM CLR 24/18 A3018 -30 68 1100 150/08 RMK AO2 T02440183
13870KAMG AMG20160312111010803/12/16 11:10:31  5-MIN KAMG 121610Z AUTO 14007KT 10SM CLR 24/18 A3018 -30 68 1100 140/07 RMK AO2 T02440183
13870KAMG AMG20160312111510803/12/16 11:15:31  5-MIN KAMG 121615Z AUTO 16009KT 10SM CLR 24/18 A3018 -30 66 1100 170/09 RMK AO2 T02440178
13870KAMG AMG20160312112010803/12/16 11:20:31  5-MIN KAMG 121620Z AUTO 15005KT 10SM CLR 25/18 A3018 -30 64 1200 150/05 RMK AO2 T02500178
13870KAMG AMG20160312112510803/12/16 11:25:31  5-MIN KAMG 121625Z AUTO 14007KT 10SM CLR 26/18 A3017 -20 61 1200 140/07 RMK AO2 T02560178
13870KAMG AMG20160312113010803/12/16 11:30:31  5-MIN KAMG 121630Z AUTO 16009KT 10SM CLR 25/18 A3017 -20 64 1200 160/09 RMK AO2 T02500178
13870KAMG AMG20160312113510803/12/16 11:35:31  5-MIN KAMG 121635Z AUTO 13009KT 10SM CLR 26/18 A3017 -30 61 1200 130/09 RMK AO2 T02560178
13870KAMG AMG20160312114011103/12/16 11:40:31  5-MIN KAMG 121640Z AUTO VRB05KT 10SM FEW026 26/18 A3017 -20 59 1300 VRB/05 RMK AO2 T02610178
13870KAMG AMG20160312114511103/12/16 11:45:31  5-MIN KAMG 121645Z AUTO VRB06KT 10SM FEW028 26/18 A3017 -20 59 1300 VRB/06 RMK AO2 T02610178
13870KAMG AMG20160312115011803/12/16 11:50:31  5-MIN KAMG 121650Z AUTO 14010KT 10SM SCT031 26/17 A3016 -20 57 1300 150/10 RMK AO2 SLP212 T02610172
13870KAMG AMG20160312115511803/12/16 11:55:31  5-MIN KAMG 121655Z AUTO 13008KT 10SM BKN029 BKN037 26/17 A3016 -20 55 1300 140/08 RMK AO2 T02610167
13870KAMG AMG20160312120011103/12/16 12:00:31  5-MIN KAMG 121700Z AUTO 13009KT 10SM BKN029 27/17 A3016 -10 53 1400 140/09 RMK AO2 T02670167
13870KAMG AMG20160312120513403/12/16 12:05:31  5-MIN KAMG 121705Z AUTO 16009KT 110V170 10SM BKN029 BKN037 27/17 A3016 -10 55 1400 160/09 120V180 RMK AO2 T02670172
13870KAMG AMG20160312121011103/12/16 12:10:31  5-MIN KAMG 121710Z AUTO 18010KT 10SM BKN033 27/16 A3016 -10 52 1400 190/10 RMK AO2 T02670161
13870KAMG AMG20160312121511103/12/16 12:15:31  5-MIN KAMG 121715Z AUTO 18009KT 10SM BKN033 27/16 A3015 -10 52 1400 180/09 RMK AO2 T02670161
13870KAMG AMG20160312122011803/12/16 12:20:31  5-MIN KAMG 121720Z AUTO 15009KT 10SM BKN033 BKN043 27/16 A3015 -10 50 1400 160/09 RMK AO2 T02720161
13870KAMG AMG20160312122511603/12/16 12:25:31  5-MIN KAMG 121725Z AUTO 14008KT 10SM BKN035 BKN043 27/14 A3014 0 45 1500 150/08 RMK AO2 T02720144
13870KAMG AMG20160312123010903/12/16 12:30:31  5-MIN KAMG 121730Z AUTO 17011KT 10SM SCT035 27/14 A3014 0 46 1400 170/11 RMK AO2 T02670144
13870KAMG AMG20160312123510903/12/16 12:35:31  5-MIN KAMG 121735Z AUTO 16012KT 10SM FEW035 27/13 A3014 0 40 1500 170/12 RMK AO2 T02720128
13870KAMG AMG20160312124010903/12/16 12:40:31  5-MIN KAMG 121740Z AUTO 17009KT 10SM FEW037 27/14 A3014 0 45 1500 170/09 RMK AO2 T02720144
13870KAMG AMG20160312124511003/12/16 12:45:31  5-MIN KAMG 121745Z AUTO 16010KT 10SM FEW035 28/14 A3013 10 43 1500 160/10 RMK AO2 T02780144
13870KAMG AMG20160312125013203/12/16 12:50:31  5-MIN KAMG 121750Z AUTO 16012KT 10SM CLR 27/14 A3013 10 45 1500 170/12 RMK AO2 SLP199 T02720144 10278 20144 53010
13870KAMG AMG20160312125510703/12/16 12:55:31  5-MIN KAMG 121755Z AUTO 15011KT 10SM CLR 27/14 A3013 10 45 1500 160/11 RMK AO2 T02720144
13870KAMG AMG20160312130010703/12/16 13:00:31  5-MIN KAMG 121800Z AUTO 12007KT 10SM CLR 28/14 A3012 20 43 1500 130/07 RMK AO2 T02780144
13870KAMG AMG20160312130511303/12/16 13:05:31  5-MIN KAMG 121805Z AUTO 13012G17KT 10SM CLR 28/14 A3012 20 42 1500 140/12G17 RMK AO2 T02780139
13870KAMG AMG20160312131011303/12/16 13:10:31  5-MIN KAMG 121810Z AUTO 12009G17KT 10SM CLR 28/13 A3012 20 39 1500 130/09G17 RMK AO2 T02780128
13870KAMG AMG20160312131511303/12/16 13:15:31  5-MIN KAMG 121815Z AUTO 13009G16KT 10SM CLR 28/13 A3012 20 40 1500 140/09G16 RMK AO2 T02780133
13870KAMG AMG20160312132010703/12/16 13:20:31  5-MIN KAMG 121820Z AUTO 14007KT 10SM CLR 28/14 A3012 20 40 1600 150/07 RMK AO2 T02830139
13870KAMG AMG20160312132510703/12/16 13:25:31  5-MIN KAMG 121825Z AUTO 13009KT 10SM CLR 28/14 A3011 30 42 1600 140/09 RMK AO2 T02830144
13870KAMG AMG20160312133012303/12/16 13:30:31  5-MIN KAMG 121830Z AUTO 12009KT 080V140 10SM CLR 28/14 A3011 30 43 1600 120/09 090V150 RMK AO2 T02780144
13870KAMG AMG20160312133510703/12/16 13:35:31  5-MIN KAMG 121835Z AUTO 16012KT 10SM CLR 28/13 A3011 30 39 1600 170/12 RMK AO2 T02830133
13870KAMG AMG20160312134010703/12/16 13:40:31  5-MIN KAMG 121840Z AUTO 12009KT 10SM CLR 28/13 A3010 30 40 1600 120/09 RMK AO2 T02780133
13870KAMG AMG20160312134510703/12/16 13:45:31  5-MIN KAMG 121845Z AUTO 15010KT 10SM CLR 28/12 A3010 40 36 1600 160/10 RMK AO2 T02830122
13870KAMG AMG20160312135012003/12/16 13:50:31  5-MIN KAMG 121850Z AUTO 13007G16KT 10SM CLR 28/13 A3009 40 39 1600 130/07G16 RMK AO2 SLP189 T02780128
13870KAMG AMG20160312135511603/12/16 13:55:31  5-MIN KAMG 121855Z AUTO 14012G18KT 10SM FEW060 28/13 A3010 40 37 1600 150/12G18 RMK AO2 T02830128
13870KAMG AMG20160312140011603/12/16 14:00:31  5-MIN KAMG 121900Z AUTO 16011G18KT 10SM FEW060 28/13 A3010 40 37 1600 160/11G18 RMK AO2 T02830128
13870KAMG AMG20160312140511603/12/16 14:05:31  5-MIN KAMG 121905Z AUTO 15008G17KT 10SM FEW060 28/13 A3009 50 39 1600 150/08G17 RMK AO2 T02830133
13870KAMG AMG20160312141011603/12/16 14:10:31  5-MIN KAMG 121910Z AUTO 17010G17KT 10SM FEW060 28/13 A3009 50 37 1600 180/10G17 RMK AO2 T02830128
13870KAMG AMG20160312141513203/12/16 14:15:31  5-MIN KAMG 121915Z AUTO 17009G17KT 130V210 10SM SCT060 29/12 A3008 50 35 1700 170/09G17 140V220 RMK AO2 T02890122
13870KAMG AMG20160312142011603/12/16 14:20:31  5-MIN KAMG 121920Z AUTO 15007G16KT 10SM SCT060 28/13 A3008 50 37 1600 160/07G16 RMK AO2 T02830128
13870KAMG AMG20160312142511003/12/16 14:25:31  5-MIN KAMG 121925Z AUTO 17006KT 10SM FEW060 28/13 A3008 60 37 1600 170/06 RMK AO2 T02830128
13870KAMG AMG20160312143011603/12/16 14:30:31  5-MIN KAMG 121930Z AUTO 15011G18KT 10SM FEW065 28/12 A3008 60 36 1600 150/11G18 RMK AO2 T02830122
13870KAMG AMG20160312143511603/12/16 14:35:31  5-MIN KAMG 121935Z AUTO 18010G18KT 10SM FEW065 28/12 A3008 60 36 1600 180/10G18 RMK AO2 T02780117
13870KAMG AMG20160312144011003/12/16 14:40:31  5-MIN KAMG 121940Z AUTO 15006KT 10SM FEW060 28/12 A3008 60 36 1600 160/06 RMK AO2 T02830122
13870KAMG AMG20160312144511603/12/16 14:45:31  5-MIN KAMG 121945Z AUTO 13009G17KT 10SM FEW065 28/12 A3008 60 36 1600 140/09G17 RMK AO2 T02830122
13870KAMG AMG20160312145012003/12/16 14:50:31  5-MIN KAMG 121950Z AUTO 16007G17KT 10SM CLR 28/12 A3007 60 37 1600 160/07G17 RMK AO2 SLP181 T02780122
13870KAMG AMG20160312145511303/12/16 14:55:31  5-MIN KAMG 121955Z AUTO 18007G15KT 10SM CLR 28/12 A3007 60 35 1700 180/07G15 RMK AO2 T02830117
13870KAMG AMG20160312150011303/12/16 15:00:31  5-MIN KAMG 122000Z AUTO 15010G15KT 10SM CLR 28/11 A3007 60 33 1700 150/10G15 RMK AO2 T02830111
13870KAMG AMG20160312150510703/12/16 15:05:31  5-MIN KAMG 122005Z AUTO 15008KT 10SM CLR 28/11 A3007 60 33 1700 160/08 RMK AO2 T02830111
13870KAMG AMG20160312151010703/12/16 15:10:31  5-MIN KAMG 122010Z AUTO 16010KT 10SM CLR 28/11 A3006 70 33 1700 160/10 RMK AO2 T02830111
13870KAMG AMG20160312151510703/12/16 15:15:31  5-MIN KAMG 122015Z AUTO 18013KT 10SM CLR 28/11 A3006 70 32 1700 180/13 RMK AO2 T02830106
13870KAMG AMG20160312152010703/12/16 15:20:31  5-MIN KAMG 122020Z AUTO 17012KT 10SM CLR 29/11 A3006 70 31 1700 170/12 RMK AO2 T02890106
13870KAMG AMG20160312152510703/12/16 15:25:31  5-MIN KAMG 122025Z AUTO 15010KT 10SM CLR 28/10 A3006 70 31 1700 150/10 RMK AO2 T02830100
13870KAMG AMG20160312153010703/12/16 15:30:31  5-MIN KAMG 122030Z AUTO 19011KT 10SM CLR 29/10 A3006 70 30 1700 190/11 RMK AO2 T02890100
13870KAMG AMG20160312153510703/12/16 15:35:31  5-MIN KAMG 122035Z AUTO 16008KT 10SM CLR 28/11 A3006 70 32 1700 160/08 RMK AO2 T02830106
13870KAMG AMG20160312154010703/12/16 15:40:31  5-MIN KAMG 122040Z AUTO 16006KT 10SM CLR 28/11 A3006 70 35 1600 170/06 RMK AO2 T02780111
13870KAMG AMG20160312154511003/12/16 15:45:31  5-MIN KAMG 122045Z AUTO 16009KT 10SM FEW070 28/12 A3006 70 36 1600 170/09 RMK AO2 T02780117
13870KAMG AMG20160312155013903/12/16 15:50:31  5-MIN KAMG 122050Z AUTO 16007KT 120V180 10SM FEW065 28/12 A3006 80 36 1700 160/07 130V190 RMK AO2 SLP176 T02830122 58024
13870KAMG AMG20160312155511003/12/16 15:55:31  5-MIN KAMG 122055Z AUTO 18011KT 10SM SCT065 28/13 A3006 80 37 1700 180/11 RMK AO2 T02830128
13870KAMG AMG20160312160011003/12/16 16:00:31  5-MIN KAMG 122100Z AUTO 16009KT 10SM SCT065 28/13 A3006 80 37 1700 170/09 RMK AO2 T02830128
13870KAMG AMG20160312160511003/12/16 16:05:31  5-MIN KAMG 122105Z AUTO 16007KT 10SM BKN065 28/13 A3006 80 37 1700 170/07 RMK AO2 T02830128
13870KAMG AMG20160312161011003/12/16 16:10:31  5-MIN KAMG 122110Z AUTO 19009KT 10SM BKN065 28/13 A3005 80 37 1700 190/09 RMK AO2 T02830128
13870KAMG AMG20160312161511003/12/16 16:15:31  5-MIN KAMG 122115Z AUTO 18012KT 10SM SCT065 28/13 A3005 80 39 1600 190/12 RMK AO2 T02780128
13870KAMG AMG20160312162011003/12/16 16:20:31  5-MIN KAMG 122120Z AUTO 17011KT 10SM SCT065 28/13 A3005 80 37 1700 180/11 RMK AO2 T02830128
13870KAMG AMG20160312162511003/12/16 16:25:31  5-MIN KAMG 122125Z AUTO 18010KT 10SM FEW065 28/13 A3005 80 37 1700 180/10 RMK AO2 T02830128
13870KAMG AMG20160312163011003/12/16 16:30:31  5-MIN KAMG 122130Z AUTO 16012KT 10SM FEW065 28/13 A3005 80 40 1600 170/12 RMK AO2 T02780133
13870KAMG AMG20160312163510703/12/16 16:35:31  5-MIN KAMG 122135Z AUTO 16009KT 10SM CLR 27/13 A3005 90 42 1600 160/09 RMK AO2 T02720133
13870KAMG AMG20160312164010703/12/16 16:40:31  5-MIN KAMG 122140Z AUTO 16009KT 10SM CLR 28/13 A3005 80 40 1600 160/09 RMK AO2 T02780133
13870KAMG AMG20160312164511003/12/16 16:45:31  5-MIN KAMG 122145Z AUTO 15009KT 10SM FEW065 28/13 A3005 90 40 1600 150/09 RMK AO2 T02780133
13870KAMG AMG20160312165011703/12/16 16:50:31  5-MIN KAMG 122150Z AUTO 16013KT 10SM SCT070 28/13 A3004 90 40 1600 170/13 RMK AO2 SLP171 T02780133
13870KAMG AMG20160312165511003/12/16 16:55:31  5-MIN KAMG 122155Z AUTO 18009KT 10SM SCT070 28/13 A3004 90 40 1600 190/09 RMK AO2 T02780133
13870KAMG AMG20160312170011003/12/16 17:00:31  5-MIN KAMG 122200Z AUTO 17007KT 10SM FEW070 28/13 A3004 90 39 1600 170/07 RMK AO2 T02780128
13870KAMG AMG20160312170511003/12/16 17:05:31  5-MIN KAMG 122205Z AUTO 17011KT 10SM FEW070 27/13 A3004 90 42 1600 170/11 RMK AO2 T02720133
13870KAMG AMG20160312171011003/12/16 17:10:31  5-MIN KAMG 122210Z AUTO 17010KT 10SM FEW065 27/13 A3004 90 40 1600 180/10 RMK AO2 T02720128
13870KAMG AMG20160312171511003/12/16 17:15:31  5-MIN KAMG 122215Z AUTO 18009KT 10SM FEW070 27/13 A3004 90 42 1600 180/09 RMK AO2 T02720133
13870KAMG AMG20160312172010703/12/16 17:20:31  5-MIN KAMG 122220Z AUTO 18011KT 10SM CLR 27/13 A3004 90 40 1600 180/11 RMK AO2 T02720128
13870KAMG AMG20160312172510703/12/16 17:25:31  5-MIN KAMG 122225Z AUTO 17008KT 10SM CLR 27/13 A3005 90 43 1500 180/08 RMK AO2 T02670133
13870KAMG AMG20160312173010703/12/16 17:30:31  5-MIN KAMG 122230Z AUTO 16009KT 10SM CLR 27/13 A3004 90 43 1500 170/09 RMK AO2 T02670133
13870KAMG AMG20160312173510703/12/16 17:35:31  5-MIN KAMG 122235Z AUTO 17009KT 10SM CLR 26/13 A3004 90 44 1400 170/09 RMK AO2 T02610133
13870KAMG AMG20160312174010703/12/16 17:40:31  5-MIN KAMG 122240Z AUTO 17008KT 10SM CLR 26/13 A3004 90 44 1400 180/08 RMK AO2 T02610133
13870KAMG AMG20160312174510703/12/16 17:45:31  5-MIN KAMG 122245Z AUTO 16007KT 10SM CLR 26/13 A3004 90 44 1400 170/07 RMK AO2 T02610133
13870KAMG AMG20160312175011403/12/16 17:50:31  5-MIN KAMG 122250Z AUTO 16009KT 10SM CLR 26/14 A3004 90 48 1400 170/09 RMK AO2 SLP171 T02560139
13870KAMG AMG20160312175510703/12/16 17:55:31  5-MIN KAMG 122255Z AUTO 16007KT 10SM CLR 26/14 A3004 90 48 1400 170/07 RMK AO2 T02560139
13870KAMG AMG20160312180010703/12/16 18:00:31  5-MIN KAMG 122300Z AUTO 17006KT 10SM CLR 26/14 A3004 90 48 1400 170/06 RMK AO2 T02560139
13870KAMG AMG20160312180510703/12/16 18:05:31  5-MIN KAMG 122305Z AUTO 16006KT 10SM CLR 25/14 A3004 90 49 1300 170/06 RMK AO2 T02500139
13870KAMG AMG20160312181010703/12/16 18:10:31  5-MIN KAMG 122310Z AUTO 15005KT 10SM CLR 25/14 A3004 90 49 1300 160/05 RMK AO2 T02500139
13870KAMG AMG20160312181510703/12/16 18:15:31  5-MIN KAMG 122315Z AUTO 15005KT 10SM CLR 25/14 A3004 90 49 1300 150/05 RMK AO2 T02500139
13870KAMG AMG20160312182010703/12/16 18:20:31  5-MIN KAMG 122320Z AUTO 14004KT 10SM CLR 24/14 A3004 90 51 1200 150/04 RMK AO2 T02440139
13870KAMG AMG20160312182510703/12/16 18:25:31  5-MIN KAMG 122325Z AUTO 14004KT 10SM CLR 24/14 A3004 90 51 1200 140/04 RMK AO2 T02440139
13870KAMG AMG20160312183010703/12/16 18:30:31  5-MIN KAMG 122330Z AUTO 14004KT 10SM CLR 24/14 A3004 90 53 1200 140/04 RMK AO2 T02390139
13870KAMG AMG20160312183510703/12/16 18:35:31  5-MIN KAMG 122335Z AUTO 14004KT 10SM CLR 24/14 A3004 90 53 1200 150/04 RMK AO2 T02390139
13870KAMG AMG20160312184010703/12/16 18:40:31  5-MIN KAMG 122340Z AUTO 14004KT 10SM CLR 24/14 A3004 90 53 1200 150/04 RMK AO2 T02390139
13870KAMG AMG20160312184510703/12/16 18:45:31  5-MIN KAMG 122345Z AUTO 15004KT 10SM CLR 23/14 A3004 90 55 1100 150/04 RMK AO2 T02330139
13870KAMG AMG20160312185013203/12/16 18:50:31  5-MIN KAMG 122350Z AUTO 15004KT 10SM CLR 23/14 A3004 90 57 1100 160/04 RMK AO2 SLP170 T02330144 10289 20233 56023
13870KAMG AMG20160312185510703/12/16 18:55:31  5-MIN KAMG 122355Z AUTO 16003KT 10SM CLR 23/14 A3004 90 57 1100 160/03 RMK AO2 T02330144
13870KAMG AMG20160312190010703/12/16 19:00:31  5-MIN KAMG 130000Z AUTO 15003KT 10SM CLR 23/14 A3004 90 59 1100 160/03 RMK AO2 T02280144
13870KAMG AMG20160312190510803/12/16 19:05:31  5-MIN KAMG 130005Z AUTO 00000KT 10SM CLR 23/14 A3004 100 59 1100 000/00 RMK AO2 T02280144
13870KAMG AMG20160312191010803/12/16 19:10:31  5-MIN KAMG 130010Z AUTO 00000KT 10SM CLR 22/14 A3004 100 59 1000 000/00 RMK AO2 T02220139
13870KAMG AMG20160312191510603/12/16 19:15:31  5-MIN KAMG 130015Z AUTO 00000KT 10SM CLR 22/14 A3004 90 61 900 000/00 RMK AO2 T02170139
13870KAMG AMG20160312192010703/12/16 19:20:31  5-MIN KAMG 130020Z AUTO 00000KT 10SM CLR 21/14 A3003 100 63 900 000/00 RMK AO2 T02110139
13870KAMG AMG20160312192510703/12/16 19:25:31  5-MIN KAMG 130025Z AUTO 00000KT 10SM CLR 21/15 A3003 100 70 800 000/00 RMK AO2 T02060150
13870KAMG AMG20160312193010703/12/16 19:30:31  5-MIN KAMG 130030Z AUTO 00000KT 10SM CLR 20/15 A3004 100 72 700 000/00 RMK AO2 T02000150
13870KAMG AMG20160312193510603/12/16 19:35:31  5-MIN KAMG 130035Z AUTO 16003KT 10SM CLR 20/15 A3004 90 72 700 170/03 RMK AO2 T02000150
13870KAMG AMG20160312194010603/12/16 19:40:31  5-MIN KAMG 130040Z AUTO 16003KT 10SM CLR 20/16 A3004 90 78 700 160/03 RMK AO2 T02000161
13870KAMG AMG20160312194510603/12/16 19:45:31  5-MIN KAMG 130045Z AUTO 14003KT 10SM CLR 20/15 A3004 90 72 700 140/03 RMK AO2 T02000150
13870KAMG AMG20160312195011303/12/16 19:50:31  5-MIN KAMG 130050Z AUTO 14003KT 10SM CLR 21/14 A3004 90 67 800 140/03 RMK AO2 SLP170 T02060144
13870KAMG AMG20160312195510603/12/16 19:55:31  5-MIN KAMG 130055Z AUTO 13003KT 10SM CLR 21/14 A3004 90 67 800 140/03 RMK AO2 T02060144
13870KAMG AMG20160312200010603/12/16 20:00:31  5-MIN KAMG 130100Z AUTO 10004KT 10SM CLR 20/14 A3004 90 70 700 110/04 RMK AO2 T02000144
13870KAMG AMG20160312200510603/12/16 20:05:31  5-MIN KAMG 130105Z AUTO 12004KT 10SM CLR 20/14 A3004 90 70 700 120/04 RMK AO2 T02000144
13870KAMG AMG20160312201010603/12/16 20:10:31  5-MIN KAMG 130110Z AUTO 12005KT 10SM CLR 21/14 A3004 90 67 800 120/05 RMK AO2 T02060144
13870KAMG AMG20160312201510603/12/16 20:15:31  5-MIN KAMG 130115Z AUTO 12006KT 10SM CLR 21/15 A3004 90 68 900 130/06 RMK AO2 T02110150
13870KAMG AMG20160312202010603/12/16 20:20:31  5-MIN KAMG 130120Z AUTO 12007KT 10SM CLR 22/16 A3004 90 68 900 130/07 RMK AO2 T02170156
13870KAMG AMG20160312202510703/12/16 20:25:31  5-MIN KAMG 130125Z AUTO 13008KT 10SM CLR 22/16 A3004 90 68 1000 130/08 RMK AO2 T02220161
13870KAMG AMG20160312203010703/12/16 20:30:31  5-MIN KAMG 130130Z AUTO 12007KT 10SM CLR 22/17 A3004 90 70 1000 130/07 RMK AO2 T02220167
13870KAMG AMG20160312203510703/12/16 20:35:31  5-MIN KAMG 130135Z AUTO 13006KT 10SM CLR 22/17 A3004 90 73 1000 130/06 RMK AO2 T02220172
13870KAMG AMG20160312204010703/12/16 20:40:31  5-MIN KAMG 130140Z AUTO 13006KT 10SM CLR 22/17 A3004 90 73 1000 130/06 RMK AO2 T02220172
13870KAMG AMG20160312204510603/12/16 20:45:31  5-MIN KAMG 130145Z AUTO 12006KT 10SM CLR 22/17 A3004 90 75 900 130/06 RMK AO2 T02170172
13870KAMG AMG20160312205011403/12/16 20:50:31  5-MIN KAMG 130150Z AUTO 12007KT 10SM CLR 22/18 A3004 100 78 900 120/07 RMK AO2 SLP169 T02170178
13870KAMG AMG20160312205510603/12/16 20:55:31  5-MIN KAMG 130155Z AUTO 12007KT 10SM CLR 22/18 A3004 90 78 900 120/07 RMK AO2 T02170178
13870KAMG AMG20160312210010703/12/16 21:00:31  5-MIN KAMG 130200Z AUTO 12006KT 10SM CLR 22/18 A3004 100 78 900 130/06 RMK AO2 T02170178
13870KAMG AMG20160312210510703/12/16 21:05:31  5-MIN KAMG 130205Z AUTO 12006KT 10SM CLR 22/18 A3004 100 78 900 130/06 RMK AO2 T02170178
13870KAMG AMG20160312211010703/12/16 21:10:31  5-MIN KAMG 130210Z AUTO 13005KT 10SM CLR 22/18 A3003 100 78 900 130/05 RMK AO2 T02170178
13870KAMG AMG20160312211510603/12/16 21:15:31  5-MIN KAMG 130215Z AUTO 13007KT 10SM CLR 22/18 A3004 90 78 900 130/07 RMK AO2 T02170178
13870KAMG AMG20160312212010603/12/16 21:20:31  5-MIN KAMG 130220Z AUTO 13005KT 10SM CLR 22/18 A3004 90 78 900 130/05 RMK AO2 T02170178
13870KAMG AMG20160312212510603/12/16 21:25:31  5-MIN KAMG 130225Z AUTO 13006KT 10SM CLR 22/18 A3004 90 78 900 140/06 RMK AO2 T02170178
13870KAMG AMG20160312213010603/12/16 21:30:31  5-MIN KAMG 130230Z AUTO 12005KT 10SM CLR 22/18 A3004 90 78 900 130/05 RMK AO2 T02170178
13870KAMG AMG20160312213510603/12/16 21:35:31  5-MIN KAMG 130235Z AUTO 13005KT 10SM CLR 21/18 A3004 90 81 900 140/05 RMK AO2 T02110178
13870KAMG AMG20160312214010603/12/16 21:40:31  5-MIN KAMG 130240Z AUTO 12006KT 10SM CLR 21/18 A3004 90 81 900 130/06 RMK AO2 T02110178
13870KAMG AMG20160312214510603/12/16 21:45:31  5-MIN KAMG 130245Z AUTO 13006KT 10SM CLR 21/18 A3004 90 81 900 130/06 RMK AO2 T02110178
13870KAMG AMG20160312215011903/12/16 21:50:31  5-MIN KAMG 130250Z AUTO 13007KT 10SM CLR 21/18 A3004 90 81 900 130/07 RMK AO2 SLP169 T02110178 56006
13870KAMG AMG20160312215510703/12/16 21:55:31  5-MIN KAMG 130255Z AUTO 12006KT 10SM CLR 21/18 A3003 100 81 900 130/06 RMK AO2 T02110178
13870KAMG AMG20160312220010703/12/16 22:00:31  5-MIN KAMG 130300Z AUTO 12004KT 10SM CLR 21/18 A3003 100 81 900 130/04 RMK AO2 T02110178
13870KAMG AMG20160312220510703/12/16 22:05:31  5-MIN KAMG 130305Z AUTO 14004KT 10SM CLR 21/18 A3004 100 81 900 140/04 RMK AO2 T02110178
13870KAMG AMG20160312221010703/12/16 22:10:31  5-MIN KAMG 130310Z AUTO 14003KT 10SM CLR 21/18 A3004 100 81 900 150/03 RMK AO2 T02110178
13870KAMG AMG20160312221510703/12/16 22:15:31  5-MIN KAMG 130315Z AUTO 13005KT 10SM CLR 21/18 A3003 100 81 900 130/05 RMK AO2 T02110178
13870KAMG AMG20160312222010703/12/16 22:20:31  5-MIN KAMG 130320Z AUTO 13003KT 10SM CLR 21/18 A3004 100 84 800 130/03 RMK AO2 T02060178
13870KAMG AMG20160312222510603/12/16 22:25:31  5-MIN KAMG 130325Z AUTO 14004KT 10SM CLR 21/18 A3004 90 84 800 140/04 RMK AO2 T02060178
13870KAMG AMG20160312223010703/12/16 22:30:31  5-MIN KAMG 130330Z AUTO 13003KT 10SM CLR 21/18 A3003 100 84 800 130/03 RMK AO2 T02060178
13870KAMG AMG20160312223510703/12/16 22:35:31  5-MIN KAMG 130335Z AUTO 12005KT 10SM CLR 21/18 A3003 100 84 800 130/05 RMK AO2 T02060178
13870KAMG AMG20160312224010703/12/16 22:40:31  5-MIN KAMG 130340Z AUTO 12004KT 10SM CLR 21/17 A3003 100 81 800 120/04 RMK AO2 T02060172
13870KAMG AMG20160312224510703/12/16 22:45:31  5-MIN KAMG 130345Z AUTO 12004KT 10SM CLR 21/17 A3003 100 81 800 120/04 RMK AO2 T02060172
13870KAMG AMG20160312225011403/12/16 22:50:31  5-MIN KAMG 130350Z AUTO 11004KT 10SM CLR 21/17 A3003 110 81 800 110/04 RMK AO2 SLP165 T02060172
13870KAMG AMG20160312225510703/12/16 22:55:31  5-MIN KAMG 130355Z AUTO 09004KT 10SM CLR 20/17 A3002 110 84 800 100/04 RMK AO2 T02000172
13870KAMG AMG20160312230010703/12/16 23:00:31  5-MIN KAMG 130400Z AUTO 10004KT 10SM CLR 20/17 A3002 110 84 800 100/04 RMK AO2 T02000172
13870KAMG AMG20160312230510703/12/16 23:05:31  5-MIN KAMG 130405Z AUTO 10003KT 10SM CLR 20/17 A3002 110 84 800 110/03 RMK AO2 T02000172
13870KAMG AMG20160312231010703/12/16 23:10:31  5-MIN KAMG 130410Z AUTO 11004KT 10SM CLR 20/17 A3002 110 84 800 110/04 RMK AO2 T02000172
13870KAMG AMG20160312231510703/12/16 23:15:31  5-MIN KAMG 130415Z AUTO 12003KT 10SM CLR 20/17 A3002 110 84 800 130/03 RMK AO2 T02000172
13870KAMG AMG20160312232010703/12/16 23:20:31  5-MIN KAMG 130420Z AUTO 12004KT 10SM CLR 20/17 A3002 110 84 800 120/04 RMK AO2 T02000172
13870KAMG AMG20160312232510703/12/16 23:25:31  5-MIN KAMG 130425Z AUTO 12004KT 10SM CLR 20/17 A3002 110 84 800 130/04 RMK AO2 T02000172
13870KAMG AMG20160312233010703/12/16 23:30:31  5-MIN KAMG 130430Z AUTO 10004KT 10SM CLR 19/17 A3002 110 87 700 110/04 RMK AO2 T01940172
13870KAMG AMG20160312233510703/12/16 23:35:31  5-MIN KAMG 130435Z AUTO 10004KT 10SM CLR 19/17 A3002 110 87 700 110/04 RMK AO2 T01940172
13870KAMG AMG20160312234010703/12/16 23:40:31  5-MIN KAMG 130440Z AUTO 11003KT 10SM CLR 19/17 A3002 110 87 700 120/03 RMK AO2 T01940172
13870KAMG AMG20160312234510703/12/16 23:45:31  5-MIN KAMG 130445Z AUTO 12003KT 10SM CLR 19/17 A3002 110 87 700 120/03 RMK AO2 T01940172
13870KAMG AMG20160312235012403/12/16 23:50:31  5-MIN KAMG 130450Z AUTO 12003KT 10SM CLR 19/17 A3002 110 87 700 120/03 RMK AO2 SLP163 T01940172 402890122
13870KAMG AMG20160312235510703/12/16 23:55:31  5-MIN KAMG 130455Z AUTO 11004KT 10SM CLR 19/17 A3002 110 87 700 110/04 RMK AO2 T01940172
13870KAMG AMG20160313000010703/13/16 00:00:31  5-MIN KAMG 130500Z AUTO 11004KT 10SM CLR 19/17 A3002 110 87 700 120/04 RMK AO2 T01940172
13870KAMG AMG20160313000510703/13/16 00:05:31  5-MIN KAMG 130505Z AUTO 11004KT 10SM CLR 19/17 A3002 110 87 700 120/04 RMK AO2 T01940172
13870KAMG AMG20160313001010703/13/16 00:10:31  5-MIN KAMG 130510Z AUTO 11004KT 10SM CLR 19/17 A3001 120 87 700 120/04 RMK AO2 T01940172
13870KAMG AMG20160313001510703/13/16 00:15:31  5-MIN KAMG 130515Z AUTO 12004KT 10SM CLR 19/17 A3001 120 87 700 120/04 RMK AO2 T01940172
13870KAMG AMG20160313002010703/13/16 00:20:31  5-MIN KAMG 130520Z AUTO 12004KT 10SM CLR 19/17 A3001 120 87 700 120/04 RMK AO2 T01940172
13870KAMG AMG20160313002510703/13/16 00:25:31  5-MIN KAMG 130525Z AUTO 12004KT 10SM CLR 19/17 A3001 120 87 700 120/04 RMK AO2 T01940172
13870KAMG AMG20160313003010703/13/16 00:30:31  5-MIN KAMG 130530Z AUTO 13004KT 10SM CLR 19/17 A3001 120 87 700 130/04 RMK AO2 T01940172
13870KAMG AMG20160313003510703/13/16 00:35:31  5-MIN KAMG 130535Z AUTO 13004KT 10SM CLR 19/17 A3001 120 87 700 140/04 RMK AO2 T01940172
13870KAMG AMG20160313004010703/13/16 00:40:31  5-MIN KAMG 130540Z AUTO 14003KT 10SM CLR 19/17 A3001 120 87 700 140/03 RMK AO2 T01940172
13870KAMG AMG20160313004511003/13/16 00:45:31  5-MIN KAMG 130545Z AUTO 14004KT 10SM FEW065 19/17 A3001 120 87 700 140/04 RMK AO2 T01940172
13870KAMG AMG20160313005013503/13/16 00:50:31  5-MIN KAMG 130550Z AUTO 15003KT 10SM SCT070 19/17 A3001 120 87 700 150/03 RMK AO2 SLP160 T01940172 10233 20194 58002
13870KAMG AMG20160313005511003/13/16 00:55:31  5-MIN KAMG 130555Z AUTO 15003KT 10SM SCT070 19/17 A3001 120 87 700 160/03 RMK AO2 T01940172
13870KAMG AMG20160313010011003/13/16 01:00:31  5-MIN KAMG 130600Z AUTO 16003KT 10SM BKN065 19/17 A3002 110 87 700 170/03 RMK AO2 T01940172
13870KAMG AMG20160313010511003/13/16 01:05:31  5-MIN KAMG 130605Z AUTO 16003KT 10SM BKN065 19/17 A3002 110 87 700 160/03 RMK AO2 T01940172
13870KAMG AMG20160313011011003/13/16 01:10:31  5-MIN KAMG 130610Z AUTO 16003KT 10SM OVC065 19/17 A3002 110 87 700 160/03 RMK AO2 T01940172
13870KAMG AMG20160313011511703/13/16 01:15:31  5-MIN KAMG 130615Z AUTO 15003KT 10SM FEW049 OVC065 19/17 A3002 110 87 700 150/03 RMK AO2 T01940172
13870KAMG AMG20160313012012403/13/16 01:20:31  5-MIN KAMG 130620Z AUTO 00000KT 10SM FEW049 BKN065 OVC075 19/17 A3002 110 87 700 000/00 RMK AO2 T01940172
13870KAMG AMG20160313012511703/13/16 01:25:31  5-MIN KAMG 130625Z AUTO 17003KT 10SM SCT049 OVC065 19/17 A3002 110 87 700 180/03 RMK AO2 T01940172
13870KAMG AMG20160313013012403/13/16 01:30:31  5-MIN KAMG 130630Z AUTO 17003KT 10SM SCT049 BKN060 OVC090 19/17 A3002 110 87 700 170/03 RMK AO2 T01940172
13870KAMG AMG20160313013512403/13/16 01:35:31  5-MIN KAMG 130635Z AUTO 17004KT 10SM BKN047 BKN065 OVC090 19/17 A3002 110 87 700 180/04 RMK AO2 T01940172
13870KAMG AMG20160313014011703/13/16 01:40:31  5-MIN KAMG 130640Z AUTO 17004KT 10SM BKN047 OVC070 19/17 A3002 110 87 700 170/04 RMK AO2 T01940172
13870KAMG AMG20160313014511703/13/16 01:45:31  5-MIN KAMG 130645Z AUTO 16004KT 10SM BKN047 OVC070 19/17 A3002 110 87 700 170/04 RMK AO2 T01940172
13870KAMG AMG20160313015012403/13/16 01:50:31  5-MIN KAMG 130650Z AUTO 14003KT 10SM BKN047 OVC070 19/17 A3002 110 87 700 150/03 RMK AO2 SLP161 T01940172
13870KAMG AMG20160313015511703/13/16 01:55:31  5-MIN KAMG 130655Z AUTO 16003KT 10SM BKN047 OVC070 19/17 A3001 120 87 700 160/03 RMK AO2 T01940172
13870KAMG AMG20160313020012403/13/16 02:00:31  5-MIN KAMG 130700Z AUTO 15004KT 10SM BKN045 BKN070 OVC100 19/17 A3001 120 87 700 150/04 RMK AO2 T01940172
13870KAMG AMG20160313020512403/13/16 02:05:31  5-MIN KAMG 130705Z AUTO 15003KT 10SM BKN045 BKN070 OVC100 19/17 A3001 120 87 700 150/03 RMK AO2 T01940172
13870KAMG AMG20160313021011703/13/16 02:10:31  5-MIN KAMG 130710Z AUTO 14003KT 10SM SCT045 OVC100 19/17 A3001 120 87 700 150/03 RMK AO2 T01940172
13870KAMG AMG20160313021511703/13/16 02:15:31  5-MIN KAMG 130715Z AUTO 14003KT 10SM FEW043 OVC100 19/17 A3001 120 87 700 150/03 RMK AO2 T01940172
13870KAMG AMG20160313022011703/13/16 02:20:31  5-MIN KAMG 130720Z AUTO 13003KT 10SM SCT046 OVC100 19/17 A3000 120 87 700 140/03 RMK AO2 T01940172
13870KAMG AMG20160313022511703/13/16 02:25:31  5-MIN KAMG 130725Z AUTO 14003KT 10SM SCT048 OVC100 19/17 A3000 120 87 700 150/03 RMK AO2 T01940172
13870KAMG AMG20160313023012403/13/16 02:30:31  5-MIN KAMG 130730Z AUTO 14003KT 10SM BKN048 BKN065 OVC100 19/17 A3000 130 87 700 140/03 RMK AO2 T01940172
13870KAMG AMG20160313023512403/13/16 02:35:31  5-MIN KAMG 130735Z AUTO 13003KT 10SM BKN048 BKN070 OVC095 19/17 A3000 130 90 700 130/03 RMK AO2 T01890172
13870KAMG AMG20160313024012403/13/16 02:40:31  5-MIN KAMG 130740Z AUTO 13003KT 10SM BKN049 BKN065 OVC095 19/17 A3000 130 87 700 140/03 RMK AO2 T01940172
13870KAMG AMG20160313024511703/13/16 02:45:31  5-MIN KAMG 130745Z AUTO 00000KT 10SM BKN049 OVC060 19/17 A3000 130 87 700 000/00 RMK AO2 T01940172
13870KAMG AMG20160313025012403/13/16 02:50:31  5-MIN KAMG 130750Z AUTO 00000KT 10SM BKN049 OVC070 19/17 A3000 130 87 700 000/00 RMK AO2 SLP157 T01940172
13870KAMG AMG20160313025511703/13/16 02:55:31  5-MIN KAMG 130755Z AUTO 00000KT 10SM BKN049 OVC065 19/17 A3000 130 87 700 000/00 RMK AO2 T01940172
13870KAMG AMG20160313030012403/13/16 03:00:31  5-MIN KAMG 130800Z AUTO 00000KT 10SM BKN050 BKN070 OVC080 19/17 A3000 130 87 700 000/00 RMK AO2 T01940172
13870KAMG AMG20160313030511703/13/16 03:05:31  5-MIN KAMG 130805Z AUTO 00000KT 10SM SCT050 OVC070 19/17 A3000 130 87 700 000/00 RMK AO2 T01940172
13870KAMG AMG20160313031012403/13/16 03:10:31  5-MIN KAMG 130810Z AUTO 00000KT 10SM SCT050 BKN065 OVC080 19/17 A3000 130 87 700 000/00 RMK AO2 T01940172
13870KAMG AMG20160313031512403/13/16 03:15:31  5-MIN KAMG 130815Z AUTO 00000KT 10SM FEW050 BKN065 OVC080 19/17 A3000 130 90 700 000/00 RMK AO2 T01890172
13870KAMG AMG20160313032012403/13/16 03:20:31  5-MIN KAMG 130820Z AUTO 00000KT 10SM FEW050 BKN065 OVC080 19/17 A3000 130 90 700 000/00 RMK AO2 T01890172
13870KAMG AMG20160313032511703/13/16 03:25:31  5-MIN KAMG 130825Z AUTO 00000KT 10SM SCT029 OVC065 19/17 A3000 130 90 700 000/00 RMK AO2 T01890172
13870KAMG AMG20160313033011703/13/16 03:30:31  5-MIN KAMG 130830Z AUTO 00000KT 10SM BKN029 OVC065 19/17 A2999 130 90 700 000/00 RMK AO2 T01890172
13870KAMG AMG20160313033511703/13/16 03:35:31  5-MIN KAMG 130835Z AUTO 00000KT 10SM BKN027 OVC065 19/17 A2999 140 90 700 000/00 RMK AO2 T01890172
13870KAMG AMG20160313034011703/13/16 03:40:31  5-MIN KAMG 130840Z AUTO 00000KT 10SM BKN027 OVC065 19/17 A2999 140 90 700 000/00 RMK AO2 T01890172
13870KAMG AMG20160313034511703/13/16 03:45:31  5-MIN KAMG 130845Z AUTO 16003KT 10SM BKN029 OVC065 19/17 A3000 130 87 700 170/03 RMK AO2 T01940172
13870KAMG AMG20160313035013003/13/16 03:50:31  5-MIN KAMG 130850Z AUTO 14003KT 10SM BKN029 OVC080 19/17 A2999 140 87 700 150/03 RMK AO2 SLP153 T01940172 56007
13870KAMG AMG20160313035511703/13/16 03:55:31  5-MIN KAMG 130855Z AUTO 13003KT 10SM BKN029 OVC090 19/17 A2999 140 90 700 130/03 RMK AO2 T01890172
13870KAMG AMG20160313040012403/13/16 04:00:31  5-MIN KAMG 130900Z AUTO 13003KT 10SM SCT029 BKN060 OVC095 19/17 A2999 140 90 700 140/03 RMK AO2 T01890172
13870KAMG AMG20160313040512403/13/16 04:05:31  5-MIN KAMG 130905Z AUTO 14003KT 10SM SCT029 SCT060 OVC090 19/17 A2999 140 90 700 140/03 RMK AO2 T01890172
13870KAMG AMG20160313041012403/13/16 04:10:31  5-MIN KAMG 130910Z AUTO 14003KT 10SM FEW031 SCT055 OVC090 19/17 A2999 140 90 700 150/03 RMK AO2 T01890172
13870KAMG AMG20160313041512403/13/16 04:15:31  5-MIN KAMG 130915Z AUTO 15004KT 10SM FEW033 FEW060 OVC090 19/17 A2999 140 90 700 150/04 RMK AO2 T01890172
13870KAMG AMG20160313042012303/13/16 04:20:31  5-MIN KAMG 130920Z AUTO 15004KT 8SM FEW031 SCT055 OVC090 19/17 A2998 140 90 700 160/04 RMK AO2 T01890172
13870KAMG AMG20160313042512303/13/16 04:25:31  5-MIN KAMG 130925Z AUTO 15004KT 8SM SCT031 BKN055 OVC100 19/18 A2998 140 90 700 150/04 RMK AO2 T01940178
13870KAMG AMG20160313043013803/13/16 04:30:31  5-MIN KAMG 130930Z AUTO 15004KT 9SM BKN031 BKN090 OVC110 19/18 A2998 140 90 700 150/04 RMK AO2 RAB26E28 P0000 T01940178
13870KAMG AMG20160313043513903/13/16 04:35:31  5-MIN KAMG 130935Z AUTO 14004KT 10SM BKN029 BKN080 OVC100 19/18 A2998 150 93 700 150/04 RMK AO2 RAB26E28 P0000 T01890178
13870KAMG AMG20160313044013903/13/16 04:40:31  5-MIN KAMG 130940Z AUTO 14005KT 10SM BKN029 BKN055 OVC100 19/18 A2998 150 93 700 140/05 RMK AO2 RAB26E28 P0000 T01890178
13870KAMG AMG20160313044512503/13/16 04:45:31  5-MIN KAMG 130945Z AUTO 14005KT 10SM OVC028 19/18 A2998 150 90 700 140/05 RMK AO2 RAB26E28 P0000 T01940178
13870KAMG AMG20160313045013903/13/16 04:50:31  5-MIN KAMG 130950Z AUTO 15006KT 10SM BKN026 OVC031 19/18 A2999 140 90 700 150/06 RMK AO2 RAB26E28 SLP151 P0000 T01940178
13870KAMG AMG20160313045511003/13/16 04:55:31  5-MIN KAMG 130955Z AUTO 16006KT 10SM OVC026 19/18 A2999 140 90 700 170/06 RMK AO2 T01940178
13870KAMG AMG20160313050011003/13/16 05:00:31  5-MIN KAMG 131000Z AUTO 16005KT 10SM OVC026 19/18 A2999 140 90 700 170/05 RMK AO2 T01940178
13870KAMG AMG20160313050511703/13/16 05:05:31  5-MIN KAMG 131005Z AUTO 16007KT 10SM BKN024 OVC029 19/18 A2999 140 90 700 170/07 RMK AO2 T01940178
13870KAMG AMG20160313051011703/13/16 05:10:31  5-MIN KAMG 131010Z AUTO 16005KT 10SM BKN024 OVC032 19/18 A2999 140 90 700 160/05 RMK AO2 T01940178
13870KAMG AMG20160313051511703/13/16 05:15:31  5-MIN KAMG 131015Z AUTO 16006KT 10SM BKN024 OVC029 19/18 A2998 140 90 700 160/06 RMK AO2 T01940178
13870KAMG AMG20160313052011703/13/16 05:20:31  5-MIN KAMG 131020Z AUTO 17006KT 10SM BKN024 OVC029 19/18 A2999 140 90 700 170/06 RMK AO2 T01940178
13870KAMG AMG20160313052511003/13/16 05:25:31  5-MIN KAMG 131025Z AUTO 16006KT 10SM OVC024 20/18 A2999 140 87 800 170/06 RMK AO2 T02000178
13870KAMG AMG20160313053011703/13/16 05:30:31  5-MIN KAMG 131030Z AUTO 16007KT 10SM BKN022 OVC028 20/18 A2999 140 87 800 170/07 RMK AO2 T02000178
13870KAMG AMG20160313053511003/13/16 05:35:31  5-MIN KAMG 131035Z AUTO 18006KT 10SM OVC022 20/18 A2999 140 87 800 180/06 RMK AO2 T02000178
13870KAMG AMG20160313054011003/13/16 05:40:31  5-MIN KAMG 131040Z AUTO 17007KT 10SM OVC022 20/18 A2999 140 87 800 180/07 RMK AO2 T02000178
13870KAMG AMG20160313054511003/13/16 05:45:31  5-MIN KAMG 131045Z AUTO 17008KT 10SM OVC022 20/18 A2998 150 87 800 180/08 RMK AO2 T02000178
13870KAMG AMG20160313055011703/13/16 05:50:31  5-MIN KAMG 131050Z AUTO 17008KT 10SM OVC022 21/18 A2999 140 84 900 180/08 RMK AO2 SLP151 T02060178
13870KAMG AMG20160313055511003/13/16 05:55:31  5-MIN KAMG 131055Z AUTO 18007KT 10SM OVC020 21/18 A2999 140 84 900 180/07 RMK AO2 T02060178
13870KAMG AMG20160313060011003/13/16 06:00:31  5-MIN KAMG 131100Z AUTO 18007KT 10SM OVC020 20/18 A2999 140 87 800 180/07 RMK AO2 T02000178
13870KAMG AMG20160313060511703/13/16 06:05:31  5-MIN KAMG 131105Z AUTO 18007KT 10SM BKN020 OVC026 20/18 A2999 140 87 800 180/07 RMK AO2 T02000178
13870KAMG AMG20160313061011703/13/16 06:10:31  5-MIN KAMG 131110Z AUTO 18006KT 10SM BKN021 OVC026 20/18 A2999 140 87 800 190/06 RMK AO2 T02000178
13870KAMG AMG20160313061511703/13/16 06:15:31  5-MIN KAMG 131115Z AUTO 17006KT 10SM BKN019 OVC026 20/18 A2998 140 87 800 180/06 RMK AO2 T02000178
13870KAMG AMG20160313062011703/13/16 06:20:31  5-MIN KAMG 131120Z AUTO 18008KT 10SM BKN019 OVC026 20/18 A2999 140 87 800 180/08 RMK AO2 T02000178
13870KAMG AMG20160313062512403/13/16 06:25:31  5-MIN KAMG 131125Z AUTO 18007KT 10SM BKN020 BKN026 OVC085 20/18 A2999 140 87 800 180/07 RMK AO2 T02000178
13870KAMG AMG20160313063012403/13/16 06:30:31  5-MIN KAMG 131130Z AUTO 17007KT 10SM BKN020 BKN026 OVC090 20/18 A2999 140 87 800 180/07 RMK AO2 T02000178
13870KAMG AMG20160313063512403/13/16 06:35:31  5-MIN KAMG 131135Z AUTO 18008KT 10SM BKN020 BKN026 OVC090 20/18 A2999 140 87 800 180/08 RMK AO2 T02000178
13870KAMG AMG20160313064012403/13/16 06:40:31  5-MIN KAMG 131140Z AUTO 18007KT 10SM BKN020 BKN026 OVC085 20/18 A2999 140 87 800 190/07 RMK AO2 T02000178
13870KAMG AMG20160313064512403/13/16 06:45:31  5-MIN KAMG 131145Z AUTO 18009KT 10SM SCT020 BKN065 OVC085 20/18 A2999 140 87 800 180/09 RMK AO2 T02000178
13870KAMG AMG20160313065014803/13/16 06:50:31  5-MIN KAMG 131150Z AUTO 18009KT 10SM FEW020 OVC065 20/18 A2999 140 87 800 180/09 RMK AO2 SLP153 60000 T02000178 10206 20189 53001
13870KAMG AMG20160313065511603/13/16 06:55:31  5-MIN KAMG 131155Z AUTO 18007KT 9SM FEW020 OVC065 20/18 A2999 140 87 800 180/07 RMK AO2 T02000178
13870KAMG AMG20160313070012303/13/16 07:00:31  5-MIN KAMG 131200Z AUTO 18006KT 9SM FEW014 FEW020 OVC065 20/18 A2999 140 90 800 180/06 RMK AO2 T02000183
13870KAMG AMG20160313070511603/13/16 07:05:31  5-MIN KAMG 131205Z AUTO 17007KT 9SM SCT014 OVC065 20/18 A2999 140 87 800 180/07 RMK AO2 T02000178
13870KAMG AMG20160313071011603/13/16 07:10:31  5-MIN KAMG 131210Z AUTO 18006KT 9SM BKN013 OVC065 20/18 A2999 140 90 800 180/06 RMK AO2 T02000183
13870KAMG AMG20160313071512303/13/16 07:15:31  5-MIN KAMG 131215Z AUTO 17005KT 9SM BKN013 BKN031 OVC070 19/18 A2999 140 93 700 180/05 RMK AO2 T01940183
13870KAMG AMG20160313072012303/13/16 07:20:31  5-MIN KAMG 131220Z AUTO 17006KT 9SM SCT013 BKN026 OVC070 19/18 A2999 140 93 700 180/06 RMK AO2 T01940183
13870KAMG AMG20160313072511603/13/16 07:25:31  5-MIN KAMG 131225Z AUTO 17006KT 9SM SCT012 OVC070 20/18 A2999 140 90 800 170/06 RMK AO2 T02000183
13870KAMG AMG20160313073011603/13/16 07:30:31  5-MIN KAMG 131230Z AUTO 18006KT 9SM SCT012 OVC065 20/18 A2999 140 90 800 180/06 RMK AO2 T02000183
13870KAMG AMG20160313073511603/13/16 07:35:31  5-MIN KAMG 131235Z AUTO 19006KT 9SM FEW012 OVC065 20/18 A2999 130 90 800 190/06 RMK AO2 T02000183
13870KAMG AMG20160313074011603/13/16 07:40:31  5-MIN KAMG 131240Z AUTO 18007KT 9SM FEW012 OVC060 20/18 A2999 130 90 800 180/07 RMK AO2 T02000183
13870KAMG AMG20160313074510903/13/16 07:45:31  5-MIN KAMG 131245Z AUTO 17006KT 9SM OVC060 20/18 A2999 130 90 800 180/06 RMK AO2 T02000183
13870KAMG AMG20160313075011603/13/16 07:50:31  5-MIN KAMG 131250Z AUTO 17007KT 9SM OVC060 20/18 A2999 130 90 800 180/07 RMK AO2 SLP154 T02000183
13870KAMG AMG20160313075511003/13/16 07:55:31  5-MIN KAMG 131255Z AUTO 17007KT 10SM OVC060 20/18 A3000 130 90 800 180/07 RMK AO2 T02000183
13870KAMG AMG20160313080011003/13/16 08:00:31  5-MIN KAMG 131300Z AUTO 18007KT 10SM OVC060 20/18 A3000 130 90 800 180/07 RMK AO2 T02000183
13870KAMG AMG20160313080511003/13/16 08:05:31  5-MIN KAMG 131305Z AUTO 18009KT 10SM OVC060 20/18 A3000 130 90 800 180/09 RMK AO2 T02000183
13870KAMG AMG20160313081011703/13/16 08:10:31  5-MIN KAMG 131310Z AUTO 18008KT 10SM FEW012 OVC055 20/18 A3000 130 90 800 190/08 RMK AO2 T02000183
13870KAMG AMG20160313081511703/13/16 08:15:31  5-MIN KAMG 131315Z AUTO 18008KT 10SM FEW012 OVC060 21/18 A3000 130 87 800 190/08 RMK AO2 T02060183
13870KAMG AMG20160313082011703/13/16 08:20:31  5-MIN KAMG 131320Z AUTO 18008KT 10SM FEW012 OVC060 21/18 A3000 130 87 800 180/08 RMK AO2 T02060183
13870KAMG AMG20160313082512403/13/16 08:25:31  5-MIN KAMG 131325Z AUTO 17010KT 10SM FEW012 BKN055 OVC070 21/18 A3000 130 87 900 170/10 RMK AO2 T02060183
13870KAMG AMG20160313083012403/13/16 08:30:31  5-MIN KAMG 131330Z AUTO 18010KT 10SM SCT011 BKN055 OVC070 21/18 A3000 130 87 900 180/10 RMK AO2 T02060183
13870KAMG AMG20160313083512403/13/16 08:35:31  5-MIN KAMG 131335Z AUTO 18009KT 10SM SCT011 BKN055 OVC070 21/19 A3000 130 90 900 190/09 RMK AO2 T02060189
13870KAMG AMG20160313084011703/13/16 08:40:31  5-MIN KAMG 131340Z AUTO 17008KT 10SM FEW011 OVC060 21/19 A2999 140 87 900 180/08 RMK AO2 T02110189
13870KAMG AMG20160313084512403/13/16 08:45:31  5-MIN KAMG 131345Z AUTO 18007KT 10SM FEW011 SCT050 OVC060 21/19 A2999 140 87 900 190/07 RMK AO2 T02110189
13870KAMG AMG20160313085012403/13/16 08:50:31  5-MIN KAMG 131350Z AUTO 18011KT 10SM SCT011 OVC060 21/19 A3000 130 87 900 190/11 RMK AO2 SLP156 T02110189
13870KAMG AMG20160313085511703/13/16 08:55:31  5-MIN KAMG 131355Z AUTO 18010KT 10SM BKN011 OVC060 21/19 A3000 130 87 900 180/10 RMK AO2 T02110189
13870KAMG AMG20160313090012303/13/16 09:00:31  5-MIN KAMG 131400Z AUTO 18011G17KT 10SM BKN011 OVC060 21/19 A3000 130 87 900 190/11G17 RMK AO2 T02110189
13870KAMG AMG20160313090512303/13/16 09:05:31  5-MIN KAMG 131405Z AUTO 18012G18KT 10SM BKN011 OVC060 21/19 A3000 130 87 900 180/12G18 RMK AO2 T02110189
13870KAMG AMG20160313091011703/13/16 09:10:31  5-MIN KAMG 131410Z AUTO 18011KT 10SM BKN011 OVC065 21/19 A3000 130 87 900 190/11 RMK AO2 T02110189
13870KAMG AMG20160313091511003/13/16 09:15:31  5-MIN KAMG 131415Z AUTO 18009KT 10SM OVC011 21/19 A3000 130 87 900 180/09 RMK AO2 T02110189
13870KAMG AMG20160313092011003/13/16 09:20:31  5-MIN KAMG 131420Z AUTO 18007KT 10SM OVC011 21/19 A3000 130 87 900 190/07 RMK AO2 T02110189
13870KAMG AMG20160313092511103/13/16 09:25:31  5-MIN KAMG 131425Z AUTO 17008KT 10SM OVC011 22/19 A3000 130 84 1000 180/08 RMK AO2 T02170189
13870KAMG AMG20160313093011103/13/16 09:30:31  5-MIN KAMG 131430Z AUTO 18008KT 10SM OVC011 22/19 A3001 120 84 1000 190/08 RMK AO2 T02170189
13870KAMG AMG20160313093511103/13/16 09:35:31  5-MIN KAMG 131435Z AUTO 18011KT 10SM OVC012 22/19 A3001 120 84 1000 180/11 RMK AO2 T02170189
13870KAMG AMG20160313094011103/13/16 09:40:31  5-MIN KAMG 131440Z AUTO 18010KT 10SM OVC012 22/19 A3000 130 84 1000 190/10 RMK AO2 T02170189
13870KAMG AMG20160313094511103/13/16 09:45:31  5-MIN KAMG 131445Z AUTO 18011KT 10SM OVC011 22/19 A3000 130 81 1000 190/11 RMK AO2 T02220189
13870KAMG AMG20160313095012403/13/16 09:50:31  5-MIN KAMG 131450Z AUTO 18010KT 10SM OVC011 22/19 A3000 130 84 1000 190/10 RMK AO2 SLP157 T02220194 53001
13870KAMG AMG20160313095511103/13/16 09:55:31  5-MIN KAMG 131455Z AUTO 18012KT 10SM OVC012 23/19 A3000 130 81 1100 180/12 RMK AO2 T02280194
13870KAMG AMG20160313100011103/13/16 10:00:31  5-MIN KAMG 131500Z AUTO 19009KT 10SM OVC012 22/19 A3000 130 84 1000 190/09 RMK AO2 T02220194
13870KAMG AMG20160313100511103/13/16 10:05:31  5-MIN KAMG 131505Z AUTO 19009KT 10SM OVC012 22/19 A3000 130 84 1000 200/09 RMK AO2 T02220194
13870KAMG AMG20160313101011803/13/16 10:10:31  5-MIN KAMG 131510Z AUTO 20010KT 10SM BKN012 OVC041 22/19 A3000 130 84 1000 200/10 RMK AO2 T02220194
13870KAMG AMG20160313101511803/13/16 10:15:31  5-MIN KAMG 131515Z AUTO 18010KT 10SM BKN014 OVC020 23/19 A3000 130 81 1100 190/10 RMK AO2 T02280194
13870KAMG AMG20160313102011103/13/16 10:20:31  5-MIN KAMG 131520Z AUTO 19010KT 10SM BKN014 23/19 A3000 130 78 1200 200/10 RMK AO2 T02330194
13870KAMG AMG20160313102511803/13/16 10:25:31  5-MIN KAMG 131525Z AUTO 21011KT 10SM BKN016 OVC070 23/19 A2999 130 81 1100 210/11 RMK AO2 T02280194
13870KAMG AMG20160313103011803/13/16 10:30:31  5-MIN KAMG 131530Z AUTO 20011KT 10SM BKN016 OVC070 23/19 A3000 130 81 1100 200/11 RMK AO2 T02280194
13870KAMG AMG20160313103512503/13/16 10:35:31  5-MIN KAMG 131535Z AUTO 20014KT 10SM BKN016 BKN021 OVC070 23/19 A3000 130 78 1200 200/14 RMK AO2 T02330194
13870KAMG AMG20160313104013103/13/16 10:40:31  5-MIN KAMG 131540Z AUTO 20013G19KT 10SM BKN016 BKN021 OVC070 23/19 A3000 130 78 1200 210/13G19 RMK AO2 T02330194
13870KAMG AMG20160313104512403/13/16 10:45:31  5-MIN KAMG 131545Z AUTO 20010G19KT 10SM BKN018 OVC075 23/19 A3000 130 78 1200 210/10G19 RMK AO2 T02330194
13870KAMG AMG20160313105012503/13/16 10:50:31  5-MIN KAMG 131550Z AUTO 19012KT 10SM BKN018 OVC075 23/19 A3000 130 78 1200 200/12 RMK AO2 SLP156 T02330194
13870KAMG AMG20160313105513103/13/16 10:55:31  5-MIN KAMG 131555Z AUTO 19014G20KT 10SM BKN018 BKN025 OVC075 23/19 A3000 130 78 1200 190/14G20 RMK AO2 T02330194
13870KAMG AMG20160313110013103/13/16 11:00:31  5-MIN KAMG 131600Z AUTO 20011G20KT 10SM BKN016 BKN023 OVC075 23/19 A3000 130 81 1100 210/11G20 RMK AO2 T02280194
13870KAMG AMG20160313110513103/13/16 11:05:31  5-MIN KAMG 131605Z AUTO 20014G21KT 10SM BKN016 BKN023 OVC075 23/19 A3000 130 78 1100 200/14G21 RMK AO2 T02280189
13870KAMG AMG20160313111013103/13/16 11:10:31  5-MIN KAMG 131610Z AUTO 20012G21KT 10SM BKN018 BKN030 OVC075 23/19 A3000 130 78 1100 200/12G21 RMK AO2 T02280189
13870KAMG AMG20160313111512503/13/16 11:15:31  5-MIN KAMG 131615Z AUTO 21012KT 10SM BKN018 BKN030 BKN039 23/19 A3000 130 78 1200 210/12 RMK AO2 T02330194
13870KAMG AMG20160313112012503/13/16 11:20:31  5-MIN KAMG 131620Z AUTO 21009KT 10SM BKN018 BKN039 BKN065 23/19 A3000 130 76 1200 210/09 RMK AO2 T02330189
13870KAMG AMG20160313112513103/13/16 11:25:31  5-MIN KAMG 131625Z AUTO 21013G18KT 10SM SCT018 BKN037 BKN065 23/19 A3000 130 76 1200 220/13G18 RMK AO2 T02330189
13870KAMG AMG20160313113013103/13/16 11:30:31  5-MIN KAMG 131630Z AUTO 21012G18KT 10SM FEW017 SCT030 BKN070 23/19 A3000 130 76 1200 210/12G18 RMK AO2 T02330189
13870KAMG AMG20160313113512503/13/16 11:35:31  5-MIN KAMG 131635Z AUTO 20011KT 10SM FEW017 SCT027 BKN055 23/19 A3000 130 78 1100 210/11 RMK AO2 T02280189
13870KAMG AMG20160313114014003/13/16 11:40:31  5-MIN KAMG 131640Z AUTO 21011KT 5SM -RA SCT023 BKN055 BKN070 22/19 A3000 120 84 1000 220/11 RMK AO2 RAB38 P0000 T02220194
13870KAMG AMG20160313114514303/13/16 11:45:31  5-MIN KAMG 131645Z AUTO 20010KT 4SM -RA BR SCT022 BKN055 BKN070 22/19 A3001 120 87 1000 210/10 RMK AO2 RAB38 P0000 T02170194
13870KAMG AMG20160313115016503/13/16 11:50:31  5-MIN KAMG 131650Z AUTO 20011KT 2 1/2SM -RA BR SCT018 BKN027 OVC080 21/19 A3001 120 90 900 210/11 RMK AO2 VIS 1 1/4V5 RAB38 SLP159 P0001 T02110194
13870KAMG AMG20160313115513903/13/16 11:55:31  5-MIN KAMG 131655Z AUTO 19011KT 1 3/4SM RA BR SCT016 BKN027 OVC080 21/20 A3000 130 93 900 200/11 RMK AO2 P0001 T02110200
13870KAMG AMG20160313120014003/13/16 12:00:31  5-MIN KAMG 131700Z AUTO 19009KT 2 1/2SM -RA BR SCT020 BKN055 OVC070 21/20 A3000 130 93 900 200/09 RMK AO2 P0001 T02110200
13870KAMG AMG20160313120513603/13/16 12:05:31  5-MIN KAMG 131705Z AUTO 20009KT 6SM -RA BR SCT017 BKN055 OVC100 21/20 A3000 130 93 900 200/09 RMK AO2 P0001 T02110200
13870KAMG AMG20160313121013503/13/16 12:10:31  5-MIN KAMG 131710Z AUTO 20007KT 7SM FEW016 BKN060 OVC080 21/20 A3000 130 93 900 200/07 RMK AO2 RAE08 P0001 T02110200
13870KAMG AMG20160313121513603/13/16 12:15:31  5-MIN KAMG 131715Z AUTO 19006KT 5SM -RA BR FEW021 SCT050 OVC075 21/20 A3000 130 93 900 200/06 RMK AO2 P0001 T02110200
13870KAMG AMG20160313122013603/13/16 12:20:31  5-MIN KAMG 131720Z AUTO 20008KT 4SM -RA BR FEW017 BKN065 OVC080 21/20 A3000 130 93 900 210/08 RMK AO2 P0001 T02110200
13870KAMG AMG20160313122513603/13/16 12:25:31  5-MIN KAMG 131725Z AUTO 21008KT 5SM -RA BR FEW012 BKN055 OVC095 21/20 A3000 130 93 900 220/08 RMK AO2 P0001 T02110200
13870KAMG AMG20160313123013603/13/16 12:30:31  5-MIN KAMG 131730Z AUTO 23008KT 5SM -RA BR FEW010 BKN055 OVC075 21/20 A3000 130 93 900 230/08 RMK AO2 P0002 T02110200
13870KAMG AMG20160313123513903/13/16 12:35:31  5-MIN KAMG 131735Z AUTO 24006KT 2 1/2SM RA BR FEW008 BKN050 OVC075 21/20 A3000 130 93 900 240/06 RMK AO2 P0003 T02110200
13870KAMG AMG20160313124013603/13/16 12:40:31  5-MIN KAMG 131740Z AUTO 22006KT 2SM -RA BR FEW010 BKN050 OVC060 21/20 A2999 130 97 900 230/06 RMK AO2 P0004 T02060200
13870KAMG AMG20160313124513603/13/16 12:45:31  5-MIN KAMG 131745Z AUTO 19004KT 2SM RA BR FEW010 BKN041 OVC050 21/21 A2999 140 100 900 200/04 RMK AO2 P0005 T02060206
13870KAMG AMG20160313125012603/13/16 12:50:31  5-MIN KAMG 131750Z AUTO 20004KT 3SM -RA BR FEW010 SCT039 OVC050 21/21 A2999 140 97 900 210/04 RMK AO2 P0005
13870KAMG AMG20160313125513603/13/16 12:55:31  5-MIN KAMG 131755Z AUTO 21006KT 6SM -RA BR FEW010 SCT039 OVC050 21/21 A2998 140 97 900 210/06 RMK AO2 P0000 T02110206
13870KAMG AMG20160313130013703/13/16 13:00:31  5-MIN KAMG 131800Z AUTO 18004KT 7SM FEW010 FEW039 OVC050 21/21 A2998 150 97 900 180/04 RMK AO2 RAE1759 P0000 T02110206
13870KAMG AMG20160313130514403/13/16 13:05:31  5-MIN KAMG 131805Z AUTO 18005KT 8SM FEW015 FEW039 OVC050 21/21 A2997 160 97 900 180/05 RMK AO2 RAE1759 PRESFR P0000 T02110206
13870KAMG AMG20160313131013803/13/16 13:10:31  5-MIN KAMG 131810Z AUTO 19006KT 8SM FEW030 BKN050 OVC100 22/21 A2997 160 93 1000 190/06 RMK AO2 RAE1759 P0000 T02170206
13870KAMG AMG20160313131513803/13/16 13:15:31  5-MIN KAMG 131815Z AUTO 18008KT 9SM BKN050 BKN070 OVC100 22/21 A2997 160 93 1000 190/08 RMK AO2 RAE1759 P0000 T02170206
13870KAMG AMG20160313132013803/13/16 13:20:31  5-MIN KAMG 131820Z AUTO 17008KT 7SM SCT050 BKN060 OVC100 22/21 A2996 160 93 1000 180/08 RMK AO2 RAE1759 P0000 T02170206
13870KAMG AMG20160313132514803/13/16 13:25:31  5-MIN KAMG 131825Z AUTO 17007KT 5SM -RA BR SCT050 BKN070 OVC090 22/21 A2996 160 93 1000 180/07 RMK AO2 RAE1759B24 P0000 T02170206
13870KAMG AMG20160313133015203/13/16 13:30:31  5-MIN KAMG 131830Z AUTO 20006KT 2 1/2SM -RA BR FEW010 BKN070 OVC090 22/21 A2996 170 93 1000 210/06 RMK AO2 RAE1759B24 P0001 T02170206
13870KAMG AMG20160313133515203/13/16 13:35:31  5-MIN KAMG 131835Z AUTO 18008KT 2 1/2SM -RA BR SCT014 BKN050 OVC070 21/21 A2996 170 97 1000 190/08 RMK AO2 RAE1759B24 P0001 T02110206
13870KAMG AMG20160313134014803/13/16 13:40:31  5-MIN KAMG 131840Z AUTO 18007KT 4SM -RA BR SCT012 BKN021 OVC075 21/21 A2995 170 97 1000 180/07 RMK AO2 RAE1759B24 P0001 T02110206
13870KAMG AMG20160313134514703/13/16 13:45:31  5-MIN KAMG 131845Z AUTO 19008KT 5SM BR SCT012 BKN022 OVC080 21/21 A2996 170 97 1000 190/08 RMK AO2 RAE1759B24E42 P0001 T02110206
13870KAMG AMG20160313135013703/13/16 13:50:31  5-MIN KAMG 131850Z AUTO 17008KT 5SM BR BKN010 BKN022 OVC070 21/21 A2996 170 97 1000 170/08 RMK AO2 RAE1759B24E42 P0001
13870KAMG AMG20160313135512703/13/16 13:55:31  5-MIN KAMG 131855Z AUTO 17007KT 5SM BR BKN010 BKN017 OVC024 21/21 A2995 170 97 1000 170/07 RMK AO2 T02110206
13870KAMG AMG20160313140012003/13/16 14:00:31  5-MIN KAMG 131900Z AUTO 18008KT 4SM BR SCT010 OVC013 21/21 A2995 170 97 1000 180/08 RMK AO2 T02110206
13870KAMG AMG20160313140512703/13/16 14:05:31  5-MIN KAMG 131905Z AUTO 18008KT 5SM BR SCT008 BKN016 OVC025 21/21 A2995 180 97 1000 180/08 RMK AO2 T02110206
13870KAMG AMG20160313141012703/13/16 14:10:31  5-MIN KAMG 131910Z AUTO 17008KT 6SM BR SCT008 BKN013 OVC060 21/21 A2995 180 97 1000 170/08 RMK AO2 T02110206
13870KAMG AMG20160313141513903/13/16 14:15:31  5-MIN KAMG 131915Z AUTO 15007KT 5SM BR BKN008 BKN016 OVC026 21/21 A2994 180 97 1000 150/07 RMK AO2 CIG 006V013 T02110206
13870KAMG AMG20160313142013603/13/16 14:20:31  5-MIN KAMG 131920Z AUTO 17007KT 7SM BKN008 BKN013 OVC026 21/21 A2994 190 97 1000 170/07 RMK AO2 CIG 005V011 T02110206
13870KAMG AMG20160313142513603/13/16 14:25:31  5-MIN KAMG 131925Z AUTO 17006KT 7SM BKN008 BKN016 OVC060 21/21 A2994 190 97 1000 170/06 RMK AO2 CIG 005V012 T02110206
13870KAMG AMG20160313143013603/13/16 14:30:31  5-MIN KAMG 131930Z AUTO 16005KT 8SM BKN008 BKN016 OVC060 21/21 A2994 180 97 1000 170/05 RMK AO2 CIG 005V013 T02110206
13870KAMG AMG20160313143512503/13/16 14:35:31  5-MIN KAMG 131935Z AUTO 17006KT 10SM SCT008 BKN011 OVC060 21/21 A2994 190 97 1000 170/06 RMK AO2 T02110206
13870KAMG AMG20160313144013703/13/16 14:40:31  5-MIN KAMG 131940Z AUTO 17008KT 10SM BKN008 BKN013 OVC060 21/21 A2993 190 97 1000 180/08 RMK AO2 CIG 005V010 T02110206
13870KAMG AMG20160313144513703/13/16 14:45:31  5-MIN KAMG 131945Z AUTO 17009KT 10SM BKN008 BKN016 OVC060 22/21 A2993 200 97 1100 170/09 RMK AO2 CIG 005V012 T02170211
13870KAMG AMG20160313145014403/13/16 14:50:31  5-MIN KAMG 131950Z AUTO 16009KT 10SM BKN008 BKN016 OVC060 22/21 A2993 200 93 1100 160/09 RMK AO2 CIG 006V012 SLP131 T02170206
13870KAMG AMG20160313145513003/13/16 14:55:31  5-MIN KAMG 131955Z AUTO 15007KT 10SM BKN010 OVC017 22/21 A2992 200 93 1100 160/07 RMK AO2 CIG 006V013 T02170206
13870KAMG AMG20160313150012303/13/16 15:00:31  5-MIN KAMG 132000Z AUTO 18007KT 10SM OVC010 22/21 A2992 200 93 1100 180/07 RMK AO2 CIG 006V013 T02170206
13870KAMG AMG20160313150513003/13/16 15:05:31  5-MIN KAMG 132005Z AUTO 17008KT 10SM BKN010 OVC017 22/21 A2991 210 93 1100 180/08 RMK AO2 CIG 007V013 T02170206
13870KAMG AMG20160313151012303/13/16 15:10:31  5-MIN KAMG 132010Z AUTO 18007KT 10SM BKN010 22/21 A2991 210 90 1100 180/07 RMK AO2 CIG 007V013 T02220206
13870KAMG AMG20160313151512303/13/16 15:15:31  5-MIN KAMG 132015Z AUTO 18008KT 10SM OVC010 22/21 A2991 210 93 1100 190/08 RMK AO2 CIG 007V013 T02170206
13870KAMG AMG20160313152012303/13/16 15:20:31  5-MIN KAMG 132020Z AUTO 17006KT 10SM OVC009 22/21 A2991 210 90 1100 180/06 RMK AO2 CIG 007V012 T02220206
13870KAMG AMG20160313152512303/13/16 15:25:31  5-MIN KAMG 132025Z AUTO 18007KT 10SM OVC009 22/21 A2991 210 90 1100 190/07 RMK AO2 CIG 007V012 T02220206
13870KAMG AMG20160313153013003/13/16 15:30:31  5-MIN KAMG 132030Z AUTO 17008KT 10SM BKN009 OVC080 22/21 A2991 210 90 1100 180/08 RMK AO2 CIG 007V012 T02220206
13870KAMG AMG20160313153513003/13/16 15:35:31  5-MIN KAMG 132035Z AUTO 16011KT 10SM BKN010 OVC075 23/21 A2991 210 87 1200 170/11 RMK AO2 CIG 007V012 T02280206
13870KAMG AMG20160313154013003/13/16 15:40:31  5-MIN KAMG 132040Z AUTO 17009KT 10SM BKN010 OVC075 22/21 A2991 210 90 1100 180/09 RMK AO2 CIG 007V012 T02220206
13870KAMG AMG20160313154513003/13/16 15:45:31  5-MIN KAMG 132045Z AUTO 17008KT 10SM BKN010 OVC070 22/21 A2991 210 90 1100 170/08 RMK AO2 CIG 008V012 T02220206
13870KAMG AMG20160313155010803/13/16 15:50:31  5-MIN KAMG 132050Z AUTO 19008KT 10SM SCT010 OVC070 23/21 A2991 210 87 1200 190/08 RMK AO2
13870KAMG AMG20160313155511803/13/16 15:55:31  5-MIN KAMG 132055Z AUTO 20009KT 10SM FEW010 OVC070 23/20 A2991 210 84 1200 200/09 RMK AO2 T02280200
13870KAMG AMG20160313160011803/13/16 16:00:31  5-MIN KAMG 132100Z AUTO 18007KT 10SM FEW012 OVC070 22/20 A2991 210 87 1100 180/07 RMK AO2 T02220200
13870KAMG AMG20160313160511803/13/16 16:05:31  5-MIN KAMG 132105Z AUTO 18008KT 10SM SCT012 OVC070 22/20 A2991 210 87 1100 180/08 RMK AO2 T02220200
13870KAMG AMG20160313161011803/13/16 16:10:31  5-MIN KAMG 132110Z AUTO 18006KT 10SM FEW012 OVC070 22/21 A2991 210 90 1100 190/06 RMK AO2 T02220206
13870KAMG AMG20160313161511803/13/16 16:15:31  5-MIN KAMG 132115Z AUTO 19006KT 10SM FEW014 OVC070 23/21 A2991 210 87 1200 190/06 RMK AO2 T02280206
13870KAMG AMG20160313162011803/13/16 16:20:31  5-MIN KAMG 132120Z AUTO 17007KT 10SM FEW014 OVC065 23/21 A2991 210 87 1200 180/07 RMK AO2 T02280206
13870KAMG AMG20160313162512503/13/16 16:25:31  5-MIN KAMG 132125Z AUTO 16007KT 10SM FEW012 FEW017 OVC065 23/21 A2991 210 87 1200 160/07 RMK AO2 T02280206
13870KAMG AMG20160313163011803/13/16 16:30:31  5-MIN KAMG 132130Z AUTO 16006KT 10SM FEW017 OVC070 23/21 A2991 210 87 1200 170/06 RMK AO2 T02280206
13870KAMG AMG20160313163512503/13/16 16:35:31  5-MIN KAMG 132135Z AUTO 16007KT 10SM FEW015 FEW019 OVC070 24/21 A2991 220 81 1300 170/07 RMK AO2 T02390206
13870KAMG AMG20160313164011803/13/16 16:40:31  5-MIN KAMG 132140Z AUTO 16007KT 10SM FEW019 BKN070 24/21 A2991 210 81 1300 170/07 RMK AO2 T02390206
13870KAMG AMG20160313164511803/13/16 16:45:31  5-MIN KAMG 132145Z AUTO 16009KT 10SM FEW016 BKN070 24/21 A2990 220 81 1300 160/09 RMK AO2 T02390206
13870KAMG AMG20160313165012503/13/16 16:50:31  5-MIN KAMG 132150Z AUTO 16009KT 10SM FEW018 SCT075 23/21 A2990 220 84 1300 160/09 RMK AO2 SLP123 T02330206
13870KAMG AMG20160313165511803/13/16 16:55:31  5-MIN KAMG 132155Z AUTO 16009KT 10SM FEW015 FEW075 24/21 A2990 220 81 1300 160/09 RMK AO2 T02390206
13870KAMG AMG20160313170011103/13/16 17:00:31  5-MIN KAMG 132200Z AUTO 17009KT 10SM FEW080 24/20 A2990 220 78 1300 180/09 RMK AO2 T02390200
13870KAMG AMG20160313170511103/13/16 17:05:31  5-MIN KAMG 132205Z AUTO 17010KT 10SM FEW018 24/21 A2990 220 81 1300 170/10 RMK AO2 T02390206
13870KAMG AMG20160313171011103/13/16 17:10:31  5-MIN KAMG 132210Z AUTO 16009KT 10SM FEW018 24/21 A2990 230 81 1300 160/09 RMK AO2 T02390206
13870KAMG AMG20160313171511103/13/16 17:15:31  5-MIN KAMG 132215Z AUTO 16008KT 10SM SCT020 24/21 A2990 230 81 1300 170/08 RMK AO2 T02390206
13870KAMG AMG20160313172011103/13/16 17:20:31  5-MIN KAMG 132220Z AUTO 16009KT 10SM SCT020 24/21 A2989 230 81 1400 170/09 RMK AO2 T02390206
13870KAMG AMG20160313172511803/13/16 17:25:31  5-MIN KAMG 132225Z AUTO 15010KT 10SM FEW020 SCT026 24/21 A2989 230 81 1400 160/10 RMK AO2 T02390206
13870KAMG AMG20160313173011803/13/16 17:30:31  5-MIN KAMG 132230Z AUTO 17010KT 10SM FEW020 FEW026 24/20 A2989 230 78 1400 180/10 RMK AO2 T02390200
13870KAMG AMG20160313173511803/13/16 17:35:31  5-MIN KAMG 132235Z AUTO 17008KT 10SM FEW020 FEW027 24/20 A2989 230 78 1400 170/08 RMK AO2 T02390200
13870KAMG AMG20160313174011103/13/16 17:40:31  5-MIN KAMG 132240Z AUTO 16009KT 10SM FEW020 23/20 A2989 230 81 1300 170/09 RMK AO2 T02330200
13870KAMG AMG20160313174510803/13/16 17:45:31  5-MIN KAMG 132245Z AUTO 16009KT 10SM CLR 23/20 A2989 230 81 1300 170/09 RMK AO2 T02330200
13870KAMG AMG20160313175011503/13/16 17:50:31  5-MIN KAMG 132250Z AUTO 16009KT 10SM CLR 23/20 A2989 230 81 1300 170/09 RMK AO2 SLP119 T02330200
13870KAMG AMG20160313175510803/13/16 17:55:31  5-MIN KAMG 132255Z AUTO 17008KT 10SM CLR 23/20 A2989 230 81 1300 170/08 RMK AO2 T02330200
13870KAMG AMG20160313180010803/13/16 18:00:31  5-MIN KAMG 132300Z AUTO 16009KT 10SM CLR 23/20 A2989 230 84 1200 170/09 RMK AO2 T02280200
13870KAMG AMG20160313180510803/13/16 18:05:31  5-MIN KAMG 132305Z AUTO 16007KT 10SM CLR 23/20 A2989 230 84 1200 170/07 RMK AO2 T02280200
13870KAMG AMG20160313181010803/13/16 18:10:31  5-MIN KAMG 132310Z AUTO 16010KT 10SM CLR 23/20 A2989 230 84 1200 170/10 RMK AO2 T02280200
13870KAMG AMG20160313181510803/13/16 18:15:31  5-MIN KAMG 132315Z AUTO 16009KT 10SM CLR 23/20 A2989 230 84 1200 160/09 RMK AO2 T02280200
13870KAMG AMG20160313182010803/13/16 18:20:31  5-MIN KAMG 132320Z AUTO 16010KT 10SM CLR 23/20 A2988 240 84 1200 160/10 RMK AO2 T02280200
13870KAMG AMG20160313182510803/13/16 18:25:31  5-MIN KAMG 132325Z AUTO 16007KT 10SM CLR 22/20 A2989 230 87 1200 160/07 RMK AO2 T02220200
13870KAMG AMG20160313183010803/13/16 18:30:31  5-MIN KAMG 132330Z AUTO 16009KT 10SM CLR 22/20 A2989 230 87 1200 170/09 RMK AO2 T02220200
13870KAMG AMG20160313183510803/13/16 18:35:31  5-MIN KAMG 132335Z AUTO 16009KT 10SM CLR 22/20 A2989 230 87 1200 160/09 RMK AO2 T02220200
13870KAMG AMG20160313184010803/13/16 18:40:31  5-MIN KAMG 132340Z AUTO 15008KT 10SM CLR 22/20 A2988 240 87 1200 160/08 RMK AO2 T02220200
13870KAMG AMG20160313184510803/13/16 18:45:31  5-MIN KAMG 132345Z AUTO 15007KT 10SM CLR 22/20 A2988 240 90 1100 160/07 RMK AO2 T02170200
13870KAMG AMG20160313185013903/13/16 18:50:31  5-MIN KAMG 132350Z AUTO 15009KT 10SM CLR 22/20 A2989 230 90 1100 160/09 RMK AO2 SLP118 60001 T02170200 10239 20211 55014
13870KAMG AMG20160313185510803/13/16 18:55:31  5-MIN KAMG 132355Z AUTO 16009KT 10SM CLR 22/20 A2989 230 90 1100 160/09 RMK AO2 T02170200
13870KAMG AMG20160313190010803/13/16 19:00:31  5-MIN KAMG 140000Z AUTO 16008KT 10SM CLR 22/20 A2989 230 90 1100 170/08 RMK AO2 T02170200
13870KAMG AMG20160313190510803/13/16 19:05:31  5-MIN KAMG 140005Z AUTO 17007KT 10SM CLR 22/20 A2989 230 90 1100 170/07 RMK AO2 T02170200
13870KAMG AMG20160313191010803/13/16 19:10:31  5-MIN KAMG 140010Z AUTO 17007KT 10SM CLR 22/20 A2989 230 90 1100 170/07 RMK AO2 T02170200
13870KAMG AMG20160313191510803/13/16 19:15:31  5-MIN KAMG 140015Z AUTO 16007KT 10SM CLR 21/20 A2989 230 93 1000 170/07 RMK AO2 T02110200
13870KAMG AMG20160313192010803/13/16 19:20:31  5-MIN KAMG 140020Z AUTO 16006KT 10SM CLR 21/20 A2989 230 93 1000 160/06 RMK AO2 T02110200
13870KAMG AMG20160313192510803/13/16 19:25:31  5-MIN KAMG 140025Z AUTO 16007KT 10SM CLR 21/20 A2989 230 93 1000 170/07 RMK AO2 T02110200
13870KAMG AMG20160313193010803/13/16 19:30:31  5-MIN KAMG 140030Z AUTO 16006KT 10SM CLR 21/20 A2989 230 93 1000 160/06 RMK AO2 T02110200
13870KAMG AMG20160313193510803/13/16 19:35:31  5-MIN KAMG 140035Z AUTO 16007KT 10SM CLR 21/20 A2989 230 93 1000 170/07 RMK AO2 T02110200
13870KAMG AMG20160313194010803/13/16 19:40:31  5-MIN KAMG 140040Z AUTO 17006KT 10SM CLR 21/20 A2990 220 93 1000 170/06 RMK AO2 T02110200
13870KAMG AMG20160313194510803/13/16 19:45:31  5-MIN KAMG 140045Z AUTO 16006KT 10SM CLR 21/20 A2990 220 93 1000 170/06 RMK AO2 T02110200
13870KAMG AMG20160313195011503/13/16 19:50:31  5-MIN KAMG 140050Z AUTO 16006KT 10SM CLR 21/20 A2990 220 97 1000 160/06 RMK AO2 SLP123 T02060200
13870KAMG AMG20160313195510803/13/16 19:55:31  5-MIN KAMG 140055Z AUTO 17006KT 10SM CLR 21/19 A2991 210 93 1000 170/06 RMK AO2 T02060194
13870KAMG AMG20160313200010703/13/16 20:00:31  5-MIN KAMG 140100Z AUTO 16005KT 10SM CLR 21/19 A2991 210 93 900 170/05 RMK AO2 T02060194
13870KAMG AMG20160313200510703/13/16 20:05:31  5-MIN KAMG 140105Z AUTO 16005KT 10SM CLR 21/19 A2991 210 93 900 170/05 RMK AO2 T02060194
13870KAMG AMG20160313201011003/13/16 20:10:31  5-MIN KAMG 140110Z AUTO 15004KT 10SM SCT031 21/19 A2991 210 93 900 160/04 RMK AO2 T02060194
13870KAMG AMG20160313201511003/13/16 20:15:31  5-MIN KAMG 140115Z AUTO 15004KT 10SM BKN031 21/20 A2991 210 97 900 160/04 RMK AO2 T02060200
13870KAMG AMG20160313202011003/13/16 20:20:31  5-MIN KAMG 140120Z AUTO 14004KT 10SM BKN032 21/20 A2991 210 97 900 150/04 RMK AO2 T02060200
13870KAMG AMG20160313202511003/13/16 20:25:31  5-MIN KAMG 140125Z AUTO 14004KT 10SM SCT032 21/20 A2991 210 97 900 150/04 RMK AO2 T02060200
13870KAMG AMG20160313203011003/13/16 20:30:31  5-MIN KAMG 140130Z AUTO 14004KT 10SM SCT032 21/19 A2992 210 93 900 150/04 RMK AO2 T02060194
13870KAMG AMG20160313203511003/13/16 20:35:31  5-MIN KAMG 140135Z AUTO 14004KT 10SM SCT032 21/19 A2992 200 93 900 150/04 RMK AO2 T02060194
13870KAMG AMG20160313204011003/13/16 20:40:31  5-MIN KAMG 140140Z AUTO 16003KT 10SM SCT032 21/19 A2992 200 93 900 160/03 RMK AO2 T02060194
13870KAMG AMG20160313204511003/13/16 20:45:31  5-MIN KAMG 140145Z AUTO 16004KT 10SM SCT032 21/19 A2992 200 93 900 160/04 RMK AO2 T02060194
13870KAMG AMG20160313205011703/13/16 20:50:31  5-MIN KAMG 140150Z AUTO 16005KT 10SM FEW031 21/19 A2992 200 93 900 160/05 RMK AO2 SLP130 T02060194
13870KAMG AMG20160313205511003/13/16 20:55:31  5-MIN KAMG 140155Z AUTO 17006KT 10SM FEW031 21/19 A2992 200 93 900 170/06 RMK AO2 T02060194
13870KAMG AMG20160313210011003/13/16 21:00:31  5-MIN KAMG 140200Z AUTO 17006KT 10SM FEW031 20/19 A2992 200 97 900 170/06 RMK AO2 T02000194
13870KAMG AMG20160313210511003/13/16 21:05:31  5-MIN KAMG 140205Z AUTO 17006KT 10SM FEW031 20/19 A2992 200 97 900 170/06 RMK AO2 T02000194
13870KAMG AMG20160313211011003/13/16 21:10:31  5-MIN KAMG 140210Z AUTO 16006KT 10SM FEW031 20/19 A2992 200 97 900 170/06 RMK AO2 T02000194
13870KAMG AMG20160313211510703/13/16 21:15:31  5-MIN KAMG 140215Z AUTO 17006KT 10SM CLR 20/19 A2993 200 97 900 170/06 RMK AO2 T02000194
13870KAMG AMG20160313212010703/13/16 21:20:31  5-MIN KAMG 140220Z AUTO 17006KT 10SM CLR 20/19 A2992 200 97 900 180/06 RMK AO2 T02000194
13870KAMG AMG20160313212510703/13/16 21:25:31  5-MIN KAMG 140225Z AUTO 17006KT 10SM CLR 20/19 A2992 200 97 900 180/06 RMK AO2 T02000194
13870KAMG AMG20160313213010703/13/16 21:30:31  5-MIN KAMG 140230Z AUTO 18006KT 10SM CLR 20/19 A2992 200 97 900 180/06 RMK AO2 T02000194
13870KAMG AMG20160313213510703/13/16 21:35:31  5-MIN KAMG 140235Z AUTO 17007KT 10SM CLR 20/19 A2992 200 97 900 180/07 RMK AO2 T02000194
13870KAMG AMG20160313214010703/13/16 21:40:31  5-MIN KAMG 140240Z AUTO 18006KT 10SM CLR 20/19 A2992 200 97 900 180/06 RMK AO2 T02000194
13870KAMG AMG20160313214510703/13/16 21:45:31  5-MIN KAMG 140245Z AUTO 18007KT 10SM CLR 20/19 A2992 200 97 900 180/07 RMK AO2 T02000194
13870KAMG AMG20160313215012003/13/16 21:50:31  5-MIN KAMG 140250Z AUTO 17008KT 10SM CLR 20/19 A2992 200 97 900 180/08 RMK AO2 SLP130 T02000194 56009
13870KAMG AMG20160313215510703/13/16 21:55:31  5-MIN KAMG 140255Z AUTO 17006KT 10SM CLR 20/19 A2992 200 97 900 180/06 RMK AO2 T02000194
13870KAMG AMG20160313220010703/13/16 22:00:31  5-MIN KAMG 140300Z AUTO 18007KT 10SM CLR 20/19 A2992 200 97 900 180/07 RMK AO2 T02000194
13870KAMG AMG20160313220510703/13/16 22:05:31  5-MIN KAMG 140305Z AUTO 18007KT 10SM CLR 20/19 A2992 200 97 900 180/07 RMK AO2 T02000194
13870KAMG AMG20160313221010703/13/16 22:10:31  5-MIN KAMG 140310Z AUTO 19005KT 10SM CLR 20/19 A2992 200 97 900 200/05 RMK AO2 T02000194
13870KAMG AMG20160313221510703/13/16 22:15:31  5-MIN KAMG 140315Z AUTO 18005KT 10SM CLR 20/19 A2992 200 97 900 190/05 RMK AO2 T02000194
13870KAMG AMG20160313222010703/13/16 22:20:31  5-MIN KAMG 140320Z AUTO 19005KT 10SM CLR 20/19 A2992 200 93 900 190/05 RMK AO2 T02000189
13870KAMG AMG20160313222510703/13/16 22:25:31  5-MIN KAMG 140325Z AUTO 18005KT 10SM CLR 19/19 A2992 200 97 800 190/05 RMK AO2 T01940189
13870KAMG AMG20160313223010703/13/16 22:30:31  5-MIN KAMG 140330Z AUTO 18006KT 10SM CLR 19/19 A2992 200 97 800 180/06 RMK AO2 T01940189
13870KAMG AMG20160313223510703/13/16 22:35:31  5-MIN KAMG 140335Z AUTO 19005KT 10SM CLR 19/19 A2993 190 97 800 190/05 RMK AO2 T01940189
13870KAMG AMG20160313224010703/13/16 22:40:31  5-MIN KAMG 140340Z AUTO 19006KT 10SM CLR 19/19 A2993 200 97 800 200/06 RMK AO2 T01940189
13870KAMG AMG20160313224510703/13/16 22:45:31  5-MIN KAMG 140345Z AUTO 20005KT 10SM CLR 19/19 A2993 200 97 800 200/05 RMK AO2 T01940189
13870KAMG AMG20160313225011403/13/16 22:50:31  5-MIN KAMG 140350Z AUTO 20005KT 10SM CLR 19/19 A2993 200 97 800 210/05 RMK AO2 SLP132 T01940189
13870KAMG AMG20160313225510703/13/16 22:55:31  5-MIN KAMG 140355Z AUTO 21005KT 10SM CLR 19/19 A2993 190 97 800 210/05 RMK AO2 T01940189
13870KAMG AMG20160313230010703/13/16 23:00:31  5-MIN KAMG 140400Z AUTO 20005KT 10SM CLR 19/19 A2993 190 97 800 200/05 RMK AO2 T01940189
13870KAMG AMG20160313230510703/13/16 23:05:31  5-MIN KAMG 140405Z AUTO 20004KT 10SM CLR 19/19 A2993 190 97 800 210/04 RMK AO2 T01940189
13870KAMG AMG20160313231010703/13/16 23:10:31  5-MIN KAMG 140410Z AUTO 20004KT 10SM CLR 19/19 A2993 190 97 800 210/04 RMK AO2 T01940189
13870KAMG AMG20160313231510703/13/16 23:15:31  5-MIN KAMG 140415Z AUTO 20004KT 10SM CLR 19/19 A2993 190 97 800 210/04 RMK AO2 T01940189
13870KAMG AMG20160313232010803/13/16 23:20:31  5-MIN KAMG 140420Z AUTO 20005KT 10SM CLR 19/19 A2993 190 100 700 200/05 RMK AO2 T01890189
13870KAMG AMG20160313232510803/13/16 23:25:31  5-MIN KAMG 140425Z AUTO 20006KT 10SM CLR 19/19 A2993 190 100 700 210/06 RMK AO2 T01890189
13870KAMG AMG20160313233010803/13/16 23:30:31  5-MIN KAMG 140430Z AUTO 20006KT 10SM CLR 19/19 A2993 200 100 700 200/06 RMK AO2 T01890189
13870KAMG AMG20160313233510703/13/16 23:35:31  5-MIN KAMG 140435Z AUTO 21006KT 10SM CLR 19/18 A2993 200 97 700 210/06 RMK AO2 T01890183
13870KAMG AMG20160313234010703/13/16 23:40:31  5-MIN KAMG 140440Z AUTO 21004KT 10SM CLR 19/18 A2992 200 97 700 210/04 RMK AO2 T01890183
13870KAMG AMG20160313234510703/13/16 23:45:31  5-MIN KAMG 140445Z AUTO 21004KT 10SM CLR 19/18 A2992 200 97 700 210/04 RMK AO2 T01890183
13870KAMG AMG20160313235012403/13/16 23:50:31  5-MIN KAMG 140450Z AUTO 20004KT 10SM CLR 19/18 A2992 200 97 700 210/04 RMK AO2 SLP131 T01890183 402390189
13870KAMG AMG20160313235510703/13/16 23:55:31  5-MIN KAMG 140455Z AUTO 20005KT 10SM CLR 19/18 A2992 200 97 700 200/05 RMK AO2 T01890183
13870KAMG AMG20160314000010703/14/16 00:00:31  5-MIN KAMG 140500Z AUTO 20004KT 10SM CLR 19/18 A2993 200 97 700 210/04 RMK AO2 T01890183
13870KAMG AMG20160314000510703/14/16 00:05:31  5-MIN KAMG 140505Z AUTO 20004KT 10SM CLR 19/18 A2993 200 97 700 210/04 RMK AO2 T01890183
13870KAMG AMG20160314001010803/14/16 00:10:31  5-MIN KAMG 140510Z AUTO 20005KT 10SM CLR 18/18 A2993 200 100 700 210/05 RMK AO2 T01830183
13870KAMG AMG20160314001510803/14/16 00:15:31  5-MIN KAMG 140515Z AUTO 20003KT 10SM CLR 18/18 A2993 200 100 700 210/03 RMK AO2 T01830183
13870KAMG AMG20160314002010803/14/16 00:20:31  5-MIN KAMG 140520Z AUTO 20004KT 10SM CLR 18/18 A2992 200 100 700 200/04 RMK AO2 T01830183
13870KAMG AMG20160314002510803/14/16 00:25:31  5-MIN KAMG 140525Z AUTO 20004KT 10SM CLR 18/18 A2992 200 100 700 210/04 RMK AO2 T01830183
13870KAMG AMG20160314003010803/14/16 00:30:31  5-MIN KAMG 140530Z AUTO 21004KT 10SM CLR 18/18 A2993 200 100 700 220/04 RMK AO2 T01830183
13870KAMG AMG20160314003510703/14/16 00:35:31  5-MIN KAMG 140535Z AUTO 21004KT 10SM CLR 18/18 A2993 200 96 700 220/04 RMK AO2 T01830178
13870KAMG AMG20160314004010703/14/16 00:40:31  5-MIN KAMG 140540Z AUTO 21004KT 10SM CLR 18/18 A2993 200 96 700 210/04 RMK AO2 T01830178
13870KAMG AMG20160314004510703/14/16 00:45:31  5-MIN KAMG 140545Z AUTO 20004KT 10SM CLR 18/18 A2992 200 96 700 210/04 RMK AO2 T01830178
13870KAMG AMG20160314005013203/14/16 00:50:31  5-MIN KAMG 140550Z AUTO 21005KT 10SM CLR 18/18 A2992 200 96 700 210/05 RMK AO2 SLP130 T01830178 10217 20183 51013
13870KAMG AMG20160314005510703/14/16 00:55:31  5-MIN KAMG 140555Z AUTO 21005KT 10SM CLR 18/18 A2992 200 96 700 210/05 RMK AO2 T01830178
13870KAMG AMG20160314010010703/14/16 01:00:31  5-MIN KAMG 140600Z AUTO 21004KT 10SM CLR 18/18 A2992 200 96 700 210/04 RMK AO2 T01830178
13870KAMG AMG20160314010510703/14/16 01:05:31  5-MIN KAMG 140605Z AUTO 21005KT 10SM CLR 18/18 A2992 200 96 700 220/05 RMK AO2 T01830178
13870KAMG AMG20160314011010703/14/16 01:10:31  5-MIN KAMG 140610Z AUTO 21005KT 10SM CLR 18/18 A2992 200 96 700 220/05 RMK AO2 T01830178
13870KAMG AMG20160314011510803/14/16 01:15:31  5-MIN KAMG 140615Z AUTO 21005KT 10SM CLR 18/18 A2992 200 100 600 210/05 RMK AO2 T01780178
13870KAMG AMG20160314012010803/14/16 01:20:31  5-MIN KAMG 140620Z AUTO 21005KT 10SM CLR 18/18 A2992 200 100 600 220/05 RMK AO2 T01780178
13870KAMG AMG20160314012510803/14/16 01:25:31  5-MIN KAMG 140625Z AUTO 21004KT 10SM CLR 18/18 A2992 200 100 600 220/04 RMK AO2 T01780178
13870KAMG AMG20160314013010803/14/16 01:30:31  5-MIN KAMG 140630Z AUTO 21005KT 10SM CLR 18/18 A2992 200 100 600 220/05 RMK AO2 T01780178
13870KAMG AMG20160314013510803/14/16 01:35:31  5-MIN KAMG 140635Z AUTO 21005KT 10SM CLR 18/18 A2992 210 100 600 210/05 RMK AO2 T01780178
13870KAMG AMG20160314014010703/14/16 01:40:31  5-MIN KAMG 140640Z AUTO 21004KT 10SM CLR 18/17 A2992 210 96 600 220/04 RMK AO2 T01780172
13870KAMG AMG20160314014510603/14/16 01:45:31  5-MIN KAMG 140645Z AUTO 21004KT 9SM CLR 18/17 A2992 200 96 600 220/04 RMK AO2 T01780172
13870KAMG AMG20160314015011303/14/16 01:50:31  5-MIN KAMG 140650Z AUTO 22004KT 9SM CLR 18/17 A2992 200 96 600 220/04 RMK AO2 SLP129 T01780172
13870KAMG AMG20160314015510603/14/16 01:55:31  5-MIN KAMG 140655Z AUTO 22005KT 9SM CLR 18/17 A2992 210 96 600 230/05 RMK AO2 T01780172
13870KAMG AMG20160314020010703/14/16 02:00:31  5-MIN KAMG 140700Z AUTO 21004KT 9SM CLR 18/18 A2992 210 100 600 220/04 RMK AO2 T01780178
13870KAMG AMG20160314020510603/14/16 02:05:31  5-MIN KAMG 140705Z AUTO 20005KT 9SM CLR 18/17 A2992 210 96 600 210/05 RMK AO2 T01780172
13870KAMG AMG20160314021010603/14/16 02:10:31  5-MIN KAMG 140710Z AUTO 20004KT 9SM CLR 18/17 A2992 210 96 600 210/04 RMK AO2 T01780172
13870KAMG AMG20160314021510703/14/16 02:15:31  5-MIN KAMG 140715Z AUTO 21004KT 9SM CLR 17/17 A2992 210 100 600 210/04 RMK AO2 T01720172
13870KAMG AMG20160314022010703/14/16 02:20:31  5-MIN KAMG 140720Z AUTO 20005KT 8SM CLR 17/17 A2992 210 100 600 210/05 RMK AO2 T01720172
13870KAMG AMG20160314022511003/14/16 02:25:31  5-MIN KAMG 140725Z AUTO 21004KT 8SM FEW005 17/17 A2992 210 100 600 210/04 RMK AO2 T01720172
13870KAMG AMG20160314023011003/14/16 02:30:31  5-MIN KAMG 140730Z AUTO 20004KT 8SM FEW005 17/17 A2991 210 100 600 200/04 RMK AO2 T01720172
13870KAMG AMG20160314023511003/14/16 02:35:31  5-MIN KAMG 140735Z AUTO 20004KT 7SM FEW005 17/17 A2991 210 100 600 200/04 RMK AO2 T01720172
13870KAMG AMG20160314024011003/14/16 02:40:31  5-MIN KAMG 140740Z AUTO 19005KT 7SM SCT005 17/17 A2991 210 100 600 200/05 RMK AO2 T01720172
13870KAMG AMG20160314024511003/14/16 02:45:31  5-MIN KAMG 140745Z AUTO 20004KT 7SM BKN005 17/17 A2991 210 100 600 200/04 RMK AO2 T01720172
13870KAMG AMG20160314025010003/14/16 02:50:31  5-MIN KAMG 140750Z AUTO 21003KT 7SM BKN005 17/17 A2991 220 100 600 210/03 RMK AO2
13870KAMG AMG20160314025511003/14/16 02:55:31  5-MIN KAMG 140755Z AUTO 21004KT 7SM BKN005 17/17 A2991 210 100 600 220/04 RMK AO2 T01720172
13870KAMG AMG20160314030011003/14/16 03:00:31  5-MIN KAMG 140800Z AUTO 21006KT 7SM OVC005 18/18 A2991 210 100 600 220/06 RMK AO2 T01780178
13870KAMG AMG20160314030511003/14/16 03:05:31  5-MIN KAMG 140805Z AUTO 22005KT 8SM OVC004 18/18 A2991 220 100 600 220/05 RMK AO2 T01780178
13870KAMG AMG20160314031011003/14/16 03:10:31  5-MIN KAMG 140810Z AUTO 22005KT 8SM OVC004 18/18 A2991 220 100 600 220/05 RMK AO2 T01780178
13870KAMG AMG20160314031511003/14/16 03:15:31  5-MIN KAMG 140815Z AUTO 23006KT 8SM OVC004 18/18 A2990 220 100 600 230/06 RMK AO2 T01780178
13870KAMG AMG20160314032011003/14/16 03:20:31  5-MIN KAMG 140820Z AUTO 21005KT 8SM OVC004 18/18 A2990 220 100 600 210/05 RMK AO2 T01780178
13870KAMG AMG20160314032511003/14/16 03:25:31  5-MIN KAMG 140825Z AUTO 22004KT 8SM OVC004 18/18 A2990 220 100 600 220/04 RMK AO2 T01780178
13870KAMG AMG20160314033011003/14/16 03:30:31  5-MIN KAMG 140830Z AUTO 22006KT 8SM OVC004 18/18 A2991 220 100 600 220/06 RMK AO2 T01780178
13870KAMG AMG20160314033511003/14/16 03:35:31  5-MIN KAMG 140835Z AUTO 22006KT 8SM OVC004 18/18 A2991 220 100 600 220/06 RMK AO2 T01780178
13870KAMG AMG20160314034011003/14/16 03:40:31  5-MIN KAMG 140840Z AUTO 22007KT 8SM OVC004 18/18 A2991 210 100 600 230/07 RMK AO2 T01780178
13870KAMG AMG20160314034511003/14/16 03:45:31  5-MIN KAMG 140845Z AUTO 22006KT 8SM OVC004 18/18 A2991 210 100 600 220/06 RMK AO2 T01780178
13870KAMG AMG20160314035013503/14/16 03:50:31  5-MIN KAMG 140850Z AUTO 21007KT 9SM OVC004 18/18 A2991 210 100 600 220/07 RMK AO2 CIG 003V008 SLP126 T01780178 50000
13870KAMG AMG20160314035512203/14/16 03:55:31  5-MIN KAMG 140855Z AUTO 22005KT 9SM OVC004 18/18 A2991 210 100 600 230/05 RMK AO2 CIG 004V007 T01780178
13870KAMG AMG20160314040012103/14/16 04:00:31  5-MIN KAMG 140900Z AUTO 22007KT 9SM OVC006 18/17 A2991 210 96 600 230/07 RMK AO2 CIG 004V010 T01780172
13870KAMG AMG20160314040512103/14/16 04:05:31  5-MIN KAMG 140905Z AUTO 22007KT 9SM OVC006 18/17 A2991 210 96 600 220/07 RMK AO2 CIG 004V010 T01780172
13870KAMG AMG20160314041012203/14/16 04:10:31  5-MIN KAMG 140910Z AUTO 21007KT 10SM OVC006 18/17 A2991 210 96 600 220/07 RMK AO2 CIG 004V010 T01780172
13870KAMG AMG20160314041512203/14/16 04:15:31  5-MIN KAMG 140915Z AUTO 22006KT 10SM OVC006 18/17 A2991 210 96 600 230/06 RMK AO2 CIG 004V010 T01780172
13870KAMG AMG20160314042012203/14/16 04:20:31  5-MIN KAMG 140920Z AUTO 22003KT 10SM OVC006 18/17 A2991 210 96 600 220/03 RMK AO2 CIG 004V010 T01780172
13870KAMG AMG20160314042511003/14/16 04:25:31  5-MIN KAMG 140925Z AUTO 22006KT 10SM OVC006 18/17 A2991 210 96 600 220/06 RMK AO2 T01780172
13870KAMG AMG20160314043011103/14/16 04:30:31  5-MIN KAMG 140930Z AUTO 23007KT 10SM OVC006 17/17 A2991 210 100 600 230/07 RMK AO2 T01720172
13870KAMG AMG20160314043511103/14/16 04:35:31  5-MIN KAMG 140935Z AUTO 21005KT 10SM OVC006 17/17 A2992 210 100 600 220/05 RMK AO2 T01720172
13870KAMG AMG20160314044012303/14/16 04:40:31  5-MIN KAMG 140940Z AUTO 21006KT 10SM OVC006 17/17 A2992 200 100 600 220/06 RMK AO2 CIG 005V009 T01720172
13870KAMG AMG20160314044511103/14/16 04:45:31  5-MIN KAMG 140945Z AUTO 21005KT 10SM OVC006 17/17 A2992 200 100 500 210/05 RMK AO2 T01720172
13870KAMG AMG20160314045011803/14/16 04:50:31  5-MIN KAMG 140950Z AUTO 20006KT 10SM OVC006 17/17 A2992 200 100 600 200/06 RMK AO2 SLP130 T01720172
13870KAMG AMG20160314045511003/14/16 04:55:31  5-MIN KAMG 140955Z AUTO 20006KT 10SM OVC006 17/17 A2992 200 96 600 210/06 RMK AO2 T01720167
13870KAMG AMG20160314050011003/14/16 05:00:31  5-MIN KAMG 141000Z AUTO 21006KT 10SM OVC006 17/17 A2992 200 96 500 210/06 RMK AO2 T01720167
13870KAMG AMG20160314050511003/14/16 05:05:31  5-MIN KAMG 141005Z AUTO 21006KT 10SM OVC007 17/17 A2993 200 96 500 220/06 RMK AO2 T01720167
13870KAMG AMG20160314051011003/14/16 05:10:31  5-MIN KAMG 141010Z AUTO 22004KT 10SM OVC007 17/17 A2993 190 96 500 230/04 RMK AO2 T01720167
13870KAMG AMG20160314051511003/14/16 05:15:31  5-MIN KAMG 141015Z AUTO 22006KT 10SM OVC007 17/17 A2993 190 96 500 220/06 RMK AO2 T01720167
13870KAMG AMG20160314052012203/14/16 05:20:31  5-MIN KAMG 141020Z AUTO 21005KT 10SM OVC007 17/17 A2993 190 96 500 220/05 RMK AO2 CIG 006V010 T01720167
13870KAMG AMG20160314052512303/14/16 05:25:31  5-MIN KAMG 141025Z AUTO 20003KT 10SM OVC007 17/17 A2993 190 100 500 200/03 RMK AO2 CIG 006V010 T01720172
13870KAMG AMG20160314053012203/14/16 05:30:31  5-MIN KAMG 141030Z AUTO 20004KT 10SM OVC007 17/17 A2993 190 96 500 210/04 RMK AO2 CIG 006V011 T01720167
13870KAMG AMG20160314053512203/14/16 05:35:31  5-MIN KAMG 141035Z AUTO 21004KT 10SM OVC007 17/17 A2993 190 96 500 210/04 RMK AO2 CIG 006V011 T01720167
13870KAMG AMG20160314054012203/14/16 05:40:31  5-MIN KAMG 141040Z AUTO 19005KT 10SM OVC007 17/17 A2993 190 96 500 200/05 RMK AO2 CIG 006V011 T01720167
13870KAMG AMG20160314054512203/14/16 05:45:31  5-MIN KAMG 141045Z AUTO 20004KT 10SM OVC007 17/17 A2993 190 96 500 200/04 RMK AO2 CIG 006V010 T01720167
13870KAMG AMG20160314055011703/14/16 05:50:31  5-MIN KAMG 141050Z AUTO 19005KT 10SM OVC007 17/17 A2993 190 96 500 190/05 RMK AO2 SLP134 T01720167
13870KAMG AMG20160314055511003/14/16 05:55:31  5-MIN KAMG 141055Z AUTO 19006KT 10SM OVC007 17/17 A2993 190 96 500 200/06 RMK AO2 T01720167
13870KAMG AMG20160314060011003/14/16 06:00:31  5-MIN KAMG 141100Z AUTO 19006KT 10SM OVC007 17/17 A2993 190 96 500 190/06 RMK AO2 T01720167
13870KAMG AMG20160314060511003/14/16 06:05:31  5-MIN KAMG 141105Z AUTO 19006KT 10SM OVC007 17/17 A2994 190 96 500 200/06 RMK AO2 T01720167
13870KAMG AMG20160314061011003/14/16 06:10:31  5-MIN KAMG 141110Z AUTO 20006KT 10SM OVC007 17/17 A2994 190 96 500 200/06 RMK AO2 T01720167
13870KAMG AMG20160314061511003/14/16 06:15:31  5-MIN KAMG 141115Z AUTO 20006KT 10SM OVC007 17/17 A2994 180 96 500 200/06 RMK AO2 T01720167
13870KAMG AMG20160314062011003/14/16 06:20:31  5-MIN KAMG 141120Z AUTO 20007KT 10SM OVC007 17/17 A2994 180 96 500 200/07 RMK AO2 T01720167
13870KAMG AMG20160314062511003/14/16 06:25:31  5-MIN KAMG 141125Z AUTO 20005KT 10SM OVC007 17/17 A2994 180 96 500 200/05 RMK AO2 T01720167
13870KAMG AMG20160314063011003/14/16 06:30:31  5-MIN KAMG 141130Z AUTO 22004KT 10SM OVC007 17/17 A2995 180 96 500 220/04 RMK AO2 T01720167
13870KAMG AMG20160314063511003/14/16 06:35:31  5-MIN KAMG 141135Z AUTO 21006KT 10SM OVC007 17/17 A2995 180 96 500 220/06 RMK AO2 T01720167
13870KAMG AMG20160314064011003/14/16 06:40:31  5-MIN KAMG 141140Z AUTO 20005KT 10SM OVC007 17/17 A2995 180 96 500 200/05 RMK AO2 T01720167
13870KAMG AMG20160314064511003/14/16 06:45:31  5-MIN KAMG 141145Z AUTO 20006KT 10SM OVC007 17/17 A2995 170 96 500 210/06 RMK AO2 T01720167
13870KAMG AMG20160314065015303/14/16 06:50:31  5-MIN KAMG 141150Z AUTO 19005KT 10SM OVC007 17/17 A2995 180 96 500 200/05 RMK AO2 CIG 006V011 SLP139 70008 T01720167 10183 20172 56003
13870KAMG AMG20160314065512203/14/16 06:55:31  5-MIN KAMG 141155Z AUTO 20005KT 10SM OVC009 17/17 A2995 170 96 500 200/05 RMK AO2 CIG 006V011 T01720167
13870KAMG AMG20160314070012203/14/16 07:00:31  5-MIN KAMG 141200Z AUTO 20006KT 10SM OVC009 17/17 A2995 170 96 500 210/06 RMK AO2 CIG 006V011 T01720167
13870KAMG AMG20160314070512203/14/16 07:05:31  5-MIN KAMG 141205Z AUTO 19005KT 10SM OVC009 17/17 A2995 170 96 500 200/05 RMK AO2 CIG 006V011 T01720167
13870KAMG AMG20160314071012203/14/16 07:10:31  5-MIN KAMG 141210Z AUTO 19006KT 10SM OVC009 17/17 A2995 170 96 500 200/06 RMK AO2 CIG 006V012 T01720167
13870KAMG AMG20160314071512203/14/16 07:15:31  5-MIN KAMG 141215Z AUTO 19005KT 10SM OVC009 17/17 A2995 170 96 500 190/05 RMK AO2 CIG 007V012 T01720167
13870KAMG AMG20160314072012203/14/16 07:20:31  5-MIN KAMG 141220Z AUTO 21005KT 10SM OVC009 17/17 A2995 170 96 500 210/05 RMK AO2 CIG 007V013 T01720167
13870KAMG AMG20160314072512203/14/16 07:25:31  5-MIN KAMG 141225Z AUTO 20005KT 10SM OVC009 18/17 A2995 170 93 600 200/05 RMK AO2 CIG 007V013 T01780167
13870KAMG AMG20160314073011003/14/16 07:30:31  5-MIN KAMG 141230Z AUTO 19004KT 10SM OVC009 18/17 A2996 170 93 600 200/04 RMK AO2 T01780167
13870KAMG AMG20160314073512203/14/16 07:35:31  5-MIN KAMG 141235Z AUTO 19005KT 10SM OVC009 18/17 A2996 170 93 600 190/05 RMK AO2 CIG 008V011 T01780167
13870KAMG AMG20160314074012203/14/16 07:40:31  5-MIN KAMG 141240Z AUTO 19005KT 10SM OVC009 18/17 A2996 160 93 600 200/05 RMK AO2 CIG 008V013 T01780167
13870KAMG AMG20160314074512203/14/16 07:45:31  5-MIN KAMG 141245Z AUTO 20007KT 10SM OVC009 18/17 A2996 160 93 600 200/07 RMK AO2 CIG 008V014 T01780167
13870KAMG AMG20160314075012903/14/16 07:50:31  5-MIN KAMG 141250Z AUTO 20006KT 10SM OVC009 18/17 A2996 160 93 600 210/06 RMK AO2 CIG 008V012 SLP144 T01780167
13870KAMG AMG20160314075511003/14/16 07:55:31  5-MIN KAMG 141255Z AUTO 21005KT 10SM OVC010 18/17 A2996 160 93 600 220/05 RMK AO2 T01780167
13870KAMG AMG20160314080012203/14/16 08:00:31  5-MIN KAMG 141300Z AUTO 20005KT 10SM OVC010 18/17 A2997 160 96 600 200/05 RMK AO2 CIG 008V014 T01780172
13870KAMG AMG20160314080512203/14/16 08:05:31  5-MIN KAMG 141305Z AUTO 19004KT 10SM OVC010 18/17 A2996 160 96 600 200/04 RMK AO2 CIG 008V014 T01780172
13870KAMG AMG20160314081012903/14/16 08:10:31  5-MIN KAMG 141310Z AUTO 19006KT 10SM BKN010 OVC014 18/17 A2996 170 96 600 200/06 RMK AO2 CIG 008V012 T01780172
13870KAMG AMG20160314081512903/14/16 08:15:31  5-MIN KAMG 141315Z AUTO 20008KT 10SM BKN010 OVC014 18/17 A2997 160 90 600 210/08 RMK AO2 CIG 008V012 T01830167
13870KAMG AMG20160314082011003/14/16 08:20:31  5-MIN KAMG 141320Z AUTO 21006KT 10SM OVC012 18/17 A2997 160 93 600 220/06 RMK AO2 T01830172
13870KAMG AMG20160314082511003/14/16 08:25:31  5-MIN KAMG 141325Z AUTO 21007KT 10SM OVC012 18/17 A2996 160 90 600 220/07 RMK AO2 T01830167
13870KAMG AMG20160314083011003/14/16 08:30:31  5-MIN KAMG 141330Z AUTO 22006KT 10SM OVC012 18/17 A2996 160 90 600 220/06 RMK AO2 T01830167
13870KAMG AMG20160314083511003/14/16 08:35:31  5-MIN KAMG 141335Z AUTO 22006KT 10SM OVC012 18/17 A2997 160 90 600 230/06 RMK AO2 T01830167
13870KAMG AMG20160314084011003/14/16 08:40:31  5-MIN KAMG 141340Z AUTO 23005KT 10SM OVC012 19/17 A2997 160 87 700 240/05 RMK AO2 T01890167
13870KAMG AMG20160314084511003/14/16 08:45:31  5-MIN KAMG 141345Z AUTO 22008KT 10SM OVC014 19/17 A2997 160 87 700 220/08 RMK AO2 T01890167
13870KAMG AMG20160314085011703/14/16 08:50:31  5-MIN KAMG 141350Z AUTO 23007KT 10SM OVC014 19/17 A2997 150 87 700 230/07 RMK AO2 SLP147 T01890167
13870KAMG AMG20160314085511003/14/16 08:55:31  5-MIN KAMG 141355Z AUTO 22007KT 10SM OVC014 19/17 A2997 150 87 700 230/07 RMK AO2 T01890167
13870KAMG AMG20160314090011003/14/16 09:00:31  5-MIN KAMG 141400Z AUTO 22007KT 10SM OVC014 19/17 A2998 150 87 700 230/07 RMK AO2 T01890167
13870KAMG AMG20160316035013403/16/16 03:50:31  5-MIN KAMG 160850Z AUTO 23007KT 7SM OVC008 18/18 A2993 190 96 700 240/07 RMK AO2 CIG 006V010 SLP133 T01830178 50003
13870KAMG AMG20160316035512103/16/16 03:55:31  5-MIN KAMG 160855Z AUTO 24008KT 8SM OVC008 19/18 A2994 190 93 700 240/08 RMK AO2 CIG 006V012 T01890178
13870KAMG AMG20160316040013703/16/16 04:00:31  5-MIN KAMG 160900Z AUTO 24007KT 210V270 8SM OVC008 19/18 A2994 180 93 700 250/07 220V280 RMK AO2 CIG 007V012 T01890178
13870KAMG AMG20160316040512703/16/16 04:05:31  5-MIN KAMG 160905Z AUTO 24007G17KT 8SM OVC010 19/18 A2994 180 93 700 250/07G17 RMK AO2 CIG 007V014 T01890178
13870KAMG AMG20160316041011503/16/16 04:10:31  5-MIN KAMG 160910Z AUTO 24009G17KT 8SM OVC010 19/18 A2994 190 93 700 240/09G17 RMK AO2 T01890178
13870KAMG AMG20160316041510903/16/16 04:15:31  5-MIN KAMG 160915Z AUTO 24008KT 8SM OVC010 19/18 A2994 190 93 700 250/08 RMK AO2 T01890178
13870KAMG AMG20160316042010903/16/16 04:20:31  5-MIN KAMG 160920Z AUTO 25009KT 8SM OVC012 19/18 A2994 180 93 700 250/09 RMK AO2 T01890178
13870KAMG AMG20160316042510903/16/16 04:25:31  5-MIN KAMG 160925Z AUTO 25007KT 8SM OVC012 19/18 A2994 180 93 700 250/07 RMK AO2 T01890178
13870KAMG AMG20160316043010903/16/16 04:30:31  5-MIN KAMG 160930Z AUTO 25007KT 8SM OVC012 19/18 A2994 180 93 700 260/07 RMK AO2 T01890178
13870KAMG AMG20160316043510903/16/16 04:35:31  5-MIN KAMG 160935Z AUTO 26008KT 8SM OVC012 19/18 A2995 180 93 700 260/08 RMK AO2 T01890178
13870KAMG AMG20160316044010903/16/16 04:40:31  5-MIN KAMG 160940Z AUTO 25009KT 8SM OVC012 19/18 A2995 180 93 700 260/09 RMK AO2 T01890178
13870KAMG AMG20160316044510903/16/16 04:45:31  5-MIN KAMG 160945Z AUTO 26008KT 8SM OVC012 19/18 A2995 180 90 800 260/08 RMK AO2 T01940178
13870KAMG AMG20160316045012203/16/16 04:50:31  5-MIN KAMG 160950Z AUTO 26009G16KT 8SM OVC013 19/18 A2995 180 90 800 260/09G16 RMK AO2 SLP138 T01940178
13870KAMG AMG20160316045511503/16/16 04:55:31  5-MIN KAMG 160955Z AUTO 26009G16KT 8SM OVC013 19/18 A2995 170 90 800 270/09G16 RMK AO2 T01940178
13870KAMG AMG20160316050010903/16/16 05:00:31  5-MIN KAMG 161000Z AUTO 26009KT 8SM OVC015 19/18 A2995 170 90 800 260/09 RMK AO2 T01940178
13870KAMG AMG20160316050510903/16/16 05:05:31  5-MIN KAMG 161005Z AUTO 26008KT 8SM OVC015 19/17 A2996 170 87 800 260/08 RMK AO2 T01940172
13870KAMG AMG20160316051010903/16/16 05:10:31  5-MIN KAMG 161010Z AUTO 26008KT 8SM OVC015 19/17 A2996 170 87 800 270/08 RMK AO2 T01940172
13870KAMG AMG20160316051510903/16/16 05:15:31  5-MIN KAMG 161015Z AUTO 26008KT 8SM OVC015 19/17 A2996 170 87 800 270/08 RMK AO2 T01940172
13870KAMG AMG20160316052010903/16/16 05:20:31  5-MIN KAMG 161020Z AUTO 27008KT 8SM OVC015 19/17 A2996 160 87 800 270/08 RMK AO2 T01940172
13870KAMG AMG20160316052511603/16/16 05:25:31  5-MIN KAMG 161025Z AUTO 26009KT 8SM BKN015 OVC021 19/17 A2997 160 87 800 260/09 RMK AO2 T01940172
13870KAMG AMG20160316053011603/16/16 05:30:31  5-MIN KAMG 161030Z AUTO 27007KT 8SM BKN015 OVC021 19/17 A2997 160 87 800 280/07 RMK AO2 T01940172
13870KAMG AMG20160316053513803/16/16 05:35:31  5-MIN KAMG 161035Z AUTO 26009G16KT 230V300 8SM SCT016 OVC021 19/17 A2997 160 87 800 270/09G16 240V310 RMK AO2 T01940172
13870KAMG AMG20160316054011503/16/16 05:40:31  5-MIN KAMG 161040Z AUTO 27009G16KT 8SM OVC018 19/17 A2997 150 87 800 280/09G16 RMK AO2 T01940172
13870KAMG AMG20160316054511503/16/16 05:45:31  5-MIN KAMG 161045Z AUTO 27006G16KT 8SM OVC018 19/17 A2998 150 87 700 280/06G16 RMK AO2 T01940172
13870KAMG AMG20160316055011603/16/16 05:50:31  5-MIN KAMG 161050Z AUTO 28006KT 8SM OVC020 19/17 A2998 150 87 700 280/06 RMK AO2 SLP147 T01940172
13870KAMG AMG20160316055510903/16/16 05:55:31  5-MIN KAMG 161055Z AUTO 28009KT 9SM OVC020 19/17 A2998 150 87 700 280/09 RMK AO2 T01940172
13870KAMG AMG20160316060010903/16/16 06:00:31  5-MIN KAMG 161100Z AUTO 27007KT 9SM OVC020 20/17 A2998 150 84 800 270/07 RMK AO2 T02000172
13870KAMG AMG20160316060510903/16/16 06:05:31  5-MIN KAMG 161105Z AUTO 28007KT 9SM OVC020 20/17 A2998 150 84 800 280/07 RMK AO2 T02000172
13870KAMG AMG20160316061010903/16/16 06:10:31  5-MIN KAMG 161110Z AUTO 28008KT 9SM OVC020 20/17 A2998 150 84 800 290/08 RMK AO2 T02000172
13870KAMG AMG20160316061510903/16/16 06:15:31  5-MIN KAMG 161115Z AUTO 27009KT 9SM OVC020 20/17 A2998 150 84 800 280/09 RMK AO2 T02000172
13870KAMG AMG20160316062010903/16/16 06:20:31  5-MIN KAMG 161120Z AUTO 28008KT 9SM OVC022 20/17 A2998 150 81 800 280/08 RMK AO2 T02000167
13870KAMG AMG20160316062510903/16/16 06:25:31  5-MIN KAMG 161125Z AUTO 26007KT 9SM OVC022 20/17 A2998 150 81 800 270/07 RMK AO2 T02000167
13870KAMG AMG20160316063012503/16/16 06:30:31  5-MIN KAMG 161130Z AUTO 26008KT 240V310 9SM OVC022 20/17 A2998 150 81 800 270/08 250V320 RMK AO2 T02000167
13870KAMG AMG20160316063512503/16/16 06:35:31  5-MIN KAMG 161135Z AUTO 27009KT 240V310 9SM OVC022 20/17 A2998 140 81 800 280/09 250V320 RMK AO2 T02000167
13870KAMG AMG20160316064011503/16/16 06:40:31  5-MIN KAMG 161140Z AUTO 27007G14KT 9SM OVC022 20/17 A2998 150 81 800 270/07G14 RMK AO2 T02000167
13870KAMG AMG20160316064510903/16/16 06:45:31  5-MIN KAMG 161145Z AUTO 26006KT 8SM BKN022 19/17 A2998 150 84 700 260/06 RMK AO2 T01940167
13870KAMG AMG20160316065013403/16/16 06:50:31  5-MIN KAMG 161150Z AUTO 26006KT 8SM BKN023 19/17 A2998 150 84 700 270/06 RMK AO2 SLP150 T01940167 10200 20172 56005
13870KAMG AMG20160316065511503/16/16 06:55:31  5-MIN KAMG 161155Z AUTO 26007G17KT 8SM BKN023 19/17 A2998 140 84 700 270/07G17 RMK AO2 T01940167
13870KAMG AMG20160316070011503/16/16 07:00:31  5-MIN KAMG 161200Z AUTO 26006G17KT 8SM SCT023 19/17 A2998 140 84 700 270/06G17 RMK AO2 T01940167
13870KAMG AMG20160316070510903/16/16 07:05:31  5-MIN KAMG 161205Z AUTO 25006KT 8SM FEW023 19/17 A2999 140 84 700 260/06 RMK AO2 T01940167
13870KAMG AMG20160316071010903/16/16 07:10:31  5-MIN KAMG 161210Z AUTO 26006KT 8SM FEW023 19/17 A2999 140 84 700 260/06 RMK AO2 T01940167
13870KAMG AMG20160316071510903/16/16 07:15:31  5-MIN KAMG 161215Z AUTO 25005KT 8SM FEW022 19/17 A2999 140 84 700 260/05 RMK AO2 T01940167
13870KAMG AMG20160316072010603/16/16 07:20:31  5-MIN KAMG 161220Z AUTO 26005KT 8SM CLR 19/17 A2999 140 84 700 260/05 RMK AO2 T01940167
13870KAMG AMG20160316072510603/16/16 07:25:31  5-MIN KAMG 161225Z AUTO 25005KT 8SM CLR 20/17 A2999 140 81 800 260/05 RMK AO2 T02000167
13870KAMG AMG20160316073010603/16/16 07:30:31  5-MIN KAMG 161230Z AUTO 25005KT 8SM CLR 20/17 A2999 130 81 800 260/05 RMK AO2 T02000167
13870KAMG AMG20160316073510603/16/16 07:35:31  5-MIN KAMG 161235Z AUTO 25005KT 8SM CLR 20/17 A3000 130 81 800 260/05 RMK AO2 T02000167
13870KAMG AMG20160316074010603/16/16 07:40:31  5-MIN KAMG 161240Z AUTO 26005KT 8SM CLR 20/17 A3000 130 84 800 260/05 RMK AO2 T02000172
13870KAMG AMG20160316074510603/16/16 07:45:31  5-MIN KAMG 161245Z AUTO 25005KT 8SM CLR 20/17 A3000 130 84 800 250/05 RMK AO2 T02000172
13870KAMG AMG20160316075011303/16/16 07:50:31  5-MIN KAMG 161250Z AUTO 26005KT 8SM CLR 21/17 A3000 120 81 800 270/05 RMK AO2 SLP158 T02060172
13870KAMG AMG20160316075510603/16/16 07:55:31  5-MIN KAMG 161255Z AUTO 26005KT 8SM CLR 21/17 A3000 120 81 800 260/05 RMK AO2 T02060172
13870KAMG AMG20160316080010603/16/16 08:00:31  5-MIN KAMG 161300Z AUTO 25007KT 8SM CLR 21/17 A3000 120 81 800 260/07 RMK AO2 T02060172
13870KAMG AMG20160316080510603/16/16 08:05:31  5-MIN KAMG 161305Z AUTO 26005KT 8SM CLR 21/17 A3000 120 81 800 260/05 RMK AO2 T02060172
13870KAMG AMG20160316081010603/16/16 08:10:31  5-MIN KAMG 161310Z AUTO 27006KT 8SM CLR 21/17 A3001 120 78 900 280/06 RMK AO2 T02110172
13870KAMG AMG20160316081510603/16/16 08:15:31  5-MIN KAMG 161315Z AUTO 27007KT 8SM CLR 21/17 A3001 120 78 900 270/07 RMK AO2 T02110172
13870KAMG AMG20160316082010603/16/16 08:20:31  5-MIN KAMG 161320Z AUTO 27006KT 8SM CLR 21/17 A3000 120 78 900 270/06 RMK AO2 T02110172
13870KAMG AMG20160316082510703/16/16 08:25:31  5-MIN KAMG 161325Z AUTO 25007KT 8SM CLR 22/17 A3001 120 75 1000 260/07 RMK AO2 T02170172
13870KAMG AMG20160316083010703/16/16 08:30:31  5-MIN KAMG 161330Z AUTO 27007KT 8SM CLR 22/17 A3001 120 75 1000 280/07 RMK AO2 T02170172
13870KAMG AMG20160316083510703/16/16 08:35:31  5-MIN KAMG 161335Z AUTO 28009KT 8SM CLR 22/17 A3001 120 75 1000 290/09 RMK AO2 T02170172
13870KAMG AMG20160316084012603/16/16 08:40:31  5-MIN KAMG 161340Z AUTO 26007KT 230V300 8SM FEW029 22/17 A3002 110 75 1000 270/07 240V310 RMK AO2 T02170172
13870KAMG AMG20160316084512303/16/16 08:45:31  5-MIN KAMG 161345Z AUTO 28011G16KT 8SM FEW022 BKN029 22/17 A3002 110 75 1000 280/11G16 RMK AO2 T02170172
13870KAMG AMG20160316085012903/16/16 08:50:31  5-MIN KAMG 161350Z AUTO 28012G16KT 230V300 8SM FEW022 BKN029 22/17 A3002 110 75 1000 290/12G16 240V310 RMK AO2
13870KAMG AMG20160316085511003/16/16 08:55:31  5-MIN KAMG 161355Z AUTO 28010KT 8SM BKN026 22/17 A3002 110 75 1000 280/10 RMK AO2 T02170172
13870KAMG AMG20160316090011703/16/16 09:00:31  5-MIN KAMG 161400Z AUTO 28012KT 8SM SCT023 OVC028 22/17 A3002 110 75 1000 280/12 RMK AO2 T02170172
13870KAMG AMG20160316090511603/16/16 09:05:31  5-MIN KAMG 161405Z AUTO 27011KT 8SM FEW023 OVC028 22/17 A3002 110 75 900 270/11 RMK AO2 T02170172
13870KAMG AMG20160316091011603/16/16 09:10:31  5-MIN KAMG 161410Z AUTO 29013KT 8SM FEW023 OVC028 22/17 A3003 100 75 900 290/13 RMK AO2 T02170172
13870KAMG AMG20160316091512303/16/16 09:15:31  5-MIN KAMG 161415Z AUTO 26008G17KT 8SM FEW023 BKN029 22/17 A3002 110 75 1000 260/08G17 RMK AO2 T02170172
13870KAMG AMG20160316092011003/16/16 09:20:31  5-MIN KAMG 161420Z AUTO 27009KT 8SM BKN029 23/17 A3002 110 70 1100 270/09 RMK AO2 T02280172
13870KAMG AMG20160316092511603/16/16 09:25:31  5-MIN KAMG 161425Z AUTO 26012G18KT 8SM SCT029 23/17 A3002 110 70 1100 270/12G18 RMK AO2 T02280172
13870KAMG AMG20160316093011603/16/16 09:30:31  5-MIN KAMG 161430Z AUTO 26012G18KT 8SM SCT029 23/17 A3002 110 68 1100 270/12G18 RMK AO2 T02280167
13870KAMG AMG20160316093511003/16/16 09:35:31  5-MIN KAMG 161435Z AUTO 24012KT 9SM FEW029 23/17 A3002 110 68 1100 240/12 RMK AO2 T02280167
13870KAMG AMG20160316094011303/16/16 09:40:31  5-MIN KAMG 161440Z AUTO 26013G18KT 9SM CLR 23/17 A3002 110 68 1100 260/13G18 RMK AO2 T02330172
13870KAMG AMG20160316094511303/16/16 09:45:31  5-MIN KAMG 161445Z AUTO 26012G22KT 9SM CLR 23/17 A3002 110 68 1100 270/12G22 RMK AO2 T02330172
13870KAMG AMG20160316095012603/16/16 09:50:31  5-MIN KAMG 161450Z AUTO 27008G22KT 9SM CLR 23/17 A3001 110 68 1200 280/08G22 RMK AO2 SLP162 T02330172 51016
13870KAMG AMG20160316095510703/16/16 09:55:31  5-MIN KAMG 161455Z AUTO 26010KT 8SM CLR 23/17 A3001 110 68 1200 270/10 RMK AO2 T02330172
13870KAMG AMG20160316100012303/16/16 10:00:31  5-MIN KAMG 161500Z AUTO 25008KT 220V300 9SM CLR 24/17 A3002 110 66 1200 250/08 230V310 RMK AO2 T02390172
13870KAMG AMG20160316100511303/16/16 10:05:31  5-MIN KAMG 161505Z AUTO 25012G17KT 9SM CLR 24/17 A3002 110 66 1200 250/12G17 RMK AO2 T02390172
13870KAMG AMG20160316101011003/16/16 10:10:31  5-MIN KAMG 161510Z AUTO 26011KT 9SM FEW038 24/17 A3002 110 66 1200 260/11 RMK AO2 T02390172
13870KAMG AMG20160316101511003/16/16 10:15:31  5-MIN KAMG 161515Z AUTO 27007KT 8SM FEW038 24/17 A3001 120 66 1200 280/07 RMK AO2 T02390172
13870KAMG AMG20160316102011003/16/16 10:20:31  5-MIN KAMG 161520Z AUTO 29009KT 8SM FEW038 24/17 A3001 120 63 1300 290/09 RMK AO2 T02440172
13870KAMG AMG20160316102510703/16/16 10:25:31  5-MIN KAMG 161525Z AUTO 24011KT 8SM CLR 24/17 A3001 120 63 1300 250/11 RMK AO2 T02440172
13870KAMG AMG20160316103010703/16/16 10:30:31  5-MIN KAMG 161530Z AUTO 27008KT 8SM CLR 24/17 A3001 120 63 1300 270/08 RMK AO2 T02440172
13870KAMG AMG20160316103512603/16/16 10:35:31  5-MIN KAMG 161535Z AUTO 28007KT 230V310 8SM FEW028 25/17 A3001 120 61 1300 290/07 240V320 RMK AO2 T02500172
13870KAMG AMG20160316104011003/16/16 10:40:31  5-MIN KAMG 161540Z AUTO 27009KT 8SM FEW028 25/18 A3001 120 64 1300 270/09 RMK AO2 T02500178
13870KAMG AMG20160316104511003/16/16 10:45:31  5-MIN KAMG 161545Z AUTO 28009KT 8SM SCT028 25/17 A3001 120 61 1300 280/09 RMK AO2 T02500172
13870KAMG AMG20160316105013303/16/16 10:50:31  5-MIN KAMG 161550Z AUTO 27009KT 240V310 8SM SCT029 25/17 A3001 120 61 1300 270/09 250V320 RMK AO2 SLP160 T02500172
13870KAMG AMG20160316105511003/16/16 10:55:31  5-MIN KAMG 161555Z AUTO 30007KT 8SM SCT029 25/17 A3001 120 61 1300 300/07 RMK AO2 T02500172
13870KAMG AMG20160316110011603/16/16 11:00:31  5-MIN KAMG 161600Z AUTO 25010G17KT 8SM BKN029 26/18 A3001 120 61 1400 260/10G17 RMK AO2 T02560178
13870KAMG AMG20160316110511603/16/16 11:05:31  5-MIN KAMG 161605Z AUTO 27009G17KT 8SM BKN029 26/17 A3001 120 59 1400 280/09G17 RMK AO2 T02560172
13870KAMG AMG20160316111012603/16/16 11:10:31  5-MIN KAMG 161610Z AUTO 29008KT 240V310 7SM BKN029 26/18 A3001 120 61 1400 290/08 250V320 RMK AO2 T02560178
13870KAMG AMG20160316111511603/16/16 11:15:31  5-MIN KAMG 161615Z AUTO 30009G14KT 7SM BKN029 26/18 A3001 120 61 1400 300/09G14 RMK AO2 T02560178
13870KAMG AMG20160316112011603/16/16 11:20:31  5-MIN KAMG 161620Z AUTO 29010G16KT 7SM BKN030 26/18 A3000 130 61 1400 290/10G16 RMK AO2 T02560178
13870KAMG AMG20160316112511603/16/16 11:25:31  5-MIN KAMG 161625Z AUTO 28010G16KT 7SM SCT030 26/18 A3000 130 59 1500 280/10G16 RMK AO2 T02610178
13870KAMG AMG20160316113011603/16/16 11:30:31  5-MIN KAMG 161630Z AUTO 27006G14KT 7SM SCT030 26/18 A3000 130 61 1400 270/06G14 RMK AO2 T02560178
13870KAMG AMG20160316113511003/16/16 11:35:31  5-MIN KAMG 161635Z AUTO 26008KT 7SM SCT030 26/18 A3000 130 61 1400 260/08 RMK AO2 T02560178
13870KAMG AMG20160316114011003/16/16 11:40:31  5-MIN KAMG 161640Z AUTO 26010KT 7SM SCT031 26/18 A3000 130 59 1500 270/10 RMK AO2 T02610178
13870KAMG AMG20160316114512603/16/16 11:45:31  5-MIN KAMG 161645Z AUTO 27007KT 240V310 7SM FEW031 26/18 A2999 140 59 1500 280/07 250V320 RMK AO2 T02610178
13870KAMG AMG20160316115011703/16/16 11:50:31  5-MIN KAMG 161650Z AUTO 28009KT 7SM FEW031 26/18 A2999 140 59 1500 280/09 RMK AO2 SLP154 T02610178
13870KAMG AMG20160316115511603/16/16 11:55:31  5-MIN KAMG 161655Z AUTO 25009G16KT 7SM FEW031 26/18 A2999 140 59 1500 250/09G16 RMK AO2 T02610178
13870KAMG AMG20160316120013203/16/16 12:00:31  5-MIN KAMG 161700Z AUTO 26008G16KT 220V300 7SM FEW033 26/18 A2999 140 59 1500 270/08G16 230V310 RMK AO2 T02610178
13870KAMG AMG20160316120511003/16/16 12:05:31  5-MIN KAMG 161705Z AUTO 22008KT 7SM SCT035 27/18 A2999 140 57 1600 220/08 RMK AO2 T02670178
13870KAMG AMG20160316121011003/16/16 12:10:31  5-MIN KAMG 161710Z AUTO 27009KT 7SM BKN035 27/18 A2999 140 57 1600 280/09 RMK AO2 T02670178
13870KAMG AMG20160316121511003/16/16 12:15:31  5-MIN KAMG 161715Z AUTO 27010KT 7SM BKN036 27/18 A2998 140 57 1600 270/10 RMK AO2 T02670178
13870KAMG AMG20160316122011003/16/16 12:20:31  5-MIN KAMG 161720Z AUTO 28009KT 7SM BKN036 26/18 A2998 150 59 1500 280/09 RMK AO2 T02610178
13870KAMG AMG20160316122511003/16/16 12:25:31  5-MIN KAMG 161725Z AUTO 24011KT 7SM BKN036 27/18 A2998 150 57 1600 250/11 RMK AO2 T02670178
13870KAMG AMG20160316123011003/16/16 12:30:31  5-MIN KAMG 161730Z AUTO 25010KT 8SM BKN036 27/18 A2998 150 56 1600 250/10 RMK AO2 T02720178
13870KAMG AMG20160316123511003/16/16 12:35:31  5-MIN KAMG 161735Z AUTO 25008KT 7SM SCT036 27/18 A2998 150 57 1600 260/08 RMK AO2 T02670178
13870KAMG AMG20160316124011003/16/16 12:40:31  5-MIN KAMG 161740Z AUTO 25006KT 7SM SCT036 27/18 A2997 150 56 1600 260/06 RMK AO2 T02720178
13870KAMG AMG20160316124511603/16/16 12:45:31  5-MIN KAMG 161745Z AUTO 26010G14KT 7SM SCT036 27/18 A2997 150 56 1600 260/10G14 RMK AO2 T02720178
13870KAMG AMG20160316125013503/16/16 12:50:31  5-MIN KAMG 161750Z AUTO 28010KT 7SM SCT039 27/18 A2997 160 57 1600 290/10 RMK AO2 SLP146 T02670178 10272 20194 50004
13870KAMG AMG20160316125511003/16/16 12:55:31  5-MIN KAMG 161755Z AUTO 26004KT 7SM SCT039 27/17 A2996 160 54 1600 260/04 RMK AO2 T02720172
13870KAMG AMG20160316130011003/16/16 13:00:31  5-MIN KAMG 161800Z AUTO 24010KT 8SM SCT039 28/18 A2996 160 54 1700 240/10 RMK AO2 T02780178
13870KAMG AMG20160316130511003/16/16 13:05:31  5-MIN KAMG 161805Z AUTO 24010KT 8SM SCT039 28/18 A2996 160 54 1700 250/10 RMK AO2 T02780178
13870KAMG AMG20160316131011003/16/16 13:10:31  5-MIN KAMG 161810Z AUTO 24007KT 8SM SCT039 28/18 A2996 170 54 1700 240/07 RMK AO2 T02780178
13870KAMG AMG20160316131511003/16/16 13:15:31  5-MIN KAMG 161815Z AUTO 24008KT 8SM FEW039 28/18 A2995 170 54 1700 250/08 RMK AO2 T02780178
13870KAMG AMG20160316132011603/16/16 13:20:31  5-MIN KAMG 161820Z AUTO 23010G16KT 8SM SCT041 28/18 A2995 170 54 1800 240/10G16 RMK AO2 T02830183
13870KAMG AMG20160316132511603/16/16 13:25:31  5-MIN KAMG 161825Z AUTO 23010G16KT 8SM BKN039 28/18 A2995 170 54 1700 230/10G16 RMK AO2 T02780178
13870KAMG AMG20160316133011003/16/16 13:30:31  5-MIN KAMG 161830Z AUTO 26006KT 8SM BKN041 27/18 A2995 170 56 1700 270/06 RMK AO2 T02720178
13870KAMG AMG20160316133511003/16/16 13:35:31  5-MIN KAMG 161835Z AUTO 26008KT 8SM BKN041 27/17 A2995 180 54 1700 270/08 RMK AO2 T02720172
13870KAMG AMG20160316134011003/16/16 13:40:31  5-MIN KAMG 161840Z AUTO 23006KT 8SM BKN041 27/18 A2995 180 56 1700 240/06 RMK AO2 T02720178
13870KAMG AMG20160316134511603/16/16 13:45:31  5-MIN KAMG 161845Z AUTO 26010G15KT 8SM BKN041 28/18 A2995 180 54 1700 260/10G15 RMK AO2 T02780178
13870KAMG AMG20160316135011703/16/16 13:50:31  5-MIN KAMG 161850Z AUTO 24006KT 8SM BKN041 27/18 A2995 180 56 1700 250/06 RMK AO2 SLP138 T02720178
13870KAMG AMG20160316135511003/16/16 13:55:31  5-MIN KAMG 161855Z AUTO 24009KT 8SM SCT041 28/18 A2994 180 52 1800 250/09 RMK AO2 T02830178
13870KAMG AMG20160316140012603/16/16 14:00:31  5-MIN KAMG 161900Z AUTO 23011KT 190V260 7SM SCT041 28/18 A2994 190 52 1800 230/11 200V270 RMK AO2 T02830178
13870KAMG AMG20160316140511003/16/16 14:05:31  5-MIN KAMG 161905Z AUTO 23009KT 7SM FEW041 28/18 A2994 190 52 1800 240/09 RMK AO2 T02830178
13870KAMG AMG20160316141011003/16/16 14:10:31  5-MIN KAMG 161910Z AUTO 24009KT 7SM FEW040 28/18 A2994 190 54 1700 250/09 RMK AO2 T02780178
13870KAMG AMG20160316141511003/16/16 14:15:31  5-MIN KAMG 161915Z AUTO 27009KT 8SM FEW040 28/18 A2994 190 52 1800 270/09 RMK AO2 T02830178
13870KAMG AMG20160316142011003/16/16 14:20:31  5-MIN KAMG 161920Z AUTO 23009KT 7SM FEW040 28/18 A2993 190 52 1800 230/09 RMK AO2 T02830178
13870KAMG AMG20160316142511003/16/16 14:25:31  5-MIN KAMG 161925Z AUTO 26009KT 7SM FEW040 28/18 A2993 190 52 1800 270/09 RMK AO2 T02830178
13870KAMG AMG20160316143011003/16/16 14:30:31  5-MIN KAMG 161930Z AUTO 25008KT 7SM FEW042 28/18 A2994 190 54 1700 260/08 RMK AO2 T02780178
13870KAMG AMG20160316143511603/16/16 14:35:31  5-MIN KAMG 161935Z AUTO 24008G17KT 7SM FEW042 28/17 A2994 190 52 1700 240/08G17 RMK AO2 T02780172
13870KAMG AMG20160316144012303/16/16 14:40:31  5-MIN KAMG 161940Z AUTO 23009G17KT 7SM FEW042 SCT050 28/18 A2993 190 54 1700 230/09G17 RMK AO2 T02780178
13870KAMG AMG20160316144511003/16/16 14:45:31  5-MIN KAMG 161945Z AUTO 26008KT 7SM FEW045 28/18 A2993 190 54 1700 270/08 RMK AO2 T02780178
13870KAMG AMG20160316145012303/16/16 14:50:31  5-MIN KAMG 161950Z AUTO 25011G16KT 7SM FEW045 28/18 A2993 190 54 1700 260/11G16 RMK AO2 SLP134 T02780178
13870KAMG AMG20160316145511603/16/16 14:55:31  5-MIN KAMG 161955Z AUTO 26011G16KT 7SM FEW045 28/17 A2993 190 52 1700 260/11G16 RMK AO2 T02780172
13870KAMG AMG20160316150011003/16/16 15:00:31  5-MIN KAMG 162000Z AUTO 26010KT 7SM FEW045 28/17 A2993 190 52 1700 260/10 RMK AO2 T02780172
13870KAMG AMG20160316150511003/16/16 15:05:31  5-MIN KAMG 162005Z AUTO 27008KT 7SM FEW049 27/17 A2993 190 54 1700 270/08 RMK AO2 T02720172
13870KAMG AMG20160316151010703/16/16 15:10:31  5-MIN KAMG 162010Z AUTO 24009KT 7SM CLR 28/17 A2993 190 52 1800 250/09 RMK AO2 T02780172
13870KAMG AMG20160316151510703/16/16 15:15:31  5-MIN KAMG 162015Z AUTO 26007KT 8SM CLR 28/17 A2993 190 52 1700 270/07 RMK AO2 T02780172
13870KAMG AMG20160316152010703/16/16 15:20:31  5-MIN KAMG 162020Z AUTO 28010KT 7SM CLR 28/18 A2993 190 52 1800 280/10 RMK AO2 T02830178
13870KAMG AMG20160316152511003/16/16 15:25:31  5-MIN KAMG 162025Z AUTO 27007KT 7SM FEW044 28/17 A2993 200 50 1800 270/07 RMK AO2 T02830172
13870KAMG AMG20160316153012603/16/16 15:30:31  5-MIN KAMG 162030Z AUTO 27008KT 230V300 7SM FEW044 29/18 A2992 200 50 1900 270/08 240V310 RMK AO2 T02890178
13870KAMG AMG20160316153511603/16/16 15:35:31  5-MIN KAMG 162035Z AUTO 25010G15KT 7SM FEW043 28/17 A2992 200 50 1800 250/10G15 RMK AO2 T02830172
13870KAMG AMG20160316154011603/16/16 15:40:31  5-MIN KAMG 162040Z AUTO 25007G17KT 7SM FEW045 28/17 A2992 200 52 1800 250/07G17 RMK AO2 T02780172
13870KAMG AMG20160316154511003/16/16 15:45:31  5-MIN KAMG 162045Z AUTO 23011KT 7SM FEW045 28/17 A2992 200 52 1800 230/11 RMK AO2 T02780172
13870KAMG AMG20160318201010703/18/16 20:10:31  5-MIN KAMG 190110Z AUTO 00000KT 10SM CLR 18/17 A2994 190 96 600 000/00 RMK AO2 T01780172
13870KAMG AMG20160318201510703/18/16 20:15:31  5-MIN KAMG 190115Z AUTO 00000KT 10SM CLR 18/17 A2994 180 96 600 000/00 RMK AO2 T01780172
13870KAMG AMG20160318202010703/18/16 20:20:31  5-MIN KAMG 190120Z AUTO 00000KT 10SM CLR 18/17 A2994 180 93 700 000/00 RMK AO2 T01830172
13870KAMG AMG20160318202510703/18/16 20:25:31  5-MIN KAMG 190125Z AUTO 00000KT 10SM CLR 18/17 A2994 180 96 600 000/00 RMK AO2 T01780172
13870KAMG AMG20160318203010603/18/16 20:30:31  5-MIN KAMG 190130Z AUTO 00000KT 9SM CLR 18/17 A2994 180 96 600 000/00 RMK AO2 T01780172
13870KAMG AMG20160318203510603/18/16 20:35:31  5-MIN KAMG 190135Z AUTO 00000KT 9SM CLR 18/17 A2994 180 93 700 000/00 RMK AO2 T01830172
13870KAMG AMG20160318204010703/18/16 20:40:31  5-MIN KAMG 190140Z AUTO 00000KT 10SM CLR 18/17 A2994 180 96 600 000/00 RMK AO2 T01780172
13870KAMG AMG20160318204510603/18/16 20:45:31  5-MIN KAMG 190145Z AUTO 00000KT 9SM CLR 18/17 A2994 180 96 600 000/00 RMK AO2 T01780172
13870KAMG AMG20160318205011303/18/16 20:50:31  5-MIN KAMG 190150Z AUTO 16003KT 9SM CLR 18/17 A2994 180 96 600 170/03 RMK AO2 SLP136 T01780172
13870KAMG AMG20160318205510603/18/16 20:55:31  5-MIN KAMG 190155Z AUTO 16003KT 9SM CLR 18/17 A2994 180 96 600 160/03 RMK AO2 T01780172
13870KAMG AMG20160318210010603/18/16 21:00:31  5-MIN KAMG 190200Z AUTO 16003KT 9SM CLR 18/17 A2994 180 93 700 160/03 RMK AO2 T01830172
13870KAMG AMG20160318210510603/18/16 21:05:31  5-MIN KAMG 190205Z AUTO 17003KT 9SM CLR 18/17 A2994 180 93 700 170/03 RMK AO2 T01830172
13870KAMG AMG20160318211010603/18/16 21:10:31  5-MIN KAMG 190210Z AUTO 16003KT 9SM CLR 18/17 A2994 180 93 700 160/03 RMK AO2 T01830172
13870KAMG AMG20160318211510703/18/16 21:15:31  5-MIN KAMG 190215Z AUTO 17003KT 10SM CLR 18/17 A2995 180 93 700 180/03 RMK AO2 T01830172
13870KAMG AMG20160318212010703/18/16 21:20:31  5-MIN KAMG 190220Z AUTO 00000KT 10SM CLR 18/17 A2995 180 93 600 000/00 RMK AO2 T01830172
13870KAMG AMG20160318212510703/18/16 21:25:31  5-MIN KAMG 190225Z AUTO 00000KT 10SM CLR 18/17 A2995 170 93 600 000/00 RMK AO2 T01830172
13870KAMG AMG20160318213010703/18/16 21:30:31  5-MIN KAMG 190230Z AUTO 00000KT 10SM CLR 18/17 A2995 170 90 600 000/00 RMK AO2 T01830167
13870KAMG AMG20160318213511903/18/16 21:35:31  5-MIN KAMG 190235Z AUTO 00000KT 10SM CLR 18/17 A2995 170 90 600 000/00 RMK AO2 LTG DSNT SW T01830167
13870KAMG AMG20160318214011903/18/16 21:40:31  5-MIN KAMG 190240Z AUTO 00000KT 10SM CLR 18/17 A2996 170 93 600 000/00 RMK AO2 LTG DSNT SW T01780167
13870KAMG AMG20160318214511903/18/16 21:45:31  5-MIN KAMG 190245Z AUTO 00000KT 10SM CLR 18/17 A2996 170 93 600 000/00 RMK AO2 LTG DSNT SW T01780167
13870KAMG AMG20160318215012003/18/16 21:50:31  5-MIN KAMG 190250Z AUTO 00000KT 10SM CLR 18/17 A2996 170 93 600 000/00 RMK AO2 SLP143 T01830172 53008
13870KAMG AMG20160318215510703/18/16 21:55:31  5-MIN KAMG 190255Z AUTO 00000KT 10SM CLR 18/17 A2996 170 93 600 000/00 RMK AO2 T01830172
13870KAMG AMG20160318220010703/18/16 22:00:31  5-MIN KAMG 190300Z AUTO 00000KT 10SM CLR 18/17 A2996 160 93 600 000/00 RMK AO2 T01830172
13870KAMG AMG20160318220510703/18/16 22:05:31  5-MIN KAMG 190305Z AUTO 00000KT 10SM CLR 18/17 A2996 160 96 600 000/00 RMK AO2 T01780172
13870KAMG AMG20160318221010903/18/16 22:10:31  5-MIN KAMG 190310Z AUTO 00000KT 9SM FEW047 18/17 A2997 160 96 600 000/00 RMK AO2 T01780172
13870KAMG AMG20160318221511003/18/16 22:15:31  5-MIN KAMG 190315Z AUTO 00000KT 10SM SCT045 18/17 A2997 160 96 600 000/00 RMK AO2 T01780172
13870KAMG AMG20160318222010903/18/16 22:20:31  5-MIN KAMG 190320Z AUTO 00000KT 9SM BKN043 18/17 A2997 160 93 600 000/00 RMK AO2 T01830172
13870KAMG AMG20160318222511703/18/16 22:25:31  5-MIN KAMG 190325Z AUTO 00000KT 10SM BKN043 BKN065 18/17 A2997 160 96 600 000/00 RMK AO2 T01780172
13870KAMG AMG20160318223012403/18/16 22:30:31  5-MIN KAMG 190330Z AUTO 00000KT 10SM BKN043 BKN065 BKN085 18/17 A2996 160 93 600 000/00 RMK AO2 T01830172
13870KAMG AMG20160318223511603/18/16 22:35:31  5-MIN KAMG 190335Z AUTO 00000KT 9SM BKN043 BKN080 18/17 A2997 160 96 600 000/00 RMK AO2 T01780172
13870KAMG AMG20160318224011603/18/16 22:40:31  5-MIN KAMG 190340Z AUTO 00000KT 8SM BKN043 BKN080 18/17 A2997 160 96 600 000/00 RMK AO2 T01780172
13870KAMG AMG20160318224511603/18/16 22:45:31  5-MIN KAMG 190345Z AUTO 00000KT 9SM BKN041 BKN075 18/17 A2997 160 96 600 000/00 RMK AO2 T01780172
13870KAMG AMG20160318225013003/18/16 22:50:31  5-MIN KAMG 190350Z AUTO 00000KT 8SM BKN041 BKN047 BKN080 18/17 A2997 160 96 600 000/00 RMK AO2 SLP145 T01780172
13870KAMG AMG20160318225512303/18/16 22:55:31  5-MIN KAMG 190355Z AUTO 00000KT 8SM BKN040 BKN047 BKN080 18/17 A2996 160 96 600 000/00 RMK AO2 T01780172
13870KAMG AMG20160318230012303/18/16 23:00:31  5-MIN KAMG 190400Z AUTO 00000KT 9SM BKN040 BKN049 OVC075 18/17 A2996 160 96 600 000/00 RMK AO2 T01780172
13870KAMG AMG20160318230512303/18/16 23:05:31  5-MIN KAMG 190405Z AUTO 00000KT 9SM BKN039 BKN049 OVC060 18/17 A2996 160 96 600 000/00 RMK AO2 T01780172
13870KAMG AMG20160318231011603/18/16 23:10:31  5-MIN KAMG 190410Z AUTO 00000KT 9SM BKN037 OVC048 18/17 A2996 160 96 600 000/00 RMK AO2 T01780172
13870KAMG AMG20160318231511603/18/16 23:15:31  5-MIN KAMG 190415Z AUTO 00000KT 9SM BKN037 OVC048 18/17 A2996 170 96 600 000/00 RMK AO2 T01780172
13870KAMG AMG20160318232013203/18/16 23:20:31  5-MIN KAMG 190420Z AUTO 00000KT 8SM -RA BKN037 OVC050 18/17 A2996 170 96 600 000/00 RMK AO2 RAB20 P0000 T01780172
13870KAMG AMG20160318232513903/18/16 23:25:31  5-MIN KAMG 190425Z AUTO 00000KT 7SM -RA BKN037 BKN048 OVC055 18/17 A2996 170 96 600 000/00 RMK AO2 RAB20 P0000 T01780172
13870KAMG AMG20160318233015303/18/16 23:30:31  5-MIN KAMG 190430Z AUTO 00000KT 6SM -RA BR BKN035 BKN055 OVC090 18/17 A2996 170 96 600 000/00 RMK AO2 LTG DSNT W RAB20 P0000 T01780172
13870KAMG AMG20160318233515303/18/16 23:35:31  5-MIN KAMG 190435Z AUTO 14003KT 5SM -RA BR BKN035 BKN050 OVC090 18/17 A2995 170 96 600 140/03 RMK AO2 LTG DSNT W RAB20 P0001 T01780172
13870KAMG AMG20160318234016003/18/16 23:40:31  5-MIN KAMG 190440Z AUTO 13003KT 4SM -RA BR BKN035 BKN043 OVC075 18/17 A2995 180 96 600 130/03 RMK AO2 LTG DSNT W AND NW RAB20 P0001 T01780172
13870KAMG AMG20160318234516003/18/16 23:45:31  5-MIN KAMG 190445Z AUTO 13003KT 4SM -RA BR SCT037 BKN047 OVC070 18/17 A2995 180 96 600 130/03 RMK AO2 LTG DSNT W AND NW RAB20 P0003 T01780172
13870KAMG AMG20160318235017603/18/16 23:50:31  5-MIN KAMG 190450Z AUTO 00000KT 3SM RA BR SCT035 BKN047 OVC070 18/17 A2995 180 96 600 000/00 RMK AO2 LTG DSNT W AND NW RAB20 SLP139 P0004 T01780172 402280156
13870KAMG AMG20160318235515403/18/16 23:55:31  5-MIN KAMG 190455Z AUTO 00000KT 4SM -RA BR BKN033 BKN047 OVC070 18/17 A2995 180 96 600 000/00 RMK AO2 LTG DSNT W AND NW P0000 T01780172
13870KAMG AMG20160319000015803/19/16 00:00:31  5-MIN KAMG 190500Z AUTO 00000KT 6SM BR BKN033 BKN047 OVC065 18/17 A2995 180 96 600 000/00 RMK AO2 LTG DSNT W AND NW RAE0459 P0000 T01780172
13870KAMG AMG20160319000515803/19/16 00:05:31  5-MIN KAMG 190505Z AUTO 00000KT 6SM BR BKN031 BKN047 OVC065 18/17 A2995 180 96 600 000/00 RMK AO2 LTG DSNT W AND NW RAE0459 P0000 T01780172
13870KAMG AMG20160319001014503/19/16 00:10:31  5-MIN KAMG 190510Z AUTO 00000KT 5SM BR BKN031 OVC065 18/17 A2995 180 96 600 000/00 RMK AO2 LTG DSNT NW RAE0459 P0000 T01780172
13870KAMG AMG20160319001513903/19/16 00:15:31  5-MIN KAMG 190515Z AUTO 00000KT 5SM BR OVC029 18/18 A2995 170 100 600 000/00 RMK AO2 LTG DSNT NW RAE0459 P0000 T01780178
13870KAMG AMG20160319002013603/19/16 00:20:31  5-MIN KAMG 190520Z AUTO 21003KT 7SM OVC029 18/18 A2995 170 100 600 220/03 RMK AO2 LTG DSNT NW RAE0459 P0000 T01780178
13870KAMG AMG20160319002513603/19/16 00:25:31  5-MIN KAMG 190525Z AUTO 25003KT 7SM OVC029 18/18 A2995 170 100 600 250/03 RMK AO2 LTG DSNT NW RAE0459 P0000 T01780178
13870KAMG AMG20160319003012703/19/16 00:30:31  5-MIN KAMG 190530Z AUTO 24003KT 6SM BR OVC027 18/18 A2996 170 100 600 250/03 RMK AO2 RAE0459 P0000 T01780178
13870KAMG AMG20160319003512703/19/16 00:35:31  5-MIN KAMG 190535Z AUTO 25003KT 6SM BR OVC027 18/18 A2996 170 100 600 260/03 RMK AO2 RAE0459 P0000 T01780178
13870KAMG AMG20160319004013403/19/16 00:40:31  5-MIN KAMG 190540Z AUTO 30003KT 6SM BR BKN026 OVC100 18/18 A2995 170 100 600 300/03 RMK AO2 RAE0459 P0000 T01780178
13870KAMG AMG20160319004513003/19/16 00:45:31  5-MIN KAMG 190545Z AUTO 28004KT 8SM BKN026 OVC100 18/17 A2995 170 96 600 290/04 RMK AO2 RAE0459 P0000 T01780172
13870KAMG AMG20160319005012703/19/16 00:50:31  5-MIN KAMG 190550Z AUTO 29004KT 7SM -RA SCT026 OVC100 18/17 A2995 180 96 600 300/04 RMK AO2 RAE0459B49 P0000
13870KAMG AMG20160319005512903/19/16 00:55:31  5-MIN KAMG 190555Z AUTO 30004KT 6SM -RA BR FEW024 OVC100 18/17 A2995 180 96 600 300/04 RMK AO2 P0000 T01780172
13870KAMG AMG20160319010013003/19/16 01:00:31  5-MIN KAMG 190600Z AUTO 31004KT 6SM -RA BR FEW026 OVC100 18/18 A2994 180 100 600 310/04 RMK AO2 P0000 T01780178
13870KAMG AMG20160319010511903/19/16 01:05:31  5-MIN KAMG 190605Z AUTO 30003KT 7SM -RA OVC100 18/17 A2994 180 96 600 310/03 RMK AO2 P0000 T01780172
13870KAMG AMG20160319011012103/19/16 01:10:31  5-MIN KAMG 190610Z AUTO 33003KT 9SM OVC100 18/17 A2994 180 96 600 330/03 RMK AO2 RAE08 P0000 T01780172
13870KAMG AMG20160319011512103/19/16 01:15:31  5-MIN KAMG 190615Z AUTO 00000KT 8SM OVC100 18/17 A2994 180 96 600 000/00 RMK AO2 RAE08 P0000 T01780172
13870KAMG AMG20160319012013503/19/16 01:20:31  5-MIN KAMG 190620Z AUTO 00000KT 8SM FEW021 FEW070 OVC100 18/17 A2995 180 96 600 000/00 RMK AO2 RAE08 P0000 T01780172
13870KAMG AMG20160319012513603/19/16 01:25:31  5-MIN KAMG 190625Z AUTO 00000KT 7SM FEW021 FEW070 OVC100 18/18 A2994 180 100 600 000/00 RMK AO2 RAE08 P0000 T01780178
13870KAMG AMG20160319013013203/19/16 01:30:31  5-MIN KAMG 190630Z AUTO 00000KT 6SM BR FEW021 OVC100 17/17 A2994 180 100 500 000/00 RMK AO2 RAE08 P0000 T01720172
13870KAMG AMG20160319013513203/19/16 01:35:31  5-MIN KAMG 190635Z AUTO 00000KT 5SM BR FEW021 OVC100 17/17 A2995 180 100 500 000/00 RMK AO2 RAE08 P0000 T01720172
13870KAMG AMG20160319014013203/19/16 01:40:31  5-MIN KAMG 190640Z AUTO 00000KT 4SM BR FEW021 OVC100 17/17 A2994 180 100 500 000/00 RMK AO2 RAE08 P0000 T01720172
13870KAMG AMG20160319014513203/19/16 01:45:31  5-MIN KAMG 190645Z AUTO 00000KT 4SM BR FEW021 OVC100 17/17 A2995 180 100 500 000/00 RMK AO2 RAE08 P0000 T01720172
13870KAMG AMG20160319015013403/19/16 01:50:31  5-MIN KAMG 190650Z AUTO 00000KT 4SM BR OVC100 17/17 A2995 180 100 500 000/00 RMK AO2 RAE08 SLP139 P0000 T01720172 $
13870KAMG AMG20160319015511503/19/16 01:55:31  5-MIN KAMG 190655Z AUTO 00000KT 5SM BR OVC095 17/17 A2994 180 100 500 000/00 RMK AO2 T01720172 $
13870KAMG AMG20160319020011503/19/16 02:00:31  5-MIN KAMG 190700Z AUTO 00000KT 4SM BR OVC095 17/17 A2994 180 100 500 000/00 RMK AO2 T01720172 $
13870KAMG AMG20160319020511503/19/16 02:05:31  5-MIN KAMG 190705Z AUTO 06003KT 4SM BR OVC095 17/17 A2994 190 100 500 060/03 RMK AO2 T01720172 $
13870KAMG AMG20160319021011503/19/16 02:10:31  5-MIN KAMG 190710Z AUTO 00000KT 3SM BR OVC090 17/17 A2993 190 100 500 000/00 RMK AO2 T01720172 $
13870KAMG AMG20160319021511503/19/16 02:15:31  5-MIN KAMG 190715Z AUTO 00000KT 3SM BR OVC090 17/17 A2993 190 100 500 000/00 RMK AO2 T01720172 $
13870KAMG AMG20160319022013103/19/16 02:20:31  5-MIN KAMG 190720Z AUTO 00000KT 4SM -RA BR OVC095 17/17 A2993 190 100 500 000/00 RMK AO2 RAB16 P0000 T01720172 $
13870KAMG AMG20160319022512903/19/16 02:25:31  5-MIN KAMG 190725Z AUTO 00000KT 4SM -RA BR OVC095 17/17 A2993 200 100 500 000/00 RMK AO2 RAB16 P0000 T01720172
13870KAMG AMG20160319023012903/19/16 02:30:31  5-MIN KAMG 190730Z AUTO 00000KT 4SM -RA BR OVC095 17/17 A2992 200 100 500 000/00 RMK AO2 RAB16 P0000 T01720172
13870KAMG AMG20160319023513603/19/16 02:35:31  5-MIN KAMG 190735Z AUTO 00000KT 4SM -RA BR BKN100 OVC110 17/17 A2992 200 100 600 000/00 RMK AO2 RAB16 P0000 T01720172
13870KAMG AMG20160319024012803/19/16 02:40:31  5-MIN KAMG 190740Z AUTO 00000KT 4SM BR OVC100 17/17 A2992 210 100 600 000/00 RMK AO2 RAB16E39 P0000 T01720172
13870KAMG AMG20160319024513003/19/16 02:45:31  5-MIN KAMG 190745Z AUTO 00000KT 3SM BR OVC100 17/17 A2991 210 100 600 000/00 RMK AO2 RAB16E39 P0000 T01720172 $
13870KAMG AMG20160319025012403/19/16 02:50:31  5-MIN KAMG 190750Z AUTO 00000KT 2 1/2SM BR OVC100 17/17 A2991 210 100 600 000/00 RMK AO2 RAB16E39 P0000 $
13870KAMG AMG20160319025511903/19/16 02:55:31  5-MIN KAMG 190755Z AUTO 12003KT 2 1/2SM BR OVC100 17/17 A2990 220 100 500 120/03 RMK AO2 T01670167 $
13870KAMG AMG20160319030011903/19/16 03:00:31  5-MIN KAMG 190800Z AUTO 12003KT 2 1/2SM BR OVC100 17/17 A2990 220 100 600 130/03 RMK AO2 T01720172 $
13870KAMG AMG20160319030511503/19/16 03:05:31  5-MIN KAMG 190805Z AUTO 12003KT 5SM BR OVC100 17/17 A2990 220 100 500 130/03 RMK AO2 T01670167 $
13870KAMG AMG20160319031011503/19/16 03:10:31  5-MIN KAMG 190810Z AUTO 11003KT 6SM BR OVC100 17/17 A2990 220 100 600 110/03 RMK AO2 T01720172 $
13870KAMG AMG20160319031511503/19/16 03:15:31  5-MIN KAMG 190815Z AUTO 00000KT 5SM BR OVC110 17/17 A2990 220 100 600 000/00 RMK AO2 T01720172 $
13870KAMG AMG20160319032011503/19/16 03:20:31  5-MIN KAMG 190820Z AUTO 00000KT 5SM BR OVC110 17/17 A2990 230 100 600 000/00 RMK AO2 T01720172 $
13870KAMG AMG20160319032511503/19/16 03:25:31  5-MIN KAMG 190825Z AUTO 11003KT 5SM BR OVC110 17/17 A2989 230 100 600 110/03 RMK AO2 T01720172 $
13870KAMG AMG20160319033011503/19/16 03:30:31  5-MIN KAMG 190830Z AUTO 10003KT 5SM BR OVC110 17/17 A2989 230 100 500 100/03 RMK AO2 T01670167 $
13870KAMG AMG20160319033511503/19/16 03:35:31  5-MIN KAMG 190835Z AUTO 00000KT 5SM BR OVC110 17/17 A2989 230 100 600 000/00 RMK AO2 T01720172 $
13870KAMG AMG20160319034011503/19/16 03:40:31  5-MIN KAMG 190840Z AUTO 00000KT 5SM BR OVC110 17/17 A2988 240 100 600 000/00 RMK AO2 T01720172 $
13870KAMG AMG20160319034511503/19/16 03:45:31  5-MIN KAMG 190845Z AUTO 00000KT 6SM BR OVC100 17/17 A2988 240 100 600 000/00 RMK AO2 T01720172 $
13870KAMG AMG20160319035013403/19/16 03:50:31  5-MIN KAMG 190850Z AUTO 00000KT 6SM BR OVC100 17/17 A2989 230 100 600 000/00 RMK AO2 SLP118 60000 T01720172 58004 $
13870KAMG AMG20160319035511503/19/16 03:55:31  5-MIN KAMG 190855Z AUTO 00000KT 6SM BR OVC100 17/17 A2989 230 100 600 000/00 RMK AO2 T01720172 $
13870KAMG AMG20160319040011203/19/16 04:00:31  5-MIN KAMG 190900Z AUTO 00000KT 7SM OVC100 17/17 A2988 240 100 600 000/00 RMK AO2 T01720172 $
13870KAMG AMG20160319040511503/19/16 04:05:31  5-MIN KAMG 190905Z AUTO 00000KT 6SM BR OVC095 17/17 A2989 230 100 600 000/00 RMK AO2 T01720172 $
13870KAMG AMG20160319041010703/19/16 04:10:31  5-MIN KAMG 190910Z AUTO 00000KT 6SM HZ OVC090 17/ A2989 230 M 600 000/00 RMK AO2 T0172 $
13870KAMG AMG20160319041511503/19/16 04:15:31  5-MIN KAMG 190915Z AUTO 00000KT 6SM BR OVC090 17/17 A2989 230 100 600 000/00 RMK AO2 T01720172 $
13870KAMG AMG20160319042011503/19/16 04:20:31  5-MIN KAMG 190920Z AUTO 00000KT 6SM BR OVC085 17/17 A2989 230 100 600 000/00 RMK AO2 T01720172 $
13870KAMG AMG20160319042511503/19/16 04:25:31  5-MIN KAMG 190925Z AUTO 00000KT 6SM BR OVC085 17/17 A2989 230 100 600 000/00 RMK AO2 T01720172 $
13870KAMG AMG20160319043011503/19/16 04:30:31  5-MIN KAMG 190930Z AUTO 00000KT 6SM BR OVC085 17/17 A2989 230 100 600 000/00 RMK AO2 T01720172 $
13870KAMG AMG20160319043510703/19/16 04:35:31  5-MIN KAMG 190935Z AUTO 18003KT 6SM HZ OVC080 17/ A2989 230 M 600 190/03 RMK AO2 T0172 $
13870KAMG AMG20160319044010703/19/16 04:40:31  5-MIN KAMG 190940Z AUTO 19003KT 6SM HZ OVC080 17/ A2989 230 M 600 190/03 RMK AO2 T0172 $
13870KAMG AMG20160319044510703/19/16 04:45:31  5-MIN KAMG 190945Z AUTO 00000KT 6SM HZ OVC080 17/ A2989 230 M 600 000/00 RMK AO2 T0172 $
13870KAMG AMG20160319045011403/19/16 04:50:31  5-MIN KAMG 190950Z AUTO 00000KT 6SM HZ OVC080 17/ A2989 230 M 600 000/00 RMK AO2 SLP120 T0172 $
13870KAMG AMG20160319045510703/19/16 04:55:31  5-MIN KAMG 190955Z AUTO 24003KT 6SM HZ OVC075 17/ A2990 220 M 600 250/03 RMK AO2 T0172 $
13870KAMG AMG20160319050011503/19/16 05:00:31  5-MIN KAMG 191000Z AUTO 00000KT 6SM BR OVC075 17/17 A2990 220 100 600 000/00 RMK AO2 T01720172 $
13870KAMG AMG20160319050511503/19/16 05:05:31  5-MIN KAMG 191005Z AUTO 20003KT 6SM BR OVC070 17/17 A2990 220 100 600 200/03 RMK AO2 T01720172 $
13870KAMG AMG20160319051011503/19/16 05:10:31  5-MIN KAMG 191010Z AUTO 17004KT 6SM BR OVC070 17/17 A2990 230 100 600 170/04 RMK AO2 T01720172 $
13870KAMG AMG20160319051511503/19/16 05:15:31  5-MIN KAMG 191015Z AUTO 19003KT 5SM BR OVC070 17/17 A2990 220 100 600 200/03 RMK AO2 T01720172 $
13870KAMG AMG20160319052012203/19/16 05:20:31  5-MIN KAMG 191020Z AUTO 31004KT 5SM BR FEW002 OVC070 17/17 A2990 220 100 600 320/04 RMK AO2 T01720172 $
13870KAMG AMG20160319052512203/19/16 05:25:31  5-MIN KAMG 191025Z AUTO 30004KT 6SM BR SCT002 OVC070 17/17 A2990 220 100 600 310/04 RMK AO2 T01720172 $
13870KAMG AMG20160319053012203/19/16 05:30:31  5-MIN KAMG 191030Z AUTO 30003KT 6SM BR SCT002 OVC070 17/17 A2990 220 100 600 300/03 RMK AO2 T01720172 $
13870KAMG AMG20160319053511903/19/16 05:35:31  5-MIN KAMG 191035Z AUTO 00000KT 7SM FEW003 OVC070 17/17 A2990 220 100 600 000/00 RMK AO2 T01720172 $
13870KAMG AMG20160319054011903/19/16 05:40:31  5-MIN KAMG 191040Z AUTO 00000KT 7SM FEW003 OVC070 17/17 A2990 220 100 600 000/00 RMK AO2 T01720172 $
13870KAMG AMG20160319054512903/19/16 05:45:31  5-MIN KAMG 191045Z AUTO 00000KT 6SM BR FEW003 BKN070 OVC090 17/17 A2989 230 100 600 000/00 RMK AO2 T01720172 $
13870KAMG AMG20160319055013603/19/16 05:50:31  5-MIN KAMG 191050Z AUTO 19003KT 6SM BR FEW003 BKN070 OVC120 17/17 A2990 230 100 500 200/03 RMK AO2 SLP121 T01670167 $
13870KAMG AMG20160319055512903/19/16 05:55:31  5-MIN KAMG 191055Z AUTO 19003KT 6SM BR SCT070 BKN085 OVC120 17/17 A2990 230 100 500 200/03 RMK AO2 T01670167 $
13870KAMG AMG20160319060012903/19/16 06:00:31  5-MIN KAMG 191100Z AUTO 00000KT 5SM BR FEW070 BKN085 OVC120 17/17 A2990 220 100 500 000/00 RMK AO2 T01670167 $
13870KAMG AMG20160319060512903/19/16 06:05:31  5-MIN KAMG 191105Z AUTO 00000KT 5SM BR FEW070 BKN085 BKN120 17/17 A2990 220 100 500 000/00 RMK AO2 T01670167 $
13870KAMG AMG20160319061012203/19/16 06:10:31  5-MIN KAMG 191110Z AUTO 18003KT 5SM BR SCT085 BKN120 17/17 A2990 220 100 500 190/03 RMK AO2 T01670167 $
13870KAMG AMG20160319061512203/19/16 06:15:31  5-MIN KAMG 191115Z AUTO 00000KT 5SM BR FEW085 SCT120 17/17 A2990 220 100 500 000/00 RMK AO2 T01670167 $
13870KAMG AMG20160319062011503/19/16 06:20:31  5-MIN KAMG 191120Z AUTO 18003KT 5SM BR FEW085 17/17 A2990 220 100 500 190/03 RMK AO2 T01670167 $
13870KAMG AMG20160319062511503/19/16 06:25:31  5-MIN KAMG 191125Z AUTO 19003KT 5SM BR FEW085 17/17 A2990 220 100 500 190/03 RMK AO2 T01670167 $
13870KAMG AMG20160319063011203/19/16 06:30:31  5-MIN KAMG 191130Z AUTO 00000KT 5SM BR CLR 17/17 A2990 220 100 500 000/00 RMK AO2 T01670167 $
13870KAMG AMG20160319063511203/19/16 06:35:31  5-MIN KAMG 191135Z AUTO 00000KT 5SM BR CLR 17/17 A2990 220 100 500 000/00 RMK AO2 T01670167 $
13870KAMG AMG20160319064011203/19/16 06:40:31  5-MIN KAMG 191140Z AUTO 00000KT 4SM BR CLR 17/17 A2990 220 100 500 000/00 RMK AO2 T01670167 $
13870KAMG AMG20160319064511203/19/16 06:45:31  5-MIN KAMG 191145Z AUTO 15003KT 4SM BR CLR 17/17 A2990 220 100 500 160/03 RMK AO2 T01670167 $
13870KAMG AMG20160319065014903/19/16 06:50:31  5-MIN KAMG 191150Z AUTO 14004KT 3SM BR CLR 17/17 A2989 230 100 500 150/04 RMK AO2 SLP121 60000 70004 T01670167 10178 20167 58021 $
13870KAMG AMG20160319065511503/19/16 06:55:31  5-MIN KAMG 191155Z AUTO 14003KT 4SM BR FEW110 17/17 A2989 230 100 500 150/03 RMK AO2 T01670167 $
13870KAMG AMG20160319070011503/19/16 07:00:31  5-MIN KAMG 191200Z AUTO 15005KT 4SM BR SCT110 17/17 A2989 230 100 500 150/05 RMK AO2 T01670167 $
13870KAMG AMG20160319070512103/19/16 07:05:31  5-MIN KAMG 191205Z AUTO 14005KT 5SM BR SCT100 BKN120 17/17 A2989 230 96 600 150/05 RMK AO2 T01720167 $
13870KAMG AMG20160319071012103/19/16 07:10:31  5-MIN KAMG 191210Z AUTO 14005KT 5SM BR BKN090 BKN110 17/17 A2989 230 96 600 150/05 RMK AO2 T01720167 $
13870KAMG AMG20160319071512103/19/16 07:15:31  5-MIN KAMG 191215Z AUTO 15005KT 6SM BR BKN090 BKN110 17/17 A2989 230 96 600 150/05 RMK AO2 T01720167 $
13870KAMG AMG20160319072012203/19/16 07:20:31  5-MIN KAMG 191220Z AUTO 15005KT 6SM BR BKN100 OVC120 17/17 A2989 230 100 600 160/05 RMK AO2 T01720172 $
13870KAMG AMG20160319072512203/19/16 07:25:31  5-MIN KAMG 191225Z AUTO 15004KT 6SM BR BKN100 OVC120 17/17 A2989 230 100 600 160/04 RMK AO2 T01720172 $
13870KAMG AMG20160319073012203/19/16 07:30:31  5-MIN KAMG 191230Z AUTO 15004KT 6SM BR SCT095 OVC120 17/17 A2988 240 100 600 150/04 RMK AO2 T01720172 $
13870KAMG AMG20160319073512203/19/16 07:35:31  5-MIN KAMG 191235Z AUTO 17004KT 6SM BR SCT100 OVC120 17/17 A2989 230 100 600 170/04 RMK AO2 T01720172 $
13870KAMG AMG20160319074011503/19/16 07:40:31  5-MIN KAMG 191240Z AUTO 17005KT 6SM BR BKN110 17/17 A2989 230 100 600 170/05 RMK AO2 T01720172 $
13870KAMG AMG20160319074511203/19/16 07:45:31  5-MIN KAMG 191245Z AUTO 16006KT 7SM BKN110 17/17 A2989 230 100 600 160/06 RMK AO2 T01720172 $
13870KAMG AMG20160319075012203/19/16 07:50:31  5-MIN KAMG 191250Z AUTO 16005KT 6SM BR BKN110 17/17 A2988 240 100 600 160/05 RMK AO2 SLP118 T01720172 $
13870KAMG AMG20160319075511503/19/16 07:55:31  5-MIN KAMG 191255Z AUTO 16005KT 6SM BR BKN110 17/17 A2989 230 100 600 160/05 RMK AO2 T01720172 $
13870KAMG AMG20160319080011203/19/16 08:00:31  5-MIN KAMG 191300Z AUTO 17005KT 7SM SCT110 17/17 A2989 230 100 600 180/05 RMK AO2 T01720172 $
13870KAMG AMG20160319080511203/19/16 08:05:31  5-MIN KAMG 191305Z AUTO 19004KT 7SM BKN110 17/17 A2989 230 100 600 200/04 RMK AO2 T01720172 $
13870KAMG AMG20160319081011403/19/16 08:10:31  5-MIN KAMG 191310Z AUTO 23004KT 6SM BR BKN110 18/17 A2990 220 96 600 230/04 RMK AO2 T01780172 $
13870KAMG AMG20160319081512203/19/16 08:15:31  5-MIN KAMG 191315Z AUTO 24003KT 6SM BR BKN100 17/17 A2991 220 100 600 250/03 RMK AO2 PRESRR T01720172 $
13870KAMG AMG20160319082011203/19/16 08:20:31  5-MIN KAMG 191320Z AUTO 25003KT 8SM BKN100 17/17 A2990 220 100 600 250/03 RMK AO2 T01720172 $
13870KAMG AMG20160319082511103/19/16 08:25:31  5-MIN KAMG 191325Z AUTO 00000KT 9SM OVC100 18/17 A2990 220 96 600 000/00 RMK AO2 T01780172 $
13870KAMG AMG20160319083011203/19/16 08:30:31  5-MIN KAMG 191330Z AUTO 00000KT 10SM OVC100 18/17 A2990 220 96 600 000/00 RMK AO2 T01780172 $
13870KAMG AMG20160319083511203/19/16 08:35:31  5-MIN KAMG 191335Z AUTO 00000KT 10SM OVC100 18/17 A2990 220 96 600 000/00 RMK AO2 T01780172 $
13870KAMG AMG20160319084011203/19/16 08:40:31  5-MIN KAMG 191340Z AUTO 00000KT 10SM OVC100 18/17 A2989 230 96 600 000/00 RMK AO2 T01780172 $
13870KAMG AMG20160319084511203/19/16 08:45:31  5-MIN KAMG 191345Z AUTO 00000KT 10SM OVC100 18/17 A2989 230 96 600 000/00 RMK AO2 T01780172 $
13870KAMG AMG20160319085011703/19/16 08:50:31  5-MIN KAMG 191350Z AUTO 00000KT 10SM OVC100 18/17 A2989 230 96 600 000/00 RMK AO2 SLP120 T01780172
13870KAMG AMG20160319085511003/19/16 08:55:31  5-MIN KAMG 191355Z AUTO 00000KT 10SM OVC100 18/17 A2990 230 93 700 000/00 RMK AO2 T01830172
13870KAMG AMG20160319090011003/19/16 09:00:31  5-MIN KAMG 191400Z AUTO 31003KT 10SM OVC100 18/17 A2990 220 90 700 320/03 RMK AO2 T01830167
13870KAMG AMG20160319090511003/19/16 09:05:31  5-MIN KAMG 191405Z AUTO 32005KT 10SM OVC100 18/17 A2991 210 93 700 330/05 RMK AO2 T01830172
13870KAMG AMG20160319091011003/19/16 09:10:31  5-MIN KAMG 191410Z AUTO 00000KT 10SM OVC100 18/17 A2991 220 93 700 000/00 RMK AO2 T01830172
13870KAMG AMG20160319091511003/19/16 09:15:31  5-MIN KAMG 191415Z AUTO 00000KT 10SM OVC100 18/17 A2991 210 93 700 000/00 RMK AO2 T01830172
13870KAMG AMG20160319092011003/19/16 09:20:31  5-MIN KAMG 191420Z AUTO 31003KT 10SM OVC100 18/17 A2991 210 93 700 310/03 RMK AO2 T01830172
13870KAMG AMG20160319092511003/19/16 09:25:31  5-MIN KAMG 191425Z AUTO 30003KT 10SM OVC100 18/17 A2992 210 90 700 310/03 RMK AO2 T01830167
13870KAMG AMG20160319093011703/19/16 09:30:31  5-MIN KAMG 191430Z AUTO 30004KT 10SM OVC095 18/17 A2993 200 90 700 310/04 RMK AO2 PRESRR T01830167
13870KAMG AMG20160319093511003/19/16 09:35:31  5-MIN KAMG 191435Z AUTO 30005KT 10SM OVC095 18/17 A2993 190 90 700 310/05 RMK AO2 T01830167
13870KAMG AMG20160319094011003/19/16 09:40:31  5-MIN KAMG 191440Z AUTO 30004KT 10SM OVC095 18/17 A2993 190 90 700 300/04 RMK AO2 T01830167
13870KAMG AMG20160319094511003/19/16 09:45:31  5-MIN KAMG 191445Z AUTO 29003KT 10SM OVC090 18/17 A2993 190 90 700 290/03 RMK AO2 T01830167
13870KAMG AMG20160319095012303/19/16 09:50:31  5-MIN KAMG 191450Z AUTO 00000KT 10SM OVC090 18/17 A2993 190 90 700 000/00 RMK AO2 SLP133 T01830167 50002
13870KAMG AMG20160319095511003/19/16 09:55:31  5-MIN KAMG 191455Z AUTO 00000KT 10SM OVC090 18/17 A2993 200 90 700 000/00 RMK AO2 T01830167
13870KAMG AMG20160319100011003/19/16 10:00:31  5-MIN KAMG 191500Z AUTO 00000KT 10SM OVC090 18/17 A2992 200 90 700 000/00 RMK AO2 T01830167
13870KAMG AMG20160319100511003/19/16 10:05:31  5-MIN KAMG 191505Z AUTO 00000KT 10SM OVC090 19/17 A2992 200 87 700 000/00 RMK AO2 T01890167
13870KAMG AMG20160319101011003/19/16 10:10:31  5-MIN KAMG 191510Z AUTO 00000KT 10SM OVC090 19/17 A2992 210 87 800 000/00 RMK AO2 T01890167
13870KAMG AMG20160319101511003/19/16 10:15:31  5-MIN KAMG 191515Z AUTO 00000KT 10SM OVC090 19/17 A2991 210 87 800 000/00 RMK AO2 T01890167
13870KAMG AMG20160319102011003/19/16 10:20:31  5-MIN KAMG 191520Z AUTO 00000KT 10SM OVC090 19/17 A2991 210 87 800 000/00 RMK AO2 T01890167
13870KAMG AMG20160319102511003/19/16 10:25:31  5-MIN KAMG 191525Z AUTO 00000KT 10SM OVC090 19/17 A2991 210 84 800 000/00 RMK AO2 T01940167
13870KAMG AMG20160319103011003/19/16 10:30:31  5-MIN KAMG 191530Z AUTO 00000KT 10SM OVC095 19/16 A2990 220 81 800 000/00 RMK AO2 T01940161
13870KAMG AMG20160319103511003/19/16 10:35:31  5-MIN KAMG 191535Z AUTO 00000KT 10SM OVC100 19/17 A2990 220 84 800 000/00 RMK AO2 T01940167
13870KAMG AMG20160319104011003/19/16 10:40:31  5-MIN KAMG 191540Z AUTO 00000KT 10SM OVC100 19/16 A2990 220 81 800 000/00 RMK AO2 T01940161
13870KAMG AMG20160319104511003/19/16 10:45:31  5-MIN KAMG 191545Z AUTO 00000KT 10SM OVC100 20/16 A2990 220 78 900 000/00 RMK AO2 T02000161
13870KAMG AMG20160319105011703/19/16 10:50:31  5-MIN KAMG 191550Z AUTO 18003KT 10SM OVC100 20/17 A2990 220 81 900 190/03 RMK AO2 SLP123 T02000167
13870KAMG AMG20160319105511003/19/16 10:55:31  5-MIN KAMG 191555Z AUTO 00000KT 10SM OVC100 20/17 A2990 220 81 900 000/00 RMK AO2 T02000167
13870KAMG AMG20160319110011003/19/16 11:00:31  5-MIN KAMG 191600Z AUTO 00000KT 10SM BKN100 20/16 A2990 220 78 900 000/00 RMK AO2 T02000161
13870KAMG AMG20160319110511003/19/16 11:05:31  5-MIN KAMG 191605Z AUTO 00000KT 10SM BKN100 20/16 A2990 220 78 900 000/00 RMK AO2 T02000161
13870KAMG AMG20160319111011103/19/16 11:10:31  5-MIN KAMG 191610Z AUTO 00000KT 10SM BKN100 21/17 A2990 220 78 1000 000/00 RMK AO2 T02060167
13870KAMG AMG20160319111511103/19/16 11:15:31  5-MIN KAMG 191615Z AUTO 18003KT 10SM SCT100 21/17 A2990 220 78 1000 190/03 RMK AO2 T02060167
13870KAMG AMG20160319112011103/19/16 11:20:31  5-MIN KAMG 191620Z AUTO 19003KT 10SM FEW100 21/16 A2990 220 75 1000 200/03 RMK AO2 T02060161
13870KAMG AMG20160319112511103/19/16 11:25:31  5-MIN KAMG 191625Z AUTO 00000KT 10SM FEW100 21/17 A2990 220 78 1000 000/00 RMK AO2 T02060167
13870KAMG AMG20160319113010803/19/16 11:30:31  5-MIN KAMG 191630Z AUTO 19005KT 10SM CLR 21/17 A2990 220 78 1000 200/05 RMK AO2 T02110172
13870KAMG AMG20160319113510803/19/16 11:35:31  5-MIN KAMG 191635Z AUTO 18003KT 10SM CLR 21/17 A2991 220 78 1000 180/03 RMK AO2 T02060167
13870KAMG AMG20160319114010803/19/16 11:40:31  5-MIN KAMG 191640Z AUTO 16005KT 10SM CLR 21/17 A2991 210 78 1000 160/05 RMK AO2 T02060167
13870KAMG AMG20160319114510803/19/16 11:45:31  5-MIN KAMG 191645Z AUTO VRB03KT 10SM CLR 21/17 A2990 220 78 1000 VRB/03 RMK AO2 T02060167
13870KAMG AMG20160319115011803/19/16 11:50:31  5-MIN KAMG 191650Z AUTO 12004KT 10SM FEW050 21/17 A2990 220 75 1000 120/04 RMK AO2 SLP123 T02110167
13870KAMG AMG20160319115511103/19/16 11:55:31  5-MIN KAMG 191655Z AUTO 18003KT 10SM SCT050 21/17 A2990 220 75 1000 190/03 RMK AO2 T02110167
13870KAMG AMG20160319120011803/19/16 12:00:31  5-MIN KAMG 191700Z AUTO VRB03KT 10SM FEW043 BKN050 21/16 A2990 220 73 1000 VRB/03 RMK AO2 T02110161
13870KAMG AMG20160319120511803/19/16 12:05:31  5-MIN KAMG 191705Z AUTO 16003KT 10SM SCT043 BKN050 21/16 A2990 220 73 1000 160/03 RMK AO2 T02110161
13870KAMG AMG20160319121011803/19/16 12:10:31  5-MIN KAMG 191710Z AUTO 19003KT 10SM BKN042 BKN050 21/17 A2990 220 75 1000 190/03 RMK AO2 T02110167
13870KAMG AMG20160319121512503/19/16 12:15:31  5-MIN KAMG 191715Z AUTO 00000KT 10SM FEW020 BKN042 OVC050 21/17 A2990 220 75 1000 000/00 RMK AO2 T02110167
13870KAMG AMG20160319122012503/19/16 12:20:31  5-MIN KAMG 191720Z AUTO 20003KT 10SM FEW020 BKN042 OVC050 21/17 A2989 230 75 1000 210/03 RMK AO2 T02110167
13870KAMG AMG20160319122511803/19/16 12:25:31  5-MIN KAMG 191725Z AUTO VRB03KT 10SM FEW020 OVC045 21/17 A2989 230 75 1000 VRB/03 RMK AO2 T02110167
13870KAMG AMG20160319123012503/19/16 12:30:31  5-MIN KAMG 191730Z AUTO VRB03KT 10SM FEW020 BKN043 OVC050 22/17 A2989 230 73 1100 VRB/03 RMK AO2 T02170167
13870KAMG AMG20160319123512503/19/16 12:35:31  5-MIN KAMG 191735Z AUTO 00000KT 10SM FEW020 BKN043 OVC050 22/17 A2988 240 73 1100 000/00 RMK AO2 T02170167
13870KAMG AMG20160319124011803/19/16 12:40:31  5-MIN KAMG 191740Z AUTO 00000KT 10SM FEW020 OVC046 22/17 A2988 240 73 1100 000/00 RMK AO2 T02170167
13870KAMG AMG20160319124511803/19/16 12:45:31  5-MIN KAMG 191745Z AUTO VRB04KT 10SM FEW020 OVC046 22/17 A2988 240 73 1100 VRB/04 RMK AO2 T02170167
13870KAMG AMG20160319125014303/19/16 12:50:31  5-MIN KAMG 191750Z AUTO 00000KT 10SM FEW020 OVC046 22/17 A2988 240 70 1200 000/00 RMK AO2 SLP117 T02220167 10222 20167 53011
13870KAMG AMG20160319125511803/19/16 12:55:31  5-MIN KAMG 191755Z AUTO VRB05KT 10SM FEW020 OVC046 22/17 A2988 240 70 1200 VRB/05 RMK AO2 T02220167
13870KAMG AMG20160319130011803/19/16 13:00:31  5-MIN KAMG 191800Z AUTO VRB03KT 10SM FEW020 OVC046 22/17 A2987 250 70 1200 VRB/03 RMK AO2 T02220167
13870KAMG AMG20160319130511803/19/16 13:05:31  5-MIN KAMG 191805Z AUTO 17007KT 10SM FEW020 OVC046 22/17 A2988 240 70 1200 180/07 RMK AO2 T02220167
13870KAMG AMG20160319131011803/19/16 13:10:31  5-MIN KAMG 191810Z AUTO VRB03KT 10SM FEW021 OVC046 22/16 A2987 250 70 1100 VRB/03 RMK AO2 T02170161
13870KAMG AMG20160319131511803/19/16 13:15:31  5-MIN KAMG 191815Z AUTO 19006KT 10SM FEW021 OVC046 22/17 A2987 250 70 1200 190/06 RMK AO2 T02220167
13870KAMG AMG20160319132012503/19/16 13:20:31  5-MIN KAMG 191820Z AUTO 19005KT 10SM FEW021 FEW027 OVC046 22/16 A2986 250 68 1200 190/05 RMK AO2 T02220161
13870KAMG AMG20160319132512503/19/16 13:25:31  5-MIN KAMG 191825Z AUTO 17007KT 10SM FEW021 FEW027 OVC045 22/17 A2986 260 70 1200 180/07 RMK AO2 T02220167
13870KAMG AMG20160319133012503/19/16 13:30:31  5-MIN KAMG 191830Z AUTO 21003KT 10SM FEW022 FEW029 OVC045 22/16 A2986 260 68 1100 210/03 RMK AO2 T02170156
13870KAMG AMG20160319133511803/19/16 13:35:31  5-MIN KAMG 191835Z AUTO 20005KT 10SM FEW022 OVC043 22/16 A2986 260 68 1200 210/05 RMK AO2 T02220161
13870KAMG AMG20160319134011103/19/16 13:40:31  5-MIN KAMG 191840Z AUTO 20005KT 10SM OVC043 22/16 A2985 260 65 1200 200/05 RMK AO2 T02220156
13870KAMG AMG20160319134511803/19/16 13:45:31  5-MIN KAMG 191845Z AUTO 20006KT 10SM FEW028 OVC042 22/16 A2985 270 65 1200 200/06 RMK AO2 T02220156
13870KAMG AMG20160319135012503/19/16 13:50:31  5-MIN KAMG 191850Z AUTO 21005KT 10SM FEW028 OVC042 22/16 A2985 270 65 1200 210/05 RMK AO2 SLP104 T02220156
13870KAMG AMG20160319135511103/19/16 13:55:31  5-MIN KAMG 191855Z AUTO 20006KT 10SM OVC044 22/16 A2984 270 65 1200 210/06 RMK AO2 T02220156
13870KAMG AMG20160319140011103/19/16 14:00:31  5-MIN KAMG 191900Z AUTO 20005KT 10SM OVC044 22/16 A2984 270 65 1200 210/05 RMK AO2 T02220156
13870KAMG AMG20160319140511103/19/16 14:05:31  5-MIN KAMG 191905Z AUTO 22005KT 10SM OVC046 22/16 A2985 270 65 1200 230/05 RMK AO2 T02220156
13870KAMG AMG20160319141011103/19/16 14:10:31  5-MIN KAMG 191910Z AUTO 20004KT 10SM OVC046 22/16 A2984 270 65 1200 210/04 RMK AO2 T02220156
13870KAMG AMG20160319141511103/19/16 14:15:31  5-MIN KAMG 191915Z AUTO 24006KT 10SM OVC046 22/16 A2984 270 65 1200 240/06 RMK AO2 T02220156
13870KAMG AMG20160319142011103/19/16 14:20:31  5-MIN KAMG 191920Z AUTO 25006KT 10SM OVC046 22/16 A2984 270 65 1200 250/06 RMK AO2 T02220156
13870KAMG AMG20160319142511103/19/16 14:25:31  5-MIN KAMG 191925Z AUTO 20006KT 10SM OVC048 22/16 A2984 270 65 1200 200/06 RMK AO2 T02220156
13870KAMG AMG20160319143011103/19/16 14:30:31  5-MIN KAMG 191930Z AUTO 18005KT 10SM OVC048 22/16 A2985 270 65 1200 190/05 RMK AO2 T02220156
13870KAMG AMG20160319143511803/19/16 14:35:31  5-MIN KAMG 191935Z AUTO 21004KT 10SM SCT047 OVC055 23/16 A2985 270 63 1300 220/04 RMK AO2 T02280156
13870KAMG AMG20160319144011803/19/16 14:40:31  5-MIN KAMG 191940Z AUTO 22006KT 10SM FEW028 OVC050 23/16 A2984 280 63 1300 230/06 RMK AO2 T02280156
13870KAMG AMG20160319144511103/19/16 14:45:31  5-MIN KAMG 191945Z AUTO 22004KT 10SM OVC050 22/16 A2984 280 65 1200 230/04 RMK AO2 T02220156
13870KAMG AMG20160319145011803/19/16 14:50:31  5-MIN KAMG 191950Z AUTO 25004KT 10SM OVC055 23/16 A2984 280 63 1400 260/04 RMK AO2 SLP102 T02330161
13870KAMG AMG20160319145511103/19/16 14:55:31  5-MIN KAMG 191955Z AUTO 23006KT 10SM BKN055 23/16 A2984 280 61 1400 230/06 RMK AO2 T02330156
13870KAMG AMG20160319150011103/19/16 15:00:31  5-MIN KAMG 192000Z AUTO 24004KT 10SM BKN055 23/16 A2983 280 61 1400 250/04 RMK AO2 T02330156
13870KAMG AMG20160319150511103/19/16 15:05:31  5-MIN KAMG 192005Z AUTO 20005KT 10SM BKN055 23/16 A2983 290 61 1400 200/05 RMK AO2 T02330156
13870KAMG AMG20160319151011103/19/16 15:10:31  5-MIN KAMG 192010Z AUTO 26006KT 10SM BKN055 23/15 A2983 280 59 1400 260/06 RMK AO2 T02330150
13870KAMG AMG20160319151511103/19/16 15:15:31  5-MIN KAMG 192015Z AUTO 21007KT 10SM BKN055 23/16 A2983 280 61 1400 220/07 RMK AO2 T02330156
13870KAMG AMG20160319152011103/19/16 15:20:31  5-MIN KAMG 192020Z AUTO VRB05KT 10SM BKN060 23/16 A2984 280 61 1400 VRB/05 RMK AO2 T02330156
13870KAMG AMG20160319152511103/19/16 15:25:31  5-MIN KAMG 192025Z AUTO 21006KT 10SM OVC060 23/15 A2983 280 61 1300 210/06 RMK AO2 T02280150
13870KAMG AMG20160319153011103/19/16 15:30:31  5-MIN KAMG 192030Z AUTO 21004KT 10SM OVC060 23/16 A2983 290 61 1400 210/04 RMK AO2 T02330156
13870KAMG AMG20160319153510103/19/16 15:35:31  5-MIN KAMG 192035Z AUTO 10SM OVC060 23/16 A2983 290 61 1400 M /M RMK AO2 T02330156
13870KAMG AMG20160319154011103/19/16 15:40:31  5-MIN KAMG 192040Z AUTO VRB03KT 10SM OVC060 24/15 A2983 290 57 1400 VRB/03 RMK AO2 T02390150
13870KAMG AMG20160319154511103/19/16 15:45:31  5-MIN KAMG 192045Z AUTO 22004KT 10SM OVC060 24/16 A2982 290 59 1400 230/04 RMK AO2 T02390156
13870KAMG AMG20160319155011403/19/16 15:50:31  5-MIN KAMG 192050Z AUTO 10SM BKN060 24/16 A2982 300 59 1400 M /M RMK AO2 SLP095 T02390156 56015
13870KAMG AMG20160319155511103/19/16 15:55:31  5-MIN KAMG 192055Z AUTO 20005KT 10SM BKN060 24/16 A2982 300 59 1400 210/05 RMK AO2 T02390156
13870KAMG AMG20160319160011103/19/16 16:00:31  5-MIN KAMG 192100Z AUTO 22005KT 10SM SCT060 24/16 A2981 300 59 1400 220/05 RMK AO2 T02390156
13870KAMG AMG20160319160511103/19/16 16:05:31  5-MIN KAMG 192105Z AUTO 23004KT 10SM FEW060 24/15 A2981 310 57 1400 230/04 RMK AO2 T02390150
13870KAMG AMG20160319161011103/19/16 16:10:31  5-MIN KAMG 192110Z AUTO 15003KT 10SM FEW060 24/15 A2981 300 57 1400 150/03 RMK AO2 T02390150
13870KAMG AMG20160319161510803/19/16 16:15:31  5-MIN KAMG 192115Z AUTO 20004KT 10SM CLR 23/16 A2981 310 61 1400 210/04 RMK AO2 T02330156
13870KAMG AMG20160319162010803/19/16 16:20:31  5-MIN KAMG 192120Z AUTO 21003KT 10SM CLR 24/15 A2981 310 57 1500 210/03 RMK AO2 T02390150
13870KAMG AMG20160319162511103/19/16 16:25:31  5-MIN KAMG 192125Z AUTO 00000KT 10SM SCT036 24/15 A2981 310 57 1400 000/00 RMK AO2 T02390150
13870KAMG AMG20160319163011103/19/16 16:30:31  5-MIN KAMG 192130Z AUTO 25003KT 10SM SCT036 23/16 A2981 300 61 1400 260/03 RMK AO2 T02330156
13870KAMG AMG20160319163511103/19/16 16:35:31  5-MIN KAMG 192135Z AUTO 25005KT 10SM SCT036 23/15 A2982 300 59 1400 260/05 RMK AO2 T02330150
13870KAMG AMG20160319164011803/19/16 16:40:31  5-MIN KAMG 192140Z AUTO 20004KT 10SM FEW038 BKN046 23/15 A2981 300 59 1400 200/04 RMK AO2 T02330150
13870KAMG AMG20160319164511803/19/16 16:45:31  5-MIN KAMG 192145Z AUTO 19003KT 10SM SCT038 BKN046 23/15 A2981 310 59 1400 190/03 RMK AO2 T02330150
13870KAMG AMG20160319165012503/19/16 16:50:31  5-MIN KAMG 192150Z AUTO 19005KT 10SM SCT040 BKN046 23/16 A2981 300 61 1400 200/05 RMK AO2 SLP094 T02330156
13870KAMG AMG20160319165511103/19/16 16:55:31  5-MIN KAMG 192155Z AUTO 21003KT 10SM BKN044 23/15 A2982 300 59 1400 220/03 RMK AO2 T02330150
13870KAMG AMG20160319170011103/19/16 17:00:31  5-MIN KAMG 192200Z AUTO 18004KT 10SM BKN046 23/15 A2982 300 59 1400 180/04 RMK AO2 T02330150
13870KAMG AMG20160319170511103/19/16 17:05:31  5-MIN KAMG 192205Z AUTO 18003KT 10SM BKN046 23/15 A2981 300 59 1400 190/03 RMK AO2 T02330150
13870KAMG AMG20160319171011103/19/16 17:10:31  5-MIN KAMG 192210Z AUTO 17004KT 10SM SCT046 23/16 A2982 300 61 1400 170/04 RMK AO2 T02330156
13870KAMG AMG20160319171511103/19/16 17:15:31  5-MIN KAMG 192215Z AUTO 16004KT 10SM FEW046 23/16 A2982 300 63 1300 160/04 RMK AO2 T02280156
13870KAMG AMG20160319172011103/19/16 17:20:31  5-MIN KAMG 192220Z AUTO 17004KT 10SM FEW046 23/16 A2982 300 63 1300 170/04 RMK AO2 T02280156
13870KAMG AMG20160319172511103/19/16 17:25:31  5-MIN KAMG 192225Z AUTO 19003KT 10SM FEW048 23/16 A2982 290 63 1300 190/03 RMK AO2 T02280156
13870KAMG AMG20160319173010803/19/16 17:30:31  5-MIN KAMG 192230Z AUTO 20003KT 10SM CLR 23/16 A2982 290 65 1300 200/03 RMK AO2 T02280161
13870KAMG AMG20160319173510803/19/16 17:35:31  5-MIN KAMG 192235Z AUTO 21004KT 10SM CLR 23/16 A2983 290 65 1300 210/04 RMK AO2 T02280161
13870KAMG AMG20160319174010803/19/16 17:40:31  5-MIN KAMG 192240Z AUTO 21004KT 10SM CLR 23/16 A2982 290 65 1300 220/04 RMK AO2 T02280161
13870KAMG AMG20160319174510803/19/16 17:45:31  5-MIN KAMG 192245Z AUTO 21004KT 10SM CLR 23/16 A2983 290 65 1300 220/04 RMK AO2 T02280161
13870KAMG AMG20160319175011503/19/16 17:50:31  5-MIN KAMG 192250Z AUTO 21003KT 10SM CLR 23/16 A2983 290 65 1300 220/03 RMK AO2 SLP099 T02280161
13870KAMG AMG20160319175510803/19/16 17:55:31  5-MIN KAMG 192255Z AUTO 22003KT 10SM CLR 22/16 A2983 280 68 1200 230/03 RMK AO2 T02220161
13870KAMG AMG20160319180010803/19/16 18:00:31  5-MIN KAMG 192300Z AUTO 00000KT 10SM CLR 22/16 A2983 290 68 1200 000/00 RMK AO2 T02220161
13870KAMG AMG20160319180510803/19/16 18:05:31  5-MIN KAMG 192305Z AUTO 00000KT 10SM CLR 22/16 A2983 290 68 1200 000/00 RMK AO2 T02220161
13870KAMG AMG20160319181010803/19/16 18:10:31  5-MIN KAMG 192310Z AUTO 00000KT 10SM CLR 22/16 A2983 280 68 1200 000/00 RMK AO2 T02220161
13870KAMG AMG20160319181510803/19/16 18:15:31  5-MIN KAMG 192315Z AUTO 00000KT 10SM CLR 22/17 A2983 280 70 1200 000/00 RMK AO2 T02220167
13870KAMG AMG20160319182010803/19/16 18:20:31  5-MIN KAMG 192320Z AUTO 00000KT 10SM CLR 22/17 A2984 280 73 1200 000/00 RMK AO2 T02170167
13870KAMG AMG20160319182511103/19/16 18:25:31  5-MIN KAMG 192325Z AUTO 24003KT 10SM FEW039 22/17 A2984 280 73 1200 250/03 RMK AO2 T02170167
13870KAMG AMG20160319183011103/19/16 18:30:31  5-MIN KAMG 192330Z AUTO 24003KT 10SM FEW039 22/17 A2984 270 73 1200 250/03 RMK AO2 T02170167
13870KAMG AMG20160319183511103/19/16 18:35:31  5-MIN KAMG 192335Z AUTO 24003KT 10SM FEW039 21/17 A2985 270 81 1000 250/03 RMK AO2 T02060172
13870KAMG AMG20160319184011803/19/16 18:40:31  5-MIN KAMG 192340Z AUTO 24003KT 10SM FEW039 FEW060 21/17 A2985 270 81 1000 250/03 RMK AO2 T02060172
13870KAMG AMG20160319184511803/19/16 18:45:31  5-MIN KAMG 192345Z AUTO 24003KT 10SM FEW039 SCT060 21/17 A2985 270 78 1000 250/03 RMK AO2 T02060167
13870KAMG AMG20160319185015003/19/16 18:50:31  5-MIN KAMG 192350Z AUTO 00000KT 10SM FEW041 SCT048 BKN060 21/17 A2985 270 78 1000 000/00 RMK AO2 SLP105 T02060167 10239 20206 56022
13870KAMG AMG20160319185511803/19/16 18:55:31  5-MIN KAMG 192355Z AUTO 00000KT 10SM SCT048 BKN060 21/17 A2985 270 78 1000 000/00 RMK AO2 T02060167
13870KAMG AMG20160319190011803/19/16 19:00:31  5-MIN KAMG 200000Z AUTO 00000KT 10SM BKN046 BKN060 20/17 A2984 280 81 1000 000/00 RMK AO2 T02000167
13870KAMG AMG20160319190511703/19/16 19:05:31  5-MIN KAMG 200005Z AUTO 00000KT 10SM BKN046 BKN060 19/17 A2984 280 84 900 000/00 RMK AO2 T01940167
13870KAMG AMG20160319191011703/19/16 19:10:31  5-MIN KAMG 200010Z AUTO 00000KT 10SM BKN046 BKN065 19/17 A2984 280 90 800 000/00 RMK AO2 T01890172
13870KAMG AMG20160319191511703/19/16 19:15:31  5-MIN KAMG 200015Z AUTO 00000KT 10SM BKN046 BKN065 19/17 A2984 280 90 800 000/00 RMK AO2 T01890172
13870KAMG AMG20160319192011703/19/16 19:20:31  5-MIN KAMG 200020Z AUTO 00000KT 10SM SCT046 SCT065 19/17 A2984 270 90 800 000/00 RMK AO2 T01890172
13870KAMG AMG20160319192511703/19/16 19:25:31  5-MIN KAMG 200025Z AUTO 00000KT 10SM FEW046 SCT065 19/17 A2985 270 90 800 000/00 RMK AO2 T01890172
13870KAMG AMG20160319193011703/19/16 19:30:31  5-MIN KAMG 200030Z AUTO 00000KT 10SM FEW046 FEW065 18/17 A2985 270 93 800 000/00 RMK AO2 T01830172
13870KAMG AMG20160319193510703/19/16 19:35:31  5-MIN KAMG 200035Z AUTO 00000KT 10SM CLR 18/17 A2985 270 93 800 000/00 RMK AO2 T01830172
13870KAMG AMG20160319194010703/19/16 19:40:31  5-MIN KAMG 200040Z AUTO 00000KT 10SM CLR 18/17 A2985 270 90 800 000/00 RMK AO2 T01830167
13870KAMG AMG20160319194510703/19/16 19:45:31  5-MIN KAMG 200045Z AUTO 00000KT 10SM CLR 18/17 A2985 270 93 800 000/00 RMK AO2 T01830172
13870KAMG AMG20160319195011403/19/16 19:50:31  5-MIN KAMG 200050Z AUTO 00000KT 10SM CLR 18/17 A2985 260 93 800 000/00 RMK AO2 SLP107 T01830172
13870KAMG AMG20160319195510703/19/16 19:55:31  5-MIN KAMG 200055Z AUTO 00000KT 10SM CLR 18/17 A2985 260 96 700 000/00 RMK AO2 T01780172
13870KAMG AMG20160319200010703/19/16 20:00:31  5-MIN KAMG 200100Z AUTO 00000KT 10SM CLR 18/17 A2986 260 96 700 000/00 RMK AO2 T01780172
13870KAMG AMG20160319200510703/19/16 20:05:31  5-MIN KAMG 200105Z AUTO 00000KT 10SM CLR 18/17 A2985 260 93 800 000/00 RMK AO2 T01830172
13870KAMG AMG20160319201010703/19/16 20:10:31  5-MIN KAMG 200110Z AUTO 00000KT 10SM CLR 18/17 A2985 260 96 700 000/00 RMK AO2 T01780172
13870KAMG AMG20160319201510703/19/16 20:15:31  5-MIN KAMG 200115Z AUTO 00000KT 10SM CLR 18/17 A2986 260 96 700 000/00 RMK AO2 T01780172
13870KAMG AMG20160319202010703/19/16 20:20:31  5-MIN KAMG 200120Z AUTO 00000KT 10SM CLR 18/17 A2986 260 96 700 000/00 RMK AO2 T01780172
13870KAMG AMG20160319202510703/19/16 20:25:31  5-MIN KAMG 200125Z AUTO 00000KT 10SM CLR 18/17 A2985 260 96 700 000/00 RMK AO2 T01780172
13870KAMG AMG20160319203010703/19/16 20:30:31  5-MIN KAMG 200130Z AUTO 00000KT 10SM CLR 18/17 A2985 260 96 700 000/00 RMK AO2 T01780172
13870KAMG AMG20160319203510703/19/16 20:35:31  5-MIN KAMG 200135Z AUTO 00000KT 10SM CLR 18/17 A2985 260 96 700 000/00 RMK AO2 T01780172
13870KAMG AMG20160319204010703/19/16 20:40:31  5-MIN KAMG 200140Z AUTO 00000KT 10SM CLR 18/17 A2985 260 96 700 000/00 RMK AO2 T01780172
13870KAMG AMG20160319204510703/19/16 20:45:31  5-MIN KAMG 200145Z AUTO 00000KT 10SM CLR 18/17 A2986 260 96 700 000/00 RMK AO2 T01780172
13870KAMG AMG20160319205011403/19/16 20:50:31  5-MIN KAMG 200150Z AUTO 00000KT 10SM CLR 18/17 A2986 260 96 700 000/00 RMK AO2 SLP109 T01780172
13870KAMG AMG20160319205510703/19/16 20:55:31  5-MIN KAMG 200155Z AUTO 00000KT 10SM CLR 18/17 A2986 260 96 700 000/00 RMK AO2 T01780172
13870KAMG AMG20160319210010703/19/16 21:00:31  5-MIN KAMG 200200Z AUTO 00000KT 10SM CLR 18/17 A2986 260 96 700 000/00 RMK AO2 T01780172
13870KAMG AMG20160319210510703/19/16 21:05:31  5-MIN KAMG 200205Z AUTO 00000KT 10SM CLR 18/17 A2986 260 96 700 000/00 RMK AO2 T01780172
13870KAMG AMG20160319211010703/19/16 21:10:31  5-MIN KAMG 200210Z AUTO 00000KT 10SM CLR 18/17 A2986 260 96 700 000/00 RMK AO2 T01780172
13870KAMG AMG20160319211510703/19/16 21:15:31  5-MIN KAMG 200215Z AUTO 00000KT 10SM CLR 18/17 A2986 260 93 700 000/00 RMK AO2 T01780167
13870KAMG AMG20160319212010703/19/16 21:20:31  5-MIN KAMG 200220Z AUTO 00000KT 10SM CLR 18/17 A2986 260 96 700 000/00 RMK AO2 T01780172
13870KAMG AMG20160319212510703/19/16 21:25:31  5-MIN KAMG 200225Z AUTO 00000KT 10SM CLR 18/17 A2985 260 96 700 000/00 RMK AO2 T01780172
13870KAMG AMG20160319213010703/19/16 21:30:31  5-MIN KAMG 200230Z AUTO 00000KT 10SM CLR 18/17 A2986 260 96 700 000/00 RMK AO2 T01780172
13870KAMG AMG20160319213510703/19/16 21:35:31  5-MIN KAMG 200235Z AUTO 00000KT 10SM CLR 18/17 A2986 260 96 700 000/00 RMK AO2 T01780172
13870KAMG AMG20160319214010703/19/16 21:40:31  5-MIN KAMG 200240Z AUTO 00000KT 10SM CLR 18/17 A2986 260 96 700 000/00 RMK AO2 T01780172
13870KAMG AMG20160319214510703/19/16 21:45:31  5-MIN KAMG 200245Z AUTO 00000KT 10SM CLR 18/17 A2986 260 93 800 000/00 RMK AO2 T01830172
13870KAMG AMG20160319215012003/19/16 21:50:31  5-MIN KAMG 200250Z AUTO 00000KT 10SM CLR 18/17 A2986 260 93 800 000/00 RMK AO2 SLP109 T01830172 53010
13870KAMG AMG20160319215510703/19/16 21:55:31  5-MIN KAMG 200255Z AUTO 00000KT 10SM CLR 18/17 A2986 260 93 700 000/00 RMK AO2 T01830172
13870KAMG AMG20160319220010703/19/16 22:00:31  5-MIN KAMG 200300Z AUTO 00000KT 10SM CLR 18/17 A2986 260 93 700 000/00 RMK AO2 T01830172
13870KAMG AMG20160319220510603/19/16 22:05:31  5-MIN KAMG 200305Z AUTO 00000KT 9SM CLR 18/17 A2986 260 93 700 000/00 RMK AO2 T01830172
13870KAMG AMG20160319221010603/19/16 22:10:31  5-MIN KAMG 200310Z AUTO 00000KT 8SM CLR 18/17 A2986 260 93 700 000/00 RMK AO2 T01830172
13870KAMG AMG20160319221510603/19/16 22:15:31  5-MIN KAMG 200315Z AUTO 00000KT 8SM CLR 18/17 A2986 260 93 800 000/00 RMK AO2 T01830172
13870KAMG AMG20160319222010703/19/16 22:20:31  5-MIN KAMG 200320Z AUTO 00000KT 10SM CLR 18/17 A2986 260 96 700 000/00 RMK AO2 T01780172
13870KAMG AMG20160319222510703/19/16 22:25:31  5-MIN KAMG 200325Z AUTO 00000KT 10SM CLR 18/17 A2986 260 93 700 000/00 RMK AO2 T01780167
13870KAMG AMG20160319223010703/19/16 22:30:31  5-MIN KAMG 200330Z AUTO 00000KT 10SM CLR 18/17 A2985 260 93 700 000/00 RMK AO2 T01780167
13870KAMG AMG20160319223510703/19/16 22:35:31  5-MIN KAMG 200335Z AUTO 00000KT 10SM CLR 17/17 A2986 260 96 600 000/00 RMK AO2 T01720167
13870KAMG AMG20160319224010703/19/16 22:40:31  5-MIN KAMG 200340Z AUTO 00000KT 10SM CLR 18/17 A2985 260 96 700 000/00 RMK AO2 T01780172
13870KAMG AMG20160319224510803/19/16 22:45:31  5-MIN KAMG 200345Z AUTO 00000KT 10SM CLR 17/17 A2985 270 100 600 000/00 RMK AO2 T01720172
13870KAMG AMG20160319225011403/19/16 22:50:31  5-MIN KAMG 200350Z AUTO 00000KT 10SM CLR 17/17 A2985 270 96 600 000/00 RMK AO2 SLP105 T01720167
13870KAMG AMG20160319225510703/19/16 22:55:31  5-MIN KAMG 200355Z AUTO 00000KT 10SM CLR 17/17 A2985 270 96 600 000/00 RMK AO2 T01720167
13870KAMG AMG20160319230010703/19/16 23:00:31  5-MIN KAMG 200400Z AUTO 00000KT 10SM CLR 17/17 A2985 270 96 600 000/00 RMK AO2 T01720167
13870KAMG AMG20160319230510703/19/16 23:05:31  5-MIN KAMG 200405Z AUTO 00000KT 10SM CLR 18/17 A2984 270 93 700 000/00 RMK AO2 T01780167
13870KAMG AMG20160319231010703/19/16 23:10:31  5-MIN KAMG 200410Z AUTO 00000KT 10SM CLR 18/17 A2985 270 93 700 000/00 RMK AO2 T01780167
13870KAMG AMG20160319231510703/19/16 23:15:31  5-MIN KAMG 200415Z AUTO 00000KT 10SM CLR 17/17 A2985 270 96 600 000/00 RMK AO2 T01720167
13870KAMG AMG20160319232010703/19/16 23:20:31  5-MIN KAMG 200420Z AUTO 00000KT 10SM CLR 17/17 A2985 270 96 600 000/00 RMK AO2 T01720167
13870KAMG AMG20160319232510703/19/16 23:25:31  5-MIN KAMG 200425Z AUTO 00000KT 10SM CLR 17/17 A2985 270 96 600 000/00 RMK AO2 T01720167
13870KAMG AMG20160319233010703/19/16 23:30:31  5-MIN KAMG 200430Z AUTO 00000KT 10SM CLR 17/17 A2985 270 96 600 000/00 RMK AO2 T01720167
13870KAMG AMG20160319233510703/19/16 23:35:31  5-MIN KAMG 200435Z AUTO 00000KT 10SM CLR 17/17 A2985 270 96 600 000/00 RMK AO2 T01720167
13870KAMG AMG20160319234010703/19/16 23:40:31  5-MIN KAMG 200440Z AUTO 00000KT 10SM CLR 17/17 A2984 270 96 600 000/00 RMK AO2 T01720167
13870KAMG AMG20160319234510703/19/16 23:45:31  5-MIN KAMG 200445Z AUTO 00000KT 10SM CLR 18/17 A2984 280 93 700 000/00 RMK AO2 T01780167
13870KAMG AMG20160319235012403/19/16 23:50:31  5-MIN KAMG 200450Z AUTO 00000KT 10SM CLR 18/17 A2984 280 93 700 000/00 RMK AO2 SLP102 T01780167 402390167
13870KAMG AMG20160319235510703/19/16 23:55:31  5-MIN KAMG 200455Z AUTO 00000KT 10SM CLR 17/17 A2984 280 96 600 000/00 RMK AO2 T01720167
13870KAMG AMG20160320000010703/20/16 00:00:31  5-MIN KAMG 200500Z AUTO 00000KT 10SM CLR 17/17 A2984 280 96 600 000/00 RMK AO2 T01720167
13870KAMG AMG20160320000510703/20/16 00:05:31  5-MIN KAMG 200505Z AUTO 00000KT 10SM CLR 17/17 A2984 280 96 600 000/00 RMK AO2 T01720167
13870KAMG AMG20160320001010703/20/16 00:10:31  5-MIN KAMG 200510Z AUTO 00000KT 10SM CLR 17/17 A2984 280 96 600 000/00 RMK AO2 T01720167
13870KAMG AMG20160320001511003/20/16 00:15:31  5-MIN KAMG 200515Z AUTO 00000KT 10SM FEW041 17/17 A2985 270 96 600 000/00 RMK AO2 T01720167
13870KAMG AMG20160320002011003/20/16 00:20:31  5-MIN KAMG 200520Z AUTO 00000KT 10SM SCT041 18/17 A2985 270 93 700 000/00 RMK AO2 T01780167
13870KAMG AMG20160320002511003/20/16 00:25:31  5-MIN KAMG 200525Z AUTO 00000KT 10SM SCT041 18/17 A2985 270 96 700 000/00 RMK AO2 T01780172
13870KAMG AMG20160320003011003/20/16 00:30:31  5-MIN KAMG 200530Z AUTO 00000KT 10SM FEW040 18/17 A2985 270 93 700 000/00 RMK AO2 T01780167
13870KAMG AMG20160320003511003/20/16 00:35:31  5-MIN KAMG 200535Z AUTO 00000KT 10SM FEW040 18/17 A2985 270 93 700 000/00 RMK AO2 T01780167
13870KAMG AMG20160320004011003/20/16 00:40:31  5-MIN KAMG 200540Z AUTO 00000KT 10SM FEW040 17/17 A2985 270 96 600 000/00 RMK AO2 T01720167
13870KAMG AMG20160320004511003/20/16 00:45:31  5-MIN KAMG 200545Z AUTO 00000KT 10SM FEW040 17/17 A2985 260 96 600 000/00 RMK AO2 T01720167
13870KAMG AMG20160320005013203/20/16 00:50:31  5-MIN KAMG 200550Z AUTO 00000KT 10SM CLR 18/17 A2986 260 93 700 000/00 RMK AO2 SLP108 T01780167 10206 20172 51004
13870KAMG AMG20160320005510703/20/16 00:55:31  5-MIN KAMG 200555Z AUTO 00000KT 10SM CLR 17/17 A2985 260 96 600 000/00 RMK AO2 T01720167
13870KAMG AMG20160320010010703/20/16 01:00:31  5-MIN KAMG 200600Z AUTO 00000KT 10SM CLR 17/17 A2985 260 96 600 000/00 RMK AO2 T01720167
13870KAMG AMG20160320010510703/20/16 01:05:31  5-MIN KAMG 200605Z AUTO 00000KT 10SM CLR 17/17 A2985 270 96 600 000/00 RMK AO2 T01720167
13870KAMG AMG20160320011010703/20/16 01:10:31  5-MIN KAMG 200610Z AUTO 00000KT 10SM CLR 17/17 A2985 270 96 600 000/00 RMK AO2 T01720167
13870KAMG AMG20160320011511003/20/16 01:15:31  5-MIN KAMG 200615Z AUTO 00000KT 10SM FEW044 17/17 A2985 270 96 600 000/00 RMK AO2 T01720167
13870KAMG AMG20160320012011003/20/16 01:20:31  5-MIN KAMG 200620Z AUTO 32003KT 10SM FEW044 18/17 A2985 270 93 700 320/03 RMK AO2 T01780167
13870KAMG AMG20160320012511003/20/16 01:25:31  5-MIN KAMG 200625Z AUTO 31003KT 10SM FEW044 18/17 A2985 270 93 700 320/03 RMK AO2 T01780167
13870KAMG AMG20160320013011003/20/16 01:30:31  5-MIN KAMG 200630Z AUTO 32004KT 10SM FEW044 18/17 A2985 270 93 700 320/04 RMK AO2 T01780167
13870KAMG AMG20160320013511003/20/16 01:35:31  5-MIN KAMG 200635Z AUTO 32004KT 10SM SCT044 18/17 A2985 270 93 700 330/04 RMK AO2 T01780167
13870KAMG AMG20160320014011003/20/16 01:40:31  5-MIN KAMG 200640Z AUTO 32005KT 10SM BKN045 18/17 A2985 270 93 700 330/05 RMK AO2 T01780167
13870KAMG AMG20160320014511003/20/16 01:45:31  5-MIN KAMG 200645Z AUTO 32005KT 10SM BKN045 18/17 A2985 260 93 700 320/05 RMK AO2 T01780167
13870KAMG AMG20160320015011703/20/16 01:50:31  5-MIN KAMG 200650Z AUTO 32005KT 10SM BKN045 18/17 A2986 260 93 700 320/05 RMK AO2 SLP107 T01780167
13870KAMG AMG20160320015511003/20/16 01:55:31  5-MIN KAMG 200655Z AUTO 33005KT 10SM BKN045 18/16 A2985 270 90 700 340/05 RMK AO2 T01780161
13870KAMG AMG20160320020011003/20/16 02:00:31  5-MIN KAMG 200700Z AUTO 33005KT 10SM BKN047 18/16 A2985 270 90 700 330/05 RMK AO2 T01780161
13870KAMG AMG20160320020511003/20/16 02:05:31  5-MIN KAMG 200705Z AUTO 33005KT 10SM SCT047 18/16 A2985 270 90 700 340/05 RMK AO2 T01780161
13870KAMG AMG20160320021011003/20/16 02:10:31  5-MIN KAMG 200710Z AUTO 34004KT 10SM SCT047 18/16 A2985 270 90 700 340/04 RMK AO2 T01780161
13870KAMG AMG20160320021511003/20/16 02:15:31  5-MIN KAMG 200715Z AUTO 32005KT 10SM FEW047 18/16 A2985 260 90 700 330/05 RMK AO2 T01780161
13870KAMG AMG20160320022010703/20/16 02:20:31  5-MIN KAMG 200720Z AUTO 33005KT 10SM CLR 18/16 A2985 270 90 700 330/05 RMK AO2 T01780161
13870KAMG AMG20160320022510703/20/16 02:25:31  5-MIN KAMG 200725Z AUTO 33004KT 10SM CLR 18/16 A2985 270 90 700 330/04 RMK AO2 T01780161
13870KAMG AMG20160320023010703/20/16 02:30:31  5-MIN KAMG 200730Z AUTO 34003KT 10SM CLR 18/16 A2985 270 90 700 350/03 RMK AO2 T01780161
13870KAMG AMG20160320023510703/20/16 02:35:31  5-MIN KAMG 200735Z AUTO 33006KT 10SM CLR 18/16 A2985 270 90 700 330/06 RMK AO2 T01780161
13870KAMG AMG20160320024010703/20/16 02:40:31  5-MIN KAMG 200740Z AUTO 33006KT 10SM CLR 18/16 A2985 270 90 700 330/06 RMK AO2 T01780161
13870KAMG AMG20160320024511003/20/16 02:45:31  5-MIN KAMG 200745Z AUTO 33006KT 10SM FEW075 18/16 A2985 270 90 700 340/06 RMK AO2 T01780161
13870KAMG AMG20160320025011703/20/16 02:50:31  5-MIN KAMG 200750Z AUTO 33007KT 10SM FEW075 18/16 A2984 280 87 700 340/07 RMK AO2 SLP103 T01780156
13870KAMG AMG20160320025510703/20/16 02:55:31  5-MIN KAMG 200755Z AUTO 34006KT 10SM CLR 18/16 A2984 270 87 700 340/06 RMK AO2 T01780156
13870KAMG AMG20160320030010703/20/16 03:00:31  5-MIN KAMG 200800Z AUTO 33006KT 10SM CLR 18/15 A2984 270 83 700 340/06 RMK AO2 T01780150
13870KAMG AMG20160320030510703/20/16 03:05:31  5-MIN KAMG 200805Z AUTO 33007KT 10SM CLR 18/15 A2985 270 83 700 330/07 RMK AO2 T01780150
13870KAMG AMG20160320031010703/20/16 03:10:31  5-MIN KAMG 200810Z AUTO 33006KT 10SM CLR 18/15 A2985 270 83 700 330/06 RMK AO2 T01780150
13870KAMG AMG20160320031510703/20/16 03:15:31  5-MIN KAMG 200815Z AUTO 33006KT 10SM CLR 18/14 A2985 270 81 700 340/06 RMK AO2 T01780144
13870KAMG AMG20160320032010703/20/16 03:20:31  5-MIN KAMG 200820Z AUTO 33007KT 10SM CLR 18/14 A2985 270 81 700 330/07 RMK AO2 T01780144
13870KAMG AMG20160320032510703/20/16 03:25:31  5-MIN KAMG 200825Z AUTO 33006KT 10SM CLR 18/14 A2985 270 81 700 340/06 RMK AO2 T01780144
13870KAMG AMG20160320033011003/20/16 03:30:31  5-MIN KAMG 200830Z AUTO 32006KT 10SM FEW075 17/14 A2985 260 83 600 330/06 RMK AO2 T01720144
13870KAMG AMG20160320033511703/20/16 03:35:31  5-MIN KAMG 200835Z AUTO 33006KT 10SM FEW075 SCT110 17/14 A2985 270 80 600 330/06 RMK AO2 T01720139
13870KAMG AMG20160320034011703/20/16 03:40:31  5-MIN KAMG 200840Z AUTO 33007KT 10SM FEW075 BKN110 17/14 A2985 270 80 600 330/07 RMK AO2 T01720139
13870KAMG AMG20160320034511703/20/16 03:45:31  5-MIN KAMG 200845Z AUTO 32006KT 10SM FEW075 BKN110 17/14 A2985 260 80 600 320/06 RMK AO2 T01720139
13870KAMG AMG20160320035013003/20/16 03:50:31  5-MIN KAMG 200850Z AUTO 33006KT 10SM FEW075 BKN110 17/14 A2985 260 80 600 330/06 RMK AO2 SLP107 T01720139 55002
13870KAMG AMG20160320035511703/20/16 03:55:31  5-MIN KAMG 200855Z AUTO 32007KT 10SM SCT075 BKN110 17/13 A2986 260 78 600 330/07 RMK AO2 T01720133
13870KAMG AMG20160320040011703/20/16 04:00:31  5-MIN KAMG 200900Z AUTO 32006KT 10SM BKN075 OVC110 17/14 A2986 260 80 600 330/06 RMK AO2 T01720139
13870KAMG AMG20160320040511703/20/16 04:05:31  5-MIN KAMG 200905Z AUTO 33004KT 10SM BKN075 BKN110 17/14 A2985 260 80 600 330/04 RMK AO2 T01720139
13870KAMG AMG20160320041011703/20/16 04:10:31  5-MIN KAMG 200910Z AUTO 32005KT 10SM SCT075 BKN110 17/14 A2986 260 80 600 330/05 RMK AO2 T01720139
13870KAMG AMG20160320041511703/20/16 04:15:31  5-MIN KAMG 200915Z AUTO 32006KT 10SM SCT075 SCT110 17/13 A2986 260 78 600 330/06 RMK AO2 T01720133
13870KAMG AMG20160320042011703/20/16 04:20:31  5-MIN KAMG 200920Z AUTO 33006KT 10SM SCT075 BKN110 17/13 A2986 260 78 600 330/06 RMK AO2 T01720133
13870KAMG AMG20160320042511703/20/16 04:25:31  5-MIN KAMG 200925Z AUTO 33006KT 10SM FEW075 BKN110 17/13 A2986 260 75 600 330/06 RMK AO2 T01720128
13870KAMG AMG20160320043011703/20/16 04:30:31  5-MIN KAMG 200930Z AUTO 32006KT 10SM FEW075 BKN110 17/12 A2986 260 72 600 330/06 RMK AO2 T01720122
13870KAMG AMG20160320043511003/20/16 04:35:31  5-MIN KAMG 200935Z AUTO 34004KT 10SM BKN110 17/12 A2986 260 72 600 350/04 RMK AO2 T01720122
13870KAMG AMG20160320044011003/20/16 04:40:31  5-MIN KAMG 200940Z AUTO 35004KT 10SM BKN110 17/12 A2986 260 69 600 360/04 RMK AO2 T01720117
13870KAMG AMG20160320044511003/20/16 04:45:31  5-MIN KAMG 200945Z AUTO 32005KT 10SM OVC110 17/12 A2986 260 69 600 330/05 RMK AO2 T01720117
13870KAMG AMG20160320045011703/20/16 04:50:31  5-MIN KAMG 200950Z AUTO 33006KT 10SM OVC110 17/12 A2986 260 69 600 340/06 RMK AO2 SLP110 T01720117
13870KAMG AMG20160320045511003/20/16 04:55:31  5-MIN KAMG 200955Z AUTO 34005KT 10SM OVC110 17/11 A2986 250 67 600 340/05 RMK AO2 T01720111
13870KAMG AMG20160320050011003/20/16 05:00:31  5-MIN KAMG 201000Z AUTO VRB04KT 10SM OVC110 17/11 A2987 250 67 600 VRB/04 RMK AO2 T01720111
13870KAMG AMG20160320050511003/20/16 05:05:31  5-MIN KAMG 201005Z AUTO 33005KT 10SM OVC110 17/11 A2987 250 67 600 340/05 RMK AO2 T01720111
13870KAMG AMG20160320051011003/20/16 05:10:31  5-MIN KAMG 201010Z AUTO 34005KT 10SM BKN110 17/11 A2987 250 69 500 350/05 RMK AO2 T01670111
13870KAMG AMG20160320051511003/20/16 05:15:31  5-MIN KAMG 201015Z AUTO 33006KT 10SM BKN110 17/11 A2987 250 67 500 340/06 RMK AO2 T01670106
13870KAMG AMG20160320052011003/20/16 05:20:31  5-MIN KAMG 201020Z AUTO 33005KT 10SM BKN110 17/11 A2987 240 67 500 340/05 RMK AO2 T01670106
13870KAMG AMG20160320052511703/20/16 05:25:31  5-MIN KAMG 201025Z AUTO 33006KT 10SM FEW080 BKN110 17/11 A2988 240 67 500 340/06 RMK AO2 T01670106
13870KAMG AMG20160320053011703/20/16 05:30:31  5-MIN KAMG 201030Z AUTO 32004KT 10SM BKN080 BKN110 17/11 A2988 240 67 500 330/04 RMK AO2 T01670106
13870KAMG AMG20160320053511703/20/16 05:35:31  5-MIN KAMG 201035Z AUTO 31005KT 10SM BKN080 BKN110 17/11 A2988 240 67 500 320/05 RMK AO2 T01670106
13870KAMG AMG20160320054011703/20/16 05:40:31  5-MIN KAMG 201040Z AUTO 32005KT 10SM BKN080 BKN110 17/11 A2988 240 67 500 320/05 RMK AO2 T01670106
13870KAMG AMG20160320054511703/20/16 05:45:31  5-MIN KAMG 201045Z AUTO 32004KT 10SM BKN080 BKN120 17/11 A2988 240 67 500 320/04 RMK AO2 T01670106
13870KAMG AMG20160320055011703/20/16 05:50:31  5-MIN KAMG 201050Z AUTO 32005KT 10SM OVC080 17/11 A2989 230 69 500 320/05 RMK AO2 SLP118 T01670111
13870KAMG AMG20160320055511003/20/16 05:55:31  5-MIN KAMG 201055Z AUTO 32006KT 10SM OVC075 17/11 A2989 230 69 500 320/06 RMK AO2 T01670111
13870KAMG AMG20160320060011003/20/16 06:00:31  5-MIN KAMG 201100Z AUTO 32005KT 10SM OVC080 17/11 A2989 230 69 500 330/05 RMK AO2 T01670111
13870KAMG AMG20160320060511003/20/16 06:05:31  5-MIN KAMG 201105Z AUTO 31004KT 10SM OVC080 16/11 A2989 230 72 500 320/04 RMK AO2 T01610111
13870KAMG AMG20160320061011003/20/16 06:10:31  5-MIN KAMG 201110Z AUTO 31005KT 10SM OVC080 16/12 A2989 230 75 500 320/05 RMK AO2 T01610117
13870KAMG AMG20160320061511003/20/16 06:15:31  5-MIN KAMG 201115Z AUTO 31005KT 10SM OVC080 16/12 A2989 230 75 500 320/05 RMK AO2 T01610117
13870KAMG AMG20160320062011003/20/16 06:20:31  5-MIN KAMG 201120Z AUTO 31006KT 10SM OVC080 16/12 A2990 220 75 400 320/06 RMK AO2 T01610117
13870KAMG AMG20160320062511003/20/16 06:25:31  5-MIN KAMG 201125Z AUTO 31008KT 10SM OVC080 16/12 A2990 220 75 400 320/08 RMK AO2 T01610117
13870KAMG AMG20160320063011003/20/16 06:30:31  5-MIN KAMG 201130Z AUTO 32008KT 10SM OVC080 16/11 A2990 220 72 400 330/08 RMK AO2 T01610111
13870KAMG AMG20160320063511003/20/16 06:35:31  5-MIN KAMG 201135Z AUTO 32007KT 10SM OVC080 16/11 A2990 220 72 400 320/07 RMK AO2 T01610111
13870KAMG AMG20160320064011003/20/16 06:40:31  5-MIN KAMG 201140Z AUTO 33006KT 10SM OVC085 16/11 A2990 220 72 400 330/06 RMK AO2 T01610111
13870KAMG AMG20160320064511003/20/16 06:45:31  5-MIN KAMG 201145Z AUTO 32006KT 10SM OVC085 16/11 A2991 210 72 400 330/06 RMK AO2 T01610111
13870KAMG AMG20160320065014903/20/16 06:50:31  5-MIN KAMG 201150Z AUTO 32008KT 10SM FEW050 BKN080 OVC100 16/11 A2991 210 72 400 320/08 RMK AO2 SLP127 T01610111 10178 20161 55000
13870KAMG AMG20160320065512303/20/16 06:55:31  5-MIN KAMG 201155Z AUTO 33007KT 7SM FEW050 BKN080 OVC100 16/11 A2991 210 74 400 330/07 RMK AO2 T01560111
13870KAMG AMG20160320070014003/20/16 07:00:31  5-MIN KAMG 201200Z AUTO 32005KT 3SM RA FEW050 BKN090 OVC100 15/12 A2992 210 80 300 320/05 RMK AO2 RAB1157 P0000 T01500117
13870KAMG AMG20160320070514103/20/16 07:05:31  5-MIN KAMG 201205Z AUTO 30003KT 3SM -RA FEW050 SCT080 OVC095 15/12 A2992 210 83 300 310/03 RMK AO2 RAB1157 P0000 T01500122
13870KAMG AMG20160320071014103/20/16 07:10:31  5-MIN KAMG 201210Z AUTO 00000KT 8SM -RA FEW055 SCT070 OVC090 14/12 A2992 210 86 200 000/00 RMK AO2 RAB1157 P0000 T01440122
13870KAMG AMG20160320071514103/20/16 07:15:31  5-MIN KAMG 201215Z AUTO 00000KT 10SM SCT060 BKN075 OVC095 14/13 A2991 210 90 200 000/00 RMK AO2 RAB1157E11 P0000 T01440128
13870KAMG AMG20160320072015303/20/16 07:20:31  5-MIN KAMG 201220Z AUTO 30003KT 10SM BKN065 BKN085 OVC100 14/13 A2992 200 90 200 310/03 RMK AO2 LTG DSNT NE RAB1157E11 P0000 T01440128
13870KAMG AMG20160320072514603/20/16 07:25:31  5-MIN KAMG 201225Z AUTO 34003KT 10SM BKN065 OVC085 15/12 A2992 200 83 300 340/03 RMK AO2 LTG DSNT NE RAB1157E11 P0000 T01500122
13870KAMG AMG20160320073014603/20/16 07:30:31  5-MIN KAMG 201230Z AUTO 33004KT 10SM BKN065 OVC085 15/12 A2993 200 83 300 330/04 RMK AO2 LTG DSNT NE RAB1157E11 P0000 T01500122
13870KAMG AMG20160320073515303/20/16 07:35:31  5-MIN KAMG 201235Z AUTO 33005KT 10SM SCT065 BKN075 OVC110 15/11 A2993 200 77 300 330/05 RMK AO2 LTG DSNT NE RAB1157E11 P0000 T01500111
13870KAMG AMG20160320074015303/20/16 07:40:31  5-MIN KAMG 201240Z AUTO 31005KT 10SM SCT060 BKN075 BKN095 15/12 A2993 190 80 300 320/05 RMK AO2 LTG DSNT NE RAB1157E11 P0000 T01500117
13870KAMG AMG20160320074515303/20/16 07:45:31  5-MIN KAMG 201245Z AUTO 31005KT 10SM BKN060 BKN075 BKN110 16/12 A2993 190 77 300 320/05 RMK AO2 LTG DSNT NE RAB1157E11 P0000 T01560117
13870KAMG AMG20160320075014803/20/16 07:50:31  5-MIN KAMG 201250Z AUTO 30004KT 10SM BKN060 BKN070 OVC110 16/12 A2993 190 77 300 310/04 RMK AO2 RAB1157E11 SLP133 P0000 T01560117
13870KAMG AMG20160320075512403/20/16 07:55:31  5-MIN KAMG 201255Z AUTO 32008KT 10SM BKN060 BKN070 BKN110 16/11 A2993 190 74 300 330/08 RMK AO2 T01560111
13870KAMG AMG20160320080011003/20/16 08:00:31  5-MIN KAMG 201300Z AUTO 33009KT 10SM BKN060 16/11 A2993 200 72 300 330/09 RMK AO2 T01560106
13870KAMG AMG20160320080511003/20/16 08:05:31  5-MIN KAMG 201305Z AUTO 33007KT 10SM OVC060 16/11 A2993 190 72 300 330/07 RMK AO2 T01560106
13870KAMG AMG20160320081011703/20/16 08:10:31  5-MIN KAMG 201310Z AUTO 33009KT 10SM BKN060 BKN080 16/10 A2993 200 69 300 330/09 RMK AO2 T01560100
13870KAMG AMG20160320081511703/20/16 08:15:31  5-MIN KAMG 201315Z AUTO 33008KT 10SM BKN065 BKN080 16/09 A2993 200 67 300 330/08 RMK AO2 T01560094
13870KAMG AMG20160320082011703/20/16 08:20:31  5-MIN KAMG 201320Z AUTO 33008KT 10SM SCT065 BKN080 15/09 A2993 200 66 300 330/08 RMK AO2 T01500089
13870KAMG AMG20160320082511703/20/16 08:25:31  5-MIN KAMG 201325Z AUTO 33010KT 10SM SCT065 SCT080 16/09 A2993 200 64 300 330/10 RMK AO2 T01560089
13870KAMG AMG20160320083011703/20/16 08:30:31  5-MIN KAMG 201330Z AUTO 32011KT 10SM FEW065 SCT080 16/08 A2992 200 62 300 330/11 RMK AO2 T01560083
13870KAMG AMG20160320083511703/20/16 08:35:31  5-MIN KAMG 201335Z AUTO 34010KT 10SM FEW060 SCT080 16/08 A2992 200 59 400 350/10 RMK AO2 T01610083
13870KAMG AMG20160320084011603/20/16 08:40:31  5-MIN KAMG 201340Z AUTO 33010G15KT 10SM SCT060 16/08 A2993 200 59 400 340/10G15 RMK AO2 T01610083
13870KAMG AMG20160320084511603/20/16 08:45:31  5-MIN KAMG 201345Z AUTO 33010G15KT 10SM SCT060 16/08 A2993 200 57 400 330/10G15 RMK AO2 T01610078
13870KAMG AMG20160320085011703/20/16 08:50:31  5-MIN KAMG 201350Z AUTO 34009KT 10SM SCT060 16/08 A2993 190 57 400 340/09 RMK AO2 SLP133 T01610078
13870KAMG AMG20160320085511003/20/16 08:55:31  5-MIN KAMG 201355Z AUTO 33011KT 10SM SCT060 17/07 A2993 190 53 500 340/11 RMK AO2 T01670072
13870KAMG AMG20160320090011003/20/16 09:00:31  5-MIN KAMG 201400Z AUTO 32011KT 10SM SCT060 16/07 A2993 190 53 400 330/11 RMK AO2 T01610067
13870KAMG AMG20160320090511003/20/16 09:05:31  5-MIN KAMG 201405Z AUTO 32011KT 10SM FEW060 16/07 A2994 190 55 400 320/11 RMK AO2 T01610072
13870KAMG AMG20160320091011703/20/16 09:10:31  5-MIN KAMG 201410Z AUTO 34008KT 10SM FEW060 SCT070 17/07 A2993 190 53 500 340/08 RMK AO2 T01670072
13870KAMG AMG20160320091511703/20/16 09:15:31  5-MIN KAMG 201415Z AUTO 31009KT 10SM FEW060 FEW070 17/07 A2994 190 53 500 320/09 RMK AO2 T01670072
13870KAMG AMG20160320092011003/20/16 09:20:31  5-MIN KAMG 201420Z AUTO 34008KT 10SM FEW065 17/07 A2993 190 49 500 340/08 RMK AO2 T01720067
13870KAMG AMG20160320092511003/20/16 09:25:31  5-MIN KAMG 201425Z AUTO 32009KT 10SM FEW065 17/07 A2994 190 51 500 330/09 RMK AO2 T01670067
13870KAMG AMG20160320093011003/20/16 09:30:31  5-MIN KAMG 201430Z AUTO 36008KT 10SM FEW065 17/07 A2994 190 51 500 360/08 RMK AO2 T01720072
13870KAMG AMG20160320093511703/20/16 09:35:31  5-MIN KAMG 201435Z AUTO 33006KT 10SM SCT065 SCT080 17/07 A2994 190 53 500 330/06 RMK AO2 T01670072
13870KAMG AMG20160320094011703/20/16 09:40:31  5-MIN KAMG 201440Z AUTO VRB04KT 10SM FEW065 SCT080 17/07 A2994 180 53 500 VRB/04 RMK AO2 T01670072
13870KAMG AMG20160320094511703/20/16 09:45:31  5-MIN KAMG 201445Z AUTO 32006KT 10SM FEW065 SCT080 17/07 A2994 180 51 500 330/06 RMK AO2 T01720072
13870KAMG AMG20160320095014303/20/16 09:50:31  5-MIN KAMG 201450Z AUTO 32007KT 10SM FEW045 SCT065 SCT080 18/08 A2994 190 51 600 330/07 RMK AO2 SLP135 60000 T01780078 53019
13870KAMG AMG20160320095511703/20/16 09:55:31  5-MIN KAMG 201455Z AUTO 33005KT 10SM FEW045 BKN070 18/07 A2994 190 49 600 340/05 RMK AO2 T01780072
13870KAMG AMG20160320100011703/20/16 10:00:31  5-MIN KAMG 201500Z AUTO 32008KT 10SM FEW045 BKN075 17/07 A2994 190 49 500 320/08 RMK AO2 T01720067
13870KAMG AMG20160320100511703/20/16 10:05:31  5-MIN KAMG 201505Z AUTO 33005KT 10SM FEW044 BKN075 17/07 A2994 190 49 500 330/05 RMK AO2 T01720067
13870KAMG AMG20160320101011703/20/16 10:10:31  5-MIN KAMG 201510Z AUTO VRB05KT 10SM FEW044 BKN075 17/07 A2994 180 51 500 VRB/05 RMK AO2 T01720072
13870KAMG AMG20160320101511703/20/16 10:15:31  5-MIN KAMG 201515Z AUTO 33006KT 10SM FEW044 BKN075 17/07 A2994 180 51 500 340/06 RMK AO2 T01720072
13870KAMG AMG20160320102011003/20/16 10:20:31  5-MIN KAMG 201520Z AUTO 34007KT 10SM SCT075 18/08 A2994 190 50 700 340/07 RMK AO2 T01830078
13870KAMG AMG20160320102511003/20/16 10:25:31  5-MIN KAMG 201525Z AUTO 29007KT 10SM BKN075 18/07 A2994 180 49 600 300/07 RMK AO2 T01780072
13870KAMG AMG20160320103011003/20/16 10:30:31  5-MIN KAMG 201530Z AUTO VRB04KT 10SM BKN075 17/07 A2994 180 51 500 VRB/04 RMK AO2 T01720072
13870KAMG AMG20160320103511003/20/16 10:35:31  5-MIN KAMG 201535Z AUTO 32007KT 10SM BKN075 18/08 A2994 180 50 700 330/07 RMK AO2 T01830078
13870KAMG AMG20160320104012603/20/16 10:40:31  5-MIN KAMG 201540Z AUTO 30008KT 270V330 10SM BKN075 18/07 A2994 180 49 600 300/08 280V340 RMK AO2 T01780072
13870KAMG AMG20160320104511003/20/16 10:45:31  5-MIN KAMG 201545Z AUTO 33006KT 10SM BKN075 18/07 A2995 180 48 700 330/06 RMK AO2 T01830072
13870KAMG AMG20160320105011703/20/16 10:50:31  5-MIN KAMG 201550Z AUTO 35005KT 10SM BKN075 18/07 A2994 180 48 700 360/05 RMK AO2 SLP138 T01830072
13870KAMG AMG20160320105511003/20/16 10:55:31  5-MIN KAMG 201555Z AUTO 30008KT 10SM OVC075 19/08 A2994 180 48 700 310/08 RMK AO2 T01890078
13870KAMG AMG20160320110011003/20/16 11:00:31  5-MIN KAMG 201600Z AUTO 33007KT 10SM OVC075 18/07 A2994 180 48 700 330/07 RMK AO2 T01830072
13870KAMG AMG20160320110511003/20/16 11:05:31  5-MIN KAMG 201605Z AUTO 32008KT 10SM OVC075 19/08 A2994 190 48 700 330/08 RMK AO2 T01890078
13870KAMG AMG20160320111011003/20/16 11:10:31  5-MIN KAMG 201610Z AUTO 33005KT 10SM OVC075 18/08 A2993 190 50 700 340/05 RMK AO2 T01830078
13870KAMG AMG20160320111511003/20/16 11:15:31  5-MIN KAMG 201615Z AUTO 33006KT 10SM OVC075 18/08 A2993 190 50 700 330/06 RMK AO2 T01830078
13870KAMG AMG20160320112011003/20/16 11:20:31  5-MIN KAMG 201620Z AUTO 30007KT 10SM OVC075 18/08 A2993 190 50 700 300/07 RMK AO2 T01830078
13870KAMG AMG20160320112511003/20/16 11:25:31  5-MIN KAMG 201625Z AUTO 30006KT 10SM BKN080 18/08 A2993 200 50 700 310/06 RMK AO2 T01830078
13870KAMG AMG20160320113011003/20/16 11:30:31  5-MIN KAMG 201630Z AUTO 28003KT 10SM OVC080 18/07 A2993 200 48 700 290/03 RMK AO2 T01830072
13870KAMG AMG20160320113511003/20/16 11:35:31  5-MIN KAMG 201635Z AUTO 27005KT 10SM OVC080 18/07 A2992 200 48 700 270/05 RMK AO2 T01830072
13870KAMG AMG20160320114011003/20/16 11:40:31  5-MIN KAMG 201640Z AUTO VRB05KT 10SM OVC080 18/08 A2992 200 50 700 VRB/05 RMK AO2 T01830078
13870KAMG AMG20160320114511003/20/16 11:45:31  5-MIN KAMG 201645Z AUTO VRB06KT 10SM BKN080 19/08 A2992 200 48 700 VRB/06 RMK AO2 T01890078
13870KAMG AMG20160320115011703/20/16 11:50:31  5-MIN KAMG 201650Z AUTO VRB04KT 10SM BKN080 19/08 A2992 200 46 800 VRB/04 RMK AO2 SLP129 T01940078
13870KAMG AMG20160320115512603/20/16 11:55:31  5-MIN KAMG 201655Z AUTO 26007KT 210V280 10SM BKN080 19/08 A2991 210 48 800 260/07 220V290 RMK AO2 T01940083
13870KAMG AMG20160320120011003/20/16 12:00:31  5-MIN KAMG 201700Z AUTO 28003KT 10SM SCT080 19/08 A2991 210 46 800 290/03 RMK AO2 T01940078
13870KAMG AMG20160320120511003/20/16 12:05:31  5-MIN KAMG 201705Z AUTO VRB03KT 10SM FEW080 20/08 A2991 210 46 900 VRB/03 RMK AO2 T02000083
13870KAMG AMG20160320121010003/20/16 12:10:31  5-MIN KAMG 201710Z AUTO 10SM FEW080 19/08 A2990 220 46 800 M /M RMK AO2 T01940078
13870KAMG AMG20160320121510703/20/16 12:15:31  5-MIN KAMG 201715Z AUTO VRB06KT 10SM CLR 20/08 A2990 220 46 900 VRB/06 RMK AO2 T02000083
13870KAMG AMG20160320122010703/20/16 12:20:31  5-MIN KAMG 201720Z AUTO VRB04KT 10SM CLR 20/08 A2990 220 46 900 VRB/04 RMK AO2 T02000083
13870KAMG AMG20160320122510703/20/16 12:25:31  5-MIN KAMG 201725Z AUTO VRB04KT 10SM CLR 20/08 A2990 220 46 900 VRB/04 RMK AO2 T02000083
13870KAMG AMG20160320123010803/20/16 12:30:31  5-MIN KAMG 201730Z AUTO 24006KT 10SM CLR 21/08 A2990 230 45 1000 250/06 RMK AO2 T02060083
13870KAMG AMG20160320123510803/20/16 12:35:31  5-MIN KAMG 201735Z AUTO 23008KT 10SM CLR 21/08 A2989 230 45 1000 240/08 RMK AO2 T02060083
13870KAMG AMG20160320124010803/20/16 12:40:31  5-MIN KAMG 201740Z AUTO 24009KT 10SM CLR 21/08 A2989 230 43 1000 240/09 RMK AO2 T02110083
13870KAMG AMG20160320124510803/20/16 12:45:31  5-MIN KAMG 201745Z AUTO 24009KT 10SM CLR 21/08 A2989 230 43 1000 240/09 RMK AO2 T02110083
13870KAMG AMG20160320125013903/20/16 12:50:31  5-MIN KAMG 201750Z AUTO 28008KT 10SM CLR 21/09 A2988 240 45 1000 290/08 RMK AO2 SLP116 60000 T02110089 10211 20144 51008
13870KAMG AMG20160320125511403/20/16 12:55:31  5-MIN KAMG 201755Z AUTO 30008G16KT 10SM CLR 21/08 A2988 240 43 1000 310/08G16 RMK AO2 T02110083
13870KAMG AMG20160320130010803/20/16 13:00:31  5-MIN KAMG 201800Z AUTO 30010KT 10SM CLR 22/09 A2988 240 43 1100 300/10 RMK AO2 T02170089
13870KAMG AMG20160320130511403/20/16 13:05:31  5-MIN KAMG 201805Z AUTO 28013G17KT 10SM CLR 21/08 A2988 240 43 1000 280/13G17 RMK AO2 T02110083
13870KAMG AMG20160320131011403/20/16 13:10:31  5-MIN KAMG 201810Z AUTO 29007G17KT 10SM CLR 22/09 A2988 240 43 1100 290/07G17 RMK AO2 T02170089
13870KAMG AMG20160320131510803/20/16 13:15:31  5-MIN KAMG 201815Z AUTO 29011KT 10SM CLR 22/09 A2987 250 43 1100 300/11 RMK AO2 T02170089
13870KAMG AMG20160320132010803/20/16 13:20:31  5-MIN KAMG 201820Z AUTO 31011KT 10SM CLR 22/09 A2987 250 43 1100 310/11 RMK AO2 T02170089
13870KAMG AMG20160320132511403/20/16 13:25:31  5-MIN KAMG 201825Z AUTO 31010G18KT 10SM CLR 22/09 A2987 250 43 1100 320/10G18 RMK AO2 T02170089
13870KAMG AMG20160320133011403/20/16 13:30:31  5-MIN KAMG 201830Z AUTO 33013G18KT 10SM CLR 22/08 A2987 250 42 1100 330/13G18 RMK AO2 T02170083
13870KAMG AMG20160320133511403/20/16 13:35:31  5-MIN KAMG 201835Z AUTO 28012G18KT 10SM CLR 22/09 A2987 250 43 1100 280/12G18 RMK AO2 T02170089
13870KAMG AMG20160320134011403/20/16 13:40:31  5-MIN KAMG 201840Z AUTO 31009G18KT 10SM CLR 21/08 A2986 260 43 1100 310/09G18 RMK AO2 T02110083
13870KAMG AMG20160320134510803/20/16 13:45:31  5-MIN KAMG 201845Z AUTO 30013KT 10SM CLR 22/09 A2986 260 43 1100 300/13 RMK AO2 T02170089
13870KAMG AMG20160320135011503/20/16 13:50:31  5-MIN KAMG 201850Z AUTO 29010KT 10SM CLR 21/08 A2986 260 43 1100 290/10 RMK AO2 SLP110 T02110083
13870KAMG AMG20160320135510803/20/16 13:55:31  5-MIN KAMG 201855Z AUTO 29014KT 10SM CLR 21/08 A2986 260 43 1100 290/14 RMK AO2 T02110083
13870KAMG AMG20160320140011403/20/16 14:00:31  5-MIN KAMG 201900Z AUTO 30013G18KT 10SM CLR 22/09 A2986 260 43 1100 300/13G18 RMK AO2 T02170089
13870KAMG AMG20160320140510803/20/16 14:05:31  5-MIN KAMG 201905Z AUTO 31010KT 10SM CLR 22/09 A2986 260 43 1100 310/10 RMK AO2 T02170089
13870KAMG AMG20160320141010803/20/16 14:10:31  5-MIN KAMG 201910Z AUTO 26014KT 10SM CLR 21/08 A2986 260 43 1100 270/14 RMK AO2 T02110083
13870KAMG AMG20160320141511403/20/16 14:15:31  5-MIN KAMG 201915Z AUTO 28013G21KT 10SM CLR 21/08 A2986 260 43 1100 290/13G21 RMK AO2 T02110083
13870KAMG AMG20160320142011403/20/16 14:20:31  5-MIN KAMG 201920Z AUTO 29010G21KT 10SM CLR 21/08 A2986 260 45 1000 300/10G21 RMK AO2 T02060083
13870KAMG AMG20160320142511403/20/16 14:25:31  5-MIN KAMG 201925Z AUTO 28013G17KT 10SM CLR 21/08 A2986 260 43 1100 290/13G17 RMK AO2 T02110083
13870KAMG AMG20160320143010803/20/16 14:30:31  5-MIN KAMG 201930Z AUTO 28011KT 10SM CLR 21/08 A2985 260 43 1100 290/11 RMK AO2 T02110083
13870KAMG AMG20160320143510803/20/16 14:35:31  5-MIN KAMG 201935Z AUTO 33012KT 10SM CLR 21/08 A2985 270 43 1100 330/12 RMK AO2 T02110083
13870KAMG AMG20160320144011403/20/16 14:40:31  5-MIN KAMG 201940Z AUTO 28012G20KT 10SM CLR 21/08 A2985 260 43 1100 290/12G20 RMK AO2 T02110083
13870KAMG AMG20160320144511403/20/16 14:45:31  5-MIN KAMG 201945Z AUTO 30012G20KT 10SM CLR 21/08 A2985 260 42 1100 310/12G20 RMK AO2 T02110078
13870KAMG AMG20160320145012103/20/16 14:50:31  5-MIN KAMG 201950Z AUTO 31013G18KT 10SM CLR 21/08 A2985 270 42 1100 320/13G18 RMK AO2 SLP106 T02110078
13870KAMG AMG20160320145511403/20/16 14:55:31  5-MIN KAMG 201955Z AUTO 28014G19KT 10SM CLR 21/08 A2985 270 42 1100 290/14G19 RMK AO2 T02110078
13870KAMG AMG20160320150011403/20/16 15:00:31  5-MIN KAMG 202000Z AUTO 30012G20KT 10SM CLR 21/08 A2985 270 43 1000 300/12G20 RMK AO2 T02060078
13870KAMG AMG20160320150511403/20/16 15:05:31  5-MIN KAMG 202005Z AUTO 29014G20KT 10SM CLR 21/08 A2985 270 42 1100 300/14G20 RMK AO2 T02110078
13870KAMG AMG20160320151011403/20/16 15:10:31  5-MIN KAMG 202010Z AUTO 30010G20KT 10SM CLR 21/07 A2985 270 41 1000 310/10G20 RMK AO2 T02060072
13870KAMG AMG20160320151510803/20/16 15:15:31  5-MIN KAMG 202015Z AUTO 28012KT 10SM CLR 21/07 A2985 260 40 1100 290/12 RMK AO2 T02110072
13870KAMG AMG20160320152011403/20/16 15:20:31  5-MIN KAMG 202020Z AUTO 28015G21KT 10SM CLR 21/07 A2985 260 40 1100 280/15G21 RMK AO2 T02110072
13870KAMG AMG20160320152511403/20/16 15:25:31  5-MIN KAMG 202025Z AUTO 27014G21KT 10SM CLR 21/07 A2986 260 40 1000 280/14G21 RMK AO2 T02060067
13870KAMG AMG20160320153010803/20/16 15:30:31  5-MIN KAMG 202030Z AUTO 27014KT 10SM CLR 21/06 A2986 260 38 1000 280/14 RMK AO2 T02060061
13870KAMG AMG20160320153511403/20/16 15:35:31  5-MIN KAMG 202035Z AUTO 27013G21KT 10SM CLR 21/06 A2985 260 38 1000 280/13G21 RMK AO2 T02060061
13870KAMG AMG20160320154011303/20/16 15:40:31  5-MIN KAMG 202040Z AUTO 27011G21KT 10SM CLR 20/06 A2986 260 38 900 280/11G21 RMK AO2 T02000056
13870KAMG AMG20160320154510803/20/16 15:45:31  5-MIN KAMG 202045Z AUTO 29010KT 10SM CLR 21/06 A2986 260 38 1000 290/10 RMK AO2 T02060061
13870KAMG AMG20160320155012703/20/16 15:50:31  5-MIN KAMG 202050Z AUTO 30012G21KT 10SM CLR 21/06 A2985 270 37 1000 310/12G21 RMK AO2 SLP106 T02060056 58018
13870KAMG AMG20160320155511403/20/16 15:55:31  5-MIN KAMG 202055Z AUTO 31011G21KT 10SM CLR 21/06 A2985 260 37 1000 320/11G21 RMK AO2 T02060056
13870KAMG AMG20160320160011403/20/16 16:00:31  5-MIN KAMG 202100Z AUTO 29013G21KT 10SM CLR 21/05 A2985 260 35 1000 300/13G21 RMK AO2 T02060050
13870KAMG AMG20160320160511303/20/16 16:05:31  5-MIN KAMG 202105Z AUTO 28011G21KT 10SM CLR 20/05 A2986 260 37 900 290/11G21 RMK AO2 T02000050
13870KAMG AMG20160320161011303/20/16 16:10:31  5-MIN KAMG 202110Z AUTO 30012G22KT 10SM CLR 20/04 A2986 260 35 900 310/12G22 RMK AO2 T02000044
13870KAMG AMG20160320161511303/20/16 16:15:31  5-MIN KAMG 202115Z AUTO 29008G22KT 10SM CLR 20/04 A2985 260 34 900 290/08G22 RMK AO2 T02000039
13870KAMG AMG20160320162010803/20/16 16:20:31  5-MIN KAMG 202120Z AUTO 29009KT 10SM CLR 21/04 A2986 260 33 1000 300/09 RMK AO2 T02060039
13870KAMG AMG20160320162511403/20/16 16:25:31  5-MIN KAMG 202125Z AUTO 28010G18KT 10SM CLR 21/03 A2986 260 30 1000 280/10G18 RMK AO2 T02060028
13870KAMG AMG20160320163011303/20/16 16:30:31  5-MIN KAMG 202130Z AUTO 28014G21KT 10SM CLR 20/01 A2987 250 28 900 290/14G21 RMK AO2 T02000011
13870KAMG AMG20160320163511303/20/16 16:35:31  5-MIN KAMG 202135Z AUTO 28011G21KT 10SM CLR 20/01 A2987 250 27 900 280/11G21 RMK AO2 T02000006
13870KAMG AMG20160320164011303/20/16 16:40:31  5-MIN KAMG 202140Z AUTO 27009G20KT 10SM CLR 19/01 A2987 250 29 800 270/09G20 RMK AO2 T01890006
13870KAMG AMG20160320164511603/20/16 16:45:31  5-MIN KAMG 202145Z AUTO 28011G20KT 10SM FEW065 19/01 A2987 250 28 900 280/11G20 RMK AO2 T01940006
13870KAMG AMG20160320165012303/20/16 16:50:31  5-MIN KAMG 202150Z AUTO 28010G19KT 10SM BKN070 20/02 A2987 250 29 900 290/10G19 RMK AO2 SLP114 T02000017
13870KAMG AMG20160320165511603/20/16 16:55:31  5-MIN KAMG 202155Z AUTO 29007G15KT 10SM BKN070 19/02 A2987 240 30 900 290/07G15 RMK AO2 T01940017
13870KAMG AMG20160320170011603/20/16 17:00:31  5-MIN KAMG 202200Z AUTO 28010G16KT 10SM SCT070 19/02 A2987 250 31 800 290/10G16 RMK AO2 T01890017
13870KAMG AMG20160320170511603/20/16 17:05:31  5-MIN KAMG 202205Z AUTO 29014G18KT 10SM SCT070 18/01 A2988 240 31 700 290/14G18 RMK AO2 T01830011
13870KAMG AMG20160320171011003/20/16 17:10:31  5-MIN KAMG 202210Z AUTO 29012KT 10SM SCT070 18/01 A2988 240 31 700 300/12 RMK AO2 T01830011
13870KAMG AMG20160320171512603/20/16 17:15:31  5-MIN KAMG 202215Z AUTO 28010KT 240V310 10SM BKN075 18/01 A2988 240 31 700 290/10 250V320 RMK AO2 T01830011
13870KAMG AMG20160320172011003/20/16 17:20:31  5-MIN KAMG 202220Z AUTO 30011KT 10SM BKN075 18/02 A2988 240 32 700 310/11 RMK AO2 T01830017
13870KAMG AMG20160320172511003/20/16 17:25:31  5-MIN KAMG 202225Z AUTO 28010KT 10SM BKN080 19/02 A2988 240 31 800 280/10 RMK AO2 T01890017
13870KAMG AMG20160320173011003/20/16 17:30:31  5-MIN KAMG 202230Z AUTO 29012KT 10SM BKN080 19/01 A2989 230 30 800 290/12 RMK AO2 T01890011
13870KAMG AMG20160320173511003/20/16 17:35:31  5-MIN KAMG 202235Z AUTO 28012KT 10SM BKN080 18/01 A2989 230 31 700 290/12 RMK AO2 T01830011
13870KAMG AMG20160320174011003/20/16 17:40:31  5-MIN KAMG 202240Z AUTO 28009KT 10SM BKN080 18/01 A2989 230 32 600 280/09 RMK AO2 T01780011
13870KAMG AMG20160320174511003/20/16 17:45:31  5-MIN KAMG 202245Z AUTO 29008KT 10SM BKN080 18/01 A2989 230 32 600 300/08 RMK AO2 T01780011
13870KAMG AMG20160320175011703/20/16 17:50:31  5-MIN KAMG 202250Z AUTO 29009KT 10SM BKN080 18/02 A2990 230 33 600 300/09 RMK AO2 SLP121 T01780017
13870KAMG AMG20160320175511003/20/16 17:55:31  5-MIN KAMG 202255Z AUTO 28009KT 10SM BKN080 18/02 A2990 220 33 600 280/09 RMK AO2 T01780017
13870KAMG AMG20160320180011003/20/16 18:00:31  5-MIN KAMG 202300Z AUTO 27007KT 10SM SCT080 17/02 A2990 220 35 600 280/07 RMK AO2 T01720017
13870KAMG AMG20160320180511003/20/16 18:05:31  5-MIN KAMG 202305Z AUTO 28006KT 10SM SCT080 17/02 A2990 220 36 600 280/06 RMK AO2 T01720022
13870KAMG AMG20160320181011003/20/16 18:10:31  5-MIN KAMG 202310Z AUTO 27007KT 10SM FEW080 17/02 A2991 220 36 600 270/07 RMK AO2 T01720022
13870KAMG AMG20160320181511003/20/16 18:15:31  5-MIN KAMG 202315Z AUTO 27007KT 10SM FEW080 17/02 A2991 220 37 500 270/07 RMK AO2 T01670022
13870KAMG AMG20160320182010703/20/16 18:20:31  5-MIN KAMG 202320Z AUTO 28006KT 10SM CLR 17/02 A2991 210 37 500 280/06 RMK AO2 T01670022
13870KAMG AMG20160320182510703/20/16 18:25:31  5-MIN KAMG 202325Z AUTO 28007KT 10SM CLR 17/03 A2991 210 39 500 280/07 RMK AO2 T01670028
13870KAMG AMG20160320183010703/20/16 18:30:31  5-MIN KAMG 202330Z AUTO 28007KT 10SM CLR 17/03 A2991 210 39 500 290/07 RMK AO2 T01670028
13870KAMG AMG20160320183510703/20/16 18:35:31  5-MIN KAMG 202335Z AUTO 28007KT 10SM CLR 16/03 A2991 210 40 400 290/07 RMK AO2 T01610028
13870KAMG AMG20160320184010703/20/16 18:40:31  5-MIN KAMG 202340Z AUTO 29008KT 10SM CLR 16/03 A2992 210 40 400 290/08 RMK AO2 T01610028
13870KAMG AMG20160320184510703/20/16 18:45:31  5-MIN KAMG 202345Z AUTO 29009KT 10SM CLR 16/03 A2992 210 40 400 300/09 RMK AO2 T01610028
13870KAMG AMG20160320185013203/20/16 18:50:31  5-MIN KAMG 202350Z AUTO 29010KT 10SM CLR 16/02 A2992 200 39 400 290/10 RMK AO2 SLP130 T01610022 10217 20161 56009
13870KAMG AMG20160320185510703/20/16 18:55:31  5-MIN KAMG 202355Z AUTO 29008KT 10SM CLR 16/03 A2992 200 40 400 300/08 RMK AO2 T01610028
13870KAMG AMG20160320190011303/20/16 19:00:31  5-MIN KAMG 210000Z AUTO 31011G18KT 10SM CLR 16/03 A2993 200 40 400 310/11G18 RMK AO2 T01610028
13870KAMG AMG20160320190511303/20/16 19:05:31  5-MIN KAMG 210005Z AUTO 31013G18KT 10SM CLR 16/03 A2993 190 40 400 320/13G18 RMK AO2 T01610028
13870KAMG AMG20160320191011303/20/16 19:10:31  5-MIN KAMG 210010Z AUTO 32013G20KT 10SM CLR 16/02 A2994 190 40 300 320/13G20 RMK AO2 T01560022
13870KAMG AMG20160320191511303/20/16 19:15:31  5-MIN KAMG 210015Z AUTO 31012G20KT 10SM CLR 16/02 A2994 180 39 300 320/12G20 RMK AO2 T01560017
13870KAMG AMG20160320192010703/20/16 19:20:31  5-MIN KAMG 210020Z AUTO 31012KT 10SM CLR 16/02 A2994 180 39 300 320/12 RMK AO2 T01560017
13870KAMG AMG20160320192510703/20/16 19:25:31  5-MIN KAMG 210025Z AUTO 31012KT 10SM CLR 15/02 A2995 180 40 300 320/12 RMK AO2 T01500017
13870KAMG AMG20160320193010703/20/16 19:30:31  5-MIN KAMG 210030Z AUTO 31012KT 10SM CLR 15/01 A2995 170 38 300 310/12 RMK AO2 T01500011
13870KAMG AMG20160320193510703/20/16 19:35:31  5-MIN KAMG 210035Z AUTO 30011KT 10SM CLR 15/01 A2995 170 38 300 310/11 RMK AO2 T01500011
13870KAMG AMG20160320194010703/20/16 19:40:31  5-MIN KAMG 210040Z AUTO 30010KT 10SM CLR 15/01 A2996 170 37 200 310/10 RMK AO2 T01500006
13870KAMG AMG20160320194510703/20/16 19:45:31  5-MIN KAMG 210045Z AUTO 31009KT 10SM CLR 14/01 A2996 170 40 200 320/09 RMK AO2 T01440011
13870KAMG AMG20160320195011403/20/16 19:50:31  5-MIN KAMG 210050Z AUTO 30010KT 10SM CLR 14/01 A2996 170 38 200 310/10 RMK AO2 SLP144 T01440006
13870KAMG AMG20160320195510703/20/16 19:55:31  5-MIN KAMG 210055Z AUTO 31011KT 10SM CLR 14/01 A2996 160 38 200 320/11 RMK AO2 T01440006
13870KAMG AMG20160320200010703/20/16 20:00:31  5-MIN KAMG 210100Z AUTO 31009KT 10SM CLR 14/01 A2997 160 38 200 310/09 RMK AO2 T01440006
13870KAMG AMG20160320200510703/20/16 20:05:31  5-MIN KAMG 210105Z AUTO 31008KT 10SM CLR 14/01 A2997 160 40 100 310/08 RMK AO2 T01390006
13870KAMG AMG20160320201010703/20/16 20:10:31  5-MIN KAMG 210110Z AUTO 30009KT 10SM CLR 14/01 A2997 150 41 100 310/09 RMK AO2 T01390011
13870KAMG AMG20160320201510703/20/16 20:15:31  5-MIN KAMG 210115Z AUTO 30008KT 10SM CLR 14/01 A2998 150 40 100 310/08 RMK AO2 T01390006
13870KAMG AMG20160320202010703/20/16 20:20:31  5-MIN KAMG 210120Z AUTO 31008KT 10SM CLR 14/01 A2998 150 41 100 310/08 RMK AO2 T01390011
13870KAMG AMG20160320202510703/20/16 20:25:31  5-MIN KAMG 210125Z AUTO 31008KT 10SM CLR 14/01 A2998 150 41 100 320/08 RMK AO2 T01390011
13870KAMG AMG20160320203010703/20/16 20:30:31  5-MIN KAMG 210130Z AUTO 31007KT 10SM CLR 14/01 A2998 150 41 100 310/07 RMK AO2 T01390011
13870KAMG AMG20160320203510503/20/16 20:35:31  5-MIN KAMG 210135Z AUTO 31007KT 10SM CLR 13/01 A2998 140 43 0 310/07 RMK AO2 T01330011
13870KAMG AMG20160320204010503/20/16 20:40:31  5-MIN KAMG 210140Z AUTO 31007KT 10SM CLR 13/01 A2999 140 43 0 320/07 RMK AO2 T01330011
13870KAMG AMG20160320204510503/20/16 20:45:31  5-MIN KAMG 210145Z AUTO 31006KT 10SM CLR 13/01 A2999 140 43 0 320/06 RMK AO2 T01330011
13870KAMG AMG20160320205011203/20/16 20:50:31  5-MIN KAMG 210150Z AUTO 31007KT 10SM CLR 13/01 A2999 140 44 0 320/07 RMK AO2 SLP154 T01280011
13870KAMG AMG20160320205510503/20/16 20:55:31  5-MIN KAMG 210155Z AUTO 31006KT 10SM CLR 13/01 A2999 140 44 0 310/06 RMK AO2 T01280011
13870KAMG AMG20160320210010503/20/16 21:00:31  5-MIN KAMG 210200Z AUTO 30006KT 10SM CLR 13/01 A2999 140 44 0 310/06 RMK AO2 T01280011
13870KAMG AMG20160320210510503/20/16 21:05:31  5-MIN KAMG 210205Z AUTO 31005KT 10SM CLR 13/01 A2999 140 44 0 310/05 RMK AO2 T01280011
13870KAMG AMG20160320211010503/20/16 21:10:31  5-MIN KAMG 210210Z AUTO 31006KT 10SM CLR 13/01 A2999 130 44 0 320/06 RMK AO2 T01280011
13870KAMG AMG20160320211510503/20/16 21:15:31  5-MIN KAMG 210215Z AUTO 31006KT 10SM CLR 13/01 A3000 130 44 0 320/06 RMK AO2 T01280011
13870KAMG AMG20160320212010803/20/16 21:20:31  5-MIN KAMG 210220Z AUTO 31007KT 10SM CLR 12/01 A3000 130 46 -100 320/07 RMK AO2 T01220011
13870KAMG AMG20160320212510803/20/16 21:25:31  5-MIN KAMG 210225Z AUTO 31008KT 10SM CLR 12/01 A3000 130 46 -100 320/08 RMK AO2 T01220011
13870KAMG AMG20160320213010803/20/16 21:30:31  5-MIN KAMG 210230Z AUTO 31008KT 10SM CLR 12/01 A3000 130 46 -100 310/08 RMK AO2 T01220011
13870KAMG AMG20160320213510803/20/16 21:35:31  5-MIN KAMG 210235Z AUTO 31009KT 10SM CLR 12/01 A3000 130 44 -100 320/09 RMK AO2 T01220006
13870KAMG AMG20160320214010803/20/16 21:40:31  5-MIN KAMG 210240Z AUTO 31011KT 10SM CLR 12/00 A3000 130 43 -100 320/11 RMK AO2 T01220000
13870KAMG AMG20160320214510803/20/16 21:45:31  5-MIN KAMG 210245Z AUTO 32013KT 10SM CLR 12/00 A3000 130 43 -100 320/13 RMK AO2 T01220000
13870KAMG AMG20160320215012503/20/16 21:50:31  5-MIN KAMG 210250Z AUTO 31012G20KT 10SM CLR 13/M01 A3001 120 39 0 320/12G20 RMK AO2 SLP160 T01281006 53023
13870KAMG AMG20160320215511503/20/16 21:55:31  5-MIN KAMG 210255Z AUTO 31013G20KT 10SM CLR 12/M01 A3001 120 41 -100 320/13G20 RMK AO2 T01221006
13870KAMG AMG20160320220010903/20/16 22:00:31  5-MIN KAMG 210300Z AUTO 31012KT 10SM CLR 12/M01 A3001 120 41 -100 320/12 RMK AO2 T01221006
13870KAMG AMG20160320220510903/20/16 22:05:31  5-MIN KAMG 210305Z AUTO 31012KT 10SM CLR 12/M01 A3002 110 39 -100 310/12 RMK AO2 T01221011
13870KAMG AMG20160320221011503/20/16 22:10:31  5-MIN KAMG 210310Z AUTO 31010G19KT 10SM CLR 12/M01 A3002 110 39 -100 320/10G19 RMK AO2 T01221011
13870KAMG AMG20160320221511503/20/16 22:15:31  5-MIN KAMG 210315Z AUTO 31012G19KT 10SM CLR 12/M01 A3002 110 42 -200 310/12G19 RMK AO2 T01171006
13870KAMG AMG20160320222011503/20/16 22:20:31  5-MIN KAMG 210320Z AUTO 31010G17KT 10SM CLR 12/M01 A3002 110 42 -200 320/10G17 RMK AO2 T01171006
13870KAMG AMG20160320222510903/20/16 22:25:31  5-MIN KAMG 210325Z AUTO 31010KT 10SM CLR 12/M01 A3002 110 42 -200 310/10 RMK AO2 T01171006
13870KAMG AMG20160320223010903/20/16 22:30:31  5-MIN KAMG 210330Z AUTO 31011KT 10SM CLR 12/M01 A3003 100 42 -200 310/11 RMK AO2 T01171006
13870KAMG AMG20160320223510903/20/16 22:35:31  5-MIN KAMG 210335Z AUTO 31013KT 10SM CLR 12/M01 A3003 100 41 -200 320/13 RMK AO2 T01171011
13870KAMG AMG20160320224010903/20/16 22:40:31  5-MIN KAMG 210340Z AUTO 31012KT 10SM CLR 12/M02 A3003 100 39 -200 320/12 RMK AO2 T01171017
13870KAMG AMG20160320224511503/20/16 22:45:31  5-MIN KAMG 210345Z AUTO 31014G20KT 10SM CLR 12/M02 A3003 100 38 -200 320/14G20 RMK AO2 T01171022
13870KAMG AMG20160320225012203/20/16 22:50:31  5-MIN KAMG 210350Z AUTO 31013G20KT 10SM CLR 11/M02 A3003 100 39 -300 320/13G20 RMK AO2 SLP169 T01111022
13870KAMG AMG20160320225511503/20/16 22:55:31  5-MIN KAMG 210355Z AUTO 32011G19KT 10SM CLR 11/M03 A3003 100 37 -300 320/11G19 RMK AO2 T01111028
13870KAMG AMG20160320230010903/20/16 23:00:31  5-MIN KAMG 210400Z AUTO 32011KT 10SM CLR 11/M03 A3004 100 36 -300 320/11 RMK AO2 T01111033
13870KAMG AMG20160320230511503/20/16 23:05:31  5-MIN KAMG 210405Z AUTO 31014G18KT 10SM CLR 11/M04 A3004 100 34 -300 320/14G18 RMK AO2 T01111039
13870KAMG AMG20160320231011403/20/16 23:10:31  5-MIN KAMG 210410Z AUTO 31012G18KT 10SM CLR 11/M04 A3004 90 34 -300 320/12G18 RMK AO2 T01111039
13870KAMG AMG20160320231510803/20/16 23:15:31  5-MIN KAMG 210415Z AUTO 31012KT 10SM CLR 11/M04 A3004 90 36 -300 320/12 RMK AO2 T01061039
13870KAMG AMG20160320232010803/20/16 23:20:31  5-MIN KAMG 210420Z AUTO 31012KT 10SM CLR 11/M04 A3004 90 34 -300 320/12 RMK AO2 T01061044
13870KAMG AMG20160320232510803/20/16 23:25:31  5-MIN KAMG 210425Z AUTO 31009KT 10SM CLR 11/M04 A3004 90 36 -300 310/09 RMK AO2 T01061039
13870KAMG AMG20160320233011403/20/16 23:30:31  5-MIN KAMG 210430Z AUTO 31012G19KT 10SM CLR 11/M04 A3004 90 36 -300 320/12G19 RMK AO2 T01061039
13870KAMG AMG20160320233511403/20/16 23:35:31  5-MIN KAMG 210435Z AUTO 31013G19KT 10SM CLR 11/M04 A3005 90 34 -300 320/13G19 RMK AO2 T01061044
13870KAMG AMG20160320234011403/20/16 23:40:31  5-MIN KAMG 210440Z AUTO 32014G20KT 10SM CLR 11/M04 A3005 80 34 -300 320/14G20 RMK AO2 T01061044
13870KAMG AMG20160320234511403/20/16 23:45:31  5-MIN KAMG 210445Z AUTO 31011G20KT 10SM CLR 10/M04 A3005 80 36 -400 320/11G20 RMK AO2 T01001044
13870KAMG AMG20160320235012503/20/16 23:50:31  5-MIN KAMG 210450Z AUTO 31013KT 10SM CLR 10/M04 A3005 80 36 -400 320/13 RMK AO2 SLP174 T01001044 402170100
13870KAMG AMG20160320235510803/20/16 23:55:31  5-MIN KAMG 210455Z AUTO 31010KT 10SM CLR 10/M04 A3005 80 36 -400 320/10 RMK AO2 T01001044
13870KAMG AMG20160321000011403/21/16 00:00:31  5-MIN KAMG 210500Z AUTO 32015G19KT 10SM CLR 10/M04 A3005 80 36 -400 320/15G19 RMK AO2 T01001044
13870KAMG AMG20160321000511403/21/16 00:05:31  5-MIN KAMG 210505Z AUTO 31014G21KT 10SM CLR 10/M05 A3005 80 34 -400 320/14G21 RMK AO2 T01001050
13870KAMG AMG20160321001011403/21/16 00:10:31  5-MIN KAMG 210510Z AUTO 31010G21KT 10SM CLR 10/M04 A3006 80 36 -400 320/10G21 RMK AO2 T01001044
13870KAMG AMG20160321001510803/21/16 00:15:31  5-MIN KAMG 210515Z AUTO 31010KT 10SM CLR 10/M04 A3006 70 36 -400 310/10 RMK AO2 T01001044
13870KAMG AMG20160321002010803/21/16 00:20:31  5-MIN KAMG 210520Z AUTO 31010KT 10SM CLR 09/M04 A3006 70 39 -500 310/10 RMK AO2 T00941039
13870KAMG AMG20160321002511403/21/16 00:25:31  5-MIN KAMG 210525Z AUTO 32017G24KT 10SM CLR 09/M04 A3006 70 37 -500 330/17G24 RMK AO2 T00941044
13870KAMG AMG20160321003011403/21/16 00:30:31  5-MIN KAMG 210530Z AUTO 32014G24KT 10SM CLR 09/M05 A3006 70 35 -500 320/14G24 RMK AO2 T00941050
13870KAMG AMG20160321003511403/21/16 00:35:31  5-MIN KAMG 210535Z AUTO 32011G20KT 10SM CLR 09/M05 A3007 70 35 -500 320/11G20 RMK AO2 T00941050
13870KAMG AMG20160321004010803/21/16 00:40:31  5-MIN KAMG 210540Z AUTO 31009KT 10SM CLR 09/M04 A3007 70 37 -500 310/09 RMK AO2 T00941044
13870KAMG AMG20160321004511403/21/16 00:45:31  5-MIN KAMG 210545Z AUTO 31010G17KT 10SM CLR 09/M04 A3007 70 38 -600 310/10G17 RMK AO2 T00891044
13870KAMG AMG20160321005013903/21/16 00:50:31  5-MIN KAMG 210550Z AUTO 31013G20KT 10SM CLR 09/M04 A3007 60 38 -600 320/13G20 RMK AO2 SLP181 T00891044 10161 20089 51029
13870KAMG AMG20160321005511403/21/16 00:55:31  5-MIN KAMG 210555Z AUTO 31012G20KT 10SM CLR 09/M05 A3007 60 37 -600 320/12G20 RMK AO2 T00891050
13870KAMG AMG20160321010010803/21/16 01:00:31  5-MIN KAMG 210600Z AUTO 31012KT 10SM CLR 09/M05 A3007 60 37 -600 320/12 RMK AO2 T00891050
13870KAMG AMG20160321010511403/21/16 01:05:31  5-MIN KAMG 210605Z AUTO 31012G19KT 10SM CLR 09/M06 A3008 60 35 -600 320/12G19 RMK AO2 T00891056
13870KAMG AMG20160321011011403/21/16 01:10:31  5-MIN KAMG 210610Z AUTO 31010G19KT 10SM CLR 09/M06 A3008 60 35 -600 320/10G19 RMK AO2 T00891056
13870KAMG AMG20160321011510803/21/16 01:15:31  5-MIN KAMG 210615Z AUTO 31011KT 10SM CLR 08/M05 A3008 60 38 -600 320/11 RMK AO2 T00831050
13870KAMG AMG20160321012010803/21/16 01:20:31  5-MIN KAMG 210620Z AUTO 31010KT 10SM CLR 08/M06 A3008 60 37 -600 320/10 RMK AO2 T00831056
13870KAMG AMG20160321012511403/21/16 01:25:31  5-MIN KAMG 210625Z AUTO 31012G18KT 10SM CLR 08/M06 A3008 50 37 -600 310/12G18 RMK AO2 T00831056
13870KAMG AMG20160321013011403/21/16 01:30:31  5-MIN KAMG 210630Z AUTO 31015G21KT 10SM CLR 08/M06 A3008 60 35 -600 320/15G21 RMK AO2 T00831061
13870KAMG AMG20160321013511403/21/16 01:35:31  5-MIN KAMG 210635Z AUTO 31013G21KT 10SM CLR 08/M06 A3008 50 35 -600 320/13G21 RMK AO2 T00831061
13870KAMG AMG20160321014011403/21/16 01:40:31  5-MIN KAMG 210640Z AUTO 32014G21KT 10SM CLR 08/M07 A3008 50 34 -600 320/14G21 RMK AO2 T00831067
13870KAMG AMG20160321014511403/21/16 01:45:31  5-MIN KAMG 210645Z AUTO 32013G21KT 10SM CLR 08/M07 A3008 50 34 -600 320/13G21 RMK AO2 T00831067
13870KAMG AMG20160321015011503/21/16 01:50:31  5-MIN KAMG 210650Z AUTO 32014KT 10SM CLR 08/M06 A3008 50 35 -600 320/14 RMK AO2 SLP185 T00831061
13870KAMG AMG20160321015510803/21/16 01:55:31  5-MIN KAMG 210655Z AUTO 32011KT 10SM CLR 08/M06 A3008 50 35 -600 320/11 RMK AO2 T00831061
13870KAMG AMG20160321020011403/21/16 02:00:31  5-MIN KAMG 210700Z AUTO 31008G18KT 10SM CLR 08/M06 A3008 50 36 -700 310/08G18 RMK AO2 T00781061
13870KAMG AMG20160321020510803/21/16 02:05:31  5-MIN KAMG 210705Z AUTO 31009KT 10SM CLR 08/M06 A3009 50 36 -700 310/09 RMK AO2 T00781061
13870KAMG AMG20160321021010803/21/16 02:10:31  5-MIN KAMG 210710Z AUTO 31010KT 10SM CLR 08/M06 A3008 50 38 -700 310/10 RMK AO2 T00781056
13870KAMG AMG20160321021511403/21/16 02:15:31  5-MIN KAMG 210715Z AUTO 31013G19KT 10SM CLR 08/M06 A3008 50 36 -700 320/13G19 RMK AO2 T00781061
13870KAMG AMG20160321022010803/21/16 02:20:31  5-MIN KAMG 210720Z AUTO 31012KT 10SM CLR 08/M06 A3008 50 36 -700 320/12 RMK AO2 T00781061
13870KAMG AMG20160321022510803/21/16 02:25:31  5-MIN KAMG 210725Z AUTO 32010KT 10SM CLR 08/M06 A3008 50 36 -700 320/10 RMK AO2 T00781061
13870KAMG AMG20160321023010803/21/16 02:30:31  5-MIN KAMG 210730Z AUTO 31009KT 10SM CLR 07/M06 A3008 50 38 -800 320/09 RMK AO2 T00721061
13870KAMG AMG20160321023510803/21/16 02:35:31  5-MIN KAMG 210735Z AUTO 31008KT 10SM CLR 07/M06 A3009 50 40 -800 310/08 RMK AO2 T00721056
13870KAMG AMG20160321024010803/21/16 02:40:31  5-MIN KAMG 210740Z AUTO 31008KT 10SM CLR 07/M06 A3009 50 40 -800 310/08 RMK AO2 T00721056
13870KAMG AMG20160321024510803/21/16 02:45:31  5-MIN KAMG 210745Z AUTO 31009KT 10SM CLR 07/M06 A3009 50 40 -800 310/09 RMK AO2 T00721056
13870KAMG AMG20160321025011503/21/16 02:50:31  5-MIN KAMG 210750Z AUTO 31008KT 10SM CLR 07/M06 A3009 50 40 -800 310/08 RMK AO2 SLP187 T00721056
13870KAMG AMG20160321025510803/21/16 02:55:31  5-MIN KAMG 210755Z AUTO 30007KT 10SM CLR 07/M06 A3009 50 41 -900 300/07 RMK AO2 T00671056
13870KAMG AMG20160321030010803/21/16 03:00:31  5-MIN KAMG 210800Z AUTO 30009KT 10SM CLR 07/M06 A3009 50 41 -900 310/09 RMK AO2 T00671056
13870KAMG AMG20160321030510803/21/16 03:05:31  5-MIN KAMG 210805Z AUTO 31010KT 10SM CLR 07/M06 A3009 50 41 -900 310/10 RMK AO2 T00671056
13870KAMG AMG20160321031010803/21/16 03:10:31  5-MIN KAMG 210810Z AUTO 31009KT 10SM CLR 07/M05 A3009 50 43 -900 310/09 RMK AO2 T00671050
13870KAMG AMG20160321031510803/21/16 03:15:31  5-MIN KAMG 210815Z AUTO 31008KT 10SM CLR 07/M05 A3009 50 43 -900 310/08 RMK AO2 T00671050
13870KAMG AMG20160321032010803/21/16 03:20:31  5-MIN KAMG 210820Z AUTO 31010KT 10SM CLR 07/M05 A3009 50 43 -900 310/10 RMK AO2 T00671050
13870KAMG AMG20160321032510803/21/16 03:25:31  5-MIN KAMG 210825Z AUTO 31008KT 10SM CLR 06/M05 A3009 50 45 -900 320/08 RMK AO2 T00611050
13870KAMG AMG20160321033010803/21/16 03:30:31  5-MIN KAMG 210830Z AUTO 31009KT 10SM CLR 07/M05 A3009 50 43 -900 310/09 RMK AO2 T00671050
13870KAMG AMG20160321033510803/21/16 03:35:31  5-MIN KAMG 210835Z AUTO 31009KT 10SM CLR 06/M05 A3009 40 45 -900 310/09 RMK AO2 T00611050
13870KAMG AMG20160321034010803/21/16 03:40:31  5-MIN KAMG 210840Z AUTO 31008KT 10SM CLR 06/M05 A3009 40 45 -900 320/08 RMK AO2 T00611050
13870KAMG AMG20160321034510803/21/16 03:45:31  5-MIN KAMG 210845Z AUTO 30009KT 10SM CLR 06/M05 A3010 40 45 -900 310/09 RMK AO2 T00611050
13870KAMG AMG20160321035012103/21/16 03:50:31  5-MIN KAMG 210850Z AUTO 31007KT 10SM CLR 06/M05 A3010 40 45 -900 310/07 RMK AO2 SLP190 T00611050 51021
13870KAMG AMG20160321035510803/21/16 03:55:31  5-MIN KAMG 210855Z AUTO 30009KT 10SM CLR 06/M04 A3010 40 46 -900 310/09 RMK AO2 T00611044
13870KAMG AMG20160321040010803/21/16 04:00:31  5-MIN KAMG 210900Z AUTO 31010KT 10SM CLR 06/M04 A3010 40 46 -900 320/10 RMK AO2 T00611044
13870KAMG AMG20160321040510803/21/16 04:05:31  5-MIN KAMG 210905Z AUTO 30011KT 10SM CLR 06/M05 A3010 40 45 -900 310/11 RMK AO2 T00611050
13870KAMG AMG20160321041010803/21/16 04:10:31  5-MIN KAMG 210910Z AUTO 31009KT 10SM CLR 06/M05 A3010 30 45 -900 310/09 RMK AO2 T00611050
13870KAMG AMG20160321041510803/21/16 04:15:31  5-MIN KAMG 210915Z AUTO 31008KT 10SM CLR 06/M04 A3010 30 46 -900 320/08 RMK AO2 T00611044
13870KAMG AMG20160321230511003/21/16 23:05:31  5-MIN KAMG 220405Z AUTO 00000KT 10SM CLR 05/04 A3030 -140 92 -1300 000/00 RMK AO2 T00500039
13870KAMG AMG20160321231011003/21/16 23:10:31  5-MIN KAMG 220410Z AUTO 00000KT 10SM CLR 04/04 A3030 -140 96 -1400 000/00 RMK AO2 T00440039
13870KAMG AMG20160321231511003/21/16 23:15:31  5-MIN KAMG 220415Z AUTO 00000KT 10SM CLR 05/04 A3030 -140 92 -1300 000/00 RMK AO2 T00500039
13870KAMG AMG20160321232011003/21/16 23:20:31  5-MIN KAMG 220420Z AUTO 00000KT 10SM CLR 04/03 A3030 -140 92 -1400 000/00 RMK AO2 T00440033
13870KAMG AMG20160321232511003/21/16 23:25:31  5-MIN KAMG 220425Z AUTO 00000KT 10SM CLR 04/03 A3030 -140 92 -1400 000/00 RMK AO2 T00440033
13870KAMG AMG20160321233011003/21/16 23:30:31  5-MIN KAMG 220430Z AUTO 00000KT 10SM CLR 04/03 A3030 -140 92 -1400 000/00 RMK AO2 T00440033
13870KAMG AMG20160321233511003/21/16 23:35:31  5-MIN KAMG 220435Z AUTO 00000KT 10SM CLR 05/03 A3030 -140 89 -1300 000/00 RMK AO2 T00500033
13870KAMG AMG20160321234011003/21/16 23:40:31  5-MIN KAMG 220440Z AUTO 00000KT 10SM CLR 05/04 A3030 -140 92 -1300 000/00 RMK AO2 T00500039
13870KAMG AMG20160321234511003/21/16 23:45:31  5-MIN KAMG 220445Z AUTO 00000KT 10SM CLR 05/04 A3030 -140 92 -1300 000/00 RMK AO2 T00500039
13870KAMG AMG20160321235012703/21/16 23:50:31  5-MIN KAMG 220450Z AUTO 00000KT 10SM CLR 04/03 A3030 -140 92 -1400 000/00 RMK AO2 SLP260 T00440033 401670044
13870KAMG AMG20160321235511003/21/16 23:55:31  5-MIN KAMG 220455Z AUTO 00000KT 10SM CLR 04/03 A3030 -140 92 -1400 000/00 RMK AO2 T00440033
13870KAMG AMG20160322000011003/22/16 00:00:31  5-MIN KAMG 220500Z AUTO 00000KT 10SM CLR 04/03 A3030 -150 92 -1400 000/00 RMK AO2 T00440033
13870KAMG AMG20160322000511003/22/16 00:05:31  5-MIN KAMG 220505Z AUTO 00000KT 10SM CLR 04/03 A3030 -150 92 -1400 000/00 RMK AO2 T00440033
13870KAMG AMG20160322001011003/22/16 00:10:31  5-MIN KAMG 220510Z AUTO 00000KT 10SM CLR 04/03 A3030 -140 92 -1400 000/00 RMK AO2 T00440033
13870KAMG AMG20160322001511003/22/16 00:15:31  5-MIN KAMG 220515Z AUTO 00000KT 10SM CLR 04/03 A3030 -140 92 -1400 000/00 RMK AO2 T00440033
13870KAMG AMG20160322002011003/22/16 00:20:31  5-MIN KAMG 220520Z AUTO 00000KT 10SM CLR 04/03 A3030 -150 92 -1400 000/00 RMK AO2 T00440033
13870KAMG AMG20160322002511003/22/16 00:25:31  5-MIN KAMG 220525Z AUTO 00000KT 10SM CLR 04/03 A3030 -150 92 -1400 000/00 RMK AO2 T00440033
13870KAMG AMG20160322003011003/22/16 00:30:31  5-MIN KAMG 220530Z AUTO 00000KT 10SM CLR 04/03 A3030 -140 92 -1400 000/00 RMK AO2 T00440033
13870KAMG AMG20160322003511003/22/16 00:35:31  5-MIN KAMG 220535Z AUTO 00000KT 10SM CLR 04/03 A3030 -140 92 -1400 000/00 RMK AO2 T00390028
13870KAMG AMG20160322004011003/22/16 00:40:31  5-MIN KAMG 220540Z AUTO 00000KT 10SM CLR 04/03 A3030 -140 96 -1400 000/00 RMK AO2 T00390033
13870KAMG AMG20160322004511003/22/16 00:45:31  5-MIN KAMG 220545Z AUTO 00000KT 10SM CLR 04/03 A3030 -140 96 -1400 000/00 RMK AO2 T00390033
13870KAMG AMG20160322005013503/22/16 00:50:31  5-MIN KAMG 220550Z AUTO 00000KT 10SM CLR 04/03 A3030 -140 92 -1400 000/00 RMK AO2 SLP259 T00390028 10128 20039 53021
13870KAMG AMG20160322005511003/22/16 00:55:31  5-MIN KAMG 220555Z AUTO 00000KT 10SM CLR 04/03 A3030 -140 92 -1400 000/00 RMK AO2 T00440033
13870KAMG AMG20160322010011003/22/16 01:00:31  5-MIN KAMG 220600Z AUTO 00000KT 10SM CLR 04/03 A3030 -140 92 -1400 000/00 RMK AO2 T00390028
13870KAMG AMG20160322010511003/22/16 01:05:31  5-MIN KAMG 220605Z AUTO 00000KT 10SM CLR 04/03 A3030 -140 92 -1400 000/00 RMK AO2 T00390028
13870KAMG AMG20160322011011003/22/16 01:10:31  5-MIN KAMG 220610Z AUTO 00000KT 10SM CLR 04/03 A3030 -140 92 -1400 000/00 RMK AO2 T00390028
13870KAMG AMG20160322011511003/22/16 01:15:31  5-MIN KAMG 220615Z AUTO 00000KT 10SM CLR 04/03 A3030 -140 92 -1400 000/00 RMK AO2 T00390028
13870KAMG AMG20160322012011003/22/16 01:20:31  5-MIN KAMG 220620Z AUTO 00000KT 10SM CLR 04/03 A3030 -140 92 -1400 000/00 RMK AO2 T00390028
13870KAMG AMG20160322012511003/22/16 01:25:31  5-MIN KAMG 220625Z AUTO 00000KT 10SM CLR 04/03 A3030 -140 89 -1400 000/00 RMK AO2 T00440028
13870KAMG AMG20160322013011003/22/16 01:30:31  5-MIN KAMG 220630Z AUTO 00000KT 10SM CLR 04/03 A3030 -140 92 -1400 000/00 RMK AO2 T00440033
13870KAMG AMG20160322013511003/22/16 01:35:31  5-MIN KAMG 220635Z AUTO 00000KT 10SM CLR 04/03 A3030 -140 92 -1400 000/00 RMK AO2 T00390028
13870KAMG AMG20160322014011003/22/16 01:40:31  5-MIN KAMG 220640Z AUTO 00000KT 10SM CLR 04/03 A3030 -140 96 -1400 000/00 RMK AO2 T00390033
13870KAMG AMG20160322014511003/22/16 01:45:31  5-MIN KAMG 220645Z AUTO 00000KT 10SM CLR 03/03 A3030 -140 96 -1500 000/00 RMK AO2 T00330028
13870KAMG AMG20160322015011703/22/16 01:50:31  5-MIN KAMG 220650Z AUTO 00000KT 10SM CLR 03/03 A3030 -140 96 -1500 000/00 RMK AO2 SLP259 T00330028
13870KAMG AMG20160322015511003/22/16 01:55:31  5-MIN KAMG 220655Z AUTO 00000KT 10SM CLR 04/03 A3030 -140 92 -1400 000/00 RMK AO2 T00390028
13870KAMG AMG20160322020011003/22/16 02:00:31  5-MIN KAMG 220700Z AUTO 00000KT 10SM CLR 03/03 A3030 -140 96 -1500 000/00 RMK AO2 T00330028
13870KAMG AMG20160322020511003/22/16 02:05:31  5-MIN KAMG 220705Z AUTO 00000KT 10SM CLR 03/02 A3030 -140 92 -1500 000/00 RMK AO2 T00330022
13870KAMG AMG20160322021011003/22/16 02:10:31  5-MIN KAMG 220710Z AUTO 00000KT 10SM CLR 03/02 A3030 -140 92 -1500 000/00 RMK AO2 T00330022
13870KAMG AMG20160322021511003/22/16 02:15:31  5-MIN KAMG 220715Z AUTO 00000KT 10SM CLR 03/03 A3030 -140 96 -1500 000/00 RMK AO2 T00330028
13870KAMG AMG20160322022011003/22/16 02:20:31  5-MIN KAMG 220720Z AUTO 00000KT 10SM CLR 04/02 A3030 -140 89 -1400 000/00 RMK AO2 T00390022
13870KAMG AMG20160322022511003/22/16 02:25:31  5-MIN KAMG 220725Z AUTO 00000KT 10SM CLR 04/03 A3030 -140 92 -1400 000/00 RMK AO2 T00390028
13870KAMG AMG20160322023011003/22/16 02:30:31  5-MIN KAMG 220730Z AUTO 00000KT 10SM CLR 03/02 A3030 -140 92 -1500 000/00 RMK AO2 T00330022
13870KAMG AMG20160322023511003/22/16 02:35:31  5-MIN KAMG 220735Z AUTO 00000KT 10SM CLR 03/02 A3030 -140 92 -1500 000/00 RMK AO2 T00330022
13870KAMG AMG20160322024011003/22/16 02:40:31  5-MIN KAMG 220740Z AUTO 00000KT 10SM CLR 04/03 A3029 -140 92 -1400 000/00 RMK AO2 T00390028
13870KAMG AMG20160322024511003/22/16 02:45:31  5-MIN KAMG 220745Z AUTO 00000KT 10SM CLR 03/03 A3030 -140 96 -1500 000/00 RMK AO2 T00330028
13870KAMG AMG20160322025011703/22/16 02:50:31  5-MIN KAMG 220750Z AUTO 00000KT 10SM CLR 03/03 A3029 -140 96 -1500 000/00 RMK AO2 SLP257 T00330028
13870KAMG AMG20160322025511003/22/16 02:55:31  5-MIN KAMG 220755Z AUTO 00000KT 10SM CLR 03/02 A3030 -140 92 -1500 000/00 RMK AO2 T00330022
13870KAMG AMG20160322030011003/22/16 03:00:31  5-MIN KAMG 220800Z AUTO 00000KT 10SM CLR 03/02 A3030 -140 92 -1500 000/00 RMK AO2 T00330022
13870KAMG AMG20160322030511003/22/16 03:05:31  5-MIN KAMG 220805Z AUTO 35003KT 10SM CLR 04/03 A3029 -130 92 -1400 350/03 RMK AO2 T00390028
13870KAMG AMG20160322031011003/22/16 03:10:31  5-MIN KAMG 220810Z AUTO 00000KT 10SM CLR 03/02 A3029 -130 92 -1500 000/00 RMK AO2 T00330022
13870KAMG AMG20160322031511003/22/16 03:15:31  5-MIN KAMG 220815Z AUTO 00000KT 10SM CLR 03/02 A3029 -130 92 -1500 000/00 RMK AO2 T00330022
13870KAMG AMG20160322032011003/22/16 03:20:31  5-MIN KAMG 220820Z AUTO 00000KT 10SM CLR 03/02 A3029 -130 92 -1500 000/00 RMK AO2 T00330022
13870KAMG AMG20160322032511003/22/16 03:25:31  5-MIN KAMG 220825Z AUTO 00000KT 10SM CLR 03/02 A3029 -130 96 -1600 000/00 RMK AO2 T00280022
13870KAMG AMG20160322033011003/22/16 03:30:31  5-MIN KAMG 220830Z AUTO 00000KT 10SM CLR 03/02 A3029 -130 96 -1600 000/00 RMK AO2 T00280022
13870KAMG AMG20160322033511003/22/16 03:35:31  5-MIN KAMG 220835Z AUTO 00000KT 10SM CLR 03/02 A3029 -130 96 -1600 000/00 RMK AO2 T00280022
13870KAMG AMG20160322034011003/22/16 03:40:31  5-MIN KAMG 220840Z AUTO 00000KT 10SM CLR 03/02 A3029 -130 92 -1500 000/00 RMK AO2 T00330022
13870KAMG AMG20160322034511003/22/16 03:45:31  5-MIN KAMG 220845Z AUTO 00000KT 10SM CLR 03/02 A3029 -130 96 -1600 000/00 RMK AO2 T00280022
13870KAMG AMG20160322035012203/22/16 03:50:31  5-MIN KAMG 220850Z AUTO 00000KT 9SM CLR 03/02 A3030 -140 96 -1600 000/00 RMK AO2 SLP258 T00280022 50004
13870KAMG AMG20160322035510903/22/16 03:55:31  5-MIN KAMG 220855Z AUTO 00000KT 9SM CLR 03/02 A3030 -140 96 -1600 000/00 RMK AO2 T00280022
13870KAMG AMG20160322040011003/22/16 04:00:31  5-MIN KAMG 220900Z AUTO 00000KT 10SM CLR 03/02 A3030 -140 96 -1600 000/00 RMK AO2 T00280022
13870KAMG AMG20160322040511003/22/16 04:05:31  5-MIN KAMG 220905Z AUTO 00000KT 10SM CLR 03/02 A3030 -140 92 -1500 000/00 RMK AO2 T00330022
13870KAMG AMG20160322041011003/22/16 04:10:31  5-MIN KAMG 220910Z AUTO 00000KT 10SM CLR 03/02 A3030 -140 92 -1500 000/00 RMK AO2 T00330022
13870KAMG AMG20160322041510903/22/16 04:15:31  5-MIN KAMG 220915Z AUTO 00000KT 9SM CLR 03/02 A3030 -140 96 -1600 000/00 RMK AO2 T00280022
13870KAMG AMG20160322042010903/22/16 04:20:31  5-MIN KAMG 220920Z AUTO 00000KT 9SM CLR 03/02 A3030 -140 92 -1600 000/00 RMK AO2 T00280017
13870KAMG AMG20160322042511003/22/16 04:25:31  5-MIN KAMG 220925Z AUTO 00000KT 10SM CLR 03/02 A3030 -140 96 -1600 000/00 RMK AO2 T00280022
13870KAMG AMG20160322043010903/22/16 04:30:31  5-MIN KAMG 220930Z AUTO 00000KT 9SM CLR 03/02 A3030 -140 96 -1600 000/00 RMK AO2 T00280022
13870KAMG AMG20160322043510903/22/16 04:35:31  5-MIN KAMG 220935Z AUTO 00000KT 8SM CLR 02/02 A3030 -140 96 -1700 000/00 RMK AO2 T00220017
13870KAMG AMG20160322044010903/22/16 04:40:31  5-MIN KAMG 220940Z AUTO 00000KT 7SM CLR 02/02 A3030 -140 96 -1700 000/00 RMK AO2 T00220017
13870KAMG AMG20160322044510903/22/16 04:45:31  5-MIN KAMG 220945Z AUTO 00000KT 7SM CLR 02/02 A3030 -140 96 -1700 000/00 RMK AO2 T00220017
13870KAMG AMG20160322045011703/22/16 04:50:31  5-MIN KAMG 220950Z AUTO 00000KT 7SM CLR 02/02 A3030 -140 100 -1700 000/00 RMK AO2 SLP260 T00170017
13870KAMG AMG20160322045511203/22/16 04:55:31  5-MIN KAMG 220955Z AUTO 00000KT 6SM BR CLR 02/02 A3030 -140 96 -1700 000/00 RMK AO2 T00220017
13870KAMG AMG20160322050011003/22/16 05:00:31  5-MIN KAMG 221000Z AUTO 00000KT 7SM CLR 02/02 A3030 -140 100 -1700 000/00 RMK AO2 T00220022
13870KAMG AMG20160322050510903/22/16 05:05:31  5-MIN KAMG 221005Z AUTO 00000KT 7SM CLR 02/02 A3030 -150 96 -1700 000/00 RMK AO2 T00220017
13870KAMG AMG20160322051010903/22/16 05:10:31  5-MIN KAMG 221010Z AUTO 00000KT 7SM CLR 02/02 A3031 -150 96 -1700 000/00 RMK AO2 T00220017
13870KAMG AMG20160322051510903/22/16 05:15:31  5-MIN KAMG 221015Z AUTO 00000KT 8SM CLR 02/02 A3031 -150 96 -1700 000/00 RMK AO2 T00220017
13870KAMG AMG20160322052010903/22/16 05:20:31  5-MIN KAMG 221020Z AUTO 00000KT 8SM CLR 02/02 A3031 -150 96 -1700 000/00 RMK AO2 T00220017
13870KAMG AMG20160322052510903/22/16 05:25:31  5-MIN KAMG 221025Z AUTO 00000KT 8SM CLR 02/02 A3031 -150 96 -1700 000/00 RMK AO2 T00220017
13870KAMG AMG20160322053010903/22/16 05:30:31  5-MIN KAMG 221030Z AUTO 00000KT 8SM CLR 02/02 A3031 -150 96 -1700 000/00 RMK AO2 T00220017
13870KAMG AMG20160322053510903/22/16 05:35:31  5-MIN KAMG 221035Z AUTO 00000KT 7SM CLR 02/01 A3031 -150 96 -1700 000/00 RMK AO2 T00170011
13870KAMG AMG20160322054011203/22/16 05:40:31  5-MIN KAMG 221040Z AUTO 00000KT 6SM BR CLR 02/02 A3031 -150 96 -1700 000/00 RMK AO2 T00220017
13870KAMG AMG20160322054511203/22/16 05:45:31  5-MIN KAMG 221045Z AUTO 00000KT 6SM BR CLR 02/02 A3031 -150 96 -1700 000/00 RMK AO2 T00220017
13870KAMG AMG20160322055011603/22/16 05:50:31  5-MIN KAMG 221050Z AUTO 00000KT 8SM CLR 02/02 A3032 -160 96 -1700 000/00 RMK AO2 SLP265 T00220017
13870KAMG AMG20160322055510903/22/16 05:55:31  5-MIN KAMG 221055Z AUTO 00000KT 8SM CLR 03/02 A3032 -160 92 -1600 000/00 RMK AO2 T00280017
13870KAMG AMG20160322060010903/22/16 06:00:31  5-MIN KAMG 221100Z AUTO 00000KT 8SM CLR 02/02 A3032 -160 96 -1700 000/00 RMK AO2 T00220017
13870KAMG AMG20160322060510903/22/16 06:05:31  5-MIN KAMG 221105Z AUTO 00000KT 8SM CLR 02/02 A3032 -160 96 -1700 000/00 RMK AO2 T00220017
13870KAMG AMG20160322061010903/22/16 06:10:31  5-MIN KAMG 221110Z AUTO 00000KT 8SM CLR 02/01 A3032 -160 96 -1700 000/00 RMK AO2 T00170011
13870KAMG AMG20160322061510903/22/16 06:15:31  5-MIN KAMG 221115Z AUTO 00000KT 7SM CLR 02/01 A3033 -170 96 -1700 000/00 RMK AO2 T00170011
13870KAMG AMG20160322062010903/22/16 06:20:31  5-MIN KAMG 221120Z AUTO 00000KT 7SM CLR 02/01 A3033 -170 96 -1700 000/00 RMK AO2 T00170011
13870KAMG AMG20160322062510903/22/16 06:25:31  5-MIN KAMG 221125Z AUTO 00000KT 8SM CLR 02/01 A3033 -170 96 -1800 000/00 RMK AO2 T00170011
13870KAMG AMG20160322063010903/22/16 06:30:31  5-MIN KAMG 221130Z AUTO 00000KT 7SM CLR 02/01 A3033 -170 92 -1700 000/00 RMK AO2 T00220011
13870KAMG AMG20160322063510903/22/16 06:35:31  5-MIN KAMG 221135Z AUTO 00000KT 7SM CLR 02/01 A3033 -170 96 -1800 000/00 RMK AO2 T00170011
13870KAMG AMG20160322064011203/22/16 06:40:31  5-MIN KAMG 221140Z AUTO 00000KT 6SM BR CLR 02/01 A3033 -170 96 -1800 000/00 RMK AO2 T00170011
13870KAMG AMG20160322064511303/22/16 06:45:31  5-MIN KAMG 221145Z AUTO 00000KT 6SM BR CLR 02/02 A3034 -180 100 -1800 000/00 RMK AO2 T00170017
13870KAMG AMG20160322065013703/22/16 06:50:31  5-MIN KAMG 221150Z AUTO 00000KT 5SM BR CLR 02/02 A3034 -180 96 -1700 000/00 RMK AO2 SLP274 T00220017 10044 20017 58001
13870KAMG AMG20160322065511203/22/16 06:55:31  5-MIN KAMG 221155Z AUTO 00000KT 6SM BR CLR 02/02 A3034 -180 96 -1700 000/00 RMK AO2 T00220017
13870KAMG AMG20160322070011003/22/16 07:00:31  5-MIN KAMG 221200Z AUTO 00000KT 7SM CLR 02/02 A3035 -180 100 -1700 000/00 RMK AO2 T00220022
13870KAMG AMG20160322070511303/22/16 07:05:31  5-MIN KAMG 221205Z AUTO 00000KT 6SM BR CLR 03/03 A3035 -190 100 -1600 000/00 RMK AO2 T00280028
13870KAMG AMG20160322071011203/22/16 07:10:31  5-MIN KAMG 221210Z AUTO 00000KT 5SM BR CLR 03/03 A3035 -190 96 -1600 000/00 RMK AO2 T00330028
13870KAMG AMG20160322071511303/22/16 07:15:31  5-MIN KAMG 221215Z AUTO 00000KT 5SM BR CLR 03/03 A3035 -190 100 -1600 000/00 RMK AO2 T00330033
13870KAMG AMG20160322072011303/22/16 07:20:31  5-MIN KAMG 221220Z AUTO 00000KT 5SM BR CLR 04/04 A3035 -190 100 -1500 000/00 RMK AO2 T00390039
13870KAMG AMG20160322072511203/22/16 07:25:31  5-MIN KAMG 221225Z AUTO 00000KT 5SM BR CLR 04/04 A3035 -190 96 -1400 000/00 RMK AO2 T00440039
13870KAMG AMG20160322073011203/22/16 07:30:31  5-MIN KAMG 221230Z AUTO 00000KT 5SM BR CLR 04/04 A3035 -190 96 -1400 000/00 RMK AO2 T00440039
13870KAMG AMG20160322073511303/22/16 07:35:31  5-MIN KAMG 221235Z AUTO 00000KT 6SM BR CLR 05/05 A3035 -190 100 -1400 000/00 RMK AO2 T00500050
13870KAMG AMG20160322074011203/22/16 07:40:31  5-MIN KAMG 221240Z AUTO 00000KT 6SM BR CLR 06/06 A3035 -190 96 -1200 000/00 RMK AO2 T00610056
13870KAMG AMG20160322074510903/22/16 07:45:31  5-MIN KAMG 221245Z AUTO 00000KT 7SM CLR 07/06 A3035 -190 93 -1200 000/00 RMK AO2 T00670056
13870KAMG AMG20160322075011603/22/16 07:50:31  5-MIN KAMG 221250Z AUTO 00000KT 8SM CLR 08/06 A3035 -190 86 -1000 000/00 RMK AO2 SLP278 T00780056
13870KAMG AMG20160322075510903/22/16 07:55:31  5-MIN KAMG 221255Z AUTO 00000KT 8SM CLR 08/05 A3035 -190 79 -1000 000/00 RMK AO2 T00830050
13870KAMG AMG20160322080010903/22/16 08:00:31  5-MIN KAMG 221300Z AUTO 00000KT 8SM CLR 08/05 A3035 -190 79 -1000 000/00 RMK AO2 T00830050
13870KAMG AMG20160322080510803/22/16 08:05:31  5-MIN KAMG 221305Z AUTO 00000KT 9SM CLR 09/06 A3035 -190 79 -900 000/00 RMK AO2 T00890056
13870KAMG AMG20160322081010803/22/16 08:10:31  5-MIN KAMG 221310Z AUTO 00000KT 9SM CLR 09/06 A3036 -190 79 -900 000/00 RMK AO2 T00890056
13870KAMG AMG20160322081510803/22/16 08:15:31  5-MIN KAMG 221315Z AUTO 00000KT 9SM CLR 09/06 A3036 -190 79 -800 000/00 RMK AO2 T00940061
13870KAMG AMG20160322082010803/22/16 08:20:31  5-MIN KAMG 221320Z AUTO 00000KT 9SM CLR 10/06 A3036 -200 74 -800 000/00 RMK AO2 T01000056
13870KAMG AMG20160322082510903/22/16 08:25:31  5-MIN KAMG 221325Z AUTO 00000KT 10SM CLR 11/05 A3036 -200 68 -700 000/00 RMK AO2 T01060050
13870KAMG AMG20160322083010903/22/16 08:30:31  5-MIN KAMG 221330Z AUTO 00000KT 10SM CLR 11/05 A3036 -200 66 -600 000/00 RMK AO2 T01110050
13870KAMG AMG20160322083510903/22/16 08:35:31  5-MIN KAMG 221335Z AUTO 00000KT 10SM CLR 11/05 A3037 -200 66 -600 000/00 RMK AO2 T01110050
13870KAMG AMG20160322084010903/22/16 08:40:31  5-MIN KAMG 221340Z AUTO 00000KT 10SM CLR 12/04 A3037 -200 58 -600 000/00 RMK AO2 T01170039
13870KAMG AMG20160322084510903/22/16 08:45:31  5-MIN KAMG 221345Z AUTO VRB04KT 10SM CLR 12/03 A3037 -200 54 -500 VRB/04 RMK AO2 T01220033
13870KAMG AMG20160322085011603/22/16 08:50:31  5-MIN KAMG 221350Z AUTO VRB03KT 10SM CLR 12/03 A3037 -200 54 -500 VRB/03 RMK AO2 SLP281 T01220033
13870KAMG AMG20160322085510903/22/16 08:55:31  5-MIN KAMG 221355Z AUTO 00000KT 10SM CLR 13/03 A3037 -200 50 -400 000/00 RMK AO2 T01280028
13870KAMG AMG20160322090010903/22/16 09:00:31  5-MIN KAMG 221400Z AUTO VRB04KT 10SM CLR 13/03 A3037 -210 52 -400 VRB/04 RMK AO2 T01280033
13870KAMG AMG20160322090510903/22/16 09:05:31  5-MIN KAMG 221405Z AUTO VRB04KT 10SM CLR 13/03 A3037 -200 48 -400 VRB/04 RMK AO2 T01330028
13870KAMG AMG20160322091010903/22/16 09:10:31  5-MIN KAMG 221410Z AUTO VRB03KT 10SM CLR 14/02 A3037 -200 45 -300 VRB/03 RMK AO2 T01390022
13870KAMG AMG20160322091510903/22/16 09:15:31  5-MIN KAMG 221415Z AUTO 06004KT 10SM CLR 13/02 A3037 -200 45 -400 060/04 RMK AO2 T01330017
13870KAMG AMG20160322092010903/22/16 09:20:31  5-MIN KAMG 221420Z AUTO VRB03KT 10SM CLR 14/02 A3037 -210 43 -300 VRB/03 RMK AO2 T01390017
13870KAMG AMG20160322092510903/22/16 09:25:31  5-MIN KAMG 221425Z AUTO 00000KT 10SM CLR 14/02 A3037 -210 41 -200 000/00 RMK AO2 T01440017
13870KAMG AMG20160322093010903/22/16 09:30:31  5-MIN KAMG 221430Z AUTO VRB03KT 10SM CLR 15/02 A3037 -210 42 -200 VRB/03 RMK AO2 T01500022
13870KAMG AMG20160322093510903/22/16 09:35:31  5-MIN KAMG 221435Z AUTO 00000KT 10SM CLR 14/02 A3037 -210 41 -200 000/00 RMK AO2 T01440017
13870KAMG AMG20160322094010903/22/16 09:40:31  5-MIN KAMG 221440Z AUTO VRB03KT 10SM CLR 16/02 A3037 -210 40 -100 VRB/03 RMK AO2 T01560022
13870KAMG AMG20160322094510903/22/16 09:45:31  5-MIN KAMG 221445Z AUTO VRB03KT 10SM CLR 15/01 A3037 -210 38 -200 VRB/03 RMK AO2 T01500011
13870KAMG AMG20160322095012203/22/16 09:50:31  5-MIN KAMG 221450Z AUTO VRB03KT 10SM CLR 16/02 A3038 -210 39 -100 VRB/03 RMK AO2 SLP285 T01560017 53016
13870KAMG AMG20160322095510903/22/16 09:55:31  5-MIN KAMG 221455Z AUTO 00000KT 10SM CLR 16/02 A3038 -210 39 -100 000/00 RMK AO2 T01560017
13870KAMG AMG20160322100010903/22/16 10:00:31  5-MIN KAMG 221500Z AUTO 00000KT 10SM CLR 16/02 A3038 -210 39 -100 000/00 RMK AO2 T01560017
13870KAMG AMG20160322100510903/22/16 10:05:31  5-MIN KAMG 221505Z AUTO 07004KT 10SM CLR 16/01 A3038 -210 36 -100 080/04 RMK AO2 T01560006
13870KAMG AMG20160322101010903/22/16 10:10:31  5-MIN KAMG 221510Z AUTO 00000KT 10SM CLR 16/00 A3038 -210 34 -100 000/00 RMK AO2 T01560000
13870KAMG AMG20160322101510603/22/16 10:15:31  5-MIN KAMG 221515Z AUTO VRB03KT 10SM CLR 16/01 A3038 -210 34 0 VRB/03 RMK AO2 T01610006
13870KAMG AMG20160322102010603/22/16 10:20:31  5-MIN KAMG 221520Z AUTO 00000KT 10SM CLR 16/00 A3038 -210 33 0 000/00 RMK AO2 T01610000
13870KAMG AMG20160322102511003/22/16 10:25:31  5-MIN KAMG 221525Z AUTO 00000KT 10SM CLR 16/M01 A3038 -210 33 -100 000/00 RMK AO2 T01561006
13870KAMG AMG20160322103010603/22/16 10:30:31  5-MIN KAMG 221530Z AUTO VRB03KT 10SM CLR 16/00 A3038 -210 33 0 VRB/03 RMK AO2 T01610000
13870KAMG AMG20160322103510903/22/16 10:35:31  5-MIN KAMG 221535Z AUTO VRB04KT 10SM CLR 16/00 A3038 -220 33 -100 VRB/04 RMK AO2 T01610000
13870KAMG AMG20160322104011003/22/16 10:40:31  5-MIN KAMG 221540Z AUTO VRB04KT 10SM CLR 16/M01 A3038 -220 32 -100 VRB/04 RMK AO2 T01611006
13870KAMG AMG20160322104510903/22/16 10:45:31  5-MIN KAMG 221545Z AUTO 06003KT 10SM CLR 16/00 A3038 -220 33 -100 070/03 RMK AO2 T01610000
13870KAMG AMG20160322105011603/22/16 10:50:31  5-MIN KAMG 221550Z AUTO 16003KT 10SM CLR 16/00 A3038 -220 33 -100 160/03 RMK AO2 SLP288 T01610000
13870KAMG AMG20160322105510903/22/16 10:55:31  5-MIN KAMG 221555Z AUTO 16003KT 10SM CLR 16/00 A3038 -220 33 -100 170/03 RMK AO2 T01610000
13870KAMG AMG20160322110011003/22/16 11:00:31  5-MIN KAMG 221600Z AUTO 17003KT 10SM CLR 16/M01 A3038 -210 32 -100 180/03 RMK AO2 T01611006
13870KAMG AMG20160322110510603/22/16 11:05:31  5-MIN KAMG 221605Z AUTO 00000KT 10SM CLR 17/00 A3038 -210 32 0 000/00 RMK AO2 T01670000
13870KAMG AMG20160322111010603/22/16 11:10:31  5-MIN KAMG 221610Z AUTO 00000KT 10SM CLR 17/00 A3037 -210 31 0 000/00 RMK AO2 T01720000
13870KAMG AMG20160322111510603/22/16 11:15:31  5-MIN KAMG 221615Z AUTO 15005KT 10SM CLR 17/00 A3037 -210 31 0 150/05 RMK AO2 T01720000
13870KAMG AMG20160322112010603/22/16 11:20:31  5-MIN KAMG 221620Z AUTO 16004KT 10SM CLR 17/00 A3037 -210 31 0 170/04 RMK AO2 T01720000
13870KAMG AMG20160322112510603/22/16 11:25:31  5-MIN KAMG 221625Z AUTO VRB03KT 10SM CLR 17/00 A3037 -210 31 0 VRB/03 RMK AO2 T01720000
13870KAMG AMG20160322113010603/22/16 11:30:31  5-MIN KAMG 221630Z AUTO 15005KT 10SM CLR 17/00 A3037 -210 31 0 150/05 RMK AO2 T01720000
13870KAMG AMG20160322113510603/22/16 11:35:31  5-MIN KAMG 221635Z AUTO 17004KT 10SM CLR 17/00 A3037 -210 31 0 170/04 RMK AO2 T01720000
13870KAMG AMG20160322114010803/22/16 11:40:31  5-MIN KAMG 221640Z AUTO 13003KT 10SM CLR 18/00 A3037 -200 30 100 130/03 RMK AO2 T01780000
13870KAMG AMG20160322114510703/22/16 11:45:31  5-MIN KAMG 221645Z AUTO 00000KT 10SM CLR 17/M01 A3037 -200 29 0 000/00 RMK AO2 T01721006
13870KAMG AMG20160322115011403/22/16 11:50:31  5-MIN KAMG 221650Z AUTO 00000KT 10SM CLR 17/M01 A3036 -200 29 0 000/00 RMK AO2 SLP281 T01721006
13870KAMG AMG20160322115510903/22/16 11:55:31  5-MIN KAMG 221655Z AUTO 22003KT 10SM CLR 17/M01 A3036 -200 28 100 220/03 RMK AO2 T01721011
13870KAMG AMG20160322120010903/22/16 12:00:31  5-MIN KAMG 221700Z AUTO 20005KT 10SM CLR 18/M01 A3036 -200 27 100 210/05 RMK AO2 T01781011
13870KAMG AMG20160322120510903/22/16 12:05:31  5-MIN KAMG 221705Z AUTO 20004KT 10SM CLR 18/M01 A3036 -200 28 100 200/04 RMK AO2 T01781006
13870KAMG AMG20160322121010903/22/16 12:10:31  5-MIN KAMG 221710Z AUTO 22005KT 10SM CLR 18/M01 A3036 -200 28 100 230/05 RMK AO2 T01781006
13870KAMG AMG20160322121510903/22/16 12:15:31  5-MIN KAMG 221715Z AUTO 26003KT 10SM CLR 18/M01 A3036 -190 28 100 260/03 RMK AO2 T01781006
13870KAMG AMG20160322122010903/22/16 12:20:31  5-MIN KAMG 221720Z AUTO 25005KT 10SM CLR 18/M01 A3035 -190 28 100 250/05 RMK AO2 T01781006
13870KAMG AMG20160322122510803/22/16 12:25:31  5-MIN KAMG 221725Z AUTO 00000KT 10SM CLR 18/00 A3035 -190 29 200 000/00 RMK AO2 T01830000
13870KAMG AMG20160322123010903/22/16 12:30:31  5-MIN KAMG 221730Z AUTO 21006KT 10SM CLR 18/M01 A3035 -190 27 200 220/06 RMK AO2 T01831006
13870KAMG AMG20160322123510803/22/16 12:35:31  5-MIN KAMG 221735Z AUTO 25007KT 10SM CLR 18/00 A3035 -180 29 200 260/07 RMK AO2 T01830000
13870KAMG AMG20160322124010903/22/16 12:40:31  5-MIN KAMG 221740Z AUTO 00000KT 10SM CLR 18/M01 A3034 -180 26 200 000/00 RMK AO2 T01831011
13870KAMG AMG20160322124510803/22/16 12:45:31  5-MIN KAMG 221745Z AUTO 00000KT 10SM CLR 19/01 A3034 -180 29 300 000/00 RMK AO2 T01890006
13870KAMG AMG20160322125012303/22/16 12:50:31  5-MIN KAMG 221750Z AUTO 10SM CLR 19/00 A3033 -170 28 300 M /M RMK AO2 SLP271 T01890000 10189 20022 51011
13870KAMG AMG20160322125510803/22/16 12:55:31  5-MIN KAMG 221755Z AUTO VRB03KT 10SM CLR 19/00 A3034 -180 28 300 VRB/03 RMK AO2 T01890000
13870KAMG AMG20160322130010803/22/16 13:00:31  5-MIN KAMG 221800Z AUTO 00000KT 10SM CLR 18/00 A3034 -180 29 200 000/00 RMK AO2 T01830000
13870KAMG AMG20160322130509903/22/16 13:05:31  5-MIN KAMG 221805Z AUTO 10SM CLR 19/M01 A3033 -170 26 300 M /M RMK AO2 T01891006
13870KAMG AMG20160322131010803/22/16 13:10:31  5-MIN KAMG 221810Z AUTO 13004KT 10SM CLR 19/01 A3033 -170 28 300 140/04 RMK AO2 T01940006
13870KAMG AMG20160322131509803/22/16 13:15:31  5-MIN KAMG 221815Z AUTO 10SM CLR 19/00 A3033 -170 27 400 M /M RMK AO2 T01940000
13870KAMG AMG20160322132010803/22/16 13:20:31  5-MIN KAMG 221820Z AUTO 15008KT 10SM CLR 19/01 A3032 -160 28 400 160/08 RMK AO2 T01940006
13870KAMG AMG20160322132510803/22/16 13:25:31  5-MIN KAMG 221825Z AUTO 20007KT 10SM CLR 20/00 A3032 -160 26 400 200/07 RMK AO2 T02000000
13870KAMG AMG20160322133010803/22/16 13:30:31  5-MIN KAMG 221830Z AUTO 22008KT 10SM CLR 19/00 A3032 -160 27 400 230/08 RMK AO2 T01940000
13870KAMG AMG20160322133510903/22/16 13:35:31  5-MIN KAMG 221835Z AUTO VRB04KT 10SM CLR 19/M01 A3032 -160 26 400 VRB/04 RMK AO2 T01941006
13870KAMG AMG20160322134010803/22/16 13:40:31  5-MIN KAMG 221840Z AUTO VRB03KT 10SM CLR 19/00 A3031 -160 27 400 VRB/03 RMK AO2 T01940000
13870KAMG AMG20160322134510803/22/16 13:45:31  5-MIN KAMG 221845Z AUTO 16005KT 10SM CLR 20/01 A3031 -150 27 400 170/05 RMK AO2 T02000006
13870KAMG AMG20160322135011503/22/16 13:50:31  5-MIN KAMG 221850Z AUTO 20008KT 10SM CLR 20/00 A3031 -150 26 400 200/08 RMK AO2 SLP263 T02000000
13870KAMG AMG20160322135510903/22/16 13:55:31  5-MIN KAMG 221855Z AUTO 20006KT 10SM CLR 20/M01 A3031 -150 25 400 210/06 RMK AO2 T02001006
13870KAMG AMG20160322140010903/22/16 14:00:31  5-MIN KAMG 221900Z AUTO 00000KT 10SM CLR 20/M01 A3030 -150 25 400 000/00 RMK AO2 T02001006
13870KAMG AMG20160322140510903/22/16 14:05:31  5-MIN KAMG 221905Z AUTO VRB05KT 10SM CLR 20/M01 A3030 -150 24 400 VRB/05 RMK AO2 T02001011
13870KAMG AMG20160322141010803/22/16 14:10:31  5-MIN KAMG 221910Z AUTO 21008KT 10SM CLR 21/00 A3030 -140 25 500 210/08 RMK AO2 T02060000
13870KAMG AMG20160322141510803/22/16 14:15:31  5-MIN KAMG 221915Z AUTO 27008KT 10SM CLR 21/00 A3030 -140 25 500 280/08 RMK AO2 T02060000
13870KAMG AMG20160322142010903/22/16 14:20:31  5-MIN KAMG 221920Z AUTO 20006KT 10SM CLR 20/M01 A3029 -140 25 500 200/06 RMK AO2 T02001006
13870KAMG AMG20160322142510803/22/16 14:25:31  5-MIN KAMG 221925Z AUTO VRB03KT 10SM CLR 21/00 A3029 -130 25 500 VRB/03 RMK AO2 T02060000
13870KAMG AMG20160322143010803/22/16 14:30:31  5-MIN KAMG 221930Z AUTO VRB06KT 10SM CLR 21/01 A3029 -130 25 600 VRB/06 RMK AO2 T02110006
13870KAMG AMG20160322143510803/22/16 14:35:31  5-MIN KAMG 221935Z AUTO 00000KT 10SM CLR 21/01 A3029 -130 26 500 000/00 RMK AO2 T02060006
13870KAMG AMG20160322144010803/22/16 14:40:31  5-MIN KAMG 221940Z AUTO VRB04KT 10SM CLR 21/01 A3029 -130 25 600 VRB/04 RMK AO2 T02110006
13870KAMG AMG20160322144510803/22/16 14:45:31  5-MIN KAMG 221945Z AUTO 20008KT 10SM CLR 21/01 A3028 -120 25 600 210/08 RMK AO2 T02110006
13870KAMG AMG20160322145011603/22/16 14:50:31  5-MIN KAMG 221950Z AUTO VRB04KT 10SM CLR 20/M01 A3028 -120 24 500 VRB/04 RMK AO2 SLP253 T02001011
13870KAMG AMG20160322145510903/22/16 14:55:31  5-MIN KAMG 221955Z AUTO 00000KT 10SM CLR 21/M01 A3028 -120 23 500 000/00 RMK AO2 T02061011
13870KAMG AMG20160322150010903/22/16 15:00:31  5-MIN KAMG 222000Z AUTO 21007KT 10SM CLR 21/M01 A3028 -120 24 500 210/07 RMK AO2 T02061006
13870KAMG AMG20160322150510803/22/16 15:05:31  5-MIN KAMG 222005Z AUTO VRB04KT 10SM CLR 21/00 A3028 -120 24 600 VRB/04 RMK AO2 T02110000
13870KAMG AMG20160322151010803/22/16 15:10:31  5-MIN KAMG 222010Z AUTO 26009KT 10SM CLR 21/00 A3028 -120 24 600 260/09 RMK AO2 T02110000
13870KAMG AMG20160322151510903/22/16 15:15:31  5-MIN KAMG 222015Z AUTO VRB03KT 10SM CLR 21/M01 A3027 -120 23 600 VRB/03 RMK AO2 T02111006
13870KAMG AMG20160322152010803/22/16 15:20:31  5-MIN KAMG 222020Z AUTO VRB06KT 10SM CLR 21/00 A3027 -120 24 600 VRB/06 RMK AO2 T02110000
13870KAMG AMG20160322152510803/22/16 15:25:31  5-MIN KAMG 222025Z AUTO 28005KT 10SM CLR 21/00 A3027 -110 24 600 280/05 RMK AO2 T02110000
13870KAMG AMG20160322153010803/22/16 15:30:31  5-MIN KAMG 222030Z AUTO 25008KT 10SM CLR 21/00 A3027 -110 24 600 260/08 RMK AO2 T02110000
13870KAMG AMG20160322153510803/22/16 15:35:31  5-MIN KAMG 222035Z AUTO 22008KT 10SM CLR 21/00 A3027 -110 24 600 230/08 RMK AO2 T02110000
13870KAMG AMG20160322154010803/22/16 15:40:31  5-MIN KAMG 222040Z AUTO 20005KT 10SM CLR 22/00 A3027 -110 23 700 200/05 RMK AO2 T02170000
13870KAMG AMG20160322154510903/22/16 15:45:31  5-MIN KAMG 222045Z AUTO VRB03KT 10SM CLR 21/M01 A3026 -110 23 600 VRB/03 RMK AO2 T02111006
13870KAMG AMG20160322155012103/22/16 15:50:31  5-MIN KAMG 222050Z AUTO 24008KT 10SM CLR 21/00 A3026 -110 24 600 240/08 RMK AO2 SLP247 T02110000 58014
13870KAMG AMG20160322155510803/22/16 15:55:31  5-MIN KAMG 222055Z AUTO 27006KT 10SM CLR 21/00 A3026 -110 24 600 280/06 RMK AO2 T02110000
13870KAMG AMG20160322160010903/22/16 16:00:31  5-MIN KAMG 222100Z AUTO 29004KT 10SM CLR 21/M01 A3026 -100 23 600 300/04 RMK AO2 T02111006
13870KAMG AMG20160322160510803/22/16 16:05:31  5-MIN KAMG 222105Z AUTO 25008KT 10SM CLR 22/00 A3026 -110 23 700 260/08 RMK AO2 T02170000
13870KAMG AMG20160322161010903/22/16 16:10:31  5-MIN KAMG 222110Z AUTO VRB04KT 10SM CLR 21/M01 A3026 -100 23 600 VRB/04 RMK AO2 T02111006
13870KAMG AMG20160322161510803/22/16 16:15:31  5-MIN KAMG 222115Z AUTO 27005KT 10SM CLR 21/00 A3026 -100 24 600 270/05 RMK AO2 T02110000
13870KAMG AMG20160322162010803/22/16 16:20:31  5-MIN KAMG 222120Z AUTO 20006KT 10SM CLR 22/00 A3026 -100 23 700 210/06 RMK AO2 T02170000
13870KAMG AMG20160322162510803/22/16 16:25:31  5-MIN KAMG 222125Z AUTO 26006KT 10SM CLR 21/00 A3026 -100 24 600 260/06 RMK AO2 T02110000
13870KAMG AMG20160322163010803/22/16 16:30:31  5-MIN KAMG 222130Z AUTO VRB06KT 10SM CLR 22/01 A3026 -100 24 700 VRB/06 RMK AO2 T02170006
13870KAMG AMG20160322163510803/22/16 16:35:31  5-MIN KAMG 222135Z AUTO 23008KT 10SM CLR 21/01 A3026 -100 25 600 230/08 RMK AO2 T02110006
13870KAMG AMG20160322164010803/22/16 16:40:31  5-MIN KAMG 222140Z AUTO 20008KT 10SM CLR 21/00 A3025 -100 24 600 200/08 RMK AO2 T02110000
13870KAMG AMG20160322164510803/22/16 16:45:31  5-MIN KAMG 222145Z AUTO 26006KT 10SM CLR 21/00 A3025 -100 24 600 270/06 RMK AO2 T02110000
13870KAMG AMG20160322165011503/22/16 16:50:31  5-MIN KAMG 222150Z AUTO 00000KT 10SM CLR 21/00 A3025 -100 24 600 000/00 RMK AO2 SLP243 T02110000
13870KAMG AMG20160322165510803/22/16 16:55:31  5-MIN KAMG 222155Z AUTO 29003KT 10SM CLR 21/00 A3025 -100 24 600 290/03 RMK AO2 T02110000
13870KAMG AMG20160322170010803/22/16 17:00:31  5-MIN KAMG 222200Z AUTO 23004KT 10SM CLR 21/00 A3025 -100 24 600 230/04 RMK AO2 T02110000
13870KAMG AMG20160322170510803/22/16 17:05:31  5-MIN KAMG 222205Z AUTO 21006KT 10SM CLR 21/01 A3025 -100 25 600 210/06 RMK AO2 T02110006
13870KAMG AMG20160322171010803/22/16 17:10:31  5-MIN KAMG 222210Z AUTO 25006KT 10SM CLR 21/01 A3025 -100 25 600 250/06 RMK AO2 T02110006
13870KAMG AMG20160322171510903/22/16 17:15:31  5-MIN KAMG 222215Z AUTO 25005KT 10SM CLR 21/M01 A3025 -100 24 600 250/05 RMK AO2 T02061006
13870KAMG AMG20160322172010903/22/16 17:20:31  5-MIN KAMG 222220Z AUTO 00000KT 10SM CLR 21/M01 A3025 -100 23 600 000/00 RMK AO2 T02111006
13870KAMG AMG20160322172510803/22/16 17:25:31  5-MIN KAMG 222225Z AUTO 23006KT 10SM CLR 21/01 A3025 -100 26 600 230/06 RMK AO2 T02110011
13870KAMG AMG20160322173010803/22/16 17:30:31  5-MIN KAMG 222230Z AUTO 25005KT 10SM CLR 21/01 A3025 -100 26 600 260/05 RMK AO2 T02110011
13870KAMG AMG20160322173510803/22/16 17:35:31  5-MIN KAMG 222235Z AUTO 24004KT 10SM CLR 21/00 A3025 -100 25 600 240/04 RMK AO2 T02060000
13870KAMG AMG20160322174010803/22/16 17:40:31  5-MIN KAMG 222240Z AUTO 23005KT 10SM CLR 21/01 A3025 -100 26 600 230/05 RMK AO2 T02060006
13870KAMG AMG20160322174510803/22/16 17:45:31  5-MIN KAMG 222245Z AUTO 21005KT 10SM CLR 21/01 A3025 -100 26 600 220/05 RMK AO2 T02060006
13870KAMG AMG20160322175011503/22/16 17:50:31  5-MIN KAMG 222250Z AUTO 24005KT 10SM CLR 21/01 A3025 -100 27 600 250/05 RMK AO2 SLP244 T02060011
13870KAMG AMG20160322175510803/22/16 17:55:31  5-MIN KAMG 222255Z AUTO 24005KT 10SM CLR 21/01 A3025 -100 27 600 250/05 RMK AO2 T02060011
13870KAMG AMG20160322180010803/22/16 18:00:31  5-MIN KAMG 222300Z AUTO 22004KT 10SM CLR 20/01 A3025 -100 28 500 230/04 RMK AO2 T02000011
13870KAMG AMG20160322180510803/22/16 18:05:31  5-MIN KAMG 222305Z AUTO 24003KT 10SM CLR 20/02 A3025 -100 29 500 240/03 RMK AO2 T02000017
13870KAMG AMG20160322181010803/22/16 18:10:31  5-MIN KAMG 222310Z AUTO 24003KT 10SM CLR 20/02 A3025 -100 29 500 240/03 RMK AO2 T02000017
13870KAMG AMG20160322181510803/22/16 18:15:31  5-MIN KAMG 222315Z AUTO 25003KT 10SM CLR 19/01 A3025 -100 29 400 260/03 RMK AO2 T01940011
13870KAMG AMG20160322182010803/22/16 18:20:31  5-MIN KAMG 222320Z AUTO 25003KT 10SM CLR 19/02 A3025 -100 30 400 250/03 RMK AO2 T01940017
13870KAMG AMG20160322182510803/22/16 18:25:31  5-MIN KAMG 222325Z AUTO 25003KT 10SM CLR 19/02 A3025 -100 31 400 250/03 RMK AO2 T01890017
13870KAMG AMG20160322183010803/22/16 18:30:31  5-MIN KAMG 222330Z AUTO 00000KT 10SM CLR 19/02 A3025 -100 31 400 000/00 RMK AO2 T01890017
13870KAMG AMG20160322183510803/22/16 18:35:31  5-MIN KAMG 222335Z AUTO 00000KT 10SM CLR 18/02 A3025 -100 34 300 000/00 RMK AO2 T01830022
13870KAMG AMG20160322184010803/22/16 18:40:31  5-MIN KAMG 222340Z AUTO 00000KT 10SM CLR 17/03 A3025 -100 39 200 000/00 RMK AO2 T01720033
13870KAMG AMG20160322184510603/22/16 18:45:31  5-MIN KAMG 222345Z AUTO 00000KT 10SM CLR 16/04 A3026 -100 44 0 000/00 RMK AO2 T01610039
13870KAMG AMG20160322185013103/22/16 18:50:31  5-MIN KAMG 222350Z AUTO 00000KT 10SM CLR 15/04 A3026 -100 49 0 000/00 RMK AO2 SLP245 T01500044 10217 20150 56024
13870KAMG AMG20160322185510903/22/16 18:55:31  5-MIN KAMG 222355Z AUTO 00000KT 10SM CLR 14/04 A3026 -100 51 -100 000/00 RMK AO2 T01440044
13870KAMG AMG20160322190010903/22/16 19:00:31  5-MIN KAMG 230000Z AUTO 00000KT 10SM CLR 14/04 A3026 -100 51 -100 000/00 RMK AO2 T01440044
13870KAMG AMG20160322190510903/22/16 19:05:31  5-MIN KAMG 230005Z AUTO 00000KT 10SM CLR 14/04 A3026 -100 51 -100 000/00 RMK AO2 T01440044
13870KAMG AMG20160322191010903/22/16 19:10:31  5-MIN KAMG 230010Z AUTO 00000KT 10SM CLR 14/04 A3026 -100 52 -200 000/00 RMK AO2 T01390044
13870KAMG AMG20160322191510903/22/16 19:15:31  5-MIN KAMG 230015Z AUTO 00000KT 10SM CLR 13/04 A3026 -100 54 -200 000/00 RMK AO2 T01330044
13870KAMG AMG20160322192010903/22/16 19:20:31  5-MIN KAMG 230020Z AUTO 00000KT 10SM CLR 13/04 A3026 -100 56 -300 000/00 RMK AO2 T01280044
13870KAMG AMG20160322192510903/22/16 19:25:31  5-MIN KAMG 230025Z AUTO 00000KT 10SM CLR 12/04 A3026 -110 59 -400 000/00 RMK AO2 T01220044
13870KAMG AMG20160322193010903/22/16 19:30:31  5-MIN KAMG 230030Z AUTO 00000KT 10SM CLR 12/04 A3026 -110 61 -400 000/00 RMK AO2 T01170044
13870KAMG AMG20160322193510903/22/16 19:35:31  5-MIN KAMG 230035Z AUTO 00000KT 10SM CLR 12/04 A3026 -110 59 -400 000/00 RMK AO2 T01220044
13870KAMG AMG20160322194010903/22/16 19:40:31  5-MIN KAMG 230040Z AUTO 00000KT 10SM CLR 12/04 A3026 -110 61 -400 000/00 RMK AO2 T01170044
13870KAMG AMG20160322194510903/22/16 19:45:31  5-MIN KAMG 230045Z AUTO 00000KT 10SM CLR 12/04 A3026 -100 61 -400 000/00 RMK AO2 T01170044
13870KAMG AMG20160322195011603/22/16 19:50:31  5-MIN KAMG 230050Z AUTO 00000KT 10SM CLR 11/04 A3026 -110 66 -600 000/00 RMK AO2 SLP246 T01060044
13870KAMG AMG20160322195510903/22/16 19:55:31  5-MIN KAMG 230055Z AUTO 00000KT 10SM CLR 11/04 A3026 -110 66 -600 000/00 RMK AO2 T01060044
13870KAMG AMG20160322200010903/22/16 20:00:31  5-MIN KAMG 230100Z AUTO 00000KT 10SM CLR 11/04 A3026 -110 66 -600 000/00 RMK AO2 T01060044
13870KAMG AMG20160322200510903/22/16 20:05:31  5-MIN KAMG 230105Z AUTO 00000KT 10SM CLR 11/04 A3026 -110 63 -500 000/00 RMK AO2 T01110044
13870KAMG AMG20160322201010903/22/16 20:10:31  5-MIN KAMG 230110Z AUTO 00000KT 10SM CLR 11/04 A3026 -110 66 -600 000/00 RMK AO2 T01060044
13870KAMG AMG20160322201510903/22/16 20:15:31  5-MIN KAMG 230115Z AUTO 00000KT 10SM CLR 11/04 A3026 -110 66 -600 000/00 RMK AO2 T01060044
13870KAMG AMG20160322202010903/22/16 20:20:31  5-MIN KAMG 230120Z AUTO 00000KT 10SM CLR 10/05 A3026 -110 71 -700 000/00 RMK AO2 T01000050
13870KAMG AMG20160322202510903/22/16 20:25:31  5-MIN KAMG 230125Z AUTO 00000KT 10SM CLR 10/05 A3027 -110 71 -700 000/00 RMK AO2 T01000050
13870KAMG AMG20160322203010903/22/16 20:30:31  5-MIN KAMG 230130Z AUTO 00000KT 10SM CLR 10/04 A3027 -110 68 -700 000/00 RMK AO2 T01000044
13870KAMG AMG20160322203510903/22/16 20:35:31  5-MIN KAMG 230135Z AUTO 00000KT 10SM CLR 09/04 A3027 -110 71 -700 000/00 RMK AO2 T00940044
13870KAMG AMG20160322204010903/22/16 20:40:31  5-MIN KAMG 230140Z AUTO 00000KT 10SM CLR 09/04 A3027 -110 71 -700 000/00 RMK AO2 T00940044
13870KAMG AMG20160322204510903/22/16 20:45:31  5-MIN KAMG 230145Z AUTO 00000KT 10SM CLR 09/04 A3027 -120 71 -700 000/00 RMK AO2 T00940044
13870KAMG AMG20160322205011603/22/16 20:50:31  5-MIN KAMG 230150Z AUTO 00000KT 10SM CLR 09/04 A3027 -120 71 -700 000/00 RMK AO2 SLP249 T00940044
13870KAMG AMG20160322205510903/22/16 20:55:31  5-MIN KAMG 230155Z AUTO 00000KT 10SM CLR 09/04 A3027 -120 71 -700 000/00 RMK AO2 T00940044
13870KAMG AMG20160322210010903/22/16 21:00:31  5-MIN KAMG 230200Z AUTO 00000KT 10SM CLR 09/04 A3027 -120 73 -800 000/00 RMK AO2 T00890044
13870KAMG AMG20160322210510903/22/16 21:05:31  5-MIN KAMG 230205Z AUTO 00000KT 10SM CLR 09/04 A3027 -120 73 -800 000/00 RMK AO2 T00890044
13870KAMG AMG20160322211010903/22/16 21:10:31  5-MIN KAMG 230210Z AUTO 00000KT 10SM CLR 08/04 A3027 -120 76 -900 000/00 RMK AO2 T00830044
13870KAMG AMG20160322211510903/22/16 21:15:31  5-MIN KAMG 230215Z AUTO 00000KT 10SM CLR 08/05 A3027 -120 79 -900 000/00 RMK AO2 T00830050
13870KAMG AMG20160322212010903/22/16 21:20:31  5-MIN KAMG 230220Z AUTO 00000KT 10SM CLR 08/05 A3027 -120 79 -900 000/00 RMK AO2 T00830050
13870KAMG AMG20160322212510903/22/16 21:25:31  5-MIN KAMG 230225Z AUTO 00000KT 10SM CLR 08/05 A3027 -120 79 -900 000/00 RMK AO2 T00830050
13870KAMG AMG20160322213010903/22/16 21:30:31  5-MIN KAMG 230230Z AUTO 00000KT 10SM CLR 08/05 A3027 -120 79 -900 000/00 RMK AO2 T00830050
13870KAMG AMG20160322213510903/22/16 21:35:31  5-MIN KAMG 230235Z AUTO 00000KT 10SM CLR 08/06 A3027 -120 86 -900 000/00 RMK AO2 T00780056
13870KAMG AMG20160322214010903/22/16 21:40:31  5-MIN KAMG 230240Z AUTO 00000KT 10SM CLR 08/06 A3028 -120 86 -900 000/00 RMK AO2 T00780056
13870KAMG AMG20160322214510903/22/16 21:45:31  5-MIN KAMG 230245Z AUTO 00000KT 10SM CLR 08/06 A3028 -120 86 -900 000/00 RMK AO2 T00780056
13870KAMG AMG20160322215012203/22/16 21:50:31  5-MIN KAMG 230250Z AUTO 00000KT 10SM CLR 08/06 A3028 -120 86 -900 000/00 RMK AO2 SLP251 T00780056 55002
13870KAMG AMG20160322215510903/22/16 21:55:31  5-MIN KAMG 230255Z AUTO 00000KT 10SM CLR 08/06 A3028 -120 89 -900 000/00 RMK AO2 T00780061
13870KAMG AMG20160322220010903/22/16 22:00:31  5-MIN KAMG 230300Z AUTO 00000KT 10SM CLR 08/06 A3028 -120 89 -900 000/00 RMK AO2 T00780061
13870KAMG AMG20160322220511003/22/16 22:05:31  5-MIN KAMG 230305Z AUTO 11004KT 10SM CLR 07/06 A3028 -120 89 -1000 110/04 RMK AO2 T00720056
13870KAMG AMG20160322221010903/22/16 22:10:31  5-MIN KAMG 230310Z AUTO 11003KT 10SM CLR 08/06 A3028 -120 86 -900 120/03 RMK AO2 T00780056
13870KAMG AMG20160322221510903/22/16 22:15:31  5-MIN KAMG 230315Z AUTO 00000KT 10SM CLR 08/06 A3028 -120 86 -900 000/00 RMK AO2 T00830061
13870KAMG AMG20160322222010903/22/16 22:20:31  5-MIN KAMG 230320Z AUTO 14004KT 10SM CLR 09/06 A3028 -130 83 -800 150/04 RMK AO2 T00890061
13870KAMG AMG20160322222510903/22/16 22:25:31  5-MIN KAMG 230325Z AUTO 15003KT 10SM CLR 08/06 A3028 -130 86 -900 160/03 RMK AO2 T00830061
13870KAMG AMG20160322223010903/22/16 22:30:31  5-MIN KAMG 230330Z AUTO 14004KT 10SM CLR 09/06 A3028 -130 79 -800 140/04 RMK AO2 T00890056
13870KAMG AMG20160322223510903/22/16 22:35:31  5-MIN KAMG 230335Z AUTO 15003KT 10SM CLR 09/05 A3028 -130 74 -700 150/03 RMK AO2 T00940050
13870KAMG AMG20160322224010903/22/16 22:40:31  5-MIN KAMG 230340Z AUTO 15003KT 10SM CLR 10/05 A3028 -130 71 -700 160/03 RMK AO2 T01000050
13870KAMG AMG20160322224510903/22/16 22:45:31  5-MIN KAMG 230345Z AUTO 18005KT 10SM CLR 10/06 A3029 -130 74 -700 180/05 RMK AO2 T01000056
13870KAMG AMG20160322225011603/22/16 22:50:31  5-MIN KAMG 230350Z AUTO 16004KT 10SM CLR 10/06 A3029 -130 77 -700 170/04 RMK AO2 SLP255 T01000061
13870KAMG AMG20160322225510903/22/16 22:55:31  5-MIN KAMG 230355Z AUTO 16004KT 10SM CLR 11/06 A3029 -130 74 -600 160/04 RMK AO2 T01060061
13870KAMG AMG20160322230010903/22/16 23:00:31  5-MIN KAMG 230400Z AUTO 15003KT 10SM CLR 11/06 A3029 -130 74 -600 160/03 RMK AO2 T01060061
13870KAMG AMG20160322230510903/22/16 23:05:31  5-MIN KAMG 230405Z AUTO 16004KT 10SM CLR 11/06 A3028 -130 71 -600 170/04 RMK AO2 T01060056
13870KAMG AMG20160322231010903/22/16 23:10:31  5-MIN KAMG 230410Z AUTO 17005KT 10SM CLR 11/06 A3028 -130 71 -500 170/05 RMK AO2 T01110061
13870KAMG AMG20160322231510903/22/16 23:15:31  5-MIN KAMG 230415Z AUTO 18005KT 10SM CLR 11/06 A3028 -130 71 -500 180/05 RMK AO2 T01110061
13870KAMG AMG20160322232010903/22/16 23:20:31  5-MIN KAMG 230420Z AUTO 17004KT 10SM CLR 11/07 A3028 -130 77 -600 180/04 RMK AO2 T01060067
13870KAMG AMG20160322232510903/22/16 23:25:31  5-MIN KAMG 230425Z AUTO 17003KT 10SM CLR 11/07 A3028 -130 77 -600 180/03 RMK AO2 T01060067
13870KAMG AMG20160322233010903/22/16 23:30:31  5-MIN KAMG 230430Z AUTO 00000KT 10SM CLR 10/06 A3028 -130 77 -700 000/00 RMK AO2 T01000061
13870KAMG AMG20160322233510903/22/16 23:35:31  5-MIN KAMG 230435Z AUTO 00000KT 10SM CLR 11/06 A3028 -130 74 -600 000/00 RMK AO2 T01060061
13870KAMG AMG20160322234010903/22/16 23:40:31  5-MIN KAMG 230440Z AUTO 00000KT 10SM CLR 10/06 A3028 -130 77 -700 000/00 RMK AO2 T01000061
13870KAMG AMG20160322234510903/22/16 23:45:31  5-MIN KAMG 230445Z AUTO 15003KT 10SM CLR 09/06 A3028 -120 76 -700 150/03 RMK AO2 T00940056
13870KAMG AMG20160322235012603/22/16 23:50:31  5-MIN KAMG 230450Z AUTO 15003KT 10SM CLR 10/06 A3028 -120 77 -700 160/03 RMK AO2 SLP252 T01000061 402170017
13870KAMG AMG20160322235510903/22/16 23:55:31  5-MIN KAMG 230455Z AUTO 00000KT 10SM CLR 09/06 A3028 -120 79 -700 000/00 RMK AO2 T00940061
13870KAMG AMG20160323000010903/23/16 00:00:31  5-MIN KAMG 230500Z AUTO 00000KT 10SM CLR 09/06 A3028 -120 79 -800 000/00 RMK AO2 T00890056
13870KAMG AMG20160323000510903/23/16 00:05:31  5-MIN KAMG 230505Z AUTO 00000KT 10SM CLR 09/06 A3028 -120 76 -700 000/00 RMK AO2 T00940056
13870KAMG AMG20160323001010903/23/16 00:10:31  5-MIN KAMG 230510Z AUTO 00000KT 10SM CLR 09/06 A3028 -120 79 -800 000/00 RMK AO2 T00890056
13870KAMG AMG20160323001510903/23/16 00:15:31  5-MIN KAMG 230515Z AUTO 00000KT 10SM CLR 09/06 A3028 -120 79 -800 000/00 RMK AO2 T00890056
13870KAMG AMG20160323002010903/23/16 00:20:31  5-MIN KAMG 230520Z AUTO 00000KT 10SM CLR 09/06 A3027 -120 79 -800 000/00 RMK AO2 T00890056
13870KAMG AMG20160323002510903/23/16 00:25:31  5-MIN KAMG 230525Z AUTO 00000KT 10SM CLR 09/06 A3027 -120 79 -800 000/00 RMK AO2 T00890056
13870KAMG AMG20160323003010903/23/16 00:30:31  5-MIN KAMG 230530Z AUTO 00000KT 10SM CLR 08/06 A3027 -120 82 -900 000/00 RMK AO2 T00830056
13870KAMG AMG20160323003510903/23/16 00:35:31  5-MIN KAMG 230535Z AUTO 00000KT 10SM CLR 08/06 A3027 -120 86 -900 000/00 RMK AO2 T00780056
13870KAMG AMG20160323004010903/23/16 00:40:31  5-MIN KAMG 230540Z AUTO 00000KT 10SM CLR 08/06 A3027 -110 86 -900 000/00 RMK AO2 T00780056
13870KAMG AMG20160323004511003/23/16 00:45:31  5-MIN KAMG 230545Z AUTO 00000KT 10SM CLR 07/06 A3027 -110 89 -1000 000/00 RMK AO2 T00720056
13870KAMG AMG20160323005013503/23/16 00:50:31  5-MIN KAMG 230550Z AUTO 00000KT 10SM CLR 07/06 A3027 -110 93 -1100 000/00 RMK AO2 SLP249 T00670056 10144 20067 53007
13870KAMG AMG20160323005511003/23/16 00:55:31  5-MIN KAMG 230555Z AUTO 00000KT 10SM CLR 07/06 A3027 -110 93 -1100 000/00 RMK AO2 T00670056
13870KAMG AMG20160323010011003/23/16 01:00:31  5-MIN KAMG 230600Z AUTO 00000KT 10SM CLR 07/06 A3027 -110 93 -1100 000/00 RMK AO2 T00670056
13870KAMG AMG20160323010511003/23/16 01:05:31  5-MIN KAMG 230605Z AUTO 00000KT 10SM CLR 07/06 A3027 -110 93 -1100 000/00 RMK AO2 T00670056
13870KAMG AMG20160323011011003/23/16 01:10:31  5-MIN KAMG 230610Z AUTO 00000KT 10SM CLR 06/06 A3027 -110 96 -1100 000/00 RMK AO2 T00610056
13870KAMG AMG20160323011511003/23/16 01:15:31  5-MIN KAMG 230615Z AUTO 00000KT 10SM CLR 06/06 A3027 -110 96 -1100 000/00 RMK AO2 T00610056
13870KAMG AMG20160323012011003/23/16 01:20:31  5-MIN KAMG 230620Z AUTO 00000KT 10SM CLR 06/05 A3027 -110 96 -1200 000/00 RMK AO2 T00560050
13870KAMG AMG20160323012511103/23/16 01:25:31  5-MIN KAMG 230625Z AUTO 00000KT 10SM CLR 06/06 A3027 -110 100 -1200 000/00 RMK AO2 T00560056
13870KAMG AMG20160323013011003/23/16 01:30:31  5-MIN KAMG 230630Z AUTO 00000KT 10SM CLR 06/06 A3027 -110 96 -1100 000/00 RMK AO2 T00610056
13870KAMG AMG20160323013511003/23/16 01:35:31  5-MIN KAMG 230635Z AUTO 00000KT 10SM CLR 06/06 A3027 -110 96 -1100 000/00 RMK AO2 T00610056
13870KAMG AMG20160323014011003/23/16 01:40:31  5-MIN KAMG 230640Z AUTO 00000KT 10SM CLR 06/06 A3026 -110 96 -1100 000/00 RMK AO2 T00610056
13870KAMG AMG20160323014511003/23/16 01:45:31  5-MIN KAMG 230645Z AUTO 00000KT 10SM CLR 06/06 A3026 -110 96 -1100 000/00 RMK AO2 T00610056
13870KAMG AMG20160323015011703/23/16 01:50:31  5-MIN KAMG 230650Z AUTO 00000KT 10SM CLR 06/06 A3026 -110 96 -1100 000/00 RMK AO2 SLP247 T00610056
13870KAMG AMG20160323015511003/23/16 01:55:31  5-MIN KAMG 230655Z AUTO 00000KT 10SM CLR 06/06 A3027 -110 96 -1100 000/00 RMK AO2 T00610056
13870KAMG AMG20160323020011003/23/16 02:00:31  5-MIN KAMG 230700Z AUTO 00000KT 10SM CLR 06/06 A3027 -110 96 -1100 000/00 RMK AO2 T00610056
13870KAMG AMG20160323020511003/23/16 02:05:31  5-MIN KAMG 230705Z AUTO 00000KT 10SM CLR 06/05 A3027 -110 93 -1100 000/00 RMK AO2 T00610050
13870KAMG AMG20160323021011003/23/16 02:10:31  5-MIN KAMG 230710Z AUTO 00000KT 10SM CLR 06/05 A3027 -110 96 -1200 000/00 RMK AO2 T00560050
13870KAMG AMG20160323021511003/23/16 02:15:31  5-MIN KAMG 230715Z AUTO 00000KT 10SM CLR 06/06 A3027 -110 96 -1100 000/00 RMK AO2 T00610056
13870KAMG AMG20160323022011003/23/16 02:20:31  5-MIN KAMG 230720Z AUTO 00000KT 10SM CLR 06/06 A3027 -110 96 -1100 000/00 RMK AO2 T00610056
13870KAMG AMG20160323022511003/23/16 02:25:31  5-MIN KAMG 230725Z AUTO 00000KT 10SM CLR 06/05 A3026 -110 93 -1100 000/00 RMK AO2 T00610050
13870KAMG AMG20160323023011003/23/16 02:30:31  5-MIN KAMG 230730Z AUTO 00000KT 10SM CLR 07/06 A3026 -110 93 -1100 000/00 RMK AO2 T00670056
13870KAMG AMG20160323023511003/23/16 02:35:31  5-MIN KAMG 230735Z AUTO 00000KT 10SM CLR 06/06 A3026 -110 96 -1100 000/00 RMK AO2 T00610056
13870KAMG AMG20160323024011003/23/16 02:40:31  5-MIN KAMG 230740Z AUTO 00000KT 10SM CLR 06/05 A3026 -100 96 -1200 000/00 RMK AO2 T00560050
13870KAMG AMG20160323024511003/23/16 02:45:31  5-MIN KAMG 230745Z AUTO 00000KT 10SM CLR 06/05 A3026 -100 96 -1200 000/00 RMK AO2 T00560050
13870KAMG AMG20160323025011603/23/16 02:50:31  5-MIN KAMG 230750Z AUTO 00000KT 9SM CLR 06/05 A3026 -100 96 -1200 000/00 RMK AO2 SLP245 T00560050
13870KAMG AMG20160323025510903/23/16 02:55:31  5-MIN KAMG 230755Z AUTO 00000KT 9SM CLR 06/05 A3026 -100 96 -1200 000/00 RMK AO2 T00560050
13870KAMG AMG20160323030011003/23/16 03:00:31  5-MIN KAMG 230800Z AUTO 00000KT 10SM CLR 06/05 A3026 -100 96 -1200 000/00 RMK AO2 T00560050
13870KAMG AMG20160323030511003/23/16 03:05:31  5-MIN KAMG 230805Z AUTO 00000KT 10SM CLR 06/05 A3025 -100 93 -1100 000/00 RMK AO2 T00610050
13870KAMG AMG20160323031011003/23/16 03:10:31  5-MIN KAMG 230810Z AUTO 00000KT 10SM CLR 06/05 A3025 -100 93 -1100 000/00 RMK AO2 T00610050
13870KAMG AMG20160323031511003/23/16 03:15:31  5-MIN KAMG 230815Z AUTO 00000KT 10SM CLR 06/04 A3025 -100 92 -1200 000/00 RMK AO2 T00560044
13870KAMG AMG20160323032011003/23/16 03:20:31  5-MIN KAMG 230820Z AUTO 00000KT 10SM CLR 06/05 A3025 -100 96 -1200 000/00 RMK AO2 T00560050
13870KAMG AMG20160323032511003/23/16 03:25:31  5-MIN KAMG 230825Z AUTO 00000KT 10SM CLR 06/05 A3025 -100 96 -1200 000/00 RMK AO2 T00560050
13870KAMG AMG20160323033011103/23/16 03:30:31  5-MIN KAMG 230830Z AUTO 00000KT 10SM CLR 05/05 A3025 -100 100 -1200 000/00 RMK AO2 T00500050
13870KAMG AMG20160323033511003/23/16 03:35:31  5-MIN KAMG 230835Z AUTO 00000KT 10SM CLR 06/05 A3025 -100 96 -1200 000/00 RMK AO2 T00560050
13870KAMG AMG20160323034011003/23/16 03:40:31  5-MIN KAMG 230840Z AUTO 00000KT 10SM CLR 06/05 A3025 -100 96 -1200 000/00 RMK AO2 T00560050
13870KAMG AMG20160323034511103/23/16 03:45:31  5-MIN KAMG 230845Z AUTO 00000KT 10SM CLR 05/05 A3025 -100 100 -1200 000/00 RMK AO2 T00500050
13870KAMG AMG20160323035012303/23/16 03:50:31  5-MIN KAMG 230850Z AUTO 00000KT 9SM CLR 05/05 A3025 -100 100 -1200 000/00 RMK AO2 SLP243 T00500050 58003
13870KAMG AMG20160323035511003/23/16 03:55:31  5-MIN KAMG 230855Z AUTO 00000KT 10SM CLR 06/05 A3025 -100 96 -1200 000/00 RMK AO2 T00560050
13870KAMG AMG20160323040010903/23/16 04:00:31  5-MIN KAMG 230900Z AUTO 00000KT 9SM CLR 06/05 A3025 -100 96 -1200 000/00 RMK AO2 T00560050
13870KAMG AMG20160323040511003/23/16 04:05:31  5-MIN KAMG 230905Z AUTO 00000KT 8SM CLR 05/05 A3025 -100 100 -1300 000/00 RMK AO2 T00500050
13870KAMG AMG20160323041010903/23/16 04:10:31  5-MIN KAMG 230910Z AUTO 00000KT 7SM CLR 06/05 A3025 -100 96 -1200 000/00 RMK AO2 T00560050
13870KAMG AMG20160323041511003/23/16 04:15:31  5-MIN KAMG 230915Z AUTO 00000KT 7SM CLR 04/04 A3025 -100 100 -1300 000/00 RMK AO2 T00440044
13870KAMG AMG20160323042011003/23/16 04:20:31  5-MIN KAMG 230920Z AUTO 00000KT 8SM CLR 04/04 A3025 -100 100 -1300 000/00 RMK AO2 T00440044
13870KAMG AMG20160323042511003/23/16 04:25:31  5-MIN KAMG 230925Z AUTO 00000KT 8SM CLR 04/04 A3025 -100 100 -1300 000/00 RMK AO2 T00440044
13870KAMG AMG20160323043011003/23/16 04:30:31  5-MIN KAMG 230930Z AUTO 00000KT 8SM CLR 04/04 A3025 -100 100 -1300 000/00 RMK AO2 T00440044
13870KAMG AMG20160323043510903/23/16 04:35:31  5-MIN KAMG 230935Z AUTO 00000KT 8SM CLR 04/04 A3025 -100 96 -1300 000/00 RMK AO2 T00440039
13870KAMG AMG20160323044010903/23/16 04:40:31  5-MIN KAMG 230940Z AUTO 00000KT 8SM CLR 05/04 A3025 -100 96 -1300 000/00 RMK AO2 T00500044
13870KAMG AMG20160323044510903/23/16 04:45:31  5-MIN KAMG 230945Z AUTO 00000KT 9SM CLR 05/04 A3025 -100 96 -1300 000/00 RMK AO2 T00500044
13870KAMG AMG20160323045011603/23/16 04:50:31  5-MIN KAMG 230950Z AUTO 00000KT 9SM CLR 05/04 A3025 -100 96 -1200 000/00 RMK AO2 SLP243 T00500044
13870KAMG AMG20160323045511003/23/16 04:55:31  5-MIN KAMG 230955Z AUTO 00000KT 8SM CLR 04/04 A3025 -100 100 -1300 000/00 RMK AO2 T00440044
13870KAMG AMG20160323050010903/23/16 05:00:31  5-MIN KAMG 231000Z AUTO 00000KT 8SM CLR 05/04 A3025 -100 96 -1300 000/00 RMK AO2 T00500044
13870KAMG AMG20160323050511003/23/16 05:05:31  5-MIN KAMG 231005Z AUTO 00000KT 8SM CLR 04/04 A3025 -100 100 -1300 000/00 RMK AO2 T00440044
13870KAMG AMG20160323051010903/23/16 05:10:31  5-MIN KAMG 231010Z AUTO 00000KT 8SM CLR 04/04 A3025 -100 96 -1300 000/00 RMK AO2 T00440039
13870KAMG AMG20160323051511003/23/16 05:15:31  5-MIN KAMG 231015Z AUTO 00000KT 8SM CLR 04/04 A3025 -100 100 -1400 000/00 RMK AO2 T00390039
13870KAMG AMG20160323052010903/23/16 05:20:31  5-MIN KAMG 231020Z AUTO 00000KT 8SM CLR 04/04 A3025 -100 96 -1300 000/00 RMK AO2 T00440039
13870KAMG AMG20160323052511003/23/16 05:25:31  5-MIN KAMG 231025Z AUTO 00000KT 9SM CLR 04/04 A3026 -100 100 -1400 000/00 RMK AO2 T00390039
13870KAMG AMG20160323053011003/23/16 05:30:31  5-MIN KAMG 231030Z AUTO 00000KT 9SM CLR 04/04 A3026 -100 100 -1400 000/00 RMK AO2 T00390039
13870KAMG AMG20160323053511103/23/16 05:35:31  5-MIN KAMG 231035Z AUTO 00000KT 10SM CLR 04/04 A3025 -100 100 -1400 000/00 RMK AO2 T00390039
13870KAMG AMG20160323054010903/23/16 05:40:31  5-MIN KAMG 231040Z AUTO 00000KT 9SM CLR 04/04 A3025 -100 96 -1300 000/00 RMK AO2 T00440039
13870KAMG AMG20160323054510903/23/16 05:45:31  5-MIN KAMG 231045Z AUTO 00000KT 9SM CLR 04/04 A3025 -100 96 -1300 000/00 RMK AO2 T00440039
13870KAMG AMG20160323055011703/23/16 05:50:31  5-MIN KAMG 231050Z AUTO 00000KT 10SM CLR 05/04 A3026 -100 96 -1300 000/00 RMK AO2 SLP245 T00500044
13870KAMG AMG20160323055511003/23/16 05:55:31  5-MIN KAMG 231055Z AUTO 00000KT 10SM CLR 04/04 A3026 -100 96 -1300 000/00 RMK AO2 T00440039
13870KAMG AMG20160323060010903/23/16 06:00:31  5-MIN KAMG 231100Z AUTO 00000KT 9SM CLR 04/04 A3026 -100 96 -1300 000/00 RMK AO2 T00440039
13870KAMG AMG20160323060510903/23/16 06:05:31  5-MIN KAMG 231105Z AUTO 00000KT 8SM CLR 04/04 A3026 -110 96 -1300 000/00 RMK AO2 T00440039
13870KAMG AMG20160323061011003/23/16 06:10:31  5-MIN KAMG 231110Z AUTO 00000KT 9SM CLR 04/04 A3026 -110 100 -1400 000/00 RMK AO2 T00390039
13870KAMG AMG20160323061511003/23/16 06:15:31  5-MIN KAMG 231115Z AUTO 00000KT 9SM CLR 04/04 A3026 -110 100 -1400 000/00 RMK AO2 T00390039
13870KAMG AMG20160323062011003/23/16 06:20:31  5-MIN KAMG 231120Z AUTO 00000KT 8SM CLR 04/04 A3026 -110 100 -1400 000/00 RMK AO2 T00390039
13870KAMG AMG20160323062510903/23/16 06:25:31  5-MIN KAMG 231125Z AUTO 00000KT 8SM CLR 04/04 A3026 -110 96 -1300 000/00 RMK AO2 T00440039
13870KAMG AMG20160323063010903/23/16 06:30:31  5-MIN KAMG 231130Z AUTO 00000KT 8SM CLR 04/04 A3027 -110 96 -1300 000/00 RMK AO2 T00440039
13870KAMG AMG20160323063511003/23/16 06:35:31  5-MIN KAMG 231135Z AUTO 00000KT 8SM CLR 04/04 A3027 -110 100 -1400 000/00 RMK AO2 T00390039
13870KAMG AMG20160323064010903/23/16 06:40:31  5-MIN KAMG 231140Z AUTO 00000KT 8SM CLR 04/04 A3027 -120 96 -1300 000/00 RMK AO2 T00440039
13870KAMG AMG20160323064510903/23/16 06:45:31  5-MIN KAMG 231145Z AUTO 00000KT 9SM CLR 04/04 A3027 -120 96 -1300 000/00 RMK AO2 T00440039
13870KAMG AMG20160323065013503/23/16 06:50:31  5-MIN KAMG 231150Z AUTO 00000KT 10SM CLR 05/04 A3027 -120 96 -1300 000/00 RMK AO2 SLP250 T00500044 10067 20039 58006
13870KAMG AMG20160323065511103/23/16 06:55:31  5-MIN KAMG 231155Z AUTO 00000KT 10SM CLR 04/04 A3027 -120 100 -1300 000/00 RMK AO2 T00440044
13870KAMG AMG20160323070011003/23/16 07:00:31  5-MIN KAMG 231200Z AUTO 00000KT 9SM CLR 05/05 A3027 -120 100 -1300 000/00 RMK AO2 T00500050
13870KAMG AMG20160323070511003/23/16 07:05:31  5-MIN KAMG 231205Z AUTO 00000KT 10SM CLR 06/05 A3027 -120 96 -1200 000/00 RMK AO2 T00560050
13870KAMG AMG20160323071010903/23/16 07:10:31  5-MIN KAMG 231210Z AUTO 00000KT 9SM CLR 06/05 A3027 -120 96 -1200 000/00 RMK AO2 T00560050
13870KAMG AMG20160323071510903/23/16 07:15:31  5-MIN KAMG 231215Z AUTO 00000KT 8SM CLR 06/06 A3027 -120 96 -1100 000/00 RMK AO2 T00610056
13870KAMG AMG20160323072010903/23/16 07:20:31  5-MIN KAMG 231220Z AUTO 00000KT 9SM CLR 07/06 A3028 -120 96 -1100 000/00 RMK AO2 T00670061
13870KAMG AMG20160323072511003/23/16 07:25:31  5-MIN KAMG 231225Z AUTO 00000KT 10SM CLR 07/06 A3028 -120 93 -1000 000/00 RMK AO2 T00720061
13870KAMG AMG20160323073010903/23/16 07:30:31  5-MIN KAMG 231230Z AUTO 00000KT 10SM CLR 08/06 A3028 -120 89 -900 000/00 RMK AO2 T00780061
13870KAMG AMG20160323073510903/23/16 07:35:31  5-MIN KAMG 231235Z AUTO 00000KT 10SM CLR 08/06 A3028 -120 86 -900 000/00 RMK AO2 T00830061
13870KAMG AMG20160323074010903/23/16 07:40:31  5-MIN KAMG 231240Z AUTO 00000KT 10SM CLR 09/07 A3028 -120 86 -800 000/00 RMK AO2 T00890067
13870KAMG AMG20160323074510903/23/16 07:45:31  5-MIN KAMG 231245Z AUTO 00000KT 10SM CLR 09/06 A3028 -120 79 -700 000/00 RMK AO2 T00940061
13870KAMG AMG20160323075011603/23/16 07:50:31  5-MIN KAMG 231250Z AUTO 00000KT 10SM CLR 10/06 A3028 -130 77 -700 000/00 RMK AO2 SLP253 T01000061
13870KAMG AMG20160323075510903/23/16 07:55:31  5-MIN KAMG 231255Z AUTO 00000KT 10SM CLR 10/07 A3028 -120 83 -700 000/00 RMK AO2 T01000072
13870KAMG AMG20160323080010903/23/16 08:00:31  5-MIN KAMG 231300Z AUTO 00000KT 10SM CLR 11/07 A3028 -120 77 -600 000/00 RMK AO2 T01060067
13870KAMG AMG20160323080510903/23/16 08:05:31  5-MIN KAMG 231305Z AUTO 00000KT 10SM CLR 11/07 A3028 -120 77 -600 000/00 RMK AO2 T01060067
13870KAMG AMG20160323081010903/23/16 08:10:31  5-MIN KAMG 231310Z AUTO 00000KT 10SM CLR 11/07 A3028 -120 74 -500 000/00 RMK AO2 T01110067
13870KAMG AMG20160323081510903/23/16 08:15:31  5-MIN KAMG 231315Z AUTO 00000KT 10SM CLR 12/07 A3028 -120 71 -500 000/00 RMK AO2 T01170067
13870KAMG AMG20160323082010903/23/16 08:20:31  5-MIN KAMG 231320Z AUTO 00000KT 10SM CLR 12/07 A3028 -120 74 -500 000/00 RMK AO2 T01170072
13870KAMG AMG20160323082510903/23/16 08:25:31  5-MIN KAMG 231325Z AUTO 00000KT 10SM CLR 12/07 A3028 -120 71 -400 000/00 RMK AO2 T01220072
13870KAMG AMG20160323083010903/23/16 08:30:31  5-MIN KAMG 231330Z AUTO 00000KT 10SM CLR 12/07 A3028 -130 71 -400 000/00 RMK AO2 T01220072
13870KAMG AMG20160323083510903/23/16 08:35:31  5-MIN KAMG 231335Z AUTO 00000KT 10SM CLR 13/07 A3028 -130 69 -300 000/00 RMK AO2 T01280072
13870KAMG AMG20160323084010903/23/16 08:40:31  5-MIN KAMG 231340Z AUTO 00000KT 10SM CLR 13/07 A3028 -130 66 -300 000/00 RMK AO2 T01330072
13870KAMG AMG20160323084510903/23/16 08:45:31  5-MIN KAMG 231345Z AUTO 00000KT 10SM CLR 14/07 A3028 -130 64 -200 000/00 RMK AO2 T01390072
13870KAMG AMG20160323085011603/23/16 08:50:31  5-MIN KAMG 231350Z AUTO 00000KT 10SM CLR 14/07 A3028 -130 64 -200 000/00 RMK AO2 SLP254 T01390072
13870KAMG AMG20160323085510903/23/16 08:55:31  5-MIN KAMG 231355Z AUTO 00000KT 10SM CLR 14/07 A3029 -130 61 -100 000/00 RMK AO2 T01440072
13870KAMG AMG20160323090010903/23/16 09:00:31  5-MIN KAMG 231400Z AUTO 00000KT 10SM CLR 14/07 A3029 -130 61 -100 000/00 RMK AO2 T01440072
13870KAMG AMG20160323090510603/23/16 09:05:31  5-MIN KAMG 231405Z AUTO 00000KT 10SM CLR 16/06 A3029 -130 53 0 000/00 RMK AO2 T01560061
13870KAMG AMG20160323091010603/23/16 09:10:31  5-MIN KAMG 231410Z AUTO 00000KT 10SM CLR 16/06 A3029 -140 51 0 000/00 RMK AO2 T01560056
13870KAMG AMG20160323091510603/23/16 09:15:31  5-MIN KAMG 231415Z AUTO 00000KT 10SM CLR 16/06 A3029 -140 49 0 000/00 RMK AO2 T01610056
13870KAMG AMG20160323092010603/23/16 09:20:31  5-MIN KAMG 231420Z AUTO 17003KT 10SM CLR 16/05 A3029 -140 47 0 180/03 RMK AO2 T01610050
13870KAMG AMG20160323092510603/23/16 09:25:31  5-MIN KAMG 231425Z AUTO 19004KT 10SM CLR 16/04 A3029 -140 44 0 190/04 RMK AO2 T01610039
13870KAMG AMG20160323093010803/23/16 09:30:31  5-MIN KAMG 231430Z AUTO 00000KT 10SM CLR 17/03 A3029 -140 40 100 000/00 RMK AO2 T01670033
13870KAMG AMG20160323093510803/23/16 09:35:31  5-MIN KAMG 231435Z AUTO 00000KT 10SM CLR 17/04 A3029 -140 42 100 000/00 RMK AO2 T01670039
13870KAMG AMG20160323094010803/23/16 09:40:31  5-MIN KAMG 231440Z AUTO 21003KT 10SM CLR 17/03 A3030 -140 39 100 210/03 RMK AO2 T01670028
13870KAMG AMG20160323094510803/23/16 09:45:31  5-MIN KAMG 231445Z AUTO 23004KT 10SM CLR 17/02 A3030 -140 36 100 230/04 RMK AO2 T01670017
13870KAMG AMG20160323095012103/23/16 09:50:31  5-MIN KAMG 231450Z AUTO 23003KT 10SM CLR 17/02 A3030 -140 36 100 230/03 RMK AO2 SLP259 T01720022 53007
13870KAMG AMG20160323095510803/23/16 09:55:31  5-MIN KAMG 231455Z AUTO 00000KT 10SM CLR 17/03 A3030 -140 37 100 000/00 RMK AO2 T01720028
13870KAMG AMG20160323100010803/23/16 10:00:31  5-MIN KAMG 231500Z AUTO 00000KT 10SM CLR 18/03 A3030 -140 38 200 000/00 RMK AO2 T01780033
13870KAMG AMG20160323100510803/23/16 10:05:31  5-MIN KAMG 231505Z AUTO 19003KT 10SM CLR 18/03 A3030 -140 38 200 190/03 RMK AO2 T01780033
13870KAMG AMG20160323101010803/23/16 10:10:31  5-MIN KAMG 231510Z AUTO 17004KT 10SM CLR 18/03 A3030 -140 38 200 170/04 RMK AO2 T01780033
13870KAMG AMG20160323101510803/23/16 10:15:31  5-MIN KAMG 231515Z AUTO 18004KT 10SM CLR 18/03 A3030 -140 36 300 190/04 RMK AO2 T01830033
13870KAMG AMG20160323102010803/23/16 10:20:31  5-MIN KAMG 231520Z AUTO 00000KT 10SM CLR 18/04 A3029 -130 38 300 000/00 RMK AO2 T01830039
13870KAMG AMG20160323102510803/23/16 10:25:31  5-MIN KAMG 231525Z AUTO VRB03KT 10SM CLR 19/03 A3029 -140 35 300 VRB/03 RMK AO2 T01890033
13870KAMG AMG20160323103010803/23/16 10:30:31  5-MIN KAMG 231530Z AUTO VRB05KT 10SM CLR 19/04 A3029 -130 37 400 VRB/05 RMK AO2 T01940044
13870KAMG AMG20160323103510803/23/16 10:35:31  5-MIN KAMG 231535Z AUTO 19008KT 10SM CLR 19/05 A3029 -130 38 400 200/08 RMK AO2 T01940050
13870KAMG AMG20160323104010803/23/16 10:40:31  5-MIN KAMG 231540Z AUTO 19010KT 10SM CLR 20/06 A3029 -130 40 500 200/10 RMK AO2 T02000061
13870KAMG AMG20160323104510803/23/16 10:45:31  5-MIN KAMG 231545Z AUTO 22008KT 10SM CLR 21/07 A3029 -130 40 500 220/08 RMK AO2 T02060067
13870KAMG AMG20160323105011503/23/16 10:50:31  5-MIN KAMG 231550Z AUTO 22007KT 10SM CLR 21/07 A3029 -130 40 500 230/07 RMK AO2 SLP255 T02060067
13870KAMG AMG20160323105512403/23/16 10:55:31  5-MIN KAMG 231555Z AUTO 19008KT 160V230 10SM CLR 21/07 A3029 -130 40 500 190/08 170V240 RMK AO2 T02060067
13870KAMG AMG20160323110011403/23/16 11:00:31  5-MIN KAMG 231600Z AUTO 19011G16KT 10SM CLR 21/07 A3029 -130 40 600 200/11G16 RMK AO2 T02110072
13870KAMG AMG20160323110510803/23/16 11:05:31  5-MIN KAMG 231605Z AUTO 20010KT 10SM CLR 21/08 A3029 -130 42 600 200/10 RMK AO2 T02110078
13870KAMG AMG20160323111010803/23/16 11:10:31  5-MIN KAMG 231610Z AUTO 20012KT 10SM CLR 21/08 A3029 -130 42 600 210/12 RMK AO2 T02110078
13870KAMG AMG20160323111510803/23/16 11:15:31  5-MIN KAMG 231615Z AUTO 18009KT 10SM CLR 21/08 A3029 -130 42 600 190/09 RMK AO2 T02110078
13870KAMG AMG20160323112010803/23/16 11:20:31  5-MIN KAMG 231620Z AUTO 20010KT 10SM CLR 22/08 A3029 -130 42 700 200/10 RMK AO2 T02170083
13870KAMG AMG20160323112510803/23/16 11:25:31  5-MIN KAMG 231625Z AUTO 22011KT 10SM CLR 22/08 A3029 -130 40 700 220/11 RMK AO2 T02170078
13870KAMG AMG20160323113010803/23/16 11:30:31  5-MIN KAMG 231630Z AUTO 20012KT 10SM CLR 22/08 A3029 -130 42 700 210/12 RMK AO2 T02170083
13870KAMG AMG20160323113510803/23/16 11:35:31  5-MIN KAMG 231635Z AUTO 18008KT 10SM CLR 22/08 A3028 -130 40 700 190/08 RMK AO2 T02170078
13870KAMG AMG20160323114010803/23/16 11:40:31  5-MIN KAMG 231640Z AUTO 22009KT 10SM CLR 22/08 A3028 -130 40 700 220/09 RMK AO2 T02170078
13870KAMG AMG20160323114510803/23/16 11:45:31  5-MIN KAMG 231645Z AUTO 21009KT 10SM CLR 22/08 A3028 -120 40 700 220/09 RMK AO2 T02170078
13870KAMG AMG20160323115011503/23/16 11:50:31  5-MIN KAMG 231650Z AUTO 23009KT 10SM CLR 22/08 A3028 -120 40 700 240/09 RMK AO2 SLP250 T02170078
13870KAMG AMG20160323115510803/23/16 11:55:31  5-MIN KAMG 231655Z AUTO 21007KT 10SM CLR 22/08 A3027 -120 40 700 220/07 RMK AO2 T02170078
13870KAMG AMG20160323120010803/23/16 12:00:31  5-MIN KAMG 231700Z AUTO 24009KT 10SM CLR 22/08 A3027 -110 39 700 250/09 RMK AO2 T02220078
13870KAMG AMG20160323120510803/23/16 12:05:31  5-MIN KAMG 231705Z AUTO 22007KT 10SM CLR 22/08 A3027 -110 40 700 230/07 RMK AO2 T02170078
13870KAMG AMG20160323121010803/23/16 12:10:31  5-MIN KAMG 231710Z AUTO VRB06KT 10SM CLR 22/08 A3027 -110 40 700 VRB/06 RMK AO2 T02220083
13870KAMG AMG20160323121510803/23/16 12:15:31  5-MIN KAMG 231715Z AUTO 20010KT 10SM CLR 22/08 A3026 -110 39 700 200/10 RMK AO2 T02220078
13870KAMG AMG20160323122012403/23/16 12:20:31  5-MIN KAMG 231720Z AUTO 18007KT 140V200 10SM CLR 23/08 A3026 -100 39 800 180/07 150V210 RMK AO2 T02280083
13870KAMG AMG20160323122510803/23/16 12:25:31  5-MIN KAMG 231725Z AUTO 22008KT 10SM CLR 23/08 A3025 -100 37 800 220/08 RMK AO2 T02280078
13870KAMG AMG20160323123012403/23/16 12:30:31  5-MIN KAMG 231730Z AUTO 25008KT 200V280 10SM CLR 23/08 A3025 -100 37 800 260/08 210V290 RMK AO2 T02280078
13870KAMG AMG20160323123510803/23/16 12:35:31  5-MIN KAMG 231735Z AUTO 22009KT 10SM CLR 23/08 A3025 -100 39 800 220/09 RMK AO2 T02280083
13870KAMG AMG20160323124012403/23/16 12:40:31  5-MIN KAMG 231740Z AUTO 23009KT 200V260 10SM CLR 23/08 A3025 -100 39 800 230/09 210V270 RMK AO2 T02280083
13870KAMG AMG20160323124510703/23/16 12:45:31  5-MIN KAMG 231745Z AUTO 23008KT 10SM CLR 23/08 A3025 -90 37 800 240/08 RMK AO2 T02280078
13870KAMG AMG20160323125014803/23/16 12:50:31  5-MIN KAMG 231750Z AUTO 24007KT 200V270 10SM CLR 23/08 A3024 -90 39 800 240/07 210V280 RMK AO2 SLP240 T02280083 10233 20044 53008
13870KAMG AMG20160323125510703/23/16 12:55:31  5-MIN KAMG 231755Z AUTO 20009KT 10SM CLR 23/08 A3024 -90 38 900 200/09 RMK AO2 T02330083
13870KAMG AMG20160323130010703/23/16 13:00:31  5-MIN KAMG 231800Z AUTO 21010KT 10SM CLR 23/08 A3023 -80 37 800 220/10 RMK AO2 T02280078
13870KAMG AMG20160323130510703/23/16 13:05:31  5-MIN KAMG 231805Z AUTO 20009KT 10SM CLR 23/08 A3023 -80 36 900 200/09 RMK AO2 T02330078
13870KAMG AMG20160323131010703/23/16 13:10:31  5-MIN KAMG 231810Z AUTO VRB04KT 10SM CLR 23/08 A3023 -80 38 900 VRB/04 RMK AO2 T02330083
13870KAMG AMG20160323131510703/23/16 13:15:31  5-MIN KAMG 231815Z AUTO 19007KT 10SM CLR 23/08 A3023 -70 38 900 200/07 RMK AO2 T02330083
13870KAMG AMG20160323132011403/23/16 13:20:31  5-MIN KAMG 231820Z AUTO 21010G15KT 10SM CLR 24/08 A3023 -80 36 1000 220/10G15 RMK AO2 T02390083
13870KAMG AMG20160323132510703/23/16 13:25:31  5-MIN KAMG 231825Z AUTO 21009KT 10SM CLR 23/08 A3022 -70 38 900 210/09 RMK AO2 T02330083
13870KAMG AMG20160323133010703/23/16 13:30:31  5-MIN KAMG 231830Z AUTO 21005KT 10SM CLR 23/08 A3022 -70 36 900 210/05 RMK AO2 T02330078
13870KAMG AMG20160323133510803/23/16 13:35:31  5-MIN KAMG 231835Z AUTO 20005KT 10SM CLR 24/08 A3022 -70 36 1000 200/05 RMK AO2 T02390083
13870KAMG AMG20160323134010803/23/16 13:40:31  5-MIN KAMG 231840Z AUTO 23009KT 10SM CLR 24/08 A3021 -60 36 1000 240/09 RMK AO2 T02390083
13870KAMG AMG20160323134510803/23/16 13:45:31  5-MIN KAMG 231845Z AUTO VRB06KT 10SM CLR 24/08 A3021 -60 35 1100 VRB/06 RMK AO2 T02440083
13870KAMG AMG20160323135012103/23/16 13:50:31  5-MIN KAMG 231850Z AUTO 18008G15KT 10SM CLR 24/08 A3021 -60 35 1100 190/08G15 RMK AO2 SLP228 T02440083
13870KAMG AMG20160323135511403/23/16 13:55:31  5-MIN KAMG 231855Z AUTO 17009G15KT 10SM CLR 24/08 A3021 -60 36 1000 170/09G15 RMK AO2 T02390083
13870KAMG AMG20160323140010803/23/16 14:00:31  5-MIN KAMG 231900Z AUTO 17006KT 10SM CLR 24/08 A3020 -50 35 1100 170/06 RMK AO2 T02440083
13870KAMG AMG20160323140510803/23/16 14:05:31  5-MIN KAMG 231905Z AUTO 20005KT 10SM CLR 24/08 A3020 -50 35 1000 200/05 RMK AO2 T02390078
13870KAMG AMG20160323141010803/23/16 14:10:31  5-MIN KAMG 231910Z AUTO 19009KT 10SM CLR 24/08 A3020 -50 35 1100 200/09 RMK AO2 T02440083
13870KAMG AMG20160323141510803/23/16 14:15:31  5-MIN KAMG 231915Z AUTO VRB05KT 10SM CLR 24/08 A3019 -40 35 1000 VRB/05 RMK AO2 T02390078
13870KAMG AMG20160323142010803/23/16 14:20:31  5-MIN KAMG 231920Z AUTO 23007KT 10SM CLR 24/08 A3019 -40 35 1100 240/07 RMK AO2 T02440083
13870KAMG AMG20160323142510803/23/16 14:25:31  5-MIN KAMG 231925Z AUTO VRB06KT 10SM CLR 25/08 A3019 -40 34 1100 VRB/06 RMK AO2 T02500083
13870KAMG AMG20160323143010803/23/16 14:30:31  5-MIN KAMG 231930Z AUTO 20008KT 10SM CLR 25/08 A3019 -40 34 1100 200/08 RMK AO2 T02500083
13870KAMG AMG20160323143512403/23/16 14:35:31  5-MIN KAMG 231935Z AUTO 16008KT 120V180 10SM CLR 26/09 A3018 -40 34 1200 160/08 130V190 RMK AO2 T02560089
13870KAMG AMG20160323144012403/23/16 14:40:31  5-MIN KAMG 231940Z AUTO 19007KT 150V230 10SM CLR 24/08 A3018 -30 35 1100 200/07 160V240 RMK AO2 T02440083
13870KAMG AMG20160323144510803/23/16 14:45:31  5-MIN KAMG 231945Z AUTO 13003KT 10SM CLR 24/08 A3018 -30 35 1100 140/03 RMK AO2 T02440083
13870KAMG AMG20160323145011503/23/16 14:50:31  5-MIN KAMG 231950Z AUTO 16008KT 10SM CLR 25/09 A3018 -30 35 1200 160/08 RMK AO2 SLP218 T02500089
13870KAMG AMG20160323145510803/23/16 14:55:31  5-MIN KAMG 231955Z AUTO 22004KT 10SM CLR 25/08 A3017 -20 34 1200 220/04 RMK AO2 T02500083
13870KAMG AMG20160323150010803/23/16 15:00:31  5-MIN KAMG 232000Z AUTO VRB06KT 10SM CLR 25/09 A3017 -20 35 1200 VRB/06 RMK AO2 T02500089
13870KAMG AMG20160323150510803/23/16 15:05:31  5-MIN KAMG 232005Z AUTO 19006KT 10SM CLR 25/08 A3017 -20 34 1200 190/06 RMK AO2 T02500083
13870KAMG AMG20160323151010803/23/16 15:10:31  5-MIN KAMG 232010Z AUTO 17010KT 10SM CLR 25/08 A3017 -20 34 1200 170/10 RMK AO2 T02500083
13870KAMG AMG20160323151510803/23/16 15:15:31  5-MIN KAMG 232015Z AUTO VRB04KT 10SM CLR 25/08 A3017 -20 34 1200 VRB/04 RMK AO2 T02500083
13870KAMG AMG20160323152010803/23/16 15:20:31  5-MIN KAMG 232020Z AUTO 16006KT 10SM CLR 25/08 A3016 -20 34 1200 160/06 RMK AO2 T02500083
13870KAMG AMG20160323152510803/23/16 15:25:31  5-MIN KAMG 232025Z AUTO VRB03KT 10SM CLR 25/08 A3016 -20 34 1200 VRB/03 RMK AO2 T02500083
13870KAMG AMG20160323153009803/23/16 15:30:31  5-MIN KAMG 232030Z AUTO 10SM CLR 26/08 A3016 -10 32 1200 M /M RMK AO2 T02560078
13870KAMG AMG20160323153510803/23/16 15:35:31  5-MIN KAMG 232035Z AUTO 17008KT 10SM CLR 26/08 A3016 -10 33 1200 170/08 RMK AO2 T02560083
13870KAMG AMG20160323154010803/23/16 15:40:31  5-MIN KAMG 232040Z AUTO VRB04KT 10SM CLR 25/08 A3016 -10 34 1200 VRB/04 RMK AO2 T02500083
13870KAMG AMG20160323154510803/23/16 15:45:31  5-MIN KAMG 232045Z AUTO 19009KT 10SM CLR 26/08 A3016 -10 32 1200 200/09 RMK AO2 T02560078
13870KAMG AMG20160323155012103/23/16 15:50:31  5-MIN KAMG 232050Z AUTO 19007KT 10SM CLR 25/08 A3016 -10 33 1200 190/07 RMK AO2 SLP211 T02500078 58020
13870KAMG AMG20160323155510803/23/16 15:55:31  5-MIN KAMG 232055Z AUTO 20006KT 10SM CLR 24/08 A3016 -10 34 1100 210/06 RMK AO2 T02440078
13870KAMG AMG20160323160010803/23/16 16:00:31  5-MIN KAMG 232100Z AUTO 18007KT 10SM CLR 25/08 A3015 -10 33 1200 190/07 RMK AO2 T02500078
13870KAMG AMG20160323160510803/23/16 16:05:31  5-MIN KAMG 232105Z AUTO 17010KT 10SM CLR 26/08 A3015 -10 33 1300 180/10 RMK AO2 T02560083
13870KAMG AMG20160323161010603/23/16 16:10:31  5-MIN KAMG 232110Z AUTO 20006KT 10SM CLR 26/08 A3015 0 32 1300 210/06 RMK AO2 T02560078
13870KAMG AMG20160323161510603/23/16 16:15:31  5-MIN KAMG 232115Z AUTO 23008KT 10SM CLR 25/07 A3015 0 31 1200 230/08 RMK AO2 T02500072
13870KAMG AMG20160323162010603/23/16 16:20:31  5-MIN KAMG 232120Z AUTO 21008KT 10SM CLR 26/08 A3015 0 32 1300 220/08 RMK AO2 T02560078
13870KAMG AMG20160323162510603/23/16 16:25:31  5-MIN KAMG 232125Z AUTO 21009KT 10SM CLR 26/08 A3015 0 32 1300 220/09 RMK AO2 T02560078
13870KAMG AMG20160323163010603/23/16 16:30:31  5-MIN KAMG 232130Z AUTO 23007KT 10SM CLR 25/08 A3015 0 33 1200 230/07 RMK AO2 T02500078
13870KAMG AMG20160323163510603/23/16 16:35:31  5-MIN KAMG 232135Z AUTO 20006KT 10SM CLR 25/08 A3015 0 33 1200 210/06 RMK AO2 T02500078
13870KAMG AMG20160323164010603/23/16 16:40:31  5-MIN KAMG 232140Z AUTO 22006KT 10SM CLR 25/08 A3015 0 33 1200 230/06 RMK AO2 T02500078
13870KAMG AMG20160323164510603/23/16 16:45:31  5-MIN KAMG 232145Z AUTO 18008KT 10SM CLR 26/08 A3015 0 32 1300 190/08 RMK AO2 T02560078
13870KAMG AMG20160323165011303/23/16 16:50:31  5-MIN KAMG 232150Z AUTO 20009KT 10SM CLR 25/07 A3015 0 31 1200 210/09 RMK AO2 SLP208 T02500072
13870KAMG AMG20160323165510603/23/16 16:55:31  5-MIN KAMG 232155Z AUTO 21007KT 10SM CLR 25/08 A3015 0 33 1200 210/07 RMK AO2 T02500078
13870KAMG AMG20160323170010603/23/16 17:00:31  5-MIN KAMG 232200Z AUTO 22005KT 10SM CLR 25/08 A3015 0 33 1200 230/05 RMK AO2 T02500078
13870KAMG AMG20160323170510603/23/16 17:05:31  5-MIN KAMG 232205Z AUTO 21006KT 10SM CLR 25/08 A3015 0 33 1200 210/06 RMK AO2 T02500078
13870KAMG AMG20160323171010603/23/16 17:10:31  5-MIN KAMG 232210Z AUTO 21008KT 10SM CLR 25/08 A3015 0 34 1200 220/08 RMK AO2 T02500083
13870KAMG AMG20160323171510603/23/16 17:15:31  5-MIN KAMG 232215Z AUTO 22006KT 10SM CLR 25/08 A3015 0 33 1200 220/06 RMK AO2 T02500078
13870KAMG AMG20160323172010603/23/16 17:20:31  5-MIN KAMG 232220Z AUTO 19008KT 10SM CLR 25/08 A3015 0 33 1200 200/08 RMK AO2 T02500078
13870KAMG AMG20160323172510603/23/16 17:25:31  5-MIN KAMG 232225Z AUTO 18004KT 10SM CLR 24/08 A3015 0 34 1100 190/04 RMK AO2 T02440078
13870KAMG AMG20160323173010603/23/16 17:30:31  5-MIN KAMG 232230Z AUTO 19005KT 10SM CLR 25/08 A3015 0 34 1200 200/05 RMK AO2 T02500083
13870KAMG AMG20160323173510603/23/16 17:35:31  5-MIN KAMG 232235Z AUTO 18007KT 10SM CLR 24/08 A3015 0 35 1100 180/07 RMK AO2 T02440083
13870KAMG AMG20160323174010603/23/16 17:40:31  5-MIN KAMG 232240Z AUTO 19005KT 10SM CLR 24/08 A3015 0 35 1100 200/05 RMK AO2 T02440083
13870KAMG AMG20160323174510603/23/16 17:45:31  5-MIN KAMG 232245Z AUTO 20006KT 10SM CLR 24/08 A3015 0 35 1100 210/06 RMK AO2 T02440083
13870KAMG AMG20160323175011303/23/16 17:50:31  5-MIN KAMG 232250Z AUTO 20005KT 10SM CLR 24/09 A3015 0 36 1100 210/05 RMK AO2 SLP209 T02440089
13870KAMG AMG20160323175510603/23/16 17:55:31  5-MIN KAMG 232255Z AUTO 19004KT 10SM CLR 24/08 A3015 0 36 1100 200/04 RMK AO2 T02390083
13870KAMG AMG20160323180010603/23/16 18:00:31  5-MIN KAMG 232300Z AUTO 19006KT 10SM CLR 24/08 A3015 0 36 1100 190/06 RMK AO2 T02390083
13870KAMG AMG20160323180510603/23/16 18:05:31  5-MIN KAMG 232305Z AUTO 19004KT 10SM CLR 24/08 A3015 0 36 1100 190/04 RMK AO2 T02390083
13870KAMG AMG20160323181010603/23/16 18:10:31  5-MIN KAMG 232310Z AUTO 19003KT 10SM CLR 23/09 A3015 0 39 1000 200/03 RMK AO2 T02330089
13870KAMG AMG20160323181510603/23/16 18:15:31  5-MIN KAMG 232315Z AUTO 19005KT 10SM CLR 23/09 A3015 0 39 1000 190/05 RMK AO2 T02330089
13870KAMG AMG20160323182010503/23/16 18:20:31  5-MIN KAMG 232320Z AUTO 16004KT 10SM CLR 23/10 A3015 0 44 900 170/04 RMK AO2 T02280100
13870KAMG AMG20160323182510503/23/16 18:25:31  5-MIN KAMG 232325Z AUTO 14004KT 10SM CLR 22/09 A3015 0 43 900 150/04 RMK AO2 T02220094
13870KAMG AMG20160323183010503/23/16 18:30:31  5-MIN KAMG 232330Z AUTO 15004KT 10SM CLR 22/09 A3015 0 43 900 160/04 RMK AO2 T02220094
13870KAMG AMG20160323183510503/23/16 18:35:31  5-MIN KAMG 232335Z AUTO 16004KT 10SM CLR 22/10 A3015 0 47 800 170/04 RMK AO2 T02170100
13870KAMG AMG20160323184010503/23/16 18:40:31  5-MIN KAMG 232340Z AUTO 16003KT 10SM CLR 22/10 A3015 0 47 800 160/03 RMK AO2 T02170100
13870KAMG AMG20160323184510503/23/16 18:45:31  5-MIN KAMG 232345Z AUTO 16004KT 10SM CLR 21/10 A3015 0 48 700 170/04 RMK AO2 T02110100
13870KAMG AMG20160323185013003/23/16 18:50:31  5-MIN KAMG 232350Z AUTO 16004KT 10SM CLR 21/10 A3014 0 50 700 160/04 RMK AO2 SLP207 T02060100 10256 20206 56028
13870KAMG AMG20160323185510503/23/16 18:55:31  5-MIN KAMG 232355Z AUTO 15003KT 10SM CLR 20/10 A3014 0 52 600 160/03 RMK AO2 T02000100
13870KAMG AMG20160323190010503/23/16 19:00:31  5-MIN KAMG 240000Z AUTO 15003KT 10SM CLR 20/10 A3014 0 52 600 150/03 RMK AO2 T02000100
13870KAMG AMG20160323190510503/23/16 19:05:31  5-MIN KAMG 240005Z AUTO 16003KT 10SM CLR 19/10 A3015 0 54 600 170/03 RMK AO2 T01940100
13870KAMG AMG20160323191010503/23/16 19:10:31  5-MIN KAMG 240010Z AUTO 00000KT 10SM CLR 18/12 A3014 0 65 400 000/00 RMK AO2 T01830117
13870KAMG AMG20160323191510503/23/16 19:15:31  5-MIN KAMG 240015Z AUTO 16003KT 10SM CLR 18/12 A3015 0 65 400 170/03 RMK AO2 T01830117
13870KAMG AMG20160323192010503/23/16 19:20:31  5-MIN KAMG 240020Z AUTO 00000KT 10SM CLR 18/11 A3015 0 62 400 000/00 RMK AO2 T01780106
13870KAMG AMG20160323192510503/23/16 19:25:31  5-MIN KAMG 240025Z AUTO 00000KT 10SM CLR 17/11 A3015 0 67 200 000/00 RMK AO2 T01670106
13870KAMG AMG20160323193010503/23/16 19:30:31  5-MIN KAMG 240030Z AUTO 00000KT 10SM CLR 17/11 A3015 0 67 200 000/00 RMK AO2 T01670106
13870KAMG AMG20160323193510503/23/16 19:35:31  5-MIN KAMG 240035Z AUTO 00000KT 10SM CLR 17/10 A3014 0 64 200 000/00 RMK AO2 T01670100
13870KAMG AMG20160323194010503/23/16 19:40:31  5-MIN KAMG 240040Z AUTO 00000KT 10SM CLR 16/11 A3015 0 72 100 000/00 RMK AO2 T01560106
13870KAMG AMG20160323194510503/23/16 19:45:31  5-MIN KAMG 240045Z AUTO 13003KT 10SM CLR 16/11 A3014 0 72 100 130/03 RMK AO2 T01560106
13870KAMG AMG20160323195011003/23/16 19:50:31  5-MIN KAMG 240050Z AUTO 13003KT 10SM CLR 14/11 A3014 0 77 0 140/03 RMK AO2 SLP206 T01440106
13870KAMG AMG20160323195510303/23/16 19:55:31  5-MIN KAMG 240055Z AUTO 00000KT 10SM CLR 14/11 A3014 0 77 0 000/00 RMK AO2 T01440106
13870KAMG AMG20160323200010503/23/16 20:00:31  5-MIN KAMG 240100Z AUTO 00000KT 10SM CLR 16/11 A3014 0 72 100 000/00 RMK AO2 T01560106
13870KAMG AMG20160323200510303/23/16 20:05:31  5-MIN KAMG 240105Z AUTO 00000KT 10SM CLR 15/11 A3014 0 77 0 000/00 RMK AO2 T01500111
13870KAMG AMG20160323201010303/23/16 20:10:31  5-MIN KAMG 240110Z AUTO 00000KT 10SM CLR 15/11 A3014 0 74 0 000/00 RMK AO2 T01500106
13870KAMG AMG20160323201510303/23/16 20:15:31  5-MIN KAMG 240115Z AUTO 00000KT 10SM CLR 14/10 A3015 0 74 0 000/00 RMK AO2 T01440100
13870KAMG AMG20160323202010303/23/16 20:20:31  5-MIN KAMG 240120Z AUTO 00000KT 10SM CLR 15/10 A3015 0 72 0 000/00 RMK AO2 T01500100
13870KAMG AMG20160323202510303/23/16 20:25:31  5-MIN KAMG 240125Z AUTO 00000KT 10SM CLR 14/11 A3015 0 80 0 000/00 RMK AO2 T01390106
13870KAMG AMG20160323203010803/23/16 20:30:31  5-MIN KAMG 240130Z AUTO 10005KT 10SM CLR 13/11 A3015 -10 83 -100 110/05 RMK AO2 T01330106
13870KAMG AMG20160323203510703/23/16 20:35:31  5-MIN KAMG 240135Z AUTO 13005KT 10SM CLR 16/10 A3015 -10 69 100 130/05 RMK AO2 T01560100
13870KAMG AMG20160323204010703/23/16 20:40:31  5-MIN KAMG 240140Z AUTO 14004KT 10SM CLR 17/10 A3015 -10 62 300 140/04 RMK AO2 T01720100
13870KAMG AMG20160323204510703/23/16 20:45:31  5-MIN KAMG 240145Z AUTO 14005KT 10SM CLR 18/11 A3015 -10 62 300 140/05 RMK AO2 T01780106
13870KAMG AMG20160323205011403/23/16 20:50:31  5-MIN KAMG 240150Z AUTO 13006KT 10SM CLR 18/11 A3016 -10 62 300 140/06 RMK AO2 SLP210 T01780106
13870KAMG AMG20160323205510703/23/16 20:55:31  5-MIN KAMG 240155Z AUTO 14005KT 10SM CLR 18/11 A3016 -10 64 300 140/05 RMK AO2 T01780111
13870KAMG AMG20160323210010703/23/16 21:00:31  5-MIN KAMG 240200Z AUTO 13004KT 10SM CLR 18/11 A3016 -10 64 300 130/04 RMK AO2 T01780111
13870KAMG AMG20160323210510703/23/16 21:05:31  5-MIN KAMG 240205Z AUTO 13006KT 10SM CLR 18/11 A3016 -20 64 300 130/06 RMK AO2 T01780111
13870KAMG AMG20160323211010703/23/16 21:10:31  5-MIN KAMG 240210Z AUTO 13005KT 10SM CLR 18/12 A3016 -20 67 300 130/05 RMK AO2 T01780117
13870KAMG AMG20160323211510703/23/16 21:15:31  5-MIN KAMG 240215Z AUTO 13005KT 10SM CLR 18/12 A3017 -20 67 300 130/05 RMK AO2 T01780117
13870KAMG AMG20160323212010703/23/16 21:20:31  5-MIN KAMG 240220Z AUTO 13005KT 10SM CLR 18/12 A3017 -20 67 300 130/05 RMK AO2 T01780117
13870KAMG AMG20160323212510703/23/16 21:25:31  5-MIN KAMG 240225Z AUTO 13006KT 10SM CLR 17/12 A3017 -20 69 300 130/06 RMK AO2 T01720117
13870KAMG AMG20160323213010703/23/16 21:30:31  5-MIN KAMG 240230Z AUTO 13007KT 10SM CLR 18/12 A3017 -20 67 300 140/07 RMK AO2 T01780117
13870KAMG AMG20160323213510703/23/16 21:35:31  5-MIN KAMG 240235Z AUTO 13005KT 10SM CLR 18/12 A3017 -20 67 300 140/05 RMK AO2 T01780117
13870KAMG AMG20160323214010703/23/16 21:40:31  5-MIN KAMG 240240Z AUTO 14005KT 10SM CLR 18/12 A3017 -20 67 300 150/05 RMK AO2 T01780117
13870KAMG AMG20160323214510703/23/16 21:45:31  5-MIN KAMG 240245Z AUTO 14006KT 10SM CLR 17/12 A3017 -20 69 300 150/06 RMK AO2 T01720117
13870KAMG AMG20160323215012003/23/16 21:50:31  5-MIN KAMG 240250Z AUTO 16007KT 10SM CLR 18/12 A3017 -20 69 300 160/07 RMK AO2 SLP215 T01780122 56004
13870KAMG AMG20160323215510703/23/16 21:55:31  5-MIN KAMG 240255Z AUTO 15006KT 10SM CLR 17/12 A3017 -20 72 300 160/06 RMK AO2 T01720122
13870KAMG AMG20160323220010703/23/16 22:00:31  5-MIN KAMG 240300Z AUTO 15005KT 10SM CLR 17/12 A3017 -20 72 300 150/05 RMK AO2 T01720122
13870KAMG AMG20160323220510703/23/16 22:05:31  5-MIN KAMG 240305Z AUTO 14005KT 10SM CLR 17/12 A3017 -20 72 300 150/05 RMK AO2 T01720122
13870KAMG AMG20160323221010703/23/16 22:10:31  5-MIN KAMG 240310Z AUTO 15006KT 10SM CLR 17/12 A3017 -20 72 300 160/06 RMK AO2 T01720122
13870KAMG AMG20160323221510703/23/16 22:15:31  5-MIN KAMG 240315Z AUTO 16006KT 10SM CLR 17/12 A3017 -30 72 300 170/06 RMK AO2 T01720122
13870KAMG AMG20160323222010703/23/16 22:20:31  5-MIN KAMG 240320Z AUTO 15006KT 10SM CLR 17/12 A3017 -20 72 300 160/06 RMK AO2 T01720122
13870KAMG AMG20160323222510703/23/16 22:25:31  5-MIN KAMG 240325Z AUTO 15007KT 10SM CLR 17/12 A3017 -20 75 200 160/07 RMK AO2 T01670122
13870KAMG AMG20160323223010703/23/16 22:30:31  5-MIN KAMG 240330Z AUTO 15007KT 10SM CLR 17/12 A3017 -20 72 300 160/07 RMK AO2 T01720122
13870KAMG AMG20160323223510703/23/16 22:35:31  5-MIN KAMG 240335Z AUTO 16005KT 10SM CLR 17/12 A3017 -20 75 200 160/05 RMK AO2 T01670122
13870KAMG AMG20160323224010703/23/16 22:40:31  5-MIN KAMG 240340Z AUTO 16006KT 10SM CLR 17/12 A3017 -20 75 200 160/06 RMK AO2 T01670122
13870KAMG AMG20160323224510703/23/16 22:45:31  5-MIN KAMG 240345Z AUTO 15005KT 10SM CLR 17/12 A3017 -20 75 200 160/05 RMK AO2 T01670122
13870KAMG AMG20160323225011403/23/16 22:50:31  5-MIN KAMG 240350Z AUTO 15005KT 10SM CLR 17/12 A3017 -20 75 200 160/05 RMK AO2 SLP214 T01670122
13870KAMG AMG20160323225510703/23/16 22:55:31  5-MIN KAMG 240355Z AUTO 15004KT 10SM CLR 16/12 A3017 -20 77 100 150/04 RMK AO2 T01610122
13870KAMG AMG20160323230010703/23/16 23:00:31  5-MIN KAMG 240400Z AUTO 15004KT 10SM CLR 16/12 A3017 -20 77 100 150/04 RMK AO2 T01610122
13870KAMG AMG20160323230510703/23/16 23:05:31  5-MIN KAMG 240405Z AUTO 15004KT 10SM CLR 16/12 A3017 -20 77 100 150/04 RMK AO2 T01610122
13870KAMG AMG20160323231010703/23/16 23:10:31  5-MIN KAMG 240410Z AUTO 16004KT 10SM CLR 16/12 A3017 -20 77 100 160/04 RMK AO2 T01610122
13870KAMG AMG20160323231510703/23/16 23:15:31  5-MIN KAMG 240415Z AUTO 15004KT 10SM CLR 16/12 A3017 -20 77 100 160/04 RMK AO2 T01610122
13870KAMG AMG20160323232010703/23/16 23:20:31  5-MIN KAMG 240420Z AUTO 15004KT 10SM CLR 16/12 A3016 -20 80 100 160/04 RMK AO2 T01560122
13870KAMG AMG20160323232510703/23/16 23:25:31  5-MIN KAMG 240425Z AUTO 14003KT 10SM CLR 16/12 A3016 -20 80 100 150/03 RMK AO2 T01560122
13870KAMG AMG20160323233010703/23/16 23:30:31  5-MIN KAMG 240430Z AUTO 13003KT 10SM CLR 16/12 A3016 -20 80 100 140/03 RMK AO2 T01560122
13870KAMG AMG20160323233510503/23/16 23:35:31  5-MIN KAMG 240435Z AUTO 00000KT 10SM CLR 15/12 A3016 -20 80 0 000/00 RMK AO2 T01500117
13870KAMG AMG20160323234010503/23/16 23:40:31  5-MIN KAMG 240440Z AUTO 00000KT 10SM CLR 14/12 A3017 -20 83 0 000/00 RMK AO2 T01440117
13870KAMG AMG20160323234510503/23/16 23:45:31  5-MIN KAMG 240445Z AUTO 00000KT 10SM CLR 14/12 A3016 -20 83 0 000/00 RMK AO2 T01440117
13870KAMG AMG20160323235012203/23/16 23:50:31  5-MIN KAMG 240450Z AUTO 00000KT 10SM CLR 14/12 A3016 -20 83 0 000/00 RMK AO2 SLP212 T01440117 402560039
13870KAMG AMG20160323235510803/23/16 23:55:31  5-MIN KAMG 240455Z AUTO 00000KT 10SM CLR 14/12 A3017 -20 86 -100 000/00 RMK AO2 T01390117
13870KAMG AMG20160324000010803/24/16 00:00:31  5-MIN KAMG 240500Z AUTO 00000KT 10SM CLR 13/12 A3017 -20 89 -100 000/00 RMK AO2 T01330117
13870KAMG AMG20160324000510803/24/16 00:05:31  5-MIN KAMG 240505Z AUTO 00000KT 10SM CLR 14/12 A3017 -20 86 -100 000/00 RMK AO2 T01390117
13870KAMG AMG20160324001010803/24/16 00:10:31  5-MIN KAMG 240510Z AUTO 00000KT 10SM CLR 14/12 A3017 -20 90 -100 000/00 RMK AO2 T01390122
13870KAMG AMG20160324001510803/24/16 00:15:31  5-MIN KAMG 240515Z AUTO 00000KT 10SM CLR 13/12 A3017 -20 89 -100 000/00 RMK AO2 T01330117
13870KAMG AMG20160324002010803/24/16 00:20:31  5-MIN KAMG 240520Z AUTO 00000KT 10SM CLR 13/12 A3016 -20 93 -200 000/00 RMK AO2 T01280117
13870KAMG AMG20160324002510803/24/16 00:25:31  5-MIN KAMG 240525Z AUTO 00000KT 10SM CLR 12/12 A3016 -20 96 -300 000/00 RMK AO2 T01220117
13870KAMG AMG20160324003010803/24/16 00:30:31  5-MIN KAMG 240530Z AUTO 00000KT 10SM CLR 12/11 A3016 -20 96 -300 000/00 RMK AO2 T01170111
13870KAMG AMG20160324003510803/24/16 00:35:31  5-MIN KAMG 240535Z AUTO 00000KT 10SM CLR 12/11 A3016 -10 96 -300 000/00 RMK AO2 T01170111
13870KAMG AMG20160324004010803/24/16 00:40:31  5-MIN KAMG 240540Z AUTO 00000KT 10SM CLR 12/11 A3016 -10 96 -300 000/00 RMK AO2 T01170111
13870KAMG AMG20160324004510803/24/16 00:45:31  5-MIN KAMG 240545Z AUTO 00000KT 10SM CLR 12/11 A3016 -10 96 -300 000/00 RMK AO2 T01170111
13870KAMG AMG20160324005013303/24/16 00:50:31  5-MIN KAMG 240550Z AUTO 00000KT 10SM CLR 12/11 A3016 -10 96 -300 000/00 RMK AO2 SLP210 T01170111 10200 20111 53009
13870KAMG AMG20160324005510803/24/16 00:55:31  5-MIN KAMG 240555Z AUTO 00000KT 10SM CLR 12/11 A3016 -10 96 -300 000/00 RMK AO2 T01170111
13870KAMG AMG20160324010010803/24/16 01:00:31  5-MIN KAMG 240600Z AUTO 00000KT 10SM CLR 12/11 A3015 -10 96 -300 000/00 RMK AO2 T01170111
13870KAMG AMG20160324010510803/24/16 01:05:31  5-MIN KAMG 240605Z AUTO 00000KT 10SM CLR 12/11 A3015 -10 96 -300 000/00 RMK AO2 T01170111
13870KAMG AMG20160324011010603/24/16 01:10:31  5-MIN KAMG 240610Z AUTO 00000KT 10SM CLR 11/11 A3015 0 96 -400 000/00 RMK AO2 T01110106
13870KAMG AMG20160324011510603/24/16 01:15:31  5-MIN KAMG 240615Z AUTO 00000KT 10SM CLR 11/11 A3015 0 96 -400 000/00 RMK AO2 T01110106
13870KAMG AMG20160324012010603/24/16 01:20:31  5-MIN KAMG 240620Z AUTO 00000KT 10SM CLR 12/11 A3015 0 93 -300 000/00 RMK AO2 T01170106
13870KAMG AMG20160324012510703/24/16 01:25:31  5-MIN KAMG 240625Z AUTO 00000KT 10SM CLR 11/11 A3014 0 100 -400 000/00 RMK AO2 T01110111
13870KAMG AMG20160324013010603/24/16 01:30:31  5-MIN KAMG 240630Z AUTO 00000KT 9SM CLR 11/11 A3014 0 100 -400 000/00 RMK AO2 T01110111
13870KAMG AMG20160324013510503/24/16 01:35:31  5-MIN KAMG 240635Z AUTO 00000KT 9SM CLR 12/11 A3014 0 96 -300 000/00 RMK AO2 T01170111
13870KAMG AMG20160324014010603/24/16 01:40:31  5-MIN KAMG 240640Z AUTO 00000KT 10SM CLR 12/11 A3014 0 96 -300 000/00 RMK AO2 T01170111
13870KAMG AMG20160324014510603/24/16 01:45:31  5-MIN KAMG 240645Z AUTO 00000KT 10SM CLR 12/11 A3014 0 96 -300 000/00 RMK AO2 T01170111
13870KAMG AMG20160324015011303/24/16 01:50:31  5-MIN KAMG 240650Z AUTO 00000KT 10SM CLR 11/11 A3014 0 96 -400 000/00 RMK AO2 SLP203 T01110106
13870KAMG AMG20160324015510703/24/16 01:55:31  5-MIN KAMG 240655Z AUTO 00000KT 10SM CLR 11/11 A3013 10 96 -400 000/00 RMK AO2 T01110106
13870KAMG AMG20160324020010703/24/16 02:00:31  5-MIN KAMG 240700Z AUTO 00000KT 10SM CLR 12/11 A3013 10 93 -300 000/00 RMK AO2 T01170106
13870KAMG AMG20160324020510703/24/16 02:05:31  5-MIN KAMG 240705Z AUTO 00000KT 10SM CLR 12/11 A3013 10 96 -300 000/00 RMK AO2 T01170111
13870KAMG AMG20160324021010703/24/16 02:10:31  5-MIN KAMG 240710Z AUTO 00000KT 10SM CLR 12/11 A3013 10 96 -300 000/00 RMK AO2 T01170111
13870KAMG AMG20160324021510803/24/16 02:15:31  5-MIN KAMG 240715Z AUTO 00000KT 10SM CLR 11/11 A3013 10 100 -400 000/00 RMK AO2 T01110111
13870KAMG AMG20160324022010803/24/16 02:20:31  5-MIN KAMG 240720Z AUTO 00000KT 10SM CLR 11/11 A3013 10 100 -400 000/00 RMK AO2 T01060106
13870KAMG AMG20160324022510703/24/16 02:25:31  5-MIN KAMG 240725Z AUTO 00000KT 8SM CLR 11/11 A3013 10 100 -400 000/00 RMK AO2 T01060106
13870KAMG AMG20160324023010703/24/16 02:30:31  5-MIN KAMG 240730Z AUTO 00000KT 7SM CLR 10/10 A3013 10 100 -500 000/00 RMK AO2 T01000100
13870KAMG AMG20160324023510903/24/16 02:35:31  5-MIN KAMG 240735Z AUTO 00000KT 3SM BR CLR 11/10 A3013 10 96 -400 000/00 RMK AO2 T01060100
13870KAMG AMG20160324024011003/24/16 02:40:31  5-MIN KAMG 240740Z AUTO 00000KT 3SM BR CLR 11/11 A3013 10 100 -400 000/00 RMK AO2 T01060106
13870KAMG AMG20160324024511003/24/16 02:45:31  5-MIN KAMG 240745Z AUTO 00000KT 5SM BR CLR 11/11 A3012 20 100 -400 000/00 RMK AO2 T01060106
13870KAMG AMG20160324025011703/24/16 02:50:31  5-MIN KAMG 240750Z AUTO 00000KT 4SM BR CLR 11/11 A3012 20 100 -400 000/00 RMK AO2 SLP197 T01060106
13870KAMG AMG20160324025511003/24/16 02:55:31  5-MIN KAMG 240755Z AUTO 00000KT 5SM BR CLR 11/11 A3012 20 100 -400 000/00 RMK AO2 T01060106
13870KAMG AMG20160324030011003/24/16 03:00:31  5-MIN KAMG 240800Z AUTO 00000KT 6SM BR CLR 10/10 A3011 20 100 -500 000/00 RMK AO2 T01000100
13870KAMG AMG20160324030510903/24/16 03:05:31  5-MIN KAMG 240805Z AUTO 00000KT 5SM BR CLR 11/10 A3011 30 96 -400 000/00 RMK AO2 T01060100
13870KAMG AMG20160324031011003/24/16 03:10:31  5-MIN KAMG 240810Z AUTO 00000KT 3SM BR CLR 11/11 A3011 30 100 -400 000/00 RMK AO2 T01060106
13870KAMG AMG20160324031512203/24/16 03:15:31  5-MIN KAMG 240815Z AUTO 00000KT 2SM BR CLR 10/10 A3011 30 100 -500 000/00 RMK AO2 VIS 1 1/4V4 T01000100
13870KAMG AMG20160324032011403/24/16 03:20:31  5-MIN KAMG 240820Z AUTO 00000KT 1 1/4SM BR CLR 10/10 A3011 30 100 -500 000/00 RMK AO2 T01000100
13870KAMG AMG20160324032511403/24/16 03:25:31  5-MIN KAMG 240825Z AUTO 00000KT 1 1/4SM BR CLR 10/10 A3011 30 100 -500 000/00 RMK AO2 T01000100
13870KAMG AMG20160324033011403/24/16 03:30:31  5-MIN KAMG 240830Z AUTO 00000KT 2 1/2SM BR CLR 10/10 A3010 30 100 -500 000/00 RMK AO2 T01000100
13870KAMG AMG20160324033511003/24/16 03:35:31  5-MIN KAMG 240835Z AUTO 00000KT 4SM BR CLR 10/10 A3010 40 100 -500 000/00 RMK AO2 T01000100
13870KAMG AMG20160324034011003/24/16 03:40:31  5-MIN KAMG 240840Z AUTO 00000KT 4SM BR CLR 09/09 A3010 30 100 -500 000/00 RMK AO2 T00940094
13870KAMG AMG20160324034510903/24/16 03:45:31  5-MIN KAMG 240845Z AUTO 00000KT 5SM BR CLR 10/09 A3010 40 96 -500 000/00 RMK AO2 T01000094
13870KAMG AMG20160324035012203/24/16 03:50:31  5-MIN KAMG 240850Z AUTO 00000KT 4SM BR CLR 10/09 A3010 30 96 -500 000/00 RMK AO2 SLP191 T01000094 58004
13870KAMG AMG20160324035511003/24/16 03:55:31  5-MIN KAMG 240855Z AUTO 00000KT 4SM BR CLR 10/10 A3010 40 100 -500 000/00 RMK AO2 T01000100
13870KAMG AMG20160324040011003/24/16 04:00:31  5-MIN KAMG 240900Z AUTO 00000KT 4SM BR CLR 10/10 A3010 40 100 -500 000/00 RMK AO2 T01000100
13870KAMG AMG20160324040511003/24/16 04:05:31  5-MIN KAMG 240905Z AUTO 00000KT 5SM BR CLR 10/10 A3010 40 100 -500 000/00 RMK AO2 T01000100
13870KAMG AMG20160324041011003/24/16 04:10:31  5-MIN KAMG 240910Z AUTO 00000KT 5SM BR CLR 10/10 A3010 40 100 -500 000/00 RMK AO2 T01000100
13870KAMG AMG20160324041510903/24/16 04:15:31  5-MIN KAMG 240915Z AUTO 00000KT 5SM BR CLR 11/10 A3009 40 96 -400 000/00 RMK AO2 T01060100
13870KAMG AMG20160324042010903/24/16 04:20:31  5-MIN KAMG 240920Z AUTO 00000KT 6SM BR CLR 11/10 A3009 40 96 -400 000/00 RMK AO2 T01060100
13870KAMG AMG20160324042511003/24/16 04:25:31  5-MIN KAMG 240925Z AUTO 11003KT 6SM BR CLR 09/09 A3009 40 100 -500 120/03 RMK AO2 T00940094
13870KAMG AMG20160324043011003/24/16 04:30:31  5-MIN KAMG 240930Z AUTO 00000KT 5SM BR CLR 09/09 A3009 50 100 -500 000/00 RMK AO2 T00940094
13870KAMG AMG20160324043510903/24/16 04:35:31  5-MIN KAMG 240935Z AUTO 00000KT 4SM BR CLR 10/09 A3009 50 96 -500 000/00 RMK AO2 T01000094
13870KAMG AMG20160324044011003/24/16 04:40:31  5-MIN KAMG 240940Z AUTO 00000KT 6SM BR CLR 10/10 A3009 50 100 -500 000/00 RMK AO2 T01000100
13870KAMG AMG20160324044510703/24/16 04:45:31  5-MIN KAMG 240945Z AUTO 00000KT 7SM CLR 10/10 A3009 50 100 -500 000/00 RMK AO2 T01000100
13870KAMG AMG20160324045011403/24/16 04:50:31  5-MIN KAMG 240950Z AUTO 00000KT 7SM CLR 10/10 A3009 50 100 -500 000/00 RMK AO2 SLP187 T01000100
13870KAMG AMG20160324045510703/24/16 04:55:31  5-MIN KAMG 240955Z AUTO 00000KT 7SM CLR 10/10 A3009 50 100 -500 000/00 RMK AO2 T01000100
13870KAMG AMG20160324050010703/24/16 05:00:31  5-MIN KAMG 241000Z AUTO 00000KT 7SM CLR 10/10 A3009 50 100 -400 000/00 RMK AO2 T01000100
13870KAMG AMG20160324050511003/24/16 05:05:31  5-MIN KAMG 241005Z AUTO 00000KT 5SM BR CLR 10/10 A3009 50 100 -400 000/00 RMK AO2 T01000100
13870KAMG AMG20160324051011003/24/16 05:10:31  5-MIN KAMG 241010Z AUTO 00000KT 4SM BR CLR 10/10 A3009 50 100 -500 000/00 RMK AO2 T01000100
13870KAMG AMG20160324051511003/24/16 05:15:31  5-MIN KAMG 241015Z AUTO 00000KT 5SM BR CLR 10/10 A3009 40 100 -500 000/00 RMK AO2 T01000100
13870KAMG AMG20160324052011003/24/16 05:20:31  5-MIN KAMG 241020Z AUTO 00000KT 6SM BR CLR 09/09 A3009 40 100 -500 000/00 RMK AO2 T00940094
13870KAMG AMG20160324052510903/24/16 05:25:31  5-MIN KAMG 241025Z AUTO 00000KT 6SM BR CLR 10/09 A3009 40 96 -500 000/00 RMK AO2 T01000094
13870KAMG AMG20160324053011003/24/16 05:30:31  5-MIN KAMG 241030Z AUTO 00000KT 6SM BR CLR 10/10 A3009 40 100 -500 000/00 RMK AO2 T01000100
13870KAMG AMG20160324053511003/24/16 05:35:31  5-MIN KAMG 241035Z AUTO 00000KT 6SM BR CLR 10/10 A3009 40 100 -500 000/00 RMK AO2 T01000100
13870KAMG AMG20160324054011003/24/16 05:40:31  5-MIN KAMG 241040Z AUTO 00000KT 6SM BR CLR 11/11 A3009 40 100 -400 000/00 RMK AO2 T01060106
13870KAMG AMG20160324054511003/24/16 05:45:31  5-MIN KAMG 241045Z AUTO 11003KT 6SM BR CLR 10/10 A3009 40 100 -500 120/03 RMK AO2 T01000100
13870KAMG AMG20160324055011403/24/16 05:50:31  5-MIN KAMG 241050Z AUTO 00000KT 7SM CLR 09/09 A3010 40 100 -500 000/00 RMK AO2 SLP189 T00940094
13870KAMG AMG20160324055511003/24/16 05:55:31  5-MIN KAMG 241055Z AUTO 00000KT 6SM BR CLR 09/09 A3010 40 100 -500 000/00 RMK AO2 T00940094
13870KAMG AMG20160324060011003/24/16 06:00:31  5-MIN KAMG 241100Z AUTO 00000KT 5SM BR CLR 09/09 A3010 40 100 -500 000/00 RMK AO2 T00940094
13870KAMG AMG20160324060510903/24/16 06:05:31  5-MIN KAMG 241105Z AUTO 00000KT 5SM BR CLR 10/09 A3010 40 96 -500 000/00 RMK AO2 T01000094
13870KAMG AMG20160324061010903/24/16 06:10:31  5-MIN KAMG 241110Z AUTO 00000KT 5SM BR CLR 10/09 A3010 40 96 -500 000/00 RMK AO2 T01000094
13870KAMG AMG20160324061511003/24/16 06:15:31  5-MIN KAMG 241115Z AUTO 00000KT 5SM BR CLR 10/10 A3010 30 100 -500 000/00 RMK AO2 T01000100
13870KAMG AMG20160324062011003/24/16 06:20:31  5-MIN KAMG 241120Z AUTO 00000KT 5SM BR CLR 10/10 A3010 30 100 -500 000/00 RMK AO2 T01000100
13870KAMG AMG20160324062511003/24/16 06:25:31  5-MIN KAMG 241125Z AUTO 00000KT 5SM BR CLR 10/10 A3010 30 100 -500 000/00 RMK AO2 T01000100
13870KAMG AMG20160324063011003/24/16 06:30:31  5-MIN KAMG 241130Z AUTO 00000KT 5SM BR CLR 09/09 A3010 30 100 -500 000/00 RMK AO2 T00940094
13870KAMG AMG20160324063511003/24/16 06:35:31  5-MIN KAMG 241135Z AUTO 00000KT 4SM BR CLR 09/09 A3011 30 100 -500 000/00 RMK AO2 T00940094
13870KAMG AMG20160324064011003/24/16 06:40:31  5-MIN KAMG 241140Z AUTO 00000KT 4SM BR CLR 09/09 A3011 30 100 -500 000/00 RMK AO2 T00940094
13870KAMG AMG20160324064511003/24/16 06:45:31  5-MIN KAMG 241145Z AUTO 00000KT 4SM BR CLR 09/09 A3011 30 100 -500 000/00 RMK AO2 T00940094
13870KAMG AMG20160324065013403/24/16 06:50:31  5-MIN KAMG 241150Z AUTO 00000KT 4SM BR CLR 10/09 A3011 30 96 -500 000/00 RMK AO2 SLP194 T01000094 10122 20094 56019
13870KAMG AMG20160324065511003/24/16 06:55:31  5-MIN KAMG 241155Z AUTO 00000KT 5SM BR CLR 10/10 A3011 30 100 -500 000/00 RMK AO2 T01000100
13870KAMG AMG20160324070010903/24/16 07:00:31  5-MIN KAMG 241200Z AUTO 00000KT 6SM BR CLR 11/10 A3011 30 96 -400 000/00 RMK AO2 T01060100
13870KAMG AMG20160324070510703/24/16 07:05:31  5-MIN KAMG 241205Z AUTO 00000KT 7SM CLR 11/11 A3010 30 100 -300 000/00 RMK AO2 T01110111
13870KAMG AMG20160324071010703/24/16 07:10:31  5-MIN KAMG 241210Z AUTO 00000KT 9SM CLR 12/12 A3011 30 100 -300 000/00 RMK AO2 T01170117
13870KAMG AMG20160324071510703/24/16 07:15:31  5-MIN KAMG 241215Z AUTO 00000KT 9SM CLR 12/12 A3011 30 100 -200 000/00 RMK AO2 T01220122
13870KAMG AMG20160324072010703/24/16 07:20:31  5-MIN KAMG 241220Z AUTO 00000KT 9SM CLR 13/13 A3011 30 100 -100 000/00 RMK AO2 T01280128
13870KAMG AMG20160324072510603/24/16 07:25:31  5-MIN KAMG 241225Z AUTO 13003KT 9SM CLR 13/13 A3011 30 96 -100 130/03 RMK AO2 T01330128
13870KAMG AMG20160324073010603/24/16 07:30:31  5-MIN KAMG 241230Z AUTO 00000KT 9SM CLR 13/13 A3011 30 96 -100 000/00 RMK AO2 T01330128
13870KAMG AMG20160324073510703/24/16 07:35:31  5-MIN KAMG 241235Z AUTO 14003KT 10SM FEW050 14/13 A3011 20 93 0 140/03 RMK AO2 T01440133
13870KAMG AMG20160324074010703/24/16 07:40:31  5-MIN KAMG 241240Z AUTO 00000KT 10SM FEW050 14/14 A3011 20 96 0 000/00 RMK AO2 T01440139
13870KAMG AMG20160324074510903/24/16 07:45:31  5-MIN KAMG 241245Z AUTO 13003KT 10SM SCT050 15/14 A3011 20 93 100 140/03 RMK AO2 T01500139
13870KAMG AMG20160324075011603/24/16 07:50:31  5-MIN KAMG 241250Z AUTO 13004KT 10SM SCT050 15/14 A3011 30 93 100 130/04 RMK AO2 SLP196 T01500139
13870KAMG AMG20160324075510903/24/16 07:55:31  5-MIN KAMG 241255Z AUTO 13004KT 10SM SCT050 15/13 A3011 30 90 100 130/04 RMK AO2 T01500133
13870KAMG AMG20160324080010903/24/16 08:00:31  5-MIN KAMG 241300Z AUTO 13003KT 10SM FEW050 15/14 A3011 30 93 100 140/03 RMK AO2 T01500139
13870KAMG AMG20160324080510903/24/16 08:05:31  5-MIN KAMG 241305Z AUTO 13004KT 10SM FEW050 16/14 A3011 30 90 100 130/04 RMK AO2 T01560139
13870KAMG AMG20160324081010903/24/16 08:10:31  5-MIN KAMG 241310Z AUTO VRB04KT 10SM FEW050 16/13 A3011 30 86 100 VRB/04 RMK AO2 T01560133
13870KAMG AMG20160324081510603/24/16 08:15:31  5-MIN KAMG 241315Z AUTO 13003KT 10SM CLR 16/14 A3011 30 86 200 130/03 RMK AO2 T01610139
13870KAMG AMG20160324082010603/24/16 08:20:31  5-MIN KAMG 241320Z AUTO 14005KT 10SM CLR 17/14 A3011 30 83 300 150/05 RMK AO2 T01670139
13870KAMG AMG20160324082510603/24/16 08:25:31  5-MIN KAMG 241325Z AUTO 15004KT 10SM CLR 17/14 A3011 20 80 300 160/04 RMK AO2 T01720139
13870KAMG AMG20160324083010603/24/16 08:30:31  5-MIN KAMG 241330Z AUTO 15005KT 10SM CLR 17/14 A3011 20 80 300 160/05 RMK AO2 T01720139
13870KAMG AMG20160324083510603/24/16 08:35:31  5-MIN KAMG 241335Z AUTO 16007KT 10SM CLR 18/14 A3011 20 78 400 160/07 RMK AO2 T01780139
13870KAMG AMG20160324084010603/24/16 08:40:31  5-MIN KAMG 241340Z AUTO 15005KT 10SM CLR 18/14 A3011 20 78 400 160/05 RMK AO2 T01780139
13870KAMG AMG20160324084510603/24/16 08:45:31  5-MIN KAMG 241345Z AUTO 16006KT 10SM CLR 18/14 A3011 20 75 500 160/06 RMK AO2 T01830139
13870KAMG AMG20160324085011603/24/16 08:50:31  5-MIN KAMG 241350Z AUTO 15006KT 10SM FEW048 18/14 A3011 20 75 500 150/06 RMK AO2 SLP195 T01830139
13870KAMG AMG20160324085510903/24/16 08:55:31  5-MIN KAMG 241355Z AUTO 15006KT 10SM FEW048 18/14 A3011 20 75 500 160/06 RMK AO2 T01830139
13870KAMG AMG20160324090010903/24/16 09:00:31  5-MIN KAMG 241400Z AUTO 16005KT 10SM SCT048 18/14 A3011 20 75 500 170/05 RMK AO2 T01830139
13870KAMG AMG20160324090510903/24/16 09:05:31  5-MIN KAMG 241405Z AUTO 16006KT 10SM SCT047 19/14 A3012 20 72 500 160/06 RMK AO2 T01890139
13870KAMG AMG20160324091010903/24/16 09:10:31  5-MIN KAMG 241410Z AUTO 15006KT 10SM BKN047 19/14 A3011 20 75 500 150/06 RMK AO2 T01890144
13870KAMG AMG20160324091510903/24/16 09:15:31  5-MIN KAMG 241415Z AUTO 16007KT 10SM BKN047 19/14 A3012 20 75 500 160/07 RMK AO2 T01890144
13870KAMG AMG20160324092010903/24/16 09:20:31  5-MIN KAMG 241420Z AUTO 15007KT 10SM BKN047 19/14 A3011 20 70 600 150/07 RMK AO2 T01940139
13870KAMG AMG20160324092510903/24/16 09:25:31  5-MIN KAMG 241425Z AUTO 17007KT 10SM BKN046 20/14 A3011 20 70 700 170/07 RMK AO2 T02000144
13870KAMG AMG20160324093010903/24/16 09:30:31  5-MIN KAMG 241430Z AUTO 17007KT 10SM BKN046 21/14 A3012 20 65 700 170/07 RMK AO2 T02060139
13870KAMG AMG20160324093510903/24/16 09:35:31  5-MIN KAMG 241435Z AUTO 17006KT 10SM SCT046 21/14 A3012 20 65 700 170/06 RMK AO2 T02060139
13870KAMG AMG20160324094010903/24/16 09:40:31  5-MIN KAMG 241440Z AUTO 19007KT 10SM SCT046 21/14 A3011 20 65 800 200/07 RMK AO2 T02110144
13870KAMG AMG20160324094510903/24/16 09:45:31  5-MIN KAMG 241445Z AUTO 18008KT 10SM FEW046 22/14 A3012 20 61 800 190/08 RMK AO2 T02170139
13870KAMG AMG20160324095012203/24/16 09:50:31  5-MIN KAMG 241450Z AUTO 17008KT 10SM FEW046 22/14 A3012 20 61 800 180/08 RMK AO2 SLP196 T02170139 53002
13870KAMG AMG20160324095510903/24/16 09:55:31  5-MIN KAMG 241455Z AUTO 19006KT 10SM FEW046 22/14 A3012 20 61 800 190/06 RMK AO2 T02170139
13870KAMG AMG20160324100010603/24/16 10:00:31  5-MIN KAMG 241500Z AUTO 19007KT 10SM CLR 22/14 A3012 20 59 900 190/07 RMK AO2 T02220139
13870KAMG AMG20160324100510603/24/16 10:05:31  5-MIN KAMG 241505Z AUTO 14008KT 10SM CLR 22/14 A3011 20 61 900 150/08 RMK AO2 T02220144
13870KAMG AMG20160324101010603/24/16 10:10:31  5-MIN KAMG 241510Z AUTO 16007KT 10SM CLR 22/14 A3011 20 59 900 160/07 RMK AO2 T02220139
13870KAMG AMG20160324101510703/24/16 10:15:31  5-MIN KAMG 241515Z AUTO 14008KT 10SM CLR 23/14 A3011 20 57 1000 150/08 RMK AO2 T02280139
13870KAMG AMG20160324102010703/24/16 10:20:31  5-MIN KAMG 241520Z AUTO 14008KT 10SM CLR 23/14 A3011 20 57 1000 150/08 RMK AO2 T02280139
13870KAMG AMG20160324102510703/24/16 10:25:31  5-MIN KAMG 241525Z AUTO 15009KT 10SM CLR 23/14 A3011 30 55 1000 160/09 RMK AO2 T02330139
13870KAMG AMG20160324103011303/24/16 10:30:31  5-MIN KAMG 241530Z AUTO 18008G18KT 10SM CLR 23/13 A3011 30 55 1000 190/08G18 RMK AO2 T02280133
13870KAMG AMG20160324103511603/24/16 10:35:31  5-MIN KAMG 241535Z AUTO 16010G18KT 10SM FEW043 24/13 A3011 30 51 1100 160/10G18 RMK AO2 T02390133
13870KAMG AMG20160324104011603/24/16 10:40:31  5-MIN KAMG 241540Z AUTO 17010G19KT 10SM SCT045 24/13 A3011 30 49 1200 180/10G19 RMK AO2 T02440133
13870KAMG AMG20160324104511603/24/16 10:45:31  5-MIN KAMG 241545Z AUTO 14011G19KT 10SM SCT045 24/13 A3010 40 49 1200 150/11G19 RMK AO2 T02440133
13870KAMG AMG20160324105012303/24/16 10:50:31  5-MIN KAMG 241550Z AUTO 15013G17KT 10SM BKN045 24/13 A3010 40 49 1100 150/13G17 RMK AO2 SLP190 T02390128
13870KAMG AMG20160324105511603/24/16 10:55:31  5-MIN KAMG 241555Z AUTO 16010G20KT 10SM BKN045 24/13 A3010 40 47 1200 160/10G20 RMK AO2 T02440128
13870KAMG AMG20160324110011603/24/16 11:00:31  5-MIN KAMG 241600Z AUTO 17013G17KT 10SM BKN045 24/13 A3009 40 49 1100 180/13G17 RMK AO2 T02390128
13870KAMG AMG20160324110511003/24/16 11:05:31  5-MIN KAMG 241605Z AUTO 19011KT 10SM SCT045 24/13 A3009 50 47 1200 200/11 RMK AO2 T02440128
13870KAMG AMG20160324111011003/24/16 11:10:31  5-MIN KAMG 241610Z AUTO 16012KT 10SM SCT046 24/13 A3009 50 47 1200 160/12 RMK AO2 T02440128
13870KAMG AMG20160324111511603/24/16 11:15:31  5-MIN KAMG 241615Z AUTO 16012G19KT 10SM FEW046 24/12 A3008 50 46 1200 160/12G19 RMK AO2 T02440122
13870KAMG AMG20160324112011603/24/16 11:20:31  5-MIN KAMG 241620Z AUTO 17010G19KT 10SM FEW046 25/12 A3009 50 44 1300 180/10G19 RMK AO2 T02500122
13870KAMG AMG20160324112511303/24/16 11:25:31  5-MIN KAMG 241625Z AUTO 18014G19KT 10SM CLR 25/12 A3009 50 44 1300 180/14G19 RMK AO2 T02500122
13870KAMG AMG20160324113011603/24/16 11:30:31  5-MIN KAMG 241630Z AUTO 17011G19KT 10SM FEW050 26/12 A3008 50 43 1300 170/11G19 RMK AO2 T02560122
13870KAMG AMG20160324113512303/24/16 11:35:31  5-MIN KAMG 241635Z AUTO 16008KT 120V190 10SM CLR 25/12 A3008 60 44 1300 170/08 130V200 RMK AO2 T02500122
13870KAMG AMG20160324114011303/24/16 11:40:31  5-MIN KAMG 241640Z AUTO 15012G20KT 10SM CLR 25/12 A3008 60 44 1300 150/12G20 RMK AO2 T02500122
13870KAMG AMG20160324114511303/24/16 11:45:31  5-MIN KAMG 241645Z AUTO 16009G20KT 10SM CLR 25/12 A3008 50 44 1300 170/09G20 RMK AO2 T02500122
13870KAMG AMG20160324115012303/24/16 11:50:31  5-MIN KAMG 241650Z AUTO 18012G18KT 10SM FEW050 26/12 A3008 60 43 1300 190/12G18 RMK AO2 SLP183 T02560122
13870KAMG AMG20160324115511603/24/16 11:55:31  5-MIN KAMG 241655Z AUTO 16013G18KT 10SM FEW050 25/12 A3007 60 44 1300 160/13G18 RMK AO2 T02500122
13870KAMG AMG20160324120011303/24/16 12:00:31  5-MIN KAMG 241700Z AUTO 16007G18KT 10SM CLR 25/12 A3007 60 43 1300 160/07G18 RMK AO2 T02500117
13870KAMG AMG20160324120511303/24/16 12:05:31  5-MIN KAMG 241705Z AUTO 17011G15KT 10SM CLR 26/12 A3007 70 43 1300 180/11G15 RMK AO2 T02560122
13870KAMG AMG20160324121010703/24/16 12:10:31  5-MIN KAMG 241710Z AUTO 16010KT 10SM CLR 26/12 A3007 60 43 1300 160/10 RMK AO2 T02560122
13870KAMG AMG20160324121511303/24/16 12:15:31  5-MIN KAMG 241715Z AUTO 17009G15KT 10SM CLR 26/12 A3007 60 41 1400 170/09G15 RMK AO2 T02610122
13870KAMG AMG20160324122011603/24/16 12:20:31  5-MIN KAMG 241720Z AUTO 18008G15KT 10SM FEW055 26/12 A3006 70 41 1300 190/08G15 RMK AO2 T02560117
13870KAMG AMG20160324122511003/24/16 12:25:31  5-MIN KAMG 241725Z AUTO 20007KT 10SM FEW055 26/12 A3006 70 41 1400 210/07 RMK AO2 T02560117
13870KAMG AMG20160324123011603/24/16 12:30:31  5-MIN KAMG 241730Z AUTO 20008G17KT 10SM FEW055 26/12 A3006 70 40 1400 210/08G17 RMK AO2 T02610117
13870KAMG AMG20160324123511003/24/16 12:35:31  5-MIN KAMG 241735Z AUTO 16010KT 10SM FEW055 26/12 A3006 70 41 1400 160/10 RMK AO2 T02610122
13870KAMG AMG20160324124011003/24/16 12:40:31  5-MIN KAMG 241740Z AUTO 18008KT 10SM FEW055 27/12 A3006 70 40 1500 180/08 RMK AO2 T02670122
13870KAMG AMG20160324124511603/24/16 12:45:31  5-MIN KAMG 241745Z AUTO 15011G17KT 10SM FEW055 26/12 A3005 80 40 1400 150/11G17 RMK AO2 T02610117
13870KAMG AMG20160324125013803/24/16 12:50:31  5-MIN KAMG 241750Z AUTO 18010G17KT 10SM CLR 26/12 A3005 80 40 1400 180/10G17 RMK AO2 SLP175 T02610117 10267 20100 51003
13870KAMG AMG20160324125511003/24/16 12:55:31  5-MIN KAMG 241755Z AUTO 17007KT 10SM FEW060 26/12 A3005 80 40 1400 180/07 RMK AO2 T02610117
13870KAMG AMG20160324130013203/24/16 13:00:31  5-MIN KAMG 241800Z AUTO 22011G16KT 180V240 10SM FEW060 27/12 A3005 80 38 1500 220/11G16 190V250 RMK AO2 T02670117
13870KAMG AMG20160324130511603/24/16 13:05:31  5-MIN KAMG 241805Z AUTO 23005G16KT 10SM FEW060 26/12 A3005 90 40 1400 230/05G16 RMK AO2 T02610117
13870KAMG AMG20160324131011003/24/16 13:10:31  5-MIN KAMG 241810Z AUTO 19008KT 10SM SCT060 26/12 A3004 90 41 1400 200/08 RMK AO2 T02610122
13870KAMG AMG20160324131511103/24/16 13:15:31  5-MIN KAMG 241815Z AUTO 17011KT 10SM SCT060 27/12 A3004 100 40 1500 170/11 RMK AO2 T02670122
13870KAMG AMG20160324132011103/24/16 13:20:31  5-MIN KAMG 241820Z AUTO VRB05KT 10SM SCT060 26/12 A3003 100 41 1500 VRB/05 RMK AO2 T02610122
13870KAMG AMG20160324132511703/24/16 13:25:31  5-MIN KAMG 241825Z AUTO 17011G15KT 10SM SCT060 26/12 A3003 100 43 1400 170/11G15 RMK AO2 T02560122
13870KAMG AMG20160324133011803/24/16 13:30:31  5-MIN KAMG 241830Z AUTO 16007KT 10SM SCT060 26/12 A3002 110 40 1500 160/07 RMK AO2 PRESFR T02610117
13870KAMG AMG20160324133511103/24/16 13:35:31  5-MIN KAMG 241835Z AUTO VRB06KT 10SM BKN060 26/12 A3001 120 40 1500 VRB/06 RMK AO2 T02610117
13870KAMG AMG20160324134011703/24/16 13:40:31  5-MIN KAMG 241840Z AUTO 17014G17KT 10SM BKN060 27/12 A3001 120 39 1600 170/14G17 RMK AO2 T02720122
13870KAMG AMG20160324134511103/24/16 13:45:31  5-MIN KAMG 241845Z AUTO 18011KT 10SM BKN060 27/12 A3001 120 38 1500 190/11 RMK AO2 T02670117
13870KAMG AMG20160324135011803/24/16 13:50:31  5-MIN KAMG 241850Z AUTO 18009KT 10SM SCT060 26/12 A3000 130 40 1500 190/09 RMK AO2 SLP156 T02610117
13870KAMG AMG20160324135511803/24/16 13:55:31  5-MIN KAMG 241855Z AUTO 18006KT 10SM SCT060 26/12 A2998 140 40 1500 190/06 RMK AO2 PRESFR T02610117
13870KAMG AMG20160324140011703/24/16 14:00:31  5-MIN KAMG 241900Z AUTO 16010G15KT 10SM BKN060 27/12 A2998 140 39 1600 170/10G15 RMK AO2 T02720122
13870KAMG AMG20160324140511703/24/16 14:05:31  5-MIN KAMG 241905Z AUTO 13006G15KT 10SM SCT060 26/12 A2998 150 41 1500 140/06G15 RMK AO2 T02610122
13870KAMG AMG20160324141011103/24/16 14:10:31  5-MIN KAMG 241910Z AUTO 18009KT 10SM BKN060 27/12 A2998 150 38 1600 180/09 RMK AO2 T02670117
13870KAMG AMG20160324141511103/24/16 14:15:31  5-MIN KAMG 241915Z AUTO VRB05KT 10SM BKN060 27/12 A2997 160 38 1600 VRB/05 RMK AO2 T02670117
13870KAMG AMG20160324142011703/24/16 14:20:31  5-MIN KAMG 241920Z AUTO 16012G18KT 10SM SCT060 27/12 A2996 160 37 1600 170/12G18 RMK AO2 T02720117
13870KAMG AMG20160324142511703/24/16 14:25:31  5-MIN KAMG 241925Z AUTO 19007G18KT 10SM SCT060 27/12 A2996 160 38 1600 200/07G18 RMK AO2 T02670117
13870KAMG AMG20160324143011103/24/16 14:30:31  5-MIN KAMG 241930Z AUTO 16010KT 10SM SCT060 27/12 A2996 160 38 1600 170/10 RMK AO2 T02670117
13870KAMG AMG20160324143511703/24/16 14:35:31  5-MIN KAMG 241935Z AUTO 18011G15KT 10SM BKN065 27/12 A2996 160 39 1600 180/11G15 RMK AO2 T02720122
13870KAMG AMG20160324144011103/24/16 14:40:31  5-MIN KAMG 241940Z AUTO 19008KT 10SM BKN065 27/12 A2996 170 37 1700 190/08 RMK AO2 T02720117
13870KAMG AMG20160324144512703/24/16 14:45:31  5-MIN KAMG 241945Z AUTO 19007KT 120V220 10SM BKN065 27/12 A2995 170 37 1700 190/07 130V230 RMK AO2 T02720117
13870KAMG AMG20160324145011803/24/16 14:50:31  5-MIN KAMG 241950Z AUTO 17008KT 10SM BKN065 27/12 A2996 170 39 1700 170/08 RMK AO2 SLP142 T02720122
13870KAMG AMG20160324145511103/24/16 14:55:31  5-MIN KAMG 241955Z AUTO 18009KT 10SM SCT065 27/12 A2996 170 38 1600 180/09 RMK AO2 T02670117
13870KAMG AMG20160324150011103/24/16 15:00:31  5-MIN KAMG 242000Z AUTO 18009KT 10SM SCT065 27/12 A2996 170 38 1600 180/09 RMK AO2 T02670117
13870KAMG AMG20160324150511103/24/16 15:05:31  5-MIN KAMG 242005Z AUTO VRB05KT 10SM SCT065 26/12 A2996 170 40 1500 VRB/05 RMK AO2 T02610117
13870KAMG AMG20160324151011103/24/16 15:10:31  5-MIN KAMG 242010Z AUTO 18008KT 10SM FEW065 27/12 A2996 170 40 1600 180/08 RMK AO2 T02670122
13870KAMG AMG20160324151511703/24/16 15:15:31  5-MIN KAMG 242015Z AUTO 19011G16KT 10SM FEW065 28/12 A2996 170 36 1700 200/11G16 RMK AO2 T02780117
13870KAMG AMG20160324152011703/24/16 15:20:31  5-MIN KAMG 242020Z AUTO 15011G16KT 10SM FEW065 28/12 A2995 170 37 1700 160/11G16 RMK AO2 T02780122
13870KAMG AMG20160324152511703/24/16 15:25:31  5-MIN KAMG 242025Z AUTO 17008G19KT 10SM SCT065 27/12 A2996 170 39 1700 180/08G19 RMK AO2 T02720122
13870KAMG AMG20160324153011703/24/16 15:30:31  5-MIN KAMG 242030Z AUTO 14009G19KT 10SM SCT065 28/12 A2995 170 37 1700 150/09G19 RMK AO2 T02780122
13870KAMG AMG20160324153511103/24/16 15:35:31  5-MIN KAMG 242035Z AUTO 15010KT 10SM SCT065 27/12 A2995 170 37 1700 160/10 RMK AO2 T02720117
13870KAMG AMG20160324154012703/24/16 15:40:31  5-MIN KAMG 242040Z AUTO 19007KT 170V240 10SM SCT065 28/12 A2995 180 37 1700 200/07 180V250 RMK AO2 T02780122
13870KAMG AMG20160324154511103/24/16 15:45:31  5-MIN KAMG 242045Z AUTO 18009KT 10SM SCT070 27/12 A2995 180 37 1700 190/09 RMK AO2 T02720117
13870KAMG AMG20160324155012403/24/16 15:50:31  5-MIN KAMG 242050Z AUTO 21011KT 10SM BKN070 27/11 A2994 180 37 1600 210/11 RMK AO2 SLP138 T02670111 58023
13870KAMG AMG20160324155511103/24/16 15:55:31  5-MIN KAMG 242055Z AUTO 18008KT 10SM BKN070 27/11 A2994 180 36 1700 190/08 RMK AO2 T02720111
13870KAMG AMG20160324160011103/24/16 16:00:31  5-MIN KAMG 242100Z AUTO 18008KT 10SM BKN070 27/12 A2995 180 37 1700 190/08 RMK AO2 T02720117
13870KAMG AMG20160324160511703/24/16 16:05:31  5-MIN KAMG 242105Z AUTO 19009G14KT 10SM BKN070 27/12 A2994 180 38 1600 200/09G14 RMK AO2 T02670117
13870KAMG AMG20160324161011103/24/16 16:10:31  5-MIN KAMG 242110Z AUTO 20009KT 10SM BKN070 27/12 A2994 180 37 1700 210/09 RMK AO2 T02720117
13870KAMG AMG20160324161511103/24/16 16:15:31  5-MIN KAMG 242115Z AUTO 20012KT 10SM BKN070 27/11 A2994 180 36 1700 210/12 RMK AO2 T02720111
13870KAMG AMG20160324162011103/24/16 16:20:31  5-MIN KAMG 242120Z AUTO 21010KT 10SM BKN070 27/11 A2994 190 37 1600 210/10 RMK AO2 T02670111
13870KAMG AMG20160324162511103/24/16 16:25:31  5-MIN KAMG 242125Z AUTO 20013KT 10SM SCT075 27/11 A2993 190 37 1600 200/13 RMK AO2 T02670111
13870KAMG AMG20160324163011103/24/16 16:30:31  5-MIN KAMG 242130Z AUTO 21011KT 10SM SCT075 27/12 A2993 190 38 1600 210/11 RMK AO2 T02670117
13870KAMG AMG20160324163511103/24/16 16:35:31  5-MIN KAMG 242135Z AUTO 21010KT 10SM SCT075 27/12 A2993 190 38 1600 220/10 RMK AO2 T02670117
13870KAMG AMG20160324164011103/24/16 16:40:31  5-MIN KAMG 242140Z AUTO 21008KT 10SM SCT075 27/12 A2994 190 38 1600 210/08 RMK AO2 T02670117
13870KAMG AMG20160324164511103/24/16 16:45:31  5-MIN KAMG 242145Z AUTO 21009KT 10SM FEW075 27/12 A2994 190 38 1600 220/09 RMK AO2 T02670117
13870KAMG AMG20160324165011803/24/16 16:50:31  5-MIN KAMG 242150Z AUTO 19007KT 10SM SCT075 27/12 A2993 190 38 1600 200/07 RMK AO2 SLP134 T02670117
13870KAMG AMG20160324165511103/24/16 16:55:31  5-MIN KAMG 242155Z AUTO 19009KT 10SM SCT070 27/12 A2993 190 38 1600 200/09 RMK AO2 T02670117
13870KAMG AMG20160324170011703/24/16 17:00:31  5-MIN KAMG 242200Z AUTO 18013G17KT 10SM BKN070 27/12 A2993 190 40 1600 190/13G17 RMK AO2 T02670122
13870KAMG AMG20160324170511703/24/16 17:05:31  5-MIN KAMG 242205Z AUTO 20009G17KT 10SM BKN070 27/12 A2994 190 38 1600 200/09G17 RMK AO2 T02670117
13870KAMG AMG20160324171011103/24/16 17:10:31  5-MIN KAMG 242210Z AUTO 19008KT 10SM BKN070 26/12 A2994 190 41 1600 200/08 RMK AO2 T02610122
13870KAMG AMG20160324171511103/24/16 17:15:31  5-MIN KAMG 242215Z AUTO 20010KT 10SM BKN070 26/12 A2993 190 41 1600 210/10 RMK AO2 T02610122
13870KAMG AMG20160324172011103/24/16 17:20:31  5-MIN KAMG 242220Z AUTO 21008KT 10SM BKN070 26/12 A2993 190 41 1600 210/08 RMK AO2 T02610122
13870KAMG AMG20160324172511103/24/16 17:25:31  5-MIN KAMG 242225Z AUTO 21007KT 10SM BKN070 26/12 A2993 190 41 1600 210/07 RMK AO2 T02610122
13870KAMG AMG20160324173011103/24/16 17:30:31  5-MIN KAMG 242230Z AUTO 21009KT 10SM BKN070 26/13 A2993 190 43 1600 220/09 RMK AO2 T02610128
13870KAMG AMG20160324173511103/24/16 17:35:31  5-MIN KAMG 242235Z AUTO 21009KT 10SM BKN070 26/13 A2993 190 44 1500 210/09 RMK AO2 T02560128
13870KAMG AMG20160324174011103/24/16 17:40:31  5-MIN KAMG 242240Z AUTO 20008KT 10SM BKN070 26/13 A2993 190 44 1500 210/08 RMK AO2 T02560128
13870KAMG AMG20160324174511103/24/16 17:45:31  5-MIN KAMG 242245Z AUTO 19008KT 10SM SCT070 26/13 A2992 200 44 1500 190/08 RMK AO2 T02560128
13870KAMG AMG20160324175011803/24/16 17:50:31  5-MIN KAMG 242250Z AUTO 19007KT 10SM SCT070 26/13 A2992 200 44 1500 190/07 RMK AO2 SLP130 T02560128
13870KAMG AMG20160324175511103/24/16 17:55:31  5-MIN KAMG 242255Z AUTO 19006KT 10SM FEW070 25/13 A2992 200 46 1400 190/06 RMK AO2 T02500128
13870KAMG AMG20160324180011103/24/16 18:00:31  5-MIN KAMG 242300Z AUTO 18005KT 10SM FEW070 25/13 A2992 210 46 1500 190/05 RMK AO2 T02500128
13870KAMG AMG20160324180511103/24/16 18:05:31  5-MIN KAMG 242305Z AUTO 19004KT 10SM FEW070 24/13 A2992 210 49 1400 200/04 RMK AO2 T02440133
13870KAMG AMG20160324181010803/24/16 18:10:31  5-MIN KAMG 242310Z AUTO 19005KT 10SM CLR 24/13 A2992 200 49 1400 190/05 RMK AO2 T02440133
13870KAMG AMG20160324181510803/24/16 18:15:31  5-MIN KAMG 242315Z AUTO 18005KT 10SM CLR 24/13 A2992 210 51 1300 180/05 RMK AO2 T02390133
13870KAMG AMG20160324182010803/24/16 18:20:31  5-MIN KAMG 242320Z AUTO 18006KT 10SM CLR 24/13 A2992 210 51 1300 180/06 RMK AO2 T02390133
13870KAMG AMG20160324182510803/24/16 18:25:31  5-MIN KAMG 242325Z AUTO 18005KT 10SM CLR 24/13 A2992 200 51 1300 190/05 RMK AO2 T02390133
13870KAMG AMG20160324183010803/24/16 18:30:31  5-MIN KAMG 242330Z AUTO 18004KT 10SM CLR 23/13 A2992 200 53 1300 190/04 RMK AO2 T02330133
13870KAMG AMG20160324183510803/24/16 18:35:31  5-MIN KAMG 242335Z AUTO 19003KT 10SM CLR 23/13 A2992 200 53 1300 190/03 RMK AO2 T02330133
13870KAMG AMG20160324184010803/24/16 18:40:31  5-MIN KAMG 242340Z AUTO 19004KT 10SM CLR 23/13 A2993 200 53 1200 190/04 RMK AO2 T02330133
13870KAMG AMG20160324184510803/24/16 18:45:31  5-MIN KAMG 242345Z AUTO 17004KT 10SM CLR 23/14 A2992 200 57 1200 170/04 RMK AO2 T02280139
13870KAMG AMG20160324185013303/24/16 18:50:31  5-MIN KAMG 242350Z AUTO 16005KT 10SM CLR 23/14 A2992 200 57 1200 170/05 RMK AO2 SLP130 T02280139 10278 20228 56036
13870KAMG AMG20160324185510803/24/16 18:55:31  5-MIN KAMG 242355Z AUTO 16004KT 10SM CLR 22/14 A2992 200 59 1100 170/04 RMK AO2 T02220139
13870KAMG AMG20160324190010803/24/16 19:00:31  5-MIN KAMG 250000Z AUTO 17005KT 10SM CLR 22/14 A2992 200 59 1100 170/05 RMK AO2 T02220139
13870KAMG AMG20160324190510803/24/16 19:05:31  5-MIN KAMG 250005Z AUTO 16004KT 10SM CLR 22/14 A2992 210 59 1100 160/04 RMK AO2 T02220139
13870KAMG AMG20160324191010803/24/16 19:10:31  5-MIN KAMG 250010Z AUTO 15004KT 10SM CLR 22/14 A2991 210 59 1100 160/04 RMK AO2 T02220139
13870KAMG AMG20160324191510803/24/16 19:15:31  5-MIN KAMG 250015Z AUTO 16004KT 10SM CLR 22/14 A2991 210 59 1100 160/04 RMK AO2 T02220139
13870KAMG AMG20160324192010803/24/16 19:20:31  5-MIN KAMG 250020Z AUTO 16003KT 10SM CLR 22/14 A2991 210 59 1100 160/03 RMK AO2 T02220139
13870KAMG AMG20160324192510803/24/16 19:25:31  5-MIN KAMG 250025Z AUTO 17003KT 10SM CLR 22/14 A2991 210 61 1100 170/03 RMK AO2 T02170139
13870KAMG AMG20160324193011903/24/16 19:30:31  5-MIN KAMG 250030Z AUTO 00000KT 10SM CLR 21/14 A2991 210 63 1000 000/00 RMK AO2 LTG DSNT W T02110139
13870KAMG AMG20160324193512603/24/16 19:35:31  5-MIN KAMG 250035Z AUTO 19003KT 10SM CLR 21/14 A2991 210 63 1000 200/03 RMK AO2 LTG DSNT SW AND W T02110139
13870KAMG AMG20160324194012503/24/16 19:40:31  5-MIN KAMG 250040Z AUTO 19003KT 10SM CLR 21/14 A2991 210 65 900 190/03 RMK AO2 LTG DSNT SW AND W T02060139
13870KAMG AMG20160324194512803/24/16 19:45:31  5-MIN KAMG 250045Z AUTO 19003KT 10SM FEW050 21/14 A2992 210 65 900 200/03 RMK AO2 LTG DSNT SW AND W T02060139
13870KAMG AMG20160324195013303/24/16 19:50:31  5-MIN KAMG 250050Z AUTO 18003KT 10SM SCT048 21/14 A2991 210 65 1000 180/03 RMK AO2 LTG DSNT SW-NW SLP127 T02110144
13870KAMG AMG20160324195512603/24/16 19:55:31  5-MIN KAMG 250055Z AUTO 18003KT 10SM SCT048 21/14 A2991 210 65 1000 180/03 RMK AO2 LTG DSNT SW-NW T02110144
13870KAMG AMG20160324200012603/24/16 20:00:31  5-MIN KAMG 250100Z AUTO 18003KT 10SM FEW048 21/15 A2992 210 68 1000 190/03 RMK AO2 LTG DSNT SW-NW T02110150
13870KAMG AMG20160324200513303/24/16 20:05:31  5-MIN KAMG 250105Z AUTO 19004KT 10SM FEW048 SCT080 21/15 A2992 200 68 1000 190/04 RMK AO2 LTG DSNT SW-NW T02110150
13870KAMG AMG20160324201013303/24/16 20:10:31  5-MIN KAMG 250110Z AUTO 20003KT 10SM SCT048 BKN080 21/14 A2992 200 65 1000 210/03 RMK AO2 LTG DSNT SW-NW T02110144
13870KAMG AMG20160324201513203/24/16 20:15:31  5-MIN KAMG 250115Z AUTO 18004KT 10SM BKN050 BKN080 22/14 A2992 200 63 1100 190/04 RMK AO2 LTG DSNT S-NW T02170144
13870KAMG AMG20160324202013903/24/16 20:20:31  5-MIN KAMG 250120Z AUTO 19004KT 10SM SCT045 BKN050 BKN075 22/14 A2992 200 63 1100 200/04 RMK AO2 LTG DSNT S-NW T02170144
13870KAMG AMG20160324202517103/24/16 20:25:31  5-MIN KAMG 250125Z AUTO 25019G27KT 6SM HZ FEW031 SCT041 BKN048 22/15 A2997 160 65 1000 260/19G27 RMK AO2 PK WND 25027/0124 LTG DSNT S-W PRESRR T02170150
13870KAMG AMG20160324203019903/24/16 20:30:31  5-MIN KAMG 250130Z AUTO 25016G28KT 1 3/4SM +TSRA BR SCT028 BKN041 OVC080 19/17 A2999 140 90 700 260/16G28 RMK AO2 PK WND 23028/0128 LTG DSNT SW-N RAB26 TSB30 PRESRR P0016 T01890172
13870KAMG AMG20160324203518903/24/16 20:35:31  5-MIN KAMG 250135Z AUTO 26012G28KT 1SM +TSRA BR SCT027 BKN044 OVC070 18/17 A2998 150 96 600 270/12G28 RMK AO2 PK WND 23028/0128 LTG DSNT ALQDS RAB26 TSB30 P0027 T01780172
13870KAMG AMG20160324204023803/24/16 20:40:31  5-MIN KAMG 250140Z AUTO 26008G21KT 230V290 1 1/4SM TSRA BR SCT033 BKN044 OVC080 18/17 A2995 170 96 600 260/08G21 240V300 RMK AO2 PK WND 23028/0128 WSHFT 0123 VIS 1/2V4 LTG DSNT N AND S AND SW RAB26 TSB30 P0028 T01780172
13870KAMG AMG20160324204522003/24/16 20:45:31  5-MIN KAMG 250145Z AUTO 27006G19KT 2SM -TSRA BR SCT035 BKN044 OVC110 18/18 A2995 180 100 600 270/06G19 RMK AO2 PK WND 23028/0128 WSHFT 0123 VIS 1/2V5 LTG DSNT N AND S AND SW RAB26 TSB30 P0028 T01780178
13870KAMG AMG20160324205019903/24/16 20:50:31  5-MIN KAMG 250150Z AUTO 23005KT 7SM -TSRA SCT032 BKN075 OVC100 18/18 A2995 170 100 600 230/05 RMK AO2 PK WND 23028/0128 WSHFT 0123 LTG DSNT ALQDS RAB26 TSB30 SLP141 P0028 T01780178
13870KAMG AMG20160324205515103/24/16 20:55:31  5-MIN KAMG 250155Z AUTO 21005KT 8SM -TSRA FEW032 SCT075 OVC100 18/18 A2995 170 100 600 220/05 RMK AO2 LTG DSNT ALQDS P0000 T01780178
13870KAMG AMG20160324210016503/24/16 21:00:31  5-MIN KAMG 250200Z AUTO 22007KT 6SM VCTS -RA BR FEW036 SCT075 OVC100 18/18 A2997 160 100 600 230/07 RMK AO2 LTG DSNT ALQDS TSE0158 P0001 T01780178
13870KAMG AMG20160324210516503/24/16 21:05:31  5-MIN KAMG 250205Z AUTO 21007KT 5SM VCTS -RA BR FEW060 SCT080 OVC100 18/18 A2997 160 100 600 220/07 RMK AO2 LTG DSNT ALQDS TSE0158 P0003 T01780178
13870KAMG AMG20160324211015103/24/16 21:10:31  5-MIN KAMG 250210Z AUTO 20007KT 4SM RA BR BKN090 OVC110 18/18 A2996 160 100 600 200/07 RMK AO2 LTG DSNT NE-S TSE0158 P0005 T01780178
13870KAMG AMG20160324211515103/24/16 21:15:31  5-MIN KAMG 250215Z AUTO 16006KT 5SM RA BR FEW080 OVC100 17/17 A2995 170 100 500 170/06 RMK AO2 LTG DSNT NE-S TSE0158 P0006 T01720172
13870KAMG AMG20160324212015203/24/16 21:20:31  5-MIN KAMG 250220Z AUTO 16005KT 5SM -RA BR BKN090 OVC110 17/17 A2995 170 100 500 170/05 RMK AO2 LTG DSNT NE-S TSE0158 P0007 T01720172
13870KAMG AMG20160324212516003/24/16 21:25:31  5-MIN KAMG 250225Z AUTO 14005KT 6SM -RA BR BKN100 OVC110 17/17 A2994 180 100 500 150/05 RMK AO2 LTG DSNT NE-SE TSE0158 PRESFR P0008 T01720172
13870KAMG AMG20160324213015003/24/16 21:30:31  5-MIN KAMG 250230Z AUTO 17005KT 8SM -RA SCT085 OVC110 17/17 A2995 180 100 500 180/05 RMK AO2 LTG DSNT NE-SE TSE0158 P0008 T01720172
13870KAMG AMG20160324213515203/24/16 21:35:31  5-MIN KAMG 250235Z AUTO 17005KT 10SM FEW090 OVC110 18/17 A2995 180 96 600 170/05 RMK AO2 LTG DSNT NE-SE RAE35 TSE0158 P0008 T01780172
13870KAMG AMG20160324214014903/24/16 21:40:31  5-MIN KAMG 250240Z AUTO 19006KT 10SM OVC100 17/17 A2996 170 100 500 190/06 RMK AO2 LTG DSNT E AND SE RAE35 TSE0158 P0008 T01720172
13870KAMG AMG20160324214515303/24/16 21:45:31  5-MIN KAMG 250245Z AUTO 19006KT 8SM -RA OVC100 17/17 A2996 160 100 500 190/06 RMK AO2 LTG DSNT E AND SE TSE0158 PRESRR P0008 T01720172
13870KAMG AMG20160324215016403/24/16 21:50:31  5-MIN KAMG 250250Z AUTO 18006KT 7SM -RA OVC110 18/17 A2996 170 96 600 180/06 RMK AO2 LTG DSNT E AND SE TSE0158 SLP143 P0008 60037 T01780172 55007
13870KAMG AMG20160324215513203/24/16 21:55:31  5-MIN KAMG 250255Z AUTO 17007KT 9SM -RA OVC110 17/17 A2995 170 100 500 180/07 RMK AO2 LTG DSNT SE P0000 T01720172
13870KAMG AMG20160324220014103/24/16 22:00:31  5-MIN KAMG 250300Z AUTO 17008KT 10SM OVC110 17/17 A2995 180 100 500 170/08 RMK AO2 LTG DSNT E AND SE RAE00 P0000 T01720172
13870KAMG AMG20160324220514003/24/16 22:05:31  5-MIN KAMG 250305Z AUTO 16009KT 10SM OVC110 17/17 A2994 180 96 500 160/09 RMK AO2 LTG DSNT E RAE00 PRESFR P0000 T01720167
13870KAMG AMG20160324221014003/24/16 22:10:31  5-MIN KAMG 250310Z AUTO 15009KT 10SM OVC110 17/17 A2993 190 96 500 150/09 RMK AO2 LTG DSNT E RAE00 PRESFR P0000 T01720167
13870KAMG AMG20160324221514003/24/16 22:15:31  5-MIN KAMG 250315Z AUTO 14008KT 10SM OVC110 17/17 A2992 200 96 600 150/08 RMK AO2 LTG DSNT E RAE00 PRESFR P0000 T01720167
13870KAMG AMG20160324222013303/24/16 22:20:31  5-MIN KAMG 250320Z AUTO 15009KT 10SM OVC110 17/17 A2992 200 96 600 160/09 RMK AO2 LTG DSNT E RAE00 P0000 T01720167
13870KAMG AMG20160324222512203/24/16 22:25:31  5-MIN KAMG 250325Z AUTO 15009KT 10SM OVC110 17/17 A2992 210 96 600 160/09 RMK AO2 RAE00 P0000 T01720167
13870KAMG AMG20160324223012203/24/16 22:30:31  5-MIN KAMG 250330Z AUTO 14007KT 10SM BKN110 17/17 A2991 210 96 600 150/07 RMK AO2 RAE00 P0000 T01720167
13870KAMG AMG20160324223512903/24/16 22:35:31  5-MIN KAMG 250335Z AUTO 14009KT 10SM BKN110 17/17 A2990 220 96 600 150/09 RMK AO2 RAE00 PRESFR P0000 T01720167
13870KAMG AMG20160324224012903/24/16 22:40:31  5-MIN KAMG 250340Z AUTO 14010KT 10SM BKN110 17/17 A2989 230 96 600 150/10 RMK AO2 RAE00 PRESFR P0000 T01720167
13870KAMG AMG20160324224512203/24/16 22:45:31  5-MIN KAMG 250345Z AUTO 14010KT 10SM BKN110 17/17 A2988 240 96 600 150/10 RMK AO2 RAE00 P0000 T01720167
13870KAMG AMG20160324225012903/24/16 22:50:31  5-MIN KAMG 250350Z AUTO 15010KT 10SM SCT110 17/17 A2988 240 96 600 160/10 RMK AO2 RAE00 SLP116 P0000 T01720167
13870KAMG AMG20160324225511003/24/16 22:55:31  5-MIN KAMG 250355Z AUTO 17014KT 10SM SCT110 17/17 A2990 220 96 600 180/14 RMK AO2 T01720167
13870KAMG AMG20160324230011003/24/16 23:00:31  5-MIN KAMG 250400Z AUTO 17012KT 10SM SCT110 17/17 A2990 230 96 600 180/12 RMK AO2 T01720167
13870KAMG AMG20160324230511003/24/16 23:05:31  5-MIN KAMG 250405Z AUTO 18012KT 10SM FEW110 17/17 A2989 230 96 600 180/12 RMK AO2 T01720167
13870KAMG AMG20160324231011703/24/16 23:10:31  5-MIN KAMG 250410Z AUTO 15011KT 10SM FEW100 FEW120 17/16 A2988 240 93 600 160/11 RMK AO2 T01720161
13870KAMG AMG20160324231511703/24/16 23:15:31  5-MIN KAMG 250415Z AUTO 19014KT 10SM SCT100 SCT110 17/16 A2990 220 93 600 190/14 RMK AO2 T01720161
13870KAMG AMG20160324232012303/24/16 23:20:31  5-MIN KAMG 250420Z AUTO 19011G20KT 10SM FEW100 BKN110 17/16 A2990 220 93 600 200/11G20 RMK AO2 T01720161
13870KAMG AMG20160324232511703/24/16 23:25:31  5-MIN KAMG 250425Z AUTO 17011KT 10SM FEW100 BKN120 17/16 A2988 240 93 600 180/11 RMK AO2 T01720161
13870KAMG AMG20160324233012303/24/16 23:30:31  5-MIN KAMG 250430Z AUTO 18010G17KT 10SM SCT090 BKN120 17/16 A2988 240 93 600 190/10G17 RMK AO2 T01720161
13870KAMG AMG20160324233512403/24/16 23:35:31  5-MIN KAMG 250435Z AUTO 18009KT 10SM SCT095 BKN120 17/16 A2987 250 93 600 180/09 RMK AO2 PRESFR T01720161
13870KAMG AMG20160324234012403/24/16 23:40:31  5-MIN KAMG 250440Z AUTO 18011KT 10SM FEW090 BKN120 17/16 A2986 260 93 600 180/11 RMK AO2 PRESFR T01720161
13870KAMG AMG20160324234512403/24/16 23:45:31  5-MIN KAMG 250445Z AUTO 17010KT 10SM FEW090 SCT120 17/16 A2985 270 90 600 180/10 RMK AO2 PRESFR T01720156
13870KAMG AMG20160324235014103/24/16 23:50:31  5-MIN KAMG 250450Z AUTO 17010KT 10SM FEW090 SCT120 17/16 A2984 270 90 600 180/10 RMK AO2 PRESFR SLP103 T01720156 402780094
13870KAMG AMG20160324235512403/24/16 23:55:31  5-MIN KAMG 250455Z AUTO 17010KT 10SM FEW090 BKN120 17/16 A2983 290 90 700 170/10 RMK AO2 PRESFR T01720156
13870KAMG AMG20160325000012403/25/16 00:00:31  5-MIN KAMG 250500Z AUTO 17011KT 10SM FEW095 BKN120 17/16 A2982 290 90 700 170/11 RMK AO2 PRESFR T01720156
13870KAMG AMG20160325000511703/25/16 00:05:31  5-MIN KAMG 250505Z AUTO 16014KT 10SM BKN110 17/16 A2981 310 90 700 160/14 RMK AO2 PRESFR T01720156
13870KAMG AMG20160325001011003/25/16 00:10:31  5-MIN KAMG 250510Z AUTO 16015KT 10SM BKN120 18/16 A2980 310 84 800 170/15 RMK AO2 T01830156
13870KAMG AMG20160325001513203/25/16 00:15:31  5-MIN KAMG 250515Z AUTO 22012G19KT 170V310 10SM BKN110 17/16 A2984 270 90 600 220/12G19 180V320 RMK AO2 T01720156
13870KAMG AMG20160325002014603/25/16 00:20:31  5-MIN KAMG 250520Z AUTO 30007G23KT 260V330 10SM FEW012 SCT095 BKN120 17/16 A2985 270 90 600 300/07G23 270V340 RMK AO2 T01720156
13870KAMG AMG20160325002514603/25/16 00:25:31  5-MIN KAMG 250525Z AUTO 20008G23KT 160V270 10SM FEW012 SCT090 BKN120 17/16 A2984 280 90 600 210/08G23 170V280 RMK AO2 T01720156
13870KAMG AMG20160325003013703/25/16 00:30:31  5-MIN KAMG 250530Z AUTO 28010G22KT 10SM SCT013 SCT090 BKN120 17/16 A2987 250 90 600 290/10G22 RMK AO2 PRESRR T01720156
13870KAMG AMG20160325003513703/25/16 00:35:31  5-MIN KAMG 250535Z AUTO 28011G22KT 10SM SCT015 BKN090 BKN120 18/16 A2987 250 87 700 290/11G22 RMK AO2 PRESRR T01780156
13870KAMG AMG20160325004013703/25/16 00:40:31  5-MIN KAMG 250540Z AUTO 30011G17KT 10SM FEW013 SCT018 BKN090 17/16 A2988 240 90 600 300/11G17 RMK AO2 PRESRR T01720156
13870KAMG AMG20160325004511703/25/16 00:45:31  5-MIN KAMG 250545Z AUTO 29010KT 10SM SCT013 BKN020 17/16 A2988 240 90 600 300/10 RMK AO2 T01720156
13870KAMG AMG20160325005017103/25/16 00:50:31  5-MIN KAMG 250550Z AUTO 29008KT 250V310 10SM FEW015 SCT020 BKN025 17/16 A2987 250 90 600 300/08 260V320 RMK AO2 SLP112 60037 T01720156 10222 20172 55028
13870KAMG AMG20160325005512303/25/16 00:55:31  5-MIN KAMG 250555Z AUTO 28008G16KT 10SM SCT017 SCT025 17/16 A2987 250 90 600 290/08G16 RMK AO2 T01720156
13870KAMG AMG20160325010012403/25/16 01:00:31  5-MIN KAMG 250600Z AUTO 20005KT 10SM FEW017 FEW025 17/16 A2985 260 90 600 210/05 RMK AO2 PRESFR T01720156
13870KAMG AMG20160325010511003/25/16 01:05:31  5-MIN KAMG 250605Z AUTO 19004KT 10SM FEW020 17/16 A2985 270 90 600 190/04 RMK AO2 T01720156
13870KAMG AMG20160325011011003/25/16 01:10:31  5-MIN KAMG 250610Z AUTO 22006KT 10SM FEW020 17/16 A2986 260 90 600 220/06 RMK AO2 T01720156
13870KAMG AMG20160325011510703/25/16 01:15:31  5-MIN KAMG 250615Z AUTO 22006KT 10SM CLR 17/16 A2986 260 90 600 220/06 RMK AO2 T01720156
13870KAMG AMG20160325012010703/25/16 01:20:31  5-MIN KAMG 250620Z AUTO 24005KT 10SM CLR 17/16 A2986 260 90 600 240/05 RMK AO2 T01720156
13870KAMG AMG20160325012510703/25/16 01:25:31  5-MIN KAMG 250625Z AUTO 22005KT 10SM CLR 17/16 A2986 260 90 600 230/05 RMK AO2 T01720156
13870KAMG AMG20160325013010703/25/16 01:30:31  5-MIN KAMG 250630Z AUTO 21004KT 10SM CLR 17/16 A2986 260 90 600 210/04 RMK AO2 T01720156
13870KAMG AMG20160325013510703/25/16 01:35:31  5-MIN KAMG 250635Z AUTO 19005KT 10SM CLR 17/16 A2986 260 93 600 200/05 RMK AO2 T01670156
13870KAMG AMG20160325014010703/25/16 01:40:31  5-MIN KAMG 250640Z AUTO 20004KT 10SM CLR 17/16 A2986 260 93 600 200/04 RMK AO2 T01670156
13870KAMG AMG20160325014510703/25/16 01:45:31  5-MIN KAMG 250645Z AUTO 20004KT 10SM CLR 17/16 A2986 250 93 500 200/04 RMK AO2 T01670156
13870KAMG AMG20160325015011403/25/16 01:50:31  5-MIN KAMG 250650Z AUTO 22004KT 10SM CLR 17/16 A2987 250 93 500 220/04 RMK AO2 SLP113 T01670156
13870KAMG AMG20160325015511403/25/16 01:55:31  5-MIN KAMG 250655Z AUTO 21004KT 10SM CLR 17/16 A2988 240 93 500 210/04 RMK AO2 PRESRR T01670156
13870KAMG AMG20160325020010703/25/16 02:00:31  5-MIN KAMG 250700Z AUTO 21004KT 10SM CLR 17/16 A2988 240 93 500 220/04 RMK AO2 T01670156
13870KAMG AMG20160325020510703/25/16 02:05:31  5-MIN KAMG 250705Z AUTO 20004KT 10SM CLR 17/16 A2988 240 93 500 200/04 RMK AO2 T01670156
13870KAMG AMG20160325021010703/25/16 02:10:31  5-MIN KAMG 250710Z AUTO 19006KT 10SM CLR 17/16 A2988 240 93 500 190/06 RMK AO2 T01670156
13870KAMG AMG20160325021510703/25/16 02:15:31  5-MIN KAMG 250715Z AUTO 17006KT 10SM CLR 17/16 A2987 240 93 500 170/06 RMK AO2 T01670156
13870KAMG AMG20160325022010703/25/16 02:20:31  5-MIN KAMG 250720Z AUTO 18005KT 10SM CLR 17/16 A2987 250 93 500 180/05 RMK AO2 T01670156
13870KAMG AMG20160325022510703/25/16 02:25:31  5-MIN KAMG 250725Z AUTO 18005KT 10SM CLR 17/16 A2987 250 93 500 180/05 RMK AO2 T01670156
13870KAMG AMG20160325023011403/25/16 02:30:31  5-MIN KAMG 250730Z AUTO 16005KT 10SM CLR 17/16 A2986 260 93 600 170/05 RMK AO2 PRESFR T01670156
13870KAMG AMG20160325023510703/25/16 02:35:31  5-MIN KAMG 250735Z AUTO 15006KT 10SM CLR 17/16 A2986 260 93 600 160/06 RMK AO2 T01670156
13870KAMG AMG20160325024010703/25/16 02:40:31  5-MIN KAMG 250740Z AUTO 15006KT 10SM CLR 17/16 A2986 260 93 600 160/06 RMK AO2 T01670156
13870KAMG AMG20160325024510703/25/16 02:45:31  5-MIN KAMG 250745Z AUTO 17004KT 10SM CLR 17/16 A2986 260 93 600 170/04 RMK AO2 T01670156
13870KAMG AMG20160325025011403/25/16 02:50:31  5-MIN KAMG 250750Z AUTO 16005KT 10SM CLR 17/16 A2986 260 93 600 170/05 RMK AO2 SLP110 T01670156
13870KAMG AMG20160325025510703/25/16 02:55:31  5-MIN KAMG 250755Z AUTO 16005KT 10SM CLR 17/16 A2986 260 93 600 160/05 RMK AO2 T01670156
13870KAMG AMG20160325030010703/25/16 03:00:31  5-MIN KAMG 250800Z AUTO 17005KT 10SM CLR 16/16 A2986 250 96 500 180/05 RMK AO2 T01610156
13870KAMG AMG20160325030510703/25/16 03:05:31  5-MIN KAMG 250805Z AUTO 20003KT 10SM CLR 16/16 A2987 250 96 500 200/03 RMK AO2 T01610156
13870KAMG AMG20160325031010703/25/16 03:10:31  5-MIN KAMG 250810Z AUTO 18004KT 10SM CLR 16/16 A2987 250 96 500 180/04 RMK AO2 T01610156
13870KAMG AMG20160325031510703/25/16 03:15:31  5-MIN KAMG 250815Z AUTO 17003KT 10SM CLR 16/16 A2987 250 96 500 170/03 RMK AO2 T01610156
13870KAMG AMG20160325032010703/25/16 03:20:31  5-MIN KAMG 250820Z AUTO 17004KT 10SM CLR 16/16 A2986 250 96 500 180/04 RMK AO2 T01610156
13870KAMG AMG20160325032510703/25/16 03:25:31  5-MIN KAMG 250825Z AUTO 18004KT 10SM CLR 16/16 A2987 250 96 500 180/04 RMK AO2 T01610156
13870KAMG AMG20160325033010703/25/16 03:30:31  5-MIN KAMG 250830Z AUTO 18003KT 10SM CLR 16/16 A2987 250 96 500 180/03 RMK AO2 T01610156
13870KAMG AMG20160325033510703/25/16 03:35:31  5-MIN KAMG 250835Z AUTO 17005KT 10SM CLR 16/16 A2987 250 96 500 180/05 RMK AO2 T01610156
13870KAMG AMG20160325034010703/25/16 03:40:31  5-MIN KAMG 250840Z AUTO 16004KT 10SM CLR 16/16 A2987 250 96 500 170/04 RMK AO2 T01610156
13870KAMG AMG20160325034510703/25/16 03:45:31  5-MIN KAMG 250845Z AUTO 16003KT 10SM CLR 16/16 A2987 250 96 500 170/03 RMK AO2 T01610156
13870KAMG AMG20160325035012103/25/16 03:50:31  5-MIN KAMG 250850Z AUTO 17003KT 10SM CLR 16/16 A2987 250 100 400 170/03 RMK AO2 SLP111 T01560156 56008
13870KAMG AMG20160325035510803/25/16 03:55:31  5-MIN KAMG 250855Z AUTO 17003KT 10SM CLR 16/16 A2986 260 100 400 170/03 RMK AO2 T01560156
13870KAMG AMG20160325040010703/25/16 04:00:31  5-MIN KAMG 250900Z AUTO 17003KT 10SM CLR 16/15 A2986 260 96 400 170/03 RMK AO2 T01560150
13870KAMG AMG20160325040510703/25/16 04:05:31  5-MIN KAMG 250905Z AUTO 17004KT 10SM CLR 16/15 A2986 250 96 400 170/04 RMK AO2 T01560150
13870KAMG AMG20160325041010703/25/16 04:10:31  5-MIN KAMG 250910Z AUTO 16004KT 10SM CLR 16/15 A2986 260 96 400 170/04 RMK AO2 T01560150
13870KAMG AMG20160325041510703/25/16 04:15:31  5-MIN KAMG 250915Z AUTO 17003KT 10SM CLR 16/15 A2986 260 96 400 170/03 RMK AO2 T01560150
13870KAMG AMG20160325042010803/25/16 04:20:31  5-MIN KAMG 250920Z AUTO 17003KT 10SM CLR 16/16 A2986 260 100 400 170/03 RMK AO2 T01560156
13870KAMG AMG20160325042510703/25/16 04:25:31  5-MIN KAMG 250925Z AUTO 17003KT 10SM CLR 16/15 A2987 250 96 400 170/03 RMK AO2 T01560150
13870KAMG AMG20160325043010703/25/16 04:30:31  5-MIN KAMG 250930Z AUTO 00000KT 10SM CLR 16/15 A2987 250 96 400 000/00 RMK AO2 T01560150
13870KAMG AMG20160325043510703/25/16 04:35:31  5-MIN KAMG 250935Z AUTO 00000KT 10SM CLR 16/15 A2987 250 96 400 000/00 RMK AO2 T01560150
13870KAMG AMG20160325044010703/25/16 04:40:31  5-MIN KAMG 250940Z AUTO 15003KT 10SM CLR 16/15 A2986 250 96 400 160/03 RMK AO2 T01560150
13870KAMG AMG20160325044510803/25/16 04:45:31  5-MIN KAMG 250945Z AUTO 00000KT 10SM CLR 15/15 A2987 250 100 400 000/00 RMK AO2 T01500150
13870KAMG AMG20160325045011403/25/16 04:50:31  5-MIN KAMG 250950Z AUTO 00000KT 10SM CLR 16/15 A2986 260 96 400 000/00 RMK AO2 SLP110 T01560150
13870KAMG AMG20160325045510803/25/16 04:55:31  5-MIN KAMG 250955Z AUTO 00000KT 10SM CLR 15/15 A2986 250 100 400 000/00 RMK AO2 T01500150
13870KAMG AMG20160325050010803/25/16 05:00:31  5-MIN KAMG 251000Z AUTO 00000KT 10SM CLR 15/15 A2986 260 100 400 000/00 RMK AO2 T01500150
13870KAMG AMG20160325050510703/25/16 05:05:31  5-MIN KAMG 251005Z AUTO 00000KT 9SM CLR 15/15 A2986 250 100 400 000/00 RMK AO2 T01500150
13870KAMG AMG20160325051010703/25/16 05:10:31  5-MIN KAMG 251010Z AUTO 15003KT 9SM CLR 15/15 A2987 250 100 400 150/03 RMK AO2 T01500150
13870KAMG AMG20160325051510703/25/16 05:15:31  5-MIN KAMG 251015Z AUTO 13003KT 8SM CLR 15/15 A2987 250 100 400 140/03 RMK AO2 T01500150
13870KAMG AMG20160325052010703/25/16 05:20:31  5-MIN KAMG 251020Z AUTO 12003KT 8SM CLR 14/14 A2986 250 100 300 120/03 RMK AO2 T01440144
13870KAMG AMG20160325052510603/25/16 05:25:31  5-MIN KAMG 251025Z AUTO 00000KT 7SM CLR 15/14 A2987 250 96 300 000/00 RMK AO2 T01500144
13870KAMG AMG20160325053010703/25/16 05:30:31  5-MIN KAMG 251030Z AUTO 00000KT 7SM CLR 15/15 A2987 250 100 300 000/00 RMK AO2 T01500150
13870KAMG AMG20160325053510703/25/16 05:35:31  5-MIN KAMG 251035Z AUTO 00000KT 8SM CLR 15/15 A2988 240 100 300 000/00 RMK AO2 T01500150
13870KAMG AMG20160325054011003/25/16 05:40:31  5-MIN KAMG 251040Z AUTO 00000KT 8SM SCT044 15/15 A2989 230 100 300 000/00 RMK AO2 T01500150
13870KAMG AMG20160325054510903/25/16 05:45:31  5-MIN KAMG 251045Z AUTO 19003KT 8SM BKN044 16/15 A2989 230 96 400 200/03 RMK AO2 T01560150
13870KAMG AMG20160325055011703/25/16 05:50:31  5-MIN KAMG 251050Z AUTO 15003KT 8SM BKN046 16/16 A2989 230 100 400 150/03 RMK AO2 SLP119 T01560156
13870KAMG AMG20160325055510903/25/16 05:55:31  5-MIN KAMG 251055Z AUTO 15003KT 8SM BKN046 16/15 A2989 230 96 400 160/03 RMK AO2 T01560150
13870KAMG AMG20160325060011603/25/16 06:00:31  5-MIN KAMG 251100Z AUTO 17005KT 8SM BKN046 BKN055 16/15 A2989 230 96 400 180/05 RMK AO2 T01560150
13870KAMG AMG20160325060511703/25/16 06:05:31  5-MIN KAMG 251105Z AUTO 13003KT 8SM SCT046 BKN055 16/16 A2989 230 100 400 140/03 RMK AO2 T01560156
13870KAMG AMG20160325061011603/25/16 06:10:31  5-MIN KAMG 251110Z AUTO 12003KT 8SM SCT046 OVC055 16/15 A2989 230 96 400 130/03 RMK AO2 T01560150
13870KAMG AMG20160325061511003/25/16 06:15:31  5-MIN KAMG 251115Z AUTO 00000KT 8SM OVC055 16/16 A2989 230 100 400 000/00 RMK AO2 T01560156
13870KAMG AMG20160325062010903/25/16 06:20:31  5-MIN KAMG 251120Z AUTO 12003KT 7SM BKN060 16/15 A2989 230 96 400 120/03 RMK AO2 T01560150
13870KAMG AMG20160325062510903/25/16 06:25:31  5-MIN KAMG 251125Z AUTO 14003KT 7SM OVC060 16/15 A2989 230 96 400 140/03 RMK AO2 T01560150
13870KAMG AMG20160325063011703/25/16 06:30:31  5-MIN KAMG 251130Z AUTO 12003KT 7SM BKN060 BKN075 16/16 A2988 240 100 400 120/03 RMK AO2 T01560156
13870KAMG AMG20160325063512003/25/16 06:35:31  5-MIN KAMG 251135Z AUTO 11003KT 6SM BR BKN060 BKN075 15/15 A2988 240 100 300 120/03 RMK AO2 T01500150
13870KAMG AMG20160325064012003/25/16 06:40:31  5-MIN KAMG 251140Z AUTO 15003KT 6SM BR SCT060 SCT075 15/15 A2989 230 100 300 160/03 RMK AO2 T01500150
13870KAMG AMG20160325064511203/25/16 06:45:31  5-MIN KAMG 251145Z AUTO 16004KT 6SM BR FEW065 16/15 A2990 220 96 400 170/04 RMK AO2 T01560150
13870KAMG AMG20160325065014403/25/16 06:50:31  5-MIN KAMG 251150Z AUTO 16003KT 6SM BR FEW070 16/16 A2990 220 100 400 170/03 RMK AO2 SLP123 70037 T01560156 10172 20144 58000
13870KAMG AMG20160325065510703/25/16 06:55:31  5-MIN KAMG 251155Z AUTO 17005KT 7SM CLR 16/16 A2991 220 100 400 170/05 RMK AO2 T01560156
13870KAMG AMG20160325070010703/25/16 07:00:31  5-MIN KAMG 251200Z AUTO 17005KT 7SM CLR 16/16 A2991 210 100 400 180/05 RMK AO2 T01560156
13870KAMG AMG20160325070510703/25/16 07:05:31  5-MIN KAMG 251205Z AUTO 17005KT 7SM CLR 16/16 A2991 210 100 400 180/05 RMK AO2 T01560156
13870KAMG AMG20160325071011003/25/16 07:10:31  5-MIN KAMG 251210Z AUTO 18004KT 7SM FEW055 16/16 A2992 210 100 400 180/04 RMK AO2 T01560156
13870KAMG AMG20160325071511703/25/16 07:15:31  5-MIN KAMG 251215Z AUTO 18004KT 8SM FEW034 SCT055 16/16 A2992 200 100 400 190/04 RMK AO2 T01560156
13870KAMG AMG20160325072011703/25/16 07:20:31  5-MIN KAMG 251220Z AUTO 18004KT 8SM SCT034 BKN055 16/16 A2992 200 100 400 180/04 RMK AO2 T01560156
13870KAMG AMG20160325072511603/25/16 07:25:31  5-MIN KAMG 251225Z AUTO 18003KT 8SM BKN035 BKN055 16/16 A2992 200 96 400 180/03 RMK AO2 T01610156
13870KAMG AMG20160325073011603/25/16 07:30:31  5-MIN KAMG 251230Z AUTO 17004KT 9SM BKN035 BKN055 16/16 A2992 200 96 400 170/04 RMK AO2 T01610156
13870KAMG AMG20160325073511603/25/16 07:35:31  5-MIN KAMG 251235Z AUTO 15004KT 9SM BKN035 OVC055 16/16 A2992 210 96 400 160/04 RMK AO2 T01610156
13870KAMG AMG20160325074011003/25/16 07:40:31  5-MIN KAMG 251240Z AUTO 15003KT 10SM OVC037 16/16 A2992 210 96 400 160/03 RMK AO2 T01610156
13870KAMG AMG20160325074511003/25/16 07:45:31  5-MIN KAMG 251245Z AUTO 16004KT 10SM OVC037 16/16 A2992 200 96 400 170/04 RMK AO2 T01610156
13870KAMG AMG20160325075011803/25/16 07:50:31  5-MIN KAMG 251250Z AUTO 16004KT 10SM OVC039 16/16 A2992 200 100 400 170/04 RMK AO2 SLP131 T01610161
13870KAMG AMG20160325075511103/25/16 07:55:31  5-MIN KAMG 251255Z AUTO 15005KT 10SM OVC039 16/16 A2992 200 100 400 160/05 RMK AO2 T01610161
13870KAMG AMG20160325080011003/25/16 08:00:31  5-MIN KAMG 251300Z AUTO 15006KT 10SM OVC039 17/16 A2992 200 96 500 160/06 RMK AO2 T01670161
13870KAMG AMG20160325080511003/25/16 08:05:31  5-MIN KAMG 251305Z AUTO 17006KT 10SM OVC041 17/16 A2993 190 96 500 170/06 RMK AO2 T01670161
13870KAMG AMG20160325081011003/25/16 08:10:31  5-MIN KAMG 251310Z AUTO 17007KT 10SM OVC043 17/16 A2993 190 96 500 180/07 RMK AO2 T01670161
13870KAMG AMG20160325081511703/25/16 08:15:31  5-MIN KAMG 251315Z AUTO 16005KT 10SM BKN043 OVC055 17/16 A2993 190 96 500 160/05 RMK AO2 T01670161
13870KAMG AMG20160325082011703/25/16 08:20:31  5-MIN KAMG 251320Z AUTO 16004KT 10SM BKN043 OVC055 17/16 A2993 190 93 500 160/04 RMK AO2 T01720161
13870KAMG AMG20160325082511703/25/16 08:25:31  5-MIN KAMG 251325Z AUTO 16006KT 10SM SCT043 BKN055 17/16 A2993 190 93 500 160/06 RMK AO2 T01720161
13870KAMG AMG20160325083012403/25/16 08:30:31  5-MIN KAMG 251330Z AUTO 17006KT 10SM FEW038 SCT047 BKN055 17/16 A2994 190 93 500 170/06 RMK AO2 T01720161
13870KAMG AMG20160325083511703/25/16 08:35:31  5-MIN KAMG 251335Z AUTO 16006KT 10SM SCT045 SCT055 17/16 A2994 180 93 500 170/06 RMK AO2 T01720161
13870KAMG AMG20160325084012403/25/16 08:40:31  5-MIN KAMG 251340Z AUTO 18007KT 10SM FEW031 SCT043 BKN055 17/16 A2994 180 93 500 190/07 RMK AO2 T01720161
13870KAMG AMG20160325084512403/25/16 08:45:31  5-MIN KAMG 251345Z AUTO 18007KT 10SM SCT031 BKN043 BKN055 17/16 A2994 180 93 500 180/07 RMK AO2 T01720161
13870KAMG AMG20160325085012403/25/16 08:50:31  5-MIN KAMG 251350Z AUTO 17007KT 10SM SCT031 BKN043 17/16 A2995 180 93 500 180/07 RMK AO2 SLP139 T01720161
13870KAMG AMG20160325085511703/25/16 08:55:31  5-MIN KAMG 251355Z AUTO 18007KT 10SM BKN031 BKN043 17/16 A2995 170 93 500 190/07 RMK AO2 T01720161
13870KAMG AMG20160325090011703/25/16 09:00:31  5-MIN KAMG 251400Z AUTO 19005KT 10SM BKN031 OVC043 17/16 A2995 170 93 500 190/05 RMK AO2 T01720161
13870KAMG AMG20160325090512403/25/16 09:05:31  5-MIN KAMG 251405Z AUTO 18006KT 10SM FEW025 BKN031 OVC043 18/16 A2995 170 90 600 180/06 RMK AO2 T01780161
13870KAMG AMG20160325091011703/25/16 09:10:31  5-MIN KAMG 251410Z AUTO 18005KT 10SM SCT025 OVC031 18/16 A2995 170 90 600 180/05 RMK AO2 T01780161
13870KAMG AMG20160325091512403/25/16 09:15:31  5-MIN KAMG 251415Z AUTO 18003KT 10SM SCT026 BKN031 OVC040 18/17 A2995 170 93 600 190/03 RMK AO2 T01780167
13870KAMG AMG20160325092012403/25/16 09:20:31  5-MIN KAMG 251420Z AUTO 17005KT 10SM FEW026 BKN032 OVC040 18/16 A2995 170 90 600 180/05 RMK AO2 T01780161
13870KAMG AMG20160325092512403/25/16 09:25:31  5-MIN KAMG 251425Z AUTO 20005KT 10SM FEW026 SCT032 OVC040 18/16 A2995 170 90 600 210/05 RMK AO2 T01780161
13870KAMG AMG20160325093011703/25/16 09:30:31  5-MIN KAMG 251430Z AUTO 19005KT 10SM FEW026 OVC038 18/16 A2995 170 90 600 190/05 RMK AO2 T01780161
13870KAMG AMG20160325093511703/25/16 09:35:31  5-MIN KAMG 251435Z AUTO 19003KT 10SM FEW026 OVC038 18/17 A2995 180 90 700 200/03 RMK AO2 T01830167
13870KAMG AMG20160325094011003/25/16 09:40:31  5-MIN KAMG 251440Z AUTO 20004KT 10SM OVC038 18/17 A2994 180 90 700 200/04 RMK AO2 T01830167
13870KAMG AMG20160325094511003/25/16 09:45:31  5-MIN KAMG 251445Z AUTO 20004KT 10SM OVC036 18/17 A2995 180 90 700 210/04 RMK AO2 T01830167
13870KAMG AMG20160325095012303/25/16 09:50:31  5-MIN KAMG 251450Z AUTO 22005KT 10SM OVC036 19/16 A2995 180 84 700 220/05 RMK AO2 SLP139 T01890161 53013
13870KAMG AMG20160325095511003/25/16 09:55:31  5-MIN KAMG 251455Z AUTO 20004KT 10SM OVC034 19/17 A2995 180 87 700 210/04 RMK AO2 T01890167
13870KAMG AMG20160325100011003/25/16 10:00:31  5-MIN KAMG 251500Z AUTO 22004KT 10SM OVC034 19/17 A2995 170 87 700 220/04 RMK AO2 T01890167
13870KAMG AMG20160325100511003/25/16 10:05:31  5-MIN KAMG 251505Z AUTO VRB03KT 10SM OVC034 19/17 A2996 170 87 700 VRB/03 RMK AO2 T01890167
13870KAMG AMG20160325101011003/25/16 10:10:31  5-MIN KAMG 251510Z AUTO 20004KT 10SM OVC034 19/17 A2996 170 87 700 200/04 RMK AO2 T01890167
13870KAMG AMG20160325101511003/25/16 10:15:31  5-MIN KAMG 251515Z AUTO 21004KT 10SM OVC034 19/17 A2996 170 84 800 210/04 RMK AO2 T01940167
13870KAMG AMG20160325102011003/25/16 10:20:31  5-MIN KAMG 251520Z AUTO 22005KT 10SM OVC034 19/17 A2996 170 84 800 220/05 RMK AO2 T01940167
13870KAMG AMG20160325102511003/25/16 10:25:31  5-MIN KAMG 251525Z AUTO 21005KT 10SM OVC034 19/17 A2996 170 84 800 220/05 RMK AO2 T01940167
13870KAMG AMG20160325103011003/25/16 10:30:31  5-MIN KAMG 251530Z AUTO 22004KT 10SM OVC034 19/17 A2996 160 84 800 220/04 RMK AO2 T01940167
13870KAMG AMG20160325103511003/25/16 10:35:31  5-MIN KAMG 251535Z AUTO 22004KT 10SM OVC034 19/17 A2997 160 84 800 220/04 RMK AO2 T01940167
13870KAMG AMG20160325104011003/25/16 10:40:31  5-MIN KAMG 251540Z AUTO 20006KT 10SM OVC033 19/17 A2997 160 84 800 200/06 RMK AO2 T01940167
13870KAMG AMG20160325104511003/25/16 10:45:31  5-MIN KAMG 251545Z AUTO 20005KT 10SM OVC033 19/17 A2996 160 84 800 200/05 RMK AO2 T01940167
13870KAMG AMG20160325105011703/25/16 10:50:31  5-MIN KAMG 251550Z AUTO 21004KT 10SM BKN033 19/17 A2997 160 84 800 220/04 RMK AO2 SLP145 T01940167
13870KAMG AMG20160325105511703/25/16 10:55:31  5-MIN KAMG 251555Z AUTO 23005KT 10SM BKN031 BKN095 20/17 A2997 160 84 800 230/05 RMK AO2 T02000172
13870KAMG AMG20160325110012403/25/16 11:00:31  5-MIN KAMG 251600Z AUTO 21005KT 10SM SCT032 BKN065 BKN095 20/17 A2997 160 84 800 210/05 RMK AO2 T02000172
13870KAMG AMG20160325110512403/25/16 11:05:31  5-MIN KAMG 251605Z AUTO 21005KT 10SM FEW030 SCT050 BKN060 20/17 A2997 160 84 800 220/05 RMK AO2 T02000172
13870KAMG AMG20160325111012403/25/16 11:10:31  5-MIN KAMG 251610Z AUTO 22004KT 10SM FEW034 SCT050 BKN060 20/17 A2997 160 84 800 220/04 RMK AO2 T02000172
13870KAMG AMG20160325111512403/25/16 11:15:31  5-MIN KAMG 251615Z AUTO 17005KT 10SM SCT048 BKN060 BKN095 20/17 A2996 170 84 800 170/05 RMK AO2 T02000172
13870KAMG AMG20160325112012403/25/16 11:20:31  5-MIN KAMG 251620Z AUTO 17004KT 10SM BKN046 BKN060 OVC095 20/17 A2995 170 84 800 180/04 RMK AO2 T02000172
13870KAMG AMG20160325112511703/25/16 11:25:31  5-MIN KAMG 251625Z AUTO 19003KT 10SM BKN046 BKN060 20/17 A2995 170 84 800 190/03 RMK AO2 T02000172
13870KAMG AMG20160325113011703/25/16 11:30:31  5-MIN KAMG 251630Z AUTO 20004KT 10SM SCT046 BKN060 21/17 A2996 170 81 900 210/04 RMK AO2 T02060172
13870KAMG AMG20160325113512403/25/16 11:35:31  5-MIN KAMG 251635Z AUTO 20005KT 10SM FEW037 SCT046 BKN060 20/17 A2996 160 84 800 200/05 RMK AO2 T02000172
13870KAMG AMG20160325114012403/25/16 11:40:31  5-MIN KAMG 251640Z AUTO 21006KT 10SM SCT035 BKN046 BKN060 20/17 A2996 160 84 800 210/06 RMK AO2 T02000172
13870KAMG AMG20160325114512403/25/16 11:45:31  5-MIN KAMG 251645Z AUTO 23006KT 10SM BKN035 BKN046 OVC060 21/17 A2996 160 81 900 230/06 RMK AO2 T02060172
13870KAMG AMG20160325115013103/25/16 11:50:31  5-MIN KAMG 251650Z AUTO 21005KT 10SM FEW025 BKN035 BKN060 21/17 A2996 160 81 900 210/05 RMK AO2 SLP143 T02060172
13870KAMG AMG20160325115512403/25/16 11:55:31  5-MIN KAMG 251655Z AUTO 21004KT 10SM SCT025 BKN035 OVC060 21/17 A2996 170 81 900 220/04 RMK AO2 T02060172
13870KAMG AMG20160325120011703/25/16 12:00:31  5-MIN KAMG 251700Z AUTO 20004KT 10SM BKN027 OVC035 21/17 A2996 170 81 900 210/04 RMK AO2 T02060172
13870KAMG AMG20160325120511703/25/16 12:05:31  5-MIN KAMG 251705Z AUTO 16005KT 10SM BKN025 OVC037 21/18 A2995 170 84 900 170/05 RMK AO2 T02060178
13870KAMG AMG20160325121012403/25/16 12:10:31  5-MIN KAMG 251710Z AUTO 17003KT 10SM BKN025 BKN033 OVC040 21/18 A2996 170 84 900 180/03 RMK AO2 T02060178
13870KAMG AMG20160325121511003/25/16 12:15:31  5-MIN KAMG 251715Z AUTO 20004KT 10SM OVC023 21/18 A2996 160 84 900 210/04 RMK AO2 T02060178
13870KAMG AMG20160325122011703/25/16 12:20:31  5-MIN KAMG 251720Z AUTO 19007KT 10SM SCT019 OVC026 21/18 A2996 160 84 900 190/07 RMK AO2 T02060178
13870KAMG AMG20160325122511003/25/16 12:25:31  5-MIN KAMG 251725Z AUTO 19008KT 10SM BKN024 21/17 A2997 160 81 900 200/08 RMK AO2 T02060172
13870KAMG AMG20160325123011703/25/16 12:30:31  5-MIN KAMG 251730Z AUTO 21007KT 10SM BKN021 BKN026 21/17 A2997 160 81 900 210/07 RMK AO2 T02060172
13870KAMG AMG20160325123511703/25/16 12:35:31  5-MIN KAMG 251735Z AUTO 21006KT 10SM BKN023 BKN030 21/17 A2997 160 81 900 210/06 RMK AO2 T02060172
13870KAMG AMG20160325124011703/25/16 12:40:31  5-MIN KAMG 251740Z AUTO 21007KT 10SM SCT021 BKN030 21/17 A2996 160 81 900 220/07 RMK AO2 T02060172
13870KAMG AMG20160325124511703/25/16 12:45:31  5-MIN KAMG 251745Z AUTO 20005KT 10SM FEW021 BKN028 21/18 A2996 160 84 900 210/05 RMK AO2 T02060178
13870KAMG AMG20160325125014203/25/16 12:50:31  5-MIN KAMG 251750Z AUTO 21008KT 10SM FEW021 BKN028 21/18 A2997 160 84 900 220/08 RMK AO2 SLP145 T02060178 10206 20156 50014
13870KAMG AMG20160325125511703/25/16 12:55:31  5-MIN KAMG 251755Z AUTO 20008KT 10SM FEW021 SCT028 21/18 A2996 170 84 900 200/08 RMK AO2 T02060178
13870KAMG AMG20160325130011703/25/16 13:00:31  5-MIN KAMG 251800Z AUTO 21005KT 10SM FEW021 SCT028 21/18 A2996 170 84 900 220/05 RMK AO2 T02060178
13870KAMG AMG20160325130512403/25/16 13:05:31  5-MIN KAMG 251805Z AUTO 18008KT 10SM FEW021 SCT028 BKN120 21/18 A2995 180 84 900 190/08 RMK AO2 T02060178
13870KAMG AMG20160325131011703/25/16 13:10:31  5-MIN KAMG 251810Z AUTO 18009KT 10SM FEW028 BKN120 21/18 A2994 180 84 900 180/09 RMK AO2 T02060178
13870KAMG AMG20160325131512403/25/16 13:15:31  5-MIN KAMG 251815Z AUTO 22006KT 10SM FEW019 SCT090 BKN120 21/18 A2995 170 84 900 230/06 RMK AO2 T02060178
13870KAMG AMG20160325132011703/25/16 13:20:31  5-MIN KAMG 251820Z AUTO 23006KT 10SM FEW085 BKN110 21/18 A2995 180 84 900 230/06 RMK AO2 T02060178
13870KAMG AMG20160325132512403/25/16 13:25:31  5-MIN KAMG 251825Z AUTO 26006KT 10SM FEW021 SCT080 BKN110 21/18 A2995 170 84 900 270/06 RMK AO2 T02060178
13870KAMG AMG20160325133014003/25/16 13:30:31  5-MIN KAMG 251830Z AUTO 26006KT 10SM -RA SCT021 BKN080 OVC110 21/18 A2995 180 84 900 260/06 RMK AO2 RAB26 P0000 T02060178
13870KAMG AMG20160325133513903/25/16 13:35:31  5-MIN KAMG 251835Z AUTO 24007KT 10SM BKN019 BKN036 OVC110 21/18 A2995 180 84 900 240/07 RMK AO2 RAB26E35 P0000 T02060178
13870KAMG AMG20160325134013903/25/16 13:40:31  5-MIN KAMG 251840Z AUTO 24007KT 10SM BKN019 BKN075 OVC110 21/18 A2995 170 84 900 250/07 RMK AO2 RAB26E35 P0000 T02060178
13870KAMG AMG20160325134513203/25/16 13:45:31  5-MIN KAMG 251845Z AUTO 26007KT 10SM BKN020 OVC110 21/18 A2995 170 84 900 260/07 RMK AO2 RAB26E35 P0000 T02060178
13870KAMG AMG20160325135013903/25/16 13:50:31  5-MIN KAMG 251850Z AUTO 25007KT 10SM BKN018 OVC023 20/18 A2995 170 87 800 260/07 RMK AO2 RAB26E35 SLP140 P0000 T02000178
13870KAMG AMG20160325135511703/25/16 13:55:31  5-MIN KAMG 251855Z AUTO 24007KT 10SM BKN018 OVC023 20/18 A2995 180 87 800 240/07 RMK AO2 T02000178
13870KAMG AMG20160325140013503/25/16 14:00:31  5-MIN KAMG 251900Z AUTO 26007KT 10SM -RA FEW015 OVC020 20/18 A2994 180 87 800 260/07 RMK AO2 RAB1859 P0000 T02000178
13870KAMG AMG20160325140514103/25/16 14:05:31  5-MIN KAMG 251905Z AUTO 23009KT 9SM -RA BKN018 BKN025 OVC110 20/18 A2994 190 87 900 240/09 RMK AO2 RAB1859 P0000 T02000178
13870KAMG AMG20160325141014103/25/16 14:10:31  5-MIN KAMG 251910Z AUTO 22007KT 8SM -RA BKN018 BKN110 19/18 A2993 200 90 800 230/07 RMK AO2 RAB1859 PRESFR P0000 T01940178
13870KAMG AMG20160325141514103/25/16 14:15:31  5-MIN KAMG 251915Z AUTO 24008KT 7SM -RA SCT018 BKN080 OVC110 19/18 A2994 190 90 800 240/08 RMK AO2 RAB1859 P0001 T01940178
13870KAMG AMG20160325142014403/25/16 14:20:31  5-MIN KAMG 251920Z AUTO 24007KT 5SM -RA BR SCT014 BKN049 OVC110 19/18 A2994 190 90 800 240/07 RMK AO2 RAB1859 P0002 T01940178
13870KAMG AMG20160325142514303/25/16 14:25:31  5-MIN KAMG 251925Z AUTO 24010KT 3SM RA BR BKN014 BKN080 OVC110 19/18 A2994 190 93 700 240/10 RMK AO2 RAB1859 P0003 T01890178
13870KAMG AMG20160325143014703/25/16 14:30:31  5-MIN KAMG 251930Z AUTO 22007KT 2 1/2SM RA BR SCT014 BKN080 OVC110 19/18 A2992 200 97 700 220/07 RMK AO2 RAB1859 P0004 T01890183
13870KAMG AMG20160325143514303/25/16 14:35:31  5-MIN KAMG 251935Z AUTO 27007KT 3SM RA BR SCT014 BKN080 OVC100 19/18 A2993 190 97 700 270/07 RMK AO2 RAB1859 P0005 T01890183
13870KAMG AMG20160325144014403/25/16 14:40:31  5-MIN KAMG 251940Z AUTO 28006KT 4SM -RA BR BKN012 BKN047 OVC100 19/18 A2994 190 97 700 280/06 RMK AO2 RAB1859 P0006 T01890183
13870KAMG AMG20160325144514403/25/16 14:45:31  5-MIN KAMG 251945Z AUTO 27006KT 6SM -RA BR BKN010 BKN070 OVC095 19/18 A2994 180 97 700 280/06 RMK AO2 RAB1859 P0006 T01890183
13870KAMG AMG20160325145014803/25/16 14:50:31  5-MIN KAMG 251950Z AUTO 26006KT 7SM -RA BKN010 BKN070 OVC095 19/18 A2994 180 97 700 270/06 RMK AO2 RAB1859 SLP136 P0006 T01890183
13870KAMG AMG20160325145513603/25/16 14:55:31  5-MIN KAMG 251955Z AUTO 26007KT 10SM BKN012 BKN080 OVC100 19/18 A2993 190 97 700 260/07 RMK AO2 RAE55 P0000 T01890183
13870KAMG AMG20160325150015003/25/16 15:00:31  5-MIN KAMG 252000Z AUTO 24006KT 10SM BKN010 BKN014 OVC095 19/18 A2993 190 97 700 240/06 RMK AO2 RAE1955 CIG 007V013 P0000 T01890183
13870KAMG AMG20160325150515003/25/16 15:05:31  5-MIN KAMG 252005Z AUTO 25008KT 10SM BKN010 BKN014 OVC120 19/18 A2993 190 97 700 250/08 RMK AO2 RAE1955 CIG 007V012 P0000 T01890183
13870KAMG AMG20160325151015003/25/16 15:10:31  5-MIN KAMG 252010Z AUTO 25006KT 10SM BKN010 BKN014 OVC110 19/18 A2993 190 97 700 260/06 RMK AO2 RAE1955 CIG 008V012 P0000 T01890183
13870KAMG AMG20160325151514303/25/16 15:15:31  5-MIN KAMG 252015Z AUTO 26005KT 10SM BKN010 BKN014 19/18 A2993 190 97 700 260/05 RMK AO2 RAE1955 CIG 007V012 P0000 T01890183
13870KAMG AMG20160325152014303/25/16 15:20:31  5-MIN KAMG 252020Z AUTO 26005KT 10SM BKN010 BKN014 19/18 A2993 190 93 800 260/05 RMK AO2 RAE1955 CIG 006V012 P0000 T01940183
13870KAMG AMG20160325152513103/25/16 15:25:31  5-MIN KAMG 252025Z AUTO 22005KT 10SM BKN012 BKN120 19/18 A2992 200 93 800 230/05 RMK AO2 RAE1955 P0000 T01940183
13870KAMG AMG20160325153014503/25/16 15:30:31  5-MIN KAMG 252030Z AUTO 19006KT 10SM SCT010 SCT080 BKN110 19/18 A2991 210 97 800 190/06 RMK AO2 RAE1955 PRESFR P0000 T01890183
13870KAMG AMG20160325153513803/25/16 15:35:31  5-MIN KAMG 252035Z AUTO 20007KT 10SM FEW010 SCT080 BKN110 19/18 A2991 210 97 800 210/07 RMK AO2 RAE1955 P0000 T01890183
13870KAMG AMG20160325154013803/25/16 15:40:31  5-MIN KAMG 252040Z AUTO 20006KT 10SM FEW008 FEW075 BKN110 19/18 A2991 210 97 800 200/06 RMK AO2 RAE1955 P0000 T01890183
13870KAMG AMG20160325154512403/25/16 15:45:31  5-MIN KAMG 252045Z AUTO 22006KT 10SM BKN110 19/18 A2992 200 97 700 230/06 RMK AO2 RAE1955 P0000 T01890183
13870KAMG AMG20160325155014303/25/16 15:50:31  5-MIN KAMG 252050Z AUTO 22006KT 10SM BKN110 19/18 A2992 200 97 700 230/06 RMK AO2 RAE1955 SLP131 P0000 60006 T01890183 51006
13870KAMG AMG20160325155511003/25/16 15:55:31  5-MIN KAMG 252055Z AUTO 22007KT 10SM BKN110 19/18 A2992 200 97 700 220/07 RMK AO2 T01890183
13870KAMG AMG20160325160012703/25/16 16:00:31  5-MIN KAMG 252100Z AUTO 21009KT 8SM -RA OVC110 19/18 A2992 200 97 700 210/09 RMK AO2 RAB2057 P0000 T01890183
13870KAMG AMG20160325160512703/25/16 16:05:31  5-MIN KAMG 252105Z AUTO 21007KT 7SM -RA OVC110 19/18 A2993 200 97 700 220/07 RMK AO2 RAB2057 P0000 T01890183
13870KAMG AMG20160325161013003/25/16 16:10:31  5-MIN KAMG 252110Z AUTO 22006KT 5SM -RA BR OVC110 19/18 A2993 190 97 700 230/06 RMK AO2 RAB2057 P0001 T01890183
13870KAMG AMG20160325161513003/25/16 16:15:31  5-MIN KAMG 252115Z AUTO 22007KT 4SM -RA BR OVC110 19/18 A2994 190 97 700 230/07 RMK AO2 RAB2057 P0002 T01890183
13870KAMG AMG20160325162013003/25/16 16:20:31  5-MIN KAMG 252120Z AUTO 23008KT 4SM -RA BR OVC110 19/18 A2994 190 93 700 230/08 RMK AO2 RAB2057 P0003 T01890178
13870KAMG AMG20160325162513003/25/16 16:25:31  5-MIN KAMG 252125Z AUTO 23008KT 4SM -RA BR OVC110 19/18 A2994 180 93 700 230/08 RMK AO2 RAB2057 P0004 T01890178
13870KAMG AMG20160325163013003/25/16 16:30:31  5-MIN KAMG 252130Z AUTO 25008KT 5SM -RA BR OVC110 19/18 A2995 180 93 700 260/08 RMK AO2 RAB2057 P0004 T01890178
13870KAMG AMG20160325163513003/25/16 16:35:31  5-MIN KAMG 252135Z AUTO 26007KT 5SM -RA BR OVC110 19/18 A2995 180 93 700 260/07 RMK AO2 RAB2057 P0005 T01890178
13870KAMG AMG20160325164013003/25/16 16:40:31  5-MIN KAMG 252140Z AUTO 24009KT 6SM -RA BR OVC110 19/18 A2995 180 93 700 250/09 RMK AO2 RAB2057 P0005 T01890178
13870KAMG AMG20160325164513003/25/16 16:45:31  5-MIN KAMG 252145Z AUTO 23009KT 6SM -RA BR OVC100 19/18 A2994 180 93 700 230/09 RMK AO2 RAB2057 P0006 T01890178
13870KAMG AMG20160325165013703/25/16 16:50:31  5-MIN KAMG 252150Z AUTO 21009KT 6SM -RA BR OVC100 19/18 A2993 190 97 700 220/09 RMK AO2 RAB2057 SLP134 P0006 T01890183
13870KAMG AMG20160325165513203/25/16 16:55:31  5-MIN KAMG 252155Z AUTO 20012G17KT 8SM -RA OVC100 19/18 A2993 200 97 700 200/12G17 RMK AO2 PRESFR P0000 T01890183
13870KAMG AMG20160325170012203/25/16 17:00:31  5-MIN KAMG 252200Z AUTO 19013KT 10SM OVC100 19/18 A2992 200 97 700 200/13 RMK AO2 RAE00 P0000 T01890183
13870KAMG AMG20160325170512203/25/16 17:05:31  5-MIN KAMG 252205Z AUTO 20014KT 10SM OVC110 19/18 A2993 200 97 700 200/14 RMK AO2 RAE00 P0000 T01890183
13870KAMG AMG20160325171012203/25/16 17:10:31  5-MIN KAMG 252210Z AUTO 21010KT 10SM OVC110 19/18 A2993 190 97 700 220/10 RMK AO2 RAE00 P0000 T01890183
13870KAMG AMG20160325171513503/25/16 17:15:31  5-MIN KAMG 252215Z AUTO 26010G17KT 10SM OVC110 19/18 A2995 170 97 700 260/10G17 RMK AO2 RAE00 PRESRR P0000 T01890183
13870KAMG AMG20160325172012803/25/16 17:20:31  5-MIN KAMG 252220Z AUTO 24008G15KT 10SM BKN110 19/18 A2995 180 97 700 250/08G15 RMK AO2 RAE00 P0000 T01890183
13870KAMG AMG20160325172512803/25/16 17:25:31  5-MIN KAMG 252225Z AUTO 25004KT 8SM -RA OVC110 19/18 A2995 170 97 700 260/04 RMK AO2 RAE00B22 P0000 T01890183
13870KAMG AMG20160325173012803/25/16 17:30:31  5-MIN KAMG 252230Z AUTO 28008KT 7SM -RA BKN110 19/18 A2996 160 97 700 290/08 RMK AO2 RAE00B22 P0000 T01890183
13870KAMG AMG20160325173513503/25/16 17:35:31  5-MIN KAMG 252235Z AUTO 26008KT 8SM -RA BKN110 19/18 A2997 150 97 700 260/08 RMK AO2 RAE00B22 PRESRR P0000 T01890183
13870KAMG AMG20160325174012803/25/16 17:40:31  5-MIN KAMG 252240Z AUTO 26005KT 9SM -RA OVC110 19/18 A2997 150 97 700 260/05 RMK AO2 RAE00B22 P0000 T01890183
13870KAMG AMG20160325174513103/25/16 17:45:31  5-MIN KAMG 252245Z AUTO 23006KT 5SM -RA BR OVC110 19/18 A2998 150 97 700 230/06 RMK AO2 RAE00B22 P0001 T01890183
13870KAMG AMG20160325175015103/25/16 17:50:31  5-MIN KAMG 252250Z AUTO 20007KT 3SM RA BR FEW055 BKN095 OVC110 19/18 A2997 150 97 700 200/07 RMK AO2 RAE00B22 SLP148 P0003 T01890183
13870KAMG AMG20160325175513603/25/16 17:55:31  5-MIN KAMG 252255Z AUTO 19010KT 3SM -RA BR FEW055 SCT090 OVC110 19/18 A2998 150 97 700 200/10 RMK AO2 P0000 T01890183
13870KAMG AMG20160325180013603/25/16 18:00:31  5-MIN KAMG 252300Z AUTO 18010KT 3SM -RA BR FEW065 BKN090 OVC110 19/18 A2998 150 97 700 190/10 RMK AO2 P0001 T01890183
13870KAMG AMG20160325180512903/25/16 18:05:31  5-MIN KAMG 252305Z AUTO 28006KT 4SM -RA BR FEW080 OVC100 19/18 A2998 140 93 700 280/06 RMK AO2 P0001 T01890178
13870KAMG AMG20160325181012903/25/16 18:10:31  5-MIN KAMG 252310Z AUTO 27005KT 5SM -RA BR FEW080 OVC100 18/18 A2999 140 96 600 280/05 RMK AO2 P0002 T01830178
13870KAMG AMG20160325181512903/25/16 18:15:31  5-MIN KAMG 252315Z AUTO 00000KT 4SM -RA BR BKN090 OVC110 18/18 A2998 150 96 600 000/00 RMK AO2 P0002 T01830178
13870KAMG AMG20160325182013003/25/16 18:20:31  5-MIN KAMG 252320Z AUTO 23003KT 4SM -RA BR BKN090 OVC110 18/18 A2998 150 100 600 230/03 RMK AO2 P0003 T01830183
13870KAMG AMG20160325182512903/25/16 18:25:31  5-MIN KAMG 252325Z AUTO 25003KT 5SM -RA BR SCT090 OVC110 18/18 A2998 150 96 600 250/03 RMK AO2 P0003 T01830178
13870KAMG AMG20160325183012903/25/16 18:30:31  5-MIN KAMG 252330Z AUTO 23003KT 4SM -RA BR SCT090 OVC110 18/18 A2998 150 96 600 240/03 RMK AO2 P0004 T01830178
13870KAMG AMG20160325183512303/25/16 18:35:31  5-MIN KAMG 252335Z AUTO 16004KT 3SM -RA BR OVC100 18/18 A2997 160 100 600 170/04 RMK AO2 P0005 T01830183
13870KAMG AMG20160325184012303/25/16 18:40:31  5-MIN KAMG 252340Z AUTO 16004KT 5SM -RA BR BKN110 18/18 A2996 160 100 600 160/04 RMK AO2 P0006 T01830183
13870KAMG AMG20160325184512003/25/16 18:45:31  5-MIN KAMG 252345Z AUTO 17005KT 8SM -RA OVC110 18/18 A2996 170 100 600 170/05 RMK AO2 P0006 T01830183
13870KAMG AMG20160325185015403/25/16 18:50:31  5-MIN KAMG 252350Z AUTO 17005KT 10SM OVC110 18/18 A2995 170 100 600 170/05 RMK AO2 RAE49 SLP141 P0006 60021 T01830183 10206 20183 56014
13870KAMG AMG20160325185511803/25/16 18:55:31  5-MIN KAMG 252355Z AUTO 16007KT 10SM FEW090 OVC110 18/18 A2995 170 100 600 160/07 RMK AO2 T01830183
13870KAMG AMG20160325190011803/25/16 19:00:31  5-MIN KAMG 260000Z AUTO 17007KT 10SM SCT100 OVC120 18/18 A2995 180 100 600 170/07 RMK AO2 T01830183
13870KAMG AMG20160325190511103/25/16 19:05:31  5-MIN KAMG 260005Z AUTO 17008KT 10SM BKN110 18/18 A2995 180 100 600 170/08 RMK AO2 T01830183
13870KAMG AMG20160325191011803/25/16 19:10:31  5-MIN KAMG 260010Z AUTO 16007KT 10SM FEW095 OVC110 18/18 A2995 180 100 700 170/07 RMK AO2 T01830183
13870KAMG AMG20160325191511803/25/16 19:15:31  5-MIN KAMG 260015Z AUTO 16005KT 10SM BKN100 OVC110 18/18 A2995 180 100 600 160/05 RMK AO2 T01830183
13870KAMG AMG20160325192011803/25/16 19:20:31  5-MIN KAMG 260020Z AUTO 18005KT 10SM BKN100 OVC110 18/18 A2995 170 100 600 190/05 RMK AO2 T01830183
13870KAMG AMG20160325192511103/25/16 19:25:31  5-MIN KAMG 260025Z AUTO 24006KT 10SM OVC100 18/18 A2996 160 100 600 250/06 RMK AO2 T01830183
13870KAMG AMG20160325193011703/25/16 19:30:31  5-MIN KAMG 260030Z AUTO 25006KT 10SM OVC100 18/18 A2997 160 96 600 250/06 RMK AO2 PRESRR T01830178
13870KAMG AMG20160325193511003/25/16 19:35:31  5-MIN KAMG 260035Z AUTO 26006KT 10SM OVC095 18/18 A2997 150 96 600 270/06 RMK AO2 T01830178
13870KAMG AMG20160325194011003/25/16 19:40:31  5-MIN KAMG 260040Z AUTO 27006KT 10SM OVC100 18/18 A2998 150 96 600 270/06 RMK AO2 T01830178
13870KAMG AMG20160325194511703/25/16 19:45:31  5-MIN KAMG 260045Z AUTO 27005KT 10SM OVC095 18/18 A2999 140 96 600 270/05 RMK AO2 PRESRR T01830178
13870KAMG AMG20160325195011703/25/16 19:50:31  5-MIN KAMG 260050Z AUTO 27005KT 10SM OVC095 18/18 A2999 140 96 600 280/05 RMK AO2 SLP153 T01830178
13870KAMG AMG20160325195511003/25/16 19:55:31  5-MIN KAMG 260055Z AUTO 28005KT 10SM OVC095 18/18 A2999 140 96 600 290/05 RMK AO2 T01830178
13870KAMG AMG20160325200011003/25/16 20:00:31  5-MIN KAMG 260100Z AUTO 27004KT 10SM OVC090 18/18 A2999 140 96 600 270/04 RMK AO2 T01830178
13870KAMG AMG20160325200511003/25/16 20:05:31  5-MIN KAMG 260105Z AUTO 29004KT 10SM OVC090 18/18 A2999 140 96 600 300/04 RMK AO2 T01830178
13870KAMG AMG20160325201011003/25/16 20:10:31  5-MIN KAMG 260110Z AUTO 30006KT 10SM OVC090 18/18 A2999 140 96 600 300/06 RMK AO2 T01830178
13870KAMG AMG20160325201511003/25/16 20:15:31  5-MIN KAMG 260115Z AUTO 29006KT 10SM OVC090 18/18 A2999 140 96 600 300/06 RMK AO2 T01830178
13870KAMG AMG20160325202011003/25/16 20:20:31  5-MIN KAMG 260120Z AUTO 30005KT 10SM OVC085 18/18 A2999 140 96 600 300/05 RMK AO2 T01830178
13870KAMG AMG20160325202512103/25/16 20:25:31  5-MIN KAMG 260125Z AUTO 28005KT 10SM OVC085 18/18 A2999 130 96 600 290/05 RMK AO2 LTG DSNT S T01830178
13870KAMG AMG20160325203012103/25/16 20:30:31  5-MIN KAMG 260130Z AUTO 29005KT 10SM OVC085 18/18 A3000 130 96 600 300/05 RMK AO2 LTG DSNT S T01830178
13870KAMG AMG20160325203512103/25/16 20:35:31  5-MIN KAMG 260135Z AUTO 28004KT 10SM OVC080 18/18 A3000 130 96 600 290/04 RMK AO2 LTG DSNT S T01830178
13870KAMG AMG20160325204012103/25/16 20:40:31  5-MIN KAMG 260140Z AUTO 29003KT 10SM OVC080 18/18 A2999 130 96 600 300/03 RMK AO2 LTG DSNT S T01830178
13870KAMG AMG20160325204511003/25/16 20:45:31  5-MIN KAMG 260145Z AUTO 29003KT 10SM OVC080 18/18 A2999 140 96 600 300/03 RMK AO2 T01830178
13870KAMG AMG20160325205011703/25/16 20:50:31  5-MIN KAMG 260150Z AUTO 27003KT 10SM OVC080 18/18 A3000 130 96 600 280/03 RMK AO2 SLP156 T01830178
13870KAMG AMG20160325205511003/25/16 20:55:31  5-MIN KAMG 260155Z AUTO 00000KT 10SM OVC075 18/18 A3000 130 96 600 000/00 RMK AO2 T01830178
13870KAMG AMG20160325210011003/25/16 21:00:31  5-MIN KAMG 260200Z AUTO 00000KT 10SM OVC075 18/17 A3000 130 93 600 000/00 RMK AO2 T01830172
13870KAMG AMG20160325210511003/25/16 21:05:31  5-MIN KAMG 260205Z AUTO 00000KT 10SM OVC080 18/17 A2999 130 96 500 000/00 RMK AO2 T01780172
13870KAMG AMG20160325211012203/25/16 21:10:31  5-MIN KAMG 260210Z AUTO 15004KT 10SM BKN075 18/17 A2999 130 96 500 160/04 RMK AO2 LTG DSNT SE T01780172
13870KAMG AMG20160325211512203/25/16 21:15:31  5-MIN KAMG 260215Z AUTO 16006KT 10SM BKN075 18/17 A3000 130 96 500 160/06 RMK AO2 LTG DSNT SE T01780172
13870KAMG AMG20160325212012303/25/16 21:20:31  5-MIN KAMG 260220Z AUTO 17005KT 10SM BKN075 18/18 A3000 130 100 500 170/05 RMK AO2 LTG DSNT SE T01780178
13870KAMG AMG20160325212512303/25/16 21:25:31  5-MIN KAMG 260225Z AUTO 16004KT 10SM BKN070 18/18 A3000 130 100 500 160/04 RMK AO2 LTG DSNT SE T01780178
13870KAMG AMG20160325213011103/25/16 21:30:31  5-MIN KAMG 260230Z AUTO 00000KT 10SM BKN070 18/18 A3000 130 100 500 000/00 RMK AO2 T01780178
13870KAMG AMG20160325213511103/25/16 21:35:31  5-MIN KAMG 260235Z AUTO 00000KT 10SM BKN070 18/18 A3000 130 100 500 000/00 RMK AO2 T01780178
13870KAMG AMG20160325214012303/25/16 21:40:31  5-MIN KAMG 260240Z AUTO 00000KT 10SM BKN065 18/18 A3000 130 100 500 000/00 RMK AO2 LTG DSNT SE T01780178
13870KAMG AMG20160325214512203/25/16 21:45:31  5-MIN KAMG 260245Z AUTO 16005KT 10SM OVC065 18/17 A3001 120 96 500 170/05 RMK AO2 LTG DSNT SE T01780172
13870KAMG AMG20160325215013503/25/16 21:50:31  5-MIN KAMG 260250Z AUTO 00000KT 10SM OVC060 18/17 A3001 120 96 500 000/00 RMK AO2 LTG DSNT SE SLP159 T01780172 50010
13870KAMG AMG20160325215511803/25/16 21:55:31  5-MIN KAMG 260255Z AUTO 17004KT 10SM BKN060 OVC070 18/18 A3001 120 100 500 180/04 RMK AO2 T01780178
13870KAMG AMG20160325220011103/25/16 22:00:31  5-MIN KAMG 260300Z AUTO 17004KT 10SM OVC060 18/18 A3000 130 100 500 180/04 RMK AO2 T01780178
13870KAMG AMG20160325220511103/25/16 22:05:31  5-MIN KAMG 260305Z AUTO 18004KT 10SM OVC055 18/18 A3000 130 100 500 190/04 RMK AO2 T01780178
13870KAMG AMG20160325221011803/25/16 22:10:31  5-MIN KAMG 260310Z AUTO 15005KT 10SM BKN055 OVC070 18/18 A2999 140 100 500 150/05 RMK AO2 T01780178
13870KAMG AMG20160325221511803/25/16 22:15:31  5-MIN KAMG 260315Z AUTO 16006KT 10SM BKN055 BKN070 18/18 A2999 140 100 500 170/06 RMK AO2 T01780178
13870KAMG AMG20160325222011103/25/16 22:20:31  5-MIN KAMG 260320Z AUTO 17006KT 10SM BKN050 18/18 A2999 140 100 500 170/06 RMK AO2 T01780178
13870KAMG AMG20160325222511103/25/16 22:25:31  5-MIN KAMG 260325Z AUTO 16004KT 10SM BKN050 18/18 A2999 130 100 500 170/04 RMK AO2 T01780178
13870KAMG AMG20160325223011103/25/16 22:30:31  5-MIN KAMG 260330Z AUTO 15004KT 10SM BKN050 18/18 A2999 130 100 500 160/04 RMK AO2 T01780178
13870KAMG AMG20160325223511103/25/16 22:35:31  5-MIN KAMG 260335Z AUTO 17004KT 10SM BKN050 18/18 A3000 130 100 500 170/04 RMK AO2 T01780178
13870KAMG AMG20160325224011103/25/16 22:40:31  5-MIN KAMG 260340Z AUTO 18004KT 10SM BKN050 18/18 A3000 130 100 500 190/04 RMK AO2 T01780178
13870KAMG AMG20160325224511103/25/16 22:45:31  5-MIN KAMG 260345Z AUTO 18004KT 10SM BKN050 18/18 A3000 130 100 500 190/04 RMK AO2 T01780178
13870KAMG AMG20160325225011803/25/16 22:50:31  5-MIN KAMG 260350Z AUTO 19003KT 10SM BKN050 18/18 A3001 120 100 500 190/03 RMK AO2 SLP159 T01780178
13870KAMG AMG20160325225511103/25/16 22:55:31  5-MIN KAMG 260355Z AUTO 20004KT 10SM OVC050 18/18 A3001 120 100 500 200/04 RMK AO2 T01780178
13870KAMG AMG20160325230011103/25/16 23:00:31  5-MIN KAMG 260400Z AUTO 19003KT 10SM OVC050 18/18 A3001 120 100 500 190/03 RMK AO2 T01780178
13870KAMG AMG20160325230511103/25/16 23:05:31  5-MIN KAMG 260405Z AUTO 19003KT 10SM OVC048 18/18 A3001 120 100 500 200/03 RMK AO2 T01780178
13870KAMG AMG20160325231011103/25/16 23:10:31  5-MIN KAMG 260410Z AUTO 18003KT 10SM OVC048 18/18 A3001 120 100 500 180/03 RMK AO2 T01780178
13870KAMG AMG20160325231511103/25/16 23:15:31  5-MIN KAMG 260415Z AUTO 18004KT 10SM OVC048 18/18 A3001 120 100 500 180/04 RMK AO2 T01780178
13870KAMG AMG20160325232011103/25/16 23:20:31  5-MIN KAMG 260420Z AUTO 17003KT 10SM OVC046 18/18 A3001 120 100 500 170/03 RMK AO2 T01780178
13870KAMG AMG20160325232511103/25/16 23:25:31  5-MIN KAMG 260425Z AUTO 00000KT 10SM OVC046 18/18 A3001 120 100 500 000/00 RMK AO2 T01780178
13870KAMG AMG20160325233011003/25/16 23:30:31  5-MIN KAMG 260430Z AUTO 21003KT 10SM OVC046 18/18 A3002 110 96 600 210/03 RMK AO2 T01830178
13870KAMG AMG20160325233511103/25/16 23:35:31  5-MIN KAMG 260435Z AUTO 19003KT 10SM OVC045 18/18 A3002 110 100 500 200/03 RMK AO2 T01780178
13870KAMG AMG20160325234011003/25/16 23:40:31  5-MIN KAMG 260440Z AUTO 00000KT 10SM OVC045 18/18 A3002 110 96 600 000/00 RMK AO2 T01830178
13870KAMG AMG20160325234511003/25/16 23:45:31  5-MIN KAMG 260445Z AUTO 00000KT 10SM OVC045 18/18 A3002 110 96 600 000/00 RMK AO2 T01830178
13870KAMG AMG20160325235012803/25/16 23:50:31  5-MIN KAMG 260450Z AUTO 00000KT 10SM OVC046 18/18 A3001 120 100 500 000/00 RMK AO2 SLP161 T01780178 402060144
13870KAMG AMG20160325235511103/25/16 23:55:31  5-MIN KAMG 260455Z AUTO 00000KT 10SM OVC046 18/18 A3002 110 100 500 000/00 RMK AO2 T01780178
13870KAMG AMG20160326000011103/26/16 00:00:31  5-MIN KAMG 260500Z AUTO 00000KT 10SM OVC046 18/18 A3002 110 100 500 000/00 RMK AO2 T01780178
13870KAMG AMG20160326000511003/26/16 00:05:31  5-MIN KAMG 260505Z AUTO 35003KT 10SM OVC046 18/17 A3002 110 96 500 360/03 RMK AO2 T01780172
13870KAMG AMG20160326001011003/26/16 00:10:31  5-MIN KAMG 260510Z AUTO 33003KT 10SM OVC046 18/17 A3003 100 96 500 340/03 RMK AO2 T01780172
13870KAMG AMG20160326001511103/26/16 00:15:31  5-MIN KAMG 260515Z AUTO 34003KT 10SM OVC044 18/18 A3003 100 100 500 350/03 RMK AO2 T01780178
13870KAMG AMG20160326002011103/26/16 00:20:31  5-MIN KAMG 260520Z AUTO 00000KT 10SM OVC042 18/18 A3003 100 100 500 000/00 RMK AO2 T01780178
13870KAMG AMG20160326002511803/26/16 00:25:31  5-MIN KAMG 260525Z AUTO 00000KT 10SM BKN042 OVC060 18/18 A3002 110 100 500 000/00 RMK AO2 T01780178
13870KAMG AMG20160326003011803/26/16 00:30:31  5-MIN KAMG 260530Z AUTO 13004KT 10SM BKN042 OVC055 18/18 A3002 110 100 500 140/04 RMK AO2 T01780178
13870KAMG AMG20160326003511803/26/16 00:35:31  5-MIN KAMG 260535Z AUTO 00000KT 10SM SCT042 OVC055 18/18 A3003 100 100 500 000/00 RMK AO2 T01780178
13870KAMG AMG20160326004012503/26/16 00:40:31  5-MIN KAMG 260540Z AUTO 00000KT 10SM BKN042 BKN050 OVC060 18/18 A3003 100 100 500 000/00 RMK AO2 T01780178
13870KAMG AMG20160326004512503/26/16 00:45:31  5-MIN KAMG 260545Z AUTO 00000KT 10SM BKN042 BKN050 OVC060 18/18 A3002 110 100 500 000/00 RMK AO2 T01780178
13870KAMG AMG20160326005015003/26/16 00:50:31  5-MIN KAMG 260550Z AUTO 00000KT 10SM BKN042 BKN050 OVC060 18/18 A3003 110 100 500 000/00 RMK AO2 SLP165 T01780178 10183 20178 51019
13870KAMG AMG20160326005512503/26/16 00:55:31  5-MIN KAMG 260555Z AUTO 00000KT 10SM BKN042 BKN050 OVC060 18/18 A3002 110 100 500 000/00 RMK AO2 T01780178
13870KAMG AMG20160326010011803/26/16 01:00:31  5-MIN KAMG 260600Z AUTO 00000KT 10SM BKN042 OVC060 18/18 A3002 110 100 500 000/00 RMK AO2 T01780178
13870KAMG AMG20160326010511103/26/16 01:05:31  5-MIN KAMG 260605Z AUTO 00000KT 10SM OVC042 18/18 A3002 110 100 500 000/00 RMK AO2 T01780178
13870KAMG AMG20160326011011003/26/16 01:10:31  5-MIN KAMG 260610Z AUTO 00000KT 9SM OVC042 18/18 A3001 120 100 500 000/00 RMK AO2 T01780178
13870KAMG AMG20160326011511703/26/16 01:15:31  5-MIN KAMG 260615Z AUTO 07003KT 8SM BKN042 OVC050 18/18 A3001 120 100 500 070/03 RMK AO2 T01780178
13870KAMG AMG20160326012011603/26/16 01:20:31  5-MIN KAMG 260620Z AUTO 00000KT 7SM BKN043 OVC055 18/17 A3001 120 96 500 000/00 RMK AO2 T01780172
13870KAMG AMG20160326012512403/26/16 01:25:31  5-MIN KAMG 260625Z AUTO 00000KT 8SM SCT039 BKN046 BKN055 18/18 A3002 110 100 500 000/00 RMK AO2 T01780178
13870KAMG AMG20160326013012503/26/16 01:30:31  5-MIN KAMG 260630Z AUTO 00000KT 10SM BKN039 BKN046 OVC055 18/18 A3002 110 100 500 000/00 RMK AO2 T01780178
13870KAMG AMG20160326013511703/26/16 01:35:31  5-MIN KAMG 260635Z AUTO 00000KT 9SM SCT039 BKN050 18/18 A3002 110 100 500 000/00 RMK AO2 T01780178
13870KAMG AMG20160326014011703/26/16 01:40:31  5-MIN KAMG 260640Z AUTO 00000KT 7SM SCT039 BKN055 17/17 A3002 110 100 400 000/00 RMK AO2 T01720172
13870KAMG AMG20160326014512703/26/16 01:45:31  5-MIN KAMG 260645Z AUTO 00000KT 6SM BR SCT039 BKN050 BKN055 17/17 A3002 110 100 400 000/00 RMK AO2 T01720172
13870KAMG AMG20160326015013003/26/16 01:50:31  5-MIN KAMG 260650Z AUTO 00000KT 7SM BKN041 BKN050 OVC060 18/17 A3003 110 96 500 000/00 RMK AO2 SLP165 T01780172
13870KAMG AMG20160326015512303/26/16 01:55:31  5-MIN KAMG 260655Z AUTO 00000KT 8SM SCT041 BKN050 OVC060 18/17 A3002 110 96 500 000/00 RMK AO2 T01780172
13870KAMG AMG20160326020011703/26/16 02:00:31  5-MIN KAMG 260700Z AUTO 00000KT 8SM BKN045 OVC060 17/17 A3003 100 100 400 000/00 RMK AO2 T01720172
13870KAMG AMG20160326020512303/26/16 02:05:31  5-MIN KAMG 260705Z AUTO 00000KT 9SM BKN042 BKN050 OVC060 18/17 A3003 100 96 500 000/00 RMK AO2 T01780172
13870KAMG AMG20160326021011603/26/16 02:10:31  5-MIN KAMG 260710Z AUTO 10003KT 9SM BKN038 OVC047 18/17 A3003 100 96 500 100/03 RMK AO2 T01780172
13870KAMG AMG20160326021511603/26/16 02:15:31  5-MIN KAMG 260715Z AUTO 09003KT 9SM BKN038 OVC047 18/17 A3002 110 96 500 090/03 RMK AO2 T01780172
13870KAMG AMG20160326022011703/26/16 02:20:31  5-MIN KAMG 260720Z AUTO 11003KT 9SM BKN036 OVC047 18/18 A3003 100 100 500 120/03 RMK AO2 T01780178
13870KAMG AMG20160326022511803/26/16 02:25:31  5-MIN KAMG 260725Z AUTO 09003KT 10SM BKN036 OVC047 18/18 A3002 110 100 500 090/03 RMK AO2 T01780178
13870KAMG AMG20160326023011803/26/16 02:30:31  5-MIN KAMG 260730Z AUTO 09003KT 10SM BKN036 OVC045 18/18 A3002 110 100 500 090/03 RMK AO2 T01780178
13870KAMG AMG20160326023511803/26/16 02:35:31  5-MIN KAMG 260735Z AUTO 00000KT 10SM BKN035 OVC045 18/18 A3002 110 100 500 000/00 RMK AO2 T01780178
13870KAMG AMG20160326024011103/26/16 02:40:31  5-MIN KAMG 260740Z AUTO 12003KT 10SM OVC035 18/18 A3002 110 100 500 120/03 RMK AO2 T01780178
13870KAMG AMG20160326024511003/26/16 02:45:31  5-MIN KAMG 260745Z AUTO 00000KT 9SM OVC035 18/18 A3002 110 100 500 000/00 RMK AO2 T01780178
13870KAMG AMG20160326025011703/26/16 02:50:31  5-MIN KAMG 260750Z AUTO 11003KT 9SM OVC035 18/18 A3002 110 100 500 120/03 RMK AO2 SLP162 T01780178
13870KAMG AMG20160326025511103/26/16 02:55:31  5-MIN KAMG 260755Z AUTO 00000KT 10SM OVC035 18/18 A3002 110 100 500 000/00 RMK AO2 T01780178
13870KAMG AMG20160326030011103/26/16 03:00:31  5-MIN KAMG 260800Z AUTO 00000KT 10SM OVC033 18/18 A3001 120 100 500 000/00 RMK AO2 T01780178
13870KAMG AMG20160326030511803/26/16 03:05:31  5-MIN KAMG 260805Z AUTO 00000KT 10SM BKN033 OVC039 18/18 A3001 120 100 500 000/00 RMK AO2 T01780178
13870KAMG AMG20160326031011803/26/16 03:10:31  5-MIN KAMG 260810Z AUTO 00000KT 10SM BKN032 OVC039 18/18 A3001 120 100 500 000/00 RMK AO2 T01780178
13870KAMG AMG20160326031512503/26/16 03:15:31  5-MIN KAMG 260815Z AUTO 00000KT 10SM BKN032 BKN039 OVC050 18/18 A3001 120 100 500 000/00 RMK AO2 T01780178
13870KAMG AMG20160326032011803/26/16 03:20:31  5-MIN KAMG 260820Z AUTO 00000KT 10SM BKN032 OVC050 18/18 A3001 120 100 500 000/00 RMK AO2 T01780178
13870KAMG AMG20160326032511803/26/16 03:25:31  5-MIN KAMG 260825Z AUTO 00000KT 10SM BKN032 OVC050 18/18 A3000 120 100 500 000/00 RMK AO2 T01780178
13870KAMG AMG20160326033011803/26/16 03:30:31  5-MIN KAMG 260830Z AUTO 09003KT 10SM SCT032 OVC050 18/18 A3000 130 100 500 090/03 RMK AO2 T01780178
13870KAMG AMG20160326033511703/26/16 03:35:31  5-MIN KAMG 260835Z AUTO 08003KT 10SM FEW032 BKN050 18/17 A3000 130 96 500 090/03 RMK AO2 T01780172
13870KAMG AMG20160326034011703/26/16 03:40:31  5-MIN KAMG 260840Z AUTO 09004KT 10SM FEW032 BKN050 18/17 A3000 130 96 500 100/04 RMK AO2 T01780172
13870KAMG AMG20160326034511003/26/16 03:45:31  5-MIN KAMG 260845Z AUTO 09004KT 10SM SCT050 18/17 A3000 130 96 500 100/04 RMK AO2 T01780172
13870KAMG AMG20160326035012403/26/16 03:50:31  5-MIN KAMG 260850Z AUTO 09003KT 10SM SCT048 18/18 A3000 130 100 500 100/03 RMK AO2 SLP157 T01780178 53005
13870KAMG AMG20160326035511103/26/16 03:55:31  5-MIN KAMG 260855Z AUTO 09005KT 10SM SCT048 18/18 A2999 140 100 500 100/05 RMK AO2 T01780178
13870KAMG AMG20160326040011103/26/16 04:00:31  5-MIN KAMG 260900Z AUTO 10004KT 10SM SCT050 18/18 A2999 140 100 500 110/04 RMK AO2 T01780178
13870KAMG AMG20160326040511103/26/16 04:05:31  5-MIN KAMG 260905Z AUTO 09004KT 10SM FEW050 18/18 A2999 140 100 500 090/04 RMK AO2 T01780178
13870KAMG AMG20160326041011803/26/16 04:10:31  5-MIN KAMG 260910Z AUTO 08003KT 10SM FEW050 SCT080 18/18 A2999 140 100 500 090/03 RMK AO2 T01780178
13870KAMG AMG20160326041511803/26/16 04:15:31  5-MIN KAMG 260915Z AUTO 07003KT 10SM FEW050 SCT080 18/18 A2999 140 100 500 080/03 RMK AO2 T01780178
13870KAMG AMG20160326042011803/26/16 04:20:31  5-MIN KAMG 260920Z AUTO 09003KT 10SM FEW050 FEW080 18/18 A2999 130 100 500 090/03 RMK AO2 T01780178
13870KAMG AMG20160326042511103/26/16 04:25:31  5-MIN KAMG 260925Z AUTO 10004KT 10SM FEW075 18/18 A2999 140 100 500 110/04 RMK AO2 T01780178
13870KAMG AMG20160326043011103/26/16 04:30:31  5-MIN KAMG 260930Z AUTO 10003KT 10SM FEW070 18/18 A2999 130 100 500 100/03 RMK AO2 T01780178
13870KAMG AMG20160326043511103/26/16 04:35:31  5-MIN KAMG 260935Z AUTO 00000KT 10SM FEW075 18/18 A3000 130 100 500 000/00 RMK AO2 T01780178
13870KAMG AMG20160326044010803/26/16 04:40:31  5-MIN KAMG 260940Z AUTO 09003KT 10SM CLR 18/18 A3000 130 100 500 090/03 RMK AO2 T01780178
13870KAMG AMG20160326044510703/26/16 04:45:31  5-MIN KAMG 260945Z AUTO 09004KT 10SM CLR 18/17 A3000 130 96 500 100/04 RMK AO2 T01780172
13870KAMG AMG20160326045011403/26/16 04:50:31  5-MIN KAMG 260950Z AUTO 12004KT 10SM CLR 18/17 A3000 130 96 500 130/04 RMK AO2 SLP156 T01780172
13870KAMG AMG20160326045510703/26/16 04:55:31  5-MIN KAMG 260955Z AUTO 16005KT 9SM CLR 18/18 A3001 120 100 500 160/05 RMK AO2 T01780178
13870KAMG AMG20160326050010703/26/16 05:00:31  5-MIN KAMG 261000Z AUTO 16005KT 9SM CLR 18/18 A3001 120 100 500 160/05 RMK AO2 T01780178
13870KAMG AMG20160326050510703/26/16 05:05:31  5-MIN KAMG 261005Z AUTO 15003KT 8SM CLR 18/18 A3001 120 100 500 160/03 RMK AO2 T01780178
13870KAMG AMG20160326051010703/26/16 05:10:31  5-MIN KAMG 261010Z AUTO 00000KT 8SM CLR 18/18 A3002 110 100 500 000/00 RMK AO2 T01780178
13870KAMG AMG20160326051510603/26/16 05:15:31  5-MIN KAMG 261015Z AUTO 00000KT 9SM CLR 18/17 A3002 110 96 500 000/00 RMK AO2 T01780172
13870KAMG AMG20160326052010703/26/16 05:20:31  5-MIN KAMG 261020Z AUTO 00000KT 8SM CLR 17/17 A3002 110 100 400 000/00 RMK AO2 T01720172
13870KAMG AMG20160326052510703/26/16 05:25:31  5-MIN KAMG 261025Z AUTO 00000KT 7SM CLR 17/17 A3002 110 100 400 000/00 RMK AO2 T01720172
13870KAMG AMG20160326053011003/26/16 05:30:31  5-MIN KAMG 261030Z AUTO 00000KT 7SM FEW042 17/17 A3002 110 100 400 000/00 RMK AO2 T01720172
13870KAMG AMG20160326053511003/26/16 05:35:31  5-MIN KAMG 261035Z AUTO 00000KT 7SM FEW042 17/17 A3002 110 100 400 000/00 RMK AO2 T01720172
13870KAMG AMG20160326054011003/26/16 05:40:31  5-MIN KAMG 261040Z AUTO 07003KT 5SM BR CLR 17/17 A3002 110 100 400 080/03 RMK AO2 T01720172
13870KAMG AMG20160326054511003/26/16 05:45:31  5-MIN KAMG 261045Z AUTO 08003KT 4SM BR CLR 17/17 A3003 110 100 400 080/03 RMK AO2 T01720172
13870KAMG AMG20160326055011703/26/16 05:50:31  5-MIN KAMG 261050Z AUTO 08003KT 4SM BR CLR 17/17 A3003 100 100 400 080/03 RMK AO2 SLP166 T01720172
13870KAMG AMG20160326055511003/26/16 05:55:31  5-MIN KAMG 261055Z AUTO 00000KT 5SM BR CLR 17/17 A3004 100 100 400 000/00 RMK AO2 T01720172
13870KAMG AMG20160326060010903/26/16 06:00:31  5-MIN KAMG 261100Z AUTO 00000KT 5SM BR CLR 17/17 A3004 90 100 400 000/00 RMK AO2 T01720172
13870KAMG AMG20160326060510803/26/16 06:05:31  5-MIN KAMG 261105Z AUTO 00000KT 4SM BR CLR 17/17 A3004 90 96 400 000/00 RMK AO2 T01720167
13870KAMG AMG20160326061011303/26/16 06:10:31  5-MIN KAMG 261110Z AUTO 00000KT 1 1/2SM BR CLR 17/17 A3004 90 100 300 000/00 RMK AO2 T01670167
13870KAMG AMG20160326061511203/26/16 06:15:31  5-MIN KAMG 261115Z AUTO 00000KT 1SM BR FEW031 17/17 A3005 80 100 300 000/00 RMK AO2 T01670167
13870KAMG AMG20160326062011603/26/16 06:20:31  5-MIN KAMG 261120Z AUTO 00000KT 1 1/4SM BR FEW031 17/17 A3005 90 100 300 000/00 RMK AO2 T01670167
13870KAMG AMG20160326062510903/26/16 06:25:31  5-MIN KAMG 261125Z AUTO 07003KT 1SM BR CLR 17/17 A3005 90 100 300 080/03 RMK AO2 T01670167
13870KAMG AMG20160326063010903/26/16 06:30:31  5-MIN KAMG 261130Z AUTO 09003KT 1SM BR CLR 17/17 A3004 90 100 300 090/03 RMK AO2 T01670167
13870KAMG AMG20160326063511303/26/16 06:35:31  5-MIN KAMG 261135Z AUTO 10003KT 1 1/4SM BR CLR 17/17 A3004 90 100 300 100/03 RMK AO2 T01670167
13870KAMG AMG20160326064011303/26/16 06:40:31  5-MIN KAMG 261140Z AUTO 00000KT 1 3/4SM BR CLR 17/17 A3005 80 100 400 000/00 RMK AO2 T01720172
13870KAMG AMG20160326064511303/26/16 06:45:31  5-MIN KAMG 261145Z AUTO 08003KT 2 1/2SM BR CLR 17/17 A3004 90 100 300 080/03 RMK AO2 T01670167
13870KAMG AMG20160326065010303/26/16 06:50:31  5-MIN KAMG 261150Z AUTO 00000KT 2 1/2SM BR CLR 17/17 A3005 80 100 300 000/00 RMK AO2
13870KAMG AMG20160326065511203/26/16 06:55:31  5-MIN KAMG 261155Z AUTO 11003KT 2 1/2SM BR CLR 17/17 A3005 80 96 400 110/03 RMK AO2 T01720167
13870KAMG AMG20160326070010903/26/16 07:00:31  5-MIN KAMG 261200Z AUTO 00000KT 3SM BR CLR 17/17 A3006 70 100 400 000/00 RMK AO2 T01720172
13870KAMG AMG20160326070510903/26/16 07:05:31  5-MIN KAMG 261205Z AUTO 00000KT 4SM BR CLR 17/17 A3006 70 100 400 000/00 RMK AO2 T01720172
13870KAMG AMG20160326071010903/26/16 07:10:31  5-MIN KAMG 261210Z AUTO 00000KT 4SM BR CLR 17/17 A3006 70 100 400 000/00 RMK AO2 T01720172
13870KAMG AMG20160326071510903/26/16 07:15:31  5-MIN KAMG 261215Z AUTO 00000KT 4SM BR CLR 17/17 A3007 70 100 400 000/00 RMK AO2 T01720172
13870KAMG AMG20160326072010903/26/16 07:20:31  5-MIN KAMG 261220Z AUTO 00000KT 4SM BR CLR 17/17 A3007 70 100 400 000/00 RMK AO2 T01720172
13870KAMG AMG20160326072510803/26/16 07:25:31  5-MIN KAMG 261225Z AUTO 00000KT 4SM BR CLR 18/17 A3007 70 96 400 000/00 RMK AO2 T01780172
13870KAMG AMG20160326073010903/26/16 07:30:31  5-MIN KAMG 261230Z AUTO 07003KT 4SM BR CLR 18/18 A3007 70 100 400 080/03 RMK AO2 T01780178
13870KAMG AMG20160326073510903/26/16 07:35:31  5-MIN KAMG 261235Z AUTO 06004KT 5SM BR CLR 18/18 A3007 70 100 400 070/04 RMK AO2 T01780178
13870KAMG AMG20160326074011203/26/16 07:40:31  5-MIN KAMG 261240Z AUTO 07003KT 6SM BR FEW110 18/18 A3007 60 100 500 070/03 RMK AO2 T01830183
13870KAMG AMG20160326074510903/26/16 07:45:31  5-MIN KAMG 261245Z AUTO 00000KT 7SM SCT110 18/18 A3007 60 100 500 000/00 RMK AO2 T01830183
13870KAMG AMG20160326075011603/26/16 07:50:31  5-MIN KAMG 261250Z AUTO 00000KT 7SM SCT110 18/18 A3008 60 100 500 000/00 RMK AO2 SLP183 T01830183
13870KAMG AMG20160326075510903/26/16 07:55:31  5-MIN KAMG 261255Z AUTO 12003KT 7SM FEW110 18/18 A3008 50 100 500 120/03 RMK AO2 T01830183
13870KAMG AMG20160326080010903/26/16 08:00:31  5-MIN KAMG 261300Z AUTO 11003KT 8SM FEW110 18/18 A3008 50 100 500 110/03 RMK AO2 T01830183
13870KAMG AMG20160326080510803/26/16 08:05:31  5-MIN KAMG 261305Z AUTO 00000KT 8SM FEW110 19/18 A3009 50 97 600 000/00 RMK AO2 T01890183
13870KAMG AMG20160326081010803/26/16 08:10:31  5-MIN KAMG 261310Z AUTO 00000KT 8SM FEW110 19/18 A3009 50 97 600 000/00 RMK AO2 T01890183
13870KAMG AMG20160326081510603/26/16 08:15:31  5-MIN KAMG 261315Z AUTO 11003KT 8SM CLR 19/19 A3009 50 100 600 110/03 RMK AO2 T01890189
13870KAMG AMG20160326082010803/26/16 08:20:31  5-MIN KAMG 261320Z AUTO 00000KT 9SM FEW090 19/19 A3009 50 97 600 000/00 RMK AO2 T01940189
13870KAMG AMG20160326082510803/26/16 08:25:31  5-MIN KAMG 261325Z AUTO 10004KT 9SM SCT095 19/19 A3008 60 97 600 100/04 RMK AO2 T01940189
13870KAMG AMG20160326083010803/26/16 08:30:31  5-MIN KAMG 261330Z AUTO 09004KT 9SM SCT095 19/18 A3008 60 93 600 090/04 RMK AO2 T01940183
13870KAMG AMG20160326083510803/26/16 08:35:31  5-MIN KAMG 261335Z AUTO 11003KT 9SM BKN090 19/19 A3008 50 97 600 110/03 RMK AO2 T01940189
13870KAMG AMG20160326084010903/26/16 08:40:31  5-MIN KAMG 261340Z AUTO 14005KT 10SM BKN090 19/19 A3009 50 97 600 140/05 RMK AO2 T01940189
13870KAMG AMG20160326084510903/26/16 08:45:31  5-MIN KAMG 261345Z AUTO 14004KT 10SM BKN090 19/19 A3009 50 97 600 150/04 RMK AO2 T01940189
13870KAMG AMG20160326085011603/26/16 08:50:31  5-MIN KAMG 261350Z AUTO 14003KT 10SM BKN090 20/19 A3009 40 93 700 140/03 RMK AO2 SLP188 T02000189
13870KAMG AMG20160326085510903/26/16 08:55:31  5-MIN KAMG 261355Z AUTO 15003KT 10SM BKN090 20/19 A3009 40 93 700 150/03 RMK AO2 T02000189
13870KAMG AMG20160326090011603/26/16 09:00:31  5-MIN KAMG 261400Z AUTO 16004KT 10SM SCT085 SCT120 20/19 A3010 40 97 700 170/04 RMK AO2 T02000194
13870KAMG AMG20160326090510903/26/16 09:05:31  5-MIN KAMG 261405Z AUTO 17004KT 10SM SCT090 20/19 A3010 40 93 700 170/04 RMK AO2 T02000189
13870KAMG AMG20160326091010903/26/16 09:10:31  5-MIN KAMG 261410Z AUTO 19004KT 10SM FEW085 21/19 A3011 30 93 700 190/04 RMK AO2 T02060194
13870KAMG AMG20160326091511603/26/16 09:15:31  5-MIN KAMG 261415Z AUTO 20005KT 10SM FEW028 SCT090 21/19 A3011 30 93 700 200/05 RMK AO2 T02060194
13870KAMG AMG20160326092011603/26/16 09:20:31  5-MIN KAMG 261420Z AUTO 18005KT 10SM FEW021 SCT028 21/19 A3011 20 93 700 190/05 RMK AO2 T02060194
13870KAMG AMG20160326092511603/26/16 09:25:31  5-MIN KAMG 261425Z AUTO 17003KT 10SM FEW021 SCT030 21/19 A3011 20 93 700 180/03 RMK AO2 T02060194
13870KAMG AMG20160326093011603/26/16 09:30:31  5-MIN KAMG 261430Z AUTO 21004KT 10SM FEW021 SCT030 21/19 A3012 20 90 800 210/04 RMK AO2 T02110194
13870KAMG AMG20160326093511603/26/16 09:35:31  5-MIN KAMG 261435Z AUTO 20006KT 10SM FEW021 FEW029 21/19 A3012 20 90 800 210/06 RMK AO2 T02110194
13870KAMG AMG20160326094011603/26/16 09:40:31  5-MIN KAMG 261440Z AUTO 21005KT 10SM FEW021 FEW029 21/19 A3012 20 90 800 210/05 RMK AO2 T02110194
13870KAMG AMG20160326094511603/26/16 09:45:31  5-MIN KAMG 261445Z AUTO 21004KT 10SM FEW021 FEW029 22/20 A3012 20 90 800 210/04 RMK AO2 T02170200
13870KAMG AMG20160326095012203/26/16 09:50:31  5-MIN KAMG 261450Z AUTO 21005KT 10SM FEW021 22/20 A3011 20 90 800 210/05 RMK AO2 SLP196 T02170200 53019
13870KAMG AMG20160326095510603/26/16 09:55:31  5-MIN KAMG 261455Z AUTO 18006KT 10SM CLR 22/20 A3012 20 87 900 190/06 RMK AO2 T02220200
13870KAMG AMG20160326100010603/26/16 10:00:31  5-MIN KAMG 261500Z AUTO 19006KT 10SM CLR 22/20 A3012 20 87 900 200/06 RMK AO2 T02220200
13870KAMG AMG20160326100510903/26/16 10:05:31  5-MIN KAMG 261505Z AUTO 20005KT 10SM FEW016 22/20 A3012 20 87 900 200/05 RMK AO2 T02220200
13870KAMG AMG20160326101010903/26/16 10:10:31  5-MIN KAMG 261510Z AUTO 20005KT 10SM FEW016 22/21 A3012 20 90 900 200/05 RMK AO2 T02220206
13870KAMG AMG20160326101511003/26/16 10:15:31  5-MIN KAMG 261515Z AUTO 20005KT 10SM FEW016 23/21 A3012 20 87 1000 210/05 RMK AO2 T02280206
13870KAMG AMG20160326102011003/26/16 10:20:31  5-MIN KAMG 261520Z AUTO 20006KT 10SM FEW014 23/21 A3012 20 87 1000 210/06 RMK AO2 T02280206
13870KAMG AMG20160326102511003/26/16 10:25:31  5-MIN KAMG 261525Z AUTO 20007KT 10SM FEW014 23/21 A3012 10 87 1000 200/07 RMK AO2 T02280206
13870KAMG AMG20160326103011003/26/16 10:30:31  5-MIN KAMG 261530Z AUTO 20008KT 10SM FEW014 23/21 A3013 10 84 1000 200/08 RMK AO2 T02330206
13870KAMG AMG20160326103512603/26/16 10:35:31  5-MIN KAMG 261535Z AUTO 20007KT 160V220 10SM SCT014 23/21 A3013 10 84 1000 200/07 170V230 RMK AO2 T02330206
13870KAMG AMG20160326104011003/26/16 10:40:31  5-MIN KAMG 261540Z AUTO 19008KT 10SM BKN014 23/21 A3013 10 84 1000 200/08 RMK AO2 T02330206
13870KAMG AMG20160326104511003/26/16 10:45:31  5-MIN KAMG 261545Z AUTO 19006KT 10SM BKN014 23/21 A3013 10 84 1000 190/06 RMK AO2 T02330206
13870KAMG AMG20160326105011703/26/16 10:50:31  5-MIN KAMG 261550Z AUTO 18009KT 10SM BKN014 24/21 A3013 10 81 1100 190/09 RMK AO2 SLP200 T02390206
13870KAMG AMG20160326105511003/26/16 10:55:31  5-MIN KAMG 261555Z AUTO 20010KT 10SM BKN014 23/21 A3013 10 84 1000 200/10 RMK AO2 T02330206
13870KAMG AMG20160326110011003/26/16 11:00:31  5-MIN KAMG 261600Z AUTO 19009KT 10SM OVC014 23/21 A3013 10 84 1000 200/09 RMK AO2 T02330206
13870KAMG AMG20160326110510903/26/16 11:05:31  5-MIN KAMG 261605Z AUTO 20008KT 10SM OVC014 23/21 A3013 0 84 1000 210/08 RMK AO2 T02330206
13870KAMG AMG20160326111010903/26/16 11:10:31  5-MIN KAMG 261610Z AUTO 20008KT 9SM OVC014 23/21 A3013 10 84 1000 200/08 RMK AO2 T02330206
13870KAMG AMG20160326111510903/26/16 11:15:31  5-MIN KAMG 261615Z AUTO 20008KT 9SM OVC014 23/21 A3013 10 84 1000 210/08 RMK AO2 T02330206
13870KAMG AMG20160326112010903/26/16 11:20:31  5-MIN KAMG 261620Z AUTO 22007KT 9SM OVC013 23/21 A3013 10 84 1000 230/07 RMK AO2 T02330206
13870KAMG AMG20160326112510903/26/16 11:25:31  5-MIN KAMG 261625Z AUTO 21009KT 9SM OVC013 23/21 A3013 10 84 1000 220/09 RMK AO2 T02330206
13870KAMG AMG20160326113011603/26/16 11:30:31  5-MIN KAMG 261630Z AUTO 19007KT 9SM BKN013 OVC020 23/21 A3013 10 84 1000 190/07 RMK AO2 T02330206
13870KAMG AMG20160326113511703/26/16 11:35:31  5-MIN KAMG 261635Z AUTO 19007KT 10SM BKN013 OVC020 24/21 A3013 10 81 1100 190/07 RMK AO2 T02390206
13870KAMG AMG20160326114012403/26/16 11:40:31  5-MIN KAMG 261640Z AUTO 18008KT 10SM BKN015 BKN024 OVC100 24/21 A3013 10 78 1200 190/08 RMK AO2 T02440206
13870KAMG AMG20160326114512403/26/16 11:45:31  5-MIN KAMG 261645Z AUTO 21008KT 10SM BKN016 BKN024 OVC100 24/21 A3013 10 78 1200 210/08 RMK AO2 T02440206
13870KAMG AMG20160326115013103/26/16 11:50:31  5-MIN KAMG 261650Z AUTO 18009KT 10SM BKN016 BKN024 OVC110 24/21 A3013 10 78 1200 190/09 RMK AO2 SLP199 T02440206
13870KAMG AMG20160326115512403/26/16 11:55:31  5-MIN KAMG 261655Z AUTO VRB05KT 10SM BKN017 BKN024 OVC100 24/20 A3012 10 76 1200 VRB/05 RMK AO2 T02440200
13870KAMG AMG20160326120012403/26/16 12:00:31  5-MIN KAMG 261700Z AUTO 21005KT 10SM SCT017 BKN021 OVC100 25/21 A3012 20 76 1200 220/05 RMK AO2 T02500206
13870KAMG AMG20160326120511703/26/16 12:05:31  5-MIN KAMG 261705Z AUTO 21005KT 10SM BKN017 BKN110 25/21 A3012 20 76 1200 220/05 RMK AO2 T02500206
13870KAMG AMG20160326121011703/26/16 12:10:31  5-MIN KAMG 261710Z AUTO VRB04KT 10SM BKN018 BKN110 24/20 A3011 20 76 1200 VRB/04 RMK AO2 T02440200
13870KAMG AMG20160326121511703/26/16 12:15:31  5-MIN KAMG 261715Z AUTO 23004KT 10SM BKN018 BKN120 24/20 A3011 30 76 1200 230/04 RMK AO2 T02440200
13870KAMG AMG20160326122012403/26/16 12:20:31  5-MIN KAMG 261720Z AUTO 22003KT 10SM SCT018 SCT070 BKN110 24/20 A3011 30 76 1200 230/03 RMK AO2 T02440200
13870KAMG AMG20160326122512403/26/16 12:25:31  5-MIN KAMG 261725Z AUTO 00000KT 10SM FEW020 SCT070 BKN110 25/20 A3011 30 73 1200 000/00 RMK AO2 T02500200
13870KAMG AMG20160326123011703/26/16 12:30:31  5-MIN KAMG 261730Z AUTO VRB03KT 10SM FEW020 SCT110 25/20 A3011 30 73 1200 VRB/03 RMK AO2 T02500200
13870KAMG AMG20160326123511003/26/16 12:35:31  5-MIN KAMG 261735Z AUTO 00000KT 10SM SCT110 24/20 A3011 30 76 1200 000/00 RMK AO2 T02440200
13870KAMG AMG20160326124011703/26/16 12:40:31  5-MIN KAMG 261740Z AUTO 20004KT 10SM FEW100 FEW120 25/20 A3011 30 73 1200 200/04 RMK AO2 T02500200
13870KAMG AMG20160326124511003/26/16 12:45:31  5-MIN KAMG 261745Z AUTO 20003KT 10SM FEW110 25/20 A3011 30 73 1200 210/03 RMK AO2 T02500200
13870KAMG AMG20160326125014203/26/16 12:50:31  5-MIN KAMG 261750Z AUTO 19005KT 10SM FEW023 SCT120 25/20 A3011 30 73 1200 200/05 RMK AO2 SLP195 T02500200 10250 20167 51022
13870KAMG AMG20160326125512803/26/16 12:55:31  5-MIN KAMG 261755Z AUTO 22005KT 10SM FEW023 FEW120 26/20 A3012 20 71 1300 220/05 RMK AO2 LTG DSNT N T02560200
13870KAMG AMG20160326130012803/26/16 13:00:31  5-MIN KAMG 261800Z AUTO 19004KT 10SM FEW023 SCT120 26/20 A3011 30 71 1300 200/04 RMK AO2 LTG DSNT N T02560200
13870KAMG AMG20160326130513503/26/16 13:05:31  5-MIN KAMG 261805Z AUTO 23005KT 10SM FEW023 FEW041 SCT120 26/20 A3011 30 71 1300 240/05 RMK AO2 LTG DSNT N T02560200
13870KAMG AMG20160326131013503/26/16 13:10:31  5-MIN KAMG 261810Z AUTO 26006KT 10SM FEW024 SCT041 SCT120 26/19 A3011 30 68 1300 260/06 RMK AO2 LTG DSNT N T02560194
13870KAMG AMG20160326131513503/26/16 13:15:31  5-MIN KAMG 261815Z AUTO 26004KT 10SM FEW024 SCT032 BKN041 26/19 A3011 30 66 1300 260/04 RMK AO2 LTG DSNT N T02560189
13870KAMG AMG20160326132013503/26/16 13:20:31  5-MIN KAMG 261820Z AUTO 25005KT 10SM FEW024 SCT032 BKN040 26/19 A3011 30 68 1300 250/05 RMK AO2 LTG DSNT N T02560194
13870KAMG AMG20160326132513503/26/16 13:25:31  5-MIN KAMG 261825Z AUTO VRB05KT 10SM FEW025 BKN036 BKN110 25/19 A3012 20 71 1200 VRB/05 RMK AO2 LTG DSNT N T02500194
13870KAMG AMG20160326133013503/26/16 13:30:31  5-MIN KAMG 261830Z AUTO 27007KT 10SM FEW028 BKN039 BKN110 25/19 A3012 20 68 1200 280/07 RMK AO2 LTG DSNT N T02500189
13870KAMG AMG20160326133512403/26/16 13:35:31  5-MIN KAMG 261835Z AUTO 23005KT 10SM FEW028 BKN041 BKN100 25/19 A3012 10 68 1200 240/05 RMK AO2 T02500189
13870KAMG AMG20160326134012403/26/16 13:40:31  5-MIN KAMG 261840Z AUTO 25006KT 10SM SCT031 BKN041 OVC100 25/19 A3012 20 71 1200 260/06 RMK AO2 T02500194
13870KAMG AMG20160326134512403/26/16 13:45:31  5-MIN KAMG 261845Z AUTO 24008KT 10SM FEW028 BKN040 BKN100 25/19 A3012 10 71 1200 240/08 RMK AO2 T02500194
13870KAMG AMG20160326135013103/26/16 13:50:31  5-MIN KAMG 261850Z AUTO 24010KT 10SM FEW034 BKN043 BKN100 25/19 A3013 10 68 1200 240/10 RMK AO2 SLP199 T02500189
13870KAMG AMG20160326135512403/26/16 13:55:31  5-MIN KAMG 261855Z AUTO 23009KT 10SM FEW034 BKN043 OVC110 25/19 A3012 20 68 1200 240/09 RMK AO2 T02500189
13870KAMG AMG20160326140012403/26/16 14:00:31  5-MIN KAMG 261900Z AUTO 25009KT 10SM FEW032 BKN043 OVC110 25/19 A3012 10 68 1200 250/09 RMK AO2 T02500189
13870KAMG AMG20160326140512903/26/16 14:05:31  5-MIN KAMG 261905Z AUTO 26009KT 10SM BKN042 BKN110 25/19 A3013 10 68 1200 260/09 RMK AO2 LTG DSNT NW T02500189
13870KAMG AMG20160326141012903/26/16 14:10:31  5-MIN KAMG 261910Z AUTO 26010KT 10SM SCT042 BKN110 25/19 A3013 10 71 1200 270/10 RMK AO2 LTG DSNT NW T02500194
13870KAMG AMG20160326141512903/26/16 14:15:31  5-MIN KAMG 261915Z AUTO 23008KT 10SM SCT042 BKN110 24/19 A3012 20 73 1200 240/08 RMK AO2 LTG DSNT NW T02440194
13870KAMG AMG20160326142014503/26/16 14:20:31  5-MIN KAMG 261920Z AUTO 26007KT 220V290 10SM FEW040 BKN110 24/19 A3011 30 71 1200 270/07 230V300 RMK AO2 LTG DSNT NW T02440189
13870KAMG AMG20160326142512403/26/16 14:25:31  5-MIN KAMG 261925Z AUTO 29008KT 10SM FEW038 BKN100 24/19 A3010 30 71 1200 290/08 RMK AO2 PRESFR T02440189
13870KAMG AMG20160326143013503/26/16 14:30:31  5-MIN KAMG 261930Z AUTO 28010KT 10SM FEW023 SCT038 BKN100 24/19 A3010 40 73 1200 280/10 RMK AO2 LTG DSNT N T02440194
13870KAMG AMG20160326143514103/26/16 14:35:31  5-MIN KAMG 261935Z AUTO 28011G16KT 10SM FEW023 FEW036 BKN100 24/19 A3011 30 73 1200 280/11G16 RMK AO2 LTG DSNT N T02440194
13870KAMG AMG20160326144013403/26/16 14:40:31  5-MIN KAMG 261940Z AUTO 29011G16KT 10SM FEW022 SCT100 24/19 A3011 30 76 1100 300/11G16 RMK AO2 LTG DSNT N T02390194
13870KAMG AMG20160326144512803/26/16 14:45:31  5-MIN KAMG 261945Z AUTO 27012KT 10SM FEW022 SCT110 24/19 A3011 20 73 1100 270/12 RMK AO2 LTG DSNT N T02390189
13870KAMG AMG20160326145013103/26/16 14:50:31  5-MIN KAMG 261950Z AUTO 28007KT 10SM FEW022 FEW100 SCT120 24/19 A3011 30 76 1100 280/07 RMK AO2 SLP194 T02390194
13870KAMG AMG20160326145511703/26/16 14:55:31  5-MIN KAMG 261955Z AUTO 26009KT 10SM FEW022 SCT120 24/19 A3012 20 76 1100 270/09 RMK AO2 T02390194
13870KAMG AMG20160326150011703/26/16 15:00:31  5-MIN KAMG 262000Z AUTO 28010KT 10SM FEW022 FEW120 23/19 A3012 20 78 1000 280/10 RMK AO2 T02330194
13870KAMG AMG20160326150512303/26/16 15:05:31  5-MIN KAMG 262005Z AUTO 27011G16KT 10SM FEW022 SCT120 23/19 A3012 20 76 1000 280/11G16 RMK AO2 T02330189
13870KAMG AMG20160326151011703/26/16 15:10:31  5-MIN KAMG 262010Z AUTO 27008KT 10SM FEW022 SCT120 23/19 A3012 20 76 1000 280/08 RMK AO2 T02330189
13870KAMG AMG20160326151511003/26/16 15:15:31  5-MIN KAMG 262015Z AUTO 27010KT 10SM FEW022 23/19 A3012 20 76 1000 280/10 RMK AO2 T02330189
13870KAMG AMG20160326152011003/26/16 15:20:31  5-MIN KAMG 262020Z AUTO 28010KT 10SM FEW022 23/19 A3011 20 76 1000 280/10 RMK AO2 T02330189
13870KAMG AMG20160326152511003/26/16 15:25:31  5-MIN KAMG 262025Z AUTO 26007KT 10SM FEW022 23/19 A3011 20 76 1000 260/07 RMK AO2 T02330189
13870KAMG AMG20160326153011003/26/16 15:30:31  5-MIN KAMG 262030Z AUTO 26010KT 10SM FEW024 24/19 A3012 20 73 1100 260/10 RMK AO2 T02390189
13870KAMG AMG20160326153511603/26/16 15:35:31  5-MIN KAMG 262035Z AUTO 25011G18KT 10SM FEW024 23/18 A3012 20 73 1000 260/11G18 RMK AO2 T02330183
13870KAMG AMG20160326154011603/26/16 15:40:31  5-MIN KAMG 262040Z AUTO 27011G18KT 10SM FEW024 23/18 A3012 20 70 1000 270/11G18 RMK AO2 T02330178
13870KAMG AMG20160326154511003/26/16 15:45:31  5-MIN KAMG 262045Z AUTO 27009KT 10SM FEW024 23/18 A3013 10 70 1000 270/09 RMK AO2 T02330178
13870KAMG AMG20160326155012603/26/16 15:50:31  5-MIN KAMG 262050Z AUTO 27011G17KT 10SM CLR 23/18 A3013 10 70 1000 280/11G17 RMK AO2 SLP202 T02330178 50000
13870KAMG AMG20160326155512103/26/16 15:55:31  5-MIN KAMG 262055Z AUTO 25008G17KT 10SM FEW025 23/18 A3015 0 73 900 250/08G17 RMK AO2 PRESRR T02280178
13870KAMG AMG20160326160012303/26/16 16:00:31  5-MIN KAMG 262100Z AUTO 25012G19KT 10SM FEW025 SCT110 23/18 A3015 -10 73 900 250/12G19 RMK AO2 T02280178
13870KAMG AMG20160326160512303/26/16 16:05:31  5-MIN KAMG 262105Z AUTO 25009G19KT 10SM FEW024 SCT110 23/18 A3016 -10 73 900 260/09G19 RMK AO2 T02280178
13870KAMG AMG20160326161011703/26/16 16:10:31  5-MIN KAMG 262110Z AUTO 27008KT 10SM FEW024 SCT110 23/17 A3015 -10 70 900 270/08 RMK AO2 T02280172
13870KAMG AMG20160326161513903/26/16 16:15:31  5-MIN KAMG 262115Z AUTO 26010G17KT 220V290 10SM FEW024 SCT110 23/18 A3015 -10 73 900 260/10G17 230V300 RMK AO2 T02280178
13870KAMG AMG20160326162012303/26/16 16:20:31  5-MIN KAMG 262120Z AUTO 26009G17KT 10SM FEW024 SCT110 22/17 A3015 -10 73 900 270/09G17 RMK AO2 T02220172
13870KAMG AMG20160326162511603/26/16 16:25:31  5-MIN KAMG 262125Z AUTO 25009G17KT 10SM SCT110 22/18 A3016 -10 75 900 260/09G17 RMK AO2 T02220178
13870KAMG AMG20160326163011603/26/16 16:30:31  5-MIN KAMG 262130Z AUTO 25013G17KT 10SM FEW110 22/18 A3016 -10 75 900 250/13G17 RMK AO2 T02220178
13870KAMG AMG20160326163511603/26/16 16:35:31  5-MIN KAMG 262135Z AUTO 25010G17KT 10SM FEW110 22/17 A3016 -10 73 900 260/10G17 RMK AO2 T02220172
13870KAMG AMG20160326164011303/26/16 16:40:31  5-MIN KAMG 262140Z AUTO 26009G17KT 10SM CLR 22/18 A3016 -10 75 900 270/09G17 RMK AO2 T02220178
13870KAMG AMG20160326164510503/26/16 16:45:31  5-MIN KAMG 262145Z AUTO 28007KT 10SM CLR 22/18 A3015 0 78 800 280/07 RMK AO2 T02170178
13870KAMG AMG20160326165013003/26/16 16:50:31  5-MIN KAMG 262150Z AUTO 26011G16KT 10SM FEW049 FEW100 22/17 A3015 -10 75 800 260/11G16 RMK AO2 SLP208 T02170172
13870KAMG AMG20160326165512103/26/16 16:55:31  5-MIN KAMG 262155Z AUTO 26012G19KT 10SM FEW049 SCT110 22/17 A3015 0 75 800 260/12G19 RMK AO2 T02170172
13870KAMG AMG20160326170012103/26/16 17:00:31  5-MIN KAMG 262200Z AUTO 27008G19KT 10SM FEW049 SCT110 21/17 A3014 0 75 700 280/08G19 RMK AO2 T02110167
13870KAMG AMG20160326170511503/26/16 17:05:31  5-MIN KAMG 262205Z AUTO 28006KT 10SM FEW049 SCT110 21/17 A3014 0 75 800 290/06 RMK AO2 T02110167
13870KAMG AMG20160326171011503/26/16 17:10:31  5-MIN KAMG 262210Z AUTO VRB04KT 10SM FEW049 FEW110 21/17 A3013 0 75 800 VRB/04 RMK AO2 T02110167
13870KAMG AMG20160326171511503/26/16 17:15:31  5-MIN KAMG 262215Z AUTO VRB03KT 10SM FEW049 FEW110 21/17 A3014 0 78 700 VRB/03 RMK AO2 T02060167
13870KAMG AMG20160326172010903/26/16 17:20:31  5-MIN KAMG 262220Z AUTO 00000KT 10SM FEW110 21/17 A3013 10 78 700 000/00 RMK AO2 T02060167
13870KAMG AMG20160326172510603/26/16 17:25:31  5-MIN KAMG 262225Z AUTO 24003KT 10SM CLR 21/17 A3013 10 78 700 250/03 RMK AO2 T02060167
13870KAMG AMG20160326173010603/26/16 17:30:31  5-MIN KAMG 262230Z AUTO VRB04KT 10SM CLR 21/17 A3013 10 78 700 VRB/04 RMK AO2 T02060167
13870KAMG AMG20160326173510603/26/16 17:35:31  5-MIN KAMG 262235Z AUTO 00000KT 10SM CLR 21/17 A3012 10 78 700 000/00 RMK AO2 T02060167
13870KAMG AMG20160326174010603/26/16 17:40:31  5-MIN KAMG 262240Z AUTO 00000KT 10SM CLR 21/17 A3012 20 78 700 000/00 RMK AO2 T02060167
13870KAMG AMG20160326174510603/26/16 17:45:31  5-MIN KAMG 262245Z AUTO 00000KT 10SM CLR 21/16 A3011 30 75 700 000/00 RMK AO2 T02060161
13870KAMG AMG20160326175011303/26/16 17:50:31  5-MIN KAMG 262250Z AUTO 00000KT 10SM CLR 21/16 A3011 30 75 700 000/00 RMK AO2 SLP193 T02060161
13870KAMG AMG20160326175510603/26/16 17:55:31  5-MIN KAMG 262255Z AUTO 00000KT 10SM CLR 21/16 A3010 30 75 700 000/00 RMK AO2 T02060161
13870KAMG AMG20160326180010603/26/16 18:00:31  5-MIN KAMG 262300Z AUTO 00000KT 10SM CLR 20/17 A3010 40 81 700 000/00 RMK AO2 T02000167
13870KAMG AMG20160326180510603/26/16 18:05:31  5-MIN KAMG 262305Z AUTO 00000KT 10SM CLR 20/17 A3009 40 81 700 000/00 RMK AO2 T02000167
13870KAMG AMG20160326181010603/26/16 18:10:31  5-MIN KAMG 262310Z AUTO 00000KT 10SM CLR 20/17 A3009 40 81 700 000/00 RMK AO2 T02000167
13870KAMG AMG20160326181510603/26/16 18:15:31  5-MIN KAMG 262315Z AUTO 00000KT 10SM CLR 19/17 A3009 50 84 600 000/00 RMK AO2 T01940167
13870KAMG AMG20160326182010603/26/16 18:20:31  5-MIN KAMG 262320Z AUTO 11003KT 10SM CLR 19/17 A3009 50 84 600 120/03 RMK AO2 T01940167
13870KAMG AMG20160326182510603/26/16 18:25:31  5-MIN KAMG 262325Z AUTO 11004KT 10SM CLR 19/17 A3008 50 84 600 120/04 RMK AO2 T01940167
13870KAMG AMG20160326183010903/26/16 18:30:31  5-MIN KAMG 262330Z AUTO 13005KT 10SM SCT110 19/17 A3008 50 84 600 130/05 RMK AO2 T01940167
13870KAMG AMG20160326183510903/26/16 18:35:31  5-MIN KAMG 262335Z AUTO 12005KT 10SM BKN110 19/17 A3008 50 84 600 130/05 RMK AO2 T01940167
13870KAMG AMG20160326184010903/26/16 18:40:31  5-MIN KAMG 262340Z AUTO 14007KT 10SM BKN100 19/17 A3008 50 84 600 140/07 RMK AO2 T01940167
13870KAMG AMG20160326184510903/26/16 18:45:31  5-MIN KAMG 262345Z AUTO 14007KT 10SM BKN100 19/17 A3008 50 84 600 150/07 RMK AO2 T01940167
13870KAMG AMG20160326185014103/26/16 18:50:31  5-MIN KAMG 262350Z AUTO 14007KT 10SM BKN100 OVC120 19/17 A3008 50 84 600 150/07 RMK AO2 SLP184 T01940167 10256 20194 53009
13870KAMG AMG20160326185511603/26/16 18:55:31  5-MIN KAMG 262355Z AUTO 14008KT 10SM BKN100 BKN120 19/16 A3008 50 81 600 150/08 RMK AO2 T01940161
13870KAMG AMG20160326190010903/26/16 19:00:31  5-MIN KAMG 270000Z AUTO 14008KT 10SM BKN100 19/16 A3008 60 81 600 140/08 RMK AO2 T01940161
13870KAMG AMG20160326190510903/26/16 19:05:31  5-MIN KAMG 270005Z AUTO 14008KT 10SM SCT100 19/16 A3008 50 81 600 150/08 RMK AO2 T01940161
13870KAMG AMG20160326191010903/26/16 19:10:31  5-MIN KAMG 270010Z AUTO 13010KT 10SM FEW100 19/16 A3007 60 81 600 140/10 RMK AO2 T01940161
13870KAMG AMG20160326191510903/26/16 19:15:31  5-MIN KAMG 270015Z AUTO 15010KT 10SM FEW110 20/16 A3008 50 78 700 150/10 RMK AO2 T02000161
13870KAMG AMG20160326192011303/26/16 19:20:31  5-MIN KAMG 270020Z AUTO 00000KT 10SM CLR 20/16 A3011 30 78 700 000/00 RMK AO2 PRESRR T02000161
13870KAMG AMG20160326192511603/26/16 19:25:31  5-MIN KAMG 270025Z AUTO 00000KT 10SM FEW110 20/16 A3012 20 78 700 000/00 RMK AO2 PRESRR T02000161
13870KAMG AMG20160326193010903/26/16 19:30:31  5-MIN KAMG 270030Z AUTO 00000KT 10SM SCT110 20/16 A3011 20 78 700 000/00 RMK AO2 T02000161
13870KAMG AMG20160326193510903/26/16 19:35:31  5-MIN KAMG 270035Z AUTO 00000KT 10SM SCT110 20/16 A3012 20 78 700 000/00 RMK AO2 T02000161
13870KAMG AMG20160326194010903/26/16 19:40:31  5-MIN KAMG 270040Z AUTO 00000KT 10SM FEW110 19/16 A3012 20 81 600 000/00 RMK AO2 T01940161
13870KAMG AMG20160326194510903/26/16 19:45:31  5-MIN KAMG 270045Z AUTO 00000KT 10SM FEW110 19/16 A3013 10 81 600 000/00 RMK AO2 T01940161
13870KAMG AMG20160326195011603/26/16 19:50:31  5-MIN KAMG 270050Z AUTO 00000KT 10SM FEW110 19/16 A3013 10 81 600 000/00 RMK AO2 SLP200 T01940161
13870KAMG AMG20160326195510903/26/16 19:55:31  5-MIN KAMG 270055Z AUTO 00000KT 10SM FEW110 19/16 A3013 10 84 500 000/00 RMK AO2 T01890161
13870KAMG AMG20160326200010603/26/16 20:00:31  5-MIN KAMG 270100Z AUTO 12003KT 10SM CLR 19/17 A3013 10 87 500 130/03 RMK AO2 T01890167
13870KAMG AMG20160326200510603/26/16 20:05:31  5-MIN KAMG 270105Z AUTO 00000KT 10SM CLR 18/17 A3013 10 90 400 000/00 RMK AO2 T01830167
13870KAMG AMG20160326201010503/26/16 20:10:31  5-MIN KAMG 270110Z AUTO 00000KT 10SM CLR 18/17 A3014 0 90 400 000/00 RMK AO2 T01830167
13870KAMG AMG20160326201510503/26/16 20:15:31  5-MIN KAMG 270115Z AUTO 34004KT 10SM CLR 18/17 A3014 0 90 400 350/04 RMK AO2 T01830167
13870KAMG AMG20160326202010503/26/16 20:20:31  5-MIN KAMG 270120Z AUTO 36004KT 10SM CLR 18/17 A3014 0 90 400 360/04 RMK AO2 T01830167
13870KAMG AMG20160326202510503/26/16 20:25:31  5-MIN KAMG 270125Z AUTO 00000KT 10SM CLR 18/17 A3014 0 90 400 000/00 RMK AO2 T01830167
13870KAMG AMG20160326203010703/26/16 20:30:31  5-MIN KAMG 270130Z AUTO 00000KT 10SM CLR 18/17 A3015 -10 90 400 000/00 RMK AO2 T01830167
13870KAMG AMG20160326203511403/26/16 20:35:31  5-MIN KAMG 270135Z AUTO 33003KT 10SM CLR 18/17 A3016 -10 90 400 330/03 RMK AO2 PRESRR T01830167
13870KAMG AMG20160326204010703/26/16 20:40:31  5-MIN KAMG 270140Z AUTO 35003KT 10SM CLR 18/17 A3016 -20 90 400 360/03 RMK AO2 T01830167
13870KAMG AMG20160326204510703/26/16 20:45:31  5-MIN KAMG 270145Z AUTO 00000KT 10SM CLR 18/17 A3016 -20 90 400 000/00 RMK AO2 T01830167
13870KAMG AMG20160326205011403/26/16 20:50:31  5-MIN KAMG 270150Z AUTO 10003KT 10SM CLR 18/17 A3017 -20 93 300 100/03 RMK AO2 SLP213 T01780167
13870KAMG AMG20160326205510703/26/16 20:55:31  5-MIN KAMG 270155Z AUTO 00000KT 10SM CLR 18/17 A3017 -20 93 300 000/00 RMK AO2 T01780167
13870KAMG AMG20160326210010703/26/16 21:00:31  5-MIN KAMG 270200Z AUTO 09003KT 10SM CLR 18/17 A3016 -20 93 300 090/03 RMK AO2 T01780167
13870KAMG AMG20160326210510703/26/16 21:05:31  5-MIN KAMG 270205Z AUTO 09003KT 10SM CLR 17/17 A3016 -20 96 300 090/03 RMK AO2 T01720167
13870KAMG AMG20160326211010703/26/16 21:10:31  5-MIN KAMG 270210Z AUTO 00000KT 10SM CLR 18/17 A3016 -20 93 300 000/00 RMK AO2 T01780167
13870KAMG AMG20160326211510703/26/16 21:15:31  5-MIN KAMG 270215Z AUTO 00000KT 10SM CLR 18/17 A3017 -20 90 400 000/00 RMK AO2 T01830167
13870KAMG AMG20160326212010703/26/16 21:20:31  5-MIN KAMG 270220Z AUTO 00000KT 10SM CLR 18/17 A3017 -20 90 400 000/00 RMK AO2 T01830167
13870KAMG AMG20160326212510703/26/16 21:25:31  5-MIN KAMG 270225Z AUTO 36003KT 10SM CLR 18/17 A3017 -20 90 400 010/03 RMK AO2 T01830167
13870KAMG AMG20160326213010703/26/16 21:30:31  5-MIN KAMG 270230Z AUTO 36003KT 10SM CLR 18/17 A3017 -30 90 400 010/03 RMK AO2 T01830167
13870KAMG AMG20160326213510703/26/16 21:35:31  5-MIN KAMG 270235Z AUTO 35005KT 10SM CLR 18/17 A3018 -30 90 400 360/05 RMK AO2 T01830167
13870KAMG AMG20160326214010703/26/16 21:40:31  5-MIN KAMG 270240Z AUTO 36004KT 10SM CLR 18/17 A3017 -30 90 400 360/04 RMK AO2 T01830167
13870KAMG AMG20160326214510703/26/16 21:45:31  5-MIN KAMG 270245Z AUTO 36003KT 10SM CLR 18/17 A3017 -30 90 400 010/03 RMK AO2 T01830167
13870KAMG AMG20160326215012003/26/16 21:50:31  5-MIN KAMG 270250Z AUTO 11003KT 10SM CLR 18/17 A3016 -20 93 300 110/03 RMK AO2 SLP212 T01780167 58021
13870KAMG AMG20160326215510703/26/16 21:55:31  5-MIN KAMG 270255Z AUTO 08003KT 10SM CLR 18/17 A3016 -10 93 300 090/03 RMK AO2 T01780167
13870KAMG AMG20160326220010703/26/16 22:00:31  5-MIN KAMG 270300Z AUTO 00000KT 10SM CLR 18/17 A3016 -10 93 300 000/00 RMK AO2 T01780167
13870KAMG AMG20160326220510703/26/16 22:05:31  5-MIN KAMG 270305Z AUTO 00000KT 10SM CLR 18/17 A3016 -10 93 300 000/00 RMK AO2 T01780167
13870KAMG AMG20160326221010703/26/16 22:10:31  5-MIN KAMG 270310Z AUTO 00000KT 10SM CLR 18/17 A3016 -10 93 300 000/00 RMK AO2 T01780167
13870KAMG AMG20160326221510703/26/16 22:15:31  5-MIN KAMG 270315Z AUTO 00000KT 10SM CLR 18/17 A3016 -10 93 300 000/00 RMK AO2 T01780167
13870KAMG AMG20160326222010703/26/16 22:20:31  5-MIN KAMG 270320Z AUTO 00000KT 10SM CLR 18/17 A3017 -20 93 300 000/00 RMK AO2 T01780167
13870KAMG AMG20160326222510703/26/16 22:25:31  5-MIN KAMG 270325Z AUTO 00000KT 10SM CLR 18/17 A3017 -20 93 300 000/00 RMK AO2 T01780167
13870KAMG AMG20160326223010703/26/16 22:30:31  5-MIN KAMG 270330Z AUTO 00000KT 10SM CLR 18/17 A3017 -20 93 300 000/00 RMK AO2 T01780167
13870KAMG AMG20160326223510703/26/16 22:35:31  5-MIN KAMG 270335Z AUTO 00000KT 10SM CLR 18/17 A3018 -30 93 300 000/00 RMK AO2 T01780167
13870KAMG AMG20160326224010703/26/16 22:40:31  5-MIN KAMG 270340Z AUTO 00000KT 10SM CLR 18/17 A3018 -30 93 300 000/00 RMK AO2 T01780167
13870KAMG AMG20160326224510703/26/16 22:45:31  5-MIN KAMG 270345Z AUTO 00000KT 10SM CLR 18/17 A3018 -30 93 300 000/00 RMK AO2 T01780167
13870KAMG AMG20160326225011703/26/16 22:50:31  5-MIN KAMG 270350Z AUTO 00000KT 10SM FEW055 18/17 A3019 -40 93 300 000/00 RMK AO2 SLP221 T01780167
13870KAMG AMG20160326225511003/26/16 22:55:31  5-MIN KAMG 270355Z AUTO 00000KT 10SM SCT050 18/17 A3019 -40 96 300 000/00 RMK AO2 T01780172
13870KAMG AMG20160326230011003/26/16 23:00:31  5-MIN KAMG 270400Z AUTO 00000KT 10SM BKN050 18/17 A3019 -40 96 300 000/00 RMK AO2 T01780172
13870KAMG AMG20160326230511003/26/16 23:05:31  5-MIN KAMG 270405Z AUTO 28003KT 10SM BKN050 18/17 A3019 -40 96 300 290/03 RMK AO2 T01780172
13870KAMG AMG20160326231011003/26/16 23:10:31  5-MIN KAMG 270410Z AUTO 32003KT 10SM BKN050 18/17 A3019 -40 93 300 330/03 RMK AO2 T01780167
13870KAMG AMG20160326231511003/26/16 23:15:31  5-MIN KAMG 270415Z AUTO 35003KT 10SM OVC048 18/17 A3019 -40 93 400 360/03 RMK AO2 T01830172
13870KAMG AMG20160326232011003/26/16 23:20:31  5-MIN KAMG 270420Z AUTO 00000KT 10SM OVC048 18/17 A3018 -40 93 400 000/00 RMK AO2 T01830172
13870KAMG AMG20160326232511003/26/16 23:25:31  5-MIN KAMG 270425Z AUTO 07003KT 10SM OVC048 18/17 A3017 -30 93 400 070/03 RMK AO2 T01830172
13870KAMG AMG20160326233011703/26/16 23:30:31  5-MIN KAMG 270430Z AUTO 06004KT 10SM BKN048 18/17 A3016 -20 96 300 070/04 RMK AO2 PRESFR T01780172
13870KAMG AMG20160326233511003/26/16 23:35:31  5-MIN KAMG 270435Z AUTO 06004KT 10SM BKN047 18/17 A3016 -10 93 300 070/04 RMK AO2 T01780167
13870KAMG AMG20160326234011703/26/16 23:40:31  5-MIN KAMG 270440Z AUTO 07005KT 10SM SCT047 18/17 A3015 -10 93 400 080/05 RMK AO2 PRESFR T01780167
13870KAMG AMG20160326234511503/26/16 23:45:31  5-MIN KAMG 270445Z AUTO 09006KT 10SM SCT047 18/17 A3015 0 93 400 090/06 RMK AO2 PRESFR T01780167
13870KAMG AMG20160326235013203/26/16 23:50:31  5-MIN KAMG 270450Z AUTO 09007KT 10SM FEW046 18/17 A3014 0 93 400 100/07 RMK AO2 PRESFR SLP203 T01780167 402560167
13870KAMG AMG20160326235510503/26/16 23:55:31  5-MIN KAMG 270455Z AUTO 11007KT 10SM CLR 18/17 A3014 0 90 400 120/07 RMK AO2 T01830167
13870KAMG AMG20160327000010603/27/16 00:00:31  5-MIN KAMG 270500Z AUTO 10008KT 10SM CLR 18/17 A3013 10 90 400 110/08 RMK AO2 T01830167
13870KAMG AMG20160327000510603/27/16 00:05:31  5-MIN KAMG 270505Z AUTO 09005KT 10SM CLR 18/17 A3013 10 90 400 090/05 RMK AO2 T01830167
13870KAMG AMG20160327001010603/27/16 00:10:31  5-MIN KAMG 270510Z AUTO 08006KT 10SM CLR 18/17 A3013 10 90 400 090/06 RMK AO2 T01830167
13870KAMG AMG20160327001510603/27/16 00:15:31  5-MIN KAMG 270515Z AUTO 09006KT 10SM CLR 18/17 A3013 10 90 400 090/06 RMK AO2 T01830167
13870KAMG AMG20160327002010603/27/16 00:20:31  5-MIN KAMG 270520Z AUTO 09007KT 10SM CLR 19/17 A3013 10 90 500 090/07 RMK AO2 T01890172
13870KAMG AMG20160327002510503/27/16 00:25:31  5-MIN KAMG 270525Z AUTO 08006KT 10SM CLR 19/17 A3014 0 90 500 090/06 RMK AO2 T01890172
13870KAMG AMG20160327003010503/27/16 00:30:31  5-MIN KAMG 270530Z AUTO 08004KT 10SM CLR 19/17 A3014 0 90 500 090/04 RMK AO2 T01890172
13870KAMG AMG20160327003510503/27/16 00:35:31  5-MIN KAMG 270535Z AUTO 10006KT 10SM CLR 19/17 A3014 0 90 500 110/06 RMK AO2 T01890172
13870KAMG AMG20160327004010503/27/16 00:40:31  5-MIN KAMG 270540Z AUTO 11006KT 10SM CLR 19/17 A3014 0 90 500 110/06 RMK AO2 T01890172
13870KAMG AMG20160327004510503/27/16 00:45:31  5-MIN KAMG 270545Z AUTO 11007KT 10SM CLR 19/17 A3014 0 90 500 110/07 RMK AO2 T01890172
13870KAMG AMG20160327005013303/27/16 00:50:31  5-MIN KAMG 270550Z AUTO 12008KT 10SM FEW110 19/17 A3014 0 90 500 120/08 RMK AO2 SLP203 T01890172 10200 20172 50026
13870KAMG AMG20160327005510803/27/16 00:55:31  5-MIN KAMG 270555Z AUTO 12007KT 10SM SCT110 19/17 A3014 0 90 500 130/07 RMK AO2 T01890172
13870KAMG AMG20160327010010803/27/16 01:00:31  5-MIN KAMG 270600Z AUTO 13007KT 10SM SCT110 19/17 A3014 0 90 500 130/07 RMK AO2 T01890172
13870KAMG AMG20160327010510803/27/16 01:05:31  5-MIN KAMG 270605Z AUTO 13006KT 10SM SCT110 19/17 A3014 0 90 500 140/06 RMK AO2 T01890172
13870KAMG AMG20160327011010903/27/16 01:10:31  5-MIN KAMG 270610Z AUTO 13006KT 10SM FEW110 19/17 A3013 10 90 500 130/06 RMK AO2 T01890172
13870KAMG AMG20160327011510803/27/16 01:15:31  5-MIN KAMG 270615Z AUTO 11004KT 10SM FEW110 19/17 A3014 0 87 600 120/04 RMK AO2 T01940172
13870KAMG AMG20160327012011003/27/16 01:20:31  5-MIN KAMG 270620Z AUTO 00000KT 10SM FEW120 19/17 A3015 -10 87 500 000/00 RMK AO2 T01940172
13870KAMG AMG20160327012511403/27/16 01:25:31  5-MIN KAMG 270625Z AUTO 00000KT 10SM CLR 19/17 A3016 -10 87 500 000/00 RMK AO2 PRESRR T01940172
13870KAMG AMG20160327013011403/27/16 01:30:31  5-MIN KAMG 270630Z AUTO 30005KT 10SM CLR 19/17 A3017 -20 87 500 300/05 RMK AO2 PRESRR T01940172
13870KAMG AMG20160327013510703/27/16 01:35:31  5-MIN KAMG 270635Z AUTO 31007KT 10SM CLR 19/17 A3017 -20 90 500 310/07 RMK AO2 T01890172
13870KAMG AMG20160327014010703/27/16 01:40:31  5-MIN KAMG 270640Z AUTO 31006KT 10SM CLR 19/17 A3017 -20 87 500 310/06 RMK AO2 T01940172
13870KAMG AMG20160327014510703/27/16 01:45:31  5-MIN KAMG 270645Z AUTO 29003KT 10SM CLR 19/17 A3017 -20 90 500 300/03 RMK AO2 T01890172
13870KAMG AMG20160327015011403/27/16 01:50:31  5-MIN KAMG 270650Z AUTO 00000KT 10SM CLR 19/17 A3016 -20 90 500 000/00 RMK AO2 SLP212 T01890172
13870KAMG AMG20160327015510703/27/16 01:55:31  5-MIN KAMG 270655Z AUTO 00000KT 10SM CLR 19/17 A3016 -10 90 500 000/00 RMK AO2 T01890172
13870KAMG AMG20160327020010703/27/16 02:00:31  5-MIN KAMG 270700Z AUTO 00000KT 10SM CLR 18/17 A3015 -10 93 400 000/00 RMK AO2 T01830172
13870KAMG AMG20160327020510503/27/16 02:05:31  5-MIN KAMG 270705Z AUTO 06003KT 10SM CLR 18/17 A3015 0 93 400 060/03 RMK AO2 T01830172
13870KAMG AMG20160327021010503/27/16 02:10:31  5-MIN KAMG 270710Z AUTO 00000KT 10SM CLR 18/17 A3015 0 93 400 000/00 RMK AO2 T01830172
13870KAMG AMG20160327021510503/27/16 02:15:31  5-MIN KAMG 270715Z AUTO 00000KT 10SM CLR 18/17 A3015 0 96 400 000/00 RMK AO2 T01780172
13870KAMG AMG20160327022010503/27/16 02:20:31  5-MIN KAMG 270720Z AUTO 00000KT 10SM CLR 18/17 A3014 0 96 400 000/00 RMK AO2 T01780172
13870KAMG AMG20160327022510503/27/16 02:25:31  5-MIN KAMG 270725Z AUTO 00000KT 10SM CLR 18/17 A3014 0 96 400 000/00 RMK AO2 T01780172
13870KAMG AMG20160327023010803/27/16 02:30:31  5-MIN KAMG 270730Z AUTO 00000KT 10SM FEW028 18/17 A3015 0 93 400 000/00 RMK AO2 T01830172
13870KAMG AMG20160327023511503/27/16 02:35:31  5-MIN KAMG 270735Z AUTO 00000KT 10SM FEW024 SCT032 18/17 A3014 0 93 400 000/00 RMK AO2 T01830172
13870KAMG AMG20160327024011503/27/16 02:40:31  5-MIN KAMG 270740Z AUTO 00000KT 10SM SCT027 BKN034 18/17 A3014 0 96 400 000/00 RMK AO2 T01780172
13870KAMG AMG20160327024511603/27/16 02:45:31  5-MIN KAMG 270745Z AUTO 05003KT 10SM BKN025 BKN110 18/17 A3013 10 96 400 050/03 RMK AO2 T01780172
13870KAMG AMG20160327025012303/27/16 02:50:31  5-MIN KAMG 270750Z AUTO 00000KT 10SM SCT025 BKN110 18/17 A3013 10 96 400 000/00 RMK AO2 SLP200 T01780172
13870KAMG AMG20160327025511603/27/16 02:55:31  5-MIN KAMG 270755Z AUTO 00000KT 10SM SCT025 BKN110 18/17 A3012 20 93 500 000/00 RMK AO2 T01830172
13870KAMG AMG20160327030012303/27/16 03:00:31  5-MIN KAMG 270800Z AUTO 11003KT 10SM SCT025 SCT080 OVC110 18/17 A3012 20 96 400 120/03 RMK AO2 T01780172
13870KAMG AMG20160327030512303/27/16 03:05:31  5-MIN KAMG 270805Z AUTO 11004KT 10SM FEW025 SCT075 OVC110 18/17 A3012 20 96 400 120/04 RMK AO2 T01780172
13870KAMG AMG20160327031013003/27/16 03:10:31  5-MIN KAMG 270810Z AUTO 10006KT 10SM FEW025 SCT100 OVC120 18/17 A3011 30 93 500 110/06 RMK AO2 PRESFR T01830172
13870KAMG AMG20160327031511603/27/16 03:15:31  5-MIN KAMG 270815Z AUTO 12005KT 10SM FEW080 OVC110 18/18 A3010 30 96 500 120/05 RMK AO2 T01830178
13870KAMG AMG20160327032011603/27/16 03:20:31  5-MIN KAMG 270820Z AUTO 12006KT 10SM FEW080 OVC120 18/18 A3010 40 96 500 130/06 RMK AO2 T01830178
13870KAMG AMG20160327032511603/27/16 03:25:31  5-MIN KAMG 270825Z AUTO 13007KT 10SM FEW100 BKN120 18/18 A3010 40 96 500 130/07 RMK AO2 T01830178
13870KAMG AMG20160327033010903/27/16 03:30:31  5-MIN KAMG 270830Z AUTO 12006KT 10SM BKN120 18/18 A3009 40 96 500 130/06 RMK AO2 T01830178
13870KAMG AMG20160327033510903/27/16 03:35:31  5-MIN KAMG 270835Z AUTO 14006KT 10SM OVC120 19/18 A3010 40 93 500 140/06 RMK AO2 T01890178
13870KAMG AMG20160327034011603/27/16 03:40:31  5-MIN KAMG 270840Z AUTO 15005KT 10SM FEW095 OVC120 19/18 A3010 30 93 500 150/05 RMK AO2 T01890178
13870KAMG AMG20160327034509903/27/16 03:45:31  5-MIN KAMG 270845Z AUTO 10SM OVC110 19/18 A3012 20 93 500 M /M RMK AO2 T01890178
13870KAMG AMG20160327035010603/27/16 03:50:31  5-MIN KAMG 270850Z AUTO 32008KT 10SM FEW008 OVC110 19/18 A3011 20 93 500 320/08 RMK AO2
13870KAMG AMG20160327035511603/27/16 03:55:31  5-MIN KAMG 270855Z AUTO 00000KT 10SM FEW008 BKN110 19/18 A3011 30 93 500 000/00 RMK AO2 T01890178
13870KAMG AMG20160327040010903/27/16 04:00:31  5-MIN KAMG 270900Z AUTO 30003KT 10SM SCT110 19/18 A3012 20 93 500 310/03 RMK AO2 T01890178
13870KAMG AMG20160327040511603/27/16 04:05:31  5-MIN KAMG 270905Z AUTO 31006KT 10SM FEW010 SCT100 19/17 A3012 20 90 500 310/06 RMK AO2 T01890172
13870KAMG AMG20160327041011603/27/16 04:10:31  5-MIN KAMG 270910Z AUTO 00000KT 10SM FEW013 SCT110 19/18 A3011 20 93 500 000/00 RMK AO2 T01890178
13870KAMG AMG20160327041511603/27/16 04:15:31  5-MIN KAMG 270915Z AUTO 09003KT 10SM FEW013 FEW110 18/17 A3011 30 93 500 090/03 RMK AO2 T01830172
13870KAMG AMG20160327042010903/27/16 04:20:31  5-MIN KAMG 270920Z AUTO 00000KT 10SM FEW120 18/17 A3011 30 93 500 000/00 RMK AO2 T01830172
13870KAMG AMG20160327042510903/27/16 04:25:31  5-MIN KAMG 270925Z AUTO 00000KT 10SM FEW120 18/17 A3011 30 93 500 000/00 RMK AO2 T01830172
13870KAMG AMG20160327043010903/27/16 04:30:31  5-MIN KAMG 270930Z AUTO 00000KT 10SM FEW120 18/17 A3011 30 96 400 000/00 RMK AO2 T01780172
13870KAMG AMG20160327043510903/27/16 04:35:31  5-MIN KAMG 270935Z AUTO 00000KT 10SM FEW120 18/17 A3011 30 96 400 000/00 RMK AO2 T01780172
13870KAMG AMG20160327044010503/27/16 04:40:31  5-MIN KAMG 270940Z AUTO 08003KT 9SM CLR 18/17 A3011 30 96 400 090/03 RMK AO2 T01780172
13870KAMG AMG20160327044510603/27/16 04:45:31  5-MIN KAMG 270945Z AUTO 00000KT 8SM CLR 17/17 A3011 20 100 300 000/00 RMK AO2 T01720172
13870KAMG AMG20160327045011503/27/16 04:50:31  5-MIN KAMG 270950Z AUTO 00000KT 8SM FEW110 18/17 A3011 20 96 400 000/00 RMK AO2 SLP195 T01780172
13870KAMG AMG20160327045510803/27/16 04:55:31  5-MIN KAMG 270955Z AUTO 00000KT 9SM FEW110 18/17 A3011 30 96 400 000/00 RMK AO2 T01780172
13870KAMG AMG20160327050010803/27/16 05:00:31  5-MIN KAMG 271000Z AUTO 00000KT 9SM SCT110 18/17 A3011 20 96 400 000/00 RMK AO2 T01780172
13870KAMG AMG20160327050510803/27/16 05:05:31  5-MIN KAMG 271005Z AUTO 00000KT 9SM BKN110 18/17 A3012 20 96 400 000/00 RMK AO2 T01780172
13870KAMG AMG20160327051010803/27/16 05:10:31  5-MIN KAMG 271010Z AUTO 00000KT 9SM BKN110 18/17 A3011 20 96 400 000/00 RMK AO2 T01780172
13870KAMG AMG20160327051510803/27/16 05:15:31  5-MIN KAMG 271015Z AUTO 00000KT 8SM BKN110 18/17 A3011 20 96 400 000/00 RMK AO2 T01780172
13870KAMG AMG20160327052010803/27/16 05:20:31  5-MIN KAMG 271020Z AUTO 00000KT 9SM OVC110 18/17 A3012 20 96 400 000/00 RMK AO2 T01780172
13870KAMG AMG20160327052510803/27/16 05:25:31  5-MIN KAMG 271025Z AUTO 00000KT 9SM OVC110 18/18 A3012 20 96 500 000/00 RMK AO2 T01830178
13870KAMG AMG20160327053010903/27/16 05:30:31  5-MIN KAMG 271030Z AUTO 32003KT 10SM OVC110 18/18 A3013 10 96 400 320/03 RMK AO2 T01830178
13870KAMG AMG20160327053511603/27/16 05:35:31  5-MIN KAMG 271035Z AUTO 33003KT 10SM FEW075 OVC100 18/18 A3013 10 96 400 340/03 RMK AO2 T01830178
13870KAMG AMG20160327054011503/27/16 05:40:31  5-MIN KAMG 271040Z AUTO 34003KT 9SM FEW075 OVC100 18/18 A3013 10 96 400 340/03 RMK AO2 T01830178
13870KAMG AMG20160327054511503/27/16 05:45:31  5-MIN KAMG 271045Z AUTO 00000KT 8SM FEW075 OVC110 18/18 A3013 10 96 400 000/00 RMK AO2 T01830178
13870KAMG AMG20160327055012203/27/16 05:50:31  5-MIN KAMG 271050Z AUTO 00000KT 8SM FEW075 OVC110 18/18 A3013 10 96 400 000/00 RMK AO2 SLP199 T01830178
13870KAMG AMG20160327055511503/27/16 05:55:31  5-MIN KAMG 271055Z AUTO 00000KT 8SM FEW075 OVC110 18/18 A3012 10 96 400 000/00 RMK AO2 T01830178
13870KAMG AMG20160327060011603/27/16 06:00:31  5-MIN KAMG 271100Z AUTO 00000KT 8SM FEW075 BKN110 18/18 A3012 20 100 400 000/00 RMK AO2 T01780178
13870KAMG AMG20160327060510803/27/16 06:05:31  5-MIN KAMG 271105Z AUTO 00000KT 7SM BKN110 18/17 A3012 20 96 400 000/00 RMK AO2 T01780172
13870KAMG AMG20160327061010803/27/16 06:10:31  5-MIN KAMG 271110Z AUTO 07003KT 7SM SCT110 18/17 A3012 20 96 400 070/03 RMK AO2 T01780172
13870KAMG AMG20160327061510803/27/16 06:15:31  5-MIN KAMG 271115Z AUTO 10003KT 7SM SCT110 18/17 A3012 20 96 400 100/03 RMK AO2 T01780172
13870KAMG AMG20160327062010803/27/16 06:20:31  5-MIN KAMG 271120Z AUTO 00000KT 7SM FEW120 18/17 A3012 20 96 400 000/00 RMK AO2 T01780172
13870KAMG AMG20160327062511803/27/16 06:25:31  5-MIN KAMG 271125Z AUTO 06004KT 6SM BR FEW014 FEW095 18/17 A3012 20 96 400 060/04 RMK AO2 T01780172
13870KAMG AMG20160327063011603/27/16 06:30:31  5-MIN KAMG 271130Z AUTO 00000KT 7SM SCT014 SCT095 18/18 A3012 10 100 400 000/00 RMK AO2 T01780178
13870KAMG AMG20160327063511503/27/16 06:35:31  5-MIN KAMG 271135Z AUTO 00000KT 8SM BKN014 BKN095 18/18 A3013 10 96 400 000/00 RMK AO2 T01830178
13870KAMG AMG20160327064011503/27/16 06:40:31  5-MIN KAMG 271140Z AUTO 00000KT 8SM BKN014 BKN095 18/18 A3013 10 96 400 000/00 RMK AO2 T01830178
13870KAMG AMG20160327064511503/27/16 06:45:31  5-MIN KAMG 271145Z AUTO 00000KT 7SM BKN014 BKN095 19/18 A3013 10 93 500 000/00 RMK AO2 T01890178
13870KAMG AMG20160327065013303/27/16 06:50:31  5-MIN KAMG 271150Z AUTO 06003KT 7SM OVC014 19/18 A3013 10 93 500 070/03 RMK AO2 SLP201 T01890178 10189 20172 58010
13870KAMG AMG20160327065511103/27/16 06:55:31  5-MIN KAMG 271155Z AUTO 00000KT 6SM BR OVC014 19/18 A3013 10 93 500 000/00 RMK AO2 T01890178
13870KAMG AMG20160327070011103/27/16 07:00:31  5-MIN KAMG 271200Z AUTO 00000KT 6SM BR OVC014 19/18 A3013 10 93 500 000/00 RMK AO2 T01890178
13870KAMG AMG20160327070510803/27/16 07:05:31  5-MIN KAMG 271205Z AUTO 00000KT 7SM OVC014 19/18 A3013 10 97 500 000/00 RMK AO2 T01890183
13870KAMG AMG20160327071010803/27/16 07:10:31  5-MIN KAMG 271210Z AUTO 07003KT 7SM OVC014 19/18 A3013 10 97 500 070/03 RMK AO2 T01890183
13870KAMG AMG20160327071510803/27/16 07:15:31  5-MIN KAMG 271215Z AUTO 06003KT 7SM OVC015 19/18 A3013 10 97 500 070/03 RMK AO2 T01890183
13870KAMG AMG20160327072010803/27/16 07:20:31  5-MIN KAMG 271220Z AUTO 06003KT 7SM OVC015 19/18 A3013 10 97 500 070/03 RMK AO2 T01890183
13870KAMG AMG20160327072510803/27/16 07:25:31  5-MIN KAMG 271225Z AUTO 07003KT 7SM OVC015 19/18 A3013 10 97 500 070/03 RMK AO2 T01890183
13870KAMG AMG20160327073010703/27/16 07:30:31  5-MIN KAMG 271230Z AUTO 08003KT 7SM OVC015 19/18 A3013 0 97 500 080/03 RMK AO2 T01890183
13870KAMG AMG20160327073510703/27/16 07:35:31  5-MIN KAMG 271235Z AUTO 08003KT 7SM OVC015 19/18 A3013 0 97 500 090/03 RMK AO2 T01890183
13870KAMG AMG20160327074010703/27/16 07:40:31  5-MIN KAMG 271240Z AUTO 08003KT 7SM OVC015 19/18 A3014 0 97 500 080/03 RMK AO2 T01890183
13870KAMG AMG20160327074510703/27/16 07:45:31  5-MIN KAMG 271245Z AUTO VRB03KT 7SM OVC015 19/18 A3014 0 93 600 VRB/03 RMK AO2 T01940183
13870KAMG AMG20160327075009703/27/16 07:50:31  5-MIN KAMG 271250Z AUTO VRB03KT 8SM OVC014 19/18 A3015 0 93 600 VRB/03 RMK AO2
13870KAMG AMG20160327075510703/27/16 07:55:31  5-MIN KAMG 271255Z AUTO 00000KT 8SM OVC014 19/18 A3015 0 93 600 000/00 RMK AO2 T01940183
13870KAMG AMG20160327080010903/27/16 08:00:31  5-MIN KAMG 271300Z AUTO 00000KT 7SM OVC014 19/18 A3015 -10 93 500 000/00 RMK AO2 T01940183
13870KAMG AMG20160327080512803/27/16 08:05:31  5-MIN KAMG 271305Z AUTO 00000KT 5SM -RA BR OVC014 19/18 A3015 -10 93 500 000/00 RMK AO2 RAB02 P0000 T01940183
13870KAMG AMG20160327081012803/27/16 08:10:31  5-MIN KAMG 271310Z AUTO 00000KT 4SM -RA BR OVC014 19/18 A3015 -10 93 500 000/00 RMK AO2 RAB02 P0000 T01940183
13870KAMG AMG20160327081512603/27/16 08:15:31  5-MIN KAMG 271315Z AUTO 06003KT 5SM -RA BR OVC015 19/18 A3015 0 93 600 060/03 RMK AO2 RAB02 P0000 T01940183
13870KAMG AMG20160327082012603/27/16 08:20:31  5-MIN KAMG 271320Z AUTO 00000KT 5SM -RA BR OVC015 19/19 A3015 0 97 600 000/00 RMK AO2 RAB02 P0000 T01940189
13870KAMG AMG20160327082512603/27/16 08:25:31  5-MIN KAMG 271325Z AUTO 00000KT 5SM -RA BR OVC015 19/19 A3015 0 97 600 000/00 RMK AO2 RAB02 P0000 T01940189
13870KAMG AMG20160327083013603/27/16 08:30:31  5-MIN KAMG 271330Z AUTO 04003KT 5SM BR OVC014 19/19 A3014 0 97 600 050/03 RMK AO2 LTG DSNT W RAB02E26 P0000 T01940189
13870KAMG AMG20160327083513603/27/16 08:35:31  5-MIN KAMG 271335Z AUTO 09003KT 5SM BR OVC014 19/19 A3014 0 97 600 090/03 RMK AO2 LTG DSNT W RAB02E26 P0000 T01940189
13870KAMG AMG20160327084013603/27/16 08:40:31  5-MIN KAMG 271340Z AUTO 10003KT 5SM BR OVC014 19/19 A3014 0 97 600 110/03 RMK AO2 LTG DSNT W RAB02E26 P0000 T01940189
13870KAMG AMG20160327084513603/27/16 08:45:31  5-MIN KAMG 271345Z AUTO 10003KT 5SM BR OVC014 19/19 A3014 0 97 600 100/03 RMK AO2 LTG DSNT W RAB02E26 P0000 T01940189
13870KAMG AMG20160327085013103/27/16 08:50:31  5-MIN KAMG 271350Z AUTO 07003KT 5SM VCTS BR OVC014 19/19 A3014 0 97 600 080/03 RMK AO2 LTG DSNT W RAB02E26 P0000
13870KAMG AMG20160327085512603/27/16 08:55:31  5-MIN KAMG 271355Z AUTO 09004KT 5SM VCTS BR OVC014 19/19 A3014 0 97 600 090/04 RMK AO2 LTG DSNT W T01940189
13870KAMG AMG20160327090012703/27/16 09:00:31  5-MIN KAMG 271400Z AUTO 09005KT 5SM VCTS BR OVC014 19/19 A3013 10 97 600 090/05 RMK AO2 LTG DSNT W T01940189
13870KAMG AMG20160327090513403/27/16 09:05:31  5-MIN KAMG 271405Z AUTO 06004KT 5SM VCTS BR OVC014 19/19 A3013 10 97 600 070/04 RMK AO2 LTG DSNT W AND NW T01940189
13870KAMG AMG20160327091012903/27/16 09:10:31  5-MIN KAMG 271410Z AUTO 05003KT 6SM BR OVC014 19/19 A3013 10 97 600 050/03 RMK AO2 LTG DSNT N AND NW T01940189
13870KAMG AMG20160327091512903/27/16 09:15:31  5-MIN KAMG 271415Z AUTO 06003KT 6SM BR OVC013 19/19 A3013 10 97 600 060/03 RMK AO2 LTG DSNT N AND NW T01940189
13870KAMG AMG20160327092012503/27/16 09:20:31  5-MIN KAMG 271420Z AUTO 07004KT 6SM BR OVC013 19/19 A3013 10 97 600 080/04 RMK AO2 LTG DSNT NW-E T01940189
13870KAMG AMG20160327092512503/27/16 09:25:31  5-MIN KAMG 271425Z AUTO 05005KT 5SM BR OVC013 19/19 A3012 10 97 600 060/05 RMK AO2 LTG DSNT NW-E T01940189
13870KAMG AMG20160327093012603/27/16 09:30:31  5-MIN KAMG 271430Z AUTO 05004KT 5SM BR OVC013 20/19 A3012 10 97 600 060/04 RMK AO2 LTG DSNT ALQDS T02000194
13870KAMG AMG20160327093515103/27/16 09:35:31  5-MIN KAMG 271435Z AUTO 36003KT 4SM -RA BR OVC014 19/19 A3013 10 97 600 010/03 RMK AO2 LTG DSNT N AND S AND NW RAB35 P0000 T01940189
13870KAMG AMG20160327094014303/27/16 09:40:31  5-MIN KAMG 271440Z AUTO 35004KT 2SM RA BR OVC014 19/19 A3013 10 97 600 360/04 RMK AO2 LTG DSNT N AND S RAB35 P0002 T01940189
13870KAMG AMG20160327094514503/27/16 09:45:31  5-MIN KAMG 271445Z AUTO 02003KT 2SM -RA BR OVC013 19/19 A3013 10 100 600 030/03 RMK AO2 LTG DSNT N AND S RAB35 P0002 T01940194
13870KAMG AMG20160327095013603/27/16 09:50:31  5-MIN KAMG 271450Z AUTO 08003KT 3SM -RA BR OVC013 19/19 A3013 10 100 600 080/03 RMK AO2 LTG DSNT S AND NW RAB35 P0003
13870KAMG AMG20160327095514603/27/16 09:55:31  5-MIN KAMG 271455Z AUTO 08003KT 3SM -RA BR OVC013 19/19 A3012 10 100 600 090/03 RMK AO2 LTG DSNT N AND S AND NW P0000 T01940194
13870KAMG AMG20160327100014603/27/16 10:00:31  5-MIN KAMG 271500Z AUTO 11005KT 3SM -RA BR OVC013 19/19 A3012 20 100 600 110/05 RMK AO2 LTG DSNT N AND S AND NW P0001 T01940194
13870KAMG AMG20160327100514203/27/16 10:05:31  5-MIN KAMG 271505Z AUTO 10004KT 1 1/2SM RA BR OVC013 19/19 A3012 20 100 600 100/04 RMK AO2 LTG DSNT N AND S P0005 T01940194
13870KAMG AMG20160327101014003/27/16 10:10:31  5-MIN KAMG 271510Z AUTO 00000KT 1SM +RA BR BKN013 OVC021 19/19 A3012 20 100 600 000/00 RMK AO2 LTG DSNT N P0008 T01940194
13870KAMG AMG20160327101514703/27/16 10:15:31  5-MIN KAMG 271515Z AUTO 00000KT 1SM -RA BR FEW007 BKN013 OVC021 19/19 A3013 10 100 600 000/00 RMK AO2 LTG DSNT N P0009 T01940194
13870KAMG AMG20160327102013203/27/16 10:20:31  5-MIN KAMG 271520Z AUTO 00000KT 1 1/2SM RA BR SCT005 OVC013 19/19 A3012 20 100 600 000/00 RMK AO2 P0011 T01940194
13870KAMG AMG20160327102515703/27/16 10:25:31  5-MIN KAMG 271525Z AUTO 00000KT 1 1/2SM -RA BR BKN005 OVC013 20/20 A3012 20 100 600 000/00 RMK AO2 LTG DSNT NE CIG 003V009 P0011 T02000200
13870KAMG AMG20160327103015203/27/16 10:30:31  5-MIN KAMG 271530Z AUTO 27004KT 3SM -RA BR BKN005 OVC013 20/19 A3012 20 97 700 280/04 RMK AO2 LTG DSNT NE CIG 003V009 P0011 T02000194
13870KAMG AMG20160327103515403/27/16 10:35:31  5-MIN KAMG 271535Z AUTO 30003KT 4SM BR BKN005 OVC013 20/19 A3011 20 97 700 300/03 RMK AO2 LTG DSNT NE RAE33 CIG 003V009 P0011 T02000194
13870KAMG AMG20160327104013603/27/16 10:40:31  5-MIN KAMG 271540Z AUTO 31003KT 5SM BR OVC005 20/20 A3011 30 100 700 310/03 RMK AO2 LTG DSNT NE RAE33 P0011 T02000200
13870KAMG AMG20160327104512303/27/16 10:45:31  5-MIN KAMG 271545Z AUTO 31004KT 5SM BR OVC005 21/20 A3011 20 97 700 320/04 RMK AO2 RAE33 P0011 T02060200
13870KAMG AMG20160327105013003/27/16 10:50:31  5-MIN KAMG 271550Z AUTO 32005KT 5SM BR OVC005 21/20 A3011 30 97 700 320/05 RMK AO2 RAE33 SLP194 P0011 T02060200
13870KAMG AMG20160327105511103/27/16 10:55:31  5-MIN KAMG 271555Z AUTO 34004KT 6SM BR OVC005 21/20 A3011 30 97 700 340/04 RMK AO2 T02060200
13870KAMG AMG20160327110011103/27/16 11:00:31  5-MIN KAMG 271600Z AUTO 34004KT 6SM BR OVC005 21/20 A3011 30 97 700 350/04 RMK AO2 T02060200
13870KAMG AMG20160327110511103/27/16 11:05:31  5-MIN KAMG 271605Z AUTO 35003KT 6SM BR OVC005 21/20 A3011 30 97 700 350/03 RMK AO2 T02060200
13870KAMG AMG20160327111012003/27/16 11:10:31  5-MIN KAMG 271610Z AUTO 00000KT 7SM OVC005 21/21 A3011 30 97 800 000/00 RMK AO2 CIG 003V009 T02110206
13870KAMG AMG20160327111512003/27/16 11:15:31  5-MIN KAMG 271615Z AUTO 00000KT 7SM OVC005 21/20 A3010 30 93 800 000/00 RMK AO2 CIG 004V009 T02110200
13870KAMG AMG20160327112010803/27/16 11:20:31  5-MIN KAMG 271620Z AUTO 00000KT 7SM OVC005 21/20 A3010 40 93 800 000/00 RMK AO2 T02110200
13870KAMG AMG20160327112511103/27/16 11:25:31  5-MIN KAMG 271625Z AUTO 00000KT 6SM BR OVC005 21/21 A3010 40 97 800 000/00 RMK AO2 T02110206
13870KAMG AMG20160327113012003/27/16 11:30:31  5-MIN KAMG 271630Z AUTO 00000KT 7SM OVC005 21/21 A3009 40 97 800 000/00 RMK AO2 CIG 004V009 T02110206
13870KAMG AMG20160327113512703/27/16 11:35:31  5-MIN KAMG 271635Z AUTO 00000KT 8SM BKN005 OVC013 21/21 A3009 50 97 800 000/00 RMK AO2 CIG 004V009 T02110206
13870KAMG AMG20160327114013403/27/16 11:40:31  5-MIN KAMG 271640Z AUTO 05004KT 8SM BKN005 BKN013 OVC100 22/21 A3008 50 97 900 060/04 RMK AO2 CIG 004V009 T02170211
13870KAMG AMG20160327114511503/27/16 11:45:31  5-MIN KAMG 271645Z AUTO 00000KT 8SM BKN007 OVC100 22/21 A3008 50 93 900 000/00 RMK AO2 T02170206
13870KAMG AMG20160327115011203/27/16 11:50:31  5-MIN KAMG 271650Z AUTO 00000KT 9SM SCT007 BKN055 OVC100 22/21 A3008 50 93 900 000/00 RMK AO2
13870KAMG AMG20160327115512303/27/16 11:55:31  5-MIN KAMG 271655Z AUTO 00000KT 9SM SCT009 SCT050 OVC100 22/21 A3008 60 90 1000 000/00 RMK AO2 T02220206
13870KAMG AMG20160327120012303/27/16 12:00:31  5-MIN KAMG 271700Z AUTO 00000KT 9SM FEW011 SCT050 BKN100 22/21 A3008 60 90 1000 000/00 RMK AO2 T02220206
13870KAMG AMG20160327120512303/27/16 12:05:31  5-MIN KAMG 271705Z AUTO 06003KT 9SM FEW009 SCT050 BKN100 22/21 A3008 60 90 1000 070/03 RMK AO2 T02220206
13870KAMG AMG20160327121012303/27/16 12:10:31  5-MIN KAMG 271710Z AUTO 00000KT 10SM FEW007 SCT050 BKN100 22/21 A3008 60 93 900 000/00 RMK AO2 T02170206
13870KAMG AMG20160327121512403/27/16 12:15:31  5-MIN KAMG 271715Z AUTO 00000KT 10SM FEW007 SCT047 BKN100 22/21 A3007 60 90 1000 000/00 RMK AO2 T02220206
13870KAMG AMG20160327122012403/27/16 12:20:31  5-MIN KAMG 271720Z AUTO 00000KT 10SM FEW007 SCT049 BKN110 22/21 A3007 60 90 1000 000/00 RMK AO2 T02220206
13870KAMG AMG20160327122511703/27/16 12:25:31  5-MIN KAMG 271725Z AUTO 00000KT 10SM FEW008 BKN110 22/20 A3007 60 87 1000 000/00 RMK AO2 T02220200
13870KAMG AMG20160327123011703/27/16 12:30:31  5-MIN KAMG 271730Z AUTO 00000KT 10SM FEW008 BKN100 22/20 A3007 60 87 1000 000/00 RMK AO2 T02220200
13870KAMG AMG20160327123511603/27/16 12:35:31  5-MIN KAMG 271735Z AUTO 00000KT 10SM SCT008 OVC100 22/20 A3007 60 90 900 000/00 RMK AO2 T02170200
13870KAMG AMG20160327124012703/27/16 12:40:31  5-MIN KAMG 271740Z AUTO 00000KT 9SM SCT008 OVC100 22/20 A3007 60 87 1000 000/00 RMK AO2 LTG DSNT S T02220200
13870KAMG AMG20160327124514203/27/16 12:45:31  5-MIN KAMG 271745Z AUTO 00000KT 7SM -RA SCT009 OVC100 22/20 A3007 60 90 900 000/00 RMK AO2 LTG DSNT S RAB45 P0000 T02170200
13870KAMG AMG20160327125014503/27/16 12:50:31  5-MIN KAMG 271750Z AUTO 00000KT 7SM -RA BKN009 OVC100 22/20 A3007 70 87 1000 000/00 RMK AO2 LTG DSNT S RAB45 CIG 008V013 P0000
13870KAMG AMG20160327125512803/27/16 12:55:31  5-MIN KAMG 271755Z AUTO 00000KT 6SM -RA BR BKN011 OVC100 22/21 A3006 70 93 900 000/00 RMK AO2 P0000 T02170206
13870KAMG AMG20160327130014003/27/16 13:00:31  5-MIN KAMG 271800Z AUTO 00000KT 5SM -RA BR BKN011 OVC100 22/21 A3007 70 93 900 000/00 RMK AO2 CIG 008V013 P0001 T02170206
13870KAMG AMG20160327130513903/27/16 13:05:31  5-MIN KAMG 271805Z AUTO 00000KT 4SM -RA BR SCT011 OVC100 22/21 A3006 70 93 900 000/00 RMK AO2 LTG DSNT S P0001 T02170206
13870KAMG AMG20160327131013903/27/16 13:10:31  5-MIN KAMG 271810Z AUTO 00000KT 4SM -RA BR SCT010 OVC100 22/21 A3006 80 93 900 000/00 RMK AO2 LTG DSNT S P0002 T02170206
13870KAMG AMG20160327131513903/27/16 13:15:31  5-MIN KAMG 271815Z AUTO 00000KT 4SM -RA BR FEW010 OVC110 22/21 A3005 80 93 900 000/00 RMK AO2 LTG DSNT S P0002 T02170206
13870KAMG AMG20160327132013903/27/16 13:20:31  5-MIN KAMG 271820Z AUTO 03003KT 4SM -RA BR FEW010 OVC100 22/21 A3005 90 97 900 030/03 RMK AO2 LTG DSNT S P0002 T02170211
13870KAMG AMG20160327132513903/27/16 13:25:31  5-MIN KAMG 271825Z AUTO 03003KT 3SM -RA BR BKN100 OVC110 22/21 A3004 90 97 900 030/03 RMK AO2 LTG DSNT S P0003 T02170211
13870KAMG AMG20160327133013303/27/16 13:30:31  5-MIN KAMG 271830Z AUTO 00000KT 3SM -RA BR OVC100 22/21 A3004 90 97 900 000/00 RMK AO2 LTG DSNT SE P0004 T02170211
13870KAMG AMG20160327133513303/27/16 13:35:31  5-MIN KAMG 271835Z AUTO 00000KT 3SM -RA BR OVC100 22/21 A3004 90 97 900 000/00 RMK AO2 LTG DSNT SE P0004 T02170211
13870KAMG AMG20160327134014603/27/16 13:40:31  5-MIN KAMG 271840Z AUTO 02003KT 4SM -RA BR BKN100 OVC110 21/21 A3005 90 97 900 030/03 RMK AO2 LTG DSNT SE AND S P0004 T02110206
13870KAMG AMG20160327134514603/27/16 13:45:31  5-MIN KAMG 271845Z AUTO 00000KT 4SM -RA BR FEW080 OVC100 22/21 A3004 90 97 900 000/00 RMK AO2 LTG DSNT SE AND S P0005 T02170211
13870KAMG AMG20160327135014603/27/16 13:50:31  5-MIN KAMG 271850Z AUTO 00000KT 3SM -RA BR OVC100 22/21 A3005 90 97 900 000/00 RMK AO2 LTG DSNT SE AND S SLP172 P0005 T02170211
13870KAMG AMG20160327135515003/27/16 13:55:31  5-MIN KAMG 271855Z AUTO 34004KT 2 1/2SM -RA BR FEW080 OVC100 22/21 A3004 90 97 900 350/04 RMK AO2 LTG DSNT SE AND S P0000 T02170211
13870KAMG AMG20160327140015103/27/16 14:00:31  5-MIN KAMG 271900Z AUTO 30005KT 2 1/2SM -RA BR FEW014 SCT080 OVC100 22/21 A3005 80 97 900 300/05 RMK AO2 LTG DSNT SE P0001 T02170211
13870KAMG AMG20160327140514603/27/16 14:05:31  5-MIN KAMG 271905Z AUTO 27004KT 2SM RA BR SCT010 BKN080 OVC100 22/21 A3005 80 97 900 280/04 RMK AO2 LTG DSNT SE P0002 T02170211
13870KAMG AMG20160327141014803/27/16 14:10:31  5-MIN KAMG 271910Z AUTO 27004KT 2SM -RA BR FEW006 BKN015 OVC100 21/21 A3006 70 100 800 280/04 RMK AO2 LTG DSNT SE P0003 T02110211
13870KAMG AMG20160327141514603/27/16 14:15:31  5-MIN KAMG 271915Z AUTO 31005KT 2SM RA BR SCT012 BKN035 OVC095 21/21 A3006 70 100 800 320/05 RMK AO2 LTG DSNT E P0005 T02110211
13870KAMG AMG20160327142014903/27/16 14:20:31  5-MIN KAMG 271920Z AUTO 34007KT 1 3/4SM RA BR SCT012 BKN037 OVC090 21/20 A3005 80 93 900 340/07 RMK AO2 LTG DSNT E P0006 T02110200
13870KAMG AMG20160327142514503/27/16 14:25:31  5-MIN KAMG 271925Z AUTO 32006KT 2SM RA BR FEW008 BKN039 OVC048 21/19 A3006 80 93 800 330/06 RMK AO2 LTG DSNT E P0007 T02060194
13870KAMG AMG20160327143015003/27/16 14:30:31  5-MIN KAMG 271930Z AUTO 32008KT 1 3/4SM +RA BR FEW008 BKN040 OVC050 21/20 A3005 80 97 800 330/08 RMK AO2 LTG DSNT E P0011 T02060200
13870KAMG AMG20160327143514903/27/16 14:35:31  5-MIN KAMG 271935Z AUTO 33007KT 1 1/2SM RA BR FEW007 BKN040 OVC050 21/20 A3004 90 93 900 340/07 RMK AO2 LTG DSNT E P0012 T02110200
13870KAMG AMG20160327144014603/27/16 14:40:31  5-MIN KAMG 271940Z AUTO 33006KT 2SM RA BR FEW010 BKN042 OVC065 21/21 A3004 90 100 800 340/06 RMK AO2 LTG DSNT E P0013 T02060206
13870KAMG AMG20160327144515203/27/16 14:45:31  5-MIN KAMG 271945Z AUTO VRB04KT 2 1/2SM -RA BR SCT008 BKN038 OVC065 21/21 A3003 100 100 800 VRB/04 RMK AO2 LTG DSNT E P0014 T02060206
13870KAMG AMG20160327145015003/27/16 14:50:31  5-MIN KAMG 271950Z AUTO 36007KT 3SM -RA BR SCT008 BKN016 OVC044 21/20 A3002 110 97 800 360/07 RMK AO2 PRESFR SLP165 P0014 T02060200
13870KAMG AMG20160327145513603/27/16 14:55:31  5-MIN KAMG 271955Z AUTO 34005KT 4SM -RA BR SCT007 BKN024 OVC060 21/19 A3003 100 93 800 350/05 RMK AO2 P0000 T02060194
13870KAMG AMG20160327150013503/27/16 15:00:31  5-MIN KAMG 272000Z AUTO 31008KT 3SM -RA BR SCT007 BKN017 OVC060 21/19 A3004 90 93 800 320/08 RMK AO2 P0003 T02060194
13870KAMG AMG20160327150515203/27/16 15:05:31  5-MIN KAMG 272005Z AUTO 32010KT 1 3/4SM +RA BR BKN007 BKN016 OVC030 20/19 A3003 100 97 700 320/10 RMK AO2 CIG 004V011 P0005 T02000194
13870KAMG AMG20160327151015203/27/16 15:10:31  5-MIN KAMG 272010Z AUTO 35007KT 320V020 2SM -RA BR SCT007 BKN016 OVC030 20/19 A3002 110 97 800 350/07 330V030 RMK AO2 P0005 T02000194
13870KAMG AMG20160327151513603/27/16 15:15:31  5-MIN KAMG 272015Z AUTO 35006KT 5SM -RA BR FEW007 BKN022 OVC047 20/19 A3002 110 97 800 350/06 RMK AO2 P0005 T02000194
13870KAMG AMG20160327152013603/27/16 15:20:31  5-MIN KAMG 272020Z AUTO 33005KT 6SM -RA BR FEW007 BKN022 OVC042 19/19 A3002 110 97 700 340/05 RMK AO2 P0005 T01940189
13870KAMG AMG20160327152513603/27/16 15:25:31  5-MIN KAMG 272025Z AUTO 34005KT 5SM -RA BR SCT007 BKN022 OVC042 19/19 A3002 110 97 700 350/05 RMK AO2 P0006 T01940189
13870KAMG AMG20160327153016503/27/16 15:30:31  5-MIN KAMG 272030Z AUTO 27011G16KT 1 1/4SM +RA BR BKN007 BKN024 OVC028 19/19 A3005 80 100 700 280/11G16 RMK AO2 CIG 005V011 PRESRR P0013 T01940194
13870KAMG AMG20160327153514303/27/16 15:35:31  5-MIN KAMG 272035Z AUTO 32005G16KT 1/2SM +RA FG SCT007 BKN016 OVC026 19/19 A3004 90 97 700 320/05G16 RMK AO2 P0029 T01940189
13870KAMG AMG20160327154013803/27/16 15:40:31  5-MIN KAMG 272040Z AUTO 29010KT 1/2SM +RA FG SCT007 BKN020 OVC045 19/19 A3004 90 100 700 300/10 RMK AO2 P0032 T01940194
13870KAMG AMG20160327154513403/27/16 15:45:31  5-MIN KAMG 272045Z AUTO 29007KT 1SM RA BR SCT007 BKN028 OVC060 19/19 A3004 90 97 700 290/07 RMK AO2 P0034 T01940189
13870KAMG AMG20160327155015803/27/16 15:50:31  5-MIN KAMG 272050Z AUTO 32006KT 1 3/4SM RA BR SCT007 BKN026 OVC055 19/19 A3003 100 97 700 330/06 RMK AO2 SLP168 P0035 60055 T01940189 55010
13870KAMG AMG20160327155513503/27/16 15:55:31  5-MIN KAMG 272055Z AUTO 31004KT 3SM -RA BR FEW007 BKN024 OVC055 19/19 A3004 90 97 700 320/04 RMK AO2 P0001 T01940189
13870KAMG AMG20160327160013903/27/16 16:00:31  5-MIN KAMG 272100Z AUTO 32007KT 2 1/2SM RA BR SCT010 BKN031 OVC065 19/19 A3003 100 97 700 320/07 RMK AO2 P0002 T01940189
13870KAMG AMG20160327160513903/27/16 16:05:31  5-MIN KAMG 272105Z AUTO 30006KT 1 3/4SM RA BR SCT010 BKN048 OVC065 19/19 A3003 100 97 700 310/06 RMK AO2 P0005 T01940189
13870KAMG AMG20160327161012903/27/16 16:10:31  5-MIN KAMG 272110Z AUTO 33003KT 1SM +RA BR FEW010 OVC048 19/19 A3003 100 97 700 330/03 RMK AO2 P0009 T01940189
13870KAMG AMG20160327161512803/27/16 16:15:31  5-MIN KAMG 272115Z AUTO 33005KT 1SM RA BR SCT012 OVC048 19/19 A3003 100 97 700 330/05 RMK AO2 P0013 T01940189
13870KAMG AMG20160327162013003/27/16 16:20:31  5-MIN KAMG 272120Z AUTO 33006KT 1SM +RA BR SCT012 OVC046 19/19 A3003 100 100 600 340/06 RMK AO2 P0015 T01890189
13870KAMG AMG20160327162513303/27/16 16:25:31  5-MIN KAMG 272125Z AUTO 35005KT 1 1/4SM RA BR FEW010 OVC044 19/19 A3003 100 100 600 360/05 RMK AO2 P0018 T01890189
13870KAMG AMG20160327163013303/27/16 16:30:31  5-MIN KAMG 272130Z AUTO 33006KT 1 1/2SM RA BR FEW010 OVC044 19/19 A3003 100 100 600 340/06 RMK AO2 P0020 T01890189
13870KAMG AMG20160327163514003/27/16 16:35:31  5-MIN KAMG 272135Z AUTO 33007KT 1 3/4SM RA BR SCT010 SCT016 OVC043 19/19 A3003 100 100 600 330/07 RMK AO2 P0022 T01890189
13870KAMG AMG20160327164013503/27/16 16:40:31  5-MIN KAMG 272140Z AUTO 29010KT 2SM RA BR SCT010 BKN016 OVC043 19/19 A3004 90 100 600 300/10 RMK AO2 P0024 T01890189
13870KAMG AMG20160327164513703/27/16 16:45:31  5-MIN KAMG 272145Z AUTO VRB05KT 1SM +RA BR SCT006 BKN011 OVC043 19/19 A3003 100 100 600 VRB/05 RMK AO2 P0031 T01890189
13870KAMG AMG20160327165012703/27/16 16:50:31  5-MIN KAMG 272150Z AUTO 29007KT 3/4SM RA BR SCT006 BKN013 OVC041 19/19 A3005 80 100 600 300/07 RMK AO2 P0033
13870KAMG AMG20160327165514403/27/16 16:55:31  5-MIN KAMG 272155Z AUTO 34009G15KT 1 1/2SM RA BR SCT006 BKN013 OVC041 19/18 A3004 90 97 600 340/09G15 RMK AO2 P0000 T01890183
13870KAMG AMG20160327170014503/27/16 17:00:31  5-MIN KAMG 272200Z AUTO 31009G15KT 2 1/2SM RA BR BKN008 BKN024 OVC047 18/18 A3005 90 100 500 320/09G15 RMK AO2 P0002 T01830183
13870KAMG AMG20160327170513603/27/16 17:05:31  5-MIN KAMG 272205Z AUTO 35009KT 2SM RA BR SCT008 BKN023 OVC049 18/18 A3003 100 100 600 360/09 RMK AO2 P0004 T01830183
13870KAMG AMG20160327171013503/27/16 17:10:31  5-MIN KAMG 272210Z AUTO 32008KT 2SM RA BR SCT008 BKN044 OVC075 18/18 A3004 90 100 500 330/08 RMK AO2 P0006 T01830183
13870KAMG AMG20160327171513903/27/16 17:15:31  5-MIN KAMG 272215Z AUTO 34006KT 2 1/2SM RA BR FEW006 BKN044 OVC070 18/18 A3004 90 100 500 340/06 RMK AO2 P0007 T01830183
13870KAMG AMG20160327172014003/27/16 17:20:31  5-MIN KAMG 272220Z AUTO 35005KT 2 1/2SM -RA BR FEW008 BKN044 OVC090 18/18 A3004 90 100 500 360/05 RMK AO2 P0008 T01830183
13870KAMG AMG20160327172513603/27/16 17:25:31  5-MIN KAMG 272225Z AUTO 33005KT 4SM -RA BR FEW014 BKN043 OVC090 18/18 A3004 90 100 500 340/05 RMK AO2 P0008 T01830183
13870KAMG AMG20160327173013603/27/16 17:30:31  5-MIN KAMG 272230Z AUTO 35004KT 4SM -RA BR SCT042 BKN050 OVC090 18/18 A3004 90 100 500 360/04 RMK AO2 P0009 T01830183
13870KAMG AMG20160327173513703/27/16 17:35:31  5-MIN KAMG 272235Z AUTO 35006KT 4SM -RA BR SCT046 BKN075 OVC100 18/18 A3003 100 100 600 360/06 RMK AO2 P0009 T01830183
13870KAMG AMG20160327174013703/27/16 17:40:31  5-MIN KAMG 272240Z AUTO 35005KT 5SM -RA BR BKN050 BKN075 OVC110 18/18 A3003 100 100 600 350/05 RMK AO2 P0009 T01830183
13870KAMG AMG20160327174513703/27/16 17:45:31  5-MIN KAMG 272245Z AUTO 34005KT 5SM -RA BR SCT046 BKN060 OVC100 18/18 A3003 100 100 600 340/05 RMK AO2 P0009 T01830183
13870KAMG AMG20160327175014403/27/16 17:50:31  5-MIN KAMG 272250Z AUTO 33007KT 4SM -RA BR BKN049 BKN065 OVC100 18/18 A3003 100 100 600 340/07 RMK AO2 SLP167 P0010 T01830183
13870KAMG AMG20160327175514003/27/16 17:55:31  5-MIN KAMG 272255Z AUTO 35004KT 2 1/2SM RA BR FEW009 BKN045 OVC080 18/18 A3003 100 100 600 360/04 RMK AO2 P0001 T01830183
13870KAMG AMG20160327180014003/27/16 18:00:31  5-MIN KAMG 272300Z AUTO 34004KT 1 3/4SM RA BR FEW007 BKN043 OVC070 18/18 A3003 100 100 600 340/04 RMK AO2 P0003 T01830183
13870KAMG AMG20160327180514003/27/16 18:05:31  5-MIN KAMG 272305Z AUTO 36005KT 1 1/2SM RA BR FEW007 BKN043 OVC090 18/18 A3002 110 100 600 360/05 RMK AO2 P0005 T01830183
13870KAMG AMG20160327181014003/27/16 18:10:31  5-MIN KAMG 272310Z AUTO 04003KT 1 3/4SM RA BR FEW006 BKN045 OVC090 18/18 A3002 110 100 600 050/03 RMK AO2 P0007 T01830183
13870KAMG AMG20160327181513703/27/16 18:15:31  5-MIN KAMG 272315Z AUTO VRB04KT 3SM -RA BR SCT005 BKN043 OVC090 18/18 A3002 110 100 600 VRB/04 RMK AO2 P0007 T01830183
13870KAMG AMG20160327182013703/27/16 18:20:31  5-MIN KAMG 272320Z AUTO VRB03KT 4SM -RA BR SCT005 BKN043 OVC090 18/18 A3002 110 100 600 VRB/03 RMK AO2 P0007 T01830183
13870KAMG AMG20160327182513703/27/16 18:25:31  5-MIN KAMG 272325Z AUTO VRB03KT 4SM -RA BR SCT005 BKN041 OVC090 18/18 A3002 110 100 600 VRB/03 RMK AO2 P0008 T01830183
13870KAMG AMG20160327183013703/27/16 18:30:31  5-MIN KAMG 272330Z AUTO 36005KT 3SM -RA BR SCT005 BKN065 OVC090 18/18 A3002 110 100 600 010/05 RMK AO2 P0009 T01830183
13870KAMG AMG20160327183514003/27/16 18:35:31  5-MIN KAMG 272335Z AUTO VRB05KT 1 3/4SM RA BR SCT005 BKN048 OVC075 18/18 A3001 120 100 600 VRB/05 RMK AO2 P0012 T01830183
13870KAMG AMG20160327184014003/27/16 18:40:31  5-MIN KAMG 272340Z AUTO 00000KT 1 3/4SM RA BR SCT006 BKN050 OVC080 18/18 A3002 110 100 500 000/00 RMK AO2 P0014 T01780178
13870KAMG AMG20160327184513703/27/16 18:45:31  5-MIN KAMG 272345Z AUTO VRB03KT 3SM -RA BR SCT006 BKN050 OVC065 18/18 A3002 110 100 500 VRB/03 RMK AO2 P0015 T01780178
13870KAMG AMG20160327185016703/27/16 18:50:31  5-MIN KAMG 272350Z AUTO VRB04KT 3SM RA BR FEW006 BKN046 OVC060 18/18 A3002 110 100 500 VRB/04 RMK AO2 SLP163 P0017 60117 T01780178 10222 20178 55001
13870KAMG AMG20160327185514003/27/16 18:55:31  5-MIN KAMG 272355Z AUTO 02004KT 2 1/2SM RA BR FEW006 BKN041 OVC060 18/18 A3001 120 100 500 030/04 RMK AO2 P0001 T01780178
13870KAMG AMG20160327190013703/27/16 19:00:31  5-MIN KAMG 280000Z AUTO 00000KT 2SM +RA BR FEW005 BKN041 OVC060 18/18 A3002 110 100 500 000/00 RMK AO2 P0003 T01780178
13870KAMG AMG20160327190514103/27/16 19:05:31  5-MIN KAMG 280005Z AUTO 00000KT 2 1/2SM -RA BR SCT005 BKN038 OVC060 18/18 A3003 100 100 500 000/00 RMK AO2 P0004 T01780178
13870KAMG AMG20160327191014003/27/16 19:10:31  5-MIN KAMG 280010Z AUTO 35004KT 2 1/2SM RA BR SCT005 BKN035 OVC045 18/18 A3003 100 100 500 350/04 RMK AO2 P0006 T01780178
13870KAMG AMG20160327191514003/27/16 19:15:31  5-MIN KAMG 280015Z AUTO 35007KT 2 1/2SM RA BR SCT005 BKN028 OVC038 18/18 A3003 100 100 500 350/07 RMK AO2 P0007 T01780178
13870KAMG AMG20160327192013703/27/16 19:20:31  5-MIN KAMG 280020Z AUTO 35006KT 3SM -RA BR BKN005 BKN030 OVC036 18/18 A3002 110 100 500 350/06 RMK AO2 P0008 T01780178
13870KAMG AMG20160327192513703/27/16 19:25:31  5-MIN KAMG 280025Z AUTO VRB04KT 4SM -RA BR BKN005 BKN023 OVC065 18/18 A3002 110 100 500 VRB/04 RMK AO2 P0008 T01780178
13870KAMG AMG20160327193013703/27/16 19:30:31  5-MIN KAMG 280030Z AUTO VRB04KT 5SM -RA BR SCT005 BKN029 OVC065 18/18 A3002 110 100 500 VRB/04 RMK AO2 P0009 T01780178
13870KAMG AMG20160327193513603/27/16 19:35:31  5-MIN KAMG 280035Z AUTO 01004KT 4SM RA BR FEW005 SCT029 OVC050 18/18 A3001 120 100 500 020/04 RMK AO2 P0010 T01780178
13870KAMG AMG20160327194013603/27/16 19:40:31  5-MIN KAMG 280040Z AUTO 02004KT 4SM RA BR FEW005 BKN050 OVC070 18/18 A3001 120 100 500 030/04 RMK AO2 P0011 T01780178
13870KAMG AMG20160327194513703/27/16 19:45:31  5-MIN KAMG 280045Z AUTO 05003KT 5SM -RA BR FEW006 BKN050 OVC065 18/18 A3000 130 100 500 050/03 RMK AO2 P0011 T01780178
13870KAMG AMG20160327195014103/27/16 19:50:31  5-MIN KAMG 280050Z AUTO 06004KT 7SM -RA FEW019 BKN055 OVC070 18/18 A3000 130 100 500 070/04 RMK AO2 SLP157 P0011 T01780178
13870KAMG AMG20160327195513403/27/16 19:55:31  5-MIN KAMG 280055Z AUTO 06005KT 7SM -RA FEW005 BKN044 OVC070 18/18 A2999 130 100 500 060/05 RMK AO2 P0000 T01780178
13870KAMG AMG20160327200013403/27/16 20:00:31  5-MIN KAMG 280100Z AUTO 00000KT 7SM -RA FEW005 BKN043 OVC070 18/18 A3000 130 100 500 000/00 RMK AO2 P0001 T01780178
13870KAMG AMG20160327200513403/27/16 20:05:31  5-MIN KAMG 280105Z AUTO 02004KT 7SM -RA SCT005 BKN043 OVC065 18/18 A3000 130 100 500 020/04 RMK AO2 P0001 T01780178
13870KAMG AMG20160327201013603/27/16 20:10:31  5-MIN KAMG 280110Z AUTO VRB03KT 9SM SCT005 BKN046 OVC060 18/18 A2999 140 100 500 VRB/03 RMK AO2 RAE08 P0001 T01780178
13870KAMG AMG20160327201512703/27/16 20:15:31  5-MIN KAMG 280115Z AUTO 09005KT 7SM -RA FEW005 OVC046 18/18 A2998 150 100 500 100/05 RMK AO2 P0001 T01780178
13870KAMG AMG20160327202014403/27/16 20:20:31  5-MIN KAMG 280120Z AUTO 09006KT 6SM -RA BR FEW005 SCT039 OVC050 18/18 A2997 160 100 600 100/06 RMK AO2 PRESFR P0002 T01780178
13870KAMG AMG20160327202513703/27/16 20:25:31  5-MIN KAMG 280125Z AUTO 11006KT 5SM -RA BR FEW005 BKN048 OVC060 18/18 A2997 150 100 600 120/06 RMK AO2 P0002 T01780178
13870KAMG AMG20160327203013703/27/16 20:30:31  5-MIN KAMG 280130Z AUTO 11007KT 6SM -RA BR FEW005 BKN048 OVC100 18/18 A2996 160 100 600 110/07 RMK AO2 P0002 T01780178
13870KAMG AMG20160327203513403/27/16 20:35:31  5-MIN KAMG 280135Z AUTO 09006KT 7SM -RA SCT035 BKN048 BKN060 18/18 A2996 170 100 600 100/06 RMK AO2 P0002 T01780178
13870KAMG AMG20160327204013603/27/16 20:40:31  5-MIN KAMG 280140Z AUTO 11008KT 9SM FEW005 SCT035 BKN055 18/18 A2995 170 100 600 120/08 RMK AO2 RAE38 P0002 T01780178
13870KAMG AMG20160327204513703/27/16 20:45:31  5-MIN KAMG 280145Z AUTO 10007KT 10SM FEW005 SCT038 BKN095 18/18 A2995 170 100 600 100/07 RMK AO2 RAE38 P0002 T01780178
13870KAMG AMG20160327205014403/27/16 20:50:31  5-MIN KAMG 280150Z AUTO 10006KT 10SM FEW005 SCT030 BKN095 18/18 A2996 170 100 600 100/06 RMK AO2 RAE38 SLP142 P0002 T01780178
13870KAMG AMG20160327205512503/27/16 20:55:31  5-MIN KAMG 280155Z AUTO VRB03KT 10SM SCT004 BKN030 BKN095 18/18 A2996 160 100 600 VRB/03 RMK AO2 T01780178
13870KAMG AMG20160327210011103/27/16 21:00:31  5-MIN KAMG 280200Z AUTO 11004KT 10SM BKN004 18/18 A2995 170 100 600 120/04 RMK AO2 T01780178
13870KAMG AMG20160327210511103/27/16 21:05:31  5-MIN KAMG 280205Z AUTO 09006KT 10SM BKN004 18/18 A2994 180 100 600 100/06 RMK AO2 T01780178
13870KAMG AMG20160327211011103/27/16 21:10:31  5-MIN KAMG 280210Z AUTO 10006KT 10SM BKN004 18/18 A2995 180 100 600 100/06 RMK AO2 T01780178
13870KAMG AMG20160327211511103/27/16 21:15:31  5-MIN KAMG 280215Z AUTO VRB05KT 10SM OVC004 18/18 A2995 180 100 600 VRB/05 RMK AO2 T01780178
13870KAMG AMG20160327212011103/27/16 21:20:31  5-MIN KAMG 280220Z AUTO 14003KT 10SM OVC004 18/18 A2995 170 100 600 140/03 RMK AO2 T01780178
13870KAMG AMG20160327212511103/27/16 21:25:31  5-MIN KAMG 280225Z AUTO 13004KT 10SM OVC004 18/18 A2995 170 100 600 140/04 RMK AO2 T01780178
13870KAMG AMG20160327213011103/27/16 21:30:31  5-MIN KAMG 280230Z AUTO 13004KT 10SM OVC004 18/18 A2996 170 100 600 130/04 RMK AO2 T01780178
13870KAMG AMG20160327213511103/27/16 21:35:31  5-MIN KAMG 280235Z AUTO 13004KT 10SM OVC004 18/18 A2996 160 100 600 130/04 RMK AO2 T01830183
13870KAMG AMG20160327214011103/27/16 21:40:31  5-MIN KAMG 280240Z AUTO 12004KT 10SM OVC004 18/18 A2996 170 100 600 130/04 RMK AO2 T01780178
13870KAMG AMG20160327214511103/27/16 21:45:31  5-MIN KAMG 280245Z AUTO 13003KT 10SM OVC004 18/18 A2996 160 100 600 130/03 RMK AO2 T01830183
13870KAMG AMG20160327215013003/27/16 21:50:31  5-MIN KAMG 280250Z AUTO 16004KT 10SM OVC004 18/18 A2997 160 100 600 160/04 RMK AO2 SLP146 60013 T01830183 58007
13870KAMG AMG20160327215511103/27/16 21:55:31  5-MIN KAMG 280255Z AUTO 10004KT 10SM OVC004 18/18 A2997 160 100 600 110/04 RMK AO2 T01830183
13870KAMG AMG20160327220012303/27/16 22:00:31  5-MIN KAMG 280300Z AUTO 00000KT 10SM OVC004 18/18 A2997 150 100 600 000/00 RMK AO2 CIG 003V007 T01830183
13870KAMG AMG20160327220511103/27/16 22:05:31  5-MIN KAMG 280305Z AUTO 00000KT 10SM OVC004 18/18 A2997 160 100 600 000/00 RMK AO2 T01830183
13870KAMG AMG20160327221011103/27/16 22:10:31  5-MIN KAMG 280310Z AUTO 00000KT 10SM OVC004 18/18 A2997 150 100 600 000/00 RMK AO2 T01830183
13870KAMG AMG20160327221511103/27/16 22:15:31  5-MIN KAMG 280315Z AUTO 30003KT 10SM OVC004 18/18 A2997 150 100 600 310/03 RMK AO2 T01830183
13870KAMG AMG20160327222011103/27/16 22:20:31  5-MIN KAMG 280320Z AUTO 00000KT 10SM OVC004 18/18 A2997 160 100 600 000/00 RMK AO2 T01830183
13870KAMG AMG20160327222511003/27/16 22:25:31  5-MIN KAMG 280325Z AUTO 00000KT 9SM OVC005 18/18 A2997 160 100 600 000/00 RMK AO2 T01830183
13870KAMG AMG20160327223011003/27/16 22:30:31  5-MIN KAMG 280330Z AUTO 00000KT 9SM OVC005 18/18 A2996 160 100 600 000/00 RMK AO2 T01830183
13870KAMG AMG20160327223511003/27/16 22:35:31  5-MIN KAMG 280335Z AUTO 34003KT 9SM OVC005 18/18 A2996 160 100 600 350/03 RMK AO2 T01830183
13870KAMG AMG20160327224011003/27/16 22:40:31  5-MIN KAMG 280340Z AUTO 31005KT 9SM OVC005 18/18 A2997 160 100 600 320/05 RMK AO2 T01830183
13870KAMG AMG20160327224511003/27/16 22:45:31  5-MIN KAMG 280345Z AUTO VRB04KT 9SM OVC005 18/18 A2996 160 100 600 VRB/04 RMK AO2 T01830183
13870KAMG AMG20160327225011703/27/16 22:50:31  5-MIN KAMG 280350Z AUTO 00000KT 9SM OVC005 18/18 A2996 170 100 600 000/00 RMK AO2 SLP143 T01830183
13870KAMG AMG20160327225511003/27/16 22:55:31  5-MIN KAMG 280355Z AUTO 00000KT 9SM OVC005 18/18 A2995 170 100 600 000/00 RMK AO2 T01830183
13870KAMG AMG20160327230011003/27/16 23:00:31  5-MIN KAMG 280400Z AUTO 00000KT 8SM OVC005 18/18 A2995 170 100 600 000/00 RMK AO2 T01830183
13870KAMG AMG20160327230512903/27/16 23:05:31  5-MIN KAMG 280405Z AUTO 00000KT 5SM -RA BR OVC005 18/18 A2995 180 100 700 000/00 RMK AO2 RAB04 P0000 T01830183
13870KAMG AMG20160330182011003/30/16 18:20:31  5-MIN KAMG 302320Z AUTO 09006KT 10SM FEW048 23/16 A3011 30 63 1000 100/06 RMK AO2 T02280156
13870KAMG AMG20160330182511603/30/16 18:25:31  5-MIN KAMG 302325Z AUTO 10007KT 10SM FEW037 SCT045 22/16 A3011 30 65 900 110/07 RMK AO2 T02220156
13870KAMG AMG20160330183011603/30/16 18:30:31  5-MIN KAMG 302330Z AUTO 11006KT 10SM FEW035 SCT043 22/16 A3012 20 65 900 110/06 RMK AO2 T02220156
13870KAMG AMG20160330183511603/30/16 18:35:31  5-MIN KAMG 302335Z AUTO 11009KT 10SM FEW035 SCT043 22/16 A3012 20 68 900 110/09 RMK AO2 T02220161
13870KAMG AMG20160330184010903/30/16 18:40:31  5-MIN KAMG 302340Z AUTO 10007KT 10SM BKN041 22/16 A3013 10 68 900 110/07 RMK AO2 T02220161
13870KAMG AMG20160330184510903/30/16 18:45:31  5-MIN KAMG 302345Z AUTO 10007KT 10SM BKN041 22/16 A3012 10 70 800 110/07 RMK AO2 T02170161
13870KAMG AMG20160330185013403/30/16 18:50:31  5-MIN KAMG 302350Z AUTO 11007KT 10SM BKN039 22/16 A3012 10 70 800 110/07 RMK AO2 SLP198 T02170161 10256 20217 56022
13870KAMG AMG20160330185510903/30/16 18:55:31  5-MIN KAMG 302355Z AUTO 11007KT 10SM BKN039 22/16 A3012 10 70 800 120/07 RMK AO2 T02170161
13870KAMG AMG20160330190011603/30/16 19:00:31  5-MIN KAMG 310000Z AUTO 10005KT 10SM FEW031 BKN039 22/17 A3012 10 73 800 110/05 RMK AO2 T02170167
13870KAMG AMG20160330190511603/30/16 19:05:31  5-MIN KAMG 310005Z AUTO 10007KT 10SM FEW028 BKN037 22/17 A3012 10 73 800 100/07 RMK AO2 T02170167
13870KAMG AMG20160330191011603/30/16 19:10:31  5-MIN KAMG 310010Z AUTO 09006KT 10SM BKN032 BKN039 22/17 A3013 10 73 800 100/06 RMK AO2 T02170167
13870KAMG AMG20160330191511603/30/16 19:15:31  5-MIN KAMG 310015Z AUTO 10004KT 10SM BKN030 OVC037 21/17 A3013 10 75 800 110/04 RMK AO2 T02110167
13870KAMG AMG20160330192011503/30/16 19:20:31  5-MIN KAMG 310020Z AUTO 11004KT 10SM BKN028 OVC037 21/17 A3013 0 75 800 110/04 RMK AO2 T02110167
13870KAMG AMG20160330192511503/30/16 19:25:31  5-MIN KAMG 310025Z AUTO 10004KT 10SM BKN028 OVC037 21/17 A3014 0 75 800 110/04 RMK AO2 T02110167
13870KAMG AMG20160330193011503/30/16 19:30:31  5-MIN KAMG 310030Z AUTO 09004KT 10SM SCT028 OVC037 21/17 A3014 0 81 700 100/04 RMK AO2 T02060172
13870KAMG AMG20160330193511503/30/16 19:35:31  5-MIN KAMG 310035Z AUTO 10006KT 10SM SCT028 OVC039 21/17 A3014 0 81 700 100/06 RMK AO2 T02060172
13870KAMG AMG20160330194011503/30/16 19:40:31  5-MIN KAMG 310040Z AUTO 11005KT 10SM FEW028 OVC037 21/17 A3013 0 81 700 120/05 RMK AO2 T02060172
13870KAMG AMG20160330194511603/30/16 19:45:31  5-MIN KAMG 310045Z AUTO 10006KT 10SM FEW026 OVC037 21/17 A3013 10 81 700 100/06 RMK AO2 T02060172
13870KAMG AMG20160330195012203/30/16 19:50:31  5-MIN KAMG 310050Z AUTO 10006KT 10SM FEW024 OVC037 21/17 A3014 0 81 700 100/06 RMK AO2 SLP203 T02060172
13870KAMG AMG20160330195510803/30/16 19:55:31  5-MIN KAMG 310055Z AUTO 10006KT 10SM OVC037 21/17 A3014 0 81 700 100/06 RMK AO2 T02060172
13870KAMG AMG20160330200011503/30/16 20:00:31  5-MIN KAMG 310100Z AUTO 11005KT 10SM FEW026 OVC037 21/17 A3014 0 81 700 110/05 RMK AO2 T02060172
13870KAMG AMG20160330200511503/30/16 20:05:31  5-MIN KAMG 310105Z AUTO 10005KT 10SM SCT024 OVC037 21/17 A3014 0 81 700 110/05 RMK AO2 T02060172
13870KAMG AMG20160330201011503/30/16 20:10:31  5-MIN KAMG 310110Z AUTO 10005KT 10SM FEW024 OVC037 21/17 A3014 0 81 700 100/05 RMK AO2 T02060172
13870KAMG AMG20160330201511503/30/16 20:15:31  5-MIN KAMG 310115Z AUTO 09005KT 10SM SCT026 OVC037 21/17 A3014 0 81 700 100/05 RMK AO2 T02060172
13870KAMG AMG20160330202011503/30/16 20:20:31  5-MIN KAMG 310120Z AUTO 09006KT 10SM SCT026 OVC037 21/17 A3014 0 81 700 090/06 RMK AO2 T02060172
13870KAMG AMG20160330202511503/30/16 20:25:31  5-MIN KAMG 310125Z AUTO 09005KT 10SM BKN026 OVC037 21/17 A3014 0 81 700 100/05 RMK AO2 T02060172
13870KAMG AMG20160330203011503/30/16 20:30:31  5-MIN KAMG 310130Z AUTO 09004KT 10SM BKN026 OVC035 20/17 A3014 0 84 600 100/04 RMK AO2 T02000172
13870KAMG AMG20160330203511503/30/16 20:35:31  5-MIN KAMG 310135Z AUTO 09005KT 10SM BKN025 OVC035 20/17 A3014 0 84 600 100/05 RMK AO2 T02000172
13870KAMG AMG20160330204011503/30/16 20:40:31  5-MIN KAMG 310140Z AUTO 10004KT 10SM BKN025 OVC035 20/17 A3014 0 84 600 100/04 RMK AO2 T02000172
13870KAMG AMG20160330204512203/30/16 20:45:31  5-MIN KAMG 310145Z AUTO 10005KT 10SM BKN025 BKN030 OVC035 20/17 A3014 0 84 600 110/05 RMK AO2 T02000172
13870KAMG AMG20160330205012903/30/16 20:50:31  5-MIN KAMG 310150Z AUTO 09006KT 10SM BKN025 BKN030 OVC035 20/17 A3014 0 84 600 100/06 RMK AO2 SLP202 T02000172
13870KAMG AMG20160330205512203/30/16 20:55:31  5-MIN KAMG 310155Z AUTO 10005KT 10SM SCT025 BKN030 OVC037 20/17 A3014 0 84 600 100/05 RMK AO2 T02000172
13870KAMG AMG20160330210011603/30/16 21:00:31  5-MIN KAMG 310200Z AUTO 10005KT 10SM BKN025 OVC037 20/17 A3013 10 84 600 100/05 RMK AO2 T02000172
13870KAMG AMG20160330210512303/30/16 21:05:31  5-MIN KAMG 310205Z AUTO 09006KT 10SM SCT023 BKN029 OVC039 20/17 A3013 10 84 600 100/06 RMK AO2 T02000172
13870KAMG AMG20160330211012203/30/16 21:10:31  5-MIN KAMG 310210Z AUTO 09005KT 10SM SCT025 BKN029 OVC035 20/17 A3014 0 84 600 100/05 RMK AO2 T02000172
13870KAMG AMG20160330211512203/30/16 21:15:31  5-MIN KAMG 310215Z AUTO 10005KT 10SM FEW023 SCT028 OVC035 20/17 A3014 0 84 600 110/05 RMK AO2 T02000172
13870KAMG AMG20160330212011603/30/16 21:20:31  5-MIN KAMG 310220Z AUTO 11005KT 10SM SCT026 OVC035 19/17 A3013 10 87 600 110/05 RMK AO2 T01940172
13870KAMG AMG20160330212511603/30/16 21:25:31  5-MIN KAMG 310225Z AUTO 10005KT 10SM SCT026 OVC034 19/17 A3013 10 87 600 100/05 RMK AO2 T01940172
13870KAMG AMG20160330213011603/30/16 21:30:31  5-MIN KAMG 310230Z AUTO 10005KT 10SM SCT026 OVC034 19/17 A3013 10 87 600 110/05 RMK AO2 T01940172
13870KAMG AMG20160330213510803/30/16 21:35:31  5-MIN KAMG 310235Z AUTO 10004KT 10SM OVC031 19/17 A3014 0 87 600 110/04 RMK AO2 T01940172
13870KAMG AMG20160330214011503/30/16 21:40:31  5-MIN KAMG 310240Z AUTO 11005KT 10SM BKN028 OVC033 19/17 A3014 0 87 600 110/05 RMK AO2 T01940172
13870KAMG AMG20160330214511503/30/16 21:45:31  5-MIN KAMG 310245Z AUTO 10004KT 10SM BKN028 OVC033 19/17 A3014 0 87 600 110/04 RMK AO2 T01940172
13870KAMG AMG20160330215009803/30/16 21:50:31  5-MIN KAMG 310250Z AUTO 09004KT 10SM OVC030 19/17 A3014 0 87 600 100/04 RMK AO2
13870KAMG AMG20160330215510803/30/16 21:55:31  5-MIN KAMG 310255Z AUTO 10004KT 10SM OVC030 19/17 A3014 0 87 600 100/04 RMK AO2 T01940172
13870KAMG AMG20160330220010803/30/16 22:00:31  5-MIN KAMG 310300Z AUTO 10004KT 10SM OVC030 19/17 A3014 0 90 500 100/04 RMK AO2 T01890172
13870KAMG AMG20160330220510903/30/16 22:05:31  5-MIN KAMG 310305Z AUTO 10005KT 10SM OVC030 19/17 A3013 10 90 500 110/05 RMK AO2 T01890172
13870KAMG AMG20160330221010903/30/16 22:10:31  5-MIN KAMG 310310Z AUTO 09005KT 10SM OVC030 19/17 A3013 10 90 500 100/05 RMK AO2 T01890172
13870KAMG AMG20160330221512303/30/16 22:15:31  5-MIN KAMG 310315Z AUTO 10004KT 10SM SCT026 BKN030 OVC038 19/17 A3013 10 87 600 100/04 RMK AO2 T01940172
13870KAMG AMG20160330222012303/30/16 22:20:31  5-MIN KAMG 310320Z AUTO 09005KT 10SM FEW024 BKN030 OVC038 19/17 A3013 10 87 600 100/05 RMK AO2 T01940172
13870KAMG AMG20160330222511603/30/16 22:25:31  5-MIN KAMG 310325Z AUTO 10005KT 10SM FEW024 OVC035 19/17 A3013 10 87 600 100/05 RMK AO2 T01940172
13870KAMG AMG20160330223011603/30/16 22:30:31  5-MIN KAMG 310330Z AUTO 10005KT 10SM FEW024 OVC035 19/17 A3013 10 87 600 100/05 RMK AO2 T01940172
13870KAMG AMG20160330223511603/30/16 22:35:31  5-MIN KAMG 310335Z AUTO VRB06KT 10SM FEW024 OVC035 19/17 A3012 10 87 600 VRB/06 RMK AO2 T01940172
13870KAMG AMG20160330224010903/30/16 22:40:31  5-MIN KAMG 310340Z AUTO 10005KT 10SM OVC035 19/17 A3012 20 87 600 100/05 RMK AO2 T01940172
13870KAMG AMG20160330224510903/30/16 22:45:31  5-MIN KAMG 310345Z AUTO 10006KT 10SM OVC035 19/17 A3012 20 87 600 110/06 RMK AO2 T01940172
13870KAMG AMG20160330225011603/30/16 22:50:31  5-MIN KAMG 310350Z AUTO 11005KT 10SM OVC036 19/17 A3012 20 87 600 120/05 RMK AO2 SLP196 T01940172
13870KAMG AMG20160330225510903/30/16 22:55:31  5-MIN KAMG 310355Z AUTO 11005KT 10SM OVC036 19/17 A3011 20 90 500 120/05 RMK AO2 T01890172
13870KAMG AMG20160330230011603/30/16 23:00:31  5-MIN KAMG 310400Z AUTO 11006KT 10SM FEW026 OVC034 19/17 A3011 30 90 500 110/06 RMK AO2 T01890172
13870KAMG AMG20160330230511603/30/16 23:05:31  5-MIN KAMG 310405Z AUTO 10005KT 10SM FEW026 OVC036 19/17 A3011 30 90 500 100/05 RMK AO2 T01890172
13870KAMG AMG20160330231010903/30/16 23:10:31  5-MIN KAMG 310410Z AUTO 09006KT 10SM OVC036 19/17 A3011 30 90 500 100/06 RMK AO2 T01890172
13870KAMG AMG20160330231510903/30/16 23:15:31  5-MIN KAMG 310415Z AUTO 10005KT 10SM OVC038 19/17 A3010 30 90 500 110/05 RMK AO2 T01890172
13870KAMG AMG20160330232011603/30/16 23:20:31  5-MIN KAMG 310420Z AUTO 11004KT 10SM BKN038 OVC044 19/17 A3010 30 90 500 110/04 RMK AO2 T01890172
13870KAMG AMG20160330232508703/30/16 23:25:31  5-MIN KAMG 310425Z AUTO 10006KT0 40 900:10:31  5-4 RMK AO2 T01830172
13870KAMG AMG20160331014010803/31/16 01:40:31  5-MIN KAMG 310640Z AUTO 12004KT 8SM OVC033 18/17 A3005 90 93 500 130/04 RMK AO2 T01830172
13870KAMG AMG20160331014510803/31/16 01:45:31  5-MIN KAMG 310645Z AUTO 13004KT 8SM OVC033 18/17 A3004 90 96 500 130/04 RMK AO2 T01780172
13870KAMG AMG20160331015011503/31/16 01:50:31  5-MIN KAMG 310650Z AUTO 13003KT 8SM OVC033 18/17 A3004 90 96 500 140/03 RMK AO2 SLP171 T01780172
13870KAMG AMG20160331015510803/31/16 01:55:31  5-MIN KAMG 310655Z AUTO 12004KT 8SM OVC033 18/17 A3004 90 96 500 120/04 RMK AO2 T01780172
13870KAMG AMG20160331020010803/31/16 02:00:31  5-MIN KAMG 310700Z AUTO 11004KT 7SM OVC032 18/17 A3004 90 96 500 110/04 RMK AO2 T01780172
13870KAMG AMG20160331020510803/31/16 02:05:31  5-MIN KAMG 310705Z AUTO 11003KT 7SM OVC032 18/17 A3004 90 96 500 110/03 RMK AO2 T01780172
13870KAMG AMG20160331021010803/31/16 02:10:31  5-MIN KAMG 310710Z AUTO 10003KT 7SM OVC032 18/17 A3004 90 96 500 110/03 RMK AO2 T01780172
13870KAMG AMG20160331021510803/31/16 02:15:31  5-MIN KAMG 310715Z AUTO 10003KT 7SM OVC032 18/17 A3004 90 96 500 100/03 RMK AO2 T01780172
13870KAMG AMG20160331022010803/31/16 02:20:31  5-MIN KAMG 310720Z AUTO 10003KT 7SM OVC031 18/17 A3004 90 96 500 110/03 RMK AO2 T01780172
13870KAMG AMG20160331022511203/31/16 02:25:31  5-MIN KAMG 310725Z AUTO 12003KT 6SM BR OVC031 17/17 A3004 90 100 400 120/03 RMK AO2 T01720172
13870KAMG AMG20160331023011203/31/16 02:30:31  5-MIN KAMG 310730Z AUTO 11003KT 6SM BR OVC030 17/17 A3004 90 100 400 120/03 RMK AO2 T01720172
13870KAMG AMG20160331023511203/31/16 02:35:31  5-MIN KAMG 310735Z AUTO 11003KT 6SM BR OVC030 17/17 A3004 100 96 400 120/03 RMK AO2 T01720167
13870KAMG AMG20160331024011303/31/16 02:40:31  5-MIN KAMG 310740Z AUTO 11004KT 6SM BR OVC030 17/17 A3003 100 100 400 120/04 RMK AO2 T01720172
13870KAMG AMG20160331024511303/31/16 02:45:31  5-MIN KAMG 310745Z AUTO 10004KT 6SM BR OVC029 17/17 A3003 100 100 400 100/04 RMK AO2 T01720172
13870KAMG AMG20160331025012003/31/16 02:50:31  5-MIN KAMG 310750Z AUTO 09003KT 6SM BR OVC029 17/17 A3003 100 100 400 100/03 RMK AO2 SLP166 T01720172
13870KAMG AMG20160331025511303/31/16 02:55:31  5-MIN KAMG 310755Z AUTO 10003KT 6SM BR OVC029 17/17 A3003 100 100 400 110/03 RMK AO2 T01720172
13870KAMG AMG20160331030011203/31/16 03:00:31  5-MIN KAMG 310800Z AUTO 10003KT 6SM BR OVC029 18/17 A3003 100 96 500 110/03 RMK AO2 T01780172
13870KAMG AMG20160331030503903/31/16 03:05:31  5-MIN KAMG 310805Z 8
13870KAMG AMG20160331043510703/31/16 04:35:31  5-MIN KAMG 310935Z AUTO 13005KT 7SM CLR 18/18 A2999 140 100 500 140/05 RMK AO2 T01780178
13870KAMG AMG20160331044010603/31/16 04:40:31  5-MIN KAMG 310940Z AUTO 13006KT 7SM CLR 18/18 A2999 140 96 600 130/06 RMK AO2 T01830178
13870KAMG AMG20160331044510603/31/16 04:45:31  5-MIN KAMG 310945Z AUTO 13004KT 7SM CLR 18/18 A2999 130 96 600 130/04 RMK AO2 T01830178
13870KAMG AMG20160331045011303/31/16 04:50:31  5-MIN KAMG 310950Z AUTO 13005KT 7SM CLR 18/18 A3000 130 96 600 140/05 RMK AO2 SLP155 T01830178
13870KAMG AMG20160331045510603/31/16 04:55:31  5-MIN KAMG 310955Z AUTO 13005KT 7SM CLR 18/18 A2999 140 96 600 130/05 RMK AO2 T01830178
13870KAMG AMG20160331050010603/31/16 05:00:31  5-MIN KAMG 311000Z AUTO 13006KT 7SM CLR 18/18 A2999 130 96 600 130/06 RMK AO2 T01830178
13870KAMG AMG20160331050510603/31/16 05:05:31  5-MIN KAMG 311005Z AUTO 14004KT 7SM CLR 18/18 A2999 130 96 600 140/04 RMK AO2 T01830178
13870KAMG AMG20160331051010603/31/16 05:10:31  5-MIN KAMG 311010Z AUTO 13005KT 7SM CLR 18/18 A3000 130 96 600 140/05 RMK AO2 T01830178
13870KAMG AMG20160331051510603/31/16 05:15:31  5-MIN KAMG 311015Z AUTO 13005KT 7SM CLR 18/18 A3000 130 96 600 140/05 RMK AO2 T01830178
13870KAMG AMG20160331052010603/31/16 05:20:31  5-MIN KAMG 311020Z AUTO 13005KT 7SM CLR 18/18 A3000 130 96 600 140/05 RMK AO2 T01830178
13870KAMG AMG20160331052510603/31/16 05:25:31  5-MIN KAMG 311025Z AUTO 13004KT 7SM CLR 18/18 A3000 130 96 600 140/04 RMK AO2 T01830178
13870KAMG AMG20160331053010603/31/16 05:30:31  5-MIN KAMG 311030Z AUTO 12004KT 7SM CLR 18/18 A2999 130 96 600 130/04 RMK AO2 T01830178
13870KAMG AMG20160331053510603/31/16 05:35:31  5-MIN KAMG 311035Z AUTO 12004KT 7SM CLR 18/18 A2999 140 96 600 120/04 RMK AO2 T01830178
13870KAMG AMG20160331054010603/31/16 05:40:31  5-MIN KAMG 311040Z AUTO 11005KT 7SM CLR 18/18 A2999 140 96 600 110/05 RMK AO2 T01830178
13870KAMG AMG20160331054510603/31/16 05:45:31  5-MIN KAMG 311045Z AUTO 12005KT 7SM CLR 18/18 A2998 150 96 600 120/05 RMK AO2 T01830178
13870KAMG AMG20160331055011303/31/16 05:50:31  5-MIN KAMG 311050Z AUTO 12006KT 7SM CLR 18/18 A2998 150 96 600 120/06 RMK AO2 SLP149 T01830178
13870KAMG AMG20160331055510603/31/16 05:55:31  5-MIN KAMG 311055Z AUTO 12006KT 7SM CLR 18/18 A2997 150 96 600 120/06 RMK AO2 T01830178
13870KAMG AMG20160331060010903/31/16 06:00:31  5-MIN KAMG 311100Z AUTO 12006KT 7SM FEW026 18/18 A2997 150 96 600 130/06 RMK AO2 T01830178
13870KAMG AMG20160331060510903/31/16 06:05:31  5-MIN KAMG 311105Z AUTO 12006KT 7SM FEW026 18/18 A2997 160 96 600 130/06 RMK AO2 T01830178
13870KAMG AMG20160331061011203/31/16 06:10:31  5-MIN KAMG 311110Z AUTO 13006KT 6SM BR FEW026 18/18 A2997 160 96 600 130/06 RMK AO2 T01830178
13870KAMG AMG20160331061511203/31/16 06:15:31  5-MIN KAMG 311115Z AUTO 13007KT 6SM BR FEW026 18/18 A2997 150 96 600 130/07 RMK AO2 T01830178
