63871K1J0 1J020160101203010901/01/16 20:30:31  5-MIN K1J0 020130Z AUTO 33006KT 10SM CLR 09/04 A3027 -230 73 -900 330/06 RMK AO2 T00890044
63871K1J0 1J020160101203507701/01/16 20:35:31  5-MIN K1J0 020135Z AUTO CLR M M M M /M RMK AO2 T00890044 $
63871K1J0 1J020160101204010801/01/16 20:40:31  5-MIN K1J0 020140Z AUTO 33010G16KT 09/04 A3027 -230 73 -900 330/10G16 RMK AO2 T00890044 $
63871K1J0 1J020160101204511301/01/16 20:45:31  5-MIN K1J0 020145Z AUTO 34008G16KT 10SM 09/04 A3027 -230 71 -900 340/08G16 RMK AO2 T00890039 $
63871K1J0 1J020160101205010701/01/16 20:50:31  5-MIN K1J0 020150Z AUTO 33005KT 10SM 09/04 A3027 -230 71 -900 330/05 RMK AO2 T00890039 $
63871K1J0 1J020160101205511401/01/16 20:55:31  5-MIN K1J0 020155Z AUTO 33006KT 10SM 09/04 A3028 -240 73 -900 330/06 RMK AO2 SLP236 T00890044 $
63871K1J0 1J020160101210010801/01/16 21:00:31  5-MIN K1J0 020200Z AUTO 32004KT 10SM 09/04 A3029 -240 71 -1000 320/04 RMK AO2 T00890039 $
63871K1J0 1J020160101210511101/01/16 21:05:31  5-MIN K1J0 020205Z AUTO 34007KT 10SM CLR 09/04 A3028 -240 73 -900 340/07 RMK AO2 T00890044 $
63871K1J0 1J020160101211011101/01/16 21:10:31  5-MIN K1J0 020210Z AUTO 34006KT 10SM CLR 09/04 A3027 -230 71 -900 340/06 RMK AO2 T00890039 $
63871K1J0 1J020160101211511201/01/16 21:15:31  5-MIN K1J0 020215Z AUTO 34005KT 10SM CLR 08/04 A3027 -230 73 -1000 340/05 RMK AO2 T00830039 $
63871K1J0 1J020160101212011201/01/16 21:20:31  5-MIN K1J0 020220Z AUTO 34005KT 10SM CLR 08/04 A3028 -240 73 -1000 340/05 RMK AO2 T00830039 $
63871K1J0 1J020160101212511101/01/16 21:25:31  5-MIN K1J0 020225Z AUTO 34006KT 10SM CLR 09/04 A3028 -240 71 -900 340/06 RMK AO2 T00890039 $
63871K1J0 1J020160101213011201/01/16 21:30:31  5-MIN K1J0 020230Z AUTO 34005KT 10SM CLR 08/04 A3028 -240 73 -1000 340/05 RMK AO2 T00830039 $
63871K1J0 1J020160101213511201/01/16 21:35:31  5-MIN K1J0 020235Z AUTO 34004KT 10SM CLR 08/04 A3028 -240 73 -1000 340/04 RMK AO2 T00830039 $
63871K1J0 1J020160101214011201/01/16 21:40:31  5-MIN K1J0 020240Z AUTO 34006KT 10SM CLR 08/04 A3028 -240 73 -1000 340/06 RMK AO2 T00830039 $
63871K1J0 1J020160101214511201/01/16 21:45:31  5-MIN K1J0 020245Z AUTO 34007KT 10SM CLR 08/04 A3028 -240 73 -1000 340/07 RMK AO2 T00830039 $
63871K1J0 1J020160101215011201/01/16 21:50:31  5-MIN K1J0 020250Z AUTO 34006KT 10SM CLR 08/04 A3028 -240 73 -1000 340/06 RMK AO2 T00830039 $
63871K1J0 1J020160101215511901/01/16 21:55:31  5-MIN K1J0 020255Z AUTO 34005KT 10SM CLR 08/04 A3028 -240 73 -1000 340/05 RMK AO2 SLP239 T00830039 $
63871K1J0 1J020160101220011201/01/16 22:00:31  5-MIN K1J0 020300Z AUTO 34005KT 10SM CLR 08/03 A3028 -240 70 -1000 340/05 RMK AO2 T00830033 $
63871K1J0 1J020160101220511201/01/16 22:05:31  5-MIN K1J0 020305Z AUTO 35007KT 10SM CLR 08/04 A3028 -240 73 -1000 350/07 RMK AO2 T00830039 $
63871K1J0 1J020160101221011201/01/16 22:10:31  5-MIN K1J0 020310Z AUTO 35006KT 10SM CLR 08/03 A3027 -240 70 -1000 350/06 RMK AO2 T00830033 $
63871K1J0 1J020160101221511201/01/16 22:15:31  5-MIN K1J0 020315Z AUTO 33007KT 10SM CLR 08/03 A3028 -240 70 -1000 330/07 RMK AO2 T00830033 $
63871K1J0 1J020160101222011201/01/16 22:20:31  5-MIN K1J0 020320Z AUTO 34006KT 10SM CLR 08/03 A3028 -240 70 -1000 340/06 RMK AO2 T00830033 $
63871K1J0 1J020160101222511201/01/16 22:25:31  5-MIN K1J0 020325Z AUTO 34006KT 10SM CLR 08/03 A3028 -240 70 -1000 340/06 RMK AO2 T00830033 $
63871K1J0 1J020160101223011201/01/16 22:30:31  5-MIN K1J0 020330Z AUTO 34008KT 10SM CLR 08/03 A3029 -250 70 -1000 340/08 RMK AO2 T00830033 $
63871K1J0 1J020160101223511501/01/16 22:35:31  5-MIN K1J0 020335Z AUTO 35007KT 10SM FEW120 08/03 A3029 -250 70 -1000 350/07 RMK AO2 T00830033 $
63871K1J0 1J020160101224011501/01/16 22:40:31  5-MIN K1J0 020340Z AUTO 34008KT 10SM FEW120 08/03 A3029 -250 70 -1000 340/08 RMK AO2 T00830033 $
63871K1J0 1J020160101224511201/01/16 22:45:31  5-MIN K1J0 020345Z AUTO 34006KT 10SM CLR 08/03 A3029 -250 70 -1000 340/06 RMK AO2 T00830033 $
63871K1J0 1J020160101225011201/01/16 22:50:31  5-MIN K1J0 020350Z AUTO 34007KT 10SM CLR 08/03 A3030 -250 70 -1000 340/07 RMK AO2 T00830033 $
63871K1J0 1J020160101225511901/01/16 22:55:31  5-MIN K1J0 020355Z AUTO 34006KT 10SM CLR 08/03 A3029 -250 70 -1000 340/06 RMK AO2 SLP242 T00830033 $
63871K1J0 1J020160101230011201/01/16 23:00:31  5-MIN K1J0 020400Z AUTO 34006KT 10SM CLR 08/03 A3029 -250 70 -1000 340/06 RMK AO2 T00830033 $
63871K1J0 1J020160101230511201/01/16 23:05:31  5-MIN K1J0 020405Z AUTO 34006KT 10SM CLR 08/03 A3029 -240 70 -1000 340/06 RMK AO2 T00830033 $
63871K1J0 1J020160101231011001/01/16 23:10:31  5-MIN K1J0 020410Z AUTO 34007KT 10SM CLR 08/03 A3028 -240 68 -1000 340/07 RMK AO2 T00830028
63871K1J0 1J020160101231511001/01/16 23:15:31  5-MIN K1J0 020415Z AUTO 34007KT 10SM CLR 08/03 A3027 -230 70 -1000 340/07 RMK AO2 T00830033
63871K1J0 1J020160101232011001/01/16 23:20:31  5-MIN K1J0 020420Z AUTO 35007KT 10SM CLR 08/03 A3027 -230 70 -1000 350/07 RMK AO2 T00830033
63871K1J0 1J020160101232511001/01/16 23:25:31  5-MIN K1J0 020425Z AUTO 34008KT 10SM CLR 08/03 A3027 -230 70 -1000 340/08 RMK AO2 T00830033
63871K1J0 1J020160101233011001/01/16 23:30:31  5-MIN K1J0 020430Z AUTO 35007KT 10SM CLR 08/03 A3027 -230 68 -1000 350/07 RMK AO2 T00830028
63871K1J0 1J020160101233511001/01/16 23:35:31  5-MIN K1J0 020435Z AUTO 34008KT 10SM CLR 08/03 A3028 -240 68 -1000 340/08 RMK AO2 T00830028
63871K1J0 1J020160101234011001/01/16 23:40:31  5-MIN K1J0 020440Z AUTO 34006KT 10SM CLR 08/03 A3028 -240 68 -1000 340/06 RMK AO2 T00830028
63871K1J0 1J020160101234511301/01/16 23:45:31  5-MIN K1J0 020445Z AUTO 34008KT 10SM FEW120 08/03 A3027 -230 68 -1000 340/08 RMK AO2 T00830028
63871K1J0 1J020160101235011301/01/16 23:50:31  5-MIN K1J0 020450Z AUTO 34008KT 10SM FEW120 08/03 A3028 -240 68 -1000 340/08 RMK AO2 T00830028
63871K1J0 1J020160101235513001/01/16 23:55:31  5-MIN K1J0 020455Z AUTO 34007KT 10SM FEW120 08/03 A3029 -250 68 -1000 340/07 RMK AO2 SLP240 T00830028 401330083
63871K1J0 1J020160102000011001/02/16 00:00:31  5-MIN K1J0 020500Z AUTO 34006KT 10SM CLR 08/03 A3028 -240 68 -1000 340/06 RMK AO2 T00830028
63871K1J0 1J020160102000511001/02/16 00:05:31  5-MIN K1J0 020505Z AUTO 35005KT 10SM CLR 08/03 A3028 -240 68 -1000 350/05 RMK AO2 T00830028
63871K1J0 1J020160102001011001/02/16 00:10:31  5-MIN K1J0 020510Z AUTO 36006KT 10SM CLR 08/03 A3027 -230 68 -1000 360/06 RMK AO2 T00830028
63871K1J0 1J020160102001511701/02/16 00:15:31  5-MIN K1J0 020515Z AUTO 36005KT 10SM CLR 08/03 A3026 -220 68 -1000 360/05 RMK AO2 PRESFR T00830028
63871K1J0 1J020160102002011001/02/16 00:20:31  5-MIN K1J0 020520Z AUTO 35006KT 10SM CLR 08/03 A3026 -220 68 -1000 350/06 RMK AO2 T00830028
63871K1J0 1J020160102002511001/02/16 00:25:31  5-MIN K1J0 020525Z AUTO 36006KT 10SM CLR 08/03 A3025 -220 70 -1100 360/06 RMK AO2 T00780028
63871K1J0 1J020160102003011001/02/16 00:30:31  5-MIN K1J0 020530Z AUTO 35006KT 10SM CLR 08/03 A3025 -210 70 -1100 350/06 RMK AO2 T00780028
63871K1J0 1J020160102003511001/02/16 00:35:31  5-MIN K1J0 020535Z AUTO 36006KT 10SM CLR 08/03 A3025 -210 70 -1000 360/06 RMK AO2 T00780028
63871K1J0 1J020160102004011001/02/16 00:40:31  5-MIN K1J0 020540Z AUTO 33005KT 10SM CLR 08/03 A3027 -230 68 -1000 330/05 RMK AO2 T00830028
63871K1J0 1J020160102004511001/02/16 00:45:31  5-MIN K1J0 020545Z AUTO 34008KT 10SM CLR 08/03 A3027 -230 68 -1000 340/08 RMK AO2 T00830028
63871K1J0 1J020160102005011001/02/16 00:50:31  5-MIN K1J0 020550Z AUTO 36008KT 10SM CLR 08/02 A3025 -210 65 -1000 360/08 RMK AO2 T00830022
63871K1J0 1J020160102005512901/02/16 00:55:31  5-MIN K1J0 020555Z AUTO 01007KT 10SM CLR 08/02 A3024 -200 65 -1000 010/07 RMK AO2 SLP223 T00830022 10094 20078
63871K1J0 1J020160102010011001/02/16 01:00:31  5-MIN K1J0 020600Z AUTO 35007KT 10SM CLR 08/03 A3025 -210 68 -1000 350/07 RMK AO2 T00830028
63871K1J0 1J020160102010511001/02/16 01:05:31  5-MIN K1J0 020605Z AUTO 33006KT 10SM CLR 08/03 A3027 -230 68 -1000 330/06 RMK AO2 T00830028
63871K1J0 1J020160102011011001/02/16 01:10:31  5-MIN K1J0 020610Z AUTO 33006KT 10SM CLR 08/02 A3027 -230 65 -1000 330/06 RMK AO2 T00830022
63871K1J0 1J020160102011511001/02/16 01:15:31  5-MIN K1J0 020615Z AUTO 34007KT 10SM CLR 08/02 A3025 -220 65 -1000 340/07 RMK AO2 T00830022
63871K1J0 1J020160102012011001/02/16 01:20:31  5-MIN K1J0 020620Z AUTO 36005KT 10SM CLR 08/03 A3025 -220 68 -1000 360/05 RMK AO2 T00830028
63871K1J0 1J020160102012511001/02/16 01:25:31  5-MIN K1J0 020625Z AUTO 34009KT 10SM CLR 08/03 A3025 -210 68 -1000 340/09 RMK AO2 T00830028
63871K1J0 1J020160102013011001/02/16 01:30:31  5-MIN K1J0 020630Z AUTO 33006KT 10SM CLR 08/02 A3026 -220 65 -1000 330/06 RMK AO2 T00830022
63871K1J0 1J020160102013511001/02/16 01:35:31  5-MIN K1J0 020635Z AUTO 34006KT 10SM CLR 08/02 A3026 -220 65 -1000 340/06 RMK AO2 T00830022
63871K1J0 1J020160102014011001/02/16 01:40:31  5-MIN K1J0 020640Z AUTO 34006KT 10SM CLR 08/02 A3027 -230 65 -1000 340/06 RMK AO2 T00830022
63871K1J0 1J020160102014511001/02/16 01:45:31  5-MIN K1J0 020645Z AUTO 33007KT 10SM CLR 08/02 A3026 -230 65 -1000 330/07 RMK AO2 T00830022
63871K1J0 1J020160102015011601/02/16 01:50:31  5-MIN K1J0 020650Z AUTO 34008G15KT 10SM CLR 08/02 A3027 -230 65 -1000 340/08G15 RMK AO2 T00830022
63871K1J0 1J020160102015513901/02/16 01:55:31  5-MIN K1J0 020655Z AUTO 34011G16KT 300V010 10SM CLR 08/02 A3026 -220 68 -1100 340/11G16 300V010 RMK AO2 SLP232 T00780022
63871K1J0 1J020160102020011601/02/16 02:00:31  5-MIN K1J0 020700Z AUTO 35009G16KT 10SM CLR 08/02 A3025 -210 65 -1000 350/09G16 RMK AO2 T00780017
63871K1J0 1J020160102020511001/02/16 02:05:31  5-MIN K1J0 020705Z AUTO 33006KT 10SM CLR 08/02 A3026 -220 65 -1100 330/06 RMK AO2 T00780017
63871K1J0 1J020160102021011001/02/16 02:10:31  5-MIN K1J0 020710Z AUTO 34008KT 10SM CLR 08/02 A3025 -220 65 -1100 340/08 RMK AO2 T00780017
63871K1J0 1J020160102021511001/02/16 02:15:31  5-MIN K1J0 020715Z AUTO 36008KT 10SM CLR 08/02 A3024 -210 65 -1000 360/08 RMK AO2 T00780017
63871K1J0 1J020160102022011001/02/16 02:20:31  5-MIN K1J0 020720Z AUTO 35007KT 10SM CLR 08/02 A3025 -210 68 -1100 350/07 RMK AO2 T00780022
63871K1J0 1J020160102022511001/02/16 02:25:31  5-MIN K1J0 020725Z AUTO 36005KT 10SM CLR 08/02 A3025 -210 65 -1000 360/05 RMK AO2 T00780017
63871K1J0 1J020160102023011001/02/16 02:30:31  5-MIN K1J0 020730Z AUTO 35007KT 10SM CLR 08/02 A3024 -200 65 -1000 350/07 RMK AO2 T00780017
63871K1J0 1J020160102023511001/02/16 02:35:31  5-MIN K1J0 020735Z AUTO 34008KT 10SM CLR 08/02 A3025 -210 65 -1000 340/08 RMK AO2 T00780017
63871K1J0 1J020160102024011001/02/16 02:40:31  5-MIN K1J0 020740Z AUTO 34008KT 10SM CLR 08/02 A3025 -210 65 -1000 340/08 RMK AO2 T00780017
63871K1J0 1J020160102024511001/02/16 02:45:31  5-MIN K1J0 020745Z AUTO 34007KT 10SM CLR 08/02 A3025 -210 65 -1000 340/07 RMK AO2 T00780017
63871K1J0 1J020160102025011001/02/16 02:50:31  5-MIN K1J0 020750Z AUTO 35007KT 10SM CLR 08/02 A3024 -210 65 -1000 350/07 RMK AO2 T00780017
63871K1J0 1J020160102025511701/02/16 02:55:31  5-MIN K1J0 020755Z AUTO 35008KT 10SM CLR 08/02 A3025 -210 65 -1000 350/08 RMK AO2 SLP227 T00780017
63871K1J0 1J020160102030011001/02/16 03:00:31  5-MIN K1J0 020800Z AUTO 35008KT 10SM CLR 08/02 A3025 -210 65 -1000 350/08 RMK AO2 T00780017
63871K1J0 1J020160102030511001/02/16 03:05:31  5-MIN K1J0 020805Z AUTO 34009KT 10SM CLR 08/02 A3025 -220 65 -1100 340/09 RMK AO2 T00780017
63871K1J0 1J020160102031011001/02/16 03:10:31  5-MIN K1J0 020810Z AUTO 34007KT 10SM CLR 08/02 A3026 -220 65 -1100 340/07 RMK AO2 T00780017
63871K1J0 1J020160102031511001/02/16 03:15:31  5-MIN K1J0 020815Z AUTO 34007KT 10SM CLR 08/02 A3025 -210 65 -1000 340/07 RMK AO2 T00780017
63871K1J0 1J020160102032011001/02/16 03:20:31  5-MIN K1J0 020820Z AUTO 34007KT 10SM CLR 08/02 A3025 -220 65 -1100 340/07 RMK AO2 T00780017
63871K1J0 1J020160102032511001/02/16 03:25:31  5-MIN K1J0 020825Z AUTO 35006KT 10SM CLR 08/02 A3025 -220 65 -1100 350/06 RMK AO2 T00780017
63871K1J0 1J020160102033011001/02/16 03:30:31  5-MIN K1J0 020830Z AUTO 34007KT 10SM CLR 07/02 A3026 -220 68 -1100 340/07 RMK AO2 T00720017
63871K1J0 1J020160102033511001/02/16 03:35:31  5-MIN K1J0 020835Z AUTO 33007KT 10SM CLR 08/01 A3026 -220 62 -1100 330/07 RMK AO2 T00780011
63871K1J0 1J020160102034011001/02/16 03:40:31  5-MIN K1J0 020840Z AUTO 35006KT 10SM CLR 07/01 A3026 -220 65 -1100 350/06 RMK AO2 T00720011
63871K1J0 1J020160102034511001/02/16 03:45:31  5-MIN K1J0 020845Z AUTO 34008KT 10SM CLR 07/02 A3026 -220 68 -1100 340/08 RMK AO2 T00720017
63871K1J0 1J020160102035011001/02/16 03:50:31  5-MIN K1J0 020850Z AUTO 34010KT 10SM CLR 07/01 A3026 -230 65 -1100 340/10 RMK AO2 T00720011
63871K1J0 1J020160102035513901/02/16 03:55:31  5-MIN K1J0 020855Z AUTO 33008KT 290V350 10SM CLR 07/01 A3027 -230 65 -1100 330/08 290V350 RMK AO2 SLP235 T00720011 58014
63871K1J0 1J020160102040011001/02/16 04:00:31  5-MIN K1J0 020900Z AUTO 35005KT 10SM CLR 07/01 A3026 -220 65 -1100 350/05 RMK AO2 T00720011
63871K1J0 1J020160102040511001/02/16 04:05:31  5-MIN K1J0 020905Z AUTO 35006KT 10SM CLR 07/01 A3025 -220 65 -1100 350/06 RMK AO2 T00720011
63871K1J0 1J020160102041011001/02/16 04:10:31  5-MIN K1J0 020910Z AUTO 35009KT 10SM CLR 07/01 A3025 -210 65 -1100 350/09 RMK AO2 T00720011
63871K1J0 1J020160102041511001/02/16 04:15:31  5-MIN K1J0 020915Z AUTO 34007KT 10SM CLR 07/01 A3025 -220 65 -1100 340/07 RMK AO2 T00720011
63871K1J0 1J020160102042011001/02/16 04:20:31  5-MIN K1J0 020920Z AUTO 35007KT 10SM CLR 07/01 A3026 -220 65 -1100 350/07 RMK AO2 T00720011
63871K1J0 1J020160102042511001/02/16 04:25:31  5-MIN K1J0 020925Z AUTO 34008KT 10SM CLR 07/01 A3026 -220 62 -1100 340/08 RMK AO2 T00720006
63871K1J0 1J020160102043011001/02/16 04:30:31  5-MIN K1J0 020930Z AUTO 35008KT 10SM CLR 07/01 A3026 -220 65 -1100 350/08 RMK AO2 T00720011
63871K1J0 1J020160102043511001/02/16 04:35:31  5-MIN K1J0 020935Z AUTO 34008KT 10SM CLR 07/01 A3027 -230 65 -1100 340/08 RMK AO2 T00720011
63871K1J0 1J020160102044011001/02/16 04:40:31  5-MIN K1J0 020940Z AUTO 34006KT 10SM CLR 07/01 A3027 -230 62 -1100 340/06 RMK AO2 T00720006
63871K1J0 1J020160102044511001/02/16 04:45:31  5-MIN K1J0 020945Z AUTO 34005KT 10SM CLR 07/01 A3026 -220 62 -1100 340/05 RMK AO2 T00720006
63871K1J0 1J020160102045011001/02/16 04:50:31  5-MIN K1J0 020950Z AUTO 34008KT 10SM CLR 07/01 A3027 -230 62 -1100 340/08 RMK AO2 T00720006
63871K1J0 1J020160102045511701/02/16 04:55:31  5-MIN K1J0 020955Z AUTO 34008KT 10SM CLR 07/01 A3027 -230 62 -1100 340/08 RMK AO2 SLP236 T00720006
63871K1J0 1J020160102050011001/02/16 05:00:31  5-MIN K1J0 021000Z AUTO 34007KT 10SM CLR 07/01 A3027 -230 62 -1100 340/07 RMK AO2 T00720006
63871K1J0 1J020160102050511001/02/16 05:05:31  5-MIN K1J0 021005Z AUTO 35005KT 10SM CLR 07/01 A3026 -220 62 -1100 350/05 RMK AO2 T00720006
63871K1J0 1J020160102051011001/02/16 05:10:31  5-MIN K1J0 021010Z AUTO 34006KT 10SM CLR 07/01 A3026 -220 62 -1100 340/06 RMK AO2 T00720006
63871K1J0 1J020160102051511001/02/16 05:15:31  5-MIN K1J0 021015Z AUTO 34008KT 10SM CLR 07/01 A3027 -230 62 -1100 340/08 RMK AO2 T00720006
63871K1J0 1J020160102052011001/02/16 05:20:31  5-MIN K1J0 021020Z AUTO 34009KT 10SM CLR 07/01 A3028 -240 62 -1200 340/09 RMK AO2 T00720006
63871K1J0 1J020160102052511001/02/16 05:25:31  5-MIN K1J0 021025Z AUTO 35007KT 10SM CLR 07/01 A3028 -240 62 -1100 350/07 RMK AO2 T00720006
63871K1J0 1J020160102053011001/02/16 05:30:31  5-MIN K1J0 021030Z AUTO 34006KT 10SM CLR 07/01 A3028 -240 62 -1100 340/06 RMK AO2 T00720006
63871K1J0 1J020160102053511001/02/16 05:35:31  5-MIN K1J0 021035Z AUTO 34008KT 10SM CLR 07/01 A3028 -240 62 -1100 340/08 RMK AO2 T00720006
63871K1J0 1J020160102054011001/02/16 05:40:31  5-MIN K1J0 021040Z AUTO 36006KT 10SM CLR 07/01 A3027 -230 62 -1100 360/06 RMK AO2 T00720006
63871K1J0 1J020160102054511001/02/16 05:45:31  5-MIN K1J0 021045Z AUTO 34006KT 10SM CLR 07/01 A3027 -230 62 -1100 340/06 RMK AO2 T00720006
63871K1J0 1J020160102055011001/02/16 05:50:31  5-MIN K1J0 021050Z AUTO 35006KT 10SM CLR 07/00 A3027 -230 60 -1100 350/06 RMK AO2 T00720000
63871K1J0 1J020160102055511701/02/16 05:55:31  5-MIN K1J0 021055Z AUTO 34008KT 10SM CLR 07/00 A3027 -230 60 -1100 340/08 RMK AO2 SLP235 T00720000
63871K1J0 1J020160102060011001/02/16 06:00:31  5-MIN K1J0 021100Z AUTO 36010KT 10SM CLR 07/00 A3027 -230 60 -1100 360/10 RMK AO2 T00720000
63871K1J0 1J020160102060511001/02/16 06:05:31  5-MIN K1J0 021105Z AUTO 36006KT 10SM CLR 07/00 A3027 -230 60 -1100 360/06 RMK AO2 T00720000
63871K1J0 1J020160102061011001/02/16 06:10:31  5-MIN K1J0 021110Z AUTO 34006KT 10SM CLR 07/00 A3027 -230 62 -1200 340/06 RMK AO2 T00670000
63871K1J0 1J020160102061511001/02/16 06:15:31  5-MIN K1J0 021115Z AUTO 35006KT 10SM CLR 07/00 A3027 -230 62 -1200 350/06 RMK AO2 T00670000
63871K1J0 1J020160102062011001/02/16 06:20:31  5-MIN K1J0 021120Z AUTO 35005KT 10SM CLR 07/00 A3027 -230 62 -1200 350/05 RMK AO2 T00670000
63871K1J0 1J020160102062511001/02/16 06:25:31  5-MIN K1J0 021125Z AUTO 34005KT 10SM CLR 07/00 A3027 -230 62 -1200 340/05 RMK AO2 T00670000
63871K1J0 1J020160102063011001/02/16 06:30:31  5-MIN K1J0 021130Z AUTO 34007KT 10SM CLR 07/01 A3027 -230 65 -1200 340/07 RMK AO2 T00670006
63871K1J0 1J020160102063511001/02/16 06:35:31  5-MIN K1J0 021135Z AUTO 35007KT 10SM CLR 07/01 A3027 -230 65 -1200 350/07 RMK AO2 T00670006
63871K1J0 1J020160102064011001/02/16 06:40:31  5-MIN K1J0 021140Z AUTO 34007KT 10SM CLR 07/01 A3027 -230 65 -1200 340/07 RMK AO2 T00670006
63871K1J0 1J020160102064511001/02/16 06:45:31  5-MIN K1J0 021145Z AUTO 34005KT 10SM CLR 07/00 A3027 -230 62 -1200 340/05 RMK AO2 T00670000
63871K1J0 1J020160102065011001/02/16 06:50:31  5-MIN K1J0 021150Z AUTO 33005KT 10SM CLR 07/00 A3028 -240 62 -1200 330/05 RMK AO2 T00670000
63871K1J0 1J020160102065513501/02/16 06:55:31  5-MIN K1J0 021155Z AUTO 34007KT 10SM CLR 07/00 A3028 -240 62 -1200 340/07 RMK AO2 SLP239 T00670000 10083 20067 53008
63871K1J0 1J020160102070011001/02/16 07:00:31  5-MIN K1J0 021200Z AUTO 34006KT 10SM CLR 07/01 A3028 -240 65 -1200 340/06 RMK AO2 T00670006
63871K1J0 1J020160102070511001/02/16 07:05:31  5-MIN K1J0 021205Z AUTO 34008KT 10SM CLR 07/00 A3029 -250 62 -1200 340/08 RMK AO2 T00670000
63871K1J0 1J020160102071011001/02/16 07:10:31  5-MIN K1J0 021210Z AUTO 34008KT 10SM CLR 07/00 A3029 -250 62 -1200 340/08 RMK AO2 T00670000
63871K1J0 1J020160102071511001/02/16 07:15:31  5-MIN K1J0 021215Z AUTO 34008KT 10SM CLR 06/00 A3029 -250 65 -1300 340/08 RMK AO2 T00610000
63871K1J0 1J020160102072011001/02/16 07:20:31  5-MIN K1J0 021220Z AUTO 34007KT 10SM CLR 06/00 A3029 -250 65 -1300 340/07 RMK AO2 T00610000
63871K1J0 1J020160102072511001/02/16 07:25:31  5-MIN K1J0 021225Z AUTO 36009KT 10SM CLR 06/00 A3029 -250 65 -1300 360/09 RMK AO2 T00610000
63871K1J0 1J020160102073011001/02/16 07:30:31  5-MIN K1J0 021230Z AUTO 34006KT 10SM CLR 06/00 A3029 -250 65 -1300 340/06 RMK AO2 T00610000
63871K1J0 1J020160102073511001/02/16 07:35:31  5-MIN K1J0 021235Z AUTO 35006KT 10SM CLR 06/00 A3029 -250 65 -1300 350/06 RMK AO2 T00610000
63871K1J0 1J020160102074011001/02/16 07:40:31  5-MIN K1J0 021240Z AUTO 34006KT 10SM CLR 06/00 A3029 -250 65 -1300 340/06 RMK AO2 T00610000
63871K1J0 1J020160102074511001/02/16 07:45:31  5-MIN K1J0 021245Z AUTO 33006KT 10SM CLR 06/00 A3030 -260 65 -1300 330/06 RMK AO2 T00610000
63871K1J0 1J020160102075011001/02/16 07:50:31  5-MIN K1J0 021250Z AUTO 35007KT 10SM CLR 06/00 A3029 -250 65 -1300 350/07 RMK AO2 T00610000
63871K1J0 1J020160102075511701/02/16 07:55:31  5-MIN K1J0 021255Z AUTO 34006KT 10SM CLR 06/00 A3029 -250 65 -1300 340/06 RMK AO2 SLP244 T00610000
63871K1J0 1J020160102080011001/02/16 08:00:31  5-MIN K1J0 021300Z AUTO 33006KT 10SM CLR 06/00 A3030 -260 65 -1300 330/06 RMK AO2 T00610000
63871K1J0 1J020160102080511001/02/16 08:05:31  5-MIN K1J0 021305Z AUTO 34007KT 10SM CLR 06/00 A3030 -260 65 -1300 340/07 RMK AO2 T00610000
63871K1J0 1J020160102081011001/02/16 08:10:31  5-MIN K1J0 021310Z AUTO 34006KT 10SM CLR 06/00 A3030 -250 65 -1300 340/06 RMK AO2 T00610000
63871K1J0 1J020160102081511001/02/16 08:15:31  5-MIN K1J0 021315Z AUTO 35007KT 10SM CLR 06/00 A3029 -250 65 -1300 350/07 RMK AO2 T00610000
63871K1J0 1J020160102082011001/02/16 08:20:31  5-MIN K1J0 021320Z AUTO 35005KT 10SM CLR 06/01 A3029 -250 67 -1300 350/05 RMK AO2 T00610006
63871K1J0 1J020160102082511001/02/16 08:25:31  5-MIN K1J0 021325Z AUTO 34006KT 10SM CLR 06/01 A3029 -250 67 -1300 340/06 RMK AO2 T00610006
63871K1J0 1J020160102174010901/02/16 17:40:31  5-MIN K1J0 022240Z AUTO 00000KT 10SM CLR 09/04 A3020 -170 71 -800 000/00 RMK AO2 T00940044
63871K1J0 1J020160102174510901/02/16 17:45:31  5-MIN K1J0 022245Z AUTO 00000KT 10SM CLR 09/04 A3020 -170 68 -800 000/00 RMK AO2 T00940039
63871K1J0 1J020160102175010901/02/16 17:50:31  5-MIN K1J0 022250Z AUTO 00000KT 10SM CLR 09/04 A3020 -160 73 -900 000/00 RMK AO2 T00890044
63871K1J0 1J020160102175511601/02/16 17:55:31  5-MIN K1J0 022255Z AUTO 00000KT 10SM CLR 09/04 A3019 -160 73 -800 000/00 RMK AO2 SLP209 T00890044
63871K1J0 1J020160102180010901/02/16 18:00:31  5-MIN K1J0 022300Z AUTO 00000KT 10SM CLR 09/04 A3019 -150 73 -800 000/00 RMK AO2 T00890044
63871K1J0 1J020160102180510901/02/16 18:05:31  5-MIN K1J0 022305Z AUTO 00000KT 10SM CLR 09/05 A3018 -150 76 -800 000/00 RMK AO2 T00890050
63871K1J0 1J020160102181010901/02/16 18:10:31  5-MIN K1J0 022310Z AUTO 00000KT 10SM CLR 09/04 A3019 -160 73 -800 000/00 RMK AO2 T00890044
63871K1J0 1J020160102181510901/02/16 18:15:31  5-MIN K1J0 022315Z AUTO 00000KT 10SM CLR 09/04 A3019 -160 73 -800 000/00 RMK AO2 T00890044
63871K1J0 1J020160102182010901/02/16 18:20:31  5-MIN K1J0 022320Z AUTO 00000KT 10SM CLR 09/05 A3019 -160 76 -800 000/00 RMK AO2 T00890050
63871K1J0 1J020160102182510901/02/16 18:25:31  5-MIN K1J0 022325Z AUTO 00000KT 10SM CLR 09/06 A3019 -160 79 -800 000/00 RMK AO2 T00890056
63871K1J0 1J020160102183010901/02/16 18:30:31  5-MIN K1J0 022330Z AUTO 00000KT 10SM CLR 08/05 A3019 -160 79 -900 000/00 RMK AO2 T00830050
63871K1J0 1J020160102183510901/02/16 18:35:31  5-MIN K1J0 022335Z AUTO 33003KT 10SM CLR 09/05 A3019 -160 76 -800 330/03 RMK AO2 T00890050
63871K1J0 1J020160102184010901/02/16 18:40:31  5-MIN K1J0 022340Z AUTO 00000KT 10SM CLR 09/06 A3019 -160 79 -800 000/00 RMK AO2 T00890056
63871K1J0 1J020160102184510901/02/16 18:45:31  5-MIN K1J0 022345Z AUTO 00000KT 10SM CLR 09/06 A3018 -150 79 -800 000/00 RMK AO2 T00890056
63871K1J0 1J020160102185010901/02/16 18:50:31  5-MIN K1J0 022350Z AUTO 00000KT 10SM CLR 09/05 A3018 -150 76 -800 000/00 RMK AO2 T00890050
63871K1J0 1J020160102185513401/02/16 18:55:31  5-MIN K1J0 022355Z AUTO 00000KT 10SM CLR 09/05 A3018 -140 76 -800 000/00 RMK AO2 SLP204 T00890050 10106 20083 56019
63871K1J0 1J020160102190010901/02/16 19:00:31  5-MIN K1J0 030000Z AUTO 00000KT 10SM CLR 09/05 A3018 -150 76 -800 000/00 RMK AO2 T00890050
63871K1J0 1J020160102190510901/02/16 19:05:31  5-MIN K1J0 030005Z AUTO 00000KT 10SM CLR 09/05 A3018 -150 76 -800 000/00 RMK AO2 T00890050
63871K1J0 1J020160102191010901/02/16 19:10:31  5-MIN K1J0 030010Z AUTO 00000KT 10SM CLR 08/05 A3019 -160 79 -900 000/00 RMK AO2 T00830050
63871K1J0 1J020160102191507701/02/16 19:15:31  5-MIN K1J0 030015Z AUTO CLR M M M M /M RMK AO2 T00890050 $
63871K1J0 1J020160102192007901/02/16 19:20:31  5-MIN K1J0 030020Z AUTO 30003KT A3021 M M M 300/03 RMK AO2 $
63871K1J0 1J020160102192510701/02/16 19:25:31  5-MIN K1J0 030025Z AUTO 31003KT 10SM 09/05 A3021 -180 76 -900 310/03 RMK AO2 T00890050 $
63871K1J0 1J020160102193010701/02/16 19:30:31  5-MIN K1J0 030030Z AUTO 32004KT 10SM 09/05 A3021 -170 76 -900 320/04 RMK AO2 T00890050 $
63871K1J0 1J020160102193510701/02/16 19:35:31  5-MIN K1J0 030035Z AUTO 31004KT 10SM 09/04 A3021 -180 73 -900 310/04 RMK AO2 T00890044 $
63871K1J0 1J020160102194010701/02/16 19:40:31  5-MIN K1J0 030040Z AUTO 31004KT 10SM 09/04 A3022 -180 73 -900 310/04 RMK AO2 T00890044 $
63871K1J0 1J020160102194510701/02/16 19:45:31  5-MIN K1J0 030045Z AUTO 00000KT 10SM 09/04 A3022 -180 73 -900 000/00 RMK AO2 T00890044 $
63871K1J0 1J020160102195011101/02/16 19:50:31  5-MIN K1J0 030050Z AUTO 00000KT 10SM CLR 09/04 A3021 -180 71 -800 000/00 RMK AO2 T00940044 $
63871K1J0 1J020160102195511801/02/16 19:55:31  5-MIN K1J0 030055Z AUTO 00000KT 10SM CLR 09/04 A3021 -180 73 -900 000/00 RMK AO2 SLP216 T00890044 $
63871K1J0 1J020160102200011101/02/16 20:00:31  5-MIN K1J0 030100Z AUTO 00000KT 10SM CLR 09/04 A3022 -180 71 -800 000/00 RMK AO2 T00940044 $
63871K1J0 1J020160102200511101/02/16 20:05:31  5-MIN K1J0 030105Z AUTO 00000KT 10SM CLR 09/05 A3022 -190 76 -900 000/00 RMK AO2 T00890050 $
63871K1J0 1J020160102201011101/02/16 20:10:31  5-MIN K1J0 030110Z AUTO 00000KT 10SM CLR 09/05 A3023 -190 76 -900 000/00 RMK AO2 T00890050 $
63871K1J0 1J020160102201511101/02/16 20:15:31  5-MIN K1J0 030115Z AUTO 00000KT 10SM CLR 09/05 A3023 -200 76 -900 000/00 RMK AO2 T00890050 $
63871K1J0 1J020160102202011101/02/16 20:20:31  5-MIN K1J0 030120Z AUTO 00000KT 10SM CLR 09/05 A3023 -200 76 -900 000/00 RMK AO2 T00890050 $
63871K1J0 1J020160102202511101/02/16 20:25:31  5-MIN K1J0 030125Z AUTO 31003KT 10SM CLR 09/05 A3023 -200 74 -800 310/03 RMK AO2 T00940050 $
63871K1J0 1J020160102203011101/02/16 20:30:31  5-MIN K1J0 030130Z AUTO 32003KT 10SM CLR 09/05 A3023 -190 76 -900 320/03 RMK AO2 T00890050 $
63871K1J0 1J020160102203511101/02/16 20:35:31  5-MIN K1J0 030135Z AUTO 33004KT 10SM CLR 09/05 A3023 -190 76 -900 330/04 RMK AO2 T00890050 $
63871K1J0 1J020160102204011101/02/16 20:40:31  5-MIN K1J0 030140Z AUTO 33003KT 10SM CLR 09/04 A3022 -190 73 -900 330/03 RMK AO2 T00890044 $
63871K1J0 1J020160102204511101/02/16 20:45:31  5-MIN K1J0 030145Z AUTO 34003KT 10SM CLR 09/04 A3022 -190 73 -900 340/03 RMK AO2 T00890044 $
63871K1J0 1J020160102205011101/02/16 20:50:31  5-MIN K1J0 030150Z AUTO 00000KT 10SM CLR 09/05 A3022 -190 76 -900 000/00 RMK AO2 T00890050 $
63871K1J0 1J020160102205511801/02/16 20:55:31  5-MIN K1J0 030155Z AUTO 32003KT 10SM CLR 09/05 A3022 -190 76 -900 320/03 RMK AO2 SLP220 T00890050 $
63871K1J0 1J020160102210011101/02/16 21:00:31  5-MIN K1J0 030200Z AUTO 32003KT 10SM CLR 09/04 A3023 -190 73 -900 320/03 RMK AO2 T00890044 $
63871K1J0 1J020160102210511101/02/16 21:05:31  5-MIN K1J0 030205Z AUTO 00000KT 10SM CLR 09/04 A3023 -190 73 -900 000/00 RMK AO2 T00890044 $
63871K1J0 1J020160102211011101/02/16 21:10:31  5-MIN K1J0 030210Z AUTO 00000KT 10SM CLR 09/04 A3022 -180 73 -900 000/00 RMK AO2 T00890044 $
63871K1J0 1J020160102211511101/02/16 21:15:31  5-MIN K1J0 030215Z AUTO 00000KT 10SM CLR 09/04 A3021 -180 73 -900 000/00 RMK AO2 T00890044 $
63871K1J0 1J020160102212011101/02/16 21:20:31  5-MIN K1J0 030220Z AUTO 00000KT 10SM CLR 09/05 A3021 -180 76 -900 000/00 RMK AO2 T00890050 $
63871K1J0 1J020160102212511101/02/16 21:25:31  5-MIN K1J0 030225Z AUTO 00000KT 10SM CLR 09/05 A3021 -170 76 -900 000/00 RMK AO2 T00890050 $
63871K1J0 1J020160102213011101/02/16 21:30:31  5-MIN K1J0 030230Z AUTO 00000KT 10SM CLR 09/05 A3022 -180 76 -900 000/00 RMK AO2 T00890050 $
63871K1J0 1J020160102213511101/02/16 21:35:31  5-MIN K1J0 030235Z AUTO 00000KT 10SM CLR 09/04 A3022 -180 73 -900 000/00 RMK AO2 T00890044 $
63871K1J0 1J020160102214011101/02/16 21:40:31  5-MIN K1J0 030240Z AUTO 00000KT 10SM CLR 09/04 A3022 -190 73 -900 000/00 RMK AO2 T00890044 $
63871K1J0 1J020160102214511101/02/16 21:45:31  5-MIN K1J0 030245Z AUTO 00000KT 10SM CLR 09/04 A3022 -190 73 -900 000/00 RMK AO2 T00890044 $
63871K1J0 1J020160102215011101/02/16 21:50:31  5-MIN K1J0 030250Z AUTO 00000KT 10SM CLR 09/05 A3022 -190 76 -900 000/00 RMK AO2 T00890050 $
63871K1J0 1J020160102215511801/02/16 21:55:31  5-MIN K1J0 030255Z AUTO 31003KT 10SM CLR 09/05 A3022 -190 76 -900 310/03 RMK AO2 SLP220 T00890050 $
63871K1J0 1J020160102220011401/02/16 22:00:31  5-MIN K1J0 030300Z AUTO 31003KT 10SM FEW120 09/04 A3022 -180 73 -900 310/03 RMK AO2 T00890044 $
63871K1J0 1J020160102220511401/02/16 22:05:31  5-MIN K1J0 030305Z AUTO 00000KT 10SM FEW120 09/04 A3022 -180 73 -900 000/00 RMK AO2 T00890044 $
63871K1J0 1J020160102221011401/02/16 22:10:31  5-MIN K1J0 030310Z AUTO 00000KT 10SM FEW120 09/04 A3021 -180 73 -900 000/00 RMK AO2 T00890044 $
63871K1J0 1J020160102221511101/02/16 22:15:31  5-MIN K1J0 030315Z AUTO 00000KT 10SM CLR 09/04 A3021 -180 73 -900 000/00 RMK AO2 T00890044 $
63871K1J0 1J020160102222011101/02/16 22:20:31  5-MIN K1J0 030320Z AUTO 00000KT 10SM CLR 09/04 A3021 -170 71 -900 000/00 RMK AO2 T00890039 $
63871K1J0 1J020160102222511801/02/16 22:25:31  5-MIN K1J0 030325Z AUTO 00000KT 10SM CLR 09/04 A3019 -160 73 -900 000/00 RMK AO2 PRESFR T00890044 $
63871K1J0 1J020160102223011101/02/16 22:30:31  5-MIN K1J0 030330Z AUTO 00000KT 10SM CLR 09/04 A3020 -160 73 -900 000/00 RMK AO2 T00890044 $
63871K1J0 1J020160102223511101/02/16 22:35:31  5-MIN K1J0 030335Z AUTO 00000KT 10SM CLR 09/04 A3020 -170 73 -900 000/00 RMK AO2 T00890044 $
63871K1J0 1J020160102224011101/02/16 22:40:31  5-MIN K1J0 030340Z AUTO 00000KT 10SM CLR 09/04 A3021 -180 71 -900 000/00 RMK AO2 T00890039 $
63871K1J0 1J020160102224511101/02/16 22:45:31  5-MIN K1J0 030345Z AUTO 00000KT 10SM CLR 09/04 A3021 -170 73 -900 000/00 RMK AO2 T00890044 $
63871K1J0 1J020160102225011101/02/16 22:50:31  5-MIN K1J0 030350Z AUTO 00000KT 10SM CLR 09/04 A3021 -180 73 -900 000/00 RMK AO2 T00890044 $
63871K1J0 1J020160102225511801/02/16 22:55:31  5-MIN K1J0 030355Z AUTO 00000KT 10SM CLR 09/04 A3021 -180 71 -900 000/00 RMK AO2 SLP217 T00890039 $
63871K1J0 1J020160102230011101/02/16 23:00:31  5-MIN K1J0 030400Z AUTO 00000KT 10SM CLR 09/04 A3022 -180 73 -900 000/00 RMK AO2 T00890044 $
63871K1J0 1J020160102230511101/02/16 23:05:31  5-MIN K1J0 030405Z AUTO 32003KT 10SM CLR 08/05 A3022 -190 79 -900 320/03 RMK AO2 T00830050 $
63871K1J0 1J020160102231011201/02/16 23:10:31  5-MIN K1J0 030410Z AUTO 00000KT 10SM CLR 08/04 A3022 -190 76 -1000 000/00 RMK AO2 T00830044 $
63871K1J0 1J020160102231511201/02/16 23:15:31  5-MIN K1J0 030415Z AUTO 00000KT 10SM CLR 08/05 A3023 -190 79 -1000 000/00 RMK AO2 T00830050 $
63871K1J0 1J020160102232011201/02/16 23:20:31  5-MIN K1J0 030420Z AUTO 00000KT 10SM CLR 08/04 A3023 -190 76 -1000 000/00 RMK AO2 T00830044 $
63871K1J0 1J020160102232511101/02/16 23:25:31  5-MIN K1J0 030425Z AUTO 00000KT 10SM CLR 08/04 A3022 -190 76 -900 000/00 RMK AO2 T00830044 $
63871K1J0 1J020160102233011201/02/16 23:30:31  5-MIN K1J0 030430Z AUTO 00000KT 10SM CLR 08/04 A3023 -190 73 -1000 000/00 RMK AO2 T00830039 $
63871K1J0 1J020160102233511201/02/16 23:35:31  5-MIN K1J0 030435Z AUTO 00000KT 10SM CLR 08/04 A3023 -190 73 -1000 000/00 RMK AO2 T00830039 $
63871K1J0 1J020160102234011101/02/16 23:40:31  5-MIN K1J0 030440Z AUTO 00000KT 10SM CLR 08/04 A3022 -190 76 -900 000/00 RMK AO2 T00830044 $
63871K1J0 1J020160102234511101/02/16 23:45:31  5-MIN K1J0 030445Z AUTO 00000KT 10SM CLR 08/04 A3022 -190 76 -900 000/00 RMK AO2 T00830044 $
63871K1J0 1J020160102235011101/02/16 23:50:31  5-MIN K1J0 030450Z AUTO 00000KT 10SM CLR 08/04 A3022 -180 76 -900 000/00 RMK AO2 T00830044 $
63871K1J0 1J020160102235512801/02/16 23:55:31  5-MIN K1J0 030455Z AUTO 00000KT 10SM CLR 08/04 A3021 -180 73 -900 000/00 RMK AO2 SLP217 T00830039 401060061 $
63871K1J0 1J020160103000011101/03/16 00:00:31  5-MIN K1J0 030500Z AUTO 00000KT 10SM CLR 08/04 A3021 -180 73 -900 000/00 RMK AO2 T00830039 $
63871K1J0 1J020160103000511101/03/16 00:05:31  5-MIN K1J0 030505Z AUTO 00000KT 10SM CLR 08/04 A3021 -180 76 -900 000/00 RMK AO2 T00830044 $
63871K1J0 1J020160103001011101/03/16 00:10:31  5-MIN K1J0 030510Z AUTO 00000KT 10SM CLR 08/04 A3021 -170 76 -900 000/00 RMK AO2 T00830044 $
63871K1J0 1J020160103001511101/03/16 00:15:31  5-MIN K1J0 030515Z AUTO 00000KT 10SM CLR 08/05 A3020 -170 79 -900 000/00 RMK AO2 T00830050 $
63871K1J0 1J020160103002011201/03/16 00:20:31  5-MIN K1J0 030520Z AUTO 00000KT 10SM CLR 08/04 A3020 -170 79 -1000 000/00 RMK AO2 T00780044 $
63871K1J0 1J020160103002511201/03/16 00:25:31  5-MIN K1J0 030525Z AUTO 33003KT 10SM CLR 08/05 A3020 -160 82 -1000 330/03 RMK AO2 T00780050 $
63871K1J0 1J020160103003011201/03/16 00:30:31  5-MIN K1J0 030530Z AUTO 32003KT 10SM CLR 08/04 A3020 -170 76 -1000 320/03 RMK AO2 T00780039 $
63871K1J0 1J020160103003511201/03/16 00:35:31  5-MIN K1J0 030535Z AUTO 34004KT 10SM CLR 08/04 A3019 -160 76 -1000 340/04 RMK AO2 T00780039 $
63871K1J0 1J020160103004011201/03/16 00:40:31  5-MIN K1J0 030540Z AUTO 33004KT 10SM CLR 08/04 A3019 -160 76 -1000 330/04 RMK AO2 T00780039 $
63871K1J0 1J020160103004511201/03/16 00:45:31  5-MIN K1J0 030545Z AUTO 32003KT 10SM CLR 08/03 A3020 -160 73 -1000 320/03 RMK AO2 T00780033 $
63871K1J0 1J020160103005011201/03/16 00:50:31  5-MIN K1J0 030550Z AUTO 31003KT 10SM CLR 08/03 A3020 -170 73 -1000 310/03 RMK AO2 T00780033 $
63871K1J0 1J020160103005513101/03/16 00:55:31  5-MIN K1J0 030555Z AUTO 32004KT 10SM CLR 08/03 A3020 -170 73 -1000 320/04 RMK AO2 SLP213 T00780033 10094 20078 $
63871K1J0 1J020160103010011201/03/16 01:00:31  5-MIN K1J0 030600Z AUTO 33005KT 10SM CLR 08/03 A3020 -160 70 -1000 330/05 RMK AO2 T00780028 $
63871K1J0 1J020160103010511201/03/16 01:05:31  5-MIN K1J0 030605Z AUTO 33004KT 10SM CLR 08/03 A3020 -160 70 -1000 330/04 RMK AO2 T00780028 $
63871K1J0 1J020160103011011201/03/16 01:10:31  5-MIN K1J0 030610Z AUTO 33005KT 10SM CLR 08/03 A3019 -160 70 -1000 330/05 RMK AO2 T00780028 $
63871K1J0 1J020160103011511201/03/16 01:15:31  5-MIN K1J0 030615Z AUTO 33003KT 10SM CLR 08/02 A3019 -160 68 -1000 330/03 RMK AO2 T00780022 $
63871K1J0 1J020160103012011201/03/16 01:20:31  5-MIN K1J0 030620Z AUTO 32004KT 10SM CLR 08/02 A3019 -160 68 -1000 320/04 RMK AO2 T00780022 $
63871K1J0 1J020160103012511201/03/16 01:25:31  5-MIN K1J0 030625Z AUTO 32004KT 10SM CLR 08/02 A3019 -160 68 -1000 320/04 RMK AO2 T00780022 $
63871K1J0 1J020160103013011201/03/16 01:30:31  5-MIN K1J0 030630Z AUTO 33004KT 10SM CLR 08/02 A3019 -160 68 -1000 330/04 RMK AO2 T00780022 $
63871K1J0 1J020160103013511201/03/16 01:35:31  5-MIN K1J0 030635Z AUTO 33004KT 10SM CLR 08/02 A3019 -150 68 -1000 330/04 RMK AO2 T00780022 $
63871K1J0 1J020160103014011201/03/16 01:40:31  5-MIN K1J0 030640Z AUTO 32004KT 10SM CLR 08/02 A3019 -160 68 -1000 320/04 RMK AO2 T00780022 $
63871K1J0 1J020160103014511201/03/16 01:45:31  5-MIN K1J0 030645Z AUTO 33004KT 10SM CLR 08/02 A3019 -160 68 -1000 330/04 RMK AO2 T00780022 $
63871K1J0 1J020160103015011201/03/16 01:50:31  5-MIN K1J0 030650Z AUTO 33004KT 10SM CLR 08/02 A3019 -150 68 -1000 330/04 RMK AO2 T00780022 $
63871K1J0 1J020160103015511901/03/16 01:55:31  5-MIN K1J0 030655Z AUTO 33004KT 10SM CLR 08/02 A3019 -150 68 -1000 330/04 RMK AO2 SLP207 T00780022 $
63871K1J0 1J020160103020011201/03/16 02:00:31  5-MIN K1J0 030700Z AUTO 33004KT 10SM CLR 08/02 A3018 -150 68 -1000 330/04 RMK AO2 T00780022 $
63871K1J0 1J020160103020511201/03/16 02:05:31  5-MIN K1J0 030705Z AUTO 33004KT 10SM CLR 07/02 A3018 -150 70 -1000 330/04 RMK AO2 T00720022 $
63871K1J0 1J020160103021011201/03/16 02:10:31  5-MIN K1J0 030710Z AUTO 33004KT 10SM CLR 08/02 A3018 -150 68 -1000 330/04 RMK AO2 T00780022 $
63871K1J0 1J020160103021511201/03/16 02:15:31  5-MIN K1J0 030715Z AUTO 34004KT 10SM CLR 08/02 A3018 -150 68 -1000 340/04 RMK AO2 T00780022 $
63871K1J0 1J020160103022011201/03/16 02:20:31  5-MIN K1J0 030720Z AUTO 34004KT 10SM CLR 08/02 A3018 -150 68 -1000 340/04 RMK AO2 T00780022 $
63871K1J0 1J020160103022511201/03/16 02:25:31  5-MIN K1J0 030725Z AUTO 34005KT 10SM CLR 08/02 A3017 -140 68 -1000 340/05 RMK AO2 T00780022 $
63871K1J0 1J020160103023011201/03/16 02:30:31  5-MIN K1J0 030730Z AUTO 34004KT 10SM CLR 08/02 A3017 -140 68 -1000 340/04 RMK AO2 T00780022 $
63871K1J0 1J020160103023511201/03/16 02:35:31  5-MIN K1J0 030735Z AUTO 35005KT 10SM CLR 07/02 A3017 -140 70 -1000 350/05 RMK AO2 T00720022 $
63871K1J0 1J020160103024011201/03/16 02:40:31  5-MIN K1J0 030740Z AUTO 35005KT 10SM CLR 07/02 A3017 -140 68 -1000 350/05 RMK AO2 T00720017 $
63871K1J0 1J020160103024511201/03/16 02:45:31  5-MIN K1J0 030745Z AUTO 35005KT 10SM CLR 07/02 A3017 -140 68 -1000 350/05 RMK AO2 T00720017 $
63871K1J0 1J020160103025011201/03/16 02:50:31  5-MIN K1J0 030750Z AUTO 35004KT 10SM CLR 07/02 A3017 -130 68 -1000 350/04 RMK AO2 T00720017 $
63871K1J0 1J020160103025511901/03/16 02:55:31  5-MIN K1J0 030755Z AUTO 35005KT 10SM CLR 07/02 A3017 -130 70 -1000 350/05 RMK AO2 SLP200 T00720022 $
63871K1J0 1J020160103030011201/03/16 03:00:31  5-MIN K1J0 030800Z AUTO 34005KT 10SM CLR 07/02 A3017 -140 68 -1000 340/05 RMK AO2 T00720017 $
63871K1J0 1J020160103030511201/03/16 03:05:31  5-MIN K1J0 030805Z AUTO 35004KT 10SM CLR 07/02 A3017 -140 68 -1000 350/04 RMK AO2 T00720017 $
63871K1J0 1J020160103031011201/03/16 03:10:31  5-MIN K1J0 030810Z AUTO 33005KT 10SM CLR 07/02 A3017 -140 68 -1000 330/05 RMK AO2 T00720017 $
63871K1J0 1J020160103031511201/03/16 03:15:31  5-MIN K1J0 030815Z AUTO 34004KT 10SM CLR 07/02 A3017 -140 68 -1000 340/04 RMK AO2 T00720017 $
63871K1J0 1J020160103032011201/03/16 03:20:31  5-MIN K1J0 030820Z AUTO 34005KT 10SM CLR 07/02 A3017 -140 68 -1000 340/05 RMK AO2 T00720017 $
63871K1J0 1J020160103032511201/03/16 03:25:31  5-MIN K1J0 030825Z AUTO 34006KT 10SM CLR 07/02 A3017 -140 68 -1000 340/06 RMK AO2 T00720017 $
63871K1J0 1J020160103033011201/03/16 03:30:31  5-MIN K1J0 030830Z AUTO 36004KT 10SM CLR 07/02 A3016 -130 68 -1000 360/04 RMK AO2 T00720017 $
63871K1J0 1J020160103033511201/03/16 03:35:31  5-MIN K1J0 030835Z AUTO 36004KT 10SM CLR 07/02 A3016 -130 68 -1000 360/04 RMK AO2 T00720017 $
63871K1J0 1J020160103034011201/03/16 03:40:31  5-MIN K1J0 030840Z AUTO 35004KT 10SM CLR 07/02 A3016 -130 68 -1000 350/04 RMK AO2 T00720017 $
63871K1J0 1J020160103034511201/03/16 03:45:31  5-MIN K1J0 030845Z AUTO 36004KT 10SM CLR 07/01 A3017 -140 65 -1000 360/04 RMK AO2 T00720011 $
63871K1J0 1J020160103035011201/03/16 03:50:31  5-MIN K1J0 030850Z AUTO 33003KT 10SM CLR 07/01 A3017 -140 65 -1000 330/03 RMK AO2 T00720011 $
63871K1J0 1J020160103035512501/03/16 03:55:31  5-MIN K1J0 030855Z AUTO 00000KT 10SM CLR 07/02 A3017 -140 68 -1000 000/00 RMK AO2 SLP201 T00720017 58007 $
63871K1J0 1J020160103040011201/03/16 04:00:31  5-MIN K1J0 030900Z AUTO 33003KT 10SM CLR 07/02 A3017 -140 68 -1000 330/03 RMK AO2 T00720017 $
63871K1J0 1J020160103040511201/03/16 04:05:31  5-MIN K1J0 030905Z AUTO 34004KT 10SM CLR 07/02 A3017 -140 68 -1000 340/04 RMK AO2 T00720017 $
63871K1J0 1J020160103041011201/03/16 04:10:31  5-MIN K1J0 030910Z AUTO 34004KT 10SM CLR 07/02 A3016 -130 68 -1000 340/04 RMK AO2 T00720017 $
63871K1J0 1J020160103041511201/03/16 04:15:31  5-MIN K1J0 030915Z AUTO 34003KT 10SM CLR 07/02 A3016 -130 68 -1000 340/03 RMK AO2 T00720017 $
63871K1J0 1J020160103042011201/03/16 04:20:31  5-MIN K1J0 030920Z AUTO 34003KT 10SM CLR 07/02 A3016 -130 70 -1000 340/03 RMK AO2 T00720022 $
63871K1J0 1J020160103042511201/03/16 04:25:31  5-MIN K1J0 030925Z AUTO 00000KT 10SM CLR 07/02 A3017 -140 68 -1000 000/00 RMK AO2 T00720017 $
63871K1J0 1J020160103043011201/03/16 04:30:31  5-MIN K1J0 030930Z AUTO 35004KT 10SM CLR 07/02 A3016 -130 68 -1000 350/04 RMK AO2 T00720017 $
63871K1J0 1J020160103043511201/03/16 04:35:31  5-MIN K1J0 030935Z AUTO 35005KT 10SM CLR 07/01 A3016 -130 65 -1000 350/05 RMK AO2 T00720011 $
63871K1J0 1J020160103044011201/03/16 04:40:31  5-MIN K1J0 030940Z AUTO 35005KT 10SM CLR 07/01 A3016 -130 65 -1000 350/05 RMK AO2 T00720011 $
63871K1J0 1J020160103044511201/03/16 04:45:31  5-MIN K1J0 030945Z AUTO 35005KT 10SM CLR 07/01 A3016 -130 65 -1000 350/05 RMK AO2 T00720011 $
63871K1J0 1J020160103045011201/03/16 04:50:31  5-MIN K1J0 030950Z AUTO 34006KT 10SM CLR 07/01 A3016 -130 67 -1100 340/06 RMK AO2 T00670011 $
63871K1J0 1J020160103045511901/03/16 04:55:31  5-MIN K1J0 030955Z AUTO 35004KT 10SM CLR 07/01 A3016 -130 67 -1100 350/04 RMK AO2 SLP200 T00670011 $
63871K1J0 1J020160103050011201/03/16 05:00:31  5-MIN K1J0 031000Z AUTO 35005KT 10SM CLR 07/01 A3016 -130 67 -1100 350/05 RMK AO2 T00670011 $
63871K1J0 1J020160103050511201/03/16 05:05:31  5-MIN K1J0 031005Z AUTO VRB04KT 10SM CLR 07/01 A3016 -130 65 -1100 VRB/04 RMK AO2 T00670006 $
63871K1J0 1J020160103051011201/03/16 05:10:31  5-MIN K1J0 031010Z AUTO 33003KT 10SM CLR 07/01 A3016 -130 67 -1100 330/03 RMK AO2 T00670011 $
63871K1J0 1J020160103051511201/03/16 05:15:31  5-MIN K1J0 031015Z AUTO 33003KT 10SM CLR 07/01 A3016 -130 67 -1100 330/03 RMK AO2 T00670011 $
63871K1J0 1J020160103052011201/03/16 05:20:31  5-MIN K1J0 031020Z AUTO 32003KT 10SM CLR 07/02 A3017 -140 70 -1100 320/03 RMK AO2 T00670017 $
63871K1J0 1J020160103052511201/03/16 05:25:31  5-MIN K1J0 031025Z AUTO 36003KT 10SM CLR 07/01 A3016 -130 67 -1100 360/03 RMK AO2 T00670011 $
63871K1J0 1J020160103053011201/03/16 05:30:31  5-MIN K1J0 031030Z AUTO 36004KT 10SM CLR 07/02 A3015 -120 70 -1100 360/04 RMK AO2 T00670017 $
63871K1J0 1J020160103053511201/03/16 05:35:31  5-MIN K1J0 031035Z AUTO 36004KT 10SM CLR 07/01 A3015 -120 67 -1100 360/04 RMK AO2 T00670011 $
63871K1J0 1J020160103112011101/03/16 11:20:31  5-MIN K1J0 031620Z AUTO VRB03KT 10SM CLR 09/00 A3018 -150 53 -800 VRB/03 RMK AO2 T00890000 $
63871K1J0 1J020160103112511101/03/16 11:25:31  5-MIN K1J0 031625Z AUTO 01003KT 10SM CLR 09/00 A3018 -150 53 -800 010/03 RMK AO2 T00890000 $
63871K1J0 1J020160103113011101/03/16 11:30:31  5-MIN K1J0 031630Z AUTO 00000KT 10SM CLR 09/01 A3019 -160 56 -800 000/00 RMK AO2 T00890006 $
63871K1J0 1J020160103113511101/03/16 11:35:31  5-MIN K1J0 031635Z AUTO 32004KT 10SM CLR 09/00 A3018 -150 53 -800 320/04 RMK AO2 T00890000 $
63871K1J0 1J020160103114011101/03/16 11:40:31  5-MIN K1J0 031640Z AUTO 28003KT 10SM CLR 09/00 A3018 -150 53 -800 280/03 RMK AO2 T00890000 $
63871K1J0 1J020160103114511101/03/16 11:45:31  5-MIN K1J0 031645Z AUTO 00000KT 10SM CLR 09/00 A3017 -140 53 -800 000/00 RMK AO2 T00890000 $
63871K1J0 1J020160103115011101/03/16 11:50:31  5-MIN K1J0 031650Z AUTO 26003KT 10SM CLR 09/01 A3017 -140 56 -800 260/03 RMK AO2 T00890006 $
63871K1J0 1J020160103115511801/03/16 11:55:31  5-MIN K1J0 031655Z AUTO 32004KT 10SM CLR 09/00 A3017 -140 53 -800 320/04 RMK AO2 SLP201 T00890000 $
63871K1J0 1J020160103120011101/03/16 12:00:31  5-MIN K1J0 031700Z AUTO 00000KT 10SM CLR 09/00 A3017 -140 53 -800 000/00 RMK AO2 T00890000 $
63871K1J0 1J020160103120511101/03/16 12:05:31  5-MIN K1J0 031705Z AUTO 00000KT 10SM CLR 09/00 A3016 -130 53 -800 000/00 RMK AO2 T00890000 $
63871K1J0 1J020160103121011101/03/16 12:10:31  5-MIN K1J0 031710Z AUTO 00000KT 10SM CLR 09/01 A3016 -130 53 -700 000/00 RMK AO2 T00940006 $
63871K1J0 1J020160103121511101/03/16 12:15:31  5-MIN K1J0 031715Z AUTO 00000KT 10SM CLR 09/01 A3015 -120 56 -800 000/00 RMK AO2 T00890006 $
63871K1J0 1J020160103122011101/03/16 12:20:31  5-MIN K1J0 031720Z AUTO 00000KT 10SM CLR 09/00 A3015 -120 51 -700 000/00 RMK AO2 T00940000 $
63871K1J0 1J020160103122511101/03/16 12:25:31  5-MIN K1J0 031725Z AUTO 00000KT 10SM CLR 09/00 A3015 -120 51 -700 000/00 RMK AO2 T00940000 $
63871K1J0 1J020160103123011101/03/16 12:30:31  5-MIN K1J0 031730Z AUTO VRB03KT 10SM CLR 09/01 A3015 -120 53 -700 VRB/03 RMK AO2 T00940006 $
63871K1J0 1J020160103123511101/03/16 12:35:31  5-MIN K1J0 031735Z AUTO 34004KT 10SM CLR 09/01 A3014 -110 53 -700 340/04 RMK AO2 T00940006 $
63871K1J0 1J020160103124011101/03/16 12:40:31  5-MIN K1J0 031740Z AUTO 33005KT 10SM CLR 09/01 A3014 -110 53 -700 330/05 RMK AO2 T00940006 $
63871K1J0 1J020160103124511101/03/16 12:45:31  5-MIN K1J0 031745Z AUTO 33004KT 10SM CLR 09/01 A3014 -110 53 -700 330/04 RMK AO2 T00940006 $
63871K1J0 1J020160103125011101/03/16 12:50:31  5-MIN K1J0 031750Z AUTO 31004KT 10SM CLR 09/00 A3014 -110 51 -700 310/04 RMK AO2 T00940000 $
63871K1J0 1J020160103125513601/03/16 12:55:31  5-MIN K1J0 031755Z AUTO 33003KT 10SM CLR 10/00 A3014 -110 49 -600 330/03 RMK AO2 SLP191 T01000000 10100 20061 53002 $
63871K1J0 1J020160103130011101/03/16 13:00:31  5-MIN K1J0 031800Z AUTO 00000KT 10SM CLR 10/01 A3014 -110 52 -600 000/00 RMK AO2 T01000006 $
63871K1J0 1J020160103130511101/03/16 13:05:31  5-MIN K1J0 031805Z AUTO 34006KT 10SM CLR 10/00 A3013 -100 49 -600 340/06 RMK AO2 T01000000 $
63871K1J0 1J020160103131011101/03/16 13:10:31  5-MIN K1J0 031810Z AUTO 32005KT 10SM CLR 10/01 A3012 -100 52 -600 320/05 RMK AO2 T01000006 $
63871K1J0 1J020160103131511101/03/16 13:15:31  5-MIN K1J0 031815Z AUTO 33004KT 10SM CLR 10/01 A3012 -100 52 -600 330/04 RMK AO2 T01000006 $
63871K1J0 1J020160103132011101/03/16 13:20:31  5-MIN K1J0 031820Z AUTO VRB03KT 10SM CLR 10/01 A3012 -100 52 -600 VRB/03 RMK AO2 T01000006 $
63871K1J0 1J020160103132511001/03/16 13:25:31  5-MIN K1J0 031825Z AUTO 33005KT 10SM CLR 10/00 A3012 -90 49 -600 330/05 RMK AO2 T01000000 $
63871K1J0 1J020160103133011101/03/16 13:30:31  5-MIN K1J0 031830Z AUTO 32003KT 10SM CLR 10/M01 A3012 -90 47 -600 320/03 RMK AO2 T01001006 $
63871K1J0 1J020160103133511001/03/16 13:35:31  5-MIN K1J0 031835Z AUTO 31004KT 10SM CLR 10/00 A3012 -90 49 -600 310/04 RMK AO2 T01000000 $
63871K1J0 1J020160103134011001/03/16 13:40:31  5-MIN K1J0 031840Z AUTO 00000KT 10SM CLR 10/00 A3012 -90 49 -600 000/00 RMK AO2 T01000000 $
63871K1J0 1J020160103134511001/03/16 13:45:31  5-MIN K1J0 031845Z AUTO 31004KT 10SM CLR 11/01 A3012 -90 50 -600 310/04 RMK AO2 T01060006 $
63871K1J0 1J020160103135011301/03/16 13:50:31  5-MIN K1J0 031850Z AUTO VRB03KT 10SM FEW100 10/00 A3011 -90 49 -600 VRB/03 RMK AO2 T01000000 $
63871K1J0 1J020160103135512001/03/16 13:55:31  5-MIN K1J0 031855Z AUTO 27003KT 10SM FEW100 10/00 A3011 -90 49 -600 270/03 RMK AO2 SLP183 T01000000 $
63871K1J0 1J020160103140011301/03/16 14:00:31  5-MIN K1J0 031900Z AUTO 26003KT 10SM FEW110 10/01 A3011 -80 52 -600 260/03 RMK AO2 T01000006 $
63871K1J0 1J020160103140511301/03/16 14:05:31  5-MIN K1J0 031905Z AUTO VRB03KT 10SM FEW110 10/00 A3011 -80 49 -600 VRB/03 RMK AO2 T01000000 $
63871K1J0 1J020160103141011301/03/16 14:10:31  5-MIN K1J0 031910Z AUTO 00000KT 10SM FEW100 11/01 A3011 -80 50 -600 000/00 RMK AO2 T01060006 $
63871K1J0 1J020160103141511301/03/16 14:15:31  5-MIN K1J0 031915Z AUTO 00000KT 10SM FEW110 11/01 A3011 -80 50 -500 000/00 RMK AO2 T01060006 $
63871K1J0 1J020160103142011001/03/16 14:20:31  5-MIN K1J0 031920Z AUTO VRB03KT 10SM CLR 11/00 A3010 -80 48 -500 VRB/03 RMK AO2 T01060000 $
63871K1J0 1J020160103142511001/03/16 14:25:31  5-MIN K1J0 031925Z AUTO 00000KT 10SM CLR 11/00 A3009 -70 48 -500 000/00 RMK AO2 T01060000 $
63871K1J0 1J020160103143011101/03/16 14:30:31  5-MIN K1J0 031930Z AUTO 30003KT 10SM CLR 11/M01 A3009 -70 46 -500 300/03 RMK AO2 T01061006 $
63871K1J0 1J020160103143511801/03/16 14:35:31  5-MIN K1J0 031935Z AUTO 31004KT 10SM CLR 11/M01 A3008 -60 44 -500 310/04 RMK AO2 PRESFR T01111006 $
63871K1J0 1J020160103144011101/03/16 14:40:31  5-MIN K1J0 031940Z AUTO VRB04KT 10SM CLR 11/M01 A3008 -50 44 -400 VRB/04 RMK AO2 T01111006 $
63871K1J0 1J020160103144511101/03/16 14:45:31  5-MIN K1J0 031945Z AUTO 26003KT 10SM CLR 11/M01 A3008 -60 44 -500 260/03 RMK AO2 T01111006 $
63871K1J0 1J020160103145011101/03/16 14:50:31  5-MIN K1J0 031950Z AUTO VRB03KT 10SM CLR 11/M01 A3008 -60 44 -500 VRB/03 RMK AO2 T01111006 $
63871K1J0 1J020160103145515301/03/16 14:55:31  5-MIN K1J0 031955Z AUTO 32005KT 10SM CLR 12/00 A3008 -50 44 -400 320/05 RMK AO2 SLP 10/02 A3007 -50 56 -600 VRB/04 RMK AO2 T01000017 $
63871K1J0 1J020160103172511301/03/16 17:25:31  5-MIN K1J0 032225Z AUTO 31004KT 10SM OVC110 10/02 A3007 -50 56 -600 310/04 RMK AO2 T01000017 $
63871K1J0 1J020160103173011301/03/16 17:30:31  5-MIN K1J0 032230Z AUTO 32004KT 10SM OVC100 10/01 A3007 -40 54 -600 320/04 RMK AO2 T01000011 $
63871K1J0 1J020160103173511301/03/16 17:35:31  5-MIN K1J0 032235Z AUTO VRB04KT 10SM OVC110 10/02 A3006 -40 56 -600 VRB/04 RMK AO2 T01000017 $
63871K1J0 1J020160103174011301/03/16 17:40:31  5-MIN K1J0 032240Z AUTO 32003KT 10SM OVC110 10/02 A3007 -50 56 -600 320/03 RMK AO2 T01000017 $
63871K1J0 1J020160103174511301/03/16 17:45:31  5-MIN K1J0 032245Z AUTO 31003KT 10SM OVC110 10/02 A3008 -50 56 -600 310/03 RMK AO2 T01000017 $
63871K1J0 1J020160103175011301/03/16 17:50:31  5-MIN K1J0 032250Z AUTO VRB03KT 10SM OVC110 10/02 A3008 -60 56 -600 VRB/03 RMK AO2 T01000017 $
63871K1J0 1J020160103175512001/03/16 17:55:31  5-MIN K1J0 032255Z AUTO 00000KT 10SM BKN110 10/02 A3008 -60 58 -600 000/00 RMK AO2 SLP171 T01000022 $
63871K1J0 1J020160103180011301/03/16 18:00:31  5-MIN K1J0 032300Z AUTO 00000KT 10SM BKN120 10/02 A3008 -60 58 -600 000/00 RMK AO2 T01000022 $
63871K1J0 1J020160103180511301/03/16 18:05:31  5-MIN K1J0 032305Z AUTO 31003KT 10SM BKN110 10/02 A3008 -60 56 -600 310/03 RMK AO2 T01000017 $
63871K1J0 1J020160103181015101/03/16 18:10:31  5-MIN K1J0 032310Z AUTO 00000KT 10SM BKN110 10/02 A3009 -60 56 -600 000/00 RMK AO2 T01000017 N LISTING COMPLETE, 144 5MIN(S) LISTED.
63871K1J0 1J020160103223512001/03/16 22:35:31  5-MIN K1J0 040335Z AUTO VRB05KT 10SM BKN090 OVC120 09/03 A3008 -60 65 -700 VRB/05 RMK AO2 T00890028 $
63871K1J0 1J020160103224012001/03/16 22:40:31  5-MIN K1J0 040340Z AUTO 32005KT 10SM SCT090 OVC120 09/03 A3008 -60 65 -700 320/05 RMK AO2 T00890028 $
63871K1J0 1J020160103224512001/03/16 22:45:31  5-MIN K1J0 040345Z AUTO 31005KT 10SM BKN085 OVC120 08/02 A3009 -60 65 -800 310/05 RMK AO2 T00830022 $
63871K1J0 1J020160103225012001/03/16 22:50:31  5-MIN K1J0 040350Z AUTO 31005KT 10SM SCT085 OVC120 08/02 A3009 -60 65 -800 310/05 RMK AO2 T00830022 $
63871K1J0 1J020160103225512701/03/16 22:55:31  5-MIN K1J0 040355Z AUTO 32005KT 10SM FEW085 OVC120 08/02 A3009 -60 65 -800 320/05 RMK AO2 SLP174 T00830022 $
63871K1J0 1J020160103230012001/03/16 23:00:31  5-MIN K1J0 040400Z AUTO VRB05KT 10SM FEW085 OVC120 08/02 A3009 -60 65 -800 VRB/05 RMK AO2 T00830022 $
63871K1J0 1J020160103230512001/03/16 23:05:31  5-MIN K1J0 040405Z AUTO 31005KT 10SM FEW085 OVC120 09/02 A3009 -60 63 -700 310/05 RMK AO2 T00890022 $
63871K1J0 1J020160103231012001/03/16 23:10:31  5-MIN K1J0 040410Z AUTO 31004KT 10SM FEW085 BKN120 09/02 A3009 -70 63 -700 310/04 RMK AO2 T00890022 $
63871K1J0 1J020160103231511301/03/16 23:15:31  5-MIN K1J0 040415Z AUTO 31005KT 10SM BKN120 09/02 A3009 -70 63 -700 310/05 RMK AO2 T00890022 $
63871K1J0 1J020160103232011301/03/16 23:20:31  5-MIN K1J0 040420Z AUTO 32006KT 10SM BKN120 09/02 A3009 -70 63 -700 320/06 RMK AO2 T00890022 $
63871K1J0 1J020160103232511301/03/16 23:25:31  5-MIN K1J0 040425Z AUTO VRB05KT 10SM SCT120 09/02 A3009 -70 63 -700 VRB/05 RMK AO2 T00890022 $
63871K1J0 1J020160103233011301/03/16 23:30:31  5-MIN K1J0 040430Z AUTO 32006KT 10SM FEW120 09/02 A3009 -70 63 -700 320/06 RMK AO2 T00890022 $
63871K1J0 1J020160103233511301/03/16 23:35:31  5-MIN K1J0 040435Z AUTO 32007KT 10SM FEW120 09/02 A3009 -70 60 -700 320/07 RMK AO2 T00890017 $
63871K1J0 1J020160103234011001/03/16 23:40:31  5-MIN K1J0 040440Z AUTO 32006KT 10SM CLR 09/02 A3009 -70 60 -700 320/06 RMK AO2 T00890017 $
63871K1J0 1J020160103234511001/03/16 23:45:31  5-MIN K1J0 040445Z AUTO 32005KT 10SM CLR 09/02 A3009 -70 60 -700 320/05 RMK AO2 T00890017 $
63871K1J0 1J020160103235011001/03/16 23:50:31  5-MIN K1J0 040450Z AUTO 33006KT 10SM CLR 09/02 A3009 -70 60 -700 330/06 RMK AO2 T00890017 $
63871K1J0 1J020160103235513701/03/16 23:55:31  5-MIN K1J0 040455Z AUTO 32006KT 10SM FEW085 FEW110 08/02 A3009 -70 63 -800 320/06 RMK AO2 SLP176 T00830017 401170061 $
63871K1J0 1J020160104000012001/04/16 00:00:31  5-MIN K1J0 040500Z AUTO 32004KT 10SM FEW085 FEW110 08/02 A3009 -70 63 -800 320/04 RMK AO2 T00830017 $
63871K1J0 1J020160104000511301/04/16 00:05:31  5-MIN K1J0 040505Z AUTO 31005KT 10SM FEW110 08/02 A3010 -70 63 -800 310/05 RMK AO2 T00830017 $
63871K1J0 1J020160104001011301/04/16 00:10:31  5-MIN K1J0 040510Z AUTO 31003KT 10SM FEW110 08/02 A3010 -70 63 -800 310/03 RMK AO2 T00830017 $
63871K1J0 1J020160104001511301/04/16 00:15:31  5-MIN K1J0 040515Z AUTO 32004KT 10SM FEW110 08/02 A3010 -70 63 -800 320/04 RMK AO2 T00830017 $
63871K1J0 1J020160104002019701/04/16 00:20:31  5-MIN K1J0 040520Z AUTO 00000KT 10SM CLR 08/MIN K1J0 04060VRB03KT 10SM FEW075 BK0:31  5-MIN K1J0 040850Z AUTO 00000KT 10SM CLR 06/02 A3007 -50 76 -1000 000/00 RMK AO2 T00610022 $
63871K1J0 1J020160104035512401/04/16 03:55:31  5-MIN K1J0 040855Z AUTO 31003KT 10SM CLR 06/02 A3007 -50 76 -1000 310/03 RMK AO2 SLP167 T00610022 50003 $
63871K1J0 1J020160104040011101/04/16 04:00:31  5-MIN K1J0 040900Z AUTO 31004KT 10SM CLR 06/02 A3007 -40 76 -1000 310/04 RMK AO2 T00610022 $
63871K1J0 1J020160104040511101/04/16 04:05:31  5-MIN K1J0 040905Z AUTO 31003KT 10SM CLR 06/02 A3007 -40 73 -1000 310/03 RMK AO2 T00610017 $
63871K1J0 1J020160104041011101/04/16 04:10:31  5-MIN K1J0 040910Z AUTO 31004KT 10SM CLR 06/02 A3007 -50 73 -1000 310/04 RMK AO2 T00610017 $
63871K1J0 1J020160104041511101/04/16 04:15:31  5-MIN K1J0 040915Z AUTO 31003KT 10SM CLR 06/02 A3007 -50 73 -1000 310/03 RMK AO2 T00610017 $
63871K1J0 1J020160104042015101/04/16 04:20:31  5-MIN K1J0 040920Z AUTO 00000KT 10SM CLR 06/02 A3007 -50 76 -1000 000/00 RMK AO2 T00610022 $-120 76 -1100 310/04 RMK AO2 T00610022 $
63871K1J0 1J020160104090511201/04/16 09:05:31  5-MIN K1J0 041405Z AUTO 32006KT 10SM CLR 07/02 A3015 -120 70 -1100 320/06 RMK AO2 T00670017 $
63871K1J0 1J020160104091011201/04/16 09:10:31  5-MIN K1J0 041410Z AUTO 32005KT 10SM CLR 07/02 A3015 -120 70 -1100 320/05 RMK AO2 T00670017 $
63871K1J0 1J020160104091511201/04/16 09:15:31  5-MIN K1J0 041415Z AUTO 33007KT 10SM CLR 07/02 A3015 -130 70 -1100 330/07 RMK AO2 T00670017 $
63871K1J0 1J020160104092011201/04/16 09:20:31  5-MIN K1J0 041420Z AUTO 34008KT 10SM CLR 07/02 A3016 -130 68 -1000 340/08 RMK AO2 T00720017 $
63871K1J0 1J020160104092511201/04/16 09:25:31  5-MIN K1J0 041425Z AUTO 33005KT 10SM CLR 07/02 A3016 -130 68 -1000 330/05 RMK AO2 T00720017 $
63871K1J0 1J020160104093011201/04/16 09:30:31  5-MIN K1J0 041430Z AUTO 33005KT 10SM CLR 07/02 A3016 -130 68 -1000 330/05 RMK AO2 T00720017 $
63871K1J0 1J020160104093511101/04/16 09:35:31  5-MIN K1J0 041435Z AUTO 33005KT 10SM CLR 08/02 A3016 -130 65 -900 330/05 RMK AO2 T00780017 $
63871K1J0 1J020160104094011101/04/16 09:40:31  5-MIN K1J0 041440Z AUTO 35009KT 10SM CLR 08/02 A3016 -130 65 -900 350/09 RMK AO2 T00780017 $
63871K1J0 1J020160104094511101/04/16 09:45:31  5-MIN K1J0 041445Z AUTO 35009KT 10SM CLR 08/02 A3016 -130 63 -900 350/09 RMK AO2 T00830017 $
63871K1J0 1J020160104095011101/04/16 09:50:31  5-MIN K1J0 041450Z AUTO 34009KT 10SM CLR 08/01 A3017 -140 60 -900 340/09 RMK AO2 T00830011 $
63871K1J0 1J020160104095512401/04/16 09:55:31  5-MIN K1J0 041455Z AUTO 35008KT 10SM CLR 08/01 A3017 -140 60 -900 350/08 RMK AO2 SLP201 T00830011 53009 $
63871K1J0 1J020160104100011101/04/16 10:00:31  5-MIN K1J0 041500Z AUTO 34008KT 10SM CLR 09/01 A3017 -140 58 -800 340/08 RMK AO2 T00890011 $
63871K1J0 1J020160104100517001/04/16 10:05:31  5-MIN K1J0 041505Z AUTO 36008KT 10SM CLR 09/01 A3017 -140 58 -800 360/08 RMK AO2 T00890011 $01/04LR 09/01 A3016 -130 53 -700 350/10 RMK AO2 T00940006 $
63871K1J0 1J020160105064511301/05/16 06:45:31  5-MIN K1J0 051145Z AUTO 04005KT 10SM CLR 02/M03 A3041 -350 69 -2000 040/05 RMK AO2 T00171033 $
63871K1J0 1J020160105065011301/05/16 06:50:31  5-MIN K1J0 051150Z AUTO 05006KT 10SM CLR 02/M04 A3041 -350 66 -2000 050/06 RMK AO2 T00171039 $
63871K1J0 1J020160105065513801/05/16 06:55:31  5-MIN K1J0 051155Z AUTO 05005KT 10SM CLR 02/M03 A3041 -360 69 -2000 050/05 RMK AO2 SLP282 T00171033 10039 20017 51013 $
63871K1J0 1J020160105070011301/05/16 07:00:31  5-MIN K1J0 051200Z AUTO 04007KT 10SM CLR 02/M03 A3041 -350 69 -2000 040/07 RMK AO2 T00171033 $
63871K1J0 1J020160105070511301/05/16 07:05:31  5-MIN K1J0 051205Z AUTO 04006KT 10SM CLR 02/M04 A3041 -360 66 -2000 040/06 RMK AO2 T00171039 $
63871K1J0 1J020160105071011301/05/16 07:10:31  5-MIN K1J0 051210Z AUTO 05007KT 10SM CLR 02/M04 A3041 -360 66 -2000 050/07 RMK AO2 T00171039 $
63871K1J0 1J020160105071511101/05/16 07:15:31  5-MIN K1J0 051215Z AUTO 05005KT 10SM CLR 02/M04 A3041 -360 66 -2000 050/05 RMK AO2 T00171039
63871K1J0 1J020160105072011101/05/16 07:20:31  5-MIN K1J0 051220Z AUTO 04007KT 10SM CLR 02/M04 A3041 -360 66 -2000 040/07 RMK AO2 T00171039
63871K1J0 1J020160105072511101/05/16 07:25:31  5-MIN K1J0 051225Z AUTO 05006KT 10SM CLR 02/M04 A3041 -360 66 -2000 050/06 RMK AO2 T00171039
63871K1J0 1J020160105073011101/05/16 07:30:31  5-MIN K1J0 051230Z AUTO 04006KT 10SM CLR 02/M04 A3041 -360 66 -2000 040/06 RMK AO2 T00171039
63871K1J0 1J020160105073511101/05/16 07:35:31  5-MIN K1J0 051235Z AUTO 04006KT 10SM CLR 02/M04 A3041 -360 66 -2000 040/06 RMK AO2 T00171039
63871K1J0 1J020160105074011101/05/16 07:40:31  5-MIN K1J0 051240Z AUTO 04006KT 10SM CLR 02/M04 A3042 -360 66 -2000 040/06 RMK AO2 T00171039
63871K1J0 1J020160105074511101/05/16 07:45:31  5-MIN K1J0 051245Z AUTO 05006KT 10SM CLR 02/M04 A3042 -360 66 -2000 050/06 RMK AO2 T00171039
63871K1J0 1J020160105075011101/05/16 07:50:31  5-MIN K1J0 051250Z AUTO 05008KT 10SM CLR 02/M04 A3042 -360 66 -2000 050/08 RMK AO2 T00171039
63871K1J0 1J020160105075511801/05/16 07:55:31  5-MIN K1J0 051255Z AUTO 04006KT 10SM CLR 02/M04 A3042 -370 66 -2000 040/06 RMK AO2 SLP287 T00171039
63871K1J0 1J020160105080011101/05/16 08:00:31  5-MIN K1J0 051300Z AUTO 04006KT 10SM CLR 02/M04 A3042 -370 66 -2000 040/06 RMK AO2 T00171039
63871K1J0 1J020160105080511101/05/16 08:05:31  5-MIN K1J0 051305Z AUTO 05007KT 10SM CLR 02/M04 A3042 -370 66 -2000 050/07 RMK AO2 T00171039
63871K1J0 1J020160105081011301/05/16 08:10:31  5-MIN K1J0 051310Z AUTO 05008KT 10SM CLR 02/M04 A3042 -370 64 -1900 050/08 RMK AO2 T00221039 $
63871K1J0 1J020160105081511301/05/16 08:15:31  5-MIN K1J0 051315Z AUTO 05007KT 10SM CLR 02/M04 A3042 -370 64 -1900 050/07 RMK AO2 T00221039 $
63871K1J0 1J020160105082011301/05/16 08:20:31  5-MIN K1J0 051320Z AUTO 05006KT 10SM CLR 02/M04 A3043 -370 64 -1900 050/06 RMK AO2 T00221039 $
63871K1J0 1J020160105082511301/05/16 08:25:31  5-MIN K1J0 051325Z AUTO 05007KT 10SM CLR 02/M04 A3043 -380 64 -1900 050/07 RMK AO2 T00221039 $
63871K1J0 1J020160105083011301/05/16 08:30:31  5-MIN K1J0 051330Z AUTO 04008KT 10SM CLR 03/M04 A3043 -380 61 -1900 040/08 RMK AO2 T00281039 $
63871K1J0 1J020160105083511901/05/16 08:35:31  5-MIN K1J0 051335Z AUTO 05008G17KT 10SM CLR 03/M04 A3043 -380 59 -1900 050/08G17 RMK AO2 T00281044 $
63871K1J0 1J020160105084011901/05/16 08:40:31  5-MIN K1J0 051340Z AUTO 06006G17KT 10SM CLR 03/M04 A3043 -380 59 -1900 060/06G17 RMK AO2 T00281044 $
63871K1J0 1J020160105084513501/05/16 08:45:31  5-MIN K1J0 051345Z AUTO 07008G16KT 020V090 10SM CLR 03/M04 A3043 -380 59 -1900 070/08G16 020V090 RMK AO2 T00281044 $
63871K1J0 1J020160105085011901/05/16 08:50:31  5-MIN K1J0 051350Z AUTO 06009G16KT 10SM CLR 03/M05 A3044 -380 54 -1800 060/09G16 RMK AO2 T00331050 $
63871K1J0 1J020160105085512601/05/16 08:55:31  5-MIN K1J0 051355Z AUTO 05014G18KT 10SM CLR 03/M05 A3044 -380 54 -1800 050/14G18 RMK AO2 SLP293 T00331050 $
63871K1J0 1J020160105090011901/05/16 09:00:31  5-MIN K1J0 051400Z AUTO 05012G19KT 10SM CLR 03/M06 A3044 -390 52 -1800 050/12G19 RMK AO2 T00331056 $
63871K1J0 1J020160105090513501/05/16 09:05:31  5-MIN K1J0 051405Z AUTO 07012G20KT 030V100 10SM CLR 04/M06 A3044 -390 50 -1700 070/12G20 030V100 RMK AO2 T00391056 $
63871K1J0 1J020160105091011901/05/16 09:10:31  5-MIN K1J0 051410Z AUTO 06010G20KT 10SM CLR 04/M06 A3045 -390 50 -1800 060/10G20 RMK AO2 T00391056 $
63871K1J0 1J020160105091511901/05/16 09:15:31  5-MIN K1J0 051415Z AUTO 05013G18KT 10SM CLR 04/M06 A3045 -390 50 -1800 050/13G18 RMK AO2 T00391056 $
63871K1J0 1J020160105092011901/05/16 09:20:31  5-MIN K1J0 051420Z AUTO 06009G18KT 10SM CLR 04/M06 A3045 -400 48 -1800 060/09G18 RMK AO2 T00391061 $
63871K1J0 1J020160105092511901/05/16 09:25:31  5-MIN K1J0 051425Z AUTO 07011G20KT 10SM CLR 04/M06 A3046 -400 48 -1800 070/11G20 RMK AO2 T00391061 $
63871K1J0 1J020160105093011901/05/16 09:30:31  5-MIN K1J0 051430Z AUTO 07011G20KT 10SM CLR 04/M06 A3046 -400 48 -1800 070/11G20 RMK AO2 T00391061 $
63871K1J0 1J020160105093511901/05/16 09:35:31  5-MIN K1J0 051435Z AUTO 07013G21KT 10SM CLR 04/M07 A3046 -410 44 -1700 070/13G21 RMK AO2 T00441067 $
63871K1J0 1J020160105094011901/05/16 09:40:31  5-MIN K1J0 051440Z AUTO 08009G21KT 10SM CLR 04/M06 A3047 -410 46 -1700 080/09G21 RMK AO2 T00441061 $
63871K1J0 1J020160105094511301/05/16 09:45:31  5-MIN K1J0 051445Z AUTO 06009KT 10SM CLR 04/M06 A3047 -410 46 -1700 060/09 RMK AO2 T00441061 $
63871K1J0 1J020160105095011901/05/16 09:50:31  5-MIN K1J0 051450Z AUTO 05011G16KT 10SM CLR 05/M06 A3047 -410 44 -1600 050/11G16 RMK AO2 T00501061 $
63871K1J0 1J020160105095512601/05/16 09:55:31  5-MIN K1J0 051455Z AUTO 05011KT 10SM CLR 05/M06 A3047 -410 44 -1600 050/11 RMK AO2 SLP304 T00501061 53020 $
63871K1J0 1J020160105100011901/05/16 10:00:31  5-MIN K1J0 051500Z AUTO 05015G21KT 10SM CLR 05/M06 A3047 -410 44 -1600 050/15G21 RMK AO2 T00501061 $
63871K1J0 1J020160105100511901/05/16 10:05:31  5-MIN K1J0 051505Z AUTO 06012G21KT 10SM CLR 05/M07 A3047 -420 42 -1600 060/12G21 RMK AO2 T00501067 $
63871K1J0 1J020160105101011901/05/16 10:10:31  5-MIN K1J0 051510Z AUTO 06014G21KT 10SM CLR 05/M07 A3047 -420 42 -1600 060/14G21 RMK AO2 T00501067 $
63871K1J0 1J020160105101513501/05/16 10:15:31  5-MIN K1J0 051515Z AUTO 07011G20KT 030V100 10SM CLR 05/M07 A3048 -420 42 -1600 070/11G20 030V100 RMK AO2 T00501067 $
63871K1J0 1J020160105102011301/05/16 10:20:31  5-MIN K1J0 051520Z AUTO 04011KT 10SM CLR 06/M07 A3048 -420 41 -1600 040/11 RMK AO2 T00561067 $
63871K1J0 1J020160105102511901/05/16 10:25:31  5-MIN K1J0 051525Z AUTO 05012G19KT 10SM CLR 05/M07 A3048 -420 42 -1600 050/12G19 RMK AO2 T00501067 $
63871K1J0 1J020160105103011901/05/16 10:30:31  5-MIN K1J0 051530Z AUTO 06012G19KT 10SM CLR 06/M07 A3047 -420 41 -1600 060/12G19 RMK AO2 T00561067 $
63871K1J0 1J020160105103511901/05/16 10:35:31  5-MIN K1J0 051535Z AUTO 04012G18KT 10SM CLR 06/M07 A3047 -420 41 -1600 040/12G18 RMK AO2 T00561067 $
63871K1J0 1J020160105104011901/05/16 10:40:31  5-MIN K1J0 051540Z AUTO 05013G18KT 10SM CLR 06/M07 A3047 -410 41 -1600 050/13G18 RMK AO2 T00561067 $
63871K1J0 1J020160105104511901/05/16 10:45:31  5-MIN K1J0 051545Z AUTO 05010G18KT 10SM CLR 06/M07 A3047 -420 41 -1600 050/10G18 RMK AO2 T00561067 $
63871K1J0 1J020160105105011301/05/16 10:50:31  5-MIN K1J0 051550Z AUTO 06011KT 10SM CLR 06/M07 A3048 -420 39 -1500 060/11 RMK AO2 T00611067 $
63871K1J0 1J020160105105512001/05/16 10:55:31  5-MIN K1J0 051555Z AUTO 07011KT 10SM CLR 06/M07 A3047 -420 39 -1500 070/11 RMK AO2 SLP305 T00611067 $
63871K1J0 1J020160105110011901/05/16 11:00:31  5-MIN K1J0 051600Z AUTO 06010G18KT 10SM CLR 06/M07 A3047 -410 38 -1500 060/10G18 RMK AO2 T00611072 $
63871K1J0 1J020160105110511901/05/16 11:05:31  5-MIN K1J0 051605Z AUTO 05010G18KT 10SM CLR 07/M07 A3047 -410 38 -1400 050/10G18 RMK AO2 T00671067 $
63871K1J0 1J020160105111011901/05/16 11:10:31  5-MIN K1J0 051610Z AUTO 07011G17KT 10SM CLR 06/M07 A3047 -410 38 -1500 070/11G17 RMK AO2 T00611072 $
63871K1J0 1J020160105111511901/05/16 11:15:31  5-MIN K1J0 051615Z AUTO 07010G17KT 10SM CLR 06/M07 A3047 -410 38 -1500 070/10G17 RMK AO2 T00611072 $
63871K1J0 1J020160105112011901/05/16 11:20:31  5-MIN K1J0 051620Z AUTO 07012G17KT 10SM CLR 07/M07 A3046 -410 36 -1400 070/12G17 RMK AO2 T00671072 $
63871K1J0 1J020160105112511301/05/16 11:25:31  5-MIN K1J0 051625Z AUTO 07011KT 10SM CLR 07/M07 A3046 -410 35 -1400 070/11 RMK AO2 T00721072 $
63871K1J0 1J020160105113011901/05/16 11:30:31  5-MIN K1J0 051630Z AUTO 05012G17KT 10SM CLR 07/M08 A3046 -400 35 -1400 050/12G17 RMK AO2 T00671078 $
63871K1J0 1J020160105113511901/05/16 11:35:31  5-MIN K1J0 051635Z AUTO 04014G18KT 10SM CLR 07/M08 A3045 -400 35 -1400 040/14G18 RMK AO2 T00671078 $
63871K1J0 1J020160105114011901/05/16 11:40:31  5-MIN K1J0 051640Z AUTO 05013G18KT 10SM CLR 07/M08 A3045 -400 33 -1300 050/13G18 RMK AO2 T00721078 $
63871K1J0 1J020160105114511701/05/16 11:45:31  5-MIN K1J0 051645Z AUTO 06012G17KT 10SM CLR 07/M08 A3045 -400 33 -1400 060/12G17 RMK AO2 T00671083
63871K1J0 1J020160105115011101/05/16 11:50:31  5-MIN K1J0 051650Z AUTO 05011KT 10SM CLR 07/M08 A3045 -390 32 -1300 050/11 RMK AO2 T00721083
63871K1J0 1J020160105115511801/05/16 11:55:31  5-MIN K1J0 051655Z AUTO 03010KT 10SM CLR 08/M08 A3045 -390 32 -1300 030/10 RMK AO2 SLP296 T00781078
63871K1J0 1J020160105120011101/05/16 12:00:31  5-MIN K1J0 051700Z AUTO 08008KT 10SM CLR 07/M08 A3044 -390 33 -1300 080/08 RMK AO2 T00721078
63871K1J0 1J020160105120511101/05/16 12:05:31  5-MIN K1J0 051705Z AUTO 05008KT 10SM CLR 08/M08 A3044 -390 32 -1300 050/08 RMK AO2 T00781078
63871K1J0 1J020160105121013301/05/16 12:10:31  5-MIN K1J0 051710Z AUTO 06009G15KT 030V090 10SM CLR 08/M08 A3044 -380 32 -1300 060/09G15 030V090 RMK AO2 T00781078
63871K1J0 1J020160105121511101/05/16 12:15:31  5-MIN K1J0 051715Z AUTO 04012KT 10SM CLR 08/M08 A3043 -380 32 -1300 040/12 RMK AO2 T00781078
63871K1J0 1J020160105122011101/05/16 12:20:31  5-MIN K1J0 051720Z AUTO 03011KT 10SM CLR 08/M07 A3043 -380 34 -1300 030/11 RMK AO2 T00781072
63871K1J0 1J020160105122511101/05/16 12:25:31  5-MIN K1J0 051725Z AUTO 05012KT 10SM CLR 08/M08 A3043 -370 32 -1300 050/12 RMK AO2 T00781078
63871K1J0 1J020160105123011701/05/16 12:30:31  5-MIN K1J0 051730Z AUTO VRB06G16KT 10SM CLR 08/M08 A3042 -370 32 -1200 VRB/06G16 RMK AO2 T00781078
63871K1J0 1J020160105123511701/05/16 12:35:31  5-MIN K1J0 051735Z AUTO 06011G17KT 10SM CLR 08/M08 A3042 -370 32 -1200 060/11G17 RMK AO2 T00781078
63871K1J0 1J020160105124011701/05/16 12:40:31  5-MIN K1J0 051740Z AUTO 06011G17KT 10SM CLR 08/M08 A3042 -360 32 -1200 060/11G17 RMK AO2 T00781078
63871K1J0 1J020160105124511701/05/16 12:45:31  5-MIN K1J0 051745Z AUTO 05009G17KT 10SM CLR 08/M07 A3041 -360 32 -1200 050/09G17 RMK AO2 T00831072
63871K1J0 1J020160105125011701/05/16 12:50:31  5-MIN K1J0 051750Z AUTO 06011G16KT 10SM CLR 08/M08 A3041 -360 31 -1200 060/11G16 RMK AO2 T00831078
63871K1J0 1J020160105125513601/05/16 12:55:31  5-MIN K1J0 051755Z AUTO 08009KT 10SM CLR 09/M07 A3041 -360 31 -1100 080/09 RMK AO2 SLP283 T00891072 10089 20017 53022
63871K1J0 1J020160105130011701/05/16 13:00:31  5-MIN K1J0 051800Z AUTO 05009G16KT 10SM CLR 09/M07 A3040 -350 31 -1100 050/09G16 RMK AO2 T00891072
63871K1J0 1J020160105130512701/05/16 13:05:31  5-MIN K1J0 051805Z AUTO 08008KT 030V120 10SM CLR 09/M07 A3040 -350 31 -1000 080/08 030V120 RMK AO2 T00941067
63871K1J0 1J020160105131011101/05/16 13:10:31  5-MIN K1J0 051810Z AUTO 03013KT 10SM CLR 09/M07 A3040 -350 32 -1100 030/13 RMK AO2 T00891067
63871K1J0 1J020160105131511701/05/16 13:15:31  5-MIN K1J0 051815Z AUTO 07011G18KT 10SM CLR 09/M06 A3039 -340 34 -1100 070/11G18 RMK AO2 T00891061
63871K1J0 1J020160105132011701/05/16 13:20:31  5-MIN K1J0 051820Z AUTO 04011G18KT 10SM CLR 09/M06 A3039 -340 34 -1100 040/11G18 RMK AO2 T00891061
63871K1J0 1J020160105132511101/05/16 13:25:31  5-MIN K1J0 051825Z AUTO 03011KT 10SM CLR 09/M06 A3039 -340 34 -1100 030/11 RMK AO2 T00891061
63871K1J0 1J020160105133011101/05/16 13:30:31  5-MIN K1J0 051830Z AUTO 05009KT 10SM CLR 09/M06 A3039 -340 34 -1100 050/09 RMK AO2 T00891061
63871K1J0 1J020160105133511701/05/16 13:35:31  5-MIN K1J0 051835Z AUTO 04009G16KT 10SM CLR 09/M06 A3038 -330 34 -1100 040/09G16 RMK AO2 T00891061
63871K1J0 1J020160105134011701/05/16 13:40:31  5-MIN K1J0 051840Z AUTO 03011G15KT 10SM CLR 09/M06 A3038 -330 35 -1100 030/11G15 RMK AO2 T00891056
63871K1J0 1J020160105134511701/05/16 13:45:31  5-MIN K1J0 051845Z AUTO 05013G18KT 10SM CLR 09/M06 A3038 -330 35 -1100 050/13G18 RMK AO2 T00891056
63871K1J0 1J020160105135011701/05/16 13:50:31  5-MIN K1J0 051850Z AUTO 02008G18KT 10SM CLR 09/M06 A3038 -330 35 -1100 020/08G18 RMK AO2 T00891056
63871K1J0 1J020160105135514001/05/16 13:55:31  5-MIN K1J0 051855Z AUTO 05007G16KT 020V080 10SM CLR 09/M05 A3038 -330 35 -1000 050/07G16 020V080 RMK AO2 SLP273 T00941050
63871K1J0 1J020160105140011701/05/16 14:00:31  5-MIN K1J0 051900Z AUTO 05009G16KT 10SM CLR 09/M04 A3037 -330 37 -1000 050/09G16 RMK AO2 T00941044
63871K1J0 1J020160105140513301/05/16 14:05:31  5-MIN K1J0 051905Z AUTO 05010G16KT 020V080 10SM CLR 09/M04 A3037 -320 37 -1000 050/10G16 020V080 RMK AO2 T00941044
63871K1J0 1J020160105141011701/05/16 14:10:31  5-MIN K1J0 051910Z AUTO 04012G19KT 10SM CLR 09/M05 A3037 -320 35 -1000 040/12G19 RMK AO2 T00941050
63871K1J0 1J020160105141513301/05/16 14:15:31  5-MIN K1J0 051915Z AUTO 04008G19KT 010V080 10SM CLR 09/M05 A3037 -320 35 -1000 040/08G19 010V080 RMK AO2 T00941050
63871K1J0 1J020160105142011701/05/16 14:20:31  5-MIN K1J0 051920Z AUTO 06012G16KT 10SM CLR 09/M05 A3037 -320 35 -1000 060/12G16 RMK AO2 T00941050
63871K1J0 1J020160105142511701/05/16 14:25:31  5-MIN K1J0 051925Z AUTO 02007G16KT 10SM CLR 09/M05 A3037 -320 35 -1000 020/07G16 RMK AO2 T00941050
63871K1J0 1J020160105143011101/05/16 14:30:31  5-MIN K1J0 051930Z AUTO 05006KT 10SM CLR 09/M06 A3037 -320 34 -1000 050/06 RMK AO2 T00941056
63871K1J0 1J020160105143511101/05/16 14:35:31  5-MIN K1J0 051935Z AUTO 02010KT 10SM CLR 09/M05 A3037 -320 35 -1000 020/10 RMK AO2 T00941050
63871K1J0 1J020160105144011101/05/16 14:40:31  5-MIN K1J0 051940Z AUTO 03008KT 10SM CLR 09/M05 A3037 -320 35 -1000 030/08 RMK AO2 T00941050
63871K1J0 1J020160105144511101/05/16 14:45:31  5-MIN K1J0 051945Z AUTO 03006KT 10SM CLR 09/M05 A3037 -320 35 -1000 030/06 RMK AO2 T00941050
63871K1J0 1J020160105145012601/05/16 14:50:31  5-MIN K1J0 051950Z AUTO 03009KT 360V080 10SM CLR 10/M04 A3037 -320 36 -900 030/09 360V080 RMK AO2 T01001044
63871K1J0 1J020160105145511801/05/16 14:55:31  5-MIN K1J0 051955Z AUTO 08010KT 10SM CLR 09/M05 A3037 -320 35 -1000 080/10 RMK AO2 SLP270 T00941050
63871K1J0 1J020160105150011101/05/16 15:00:31  5-MIN K1J0 052000Z AUTO 05011KT 10SM CLR 09/M06 A3037 -320 34 -1000 050/11 RMK AO2 T00941056
63871K1J0 1J020160105150511101/05/16 15:05:31  5-MIN K1J0 052005Z AUTO 06008KT 10SM CLR 09/M06 A3037 -320 34 -1000 060/08 RMK AO2 T00941056
63871K1J0 1J020160105151011101/05/16 15:10:31  5-MIN K1J0 052010Z AUTO 05006KT 10SM CLR 09/M06 A3036 -320 34 -1000 050/06 RMK AO2 T00941056
63871K1J0 1J020160105151511101/05/16 15:15:31  5-MIN K1J0 052015Z AUTO 08008KT 10SM CLR 09/M05 A3036 -310 35 -1000 080/08 RMK AO2 T00941050
63871K1J0 1J020160105152011001/05/16 15:20:31  5-MIN K1J0 052020Z AUTO 03008KT 10SM CLR 10/M05 A3036 -310 34 -900 030/08 RMK AO2 T01001050
63871K1J0 1J020160105152511701/05/16 15:25:31  5-MIN K1J0 052025Z AUTO 04008G15KT 10SM CLR 09/M05 A3036 -310 35 -1000 040/08G15 RMK AO2 T00941050
63871K1J0 1J020160105153011101/05/16 15:30:31  5-MIN K1J0 052030Z AUTO 03006KT 10SM CLR 09/M05 A3036 -310 35 -1000 030/06 RMK AO2 T00941050
63871K1J0 1J020160105153511001/05/16 15:35:31  5-MIN K1J0 052035Z AUTO 04009KT 10SM CLR 10/M05 A3036 -310 34 -900 040/09 RMK AO2 T01001050
63871K1J0 1J020160105154011001/05/16 15:40:31  5-MIN K1J0 052040Z AUTO 04009KT 10SM CLR 10/M06 A3036 -310 33 -900 040/09 RMK AO2 T01001056
63871K1J0 1J020160105154511101/05/16 15:45:31  5-MIN K1J0 052045Z AUTO 04008KT 10SM CLR 09/M06 A3036 -310 34 -1000 040/08 RMK AO2 T00941056
63871K1J0 1J020160105155011101/05/16 15:50:31  5-MIN K1J0 052050Z AUTO VRB06KT 10SM CLR 09/M06 A3036 -310 34 -1000 VRB/06 RMK AO2 T00941056
63871K1J0 1J020160105155512401/05/16 15:55:31  5-MIN K1J0 052055Z AUTO VRB05KT 10SM CLR 09/M06 A3036 -310 34 -1000 VRB/05 RMK AO2 SLP267 T00941056 58022
63871K1J0 1J020160105160011101/05/16 16:00:31  5-MIN K1J0 052100Z AUTO 06010KT 10SM CLR 09/M06 A3036 -320 34 -1000 060/10 RMK AO2 T00941056
63871K1J0 1J020160105160511101/05/16 16:05:31  5-MIN K1J0 052105Z AUTO 05008KT 10SM CLR 09/M06 A3036 -320 34 -1000 050/08 RMK AO2 T00941056
63871K1J0 1J020160105161011101/05/16 16:10:31  5-MIN K1J0 052110Z AUTO 06006KT 10SM CLR 09/M06 A3036 -320 34 -1000 060/06 RMK AO2 T00891061
63871K1J0 1J020160105161511101/05/16 16:15:31  5-MIN K1J0 052115Z AUTO 05007KT 10SM CLR 09/M06 A3037 -320 34 -1000 050/07 RMK AO2 T00941056
63871K1J0 1J020160105162011101/05/16 16:20:31  5-MIN K1J0 052120Z AUTO 04006KT 10SM CLR 09/M06 A3037 -320 34 -1000 040/06 RMK AO2 T00941056
63871K1J0 1J020160105162511001/05/16 16:25:31  5-MIN K1J0 052125Z AUTO VRB05KT 10SM CLR 10/M05 A3037 -320 34 -900 VRB/05 RMK AO2 T01001050
63871K1J0 1J020160105163011101/05/16 16:30:31  5-MIN K1J0 052130Z AUTO 03007KT 10SM CLR 09/M05 A3037 -330 35 -1000 030/07 RMK AO2 T00941050
63871K1J0 1J020160105163511101/05/16 16:35:31  5-MIN K1J0 052135Z AUTO 05008KT 10SM CLR 09/M06 A3038 -330 34 -1000 050/08 RMK AO2 T00941056
63871K1J0 1J020160105164011101/05/16 16:40:31  5-MIN K1J0 052140Z AUTO 07006KT 10SM CLR 09/M06 A3038 -330 34 -1000 070/06 RMK AO2 T00941056
63871K1J0 1J020160105164511101/05/16 16:45:31  5-MIN K1J0 052145Z AUTO 05005KT 10SM CLR 09/M06 A3038 -330 34 -1000 050/05 RMK AO2 T00941056
63871K1J0 1J020160105165011101/05/16 16:50:31  5-MIN K1J0 052150Z AUTO 07009KT 10SM CLR 09/M05 A3038 -330 37 -1100 070/09 RMK AO2 T00891050
63871K1J0 1J020160105165511801/05/16 16:55:31  5-MIN K1J0 052155Z AUTO 06007KT 10SM CLR 09/M06 A3038 -330 35 -1100 060/07 RMK AO2 SLP275 T00891056
63871K1J0 1J020160105170011101/05/16 17:00:31  5-MIN K1J0 052200Z AUTO VRB06KT 10SM CLR 09/M06 A3038 -330 35 -1100 VRB/06 RMK AO2 T00891056
63871K1J0 1J020160105170511101/05/16 17:05:31  5-MIN K1J0 052205Z AUTO 07008KT 10SM CLR 09/M06 A3038 -330 35 -1100 070/08 RMK AO2 T00891056
63871K1J0 1J020160105171011101/05/16 17:10:31  5-MIN K1J0 052210Z AUTO 04008KT 10SM CLR 08/M06 A3038 -330 37 -1100 040/08 RMK AO2 T00831056
63871K1J0 1J020160105171511101/05/16 17:15:31  5-MIN K1J0 052215Z AUTO 05007KT 10SM CLR 08/M05 A3038 -330 38 -1100 050/07 RMK AO2 T00831050
63871K1J0 1J020160105172011101/05/16 17:20:31  5-MIN K1J0 052220Z AUTO 05006KT 10SM CLR 08/M05 A3038 -330 38 -1100 050/06 RMK AO2 T00831050
63871K1J0 1J020160105172511101/05/16 17:25:31  5-MIN K1J0 052225Z AUTO 06007KT 10SM CLR 08/M05 A3038 -330 38 -1100 060/07 RMK AO2 T00831050
63871K1J0 1J020160105173011101/05/16 17:30:31  5-MIN K1J0 052230Z AUTO 04008KT 10SM CLR 08/M05 A3038 -330 40 -1200 040/08 RMK AO2 T00781050
63871K1J0 1J020160105173511101/05/16 17:35:31  5-MIN K1J0 052235Z AUTO 06004KT 10SM CLR 08/M04 A3038 -340 41 -1200 060/04 RMK AO2 T00781044
63871K1J0 1J020160105174011101/05/16 17:40:31  5-MIN K1J0 052240Z AUTO 05006KT 10SM CLR 07/M04 A3038 -340 43 -1300 050/06 RMK AO2 T00721044
63871K1J0 1J020160105174511101/05/16 17:45:31  5-MIN K1J0 052245Z AUTO 04005KT 10SM CLR 07/M04 A3039 -340 43 -1300 040/05 RMK AO2 T00721044
63871K1J0 1J020160105175011101/05/16 17:50:31  5-MIN K1J0 052250Z AUTO 05004KT 10SM CLR 07/M04 A3039 -340 47 -1300 050/04 RMK AO2 T00671039
63871K1J0 1J020160105175511801/05/16 17:55:31  5-MIN K1J0 052255Z AUTO 06004KT 10SM CLR 07/M04 A3039 -340 47 -1300 060/04 RMK AO2 SLP277 T00671039
63871K1J0 1J020160105180011101/05/16 18:00:31  5-MIN K1J0 052300Z AUTO 05004KT 10SM CLR 07/M04 A3039 -340 47 -1300 050/04 RMK AO2 T00671039
63871K1J0 1J020160105180511101/05/16 18:05:31  5-MIN K1J0 052305Z AUTO 05005KT 10SM CLR 06/M04 A3039 -340 48 -1400 050/05 RMK AO2 T00611039
63871K1J0 1J020160105181011101/05/16 18:10:31  5-MIN K1J0 052310Z AUTO 05004KT 10SM CLR 06/M04 A3039 -340 48 -1400 050/04 RMK AO2 T00611039
63871K1J0 1J020160105181511101/05/16 18:15:31  5-MIN K1J0 052315Z AUTO 04004KT 10SM CLR 06/M04 A3039 -340 48 -1400 040/04 RMK AO2 T00611039
63871K1J0 1J020160105182011101/05/16 18:20:31  5-MIN K1J0 052320Z AUTO 04003KT 10SM CLR 06/M04 A3040 -350 50 -1500 040/03 RMK AO2 T00561039
63871K1J0 1J020160105182511101/05/16 18:25:31  5-MIN K1J0 052325Z AUTO 04004KT 10SM CLR 06/M04 A3040 -350 50 -1500 040/04 RMK AO2 T00561039
63871K1J0 1J020160105183011101/05/16 18:30:31  5-MIN K1J0 052330Z AUTO 05004KT 10SM CLR 06/M03 A3040 -350 53 -1500 050/04 RMK AO2 T00561033
63871K1J0 1J020160105183511101/05/16 18:35:31  5-MIN K1J0 052335Z AUTO 03004KT 10SM CLR 06/M03 A3040 -350 53 -1500 030/04 RMK AO2 T00561033
63871K1J0 1J020160105184011101/05/16 18:40:31  5-MIN K1J0 052340Z AUTO 03005KT 10SM CLR 06/M03 A3039 -340 55 -1500 030/05 RMK AO2 T00561028
63871K1J0 1J020160105184511101/05/16 18:45:31  5-MIN K1J0 052345Z AUTO 03005KT 10SM CLR 05/M03 A3039 -340 57 -1600 030/05 RMK AO2 T00501028
63871K1J0 1J020160105185011101/05/16 18:50:31  5-MIN K1J0 052350Z AUTO 03004KT 10SM CLR 05/M02 A3039 -340 59 -1600 030/04 RMK AO2 T00501022
63871K1J0 1J020160105185513601/05/16 18:55:31  5-MIN K1J0 052355Z AUTO 03005KT 10SM CLR 05/M03 A3039 -340 57 -1600 030/05 RMK AO2 SLP278 T00501028 10100 20050 56015
63871K1J0 1J020160105190011101/05/16 19:00:31  5-MIN K1J0 060000Z AUTO 02005KT 10SM CLR 05/M03 A3040 -350 57 -1600 020/05 RMK AO2 T00501028
63871K1J0 1J020160105190511101/05/16 19:05:31  5-MIN K1J0 060005Z AUTO 03004KT 10SM CLR 05/M03 A3040 -350 57 -1600 030/04 RMK AO2 T00501028
63871K1J0 1J020160105191011101/05/16 19:10:31  5-MIN K1J0 060010Z AUTO 02004KT 10SM CLR 05/M03 A3040 -350 57 -1600 020/04 RMK AO2 T00501028
63871K1J0 1J020160105191511101/05/16 19:15:31  5-MIN K1J0 060015Z AUTO 02004KT 10SM CLR 05/M03 A3040 -350 57 -1600 020/04 RMK AO2 T00501028
63871K1J0 1J020160105192011101/05/16 19:20:31  5-MIN K1J0 060020Z AUTO 02003KT 10SM CLR 05/M03 A3041 -350 57 -1600 020/03 RMK AO2 T00501028
63871K1J0 1J020160105192511101/05/16 19:25:31  5-MIN K1J0 060025Z AUTO 01003KT 10SM CLR 04/M02 A3041 -360 62 -1600 010/03 RMK AO2 T00441022
63871K1J0 1J020160105193011101/05/16 19:30:31  5-MIN K1J0 060030Z AUTO 00000KT 10SM CLR 04/M02 A3041 -360 62 -1600 000/00 RMK AO2 T00441022
63871K1J0 1J020160105193511101/05/16 19:35:31  5-MIN K1J0 060035Z AUTO 02003KT 10SM CLR 04/M02 A3041 -360 67 -1700 020/03 RMK AO2 T00391017
63871K1J0 1J020160105194011101/05/16 19:40:31  5-MIN K1J0 060040Z AUTO 02003KT 10SM CLR 04/M01 A3041 -360 70 -1700 020/03 RMK AO2 T00391011
63871K1J0 1J020160105194511101/05/16 19:45:31  5-MIN K1J0 060045Z AUTO 02004KT 10SM CLR 04/M01 A3041 -360 70 -1700 020/04 RMK AO2 T00391011
63871K1J0 1J020160105195011101/05/16 19:50:31  5-MIN K1J0 060050Z AUTO 02004KT 10SM CLR 04/M02 A3042 -360 67 -1700 020/04 RMK AO2 T00391017
63871K1J0 1J020160105195511801/05/16 19:55:31  5-MIN K1J0 060055Z AUTO 03004KT 10SM CLR 04/M02 A3042 -370 64 -1700 030/04 RMK AO2 SLP286 T00391022
63871K1J0 1J020160105200011101/05/16 20:00:31  5-MIN K1J0 060100Z AUTO 03004KT 10SM CLR 04/M02 A3042 -360 67 -1700 030/04 RMK AO2 T00391017
63871K1J0 1J020160105200511101/05/16 20:05:31  5-MIN K1J0 060105Z AUTO 02005KT 10SM CLR 04/M02 A3041 -360 64 -1700 020/05 RMK AO2 T00391022
63871K1J0 1J020160105201011101/05/16 20:10:31  5-MIN K1J0 060110Z AUTO 02005KT 10SM CLR 04/M02 A3041 -360 64 -1700 020/05 RMK AO2 T00391022
63871K1J0 1J020160105201511101/05/16 20:15:31  5-MIN K1J0 060115Z AUTO 02004KT 10SM CLR 04/M03 A3042 -360 62 -1700 020/04 RMK AO2 T00391028
63871K1J0 1J020160105202011101/05/16 20:20:31  5-MIN K1J0 060120Z AUTO 02005KT 10SM CLR 04/M03 A3042 -370 62 -1700 020/05 RMK AO2 T00391028
63871K1J0 1J020160105202511101/05/16 20:25:31  5-MIN K1J0 060125Z AUTO 03004KT 10SM CLR 03/M03 A3042 -370 64 -1800 030/04 RMK AO2 T00331028
63871K1J0 1J020160105203011101/05/16 20:30:31  5-MIN K1J0 060130Z AUTO 03004KT 10SM CLR 04/M03 A3042 -370 62 -1700 030/04 RMK AO2 T00391028
63871K1J0 1J020160105203511101/05/16 20:35:31  5-MIN K1J0 060135Z AUTO 03005KT 10SM CLR 03/M03 A3042 -370 61 -1800 030/05 RMK AO2 T00331033
63871K1J0 1J020160105204011101/05/16 20:40:31  5-MIN K1J0 060140Z AUTO 03006KT 10SM CLR 03/M03 A3042 -370 61 -1800 030/06 RMK AO2 T00331033
63871K1J0 1J020160105204511101/05/16 20:45:31  5-MIN K1J0 060145Z AUTO 04005KT 10SM CLR 03/M03 A3042 -370 61 -1800 040/05 RMK AO2 T00331033
63871K1J0 1J020160105205011101/05/16 20:50:31  5-MIN K1J0 060150Z AUTO 03005KT 10SM CLR 03/M03 A3042 -370 61 -1800 030/05 RMK AO2 T00331033
63871K1J0 1J020160105205511801/05/16 20:55:31  5-MIN K1J0 060155Z AUTO 03005KT 10SM CLR 03/M03 A3042 -370 61 -1800 030/05 RMK AO2 SLP287 T00331033
63871K1J0 1J020160105210011101/05/16 21:00:31  5-MIN K1J0 060200Z AUTO 04004KT 10SM CLR 03/M03 A3042 -370 61 -1800 040/04 RMK AO2 T00331033
63871K1J0 1J020160105210511101/05/16 21:05:31  5-MIN K1J0 060205Z AUTO 04004KT 10SM CLR 03/M03 A3042 -370 61 -1800 040/04 RMK AO2 T00331033
63871K1J0 1J020160105211011101/05/16 21:10:31  5-MIN K1J0 060210Z AUTO 04004KT 10SM CLR 03/M03 A3042 -370 61 -1800 040/04 RMK AO2 T00331033
63871K1J0 1J020160105211511101/05/16 21:15:31  5-MIN K1J0 060215Z AUTO 04003KT 10SM CLR 03/M03 A3042 -370 61 -1800 040/03 RMK AO2 T00331033
63871K1J0 1J020160105212011101/05/16 21:20:31  5-MIN K1J0 060220Z AUTO 05005KT 10SM CLR 03/M03 A3042 -370 61 -1800 050/05 RMK AO2 T00331033
63871K1J0 1J020160105212511101/05/16 21:25:31  5-MIN K1J0 060225Z AUTO 04004KT 10SM CLR 03/M03 A3042 -370 61 -1800 040/04 RMK AO2 T00331033
63871K1J0 1J020160105213011101/05/16 21:30:31  5-MIN K1J0 060230Z AUTO 03004KT 10SM CLR 03/M03 A3042 -370 61 -1800 030/04 RMK AO2 T00331033
63871K1J0 1J020160105213511101/05/16 21:35:31  5-MIN K1J0 060235Z AUTO 03003KT 10SM CLR 03/M03 A3042 -370 61 -1800 030/03 RMK AO2 T00331033
63871K1J0 1J020160105214011101/05/16 21:40:31  5-MIN K1J0 060240Z AUTO 03004KT 10SM CLR 03/M03 A3042 -370 64 -1800 030/04 RMK AO2 T00331028
63871K1J0 1J020160105214511101/05/16 21:45:31  5-MIN K1J0 060245Z AUTO 02004KT 10SM CLR 03/M03 A3042 -370 64 -1800 020/04 RMK AO2 T00331028
63871K1J0 1J020160105215011101/05/16 21:50:31  5-MIN K1J0 060250Z AUTO 03004KT 10SM CLR 03/M03 A3042 -370 64 -1800 030/04 RMK AO2 T00331028
63871K1J0 1J020160105215512401/05/16 21:55:31  5-MIN K1J0 060255Z AUTO 03004KT 10SM CLR 03/M03 A3042 -360 67 -1900 030/04 RMK AO2 SLP286 T00281028 51011
63871K1J0 1J020160105220011101/05/16 22:00:31  5-MIN K1J0 060300Z AUTO 03004KT 10SM CLR 03/M03 A3042 -370 67 -1900 030/04 RMK AO2 T00281028
63871K1J0 1J020160105220511101/05/16 22:05:31  5-MIN K1J0 060305Z AUTO 04004KT 10SM CLR 03/M03 A3042 -370 64 -1900 040/04 RMK AO2 T00281033
63871K1J0 1J020160105221011101/05/16 22:10:31  5-MIN K1J0 060310Z AUTO 05004KT 10SM CLR 03/M03 A3042 -370 64 -1900 050/04 RMK AO2 T00281033
63871K1J0 1J020160105221511101/05/16 22:15:31  5-MIN K1J0 060315Z AUTO 04004KT 10SM CLR 03/M03 A3042 -360 64 -1900 040/04 RMK AO2 T00281033
63871K1J0 1J020160105222011101/05/16 22:20:31  5-MIN K1J0 060320Z AUTO 04005KT 10SM CLR 03/M03 A3041 -360 64 -1900 040/05 RMK AO2 T00281033
63871K1J0 1J020160105222511101/05/16 22:25:31  5-MIN K1J0 060325Z AUTO 05004KT 10SM CLR 03/M03 A3041 -360 64 -1900 050/04 RMK AO2 T00281033
63871K1J0 1J020160105223011101/05/16 22:30:31  5-MIN K1J0 060330Z AUTO 04004KT 10SM CLR 03/M03 A3041 -360 64 -1900 040/04 RMK AO2 T00281033
63871K1J0 1J020160105223511101/05/16 22:35:31  5-MIN K1J0 060335Z AUTO 03004KT 10SM CLR 03/M03 A3041 -360 64 -1800 030/04 RMK AO2 T00281033
63871K1J0 1J020160105224011101/05/16 22:40:31  5-MIN K1J0 060340Z AUTO 03004KT 10SM CLR 03/M03 A3040 -350 67 -1800 030/04 RMK AO2 T00281028
63871K1J0 1J020160105224511101/05/16 22:45:31  5-MIN K1J0 060345Z AUTO 03004KT 10SM CLR 03/M03 A3040 -350 67 -1800 030/04 RMK AO2 T00281028
63871K1J0 1J020160105225011101/05/16 22:50:31  5-MIN K1J0 060350Z AUTO 04004KT 10SM CLR 03/M03 A3041 -350 67 -1800 040/04 RMK AO2 T00281028
63871K1J0 1J020160105225511801/05/16 22:55:31  5-MIN K1J0 060355Z AUTO 04003KT 10SM CLR 03/M03 A3041 -350 67 -1800 040/03 RMK AO2 SLP282 T00281028
63871K1J0 1J020160105230011101/05/16 23:00:31  5-MIN K1J0 060400Z AUTO 04004KT 10SM CLR 03/M03 A3041 -350 64 -1800 040/04 RMK AO2 T00281033
63871K1J0 1J020160105230511101/05/16 23:05:31  5-MIN K1J0 060405Z AUTO 04004KT 10SM CLR 03/M03 A3041 -350 67 -1800 040/04 RMK AO2 T00281028
63871K1J0 1J020160105231011101/05/16 23:10:31  5-MIN K1J0 060410Z AUTO 05004KT 10SM CLR 03/M03 A3041 -360 67 -1800 050/04 RMK AO2 T00281028
63871K1J0 1J020160105231511101/05/16 23:15:31  5-MIN K1J0 060415Z AUTO 05005KT 10SM CLR 03/M03 A3040 -350 67 -1800 050/05 RMK AO2 T00281028
63871K1J0 1J020160105232011101/05/16 23:20:31  5-MIN K1J0 060420Z AUTO 04004KT 10SM CLR 03/M03 A3040 -350 67 -1800 040/04 RMK AO2 T00281028
63871K1J0 1J020160105232511101/05/16 23:25:31  5-MIN K1J0 060425Z AUTO 04004KT 10SM CLR 03/M03 A3040 -350 67 -1800 040/04 RMK AO2 T00281028
63871K1J0 1J020160105233011101/05/16 23:30:31  5-MIN K1J0 060430Z AUTO 04004KT 10SM CLR 03/M03 A3040 -350 67 -1800 040/04 RMK AO2 T00281028
63871K1J0 1J020160105233511101/05/16 23:35:31  5-MIN K1J0 060435Z AUTO 04003KT 10SM CLR 03/M03 A3040 -350 67 -1800 040/03 RMK AO2 T00281028
63871K1J0 1J020160105234011101/05/16 23:40:31  5-MIN K1J0 060440Z AUTO 04003KT 10SM CLR 03/M03 A3040 -350 67 -1800 040/03 RMK AO2 T00281028
63871K1J0 1J020160105234511101/05/16 23:45:31  5-MIN K1J0 060445Z AUTO 05003KT 10SM CLR 03/M03 A3040 -350 67 -1800 050/03 RMK AO2 T00281028
63871K1J0 1J020160105235011101/05/16 23:50:31  5-MIN K1J0 060450Z AUTO 00000KT 10SM CLR 03/M03 A3040 -350 67 -1800 000/00 RMK AO2 T00281028
63871K1J0 1J020160105235512801/05/16 23:55:31  5-MIN K1J0 060455Z AUTO 05003KT 10SM CLR 03/M03 A3040 -350 67 -1800 050/03 RMK AO2 SLP280 T00281028 401000017
63871K1J0 1J020160106000011401/06/16 00:00:31  5-MIN K1J0 060500Z AUTO 04003KT 10SM FEW028 03/M03 A3040 -350 67 -1800 040/03 RMK AO2 T00281028
63871K1J0 1J020160106000511101/06/16 00:05:31  5-MIN K1J0 060505Z AUTO 04003KT 10SM CLR 03/M03 A3040 -350 67 -1800 040/03 RMK AO2 T00281028
63871K1J0 1J020160106001011101/06/16 00:10:31  5-MIN K1J0 060510Z AUTO 04003KT 10SM CLR 03/M03 A3040 -350 67 -1800 040/03 RMK AO2 T00281028
63871K1J0 1J020160106001511101/06/16 00:15:31  5-MIN K1J0 060515Z AUTO 03004KT 10SM CLR 03/M03 A3039 -340 67 -1800 030/04 RMK AO2 T00281028
63871K1J0 1J020160106002011101/06/16 00:20:31  5-MIN K1J0 060520Z AUTO 03003KT 10SM CLR 03/M02 A3039 -340 69 -1800 030/03 RMK AO2 T00281022
63871K1J0 1J020160106002511101/06/16 00:25:31  5-MIN K1J0 060525Z AUTO 02003KT 10SM CLR 03/M02 A3040 -350 69 -1800 020/03 RMK AO2 T00281022
63871K1J0 1J020160106003011101/06/16 00:30:31  5-MIN K1J0 060530Z AUTO 00000KT 10SM CLR 03/M02 A3039 -340 69 -1800 000/00 RMK AO2 T00281022
63871K1J0 1J020160106003511101/06/16 00:35:31  5-MIN K1J0 060535Z AUTO 00000KT 10SM CLR 02/M02 A3039 -340 72 -1900 000/00 RMK AO2 T00221022
63871K1J0 1J020160106004011101/06/16 00:40:31  5-MIN K1J0 060540Z AUTO 00000KT 10SM CLR 03/M02 A3039 -340 69 -1800 000/00 RMK AO2 T00281022
63871K1J0 1J020160106004511101/06/16 00:45:31  5-MIN K1J0 060545Z AUTO 35003KT 10SM CLR 03/M02 A3039 -340 69 -1800 350/03 RMK AO2 T00281022
63871K1J0 1J020160106005011101/06/16 00:50:31  5-MIN K1J0 060550Z AUTO 00000KT 10SM CLR 03/M02 A3039 -340 69 -1800 000/00 RMK AO2 T00281022
63871K1J0 1J020160106005513601/06/16 00:55:31  5-MIN K1J0 060555Z AUTO 00000KT 10SM CLR 03/M02 A3039 -340 69 -1800 000/00 RMK AO2 SLP277 T00281022 10050 20022 50007
63871K1J0 1J020160106010011101/06/16 01:00:31  5-MIN K1J0 060600Z AUTO 00000KT 10SM CLR 03/M02 A3039 -340 69 -1800 000/00 RMK AO2 T00281022
63871K1J0 1J020160106010511401/06/16 01:05:31  5-MIN K1J0 060605Z AUTO 00000KT 10SM FEW050 02/M02 A3039 -340 75 -1900 000/00 RMK AO2 T00221017
63871K1J0 1J020160106011011401/06/16 01:10:31  5-MIN K1J0 060610Z AUTO 00000KT 10SM SCT050 03/M02 A3039 -340 72 -1800 000/00 RMK AO2 T00281017
63871K1J0 1J020160106011511401/06/16 01:15:31  5-MIN K1J0 060615Z AUTO 00000KT 10SM BKN050 02/M01 A3039 -340 78 -1900 000/00 RMK AO2 T00221011
63871K1J0 1J020160106012012101/06/16 01:20:31  5-MIN K1J0 060620Z AUTO 00000KT 10SM FEW041 BKN050 03/M01 A3039 -340 79 -1800 000/00 RMK AO2 T00281006
63871K1J0 1J020160106012512101/06/16 01:25:31  5-MIN K1J0 060625Z AUTO 00000KT 10SM FEW041 BKN050 03/M01 A3039 -340 75 -1800 000/00 RMK AO2 T00281011
63871K1J0 1J020160106013011401/06/16 01:30:31  5-MIN K1J0 060630Z AUTO 36003KT 10SM OVC050 03/M01 A3039 -340 79 -1800 360/03 RMK AO2 T00281006
63871K1J0 1J020160106013511401/06/16 01:35:31  5-MIN K1J0 060635Z AUTO 36003KT 10SM OVC050 03/M01 A3038 -330 75 -1800 360/03 RMK AO2 T00281011
63871K1J0 1J020160106014011401/06/16 01:40:31  5-MIN K1J0 060640Z AUTO 01003KT 10SM OVC050 03/M01 A3038 -330 75 -1800 010/03 RMK AO2 T00281011
63871K1J0 1J020160106014511401/06/16 01:45:31  5-MIN K1J0 060645Z AUTO 01003KT 10SM OVC048 03/M02 A3038 -330 70 -1700 010/03 RMK AO2 T00331017
63871K1J0 1J020160106015011401/06/16 01:50:31  5-MIN K1J0 060650Z AUTO 02004KT 10SM OVC048 03/M02 A3038 -330 70 -1700 020/04 RMK AO2 T00331017
63871K1J0 1J020160106015512101/06/16 01:55:31  5-MIN K1J0 060655Z AUTO 01004KT 10SM OVC049 03/M02 A3038 -330 70 -1700 010/04 RMK AO2 SLP271 T00331017
63871K1J0 1J020160106020011401/06/16 02:00:31  5-MIN K1J0 060700Z AUTO 02004KT 10SM OVC049 03/M02 A3038 -330 70 -1700 020/04 RMK AO2 T00331017
63871K1J0 1J020160106020511401/06/16 02:05:31  5-MIN K1J0 060705Z AUTO 03004KT 10SM OVC049 03/M02 A3038 -330 70 -1700 030/04 RMK AO2 T00331017
63871K1J0 1J020160106021011401/06/16 02:10:31  5-MIN K1J0 060710Z AUTO 03004KT 10SM OVC049 03/M02 A3038 -330 70 -1700 030/04 RMK AO2 T00331017
63871K1J0 1J020160106021511401/06/16 02:15:31  5-MIN K1J0 060715Z AUTO 02006KT 10SM OVC049 03/M02 A3037 -320 70 -1700 020/06 RMK AO2 T00331017
63871K1J0 1J020160106022011401/06/16 02:20:31  5-MIN K1J0 060720Z AUTO 03005KT 10SM OVC049 03/M02 A3037 -320 70 -1700 030/05 RMK AO2 T00331017
63871K1J0 1J020160106022511401/06/16 02:25:31  5-MIN K1J0 060725Z AUTO 03006KT 10SM OVC049 03/M02 A3037 -320 67 -1700 030/06 RMK AO2 T00331022
63871K1J0 1J020160106023011401/06/16 02:30:31  5-MIN K1J0 060730Z AUTO 03006KT 10SM OVC049 04/M02 A3036 -320 67 -1700 030/06 RMK AO2 T00391017
63871K1J0 1J020160106023511401/06/16 02:35:31  5-MIN K1J0 060735Z AUTO 03005KT 10SM OVC049 03/M02 A3037 -320 67 -1700 030/05 RMK AO2 T00331022
63871K1J0 1J020160106024011401/06/16 02:40:31  5-MIN K1J0 060740Z AUTO 03006KT 10SM OVC050 04/M02 A3037 -320 64 -1700 030/06 RMK AO2 T00391022
63871K1J0 1J020160106024511401/06/16 02:45:31  5-MIN K1J0 060745Z AUTO 03006KT 10SM OVC050 04/M02 A3037 -320 64 -1700 030/06 RMK AO2 T00391022
63871K1J0 1J020160106025011401/06/16 02:50:31  5-MIN K1J0 060750Z AUTO 04005KT 10SM OVC050 04/M02 A3037 -320 64 -1700 040/05 RMK AO2 T00391022
63871K1J0 1J020160106025512101/06/16 02:55:31  5-MIN K1J0 060755Z AUTO 04007KT 10SM OVC050 04/M02 A3037 -320 64 -1700 040/07 RMK AO2 SLP268 T00391022
63871K1J0 1J020160106030011401/06/16 03:00:31  5-MIN K1J0 060800Z AUTO 05005KT 10SM BKN050 04/M02 A3037 -320 64 -1700 050/05 RMK AO2 T00391022
63871K1J0 1J020160106030511401/06/16 03:05:31  5-MIN K1J0 060805Z AUTO 05005KT 10SM BKN050 04/M02 A3037 -320 64 -1700 050/05 RMK AO2 T00391022
63871K1J0 1J020160106031011401/06/16 03:10:31  5-MIN K1J0 060810Z AUTO 05006KT 10SM BKN050 04/M02 A3037 -320 64 -1700 050/06 RMK AO2 T00391022
63871K1J0 1J020160106031511401/06/16 03:15:31  5-MIN K1J0 060815Z AUTO 04005KT 10SM BKN050 03/M03 A3036 -320 64 -1700 040/05 RMK AO2 T00331028
63871K1J0 1J020160106032011401/06/16 03:20:31  5-MIN K1J0 060820Z AUTO 04006KT 10SM BKN050 03/M03 A3036 -310 64 -1700 040/06 RMK AO2 T00331028
63871K1J0 1J020160106032511401/06/16 03:25:31  5-MIN K1J0 060825Z AUTO 05005KT 10SM BKN050 03/M02 A3036 -310 67 -1700 050/05 RMK AO2 T00331022
63871K1J0 1J020160106033011401/06/16 03:30:31  5-MIN K1J0 060830Z AUTO 05004KT 10SM BKN050 03/M02 A3036 -310 67 -1700 050/04 RMK AO2 T00331022
63871K1J0 1J020160106033511401/06/16 03:35:31  5-MIN K1J0 060835Z AUTO 05005KT 10SM BKN050 03/M03 A3036 -310 64 -1700 050/05 RMK AO2 T00331028
63871K1J0 1J020160106034011401/06/16 03:40:31  5-MIN K1J0 060840Z AUTO 05005KT 10SM BKN050 04/M02 A3036 -310 64 -1700 050/05 RMK AO2 T00391022
63871K1J0 1J020160106034511401/06/16 03:45:31  5-MIN K1J0 060845Z AUTO 05005KT 10SM BKN050 04/M03 A3036 -310 62 -1700 050/05 RMK AO2 T00391028
63871K1J0 1J020160106035011401/06/16 03:50:31  5-MIN K1J0 060850Z AUTO 04005KT 10SM OVC050 04/M02 A3036 -310 64 -1700 040/05 RMK AO2 T00391022
63871K1J0 1J020160106035512701/06/16 03:55:31  5-MIN K1J0 060855Z AUTO 03005KT 10SM OVC050 04/M02 A3036 -310 64 -1700 030/05 RMK AO2 SLP266 T00391022 56009
63871K1J0 1J020160106040011401/06/16 04:00:31  5-MIN K1J0 060900Z AUTO 04006KT 10SM OVC050 04/M02 A3036 -310 64 -1700 040/06 RMK AO2 T00391022
63871K1J0 1J020160106040511401/06/16 04:05:31  5-MIN K1J0 060905Z AUTO 05006KT 10SM OVC050 04/M03 A3036 -310 62 -1700 050/06 RMK AO2 T00391028
63871K1J0 1J020160106041011401/06/16 04:10:31  5-MIN K1J0 060910Z AUTO 06006KT 10SM OVC050 04/M02 A3036 -310 64 -1700 060/06 RMK AO2 T00391022
63871K1J0 1J020160106041511401/06/16 04:15:31  5-MIN K1J0 060915Z AUTO VRB05KT 10SM BKN050 04/M03 A3036 -310 62 -1700 VRB/05 RMK AO2 T00391028
63871K1J0 1J020160106042011401/06/16 04:20:31  5-MIN K1J0 060920Z AUTO 05005KT 10SM BKN050 04/M03 A3036 -310 62 -1700 050/05 RMK AO2 T00391028
63871K1J0 1J020160106042511401/06/16 04:25:31  5-MIN K1J0 060925Z AUTO 06006KT 10SM BKN050 04/M03 A3036 -310 62 -1700 060/06 RMK AO2 T00391028
63871K1J0 1J020160106043011401/06/16 04:30:31  5-MIN K1J0 060930Z AUTO 05005KT 10SM BKN050 04/M03 A3036 -310 62 -1700 050/05 RMK AO2 T00391028
63871K1J0 1J020160106043511401/06/16 04:35:31  5-MIN K1J0 060935Z AUTO 04005KT 10SM BKN050 04/M03 A3036 -310 62 -1700 040/05 RMK AO2 T00391028
63871K1J0 1J020160106044011401/06/16 04:40:31  5-MIN K1J0 060940Z AUTO 05005KT 10SM OVC050 04/M03 A3036 -310 62 -1700 050/05 RMK AO2 T00391028
63871K1J0 1J020160106044511401/06/16 04:45:31  5-MIN K1J0 060945Z AUTO 04006KT 10SM OVC050 04/M03 A3036 -310 62 -1700 040/06 RMK AO2 T00391028
63871K1J0 1J020160106045011401/06/16 04:50:31  5-MIN K1J0 060950Z AUTO 05005KT 10SM OVC055 04/M03 A3036 -310 59 -1600 050/05 RMK AO2 T00441028
63871K1J0 1J020160106045512101/06/16 04:55:31  5-MIN K1J0 060955Z AUTO 04006KT 10SM OVC055 04/M03 A3036 -310 59 -1600 040/06 RMK AO2 SLP266 T00441028
63871K1J0 1J020160106050011401/06/16 05:00:31  5-MIN K1J0 061000Z AUTO 04005KT 10SM OVC055 04/M03 A3036 -310 59 -1600 040/05 RMK AO2 T00441028
63871K1J0 1J020160106050511401/06/16 05:05:31  5-MIN K1J0 061005Z AUTO 04007KT 10SM OVC055 04/M03 A3036 -310 59 -1600 040/07 RMK AO2 T00441028
63871K1J0 1J020160106051011401/06/16 05:10:31  5-MIN K1J0 061010Z AUTO 05008KT 10SM OVC055 04/M03 A3036 -310 57 -1600 050/08 RMK AO2 T00441033
63871K1J0 1J020160106051511401/06/16 05:15:31  5-MIN K1J0 061015Z AUTO 05007KT 10SM OVC055 04/M03 A3036 -310 57 -1600 050/07 RMK AO2 T00441033
63871K1J0 1J020160106052011401/06/16 05:20:31  5-MIN K1J0 061020Z AUTO 05007KT 10SM OVC055 04/M03 A3036 -310 57 -1600 050/07 RMK AO2 T00441033
63871K1J0 1J020160106052511401/06/16 05:25:31  5-MIN K1J0 061025Z AUTO 04009KT 10SM OVC055 04/M03 A3036 -310 57 -1600 040/09 RMK AO2 T00441033
63871K1J0 1J020160106053011401/06/16 05:30:31  5-MIN K1J0 061030Z AUTO 06008KT 10SM OVC055 04/M03 A3036 -310 57 -1600 060/08 RMK AO2 T00441033
63871K1J0 1J020160106053511401/06/16 05:35:31  5-MIN K1J0 061035Z AUTO 05008KT 10SM OVC055 04/M03 A3036 -310 57 -1600 050/08 RMK AO2 T00441033
63871K1J0 1J020160107203512501/07/16 20:35:31  5-MIN K1J0 080135Z AUTO 05003KT 10SM OVC095 12/11 A2999 30 89 -200 050/03 RMK AO2 RAB02E31 P0000 T01220106
63871K1J0 1J020160107204013201/07/16 20:40:31  5-MIN K1J0 080140Z AUTO 03003KT 10SM FEW060 OVC095 12/11 A2999 20 89 -200 030/03 RMK AO2 RAB02E31 P0000 T01220106
63871K1J0 1J020160107204513301/07/16 20:45:31  5-MIN K1J0 080145Z AUTO 01003KT 10SM -RA FEW060 OVC090 12/11 A2999 20 93 -200 010/03 RMK AO2 RAB02 P0000 T01220111
63871K1J0 1J020160107205013301/07/16 20:50:31  5-MIN K1J0 080150Z AUTO 36004KT 10SM -RA FEW060 OVC090 12/11 A2999 20 93 -200 360/04 RMK AO2 RAB02 P0000 T01220111
63871K1J0 1J020160107205514701/07/16 20:55:31  5-MIN K1J0 080155Z AUTO 01003KT 10SM -RA FEW043 FEW060 OVC085 12/11 A3000 10 93 -200 010/03 RMK AO2 RAB02 SLP143 P0000 T01220111
63871K1J0 1J020160107210013401/07/16 21:00:31  5-MIN K1J0 080200Z AUTO 01004KT 10SM -RA FEW043 SCT065 OVC080 12/11 A3000 10 93 -200 010/04 RMK AO2 P0000 T01220111
63871K1J0 1J020160107210513401/07/16 21:05:31  5-MIN K1J0 080205Z AUTO 01003KT 10SM -RA FEW043 SCT060 OVC080 12/11 A3000 10 93 -200 010/03 RMK AO2 P0000 T01220111
63871K1J0 1J020160107211013401/07/16 21:10:31  5-MIN K1J0 080210Z AUTO 02005KT 10SM -RA FEW043 SCT065 OVC080 12/11 A3000 10 93 -200 020/05 RMK AO2 P0000 T01220111
63871K1J0 1J020160107211512601/07/16 21:15:31  5-MIN K1J0 080215Z AUTO 04004KT 9SM -RA SCT065 OVC080 12/11 A3000 20 96 -300 040/04 RMK AO2 P0001 T01170111
63871K1J0 1J020160107212012601/07/16 21:20:31  5-MIN K1J0 080220Z AUTO 06004KT 8SM -RA SCT065 OVC080 12/11 A2999 20 96 -300 060/04 RMK AO2 P0001 T01170111
63871K1J0 1J020160107212512601/07/16 21:25:31  5-MIN K1J0 080225Z AUTO 06006KT 8SM -RA SCT065 OVC080 12/11 A2999 20 96 -300 060/06 RMK AO2 P0001 T01170111
63871K1J0 1J020160107213012601/07/16 21:30:31  5-MIN K1J0 080230Z AUTO 06005KT 8SM -RA FEW065 OVC080 12/11 A2999 20 96 -300 060/05 RMK AO2 P0001 T01170111
63871K1J0 1J020160107213512601/07/16 21:35:31  5-MIN K1J0 080235Z AUTO 06006KT 8SM -RA SCT065 OVC080 12/11 A2999 20 96 -300 060/06 RMK AO2 P0001 T01170111
63871K1J0 1J020160107214012601/07/16 21:40:31  5-MIN K1J0 080240Z AUTO VRB05KT 8SM -RA BKN065 OVC080 12/11 A2999 20 96 -300 VRB/05 RMK AO2 P0001 T01170111
63871K1J0 1J020160107214513301/07/16 21:45:31  5-MIN K1J0 080245Z AUTO 05006KT 8SM -RA FEW046 BKN070 OVC085 12/11 A2999 20 96 -300 050/06 RMK AO2 P0001 T01170111
63871K1J0 1J020160107215013301/07/16 21:50:31  5-MIN K1J0 080250Z AUTO 05004KT 9SM -RA FEW046 BKN065 OVC085 12/11 A3000 20 96 -300 050/04 RMK AO2 P0001 T01170111
63871K1J0 1J020160107215515201/07/16 21:55:31  5-MIN K1J0 080255Z AUTO 04005KT 8SM -RA FEW046 BKN065 OVC085 12/11 A3000 20 96 -300 040/05 RMK AO2 SLP142 P0001 60002 T01170111 53010
63871K1J0 1J020160107220013301/07/16 22:00:31  5-MIN K1J0 080300Z AUTO 03005KT 7SM -RA FEW046 BKN065 OVC080 12/11 A3000 10 96 -300 030/05 RMK AO2 P0000 T01170111
63871K1J0 1J020160107220512501/07/16 22:05:31  5-MIN K1J0 080305Z AUTO 01003KT 7SM -RA FEW040 OVC070 12/11 A3001 0 96 -300 010/03 RMK AO2 P0000 T01170111
63871K1J0 1J020160107221013201/07/16 22:10:31  5-MIN K1J0 080310Z AUTO 01004KT 7SM -RA FEW038 SCT046 OVC070 12/11 A3001 0 96 -300 010/04 RMK AO2 P0000 T01170111
63871K1J0 1J020160107221513201/07/16 22:15:31  5-MIN K1J0 080315Z AUTO 02004KT 7SM -RA SCT038 BKN048 OVC070 12/11 A3001 0 96 -300 020/04 RMK AO2 P0000 T01170111
63871K1J0 1J020160107222013201/07/16 22:20:31  5-MIN K1J0 080320Z AUTO 02005KT 7SM -RA SCT039 BKN047 OVC070 12/11 A3002 0 96 -300 020/05 RMK AO2 P0000 T01170111
63871K1J0 1J020160107222513201/07/16 22:25:31  5-MIN K1J0 080325Z AUTO 03005KT 7SM -RA BKN041 BKN048 OVC075 12/11 A3002 0 96 -300 030/05 RMK AO2 P0000 T01170111
63871K1J0 1J020160107223013501/07/16 22:30:31  5-MIN K1J0 080330Z AUTO 03003KT 6SM -RA BR FEW039 BKN046 OVC070 12/11 A3002 0 96 -300 030/03 RMK AO2 P0000 T01170111
63871K1J0 1J020160107223513701/07/16 22:35:31  5-MIN K1J0 080335Z AUTO 00000KT 6SM -RA BR FEW039 BKN055 OVC065 12/11 A3003 -10 96 -300 000/00 RMK AO2 P0002 T01170111
63871K1J0 1J020160107224013001/07/16 22:40:31  5-MIN K1J0 080340Z AUTO 05003KT 6SM -RA BR FEW043 OVC060 12/11 A3003 -10 96 -300 050/03 RMK AO2 P0003 T01170111
63871K1J0 1J020160107224513401/07/16 22:45:31  5-MIN K1J0 080345Z AUTO 06004KT 6SM RA BR FEW040 BKN050 OVC065 12/11 A3002 0 96 -300 060/04 RMK AO2 P0005 T01170111
63871K1J0 1J020160107225012701/07/16 22:50:31  5-MIN K1J0 080350Z AUTO 09008KT 6SM RA BR FEW042 OVC060 12/11 A3001 0 96 -300 090/08 RMK AO2 P0007 T01170111
63871K1J0 1J020160107225514201/07/16 22:55:31  5-MIN K1J0 080355Z AUTO 08007KT 5SM RA BR FEW040 OVC060 12/11 A3001 10 96 -300 080/07 RMK AO2 PRESFR SLP145 P0010 T01170111
63871K1J0 1J020160107230012701/07/16 23:00:31  5-MIN K1J0 080400Z AUTO VRB04KT 5SM RA BR FEW040 OVC060 12/11 A3001 0 96 -300 VRB/04 RMK AO2 P0000 T01170111
63871K1J0 1J020160107230513501/07/16 23:05:31  5-MIN K1J0 080405Z AUTO 05006KT 5SM RA BR FEW046 BKN060 OVC080 12/11 A3000 10 96 -300 050/06 RMK AO2 P0000 T01170111
63871K1J0 1J020160107231014301/07/16 23:10:31  5-MIN K1J0 080410Z AUTO 09010KT 6SM -RA BR FEW046 BKN060 OVC075 12/11 A2999 30 96 -300 090/10 RMK AO2 PRESFR P0000 T01170111
63871K1J0 1J020160107231512601/07/16 23:15:31  5-MIN K1J0 080415Z AUTO 11011KT 7SM -RA BKN060 OVC080 12/11 A2998 30 96 -300 110/11 RMK AO2 P0000 T01170111
63871K1J0 1J020160107232013201/07/16 23:20:31  5-MIN K1J0 080420Z AUTO 11012G18KT 8SM -RA SCT060 OVC080 12/11 A2998 30 93 -300 110/12G18 RMK AO2 P0000 T01170106
63871K1J0 1J020160107232514301/07/16 23:25:31  5-MIN K1J0 080425Z AUTO 11011G18KT 9SM -RA FEW060 OVC080 12/11 A2998 30 93 -300 110/11G18 RMK AO2 WSHFT 0410 P0000 T01170106
63871K1J0 1J020160107233014301/07/16 23:30:31  5-MIN K1J0 080430Z AUTO 10010G18KT 9SM -RA BKN075 OVC090 12/11 A2998 30 96 -300 100/10G18 RMK AO2 WSHFT 0410 P0000 T01170111
63871K1J0 1J020160107233513601/07/16 23:35:31  5-MIN K1J0 080435Z AUTO 11012G18KT 8SM -RA BKN075 12/11 A2998 30 96 -300 110/12G18 RMK AO2 WSHFT 0410 P0000 T01170111
63871K1J0 1J020160107234015001/07/16 23:40:31  5-MIN K1J0 080440Z AUTO 10010G20KT 8SM -RA FEW006 FEW055 OVC080 12/11 A2998 30 96 -300 100/10G20 RMK AO2 WSHFT 0410 P0000 T01170111
63871K1J0 1J020160107234515001/07/16 23:45:31  5-MIN K1J0 080445Z AUTO 09011G20KT 8SM -RA FEW006 FEW060 OVC080 12/11 A2997 40 96 -300 090/11G20 RMK AO2 WSHFT 0410 P0000 T01170111
63871K1J0 1J020160107235014401/07/16 23:50:31  5-MIN K1J0 080450Z AUTO 09008KT 9SM -RA FEW008 BKN075 OVC090 12/11 A2997 40 96 -300 090/08 RMK AO2 WSHFT 0410 P0000 T01170111
63871K1J0 1J020160107235516101/07/16 23:55:31  5-MIN K1J0 080455Z AUTO 08008KT 9SM -RA FEW005 OVC075 12/11 A2996 50 96 -200 080/08 RMK AO2 WSHFT 0410 PRESFR SLP130 P0000 T01170111 401720050
63871K1J0 1J020160108000012701/08/16 00:00:31  5-MIN K1J0 080500Z AUTO 09009KT 10SM -RA FEW005 OVC080 12/11 A2996 50 96 -200 090/09 RMK AO2 P0000 T01170111
63871K1J0 1J020160108000513401/08/16 00:05:31  5-MIN K1J0 080505Z AUTO 09007KT 10SM -RA FEW005 BKN075 OVC100 12/11 A2995 50 96 -200 090/07 RMK AO2 P0000 T01170111
63871K1J0 1J020160108001013401/08/16 00:10:31  5-MIN K1J0 080510Z AUTO 10009KT 10SM -RA FEW041 BKN075 OVC100 12/11 A2995 60 96 -200 100/09 RMK AO2 P0000 T01170111
63871K1J0 1J020160108001514301/08/16 00:15:31  5-MIN K1J0 080515Z AUTO 09009KT 10SM FEW039 BKN075 OVC095 12/11 A2994 70 96 -200 090/09 RMK AO2 RAE14 PRESFR P0000 T01170111
63871K1J0 1J020160108002013401/08/16 00:20:31  5-MIN K1J0 080520Z AUTO 10007KT 10SM -RA FEW005 BKN075 OVC090 12/11 A2994 70 96 -200 100/07 RMK AO2 P0000 T01170111
63871K1J0 1J020160108002513401/08/16 00:25:31  5-MIN K1J0 080525Z AUTO 09006KT 10SM -RA FEW005 FEW033 OVC090 12/11 A2993 70 96 -200 090/06 RMK AO2 P0000 T01170111
63871K1J0 1J020160108003013401/08/16 00:30:31  5-MIN K1J0 080530Z AUTO 10007KT 10SM -RA FEW009 BKN075 OVC090 12/11 A2994 70 96 -200 100/07 RMK AO2 P0000 T01170111
63871K1J0 1J020160108003513401/08/16 00:35:31  5-MIN K1J0 080535Z AUTO 09006KT 10SM -RA FEW005 SCT070 OVC090 12/11 A2993 70 96 -200 090/06 RMK AO2 P0000 T01170111
63871K1J0 1J020160108004013501/08/16 00:40:31  5-MIN K1J0 080540Z AUTO 09005KT 10SM -RA FEW009 BKN075 OVC090 12/12 A2993 70 100 -200 090/05 RMK AO2 P0000 T01170117
63871K1J0 1J020160108004513501/08/16 00:45:31  5-MIN K1J0 080545Z AUTO 09007KT 10SM -RA FEW005 SCT070 OVC080 12/12 A2993 80 100 -200 090/07 RMK AO2 P0000 T01170117
63871K1J0 1J020160108005013401/08/16 00:50:31  5-MIN K1J0 080550Z AUTO 10005KT 10SM -RA FEW007 BKN075 OVC090 12/12 A2993 80 96 -100 100/05 RMK AO2 P0000 T01220117
63871K1J0 1J020160108005516501/08/16 00:55:31  5-MIN K1J0 080555Z AUTO 11007KT 10SM -RA FEW006 SCT023 OVC080 12/12 A2993 80 96 -100 110/07 RMK AO2 SLP120 P0000 60014 T01220117 10139 20117 53004
63871K1J0 1J020160108010013401/08/16 01:00:31  5-MIN K1J0 080600Z AUTO 11007KT 10SM -RA FEW006 BKN070 OVC085 12/12 A2993 80 96 -100 110/07 RMK AO2 P0000 T01220117
63871K1J0 1J020160108010513401/08/16 01:05:31  5-MIN K1J0 080605Z AUTO 11007KT 10SM -RA FEW005 BKN070 OVC085 12/12 A2993 80 96 -100 110/07 RMK AO2 P0000 T01220117
63871K1J0 1J020160108011013401/08/16 01:10:31  5-MIN K1J0 080610Z AUTO 10009KT 10SM -RA FEW005 SCT037 OVC090 12/12 A2992 90 96 -100 100/09 RMK AO2 P0000 T01220117
63871K1J0 1J020160108011514201/08/16 01:15:31  5-MIN K1J0 080615Z AUTO 09010KT 10SM -RA FEW005 SCT037 OVC090 12/12 A2991 100 96 -100 090/10 RMK AO2 PRESFR P0000 T01220117
63871K1J0 1J020160108012014801/08/16 01:20:31  5-MIN K1J0 080620Z AUTO 11010G17KT 10SM -RA FEW013 SCT080 OVC090 12/12 A2990 100 96 -100 110/10G17 RMK AO2 PRESFR P0000 T01220117
63871K1J0 1J020160108012514101/08/16 01:25:31  5-MIN K1J0 080625Z AUTO 08008G17KT 10SM -RA FEW009 BKN090 OVC110 12/12 A2990 110 96 -100 080/08G17 RMK AO2 P0000 T01220117
63871K1J0 1J020160108013014201/08/16 01:30:31  5-MIN K1J0 080630Z AUTO 09010KT 10SM -RA SCT007 BKN046 OVC090 12/12 A2989 110 96 -100 090/10 RMK AO2 PRESFR P0000 T01220117
63871K1J0 1J020160108013514401/08/16 01:35:31  5-MIN K1J0 080635Z AUTO 10010KT 10SM BKN005 BKN047 OVC090 12/12 A2989 120 96 -100 100/10 RMK AO2 RAE33 PRESFR P0000 T01220117
63871K1J0 1J020160108014014401/08/16 01:40:31  5-MIN K1J0 080640Z AUTO 10011KT 10SM BKN005 BKN050 OVC110 12/12 A2988 120 96 -100 100/11 RMK AO2 RAE33 PRESFR P0000 T01220117
63871K1J0 1J020160108014513701/08/16 01:45:31  5-MIN K1J0 080645Z AUTO 08007KT 10SM BKN005 BKN050 BKN110 12/12 A2988 130 96 -100 080/07 RMK AO2 RAE33 P0000 T01220117
63871K1J0 1J020160108015013001/08/16 01:50:31  5-MIN K1J0 080650Z AUTO 09007KT 10SM BKN005 BKN047 12/12 A2988 120 96 -100 090/07 RMK AO2 RAE33 P0000 T01220117
63871K1J0 1J020160108015513001/08/16 01:55:31  5-MIN K1J0 080655Z AUTO 10006KT 10SM BKN005 12/12 A2988 120 96 -100 100/06 RMK AO2 RAE33 SLP104 P0000 T01220117
63871K1J0 1J020160108020011101/08/16 02:00:31  5-MIN K1J0 080700Z AUTO 09007KT 10SM SCT005 12/12 A2988 120 96 -100 090/07 RMK AO2 T01220117
63871K1J0 1J020160108020511101/08/16 02:05:31  5-MIN K1J0 080705Z AUTO 08006KT 10SM SCT005 12/12 A2988 120 96 -100 080/06 RMK AO2 T01220117
63871K1J0 1J020160108021011101/08/16 02:10:31  5-MIN K1J0 080710Z AUTO 10007KT 10SM FEW005 12/12 A2988 120 96 -100 100/07 RMK AO2 T01220117
63871K1J0 1J020160108021511101/08/16 02:15:31  5-MIN K1J0 080715Z AUTO 09005KT 10SM FEW005 12/12 A2988 120 96 -100 090/05 RMK AO2 T01220117
63871K1J0 1J020160108022011101/08/16 02:20:31  5-MIN K1J0 080720Z AUTO 10006KT 10SM FEW006 12/12 A2988 120 96 -100 100/06 RMK AO2 T01220117
63871K1J0 1J020160108022511101/08/16 02:25:31  5-MIN K1J0 080725Z AUTO 12003KT 10SM FEW006 12/12 A2989 120 96 -100 120/03 RMK AO2 T01220117
63871K1J0 1J020160108023011101/08/16 02:30:31  5-MIN K1J0 080730Z AUTO 10003KT 10SM FEW006 12/12 A2989 120 96 -100 100/03 RMK AO2 T01220117
63871K1J0 1J020160108023511101/08/16 02:35:31  5-MIN K1J0 080735Z AUTO 12003KT 10SM FEW006 12/12 A2989 110 96 -100 120/03 RMK AO2 T01220117
63871K1J0 1J020160108024011101/08/16 02:40:31  5-MIN K1J0 080740Z AUTO 14003KT 10SM FEW007 12/12 A2989 110 96 -100 140/03 RMK AO2 T01220117
63871K1J0 1J020160108024511101/08/16 02:45:31  5-MIN K1J0 080745Z AUTO 14003KT 10SM FEW007 12/12 A2989 110 96 -100 140/03 RMK AO2 T01220117
63871K1J0 1J020160108025011801/08/16 02:50:31  5-MIN K1J0 080750Z AUTO 00000KT 10SM SCT007 SCT085 12/12 A2990 110 96 -100 000/00 RMK AO2 T01220117
63871K1J0 1J020160108025512501/08/16 02:55:31  5-MIN K1J0 080755Z AUTO 00000KT 10SM SCT007 BKN085 12/12 A2990 110 96 -100 000/00 RMK AO2 SLP108 T01220117
63871K1J0 1J020160108030011801/08/16 03:00:31  5-MIN K1J0 080800Z AUTO 00000KT 10SM SCT007 BKN085 12/12 A2990 110 96 -100 000/00 RMK AO2 T01220117
63871K1J0 1J020160108030511801/08/16 03:05:31  5-MIN K1J0 080805Z AUTO 00000KT 10SM SCT007 BKN085 12/12 A2990 110 96 -100 000/00 RMK AO2 T01220117
63871K1J0 1J020160108031011801/08/16 03:10:31  5-MIN K1J0 080810Z AUTO 00000KT 10SM BKN008 BKN085 12/12 A2990 110 96 -100 000/00 RMK AO2 T01220117
63871K1J0 1J020160108031511801/08/16 03:15:31  5-MIN K1J0 080815Z AUTO 00000KT 10SM BKN008 BKN085 12/12 A2990 100 96 -100 000/00 RMK AO2 T01220117
63871K1J0 1J020160108032011801/08/16 03:20:31  5-MIN K1J0 080820Z AUTO 00000KT 10SM BKN008 BKN085 12/11 A2991 100 96 -200 000/00 RMK AO2 T01170111
63871K1J0 1J020160108032511801/08/16 03:25:31  5-MIN K1J0 080825Z AUTO 00000KT 10SM BKN008 OVC085 12/11 A2991 100 96 -200 000/00 RMK AO2 T01170111
63871K1J0 1J020160108033010901/08/16 03:30:31  5-MIN K1J0 080830Z AUTO 00000KT 9SM OVC008 12/11 A2991 90 96 -200 000/00 RMK AO2 T01170111
63871K1J0 1J020160108033510901/08/16 03:35:31  5-MIN K1J0 080835Z AUTO 00000KT 8SM OVC008 11/11 A2991 90 96 -300 000/00 RMK AO2 T01110106
63871K1J0 1J020160108034010901/08/16 03:40:31  5-MIN K1J0 080840Z AUTO 00000KT 8SM BKN008 11/11 A2991 90 96 -300 000/00 RMK AO2 T01110106
63871K1J0 1J020160108034510901/08/16 03:45:31  5-MIN K1J0 080845Z AUTO 00000KT 7SM BKN008 11/11 A2991 90 96 -300 000/00 RMK AO2 T01110106
63871K1J0 1J020160108035011201/08/16 03:50:31  5-MIN K1J0 080850Z AUTO 00000KT 6SM BR BKN008 11/11 A2991 90 96 -300 000/00 RMK AO2 T01110106
63871K1J0 1J020160108035513101/08/16 03:55:31  5-MIN K1J0 080855Z AUTO 34003KT 5SM BR BKN008 11/11 A2991 90 96 -300 340/03 RMK AO2 SLP114 60000 T01110106 58024
63871K1J0 1J020160108040012001/08/16 04:00:31  5-MIN K1J0 080900Z AUTO 00000KT 6SM BR SCT007 SCT075 11/11 A2991 90 100 -300 000/00 RMK AO2 T01110111
63871K1J0 1J020160108040511901/08/16 04:05:31  5-MIN K1J0 080905Z AUTO 00000KT 6SM BR FEW007 SCT075 11/11 A2991 90 96 -300 000/00 RMK AO2 T01110106
63871K1J0 1J020160108041012001/08/16 04:10:31  5-MIN K1J0 080910Z AUTO 29003KT 5SM BR SCT007 SCT075 11/11 A2992 90 100 -300 290/03 RMK AO2 T01060106
63871K1J0 1J020160108041511901/08/16 04:15:31  5-MIN K1J0 080915Z AUTO 00000KT 5SM BR SCT007 BKN075 11/10 A2992 90 96 -300 000/00 RMK AO2 T01060100
63871K1J0 1J020160108042011901/08/16 04:20:31  5-MIN K1J0 080920Z AUTO 36003KT 3SM BR BKN008 BKN075 11/10 A2992 90 96 -300 360/03 RMK AO2 T01060100
63871K1J0 1J020160108042513101/08/16 04:25:31  5-MIN K1J0 080925Z AUTO 03003KT 1 1/4SM BR FEW002 BKN008 BKN075 10/10 A2992 90 100 -400 030/03 RMK AO2 T01000100
63871K1J0 1J020160108043012401/08/16 04:30:31  5-MIN K1J0 080930Z AUTO 36004KT 1 1/4SM BR FEW002 BKN008 10/10 A2991 90 100 -400 360/04 RMK AO2 T01000100
63871K1J0 1J020160108043512001/08/16 04:35:31  5-MIN K1J0 080935Z AUTO 36004KT 3SM BR FEW002 BKN008 10/10 A2991 90 100 -400 360/04 RMK AO2 T01000100
63871K1J0 1J020160108044011801/08/16 04:40:31  5-MIN K1J0 080940Z AUTO 03004KT 9SM FEW002 SCT008 10/10 A2991 100 100 -400 030/04 RMK AO2 T01000100
63871K1J0 1J020160108044512401/08/16 04:45:31  5-MIN K1J0 080945Z AUTO 02003KT 9SM FEW002 FEW008 SCT075 11/10 A2991 100 96 -300 020/03 RMK AO2 T01060100
63871K1J0 1J020160108045011701/08/16 04:50:31  5-MIN K1J0 080950Z AUTO 32003KT 9SM FEW002 SCT075 11/11 A2991 90 100 -300 320/03 RMK AO2 T01060106
63871K1J0 1J020160108045512501/08/16 04:55:31  5-MIN K1J0 080955Z AUTO 34004KT 10SM FEW007 FEW075 11/11 A2991 100 96 -300 340/04 RMK AO2 SLP113 T01110106
63871K1J0 1J020160108050011901/08/16 05:00:31  5-MIN K1J0 081000Z AUTO 34003KT 10SM SCT007 SCT075 11/11 A2991 100 100 -300 340/03 RMK AO2 T01110111
63871K1J0 1J020160108050511801/08/16 05:05:31  5-MIN K1J0 081005Z AUTO 34003KT 10SM BKN007 BKN075 11/11 A2991 90 100 -300 340/03 RMK AO2 T01110111
63871K1J0 1J020160108051007501/08/16 05:10:31  5-MIN K1J0 081010Z AUTO 36004KT 10SM BKN006 BKN075 12/11
63871K1J0 1J020160108051011701/08/16 05:10:31  5-MIN K1J0 081010Z AUTO 36004KT 10SM BKN006 BKN075 12/11 A2991 90 96 -200 360/04 RMK AO2 T01170111
63871K1J0 1J020160108051511001/08/16 05:15:31  5-MIN K1J0 081015Z AUTO 34003KT 10SM BKN006 12/11 A2991 90 96 -200 340/03 RMK AO2 T01170111
63871K1J0 1J020160108052011101/08/16 05:20:31  5-MIN K1J0 081020Z AUTO 33003KT 10SM OVC006 11/11 A2991 90 100 -300 330/03 RMK AO2 T01110111
63871K1J0 1J020160108052511801/08/16 05:25:31  5-MIN K1J0 081025Z AUTO 00000KT 10SM BKN006 OVC070 12/11 A2991 100 96 -200 000/00 RMK AO2 T01170111
63871K1J0 1J020160108053011801/08/16 05:30:31  5-MIN K1J0 081030Z AUTO 00000KT 10SM BKN006 BKN070 11/11 A2991 90 100 -300 000/00 RMK AO2 T01110111
63871K1J0 1J020160108053511701/08/16 05:35:31  5-MIN K1J0 081035Z AUTO 00000KT 10SM BKN006 BKN070 11/11 A2991 90 96 -300 000/00 RMK AO2 T01110106
63871K1J0 1J020160108054011701/08/16 05:40:31  5-MIN K1J0 081040Z AUTO 33003KT 10SM BKN006 BKN070 11/11 A2992 90 96 -300 330/03 RMK AO2 T01110106
63871K1J0 1J020160108054511701/08/16 05:45:31  5-MIN K1J0 081045Z AUTO 33004KT 10SM BKN006 BKN070 12/11 A2992 90 96 -200 330/04 RMK AO2 T01170111
63871K1J0 1J020160108055011701/08/16 05:50:31  5-MIN K1J0 081050Z AUTO 34004KT 10SM BKN004 BKN070 12/11 A2992 80 96 -200 340/04 RMK AO2 T01170111
63871K1J0 1J020160108055511701/08/16 05:55:31  5-MIN K1J0 081055Z AUTO 33003KT 10SM BKN004 12/11 A2993 80 96 -200 330/03 RMK AO2 SLP118 T01170111
63871K1J0 1J020160108060011001/08/16 06:00:31  5-MIN K1J0 081100Z AUTO 00000KT 10SM OVC004 12/11 A2993 80 96 -200 000/00 RMK AO2 T01170111
63871K1J0 1J020160108060511101/08/16 06:05:31  5-MIN K1J0 081105Z AUTO 00000KT 10SM OVC004 11/11 A2993 80 100 -300 000/00 RMK AO2 T01110111
63871K1J0 1J020160108061011101/08/16 06:10:31  5-MIN K1J0 081110Z AUTO 35003KT 10SM OVC004 11/11 A2993 80 100 -300 350/03 RMK AO2 T01110111
63871K1J0 1J020160108061510901/08/16 06:15:31  5-MIN K1J0 081115Z AUTO 36003KT 8SM OVC004 12/11 A2993 80 96 -200 360/03 RMK AO2 T01170111
63871K1J0 1J020160108062011201/08/16 06:20:31  5-MIN K1J0 081120Z AUTO 00000KT 4SM BR OVC003 12/11 A2993 80 96 -200 000/00 RMK AO2 T01170111
63871K1J0 1J020160108062511601/08/16 06:25:31  5-MIN K1J0 081125Z AUTO 36003KT 1 3/4SM BR OVC003 12/11 A2993 80 96 -200 360/03 RMK AO2 T01170111
63871K1J0 1J020160108063011201/08/16 06:30:31  5-MIN K1J0 081130Z AUTO 00000KT 1SM BR OVC002 12/11 A2993 80 96 -200 000/00 RMK AO2 T01170111
63871K1J0 1J020160108063511301/08/16 06:35:31  5-MIN K1J0 081135Z AUTO 00000KT 3/4SM BR VV003 12/11 A2993 70 96 -200 000/00 RMK AO2 T01170111
63871K1J0 1J020160108064011401/08/16 06:40:31  5-MIN K1J0 081140Z AUTO 00000KT 3/4SM BR VV003 12/12 A2994 70 100 -200 000/00 RMK AO2 T01170117
63871K1J0 1J020160108064511201/08/16 06:45:31  5-MIN K1J0 081145Z AUTO 02003KT 1SM BR VV003 12/12 A2993 70 100 -200 020/03 RMK AO2 T01170117
63871K1J0 1J020160108065011201/08/16 06:50:31  5-MIN K1J0 081150Z AUTO 04003KT 1SM BR VV003 12/12 A2993 80 100 -200 040/03 RMK AO2 T01170117
63871K1J0 1J020160108065514901/08/16 06:55:31  5-MIN K1J0 081155Z AUTO 04003KT 1SM BR VV003 12/12 A2993 80 100 -200 040/03 RMK AO2 SLP120 60000 70014 T01170117 10122 20100 55005
63871K1J0 1J020160108070011401/08/16 07:00:31  5-MIN K1J0 081200Z AUTO 04005KT 3/4SM BR VV002 12/12 A2993 80 100 -200 040/05 RMK AO2 T01170117
63871K1J0 1J020160108070511401/08/16 07:05:31  5-MIN K1J0 081205Z AUTO 05004KT 3/4SM BR VV002 12/12 A2993 80 100 -200 050/04 RMK AO2 T01170117
63871K1J0 1J020160108071011301/08/16 07:10:31  5-MIN K1J0 081210Z AUTO 05004KT 1/2SM FG VV002 12/11 A2993 70 96 -200 050/04 RMK AO2 T01170111
63871K1J0 1J020160108071511401/08/16 07:15:31  5-MIN K1J0 081215Z AUTO 05003KT 1/2SM FG VV002 12/12 A2993 70 100 -200 050/03 RMK AO2 T01170117
63871K1J0 1J020160108072011401/08/16 07:20:31  5-MIN K1J0 081220Z AUTO 04003KT 1/2SM FG VV002 12/12 A2993 80 100 -200 040/03 RMK AO2 T01170117
63871K1J0 1J020160108072511401/08/16 07:25:31  5-MIN K1J0 081225Z AUTO 03003KT 1/2SM FG VV002 12/12 A2993 70 100 -200 030/03 RMK AO2 T01170117
63871K1J0 1J020160108073011401/08/16 07:30:31  5-MIN K1J0 081230Z AUTO 03003KT 3/4SM BR VV002 12/12 A2993 70 100 -200 030/03 RMK AO2 T01170117
63871K1J0 1J020160108073511401/08/16 07:35:31  5-MIN K1J0 081235Z AUTO 02004KT 3/4SM BR VV002 12/12 A2993 70 100 -200 020/04 RMK AO2 T01170117
63871K1J0 1J020160108074011201/08/16 07:40:31  5-MIN K1J0 081240Z AUTO 00000KT 1SM BR VV002 12/12 A2994 70 100 -200 000/00 RMK AO2 T01170117
63871K1J0 1J020160108074511401/08/16 07:45:31  5-MIN K1J0 081245Z AUTO 01003KT 3/4SM BR VV002 12/12 A2994 70 100 -200 010/03 RMK AO2 T01170117
63871K1J0 1J020160108075011401/08/16 07:50:31  5-MIN K1J0 081250Z AUTO 36003KT 3/4SM BR VV002 12/12 A2994 60 100 -200 360/03 RMK AO2 T01170117
63871K1J0 1J020160108075512101/08/16 07:55:31  5-MIN K1J0 081255Z AUTO 33003KT 1/2SM FG VV003 12/12 A2995 60 100 -200 330/03 RMK AO2 SLP126 T01170117
63871K1J0 1J020160108080011401/08/16 08:00:31  5-MIN K1J0 081300Z AUTO 31003KT 3/4SM BR VV003 12/12 A2995 60 100 -200 310/03 RMK AO2 T01170117
63871K1J0 1J020160108080511201/08/16 08:05:31  5-MIN K1J0 081305Z AUTO 00000KT 1SM BR VV003 12/12 A2996 50 100 -200 000/00 RMK AO2 T01170117
63871K1J0 1J020160108081011701/08/16 08:10:31  5-MIN K1J0 081310Z AUTO 00000KT 1 1/2SM BR OVC003 12/12 A2996 50 100 -200 000/00 RMK AO2 T01170117
63871K1J0 1J020160108081511601/08/16 08:15:31  5-MIN K1J0 081315Z AUTO 31003KT 2 1/2SM BR OVC003 12/12 A2996 50 96 -200 310/03 RMK AO2 T01220117
63871K1J0 1J020160108082011201/08/16 08:20:31  5-MIN K1J0 081320Z AUTO 00000KT 5SM BR OVC003 12/12 A2996 50 96 -200 000/00 RMK AO2 T01220117
63871K1J0 1J020160108082511001/08/16 08:25:31  5-MIN K1J0 081325Z AUTO 00000KT 9SM OVC004 12/12 A2997 40 100 -200 000/00 RMK AO2 T01220122
63871K1J0 1J020160108083011101/08/16 08:30:31  5-MIN K1J0 081330Z AUTO 00000KT 10SM OVC004 12/12 A2997 40 100 -200 000/00 RMK AO2 T01220122
63871K1J0 1J020160108083511101/08/16 08:35:31  5-MIN K1J0 081335Z AUTO 00000KT 10SM OVC004 12/12 A2997 40 100 -200 000/00 RMK AO2 T01220122
63871K1J0 1J020160108084011101/08/16 08:40:31  5-MIN K1J0 081340Z AUTO 00000KT 10SM OVC004 12/12 A2997 40 100 -200 000/00 RMK AO2 T01220122
63871K1J0 1J020160108084511101/08/16 08:45:31  5-MIN K1J0 081345Z AUTO 00000KT 10SM OVC004 12/12 A2997 40 100 -200 000/00 RMK AO2 T01220122
63871K1J0 1J020160108085011001/08/16 08:50:31  5-MIN K1J0 081350Z AUTO 35003KT 10SM OVC004 13/12 A2997 40 96 -100 350/03 RMK AO2 T01280122
63871K1J0 1J020160108085511601/08/16 08:55:31  5-MIN K1J0 081355Z AUTO 35003KT 8SM OVC004 13/12 A2997 40 96 -100 350/03 RMK AO2 SLP135 T01280122
63871K1J0 1J020160108090010901/08/16 09:00:31  5-MIN K1J0 081400Z AUTO 35003KT 7SM OVC004 13/12 A2998 40 96 -100 350/03 RMK AO2 T01280122
63871K1J0 1J020160108090511201/08/16 09:05:31  5-MIN K1J0 081405Z AUTO 35004KT 5SM BR OVC003 13/12 A2998 30 96 -100 350/04 RMK AO2 T01280122
63871K1J0 1J020160108091011201/08/16 09:10:31  5-MIN K1J0 081410Z AUTO 36004KT 5SM BR OVC003 13/12 A2998 30 96 -100 360/04 RMK AO2 T01280122
63871K1J0 1J020160108091511201/08/16 09:15:31  5-MIN K1J0 081415Z AUTO 01003KT 5SM BR OVC003 13/12 A2998 30 96 -100 010/03 RMK AO2 T01280122
63871K1J0 1J020160108092011201/08/16 09:20:31  5-MIN K1J0 081420Z AUTO 01004KT 6SM BR OVC003 13/12 A2998 30 96 -100 010/04 RMK AO2 T01280122
63871K1J0 1J020160108092510901/08/16 09:25:31  5-MIN K1J0 081425Z AUTO 01005KT 7SM OVC003 13/12 A2998 30 96 -100 010/05 RMK AO2 T01280122
63871K1J0 1J020160108093011201/08/16 09:30:31  5-MIN K1J0 081430Z AUTO 36005KT 6SM BR OVC003 13/12 A2999 30 96 -100 360/05 RMK AO2 T01280122
63871K1J0 1J020160108093511201/08/16 09:35:31  5-MIN K1J0 081435Z AUTO 01004KT 6SM BR OVC003 13/12 A2999 20 96 -100 010/04 RMK AO2 T01280122
63871K1J0 1J020160108094011301/08/16 09:40:31  5-MIN K1J0 081440Z AUTO 01004KT 5SM BR OVC003 13/13 A2999 20 100 -100 010/04 RMK AO2 T01280128
63871K1J0 1J020160108094511301/08/16 09:45:31  5-MIN K1J0 081445Z AUTO 36005KT 6SM BR OVC003 13/13 A2999 20 100 -100 360/05 RMK AO2 T01280128
63871K1J0 1J020160108095011001/08/16 09:50:31  5-MIN K1J0 081450Z AUTO 01003KT 7SM OVC003 13/13 A2999 20 100 -200 010/03 RMK AO2 T01280128
63871K1J0 1J020160108095512301/08/16 09:55:31  5-MIN K1J0 081455Z AUTO 01004KT 8SM OVC003 13/13 A3000 20 100 -200 010/04 RMK AO2 SLP142 T01280128 53006
63871K1J0 1J020160108100010901/08/16 10:00:31  5-MIN K1J0 081500Z AUTO 36004KT 9SM OVC003 13/13 A3000 20 96 -100 360/04 RMK AO2 T01330128
63871K1J0 1J020160108100510901/08/16 10:05:31  5-MIN K1J0 081505Z AUTO 01004KT 9SM OVC003 13/13 A3000 10 96 -100 010/04 RMK AO2 T01330128
63871K1J0 1J020160108101011001/08/16 10:10:31  5-MIN K1J0 081510Z AUTO 03004KT 10SM OVC003 13/13 A3000 20 96 -100 030/04 RMK AO2 T01330128
63871K1J0 1J020160108101510901/08/16 10:15:31  5-MIN K1J0 081515Z AUTO 36005KT 9SM OVC003 13/13 A3000 10 96 -100 360/05 RMK AO2 T01330128
63871K1J0 1J020160108102010901/08/16 10:20:31  5-MIN K1J0 081520Z AUTO 01005KT 8SM OVC004 13/13 A3000 10 96 -100 010/05 RMK AO2 T01330128
63871K1J0 1J020160108102510901/08/16 10:25:31  5-MIN K1J0 081525Z AUTO 03005KT 7SM OVC004 13/13 A3000 20 96 -100 030/05 RMK AO2 T01330128
63871K1J0 1J020160108103011201/08/16 10:30:31  5-MIN K1J0 081530Z AUTO 03004KT 6SM BR OVC004 13/13 A3000 20 96 -100 030/04 RMK AO2 T01330128
63871K1J0 1J020160108103511201/08/16 10:35:31  5-MIN K1J0 081535Z AUTO 02004KT 5SM BR OVC004 13/13 A3000 20 96 -100 020/04 RMK AO2 T01330128
63871K1J0 1J020160108104011301/08/16 10:40:31  5-MIN K1J0 081540Z AUTO 03005KT 6SM BR OVC004 13/13 A3000 20 100 -100 030/05 RMK AO2 T01330133
63871K1J0 1J020160108104511301/08/16 10:45:31  5-MIN K1J0 081545Z AUTO 03004KT 5SM BR OVC004 13/13 A3000 20 100 -100 030/04 RMK AO2 T01330133
63871K1J0 1J020160108105011301/08/16 10:50:31  5-MIN K1J0 081550Z AUTO 03003KT 5SM BR OVC004 13/13 A3000 20 100 -100 030/03 RMK AO2 T01330133
63871K1J0 1J020160108105511601/08/16 10:55:31  5-MIN K1J0 081555Z AUTO 06005KT 5SM BR OVC004 14/13 A3000 20 96 0 060/05 RMK AO2 SLP142 T01390133
63871K1J0 1J020160108110010601/08/16 11:00:31  5-MIN K1J0 081600Z AUTO 05005KT 7SM OVC004 14/13 A3000 10 96 0 050/05 RMK AO2 T01390133
63871K1J0 1J020160108110510601/08/16 11:05:31  5-MIN K1J0 081605Z AUTO 04005KT 9SM OVC004 14/13 A3000 20 96 0 040/05 RMK AO2 T01390133
63871K1J0 1J020160108111010601/08/16 11:10:31  5-MIN K1J0 081610Z AUTO 03005KT 9SM OVC004 14/13 A2999 20 96 0 030/05 RMK AO2 T01390133
63871K1J0 1J020160108111510601/08/16 11:15:31  5-MIN K1J0 081615Z AUTO 04004KT 8SM OVC004 14/13 A2999 20 96 0 040/04 RMK AO2 T01390133
63871K1J0 1J020160108112010601/08/16 11:20:31  5-MIN K1J0 081620Z AUTO 04004KT 8SM OVC004 14/13 A3000 20 96 0 040/04 RMK AO2 T01390133
63871K1J0 1J020160108112510601/08/16 11:25:31  5-MIN K1J0 081625Z AUTO 05003KT 9SM OVC004 14/13 A3000 20 96 0 050/03 RMK AO2 T01390133
63871K1J0 1J020160108113010701/08/16 11:30:31  5-MIN K1J0 081630Z AUTO 07004KT 10SM OVC004 14/13 A3000 10 96 0 070/04 RMK AO2 T01390133
63871K1J0 1J020160108113510601/08/16 11:35:31  5-MIN K1J0 081635Z AUTO 04005KT 9SM OVC005 14/13 A3000 10 96 0 040/05 RMK AO2 T01390133
63871K1J0 1J020160108114010601/08/16 11:40:31  5-MIN K1J0 081640Z AUTO 03004KT 9SM OVC005 14/13 A3000 10 96 0 030/04 RMK AO2 T01390133
63871K1J0 1J020160108114510701/08/16 11:45:31  5-MIN K1J0 081645Z AUTO 03003KT 10SM OVC005 14/13 A3000 10 96 0 030/03 RMK AO2 T01390133
63871K1J0 1J020160108115010701/08/16 11:50:31  5-MIN K1J0 081650Z AUTO 02003KT 10SM OVC005 14/13 A3000 20 93 0 020/03 RMK AO2 T01440133
63871K1J0 1J020160108115511401/08/16 11:55:31  5-MIN K1J0 081655Z AUTO 02004KT 10SM OVC005 14/13 A3000 10 96 0 020/04 RMK AO2 SLP143 T01390133
63871K1J0 1J020160108120011901/08/16 12:00:31  5-MIN K1J0 081700Z AUTO 04003KT 10SM OVC005 14/13 A3000 10 96 0 040/03 RMK AO2 CIG 005V009 T01390133
63871K1J0 1J020160108120511901/08/16 12:05:31  5-MIN K1J0 081705Z AUTO 00000KT 10SM OVC007 14/13 A3000 10 93 0 000/00 RMK AO2 CIG 005V009 T01440133
63871K1J0 1J020160108121011901/08/16 12:10:31  5-MIN K1J0 081710Z AUTO 00000KT 10SM OVC007 14/13 A3000 10 93 0 000/00 RMK AO2 CIG 005V009 T01440133
63871K1J0 1J020160108121511901/08/16 12:15:31  5-MIN K1J0 081715Z AUTO 00000KT 10SM OVC007 14/13 A3000 10 93 0 000/00 RMK AO2 CIG 005V009 T01440133
63871K1J0 1J020160108122011901/08/16 12:20:31  5-MIN K1J0 081720Z AUTO 03004KT 10SM OVC007 14/13 A3000 10 93 0 030/04 RMK AO2 CIG 005V009 T01440133
63871K1J0 1J020160108122510901/08/16 12:25:31  5-MIN K1J0 081725Z AUTO 06004KT 10SM OVC007 15/13 A2999 20 90 100 060/04 RMK AO2 T01500133
63871K1J0 1J020160108123010901/08/16 12:30:31  5-MIN K1J0 081730Z AUTO 08003KT 10SM OVC007 15/13 A2999 20 90 100 080/03 RMK AO2 T01500133
63871K1J0 1J020160108123510901/08/16 12:35:31  5-MIN K1J0 081735Z AUTO 07003KT 10SM OVC007 15/13 A2999 20 90 100 070/03 RMK AO2 T01500133
63871K1J0 1J020160108124010901/08/16 12:40:31  5-MIN K1J0 081740Z AUTO 00000KT 10SM OVC007 15/13 A2998 30 90 100 000/00 RMK AO2 T01500133
63871K1J0 1J020160108124510901/08/16 12:45:31  5-MIN K1J0 081745Z AUTO 01005KT 10SM OVC007 15/13 A2998 30 90 100 010/05 RMK AO2 T01500133
63871K1J0 1J020160108125010901/08/16 12:50:31  5-MIN K1J0 081750Z AUTO 02005KT 10SM OVC007 15/13 A2998 30 90 100 020/05 RMK AO2 T01500133
63871K1J0 1J020160108125513401/08/16 12:55:31  5-MIN K1J0 081755Z AUTO 04003KT 10SM OVC007 15/13 A2998 30 90 100 040/03 RMK AO2 SLP136 T01500133 10150 20117 53022
63871K1J0 1J020160108130010901/08/16 13:00:31  5-MIN K1J0 081800Z AUTO 05004KT 10SM OVC007 15/13 A2997 40 90 100 050/04 RMK AO2 T01500133
63871K1J0 1J020160108130510901/08/16 13:05:31  5-MIN K1J0 081805Z AUTO 03003KT 10SM OVC007 15/13 A2997 40 90 100 030/03 RMK AO2 T01500133
63871K1J0 1J020160108131010901/08/16 13:10:31  5-MIN K1J0 081810Z AUTO VRB03KT 10SM OVC007 15/13 A2997 40 90 100 VRB/03 RMK AO2 T01500133
63871K1J0 1J020160108131510901/08/16 13:15:31  5-MIN K1J0 081815Z AUTO 05003KT 10SM OVC007 15/13 A2996 50 90 100 050/03 RMK AO2 T01500133
63871K1J0 1J020160108132010901/08/16 13:20:31  5-MIN K1J0 081820Z AUTO 00000KT 10SM OVC007 16/13 A2996 50 86 200 000/00 RMK AO2 T01560133
63871K1J0 1J020160108132510901/08/16 13:25:31  5-MIN K1J0 081825Z AUTO 06004KT 10SM OVC008 15/13 A2996 50 90 100 060/04 RMK AO2 T01500133
63871K1J0 1J020160108133010901/08/16 13:30:31  5-MIN K1J0 081830Z AUTO 05004KT 10SM OVC008 15/13 A2995 50 90 100 050/04 RMK AO2 T01500133
63871K1J0 1J020160108133510901/08/16 13:35:31  5-MIN K1J0 081835Z AUTO 04005KT 10SM OVC008 15/13 A2995 60 90 100 040/05 RMK AO2 T01500133
63871K1J0 1J020160108134012101/08/16 13:40:31  5-MIN K1J0 081840Z AUTO 06006KT 10SM OVC008 15/13 A2995 60 90 100 060/06 RMK AO2 CIG 006V010 T01500133
63871K1J0 1J020160108134510901/08/16 13:45:31  5-MIN K1J0 081845Z AUTO 04004KT 10SM OVC008 15/13 A2995 60 90 100 040/04 RMK AO2 T01500133
63871K1J0 1J020160108135010901/08/16 13:50:31  5-MIN K1J0 081850Z AUTO 06004KT 10SM OVC007 15/13 A2995 60 90 100 060/04 RMK AO2 T01500133
63871K1J0 1J020160108135512801/08/16 13:55:31  5-MIN K1J0 081855Z AUTO 02004KT 10SM OVC007 15/13 A2995 60 90 100 020/04 RMK AO2 CIG 006V010 SLP125 T01500133
63871K1J0 1J020160108140012101/08/16 14:00:31  5-MIN K1J0 081900Z AUTO 02003KT 10SM OVC007 16/13 A2994 60 86 200 020/03 RMK AO2 CIG 006V010 T01560133
63871K1J0 1J020160108140510901/08/16 14:05:31  5-MIN K1J0 081905Z AUTO 02005KT 10SM OVC007 16/13 A2994 70 86 200 020/05 RMK AO2 T01560133
63871K1J0 1J020160108141010901/08/16 14:10:31  5-MIN K1J0 081910Z AUTO 03006KT 10SM OVC007 15/13 A2995 60 90 100 030/06 RMK AO2 T01500133
63871K1J0 1J020160108141510901/08/16 14:15:31  5-MIN K1J0 081915Z AUTO 03005KT 10SM OVC007 15/13 A2995 60 90 100 030/05 RMK AO2 T01500133
63871K1J0 1J020160108142010901/08/16 14:20:31  5-MIN K1J0 081920Z AUTO 04004KT 10SM OVC007 15/13 A2995 60 90 100 040/04 RMK AO2 T01500133
63871K1J0 1J020160108142510901/08/16 14:25:31  5-MIN K1J0 081925Z AUTO 05004KT 10SM OVC008 15/13 A2994 60 90 100 050/04 RMK AO2 T01500133
63871K1J0 1J020160108143010901/08/16 14:30:31  5-MIN K1J0 081930Z AUTO 00000KT 10SM OVC008 15/13 A2994 70 86 100 000/00 RMK AO2 T01500128
63871K1J0 1J020160108143512101/08/16 14:35:31  5-MIN K1J0 081935Z AUTO 03003KT 10SM OVC008 16/13 A2994 70 86 200 030/03 RMK AO2 CIG 007V010 T01560133
63871K1J0 1J020160108144010901/08/16 14:40:31  5-MIN K1J0 081940Z AUTO 05003KT 10SM OVC008 16/13 A2994 70 86 200 050/03 RMK AO2 T01560133
63871K1J0 1J020160108144510901/08/16 14:45:31  5-MIN K1J0 081945Z AUTO 04004KT 10SM OVC009 15/13 A2994 70 90 100 040/04 RMK AO2 T01500133
63871K1J0 1J020160108145010901/08/16 14:50:31  5-MIN K1J0 081950Z AUTO 05003KT 10SM OVC009 15/13 A2994 70 90 100 050/03 RMK AO2 T01500133
63871K1J0 1J020160108145511601/08/16 14:55:31  5-MIN K1J0 081955Z AUTO 05005KT 10SM OVC009 15/13 A2994 70 90 100 050/05 RMK AO2 SLP122 T01500133
63871K1J0 1J020160108150010901/08/16 15:00:31  5-MIN K1J0 082000Z AUTO 07004KT 10SM OVC009 15/13 A2994 70 90 100 070/04 RMK AO2 T01500133
63871K1J0 1J020160108150510901/08/16 15:05:31  5-MIN K1J0 082005Z AUTO 05005KT 10SM OVC009 15/13 A2994 70 90 100 050/05 RMK AO2 T01500133
63871K1J0 1J020160108151010901/08/16 15:10:31  5-MIN K1J0 082010Z AUTO 02003KT 10SM OVC008 16/13 A2994 70 86 200 020/03 RMK AO2 T01560133
63871K1J0 1J020160108151510901/08/16 15:15:31  5-MIN K1J0 082015Z AUTO 05003KT 10SM OVC008 16/13 A2994 70 86 200 050/03 RMK AO2 T01560133
63871K1J0 1J020160108152010901/08/16 15:20:31  5-MIN K1J0 082020Z AUTO 05003KT 10SM OVC009 16/13 A2994 70 86 200 050/03 RMK AO2 T01560133
63871K1J0 1J020160108152510901/08/16 15:25:31  5-MIN K1J0 082025Z AUTO 00000KT 10SM OVC009 16/13 A2994 70 86 200 000/00 RMK AO2 T01560133
63871K1J0 1J020160108153010901/08/16 15:30:31  5-MIN K1J0 082030Z AUTO 07003KT 10SM OVC009 16/13 A2994 70 86 200 070/03 RMK AO2 T01560133
63871K1J0 1J020160108153510901/08/16 15:35:31  5-MIN K1J0 082035Z AUTO 07004KT 10SM OVC009 16/13 A2994 70 86 200 070/04 RMK AO2 T01560133
63871K1J0 1J020160108154010901/08/16 15:40:31  5-MIN K1J0 082040Z AUTO 03004KT 10SM OVC009 16/13 A2994 70 86 200 030/04 RMK AO2 T01560133
63871K1J0 1J020160108154510901/08/16 15:45:31  5-MIN K1J0 082045Z AUTO 04004KT 10SM OVC009 16/13 A2994 70 86 200 040/04 RMK AO2 T01560133
63871K1J0 1J020160108155010901/08/16 15:50:31  5-MIN K1J0 082050Z AUTO 04004KT 10SM OVC011 16/13 A2994 70 86 200 040/04 RMK AO2 T01560133
63871K1J0 1J020160108155512201/08/16 15:55:31  5-MIN K1J0 082055Z AUTO 04004KT 10SM OVC011 16/13 A2994 60 86 200 040/04 RMK AO2 SLP124 T01560133 58007
63871K1J0 1J020160108160012101/08/16 16:00:31  5-MIN K1J0 082100Z AUTO VRB03KT 10SM OVC010 16/13 A2995 60 86 200 VRB/03 RMK AO2 CIG 009V013 T01560133
63871K1J0 1J020160108160510901/08/16 16:05:31  5-MIN K1J0 082105Z AUTO 05003KT 10SM OVC012 16/13 A2995 60 86 200 050/03 RMK AO2 T01560133
63871K1J0 1J020160108161010901/08/16 16:10:31  5-MIN K1J0 082110Z AUTO 00000KT 10SM OVC012 16/13 A2995 60 86 200 000/00 RMK AO2 T01560133
63871K1J0 1J020160108161510901/08/16 16:15:31  5-MIN K1J0 082115Z AUTO 00000KT 10SM OVC012 16/13 A2995 60 86 200 000/00 RMK AO2 T01560133
63871K1J0 1J020160108162010901/08/16 16:20:31  5-MIN K1J0 082120Z AUTO 05003KT 10SM OVC012 16/13 A2995 60 86 200 050/03 RMK AO2 T01560133
63871K1J0 1J020160108162510901/08/16 16:25:31  5-MIN K1J0 082125Z AUTO 05003KT 10SM OVC011 16/13 A2995 60 86 200 050/03 RMK AO2 T01560133
63871K1J0 1J020160108163010901/08/16 16:30:31  5-MIN K1J0 082130Z AUTO 05004KT 10SM OVC011 16/13 A2995 60 86 200 050/04 RMK AO2 T01560133
63871K1J0 1J020160108163510901/08/16 16:35:31  5-MIN K1J0 082135Z AUTO 06003KT 10SM OVC011 16/13 A2995 60 86 200 060/03 RMK AO2 T01560133
63871K1J0 1J020160108164010901/08/16 16:40:31  5-MIN K1J0 082140Z AUTO 06003KT 10SM OVC012 16/13 A2995 60 86 200 060/03 RMK AO2 T01560133
63871K1J0 1J020160108164510901/08/16 16:45:31  5-MIN K1J0 082145Z AUTO 05003KT 10SM OVC012 16/13 A2994 60 86 200 050/03 RMK AO2 T01560133
63871K1J0 1J020160108165010901/08/16 16:50:31  5-MIN K1J0 082150Z AUTO 04004KT 10SM OVC012 16/13 A2995 60 86 200 040/04 RMK AO2 T01560133
63871K1J0 1J020160108165511601/08/16 16:55:31  5-MIN K1J0 082155Z AUTO 04003KT 10SM OVC012 16/13 A2994 60 86 200 040/03 RMK AO2 SLP125 T01560133
63871K1J0 1J020160108170010901/08/16 17:00:31  5-MIN K1J0 082200Z AUTO 05003KT 10SM OVC012 16/13 A2995 60 86 200 050/03 RMK AO2 T01560133
63871K1J0 1J020160108170510901/08/16 17:05:31  5-MIN K1J0 082205Z AUTO 03004KT 10SM OVC012 16/13 A2995 60 83 200 030/04 RMK AO2 T01560128
63871K1J0 1J020160108171010901/08/16 17:10:31  5-MIN K1J0 082210Z AUTO 06004KT 10SM OVC013 16/13 A2994 60 83 200 060/04 RMK AO2 T01560128
63871K1J0 1J020160108171510901/08/16 17:15:31  5-MIN K1J0 082215Z AUTO 06003KT 10SM OVC013 16/13 A2994 60 86 200 060/03 RMK AO2 T01560133
63871K1J0 1J020160108172010901/08/16 17:20:31  5-MIN K1J0 082220Z AUTO 08005KT 10SM OVC013 16/13 A2995 60 86 200 080/05 RMK AO2 T01560133
63871K1J0 1J020160108172510901/08/16 17:25:31  5-MIN K1J0 082225Z AUTO 05005KT 10SM OVC013 16/13 A2995 60 83 200 050/05 RMK AO2 T01560128
63871K1J0 1J020160108173010901/08/16 17:30:31  5-MIN K1J0 082230Z AUTO 04004KT 10SM OVC012 16/13 A2995 60 86 200 040/04 RMK AO2 T01560133
63871K1J0 1J020160108173512101/08/16 17:35:31  5-MIN K1J0 082235Z AUTO 08005KT 10SM OVC010 15/13 A2995 60 90 100 080/05 RMK AO2 CIG 010V013 T01500133
63871K1J0 1J020160108174010901/08/16 17:40:31  5-MIN K1J0 082240Z AUTO 06004KT 10SM OVC010 15/13 A2995 60 86 100 060/04 RMK AO2 T01500128
63871K1J0 1J020160108174510901/08/16 17:45:31  5-MIN K1J0 082245Z AUTO 07004KT 10SM OVC010 15/13 A2995 50 86 100 070/04 RMK AO2 T01500128
63871K1J0 1J020160108175010901/08/16 17:50:31  5-MIN K1J0 082250Z AUTO 07005KT 10SM OVC011 15/13 A2995 60 86 100 070/05 RMK AO2 T01500128
63871K1J0 1J020160108175511601/08/16 17:55:31  5-MIN K1J0 082255Z AUTO 06004KT 10SM OVC011 15/13 A2995 60 86 100 060/04 RMK AO2 SLP128 T01500128
63871K1J0 1J020160108180010901/08/16 18:00:31  5-MIN K1J0 082300Z AUTO 07004KT 10SM OVC011 15/13 A2995 60 86 100 070/04 RMK AO2 T01500128
63871K1J0 1J020160108180510901/08/16 18:05:31  5-MIN K1J0 082305Z AUTO 07003KT 10SM OVC011 15/13 A2995 60 86 100 070/03 RMK AO2 T01500128
63871K1J0 1J020160108181010901/08/16 18:10:31  5-MIN K1J0 082310Z AUTO 08004KT 10SM OVC011 15/13 A2995 60 86 100 080/04 RMK AO2 T01500128
63871K1J0 1J020160108181510901/08/16 18:15:31  5-MIN K1J0 082315Z AUTO VRB05KT 10SM OVC011 15/13 A2995 60 86 100 VRB/05 RMK AO2 T01500128
63871K1J0 1J020160108182010901/08/16 18:20:31  5-MIN K1J0 082320Z AUTO 06005KT 10SM OVC011 15/13 A2995 60 86 100 060/05 RMK AO2 T01500128
63871K1J0 1J020160108182510901/08/16 18:25:31  5-MIN K1J0 082325Z AUTO 08004KT 10SM OVC011 15/13 A2995 60 86 100 080/04 RMK AO2 T01500128
63871K1J0 1J020160108183010901/08/16 18:30:31  5-MIN K1J0 082330Z AUTO 06006KT 10SM OVC011 15/13 A2995 60 86 100 060/06 RMK AO2 T01500128
63871K1J0 1J020160108183510701/08/16 18:35:31  5-MIN K1J0 082335Z AUTO VRB04KT 10SM OVC010 14/13 A2995 60 90 0 VRB/04 RMK AO2 T01440128
63871K1J0 1J020160108184010701/08/16 18:40:31  5-MIN K1J0 082340Z AUTO 08004KT 10SM OVC010 14/13 A2995 60 90 0 080/04 RMK AO2 T01440128
63871K1J0 1J020160108184510701/08/16 18:45:31  5-MIN K1J0 082345Z AUTO 05003KT 10SM OVC010 14/13 A2995 60 90 0 050/03 RMK AO2 T01440128
63871K1J0 1J020160108185010701/08/16 18:50:31  5-MIN K1J0 082350Z AUTO 04005KT 10SM OVC010 14/13 A2995 60 90 0 040/05 RMK AO2 T01440128
63871K1J0 1J020160108185513201/08/16 18:55:31  5-MIN K1J0 082355Z AUTO 05006KT 10SM OVC010 14/13 A2995 60 90 0 050/06 RMK AO2 SLP127 T01440128 10161 20144 55010
63871K1J0 1J020160108190010701/08/16 19:00:31  5-MIN K1J0 090000Z AUTO 04005KT 10SM OVC010 14/13 A2995 60 90 0 040/05 RMK AO2 T01440128
63871K1J0 1J020160108190510701/08/16 19:05:31  5-MIN K1J0 090005Z AUTO 04007KT 10SM OVC010 14/12 A2995 60 86 0 040/07 RMK AO2 T01440122
63871K1J0 1J020160108191010701/08/16 19:10:31  5-MIN K1J0 090010Z AUTO 05008KT 10SM OVC010 14/12 A2995 60 86 0 050/08 RMK AO2 T01440122
63871K1J0 1J020160108191510701/08/16 19:15:31  5-MIN K1J0 090015Z AUTO 06006KT 10SM OVC010 14/12 A2995 60 86 0 060/06 RMK AO2 T01440122
63871K1J0 1J020160108192010701/08/16 19:20:31  5-MIN K1J0 090020Z AUTO 06006KT 10SM OVC010 14/12 A2995 60 86 0 060/06 RMK AO2 T01440122
63871K1J0 1J020160108192510701/08/16 19:25:31  5-MIN K1J0 090025Z AUTO 04006KT 10SM OVC010 14/12 A2995 60 86 0 040/06 RMK AO2 T01440122
63871K1J0 1J020160108193010701/08/16 19:30:31  5-MIN K1J0 090030Z AUTO 05005KT 10SM OVC010 14/12 A2995 60 86 0 050/05 RMK AO2 T01440122
63871K1J0 1J020160108193510701/08/16 19:35:31  5-MIN K1J0 090035Z AUTO 04005KT 10SM OVC010 14/12 A2995 60 86 0 040/05 RMK AO2 T01440122
63871K1J0 1J020160108194010701/08/16 19:40:31  5-MIN K1J0 090040Z AUTO 06005KT 10SM OVC010 14/12 A2995 60 86 0 060/05 RMK AO2 T01440122
63871K1J0 1J020160108194510701/08/16 19:45:31  5-MIN K1J0 090045Z AUTO 05004KT 10SM OVC010 14/12 A2995 50 86 0 050/04 RMK AO2 T01440122
63871K1J0 1J020160108195010701/08/16 19:50:31  5-MIN K1J0 090050Z AUTO 05005KT 10SM OVC010 14/12 A2996 50 86 0 050/05 RMK AO2 T01440122
63871K1J0 1J020160108195511401/08/16 19:55:31  5-MIN K1J0 090055Z AUTO 05005KT 10SM OVC010 14/12 A2996 50 86 0 050/05 RMK AO2 SLP129 T01440122
63871K1J0 1J020160108200010701/08/16 20:00:31  5-MIN K1J0 090100Z AUTO 06005KT 10SM OVC010 14/12 A2996 50 86 0 060/05 RMK AO2 T01440122
63871K1J0 1J020160108200510701/08/16 20:05:31  5-MIN K1J0 090105Z AUTO 05005KT 10SM OVC010 14/12 A2996 50 86 0 050/05 RMK AO2 T01440122
63871K1J0 1J020160108201010701/08/16 20:10:31  5-MIN K1J0 090110Z AUTO 06004KT 10SM OVC010 14/12 A2996 50 86 0 060/04 RMK AO2 T01440122
63871K1J0 1J020160108201510701/08/16 20:15:31  5-MIN K1J0 090115Z AUTO 07005KT 10SM OVC010 14/12 A2996 50 86 0 070/05 RMK AO2 T01440122
63871K1J0 1J020160108202010701/08/16 20:20:31  5-MIN K1J0 090120Z AUTO 09003KT 10SM OVC010 14/13 A2996 50 90 0 090/03 RMK AO2 T01440128
63871K1J0 1J020160108202510701/08/16 20:25:31  5-MIN K1J0 090125Z AUTO 00000KT 10SM OVC010 14/13 A2996 50 90 0 000/00 RMK AO2 T01440128
63871K1J0 1J020160108203010701/08/16 20:30:31  5-MIN K1J0 090130Z AUTO 09004KT 10SM OVC010 14/12 A2996 50 86 0 090/04 RMK AO2 T01440122
63871K1J0 1J020160108203510701/08/16 20:35:31  5-MIN K1J0 090135Z AUTO 08003KT 10SM OVC010 14/13 A2996 50 90 0 080/03 RMK AO2 T01440128
63871K1J0 1J020160108204010701/08/16 20:40:31  5-MIN K1J0 090140Z AUTO 05005KT 10SM OVC010 14/12 A2996 50 86 0 050/05 RMK AO2 T01440122
63871K1J0 1J020160108204510701/08/16 20:45:31  5-MIN K1J0 090145Z AUTO 05005KT 10SM OVC010 14/12 A2996 50 86 0 050/05 RMK AO2 T01440122
63871K1J0 1J020160108205010701/08/16 20:50:31  5-MIN K1J0 090150Z AUTO 04005KT 10SM OVC010 14/12 A2996 50 86 0 040/05 RMK AO2 T01440122
63871K1J0 1J020160108205511401/08/16 20:55:31  5-MIN K1J0 090155Z AUTO 05005KT 10SM OVC010 14/12 A2996 50 86 0 050/05 RMK AO2 SLP131 T01440122
63871K1J0 1J020160108210010701/08/16 21:00:31  5-MIN K1J0 090200Z AUTO 06005KT 10SM OVC010 14/12 A2996 50 86 0 060/05 RMK AO2 T01440122
63871K1J0 1J020160108210510701/08/16 21:05:31  5-MIN K1J0 090205Z AUTO 07004KT 10SM OVC010 14/12 A2997 40 86 0 070/04 RMK AO2 T01440122
63871K1J0 1J020160108211010701/08/16 21:10:31  5-MIN K1J0 090210Z AUTO 06004KT 10SM OVC010 14/12 A2996 50 86 0 060/04 RMK AO2 T01440122
63871K1J0 1J020160108211510701/08/16 21:15:31  5-MIN K1J0 090215Z AUTO 07003KT 10SM OVC010 14/12 A2997 40 86 0 070/03 RMK AO2 T01440122
63871K1J0 1J020160108212010701/08/16 21:20:31  5-MIN K1J0 090220Z AUTO 09003KT 10SM OVC010 14/13 A2997 40 90 0 090/03 RMK AO2 T01440128
63871K1J0 1J020160108212510701/08/16 21:25:31  5-MIN K1J0 090225Z AUTO 08004KT 10SM OVC010 14/13 A2997 40 90 0 080/04 RMK AO2 T01440128
63871K1J0 1J020160108213010701/08/16 21:30:31  5-MIN K1J0 090230Z AUTO 08003KT 10SM OVC008 14/13 A2997 40 90 0 080/03 RMK AO2 T01440128
63871K1J0 1J020160108213510701/08/16 21:35:31  5-MIN K1J0 090235Z AUTO 09004KT 10SM OVC008 14/13 A2996 40 90 0 090/04 RMK AO2 T01440128
63871K1J0 1J020160108214010701/08/16 21:40:31  5-MIN K1J0 090240Z AUTO 08003KT 10SM OVC008 14/13 A2996 50 90 0 080/03 RMK AO2 T01440128
63871K1J0 1J020160108214510701/08/16 21:45:31  5-MIN K1J0 090245Z AUTO 07006KT 10SM OVC008 14/13 A2997 40 90 0 070/06 RMK AO2 T01440128
63871K1J0 1J020160108215010701/08/16 21:50:31  5-MIN K1J0 090250Z AUTO 09005KT 10SM OVC008 14/13 A2997 40 90 0 090/05 RMK AO2 T01440128
63871K1J0 1J020160108215512001/08/16 21:55:31  5-MIN K1J0 090255Z AUTO 09003KT 10SM OVC008 14/13 A2997 40 90 0 090/03 RMK AO2 SLP133 T01440128 50003
63871K1J0 1J020160108220011901/08/16 22:00:31  5-MIN K1J0 090300Z AUTO 09004KT 10SM OVC008 14/13 A2997 40 93 0 090/04 RMK AO2 CIG 007V011 T01390128
63871K1J0 1J020160108220511901/08/16 22:05:31  5-MIN K1J0 090305Z AUTO 08007KT 10SM OVC008 14/13 A2997 40 93 0 080/07 RMK AO2 CIG 006V011 T01390128
63871K1J0 1J020160108221011901/08/16 22:10:31  5-MIN K1J0 090310Z AUTO 09005KT 10SM OVC008 14/13 A2997 40 93 0 090/05 RMK AO2 CIG 006V010 T01390128
63871K1J0 1J020160108221511901/08/16 22:15:31  5-MIN K1J0 090315Z AUTO 09006KT 10SM OVC006 14/13 A2996 50 93 0 090/06 RMK AO2 CIG 005V010 T01390128
63871K1J0 1J020160108222011901/08/16 22:20:31  5-MIN K1J0 090320Z AUTO 09005KT 10SM OVC006 14/13 A2996 50 93 0 090/05 RMK AO2 CIG 005V010 T01390128
63871K1J0 1J020160108222510701/08/16 22:25:31  5-MIN K1J0 090325Z AUTO 08005KT 10SM OVC006 14/13 A2996 50 93 0 080/05 RMK AO2 T01390128
63871K1J0 1J020160108223010701/08/16 22:30:31  5-MIN K1J0 090330Z AUTO 09005KT 10SM OVC006 14/13 A2996 50 93 0 090/05 RMK AO2 T01390128
63871K1J0 1J020160108223510701/08/16 22:35:31  5-MIN K1J0 090335Z AUTO 08006KT 10SM OVC006 14/13 A2996 50 93 0 080/06 RMK AO2 T01390128
63871K1J0 1J020160108224010701/08/16 22:40:31  5-MIN K1J0 090340Z AUTO 09008KT 10SM OVC006 14/13 A2996 50 93 0 090/08 RMK AO2 T01390128
63871K1J0 1J020160108224510701/08/16 22:45:31  5-MIN K1J0 090345Z AUTO 09006KT 10SM OVC005 14/13 A2996 50 93 0 090/06 RMK AO2 T01390128
63871K1J0 1J020160108225010701/08/16 22:50:31  5-MIN K1J0 090350Z AUTO 09007KT 10SM OVC005 14/13 A2995 60 93 0 090/07 RMK AO2 T01390128
63871K1J0 1J020160108225511401/08/16 22:55:31  5-MIN K1J0 090355Z AUTO 10005KT 10SM OVC005 14/13 A2996 50 93 0 100/05 RMK AO2 SLP128 T01390128
63871K1J0 1J020160108230010701/08/16 23:00:31  5-MIN K1J0 090400Z AUTO 10004KT 10SM OVC005 14/13 A2995 60 93 0 100/04 RMK AO2 T01390128
63871K1J0 1J020160108230510701/08/16 23:05:31  5-MIN K1J0 090405Z AUTO 08004KT 10SM OVC005 14/13 A2995 60 93 0 080/04 RMK AO2 T01390128
63871K1J0 1J020160108231010701/08/16 23:10:31  5-MIN K1J0 090410Z AUTO 07005KT 10SM OVC005 14/13 A2996 50 93 0 070/05 RMK AO2 T01390128
63871K1J0 1J020160108231510701/08/16 23:15:31  5-MIN K1J0 090415Z AUTO 07005KT 10SM OVC005 14/13 A2995 60 93 0 070/05 RMK AO2 T01390128
63871K1J0 1J020160108232010701/08/16 23:20:31  5-MIN K1J0 090420Z AUTO VRB05KT 10SM OVC005 14/13 A2996 50 93 0 VRB/05 RMK AO2 T01390128
63871K1J0 1J020160108232510701/08/16 23:25:31  5-MIN K1J0 090425Z AUTO 09006KT 10SM OVC005 14/13 A2995 60 93 0 090/06 RMK AO2 T01390128
63871K1J0 1J020160108233010701/08/16 23:30:31  5-MIN K1J0 090430Z AUTO 09006KT 10SM OVC005 13/13 A2995 60 96 0 090/06 RMK AO2 T01330128
63871K1J0 1J020160108233510701/08/16 23:35:31  5-MIN K1J0 090435Z AUTO 07005KT 10SM OVC005 13/13 A2995 60 96 0 070/05 RMK AO2 T01330128
63871K1J0 1J020160108234010701/08/16 23:40:31  5-MIN K1J0 090440Z AUTO 09005KT 10SM OVC005 13/12 A2995 60 93 0 090/05 RMK AO2 T01330122
63871K1J0 1J020160108234510701/08/16 23:45:31  5-MIN K1J0 090445Z AUTO 08004KT 10SM OVC006 13/13 A2994 70 96 0 080/04 RMK AO2 T01330128
63871K1J0 1J020160108235010701/08/16 23:50:31  5-MIN K1J0 090450Z AUTO 07004KT 10SM OVC006 13/13 A2994 70 96 0 070/04 RMK AO2 T01330128
63871K1J0 1J020160108235512401/08/16 23:55:31  5-MIN K1J0 090455Z AUTO 09004KT 10SM OVC005 13/13 A2994 70 96 0 090/04 RMK AO2 SLP122 T01330128 401610100
63871K1J0 1J020160109000010701/09/16 00:00:31  5-MIN K1J0 090500Z AUTO VRB05KT 10SM OVC005 13/13 A2993 70 96 0 VRB/05 RMK AO2 T01330128
63871K1J0 1J020160109000510701/09/16 00:05:31  5-MIN K1J0 090505Z AUTO 08006KT 10SM OVC005 13/13 A2994 70 96 0 080/06 RMK AO2 T01330128
63871K1J0 1J020160109001010701/09/16 00:10:31  5-MIN K1J0 090510Z AUTO 08005KT 10SM OVC004 13/13 A2994 60 96 0 080/05 RMK AO2 T01330128
63871K1J0 1J020160109001510701/09/16 00:15:31  5-MIN K1J0 090515Z AUTO 09003KT 10SM OVC004 13/13 A2995 60 96 0 090/03 RMK AO2 T01330128
63871K1J0 1J020160109002010701/09/16 00:20:31  5-MIN K1J0 090520Z AUTO 09004KT 10SM OVC004 13/13 A2994 70 96 0 090/04 RMK AO2 T01330128
63871K1J0 1J020160109002510701/09/16 00:25:31  5-MIN K1J0 090525Z AUTO 08005KT 10SM OVC005 13/12 A2994 70 93 0 080/05 RMK AO2 T01330122
63871K1J0 1J020160109003010701/09/16 00:30:31  5-MIN K1J0 090530Z AUTO 07005KT 10SM OVC005 13/12 A2994 70 93 0 070/05 RMK AO2 T01330122
63871K1J0 1J020160109003510701/09/16 00:35:31  5-MIN K1J0 090535Z AUTO 08004KT 10SM OVC005 13/12 A2993 70 93 0 080/04 RMK AO2 T01330122
63871K1J0 1J020160109004010701/09/16 00:40:31  5-MIN K1J0 090540Z AUTO 07004KT 10SM OVC005 13/12 A2993 80 93 0 070/04 RMK AO2 T01330122
63871K1J0 1J020160109004510701/09/16 00:45:31  5-MIN K1J0 090545Z AUTO 06004KT 10SM OVC005 13/12 A2993 70 93 0 060/04 RMK AO2 T01330122
63871K1J0 1J020160109005011901/09/16 00:50:31  5-MIN K1J0 090550Z AUTO 06005KT 10SM OVC005 13/12 A2993 70 93 0 060/05 RMK AO2 CIG 004V008 T01330122
63871K1J0 1J020160109005513201/09/16 00:55:31  5-MIN K1J0 090555Z AUTO 06007KT 10SM OVC005 13/12 A2993 80 93 0 060/07 RMK AO2 SLP118 T01330122 10144 20133 53006
63871K1J0 1J020160109010010701/09/16 01:00:31  5-MIN K1J0 090600Z AUTO 05007KT 10SM OVC004 13/12 A2992 90 93 0 050/07 RMK AO2 T01330122
63871K1J0 1J020160109010510701/09/16 01:05:31  5-MIN K1J0 090605Z AUTO 06006KT 10SM OVC004 13/12 A2992 90 93 0 060/06 RMK AO2 T01330122
63871K1J0 1J020160109011010701/09/16 01:10:31  5-MIN K1J0 090610Z AUTO 08006KT 10SM OVC004 13/12 A2992 90 93 0 080/06 RMK AO2 T01330122
63871K1J0 1J020160109011510701/09/16 01:15:31  5-MIN K1J0 090615Z AUTO 07004KT 10SM OVC004 13/12 A2991 90 93 0 070/04 RMK AO2 T01330122
63871K1J0 1J020160109012010701/09/16 01:20:31  5-MIN K1J0 090620Z AUTO 08005KT 10SM OVC004 13/12 A2991 90 93 0 080/05 RMK AO2 T01330122
63871K1J0 1J020160109012510701/09/16 01:25:31  5-MIN K1J0 090625Z AUTO 07004KT 9SM OVC004 13/13 A2991 100 96 0 070/04 RMK AO2 T01330128
63871K1J0 1J020160109013010701/09/16 01:30:31  5-MIN K1J0 090630Z AUTO 06004KT 8SM OVC004 13/13 A2991 100 96 0 060/04 RMK AO2 T01330128
63871K1J0 1J020160109013510701/09/16 01:35:31  5-MIN K1J0 090635Z AUTO 06005KT 7SM OVC004 13/13 A2991 100 96 0 060/05 RMK AO2 T01330128
63871K1J0 1J020160109014011001/09/16 01:40:31  5-MIN K1J0 090640Z AUTO 06005KT 6SM BR OVC004 13/13 A2991 100 96 0 060/05 RMK AO2 T01330128
63871K1J0 1J020160109014511001/09/16 01:45:31  5-MIN K1J0 090645Z AUTO 05005KT 5SM BR OVC004 13/13 A2991 100 96 0 050/05 RMK AO2 T01330128
63871K1J0 1J020160109015011001/09/16 01:50:31  5-MIN K1J0 090650Z AUTO 07006KT 4SM BR OVC003 13/13 A2990 100 96 0 070/06 RMK AO2 T01330128
63871K1J0 1J020160109015511701/09/16 01:55:31  5-MIN K1J0 090655Z AUTO 04005KT 4SM BR OVC003 13/13 A2990 100 96 0 040/05 RMK AO2 SLP111 T01330128
63871K1J0 1J020160109020011001/09/16 02:00:31  5-MIN K1J0 090700Z AUTO 05005KT 4SM BR OVC003 13/13 A2990 110 96 0 050/05 RMK AO2 T01330128
63871K1J0 1J020160109020511001/09/16 02:05:31  5-MIN K1J0 090705Z AUTO 05006KT 4SM BR OVC003 13/13 A2990 110 96 0 050/06 RMK AO2 T01330128
63871K1J0 1J020160109021011001/09/16 02:10:31  5-MIN K1J0 090710Z AUTO 05005KT 4SM BR OVC003 13/13 A2991 100 96 0 050/05 RMK AO2 T01330128
63871K1J0 1J020160109021511001/09/16 02:15:31  5-MIN K1J0 090715Z AUTO 05006KT 3SM BR OVC003 13/13 A2991 100 96 0 050/06 RMK AO2 T01330128
63871K1J0 1J020160109022011001/09/16 02:20:31  5-MIN K1J0 090720Z AUTO 05003KT 3SM BR OVC003 13/13 A2991 100 96 0 050/03 RMK AO2 T01330128
63871K1J0 1J020160109022511001/09/16 02:25:31  5-MIN K1J0 090725Z AUTO 05004KT 3SM BR OVC003 13/13 A2991 100 96 0 050/04 RMK AO2 T01330128
63871K1J0 1J020160109023011301/09/16 02:30:31  5-MIN K1J0 090730Z AUTO 04004KT 2 1/2SM BR OVC003 13/13 A2991 90 96 0 040/04 RMK AO2 T01330128
63871K1J0 1J020160109023511301/09/16 02:35:31  5-MIN K1J0 090735Z AUTO 03004KT 2 1/2SM BR OVC003 13/13 A2991 90 96 0 030/04 RMK AO2 T01330128
63871K1J0 1J020160109024011301/09/16 02:40:31  5-MIN K1J0 090740Z AUTO 04005KT 2 1/2SM BR OVC003 13/13 A2992 90 96 0 040/05 RMK AO2 T01330128
63871K1J0 1J020160109024511401/09/16 02:45:31  5-MIN K1J0 090745Z AUTO 06004KT 2 1/2SM BR OVC003 13/13 A2991 100 96 0 060/04 RMK AO2 T01330128
63871K1J0 1J020160109025011301/09/16 02:50:31  5-MIN K1J0 090750Z AUTO 04004KT 2 1/2SM BR OVC003 13/13 A2991 90 96 0 040/04 RMK AO2 T01330128
63871K1J0 1J020160109025512101/09/16 02:55:31  5-MIN K1J0 090755Z AUTO 05004KT 2 1/2SM BR OVC003 13/13 A2991 100 96 0 050/04 RMK AO2 SLP113 T01330128
63871K1J0 1J020160109030011001/09/16 03:00:31  5-MIN K1J0 090800Z AUTO 06004KT 3SM BR OVC003 13/13 A2991 100 96 0 060/04 RMK AO2 T01330128
63871K1J0 1J020160109030510901/09/16 03:05:31  5-MIN K1J0 090805Z AUTO 05004KT 3SM BR OVC003 13/13 A2991 90 96 0 050/04 RMK AO2 T01330128
63871K1J0 1J020160109031011001/09/16 03:10:31  5-MIN K1J0 090810Z AUTO 04004KT 3SM BR OVC003 13/13 A2991 100 96 0 040/04 RMK AO2 T01330128
63871K1J0 1J020160109031511001/09/16 03:15:31  5-MIN K1J0 090815Z AUTO 04005KT 3SM BR OVC003 13/13 A2991 100 96 0 040/05 RMK AO2 T01330128
63871K1J0 1J020160109032011001/09/16 03:20:31  5-MIN K1J0 090820Z AUTO 06003KT 3SM BR OVC003 13/13 A2991 100 96 0 060/03 RMK AO2 T01330128
63871K1J0 1J020160109032511001/09/16 03:25:31  5-MIN K1J0 090825Z AUTO 07003KT 3SM BR OVC003 13/13 A2991 100 96 0 070/03 RMK AO2 T01330128
63871K1J0 1J020160109033011001/09/16 03:30:31  5-MIN K1J0 090830Z AUTO 06004KT 3SM BR OVC003 13/13 A2991 100 96 0 060/04 RMK AO2 T01330128
63871K1J0 1J020160109033511001/09/16 03:35:31  5-MIN K1J0 090835Z AUTO 07003KT 3SM BR OVC003 13/13 A2991 100 96 0 070/03 RMK AO2 T01330128
63871K1J0 1J020160109034011001/09/16 03:40:31  5-MIN K1J0 090840Z AUTO 07004KT 3SM BR OVC003 13/13 A2991 100 96 0 070/04 RMK AO2 T01330128
63871K1J0 1J020160109034510901/09/16 03:45:31  5-MIN K1J0 090845Z AUTO 07003KT 3SM BR OVC003 13/13 A2991 90 96 0 070/03 RMK AO2 T01330128
63871K1J0 1J020160109035011001/09/16 03:50:31  5-MIN K1J0 090850Z AUTO 07003KT 3SM BR OVC003 13/13 A2991 100 96 0 070/03 RMK AO2 T01330128
63871K1J0 1J020160109035512301/09/16 03:55:31  5-MIN K1J0 090855Z AUTO 06003KT 3SM BR OVC003 13/13 A2991 100 96 0 060/03 RMK AO2 SLP112 T01330128 57016
63871K1J0 1J020160109040011401/09/16 04:00:31  5-MIN K1J0 090900Z AUTO 06005KT 2 1/2SM BR OVC003 13/13 A2991 100 96 0 060/05 RMK AO2 T01330128
63871K1J0 1J020160109040511001/09/16 04:05:31  5-MIN K1J0 090905Z AUTO 06005KT 3SM BR OVC003 13/13 A2991 100 96 0 060/05 RMK AO2 T01330128
63871K1J0 1J020160109041011001/09/16 04:10:31  5-MIN K1J0 090910Z AUTO 07003KT 3SM BR OVC003 13/13 A2991 100 96 0 070/03 RMK AO2 T01330128
63871K1J0 1J020160109041511001/09/16 04:15:31  5-MIN K1J0 090915Z AUTO 08004KT 3SM BR OVC003 13/13 A2991 100 96 0 080/04 RMK AO2 T01330128
63871K1J0 1J020160109042011401/09/16 04:20:31  5-MIN K1J0 090920Z AUTO 05005KT 2 1/2SM BR OVC003 13/13 A2991 100 96 0 050/05 RMK AO2 T01330128
63871K1J0 1J020160109042511001/09/16 04:25:31  5-MIN K1J0 090925Z AUTO 06005KT 3SM BR OVC003 13/13 A2991 100 96 0 060/05 RMK AO2 T01330128
63871K1J0 1J020160109043011001/09/16 04:30:31  5-MIN K1J0 090930Z AUTO 06005KT 3SM BR OVC003 13/13 A2991 100 96 0 060/05 RMK AO2 T01330128
63871K1J0 1J020160109043511001/09/16 04:35:31  5-MIN K1J0 090935Z AUTO 07003KT 3SM BR OVC003 13/13 A2991 100 96 0 070/03 RMK AO2 T01330128
63871K1J0 1J020160109044010901/09/16 04:40:31  5-MIN K1J0 090940Z AUTO 06003KT 3SM BR OVC003 13/13 A2991 90 96 0 060/03 RMK AO2 T01330128
63871K1J0 1J020160109044510901/09/16 04:45:31  5-MIN K1J0 090945Z AUTO 05003KT 3SM BR OVC003 13/13 A2991 90 96 0 050/03 RMK AO2 T01330128
63871K1J0 1J020160109045010901/09/16 04:50:31  5-MIN K1J0 090950Z AUTO 05004KT 3SM BR OVC003 13/13 A2991 90 96 0 050/04 RMK AO2 T01330128
63871K1J0 1J020160109045511701/09/16 04:55:31  5-MIN K1J0 090955Z AUTO 07004KT 4SM BR OVC003 13/13 A2991 100 96 0 070/04 RMK AO2 SLP112 T01330128
63871K1J0 1J020160109050011001/09/16 05:00:31  5-MIN K1J0 091000Z AUTO 08004KT 4SM BR OVC003 13/13 A2991 100 96 0 080/04 RMK AO2 T01330128
63871K1J0 1J020160109050511001/09/16 05:05:31  5-MIN K1J0 091005Z AUTO 06003KT 4SM BR OVC003 13/13 A2990 100 96 0 060/03 RMK AO2 T01330128
63871K1J0 1J020160109051011001/09/16 05:10:31  5-MIN K1J0 091010Z AUTO 06003KT 4SM BR OVC003 13/13 A2991 100 96 0 060/03 RMK AO2 T01330128
63871K1J0 1J020160109051511001/09/16 05:15:31  5-MIN K1J0 091015Z AUTO 04004KT 4SM BR OVC003 13/13 A2990 100 96 0 040/04 RMK AO2 T01330128
63871K1J0 1J020160109052011001/09/16 05:20:31  5-MIN K1J0 091020Z AUTO 07004KT 4SM BR OVC004 13/13 A2990 100 96 0 070/04 RMK AO2 T01330128
63871K1J0 1J020160109052511001/09/16 05:25:31  5-MIN K1J0 091025Z AUTO 06005KT 4SM BR OVC004 13/13 A2990 100 96 0 060/05 RMK AO2 T01330128
63871K1J0 1J020160109053011001/09/16 05:30:31  5-MIN K1J0 091030Z AUTO 05005KT 4SM BR OVC004 13/13 A2990 100 96 0 050/05 RMK AO2 T01330128
63871K1J0 1J020160109053511001/09/16 05:35:31  5-MIN K1J0 091035Z AUTO 07004KT 4SM BR OVC004 13/13 A2990 110 96 0 070/04 RMK AO2 T01330128
63871K1J0 1J020160109054011001/09/16 05:40:31  5-MIN K1J0 091040Z AUTO 08004KT 4SM BR OVC003 13/13 A2989 110 96 0 080/04 RMK AO2 T01330128
63871K1J0 1J020160109054511001/09/16 05:45:31  5-MIN K1J0 091045Z AUTO 07004KT 4SM BR OVC003 13/13 A2989 110 96 0 070/04 RMK AO2 T01330128
63871K1J0 1J020160109055011001/09/16 05:50:31  5-MIN K1J0 091050Z AUTO 06005KT 4SM BR OVC003 13/13 A2989 110 96 0 060/05 RMK AO2 T01330128
63871K1J0 1J020160109055511701/09/16 05:55:31  5-MIN K1J0 091055Z AUTO 06005KT 3SM BR OVC003 13/13 A2989 110 96 0 060/05 RMK AO2 SLP107 T01330128
63871K1J0 1J020160109060011001/09/16 06:00:31  5-MIN K1J0 091100Z AUTO 08005KT 3SM BR OVC003 13/13 A2989 110 96 0 080/05 RMK AO2 T01330128
63871K1J0 1J020160109060511001/09/16 06:05:31  5-MIN K1J0 091105Z AUTO 09004KT 3SM BR OVC003 13/13 A2989 110 96 0 090/04 RMK AO2 T01330128
63871K1J0 1J020160109061011001/09/16 06:10:31  5-MIN K1J0 091110Z AUTO 07005KT 3SM BR OVC003 13/13 A2989 110 96 0 070/05 RMK AO2 T01330128
63871K1J0 1J020160109061511001/09/16 06:15:31  5-MIN K1J0 091115Z AUTO 07006KT 3SM BR OVC003 13/13 A2990 110 96 0 070/06 RMK AO2 T01330128
63871K1J0 1J020160109062011001/09/16 06:20:31  5-MIN K1J0 091120Z AUTO 09004KT 3SM BR OVC003 13/13 A2990 110 96 0 090/04 RMK AO2 T01330128
63871K1J0 1J020160109062511001/09/16 06:25:31  5-MIN K1J0 091125Z AUTO 08003KT 3SM BR OVC003 13/13 A2990 110 96 0 080/03 RMK AO2 T01330128
63871K1J0 1J020160109063011001/09/16 06:30:31  5-MIN K1J0 091130Z AUTO 12004KT 3SM BR OVC003 13/13 A2990 100 96 0 120/04 RMK AO2 T01330128
63871K1J0 1J020160109063511001/09/16 06:35:31  5-MIN K1J0 091135Z AUTO 09003KT 3SM BR OVC002 13/13 A2990 100 96 0 090/03 RMK AO2 T01330128
63871K1J0 1J020160109064011001/09/16 06:40:31  5-MIN K1J0 091140Z AUTO 08003KT 3SM BR OVC002 13/13 A2990 110 96 0 080/03 RMK AO2 T01330128
63871K1J0 1J020160109064511401/09/16 06:45:31  5-MIN K1J0 091145Z AUTO VRB04KT 2 1/2SM BR OVC002 13/13 A2990 110 96 0 VRB/04 RMK AO2 T01330128
63871K1J0 1J020160109065011401/09/16 06:50:31  5-MIN K1J0 091150Z AUTO 09006KT 2 1/2SM BR OVC002 13/13 A2990 110 96 0 090/06 RMK AO2 T01330128
63871K1J0 1J020160109065510001/09/16 06:55:31  5-MIN K1J0 091155Z AUTO 09005KT 3SM BR OVC002 13/13 A2989 110 96 0 090/05 RMK AO2
63871K1J0 1J020160109070011001/09/16 07:00:31  5-MIN K1J0 091200Z AUTO 10004KT 3SM BR OVC002 13/13 A2989 110 96 0 100/04 RMK AO2 T01330128
63871K1J0 1J020160109070511001/09/16 07:05:31  5-MIN K1J0 091205Z AUTO 09005KT 4SM BR OVC002 13/13 A2990 110 96 0 090/05 RMK AO2 T01330128
63871K1J0 1J020160109071011001/09/16 07:10:31  5-MIN K1J0 091210Z AUTO 11005KT 4SM BR OVC002 13/13 A2990 100 96 0 110/05 RMK AO2 T01330128
63871K1J0 1J020160109071511001/09/16 07:15:31  5-MIN K1J0 091215Z AUTO 10005KT 5SM BR OVC002 13/13 A2990 110 96 0 100/05 RMK AO2 T01330128
63871K1J0 1J020160109072011101/09/16 07:20:31  5-MIN K1J0 091220Z AUTO 09003KT 5SM BR OVC003 13/13 A2990 110 100 0 090/03 RMK AO2 T01330133
63871K1J0 1J020160109072511101/09/16 07:25:31  5-MIN K1J0 091225Z AUTO 11005KT 5SM BR OVC003 13/13 A2990 110 100 0 110/05 RMK AO2 T01330133
63871K1J0 1J020160109073011101/09/16 07:30:31  5-MIN K1J0 091230Z AUTO 11005KT 5SM BR OVC003 13/13 A2990 110 100 0 110/05 RMK AO2 T01330133
63871K1J0 1J020160109073511101/09/16 07:35:31  5-MIN K1J0 091235Z AUTO 11004KT 6SM BR OVC003 13/13 A2990 110 100 0 110/04 RMK AO2 T01330133
63871K1J0 1J020160109074011101/09/16 07:40:31  5-MIN K1J0 091240Z AUTO 10004KT 6SM BR OVC003 13/13 A2990 110 100 0 100/04 RMK AO2 T01330133
63871K1J0 1J020160109074511101/09/16 07:45:31  5-MIN K1J0 091245Z AUTO 10005KT 5SM BR OVC003 13/13 A2990 110 100 0 100/05 RMK AO2 T01330133
63871K1J0 1J020160109075011101/09/16 07:50:31  5-MIN K1J0 091250Z AUTO 10004KT 5SM BR OVC003 13/13 A2990 110 100 0 100/04 RMK AO2 T01330133
63871K1J0 1J020160109075511801/09/16 07:55:31  5-MIN K1J0 091255Z AUTO 10006KT 4SM BR OVC003 13/13 A2989 110 100 0 100/06 RMK AO2 SLP106 T01330133
63871K1J0 1J020160109080011101/09/16 08:00:31  5-MIN K1J0 091300Z AUTO 09005KT 3SM BR OVC003 13/13 A2989 110 100 0 090/05 RMK AO2 T01330133
63871K1J0 1J020160109080511101/09/16 08:05:31  5-MIN K1J0 091305Z AUTO 09005KT 3SM BR OVC003 13/13 A2989 110 100 0 090/05 RMK AO2 T01330133
63871K1J0 1J020160109081011101/09/16 08:10:31  5-MIN K1J0 091310Z AUTO 09005KT 4SM BR OVC003 13/13 A2989 110 100 0 090/05 RMK AO2 T01330133
63871K1J0 1J020160109081511201/09/16 08:15:31  5-MIN K1J0 091315Z AUTO VRB06KT 4SM BR OVC003 14/13 A2989 120 96 100 VRB/06 RMK AO2 T01390133
63871K1J0 1J020160109082011201/09/16 08:20:31  5-MIN K1J0 091320Z AUTO 10004KT 5SM BR OVC003 14/13 A2989 120 96 100 100/04 RMK AO2 T01390133
63871K1J0 1J020160109082511201/09/16 08:25:31  5-MIN K1J0 091325Z AUTO 09007KT 5SM BR OVC003 14/13 A2988 120 96 100 090/07 RMK AO2 T01390133
63871K1J0 1J020160109083011201/09/16 08:30:31  5-MIN K1J0 091330Z AUTO 08008KT 6SM BR OVC003 14/13 A2988 120 96 100 080/08 RMK AO2 T01390133
63871K1J0 1J020160109083511201/09/16 08:35:31  5-MIN K1J0 091335Z AUTO 10005KT 6SM BR OVC003 14/13 A2988 120 96 100 100/05 RMK AO2 T01390133
63871K1J0 1J020160109084011201/09/16 08:40:31  5-MIN K1J0 091340Z AUTO 10006KT 6SM BR OVC004 14/13 A2988 120 96 100 100/06 RMK AO2 T01390133
63871K1J0 1J020160109084510901/09/16 08:45:31  5-MIN K1J0 091345Z AUTO 11007KT 7SM OVC004 14/13 A2989 120 96 100 110/07 RMK AO2 T01390133
63871K1J0 1J020160109085010901/09/16 08:50:31  5-MIN K1J0 091350Z AUTO 11008KT 7SM OVC004 14/13 A2988 120 96 100 110/08 RMK AO2 T01390133
63871K1J0 1J020160109085511601/09/16 08:55:31  5-MIN K1J0 091355Z AUTO 10006KT 8SM OVC004 14/13 A2988 130 96 100 100/06 RMK AO2 SLP102 T01390133
63871K1J0 1J020160109090010901/09/16 09:00:31  5-MIN K1J0 091400Z AUTO VRB06KT 8SM OVC004 14/13 A2988 130 96 100 VRB/06 RMK AO2 T01390133
63871K1J0 1J020160109090510901/09/16 09:05:31  5-MIN K1J0 091405Z AUTO 11008KT 9SM OVC004 14/13 A2988 130 96 100 110/08 RMK AO2 T01390133
63871K1J0 1J020160109091011001/09/16 09:10:31  5-MIN K1J0 091410Z AUTO 12008KT 10SM OVC004 14/13 A2988 130 96 100 120/08 RMK AO2 T01390133
63871K1J0 1J020160109091511001/09/16 09:15:31  5-MIN K1J0 091415Z AUTO 11008KT 10SM OVC004 14/13 A2988 130 96 100 110/08 RMK AO2 T01390133
63871K1J0 1J020160109092012601/09/16 09:20:31  5-MIN K1J0 091420Z AUTO 11007KT 070V150 10SM OVC004 14/13 A2988 120 96 100 110/07 070V150 RMK AO2 T01390133
63871K1J0 1J020160109092511001/09/16 09:25:31  5-MIN K1J0 091425Z AUTO 10007KT 10SM OVC004 14/13 A2988 120 96 100 100/07 RMK AO2 T01390133
63871K1J0 1J020160109093011001/09/16 09:30:31  5-MIN K1J0 091430Z AUTO 13006KT 10SM OVC005 14/13 A2988 120 96 100 130/06 RMK AO2 T01390133
63871K1J0 1J020160109093511001/09/16 09:35:31  5-MIN K1J0 091435Z AUTO 11006KT 10SM OVC005 14/13 A2987 130 96 100 110/06 RMK AO2 T01390133
63871K1J0 1J020160109094011101/09/16 09:40:31  5-MIN K1J0 091440Z AUTO 10005KT 10SM OVC005 14/14 A2988 130 100 100 100/05 RMK AO2 T01390139
63871K1J0 1J020160109094512201/09/16 09:45:31  5-MIN K1J0 091445Z AUTO 09008KT 10SM OVC006 14/14 A2987 130 96 100 090/08 RMK AO2 CIG 005V009 T01440139
63871K1J0 1J020160109095012201/09/16 09:50:31  5-MIN K1J0 091450Z AUTO 11006KT 10SM OVC006 14/14 A2987 130 96 100 110/06 RMK AO2 CIG 005V009 T01440139
63871K1J0 1J020160109095512301/09/16 09:55:31  5-MIN K1J0 091455Z AUTO 13005KT 10SM OVC006 14/14 A2988 120 96 100 130/05 RMK AO2 SLP103 T01440139 55006
63871K1J0 1J020160109100012201/09/16 10:00:31  5-MIN K1J0 091500Z AUTO 13008KT 10SM OVC006 14/13 A2988 130 93 100 130/08 RMK AO2 CIG 005V010 T01440133
63871K1J0 1J020160109100512201/09/16 10:05:31  5-MIN K1J0 091505Z AUTO 11005KT 10SM OVC006 14/13 A2987 130 93 100 110/05 RMK AO2 CIG 005V010 T01440133
63871K1J0 1J020160109101012201/09/16 10:10:31  5-MIN K1J0 091510Z AUTO 13006KT 10SM OVC007 14/13 A2988 130 93 100 130/06 RMK AO2 CIG 006V009 T01440133
63871K1J0 1J020160109101512201/09/16 10:15:31  5-MIN K1J0 091515Z AUTO 11004KT 10SM OVC007 14/14 A2988 120 96 100 110/04 RMK AO2 CIG 006V011 T01440139
63871K1J0 1J020160109102012201/09/16 10:20:31  5-MIN K1J0 091520Z AUTO 11007KT 10SM OVC007 14/14 A2988 120 96 100 110/07 RMK AO2 CIG 006V010 T01440139
63871K1J0 1J020160109102511701/09/16 10:25:31  5-MIN K1J0 091525Z AUTO 13008KT 10SM BKN008 OVC012 15/13 A2988 120 90 200 130/08 RMK AO2 T01500133
63871K1J0 1J020160109103011701/09/16 10:30:31  5-MIN K1J0 091530Z AUTO 13004KT 10SM BKN008 OVC013 15/13 A2989 110 90 200 130/04 RMK AO2 T01500133
63871K1J0 1J020160109103512201/09/16 10:35:31  5-MIN K1J0 091535Z AUTO 12005KT 10SM OVC010 15/13 A2989 110 90 200 120/05 RMK AO2 CIG 007V013 T01500133
63871K1J0 1J020160109104012201/09/16 10:40:31  5-MIN K1J0 091540Z AUTO 12005KT 10SM OVC010 15/13 A2989 120 90 200 120/05 RMK AO2 CIG 007V015 T01500133
63871K1J0 1J020160109104512201/09/16 10:45:31  5-MIN K1J0 091545Z AUTO 13005KT 10SM OVC010 15/13 A2989 120 90 200 130/05 RMK AO2 CIG 008V015 T01500133
63871K1J0 1J020160109105012201/09/16 10:50:31  5-MIN K1J0 091550Z AUTO 12004KT 10SM OVC010 15/13 A2989 120 90 200 120/04 RMK AO2 CIG 008V015 T01500133
63871K1J0 1J020160109105512901/09/16 10:55:31  5-MIN K1J0 091555Z AUTO VRB05KT 10SM OVC010 15/13 A2989 120 90 200 VRB/05 RMK AO2 CIG 008V015 SLP105 T01500133
63871K1J0 1J020160109110011001/09/16 11:00:31  5-MIN K1J0 091600Z AUTO 14006KT 10SM OVC010 15/13 A2989 110 90 200 140/06 RMK AO2 T01500133
63871K1J0 1J020160109110511001/09/16 11:05:31  5-MIN K1J0 091605Z AUTO 12004KT 10SM OVC010 15/13 A2989 120 90 200 120/04 RMK AO2 T01500133
63871K1J0 1J020160109111011001/09/16 11:10:31  5-MIN K1J0 091610Z AUTO VRB03KT 10SM OVC010 15/13 A2989 120 90 200 VRB/03 RMK AO2 T01500133
63871K1J0 1J020160109111511001/09/16 11:15:31  5-MIN K1J0 091615Z AUTO VRB05KT 10SM OVC010 16/13 A2988 120 86 300 VRB/05 RMK AO2 T01560133
63871K1J0 1J020160109112011001/09/16 11:20:31  5-MIN K1J0 091620Z AUTO 11005KT 10SM OVC010 16/13 A2988 120 86 300 110/05 RMK AO2 T01560133
63871K1J0 1J020160109112511001/09/16 11:25:31  5-MIN K1J0 091625Z AUTO 10003KT 10SM OVC010 15/13 A2988 120 90 200 100/03 RMK AO2 T01500133
63871K1J0 1J020160109113011001/09/16 11:30:31  5-MIN K1J0 091630Z AUTO 09004KT 10SM OVC010 16/13 A2988 120 86 300 090/04 RMK AO2 T01560133
63871K1J0 1J020160109113511001/09/16 11:35:31  5-MIN K1J0 091635Z AUTO 07004KT 10SM OVC010 16/13 A2988 130 86 300 070/04 RMK AO2 T01560133
63871K1J0 1J020160109114011001/09/16 11:40:31  5-MIN K1J0 091640Z AUTO 09004KT 10SM OVC010 16/13 A2987 130 86 300 090/04 RMK AO2 T01560133
63871K1J0 1J020160109114511001/09/16 11:45:31  5-MIN K1J0 091645Z AUTO 09004KT 10SM OVC010 15/13 A2987 130 90 200 090/04 RMK AO2 T01500133
63871K1J0 1J020160109115011701/09/16 11:50:31  5-MIN K1J0 091650Z AUTO 08005KT 10SM OVC010 15/13 A2986 140 90 200 080/05 RMK AO2 PRESFR T01500133
63871K1J0 1J020160109115512401/09/16 11:55:31  5-MIN K1J0 091655Z AUTO 08006KT 10SM OVC010 15/13 A2985 150 90 200 080/06 RMK AO2 PRESFR SLP092 T01500133
63871K1J0 1J020160109120011701/09/16 12:00:31  5-MIN K1J0 091700Z AUTO 06005KT 10SM OVC010 16/13 A2984 160 86 300 060/05 RMK AO2 PRESFR T01560133
63871K1J0 1J020160109120511001/09/16 12:05:31  5-MIN K1J0 091705Z AUTO 08003KT 10SM OVC011 15/14 A2984 160 93 200 080/03 RMK AO2 T01500139
63871K1J0 1J020160109121011001/09/16 12:10:31  5-MIN K1J0 091710Z AUTO 07006KT 10SM OVC011 16/14 A2983 170 90 300 070/06 RMK AO2 T01560139
63871K1J0 1J020160109121511001/09/16 12:15:31  5-MIN K1J0 091715Z AUTO 07004KT 10SM OVC011 16/14 A2983 170 90 300 070/04 RMK AO2 T01560139
63871K1J0 1J020160109122011001/09/16 12:20:31  5-MIN K1J0 091720Z AUTO 08004KT 10SM OVC011 16/14 A2982 180 90 300 080/04 RMK AO2 T01560139
63871K1J0 1J020160109122511001/09/16 12:25:31  5-MIN K1J0 091725Z AUTO 08006KT 10SM OVC011 16/14 A2982 180 86 400 080/06 RMK AO2 T01610139
63871K1J0 1J020160109123011001/09/16 12:30:31  5-MIN K1J0 091730Z AUTO 11007KT 10SM OVC011 16/14 A2983 170 90 300 110/07 RMK AO2 T01560139
63871K1J0 1J020160109123511001/09/16 12:35:31  5-MIN K1J0 091735Z AUTO 14006KT 10SM OVC011 16/14 A2984 160 90 300 140/06 RMK AO2 T01560139
63871K1J0 1J020160109124010901/09/16 12:40:31  5-MIN K1J0 091740Z AUTO 13005KT 9SM OVC011 16/14 A2984 160 90 300 130/05 RMK AO2 T01560139
63871K1J0 1J020160109124512701/09/16 12:45:31  5-MIN K1J0 091745Z AUTO VRB06KT 5SM RA BR OVC011 16/14 A2983 170 90 300 VRB/06 RMK AO2 RAB41 P0002 T01560139
63871K1J0 1J020160109125012701/09/16 12:50:31  5-MIN K1J0 091750Z AUTO 08006KT 4SM RA BR OVC010 15/14 A2981 190 93 300 080/06 RMK AO2 RAB41 P0003 T01500139
63871K1J0 1J020160109125516501/09/16 12:55:31  5-MIN K1J0 091755Z AUTO 04008KT 5SM RA BR OVC010 15/14 A2979 210 93 300 040/08 RMK AO2 RAB41 PRESFR SLP071 P0004 60004 T01500139 10161 20133 55004
63871K1J0 1J020160109130013601/09/16 13:00:31  5-MIN K1J0 091800Z AUTO 04009KT 6SM -RA BR BKN010 OVC090 15/14 A2977 220 93 300 040/09 RMK AO2 PRESFR P0000 T01500139
63871K1J0 1J020160109130512601/09/16 13:05:31  5-MIN K1J0 091805Z AUTO 03007KT 7SM -RA BKN010 OVC090 15/14 A2978 220 93 300 030/07 RMK AO2 P0000 T01500139
63871K1J0 1J020160109131013301/09/16 13:10:31  5-MIN K1J0 091810Z AUTO 00000KT 9SM -RA BKN010 BKN055 OVC090 15/14 A2981 190 93 300 000/00 RMK AO2 P0000 T01500139
63871K1J0 1J020160109131512701/09/16 13:15:31  5-MIN K1J0 091815Z AUTO 16005KT 10SM -RA BKN010 OVC090 15/14 A2981 190 93 300 160/05 RMK AO2 P0000 T01500139
63871K1J0 1J020160109132013501/09/16 13:20:31  5-MIN K1J0 091820Z AUTO 11004KT 5SM RA BR BKN010 BKN026 OVC090 15/14 A2980 190 96 300 110/04 RMK AO2 P0002 T01500144
63871K1J0 1J020160109132513501/09/16 13:25:31  5-MIN K1J0 091825Z AUTO 10003KT 3SM RA BR BKN010 BKN019 OVC090 15/14 A2980 190 96 300 100/03 RMK AO2 P0004 T01500144
63871K1J0 1J020160109133014601/09/16 13:30:31  5-MIN K1J0 091830Z AUTO 05005KT 2 1/2SM RA BR SCT009 BKN014 OVC090 15/14 A2978 210 96 300 050/05 RMK AO2 PRESFR P0007 T01500144
63871K1J0 1J020160109133514001/09/16 13:35:31  5-MIN K1J0 091835Z AUTO 04005KT 2 1/2SM -RA BR SCT007 OVC012 15/14 A2978 220 96 300 040/05 RMK AO2 PRESFR P0008 T01500144
63871K1J0 1J020160109134012801/09/16 13:40:31  5-MIN K1J0 091840Z AUTO 11004KT 4SM RA BR BKN007 OVC015 15/14 A2980 200 96 300 110/04 RMK AO2 P0009 T01500144
63871K1J0 1J020160109134514001/09/16 13:45:31  5-MIN K1J0 091845Z AUTO 08007KT 2 1/2SM +RA BR BKN007 BKN013 OVC018 15/14 A2977 220 96 300 080/07 RMK AO2 P0016 T01500144
63871K1J0 1J020160109135013601/09/16 13:50:31  5-MIN K1J0 091850Z AUTO 00000KT 2SM +RA BR SCT007 BKN013 OVC018 15/14 A2977 230 96 300 000/00 RMK AO2 P0018 T01500144
63871K1J0 1J020160109135512601/09/16 13:55:31  5-MIN K1J0 091855Z AUTO VRB04KT 4SM -RA BR SCT004 BKN011 OVC039 15/14 A2978 220 96 300 VRB/04 RMK AO2 P0018
63871K1J0 1J020160109140013601/09/16 14:00:31  5-MIN K1J0 091900Z AUTO 09005KT 6SM -RA BR BKN004 BKN023 OVC039 15/14 A2977 220 96 300 090/05 RMK AO2 P0000 T01500144
63871K1J0 1J020160109140513501/09/16 14:05:31  5-MIN K1J0 091905Z AUTO 08003KT 4SM RA BR SCT006 BKN020 OVC039 15/14 A2977 230 96 300 080/03 RMK AO2 P0002 T01500144
63871K1J0 1J020160109141013501/09/16 14:10:31  5-MIN K1J0 091910Z AUTO 07003KT 4SM RA BR SCT006 BKN020 OVC039 15/14 A2977 230 96 300 070/03 RMK AO2 P0002 T01500144
63871K1J0 1J020160109141513601/09/16 14:15:31  5-MIN K1J0 091915Z AUTO 07005KT 6SM -RA BR BKN006 BKN020 OVC039 15/14 A2976 230 96 300 070/05 RMK AO2 P0002 T01500144
63871K1J0 1J020160109142013301/09/16 14:20:31  5-MIN K1J0 091920Z AUTO 07006KT 9SM -RA BKN006 OVC039 15/14 A2975 240 96 300 070/06 RMK AO2 PRESFR P0002 T01500144
63871K1J0 1J020160109142513601/09/16 14:25:31  5-MIN K1J0 091925Z AUTO 07007KT 10SM BKN006 OVC037 15/14 A2975 250 96 300 070/07 RMK AO2 RAE24 PRESFR P0002 T01500144
63871K1J0 1J020160109143012901/09/16 14:30:31  5-MIN K1J0 091930Z AUTO 07005KT 10SM BKN006 OVC035 15/14 A2975 250 96 300 070/05 RMK AO2 RAE24 P0002 T01500144
63871K1J0 1J020160109143512701/09/16 14:35:31  5-MIN K1J0 091935Z AUTO 09005KT 10SM -RA BKN006 OVC032 15/14 A2975 240 96 300 090/05 RMK AO2 P0002 T01500144
63871K1J0 1J020160109144013401/09/16 14:40:31  5-MIN K1J0 091940Z AUTO 10005KT 10SM -RA SCT006 BKN028 OVC034 15/14 A2975 240 96 300 100/05 RMK AO2 P0002 T01500144
63871K1J0 1J020160109144513501/09/16 14:45:31  5-MIN K1J0 091945Z AUTO 09006KT 5SM RA BR SCT006 BKN028 OVC034 15/14 A2975 240 96 300 090/06 RMK AO2 P0005 T01500144
63871K1J0 1J020160109145013601/09/16 14:50:31  5-MIN K1J0 091950Z AUTO 09007KT 4SM -RA BR FEW006 BKN024 OVC032 15/14 A2975 240 96 300 090/07 RMK AO2 P0005 T01500144
63871K1J0 1J020160109145513601/09/16 14:55:31  5-MIN K1J0 091955Z AUTO 09007KT 6SM -RA BR FEW006 OVC027 15/14 A2975 250 96 300 090/07 RMK AO2 SLP059 P0005 T01500144
63871K1J0 1J020160109150012601/09/16 15:00:31  5-MIN K1J0 092000Z AUTO 10006KT 7SM -RA BKN029 OVC040 16/14 A2975 250 93 400 100/06 RMK AO2 P0001 T01560144
63871K1J0 1J020160109150513501/09/16 15:05:31  5-MIN K1J0 092005Z AUTO 10005KT 5SM RA BR BKN027 BKN036 OVC055 15/14 A2974 250 96 300 100/05 RMK AO2 P0001 T01500144
63871K1J0 1J020160109151013501/09/16 15:10:31  5-MIN K1J0 092010Z AUTO 09007KT 4SM RA BR SCT027 BKN036 OVC055 16/14 A2974 250 93 400 090/07 RMK AO2 P0002 T01560144
63871K1J0 1J020160109151513601/09/16 15:15:31  5-MIN K1J0 092015Z AUTO VRB03KT 5SM -RA BR FEW006 BKN040 OVC050 16/15 A2975 250 96 400 VRB/03 RMK AO2 P0002 T01560150
63871K1J0 1J020160109152013301/09/16 15:20:31  5-MIN K1J0 092020Z AUTO 05004KT 9SM -RA SCT006 BKN028 OVC055 16/15 A2975 240 96 400 050/04 RMK AO2 P0002 T01560150
63871K1J0 1J020160109152513601/09/16 15:25:31  5-MIN K1J0 092025Z AUTO 02004KT 10SM BKN006 BKN038 OVC055 16/14 A2975 240 93 400 020/04 RMK AO2 RAE25 P0002 T01560144
63871K1J0 1J020160109153012901/09/16 15:30:31  5-MIN K1J0 092030Z AUTO 04004KT 10SM BKN006 OVC041 16/14 A2975 240 93 400 040/04 RMK AO2 RAE25 P0002 T01560144
63871K1J0 1J020160109153512901/09/16 15:35:31  5-MIN K1J0 092035Z AUTO 04004KT 10SM BKN006 OVC050 16/14 A2975 250 93 400 040/04 RMK AO2 RAE25 P0002 T01560144
63871K1J0 1J020160109154012201/09/16 15:40:31  5-MIN K1J0 092040Z AUTO 05003KT 10SM OVC006 16/15 A2974 250 96 400 050/03 RMK AO2 RAE25 P0002 T01560150
63871K1J0 1J020160109154512201/09/16 15:45:31  5-MIN K1J0 092045Z AUTO 05005KT 10SM OVC006 16/15 A2974 250 96 400 050/05 RMK AO2 RAE25 P0002 T01560150
63871K1J0 1J020160109155012201/09/16 15:50:31  5-MIN K1J0 092050Z AUTO 06006KT 10SM OVC006 16/15 A2974 250 96 400 060/06 RMK AO2 RAE25 P0002 T01560150
63871K1J0 1J020160109155515301/09/16 15:55:31  5-MIN K1J0 092055Z AUTO 08004KT 10SM OVC006 16/15 A2974 260 96 400 080/04 RMK AO2 RAE25 CIG 005V010 SLP055 P0002 60025 T01560150 58037
63871K1J0 1J020160109160012201/09/16 16:00:31  5-MIN K1J0 092100Z AUTO 09003KT 10SM OVC007 16/15 A2974 250 96 400 090/03 RMK AO2 CIG 006V010 T01560150
63871K1J0 1J020160109160512201/09/16 16:05:31  5-MIN K1J0 092105Z AUTO 08004KT 10SM OVC007 16/15 A2974 260 96 400 080/04 RMK AO2 CIG 006V011 T01560150
63871K1J0 1J020160109161012201/09/16 16:10:31  5-MIN K1J0 092110Z AUTO 08004KT 10SM OVC007 16/15 A2974 260 96 400 080/04 RMK AO2 CIG 006V011 T01560150
63871K1J0 1J020160109161512201/09/16 16:15:31  5-MIN K1J0 092115Z AUTO 08005KT 10SM OVC007 16/15 A2973 260 96 400 080/05 RMK AO2 CIG 006V010 T01560150
63871K1J0 1J020160109162012201/09/16 16:20:31  5-MIN K1J0 092120Z AUTO 08004KT 10SM OVC007 16/15 A2973 260 96 400 080/04 RMK AO2 CIG 006V010 T01560150
63871K1J0 1J020160109162511001/09/16 16:25:31  5-MIN K1J0 092125Z AUTO 07004KT 10SM OVC007 16/15 A2973 260 96 400 070/04 RMK AO2 T01560150
63871K1J0 1J020160109163011701/09/16 16:30:31  5-MIN K1J0 092130Z AUTO 09004KT 10SM BKN007 OVC011 16/15 A2973 260 96 400 090/04 RMK AO2 T01560150
63871K1J0 1J020160109163512201/09/16 16:35:31  5-MIN K1J0 092135Z AUTO 10003KT 10SM OVC007 16/15 A2973 260 96 400 100/03 RMK AO2 CIG 006V012 T01560150
63871K1J0 1J020160109164012201/09/16 16:40:31  5-MIN K1J0 092140Z AUTO 09004KT 10SM OVC009 16/15 A2972 270 96 400 090/04 RMK AO2 CIG 006V012 T01560150
63871K1J0 1J020160109164512201/09/16 16:45:31  5-MIN K1J0 092145Z AUTO 07004KT 10SM OVC009 16/15 A2972 270 96 400 070/04 RMK AO2 CIG 006V010 T01560150
63871K1J0 1J020160109165012201/09/16 16:50:31  5-MIN K1J0 092150Z AUTO 07003KT 10SM OVC009 16/15 A2972 270 96 400 070/03 RMK AO2 CIG 006V012 T01560150
63871K1J0 1J020160109165512901/09/16 16:55:31  5-MIN K1J0 092155Z AUTO 07005KT 10SM OVC008 16/15 A2972 270 96 400 070/05 RMK AO2 CIG 006V012 SLP049 T01560150
63871K1J0 1J020160109170012201/09/16 17:00:31  5-MIN K1J0 092200Z AUTO 09005KT 10SM OVC008 16/15 A2972 270 96 400 090/05 RMK AO2 CIG 006V012 T01560150
63871K1J0 1J020160109170512201/09/16 17:05:31  5-MIN K1J0 092205Z AUTO 10005KT 10SM OVC008 16/15 A2972 270 96 400 100/05 RMK AO2 CIG 006V012 T01560150
63871K1J0 1J020160109171012201/09/16 17:10:31  5-MIN K1J0 092210Z AUTO 09005KT 10SM OVC008 16/15 A2972 270 96 400 090/05 RMK AO2 CIG 006V011 T01560150
63871K1J0 1J020160109171512201/09/16 17:15:31  5-MIN K1J0 092215Z AUTO 09004KT 10SM OVC008 16/15 A2973 270 96 400 090/04 RMK AO2 CIG 006V011 T01560150
63871K1J0 1J020160109172011001/09/16 17:20:31  5-MIN K1J0 092220Z AUTO 10004KT 10SM OVC007 16/15 A2973 260 96 400 100/04 RMK AO2 T01560150
63871K1J0 1J020160109172511001/09/16 17:25:31  5-MIN K1J0 092225Z AUTO 11005KT 10SM OVC007 16/15 A2973 260 96 400 110/05 RMK AO2 T01560150
63871K1J0 1J020160109173011001/09/16 17:30:31  5-MIN K1J0 092230Z AUTO 12005KT 10SM OVC007 16/15 A2973 260 96 400 120/05 RMK AO2 T01560150
63871K1J0 1J020160109173511001/09/16 17:35:31  5-MIN K1J0 092235Z AUTO 11005KT 10SM OVC007 16/15 A2973 260 96 400 110/05 RMK AO2 T01560150
63871K1J0 1J020160109174011001/09/16 17:40:31  5-MIN K1J0 092240Z AUTO 11005KT 10SM OVC007 16/15 A2973 260 96 400 110/05 RMK AO2 T01560150
63871K1J0 1J020160109174511001/09/16 17:45:31  5-MIN K1J0 092245Z AUTO 12006KT 10SM OVC007 16/15 A2973 260 96 400 120/06 RMK AO2 T01560150
63871K1J0 1J020160109175011001/09/16 17:50:31  5-MIN K1J0 092250Z AUTO 12007KT 10SM OVC007 16/15 A2973 260 96 400 120/07 RMK AO2 T01560150
63871K1J0 1J020160109175511701/09/16 17:55:31  5-MIN K1J0 092255Z AUTO 11007KT 10SM OVC007 16/15 A2973 260 96 400 110/07 RMK AO2 SLP051 T01560150
63871K1J0 1J020160109180011001/09/16 18:00:31  5-MIN K1J0 092300Z AUTO 12007KT 10SM OVC007 16/15 A2973 260 96 400 120/07 RMK AO2 T01560150
63871K1J0 1J020160109180511001/09/16 18:05:31  5-MIN K1J0 092305Z AUTO 11007KT 10SM OVC007 16/15 A2973 260 96 400 110/07 RMK AO2 T01560150
63871K1J0 1J020160109181011001/09/16 18:10:31  5-MIN K1J0 092310Z AUTO 12006KT 10SM OVC006 16/15 A2973 260 96 400 120/06 RMK AO2 T01560150
63871K1J0 1J020160109181511001/09/16 18:15:31  5-MIN K1J0 092315Z AUTO 12006KT 10SM OVC006 16/15 A2973 260 96 400 120/06 RMK AO2 T01560150
63871K1J0 1J020160109182011001/09/16 18:20:31  5-MIN K1J0 092320Z AUTO 13006KT 10SM OVC006 16/15 A2974 260 96 400 130/06 RMK AO2 T01560150
63871K1J0 1J020160109182511001/09/16 18:25:31  5-MIN K1J0 092325Z AUTO 13005KT 10SM OVC006 16/15 A2974 250 96 400 130/05 RMK AO2 T01560150
63871K1J0 1J020160109183011001/09/16 18:30:31  5-MIN K1J0 092330Z AUTO 12005KT 10SM OVC006 16/15 A2974 260 96 400 120/05 RMK AO2 T01560150
63871K1J0 1J020160109183511001/09/16 18:35:31  5-MIN K1J0 092335Z AUTO 11005KT 10SM OVC006 16/15 A2974 260 96 400 110/05 RMK AO2 T01560150
63871K1J0 1J020160109184011001/09/16 18:40:31  5-MIN K1J0 092340Z AUTO 11005KT 10SM OVC006 16/15 A2973 260 96 400 110/05 RMK AO2 T01560150
63871K1J0 1J020160109184511001/09/16 18:45:31  5-MIN K1J0 092345Z AUTO 11006KT 10SM OVC006 16/15 A2973 260 96 400 110/06 RMK AO2 T01560150
63871K1J0 1J020160109185011001/09/16 18:50:31  5-MIN K1J0 092350Z AUTO 12007KT 10SM OVC006 16/15 A2973 260 96 400 120/07 RMK AO2 T01560150
63871K1J0 1J020160109185514101/09/16 18:55:31  5-MIN K1J0 092355Z AUTO 10005KT 10SM OVC006 16/15 A2973 260 96 400 100/05 RMK AO2 SLP053 60025 T01560150 10156 20150 58012
63871K1J0 1J020160109190011001/09/16 19:00:31  5-MIN K1J0 100000Z AUTO VRB04KT 10SM OVC005 16/15 A2973 260 93 500 VRB/04 RMK AO2 T01610150
63871K1J0 1J020160109190511001/09/16 19:05:31  5-MIN K1J0 100005Z AUTO 00000KT 10SM OVC005 16/15 A2974 250 93 500 000/00 RMK AO2 T01610150
63871K1J0 1J020160109191011001/09/16 19:10:31  5-MIN K1J0 100010Z AUTO VRB03KT 10SM OVC005 16/15 A2974 250 93 500 VRB/03 RMK AO2 T01610150
63871K1J0 1J020160109191511001/09/16 19:15:31  5-MIN K1J0 100015Z AUTO VRB04KT 10SM OVC005 16/16 A2974 250 96 500 VRB/04 RMK AO2 T01610156
63871K1J0 1J020160109192011001/09/16 19:20:31  5-MIN K1J0 100020Z AUTO 11006KT 10SM OVC005 16/16 A2973 260 96 500 110/06 RMK AO2 T01610156
63871K1J0 1J020160109192511001/09/16 19:25:31  5-MIN K1J0 100025Z AUTO VRB05KT 10SM OVC005 16/16 A2975 250 96 500 VRB/05 RMK AO2 T01610156
63871K1J0 1J020160109193011001/09/16 19:30:31  5-MIN K1J0 100030Z AUTO 30005KT 10SM OVC005 16/16 A2976 240 96 500 300/05 RMK AO2 T01610156
63871K1J0 1J020160109193512601/09/16 19:35:31  5-MIN K1J0 100035Z AUTO 10007KT 070V160 10SM OVC005 16/16 A2975 250 96 500 100/07 070V160 RMK AO2 T01610156
63871K1J0 1J020160109194011001/09/16 19:40:31  5-MIN K1J0 100040Z AUTO 15006KT 10SM OVC005 16/16 A2974 250 96 500 150/06 RMK AO2 T01610156
63871K1J0 1J020160109194511001/09/16 19:45:31  5-MIN K1J0 100045Z AUTO 12005KT 10SM OVC005 16/16 A2974 250 96 500 120/05 RMK AO2 T01610156
63871K1J0 1J020160109195012201/09/16 19:50:31  5-MIN K1J0 100050Z AUTO 14005KT 10SM OVC006 16/16 A2975 250 96 500 140/05 RMK AO2 CIG 005V010 T01610156
63871K1J0 1J020160109195512901/09/16 19:55:31  5-MIN K1J0 100055Z AUTO 13004KT 10SM OVC006 16/16 A2974 250 96 500 130/04 RMK AO2 CIG 005V010 SLP056 T01610156
63871K1J0 1J020160109200012201/09/16 20:00:31  5-MIN K1J0 100100Z AUTO 12003KT 10SM OVC006 16/16 A2974 250 96 500 120/03 RMK AO2 CIG 005V010 T01610156
63871K1J0 1J020160109200512901/09/16 20:05:31  5-MIN K1J0 100105Z AUTO 12003KT 10SM BKN006 BKN012 16/16 A2974 250 96 500 120/03 RMK AO2 CIG 005V010 T01610156
63871K1J0 1J020160109201012901/09/16 20:10:31  5-MIN K1J0 100110Z AUTO 12003KT 10SM BKN006 BKN012 16/15 A2974 250 96 400 120/03 RMK AO2 CIG 005V010 T01560150
63871K1J0 1J020160109201511701/09/16 20:15:31  5-MIN K1J0 100115Z AUTO 13003KT 10SM SCT006 BKN011 16/15 A2974 250 96 400 130/03 RMK AO2 T01560150
63871K1J0 1J020160109202012201/09/16 20:20:31  5-MIN K1J0 100120Z AUTO 12003KT 10SM BKN009 16/15 A2974 250 96 400 120/03 RMK AO2 CIG 005V013 T01560150
63871K1J0 1J020160109202512901/09/16 20:25:31  5-MIN K1J0 100125Z AUTO 12004KT 10SM FEW005 BKN009 16/15 A2974 260 96 400 120/04 RMK AO2 CIG 009V013 T01560150
63871K1J0 1J020160109203011001/09/16 20:30:31  5-MIN K1J0 100130Z AUTO 12004KT 10SM SCT009 16/15 A2974 260 96 400 120/04 RMK AO2 T01560150
63871K1J0 1J020160109203511001/09/16 20:35:31  5-MIN K1J0 100135Z AUTO 14004KT 10SM SCT010 16/15 A2973 260 96 400 140/04 RMK AO2 T01560150
63871K1J0 1J020160109204011001/09/16 20:40:31  5-MIN K1J0 100140Z AUTO 13004KT 10SM SCT010 16/15 A2973 260 96 400 130/04 RMK AO2 T01560150
63871K1J0 1J020160109204511001/09/16 20:45:31  5-MIN K1J0 100145Z AUTO 14005KT 10SM FEW010 16/15 A2973 260 96 400 140/05 RMK AO2 T01560150
63871K1J0 1J020160109205010701/09/16 20:50:31  5-MIN K1J0 100150Z AUTO 13004KT 10SM CLR 16/15 A2973 270 96 400 130/04 RMK AO2 T01560150
63871K1J0 1J020160109205511701/09/16 20:55:31  5-MIN K1J0 100155Z AUTO 13004KT 10SM FEW009 16/15 A2973 270 96 400 130/04 RMK AO2 SLP050 T01560150
63871K1J0 1J020160109210011101/09/16 21:00:31  5-MIN K1J0 100200Z AUTO 14005KT 10SM SCT007 16/16 A2973 270 100 400 140/05 RMK AO2 T01560156
63871K1J0 1J020160109210511001/09/16 21:05:31  5-MIN K1J0 100205Z AUTO 15005KT 10SM BKN007 16/16 A2973 270 96 500 150/05 RMK AO2 T01610156
63871K1J0 1J020160109211011001/09/16 21:10:31  5-MIN K1J0 100210Z AUTO 16005KT 10SM BKN007 16/16 A2973 270 96 500 160/05 RMK AO2 T01610156
63871K1J0 1J020160109211511101/09/16 21:15:31  5-MIN K1J0 100215Z AUTO 16005KT 10SM BKN006 16/16 A2973 270 100 400 160/05 RMK AO2 T01560156
63871K1J0 1J020160109212011001/09/16 21:20:31  5-MIN K1J0 100220Z AUTO 16005KT 10SM BKN006 16/15 A2973 260 96 400 160/05 RMK AO2 T01560150
63871K1J0 1J020160109212511001/09/16 21:25:31  5-MIN K1J0 100225Z AUTO 16004KT 10SM BKN006 16/16 A2973 260 96 500 160/04 RMK AO2 T01610156
63871K1J0 1J020160109213011001/09/16 21:30:31  5-MIN K1J0 100230Z AUTO 17004KT 10SM OVC006 16/16 A2973 260 96 500 170/04 RMK AO2 T01610156
63871K1J0 1J020160109213511001/09/16 21:35:31  5-MIN K1J0 100235Z AUTO 17004KT 10SM OVC006 16/16 A2973 260 96 500 170/04 RMK AO2 T01610156
63871K1J0 1J020160109214011001/09/16 21:40:31  5-MIN K1J0 100240Z AUTO 17003KT 10SM OVC005 16/16 A2973 260 96 500 170/03 RMK AO2 T01610156
63871K1J0 1J020160109214511001/09/16 21:45:31  5-MIN K1J0 100245Z AUTO 19004KT 10SM OVC005 16/16 A2974 260 96 500 190/04 RMK AO2 T01610156
63871K1J0 1J020160109215011101/09/16 21:50:31  5-MIN K1J0 100250Z AUTO 21003KT 10SM OVC005 16/16 A2974 250 100 500 210/03 RMK AO2 T01610161
63871K1J0 1J020160109215512301/09/16 21:55:31  5-MIN K1J0 100255Z AUTO VRB04KT 10SM OVC005 17/16 A2974 250 96 500 VRB/04 RMK AO2 SLP056 T01670161 55002
63871K1J0 1J020160109220011001/09/16 22:00:31  5-MIN K1J0 100300Z AUTO 23004KT 10SM OVC005 17/16 A2974 250 96 500 230/04 RMK AO2 T01670161
63871K1J0 1J020160109220511001/09/16 22:05:31  5-MIN K1J0 100305Z AUTO 20004KT 10SM OVC005 17/16 A2974 250 96 500 200/04 RMK AO2 T01670161
63871K1J0 1J020160109221011001/09/16 22:10:31  5-MIN K1J0 100310Z AUTO 20005KT 10SM OVC004 17/16 A2974 250 96 500 200/05 RMK AO2 T01670161
63871K1J0 1J020160109221511001/09/16 22:15:31  5-MIN K1J0 100315Z AUTO 20006KT 10SM OVC004 17/16 A2975 250 96 500 200/06 RMK AO2 T01670161
63871K1J0 1J020160109222012201/09/16 22:20:31  5-MIN K1J0 100320Z AUTO 22006KT 10SM OVC004 17/16 A2975 250 96 500 220/06 RMK AO2 CIG 003V008 T01670161
63871K1J0 1J020160109222512901/09/16 22:25:31  5-MIN K1J0 100325Z AUTO 22005KT 10SM BKN004 OVC010 17/16 A2975 240 96 500 220/05 RMK AO2 CIG 003V007 T01670161
63871K1J0 1J020160109223012901/09/16 22:30:31  5-MIN K1J0 100330Z AUTO 00000KT 10SM BKN004 OVC010 17/16 A2975 250 96 500 000/00 RMK AO2 CIG 003V007 T01670161
63871K1J0 1J020160109223512201/09/16 22:35:31  5-MIN K1J0 100335Z AUTO 23004KT 10SM OVC004 17/16 A2975 240 96 500 230/04 RMK AO2 CIG 003V007 T01670161
63871K1J0 1J020160109224012201/09/16 22:40:31  5-MIN K1J0 100340Z AUTO 25003KT 10SM OVC004 17/16 A2975 240 96 500 250/03 RMK AO2 CIG 003V007 T01670161
63871K1J0 1J020160109224512201/09/16 22:45:31  5-MIN K1J0 100345Z AUTO 25003KT 10SM OVC004 17/16 A2976 240 96 500 250/03 RMK AO2 CIG 003V007 T01670161
63871K1J0 1J020160109225011001/09/16 22:50:31  5-MIN K1J0 100350Z AUTO 24004KT 10SM OVC004 17/16 A2975 240 96 500 240/04 RMK AO2 T01670161
63871K1J0 1J020160109225511701/09/16 22:55:31  5-MIN K1J0 100355Z AUTO 23006KT 10SM OVC004 17/16 A2975 240 96 500 230/06 RMK AO2 SLP033 T01670161
63871K1J0 1J020160109230011001/09/16 23:00:31  5-MIN K1J0 100400Z AUTO 23007KT 10SM OVC004 17/16 A2975 240 96 500 230/07 RMK AO2 T01670161
63871K1J0 1J020160109230511001/09/16 23:05:31  5-MIN K1J0 100405Z AUTO 25006KT 10SM OVC004 17/16 A2976 240 96 500 250/06 RMK AO2 T01670161
63871K1J0 1J020160109231011001/09/16 23:10:31  5-MIN K1J0 100410Z AUTO VRB04KT 10SM OVC004 17/16 A2976 240 96 500 VRB/04 RMK AO2 T01670161
63871K1J0 1J020160109231511001/09/16 23:15:31  5-MIN K1J0 100415Z AUTO 25005KT 10SM OVC004 17/16 A2976 240 96 500 250/05 RMK AO2 T01670161
63871K1J0 1J020160109232011001/09/16 23:20:31  5-MIN K1J0 100420Z AUTO 24008KT 10SM OVC004 17/16 A2976 240 96 500 240/08 RMK AO2 T01670161
63871K1J0 1J020160109232511001/09/16 23:25:31  5-MIN K1J0 100425Z AUTO 23009KT 10SM OVC004 17/16 A2976 230 96 500 230/09 RMK AO2 T01670161
63871K1J0 1J020160109233012201/09/16 23:30:31  5-MIN K1J0 100430Z AUTO 24007KT 10SM OVC004 17/16 A2976 240 93 500 240/07 RMK AO2 CIG 004V008 T01670156
63871K1J0 1J020160109233512201/09/16 23:35:31  5-MIN K1J0 100435Z AUTO 24006KT 10SM OVC005 17/16 A2976 240 93 500 240/06 RMK AO2 CIG 004V008 T01670156
63871K1J0 1J020160109234012201/09/16 23:40:31  5-MIN K1J0 100440Z AUTO 25006KT 10SM OVC005 16/16 A2976 240 96 500 250/06 RMK AO2 CIG 004V008 T01610156
63871K1J0 1J020160109234512201/09/16 23:45:31  5-MIN K1J0 100445Z AUTO 24007KT 10SM OVC007 16/16 A2976 240 96 500 240/07 RMK AO2 CIG 004V010 T01610156
63871K1J0 1J020160109235012901/09/16 23:50:31  5-MIN K1J0 100450Z AUTO 25004KT 10SM BKN007 OVC011 17/16 A2976 240 93 500 250/04 RMK AO2 CIG 004V010 T01670156
63871K1J0 1J020160109235514601/09/16 23:55:31  5-MIN K1J0 100455Z AUTO 24006KT 10SM BKN007 OVC012 16/16 A2976 240 96 500 240/06 RMK AO2 CIG 005V010 SLP060 T01610156 401670133
63871K1J0 1J020160110000012901/10/16 00:00:31  5-MIN K1J0 100500Z AUTO 25005KT 10SM BKN007 OVC012 16/16 A2975 240 96 500 250/05 RMK AO2 CIG 005V010 T01610156
63871K1J0 1J020160110000512201/10/16 00:05:31  5-MIN K1J0 100505Z AUTO 24003KT 10SM OVC008 16/16 A2975 240 96 500 240/03 RMK AO2 CIG 006V013 T01610156
63871K1J0 1J020160110001012201/10/16 00:10:31  5-MIN K1J0 100510Z AUTO 25004KT 10SM OVC008 16/16 A2976 240 96 500 250/04 RMK AO2 CIG 006V013 T01610156
63871K1J0 1J020160110001512201/10/16 00:15:31  5-MIN K1J0 100515Z AUTO 24005KT 10SM OVC008 16/16 A2976 240 96 500 240/05 RMK AO2 CIG 006V013 T01610156
63871K1J0 1J020160110002012201/10/16 00:20:31  5-MIN K1J0 100520Z AUTO 24005KT 10SM OVC008 16/16 A2976 230 96 500 240/05 RMK AO2 CIG 006V011 T01610156
63871K1J0 1J020160110002512201/10/16 00:25:31  5-MIN K1J0 100525Z AUTO 24007KT 10SM OVC009 16/16 A2976 230 96 500 240/07 RMK AO2 CIG 006V011 T01610156
63871K1J0 1J020160110003012901/10/16 00:30:31  5-MIN K1J0 100530Z AUTO 26008KT 10SM BKN009 OVC013 16/16 A2977 230 96 500 260/08 RMK AO2 CIG 006V011 T01610156
63871K1J0 1J020160110003512901/10/16 00:35:31  5-MIN K1J0 100535Z AUTO 25008KT 10SM BKN009 OVC016 16/15 A2977 230 93 500 250/08 RMK AO2 CIG 007V013 T01610150
63871K1J0 1J020160110004011701/10/16 00:40:31  5-MIN K1J0 100540Z AUTO 25007KT 10SM BKN011 OVC025 16/15 A2977 220 93 400 250/07 RMK AO2 T01610150
63871K1J0 1J020160110004512401/10/16 00:45:31  5-MIN K1J0 100545Z AUTO 25006KT 10SM SCT009 BKN018 OVC025 16/15 A2977 220 93 400 250/06 RMK AO2 T01610150
63871K1J0 1J020160110005012401/10/16 00:50:31  5-MIN K1J0 100550Z AUTO 25006KT 10SM SCT011 BKN018 OVC022 16/15 A2978 220 93 400 250/06 RMK AO2 T01610150
63871K1J0 1J020160110005514901/10/16 00:55:31  5-MIN K1J0 100555Z AUTO 26006KT 10SM SCT011 BKN020 OVC024 16/14 A2977 220 90 400 260/06 RMK AO2 SLP066 T01610144 10167 20156 53003
63871K1J0 1J020160110010012401/10/16 01:00:31  5-MIN K1J0 100600Z AUTO VRB06KT 10SM FEW013 BKN021 BKN026 16/14 A2978 220 90 400 VRB/06 RMK AO2 T01610144
63871K1J0 1J020160110010512401/10/16 01:05:31  5-MIN K1J0 100605Z AUTO VRB04KT 10SM FEW011 BKN021 OVC026 16/14 A2978 220 90 400 VRB/04 RMK AO2 T01610144
63871K1J0 1J020160110011012401/10/16 01:10:31  5-MIN K1J0 100610Z AUTO 26006KT 10SM SCT014 BKN020 OVC025 16/14 A2978 210 93 400 260/06 RMK AO2 T01560144
63871K1J0 1J020160110011511701/10/16 01:15:31  5-MIN K1J0 100615Z AUTO 28006KT 10SM SCT016 OVC022 16/14 A2978 210 93 400 280/06 RMK AO2 T01560144
63871K1J0 1J020160110012011701/10/16 01:20:31  5-MIN K1J0 100620Z AUTO VRB06KT 10SM SCT016 OVC024 16/14 A2979 210 90 400 VRB/06 RMK AO2 T01560139
63871K1J0 1J020160110012512401/10/16 01:25:31  5-MIN K1J0 100625Z AUTO 28005KT 10SM SCT016 BKN021 OVC031 16/14 A2979 210 90 400 280/05 RMK AO2 T01560139
63871K1J0 1J020160110013011701/10/16 01:30:31  5-MIN K1J0 100630Z AUTO 29003KT 10SM BKN016 OVC025 16/13 A2979 200 86 400 290/03 RMK AO2 T01560133
63871K1J0 1J020160110013512401/10/16 01:35:31  5-MIN K1J0 100635Z AUTO 28004KT 10SM BKN016 BKN025 OVC031 16/13 A2980 200 86 400 280/04 RMK AO2 T01560133
63871K1J0 1J020160110014012401/10/16 01:40:31  5-MIN K1J0 100640Z AUTO 27005KT 10SM SCT016 BKN021 OVC031 15/13 A2980 200 86 300 270/05 RMK AO2 T01500128
63871K1J0 1J020160110014512401/10/16 01:45:31  5-MIN K1J0 100645Z AUTO VRB06KT 10SM SCT016 BKN021 BKN030 15/13 A2980 200 86 300 VRB/06 RMK AO2 T01500128
63871K1J0 1J020160110015012401/10/16 01:50:31  5-MIN K1J0 100650Z AUTO VRB04KT 10SM FEW013 BKN020 BKN031 14/12 A2980 190 86 200 VRB/04 RMK AO2 T01440122
63871K1J0 1J020160110015512401/10/16 01:55:31  5-MIN K1J0 100655Z AUTO VRB05KT 10SM FEW013 BKN020 14/12 A2980 190 86 200 VRB/05 RMK AO2 SLP076 T01440122
63871K1J0 1J020160110020011001/10/16 02:00:31  5-MIN K1J0 100700Z AUTO 29006KT 10SM SCT018 14/12 A2981 190 83 200 290/06 RMK AO2 T01440117
63871K1J0 1J020160110020511001/10/16 02:05:31  5-MIN K1J0 100705Z AUTO VRB04KT 10SM SCT020 14/12 A2981 190 83 200 VRB/04 RMK AO2 T01440117
63871K1J0 1J020160110021011001/10/16 02:10:31  5-MIN K1J0 100710Z AUTO 29004KT 10SM SCT020 14/12 A2981 180 86 100 290/04 RMK AO2 T01390117
63871K1J0 1J020160110021511001/10/16 02:15:31  5-MIN K1J0 100715Z AUTO 30004KT 10SM SCT020 14/12 A2981 190 86 100 300/04 RMK AO2 T01390117
63871K1J0 1J020160110022011001/10/16 02:20:31  5-MIN K1J0 100720Z AUTO VRB03KT 10SM FEW020 14/12 A2981 190 86 100 VRB/03 RMK AO2 T01390117
63871K1J0 1J020160110022511001/10/16 02:25:31  5-MIN K1J0 100725Z AUTO VRB03KT 10SM FEW021 14/12 A2982 180 86 100 VRB/03 RMK AO2 T01390117
63871K1J0 1J020160110023011001/10/16 02:30:31  5-MIN K1J0 100730Z AUTO 30006KT 10SM FEW021 14/12 A2982 180 86 100 300/06 RMK AO2 T01390117
63871K1J0 1J020160110023511001/10/16 02:35:31  5-MIN K1J0 100735Z AUTO 29005KT 10SM FEW021 13/11 A2983 170 86 100 290/05 RMK AO2 T01330111
63871K1J0 1J020160110024010701/10/16 02:40:31  5-MIN K1J0 100740Z AUTO VRB04KT 10SM CLR 13/11 A2983 170 83 100 VRB/04 RMK AO2 T01330106
63871K1J0 1J020160110024510501/10/16 02:45:31  5-MIN K1J0 100745Z AUTO 30004KT 10SM CLR 13/11 A2983 170 83 0 300/04 RMK AO2 T01330106
63871K1J0 1J020160110025010701/10/16 02:50:31  5-MIN K1J0 100750Z AUTO VRB04KT 10SM CLR 13/11 A2983 170 83 100 VRB/04 RMK AO2 T01330106
63871K1J0 1J020160110025511501/10/16 02:55:31  5-MIN K1J0 100755Z AUTO VRB04KT 10SM FEW024 13/11 A2983 170 86 0 VRB/04 RMK AO2 SLP087 T01280106
63871K1J0 1J020160110030010501/10/16 03:00:31  5-MIN K1J0 100800Z AUTO VRB04KT 10SM CLR 13/11 A2984 160 86 0 VRB/04 RMK AO2 T01280106
63871K1J0 1J020160110030510501/10/16 03:05:31  5-MIN K1J0 100805Z AUTO VRB04KT 10SM CLR 13/11 A2984 160 86 0 VRB/04 RMK AO2 T01280106
63871K1J0 1J020160110031010501/10/16 03:10:31  5-MIN K1J0 100810Z AUTO 00000KT 10SM CLR 12/11 A2985 160 89 0 000/00 RMK AO2 T01220106
63871K1J0 1J020160110031510801/10/16 03:15:31  5-MIN K1J0 100815Z AUTO 30004KT 10SM CLR 12/10 A2985 150 86 -100 300/04 RMK AO2 T01220100
63871K1J0 1J020160110032010801/10/16 03:20:31  5-MIN K1J0 100820Z AUTO VRB04KT 10SM CLR 12/10 A2985 150 86 -100 VRB/04 RMK AO2 T01220100
63871K1J0 1J020160110032510801/10/16 03:25:31  5-MIN K1J0 100825Z AUTO 29004KT 10SM CLR 12/09 A2985 150 83 -100 290/04 RMK AO2 T01220094
63871K1J0 1J020160110033011101/10/16 03:30:31  5-MIN K1J0 100830Z AUTO 30003KT 10SM FEW025 12/09 A2985 150 83 -100 300/03 RMK AO2 T01220094
63871K1J0 1J020160110033511101/10/16 03:35:31  5-MIN K1J0 100835Z AUTO 00000KT 10SM FEW022 12/09 A2986 150 83 -100 000/00 RMK AO2 T01220094
63871K1J0 1J020160110034011101/10/16 03:40:31  5-MIN K1J0 100840Z AUTO 00000KT 10SM FEW022 12/10 A2986 140 89 -100 000/00 RMK AO2 T01170100
63871K1J0 1J020160110034511101/10/16 03:45:31  5-MIN K1J0 100845Z AUTO VRB03KT 10SM FEW024 12/10 A2985 150 89 -100 VRB/03 RMK AO2 T01170100
63871K1J0 1J020160110035011101/10/16 03:50:31  5-MIN K1J0 100850Z AUTO 00000KT 10SM FEW024 12/09 A2986 150 86 -100 000/00 RMK AO2 T01170094
63871K1J0 1J020160110035512401/10/16 03:55:31  5-MIN K1J0 100855Z AUTO 30004KT 10SM FEW024 12/09 A2986 140 86 -100 300/04 RMK AO2 SLP095 T01170094 53011
63871K1J0 1J020160110040011101/10/16 04:00:31  5-MIN K1J0 100900Z AUTO VRB03KT 10SM FEW022 12/09 A2986 140 86 -100 VRB/03 RMK AO2 T01170094
63871K1J0 1J020160110040511101/10/16 04:05:31  5-MIN K1J0 100905Z AUTO VRB03KT 10SM FEW024 12/09 A2987 140 86 -100 VRB/03 RMK AO2 T01170094
63871K1J0 1J020160110041011101/10/16 04:10:31  5-MIN K1J0 100910Z AUTO VRB03KT 10SM FEW024 11/09 A2987 130 86 -200 VRB/03 RMK AO2 T01110089
63871K1J0 1J020160110041511101/10/16 04:15:31  5-MIN K1J0 100915Z AUTO VRB03KT 10SM SCT024 11/09 A2988 130 86 -200 VRB/03 RMK AO2 T01110089
63871K1J0 1J020160110042011101/10/16 04:20:31  5-MIN K1J0 100920Z AUTO 28004KT 10SM SCT024 11/09 A2988 130 86 -200 280/04 RMK AO2 T01110089
63871K1J0 1J020160110042511101/10/16 04:25:31  5-MIN K1J0 100925Z AUTO VRB04KT 10SM FEW023 11/08 A2987 130 83 -200 VRB/04 RMK AO2 T01110083
63871K1J0 1J020160110043011101/10/16 04:30:31  5-MIN K1J0 100930Z AUTO VRB04KT 10SM FEW023 11/08 A2987 130 83 -200 VRB/04 RMK AO2 T01110083
63871K1J0 1J020160110043511101/10/16 04:35:31  5-MIN K1J0 100935Z AUTO VRB04KT 10SM FEW023 11/08 A2988 120 80 -200 VRB/04 RMK AO2 T01110078
63871K1J0 1J020160110044011101/10/16 04:40:31  5-MIN K1J0 100940Z AUTO VRB04KT 10SM FEW023 11/08 A2988 120 80 -200 VRB/04 RMK AO2 T01110078
63871K1J0 1J020160110044510801/10/16 04:45:31  5-MIN K1J0 100945Z AUTO VRB04KT 10SM CLR 11/08 A2989 120 83 -300 VRB/04 RMK AO2 T01060078
63871K1J0 1J020160110045010801/10/16 04:50:31  5-MIN K1J0 100950Z AUTO 29003KT 10SM CLR 11/08 A2988 120 83 -300 290/03 RMK AO2 T01060078
63871K1J0 1J020160110045511501/10/16 04:55:31  5-MIN K1J0 100955Z AUTO 00000KT 10SM CLR 11/08 A2989 120 83 -300 000/00 RMK AO2 SLP105 T01060078
63871K1J0 1J020160110050010801/10/16 05:00:31  5-MIN K1J0 101000Z AUTO VRB03KT 10SM CLR 11/08 A2989 110 83 -300 VRB/03 RMK AO2 T01060078
63871K1J0 1J020160110050510801/10/16 05:05:31  5-MIN K1J0 101005Z AUTO 28004KT 10SM CLR 11/08 A2989 110 83 -300 280/04 RMK AO2 T01060078
63871K1J0 1J020160110051010801/10/16 05:10:31  5-MIN K1J0 101010Z AUTO 00000KT 10SM CLR 11/08 A2989 110 83 -300 000/00 RMK AO2 T01060078
63871K1J0 1J020160110051510801/10/16 05:15:31  5-MIN K1J0 101015Z AUTO VRB03KT 10SM CLR 10/08 A2990 100 86 -400 VRB/03 RMK AO2 T01000078
63871K1J0 1J020160110052010801/10/16 05:20:31  5-MIN K1J0 101020Z AUTO VRB03KT 10SM CLR 11/08 A2990 110 83 -300 VRB/03 RMK AO2 T01060078
63871K1J0 1J020160110052510801/10/16 05:25:31  5-MIN K1J0 101025Z AUTO 00000KT 10SM CLR 10/08 A2990 100 86 -400 000/00 RMK AO2 T01000078
63871K1J0 1J020160110053010801/10/16 05:30:31  5-MIN K1J0 101030Z AUTO 00000KT 10SM CLR 10/08 A2991 100 86 -400 000/00 RMK AO2 T01000078
63871K1J0 1J020160110053510801/10/16 05:35:31  5-MIN K1J0 101035Z AUTO 00000KT 10SM CLR 10/08 A2991 100 86 -400 000/00 RMK AO2 T01000078
63871K1J0 1J020160110054010801/10/16 05:40:31  5-MIN K1J0 101040Z AUTO 00000KT 10SM CLR 10/07 A2990 100 83 -400 000/00 RMK AO2 T01000072
63871K1J0 1J020160110054510801/10/16 05:45:31  5-MIN K1J0 101045Z AUTO 00000KT 10SM CLR 10/07 A2991 100 83 -400 000/00 RMK AO2 T01000072
63871K1J0 1J020160110055010801/10/16 05:50:31  5-MIN K1J0 101050Z AUTO 00000KT 10SM CLR 10/07 A2991 100 83 -400 000/00 RMK AO2 T01000072
63871K1J0 1J020160110055511501/10/16 05:55:31  5-MIN K1J0 101055Z AUTO 00000KT 10SM CLR 09/07 A2991 100 86 -500 000/00 RMK AO2 SLP111 T00940072
63871K1J0 1J020160110060010801/10/16 06:00:31  5-MIN K1J0 101100Z AUTO 00000KT 10SM CLR 10/07 A2991 100 83 -400 000/00 RMK AO2 T01000072
63871K1J0 1J020160110060510701/10/16 06:05:31  5-MIN K1J0 101105Z AUTO 00000KT 10SM CLR 09/07 A2992 90 86 -500 000/00 RMK AO2 T00940072
63871K1J0 1J020160110061010701/10/16 06:10:31  5-MIN K1J0 101110Z AUTO 22003KT 10SM CLR 09/07 A2992 90 86 -500 220/03 RMK AO2 T00940072
63871K1J0 1J020160110061511001/10/16 06:15:31  5-MIN K1J0 101115Z AUTO 22003KT 10SM FEW048 09/07 A2992 80 86 -500 220/03 RMK AO2 T00940072
63871K1J0 1J020160110062011001/10/16 06:20:31  5-MIN K1J0 101120Z AUTO 23004KT 10SM SCT048 09/07 A2993 80 86 -500 230/04 RMK AO2 T00940072
63871K1J0 1J020160110062511001/10/16 06:25:31  5-MIN K1J0 101125Z AUTO 23003KT 10SM BKN046 09/07 A2993 80 86 -500 230/03 RMK AO2 T00940072
63871K1J0 1J020160110063011001/10/16 06:30:31  5-MIN K1J0 101130Z AUTO 23003KT 10SM BKN046 09/07 A2993 80 86 -500 230/03 RMK AO2 T00940072
63871K1J0 1J020160110063511001/10/16 06:35:31  5-MIN K1J0 101135Z AUTO 24003KT 10SM BKN046 09/07 A2993 70 86 -500 240/03 RMK AO2 T00940072
63871K1J0 1J020160110064011001/10/16 06:40:31  5-MIN K1J0 101140Z AUTO 25004KT 10SM SCT046 09/07 A2994 70 89 -600 250/04 RMK AO2 T00890072
63871K1J0 1J020160110064511001/10/16 06:45:31  5-MIN K1J0 101145Z AUTO 25003KT 10SM SCT046 09/07 A2994 70 89 -600 250/03 RMK AO2 T00890072
63871K1J0 1J020160110065011001/10/16 06:50:31  5-MIN K1J0 101150Z AUTO 25003KT 10SM FEW046 09/07 A2994 70 89 -600 250/03 RMK AO2 T00890072
63871K1J0 1J020160110065514101/10/16 06:55:31  5-MIN K1J0 101155Z AUTO VRB03KT 10SM FEW046 09/07 A2994 70 89 -600 VRB/03 RMK AO2 SLP123 70029 T00890072 10161 20089 51028
63871K1J0 1J020160110070010701/10/16 07:00:31  5-MIN K1J0 101200Z AUTO 26003KT 10SM CLR 09/07 A2994 70 89 -600 260/03 RMK AO2 T00890072
63871K1J0 1J020160110070510701/10/16 07:05:31  5-MIN K1J0 101205Z AUTO 27003KT 10SM CLR 09/07 A2994 70 89 -600 270/03 RMK AO2 T00890072
63871K1J0 1J020160110071010701/10/16 07:10:31  5-MIN K1J0 101210Z AUTO VRB04KT 10SM CLR 09/07 A2994 70 89 -600 VRB/04 RMK AO2 T00890072
63871K1J0 1J020160110071510701/10/16 07:15:31  5-MIN K1J0 101215Z AUTO 26003KT 10SM CLR 09/07 A2995 60 89 -600 260/03 RMK AO2 T00890072
63871K1J0 1J020160110072010701/10/16 07:20:31  5-MIN K1J0 101220Z AUTO 26004KT 10SM CLR 09/07 A2995 60 89 -600 260/04 RMK AO2 T00890072
63871K1J0 1J020160110072510701/10/16 07:25:31  5-MIN K1J0 101225Z AUTO VRB03KT 10SM CLR 09/07 A2996 50 89 -600 VRB/03 RMK AO2 T00890072
63871K1J0 1J020160110073010701/10/16 07:30:31  5-MIN K1J0 101230Z AUTO VRB04KT 10SM CLR 09/07 A2995 50 89 -600 VRB/04 RMK AO2 T00890072
63871K1J0 1J020160110073510701/10/16 07:35:31  5-MIN K1J0 101235Z AUTO 26003KT 10SM CLR 09/07 A2996 50 89 -600 260/03 RMK AO2 T00890072
63871K1J0 1J020160110074010701/10/16 07:40:31  5-MIN K1J0 101240Z AUTO VRB03KT 10SM CLR 09/07 A2996 50 89 -600 VRB/03 RMK AO2 T00890072
63871K1J0 1J020160110074510701/10/16 07:45:31  5-MIN K1J0 101245Z AUTO VRB03KT 10SM CLR 09/07 A2996 50 89 -600 VRB/03 RMK AO2 T00890072
63871K1J0 1J020160110075010701/10/16 07:50:31  5-MIN K1J0 101250Z AUTO 00000KT 10SM CLR 09/07 A2996 50 89 -600 000/00 RMK AO2 T00890072
63871K1J0 1J020160110075511401/10/16 07:55:31  5-MIN K1J0 101255Z AUTO VRB03KT 10SM CLR 09/07 A2997 40 89 -600 VRB/03 RMK AO2 SLP132 T00890072
63871K1J0 1J020160110080010701/10/16 08:00:31  5-MIN K1J0 101300Z AUTO VRB04KT 10SM CLR 09/07 A2997 40 89 -600 VRB/04 RMK AO2 T00890072
63871K1J0 1J020160110080510701/10/16 08:05:31  5-MIN K1J0 101305Z AUTO VRB03KT 10SM CLR 09/07 A2997 40 86 -600 VRB/03 RMK AO2 T00890067
63871K1J0 1J020160110081010701/10/16 08:10:31  5-MIN K1J0 101310Z AUTO VRB03KT 10SM CLR 09/07 A2997 40 89 -600 VRB/03 RMK AO2 T00890072
63871K1J0 1J020160110081510701/10/16 08:15:31  5-MIN K1J0 101315Z AUTO VRB04KT 10SM CLR 09/07 A2998 40 89 -600 VRB/04 RMK AO2 T00890072
63871K1J0 1J020160110082010701/10/16 08:20:31  5-MIN K1J0 101320Z AUTO VRB04KT 10SM CLR 09/07 A2997 40 86 -600 VRB/04 RMK AO2 T00890067
63871K1J0 1J020160110082510701/10/16 08:25:31  5-MIN K1J0 101325Z AUTO 00000KT 10SM CLR 09/07 A2998 30 86 -600 000/00 RMK AO2 T00890067
63871K1J0 1J020160110083010701/10/16 08:30:31  5-MIN K1J0 101330Z AUTO VRB03KT 10SM CLR 09/07 A2998 30 86 -600 VRB/03 RMK AO2 T00890067
63871K1J0 1J020160110083510701/10/16 08:35:31  5-MIN K1J0 101335Z AUTO VRB03KT 10SM CLR 09/07 A2999 20 86 -600 VRB/03 RMK AO2 T00890067
63871K1J0 1J020160110084011401/10/16 08:40:31  5-MIN K1J0 101340Z AUTO 29005KT 10SM CLR 09/07 A3000 20 86 -600 290/05 RMK AO2 PRESRR T00890067
63871K1J0 1J020160110084510701/10/16 08:45:31  5-MIN K1J0 101345Z AUTO VRB03KT 10SM CLR 09/07 A3000 20 83 -600 VRB/03 RMK AO2 T00940067
63871K1J0 1J020160110085010701/10/16 08:50:31  5-MIN K1J0 101350Z AUTO VRB03KT 10SM CLR 09/07 A3000 10 83 -600 VRB/03 RMK AO2 T00940067
63871K1J0 1J020160110085511401/10/16 08:55:31  5-MIN K1J0 101355Z AUTO 29003KT 10SM CLR 09/07 A3000 10 83 -600 290/03 RMK AO2 SLP143 T00940067
63871K1J0 1J020160110090010701/10/16 09:00:31  5-MIN K1J0 101400Z AUTO VRB03KT 10SM CLR 09/07 A3000 10 83 -600 VRB/03 RMK AO2 T00940067
63871K1J0 1J020160110090511001/10/16 09:05:31  5-MIN K1J0 101405Z AUTO VRB04KT 10SM FEW022 09/06 A3001 10 79 -600 VRB/04 RMK AO2 T00940061
63871K1J0 1J020160110091010901/10/16 09:10:31  5-MIN K1J0 101410Z AUTO VRB05KT 10SM SCT022 09/06 A3001 0 79 -600 VRB/05 RMK AO2 T00940061
63871K1J0 1J020160110091510901/10/16 09:15:31  5-MIN K1J0 101415Z AUTO VRB05KT 10SM SCT024 09/06 A3001 0 79 -600 VRB/05 RMK AO2 T00940061
63871K1J0 1J020160110092010901/10/16 09:20:31  5-MIN K1J0 101420Z AUTO VRB04KT 10SM FEW024 09/06 A3002 0 79 -600 VRB/04 RMK AO2 T00940061
63871K1J0 1J020160110092511101/10/16 09:25:31  5-MIN K1J0 101425Z AUTO VRB06KT 10SM FEW024 09/06 A3002 -10 79 -600 VRB/06 RMK AO2 T00940061
63871K1J0 1J020160110093013201/10/16 09:30:31  5-MIN K1J0 101430Z AUTO VRB04KT 10SM FEW019 FEW024 SCT032 09/06 A3003 -10 79 -600 VRB/04 RMK AO2 PRESRR T00940061
63871K1J0 1J020160110093511801/10/16 09:35:31  5-MIN K1J0 101435Z AUTO VRB03KT 10SM SCT025 BKN032 09/06 A3003 -10 79 -600 VRB/03 RMK AO2 T00940061
63871K1J0 1J020160110094011801/10/16 09:40:31  5-MIN K1J0 101440Z AUTO VRB05KT 10SM BKN025 BKN031 09/06 A3004 -20 76 -600 VRB/05 RMK AO2 T00940056
63871K1J0 1J020160110094511801/10/16 09:45:31  5-MIN K1J0 101445Z AUTO VRB04KT 10SM FEW023 BKN028 09/06 A3004 -20 76 -600 VRB/04 RMK AO2 T00940056
63871K1J0 1J020160110095011801/10/16 09:50:31  5-MIN K1J0 101450Z AUTO VRB03KT 10SM FEW023 OVC028 09/06 A3004 -20 76 -600 VRB/03 RMK AO2 T00940056
63871K1J0 1J020160110095513101/10/16 09:55:31  5-MIN K1J0 101455Z AUTO VRB03KT 10SM OVC028 09/05 A3005 -30 74 -600 VRB/03 RMK AO2 PRESRR SLP161 T00940050 53028
63871K1J0 1J020160110100011101/10/16 10:00:31  5-MIN K1J0 101500Z AUTO VRB03KT 10SM OVC028 09/06 A3006 -30 76 -600 VRB/03 RMK AO2 T00940056
63871K1J0 1J020160110100511101/10/16 10:05:31  5-MIN K1J0 101505Z AUTO VRB04KT 10SM OVC028 09/06 A3006 -40 76 -600 VRB/04 RMK AO2 T00940056
63871K1J0 1J020160110101011101/10/16 10:10:31  5-MIN K1J0 101510Z AUTO VRB04KT 10SM OVC028 09/05 A3006 -40 74 -600 VRB/04 RMK AO2 T00940050
63871K1J0 1J020160110101511101/10/16 10:15:31  5-MIN K1J0 101515Z AUTO 29003KT 10SM OVC028 09/05 A3006 -40 74 -600 290/03 RMK AO2 T00940050
63871K1J0 1J020160110102011101/10/16 10:20:31  5-MIN K1J0 101520Z AUTO 30006KT 10SM OVC025 09/04 A3007 -40 71 -600 300/06 RMK AO2 T00940044
63871K1J0 1J020160110102511101/10/16 10:25:31  5-MIN K1J0 101525Z AUTO 30003KT 10SM OVC025 09/04 A3007 -50 71 -600 300/03 RMK AO2 T00940044
63871K1J0 1J020160110103011101/10/16 10:30:31  5-MIN K1J0 101530Z AUTO 00000KT 10SM OVC025 09/05 A3007 -50 74 -600 000/00 RMK AO2 T00940050
63871K1J0 1J020160110103511101/10/16 10:35:31  5-MIN K1J0 101535Z AUTO 33006KT 10SM OVC025 09/04 A3007 -50 71 -600 330/06 RMK AO2 T00940044
63871K1J0 1J020160110104011101/10/16 10:40:31  5-MIN K1J0 101540Z AUTO 32008KT 10SM OVC025 09/04 A3007 -50 73 -700 320/08 RMK AO2 T00890044
63871K1J0 1J020160110104511101/10/16 10:45:31  5-MIN K1J0 101545Z AUTO 31006KT 10SM OVC025 09/04 A3007 -50 73 -700 310/06 RMK AO2 T00890044
63871K1J0 1J020160110105011101/10/16 10:50:31  5-MIN K1J0 101550Z AUTO 32006KT 10SM OVC025 09/04 A3008 -50 73 -700 320/06 RMK AO2 T00890044
63871K1J0 1J020160110105511801/10/16 10:55:31  5-MIN K1J0 101555Z AUTO 31008KT 10SM OVC025 09/04 A3008 -50 73 -700 310/08 RMK AO2 SLP170 T00890044
63871K1J0 1J020160110110011101/10/16 11:00:31  5-MIN K1J0 101600Z AUTO 31006KT 10SM OVC025 09/04 A3008 -60 73 -700 310/06 RMK AO2 T00890044
63871K1J0 1J020160110110511101/10/16 11:05:31  5-MIN K1J0 101605Z AUTO 31006KT 10SM OVC025 09/04 A3008 -60 73 -700 310/06 RMK AO2 T00890044
63871K1J0 1J020160110111011701/10/16 11:10:31  5-MIN K1J0 101610Z AUTO 32008G15KT 10SM OVC025 09/04 A3009 -60 71 -700 320/08G15 RMK AO2 T00890039
63871K1J0 1J020160110111511701/10/16 11:15:31  5-MIN K1J0 101615Z AUTO 33008G15KT 10SM OVC025 08/04 A3009 -60 73 -800 330/08G15 RMK AO2 T00830039
63871K1J0 1J020160110112011101/10/16 11:20:31  5-MIN K1J0 101620Z AUTO 32007KT 10SM OVC024 08/04 A3009 -60 76 -800 320/07 RMK AO2 T00830044
63871K1J0 1J020160110112511101/10/16 11:25:31  5-MIN K1J0 101625Z AUTO 33005KT 10SM OVC024 08/04 A3009 -60 76 -800 330/05 RMK AO2 T00830044
63871K1J0 1J020160110113011701/10/16 11:30:31  5-MIN K1J0 101630Z AUTO 32008G14KT 10SM OVC024 08/04 A3009 -60 73 -800 320/08G14 RMK AO2 T00830039
63871K1J0 1J020160110113511701/10/16 11:35:31  5-MIN K1J0 101635Z AUTO 33006G14KT 10SM OVC024 08/04 A3009 -60 76 -800 330/06G14 RMK AO2 T00830044
63871K1J0 1J020160110114011101/10/16 11:40:31  5-MIN K1J0 101640Z AUTO 32006KT 10SM OVC024 08/04 A3009 -70 73 -800 320/06 RMK AO2 T00830039
63871K1J0 1J020160110114511101/10/16 11:45:31  5-MIN K1J0 101645Z AUTO VRB06KT 10SM OVC022 08/04 A3009 -60 73 -800 VRB/06 RMK AO2 T00830039
63871K1J0 1J020160110115011101/10/16 11:50:31  5-MIN K1J0 101650Z AUTO 32005KT 10SM OVC022 08/04 A3009 -60 76 -900 320/05 RMK AO2 T00780039
63871K1J0 1J020160110115511801/10/16 11:55:31  5-MIN K1J0 101655Z AUTO VRB06KT 10SM OVC021 08/04 A3009 -60 73 -800 VRB/06 RMK AO2 SLP173 T00830039
63871K1J0 1J020160110120011101/10/16 12:00:31  5-MIN K1J0 101700Z AUTO 31006KT 10SM OVC021 08/04 A3009 -70 73 -800 310/06 RMK AO2 T00830039
63871K1J0 1J020160110120511101/10/16 12:05:31  5-MIN K1J0 101705Z AUTO 31006KT 10SM OVC021 08/04 A3009 -70 76 -900 310/06 RMK AO2 T00780039
63871K1J0 1J020160110121011101/10/16 12:10:31  5-MIN K1J0 101710Z AUTO 31005KT 10SM OVC021 08/04 A3009 -60 73 -800 310/05 RMK AO2 T00830039
63871K1J0 1J020160110121511101/10/16 12:15:31  5-MIN K1J0 101715Z AUTO 32007KT 10SM OVC021 08/04 A3009 -60 73 -800 320/07 RMK AO2 T00830039
63871K1J0 1J020160110122011101/10/16 12:20:31  5-MIN K1J0 101720Z AUTO 31006KT 10SM OVC023 08/03 A3009 -60 70 -800 310/06 RMK AO2 T00830033
63871K1J0 1J020160110122511101/10/16 12:25:31  5-MIN K1J0 101725Z AUTO 32006KT 10SM OVC023 08/04 A3008 -60 73 -800 320/06 RMK AO2 T00830039
63871K1J0 1J020160110123011101/10/16 12:30:31  5-MIN K1J0 101730Z AUTO VRB06KT 10SM OVC023 08/03 A3008 -50 70 -800 VRB/06 RMK AO2 T00830033
63871K1J0 1J020160110123511101/10/16 12:35:31  5-MIN K1J0 101735Z AUTO VRB03KT 10SM OVC023 08/04 A3008 -60 73 -800 VRB/03 RMK AO2 T00830039
63871K1J0 1J020160110124011101/10/16 12:40:31  5-MIN K1J0 101740Z AUTO 29004KT 10SM OVC023 08/04 A3008 -60 73 -800 290/04 RMK AO2 T00830039
63871K1J0 1J020160110124511101/10/16 12:45:31  5-MIN K1J0 101745Z AUTO 32006KT 10SM OVC023 08/04 A3008 -60 73 -800 320/06 RMK AO2 T00830039
63871K1J0 1J020160110125011101/10/16 12:50:31  5-MIN K1J0 101750Z AUTO VRB05KT 10SM OVC023 08/04 A3008 -50 73 -800 VRB/05 RMK AO2 T00830039
63871K1J0 1J020160110125513601/10/16 12:55:31  5-MIN K1J0 101755Z AUTO 30004KT 10SM OVC023 08/04 A3008 -50 73 -800 300/04 RMK AO2 SLP169 T00830039 10094 20078 53038
63871K1J0 1J020160110130011101/10/16 13:00:31  5-MIN K1J0 101800Z AUTO VRB05KT 10SM OVC023 08/04 A3008 -50 73 -800 VRB/05 RMK AO2 T00830039
63871K1J0 1J020160110130511101/10/16 13:05:31  5-MIN K1J0 101805Z AUTO VRB03KT 10SM OVC023 08/04 A3008 -60 73 -800 VRB/03 RMK AO2 T00830039
63871K1J0 1J020160110131011101/10/16 13:10:31  5-MIN K1J0 101810Z AUTO VRB04KT 10SM OVC023 08/04 A3008 -50 73 -800 VRB/04 RMK AO2 T00830039
63871K1J0 1J020160110131511101/10/16 13:15:31  5-MIN K1J0 101815Z AUTO 30005KT 10SM OVC023 08/04 A3008 -50 73 -800 300/05 RMK AO2 T00830039
63871K1J0 1J020160110132011101/10/16 13:20:31  5-MIN K1J0 101820Z AUTO 29005KT 10SM OVC024 08/04 A3007 -50 73 -800 290/05 RMK AO2 T00830039
63871K1J0 1J020160110132511101/10/16 13:25:31  5-MIN K1J0 101825Z AUTO VRB04KT 10SM OVC024 09/04 A3007 -50 71 -700 VRB/04 RMK AO2 T00890039
63871K1J0 1J020160110133011101/10/16 13:30:31  5-MIN K1J0 101830Z AUTO 28006KT 10SM OVC026 08/04 A3007 -50 73 -800 280/06 RMK AO2 T00830039
63871K1J0 1J020160110133511101/10/16 13:35:31  5-MIN K1J0 101835Z AUTO 30005KT 10SM OVC026 08/04 A3007 -50 73 -800 300/05 RMK AO2 T00830039
63871K1J0 1J020160110134011101/10/16 13:40:31  5-MIN K1J0 101840Z AUTO 30008KT 10SM OVC026 08/03 A3007 -50 70 -800 300/08 RMK AO2 T00830033
63871K1J0 1J020160110134511101/10/16 13:45:31  5-MIN K1J0 101845Z AUTO VRB04KT 10SM OVC026 08/04 A3007 -50 73 -800 VRB/04 RMK AO2 T00830039
63871K1J0 1J020160110135011101/10/16 13:50:31  5-MIN K1J0 101850Z AUTO VRB06KT 10SM OVC026 09/04 A3007 -50 71 -700 VRB/06 RMK AO2 T00890039
63871K1J0 1J020160110135511801/10/16 13:55:31  5-MIN K1J0 101855Z AUTO 30006KT 10SM OVC026 09/03 A3007 -50 68 -700 300/06 RMK AO2 SLP167 T00890033
63871K1J0 1J020160110140011101/10/16 14:00:31  5-MIN K1J0 101900Z AUTO 31007KT 10SM OVC026 09/03 A3007 -50 68 -700 310/07 RMK AO2 T00890033
63871K1J0 1J020160110140511101/10/16 14:05:31  5-MIN K1J0 101905Z AUTO 31008KT 10SM OVC026 09/03 A3007 -50 68 -700 310/08 RMK AO2 T00890033
63871K1J0 1J020160110141011101/10/16 14:10:31  5-MIN K1J0 101910Z AUTO 32008KT 10SM OVC028 09/03 A3007 -50 68 -700 320/08 RMK AO2 T00890033
63871K1J0 1J020160110141511101/10/16 14:15:31  5-MIN K1J0 101915Z AUTO VRB05KT 10SM OVC028 09/03 A3007 -50 68 -700 VRB/05 RMK AO2 T00890033
63871K1J0 1J020160110142011101/10/16 14:20:31  5-MIN K1J0 101920Z AUTO 32008KT 10SM OVC028 09/03 A3007 -50 68 -700 320/08 RMK AO2 T00890033
63871K1J0 1J020160110142511101/10/16 14:25:31  5-MIN K1J0 101925Z AUTO VRB06KT 10SM OVC028 09/03 A3007 -50 68 -700 VRB/06 RMK AO2 T00890033
63871K1J0 1J020160110143011101/10/16 14:30:31  5-MIN K1J0 101930Z AUTO 31007KT 10SM OVC028 09/03 A3008 -50 65 -700 310/07 RMK AO2 T00890028
63871K1J0 1J020160110143511101/10/16 14:35:31  5-MIN K1J0 101935Z AUTO 32007KT 10SM OVC030 09/03 A3008 -50 68 -700 320/07 RMK AO2 T00890033
63871K1J0 1J020160110144011101/10/16 14:40:31  5-MIN K1J0 101940Z AUTO VRB04KT 10SM OVC030 09/03 A3008 -50 65 -600 VRB/04 RMK AO2 T00940033
63871K1J0 1J020160110144511101/10/16 14:45:31  5-MIN K1J0 101945Z AUTO 29004KT 10SM OVC030 09/03 A3008 -50 65 -600 290/04 RMK AO2 T00940033
63871K1J0 1J020160110145011101/10/16 14:50:31  5-MIN K1J0 101950Z AUTO VRB05KT 10SM OVC030 09/04 A3008 -50 68 -600 VRB/05 RMK AO2 T00940039
63871K1J0 1J020160110145511801/10/16 14:55:31  5-MIN K1J0 101955Z AUTO 00000KT 10SM OVC031 09/03 A3008 -50 65 -600 000/00 RMK AO2 SLP169 T00940033
63871K1J0 1J020160110150011101/10/16 15:00:31  5-MIN K1J0 102000Z AUTO 32006KT 10SM OVC033 09/04 A3007 -50 68 -600 320/06 RMK AO2 T00940039
63871K1J0 1J020160110150511101/10/16 15:05:31  5-MIN K1J0 102005Z AUTO 30007KT 10SM OVC033 09/03 A3007 -50 65 -600 300/07 RMK AO2 T00940033
63871K1J0 1J020160110151011101/10/16 15:10:31  5-MIN K1J0 102010Z AUTO 30006KT 10SM OVC033 09/03 A3007 -50 63 -600 300/06 RMK AO2 T00940028
63871K1J0 1J020160110151511101/10/16 15:15:31  5-MIN K1J0 102015Z AUTO VRB06KT 10SM OVC033 10/03 A3007 -50 60 -600 VRB/06 RMK AO2 T01000028
63871K1J0 1J020160110152011101/10/16 15:20:31  5-MIN K1J0 102020Z AUTO VRB06KT 10SM OVC033 10/03 A3007 -50 60 -600 VRB/06 RMK AO2 T01000028
63871K1J0 1J020160110152511101/10/16 15:25:31  5-MIN K1J0 102025Z AUTO VRB06KT 10SM OVC033 10/03 A3007 -50 63 -600 VRB/06 RMK AO2 T01000033
63871K1J0 1J020160110153011101/10/16 15:30:31  5-MIN K1J0 102030Z AUTO VRB04KT 10SM OVC033 10/03 A3007 -50 60 -600 VRB/04 RMK AO2 T01000028
63871K1J0 1J020160110153511101/10/16 15:35:31  5-MIN K1J0 102035Z AUTO VRB06KT 10SM OVC033 11/03 A3008 -50 61 -500 VRB/06 RMK AO2 T01060033
63871K1J0 1J020160110154011101/10/16 15:40:31  5-MIN K1J0 102040Z AUTO 30005KT 10SM OVC033 11/03 A3008 -50 61 -500 300/05 RMK AO2 T01060033
63871K1J0 1J020160110154511101/10/16 15:45:31  5-MIN K1J0 102045Z AUTO 30007KT 10SM OVC033 11/03 A3008 -50 58 -400 300/07 RMK AO2 T01110033
63871K1J0 1J020160110155011101/10/16 15:50:31  5-MIN K1J0 102050Z AUTO VRB05KT 10SM OVC033 11/03 A3008 -50 58 -500 VRB/05 RMK AO2 T01060028
63871K1J0 1J020160110155512401/10/16 15:55:31  5-MIN K1J0 102055Z AUTO VRB04KT 10SM OVC033 10/03 A3008 -60 60 -600 VRB/04 RMK AO2 SLP171 T01000028 50007
63871K1J0 1J020160110160011101/10/16 16:00:31  5-MIN K1J0 102100Z AUTO 29004KT 10SM OVC033 10/03 A3008 -60 60 -600 290/04 RMK AO2 T01000028
63871K1J0 1J020160110160511101/10/16 16:05:31  5-MIN K1J0 102105Z AUTO 30004KT 10SM OVC033 11/03 A3009 -60 58 -500 300/04 RMK AO2 T01060028
63871K1J0 1J020160110161011101/10/16 16:10:31  5-MIN K1J0 102110Z AUTO VRB06KT 10SM OVC034 11/03 A3009 -60 58 -500 VRB/06 RMK AO2 T01060028
63871K1J0 1J020160110161511101/10/16 16:15:31  5-MIN K1J0 102115Z AUTO 30006KT 10SM BKN034 11/03 A3009 -60 58 -500 300/06 RMK AO2 T01060028
63871K1J0 1J020160110162011101/10/16 16:20:31  5-MIN K1J0 102120Z AUTO 30006KT 10SM BKN034 10/02 A3009 -60 56 -600 300/06 RMK AO2 T01000017
63871K1J0 1J020160110162511101/10/16 16:25:31  5-MIN K1J0 102125Z AUTO 29005KT 10SM SCT034 09/02 A3009 -70 60 -700 290/05 RMK AO2 T00940022
63871K1J0 1J020160110163011101/10/16 16:30:31  5-MIN K1J0 102130Z AUTO VRB04KT 10SM SCT034 09/02 A3010 -70 63 -700 VRB/04 RMK AO2 T00890022
63871K1J0 1J020160110163511101/10/16 16:35:31  5-MIN K1J0 102135Z AUTO 29004KT 10SM FEW035 10/02 A3010 -70 58 -600 290/04 RMK AO2 T01000022
63871K1J0 1J020160110164011101/10/16 16:40:31  5-MIN K1J0 102140Z AUTO VRB05KT 10SM FEW035 10/02 A3010 -70 58 -600 VRB/05 RMK AO2 T01000022
63871K1J0 1J020160110164511101/10/16 16:45:31  5-MIN K1J0 102145Z AUTO 29004KT 10SM FEW036 10/03 A3010 -80 60 -600 290/04 RMK AO2 T01000028
63871K1J0 1J020160110165011101/10/16 16:50:31  5-MIN K1J0 102150Z AUTO VRB05KT 10SM SCT036 10/03 A3010 -80 60 -600 VRB/05 RMK AO2 T01000028
63871K1J0 1J020160110165511801/10/16 16:55:31  5-MIN K1J0 102155Z AUTO 31004KT 10SM BKN035 10/03 A3010 -80 60 -600 310/04 RMK AO2 SLP178 T01000028
63871K1J0 1J020160110170012701/10/16 17:00:31  5-MIN K1J0 102200Z AUTO 32008KT 290V360 10SM BKN035 10/02 A3011 -80 58 -600 320/08 290V360 RMK AO2 T01000022
63871K1J0 1J020160110170511101/10/16 17:05:31  5-MIN K1J0 102205Z AUTO 33008KT 10SM BKN036 09/02 A3011 -80 58 -700 330/08 RMK AO2 T00940017
63871K1J0 1J020160110171011101/10/16 17:10:31  5-MIN K1J0 102210Z AUTO 32007KT 10SM BKN036 09/02 A3012 -90 60 -800 320/07 RMK AO2 T00890017
63871K1J0 1J020160110171511101/10/16 17:15:31  5-MIN K1J0 102215Z AUTO 33008KT 10SM BKN036 09/02 A3012 -90 60 -800 330/08 RMK AO2 T00890017
63871K1J0 1J020160110172011101/10/16 17:20:31  5-MIN K1J0 102220Z AUTO 33008KT 10SM SCT036 08/02 A3012 -90 63 -800 330/08 RMK AO2 T00830017
63871K1J0 1J020160110172511201/10/16 17:25:31  5-MIN K1J0 102225Z AUTO 32005KT 10SM SCT036 08/02 A3012 -100 63 -800 320/05 RMK AO2 T00830017
63871K1J0 1J020160110173011201/10/16 17:30:31  5-MIN K1J0 102230Z AUTO 32006KT 10SM SCT037 08/02 A3013 -100 65 -800 320/06 RMK AO2 T00830022
63871K1J0 1J020160110173511201/10/16 17:35:31  5-MIN K1J0 102235Z AUTO 32008KT 10SM SCT037 08/02 A3013 -100 63 -800 320/08 RMK AO2 T00830017
63871K1J0 1J020160110174011201/10/16 17:40:31  5-MIN K1J0 102240Z AUTO 32005KT 10SM SCT037 08/02 A3014 -110 65 -900 320/05 RMK AO2 T00780017
63871K1J0 1J020160110174511201/10/16 17:45:31  5-MIN K1J0 102245Z AUTO 32005KT 10SM SCT037 08/02 A3013 -110 65 -900 320/05 RMK AO2 T00780017
63871K1J0 1J020160110175011201/10/16 17:50:31  5-MIN K1J0 102250Z AUTO 31006KT 10SM SCT036 08/02 A3014 -110 65 -900 310/06 RMK AO2 T00780017
63871K1J0 1J020160110175511901/10/16 17:55:31  5-MIN K1J0 102255Z AUTO 32006KT 10SM BKN036 08/02 A3014 -110 65 -900 320/06 RMK AO2 SLP193 T00780017
63871K1J0 1J020160110180011201/10/16 18:00:31  5-MIN K1J0 102300Z AUTO VRB04KT 10SM BKN036 08/02 A3014 -120 65 -900 VRB/04 RMK AO2 T00780017
63871K1J0 1J020160110180511201/10/16 18:05:31  5-MIN K1J0 102305Z AUTO 31006KT 10SM BKN036 08/02 A3015 -120 65 -900 310/06 RMK AO2 T00780017
63871K1J0 1J020160110181011301/10/16 18:10:31  5-MIN K1J0 102310Z AUTO 32008KT 10SM BKN036 07/01 A3015 -120 65 -1000 320/08 RMK AO2 T00720011
63871K1J0 1J020160110181511301/10/16 18:15:31  5-MIN K1J0 102315Z AUTO 32006KT 10SM BKN036 07/02 A3015 -120 68 -1000 320/06 RMK AO2 T00720017
63871K1J0 1J020160110182011301/10/16 18:20:31  5-MIN K1J0 102320Z AUTO VRB06KT 10SM BKN036 07/02 A3015 -120 68 -1000 VRB/06 RMK AO2 T00720017
63871K1J0 1J020160110182511301/10/16 18:25:31  5-MIN K1J0 102325Z AUTO 32006KT 10SM SCT036 07/01 A3015 -120 65 -1000 320/06 RMK AO2 T00720011
63871K1J0 1J020160110183011301/10/16 18:30:31  5-MIN K1J0 102330Z AUTO 32006KT 10SM SCT036 07/01 A3015 -120 67 -1100 320/06 RMK AO2 T00670011
63871K1J0 1J020160110183511301/10/16 18:35:31  5-MIN K1J0 102335Z AUTO 32006KT 10SM FEW036 07/01 A3015 -120 67 -1100 320/06 RMK AO2 T00670011
63871K1J0 1J020160110184011301/10/16 18:40:31  5-MIN K1J0 102340Z AUTO VRB06KT 10SM FEW036 07/01 A3015 -120 65 -1100 VRB/06 RMK AO2 T00670006
63871K1J0 1J020160110184511301/10/16 18:45:31  5-MIN K1J0 102345Z AUTO 31005KT 10SM FEW036 07/01 A3015 -120 65 -1100 310/05 RMK AO2 T00670006
63871K1J0 1J020160110185011301/10/16 18:50:31  5-MIN K1J0 102350Z AUTO 32004KT 10SM FEW035 07/01 A3015 -120 65 -1100 320/04 RMK AO2 T00670006
63871K1J0 1J020160110185513801/10/16 18:55:31  5-MIN K1J0 102355Z AUTO 31004KT 10SM FEW035 07/01 A3016 -130 67 -1100 310/04 RMK AO2 SLP197 T00670011 10111 20067 53002
63871K1J0 1J020160110190011301/10/16 19:00:31  5-MIN K1J0 110000Z AUTO 00000KT 10SM FEW034 06/01 A3016 -130 70 -1100 000/00 RMK AO2 T00610011
63871K1J0 1J020160110190511301/10/16 19:05:31  5-MIN K1J0 110005Z AUTO 00000KT 10SM FEW034 06/02 A3016 -130 73 -1100 000/00 RMK AO2 T00610017
63871K1J0 1J020160110191011301/10/16 19:10:31  5-MIN K1J0 110010Z AUTO 31005KT 10SM FEW034 06/01 A3016 -130 70 -1100 310/05 RMK AO2 T00610011
63871K1J0 1J020160110191511301/10/16 19:15:31  5-MIN K1J0 110015Z AUTO 32005KT 10SM FEW034 06/01 A3016 -130 70 -1200 320/05 RMK AO2 T00610011
63871K1J0 1J020160110192011001/10/16 19:20:31  5-MIN K1J0 110020Z AUTO 32005KT 10SM CLR 06/01 A3016 -130 70 -1200 320/05 RMK AO2 T00610011
63871K1J0 1J020160110192511001/10/16 19:25:31  5-MIN K1J0 110025Z AUTO 32004KT 10SM CLR 06/01 A3016 -130 67 -1200 320/04 RMK AO2 T00610006
63871K1J0 1J020160110193011001/10/16 19:30:31  5-MIN K1J0 110030Z AUTO 32004KT 10SM CLR 06/01 A3016 -130 73 -1200 320/04 RMK AO2 T00560011
63871K1J0 1J020160110193511001/10/16 19:35:31  5-MIN K1J0 110035Z AUTO VRB04KT 10SM CLR 06/01 A3017 -140 73 -1200 VRB/04 RMK AO2 T00560011
63871K1J0 1J020160110194011001/10/16 19:40:31  5-MIN K1J0 110040Z AUTO VRB05KT 10SM CLR 06/01 A3017 -140 73 -1200 VRB/05 RMK AO2 T00560011
63871K1J0 1J020160110194511001/10/16 19:45:31  5-MIN K1J0 110045Z AUTO 32005KT 10SM CLR 06/01 A3017 -140 70 -1200 320/05 RMK AO2 T00560006
63871K1J0 1J020160110195011001/10/16 19:50:31  5-MIN K1J0 110050Z AUTO 32004KT 10SM CLR 06/01 A3017 -140 70 -1200 320/04 RMK AO2 T00560006
63871K1J0 1J020160110195511701/10/16 19:55:31  5-MIN K1J0 110055Z AUTO 32004KT 10SM CLR 06/01 A3017 -140 70 -1200 320/04 RMK AO2 SLP202 T00560006
63871K1J0 1J020160110200011001/10/16 20:00:31  5-MIN K1J0 110100Z AUTO VRB04KT 10SM CLR 06/01 A3017 -140 70 -1200 VRB/04 RMK AO2 T00560006
63871K1J0 1J020160110200511001/10/16 20:05:31  5-MIN K1J0 110105Z AUTO 32005KT 10SM CLR 06/01 A3017 -140 70 -1200 320/05 RMK AO2 T00560006
63871K1J0 1J020160110201011001/10/16 20:10:31  5-MIN K1J0 110110Z AUTO 32005KT 10SM CLR 05/01 A3017 -140 73 -1300 320/05 RMK AO2 T00500006
63871K1J0 1J020160110201511001/10/16 20:15:31  5-MIN K1J0 110115Z AUTO 32005KT 10SM CLR 05/01 A3018 -140 73 -1300 320/05 RMK AO2 T00500006
63871K1J0 1J020160110202011001/10/16 20:20:31  5-MIN K1J0 110120Z AUTO 32005KT 10SM CLR 05/01 A3018 -150 73 -1300 320/05 RMK AO2 T00500006
63871K1J0 1J020160110202511001/10/16 20:25:31  5-MIN K1J0 110125Z AUTO 32005KT 10SM CLR 05/01 A3018 -140 73 -1300 320/05 RMK AO2 T00500006
63871K1J0 1J020160110203011001/10/16 20:30:31  5-MIN K1J0 110130Z AUTO 33005KT 10SM CLR 05/00 A3018 -140 70 -1300 330/05 RMK AO2 T00500000
63871K1J0 1J020160110203511001/10/16 20:35:31  5-MIN K1J0 110135Z AUTO 32004KT 10SM CLR 05/00 A3018 -150 70 -1300 320/04 RMK AO2 T00500000
63871K1J0 1J020160110204011001/10/16 20:40:31  5-MIN K1J0 110140Z AUTO 33005KT 10SM CLR 05/00 A3018 -150 70 -1300 330/05 RMK AO2 T00500000
63871K1J0 1J020160110204511001/10/16 20:45:31  5-MIN K1J0 110145Z AUTO 32004KT 10SM CLR 05/00 A3018 -150 70 -1300 320/04 RMK AO2 T00500000
63871K1J0 1J020160110205011001/10/16 20:50:31  5-MIN K1J0 110150Z AUTO 32006KT 10SM CLR 05/00 A3018 -150 70 -1300 320/06 RMK AO2 T00500000
63871K1J0 1J020160110205511701/10/16 20:55:31  5-MIN K1J0 110155Z AUTO 33006KT 10SM CLR 05/00 A3018 -150 70 -1300 330/06 RMK AO2 SLP206 T00500000
63871K1J0 1J020160110210011001/10/16 21:00:31  5-MIN K1J0 110200Z AUTO 32004KT 10SM CLR 04/00 A3019 -160 73 -1400 320/04 RMK AO2 T00440000
63871K1J0 1J020160110210511001/10/16 21:05:31  5-MIN K1J0 110205Z AUTO 32005KT 10SM CLR 04/00 A3019 -160 73 -1400 320/05 RMK AO2 T00440000
63871K1J0 1J020160110211011001/10/16 21:10:31  5-MIN K1J0 110210Z AUTO 32005KT 10SM CLR 04/00 A3019 -160 73 -1400 320/05 RMK AO2 T00440000
63871K1J0 1J020160110211511001/10/16 21:15:31  5-MIN K1J0 110215Z AUTO 32004KT 10SM CLR 04/00 A3019 -160 73 -1400 320/04 RMK AO2 T00440000
63871K1J0 1J020160110212011001/10/16 21:20:31  5-MIN K1J0 110220Z AUTO 32004KT 10SM CLR 04/00 A3019 -160 73 -1400 320/04 RMK AO2 T00440000
63871K1J0 1J020160110212511001/10/16 21:25:31  5-MIN K1J0 110225Z AUTO 32005KT 10SM CLR 04/00 A3019 -160 73 -1400 320/05 RMK AO2 T00440000
63871K1J0 1J020160110213011001/10/16 21:30:31  5-MIN K1J0 110230Z AUTO 32004KT 10SM CLR 04/00 A3020 -160 73 -1400 320/04 RMK AO2 T00440000
63871K1J0 1J020160110213511001/10/16 21:35:31  5-MIN K1J0 110235Z AUTO 31004KT 10SM CLR 04/00 A3020 -170 73 -1400 310/04 RMK AO2 T00440000
63871K1J0 1J020160110214011001/10/16 21:40:31  5-MIN K1J0 110240Z AUTO 32004KT 10SM CLR 04/00 A3020 -170 73 -1400 320/04 RMK AO2 T00440000
63871K1J0 1J020160110214511001/10/16 21:45:31  5-MIN K1J0 110245Z AUTO 32003KT 10SM CLR 04/00 A3020 -170 73 -1400 320/03 RMK AO2 T00440000
63871K1J0 1J020160110215011001/10/16 21:50:31  5-MIN K1J0 110250Z AUTO 32004KT 10SM CLR 04/00 A3021 -170 76 -1500 320/04 RMK AO2 T00390000
63871K1J0 1J020160110215512301/10/16 21:55:31  5-MIN K1J0 110255Z AUTO 32004KT 10SM CLR 04/00 A3021 -170 76 -1500 320/04 RMK AO2 SLP214 T00390000 51025
63871K1J0 1J020160110220011001/10/16 22:00:31  5-MIN K1J0 110300Z AUTO 32005KT 10SM CLR 04/00 A3021 -170 76 -1500 320/05 RMK AO2 T00390000
63871K1J0 1J020160110220511001/10/16 22:05:31  5-MIN K1J0 110305Z AUTO 32004KT 10SM CLR 04/00 A3021 -180 76 -1500 320/04 RMK AO2 T00390000
63871K1J0 1J020160110221011001/10/16 22:10:31  5-MIN K1J0 110310Z AUTO 32005KT 10SM CLR 04/00 A3021 -170 76 -1500 320/05 RMK AO2 T00390000
63871K1J0 1J020160110221511001/10/16 22:15:31  5-MIN K1J0 110315Z AUTO 32005KT 10SM CLR 04/00 A3021 -170 76 -1500 320/05 RMK AO2 T00390000
63871K1J0 1J020160110222011001/10/16 22:20:31  5-MIN K1J0 110320Z AUTO 32005KT 10SM CLR 04/00 A3021 -180 76 -1500 320/05 RMK AO2 T00390000
63871K1J0 1J020160110222511101/10/16 22:25:31  5-MIN K1J0 110325Z AUTO 32003KT 10SM CLR 04/M01 A3021 -180 73 -1500 320/03 RMK AO2 T00391006
63871K1J0 1J020160110223011101/10/16 22:30:31  5-MIN K1J0 110330Z AUTO 31004KT 10SM CLR 04/M01 A3022 -180 73 -1500 310/04 RMK AO2 T00391006
63871K1J0 1J020160110223511001/10/16 22:35:31  5-MIN K1J0 110335Z AUTO 31003KT 10SM CLR 04/00 A3022 -180 76 -1500 310/03 RMK AO2 T00390000
63871K1J0 1J020160110224011001/10/16 22:40:31  5-MIN K1J0 110340Z AUTO 32003KT 10SM CLR 03/00 A3022 -180 79 -1600 320/03 RMK AO2 T00330000
63871K1J0 1J020160110224511001/10/16 22:45:31  5-MIN K1J0 110345Z AUTO 32005KT 10SM CLR 03/00 A3022 -180 79 -1600 320/05 RMK AO2 T00330000
63871K1J0 1J020160110225011001/10/16 22:50:31  5-MIN K1J0 110350Z AUTO 32004KT 10SM CLR 03/00 A3022 -180 79 -1600 320/04 RMK AO2 T00330000
63871K1J0 1J020160110225511701/10/16 22:55:31  5-MIN K1J0 110355Z AUTO 31003KT 10SM CLR 03/00 A3022 -180 79 -1600 310/03 RMK AO2 SLP219 T00330000
63871K1J0 1J020160110230011001/10/16 23:00:31  5-MIN K1J0 110400Z AUTO 00000KT 10SM CLR 03/00 A3022 -190 79 -1600 000/00 RMK AO2 T00330000
63871K1J0 1J020160110230511001/10/16 23:05:31  5-MIN K1J0 110405Z AUTO 32003KT 10SM CLR 03/00 A3022 -180 82 -1600 320/03 RMK AO2 T00280000
63871K1J0 1J020160110231011001/10/16 23:10:31  5-MIN K1J0 110410Z AUTO 32003KT 10SM CLR 03/00 A3022 -180 82 -1600 320/03 RMK AO2 T00280000
63871K1J0 1J020160110231511001/10/16 23:15:31  5-MIN K1J0 110415Z AUTO 33004KT 10SM CLR 03/00 A3021 -180 82 -1600 330/04 RMK AO2 T00280000
63871K1J0 1J020160110232011001/10/16 23:20:31  5-MIN K1J0 110420Z AUTO 32004KT 10SM CLR 03/00 A3021 -180 82 -1600 320/04 RMK AO2 T00280000
63871K1J0 1J020160110232511101/10/16 23:25:31  5-MIN K1J0 110425Z AUTO 32004KT 10SM CLR 03/M01 A3021 -180 79 -1600 320/04 RMK AO2 T00281006
63871K1J0 1J020160110233011001/10/16 23:30:31  5-MIN K1J0 110430Z AUTO 32004KT 10SM CLR 03/00 A3022 -180 82 -1600 320/04 RMK AO2 T00280000
63871K1J0 1J020160110233511001/10/16 23:35:31  5-MIN K1J0 110435Z AUTO 33004KT 10SM CLR 03/00 A3021 -180 82 -1600 330/04 RMK AO2 T00280000
63871K1J0 1J020160110234011101/10/16 23:40:31  5-MIN K1J0 110440Z AUTO 33004KT 10SM CLR 03/M01 A3021 -180 79 -1600 330/04 RMK AO2 T00281006
63871K1J0 1J020160110234511101/10/16 23:45:31  5-MIN K1J0 110445Z AUTO 33004KT 10SM CLR 02/M01 A3021 -180 82 -1700 330/04 RMK AO2 T00221006
63871K1J0 1J020160110235011101/10/16 23:50:31  5-MIN K1J0 110450Z AUTO 32004KT 10SM CLR 02/M01 A3022 -180 82 -1700 320/04 RMK AO2 T00221006
63871K1J0 1J020160110235512801/10/16 23:55:31  5-MIN K1J0 110455Z AUTO 31004KT 10SM CLR 02/M01 A3022 -190 82 -1700 310/04 RMK AO2 SLP221 T00221006 401610022
63871K1J0 1J020160111000011101/11/16 00:00:31  5-MIN K1J0 110500Z AUTO 32004KT 10SM CLR 02/M01 A3022 -190 82 -1700 320/04 RMK AO2 T00221006
63871K1J0 1J020160111000511101/11/16 00:05:31  5-MIN K1J0 110505Z AUTO 32004KT 10SM CLR 02/M01 A3022 -180 82 -1700 320/04 RMK AO2 T00221006
63871K1J0 1J020160111001011101/11/16 00:10:31  5-MIN K1J0 110510Z AUTO 32003KT 10SM CLR 02/M01 A3022 -180 82 -1700 320/03 RMK AO2 T00221006
63871K1J0 1J020160111001511101/11/16 00:15:31  5-MIN K1J0 110515Z AUTO 32003KT 10SM CLR 02/M01 A3022 -190 82 -1700 320/03 RMK AO2 T00221006
63871K1J0 1J020160111002011101/11/16 00:20:31  5-MIN K1J0 110520Z AUTO 31003KT 10SM CLR 02/M01 A3022 -190 82 -1700 310/03 RMK AO2 T00221006
63871K1J0 1J020160112073511201/12/16 07:35:31  5-MIN K1J0 121235Z AUTO 00000KT 10SM CLR M01/M03 A3026 -220 88 -2200 000/00 RMK AO2 T10111028
63871K1J0 1J020160112074011201/12/16 07:40:31  5-MIN K1J0 121240Z AUTO 00000KT 10SM CLR M01/M02 A3025 -210 92 -2200 000/00 RMK AO2 T10111022
63871K1J0 1J020160112074511201/12/16 07:45:31  5-MIN K1J0 121245Z AUTO 00000KT 10SM CLR M01/M02 A3025 -220 92 -2200 000/00 RMK AO2 T10111022
63871K1J0 1J020160112075011201/12/16 07:50:31  5-MIN K1J0 121250Z AUTO 00000KT 10SM CLR M01/M02 A3026 -230 92 -2200 000/00 RMK AO2 T10111022
63871K1J0 1J020160112075511901/12/16 07:55:31  5-MIN K1J0 121255Z AUTO 00000KT 10SM CLR M01/M02 A3026 -230 92 -2100 000/00 RMK AO2 SLP234 T10061017
63871K1J0 1J020160112080011201/12/16 08:00:31  5-MIN K1J0 121300Z AUTO 00000KT 10SM CLR M01/M02 A3026 -230 96 -2200 000/00 RMK AO2 T10111017
63871K1J0 1J020160112080511201/12/16 08:05:31  5-MIN K1J0 121305Z AUTO 00000KT 10SM CLR M01/M02 A3026 -220 92 -2100 000/00 RMK AO2 T10061017
63871K1J0 1J020160112081011201/12/16 08:10:31  5-MIN K1J0 121310Z AUTO 00000KT 10SM CLR M01/M02 A3027 -230 92 -2100 000/00 RMK AO2 T10061017
63871K1J0 1J020160112081511101/12/16 08:15:31  5-MIN K1J0 121315Z AUTO 00000KT 10SM CLR 00/M01 A3027 -230 92 -2000 000/00 RMK AO2 T00001011
63871K1J0 1J020160112082011101/12/16 08:20:31  5-MIN K1J0 121320Z AUTO 00000KT 10SM CLR 00/M01 A3027 -230 92 -2000 000/00 RMK AO2 T00001011
63871K1J0 1J020160112082511101/12/16 08:25:31  5-MIN K1J0 121325Z AUTO 00000KT 10SM CLR 00/M01 A3027 -230 92 -2000 000/00 RMK AO2 T00001011
63871K1J0 1J020160112083011101/12/16 08:30:31  5-MIN K1J0 121330Z AUTO 00000KT 10SM CLR 01/M01 A3027 -230 92 -2000 000/00 RMK AO2 T00061006
63871K1J0 1J020160112083511001/12/16 08:35:31  5-MIN K1J0 121335Z AUTO 00000KT 10SM CLR 01/00 A3027 -230 96 -2000 000/00 RMK AO2 T00060000
63871K1J0 1J020160112084011001/12/16 08:40:31  5-MIN K1J0 121340Z AUTO 00000KT 10SM CLR 01/00 A3028 -240 96 -2000 000/00 RMK AO2 T00060000
63871K1J0 1J020160112084511001/12/16 08:45:31  5-MIN K1J0 121345Z AUTO 00000KT 10SM CLR 01/00 A3028 -240 92 -1900 000/00 RMK AO2 T00110000
63871K1J0 1J020160112085011001/12/16 08:50:31  5-MIN K1J0 121350Z AUTO 00000KT 10SM CLR 01/00 A3028 -240 92 -1900 000/00 RMK AO2 T00110000
63871K1J0 1J020160112085511701/12/16 08:55:31  5-MIN K1J0 121355Z AUTO 00000KT 10SM CLR 02/00 A3028 -240 85 -1800 000/00 RMK AO2 SLP241 T00220000
63871K1J0 1J020160112090011001/12/16 09:00:31  5-MIN K1J0 121400Z AUTO 00000KT 10SM CLR 03/00 A3029 -250 82 -1700 000/00 RMK AO2 T00280000
63871K1J0 1J020160112090511001/12/16 09:05:31  5-MIN K1J0 121405Z AUTO 00000KT 10SM CLR 03/00 A3029 -250 82 -1700 000/00 RMK AO2 T00280000
63871K1J0 1J020160112091011001/12/16 09:10:31  5-MIN K1J0 121410Z AUTO 00000KT 10SM CLR 03/01 A3029 -250 85 -1700 000/00 RMK AO2 T00280006
63871K1J0 1J020160112091511001/12/16 09:15:31  5-MIN K1J0 121415Z AUTO 00000KT 10SM CLR 03/01 A3029 -250 82 -1600 000/00 RMK AO2 T00330006
63871K1J0 1J020160112092011001/12/16 09:20:31  5-MIN K1J0 121420Z AUTO 00000KT 10SM CLR 03/00 A3029 -240 79 -1600 000/00 RMK AO2 T00330000
63871K1J0 1J020160112092511001/12/16 09:25:31  5-MIN K1J0 121425Z AUTO 00000KT 10SM CLR 04/01 A3029 -250 82 -1600 000/00 RMK AO2 T00390011
63871K1J0 1J020160112093011001/12/16 09:30:31  5-MIN K1J0 121430Z AUTO 00000KT 10SM CLR 04/01 A3029 -250 82 -1600 000/00 RMK AO2 T00390011
63871K1J0 1J020160112093511001/12/16 09:35:31  5-MIN K1J0 121435Z AUTO 00000KT 10SM CLR 05/01 A3029 -250 73 -1400 000/00 RMK AO2 T00500006
63871K1J0 1J020160112094011001/12/16 09:40:31  5-MIN K1J0 121440Z AUTO 00000KT 10SM CLR 06/00 A3029 -250 67 -1400 000/00 RMK AO2 T00560000
63871K1J0 1J020160112094511101/12/16 09:45:31  5-MIN K1J0 121445Z AUTO 00000KT 10SM CLR 06/M01 A3029 -250 62 -1300 000/00 RMK AO2 T00611006
63871K1J0 1J020160112095011001/12/16 09:50:31  5-MIN K1J0 121450Z AUTO 00000KT 10SM CLR 06/00 A3029 -250 65 -1300 000/00 RMK AO2 T00610000
63871K1J0 1J020160112095512301/12/16 09:55:31  5-MIN K1J0 121455Z AUTO 00000KT 10SM CLR 07/00 A3029 -250 62 -1200 000/00 RMK AO2 SLP245 T00670000 53008
63871K1J0 1J020160112100011001/12/16 10:00:31  5-MIN K1J0 121500Z AUTO 00000KT 10SM CLR 07/00 A3030 -250 60 -1200 000/00 RMK AO2 T00720000
63871K1J0 1J020160112100511001/12/16 10:05:31  5-MIN K1J0 121505Z AUTO 00000KT 10SM CLR 07/01 A3030 -260 62 -1200 000/00 RMK AO2 T00720006
63871K1J0 1J020160112101011001/12/16 10:10:31  5-MIN K1J0 121510Z AUTO 00000KT 10SM CLR 08/01 A3030 -260 60 -1100 000/00 RMK AO2 T00780006
63871K1J0 1J020160112101511101/12/16 10:15:31  5-MIN K1J0 121515Z AUTO 00000KT 10SM CLR 08/M01 A3030 -260 53 -1100 000/00 RMK AO2 T00781011
63871K1J0 1J020160112102011101/12/16 10:20:31  5-MIN K1J0 121520Z AUTO VRB03KT 10SM CLR 08/M02 A3030 -260 49 -1000 VRB/03 RMK AO2 T00831017
63871K1J0 1J020160112102511101/12/16 10:25:31  5-MIN K1J0 121525Z AUTO 00000KT 10SM CLR 08/M03 A3030 -260 45 -1000 000/00 RMK AO2 T00831028
63871K1J0 1J020160112103011101/12/16 10:30:31  5-MIN K1J0 121530Z AUTO VRB03KT 10SM CLR 09/M03 A3031 -260 43 -1000 VRB/03 RMK AO2 T00891028
63871K1J0 1J020160112103511001/12/16 10:35:31  5-MIN K1J0 121535Z AUTO 00000KT 10SM CLR 09/M03 A3031 -260 42 -900 000/00 RMK AO2 T00941028
63871K1J0 1J020160112103511201/12/16 10:35:31  5-MIN K1J0 121635Z AUTO VRB04KT 10SM CLR 12/M03 A3030 -260 35 -600 VRB/04 RMK AO2 T01171033 $
63871K1J0 1J020160112104011001/12/16 10:40:31  5-MIN K1J0 121540Z AUTO VRB03KT 10SM CLR 10/M03 A3031 -270 39 -800 VRB/03 RMK AO2 T01001033
63871K1J0 1J020160112104011201/12/16 10:40:31  5-MIN K1J0 121640Z AUTO VRB03KT 10SM CLR 12/M04 A3030 -260 32 -600 VRB/03 RMK AO2 T01221039 $
63871K1J0 1J020160112104511001/12/16 10:45:31  5-MIN K1J0 121545Z AUTO VRB04KT 10SM CLR 10/M04 A3031 -270 37 -800 VRB/04 RMK AO2 T01001039
63871K1J0 1J020160112104511201/12/16 10:45:31  5-MIN K1J0 121645Z AUTO 31006KT 10SM CLR 12/M05 A3030 -260 30 -600 310/06 RMK AO2 T01171050 $
63871K1J0 1J020160112105011001/12/16 10:50:31  5-MIN K1J0 121550Z AUTO 00000KT 10SM CLR 11/M03 A3031 -270 39 -800 000/00 RMK AO2 T01061028
63871K1J0 1J020160112105011201/12/16 10:50:31  5-MIN K1J0 121650Z AUTO VRB04KT 10SM CLR 12/M05 A3030 -260 29 -600 VRB/04 RMK AO2 T01221050 $
63871K1J0 1J020160112105510901/12/16 10:55:31  5-MIN K1J0 121655Z AUTO 10SM CLR 12/M05 A3030 -250 29 -600 M /M RMK AO2 SLP245 T01221050 $
63871K1J0 1J020160112105511701/12/16 10:55:31  5-MIN K1J0 121555Z AUTO 31003KT 10SM CLR 11/M03 A3031 -270 37 -800 310/03 RMK AO2 SLP250 T01061033
63871K1J0 1J020160112110011001/12/16 11:00:31  5-MIN K1J0 121600Z AUTO VRB04KT 10SM CLR 11/M03 A3031 -270 39 -800 VRB/04 RMK AO2 T01061028
63871K1J0 1J020160112110011201/12/16 11:00:31  5-MIN K1J0 121700Z AUTO 33006KT 10SM CLR 12/M06 A3029 -250 28 -600 330/06 RMK AO2 T01221056 $
63871K1J0 1J020160112110511001/12/16 11:05:31  5-MIN K1J0 121605Z AUTO 31004KT 10SM CLR 11/M03 A3031 -270 37 -700 310/04 RMK AO2 T01111028
63871K1J0 1J020160112110511201/12/16 11:05:31  5-MIN K1J0 121705Z AUTO 00000KT 10SM CLR 12/M06 A3029 -250 28 -600 000/00 RMK AO2 T01221056 $
63871K1J0 1J020160112111011001/12/16 11:10:31  5-MIN K1J0 121610Z AUTO VRB05KT 10SM CLR 11/M03 A3031 -270 37 -800 VRB/05 RMK AO2 T01061033
63871K1J0 1J020160112111011201/12/16 11:10:31  5-MIN K1J0 121710Z AUTO VRB03KT 10SM CLR 12/M06 A3029 -250 28 -600 VRB/03 RMK AO2 T01221056 $
63871K1J0 1J020160112111511001/12/16 11:15:31  5-MIN K1J0 121615Z AUTO 31006KT 10SM CLR 11/M03 A3031 -270 37 -700 310/06 RMK AO2 T01111028
63871K1J0 1J020160112111511201/12/16 11:15:31  5-MIN K1J0 121715Z AUTO 31004KT 10SM CLR 13/M05 A3028 -240 28 -500 310/04 RMK AO2 T01281050 $
63871K1J0 1J020160112112011001/12/16 11:20:31  5-MIN K1J0 121620Z AUTO 30004KT 10SM CLR 11/M02 A3031 -270 39 -700 300/04 RMK AO2 T01111022
63871K1J0 1J020160112112011201/12/16 11:20:31  5-MIN K1J0 121720Z AUTO 28004KT 10SM CLR 13/M05 A3028 -240 28 -500 280/04 RMK AO2 T01281050 $
63871K1J0 1J020160112112511001/12/16 11:25:31  5-MIN K1J0 121625Z AUTO VRB03KT 10SM CLR 12/M03 A3031 -270 36 -600 VRB/03 RMK AO2 T01171028
63871K1J0 1J020160112112511201/12/16 11:25:31  5-MIN K1J0 121725Z AUTO VRB03KT 10SM CLR 13/M06 A3028 -240 27 -500 VRB/03 RMK AO2 T01281056 $
63871K1J0 1J020160112113011001/12/16 11:30:31  5-MIN K1J0 121630Z AUTO 27004KT 10SM CLR 11/M03 A3031 -270 36 -700 270/04 RMK AO2 T01111033
63871K1J0 1J020160112113011201/12/16 11:30:31  5-MIN K1J0 121730Z AUTO 00000KT 10SM CLR 13/M05 A3027 -230 28 -500 000/00 RMK AO2 T01281050 $
63871K1J0 1J020160112113511201/12/16 11:35:31  5-MIN K1J0 121735Z AUTO 31004KT 10SM CLR 13/M06 A3027 -230 27 -500 310/04 RMK AO2 T01281056 $
63871K1J0 1J020160112114011201/12/16 11:40:31  5-MIN K1J0 121740Z AUTO VRB05KT 10SM CLR 13/M05 A3027 -230 28 -500 VRB/05 RMK AO2 T01281050 $
63871K1J0 1J020160112114511201/12/16 11:45:31  5-MIN K1J0 121745Z AUTO 28004KT 10SM CLR 13/M06 A3027 -230 26 -400 280/04 RMK AO2 T01331056 $
63871K1J0 1J020160112115011201/12/16 11:50:31  5-MIN K1J0 121750Z AUTO 30004KT 10SM CLR 14/M05 A3026 -220 26 -300 300/04 RMK AO2 T01391050 $
63871K1J0 1J020160112115513701/12/16 11:55:31  5-MIN K1J0 121755Z AUTO VRB05KT 10SM CLR 13/M07 A3026 -220 24 -400 VRB/05 RMK AO2 SLP232 T01331067 10139 21017 51015 $
63871K1J0 1J020160112120011201/12/16 12:00:31  5-MIN K1J0 121800Z AUTO 31006KT 10SM CLR 13/M06 A3025 -220 26 -400 310/06 RMK AO2 T01331056 $
63871K1J0 1J020160112120511201/12/16 12:05:31  5-MIN K1J0 121805Z AUTO 32005KT 10SM CLR 13/M06 A3025 -210 26 -400 320/05 RMK AO2 T01331056 $
63871K1J0 1J020160112121011201/12/16 12:10:31  5-MIN K1J0 121810Z AUTO 29005KT 10SM CLR 13/M06 A3025 -210 26 -400 290/05 RMK AO2 T01331056 $
63871K1J0 1J020160112121511201/12/16 12:15:31  5-MIN K1J0 121815Z AUTO VRB03KT 10SM CLR 14/M06 A3024 -210 25 -300 VRB/03 RMK AO2 T01391056 $
63871K1J0 1J020160112122011201/12/16 12:20:31  5-MIN K1J0 121820Z AUTO VRB03KT 10SM CLR 13/M06 A3024 -200 26 -400 VRB/03 RMK AO2 T01331056 $
63871K1J0 1J020160112122511201/12/16 12:25:31  5-MIN K1J0 121825Z AUTO VRB06KT 10SM CLR 14/M04 A3024 -200 27 -300 VRB/06 RMK AO2 T01391044 $
63871K1J0 1J020160112123011201/12/16 12:30:31  5-MIN K1J0 121830Z AUTO 31005KT 10SM CLR 14/M05 A3023 -200 26 -300 310/05 RMK AO2 T01391050 $
63871K1J0 1J020160112123511201/12/16 12:35:31  5-MIN K1J0 121835Z AUTO VRB03KT 10SM CLR 14/M04 A3023 -190 27 -300 VRB/03 RMK AO2 T01391044 $
63871K1J0 1J020160112124011201/12/16 12:40:31  5-MIN K1J0 121840Z AUTO VRB04KT 10SM CLR 14/M05 A3023 -190 26 -300 VRB/04 RMK AO2 T01391050 $
63871K1J0 1J020160112124511201/12/16 12:45:31  5-MIN K1J0 121845Z AUTO VRB04KT 10SM CLR 14/M04 A3022 -190 26 -200 VRB/04 RMK AO2 T01441044 $
63871K1J0 1J020160112125011201/12/16 12:50:31  5-MIN K1J0 121850Z AUTO VRB04KT 10SM CLR 14/M05 A3022 -190 25 -200 VRB/04 RMK AO2 T01441050 $
63871K1J0 1J020160112125511901/12/16 12:55:31  5-MIN K1J0 121855Z AUTO VRB06KT 10SM CLR 14/M04 A3022 -190 26 -200 VRB/06 RMK AO2 SLP219 T01441044 $
63871K1J0 1J020160112130011201/12/16 13:00:31  5-MIN K1J0 121900Z AUTO 31007KT 10SM CLR 14/M04 A3022 -180 28 -200 310/07 RMK AO2 T01441039 $
63871K1J0 1J020160112130511201/12/16 13:05:31  5-MIN K1J0 121905Z AUTO 31006KT 10SM CLR 14/M04 A3021 -180 27 -300 310/06 RMK AO2 T01391044 $
63871K1J0 1J020160112131011201/12/16 13:10:31  5-MIN K1J0 121910Z AUTO VRB05KT 10SM CLR 14/M04 A3021 -180 28 -200 VRB/05 RMK AO2 T01441039 $
63871K1J0 1J020160112131511201/12/16 13:15:31  5-MIN K1J0 121915Z AUTO VRB04KT 10SM CLR 14/M03 A3021 -180 29 -200 VRB/04 RMK AO2 T01441033 $
63871K1J0 1J020160112132011201/12/16 13:20:31  5-MIN K1J0 121920Z AUTO 31006KT 10SM CLR 14/M03 A3021 -180 30 -200 310/06 RMK AO2 T01441028 $
63871K1J0 1J020160112132511201/12/16 13:25:31  5-MIN K1J0 121925Z AUTO 34007KT 10SM CLR 14/M03 A3021 -170 29 -200 340/07 RMK AO2 T01441033 $
63871K1J0 1J020160112133011201/12/16 13:30:31  5-MIN K1J0 121930Z AUTO 32007KT 10SM CLR 14/M03 A3021 -170 30 -200 320/07 RMK AO2 T01441028 $
63871K1J0 1J020160112133511201/12/16 13:35:31  5-MIN K1J0 121935Z AUTO VRB06KT 10SM CLR 14/M03 A3021 -170 30 -200 VRB/06 RMK AO2 T01441028 $
63871K1J0 1J020160112134011201/12/16 13:40:31  5-MIN K1J0 121940Z AUTO VRB04KT 10SM CLR 15/M03 A3021 -170 29 -100 VRB/04 RMK AO2 T01501028 $
63871K1J0 1J020160112134511201/12/16 13:45:31  5-MIN K1J0 121945Z AUTO VRB03KT 10SM CLR 15/M02 A3020 -170 30 -100 VRB/03 RMK AO2 T01501022 $
63871K1J0 1J020160112135011201/12/16 13:50:31  5-MIN K1J0 121950Z AUTO 35005KT 10SM CLR 15/M03 A3020 -160 29 -100 350/05 RMK AO2 T01501028 $
63871K1J0 1J020160112135511901/12/16 13:55:31  5-MIN K1J0 121955Z AUTO 30003KT 10SM CLR 14/M03 A3020 -160 30 -200 300/03 RMK AO2 SLP211 T01441028 $
63871K1J0 1J020160112140011201/12/16 14:00:31  5-MIN K1J0 122000Z AUTO VRB03KT 10SM CLR 16/M02 A3020 -160 30 -100 VRB/03 RMK AO2 T01561017 $
63871K1J0 1J020160112140511201/12/16 14:05:31  5-MIN K1J0 122005Z AUTO VRB04KT 10SM CLR 15/M02 A3019 -160 30 -100 VRB/04 RMK AO2 T01501022 $
63871K1J0 1J020160112141011201/12/16 14:10:31  5-MIN K1J0 122010Z AUTO 26004KT 10SM CLR 14/M03 A3019 -160 30 -200 260/04 RMK AO2 T01441028 $
63871K1J0 1J020160112141511201/12/16 14:15:31  5-MIN K1J0 122015Z AUTO VRB04KT 10SM CLR 14/M03 A3019 -160 29 -200 VRB/04 RMK AO2 T01441033 $
63871K1J0 1J020160112142010901/12/16 14:20:31  5-MIN K1J0 122020Z AUTO 35006KT 10SM CLR 16/M02 A3019 -160 30 0 350/06 RMK AO2 T01561017 $
63871K1J0 1J020160112142511201/12/16 14:25:31  5-MIN K1J0 122025Z AUTO 32003KT 10SM CLR 15/M02 A3019 -150 30 -100 320/03 RMK AO2 T01501022 $
63871K1J0 1J020160112143011201/12/16 14:30:31  5-MIN K1J0 122030Z AUTO 30004KT 10SM CLR 15/M03 A3018 -150 29 -100 300/04 RMK AO2 T01501028 $
63871K1J0 1J020160112143510901/12/16 14:35:31  5-MIN K1J0 122035Z AUTO 33004KT 10SM CLR 16/M02 A3018 -150 29 0 330/04 RMK AO2 T01561022 $
63871K1J0 1J020160112144011201/12/16 14:40:31  5-MIN K1J0 122040Z AUTO VRB06KT 10SM CLR 15/M03 A3018 -150 29 -100 VRB/06 RMK AO2 T01501028 $
63871K1J0 1J020160112144511201/12/16 14:45:31  5-MIN K1J0 122045Z AUTO 32007KT 10SM CLR 15/M02 A3018 -150 30 -100 320/07 RMK AO2 T01501022 $
63871K1J0 1J020160112145011201/12/16 14:50:31  5-MIN K1J0 122050Z AUTO 34008KT 10SM CLR 15/M02 A3018 -150 30 -100 340/08 RMK AO2 T01501022 $
63871K1J0 1J020160112145512501/12/16 14:55:31  5-MIN K1J0 122055Z AUTO 32006KT 10SM CLR 15/M02 A3018 -150 30 -100 320/06 RMK AO2 SLP206 T01501022 58013 $
63871K1J0 1J020160112150011201/12/16 15:00:31  5-MIN K1J0 122100Z AUTO VRB04KT 10SM CLR 15/M02 A3018 -150 30 -100 VRB/04 RMK AO2 T01501022 $
63871K1J0 1J020160112150511201/12/16 15:05:31  5-MIN K1J0 122105Z AUTO 32005KT 10SM CLR 15/M02 A3019 -150 30 -100 320/05 RMK AO2 T01501022 $
63871K1J0 1J020160112151011201/12/16 15:10:31  5-MIN K1J0 122110Z AUTO 33006KT 10SM CLR 15/M02 A3018 -150 30 -100 330/06 RMK AO2 T01501022 $
63871K1J0 1J020160112151511201/12/16 15:15:31  5-MIN K1J0 122115Z AUTO VRB04KT 10SM CLR 15/M02 A3019 -150 30 -100 VRB/04 RMK AO2 T01501022 $
63871K1J0 1J020160112152011201/12/16 15:20:31  5-MIN K1J0 122120Z AUTO VRB03KT 10SM CLR 15/M02 A3019 -150 30 -100 VRB/03 RMK AO2 T01501022 $
63871K1J0 1J020160112152511201/12/16 15:25:31  5-MIN K1J0 122125Z AUTO VRB03KT 10SM CLR 15/M02 A3019 -150 30 -100 VRB/03 RMK AO2 T01501022 $
63871K1J0 1J020160112153011201/12/16 15:30:31  5-MIN K1J0 122130Z AUTO VRB03KT 10SM CLR 14/M02 A3019 -150 31 -200 VRB/03 RMK AO2 T01441022 $
63871K1J0 1J020160112153511201/12/16 15:35:31  5-MIN K1J0 122135Z AUTO 30003KT 10SM CLR 15/M02 A3019 -160 31 -100 300/03 RMK AO2 T01501017 $
63871K1J0 1J020160112154011201/12/16 15:40:31  5-MIN K1J0 122140Z AUTO VRB03KT 10SM CLR 15/M02 A3019 -160 31 -100 VRB/03 RMK AO2 T01501017 $
63871K1J0 1J020160112154511201/12/16 15:45:31  5-MIN K1J0 122145Z AUTO VRB03KT 10SM CLR 14/M02 A3019 -160 33 -200 VRB/03 RMK AO2 T01441017 $
63871K1J0 1J020160112155011201/12/16 15:50:31  5-MIN K1J0 122150Z AUTO VRB03KT 10SM CLR 14/M02 A3019 -160 31 -200 VRB/03 RMK AO2 T01441022 $
63871K1J0 1J020160112155511901/12/16 15:55:31  5-MIN K1J0 122155Z AUTO VRB03KT 10SM CLR 14/M02 A3020 -160 33 -200 VRB/03 RMK AO2 SLP211 T01441017 $
63871K1J0 1J020160112160011201/12/16 16:00:31  5-MIN K1J0 122200Z AUTO 00000KT 10SM CLR 14/M02 A3020 -170 33 -200 000/00 RMK AO2 T01441017 $
63871K1J0 1J020160112160511201/12/16 16:05:31  5-MIN K1J0 122205Z AUTO VRB04KT 10SM CLR 14/M02 A3020 -170 33 -200 VRB/04 RMK AO2 T01441017 $
63871K1J0 1J020160112161011201/12/16 16:10:31  5-MIN K1J0 122210Z AUTO VRB03KT 10SM CLR 14/M02 A3020 -170 34 -300 VRB/03 RMK AO2 T01391017 $
63871K1J0 1J020160112161511201/12/16 16:15:31  5-MIN K1J0 122215Z AUTO VRB03KT 10SM CLR 14/M02 A3020 -170 34 -300 VRB/03 RMK AO2 T01391017 $
63871K1J0 1J020160112162011201/12/16 16:20:31  5-MIN K1J0 122220Z AUTO 00000KT 10SM CLR 14/M01 A3020 -170 35 -300 000/00 RMK AO2 T01391011 $
63871K1J0 1J020160112162511201/12/16 16:25:31  5-MIN K1J0 122225Z AUTO 00000KT 10SM CLR 13/M01 A3021 -170 36 -300 000/00 RMK AO2 T01331011 $
63871K1J0 1J020160112163011201/12/16 16:30:31  5-MIN K1J0 122230Z AUTO 26003KT 10SM CLR 13/M01 A3021 -170 38 -400 260/03 RMK AO2 T01281011 $
63871K1J0 1J020160112163511201/12/16 16:35:31  5-MIN K1J0 122235Z AUTO 00000KT 10SM CLR 13/M01 A3021 -170 39 -400 000/00 RMK AO2 T01281006 $
63871K1J0 1J020160112164011201/12/16 16:40:31  5-MIN K1J0 122240Z AUTO 00000KT 10SM CLR 13/M01 A3021 -170 39 -400 000/00 RMK AO2 T01281006 $
63871K1J0 1J020160112164511101/12/16 16:45:31  5-MIN K1J0 122245Z AUTO 00000KT 10SM CLR 12/00 A3021 -170 43 -500 000/00 RMK AO2 T01220000 $
63871K1J0 1J020160112165011101/12/16 16:50:31  5-MIN K1J0 122250Z AUTO 00000KT 10SM CLR 12/00 A3020 -170 44 -500 000/00 RMK AO2 T01170000 $
63871K1J0 1J020160112165511801/12/16 16:55:31  5-MIN K1J0 122255Z AUTO 00000KT 10SM CLR 11/00 A3020 -170 46 -600 000/00 RMK AO2 SLP215 T01110000 $
63871K1J0 1J020160112170011101/12/16 17:00:31  5-MIN K1J0 122300Z AUTO 00000KT 10SM CLR 09/03 A3021 -170 65 -800 000/00 RMK AO2 T00940033 $
63871K1J0 1J020160112170511101/12/16 17:05:31  5-MIN K1J0 122305Z AUTO 00000KT 10SM CLR 09/03 A3021 -170 65 -800 000/00 RMK AO2 T00940033 $
63871K1J0 1J020160112171011101/12/16 17:10:31  5-MIN K1J0 122310Z AUTO 00000KT 10SM CLR 09/03 A3021 -170 65 -900 000/00 RMK AO2 T00890028 $
63871K1J0 1J020160112171511101/12/16 17:15:31  5-MIN K1J0 122315Z AUTO 00000KT 10SM CLR 08/03 A3021 -170 68 -900 000/00 RMK AO2 T00830028 $
63871K1J0 1J020160112172011101/12/16 17:20:31  5-MIN K1J0 122320Z AUTO 00000KT 10SM CLR 09/02 A3021 -170 63 -900 000/00 RMK AO2 T00890022 $
63871K1J0 1J020160112172511101/12/16 17:25:31  5-MIN K1J0 122325Z AUTO 00000KT 10SM CLR 09/04 A3021 -170 71 -900 000/00 RMK AO2 T00890039 $
63871K1J0 1J020160112173011101/12/16 17:30:31  5-MIN K1J0 122330Z AUTO 00000KT 10SM CLR 08/04 A3021 -180 73 -900 000/00 RMK AO2 T00830039 $
63871K1J0 1J020160112173511101/12/16 17:35:31  5-MIN K1J0 122335Z AUTO 00000KT 10SM CLR 08/04 A3021 -180 73 -900 000/00 RMK AO2 T00830039 $
63871K1J0 1J020160112174011201/12/16 17:40:31  5-MIN K1J0 122340Z AUTO 00000KT 10SM CLR 07/04 A3021 -180 79 -1100 000/00 RMK AO2 T00720039 $
63871K1J0 1J020160112174511201/12/16 17:45:31  5-MIN K1J0 122345Z AUTO 00000KT 10SM CLR 07/03 A3022 -180 76 -1100 000/00 RMK AO2 T00720033 $
63871K1J0 1J020160112175011201/12/16 17:50:31  5-MIN K1J0 122350Z AUTO 00000KT 10SM CLR 07/03 A3022 -180 76 -1100 000/00 RMK AO2 T00720033 $
63871K1J0 1J020160112175513701/12/16 17:55:31  5-MIN K1J0 122355Z AUTO 00000KT 10SM CLR 07/04 A3022 -180 82 -1200 000/00 RMK AO2 SLP219 T00670039 10156 20067 56025 $
63871K1J0 1J020160112180011201/12/16 18:00:31  5-MIN K1J0 130000Z AUTO 00000KT 10SM CLR 07/04 A3022 -180 82 -1200 000/00 RMK AO2 T00670039 $
63871K1J0 1J020160112180511201/12/16 18:05:31  5-MIN K1J0 130005Z AUTO 00000KT 10SM CLR 07/03 A3022 -190 79 -1200 000/00 RMK AO2 T00670033 $
63871K1J0 1J020160112181011201/12/16 18:10:31  5-MIN K1J0 130010Z AUTO 00000KT 10SM CLR 07/03 A3022 -190 76 -1200 000/00 RMK AO2 T00670028 $
63871K1J0 1J020160112181511201/12/16 18:15:31  5-MIN K1J0 130015Z AUTO 00000KT 10SM CLR 07/03 A3022 -190 79 -1200 000/00 RMK AO2 T00670033 $
63871K1J0 1J020160112182011201/12/16 18:20:31  5-MIN K1J0 130020Z AUTO 00000KT 10SM CLR 06/03 A3022 -190 82 -1200 000/00 RMK AO2 T00610033 $
63871K1J0 1J020160112182511201/12/16 18:25:31  5-MIN K1J0 130025Z AUTO 00000KT 10SM CLR 06/03 A3022 -190 82 -1200 000/00 RMK AO2 T00610033 $
63871K1J0 1J020160112183011201/12/16 18:30:31  5-MIN K1J0 130030Z AUTO 00000KT 10SM CLR 06/03 A3022 -190 85 -1300 000/00 RMK AO2 T00560033 $
63871K1J0 1J020160112183511201/12/16 18:35:31  5-MIN K1J0 130035Z AUTO 00000KT 10SM CLR 06/03 A3022 -190 82 -1300 000/00 RMK AO2 T00560028 $
63871K1J0 1J020160112184011201/12/16 18:40:31  5-MIN K1J0 130040Z AUTO 00000KT 10SM CLR 06/03 A3022 -190 82 -1300 000/00 RMK AO2 T00560028 $
63871K1J0 1J020160112184511201/12/16 18:45:31  5-MIN K1J0 130045Z AUTO 00000KT 10SM CLR 06/03 A3022 -180 85 -1300 000/00 RMK AO2 T00560033 $
63871K1J0 1J020160112185011201/12/16 18:50:31  5-MIN K1J0 130050Z AUTO 00000KT 10SM CLR 06/03 A3022 -190 82 -1300 000/00 RMK AO2 T00560028 $
63871K1J0 1J020160112185511901/12/16 18:55:31  5-MIN K1J0 130055Z AUTO 00000KT 10SM CLR 06/03 A3023 -190 82 -1300 000/00 RMK AO2 SLP221 T00560028 $
63871K1J0 1J020160112190011201/12/16 19:00:31  5-MIN K1J0 130100Z AUTO 00000KT 10SM CLR 06/03 A3023 -190 82 -1300 000/00 RMK AO2 T00560028 $
63871K1J0 1J020160112190511201/12/16 19:05:31  5-MIN K1J0 130105Z AUTO 00000KT 10SM CLR 05/03 A3022 -190 85 -1400 000/00 RMK AO2 T00500028 $
63871K1J0 1J020160112191011101/12/16 19:10:31  5-MIN K1J0 130110Z AUTO 00000KT 9SM CLR 05/03 A3023 -190 85 -1400 000/00 RMK AO2 T00500028 $
63871K1J0 1J020160112191511101/12/16 19:15:31  5-MIN K1J0 130115Z AUTO 00000KT 9SM CLR 05/03 A3023 -190 85 -1400 000/00 RMK AO2 T00500028 $
63871K1J0 1J020160112192011101/12/16 19:20:31  5-MIN K1J0 130120Z AUTO 00000KT 8SM CLR 04/03 A3023 -190 89 -1400 000/00 RMK AO2 T00440028 $
63871K1J0 1J020160112192511101/12/16 19:25:31  5-MIN K1J0 130125Z AUTO 00000KT 7SM CLR 04/03 A3023 -190 89 -1400 000/00 RMK AO2 T00440028 $
63871K1J0 1J020160112193011101/12/16 19:30:31  5-MIN K1J0 130130Z AUTO 00000KT 8SM CLR 04/03 A3023 -200 89 -1400 000/00 RMK AO2 T00440028 $
63871K1J0 1J020160112193511101/12/16 19:35:31  5-MIN K1J0 130135Z AUTO 00000KT 9SM CLR 04/03 A3023 -200 89 -1400 000/00 RMK AO2 T00440028 $
63871K1J0 1J020160112194011101/12/16 19:40:31  5-MIN K1J0 130140Z AUTO 00000KT 9SM CLR 04/03 A3023 -200 89 -1400 000/00 RMK AO2 T00440028 $
63871K1J0 1J020160112194511201/12/16 19:45:31  5-MIN K1J0 130145Z AUTO 00000KT 10SM CLR 04/03 A3023 -200 89 -1400 000/00 RMK AO2 T00440028 $
63871K1J0 1J020160112195011201/12/16 19:50:31  5-MIN K1J0 130150Z AUTO 00000KT 10SM CLR 04/02 A3023 -200 85 -1400 000/00 RMK AO2 T00440022 $
63871K1J0 1J020160112195511901/12/16 19:55:31  5-MIN K1J0 130155Z AUTO 00000KT 10SM CLR 04/02 A3023 -200 89 -1500 000/00 RMK AO2 SLP224 T00390022 $
63871K1J0 1J020160112200011201/12/16 20:00:31  5-MIN K1J0 130200Z AUTO 00000KT 10SM CLR 04/02 A3023 -190 89 -1500 000/00 RMK AO2 T00390022 $
63871K1J0 1J020160112200511201/12/16 20:05:31  5-MIN K1J0 130205Z AUTO 00000KT 10SM CLR 04/02 A3023 -190 89 -1500 000/00 RMK AO2 T00390022 $
63871K1J0 1J020160112201011201/12/16 20:10:31  5-MIN K1J0 130210Z AUTO 00000KT 10SM CLR 04/03 A3023 -190 92 -1500 000/00 RMK AO2 T00390028 $
63871K1J0 1J020160112201511201/12/16 20:15:31  5-MIN K1J0 130215Z AUTO 00000KT 10SM CLR 04/03 A3023 -190 92 -1500 000/00 RMK AO2 T00390028 $
63871K1J0 1J020160112202011101/12/16 20:20:31  5-MIN K1J0 130220Z AUTO 00000KT 9SM CLR 04/02 A3022 -190 89 -1500 000/00 RMK AO2 T00390022 $
63871K1J0 1J020160112202511101/12/16 20:25:31  5-MIN K1J0 130225Z AUTO 00000KT 9SM CLR 04/02 A3022 -190 89 -1500 000/00 RMK AO2 T00390022 $
63871K1J0 1J020160112203011101/12/16 20:30:31  5-MIN K1J0 130230Z AUTO 00000KT 9SM CLR 04/02 A3023 -190 89 -1500 000/00 RMK AO2 T00390022 $
63871K1J0 1J020160112203511201/12/16 20:35:31  5-MIN K1J0 130235Z AUTO 00000KT 10SM CLR 03/02 A3023 -190 92 -1600 000/00 RMK AO2 T00330022 $
63871K1J0 1J020160112204011201/12/16 20:40:31  5-MIN K1J0 130240Z AUTO 00000KT 10SM CLR 03/02 A3023 -190 92 -1600 000/00 RMK AO2 T00330022 $
63871K1J0 1J020160112204511101/12/16 20:45:31  5-MIN K1J0 130245Z AUTO 00000KT 9SM CLR 03/02 A3023 -200 92 -1600 000/00 RMK AO2 T00330022 $
63871K1J0 1J020160112205011101/12/16 20:50:31  5-MIN K1J0 130250Z AUTO 00000KT 9SM CLR 03/02 A3023 -200 92 -1600 000/00 RMK AO2 T00330022 $
63871K1J0 1J020160112205512501/12/16 20:55:31  5-MIN K1J0 130255Z AUTO 00000KT 10SM CLR 03/02 A3024 -200 92 -1600 000/00 RMK AO2 SLP225 T00330022 51012 $
63871K1J0 1J020160112210011201/12/16 21:00:31  5-MIN K1J0 130300Z AUTO 00000KT 10SM CLR 03/02 A3024 -200 92 -1600 000/00 RMK AO2 T00330022 $
63871K1J0 1J020160112210511201/12/16 21:05:31  5-MIN K1J0 130305Z AUTO 00000KT 10SM CLR 03/02 A3024 -200 89 -1600 000/00 RMK AO2 T00330017 $
63871K1J0 1J020160112211011201/12/16 21:10:31  5-MIN K1J0 130310Z AUTO 00000KT 10SM CLR 03/02 A3023 -200 92 -1600 000/00 RMK AO2 T00330022 $
63871K1J0 1J020160112211511201/12/16 21:15:31  5-MIN K1J0 130315Z AUTO 00000KT 10SM CLR 03/02 A3023 -200 89 -1600 000/00 RMK AO2 T00330017 $
63871K1J0 1J020160112212011201/12/16 21:20:31  5-MIN K1J0 130320Z AUTO 00000KT 10SM CLR 03/02 A3023 -200 92 -1700 000/00 RMK AO2 T00280017 $
63871K1J0 1J020160112212511201/12/16 21:25:31  5-MIN K1J0 130325Z AUTO 19003KT 10SM CLR 03/02 A3024 -200 92 -1700 190/03 RMK AO2 T00280017 $
63871K1J0 1J020160112213011201/12/16 21:30:31  5-MIN K1J0 130330Z AUTO 18004KT 10SM CLR 03/02 A3024 -200 92 -1700 180/04 RMK AO2 T00280017 $
63871K1J0 1J020160112213511201/12/16 21:35:31  5-MIN K1J0 130335Z AUTO 00000KT 10SM CLR 03/02 A3024 -210 92 -1700 000/00 RMK AO2 T00280017 $
63871K1J0 1J020160112214011201/12/16 21:40:31  5-MIN K1J0 130340Z AUTO 00000KT 10SM CLR 03/02 A3024 -210 92 -1700 000/00 RMK AO2 T00280017 $
63871K1J0 1J020160112214511201/12/16 21:45:31  5-MIN K1J0 130345Z AUTO 18003KT 10SM CLR 03/02 A3025 -210 92 -1700 180/03 RMK AO2 T00280017 $
63871K1J0 1J020160112215011201/12/16 21:50:31  5-MIN K1J0 130350Z AUTO 00000KT 10SM CLR 03/02 A3025 -210 92 -1700 000/00 RMK AO2 T00280017 $
63871K1J0 1J020160112215511901/12/16 21:55:31  5-MIN K1J0 130355Z AUTO 00000KT 10SM CLR 03/02 A3025 -210 92 -1700 000/00 RMK AO2 SLP228 T00280017 $
63871K1J0 1J020160112220011201/12/16 22:00:31  5-MIN K1J0 130400Z AUTO 00000KT 10SM CLR 03/01 A3025 -210 89 -1700 000/00 RMK AO2 T00280011 $
63871K1J0 1J020160112220511201/12/16 22:05:31  5-MIN K1J0 130405Z AUTO 00000KT 10SM CLR 03/01 A3025 -210 89 -1700 000/00 RMK AO2 T00280011 $
63871K1J0 1J020160112221011201/12/16 22:10:31  5-MIN K1J0 130410Z AUTO 00000KT 10SM CLR 03/01 A3025 -210 89 -1700 000/00 RMK AO2 T00280011 $
63871K1J0 1J020160112221511201/12/16 22:15:31  5-MIN K1J0 130415Z AUTO 00000KT 10SM CLR 03/01 A3024 -210 89 -1700 000/00 RMK AO2 T00280011 $
63871K1J0 1J020160112222011201/12/16 22:20:31  5-MIN K1J0 130420Z AUTO 35003KT 10SM CLR 03/01 A3024 -210 89 -1700 350/03 RMK AO2 T00280011 $
63871K1J0 1J020160112222511201/12/16 22:25:31  5-MIN K1J0 130425Z AUTO 00000KT 10SM CLR 03/02 A3024 -200 92 -1700 000/00 RMK AO2 T00280017 $
63871K1J0 1J020160112223011201/12/16 22:30:31  5-MIN K1J0 130430Z AUTO 00000KT 10SM CLR 03/02 A3024 -210 92 -1700 000/00 RMK AO2 T00280017 $
63871K1J0 1J020160112223511201/12/16 22:35:31  5-MIN K1J0 130435Z AUTO 00000KT 10SM CLR 03/02 A3024 -200 92 -1700 000/00 RMK AO2 T00280017 $
63871K1J0 1J020160112224011201/12/16 22:40:31  5-MIN K1J0 130440Z AUTO 00000KT 10SM CLR 02/02 A3024 -210 96 -1700 000/00 RMK AO2 T00220017 $
63871K1J0 1J020160112224511201/12/16 22:45:31  5-MIN K1J0 130445Z AUTO 00000KT 10SM CLR 02/02 A3024 -210 96 -1700 000/00 RMK AO2 T00220017 $
63871K1J0 1J020160112225011101/12/16 22:50:31  5-MIN K1J0 130450Z AUTO 00000KT 9SM CLR 02/02 A3024 -200 96 -1700 000/00 RMK AO2 T00220017 $
63871K1J0 1J020160112225511801/12/16 22:55:31  5-MIN K1J0 130455Z AUTO 00000KT 9SM CLR 02/02 A3024 -200 96 -1700 000/00 RMK AO2 SLP224 T00220017 $
63871K1J0 1J020160112230011201/12/16 23:00:31  5-MIN K1J0 130500Z AUTO 00000KT 10SM CLR 02/02 A3024 -200 96 -1700 000/00 RMK AO2 T00220017 $
63871K1J0 1J020160112230511101/12/16 23:05:31  5-MIN K1J0 130505Z AUTO 00000KT 9SM CLR 02/01 A3024 -200 92 -1700 000/00 RMK AO2 T00220011 $
63871K1J0 1J020160112231011101/12/16 23:10:31  5-MIN K1J0 130510Z AUTO 00000KT 9SM CLR 02/01 A3024 -200 92 -1700 000/00 RMK AO2 T00220011 $
63871K1J0 1J020160112231511201/12/16 23:15:31  5-MIN K1J0 130515Z AUTO 00000KT 10SM CLR 02/01 A3024 -200 92 -1800 000/00 RMK AO2 T00170006 $
63871K1J0 1J020160112232011201/12/16 23:20:31  5-MIN K1J0 130520Z AUTO 00000KT 10SM CLR 02/01 A3024 -200 89 -1700 000/00 RMK AO2 T00220006 $
63871K1J0 1J020160112232511201/12/16 23:25:31  5-MIN K1J0 130525Z AUTO 00000KT 10SM CLR 02/01 A3024 -200 96 -1800 000/00 RMK AO2 T00170011 $
63871K1J0 1J020160112233011201/12/16 23:30:31  5-MIN K1J0 130530Z AUTO 00000KT 10SM CLR 02/01 A3024 -210 96 -1800 000/00 RMK AO2 T00170011 $
63871K1J0 1J020160112233511201/12/16 23:35:31  5-MIN K1J0 130535Z AUTO 00000KT 10SM CLR 02/01 A3024 -210 96 -1800 000/00 RMK AO2 T00170011 $
63871K1J0 1J020160112234011201/12/16 23:40:31  5-MIN K1J0 130540Z AUTO 00000KT 10SM CLR 02/01 A3025 -210 92 -1800 000/00 RMK AO2 T00170006 $
63871K1J0 1J020160112234511201/12/16 23:45:31  5-MIN K1J0 130545Z AUTO 00000KT 10SM CLR 02/01 A3024 -210 92 -1700 000/00 RMK AO2 T00220011 $
63871K1J0 1J020160112235011201/12/16 23:50:31  5-MIN K1J0 130550Z AUTO 17003KT 10SM CLR 02/01 A3024 -210 92 -1700 170/03 RMK AO2 T00220011 $
63871K1J0 1J020160112235514701/12/16 23:55:31  5-MIN K1J0 130555Z AUTO 00000KT 10SM CLR 02/02 A3024 -210 96 -1700 000/00 RMK AO2 SLP227 T00220017 10067 20017 401561017 51006 $
63871K1J0 1J020160113000011201/13/16 00:00:31  5-MIN K1J0 130600Z AUTO 00000KT 10SM CLR 02/01 A3024 -210 92 -1700 000/00 RMK AO2 T00220011 $
63871K1J0 1J020160113000511201/13/16 00:05:31  5-MIN K1J0 130605Z AUTO 00000KT 10SM CLR 02/01 A3024 -210 92 -1700 000/00 RMK AO2 T00220011 $
63871K1J0 1J020160113001011201/13/16 00:10:31  5-MIN K1J0 130610Z AUTO 00000KT 10SM CLR 02/01 A3025 -210 96 -1800 000/00 RMK AO2 T00170011 $
63871K1J0 1J020160113001511201/13/16 00:15:31  5-MIN K1J0 130615Z AUTO 00000KT 10SM CLR 02/01 A3025 -210 92 -1700 000/00 RMK AO2 T00220011 $
63871K1J0 1J020160113002011201/13/16 00:20:31  5-MIN K1J0 130620Z AUTO 00000KT 10SM CLR 02/01 A3025 -220 92 -1800 000/00 RMK AO2 T00170006 $
63871K1J0 1J020160113002511201/13/16 00:25:31  5-MIN K1J0 130625Z AUTO 00000KT 10SM CLR 02/01 A3025 -210 92 -1800 000/00 RMK AO2 T00170006 $
63871K1J0 1J020160113003011201/13/16 00:30:31  5-MIN K1J0 130630Z AUTO 00000KT 10SM CLR 02/01 A3026 -220 92 -1800 000/00 RMK AO2 T00170006 $
63871K1J0 1J020160113003511201/13/16 00:35:31  5-MIN K1J0 130635Z AUTO 00000KT 10SM CLR 02/01 A3025 -220 92 -1800 000/00 RMK AO2 T00170006 $
63871K1J0 1J020160113004011201/13/16 00:40:31  5-MIN K1J0 130640Z AUTO 00000KT 10SM CLR 02/01 A3025 -220 92 -1800 000/00 RMK AO2 T00170006 $
63871K1J0 1J020160113004511201/13/16 00:45:31  5-MIN K1J0 130645Z AUTO 00000KT 10SM CLR 02/01 A3025 -210 92 -1800 000/00 RMK AO2 T00170006 $
63871K1J0 1J020160113005011201/13/16 00:50:31  5-MIN K1J0 130650Z AUTO 00000KT 10SM CLR 02/01 A3025 -210 92 -1800 000/00 RMK AO2 T00170006 $
63871K1J0 1J020160113005511901/13/16 00:55:31  5-MIN K1J0 130655Z AUTO 00000KT 10SM CLR 02/01 A3025 -210 92 -1800 000/00 RMK AO2 SLP228 T00170006 $
63871K1J0 1J020160113010011201/13/16 01:00:31  5-MIN K1J0 130700Z AUTO 00000KT 10SM CLR 02/01 A3025 -210 92 -1800 000/00 RMK AO2 T00170006 $
63871K1J0 1J020160113010511201/13/16 01:05:31  5-MIN K1J0 130705Z AUTO 00000KT 10SM CLR 01/01 A3025 -210 96 -1900 000/00 RMK AO2 T00110006 $
63871K1J0 1J020160113011011201/13/16 01:10:31  5-MIN K1J0 130710Z AUTO 00000KT 10SM CLR 01/01 A3024 -210 96 -1900 000/00 RMK AO2 T00110006 $
63871K1J0 1J020160113011511201/13/16 01:15:31  5-MIN K1J0 130715Z AUTO 00000KT 10SM CLR 01/01 A3024 -200 96 -1900 000/00 RMK AO2 T00110006 $
63871K1J0 1J020160113012011201/13/16 01:20:31  5-MIN K1J0 130720Z AUTO 00000KT 10SM CLR 01/00 A3024 -200 92 -1900 000/00 RMK AO2 T00110000 $
63871K1J0 1J020160113012511201/13/16 01:25:31  5-MIN K1J0 130725Z AUTO 00000KT 10SM CLR 01/01 A3024 -210 96 -1900 000/00 RMK AO2 T00110006 $
63871K1J0 1J020160113013011201/13/16 01:30:31  5-MIN K1J0 130730Z AUTO 00000KT 10SM CLR 01/01 A3024 -210 96 -1900 000/00 RMK AO2 T00110006 $
63871K1J0 1J020160113013511201/13/16 01:35:31  5-MIN K1J0 130735Z AUTO 00000KT 10SM CLR 01/01 A3024 -200 96 -1900 000/00 RMK AO2 T00110006 $
63871K1J0 1J020160113014011201/13/16 01:40:31  5-MIN K1J0 130740Z AUTO 00000KT 10SM CLR 01/01 A3024 -200 96 -1900 000/00 RMK AO2 T00110006 $
63871K1J0 1J020160113014511201/13/16 01:45:31  5-MIN K1J0 130745Z AUTO 00000KT 10SM CLR 01/01 A3024 -200 96 -1900 000/00 RMK AO2 T00110006 $
63871K1J0 1J020160113015011201/13/16 01:50:31  5-MIN K1J0 130750Z AUTO 00000KT 10SM CLR 01/01 A3024 -200 96 -1900 000/00 RMK AO2 T00110006 $
63871K1J0 1J020160113015511901/13/16 01:55:31  5-MIN K1J0 130755Z AUTO 00000KT 10SM CLR 01/00 A3024 -200 92 -1900 000/00 RMK AO2 SLP225 T00110000 $
63871K1J0 1J020160113020011201/13/16 02:00:31  5-MIN K1J0 130800Z AUTO 00000KT 10SM CLR 01/01 A3024 -210 96 -1900 000/00 RMK AO2 T00110006 $
63871K1J0 1J020160113020511201/13/16 02:05:31  5-MIN K1J0 130805Z AUTO 17003KT 10SM CLR 01/01 A3025 -210 96 -1900 170/03 RMK AO2 T00110006 $
63871K1J0 1J020160113021011201/13/16 02:10:31  5-MIN K1J0 130810Z AUTO 19003KT 10SM CLR 01/00 A3025 -210 92 -1900 190/03 RMK AO2 T00110000 $
63871K1J0 1J020160113021511201/13/16 02:15:31  5-MIN K1J0 130815Z AUTO 00000KT 10SM CLR 01/00 A3025 -210 96 -1900 000/00 RMK AO2 T00060000 $
63871K1J0 1J020160113022011201/13/16 02:20:31  5-MIN K1J0 130820Z AUTO 00000KT 10SM CLR 01/00 A3025 -210 96 -1900 000/00 RMK AO2 T00060000 $
63871K1J0 1J020160113022511201/13/16 02:25:31  5-MIN K1J0 130825Z AUTO 00000KT 10SM CLR 01/00 A3025 -210 96 -1900 000/00 RMK AO2 T00060000 $
63871K1J0 1J020160113023011201/13/16 02:30:31  5-MIN K1J0 130830Z AUTO 00000KT 10SM CLR 01/00 A3025 -210 96 -1900 000/00 RMK AO2 T00060000 $
63871K1J0 1J020160113023511201/13/16 02:35:31  5-MIN K1J0 130835Z AUTO 00000KT 10SM CLR 01/00 A3025 -210 96 -1900 000/00 RMK AO2 T00060000 $
63871K1J0 1J020160113024011201/13/16 02:40:31  5-MIN K1J0 130840Z AUTO 00000KT 10SM CLR 01/00 A3025 -210 96 -1900 000/00 RMK AO2 T00060000 $
63871K1J0 1J020160113024511201/13/16 02:45:31  5-MIN K1J0 130845Z AUTO 00000KT 10SM CLR 01/00 A3025 -210 96 -1900 000/00 RMK AO2 T00060000 $
63871K1J0 1J020160113025011201/13/16 02:50:31  5-MIN K1J0 130850Z AUTO 20003KT 10SM CLR 01/00 A3025 -220 96 -2000 200/03 RMK AO2 T00060000 $
63871K1J0 1J020160113025512601/13/16 02:55:31  5-MIN K1J0 130855Z AUTO 00000KT 10SM CLR 01/M01 A3026 -220 92 -2000 000/00 RMK AO2 SLP231 T00061006 51003 $
63871K1J0 1J020160113030011201/13/16 03:00:31  5-MIN K1J0 130900Z AUTO 00000KT 10SM CLR 01/00 A3026 -220 92 -1900 000/00 RMK AO2 T00110000 $
63871K1J0 1J020160113030511201/13/16 03:05:31  5-MIN K1J0 130905Z AUTO 00000KT 10SM CLR 01/00 A3026 -220 92 -1900 000/00 RMK AO2 T00110000 $
63871K1J0 1J020160113031011201/13/16 03:10:31  5-MIN K1J0 130910Z AUTO 00000KT 10SM CLR 01/00 A3026 -220 96 -2000 000/00 RMK AO2 T00060000 $
63871K1J0 1J020160113031511201/13/16 03:15:31  5-MIN K1J0 130915Z AUTO 00000KT 10SM CLR 01/00 A3026 -220 96 -2000 000/00 RMK AO2 T00060000 $
63871K1J0 1J020160113032011301/13/16 03:20:31  5-MIN K1J0 130920Z AUTO 00000KT 10SM CLR 01/M01 A3026 -220 92 -2000 000/00 RMK AO2 T00061006 $
63871K1J0 1J020160113032511201/13/16 03:25:31  5-MIN K1J0 130925Z AUTO 00000KT 10SM CLR 01/00 A3026 -220 96 -2000 000/00 RMK AO2 T00060000 $
63871K1J0 1J020160113033011201/13/16 03:30:31  5-MIN K1J0 130930Z AUTO 00000KT 10SM CLR 01/00 A3026 -220 92 -1900 000/00 RMK AO2 T00110000 $
63871K1J0 1J020160113033511201/13/16 03:35:31  5-MIN K1J0 130935Z AUTO 00000KT 10SM CLR 01/00 A3026 -220 92 -1900 000/00 RMK AO2 T00110000 $
63871K1J0 1J020160113034011201/13/16 03:40:31  5-MIN K1J0 130940Z AUTO 00000KT 10SM CLR 01/00 A3026 -220 92 -1900 000/00 RMK AO2 T00110000 $
63871K1J0 1J020160113034511201/13/16 03:45:31  5-MIN K1J0 130945Z AUTO 35004KT 10SM CLR 01/00 A3026 -220 96 -2000 350/04 RMK AO2 T00060000 $
63871K1J0 1J020160113035011301/13/16 03:50:31  5-MIN K1J0 130950Z AUTO 34003KT 10SM CLR 01/M01 A3025 -220 92 -2000 340/03 RMK AO2 T00061006 $
63871K1J0 1J020160113035512001/13/16 03:55:31  5-MIN K1J0 130955Z AUTO 00000KT 10SM CLR 01/M01 A3025 -210 92 -2000 000/00 RMK AO2 SLP229 T00061006 $
63871K1J0 1J020160113040011301/13/16 04:00:31  5-MIN K1J0 131000Z AUTO 00000KT 10SM CLR 01/M01 A3025 -220 92 -2000 000/00 RMK AO2 T00061006 $
63871K1J0 1J020160113040511301/13/16 04:05:31  5-MIN K1J0 131005Z AUTO 00000KT 10SM CLR 00/M01 A3025 -210 92 -2000 000/00 RMK AO2 T00001011 $
63871K1J0 1J020160113041011301/13/16 04:10:31  5-MIN K1J0 131010Z AUTO 34004KT 10SM CLR 01/M01 A3025 -210 92 -1900 340/04 RMK AO2 T00061006 $
63871K1J0 1J020160113041511301/13/16 04:15:31  5-MIN K1J0 131015Z AUTO 34003KT 10SM CLR 01/M01 A3025 -210 92 -1900 340/03 RMK AO2 T00061006 $
63871K1J0 1J020160113042011301/13/16 04:20:31  5-MIN K1J0 131020Z AUTO 00000KT 10SM CLR 01/M01 A3025 -210 92 -1900 000/00 RMK AO2 T00061006 $
63871K1J0 1J020160113042511301/13/16 04:25:31  5-MIN K1J0 131025Z AUTO 00000KT 10SM CLR 01/M01 A3025 -210 92 -1900 000/00 RMK AO2 T00061006 $
63871K1J0 1J020160113043011201/13/16 04:30:31  5-MIN K1J0 131030Z AUTO 00000KT 10SM CLR 01/00 A3025 -220 92 -1900 000/00 RMK AO2 T00110000 $
63871K1J0 1J020160113043511201/13/16 04:35:31  5-MIN K1J0 131035Z AUTO 00000KT 10SM CLR 01/00 A3025 -220 92 -1900 000/00 RMK AO2 T00110000 $
63871K1J0 1J020160113044011201/13/16 04:40:31  5-MIN K1J0 131040Z AUTO 00000KT 10SM CLR 01/00 A3026 -220 96 -2000 000/00 RMK AO2 T00060000 $
63871K1J0 1J020160113044511201/13/16 04:45:31  5-MIN K1J0 131045Z AUTO 00000KT 10SM CLR 01/00 A3026 -220 96 -2000 000/00 RMK AO2 T00060000 $
63871K1J0 1J020160113045011201/13/16 04:50:31  5-MIN K1J0 131050Z AUTO 00000KT 10SM CLR 01/00 A3026 -220 96 -2000 000/00 RMK AO2 T00060000 $
63871K1J0 1J020160113045511901/13/16 04:55:31  5-MIN K1J0 131055Z AUTO 00000KT 10SM CLR 01/00 A3026 -220 92 -1900 000/00 RMK AO2 SLP232 T00110000 $
63871K1J0 1J020160113050011201/13/16 05:00:31  5-MIN K1J0 131100Z AUTO 00000KT 10SM CLR 01/00 A3026 -220 96 -2000 000/00 RMK AO2 T00060000 $
63871K1J0 1J020160113050511201/13/16 05:05:31  5-MIN K1J0 131105Z AUTO 00000KT 10SM CLR 01/00 A3026 -230 96 -2000 000/00 RMK AO2 T00060000 $
63871K1J0 1J020160113051011301/13/16 05:10:31  5-MIN K1J0 131110Z AUTO 00000KT 10SM CLR 01/M01 A3027 -230 92 -2000 000/00 RMK AO2 T00061006 $
63871K1J0 1J020160113051511301/13/16 05:15:31  5-MIN K1J0 131115Z AUTO 00000KT 10SM CLR 01/M01 A3027 -230 92 -2000 000/00 RMK AO2 T00061006 $
63871K1J0 1J020160113052011301/13/16 05:20:31  5-MIN K1J0 131120Z AUTO 00000KT 10SM CLR 01/M01 A3027 -230 92 -2000 000/00 RMK AO2 T00061006 $
63871K1J0 1J020160113052511201/13/16 05:25:31  5-MIN K1J0 131125Z AUTO 00000KT 10SM CLR 01/00 A3027 -230 96 -2000 000/00 RMK AO2 T00060000 $
63871K1J0 1J020160113053011201/13/16 05:30:31  5-MIN K1J0 131130Z AUTO 00000KT 10SM CLR 01/00 A3027 -230 96 -2000 000/00 RMK AO2 T00060000 $
63871K1J0 1J020160113092511101/13/16 09:25:31  5-MIN K1J0 131525Z AUTO 07004KT 10SM CLR 11/01 A3031 -270 50 -800 070/04 RMK AO2 T01060006 $
63871K1J0 1J020160113093011101/13/16 09:30:31  5-MIN K1J0 131530Z AUTO 05004KT 10SM CLR 11/01 A3032 -280 48 -700 050/04 RMK AO2 T01110006 $
63871K1J0 1J020160113093511101/13/16 09:35:31  5-MIN K1J0 131535Z AUTO 03005KT 10SM CLR 11/00 A3032 -280 46 -700 030/05 RMK AO2 T01110000 $
63871K1J0 1J020160113094011101/13/16 09:40:31  5-MIN K1J0 131540Z AUTO VRB03KT 10SM CLR 12/00 A3033 -280 44 -700 VRB/03 RMK AO2 T01170000 $
63871K1J0 1J020160113094511101/13/16 09:45:31  5-MIN K1J0 131545Z AUTO VRB03KT 10SM CLR 12/00 A3033 -290 43 -600 VRB/03 RMK AO2 T01220000 $
63871K1J0 1J020160113095011101/13/16 09:50:31  5-MIN K1J0 131550Z AUTO 09005KT 10SM CLR 12/00 A3033 -290 43 -600 090/05 RMK AO2 T01220000 $
63871K1J0 1J020160113095511901/13/16 09:55:31  5-MIN K1J0 131555Z AUTO 00000KT 10SM CLR 12/M01 A3033 -290 41 -600 000/00 RMK AO2 SLP257 T01221006 $
63871K1J0 1J020160113100011201/13/16 10:00:31  5-MIN K1J0 131600Z AUTO 08003KT 10SM CLR 12/M01 A3033 -280 41 -600 080/03 RMK AO2 T01221006 $
63871K1J0 1J020160113100511201/13/16 10:05:31  5-MIN K1J0 131605Z AUTO 07005KT 10SM CLR 13/M01 A3032 -280 38 -500 070/05 RMK AO2 T01331006 $
63871K1J0 1J020160113101011201/13/16 10:10:31  5-MIN K1J0 131610Z AUTO 09003KT 10SM CLR 13/M01 A3032 -280 39 -500 090/03 RMK AO2 T01281006 $
63871K1J0 1J020160113101511201/13/16 10:15:31  5-MIN K1J0 131615Z AUTO 02003KT 10SM CLR 13/M01 A3032 -280 36 -500 020/03 RMK AO2 T01331011 $
63871K1J0 1J020160113102011201/13/16 10:20:31  5-MIN K1J0 131620Z AUTO VRB03KT 10SM CLR 13/M01 A3032 -280 36 -500 VRB/03 RMK AO2 T01331011 $
63871K1J0 1J020160113102511101/13/16 10:25:31  5-MIN K1J0 131625Z AUTO 00000KT 10SM CLR 14/00 A3032 -270 38 -400 000/00 RMK AO2 T01390000 $
63871K1J0 1J020160113103011201/13/16 10:30:31  5-MIN K1J0 131630Z AUTO 11003KT 10SM CLR 13/M01 A3032 -270 36 -500 110/03 RMK AO2 T01331011 $
63871K1J0 1J020160113103511201/13/16 10:35:31  5-MIN K1J0 131635Z AUTO 06003KT 10SM CLR 14/M01 A3032 -270 35 -400 060/03 RMK AO2 T01391011 $
63871K1J0 1J020160113104011201/13/16 10:40:31  5-MIN K1J0 131640Z AUTO VRB03KT 10SM CLR 14/M02 A3031 -270 34 -400 VRB/03 RMK AO2 T01391017 $
63871K1J0 1J020160113104511201/13/16 10:45:31  5-MIN K1J0 131645Z AUTO 09003KT 10SM CLR 14/M02 A3032 -270 34 -400 090/03 RMK AO2 T01391017 $
63871K1J0 1J020160113105011201/13/16 10:50:31  5-MIN K1J0 131650Z AUTO VRB03KT 10SM CLR 14/M01 A3031 -260 35 -400 VRB/03 RMK AO2 T01391011 $
63871K1J0 1J020160113105511801/13/16 10:55:31  5-MIN K1J0 131655Z AUTO VRB04KT 10SM CLR 16/00 A3030 -260 33 -100 VRB/04 RMK AO2 SLP246 T01610000 $
63871K1J0 1J020160113110011201/13/16 11:00:31  5-MIN K1J0 131700Z AUTO VRB04KT 10SM CLR 15/M01 A3030 -260 33 -200 VRB/04 RMK AO2 T01501011 $
63871K1J0 1J020160113110511201/13/16 11:05:31  5-MIN K1J0 131705Z AUTO 00000KT 10SM CLR 14/M01 A3030 -260 34 -300 000/00 RMK AO2 T01441011 $
63871K1J0 1J020160113111011201/13/16 11:10:31  5-MIN K1J0 131710Z AUTO 06005KT 10SM CLR 16/M01 A3030 -250 33 -200 060/05 RMK AO2 T01561006 $
63871K1J0 1J020160113111511201/13/16 11:15:31  5-MIN K1J0 131715Z AUTO 07004KT 10SM CLR 14/M02 A3029 -250 33 -300 070/04 RMK AO2 T01441017 $
63871K1J0 1J020160113112011201/13/16 11:20:31  5-MIN K1J0 131720Z AUTO 00000KT 10SM CLR 15/M02 A3029 -250 31 -200 000/00 RMK AO2 T01501017 $
63871K1J0 1J020160113112511201/13/16 11:25:31  5-MIN K1J0 131725Z AUTO VRB03KT 10SM CLR 16/M01 A3029 -240 33 -200 VRB/03 RMK AO2 T01561006 $
63871K1J0 1J020160113113011201/13/16 11:30:31  5-MIN K1J0 131730Z AUTO 02005KT 10SM CLR 16/M02 A3028 -240 30 -100 020/05 RMK AO2 T01561017 $
63871K1J0 1J020160113113510801/13/16 11:35:31  5-MIN K1J0 131735Z AUTO VRB05KT 10SM CLR 17/00 A3028 -240 32 0 VRB/05 RMK AO2 T01670000 $
63871K1J0 1J020160113114011101/13/16 11:40:31  5-MIN K1J0 131740Z AUTO 34005KT 10SM CLR 16/00 A3028 -240 34 -100 340/05 RMK AO2 T01560000 $
63871K1J0 1J020160113114511101/13/16 11:45:31  5-MIN K1J0 131745Z AUTO VRB03KT 10SM CLR 16/00 A3028 -240 34 -100 VRB/03 RMK AO2 T01560000 $
63871K1J0 1J020160113115011101/13/16 11:50:31  5-MIN K1J0 131750Z AUTO 34004KT 10SM CLR 16/00 A3028 -240 34 -100 340/04 RMK AO2 T01560000 $
63871K1J0 1J020160113115513301/13/16 11:55:31  5-MIN K1J0 131755Z AUTO VRB04KT 10SM CLR 17/01 A3027 -230 33 0 VRB/04 RMK AO2 SLP235 T01670006 10167 21006 53011 $
63871K1J0 1J020160113120011101/13/16 12:00:31  5-MIN K1J0 131800Z AUTO VRB03KT 10SM CLR 16/01 A3027 -230 34 -100 VRB/03 RMK AO2 T01610006 $
63871K1J0 1J020160113120510201/13/16 12:05:31  5-MIN K1J0 131805Z AUTO 10SM CLR 16/M01 A3027 -230 33 -100 M /M RMK AO2 T01561006 $
63871K1J0 1J020160113121011101/13/16 12:10:31  5-MIN K1J0 131810Z AUTO VRB04KT 10SM CLR 16/01 A3027 -230 34 -100 VRB/04 RMK AO2 T01610006 $
63871K1J0 1J020160113121511101/13/16 12:15:31  5-MIN K1J0 131815Z AUTO VRB03KT 10SM CLR 15/00 A3027 -230 35 -200 VRB/03 RMK AO2 T01500000 $
63871K1J0 1J020160113122011201/13/16 12:20:31  5-MIN K1J0 131820Z AUTO 04005KT 10SM CLR 16/M01 A3026 -220 32 -100 040/05 RMK AO2 T01611006 $
63871K1J0 1J020160113122511201/13/16 12:25:31  5-MIN K1J0 131825Z AUTO 06004KT 10SM CLR 16/M01 A3026 -220 31 -100 060/04 RMK AO2 T01561011 $
63871K1J0 1J020160113123010901/13/16 12:30:31  5-MIN K1J0 131830Z AUTO 35005KT 10SM CLR 16/M01 A3025 -210 32 0 350/05 RMK AO2 T01611006 $
63871K1J0 1J020160113123511101/13/16 12:35:31  5-MIN K1J0 131835Z AUTO VRB04KT 10SM CLR 16/00 A3025 -210 34 -100 VRB/04 RMK AO2 T01560000 $
63871K1J0 1J020160113124011201/13/16 12:40:31  5-MIN K1J0 131840Z AUTO 03004KT 10SM CLR 15/M01 A3025 -210 33 -200 030/04 RMK AO2 T01501011 $
63871K1J0 1J020160113124511201/13/16 12:45:31  5-MIN K1J0 131845Z AUTO 00000KT 10SM CLR 15/M01 A3024 -210 33 -200 000/00 RMK AO2 T01501011 $
63871K1J0 1J020160113125011201/13/16 12:50:31  5-MIN K1J0 131850Z AUTO 02006KT 10SM CLR 15/M01 A3023 -200 33 -200 020/06 RMK AO2 T01501011 $
63871K1J0 1J020160113125511901/13/16 12:55:31  5-MIN K1J0 131855Z AUTO 02005KT 10SM CLR 16/M01 A3023 -190 33 -100 020/05 RMK AO2 SLP222 T01561006 $
63871K1J0 1J020160113130011901/13/16 13:00:31  5-MIN K1J0 131900Z AUTO 35003KT 10SM CLR 16/M01 A3022 -190 33 -100 350/03 RMK AO2 PRESFR T01561006 $
63871K1J0 1J020160113130511901/13/16 13:05:31  5-MIN K1J0 131905Z AUTO 34004KT 10SM CLR 16/M01 A3022 -180 33 -100 340/04 RMK AO2 PRESFR T01561006 $
63871K1J0 1J020160113131011201/13/16 13:10:31  5-MIN K1J0 131910Z AUTO 02003KT 10SM CLR 16/M01 A3021 -180 33 -100 020/03 RMK AO2 T01561006 $
63871K1J0 1J020160113131511201/13/16 13:15:31  5-MIN K1J0 131915Z AUTO 01006KT 10SM CLR 16/M01 A3021 -180 33 -100 010/06 RMK AO2 T01561006 $
63871K1J0 1J020160113132011201/13/16 13:20:31  5-MIN K1J0 131920Z AUTO 00000KT 10SM CLR 16/M01 A3021 -180 33 -100 000/00 RMK AO2 T01561006 $
63871K1J0 1J020160113132511101/13/16 13:25:31  5-MIN K1J0 131925Z AUTO VRB03KT 10SM CLR 16/00 A3021 -170 34 -100 VRB/03 RMK AO2 T01560000 $
63871K1J0 1J020160113133010801/13/16 13:30:31  5-MIN K1J0 131930Z AUTO 34004KT 10SM CLR 16/00 A3021 -170 33 0 340/04 RMK AO2 T01610000 $
63871K1J0 1J020160113133510801/13/16 13:35:31  5-MIN K1J0 131935Z AUTO 02007KT 10SM CLR 16/00 A3020 -170 33 0 020/07 RMK AO2 T01610000 $
63871K1J0 1J020160113134010901/13/16 13:40:31  5-MIN K1J0 131940Z AUTO 34006KT 10SM CLR 16/M01 A3020 -160 32 0 340/06 RMK AO2 T01611006 $
63871K1J0 1J020160113134511201/13/16 13:45:31  5-MIN K1J0 131945Z AUTO 35004KT 10SM CLR 16/M01 A3020 -170 31 -100 350/04 RMK AO2 T01561011 $
63871K1J0 1J020160113135010801/13/16 13:50:31  5-MIN K1J0 131950Z AUTO 35006KT 10SM CLR 16/00 A3020 -170 33 0 350/06 RMK AO2 T01610000 $
63871K1J0 1J020160113135511601/13/16 13:55:31  5-MIN K1J0 131955Z AUTO 04005KT 10SM CLR 16/M01 A3020 -160 32 0 040/05 RMK AO2 SLP211 T01611006 $
63871K1J0 1J020160113140010901/13/16 14:00:31  5-MIN K1J0 132000Z AUTO 04004KT 10SM CLR 16/M01 A3019 -160 30 0 040/04 RMK AO2 T01611011 $
63871K1J0 1J020160113140510901/13/16 14:05:31  5-MIN K1J0 132005Z AUTO VRB04KT 10SM CLR 17/M01 A3019 -160 29 0 VRB/04 RMK AO2 T01671011 $
63871K1J0 1J020160113141010801/13/16 14:10:31  5-MIN K1J0 132010Z AUTO 35005KT 10SM CLR 16/00 A3020 -160 33 0 350/05 RMK AO2 T01610000 $
63871K1J0 1J020160113141510901/13/16 14:15:31  5-MIN K1J0 132015Z AUTO 35004KT 10SM CLR 17/M01 A3019 -160 31 0 350/04 RMK AO2 T01671006 $
63871K1J0 1J020160113142010901/13/16 14:20:31  5-MIN K1J0 132020Z AUTO 36003KT 10SM CLR 17/M01 A3019 -160 29 0 360/03 RMK AO2 T01671011 $
63871K1J0 1J020160113142510901/13/16 14:25:31  5-MIN K1J0 132025Z AUTO 34004KT 10SM CLR 16/M01 A3019 -160 30 0 340/04 RMK AO2 T01611011 $
63871K1J0 1J020160113143010901/13/16 14:30:31  5-MIN K1J0 132030Z AUTO 34005KT 10SM CLR 16/M01 A3019 -160 32 0 340/05 RMK AO2 T01611006 $
63871K1J0 1J020160113143510801/13/16 14:35:31  5-MIN K1J0 132035Z AUTO 35005KT 10SM CLR 17/00 A3019 -160 32 0 350/05 RMK AO2 T01670000 $
63871K1J0 1J020160113144010901/13/16 14:40:31  5-MIN K1J0 132040Z AUTO VRB03KT 10SM CLR 16/M01 A3019 -160 32 0 VRB/03 RMK AO2 T01611006 $
63871K1J0 1J020160113144510901/13/16 14:45:31  5-MIN K1J0 132045Z AUTO 00000KT 10SM CLR 16/M01 A3020 -170 32 0 000/00 RMK AO2 T01611006 $
63871K1J0 1J020160113145010801/13/16 14:50:31  5-MIN K1J0 132050Z AUTO 00000KT 10SM CLR 17/00 A3020 -170 32 0 000/00 RMK AO2 T01670000 $
63871K1J0 1J020160113145512101/13/16 14:55:31  5-MIN K1J0 132055Z AUTO 35003KT 10SM CLR 16/00 A3020 -160 33 0 350/03 RMK AO2 SLP211 T01610000 58013 $
63871K1J0 1J020160113150010801/13/16 15:00:31  5-MIN K1J0 132100Z AUTO 36003KT 10SM CLR 16/00 A3019 -160 33 0 360/03 RMK AO2 T01610000 $
63871K1J0 1J020160113150510901/13/16 15:05:31  5-MIN K1J0 132105Z AUTO 00000KT 10SM CLR 16/M01 A3019 -160 30 0 000/00 RMK AO2 T01611011 $
63871K1J0 1J020160113151011201/13/16 15:10:31  5-MIN K1J0 132110Z AUTO 33003KT 10SM CLR 16/M01 A3020 -160 31 -100 330/03 RMK AO2 T01561011 $
63871K1J0 1J020160113151510901/13/16 15:15:31  5-MIN K1J0 132115Z AUTO 34007KT 10SM CLR 16/M01 A3019 -160 32 0 340/07 RMK AO2 T01611006 $
63871K1J0 1J020160113152011201/13/16 15:20:31  5-MIN K1J0 132120Z AUTO 34006KT 10SM CLR 16/M01 A3020 -160 33 -100 340/06 RMK AO2 T01561006 $
63871K1J0 1J020160113152510901/13/16 15:25:31  5-MIN K1J0 132125Z AUTO 34004KT 10SM CLR 16/M01 A3019 -160 32 0 340/04 RMK AO2 T01611006 $
63871K1J0 1J020160113153010901/13/16 15:30:31  5-MIN K1J0 132130Z AUTO 00000KT 10SM CLR 16/M01 A3019 -160 33 0 000/00 RMK AO2 T01561006 $
63871K1J0 1J020160113153510801/13/16 15:35:31  5-MIN K1J0 132135Z AUTO 35004KT 10SM CLR 16/00 A3019 -160 33 0 350/04 RMK AO2 T01610000 $
63871K1J0 1J020160113154010901/13/16 15:40:31  5-MIN K1J0 132140Z AUTO 30004KT 10SM CLR 16/M01 A3019 -160 31 0 300/04 RMK AO2 T01561011 $
63871K1J0 1J020160113154510901/13/16 15:45:31  5-MIN K1J0 132145Z AUTO 33004KT 10SM CLR 16/M01 A3019 -160 33 0 330/04 RMK AO2 T01561006 $
63871K1J0 1J020160113155011101/13/16 15:50:31  5-MIN K1J0 132150Z AUTO 31003KT 10SM CLR 16/00 A3020 -160 34 -100 310/03 RMK AO2 T01560000 $
63871K1J0 1J020160113155511501/13/16 15:55:31  5-MIN K1J0 132155Z AUTO 33004KT 10SM CLR 16/00 A3019 -160 34 0 330/04 RMK AO2 SLP210 T01560000 $
63871K1J0 1J020160113160011201/13/16 16:00:31  5-MIN K1J0 132200Z AUTO 00000KT 10SM CLR 15/M01 A3019 -160 34 -100 000/00 RMK AO2 T01501006 $
63871K1J0 1J020160113160511101/13/16 16:05:31  5-MIN K1J0 132205Z AUTO 31003KT 10SM CLR 16/00 A3020 -160 34 -100 310/03 RMK AO2 T01560000 $
63871K1J0 1J020160113161011101/13/16 16:10:31  5-MIN K1J0 132210Z AUTO 00000KT 10SM CLR 15/00 A3019 -160 35 -100 000/00 RMK AO2 T01500000 $
63871K1J0 1J020160113161511101/13/16 16:15:31  5-MIN K1J0 132215Z AUTO 00000KT 10SM CLR 15/01 A3019 -160 37 -100 000/00 RMK AO2 T01500006 $
63871K1J0 1J020160113162011101/13/16 16:20:31  5-MIN K1J0 132220Z AUTO 00000KT 10SM CLR 14/00 A3019 -160 37 -200 000/00 RMK AO2 T01440000 $
63871K1J0 1J020160113162511101/13/16 16:25:31  5-MIN K1J0 132225Z AUTO 00000KT 10SM CLR 14/01 A3020 -160 40 -200 000/00 RMK AO2 T01390006 $
63871K1J0 1J020160113163011101/13/16 16:30:31  5-MIN K1J0 132230Z AUTO 00000KT 10SM CLR 13/01 A3020 -160 41 -300 000/00 RMK AO2 T01330006 $
63871K1J0 1J020160113163511101/13/16 16:35:31  5-MIN K1J0 132235Z AUTO 00000KT 10SM CLR 13/02 A3019 -160 46 -400 000/00 RMK AO2 T01280017 $
63871K1J0 1J020160113164011101/13/16 16:40:31  5-MIN K1J0 132240Z AUTO 00000KT 10SM CLR 13/02 A3020 -160 46 -400 000/00 RMK AO2 T01280017 $
63871K1J0 1J020160113164511101/13/16 16:45:31  5-MIN K1J0 132245Z AUTO 00000KT 10SM CLR 12/03 A3020 -170 54 -500 000/00 RMK AO2 T01170028 $
63871K1J0 1J020160113165011101/13/16 16:50:31  5-MIN K1J0 132250Z AUTO 00000KT 10SM CLR 12/02 A3020 -170 52 -500 000/00 RMK AO2 T01170022 $
63871K1J0 1J020160113165511801/13/16 16:55:31  5-MIN K1J0 132255Z AUTO 00000KT 10SM CLR 11/03 A3020 -160 56 -600 000/00 RMK AO2 SLP212 T01110028 $
63871K1J0 1J020160113170011101/13/16 17:00:31  5-MIN K1J0 132300Z AUTO 00000KT 10SM CLR 11/03 A3020 -170 61 -700 000/00 RMK AO2 T01060033 $
63871K1J0 1J020160113170511101/13/16 17:05:31  5-MIN K1J0 132305Z AUTO 00000KT 10SM CLR 10/04 A3020 -170 65 -700 000/00 RMK AO2 T01000039 $
63871K1J0 1J020160113171011101/13/16 17:10:31  5-MIN K1J0 132310Z AUTO 00000KT 10SM CLR 10/04 A3020 -160 68 -700 000/00 RMK AO2 T01000044 $
63871K1J0 1J020160113171511101/13/16 17:15:31  5-MIN K1J0 132315Z AUTO 00000KT 10SM CLR 10/04 A3020 -170 68 -700 000/00 RMK AO2 T01000044 $
63871K1J0 1J020160113172011101/13/16 17:20:31  5-MIN K1J0 132320Z AUTO 00000KT 10SM CLR 09/04 A3020 -170 73 -900 000/00 RMK AO2 T00890044 $
63871K1J0 1J020160113172511101/13/16 17:25:31  5-MIN K1J0 132325Z AUTO 00000KT 10SM CLR 09/04 A3020 -170 73 -900 000/00 RMK AO2 T00890044 $
63871K1J0 1J020160113173011101/13/16 17:30:31  5-MIN K1J0 132330Z AUTO 00000KT 10SM CLR 08/04 A3021 -170 76 -900 000/00 RMK AO2 T00830044 $
63871K1J0 1J020160113173511101/13/16 17:35:31  5-MIN K1J0 132335Z AUTO 00000KT 10SM CLR 08/04 A3021 -170 76 -900 000/00 RMK AO2 T00830044 $
63871K1J0 1J020160113174011201/13/16 17:40:31  5-MIN K1J0 132340Z AUTO 00000KT 10SM CLR 08/04 A3021 -180 79 -1000 000/00 RMK AO2 T00780044 $
63871K1J0 1J020160113174511201/13/16 17:45:31  5-MIN K1J0 132345Z AUTO 00000KT 10SM CLR 08/04 A3022 -180 79 -1000 000/00 RMK AO2 T00780044 $
63871K1J0 1J020160113175011201/13/16 17:50:31  5-MIN K1J0 132350Z AUTO 00000KT 10SM CLR 07/03 A3022 -180 76 -1100 000/00 RMK AO2 T00720033 $
63871K1J0 1J020160113175513701/13/16 17:55:31  5-MIN K1J0 132355Z AUTO 00000KT 10SM CLR 08/04 A3021 -170 76 -1000 000/00 RMK AO2 SLP216 T00780039 10167 20072 55024 $
63871K1J0 1J020160113180011201/13/16 18:00:31  5-MIN K1J0 140000Z AUTO 34003KT 10SM CLR 08/04 A3020 -170 76 -1000 340/03 RMK AO2 T00780039 $
63871K1J0 1J020160113180511201/13/16 18:05:31  5-MIN K1J0 140005Z AUTO 00000KT 10SM CLR 07/04 A3021 -170 79 -1100 000/00 RMK AO2 T00720039 $
63871K1J0 1J020160113181011201/13/16 18:10:31  5-MIN K1J0 140010Z AUTO 00000KT 10SM CLR 07/04 A3021 -180 82 -1100 000/00 RMK AO2 T00670039 $
63871K1J0 1J020160113181511201/13/16 18:15:31  5-MIN K1J0 140015Z AUTO 00000KT 10SM CLR 07/04 A3021 -180 82 -1100 000/00 RMK AO2 T00670039 $
63871K1J0 1J020160113182011201/13/16 18:20:31  5-MIN K1J0 140020Z AUTO 00000KT 10SM CLR 07/04 A3022 -180 82 -1100 000/00 RMK AO2 T00670039 $
63871K1J0 1J020160113182511201/13/16 18:25:31  5-MIN K1J0 140025Z AUTO 00000KT 10SM CLR 07/04 A3022 -180 82 -1100 000/00 RMK AO2 T00670039 $
63871K1J0 1J020160113183011201/13/16 18:30:31  5-MIN K1J0 140030Z AUTO 00000KT 10SM CLR 06/04 A3022 -180 86 -1200 000/00 RMK AO2 T00610039 $
63871K1J0 1J020160113183511201/13/16 18:35:31  5-MIN K1J0 140035Z AUTO 00000KT 10SM CLR 06/04 A3022 -190 86 -1200 000/00 RMK AO2 T00610039 $
63871K1J0 1J020160113184011201/13/16 18:40:31  5-MIN K1J0 140040Z AUTO 00000KT 10SM CLR 06/03 A3022 -180 82 -1200 000/00 RMK AO2 T00610033 $
63871K1J0 1J020160113184511201/13/16 18:45:31  5-MIN K1J0 140045Z AUTO 00000KT 10SM CLR 06/03 A3022 -180 82 -1200 000/00 RMK AO2 T00610033 $
63871K1J0 1J020160113185011201/13/16 18:50:31  5-MIN K1J0 140050Z AUTO 00000KT 10SM CLR 06/03 A3021 -180 82 -1200 000/00 RMK AO2 T00610033 $
63871K1J0 1J020160113185511901/13/16 18:55:31  5-MIN K1J0 140055Z AUTO 00000KT 10SM CLR 06/04 A3021 -180 86 -1200 000/00 RMK AO2 SLP218 T00610039 $
63871K1J0 1J020160113190011201/13/16 19:00:31  5-MIN K1J0 140100Z AUTO 00000KT 10SM CLR 06/03 A3022 -190 82 -1200 000/00 RMK AO2 T00610033 $
63871K1J0 1J020160113190511201/13/16 19:05:31  5-MIN K1J0 140105Z AUTO 00000KT 10SM CLR 06/03 A3022 -190 85 -1300 000/00 RMK AO2 T00560033 $
63871K1J0 1J020160113191011201/13/16 19:10:31  5-MIN K1J0 140110Z AUTO 00000KT 10SM CLR 06/03 A3022 -190 85 -1300 000/00 RMK AO2 T00560033 $
63871K1J0 1J020160113191511201/13/16 19:15:31  5-MIN K1J0 140115Z AUTO 00000KT 10SM CLR 06/03 A3022 -190 85 -1300 000/00 RMK AO2 T00560033 $
63871K1J0 1J020160113192011201/13/16 19:20:31  5-MIN K1J0 140120Z AUTO 00000KT 10SM CLR 05/03 A3022 -190 89 -1400 000/00 RMK AO2 T00500033 $
63871K1J0 1J020160113192511201/13/16 19:25:31  5-MIN K1J0 140125Z AUTO 00000KT 10SM CLR 05/03 A3023 -190 89 -1400 000/00 RMK AO2 T00500033 $
63871K1J0 1J020160113193011201/13/16 19:30:31  5-MIN K1J0 140130Z AUTO 00000KT 10SM CLR 05/03 A3022 -190 85 -1400 000/00 RMK AO2 T00500028 $
63871K1J0 1J020160113193511201/13/16 19:35:31  5-MIN K1J0 140135Z AUTO 00000KT 10SM CLR 05/03 A3023 -190 85 -1400 000/00 RMK AO2 T00500028 $
63871K1J0 1J020160113194011201/13/16 19:40:31  5-MIN K1J0 140140Z AUTO 00000KT 10SM CLR 05/03 A3023 -190 89 -1400 000/00 RMK AO2 T00500033 $
63871K1J0 1J020160113194511201/13/16 19:45:31  5-MIN K1J0 140145Z AUTO 00000KT 10SM CLR 05/03 A3023 -190 85 -1400 000/00 RMK AO2 T00500028 $
63871K1J0 1J020160113195011201/13/16 19:50:31  5-MIN K1J0 140150Z AUTO 00000KT 10SM CLR 05/03 A3023 -190 85 -1400 000/00 RMK AO2 T00500028 $
63871K1J0 1J020160113195511901/13/16 19:55:31  5-MIN K1J0 140155Z AUTO 00000KT 10SM CLR 05/03 A3023 -200 89 -1400 000/00 RMK AO2 SLP224 T00500033 $
63871K1J0 1J020160113200011201/13/16 20:00:31  5-MIN K1J0 140200Z AUTO 00000KT 10SM CLR 04/03 A3023 -190 89 -1400 000/00 RMK AO2 T00440028 $
63871K1J0 1J020160113200511201/13/16 20:05:31  5-MIN K1J0 140205Z AUTO 00000KT 10SM CLR 04/03 A3023 -190 89 -1400 000/00 RMK AO2 T00440028 $
63871K1J0 1J020160113201011201/13/16 20:10:31  5-MIN K1J0 140210Z AUTO 00000KT 10SM CLR 04/03 A3023 -190 89 -1400 000/00 RMK AO2 T00440028 $
63871K1J0 1J020160113201511201/13/16 20:15:31  5-MIN K1J0 140215Z AUTO 00000KT 10SM CLR 04/03 A3023 -190 89 -1400 000/00 RMK AO2 T00440028 $
63871K1J0 1J020160113202011201/13/16 20:20:31  5-MIN K1J0 140220Z AUTO 00000KT 10SM CLR 04/03 A3023 -190 89 -1400 000/00 RMK AO2 T00440028 $
63871K1J0 1J020160113202511201/13/16 20:25:31  5-MIN K1J0 140225Z AUTO 00000KT 10SM CLR 04/03 A3023 -190 89 -1400 000/00 RMK AO2 T00440028 $
63871K1J0 1J020160113203011201/13/16 20:30:31  5-MIN K1J0 140230Z AUTO 00000KT 10SM CLR 04/03 A3023 -200 89 -1400 000/00 RMK AO2 T00440028 $
63871K1J0 1J020160113203511201/13/16 20:35:31  5-MIN K1J0 140235Z AUTO 00000KT 10SM CLR 04/03 A3023 -190 92 -1500 000/00 RMK AO2 T00390028 $
63871K1J0 1J020160113204011201/13/16 20:40:31  5-MIN K1J0 140240Z AUTO 00000KT 10SM CLR 04/03 A3023 -190 92 -1500 000/00 RMK AO2 T00390028 $
63871K1J0 1J020160113204511201/13/16 20:45:31  5-MIN K1J0 140245Z AUTO 00000KT 10SM CLR 04/03 A3023 -200 92 -1500 000/00 RMK AO2 T00390028 $
63871K1J0 1J020160113205011201/13/16 20:50:31  5-MIN K1J0 140250Z AUTO 00000KT 10SM CLR 04/03 A3023 -200 92 -1500 000/00 RMK AO2 T00390028 $
63871K1J0 1J020160113205512501/13/16 20:55:31  5-MIN K1J0 140255Z AUTO 00000KT 10SM CLR 04/03 A3023 -200 92 -1500 000/00 RMK AO2 SLP222 T00390028 53001 $
63871K1J0 1J020160113210011201/13/16 21:00:31  5-MIN K1J0 140300Z AUTO 00000KT 10SM CLR 04/02 A3023 -200 89 -1500 000/00 RMK AO2 T00390022 $
63871K1J0 1J020160113210511201/13/16 21:05:31  5-MIN K1J0 140305Z AUTO 00000KT 10SM CLR 03/02 A3023 -200 92 -1600 000/00 RMK AO2 T00330022 $
63871K1J0 1J020160113211011201/13/16 21:10:31  5-MIN K1J0 140310Z AUTO 00000KT 10SM CLR 03/02 A3024 -200 89 -1600 000/00 RMK AO2 T00330017 $
63871K1J0 1J020160113211511201/13/16 21:15:31  5-MIN K1J0 140315Z AUTO 00000KT 10SM CLR 03/02 A3024 -200 89 -1600 000/00 RMK AO2 T00330017 $
63871K1J0 1J020160113212011201/13/16 21:20:31  5-MIN K1J0 140320Z AUTO 00000KT 10SM CLR 03/02 A3024 -200 92 -1600 000/00 RMK AO2 T00330022 $
63871K1J0 1J020160113212511201/13/16 21:25:31  5-MIN K1J0 140325Z AUTO 00000KT 10SM CLR 03/02 A3024 -200 92 -1600 000/00 RMK AO2 T00330022 $
63871K1J0 1J020160113213011201/13/16 21:30:31  5-MIN K1J0 140330Z AUTO 00000KT 10SM CLR 03/02 A3023 -200 92 -1600 000/00 RMK AO2 T00330022 $
63871K1J0 1J020160113213511201/13/16 21:35:31  5-MIN K1J0 140335Z AUTO 00000KT 10SM CLR 03/02 A3023 -200 92 -1600 000/00 RMK AO2 T00280017 $
63871K1J0 1J020160113214011201/13/16 21:40:31  5-MIN K1J0 140340Z AUTO 00000KT 10SM CLR 03/02 A3023 -200 92 -1700 000/00 RMK AO2 T00280017 $
63871K1J0 1J020160113214511201/13/16 21:45:31  5-MIN K1J0 140345Z AUTO 00000KT 10SM CLR 03/02 A3024 -200 89 -1600 000/00 RMK AO2 T00330017 $
63871K1J0 1J020160113215011201/13/16 21:50:31  5-MIN K1J0 140350Z AUTO 00000KT 10SM CLR 03/02 A3024 -200 89 -1600 000/00 RMK AO2 T00330017 $
63871K1J0 1J020160113215511901/13/16 21:55:31  5-MIN K1J0 140355Z AUTO 00000KT 10SM CLR 03/02 A3024 -200 89 -1600 000/00 RMK AO2 SLP225 T00330017 $
63871K1J0 1J020160113220011201/13/16 22:00:31  5-MIN K1J0 140400Z AUTO 00000KT 10SM CLR 03/02 A3023 -200 92 -1700 000/00 RMK AO2 T00280017 $
63871K1J0 1J020160113220511201/13/16 22:05:31  5-MIN K1J0 140405Z AUTO 00000KT 10SM CLR 03/02 A3023 -200 92 -1700 000/00 RMK AO2 T00280017 $
63871K1J0 1J020160113221011201/13/16 22:10:31  5-MIN K1J0 140410Z AUTO 00000KT 10SM CLR 03/02 A3023 -200 92 -1600 000/00 RMK AO2 T00280017 $
63871K1J0 1J020160113221511201/13/16 22:15:31  5-MIN K1J0 140415Z AUTO 00000KT 10SM CLR 03/02 A3024 -200 92 -1700 000/00 RMK AO2 T00280017 $
63871K1J0 1J020160113222011201/13/16 22:20:31  5-MIN K1J0 140420Z AUTO 00000KT 10SM CLR 03/02 A3024 -200 92 -1700 000/00 RMK AO2 T00280017 $
63871K1J0 1J020160113222511201/13/16 22:25:31  5-MIN K1J0 140425Z AUTO 00000KT 10SM CLR 03/02 A3023 -200 92 -1600 000/00 RMK AO2 T00280017 $
63871K1J0 1J020160113223011201/13/16 22:30:31  5-MIN K1J0 140430Z AUTO 00000KT 10SM CLR 03/02 A3023 -200 92 -1600 000/00 RMK AO2 T00280017 $
63871K1J0 1J020160113223511201/13/16 22:35:31  5-MIN K1J0 140435Z AUTO 00000KT 10SM CLR 03/02 A3023 -200 92 -1700 000/00 RMK AO2 T00280017 $
63871K1J0 1J020160113224011201/13/16 22:40:31  5-MIN K1J0 140440Z AUTO 00000KT 10SM CLR 03/02 A3023 -200 92 -1600 000/00 RMK AO2 T00280017 $
63871K1J0 1J020160113224511201/13/16 22:45:31  5-MIN K1J0 140445Z AUTO 00000KT 10SM CLR 03/02 A3023 -200 92 -1600 000/00 RMK AO2 T00280017 $
63871K1J0 1J020160113225011201/13/16 22:50:31  5-MIN K1J0 140450Z AUTO 00000KT 10SM CLR 03/02 A3023 -200 92 -1600 000/00 RMK AO2 T00280017 $
63871K1J0 1J020160113225511901/13/16 22:55:31  5-MIN K1J0 140455Z AUTO 00000KT 10SM CLR 03/02 A3023 -200 92 -1600 000/00 RMK AO2 SLP221 T00280017 $
63871K1J0 1J020160113230011201/13/16 23:00:31  5-MIN K1J0 140500Z AUTO 00000KT 10SM CLR 03/02 A3023 -190 92 -1600 000/00 RMK AO2 T00280017 $
63871K1J0 1J020160113230511201/13/16 23:05:31  5-MIN K1J0 140505Z AUTO 00000KT 10SM CLR 03/02 A3023 -190 92 -1600 000/00 RMK AO2 T00280017 $
63871K1J0 1J020160113231011201/13/16 23:10:31  5-MIN K1J0 140510Z AUTO 00000KT 10SM CLR 03/02 A3023 -190 92 -1600 000/00 RMK AO2 T00280017 $
63871K1J0 1J020160113231511201/13/16 23:15:31  5-MIN K1J0 140515Z AUTO 00000KT 10SM CLR 03/02 A3023 -190 92 -1600 000/00 RMK AO2 T00280017 $
63871K1J0 1J020160113232011201/13/16 23:20:31  5-MIN K1J0 140520Z AUTO 00000KT 10SM CLR 02/02 A3022 -190 96 -1700 000/00 RMK AO2 T00220017 $
63871K1J0 1J020160113232511201/13/16 23:25:31  5-MIN K1J0 140525Z AUTO 00000KT 10SM CLR 02/02 A3023 -190 96 -1700 000/00 RMK AO2 T00220017 $
63871K1J0 1J020160113233011201/13/16 23:30:31  5-MIN K1J0 140530Z AUTO 00000KT 10SM CLR 02/02 A3022 -190 96 -1700 000/00 RMK AO2 T00220017 $
63871K1J0 1J020160113233511201/13/16 23:35:31  5-MIN K1J0 140535Z AUTO 00000KT 10SM CLR 02/02 A3022 -190 96 -1700 000/00 RMK AO2 T00220017 $
63871K1J0 1J020160113234011201/13/16 23:40:31  5-MIN K1J0 140540Z AUTO 00000KT 10SM CLR 02/02 A3022 -180 96 -1700 000/00 RMK AO2 T00220017 $
63871K1J0 1J020160113234511201/13/16 23:45:31  5-MIN K1J0 140545Z AUTO 00000KT 10SM CLR 02/02 A3021 -180 96 -1700 000/00 RMK AO2 T00220017 $
63871K1J0 1J020160113235011201/13/16 23:50:31  5-MIN K1J0 140550Z AUTO 00000KT 10SM CLR 02/02 A3021 -180 96 -1700 000/00 RMK AO2 T00220017 $
63871K1J0 1J020160113235514701/13/16 23:55:31  5-MIN K1J0 140555Z AUTO 17003KT 10SM CLR 02/02 A3021 -180 96 -1700 170/03 RMK AO2 SLP215 T00220017 10078 20022 401671006 51009 $
63871K1J0 1J020160114000011201/14/16 00:00:31  5-MIN K1J0 140600Z AUTO 19003KT 10SM CLR 02/02 A3021 -180 96 -1700 190/03 RMK AO2 T00220017 $
63871K1J0 1J020160114000511201/14/16 00:05:31  5-MIN K1J0 140605Z AUTO 00000KT 10SM CLR 02/02 A3021 -170 96 -1700 000/00 RMK AO2 T00220017 $
63871K1J0 1J020160114001011201/14/16 00:10:31  5-MIN K1J0 140610Z AUTO 00000KT 10SM CLR 02/01 A3021 -170 92 -1700 000/00 RMK AO2 T00220011 $
63871K1J0 1J020160114001511201/14/16 00:15:31  5-MIN K1J0 140615Z AUTO 00000KT 10SM CLR 02/01 A3021 -170 92 -1700 000/00 RMK AO2 T00220011 $
63871K1J0 1J020160114002011201/14/16 00:20:31  5-MIN K1J0 140620Z AUTO 00000KT 10SM CLR 02/01 A3021 -170 92 -1700 000/00 RMK AO2 T00220011 $
63871K1J0 1J020160114002511201/14/16 00:25:31  5-MIN K1J0 140625Z AUTO 00000KT 10SM CLR 02/01 A3020 -170 92 -1700 000/00 RMK AO2 T00220011 $
63871K1J0 1J020160114003011201/14/16 00:30:31  5-MIN K1J0 140630Z AUTO 00000KT 10SM CLR 02/01 A3020 -170 96 -1800 000/00 RMK AO2 T00170011 $
63871K1J0 1J020160114003511201/14/16 00:35:31  5-MIN K1J0 140635Z AUTO 00000KT 10SM CLR 01/01 A3020 -170 96 -1800 000/00 RMK AO2 T00110006 $
63871K1J0 1J020160114004011201/14/16 00:40:31  5-MIN K1J0 140640Z AUTO 00000KT 10SM CLR 02/01 A3020 -170 92 -1800 000/00 RMK AO2 T00170006 $
63871K1J0 1J020160114004511201/14/16 00:45:31  5-MIN K1J0 140645Z AUTO 00000KT 10SM CLR 02/01 A3020 -170 92 -1800 000/00 RMK AO2 T00170006 $
63871K1J0 1J020160114005011201/14/16 00:50:31  5-MIN K1J0 140650Z AUTO 00000KT 10SM CLR 02/01 A3020 -160 96 -1700 000/00 RMK AO2 T00170011 $
63871K1J0 1J020160114005511901/14/16 00:55:31  5-MIN K1J0 140655Z AUTO 00000KT 10SM CLR 02/01 A3020 -170 96 -1700 000/00 RMK AO2 SLP211 T00170011 $
63871K1J0 1J020160114010011201/14/16 01:00:31  5-MIN K1J0 140700Z AUTO 00000KT 10SM CLR 02/01 A3020 -160 96 -1700 000/00 RMK AO2 T00170011 $
63871K1J0 1J020160114010511201/14/16 01:05:31  5-MIN K1J0 140705Z AUTO 00000KT 10SM CLR 02/01 A3019 -160 96 -1700 000/00 RMK AO2 T00170011 $
63871K1J0 1J020160114011011201/14/16 01:10:31  5-MIN K1J0 140710Z AUTO 00000KT 10SM CLR 02/01 A3019 -160 96 -1700 000/00 RMK AO2 T00170011 $
63871K1J0 1J020160114011511201/14/16 01:15:31  5-MIN K1J0 140715Z AUTO 00000KT 10SM CLR 02/01 A3019 -160 92 -1700 000/00 RMK AO2 T00170006 $
63871K1J0 1J020160114012011201/14/16 01:20:31  5-MIN K1J0 140720Z AUTO 00000KT 10SM CLR 01/01 A3019 -160 96 -1800 000/00 RMK AO2 T00110006 $
63871K1J0 1J020160114012511201/14/16 01:25:31  5-MIN K1J0 140725Z AUTO 00000KT 10SM CLR 01/01 A3019 -160 96 -1800 000/00 RMK AO2 T00110006 $
63871K1J0 1J020160114013011201/14/16 01:30:31  5-MIN K1J0 140730Z AUTO 00000KT 10SM CLR 01/01 A3019 -160 96 -1800 000/00 RMK AO2 T00110006 $
63871K1J0 1J020160114013511201/14/16 01:35:31  5-MIN K1J0 140735Z AUTO 00000KT 10SM CLR 01/00 A3019 -150 92 -1800 000/00 RMK AO2 T00110000 $
63871K1J0 1J020160114014011201/14/16 01:40:31  5-MIN K1J0 140740Z AUTO 00000KT 10SM CLR 01/00 A3019 -160 92 -1800 000/00 RMK AO2 T00110000 $
63871K1J0 1J020160114014511201/14/16 01:45:31  5-MIN K1J0 140745Z AUTO 00000KT 10SM CLR 01/01 A3019 -160 96 -1800 000/00 RMK AO2 T00110006 $
63871K1J0 1J020160114015011201/14/16 01:50:31  5-MIN K1J0 140750Z AUTO 00000KT 10SM CLR 01/00 A3019 -150 92 -1800 000/00 RMK AO2 T00110000 $
63871K1J0 1J020160114015511901/14/16 01:55:31  5-MIN K1J0 140755Z AUTO 00000KT 10SM CLR 01/00 A3018 -150 92 -1800 000/00 RMK AO2 SLP206 T00110000 $
63871K1J0 1J020160114020011201/14/16 02:00:31  5-MIN K1J0 140800Z AUTO 00000KT 10SM CLR 01/00 A3018 -150 92 -1800 000/00 RMK AO2 T00110000 $
63871K1J0 1J020160114020511201/14/16 02:05:31  5-MIN K1J0 140805Z AUTO 00000KT 10SM CLR 01/00 A3018 -150 92 -1800 000/00 RMK AO2 T00110000 $
63871K1J0 1J020160114021011201/14/16 02:10:31  5-MIN K1J0 140810Z AUTO 00000KT 10SM CLR 01/00 A3019 -150 92 -1800 000/00 RMK AO2 T00110000 $
63871K1J0 1J020160114021511201/14/16 02:15:31  5-MIN K1J0 140815Z AUTO 00000KT 10SM CLR 01/00 A3019 -160 92 -1800 000/00 RMK AO2 T00110000 $
63871K1J0 1J020160114022011201/14/16 02:20:31  5-MIN K1J0 140820Z AUTO 00000KT 10SM CLR 01/00 A3019 -150 92 -1800 000/00 RMK AO2 T00110000 $
63871K1J0 1J020160114022511201/14/16 02:25:31  5-MIN K1J0 140825Z AUTO 00000KT 10SM CLR 01/00 A3018 -150 92 -1800 000/00 RMK AO2 T00110000 $
63871K1J0 1J020160114023011201/14/16 02:30:31  5-MIN K1J0 140830Z AUTO 00000KT 10SM CLR 01/00 A3018 -150 92 -1800 000/00 RMK AO2 T00110000 $
63871K1J0 1J020160114023511201/14/16 02:35:31  5-MIN K1J0 140835Z AUTO 00000KT 10SM CLR 01/00 A3018 -150 96 -1900 000/00 RMK AO2 T00060000 $
63871K1J0 1J020160114024011201/14/16 02:40:31  5-MIN K1J0 140840Z AUTO 00000KT 10SM CLR 01/00 A3018 -150 96 -1900 000/00 RMK AO2 T00060000 $
63871K1J0 1J020160114024511201/14/16 02:45:31  5-MIN K1J0 140845Z AUTO 00000KT 10SM CLR 01/00 A3018 -150 96 -1900 000/00 RMK AO2 T00060000 $
63871K1J0 1J020160114025011201/14/16 02:50:31  5-MIN K1J0 140850Z AUTO 00000KT 10SM CLR 01/00 A3018 -150 92 -1800 000/00 RMK AO2 T00110000 $
63871K1J0 1J020160114025512501/14/16 02:55:31  5-MIN K1J0 140855Z AUTO 00000KT 10SM CLR 01/00 A3018 -150 96 -1900 000/00 RMK AO2 SLP205 T00060000 58006 $
63871K1J0 1J020160114030011201/14/16 03:00:31  5-MIN K1J0 140900Z AUTO 00000KT 10SM CLR 01/00 A3018 -150 92 -1800 000/00 RMK AO2 T00110000 $
63871K1J0 1J020160114030511201/14/16 03:05:31  5-MIN K1J0 140905Z AUTO 00000KT 10SM CLR 01/00 A3019 -150 96 -1900 000/00 RMK AO2 T00060000 $
63871K1J0 1J020160114031011201/14/16 03:10:31  5-MIN K1J0 140910Z AUTO 00000KT 10SM CLR 01/00 A3019 -160 96 -1900 000/00 RMK AO2 T00060000 $
63871K1J0 1J020160114031511201/14/16 03:15:31  5-MIN K1J0 140915Z AUTO 00000KT 10SM CLR 01/00 A3019 -160 96 -1900 000/00 RMK AO2 T00060000 $
63871K1J0 1J020160114032011301/14/16 03:20:31  5-MIN K1J0 140920Z AUTO 00000KT 10SM CLR 01/M01 A3019 -150 92 -1900 000/00 RMK AO2 T00061006 $
63871K1J0 1J020160114032511301/14/16 03:25:31  5-MIN K1J0 140925Z AUTO 00000KT 10SM CLR 01/M01 A3019 -150 92 -1900 000/00 RMK AO2 T00061006 $
63871K1J0 1J020160114033011301/14/16 03:30:31  5-MIN K1J0 140930Z AUTO 00000KT 10SM CLR 01/M01 A3018 -150 92 -1900 000/00 RMK AO2 T00061006 $
63871K1J0 1J020160114033511201/14/16 03:35:31  5-MIN K1J0 140935Z AUTO 00000KT 10SM CLR 01/00 A3019 -150 96 -1900 000/00 RMK AO2 T00060000 $
63871K1J0 1J020160114034011201/14/16 03:40:31  5-MIN K1J0 140940Z AUTO 00000KT 10SM CLR 01/00 A3019 -150 96 -1900 000/00 RMK AO2 T00060000 $
63871K1J0 1J020160114034511201/14/16 03:45:31  5-MIN K1J0 140945Z AUTO 00000KT 10SM CLR 01/00 A3018 -150 96 -1900 000/00 RMK AO2 T00060000 $
63871K1J0 1J020160114035011201/14/16 03:50:31  5-MIN K1J0 140950Z AUTO 00000KT 10SM CLR 01/00 A3018 -150 96 -1900 000/00 RMK AO2 T00060000 $
63871K1J0 1J020160114035511901/14/16 03:55:31  5-MIN K1J0 140955Z AUTO 00000KT 10SM CLR 01/00 A3018 -150 96 -1900 000/00 RMK AO2 SLP205 T00060000 $
63871K1J0 1J020160114040011301/14/16 04:00:31  5-MIN K1J0 141000Z AUTO 00000KT 10SM CLR 01/M01 A3018 -150 92 -1900 000/00 RMK AO2 T00061006 $
63871K1J0 1J020160114040511201/14/16 04:05:31  5-MIN K1J0 141005Z AUTO 00000KT 10SM CLR 01/00 A3018 -150 96 -1900 000/00 RMK AO2 T00060000 $
63871K1J0 1J020160114041011201/14/16 04:10:31  5-MIN K1J0 141010Z AUTO 00000KT 10SM CLR 01/00 A3018 -150 96 -1900 000/00 RMK AO2 T00060000 $
63871K1J0 1J020160114041511301/14/16 04:15:31  5-MIN K1J0 141015Z AUTO 00000KT 10SM CLR 01/M01 A3018 -150 92 -1900 000/00 RMK AO2 T00061006 $
63871K1J0 1J020160114042011301/14/16 04:20:31  5-MIN K1J0 141020Z AUTO 00000KT 10SM CLR 00/M01 A3018 -140 96 -1900 000/00 RMK AO2 T00001006 $
63871K1J0 1J020160114042511301/14/16 04:25:31  5-MIN K1J0 141025Z AUTO 00000KT 10SM CLR 01/M01 A3018 -140 92 -1900 000/00 RMK AO2 T00061006 $
63871K1J0 1J020160114043011201/14/16 04:30:31  5-MIN K1J0 141030Z AUTO 00000KT 10SM CLR 01/00 A3018 -150 96 -1900 000/00 RMK AO2 T00060000 $
63871K1J0 1J020160114043511201/14/16 04:35:31  5-MIN K1J0 141035Z AUTO 00000KT 10SM CLR 01/00 A3018 -140 96 -1900 000/00 RMK AO2 T00060000 $
63871K1J0 1J020160114044011201/14/16 04:40:31  5-MIN K1J0 141040Z AUTO 00000KT 10SM CLR 01/00 A3017 -140 96 -1900 000/00 RMK AO2 T00060000 $
63871K1J0 1J020160114044511201/14/16 04:45:31  5-MIN K1J0 141045Z AUTO 00000KT 10SM CLR 01/00 A3017 -140 96 -1900 000/00 RMK AO2 T00060000 $
63871K1J0 1J020160114045011201/14/16 04:50:31  5-MIN K1J0 141050Z AUTO 00000KT 10SM CLR 01/00 A3017 -140 96 -1900 000/00 RMK AO2 T00060000 $
63871K1J0 1J020160114045511901/14/16 04:55:31  5-MIN K1J0 141055Z AUTO 00000KT 10SM CLR 01/00 A3017 -140 96 -1900 000/00 RMK AO2 SLP202 T00060000 $
63871K1J0 1J020160114050011301/14/16 05:00:31  5-MIN K1J0 141100Z AUTO 00000KT 10SM CLR 01/M01 A3017 -140 92 -1900 000/00 RMK AO2 T00061006 $
63871K1J0 1J020160114050511301/14/16 05:05:31  5-MIN K1J0 141105Z AUTO 00000KT 10SM CLR 01/M01 A3017 -140 92 -1900 000/00 RMK AO2 T00061006 $
63871K1J0 1J020160114051011201/14/16 05:10:31  5-MIN K1J0 141110Z AUTO 00000KT 10SM CLR 01/00 A3017 -140 96 -1900 000/00 RMK AO2 T00060000 $
63871K1J0 1J020160114051511301/14/16 05:15:31  5-MIN K1J0 141115Z AUTO 00000KT 10SM CLR 01/M01 A3018 -140 92 -1900 000/00 RMK AO2 T00061006 $
63871K1J0 1J020160114052011201/14/16 05:20:31  5-MIN K1J0 141120Z AUTO 00000KT 10SM CLR 01/00 A3018 -150 96 -1900 000/00 RMK AO2 T00060000 $
63871K1J0 1J020160114052511201/14/16 05:25:31  5-MIN K1J0 141125Z AUTO 00000KT 10SM CLR 01/00 A3018 -150 96 -1900 000/00 RMK AO2 T00060000 $
63871K1J0 1J020160114053011201/14/16 05:30:31  5-MIN K1J0 141130Z AUTO 00000KT 10SM CLR 01/00 A3018 -150 96 -1900 000/00 RMK AO2 T00060000 $
63871K1J0 1J020160114053511301/14/16 05:35:31  5-MIN K1J0 141135Z AUTO 00000KT 10SM CLR 01/M01 A3019 -150 92 -1900 000/00 RMK AO2 T00061006 $
63871K1J0 1J020160114054011301/14/16 05:40:31  5-MIN K1J0 141140Z AUTO 00000KT 10SM CLR 00/M01 A3019 -150 96 -1900 000/00 RMK AO2 T00001006 $
63871K1J0 1J020160114054511301/14/16 05:45:31  5-MIN K1J0 141145Z AUTO 00000KT 10SM CLR 00/M01 A3018 -150 96 -1900 000/00 RMK AO2 T00001006 $
63871K1J0 1J020160114055011301/14/16 05:50:31  5-MIN K1J0 141150Z AUTO 00000KT 10SM CLR 00/M01 A3018 -150 96 -1900 000/00 RMK AO2 T00001006 $
63871K1J0 1J020160114055513801/14/16 05:55:31  5-MIN K1J0 141155Z AUTO 00000KT 10SM CLR 00/M01 A3019 -150 96 -1900 000/00 RMK AO2 SLP208 T00001006 10022 20000 56011 $
63871K1J0 1J020160114060011101/14/16 06:00:31  5-MIN K1J0 141200Z AUTO 00000KT 10SM CLR 00/M01 A3018 -150 96 -1900 000/00 RMK AO2 T00001006
63871K1J0 1J020160114060511101/14/16 06:05:31  5-MIN K1J0 141205Z AUTO 00000KT 10SM CLR 00/M01 A3018 -150 96 -1900 000/00 RMK AO2 T00001006
63871K1J0 1J020160114061011101/14/16 06:10:31  5-MIN K1J0 141210Z AUTO 00000KT 10SM CLR 00/M01 A3018 -150 92 -1900 000/00 RMK AO2 T00001011
63871K1J0 1J020160114061511201/14/16 06:15:31  5-MIN K1J0 141215Z AUTO 00000KT 10SM CLR M01/M01 A3019 -150 96 -2000 000/00 RMK AO2 T10061011
63871K1J0 1J020160114062011101/14/16 06:20:31  5-MIN K1J0 141220Z AUTO 00000KT 10SM CLR 00/M01 A3019 -150 92 -1900 000/00 RMK AO2 T00001011
63871K1J0 1J020160114062511101/14/16 06:25:31  5-MIN K1J0 141225Z AUTO 00000KT 10SM CLR 00/M01 A3019 -150 92 -1900 000/00 RMK AO2 T00001011
63871K1J0 1J020160114063011101/14/16 06:30:31  5-MIN K1J0 141230Z AUTO 00000KT 10SM CLR 00/M01 A3019 -160 92 -1900 000/00 RMK AO2 T00001011
63871K1J0 1J020160114063511101/14/16 06:35:31  5-MIN K1J0 141235Z AUTO 00000KT 10SM CLR 01/M01 A3020 -160 92 -1900 000/00 RMK AO2 T00061006
63871K1J0 1J020160114064011101/14/16 06:40:31  5-MIN K1J0 141240Z AUTO 00000KT 10SM CLR 01/M01 A3020 -160 92 -1900 000/00 RMK AO2 T00061006
63871K1J0 1J020160114064511101/14/16 06:45:31  5-MIN K1J0 141245Z AUTO 00000KT 10SM CLR 01/M01 A3020 -160 92 -1900 000/00 RMK AO2 T00061006
63871K1J0 1J020160114065011101/14/16 06:50:31  5-MIN K1J0 141250Z AUTO 00000KT 10SM CLR 01/M01 A3019 -160 92 -1900 000/00 RMK AO2 T00061006
63871K1J0 1J020160114065511801/14/16 06:55:31  5-MIN K1J0 141255Z AUTO 00000KT 10SM CLR 01/M01 A3019 -150 92 -1900 000/00 RMK AO2 SLP208 T00061006
63871K1J0 1J020160114070011101/14/16 07:00:31  5-MIN K1J0 141300Z AUTO 00000KT 10SM CLR 01/M01 A3018 -150 92 -1900 000/00 RMK AO2 T00061006
63871K1J0 1J020160114070511001/14/16 07:05:31  5-MIN K1J0 141305Z AUTO 00000KT 10SM CLR 01/00 A3018 -150 96 -1900 000/00 RMK AO2 T00060000
63871K1J0 1J020160114071011001/14/16 07:10:31  5-MIN K1J0 141310Z AUTO 00000KT 10SM CLR 01/00 A3018 -150 96 -1900 000/00 RMK AO2 T00060000
63871K1J0 1J020160114071511001/14/16 07:15:31  5-MIN K1J0 141315Z AUTO 00000KT 10SM CLR 01/00 A3018 -150 96 -1900 000/00 RMK AO2 T00060000
63871K1J0 1J020160114072011001/14/16 07:20:31  5-MIN K1J0 141320Z AUTO 00000KT 10SM CLR 01/00 A3018 -150 96 -1900 000/00 RMK AO2 T00060000
63871K1J0 1J020160114072511001/14/16 07:25:31  5-MIN K1J0 141325Z AUTO 00000KT 10SM CLR 01/00 A3018 -150 96 -1900 000/00 RMK AO2 T00060000
63871K1J0 1J020160114073011001/14/16 07:30:31  5-MIN K1J0 141330Z AUTO 00000KT 10SM CLR 01/00 A3019 -160 92 -1800 000/00 RMK AO2 T00110000
63871K1J0 1J020160114073511001/14/16 07:35:31  5-MIN K1J0 141335Z AUTO 00000KT 10SM CLR 01/01 A3019 -160 96 -1800 000/00 RMK AO2 T00110006
63871K1J0 1J020160114074011001/14/16 07:40:31  5-MIN K1J0 141340Z AUTO 00000KT 10SM CLR 01/01 A3019 -160 96 -1800 000/00 RMK AO2 T00110006
63871K1J0 1J020160114074511001/14/16 07:45:31  5-MIN K1J0 141345Z AUTO 00000KT 10SM CLR 02/01 A3019 -160 92 -1700 000/00 RMK AO2 T00170006
63871K1J0 1J020160114075011001/14/16 07:50:31  5-MIN K1J0 141350Z AUTO 00000KT 10SM CLR 02/01 A3019 -160 96 -1700 000/00 RMK AO2 T00170011
63871K1J0 1J020160114075511701/14/16 07:55:31  5-MIN K1J0 141355Z AUTO 00000KT 10SM CLR 02/01 A3019 -160 96 -1700 000/00 RMK AO2 SLP210 T00170011
63871K1J0 1J020160114080011001/14/16 08:00:31  5-MIN K1J0 141400Z AUTO 00000KT 10SM CLR 02/01 A3019 -160 92 -1700 000/00 RMK AO2 T00220011
63871K1J0 1J020160114080511001/14/16 08:05:31  5-MIN K1J0 141405Z AUTO 00000KT 10SM CLR 02/02 A3020 -160 96 -1700 000/00 RMK AO2 T00220017
63871K1J0 1J020160114081011001/14/16 08:10:31  5-MIN K1J0 141410Z AUTO 00000KT 10SM CLR 02/02 A3019 -160 96 -1700 000/00 RMK AO2 T00220017
63871K1J0 1J020160114081511001/14/16 08:15:31  5-MIN K1J0 141415Z AUTO 00000KT 10SM CLR 03/02 A3019 -160 92 -1600 000/00 RMK AO2 T00280017
63871K1J0 1J020160114082011001/14/16 08:20:31  5-MIN K1J0 141420Z AUTO 00000KT 10SM CLR 03/02 A3020 -160 92 -1600 000/00 RMK AO2 T00280017
63871K1J0 1J020160114082511001/14/16 08:25:31  5-MIN K1J0 141425Z AUTO 00000KT 10SM CLR 03/02 A3020 -160 92 -1500 000/00 RMK AO2 T00330022
63871K1J0 1J020160114083011001/14/16 08:30:31  5-MIN K1J0 141430Z AUTO 00000KT 10SM CLR 03/02 A3020 -170 92 -1500 000/00 RMK AO2 T00330022
63871K1J0 1J020160114083511001/14/16 08:35:31  5-MIN K1J0 141435Z AUTO 00000KT 10SM CLR 04/03 A3021 -170 92 -1500 000/00 RMK AO2 T00390028
63871K1J0 1J020160114084011001/14/16 08:40:31  5-MIN K1J0 141440Z AUTO 00000KT 10SM CLR 04/03 A3021 -180 92 -1500 000/00 RMK AO2 T00390028
63871K1J0 1J020160114084511001/14/16 08:45:31  5-MIN K1J0 141445Z AUTO 00000KT 10SM CLR 04/03 A3022 -180 92 -1400 000/00 RMK AO2 T00440033
63871K1J0 1J020160114085011001/14/16 08:50:31  5-MIN K1J0 141450Z AUTO 00000KT 10SM CLR 04/03 A3022 -180 92 -1400 000/00 RMK AO2 T00440033
63871K1J0 1J020160114085512301/14/16 08:55:31  5-MIN K1J0 141455Z AUTO 00000KT 10SM CLR 05/04 A3022 -190 92 -1400 000/00 RMK AO2 SLP221 T00500039 53002
63871K1J0 1J020160114090011001/14/16 09:00:31  5-MIN K1J0 141500Z AUTO 00000KT 10SM CLR 05/04 A3023 -190 92 -1400 000/00 RMK AO2 T00500039
63871K1J0 1J020160114090511001/14/16 09:05:31  5-MIN K1J0 141505Z AUTO 00000KT 10SM CLR 06/04 A3023 -190 89 -1300 000/00 RMK AO2 T00560039
63871K1J0 1J020160114091011001/14/16 09:10:31  5-MIN K1J0 141510Z AUTO 00000KT 10SM CLR 06/04 A3023 -190 86 -1200 000/00 RMK AO2 T00610039
63871K1J0 1J020160114091511001/14/16 09:15:31  5-MIN K1J0 141515Z AUTO 00000KT 10SM CLR 06/04 A3023 -190 86 -1200 000/00 RMK AO2 T00610039
63871K1J0 1J020160114092011001/14/16 09:20:31  5-MIN K1J0 141520Z AUTO 00000KT 10SM CLR 07/04 A3023 -190 86 -1200 000/00 RMK AO2 T00670044
63871K1J0 1J020160114092511001/14/16 09:25:31  5-MIN K1J0 141525Z AUTO 00000KT 10SM CLR 07/04 A3023 -190 86 -1200 000/00 RMK AO2 T00670044
63871K1J0 1J020160114093011001/14/16 09:30:31  5-MIN K1J0 141530Z AUTO 04003KT 10SM CLR 07/04 A3022 -180 86 -1200 040/03 RMK AO2 T00670044
63871K1J0 1J020160114093511001/14/16 09:35:31  5-MIN K1J0 141535Z AUTO 05003KT 10SM CLR 07/04 A3022 -180 82 -1100 050/03 RMK AO2 T00720044
63871K1J0 1J020160114094011001/14/16 09:40:31  5-MIN K1J0 141540Z AUTO 03003KT 10SM CLR 07/04 A3022 -180 82 -1100 030/03 RMK AO2 T00720044
63871K1J0 1J020160114094511001/14/16 09:45:31  5-MIN K1J0 141545Z AUTO 04003KT 10SM CLR 08/05 A3021 -180 82 -1000 040/03 RMK AO2 T00780050
63871K1J0 1J020160114095011001/14/16 09:50:31  5-MIN K1J0 141550Z AUTO 00000KT 10SM CLR 08/04 A3021 -180 79 -1000 000/00 RMK AO2 T00780044
63871K1J0 1J020160114095511601/14/16 09:55:31  5-MIN K1J0 141555Z AUTO 02003KT 10SM CLR 08/05 A3021 -170 79 -900 020/03 RMK AO2 SLP215 T00830050
63871K1J0 1J020160114100010901/14/16 10:00:31  5-MIN K1J0 141600Z AUTO 00000KT 10SM CLR 08/05 A3020 -170 79 -900 000/00 RMK AO2 T00830050
63871K1J0 1J020160114100510901/14/16 10:05:31  5-MIN K1J0 141605Z AUTO 00000KT 10SM CLR 08/05 A3020 -170 79 -900 000/00 RMK AO2 T00830050
63871K1J0 1J020160114101010901/14/16 10:10:31  5-MIN K1J0 141610Z AUTO 00000KT 10SM CLR 09/05 A3020 -170 76 -900 000/00 RMK AO2 T00890050
63871K1J0 1J020160114101510901/14/16 10:15:31  5-MIN K1J0 141615Z AUTO 00000KT 10SM CLR 09/06 A3020 -160 79 -900 000/00 RMK AO2 T00890056
63871K1J0 1J020160114102010901/14/16 10:20:31  5-MIN K1J0 141620Z AUTO 07003KT 10SM CLR 09/05 A3020 -160 74 -800 070/03 RMK AO2 T00940050
63871K1J0 1J020160114102510901/14/16 10:25:31  5-MIN K1J0 141625Z AUTO 09003KT 10SM CLR 09/05 A3019 -160 74 -800 090/03 RMK AO2 T00940050
63871K1J0 1J020160114103010901/14/16 10:30:31  5-MIN K1J0 141630Z AUTO 05003KT 10SM CLR 09/05 A3019 -160 74 -800 050/03 RMK AO2 T00940050
63871K1J0 1J020160114103510901/14/16 10:35:31  5-MIN K1J0 141635Z AUTO 08003KT 10SM CLR 10/04 A3019 -160 68 -700 080/03 RMK AO2 T01000044
63871K1J0 1J020160114104010901/14/16 10:40:31  5-MIN K1J0 141640Z AUTO 06003KT 10SM CLR 10/04 A3019 -150 68 -700 060/03 RMK AO2 T01000044
63871K1J0 1J020160114104510901/14/16 10:45:31  5-MIN K1J0 141645Z AUTO 08003KT 10SM CLR 11/05 A3018 -150 68 -600 080/03 RMK AO2 T01060050
63871K1J0 1J020160114105010901/14/16 10:50:31  5-MIN K1J0 141650Z AUTO 09003KT 10SM CLR 11/04 A3018 -150 63 -600 090/03 RMK AO2 T01060039
63871K1J0 1J020160114105511601/14/16 10:55:31  5-MIN K1J0 141655Z AUTO 00000KT 10SM CLR 11/04 A3018 -150 61 -600 000/00 RMK AO2 SLP204 T01110039
63871K1J0 1J020160114110010901/14/16 11:00:31  5-MIN K1J0 141700Z AUTO VRB03KT 10SM CLR 11/04 A3017 -140 61 -600 VRB/03 RMK AO2 T01110039
63871K1J0 1J020160114110510901/14/16 11:05:31  5-MIN K1J0 141705Z AUTO 10003KT 10SM CLR 12/04 A3017 -140 58 -500 100/03 RMK AO2 T01170039
63871K1J0 1J020160114111010901/14/16 11:10:31  5-MIN K1J0 141710Z AUTO 07005KT 10SM CLR 12/03 A3017 -140 56 -500 070/05 RMK AO2 T01170033
63871K1J0 1J020160114111510901/14/16 11:15:31  5-MIN K1J0 141715Z AUTO 07005KT 10SM CLR 12/04 A3016 -130 56 -400 070/05 RMK AO2 T01220039
63871K1J0 1J020160114112010901/14/16 11:20:31  5-MIN K1J0 141720Z AUTO 09005KT 10SM CLR 12/03 A3016 -130 52 -400 090/05 RMK AO2 T01220028
63871K1J0 1J020160114112510901/14/16 11:25:31  5-MIN K1J0 141725Z AUTO VRB05KT 10SM CLR 12/03 A3016 -130 52 -400 VRB/05 RMK AO2 T01220028
63871K1J0 1J020160114113010901/14/16 11:30:31  5-MIN K1J0 141730Z AUTO 11005KT 10SM CLR 12/03 A3016 -130 52 -400 110/05 RMK AO2 T01220028
63871K1J0 1J020160114113510901/14/16 11:35:31  5-MIN K1J0 141735Z AUTO 11003KT 10SM CLR 12/03 A3016 -130 52 -400 110/03 RMK AO2 T01220028
63871K1J0 1J020160114114010901/14/16 11:40:31  5-MIN K1J0 141740Z AUTO 09004KT 10SM CLR 12/03 A3015 -120 52 -400 090/04 RMK AO2 T01220028
63871K1J0 1J020160114114510901/14/16 11:45:31  5-MIN K1J0 141745Z AUTO 10004KT 10SM CLR 13/03 A3015 -120 50 -300 100/04 RMK AO2 T01280028
63871K1J0 1J020160114115010901/14/16 11:50:31  5-MIN K1J0 141750Z AUTO 11005KT 10SM CLR 13/03 A3015 -120 50 -300 110/05 RMK AO2 T01280028
63871K1J0 1J020160114115513401/14/16 11:55:31  5-MIN K1J0 141755Z AUTO VRB03KT 10SM CLR 13/03 A3015 -120 50 -300 VRB/03 RMK AO2 SLP194 T01280028 10128 21006 53013
63871K1J0 1J020160114120010901/14/16 12:00:31  5-MIN K1J0 141800Z AUTO 11004KT 10SM CLR 13/02 A3014 -120 48 -300 110/04 RMK AO2 T01280022
63871K1J0 1J020160114120510901/14/16 12:05:31  5-MIN K1J0 141805Z AUTO 10005KT 10SM CLR 12/02 A3014 -110 50 -400 100/05 RMK AO2 T01220022
63871K1J0 1J020160114121010901/14/16 12:10:31  5-MIN K1J0 141810Z AUTO 09003KT 10SM CLR 13/03 A3014 -110 50 -300 090/03 RMK AO2 T01280028
63871K1J0 1J020160114121510901/14/16 12:15:31  5-MIN K1J0 141815Z AUTO 07004KT 10SM CLR 13/03 A3013 -110 50 -300 070/04 RMK AO2 T01280028
63871K1J0 1J020160114122010901/14/16 12:20:31  5-MIN K1J0 141820Z AUTO 07004KT 10SM CLR 13/03 A3013 -110 50 -300 070/04 RMK AO2 T01280028
63871K1J0 1J020160114122510901/14/16 12:25:31  5-MIN K1J0 141825Z AUTO 12004KT 10SM CLR 13/02 A3013 -100 48 -300 120/04 RMK AO2 T01280022
63871K1J0 1J020160114123010901/14/16 12:30:31  5-MIN K1J0 141830Z AUTO 12005KT 10SM CLR 13/02 A3013 -100 46 -300 120/05 RMK AO2 T01280017
63871K1J0 1J020160114123510901/14/16 12:35:31  5-MIN K1J0 141835Z AUTO 11005KT 10SM CLR 12/02 A3013 -100 48 -400 110/05 RMK AO2 T01220017
63871K1J0 1J020160114124010901/14/16 12:40:31  5-MIN K1J0 141840Z AUTO VRB03KT 10SM CLR 13/02 A3013 -100 48 -300 VRB/03 RMK AO2 T01280022
63871K1J0 1J020160114124510901/14/16 12:45:31  5-MIN K1J0 141845Z AUTO 07003KT 10SM CLR 13/02 A3013 -100 48 -300 070/03 RMK AO2 T01280022
63871K1J0 1J020160114125010901/14/16 12:50:31  5-MIN K1J0 141850Z AUTO 00000KT 10SM CLR 13/02 A3012 -100 48 -300 000/00 RMK AO2 T01280022
63871K1J0 1J020160114125511601/14/16 12:55:31  5-MIN K1J0 141855Z AUTO 10003KT 10SM CLR 13/03 A3012 -100 50 -300 100/03 RMK AO2 SLP186 T01280028
63871K1J0 1J020160114130010801/14/16 13:00:31  5-MIN K1J0 141900Z AUTO 11005KT 10SM CLR 13/03 A3012 -90 50 -300 110/05 RMK AO2 T01280028
63871K1J0 1J020160114130510801/14/16 13:05:31  5-MIN K1J0 141905Z AUTO 10004KT 10SM CLR 13/02 A3012 -90 46 -300 100/04 RMK AO2 T01280017
63871K1J0 1J020160114131010801/14/16 13:10:31  5-MIN K1J0 141910Z AUTO 11003KT 10SM CLR 13/02 A3012 -90 48 -300 110/03 RMK AO2 T01280022
63871K1J0 1J020160114131510801/14/16 13:15:31  5-MIN K1J0 141915Z AUTO 11004KT 10SM CLR 13/02 A3012 -90 48 -300 110/04 RMK AO2 T01280022
63871K1J0 1J020160114132010801/14/16 13:20:31  5-MIN K1J0 141920Z AUTO 10003KT 10SM CLR 13/02 A3011 -90 48 -300 100/03 RMK AO2 T01280022
63871K1J0 1J020160114132510801/14/16 13:25:31  5-MIN K1J0 141925Z AUTO 09003KT 10SM CLR 13/02 A3011 -80 48 -300 090/03 RMK AO2 T01280022
63871K1J0 1J020160114133010801/14/16 13:30:31  5-MIN K1J0 141930Z AUTO 08004KT 10SM CLR 13/02 A3011 -80 48 -300 080/04 RMK AO2 T01280022
63871K1J0 1J020160114133510801/14/16 13:35:31  5-MIN K1J0 141935Z AUTO 08003KT 10SM CLR 13/02 A3010 -80 48 -300 080/03 RMK AO2 T01280022
63871K1J0 1J020160114134010801/14/16 13:40:31  5-MIN K1J0 141940Z AUTO 08004KT 10SM CLR 13/02 A3010 -70 48 -300 080/04 RMK AO2 T01280022
63871K1J0 1J020160114134510801/14/16 13:45:31  5-MIN K1J0 141945Z AUTO 07004KT 10SM CLR 13/02 A3010 -70 46 -200 070/04 RMK AO2 T01330022
63871K1J0 1J020160114135010801/14/16 13:50:31  5-MIN K1J0 141950Z AUTO 09003KT 10SM CLR 13/02 A3010 -70 48 -300 090/03 RMK AO2 T01280022
63871K1J0 1J020160114135511501/14/16 13:55:31  5-MIN K1J0 141955Z AUTO 07004KT 10SM CLR 13/03 A3009 -70 50 -300 070/04 RMK AO2 SLP176 T01280028
63871K1J0 1J020160114140010801/14/16 14:00:31  5-MIN K1J0 142000Z AUTO 08004KT 10SM CLR 13/03 A3010 -70 48 -200 080/04 RMK AO2 T01330028
63871K1J0 1J020160114140510801/14/16 14:05:31  5-MIN K1J0 142005Z AUTO 00000KT 10SM CLR 13/03 A3010 -70 48 -200 000/00 RMK AO2 T01330028
63871K1J0 1J020160114141010801/14/16 14:10:31  5-MIN K1J0 142010Z AUTO 00000KT 10SM CLR 14/03 A3010 -70 47 -100 000/00 RMK AO2 T01390028
63871K1J0 1J020160114141510801/14/16 14:15:31  5-MIN K1J0 142015Z AUTO 00000KT 10SM CLR 14/03 A3009 -70 47 -100 000/00 RMK AO2 T01390028
63871K1J0 1J020160114142010801/14/16 14:20:31  5-MIN K1J0 142020Z AUTO 12004KT 10SM CLR 14/03 A3009 -70 47 -100 120/04 RMK AO2 T01390028
63871K1J0 1J020160114142510801/14/16 14:25:31  5-MIN K1J0 142025Z AUTO 10004KT 10SM CLR 14/02 A3009 -70 45 -100 100/04 RMK AO2 T01390022
63871K1J0 1J020160114143010801/14/16 14:30:31  5-MIN K1J0 142030Z AUTO 08005KT 10SM CLR 14/02 A3009 -60 45 -100 080/05 RMK AO2 T01390022
63871K1J0 1J020160114143510801/14/16 14:35:31  5-MIN K1J0 142035Z AUTO 08004KT 10SM CLR 13/02 A3009 -60 46 -200 080/04 RMK AO2 T01330022
63871K1J0 1J020160114144010801/14/16 14:40:31  5-MIN K1J0 142040Z AUTO 08005KT 10SM CLR 13/02 A3008 -60 46 -200 080/05 RMK AO2 T01330022
63871K1J0 1J020160114144510801/14/16 14:45:31  5-MIN K1J0 142045Z AUTO 07004KT 10SM CLR 13/02 A3009 -60 46 -200 070/04 RMK AO2 T01330022
63871K1J0 1J020160114145010801/14/16 14:50:31  5-MIN K1J0 142050Z AUTO 08003KT 10SM CLR 13/02 A3009 -60 46 -200 080/03 RMK AO2 T01330022
63871K1J0 1J020160114145512101/14/16 14:55:31  5-MIN K1J0 142055Z AUTO 08004KT 10SM CLR 13/02 A3008 -60 46 -200 080/04 RMK AO2 SLP171 T01330022 58026
63871K1J0 1J020160114150010801/14/16 15:00:31  5-MIN K1J0 142100Z AUTO 08003KT 10SM CLR 13/02 A3008 -60 48 -300 080/03 RMK AO2 T01280022
63871K1J0 1J020160114150510801/14/16 15:05:31  5-MIN K1J0 142105Z AUTO 08004KT 10SM CLR 13/03 A3008 -60 50 -300 080/04 RMK AO2 T01280028
63871K1J0 1J020160114151010801/14/16 15:10:31  5-MIN K1J0 142110Z AUTO 08003KT 10SM CLR 13/02 A3009 -60 48 -300 080/03 RMK AO2 T01280022
63871K1J0 1J020160114151510801/14/16 15:15:31  5-MIN K1J0 142115Z AUTO 07003KT 10SM CLR 13/03 A3008 -60 50 -300 070/03 RMK AO2 T01280028
63871K1J0 1J020160114152010801/14/16 15:20:31  5-MIN K1J0 142120Z AUTO 04003KT 10SM CLR 13/03 A3008 -60 50 -200 040/03 RMK AO2 T01280028
63871K1J0 1J020160114152510801/14/16 15:25:31  5-MIN K1J0 142125Z AUTO 07003KT 10SM CLR 13/03 A3008 -60 52 -200 070/03 RMK AO2 T01280033
63871K1J0 1J020160114153010801/14/16 15:30:31  5-MIN K1J0 142130Z AUTO 05003KT 10SM CLR 12/03 A3008 -50 52 -300 050/03 RMK AO2 T01220028
63871K1J0 1J020160114153510801/14/16 15:35:31  5-MIN K1J0 142135Z AUTO 00000KT 10SM CLR 12/03 A3008 -60 54 -300 000/00 RMK AO2 T01220033
63871K1J0 1J020160114154010801/14/16 15:40:31  5-MIN K1J0 142140Z AUTO 00000KT 10SM CLR 13/03 A3008 -60 52 -300 000/00 RMK AO2 T01280033
63871K1J0 1J020160114154510801/14/16 15:45:31  5-MIN K1J0 142145Z AUTO 00000KT 10SM CLR 12/03 A3008 -50 54 -300 000/00 RMK AO2 T01220033
63871K1J0 1J020160114155010801/14/16 15:50:31  5-MIN K1J0 142150Z AUTO 03003KT 10SM CLR 12/04 A3007 -50 56 -300 030/03 RMK AO2 T01220039
63871K1J0 1J020160114155511501/14/16 15:55:31  5-MIN K1J0 142155Z AUTO 04003KT 10SM CLR 12/04 A3007 -50 56 -300 040/03 RMK AO2 SLP168 T01220039
63871K1J0 1J020160114160010801/14/16 16:00:31  5-MIN K1J0 142200Z AUTO 04003KT 10SM CLR 12/04 A3007 -50 59 -300 040/03 RMK AO2 T01220044
63871K1J0 1J020160114160510801/14/16 16:05:31  5-MIN K1J0 142205Z AUTO 04004KT 10SM CLR 12/04 A3007 -50 58 -400 040/04 RMK AO2 T01170039
63871K1J0 1J020160114161010801/14/16 16:10:31  5-MIN K1J0 142210Z AUTO 06003KT 10SM CLR 12/04 A3007 -50 58 -400 060/03 RMK AO2 T01170039
63871K1J0 1J020160114161510801/14/16 16:15:31  5-MIN K1J0 142215Z AUTO 00000KT 10SM CLR 12/04 A3007 -50 58 -400 000/00 RMK AO2 T01170039
63871K1J0 1J020160114162010801/14/16 16:20:31  5-MIN K1J0 142220Z AUTO 00000KT 10SM CLR 12/04 A3008 -50 58 -400 000/00 RMK AO2 T01170039
63871K1J0 1J020160114162510801/14/16 16:25:31  5-MIN K1J0 142225Z AUTO 05003KT 10SM CLR 12/04 A3008 -50 58 -400 050/03 RMK AO2 T01170039
63871K1J0 1J020160114163010801/14/16 16:30:31  5-MIN K1J0 142230Z AUTO 06003KT 10SM CLR 12/04 A3007 -50 58 -400 060/03 RMK AO2 T01170039
63871K1J0 1J020160114163510801/14/16 16:35:31  5-MIN K1J0 142235Z AUTO 05003KT 10SM CLR 11/04 A3007 -50 61 -400 050/03 RMK AO2 T01110039
63871K1J0 1J020160114164010801/14/16 16:40:31  5-MIN K1J0 142240Z AUTO 04004KT 10SM CLR 11/04 A3007 -40 61 -400 040/04 RMK AO2 T01110039
63871K1J0 1J020160114164510801/14/16 16:45:31  5-MIN K1J0 142245Z AUTO 04004KT 10SM CLR 11/04 A3007 -40 63 -400 040/04 RMK AO2 T01110044
63871K1J0 1J020160114165010801/14/16 16:50:31  5-MIN K1J0 142250Z AUTO 04004KT 10SM CLR 11/04 A3006 -40 66 -500 040/04 RMK AO2 T01060044
63871K1J0 1J020160114165511501/14/16 16:55:31  5-MIN K1J0 142255Z AUTO 05004KT 10SM CLR 11/04 A3006 -40 66 -500 050/04 RMK AO2 SLP166 T01060044
63871K1J0 1J020160114170010801/14/16 17:00:31  5-MIN K1J0 142300Z AUTO 05004KT 10SM CLR 11/04 A3006 -40 63 -500 050/04 RMK AO2 T01060039
63871K1J0 1J020160114170510801/14/16 17:05:31  5-MIN K1J0 142305Z AUTO 07003KT 10SM CLR 11/04 A3006 -40 63 -500 070/03 RMK AO2 T01060039
63871K1J0 1J020160114171010801/14/16 17:10:31  5-MIN K1J0 142310Z AUTO 00000KT 10SM CLR 11/04 A3007 -40 63 -500 000/00 RMK AO2 T01060039
63871K1J0 1J020160114171510801/14/16 17:15:31  5-MIN K1J0 142315Z AUTO 08003KT 10SM CLR 11/04 A3006 -40 63 -500 080/03 RMK AO2 T01060039
63871K1J0 1J020160114172010801/14/16 17:20:31  5-MIN K1J0 142320Z AUTO 06003KT 10SM CLR 11/04 A3006 -40 63 -500 060/03 RMK AO2 T01060039
63871K1J0 1J020160114172510801/14/16 17:25:31  5-MIN K1J0 142325Z AUTO 08003KT 10SM CLR 11/04 A3006 -40 63 -500 080/03 RMK AO2 T01060039
63871K1J0 1J020160114173010801/14/16 17:30:31  5-MIN K1J0 142330Z AUTO 06003KT 10SM CLR 11/04 A3006 -40 63 -500 060/03 RMK AO2 T01060039
63871K1J0 1J020160114173510801/14/16 17:35:31  5-MIN K1J0 142335Z AUTO 05004KT 10SM CLR 10/04 A3005 -30 65 -600 050/04 RMK AO2 T01000039
63871K1J0 1J020160114174010801/14/16 17:40:31  5-MIN K1J0 142340Z AUTO 06004KT 10SM CLR 10/04 A3005 -30 65 -500 060/04 RMK AO2 T01000039
63871K1J0 1J020160114174510801/14/16 17:45:31  5-MIN K1J0 142345Z AUTO 07004KT 10SM CLR 10/04 A3005 -20 65 -500 070/04 RMK AO2 T01000039
63871K1J0 1J020160114175010801/14/16 17:50:31  5-MIN K1J0 142350Z AUTO 08004KT 10SM CLR 10/04 A3005 -20 65 -500 080/04 RMK AO2 T01000039
63871K1J0 1J020160114175513301/14/16 17:55:31  5-MIN K1J0 142355Z AUTO 06003KT 10SM CLR 10/04 A3005 -30 65 -500 060/03 RMK AO2 SLP161 T01000039 10144 20100 56021
63871K1J0 1J020160114180010801/14/16 18:00:31  5-MIN K1J0 150000Z AUTO 05005KT 10SM CLR 10/04 A3004 -20 65 -500 050/05 RMK AO2 T01000039
63871K1J0 1J020160114180510801/14/16 18:05:31  5-MIN K1J0 150005Z AUTO 06004KT 10SM CLR 10/03 A3004 -20 63 -500 060/04 RMK AO2 T01000033
63871K1J0 1J020160114181010801/14/16 18:10:31  5-MIN K1J0 150010Z AUTO 07005KT 10SM CLR 10/03 A3004 -20 63 -500 070/05 RMK AO2 T01000033
63871K1J0 1J020160114181510801/14/16 18:15:31  5-MIN K1J0 150015Z AUTO 07005KT 10SM CLR 10/03 A3003 -10 63 -500 070/05 RMK AO2 T01000033
63871K1J0 1J020160114182010801/14/16 18:20:31  5-MIN K1J0 150020Z AUTO 07004KT 10SM CLR 10/03 A3003 -10 63 -500 070/04 RMK AO2 T01000033
63871K1J0 1J020160114182510801/14/16 18:25:31  5-MIN K1J0 150025Z AUTO 07003KT 10SM CLR 10/03 A3003 -10 63 -500 070/03 RMK AO2 T01000033
63871K1J0 1J020160114183010801/14/16 18:30:31  5-MIN K1J0 150030Z AUTO 07004KT 10SM CLR 10/03 A3003 -10 63 -500 070/04 RMK AO2 T01000033
63871K1J0 1J020160114193510801/14/16 19:35:31  5-MIN K1J0 150135Z AUTO 02003KT 10SM CLR 10/04 A3004 -20 65 -500 020/03 RMK AO2 T01000039
63871K1J0 1J020160114194010801/14/16 19:40:31  5-MIN K1J0 150140Z AUTO 03004KT 10SM CLR 09/04 A3003 -10 68 -600 030/04 RMK AO2 T00940039
63871K1J0 1J020160114194510801/14/16 19:45:31  5-MIN K1J0 150145Z AUTO 02004KT 10SM CLR 09/04 A3003 -10 71 -600 020/04 RMK AO2 T00940044
63871K1J0 1J020160114195010801/14/16 19:50:31  5-MIN K1J0 150150Z AUTO 02003KT 10SM CLR 09/04 A3004 -20 68 -600 020/03 RMK AO2 T00940039
63871K1J0 1J020160114195511501/14/16 19:55:31  5-MIN K1J0 150155Z AUTO 03003KT 10SM CLR 09/04 A3004 -20 68 -600 030/03 RMK AO2 SLP158 T00940039
63871K1J0 1J020160114200011801/14/16 20:00:31  5-MIN K1J0 150200Z AUTO 00000KT 10SM FEW080 FEW110 09/04 A3004 -20 71 -600 000/00 RMK AO2 T00940044
63871K1J0 1J020160114200511801/14/16 20:05:31  5-MIN K1J0 150205Z AUTO 04004KT 10SM FEW075 SCT110 09/04 A3003 -10 68 -600 040/04 RMK AO2 T00940039
63871K1J0 1J020160114201011801/14/16 20:10:31  5-MIN K1J0 150210Z AUTO 06003KT 10SM FEW075 FEW110 09/04 A3003 -10 68 -600 060/03 RMK AO2 T00940039
63871K1J0 1J020160114201511801/14/16 20:15:31  5-MIN K1J0 150215Z AUTO 05003KT 10SM FEW075 FEW110 09/04 A3003 -10 68 -600 050/03 RMK AO2 T00940039
63871K1J0 1J020160114202011801/14/16 20:20:31  5-MIN K1J0 150220Z AUTO 04003KT 10SM FEW075 FEW110 09/04 A3002 -10 68 -600 040/03 RMK AO2 T00940039
63871K1J0 1J020160114202511801/14/16 20:25:31  5-MIN K1J0 150225Z AUTO 05003KT 10SM FEW075 FEW110 09/04 A3003 -10 68 -600 050/03 RMK AO2 T00940039
63871K1J0 1J020160114203010601/14/16 20:30:31  5-MIN K1J0 150230Z AUTO 04004KT 10SM CLR 09/04 A3001 0 71 -600 040/04 RMK AO2 T00890039
63871K1J0 1J020160114203510601/14/16 20:35:31  5-MIN K1J0 150235Z AUTO 04004KT 10SM CLR 09/04 A3002 0 71 -600 040/04 RMK AO2 T00940044
63871K1J0 1J020160114204010901/14/16 20:40:31  5-MIN K1J0 150240Z AUTO 00000KT 10SM FEW120 09/04 A3002 0 68 -600 000/00 RMK AO2 T00940039
63871K1J0 1J020160114204510901/14/16 20:45:31  5-MIN K1J0 150245Z AUTO 03003KT 10SM FEW120 09/04 A3002 0 71 -600 030/03 RMK AO2 T00940044
63871K1J0 1J020160114205010901/14/16 20:50:31  5-MIN K1J0 150250Z AUTO 04003KT 10SM SCT120 09/04 A3002 0 71 -600 040/03 RMK AO2 T00940044
63871K1J0 1J020160114205512901/14/16 20:55:31  5-MIN K1J0 150255Z AUTO 00000KT 10SM FEW043 BKN120 09/04 A3002 0 71 -600 000/00 RMK AO2 SLP152 T00940044 58013
63871K1J0 1J020160114210011601/14/16 21:00:31  5-MIN K1J0 150300Z AUTO 03003KT 10SM FEW043 BKN120 09/04 A3002 0 71 -600 030/03 RMK AO2 T00940044
63871K1J0 1J020160114210510901/14/16 21:05:31  5-MIN K1J0 150305Z AUTO 00000KT 10SM BKN110 09/04 A3002 0 71 -600 000/00 RMK AO2 T00940044
63871K1J0 1J020160114211011601/14/16 21:10:31  5-MIN K1J0 150310Z AUTO 02003KT 10SM FEW040 OVC110 09/04 A3002 0 71 -600 020/03 RMK AO2 T00940044
63871K1J0 1J020160114211512301/14/16 21:15:31  5-MIN K1J0 150315Z AUTO 00000KT 10SM FEW038 BKN100 OVC120 09/04 A3002 0 71 -600 000/00 RMK AO2 T00940044
63871K1J0 1J020160114212013901/14/16 21:20:31  5-MIN K1J0 150320Z AUTO 02004KT 10SM -RA FEW038 BKN100 OVC120 09/04 A3001 0 71 -600 020/04 RMK AO2 RAB17 P0000 T00940044
63871K1J0 1J020160114212513901/14/16 21:25:31  5-MIN K1J0 150325Z AUTO 36003KT 10SM -RA SCT038 SCT055 OVC100 09/05 A3001 0 74 -600 360/03 RMK AO2 RAB17 P0000 T00940050
63871K1J0 1J020160114213013801/14/16 21:30:31  5-MIN K1J0 150330Z AUTO 00000KT 10SM BKN036 BKN090 OVC110 09/05 A3002 0 74 -600 000/00 RMK AO2 RAB17E27 P0000 T00940050
63871K1J0 1J020160114213513101/14/16 21:35:31  5-MIN K1J0 150335Z AUTO 00000KT 10SM BKN036 OVC100 09/05 A3001 0 74 -600 000/00 RMK AO2 RAB17E27 P0000 T00940050
63871K1J0 1J020160114214013201/14/16 21:40:31  5-MIN K1J0 150340Z AUTO 00000KT 10SM BKN036 OVC095 09/06 A3001 10 79 -600 000/00 RMK AO2 RAB17E27 P0000 T00890056
63871K1J0 1J020160114214512501/14/16 21:45:31  5-MIN K1J0 150345Z AUTO 00000KT 10SM OVC034 09/06 A3000 10 83 -600 000/00 RMK AO2 RAB17E27 P0000 T00890061
63871K1J0 1J020160114215012501/14/16 21:50:31  5-MIN K1J0 150350Z AUTO 00000KT 10SM OVC034 09/06 A3000 10 83 -600 000/00 RMK AO2 RAB17E27 P0000 T00890061
63871K1J0 1J020160114215513201/14/16 21:55:31  5-MIN K1J0 150355Z AUTO 00000KT 10SM OVC034 09/05 A3000 10 76 -600 000/00 RMK AO2 RAB17E27 SLP144 P0000 T00890050
63871K1J0 1J020160114220011001/14/16 22:00:31  5-MIN K1J0 150400Z AUTO 04003KT 10SM OVC034 09/06 A3000 20 79 -600 040/03 RMK AO2 T00890056
63871K1J0 1J020160114220511001/14/16 22:05:31  5-MIN K1J0 150405Z AUTO 04003KT 10SM OVC034 09/06 A2999 20 79 -600 040/03 RMK AO2 T00890056
63871K1J0 1J020160114221011001/14/16 22:10:31  5-MIN K1J0 150410Z AUTO 05003KT 10SM OVC034 09/06 A2999 20 76 -600 050/03 RMK AO2 T00940056
63871K1J0 1J020160114221511001/14/16 22:15:31  5-MIN K1J0 150415Z AUTO 05003KT 10SM OVC034 09/05 A2999 30 74 -500 050/03 RMK AO2 T00940050
63871K1J0 1J020160114222011701/14/16 22:20:31  5-MIN K1J0 150420Z AUTO 07004KT 10SM BKN034 OVC100 09/05 A2998 30 74 -500 070/04 RMK AO2 T00940050
63871K1J0 1J020160114222512401/14/16 22:25:31  5-MIN K1J0 150425Z AUTO 07005KT 10SM BKN034 OVC095 09/05 A2997 40 74 -500 070/05 RMK AO2 PRESFR T00940050
63871K1J0 1J020160114223012401/14/16 22:30:31  5-MIN K1J0 150430Z AUTO 05003KT 10SM BKN034 OVC085 09/05 A2996 50 74 -500 050/03 RMK AO2 PRESFR T00940050
63871K1J0 1J020160114223511701/14/16 22:35:31  5-MIN K1J0 150435Z AUTO 07003KT 10SM SCT034 OVC085 09/04 A2996 50 71 -500 070/03 RMK AO2 T00940044
63871K1J0 1J020160114224013101/14/16 22:40:31  5-MIN K1J0 150440Z AUTO 05004KT 10SM SCT034 BKN085 OVC110 09/04 A2995 50 73 -600 050/04 RMK AO2 PRESFR T00890044
63871K1J0 1J020160114224512401/14/16 22:45:31  5-MIN K1J0 150445Z AUTO 08004KT 10SM FEW034 BKN090 OVC110 09/04 A2996 50 73 -600 080/04 RMK AO2 T00890044
63871K1J0 1J020160114225012401/14/16 22:50:31  5-MIN K1J0 150450Z AUTO 07005KT 10SM FEW029 BKN090 OVC120 09/04 A2995 60 71 -600 070/05 RMK AO2 T00890039
63871K1J0 1J020160114225513101/14/16 22:55:31  5-MIN K1J0 150455Z AUTO 09004KT 10SM SCT029 BKN090 OVC120 09/04 A2995 60 71 -600 090/04 RMK AO2 SLP127 T00890039
63871K1J0 1J020160114230012401/14/16 23:00:31  5-MIN K1J0 150500Z AUTO 07004KT 10SM BKN029 BKN080 OVC120 09/04 A2994 70 68 -500 070/04 RMK AO2 T00940039
63871K1J0 1J020160114230512401/14/16 23:05:31  5-MIN K1J0 150505Z AUTO 05006KT 10SM BKN029 OVC100 09/04 A2993 80 68 -500 050/06 RMK AO2 PRESFR T00940039
63871K1J0 1J020160114231012401/14/16 23:10:31  5-MIN K1J0 150510Z AUTO 06004KT 10SM BKN029 BKN035 OVC100 09/04 A2993 80 68 -500 060/04 RMK AO2 T00940039
63871K1J0 1J020160114231511701/14/16 23:15:31  5-MIN K1J0 150515Z AUTO 07004KT 10SM BKN029 OVC035 10/04 A2993 80 65 -400 070/04 RMK AO2 T01000039
63871K1J0 1J020160114232011001/14/16 23:20:31  5-MIN K1J0 150520Z AUTO 06006KT 10SM OVC029 10/04 A2992 90 65 -400 060/06 RMK AO2 T01000039
63871K1J0 1J020160114232511001/14/16 23:25:31  5-MIN K1J0 150525Z AUTO 08003KT 10SM OVC029 10/04 A2993 80 65 -400 080/03 RMK AO2 T01000039
63871K1J0 1J020160114233011001/14/16 23:30:31  5-MIN K1J0 150530Z AUTO 07006KT 10SM OVC029 10/04 A2992 90 65 -400 070/06 RMK AO2 T01000039
63871K1J0 1J020160114233511001/14/16 23:35:31  5-MIN K1J0 150535Z AUTO 08003KT 10SM OVC029 10/04 A2992 90 65 -400 080/03 RMK AO2 T01000039
63871K1J0 1J020160114234011001/14/16 23:40:31  5-MIN K1J0 150540Z AUTO 09003KT 10SM OVC028 10/04 A2991 90 65 -400 090/03 RMK AO2 T01000039
63871K1J0 1J020160114234511101/14/16 23:45:31  5-MIN K1J0 150545Z AUTO 08004KT 10SM OVC028 10/04 A2991 100 65 -400 080/04 RMK AO2 T01000039
63871K1J0 1J020160114235011101/14/16 23:50:31  5-MIN K1J0 150550Z AUTO 08004KT 10SM OVC028 10/04 A2990 100 65 -400 080/04 RMK AO2 T01000039
63871K1J0 1J020160114235515201/14/16 23:55:31  5-MIN K1J0 150555Z AUTO 08005KT 10SM OVC028 10/04 A2990 110 65 -400 080/05 RMK AO2 SLP109 60000 T01000039 10100 20089 401441006 58008
63871K1J0 1J020160115000011801/15/16 00:00:31  5-MIN K1J0 150600Z AUTO 08006KT 10SM OVC028 10/04 A2989 120 65 -400 080/06 RMK AO2 PRESFR T01000039
63871K1J0 1J020160115000511801/15/16 00:05:31  5-MIN K1J0 150605Z AUTO 09006KT 10SM OVC028 10/04 A2988 120 65 -400 090/06 RMK AO2 PRESFR T01000039
63871K1J0 1J020160115001011101/15/16 00:10:31  5-MIN K1J0 150610Z AUTO 10006KT 10SM OVC028 10/04 A2988 120 65 -400 100/06 RMK AO2 T01000039
63871K1J0 1J020160115001511101/15/16 00:15:31  5-MIN K1J0 150615Z AUTO 09006KT 10SM OVC028 10/04 A2988 120 65 -400 090/06 RMK AO2 T01000039
63871K1J0 1J020160115002011101/15/16 00:20:31  5-MIN K1J0 150620Z AUTO 08006KT 10SM OVC028 10/04 A2987 130 65 -300 080/06 RMK AO2 T01000039
63871K1J0 1J020160115002511801/15/16 00:25:31  5-MIN K1J0 150625Z AUTO 06005KT 10SM BKN028 10/04 A2985 150 65 -300 060/05 RMK AO2 PRESFR T01000039
63871K1J0 1J020160115003011801/15/16 00:30:31  5-MIN K1J0 150630Z AUTO 07007KT 10SM BKN028 10/04 A2985 160 65 -300 070/07 RMK AO2 PRESFR T01000039
63871K1J0 1J020160115003511101/15/16 00:35:31  5-MIN K1J0 150635Z AUTO 06006KT 10SM SCT028 10/04 A2984 160 65 -300 060/06 RMK AO2 T01000039
63871K1J0 1J020160115004011101/15/16 00:40:31  5-MIN K1J0 150640Z AUTO 06004KT 10SM SCT028 10/04 A2984 160 65 -300 060/04 RMK AO2 T01000039
63871K1J0 1J020160115004511101/15/16 00:45:31  5-MIN K1J0 150645Z AUTO 06005KT 10SM FEW028 10/04 A2984 160 65 -300 060/05 RMK AO2 T01000039
63871K1J0 1J020160115005010801/15/16 00:50:31  5-MIN K1J0 150650Z AUTO VRB05KT 10SM CLR 10/04 A2984 160 65 -300 VRB/05 RMK AO2 T01000039
63871K1J0 1J020160115005511501/15/16 00:55:31  5-MIN K1J0 150655Z AUTO 07006KT 10SM CLR 10/04 A2983 170 65 -300 070/06 RMK AO2 SLP085 T01000039
63871K1J0 1J020160115010011101/15/16 01:00:31  5-MIN K1J0 150700Z AUTO 07005KT 10SM FEW110 10/04 A2982 180 65 -300 070/05 RMK AO2 T01000039
63871K1J0 1J020160115010511801/15/16 01:05:31  5-MIN K1J0 150705Z AUTO 08006KT 10SM FEW110 10/04 A2982 180 68 -300 080/06 RMK AO2 PRESFR T01000044
63871K1J0 1J020160115011011101/15/16 01:10:31  5-MIN K1J0 150710Z AUTO VRB04KT 10SM SCT100 10/04 A2982 180 68 -300 VRB/04 RMK AO2 T01000044
63871K1J0 1J020160115011511101/15/16 01:15:31  5-MIN K1J0 150715Z AUTO VRB04KT 10SM BKN100 10/04 A2982 180 68 -300 VRB/04 RMK AO2 T01000044
63871K1J0 1J020160115012011801/15/16 01:20:31  5-MIN K1J0 150720Z AUTO 08005KT 10SM SCT075 BKN100 10/04 A2982 180 68 -300 080/05 RMK AO2 T01000044
63871K1J0 1J020160115012511801/15/16 01:25:31  5-MIN K1J0 150725Z AUTO 10006KT 10SM SCT075 BKN100 10/05 A2982 180 71 -300 100/06 RMK AO2 T01000050
63871K1J0 1J020160115013013401/15/16 01:30:31  5-MIN K1J0 150730Z AUTO VRB04KT 10SM -RA BKN070 OVC100 10/06 A2982 180 74 -300 VRB/04 RMK AO2 RAB26 P0001 T01000056
63871K1J0 1J020160115013513401/15/16 01:35:31  5-MIN K1J0 150735Z AUTO 11005KT 10SM -RA BKN070 OVC100 09/06 A2982 180 79 -400 110/05 RMK AO2 RAB26 P0001 T00940061
63871K1J0 1J020160115014013301/15/16 01:40:31  5-MIN K1J0 150740Z AUTO 11005KT 9SM -RA BKN070 OVC095 09/06 A2982 180 79 -300 110/05 RMK AO2 RAB26 P0001 T00940061
63871K1J0 1J020160115014513301/15/16 01:45:31  5-MIN K1J0 150745Z AUTO 09005KT 8SM -RA BKN070 OVC090 09/07 A2980 190 86 -400 090/05 RMK AO2 RAB26 P0002 T00890067
63871K1J0 1J020160115015013301/15/16 01:50:31  5-MIN K1J0 150750Z AUTO 08005KT 7SM -RA BKN070 OVC090 09/07 A2980 200 86 -400 080/05 RMK AO2 RAB26 P0002 T00890067
63871K1J0 1J020160115015514001/15/16 01:55:31  5-MIN K1J0 150755Z AUTO 08005KT 8SM -RA SCT070 OVC090 09/07 A2979 200 86 -400 080/05 RMK AO2 RAB26 SLP074 P0003 T00890067
63871K1J0 1J020160115020012701/15/16 02:00:31  5-MIN K1J0 150800Z AUTO 07004KT 8SM -RA BKN070 OVC090 09/07 A2979 210 86 -400 070/04 RMK AO2 P0000 T00890067
63871K1J0 1J020160115020512701/15/16 02:05:31  5-MIN K1J0 150805Z AUTO 07005KT 8SM -RA SCT070 OVC090 09/07 A2978 210 86 -400 070/05 RMK AO2 P0000 T00890067
63871K1J0 1J020160115021013401/15/16 02:10:31  5-MIN K1J0 150810Z AUTO 07005KT 8SM -RA FEW055 SCT075 OVC090 08/07 A2978 210 89 -400 070/05 RMK AO2 P0000 T00830067
63871K1J0 1J020160115021513401/15/16 02:15:31  5-MIN K1J0 150815Z AUTO VRB04KT 7SM -RA FEW027 BKN075 OVC090 08/07 A2978 220 93 -400 VRB/04 RMK AO2 P0001 T00830072
63871K1J0 1J020160115022013401/15/16 02:20:31  5-MIN K1J0 150820Z AUTO 07005KT 7SM -RA FEW021 BKN034 OVC080 08/07 A2978 220 93 -400 070/05 RMK AO2 P0002 T00830072
63871K1J0 1J020160115022514401/15/16 02:25:31  5-MIN K1J0 150825Z AUTO 07006KT 6SM -RA BR FEW021 BKN035 OVC090 08/07 A2976 230 93 -400 070/06 RMK AO2 PRESFR P0003 T00830072
63871K1J0 1J020160115023013601/15/16 02:30:31  5-MIN K1J0 150830Z AUTO 10006KT 5SM RA BR SCT024 BKN041 OVC085 08/07 A2976 230 93 -400 100/06 RMK AO2 P0007 T00830072
63871K1J0 1J020160115023513601/15/16 02:35:31  5-MIN K1J0 150835Z AUTO 10005KT 4SM RA BR SCT021 BKN033 OVC043 08/08 A2976 240 96 -400 100/05 RMK AO2 P0011 T00830078
63871K1J0 1J020160115024013601/15/16 02:40:31  5-MIN K1J0 150840Z AUTO 08005KT 4SM RA BR SCT021 BKN030 OVC037 08/08 A2975 250 96 -400 080/05 RMK AO2 P0016 T00830078
63871K1J0 1J020160115024513601/15/16 02:45:31  5-MIN K1J0 150845Z AUTO 09007KT 4SM RA BR FEW019 BKN028 OVC037 09/08 A2974 250 93 -300 090/07 RMK AO2 P0017 T00890078
63871K1J0 1J020160115025014301/15/16 02:50:31  5-MIN K1J0 150850Z AUTO 09006KT 6SM RA BR FEW020 SCT028 OVC039 09/08 A2974 260 93 -300 090/06 RMK AO2 PRESFR P0020 T00890078
63871K1J0 1J020160115025516201/15/16 02:55:31  5-MIN K1J0 150855Z AUTO 08005KT 5SM RA BR FEW020 SCT030 OVC039 09/08 A2973 270 93 -300 080/05 RMK AO2 PRESFR SLP051 P0022 60025 T00890078 58043
63871K1J0 1J020160115030014401/15/16 03:00:31  5-MIN K1J0 150900Z AUTO 09007KT 5SM -RA BR FEW020 FEW030 OVC039 09/08 A2972 270 96 -300 090/07 RMK AO2 PRESFR P0000 T00890083
63871K1J0 1J020160115030513401/15/16 03:05:31  5-MIN K1J0 150905Z AUTO VRB06KT 7SM -RA FEW017 BKN043 OVC050 09/08 A2972 270 93 -200 VRB/06 RMK AO2 P0000 T00940083
63871K1J0 1J020160115031013301/15/16 03:10:31  5-MIN K1J0 150910Z AUTO VRB06KT 7SM RA FEW008 BKN035 OVC048 09/08 A2973 260 93 -200 VRB/06 RMK AO2 P0001 T00940083
63871K1J0 1J020160115031513601/15/16 03:15:31  5-MIN K1J0 150915Z AUTO 08006KT 6SM RA BR SCT008 BKN036 OVC046 09/09 A2973 270 96 -200 080/06 RMK AO2 P0004 T00940089
63871K1J0 1J020160115032013601/15/16 03:20:31  5-MIN K1J0 150920Z AUTO VRB05KT 5SM RA BR BKN006 BKN036 OVC046 09/09 A2973 260 96 -300 VRB/05 RMK AO2 P0006 T00940089
63871K1J0 1J020160115032513601/15/16 03:25:31  5-MIN K1J0 150925Z AUTO VRB03KT 5SM RA BR BKN006 BKN035 OVC050 09/09 A2972 280 96 -200 VRB/03 RMK AO2 P0009 T00940089
63871K1J0 1J020160115033014501/15/16 03:30:31  5-MIN K1J0 150930Z AUTO 08007KT 060V120 5SM RA BR BKN006 OVC032 09/09 A2971 280 96 -200 080/07 060V120 RMK AO2 P0010 T00940089
63871K1J0 1J020160115033512201/15/16 03:35:31  5-MIN K1J0 150935Z AUTO VRB03KT 5SM RA BR OVC006 09/09 A2971 280 96 -200 VRB/03 RMK AO2 P0012 T00940089
63871K1J0 1J020160115034012201/15/16 03:40:31  5-MIN K1J0 150940Z AUTO 00000KT 4SM RA BR OVC004 09/09 A2971 280 96 -200 000/00 RMK AO2 P0014 T00940089
63871K1J0 1J020160115034512201/15/16 03:45:31  5-MIN K1J0 150945Z AUTO 00000KT 3SM RA BR OVC004 10/09 A2971 280 96 -200 000/00 RMK AO2 P0018 T01000094
63871K1J0 1J020160115035012201/15/16 03:50:31  5-MIN K1J0 150950Z AUTO 06007KT 3SM RA BR OVC004 10/09 A2969 300 96 -100 060/07 RMK AO2 P0023 T01000094
63871K1J0 1J020160115035514301/15/16 03:55:31  5-MIN K1J0 150955Z AUTO 05007KT 4SM RA BR BKN004 OVC015 10/09 A2968 310 96 -100 050/07 RMK AO2 PRESFR SLP034 P0025 T01000094
63871K1J0 1J020160115040014301/15/16 04:00:31  5-MIN K1J0 151000Z AUTO 03007KT 4SM RA BR BKN004 BKN026 OVC047 10/09 A2966 330 96 -100 030/07 RMK AO2 PRESFR P0001 T01000094
63871K1J0 1J020160115040513601/15/16 04:05:31  5-MIN K1J0 151005Z AUTO 05007KT 5SM RA BR BKN004 BKN033 OVC047 10/09 A2966 330 96 -100 050/07 RMK AO2 P0003 T01000094
63871K1J0 1J020160115041013301/15/16 04:10:31  5-MIN K1J0 151010Z AUTO VRB04KT 5SM RA BR BKN004 BKN031 OVC049 11/10 A2967 320 96 0 VRB/04 RMK AO2 P0005 T01060100
63871K1J0 1J020160115041513301/15/16 04:15:31  5-MIN K1J0 151015Z AUTO 04007KT 5SM RA BR BKN004 BKN028 OVC047 11/10 A2965 340 96 0 040/07 RMK AO2 P0008 T01060100
63871K1J0 1J020160115042014101/15/16 04:20:31  5-MIN K1J0 151020Z AUTO 02007KT 4SM +RA BR BKN004 BKN030 OVC047 11/10 A2964 350 96 0 020/07 RMK AO2 PRESFR P0013 T01060100
63871K1J0 1J020160115042513401/15/16 04:25:31  5-MIN K1J0 151025Z AUTO 35003KT 4SM -RA BR BKN004 BKN026 OVC047 11/10 A2966 330 96 0 350/03 RMK AO2 P0015 T01060100
63871K1J0 1J020160115043014201/15/16 04:30:31  5-MIN K1J0 151030Z AUTO 19010G17KT 3SM RA BR BKN004 OVC023 11/10 A2970 290 96 -100 190/10G17 RMK AO2 PRESRR P0025 T01060100
63871K1J0 1J020160115043513701/15/16 04:35:31  5-MIN K1J0 151035Z AUTO 21008G17KT 2SM +RA BR BKN004 OVC016 11/11 A2970 290 100 -100 210/08G17 RMK AO2 P0040 T01060106
63871K1J0 1J020160115044013401/15/16 04:40:31  5-MIN K1J0 151040Z AUTO 00000KT 2SM +RA BR BKN004 BKN014 OVC036 11/11 A2968 310 96 0 000/00 RMK AO2 P0041 T01110106
63871K1J0 1J020160115044513401/15/16 04:45:31  5-MIN K1J0 151045Z AUTO 30003KT 4SM -RA BR SCT004 BKN024 OVC070 11/11 A2968 310 96 0 300/03 RMK AO2 P0041 T01110106
63871K1J0 1J020160115045013101/15/16 04:50:31  5-MIN K1J0 151050Z AUTO 01005KT 7SM -RA SCT004 BKN029 OVC085 11/11 A2965 330 96 0 010/05 RMK AO2 P0041 T01110106
63871K1J0 1J020160115045512101/15/16 04:55:31  5-MIN K1J0 151055Z AUTO 35003KT 8SM -RA FEW005 SCT024 OVC085 11/11 A2966 330 96 0 350/03 RMK AO2 P0041
63871K1J0 1J020160115050013201/15/16 05:00:31  5-MIN K1J0 151100Z AUTO 35004KT 8SM -RA FEW009 SCT042 OVC085 11/11 A2966 330 100 0 350/04 RMK AO2 P0000 T01060106
63871K1J0 1J020160115050513901/15/16 05:05:31  5-MIN K1J0 151105Z AUTO 05008KT 8SM -RA FEW046 BKN080 OVC095 11/11 A2964 350 100 0 050/08 RMK AO2 PRESFR P0000 T01060106
63871K1J0 1J020160115051012401/15/16 05:10:31  5-MIN K1J0 151110Z AUTO 02007KT 8SM -RA OVC080 11/11 A2962 360 96 0 020/07 RMK AO2 PRESFR P0000 T01110106
63871K1J0 1J020160115051513101/15/16 05:15:31  5-MIN K1J0 151115Z AUTO 02006KT 8SM -RA BKN080 OVC100 11/11 A2960 380 96 0 020/06 RMK AO2 PRESFR P0000 T01110106
63871K1J0 1J020160115052013301/15/16 05:20:31  5-MIN K1J0 151120Z AUTO 04008KT 9SM -RA FEW075 OVC095 11/11 A2959 390 96 100 040/08 RMK AO2 PRESFR P0000 T01110106
63871K1J0 1J020160115052514101/15/16 05:25:31  5-MIN K1J0 151125Z AUTO 05013KT 10SM -RA FEW055 SCT075 OVC095 11/11 A2954 440 96 100 050/13 RMK AO2 PRESFR P0000 T01110106
63871K1J0 1J020160115053014701/15/16 05:30:31  5-MIN K1J0 151130Z AUTO 05012G18KT 10SM -RA FEW050 SCT075 BKN100 11/11 A2951 460 96 100 050/12G18 RMK AO2 PRESFR P0000 T01110106
63871K1J0 1J020160115053514101/15/16 05:35:31  5-MIN K1J0 151135Z AUTO 05013KT 10SM -RA FEW050 FEW075 BKN100 12/11 A2950 480 96 200 050/13 RMK AO2 PRESFR P0000 T01170111
63871K1J0 1J020160115054013401/15/16 05:40:31  5-MIN K1J0 151140Z AUTO 03009KT 10SM -RA FEW050 SCT100 BKN110 12/11 A2952 460 96 200 030/09 RMK AO2 P0000 T01170111
63871K1J0 1J020160115054513401/15/16 05:45:31  5-MIN K1J0 151145Z AUTO VRB06KT 10SM -RA FEW055 SCT085 BKN110 12/11 A2954 440 96 200 VRB/06 RMK AO2 P0000 T01170111
63871K1J0 1J020160115055014301/15/16 05:50:31  5-MIN K1J0 151150Z AUTO 06004KT 10SM FEW055 FEW075 SCT110 12/12 A2954 440 96 200 060/04 RMK AO2 RAE46 PRESRR P0000 T01220117
63871K1J0 1J020160115055517301/15/16 05:55:31  5-MIN K1J0 151155Z AUTO 00000KT 10SM FEW075 FEW110 12/12 A2957 410 96 200 000/00 RMK AO2 RAE46 PRESRR SLP999 P0000 60093 70093 T01220117 10122 20083 56057
63871K1J0 1J020160115060011701/15/16 06:00:31  5-MIN K1J0 151200Z AUTO 23005KT 10SM FEW110 12/11 A2959 390 96 100 230/05 RMK AO2 PRESRR T01170111
63871K1J0 1J020160115060513101/15/16 06:05:31  5-MIN K1J0 151205Z AUTO 23007KT 10SM FEW050 FEW075 SCT110 12/11 A2961 380 96 100 230/07 RMK AO2 PRESRR T01170111
63871K1J0 1J020160115061014001/15/16 06:10:31  5-MIN K1J0 151210Z AUTO VRB06KT 10SM -RA FEW011 SCT042 BKN110 12/12 A2961 370 96 200 VRB/06 RMK AO2 RAB06 P0000 T01220117
63871K1J0 1J020160115061514001/15/16 06:15:31  5-MIN K1J0 151215Z AUTO 22005KT 10SM -RA FEW011 SCT040 SCT100 12/12 A2962 370 96 200 220/05 RMK AO2 RAB06 P0000 T01220117
63871K1J0 1J020160115062013201/15/16 06:20:31  5-MIN K1J0 151220Z AUTO VRB03KT 10SM FEW041 SCT070 12/12 A2962 370 96 200 VRB/03 RMK AO2 RAB06E16 P0000 T01220117
63871K1J0 1J020160115062513301/15/16 06:25:31  5-MIN K1J0 151225Z AUTO 00000KT 10SM SCT041 BKN070 12/12 A2962 370 100 100 000/00 RMK AO2 RAB06E16 P0000 T01170117
63871K1J0 1J020160115063013101/15/16 06:30:31  5-MIN K1J0 151230Z AUTO 00000KT 9SM BKN041 BKN070 12/11 A2961 370 96 100 000/00 RMK AO2 RAB06E16 P0000 T01170111
63871K1J0 1J020160115063513101/15/16 06:35:31  5-MIN K1J0 151235Z AUTO 00000KT 8SM BKN041 BKN070 12/11 A2961 370 96 100 000/00 RMK AO2 RAB06E16 P0000 T01170111
63871K1J0 1J020160115064013801/15/16 06:40:31  5-MIN K1J0 151240Z AUTO 00000KT 9SM BKN041 BKN050 OVC070 12/11 A2961 380 96 100 000/00 RMK AO2 RAB06E16 P0000 T01170111
63871K1J0 1J020160115064512601/15/16 06:45:31  5-MIN K1J0 151245Z AUTO 00000KT 10SM OVC041 12/12 A2960 380 100 100 000/00 RMK AO2 RAB06E16 P0000 T01170117
63871K1J0 1J020160115065012601/15/16 06:50:31  5-MIN K1J0 151250Z AUTO 00000KT 10SM OVC039 12/12 A2960 380 100 100 000/00 RMK AO2 RAB06E16 P0000 T01170117
63871K1J0 1J020160115065513901/15/16 06:55:31  5-MIN K1J0 151255Z AUTO 00000KT 7SM FEW030 OVC039 12/12 A2960 380 100 100 000/00 RMK AO2 RAB06E16 SLP010 P0000 T01170117
63871K1J0 1J020160115070012701/15/16 07:00:31  5-MIN K1J0 151300Z AUTO 00000KT 6SM BR FEW021 SCT028 OVC037 12/12 A2961 380 100 100 000/00 RMK AO2 T01170117
63871K1J0 1J020160115070514301/15/16 07:05:31  5-MIN K1J0 151305Z AUTO 00000KT 5SM -RA BR FEW023 BKN030 OVC037 12/12 A2959 390 100 100 000/00 RMK AO2 RAB03 P0000 T01170117
63871K1J0 1J020160115071013501/15/16 07:10:31  5-MIN K1J0 151310Z AUTO 00000KT 5SM -RA BR SCT025 OVC032 12/11 A2958 400 96 100 000/00 RMK AO2 RAB03 P0000 T01170111
63871K1J0 1J020160115071513601/15/16 07:15:31  5-MIN K1J0 151315Z AUTO 00000KT 6SM -RA BR FEW024 OVC032 12/12 A2958 400 100 100 000/00 RMK AO2 RAB03 P0000 T01170117
63871K1J0 1J020160115072014001/15/16 07:20:31  5-MIN K1J0 151320Z AUTO 00000KT 7SM -RA FEW023 BKN028 OVC034 12/12 A2959 400 100 100 000/00 RMK AO2 RAB03 P0000 T01170117
63871K1J0 1J020160115072514701/15/16 07:25:31  5-MIN K1J0 151325Z AUTO 27010KT 8SM -RA FEW004 SCT023 OVC030 12/12 A2962 370 100 100 270/10 RMK AO2 RAB03 PRESRR P0000 T01170117
63871K1J0 1J020160115073013901/15/16 07:30:31  5-MIN K1J0 151330Z AUTO 26007KT 8SM -RA SCT006 BKN022 OVC034 12/12 A2962 370 96 200 260/07 RMK AO2 RAB03 P0000 T01220117
63871K1J0 1J020160115073513901/15/16 07:35:31  5-MIN K1J0 151335Z AUTO 26006KT 9SM -RA BKN006 BKN022 OVC034 12/12 A2962 360 96 200 260/06 RMK AO2 RAB03 P0000 T01220117
63871K1J0 1J020160115074013901/15/16 07:40:31  5-MIN K1J0 151340Z AUTO 26006KT 10SM SCT006 BKN010 OVC037 12/12 A2963 350 96 100 260/06 RMK AO2 RAB03E37 P0000 T01220117
63871K1J0 1J020160115074513901/15/16 07:45:31  5-MIN K1J0 151345Z AUTO 27004KT 10SM FEW006 BKN010 OVC021 12/12 A2963 350 96 100 270/04 RMK AO2 RAB03E37 P0000 T01220117
63871K1J0 1J020160115075013201/15/16 07:50:31  5-MIN K1J0 151350Z AUTO 28003KT 10SM FEW006 OVC010 12/12 A2963 350 96 100 280/03 RMK AO2 RAB03E37 P0000 T01220117
63871K1J0 1J020160115075513401/15/16 07:55:31  5-MIN K1J0 151355Z AUTO 28005KT 10SM BKN006 OVC010 12/12 A2964 350 96 100 280/05 RMK AO2 RAB03E37 CIG 005V010 P0000
63871K1J0 1J020160115080011701/15/16 08:00:31  5-MIN K1J0 151400Z AUTO 29006KT 10SM BKN006 OVC011 12/12 A2964 340 96 100 290/06 RMK AO2 T01220117
63871K1J0 1J020160115080513001/15/16 08:05:31  5-MIN K1J0 151405Z AUTO 29005KT 10SM BKN005 OVC011 12/12 A2965 340 100 100 290/05 RMK AO2 CIG 004V009 T01170117
63871K1J0 1J020160115081012901/15/16 08:10:31  5-MIN K1J0 151410Z AUTO VRB03KT 10SM BKN005 OVC011 12/11 A2965 340 96 100 VRB/03 RMK AO2 CIG 004V008 T01170111
63871K1J0 1J020160115081512901/15/16 08:15:31  5-MIN K1J0 151415Z AUTO VRB04KT 10SM BKN006 OVC013 12/11 A2964 340 96 100 VRB/04 RMK AO2 CIG 004V010 T01170111
63871K1J0 1J020160115082011701/15/16 08:20:31  5-MIN K1J0 151420Z AUTO VRB03KT 10SM SCT006 OVC015 12/11 A2964 340 96 100 VRB/03 RMK AO2 T01170111
63871K1J0 1J020160115082511701/15/16 08:25:31  5-MIN K1J0 151425Z AUTO 00000KT 10SM SCT006 OVC015 12/11 A2964 350 96 100 000/00 RMK AO2 T01170111
63871K1J0 1J020160115083011701/15/16 08:30:31  5-MIN K1J0 151430Z AUTO 00000KT 10SM FEW006 OVC016 12/11 A2965 340 96 100 000/00 RMK AO2 T01170111
63871K1J0 1J020160115083511701/15/16 08:35:31  5-MIN K1J0 151435Z AUTO 27004KT 10SM FEW006 OVC016 12/11 A2965 340 93 100 270/04 RMK AO2 T01220111
63871K1J0 1J020160115084011001/15/16 08:40:31  5-MIN K1J0 151440Z AUTO 28004KT 10SM OVC016 12/11 A2965 340 96 100 280/04 RMK AO2 T01170111
63871K1J0 1J020160115084511701/15/16 08:45:31  5-MIN K1J0 151445Z AUTO 27003KT 10SM FEW007 OVC016 12/11 A2965 330 93 100 270/03 RMK AO2 T01220111
63871K1J0 1J020160115085011701/15/16 08:50:31  5-MIN K1J0 151450Z AUTO VRB04KT 10SM FEW007 BKN016 13/12 A2965 330 93 200 VRB/04 RMK AO2 T01280117
63871K1J0 1J020160115085510001/15/16 08:55:31  5-MIN K1J0 151455Z AUTO 00000KT 10SM SCT016 13/11 A2965 330 89 200 000/00 RMK AO2
63871K1J0 1J020160115090011001/15/16 09:00:31  5-MIN K1J0 151500Z AUTO 27004KT 10SM SCT016 13/11 A2966 330 89 200 270/04 RMK AO2 T01280111
63871K1J0 1J020160115090511701/15/16 09:05:31  5-MIN K1J0 151505Z AUTO 26004KT 10SM FEW007 SCT016 13/11 A2966 320 89 200 260/04 RMK AO2 T01280111
63871K1J0 1J020160115091011001/15/16 09:10:31  5-MIN K1J0 151510Z AUTO 26004KT 10SM SCT007 13/11 A2967 320 89 200 260/04 RMK AO2 T01280111
63871K1J0 1J020160115091511001/15/16 09:15:31  5-MIN K1J0 151515Z AUTO VRB04KT 10SM SCT008 13/11 A2967 320 89 200 VRB/04 RMK AO2 T01280111
63871K1J0 1J020160115092011001/15/16 09:20:31  5-MIN K1J0 151520Z AUTO 26005KT 10SM SCT008 13/11 A2968 310 86 200 260/05 RMK AO2 T01330111
63871K1J0 1J020160115092511001/15/16 09:25:31  5-MIN K1J0 151525Z AUTO VRB06KT 10SM SCT008 13/11 A2968 310 86 200 VRB/06 RMK AO2 T01330111
63871K1J0 1J020160115093011001/15/16 09:30:31  5-MIN K1J0 151530Z AUTO 27005KT 10SM SCT008 14/11 A2969 300 83 300 270/05 RMK AO2 T01390111
63871K1J0 1J020160115093511001/15/16 09:35:31  5-MIN K1J0 151535Z AUTO 25005KT 10SM SCT008 14/12 A2969 300 86 300 250/05 RMK AO2 T01390117
63871K1J0 1J020160115094011001/15/16 09:40:31  5-MIN K1J0 151540Z AUTO 26004KT 10SM FEW008 14/12 A2969 300 86 300 260/04 RMK AO2 T01390117
63871K1J0 1J020160115094511001/15/16 09:45:31  5-MIN K1J0 151545Z AUTO 27004KT 10SM FEW010 14/12 A2970 290 83 300 270/04 RMK AO2 T01440117
63871K1J0 1J020160115095011001/15/16 09:50:31  5-MIN K1J0 151550Z AUTO VRB04KT 10SM SCT012 14/12 A2970 290 83 300 VRB/04 RMK AO2 T01440117
63871K1J0 1J020160115095511701/15/16 09:55:31  5-MIN K1J0 151555Z AUTO VRB04KT 10SM SCT012 15/12 A2970 290 80 400 VRB/04 RMK AO2 SLP041 T01500117
63871K1J0 1J020160115100011001/15/16 10:00:31  5-MIN K1J0 151600Z AUTO VRB04KT 10SM SCT012 15/12 A2970 290 80 400 VRB/04 RMK AO2 T01500117
63871K1J0 1J020160115100511001/15/16 10:05:31  5-MIN K1J0 151605Z AUTO 28003KT 10SM SCT013 15/12 A2970 290 80 400 280/03 RMK AO2 T01500117
63871K1J0 1J020160115101011001/15/16 10:10:31  5-MIN K1J0 151610Z AUTO 26006KT 10SM SCT013 16/12 A2970 290 77 500 260/06 RMK AO2 T01560117
63871K1J0 1J020160115101511001/15/16 10:15:31  5-MIN K1J0 151615Z AUTO 26007KT 10SM SCT013 15/11 A2970 290 77 400 260/07 RMK AO2 T01500111
63871K1J0 1J020160115102011001/15/16 10:20:31  5-MIN K1J0 151620Z AUTO 28006KT 10SM FEW014 16/11 A2970 290 74 500 280/06 RMK AO2 T01560111
63871K1J0 1J020160115102511001/15/16 10:25:31  5-MIN K1J0 151625Z AUTO 27006KT 10SM FEW014 16/11 A2970 290 74 500 270/06 RMK AO2 T01560111
63871K1J0 1J020160115103011001/15/16 10:30:31  5-MIN K1J0 151630Z AUTO 28005KT 10SM FEW014 16/11 A2970 290 74 500 280/05 RMK AO2 T01560111
63871K1J0 1J020160115103510701/15/16 10:35:31  5-MIN K1J0 151635Z AUTO 26007KT 10SM CLR 16/11 A2970 290 74 500 260/07 RMK AO2 T01560111
63871K1J0 1J020160115104010701/15/16 10:40:31  5-MIN K1J0 151640Z AUTO 26006KT 10SM CLR 16/12 A2971 280 75 500 260/06 RMK AO2 T01610117
63871K1J0 1J020160115104512301/15/16 10:45:31  5-MIN K1J0 151645Z AUTO 26007KT 230V290 10SM CLR 16/12 A2971 280 75 500 260/07 230V290 RMK AO2 T01610117
63871K1J0 1J020160115105010701/15/16 10:50:31  5-MIN K1J0 151650Z AUTO 27005KT 10SM CLR 16/12 A2971 280 75 500 270/05 RMK AO2 T01610117
63871K1J0 1J020160115105511401/15/16 10:55:31  5-MIN K1J0 151655Z AUTO 26008KT 10SM CLR 16/11 A2971 280 72 500 260/08 RMK AO2 SLP045 T01610111
63871K1J0 1J020160115110010701/15/16 11:00:31  5-MIN K1J0 151700Z AUTO 27006KT 10SM CLR 16/11 A2971 280 72 500 270/06 RMK AO2 T01610111
63871K1J0 1J020160115110510701/15/16 11:05:31  5-MIN K1J0 151705Z AUTO 26008KT 10SM CLR 17/12 A2971 280 72 600 260/08 RMK AO2 T01670117
63871K1J0 1J020160115111010701/15/16 11:10:31  5-MIN K1J0 151710Z AUTO 28005KT 10SM CLR 17/12 A2971 280 72 600 280/05 RMK AO2 T01670117
63871K1J0 1J020160115111510701/15/16 11:15:31  5-MIN K1J0 151715Z AUTO 28005KT 10SM CLR 17/12 A2971 280 72 600 280/05 RMK AO2 T01720122
63871K1J0 1J020160115112010701/15/16 11:20:31  5-MIN K1J0 151720Z AUTO VRB05KT 10SM CLR 17/12 A2971 280 69 600 VRB/05 RMK AO2 T01720117
63871K1J0 1J020160115112512301/15/16 11:25:31  5-MIN K1J0 151725Z AUTO 27007KT 240V320 10SM CLR 17/12 A2971 280 72 600 270/07 240V320 RMK AO2 T01720122
63871K1J0 1J020160115113010701/15/16 11:30:31  5-MIN K1J0 151730Z AUTO 27005KT 10SM CLR 17/12 A2971 280 69 600 270/05 RMK AO2 T01720117
63871K1J0 1J020160115113510701/15/16 11:35:31  5-MIN K1J0 151735Z AUTO 27007KT 10SM CLR 17/12 A2971 280 69 600 270/07 RMK AO2 T01720117
63871K1J0 1J020160115114010701/15/16 11:40:31  5-MIN K1J0 151740Z AUTO VRB06KT 10SM CLR 17/12 A2971 280 69 700 VRB/06 RMK AO2 T01720117
63871K1J0 1J020160115114510701/15/16 11:45:31  5-MIN K1J0 151745Z AUTO 28006KT 10SM CLR 18/12 A2971 290 69 700 280/06 RMK AO2 T01780122
63871K1J0 1J020160115115010701/15/16 11:50:31  5-MIN K1J0 151750Z AUTO VRB05KT 10SM CLR 18/12 A2970 290 69 700 VRB/05 RMK AO2 T01780122
63871K1J0 1J020160115115515401/15/16 11:55:31  5-MIN K1J0 151755Z AUTO 25008KT 230V300 10SM CLR 17/12 A2970 290 69 700 250/08 230V300 RMK AO2 SLP042 60000 T01720117 10178 20117 51018
63871K1J0 1J020160115120012301/15/16 12:00:31  5-MIN K1J0 151800Z AUTO 26007KT 230V300 10SM CLR 17/12 A2970 290 69 700 260/07 230V300 RMK AO2 T01720117
63871K1J0 1J020160115120510701/15/16 12:05:31  5-MIN K1J0 151805Z AUTO VRB04KT 10SM CLR 18/12 A2970 290 67 700 VRB/04 RMK AO2 T01780117
63871K1J0 1J020160115121010701/15/16 12:10:31  5-MIN K1J0 151810Z AUTO VRB04KT 10SM CLR 18/12 A2970 290 65 800 VRB/04 RMK AO2 T01830117
63871K1J0 1J020160115121510701/15/16 12:15:31  5-MIN K1J0 151815Z AUTO VRB06KT 10SM CLR 18/12 A2969 300 67 700 VRB/06 RMK AO2 T01780117
63871K1J0 1J020160115122010701/15/16 12:20:31  5-MIN K1J0 151820Z AUTO 29004KT 10SM CLR 18/12 A2969 300 67 700 290/04 RMK AO2 T01780117
63871K1J0 1J020160115122510701/15/16 12:25:31  5-MIN K1J0 151825Z AUTO 27005KT 10SM CLR 18/12 A2969 300 67 700 270/05 RMK AO2 T01780117
63871K1J0 1J020160115123010701/15/16 12:30:31  5-MIN K1J0 151830Z AUTO VRB06KT 10SM CLR 18/12 A2969 300 65 800 VRB/06 RMK AO2 T01830117
63871K1J0 1J020160115123510701/15/16 12:35:31  5-MIN K1J0 151835Z AUTO 25007KT 10SM CLR 18/12 A2969 300 67 700 250/07 RMK AO2 T01780117
63871K1J0 1J020160115124010701/15/16 12:40:31  5-MIN K1J0 151840Z AUTO VRB05KT 10SM CLR 18/12 A2969 300 67 700 VRB/05 RMK AO2 T01780117
63871K1J0 1J020160115124510701/15/16 12:45:31  5-MIN K1J0 151845Z AUTO VRB06KT 10SM CLR 18/12 A2969 300 67 700 VRB/06 RMK AO2 T01780117
63871K1J0 1J020160115125012301/15/16 12:50:31  5-MIN K1J0 151850Z AUTO 26007KT 240V300 10SM CLR 18/12 A2969 300 67 700 260/07 240V300 RMK AO2 T01780117
63871K1J0 1J020160115125513001/15/16 12:55:31  5-MIN K1J0 151855Z AUTO 26007KT 230V300 10SM CLR 17/11 A2969 300 67 700 260/07 230V300 RMK AO2 SLP038 T01720111
63871K1J0 1J020160115130010701/15/16 13:00:31  5-MIN K1J0 151900Z AUTO VRB05KT 10SM CLR 18/12 A2969 300 65 800 VRB/05 RMK AO2 T01830117
63871K1J0 1J020160115130511001/15/16 13:05:31  5-MIN K1J0 151905Z AUTO 28004KT 10SM FEW026 18/12 A2969 300 65 800 280/04 RMK AO2 T01830117
63871K1J0 1J020160115131011001/15/16 13:10:31  5-MIN K1J0 151910Z AUTO 25008KT 10SM FEW026 18/12 A2968 310 65 800 250/08 RMK AO2 T01830117
63871K1J0 1J020160115131511001/15/16 13:15:31  5-MIN K1J0 151915Z AUTO 26008KT 10SM FEW026 18/12 A2969 300 65 800 260/08 RMK AO2 T01830117
63871K1J0 1J020160115132011001/15/16 13:20:31  5-MIN K1J0 151920Z AUTO 27005KT 10SM FEW026 18/12 A2968 300 65 800 270/05 RMK AO2 T01830117
63871K1J0 1J020160115132511001/15/16 13:25:31  5-MIN K1J0 151925Z AUTO VRB06KT 10SM FEW026 18/12 A2968 310 65 800 VRB/06 RMK AO2 T01830117
63871K1J0 1J020160115133011001/15/16 13:30:31  5-MIN K1J0 151930Z AUTO 28008KT 10SM FEW027 18/12 A2968 310 65 800 280/08 RMK AO2 T01830117
63871K1J0 1J020160115133511601/15/16 13:35:31  5-MIN K1J0 151935Z AUTO 26009G15KT 10SM FEW027 18/12 A2968 310 67 700 260/09G15 RMK AO2 T01780117
63871K1J0 1J020160115134011601/15/16 13:40:31  5-MIN K1J0 151940Z AUTO VRB06G15KT 10SM FEW026 18/12 A2968 310 67 800 VRB/06G15 RMK AO2 T01780117
63871K1J0 1J020160115134511601/15/16 13:45:31  5-MIN K1J0 151945Z AUTO 26009G14KT 10SM FEW026 18/12 A2967 320 65 800 260/09G14 RMK AO2 T01830117
63871K1J0 1J020160115135011601/15/16 13:50:31  5-MIN K1J0 151950Z AUTO 27008G16KT 10SM FEW026 18/12 A2967 320 67 800 270/08G16 RMK AO2 T01780117
63871K1J0 1J020160115135512301/15/16 13:55:31  5-MIN K1J0 151955Z AUTO 26007G16KT 10SM FEW026 18/12 A2967 320 65 800 260/07G16 RMK AO2 SLP033 T01830117
63871K1J0 1J020160115140011301/15/16 14:00:31  5-MIN K1J0 152000Z AUTO 25010G17KT 10SM CLR 18/12 A2967 320 67 800 250/10G17 RMK AO2 T01780117
63871K1J0 1J020160115140511301/15/16 14:05:31  5-MIN K1J0 152005Z AUTO 27007G17KT 10SM CLR 18/12 A2967 310 65 800 270/07G17 RMK AO2 T01830117
63871K1J0 1J020160115141010701/15/16 14:10:31  5-MIN K1J0 152010Z AUTO 28005KT 10SM CLR 18/12 A2967 320 67 800 280/05 RMK AO2 T01830122
63871K1J0 1J020160115141510701/15/16 14:15:31  5-MIN K1J0 152015Z AUTO 27006KT 10SM CLR 19/12 A2967 320 65 900 270/06 RMK AO2 T01890122
63871K1J0 1J020160115142011001/15/16 14:20:31  5-MIN K1J0 152020Z AUTO VRB06KT 10SM FEW026 18/12 A2967 320 65 800 VRB/06 RMK AO2 T01830117
63871K1J0 1J020160115142510701/15/16 14:25:31  5-MIN K1J0 152025Z AUTO 28004KT 10SM CLR 19/12 A2967 320 65 900 280/04 RMK AO2 T01890122
63871K1J0 1J020160115143010701/15/16 14:30:31  5-MIN K1J0 152030Z AUTO 26006KT 10SM CLR 19/12 A2968 310 65 900 260/06 RMK AO2 T01890122
63871K1J0 1J020160115143510701/15/16 14:35:31  5-MIN K1J0 152035Z AUTO 29004KT 10SM CLR 19/12 A2968 310 65 900 290/04 RMK AO2 T01890122
63871K1J0 1J020160115144010701/15/16 14:40:31  5-MIN K1J0 152040Z AUTO VRB04KT 10SM CLR 18/12 A2968 310 67 800 VRB/04 RMK AO2 T01830122
63871K1J0 1J020160115144510701/15/16 14:45:31  5-MIN K1J0 152045Z AUTO VRB05KT 10SM CLR 18/12 A2968 310 67 800 VRB/05 RMK AO2 T01830122
63871K1J0 1J020160115145010701/15/16 14:50:31  5-MIN K1J0 152050Z AUTO VRB05KT 10SM CLR 18/12 A2968 310 67 700 VRB/05 RMK AO2 T01780117
63871K1J0 1J020160115145512001/15/16 14:55:31  5-MIN K1J0 152055Z AUTO 28004KT 10SM CLR 18/12 A2968 310 65 800 280/04 RMK AO2 SLP037 T01830117 50014
63871K1J0 1J020160115150010701/15/16 15:00:31  5-MIN K1J0 152100Z AUTO 27004KT 10SM CLR 18/12 A2968 300 67 700 270/04 RMK AO2 T01780117
63871K1J0 1J020160115150510701/15/16 15:05:31  5-MIN K1J0 152105Z AUTO VRB03KT 10SM CLR 18/12 A2969 300 67 800 VRB/03 RMK AO2 T01830122
63871K1J0 1J020160115151010701/15/16 15:10:31  5-MIN K1J0 152110Z AUTO 28004KT 10SM CLR 18/12 A2969 300 65 800 280/04 RMK AO2 T01830117
63871K1J0 1J020160115151510701/15/16 15:15:31  5-MIN K1J0 152115Z AUTO 26006KT 10SM CLR 18/12 A2969 300 67 700 260/06 RMK AO2 T01780117
63871K1J0 1J020160115152010701/15/16 15:20:31  5-MIN K1J0 152120Z AUTO VRB04KT 10SM CLR 18/12 A2969 300 67 700 VRB/04 RMK AO2 T01780117
63871K1J0 1J020160115152510701/15/16 15:25:31  5-MIN K1J0 152125Z AUTO VRB03KT 10SM CLR 18/12 A2969 300 67 700 VRB/03 RMK AO2 T01780117
63871K1J0 1J020160115153010701/15/16 15:30:31  5-MIN K1J0 152130Z AUTO 30004KT 10SM CLR 18/12 A2969 300 67 700 300/04 RMK AO2 T01780117
63871K1J0 1J020160115153510701/15/16 15:35:31  5-MIN K1J0 152135Z AUTO VRB03KT 10SM CLR 18/12 A2970 290 69 700 VRB/03 RMK AO2 T01780122
63871K1J0 1J020160115154010701/15/16 15:40:31  5-MIN K1J0 152140Z AUTO VRB03KT 10SM CLR 18/12 A2970 290 69 700 VRB/03 RMK AO2 T01780122
63871K1J0 1J020160115154510701/15/16 15:45:31  5-MIN K1J0 152145Z AUTO 27004KT 10SM CLR 18/12 A2970 290 69 700 270/04 RMK AO2 T01780122
63871K1J0 1J020160115155010701/15/16 15:50:31  5-MIN K1J0 152150Z AUTO VRB04KT 10SM CLR 18/12 A2970 290 67 700 VRB/04 RMK AO2 T01780117
63871K1J0 1J020160115155511401/15/16 15:55:31  5-MIN K1J0 152155Z AUTO 00000KT 10SM CLR 18/12 A2970 290 67 700 000/00 RMK AO2 SLP043 T01780117
63871K1J0 1J020160115160010701/15/16 16:00:31  5-MIN K1J0 152200Z AUTO VRB03KT 10SM CLR 18/12 A2970 290 69 700 VRB/03 RMK AO2 T01780122
63871K1J0 1J020160115160510701/15/16 16:05:31  5-MIN K1J0 152205Z AUTO 27003KT 10SM CLR 17/12 A2971 280 72 700 270/03 RMK AO2 T01720122
63871K1J0 1J020160115161010701/15/16 16:10:31  5-MIN K1J0 152210Z AUTO 00000KT 10SM CLR 17/12 A2971 280 72 600 000/00 RMK AO2 T01720122
63871K1J0 1J020160115161510701/15/16 16:15:31  5-MIN K1J0 152215Z AUTO 00000KT 10SM CLR 17/12 A2971 280 72 600 000/00 RMK AO2 T01720122
63871K1J0 1J020160115162010701/15/16 16:20:31  5-MIN K1J0 152220Z AUTO 00000KT 10SM CLR 17/12 A2971 280 72 600 000/00 RMK AO2 T01720122
63871K1J0 1J020160115162510701/15/16 16:25:31  5-MIN K1J0 152225Z AUTO VRB03KT 10SM CLR 17/12 A2971 280 72 600 VRB/03 RMK AO2 T01670117
63871K1J0 1J020160115163010701/15/16 16:30:31  5-MIN K1J0 152230Z AUTO 30003KT 10SM CLR 17/12 A2971 280 72 600 300/03 RMK AO2 T01670117
63871K1J0 1J020160115163510701/15/16 16:35:31  5-MIN K1J0 152235Z AUTO 00000KT 10SM CLR 17/12 A2971 280 72 600 000/00 RMK AO2 T01670117
63871K1J0 1J020160115164010701/15/16 16:40:31  5-MIN K1J0 152240Z AUTO 00000KT 10SM CLR 16/12 A2971 280 75 500 000/00 RMK AO2 T01610117
63871K1J0 1J020160115164510701/15/16 16:45:31  5-MIN K1J0 152245Z AUTO 00000KT 10SM CLR 16/12 A2971 280 77 500 000/00 RMK AO2 T01610122
63871K1J0 1J020160115165010701/15/16 16:50:31  5-MIN K1J0 152250Z AUTO 00000KT 10SM CLR 16/12 A2971 280 77 400 000/00 RMK AO2 T01560117
63871K1J0 1J020160115165511401/15/16 16:55:31  5-MIN K1J0 152255Z AUTO 00000KT 10SM CLR 16/12 A2971 280 77 400 000/00 RMK AO2 SLP047 T01560117
63871K1J0 1J020160115170010701/15/16 17:00:31  5-MIN K1J0 152300Z AUTO 00000KT 10SM CLR 15/12 A2971 280 80 400 000/00 RMK AO2 T01500117
63871K1J0 1J020160115170510701/15/16 17:05:31  5-MIN K1J0 152305Z AUTO 00000KT 10SM CLR 14/12 A2971 280 83 300 000/00 RMK AO2 T01440117
63871K1J0 1J020160115171010701/15/16 17:10:31  5-MIN K1J0 152310Z AUTO 00000KT 10SM CLR 14/12 A2972 280 83 300 000/00 RMK AO2 T01440117
63871K1J0 1J020160115171510701/15/16 17:15:31  5-MIN K1J0 152315Z AUTO 00000KT 10SM CLR 14/12 A2972 270 83 300 000/00 RMK AO2 T01440117
63871K1J0 1J020160115172010701/15/16 17:20:31  5-MIN K1J0 152320Z AUTO 00000KT 10SM CLR 14/12 A2972 270 86 200 000/00 RMK AO2 T01390117
63871K1J0 1J020160115172510701/15/16 17:25:31  5-MIN K1J0 152325Z AUTO 00000KT 10SM CLR 14/12 A2972 270 86 200 000/00 RMK AO2 T01390117
63871K1J0 1J020160115173010701/15/16 17:30:31  5-MIN K1J0 152330Z AUTO 00000KT 10SM CLR 13/11 A2973 260 86 200 000/00 RMK AO2 T01330111
63871K1J0 1J020160115173510701/15/16 17:35:31  5-MIN K1J0 152335Z AUTO 00000KT 10SM CLR 13/11 A2973 260 86 200 000/00 RMK AO2 T01330111
63871K1J0 1J020160115174010701/15/16 17:40:31  5-MIN K1J0 152340Z AUTO 00000KT 10SM CLR 13/12 A2973 260 93 100 000/00 RMK AO2 T01280117
63871K1J0 1J020160115174510701/15/16 17:45:31  5-MIN K1J0 152345Z AUTO 00000KT 10SM CLR 13/11 A2973 260 89 100 000/00 RMK AO2 T01280111
63871K1J0 1J020160115175010501/15/16 17:50:31  5-MIN K1J0 152350Z AUTO 00000KT 10SM CLR 12/11 A2974 260 93 0 000/00 RMK AO2 T01220111
63871K1J0 1J020160115175513501/15/16 17:55:31  5-MIN K1J0 152355Z AUTO 00000KT 10SM FEW023 13/11 A2974 250 89 100 000/00 RMK AO2 SLP057 T01280111 10189 20122 55005
63871K1J0 1J020160115180010801/15/16 18:00:31  5-MIN K1J0 160000Z AUTO 00000KT 10SM SCT023 12/11 A2975 240 93 0 000/00 RMK AO2 T01220111
63871K1J0 1J020160115180510801/15/16 18:05:31  5-MIN K1J0 160005Z AUTO 00000KT 10SM FEW023 12/11 A2975 240 93 0 000/00 RMK AO2 T01220111
63871K1J0 1J020160115181010801/15/16 18:10:31  5-MIN K1J0 160010Z AUTO 20003KT 10SM FEW023 12/11 A2976 240 96 0 200/03 RMK AO2 T01170111
63871K1J0 1J020160115181510801/15/16 18:15:31  5-MIN K1J0 160015Z AUTO 00000KT 10SM FEW023 12/11 A2976 230 93 0 000/00 RMK AO2 T01220111
63871K1J0 1J020160115182010801/15/16 18:20:31  5-MIN K1J0 160020Z AUTO 00000KT 10SM FEW023 12/11 A2976 230 96 0 000/00 RMK AO2 T01170111
63871K1J0 1J020160115182510801/15/16 18:25:31  5-MIN K1J0 160025Z AUTO 00000KT 10SM FEW023 12/11 A2977 230 93 0 000/00 RMK AO2 T01220111
63871K1J0 1J020160115183010801/15/16 18:30:31  5-MIN K1J0 160030Z AUTO 00000KT 10SM SCT020 12/11 A2977 220 93 0 000/00 RMK AO2 T01220111
63871K1J0 1J020160115183510801/15/16 18:35:31  5-MIN K1J0 160035Z AUTO 00000KT 10SM BKN020 12/11 A2978 220 93 0 000/00 RMK AO2 T01220111
63871K1J0 1J020160115184010801/15/16 18:40:31  5-MIN K1J0 160040Z AUTO 00000KT 10SM BKN020 12/11 A2978 220 93 0 000/00 RMK AO2 T01220111
63871K1J0 1J020160115184510801/15/16 18:45:31  5-MIN K1J0 160045Z AUTO 00000KT 10SM BKN019 12/11 A2978 220 93 0 000/00 RMK AO2 T01220111
63871K1J0 1J020160115185011501/15/16 18:50:31  5-MIN K1J0 160050Z AUTO 00000KT 10SM BKN019 BKN027 12/11 A2978 220 93 0 000/00 RMK AO2 T01220111
63871K1J0 1J020160115185512201/15/16 18:55:31  5-MIN K1J0 160055Z AUTO 00000KT 10SM BKN019 OVC027 12/11 A2978 210 93 0 000/00 RMK AO2 SLP070 T01220111
63871K1J0 1J020160115190011501/15/16 19:00:31  5-MIN K1J0 160100Z AUTO 00000KT 10SM BKN019 OVC026 12/11 A2978 210 96 0 000/00 RMK AO2 T01170111
63871K1J0 1J020160115190510801/15/16 19:05:31  5-MIN K1J0 160105Z AUTO 00000KT 10SM OVC022 12/11 A2979 210 93 0 000/00 RMK AO2 T01220111
63871K1J0 1J020160115191010801/15/16 19:10:31  5-MIN K1J0 160110Z AUTO 00000KT 10SM BKN022 12/11 A2979 210 96 0 000/00 RMK AO2 T01170111
63871K1J0 1J020160115191510801/15/16 19:15:31  5-MIN K1J0 160115Z AUTO 00000KT 10SM SCT024 12/11 A2979 210 93 0 000/00 RMK AO2 T01170106
63871K1J0 1J020160115192010801/15/16 19:20:31  5-MIN K1J0 160120Z AUTO 00000KT 10SM SCT024 12/11 A2979 210 93 0 000/00 RMK AO2 T01170106
63871K1J0 1J020160115192511101/15/16 19:25:31  5-MIN K1J0 160125Z AUTO 00000KT 10SM FEW024 12/11 A2979 210 93 -100 000/00 RMK AO2 T01170106
63871K1J0 1J020160115193011101/15/16 19:30:31  5-MIN K1J0 160130Z AUTO 00000KT 10SM FEW022 12/11 A2979 200 93 -100 000/00 RMK AO2 T01170106
63871K1J0 1J020160115193510801/15/16 19:35:31  5-MIN K1J0 160135Z AUTO 00000KT 10SM CLR 12/11 A2979 200 93 -100 000/00 RMK AO2 T01170106
63871K1J0 1J020160115194010801/15/16 19:40:31  5-MIN K1J0 160140Z AUTO 00000KT 10SM CLR 12/11 A2979 200 93 -100 000/00 RMK AO2 T01170106
63871K1J0 1J020160115194510801/15/16 19:45:31  5-MIN K1J0 160145Z AUTO 00000KT 10SM CLR 11/10 A2979 200 93 -100 000/00 RMK AO2 T01110100
63871K1J0 1J020160115195010801/15/16 19:50:31  5-MIN K1J0 160150Z AUTO 00000KT 10SM CLR 11/10 A2980 200 93 -100 000/00 RMK AO2 T01110100
63871K1J0 1J020160115195511501/15/16 19:55:31  5-MIN K1J0 160155Z AUTO 00000KT 10SM CLR 11/10 A2980 200 96 -200 000/00 RMK AO2 SLP075 T01060100
63871K1J0 1J020160115200010801/15/16 20:00:31  5-MIN K1J0 160200Z AUTO 00000KT 10SM CLR 11/10 A2980 200 96 -200 000/00 RMK AO2 T01060100
63871K1J0 1J020160115200510801/15/16 20:05:31  5-MIN K1J0 160205Z AUTO 00000KT 10SM CLR 11/10 A2980 200 96 -200 000/00 RMK AO2 T01060100
63871K1J0 1J020160115201010801/15/16 20:10:31  5-MIN K1J0 160210Z AUTO 00000KT 10SM CLR 11/10 A2980 190 96 -200 000/00 RMK AO2 T01060100
63871K1J0 1J020160115201510801/15/16 20:15:31  5-MIN K1J0 160215Z AUTO 00000KT 10SM CLR 11/10 A2981 190 96 -200 000/00 RMK AO2 T01060100
63871K1J0 1J020160115202010801/15/16 20:20:31  5-MIN K1J0 160220Z AUTO 00000KT 10SM CLR 11/09 A2981 190 93 -200 000/00 RMK AO2 T01060094
63871K1J0 1J020160115202510801/15/16 20:25:31  5-MIN K1J0 160225Z AUTO 00000KT 10SM CLR 10/09 A2981 190 96 -300 000/00 RMK AO2 T01000094
63871K1J0 1J020160115203010801/15/16 20:30:31  5-MIN K1J0 160230Z AUTO 00000KT 10SM CLR 10/09 A2980 190 96 -300 000/00 RMK AO2 T01000094
63871K1J0 1J020160115203510801/15/16 20:35:31  5-MIN K1J0 160235Z AUTO 15003KT 10SM CLR 10/09 A2980 200 96 -300 150/03 RMK AO2 T01000094
63871K1J0 1J020160115204010801/15/16 20:40:31  5-MIN K1J0 160240Z AUTO 00000KT 10SM CLR 10/09 A2980 200 96 -300 000/00 RMK AO2 T01000094
63871K1J0 1J020160115204510801/15/16 20:45:31  5-MIN K1J0 160245Z AUTO 00000KT 10SM CLR 10/09 A2980 190 96 -300 000/00 RMK AO2 T01000094
63871K1J0 1J020160115205010801/15/16 20:50:31  5-MIN K1J0 160250Z AUTO 00000KT 10SM CLR 10/09 A2980 190 96 -300 000/00 RMK AO2 T01000094
63871K1J0 1J020160115205512001/15/16 20:55:31  5-MIN K1J0 160255Z AUTO 00000KT 9SM CLR 10/09 A2980 200 93 -300 000/00 RMK AO2 SLP076 T01000089 53021
63871K1J0 1J020160115210010701/15/16 21:00:31  5-MIN K1J0 160300Z AUTO 00000KT 8SM CLR 10/09 A2980 200 93 -300 000/00 RMK AO2 T01000089
63871K1J0 1J020160115210511001/15/16 21:05:31  5-MIN K1J0 160305Z AUTO 00000KT 5SM BR CLR 09/09 A2980 200 96 -300 000/00 RMK AO2 T00940089
63871K1J0 1J020160115211011001/15/16 21:10:31  5-MIN K1J0 160310Z AUTO 00000KT 5SM BR CLR 09/09 A2980 200 96 -300 000/00 RMK AO2 T00940089
63871K1J0 1J020160115211510701/15/16 21:15:31  5-MIN K1J0 160315Z AUTO 00000KT 9SM CLR 09/09 A2980 200 96 -300 000/00 RMK AO2 T00940089
63871K1J0 1J020160115212010801/15/16 21:20:31  5-MIN K1J0 160320Z AUTO 00000KT 10SM CLR 09/09 A2980 200 96 -300 000/00 RMK AO2 T00940089
63871K1J0 1J020160115212510801/15/16 21:25:31  5-MIN K1J0 160325Z AUTO 00000KT 10SM CLR 09/09 A2980 200 96 -300 000/00 RMK AO2 T00940089
63871K1J0 1J020160115213010801/15/16 21:30:31  5-MIN K1J0 160330Z AUTO 00000KT 10SM CLR 09/09 A2980 200 96 -300 000/00 RMK AO2 T00940089
63871K1J0 1J020160115213510801/15/16 21:35:31  5-MIN K1J0 160335Z AUTO 00000KT 10SM CLR 09/09 A2980 200 96 -300 000/00 RMK AO2 T00940089
63871K1J0 1J020160115214010801/15/16 21:40:31  5-MIN K1J0 160340Z AUTO 00000KT 10SM CLR 09/09 A2980 200 96 -300 000/00 RMK AO2 T00940089
63871K1J0 1J020160115214510701/15/16 21:45:31  5-MIN K1J0 160345Z AUTO 00000KT 9SM CLR 09/08 A2980 200 93 -300 000/00 RMK AO2 T00940083
63871K1J0 1J020160115215011001/15/16 21:50:31  5-MIN K1J0 160350Z AUTO 00000KT 3SM BR CLR 09/08 A2980 200 96 -400 000/00 RMK AO2 T00890083
63871K1J0 1J020160115215511901/15/16 21:55:31  5-MIN K1J0 160355Z AUTO 00000KT 2 1/2SM BR FEW044 09/08 A2980 200 93 -300 000/00 RMK AO2 VIS 1 1/2V5
63871K1J0 1J020160115220011301/15/16 22:00:31  5-MIN K1J0 160400Z AUTO 00000KT 4SM BR SCT046 09/09 A2980 190 96 -300 000/00 RMK AO2 T00940089
63871K1J0 1J020160115220511001/15/16 22:05:31  5-MIN K1J0 160405Z AUTO 00000KT 7SM SCT046 09/09 A2980 200 96 -300 000/00 RMK AO2 T00940089
63871K1J0 1J020160115221011001/15/16 22:10:31  5-MIN K1J0 160410Z AUTO 00000KT 9SM SCT046 09/09 A2980 200 96 -300 000/00 RMK AO2 T00940089
63871K1J0 1J020160115221511101/15/16 22:15:31  5-MIN K1J0 160415Z AUTO 00000KT 10SM SCT046 09/09 A2980 200 96 -300 000/00 RMK AO2 T00940089
63871K1J0 1J020160115222011101/15/16 22:20:31  5-MIN K1J0 160420Z AUTO 00000KT 10SM SCT047 09/08 A2980 200 96 -400 000/00 RMK AO2 T00890083
63871K1J0 1J020160115222511101/15/16 22:25:31  5-MIN K1J0 160425Z AUTO 00000KT 10SM BKN047 09/08 A2980 200 93 -300 000/00 RMK AO2 T00940083
63871K1J0 1J020160115223011801/15/16 22:30:31  5-MIN K1J0 160430Z AUTO 00000KT 10SM FEW002 BKN049 09/08 A2980 200 93 -300 000/00 RMK AO2 T00940083
63871K1J0 1J020160115223511801/15/16 22:35:31  5-MIN K1J0 160435Z AUTO 00000KT 10SM SCT002 BKN049 09/08 A2980 200 96 -400 000/00 RMK AO2 T00890083
63871K1J0 1J020160115224011801/15/16 22:40:31  5-MIN K1J0 160440Z AUTO 00000KT 10SM BKN002 BKN049 09/08 A2980 200 96 -400 000/00 RMK AO2 T00890083
63871K1J0 1J020160115224511801/15/16 22:45:31  5-MIN K1J0 160445Z AUTO 00000KT 10SM BKN002 BKN049 09/08 A2980 200 96 -400 000/00 RMK AO2 T00890083
63871K1J0 1J020160115225011801/15/16 22:50:31  5-MIN K1J0 160450Z AUTO 00000KT 10SM BKN002 OVC048 09/08 A2980 190 96 -400 000/00 RMK AO2 T00890083
63871K1J0 1J020160115225511801/15/16 22:55:31  5-MIN K1J0 160455Z AUTO 00000KT 10SM OVC002 09/08 A2980 200 96 -400 000/00 RMK AO2 SLP076 T00890083
63871K1J0 1J020160115230011801/15/16 23:00:31  5-MIN K1J0 160500Z AUTO 00000KT 10SM BKN002 OVC041 09/08 A2980 200 96 -400 000/00 RMK AO2 T00890083
63871K1J0 1J020160115230512501/15/16 23:05:31  5-MIN K1J0 160505Z AUTO 00000KT 10SM BKN002 BKN025 OVC041 09/08 A2980 200 93 -300 000/00 RMK AO2 T00940083
63871K1J0 1J020160115231011701/15/16 23:10:31  5-MIN K1J0 160510Z AUTO 00000KT 8SM BKN002 OVC023 09/09 A2980 200 96 -300 000/00 RMK AO2 T00940089
63871K1J0 1J020160115231513101/15/16 23:15:31  5-MIN K1J0 160515Z AUTO 19003KT 2 1/2SM BR SCT002 BKN020 OVC025 09/09 A2980 200 96 -300 190/03 RMK AO2 T00940089
63871K1J0 1J020160115232012001/15/16 23:20:31  5-MIN K1J0 160520Z AUTO 19003KT 2SM BR FEW002 OVC020 09/09 A2980 200 96 -300 190/03 RMK AO2 T00940089
63871K1J0 1J020160115232512701/15/16 23:25:31  5-MIN K1J0 160525Z AUTO 18003KT 4SM BR FEW002 BKN020 OVC024 10/09 A2980 200 96 -300 180/03 RMK AO2 T01000094
63871K1J0 1J020160115233012501/15/16 23:30:31  5-MIN K1J0 160530Z AUTO 00000KT 8SM FEW002 BKN019 OVC024 10/10 A2980 200 100 -300 000/00 RMK AO2 T01000100
63871K1J0 1J020160115233511001/15/16 23:35:31  5-MIN K1J0 160535Z AUTO 19003KT 8SM OVC019 11/10 A2980 200 96 -200 190/03 RMK AO2 T01060100
63871K1J0 1J020160115234011001/15/16 23:40:31  5-MIN K1J0 160540Z AUTO 19003KT 9SM OVC019 11/10 A2980 200 96 -200 190/03 RMK AO2 T01060100
63871K1J0 1J020160115234511201/15/16 23:45:31  5-MIN K1J0 160545Z AUTO 00000KT 10SM OVC018 11/11 A2980 200 100 -200 000/00 RMK AO2 T01060106
63871K1J0 1J020160115235011101/15/16 23:50:31  5-MIN K1J0 160550Z AUTO 00000KT 10SM OVC018 11/10 A2980 200 96 -200 000/00 RMK AO2 T01060100
63871K1J0 1J020160115235514701/15/16 23:55:31  5-MIN K1J0 160555Z AUTO 00000KT 10SM OVC018 11/11 A2980 200 100 -200 000/00 RMK AO2 SLP074 T01060106 10122 20089 401890083 51018
63871K1J0 1J020160116000011201/16/16 00:00:31  5-MIN K1J0 160600Z AUTO 00000KT 10SM OVC018 11/11 A2979 200 100 -200 000/00 RMK AO2 T01060106
63871K1J0 1J020160116000511101/16/16 00:05:31  5-MIN K1J0 160605Z AUTO 00000KT 10SM OVC018 11/11 A2979 210 96 -100 000/00 RMK AO2 T01110106
63871K1J0 1J020160116001011101/16/16 00:10:31  5-MIN K1J0 160610Z AUTO 00000KT 10SM OVC018 11/11 A2979 210 96 -100 000/00 RMK AO2 T01110106
63871K1J0 1J020160116001511801/16/16 00:15:31  5-MIN K1J0 160615Z AUTO 17004KT 10SM BKN020 OVC025 11/11 A2978 210 96 -100 170/04 RMK AO2 T01110106
63871K1J0 1J020160116002012501/16/16 00:20:31  5-MIN K1J0 160620Z AUTO 17004KT 10SM SCT018 BKN025 OVC032 11/11 A2978 210 96 -100 170/04 RMK AO2 T01110106
63871K1J0 1J020160116002512501/16/16 00:25:31  5-MIN K1J0 160625Z AUTO 17003KT 10SM SCT018 BKN025 OVC032 11/11 A2978 210 96 -100 170/03 RMK AO2 T01110106
63871K1J0 1J020160116003012501/16/16 00:30:31  5-MIN K1J0 160630Z AUTO 00000KT 10SM FEW019 BKN028 OVC032 11/11 A2979 210 96 -100 000/00 RMK AO2 T01110106
63871K1J0 1J020160116003511901/16/16 00:35:31  5-MIN K1J0 160635Z AUTO 17003KT 10SM SCT023 OVC032 11/11 A2979 210 100 -100 170/03 RMK AO2 T01110111
63871K1J0 1J020160116004012601/16/16 00:40:31  5-MIN K1J0 160640Z AUTO 18003KT 10SM FEW025 BKN032 OVC043 11/11 A2978 210 100 -100 180/03 RMK AO2 T01110111
63871K1J0 1J020160116004512201/16/16 00:45:31  5-MIN K1J0 160645Z AUTO 19003KT 10SM FEW025 BKN032 OVC044 12/11 A2979 210 96 0 190/03 RMK AO2 T01170111
63871K1J0 1J020160116005011501/16/16 00:50:31  5-MIN K1J0 160650Z AUTO 19003KT 10SM FEW025 OVC032 12/11 A2979 210 96 0 190/03 RMK AO2 T01170111
63871K1J0 1J020160116005512901/16/16 00:55:31  5-MIN K1J0 160655Z AUTO 00000KT 10SM FEW025 BKN034 OVC044 12/11 A2978 210 96 0 000/00 RMK AO2 SLP071 T01170111
63871K1J0 1J020160116010011501/16/16 01:00:31  5-MIN K1J0 160700Z AUTO 00000KT 10SM BKN034 OVC046 12/11 A2979 210 96 0 000/00 RMK AO2 T01170111
63871K1J0 1J020160116010511901/16/16 01:05:31  5-MIN K1J0 160705Z AUTO 00000KT 10SM BKN034 BKN049 11/11 A2979 210 100 -100 000/00 RMK AO2 T01110111
63871K1J0 1J020160116011011801/16/16 01:10:31  5-MIN K1J0 160710Z AUTO 00000KT 10SM BKN034 BKN047 11/11 A2979 210 96 -100 000/00 RMK AO2 T01110106
63871K1J0 1J020160116011511801/16/16 01:15:31  5-MIN K1J0 160715Z AUTO 00000KT 10SM SCT034 BKN047 11/11 A2978 210 96 -100 000/00 RMK AO2 T01110106
63871K1J0 1J020160116012011801/16/16 01:20:31  5-MIN K1J0 160720Z AUTO 00000KT 10SM FEW036 SCT047 11/11 A2978 210 96 -100 000/00 RMK AO2 T01110106
63871K1J0 1J020160116012512001/16/16 01:25:31  5-MIN K1J0 160725Z AUTO 00000KT 5SM BR FEW036 FEW047 11/11 A2978 220 96 -100 000/00 RMK AO2 T01110106
63871K1J0 1J020160116013012401/16/16 01:30:31  5-MIN K1J0 160730Z AUTO 00000KT 1 1/2SM BR FEW003 SCT048 11/10 A2978 210 96 -200 000/00 RMK AO2 T01060100
63871K1J0 1J020160116013511701/16/16 01:35:31  5-MIN K1J0 160735Z AUTO 00000KT 1 3/4SM BR FEW003 11/10 A2979 210 96 -200 000/00 RMK AO2 T01060100
63871K1J0 1J020160116014011401/16/16 01:40:31  5-MIN K1J0 160740Z AUTO 00000KT 2SM BR SCT003 10/10 A2979 210 100 -300 000/00 RMK AO2 T01000100
63871K1J0 1J020160116014512501/16/16 01:45:31  5-MIN K1J0 160745Z AUTO 00000KT 1 1/2SM BR SCT002 11/10 A2979 210 96 -200 000/00 RMK AO2 VIS 1V5 T01060100
63871K1J0 1J020160116015014001/16/16 01:50:31  5-MIN K1J0 160750Z AUTO 00000KT 1 3/4SM BR FEW002 SCT029 10/09 A2979 200 96 -300 000/00 RMK AO2 VIS 1 1/4V2 1/2 T01000094
63871K1J0 1J020160116015511101/16/16 01:55:31  5-MIN K1J0 160755Z AUTO 00000KT 2SM BR FEW002 SCT029 10/10 A2979 210 100 -300 000/00 RMK AO2
63871K1J0 1J020160116020012401/16/16 02:00:31  5-MIN K1J0 160800Z AUTO 00000KT 1 1/2SM BR SCT002 SCT029 10/09 A2979 210 96 -300 000/00 RMK AO2 T01000094
63871K1J0 1J020160116020512301/16/16 02:05:31  5-MIN K1J0 160805Z AUTO 00000KT 3/4SM BR BKN002 BKN029 09/09 A2979 210 100 -300 000/00 RMK AO2 T00940094
63871K1J0 1J020160116021012301/16/16 02:10:31  5-MIN K1J0 160810Z AUTO 00000KT 3/4SM BR BKN002 BKN029 09/09 A2979 210 100 -300 000/00 RMK AO2 T00940094
63871K1J0 1J020160116021512501/16/16 02:15:31  5-MIN K1J0 160815Z AUTO 00000KT 1 3/4SM BR BKN002 BKN029 09/09 A2979 210 100 -300 000/00 RMK AO2 T00940094
63871K1J0 1J020160116022011301/16/16 02:20:31  5-MIN K1J0 160820Z AUTO 00000KT 6SM BR BKN002 09/09 A2979 210 96 -300 000/00 RMK AO2 T00940089
63871K1J0 1J020160116022511301/16/16 02:25:31  5-MIN K1J0 160825Z AUTO 00000KT 6SM BR BKN003 09/09 A2979 200 96 -300 000/00 RMK AO2 T00940089
63871K1J0 1J020160116023011301/16/16 02:30:31  5-MIN K1J0 160830Z AUTO 00000KT 3SM BR BKN003 09/09 A2980 200 96 -300 000/00 RMK AO2 T00940089
63871K1J0 1J020160116023511701/16/16 02:35:31  5-MIN K1J0 160835Z AUTO 00000KT 1 1/2SM BR BKN003 10/09 A2980 200 96 -300 000/00 RMK AO2 T01000094
63871K1J0 1J020160116024012601/16/16 02:40:31  5-MIN K1J0 160840Z AUTO 00000KT 1 1/2SM BR SCT003 09/09 A2980 200 100 -300 000/00 RMK AO2 VIS 1V2 T00940094
63871K1J0 1J020160116024513601/16/16 02:45:31  5-MIN K1J0 160845Z AUTO 00000KT 1 1/2SM BR FEW004 SCT009 09/09 A2980 200 96 -300 000/00 RMK AO2 VIS 1V2 1/2 T00940089
63871K1J0 1J020160116025011401/16/16 02:50:31  5-MIN K1J0 160850Z AUTO 00000KT 2SM BR BKN007 09/09 A2980 200 100 -400 000/00 RMK AO2 T00890089
63871K1J0 1J020160116025511001/16/16 02:55:31  5-MIN K1J0 160855Z AUTO 00000KT 4SM BR BKN007 BKN046 09/09 A2980 200 96 -300 000/00 RMK AO2
63871K1J0 1J020160116030012001/16/16 03:00:31  5-MIN K1J0 160900Z AUTO 00000KT 6SM BR BKN007 BKN046 09/09 A2980 200 96 -300 000/00 RMK AO2 T00940089
63871K1J0 1J020160116030512001/16/16 03:05:31  5-MIN K1J0 160905Z AUTO 00000KT 5SM BR SCT009 BKN046 09/09 A2980 200 96 -300 000/00 RMK AO2 T00940089
63871K1J0 1J020160116031013601/16/16 03:10:31  5-MIN K1J0 160910Z AUTO 00000KT 2 1/2SM BR SCT009 BKN046 09/09 A2979 200 96 -300 000/00 RMK AO2 VIS 1 3/4V5 T00940089
63871K1J0 1J020160116031512501/16/16 03:15:31  5-MIN K1J0 160915Z AUTO 00000KT 2 1/2SM BR SCT009 BKN046 09/09 A2979 200 100 -400 000/00 RMK AO2 T00890089
63871K1J0 1J020160116032012001/16/16 03:20:31  5-MIN K1J0 160920Z AUTO 00000KT 2SM BR FEW008 BKN048 09/08 A2979 200 96 -400 000/00 RMK AO2 T00890083
63871K1J0 1J020160116032512001/16/16 03:25:31  5-MIN K1J0 160925Z AUTO 00000KT 2SM BR FEW008 SCT048 09/08 A2979 200 96 -400 000/00 RMK AO2 T00890083
63871K1J0 1J020160116033011301/16/16 03:30:31  5-MIN K1J0 160930Z AUTO 00000KT 4SM BR FEW008 09/08 A2980 200 96 -400 000/00 RMK AO2 T00890083
63871K1J0 1J020160116033511001/16/16 03:35:31  5-MIN K1J0 160935Z AUTO 00000KT 9SM SCT008 09/08 A2980 200 96 -400 000/00 RMK AO2 T00890083
63871K1J0 1J020160116034011401/16/16 03:40:31  5-MIN K1J0 160940Z AUTO 00000KT 6SM BR BKN008 08/08 A2980 200 100 -500 000/00 RMK AO2 T00830083
63871K1J0 1J020160116034511301/16/16 03:45:31  5-MIN K1J0 160945Z AUTO 00000KT 4SM BR BKN009 09/08 A2980 200 96 -400 000/00 RMK AO2 T00890083
63871K1J0 1J020160116035013001/16/16 03:50:31  5-MIN K1J0 160950Z AUTO 00000KT 2 1/2SM BR BKN009 08/08 A2980 190 100 -500 000/00 RMK AO2 VIS 1 1/2V5 T00830083
63871K1J0 1J020160116035510701/16/16 03:55:31  5-MIN K1J0 160955Z AUTO 00000KT 1 1/2SM BR BKN007 08/08 A2981 190 96 -500 000/00 RMK AO2
63871K1J0 1J020160116040011801/16/16 04:00:31  5-MIN K1J0 161000Z AUTO 00000KT 1 1/4SM BR OVC007 08/08 A2981 190 100 -500 000/00 RMK AO2 T00830083
63871K1J0 1J020160116040511201/16/16 04:05:31  5-MIN K1J0 161005Z AUTO 00000KT 1SM BR VV007 08/08 A2981 190 96 -500 000/00 RMK AO2 T00830078
63871K1J0 1J020160116041011201/16/16 04:10:31  5-MIN K1J0 161010Z AUTO 00000KT 1SM BR VV007 08/08 A2981 190 96 -500 000/00 RMK AO2 T00830078
63871K1J0 1J020160116041511701/16/16 04:15:31  5-MIN K1J0 161015Z AUTO 00000KT 1 1/4SM BR OVC007 08/08 A2981 190 96 -500 000/00 RMK AO2 T00830078
63871K1J0 1J020160116042011201/16/16 04:20:31  5-MIN K1J0 161020Z AUTO 00000KT 1SM BR VV007 08/08 A2981 190 96 -500 000/00 RMK AO2 T00830078
63871K1J0 1J020160116042511401/16/16 04:25:31  5-MIN K1J0 161025Z AUTO 00000KT 3/4SM BR VV007 08/08 A2981 190 96 -500 000/00 RMK AO2 T00830078
63871K1J0 1J020160116043011401/16/16 04:30:31  5-MIN K1J0 161030Z AUTO 00000KT 3/4SM BR VV007 08/08 A2981 190 96 -500 000/00 RMK AO2 T00830078
63871K1J0 1J020160116043511701/16/16 04:35:31  5-MIN K1J0 161035Z AUTO 00000KT 1 1/4SM BR OVC007 08/08 A2982 180 96 -500 000/00 RMK AO2 T00830078
63871K1J0 1J020160116044011801/16/16 04:40:31  5-MIN K1J0 161040Z AUTO 00000KT 1 1/4SM BR OVC007 08/08 A2982 180 100 -500 000/00 RMK AO2 T00830083
63871K1J0 1J020160116044511701/16/16 04:45:31  5-MIN K1J0 161045Z AUTO 00000KT 1 1/2SM BR OVC007 09/08 A2982 180 96 -400 000/00 RMK AO2 T00890083
63871K1J0 1J020160116045011701/16/16 04:50:31  5-MIN K1J0 161050Z AUTO 00000KT 2 1/2SM BR OVC007 09/08 A2982 180 96 -400 000/00 RMK AO2 T00890083
63871K1J0 1J020160116045512001/16/16 04:55:31  5-MIN K1J0 161055Z AUTO 00000KT 5SM BR OVC006 09/08 A2983 170 96 -400 000/00 RMK AO2 SLP084 T00890083
63871K1J0 1J020160116050011101/16/16 05:00:31  5-MIN K1J0 161100Z AUTO 00000KT 7SM OVC006 09/09 A2982 180 100 -400 000/00 RMK AO2 T00890089
63871K1J0 1J020160116050511101/16/16 05:05:31  5-MIN K1J0 161105Z AUTO 00000KT 9SM OVC006 09/09 A2982 180 100 -400 000/00 RMK AO2 T00890089
63871K1J0 1J020160116051011101/16/16 05:10:31  5-MIN K1J0 161110Z AUTO 00000KT 9SM OVC005 09/09 A2983 170 100 -400 000/00 RMK AO2 T00890089
63871K1J0 1J020160116051511101/16/16 05:15:31  5-MIN K1J0 161115Z AUTO 00000KT 10SM OVC005 09/09 A2983 170 96 -400 000/00 RMK AO2 T00940089
63871K1J0 1J020160116052011101/16/16 05:20:31  5-MIN K1J0 161120Z AUTO 00000KT 10SM OVC004 09/09 A2983 170 96 -400 000/00 RMK AO2 T00940089
63871K1J0 1J020160116052511101/16/16 05:25:31  5-MIN K1J0 161125Z AUTO 00000KT 10SM OVC004 09/09 A2983 170 96 -400 000/00 RMK AO2 T00940089
63871K1J0 1J020160116053011101/16/16 05:30:31  5-MIN K1J0 161130Z AUTO 00000KT 10SM OVC004 09/09 A2983 170 96 -400 000/00 RMK AO2 T00940089
63871K1J0 1J020160116053511101/16/16 05:35:31  5-MIN K1J0 161135Z AUTO 00000KT 9SM OVC003 09/09 A2983 170 100 -400 000/00 RMK AO2 T00940094
63871K1J0 1J020160116054011401/16/16 05:40:31  5-MIN K1J0 161140Z AUTO 00000KT 6SM BR OVC003 09/09 A2983 170 100 -400 000/00 RMK AO2 T00940094
63871K1J0 1J020160116054511801/16/16 05:45:31  5-MIN K1J0 161145Z AUTO 00000KT 2 1/2SM BR OVC003 09/09 A2983 170 100 -400 000/00 RMK AO2 T00940094
63871K1J0 1J020160116055011801/16/16 05:50:31  5-MIN K1J0 161150Z AUTO 00000KT 1 1/4SM BR OVC003 09/09 A2984 160 100 -400 000/00 RMK AO2 T00940094
63871K1J0 1J020160116055510501/16/16 05:55:31  5-MIN K1J0 161155Z AUTO 00000KT 3/4SM BR VV003 09/09 A2984 160 100 -400 000/00 RMK AO2
63871K1J0 1J020160116060011401/16/16 06:00:31  5-MIN K1J0 161200Z AUTO 00000KT 1/2SM FG VV003 10/09 A2984 160 96 -300 000/00 RMK AO2 T01000094
63871K1J0 1J020160116060511401/16/16 06:05:31  5-MIN K1J0 161205Z AUTO 00000KT 1/2SM FG VV003 10/09 A2984 160 96 -300 000/00 RMK AO2 T01000094
63871K1J0 1J020160116061011401/16/16 06:10:31  5-MIN K1J0 161210Z AUTO 00000KT 1/2SM FG VV003 10/09 A2984 160 96 -300 000/00 RMK AO2 T01000094
63871K1J0 1J020160116061511401/16/16 06:15:31  5-MIN K1J0 161215Z AUTO 00000KT 1/2SM FG VV003 10/09 A2985 160 96 -300 000/00 RMK AO2 T01000094
63871K1J0 1J020160116062011501/16/16 06:20:31  5-MIN K1J0 161220Z AUTO 00000KT 1/2SM FG VV003 10/10 A2985 150 100 -300 000/00 RMK AO2 T01000100
63871K1J0 1J020160118011011201/18/16 01:10:31  5-MIN K1J0 180710Z AUTO VRB03KT 10SM CLR 03/00 A3020 -170 82 -1600 VRB/03 RMK AO2 T00280000 $
63871K1J0 1J020160118011511301/18/16 01:15:31  5-MIN K1J0 180715Z AUTO 00000KT 10SM CLR 03/M01 A3020 -170 79 -1600 000/00 RMK AO2 T00281006 $
63871K1J0 1J020160118012011201/18/16 01:20:31  5-MIN K1J0 180720Z AUTO 31003KT 10SM CLR 03/00 A3020 -170 82 -1600 310/03 RMK AO2 T00280000 $
63871K1J0 1J020160118012511301/18/16 01:25:31  5-MIN K1J0 180725Z AUTO 31003KT 10SM CLR 03/M01 A3021 -170 79 -1600 310/03 RMK AO2 T00281006 $
63871K1J0 1J020160118013011301/18/16 01:30:31  5-MIN K1J0 180730Z AUTO 31003KT 10SM CLR 03/M01 A3020 -170 79 -1600 310/03 RMK AO2 T00281006 $
63871K1J0 1J020160118013511301/18/16 01:35:31  5-MIN K1J0 180735Z AUTO 32003KT 10SM CLR 03/M01 A3020 -170 79 -1600 320/03 RMK AO2 T00281006 $
63871K1J0 1J020160118014011301/18/16 01:40:31  5-MIN K1J0 180740Z AUTO 31003KT 10SM CLR 03/M01 A3020 -170 79 -1600 310/03 RMK AO2 T00281006 $
63871K1J0 1J020160118014511301/18/16 01:45:31  5-MIN K1J0 180745Z AUTO 32003KT 10SM CLR 03/M01 A3020 -170 79 -1600 320/03 RMK AO2 T00281006 $
63871K1J0 1J020160118015011301/18/16 01:50:31  5-MIN K1J0 180750Z AUTO 32003KT 10SM CLR 03/M01 A3020 -170 79 -1600 320/03 RMK AO2 T00281006 $
63871K1J0 1J020160118015512001/18/16 01:55:31  5-MIN K1J0 180755Z AUTO 00000KT 10SM CLR 03/M01 A3020 -170 79 -1600 000/00 RMK AO2 SLP213 T00281006 $
63871K1J0 1J020160118020011301/18/16 02:00:31  5-MIN K1J0 180800Z AUTO 32003KT 10SM CLR 03/M01 A3020 -170 79 -1600 320/03 RMK AO2 T00281006 $
63871K1J0 1J020160118020511301/18/16 02:05:31  5-MIN K1J0 180805Z AUTO 32003KT 10SM CLR 02/M01 A3020 -170 82 -1700 320/03 RMK AO2 T00221006 $
63871K1J0 1J020160118021011301/18/16 02:10:31  5-MIN K1J0 180810Z AUTO 00000KT 10SM CLR 02/M01 A3020 -170 82 -1700 000/00 RMK AO2 T00221006 $
63871K1J0 1J020160118021511301/18/16 02:15:31  5-MIN K1J0 180815Z AUTO 00000KT 10SM CLR 02/M01 A3020 -170 82 -1700 000/00 RMK AO2 T00221006 $
63871K1J0 1J020160118022011301/18/16 02:20:31  5-MIN K1J0 180820Z AUTO 32003KT 10SM CLR 02/M01 A3020 -170 78 -1700 320/03 RMK AO2 T00221011 $
63871K1J0 1J020160118022511301/18/16 02:25:31  5-MIN K1J0 180825Z AUTO 00000KT 10SM CLR 02/M01 A3021 -170 78 -1700 000/00 RMK AO2 T00221011 $
63871K1J0 1J020160118023011301/18/16 02:30:31  5-MIN K1J0 180830Z AUTO 00000KT 10SM CLR 02/M01 A3020 -170 78 -1700 000/00 RMK AO2 T00221011 $
63871K1J0 1J020160118023511301/18/16 02:35:31  5-MIN K1J0 180835Z AUTO 00000KT 10SM CLR 02/M01 A3020 -170 78 -1700 000/00 RMK AO2 T00221011 $
63871K1J0 1J020160118024011301/18/16 02:40:31  5-MIN K1J0 180840Z AUTO 00000KT 10SM CLR 02/M01 A3020 -170 78 -1700 000/00 RMK AO2 T00221011 $
63871K1J0 1J020160118024511301/18/16 02:45:31  5-MIN K1J0 180845Z AUTO 00000KT 10SM CLR 02/M01 A3020 -170 78 -1700 000/00 RMK AO2 T00221011 $
63871K1J0 1J020160118025011301/18/16 02:50:31  5-MIN K1J0 180850Z AUTO 00000KT 10SM CLR 02/M01 A3020 -170 78 -1700 000/00 RMK AO2 T00221011 $
63871K1J0 1J020160118025512601/18/16 02:55:31  5-MIN K1J0 180855Z AUTO 00000KT 10SM CLR 02/M01 A3020 -170 78 -1700 000/00 RMK AO2 SLP213 T00221011 51015 $
63871K1J0 1J020160118030011301/18/16 03:00:31  5-MIN K1J0 180900Z AUTO 00000KT 10SM CLR 02/M01 A3021 -170 78 -1700 000/00 RMK AO2 T00221011 $
63871K1J0 1J020160118030511301/18/16 03:05:31  5-MIN K1J0 180905Z AUTO 00000KT 10SM CLR 02/M01 A3021 -170 82 -1800 000/00 RMK AO2 T00171011 $
63871K1J0 1J020160118031011301/18/16 03:10:31  5-MIN K1J0 180910Z AUTO 33003KT 10SM CLR 02/M01 A3021 -170 78 -1700 330/03 RMK AO2 T00221011 $
63871K1J0 1J020160118031511301/18/16 03:15:31  5-MIN K1J0 180915Z AUTO 00000KT 10SM CLR 02/M01 A3021 -170 82 -1800 000/00 RMK AO2 T00171011 $
63871K1J0 1J020160118032011301/18/16 03:20:31  5-MIN K1J0 180920Z AUTO 00000KT 10SM CLR 02/M01 A3021 -180 82 -1800 000/00 RMK AO2 T00171011 $
63871K1J0 1J020160118032511301/18/16 03:25:31  5-MIN K1J0 180925Z AUTO 00000KT 10SM CLR 02/M01 A3021 -170 82 -1800 000/00 RMK AO2 T00171011 $
63871K1J0 1J020160118033011301/18/16 03:30:31  5-MIN K1J0 180930Z AUTO 33003KT 10SM CLR 02/M01 A3021 -170 82 -1800 330/03 RMK AO2 T00171011 $
63871K1J0 1J020160118033511301/18/16 03:35:31  5-MIN K1J0 180935Z AUTO 33003KT 10SM CLR 02/M01 A3021 -180 82 -1800 330/03 RMK AO2 T00171011 $
63871K1J0 1J020160118034011301/18/16 03:40:31  5-MIN K1J0 180940Z AUTO 34003KT 10SM CLR 02/M01 A3021 -180 82 -1800 340/03 RMK AO2 T00171011 $
63871K1J0 1J020160118034511301/18/16 03:45:31  5-MIN K1J0 180945Z AUTO 33003KT 10SM CLR 02/M01 A3021 -180 82 -1800 330/03 RMK AO2 T00171011 $
63871K1J0 1J020160118035011301/18/16 03:50:31  5-MIN K1J0 180950Z AUTO 33004KT 10SM CLR 02/M01 A3021 -180 82 -1800 330/04 RMK AO2 T00171011 $
63871K1J0 1J020160118035512001/18/16 03:55:31  5-MIN K1J0 180955Z AUTO 33004KT 10SM CLR 02/M01 A3021 -170 82 -1800 330/04 RMK AO2 SLP215 T00171011 $
63871K1J0 1J020160118040011301/18/16 04:00:31  5-MIN K1J0 181000Z AUTO 33005KT 10SM CLR 02/M01 A3021 -170 82 -1800 330/05 RMK AO2 T00171011 $
63871K1J0 1J020160118040511301/18/16 04:05:31  5-MIN K1J0 181005Z AUTO 34006KT 10SM CLR 02/M01 A3021 -170 82 -1800 340/06 RMK AO2 T00171011 $
63871K1J0 1J020160118041011301/18/16 04:10:31  5-MIN K1J0 181010Z AUTO 33005KT 10SM CLR 02/M01 A3021 -170 78 -1700 330/05 RMK AO2 T00221011 $
63871K1J0 1J020160118041511301/18/16 04:15:31  5-MIN K1J0 181015Z AUTO 33005KT 10SM CLR 02/M01 A3021 -180 82 -1800 330/05 RMK AO2 T00171011 $
63871K1J0 1J020160118042011301/18/16 04:20:31  5-MIN K1J0 181020Z AUTO 33005KT 10SM CLR 02/M01 A3022 -180 78 -1700 330/05 RMK AO2 T00221011 $
63871K1J0 1J020160118042511301/18/16 04:25:31  5-MIN K1J0 181025Z AUTO 33005KT 10SM CLR 02/M01 A3022 -180 78 -1700 330/05 RMK AO2 T00221011 $
63871K1J0 1J020160118043011301/18/16 04:30:31  5-MIN K1J0 181030Z AUTO 33004KT 10SM CLR 02/M01 A3022 -180 78 -1700 330/04 RMK AO2 T00221011 $
63871K1J0 1J020160118043511301/18/16 04:35:31  5-MIN K1J0 181035Z AUTO 33005KT 10SM CLR 02/M02 A3022 -180 75 -1700 330/05 RMK AO2 T00221017 $
63871K1J0 1J020160118044011301/18/16 04:40:31  5-MIN K1J0 181040Z AUTO 33005KT 10SM CLR 02/M02 A3022 -180 75 -1700 330/05 RMK AO2 T00221017 $
63871K1J0 1J020160118044511301/18/16 04:45:31  5-MIN K1J0 181045Z AUTO 33005KT 10SM CLR 02/M02 A3022 -190 75 -1700 330/05 RMK AO2 T00221017 $
63871K1J0 1J020160118045011301/18/16 04:50:31  5-MIN K1J0 181050Z AUTO 32004KT 10SM CLR 02/M02 A3022 -190 78 -1800 320/04 RMK AO2 T00171017 $
63871K1J0 1J020160118045512001/18/16 04:55:31  5-MIN K1J0 181055Z AUTO 32004KT 10SM CLR 02/M02 A3023 -190 75 -1700 320/04 RMK AO2 SLP220 T00221017 $
63871K1J0 1J020160118050011301/18/16 05:00:31  5-MIN K1J0 181100Z AUTO 32004KT 10SM CLR 02/M02 A3023 -190 78 -1800 320/04 RMK AO2 T00171017 $
63871K1J0 1J020160118050511301/18/16 05:05:31  5-MIN K1J0 181105Z AUTO 32004KT 10SM CLR 02/M02 A3023 -200 78 -1800 320/04 RMK AO2 T00171017 $
63871K1J0 1J020160118051011301/18/16 05:10:31  5-MIN K1J0 181110Z AUTO 32003KT 10SM CLR 02/M02 A3023 -190 78 -1800 320/03 RMK AO2 T00171017 $
63871K1J0 1J020160118051511301/18/16 05:15:31  5-MIN K1J0 181115Z AUTO 32003KT 10SM CLR 02/M02 A3023 -200 78 -1800 320/03 RMK AO2 T00171017 $
63871K1J0 1J020160118052011301/18/16 05:20:31  5-MIN K1J0 181120Z AUTO 32003KT 10SM CLR 02/M02 A3024 -200 78 -1800 320/03 RMK AO2 T00171017 $
63871K1J0 1J020160118052511301/18/16 05:25:31  5-MIN K1J0 181125Z AUTO 33003KT 10SM CLR 02/M02 A3024 -200 78 -1800 330/03 RMK AO2 T00171017 $
63871K1J0 1J020160118053011301/18/16 05:30:31  5-MIN K1J0 181130Z AUTO 33003KT 10SM CLR 02/M02 A3024 -200 78 -1800 330/03 RMK AO2 T00171017 $
63871K1J0 1J020160118053511301/18/16 05:35:31  5-MIN K1J0 181135Z AUTO 33003KT 10SM CLR 02/M02 A3025 -210 78 -1800 330/03 RMK AO2 T00171017 $
63871K1J0 1J020160118054011301/18/16 05:40:31  5-MIN K1J0 181140Z AUTO 32003KT 10SM CLR 02/M02 A3025 -210 78 -1800 320/03 RMK AO2 T00171017 $
63871K1J0 1J020160118054511301/18/16 05:45:31  5-MIN K1J0 181145Z AUTO 32003KT 10SM CLR 01/M02 A3025 -210 82 -1900 320/03 RMK AO2 T00111017 $
63871K1J0 1J020160118055011301/18/16 05:50:31  5-MIN K1J0 181150Z AUTO 00000KT 10SM CLR 01/M02 A3025 -210 82 -1900 000/00 RMK AO2 T00111017 $
63871K1J0 1J020160118055513801/18/16 05:55:31  5-MIN K1J0 181155Z AUTO 00000KT 10SM CLR 01/M02 A3026 -220 82 -1900 000/00 RMK AO2 SLP232 T00111017 10033 20011 51003 $
63871K1J0 1J020160118060011301/18/16 06:00:31  5-MIN K1J0 181200Z AUTO 31003KT 10SM CLR 01/M02 A3026 -220 82 -1900 310/03 RMK AO2 T00111017 $
63871K1J0 1J020160118060511301/18/16 06:05:31  5-MIN K1J0 181205Z AUTO 00000KT 10SM CLR 01/M02 A3026 -220 82 -1900 000/00 RMK AO2 T00111017 $
63871K1J0 1J020160118061011301/18/16 06:10:31  5-MIN K1J0 181210Z AUTO 00000KT 10SM CLR 01/M02 A3026 -220 82 -1900 000/00 RMK AO2 T00111017 $
63871K1J0 1J020160118061511301/18/16 06:15:31  5-MIN K1J0 181215Z AUTO 00000KT 10SM CLR 01/M02 A3026 -220 82 -1900 000/00 RMK AO2 T00111017 $
63871K1J0 1J020160118062011301/18/16 06:20:31  5-MIN K1J0 181220Z AUTO 00000KT 10SM CLR 01/M02 A3026 -220 82 -1900 000/00 RMK AO2 T00111017 $
63871K1J0 1J020160118062511301/18/16 06:25:31  5-MIN K1J0 181225Z AUTO 00000KT 10SM CLR 01/M02 A3027 -230 82 -1900 000/00 RMK AO2 T00111017 $
63871K1J0 1J020160118063011301/18/16 06:30:31  5-MIN K1J0 181230Z AUTO 00000KT 10SM CLR 01/M02 A3027 -230 82 -1900 000/00 RMK AO2 T00111017 $
63871K1J0 1J020160118063511301/18/16 06:35:31  5-MIN K1J0 181235Z AUTO 00000KT 10SM CLR 01/M02 A3027 -230 82 -1900 000/00 RMK AO2 T00111017 $
63871K1J0 1J020160118064011301/18/16 06:40:31  5-MIN K1J0 181240Z AUTO 00000KT 10SM CLR 01/M02 A3027 -230 82 -1900 000/00 RMK AO2 T00111017 $
63871K1J0 1J020160118064511301/18/16 06:45:31  5-MIN K1J0 181245Z AUTO 00000KT 10SM CLR 01/M02 A3027 -230 82 -1900 000/00 RMK AO2 T00111017 $
63871K1J0 1J020160118065011301/18/16 06:50:31  5-MIN K1J0 181250Z AUTO 00000KT 10SM CLR 01/M01 A3027 -230 85 -1900 000/00 RMK AO2 T00111011 $
63871K1J0 1J020160118065512001/18/16 06:55:31  5-MIN K1J0 181255Z AUTO 00000KT 10SM CLR 01/M01 A3027 -230 85 -1900 000/00 RMK AO2 SLP238 T00111011 $
63871K1J0 1J020160118070011301/18/16 07:00:31  5-MIN K1J0 181300Z AUTO 00000KT 10SM CLR 01/M01 A3028 -240 85 -1900 000/00 RMK AO2 T00111011 $
63871K1J0 1J020160118070511301/18/16 07:05:31  5-MIN K1J0 181305Z AUTO 00000KT 10SM CLR 01/M01 A3028 -240 89 -1900 000/00 RMK AO2 T00111006 $
63871K1J0 1J020160118071011201/18/16 07:10:31  5-MIN K1J0 181310Z AUTO 00000KT 10SM CLR 01/00 A3028 -240 92 -1900 000/00 RMK AO2 T00110000 $
63871K1J0 1J020160118071511201/18/16 07:15:31  5-MIN K1J0 181315Z AUTO 00000KT 10SM CLR 01/00 A3028 -240 92 -1900 000/00 RMK AO2 T00110000 $
63871K1J0 1J020160118072011201/18/16 07:20:31  5-MIN K1J0 181320Z AUTO 00000KT 10SM CLR 02/00 A3028 -240 85 -1800 000/00 RMK AO2 T00220000 $
63871K1J0 1J020160118072511301/18/16 07:25:31  5-MIN K1J0 181325Z AUTO 00000KT 10SM CLR 02/M01 A3028 -240 78 -1800 000/00 RMK AO2 T00221011 $
63871K1J0 1J020160118073011301/18/16 07:30:31  5-MIN K1J0 181330Z AUTO 00000KT 10SM CLR 03/M01 A3028 -240 75 -1700 000/00 RMK AO2 T00281011 $
63871K1J0 1J020160118073511301/18/16 07:35:31  5-MIN K1J0 181335Z AUTO 00000KT 10SM CLR 03/M01 A3029 -250 75 -1700 000/00 RMK AO2 T00281011 $
63871K1J0 1J020160118074011301/18/16 07:40:31  5-MIN K1J0 181340Z AUTO 33003KT 10SM CLR 03/M01 A3029 -250 75 -1700 330/03 RMK AO2 T00281011 $
63871K1J0 1J020160118074511301/18/16 07:45:31  5-MIN K1J0 181345Z AUTO 00000KT 10SM CLR 03/M01 A3029 -250 76 -1600 000/00 RMK AO2 T00331006 $
63871K1J0 1J020160118075011301/18/16 07:50:31  5-MIN K1J0 181350Z AUTO 00000KT 10SM CLR 03/M01 A3029 -250 72 -1600 000/00 RMK AO2 T00331011 $
63871K1J0 1J020160118075512001/18/16 07:55:31  5-MIN K1J0 181355Z AUTO 00000KT 10SM CLR 04/M01 A3030 -250 73 -1600 000/00 RMK AO2 SLP245 T00391006 $
63871K1J0 1J020160118080011301/18/16 08:00:31  5-MIN K1J0 181400Z AUTO 35003KT 10SM CLR 04/M01 A3030 -260 70 -1500 350/03 RMK AO2 T00441006 $
63871K1J0 1J020160118080511301/18/16 08:05:31  5-MIN K1J0 181405Z AUTO 36004KT 10SM CLR 05/M01 A3030 -260 64 -1400 360/04 RMK AO2 T00501011 $
63871K1J0 1J020160118081011301/18/16 08:10:31  5-MIN K1J0 181410Z AUTO 35006KT 10SM CLR 05/M01 A3030 -260 64 -1400 350/06 RMK AO2 T00501011 $
63871K1J0 1J020160118081511301/18/16 08:15:31  5-MIN K1J0 181415Z AUTO 36005KT 10SM CLR 06/M01 A3030 -260 62 -1400 360/05 RMK AO2 T00561011 $
63871K1J0 1J020160118082011301/18/16 08:20:31  5-MIN K1J0 181420Z AUTO 35005KT 10SM CLR 06/M02 A3030 -260 59 -1400 350/05 RMK AO2 T00561017 $
63871K1J0 1J020160118082511301/18/16 08:25:31  5-MIN K1J0 181425Z AUTO 35006KT 10SM CLR 06/M02 A3030 -260 59 -1400 350/06 RMK AO2 T00561017 $
63871K1J0 1J020160118083011301/18/16 08:30:31  5-MIN K1J0 181430Z AUTO 35004KT 10SM CLR 06/M02 A3030 -260 57 -1300 350/04 RMK AO2 T00611017 $
63871K1J0 1J020160118083511301/18/16 08:35:31  5-MIN K1J0 181435Z AUTO 35005KT 10SM CLR 06/M02 A3031 -260 57 -1300 350/05 RMK AO2 T00611017 $
63871K1J0 1J020160118084011301/18/16 08:40:31  5-MIN K1J0 181440Z AUTO 33003KT 10SM CLR 07/M02 A3030 -260 55 -1200 330/03 RMK AO2 T00671017 $
63871K1J0 1J020160118084511301/18/16 08:45:31  5-MIN K1J0 181445Z AUTO 34004KT 10SM CLR 07/M02 A3031 -260 55 -1200 340/04 RMK AO2 T00671017 $
63871K1J0 1J020160118085011301/18/16 08:50:31  5-MIN K1J0 181450Z AUTO 35004KT 10SM CLR 07/M02 A3031 -270 53 -1200 350/04 RMK AO2 T00721017 $
63871K1J0 1J020160118085512601/18/16 08:55:31  5-MIN K1J0 181455Z AUTO 01005KT 10SM CLR 07/M02 A3031 -270 53 -1200 010/05 RMK AO2 SLP250 T00721017 53017 $
63871K1J0 1J020160118090011301/18/16 09:00:31  5-MIN K1J0 181500Z AUTO VRB04KT 10SM CLR 07/M02 A3031 -270 51 -1200 VRB/04 RMK AO2 T00721022 $
63871K1J0 1J020160118090511301/18/16 09:05:31  5-MIN K1J0 181505Z AUTO VRB04KT 10SM CLR 08/M02 A3031 -270 51 -1100 VRB/04 RMK AO2 T00781017 $
63871K1J0 1J020160118091011301/18/16 09:10:31  5-MIN K1J0 181510Z AUTO 35005KT 10SM CLR 08/M02 A3031 -270 49 -1100 350/05 RMK AO2 T00781022 $
63871K1J0 1J020160118091511301/18/16 09:15:31  5-MIN K1J0 181515Z AUTO 36005KT 10SM CLR 08/M02 A3031 -270 47 -1100 360/05 RMK AO2 T00831022 $
63871K1J0 1J020160118092011301/18/16 09:20:31  5-MIN K1J0 181520Z AUTO 36004KT 10SM CLR 08/M02 A3032 -280 49 -1100 360/04 RMK AO2 T00831017 $
63871K1J0 1J020160118092511301/18/16 09:25:31  5-MIN K1J0 181525Z AUTO VRB03KT 10SM CLR 08/M02 A3032 -280 49 -1100 VRB/03 RMK AO2 T00831017 $
63871K1J0 1J020160118093011301/18/16 09:30:31  5-MIN K1J0 181530Z AUTO VRB04KT 10SM CLR 09/M01 A3032 -280 49 -1000 VRB/04 RMK AO2 T00891011 $
63871K1J0 1J020160118093511301/18/16 09:35:31  5-MIN K1J0 181535Z AUTO 32005KT 10SM CLR 08/M02 A3033 -280 49 -1100 320/05 RMK AO2 T00831017 $
63871K1J0 1J020160118094011301/18/16 09:40:31  5-MIN K1J0 181540Z AUTO 34004KT 10SM CLR 08/M02 A3033 -280 49 -1100 340/04 RMK AO2 T00831017 $
63871K1J0 1J020160118094511301/18/16 09:45:31  5-MIN K1J0 181545Z AUTO VRB05KT 10SM CLR 08/M02 A3033 -280 49 -1100 VRB/05 RMK AO2 T00831017 $
63871K1J0 1J020160118095011301/18/16 09:50:31  5-MIN K1J0 181550Z AUTO 36005KT 10SM CLR 09/M02 A3033 -280 47 -1000 360/05 RMK AO2 T00891017 $
63871K1J0 1J020160118095512001/18/16 09:55:31  5-MIN K1J0 181555Z AUTO 36008KT 10SM CLR 09/M01 A3033 -280 49 -1000 360/08 RMK AO2 SLP255 T00891011 $
63871K1J0 1J020160118100011201/18/16 10:00:31  5-MIN K1J0 181600Z AUTO 36008KT 10SM CLR 09/M01 A3033 -290 47 -900 360/08 RMK AO2 T00941011 $
63871K1J0 1J020160118100511301/18/16 10:05:31  5-MIN K1J0 181605Z AUTO 33005KT 10SM CLR 09/M02 A3033 -290 47 -1000 330/05 RMK AO2 T00891017 $
63871K1J0 1J020160118101011301/18/16 10:10:31  5-MIN K1J0 181610Z AUTO 32006KT 10SM CLR 09/M02 A3033 -290 47 -1000 320/06 RMK AO2 T00891017 $
63871K1J0 1J020160118101511301/18/16 10:15:31  5-MIN K1J0 181615Z AUTO 31006KT 10SM CLR 09/M02 A3033 -290 47 -1000 310/06 RMK AO2 T00891017 $
63871K1J0 1J020160118102011301/18/16 10:20:31  5-MIN K1J0 181620Z AUTO 36007KT 10SM CLR 09/M02 A3033 -290 45 -1000 360/07 RMK AO2 T00891022 $
63871K1J0 1J020160118102511201/18/16 10:25:31  5-MIN K1J0 181625Z AUTO 35007KT 10SM CLR 09/M02 A3033 -290 44 -900 350/07 RMK AO2 T00941022 $
63871K1J0 1J020160118103011201/18/16 10:30:31  5-MIN K1J0 181630Z AUTO 33005KT 10SM CLR 09/M01 A3033 -290 47 -900 330/05 RMK AO2 T00941011 $
63871K1J0 1J020160118103511201/18/16 10:35:31  5-MIN K1J0 181635Z AUTO VRB03KT 10SM CLR 09/M02 A3033 -290 45 -900 VRB/03 RMK AO2 T00941017 $
63871K1J0 1J020160118104011201/18/16 10:40:31  5-MIN K1J0 181640Z AUTO VRB04KT 10SM CLR 10/M01 A3033 -290 46 -900 VRB/04 RMK AO2 T01001011 $
63871K1J0 1J020160118104511201/18/16 10:45:31  5-MIN K1J0 181645Z AUTO 35008KT 10SM CLR 10/M01 A3033 -290 46 -900 350/08 RMK AO2 T01001011 $
63871K1J0 1J020160118105011201/18/16 10:50:31  5-MIN K1J0 181650Z AUTO VRB04KT 10SM CLR 10/M01 A3033 -290 46 -900 VRB/04 RMK AO2 T01001011 $
63871K1J0 1J020160118105511901/18/16 10:55:31  5-MIN K1J0 181655Z AUTO VRB06KT 10SM CLR 10/M01 A3034 -290 46 -900 VRB/06 RMK AO2 SLP258 T01001011 $
63871K1J0 1J020160118110011201/18/16 11:00:31  5-MIN K1J0 181700Z AUTO VRB06KT 10SM CLR 10/M02 A3033 -290 44 -900 VRB/06 RMK AO2 T01001017 $
63871K1J0 1J020160118110511201/18/16 11:05:31  5-MIN K1J0 181705Z AUTO VRB05KT 10SM CLR 10/M01 A3033 -290 46 -900 VRB/05 RMK AO2 T01001011 $
63871K1J0 1J020160118111010201/18/16 11:10:31  5-MIN K1J0 181710Z AUTO 10SM CLR 10/M02 A3033 -290 44 -900 M /M RMK AO2 T01001017 $
63871K1J0 1J020160118111511201/18/16 11:15:31  5-MIN K1J0 181715Z AUTO 29006KT 10SM CLR 10/M01 A3033 -290 46 -900 290/06 RMK AO2 T01001011 $
63871K1J0 1J020160118112011201/18/16 11:20:31  5-MIN K1J0 181720Z AUTO VRB05KT 10SM CLR 10/M01 A3033 -290 46 -900 VRB/05 RMK AO2 T01001011 $
63871K1J0 1J020160118112511201/18/16 11:25:31  5-MIN K1J0 181725Z AUTO VRB05KT 10SM CLR 11/M01 A3033 -280 44 -800 VRB/05 RMK AO2 T01061011 $
63871K1J0 1J020160118113011201/18/16 11:30:31  5-MIN K1J0 181730Z AUTO 35007KT 10SM CLR 11/M01 A3032 -280 46 -800 350/07 RMK AO2 T01061006 $
63871K1J0 1J020160118113511201/18/16 11:35:31  5-MIN K1J0 181735Z AUTO 34008KT 10SM CLR 10/M01 A3032 -280 46 -900 340/08 RMK AO2 T01001011 $
63871K1J0 1J020160118114011201/18/16 11:40:31  5-MIN K1J0 181740Z AUTO 34006KT 10SM CLR 10/M01 A3032 -270 47 -900 340/06 RMK AO2 T01001006 $
63871K1J0 1J020160118114511201/18/16 11:45:31  5-MIN K1J0 181745Z AUTO VRB03KT 10SM CLR 11/M01 A3031 -270 46 -800 VRB/03 RMK AO2 T01061006 $
63871K1J0 1J020160118115011201/18/16 11:50:31  5-MIN K1J0 181750Z AUTO 00000KT 10SM CLR 11/M01 A3031 -270 44 -800 000/00 RMK AO2 T01061011 $
63871K1J0 1J020160118115513701/18/16 11:55:31  5-MIN K1J0 181755Z AUTO VRB04KT 10SM CLR 11/M01 A3031 -260 44 -700 VRB/04 RMK AO2 SLP248 T01111006 10111 20011 51019 $
63871K1J0 1J020160118120011201/18/16 12:00:31  5-MIN K1J0 181800Z AUTO 28003KT 10SM CLR 11/M01 A3031 -260 44 -700 280/03 RMK AO2 T01111006 $
63871K1J0 1J020160118120511201/18/16 12:05:31  5-MIN K1J0 181805Z AUTO 30005KT 10SM CLR 11/M01 A3030 -260 44 -700 300/05 RMK AO2 T01111006 $
63871K1J0 1J020160118121011201/18/16 12:10:31  5-MIN K1J0 181810Z AUTO VRB05KT 10SM CLR 11/M01 A3030 -260 42 -700 VRB/05 RMK AO2 T01111011 $
63871K1J0 1J020160118121511201/18/16 12:15:31  5-MIN K1J0 181815Z AUTO VRB06KT 10SM CLR 11/M01 A3030 -260 44 -700 VRB/06 RMK AO2 T01111006 $
63871K1J0 1J020160118122011201/18/16 12:20:31  5-MIN K1J0 181820Z AUTO 31006KT 10SM CLR 11/M01 A3030 -260 42 -700 310/06 RMK AO2 T01111011 $
63871K1J0 1J020160118122511201/18/16 12:25:31  5-MIN K1J0 181825Z AUTO VRB03KT 10SM CLR 11/M01 A3030 -250 42 -700 VRB/03 RMK AO2 T01111011 $
63871K1J0 1J020160118123011201/18/16 12:30:31  5-MIN K1J0 181830Z AUTO 27006KT 10SM CLR 12/M01 A3029 -250 42 -600 270/06 RMK AO2 T01171006 $
63871K1J0 1J020160118123511201/18/16 12:35:31  5-MIN K1J0 181835Z AUTO VRB04KT 10SM CLR 12/M01 A3029 -250 42 -600 VRB/04 RMK AO2 T01171006 $
63871K1J0 1J020160118124011101/18/16 12:40:31  5-MIN K1J0 181840Z AUTO 30005KT 10SM CLR 12/00 A3029 -250 44 -600 300/05 RMK AO2 T01170000 $
63871K1J0 1J020160118124511101/18/16 12:45:31  5-MIN K1J0 181845Z AUTO VRB05KT 10SM CLR 12/00 A3029 -240 44 -600 VRB/05 RMK AO2 T01170000 $
63871K1J0 1J020160118125011201/18/16 12:50:31  5-MIN K1J0 181850Z AUTO VRB03KT 10SM CLR 12/M01 A3028 -240 42 -600 VRB/03 RMK AO2 T01171006 $
63871K1J0 1J020160118125511801/18/16 12:55:31  5-MIN K1J0 181855Z AUTO VRB05KT 10SM CLR 12/00 A3029 -240 44 -600 VRB/05 RMK AO2 SLP241 T01170000 $
63871K1J0 1J020160118130011101/18/16 13:00:31  5-MIN K1J0 181900Z AUTO 33006KT 10SM CLR 12/00 A3028 -240 43 -500 330/06 RMK AO2 T01220000 $
63871K1J0 1J020160118130511201/18/16 13:05:31  5-MIN K1J0 181905Z AUTO 30004KT 10SM CLR 12/M01 A3028 -240 42 -600 300/04 RMK AO2 T01171006 $
63871K1J0 1J020160118224011301/18/16 22:40:31  5-MIN K1J0 190440Z AUTO 33004KT 10SM CLR 04/M02 A3041 -360 67 -1700 330/04 RMK AO2 T00391017 $
63871K1J0 1J020160118224511301/18/16 22:45:31  5-MIN K1J0 190445Z AUTO 33004KT 10SM CLR 03/M02 A3041 -360 70 -1800 330/04 RMK AO2 T00331017 $
63871K1J0 1J020160118225011301/18/16 22:50:31  5-MIN K1J0 190450Z AUTO 33004KT 10SM CLR 03/M02 A3041 -360 70 -1800 330/04 RMK AO2 T00331017 $
63871K1J0 1J020160118225512001/18/16 22:55:31  5-MIN K1J0 190455Z AUTO 33004KT 10SM CLR 03/M02 A3041 -360 70 -1800 330/04 RMK AO2 SLP284 T00331017 $
63871K1J0 1J020160118230011301/18/16 23:00:31  5-MIN K1J0 190500Z AUTO 32003KT 10SM CLR 03/M02 A3042 -370 70 -1800 320/03 RMK AO2 T00331017 $
63871K1J0 1J020160118230511301/18/16 23:05:31  5-MIN K1J0 190505Z AUTO 32004KT 10SM CLR 03/M02 A3042 -370 70 -1800 320/04 RMK AO2 T00331017 $
63871K1J0 1J020160118231011301/18/16 23:10:31  5-MIN K1J0 190510Z AUTO 34003KT 10SM CLR 03/M02 A3042 -370 70 -1800 340/03 RMK AO2 T00331017 $
63871K1J0 1J020160118231511301/18/16 23:15:31  5-MIN K1J0 190515Z AUTO 34005KT 10SM CLR 03/M02 A3042 -360 70 -1800 340/05 RMK AO2 T00331017 $
63871K1J0 1J020160118232011301/18/16 23:20:31  5-MIN K1J0 190520Z AUTO 33005KT 10SM CLR 03/M02 A3042 -360 70 -1800 330/05 RMK AO2 T00331017 $
63871K1J0 1J020160118232511301/18/16 23:25:31  5-MIN K1J0 190525Z AUTO 34005KT 10SM CLR 03/M02 A3042 -360 70 -1800 340/05 RMK AO2 T00331017 $
63871K1J0 1J020160118233011301/18/16 23:30:31  5-MIN K1J0 190530Z AUTO 35004KT 10SM CLR 03/M02 A3041 -360 70 -1800 350/04 RMK AO2 T00331017 $
63871K1J0 1J020160118233511301/18/16 23:35:31  5-MIN K1J0 190535Z AUTO 34004KT 10SM CLR 03/M02 A3041 -360 72 -1900 340/04 RMK AO2 T00281017 $
63871K1J0 1J020160118234011301/18/16 23:40:31  5-MIN K1J0 190540Z AUTO 34004KT 10SM CLR 03/M02 A3041 -360 72 -1900 340/04 RMK AO2 T00281017 $
63871K1J0 1J020160118234511301/18/16 23:45:31  5-MIN K1J0 190545Z AUTO 33004KT 10SM CLR 03/M02 A3041 -360 72 -1900 330/04 RMK AO2 T00281017 $
63871K1J0 1J020160118235011301/18/16 23:50:31  5-MIN K1J0 190550Z AUTO 33004KT 10SM CLR 03/M02 A3041 -360 72 -1900 330/04 RMK AO2 T00281017 $
63871K1J0 1J020160118235514801/18/16 23:55:31  5-MIN K1J0 190555Z AUTO 00000KT 10SM CLR 03/M02 A3041 -360 72 -1900 000/00 RMK AO2 SLP284 T00281017 10083 20028 401280011 51021 $
63871K1J0 1J020160119000011301/19/16 00:00:31  5-MIN K1J0 190600Z AUTO 33004KT 10SM CLR 03/M02 A3041 -360 69 -1900 330/04 RMK AO2 T00281022 $
63871K1J0 1J020160119000511301/19/16 00:05:31  5-MIN K1J0 190605Z AUTO 32003KT 10SM CLR 03/M02 A3041 -360 69 -1800 320/03 RMK AO2 T00281022 $
63871K1J0 1J020160119001011301/19/16 00:10:31  5-MIN K1J0 190610Z AUTO 00000KT 10SM CLR 02/M02 A3041 -360 72 -1900 000/00 RMK AO2 T00221022 $
63871K1J0 1J020160119001511301/19/16 00:15:31  5-MIN K1J0 190615Z AUTO 00000KT 10SM CLR 02/M02 A3040 -350 72 -1900 000/00 RMK AO2 T00221022 $
63871K1J0 1J020160119002011301/19/16 00:20:31  5-MIN K1J0 190620Z AUTO 32003KT 10SM CLR 03/M02 A3041 -360 69 -1800 320/03 RMK AO2 T00281022 $
63871K1J0 1J020160119002511301/19/16 00:25:31  5-MIN K1J0 190625Z AUTO 33004KT 10SM CLR 03/M02 A3041 -360 69 -1800 330/04 RMK AO2 T00281022 $
63871K1J0 1J020160119003011301/19/16 00:30:31  5-MIN K1J0 190630Z AUTO 32003KT 10SM CLR 03/M03 A3041 -360 67 -1800 320/03 RMK AO2 T00281028 $
63871K1J0 1J020160119003511301/19/16 00:35:31  5-MIN K1J0 190635Z AUTO 34003KT 10SM CLR 02/M03 A3041 -360 69 -1900 340/03 RMK AO2 T00221028 $
63871K1J0 1J020160119004011301/19/16 00:40:31  5-MIN K1J0 190640Z AUTO 34003KT 10SM CLR 02/M03 A3040 -350 69 -1900 340/03 RMK AO2 T00221028 $
63871K1J0 1J020160119004511301/19/16 00:45:31  5-MIN K1J0 190645Z AUTO 00000KT 10SM CLR 02/M03 A3040 -350 69 -1900 000/00 RMK AO2 T00221028 $
63871K1J0 1J020160119005011301/19/16 00:50:31  5-MIN K1J0 190650Z AUTO 00000KT 10SM CLR 02/M03 A3041 -360 69 -1900 000/00 RMK AO2 T00221028 $
63871K1J0 1J020160119005512001/19/16 00:55:31  5-MIN K1J0 190655Z AUTO 00000KT 10SM CLR 02/M03 A3041 -360 69 -1900 000/00 RMK AO2 SLP282 T00221028 $
63871K1J0 1J020160119010011301/19/16 01:00:31  5-MIN K1J0 190700Z AUTO 00000KT 10SM CLR 02/M03 A3041 -350 69 -1900 000/00 RMK AO2 T00221028 $
63871K1J0 1J020160119010511301/19/16 01:05:31  5-MIN K1J0 190705Z AUTO 32003KT 10SM CLR 02/M03 A3040 -350 69 -1900 320/03 RMK AO2 T00221028 $
63871K1J0 1J020160119011011301/19/16 01:10:31  5-MIN K1J0 190710Z AUTO 32003KT 10SM CLR 02/M03 A3040 -350 72 -2000 320/03 RMK AO2 T00171028 $
63871K1J0 1J020160119011511301/19/16 01:15:31  5-MIN K1J0 190715Z AUTO 00000KT 10SM CLR 02/M03 A3040 -350 72 -2000 000/00 RMK AO2 T00171028 $
63871K1J0 1J020160119012011301/19/16 01:20:31  5-MIN K1J0 190720Z AUTO 00000KT 10SM CLR 02/M03 A3041 -360 72 -2000 000/00 RMK AO2 T00171028 $
63871K1J0 1J020160119012511301/19/16 01:25:31  5-MIN K1J0 190725Z AUTO 31003KT 10SM CLR 02/M03 A3041 -360 72 -2000 310/03 RMK AO2 T00171028 $
63871K1J0 1J020160119013011301/19/16 01:30:31  5-MIN K1J0 190730Z AUTO 00000KT 10SM CLR 02/M03 A3041 -350 72 -2000 000/00 RMK AO2 T00171028 $
63871K1J0 1J020160119013511301/19/16 01:35:31  5-MIN K1J0 190735Z AUTO 00000KT 10SM CLR 02/M03 A3041 -360 72 -2000 000/00 RMK AO2 T00171028 $
63871K1J0 1J020160119014011301/19/16 01:40:31  5-MIN K1J0 190740Z AUTO 29003KT 10SM CLR 02/M03 A3041 -360 72 -2000 290/03 RMK AO2 T00171028 $
63871K1J0 1J020160119014511301/19/16 01:45:31  5-MIN K1J0 190745Z AUTO 00000KT 10SM CLR 01/M02 A3041 -360 78 -2100 000/00 RMK AO2 T00111022 $
63871K1J0 1J020160119015011301/19/16 01:50:31  5-MIN K1J0 190750Z AUTO 00000KT 10SM CLR 01/M02 A3040 -350 78 -2100 000/00 RMK AO2 T00111022 $
63871K1J0 1J020160119015512001/19/16 01:55:31  5-MIN K1J0 190755Z AUTO 00000KT 10SM CLR 01/M02 A3040 -350 78 -2100 000/00 RMK AO2 SLP280 T00111022 $
63871K1J0 1J020160119020011301/19/16 02:00:31  5-MIN K1J0 190800Z AUTO 00000KT 10SM CLR 01/M02 A3040 -350 85 -2100 000/00 RMK AO2 T00061017 $
63871K1J0 1J020160119020511301/19/16 02:05:31  5-MIN K1J0 190805Z AUTO 00000KT 10SM CLR 00/M02 A3041 -350 88 -2200 000/00 RMK AO2 T00001017 $
63871K1J0 1J020160119021011301/19/16 02:10:31  5-MIN K1J0 190810Z AUTO 00000KT 10SM CLR 00/M02 A3040 -350 88 -2200 000/00 RMK AO2 T00001017 $
63871K1J0 1J020160119021511301/19/16 02:15:31  5-MIN K1J0 190815Z AUTO 00000KT 10SM CLR 00/M02 A3040 -350 88 -2200 000/00 RMK AO2 T00001017 $
63871K1J0 1J020160119022011301/19/16 02:20:31  5-MIN K1J0 190820Z AUTO 00000KT 10SM CLR 00/M02 A3040 -350 88 -2200 000/00 RMK AO2 T00001017 $
63871K1J0 1J020160119022511301/19/16 02:25:31  5-MIN K1J0 190825Z AUTO 00000KT 10SM CLR 00/M02 A3040 -350 88 -2200 000/00 RMK AO2 T00001017 $
63871K1J0 1J020160119023011301/19/16 02:30:31  5-MIN K1J0 190830Z AUTO 00000KT 10SM CLR 00/M02 A3040 -350 88 -2200 000/00 RMK AO2 T00001017 $
63871K1J0 1J020160119023511301/19/16 02:35:31  5-MIN K1J0 190835Z AUTO 00000KT 10SM CLR 00/M02 A3040 -350 88 -2200 000/00 RMK AO2 T00001017 $
63871K1J0 1J020160119024011301/19/16 02:40:31  5-MIN K1J0 190840Z AUTO 00000KT 10SM CLR 00/M02 A3041 -360 88 -2200 000/00 RMK AO2 T00001017 $
63871K1J0 1J020160119024511301/19/16 02:45:31  5-MIN K1J0 190845Z AUTO 00000KT 10SM CLR 00/M02 A3040 -350 85 -2200 000/00 RMK AO2 T00001022 $
63871K1J0 1J020160119025011301/19/16 02:50:31  5-MIN K1J0 190850Z AUTO 00000KT 10SM CLR 00/M02 A3040 -350 88 -2200 000/00 RMK AO2 T00001017 $
63871K1J0 1J020160119025512601/19/16 02:55:31  5-MIN K1J0 190855Z AUTO 00000KT 10SM CLR 00/M02 A3040 -350 88 -2200 000/00 RMK AO2 SLP281 T00001017 50004 $
63871K1J0 1J020160119030011301/19/16 03:00:31  5-MIN K1J0 190900Z AUTO 00000KT 10SM CLR 00/M02 A3040 -350 88 -2200 000/00 RMK AO2 T00001017 $
63871K1J0 1J020160119030511301/19/16 03:05:31  5-MIN K1J0 190905Z AUTO 00000KT 10SM CLR 00/M02 A3040 -350 88 -2200 000/00 RMK AO2 T00001017 $
63871K1J0 1J020160119031011401/19/16 03:10:31  5-MIN K1J0 190910Z AUTO 00000KT 10SM CLR M01/M02 A3041 -360 92 -2300 000/00 RMK AO2 T10061017 $
63871K1J0 1J020160119031511301/19/16 03:15:31  5-MIN K1J0 190915Z AUTO 00000KT 10SM CLR 00/M02 A3041 -360 88 -2200 000/00 RMK AO2 T00001017 $
63871K1J0 1J020160119032011401/19/16 03:20:31  5-MIN K1J0 190920Z AUTO 00000KT 10SM CLR M01/M02 A3041 -360 92 -2300 000/00 RMK AO2 T10061017 $
63871K1J0 1J020160119032511401/19/16 03:25:31  5-MIN K1J0 190925Z AUTO 00000KT 10SM CLR M01/M02 A3041 -360 92 -2300 000/00 RMK AO2 T10061017 $
63871K1J0 1J020160119033011401/19/16 03:30:31  5-MIN K1J0 190930Z AUTO 00000KT 10SM CLR M01/M02 A3041 -360 88 -2300 000/00 RMK AO2 T10061022 $
63871K1J0 1J020160119033511401/19/16 03:35:31  5-MIN K1J0 190935Z AUTO 00000KT 10SM CLR M01/M02 A3041 -360 88 -2300 000/00 RMK AO2 T10061022 $
63871K1J0 1J020160119034011401/19/16 03:40:31  5-MIN K1J0 190940Z AUTO 00000KT 10SM CLR M01/M02 A3041 -360 92 -2300 000/00 RMK AO2 T10111022 $
63871K1J0 1J020160119034511401/19/16 03:45:31  5-MIN K1J0 190945Z AUTO 34003KT 10SM CLR M01/M02 A3041 -360 92 -2300 340/03 RMK AO2 T10111022 $
63871K1J0 1J020160119035011401/19/16 03:50:31  5-MIN K1J0 190950Z AUTO 34003KT 10SM CLR M01/M03 A3041 -360 88 -2300 340/03 RMK AO2 T10111028 $
63871K1J0 1J020160119035512101/19/16 03:55:31  5-MIN K1J0 190955Z AUTO 34003KT 10SM CLR M01/M03 A3041 -360 85 -2300 340/03 RMK AO2 SLP284 T10061028 $
63871K1J0 1J020160119040011301/19/16 04:00:31  5-MIN K1J0 191000Z AUTO 33003KT 10SM CLR 00/M03 A3041 -360 78 -2200 330/03 RMK AO2 T00001033 $
63871K1J0 1J020160119040511401/19/16 04:05:31  5-MIN K1J0 191005Z AUTO 00000KT 10SM CLR M01/M03 A3041 -360 81 -2300 000/00 RMK AO2 T10061033 $
63871K1J0 1J020160119041011401/19/16 04:10:31  5-MIN K1J0 191010Z AUTO 01003KT 10SM CLR M01/M03 A3041 -360 81 -2300 010/03 RMK AO2 T10061033 $
63871K1J0 1J020160119041511401/19/16 04:15:31  5-MIN K1J0 191015Z AUTO 36004KT 10SM CLR M01/M03 A3041 -360 85 -2300 360/04 RMK AO2 T10061028 $
63871K1J0 1J020160119042011401/19/16 04:20:31  5-MIN K1J0 191020Z AUTO 35004KT 10SM CLR M01/M03 A3041 -360 85 -2300 350/04 RMK AO2 T10061028 $
63871K1J0 1J020160119042511401/19/16 04:25:31  5-MIN K1J0 191025Z AUTO 34003KT 10SM CLR M01/M03 A3042 -360 81 -2300 340/03 RMK AO2 T10061033 $
63871K1J0 1J020160119043011401/19/16 04:30:31  5-MIN K1J0 191030Z AUTO 35003KT 10SM CLR M01/M03 A3042 -360 81 -2300 350/03 RMK AO2 T10061033 $
63871K1J0 1J020160119043511401/19/16 04:35:31  5-MIN K1J0 191035Z AUTO 35003KT 10SM CLR M01/M03 A3042 -360 81 -2300 350/03 RMK AO2 T10061033 $
63871K1J0 1J020160119044011401/19/16 04:40:31  5-MIN K1J0 191040Z AUTO 00000KT 10SM CLR M01/M03 A3042 -360 81 -2300 000/00 RMK AO2 T10061033 $
63871K1J0 1J020160119044511401/19/16 04:45:31  5-MIN K1J0 191045Z AUTO 00000KT 10SM CLR M01/M03 A3042 -360 81 -2300 000/00 RMK AO2 T10061033 $
63871K1J0 1J020160119045011401/19/16 04:50:31  5-MIN K1J0 191050Z AUTO 00000KT 10SM CLR M01/M03 A3042 -370 81 -2300 000/00 RMK AO2 T10061033 $
63871K1J0 1J020160119045512101/19/16 04:55:31  5-MIN K1J0 191055Z AUTO 00000KT 10SM CLR M01/M03 A3042 -370 81 -2300 000/00 RMK AO2 SLP287 T10061033 $
63871K1J0 1J020160119050011401/19/16 05:00:31  5-MIN K1J0 191100Z AUTO 00000KT 10SM CLR M01/M03 A3042 -370 81 -2300 000/00 RMK AO2 T10061033 $
63871K1J0 1J020160119050511401/19/16 05:05:31  5-MIN K1J0 191105Z AUTO 00000KT 10SM CLR M01/M03 A3042 -370 81 -2300 000/00 RMK AO2 T10061033 $
63871K1J0 1J020160119051011401/19/16 05:10:31  5-MIN K1J0 191110Z AUTO 00000KT 10SM CLR M01/M03 A3042 -370 81 -2300 000/00 RMK AO2 T10061033 $
63871K1J0 1J020160119051511401/19/16 05:15:31  5-MIN K1J0 191115Z AUTO 00000KT 10SM CLR M01/M03 A3042 -370 85 -2400 000/00 RMK AO2 T10111033 $
63871K1J0 1J020160119052011401/19/16 05:20:31  5-MIN K1J0 191120Z AUTO 00000KT 10SM CLR M01/M03 A3043 -370 85 -2400 000/00 RMK AO2 T10111033 $
63871K1J0 1J020160119052511401/19/16 05:25:31  5-MIN K1J0 191125Z AUTO 00000KT 10SM CLR M01/M03 A3043 -370 81 -2300 000/00 RMK AO2 T10061033 $
63871K1J0 1J020160119053011401/19/16 05:30:31  5-MIN K1J0 191130Z AUTO 00000KT 10SM CLR M01/M03 A3043 -380 81 -2300 000/00 RMK AO2 T10061033 $
63871K1J0 1J020160119053511401/19/16 05:35:31  5-MIN K1J0 191135Z AUTO 00000KT 10SM CLR M01/M03 A3043 -380 81 -2300 000/00 RMK AO2 T10061033 $
63871K1J0 1J020160119054011401/19/16 05:40:31  5-MIN K1J0 191140Z AUTO 34003KT 10SM CLR M01/M03 A3044 -380 81 -2300 340/03 RMK AO2 T10061033 $
63871K1J0 1J020160119054511401/19/16 05:45:31  5-MIN K1J0 191145Z AUTO 35003KT 10SM CLR M01/M04 A3043 -380 78 -2300 350/03 RMK AO2 T10061039 $
63871K1J0 1J020160119055011401/19/16 05:50:31  5-MIN K1J0 191150Z AUTO 00000KT 10SM CLR M01/M04 A3043 -380 78 -2300 000/00 RMK AO2 T10061039 $
63871K1J0 1J020160119055513901/19/16 05:55:31  5-MIN K1J0 191155Z AUTO 00000KT 10SM CLR M01/M03 A3044 -380 85 -2400 000/00 RMK AO2 SLP292 T10111033 10028 21011 55003 $
63871K1J0 1J020160119060011401/19/16 06:00:31  5-MIN K1J0 191200Z AUTO 00000KT 10SM CLR M01/M03 A3043 -380 85 -2400 000/00 RMK AO2 T10111033 $
63871K1J0 1J020160119060511401/19/16 06:05:31  5-MIN K1J0 191205Z AUTO 00000KT 10SM CLR M01/M03 A3043 -380 85 -2400 000/00 RMK AO2 T10111033 $
63871K1J0 1J020160119061011401/19/16 06:10:31  5-MIN K1J0 191210Z AUTO 00000KT 10SM CLR M01/M04 A3043 -380 81 -2400 000/00 RMK AO2 T10111039 $
63871K1J0 1J020160119061511401/19/16 06:15:31  5-MIN K1J0 191215Z AUTO 00000KT 10SM CLR M01/M03 A3044 -380 85 -2400 000/00 RMK AO2 T10111033 $
63871K1J0 1J020160119062011401/19/16 06:20:31  5-MIN K1J0 191220Z AUTO 00000KT 10SM CLR M01/M04 A3044 -380 81 -2400 000/00 RMK AO2 T10111039 $
63871K1J0 1J020160119062511401/19/16 06:25:31  5-MIN K1J0 191225Z AUTO 00000KT 10SM CLR M01/M04 A3044 -380 81 -2400 000/00 RMK AO2 T10111039 $
63871K1J0 1J020160119063011401/19/16 06:30:31  5-MIN K1J0 191230Z AUTO 00000KT 10SM CLR M01/M04 A3044 -380 81 -2400 000/00 RMK AO2 T10111039 $
63871K1J0 1J020160119063511401/19/16 06:35:31  5-MIN K1J0 191235Z AUTO 00000KT 10SM CLR M01/M04 A3044 -380 78 -2400 000/00 RMK AO2 T10111044 $
63871K1J0 1J020160119064011201/19/16 06:40:31  5-MIN K1J0 191240Z AUTO 00000KT 10SM CLR M01/M04 A3044 -380 81 -2400 000/00 RMK AO2 T10111039
63871K1J0 1J020160119064511201/19/16 06:45:31  5-MIN K1J0 191245Z AUTO 00000KT 10SM CLR M01/M04 A3044 -380 78 -2400 000/00 RMK AO2 T10111044
63871K1J0 1J020160119065011201/19/16 06:50:31  5-MIN K1J0 191250Z AUTO 00000KT 10SM CLR M01/M04 A3044 -380 78 -2400 000/00 RMK AO2 T10111044
63871K1J0 1J020160119065511901/19/16 06:55:31  5-MIN K1J0 191255Z AUTO 00000KT 10SM CLR M01/M04 A3044 -390 78 -2400 000/00 RMK AO2 SLP294 T10111044
63871K1J0 1J020160119070011201/19/16 07:00:31  5-MIN K1J0 191300Z AUTO 00000KT 10SM CLR M01/M04 A3044 -390 78 -2300 000/00 RMK AO2 T10061039
63871K1J0 1J020160119070511201/19/16 07:05:31  5-MIN K1J0 191305Z AUTO 34003KT 10SM CLR M01/M04 A3044 -390 78 -2300 340/03 RMK AO2 T10061039
63871K1J0 1J020160119071011201/19/16 07:10:31  5-MIN K1J0 191310Z AUTO 34003KT 10SM CLR M01/M04 A3045 -390 78 -2300 340/03 RMK AO2 T10061039
63871K1J0 1J020160119071511101/19/16 07:15:31  5-MIN K1J0 191315Z AUTO 35003KT 10SM CLR 00/M04 A3045 -390 75 -2200 350/03 RMK AO2 T00001039
63871K1J0 1J020160119072011101/19/16 07:20:31  5-MIN K1J0 191320Z AUTO 36003KT 10SM CLR 00/M04 A3045 -390 75 -2200 360/03 RMK AO2 T00001039
63871K1J0 1J020160119072511101/19/16 07:25:31  5-MIN K1J0 191325Z AUTO 36003KT 10SM CLR 00/M04 A3045 -390 75 -2200 360/03 RMK AO2 T00001039
63871K1J0 1J020160119073011101/19/16 07:30:31  5-MIN K1J0 191330Z AUTO 01003KT 10SM CLR 01/M04 A3045 -400 72 -2200 010/03 RMK AO2 T00061039
63871K1J0 1J020160119073511101/19/16 07:35:31  5-MIN K1J0 191335Z AUTO 36003KT 10SM CLR 01/M04 A3045 -400 69 -2200 360/03 RMK AO2 T00061044
63871K1J0 1J020160119074011101/19/16 07:40:31  5-MIN K1J0 191340Z AUTO 01003KT 10SM CLR 01/M04 A3045 -400 69 -2200 010/03 RMK AO2 T00061044
63871K1J0 1J020160119074511101/19/16 07:45:31  5-MIN K1J0 191345Z AUTO 01004KT 10SM CLR 01/M04 A3046 -400 66 -2100 010/04 RMK AO2 T00111044
63871K1J0 1J020160119075011101/19/16 07:50:31  5-MIN K1J0 191350Z AUTO 01004KT 10SM CLR 01/M05 A3046 -400 64 -2100 010/04 RMK AO2 T00111050
63871K1J0 1J020160119075511801/19/16 07:55:31  5-MIN K1J0 191355Z AUTO 02004KT 10SM CLR 01/M04 A3046 -400 66 -2100 020/04 RMK AO2 SLP301 T00111044
63871K1J0 1J020160119080011101/19/16 08:00:31  5-MIN K1J0 191400Z AUTO 02005KT 10SM CLR 02/M05 A3046 -410 61 -2000 020/05 RMK AO2 T00171050
63871K1J0 1J020160119080511101/19/16 08:05:31  5-MIN K1J0 191405Z AUTO 02006KT 10SM CLR 02/M06 A3046 -400 59 -2000 020/06 RMK AO2 T00171056
63871K1J0 1J020160119081011101/19/16 08:10:31  5-MIN K1J0 191410Z AUTO 02006KT 10SM CLR 02/M06 A3046 -410 59 -2100 020/06 RMK AO2 T00171056
63871K1J0 1J020160119081511101/19/16 08:15:31  5-MIN K1J0 191415Z AUTO 02006KT 10SM CLR 02/M06 A3047 -410 56 -2000 020/06 RMK AO2 T00221056
63871K1J0 1J020160119082011101/19/16 08:20:31  5-MIN K1J0 191420Z AUTO 01005KT 10SM CLR 02/M06 A3047 -410 56 -2000 010/05 RMK AO2 T00221056
63871K1J0 1J020160119082511101/19/16 08:25:31  5-MIN K1J0 191425Z AUTO 02006KT 10SM CLR 02/M06 A3047 -410 56 -2000 020/06 RMK AO2 T00221056
63871K1J0 1J020160119083011101/19/16 08:30:31  5-MIN K1J0 191430Z AUTO 01006KT 10SM CLR 02/M06 A3047 -420 56 -2000 010/06 RMK AO2 T00221056
63871K1J0 1J020160119083511101/19/16 08:35:31  5-MIN K1J0 191435Z AUTO 04007KT 10SM CLR 03/M06 A3047 -420 52 -1900 040/07 RMK AO2 T00281061
63871K1J0 1J020160119084011101/19/16 08:40:31  5-MIN K1J0 191440Z AUTO 01005KT 10SM CLR 03/M06 A3048 -420 52 -1900 010/05 RMK AO2 T00281061
63871K1J0 1J020160119084511101/19/16 08:45:31  5-MIN K1J0 191445Z AUTO 01008KT 10SM CLR 03/M07 A3048 -420 50 -1900 010/08 RMK AO2 T00281067
63871K1J0 1J020160119085011101/19/16 08:50:31  5-MIN K1J0 191450Z AUTO 03008KT 10SM CLR 03/M07 A3048 -430 50 -1900 030/08 RMK AO2 T00281067
63871K1J0 1J020160119085512401/19/16 08:55:31  5-MIN K1J0 191455Z AUTO 36007KT 10SM CLR 03/M07 A3049 -430 48 -1900 360/07 RMK AO2 SLP309 T00331067 53010
63871K1J0 1J020160119090011101/19/16 09:00:31  5-MIN K1J0 191500Z AUTO 01007KT 10SM CLR 04/M06 A3049 -430 48 -1800 010/07 RMK AO2 T00391061
63871K1J0 1J020160119090511101/19/16 09:05:31  5-MIN K1J0 191505Z AUTO 03006KT 10SM CLR 04/M07 A3049 -430 46 -1800 030/06 RMK AO2 T00391067
63871K1J0 1J020160119091011101/19/16 09:10:31  5-MIN K1J0 191510Z AUTO 36007KT 10SM CLR 04/M07 A3049 -430 46 -1800 360/07 RMK AO2 T00391067
63871K1J0 1J020160119091511101/19/16 09:15:31  5-MIN K1J0 191515Z AUTO 36007KT 10SM CLR 04/M07 A3049 -430 44 -1800 360/07 RMK AO2 T00391072
63871K1J0 1J020160119092011101/19/16 09:20:31  5-MIN K1J0 191520Z AUTO 01008KT 10SM CLR 04/M07 A3049 -430 44 -1700 010/08 RMK AO2 T00441067
63871K1J0 1J020160119092511101/19/16 09:25:31  5-MIN K1J0 191525Z AUTO 01008KT 10SM CLR 04/M07 A3049 -430 42 -1700 010/08 RMK AO2 T00441072
63871K1J0 1J020160119093011101/19/16 09:30:31  5-MIN K1J0 191530Z AUTO 02007KT 10SM CLR 04/M07 A3049 -430 42 -1700 020/07 RMK AO2 T00441072
63871K1J0 1J020160119093511101/19/16 09:35:31  5-MIN K1J0 191535Z AUTO 04008KT 10SM CLR 05/M08 A3049 -430 39 -1700 040/08 RMK AO2 T00501078
63871K1J0 1J020160119094011101/19/16 09:40:31  5-MIN K1J0 191540Z AUTO 01008KT 10SM CLR 05/M07 A3049 -430 41 -1700 010/08 RMK AO2 T00501072
63871K1J0 1J020160119094511101/19/16 09:45:31  5-MIN K1J0 191545Z AUTO 01006KT 10SM CLR 05/M08 A3049 -430 39 -1700 010/06 RMK AO2 T00501078
63871K1J0 1J020160119095011101/19/16 09:50:31  5-MIN K1J0 191550Z AUTO 02008KT 10SM CLR 05/M08 A3048 -430 39 -1700 020/08 RMK AO2 T00501078
63871K1J0 1J020160119095511801/19/16 09:55:31  5-MIN K1J0 191555Z AUTO 02008KT 10SM CLR 06/M08 A3048 -430 37 -1600 020/08 RMK AO2 SLP309 T00561078
63871K1J0 1J020160119100011101/19/16 10:00:31  5-MIN K1J0 191600Z AUTO 04006KT 10SM CLR 06/M08 A3048 -420 37 -1600 040/06 RMK AO2 T00561078
63871K1J0 1J020160119100511101/19/16 10:05:31  5-MIN K1J0 191605Z AUTO 01007KT 10SM CLR 06/M07 A3048 -430 38 -1500 010/07 RMK AO2 T00611072
63871K1J0 1J020160119101010101/19/16 10:10:31  5-MIN K1J0 191610Z AUTO 10SM CLR 06/M08 A3048 -430 37 -1600 M /M RMK AO2 T00561078
63871K1J0 1J020160119101511101/19/16 10:15:31  5-MIN K1J0 191615Z AUTO 01007KT 10SM CLR 06/M08 A3048 -420 36 -1500 010/07 RMK AO2 T00611078
63871K1J0 1J020160119102011101/19/16 10:20:31  5-MIN K1J0 191620Z AUTO 03008KT 10SM CLR 06/M08 A3048 -420 35 -1500 030/08 RMK AO2 T00611083
63871K1J0 1J020160119102511101/19/16 10:25:31  5-MIN K1J0 191625Z AUTO 36007KT 10SM CLR 07/M08 A3048 -420 33 -1400 360/07 RMK AO2 T00671083
63871K1J0 1J020160119103011101/19/16 10:30:31  5-MIN K1J0 191630Z AUTO 02008KT 10SM CLR 07/M07 A3048 -420 36 -1400 020/08 RMK AO2 T00671072
63871K1J0 1J020160119103511701/19/16 10:35:31  5-MIN K1J0 191635Z AUTO 02007G15KT 10SM CLR 07/M08 A3048 -430 33 -1500 020/07G15 RMK AO2 T00671083
63871K1J0 1J020160119104011101/19/16 10:40:31  5-MIN K1J0 191640Z AUTO 02007KT 10SM CLR 07/M08 A3048 -430 32 -1400 020/07 RMK AO2 T00721083
63871K1J0 1J020160119104511101/19/16 10:45:31  5-MIN K1J0 191645Z AUTO 36008KT 10SM CLR 07/M08 A3048 -430 33 -1400 360/08 RMK AO2 T00721078
63871K1J0 1J020160119105011101/19/16 10:50:31  5-MIN K1J0 191650Z AUTO 01005KT 10SM CLR 07/M07 A3048 -420 35 -1400 010/05 RMK AO2 T00721072
63871K1J0 1J020160119105511801/19/16 10:55:31  5-MIN K1J0 191655Z AUTO 04007KT 10SM CLR 07/M08 A3048 -420 33 -1400 040/07 RMK AO2 SLP306 T00721078
63871K1J0 1J020160119110012701/19/16 11:00:31  5-MIN K1J0 191700Z AUTO 03007KT 350V050 10SM CLR 08/M07 A3047 -420 34 -1300 030/07 350V050 RMK AO2 T00781072
63871K1J0 1J020160119110511101/19/16 11:05:31  5-MIN K1J0 191705Z AUTO 02006KT 10SM CLR 08/M07 A3047 -410 32 -1200 020/06 RMK AO2 T00831072
63871K1J0 1J020160119111011101/19/16 11:10:31  5-MIN K1J0 191710Z AUTO 04005KT 10SM CLR 08/M08 A3047 -410 32 -1300 040/05 RMK AO2 T00781078
63871K1J0 1J020160119111511101/19/16 11:15:31  5-MIN K1J0 191715Z AUTO VRB04KT 10SM CLR 08/M08 A3047 -410 31 -1200 VRB/04 RMK AO2 T00831078
63871K1J0 1J020160119112011101/19/16 11:20:31  5-MIN K1J0 191720Z AUTO 35006KT 10SM CLR 08/M08 A3046 -410 31 -1300 350/06 RMK AO2 T00781083
63871K1J0 1J020160119112511101/19/16 11:25:31  5-MIN K1J0 191725Z AUTO VRB04KT 10SM CLR 08/M07 A3046 -410 35 -1300 VRB/04 RMK AO2 T00781067
63871K1J0 1J020160119113011101/19/16 11:30:31  5-MIN K1J0 191730Z AUTO 34004KT 10SM CLR 08/M08 A3046 -400 31 -1200 340/04 RMK AO2 T00831078
63871K1J0 1J020160119113511101/19/16 11:35:31  5-MIN K1J0 191735Z AUTO 32004KT 10SM CLR 08/M07 A3046 -400 34 -1200 320/04 RMK AO2 T00831067
63871K1J0 1J020160119114011101/19/16 11:40:31  5-MIN K1J0 191740Z AUTO 35007KT 10SM CLR 09/M06 A3046 -400 34 -1200 350/07 RMK AO2 T00891061
63871K1J0 1J020160119114511101/19/16 11:45:31  5-MIN K1J0 191745Z AUTO 35007KT 10SM CLR 08/M07 A3046 -400 34 -1200 350/07 RMK AO2 T00831067
63871K1J0 1J020160119115011101/19/16 11:50:31  5-MIN K1J0 191750Z AUTO VRB05KT 10SM CLR 09/M07 A3045 -400 32 -1100 VRB/05 RMK AO2 T00891067
63871K1J0 1J020160119115513601/19/16 11:55:31  5-MIN K1J0 191755Z AUTO 36008KT 10SM CLR 09/M07 A3045 -400 32 -1100 360/08 RMK AO2 SLP298 T00891067 10089 21011 53018
63871K1J0 1J020160119120011101/19/16 12:00:31  5-MIN K1J0 191800Z AUTO 33003KT 10SM CLR 08/M07 A3045 -390 34 -1200 330/03 RMK AO2 T00831067
63871K1J0 1J020160119120511101/19/16 12:05:31  5-MIN K1J0 191805Z AUTO VRB05KT 10SM CLR 09/M06 A3045 -390 33 -1100 VRB/05 RMK AO2 T00941061
63871K1J0 1J020160119121011101/19/16 12:10:31  5-MIN K1J0 191810Z AUTO 02005KT 10SM CLR 09/M06 A3044 -390 33 -1100 020/05 RMK AO2 T00941061
63871K1J0 1J020160119121511101/19/16 12:15:31  5-MIN K1J0 191815Z AUTO VRB04KT 10SM CLR 09/M06 A3044 -390 33 -1100 VRB/04 RMK AO2 T00941061
63871K1J0 1J020160119122011101/19/16 12:20:31  5-MIN K1J0 191820Z AUTO VRB04KT 10SM CLR 09/M06 A3044 -390 33 -1100 VRB/04 RMK AO2 T00941061
63871K1J0 1J020160119122511101/19/16 12:25:31  5-MIN K1J0 191825Z AUTO 35007KT 10SM CLR 09/M06 A3044 -390 35 -1100 350/07 RMK AO2 T00891056
63871K1J0 1J020160119123011101/19/16 12:30:31  5-MIN K1J0 191830Z AUTO VRB03KT 10SM CLR 09/M07 A3044 -380 32 -1100 VRB/03 RMK AO2 T00891067
63871K1J0 1J020160119123511101/19/16 12:35:31  5-MIN K1J0 191835Z AUTO 03005KT 10SM CLR 09/M06 A3043 -380 34 -1100 030/05 RMK AO2 T00891061
63871K1J0 1J020160119124011101/19/16 12:40:31  5-MIN K1J0 191840Z AUTO 30005KT 10SM CLR 09/M06 A3043 -380 34 -1000 300/05 RMK AO2 T00941056
63871K1J0 1J020160119124511101/19/16 12:45:31  5-MIN K1J0 191845Z AUTO 34006KT 10SM CLR 09/M06 A3043 -380 34 -1000 340/06 RMK AO2 T00941056
63871K1J0 1J020160119125011101/19/16 12:50:31  5-MIN K1J0 191850Z AUTO VRB06KT 10SM CLR 09/M06 A3043 -370 34 -1000 VRB/06 RMK AO2 T00941056
63871K1J0 1J020160119125511801/19/16 12:55:31  5-MIN K1J0 191855Z AUTO VRB03KT 10SM CLR 09/M06 A3042 -370 34 -1000 VRB/03 RMK AO2 SLP288 T00941056
63871K1J0 1J020160119130011101/19/16 13:00:31  5-MIN K1J0 191900Z AUTO 33007KT 10SM CLR 10/M05 A3042 -370 34 -1000 330/07 RMK AO2 T01001050
63871K1J0 1J020160119130511101/19/16 13:05:31  5-MIN K1J0 191905Z AUTO 34007KT 10SM CLR 09/M05 A3042 -370 35 -1000 340/07 RMK AO2 T00941050
63871K1J0 1J020160119131011101/19/16 13:10:31  5-MIN K1J0 191910Z AUTO 34006KT 10SM CLR 10/M04 A3042 -370 36 -1000 340/06 RMK AO2 T01001044
63871K1J0 1J020160119131511101/19/16 13:15:31  5-MIN K1J0 191915Z AUTO 28004KT 10SM CLR 10/M05 A3042 -360 34 -1000 280/04 RMK AO2 T01001050
63871K1J0 1J020160119132011101/19/16 13:20:31  5-MIN K1J0 191920Z AUTO VRB03KT 10SM CLR 10/M05 A3041 -360 34 -1000 VRB/03 RMK AO2 T01001050
63871K1J0 1J020160119132511101/19/16 13:25:31  5-MIN K1J0 191925Z AUTO VRB03KT 10SM CLR 10/M05 A3041 -360 34 -1000 VRB/03 RMK AO2 T01001050
63871K1J0 1J020160119133011001/19/16 13:30:31  5-MIN K1J0 191930Z AUTO 34007KT 10SM CLR 11/M04 A3041 -360 34 -900 340/07 RMK AO2 T01061044
63871K1J0 1J020160119133511101/19/16 13:35:31  5-MIN K1J0 191935Z AUTO 00000KT 10SM CLR 10/M06 A3041 -360 33 -1000 000/00 RMK AO2 T01001056
63871K1J0 1J020160119134010001/19/16 13:40:31  5-MIN K1J0 191940Z AUTO 10SM CLR 11/M05 A3040 -350 33 -900 M /M RMK AO2 T01061050
63871K1J0 1J020160119134511001/19/16 13:45:31  5-MIN K1J0 191945Z AUTO VRB03KT 10SM CLR 11/M06 A3040 -350 31 -900 VRB/03 RMK AO2 T01061056
63871K1J0 1J020160119135011001/19/16 13:50:31  5-MIN K1J0 191950Z AUTO 34006KT 10SM CLR 11/M04 A3040 -350 34 -900 340/06 RMK AO2 T01061044
63871K1J0 1J020160119135511701/19/16 13:55:31  5-MIN K1J0 191955Z AUTO 29003KT 10SM CLR 11/M04 A3040 -350 34 -800 290/03 RMK AO2 SLP280 T01111039
63871K1J0 1J020160119140011001/19/16 14:00:31  5-MIN K1J0 192000Z AUTO VRB03KT 10SM CLR 10/M04 A3040 -350 36 -900 VRB/03 RMK AO2 T01001044
63871K1J0 1J020160119140511001/19/16 14:05:31  5-MIN K1J0 192005Z AUTO 35004KT 10SM CLR 11/M04 A3040 -350 34 -900 350/04 RMK AO2 T01061044
63871K1J0 1J020160119141011001/19/16 14:10:31  5-MIN K1J0 192010Z AUTO 36006KT 10SM CLR 11/M04 A3039 -340 33 -800 360/06 RMK AO2 T01111044
63871K1J0 1J020160119141511001/19/16 14:15:31  5-MIN K1J0 192015Z AUTO VRB04KT 10SM CLR 11/M04 A3039 -340 34 -800 VRB/04 RMK AO2 T01111039
63871K1J0 1J020160119142011001/19/16 14:20:31  5-MIN K1J0 192020Z AUTO VRB04KT 10SM CLR 11/M05 A3039 -340 32 -800 VRB/04 RMK AO2 T01111050
63871K1J0 1J020160119142511001/19/16 14:25:31  5-MIN K1J0 192025Z AUTO 36005KT 10SM CLR 11/M05 A3039 -340 32 -800 360/05 RMK AO2 T01111050
63871K1J0 1J020160119143011001/19/16 14:30:31  5-MIN K1J0 192030Z AUTO 00000KT 10SM CLR 11/M05 A3039 -340 32 -800 000/00 RMK AO2 T01111050
63871K1J0 1J020160119143511001/19/16 14:35:31  5-MIN K1J0 192035Z AUTO VRB04KT 10SM CLR 11/M04 A3039 -340 33 -800 VRB/04 RMK AO2 T01111044
63871K1J0 1J020160119144011001/19/16 14:40:31  5-MIN K1J0 192040Z AUTO 33004KT 10SM CLR 11/M04 A3039 -340 34 -800 330/04 RMK AO2 T01111039
63871K1J0 1J020160119144511001/19/16 14:45:31  5-MIN K1J0 192045Z AUTO 00000KT 10SM CLR 11/M05 A3039 -340 33 -900 000/00 RMK AO2 T01061050
63871K1J0 1J020160119145011001/19/16 14:50:31  5-MIN K1J0 192050Z AUTO VRB03KT 10SM CLR 11/M04 A3039 -340 33 -800 VRB/03 RMK AO2 T01111044
63871K1J0 1J020160119145512301/19/16 14:55:31  5-MIN K1J0 192055Z AUTO 00000KT 10SM CLR 11/M04 A3039 -340 34 -800 000/00 RMK AO2 SLP277 T01111039 58012
63871K1J0 1J020160119150011001/19/16 15:00:31  5-MIN K1J0 192100Z AUTO 00000KT 10SM CLR 11/M04 A3039 -340 34 -900 000/00 RMK AO2 T01061044
63871K1J0 1J020160119150511001/19/16 15:05:31  5-MIN K1J0 192105Z AUTO VRB05KT 10SM CLR 11/M04 A3039 -340 33 -800 VRB/05 RMK AO2 T01111044
63871K1J0 1J020160119151011001/19/16 15:10:31  5-MIN K1J0 192110Z AUTO 36005KT 10SM CLR 12/M04 A3039 -340 33 -700 360/05 RMK AO2 T01171039
63871K1J0 1J020160119151511001/19/16 15:15:31  5-MIN K1J0 192115Z AUTO 04004KT 10SM CLR 11/M04 A3039 -340 33 -800 040/04 RMK AO2 T01111044
63871K1J0 1J020160119152011001/19/16 15:20:31  5-MIN K1J0 192120Z AUTO 03003KT 10SM CLR 11/M04 A3039 -340 33 -800 030/03 RMK AO2 T01111044
63871K1J0 1J020160119152511001/19/16 15:25:31  5-MIN K1J0 192125Z AUTO 01003KT 10SM CLR 12/M05 A3039 -340 30 -700 010/03 RMK AO2 T01171050
63871K1J0 1J020160119153011001/19/16 15:30:31  5-MIN K1J0 192130Z AUTO 36006KT 10SM CLR 12/M04 A3039 -340 33 -700 360/06 RMK AO2 T01171039
63871K1J0 1J020160119153511001/19/16 15:35:31  5-MIN K1J0 192135Z AUTO VRB04KT 10SM CLR 11/M04 A3039 -340 34 -800 VRB/04 RMK AO2 T01111039
63871K1J0 1J020160119154011001/19/16 15:40:31  5-MIN K1J0 192140Z AUTO 31004KT 10SM CLR 11/M04 A3039 -340 34 -800 310/04 RMK AO2 T01111039
63871K1J0 1J020160119154511001/19/16 15:45:31  5-MIN K1J0 192145Z AUTO 32005KT 10SM CLR 11/M04 A3039 -340 33 -800 320/05 RMK AO2 T01111044
63871K1J0 1J020160119155011001/19/16 15:50:31  5-MIN K1J0 192150Z AUTO 00000KT 10SM CLR 11/M05 A3039 -340 32 -800 000/00 RMK AO2 T01111050
63871K1J0 1J020160119155511701/19/16 15:55:31  5-MIN K1J0 192155Z AUTO 00000KT 10SM CLR 11/M05 A3039 -340 32 -800 000/00 RMK AO2 SLP278 T01111050
63871K1J0 1J020160119160011001/19/16 16:00:31  5-MIN K1J0 192200Z AUTO 33005KT 10SM CLR 11/M04 A3039 -340 34 -800 330/05 RMK AO2 T01111039
63871K1J0 1J020160119160511001/19/16 16:05:31  5-MIN K1J0 192205Z AUTO 34005KT 10SM CLR 11/M03 A3039 -340 36 -800 340/05 RMK AO2 T01111033
63871K1J0 1J020160119161011001/19/16 16:10:31  5-MIN K1J0 192210Z AUTO 36003KT 10SM CLR 11/M04 A3038 -340 34 -800 360/03 RMK AO2 T01111039
63871K1J0 1J020160119161511001/19/16 16:15:31  5-MIN K1J0 192215Z AUTO 36004KT 10SM CLR 11/M04 A3038 -330 34 -800 360/04 RMK AO2 T01111039
63871K1J0 1J020160119162011001/19/16 16:20:31  5-MIN K1J0 192220Z AUTO 00000KT 10SM CLR 11/M03 A3038 -340 37 -900 000/00 RMK AO2 T01061033
63871K1J0 1J020160119162511001/19/16 16:25:31  5-MIN K1J0 192225Z AUTO 01003KT 10SM CLR 11/M04 A3039 -340 36 -900 010/03 RMK AO2 T01061039
63871K1J0 1J020160119163011001/19/16 16:30:31  5-MIN K1J0 192230Z AUTO 00000KT 10SM CLR 11/M03 A3039 -340 39 -900 000/00 RMK AO2 T01061028
63871K1J0 1J020160119163511001/19/16 16:35:31  5-MIN K1J0 192235Z AUTO 00000KT 10SM CLR 10/M03 A3039 -340 40 -900 000/00 RMK AO2 T01001028
63871K1J0 1J020160119164011001/19/16 16:40:31  5-MIN K1J0 192240Z AUTO 33003KT 10SM CLR 10/M04 A3039 -340 37 -900 330/03 RMK AO2 T01001039
63871K1J0 1J020160119164511001/19/16 16:45:31  5-MIN K1J0 192245Z AUTO 00000KT 10SM CLR 10/M03 A3039 -340 39 -900 000/00 RMK AO2 T01001033
63871K1J0 1J020160119165011001/19/16 16:50:31  5-MIN K1J0 192250Z AUTO 33003KT 10SM CLR 10/M04 A3040 -350 37 -900 330/03 RMK AO2 T01001039
63871K1J0 1J020160119165511801/19/16 16:55:31  5-MIN K1J0 192255Z AUTO 00000KT 10SM CLR 09/M01 A3040 -350 49 -1100 000/00 RMK AO2 SLP280 T00891011
63871K1J0 1J020160119170011101/19/16 17:00:31  5-MIN K1J0 192300Z AUTO 00000KT 10SM CLR 09/M02 A3040 -350 47 -1100 000/00 RMK AO2 T00891017
63871K1J0 1J020160119170511101/19/16 17:05:31  5-MIN K1J0 192305Z AUTO 00000KT 10SM CLR 08/M02 A3040 -350 49 -1100 000/00 RMK AO2 T00831017
63871K1J0 1J020160119171011001/19/16 17:10:31  5-MIN K1J0 192310Z AUTO 00000KT 10SM CLR 08/01 A3040 -350 62 -1200 000/00 RMK AO2 T00780011
63871K1J0 1J020160119171511001/19/16 17:15:31  5-MIN K1J0 192315Z AUTO 00000KT 10SM CLR 07/01 A3040 -350 65 -1300 000/00 RMK AO2 T00720011
63871K1J0 1J020160119172011001/19/16 17:20:31  5-MIN K1J0 192320Z AUTO 00000KT 10SM CLR 07/01 A3040 -350 62 -1300 000/00 RMK AO2 T00720006
63871K1J0 1J020160119172511001/19/16 17:25:31  5-MIN K1J0 192325Z AUTO 00000KT 10SM CLR 07/01 A3040 -350 62 -1300 000/00 RMK AO2 T00720006
63871K1J0 1J020160119173011001/19/16 17:30:31  5-MIN K1J0 192330Z AUTO 00000KT 10SM CLR 07/01 A3040 -350 65 -1400 000/00 RMK AO2 T00670006
63871K1J0 1J020160119173511001/19/16 17:35:31  5-MIN K1J0 192335Z AUTO 00000KT 10SM CLR 07/01 A3040 -350 67 -1400 000/00 RMK AO2 T00670011
63871K1J0 1J020160119174011001/19/16 17:40:31  5-MIN K1J0 192340Z AUTO 00000KT 10SM CLR 06/02 A3040 -350 73 -1400 000/00 RMK AO2 T00610017
63871K1J0 1J020160119174511001/19/16 17:45:31  5-MIN K1J0 192345Z AUTO 00000KT 10SM CLR 06/02 A3040 -350 76 -1400 000/00 RMK AO2 T00610022
63871K1J0 1J020160119175011001/19/16 17:50:31  5-MIN K1J0 192350Z AUTO 00000KT 10SM CLR 06/02 A3040 -350 76 -1500 000/00 RMK AO2 T00560017
63871K1J0 1J020160119175513501/19/16 17:55:31  5-MIN K1J0 192355Z AUTO 00000KT 10SM CLR 06/02 A3040 -350 76 -1500 000/00 RMK AO2 SLP281 T00560017 10117 20056 56021
63871K1J0 1J020160119180011001/19/16 18:00:31  5-MIN K1J0 200000Z AUTO 00000KT 10SM CLR 06/02 A3040 -350 76 -1500 000/00 RMK AO2 T00560017
63871K1J0 1J020160119180511001/19/16 18:05:31  5-MIN K1J0 200005Z AUTO 00000KT 10SM CLR 06/02 A3040 -350 79 -1500 000/00 RMK AO2 T00560022
63871K1J0 1J020160119181011001/19/16 18:10:31  5-MIN K1J0 200010Z AUTO 00000KT 10SM CLR 05/02 A3040 -350 79 -1600 000/00 RMK AO2 T00500017
63871K1J0 1J020160119181511001/19/16 18:15:31  5-MIN K1J0 200015Z AUTO 00000KT 10SM CLR 05/01 A3040 -350 76 -1600 000/00 RMK AO2 T00500011
63871K1J0 1J020160119182011001/19/16 18:20:31  5-MIN K1J0 200020Z AUTO 00000KT 10SM CLR 04/01 A3040 -350 79 -1600 000/00 RMK AO2 T00440011
63871K1J0 1J020160119182511001/19/16 18:25:31  5-MIN K1J0 200025Z AUTO 00000KT 10SM CLR 04/01 A3040 -350 79 -1600 000/00 RMK AO2 T00440011
63871K1J0 1J020160119183011001/19/16 18:30:31  5-MIN K1J0 200030Z AUTO 00000KT 10SM CLR 04/02 A3040 -350 82 -1600 000/00 RMK AO2 T00440017
63871K1J0 1J020160119183511001/19/16 18:35:31  5-MIN K1J0 200035Z AUTO 00000KT 10SM CLR 04/02 A3041 -360 85 -1700 000/00 RMK AO2 T00390017
63871K1J0 1J020160119184011001/19/16 18:40:31  5-MIN K1J0 200040Z AUTO 00000KT 10SM CLR 04/02 A3041 -360 85 -1700 000/00 RMK AO2 T00390017
63871K1J0 1J020160119184511001/19/16 18:45:31  5-MIN K1J0 200045Z AUTO 00000KT 10SM CLR 04/01 A3041 -360 82 -1700 000/00 RMK AO2 T00390011
63871K1J0 1J020160119185011001/19/16 18:50:31  5-MIN K1J0 200050Z AUTO 00000KT 10SM CLR 04/01 A3041 -350 82 -1700 000/00 RMK AO2 T00390011
63871K1J0 1J020160119185511701/19/16 18:55:31  5-MIN K1J0 200055Z AUTO 00000KT 10SM CLR 04/01 A3041 -360 82 -1700 000/00 RMK AO2 SLP283 T00390011
63871K1J0 1J020160119190011001/19/16 19:00:31  5-MIN K1J0 200100Z AUTO 00000KT 10SM CLR 04/01 A3041 -350 82 -1700 000/00 RMK AO2 T00390011
63871K1J0 1J020160119190511001/19/16 19:05:31  5-MIN K1J0 200105Z AUTO 00000KT 10SM CLR 03/01 A3041 -360 85 -1800 000/00 RMK AO2 T00330011
63871K1J0 1J020160119191011001/19/16 19:10:31  5-MIN K1J0 200110Z AUTO 00000KT 10SM CLR 03/01 A3041 -350 85 -1800 000/00 RMK AO2 T00330011
63871K1J0 1J020160119191511001/19/16 19:15:31  5-MIN K1J0 200115Z AUTO 00000KT 10SM CLR 03/01 A3041 -360 85 -1800 000/00 RMK AO2 T00330011
63871K1J0 1J020160119192011001/19/16 19:20:31  5-MIN K1J0 200120Z AUTO 00000KT 10SM CLR 03/01 A3041 -360 85 -1800 000/00 RMK AO2 T00330011
63871K1J0 1J020160119192511001/19/16 19:25:31  5-MIN K1J0 200125Z AUTO 00000KT 10SM CLR 03/01 A3041 -360 89 -1900 000/00 RMK AO2 T00280011
63871K1J0 1J020160119193011001/19/16 19:30:31  5-MIN K1J0 200130Z AUTO 00000KT 10SM CLR 03/01 A3041 -360 89 -1900 000/00 RMK AO2 T00280011
63871K1J0 1J020160119193511001/19/16 19:35:31  5-MIN K1J0 200135Z AUTO 00000KT 10SM CLR 03/01 A3041 -360 89 -1900 000/00 RMK AO2 T00280011
63871K1J0 1J020160119194011001/19/16 19:40:31  5-MIN K1J0 200140Z AUTO 00000KT 10SM CLR 03/01 A3041 -360 89 -1900 000/00 RMK AO2 T00280011
63871K1J0 1J020160119194511001/19/16 19:45:31  5-MIN K1J0 200145Z AUTO 00000KT 10SM CLR 03/01 A3041 -360 89 -1900 000/00 RMK AO2 T00280011
63871K1J0 1J020160119195011001/19/16 19:50:31  5-MIN K1J0 200150Z AUTO 00000KT 10SM CLR 03/01 A3041 -360 89 -1900 000/00 RMK AO2 T00280011
63871K1J0 1J020160119195511701/19/16 19:55:31  5-MIN K1J0 200155Z AUTO 00000KT 10SM CLR 03/01 A3041 -360 89 -1900 000/00 RMK AO2 SLP285 T00280011
63871K1J0 1J020160119200011001/19/16 20:00:31  5-MIN K1J0 200200Z AUTO 00000KT 10SM CLR 03/01 A3041 -360 89 -1900 000/00 RMK AO2 T00280011
63871K1J0 1J020160119200511001/19/16 20:05:31  5-MIN K1J0 200205Z AUTO 00000KT 10SM CLR 03/01 A3041 -360 89 -1900 000/00 RMK AO2 T00280011
63871K1J0 1J020160119201011001/19/16 20:10:31  5-MIN K1J0 200210Z AUTO 00000KT 10SM CLR 03/01 A3041 -360 89 -1900 000/00 RMK AO2 T00280011
63871K1J0 1J020160119201511001/19/16 20:15:31  5-MIN K1J0 200215Z AUTO 00000KT 10SM CLR 02/01 A3041 -360 89 -1900 000/00 RMK AO2 T00220006
63871K1J0 1J020160119202011001/19/16 20:20:31  5-MIN K1J0 200220Z AUTO 00000KT 10SM CLR 02/01 A3041 -360 89 -1900 000/00 RMK AO2 T00220006
63871K1J0 1J020160119202511001/19/16 20:25:31  5-MIN K1J0 200225Z AUTO 00000KT 10SM CLR 02/01 A3041 -360 89 -1900 000/00 RMK AO2 T00220006
63871K1J0 1J020160119203011001/19/16 20:30:31  5-MIN K1J0 200230Z AUTO 00000KT 10SM CLR 02/01 A3041 -360 89 -1900 000/00 RMK AO2 T00220006
63871K1J0 1J020160119203511001/19/16 20:35:31  5-MIN K1J0 200235Z AUTO 00000KT 10SM CLR 02/01 A3041 -360 89 -1900 000/00 RMK AO2 T00220006
63871K1J0 1J020160119204011001/19/16 20:40:31  5-MIN K1J0 200240Z AUTO 00000KT 10SM CLR 02/01 A3041 -360 89 -1900 000/00 RMK AO2 T00220006
63871K1J0 1J020160119204511001/19/16 20:45:31  5-MIN K1J0 200245Z AUTO 00000KT 10SM CLR 02/01 A3041 -360 89 -1900 000/00 RMK AO2 T00220006
63871K1J0 1J020160119205011001/19/16 20:50:31  5-MIN K1J0 200250Z AUTO 00000KT 10SM CLR 02/01 A3041 -360 89 -1900 000/00 RMK AO2 T00220006
63871K1J0 1J020160119205512301/19/16 20:55:31  5-MIN K1J0 200255Z AUTO 00000KT 10SM CLR 02/01 A3041 -360 89 -1900 000/00 RMK AO2 SLP285 T00220006 53003
63871K1J0 1J020160119210011001/19/16 21:00:31  5-MIN K1J0 200300Z AUTO 00000KT 10SM CLR 02/01 A3041 -360 89 -1900 000/00 RMK AO2 T00220006
63871K1J0 1J020160119210511001/19/16 21:05:31  5-MIN K1J0 200305Z AUTO 00000KT 10SM CLR 02/01 A3041 -360 92 -2000 000/00 RMK AO2 T00170006
63871K1J0 1J020160119211011001/19/16 21:10:31  5-MIN K1J0 200310Z AUTO 00000KT 10SM CLR 02/01 A3042 -370 92 -2000 000/00 RMK AO2 T00170006
63871K1J0 1J020160119211511001/19/16 21:15:31  5-MIN K1J0 200315Z AUTO 00000KT 10SM CLR 02/00 A3042 -370 89 -2000 000/00 RMK AO2 T00170000
63871K1J0 1J020160119212011001/19/16 21:20:31  5-MIN K1J0 200320Z AUTO 03003KT 10SM CLR 01/00 A3042 -370 92 -2100 030/03 RMK AO2 T00110000
63871K1J0 1J020160119212511001/19/16 21:25:31  5-MIN K1J0 200325Z AUTO 00000KT 10SM CLR 01/00 A3042 -370 92 -2100 000/00 RMK AO2 T00110000
63871K1J0 1J020160119213011001/19/16 21:30:31  5-MIN K1J0 200330Z AUTO 00000KT 10SM CLR 02/00 A3042 -360 89 -2000 000/00 RMK AO2 T00170000
63871K1J0 1J020160119213511001/19/16 21:35:31  5-MIN K1J0 200335Z AUTO 00000KT 10SM CLR 02/00 A3042 -360 89 -2000 000/00 RMK AO2 T00170000
63871K1J0 1J020160119214011001/19/16 21:40:31  5-MIN K1J0 200340Z AUTO 00000KT 10SM CLR 02/00 A3042 -360 89 -2000 000/00 RMK AO2 T00170000
63871K1J0 1J020160119214511001/19/16 21:45:31  5-MIN K1J0 200345Z AUTO 00000KT 10SM CLR 01/00 A3042 -370 92 -2100 000/00 RMK AO2 T00110000
63871K1J0 1J020160119215011001/19/16 21:50:31  5-MIN K1J0 200350Z AUTO 00000KT 10SM CLR 01/00 A3042 -360 92 -2100 000/00 RMK AO2 T00110000
63871K1J0 1J020160119215511701/19/16 21:55:31  5-MIN K1J0 200355Z AUTO 00000KT 10SM CLR 01/00 A3041 -360 92 -2100 000/00 RMK AO2 SLP285 T00110000
63871K1J0 1J020160119220011001/19/16 22:00:31  5-MIN K1J0 200400Z AUTO 00000KT 10SM CLR 02/00 A3042 -360 89 -2000 000/00 RMK AO2 T00170000
63871K1J0 1J020160119220511001/19/16 22:05:31  5-MIN K1J0 200405Z AUTO 00000KT 10SM CLR 02/00 A3042 -360 89 -2000 000/00 RMK AO2 T00170000
63871K1J0 1J020160119221011001/19/16 22:10:31  5-MIN K1J0 200410Z AUTO 00000KT 10SM CLR 01/00 A3042 -370 92 -2100 000/00 RMK AO2 T00110000
63871K1J0 1J020160119221511001/19/16 22:15:31  5-MIN K1J0 200415Z AUTO 00000KT 10SM CLR 01/00 A3042 -370 92 -2100 000/00 RMK AO2 T00110000
63871K1J0 1J020160119222011001/19/16 22:20:31  5-MIN K1J0 200420Z AUTO 00000KT 10SM CLR 01/01 A3041 -360 96 -2100 000/00 RMK AO2 T00110006
63871K1J0 1J020160119222511001/19/16 22:25:31  5-MIN K1J0 200425Z AUTO 00000KT 10SM CLR 01/00 A3041 -360 92 -2100 000/00 RMK AO2 T00110000
63871K1J0 1J020160119223011001/19/16 22:30:31  5-MIN K1J0 200430Z AUTO 00000KT 10SM CLR 01/00 A3041 -360 92 -2100 000/00 RMK AO2 T00110000
63871K1J0 1J020160119223511101/19/16 22:35:31  5-MIN K1J0 200435Z AUTO 00000KT 10SM CLR 01/M01 A3041 -360 89 -2100 000/00 RMK AO2 T00111006
63871K1J0 1J020160119224011001/19/16 22:40:31  5-MIN K1J0 200440Z AUTO 00000KT 10SM CLR 01/00 A3042 -360 92 -2100 000/00 RMK AO2 T00110000
63871K1J0 1J020160119224511001/19/16 22:45:31  5-MIN K1J0 200445Z AUTO 00000KT 10SM CLR 01/00 A3041 -360 92 -2100 000/00 RMK AO2 T00110000
63871K1J0 1J020160119225011001/19/16 22:50:31  5-MIN K1J0 200450Z AUTO 00000KT 10SM CLR 01/00 A3041 -360 92 -2100 000/00 RMK AO2 T00110000
63871K1J0 1J020160119225511701/19/16 22:55:31  5-MIN K1J0 200455Z AUTO 00000KT 10SM CLR 01/00 A3041 -360 96 -2100 000/00 RMK AO2 SLP283 T00060000
63871K1J0 1J020160119230011101/19/16 23:00:31  5-MIN K1J0 200500Z AUTO 00000KT 10SM CLR 01/M01 A3040 -350 92 -2100 000/00 RMK AO2 T00061006
63871K1J0 1J020160119230511101/19/16 23:05:31  5-MIN K1J0 200505Z AUTO 00000KT 10SM CLR 01/M01 A3041 -360 92 -2100 000/00 RMK AO2 T00061006
63871K1J0 1J020160119231011101/19/16 23:10:31  5-MIN K1J0 200510Z AUTO 00000KT 10SM CLR 01/M01 A3041 -350 92 -2100 000/00 RMK AO2 T00061006
63871K1J0 1J020160119231511101/19/16 23:15:31  5-MIN K1J0 200515Z AUTO 00000KT 10SM CLR 01/M01 A3040 -350 92 -2100 000/00 RMK AO2 T00061006
63871K1J0 1J020160119232011101/19/16 23:20:31  5-MIN K1J0 200520Z AUTO 00000KT 10SM CLR 01/M01 A3040 -350 92 -2100 000/00 RMK AO2 T00061006
63871K1J0 1J020160119232511101/19/16 23:25:31  5-MIN K1J0 200525Z AUTO 00000KT 10SM CLR 00/M01 A3040 -350 96 -2200 000/00 RMK AO2 T00001006
63871K1J0 1J020160119233011101/19/16 23:30:31  5-MIN K1J0 200530Z AUTO 00000KT 10SM CLR 00/M01 A3039 -340 92 -2200 000/00 RMK AO2 T00001011
63871K1J0 1J020160119233511101/19/16 23:35:31  5-MIN K1J0 200535Z AUTO 00000KT 10SM CLR 01/M01 A3039 -340 92 -2100 000/00 RMK AO2 T00061006
63871K1J0 1J020160119234011101/19/16 23:40:31  5-MIN K1J0 200540Z AUTO 00000KT 10SM CLR 01/M01 A3039 -340 92 -2100 000/00 RMK AO2 T00061006
63871K1J0 1J020160119234511101/19/16 23:45:31  5-MIN K1J0 200545Z AUTO 00000KT 10SM CLR 01/M01 A3039 -340 92 -2100 000/00 RMK AO2 T00061006
63871K1J0 1J020160119235011101/19/16 23:50:31  5-MIN K1J0 200550Z AUTO 00000KT 10SM CLR 00/M01 A3039 -340 96 -2200 000/00 RMK AO2 T00001006
63871K1J0 1J020160119235514601/19/16 23:55:31  5-MIN K1J0 200555Z AUTO 00000KT 10SM CLR 01/M01 A3039 -340 92 -2100 000/00 RMK AO2 SLP277 T00061006 10056 20000 401171011 50004
63871K1J0 1J020160120000011101/20/16 00:00:31  5-MIN K1J0 200600Z AUTO 00000KT 10SM CLR 00/M01 A3038 -340 96 -2200 000/00 RMK AO2 T00001006
63871K1J0 1J020160120000511101/20/16 00:05:31  5-MIN K1J0 200605Z AUTO 00000KT 10SM CLR 00/M01 A3038 -330 92 -2200 000/00 RMK AO2 T00001011
63871K1J0 1J020160120001011101/20/16 00:10:31  5-MIN K1J0 200610Z AUTO 00000KT 10SM CLR 00/M01 A3037 -330 92 -2200 000/00 RMK AO2 T00001011
63871K1J0 1J020160120001511101/20/16 00:15:31  5-MIN K1J0 200615Z AUTO 00000KT 10SM CLR 00/M01 A3037 -320 92 -2200 000/00 RMK AO2 T00001011
63871K1J0 1J020160120002011101/20/16 00:20:31  5-MIN K1J0 200620Z AUTO 00000KT 10SM CLR 00/M01 A3037 -320 92 -2200 000/00 RMK AO2 T00001011
63871K1J0 1J020160120002511101/20/16 00:25:31  5-MIN K1J0 200625Z AUTO 00000KT 10SM CLR 00/M01 A3037 -330 92 -2200 000/00 RMK AO2 T00001011
63871K1J0 1J020160120003011101/20/16 00:30:31  5-MIN K1J0 200630Z AUTO 00000KT 10SM CLR 00/M01 A3038 -330 92 -2200 000/00 RMK AO2 T00001011
63871K1J0 1J020160120003511101/20/16 00:35:31  5-MIN K1J0 200635Z AUTO 00000KT 10SM CLR 00/M01 A3038 -330 92 -2200 000/00 RMK AO2 T00001011
63871K1J0 1J020160120004011101/20/16 00:40:31  5-MIN K1J0 200640Z AUTO 00000KT 10SM CLR 00/M01 A3038 -330 92 -2200 000/00 RMK AO2 T00001011
63871K1J0 1J020160120004511101/20/16 00:45:31  5-MIN K1J0 200645Z AUTO 00000KT 10SM CLR 00/M01 A3038 -330 92 -2200 000/00 RMK AO2 T00001011
63871K1J0 1J020160120005011101/20/16 00:50:31  5-MIN K1J0 200650Z AUTO 00000KT 10SM CLR 00/M01 A3038 -330 92 -2200 000/00 RMK AO2 T00001011
63871K1J0 1J020160120005511801/20/16 00:55:31  5-MIN K1J0 200655Z AUTO 00000KT 10SM CLR 00/M01 A3038 -330 92 -2200 000/00 RMK AO2 SLP273 T00001011
63871K1J0 1J020160120010011201/20/16 01:00:31  5-MIN K1J0 200700Z AUTO 00000KT 10SM CLR M01/M01 A3038 -330 96 -2200 000/00 RMK AO2 T10061011
63871K1J0 1J020160120010511201/20/16 01:05:31  5-MIN K1J0 200705Z AUTO 00000KT 10SM CLR M01/M02 A3037 -330 92 -2200 000/00 RMK AO2 T10061017
63871K1J0 1J020160120011011201/20/16 01:10:31  5-MIN K1J0 200710Z AUTO 00000KT 10SM CLR M01/M01 A3037 -330 96 -2200 000/00 RMK AO2 T10061011
63871K1J0 1J020160120011511201/20/16 01:15:31  5-MIN K1J0 200715Z AUTO 00000KT 10SM CLR M01/M02 A3037 -320 92 -2200 000/00 RMK AO2 T10061017
63871K1J0 1J020160120012011201/20/16 01:20:31  5-MIN K1J0 200720Z AUTO 00000KT 10SM CLR M01/M01 A3037 -330 96 -2200 000/00 RMK AO2 T10061011
63871K1J0 1J020160120012511101/20/16 01:25:31  5-MIN K1J0 200725Z AUTO 00000KT 10SM CLR 00/M01 A3037 -320 92 -2200 000/00 RMK AO2 T00001011
63871K1J0 1J020160120013011201/20/16 01:30:31  5-MIN K1J0 200730Z AUTO 00000KT 10SM CLR M01/M01 A3037 -320 96 -2200 000/00 RMK AO2 T10061011
63871K1J0 1J020160120013511101/20/16 01:35:31  5-MIN K1J0 200735Z AUTO 00000KT 10SM CLR 00/M02 A3037 -320 88 -2200 000/00 RMK AO2 T00001017
63871K1J0 1J020160120014011101/20/16 01:40:31  5-MIN K1J0 200740Z AUTO 00000KT 10SM CLR 00/M01 A3037 -320 92 -2200 000/00 RMK AO2 T00001011
63871K1J0 1J020160120014511101/20/16 01:45:31  5-MIN K1J0 200745Z AUTO 00000KT 10SM CLR 00/M01 A3037 -320 92 -2200 000/00 RMK AO2 T00001011
63871K1J0 1J020160120015011201/20/16 01:50:31  5-MIN K1J0 200750Z AUTO 00000KT 10SM CLR M01/M01 A3037 -330 96 -2200 000/00 RMK AO2 T10061011
63871K1J0 1J020160120015511901/20/16 01:55:31  5-MIN K1J0 200755Z AUTO 00000KT 10SM CLR M01/M01 A3037 -320 96 -2200 000/00 RMK AO2 SLP270 T10061011
63871K1J0 1J020160120020011201/20/16 02:00:31  5-MIN K1J0 200800Z AUTO 00000KT 10SM CLR M01/M02 A3037 -320 92 -2200 000/00 RMK AO2 T10061017
63871K1J0 1J020160120020511201/20/16 02:05:31  5-MIN K1J0 200805Z AUTO 00000KT 10SM CLR M01/M02 A3036 -320 92 -2200 000/00 RMK AO2 T10061017
63871K1J0 1J020160120021011201/20/16 02:10:31  5-MIN K1J0 200810Z AUTO 00000KT 10SM CLR M01/M02 A3036 -320 92 -2200 000/00 RMK AO2 T10061017
63871K1J0 1J020160120021511201/20/16 02:15:31  5-MIN K1J0 200815Z AUTO 00000KT 10SM CLR M01/M02 A3036 -310 92 -2200 000/00 RMK AO2 T10061017
63871K1J0 1J020160120022011201/20/16 02:20:31  5-MIN K1J0 200820Z AUTO 00000KT 10SM CLR M01/M02 A3036 -310 92 -2200 000/00 RMK AO2 T10061017
63871K1J0 1J020160120022511201/20/16 02:25:31  5-MIN K1J0 200825Z AUTO 00000KT 10SM CLR M01/M02 A3036 -310 92 -2300 000/00 RMK AO2 T10111022
63871K1J0 1J020160120023011201/20/16 02:30:31  5-MIN K1J0 200830Z AUTO 00000KT 10SM CLR M01/M02 A3036 -310 92 -2200 000/00 RMK AO2 T10061017
63871K1J0 1J020160120023511201/20/16 02:35:31  5-MIN K1J0 200835Z AUTO 00000KT 10SM CLR M01/M02 A3036 -310 92 -2200 000/00 RMK AO2 T10061017
63871K1J0 1J020160120024011201/20/16 02:40:31  5-MIN K1J0 200840Z AUTO 00000KT 10SM CLR M01/M02 A3036 -310 92 -2200 000/00 RMK AO2 T10061017
63871K1J0 1J020160120024511201/20/16 02:45:31  5-MIN K1J0 200845Z AUTO 00000KT 10SM CLR M01/M02 A3036 -310 92 -2200 000/00 RMK AO2 T10061017
63871K1J0 1J020160120025011201/20/16 02:50:31  5-MIN K1J0 200850Z AUTO 00000KT 10SM CLR M01/M02 A3036 -310 92 -2200 000/00 RMK AO2 T10061017
63871K1J0 1J020160120025512501/20/16 02:55:31  5-MIN K1J0 200855Z AUTO 00000KT 10SM CLR M01/M02 A3035 -310 92 -2200 000/00 RMK AO2 SLP264 T10061017 58009
63871K1J0 1J020160120030011201/20/16 03:00:31  5-MIN K1J0 200900Z AUTO 00000KT 10SM CLR M01/M02 A3035 -300 96 -2300 000/00 RMK AO2 T10111017
63871K1J0 1J020160120030511201/20/16 03:05:31  5-MIN K1J0 200905Z AUTO 00000KT 10SM CLR M01/M02 A3035 -300 92 -2200 000/00 RMK AO2 T10061017
63871K1J0 1J020160120031011201/20/16 03:10:31  5-MIN K1J0 200910Z AUTO 00000KT 10SM CLR M01/M02 A3035 -300 92 -2200 000/00 RMK AO2 T10061017
63871K1J0 1J020160120031511201/20/16 03:15:31  5-MIN K1J0 200915Z AUTO 00000KT 10SM CLR M01/M02 A3035 -310 92 -2200 000/00 RMK AO2 T10061017
63871K1J0 1J020160120032011201/20/16 03:20:31  5-MIN K1J0 200920Z AUTO 00000KT 10SM CLR M01/M02 A3035 -300 92 -2200 000/00 RMK AO2 T10061017
63871K1J0 1J020160120032511201/20/16 03:25:31  5-MIN K1J0 200925Z AUTO 00000KT 10SM CLR M01/M02 A3034 -300 92 -2200 000/00 RMK AO2 T10061017
63871K1J0 1J020160120033011201/20/16 03:30:31  5-MIN K1J0 200930Z AUTO 00000KT 10SM CLR M01/M02 A3034 -300 92 -2200 000/00 RMK AO2 T10061017
63871K1J0 1J020160120033511201/20/16 03:35:31  5-MIN K1J0 200935Z AUTO 00000KT 10SM CLR M01/M01 A3035 -300 96 -2200 000/00 RMK AO2 T10061011
63871K1J0 1J020160120034011201/20/16 03:40:31  5-MIN K1J0 200940Z AUTO 00000KT 10SM CLR M01/M02 A3034 -300 92 -2200 000/00 RMK AO2 T10061017
63871K1J0 1J020160120034511201/20/16 03:45:31  5-MIN K1J0 200945Z AUTO 00000KT 10SM CLR M01/M02 A3034 -300 92 -2200 000/00 RMK AO2 T10061017
63871K1J0 1J020160120035011201/20/16 03:50:31  5-MIN K1J0 200950Z AUTO 00000KT 10SM CLR M01/M02 A3035 -300 92 -2200 000/00 RMK AO2 T10061017
63871K1J0 1J020160120035511901/20/16 03:55:31  5-MIN K1J0 200955Z AUTO 00000KT 10SM CLR M01/M02 A3035 -300 92 -2200 000/00 RMK AO2 SLP262 T10061017
63871K1J0 1J020160120040011201/20/16 04:00:31  5-MIN K1J0 201000Z AUTO 00000KT 10SM CLR M01/M02 A3035 -300 96 -2300 000/00 RMK AO2 T10111017
63871K1J0 1J020160120040511201/20/16 04:05:31  5-MIN K1J0 201005Z AUTO 00000KT 10SM CLR M01/M02 A3035 -300 92 -2200 000/00 RMK AO2 T10061017
63871K1J0 1J020160120041011201/20/16 04:10:31  5-MIN K1J0 201010Z AUTO 00000KT 10SM CLR M01/M02 A3035 -310 92 -2200 000/00 RMK AO2 T10061017
63871K1J0 1J020160120041511201/20/16 04:15:31  5-MIN K1J0 201015Z AUTO 00000KT 10SM CLR M01/M02 A3036 -310 92 -2200 000/00 RMK AO2 T10061017
63871K1J0 1J020160120042011201/20/16 04:20:31  5-MIN K1J0 201020Z AUTO 00000KT 10SM CLR M01/M02 A3036 -310 92 -2200 000/00 RMK AO2 T10061017
63871K1J0 1J020160120042511201/20/16 04:25:31  5-MIN K1J0 201025Z AUTO 00000KT 10SM CLR M01/M02 A3036 -310 92 -2300 000/00 RMK AO2 T10111022
63871K1J0 1J020160120043011201/20/16 04:30:31  5-MIN K1J0 201030Z AUTO 00000KT 10SM CLR M01/M02 A3036 -310 92 -2300 000/00 RMK AO2 T10111022
63871K1J0 1J020160120043511201/20/16 04:35:31  5-MIN K1J0 201035Z AUTO 00000KT 10SM CLR M01/M02 A3036 -310 92 -2300 000/00 RMK AO2 T10111022
63871K1J0 1J020160120044011201/20/16 04:40:31  5-MIN K1J0 201040Z AUTO 00000KT 10SM CLR M01/M02 A3036 -320 88 -2200 000/00 RMK AO2 T10061022
63871K1J0 1J020160120044511201/20/16 04:45:31  5-MIN K1J0 201045Z AUTO 00000KT 10SM CLR M01/M02 A3036 -320 96 -2300 000/00 RMK AO2 T10111017
63871K1J0 1J020160120045011201/20/16 04:50:31  5-MIN K1J0 201050Z AUTO 00000KT 10SM CLR M01/M02 A3036 -320 92 -2300 000/00 RMK AO2 T10111022
63871K1J0 1J020160120045511901/20/16 04:55:31  5-MIN K1J0 201055Z AUTO 00000KT 10SM CLR M01/M02 A3036 -310 92 -2200 000/00 RMK AO2 SLP267 T10061017
63871K1J0 1J020160120050011201/20/16 05:00:31  5-MIN K1J0 201100Z AUTO 00000KT 10SM CLR M01/M02 A3036 -310 92 -2300 000/00 RMK AO2 T10111022
63871K1J0 1J020160120050511201/20/16 05:05:31  5-MIN K1J0 201105Z AUTO 00000KT 10SM CLR M01/M02 A3036 -310 96 -2300 000/00 RMK AO2 T10111017
63871K1J0 1J020160120051012701/20/16 05:10:31  5-MIN K1J0 201110Z AUTO 17004KT 10SM UP CLR M01/M02 A3035 -310 96 -2300 170/04 RMK AO2 UPB07 P0000 T10111017
63871K1J0 1J020160120051512701/20/16 05:15:31  5-MIN K1J0 201115Z AUTO 17004KT 10SM UP CLR M01/M02 A3035 -310 96 -2300 170/04 RMK AO2 UPB07 P0000 T10111017
63871K1J0 1J020160120052012701/20/16 05:20:31  5-MIN K1J0 201120Z AUTO 00000KT 10SM CLR M01/M02 A3036 -310 96 -2300 000/00 RMK AO2 UPB07E17 P0000 T10111017
63871K1J0 1J020160120052512701/20/16 05:25:31  5-MIN K1J0 201125Z AUTO 00000KT 10SM CLR M01/M02 A3036 -310 96 -2300 000/00 RMK AO2 UPB07E17 P0000 T10111017
63871K1J0 1J020160120053012701/20/16 05:30:31  5-MIN K1J0 201130Z AUTO 00000KT 10SM CLR M01/M02 A3036 -310 96 -2300 000/00 RMK AO2 UPB07E17 P0000 T10111017
63871K1J0 1J020160120053512701/20/16 05:35:31  5-MIN K1J0 201135Z AUTO 16003KT 10SM CLR M01/M02 A3035 -310 92 -2200 160/03 RMK AO2 UPB07E17 P0000 T10061017
63871K1J0 1J020160120054012701/20/16 05:40:31  5-MIN K1J0 201140Z AUTO 00000KT 10SM CLR M01/M02 A3036 -310 96 -2300 000/00 RMK AO2 UPB07E17 P0000 T10111017
63871K1J0 1J020160120054512701/20/16 05:45:31  5-MIN K1J0 201145Z AUTO 17003KT 10SM CLR M01/M02 A3036 -310 96 -2300 170/03 RMK AO2 UPB07E17 P0000 T10111017
63871K1J0 1J020160120055012701/20/16 05:50:31  5-MIN K1J0 201150Z AUTO 00000KT 10SM CLR M01/M02 A3035 -310 96 -2300 000/00 RMK AO2 UPB07E17 P0000 T10111017
63871K1J0 1J020160120055515801/20/16 05:55:31  5-MIN K1J0 201155Z AUTO 00000KT 10SM CLR M01/M02 A3035 -300 92 -2200 000/00 RMK AO2 UPB07E17 SLP263 P0000 60000 T10061017 10000 21011 58013
63871K1J0 1J020160120060011201/20/16 06:00:31  5-MIN K1J0 201200Z AUTO 00000KT 10SM CLR M01/M02 A3035 -310 96 -2300 000/00 RMK AO2 T10111017
63871K1J0 1J020160120060511201/20/16 06:05:31  5-MIN K1J0 201205Z AUTO 00000KT 10SM CLR M01/M02 A3035 -310 92 -2200 000/00 RMK AO2 T10061017
63871K1J0 1J020160120061011201/20/16 06:10:31  5-MIN K1J0 201210Z AUTO 00000KT 10SM CLR M01/M02 A3035 -310 92 -2200 000/00 RMK AO2 T10061017
63871K1J0 1J020160120061511201/20/16 06:15:31  5-MIN K1J0 201215Z AUTO 00000KT 10SM CLR M01/M02 A3035 -300 92 -2300 000/00 RMK AO2 T10111022
63871K1J0 1J020160120062011201/20/16 06:20:31  5-MIN K1J0 201220Z AUTO 00000KT 10SM CLR M01/M02 A3034 -300 92 -2300 000/00 RMK AO2 T10111022
63871K1J0 1J020160120062511201/20/16 06:25:31  5-MIN K1J0 201225Z AUTO 00000KT 10SM CLR M02/M02 A3034 -300 96 -2300 000/00 RMK AO2 T10171022
63871K1J0 1J020160120063011201/20/16 06:30:31  5-MIN K1J0 201230Z AUTO 00000KT 10SM CLR M01/M02 A3034 -300 92 -2300 000/00 RMK AO2 T10111022
63871K1J0 1J020160120063511201/20/16 06:35:31  5-MIN K1J0 201235Z AUTO 00000KT 10SM CLR M01/M02 A3034 -300 92 -2300 000/00 RMK AO2 T10111022
63871K1J0 1J020160120064011201/20/16 06:40:31  5-MIN K1J0 201240Z AUTO 00000KT 10SM CLR M01/M02 A3034 -300 92 -2300 000/00 RMK AO2 T10111022
63871K1J0 1J020160120064511201/20/16 06:45:31  5-MIN K1J0 201245Z AUTO 00000KT 10SM CLR M01/M02 A3034 -290 92 -2300 000/00 RMK AO2 T10111022
63871K1J0 1J020160120065011201/20/16 06:50:31  5-MIN K1J0 201250Z AUTO 14003KT 10SM CLR M01/M02 A3034 -290 92 -2300 140/03 RMK AO2 T10111022
63871K1J0 1J020160120065510901/20/16 06:55:31  5-MIN K1J0 201255Z AUTO 10SM CLR M01/M02 A3034 -290 88 -2200 M /M RMK AO2 SLP259 T10061022
63871K1J0 1J020160120070011201/20/16 07:00:31  5-MIN K1J0 201300Z AUTO 00000KT 10SM CLR M01/M02 A3033 -290 92 -2200 000/00 RMK AO2 T10061017
63871K1J0 1J020160120070511201/20/16 07:05:31  5-MIN K1J0 201305Z AUTO 00000KT 10SM CLR M01/M02 A3033 -290 92 -2200 000/00 RMK AO2 T10061017
63871K1J0 1J020160120071011101/20/16 07:10:31  5-MIN K1J0 201310Z AUTO 00000KT 10SM CLR 00/M02 A3033 -290 88 -2100 000/00 RMK AO2 T00001017
63871K1J0 1J020160120071511101/20/16 07:15:31  5-MIN K1J0 201315Z AUTO 00000KT 10SM CLR 01/M02 A3033 -290 85 -2000 000/00 RMK AO2 T00061017
63871K1J0 1J020160120072011101/20/16 07:20:31  5-MIN K1J0 201320Z AUTO 00000KT 10SM CLR 01/M02 A3033 -280 85 -2000 000/00 RMK AO2 T00061017
63871K1J0 1J020160120072511101/20/16 07:25:31  5-MIN K1J0 201325Z AUTO 00000KT 10SM CLR 01/M01 A3032 -280 89 -2000 000/00 RMK AO2 T00061011
63871K1J0 1J020160120073011101/20/16 07:30:31  5-MIN K1J0 201330Z AUTO 00000KT 10SM CLR 01/M01 A3032 -280 89 -2000 000/00 RMK AO2 T00061011
63871K1J0 1J020160120073511101/20/16 07:35:31  5-MIN K1J0 201335Z AUTO 00000KT 10SM CLR 01/M01 A3032 -280 85 -2000 000/00 RMK AO2 T00111011
63871K1J0 1J020160120074011101/20/16 07:40:31  5-MIN K1J0 201340Z AUTO 00000KT 10SM CLR 02/M01 A3032 -270 85 -1900 000/00 RMK AO2 T00171006
63871K1J0 1J020160120074511101/20/16 07:45:31  5-MIN K1J0 201345Z AUTO 00000KT 10SM CLR 02/M01 A3032 -270 85 -1900 000/00 RMK AO2 T00171006
63871K1J0 1J020160120075011101/20/16 07:50:31  5-MIN K1J0 201350Z AUTO 00000KT 10SM CLR 02/M01 A3032 -270 82 -1800 000/00 RMK AO2 T00221006
63871K1J0 1J020160120075511701/20/16 07:55:31  5-MIN K1J0 201355Z AUTO 00000KT 10SM CLR 03/00 A3032 -270 82 -1700 000/00 RMK AO2 SLP252 T00280000
63871K1J0 1J020160120080011001/20/16 08:00:31  5-MIN K1J0 201400Z AUTO 00000KT 10SM CLR 03/00 A3032 -270 82 -1700 000/00 RMK AO2 T00280000
63871K1J0 1J020160120080511101/20/16 08:05:31  5-MIN K1J0 201405Z AUTO 00000KT 10SM CLR 03/M01 A3032 -270 76 -1700 000/00 RMK AO2 T00331006
63871K1J0 1J020160120081011001/20/16 08:10:31  5-MIN K1J0 201410Z AUTO 10003KT 10SM CLR 04/00 A3032 -280 76 -1600 100/03 RMK AO2 T00390000
63871K1J0 1J020160120081511101/20/16 08:15:31  5-MIN K1J0 201415Z AUTO 00000KT 10SM CLR 04/M01 A3032 -280 70 -1500 000/00 RMK AO2 T00441006
63871K1J0 1J020160120082011101/20/16 08:20:31  5-MIN K1J0 201420Z AUTO 12003KT 10SM CLR 05/M01 A3032 -280 67 -1500 120/03 RMK AO2 T00501006
63871K1J0 1J020160120082511101/20/16 08:25:31  5-MIN K1J0 201425Z AUTO VRB03KT 10SM CLR 06/M01 A3032 -280 65 -1400 VRB/03 RMK AO2 T00561006
63871K1J0 1J020160120083011101/20/16 08:30:31  5-MIN K1J0 201430Z AUTO VRB04KT 10SM CLR 06/M02 A3032 -280 59 -1400 VRB/04 RMK AO2 T00561017
63871K1J0 1J020160120083511101/20/16 08:35:31  5-MIN K1J0 201435Z AUTO 16005KT 10SM CLR 06/M02 A3033 -280 57 -1300 160/05 RMK AO2 T00611017
63871K1J0 1J020160120084011101/20/16 08:40:31  5-MIN K1J0 201440Z AUTO 16006KT 10SM CLR 07/M02 A3033 -290 53 -1300 160/06 RMK AO2 T00671022
63871K1J0 1J020160120084511101/20/16 08:45:31  5-MIN K1J0 201445Z AUTO 17006KT 10SM CLR 07/M03 A3034 -290 49 -1200 170/06 RMK AO2 T00721028
63871K1J0 1J020160120085011401/20/16 08:50:31  5-MIN K1J0 201450Z AUTO 17005KT 10SM FEW085 07/M03 A3033 -290 49 -1200 170/05 RMK AO2 T00721028
63871K1J0 1J020160120085512701/20/16 08:55:31  5-MIN K1J0 201455Z AUTO 16006KT 10SM FEW085 08/M02 A3033 -280 49 -1100 160/06 RMK AO2 SLP257 T00781022 50000
63871K1J0 1J020160120090011101/20/16 09:00:31  5-MIN K1J0 201500Z AUTO 16008KT 10SM CLR 08/M03 A3033 -290 43 -1100 160/08 RMK AO2 T00831033
63871K1J0 1J020160120090511101/20/16 09:05:31  5-MIN K1J0 201505Z AUTO 16013KT 10SM CLR 08/M04 A3034 -290 42 -1100 160/13 RMK AO2 T00831039
63871K1J0 1J020160120091011101/20/16 09:10:31  5-MIN K1J0 201510Z AUTO 16010KT 10SM CLR 08/M04 A3033 -290 42 -1100 160/10 RMK AO2 T00831039
63871K1J0 1J020160120091511101/20/16 09:15:31  5-MIN K1J0 201515Z AUTO 16008KT 10SM CLR 09/M03 A3033 -290 42 -1000 160/08 RMK AO2 T00891033
63871K1J0 1J020160120092011101/20/16 09:20:31  5-MIN K1J0 201520Z AUTO 16008KT 10SM CLR 09/M03 A3033 -280 42 -1000 160/08 RMK AO2 T00891033
63871K1J0 1J020160120092511001/20/16 09:25:31  5-MIN K1J0 201525Z AUTO 16007KT 10SM CLR 09/M03 A3033 -280 42 -900 160/07 RMK AO2 T00941028
63871K1J0 1J020160120093011301/20/16 09:30:31  5-MIN K1J0 201530Z AUTO 16007KT 10SM FEW080 10/M03 A3032 -280 39 -900 160/07 RMK AO2 T01001033
63871K1J0 1J020160120093511301/20/16 09:35:31  5-MIN K1J0 201535Z AUTO 15006KT 10SM FEW080 09/M03 A3032 -280 42 -900 150/06 RMK AO2 T00941028
63871K1J0 1J020160120094011301/20/16 09:40:31  5-MIN K1J0 201540Z AUTO 15005KT 10SM FEW080 10/M03 A3033 -280 40 -900 150/05 RMK AO2 T01001028
63871K1J0 1J020160120094511301/20/16 09:45:31  5-MIN K1J0 201545Z AUTO 17008KT 10SM FEW080 10/M03 A3032 -270 40 -900 170/08 RMK AO2 T01001028
63871K1J0 1J020160120095011301/20/16 09:50:31  5-MIN K1J0 201550Z AUTO 17010KT 10SM FEW080 11/M02 A3032 -270 40 -800 170/10 RMK AO2 T01061022
63871K1J0 1J020160120095512001/20/16 09:55:31  5-MIN K1J0 201555Z AUTO 16009KT 10SM FEW080 11/M02 A3032 -270 42 -800 160/09 RMK AO2 SLP253 T01061017
63871K1J0 1J020160120100011001/20/16 10:00:31  5-MIN K1J0 201600Z AUTO 17009KT 10SM CLR 11/M02 A3032 -270 42 -800 170/09 RMK AO2 T01061017
63871K1J0 1J020160120100511001/20/16 10:05:31  5-MIN K1J0 201605Z AUTO 17008KT 10SM CLR 11/M02 A3031 -270 41 -700 170/08 RMK AO2 T01111017
63871K1J0 1J020160120101011001/20/16 10:10:31  5-MIN K1J0 201610Z AUTO 17008KT 10SM CLR 11/M01 A3032 -280 42 -700 170/08 RMK AO2 T01111011
63871K1J0 1J020160120101511001/20/16 10:15:31  5-MIN K1J0 201615Z AUTO 18007KT 10SM CLR 11/M01 A3032 -280 42 -700 180/07 RMK AO2 T01111011
63871K1J0 1J020160120102011001/20/16 10:20:31  5-MIN K1J0 201620Z AUTO 17008KT 10SM CLR 12/M01 A3032 -280 42 -700 170/08 RMK AO2 T01171006
63871K1J0 1J020160120102511001/20/16 10:25:31  5-MIN K1J0 201625Z AUTO 16009KT 10SM CLR 12/M01 A3031 -270 42 -600 160/09 RMK AO2 T01171006
63871K1J0 1J020160120103010901/20/16 10:30:31  5-MIN K1J0 201630Z AUTO 18009KT 10SM CLR 12/00 A3030 -260 43 -600 180/09 RMK AO2 T01220000
63871K1J0 1J020160120103511001/20/16 10:35:31  5-MIN K1J0 201635Z AUTO 17009KT 10SM CLR 12/M01 A3030 -260 42 -600 170/09 RMK AO2 T01171006
63871K1J0 1J020160120104011001/20/16 10:40:31  5-MIN K1J0 201640Z AUTO 17007KT 10SM CLR 12/M01 A3030 -260 41 -600 170/07 RMK AO2 T01221006
63871K1J0 1J020160120104510901/20/16 10:45:31  5-MIN K1J0 201645Z AUTO 17008KT 10SM CLR 12/00 A3030 -260 43 -600 170/08 RMK AO2 T01220000
63871K1J0 1J020160120105010901/20/16 10:50:31  5-MIN K1J0 201650Z AUTO 18010KT 10SM CLR 12/00 A3030 -250 43 -600 180/10 RMK AO2 T01220000
63871K1J0 1J020160120105511601/20/16 10:55:31  5-MIN K1J0 201655Z AUTO 18007KT 10SM CLR 13/01 A3029 -250 43 -500 180/07 RMK AO2 SLP244 T01280006
63871K1J0 1J020160120110010901/20/16 11:00:31  5-MIN K1J0 201700Z AUTO 16009KT 10SM CLR 13/01 A3029 -250 41 -400 160/09 RMK AO2 T01330006
63871K1J0 1J020160120110510901/20/16 11:05:31  5-MIN K1J0 201705Z AUTO 19009KT 10SM CLR 13/01 A3029 -250 41 -400 190/09 RMK AO2 T01330006
63871K1J0 1J020160120111010901/20/16 11:10:31  5-MIN K1J0 201710Z AUTO 19009KT 10SM CLR 13/01 A3029 -250 41 -400 190/09 RMK AO2 T01330006
63871K1J0 1J020160120111510901/20/16 11:15:31  5-MIN K1J0 201715Z AUTO 21007KT 10SM CLR 13/00 A3029 -250 40 -400 210/07 RMK AO2 T01330000
63871K1J0 1J020160120112010901/20/16 11:20:31  5-MIN K1J0 201720Z AUTO 17007KT 10SM CLR 13/00 A3029 -240 40 -400 170/07 RMK AO2 T01330000
63871K1J0 1J020160120112510901/20/16 11:25:31  5-MIN K1J0 201725Z AUTO 19010KT 10SM CLR 14/01 A3028 -240 40 -300 190/10 RMK AO2 T01390006
63871K1J0 1J020160120113010901/20/16 11:30:31  5-MIN K1J0 201730Z AUTO 18008KT 10SM CLR 14/01 A3028 -240 40 -300 180/08 RMK AO2 T01390006
63871K1J0 1J020160120113511201/20/16 11:35:31  5-MIN K1J0 201735Z AUTO 17009KT 10SM FEW100 14/01 A3027 -230 41 -300 170/09 RMK AO2 T01390011
63871K1J0 1J020160120114011201/20/16 11:40:31  5-MIN K1J0 201740Z AUTO 20007KT 10SM SCT100 14/01 A3027 -230 41 -300 200/07 RMK AO2 T01390011
63871K1J0 1J020160120114511201/20/16 11:45:31  5-MIN K1J0 201745Z AUTO 19008KT 10SM SCT095 14/01 A3026 -220 41 -300 190/08 RMK AO2 T01390011
63871K1J0 1J020160120115011201/20/16 11:50:31  5-MIN K1J0 201750Z AUTO 19006KT 10SM BKN100 14/01 A3026 -220 41 -300 190/06 RMK AO2 T01390011
63871K1J0 1J020160120115513701/20/16 11:55:31  5-MIN K1J0 201755Z AUTO 18007KT 10SM BKN100 14/02 A3026 -220 41 -300 180/07 RMK AO2 SLP233 T01440017 10144 21017 55007
63871K1J0 1J020160120120012801/20/16 12:00:31  5-MIN K1J0 201800Z AUTO 21007KT 170V260 10SM BKN100 14/02 A3026 -220 43 -300 210/07 170V260 RMK AO2 T01440022
63871K1J0 1J020160120120511201/20/16 12:05:31  5-MIN K1J0 201805Z AUTO 22005KT 10SM BKN095 14/02 A3026 -220 43 -300 220/05 RMK AO2 T01440022
63871K1J0 1J020160120121011201/20/16 12:10:31  5-MIN K1J0 201810Z AUTO 21008KT 10SM OVC090 15/02 A3026 -220 42 -200 210/08 RMK AO2 T01500022
63871K1J0 1J020160120121511901/20/16 12:15:31  5-MIN K1J0 201815Z AUTO 22009KT 10SM BKN080 OVC100 16/03 A3025 -210 42 -100 220/09 RMK AO2 T01560028
63871K1J0 1J020160120122012601/20/16 12:20:31  5-MIN K1J0 201820Z AUTO 19009KT 10SM BKN080 OVC100 15/03 A3024 -210 45 -200 190/09 RMK AO2 PRESFR T01500033
63871K1J0 1J020160120122511901/20/16 12:25:31  5-MIN K1J0 201825Z AUTO 20008KT 10SM BKN080 OVC095 15/03 A3024 -200 45 -200 200/08 RMK AO2 T01500033
63871K1J0 1J020160120123012601/20/16 12:30:31  5-MIN K1J0 201830Z AUTO 21007KT 10SM BKN080 OVC100 14/03 A3023 -200 47 -200 210/07 RMK AO2 PRESFR T01440033
63871K1J0 1J020160120123512501/20/16 12:35:31  5-MIN K1J0 201835Z AUTO 20010G16KT 10SM BKN080 OVC100 15/04 A3023 -200 47 -200 200/10G16 RMK AO2 T01500039
63871K1J0 1J020160120124011901/20/16 12:40:31  5-MIN K1J0 201840Z AUTO 19010KT 10SM BKN080 OVC100 15/04 A3023 -190 47 -200 190/10 RMK AO2 T01500039
63871K1J0 1J020160120124511901/20/16 12:45:31  5-MIN K1J0 201845Z AUTO 18009KT 10SM BKN080 OVC100 15/04 A3022 -190 47 -100 180/09 RMK AO2 T01500039
63871K1J0 1J020160120125011901/20/16 12:50:31  5-MIN K1J0 201850Z AUTO 18008KT 10SM BKN075 OVC100 15/04 A3022 -180 49 -100 180/08 RMK AO2 T01500044
63871K1J0 1J020160120125513301/20/16 12:55:31  5-MIN K1J0 201855Z AUTO 19010KT 10SM FEW065 BKN080 OVC095 15/04 A3022 -180 49 -100 190/10 RMK AO2 SLP217 T01500044
63871K1J0 1J020160120130011901/20/16 13:00:31  5-MIN K1J0 201900Z AUTO VRB06KT 10SM SCT080 OVC095 15/04 A3021 -180 49 -100 VRB/06 RMK AO2 T01500044
63871K1J0 1J020160120130511901/20/16 13:05:31  5-MIN K1J0 201905Z AUTO 19008KT 10SM FEW080 OVC090 16/05 A3021 -180 49 -100 190/08 RMK AO2 T01560050
63871K1J0 1J020160120131011901/20/16 13:10:31  5-MIN K1J0 201910Z AUTO 19007KT 10SM FEW080 OVC090 15/06 A3021 -170 53 -100 190/07 RMK AO2 T01500056
63871K1J0 1J020160120131511201/20/16 13:15:31  5-MIN K1J0 201915Z AUTO 19011KT 10SM OVC090 15/06 A3020 -170 53 -100 190/11 RMK AO2 T01500056
63871K1J0 1J020160120132011201/20/16 13:20:31  5-MIN K1J0 201920Z AUTO 19010KT 10SM OVC090 15/06 A3020 -170 53 -100 190/10 RMK AO2 T01500056
63871K1J0 1J020160120132511201/20/16 13:25:31  5-MIN K1J0 201925Z AUTO 19013KT 10SM OVC090 15/06 A3020 -170 53 -100 190/13 RMK AO2 T01500056
63871K1J0 1J020160120133011801/20/16 13:30:31  5-MIN K1J0 201930Z AUTO 20007G17KT 10SM OVC090 15/06 A3020 -170 53 -100 200/07G17 RMK AO2 T01500056
63871K1J0 1J020160120133511201/20/16 13:35:31  5-MIN K1J0 201935Z AUTO 19008KT 10SM OVC090 15/06 A3020 -170 55 -100 190/08 RMK AO2 T01500061
63871K1J0 1J020160120134011801/20/16 13:40:31  5-MIN K1J0 201940Z AUTO 20011G15KT 10SM BKN090 15/06 A3020 -170 55 -100 200/11G15 RMK AO2 T01500061
63871K1J0 1J020160120134511801/20/16 13:45:31  5-MIN K1J0 201945Z AUTO 20007G15KT 10SM BKN090 15/07 A3020 -160 57 -100 200/07G15 RMK AO2 T01500067
63871K1J0 1J020160120135011801/20/16 13:50:31  5-MIN K1J0 201950Z AUTO 18012G16KT 10SM BKN090 15/07 A3020 -160 57 -100 180/12G16 RMK AO2 T01500067
63871K1J0 1J020160120135512501/20/16 13:55:31  5-MIN K1J0 201955Z AUTO 19010G16KT 10SM BKN090 15/07 A3019 -160 59 -100 190/10G16 RMK AO2 SLP210 T01500072
63871K1J0 1J020160120140011201/20/16 14:00:31  5-MIN K1J0 202000Z AUTO 18012KT 10SM SCT090 15/07 A3019 -160 59 -100 180/12 RMK AO2 T01500072
63871K1J0 1J020160120140513801/20/16 14:05:31  5-MIN K1J0 202005Z AUTO 21007G15KT 180V240 10SM FEW070 SCT090 16/07 A3019 -160 57 0 210/07G15 180V240 RMK AO2 T01560072
63871K1J0 1J020160120141012201/20/16 14:10:31  5-MIN K1J0 202010Z AUTO 21011G15KT 10SM SCT075 BKN090 16/07 A3019 -160 57 0 210/11G15 RMK AO2 T01560072
63871K1J0 1J020160120141512201/20/16 14:15:31  5-MIN K1J0 202015Z AUTO 21008G16KT 10SM SCT075 BKN090 16/07 A3019 -150 57 0 210/08G16 RMK AO2 T01560072
63871K1J0 1J020160120142011501/20/16 14:20:31  5-MIN K1J0 202020Z AUTO 20009G16KT 10SM FEW070 16/07 A3018 -150 57 0 200/09G16 RMK AO2 T01560072
63871K1J0 1J020160120142510901/20/16 14:25:31  5-MIN K1J0 202025Z AUTO 22008KT 10SM FEW075 16/07 A3018 -150 57 0 220/08 RMK AO2 T01560072
63871K1J0 1J020160120143011201/20/16 14:30:31  5-MIN K1J0 202030Z AUTO 22006KT 10SM FEW075 15/07 A3018 -150 59 -100 220/06 RMK AO2 T01500072
63871K1J0 1J020160120143511901/20/16 14:35:31  5-MIN K1J0 202035Z AUTO 21005KT 10SM SCT060 SCT075 15/07 A3018 -150 59 -100 210/05 RMK AO2 T01500072
63871K1J0 1J020160120144011201/20/16 14:40:31  5-MIN K1J0 202040Z AUTO 20007KT 10SM BKN060 15/07 A3018 -150 59 -100 200/07 RMK AO2 T01500072
63871K1J0 1J020160120144511201/20/16 14:45:31  5-MIN K1J0 202045Z AUTO 18007KT 10SM BKN060 15/07 A3018 -150 59 -100 180/07 RMK AO2 T01500072
63871K1J0 1J020160120145011201/20/16 14:50:31  5-MIN K1J0 202050Z AUTO 18009KT 10SM BKN060 15/08 A3018 -150 62 -100 180/09 RMK AO2 T01500078
63871K1J0 1J020160120145512501/20/16 14:55:31  5-MIN K1J0 202055Z AUTO 18009KT 10SM OVC060 15/08 A3018 -150 62 -100 180/09 RMK AO2 SLP205 T01500078 58022
63871K1J0 1J020160120150011201/20/16 15:00:31  5-MIN K1J0 202100Z AUTO 19007KT 10SM OVC055 15/08 A3018 -150 62 -100 190/07 RMK AO2 T01500078
63871K1J0 1J020160120150511201/20/16 15:05:31  5-MIN K1J0 202105Z AUTO 20008KT 10SM OVC055 15/08 A3018 -150 62 -100 200/08 RMK AO2 T01500078
63871K1J0 1J020160120151011201/20/16 15:10:31  5-MIN K1J0 202110Z AUTO 19007KT 10SM OVC055 15/08 A3018 -150 62 -100 190/07 RMK AO2 T01500078
63871K1J0 1J020160120151511201/20/16 15:15:31  5-MIN K1J0 202115Z AUTO 20009KT 10SM OVC055 15/08 A3019 -150 62 -100 200/09 RMK AO2 T01500078
63871K1J0 1J020160120152011201/20/16 15:20:31  5-MIN K1J0 202120Z AUTO 21007KT 10SM OVC055 15/08 A3019 -150 62 -100 210/07 RMK AO2 T01500078
63871K1J0 1J020160120152511201/20/16 15:25:31  5-MIN K1J0 202125Z AUTO 21007KT 10SM OVC055 15/08 A3019 -150 62 -100 210/07 RMK AO2 T01500078
63871K1J0 1J020160120153011901/20/16 15:30:31  5-MIN K1J0 202130Z AUTO 19009KT 10SM FEW034 OVC055 15/08 A3018 -150 62 -100 190/09 RMK AO2 T01500078
63871K1J0 1J020160120153512501/20/16 15:35:31  5-MIN K1J0 202135Z AUTO 18011G15KT 10SM FEW034 OVC055 15/08 A3018 -150 62 -100 180/11G15 RMK AO2 T01500078
63871K1J0 1J020160120154011901/20/16 15:40:31  5-MIN K1J0 202140Z AUTO 19008KT 10SM FEW034 BKN055 15/08 A3018 -150 64 -100 190/08 RMK AO2 T01500083
63871K1J0 1J020160120154511901/20/16 15:45:31  5-MIN K1J0 202145Z AUTO 18009KT 10SM FEW034 BKN055 15/08 A3017 -140 64 -100 180/09 RMK AO2 T01500083
63871K1J0 1J020160120155011901/20/16 15:50:31  5-MIN K1J0 202150Z AUTO 17010KT 10SM FEW034 SCT050 15/08 A3018 -140 64 -100 170/10 RMK AO2 T01500083
63871K1J0 1J020160120155512601/20/16 15:55:31  5-MIN K1J0 202155Z AUTO 19007KT 10SM FEW034 SCT050 15/08 A3018 -140 64 -100 190/07 RMK AO2 SLP204 T01500083
63871K1J0 1J020160120160011201/20/16 16:00:31  5-MIN K1J0 202200Z AUTO 17012KT 10SM FEW050 15/08 A3017 -140 62 -100 170/12 RMK AO2 T01500078
63871K1J0 1J020160120160510901/20/16 16:05:31  5-MIN K1J0 202205Z AUTO 18009KT 10SM CLR 14/08 A3017 -140 64 -200 180/09 RMK AO2 T01440078
63871K1J0 1J020160120161010901/20/16 16:10:31  5-MIN K1J0 202210Z AUTO 18008KT 10SM CLR 14/08 A3017 -140 66 -200 180/08 RMK AO2 T01440083
63871K1J0 1J020160120161510901/20/16 16:15:31  5-MIN K1J0 202215Z AUTO 18009KT 10SM CLR 14/08 A3017 -140 64 -200 180/09 RMK AO2 T01440078
63871K1J0 1J020160120162010901/20/16 16:20:31  5-MIN K1J0 202220Z AUTO 18006KT 10SM CLR 14/08 A3018 -140 66 -200 180/06 RMK AO2 T01440083
63871K1J0 1J020160120162510901/20/16 16:25:31  5-MIN K1J0 202225Z AUTO 17007KT 10SM CLR 14/08 A3017 -140 66 -200 170/07 RMK AO2 T01440083
63871K1J0 1J020160120163010901/20/16 16:30:31  5-MIN K1J0 202230Z AUTO 17005KT 10SM CLR 14/08 A3017 -140 66 -200 170/05 RMK AO2 T01440083
63871K1J0 1J020160120163510901/20/16 16:35:31  5-MIN K1J0 202235Z AUTO 17005KT 10SM CLR 14/08 A3017 -140 69 -200 170/05 RMK AO2 T01390083
63871K1J0 1J020160120164010901/20/16 16:40:31  5-MIN K1J0 202240Z AUTO 17005KT 10SM CLR 14/08 A3017 -140 69 -200 170/05 RMK AO2 T01390083
63871K1J0 1J020160120164510901/20/16 16:45:31  5-MIN K1J0 202245Z AUTO 18005KT 10SM CLR 14/08 A3018 -140 69 -200 180/05 RMK AO2 T01390083
63871K1J0 1J020160120165010901/20/16 16:50:31  5-MIN K1J0 202250Z AUTO 17005KT 10SM CLR 14/08 A3018 -150 69 -200 170/05 RMK AO2 T01390083
63871K1J0 1J020160120165511601/20/16 16:55:31  5-MIN K1J0 202255Z AUTO 18005KT 10SM CLR 14/08 A3018 -150 69 -200 180/05 RMK AO2 SLP205 T01390083
63871K1J0 1J020160120170010901/20/16 17:00:31  5-MIN K1J0 202300Z AUTO 17004KT 10SM CLR 14/08 A3018 -150 69 -200 170/04 RMK AO2 T01390083
63871K1J0 1J020160120170510901/20/16 17:05:31  5-MIN K1J0 202305Z AUTO 18004KT 10SM CLR 13/08 A3018 -150 71 -300 180/04 RMK AO2 T01330083
63871K1J0 1J020160120171010901/20/16 17:10:31  5-MIN K1J0 202310Z AUTO 18004KT 10SM CLR 13/08 A3019 -150 71 -300 180/04 RMK AO2 T01330083
63871K1J0 1J020160120171510901/20/16 17:15:31  5-MIN K1J0 202315Z AUTO 18003KT 10SM CLR 13/08 A3019 -160 74 -400 180/03 RMK AO2 T01280083
63871K1J0 1J020160120172010901/20/16 17:20:31  5-MIN K1J0 202320Z AUTO 00000KT 10SM CLR 13/08 A3019 -160 74 -400 000/00 RMK AO2 T01280083
63871K1J0 1J020160120172510901/20/16 17:25:31  5-MIN K1J0 202325Z AUTO 16003KT 10SM CLR 12/08 A3019 -160 74 -400 160/03 RMK AO2 T01220078
63871K1J0 1J020160120173010901/20/16 17:30:31  5-MIN K1J0 202330Z AUTO 00000KT 10SM CLR 12/08 A3019 -160 74 -400 000/00 RMK AO2 T01220078
63871K1J0 1J020160120173510901/20/16 17:35:31  5-MIN K1J0 202335Z AUTO 14003KT 10SM CLR 12/08 A3018 -150 74 -400 140/03 RMK AO2 T01220078
63871K1J0 1J020160120174010901/20/16 17:40:31  5-MIN K1J0 202340Z AUTO 15004KT 10SM CLR 12/08 A3018 -150 77 -500 150/04 RMK AO2 T01170078
63871K1J0 1J020160120174510901/20/16 17:45:31  5-MIN K1J0 202345Z AUTO 16005KT 10SM CLR 12/08 A3018 -150 77 -500 160/05 RMK AO2 T01170078
63871K1J0 1J020160120175010901/20/16 17:50:31  5-MIN K1J0 202350Z AUTO 16005KT 10SM CLR 12/08 A3018 -140 77 -500 160/05 RMK AO2 T01170078
63871K1J0 1J020160120175513401/20/16 17:55:31  5-MIN K1J0 202355Z AUTO 17005KT 10SM CLR 12/08 A3018 -150 77 -500 170/05 RMK AO2 SLP205 T01170078 10156 20117 56028
63871K1J0 1J020160120180010901/20/16 18:00:31  5-MIN K1J0 210000Z AUTO 19003KT 10SM CLR 12/08 A3018 -150 77 -500 190/03 RMK AO2 T01170078
63871K1J0 1J020160120180510901/20/16 18:05:31  5-MIN K1J0 210005Z AUTO 20003KT 10SM CLR 12/08 A3018 -150 74 -400 200/03 RMK AO2 T01220078
63871K1J0 1J020160120181010901/20/16 18:10:31  5-MIN K1J0 210010Z AUTO 00000KT 10SM CLR 12/08 A3018 -150 77 -500 000/00 RMK AO2 T01170078
63871K1J0 1J020160120181510901/20/16 18:15:31  5-MIN K1J0 210015Z AUTO 18003KT 10SM CLR 12/08 A3018 -150 77 -500 180/03 RMK AO2 T01170078
63871K1J0 1J020160120182010901/20/16 18:20:31  5-MIN K1J0 210020Z AUTO 17003KT 10SM CLR 11/08 A3018 -150 80 -600 170/03 RMK AO2 T01110078
63871K1J0 1J020160120182510901/20/16 18:25:31  5-MIN K1J0 210025Z AUTO 16003KT 10SM CLR 11/08 A3018 -150 83 -600 160/03 RMK AO2 T01060078
63871K1J0 1J020160120183010901/20/16 18:30:31  5-MIN K1J0 210030Z AUTO 00000KT 10SM CLR 11/08 A3018 -150 83 -600 000/00 RMK AO2 T01060078
63871K1J0 1J020160120183510901/20/16 18:35:31  5-MIN K1J0 210035Z AUTO 00000KT 10SM CLR 10/07 A3018 -150 83 -700 000/00 RMK AO2 T01000072
63871K1J0 1J020160120184010901/20/16 18:40:31  5-MIN K1J0 210040Z AUTO 00000KT 10SM CLR 10/07 A3018 -150 83 -700 000/00 RMK AO2 T01000072
63871K1J0 1J020160120184510901/20/16 18:45:31  5-MIN K1J0 210045Z AUTO 00000KT 10SM CLR 10/07 A3018 -150 83 -700 000/00 RMK AO2 T01000072
63871K1J0 1J020160120185010901/20/16 18:50:31  5-MIN K1J0 210050Z AUTO 00000KT 10SM CLR 09/07 A3018 -150 86 -800 000/00 RMK AO2 T00940072
63871K1J0 1J020160120185511601/20/16 18:55:31  5-MIN K1J0 210055Z AUTO 00000KT 10SM CLR 09/07 A3018 -150 86 -800 000/00 RMK AO2 SLP206 T00940072
63871K1J0 1J020160120190010901/20/16 19:00:31  5-MIN K1J0 210100Z AUTO 00000KT 10SM CLR 09/07 A3018 -150 86 -800 000/00 RMK AO2 T00940072
63871K1J0 1J020160120190510901/20/16 19:05:31  5-MIN K1J0 210105Z AUTO 00000KT 10SM CLR 10/07 A3018 -150 83 -700 000/00 RMK AO2 T01000072
63871K1J0 1J020160120191010901/20/16 19:10:31  5-MIN K1J0 210110Z AUTO 00000KT 10SM CLR 09/07 A3018 -150 86 -800 000/00 RMK AO2 T00940072
63871K1J0 1J020160120191510901/20/16 19:15:31  5-MIN K1J0 210115Z AUTO 00000KT 10SM CLR 09/07 A3018 -150 86 -800 000/00 RMK AO2 T00940072
63871K1J0 1J020160120192010901/20/16 19:20:31  5-MIN K1J0 210120Z AUTO 00000KT 10SM CLR 09/07 A3018 -150 89 -800 000/00 RMK AO2 T00890072
63871K1J0 1J020160120192510901/20/16 19:25:31  5-MIN K1J0 210125Z AUTO 00000KT 10SM CLR 09/07 A3019 -150 89 -800 000/00 RMK AO2 T00890072
63871K1J0 1J020160120193010901/20/16 19:30:31  5-MIN K1J0 210130Z AUTO 15003KT 10SM CLR 09/07 A3019 -150 86 -800 150/03 RMK AO2 T00940072
63871K1J0 1J020160120193510901/20/16 19:35:31  5-MIN K1J0 210135Z AUTO 16003KT 10SM CLR 09/07 A3018 -150 89 -800 160/03 RMK AO2 T00890072
63871K1J0 1J020160120194010901/20/16 19:40:31  5-MIN K1J0 210140Z AUTO 15003KT 10SM CLR 09/07 A3019 -150 89 -800 150/03 RMK AO2 T00890072
63871K1J0 1J020160120194510901/20/16 19:45:31  5-MIN K1J0 210145Z AUTO 16004KT 10SM CLR 09/07 A3019 -150 86 -800 160/04 RMK AO2 T00940072
63871K1J0 1J020160120195010901/20/16 19:50:31  5-MIN K1J0 210150Z AUTO 15004KT 10SM CLR 09/07 A3018 -150 89 -800 150/04 RMK AO2 T00890072
63871K1J0 1J020160120195511601/20/16 19:55:31  5-MIN K1J0 210155Z AUTO 14003KT 10SM CLR 09/07 A3018 -150 89 -800 140/03 RMK AO2 SLP207 T00890072
63871K1J0 1J020160120200010901/20/16 20:00:31  5-MIN K1J0 210200Z AUTO 14003KT 10SM CLR 09/07 A3018 -150 86 -800 140/03 RMK AO2 T00890067
63871K1J0 1J020160120200510901/20/16 20:05:31  5-MIN K1J0 210205Z AUTO 00000KT 10SM CLR 09/07 A3018 -150 86 -800 000/00 RMK AO2 T00890067
63871K1J0 1J020160120201010901/20/16 20:10:31  5-MIN K1J0 210210Z AUTO 00000KT 10SM CLR 09/07 A3019 -150 86 -800 000/00 RMK AO2 T00890067
63871K1J0 1J020160120201510901/20/16 20:15:31  5-MIN K1J0 210215Z AUTO 00000KT 10SM CLR 09/07 A3018 -150 86 -800 000/00 RMK AO2 T00890067
63871K1J0 1J020160120202010901/20/16 20:20:31  5-MIN K1J0 210220Z AUTO 00000KT 10SM CLR 08/07 A3018 -150 89 -900 000/00 RMK AO2 T00830067
63871K1J0 1J020160120202510901/20/16 20:25:31  5-MIN K1J0 210225Z AUTO 00000KT 10SM CLR 09/07 A3018 -150 86 -800 000/00 RMK AO2 T00890067
63871K1J0 1J020160120203010901/20/16 20:30:31  5-MIN K1J0 210230Z AUTO 00000KT 10SM CLR 08/07 A3019 -160 89 -900 000/00 RMK AO2 T00830067
63871K1J0 1J020160120203510901/20/16 20:35:31  5-MIN K1J0 210235Z AUTO 00000KT 10SM CLR 08/07 A3019 -160 89 -900 000/00 RMK AO2 T00830067
63871K1J0 1J020160120204011001/20/16 20:40:31  5-MIN K1J0 210240Z AUTO 00000KT 10SM CLR 08/07 A3019 -160 93 -1000 000/00 RMK AO2 T00780067
63871K1J0 1J020160120204511001/20/16 20:45:31  5-MIN K1J0 210245Z AUTO 00000KT 10SM CLR 08/07 A3019 -160 93 -1000 000/00 RMK AO2 T00780067
63871K1J0 1J020160120205011001/20/16 20:50:31  5-MIN K1J0 210250Z AUTO 00000KT 10SM CLR 08/07 A3019 -160 93 -1000 000/00 RMK AO2 T00780067
63871K1J0 1J020160120205512601/20/16 20:55:31  5-MIN K1J0 210255Z AUTO 00000KT 10SM FEW075 08/07 A3019 -160 93 -1000 000/00 RMK AO2 SLP210 T00780067 56000
63871K1J0 1J020160120210011301/20/16 21:00:31  5-MIN K1J0 210300Z AUTO 00000KT 10SM SCT070 08/07 A3019 -160 93 -1000 000/00 RMK AO2 T00780067
63871K1J0 1J020160120210511301/20/16 21:05:31  5-MIN K1J0 210305Z AUTO 00000KT 10SM BKN070 08/07 A3019 -160 93 -1000 000/00 RMK AO2 T00780067
63871K1J0 1J020160120211011301/20/16 21:10:31  5-MIN K1J0 210310Z AUTO 00000KT 10SM BKN070 08/07 A3019 -160 93 -1000 000/00 RMK AO2 T00780067
63871K1J0 1J020160120211511301/20/16 21:15:31  5-MIN K1J0 210315Z AUTO 16004KT 10SM SCT070 08/07 A3019 -160 93 -1000 160/04 RMK AO2 T00780067
63871K1J0 1J020160120212011301/20/16 21:20:31  5-MIN K1J0 210320Z AUTO 16004KT 10SM SCT070 08/06 A3019 -160 89 -1000 160/04 RMK AO2 T00780061
63871K1J0 1J020160120212511301/20/16 21:25:31  5-MIN K1J0 210325Z AUTO 16004KT 10SM SCT070 08/06 A3019 -160 89 -1000 160/04 RMK AO2 T00780061
63871K1J0 1J020160120213011201/20/16 21:30:31  5-MIN K1J0 210330Z AUTO 17003KT 10SM FEW070 08/06 A3019 -160 86 -900 170/03 RMK AO2 T00830061
63871K1J0 1J020160120213510901/20/16 21:35:31  5-MIN K1J0 210335Z AUTO 16003KT 10SM CLR 09/06 A3019 -160 83 -800 160/03 RMK AO2 T00890061
63871K1J0 1J020160120214010901/20/16 21:40:31  5-MIN K1J0 210340Z AUTO 00000KT 10SM CLR 08/06 A3019 -160 86 -900 000/00 RMK AO2 T00830061
63871K1J0 1J020160120214510901/20/16 21:45:31  5-MIN K1J0 210345Z AUTO 00000KT 10SM CLR 08/06 A3020 -160 86 -900 000/00 RMK AO2 T00830061
63871K1J0 1J020160120215010901/20/16 21:50:31  5-MIN K1J0 210350Z AUTO 00000KT 10SM CLR 08/06 A3019 -160 86 -900 000/00 RMK AO2 T00830061
63871K1J0 1J020160120215511701/20/16 21:55:31  5-MIN K1J0 210355Z AUTO 00000KT 10SM CLR 07/06 A3019 -160 93 -1100 000/00 RMK AO2 SLP210 T00720061
63871K1J0 1J020160120220011001/20/16 22:00:31  5-MIN K1J0 210400Z AUTO 00000KT 10SM CLR 07/06 A3019 -160 93 -1100 000/00 RMK AO2 T00720061
63871K1J0 1J020160120220511001/20/16 22:05:31  5-MIN K1J0 210405Z AUTO 00000KT 10SM CLR 07/06 A3019 -160 93 -1100 000/00 RMK AO2 T00720061
63871K1J0 1J020160120221011001/20/16 22:10:31  5-MIN K1J0 210410Z AUTO 00000KT 10SM CLR 07/06 A3019 -160 89 -1100 000/00 RMK AO2 T00720056
63871K1J0 1J020160120221511001/20/16 22:15:31  5-MIN K1J0 210415Z AUTO 00000KT 10SM CLR 07/06 A3019 -160 89 -1100 000/00 RMK AO2 T00720056
63871K1J0 1J020160120222011001/20/16 22:20:31  5-MIN K1J0 210420Z AUTO 00000KT 10SM CLR 07/06 A3020 -160 89 -1100 000/00 RMK AO2 T00720056
63871K1J0 1J020160120222511001/20/16 22:25:31  5-MIN K1J0 210425Z AUTO 00000KT 10SM CLR 07/06 A3019 -160 89 -1100 000/00 RMK AO2 T00720056
63871K1J0 1J020160120223011001/20/16 22:30:31  5-MIN K1J0 210430Z AUTO 00000KT 10SM CLR 07/06 A3019 -160 89 -1100 000/00 RMK AO2 T00720056
63871K1J0 1J020160120223511001/20/16 22:35:31  5-MIN K1J0 210435Z AUTO 00000KT 10SM CLR 07/06 A3019 -160 93 -1100 000/00 RMK AO2 T00670056
63871K1J0 1J020160120224011001/20/16 22:40:31  5-MIN K1J0 210440Z AUTO 00000KT 10SM CLR 07/06 A3019 -150 93 -1100 000/00 RMK AO2 T00670056
63871K1J0 1J020160120224511001/20/16 22:45:31  5-MIN K1J0 210445Z AUTO 00000KT 10SM CLR 07/06 A3019 -150 93 -1100 000/00 RMK AO2 T00670056
63871K1J0 1J020160120225011001/20/16 22:50:31  5-MIN K1J0 210450Z AUTO 00000KT 10SM CLR 07/06 A3019 -160 93 -1100 000/00 RMK AO2 T00670056
63871K1J0 1J020160120225511701/20/16 22:55:31  5-MIN K1J0 210455Z AUTO 00000KT 10SM CLR 07/06 A3019 -150 96 -1100 000/00 RMK AO2 SLP206 T00670061
63871K1J0 1J020160120230011301/20/16 23:00:31  5-MIN K1J0 210500Z AUTO 00000KT 10SM FEW090 07/06 A3019 -150 96 -1100 000/00 RMK AO2 T00670061
63871K1J0 1J020160120230511301/20/16 23:05:31  5-MIN K1J0 210505Z AUTO 00000KT 10SM BKN085 07/06 A3018 -150 96 -1100 000/00 RMK AO2 T00670061
63871K1J0 1J020160120231011301/20/16 23:10:31  5-MIN K1J0 210510Z AUTO 00000KT 10SM BKN085 07/06 A3018 -150 96 -1100 000/00 RMK AO2 T00670061
63871K1J0 1J020160120231511301/20/16 23:15:31  5-MIN K1J0 210515Z AUTO 00000KT 10SM BKN085 07/06 A3018 -150 96 -1100 000/00 RMK AO2 T00670061
63871K1J0 1J020160120232011301/20/16 23:20:31  5-MIN K1J0 210520Z AUTO 00000KT 10SM BKN085 07/06 A3018 -150 96 -1100 000/00 RMK AO2 T00670061
63871K1J0 1J020160120232511301/20/16 23:25:31  5-MIN K1J0 210525Z AUTO 00000KT 10SM BKN085 07/06 A3018 -150 96 -1100 000/00 RMK AO2 T00670061
63871K1J0 1J020160120233011301/20/16 23:30:31  5-MIN K1J0 210530Z AUTO 00000KT 10SM SCT085 07/06 A3018 -150 96 -1100 000/00 RMK AO2 T00670061
63871K1J0 1J020160120233511301/20/16 23:35:31  5-MIN K1J0 210535Z AUTO 00000KT 10SM SCT085 07/06 A3018 -150 96 -1100 000/00 RMK AO2 T00670061
63871K1J0 1J020160120234011301/20/16 23:40:31  5-MIN K1J0 210540Z AUTO 00000KT 10SM FEW085 07/06 A3018 -150 96 -1100 000/00 RMK AO2 T00670061
63871K1J0 1J020160120234511301/20/16 23:45:31  5-MIN K1J0 210545Z AUTO 00000KT 10SM FEW080 07/06 A3018 -150 96 -1100 000/00 RMK AO2 T00670061
63871K1J0 1J020160120235011301/20/16 23:50:31  5-MIN K1J0 210550Z AUTO 00000KT 10SM FEW080 07/06 A3018 -150 96 -1100 000/00 RMK AO2 T00670061
63871K1J0 1J020160120235514801/20/16 23:55:31  5-MIN K1J0 210555Z AUTO 00000KT 10SM SCT080 07/06 A3018 -140 96 -1100 000/00 RMK AO2 SLP203 T00670061 10122 20061 401561017 53005
63871K1J0 1J020160121000011301/21/16 00:00:31  5-MIN K1J0 210600Z AUTO 00000KT 10SM BKN085 07/06 A3017 -140 96 -1100 000/00 RMK AO2 T00670061
63871K1J0 1J020160121000511301/21/16 00:05:31  5-MIN K1J0 210605Z AUTO 00000KT 10SM BKN085 07/06 A3017 -140 96 -1100 000/00 RMK AO2 T00670061
63871K1J0 1J020160121001011301/21/16 00:10:31  5-MIN K1J0 210610Z AUTO 00000KT 10SM BKN085 07/06 A3017 -140 96 -1100 000/00 RMK AO2 T00670061
63871K1J0 1J020160121001512001/21/16 00:15:31  5-MIN K1J0 210615Z AUTO 00000KT 10SM SCT075 BKN090 07/06 A3017 -140 96 -1100 000/00 RMK AO2 T00670061
63871K1J0 1J020160121002012001/21/16 00:20:31  5-MIN K1J0 210620Z AUTO 00000KT 10SM BKN075 OVC090 07/06 A3017 -140 96 -1100 000/00 RMK AO2 T00670061
63871K1J0 1J020160121002512001/21/16 00:25:31  5-MIN K1J0 210625Z AUTO 00000KT 10SM BKN075 OVC090 07/06 A3016 -130 93 -1000 000/00 RMK AO2 T00720061
63871K1J0 1J020160121003012001/21/16 00:30:31  5-MIN K1J0 210630Z AUTO 00000KT 10SM BKN070 OVC090 07/06 A3016 -130 93 -1000 000/00 RMK AO2 T00720061
63871K1J0 1J020160121003512001/21/16 00:35:31  5-MIN K1J0 210635Z AUTO 00000KT 10SM BKN075 OVC090 07/06 A3015 -120 93 -1000 000/00 RMK AO2 T00720061
63871K1J0 1J020160121004011201/21/16 00:40:31  5-MIN K1J0 210640Z AUTO 00000KT 10SM OVC075 08/07 A3015 -120 93 -900 000/00 RMK AO2 T00780067
63871K1J0 1J020160121004511201/21/16 00:45:31  5-MIN K1J0 210645Z AUTO 00000KT 10SM OVC075 08/07 A3015 -120 93 -900 000/00 RMK AO2 T00780067
63871K1J0 1J020160121005011201/21/16 00:50:31  5-MIN K1J0 210650Z AUTO 00000KT 10SM OVC080 08/07 A3016 -130 93 -900 000/00 RMK AO2 T00780067
63871K1J0 1J020160121005511901/21/16 00:55:31  5-MIN K1J0 210655Z AUTO 00000KT 10SM OVC080 08/07 A3016 -130 93 -900 000/00 RMK AO2 SLP196 T00780067
63871K1J0 1J020160121010011201/21/16 01:00:31  5-MIN K1J0 210700Z AUTO 00000KT 10SM OVC080 08/07 A3016 -130 93 -900 000/00 RMK AO2 T00780067
63871K1J0 1J020160121010511201/21/16 01:05:31  5-MIN K1J0 210705Z AUTO 00000KT 10SM OVC080 08/07 A3015 -120 93 -900 000/00 RMK AO2 T00780067
63871K1J0 1J020160121011011201/21/16 01:10:31  5-MIN K1J0 210710Z AUTO 00000KT 10SM OVC080 08/07 A3015 -120 96 -900 000/00 RMK AO2 T00780072
63871K1J0 1J020160121011511201/21/16 01:15:31  5-MIN K1J0 210715Z AUTO 00000KT 10SM OVC080 08/07 A3015 -120 96 -900 000/00 RMK AO2 T00780072
63871K1J0 1J020160121012011201/21/16 01:20:31  5-MIN K1J0 210720Z AUTO 00000KT 10SM OVC080 08/07 A3015 -120 93 -900 000/00 RMK AO2 T00780067
63871K1J0 1J020160121012511201/21/16 01:25:31  5-MIN K1J0 210725Z AUTO 00000KT 10SM OVC080 08/07 A3015 -120 93 -900 000/00 RMK AO2 T00780067
63871K1J0 1J020160121013011201/21/16 01:30:31  5-MIN K1J0 210730Z AUTO 00000KT 10SM OVC080 08/07 A3014 -110 96 -900 000/00 RMK AO2 T00780072
63871K1J0 1J020160121013511901/21/16 01:35:31  5-MIN K1J0 210735Z AUTO 00000KT 10SM BKN080 BKN110 08/07 A3014 -110 93 -900 000/00 RMK AO2 T00780067
63871K1J0 1J020160121014011901/21/16 01:40:31  5-MIN K1J0 210740Z AUTO 00000KT 10SM BKN080 BKN110 08/07 A3014 -110 93 -900 000/00 RMK AO2 T00780067
63871K1J0 1J020160121014512601/21/16 01:45:31  5-MIN K1J0 210745Z AUTO 00000KT 10SM FEW065 BKN080 BKN110 08/07 A3014 -110 93 -900 000/00 RMK AO2 T00780067
63871K1J0 1J020160121015011201/21/16 01:50:31  5-MIN K1J0 210750Z AUTO 00000KT 10SM BKN075 08/07 A3014 -110 93 -900 000/00 RMK AO2 T00830072
63871K1J0 1J020160121015511901/21/16 01:55:31  5-MIN K1J0 210755Z AUTO 00000KT 10SM BKN075 08/07 A3014 -110 96 -900 000/00 RMK AO2 SLP190 T00780072
63871K1J0 1J020160121020011201/21/16 02:00:31  5-MIN K1J0 210800Z AUTO 00000KT 10SM BKN070 08/07 A3013 -110 93 -800 000/00 RMK AO2 T00830072
63871K1J0 1J020160121020511901/21/16 02:05:31  5-MIN K1J0 210805Z AUTO 00000KT 10SM BKN070 OVC085 08/07 A3013 -110 93 -800 000/00 RMK AO2 T00830072
63871K1J0 1J020160121021011901/21/16 02:10:31  5-MIN K1J0 210810Z AUTO 00000KT 10SM BKN070 OVC085 08/07 A3013 -110 93 -800 000/00 RMK AO2 T00830072
63871K1J0 1J020160121021511201/21/16 02:15:31  5-MIN K1J0 210815Z AUTO 00000KT 10SM OVC075 08/07 A3013 -100 93 -800 000/00 RMK AO2 T00830072
63871K1J0 1J020160121022011201/21/16 02:20:31  5-MIN K1J0 210820Z AUTO 00000KT 10SM OVC075 08/07 A3013 -100 93 -800 000/00 RMK AO2 T00830072
63871K1J0 1J020160121022511201/21/16 02:25:31  5-MIN K1J0 210825Z AUTO 00000KT 10SM OVC075 08/07 A3013 -100 93 -800 000/00 RMK AO2 T00830072
63871K1J0 1J020160121023011901/21/16 02:30:31  5-MIN K1J0 210830Z AUTO 00000KT 10SM FEW060 OVC075 08/07 A3013 -100 93 -800 000/00 RMK AO2 T00830072
63871K1J0 1J020160121023511201/21/16 02:35:31  5-MIN K1J0 210835Z AUTO 00000KT 10SM OVC070 08/08 A3013 -100 96 -800 000/00 RMK AO2 T00830078
63871K1J0 1J020160121024011201/21/16 02:40:31  5-MIN K1J0 210840Z AUTO 00000KT 10SM OVC070 08/08 A3013 -100 96 -800 000/00 RMK AO2 T00830078
63871K1J0 1J020160121024512601/21/16 02:45:31  5-MIN K1J0 210845Z AUTO 00000KT 10SM FEW049 BKN060 OVC075 08/08 A3013 -110 96 -800 000/00 RMK AO2 T00830078
63871K1J0 1J020160121025012601/21/16 02:50:31  5-MIN K1J0 210850Z AUTO 00000KT 10SM SCT050 BKN060 OVC075 09/08 A3014 -110 93 -800 000/00 RMK AO2 T00890078
63871K1J0 1J020160121025516301/21/16 02:55:31  5-MIN K1J0 210855Z AUTO 00000KT 6SM -RA BR BKN050 BKN060 OVC070 09/08 A3015 -120 93 -800 000/00 RMK AO2 RAB53 SLP193 P0000 60000 T00890078 58007
63871K1J0 1J020160121030013801/21/16 03:00:31  5-MIN K1J0 210900Z AUTO 00000KT 5SM -RA BR FEW043 BKN050 OVC060 09/08 A3015 -120 93 -800 000/00 RMK AO2 P0000 T00890078
63871K1J0 1J020160121030512801/21/16 03:05:31  5-MIN K1J0 210905Z AUTO 00000KT 7SM -RA SCT043 OVC055 09/08 A3015 -120 96 -800 000/00 RMK AO2 P0000 T00890083
63871K1J0 1J020160121031012801/21/16 03:10:31  5-MIN K1J0 210910Z AUTO 00000KT 9SM -RA BKN042 OVC050 09/08 A3015 -120 96 -800 000/00 RMK AO2 P0000 T00890083
63871K1J0 1J020160121031512801/21/16 03:15:31  5-MIN K1J0 210915Z AUTO 00000KT 9SM -RA BKN044 OVC050 09/08 A3015 -120 96 -800 000/00 RMK AO2 P0000 T00890083
63871K1J0 1J020160121032012801/21/16 03:20:31  5-MIN K1J0 210920Z AUTO 00000KT 8SM -RA BKN044 OVC055 09/08 A3015 -120 96 -800 000/00 RMK AO2 P0000 T00890083
63871K1J0 1J020160121032513501/21/16 03:25:31  5-MIN K1J0 210925Z AUTO 00000KT 7SM -RA SCT043 BKN055 OVC070 09/08 A3014 -110 96 -800 000/00 RMK AO2 P0000 T00890083
63871K1J0 1J020160121033013501/21/16 03:30:31  5-MIN K1J0 210930Z AUTO 00000KT 8SM -RA SCT043 BKN055 OVC090 09/08 A3014 -110 96 -800 000/00 RMK AO2 P0000 T00890083
63871K1J0 1J020160121033513501/21/16 03:35:31  5-MIN K1J0 210935Z AUTO 00000KT 9SM -RA FEW043 BKN070 OVC090 09/08 A3015 -120 96 -800 000/00 RMK AO2 P0000 T00890083
63871K1J0 1J020160121034013501/21/16 03:40:31  5-MIN K1J0 210940Z AUTO 00000KT 8SM -RA FEW045 BKN075 OVC090 09/08 A3015 -120 96 -800 000/00 RMK AO2 P0000 T00890083
63871K1J0 1J020160121034513801/21/16 03:45:31  5-MIN K1J0 210945Z AUTO 00000KT 4SM -RA BR BKN055 BKN070 OVC090 09/08 A3015 -120 96 -800 000/00 RMK AO2 P0002 T00890083
63871K1J0 1J020160121035014401/21/16 03:50:31  5-MIN K1J0 210950Z AUTO 11012KT 4SM -RA BR BKN050 BKN070 OVC090 09/08 A3009 -60 96 -700 110/12 RMK AO2 PRESFR P0003 T00890083
63871K1J0 1J020160121035514301/21/16 03:55:31  5-MIN K1J0 210955Z AUTO 15006KT 5SM RA BR SCT055 BKN070 OVC095 09/09 A3011 -80 96 -700 150/06 RMK AO2 SLP180 P0004 T00940089
63871K1J0 1J020160121040013501/21/16 04:00:31  5-MIN K1J0 211000Z AUTO 27004KT 8SM -RA SCT055 BKN070 OVC100 10/09 A3013 -100 93 -600 270/04 RMK AO2 P0000 T01000089
63871K1J0 1J020160121040513601/21/16 04:05:31  5-MIN K1J0 211005Z AUTO 31004KT 10SM -RA SCT050 BKN075 OVC100 10/09 A3014 -110 96 -700 310/04 RMK AO2 P0000 T01000094
63871K1J0 1J020160121041013801/21/16 04:10:31  5-MIN K1J0 211010Z AUTO 32003KT 10SM SCT042 BKN050 OVC075 10/09 A3014 -110 96 -700 320/03 RMK AO2 RAE08 P0000 T01000094
63871K1J0 1J020160121041513801/21/16 04:15:31  5-MIN K1J0 211015Z AUTO 00000KT 10SM BKN040 BKN055 OVC085 10/09 A3014 -110 96 -600 000/00 RMK AO2 RAE08 P0000 T01000094
63871K1J0 1J020160121042013801/21/16 04:20:31  5-MIN K1J0 211020Z AUTO 10003KT 10SM BKN040 BKN060 OVC075 10/09 A3013 -100 96 -600 100/03 RMK AO2 RAE08 P0000 T01000094
63871K1J0 1J020160121042513801/21/16 04:25:31  5-MIN K1J0 211025Z AUTO 00000KT 10SM BKN040 BKN060 OVC075 10/09 A3013 -100 96 -600 000/00 RMK AO2 RAE08 P0000 T01000094
63871K1J0 1J020160121043013101/21/16 04:30:31  5-MIN K1J0 211030Z AUTO 00000KT 10SM SCT040 OVC060 10/09 A3013 -100 96 -600 000/00 RMK AO2 RAE08 P0000 T01000094
63871K1J0 1J020160121043513101/21/16 04:35:31  5-MIN K1J0 211035Z AUTO 00000KT 10SM SCT040 OVC055 10/09 A3013 -100 96 -600 000/00 RMK AO2 RAE08 P0000 T01000094
63871K1J0 1J020160121044013101/21/16 04:40:31  5-MIN K1J0 211040Z AUTO 00000KT 10SM FEW040 OVC055 10/09 A3012 -100 96 -600 000/00 RMK AO2 RAE08 P0000 T01000094
63871K1J0 1J020160121044513101/21/16 04:45:31  5-MIN K1J0 211045Z AUTO 00000KT 10SM FEW040 OVC055 10/09 A3013 -100 96 -600 000/00 RMK AO2 RAE08 P0000 T01000094
63871K1J0 1J020160121045012401/21/16 04:50:31  5-MIN K1J0 211050Z AUTO 00000KT 10SM OVC055 11/09 A3013 -100 93 -600 000/00 RMK AO2 RAE08 P0000 T01060094
63871K1J0 1J020160121045513101/21/16 04:55:31  5-MIN K1J0 211055Z AUTO 00000KT 10SM OVC055 11/09 A3013 -100 93 -600 000/00 RMK AO2 RAE08 SLP186 P0000 T01060094
63871K1J0 1J020160121050011901/21/16 05:00:31  5-MIN K1J0 211100Z AUTO 00000KT 10SM SCT045 OVC055 11/09 A3013 -100 93 -600 000/00 RMK AO2 T01060094
63871K1J0 1J020160121050511901/21/16 05:05:31  5-MIN K1J0 211105Z AUTO 00000KT 10SM SCT045 OVC055 11/09 A3012 -100 93 -600 000/00 RMK AO2 T01060094
63871K1J0 1J020160121051011901/21/16 05:10:31  5-MIN K1J0 211110Z AUTO 00000KT 10SM SCT045 OVC050 11/10 A3012 -100 96 -600 000/00 RMK AO2 T01060100
63871K1J0 1J020160121051511801/21/16 05:15:31  5-MIN K1J0 211115Z AUTO 00000KT 10SM FEW045 OVC050 11/10 A3012 -90 96 -600 000/00 RMK AO2 T01060100
63871K1J0 1J020160121052011201/21/16 05:20:31  5-MIN K1J0 211120Z AUTO 00000KT 10SM OVC050 11/10 A3013 -100 96 -600 000/00 RMK AO2 T01060100
63871K1J0 1J020160121052511201/21/16 05:25:31  5-MIN K1J0 211125Z AUTO 00000KT 10SM OVC047 11/10 A3014 -110 96 -600 000/00 RMK AO2 T01060100
63871K1J0 1J020160121053013601/21/16 05:30:31  5-MIN K1J0 211130Z AUTO 00000KT 4SM RA BR BKN044 OVC050 11/10 A3013 -100 96 -600 000/00 RMK AO2 RAB27 P0005 T01060100
63871K1J0 1J020160121053513701/21/16 05:35:31  5-MIN K1J0 211135Z AUTO 00000KT 3SM RA BR BKN044 OVC050 10/10 A3013 -110 100 -600 000/00 RMK AO2 RAB27 P0006 T01000100
63871K1J0 1J020160121054013701/21/16 05:40:31  5-MIN K1J0 211140Z AUTO 00000KT 6SM -RA BR BKN048 OVC070 11/10 A3014 -110 96 -600 000/00 RMK AO2 RAB27 P0006 T01060100
63871K1J0 1J020160121054513501/21/16 05:45:31  5-MIN K1J0 211145Z AUTO 07003KT 10SM -RA SCT045 OVC070 11/10 A3013 -100 96 -600 070/03 RMK AO2 RAB27 P0006 T01060100
63871K1J0 1J020160121055013501/21/16 05:50:31  5-MIN K1J0 211150Z AUTO 00000KT 10SM -RA SCT045 OVC070 11/10 A3013 -110 96 -600 000/00 RMK AO2 RAB27 P0006 T01060100
63871K1J0 1J020160121055517901/21/16 05:55:31  5-MIN K1J0 211155Z AUTO 10003KT 10SM -RA SCT047 BKN075 OVC090 11/10 A3013 -100 96 -600 100/03 RMK AO2 RAB27 SLP187 P0006 60010 70010 T01060100 10106 20067 55009
63871K1J0 1J020160121060013601/21/16 06:00:31  5-MIN K1J0 211200Z AUTO 00000KT 10SM -RA FEW055 SCT070 OVC090 11/10 A3013 -100 96 -600 000/00 RMK AO2 P0000 T01060100
63871K1J0 1J020160121060513101/21/16 06:05:31  5-MIN K1J0 211205Z AUTO 00000KT 10SM SCT070 OVC095 11/10 A3014 -110 96 -600 000/00 RMK AO2 RAE02 P0000 T01060100
63871K1J0 1J020160121061013801/21/16 06:10:31  5-MIN K1J0 211210Z AUTO 18003KT 10SM FEW070 BKN090 OVC110 11/10 A3014 -110 96 -600 180/03 RMK AO2 RAE02 P0000 T01060100
63871K1J0 1J020160121061512401/21/16 06:15:31  5-MIN K1J0 211215Z AUTO 17003KT 10SM OVC100 11/10 A3014 -110 96 -600 170/03 RMK AO2 RAE02 P0000 T01060100
63871K1J0 1J020160121062012501/21/16 06:20:31  5-MIN K1J0 211220Z AUTO 00000KT 10SM OVC100 10/10 A3014 -110 100 -600 000/00 RMK AO2 RAE02 P0000 T01000100
63871K1J0 1J020160121062512401/21/16 06:25:31  5-MIN K1J0 211225Z AUTO 00000KT 10SM OVC100 10/09 A3014 -110 96 -700 000/00 RMK AO2 RAE02 P0000 T01000094
63871K1J0 1J020160121063012501/21/16 06:30:31  5-MIN K1J0 211230Z AUTO 00000KT 10SM OVC100 10/10 A3014 -110 100 -700 000/00 RMK AO2 RAE02 P0000 T01000100
63871K1J0 1J020160121063507501/21/16 06:35:31  5-MIN K1J0 211235Z AUTO M M M M /M RMK AO2 RAE02 P0000 $
63871K1J0 1J020160121064011401/21/16 06:40:31  5-MIN K1J0 211240Z AUTO 00000KT 10/09 A3014 -110 96 -700 000/00 RMK AO2 RAE02 P0000 T01000094 $
63871K1J0 1J020160121064512001/21/16 06:45:31  5-MIN K1J0 211245Z AUTO 00000KT 10SM 10/10 A3015 -120 100 -700 000/00 RMK AO2 RAE02 P0000 T01000100 $
63871K1J0 1J020160121065011901/21/16 06:50:31  5-MIN K1J0 211250Z AUTO 00000KT 10SM 10/09 A3014 -120 96 -700 000/00 RMK AO2 RAE02 P0000 T01000094 $
63871K1J0 1J020160121065512601/21/16 06:55:31  5-MIN K1J0 211255Z AUTO 00000KT 10SM 11/10 A3015 -120 96 -600 000/00 RMK AO2 RAE02 SLP193 P0000 T01060100 $
63871K1J0 1J020160121070010701/21/16 07:00:31  5-MIN K1J0 211300Z AUTO 00000KT 10SM 11/10 A3014 -110 96 -600 000/00 RMK AO2 T01060100 $
63871K1J0 1J020160121070512101/21/16 07:05:31  5-MIN K1J0 211305Z AUTO 00000KT 10SM BKN060 OVC090 11/10 A3014 -120 96 -600 000/00 RMK AO2 T01060100 $
63871K1J0 1J020160121071011401/21/16 07:10:31  5-MIN K1J0 211310Z AUTO 00000KT 10SM OVC060 11/10 A3015 -120 96 -600 000/00 RMK AO2 T01060100 $
63871K1J0 1J020160121071511401/21/16 07:15:31  5-MIN K1J0 211315Z AUTO 00000KT 10SM OVC060 11/10 A3014 -120 96 -600 000/00 RMK AO2 T01060100 $
63871K1J0 1J020160121072011401/21/16 07:20:31  5-MIN K1J0 211320Z AUTO 00000KT 10SM OVC055 11/10 A3014 -120 96 -600 000/00 RMK AO2 T01060100 $
63871K1J0 1J020160121072511501/21/16 07:25:31  5-MIN K1J0 211325Z AUTO 00000KT 10SM OVC055 11/11 A3015 -120 100 -600 000/00 RMK AO2 T01060106 $
63871K1J0 1J020160121073011401/21/16 07:30:31  5-MIN K1J0 211330Z AUTO 00000KT 10SM OVC055 11/11 A3015 -120 96 -500 000/00 RMK AO2 T01110106 $
63871K1J0 1J020160121073511401/21/16 07:35:31  5-MIN K1J0 211335Z AUTO 00000KT 10SM OVC055 11/11 A3015 -120 96 -500 000/00 RMK AO2 T01110106 $
63871K1J0 1J020160121074011401/21/16 07:40:31  5-MIN K1J0 211340Z AUTO 36003KT 10SM OVC055 11/11 A3015 -120 96 -500 360/03 RMK AO2 T01110106 $
63871K1J0 1J020160121074511401/21/16 07:45:31  5-MIN K1J0 211345Z AUTO 00000KT 10SM OVC050 12/11 A3015 -120 96 -500 000/00 RMK AO2 T01170111 $
63871K1J0 1J020160121075011401/21/16 07:50:31  5-MIN K1J0 211350Z AUTO 00000KT 10SM OVC050 12/11 A3015 -120 96 -500 000/00 RMK AO2 T01170111 $
63871K1J0 1J020160121075512101/21/16 07:55:31  5-MIN K1J0 211355Z AUTO 00000KT 10SM OVC050 12/11 A3015 -120 96 -500 000/00 RMK AO2 SLP195 T01170111 $
63871K1J0 1J020160121080011401/21/16 08:00:31  5-MIN K1J0 211400Z AUTO 04003KT 10SM OVC050 12/11 A3015 -120 96 -500 040/03 RMK AO2 T01170111 $
63871K1J0 1J020160121080511401/21/16 08:05:31  5-MIN K1J0 211405Z AUTO 00000KT 10SM OVC050 12/11 A3015 -120 96 -500 000/00 RMK AO2 T01170111 $
63871K1J0 1J020160121081011401/21/16 08:10:31  5-MIN K1J0 211410Z AUTO 00000KT 10SM OVC050 12/11 A3015 -120 93 -400 000/00 RMK AO2 T01220111 $
63871K1J0 1J020160121081511401/21/16 08:15:31  5-MIN K1J0 211415Z AUTO 00000KT 10SM OVC050 12/12 A3015 -120 96 -400 000/00 RMK AO2 T01220117 $
63871K1J0 1J020160121082011401/21/16 08:20:31  5-MIN K1J0 211420Z AUTO VRB03KT 10SM OVC050 12/12 A3016 -130 96 -400 VRB/03 RMK AO2 T01220117 $
63871K1J0 1J020160121082511401/21/16 08:25:31  5-MIN K1J0 211425Z AUTO 03003KT 10SM OVC050 12/12 A3016 -130 96 -400 030/03 RMK AO2 T01220117 $
63871K1J0 1J020160121083011401/21/16 08:30:31  5-MIN K1J0 211430Z AUTO 03003KT 10SM OVC050 13/12 A3016 -130 93 -300 030/03 RMK AO2 T01280117 $
63871K1J0 1J020160121083512101/21/16 08:35:31  5-MIN K1J0 211435Z AUTO 04003KT 10SM BKN050 OVC060 13/12 A3016 -130 93 -300 040/03 RMK AO2 T01280117 $
63871K1J0 1J020160121084012101/21/16 08:40:31  5-MIN K1J0 211440Z AUTO 00000KT 10SM FEW045 OVC055 13/12 A3016 -130 93 -300 000/00 RMK AO2 T01280117 $
63871K1J0 1J020160121084512801/21/16 08:45:31  5-MIN K1J0 211445Z AUTO 08003KT 10SM FEW045 BKN055 OVC075 13/12 A3016 -130 96 -300 080/03 RMK AO2 T01280122 $
63871K1J0 1J020160121085012101/21/16 08:50:31  5-MIN K1J0 211450Z AUTO 09003KT 10SM BKN055 OVC075 12/12 A3016 -130 96 -400 090/03 RMK AO2 T01220117 $
63871K1J0 1J020160121085513401/21/16 08:55:31  5-MIN K1J0 211455Z AUTO 00000KT 10SM BKN055 OVC075 13/12 A3016 -130 96 -300 000/00 RMK AO2 SLP198 60000 T01280122 $
63871K1J0 1J020160121090012101/21/16 09:00:31  5-MIN K1J0 211500Z AUTO 10004KT 10SM BKN060 OVC075 13/12 A3016 -130 96 -300 100/04 RMK AO2 T01280122 $
63871K1J0 1J020160121090512101/21/16 09:05:31  5-MIN K1J0 211505Z AUTO 07003KT 10SM SCT055 OVC070 12/12 A3016 -130 96 -400 070/03 RMK AO2 T01220117 $
63871K1J0 1J020160121091012101/21/16 09:10:31  5-MIN K1J0 211510Z AUTO 07003KT 10SM SCT055 OVC075 13/12 A3016 -130 93 -300 070/03 RMK AO2 T01280117 $
63871K1J0 1J020160121091512101/21/16 09:15:31  5-MIN K1J0 211515Z AUTO 06004KT 10SM BKN050 OVC070 13/12 A3016 -130 93 -300 060/04 RMK AO2 T01280117 $
63871K1J0 1J020160121092012101/21/16 09:20:31  5-MIN K1J0 211520Z AUTO 00000KT 10SM BKN050 OVC070 13/12 A3016 -130 96 -300 000/00 RMK AO2 T01280122 $
63871K1J0 1J020160121092512101/21/16 09:25:31  5-MIN K1J0 211525Z AUTO 00000KT 10SM BKN050 OVC070 13/12 A3017 -130 96 -300 000/00 RMK AO2 T01280122 $
63871K1J0 1J020160121093011401/21/16 09:30:31  5-MIN K1J0 211530Z AUTO 08003KT 10SM OVC050 13/12 A3017 -140 96 -300 080/03 RMK AO2 T01280122 $
63871K1J0 1J020160121093511401/21/16 09:35:31  5-MIN K1J0 211535Z AUTO 00000KT 10SM OVC050 13/12 A3017 -140 96 -400 000/00 RMK AO2 T01280122 $
63871K1J0 1J020160121094011401/21/16 09:40:31  5-MIN K1J0 211540Z AUTO 09003KT 10SM OVC055 13/13 A3017 -130 96 -300 090/03 RMK AO2 T01330128 $
63871K1J0 1J020160121094511401/21/16 09:45:31  5-MIN K1J0 211545Z AUTO 09003KT 10SM OVC060 13/13 A3017 -130 96 -300 090/03 RMK AO2 T01330128 $
63871K1J0 1J020160121095011401/21/16 09:50:31  5-MIN K1J0 211550Z AUTO 10003KT 10SM OVC055 13/12 A3017 -140 93 -300 100/03 RMK AO2 T01330122 $
63871K1J0 1J020160121095512101/21/16 09:55:31  5-MIN K1J0 211555Z AUTO 10003KT 10SM OVC060 13/12 A3016 -130 93 -300 100/03 RMK AO2 SLP199 T01330122 $
63871K1J0 1J020160121100011401/21/16 10:00:31  5-MIN K1J0 211600Z AUTO 11003KT 10SM OVC060 14/12 A3016 -130 90 -200 110/03 RMK AO2 T01390122 $
63871K1J0 1J020160121100511401/21/16 10:05:31  5-MIN K1J0 211605Z AUTO 09003KT 10SM OVC060 14/12 A3016 -130 90 -200 090/03 RMK AO2 T01390122 $
63871K1J0 1J020160121101012101/21/16 10:10:31  5-MIN K1J0 211610Z AUTO 10004KT 10SM BKN065 OVC075 14/12 A3016 -130 90 -200 100/04 RMK AO2 T01390122 $
63871K1J0 1J020160121101512101/21/16 10:15:31  5-MIN K1J0 211615Z AUTO 09004KT 10SM BKN060 OVC075 14/12 A3016 -130 90 -200 090/04 RMK AO2 T01390122 $
63871K1J0 1J020160121102012101/21/16 10:20:31  5-MIN K1J0 211620Z AUTO 11004KT 10SM FEW049 OVC060 14/12 A3015 -120 86 -100 110/04 RMK AO2 T01440122 $
63871K1J0 1J020160121102512101/21/16 10:25:31  5-MIN K1J0 211625Z AUTO 12004KT 10SM FEW049 OVC060 14/13 A3015 -120 93 -200 120/04 RMK AO2 T01390128 $
63871K1J0 1J020160121103012701/21/16 10:30:31  5-MIN K1J0 211630Z AUTO VRB03KT 9SM FEW036 FEW049 OVC060 14/13 A3015 -120 90 -100 VRB/03 RMK AO2 T01440128 $
63871K1J0 1J020160121103512701/21/16 10:35:31  5-MIN K1J0 211635Z AUTO 00000KT 9SM FEW036 SCT050 OVC060 15/13 A3015 -120 86 -100 000/00 RMK AO2 T01500128 $
63871K1J0 1J020160121104012801/21/16 10:40:31  5-MIN K1J0 211640Z AUTO 09003KT 10SM FEW036 SCT050 OVC060 14/13 A3015 -120 93 -100 090/03 RMK AO2 T01440133 $
63871K1J0 1J020160121104512801/21/16 10:45:31  5-MIN K1J0 211645Z AUTO 11004KT 10SM FEW038 SCT048 OVC060 14/13 A3015 -120 90 -100 110/04 RMK AO2 T01440128 $
63871K1J0 1J020160121105012801/21/16 10:50:31  5-MIN K1J0 211650Z AUTO 00000KT 10SM FEW038 SCT048 OVC065 14/13 A3015 -120 90 -100 000/00 RMK AO2 T01440128 $
63871K1J0 1J020160121105513501/21/16 10:55:31  5-MIN K1J0 211655Z AUTO 00000KT 10SM FEW036 BKN046 OVC065 14/13 A3015 -120 90 -100 000/00 RMK AO2 SLP193 T01440128 $
63871K1J0 1J020160121110012801/21/16 11:00:31  5-MIN K1J0 211700Z AUTO 08004KT 10SM FEW036 BKN046 OVC060 14/13 A3014 -110 90 -100 080/04 RMK AO2 T01440128 $
63871K1J0 1J020160121110512801/21/16 11:05:31  5-MIN K1J0 211705Z AUTO 00000KT 10SM FEW036 BKN046 OVC065 14/13 A3014 -110 90 -100 000/00 RMK AO2 T01440128 $
63871K1J0 1J020160121111012101/21/16 11:10:31  5-MIN K1J0 211710Z AUTO 00000KT 10SM BKN046 OVC065 15/13 A3014 -110 86 -100 000/00 RMK AO2 T01500128 $
63871K1J0 1J020160121111512801/21/16 11:15:31  5-MIN K1J0 211715Z AUTO 14003KT 10SM BKN046 BKN060 OVC070 14/13 A3014 -110 93 -100 140/03 RMK AO2 T01440133 $
63871K1J0 1J020160121112012101/21/16 11:20:31  5-MIN K1J0 211720Z AUTO 13004KT 10SM BKN046 OVC070 14/13 A3014 -110 93 -100 130/04 RMK AO2 T01440133 $
63871K1J0 1J020160121112512101/21/16 11:25:31  5-MIN K1J0 211725Z AUTO 12003KT 10SM BKN046 OVC070 15/13 A3014 -110 90 -100 120/03 RMK AO2 T01500133 $
63871K1J0 1J020160121113012801/21/16 11:30:31  5-MIN K1J0 211730Z AUTO 11003KT 10SM SCT042 BKN049 OVC065 14/13 A3013 -110 93 -100 110/03 RMK AO2 T01440133 $
63871K1J0 1J020160121113514301/21/16 11:35:31  5-MIN K1J0 211735Z AUTO 10003KT 9SM -RA FEW040 BKN049 OVC065 14/13 A3013 -100 93 -100 100/03 RMK AO2 RAB33 P0000 T01440133 $
63871K1J0 1J020160121114014001/21/16 11:40:31  5-MIN K1J0 211740Z AUTO 00000KT 7SM -RA FEW040 BKN055 OVC070 15/14 A3013 -100 93 0 000/00 RMK AO2 RAB33 P0000 T01500139 $
63871K1J0 1J020160121114514301/21/16 11:45:31  5-MIN K1J0 211745Z AUTO 00000KT 6SM -RA BR FEW038 BKN055 OVC070 15/14 A3013 -100 93 0 000/00 RMK AO2 RAB33 P0000 T01500139 $
63871K1J0 1J020160121115013501/21/16 11:50:31  5-MIN K1J0 211750Z AUTO 05003KT 6SM -RA BR FEW038 OVC060 15/14 A3012 -90 93 0 050/03 RMK AO2 RAB33 P0000 T01500139 $
63871K1J0 1J020160121115515701/21/16 11:55:31  5-MIN K1J0 211755Z AUTO 00000KT 8SM -RA BKN060 OVC075 15/14 A3012 -90 93 0 000/00 RMK AO2 RAB33 SLP184 P0000 60000 T01500139 10150 20100 $
63871K1J0 1J020160121120012701/21/16 12:00:31  5-MIN K1J0 211800Z AUTO 04003KT 10SM -RA BKN060 OVC070 15/14 A3011 -90 93 0 040/03 RMK AO2 P0000 T01500139 $
63871K1J0 1J020160121120512201/21/16 12:05:31  5-MIN K1J0 211805Z AUTO 04004KT 10SM OVC060 15/14 A3011 -90 93 0 040/04 RMK AO2 RAE03 P0000 T01500139 $
63871K1J0 1J020160121121012201/21/16 12:10:31  5-MIN K1J0 211810Z AUTO 06004KT 10SM OVC060 15/14 A3011 -80 93 0 060/04 RMK AO2 RAE03 P0000 T01500139 $
63871K1J0 1J020160121121512901/21/16 12:15:31  5-MIN K1J0 211815Z AUTO 08003KT 10SM BKN060 OVC070 16/14 A3011 -80 93 0 080/03 RMK AO2 RAE03 P0000 T01560144 $
63871K1J0 1J020160121122012201/21/16 12:20:31  5-MIN K1J0 211820Z AUTO 07003KT 10SM OVC065 16/14 A3010 -80 93 0 070/03 RMK AO2 RAE03 P0000 T01560144 $
63871K1J0 1J020160121122512901/21/16 12:25:31  5-MIN K1J0 211825Z AUTO 00000KT 10SM BKN060 OVC080 16/14 A3011 -80 93 0 000/00 RMK AO2 RAE03 P0000 T01560144 $
63871K1J0 1J020160121123014301/21/16 12:30:31  5-MIN K1J0 211830Z AUTO 00000KT 10SM -RA FEW048 SCT060 OVC075 16/14 A3010 -80 93 0 000/00 RMK AO2 RAE03B27 P0000 T01560144 $
63871K1J0 1J020160121123514301/21/16 12:35:31  5-MIN K1J0 211835Z AUTO 00000KT 10SM -RA FEW035 BKN055 OVC075 16/14 A3011 -80 93 0 000/00 RMK AO2 RAE03B27 P0000 T01560144 $
63871K1J0 1J020160121124014201/21/16 12:40:31  5-MIN K1J0 211840Z AUTO 00000KT 10SM FEW035 BKN049 OVC075 16/14 A3011 -80 93 0 000/00 RMK AO2 RAE03B27E36 P0000 T01560144 $
63871K1J0 1J020160121124513501/21/16 12:45:31  5-MIN K1J0 211845Z AUTO 00000KT 10SM BKN049 OVC075 15/14 A3011 -80 93 0 000/00 RMK AO2 RAE03B27E36 P0000 T01500139 $
63871K1J0 1J020160121125013501/21/16 12:50:31  5-MIN K1J0 211850Z AUTO 09003KT 10SM BKN049 OVC075 15/14 A3010 -70 93 0 090/03 RMK AO2 RAE03B27E36 P0000 T01500139 $
63871K1J0 1J020160121125514201/21/16 12:55:31  5-MIN K1J0 211855Z AUTO 11003KT 10SM BKN050 OVC070 15/14 A3010 -70 93 0 110/03 RMK AO2 RAE03B27E36 SLP176 P0000 T01500139 $
63871K1J0 1J020160121130012401/21/16 13:00:31  5-MIN K1J0 211900Z AUTO 11003KT 10SM FEW032 BKN045 OVC050 15/14 A3010 -70 93 0 110/03 RMK AO2 T01500139 $
63871K1J0 1J020160121130511701/21/16 13:05:31  5-MIN K1J0 211905Z AUTO 12003KT 10SM BKN043 OVC050 15/14 A3010 -70 93 0 120/03 RMK AO2 T01500139 $
63871K1J0 1J020160121131013901/21/16 13:10:31  5-MIN K1J0 211910Z AUTO 10004KT 9SM -RA FEW038 BKN048 OVC075 15/14 A3009 -60 93 0 100/04 RMK AO2 RAB06 P0000 T01500139 $
63871K1J0 1J020160121131513901/21/16 13:15:31  5-MIN K1J0 211915Z AUTO 11006KT 7SM -RA FEW038 BKN055 OVC070 15/14 A3008 -60 96 0 110/06 RMK AO2 RAB06 P0000 T01500144 $
63871K1J0 1J020160121132013901/21/16 13:20:31  5-MIN K1J0 211920Z AUTO 10005KT 7SM -RA SCT042 OVC060 15/14 A3007 -50 96 0 100/05 RMK AO2 RAB06 PRESFR P0000 T01500144 $
63871K1J0 1J020160121132513901/21/16 13:25:31  5-MIN K1J0 211925Z AUTO 10005KT 9SM -RA FEW038 SCT045 OVC060 15/14 A3007 -50 96 0 100/05 RMK AO2 RAB06 P0000 T01500144 $
63871K1J0 1J020160121133014001/21/16 13:30:31  5-MIN K1J0 211930Z AUTO 09005KT 10SM -RA FEW041 OVC060 15/14 A3006 -40 96 0 090/05 RMK AO2 RAB06 PRESFR P0000 T01500144 $
63871K1J0 1J020160121133514701/21/16 13:35:31  5-MIN K1J0 211935Z AUTO 09005KT 10SM -RA BKN060 BKN075 OVC090 15/14 A3006 -40 96 0 090/05 RMK AO2 RAB06 PRESFR P0000 T01500144 $
63871K1J0 1J020160121134014001/21/16 13:40:31  5-MIN K1J0 211940Z AUTO 09007KT 10SM -RA BKN060 BKN080 OVC090 15/14 A3006 -40 96 0 090/07 RMK AO2 RAB06 P0000 T01500144 $
63871K1J0 1J020160121134513301/21/16 13:45:31  5-MIN K1J0 211945Z AUTO VRB05KT 10SM -RA BKN055 OVC090 15/14 A3006 -40 96 0 VRB/05 RMK AO2 RAB06 P0000 T01500144 $
63871K1J0 1J020160121135013401/21/16 13:50:31  5-MIN K1J0 211950Z AUTO 09005KT 10SM BKN060 OVC090 16/14 A3006 -30 93 100 090/05 RMK AO2 RAB06E47 P0000 T01560144 $
63871K1J0 1J020160121135514801/21/16 13:55:31  5-MIN K1J0 211955Z AUTO 10005KT 10SM FEW007 BKN060 OVC090 16/14 A3006 -30 93 100 100/05 RMK AO2 RAB06E47 SLP163 P0000 T01560144 $
63871K1J0 1J020160121140012601/21/16 14:00:31  5-MIN K1J0 212000Z AUTO 11006KT 10SM SCT009 BKN055 OVC090 16/14 A3005 -30 93 100 110/06 RMK AO2 T01560144 $
63871K1J0 1J020160121140512601/21/16 14:05:31  5-MIN K1J0 212005Z AUTO 11006KT 10SM SCT009 BKN060 OVC090 16/14 A3005 -30 93 100 110/06 RMK AO2 T01560144 $
63871K1J0 1J020160121141012601/21/16 14:10:31  5-MIN K1J0 212010Z AUTO 09008KT 10SM SCT009 BKN060 OVC100 16/14 A3004 -20 93 100 090/08 RMK AO2 T01560144 $
63871K1J0 1J020160121141512601/21/16 14:15:31  5-MIN K1J0 212015Z AUTO 11007KT 10SM SCT009 BKN012 OVC100 16/14 A3004 -20 93 100 110/07 RMK AO2 T01560144 $
63871K1J0 1J020160121142013801/21/16 14:20:31  5-MIN K1J0 212020Z AUTO 11007KT 10SM FEW006 BKN010 BKN055 16/14 A3004 -20 93 100 110/07 RMK AO2 CIG 008V013 T01560144 $
63871K1J0 1J020160121142513101/21/16 14:25:31  5-MIN K1J0 212025Z AUTO 11007KT 10SM BKN010 BKN100 16/14 A3003 -10 93 100 110/07 RMK AO2 CIG 006V013 T01560144 $
63871K1J0 1J020160121143011901/21/16 14:30:31  5-MIN K1J0 212030Z AUTO 11008KT 10SM SCT009 BKN095 16/14 A3003 -10 93 100 110/08 RMK AO2 T01560144 $
63871K1J0 1J020160121143513501/21/16 14:35:31  5-MIN K1J0 212035Z AUTO 11007KT 080V140 10SM FEW009 BKN095 16/14 A3003 -10 93 100 110/07 080V140 RMK AO2 T01560144 $
63871K1J0 1J020160121144011901/21/16 14:40:31  5-MIN K1J0 212040Z AUTO VRB06KT 10SM FEW009 BKN095 16/14 A3003 -10 93 100 VRB/06 RMK AO2 T01560144 $
63871K1J0 1J020160121144512601/21/16 14:45:31  5-MIN K1J0 212045Z AUTO 12005KT 10SM FEW007 SCT055 OVC095 16/14 A3003 -10 93 100 120/05 RMK AO2 T01560144 $
63871K1J0 1J020160121145012601/21/16 14:50:31  5-MIN K1J0 212050Z AUTO 11006KT 10SM FEW007 BKN095 OVC110 16/14 A3003 -10 93 100 110/06 RMK AO2 T01560144 $
63871K1J0 1J020160121145514501/21/16 14:55:31  5-MIN K1J0 212055Z AUTO 10006KT 10SM FEW007 BKN095 OVC110 16/14 A3003 -10 93 100 100/06 RMK AO2 SLP153 60000 T01560144 58015 $
63871K1J0 1J020160121150012601/21/16 15:00:31  5-MIN K1J0 212100Z AUTO 12006KT 10SM FEW007 BKN055 OVC100 16/14 A3003 -10 93 100 120/06 RMK AO2 T01560144 $
63871K1J0 1J020160121150512601/21/16 15:05:31  5-MIN K1J0 212105Z AUTO 12007KT 10SM FEW007 BKN060 OVC110 16/14 A3002 -10 93 100 120/07 RMK AO2 T01560144 $
63871K1J0 1J020160121151012601/21/16 15:10:31  5-MIN K1J0 212110Z AUTO 11007KT 10SM FEW009 BKN060 OVC110 16/14 A3003 -10 93 100 110/07 RMK AO2 T01560144 $
63871K1J0 1J020160121151512401/21/16 15:15:31  5-MIN K1J0 212115Z AUTO 11006KT 10SM BKN060 BKN080 OVC110 16/14 A3002 0 93 100 110/06 RMK AO2 T01560144 $
63871K1J0 1J020160121152012401/21/16 15:20:31  5-MIN K1J0 212120Z AUTO 13007KT 10SM BKN060 BKN085 OVC110 16/14 A3002 0 93 100 130/07 RMK AO2 T01560144 $
63871K1J0 1J020160121152512401/21/16 15:25:31  5-MIN K1J0 212125Z AUTO 12006KT 10SM FEW012 BKN060 OVC100 16/14 A3002 0 93 100 120/06 RMK AO2 T01560144 $
63871K1J0 1J020160121153012401/21/16 15:30:31  5-MIN K1J0 212130Z AUTO 13007KT 10SM SCT012 BKN060 OVC100 16/14 A3002 0 93 100 130/07 RMK AO2 T01560144 $
63871K1J0 1J020160121153512401/21/16 15:35:31  5-MIN K1J0 212135Z AUTO 12007KT 10SM SCT012 BKN060 OVC100 16/14 A3002 0 93 100 120/07 RMK AO2 T01560144 $
63871K1J0 1J020160121154012401/21/16 15:40:31  5-MIN K1J0 212140Z AUTO 11006KT 10SM BKN012 BKN060 OVC100 16/14 A3002 0 93 100 110/06 RMK AO2 T01560144 $
63871K1J0 1J020160121154513601/21/16 15:45:31  5-MIN K1J0 212145Z AUTO 13006KT 10SM BKN010 BKN014 OVC100 16/14 A3002 0 93 100 130/06 RMK AO2 CIG 008V012 T01560144 $
63871K1J0 1J020160121155012901/21/16 15:50:31  5-MIN K1J0 212150Z AUTO 12005KT 10SM BKN010 OVC014 16/14 A3002 0 93 100 120/05 RMK AO2 CIG 007V012 T01560144 $
63871K1J0 1J020160121155513601/21/16 15:55:31  5-MIN K1J0 212155Z AUTO 12006KT 10SM BKN010 OVC014 16/14 A3002 0 93 100 120/06 RMK AO2 CIG 007V012 SLP151 T01560144 $
63871K1J0 1J020160121160012201/21/16 16:00:31  5-MIN K1J0 212200Z AUTO 12006KT 10SM OVC010 16/14 A3002 0 93 100 120/06 RMK AO2 CIG 007V014 T01560144 $
63871K1J0 1J020160121160512201/21/16 16:05:31  5-MIN K1J0 212205Z AUTO 12007KT 10SM OVC010 16/14 A3001 0 93 100 120/07 RMK AO2 CIG 007V013 T01560144 $
63871K1J0 1J020160121161012201/21/16 16:10:31  5-MIN K1J0 212210Z AUTO 11006KT 10SM OVC010 16/14 A3001 0 93 100 110/06 RMK AO2 CIG 007V012 T01560144 $
63871K1J0 1J020160121161512201/21/16 16:15:31  5-MIN K1J0 212215Z AUTO 11005KT 10SM OVC010 16/14 A3001 0 93 100 110/05 RMK AO2 CIG 007V013 T01560144 $
63871K1J0 1J020160121162013001/21/16 16:20:31  5-MIN K1J0 212220Z AUTO 11009KT 10SM BKN010 OVC014 16/14 A3001 10 93 100 110/09 RMK AO2 CIG 008V013 T01560144 $
63871K1J0 1J020160121162511701/21/16 16:25:31  5-MIN K1J0 212225Z AUTO 12006KT 10SM BKN010 OVC014 16/14 A3001 0 93 100 120/06 RMK AO2 T01560144 $
63871K1J0 1J020160121163012401/21/16 16:30:31  5-MIN K1J0 212230Z AUTO 12005KT 10SM BKN010 BKN075 OVC090 16/14 A3001 0 93 100 120/05 RMK AO2 T01560144 $
63871K1J0 1J020160121163513401/21/16 16:35:31  5-MIN K1J0 212235Z AUTO 12007KT 10SM -RA BKN010 OVC085 16/14 A3000 10 93 100 120/07 RMK AO2 RAB35 P0000 T01560144 $
63871K1J0 1J020160121164014101/21/16 16:40:31  5-MIN K1J0 212240Z AUTO 12006KT 10SM -RA SCT011 BKN085 OVC110 16/14 A3000 10 93 100 120/06 RMK AO2 RAB35 P0000 T01560144 $
63871K1J0 1J020160121164514101/21/16 16:45:31  5-MIN K1J0 212245Z AUTO 12004KT 10SM -RA FEW011 BKN080 OVC090 16/14 A3000 10 93 100 120/04 RMK AO2 RAB35 P0000 T01560144 $
63871K1J0 1J020160121165013401/21/16 16:50:31  5-MIN K1J0 212250Z AUTO 10007KT 10SM -RA FEW011 OVC085 16/14 A3000 20 93 100 100/07 RMK AO2 RAB35 P0000 T01560144 $
63871K1J0 1J020160121165514001/21/16 16:55:31  5-MIN K1J0 212255Z AUTO 10006KT 10SM SCT080 OVC100 16/14 A2999 20 93 100 100/06 RMK AO2 RAB35E53 SLP140 P0000 T01560144 $
63871K1J0 1J020160121170011801/21/16 17:00:31  5-MIN K1J0 212300Z AUTO 09006KT 10SM BKN090 OVC110 16/14 A2999 20 93 100 090/06 RMK AO2 T01560144 $
63871K1J0 1J020160121170512501/21/16 17:05:31  5-MIN K1J0 212305Z AUTO 11006KT 10SM FEW009 BKN090 OVC110 16/14 A2999 20 93 100 110/06 RMK AO2 T01560144 $
63871K1J0 1J020160121171012501/21/16 17:10:31  5-MIN K1J0 212310Z AUTO 12007KT 10SM FEW009 SCT075 OVC100 16/14 A2999 20 93 100 120/07 RMK AO2 T01560144 $
63871K1J0 1J020160121171512501/21/16 17:15:31  5-MIN K1J0 212315Z AUTO 10007KT 10SM SCT009 BKN070 OVC100 15/14 A2999 20 96 100 100/07 RMK AO2 T01500144 $
63871K1J0 1J020160121172012501/21/16 17:20:31  5-MIN K1J0 212320Z AUTO 12007KT 10SM SCT009 BKN070 OVC110 15/14 A2999 20 96 100 120/07 RMK AO2 T01500144 $
63871K1J0 1J020160121172513701/21/16 17:25:31  5-MIN K1J0 212325Z AUTO 11006KT 10SM BKN009 BKN070 OVC110 15/14 A2999 20 96 100 110/06 RMK AO2 CIG 006V012 T01500144 $
63871K1J0 1J020160121173013001/21/16 17:30:31  5-MIN K1J0 212330Z AUTO 12007KT 10SM BKN009 OVC070 15/14 A2999 30 96 100 120/07 RMK AO2 CIG 006V012 T01500144 $
63871K1J0 1J020160121173513001/21/16 17:35:31  5-MIN K1J0 212335Z AUTO 11006KT 10SM BKN009 OVC070 15/14 A2998 30 96 100 110/06 RMK AO2 CIG 006V012 T01500144 $
63871K1J0 1J020160122033516501/22/16 03:35:31  5-MIN K1J0 220935Z AUTO 23009G15KT 1 3/4SM +RA BR FEW006 SCT012 OVC022 15/14 A2974 250 93 300 230/09G15 RMK AO2 VIS 1V4 TSB15E35 P0034 T01500139 $
63871K1J0 1J020160122034016501/22/16 03:40:31  5-MIN K1J0 220940Z AUTO 16007G15KT 2 1/2SM +RA BR SCT010 BKN022 OVC032 15/14 A2973 260 96 400 160/07G15 RMK AO2 VIS 1V5 TSB15E35 P0035 T01500144 $
63871K1J0 1J020160122034514701/22/16 03:45:31  5-MIN K1J0 220945Z AUTO 17006KT 6SM -RA BR SCT013 BKN022 OVC040 16/14 A2973 260 93 400 170/06 RMK AO2 TSB15E35 P0035 T01560144 $
63871K1J0 1J020160122035014401/22/16 03:50:31  5-MIN K1J0 220950Z AUTO 14006KT 8SM -RA FEW011 BKN042 OVC065 16/15 A2972 270 96 400 140/06 RMK AO2 TSB15E35 P0036 T01560150 $
63871K1J0 1J020160122035515201/22/16 03:55:31  5-MIN K1J0 220955Z AUTO 12006KT 9SM -RA FEW013 BKN042 OVC080 15/15 A2971 280 100 400 120/06 RMK AO2 TSB15E35 SLP044 P0036 T01500150 $
63871K1J0 1J020160122040014401/22/16 04:00:31  5-MIN K1J0 221000Z AUTO 12007KT 10SM -RA FEW019 BKN040 OVC085 15/15 A2970 290 100 400 120/07 RMK AO2 PRESFR P0000 T01500150 $
63871K1J0 1J020160122040514301/22/16 04:05:31  5-MIN K1J0 221005Z AUTO 13008KT 10SM -RA FEW015 BKN065 OVC085 16/15 A2969 300 96 500 130/08 RMK AO2 PRESFR P0000 T01560150 $
63871K1J0 1J020160122041014301/22/16 04:10:31  5-MIN K1J0 221010Z AUTO 14009KT 10SM -RA FEW045 SCT065 BKN085 16/15 A2968 310 96 500 140/09 RMK AO2 PRESFR P0000 T01560150 $
63871K1J0 1J020160122041513801/22/16 04:15:31  5-MIN K1J0 221015Z AUTO 14009KT 10SM FEW042 FEW060 BKN085 16/15 A2968 310 96 500 140/09 RMK AO2 RAE13 P0000 T01560150 $
63871K1J0 1J020160122042013101/22/16 04:20:31  5-MIN K1J0 221020Z AUTO 14010KT 10SM FEW035 SCT085 16/15 A2967 320 96 500 140/10 RMK AO2 RAE13 P0000 T01560150 $
63871K1J0 1J020160122042507501/22/16 04:25:31  5-MIN K1J0 221025Z AUTO M M M M /M RMK AO2 RAE13 P0000 $
63871K1J0 1J020160122043011201/22/16 04:30:31  5-MIN K1J0 221030Z AUTO 15009KT 16/15 A2968 310 93 600 150/09 RMK AO2 RAE13 P0000 T01610150 $
63871K1J0 1J020160122043511701/22/16 04:35:31  5-MIN K1J0 221035Z AUTO 15008KT 10SM 16/15 A2968 310 93 600 150/08 RMK AO2 RAE13 P0000 T01610150 $
63871K1J0 1J020160122044011701/22/16 04:40:31  5-MIN K1J0 221040Z AUTO 15007KT 10SM 16/15 A2968 310 93 600 150/07 RMK AO2 RAE13 P0000 T01610150 $
63871K1J0 1J020160122044511701/22/16 04:45:31  5-MIN K1J0 221045Z AUTO 14008KT 10SM 16/15 A2968 310 93 600 140/08 RMK AO2 RAE13 P0000 T01610150 $
63871K1J0 1J020160122045011701/22/16 04:50:31  5-MIN K1J0 221050Z AUTO 17006KT 10SM 16/15 A2968 310 93 600 170/06 RMK AO2 RAE13 P0000 T01610150 $
63871K1J0 1J020160122045514501/22/16 04:55:31  5-MIN K1J0 221055Z AUTO 15007KT 10SM FEW019 FEW024 BKN060 16/16 A2968 310 96 600 150/07 RMK AO2 RAE13 SLP007 P0000 T01610156 $
63871K1J0 1J020160122050012601/22/16 05:00:31  5-MIN K1J0 221100Z AUTO 15007KT 10SM FEW019 SCT024 BKN060 16/16 A2968 310 96 600 150/07 RMK AO2 T01610156 $
63871K1J0 1J020160122050507901/22/16 05:05:31  5-MIN K1J0 221105Z AUTO 17008KT A2968 M M M 170/08 RMK AO2 $
63871K1J0 1J020160122051010001/22/16 05:10:31  5-MIN K1J0 221110Z AUTO 21004KT 16/16 A2968 310 96 600 210/04 RMK AO2 T01610156 $
63871K1J0 1J020160122051510501/22/16 05:15:31  5-MIN K1J0 221115Z AUTO 18007KT 10SM 16/15 A2967 310 93 600 180/07 RMK AO2 T01610150 $
63871K1J0 1J020160122052010501/22/16 05:20:31  5-MIN K1J0 221120Z AUTO 19008KT 10SM 16/15 A2968 310 93 600 190/08 RMK AO2 T01610150 $
63871K1J0 1J020160122052510501/22/16 05:25:31  5-MIN K1J0 221125Z AUTO 20006KT 10SM 16/15 A2968 310 93 600 200/06 RMK AO2 T01610150 $
63871K1J0 1J020160122053010501/22/16 05:30:31  5-MIN K1J0 221130Z AUTO 20005KT 10SM 16/16 A2968 310 96 600 200/05 RMK AO2 T01610156 $
63871K1J0 1J020160122053512601/22/16 05:35:31  5-MIN K1J0 221135Z AUTO 21005KT 10SM SCT017 BKN022 BKN029 17/16 A2968 310 93 600 210/05 RMK AO2 T01670156 $
63871K1J0 1J020160122054011201/22/16 05:40:31  5-MIN K1J0 221140Z AUTO 19006KT 10SM BKN020 16/16 A2968 310 96 600 190/06 RMK AO2 T01610156 $
63871K1J0 1J020160122054511901/22/16 05:45:31  5-MIN K1J0 221145Z AUTO 20005KT 10SM BKN018 OVC023 16/16 A2968 310 96 600 200/05 RMK AO2 T01610156 $
63871K1J0 1J020160122055011901/22/16 05:50:31  5-MIN K1J0 221150Z AUTO 19005KT 10SM BKN018 OVC025 16/16 A2968 310 96 500 190/05 RMK AO2 T01610156 $
63871K1J0 1J020160122055515001/22/16 05:55:31  5-MIN K1J0 221155Z AUTO 21008KT 10SM BKN018 OVC022 16/16 A2969 300 96 500 210/08 RMK AO2 SLP037 60064 70064 T01610156 10167 20133 $
63871K1J0 1J020160122060012601/22/16 06:00:31  5-MIN K1J0 221200Z AUTO 21007KT 10SM BKN018 BKN026 OVC035 16/15 A2969 300 93 500 210/07 RMK AO2 T01610150 $
63871K1J0 1J020160122060511901/22/16 06:05:31  5-MIN K1J0 221205Z AUTO 23005KT 10SM BKN017 BKN023 16/15 A2969 300 93 500 230/05 RMK AO2 T01610150 $
63871K1J0 1J020160122061011901/22/16 06:10:31  5-MIN K1J0 221210Z AUTO VRB06KT 10SM SCT017 BKN023 16/15 A2969 300 93 500 VRB/06 RMK AO2 T01610150 $
63871K1J0 1J020160122061511901/22/16 06:15:31  5-MIN K1J0 221215Z AUTO 23006KT 10SM SCT017 BKN023 16/14 A2970 290 90 500 230/06 RMK AO2 T01610144 $
63871K1J0 1J020160122062011901/22/16 06:20:31  5-MIN K1J0 221220Z AUTO 24008KT 10SM FEW018 SCT023 16/14 A2970 290 93 500 240/08 RMK AO2 T01560144 $
63871K1J0 1J020160122062511201/22/16 06:25:31  5-MIN K1J0 221225Z AUTO 23008KT 10SM FEW016 16/14 A2970 290 93 500 230/08 RMK AO2 T01560144 $
63871K1J0 1J020160122063011201/22/16 06:30:31  5-MIN K1J0 221230Z AUTO 23008KT 10SM FEW018 16/14 A2970 290 90 500 230/08 RMK AO2 T01560139 $
63871K1J0 1J020160122063511801/22/16 06:35:31  5-MIN K1J0 221235Z AUTO 23008G18KT 10SM FEW024 16/14 A2970 290 90 500 230/08G18 RMK AO2 T01560139 $
63871K1J0 1J020160122064011801/22/16 06:40:31  5-MIN K1J0 221240Z AUTO 23009G18KT 10SM FEW021 16/14 A2970 290 90 500 230/09G18 RMK AO2 T01560139 $
63871K1J0 1J020160122064511201/22/16 06:45:31  5-MIN K1J0 221245Z AUTO 24007KT 10SM FEW021 15/13 A2971 290 90 400 240/07 RMK AO2 T01500133 $
63871K1J0 1J020160122065011901/22/16 06:50:31  5-MIN K1J0 221250Z AUTO 24009KT 10SM FEW019 FEW025 15/13 A2971 280 90 400 240/09 RMK AO2 T01500133 $
63871K1J0 1J020160122065512601/22/16 06:55:31  5-MIN K1J0 221255Z AUTO 24010KT 10SM FEW019 FEW025 15/13 A2971 290 90 400 240/10 RMK AO2 SLP043 T01500133 $
63871K1J0 1J020160122070011801/22/16 07:00:31  5-MIN K1J0 221300Z AUTO 23007G15KT 10SM FEW021 15/13 A2971 280 86 400 230/07G15 RMK AO2 T01500128 $
63871K1J0 1J020160122070511201/22/16 07:05:31  5-MIN K1J0 221305Z AUTO 24007KT 10SM FEW019 15/13 A2971 280 86 400 240/07 RMK AO2 T01500128 $
63871K1J0 1J020160122071010901/22/16 07:10:31  5-MIN K1J0 221310Z AUTO 23005KT 10SM CLR 15/13 A2971 280 86 400 230/05 RMK AO2 T01500128 $
63871K1J0 1J020160122071510901/22/16 07:15:31  5-MIN K1J0 221315Z AUTO 23005KT 10SM CLR 14/13 A2971 280 90 300 230/05 RMK AO2 T01440128 $
63871K1J0 1J020160122072011201/22/16 07:20:31  5-MIN K1J0 221320Z AUTO 23007KT 10SM FEW026 14/13 A2971 280 90 300 230/07 RMK AO2 T01440128 $
63871K1J0 1J020160122072511201/22/16 07:25:31  5-MIN K1J0 221325Z AUTO 23008KT 10SM SCT024 14/13 A2971 280 90 300 230/08 RMK AO2 T01440128 $
63871K1J0 1J020160122073011901/22/16 07:30:31  5-MIN K1J0 221330Z AUTO 24006KT 10SM SCT024 BKN030 14/13 A2972 280 90 300 240/06 RMK AO2 T01440128 $
63871K1J0 1J020160122073511901/22/16 07:35:31  5-MIN K1J0 221335Z AUTO 25007KT 10SM SCT024 BKN030 14/13 A2972 280 90 300 250/07 RMK AO2 T01440128 $
63871K1J0 1J020160122074011901/22/16 07:40:31  5-MIN K1J0 221340Z AUTO 24007KT 10SM SCT024 SCT030 14/12 A2972 270 86 300 240/07 RMK AO2 T01440122 $
63871K1J0 1J020160122074511901/22/16 07:45:31  5-MIN K1J0 221345Z AUTO 24006KT 10SM FEW024 SCT030 14/12 A2972 270 86 300 240/06 RMK AO2 T01440122 $
63871K1J0 1J020160122075011901/22/16 07:50:31  5-MIN K1J0 221350Z AUTO VRB05KT 10SM FEW024 SCT030 14/12 A2972 280 86 300 VRB/05 RMK AO2 T01440122 $
63871K1J0 1J020160122075511901/22/16 07:55:31  5-MIN K1J0 221355Z AUTO 23006KT 10SM FEW030 15/12 A2972 270 83 400 230/06 RMK AO2 SLP047 T01500122 $
63871K1J0 1J020160122080010901/22/16 08:00:31  5-MIN K1J0 221400Z AUTO 24008KT 10SM CLR 15/12 A2972 270 83 400 240/08 RMK AO2 T01500122 $
63871K1J0 1J020160122080511201/22/16 08:05:31  5-MIN K1J0 221405Z AUTO 24008KT 10SM FEW019 14/12 A2972 270 86 300 240/08 RMK AO2 T01440122 $
63871K1J0 1J020160122081012501/22/16 08:10:31  5-MIN K1J0 221410Z AUTO 23009G18KT 10SM FEW019 FEW032 14/12 A2972 270 83 300 230/09G18 RMK AO2 T01440117 $
63871K1J0 1J020160122081512501/22/16 08:15:31  5-MIN K1J0 221415Z AUTO 23013G20KT 10SM FEW019 FEW036 14/11 A2973 270 83 200 230/13G20 RMK AO2 T01390111 $
63871K1J0 1J020160122082012501/22/16 08:20:31  5-MIN K1J0 221420Z AUTO 22012G20KT 10SM FEW018 FEW032 14/11 A2973 260 80 200 220/12G20 RMK AO2 T01390106 $
63871K1J0 1J020160122082512501/22/16 08:25:31  5-MIN K1J0 221425Z AUTO 22008G20KT 10SM FEW018 FEW032 14/11 A2973 260 83 200 220/08G20 RMK AO2 T01390111 $
63871K1J0 1J020160122083012501/22/16 08:30:31  5-MIN K1J0 221430Z AUTO 21010G20KT 10SM FEW018 FEW032 14/11 A2973 260 80 300 210/10G20 RMK AO2 T01440111 $
63871K1J0 1J020160122083512501/22/16 08:35:31  5-MIN K1J0 221435Z AUTO 22012G20KT 10SM FEW018 FEW035 14/11 A2974 260 77 300 220/12G20 RMK AO2 T01440106 $
63871K1J0 1J020160122084011801/22/16 08:40:31  5-MIN K1J0 221440Z AUTO 23011G20KT 10SM SCT035 14/11 A2974 260 77 300 230/11G20 RMK AO2 T01440106 $
63871K1J0 1J020160122084511901/22/16 08:45:31  5-MIN K1J0 221445Z AUTO 22010KT 10SM FEW026 SCT035 14/11 A2974 250 80 200 220/10 RMK AO2 T01390106 $
63871K1J0 1J020160122085013201/22/16 08:50:31  5-MIN K1J0 221450Z AUTO 22010G17KT 10SM FEW020 FEW026 SCT035 14/11 A2974 250 77 300 220/10G17 RMK AO2 T01440106 $
63871K1J0 1J020160122085513201/22/16 08:55:31  5-MIN K1J0 221455Z AUTO 23010G17KT 10SM FEW020 FEW035 14/10 A2974 250 77 200 230/10G17 RMK AO2 SLP056 T01390100 $
63871K1J0 1J020160122090012501/22/16 09:00:31  5-MIN K1J0 221500Z AUTO 24008G16KT 10SM FEW025 FEW035 14/11 A2974 250 77 300 240/08G16 RMK AO2 T01440106 $
63871K1J0 1J020160122090512501/22/16 09:05:31  5-MIN K1J0 221505Z AUTO 23011G18KT 10SM FEW022 FEW035 14/10 A2974 260 74 300 230/11G18 RMK AO2 T01440100 $
63871K1J0 1J020160122091011801/22/16 09:10:31  5-MIN K1J0 221510Z AUTO 21009G18KT 10SM FEW022 14/10 A2974 260 74 300 210/09G18 RMK AO2 T01440100 $
63871K1J0 1J020160122091511801/22/16 09:15:31  5-MIN K1J0 221515Z AUTO 21012G18KT 10SM FEW022 14/09 A2974 260 72 300 210/12G18 RMK AO2 T01440094 $
63871K1J0 1J020160122092011201/22/16 09:20:31  5-MIN K1J0 221520Z AUTO 22012KT 10SM FEW022 14/09 A2974 260 72 300 220/12 RMK AO2 T01440094 $
63871K1J0 1J020160122092511801/22/16 09:25:31  5-MIN K1J0 221525Z AUTO 24009G18KT 10SM FEW022 14/09 A2973 260 72 300 240/09G18 RMK AO2 T01440094 $
63871K1J0 1J020160122093011801/22/16 09:30:31  5-MIN K1J0 221530Z AUTO 22011G18KT 10SM FEW022 14/09 A2973 260 72 300 220/11G18 RMK AO2 T01440094 $
63871K1J0 1J020160122093511801/22/16 09:35:31  5-MIN K1J0 221535Z AUTO 22013G19KT 10SM SCT025 14/09 A2973 260 72 300 220/13G19 RMK AO2 T01440094 $
63871K1J0 1J020160122094012501/22/16 09:40:31  5-MIN K1J0 221540Z AUTO 22011G21KT 10SM SCT025 BKN041 14/09 A2974 260 71 200 220/11G21 RMK AO2 T01390089 $
63871K1J0 1J020160122094513201/22/16 09:45:31  5-MIN K1J0 221545Z AUTO 23011G21KT 10SM SCT025 SCT029 BKN034 14/09 A2974 260 74 200 230/11G21 RMK AO2 T01390094 $
63871K1J0 1J020160122095013201/22/16 09:50:31  5-MIN K1J0 221550Z AUTO 23008G20KT 10SM FEW025 SCT030 BKN040 14/09 A2974 250 71 200 230/08G20 RMK AO2 T01390089 $
63871K1J0 1J020160122095513901/22/16 09:55:31  5-MIN K1J0 221555Z AUTO 22012G20KT 10SM SCT025 SCT030 BKN036 14/09 A2974 250 71 200 220/12G20 RMK AO2 SLP056 T01390089 $
63871K1J0 1J020160122100014801/22/16 10:00:31  5-MIN K1J0 221600Z AUTO 24009G19KT 210V270 10SM SCT025 SCT030 OVC042 14/09 A2974 250 71 200 240/09G19 210V270 RMK AO2 T01390089 $
63871K1J0 1J020160122100511901/22/16 10:05:31  5-MIN K1J0 221605Z AUTO 23010KT 10SM FEW025 BKN042 14/09 A2974 250 72 300 230/10 RMK AO2 T01440094 $
63871K1J0 1J020160122101012601/22/16 10:10:31  5-MIN K1J0 221610Z AUTO 22009KT 10SM FEW025 FEW034 BKN044 14/09 A2974 260 72 300 220/09 RMK AO2 T01440094 $
63871K1J0 1J020160122101512501/22/16 10:15:31  5-MIN K1J0 221615Z AUTO 22009G17KT 10SM FEW025 BKN042 15/09 A2974 260 69 400 220/09G17 RMK AO2 T01500094 $
63871K1J0 1J020160122102012501/22/16 10:20:31  5-MIN K1J0 221620Z AUTO 23009G17KT 10SM SCT025 BKN044 14/09 A2974 260 69 300 230/09G17 RMK AO2 T01440089 $
63871K1J0 1J020160122102513201/22/16 10:25:31  5-MIN K1J0 221625Z AUTO 24013G19KT 10SM FEW027 BKN038 BKN045 14/09 A2974 250 71 200 240/13G19 RMK AO2 T01390089 $
63871K1J0 1J020160122103013201/22/16 10:30:31  5-MIN K1J0 221630Z AUTO 23010G19KT 10SM FEW025 SCT031 BKN041 14/09 A2974 250 69 300 230/10G19 RMK AO2 T01440089 $
63871K1J0 1J020160122103513201/22/16 10:35:31  5-MIN K1J0 221635Z AUTO 23011G18KT 10SM FEW025 SCT031 BKN046 14/09 A2973 260 69 300 230/11G18 RMK AO2 T01440089 $
63871K1J0 1J020160122104013201/22/16 10:40:31  5-MIN K1J0 221640Z AUTO 23012G18KT 10SM FEW025 BKN044 OVC050 14/08 A2973 260 66 300 230/12G18 RMK AO2 T01440083 $
63871K1J0 1J020160122104514801/22/16 10:45:31  5-MIN K1J0 221645Z AUTO 22010G18KT 180V240 10SM SCT029 BKN040 OVC050 14/08 A2973 260 66 300 220/10G18 180V240 RMK AO2 T01440083 $
63871K1J0 1J020160122105013201/22/16 10:50:31  5-MIN K1J0 221650Z AUTO 22012G19KT 10SM SCT029 BKN033 OVC048 14/08 A2973 270 66 200 220/12G19 RMK AO2 T01390078 $
63871K1J0 1J020160122105513901/22/16 10:55:31  5-MIN K1J0 221655Z AUTO 24009G19KT 10SM SCT029 BKN033 OVC048 13/08 A2973 270 69 200 240/09G19 RMK AO2 SLP051 T01330078 $
63871K1J0 1J020160122110013201/22/16 11:00:31  5-MIN K1J0 221700Z AUTO 23011G18KT 10SM BKN029 BKN039 OVC048 13/08 A2973 260 71 200 230/11G18 RMK AO2 T01330083 $
63871K1J0 1J020160122110513201/22/16 11:05:31  5-MIN K1J0 221705Z AUTO 23009G17KT 10SM BKN029 BKN035 BKN044 13/08 A2972 270 71 200 230/09G17 RMK AO2 T01330083 $
63871K1J0 1J020160122111014101/22/16 11:10:31  5-MIN K1J0 221710Z AUTO 24008G17KT 210V270 10SM BKN029 BKN037 14/08 A2972 270 66 300 240/08G17 210V270 RMK AO2 T01440083 $
63871K1J0 1J020160122111512501/22/16 11:15:31  5-MIN K1J0 221715Z AUTO 24013G21KT 10SM SCT029 BKN037 15/08 A2972 270 64 400 240/13G21 RMK AO2 T01500083 $
63871K1J0 1J020160122112013201/22/16 11:20:31  5-MIN K1J0 221720Z AUTO 23012G21KT 10SM SCT029 BKN035 BKN046 14/07 A2972 280 64 200 230/12G21 RMK AO2 T01390072 $
63871K1J0 1J020160122112513201/22/16 11:25:31  5-MIN K1J0 221725Z AUTO 24008G20KT 10SM FEW029 SCT036 BKN045 14/07 A2972 280 64 200 240/08G20 RMK AO2 T01390072 $
63871K1J0 1J020160122113013201/22/16 11:30:31  5-MIN K1J0 221730Z AUTO 23010G16KT 10SM FEW029 SCT036 BKN047 14/07 A2971 280 64 300 230/10G16 RMK AO2 T01390072 $
63871K1J0 1J020160122113514801/22/16 11:35:31  5-MIN K1J0 221735Z AUTO 24010G19KT 210V280 10SM FEW029 FEW037 BKN047 14/07 A2971 280 64 300 240/10G19 210V280 RMK AO2 T01390072 $
63871K1J0 1J020160122114013201/22/16 11:40:31  5-MIN K1J0 221740Z AUTO 24009G19KT 10SM FEW029 FEW035 BKN047 14/07 A2971 280 64 300 240/09G19 RMK AO2 T01390072 $
63871K1J0 1J020160122114513201/22/16 11:45:31  5-MIN K1J0 221745Z AUTO 24010G16KT 10SM FEW031 SCT041 BKN050 14/07 A2970 290 64 300 240/10G16 RMK AO2 T01390072 $
63871K1J0 1J020160122115013201/22/16 11:50:31  5-MIN K1J0 221750Z AUTO 25008G15KT 10SM FEW031 BKN039 BKN048 13/07 A2971 280 66 200 250/08G15 RMK AO2 T01330072 $
63871K1J0 1J020160122115516601/22/16 11:55:31  5-MIN K1J0 221755Z AUTO 25009G16KT 210V300 10SM SCT033 BKN046 14/07 A2971 290 64 300 250/09G16 210V300 RMK AO2 SLP043 T01390072 10167 20133 53017 $
63871K1J0 1J020160122120012501/22/16 12:00:31  5-MIN K1J0 221800Z AUTO 24012G19KT 10SM SCT033 BKN047 14/08 A2971 290 66 300 240/12G19 RMK AO2 T01390078 $
63871K1J0 1J020160122120513201/22/16 12:05:31  5-MIN K1J0 221805Z AUTO 28011G19KT 10SM FEW027 BKN035 BKN046 14/08 A2971 290 64 300 280/11G19 RMK AO2 T01440078 $
63871K1J0 1J020160122121012501/22/16 12:10:31  5-MIN K1J0 221810Z AUTO 27008G21KT 10SM SCT029 BKN038 14/08 A2971 280 66 300 270/08G21 RMK AO2 T01390078 $
63871K1J0 1J020160122121512501/22/16 12:15:31  5-MIN K1J0 221815Z AUTO 26010G21KT 10SM FEW029 SCT038 13/07 A2971 280 69 100 260/10G21 RMK AO2 T01280072 $
63871K1J0 1J020160122122012501/22/16 12:20:31  5-MIN K1J0 221820Z AUTO 25012G18KT 10SM FEW029 SCT035 13/07 A2971 280 66 100 250/12G18 RMK AO2 T01280067 $
63871K1J0 1J020160122122512501/22/16 12:25:31  5-MIN K1J0 221825Z AUTO 26009G18KT 10SM SCT029 BKN035 13/07 A2971 280 66 100 260/09G18 RMK AO2 T01280067 $
63871K1J0 1J020160122123012501/22/16 12:30:31  5-MIN K1J0 221830Z AUTO 25010G18KT 10SM BKN028 BKN035 13/07 A2971 280 66 100 250/10G18 RMK AO2 T01280067 $
63871K1J0 1J020160122123511801/22/16 12:35:31  5-MIN K1J0 221835Z AUTO 25008G15KT 10SM BKN026 12/07 A2971 280 68 100 250/08G15 RMK AO2 T01220067 $
63871K1J0 1J020160122124012301/22/16 12:40:31  5-MIN K1J0 221840Z AUTO 26012G21KT 10SM SCT021 BKN027 12/07 A2971 280 74 0 260/12G21 RMK AO2 T01170072 $
63871K1J0 1J020160122124512301/22/16 12:45:31  5-MIN K1J0 221845Z AUTO 27010G21KT 10SM SCT018 OVC027 11/07 A2972 280 77 0 270/10G21 RMK AO2 T01110072 $
63871K1J0 1J020160122125012601/22/16 12:50:31  5-MIN K1J0 221850Z AUTO 27008G19KT 10SM BKN018 OVC026 11/07 A2972 270 77 -100 270/08G19 RMK AO2 T01060067 $
63871K1J0 1J020160122125513301/22/16 12:55:31  5-MIN K1J0 221855Z AUTO 27006G19KT 10SM BKN018 OVC024 11/07 A2972 280 77 -100 270/06G19 RMK AO2 SLP047 T01060067 $
63871K1J0 1J020160122130012001/22/16 13:00:31  5-MIN K1J0 221900Z AUTO 27007KT 10SM BKN017 OVC024 11/07 A2971 280 77 -100 270/07 RMK AO2 T01060067 $
63871K1J0 1J020160122130512001/22/16 13:05:31  5-MIN K1J0 221905Z AUTO 28008KT 10SM BKN017 OVC026 11/07 A2971 280 77 -100 280/08 RMK AO2 T01060067 $
63871K1J0 1J020160122131012901/22/16 13:10:31  5-MIN K1J0 221910Z AUTO 27009KT 230V300 10SM OVC017 11/07 A2971 280 77 -100 270/09 230V300 RMK AO2 T01060067 $
63871K1J0 1J020160122131511301/22/16 13:15:31  5-MIN K1J0 221915Z AUTO 27009KT 10SM OVC017 11/07 A2971 280 77 -100 270/09 RMK AO2 T01060067 $
63871K1J0 1J020160122132012001/22/16 13:20:31  5-MIN K1J0 221920Z AUTO 28007KT 10SM BKN017 OVC023 10/07 A2971 280 80 -200 280/07 RMK AO2 T01000067 $
63871K1J0 1J020160122132512001/22/16 13:25:31  5-MIN K1J0 221925Z AUTO 27008KT 10SM BKN017 OVC023 10/07 A2971 280 80 -200 270/08 RMK AO2 T01000067 $
63871K1J0 1J020160122133011901/22/16 13:30:31  5-MIN K1J0 221930Z AUTO 26007G15KT 10SM OVC017 09/06 A2971 280 79 -200 260/07G15 RMK AO2 T00940061 $
63871K1J0 1J020160122133512001/22/16 13:35:31  5-MIN K1J0 221935Z AUTO 27008KT 10SM BKN017 OVC021 09/06 A2971 280 79 -200 270/08 RMK AO2 T00940061 $
63871K1J0 1J020160122134011901/22/16 13:40:31  5-MIN K1J0 221940Z AUTO 27006G16KT 10SM OVC015 09/06 A2971 280 76 -200 270/06G16 RMK AO2 T00940056 $
63871K1J0 1J020160122134512601/22/16 13:45:31  5-MIN K1J0 221945Z AUTO 28006G16KT 10SM BKN017 OVC022 10/06 A2971 280 74 -200 280/06G16 RMK AO2 T01000056 $
63871K1J0 1J020160122135011301/22/16 13:50:31  5-MIN K1J0 221950Z AUTO VRB05KT 10SM OVC017 09/06 A2971 280 76 -200 VRB/05 RMK AO2 T00940056 $
63871K1J0 1J020160122135512001/22/16 13:55:31  5-MIN K1J0 221955Z AUTO VRB06KT 10SM OVC017 09/06 A2971 280 76 -200 VRB/06 RMK AO2 SLP045 T00940056 $
63871K1J0 1J020160122140011301/22/16 14:00:31  5-MIN K1J0 222000Z AUTO 28005KT 10SM OVC017 10/06 A2971 280 74 -200 280/05 RMK AO2 T01000056 $
63871K1J0 1J020160122140512601/22/16 14:05:31  5-MIN K1J0 222005Z AUTO 27007G15KT 10SM BKN019 OVC027 10/06 A2971 280 74 -200 270/07G15 RMK AO2 T01000056 $
63871K1J0 1J020160122141012601/22/16 14:10:31  5-MIN K1J0 222010Z AUTO VRB05G15KT 10SM BKN019 OVC027 10/06 A2971 280 74 -200 VRB/05G15 RMK AO2 T01000056 $
63871K1J0 1J020160122141511901/22/16 14:15:31  5-MIN K1J0 222015Z AUTO 25009G16KT 10SM OVC019 09/05 A2971 280 74 -200 250/09G16 RMK AO2 T00940050 $
63871K1J0 1J020160122142011901/22/16 14:20:31  5-MIN K1J0 222020Z AUTO 26008G16KT 10SM OVC019 09/05 A2971 280 74 -200 260/08G16 RMK AO2 T00940050 $
63871K1J0 1J020160122142511301/22/16 14:25:31  5-MIN K1J0 222025Z AUTO 26007KT 10SM OVC021 09/05 A2971 280 74 -200 260/07 RMK AO2 T00940050 $
63871K1J0 1J020160122143011301/22/16 14:30:31  5-MIN K1J0 222030Z AUTO VRB05KT 10SM OVC021 09/05 A2971 280 74 -200 VRB/05 RMK AO2 T00940050 $
63871K1J0 1J020160122143511901/22/16 14:35:31  5-MIN K1J0 222035Z AUTO 27009G15KT 10SM OVC021 09/05 A2971 280 74 -200 270/09G15 RMK AO2 T00940050 $
63871K1J0 1J020160122144011901/22/16 14:40:31  5-MIN K1J0 222040Z AUTO 27006G15KT 10SM OVC021 09/04 A2972 280 73 -300 270/06G15 RMK AO2 T00890044 $
63871K1J0 1J020160122144511301/22/16 14:45:31  5-MIN K1J0 222045Z AUTO 28007KT 10SM OVC021 09/05 A2972 270 76 -300 280/07 RMK AO2 T00890050 $
63871K1J0 1J020160122145011301/22/16 14:50:31  5-MIN K1J0 222050Z AUTO 28007KT 10SM OVC021 09/04 A2972 270 73 -300 280/07 RMK AO2 T00890044 $
63871K1J0 1J020160122145512601/22/16 14:55:31  5-MIN K1J0 222055Z AUTO 27008KT 10SM OVC021 09/04 A2972 270 73 -300 270/08 RMK AO2 SLP050 T00890044 58012 $
63871K1J0 1J020160122150012901/22/16 15:00:31  5-MIN K1J0 222100Z AUTO 28008KT 240V320 10SM OVC021 08/04 A2973 260 76 -400 280/08 240V320 RMK AO2 T00830044 $
63871K1J0 1J020160122150511301/22/16 15:05:31  5-MIN K1J0 222105Z AUTO 27007KT 10SM OVC021 08/04 A2973 260 79 -500 270/07 RMK AO2 T00780044 $
63871K1J0 1J020160122151011301/22/16 15:10:31  5-MIN K1J0 222110Z AUTO 28006KT 10SM OVC021 08/04 A2974 260 76 -400 280/06 RMK AO2 T00830044 $
63871K1J0 1J020160122151511301/22/16 15:15:31  5-MIN K1J0 222115Z AUTO 28007KT 10SM OVC021 08/04 A2974 260 79 -500 280/07 RMK AO2 T00780044 $
63871K1J0 1J020160122152012501/22/16 15:20:31  5-MIN K1J0 222120Z AUTO 26010KT 10SM OVC021 07/04 A2974 250 79 -500 260/10 RMK AO2 CIG 014V026 T00720039 $
63871K1J0 1J020160122152512601/22/16 15:25:31  5-MIN K1J0 222125Z AUTO 28008G15KT 10SM BKN015 OVC023 07/04 A2974 250 79 -500 280/08G15 RMK AO2 T00720039 $
63871K1J0 1J020160122153012001/22/16 15:30:31  5-MIN K1J0 222130Z AUTO VRB05KT 10SM BKN015 OVC023 07/04 A2975 250 79 -500 VRB/05 RMK AO2 T00720039 $
63871K1J0 1J020160122153511901/22/16 15:35:31  5-MIN K1J0 222135Z AUTO 27008G16KT 10SM OVC017 07/04 A2975 250 79 -500 270/08G16 RMK AO2 T00720039 $
63871K1J0 1J020160122154011901/22/16 15:40:31  5-MIN K1J0 222140Z AUTO 28007G16KT 10SM OVC017 07/04 A2975 240 79 -500 280/07G16 RMK AO2 T00720039 $
63871K1J0 1J020160122154512901/22/16 15:45:31  5-MIN K1J0 222145Z AUTO 27007KT 240V300 10SM OVC017 07/04 A2975 240 79 -500 270/07 240V300 RMK AO2 T00720039 $
63871K1J0 1J020160122155012601/22/16 15:50:31  5-MIN K1J0 222150Z AUTO 26009G16KT 10SM BKN015 OVC020 07/04 A2976 240 82 -600 260/09G16 RMK AO2 T00670039 $
63871K1J0 1J020160122155513301/22/16 15:55:31  5-MIN K1J0 222155Z AUTO 26008G16KT 10SM BKN015 OVC020 07/03 A2976 230 79 -600 260/08G16 RMK AO2 SLP063 T00670033 $
63871K1J0 1J020160122160011301/22/16 16:00:31  5-MIN K1J0 222200Z AUTO 28009KT 10SM OVC017 07/03 A2977 230 79 -600 280/09 RMK AO2 T00670033 $
63871K1J0 1J020160122160512001/22/16 16:05:31  5-MIN K1J0 222205Z AUTO VRB05KT 10SM BKN017 OVC021 07/03 A2977 230 79 -600 VRB/05 RMK AO2 T00670033 $
63871K1J0 1J020160122161011301/22/16 16:10:31  5-MIN K1J0 222210Z AUTO VRB06KT 10SM OVC017 07/03 A2977 230 76 -600 VRB/06 RMK AO2 T00670028 $
63871K1J0 1J020160122161511301/22/16 16:15:31  5-MIN K1J0 222215Z AUTO 27007KT 10SM OVC017 07/03 A2977 220 76 -600 270/07 RMK AO2 T00670028 $
63871K1J0 1J020160122162012001/22/16 16:20:31  5-MIN K1J0 222220Z AUTO 28007KT 10SM BKN017 OVC024 06/03 A2977 220 82 -700 280/07 RMK AO2 T00610033 $
63871K1J0 1J020160122162512601/22/16 16:25:31  5-MIN K1J0 222225Z AUTO 27009G14KT 10SM BKN019 OVC024 06/03 A2977 220 79 -700 270/09G14 RMK AO2 T00610028 $
63871K1J0 1J020160122163012601/22/16 16:30:31  5-MIN K1J0 222230Z AUTO 28007G19KT 10SM BKN019 OVC024 06/02 A2978 220 79 -800 280/07G19 RMK AO2 T00560022 $
63871K1J0 1J020160122163512601/22/16 16:35:31  5-MIN K1J0 222235Z AUTO 30006G19KT 10SM BKN019 OVC024 06/03 A2978 220 82 -800 300/06G19 RMK AO2 T00560028 $
63871K1J0 1J020160122164013301/22/16 16:40:31  5-MIN K1J0 222240Z AUTO 30007G16KT 10SM BKN019 BKN026 OVC033 06/02 A2978 220 79 -800 300/07G16 RMK AO2 T00560022 $
63871K1J0 1J020160122164512701/22/16 16:45:31  5-MIN K1J0 222245Z AUTO VRB04KT 10SM BKN019 BKN024 OVC033 06/02 A2978 220 79 -800 VRB/04 RMK AO2 T00560022 $
63871K1J0 1J020160122165012001/22/16 16:50:31  5-MIN K1J0 222250Z AUTO 28007KT 10SM BKN019 OVC026 06/02 A2978 220 79 -800 280/07 RMK AO2 T00560022 $
63871K1J0 1J020160122165512701/22/16 16:55:31  5-MIN K1J0 222255Z AUTO 27005KT 10SM BKN019 OVC026 06/02 A2978 220 79 -800 270/05 RMK AO2 SLP069 T00560022 $
63871K1J0 1J020160122170012601/22/16 17:00:31  5-MIN K1J0 222300Z AUTO 30009G18KT 10SM BKN019 OVC026 06/02 A2979 210 76 -800 300/09G18 RMK AO2 T00560017 $
63871K1J0 1J020160122170512601/22/16 17:05:31  5-MIN K1J0 222305Z AUTO 28007G18KT 10SM BKN020 OVC028 06/02 A2979 210 76 -800 280/07G18 RMK AO2 T00560017 $
63871K1J0 1J020160122171011301/22/16 17:10:31  5-MIN K1J0 222310Z AUTO 27006KT 10SM OVC020 06/02 A2979 200 76 -800 270/06 RMK AO2 T00560017 $
63871K1J0 1J020160122171511301/22/16 17:15:31  5-MIN K1J0 222315Z AUTO 28005KT 10SM OVC020 06/02 A2979 200 79 -800 280/05 RMK AO2 T00560022 $
63871K1J0 1J020160122172011301/22/16 17:20:31  5-MIN K1J0 222320Z AUTO 27005KT 10SM OVC020 06/02 A2980 200 79 -800 270/05 RMK AO2 T00560022 $
63871K1J0 1J020160122172511301/22/16 17:25:31  5-MIN K1J0 222325Z AUTO VRB04KT 10SM OVC020 06/02 A2979 200 79 -800 VRB/04 RMK AO2 T00560022 $
63871K1J0 1J020160122173011301/22/16 17:30:31  5-MIN K1J0 222330Z AUTO VRB05KT 10SM OVC020 06/02 A2980 200 79 -800 VRB/05 RMK AO2 T00560022 $
63871K1J0 1J020160122173511301/22/16 17:35:31  5-MIN K1J0 222335Z AUTO 28003KT 10SM OVC020 06/02 A2980 200 79 -800 280/03 RMK AO2 T00560022 $
63871K1J0 1J020160122174011301/22/16 17:40:31  5-MIN K1J0 222340Z AUTO 28006KT 10SM OVC018 06/02 A2980 200 79 -800 280/06 RMK AO2 T00560022 $
63871K1J0 1J020160122174511301/22/16 17:45:31  5-MIN K1J0 222345Z AUTO 28007KT 10SM OVC018 05/02 A2981 190 82 -900 280/07 RMK AO2 T00500022 $
63871K1J0 1J020160122175012701/22/16 17:50:31  5-MIN K1J0 222350Z AUTO 29007KT 10SM BKN018 BKN025 OVC034 05/02 A2981 190 79 -900 290/07 RMK AO2 T00500017 $
63871K1J0 1J020160122175515201/22/16 17:55:31  5-MIN K1J0 222355Z AUTO VRB05KT 10SM BKN018 BKN025 OVC034 05/02 A2981 190 79 -900 VRB/05 RMK AO2 SLP079 T00500017 10144 20050 53007 $
63871K1J0 1J020160122180014301/22/16 18:00:31  5-MIN K1J0 230000Z AUTO 28007KT 240V300 10SM BKN018 BKN024 OVC034 05/01 A2981 190 76 -900 280/07 240V300 RMK AO2 T00500011 $
63871K1J0 1J020160122180512701/22/16 18:05:31  5-MIN K1J0 230005Z AUTO VRB06KT 10SM BKN018 BKN024 OVC034 05/01 A2981 190 76 -900 VRB/06 RMK AO2 T00500011 $
63871K1J0 1J020160122181012001/22/16 18:10:31  5-MIN K1J0 230010Z AUTO VRB06KT 10SM BKN021 OVC034 05/01 A2982 180 76 -900 VRB/06 RMK AO2 T00500011 $
63871K1J0 1J020160122181512701/22/16 18:15:31  5-MIN K1J0 230015Z AUTO 29006KT 10SM BKN021 BKN025 OVC034 05/01 A2982 180 76 -900 290/06 RMK AO2 T00500011 $
63871K1J0 1J020160122182012801/22/16 18:20:31  5-MIN K1J0 230020Z AUTO 29007KT 10SM BKN021 BKN027 OVC034 04/01 A2982 180 76 -1000 290/07 RMK AO2 T00440006 $
63871K1J0 1J020160122182512101/22/16 18:25:31  5-MIN K1J0 230025Z AUTO 29008KT 10SM BKN021 OVC027 04/01 A2982 180 76 -1000 290/08 RMK AO2 T00440006 $
63871K1J0 1J020160122183012701/22/16 18:30:31  5-MIN K1J0 230030Z AUTO 29007G15KT 10SM BKN021 OVC026 04/01 A2983 170 79 -1000 290/07G15 RMK AO2 T00440011 $
63871K1J0 1J020160122183512001/22/16 18:35:31  5-MIN K1J0 230035Z AUTO 28008G17KT 10SM OVC021 04/01 A2983 170 76 -1000 280/08G17 RMK AO2 T00440006 $
63871K1J0 1J020160122184012001/22/16 18:40:31  5-MIN K1J0 230040Z AUTO VRB06G17KT 10SM OVC021 04/01 A2983 170 76 -1000 VRB/06G17 RMK AO2 T00440006 $
63871K1J0 1J020160122184511401/22/16 18:45:31  5-MIN K1J0 230045Z AUTO 30006KT 10SM OVC020 04/01 A2983 170 76 -1000 300/06 RMK AO2 T00440006 $
63871K1J0 1J020160122185011401/22/16 18:50:31  5-MIN K1J0 230050Z AUTO 29006KT 10SM OVC020 04/01 A2983 170 76 -1000 290/06 RMK AO2 T00440006 $
63871K1J0 1J020160122185512101/22/16 18:55:31  5-MIN K1J0 230055Z AUTO VRB06KT 10SM OVC019 04/01 A2983 170 76 -1000 VRB/06 RMK AO2 SLP086 T00440006 $
63871K1J0 1J020160122190013001/22/16 19:00:31  5-MIN K1J0 230100Z AUTO 29007KT 240V330 10SM OVC019 04/01 A2983 170 76 -1000 290/07 240V330 RMK AO2 T00440006 $
63871K1J0 1J020160122190511401/22/16 19:05:31  5-MIN K1J0 230105Z AUTO VRB05KT 10SM OVC018 04/01 A2984 160 76 -1000 VRB/05 RMK AO2 T00440006 $
63871K1J0 1J020160122191011401/22/16 19:10:31  5-MIN K1J0 230110Z AUTO 30007KT 10SM OVC018 04/01 A2984 160 79 -1000 300/07 RMK AO2 T00440011 $
63871K1J0 1J020160122191513601/22/16 19:15:31  5-MIN K1J0 230115Z AUTO 31010G19KT 270V330 10SM OVC018 04/01 A2984 160 79 -1100 310/10G19 270V330 RMK AO2 T00390006 $
63871K1J0 1J020160122192012001/22/16 19:20:31  5-MIN K1J0 230120Z AUTO 30009G19KT 10SM OVC018 04/01 A2984 160 79 -1100 300/09G19 RMK AO2 T00390006 $
63871K1J0 1J020160122192513601/22/16 19:25:31  5-MIN K1J0 230125Z AUTO 30009G17KT 250V330 10SM OVC018 04/01 A2984 160 79 -1100 300/09G17 250V330 RMK AO2 T00390006 $
63871K1J0 1J020160122193012001/22/16 19:30:31  5-MIN K1J0 230130Z AUTO 29007G17KT 10SM OVC018 04/01 A2985 150 79 -1100 290/07G17 RMK AO2 T00390006 $
63871K1J0 1J020160122193513001/22/16 19:35:31  5-MIN K1J0 230135Z AUTO 29007KT 260V320 10SM OVC017 04/01 A2985 150 79 -1100 290/07 260V320 RMK AO2 T00390006 $
63871K1J0 1J020160122194011401/22/16 19:40:31  5-MIN K1J0 230140Z AUTO 30007KT 10SM OVC017 04/01 A2985 150 79 -1100 300/07 RMK AO2 T00390006 $
63871K1J0 1J020160122194513401/22/16 19:45:31  5-MIN K1J0 230145Z AUTO 30011G18KT 10SM BKN017 BKN023 OVC030 03/01 A2985 150 82 -1100 300/11G18 RMK AO2 T00330006 $
63871K1J0 1J020160122195015001/22/16 19:50:31  5-MIN K1J0 230150Z AUTO 31008G19KT 270V340 10SM BKN017 BKN026 OVC032 03/01 A2986 150 82 -1100 310/08G19 270V340 RMK AO2 T00330006 $
63871K1J0 1J020160122195514101/22/16 19:55:31  5-MIN K1J0 230155Z AUTO 29007G19KT 10SM SCT017 BKN026 OVC032 03/01 A2986 150 85 -1200 290/07G19 RMK AO2 SLP095 T00280006 $
63871K1J0 1J020160122200013401/22/16 20:00:31  5-MIN K1J0 230200Z AUTO 30008G15KT 10SM SCT017 BKN026 OVC032 03/01 A2986 140 85 -1200 300/08G15 RMK AO2 T00280006 $
63871K1J0 1J020160122200512701/22/16 20:05:31  5-MIN K1J0 230205Z AUTO VRB06G15KT 10SM BKN016 OVC029 03/01 A2986 140 85 -1200 VRB/06G15 RMK AO2 T00280006 $
63871K1J0 1J020160122201012801/22/16 20:10:31  5-MIN K1J0 230210Z AUTO 30008KT 10SM BKN016 BKN027 OVC032 03/01 A2986 140 85 -1200 300/08 RMK AO2 T00280006 $
63871K1J0 1J020160122201512801/22/16 20:15:31  5-MIN K1J0 230215Z AUTO 30007KT 10SM BKN016 BKN026 OVC030 03/01 A2986 140 85 -1200 300/07 RMK AO2 T00280006 $
63871K1J0 1J020160122202011401/22/16 20:20:31  5-MIN K1J0 230220Z AUTO VRB06KT 10SM OVC016 03/01 A2986 140 85 -1200 VRB/06 RMK AO2 T00280006 $
63871K1J0 1J020160122202512101/22/16 20:25:31  5-MIN K1J0 230225Z AUTO 31006KT 10SM BKN016 OVC022 03/01 A2986 140 85 -1200 310/06 RMK AO2 T00280006 $
63871K1J0 1J020160122203012101/22/16 20:30:31  5-MIN K1J0 230230Z AUTO 31007KT 10SM BKN016 OVC022 03/01 A2986 140 85 -1200 310/07 RMK AO2 T00280006 $
63871K1J0 1J020160122203512101/22/16 20:35:31  5-MIN K1J0 230235Z AUTO VRB06KT 10SM BKN014 OVC020 03/01 A2986 140 85 -1200 VRB/06 RMK AO2 T00280006 $
63871K1J0 1J020160122204012101/22/16 20:40:31  5-MIN K1J0 230240Z AUTO 30004KT 10SM BKN014 OVC020 03/01 A2986 140 89 -1200 300/04 RMK AO2 T00280011 $
63871K1J0 1J020160122204512101/22/16 20:45:31  5-MIN K1J0 230245Z AUTO 30007KT 10SM BKN012 OVC020 03/01 A2986 140 89 -1200 300/07 RMK AO2 T00280011 $
63871K1J0 1J020160122205012101/22/16 20:50:31  5-MIN K1J0 230250Z AUTO 30007KT 10SM BKN014 OVC021 03/01 A2986 140 85 -1200 300/07 RMK AO2 T00280006 $
63871K1J0 1J020160122205515701/22/16 20:55:31  5-MIN K1J0 230255Z AUTO 31007KT 270V360 10SM BKN014 BKN021 OVC028 03/01 A2986 140 85 -1200 310/07 270V360 RMK AO2 SLP096 T00280006 51028 $
63871K1J0 1J020160122210012801/22/16 21:00:31  5-MIN K1J0 230300Z AUTO 28006KT 10SM BKN014 BKN021 OVC029 03/01 A2986 140 85 -1200 280/06 RMK AO2 T00280006 $
63871K1J0 1J020160122210512801/22/16 21:05:31  5-MIN K1J0 230305Z AUTO 31005KT 10SM SCT014 BKN021 BKN030 02/00 A2986 140 85 -1300 310/05 RMK AO2 T00220000 $
63871K1J0 1J020160122211012801/22/16 21:10:31  5-MIN K1J0 230310Z AUTO 30005KT 10SM FEW014 BKN021 OVC027 03/00 A2986 140 82 -1200 300/05 RMK AO2 T00280000 $
63871K1J0 1J020160122211512801/22/16 21:15:31  5-MIN K1J0 230315Z AUTO VRB05KT 10SM FEW015 BKN021 OVC027 03/00 A2986 140 82 -1200 VRB/05 RMK AO2 T00280000 $
63871K1J0 1J020160122212012101/22/16 21:20:31  5-MIN K1J0 230320Z AUTO VRB06KT 10SM BKN019 OVC029 03/00 A2986 140 82 -1200 VRB/06 RMK AO2 T00280000 $
63871K1J0 1J020160122212512101/22/16 21:25:31  5-MIN K1J0 230325Z AUTO 29006KT 10SM BKN019 OVC029 03/00 A2987 140 82 -1200 290/06 RMK AO2 T00280000 $
63871K1J0 1J020160122213012101/22/16 21:30:31  5-MIN K1J0 230330Z AUTO 30007KT 10SM BKN019 OVC029 03/00 A2987 130 82 -1200 300/07 RMK AO2 T00280000 $
63871K1J0 1J020160122213512001/22/16 21:35:31  5-MIN K1J0 230335Z AUTO VRB04G14KT 10SM OVC019 03/00 A2987 130 82 -1200 VRB/04G14 RMK AO2 T00280000 $
63871K1J0 1J020160122214012001/22/16 21:40:31  5-MIN K1J0 230340Z AUTO 30007G14KT 10SM OVC018 03/00 A2987 130 82 -1200 300/07G14 RMK AO2 T00280000 $
63871K1J0 1J020160122214511401/22/16 21:45:31  5-MIN K1J0 230345Z AUTO 30006KT 10SM OVC018 03/00 A2988 130 82 -1200 300/06 RMK AO2 T00280000 $
63871K1J0 1J020160122215011401/22/16 21:50:31  5-MIN K1J0 230350Z AUTO 30005KT 10SM OVC018 03/00 A2988 120 82 -1200 300/05 RMK AO2 T00280000 $
63871K1J0 1J020160122215512101/22/16 21:55:31  5-MIN K1J0 230355Z AUTO 30005KT 10SM OVC017 03/00 A2988 120 82 -1200 300/05 RMK AO2 SLP105 T00280000 $
63871K1J0 1J020160122220013101/22/16 22:00:31  5-MIN K1J0 230400Z AUTO 30007KT 270V330 10SM OVC017 03/M01 A2989 120 79 -1200 300/07 270V330 RMK AO2 T00281006 $
63871K1J0 1J020160122220511501/22/16 22:05:31  5-MIN K1J0 230405Z AUTO 28006KT 10SM OVC017 03/M01 A2989 120 79 -1200 280/06 RMK AO2 T00281006 $
63871K1J0 1J020160122221011501/22/16 22:10:31  5-MIN K1J0 230410Z AUTO 29006KT 10SM OVC018 03/M01 A2989 120 79 -1300 290/06 RMK AO2 T00281006 $
63871K1J0 1J020160122221511501/22/16 22:15:31  5-MIN K1J0 230415Z AUTO 30006KT 10SM OVC018 03/M01 A2989 120 79 -1300 300/06 RMK AO2 T00281006 $
63871K1J0 1J020160122222011501/22/16 22:20:31  5-MIN K1J0 230420Z AUTO VRB05KT 10SM OVC018 03/M01 A2989 110 79 -1300 VRB/05 RMK AO2 T00281006 $
63871K1J0 1J020160122222511501/22/16 22:25:31  5-MIN K1J0 230425Z AUTO VRB06KT 10SM OVC019 03/M01 A2989 110 79 -1300 VRB/06 RMK AO2 T00281006 $
63871K1J0 1J020160122223011501/22/16 22:30:31  5-MIN K1J0 230430Z AUTO VRB05KT 10SM OVC019 03/M01 A2989 110 79 -1300 VRB/05 RMK AO2 T00281006 $
63871K1J0 1J020160122223511501/22/16 22:35:31  5-MIN K1J0 230435Z AUTO VRB05KT 10SM OVC020 03/M01 A2989 110 79 -1300 VRB/05 RMK AO2 T00281006 $
63871K1J0 1J020160122224011501/22/16 22:40:31  5-MIN K1J0 230440Z AUTO VRB06KT 10SM OVC020 02/M01 A2989 120 82 -1300 VRB/06 RMK AO2 T00221006 $
63871K1J0 1J020160122224511501/22/16 22:45:31  5-MIN K1J0 230445Z AUTO 30008KT 10SM OVC022 02/M01 A2989 120 82 -1300 300/08 RMK AO2 T00221006 $
63871K1J0 1J020160122225012201/22/16 22:50:31  5-MIN K1J0 230450Z AUTO VRB06KT 10SM BKN022 OVC026 02/M01 A2989 120 82 -1300 VRB/06 RMK AO2 T00221006 $
63871K1J0 1J020160122225512201/22/16 22:55:31  5-MIN K1J0 230455Z AUTO VRB06KT 10SM OVC022 02/M01 A2989 120 82 -1300 VRB/06 RMK AO2 SLP106 T00221006 $
63871K1J0 1J020160122230012201/22/16 23:00:31  5-MIN K1J0 230500Z AUTO 30006KT 10SM BKN022 OVC028 02/M01 A2989 120 82 -1300 300/06 RMK AO2 T00221006 $
63871K1J0 1J020160122230512101/22/16 23:05:31  5-MIN K1J0 230505Z AUTO VRB06KT 10SM BKN022 OVC028 02/00 A2989 120 85 -1300 VRB/06 RMK AO2 T00220000 $
63871K1J0 1J020160122231012101/22/16 23:10:31  5-MIN K1J0 230510Z AUTO 29005KT 10SM BKN020 OVC028 02/00 A2989 120 85 -1300 290/05 RMK AO2 T00220000 $
63871K1J0 1J020160122231512801/22/16 23:15:31  5-MIN K1J0 230515Z AUTO 28006KT 10SM SCT015 BKN021 OVC028 02/00 A2989 120 85 -1300 280/06 RMK AO2 T00220000 $
63871K1J0 1J020160122232012101/22/16 23:20:31  5-MIN K1J0 230520Z AUTO 29005KT 10SM SCT017 OVC024 02/00 A2989 120 85 -1300 290/05 RMK AO2 T00220000 $
63871K1J0 1J020160122232512801/22/16 23:25:31  5-MIN K1J0 230525Z AUTO 28005KT 10SM FEW014 BKN020 OVC025 02/00 A2989 110 89 -1400 280/05 RMK AO2 T00170000 $
63871K1J0 1J020160122233012101/22/16 23:30:31  5-MIN K1J0 230530Z AUTO 27005KT 10SM FEW014 OVC021 02/00 A2989 110 89 -1400 270/05 RMK AO2 T00170000 $
63871K1J0 1J020160122233512801/22/16 23:35:31  5-MIN K1J0 230535Z AUTO 27006KT 10SM BKN014 BKN020 OVC026 02/01 A2989 110 92 -1400 270/06 RMK AO2 T00170006 $
63871K1J0 1J020160122234012101/22/16 23:40:31  5-MIN K1J0 230540Z AUTO VRB06KT 10SM BKN015 OVC020 02/01 A2989 110 92 -1400 VRB/06 RMK AO2 T00170006 $
63871K1J0 1J020160122234512101/22/16 23:45:31  5-MIN K1J0 230545Z AUTO 28005KT 10SM BKN015 OVC022 02/01 A2989 120 92 -1400 280/05 RMK AO2 T00170006 $
63871K1J0 1J020160122235012801/22/16 23:50:31  5-MIN K1J0 230550Z AUTO VRB04KT 10SM SCT015 BKN021 OVC028 02/00 A2989 120 89 -1400 VRB/04 RMK AO2 T00170000 $
63871K1J0 1J020160122235516301/22/16 23:55:31  5-MIN K1J0 230555Z AUTO VRB04KT 10SM SCT015 BKN020 OVC030 02/00 A2989 120 85 -1300 VRB/04 RMK AO2 SLP106 T00220000 10050 20017 401670017 51016 $
63871K1J0 1J020160123000012801/23/16 00:00:31  5-MIN K1J0 230600Z AUTO VRB05KT 10SM SCT015 BKN020 OVC030 02/01 A2989 120 89 -1300 VRB/05 RMK AO2 T00220006 $
63871K1J0 1J020160123000512801/23/16 00:05:31  5-MIN K1J0 230605Z AUTO 27005KT 10SM SCT014 BKN021 OVC030 02/00 A2989 120 85 -1300 270/05 RMK AO2 T00220000 $
63871K1J0 1J020160123001012701/23/16 00:10:31  5-MIN K1J0 230610Z AUTO VRB05KT 9SM BKN014 BKN021 OVC030 02/00 A2989 120 85 -1300 VRB/05 RMK AO2 T00220000 $
63871K1J0 1J020160123001514301/23/16 00:15:31  5-MIN K1J0 230615Z AUTO 29006KT 8SM -SN BKN014 BKN020 OVC030 02/01 A2989 120 92 -1400 290/06 RMK AO2 SNB11 P0000 T00170006 $
63871K1J0 1J020160123002015901/23/16 00:20:31  5-MIN K1J0 230620Z AUTO 28008KT 250V320 8SM -SN BKN012 BKN020 OVC030 02/01 A2989 120 92 -1400 280/08 250V320 RMK AO2 SNB11 P0000 T00170006 $
63871K1J0 1J020160123002513501/23/16 00:25:31  5-MIN K1J0 230625Z AUTO VRB06KT 9SM BKN012 OVC020 02/00 A2989 120 89 -1400 VRB/06 RMK AO2 SNB11E23 P0000 T00170000 $
63871K1J0 1J020160123003014301/23/16 00:30:31  5-MIN K1J0 230630Z AUTO 29005KT 10SM BKN012 BKN018 OVC025 02/00 A2988 120 89 -1400 290/05 RMK AO2 SNB11E23 P0000 T00170000 $
63871K1J0 1J020160123003514301/23/16 00:35:31  5-MIN K1J0 230635Z AUTO VRB06KT 10SM SCT012 BKN018 OVC025 02/00 A2988 120 89 -1400 VRB/06 RMK AO2 SNB11E23 P0000 T00170000 $
63871K1J0 1J020160123004014301/23/16 00:40:31  5-MIN K1J0 230640Z AUTO 30008KT 10SM BKN015 BKN021 OVC025 02/00 A2988 120 85 -1300 300/08 RMK AO2 SNB11E23 P0000 T00220000 $
63871K1J0 1J020160123004513701/23/16 00:45:31  5-MIN K1J0 230645Z AUTO VRB05KT 10SM BKN017 OVC024 02/M01 A2988 120 82 -1300 VRB/05 RMK AO2 SNB11E23 P0000 T00221006 $
63871K1J0 1J020160123005013601/23/16 00:50:31  5-MIN K1J0 230650Z AUTO 30005KT 10SM BKN017 OVC024 02/00 A2988 120 85 -1300 300/05 RMK AO2 SNB11E23 P0000 T00220000 $
63871K1J0 1J020160123005514301/23/16 00:55:31  5-MIN K1J0 230655Z AUTO VRB04KT 10SM BKN017 OVC024 02/00 A2989 120 85 -1300 VRB/04 RMK AO2 SNB11E23 SLP106 P0000 T00220000 $
63871K1J0 1J020160123010012101/23/16 01:00:31  5-MIN K1J0 230700Z AUTO VRB05KT 10SM BKN017 OVC024 02/00 A2989 120 85 -1300 VRB/05 RMK AO2 T00220000 $
63871K1J0 1J020160123010512201/23/16 01:05:31  5-MIN K1J0 230705Z AUTO 29005KT 10SM BKN017 OVC022 02/M01 A2989 120 82 -1300 290/05 RMK AO2 T00221006 $
63871K1J0 1J020160123011012101/23/16 01:10:31  5-MIN K1J0 230710Z AUTO 28006KT 10SM SCT016 OVC022 02/00 A2989 120 85 -1300 280/06 RMK AO2 T00220000 $
63871K1J0 1J020160123011512101/23/16 01:15:31  5-MIN K1J0 230715Z AUTO 29006KT 10SM BKN018 OVC024 02/00 A2989 120 85 -1300 290/06 RMK AO2 T00220000 $
63871K1J0 1J020160123012012101/23/16 01:20:31  5-MIN K1J0 230720Z AUTO VRB06KT 10SM BKN016 OVC022 02/00 A2989 120 89 -1400 VRB/06 RMK AO2 T00170000 $
63871K1J0 1J020160123012512101/23/16 01:25:31  5-MIN K1J0 230725Z AUTO VRB05KT 10SM BKN016 OVC022 02/00 A2989 120 89 -1400 VRB/05 RMK AO2 T00170000 $
63871K1J0 1J020160123013012101/23/16 01:30:31  5-MIN K1J0 230730Z AUTO 30005KT 10SM BKN017 OVC022 02/00 A2989 120 89 -1400 300/05 RMK AO2 T00170000 $
63871K1J0 1J020160123013512101/23/16 01:35:31  5-MIN K1J0 230735Z AUTO VRB05KT 10SM BKN015 OVC021 02/00 A2989 120 89 -1400 VRB/05 RMK AO2 T00170000 $
63871K1J0 1J020160123014012101/23/16 01:40:31  5-MIN K1J0 230740Z AUTO VRB06KT 10SM BKN015 OVC021 02/00 A2989 120 89 -1400 VRB/06 RMK AO2 T00170000 $
63871K1J0 1J020160123014512801/23/16 01:45:31  5-MIN K1J0 230745Z AUTO 31008G15KT 10SM BKN017 OVC021 02/M01 A2989 120 85 -1400 310/08G15 RMK AO2 T00171006 $
63871K1J0 1J020160123015012701/23/16 01:50:31  5-MIN K1J0 230750Z AUTO VRB06G15KT 10SM BKN017 OVC021 02/00 A2989 120 89 -1400 VRB/06G15 RMK AO2 T00170000 $
63871K1J0 1J020160123015512101/23/16 01:55:31  5-MIN K1J0 230755Z AUTO 30005KT 10SM OVC015 02/00 A2989 110 85 -1300 300/05 RMK AO2 SLP108 T00220000 $
63871K1J0 1J020160123020012801/23/16 02:00:31  5-MIN K1J0 230800Z AUTO 31012G17KT 10SM BKN015 OVC020 02/M01 A2989 110 82 -1300 310/12G17 RMK AO2 T00221006 $
63871K1J0 1J020160123020513701/23/16 02:05:31  5-MIN K1J0 230805Z AUTO 29007G17KT 250V330 10SM OVC017 02/M01 A2989 110 82 -1300 290/07G17 250V330 RMK AO2 T00221006 $
63871K1J0 1J020160123021014401/23/16 02:10:31  5-MIN K1J0 230810Z AUTO 31010G18KT 270V340 10SM BKN019 OVC025 02/M01 A2989 110 78 -1300 310/10G18 270V340 RMK AO2 T00221011 $
63871K1J0 1J020160123021512801/23/16 02:15:31  5-MIN K1J0 230815Z AUTO 31010G22KT 10SM BKN017 OVC024 02/M02 A2989 110 75 -1300 310/10G22 RMK AO2 T00221017 $
63871K1J0 1J020160123022012801/23/16 02:20:31  5-MIN K1J0 230820Z AUTO 32010G22KT 10SM SCT018 OVC026 02/M02 A2989 110 75 -1300 320/10G22 RMK AO2 T00221017 $
63871K1J0 1J020160123022512801/23/16 02:25:31  5-MIN K1J0 230825Z AUTO 32013G25KT 10SM SCT021 OVC028 02/M02 A2989 110 72 -1300 320/13G25 RMK AO2 T00221022 $
63871K1J0 1J020160123023012801/23/16 02:30:31  5-MIN K1J0 230830Z AUTO 31009G25KT 10SM BKN025 OVC030 02/M02 A2989 110 75 -1300 310/09G25 RMK AO2 T00221017 $
63871K1J0 1J020160123023512101/23/16 02:35:31  5-MIN K1J0 230835Z AUTO 30010G18KT 10SM OVC027 02/M02 A2989 110 75 -1300 300/10G18 RMK AO2 T00221017 $
63871K1J0 1J020160123024012101/23/16 02:40:31  5-MIN K1J0 230840Z AUTO 31011G24KT 10SM OVC027 02/M02 A2990 110 72 -1300 310/11G24 RMK AO2 T00221022 $
63871K1J0 1J020160123024513701/23/16 02:45:31  5-MIN K1J0 230845Z AUTO 32011G24KT 280V010 10SM OVC029 02/M02 A2990 110 72 -1300 320/11G24 280V010 RMK AO2 T00221022 $
63871K1J0 1J020160123025012101/23/16 02:50:31  5-MIN K1J0 230850Z AUTO 32014G23KT 10SM OVC029 02/M03 A2990 110 69 -1300 320/14G23 RMK AO2 T00221028 $
63871K1J0 1J020160123025514001/23/16 02:55:31  5-MIN K1J0 230855Z AUTO 32010G23KT 10SM OVC029 02/M03 A2990 110 69 -1300 320/10G23 RMK AO2 SLP110 60000 T00221028 50010 $
63871K1J0 1J020160123030012101/23/16 03:00:31  5-MIN K1J0 230900Z AUTO 32012G22KT 10SM OVC029 02/M03 A2990 110 69 -1300 320/12G22 RMK AO2 T00221028 $
63871K1J0 1J020160123030512101/23/16 03:05:31  5-MIN K1J0 230905Z AUTO 32010G20KT 10SM OVC029 02/M03 A2990 110 69 -1300 320/10G20 RMK AO2 T00221028 $
63871K1J0 1J020160123031012101/23/16 03:10:31  5-MIN K1J0 230910Z AUTO 32009G18KT 10SM OVC031 02/M03 A2990 110 69 -1300 320/09G18 RMK AO2 T00221028 $
63871K1J0 1J020160123031512101/23/16 03:15:31  5-MIN K1J0 230915Z AUTO 31007G18KT 10SM OVC031 02/M03 A2990 110 69 -1300 310/07G18 RMK AO2 T00221028 $
63871K1J0 1J020160123032012101/23/16 03:20:31  5-MIN K1J0 230920Z AUTO 32009G18KT 10SM OVC031 02/M03 A2990 110 69 -1300 320/09G18 RMK AO2 T00221028 $
63871K1J0 1J020160123032512101/23/16 03:25:31  5-MIN K1J0 230925Z AUTO 33009G18KT 10SM OVC031 02/M03 A2990 100 69 -1300 330/09G18 RMK AO2 T00221028 $
63871K1J0 1J020160123033012101/23/16 03:30:31  5-MIN K1J0 230930Z AUTO 32008G17KT 10SM OVC031 02/M03 A2990 100 69 -1300 320/08G17 RMK AO2 T00221028 $
63871K1J0 1J020160123033512101/23/16 03:35:31  5-MIN K1J0 230935Z AUTO 32010G19KT 10SM OVC031 02/M03 A2990 100 69 -1300 320/10G19 RMK AO2 T00221028 $
63871K1J0 1J020160123034012801/23/16 03:40:31  5-MIN K1J0 230940Z AUTO 32009G19KT 10SM BKN031 OVC035 02/M03 A2991 100 69 -1300 320/09G19 RMK AO2 T00221028 $
63871K1J0 1J020160123034512101/23/16 03:45:31  5-MIN K1J0 230945Z AUTO 30009G18KT 10SM OVC029 02/M03 A2991 100 69 -1300 300/09G18 RMK AO2 T00221028 $
63871K1J0 1J020160123035012801/23/16 03:50:31  5-MIN K1J0 230950Z AUTO 31007G17KT 10SM BKN029 OVC037 02/M02 A2991 100 72 -1300 310/07G17 RMK AO2 T00221022 $
63871K1J0 1J020160123035513401/23/16 03:55:31  5-MIN K1J0 230955Z AUTO 31012G22KT 10SM BKN029 OVC035 02/M02 A2991 90 72 -1300 310/12G22 RMK AO2 SLP115 T00221022 $
63871K1J0 1J020160123040012701/23/16 04:00:31  5-MIN K1J0 231000Z AUTO 31011G22KT 10SM BKN029 OVC035 02/M03 A2992 90 69 -1400 310/11G22 RMK AO2 T00221028 $
63871K1J0 1J020160123040512701/23/16 04:05:31  5-MIN K1J0 231005Z AUTO 32012G19KT 10SM BKN029 OVC035 02/M02 A2992 90 72 -1400 320/12G19 RMK AO2 T00221022 $
63871K1J0 1J020160123041012701/23/16 04:10:31  5-MIN K1J0 231010Z AUTO 31010G19KT 10SM BKN029 OVC035 02/M03 A2992 90 69 -1400 310/10G19 RMK AO2 T00221028 $
63871K1J0 1J020160123041512701/23/16 04:15:31  5-MIN K1J0 231015Z AUTO 31009G18KT 10SM BKN031 OVC035 02/M02 A2992 90 72 -1400 310/09G18 RMK AO2 T00221022 $
63871K1J0 1J020160123042012001/23/16 04:20:31  5-MIN K1J0 231020Z AUTO 32012G21KT 10SM OVC029 02/M03 A2992 90 69 -1400 320/12G21 RMK AO2 T00221028 $
63871K1J0 1J020160123042512001/23/16 04:25:31  5-MIN K1J0 231025Z AUTO 32010G21KT 10SM OVC029 02/M03 A2992 80 69 -1400 320/10G21 RMK AO2 T00221028 $
63871K1J0 1J020160123043013601/23/16 04:30:31  5-MIN K1J0 231030Z AUTO 32009G19KT 290V360 10SM OVC029 02/M02 A2993 80 72 -1400 320/09G19 290V360 RMK AO2 T00221022 $
63871K1J0 1J020160123043512001/23/16 04:35:31  5-MIN K1J0 231035Z AUTO 31009G17KT 10SM OVC029 02/M02 A2993 80 72 -1400 310/09G17 RMK AO2 T00221022 $
63871K1J0 1J020160123044012001/23/16 04:40:31  5-MIN K1J0 231040Z AUTO 32008G17KT 10SM OVC029 02/M02 A2993 70 72 -1400 320/08G17 RMK AO2 T00221022 $
63871K1J0 1J020160123044511401/23/16 04:45:31  5-MIN K1J0 231045Z AUTO 32010KT 10SM OVC029 02/M02 A2994 70 72 -1400 320/10 RMK AO2 T00221022 $
63871K1J0 1J020160123045011401/23/16 04:50:31  5-MIN K1J0 231050Z AUTO 31007KT 10SM OVC027 02/M02 A2994 70 72 -1400 310/07 RMK AO2 T00221022 $
63871K1J0 1J020160123045514301/23/16 04:55:31  5-MIN K1J0 231055Z AUTO 31008G16KT 280V340 10SM OVC027 02/M02 A2994 70 72 -1400 310/08G16 280V340 RMK AO2 SLP124 T00221022 $
63871K1J0 1J020160123050012001/23/16 05:00:31  5-MIN K1J0 231100Z AUTO 30008G19KT 10SM OVC027 02/M02 A2994 70 75 -1400 300/08G19 RMK AO2 T00221017 $
63871K1J0 1J020160123050513601/23/16 05:05:31  5-MIN K1J0 231105Z AUTO 30010G19KT 260V330 10SM OVC025 03/M02 A2994 70 72 -1300 300/10G19 260V330 RMK AO2 T00281017 $
63871K1J0 1J020160123051014301/23/16 05:10:31  5-MIN K1J0 231110Z AUTO 31007G18KT 10SM -SN BKN025 OVC031 02/M02 A2995 60 75 -1400 310/07G18 RMK AO2 SNB07 P0000 T00221017 $
63871K1J0 1J020160123051513501/23/16 05:15:31  5-MIN K1J0 231115Z AUTO 30008G17KT 9SM -SN OVC025 02/M02 A2995 60 75 -1400 300/08G17 RMK AO2 SNB07 P0000 T00221017 $
63871K1J0 1J020160123052012801/23/16 05:20:31  5-MIN K1J0 231120Z AUTO 30008KT 9SM OVC025 02/M02 A2995 60 75 -1400 300/08 RMK AO2 SNB07E16 P0000 T00221017 $
63871K1J0 1J020160123052513501/23/16 05:25:31  5-MIN K1J0 231125Z AUTO 31011G18KT 10SM OVC025 02/M02 A2996 50 75 -1400 310/11G18 RMK AO2 SNB07E16 P0000 T00221017 $
63871K1J0 1J020160123053013501/23/16 05:30:31  5-MIN K1J0 231130Z AUTO 30008G19KT 10SM OVC025 02/M02 A2996 50 72 -1400 300/08G19 RMK AO2 SNB07E16 P0000 T00221022 $
63871K1J0 1J020160123053515101/23/16 05:35:31  5-MIN K1J0 231135Z AUTO 31009G19KT 280V350 10SM OVC028 02/M02 A2996 50 72 -1400 310/09G19 280V350 RMK AO2 SNB07E16 P0000 T00221022 $
63871K1J0 1J020160123054014201/23/16 05:40:31  5-MIN K1J0 231140Z AUTO 32011G18KT 10SM BKN026 OVC033 02/M02 A2996 50 72 -1400 320/11G18 RMK AO2 SNB07E16 P0000 T00221022 $
63871K1J0 1J020160123054515101/23/16 05:45:31  5-MIN K1J0 231145Z AUTO 31009G18KT 270V350 10SM OVC028 02/M02 A2997 40 72 -1400 310/09G18 270V350 RMK AO2 SNB07E16 P0000 T00221022 $
63871K1J0 1J020160123055015101/23/16 05:50:31  5-MIN K1J0 231150Z AUTO 30007G15KT 280V340 10SM OVC028 02/M02 A2997 40 72 -1400 300/07G15 280V340 RMK AO2 SNB07E16 P0000 T00221022 $
63871K1J0 1J020160123055518201/23/16 05:55:31  5-MIN K1J0 231155Z AUTO 31010G17KT 240V340 10SM OVC028 02/M02 A2997 40 72 -1400 310/10G17 240V340 RMK AO2 SNB07E16 SLP136 P0000 60000 T00221022 10028 20017 53003 $
63871K1J0 1J020160123060012001/23/16 06:00:31  5-MIN K1J0 231200Z AUTO 30010G20KT 10SM OVC026 02/M03 A2998 30 69 -1400 300/10G20 RMK AO2 T00221028 $
63871K1J0 1J020160123060513601/23/16 06:05:31  5-MIN K1J0 231205Z AUTO 30008G20KT 240V320 10SM OVC026 02/M03 A2998 30 69 -1400 300/08G20 240V320 RMK AO2 T00221028 $
63871K1J0 1J020160123061013601/23/16 06:10:31  5-MIN K1J0 231210Z AUTO 30007G15KT 280V350 10SM OVC026 02/M03 A2998 30 69 -1400 300/07G15 280V350 RMK AO2 T00221028 $
63871K1J0 1J020160123061512001/23/16 06:15:31  5-MIN K1J0 231215Z AUTO 30010G16KT 10SM OVC026 02/M03 A2998 30 69 -1400 300/10G16 RMK AO2 T00221028 $
63871K1J0 1J020160123062012001/23/16 06:20:31  5-MIN K1J0 231220Z AUTO 31010G18KT 10SM OVC026 02/M03 A2999 30 69 -1400 310/10G18 RMK AO2 T00221028 $
63871K1J0 1J020160123062512001/23/16 06:25:31  5-MIN K1J0 231225Z AUTO 31009G18KT 10SM OVC026 02/M03 A2999 20 69 -1400 310/09G18 RMK AO2 T00221028 $
63871K1J0 1J020160123063013601/23/16 06:30:31  5-MIN K1J0 231230Z AUTO 31009G20KT 270V340 10SM OVC026 02/M03 A2999 20 69 -1400 310/09G20 270V340 RMK AO2 T00221028 $
63871K1J0 1J020160123063512001/23/16 06:35:31  5-MIN K1J0 231235Z AUTO 31013G21KT 10SM OVC028 02/M03 A2999 20 67 -1400 310/13G21 RMK AO2 T00221033 $
63871K1J0 1J020160123064012001/23/16 06:40:31  5-MIN K1J0 231240Z AUTO 31012G22KT 10SM OVC028 02/M03 A3000 20 67 -1400 310/12G22 RMK AO2 T00221033 $
63871K1J0 1J020160123064512001/23/16 06:45:31  5-MIN K1J0 231245Z AUTO 31011G22KT 10SM OVC028 02/M03 A3000 10 67 -1400 310/11G22 RMK AO2 T00221033 $
63871K1J0 1J020160123065012001/23/16 06:50:31  5-MIN K1J0 231250Z AUTO 31008G16KT 10SM OVC028 02/M03 A3000 10 69 -1500 310/08G16 RMK AO2 T00221028 $
63871K1J0 1J020160123065512101/23/16 06:55:31  5-MIN K1J0 231255Z AUTO 31006KT 10SM OVC028 02/M03 A3000 10 69 -1500 310/06 RMK AO2 SLP146 T00221028 $
63871K1J0 1J020160123070011401/23/16 07:00:31  5-MIN K1J0 231300Z AUTO 30008KT 10SM OVC028 02/M03 A3001 10 72 -1500 300/08 RMK AO2 T00171028 $
63871K1J0 1J020160123070511401/23/16 07:05:31  5-MIN K1J0 231305Z AUTO 30006KT 10SM OVC028 02/M03 A3001 10 72 -1500 300/06 RMK AO2 T00171028 $
63871K1J0 1J020160123071012901/23/16 07:10:31  5-MIN K1J0 231310Z AUTO 30008KT 260V320 10SM OVC027 02/M03 A3001 0 69 -1500 300/08 260V320 RMK AO2 T00171033 $
63871K1J0 1J020160123071511901/23/16 07:15:31  5-MIN K1J0 231315Z AUTO 30011G20KT 10SM OVC027 02/M03 A3001 0 69 -1500 300/11G20 RMK AO2 T00171033 $
63871K1J0 1J020160123072011901/23/16 07:20:31  5-MIN K1J0 231320Z AUTO 31008G20KT 10SM OVC027 02/M04 A3002 0 66 -1500 310/08G20 RMK AO2 T00171039 $
63871K1J0 1J020160123072513501/23/16 07:25:31  5-MIN K1J0 231325Z AUTO 30011G19KT 280V340 10SM OVC029 02/M04 A3002 0 66 -1500 300/11G19 280V340 RMK AO2 T00171039 $
63871K1J0 1J020160123073011901/23/16 07:30:31  5-MIN K1J0 231330Z AUTO 30008G19KT 10SM OVC029 02/M04 A3002 0 66 -1500 300/08G19 RMK AO2 T00171039 $
63871K1J0 1J020160123073513701/23/16 07:35:31  5-MIN K1J0 231335Z AUTO 30008G15KT 270V340 10SM OVC029 02/M04 A3002 -10 66 -1500 300/08G15 270V340 RMK AO2 T00171039 $
63871K1J0 1J020160123074012101/23/16 07:40:31  5-MIN K1J0 231340Z AUTO 30011G21KT 10SM OVC030 02/M04 A3003 -10 64 -1600 300/11G21 RMK AO2 T00171044 $
63871K1J0 1J020160123074512101/23/16 07:45:31  5-MIN K1J0 231345Z AUTO 33015G25KT 10SM OVC030 02/M05 A3003 -10 61 -1600 330/15G25 RMK AO2 T00171050 $
63871K1J0 1J020160123075012101/23/16 07:50:31  5-MIN K1J0 231350Z AUTO 32012G25KT 10SM OVC031 02/M05 A3003 -10 61 -1600 320/12G25 RMK AO2 T00171050 $
63871K1J0 1J020160123075512801/23/16 07:55:31  5-MIN K1J0 231355Z AUTO 32010G24KT 10SM OVC031 02/M04 A3003 -10 64 -1600 320/10G24 RMK AO2 SLP156 T00171044 $
63871K1J0 1J020160123080012101/23/16 08:00:31  5-MIN K1J0 231400Z AUTO 33012G20KT 10SM OVC031 02/M04 A3003 -10 64 -1600 330/12G20 RMK AO2 T00171044 $
63871K1J0 1J020160123080513701/23/16 08:05:31  5-MIN K1J0 231405Z AUTO 31007G20KT 280V350 10SM OVC031 02/M04 A3004 -20 66 -1600 310/07G20 280V350 RMK AO2 T00171039 $
63871K1J0 1J020160123081012101/23/16 08:10:31  5-MIN K1J0 231410Z AUTO 31012G18KT 10SM OVC031 02/M04 A3004 -20 66 -1600 310/12G18 RMK AO2 T00171039 $
63871K1J0 1J020160123081512101/23/16 08:15:31  5-MIN K1J0 231415Z AUTO 32012G19KT 10SM OVC031 02/M04 A3005 -20 64 -1600 320/12G19 RMK AO2 T00171044 $
63871K1J0 1J020160123082012101/23/16 08:20:31  5-MIN K1J0 231420Z AUTO 31012G22KT 10SM OVC031 02/M04 A3005 -30 64 -1600 310/12G22 RMK AO2 T00171044 $
63871K1J0 1J020160123082512101/23/16 08:25:31  5-MIN K1J0 231425Z AUTO 31010G22KT 10SM OVC031 02/M04 A3005 -30 66 -1600 310/10G22 RMK AO2 T00171039 $
63871K1J0 1J020160123083012101/23/16 08:30:31  5-MIN K1J0 231430Z AUTO 31010G21KT 10SM OVC031 02/M04 A3005 -30 64 -1600 310/10G21 RMK AO2 T00171044 $
63871K1J0 1J020160123083512101/23/16 08:35:31  5-MIN K1J0 231435Z AUTO 32013G21KT 10SM OVC031 02/M04 A3005 -30 61 -1500 320/13G21 RMK AO2 T00221044 $
63871K1J0 1J020160123084012101/23/16 08:40:31  5-MIN K1J0 231440Z AUTO 32011G21KT 10SM OVC031 02/M04 A3006 -30 64 -1500 320/11G21 RMK AO2 T00221039 $
63871K1J0 1J020160123084512101/23/16 08:45:31  5-MIN K1J0 231445Z AUTO 31009G19KT 10SM OVC031 02/M04 A3006 -40 61 -1500 310/09G19 RMK AO2 T00221044 $
63871K1J0 1J020160123085012101/23/16 08:50:31  5-MIN K1J0 231450Z AUTO 31009G20KT 10SM OVC031 02/M04 A3006 -40 64 -1500 310/09G20 RMK AO2 T00221039 $
63871K1J0 1J020160123085513401/23/16 08:55:31  5-MIN K1J0 231455Z AUTO 30007G20KT 10SM OVC031 02/M04 A3006 -40 64 -1500 300/07G20 RMK AO2 SLP166 T00221039 53026 $
63871K1J0 1J020160123090012101/23/16 09:00:31  5-MIN K1J0 231500Z AUTO 30007G15KT 10SM OVC030 02/M03 A3006 -40 67 -1500 300/07G15 RMK AO2 T00221033 $
63871K1J0 1J020160123090511501/23/16 09:05:31  5-MIN K1J0 231505Z AUTO 31008KT 10SM OVC030 02/M03 A3006 -40 67 -1500 310/08 RMK AO2 T00221033 $
63871K1J0 1J020160123091012101/23/16 09:10:31  5-MIN K1J0 231510Z AUTO 31010G17KT 10SM OVC030 02/M04 A3007 -50 64 -1500 310/10G17 RMK AO2 T00221039 $
63871K1J0 1J020160123091512101/23/16 09:15:31  5-MIN K1J0 231515Z AUTO 30009G17KT 10SM OVC030 02/M04 A3007 -50 64 -1500 300/09G17 RMK AO2 T00221039 $
63871K1J0 1J020160123092012101/23/16 09:20:31  5-MIN K1J0 231520Z AUTO 30011G18KT 10SM OVC030 02/M04 A3007 -50 64 -1500 300/11G18 RMK AO2 T00221039 $
63871K1J0 1J020160123092512101/23/16 09:25:31  5-MIN K1J0 231525Z AUTO 31009G18KT 10SM OVC030 02/M04 A3007 -50 64 -1500 310/09G18 RMK AO2 T00221039 $
63871K1J0 1J020160123093013701/23/16 09:30:31  5-MIN K1J0 231530Z AUTO 32007G16KT 280V340 10SM OVC030 02/M04 A3008 -50 64 -1500 320/07G16 280V340 RMK AO2 T00221039 $
63871K1J0 1J020160123093512101/23/16 09:35:31  5-MIN K1J0 231535Z AUTO 32012G21KT 10SM OVC030 02/M04 A3008 -50 61 -1500 320/12G21 RMK AO2 T00221044 $
63871K1J0 1J020160123094012101/23/16 09:40:31  5-MIN K1J0 231540Z AUTO 31010G21KT 10SM OVC030 03/M04 A3008 -50 61 -1500 310/10G21 RMK AO2 T00281039 $
63871K1J0 1J020160123094512101/23/16 09:45:31  5-MIN K1J0 231545Z AUTO 31011G17KT 10SM OVC031 02/M04 A3008 -60 64 -1500 310/11G17 RMK AO2 T00221039 $
63871K1J0 1J020160123095012101/23/16 09:50:31  5-MIN K1J0 231550Z AUTO 30009G18KT 10SM OVC031 02/M04 A3008 -60 64 -1500 300/09G18 RMK AO2 T00221039 $
63871K1J0 1J020160123095514401/23/16 09:55:31  5-MIN K1J0 231555Z AUTO 32011G18KT 290V350 10SM OVC031 03/M04 A3008 -60 61 -1500 320/11G18 290V350 RMK AO2 SLP172 T00281039 $
63871K1J0 1J020160123100012101/23/16 10:00:31  5-MIN K1J0 231600Z AUTO 32015G24KT 10SM BKN031 03/M04 A3008 -60 61 -1500 320/15G24 RMK AO2 T00281039 $
63871K1J0 1J020160123100512101/23/16 10:05:31  5-MIN K1J0 231605Z AUTO 30009G24KT 10SM BKN031 03/M04 A3008 -60 61 -1500 300/09G24 RMK AO2 T00281039 $
63871K1J0 1J020160123101012101/23/16 10:10:31  5-MIN K1J0 231610Z AUTO 29009G17KT 10SM BKN031 03/M04 A3008 -60 61 -1500 290/09G17 RMK AO2 T00281039 $
63871K1J0 1J020160123101513701/23/16 10:15:31  5-MIN K1J0 231615Z AUTO 32010G17KT 10SM -SN BKN031 03/M04 A3009 -60 61 -1500 320/10G17 RMK AO2 SNB13 P0000 T00281039 $
63871K1J0 1J020160123102013501/23/16 10:20:31  5-MIN K1J0 231620Z AUTO 31009G21KT 9SM BKN031 03/M04 A3009 -60 61 -1500 310/09G21 RMK AO2 SNB13E20 P0000 T00281039 $
63871K1J0 1J020160123102513501/23/16 10:25:31  5-MIN K1J0 231625Z AUTO 31010G21KT 9SM BKN031 03/M03 A3009 -60 64 -1500 310/10G21 RMK AO2 SNB13E20 P0000 T00281033 $
63871K1J0 1J020160123103013601/23/16 10:30:31  5-MIN K1J0 231630Z AUTO 31010G17KT 10SM OVC031 03/M03 A3009 -60 61 -1400 310/10G17 RMK AO2 SNB13E20 P0000 T00331033 $
63871K1J0 1J020160123103515201/23/16 10:35:31  5-MIN K1J0 231635Z AUTO 30009G17KT 280V340 10SM OVC031 03/M03 A3009 -60 61 -1400 300/09G17 280V340 RMK AO2 SNB13E20 P0000 T00331033 $
63871K1J0 1J020160123104013601/23/16 10:40:31  5-MIN K1J0 231640Z AUTO 32014G21KT 10SM BKN031 03/M04 A3009 -60 59 -1400 320/14G21 RMK AO2 SNB13E20 P0000 T00331039 $
63871K1J0 1J020160123104513601/23/16 10:45:31  5-MIN K1J0 231645Z AUTO 33016G23KT 10SM BKN031 03/M04 A3008 -60 59 -1400 330/16G23 RMK AO2 SNB13E20 P0000 T00331039 $
63871K1J0 1J020160123105013601/23/16 10:50:31  5-MIN K1J0 231650Z AUTO 30009G23KT 10SM BKN031 03/M04 A3008 -60 59 -1400 300/09G23 RMK AO2 SNB13E20 P0000 T00331039 $
63871K1J0 1J020160123105514301/23/16 10:55:31  5-MIN K1J0 231655Z AUTO 32008G19KT 10SM BKN031 04/M03 A3008 -60 59 -1300 320/08G19 RMK AO2 SNB13E20 SLP172 P0000 T00441028 $
63871K1J0 1J020160123110012101/23/16 11:00:31  5-MIN K1J0 231700Z AUTO 33014G24KT 10SM BKN033 03/M04 A3008 -50 59 -1400 330/14G24 RMK AO2 T00331039 $
63871K1J0 1J020160123110512101/23/16 11:05:31  5-MIN K1J0 231705Z AUTO 35013G24KT 10SM BKN033 04/M04 A3007 -50 57 -1300 350/13G24 RMK AO2 T00391039 $
63871K1J0 1J020160123111012101/23/16 11:10:31  5-MIN K1J0 231710Z AUTO 32012G17KT 10SM SCT033 04/M03 A3007 -50 57 -1300 320/12G17 RMK AO2 T00441033 $
63871K1J0 1J020160123111512101/23/16 11:15:31  5-MIN K1J0 231715Z AUTO 32009G17KT 10SM SCT033 04/M03 A3006 -40 57 -1200 320/09G17 RMK AO2 T00441033 $
63871K1J0 1J020160123112013701/23/16 11:20:31  5-MIN K1J0 231720Z AUTO 32009G15KT 290V350 10SM SCT033 04/M03 A3006 -40 57 -1200 320/09G15 290V350 RMK AO2 T00441033 $
63871K1J0 1J020160123112512101/23/16 11:25:31  5-MIN K1J0 231725Z AUTO 32009G16KT 10SM SCT033 04/M03 A3006 -40 59 -1300 320/09G16 RMK AO2 T00391033 $
63871K1J0 1J020160123113013701/23/16 11:30:31  5-MIN K1J0 231730Z AUTO 30009G16KT 280V350 10SM SCT033 04/M03 A3006 -40 59 -1200 300/09G16 280V350 RMK AO2 T00441028 $
63871K1J0 1J020160123113513701/23/16 11:35:31  5-MIN K1J0 231735Z AUTO 33010G18KT 300V360 10SM SCT033 04/M03 A3006 -30 57 -1200 330/10G18 300V360 RMK AO2 T00441033 $
63871K1J0 1J020160123114013701/23/16 11:40:31  5-MIN K1J0 231740Z AUTO 30009G20KT 260V330 10SM SCT033 04/M03 A3006 -30 59 -1300 300/09G20 260V330 RMK AO2 T00391033 $
63871K1J0 1J020160123114512101/23/16 11:45:31  5-MIN K1J0 231745Z AUTO 30007G20KT 10SM BKN033 05/M03 A3006 -30 57 -1200 300/07G20 RMK AO2 T00501028 $
63871K1J0 1J020160123115012101/23/16 11:50:31  5-MIN K1J0 231750Z AUTO 31007G16KT 10SM BKN033 05/M03 A3006 -30 57 -1200 310/07G16 RMK AO2 T00501028 $
63871K1J0 1J020160123115515201/23/16 11:55:31  5-MIN K1J0 231755Z AUTO 30008G16KT 10SM BKN033 05/M03 A3005 -30 57 -1200 300/08G16 RMK AO2 SLP163 60000 T00501028 10050 20017 51029 $
63871K1J0 1J020160123120012101/23/16 12:00:31  5-MIN K1J0 231800Z AUTO 32010G19KT 10SM BKN033 04/M03 A3005 -30 59 -1200 320/10G19 RMK AO2 T00441028 $
63871K1J0 1J020160123120512101/23/16 12:05:31  5-MIN K1J0 231805Z AUTO VRB06G19KT 10SM BKN033 05/M03 A3005 -30 57 -1200 VRB/06G19 RMK AO2 T00501028 $
63871K1J0 1J020160123121012101/23/16 12:10:31  5-MIN K1J0 231810Z AUTO 31009G15KT 10SM BKN033 05/M03 A3005 -30 57 -1200 310/09G15 RMK AO2 T00501028 $
63871K1J0 1J020160123121513701/23/16 12:15:31  5-MIN K1J0 231815Z AUTO 30007G15KT 260V330 10SM BKN033 05/M03 A3005 -20 57 -1200 300/07G15 260V330 RMK AO2 T00501028 $
63871K1J0 1J020160123122012101/23/16 12:20:31  5-MIN K1J0 231820Z AUTO 33011G17KT 10SM SCT033 05/M03 A3004 -20 55 -1200 330/11G17 RMK AO2 T00501033 $
63871K1J0 1J020160123122512101/23/16 12:25:31  5-MIN K1J0 231825Z AUTO 32009G17KT 10SM SCT033 06/M03 A3004 -20 55 -1100 320/09G17 RMK AO2 T00561028 $
63871K1J0 1J020160123123013701/23/16 12:30:31  5-MIN K1J0 231830Z AUTO 31008G17KT 260V330 10SM SCT034 05/M03 A3004 -20 55 -1100 310/08G17 260V330 RMK AO2 T00501033 $
63871K1J0 1J020160123123512101/23/16 12:35:31  5-MIN K1J0 231835Z AUTO 32010G18KT 10SM FEW034 06/M03 A3004 -20 55 -1100 320/10G18 RMK AO2 T00561028 $
63871K1J0 1J020160123124012101/23/16 12:40:31  5-MIN K1J0 231840Z AUTO 30009G18KT 10SM FEW034 05/M03 A3003 -10 55 -1100 300/09G18 RMK AO2 T00501033 $
63871K1J0 1J020160123124512101/23/16 12:45:31  5-MIN K1J0 231845Z AUTO 31009G18KT 10SM FEW034 06/M03 A3003 -10 55 -1100 310/09G18 RMK AO2 T00561028 $
63871K1J0 1J020160123125012101/23/16 12:50:31  5-MIN K1J0 231850Z AUTO 30008G18KT 10SM FEW034 06/M03 A3003 -10 55 -1100 300/08G18 RMK AO2 T00561028 $
63871K1J0 1J020160123125512501/23/16 12:55:31  5-MIN K1J0 231855Z AUTO 29008G17KT 10SM CLR 06/M03 A3003 -10 53 -1000 290/08G17 RMK AO2 SLP155 T00611028 $
63871K1J0 1J020160123130013401/23/16 13:00:31  5-MIN K1J0 231900Z AUTO 30008G14KT 280V340 10SM CLR 06/M03 A3003 -10 53 -1000 300/08G14 280V340 RMK AO2 T00611028 $
63871K1J0 1J020160123130511801/23/16 13:05:31  5-MIN K1J0 231905Z AUTO 31011G15KT 10SM CLR 06/M03 A3003 -10 53 -1000 310/11G15 RMK AO2 T00611028 $
63871K1J0 1J020160123131013401/23/16 13:10:31  5-MIN K1J0 231910Z AUTO 30007G15KT 270V330 10SM CLR 06/M03 A3003 -10 53 -1000 300/07G15 270V330 RMK AO2 T00611028 $
63871K1J0 1J020160123131511601/23/16 13:15:31  5-MIN K1J0 231915Z AUTO 30008G15KT 10SM CLR 06/M03 A3002 0 53 -1000 300/08G15 RMK AO2 T00611028 $
63871K1J0 1J020160123132011001/23/16 13:20:31  5-MIN K1J0 231920Z AUTO 31009KT 10SM CLR 06/M03 A3002 0 53 -1000 310/09 RMK AO2 T00611028 $
63871K1J0 1J020160123132513201/23/16 13:25:31  5-MIN K1J0 231925Z AUTO 32013G20KT 290V350 10SM CLR 06/M03 A3002 0 53 -1000 320/13G20 290V350 RMK AO2 T00611028 $
63871K1J0 1J020160123133011601/23/16 13:30:31  5-MIN K1J0 231930Z AUTO 30010G22KT 10SM CLR 06/M03 A3002 0 53 -1100 300/10G22 RMK AO2 T00561033 $
63871K1J0 1J020160123133511601/23/16 13:35:31  5-MIN K1J0 231935Z AUTO 31012G22KT 10SM CLR 06/M03 A3001 0 53 -1100 310/12G22 RMK AO2 T00561033 $
63871K1J0 1J020160123134011601/23/16 13:40:31  5-MIN K1J0 231940Z AUTO 33014G22KT 10SM CLR 06/M03 A3001 0 51 -1000 330/14G22 RMK AO2 T00611033 $
63871K1J0 1J020160123134511601/23/16 13:45:31  5-MIN K1J0 231945Z AUTO 34015G22KT 10SM CLR 06/M04 A3002 0 48 -1000 340/15G22 RMK AO2 T00611039 $
63871K1J0 1J020160123135011601/23/16 13:50:31  5-MIN K1J0 231950Z AUTO 32013G21KT 10SM CLR 06/M03 A3001 0 51 -1000 320/13G21 RMK AO2 T00611033 $
63871K1J0 1J020160123135511801/23/16 13:55:31  5-MIN K1J0 231955Z AUTO 32012G21KT CLR 06/M03 A3001 0 53 -1000 320/12G21 RMK AO2 SLP149 T00611028 $
63871K1J0 1J020160123140011101/23/16 14:00:31  5-MIN K1J0 232000Z AUTO 33011G21KT CLR 06/M03 A3001 0 51 -1000 330/11G21 RMK AO2 T00611033 $
63871K1J0 1J020160123140510501/23/16 14:05:31  5-MIN K1J0 232005Z AUTO 31010KT CLR 06/M03 A3001 0 51 -1000 310/10 RMK AO2 T00611033 $
63871K1J0 1J020160123141011001/23/16 14:10:31  5-MIN K1J0 232010Z AUTO 29008KT 10SM CLR 06/M03 A3001 0 53 -1000 290/08 RMK AO2 T00611028 $
63871K1J0 1J020160123141511601/23/16 14:15:31  5-MIN K1J0 232015Z AUTO 31009G16KT 10SM CLR 06/M03 A3001 0 53 -1000 310/09G16 RMK AO2 T00611028 $
63871K1J0 1J020160123142011601/23/16 14:20:31  5-MIN K1J0 232020Z AUTO 30009G16KT 10SM CLR 06/M03 A3001 0 53 -1000 300/09G16 RMK AO2 T00611028 $
63871K1J0 1J020160123142511501/23/16 14:25:31  5-MIN K1J0 232025Z AUTO 30009G16KT 10SM CLR 07/M03 A3002 0 51 -900 300/09G16 RMK AO2 T00671028 $
63871K1J0 1J020160123143010401/23/16 14:30:31  5-MIN K1J0 232030Z AUTO VRB06KT CLR 07/M03 A3002 0 51 -900 VRB/06 RMK AO2 T00671028 $
63871K1J0 1J020160123143511001/23/16 14:35:31  5-MIN K1J0 232035Z AUTO 30010G17KT CLR 07/M03 A3002 0 49 -900 300/10G17 RMK AO2 T00671033 $
63871K1J0 1J020160123144012601/23/16 14:40:31  5-MIN K1J0 232040Z AUTO 31013G19KT 260V330 CLR 07/M03 A3002 0 49 -900 310/13G19 260V330 RMK AO2 T00671033 $
63871K1J0 1J020160123144513401/23/16 14:45:31  5-MIN K1J0 232045Z AUTO 31010G19KT 280V350 10SM CLR 06/M03 A3002 -10 51 -1000 310/10G19 280V350 RMK AO2 T00611033 $
63871K1J0 1J020160123145011101/23/16 14:50:31  5-MIN K1J0 232050Z AUTO 30008G17KT CLR 06/M03 A3002 0 51 -1000 300/08G17 RMK AO2 T00611033 $
63871K1J0 1J020160123145513901/23/16 14:55:31  5-MIN K1J0 232055Z AUTO 30007G17KT 260V320 CLR 07/M03 A3002 0 49 -900 300/07G17 260V320 RMK AO2 SLP153 T00671033 58003 $
63871K1J0 1J020160123150010401/23/16 15:00:31  5-MIN K1J0 232100Z AUTO 31005KT CLR 07/M03 A3002 0 49 -900 310/05 RMK AO2 T00721028 $
63871K1J0 1J020160123150511001/23/16 15:05:31  5-MIN K1J0 232105Z AUTO 33011G17KT CLR 07/M03 A3002 0 49 -900 330/11G17 RMK AO2 T00671033 $
63871K1J0 1J020160123151011001/23/16 15:10:31  5-MIN K1J0 232110Z AUTO 33010G17KT CLR 07/M03 A3002 0 49 -900 330/10G17 RMK AO2 T00671033 $
63871K1J0 1J020160123151511201/23/16 15:15:31  5-MIN K1J0 232115Z AUTO 30007G15KT CLR 07/M03 A3003 -10 49 -900 300/07G15 RMK AO2 T00671033 $
63871K1J0 1J020160123152011201/23/16 15:20:31  5-MIN K1J0 232120Z AUTO VRB06G15KT CLR 07/M03 A3003 -10 49 -900 VRB/06G15 RMK AO2 T00671033 $
63871K1J0 1J020160123152511201/23/16 15:25:31  5-MIN K1J0 232125Z AUTO 30008G15KT CLR 07/M03 A3003 -10 49 -900 300/08G15 RMK AO2 T00671033 $
63871K1J0 1J020160123153011201/23/16 15:30:31  5-MIN K1J0 232130Z AUTO 32011G16KT CLR 07/M03 A3003 -10 49 -900 320/11G16 RMK AO2 T00671033 $
63871K1J0 1J020160123153511201/23/16 15:35:31  5-MIN K1J0 232135Z AUTO 30006G16KT CLR 07/M03 A3003 -10 49 -900 300/06G16 RMK AO2 T00671033 $
63871K1J0 1J020160123154010601/23/16 15:40:31  5-MIN K1J0 232140Z AUTO 28006KT CLR 07/M03 A3003 -10 49 -900 280/06 RMK AO2 T00671033 $
63871K1J0 1J020160123154510601/23/16 15:45:31  5-MIN K1J0 232145Z AUTO 31007KT CLR 07/M03 A3004 -20 49 -900 310/07 RMK AO2 T00671033 $
63871K1J0 1J020160123155012201/23/16 15:50:31  5-MIN K1J0 232150Z AUTO 30007KT 270V330 CLR 07/M03 A3004 -20 49 -900 300/07 270V330 RMK AO2 T00671033 $
63871K1J0 1J020160123155512001/23/16 15:55:31  5-MIN K1J0 232155Z AUTO 32010G15KT CLR 06/M03 A3004 -20 51 -1000 320/10G15 RMK AO2 SLP159 T00611033 $
63871K1J0 1J020160123160011301/23/16 16:00:31  5-MIN K1J0 232200Z AUTO VRB06G15KT CLR 06/M03 A3005 -20 51 -1000 VRB/06G15 RMK AO2 T00611033 $
63871K1J0 1J020160123160511301/23/16 16:05:31  5-MIN K1J0 232205Z AUTO 32007G15KT CLR 06/M03 A3005 -30 51 -1000 320/07G15 RMK AO2 T00611033 $
63871K1J0 1J020160123161011201/23/16 16:10:31  5-MIN K1J0 232210Z AUTO 32008KT 10SM CLR 06/M03 A3005 -20 51 -1000 320/08 RMK AO2 T00611033 $
63871K1J0 1J020160123161512801/23/16 16:15:31  5-MIN K1J0 232215Z AUTO 32008KT 290V350 10SM CLR 06/M03 A3005 -30 51 -1000 320/08 290V350 RMK AO2 T00611033 $
63871K1J0 1J020160123162011201/23/16 16:20:31  5-MIN K1J0 232220Z AUTO 31007KT 10SM CLR 06/M03 A3005 -30 51 -1000 310/07 RMK AO2 T00611033 $
63871K1J0 1J020160123162511801/23/16 16:25:31  5-MIN K1J0 232225Z AUTO 32006G14KT 10SM CLR 06/M04 A3005 -30 48 -1000 320/06G14 RMK AO2 T00611039 $
63871K1J0 1J020160123163011801/23/16 16:30:31  5-MIN K1J0 232230Z AUTO 33011G20KT 10SM CLR 06/M04 A3005 -30 50 -1100 330/11G20 RMK AO2 T00561039 $
63871K1J0 1J020160123163511801/23/16 16:35:31  5-MIN K1J0 232235Z AUTO 32007G20KT 10SM CLR 06/M04 A3005 -30 48 -1100 320/07G20 RMK AO2 T00561044 $
63871K1J0 1J020160123164011201/23/16 16:40:31  5-MIN K1J0 232240Z AUTO 33007KT 10SM CLR 06/M04 A3005 -30 50 -1100 330/07 RMK AO2 T00561039 $
63871K1J0 1J020160123164511201/23/16 16:45:31  5-MIN K1J0 232245Z AUTO 32006KT 10SM CLR 06/M04 A3005 -30 50 -1100 320/06 RMK AO2 T00561039 $
63871K1J0 1J020160123165011201/23/16 16:50:31  5-MIN K1J0 232250Z AUTO VRB03KT 10SM CLR 05/M04 A3006 -30 52 -1200 VRB/03 RMK AO2 T00501039 $
63871K1J0 1J020160123165511901/23/16 16:55:31  5-MIN K1J0 232255Z AUTO 31005KT 10SM CLR 05/M04 A3006 -40 52 -1200 310/05 RMK AO2 SLP165 T00501039 $
63871K1J0 1J020160123170011201/23/16 17:00:31  5-MIN K1J0 232300Z AUTO 30005KT 10SM CLR 05/M03 A3006 -40 55 -1200 300/05 RMK AO2 T00501033 $
63871K1J0 1J020160123170511201/23/16 17:05:31  5-MIN K1J0 232305Z AUTO 30004KT 10SM CLR 04/M03 A3007 -40 59 -1200 300/04 RMK AO2 T00441028 $
63871K1J0 1J020160123171011201/23/16 17:10:31  5-MIN K1J0 232310Z AUTO 30005KT 10SM CLR 04/M03 A3007 -50 57 -1300 300/05 RMK AO2 T00441033 $
63871K1J0 1J020160123171511201/23/16 17:15:31  5-MIN K1J0 232315Z AUTO 31007KT 10SM CLR 04/M03 A3007 -50 57 -1300 310/07 RMK AO2 T00441033 $
63871K1J0 1J020160123172011201/23/16 17:20:31  5-MIN K1J0 232320Z AUTO 31009KT 10SM CLR 04/M03 A3007 -50 57 -1300 310/09 RMK AO2 T00441033 $
63871K1J0 1J020160123172511201/23/16 17:25:31  5-MIN K1J0 232325Z AUTO 31008KT 10SM CLR 04/M03 A3008 -50 57 -1300 310/08 RMK AO2 T00441033 $
63871K1J0 1J020160123173011201/23/16 17:30:31  5-MIN K1J0 232330Z AUTO 31007KT 10SM CLR 04/M03 A3008 -50 57 -1300 310/07 RMK AO2 T00441033 $
63871K1J0 1J020160123173511201/23/16 17:35:31  5-MIN K1J0 232335Z AUTO 31006KT 10SM CLR 04/M03 A3008 -50 59 -1300 310/06 RMK AO2 T00391033 $
63871K1J0 1J020160123174011201/23/16 17:40:31  5-MIN K1J0 232340Z AUTO VRB06KT 10SM CLR 04/M03 A3008 -60 59 -1300 VRB/06 RMK AO2 T00391033 $
63871K1J0 1J020160123174511201/23/16 17:45:31  5-MIN K1J0 232345Z AUTO 31008KT 10SM CLR 04/M03 A3008 -60 59 -1300 310/08 RMK AO2 T00391033 $
63871K1J0 1J020160123175011201/23/16 17:50:31  5-MIN K1J0 232350Z AUTO 30006KT 10SM CLR 04/M03 A3008 -60 59 -1300 300/06 RMK AO2 T00391033 $
63871K1J0 1J020160123175513701/23/16 17:55:31  5-MIN K1J0 232355Z AUTO 32005KT 10SM CLR 04/M03 A3009 -60 59 -1300 320/05 RMK AO2 SLP175 T00391033 10072 20039 55010 $
63871K1J0 1J020160123180011201/23/16 18:00:31  5-MIN K1J0 240000Z AUTO VRB04KT 10SM CLR 03/M03 A3009 -70 61 -1400 VRB/04 RMK AO2 T00331033 $
63871K1J0 1J020160123180511201/23/16 18:05:31  5-MIN K1J0 240005Z AUTO 31003KT 10SM CLR 03/M03 A3010 -70 61 -1400 310/03 RMK AO2 T00331033 $
63871K1J0 1J020160123181011201/23/16 18:10:31  5-MIN K1J0 240010Z AUTO 00000KT 10SM CLR 03/M03 A3010 -70 61 -1400 000/00 RMK AO2 T00331033 $
63871K1J0 1J020160123181511201/23/16 18:15:31  5-MIN K1J0 240015Z AUTO VRB03KT 10SM CLR 03/M03 A3010 -80 61 -1400 VRB/03 RMK AO2 T00331033 $
63871K1J0 1J020160123182011201/23/16 18:20:31  5-MIN K1J0 240020Z AUTO 30004KT 10SM CLR 03/M03 A3011 -80 61 -1400 300/04 RMK AO2 T00331033 $
63871K1J0 1J020160123182511201/23/16 18:25:31  5-MIN K1J0 240025Z AUTO VRB03KT 10SM CLR 03/M03 A3011 -80 61 -1400 VRB/03 RMK AO2 T00331033 $
63871K1J0 1J020160123183011201/23/16 18:30:31  5-MIN K1J0 240030Z AUTO VRB05KT 10SM CLR 03/M03 A3011 -90 61 -1400 VRB/05 RMK AO2 T00331033 $
63871K1J0 1J020160123183511201/23/16 18:35:31  5-MIN K1J0 240035Z AUTO 30006KT 10SM CLR 03/M03 A3011 -90 61 -1400 300/06 RMK AO2 T00331033 $
63871K1J0 1J020160123184011201/23/16 18:40:31  5-MIN K1J0 240040Z AUTO 30004KT 10SM CLR 03/M03 A3012 -90 61 -1400 300/04 RMK AO2 T00331033 $
63871K1J0 1J020160123184511201/23/16 18:45:31  5-MIN K1J0 240045Z AUTO 31005KT 10SM CLR 03/M03 A3012 -90 61 -1400 310/05 RMK AO2 T00331033 $
63871K1J0 1J020160123185011201/23/16 18:50:31  5-MIN K1J0 240050Z AUTO VRB05KT 10SM CLR 03/M03 A3012 -90 61 -1500 VRB/05 RMK AO2 T00331033 $
63871K1J0 1J020160123185512001/23/16 18:55:31  5-MIN K1J0 240055Z AUTO 30004KT 10SM CLR 03/M03 A3013 -100 61 -1500 300/04 RMK AO2 SLP188 T00331033 $
63871K1J0 1J020160123190011301/23/16 19:00:31  5-MIN K1J0 240100Z AUTO 30004KT 10SM CLR 03/M03 A3013 -100 64 -1500 300/04 RMK AO2 T00281033 $
63871K1J0 1J020160123190511301/23/16 19:05:31  5-MIN K1J0 240105Z AUTO VRB04KT 10SM CLR 03/M03 A3012 -100 64 -1500 VRB/04 RMK AO2 T00281033 $
63871K1J0 1J020160123191011301/23/16 19:10:31  5-MIN K1J0 240110Z AUTO VRB03KT 10SM CLR 03/M03 A3013 -100 64 -1500 VRB/03 RMK AO2 T00281033 $
63871K1J0 1J020160123191511301/23/16 19:15:31  5-MIN K1J0 240115Z AUTO 31004KT 10SM CLR 03/M03 A3013 -100 64 -1500 310/04 RMK AO2 T00281033 $
63871K1J0 1J020160123192011301/23/16 19:20:31  5-MIN K1J0 240120Z AUTO VRB03KT 10SM CLR 03/M03 A3013 -100 64 -1500 VRB/03 RMK AO2 T00281033 $
63871K1J0 1J020160123192511301/23/16 19:25:31  5-MIN K1J0 240125Z AUTO 30003KT 10SM CLR 03/M03 A3013 -100 67 -1500 300/03 RMK AO2 T00281028 $
63871K1J0 1J020160123193011301/23/16 19:30:31  5-MIN K1J0 240130Z AUTO 00000KT 10SM CLR 03/M03 A3013 -110 64 -1500 000/00 RMK AO2 T00281033 $
63871K1J0 1J020160123193511301/23/16 19:35:31  5-MIN K1J0 240135Z AUTO 29004KT 10SM CLR 03/M03 A3014 -110 64 -1500 290/04 RMK AO2 T00281033 $
63871K1J0 1J020160123194011301/23/16 19:40:31  5-MIN K1J0 240140Z AUTO VRB04KT 10SM CLR 03/M03 A3014 -110 64 -1500 VRB/04 RMK AO2 T00281033 $
63871K1J0 1J020160123194511301/23/16 19:45:31  5-MIN K1J0 240145Z AUTO VRB03KT 10SM CLR 02/M03 A3014 -110 69 -1600 VRB/03 RMK AO2 T00221028 $
63871K1J0 1J020160123195011301/23/16 19:50:31  5-MIN K1J0 240150Z AUTO VRB03KT 10SM CLR 02/M03 A3014 -110 67 -1600 VRB/03 RMK AO2 T00221033 $
63871K1J0 1J020160123195512001/23/16 19:55:31  5-MIN K1J0 240155Z AUTO 30003KT 10SM CLR 02/M03 A3014 -120 69 -1600 300/03 RMK AO2 SLP194 T00221028 $
63871K1J0 1J020160123200011301/23/16 20:00:31  5-MIN K1J0 240200Z AUTO 30003KT 10SM CLR 02/M03 A3015 -120 69 -1600 300/03 RMK AO2 T00221028 $
63871K1J0 1J020160123200511301/23/16 20:05:31  5-MIN K1J0 240205Z AUTO 00000KT 10SM CLR 02/M03 A3015 -120 69 -1600 000/00 RMK AO2 T00221028 $
63871K1J0 1J020160123201011301/23/16 20:10:31  5-MIN K1J0 240210Z AUTO VRB03KT 10SM CLR 02/M03 A3015 -120 69 -1600 VRB/03 RMK AO2 T00221028 $
63871K1J0 1J020160123201511301/23/16 20:15:31  5-MIN K1J0 240215Z AUTO 00000KT 10SM CLR 02/M03 A3015 -120 72 -1700 000/00 RMK AO2 T00171028 $
63871K1J0 1J020160123202011301/23/16 20:20:31  5-MIN K1J0 240220Z AUTO 00000KT 10SM CLR 02/M03 A3015 -120 69 -1700 000/00 RMK AO2 T00171033 $
63871K1J0 1J020160123202511301/23/16 20:25:31  5-MIN K1J0 240225Z AUTO 31003KT 10SM CLR 02/M03 A3016 -130 69 -1700 310/03 RMK AO2 T00171033 $
63871K1J0 1J020160123203011301/23/16 20:30:31  5-MIN K1J0 240230Z AUTO 00000KT 10SM CLR 02/M03 A3016 -130 72 -1700 000/00 RMK AO2 T00171028 $
63871K1J0 1J020160123203511301/23/16 20:35:31  5-MIN K1J0 240235Z AUTO 31003KT 10SM CLR 02/M03 A3016 -130 69 -1700 310/03 RMK AO2 T00171033 $
63871K1J0 1J020160123204011301/23/16 20:40:31  5-MIN K1J0 240240Z AUTO 00000KT 10SM CLR 02/M03 A3016 -130 72 -1700 000/00 RMK AO2 T00171028 $
63871K1J0 1J020160123204511301/23/16 20:45:31  5-MIN K1J0 240245Z AUTO 00000KT 10SM CLR 01/M03 A3017 -130 75 -1800 000/00 RMK AO2 T00111028 $
63871K1J0 1J020160123205011301/23/16 20:50:31  5-MIN K1J0 240250Z AUTO 00000KT 10SM CLR 01/M03 A3017 -140 75 -1800 000/00 RMK AO2 T00111028 $
63871K1J0 1J020160123205512601/23/16 20:55:31  5-MIN K1J0 240255Z AUTO 00000KT 10SM CLR 02/M03 A3017 -140 72 -1700 000/00 RMK AO2 SLP203 T00171028 53022 $
63871K1J0 1J020160123210011301/23/16 21:00:31  5-MIN K1J0 240300Z AUTO 00000KT 10SM CLR 02/M03 A3017 -140 72 -1700 000/00 RMK AO2 T00171028 $
63871K1J0 1J020160123210511301/23/16 21:05:31  5-MIN K1J0 240305Z AUTO 00000KT 10SM CLR 01/M03 A3017 -140 75 -1800 000/00 RMK AO2 T00111028 $
63871K1J0 1J020160123211011301/23/16 21:10:31  5-MIN K1J0 240310Z AUTO 00000KT 10SM CLR 01/M03 A3017 -140 75 -1800 000/00 RMK AO2 T00111028 $
63871K1J0 1J020160123211511301/23/16 21:15:31  5-MIN K1J0 240315Z AUTO 00000KT 10SM CLR 01/M03 A3017 -140 75 -1800 000/00 RMK AO2 T00111028 $
63871K1J0 1J020160123212011301/23/16 21:20:31  5-MIN K1J0 240320Z AUTO 00000KT 10SM CLR 01/M03 A3017 -140 75 -1800 000/00 RMK AO2 T00111028 $
63871K1J0 1J020160123212511301/23/16 21:25:31  5-MIN K1J0 240325Z AUTO 00000KT 10SM CLR 01/M03 A3018 -140 75 -1800 000/00 RMK AO2 T00111028 $
63871K1J0 1J020160123213011301/23/16 21:30:31  5-MIN K1J0 240330Z AUTO 00000KT 10SM CLR 01/M03 A3018 -140 75 -1800 000/00 RMK AO2 T00111028 $
63871K1J0 1J020160123213511301/23/16 21:35:31  5-MIN K1J0 240335Z AUTO 00000KT 10SM CLR 01/M03 A3018 -150 75 -1800 000/00 RMK AO2 T00111028 $
63871K1J0 1J020160123214011301/23/16 21:40:31  5-MIN K1J0 240340Z AUTO 29003KT 10SM CLR 01/M03 A3018 -150 75 -1800 290/03 RMK AO2 T00111028 $
63871K1J0 1J020160123214511301/23/16 21:45:31  5-MIN K1J0 240345Z AUTO 29003KT 10SM CLR 01/M03 A3018 -150 75 -1800 290/03 RMK AO2 T00111028 $
63871K1J0 1J020160123215011301/23/16 21:50:31  5-MIN K1J0 240350Z AUTO 30003KT 10SM CLR 01/M03 A3018 -150 75 -1800 300/03 RMK AO2 T00111028 $
63871K1J0 1J020160123215512001/23/16 21:55:31  5-MIN K1J0 240355Z AUTO 00000KT 10SM CLR 01/M03 A3018 -150 75 -1800 000/00 RMK AO2 SLP207 T00111028 $
63871K1J0 1J020160123220011301/23/16 22:00:31  5-MIN K1J0 240400Z AUTO VRB03KT 10SM CLR 01/M03 A3018 -150 72 -1800 VRB/03 RMK AO2 T00111033 $
63871K1J0 1J020160123220511301/23/16 22:05:31  5-MIN K1J0 240405Z AUTO 00000KT 10SM CLR 01/M03 A3018 -150 75 -1800 000/00 RMK AO2 T00111028 $
63871K1J0 1J020160123221011301/23/16 22:10:31  5-MIN K1J0 240410Z AUTO 32003KT 10SM CLR 01/M03 A3018 -150 75 -1800 320/03 RMK AO2 T00111028 $
63871K1J0 1J020160123221511301/23/16 22:15:31  5-MIN K1J0 240415Z AUTO 31003KT 10SM CLR 01/M03 A3018 -150 75 -1900 310/03 RMK AO2 T00061033 $
63871K1J0 1J020160123222011301/23/16 22:20:31  5-MIN K1J0 240420Z AUTO 00000KT 10SM CLR 01/M03 A3019 -150 75 -1900 000/00 RMK AO2 T00061033 $
63871K1J0 1J020160123222511301/23/16 22:25:31  5-MIN K1J0 240425Z AUTO 00000KT 10SM CLR 01/M03 A3019 -160 75 -1900 000/00 RMK AO2 T00061033 $
63871K1J0 1J020160123223011301/23/16 22:30:31  5-MIN K1J0 240430Z AUTO 32003KT 10SM CLR 01/M03 A3019 -160 75 -1900 320/03 RMK AO2 T00061033 $
63871K1J0 1J020160123223511301/23/16 22:35:31  5-MIN K1J0 240435Z AUTO 30003KT 10SM CLR 01/M03 A3019 -150 75 -1900 300/03 RMK AO2 T00061033 $
63871K1J0 1J020160123224011301/23/16 22:40:31  5-MIN K1J0 240440Z AUTO 31003KT 10SM CLR 01/M03 A3019 -150 75 -1900 310/03 RMK AO2 T00061033 $
63871K1J0 1J020160123224511301/23/16 22:45:31  5-MIN K1J0 240445Z AUTO 31003KT 10SM CLR 01/M03 A3019 -150 75 -1900 310/03 RMK AO2 T00061033 $
63871K1J0 1J020160123225011301/23/16 22:50:31  5-MIN K1J0 240450Z AUTO 31003KT 10SM CLR 01/M03 A3019 -150 75 -1900 310/03 RMK AO2 T00061033 $
63871K1J0 1J020160123225512001/23/16 22:55:31  5-MIN K1J0 240455Z AUTO 31003KT 10SM CLR 01/M03 A3019 -160 75 -1900 310/03 RMK AO2 SLP209 T00061033 $
63871K1J0 1J020160123230011301/23/16 23:00:31  5-MIN K1J0 240500Z AUTO 31003KT 10SM CLR 01/M03 A3019 -150 75 -1900 310/03 RMK AO2 T00061033 $
63871K1J0 1J020160123230511301/23/16 23:05:31  5-MIN K1J0 240505Z AUTO 31004KT 10SM CLR 01/M03 A3019 -160 75 -1900 310/04 RMK AO2 T00061033 $
63871K1J0 1J020160123231011301/23/16 23:10:31  5-MIN K1J0 240510Z AUTO 31003KT 10SM CLR 01/M03 A3019 -160 75 -1900 310/03 RMK AO2 T00061033 $
63871K1J0 1J020160123231511301/23/16 23:15:31  5-MIN K1J0 240515Z AUTO 31003KT 10SM CLR 01/M03 A3019 -160 75 -1900 310/03 RMK AO2 T00061033 $
63871K1J0 1J020160123232011301/23/16 23:20:31  5-MIN K1J0 240520Z AUTO 31005KT 10SM CLR 01/M03 A3019 -160 75 -1900 310/05 RMK AO2 T00061033 $
63871K1J0 1J020160123232511301/23/16 23:25:31  5-MIN K1J0 240525Z AUTO 31004KT 10SM CLR 00/M03 A3019 -160 78 -1900 310/04 RMK AO2 T00001033 $
63871K1J0 1J020160123233011301/23/16 23:30:31  5-MIN K1J0 240530Z AUTO 31003KT 10SM CLR 00/M03 A3019 -160 78 -1900 310/03 RMK AO2 T00001033 $
63871K1J0 1J020160123233511301/23/16 23:35:31  5-MIN K1J0 240535Z AUTO 32004KT 10SM CLR 00/M03 A3019 -160 78 -2000 320/04 RMK AO2 T00001033 $
63871K1J0 1J020160123234011301/23/16 23:40:31  5-MIN K1J0 240540Z AUTO 32004KT 10SM CLR 00/M03 A3019 -160 78 -2000 320/04 RMK AO2 T00001033 $
63871K1J0 1J020160123234511301/23/16 23:45:31  5-MIN K1J0 240545Z AUTO 32003KT 10SM CLR 00/M03 A3019 -160 78 -1900 320/03 RMK AO2 T00001033 $
63871K1J0 1J020160123235011301/23/16 23:50:31  5-MIN K1J0 240550Z AUTO 32003KT 10SM CLR 00/M03 A3019 -150 78 -1900 320/03 RMK AO2 T00001033 $
63871K1J0 1J020160123235514801/23/16 23:55:31  5-MIN K1J0 240555Z AUTO 33003KT 10SM CLR 00/M04 A3018 -150 75 -1900 330/03 RMK AO2 SLP207 T00001039 10039 20000 400720000 51028 $
63871K1J0 1J020160124000011301/24/16 00:00:31  5-MIN K1J0 240600Z AUTO 32003KT 10SM CLR 00/M03 A3018 -150 78 -1900 320/03 RMK AO2 T00001033 $
63871K1J0 1J020160124000511401/24/16 00:05:31  5-MIN K1J0 240605Z AUTO 32003KT 10SM CLR M01/M03 A3018 -150 81 -2000 320/03 RMK AO2 T10061033 $
63871K1J0 1J020160124001011401/24/16 00:10:31  5-MIN K1J0 240610Z AUTO 33003KT 10SM CLR M01/M03 A3018 -140 81 -2000 330/03 RMK AO2 T10061033 $
63871K1J0 1J020160124001511401/24/16 00:15:31  5-MIN K1J0 240615Z AUTO 00000KT 10SM CLR M01/M04 A3018 -140 78 -2000 000/00 RMK AO2 T10061039 $
63871K1J0 1J020160124002011401/24/16 00:20:31  5-MIN K1J0 240620Z AUTO 00000KT 10SM CLR M01/M03 A3017 -140 81 -2000 000/00 RMK AO2 T10061033 $
63871K1J0 1J020160124002511401/24/16 00:25:31  5-MIN K1J0 240625Z AUTO 00000KT 10SM CLR M01/M03 A3017 -140 81 -2000 000/00 RMK AO2 T10061033 $
63871K1J0 1J020160124003011401/24/16 00:30:31  5-MIN K1J0 240630Z AUTO 00000KT 10SM CLR M01/M04 A3017 -140 78 -2000 000/00 RMK AO2 T10061039 $
63871K1J0 1J020160124003511401/24/16 00:35:31  5-MIN K1J0 240635Z AUTO 00000KT 10SM CLR M01/M04 A3017 -140 78 -2000 000/00 RMK AO2 T10061039 $
63871K1J0 1J020160124004011401/24/16 00:40:31  5-MIN K1J0 240640Z AUTO 00000KT 10SM CLR M01/M03 A3017 -140 81 -2000 000/00 RMK AO2 T10061033 $
63871K1J0 1J020160124004511401/24/16 00:45:31  5-MIN K1J0 240645Z AUTO 00000KT 10SM CLR M01/M03 A3017 -140 85 -2100 000/00 RMK AO2 T10111033 $
63871K1J0 1J020160124005011401/24/16 00:50:31  5-MIN K1J0 240650Z AUTO 00000KT 10SM CLR M01/M03 A3017 -140 85 -2100 000/00 RMK AO2 T10111033 $
63871K1J0 1J020160124005512101/24/16 00:55:31  5-MIN K1J0 240655Z AUTO 00000KT 10SM CLR M01/M04 A3017 -140 81 -2100 000/00 RMK AO2 SLP203 T10111039 $
63871K1J0 1J020160124010011401/24/16 01:00:31  5-MIN K1J0 240700Z AUTO 00000KT 10SM CLR M01/M04 A3017 -140 78 -2000 000/00 RMK AO2 T10061039 $
63871K1J0 1J020160124010511401/24/16 01:05:31  5-MIN K1J0 240705Z AUTO 00000KT 10SM CLR M01/M03 A3017 -140 85 -2100 000/00 RMK AO2 T10111033 $
63871K1J0 1J020160124011011401/24/16 01:10:31  5-MIN K1J0 240710Z AUTO 00000KT 10SM CLR M01/M03 A3017 -130 85 -2100 000/00 RMK AO2 T10111033 $
63871K1J0 1J020160124011511401/24/16 01:15:31  5-MIN K1J0 240715Z AUTO 00000KT 10SM CLR M01/M03 A3017 -140 85 -2100 000/00 RMK AO2 T10111033 $
63871K1J0 1J020160124012011401/24/16 01:20:31  5-MIN K1J0 240720Z AUTO 00000KT 10SM CLR M01/M03 A3017 -140 85 -2100 000/00 RMK AO2 T10111033 $
63871K1J0 1J020160124012511401/24/16 01:25:31  5-MIN K1J0 240725Z AUTO 00000KT 10SM CLR M02/M04 A3017 -140 85 -2100 000/00 RMK AO2 T10171039 $
63871K1J0 1J020160124013011401/24/16 01:30:31  5-MIN K1J0 240730Z AUTO 00000KT 10SM CLR M02/M03 A3017 -140 88 -2100 000/00 RMK AO2 T10171033 $
63871K1J0 1J020160124013511401/24/16 01:35:31  5-MIN K1J0 240735Z AUTO 00000KT 10SM CLR M02/M03 A3017 -140 88 -2100 000/00 RMK AO2 T10171033 $
63871K1J0 1J020160124014011401/24/16 01:40:31  5-MIN K1J0 240740Z AUTO 00000KT 10SM CLR M02/M03 A3017 -140 88 -2100 000/00 RMK AO2 T10171033 $
63871K1J0 1J020160124014511401/24/16 01:45:31  5-MIN K1J0 240745Z AUTO 00000KT 10SM CLR M02/M03 A3016 -130 88 -2100 000/00 RMK AO2 T10171033 $
63871K1J0 1J020160124015011401/24/16 01:50:31  5-MIN K1J0 240750Z AUTO 00000KT 10SM CLR M02/M03 A3016 -130 88 -2100 000/00 RMK AO2 T10171033 $
63871K1J0 1J020160124015512101/24/16 01:55:31  5-MIN K1J0 240755Z AUTO 00000KT 10SM CLR M02/M03 A3016 -130 88 -2100 000/00 RMK AO2 SLP198 T10171033 $
63871K1J0 1J020160124020011401/24/16 02:00:31  5-MIN K1J0 240800Z AUTO 00000KT 10SM CLR M02/M04 A3016 -130 88 -2200 000/00 RMK AO2 T10221039 $
63871K1J0 1J020160124020511401/24/16 02:05:31  5-MIN K1J0 240805Z AUTO 00000KT 10SM CLR M02/M04 A3016 -130 85 -2100 000/00 RMK AO2 T10171039 $
63871K1J0 1J020160124021011401/24/16 02:10:31  5-MIN K1J0 240810Z AUTO 00000KT 10SM CLR M02/M03 A3016 -130 88 -2100 000/00 RMK AO2 T10171033 $
63871K1J0 1J020160124021511401/24/16 02:15:31  5-MIN K1J0 240815Z AUTO 00000KT 10SM CLR M02/M03 A3016 -130 88 -2100 000/00 RMK AO2 T10171033 $
63871K1J0 1J020160124022011401/24/16 02:20:31  5-MIN K1J0 240820Z AUTO 00000KT 10SM CLR M02/M03 A3016 -130 92 -2200 000/00 RMK AO2 T10221033 $
63871K1J0 1J020160124022511401/24/16 02:25:31  5-MIN K1J0 240825Z AUTO 00000KT 10SM CLR M02/M03 A3016 -130 92 -2200 000/00 RMK AO2 T10221033 $
63871K1J0 1J020160124023011401/24/16 02:30:31  5-MIN K1J0 240830Z AUTO 00000KT 10SM CLR M02/M03 A3016 -130 92 -2200 000/00 RMK AO2 T10221033 $
63871K1J0 1J020160124023511401/24/16 02:35:31  5-MIN K1J0 240835Z AUTO 00000KT 10SM CLR M02/M03 A3017 -130 92 -2200 000/00 RMK AO2 T10221033 $
63871K1J0 1J020160124024011401/24/16 02:40:31  5-MIN K1J0 240840Z AUTO 00000KT 10SM CLR M02/M03 A3017 -140 92 -2200 000/00 RMK AO2 T10221033 $
63871K1J0 1J020160124024511401/24/16 02:45:31  5-MIN K1J0 240845Z AUTO 00000KT 10SM CLR M02/M03 A3017 -140 92 -2200 000/00 RMK AO2 T10221033 $
63871K1J0 1J020160124025011401/24/16 02:50:31  5-MIN K1J0 240850Z AUTO 00000KT 10SM CLR M02/M03 A3017 -140 88 -2100 000/00 RMK AO2 T10171033 $
63871K1J0 1J020160124025512701/24/16 02:55:31  5-MIN K1J0 240855Z AUTO 00000KT 10SM CLR M02/M03 A3017 -140 92 -2200 000/00 RMK AO2 SLP202 T10221033 50003 $
63871K1J0 1J020160124030011401/24/16 03:00:31  5-MIN K1J0 240900Z AUTO 00000KT 10SM CLR M02/M04 A3017 -140 85 -2100 000/00 RMK AO2 T10171039 $
63871K1J0 1J020160124030511401/24/16 03:05:31  5-MIN K1J0 240905Z AUTO 00000KT 10SM CLR M02/M04 A3017 -140 85 -2100 000/00 RMK AO2 T10171039 $
63871K1J0 1J020160124031011401/24/16 03:10:31  5-MIN K1J0 240910Z AUTO 00000KT 10SM CLR M02/M04 A3017 -140 85 -2100 000/00 RMK AO2 T10171039 $
63871K1J0 1J020160124031511401/24/16 03:15:31  5-MIN K1J0 240915Z AUTO 00000KT 10SM CLR M02/M04 A3017 -140 85 -2100 000/00 RMK AO2 T10171039 $
63871K1J0 1J020160124032011401/24/16 03:20:31  5-MIN K1J0 240920Z AUTO 00000KT 10SM CLR M02/M04 A3017 -140 81 -2100 000/00 RMK AO2 T10171044 $
63871K1J0 1J020160124032511401/24/16 03:25:31  5-MIN K1J0 240925Z AUTO 00000KT 10SM CLR M02/M04 A3017 -140 81 -2100 000/00 RMK AO2 T10171044 $
63871K1J0 1J020160124033011401/24/16 03:30:31  5-MIN K1J0 240930Z AUTO 00000KT 10SM CLR M02/M04 A3017 -140 81 -2100 000/00 RMK AO2 T10171044 $
63871K1J0 1J020160124033511401/24/16 03:35:31  5-MIN K1J0 240935Z AUTO 00000KT 10SM CLR M02/M04 A3017 -140 85 -2200 000/00 RMK AO2 T10221044 $
63871K1J0 1J020160124034011401/24/16 03:40:31  5-MIN K1J0 240940Z AUTO 00000KT 10SM CLR M02/M04 A3017 -140 88 -2200 000/00 RMK AO2 T10221039 $
63871K1J0 1J020160124034511401/24/16 03:45:31  5-MIN K1J0 240945Z AUTO 00000KT 10SM CLR M02/M04 A3017 -140 88 -2200 000/00 RMK AO2 T10221039 $
63871K1J0 1J020160124035011401/24/16 03:50:31  5-MIN K1J0 240950Z AUTO 00000KT 10SM CLR M02/M04 A3018 -140 88 -2200 000/00 RMK AO2 T10221039 $
63871K1J0 1J020160124035512101/24/16 03:55:31  5-MIN K1J0 240955Z AUTO 00000KT 10SM CLR M02/M04 A3018 -150 88 -2200 000/00 RMK AO2 SLP205 T10221039 $
63871K1J0 1J020160124040011401/24/16 04:00:31  5-MIN K1J0 241000Z AUTO 00000KT 10SM CLR M02/M04 A3018 -150 88 -2200 000/00 RMK AO2 T10221039 $
63871K1J0 1J020160124040511401/24/16 04:05:31  5-MIN K1J0 241005Z AUTO 00000KT 10SM CLR M02/M04 A3018 -150 88 -2200 000/00 RMK AO2 T10221039 $
63871K1J0 1J020160124041011401/24/16 04:10:31  5-MIN K1J0 241010Z AUTO 00000KT 10SM CLR M02/M04 A3019 -150 88 -2200 000/00 RMK AO2 T10221039 $
63871K1J0 1J020160124041511401/24/16 04:15:31  5-MIN K1J0 241015Z AUTO 00000KT 10SM CLR M02/M04 A3019 -160 88 -2200 000/00 RMK AO2 T10221039 $
63871K1J0 1J020160124042011401/24/16 04:20:31  5-MIN K1J0 241020Z AUTO 00000KT 10SM CLR M02/M04 A3019 -160 88 -2200 000/00 RMK AO2 T10221039 $
63871K1J0 1J020160124042511401/24/16 04:25:31  5-MIN K1J0 241025Z AUTO 00000KT 10SM CLR M02/M04 A3019 -160 88 -2200 000/00 RMK AO2 T10221039 $
63871K1J0 1J020160124043011401/24/16 04:30:31  5-MIN K1J0 241030Z AUTO 00000KT 10SM CLR M03/M04 A3020 -160 88 -2300 000/00 RMK AO2 T10281044 $
63871K1J0 1J020160124043511401/24/16 04:35:31  5-MIN K1J0 241035Z AUTO 00000KT 10SM CLR M02/M04 A3020 -170 88 -2200 000/00 RMK AO2 T10221039 $
63871K1J0 1J020160124044011401/24/16 04:40:31  5-MIN K1J0 241040Z AUTO 00000KT 10SM CLR M02/M04 A3020 -170 88 -2200 000/00 RMK AO2 T10221039 $
63871K1J0 1J020160124044511401/24/16 04:45:31  5-MIN K1J0 241045Z AUTO 00000KT 10SM CLR M02/M04 A3020 -170 88 -2200 000/00 RMK AO2 T10221039 $
63871K1J0 1J020160124045011401/24/16 04:50:31  5-MIN K1J0 241050Z AUTO 00000KT 10SM CLR M02/M04 A3020 -170 88 -2200 000/00 RMK AO2 T10221039 $
63871K1J0 1J020160124045512101/24/16 04:55:31  5-MIN K1J0 241055Z AUTO 00000KT 10SM CLR M02/M04 A3021 -170 88 -2300 000/00 RMK AO2 SLP215 T10221039 $
63871K1J0 1J020160124050011401/24/16 05:00:31  5-MIN K1J0 241100Z AUTO 00000KT 10SM CLR M02/M04 A3021 -170 85 -2300 000/00 RMK AO2 T10221044 $
63871K1J0 1J020160124050511401/24/16 05:05:31  5-MIN K1J0 241105Z AUTO 00000KT 10SM CLR M03/M04 A3021 -180 88 -2300 000/00 RMK AO2 T10281044 $
63871K1J0 1J020160124051011401/24/16 05:10:31  5-MIN K1J0 241110Z AUTO 00000KT 10SM CLR M03/M04 A3021 -180 88 -2300 000/00 RMK AO2 T10281044 $
63871K1J0 1J020160124051511401/24/16 05:15:31  5-MIN K1J0 241115Z AUTO 00000KT 10SM CLR M03/M04 A3022 -180 88 -2300 000/00 RMK AO2 T10281044 $
63871K1J0 1J020160124052011401/24/16 05:20:31  5-MIN K1J0 241120Z AUTO 00000KT 10SM CLR M02/M04 A3022 -180 85 -2300 000/00 RMK AO2 T10221044 $
63871K1J0 1J020160124052511401/24/16 05:25:31  5-MIN K1J0 241125Z AUTO 00000KT 10SM CLR M02/M04 A3022 -180 88 -2300 000/00 RMK AO2 T10221039 $
63871K1J0 1J020160124053011401/24/16 05:30:31  5-MIN K1J0 241130Z AUTO 00000KT 10SM CLR M02/M04 A3022 -180 88 -2300 000/00 RMK AO2 T10221039 $
63871K1J0 1J020160124053511401/24/16 05:35:31  5-MIN K1J0 241135Z AUTO 00000KT 10SM CLR M02/M04 A3022 -180 88 -2300 000/00 RMK AO2 T10221039 $
63871K1J0 1J020160124054011401/24/16 05:40:31  5-MIN K1J0 241140Z AUTO 00000KT 10SM CLR M02/M04 A3022 -180 85 -2300 000/00 RMK AO2 T10221044 $
63871K1J0 1J020160124054511401/24/16 05:45:31  5-MIN K1J0 241145Z AUTO 00000KT 10SM CLR M02/M04 A3022 -190 85 -2300 000/00 RMK AO2 T10221044 $
63871K1J0 1J020160124055011401/24/16 05:50:31  5-MIN K1J0 241150Z AUTO 00000KT 10SM CLR M03/M04 A3022 -190 88 -2300 000/00 RMK AO2 T10281044 $
63871K1J0 1J020160124055513901/24/16 05:55:31  5-MIN K1J0 241155Z AUTO 00000KT 10SM CLR M03/M04 A3022 -190 88 -2300 000/00 RMK AO2 SLP220 T10281044 10000 21028 55005 $
63871K1J0 1J020160124060011401/24/16 06:00:31  5-MIN K1J0 241200Z AUTO 00000KT 10SM CLR M03/M04 A3022 -190 88 -2300 000/00 RMK AO2 T10281044 $
63871K1J0 1J020160124060511401/24/16 06:05:31  5-MIN K1J0 241205Z AUTO 00000KT 10SM CLR M03/M04 A3022 -190 88 -2300 000/00 RMK AO2 T10281044 $
63871K1J0 1J020160124061011401/24/16 06:10:31  5-MIN K1J0 241210Z AUTO 00000KT 10SM CLR M03/M04 A3022 -190 88 -2300 000/00 RMK AO2 T10281044 $
63871K1J0 1J020160124061511401/24/16 06:15:31  5-MIN K1J0 241215Z AUTO 00000KT 10SM CLR M03/M04 A3023 -190 88 -2300 000/00 RMK AO2 T10281044 $
63871K1J0 1J020160124062011401/24/16 06:20:31  5-MIN K1J0 241220Z AUTO 00000KT 10SM CLR M03/M04 A3023 -190 88 -2300 000/00 RMK AO2 T10281044 $
63871K1J0 1J020160124062511401/24/16 06:25:31  5-MIN K1J0 241225Z AUTO 00000KT 10SM CLR M03/M04 A3023 -190 88 -2300 000/00 RMK AO2 T10281044 $
63871K1J0 1J020160124063011401/24/16 06:30:31  5-MIN K1J0 241230Z AUTO 00000KT 10SM CLR M03/M04 A3023 -200 88 -2400 000/00 RMK AO2 T10281044 $
63871K1J0 1J020160124063511401/24/16 06:35:31  5-MIN K1J0 241235Z AUTO 00000KT 10SM CLR M03/M04 A3023 -200 88 -2400 000/00 RMK AO2 T10281044 $
63871K1J0 1J020160124064011401/24/16 06:40:31  5-MIN K1J0 241240Z AUTO 00000KT 10SM CLR M03/M04 A3024 -200 88 -2400 000/00 RMK AO2 T10281044 $
63871K1J0 1J020160124064511401/24/16 06:45:31  5-MIN K1J0 241245Z AUTO 00000KT 10SM CLR M03/M04 A3024 -200 92 -2400 000/00 RMK AO2 T10331044 $
63871K1J0 1J020160124065011301/24/16 06:50:31  5-MIN K1J0 241250Z AUTO 00000KT 9SM CLR M03/M04 A3024 -210 88 -2400 000/00 RMK AO2 T10281044 $
63871K1J0 1J020160124065512101/24/16 06:55:31  5-MIN K1J0 241255Z AUTO 00000KT 10SM CLR M03/M04 A3024 -210 92 -2400 000/00 RMK AO2 SLP227 T10331044 $
63871K1J0 1J020160124070011401/24/16 07:00:31  5-MIN K1J0 241300Z AUTO 00000KT 10SM CLR M03/M04 A3025 -210 92 -2400 000/00 RMK AO2 T10281039 $
63871K1J0 1J020160124070511401/24/16 07:05:31  5-MIN K1J0 241305Z AUTO 00000KT 10SM CLR M02/M04 A3025 -210 88 -2300 000/00 RMK AO2 T10221039 $
63871K1J0 1J020160124071012901/24/16 07:10:31  5-MIN K1J0 241310Z AUTO 00000KT 10SM UP CLR M02/M04 A3025 -210 88 -2300 000/00 RMK AO2 UPB10 P0000 T10221039 $
63871K1J0 1J020160124071512901/24/16 07:15:31  5-MIN K1J0 241315Z AUTO 00000KT 10SM UP CLR M02/M03 A3025 -220 92 -2300 000/00 RMK AO2 UPB10 P0000 T10221033 $
63871K1J0 1J020160124072012901/24/16 07:20:31  5-MIN K1J0 241320Z AUTO 00000KT 10SM CLR M02/M03 A3026 -220 88 -2200 000/00 RMK AO2 UPB10E19 P0000 T10171033 $
63871K1J0 1J020160124072512901/24/16 07:25:31  5-MIN K1J0 241325Z AUTO 32003KT 10SM CLR M02/M03 A3026 -220 88 -2200 320/03 RMK AO2 UPB10E19 P0000 T10171033 $
63871K1J0 1J020160124073012901/24/16 07:30:31  5-MIN K1J0 241330Z AUTO 00000KT 10SM CLR M01/M03 A3026 -220 85 -2200 000/00 RMK AO2 UPB10E19 P0000 T10111033 $
63871K1J0 1J020160124073512901/24/16 07:35:31  5-MIN K1J0 241335Z AUTO 34003KT 10SM CLR M01/M03 A3025 -220 85 -2200 340/03 RMK AO2 UPB10E19 P0000 T10111033 $
63871K1J0 1J020160124074012901/24/16 07:40:31  5-MIN K1J0 241340Z AUTO 34003KT 10SM CLR M01/M03 A3026 -220 85 -2200 340/03 RMK AO2 UPB10E19 P0000 T10111033 $
63871K1J0 1J020160124074512901/24/16 07:45:31  5-MIN K1J0 241345Z AUTO 34004KT 10SM CLR M01/M03 A3026 -220 81 -2100 340/04 RMK AO2 UPB10E19 P0000 T10061033 $
63871K1J0 1J020160124075012901/24/16 07:50:31  5-MIN K1J0 241350Z AUTO 00000KT 10SM CLR M01/M03 A3026 -230 81 -2100 000/00 RMK AO2 UPB10E19 P0000 T10061033 $
63871K1J0 1J020160124075513601/24/16 07:55:31  5-MIN K1J0 241355Z AUTO VRB03KT 10SM CLR M01/M03 A3027 -230 81 -2100 VRB/03 RMK AO2 UPB10E19 SLP235 P0000 T10061033 $
63871K1J0 1J020160124080011301/24/16 08:00:31  5-MIN K1J0 241400Z AUTO 33003KT 10SM CLR 00/M03 A3027 -230 78 -2000 330/03 RMK AO2 T00001033 $
63871K1J0 1J020160124080511301/24/16 08:05:31  5-MIN K1J0 241405Z AUTO 33004KT 10SM CLR 00/M03 A3027 -230 78 -2000 330/04 RMK AO2 T00001033 $
63871K1J0 1J020160124081011301/24/16 08:10:31  5-MIN K1J0 241410Z AUTO 33005KT 10SM CLR 00/M04 A3027 -230 75 -2000 330/05 RMK AO2 T00001039 $
63871K1J0 1J020160124081511301/24/16 08:15:31  5-MIN K1J0 241415Z AUTO 33005KT 10SM CLR 01/M04 A3027 -230 72 -2000 330/05 RMK AO2 T00061039 $
63871K1J0 1J020160124082011301/24/16 08:20:31  5-MIN K1J0 241420Z AUTO 34006KT 10SM CLR 01/M04 A3028 -240 72 -2000 340/06 RMK AO2 T00061039 $
63871K1J0 1J020160124082511301/24/16 08:25:31  5-MIN K1J0 241425Z AUTO 33005KT 10SM CLR 01/M04 A3028 -240 72 -2000 330/05 RMK AO2 T00061039 $
63871K1J0 1J020160124083011301/24/16 08:30:31  5-MIN K1J0 241430Z AUTO 34008KT 10SM CLR 01/M04 A3028 -240 72 -2000 340/08 RMK AO2 T00061039 $
63871K1J0 1J020160124083511301/24/16 08:35:31  5-MIN K1J0 241435Z AUTO 34006KT 10SM CLR 01/M04 A3028 -240 69 -1900 340/06 RMK AO2 T00111039 $
63871K1J0 1J020160124084011301/24/16 08:40:31  5-MIN K1J0 241440Z AUTO 34007KT 10SM CLR 01/M04 A3028 -240 69 -1900 340/07 RMK AO2 T00111039 $
63871K1J0 1J020160124084511301/24/16 08:45:31  5-MIN K1J0 241445Z AUTO 01005KT 10SM CLR 01/M04 A3028 -240 69 -1900 010/05 RMK AO2 T00111039 $
63871K1J0 1J020160124085011301/24/16 08:50:31  5-MIN K1J0 241450Z AUTO 36006KT 10SM CLR 01/M04 A3028 -240 69 -1900 360/06 RMK AO2 T00111039 $
63871K1J0 1J020160124085513201/24/16 08:55:31  5-MIN K1J0 241455Z AUTO VRB04KT 10SM CLR 02/M04 A3028 -240 66 -1800 VRB/04 RMK AO2 SLP239 60000 T00171039 53019 $
63871K1J0 1J020160124090011301/24/16 09:00:31  5-MIN K1J0 241500Z AUTO 34005KT 10SM CLR 02/M04 A3028 -240 66 -1800 340/05 RMK AO2 T00171039 $
63871K1J0 1J020160124090511301/24/16 09:05:31  5-MIN K1J0 241505Z AUTO 34006KT 10SM CLR 02/M04 A3028 -240 66 -1800 340/06 RMK AO2 T00171039 $
63871K1J0 1J020160124091011301/24/16 09:10:31  5-MIN K1J0 241510Z AUTO 31004KT 10SM CLR 02/M04 A3028 -240 64 -1800 310/04 RMK AO2 T00221039 $
63871K1J0 1J020160124091511301/24/16 09:15:31  5-MIN K1J0 241515Z AUTO 35005KT 10SM CLR 02/M04 A3028 -240 64 -1800 350/05 RMK AO2 T00221039 $
63871K1J0 1J020160124092011301/24/16 09:20:31  5-MIN K1J0 241520Z AUTO 33005KT 10SM CLR 03/M04 A3028 -240 61 -1700 330/05 RMK AO2 T00281039 $
63871K1J0 1J020160124092511301/24/16 09:25:31  5-MIN K1J0 241525Z AUTO 36004KT 10SM CLR 02/M04 A3028 -240 64 -1800 360/04 RMK AO2 T00221039 $
63871K1J0 1J020160124093011301/24/16 09:30:31  5-MIN K1J0 241530Z AUTO 34005KT 10SM CLR 03/M04 A3028 -240 59 -1700 340/05 RMK AO2 T00281044 $
63871K1J0 1J020160124093511301/24/16 09:35:31  5-MIN K1J0 241535Z AUTO VRB05KT 10SM CLR 03/M04 A3028 -240 59 -1600 VRB/05 RMK AO2 T00331039 $
63871K1J0 1J020160124094011301/24/16 09:40:31  5-MIN K1J0 241540Z AUTO VRB04KT 10SM CLR 03/M04 A3028 -240 59 -1600 VRB/04 RMK AO2 T00331039 $
63871K1J0 1J020160124094511301/24/16 09:45:31  5-MIN K1J0 241545Z AUTO 00000KT 10SM CLR 04/M04 A3028 -240 57 -1600 000/00 RMK AO2 T00391039 $
63871K1J0 1J020160124095011301/24/16 09:50:31  5-MIN K1J0 241550Z AUTO 36004KT 10SM CLR 04/M04 A3028 -240 54 -1600 360/04 RMK AO2 T00391044 $
63871K1J0 1J020160124095512001/24/16 09:55:31  5-MIN K1J0 241555Z AUTO 00000KT 10SM CLR 04/M04 A3028 -240 54 -1600 000/00 RMK AO2 SLP239 T00391044 $
63871K1J0 1J020160124100011301/24/16 10:00:31  5-MIN K1J0 241600Z AUTO 36005KT 10SM CLR 04/M04 A3028 -240 55 -1500 360/05 RMK AO2 T00441039 $
63871K1J0 1J020160124100511301/24/16 10:05:31  5-MIN K1J0 241605Z AUTO 03003KT 10SM CLR 04/M04 A3028 -240 52 -1500 030/03 RMK AO2 T00441044 $
63871K1J0 1J020160124101011301/24/16 10:10:31  5-MIN K1J0 241610Z AUTO 32003KT 10SM CLR 05/M04 A3028 -240 52 -1400 320/03 RMK AO2 T00501039 $
63871K1J0 1J020160124101511301/24/16 10:15:31  5-MIN K1J0 241615Z AUTO 04005KT 10SM CLR 05/M04 A3027 -230 52 -1400 040/05 RMK AO2 T00501039 $
63871K1J0 1J020160124102011301/24/16 10:20:31  5-MIN K1J0 241620Z AUTO 03005KT 10SM CLR 05/M04 A3027 -230 50 -1400 030/05 RMK AO2 T00501044 $
63871K1J0 1J020160124102511301/24/16 10:25:31  5-MIN K1J0 241625Z AUTO 02003KT 10SM CLR 05/M04 A3027 -230 50 -1400 020/03 RMK AO2 T00501044 $
63871K1J0 1J020160124103011301/24/16 10:30:31  5-MIN K1J0 241630Z AUTO 04003KT 10SM CLR 06/M05 A3026 -230 46 -1300 040/03 RMK AO2 T00561050 $
63871K1J0 1J020160124103511301/24/16 10:35:31  5-MIN K1J0 241635Z AUTO 00000KT 10SM CLR 06/M04 A3026 -220 48 -1300 000/00 RMK AO2 T00561044 $
63871K1J0 1J020160124104011301/24/16 10:40:31  5-MIN K1J0 241640Z AUTO 00000KT 10SM CLR 06/M04 A3026 -220 48 -1300 000/00 RMK AO2 T00561044 $
63871K1J0 1J020160124104511301/24/16 10:45:31  5-MIN K1J0 241645Z AUTO 00000KT 10SM CLR 06/M04 A3026 -220 48 -1300 000/00 RMK AO2 T00561044 $
63871K1J0 1J020160124105011301/24/16 10:50:31  5-MIN K1J0 241650Z AUTO 00000KT 10SM CLR 06/M04 A3026 -220 48 -1300 000/00 RMK AO2 T00561044 $
63871K1J0 1J020160124105512001/24/16 10:55:31  5-MIN K1J0 241655Z AUTO 00000KT 10SM CLR 06/M04 A3026 -220 46 -1300 000/00 RMK AO2 SLP233 T00611044 $
63871K1J0 1J020160124110011301/24/16 11:00:31  5-MIN K1J0 241700Z AUTO 00000KT 10SM CLR 07/M04 A3025 -220 45 -1200 000/00 RMK AO2 T00671044 $
63871K1J0 1J020160124110511301/24/16 11:05:31  5-MIN K1J0 241705Z AUTO 00000KT 10SM CLR 07/M04 A3025 -210 43 -1100 000/00 RMK AO2 T00721044 $
63871K1J0 1J020160124111011301/24/16 11:10:31  5-MIN K1J0 241710Z AUTO 00000KT 10SM CLR 07/M04 A3024 -210 45 -1100 000/00 RMK AO2 T00721039 $
63871K1J0 1J020160124111511301/24/16 11:15:31  5-MIN K1J0 241715Z AUTO 00000KT 10SM CLR 07/M04 A3024 -200 43 -1100 000/00 RMK AO2 T00721044 $
63871K1J0 1J020160124112011301/24/16 11:20:31  5-MIN K1J0 241720Z AUTO 00000KT 10SM CLR 07/M04 A3024 -200 43 -1100 000/00 RMK AO2 T00721044 $
63871K1J0 1J020160124112511301/24/16 11:25:31  5-MIN K1J0 241725Z AUTO 00000KT 10SM CLR 07/M04 A3024 -200 43 -1100 000/00 RMK AO2 T00721044 $
63871K1J0 1J020160124113011301/24/16 11:30:31  5-MIN K1J0 241730Z AUTO 00000KT 10SM CLR 08/M04 A3024 -200 41 -1000 000/00 RMK AO2 T00781044 $
63871K1J0 1J020160124113511301/24/16 11:35:31  5-MIN K1J0 241735Z AUTO 00000KT 10SM CLR 07/M04 A3023 -200 45 -1100 000/00 RMK AO2 T00721039 $
63871K1J0 1J020160124114011301/24/16 11:40:31  5-MIN K1J0 241740Z AUTO 00000KT 10SM CLR 08/M04 A3023 -190 43 -1000 000/00 RMK AO2 T00781039 $
63871K1J0 1J020160124114511201/24/16 11:45:31  5-MIN K1J0 241745Z AUTO 08004KT 10SM CLR 09/M04 A3022 -190 38 -900 080/04 RMK AO2 T00891044 $
63871K1J0 1J020160124115011201/24/16 11:50:31  5-MIN K1J0 241750Z AUTO 08003KT 10SM CLR 09/M04 A3022 -190 38 -900 080/03 RMK AO2 T00891044 $
63871K1J0 1J020160124115514301/24/16 11:55:31  5-MIN K1J0 241755Z AUTO 00000KT 10SM CLR 09/M05 A3022 -180 37 -900 000/00 RMK AO2 SLP219 60000 T00891050 10089 21033 51019 $
63871K1J0 1J020160124120011201/24/16 12:00:31  5-MIN K1J0 241800Z AUTO VRB03KT 10SM CLR 09/M05 A3021 -180 37 -900 VRB/03 RMK AO2 T00891050 $
63871K1J0 1J020160124120511201/24/16 12:05:31  5-MIN K1J0 241805Z AUTO 00000KT 10SM CLR 09/M04 A3021 -180 37 -800 000/00 RMK AO2 T00941044 $
63871K1J0 1J020160124121011201/24/16 12:10:31  5-MIN K1J0 241810Z AUTO 00000KT 10SM CLR 10/M04 A3021 -170 36 -700 000/00 RMK AO2 T01001044 $
63871K1J0 1J020160124121511201/24/16 12:15:31  5-MIN K1J0 241815Z AUTO 00000KT 10SM CLR 10/M04 A3020 -170 36 -700 000/00 RMK AO2 T01001044 $
63871K1J0 1J020160124122011201/24/16 12:20:31  5-MIN K1J0 241820Z AUTO 00000KT 10SM CLR 10/M04 A3020 -170 36 -700 000/00 RMK AO2 T01001044 $
63871K1J0 1J020160124122511201/24/16 12:25:31  5-MIN K1J0 241825Z AUTO 36004KT 10SM CLR 11/M04 A3020 -170 34 -700 360/04 RMK AO2 T01061044 $
63871K1J0 1J020160124123011201/24/16 12:30:31  5-MIN K1J0 241830Z AUTO 00000KT 10SM CLR 10/M05 A3020 -170 34 -700 000/00 RMK AO2 T01001050 $
63871K1J0 1J020160124123511201/24/16 12:35:31  5-MIN K1J0 241835Z AUTO VRB03KT 10SM CLR 10/M05 A3020 -170 34 -700 VRB/03 RMK AO2 T01001050 $
63871K1J0 1J020160124124011201/24/16 12:40:31  5-MIN K1J0 241840Z AUTO VRB03KT 10SM CLR 11/M04 A3020 -160 34 -700 VRB/03 RMK AO2 T01061044 $
63871K1J0 1J020160124124511201/24/16 12:45:31  5-MIN K1J0 241845Z AUTO 00000KT 10SM CLR 11/M04 A3020 -160 33 -600 000/00 RMK AO2 T01111044 $
63871K1J0 1J020160124125011201/24/16 12:50:31  5-MIN K1J0 241850Z AUTO 00000KT 10SM CLR 11/M05 A3019 -160 32 -600 000/00 RMK AO2 T01111050 $
63871K1J0 1J020160124125511901/24/16 12:55:31  5-MIN K1J0 241855Z AUTO 27004KT 10SM CLR 11/M04 A3019 -160 33 -600 270/04 RMK AO2 SLP210 T01111044 $
63871K1J0 1J020160124130011201/24/16 13:00:31  5-MIN K1J0 241900Z AUTO 00000KT 10SM CLR 11/M06 A3019 -160 30 -600 000/00 RMK AO2 T01061061 $
63871K1J0 1J020160124130511201/24/16 13:05:31  5-MIN K1J0 241905Z AUTO 00000KT 10SM CLR 12/M04 A3019 -160 32 -500 000/00 RMK AO2 T01171044 $
63871K1J0 1J020160124131011201/24/16 13:10:31  5-MIN K1J0 241910Z AUTO 00000KT 10SM CLR 12/M04 A3019 -150 32 -500 000/00 RMK AO2 T01171044 $
63871K1J0 1J020160124131511201/24/16 13:15:31  5-MIN K1J0 241915Z AUTO 31004KT 10SM CLR 12/M04 A3019 -150 33 -500 310/04 RMK AO2 T01171039 $
63871K1J0 1J020160124132011201/24/16 13:20:31  5-MIN K1J0 241920Z AUTO 34005KT 10SM CLR 12/M04 A3018 -150 32 -500 340/05 RMK AO2 T01171044 $
63871K1J0 1J020160124132511201/24/16 13:25:31  5-MIN K1J0 241925Z AUTO VRB03KT 10SM CLR 12/M04 A3018 -150 32 -400 VRB/03 RMK AO2 T01221039 $
63871K1J0 1J020160124133011201/24/16 13:30:31  5-MIN K1J0 241930Z AUTO VRB03KT 10SM CLR 12/M04 A3018 -150 32 -400 VRB/03 RMK AO2 T01221039 $
63871K1J0 1J020160124133511201/24/16 13:35:31  5-MIN K1J0 241935Z AUTO 00000KT 10SM CLR 12/M04 A3018 -150 32 -500 000/00 RMK AO2 T01171044 $
63871K1J0 1J020160124134011201/24/16 13:40:31  5-MIN K1J0 241940Z AUTO 00000KT 10SM CLR 12/M05 A3018 -150 29 -400 000/00 RMK AO2 T01221050 $
63871K1J0 1J020160124134511201/24/16 13:45:31  5-MIN K1J0 241945Z AUTO 28003KT 10SM CLR 12/M05 A3018 -150 29 -400 280/03 RMK AO2 T01221050 $
63871K1J0 1J020160124135011201/24/16 13:50:31  5-MIN K1J0 241950Z AUTO VRB03KT 10SM CLR 12/M06 A3018 -150 28 -400 VRB/03 RMK AO2 T01221056 $
63871K1J0 1J020160124135511901/24/16 13:55:31  5-MIN K1J0 241955Z AUTO 34004KT 10SM CLR 13/M06 A3018 -150 27 -400 340/04 RMK AO2 SLP206 T01281056 $
63871K1J0 1J020160124140011201/24/16 14:00:31  5-MIN K1J0 242000Z AUTO 00000KT 10SM CLR 12/M06 A3018 -150 28 -400 000/00 RMK AO2 T01221056 $
63871K1J0 1J020160124140511201/24/16 14:05:31  5-MIN K1J0 242005Z AUTO VRB03KT 10SM CLR 13/M04 A3018 -150 28 -300 VRB/03 RMK AO2 T01331044 $
63871K1J0 1J020160124141011201/24/16 14:10:31  5-MIN K1J0 242010Z AUTO 33005KT 10SM CLR 13/M04 A3018 -150 31 -400 330/05 RMK AO2 T01281039 $
63871K1J0 1J020160124141511201/24/16 14:15:31  5-MIN K1J0 242015Z AUTO 33004KT 10SM CLR 13/M04 A3018 -140 30 -300 330/04 RMK AO2 T01331039 $
63871K1J0 1J020160124142011201/24/16 14:20:31  5-MIN K1J0 242020Z AUTO 34003KT 10SM CLR 13/M04 A3018 -140 30 -400 340/03 RMK AO2 T01281044 $
63871K1J0 1J020160124142511201/24/16 14:25:31  5-MIN K1J0 242025Z AUTO VRB03KT 10SM CLR 13/M04 A3018 -140 28 -300 VRB/03 RMK AO2 T01331044 $
63871K1J0 1J020160124143011201/24/16 14:30:31  5-MIN K1J0 242030Z AUTO 00000KT 10SM CLR 13/M04 A3017 -140 30 -300 000/00 RMK AO2 T01331039 $
63871K1J0 1J020160124143511201/24/16 14:35:31  5-MIN K1J0 242035Z AUTO VRB03KT 10SM CLR 13/M05 A3017 -140 27 -300 VRB/03 RMK AO2 T01331050 $
63871K1J0 1J020160124144011201/24/16 14:40:31  5-MIN K1J0 242040Z AUTO 00000KT 10SM CLR 13/M06 A3017 -140 27 -400 000/00 RMK AO2 T01281056 $
63871K1J0 1J020160124144511201/24/16 14:45:31  5-MIN K1J0 242045Z AUTO 33003KT 10SM CLR 13/M05 A3017 -140 27 -300 330/03 RMK AO2 T01331050 $
63871K1J0 1J020160124145011201/24/16 14:50:31  5-MIN K1J0 242050Z AUTO 00000KT 10SM CLR 13/M04 A3017 -140 28 -300 000/00 RMK AO2 T01331044 $
63871K1J0 1J020160124145512501/24/16 14:55:31  5-MIN K1J0 242055Z AUTO 00000KT 10SM CLR 13/M06 A3017 -140 27 -400 000/00 RMK AO2 SLP204 T01281056 58022 $
63871K1J0 1J020160124150011201/24/16 15:00:31  5-MIN K1J0 242100Z AUTO 00000KT 10SM CLR 13/M05 A3017 -140 27 -300 000/00 RMK AO2 T01331050 $
63871K1J0 1J020160124150511201/24/16 15:05:31  5-MIN K1J0 242105Z AUTO 00000KT 10SM CLR 13/M05 A3017 -140 27 -300 000/00 RMK AO2 T01331050 $
63871K1J0 1J020160124151011201/24/16 15:10:31  5-MIN K1J0 242110Z AUTO 00000KT 10SM CLR 13/M04 A3017 -140 30 -400 000/00 RMK AO2 T01281044 $
63871K1J0 1J020160124151511201/24/16 15:15:31  5-MIN K1J0 242115Z AUTO 00000KT 10SM CLR 13/M05 A3017 -140 27 -300 000/00 RMK AO2 T01331050 $
63871K1J0 1J020160124152011201/24/16 15:20:31  5-MIN K1J0 242120Z AUTO 03003KT 10SM CLR 14/M05 A3017 -140 26 -200 030/03 RMK AO2 T01391050 $
63871K1J0 1J020160124152511201/24/16 15:25:31  5-MIN K1J0 242125Z AUTO 00000KT 10SM CLR 13/M06 A3017 -140 26 -300 000/00 RMK AO2 T01331056 $
63871K1J0 1J020160124153011201/24/16 15:30:31  5-MIN K1J0 242130Z AUTO 00000KT 10SM CLR 13/M04 A3017 -140 28 -300 000/00 RMK AO2 T01331044 $
63871K1J0 1J020160124153511201/24/16 15:35:31  5-MIN K1J0 242135Z AUTO VRB03KT 10SM CLR 13/M04 A3017 -140 28 -300 VRB/03 RMK AO2 T01331044 $
63871K1J0 1J020160124154011201/24/16 15:40:31  5-MIN K1J0 242140Z AUTO 00000KT 10SM CLR 13/M06 A3017 -140 27 -400 000/00 RMK AO2 T01281056 $
63871K1J0 1J020160124154511201/24/16 15:45:31  5-MIN K1J0 242145Z AUTO VRB05KT 10SM CLR 13/M04 A3017 -140 28 -300 VRB/05 RMK AO2 T01331044 $
63871K1J0 1J020160124155011201/24/16 15:50:31  5-MIN K1J0 242150Z AUTO 00000KT 10SM CLR 13/M04 A3018 -140 31 -400 000/00 RMK AO2 T01281039 $
63871K1J0 1J020160124155511901/24/16 15:55:31  5-MIN K1J0 242155Z AUTO 00000KT 10SM CLR 13/M04 A3017 -140 30 -300 000/00 RMK AO2 SLP204 T01331039 $
63871K1J0 1J020160124160011201/24/16 16:00:31  5-MIN K1J0 242200Z AUTO 00000KT 10SM CLR 13/M04 A3017 -140 31 -400 000/00 RMK AO2 T01281039 $
63871K1J0 1J020160124160511201/24/16 16:05:31  5-MIN K1J0 242205Z AUTO 00000KT 10SM CLR 13/M04 A3017 -140 28 -300 000/00 RMK AO2 T01331044 $
63871K1J0 1J020160124161011201/24/16 16:10:31  5-MIN K1J0 242210Z AUTO 00000KT 10SM CLR 13/M05 A3017 -140 27 -300 000/00 RMK AO2 T01331050 $
63871K1J0 1J020160124161511201/24/16 16:15:31  5-MIN K1J0 242215Z AUTO 00000KT 10SM CLR 13/M05 A3017 -140 27 -300 000/00 RMK AO2 T01331050 $
63871K1J0 1J020160124162011201/24/16 16:20:31  5-MIN K1J0 242220Z AUTO 00000KT 10SM CLR 12/M03 A3017 -140 33 -400 000/00 RMK AO2 T01221033 $
63871K1J0 1J020160124162511201/24/16 16:25:31  5-MIN K1J0 242225Z AUTO 00000KT 10SM CLR 12/M04 A3018 -140 32 -400 000/00 RMK AO2 T01221039 $
63871K1J0 1J020160124163011201/24/16 16:30:31  5-MIN K1J0 242230Z AUTO 00000KT 10SM CLR 12/M05 A3018 -140 29 -400 000/00 RMK AO2 T01221050 $
63871K1J0 1J020160124163511201/24/16 16:35:31  5-MIN K1J0 242235Z AUTO 00000KT 10SM CLR 12/M04 A3018 -140 32 -400 000/00 RMK AO2 T01221039 $
63871K1J0 1J020160124164011201/24/16 16:40:31  5-MIN K1J0 242240Z AUTO 00000KT 10SM CLR 12/M04 A3017 -140 31 -400 000/00 RMK AO2 T01221044 $
63871K1J0 1J020160124164511201/24/16 16:45:31  5-MIN K1J0 242245Z AUTO 00000KT 10SM CLR 12/M02 A3017 -140 38 -500 000/00 RMK AO2 T01171022 $
63871K1J0 1J020160124165011101/24/16 16:50:31  5-MIN K1J0 242250Z AUTO 00000KT 10SM CLR 11/00 A3017 -140 48 -600 000/00 RMK AO2 T01060000 $
63871K1J0 1J020160124165511801/24/16 16:55:31  5-MIN K1J0 242255Z AUTO 00000KT 10SM CLR 10/01 A3017 -140 52 -700 000/00 RMK AO2 SLP204 T01000006 $
63871K1J0 1J020160124170011101/24/16 17:00:31  5-MIN K1J0 242300Z AUTO 00000KT 10SM CLR 10/01 A3018 -140 52 -700 000/00 RMK AO2 T01000006 $
63871K1J0 1J020160124170511101/24/16 17:05:31  5-MIN K1J0 242305Z AUTO 00000KT 10SM CLR 09/01 A3018 -150 53 -800 000/00 RMK AO2 T00940006 $
63871K1J0 1J020160124171011101/24/16 17:10:31  5-MIN K1J0 242310Z AUTO 00000KT 10SM CLR 08/02 A3018 -150 65 -900 000/00 RMK AO2 T00830022 $
63871K1J0 1J020160124171511101/24/16 17:15:31  5-MIN K1J0 242315Z AUTO 00000KT 10SM CLR 08/01 A3018 -150 60 -900 000/00 RMK AO2 T00830011 $
63871K1J0 1J020160124172011201/24/16 17:20:31  5-MIN K1J0 242320Z AUTO 00000KT 10SM CLR 08/02 A3018 -150 68 -1000 000/00 RMK AO2 T00780022 $
63871K1J0 1J020160124172511201/24/16 17:25:31  5-MIN K1J0 242325Z AUTO 00000KT 10SM CLR 07/02 A3018 -150 68 -1000 000/00 RMK AO2 T00720017 $
63871K1J0 1J020160124173011201/24/16 17:30:31  5-MIN K1J0 242330Z AUTO 00000KT 10SM CLR 07/02 A3019 -150 70 -1000 000/00 RMK AO2 T00720022 $
63871K1J0 1J020160124173511201/24/16 17:35:31  5-MIN K1J0 242335Z AUTO 00000KT 10SM CLR 07/02 A3019 -160 70 -1000 000/00 RMK AO2 T00720022 $
63871K1J0 1J020160124174011201/24/16 17:40:31  5-MIN K1J0 242340Z AUTO 00000KT 10SM CLR 07/02 A3019 -160 73 -1100 000/00 RMK AO2 T00670022 $
63871K1J0 1J020160124174511201/24/16 17:45:31  5-MIN K1J0 242345Z AUTO 00000KT 10SM CLR 07/02 A3019 -160 73 -1100 000/00 RMK AO2 T00670022 $
63871K1J0 1J020160124175011201/24/16 17:50:31  5-MIN K1J0 242350Z AUTO 00000KT 10SM CLR 07/03 A3019 -160 76 -1100 000/00 RMK AO2 T00670028 $
63871K1J0 1J020160124175513701/24/16 17:55:31  5-MIN K1J0 242355Z AUTO 00000KT 10SM CLR 07/02 A3019 -160 73 -1100 000/00 RMK AO2 SLP211 T00670022 10139 20067 56014 $
63871K1J0 1J020160124180011201/24/16 18:00:31  5-MIN K1J0 250000Z AUTO 00000KT 10SM CLR 06/03 A3020 -160 79 -1200 000/00 RMK AO2 T00610028 $
63871K1J0 1J020160124180511201/24/16 18:05:31  5-MIN K1J0 250005Z AUTO 00000KT 10SM CLR 06/02 A3020 -160 79 -1300 000/00 RMK AO2 T00560022 $
63871K1J0 1J020160124181011201/24/16 18:10:31  5-MIN K1J0 250010Z AUTO 00000KT 10SM CLR 05/02 A3020 -170 82 -1300 000/00 RMK AO2 T00500022 $
63871K1J0 1J020160124181511201/24/16 18:15:31  5-MIN K1J0 250015Z AUTO 00000KT 10SM CLR 06/02 A3020 -170 79 -1300 000/00 RMK AO2 T00560022 $
63871K1J0 1J020160124182011201/24/16 18:20:31  5-MIN K1J0 250020Z AUTO 00000KT 10SM CLR 06/02 A3020 -170 79 -1300 000/00 RMK AO2 T00560022 $
63871K1J0 1J020160124182511201/24/16 18:25:31  5-MIN K1J0 250025Z AUTO 00000KT 10SM CLR 05/02 A3020 -170 82 -1300 000/00 RMK AO2 T00500022 $
63871K1J0 1J020160124183011201/24/16 18:30:31  5-MIN K1J0 250030Z AUTO 00000KT 10SM CLR 05/02 A3020 -170 82 -1300 000/00 RMK AO2 T00500022 $
63871K1J0 1J020160124183511201/24/16 18:35:31  5-MIN K1J0 250035Z AUTO 00000KT 10SM CLR 05/02 A3020 -170 82 -1300 000/00 RMK AO2 T00500022 $
63871K1J0 1J020160124184011201/24/16 18:40:31  5-MIN K1J0 250040Z AUTO 00000KT 10SM CLR 04/02 A3020 -170 85 -1400 000/00 RMK AO2 T00440022 $
63871K1J0 1J020160124184511201/24/16 18:45:31  5-MIN K1J0 250045Z AUTO 00000KT 10SM CLR 05/02 A3020 -170 79 -1300 000/00 RMK AO2 T00500017 $
63871K1J0 1J020160124185011201/24/16 18:50:31  5-MIN K1J0 250050Z AUTO 00000KT 10SM CLR 04/02 A3020 -170 82 -1400 000/00 RMK AO2 T00440017 $
63871K1J0 1J020160124185511901/24/16 18:55:31  5-MIN K1J0 250055Z AUTO 00000KT 10SM CLR 04/02 A3020 -170 82 -1400 000/00 RMK AO2 SLP213 T00440017 $
63871K1J0 1J020160124190011201/24/16 19:00:31  5-MIN K1J0 250100Z AUTO 00000KT 10SM CLR 04/02 A3020 -170 85 -1500 000/00 RMK AO2 T00390017 $
63871K1J0 1J020160124190511201/24/16 19:05:31  5-MIN K1J0 250105Z AUTO 00000KT 10SM CLR 04/02 A3020 -170 85 -1500 000/00 RMK AO2 T00390017 $
63871K1J0 1J020160124191011201/24/16 19:10:31  5-MIN K1J0 250110Z AUTO 00000KT 10SM CLR 04/02 A3020 -170 82 -1400 000/00 RMK AO2 T00440017 $
63871K1J0 1J020160124191511201/24/16 19:15:31  5-MIN K1J0 250115Z AUTO 00000KT 10SM CLR 04/02 A3020 -160 85 -1500 000/00 RMK AO2 T00390017 $
63871K1J0 1J020160124192011201/24/16 19:20:31  5-MIN K1J0 250120Z AUTO 00000KT 10SM CLR 03/02 A3020 -170 89 -1500 000/00 RMK AO2 T00330017 $
63871K1J0 1J020160124192511201/24/16 19:25:31  5-MIN K1J0 250125Z AUTO 00000KT 10SM CLR 04/01 A3020 -170 82 -1500 000/00 RMK AO2 T00390011 $
63871K1J0 1J020160124193011201/24/16 19:30:31  5-MIN K1J0 250130Z AUTO 20004KT 10SM CLR 03/01 A3020 -170 85 -1500 200/04 RMK AO2 T00330011 $
63871K1J0 1J020160124193511201/24/16 19:35:31  5-MIN K1J0 250135Z AUTO 00000KT 10SM CLR 04/01 A3020 -170 82 -1500 000/00 RMK AO2 T00390011 $
63871K1J0 1J020160124194011201/24/16 19:40:31  5-MIN K1J0 250140Z AUTO 00000KT 10SM CLR 04/01 A3020 -170 82 -1500 000/00 RMK AO2 T00390011 $
63871K1J0 1J020160124194511201/24/16 19:45:31  5-MIN K1J0 250145Z AUTO 00000KT 10SM CLR 03/01 A3020 -170 85 -1500 000/00 RMK AO2 T00330011 $
63871K1J0 1J020160124195011201/24/16 19:50:31  5-MIN K1J0 250150Z AUTO 00000KT 10SM CLR 03/01 A3020 -170 85 -1500 000/00 RMK AO2 T00330011 $
63871K1J0 1J020160124195511901/24/16 19:55:31  5-MIN K1J0 250155Z AUTO 00000KT 10SM CLR 03/01 A3020 -170 85 -1500 000/00 RMK AO2 SLP214 T00330011 $
63871K1J0 1J020160124200011201/24/16 20:00:31  5-MIN K1J0 250200Z AUTO 00000KT 10SM CLR 03/01 A3020 -170 85 -1500 000/00 RMK AO2 T00330011 $
63871K1J0 1J020160124200511201/24/16 20:05:31  5-MIN K1J0 250205Z AUTO 00000KT 10SM CLR 03/01 A3020 -170 85 -1500 000/00 RMK AO2 T00330011 $
63871K1J0 1J020160124201011201/24/16 20:10:31  5-MIN K1J0 250210Z AUTO 00000KT 10SM CLR 03/01 A3020 -170 85 -1500 000/00 RMK AO2 T00330011 $
63871K1J0 1J020160124201511201/24/16 20:15:31  5-MIN K1J0 250215Z AUTO 00000KT 10SM CLR 03/01 A3020 -170 89 -1600 000/00 RMK AO2 T00280011 $
63871K1J0 1J020160124202011201/24/16 20:20:31  5-MIN K1J0 250220Z AUTO 00000KT 10SM CLR 03/01 A3020 -170 89 -1600 000/00 RMK AO2 T00280011 $
63871K1J0 1J020160124202511201/24/16 20:25:31  5-MIN K1J0 250225Z AUTO 00000KT 10SM CLR 02/01 A3020 -170 92 -1700 000/00 RMK AO2 T00220011 $
63871K1J0 1J020160124203011201/24/16 20:30:31  5-MIN K1J0 250230Z AUTO 00000KT 10SM CLR 03/01 A3021 -170 89 -1600 000/00 RMK AO2 T00280011 $
63871K1J0 1J020160124203511201/24/16 20:35:31  5-MIN K1J0 250235Z AUTO 00000KT 10SM CLR 03/01 A3021 -170 89 -1600 000/00 RMK AO2 T00280011 $
63871K1J0 1J020160124204011201/24/16 20:40:31  5-MIN K1J0 250240Z AUTO 00000KT 10SM CLR 02/01 A3021 -170 92 -1700 000/00 RMK AO2 T00220011 $
63871K1J0 1J020160124204511201/24/16 20:45:31  5-MIN K1J0 250245Z AUTO 00000KT 10SM CLR 02/01 A3020 -170 89 -1700 000/00 RMK AO2 T00220006 $
63871K1J0 1J020160124205011201/24/16 20:50:31  5-MIN K1J0 250250Z AUTO 00000KT 10SM CLR 03/01 A3021 -170 89 -1600 000/00 RMK AO2 T00280011 $
63871K1J0 1J020160124205512501/24/16 20:55:31  5-MIN K1J0 250255Z AUTO 00000KT 10SM CLR 03/01 A3021 -170 89 -1600 000/00 RMK AO2 SLP214 T00280011 53008 $
63871K1J0 1J020160124210011201/24/16 21:00:31  5-MIN K1J0 250300Z AUTO 00000KT 10SM CLR 02/01 A3021 -170 92 -1700 000/00 RMK AO2 T00220011 $
63871K1J0 1J020160124210511201/24/16 21:05:31  5-MIN K1J0 250305Z AUTO 00000KT 10SM CLR 02/01 A3021 -170 92 -1700 000/00 RMK AO2 T00220011 $
63871K1J0 1J020160124211011201/24/16 21:10:31  5-MIN K1J0 250310Z AUTO 00000KT 10SM CLR 02/01 A3021 -170 92 -1700 000/00 RMK AO2 T00220011 $
63871K1J0 1J020160124211511201/24/16 21:15:31  5-MIN K1J0 250315Z AUTO 00000KT 10SM CLR 02/01 A3021 -170 92 -1700 000/00 RMK AO2 T00220011 $
63871K1J0 1J020160124212011201/24/16 21:20:31  5-MIN K1J0 250320Z AUTO 00000KT 10SM CLR 02/01 A3021 -170 92 -1700 000/00 RMK AO2 T00220011 $
63871K1J0 1J020160124212511201/24/16 21:25:31  5-MIN K1J0 250325Z AUTO 00000KT 10SM CLR 02/01 A3020 -170 89 -1700 000/00 RMK AO2 T00220006 $
63871K1J0 1J020160124213011201/24/16 21:30:31  5-MIN K1J0 250330Z AUTO 00000KT 10SM CLR 02/01 A3020 -170 92 -1800 000/00 RMK AO2 T00170006 $
63871K1J0 1J020160124213511201/24/16 21:35:31  5-MIN K1J0 250335Z AUTO 00000KT 10SM CLR 02/01 A3021 -170 92 -1800 000/00 RMK AO2 T00170006 $
63871K1J0 1J020160124214011201/24/16 21:40:31  5-MIN K1J0 250340Z AUTO 00000KT 10SM CLR 02/01 A3021 -180 92 -1800 000/00 RMK AO2 T00170006 $
63871K1J0 1J020160124214511201/24/16 21:45:31  5-MIN K1J0 250345Z AUTO 00000KT 10SM CLR 02/01 A3021 -180 92 -1800 000/00 RMK AO2 T00170006 $
63871K1J0 1J020160124215011201/24/16 21:50:31  5-MIN K1J0 250350Z AUTO 00000KT 10SM CLR 02/01 A3021 -180 92 -1800 000/00 RMK AO2 T00170006 $
63871K1J0 1J020160124215511901/24/16 21:55:31  5-MIN K1J0 250355Z AUTO 00000KT 10SM CLR 02/01 A3021 -180 92 -1800 000/00 RMK AO2 SLP216 T00170006 $
63871K1J0 1J020160124220011201/24/16 22:00:31  5-MIN K1J0 250400Z AUTO 00000KT 10SM CLR 02/01 A3021 -180 92 -1800 000/00 RMK AO2 T00170006 $
63871K1J0 1J020160124220511201/24/16 22:05:31  5-MIN K1J0 250405Z AUTO 00000KT 10SM CLR 02/01 A3021 -180 92 -1800 000/00 RMK AO2 T00170006 $
63871K1J0 1J020160124221011201/24/16 22:10:31  5-MIN K1J0 250410Z AUTO 00000KT 10SM CLR 02/01 A3021 -180 92 -1800 000/00 RMK AO2 T00170006 $
63871K1J0 1J020160124221511201/24/16 22:15:31  5-MIN K1J0 250415Z AUTO 00000KT 10SM CLR 02/01 A3021 -170 92 -1800 000/00 RMK AO2 T00170006 $
63871K1J0 1J020160124222011201/24/16 22:20:31  5-MIN K1J0 250420Z AUTO 00000KT 10SM CLR 02/01 A3021 -180 92 -1800 000/00 RMK AO2 T00170006 $
63871K1J0 1J020160124222511201/24/16 22:25:31  5-MIN K1J0 250425Z AUTO 00000KT 10SM CLR 01/00 A3021 -180 92 -1800 000/00 RMK AO2 T00110000 $
63871K1J0 1J020160124223011201/24/16 22:30:31  5-MIN K1J0 250430Z AUTO 00000KT 10SM CLR 01/01 A3021 -180 96 -1800 000/00 RMK AO2 T00110006 $
63871K1J0 1J020160124223511201/24/16 22:35:31  5-MIN K1J0 250435Z AUTO 00000KT 10SM CLR 01/00 A3021 -180 92 -1800 000/00 RMK AO2 T00110000 $
63871K1J0 1J020160125092511301/25/16 09:25:31  5-MIN K1J0 251525Z AUTO VRB03KT 10SM BKN040 09/04 A3030 -260 73 -1000 VRB/03 RMK AO2 T00890044
63871K1J0 1J020160125093011301/25/16 09:30:31  5-MIN K1J0 251530Z AUTO 10003KT 10SM BKN040 09/04 A3030 -260 71 -1000 100/03 RMK AO2 T00890039
63871K1J0 1J020160125093511201/25/16 09:35:31  5-MIN K1J0 251535Z AUTO 08004KT 10SM BKN040 09/04 A3030 -260 71 -900 080/04 RMK AO2 T00940044
63871K1J0 1J020160125094011201/25/16 09:40:31  5-MIN K1J0 251540Z AUTO 07003KT 10SM OVC040 10/04 A3030 -260 68 -800 070/03 RMK AO2 T01000044
63871K1J0 1J020160125094511201/25/16 09:45:31  5-MIN K1J0 251545Z AUTO VRB04KT 10SM OVC040 11/05 A3030 -260 68 -800 VRB/04 RMK AO2 T01060050
63871K1J0 1J020160125095011201/25/16 09:50:31  5-MIN K1J0 251550Z AUTO 07005KT 10SM OVC041 11/04 A3030 -260 66 -800 070/05 RMK AO2 T01060044
63871K1J0 1J020160125095511901/25/16 09:55:31  5-MIN K1J0 251555Z AUTO 09003KT 10SM OVC041 11/04 A3030 -260 66 -800 090/03 RMK AO2 SLP247 T01060044
63871K1J0 1J020160125100011201/25/16 10:00:31  5-MIN K1J0 251600Z AUTO 06005KT 10SM BKN041 11/05 A3030 -260 66 -700 060/05 RMK AO2 T01110050
63871K1J0 1J020160125100511201/25/16 10:05:31  5-MIN K1J0 251605Z AUTO 05005KT 10SM OVC042 11/04 A3030 -260 66 -800 050/05 RMK AO2 T01060044
63871K1J0 1J020160125101007301/25/16 10:10:31  5-MIN K1J0 251610Z AUTO 07004KT M M M 070/04 RMK AO2 $
63871K1J0 1J020160125101510201/25/16 10:15:31  5-MIN K1J0 251615Z AUTO 06005KT 12/05 A3030 -260 63 -600 060/05 RMK AO2 T01170050 $
63871K1J0 1J020160125102010501/25/16 10:20:31  5-MIN K1J0 251620Z AUTO 04005KT 10SM 12/05 A3030 -260 63 -600 040/05 RMK AO2 T01170050
63871K1J0 1J020160125102510501/25/16 10:25:31  5-MIN K1J0 251625Z AUTO 04005KT 10SM 12/05 A3029 -250 61 -600 040/05 RMK AO2 T01220050
63871K1J0 1J020160125103010501/25/16 10:30:31  5-MIN K1J0 251630Z AUTO 11004KT 10SM 13/06 A3029 -250 61 -500 110/04 RMK AO2 T01280056
63871K1J0 1J020160125103510501/25/16 10:35:31  5-MIN K1J0 251635Z AUTO 12005KT 10SM 13/06 A3029 -250 59 -400 120/05 RMK AO2 T01330056
63871K1J0 1J020160125104011201/25/16 10:40:31  5-MIN K1J0 251640Z AUTO 09004KT 10SM BKN046 13/06 A3029 -250 59 -400 090/04 RMK AO2 T01330056
63871K1J0 1J020160125104511201/25/16 10:45:31  5-MIN K1J0 251645Z AUTO 10004KT 10SM BKN046 14/06 A3029 -250 57 -400 100/04 RMK AO2 T01390056
63871K1J0 1J020160125105011201/25/16 10:50:31  5-MIN K1J0 251650Z AUTO 08004KT 10SM BKN046 14/06 A3029 -250 57 -400 080/04 RMK AO2 T01390056
63871K1J0 1J020160125105511901/25/16 10:55:31  5-MIN K1J0 251655Z AUTO VRB03KT 10SM BKN046 14/06 A3029 -240 55 -300 VRB/03 RMK AO2 SLP241 T01440056
63871K1J0 1J020160125110011201/25/16 11:00:31  5-MIN K1J0 251700Z AUTO 08006KT 10SM BKN047 15/06 A3028 -240 55 -200 080/06 RMK AO2 T01500061
63871K1J0 1J020160125110511201/25/16 11:05:31  5-MIN K1J0 251705Z AUTO 07006KT 10SM BKN047 16/06 A3028 -240 53 -100 070/06 RMK AO2 T01560061
63871K1J0 1J020160125111011201/25/16 11:10:31  5-MIN K1J0 251710Z AUTO VRB04KT 10SM BKN047 15/06 A3028 -240 55 -200 VRB/04 RMK AO2 T01500061
63871K1J0 1J020160125111511201/25/16 11:15:31  5-MIN K1J0 251715Z AUTO VRB04KT 10SM BKN048 16/07 A3027 -230 55 -100 VRB/04 RMK AO2 T01560067
63871K1J0 1J020160125112011201/25/16 11:20:31  5-MIN K1J0 251720Z AUTO 09005KT 10SM BKN048 16/06 A3027 -230 53 -100 090/05 RMK AO2 T01560061
63871K1J0 1J020160125112511201/25/16 11:25:31  5-MIN K1J0 251725Z AUTO VRB03KT 10SM BKN048 16/06 A3027 -230 51 -100 VRB/03 RMK AO2 T01610061
63871K1J0 1J020160125113010901/25/16 11:30:31  5-MIN K1J0 251730Z AUTO 08004KT 10SM BKN048 17/07 A3027 -230 51 0 080/04 RMK AO2 T01670067
63871K1J0 1J020160125113511201/25/16 11:35:31  5-MIN K1J0 251735Z AUTO VRB06KT 10SM BKN048 16/07 A3027 -230 53 -100 VRB/06 RMK AO2 T01610067
63871K1J0 1J020160125114011201/25/16 11:40:31  5-MIN K1J0 251740Z AUTO 07004KT 10SM BKN048 16/06 A3026 -230 51 -100 070/04 RMK AO2 T01610061
63871K1J0 1J020160125114511201/25/16 11:45:31  5-MIN K1J0 251745Z AUTO 00000KT 10SM BKN048 16/06 A3026 -220 51 -100 000/00 RMK AO2 T01610061
63871K1J0 1J020160125115010901/25/16 11:50:31  5-MIN K1J0 251750Z AUTO 10006KT 10SM BKN048 17/07 A3026 -220 51 0 100/06 RMK AO2 T01670067
63871K1J0 1J020160125115513401/25/16 11:55:31  5-MIN K1J0 251755Z AUTO VRB04KT 10SM BKN048 17/07 A3026 -220 51 0 VRB/04 RMK AO2 SLP232 60000 T01670067 10167 21011
63871K1J0 1J020160125120011601/25/16 12:00:31  5-MIN K1J0 251800Z AUTO 16003KT 10SM FEW037 BKN048 17/07 A3026 -220 53 0 160/03 RMK AO2 T01670072
63871K1J0 1J020160125120511601/25/16 12:05:31  5-MIN K1J0 251805Z AUTO VRB04KT 10SM SCT035 OVC049 17/07 A3025 -220 53 0 VRB/04 RMK AO2 T01670072
63871K1J0 1J020160125121011601/25/16 12:10:31  5-MIN K1J0 251810Z AUTO 07004KT 10SM SCT035 OVC049 17/07 A3025 -210 53 0 070/04 RMK AO2 T01670072
63871K1J0 1J020160125121511601/25/16 12:15:31  5-MIN K1J0 251815Z AUTO 09004KT 10SM FEW036 OVC049 17/07 A3025 -210 51 0 090/04 RMK AO2 T01670067
63871K1J0 1J020160125122011601/25/16 12:20:31  5-MIN K1J0 251820Z AUTO 11006KT 10SM FEW036 OVC049 17/07 A3024 -210 51 0 110/06 RMK AO2 T01670067
63871K1J0 1J020160125122511601/25/16 12:25:31  5-MIN K1J0 251825Z AUTO VRB03KT 10SM FEW036 OVC049 17/07 A3024 -210 51 0 VRB/03 RMK AO2 T01670067
63871K1J0 1J020160125123011601/25/16 12:30:31  5-MIN K1J0 251830Z AUTO 14005KT 10SM FEW036 BKN049 16/07 A3024 -210 55 0 140/05 RMK AO2 T01610072
63871K1J0 1J020160125123510901/25/16 12:35:31  5-MIN K1J0 251835Z AUTO VRB03KT 10SM BKN049 17/07 A3024 -200 53 0 VRB/03 RMK AO2 T01670072
63871K1J0 1J020160125124010901/25/16 12:40:31  5-MIN K1J0 251840Z AUTO 00000KT 10SM SCT049 16/07 A3024 -200 53 0 000/00 RMK AO2 T01610067
63871K1J0 1J020160125124511101/25/16 12:45:31  5-MIN K1J0 251845Z AUTO 00000KT 10SM FEW049 17/07 A3023 -200 51 100 000/00 RMK AO2 T01720072
63871K1J0 1J020160125125011101/25/16 12:50:31  5-MIN K1J0 251850Z AUTO 10005KT 10SM FEW049 18/07 A3023 -200 49 100 100/05 RMK AO2 T01780072
63871K1J0 1J020160125125512501/25/16 12:55:31  5-MIN K1J0 251855Z AUTO 00000KT 10SM FEW038 SCT049 18/07 A3023 -190 48 200 000/00 RMK AO2 SLP222 T01830072
63871K1J0 1J020160125130011801/25/16 13:00:31  5-MIN K1J0 251900Z AUTO 11003KT 10SM FEW038 SCT049 17/07 A3023 -190 51 100 110/03 RMK AO2 T01720072
63871K1J0 1J020160125130511801/25/16 13:05:31  5-MIN K1J0 251905Z AUTO 00000KT 10SM FEW040 SCT050 17/08 A3023 -190 53 100 000/00 RMK AO2 T01720078
63871K1J0 1J020160125131011801/25/16 13:10:31  5-MIN K1J0 251910Z AUTO 00000KT 10SM FEW040 BKN050 18/08 A3023 -190 50 200 000/00 RMK AO2 T01830078
63871K1J0 1J020160125131511801/25/16 13:15:31  5-MIN K1J0 251915Z AUTO 06004KT 10SM FEW040 BKN050 18/07 A3022 -190 48 200 060/04 RMK AO2 T01830072
63871K1J0 1J020160125132011801/25/16 13:20:31  5-MIN K1J0 251920Z AUTO VRB03KT 10SM SCT040 BKN050 18/07 A3022 -190 49 100 VRB/03 RMK AO2 T01780072
63871K1J0 1J020160125132511801/25/16 13:25:31  5-MIN K1J0 251925Z AUTO VRB03KT 10SM FEW040 BKN050 17/07 A3022 -190 51 100 VRB/03 RMK AO2 T01720072
63871K1J0 1J020160125133011801/25/16 13:30:31  5-MIN K1J0 251930Z AUTO 10003KT 10SM FEW042 SCT050 17/08 A3022 -190 53 100 100/03 RMK AO2 T01720078
63871K1J0 1J020160125133511801/25/16 13:35:31  5-MIN K1J0 251935Z AUTO 08003KT 10SM FEW042 SCT050 18/08 A3022 -190 50 200 080/03 RMK AO2 T01830078
63871K1J0 1J020160125134011101/25/16 13:40:31  5-MIN K1J0 251940Z AUTO 00000KT 10SM BKN047 18/07 A3022 -180 49 100 000/00 RMK AO2 T01780072
63871K1J0 1J020160125134511101/25/16 13:45:31  5-MIN K1J0 251945Z AUTO 05004KT 10SM BKN047 18/07 A3022 -180 49 100 050/04 RMK AO2 T01780072
63871K1J0 1J020160125135011101/25/16 13:50:31  5-MIN K1J0 251950Z AUTO 00000KT 10SM BKN047 18/07 A3022 -180 49 100 000/00 RMK AO2 T01780072
63871K1J0 1J020160125135511801/25/16 13:55:31  5-MIN K1J0 251955Z AUTO 05003KT 10SM BKN049 18/08 A3022 -180 50 200 050/03 RMK AO2 SLP218 T01830078
63871K1J0 1J020160125140011101/25/16 14:00:31  5-MIN K1J0 252000Z AUTO 00000KT 10SM OVC049 18/08 A3022 -180 51 100 000/00 RMK AO2 T01780078
63871K1J0 1J020160125140511101/25/16 14:05:31  5-MIN K1J0 252005Z AUTO 00000KT 10SM OVC049 18/08 A3021 -180 51 100 000/00 RMK AO2 T01780078
63871K1J0 1J020160125141011101/25/16 14:10:31  5-MIN K1J0 252010Z AUTO VRB04KT 10SM OVC049 19/08 A3021 -180 48 300 VRB/04 RMK AO2 T01890078
63871K1J0 1J020160125141511101/25/16 14:15:31  5-MIN K1J0 252015Z AUTO 04003KT 10SM BKN049 18/08 A3021 -180 50 200 040/03 RMK AO2 T01830078
63871K1J0 1J020160125142011101/25/16 14:20:31  5-MIN K1J0 252020Z AUTO 36004KT 10SM BKN049 19/08 A3021 -180 48 300 360/04 RMK AO2 T01890078
63871K1J0 1J020160125142511101/25/16 14:25:31  5-MIN K1J0 252025Z AUTO VRB04KT 10SM BKN049 19/08 A3021 -180 48 300 VRB/04 RMK AO2 T01940083
63871K1J0 1J020160125143011101/25/16 14:30:31  5-MIN K1J0 252030Z AUTO 02005KT 10SM SCT049 19/08 A3021 -180 46 300 020/05 RMK AO2 T01940078
63871K1J0 1J020160125143511101/25/16 14:35:31  5-MIN K1J0 252035Z AUTO 04005KT 10SM SCT049 19/08 A3021 -180 48 300 040/05 RMK AO2 T01890078
63871K1J0 1J020160125144011101/25/16 14:40:31  5-MIN K1J0 252040Z AUTO 07005KT 10SM FEW049 19/08 A3021 -180 48 300 070/05 RMK AO2 T01890078
63871K1J0 1J020160125144511101/25/16 14:45:31  5-MIN K1J0 252045Z AUTO 04004KT 10SM FEW049 18/08 A3021 -180 50 200 040/04 RMK AO2 T01830078
63871K1J0 1J020160125145011101/25/16 14:50:31  5-MIN K1J0 252050Z AUTO 04004KT 10SM FEW049 18/08 A3021 -180 50 200 040/04 RMK AO2 T01830078
63871K1J0 1J020160125145511801/25/16 14:55:31  5-MIN K1J0 252055Z AUTO 05003KT 10SM SCT049 19/08 A3021 -180 48 300 050/03 RMK AO2 SLP216 T01890078
63871K1J0 1J020160125150011101/25/16 15:00:31  5-MIN K1J0 252100Z AUTO 03003KT 10SM BKN050 19/08 A3021 -180 46 300 030/03 RMK AO2 T01940078
63871K1J0 1J020160125150511101/25/16 15:05:31  5-MIN K1J0 252105Z AUTO 08004KT 10SM BKN050 18/08 A3021 -180 50 200 080/04 RMK AO2 T01830078
63871K1J0 1J020160125151011101/25/16 15:10:31  5-MIN K1J0 252110Z AUTO 08004KT 10SM BKN050 18/08 A3021 -170 50 200 080/04 RMK AO2 T01830078
63871K1J0 1J020160125151511101/25/16 15:15:31  5-MIN K1J0 252115Z AUTO 06006KT 10SM BKN050 18/08 A3021 -170 51 100 060/06 RMK AO2 T01780078
63871K1J0 1J020160125152011101/25/16 15:20:31  5-MIN K1J0 252120Z AUTO 07004KT 10SM BKN050 19/08 A3020 -170 48 300 070/04 RMK AO2 T01890078
63871K1J0 1J020160125152511101/25/16 15:25:31  5-MIN K1J0 252125Z AUTO 06004KT 10SM SCT050 19/08 A3020 -170 48 300 060/04 RMK AO2 T01890078
63871K1J0 1J020160125153011101/25/16 15:30:31  5-MIN K1J0 252130Z AUTO 00000KT 10SM SCT050 18/08 A3020 -170 50 200 000/00 RMK AO2 T01830078
63871K1J0 1J020160125153511101/25/16 15:35:31  5-MIN K1J0 252135Z AUTO 00000KT 10SM FEW050 19/08 A3020 -160 48 300 000/00 RMK AO2 T01890078
63871K1J0 1J020160125154011101/25/16 15:40:31  5-MIN K1J0 252140Z AUTO VRB04KT 10SM FEW050 19/08 A3020 -160 48 300 VRB/04 RMK AO2 T01890078
63871K1J0 1J020160125154510801/25/16 15:45:31  5-MIN K1J0 252145Z AUTO 06004KT 10SM CLR 19/08 A3020 -170 48 300 060/04 RMK AO2 T01890078
63871K1J0 1J020160125155010801/25/16 15:50:31  5-MIN K1J0 252150Z AUTO 00000KT 10SM CLR 18/08 A3020 -170 50 200 000/00 RMK AO2 T01830078
63871K1J0 1J020160125155511501/25/16 15:55:31  5-MIN K1J0 252155Z AUTO 04005KT 10SM CLR 19/08 A3020 -170 48 300 040/05 RMK AO2 SLP212 T01890078
63871K1J0 1J020160125160010801/25/16 16:00:31  5-MIN K1J0 252200Z AUTO 06003KT 10SM CLR 19/08 A3020 -170 48 300 060/03 RMK AO2 T01890078
63871K1J0 1J020160125160510801/25/16 16:05:31  5-MIN K1J0 252205Z AUTO 06005KT 10SM CLR 19/08 A3020 -170 48 300 060/05 RMK AO2 T01890078
63871K1J0 1J020160125161011101/25/16 16:10:31  5-MIN K1J0 252210Z AUTO 04004KT 10SM FEW050 18/08 A3020 -170 50 200 040/04 RMK AO2 T01830078
63871K1J0 1J020160125161511101/25/16 16:15:31  5-MIN K1J0 252215Z AUTO 04005KT 10SM SCT050 18/08 A3020 -170 50 200 040/05 RMK AO2 T01830078
63871K1J0 1J020160125162011101/25/16 16:20:31  5-MIN K1J0 252220Z AUTO 06004KT 10SM SCT055 18/08 A3020 -170 52 200 060/04 RMK AO2 T01830083
63871K1J0 1J020160125162511101/25/16 16:25:31  5-MIN K1J0 252225Z AUTO 05004KT 10SM FEW050 18/08 A3020 -160 51 200 050/04 RMK AO2 T01780078
63871K1J0 1J020160125163011101/25/16 16:30:31  5-MIN K1J0 252230Z AUTO 06003KT 10SM SCT050 18/08 A3020 -160 51 200 060/03 RMK AO2 T01780078
63871K1J0 1J020160125163511101/25/16 16:35:31  5-MIN K1J0 252235Z AUTO 07003KT 10SM SCT050 17/08 A3020 -170 53 100 070/03 RMK AO2 T01720078
63871K1J0 1J020160125164011101/25/16 16:40:31  5-MIN K1J0 252240Z AUTO 09003KT 10SM FEW050 17/08 A3020 -160 53 100 090/03 RMK AO2 T01720078
63871K1J0 1J020160125164510901/25/16 16:45:31  5-MIN K1J0 252245Z AUTO 07004KT 10SM FEW050 17/08 A3020 -170 55 0 070/04 RMK AO2 T01670078
63871K1J0 1J020160125165010901/25/16 16:50:31  5-MIN K1J0 252250Z AUTO 08005KT 10SM FEW050 17/08 A3019 -160 55 0 080/05 RMK AO2 T01670078
63871K1J0 1J020160125165511601/25/16 16:55:31  5-MIN K1J0 252255Z AUTO 07003KT 10SM FEW050 17/08 A3020 -160 55 0 070/03 RMK AO2 SLP211 T01670078
63871K1J0 1J020160125170010901/25/16 17:00:31  5-MIN K1J0 252300Z AUTO 08003KT 10SM FEW050 16/08 A3020 -160 57 0 080/03 RMK AO2 T01610078
63871K1J0 1J020160125170511201/25/16 17:05:31  5-MIN K1J0 252305Z AUTO 08003KT 10SM FEW050 16/08 A3020 -160 59 -100 080/03 RMK AO2 T01560078
63871K1J0 1J020160125171010901/25/16 17:10:31  5-MIN K1J0 252310Z AUTO 08003KT 10SM FEW050 16/08 A3019 -160 59 0 080/03 RMK AO2 T01560078
63871K1J0 1J020160125171511201/25/16 17:15:31  5-MIN K1J0 252315Z AUTO 08004KT 10SM FEW050 15/08 A3019 -160 64 -100 080/04 RMK AO2 T01500083
63871K1J0 1J020160125172010901/25/16 17:20:31  5-MIN K1J0 252320Z AUTO 07003KT 10SM CLR 15/08 A3020 -170 64 -100 070/03 RMK AO2 T01500083
63871K1J0 1J020160125172510901/25/16 17:25:31  5-MIN K1J0 252325Z AUTO 04003KT 10SM CLR 15/08 A3020 -170 64 -100 040/03 RMK AO2 T01500083
63871K1J0 1J020160125173010901/25/16 17:30:31  5-MIN K1J0 252330Z AUTO 04003KT 10SM CLR 14/08 A3020 -170 66 -200 040/03 RMK AO2 T01440083
63871K1J0 1J020160125173510901/25/16 17:35:31  5-MIN K1J0 252335Z AUTO 06003KT 10SM CLR 14/08 A3021 -170 69 -300 060/03 RMK AO2 T01390083
63871K1J0 1J020160125174011201/25/16 17:40:31  5-MIN K1J0 252340Z AUTO 07003KT 10SM FEW050 13/08 A3021 -170 71 -300 070/03 RMK AO2 T01330083
63871K1J0 1J020160125174511201/25/16 17:45:31  5-MIN K1J0 252345Z AUTO 00000KT 10SM SCT050 14/08 A3021 -170 69 -300 000/00 RMK AO2 T01390083
63871K1J0 1J020160125175011201/25/16 17:50:31  5-MIN K1J0 252350Z AUTO 00000KT 10SM BKN050 14/08 A3021 -180 69 -300 000/00 RMK AO2 T01390083
63871K1J0 1J020160125175513701/25/16 17:55:31  5-MIN K1J0 252355Z AUTO 00000KT 10SM BKN050 13/08 A3021 -180 71 -300 000/00 RMK AO2 SLP217 T01330083 10194 20133 56016
63871K1J0 1J020160125180011201/25/16 18:00:31  5-MIN K1J0 260000Z AUTO 00000KT 10SM BKN050 13/08 A3021 -180 71 -300 000/00 RMK AO2 T01330083
63871K1J0 1J020160125180511201/25/16 18:05:31  5-MIN K1J0 260005Z AUTO 00000KT 10SM OVC050 14/08 A3021 -180 69 -300 000/00 RMK AO2 T01390083
63871K1J0 1J020160125181011201/25/16 18:10:31  5-MIN K1J0 260010Z AUTO 00000KT 10SM OVC050 13/09 A3021 -180 77 -400 000/00 RMK AO2 T01280089
63871K1J0 1J020160125181511201/25/16 18:15:31  5-MIN K1J0 260015Z AUTO 07004KT 10SM BKN050 12/08 A3021 -180 77 -500 070/04 RMK AO2 T01220083
63871K1J0 1J020160125182011201/25/16 18:20:31  5-MIN K1J0 260020Z AUTO 08005KT 10SM BKN050 12/08 A3021 -180 77 -500 080/05 RMK AO2 T01220083
63871K1J0 1J020160125182511201/25/16 18:25:31  5-MIN K1J0 260025Z AUTO 08005KT 10SM SCT050 13/08 A3021 -180 74 -400 080/05 RMK AO2 T01280083
63871K1J0 1J020160125183011201/25/16 18:30:31  5-MIN K1J0 260030Z AUTO 07004KT 10SM SCT050 13/08 A3022 -180 69 -300 070/04 RMK AO2 T01330078
63871K1J0 1J020160125183511201/25/16 18:35:31  5-MIN K1J0 260035Z AUTO 08004KT 10SM SCT050 14/08 A3022 -180 66 -300 080/04 RMK AO2 T01390078
63871K1J0 1J020160125184011201/25/16 18:40:31  5-MIN K1J0 260040Z AUTO 08005KT 10SM SCT055 13/08 A3022 -180 69 -300 080/05 RMK AO2 T01330078
63871K1J0 1J020160125184511201/25/16 18:45:31  5-MIN K1J0 260045Z AUTO 08005KT 10SM SCT055 13/08 A3022 -180 69 -300 080/05 RMK AO2 T01330078
63871K1J0 1J020160125185011201/25/16 18:50:31  5-MIN K1J0 260050Z AUTO 08004KT 10SM SCT055 13/08 A3021 -180 69 -300 080/04 RMK AO2 T01330078
63871K1J0 1J020160125185511901/25/16 18:55:31  5-MIN K1J0 260055Z AUTO 09004KT 10SM SCT055 13/08 A3022 -180 69 -300 090/04 RMK AO2 SLP218 T01330078
63871K1J0 1J020160125190011201/25/16 19:00:31  5-MIN K1J0 260100Z AUTO 09005KT 10SM SCT055 13/08 A3022 -190 69 -300 090/05 RMK AO2 T01330078
63871K1J0 1J020160125190511201/25/16 19:05:31  5-MIN K1J0 260105Z AUTO 09005KT 10SM SCT055 13/08 A3022 -180 69 -300 090/05 RMK AO2 T01330078
63871K1J0 1J020160125191011201/25/16 19:10:31  5-MIN K1J0 260110Z AUTO 08004KT 10SM SCT055 13/08 A3022 -190 69 -300 080/04 RMK AO2 T01330078
63871K1J0 1J020160125191511201/25/16 19:15:31  5-MIN K1J0 260115Z AUTO 09003KT 10SM SCT055 13/08 A3022 -190 69 -300 090/03 RMK AO2 T01330078
63871K1J0 1J020160125192011201/25/16 19:20:31  5-MIN K1J0 260120Z AUTO 09004KT 10SM SCT055 13/08 A3022 -180 69 -300 090/04 RMK AO2 T01330078
63871K1J0 1J020160125192511201/25/16 19:25:31  5-MIN K1J0 260125Z AUTO 09003KT 10SM SCT055 13/08 A3022 -180 71 -400 090/03 RMK AO2 T01280078
63871K1J0 1J020160125193011201/25/16 19:30:31  5-MIN K1J0 260130Z AUTO 09003KT 10SM SCT055 13/08 A3022 -180 69 -300 090/03 RMK AO2 T01330078
63871K1J0 1J020160125193511201/25/16 19:35:31  5-MIN K1J0 260135Z AUTO 09003KT 10SM SCT055 13/08 A3022 -180 71 -400 090/03 RMK AO2 T01280078
63871K1J0 1J020160125194011201/25/16 19:40:31  5-MIN K1J0 260140Z AUTO 09003KT 10SM SCT055 13/08 A3022 -180 71 -400 090/03 RMK AO2 T01280078
63871K1J0 1J020160125194511201/25/16 19:45:31  5-MIN K1J0 260145Z AUTO 08003KT 10SM SCT055 12/08 A3022 -180 77 -500 080/03 RMK AO2 T01170078
63871K1J0 1J020160125195011201/25/16 19:50:31  5-MIN K1J0 260150Z AUTO 07004KT 10SM FEW055 12/08 A3022 -180 77 -500 070/04 RMK AO2 T01170078
63871K1J0 1J020160125195511901/25/16 19:55:31  5-MIN K1J0 260155Z AUTO 07003KT 10SM FEW055 12/07 A3022 -190 74 -500 070/03 RMK AO2 SLP219 T01170072
63871K1J0 1J020160125200010901/25/16 20:00:31  5-MIN K1J0 260200Z AUTO 08004KT 10SM CLR 12/07 A3022 -190 74 -500 080/04 RMK AO2 T01170072
63871K1J0 1J020160125200510901/25/16 20:05:31  5-MIN K1J0 260205Z AUTO 09004KT 10SM CLR 12/07 A3023 -190 74 -600 090/04 RMK AO2 T01170072
63871K1J0 1J020160125201010901/25/16 20:10:31  5-MIN K1J0 260210Z AUTO 10003KT 10SM CLR 12/08 A3023 -200 77 -600 100/03 RMK AO2 T01170078
63871K1J0 1J020160125201510901/25/16 20:15:31  5-MIN K1J0 260215Z AUTO 11003KT 10SM CLR 12/08 A3023 -200 77 -600 110/03 RMK AO2 T01170078
63871K1J0 1J020160125202010901/25/16 20:20:31  5-MIN K1J0 260220Z AUTO 10003KT 10SM CLR 12/08 A3023 -200 77 -600 100/03 RMK AO2 T01170078
63871K1J0 1J020160125202510901/25/16 20:25:31  5-MIN K1J0 260225Z AUTO 11003KT 10SM CLR 11/08 A3024 -200 80 -600 110/03 RMK AO2 T01110078
63871K1J0 1J020160125203010901/25/16 20:30:31  5-MIN K1J0 260230Z AUTO 12003KT 10SM CLR 12/08 A3024 -200 77 -600 120/03 RMK AO2 T01170078
63871K1J0 1J020160125203510901/25/16 20:35:31  5-MIN K1J0 260235Z AUTO 12003KT 10SM CLR 12/08 A3024 -210 77 -600 120/03 RMK AO2 T01170078
63871K1J0 1J020160125204011201/25/16 20:40:31  5-MIN K1J0 260240Z AUTO 14003KT 10SM FEW060 11/08 A3024 -210 83 -700 140/03 RMK AO2 T01060078
63871K1J0 1J020160125204511201/25/16 20:45:31  5-MIN K1J0 260245Z AUTO 00000KT 10SM SCT060 10/07 A3025 -210 83 -800 000/00 RMK AO2 T01000072
63871K1J0 1J020160125205011201/25/16 20:50:31  5-MIN K1J0 260250Z AUTO 16004KT 10SM SCT060 10/07 A3025 -210 83 -800 160/04 RMK AO2 T01000072
63871K1J0 1J020160125205512501/25/16 20:55:31  5-MIN K1J0 260255Z AUTO 18004KT 10SM BKN060 09/07 A3025 -210 86 -800 180/04 RMK AO2 SLP228 T00940072 55000
63871K1J0 1J020160125210011201/25/16 21:00:31  5-MIN K1J0 260300Z AUTO 17004KT 10SM BKN060 09/07 A3025 -210 86 -800 170/04 RMK AO2 T00940072
63871K1J0 1J020160125210511201/25/16 21:05:31  5-MIN K1J0 260305Z AUTO 16004KT 10SM BKN060 10/07 A3025 -210 83 -800 160/04 RMK AO2 T01000072
63871K1J0 1J020160125211011201/25/16 21:10:31  5-MIN K1J0 260310Z AUTO 15005KT 10SM BKN060 10/07 A3025 -210 83 -800 150/05 RMK AO2 T01000072
63871K1J0 1J020160125211511201/25/16 21:15:31  5-MIN K1J0 260315Z AUTO 13004KT 10SM BKN060 09/07 A3025 -210 86 -800 130/04 RMK AO2 T00940072
63871K1J0 1J020160125212011201/25/16 21:20:31  5-MIN K1J0 260320Z AUTO 14004KT 10SM SCT060 10/08 A3025 -210 86 -800 140/04 RMK AO2 T01000078
63871K1J0 1J020160125212511201/25/16 21:25:31  5-MIN K1J0 260325Z AUTO 14005KT 10SM SCT060 10/08 A3024 -210 86 -800 140/05 RMK AO2 T01000078
63871K1J0 1J020160125213011201/25/16 21:30:31  5-MIN K1J0 260330Z AUTO 13003KT 10SM FEW060 11/08 A3024 -210 83 -700 130/03 RMK AO2 T01060078
63871K1J0 1J020160125213511201/25/16 21:35:31  5-MIN K1J0 260335Z AUTO 13003KT 10SM FEW060 11/08 A3025 -210 83 -700 130/03 RMK AO2 T01060078
63871K1J0 1J020160125214011201/25/16 21:40:31  5-MIN K1J0 260340Z AUTO 00000KT 10SM FEW060 11/08 A3025 -210 83 -700 000/00 RMK AO2 T01060078
63871K1J0 1J020160125214511201/25/16 21:45:31  5-MIN K1J0 260345Z AUTO 00000KT 10SM FEW060 11/08 A3025 -210 83 -700 000/00 RMK AO2 T01060078
63871K1J0 1J020160125215011201/25/16 21:50:31  5-MIN K1J0 260350Z AUTO 13003KT 10SM FEW060 10/08 A3025 -210 86 -800 130/03 RMK AO2 T01000078
63871K1J0 1J020160125215511901/25/16 21:55:31  5-MIN K1J0 260355Z AUTO 14004KT 10SM FEW060 09/07 A3025 -210 86 -800 140/04 RMK AO2 SLP228 T00940072
63871K1J0 1J020160125220010901/25/16 22:00:31  5-MIN K1J0 260400Z AUTO 12003KT 10SM CLR 09/08 A3025 -210 89 -800 120/03 RMK AO2 T00940078
63871K1J0 1J020160125220510901/25/16 22:05:31  5-MIN K1J0 260405Z AUTO 14003KT 10SM CLR 10/08 A3025 -210 86 -800 140/03 RMK AO2 T01000078
63871K1J0 1J020160125221010901/25/16 22:10:31  5-MIN K1J0 260410Z AUTO 13003KT 10SM CLR 10/08 A3025 -210 86 -800 130/03 RMK AO2 T01000078
63871K1J0 1J020160125221510901/25/16 22:15:31  5-MIN K1J0 260415Z AUTO 00000KT 10SM CLR 09/07 A3025 -220 86 -900 000/00 RMK AO2 T00940072
63871K1J0 1J020160125222010901/25/16 22:20:31  5-MIN K1J0 260420Z AUTO 11003KT 10SM CLR 09/07 A3025 -210 89 -900 110/03 RMK AO2 T00890072
63871K1J0 1J020160125222511001/25/16 22:25:31  5-MIN K1J0 260425Z AUTO 11004KT 10SM CLR 08/07 A3025 -210 93 -1000 110/04 RMK AO2 T00780067
63871K1J0 1J020160125223010901/25/16 22:30:31  5-MIN K1J0 260430Z AUTO 13003KT 10SM CLR 09/07 A3025 -210 89 -900 130/03 RMK AO2 T00890072
63871K1J0 1J020160125223510901/25/16 22:35:31  5-MIN K1J0 260435Z AUTO 00000KT 10SM CLR 09/07 A3025 -210 89 -900 000/00 RMK AO2 T00890072
63871K1J0 1J020160125224010901/25/16 22:40:31  5-MIN K1J0 260440Z AUTO 00000KT 10SM CLR 09/08 A3024 -210 89 -800 000/00 RMK AO2 T00940078
63871K1J0 1J020160125224511001/25/16 22:45:31  5-MIN K1J0 260445Z AUTO 00000KT 10SM CLR 08/07 A3024 -210 93 -1000 000/00 RMK AO2 T00830072
63871K1J0 1J020160125225011001/25/16 22:50:31  5-MIN K1J0 260450Z AUTO 15004KT 10SM CLR 08/07 A3024 -210 93 -1000 150/04 RMK AO2 T00830072
63871K1J0 1J020160125225511701/25/16 22:55:31  5-MIN K1J0 260455Z AUTO 16004KT 10SM CLR 08/07 A3024 -210 93 -1000 160/04 RMK AO2 SLP226 T00830072
63871K1J0 1J020160125230011301/25/16 23:00:31  5-MIN K1J0 260500Z AUTO 16004KT 10SM FEW065 08/07 A3024 -210 93 -1000 160/04 RMK AO2 T00830072
63871K1J0 1J020160125230511301/25/16 23:05:31  5-MIN K1J0 260505Z AUTO 17003KT 10SM FEW065 08/07 A3024 -210 93 -1000 170/03 RMK AO2 T00830072
63871K1J0 1J020160125231011201/25/16 23:10:31  5-MIN K1J0 260510Z AUTO 00000KT 10SM FEW065 09/08 A3024 -210 93 -900 000/00 RMK AO2 T00890078
63871K1J0 1J020160125231511201/25/16 23:15:31  5-MIN K1J0 260515Z AUTO 18004KT 10SM FEW065 09/08 A3025 -210 93 -900 180/04 RMK AO2 T00890078
63871K1J0 1J020160125232011201/25/16 23:20:31  5-MIN K1J0 260520Z AUTO 17003KT 10SM FEW065 09/07 A3025 -210 89 -900 170/03 RMK AO2 T00890072
63871K1J0 1J020160125232511301/25/16 23:25:31  5-MIN K1J0 260525Z AUTO 17003KT 10SM FEW065 08/07 A3025 -210 93 -1000 170/03 RMK AO2 T00780067
63871K1J0 1J020160125233011001/25/16 23:30:31  5-MIN K1J0 260530Z AUTO 17004KT 10SM CLR 08/07 A3025 -210 93 -1000 170/04 RMK AO2 T00830072
63871K1J0 1J020160125233510901/25/16 23:35:31  5-MIN K1J0 260535Z AUTO 17003KT 10SM CLR 09/07 A3025 -210 89 -900 170/03 RMK AO2 T00890072
63871K1J0 1J020160125234010901/25/16 23:40:31  5-MIN K1J0 260540Z AUTO 18003KT 10SM CLR 09/07 A3025 -210 89 -900 180/03 RMK AO2 T00890072
63871K1J0 1J020160125234511001/25/16 23:45:31  5-MIN K1J0 260545Z AUTO 00000KT 10SM CLR 08/07 A3025 -210 93 -1000 000/00 RMK AO2 T00830072
63871K1J0 1J020160125235011001/25/16 23:50:31  5-MIN K1J0 260550Z AUTO 00000KT 10SM CLR 08/07 A3025 -210 93 -1000 000/00 RMK AO2 T00830072
63871K1J0 1J020160125235514501/25/16 23:55:31  5-MIN K1J0 260555Z AUTO 00000KT 10SM CLR 08/07 A3025 -210 93 -1000 000/00 RMK AO2 SLP227 T00780067 10139 20078 401941011 53012
63871K1J0 1J020160126000011001/26/16 00:00:31  5-MIN K1J0 260600Z AUTO 00000KT 10SM CLR 08/07 A3025 -210 93 -1000 000/00 RMK AO2 T00780067
63871K1J0 1J020160126000510901/26/16 00:05:31  5-MIN K1J0 260605Z AUTO 00000KT 10SM CLR 09/07 A3025 -210 89 -900 000/00 RMK AO2 T00890072
63871K1J0 1J020160126001011001/26/16 00:10:31  5-MIN K1J0 260610Z AUTO 00000KT 10SM CLR 08/07 A3025 -210 93 -1000 000/00 RMK AO2 T00780067
63871K1J0 1J020160126001511001/26/16 00:15:31  5-MIN K1J0 260615Z AUTO 00000KT 10SM CLR 07/07 A3024 -210 96 -1100 000/00 RMK AO2 T00720067
63871K1J0 1J020160126002011001/26/16 00:20:31  5-MIN K1J0 260620Z AUTO 03003KT 10SM CLR 07/06 A3024 -200 93 -1100 030/03 RMK AO2 T00720061
63871K1J0 1J020160126002511001/26/16 00:25:31  5-MIN K1J0 260625Z AUTO 00000KT 10SM CLR 07/06 A3024 -200 93 -1100 000/00 RMK AO2 T00720061
63871K1J0 1J020160126003011001/26/16 00:30:31  5-MIN K1J0 260630Z AUTO 00000KT 10SM CLR 07/06 A3024 -200 93 -1100 000/00 RMK AO2 T00720061
63871K1J0 1J020160126003511301/26/16 00:35:31  5-MIN K1J0 260635Z AUTO 00000KT 10SM FEW070 07/07 A3024 -200 96 -1100 000/00 RMK AO2 T00720067
63871K1J0 1J020160126004011301/26/16 00:40:31  5-MIN K1J0 260640Z AUTO 00000KT 10SM FEW070 07/06 A3024 -200 93 -1100 000/00 RMK AO2 T00720061
63871K1J0 1J020160126004511301/26/16 00:45:31  5-MIN K1J0 260645Z AUTO 00000KT 10SM FEW065 07/07 A3024 -200 96 -1100 000/00 RMK AO2 T00720067
63871K1J0 1J020160126005011301/26/16 00:50:31  5-MIN K1J0 260650Z AUTO 00000KT 10SM FEW065 07/07 A3024 -200 96 -1100 000/00 RMK AO2 T00720067
63871K1J0 1J020160126005512001/26/16 00:55:31  5-MIN K1J0 260655Z AUTO 00000KT 10SM FEW065 07/06 A3024 -200 93 -1100 000/00 RMK AO2 SLP224 T00720061
63871K1J0 1J020160126010011301/26/16 01:00:31  5-MIN K1J0 260700Z AUTO 00000KT 10SM FEW065 07/06 A3023 -200 96 -1200 000/00 RMK AO2 T00670061
63871K1J0 1J020160126010511301/26/16 01:05:31  5-MIN K1J0 260705Z AUTO 00000KT 10SM FEW065 07/06 A3023 -190 93 -1200 000/00 RMK AO2 T00670056
63871K1J0 1J020160126011011301/26/16 01:10:31  5-MIN K1J0 260710Z AUTO 00000KT 10SM FEW065 07/06 A3023 -190 96 -1200 000/00 RMK AO2 T00670061
63871K1J0 1J020160126011511001/26/16 01:15:31  5-MIN K1J0 260715Z AUTO 00000KT 10SM CLR 07/06 A3023 -190 96 -1200 000/00 RMK AO2 T00670061
63871K1J0 1J020160126012011001/26/16 01:20:31  5-MIN K1J0 260720Z AUTO 00000KT 10SM CLR 07/06 A3022 -190 96 -1200 000/00 RMK AO2 T00670061
63871K1J0 1J020160126012511001/26/16 01:25:31  5-MIN K1J0 260725Z AUTO 00000KT 10SM CLR 07/06 A3022 -190 96 -1200 000/00 RMK AO2 T00670061
63871K1J0 1J020160126013011001/26/16 01:30:31  5-MIN K1J0 260730Z AUTO 00000KT 10SM CLR 07/06 A3022 -190 93 -1100 000/00 RMK AO2 T00720061
63871K1J0 1J020160126013511001/26/16 01:35:31  5-MIN K1J0 260735Z AUTO 00000KT 10SM CLR 07/06 A3022 -180 96 -1100 000/00 RMK AO2 T00670061
63871K1J0 1J020160126014011001/26/16 01:40:31  5-MIN K1J0 260740Z AUTO 00000KT 10SM CLR 07/06 A3022 -180 96 -1100 000/00 RMK AO2 T00670061
63871K1J0 1J020160126014511001/26/16 01:45:31  5-MIN K1J0 260745Z AUTO 00000KT 10SM CLR 07/06 A3021 -180 96 -1100 000/00 RMK AO2 T00670061
63871K1J0 1J020160126015011101/26/16 01:50:31  5-MIN K1J0 260750Z AUTO 00000KT 10SM CLR 06/06 A3021 -180 100 -1200 000/00 RMK AO2 T00610061
63871K1J0 1J020160126015511601/26/16 01:55:31  5-MIN K1J0 260755Z AUTO 00000KT 9SM CLR 07/06 A3021 -180 93 -1100 000/00 RMK AO2 SLP216 T00670056
63871K1J0 1J020160126020010901/26/16 02:00:31  5-MIN K1J0 260800Z AUTO 00000KT 9SM CLR 06/06 A3021 -180 96 -1200 000/00 RMK AO2 T00610056
63871K1J0 1J020160126020511001/26/16 02:05:31  5-MIN K1J0 260805Z AUTO 00000KT 10SM CLR 07/06 A3021 -180 93 -1100 000/00 RMK AO2 T00670056
63871K1J0 1J020160126021011001/26/16 02:10:31  5-MIN K1J0 260810Z AUTO 00000KT 10SM CLR 07/06 A3021 -180 96 -1100 000/00 RMK AO2 T00670061
63871K1J0 1J020160126021511001/26/16 02:15:31  5-MIN K1J0 260815Z AUTO 00000KT 10SM CLR 07/06 A3021 -170 93 -1100 000/00 RMK AO2 T00670056
63871K1J0 1J020160126022011001/26/16 02:20:31  5-MIN K1J0 260820Z AUTO 00000KT 10SM CLR 06/06 A3021 -170 96 -1200 000/00 RMK AO2 T00610056
63871K1J0 1J020160126022511001/26/16 02:25:31  5-MIN K1J0 260825Z AUTO 00000KT 10SM CLR 06/06 A3021 -170 96 -1200 000/00 RMK AO2 T00610056
63871K1J0 1J020160126023011001/26/16 02:30:31  5-MIN K1J0 260830Z AUTO 00000KT 10SM CLR 06/06 A3020 -170 96 -1200 000/00 RMK AO2 T00610056
63871K1J0 1J020160126023511001/26/16 02:35:31  5-MIN K1J0 260835Z AUTO 00000KT 10SM CLR 07/06 A3020 -170 93 -1100 000/00 RMK AO2 T00670056
63871K1J0 1J020160126024011001/26/16 02:40:31  5-MIN K1J0 260840Z AUTO 00000KT 10SM CLR 07/06 A3020 -170 96 -1100 000/00 RMK AO2 T00670061
63871K1J0 1J020160126024511001/26/16 02:45:31  5-MIN K1J0 260845Z AUTO 00000KT 10SM CLR 07/06 A3020 -160 93 -1100 000/00 RMK AO2 T00670056
63871K1J0 1J020160126025011001/26/16 02:50:31  5-MIN K1J0 260850Z AUTO 00000KT 10SM CLR 06/06 A3020 -160 96 -1200 000/00 RMK AO2 T00610056
63871K1J0 1J020160126025512301/26/16 02:55:31  5-MIN K1J0 260855Z AUTO 00000KT 10SM CLR 06/06 A3019 -160 96 -1200 000/00 RMK AO2 SLP209 T00610056 55000
63871K1J0 1J020160126030011001/26/16 03:00:31  5-MIN K1J0 260900Z AUTO 00000KT 10SM CLR 06/06 A3019 -160 96 -1200 000/00 RMK AO2 T00610056
63871K1J0 1J020160126030511001/26/16 03:05:31  5-MIN K1J0 260905Z AUTO 00000KT 10SM CLR 06/06 A3019 -160 96 -1200 000/00 RMK AO2 T00610056
63871K1J0 1J020160126031011001/26/16 03:10:31  5-MIN K1J0 260910Z AUTO 00000KT 10SM CLR 06/06 A3019 -160 96 -1200 000/00 RMK AO2 T00610056
63871K1J0 1J020160126031511001/26/16 03:15:31  5-MIN K1J0 260915Z AUTO 00000KT 10SM CLR 06/06 A3020 -160 96 -1200 000/00 RMK AO2 T00610056
63871K1J0 1J020160126032011001/26/16 03:20:31  5-MIN K1J0 260920Z AUTO 00000KT 10SM CLR 06/06 A3020 -160 96 -1200 000/00 RMK AO2 T00610056
63871K1J0 1J020160126032511001/26/16 03:25:31  5-MIN K1J0 260925Z AUTO 00000KT 10SM CLR 06/06 A3020 -170 96 -1200 000/00 RMK AO2 T00610056
63871K1J0 1J020160126033011001/26/16 03:30:31  5-MIN K1J0 260930Z AUTO 00000KT 10SM CLR 07/06 A3020 -170 93 -1100 000/00 RMK AO2 T00670056
63871K1J0 1J020160126033511001/26/16 03:35:31  5-MIN K1J0 260935Z AUTO 00000KT 10SM CLR 06/06 A3020 -170 96 -1200 000/00 RMK AO2 T00610056
63871K1J0 1J020160126034011001/26/16 03:40:31  5-MIN K1J0 260940Z AUTO 00000KT 10SM CLR 06/06 A3020 -170 96 -1200 000/00 RMK AO2 T00610056
63871K1J0 1J020160126034511001/26/16 03:45:31  5-MIN K1J0 260945Z AUTO 00000KT 10SM CLR 06/05 A3020 -170 93 -1200 000/00 RMK AO2 T00610050
63871K1J0 1J020160126035011001/26/16 03:50:31  5-MIN K1J0 260950Z AUTO 00000KT 10SM CLR 06/05 A3020 -170 93 -1200 000/00 RMK AO2 T00610050
63871K1J0 1J020160126035512001/26/16 03:55:31  5-MIN K1J0 260955Z AUTO 00000KT 10SM FEW070 06/06 A3020 -170 96 -1200 000/00 RMK AO2 SLP212 T00610056
63871K1J0 1J020160126040011301/26/16 04:00:31  5-MIN K1J0 261000Z AUTO 00000KT 10SM SCT070 06/05 A3021 -170 96 -1300 000/00 RMK AO2 T00560050
63871K1J0 1J020160126040511301/26/16 04:05:31  5-MIN K1J0 261005Z AUTO 00000KT 10SM BKN070 06/06 A3020 -170 96 -1200 000/00 RMK AO2 T00610056
63871K1J0 1J020160126041011301/26/16 04:10:31  5-MIN K1J0 261010Z AUTO 00000KT 10SM BKN070 06/05 A3020 -170 93 -1200 000/00 RMK AO2 T00610050
63871K1J0 1J020160126041511301/26/16 04:15:31  5-MIN K1J0 261015Z AUTO 00000KT 10SM BKN070 06/06 A3020 -170 96 -1200 000/00 RMK AO2 T00610056
63871K1J0 1J020160126042011301/26/16 04:20:31  5-MIN K1J0 261020Z AUTO 00000KT 10SM BKN070 06/06 A3020 -160 96 -1200 000/00 RMK AO2 T00610056
63871K1J0 1J020160126042511301/26/16 04:25:31  5-MIN K1J0 261025Z AUTO 00000KT 10SM BKN070 06/05 A3019 -160 96 -1300 000/00 RMK AO2 T00560050
63871K1J0 1J020160126043011301/26/16 04:30:31  5-MIN K1J0 261030Z AUTO 00000KT 10SM BKN070 06/05 A3019 -160 93 -1200 000/00 RMK AO2 T00610050
63871K1J0 1J020160126043511301/26/16 04:35:31  5-MIN K1J0 261035Z AUTO 00000KT 10SM BKN070 06/06 A3019 -160 96 -1200 000/00 RMK AO2 T00610056
63871K1J0 1J020160126044011301/26/16 04:40:31  5-MIN K1J0 261040Z AUTO 00000KT 10SM BKN070 06/06 A3019 -160 96 -1200 000/00 RMK AO2 T00610056
63871K1J0 1J020160126044511301/26/16 04:45:31  5-MIN K1J0 261045Z AUTO 00000KT 10SM BKN070 06/06 A3019 -160 96 -1200 000/00 RMK AO2 T00610056
63871K1J0 1J020160126045011301/26/16 04:50:31  5-MIN K1J0 261050Z AUTO 00000KT 10SM SCT070 06/06 A3019 -160 96 -1200 000/00 RMK AO2 T00610056
63871K1J0 1J020160126045512001/26/16 04:55:31  5-MIN K1J0 261055Z AUTO 00000KT 10SM FEW070 06/06 A3019 -160 96 -1200 000/00 RMK AO2 SLP207 T00610056
63871K1J0 1J020160126050011301/26/16 05:00:31  5-MIN K1J0 261100Z AUTO 00000KT 10SM FEW070 06/06 A3019 -160 96 -1200 000/00 RMK AO2 T00610056
63871K1J0 1J020160126050511301/26/16 05:05:31  5-MIN K1J0 261105Z AUTO 00000KT 10SM FEW070 06/06 A3019 -160 96 -1200 000/00 RMK AO2 T00610056
63871K1J0 1J020160126051011301/26/16 05:10:31  5-MIN K1J0 261110Z AUTO 00000KT 10SM FEW070 06/06 A3019 -160 96 -1200 000/00 RMK AO2 T00610056
63871K1J0 1J020160126051511001/26/16 05:15:31  5-MIN K1J0 261115Z AUTO 00000KT 10SM CLR 06/06 A3019 -160 96 -1200 000/00 RMK AO2 T00610056
63871K1J0 1J020160126052011001/26/16 05:20:31  5-MIN K1J0 261120Z AUTO 00000KT 10SM CLR 06/06 A3019 -160 96 -1200 000/00 RMK AO2 T00610056
63871K1J0 1J020160126052511001/26/16 05:25:31  5-MIN K1J0 261125Z AUTO 00000KT 10SM CLR 06/06 A3019 -160 96 -1200 000/00 RMK AO2 T00610056
63871K1J0 1J020160126053011001/26/16 05:30:31  5-MIN K1J0 261130Z AUTO 00000KT 10SM CLR 06/06 A3019 -160 96 -1200 000/00 RMK AO2 T00610056
63871K1J0 1J020160126053511001/26/16 05:35:31  5-MIN K1J0 261135Z AUTO 00000KT 10SM CLR 06/05 A3019 -160 93 -1200 000/00 RMK AO2 T00610050
63871K1J0 1J020160126054011001/26/16 05:40:31  5-MIN K1J0 261140Z AUTO 00000KT 10SM CLR 06/05 A3019 -160 96 -1300 000/00 RMK AO2 T00560050
63871K1J0 1J020160126054511001/26/16 05:45:31  5-MIN K1J0 261145Z AUTO 00000KT 10SM CLR 06/05 A3019 -160 93 -1200 000/00 RMK AO2 T00610050
63871K1J0 1J020160126055011001/26/16 05:50:31  5-MIN K1J0 261150Z AUTO 00000KT 10SM CLR 06/05 A3019 -160 93 -1200 000/00 RMK AO2 T00610050
63871K1J0 1J020160126055513801/26/16 05:55:31  5-MIN K1J0 261155Z AUTO 00000KT 10SM FEW070 06/05 A3020 -160 96 -1300 000/00 RMK AO2 SLP210 T00560050 10089 20056 58018
63871K1J0 1J020160126060011301/26/16 06:00:31  5-MIN K1J0 261200Z AUTO 00000KT 10SM SCT070 06/05 A3020 -160 96 -1300 000/00 RMK AO2 T00560050
63871K1J0 1J020160126060511301/26/16 06:05:31  5-MIN K1J0 261205Z AUTO 00000KT 10SM FEW070 06/05 A3020 -170 96 -1300 000/00 RMK AO2 T00560050
63871K1J0 1J020160126061011301/26/16 06:10:31  5-MIN K1J0 261210Z AUTO 00000KT 10SM FEW070 06/06 A3020 -170 96 -1200 000/00 RMK AO2 T00610056
63871K1J0 1J020160126061511301/26/16 06:15:31  5-MIN K1J0 261215Z AUTO 00000KT 10SM FEW070 06/06 A3020 -170 96 -1200 000/00 RMK AO2 T00610056
63871K1J0 1J020160126062011301/26/16 06:20:31  5-MIN K1J0 261220Z AUTO 07003KT 10SM FEW070 06/05 A3020 -170 96 -1300 070/03 RMK AO2 T00560050
63871K1J0 1J020160126062511301/26/16 06:25:31  5-MIN K1J0 261225Z AUTO 00000KT 10SM FEW070 06/06 A3020 -170 96 -1200 000/00 RMK AO2 T00610056
63871K1J0 1J020160126063011001/26/16 06:30:31  5-MIN K1J0 261230Z AUTO 00000KT 10SM CLR 07/06 A3020 -170 93 -1100 000/00 RMK AO2 T00670056
63871K1J0 1J020160126063511001/26/16 06:35:31  5-MIN K1J0 261235Z AUTO 00000KT 10SM CLR 06/06 A3020 -170 96 -1200 000/00 RMK AO2 T00610056
63871K1J0 1J020160126064011001/26/16 06:40:31  5-MIN K1J0 261240Z AUTO 00000KT 10SM CLR 06/06 A3020 -170 96 -1200 000/00 RMK AO2 T00610056
63871K1J0 1J020160126064511001/26/16 06:45:31  5-MIN K1J0 261245Z AUTO 00000KT 10SM CLR 07/06 A3020 -170 93 -1100 000/00 RMK AO2 T00670056
63871K1J0 1J020160126065011001/26/16 06:50:31  5-MIN K1J0 261250Z AUTO 00000KT 10SM CLR 07/06 A3020 -170 96 -1100 000/00 RMK AO2 T00670061
63871K1J0 1J020160126065511701/26/16 06:55:31  5-MIN K1J0 261255Z AUTO 00000KT 10SM CLR 06/06 A3020 -170 96 -1200 000/00 RMK AO2 SLP211 T00610056
63871K1J0 1J020160126070011001/26/16 07:00:31  5-MIN K1J0 261300Z AUTO 00000KT 10SM CLR 06/06 A3020 -170 96 -1200 000/00 RMK AO2 T00610056
63871K1J0 1J020160126070511001/26/16 07:05:31  5-MIN K1J0 261305Z AUTO 00000KT 10SM CLR 06/06 A3020 -170 96 -1200 000/00 RMK AO2 T00610056
63871K1J0 1J020160126071011001/26/16 07:10:31  5-MIN K1J0 261310Z AUTO 00000KT 10SM CLR 06/06 A3020 -170 96 -1200 000/00 RMK AO2 T00610056
63871K1J0 1J020160126071511001/26/16 07:15:31  5-MIN K1J0 261315Z AUTO 00000KT 10SM CLR 07/06 A3020 -170 96 -1100 000/00 RMK AO2 T00670061
63871K1J0 1J020160126072011001/26/16 07:20:31  5-MIN K1J0 261320Z AUTO 00000KT 10SM CLR 07/07 A3020 -170 96 -1100 000/00 RMK AO2 T00720067
63871K1J0 1J020160126072511001/26/16 07:25:31  5-MIN K1J0 261325Z AUTO 00000KT 10SM CLR 07/07 A3020 -170 96 -1100 000/00 RMK AO2 T00720067
63871K1J0 1J020160126073011001/26/16 07:30:31  5-MIN K1J0 261330Z AUTO 00000KT 10SM CLR 08/07 A3020 -170 96 -1000 000/00 RMK AO2 T00780072
63871K1J0 1J020160126073511001/26/16 07:35:31  5-MIN K1J0 261335Z AUTO 00000KT 10SM CLR 08/07 A3020 -170 96 -1000 000/00 RMK AO2 T00780072
63871K1J0 1J020160126074011001/26/16 07:40:31  5-MIN K1J0 261340Z AUTO 00000KT 10SM CLR 08/07 A3021 -170 96 -1000 000/00 RMK AO2 T00780072
63871K1J0 1J020160126074511001/26/16 07:45:31  5-MIN K1J0 261345Z AUTO 00000KT 10SM CLR 08/07 A3021 -170 96 -1000 000/00 RMK AO2 T00780072
63871K1J0 1J020160126075011001/26/16 07:50:31  5-MIN K1J0 261350Z AUTO 00000KT 10SM CLR 08/07 A3021 -170 96 -1000 000/00 RMK AO2 T00780072
63871K1J0 1J020160126075511601/26/16 07:55:31  5-MIN K1J0 261355Z AUTO 00000KT 10SM CLR 08/08 A3021 -170 96 -900 000/00 RMK AO2 SLP213 T00830078
63871K1J0 1J020160126080010901/26/16 08:00:31  5-MIN K1J0 261400Z AUTO 00000KT 10SM CLR 08/08 A3021 -170 96 -900 000/00 RMK AO2 T00830078
63871K1J0 1J020160126080510901/26/16 08:05:31  5-MIN K1J0 261405Z AUTO 00000KT 10SM CLR 08/08 A3021 -170 96 -900 000/00 RMK AO2 T00830078
63871K1J0 1J020160126081010901/26/16 08:10:31  5-MIN K1J0 261410Z AUTO 00000KT 10SM CLR 09/08 A3020 -170 96 -900 000/00 RMK AO2 T00890083
63871K1J0 1J020160126081510901/26/16 08:15:31  5-MIN K1J0 261415Z AUTO 00000KT 10SM CLR 09/08 A3021 -170 96 -900 000/00 RMK AO2 T00890083
63871K1J0 1J020160126082010901/26/16 08:20:31  5-MIN K1J0 261420Z AUTO 00000KT 10SM CLR 09/08 A3021 -170 96 -900 000/00 RMK AO2 T00890083
63871K1J0 1J020160126082510901/26/16 08:25:31  5-MIN K1J0 261425Z AUTO 00000KT 10SM CLR 09/08 A3021 -170 93 -800 000/00 RMK AO2 T00940083
63871K1J0 1J020160126083010901/26/16 08:30:31  5-MIN K1J0 261430Z AUTO 00000KT 10SM CLR 09/09 A3021 -180 96 -800 000/00 RMK AO2 T00940089
63871K1J0 1J020160126083510901/26/16 08:35:31  5-MIN K1J0 261435Z AUTO 00000KT 10SM CLR 09/09 A3021 -170 96 -800 000/00 RMK AO2 T00940089
63871K1J0 1J020160126084010901/26/16 08:40:31  5-MIN K1J0 261440Z AUTO 00000KT 10SM CLR 10/09 A3021 -170 96 -700 000/00 RMK AO2 T01000094
63871K1J0 1J020160126084510901/26/16 08:45:31  5-MIN K1J0 261445Z AUTO 00000KT 10SM CLR 10/09 A3021 -170 96 -700 000/00 RMK AO2 T01000094
63871K1J0 1J020160126085010901/26/16 08:50:31  5-MIN K1J0 261450Z AUTO 00000KT 10SM CLR 10/09 A3020 -170 96 -700 000/00 RMK AO2 T01000094
63871K1J0 1J020160126085512201/26/16 08:55:31  5-MIN K1J0 261455Z AUTO 11003KT 10SM CLR 11/09 A3020 -170 93 -700 110/03 RMK AO2 SLP212 T01060094 51001
63871K1J0 1J020160126090010901/26/16 09:00:31  5-MIN K1J0 261500Z AUTO 11003KT 10SM CLR 11/09 A3020 -170 93 -700 110/03 RMK AO2 T01060094
63871K1J0 1J020160126090510901/26/16 09:05:31  5-MIN K1J0 261505Z AUTO 00000KT 10SM CLR 11/10 A3020 -170 93 -600 000/00 RMK AO2 T01110100
63871K1J0 1J020160126091010901/26/16 09:10:31  5-MIN K1J0 261510Z AUTO 00000KT 10SM CLR 12/10 A3021 -170 89 -500 000/00 RMK AO2 T01170100
63871K1J0 1J020160126091510901/26/16 09:15:31  5-MIN K1J0 261515Z AUTO 00000KT 10SM CLR 12/10 A3021 -180 89 -500 000/00 RMK AO2 T01170100
63871K1J0 1J020160126092010901/26/16 09:20:31  5-MIN K1J0 261520Z AUTO 00000KT 10SM CLR 12/10 A3021 -180 86 -500 000/00 RMK AO2 T01220100
63871K1J0 1J020160126092510901/26/16 09:25:31  5-MIN K1J0 261525Z AUTO 00000KT 10SM CLR 12/10 A3021 -170 86 -500 000/00 RMK AO2 T01220100
63871K1J0 1J020160126093010901/26/16 09:30:31  5-MIN K1J0 261530Z AUTO 00000KT 10SM CLR 12/10 A3021 -170 86 -500 000/00 RMK AO2 T01220100
63871K1J0 1J020160126093510901/26/16 09:35:31  5-MIN K1J0 261535Z AUTO 00000KT 10SM CLR 13/11 A3021 -170 86 -400 000/00 RMK AO2 T01280106
63871K1J0 1J020160126094010901/26/16 09:40:31  5-MIN K1J0 261540Z AUTO 00000KT 10SM CLR 13/11 A3020 -170 83 -300 000/00 RMK AO2 T01330106
63871K1J0 1J020160126094510901/26/16 09:45:31  5-MIN K1J0 261545Z AUTO 00000KT 10SM CLR 14/11 A3020 -160 80 -300 000/00 RMK AO2 T01390106
63871K1J0 1J020160126095010901/26/16 09:50:31  5-MIN K1J0 261550Z AUTO 10004KT 10SM CLR 14/11 A3019 -160 80 -200 100/04 RMK AO2 T01390106
63871K1J0 1J020160126095511601/26/16 09:55:31  5-MIN K1J0 261555Z AUTO 00000KT 10SM CLR 15/11 A3019 -160 77 -100 000/00 RMK AO2 SLP209 T01500111
63871K1J0 1J020160126100010901/26/16 10:00:31  5-MIN K1J0 261600Z AUTO 00000KT 10SM CLR 16/11 A3020 -160 74 -100 000/00 RMK AO2 T01560111
63871K1J0 1J020160126100510901/26/16 10:05:31  5-MIN K1J0 261605Z AUTO 15004KT 10SM CLR 16/12 A3020 -160 77 -100 150/04 RMK AO2 T01560117
63871K1J0 1J020160126101010601/26/16 10:10:31  5-MIN K1J0 261610Z AUTO 15008KT 10SM CLR 16/12 A3020 -160 75 0 150/08 RMK AO2 T01610117
63871K1J0 1J020160126101510601/26/16 10:15:31  5-MIN K1J0 261615Z AUTO 15006KT 10SM CLR 16/12 A3019 -160 75 0 150/06 RMK AO2 T01610117
63871K1J0 1J020160126102010601/26/16 10:20:31  5-MIN K1J0 261620Z AUTO 15007KT 10SM CLR 16/12 A3019 -160 75 0 150/07 RMK AO2 T01610117
63871K1J0 1J020160126102510601/26/16 10:25:31  5-MIN K1J0 261625Z AUTO 16007KT 10SM CLR 16/12 A3019 -160 75 0 160/07 RMK AO2 T01610117
63871K1J0 1J020160126103010601/26/16 10:30:31  5-MIN K1J0 261630Z AUTO 14006KT 10SM CLR 17/12 A3019 -160 72 0 140/06 RMK AO2 T01670117
63871K1J0 1J020160126103510601/26/16 10:35:31  5-MIN K1J0 261635Z AUTO 15005KT 10SM CLR 17/12 A3019 -150 72 0 150/05 RMK AO2 T01670117
63871K1J0 1J020160126104010601/26/16 10:40:31  5-MIN K1J0 261640Z AUTO 17004KT 10SM CLR 17/12 A3018 -150 72 0 170/04 RMK AO2 T01670117
63871K1J0 1J020160126104510801/26/16 10:45:31  5-MIN K1J0 261645Z AUTO 14006KT 10SM CLR 17/12 A3018 -150 69 100 140/06 RMK AO2 T01720117
63871K1J0 1J020160126105010801/26/16 10:50:31  5-MIN K1J0 261650Z AUTO 14005KT 10SM CLR 17/12 A3018 -150 72 100 140/05 RMK AO2 T01720122
63871K1J0 1J020160126105511501/26/16 10:55:31  5-MIN K1J0 261655Z AUTO 15006KT 10SM CLR 18/12 A3018 -150 69 200 150/06 RMK AO2 SLP204 T01780122
63871K1J0 1J020160126110010801/26/16 11:00:31  5-MIN K1J0 261700Z AUTO VRB05KT 10SM CLR 18/12 A3018 -150 69 200 VRB/05 RMK AO2 T01780122
63871K1J0 1J020160126110510801/26/16 11:05:31  5-MIN K1J0 261705Z AUTO 15007KT 10SM CLR 18/12 A3018 -140 69 200 150/07 RMK AO2 T01780122
63871K1J0 1J020160126111010801/26/16 11:10:31  5-MIN K1J0 261710Z AUTO 17006KT 10SM CLR 18/12 A3018 -150 67 200 170/06 RMK AO2 T01830122
63871K1J0 1J020160126111510801/26/16 11:15:31  5-MIN K1J0 261715Z AUTO 16007KT 10SM CLR 18/12 A3018 -150 67 200 160/07 RMK AO2 T01830122
63871K1J0 1J020160126112010801/26/16 11:20:31  5-MIN K1J0 261720Z AUTO 14007KT 10SM CLR 18/12 A3017 -140 67 300 140/07 RMK AO2 T01830122
63871K1J0 1J020160126112510801/26/16 11:25:31  5-MIN K1J0 261725Z AUTO 16007KT 10SM CLR 19/12 A3017 -140 65 300 160/07 RMK AO2 T01890122
63871K1J0 1J020160126113010801/26/16 11:30:31  5-MIN K1J0 261730Z AUTO 16007KT 10SM CLR 18/12 A3017 -140 65 300 160/07 RMK AO2 T01830117
63871K1J0 1J020160126113510801/26/16 11:35:31  5-MIN K1J0 261735Z AUTO 18007KT 10SM CLR 18/12 A3016 -130 65 300 180/07 RMK AO2 T01830117
63871K1J0 1J020160126114010801/26/16 11:40:31  5-MIN K1J0 261740Z AUTO 15008KT 10SM CLR 19/12 A3016 -130 65 300 150/08 RMK AO2 T01890122
63871K1J0 1J020160126114510801/26/16 11:45:31  5-MIN K1J0 261745Z AUTO 17010KT 10SM CLR 19/12 A3016 -130 62 300 170/10 RMK AO2 T01890117
63871K1J0 1J020160126115010801/26/16 11:50:31  5-MIN K1J0 261750Z AUTO 17008KT 10SM CLR 19/12 A3016 -130 62 300 170/08 RMK AO2 T01890117
63871K1J0 1J020160126115513301/26/16 11:55:31  5-MIN K1J0 261755Z AUTO 18008KT 10SM CLR 19/12 A3016 -130 62 300 180/08 RMK AO2 SLP198 T01890117 10189 20056 50003
63871K1J0 1J020160126120010801/26/16 12:00:31  5-MIN K1J0 261800Z AUTO 16007KT 10SM CLR 19/12 A3016 -130 62 300 160/07 RMK AO2 T01890117
63871K1J0 1J020160126120510801/26/16 12:05:31  5-MIN K1J0 261805Z AUTO 17005KT 10SM CLR 19/12 A3015 -120 62 300 170/05 RMK AO2 T01890117
63871K1J0 1J020160126121010801/26/16 12:10:31  5-MIN K1J0 261810Z AUTO 18006KT 10SM CLR 19/12 A3015 -120 65 300 180/06 RMK AO2 T01890122
63871K1J0 1J020160126121511101/26/16 12:15:31  5-MIN K1J0 261815Z AUTO VRB05KT 10SM FEW085 19/12 A3015 -120 62 300 VRB/05 RMK AO2 T01890117
63871K1J0 1J020160126122011101/26/16 12:20:31  5-MIN K1J0 261820Z AUTO 16008KT 10SM FEW085 19/12 A3014 -110 60 400 160/08 RMK AO2 T01940117
63871K1J0 1J020160126122511101/26/16 12:25:31  5-MIN K1J0 261825Z AUTO 19007KT 10SM FEW085 19/12 A3014 -110 60 400 190/07 RMK AO2 T01940117
63871K1J0 1J020160126123011101/26/16 12:30:31  5-MIN K1J0 261830Z AUTO 18007KT 10SM FEW085 19/12 A3014 -110 60 400 180/07 RMK AO2 T01940117
63871K1J0 1J020160126123511101/26/16 12:35:31  5-MIN K1J0 261835Z AUTO 19008KT 10SM FEW085 19/12 A3013 -100 60 400 190/08 RMK AO2 T01940117
63871K1J0 1J020160126124011101/26/16 12:40:31  5-MIN K1J0 261840Z AUTO 17007KT 10SM FEW085 19/12 A3013 -100 60 400 170/07 RMK AO2 T01940117
63871K1J0 1J020160126124511101/26/16 12:45:31  5-MIN K1J0 261845Z AUTO 18007KT 10SM FEW085 19/12 A3013 -100 62 400 180/07 RMK AO2 T01940122
63871K1J0 1J020160126125010801/26/16 12:50:31  5-MIN K1J0 261850Z AUTO 16008KT 10SM CLR 19/12 A3012 -100 62 400 160/08 RMK AO2 T01940122
63871K1J0 1J020160126125511501/26/16 12:55:31  5-MIN K1J0 261855Z AUTO 17008KT 10SM CLR 19/12 A3013 -100 62 400 170/08 RMK AO2 SLP186 T01940122
63871K1J0 1J020160126130010701/26/16 13:00:31  5-MIN K1J0 261900Z AUTO 16009KT 10SM CLR 19/12 A3012 -90 62 400 160/09 RMK AO2 T01940122
63871K1J0 1J020160126130510701/26/16 13:05:31  5-MIN K1J0 261905Z AUTO 16008KT 10SM CLR 19/12 A3012 -90 62 400 160/08 RMK AO2 T01940122
63871K1J0 1J020160126131010701/26/16 13:10:31  5-MIN K1J0 261910Z AUTO 16008KT 10SM CLR 19/12 A3012 -90 62 400 160/08 RMK AO2 T01940122
63871K1J0 1J020160126131510701/26/16 13:15:31  5-MIN K1J0 261915Z AUTO 18005KT 10SM CLR 19/12 A3012 -90 62 400 180/05 RMK AO2 T01940122
63871K1J0 1J020160126132010701/26/16 13:20:31  5-MIN K1J0 261920Z AUTO VRB05KT 10SM CLR 20/13 A3012 -90 63 500 VRB/05 RMK AO2 T02000128
63871K1J0 1J020160126132510701/26/16 13:25:31  5-MIN K1J0 261925Z AUTO 17006KT 10SM CLR 20/12 A3011 -90 60 500 170/06 RMK AO2 T02000122
63871K1J0 1J020160126133010701/26/16 13:30:31  5-MIN K1J0 261930Z AUTO 17005KT 10SM CLR 20/12 A3011 -90 60 500 170/05 RMK AO2 T02000122
63871K1J0 1J020160126133510701/26/16 13:35:31  5-MIN K1J0 261935Z AUTO 17008KT 10SM CLR 20/12 A3011 -80 60 500 170/08 RMK AO2 T02000122
63871K1J0 1J020160126134010701/26/16 13:40:31  5-MIN K1J0 261940Z AUTO 15008KT 10SM CLR 20/13 A3011 -80 63 500 150/08 RMK AO2 T02000128
63871K1J0 1J020160126134510701/26/16 13:45:31  5-MIN K1J0 261945Z AUTO 18006KT 10SM CLR 21/13 A3011 -80 60 600 180/06 RMK AO2 T02060128
63871K1J0 1J020160126135010701/26/16 13:50:31  5-MIN K1J0 261950Z AUTO VRB06KT 10SM CLR 20/12 A3010 -80 60 500 VRB/06 RMK AO2 T02000122
63871K1J0 1J020160126135511701/26/16 13:55:31  5-MIN K1J0 261955Z AUTO 20008KT 10SM FEW080 20/13 A3010 -80 63 500 200/08 RMK AO2 SLP179 T02000128
63871K1J0 1J020160126140011001/26/16 14:00:31  5-MIN K1J0 262000Z AUTO 20009KT 10SM SCT075 20/12 A3011 -80 60 500 200/09 RMK AO2 T02000122
63871K1J0 1J020160126140511601/26/16 14:05:31  5-MIN K1J0 262005Z AUTO 19007G14KT 10SM BKN075 20/12 A3010 -70 60 500 190/07G14 RMK AO2 T02000122
63871K1J0 1J020160126141011001/26/16 14:10:31  5-MIN K1J0 262010Z AUTO 18009KT 10SM BKN080 20/12 A3009 -70 60 500 180/09 RMK AO2 T02000122
63871K1J0 1J020160126141511001/26/16 14:15:31  5-MIN K1J0 262015Z AUTO 17008KT 10SM SCT080 20/12 A3009 -70 60 500 170/08 RMK AO2 T02000122
63871K1J0 1J020160126142011001/26/16 14:20:31  5-MIN K1J0 262020Z AUTO 18005KT 10SM SCT080 20/12 A3009 -70 60 500 180/05 RMK AO2 T02000122
63871K1J0 1J020160126142511001/26/16 14:25:31  5-MIN K1J0 262025Z AUTO 17007KT 10SM SCT080 20/13 A3009 -60 63 500 170/07 RMK AO2 T02000128
63871K1J0 1J020160126143011001/26/16 14:30:31  5-MIN K1J0 262030Z AUTO 18005KT 10SM FEW080 20/13 A3009 -60 63 500 180/05 RMK AO2 T02000128
63871K1J0 1J020160126143511001/26/16 14:35:31  5-MIN K1J0 262035Z AUTO 19006KT 10SM FEW080 20/13 A3009 -60 63 500 190/06 RMK AO2 T02000128
63871K1J0 1J020160126144011001/26/16 14:40:31  5-MIN K1J0 262040Z AUTO 18005KT 10SM FEW080 20/13 A3009 -60 63 500 180/05 RMK AO2 T02000128
63871K1J0 1J020160126144511001/26/16 14:45:31  5-MIN K1J0 262045Z AUTO 18006KT 10SM SCT080 20/13 A3008 -60 63 500 180/06 RMK AO2 T02000128
63871K1J0 1J020160126145011001/26/16 14:50:31  5-MIN K1J0 262050Z AUTO 17005KT 10SM SCT080 20/13 A3008 -60 63 500 170/05 RMK AO2 T02000128
63871K1J0 1J020160126145512301/26/16 14:55:31  5-MIN K1J0 262055Z AUTO 16005KT 10SM BKN080 20/13 A3008 -50 63 600 160/05 RMK AO2 SLP170 T02000128 58016
63871K1J0 1J020160126150011001/26/16 15:00:31  5-MIN K1J0 262100Z AUTO 16005KT 10SM BKN080 20/13 A3007 -50 63 600 160/05 RMK AO2 T02000128
63871K1J0 1J020160126150511001/26/16 15:05:31  5-MIN K1J0 262105Z AUTO 16005KT 10SM SCT080 20/13 A3007 -50 63 600 160/05 RMK AO2 T02000128
63871K1J0 1J020160126151011001/26/16 15:10:31  5-MIN K1J0 262110Z AUTO 17007KT 10SM SCT080 20/13 A3006 -40 63 600 170/07 RMK AO2 T02000128
63871K1J0 1J020160126151511001/26/16 15:15:31  5-MIN K1J0 262115Z AUTO 17007KT 10SM SCT080 20/13 A3007 -40 63 600 170/07 RMK AO2 T02000128
63871K1J0 1J020160126152011001/26/16 15:20:31  5-MIN K1J0 262120Z AUTO 17007KT 10SM FEW080 20/12 A3007 -40 60 600 170/07 RMK AO2 T02000122
63871K1J0 1J020160126152510701/26/16 15:25:31  5-MIN K1J0 262125Z AUTO 17006KT 10SM CLR 20/12 A3007 -40 60 600 170/06 RMK AO2 T02000122
63871K1J0 1J020160126153010701/26/16 15:30:31  5-MIN K1J0 262130Z AUTO 17006KT 10SM CLR 19/13 A3007 -50 65 500 170/06 RMK AO2 T01940128
63871K1J0 1J020160126153510701/26/16 15:35:31  5-MIN K1J0 262135Z AUTO 16007KT 10SM CLR 19/12 A3007 -50 62 500 160/07 RMK AO2 T01940122
63871K1J0 1J020160126154010701/26/16 15:40:31  5-MIN K1J0 262140Z AUTO 17006KT 10SM CLR 19/13 A3007 -40 65 500 170/06 RMK AO2 T01940128
63871K1J0 1J020160126154510701/26/16 15:45:31  5-MIN K1J0 262145Z AUTO 15006KT 10SM CLR 19/13 A3006 -40 67 400 150/06 RMK AO2 T01890128
63871K1J0 1J020160126155010701/26/16 15:50:31  5-MIN K1J0 262150Z AUTO 15005KT 10SM CLR 19/13 A3006 -40 65 500 150/05 RMK AO2 T01940128
63871K1J0 1J020160126155511401/26/16 15:55:31  5-MIN K1J0 262155Z AUTO 16004KT 10SM CLR 19/13 A3006 -40 67 400 160/04 RMK AO2 SLP165 T01890128
63871K1J0 1J020160126160011001/26/16 16:00:31  5-MIN K1J0 262200Z AUTO 16003KT 10SM FEW065 19/13 A3006 -40 67 400 160/03 RMK AO2 T01890128
63871K1J0 1J020160126160511701/26/16 16:05:31  5-MIN K1J0 262205Z AUTO 17003KT 10SM SCT065 SCT080 19/13 A3007 -40 67 400 170/03 RMK AO2 T01890128
63871K1J0 1J020160126161011701/26/16 16:10:31  5-MIN K1J0 262210Z AUTO 00000KT 10SM BKN065 BKN080 19/13 A3007 -50 67 400 000/00 RMK AO2 T01890128
63871K1J0 1J020160126161511001/26/16 16:15:31  5-MIN K1J0 262215Z AUTO 18003KT 10SM BKN065 19/13 A3007 -50 67 400 180/03 RMK AO2 T01890128
63871K1J0 1J020160126162011701/26/16 16:20:31  5-MIN K1J0 262220Z AUTO 20003KT 10SM BKN065 BKN080 19/13 A3007 -50 67 400 200/03 RMK AO2 T01890128
63871K1J0 1J020160126162511001/26/16 16:25:31  5-MIN K1J0 262225Z AUTO 00000KT 10SM OVC065 19/13 A3007 -50 67 400 000/00 RMK AO2 T01890128
63871K1J0 1J020160126163011001/26/16 16:30:31  5-MIN K1J0 262230Z AUTO 00000KT 10SM OVC065 18/13 A3007 -40 70 400 000/00 RMK AO2 T01830128
63871K1J0 1J020160126163511001/26/16 16:35:31  5-MIN K1J0 262235Z AUTO 00000KT 10SM OVC070 18/13 A3007 -40 75 300 000/00 RMK AO2 T01780133
63871K1J0 1J020160126164011001/26/16 16:40:31  5-MIN K1J0 262240Z AUTO 14003KT 10SM OVC070 18/13 A3006 -40 75 300 140/03 RMK AO2 T01780133
63871K1J0 1J020160126164511701/26/16 16:45:31  5-MIN K1J0 262245Z AUTO 12003KT 10SM BKN070 OVC085 18/13 A3006 -40 75 300 120/03 RMK AO2 T01780133
63871K1J0 1J020160126165011701/26/16 16:50:31  5-MIN K1J0 262250Z AUTO 12006KT 10SM BKN070 BKN085 17/13 A3005 -30 78 300 120/06 RMK AO2 T01720133
63871K1J0 1J020160126165512401/26/16 16:55:31  5-MIN K1J0 262255Z AUTO 13005KT 10SM SCT070 BKN085 18/13 A3005 -30 72 300 130/05 RMK AO2 SLP160 T01780128
63871K1J0 1J020160126170011001/26/16 17:00:31  5-MIN K1J0 262300Z AUTO 16005KT 10SM SCT080 18/13 A3006 -30 70 400 160/05 RMK AO2 T01830128
63871K1J0 1J020160126170511001/26/16 17:05:31  5-MIN K1J0 262305Z AUTO VRB03KT 10SM SCT080 18/13 A3006 -40 72 300 VRB/03 RMK AO2 T01780128
63871K1J0 1J020160126171011001/26/16 17:10:31  5-MIN K1J0 262310Z AUTO 23003KT 10SM SCT085 18/13 A3006 -40 72 300 230/03 RMK AO2 T01780128
63871K1J0 1J020160126171511001/26/16 17:15:31  5-MIN K1J0 262315Z AUTO 00000KT 10SM FEW085 18/13 A3007 -40 72 300 000/00 RMK AO2 T01780128
63871K1J0 1J020160126172011001/26/16 17:20:31  5-MIN K1J0 262320Z AUTO 00000KT 10SM FEW085 18/13 A3007 -40 72 300 000/00 RMK AO2 T01780128
63871K1J0 1J020160126172511701/26/16 17:25:31  5-MIN K1J0 262325Z AUTO 00000KT 10SM FEW070 FEW085 17/13 A3007 -50 75 200 000/00 RMK AO2 T01720128
63871K1J0 1J020160126173011701/26/16 17:30:31  5-MIN K1J0 262330Z AUTO 30003KT 10SM SCT070 SCT085 16/13 A3007 -50 80 100 300/03 RMK AO2 T01610128
63871K1J0 1J020160126173511701/26/16 17:35:31  5-MIN K1J0 262335Z AUTO 00000KT 10SM BKN070 BKN085 17/13 A3007 -50 77 200 000/00 RMK AO2 T01670128
63871K1J0 1J020160126174011701/26/16 17:40:31  5-MIN K1J0 262340Z AUTO 00000KT 10SM SCT070 BKN090 16/13 A3007 -50 80 100 000/00 RMK AO2 T01610128
63871K1J0 1J020160126174511701/26/16 17:45:31  5-MIN K1J0 262345Z AUTO 00000KT 10SM BKN070 BKN090 16/13 A3007 -50 80 100 000/00 RMK AO2 T01610128
63871K1J0 1J020160126175011701/26/16 17:50:31  5-MIN K1J0 262350Z AUTO 00000KT 10SM BKN070 BKN090 16/13 A3007 -50 80 100 000/00 RMK AO2 T01610128
63871K1J0 1J020160126175514001/26/16 17:55:31  5-MIN K1J0 262355Z AUTO 00000KT 10SM BKN070 BKN090 16/13 A3006 -40 83 0 000/00 RMK AO2 SLP165 T01560128 10206 20156 56028
63871K1J0 1J020160126180011501/26/16 18:00:31  5-MIN K1J0 270000Z AUTO 00000KT 10SM SCT070 SCT090 16/13 A3007 -40 83 0 000/00 RMK AO2 T01560128
63871K1J0 1J020160126180511501/26/16 18:05:31  5-MIN K1J0 270005Z AUTO 00000KT 10SM FEW070 SCT090 15/13 A3007 -40 86 0 000/00 RMK AO2 T01500128
63871K1J0 1J020160126181011501/26/16 18:10:31  5-MIN K1J0 270010Z AUTO 00000KT 10SM FEW070 SCT095 16/13 A3007 -40 83 0 000/00 RMK AO2 T01560128
63871K1J0 1J020160126181511501/26/16 18:15:31  5-MIN K1J0 270015Z AUTO 00000KT 10SM FEW070 FEW095 15/13 A3006 -40 86 0 000/00 RMK AO2 T01500128
63871K1J0 1J020160126182010801/26/16 18:20:31  5-MIN K1J0 270020Z AUTO 00000KT 10SM FEW090 15/13 A3006 -40 86 0 000/00 RMK AO2 T01500128
63871K1J0 1J020160126182511001/26/16 18:25:31  5-MIN K1J0 270025Z AUTO 15003KT 10SM SCT090 16/13 A3006 -40 83 100 150/03 RMK AO2 T01560128
63871K1J0 1J020160126183010801/26/16 18:30:31  5-MIN K1J0 270030Z AUTO 14004KT 10SM BKN090 15/13 A3006 -40 86 0 140/04 RMK AO2 T01500128
63871K1J0 1J020160126204010801/26/16 20:40:31  5-MIN K1J0 270240Z AUTO 00000KT 10SM BKN100 15/12 A3007 -50 80 0 000/00 RMK AO2 T01500117
63871K1J0 1J020160126204510801/26/16 20:45:31  5-MIN K1J0 270245Z AUTO 15003KT 10SM BKN100 14/12 A3007 -50 83 0 150/03 RMK AO2 T01440117
63871K1J0 1J020160126205010801/26/16 20:50:31  5-MIN K1J0 270250Z AUTO 15004KT 10SM BKN100 15/12 A3007 -50 80 0 150/04 RMK AO2 T01500117
63871K1J0 1J020160126205512101/26/16 20:55:31  5-MIN K1J0 270255Z AUTO 15004KT 10SM BKN100 15/12 A3007 -50 80 0 150/04 RMK AO2 SLP168 T01500117 55002
63871K1J0 1J020160126210010801/26/16 21:00:31  5-MIN K1J0 270300Z AUTO 15004KT 10SM OVC100 15/12 A3007 -50 80 0 150/04 RMK AO2 T01500117
63871K1J0 1J020160126210510801/26/16 21:05:31  5-MIN K1J0 270305Z AUTO 14003KT 10SM OVC100 16/11 A3007 -50 74 0 140/03 RMK AO2 T01560111
63871K1J0 1J020160126211011501/26/16 21:10:31  5-MIN K1J0 270310Z AUTO 13003KT 10SM FEW080 OVC100 15/12 A3007 -50 80 0 130/03 RMK AO2 T01500117
63871K1J0 1J020160126211511501/26/16 21:15:31  5-MIN K1J0 270315Z AUTO 13003KT 10SM FEW080 OVC100 16/11 A3007 -50 74 0 130/03 RMK AO2 T01560111
63871K1J0 1J020160126212011501/26/16 21:20:31  5-MIN K1J0 270320Z AUTO 00000KT 10SM FEW080 OVC100 15/11 A3007 -50 77 0 000/00 RMK AO2 T01500111
63871K1J0 1J020160126212511501/26/16 21:25:31  5-MIN K1J0 270325Z AUTO 00000KT 10SM FEW080 OVC100 15/11 A3007 -50 77 0 000/00 RMK AO2 T01500111
63871K1J0 1J020160126213012201/26/16 21:30:31  5-MIN K1J0 270330Z AUTO 00000KT 10SM FEW080 BKN100 OVC110 16/11 A3007 -50 74 0 000/00 RMK AO2 T01560111
63871K1J0 1J020160126213511501/26/16 21:35:31  5-MIN K1J0 270335Z AUTO 00000KT 10SM FEW080 OVC100 15/11 A3007 -50 77 0 000/00 RMK AO2 T01500111
63871K1J0 1J020160126214010801/26/16 21:40:31  5-MIN K1J0 270340Z AUTO 35003KT 10SM OVC110 15/11 A3008 -50 77 0 350/03 RMK AO2 T01500111
63871K1J0 1J020160126214510801/26/16 21:45:31  5-MIN K1J0 270345Z AUTO 34003KT 10SM OVC110 15/11 A3008 -50 77 0 340/03 RMK AO2 T01500111
63871K1J0 1J020160126215011101/26/16 21:50:31  5-MIN K1J0 270350Z AUTO 00000KT 10SM BKN110 14/12 A3008 -60 86 -100 000/00 RMK AO2 T01390117
63871K1J0 1J020160126215511801/26/16 21:55:31  5-MIN K1J0 270355Z AUTO 00000KT 10SM BKN110 14/12 A3008 -60 86 -100 000/00 RMK AO2 SLP171 T01390117
63871K1J0 1J020160126220011101/26/16 22:00:31  5-MIN K1J0 270400Z AUTO 00000KT 10SM BKN110 14/12 A3007 -50 86 -100 000/00 RMK AO2 T01390117
63871K1J0 1J020160126220511101/26/16 22:05:31  5-MIN K1J0 270405Z AUTO 00000KT 10SM BKN110 14/12 A3007 -50 86 -100 000/00 RMK AO2 T01390117
63871K1J0 1J020160126221011101/26/16 22:10:31  5-MIN K1J0 270410Z AUTO 00000KT 10SM SCT110 14/12 A3007 -50 86 -100 000/00 RMK AO2 T01390117
63871K1J0 1J020160126221511101/26/16 22:15:31  5-MIN K1J0 270415Z AUTO 00000KT 10SM SCT100 14/12 A3007 -50 86 -100 000/00 RMK AO2 T01390117
63871K1J0 1J020160126222011101/26/16 22:20:31  5-MIN K1J0 270420Z AUTO 00000KT 10SM SCT100 14/12 A3007 -50 86 -100 000/00 RMK AO2 T01390117
63871K1J0 1J020160126222511101/26/16 22:25:31  5-MIN K1J0 270425Z AUTO 00000KT 10SM SCT110 14/11 A3007 -50 83 -100 000/00 RMK AO2 T01390111
63871K1J0 1J020160126223011101/26/16 22:30:31  5-MIN K1J0 270430Z AUTO 00000KT 10SM FEW110 14/11 A3007 -50 83 -100 000/00 RMK AO2 T01390111
63871K1J0 1J020160126223510801/26/16 22:35:31  5-MIN K1J0 270435Z AUTO 00000KT 10SM FEW110 15/11 A3007 -50 77 0 000/00 RMK AO2 T01500111
63871K1J0 1J020160126224011001/26/16 22:40:31  5-MIN K1J0 270440Z AUTO 00000KT 10SM FEW110 16/12 A3007 -40 77 0 000/00 RMK AO2 T01560117 $
63871K1J0 1J020160126224511001/26/16 22:45:31  5-MIN K1J0 270445Z AUTO 00000KT 10SM CLR 13/12 A3006 -40 89 -200 000/00 RMK AO2 T01330117 $
63871K1J0 1J020160126225011001/26/16 22:50:31  5-MIN K1J0 270450Z AUTO 00000KT 10SM CLR 13/12 A3006 -40 89 -200 000/00 RMK AO2 T01330117 $
63871K1J0 1J020160126225511701/26/16 22:55:31  5-MIN K1J0 270455Z AUTO 13003KT 10SM CLR 13/11 A3006 -40 86 -200 130/03 RMK AO2 SLP163 T01330111 $
63871K1J0 1J020160126230011001/26/16 23:00:31  5-MIN K1J0 270500Z AUTO 14003KT 10SM CLR 14/11 A3006 -40 83 -100 140/03 RMK AO2 T01390111 $
63871K1J0 1J020160126230511001/26/16 23:05:31  5-MIN K1J0 270505Z AUTO 16003KT 10SM CLR 14/11 A3006 -40 83 -100 160/03 RMK AO2 T01390111 $
63871K1J0 1J020160126231011001/26/16 23:10:31  5-MIN K1J0 270510Z AUTO 15003KT 10SM CLR 14/11 A3006 -40 83 -100 150/03 RMK AO2 T01390111 $
63871K1J0 1J020160126231511001/26/16 23:15:31  5-MIN K1J0 270515Z AUTO 00000KT 10SM CLR 14/11 A3006 -40 83 -100 000/00 RMK AO2 T01390111 $
63871K1J0 1J020160126232010701/26/16 23:20:31  5-MIN K1J0 270520Z AUTO 00000KT 10SM CLR 14/11 A3006 -40 80 0 000/00 RMK AO2 T01440111 $
63871K1J0 1J020160126232511301/26/16 23:25:31  5-MIN K1J0 270525Z AUTO 32005KT 10SM FEW065 13/11 A3006 -40 86 -200 320/05 RMK AO2 T01330111 $
63871K1J0 1J020160126233011301/26/16 23:30:31  5-MIN K1J0 270530Z AUTO 31005KT 10SM FEW060 14/11 A3006 -40 83 -100 310/05 RMK AO2 T01390111 $
63871K1J0 1J020160126233511001/26/16 23:35:31  5-MIN K1J0 270535Z AUTO 32005KT 10SM SCT055 14/11 A3006 -40 80 0 320/05 RMK AO2 T01440111 $
63871K1J0 1J020160126234011701/26/16 23:40:31  5-MIN K1J0 270540Z AUTO 32004KT 10SM SCT050 SCT065 14/11 A3006 -40 80 0 320/04 RMK AO2 T01440111 $
63871K1J0 1J020160126234511701/26/16 23:45:31  5-MIN K1J0 270545Z AUTO 34005KT 10SM BKN048 BKN065 14/11 A3006 -40 80 0 340/05 RMK AO2 T01440111 $
63871K1J0 1J020160126235011701/26/16 23:50:31  5-MIN K1J0 270550Z AUTO 34006KT 10SM BKN048 BKN065 14/11 A3006 -40 80 0 340/06 RMK AO2 T01440111 $
63871K1J0 1J020160126235514501/26/16 23:55:31  5-MIN K1J0 270555Z AUTO 34004KT 10SM BKN047 14/11 A3006 -40 80 0 340/04 RMK AO2 SLP137 T01440111 10167 20133 402060056 53003 $
63871K1J0 1J020160127000011701/27/16 00:00:31  5-MIN K1J0 270600Z AUTO 34005KT 10SM SCT045 SCT050 14/11 A3006 -40 80 0 340/05 RMK AO2 T01440111 $
63871K1J0 1J020160127000511001/27/16 00:05:31  5-MIN K1J0 270605Z AUTO 34006KT 10SM SCT045 14/11 A3006 -40 80 0 340/06 RMK AO2 T01440111 $
63871K1J0 1J020160127001011701/27/16 00:10:31  5-MIN K1J0 270610Z AUTO 34005KT 10SM SCT045 SCT060 14/11 A3006 -40 80 0 340/05 RMK AO2 T01440111 $
63871K1J0 1J020160127001511701/27/16 00:15:31  5-MIN K1J0 270615Z AUTO 34004KT 10SM SCT045 SCT060 15/11 A3006 -40 77 0 340/04 RMK AO2 T01500111 $
63871K1J0 1J020160127002011701/27/16 00:20:31  5-MIN K1J0 270620Z AUTO 01003KT 10SM SCT045 BKN060 14/11 A3006 -40 80 0 010/03 RMK AO2 T01440111 $
63871K1J0 1J020160127002511701/27/16 00:25:31  5-MIN K1J0 270625Z AUTO 35004KT 10SM BKN045 BKN060 14/11 A3006 -30 80 0 350/04 RMK AO2 T01440111 $
63871K1J0 1J020160127003012001/27/16 00:30:31  5-MIN K1J0 270630Z AUTO 35004KT 10SM BKN046 BKN060 14/11 A3005 -30 83 -100 350/04 RMK AO2 T01390111 $
63871K1J0 1J020160127003511701/27/16 00:35:31  5-MIN K1J0 270635Z AUTO 00000KT 10SM SCT046 BKN060 14/11 A3006 -30 80 0 000/00 RMK AO2 T01440111 $
63871K1J0 1J020160127004012001/27/16 00:40:31  5-MIN K1J0 270640Z AUTO 00000KT 10SM SCT046 SCT060 13/11 A3006 -30 86 -200 000/00 RMK AO2 T01330111 $
63871K1J0 1J020160127004512001/27/16 00:45:31  5-MIN K1J0 270645Z AUTO 00000KT 10SM FEW046 SCT060 13/11 A3005 -30 86 -100 000/00 RMK AO2 T01330111 $
63871K1J0 1J020160127005011301/27/16 00:50:31  5-MIN K1J0 270650Z AUTO 00000KT 10SM FEW046 13/11 A3005 -30 86 -200 000/00 RMK AO2 T01330111 $
63871K1J0 1J020160127005511701/27/16 00:55:31  5-MIN K1J0 270655Z AUTO 00000KT 10SM CLR 14/11 A3005 -30 83 -100 000/00 RMK AO2 SLP134 T01390111 $
63871K1J0 1J020160127010011001/27/16 01:00:31  5-MIN K1J0 270700Z AUTO 00000KT 10SM CLR 13/11 A3004 -20 86 -100 000/00 RMK AO2 T01330111 $
63871K1J0 1J020160127010511001/27/16 01:05:31  5-MIN K1J0 270705Z AUTO 00000KT 10SM CLR 13/11 A3005 -20 89 -200 000/00 RMK AO2 T01280111 $
63871K1J0 1J020160127011011001/27/16 01:10:31  5-MIN K1J0 270710Z AUTO 00000KT 10SM CLR 13/11 A3004 -20 89 -200 000/00 RMK AO2 T01280111 $
63871K1J0 1J020160127011511301/27/16 01:15:31  5-MIN K1J0 270715Z AUTO 00000KT 10SM FEW023 13/11 A3005 -20 86 -100 000/00 RMK AO2 T01330111 $
63871K1J0 1J020160127012011301/27/16 01:20:31  5-MIN K1J0 270720Z AUTO 33003KT 10SM FEW023 13/11 A3004 -20 89 -200 330/03 RMK AO2 T01280111 $
63871K1J0 1J020160127012511301/27/16 01:25:31  5-MIN K1J0 270725Z AUTO 00000KT 10SM SCT023 13/11 A3005 -30 86 -100 000/00 RMK AO2 T01330111 $
63871K1J0 1J020160127013011301/27/16 01:30:31  5-MIN K1J0 270730Z AUTO 34003KT 10SM BKN023 13/11 A3005 -30 86 -100 340/03 RMK AO2 T01330111 $
63871K1J0 1J020160127013512001/27/16 01:35:31  5-MIN K1J0 270735Z AUTO 35004KT 10SM BKN023 BKN042 14/11 A3005 -30 83 -100 350/04 RMK AO2 T01390111 $
63871K1J0 1J020160127014011701/27/16 01:40:31  5-MIN K1J0 270740Z AUTO 35005KT 10SM SCT023 BKN042 14/12 A3005 -30 83 0 350/05 RMK AO2 T01440117 $
63871K1J0 1J020160127014512001/27/16 01:45:31  5-MIN K1J0 270745Z AUTO 36003KT 10SM SCT023 SCT043 14/12 A3004 -20 86 -100 360/03 RMK AO2 T01390117 $
63871K1J0 1J020160127015012001/27/16 01:50:31  5-MIN K1J0 270750Z AUTO 00000KT 10SM SCT023 SCT043 14/12 A3005 -30 86 -100 000/00 RMK AO2 T01390117 $
63871K1J0 1J020160127015512701/27/16 01:55:31  5-MIN K1J0 270755Z AUTO 00000KT 10SM FEW023 SCT043 13/11 A3005 -30 86 -200 000/00 RMK AO2 SLP133 T01330111 $
63871K1J0 1J020160127020012001/27/16 02:00:31  5-MIN K1J0 270800Z AUTO 00000KT 10SM FEW023 SCT043 14/11 A3005 -20 83 -100 000/00 RMK AO2 T01390111 $
63871K1J0 1J020160127020512001/27/16 02:05:31  5-MIN K1J0 270805Z AUTO 00000KT 10SM FEW023 BKN042 14/12 A3004 -20 86 -100 000/00 RMK AO2 T01390117 $
63871K1J0 1J020160127021012001/27/16 02:10:31  5-MIN K1J0 270810Z AUTO 00000KT 10SM FEW023 BKN042 14/12 A3004 -20 86 -100 000/00 RMK AO2 T01390117 $
63871K1J0 1J020160127021512001/27/16 02:15:31  5-MIN K1J0 270815Z AUTO 00000KT 10SM FEW022 BKN042 14/12 A3003 -10 86 -100 000/00 RMK AO2 T01390117 $
63871K1J0 1J020160127022012001/27/16 02:20:31  5-MIN K1J0 270820Z AUTO 00000KT 10SM FEW022 BKN043 14/12 A3004 -20 86 -100 000/00 RMK AO2 T01390117 $
63871K1J0 1J020160127022512001/27/16 02:25:31  5-MIN K1J0 270825Z AUTO 00000KT 10SM SCT022 OVC043 14/12 A3003 -10 86 -100 000/00 RMK AO2 T01390117 $
63871K1J0 1J020160127023012001/27/16 02:30:31  5-MIN K1J0 270830Z AUTO 00000KT 10SM BKN022 OVC043 13/12 A3003 -10 89 -100 000/00 RMK AO2 T01330117 $
63871K1J0 1J020160127023512001/27/16 02:35:31  5-MIN K1J0 270835Z AUTO 36004KT 10SM BKN022 OVC043 14/12 A3003 -10 86 -100 360/04 RMK AO2 T01390117 $
63871K1J0 1J020160127024012001/27/16 02:40:31  5-MIN K1J0 270840Z AUTO 33005KT 10SM BKN022 BKN043 14/12 A3003 -10 86 -100 330/05 RMK AO2 T01390117 $
63871K1J0 1J020160127024512001/27/16 02:45:31  5-MIN K1J0 270845Z AUTO 35003KT 10SM BKN022 OVC043 14/12 A3003 -10 86 -100 350/03 RMK AO2 T01390117 $
63871K1J0 1J020160127025011101/27/16 02:50:31  5-MIN K1J0 270850Z AUTO 35006KT 10SM OVC020 14/12 A3002 0 86 -100 350/06 RMK AO2 T01390117 $
63871K1J0 1J020160127025512601/27/16 02:55:31  5-MIN K1J0 270855Z AUTO 34004KT 10SM OVC020 14/12 A3003 -10 86 -100 340/04 RMK AO2 SLP126 T01390117 58004 $
63871K1J0 1J020160127030011001/27/16 03:00:31  5-MIN K1J0 270900Z AUTO 00000KT 10SM OVC020 14/12 A3004 -20 83 0 000/00 RMK AO2 T01440117 $
63871K1J0 1J020160127030511701/27/16 03:05:31  5-MIN K1J0 270905Z AUTO 00000KT 10SM OVC020 14/12 A3005 -30 83 0 000/00 RMK AO2 PRESRR T01440117 $
63871K1J0 1J020160127031011001/27/16 03:10:31  5-MIN K1J0 270910Z AUTO 00000KT 10SM OVC020 14/12 A3005 -30 83 0 000/00 RMK AO2 T01440117 $
63871K1J0 1J020160127031511301/27/16 03:15:31  5-MIN K1J0 270915Z AUTO 00000KT 10SM OVC020 14/12 A3004 -20 86 -100 000/00 RMK AO2 T01390117 $
63871K1J0 1J020160127032011301/27/16 03:20:31  5-MIN K1J0 270920Z AUTO 02004KT 10SM OVC020 14/12 A3004 -20 86 -100 020/04 RMK AO2 T01390117 $
63871K1J0 1J020160127032511301/27/16 03:25:31  5-MIN K1J0 270925Z AUTO 02003KT 10SM OVC021 14/12 A3003 -10 86 -100 020/03 RMK AO2 T01390117 $
63871K1J0 1J020160127033011801/27/16 03:30:31  5-MIN K1J0 270930Z AUTO 03005KT 10SM OVC021 14/12 A3002 0 86 -100 030/05 RMK AO2 PRESFR T01390117 $
63871K1J0 1J020160127033511301/27/16 03:35:31  5-MIN K1J0 270935Z AUTO 03004KT 10SM OVC021 14/12 A3002 -10 86 -100 030/04 RMK AO2 T01390117 $
63871K1J0 1J020160127034011301/27/16 03:40:31  5-MIN K1J0 270940Z AUTO 02003KT 10SM OVC021 14/12 A3003 -10 86 -100 020/03 RMK AO2 T01390117 $
63871K1J0 1J020160127034510801/27/16 03:45:31  5-MIN K1J0 270945Z AUTO 04004KT 10SM OVC021 14/12 A3002 0 86 0 040/04 RMK AO2 T01390117 $
63871K1J0 1J020160127035011501/27/16 03:50:31  5-MIN K1J0 270950Z AUTO 07004KT 10SM BKN021 OVC043 14/12 A3002 0 86 0 070/04 RMK AO2 T01390117 $
63871K1J0 1J020160127035512201/27/16 03:55:31  5-MIN K1J0 270955Z AUTO 06005KT 10SM BKN020 OVC043 14/12 A3002 0 86 0 060/05 RMK AO2 SLP122 T01390117 $
63871K1J0 1J020160127040011501/27/16 04:00:31  5-MIN K1J0 271000Z AUTO 04006KT 10SM BKN020 OVC045 14/12 A3001 0 86 0 040/06 RMK AO2 T01390117 $
63871K1J0 1J020160127040511601/27/16 04:05:31  5-MIN K1J0 271005Z AUTO 03006KT 10SM SCT020 BKN045 14/12 A3001 10 86 0 030/06 RMK AO2 T01390117 $
63871K1J0 1J020160127041011501/27/16 04:10:31  5-MIN K1J0 271010Z AUTO 03005KT 10SM SCT020 BKN045 14/12 A3001 0 86 0 030/05 RMK AO2 T01390117 $
63871K1J0 1J020160127041512501/27/16 04:15:31  5-MIN K1J0 271015Z AUTO 01003KT 10SM FEW020 SCT045 BKN055 14/12 A3002 0 86 -100 010/03 RMK AO2 T01390117 $
63871K1J0 1J020160127042012701/27/16 04:20:31  5-MIN K1J0 271020Z AUTO 03004KT 10SM FEW020 BKN045 BKN055 14/12 A3003 -10 86 -100 030/04 RMK AO2 T01390117 $
63871K1J0 1J020160127042511301/27/16 04:25:31  5-MIN K1J0 271025Z AUTO 03004KT 10SM BKN045 14/12 A3003 -10 86 -100 030/04 RMK AO2 T01390117 $
63871K1J0 1J020160127043012001/27/16 04:30:31  5-MIN K1J0 271030Z AUTO 04004KT 10SM FEW024 BKN045 14/12 A3002 -10 86 -100 040/04 RMK AO2 T01390117 $
63871K1J0 1J020160127043512001/27/16 04:35:31  5-MIN K1J0 271035Z AUTO 06003KT 10SM SCT024 BKN045 14/12 A3003 -10 86 -100 060/03 RMK AO2 T01390117 $
63871K1J0 1J020160127044011801/27/16 04:40:31  5-MIN K1J0 271040Z AUTO 04004KT 10SM SCT024 OVC045 14/12 A3002 0 86 -100 040/04 RMK AO2 T01390117 $
63871K1J0 1J020160127044511801/27/16 04:45:31  5-MIN K1J0 271045Z AUTO 04005KT 10SM SCT023 BKN045 14/12 A3002 0 86 -100 040/05 RMK AO2 T01390117 $
63871K1J0 1J020160127045012501/27/16 04:50:31  5-MIN K1J0 271050Z AUTO 04004KT 10SM SCT023 BKN045 BKN120 13/12 A3002 0 89 -100 040/04 RMK AO2 T01330117 $
63871K1J0 1J020160127045513201/27/16 04:55:31  5-MIN K1J0 271055Z AUTO 05004KT 10SM SCT023 SCT047 BKN120 13/12 A3002 0 89 -100 050/04 RMK AO2 SLP150 T01330117 $
63871K1J0 1J020160127050011801/27/16 05:00:31  5-MIN K1J0 271100Z AUTO 04005KT 10SM FEW023 BKN120 13/12 A3001 0 89 -100 040/05 RMK AO2 T01330117 $
63871K1J0 1J020160127050511801/27/16 05:05:31  5-MIN K1J0 271105Z AUTO 03005KT 10SM FEW023 BKN120 13/12 A3002 0 89 -100 030/05 RMK AO2 T01330117 $
63871K1J0 1J020160127051011101/27/16 05:10:31  5-MIN K1J0 271110Z AUTO 02004KT 10SM SCT120 13/12 A3002 0 89 -100 020/04 RMK AO2 T01330117 $
63871K1J0 1J020160127051511101/27/16 05:15:31  5-MIN K1J0 271115Z AUTO 02005KT 10SM BKN120 13/11 A3002 0 86 -100 020/05 RMK AO2 T01330111 $
63871K1J0 1J020160127052012001/27/16 05:20:31  5-MIN K1J0 271120Z AUTO 04004KT 10SM FEW024 BKN120 13/12 A3003 -10 89 -100 040/04 RMK AO2 T01330117 $
63871K1J0 1J020160127052512001/27/16 05:25:31  5-MIN K1J0 271125Z AUTO 03004KT 10SM SCT024 BKN120 13/12 A3003 -10 89 -100 030/04 RMK AO2 T01330117 $
63871K1J0 1J020160127053012001/27/16 05:30:31  5-MIN K1J0 271130Z AUTO 03005KT 10SM BKN024 BKN120 13/12 A3003 -10 89 -100 030/05 RMK AO2 T01330117 $
63871K1J0 1J020160127053507901/27/16 05:35:31  5-MIN K1J0 271135Z AUTO 04005KT A3003 M M M 040/05 RMK AO2 $
63871K1J0 1J020160127054009901/27/16 05:40:31  5-MIN K1J0 271140Z AUTO 02005KT 13/12 A3002 0 89 -100 020/05 RMK AO2 T01330117 $
63871K1J0 1J020160127054510601/27/16 05:45:31  5-MIN K1J0 271145Z AUTO 01005KT 10SM 13/12 A3003 -10 89 -100 010/05 RMK AO2 T01330117 $
63871K1J0 1J020160127055010401/27/16 05:50:31  5-MIN K1J0 271150Z AUTO 02005KT 10SM 13/12 A3003 -10 89 -100 020/05 RMK AO2 T01330117
63871K1J0 1J020160127055512301/27/16 05:55:31  5-MIN K1J0 271155Z AUTO 02005KT 10SM 13/11 A3003 -10 86 -100 020/05 RMK AO2 SLP153 T01330111 10150 20128
63871K1J0 1J020160127060010401/27/16 06:00:31  5-MIN K1J0 271200Z AUTO 36005KT 10SM 13/11 A3003 -10 86 -100 360/05 RMK AO2 T01330111
63871K1J0 1J020160127060510901/27/16 06:05:31  5-MIN K1J0 271205Z AUTO 01007KT 10SM OVC022 13/11 A3002 0 86 -100 010/07 RMK AO2 T01330111
63871K1J0 1J020160127061010901/27/16 06:10:31  5-MIN K1J0 271210Z AUTO 01006KT 10SM OVC022 13/11 A3002 0 86 -100 010/06 RMK AO2 T01330111
63871K1J0 1J020160127061510901/27/16 06:15:31  5-MIN K1J0 271215Z AUTO 02006KT 10SM OVC022 13/11 A3002 0 86 -100 020/06 RMK AO2 T01330111
63871K1J0 1J020160127062010901/27/16 06:20:31  5-MIN K1J0 271220Z AUTO 01006KT 10SM OVC021 13/11 A3002 0 86 -100 010/06 RMK AO2 T01330111
63871K1J0 1J020160127062511101/27/16 06:25:31  5-MIN K1J0 271225Z AUTO 01005KT 10SM OVC021 13/11 A3003 -10 86 -100 010/05 RMK AO2 T01330111
63871K1J0 1J020160127063011101/27/16 06:30:31  5-MIN K1J0 271230Z AUTO 01004KT 10SM OVC021 13/11 A3004 -20 86 -100 010/04 RMK AO2 T01330111
63871K1J0 1J020160127063511101/27/16 06:35:31  5-MIN K1J0 271235Z AUTO 02004KT 10SM OVC021 13/11 A3004 -20 86 -100 020/04 RMK AO2 T01330111
63871K1J0 1J020160127064011101/27/16 06:40:31  5-MIN K1J0 271240Z AUTO 35005KT 10SM OVC021 13/11 A3005 -20 86 -100 350/05 RMK AO2 T01330111
63871K1J0 1J020160127064511101/27/16 06:45:31  5-MIN K1J0 271245Z AUTO 36005KT 10SM OVC021 13/11 A3004 -20 86 -100 360/05 RMK AO2 T01330111
63871K1J0 1J020160127065011101/27/16 06:50:31  5-MIN K1J0 271250Z AUTO 02005KT 10SM OVC021 13/11 A3004 -20 86 -100 020/05 RMK AO2 T01330111
63871K1J0 1J020160127065511801/27/16 06:55:31  5-MIN K1J0 271255Z AUTO 03005KT 10SM OVC021 13/11 A3004 -20 86 -100 030/05 RMK AO2 SLP156 T01330111
63871K1J0 1J020160127070011101/27/16 07:00:31  5-MIN K1J0 271300Z AUTO 04005KT 10SM OVC021 13/11 A3003 -10 86 -100 040/05 RMK AO2 T01330111
63871K1J0 1J020160127070511101/27/16 07:05:31  5-MIN K1J0 271305Z AUTO 04005KT 10SM OVC020 13/11 A3003 -10 86 -100 040/05 RMK AO2 T01330111
63871K1J0 1J020160127071011101/27/16 07:10:31  5-MIN K1J0 271310Z AUTO 03006KT 10SM OVC020 13/11 A3003 -10 86 -100 030/06 RMK AO2 T01330111
63871K1J0 1J020160127071511101/27/16 07:15:31  5-MIN K1J0 271315Z AUTO 03006KT 10SM OVC020 13/11 A3004 -20 86 -100 030/06 RMK AO2 T01330111
63871K1J0 1J020160127072011101/27/16 07:20:31  5-MIN K1J0 271320Z AUTO 04004KT 10SM OVC020 13/11 A3004 -20 86 -100 040/04 RMK AO2 T01330111
63871K1J0 1J020160127072511101/27/16 07:25:31  5-MIN K1J0 271325Z AUTO 04005KT 10SM OVC020 13/11 A3004 -20 86 -100 040/05 RMK AO2 T01330111
63871K1J0 1J020160127073011101/27/16 07:30:31  5-MIN K1J0 271330Z AUTO 03004KT 10SM OVC020 13/11 A3004 -20 86 -100 030/04 RMK AO2 T01330111
63871K1J0 1J020160127073511101/27/16 07:35:31  5-MIN K1J0 271335Z AUTO 03004KT 10SM OVC021 13/11 A3004 -20 86 -100 030/04 RMK AO2 T01330111
63871K1J0 1J020160127074011101/27/16 07:40:31  5-MIN K1J0 271340Z AUTO 02005KT 10SM OVC023 13/11 A3004 -20 86 -100 020/05 RMK AO2 T01330111
63871K1J0 1J020160127074511101/27/16 07:45:31  5-MIN K1J0 271345Z AUTO 02005KT 10SM OVC023 13/11 A3005 -30 86 -100 020/05 RMK AO2 T01330111
63871K1J0 1J020160127075011001/27/16 07:50:31  5-MIN K1J0 271350Z AUTO 01004KT 9SM OVC023 13/11 A3005 -30 86 -200 010/04 RMK AO2 T01330111
63871K1J0 1J020160127075513301/27/16 07:55:31  5-MIN K1J0 271355Z AUTO 02004KT 7SM -RA OVC023 13/11 A3005 -30 86 -200 020/04 RMK AO2 RAB51 SLP160 P0000 T01330111
63871K1J0 1J020160127080012001/27/16 08:00:31  5-MIN K1J0 271400Z AUTO 03004KT 8SM -RA OVC023 13/12 A3005 -30 89 -200 030/04 RMK AO2 P0000 T01330117
63871K1J0 1J020160127080512301/27/16 08:05:31  5-MIN K1J0 271405Z AUTO 36004KT 10SM OVC024 13/12 A3006 -40 89 -200 360/04 RMK AO2 RAE04 P0000 T01330117
63871K1J0 1J020160127081012301/27/16 08:10:31  5-MIN K1J0 271410Z AUTO 03003KT 10SM OVC024 13/12 A3006 -30 89 -200 030/03 RMK AO2 RAE04 P0000 T01330117
63871K1J0 1J020160127081512301/27/16 08:15:31  5-MIN K1J0 271415Z AUTO 02005KT 10SM OVC024 13/12 A3006 -30 89 -200 020/05 RMK AO2 RAE04 P0000 T01330117
63871K1J0 1J020160127082012301/27/16 08:20:31  5-MIN K1J0 271420Z AUTO 04003KT 10SM OVC024 13/12 A3005 -30 89 -200 040/03 RMK AO2 RAE04 P0000 T01330117
63871K1J0 1J020160127082512301/27/16 08:25:31  5-MIN K1J0 271425Z AUTO 05004KT 10SM OVC024 13/12 A3005 -30 89 -200 050/04 RMK AO2 RAE04 P0000 T01330117
63871K1J0 1J020160127083012301/27/16 08:30:31  5-MIN K1J0 271430Z AUTO 04003KT 10SM OVC024 13/12 A3006 -30 89 -200 040/03 RMK AO2 RAE04 P0000 T01330117
63871K1J0 1J020160127083512301/27/16 08:35:31  5-MIN K1J0 271435Z AUTO 00000KT 10SM OVC024 13/12 A3006 -40 89 -200 000/00 RMK AO2 RAE04 P0000 T01330117
63871K1J0 1J020160127084012301/27/16 08:40:31  5-MIN K1J0 271440Z AUTO 00000KT 10SM OVC024 14/12 A3006 -40 86 -100 000/00 RMK AO2 RAE04 P0000 T01390117
63871K1J0 1J020160127084512301/27/16 08:45:31  5-MIN K1J0 271445Z AUTO 00000KT 10SM OVC024 14/12 A3007 -40 86 -100 000/00 RMK AO2 RAE04 P0000 T01390117
63871K1J0 1J020160127085013001/27/16 08:50:31  5-MIN K1J0 271450Z AUTO 00000KT 10SM FEW018 OVC024 14/12 A3007 -40 86 -100 000/00 RMK AO2 RAE04 P0000 T01390117
63871K1J0 1J020160127085514301/27/16 08:55:31  5-MIN K1J0 271455Z AUTO 00000KT 10SM FEW018 OVC024 14/12 A3007 -40 86 -100 000/00 RMK AO2 RAE04 SLP166 P0000 60000 T01390117
63871K1J0 1J020160127090011801/27/16 09:00:31  5-MIN K1J0 271500Z AUTO 05003KT 10SM FEW017 OVC024 14/12 A3007 -40 86 -100 050/03 RMK AO2 T01390117
63871K1J0 1J020160127090511801/27/16 09:05:31  5-MIN K1J0 271505Z AUTO 04004KT 10SM FEW017 OVC024 14/12 A3006 -40 90 -100 040/04 RMK AO2 T01390122
63871K1J0 1J020160127091011801/27/16 09:10:31  5-MIN K1J0 271510Z AUTO 06003KT 10SM FEW017 OVC024 14/12 A3006 -40 90 -100 060/03 RMK AO2 T01390122
63871K1J0 1J020160127091511801/27/16 09:15:31  5-MIN K1J0 271515Z AUTO 07004KT 10SM FEW017 OVC024 14/12 A3006 -40 90 -100 070/04 RMK AO2 T01390122
63871K1J0 1J020160127092011801/27/16 09:20:31  5-MIN K1J0 271520Z AUTO VRB04KT 10SM FEW017 OVC024 14/12 A3007 -40 86 -100 VRB/04 RMK AO2 T01390117
63871K1J0 1J020160127092511101/27/16 09:25:31  5-MIN K1J0 271525Z AUTO 02004KT 10SM OVC024 14/12 A3007 -40 86 -100 020/04 RMK AO2 T01390117
63871K1J0 1J020160127093011101/27/16 09:30:31  5-MIN K1J0 271530Z AUTO 04004KT 10SM OVC024 14/12 A3007 -50 86 -100 040/04 RMK AO2 T01390117
63871K1J0 1J020160127093511101/27/16 09:35:31  5-MIN K1J0 271535Z AUTO 03003KT 10SM OVC024 14/12 A3007 -50 86 -100 030/03 RMK AO2 T01390117
63871K1J0 1J020160127094011101/27/16 09:40:31  5-MIN K1J0 271540Z AUTO 02005KT 10SM OVC024 14/12 A3007 -40 86 -100 020/05 RMK AO2 T01390117
63871K1J0 1J020160127094511101/27/16 09:45:31  5-MIN K1J0 271545Z AUTO 03005KT 10SM OVC024 14/12 A3007 -40 86 -100 030/05 RMK AO2 T01390117
63871K1J0 1J020160127095010801/27/16 09:50:31  5-MIN K1J0 271550Z AUTO 01004KT 10SM OVC024 14/12 A3007 -40 83 0 010/04 RMK AO2 T01440117
63871K1J0 1J020160127095511501/27/16 09:55:31  5-MIN K1J0 271555Z AUTO 34004KT 10SM OVC024 14/12 A3007 -50 83 0 340/04 RMK AO2 SLP167 T01440117
63871K1J0 1J020160127100010801/27/16 10:00:31  5-MIN K1J0 271600Z AUTO 34004KT 10SM OVC024 14/12 A3007 -50 83 0 340/04 RMK AO2 T01440117
63871K1J0 1J020160127100511501/27/16 10:05:31  5-MIN K1J0 271605Z AUTO 34003KT 10SM FEW014 OVC024 14/12 A3007 -50 83 0 340/03 RMK AO2 T01440117
63871K1J0 1J020160127101011501/27/16 10:10:31  5-MIN K1J0 271610Z AUTO 35004KT 10SM SCT014 OVC024 14/12 A3008 -50 83 0 350/04 RMK AO2 T01440117
63871K1J0 1J020160127101511801/27/16 10:15:31  5-MIN K1J0 271615Z AUTO 00000KT 10SM BKN014 OVC024 14/12 A3008 -60 86 -100 000/00 RMK AO2 T01390117
63871K1J0 1J020160127102013301/27/16 10:20:31  5-MIN K1J0 271620Z AUTO 34005KT 8SM -RA BKN014 OVC024 14/12 A3007 -50 90 -100 340/05 RMK AO2 RAB17 P0000 T01390122
63871K1J0 1J020160127102513301/27/16 10:25:31  5-MIN K1J0 271625Z AUTO 35003KT 8SM -RA BKN015 OVC024 14/12 A3008 -50 90 -100 350/03 RMK AO2 RAB17 P0000 T01390122
63871K1J0 1J020160127103012701/27/16 10:30:31  5-MIN K1J0 271630Z AUTO 31004KT 10SM -RA OVC015 14/12 A3008 -60 90 -100 310/04 RMK AO2 RAB17 P0000 T01390122
63871K1J0 1J020160127103512701/27/16 10:35:31  5-MIN K1J0 271635Z AUTO 00000KT 10SM -RA OVC015 14/12 A3008 -60 90 -100 000/00 RMK AO2 RAB17 P0000 T01390122
63871K1J0 1J020160127104012901/27/16 10:40:31  5-MIN K1J0 271640Z AUTO 00000KT 4SM -RA BR OVC016 14/12 A3008 -60 90 -100 000/00 RMK AO2 RAB17 P0001 T01390122
63871K1J0 1J020160127104512901/27/16 10:45:31  5-MIN K1J0 271645Z AUTO 32003KT 3SM -RA BR OVC016 14/12 A3008 -60 90 -100 320/03 RMK AO2 RAB17 P0002 T01390122
63871K1J0 1J020160127105012901/27/16 10:50:31  5-MIN K1J0 271650Z AUTO 32004KT 6SM -RA BR OVC016 14/12 A3008 -50 90 -100 320/04 RMK AO2 RAB17 P0002 T01390122
63871K1J0 1J020160127105514001/27/16 10:55:31  5-MIN K1J0 271655Z AUTO 32006KT 8SM -RA FEW010 OVC016 14/13 A3008 -50 93 -100 320/06 RMK AO2 RAB17 SLP170 P0002 T01390128
63871K1J0 1J020160127110012701/27/16 11:00:31  5-MIN K1J0 271700Z AUTO 34006KT 9SM -RA SCT010 OVC016 13/12 A3007 -50 93 -200 340/06 RMK AO2 P0000 T01330122
63871K1J0 1J020160127110512801/27/16 11:05:31  5-MIN K1J0 271705Z AUTO 35004KT 10SM -RA SCT010 OVC016 13/13 A3007 -50 96 -200 350/04 RMK AO2 P0000 T01330128
63871K1J0 1J020160127111013001/27/16 11:10:31  5-MIN K1J0 271710Z AUTO 33004KT 10SM SCT010 OVC018 13/12 A3007 -50 93 -200 330/04 RMK AO2 RAE07 P0000 T01330122
63871K1J0 1J020160127111513401/27/16 11:15:31  5-MIN K1J0 271715Z AUTO 34006KT 7SM -RA FEW006 SCT010 OVC018 13/12 A3007 -50 93 -200 340/06 RMK AO2 P0000 T01330122
63871K1J0 1J020160127112013601/27/16 11:20:31  5-MIN K1J0 271720Z AUTO 36005KT 4SM RA BR FEW006 BKN018 OVC032 13/12 A3006 -40 93 -200 360/05 RMK AO2 P0003 T01330122
63871K1J0 1J020160127112513601/27/16 11:25:31  5-MIN K1J0 271725Z AUTO 34004KT 3SM RA BR SCT007 BKN018 OVC035 13/12 A3006 -40 93 -200 340/04 RMK AO2 P0004 T01330122
63871K1J0 1J020160127113013701/27/16 11:30:31  5-MIN K1J0 271730Z AUTO 34005KT 3SM -RA BR SCT005 BKN019 OVC035 13/13 A3006 -40 96 -200 340/05 RMK AO2 P0004 T01330128
63871K1J0 1J020160127113513701/27/16 11:35:31  5-MIN K1J0 271735Z AUTO 36007KT 6SM -RA BR SCT005 BKN019 OVC042 13/12 A3006 -30 93 -200 360/07 RMK AO2 P0004 T01330122
63871K1J0 1J020160127114013401/27/16 11:40:31  5-MIN K1J0 271740Z AUTO 01008KT 9SM -RA BKN006 BKN019 OVC042 13/12 A3005 -30 93 -200 010/08 RMK AO2 P0004 T01330122
63871K1J0 1J020160127114513501/27/16 11:45:31  5-MIN K1J0 271745Z AUTO 01005KT 10SM -RA BKN006 BKN027 OVC035 13/12 A3005 -30 93 -100 010/05 RMK AO2 P0004 T01330122
63871K1J0 1J020160127115014201/27/16 11:50:31  5-MIN K1J0 271750Z AUTO 35007KT 10SM BKN006 OVC041 13/12 A3004 -20 93 -100 350/07 RMK AO2 RAE49 CIG 005V009 P0004 T01330122
63871K1J0 1J020160127115516601/27/16 11:55:31  5-MIN K1J0 271755Z AUTO 01004KT 10SM OVC006 13/12 A3004 -20 93 -100 010/04 RMK AO2 RAE49 CIG 005V009 SLP157 P0004 60006 T01330122 10144 20133 53014
63871K1J0 1J020160127120012301/27/16 12:00:31  5-MIN K1J0 271800Z AUTO 01008KT 10SM OVC006 13/12 A3003 -10 93 -100 010/08 RMK AO2 CIG 005V009 T01330122
63871K1J0 1J020160127120512301/27/16 12:05:31  5-MIN K1J0 271805Z AUTO 02006KT 10SM OVC006 13/12 A3003 -10 93 -100 020/06 RMK AO2 CIG 005V009 T01330122
63871K1J0 1J020160127121011101/27/16 12:10:31  5-MIN K1J0 271810Z AUTO 02006KT 10SM OVC006 13/13 A3003 -10 96 -100 020/06 RMK AO2 T01330128
63871K1J0 1J020160127121511101/27/16 12:15:31  5-MIN K1J0 271815Z AUTO 02006KT 10SM OVC006 14/13 A3003 -10 93 -100 020/06 RMK AO2 T01390128
63871K1J0 1J020160127122010901/27/16 12:20:31  5-MIN K1J0 271820Z AUTO 01007KT 10SM OVC006 14/13 A3002 0 93 -100 010/07 RMK AO2 T01390128
63871K1J0 1J020160127122510601/27/16 12:25:31  5-MIN K1J0 271825Z AUTO 01006KT 10SM OVC006 14/13 A3002 0 93 0 010/06 RMK AO2 T01390128
63871K1J0 1J020160127123011801/27/16 12:30:31  5-MIN K1J0 271830Z AUTO 02005KT 10SM OVC006 14/13 A3002 0 96 0 020/05 RMK AO2 CIG 005V010 T01390133
63871K1J0 1J020160127123510901/27/16 12:35:31  5-MIN K1J0 271835Z AUTO 05005KT 10SM OVC006 14/13 A3002 0 93 -100 050/05 RMK AO2 T01390128
63871K1J0 1J020160127124010601/27/16 12:40:31  5-MIN K1J0 271840Z AUTO 02006KT 10SM OVC006 14/13 A3002 0 93 0 020/06 RMK AO2 T01390128
63871K1J0 1J020160127124510601/27/16 12:45:31  5-MIN K1J0 271845Z AUTO 36008KT 10SM OVC006 14/13 A3002 0 93 0 360/08 RMK AO2 T01390128
63871K1J0 1J020160127125012101/27/16 12:50:31  5-MIN K1J0 271850Z AUTO 36006KT 10SM OVC006 13/12 A3002 0 93 -100 360/06 RMK AO2 CIG 006V010 T01330122
63871K1J0 1J020160127125511601/27/16 12:55:31  5-MIN K1J0 271855Z AUTO 35007KT 10SM OVC007 13/12 A3002 0 93 -100 350/07 RMK AO2 SLP150 T01330122
63871K1J0 1J020160127130011801/27/16 13:00:31  5-MIN K1J0 271900Z AUTO 35006KT 10SM OVC007 14/12 A3002 0 90 0 350/06 RMK AO2 CIG 006V010 T01390122
63871K1J0 1J020160127130510601/27/16 13:05:31  5-MIN K1J0 271905Z AUTO 34007KT 10SM OVC008 14/12 A3001 0 90 0 340/07 RMK AO2 T01390122
63871K1J0 1J020160127131010901/27/16 13:10:31  5-MIN K1J0 271910Z AUTO 34008KT 10SM OVC008 13/12 A3001 0 93 -100 340/08 RMK AO2 T01330122
63871K1J0 1J020160127131510901/27/16 13:15:31  5-MIN K1J0 271915Z AUTO 35006KT 10SM OVC008 13/12 A3001 0 93 -100 350/06 RMK AO2 T01330122
63871K1J0 1J020160127132011001/27/16 13:20:31  5-MIN K1J0 271920Z AUTO 01008KT 10SM OVC008 13/12 A3001 10 93 -100 010/08 RMK AO2 T01330122
63871K1J0 1J020160127132510601/27/16 13:25:31  5-MIN K1J0 271925Z AUTO 35009KT 10SM OVC008 14/12 A3001 0 90 0 350/09 RMK AO2 T01390122
63871K1J0 1J020160127133011001/27/16 13:30:31  5-MIN K1J0 271930Z AUTO 36006KT 10SM OVC008 13/12 A3001 10 93 -100 360/06 RMK AO2 T01330122
63871K1J0 1J020160127133510701/27/16 13:35:31  5-MIN K1J0 271935Z AUTO 35008KT 10SM OVC008 14/12 A3001 10 90 0 350/08 RMK AO2 T01390122
63871K1J0 1J020160127134011001/27/16 13:40:31  5-MIN K1J0 271940Z AUTO 36009KT 10SM OVC008 13/12 A3000 10 93 -100 360/09 RMK AO2 T01330122
63871K1J0 1J020160127134511001/27/16 13:45:31  5-MIN K1J0 271945Z AUTO 35005KT 10SM OVC007 13/12 A3001 10 93 -100 350/05 RMK AO2 T01330122
63871K1J0 1J020160127135011001/27/16 13:50:31  5-MIN K1J0 271950Z AUTO 02009KT 10SM OVC007 13/12 A3000 10 93 -100 020/09 RMK AO2 T01330122
63871K1J0 1J020160127135511701/27/16 13:55:31  5-MIN K1J0 271955Z AUTO 35007KT 10SM OVC007 13/12 A3000 10 93 -100 350/07 RMK AO2 SLP144 T01330122
63871K1J0 1J020160127140011001/27/16 14:00:31  5-MIN K1J0 272000Z AUTO 35008KT 10SM OVC007 13/12 A3000 10 93 -100 350/08 RMK AO2 T01330122
63871K1J0 1J020160127140511001/27/16 14:05:31  5-MIN K1J0 272005Z AUTO 01008KT 10SM OVC007 13/12 A3000 10 93 -100 010/08 RMK AO2 T01330122
63871K1J0 1J020160127141012201/27/16 14:10:31  5-MIN K1J0 272010Z AUTO 02008KT 10SM OVC008 13/12 A3000 20 89 -100 020/08 RMK AO2 CIG 007V011 T01330117
63871K1J0 1J020160127141512201/27/16 14:15:31  5-MIN K1J0 272015Z AUTO 02009KT 10SM OVC008 13/12 A3000 20 89 -100 020/09 RMK AO2 CIG 007V011 T01330117
63871K1J0 1J020160127142011001/27/16 14:20:31  5-MIN K1J0 272020Z AUTO 03009KT 10SM OVC008 13/12 A2999 20 89 -100 030/09 RMK AO2 T01330117
63871K1J0 1J020160127142511001/27/16 14:25:31  5-MIN K1J0 272025Z AUTO 03009KT 10SM OVC008 13/12 A2999 20 89 -100 030/09 RMK AO2 T01330117
63871K1J0 1J020160127143011001/27/16 14:30:31  5-MIN K1J0 272030Z AUTO 03006KT 10SM OVC009 13/12 A2999 20 89 -100 030/06 RMK AO2 T01330117
63871K1J0 1J020160127143511001/27/16 14:35:31  5-MIN K1J0 272035Z AUTO 06008KT 10SM OVC009 13/12 A2998 30 89 -100 060/08 RMK AO2 T01330117
63871K1J0 1J020160127144010701/27/16 14:40:31  5-MIN K1J0 272040Z AUTO 04007KT 10SM OVC009 14/12 A2998 30 90 0 040/07 RMK AO2 T01390122
63871K1J0 1J020160127144510701/27/16 14:45:31  5-MIN K1J0 272045Z AUTO 03008KT 10SM OVC009 14/12 A2997 40 86 0 030/08 RMK AO2 T01390117
63871K1J0 1J020160127145010701/27/16 14:50:31  5-MIN K1J0 272050Z AUTO 03006KT 10SM OVC009 14/12 A2998 30 86 0 030/06 RMK AO2 T01390117
63871K1J0 1J020160127145512001/27/16 14:55:31  5-MIN K1J0 272055Z AUTO 04008KT 10SM OVC009 14/12 A2997 40 90 0 040/08 RMK AO2 SLP135 T01390122 58010
63871K1J0 1J020160127150010701/27/16 15:00:31  5-MIN K1J0 272100Z AUTO 04008KT 10SM OVC009 14/12 A2998 30 86 0 040/08 RMK AO2 T01390117
63871K1J0 1J020160127150510701/27/16 15:05:31  5-MIN K1J0 272105Z AUTO 02006KT 10SM OVC009 14/12 A2999 20 86 0 020/06 RMK AO2 T01390117
63871K1J0 1J020160127151010701/27/16 15:10:31  5-MIN K1J0 272110Z AUTO 01009KT 10SM OVC010 14/12 A3000 20 86 0 010/09 RMK AO2 T01390117
63871K1J0 1J020160127151510701/27/16 15:15:31  5-MIN K1J0 272115Z AUTO 36008KT 10SM OVC010 14/12 A3000 10 86 0 360/08 RMK AO2 T01390117
63871K1J0 1J020160127152010701/27/16 15:20:31  5-MIN K1J0 272120Z AUTO 36008KT 10SM OVC010 14/12 A3000 10 86 0 360/08 RMK AO2 T01390117
63871K1J0 1J020160127152510701/27/16 15:25:31  5-MIN K1J0 272125Z AUTO 35009KT 10SM OVC010 14/12 A3000 10 86 0 350/09 RMK AO2 T01390117
63871K1J0 1J020160127153011001/27/16 15:30:31  5-MIN K1J0 272130Z AUTO 36008KT 10SM OVC010 13/12 A3000 20 89 -100 360/08 RMK AO2 T01330117
63871K1J0 1J020160127153511001/27/16 15:35:31  5-MIN K1J0 272135Z AUTO 36009KT 10SM OVC010 13/12 A3000 10 89 -100 360/09 RMK AO2 T01330117
63871K1J0 1J020160127154010701/27/16 15:40:31  5-MIN K1J0 272140Z AUTO 01008KT 10SM OVC011 14/12 A3000 20 86 0 010/08 RMK AO2 T01390117
63871K1J0 1J020160127154511001/27/16 15:45:31  5-MIN K1J0 272145Z AUTO 02008KT 10SM OVC011 13/12 A2999 20 89 -100 020/08 RMK AO2 T01330117
63871K1J0 1J020160127155011001/27/16 15:50:31  5-MIN K1J0 272150Z AUTO 01007KT 10SM OVC011 13/12 A3000 10 89 -100 010/07 RMK AO2 T01330117
63871K1J0 1J020160127155511601/27/16 15:55:31  5-MIN K1J0 272155Z AUTO 35005KT 10SM OVC011 13/12 A3001 0 89 -100 350/05 RMK AO2 SLP146 T01330117
63871K1J0 1J020160127160010901/27/16 16:00:31  5-MIN K1J0 272200Z AUTO 36004KT 10SM OVC011 13/12 A3001 0 89 -100 360/04 RMK AO2 T01330117
63871K1J0 1J020160127160511601/27/16 16:05:31  5-MIN K1J0 272205Z AUTO 36007KT 10SM OVC011 13/12 A3002 0 89 -100 360/07 RMK AO2 PRESRR T01330117
63871K1J0 1J020160127161010901/27/16 16:10:31  5-MIN K1J0 272210Z AUTO 35006KT 10SM OVC010 13/12 A3002 0 89 -100 350/06 RMK AO2 T01330117
63871K1J0 1J020160127161510901/27/16 16:15:31  5-MIN K1J0 272215Z AUTO 35006KT 10SM OVC010 13/12 A3002 0 89 -100 350/06 RMK AO2 T01330117
63871K1J0 1J020160127162010901/27/16 16:20:31  5-MIN K1J0 272220Z AUTO 36007KT 10SM OVC010 13/12 A3001 0 89 -100 360/07 RMK AO2 T01330117
63871K1J0 1J020160127162510901/27/16 16:25:31  5-MIN K1J0 272225Z AUTO 36004KT 10SM OVC010 13/12 A3002 0 89 -100 360/04 RMK AO2 T01330117
63871K1J0 1J020160127163010901/27/16 16:30:31  5-MIN K1J0 272230Z AUTO 02008KT 10SM OVC010 13/12 A3001 0 89 -100 020/08 RMK AO2 T01330117
63871K1J0 1J020160127163510901/27/16 16:35:31  5-MIN K1J0 272235Z AUTO 01008KT 10SM OVC011 13/11 A3001 0 86 -100 010/08 RMK AO2 T01330111
63871K1J0 1J020160127164010901/27/16 16:40:31  5-MIN K1J0 272240Z AUTO 01008KT 10SM OVC011 13/12 A3001 0 89 -100 010/08 RMK AO2 T01330117
63871K1J0 1J020160127164512501/27/16 16:45:31  5-MIN K1J0 272245Z AUTO 01006KT 10SM -RA OVC011 13/11 A3002 0 86 -100 010/06 RMK AO2 RAB41 P0000 T01330111
63871K1J0 1J020160127165012501/27/16 16:50:31  5-MIN K1J0 272250Z AUTO 36006KT 10SM -RA OVC011 13/12 A3002 0 89 -100 360/06 RMK AO2 RAB41 P0000 T01330117
63871K1J0 1J020160127165513101/27/16 16:55:31  5-MIN K1J0 272255Z AUTO 01008KT 10SM OVC011 13/12 A3001 0 89 -100 010/08 RMK AO2 RAB41E52 SLP148 P0000 T01330117
63871K1J0 1J020160127170010901/27/16 17:00:31  5-MIN K1J0 272300Z AUTO 03007KT 10SM OVC011 13/12 A3001 0 93 -200 030/07 RMK AO2 T01280117
63871K1J0 1J020160127170510901/27/16 17:05:31  5-MIN K1J0 272305Z AUTO 03005KT 10SM OVC011 13/12 A3001 0 93 -200 030/05 RMK AO2 T01280117
63871K1J0 1J020160127171010901/27/16 17:10:31  5-MIN K1J0 272310Z AUTO 01005KT 10SM OVC011 13/12 A3001 0 93 -200 010/05 RMK AO2 T01280117
63871K1J0 1J020160127171510901/27/16 17:15:31  5-MIN K1J0 272315Z AUTO 35004KT 10SM OVC011 13/12 A3001 0 93 -200 350/04 RMK AO2 T01280117
63871K1J0 1J020160127172010901/27/16 17:20:31  5-MIN K1J0 272320Z AUTO 36006KT 10SM OVC011 13/12 A3002 0 93 -200 360/06 RMK AO2 T01280117
63871K1J0 1J020160127172511601/27/16 17:25:31  5-MIN K1J0 272325Z AUTO 35007KT 10SM BKN009 OVC013 13/12 A3002 0 93 -200 350/07 RMK AO2 T01280117
63871K1J0 1J020160127173012301/27/16 17:30:31  5-MIN K1J0 272330Z AUTO 36008KT 10SM OVC009 13/12 A3003 -10 93 -200 360/08 RMK AO2 CIG 007V013 T01280117
63871K1J0 1J020160127173512301/27/16 17:35:31  5-MIN K1J0 272335Z AUTO 35008KT 10SM OVC009 13/11 A3003 -10 89 -200 350/08 RMK AO2 CIG 007V011 T01280111
63871K1J0 1J020160127174011101/27/16 17:40:31  5-MIN K1J0 272340Z AUTO 35008KT 10SM OVC009 13/11 A3003 -10 89 -200 350/08 RMK AO2 T01280111
63871K1J0 1J020160127174511101/27/16 17:45:31  5-MIN K1J0 272345Z AUTO 36008KT 10SM OVC008 12/11 A3003 -10 93 -300 360/08 RMK AO2 T01220111
63871K1J0 1J020160127175011101/27/16 17:50:31  5-MIN K1J0 272350Z AUTO 36008KT 10SM OVC008 12/11 A3003 -10 93 -300 360/08 RMK AO2 T01220111
63871K1J0 1J020160127175514201/27/16 17:55:31  5-MIN K1J0 272355Z AUTO 35007KT 10SM OVC008 12/11 A3004 -20 93 -300 350/07 RMK AO2 SLP156 60000 T01220111 10139 20122 58019
63871K1J0 1J020160127180011101/27/16 18:00:31  5-MIN K1J0 280000Z AUTO 35008KT 10SM OVC008 12/11 A3004 -20 93 -300 350/08 RMK AO2 T01220111
63871K1J0 1J020160127180511101/27/16 18:05:31  5-MIN K1J0 280005Z AUTO 36007KT 10SM OVC008 12/11 A3004 -20 93 -300 360/07 RMK AO2 T01220111
63871K1J0 1J020160127181011101/27/16 18:10:31  5-MIN K1J0 280010Z AUTO 35008KT 10SM OVC008 12/11 A3004 -20 93 -300 350/08 RMK AO2 T01220111
63871K1J0 1J020160127181511101/27/16 18:15:31  5-MIN K1J0 280015Z AUTO 34006KT 10SM OVC008 12/11 A3004 -20 89 -300 340/06 RMK AO2 T01220106
63871K1J0 1J020160127182011101/27/16 18:20:31  5-MIN K1J0 280020Z AUTO 35005KT 10SM OVC009 12/11 A3004 -20 89 -300 350/05 RMK AO2 T01220106
63871K1J0 1J020160127182512701/27/16 18:25:31  5-MIN K1J0 280025Z AUTO 35006KT 10SM -RA OVC009 12/11 A3004 -20 89 -300 350/06 RMK AO2 RAB23 P0000 T01220106
63871K1J0 1J020160127183012501/27/16 18:30:31  5-MIN K1J0 280030Z AUTO 02007KT 7SM RA OVC009 12/11 A3004 -20 89 -300 020/07 RMK AO2 RAB23 P0001 T01220106
63871K1J0 1J020160127183512901/27/16 18:35:31  5-MIN K1J0 280035Z AUTO 03006KT 6SM -RA BR OVC009 12/11 A3004 -20 89 -300 030/06 RMK AO2 RAB23 P0001 T01220106
63871K1J0 1J020160127184012601/27/16 18:40:31  5-MIN K1J0 280040Z AUTO 36007KT 9SM -RA OVC010 12/11 A3004 -10 93 -300 360/07 RMK AO2 RAB23 P0001 T01220111
63871K1J0 1J020160127184512701/27/16 18:45:31  5-MIN K1J0 280045Z AUTO 35006KT 10SM -RA OVC010 12/11 A3004 -20 93 -300 350/06 RMK AO2 RAB23 P0001 T01220111
63871K1J0 1J020160127185012601/27/16 18:50:31  5-MIN K1J0 280050Z AUTO 35006KT 10SM OVC010 12/11 A3004 -20 93 -300 350/06 RMK AO2 RAB23E49 P0001 T01220111
63871K1J0 1J020160127185513301/27/16 18:55:31  5-MIN K1J0 280055Z AUTO 34008KT 10SM OVC010 12/11 A3004 -20 96 -300 340/08 RMK AO2 RAB23E49 SLP158 P0001 T01170111
63871K1J0 1J020160127190011101/27/16 19:00:31  5-MIN K1J0 280100Z AUTO 35007KT 10SM OVC010 12/11 A3005 -30 93 -300 350/07 RMK AO2 T01170106
63871K1J0 1J020160127190511101/27/16 19:05:31  5-MIN K1J0 280105Z AUTO 34004KT 10SM OVC010 12/11 A3005 -30 93 -300 340/04 RMK AO2 T01170106
63871K1J0 1J020160127191011101/27/16 19:10:31  5-MIN K1J0 280110Z AUTO 34004KT 10SM OVC010 12/11 A3005 -30 93 -400 340/04 RMK AO2 T01170106
63871K1J0 1J020160127191512701/27/16 19:15:31  5-MIN K1J0 280115Z AUTO 35005KT 10SM -RA OVC010 12/11 A3005 -30 93 -300 350/05 RMK AO2 RAB15 P0000 T01170106
63871K1J0 1J020160127192012601/27/16 19:20:31  5-MIN K1J0 280120Z AUTO 34005KT 7SM -RA OVC010 12/11 A3005 -30 93 -300 340/05 RMK AO2 RAB15 P0001 T01170106
63871K1J0 1J020160127192512901/27/16 19:25:31  5-MIN K1J0 280125Z AUTO 36007KT 6SM -RA BR OVC011 12/11 A3004 -20 93 -300 360/07 RMK AO2 RAB15 P0001 T01170106
63871K1J0 1J020160127193012901/27/16 19:30:31  5-MIN K1J0 280130Z AUTO 36007KT 6SM -RA BR OVC011 12/10 A3004 -20 89 -300 360/07 RMK AO2 RAB15 P0001 T01170100
63871K1J0 1J020160127193512901/27/16 19:35:31  5-MIN K1J0 280135Z AUTO 36005KT 5SM -RA BR OVC011 12/10 A3004 -20 89 -300 360/05 RMK AO2 RAB15 P0001 T01170100
63871K1J0 1J020160127194012901/27/16 19:40:31  5-MIN K1J0 280140Z AUTO 36005KT 6SM -RA BR OVC012 11/10 A3005 -30 93 -400 360/05 RMK AO2 RAB15 P0001 T01110100
63871K1J0 1J020160127194512601/27/16 19:45:31  5-MIN K1J0 280145Z AUTO 35004KT 8SM -RA OVC012 11/11 A3005 -30 96 -400 350/04 RMK AO2 RAB15 P0001 T01110106
63871K1J0 1J020160127195013401/27/16 19:50:31  5-MIN K1J0 280150Z AUTO 01005KT 10SM -RA BKN012 OVC020 11/10 A3005 -30 93 -400 010/05 RMK AO2 RAB15 P0001 T01110100
63871K1J0 1J020160127195514001/27/16 19:55:31  5-MIN K1J0 280155Z AUTO 35004KT 10SM BKN013 OVC020 11/10 A3005 -30 93 -400 350/04 RMK AO2 RAB15E55 SLP161 P0001 T01110100
63871K1J0 1J020160127200011801/27/16 20:00:31  5-MIN K1J0 280200Z AUTO 35004KT 10SM BKN013 OVC020 11/10 A3005 -30 93 -400 350/04 RMK AO2 T01110100
63871K1J0 1J020160127200511101/27/16 20:05:31  5-MIN K1J0 280205Z AUTO 35004KT 10SM OVC015 11/10 A3006 -30 93 -400 350/04 RMK AO2 T01110100
63871K1J0 1J020160127201011101/27/16 20:10:31  5-MIN K1J0 280210Z AUTO 36005KT 10SM OVC015 11/10 A3006 -30 93 -400 360/05 RMK AO2 T01110100
63871K1J0 1J020160127201512701/27/16 20:15:31  5-MIN K1J0 280215Z AUTO 00000KT 10SM -RA OVC015 11/10 A3006 -40 93 -400 000/00 RMK AO2 RAB11 P0000 T01110100
63871K1J0 1J020160127202012701/27/16 20:20:31  5-MIN K1J0 280220Z AUTO 35004KT 10SM -RA OVC015 11/10 A3006 -40 93 -400 350/04 RMK AO2 RAB11 P0000 T01110100
63871K1J0 1J020160127202513601/27/16 20:25:31  5-MIN K1J0 280225Z AUTO 36005KT 6SM -RA BR BKN017 OVC036 11/10 A3006 -30 93 -400 360/05 RMK AO2 RAB11 P0001 T01110100
63871K1J0 1J020160127203013301/27/16 20:30:31  5-MIN K1J0 280230Z AUTO 01004KT 7SM -RA BKN017 OVC055 11/10 A3005 -30 93 -400 010/04 RMK AO2 RAB11 P0001 T01110100
63871K1J0 1J020160127203513401/27/16 20:35:31  5-MIN K1J0 280235Z AUTO 02006KT 10SM -RA BKN017 OVC055 11/10 A3005 -30 93 -400 020/06 RMK AO2 RAB11 P0001 T01110100
63871K1J0 1J020160127204013401/27/16 20:40:31  5-MIN K1J0 280240Z AUTO 02006KT 10SM -RA BKN017 OVC055 11/10 A3005 -30 93 -400 020/06 RMK AO2 RAB11 P0001 T01110100
63871K1J0 1J020160127204514001/27/16 20:45:31  5-MIN K1J0 280245Z AUTO 03007KT 9SM -RA BKN017 BKN055 OVC080 11/10 A3004 -20 93 -400 030/07 RMK AO2 RAB11 P0001 T01110100
63871K1J0 1J020160127205014001/27/16 20:50:31  5-MIN K1J0 280250Z AUTO 04008KT 9SM -RA BKN019 BKN055 OVC080 11/10 A3003 -10 93 -400 040/08 RMK AO2 RAB11 P0001 T01110100
63871K1J0 1J020160127205516001/27/16 20:55:31  5-MIN K1J0 280255Z AUTO 02005KT 10SM -RA BKN019 BKN055 OVC085 11/10 A3004 -20 93 -400 020/05 RMK AO2 RAB11 SLP157 P0001 60003 T01110100 51021
63871K1J0 1J020160127210012801/27/16 21:00:31  5-MIN K1J0 280300Z AUTO 36004KT 10SM -RA BKN019 OVC085 11/10 A3004 -20 93 -400 360/04 RMK AO2 P0000 T01110100
63871K1J0 1J020160127210513001/27/16 21:05:31  5-MIN K1J0 280305Z AUTO 01005KT 10SM BKN019 OVC085 11/10 A3004 -20 93 -400 010/05 RMK AO2 RAE03 P0000 T01110100
63871K1J0 1J020160127211013001/27/16 21:10:31  5-MIN K1J0 280310Z AUTO 01006KT 10SM BKN018 OVC085 11/10 A3004 -20 93 -400 010/06 RMK AO2 RAE03 P0000 T01110100
63871K1J0 1J020160127211512301/27/16 21:15:31  5-MIN K1J0 280315Z AUTO 01005KT 10SM OVC018 11/10 A3004 -20 93 -400 010/05 RMK AO2 RAE03 P0000 T01110100
63871K1J0 1J020160127212013001/27/16 21:20:31  5-MIN K1J0 280320Z AUTO 01005KT 10SM FEW010 OVC018 11/10 A3004 -20 93 -400 010/05 RMK AO2 RAE03 P0000 T01110100
63871K1J0 1J020160127212513001/27/16 21:25:31  5-MIN K1J0 280325Z AUTO 34005KT 10SM SCT010 OVC018 11/10 A3005 -30 93 -400 340/05 RMK AO2 RAE03 P0000 T01110100
63871K1J0 1J020160127213013001/27/16 21:30:31  5-MIN K1J0 280330Z AUTO 01004KT 10SM SCT010 OVC018 11/10 A3004 -20 93 -400 010/04 RMK AO2 RAE03 P0000 T01110100
63871K1J0 1J020160127213513001/27/16 21:35:31  5-MIN K1J0 280335Z AUTO 36005KT 10SM SCT010 OVC018 11/10 A3004 -20 93 -400 360/05 RMK AO2 RAE03 P0000 T01110100
63871K1J0 1J020160127214013001/27/16 21:40:31  5-MIN K1J0 280340Z AUTO 35006KT 10SM BKN010 OVC018 11/10 A3005 -30 93 -400 350/06 RMK AO2 RAE03 P0000 T01110100
63871K1J0 1J020160127214513001/27/16 21:45:31  5-MIN K1J0 280345Z AUTO 35006KT 10SM BKN012 OVC018 11/10 A3005 -30 93 -400 350/06 RMK AO2 RAE03 P0000 T01110100
63871K1J0 1J020160127215013001/27/16 21:50:31  5-MIN K1J0 280350Z AUTO 36004KT 10SM BKN012 OVC016 11/10 A3005 -30 93 -400 360/04 RMK AO2 RAE03 P0000 T01110100
63871K1J0 1J020160127215512001/27/16 21:55:31  5-MIN K1J0 280355Z AUTO 36004KT 10SM SCT011 OVC016 11/10 A3005 -30 93 -400 360/04 RMK AO2 RAE03 P0000
63871K1J0 1J020160127220011801/27/16 22:00:31  5-MIN K1J0 280400Z AUTO 35004KT 10SM BKN011 OVC016 11/10 A3005 -30 93 -400 350/04 RMK AO2 T01110100
63871K1J0 1J020160127220511101/27/16 22:05:31  5-MIN K1J0 280405Z AUTO 36003KT 10SM OVC013 11/10 A3005 -30 93 -400 360/03 RMK AO2 T01110100
63871K1J0 1J020160127221011801/27/16 22:10:31  5-MIN K1J0 280410Z AUTO 01004KT 10SM BKN011 OVC016 11/10 A3005 -30 93 -400 010/04 RMK AO2 T01110100
63871K1J0 1J020160127221511801/27/16 22:15:31  5-MIN K1J0 280415Z AUTO 36004KT 10SM BKN011 OVC016 11/10 A3004 -20 93 -400 360/04 RMK AO2 T01110100
63871K1J0 1J020160127222011101/27/16 22:20:31  5-MIN K1J0 280420Z AUTO 35004KT 10SM OVC011 11/10 A3004 -20 93 -400 350/04 RMK AO2 T01110100
63871K1J0 1J020160127222511101/27/16 22:25:31  5-MIN K1J0 280425Z AUTO 36004KT 10SM OVC011 11/10 A3004 -20 93 -400 360/04 RMK AO2 T01110100
63871K1J0 1J020160127223011101/27/16 22:30:31  5-MIN K1J0 280430Z AUTO 01004KT 10SM OVC011 11/10 A3003 -10 96 -500 010/04 RMK AO2 T01060100
63871K1J0 1J020160127223511101/27/16 22:35:31  5-MIN K1J0 280435Z AUTO 36004KT 10SM OVC011 11/10 A3003 -10 96 -500 360/04 RMK AO2 T01060100
63871K1J0 1J020160127224011101/27/16 22:40:31  5-MIN K1J0 280440Z AUTO 35004KT 10SM OVC011 11/10 A3003 -10 96 -500 350/04 RMK AO2 T01060100
63871K1J0 1J020160127224511101/27/16 22:45:31  5-MIN K1J0 280445Z AUTO 36005KT 10SM OVC011 11/10 A3003 -10 96 -500 360/05 RMK AO2 T01060100
63871K1J0 1J020160127225011101/27/16 22:50:31  5-MIN K1J0 280450Z AUTO 36006KT 10SM OVC011 11/10 A3003 -10 96 -500 360/06 RMK AO2 T01060100
63871K1J0 1J020160127225511801/27/16 22:55:31  5-MIN K1J0 280455Z AUTO 36004KT 10SM OVC011 11/10 A3003 -10 96 -500 360/04 RMK AO2 SLP152 T01060100
63871K1J0 1J020160127230012301/27/16 23:00:31  5-MIN K1J0 280500Z AUTO 34006KT 10SM OVC009 11/10 A3003 -10 96 -500 340/06 RMK AO2 CIG 007V011 T01060100
63871K1J0 1J020160127230512301/27/16 23:05:31  5-MIN K1J0 280505Z AUTO 33005KT 10SM OVC009 11/09 A3003 -10 93 -500 330/05 RMK AO2 CIG 007V011 T01060094
63871K1J0 1J020160127231012301/27/16 23:10:31  5-MIN K1J0 280510Z AUTO 34003KT 10SM OVC009 11/09 A3003 -10 93 -500 340/03 RMK AO2 CIG 007V015 T01060094
63871K1J0 1J020160127231512301/27/16 23:15:31  5-MIN K1J0 280515Z AUTO 35004KT 10SM OVC009 11/09 A3003 -10 93 -500 350/04 RMK AO2 CIG 007V014 T01060094
63871K1J0 1J020160127232012301/27/16 23:20:31  5-MIN K1J0 280520Z AUTO 36004KT 10SM OVC009 11/09 A3003 -10 93 -500 360/04 RMK AO2 CIG 007V013 T01060094
63871K1J0 1J020160127232510901/27/16 23:25:31  5-MIN K1J0 280525Z AUTO 34004KT 10SM OVC010 11/09 A3002 0 93 -500 340/04 RMK AO2 T01060094
63871K1J0 1J020160127233010901/27/16 23:30:31  5-MIN K1J0 280530Z AUTO 35004KT 10SM OVC010 11/09 A3002 0 93 -400 350/04 RMK AO2 T01060094
63871K1J0 1J020160127233510901/27/16 23:35:31  5-MIN K1J0 280535Z AUTO 35004KT 10SM OVC010 11/09 A3002 0 93 -400 350/04 RMK AO2 T01060094
63871K1J0 1J020160127234010901/27/16 23:40:31  5-MIN K1J0 280540Z AUTO 34005KT 10SM OVC011 11/09 A3002 0 93 -500 340/05 RMK AO2 T01060094
63871K1J0 1J020160127234510901/27/16 23:45:31  5-MIN K1J0 280545Z AUTO 34006KT 10SM OVC011 10/09 A3002 0 93 -500 340/06 RMK AO2 T01000089
63871K1J0 1J020160127235010901/27/16 23:50:31  5-MIN K1J0 280550Z AUTO 35006KT 10SM OVC011 10/08 A3001 0 89 -500 350/06 RMK AO2 T01000083
63871K1J0 1J020160127235515001/27/16 23:55:31  5-MIN K1J0 280555Z AUTO 35006KT 10SM OVC011 10/08 A3001 0 89 -500 350/06 RMK AO2 SLP147 60003 T01000083 10122 20100 401500100 50002
63871K1J0 1J020160128000011001/28/16 00:00:31  5-MIN K1J0 280600Z AUTO 35005KT 10SM OVC011 10/08 A3001 10 89 -500 350/05 RMK AO2 T01000083
63871K1J0 1J020160128000511001/28/16 00:05:31  5-MIN K1J0 280605Z AUTO 35005KT 10SM OVC011 10/08 A3000 10 89 -500 350/05 RMK AO2 T01000083
63871K1J0 1J020160128001011001/28/16 00:10:31  5-MIN K1J0 280610Z AUTO 35006KT 10SM OVC011 10/08 A3000 10 89 -500 350/06 RMK AO2 T01000083
63871K1J0 1J020160128001511001/28/16 00:15:31  5-MIN K1J0 280615Z AUTO 35008KT 10SM OVC011 10/08 A3000 10 89 -500 350/08 RMK AO2 T01000083
63871K1J0 1J020160128002011001/28/16 00:20:31  5-MIN K1J0 280620Z AUTO 35006KT 10SM OVC011 10/08 A3000 10 86 -500 350/06 RMK AO2 T01000078
63871K1J0 1J020160128002511001/28/16 00:25:31  5-MIN K1J0 280625Z AUTO 34006KT 10SM OVC011 10/08 A3000 10 86 -500 340/06 RMK AO2 T01000078
63871K1J0 1J020160128003011001/28/16 00:30:31  5-MIN K1J0 280630Z AUTO 35007KT 10SM OVC011 10/08 A3000 10 86 -500 350/07 RMK AO2 T01000078
63871K1J0 1J020160128003511001/28/16 00:35:31  5-MIN K1J0 280635Z AUTO 35005KT 10SM OVC011 09/08 A3000 10 89 -600 350/05 RMK AO2 T00940078
63871K1J0 1J020160128004011001/28/16 00:40:31  5-MIN K1J0 280640Z AUTO 36005KT 10SM OVC011 09/08 A2999 20 89 -600 360/05 RMK AO2 T00940078
63871K1J0 1J020160128004511001/28/16 00:45:31  5-MIN K1J0 280645Z AUTO 01005KT 10SM OVC012 09/08 A2999 20 89 -600 010/05 RMK AO2 T00940078
63871K1J0 1J020160128005011001/28/16 00:50:31  5-MIN K1J0 280650Z AUTO 35005KT 10SM OVC012 09/08 A2999 20 89 -600 350/05 RMK AO2 T00940078
63871K1J0 1J020160128005511701/28/16 00:55:31  5-MIN K1J0 280655Z AUTO 34005KT 10SM OVC012 09/08 A3000 20 89 -600 340/05 RMK AO2 SLP142 T00940078
63871K1J0 1J020160128010011001/28/16 01:00:31  5-MIN K1J0 280700Z AUTO 34005KT 10SM OVC013 09/08 A2999 20 89 -600 340/05 RMK AO2 T00940078
63871K1J0 1J020160128010511001/28/16 01:05:31  5-MIN K1J0 280705Z AUTO 34005KT 10SM OVC013 09/08 A2999 20 89 -600 340/05 RMK AO2 T00940078
63871K1J0 1J020160128011011001/28/16 01:10:31  5-MIN K1J0 280710Z AUTO 35006KT 10SM OVC013 09/08 A2999 20 89 -600 350/06 RMK AO2 T00940078
63871K1J0 1J020160128011511001/28/16 01:15:31  5-MIN K1J0 280715Z AUTO 34006KT 10SM OVC013 09/07 A2999 20 86 -600 340/06 RMK AO2 T00940072
63871K1J0 1J020160128012011001/28/16 01:20:31  5-MIN K1J0 280720Z AUTO 35005KT 10SM OVC013 09/07 A2999 20 86 -500 350/05 RMK AO2 T00940072
63871K1J0 1J020160128012511001/28/16 01:25:31  5-MIN K1J0 280725Z AUTO 35005KT 10SM OVC013 09/07 A2999 30 86 -500 350/05 RMK AO2 T00940072
63871K1J0 1J020160128013011001/28/16 01:30:31  5-MIN K1J0 280730Z AUTO 36006KT 10SM OVC014 09/07 A2998 30 86 -500 360/06 RMK AO2 T00940072
63871K1J0 1J020160128013511001/28/16 01:35:31  5-MIN K1J0 280735Z AUTO 35006KT 10SM OVC014 09/07 A2998 30 86 -500 350/06 RMK AO2 T00940072
63871K1J0 1J020160128014011001/28/16 01:40:31  5-MIN K1J0 280740Z AUTO 35006KT 10SM OVC014 09/07 A2998 40 86 -500 350/06 RMK AO2 T00940072
63871K1J0 1J020160128014511001/28/16 01:45:31  5-MIN K1J0 280745Z AUTO 35004KT 10SM OVC014 09/07 A2998 30 86 -500 350/04 RMK AO2 T00940072
63871K1J0 1J020160128015011001/28/16 01:50:31  5-MIN K1J0 280750Z AUTO 35005KT 10SM OVC013 09/07 A2997 40 86 -500 350/05 RMK AO2 T00940072
63871K1J0 1J020160128015511701/28/16 01:55:31  5-MIN K1J0 280755Z AUTO 34005KT 10SM OVC013 09/07 A2997 40 86 -500 340/05 RMK AO2 SLP134 T00940072
63871K1J0 1J020160128020011001/28/16 02:00:31  5-MIN K1J0 280800Z AUTO 35004KT 10SM OVC014 09/07 A2997 40 86 -500 350/04 RMK AO2 T00940072
63871K1J0 1J020160128020511001/28/16 02:05:31  5-MIN K1J0 280805Z AUTO 35005KT 10SM OVC014 09/07 A2997 40 86 -500 350/05 RMK AO2 T00940072
63871K1J0 1J020160128021011001/28/16 02:10:31  5-MIN K1J0 280810Z AUTO 35005KT 10SM OVC014 09/07 A2996 50 86 -500 350/05 RMK AO2 T00940072
63871K1J0 1J020160128021511001/28/16 02:15:31  5-MIN K1J0 280815Z AUTO 35005KT 10SM OVC014 09/07 A2996 50 86 -500 350/05 RMK AO2 T00940072
63871K1J0 1J020160128022011001/28/16 02:20:31  5-MIN K1J0 280820Z AUTO 34007KT 10SM OVC014 09/07 A2996 50 86 -500 340/07 RMK AO2 T00940072
63871K1J0 1J020160128022511001/28/16 02:25:31  5-MIN K1J0 280825Z AUTO 35005KT 10SM OVC014 09/07 A2996 50 86 -500 350/05 RMK AO2 T00940072
63871K1J0 1J020160128023011001/28/16 02:30:31  5-MIN K1J0 280830Z AUTO 35005KT 10SM OVC014 09/07 A2995 60 86 -500 350/05 RMK AO2 T00940072
63871K1J0 1J020160128023511001/28/16 02:35:31  5-MIN K1J0 280835Z AUTO 35006KT 10SM OVC014 09/07 A2995 60 86 -500 350/06 RMK AO2 T00940072
63871K1J0 1J020160128024011001/28/16 02:40:31  5-MIN K1J0 280840Z AUTO 35004KT 10SM OVC014 09/07 A2995 60 86 -500 350/04 RMK AO2 T00940072
63871K1J0 1J020160128024512601/28/16 02:45:31  5-MIN K1J0 280845Z AUTO 35006KT 10SM -RA OVC014 09/07 A2995 60 83 -500 350/06 RMK AO2 RAB44 P0000 T00940067
63871K1J0 1J020160128025012601/28/16 02:50:31  5-MIN K1J0 280850Z AUTO 35006KT 10SM -RA OVC014 09/07 A2995 60 86 -600 350/06 RMK AO2 RAB44 P0000 T00890067
63871K1J0 1J020160128025514501/28/16 02:55:31  5-MIN K1J0 280855Z AUTO 35006KT 10SM -RA OVC013 09/07 A2995 60 89 -600 350/06 RMK AO2 RAB44 SLP126 P0000 60000 T00890072 58015
63871K1J0 1J020160128030012001/28/16 03:00:31  5-MIN K1J0 280900Z AUTO 34006KT 10SM -RA OVC013 09/07 A2995 60 89 -600 340/06 RMK AO2 P0000 T00890072
63871K1J0 1J020160128030512201/28/16 03:05:31  5-MIN K1J0 280905Z AUTO 33004KT 10SM OVC013 09/07 A2996 50 86 -600 330/04 RMK AO2 RAE01 P0000 T00890067
63871K1J0 1J020160128031012201/28/16 03:10:31  5-MIN K1J0 280910Z AUTO 34005KT 10SM OVC013 09/07 A2996 50 86 -600 340/05 RMK AO2 RAE01 P0000 T00890067
63871K1J0 1J020160128031512001/28/16 03:15:31  5-MIN K1J0 280915Z AUTO 32004KT 10SM -RA OVC013 09/07 A2996 50 86 -600 320/04 RMK AO2 P0000 T00890067
63871K1J0 1J020160128032012001/28/16 03:20:31  5-MIN K1J0 280920Z AUTO 34006KT 10SM -RA OVC013 09/07 A2996 50 86 -600 340/06 RMK AO2 P0000 T00890067
63871K1J0 1J020160128032512001/28/16 03:25:31  5-MIN K1J0 280925Z AUTO 34005KT 10SM -RA OVC013 09/07 A2996 50 86 -600 340/05 RMK AO2 P0000 T00890067
63871K1J0 1J020160128033012001/28/16 03:30:31  5-MIN K1J0 280930Z AUTO 32003KT 10SM -RA OVC013 09/07 A2996 50 86 -600 320/03 RMK AO2 P0000 T00890067
63871K1J0 1J020160128033512001/28/16 03:35:31  5-MIN K1J0 280935Z AUTO 32003KT 10SM -RA OVC013 08/07 A2996 50 89 -700 320/03 RMK AO2 P0000 T00830067
63871K1J0 1J020160128034011901/28/16 03:40:31  5-MIN K1J0 280940Z AUTO 00000KT 9SM -RA OVC013 08/07 A2997 40 93 -700 000/00 RMK AO2 P0000 T00830072
63871K1J0 1J020160128034511901/28/16 03:45:31  5-MIN K1J0 280945Z AUTO 31004KT 9SM -RA OVC013 08/07 A2997 40 93 -700 310/04 RMK AO2 P0000 T00830072
63871K1J0 1J020160128035011901/28/16 03:50:31  5-MIN K1J0 280950Z AUTO VRB03KT 9SM -RA OVC013 08/07 A2997 40 93 -700 VRB/03 RMK AO2 P0000 T00830072
63871K1J0 1J020160128035512801/28/16 03:55:31  5-MIN K1J0 280955Z AUTO 31003KT 6SM RA BR OVC013 08/07 A2998 30 93 -700 310/03 RMK AO2 SLP136 P0002 T00830072
63871K1J0 1J020160128040012101/28/16 04:00:31  5-MIN K1J0 281000Z AUTO 31004KT 3SM RA BR OVC012 08/07 A2998 30 93 -700 310/04 RMK AO2 P0000 T00830072
63871K1J0 1J020160128040512201/28/16 04:05:31  5-MIN K1J0 281005Z AUTO 32004KT 3SM -RA BR OVC012 08/07 A2998 30 93 -700 320/04 RMK AO2 P0001 T00830072
63871K1J0 1J020160128041013501/28/16 04:10:31  5-MIN K1J0 281010Z AUTO 32003KT 4SM RA BR BKN011 BKN016 OVC026 08/07 A2998 30 93 -700 320/03 RMK AO2 P0003 T00830072
63871K1J0 1J020160128041513501/28/16 04:15:31  5-MIN K1J0 281015Z AUTO 32005KT 4SM RA BR FEW006 BKN011 OVC018 08/07 A2998 30 93 -700 320/05 RMK AO2 P0006 T00830072
63871K1J0 1J020160128042013501/28/16 04:20:31  5-MIN K1J0 281020Z AUTO VRB03KT 3SM RA BR FEW006 BKN011 OVC025 08/07 A2998 30 96 -700 VRB/03 RMK AO2 P0009 T00780072
63871K1J0 1J020160128042513501/28/16 04:25:31  5-MIN K1J0 281025Z AUTO 33004KT 3SM RA BR SCT009 BKN025 OVC029 08/07 A2998 30 96 -700 330/04 RMK AO2 P0014 T00780072
63871K1J0 1J020160128043013601/28/16 04:30:31  5-MIN K1J0 281030Z AUTO 33005KT 3SM +RA BR FEW006 SCT014 OVC027 08/07 A2998 30 96 -700 330/05 RMK AO2 P0021 T00780072
63871K1J0 1J020160128043513501/28/16 04:35:31  5-MIN K1J0 281035Z AUTO 33007KT 3SM RA BR FEW006 SCT010 OVC027 08/07 A2998 30 96 -700 330/07 RMK AO2 P0026 T00780072
63871K1J0 1J020160128044013901/28/16 04:40:31  5-MIN K1J0 281040Z AUTO VRB03KT 2 1/2SM RA BR SCT006 SCT012 OVC027 08/07 A2999 20 96 -800 VRB/03 RMK AO2 P0029 T00780072
63871K1J0 1J020160128044513501/28/16 04:45:31  5-MIN K1J0 281045Z AUTO VRB03KT 3SM RA BR SCT006 BKN012 OVC025 08/07 A3000 10 96 -800 VRB/03 RMK AO2 P0031 T00780072
63871K1J0 1J020160128045013501/28/16 04:50:31  5-MIN K1J0 281050Z AUTO 30004KT 3SM RA BR BKN006 BKN014 OVC025 08/07 A3000 10 96 -800 300/04 RMK AO2 P0033 T00780072
63871K1J0 1J020160128045514201/28/16 04:55:31  5-MIN K1J0 281055Z AUTO 31004KT 3SM RA BR BKN006 BKN014 OVC025 08/07 A3000 10 96 -800 310/04 RMK AO2 SLP144 P0035 T00780072
63871K1J0 1J020160128050012801/28/16 05:00:31  5-MIN K1J0 281100Z AUTO 31005KT 4SM RA BR BKN006 OVC019 08/07 A3001 10 96 -800 310/05 RMK AO2 P0001 T00780072
63871K1J0 1J020160128050513501/28/16 05:05:31  5-MIN K1J0 281105Z AUTO 31004KT 3SM RA BR BKN006 BKN014 OVC019 08/07 A3000 10 96 -800 310/04 RMK AO2 P0008 T00780072
63871K1J0 1J020160128051013901/28/16 05:10:31  5-MIN K1J0 281110Z AUTO 33005KT 2 1/2SM RA BR BKN007 BKN016 OVC030 08/07 A2999 20 93 -800 330/05 RMK AO2 P0011 T00780067
63871K1J0 1J020160128051513501/28/16 05:15:31  5-MIN K1J0 281115Z AUTO 36006KT 4SM RA BR SCT007 BKN032 OVC039 08/07 A2998 30 93 -700 360/06 RMK AO2 P0012 T00780067
63871K1J0 1J020160128052013501/28/16 05:20:31  5-MIN K1J0 281120Z AUTO 35005KT 5SM RA BR FEW007 BKN034 OVC065 07/07 A2999 30 96 -800 350/05 RMK AO2 P0014 T00720067
63871K1J0 1J020160128052513601/28/16 05:25:31  5-MIN K1J0 281125Z AUTO 36006KT 6SM -RA BR FEW007 BKN034 OVC090 08/07 A2998 30 93 -700 360/06 RMK AO2 P0014 T00780067
63871K1J0 1J020160128053013301/28/16 05:30:31  5-MIN K1J0 281130Z AUTO 34005KT 8SM -RA FEW012 BKN065 OVC090 08/07 A2998 30 96 -700 340/05 RMK AO2 P0014 T00780072
63871K1J0 1J020160128053513301/28/16 05:35:31  5-MIN K1J0 281135Z AUTO 36004KT 8SM -RA FEW034 SCT065 OVC090 08/07 A2997 40 93 -700 360/04 RMK AO2 P0014 T00780067
63871K1J0 1J020160128054013301/28/16 05:40:31  5-MIN K1J0 281140Z AUTO 01005KT 8SM -RA FEW038 FEW065 OVC090 08/07 A2997 40 93 -700 010/05 RMK AO2 P0014 T00780067
63871K1J0 1J020160128054513301/28/16 05:45:31  5-MIN K1J0 281145Z AUTO 36006KT 8SM -RA FEW008 FEW065 OVC090 08/07 A2997 40 93 -700 360/06 RMK AO2 P0014 T00780067
63871K1J0 1J020160128055013301/28/16 05:50:31  5-MIN K1J0 281150Z AUTO 01004KT 7SM -RA FEW011 FEW070 OVC090 08/07 A2996 50 96 -700 010/04 RMK AO2 P0014 T00780072
63871K1J0 1J020160128055517001/28/16 05:55:31  5-MIN K1J0 281155Z AUTO 03007KT 7SM -RA FEW011 OVC090 08/07 A2995 60 93 -700 030/07 RMK AO2 PRESFR SLP126 P0014 60057 70066 T00780067 10100 20072 58020
63871K1J0 1J020160128060011901/28/16 06:00:31  5-MIN K1J0 281200Z AUTO 03007KT 8SM -RA BKN090 08/07 A2995 60 93 -700 030/07 RMK AO2 P0000 T00780067
63871K1J0 1J020160128060512601/28/16 06:05:31  5-MIN K1J0 281205Z AUTO 01007KT 9SM -RA FEW070 OVC090 08/07 A2995 60 96 -700 010/07 RMK AO2 P0000 T00780072
63871K1J0 1J020160128061013301/28/16 06:10:31  5-MIN K1J0 281210Z AUTO 36006KT 9SM -RA FEW011 SCT046 OVC090 08/07 A2995 60 96 -700 360/06 RMK AO2 P0000 T00780072
63871K1J0 1J020160128061513301/28/16 06:15:31  5-MIN K1J0 281215Z AUTO 03007KT 8SM -RA FEW009 SCT045 OVC095 08/07 A2995 60 96 -700 030/07 RMK AO2 P0000 T00780072
63871K1J0 1J020160128062013301/28/16 06:20:31  5-MIN K1J0 281220Z AUTO 06006KT 9SM -RA FEW008 SCT080 OVC100 08/07 A2994 70 96 -700 060/06 RMK AO2 P0000 T00780072
63871K1J0 1J020160128062513401/28/16 06:25:31  5-MIN K1J0 281225Z AUTO VRB05KT 10SM -RA FEW006 BKN090 OVC110 08/07 A2996 50 96 -700 VRB/05 RMK AO2 P0000 T00780072
63871K1J0 1J020160128063013401/28/16 06:30:31  5-MIN K1J0 281230Z AUTO 34003KT 10SM -RA SCT006 BKN042 OVC110 08/07 A2996 50 96 -700 340/03 RMK AO2 P0000 T00780072
63871K1J0 1J020160128063506901/28/16 06:35:31  5-MIN K1J0 281235Z AUTO M M M M /M RMK AO2 P0000 $
63871K1J0 1J020160128064010601/28/16 06:40:31  5-MIN K1J0 281240Z AUTO 31003KT 08/07 A2997 40 93 -700 310/03 RMK AO2 P0000 T00830072 $
63871K1J0 1J020160128064511101/28/16 06:45:31  5-MIN K1J0 281245Z AUTO 00000KT 10SM 08/08 A2998 30 96 -700 000/00 RMK AO2 P0000 T00830078 $
63871K1J0 1J020160128065011101/28/16 06:50:31  5-MIN K1J0 281250Z AUTO 00000KT 10SM 08/08 A2998 30 96 -700 000/00 RMK AO2 P0000 T00830078 $
63871K1J0 1J020160128065511801/28/16 06:55:31  5-MIN K1J0 281255Z AUTO 00000KT 10SM 08/07 A2996 50 93 -700 000/00 RMK AO2 SLP131 P0000 T00830072 $
63871K1J0 1J020160128070011501/28/16 07:00:31  5-MIN K1J0 281300Z AUTO 00000KT 10SM -RA 08/07 A2997 40 93 -700 000/00 RMK AO2 P0000 T00830072 $
63871K1J0 1J020160128070512201/28/16 07:05:31  5-MIN K1J0 281305Z AUTO 00000KT 10SM -RA OVC007 08/07 A2997 40 93 -700 000/00 RMK AO2 P0000 T00830072 $
63871K1J0 1J020160128071012901/28/16 07:10:31  5-MIN K1J0 281310Z AUTO 00000KT 10SM -RA BKN007 OVC017 08/08 A2997 40 96 -700 000/00 RMK AO2 P0000 T00830078 $
63871K1J0 1J020160128071513101/28/16 07:15:31  5-MIN K1J0 281315Z AUTO 00000KT 10SM BKN007 OVC019 08/07 A2996 50 93 -700 000/00 RMK AO2 RAE14 P0000 T00830072 $
63871K1J0 1J020160128072013101/28/16 07:20:31  5-MIN K1J0 281320Z AUTO 00000KT 10SM SCT007 OVC019 08/07 A2996 50 93 -700 000/00 RMK AO2 RAE14 P0000 T00830072 $
63871K1J0 1J020160128072513001/28/16 07:25:31  5-MIN K1J0 281325Z AUTO 05003KT 9SM SCT007 OVC019 08/07 A2996 50 93 -600 050/03 RMK AO2 RAE14 P0000 T00830072 $
63871K1J0 1J020160128073013001/28/16 07:30:31  5-MIN K1J0 281330Z AUTO 05003KT 9SM FEW007 OVC019 08/07 A2996 50 93 -600 050/03 RMK AO2 RAE14 P0000 T00830072 $
63871K1J0 1J020160128073513001/28/16 07:35:31  5-MIN K1J0 281335Z AUTO 00000KT 8SM SCT007 OVC018 08/08 A2996 50 96 -600 000/00 RMK AO2 RAE14 P0000 T00830078 $
63871K1J0 1J020160128074013001/28/16 07:40:31  5-MIN K1J0 281340Z AUTO 00000KT 8SM BKN007 OVC018 08/08 A2996 50 96 -700 000/00 RMK AO2 RAE14 P0000 T00830078 $
63871K1J0 1J020160128074513001/28/16 07:45:31  5-MIN K1J0 281345Z AUTO 00000KT 8SM BKN007 OVC018 09/08 A2996 50 93 -600 000/00 RMK AO2 RAE14 P0000 T00890078 $
63871K1J0 1J020160128075013001/28/16 07:50:31  5-MIN K1J0 281350Z AUTO 00000KT 9SM BKN007 OVC018 09/08 A2997 40 93 -600 000/00 RMK AO2 RAE14 P0000 T00890078 $
63871K1J0 1J020160128075513001/28/16 07:55:31  5-MIN K1J0 281355Z AUTO 00000KT 9SM OVC007 09/08 A2997 40 93 -600 000/00 RMK AO2 RAE14 SLP134 P0000 T00890078 $
63871K1J0 1J020160128080011201/28/16 08:00:31  5-MIN K1J0 281400Z AUTO 00000KT 10SM OVC007 09/08 A2997 40 93 -600 000/00 RMK AO2 T00890078 $
63871K1J0 1J020160128080511201/28/16 08:05:31  5-MIN K1J0 281405Z AUTO 00000KT 10SM OVC007 09/08 A2998 40 93 -600 000/00 RMK AO2 T00890078 $
63871K1J0 1J020160128081011201/28/16 08:10:31  5-MIN K1J0 281410Z AUTO 34004KT 10SM OVC007 09/08 A2998 30 93 -600 340/04 RMK AO2 T00890078 $
63871K1J0 1J020160128081511201/28/16 08:15:31  5-MIN K1J0 281415Z AUTO 35004KT 10SM OVC007 09/08 A2999 20 93 -600 350/04 RMK AO2 T00890078 $
63871K1J0 1J020160128082011201/28/16 08:20:31  5-MIN K1J0 281420Z AUTO 34003KT 10SM OVC007 09/08 A2999 20 93 -600 340/03 RMK AO2 T00890078 $
63871K1J0 1J020160128082511201/28/16 08:25:31  5-MIN K1J0 281425Z AUTO 35005KT 10SM OVC006 09/08 A2999 30 93 -600 350/05 RMK AO2 T00890078 $
63871K1J0 1J020160128083011201/28/16 08:30:31  5-MIN K1J0 281430Z AUTO 35003KT 10SM OVC006 09/08 A2999 20 93 -600 350/03 RMK AO2 T00890078 $
63871K1J0 1J020160128083511201/28/16 08:35:31  5-MIN K1J0 281435Z AUTO 00000KT 10SM OVC006 09/08 A2999 20 93 -500 000/00 RMK AO2 T00940083 $
63871K1J0 1J020160128084011201/28/16 08:40:31  5-MIN K1J0 281440Z AUTO 34003KT 10SM OVC006 09/08 A2999 20 93 -500 340/03 RMK AO2 T00940083 $
63871K1J0 1J020160128084511201/28/16 08:45:31  5-MIN K1J0 281445Z AUTO 33004KT 10SM OVC006 09/08 A2999 20 93 -600 330/04 RMK AO2 T00890078 $
63871K1J0 1J020160128085011201/28/16 08:50:31  5-MIN K1J0 281450Z AUTO 00000KT 10SM OVC006 09/08 A2999 30 93 -500 000/00 RMK AO2 T00940083 $
63871K1J0 1J020160128085512501/28/16 08:55:31  5-MIN K1J0 281455Z AUTO 33003KT 10SM OVC006 09/08 A2999 30 93 -500 330/03 RMK AO2 SLP138 60000 T00940083 $
63871K1J0 1J020160128090011201/28/16 09:00:31  5-MIN K1J0 281500Z AUTO 00000KT 10SM OVC006 09/08 A2999 20 93 -500 000/00 RMK AO2 T00940083 $
63871K1J0 1J020160128090511201/28/16 09:05:31  5-MIN K1J0 281505Z AUTO 33004KT 10SM OVC005 09/08 A2999 30 93 -500 330/04 RMK AO2 T00940083 $
63871K1J0 1J020160128091011201/28/16 09:10:31  5-MIN K1J0 281510Z AUTO 34003KT 10SM OVC005 09/08 A2999 30 93 -500 340/03 RMK AO2 T00940083 $
63871K1J0 1J020160128091511201/28/16 09:15:31  5-MIN K1J0 281515Z AUTO 32005KT 10SM OVC005 09/08 A2999 20 93 -500 320/05 RMK AO2 T00940083 $
63871K1J0 1J020160128092011201/28/16 09:20:31  5-MIN K1J0 281520Z AUTO VRB06KT 10SM OVC005 09/08 A2999 20 93 -500 VRB/06 RMK AO2 T00940083 $
63871K1J0 1J020160128092511201/28/16 09:25:31  5-MIN K1J0 281525Z AUTO 34005KT 10SM OVC005 09/08 A2999 20 93 -500 340/05 RMK AO2 T00940083 $
63871K1J0 1J020160128093011201/28/16 09:30:31  5-MIN K1J0 281530Z AUTO VRB05KT 10SM OVC005 09/08 A2999 20 93 -500 VRB/05 RMK AO2 T00940083 $
63871K1J0 1J020160128093511201/28/16 09:35:31  5-MIN K1J0 281535Z AUTO 34006KT 10SM OVC005 09/08 A2999 20 93 -500 340/06 RMK AO2 T00940083 $
63871K1J0 1J020160128094011201/28/16 09:40:31  5-MIN K1J0 281540Z AUTO 32006KT 10SM OVC005 09/08 A2998 30 93 -500 320/06 RMK AO2 T00940083 $
63871K1J0 1J020160128094511201/28/16 09:45:31  5-MIN K1J0 281545Z AUTO 33007KT 10SM OVC005 09/08 A2998 30 93 -500 330/07 RMK AO2 T00940083 $
63871K1J0 1J020160128095011201/28/16 09:50:31  5-MIN K1J0 281550Z AUTO 32005KT 10SM OVC005 09/08 A2998 30 93 -500 320/05 RMK AO2 T00940083 $
63871K1J0 1J020160128095511801/28/16 09:55:31  5-MIN K1J0 281555Z AUTO 32005KT 9SM OVC005 09/08 A2998 40 93 -500 320/05 RMK AO2 SLP135 T00940083 $
63871K1J0 1J020160128100011101/28/16 10:00:31  5-MIN K1J0 281600Z AUTO 31004KT 8SM OVC005 09/08 A2998 30 93 -500 310/04 RMK AO2 T00940083 $
63871K1J0 1J020160128100511101/28/16 10:05:31  5-MIN K1J0 281605Z AUTO 34006KT 8SM OVC005 09/08 A2997 40 93 -500 340/06 RMK AO2 T00940083 $
63871K1J0 1J020160128101011101/28/16 10:10:31  5-MIN K1J0 281610Z AUTO 32005KT 7SM OVC004 09/08 A2997 40 96 -600 320/05 RMK AO2 T00890083 $
63871K1J0 1J020160128101511101/28/16 10:15:31  5-MIN K1J0 281615Z AUTO 32005KT 7SM OVC004 09/08 A2997 40 93 -500 320/05 RMK AO2 T00940083 $
63871K1J0 1J020160128102011101/28/16 10:20:31  5-MIN K1J0 281620Z AUTO 34005KT 7SM OVC004 09/08 A2997 40 96 -600 340/05 RMK AO2 T00890083 $
63871K1J0 1J020160128102511101/28/16 10:25:31  5-MIN K1J0 281625Z AUTO 31003KT 8SM OVC004 09/08 A2997 40 93 -500 310/03 RMK AO2 T00940083 $
63871K1J0 1J020160128103011101/28/16 10:30:31  5-MIN K1J0 281630Z AUTO 32004KT 7SM OVC004 09/08 A2997 40 96 -600 320/04 RMK AO2 T00890083 $
63871K1J0 1J020160128103511101/28/16 10:35:31  5-MIN K1J0 281635Z AUTO VRB05KT 7SM OVC004 09/08 A2998 30 96 -600 VRB/05 RMK AO2 T00890083 $
63871K1J0 1J020160128104011101/28/16 10:40:31  5-MIN K1J0 281640Z AUTO 30005KT 7SM OVC004 09/08 A2998 30 96 -600 300/05 RMK AO2 T00890083 $
63871K1J0 1J020160128104511401/28/16 10:45:31  5-MIN K1J0 281645Z AUTO VRB04KT 6SM BR OVC004 09/08 A2998 30 93 -600 VRB/04 RMK AO2 T00890078 $
63871K1J0 1J020160128105011401/28/16 10:50:31  5-MIN K1J0 281650Z AUTO 30005KT 6SM BR OVC004 09/08 A2998 30 96 -600 300/05 RMK AO2 T00890083 $
63871K1J0 1J020160128105511801/28/16 10:55:31  5-MIN K1J0 281655Z AUTO 31006KT 7SM OVC004 09/08 A2997 40 93 -600 310/06 RMK AO2 SLP134 T00890078 $
63871K1J0 1J020160128110011101/28/16 11:00:31  5-MIN K1J0 281700Z AUTO 33004KT 7SM OVC004 09/08 A2997 40 93 -600 330/04 RMK AO2 T00890078 $
63871K1J0 1J020160128110511101/28/16 11:05:31  5-MIN K1J0 281705Z AUTO 33005KT 8SM OVC004 09/08 A2997 40 93 -600 330/05 RMK AO2 T00890078 $
63871K1J0 1J020160128111011101/28/16 11:10:31  5-MIN K1J0 281710Z AUTO 32005KT 9SM OVC004 09/08 A2997 40 93 -600 320/05 RMK AO2 T00890078 $
63871K1J0 1J020160128111511101/28/16 11:15:31  5-MIN K1J0 281715Z AUTO 33007KT 9SM OVC004 09/08 A2996 50 93 -600 330/07 RMK AO2 T00890078 $
63871K1J0 1J020160128112011201/28/16 11:20:31  5-MIN K1J0 281720Z AUTO 32005KT 10SM OVC005 09/08 A2996 50 89 -500 320/05 RMK AO2 T00940078 $
63871K1J0 1J020160128112511201/28/16 11:25:31  5-MIN K1J0 281725Z AUTO 33007KT 10SM OVC005 09/08 A2996 50 93 -600 330/07 RMK AO2 T00890078 $
63871K1J0 1J020160128113011101/28/16 11:30:31  5-MIN K1J0 281730Z AUTO 33006KT 9SM OVC005 09/08 A2996 50 93 -600 330/06 RMK AO2 T00890078 $
63871K1J0 1J020160128113511101/28/16 11:35:31  5-MIN K1J0 281735Z AUTO 31006KT 9SM OVC005 09/08 A2996 50 93 -500 310/06 RMK AO2 T00940083 $
63871K1J0 1J020160128114011101/28/16 11:40:31  5-MIN K1J0 281740Z AUTO 32006KT 8SM OVC005 09/08 A2996 50 93 -500 320/06 RMK AO2 T00940083 $
63871K1J0 1J020160128114511101/28/16 11:45:31  5-MIN K1J0 281745Z AUTO 31005KT 7SM OVC005 09/08 A2995 60 93 -600 310/05 RMK AO2 T00890078 $
63871K1J0 1J020160128115011101/28/16 11:50:31  5-MIN K1J0 281750Z AUTO 32006KT 7SM OVC005 09/08 A2995 60 93 -600 320/06 RMK AO2 T00890078 $
63871K1J0 1J020160128115513601/28/16 11:55:31  5-MIN K1J0 281755Z AUTO 32007KT 7SM OVC005 09/08 A2995 60 89 -500 320/07 RMK AO2 SLP126 60000 T00940078 10094 20078 $
63871K1J0 1J020160128120011101/28/16 12:00:31  5-MIN K1J0 281800Z AUTO 32006KT 8SM OVC005 09/08 A2995 60 93 -600 320/06 RMK AO2 T00890078 $
63871K1J0 1J020160128120511101/28/16 12:05:31  5-MIN K1J0 281805Z AUTO 33006KT 9SM OVC005 09/08 A2994 60 93 -500 330/06 RMK AO2 T00940083 $
63871K1J0 1J020160128121011101/28/16 12:10:31  5-MIN K1J0 281810Z AUTO 32004KT 9SM OVC005 09/08 A2994 70 89 -500 320/04 RMK AO2 T00940078 $
63871K1J0 1J020160128121511101/28/16 12:15:31  5-MIN K1J0 281815Z AUTO 31005KT 9SM OVC006 09/08 A2994 70 93 -500 310/05 RMK AO2 T00940083 $
63871K1J0 1J020160128122011801/28/16 12:20:31  5-MIN K1J0 281820Z AUTO 33005KT 8SM OVC006 09/08 A2993 80 93 -500 330/05 RMK AO2 PRESFR T00940083 $
63871K1J0 1J020160128122511801/28/16 12:25:31  5-MIN K1J0 281825Z AUTO 34004KT 7SM OVC006 09/08 A2992 90 93 -500 340/04 RMK AO2 PRESFR T00940083 $
63871K1J0 1J020160128123011101/28/16 12:30:31  5-MIN K1J0 281830Z AUTO 32005KT 8SM OVC005 09/08 A2992 90 93 -500 320/05 RMK AO2 T00940083 $
63871K1J0 1J020160128123511101/28/16 12:35:31  5-MIN K1J0 281835Z AUTO 31005KT 8SM OVC005 09/08 A2992 90 93 -500 310/05 RMK AO2 T00940083 $
63871K1J0 1J020160128124011101/28/16 12:40:31  5-MIN K1J0 281840Z AUTO 32004KT 8SM OVC005 09/08 A2992 90 93 -500 320/04 RMK AO2 T00940083 $
63871K1J0 1J020160128124511101/28/16 12:45:31  5-MIN K1J0 281845Z AUTO VRB03KT 8SM OVC005 09/08 A2992 80 93 -500 VRB/03 RMK AO2 T00940083 $
63871K1J0 1J020160128125011101/28/16 12:50:31  5-MIN K1J0 281850Z AUTO 31003KT 9SM OVC005 09/08 A2992 90 93 -500 310/03 RMK AO2 T00940083 $
63871K1J0 1J020160128125511801/28/16 12:55:31  5-MIN K1J0 281855Z AUTO 31004KT 9SM OVC006 09/08 A2992 90 89 -500 310/04 RMK AO2 SLP115 T00940078 $
63871K1J0 1J020160128130011101/28/16 13:00:31  5-MIN K1J0 281900Z AUTO 33004KT 8SM OVC006 09/08 A2992 90 89 -500 330/04 RMK AO2 T00940078 $
63871K1J0 1J020160128130511101/28/16 13:05:31  5-MIN K1J0 281905Z AUTO 32005KT 8SM OVC006 09/08 A2991 90 93 -500 320/05 RMK AO2 T00940083 $
63871K1J0 1J020160128131011201/28/16 13:10:31  5-MIN K1J0 281910Z AUTO 34005KT 8SM OVC006 09/08 A2991 100 93 -500 340/05 RMK AO2 T00940083 $
63871K1J0 1J020160128131511201/28/16 13:15:31  5-MIN K1J0 281915Z AUTO 31004KT 8SM OVC006 09/08 A2991 100 93 -500 310/04 RMK AO2 T00940083 $
63871K1J0 1J020160128132011201/28/16 13:20:31  5-MIN K1J0 281920Z AUTO 32004KT 8SM OVC006 09/08 A2991 100 93 -500 320/04 RMK AO2 T00940083 $
63871K1J0 1J020160128132511201/28/16 13:25:31  5-MIN K1J0 281925Z AUTO 32006KT 8SM OVC006 09/08 A2991 100 93 -500 320/06 RMK AO2 T00940083 $
63871K1J0 1J020160128133011101/28/16 13:30:31  5-MIN K1J0 281930Z AUTO VRB05KT 9SM OVC006 09/08 A2991 90 93 -500 VRB/05 RMK AO2 T00940083 $
63871K1J0 1J020160128133511101/28/16 13:35:31  5-MIN K1J0 281935Z AUTO 31005KT 9SM OVC006 09/08 A2991 90 93 -500 310/05 RMK AO2 T00940083 $
63871K1J0 1J020160128134011201/28/16 13:40:31  5-MIN K1J0 281940Z AUTO 32005KT 9SM OVC006 09/08 A2991 100 93 -500 320/05 RMK AO2 T00940083 $
63871K1J0 1J020160128134511201/28/16 13:45:31  5-MIN K1J0 281945Z AUTO 31003KT 9SM OVC006 09/08 A2991 100 93 -500 310/03 RMK AO2 T00940083 $
63871K1J0 1J020160128135011201/28/16 13:50:31  5-MIN K1J0 281950Z AUTO VRB04KT 9SM OVC006 10/08 A2991 100 89 -400 VRB/04 RMK AO2 T01000083 $
63871K1J0 1J020160128135511901/28/16 13:55:31  5-MIN K1J0 281955Z AUTO 31005KT 9SM OVC006 09/08 A2991 100 93 -500 310/05 RMK AO2 SLP111 T00940083 $
63871K1J0 1J020160128140011201/28/16 14:00:31  5-MIN K1J0 282000Z AUTO 32006KT 9SM OVC006 10/08 A2991 100 89 -400 320/06 RMK AO2 T01000083 $
63871K1J0 1J020160128140511301/28/16 14:05:31  5-MIN K1J0 282005Z AUTO 32005KT 10SM OVC006 10/08 A2991 100 89 -400 320/05 RMK AO2 T01000083 $
63871K1J0 1J020160128141011301/28/16 14:10:31  5-MIN K1J0 282010Z AUTO 32005KT 10SM OVC006 10/08 A2990 100 89 -400 320/05 RMK AO2 T01000083 $
63871K1J0 1J020160128141511301/28/16 14:15:31  5-MIN K1J0 282015Z AUTO 33004KT 10SM OVC007 10/08 A2990 100 89 -400 330/04 RMK AO2 T01000083 $
63871K1J0 1J020160128142012501/28/16 14:20:31  5-MIN K1J0 282020Z AUTO VRB04KT 10SM OVC007 10/08 A2990 100 89 -400 VRB/04 RMK AO2 CIG 006V011 T01000083 $
63871K1J0 1J020160128142512501/28/16 14:25:31  5-MIN K1J0 282025Z AUTO 31006KT 10SM OVC009 10/08 A2991 100 89 -400 310/06 RMK AO2 CIG 007V011 T01000083 $
63871K1J0 1J020160128143012501/28/16 14:30:31  5-MIN K1J0 282030Z AUTO 33006KT 10SM OVC009 10/08 A2990 100 89 -400 330/06 RMK AO2 CIG 007V012 T01000083 $
63871K1J0 1J020160128143512501/28/16 14:35:31  5-MIN K1J0 282035Z AUTO 33005KT 10SM OVC009 10/08 A2989 110 89 -400 330/05 RMK AO2 CIG 007V012 T01000083 $
63871K1J0 1J020160128144012501/28/16 14:40:31  5-MIN K1J0 282040Z AUTO VRB06KT 10SM OVC010 11/09 A2989 120 89 -300 VRB/06 RMK AO2 CIG 008V012 T01060089 $
63871K1J0 1J020160128144511301/28/16 14:45:31  5-MIN K1J0 282045Z AUTO 33006KT 10SM BKN010 11/08 A2989 110 86 -300 330/06 RMK AO2 T01060083 $
63871K1J0 1J020160128145011201/28/16 14:50:31  5-MIN K1J0 282050Z AUTO 32004KT 10SM BKN010 11/09 A2991 90 89 -300 320/04 RMK AO2 T01060089 $
63871K1J0 1J020160128145513201/28/16 14:55:31  5-MIN K1J0 282055Z AUTO 30004KT 10SM OVC011 11/09 A2992 90 89 -300 300/04 RMK AO2 PRESRR SLP115 T01060089 58014 $
63871K1J0 1J020160128150011301/28/16 15:00:31  5-MIN K1J0 282100Z AUTO 32004KT 10SM OVC011 11/08 A2991 100 86 -300 320/04 RMK AO2 T01060083 $
63871K1J0 1J020160128150511301/28/16 15:05:31  5-MIN K1J0 282105Z AUTO 33005KT 10SM OVC011 11/08 A2990 100 86 -300 330/05 RMK AO2 T01060083 $
63871K1J0 1J020160128151012001/28/16 15:10:31  5-MIN K1J0 282110Z AUTO 33006KT 10SM OVC011 11/08 A2989 110 86 -300 330/06 RMK AO2 PRESFR T01060083 $
63871K1J0 1J020160128151511301/28/16 15:15:31  5-MIN K1J0 282115Z AUTO 34008KT 10SM OVC012 11/08 A2989 110 83 -200 340/08 RMK AO2 T01110083 $
63871K1J0 1J020160128152011301/28/16 15:20:31  5-MIN K1J0 282120Z AUTO 32007KT 10SM OVC012 11/08 A2989 120 83 -200 320/07 RMK AO2 T01110083 $
63871K1J0 1J020160128152511301/28/16 15:25:31  5-MIN K1J0 282125Z AUTO 32005KT 10SM OVC014 11/08 A2989 110 83 -200 320/05 RMK AO2 T01110083 $
63871K1J0 1J020160128153012901/28/16 15:30:31  5-MIN K1J0 282130Z AUTO 32008KT 270V340 10SM OVC014 11/08 A2989 110 83 -200 320/08 270V340 RMK AO2 T01110083 $
63871K1J0 1J020160128153511301/28/16 15:35:31  5-MIN K1J0 282135Z AUTO 32008KT 10SM OVC014 11/08 A2989 120 80 -200 320/08 RMK AO2 T01110078 $
63871K1J0 1J020160128154011301/28/16 15:40:31  5-MIN K1J0 282140Z AUTO 33008KT 10SM BKN014 11/08 A2989 120 80 -200 330/08 RMK AO2 T01110078 $
63871K1J0 1J020160128154511301/28/16 15:45:31  5-MIN K1J0 282145Z AUTO 34007KT 10SM SCT014 11/08 A2988 120 83 -300 340/07 RMK AO2 T01060078 $
63871K1J0 1J020160128155011301/28/16 15:50:31  5-MIN K1J0 282150Z AUTO 32006KT 10SM SCT014 11/08 A2988 120 83 -300 320/06 RMK AO2 T01060078 $
63871K1J0 1J020160128155512001/28/16 15:55:31  5-MIN K1J0 282155Z AUTO 33007KT 10SM FEW014 11/08 A2989 120 83 -300 330/07 RMK AO2 SLP105 T01060078 $
63871K1J0 1J020160128160011301/28/16 16:00:31  5-MIN K1J0 282200Z AUTO 33007KT 10SM FEW016 11/08 A2989 120 83 -300 330/07 RMK AO2 T01060078 $
63871K1J0 1J020160128160511001/28/16 16:05:31  5-MIN K1J0 282205Z AUTO 33004KT 10SM CLR 11/08 A2989 120 83 -300 330/04 RMK AO2 T01060078 $
63871K1J0 1J020160128161011001/28/16 16:10:31  5-MIN K1J0 282210Z AUTO 32006KT 10SM CLR 11/08 A2989 110 83 -300 320/06 RMK AO2 T01060078 $
63871K1J0 1J020160128161511301/28/16 16:15:31  5-MIN K1J0 282215Z AUTO 33003KT 10SM FEW100 11/08 A2989 120 83 -300 330/03 RMK AO2 T01060078 $
63871K1J0 1J020160128162011301/28/16 16:20:31  5-MIN K1J0 282220Z AUTO 33004KT 10SM FEW100 11/08 A2988 120 83 -300 330/04 RMK AO2 T01060078 $
63871K1J0 1J020160128162511301/28/16 16:25:31  5-MIN K1J0 282225Z AUTO 33005KT 10SM FEW110 11/08 A2988 130 83 -300 330/05 RMK AO2 T01060078 $
63871K1J0 1J020160128163011301/28/16 16:30:31  5-MIN K1J0 282230Z AUTO 32004KT 10SM SCT110 11/08 A2988 120 83 -300 320/04 RMK AO2 T01060078 $
63871K1J0 1J020160128163511301/28/16 16:35:31  5-MIN K1J0 282235Z AUTO 32004KT 10SM SCT110 11/08 A2988 120 83 -300 320/04 RMK AO2 T01060078 $
63871K1J0 1J020160128164011301/28/16 16:40:31  5-MIN K1J0 282240Z AUTO 32004KT 10SM SCT110 11/08 A2988 120 83 -300 320/04 RMK AO2 T01060078 $
63871K1J0 1J020160128164511301/28/16 16:45:31  5-MIN K1J0 282245Z AUTO 32003KT 10SM FEW120 11/08 A2989 120 83 -300 320/03 RMK AO2 T01060078 $
63871K1J0 1J020160128165011301/28/16 16:50:31  5-MIN K1J0 282250Z AUTO 31004KT 10SM FEW120 11/08 A2989 110 83 -300 310/04 RMK AO2 T01060078 $
63871K1J0 1J020160128165512001/28/16 16:55:31  5-MIN K1J0 282255Z AUTO 00000KT 10SM FEW120 11/08 A2989 110 83 -300 000/00 RMK AO2 SLP107 T01060078 $
63871K1J0 1J020160128170011301/28/16 17:00:31  5-MIN K1J0 282300Z AUTO 31004KT 10SM FEW120 11/08 A2990 110 83 -300 310/04 RMK AO2 T01060078 $
63871K1J0 1J020160128170511001/28/16 17:05:31  5-MIN K1J0 282305Z AUTO VRB03KT 10SM CLR 11/08 A2990 110 83 -300 VRB/03 RMK AO2 T01060078 $
63871K1J0 1J020160128171011001/28/16 17:10:31  5-MIN K1J0 282310Z AUTO 33004KT 10SM CLR 11/08 A2990 110 83 -300 330/04 RMK AO2 T01060078 $
63871K1J0 1J020160128171511001/28/16 17:15:31  5-MIN K1J0 282315Z AUTO 32003KT 10SM CLR 10/08 A2990 110 86 -400 320/03 RMK AO2 T01000078 $
63871K1J0 1J020160128172011001/28/16 17:20:31  5-MIN K1J0 282320Z AUTO 00000KT 10SM CLR 10/08 A2990 110 86 -400 000/00 RMK AO2 T01000078 $
63871K1J0 1J020160128172511001/28/16 17:25:31  5-MIN K1J0 282325Z AUTO 00000KT 10SM CLR 10/08 A2990 110 86 -400 000/00 RMK AO2 T01000078 $
63871K1J0 1J020160128173011001/28/16 17:30:31  5-MIN K1J0 282330Z AUTO 00000KT 10SM CLR 10/08 A2990 100 86 -400 000/00 RMK AO2 T01000078 $
63871K1J0 1J020160128193510901/28/16 19:35:31  5-MIN K1J0 290135Z AUTO 00000KT 10SM CLR 07/04 A2998 30 86 -900 000/00 RMK AO2 T00670044 $
63871K1J0 1J020160128194010901/28/16 19:40:31  5-MIN K1J0 290140Z AUTO 00000KT 10SM CLR 07/04 A2998 30 86 -900 000/00 RMK AO2 T00670044 $
63871K1J0 1J020160128194510901/28/16 19:45:31  5-MIN K1J0 290145Z AUTO 00000KT 10SM CLR 07/04 A2998 30 86 -900 000/00 RMK AO2 T00670044 $
63871K1J0 1J020160128195010901/28/16 19:50:31  5-MIN K1J0 290150Z AUTO 00000KT 10SM CLR 07/04 A2998 40 86 -900 000/00 RMK AO2 T00670044 $
63871K1J0 1J020160128195511601/28/16 19:55:31  5-MIN K1J0 290155Z AUTO 00000KT 10SM CLR 07/04 A2998 40 86 -900 000/00 RMK AO2 SLP136 T00670044 $
63871K1J0 1J020160128200010901/28/16 20:00:31  5-MIN K1J0 290200Z AUTO 00000KT 10SM CLR 07/04 A2998 30 86 -900 000/00 RMK AO2 T00670044 $
63871K1J0 1J020160128200510901/28/16 20:05:31  5-MIN K1J0 290205Z AUTO 00000KT 10SM CLR 06/04 A2998 30 89 -900 000/00 RMK AO2 T00610044 $
63871K1J0 1J020160128201010901/28/16 20:10:31  5-MIN K1J0 290210Z AUTO 00000KT 10SM CLR 06/04 A2998 30 89 -900 000/00 RMK AO2 T00610044 $
63871K1J0 1J020160128201511001/28/16 20:15:31  5-MIN K1J0 290215Z AUTO 00000KT 10SM CLR 06/04 A2998 30 89 -1000 000/00 RMK AO2 T00560039 $
63871K1J0 1J020160128202011001/28/16 20:20:31  5-MIN K1J0 290220Z AUTO 00000KT 10SM CLR 06/04 A2998 30 92 -1000 000/00 RMK AO2 T00560044 $
63871K1J0 1J020160128202511001/28/16 20:25:31  5-MIN K1J0 290225Z AUTO 00000KT 10SM CLR 06/04 A2998 30 92 -1000 000/00 RMK AO2 T00560044 $
63871K1J0 1J020160128203011001/28/16 20:30:31  5-MIN K1J0 290230Z AUTO 00000KT 10SM CLR 06/04 A2998 30 92 -1000 000/00 RMK AO2 T00560044 $
63871K1J0 1J020160128203511001/28/16 20:35:31  5-MIN K1J0 290235Z AUTO 00000KT 10SM CLR 06/04 A2998 30 89 -1000 000/00 RMK AO2 T00560039 $
63871K1J0 1J020160128204011001/28/16 20:40:31  5-MIN K1J0 290240Z AUTO 00000KT 10SM CLR 05/04 A2998 30 92 -1100 000/00 RMK AO2 T00500039 $
63871K1J0 1J020160128204511001/28/16 20:45:31  5-MIN K1J0 290245Z AUTO 00000KT 10SM CLR 05/04 A2998 30 92 -1100 000/00 RMK AO2 T00500039 $
63871K1J0 1J020160128205011001/28/16 20:50:31  5-MIN K1J0 290250Z AUTO 00000KT 10SM CLR 05/04 A2998 30 92 -1100 000/00 RMK AO2 T00500039 $
63871K1J0 1J020160128205512301/28/16 20:55:31  5-MIN K1J0 290255Z AUTO 00000KT 10SM CLR 05/04 A2998 30 92 -1100 000/00 RMK AO2 SLP138 T00500039 53004 $
63871K1J0 1J020160128210010901/28/16 21:00:31  5-MIN K1J0 290300Z AUTO 00000KT 8SM CLR 04/03 A2998 30 92 -1200 000/00 RMK AO2 T00440033 $
63871K1J0 1J020160128210510901/28/16 21:05:31  5-MIN K1J0 290305Z AUTO 00000KT 8SM CLR 04/03 A2998 30 92 -1200 000/00 RMK AO2 T00440033 $
63871K1J0 1J020160128211011001/28/16 21:10:31  5-MIN K1J0 290310Z AUTO 00000KT 10SM CLR 04/04 A2999 30 96 -1200 000/00 RMK AO2 T00440039 $
63871K1J0 1J020160128211511001/28/16 21:15:31  5-MIN K1J0 290315Z AUTO 00000KT 10SM CLR 04/03 A2999 20 92 -1200 000/00 RMK AO2 T00440033 $
63871K1J0 1J020160128212011001/28/16 21:20:31  5-MIN K1J0 290320Z AUTO 00000KT 10SM CLR 04/03 A2999 20 92 -1200 000/00 RMK AO2 T00440033 $
63871K1J0 1J020160128212511001/28/16 21:25:31  5-MIN K1J0 290325Z AUTO 00000KT 10SM CLR 04/03 A2999 20 92 -1200 000/00 RMK AO2 T00440033 $
63871K1J0 1J020160128213011001/28/16 21:30:31  5-MIN K1J0 290330Z AUTO 00000KT 10SM CLR 04/03 A2999 20 92 -1200 000/00 RMK AO2 T00440033 $
63871K1J0 1J020160128213510901/28/16 21:35:31  5-MIN K1J0 290335Z AUTO 00000KT 8SM CLR 04/03 A2999 20 96 -1200 000/00 RMK AO2 T00390033 $
63871K1J0 1J020160128214010901/28/16 21:40:31  5-MIN K1J0 290340Z AUTO 00000KT 7SM CLR 04/03 A2999 20 92 -1200 000/00 RMK AO2 T00390028 $
63871K1J0 1J020160128214510901/28/16 21:45:31  5-MIN K1J0 290345Z AUTO 00000KT 9SM CLR 04/03 A2999 20 96 -1200 000/00 RMK AO2 T00390033 $
63871K1J0 1J020160128215011001/28/16 21:50:31  5-MIN K1J0 290350Z AUTO 00000KT 10SM CLR 04/03 A3000 20 96 -1200 000/00 RMK AO2 T00390033 $
63871K1J0 1J020160128215511701/28/16 21:55:31  5-MIN K1J0 290355Z AUTO 00000KT 10SM CLR 04/03 A3000 20 96 -1200 000/00 RMK AO2 SLP143 T00390033 $
63871K1J0 1J020160128220011001/28/16 22:00:31  5-MIN K1J0 290400Z AUTO 00000KT 10SM CLR 04/03 A2999 20 96 -1200 000/00 RMK AO2 T00390033 $
63871K1J0 1J020160128220511001/28/16 22:05:31  5-MIN K1J0 290405Z AUTO 00000KT 10SM CLR 04/03 A2999 20 92 -1200 000/00 RMK AO2 T00390028 $
63871K1J0 1J020160128221011001/28/16 22:10:31  5-MIN K1J0 290410Z AUTO 00000KT 10SM CLR 03/03 A2999 20 96 -1300 000/00 RMK AO2 T00330028 $
63871K1J0 1J020160128221511001/28/16 22:15:31  5-MIN K1J0 290415Z AUTO 00000KT 10SM CLR 03/02 A2999 20 92 -1300 000/00 RMK AO2 T00330022 $
63871K1J0 1J020160128222011001/28/16 22:20:31  5-MIN K1J0 290420Z AUTO 00000KT 10SM CLR 04/02 A2999 20 89 -1200 000/00 RMK AO2 T00390022 $
63871K1J0 1J020160128222511001/28/16 22:25:31  5-MIN K1J0 290425Z AUTO 00000KT 10SM CLR 03/02 A2999 20 92 -1300 000/00 RMK AO2 T00330022 $
63871K1J0 1J020160128223011001/28/16 22:30:31  5-MIN K1J0 290430Z AUTO 00000KT 10SM CLR 03/02 A2999 20 92 -1300 000/00 RMK AO2 T00330022 $
63871K1J0 1J020160128223511001/28/16 22:35:31  5-MIN K1J0 290435Z AUTO 00000KT 10SM CLR 03/02 A2999 20 92 -1300 000/00 RMK AO2 T00330022 $
63871K1J0 1J020160128224011001/28/16 22:40:31  5-MIN K1J0 290440Z AUTO 00000KT 10SM CLR 03/02 A2999 20 92 -1300 000/00 RMK AO2 T00330022 $
63871K1J0 1J020160128224511001/28/16 22:45:31  5-MIN K1J0 290445Z AUTO 00000KT 10SM CLR 03/02 A3000 20 92 -1300 000/00 RMK AO2 T00330022 $
63871K1J0 1J020160128225011001/28/16 22:50:31  5-MIN K1J0 290450Z AUTO 00000KT 10SM CLR 03/02 A3000 20 92 -1300 000/00 RMK AO2 T00330022 $
63871K1J0 1J020160128225511701/28/16 22:55:31  5-MIN K1J0 290455Z AUTO 00000KT 10SM CLR 03/02 A3000 20 92 -1300 000/00 RMK AO2 SLP143 T00330022 $
63871K1J0 1J020160128230011001/28/16 23:00:31  5-MIN K1J0 290500Z AUTO 00000KT 10SM CLR 03/02 A2999 20 92 -1300 000/00 RMK AO2 T00330022 $
63871K1J0 1J020160128230510901/28/16 23:05:31  5-MIN K1J0 290505Z AUTO 00000KT 9SM CLR 03/02 A2999 20 96 -1400 000/00 RMK AO2 T00280022 $
63871K1J0 1J020160128231011001/28/16 23:10:31  5-MIN K1J0 290510Z AUTO 00000KT 10SM CLR 03/02 A3000 20 96 -1400 000/00 RMK AO2 T00280022 $
63871K1J0 1J020160128231511001/28/16 23:15:31  5-MIN K1J0 290515Z AUTO 00000KT 10SM CLR 03/02 A3000 10 92 -1300 000/00 RMK AO2 T00330022 $
63871K1J0 1J020160128232011001/28/16 23:20:31  5-MIN K1J0 290520Z AUTO 00000KT 10SM CLR 03/02 A3000 10 92 -1300 000/00 RMK AO2 T00330022 $
63871K1J0 1J020160128232511001/28/16 23:25:31  5-MIN K1J0 290525Z AUTO 00000KT 10SM CLR 03/02 A3000 20 92 -1300 000/00 RMK AO2 T00330022 $
63871K1J0 1J020160128233011001/28/16 23:30:31  5-MIN K1J0 290530Z AUTO 00000KT 10SM CLR 03/02 A3000 20 96 -1400 000/00 RMK AO2 T00280022 $
63871K1J0 1J020160128233511001/28/16 23:35:31  5-MIN K1J0 290535Z AUTO 00000KT 10SM CLR 03/02 A2999 20 92 -1300 000/00 RMK AO2 T00330022 $
63871K1J0 1J020160128234011001/28/16 23:40:31  5-MIN K1J0 290540Z AUTO 00000KT 10SM CLR 03/02 A2999 20 96 -1400 000/00 RMK AO2 T00280022 $
63871K1J0 1J020160128234511001/28/16 23:45:31  5-MIN K1J0 290545Z AUTO 00000KT 10SM CLR 03/02 A2999 20 92 -1300 000/00 RMK AO2 T00330022 $
63871K1J0 1J020160128235011001/28/16 23:50:31  5-MIN K1J0 290550Z AUTO 00000KT 10SM CLR 03/02 A2999 20 96 -1400 000/00 RMK AO2 T00280022 $
63871K1J0 1J020160128235514401/28/16 23:55:31  5-MIN K1J0 290555Z AUTO 00000KT 8SM CLR 03/02 A2999 20 96 -1400 000/00 RMK AO2 SLP142 T00280022 10094 20028 401110028 51020 $
63871K1J0 1J020160129000010901/29/16 00:00:31  5-MIN K1J0 290600Z AUTO 00000KT 8SM CLR 03/02 A2999 20 96 -1400 000/00 RMK AO2 T00280022 $
63871K1J0 1J020160129000511001/29/16 00:05:31  5-MIN K1J0 290605Z AUTO 00000KT 10SM CLR 03/02 A2999 20 96 -1400 000/00 RMK AO2 T00280022 $
63871K1J0 1J020160129001011001/29/16 00:10:31  5-MIN K1J0 290610Z AUTO 00000KT 10SM CLR 03/02 A2999 20 92 -1400 000/00 RMK AO2 T00280017 $
63871K1J0 1J020160129001511001/29/16 00:15:31  5-MIN K1J0 290615Z AUTO 00000KT 10SM CLR 03/02 A2999 20 92 -1400 000/00 RMK AO2 T00280017 $
63871K1J0 1J020160129002011001/29/16 00:20:31  5-MIN K1J0 290620Z AUTO 27003KT 10SM CLR 03/02 A3000 10 89 -1300 270/03 RMK AO2 T00330017 $
63871K1J0 1J020160129002511001/29/16 00:25:31  5-MIN K1J0 290625Z AUTO 00000KT 10SM CLR 04/02 A3000 10 85 -1200 000/00 RMK AO2 T00390017 $
63871K1J0 1J020160129003011001/29/16 00:30:31  5-MIN K1J0 290630Z AUTO 00000KT 10SM CLR 04/02 A3000 10 82 -1200 000/00 RMK AO2 T00440017 $
63871K1J0 1J020160129003511001/29/16 00:35:31  5-MIN K1J0 290635Z AUTO 00000KT 10SM CLR 04/02 A3000 10 82 -1200 000/00 RMK AO2 T00440017 $
63871K1J0 1J020160129004011001/29/16 00:40:31  5-MIN K1J0 290640Z AUTO VRB03KT 10SM CLR 04/02 A3000 10 82 -1200 VRB/03 RMK AO2 T00440017 $
63871K1J0 1J020160129004511001/29/16 00:45:31  5-MIN K1J0 290645Z AUTO VRB03KT 10SM CLR 04/02 A3000 10 82 -1200 VRB/03 RMK AO2 T00440017 $
63871K1J0 1J020160129005011001/29/16 00:50:31  5-MIN K1J0 290650Z AUTO 00000KT 10SM CLR 04/02 A3001 10 82 -1200 000/00 RMK AO2 T00440017 $
63871K1J0 1J020160129005511701/29/16 00:55:31  5-MIN K1J0 290655Z AUTO 29003KT 10SM CLR 04/02 A3001 10 82 -1200 290/03 RMK AO2 SLP146 T00440017 $
63871K1J0 1J020160129010011001/29/16 01:00:31  5-MIN K1J0 290700Z AUTO 00000KT 10SM CLR 04/02 A3001 10 82 -1200 000/00 RMK AO2 T00440017 $
63871K1J0 1J020160129010511001/29/16 01:05:31  5-MIN K1J0 290705Z AUTO 00000KT 10SM CLR 04/01 A3001 10 79 -1200 000/00 RMK AO2 T00440011 $
63871K1J0 1J020160129011011001/29/16 01:10:31  5-MIN K1J0 290710Z AUTO 00000KT 10SM CLR 04/01 A3001 10 79 -1200 000/00 RMK AO2 T00440011 $
63871K1J0 1J020160129011510901/29/16 01:15:31  5-MIN K1J0 290715Z AUTO 27003KT 10SM CLR 04/01 A3001 0 82 -1300 270/03 RMK AO2 T00390011 $
63871K1J0 1J020160129012010901/29/16 01:20:31  5-MIN K1J0 290720Z AUTO 00000KT 10SM CLR 04/01 A3001 0 82 -1300 000/00 RMK AO2 T00390011 $
63871K1J0 1J020160129012510901/29/16 01:25:31  5-MIN K1J0 290725Z AUTO 00000KT 10SM CLR 04/01 A3001 0 82 -1300 000/00 RMK AO2 T00390011 $
63871K1J0 1J020160129013011001/29/16 01:30:31  5-MIN K1J0 290730Z AUTO 00000KT 10SM CLR 04/01 A3001 10 82 -1300 000/00 RMK AO2 T00390011 $
63871K1J0 1J020160129013511001/29/16 01:35:31  5-MIN K1J0 290735Z AUTO 00000KT 10SM CLR 04/01 A3001 10 82 -1300 000/00 RMK AO2 T00390011 $
63871K1J0 1J020160129014011001/29/16 01:40:31  5-MIN K1J0 290740Z AUTO 00000KT 10SM CLR 03/01 A3001 10 85 -1300 000/00 RMK AO2 T00330011 $
63871K1J0 1J020160129014510901/29/16 01:45:31  5-MIN K1J0 290745Z AUTO 00000KT 10SM CLR 04/01 A3001 0 82 -1300 000/00 RMK AO2 T00390011 $
63871K1J0 1J020160129015010901/29/16 01:50:31  5-MIN K1J0 290750Z AUTO 00000KT 10SM CLR 03/01 A3001 0 85 -1300 000/00 RMK AO2 T00330011 $
63871K1J0 1J020160129015511701/29/16 01:55:31  5-MIN K1J0 290755Z AUTO 00000KT 10SM CLR 03/01 A3001 10 85 -1300 000/00 RMK AO2 SLP146 T00330011 $
63871K1J0 1J020160129020011001/29/16 02:00:31  5-MIN K1J0 290800Z AUTO 00000KT 10SM CLR 03/01 A3001 10 85 -1300 000/00 RMK AO2 T00330011 $
63871K1J0 1J020160129020511001/29/16 02:05:31  5-MIN K1J0 290805Z AUTO 00000KT 10SM CLR 03/01 A3001 10 85 -1300 000/00 RMK AO2 T00330011 $
63871K1J0 1J020160129021011001/29/16 02:10:31  5-MIN K1J0 290810Z AUTO 00000KT 10SM CLR 03/01 A3001 10 85 -1300 000/00 RMK AO2 T00330011 $
63871K1J0 1J020160129021511001/29/16 02:15:31  5-MIN K1J0 290815Z AUTO 00000KT 10SM CLR 03/01 A3001 10 89 -1400 000/00 RMK AO2 T00280011 $
63871K1J0 1J020160129022011001/29/16 02:20:31  5-MIN K1J0 290820Z AUTO 00000KT 10SM CLR 03/01 A3001 10 89 -1400 000/00 RMK AO2 T00280011 $
63871K1J0 1J020160129022511001/29/16 02:25:31  5-MIN K1J0 290825Z AUTO 00000KT 10SM CLR 03/01 A3001 10 89 -1400 000/00 RMK AO2 T00280011 $
63871K1J0 1J020160129023011001/29/16 02:30:31  5-MIN K1J0 290830Z AUTO 00000KT 10SM CLR 03/01 A3000 10 89 -1400 000/00 RMK AO2 T00280011 $
63871K1J0 1J020160129023511001/29/16 02:35:31  5-MIN K1J0 290835Z AUTO 00000KT 10SM CLR 02/01 A3000 10 92 -1500 000/00 RMK AO2 T00220011 $
63871K1J0 1J020160129024011001/29/16 02:40:31  5-MIN K1J0 290840Z AUTO 00000KT 10SM CLR 03/01 A3001 10 89 -1400 000/00 RMK AO2 T00280011 $
63871K1J0 1J020160129024510901/29/16 02:45:31  5-MIN K1J0 290845Z AUTO 00000KT 10SM CLR 03/01 A3001 0 89 -1400 000/00 RMK AO2 T00280011 $
63871K1J0 1J020160129025010901/29/16 02:50:31  5-MIN K1J0 290850Z AUTO 00000KT 10SM CLR 03/01 A3001 0 89 -1400 000/00 RMK AO2 T00280011 $
63871K1J0 1J020160129025512201/29/16 02:55:31  5-MIN K1J0 290855Z AUTO 00000KT 10SM CLR 03/01 A3001 0 85 -1400 000/00 RMK AO2 SLP148 T00280006 50002 $
63871K1J0 1J020160129030010901/29/16 03:00:31  5-MIN K1J0 290900Z AUTO 00000KT 10SM CLR 03/01 A3001 0 85 -1400 000/00 RMK AO2 T00280006 $
63871K1J0 1J020160129030510901/29/16 03:05:31  5-MIN K1J0 290905Z AUTO 00000KT 10SM CLR 03/01 A3001 0 85 -1400 000/00 RMK AO2 T00280006 $
63871K1J0 1J020160129031010901/29/16 03:10:31  5-MIN K1J0 290910Z AUTO 00000KT 10SM CLR 03/01 A3001 0 89 -1400 000/00 RMK AO2 T00280011 $
63871K1J0 1J020160129031510901/29/16 03:15:31  5-MIN K1J0 290915Z AUTO 00000KT 10SM CLR 02/01 A3002 0 92 -1500 000/00 RMK AO2 T00220011 $
63871K1J0 1J020160129032010901/29/16 03:20:31  5-MIN K1J0 290920Z AUTO 00000KT 10SM CLR 02/01 A3002 0 89 -1500 000/00 RMK AO2 T00220006 $
63871K1J0 1J020160129032510901/29/16 03:25:31  5-MIN K1J0 290925Z AUTO 00000KT 10SM CLR 02/01 A3002 0 89 -1500 000/00 RMK AO2 T00220006 $
63871K1J0 1J020160129033010901/29/16 03:30:31  5-MIN K1J0 290930Z AUTO 00000KT 10SM CLR 02/01 A3002 0 89 -1500 000/00 RMK AO2 T00220006 $
63871K1J0 1J020160129033510901/29/16 03:35:31  5-MIN K1J0 290935Z AUTO 00000KT 10SM CLR 02/01 A3002 0 89 -1500 000/00 RMK AO2 T00220006 $
63871K1J0 1J020160129034011101/29/16 03:40:31  5-MIN K1J0 290940Z AUTO 00000KT 10SM CLR 02/01 A3003 -10 96 -1500 000/00 RMK AO2 T00170011 $
63871K1J0 1J020160129034510901/29/16 03:45:31  5-MIN K1J0 290945Z AUTO 00000KT 10SM CLR 02/01 A3002 0 92 -1500 000/00 RMK AO2 T00220011 $
63871K1J0 1J020160129035011101/29/16 03:50:31  5-MIN K1J0 290950Z AUTO 00000KT 10SM CLR 02/01 A3003 -10 92 -1500 000/00 RMK AO2 T00220011 $
63871K1J0 1J020160129035511801/29/16 03:55:31  5-MIN K1J0 290955Z AUTO 00000KT 10SM CLR 02/01 A3003 -10 92 -1500 000/00 RMK AO2 SLP153 T00220011 $
63871K1J0 1J020160129040011101/29/16 04:00:31  5-MIN K1J0 291000Z AUTO 00000KT 10SM CLR 02/01 A3003 -10 92 -1500 000/00 RMK AO2 T00220011 $
63871K1J0 1J020160129040511101/29/16 04:05:31  5-MIN K1J0 291005Z AUTO 00000KT 10SM CLR 02/01 A3003 -10 96 -1600 000/00 RMK AO2 T00170011 $
63871K1J0 1J020160129041011101/29/16 04:10:31  5-MIN K1J0 291010Z AUTO 00000KT 10SM CLR 02/01 A3003 -10 96 -1600 000/00 RMK AO2 T00170011 $
63871K1J0 1J020160129041511101/29/16 04:15:31  5-MIN K1J0 291015Z AUTO 00000KT 10SM CLR 02/01 A3003 -10 96 -1600 000/00 RMK AO2 T00170011 $
63871K1J0 1J020160129042011101/29/16 04:20:31  5-MIN K1J0 291020Z AUTO 00000KT 10SM CLR 02/01 A3003 -10 96 -1600 000/00 RMK AO2 T00170011 $
63871K1J0 1J020160129042511101/29/16 04:25:31  5-MIN K1J0 291025Z AUTO 00000KT 10SM CLR 02/01 A3003 -10 96 -1600 000/00 RMK AO2 T00170011 $
63871K1J0 1J020160129043011001/29/16 04:30:31  5-MIN K1J0 291030Z AUTO 00000KT 9SM CLR 02/01 A3003 -10 96 -1600 000/00 RMK AO2 T00170011 $
63871K1J0 1J020160129043507301/29/16 04:35:31  5-MIN K1J0 291035Z AUTO 00000KT M M M 000/00 RMK AO2 $
63871K1J0 1J020160129044010201/29/16 04:40:31  5-MIN K1J0 291040Z AUTO 00000KT 02/01 A3003 -10 96 -1600 000/00 RMK AO2 T00170011 $
63871K1J0 1J020160129044510701/29/16 04:45:31  5-MIN K1J0 291045Z AUTO 00000KT 10SM 02/01 A3003 -10 96 -1600 000/00 RMK AO2 T00170011 $
63871K1J0 1J020160129045010701/29/16 04:50:31  5-MIN K1J0 291050Z AUTO 00000KT 10SM 02/01 A3003 -10 96 -1600 000/00 RMK AO2 T00170011 $
63871K1J0 1J020160129045513001/29/16 04:55:31  5-MIN K1J0 291055Z AUTO 17003KT 10SM -RA 02/01 A3003 -10 96 -1600 170/03 RMK AO2 RAB53 SLP156 P0000 T00170011 $
63871K1J0 1J020160129050011701/29/16 05:00:31  5-MIN K1J0 291100Z AUTO 17003KT 10SM -RA 02/01 A3004 -10 96 -1600 170/03 RMK AO2 P0000 T00170011 $
63871K1J0 1J020160129050512101/29/16 05:05:31  5-MIN K1J0 291105Z AUTO 18003KT 10SM -RA CLR 02/01 A3004 -20 96 -1600 180/03 RMK AO2 P0000 T00170011 $
63871K1J0 1J020160129051012301/29/16 05:10:31  5-MIN K1J0 291110Z AUTO 18003KT 10SM CLR 02/01 A3004 -20 92 -1600 180/03 RMK AO2 RAE06 P0000 T00170006 $
63871K1J0 1J020160129051512301/29/16 05:15:31  5-MIN K1J0 291115Z AUTO 17003KT 10SM CLR 02/01 A3004 -20 96 -1600 170/03 RMK AO2 RAE06 P0000 T00170011 $
63871K1J0 1J020160129052012301/29/16 05:20:31  5-MIN K1J0 291120Z AUTO 17003KT 10SM CLR 02/01 A3004 -20 96 -1600 170/03 RMK AO2 RAE06 P0000 T00170011 $
63871K1J0 1J020160129052512301/29/16 05:25:31  5-MIN K1J0 291125Z AUTO 17003KT 10SM CLR 02/01 A3004 -20 96 -1600 170/03 RMK AO2 RAE06 P0000 T00170011 $
63871K1J0 1J020160129053012301/29/16 05:30:31  5-MIN K1J0 291130Z AUTO 18003KT 10SM CLR 01/01 A3004 -20 96 -1600 180/03 RMK AO2 RAE06 P0000 T00110006 $
63871K1J0 1J020160129053512301/29/16 05:35:31  5-MIN K1J0 291135Z AUTO 00000KT 10SM CLR 01/01 A3004 -20 96 -1600 000/00 RMK AO2 RAE06 P0000 T00110006 $
63871K1J0 1J020160129054012301/29/16 05:40:31  5-MIN K1J0 291140Z AUTO 17003KT 10SM CLR 01/01 A3005 -20 96 -1600 170/03 RMK AO2 RAE06 P0000 T00110006 $
63871K1J0 1J020160129054512301/29/16 05:45:31  5-MIN K1J0 291145Z AUTO 17003KT 10SM CLR 01/01 A3005 -30 96 -1600 170/03 RMK AO2 RAE06 P0000 T00110006 $
63871K1J0 1J020160129055012301/29/16 05:50:31  5-MIN K1J0 291150Z AUTO 18003KT 10SM CLR 01/01 A3005 -30 96 -1600 180/03 RMK AO2 RAE06 P0000 T00110006 $
63871K1J0 1J020160129055514801/29/16 05:55:31  5-MIN K1J0 291155Z AUTO 18003KT 10SM CLR 01/01 A3005 -30 96 -1600 180/03 RMK AO2 RAE06 SLP162 P0000 60000 T00110006 10044 20011 $
63871K1J0 1J020160129060011101/29/16 06:00:31  5-MIN K1J0 291200Z AUTO 17004KT 10SM CLR 01/01 A3005 -30 96 -1600 170/04 RMK AO2 T00110006 $
63871K1J0 1J020160129060511101/29/16 06:05:31  5-MIN K1J0 291205Z AUTO 17004KT 10SM CLR 01/00 A3005 -30 92 -1700 170/04 RMK AO2 T00110000 $
63871K1J0 1J020160129061011101/29/16 06:10:31  5-MIN K1J0 291210Z AUTO 18004KT 10SM CLR 01/01 A3006 -30 96 -1700 180/04 RMK AO2 T00110006 $
63871K1J0 1J020160129061511101/29/16 06:15:31  5-MIN K1J0 291215Z AUTO 18003KT 10SM CLR 01/01 A3006 -40 96 -1700 180/03 RMK AO2 T00110006 $
63871K1J0 1J020160129062011101/29/16 06:20:31  5-MIN K1J0 291220Z AUTO 00000KT 10SM CLR 01/01 A3006 -40 96 -1700 000/00 RMK AO2 T00110006 $
63871K1J0 1J020160129062511101/29/16 06:25:31  5-MIN K1J0 291225Z AUTO 00000KT 10SM CLR 01/00 A3006 -40 92 -1700 000/00 RMK AO2 T00110000 $
63871K1J0 1J020160129063011101/29/16 06:30:31  5-MIN K1J0 291230Z AUTO 00000KT 10SM CLR 01/00 A3006 -40 92 -1700 000/00 RMK AO2 T00110000 $
63871K1J0 1J020160129063511101/29/16 06:35:31  5-MIN K1J0 291235Z AUTO 00000KT 10SM CLR 01/00 A3006 -40 92 -1700 000/00 RMK AO2 T00110000 $
63871K1J0 1J020160129064011101/29/16 06:40:31  5-MIN K1J0 291240Z AUTO 00000KT 10SM CLR 01/00 A3006 -40 92 -1700 000/00 RMK AO2 T00110000 $
63871K1J0 1J020160129064511101/29/16 06:45:31  5-MIN K1J0 291245Z AUTO 00000KT 10SM CLR 01/00 A3007 -40 92 -1700 000/00 RMK AO2 T00110000 $
63871K1J0 1J020160129065011101/29/16 06:50:31  5-MIN K1J0 291250Z AUTO 00000KT 10SM CLR 01/00 A3007 -50 92 -1700 000/00 RMK AO2 T00110000 $
63871K1J0 1J020160129065511801/29/16 06:55:31  5-MIN K1J0 291255Z AUTO 00000KT 10SM CLR 01/01 A3007 -50 96 -1700 000/00 RMK AO2 SLP168 T00110006 $
63871K1J0 1J020160129070011101/29/16 07:00:31  5-MIN K1J0 291300Z AUTO 00000KT 10SM CLR 02/01 A3007 -50 96 -1600 000/00 RMK AO2 T00170011 $
63871K1J0 1J020160129070511101/29/16 07:05:31  5-MIN K1J0 291305Z AUTO 00000KT 10SM CLR 01/01 A3007 -50 96 -1700 000/00 RMK AO2 T00110006 $
63871K1J0 1J020160129071011101/29/16 07:10:31  5-MIN K1J0 291310Z AUTO 00000KT 10SM CLR 02/01 A3008 -50 96 -1600 000/00 RMK AO2 T00170011 $
63871K1J0 1J020160129071511101/29/16 07:15:31  5-MIN K1J0 291315Z AUTO 00000KT 10SM CLR 02/01 A3008 -50 96 -1600 000/00 RMK AO2 T00170011 $
63871K1J0 1J020160129072011101/29/16 07:20:31  5-MIN K1J0 291320Z AUTO 00000KT 10SM CLR 02/01 A3008 -50 92 -1500 000/00 RMK AO2 T00220011 $
63871K1J0 1J020160129072511101/29/16 07:25:31  5-MIN K1J0 291325Z AUTO 00000KT 10SM CLR 03/02 A3008 -50 92 -1500 000/00 RMK AO2 T00280017 $
63871K1J0 1J020160129073011101/29/16 07:30:31  5-MIN K1J0 291330Z AUTO 00000KT 10SM CLR 03/02 A3008 -60 92 -1500 000/00 RMK AO2 T00280017 $
63871K1J0 1J020160129073511101/29/16 07:35:31  5-MIN K1J0 291335Z AUTO 00000KT 10SM CLR 04/02 A3008 -60 89 -1300 000/00 RMK AO2 T00390022 $
63871K1J0 1J020160129074011101/29/16 07:40:31  5-MIN K1J0 291340Z AUTO 00000KT 10SM CLR 04/02 A3009 -60 85 -1300 000/00 RMK AO2 T00440022 $
63871K1J0 1J020160129074511101/29/16 07:45:31  5-MIN K1J0 291345Z AUTO 00000KT 10SM CLR 05/02 A3009 -60 82 -1200 000/00 RMK AO2 T00500022 $
63871K1J0 1J020160129075011101/29/16 07:50:31  5-MIN K1J0 291350Z AUTO 00000KT 10SM CLR 06/02 A3009 -60 79 -1100 000/00 RMK AO2 T00560022 $
63871K1J0 1J020160129075511801/29/16 07:55:31  5-MIN K1J0 291355Z AUTO 00000KT 10SM CLR 07/03 A3008 -60 76 -1000 000/00 RMK AO2 SLP173 T00670028 $
63871K1J0 1J020160129080011101/29/16 08:00:31  5-MIN K1J0 291400Z AUTO 00000KT 10SM CLR 07/03 A3008 -60 76 -1000 000/00 RMK AO2 T00670028 $
63871K1J0 1J020160129080511001/29/16 08:05:31  5-MIN K1J0 291405Z AUTO 26003KT 10SM CLR 07/03 A3008 -60 73 -900 260/03 RMK AO2 T00720028 $
63871K1J0 1J020160129081011001/29/16 08:10:31  5-MIN K1J0 291410Z AUTO VRB03KT 10SM CLR 08/03 A3008 -60 70 -900 VRB/03 RMK AO2 T00780028 $
63871K1J0 1J020160129081511001/29/16 08:15:31  5-MIN K1J0 291415Z AUTO 27003KT 10SM CLR 08/03 A3009 -60 70 -900 270/03 RMK AO2 T00780028 $
63871K1J0 1J020160129082011001/29/16 08:20:31  5-MIN K1J0 291420Z AUTO 00000KT 10SM CLR 08/03 A3009 -60 68 -800 000/00 RMK AO2 T00830028 $
63871K1J0 1J020160129082511001/29/16 08:25:31  5-MIN K1J0 291425Z AUTO VRB03KT 10SM CLR 08/03 A3009 -60 68 -800 VRB/03 RMK AO2 T00830028 $
63871K1J0 1J020160129083011001/29/16 08:30:31  5-MIN K1J0 291430Z AUTO 00000KT 10SM CLR 09/03 A3008 -60 65 -700 000/00 RMK AO2 T00890028 $
63871K1J0 1J020160129083511001/29/16 08:35:31  5-MIN K1J0 291435Z AUTO VRB04KT 10SM CLR 09/03 A3008 -60 65 -700 VRB/04 RMK AO2 T00890028 $
63871K1J0 1J020160129084011001/29/16 08:40:31  5-MIN K1J0 291440Z AUTO VRB03KT 10SM CLR 09/03 A3008 -60 63 -700 VRB/03 RMK AO2 T00940028 $
63871K1J0 1J020160129084511001/29/16 08:45:31  5-MIN K1J0 291445Z AUTO 29004KT 10SM CLR 09/03 A3008 -60 63 -700 290/04 RMK AO2 T00940028 $
63871K1J0 1J020160129085011001/29/16 08:50:31  5-MIN K1J0 291450Z AUTO VRB04KT 10SM CLR 09/03 A3008 -60 63 -700 VRB/04 RMK AO2 T00940028 $
63871K1J0 1J020160129085511701/29/16 08:55:31  5-MIN K1J0 291455Z AUTO 30005KT 10SM CLR 10/03 A3008 -60 60 -600 300/05 RMK AO2 SLP173 T01000028 $
63871K1J0 1J020160129090011001/29/16 09:00:31  5-MIN K1J0 291500Z AUTO 30004KT 10SM CLR 10/03 A3009 -60 60 -600 300/04 RMK AO2 T01000028 $
63871K1J0 1J020160129090511001/29/16 09:05:31  5-MIN K1J0 291505Z AUTO 30003KT 10SM CLR 11/03 A3009 -60 61 -500 300/03 RMK AO2 T01060033 $
63871K1J0 1J020160129091011001/29/16 09:10:31  5-MIN K1J0 291510Z AUTO VRB04KT 10SM CLR 11/03 A3009 -60 58 -500 VRB/04 RMK AO2 T01110033 $
63871K1J0 1J020160129091511001/29/16 09:15:31  5-MIN K1J0 291515Z AUTO 30005KT 10SM CLR 11/03 A3009 -70 58 -500 300/05 RMK AO2 T01110033 $
63871K1J0 1J020160129092011001/29/16 09:20:31  5-MIN K1J0 291520Z AUTO 31007KT 10SM CLR 11/03 A3009 -70 58 -500 310/07 RMK AO2 T01110033 $
63871K1J0 1J020160129092511001/29/16 09:25:31  5-MIN K1J0 291525Z AUTO VRB05KT 10SM CLR 11/03 A3009 -70 56 -500 VRB/05 RMK AO2 T01110028 $
63871K1J0 1J020160129093011001/29/16 09:30:31  5-MIN K1J0 291530Z AUTO 31006KT 10SM CLR 12/03 A3010 -70 54 -400 310/06 RMK AO2 T01170028 $
63871K1J0 1J020160129093511001/29/16 09:35:31  5-MIN K1J0 291535Z AUTO 31005KT 10SM CLR 12/03 A3010 -70 54 -400 310/05 RMK AO2 T01170028 $
63871K1J0 1J020160129094011001/29/16 09:40:31  5-MIN K1J0 291540Z AUTO 31007KT 10SM CLR 12/03 A3010 -70 52 -300 310/07 RMK AO2 T01220028 $
63871K1J0 1J020160129094511001/29/16 09:45:31  5-MIN K1J0 291545Z AUTO 31008KT 10SM CLR 12/03 A3010 -70 52 -300 310/08 RMK AO2 T01220028 $
63871K1J0 1J020160129095011001/29/16 09:50:31  5-MIN K1J0 291550Z AUTO 32007KT 10SM CLR 12/03 A3010 -80 52 -300 320/07 RMK AO2 T01220028 $
63871K1J0 1J020160129095511701/29/16 09:55:31  5-MIN K1J0 291555Z AUTO 32005KT 10SM CLR 13/03 A3010 -80 50 -300 320/05 RMK AO2 SLP179 T01280028 $
63871K1J0 1J020160129100011001/29/16 10:00:31  5-MIN K1J0 291600Z AUTO 32005KT 10SM CLR 13/03 A3010 -70 50 -300 320/05 RMK AO2 T01280028 $
63871K1J0 1J020160129100511001/29/16 10:05:31  5-MIN K1J0 291605Z AUTO 33007KT 10SM CLR 13/03 A3010 -70 50 -200 330/07 RMK AO2 T01330033 $
63871K1J0 1J020160129101011001/29/16 10:10:31  5-MIN K1J0 291610Z AUTO 31005KT 10SM CLR 13/04 A3010 -70 52 -200 310/05 RMK AO2 T01330039 $
63871K1J0 1J020160129101511001/29/16 10:15:31  5-MIN K1J0 291615Z AUTO 32006KT 10SM CLR 13/03 A3010 -70 48 -200 320/06 RMK AO2 T01330028 $
63871K1J0 1J020160129102011001/29/16 10:20:31  5-MIN K1J0 291620Z AUTO VRB03KT 10SM CLR 13/03 A3010 -70 48 -200 VRB/03 RMK AO2 T01330028 $
63871K1J0 1J020160129102511001/29/16 10:25:31  5-MIN K1J0 291625Z AUTO 28004KT 10SM CLR 13/03 A3010 -80 50 -200 280/04 RMK AO2 T01330033 $
63871K1J0 1J020160129103011001/29/16 10:30:31  5-MIN K1J0 291630Z AUTO VRB03KT 10SM CLR 13/03 A3010 -70 48 -200 VRB/03 RMK AO2 T01330028 $
63871K1J0 1J020160129103511001/29/16 10:35:31  5-MIN K1J0 291635Z AUTO 32005KT 10SM CLR 14/03 A3010 -70 47 -100 320/05 RMK AO2 T01390028 $
63871K1J0 1J020160129104011001/29/16 10:40:31  5-MIN K1J0 291640Z AUTO VRB04KT 10SM CLR 14/03 A3009 -70 47 -100 VRB/04 RMK AO2 T01440033 $
63871K1J0 1J020160129104511001/29/16 10:45:31  5-MIN K1J0 291645Z AUTO VRB03KT 10SM CLR 14/03 A3010 -70 47 -100 VRB/03 RMK AO2 T01390028 $
63871K1J0 1J020160129105011001/29/16 10:50:31  5-MIN K1J0 291650Z AUTO VRB03KT 10SM CLR 14/03 A3010 -70 47 -100 VRB/03 RMK AO2 T01440033 $
63871K1J0 1J020160129105511401/29/16 10:55:31  5-MIN K1J0 291655Z AUTO VRB04KT 10SM CLR 15/03 A3009 -70 45 0 VRB/04 RMK AO2 SLP175 T01500033 $
63871K1J0 1J020160129110010701/29/16 11:00:31  5-MIN K1J0 291700Z AUTO 00000KT 10SM CLR 15/04 A3009 -70 47 0 000/00 RMK AO2 T01500039 $
63871K1J0 1J020160129110510701/29/16 11:05:31  5-MIN K1J0 291705Z AUTO 28003KT 10SM CLR 15/03 A3008 -60 45 0 280/03 RMK AO2 T01500033 $
63871K1J0 1J020160129111010701/29/16 11:10:31  5-MIN K1J0 291710Z AUTO VRB04KT 10SM CLR 15/03 A3008 -60 45 0 VRB/04 RMK AO2 T01500033 $
63871K1J0 1J020160129111510701/29/16 11:15:31  5-MIN K1J0 291715Z AUTO 29003KT 10SM CLR 15/03 A3008 -60 45 0 290/03 RMK AO2 T01500033 $
63871K1J0 1J020160129112010701/29/16 11:20:31  5-MIN K1J0 291720Z AUTO VRB03KT 10SM CLR 16/03 A3008 -50 43 0 VRB/03 RMK AO2 T01560033 $
63871K1J0 1J020160129112510701/29/16 11:25:31  5-MIN K1J0 291725Z AUTO VRB03KT 10SM CLR 16/03 A3007 -50 43 0 VRB/03 RMK AO2 T01560033 $
63871K1J0 1J020160129113010901/29/16 11:30:31  5-MIN K1J0 291730Z AUTO VRB04KT 10SM CLR 16/03 A3007 -50 42 100 VRB/04 RMK AO2 T01610033 $
63871K1J0 1J020160129113510901/29/16 11:35:31  5-MIN K1J0 291735Z AUTO VRB03KT 10SM CLR 16/03 A3007 -50 42 100 VRB/03 RMK AO2 T01610033 $
63871K1J0 1J020160129114010901/29/16 11:40:31  5-MIN K1J0 291740Z AUTO 26004KT 10SM CLR 16/03 A3007 -50 42 100 260/04 RMK AO2 T01610033 $
63871K1J0 1J020160129114510901/29/16 11:45:31  5-MIN K1J0 291745Z AUTO VRB03KT 10SM CLR 16/03 A3007 -50 42 100 VRB/03 RMK AO2 T01610033 $
63871K1J0 1J020160129115010901/29/16 11:50:31  5-MIN K1J0 291750Z AUTO VRB03KT 10SM CLR 17/03 A3007 -40 40 200 VRB/03 RMK AO2 T01670033 $
63871K1J0 1J020160129115513401/29/16 11:55:31  5-MIN K1J0 291755Z AUTO 00000KT 10SM CLR 17/03 A3007 -40 40 200 000/00 RMK AO2 SLP166 T01670033 10167 20011 51013 $
63871K1J0 1J020160129120010901/29/16 12:00:31  5-MIN K1J0 291800Z AUTO 00000KT 10SM CLR 17/03 A3007 -40 39 200 000/00 RMK AO2 T01670028 $
63871K1J0 1J020160129120510901/29/16 12:05:31  5-MIN K1J0 291805Z AUTO VRB04KT 10SM CLR 17/03 A3006 -40 39 200 VRB/04 RMK AO2 T01720033 $
63871K1J0 1J020160129121010901/29/16 12:10:31  5-MIN K1J0 291810Z AUTO 28004KT 10SM CLR 17/04 A3006 -40 41 300 280/04 RMK AO2 T01720039 $
63871K1J0 1J020160129121510901/29/16 12:15:31  5-MIN K1J0 291815Z AUTO VRB03KT 10SM CLR 17/04 A3005 -30 41 300 VRB/03 RMK AO2 T01720039 $
63871K1J0 1J020160129122011601/29/16 12:20:31  5-MIN K1J0 291820Z AUTO VRB03KT 10SM CLR 17/03 A3005 -20 39 300 VRB/03 RMK AO2 PRESFR T01720033 $
63871K1J0 1J020160129122511601/29/16 12:25:31  5-MIN K1J0 291825Z AUTO VRB05KT 10SM CLR 18/04 A3004 -20 39 300 VRB/05 RMK AO2 PRESFR T01780039 $
63871K1J0 1J020160129123010901/29/16 12:30:31  5-MIN K1J0 291830Z AUTO VRB03KT 10SM CLR 18/04 A3003 -10 39 300 VRB/03 RMK AO2 T01780039 $
63871K1J0 1J020160129123510901/29/16 12:35:31  5-MIN K1J0 291835Z AUTO 27006KT 10SM CLR 18/04 A3004 -20 39 300 270/06 RMK AO2 T01780039 $
63871K1J0 1J020160129124010901/29/16 12:40:31  5-MIN K1J0 291840Z AUTO VRB04KT 10SM CLR 18/03 A3004 -20 38 300 VRB/04 RMK AO2 T01780033 $
63871K1J0 1J020160129124510901/29/16 12:45:31  5-MIN K1J0 291845Z AUTO 31006KT 10SM CLR 18/03 A3004 -20 36 400 310/06 RMK AO2 T01830033 $
63871K1J0 1J020160129125010901/29/16 12:50:31  5-MIN K1J0 291850Z AUTO VRB04KT 10SM CLR 18/04 A3003 -10 38 400 VRB/04 RMK AO2 T01830039 $
63871K1J0 1J020160129125511601/29/16 12:55:31  5-MIN K1J0 291855Z AUTO 31005KT 10SM CLR 18/03 A3003 -10 36 400 310/05 RMK AO2 SLP155 T01830033 $
63871K1J0 1J020160129130010901/29/16 13:00:31  5-MIN K1J0 291900Z AUTO VRB04KT 10SM CLR 18/04 A3003 -10 38 400 VRB/04 RMK AO2 T01830039 $
63871K1J0 1J020160129130510901/29/16 13:05:31  5-MIN K1J0 291905Z AUTO 30004KT 10SM CLR 19/04 A3003 -10 36 500 300/04 RMK AO2 T01890039 $
63871K1J0 1J020160129131010901/29/16 13:10:31  5-MIN K1J0 291910Z AUTO VRB06KT 10SM CLR 19/04 A3003 -10 36 500 VRB/06 RMK AO2 T01890039 $
63871K1J0 1J020160129131510901/29/16 13:15:31  5-MIN K1J0 291915Z AUTO 27005KT 10SM CLR 19/03 A3003 -10 35 500 270/05 RMK AO2 T01890033 $
63871K1J0 1J020160129132010901/29/16 13:20:31  5-MIN K1J0 291920Z AUTO 28005KT 10SM CLR 19/03 A3003 -10 35 500 280/05 RMK AO2 T01890033 $
63871K1J0 1J020160129132510901/29/16 13:25:31  5-MIN K1J0 291925Z AUTO 28004KT 10SM CLR 19/04 A3003 -10 36 500 280/04 RMK AO2 T01890039 $
63871K1J0 1J020160129133010901/29/16 13:30:31  5-MIN K1J0 291930Z AUTO 28006KT 10SM CLR 19/04 A3003 -10 36 500 280/06 RMK AO2 T01890039 $
63871K1J0 1J020160129133510901/29/16 13:35:31  5-MIN K1J0 291935Z AUTO 29005KT 10SM CLR 19/03 A3003 -10 35 500 290/05 RMK AO2 T01890033 $
63871K1J0 1J020160129134010901/29/16 13:40:31  5-MIN K1J0 291940Z AUTO VRB06KT 10SM CLR 19/04 A3003 -10 35 500 VRB/06 RMK AO2 T01940039 $
63871K1J0 1J020160129134510901/29/16 13:45:31  5-MIN K1J0 291945Z AUTO 31008KT 10SM CLR 19/04 A3003 -10 36 500 310/08 RMK AO2 T01890039 $
63871K1J0 1J020160129135010901/29/16 13:50:31  5-MIN K1J0 291950Z AUTO 32008KT 10SM CLR 19/03 A3003 -10 35 500 320/08 RMK AO2 T01890033 $
63871K1J0 1J020160129135511601/29/16 13:55:31  5-MIN K1J0 291955Z AUTO 33008KT 10SM CLR 19/03 A3003 -10 35 500 330/08 RMK AO2 SLP154 T01890033 $
63871K1J0 1J020160129140010901/29/16 14:00:31  5-MIN K1J0 292000Z AUTO 27004KT 10SM CLR 19/04 A3003 -10 35 500 270/04 RMK AO2 T01940039 $
63871K1J0 1J020160129140510901/29/16 14:05:31  5-MIN K1J0 292005Z AUTO VRB03KT 10SM CLR 19/03 A3003 -10 33 500 VRB/03 RMK AO2 T01940028 $
63871K1J0 1J020160129141010901/29/16 14:10:31  5-MIN K1J0 292010Z AUTO VRB03KT 10SM CLR 20/04 A3003 -10 34 600 VRB/03 RMK AO2 T02000039 $
63871K1J0 1J020160129141510901/29/16 14:15:31  5-MIN K1J0 292015Z AUTO 27006KT 10SM CLR 20/04 A3003 -10 34 600 270/06 RMK AO2 T02000039 $
63871K1J0 1J020160129142010901/29/16 14:20:31  5-MIN K1J0 292020Z AUTO 28004KT 10SM CLR 19/04 A3003 -10 35 500 280/04 RMK AO2 T01940039 $
63871K1J0 1J020160129142510901/29/16 14:25:31  5-MIN K1J0 292025Z AUTO 30006KT 10SM CLR 19/04 A3003 -10 35 500 300/06 RMK AO2 T01940039 $
63871K1J0 1J020160129143010901/29/16 14:30:31  5-MIN K1J0 292030Z AUTO 27006KT 10SM CLR 19/03 A3003 -10 34 500 270/06 RMK AO2 T01940033 $
63871K1J0 1J020160129143510701/29/16 14:35:31  5-MIN K1J0 292035Z AUTO VRB05KT 10SM CLR 19/04 A3002 0 35 500 VRB/05 RMK AO2 T01940039 $
63871K1J0 1J020160129144010701/29/16 14:40:31  5-MIN K1J0 292040Z AUTO 30004KT 10SM CLR 19/04 A3002 0 37 600 300/04 RMK AO2 T01940044 $
63871K1J0 1J020160129144510701/29/16 14:45:31  5-MIN K1J0 292045Z AUTO 31005KT 10SM CLR 19/04 A3002 0 35 600 310/05 RMK AO2 T01940039 $
63871K1J0 1J020160129145010701/29/16 14:50:31  5-MIN K1J0 292050Z AUTO 28004KT 10SM CLR 19/04 A3002 0 35 600 280/04 RMK AO2 T01940039 $
63871K1J0 1J020160129145512001/29/16 14:55:31  5-MIN K1J0 292055Z AUTO 28004KT 10SM CLR 19/04 A3002 0 35 600 280/04 RMK AO2 SLP151 T01940039 58006 $
63871K1J0 1J020160129150010901/29/16 15:00:31  5-MIN K1J0 292100Z AUTO 28005KT 10SM CLR 19/04 A3003 -10 36 500 280/05 RMK AO2 T01890039 $
63871K1J0 1J020160129150510901/29/16 15:05:31  5-MIN K1J0 292105Z AUTO VRB04KT 10SM CLR 19/04 A3003 -10 35 500 VRB/04 RMK AO2 T01940039 $
63871K1J0 1J020160129151010701/29/16 15:10:31  5-MIN K1J0 292110Z AUTO 00000KT 10SM CLR 19/04 A3002 0 37 600 000/00 RMK AO2 T01940044 $
63871K1J0 1J020160129151510701/29/16 15:15:31  5-MIN K1J0 292115Z AUTO 29003KT 10SM CLR 20/04 A3002 0 35 600 290/03 RMK AO2 T02000044 $
63871K1J0 1J020160129152010701/29/16 15:20:31  5-MIN K1J0 292120Z AUTO VRB05KT 10SM CLR 19/03 A3002 0 33 600 VRB/05 RMK AO2 T01940028 $
63871K1J0 1J020160129152510701/29/16 15:25:31  5-MIN K1J0 292125Z AUTO VRB04KT 10SM CLR 19/04 A3002 0 35 600 VRB/04 RMK AO2 T01940039 $
63871K1J0 1J020160129153010901/29/16 15:30:31  5-MIN K1J0 292130Z AUTO 28004KT 10SM CLR 19/03 A3003 -10 34 500 280/04 RMK AO2 T01940033 $
63871K1J0 1J020160129153510901/29/16 15:35:31  5-MIN K1J0 292135Z AUTO 27004KT 10SM CLR 19/03 A3003 -10 35 500 270/04 RMK AO2 T01890033 $
63871K1J0 1J020160129154010901/29/16 15:40:31  5-MIN K1J0 292140Z AUTO 28003KT 10SM CLR 19/03 A3003 -10 35 500 280/03 RMK AO2 T01890033 $
63871K1J0 1J020160129154510901/29/16 15:45:31  5-MIN K1J0 292145Z AUTO 26005KT 10SM CLR 19/04 A3003 -10 36 500 260/05 RMK AO2 T01890039 $
63871K1J0 1J020160129155010901/29/16 15:50:31  5-MIN K1J0 292150Z AUTO 29003KT 10SM CLR 19/03 A3003 -10 35 500 290/03 RMK AO2 T01890033 $
63871K1J0 1J020160129155511601/29/16 15:55:31  5-MIN K1J0 292155Z AUTO VRB03KT 10SM CLR 19/03 A3003 -10 35 500 VRB/03 RMK AO2 SLP154 T01890033 $
63871K1J0 1J020160129160010901/29/16 16:00:31  5-MIN K1J0 292200Z AUTO 27004KT 10SM CLR 19/03 A3003 -10 34 500 270/04 RMK AO2 T01890028 $
63871K1J0 1J020160129160510901/29/16 16:05:31  5-MIN K1J0 292205Z AUTO 28003KT 10SM CLR 18/03 A3003 -10 36 400 280/03 RMK AO2 T01830033 $
63871K1J0 1J020160129161010901/29/16 16:10:31  5-MIN K1J0 292210Z AUTO VRB03KT 10SM CLR 18/04 A3004 -10 38 400 VRB/03 RMK AO2 T01830039 $
63871K1J0 1J020160129161510901/29/16 16:15:31  5-MIN K1J0 292215Z AUTO VRB04KT 10SM CLR 18/03 A3003 -10 36 400 VRB/04 RMK AO2 T01830033 $
63871K1J0 1J020160129162010901/29/16 16:20:31  5-MIN K1J0 292220Z AUTO 26004KT 10SM CLR 18/03 A3003 -10 38 300 260/04 RMK AO2 T01780033 $
63871K1J0 1J020160129162510901/29/16 16:25:31  5-MIN K1J0 292225Z AUTO 28004KT 10SM CLR 18/03 A3003 -10 38 300 280/04 RMK AO2 T01780033 $
63871K1J0 1J020160129163010901/29/16 16:30:31  5-MIN K1J0 292230Z AUTO VRB03KT 10SM CLR 18/04 A3003 -10 39 300 VRB/03 RMK AO2 T01780039 $
63871K1J0 1J020160129163510901/29/16 16:35:31  5-MIN K1J0 292235Z AUTO 00000KT 10SM CLR 18/04 A3003 -10 39 300 000/00 RMK AO2 T01780039 $
63871K1J0 1J020160129164010901/29/16 16:40:31  5-MIN K1J0 292240Z AUTO 00000KT 10SM CLR 17/04 A3003 -10 42 300 000/00 RMK AO2 T01720044 $
63871K1J0 1J020160129164510901/29/16 16:45:31  5-MIN K1J0 292245Z AUTO 00000KT 10SM CLR 17/04 A3004 -20 42 300 000/00 RMK AO2 T01720044 $
63871K1J0 1J020160129165010901/29/16 16:50:31  5-MIN K1J0 292250Z AUTO 00000KT 10SM CLR 17/04 A3004 -20 42 200 000/00 RMK AO2 T01670039 $
63871K1J0 1J020160129165511601/29/16 16:55:31  5-MIN K1J0 292255Z AUTO 00000KT 10SM CLR 16/04 A3004 -20 45 100 000/00 RMK AO2 SLP159 T01610044 $
63871K1J0 1J020160129170010901/29/16 17:00:31  5-MIN K1J0 292300Z AUTO 00000KT 10SM CLR 16/06 A3004 -20 51 100 000/00 RMK AO2 T01560056 $
63871K1J0 1J020160129170511001/29/16 17:05:31  5-MIN K1J0 292305Z AUTO 00000KT 10SM CLR 14/07 A3005 -30 64 -100 000/00 RMK AO2 T01390072 $
63871K1J0 1J020160129171011001/29/16 17:10:31  5-MIN K1J0 292310Z AUTO 00000KT 10SM CLR 13/08 A3005 -30 69 -100 000/00 RMK AO2 T01330078 $
63871K1J0 1J020160129171511001/29/16 17:15:31  5-MIN K1J0 292315Z AUTO 00000KT 10SM CLR 13/08 A3005 -30 69 -100 000/00 RMK AO2 T01330078 $
63871K1J0 1J020160129172011001/29/16 17:20:31  5-MIN K1J0 292320Z AUTO 00000KT 10SM CLR 14/06 A3005 -30 59 -100 000/00 RMK AO2 T01390061 $
63871K1J0 1J020160129172511001/29/16 17:25:31  5-MIN K1J0 292325Z AUTO 00000KT 10SM CLR 12/07 A3006 -30 71 -300 000/00 RMK AO2 T01220072 $
63871K1J0 1J020160129173011001/29/16 17:30:31  5-MIN K1J0 292330Z AUTO 00000KT 10SM CLR 12/07 A3006 -40 68 -300 000/00 RMK AO2 T01220067 $
63871K1J0 1J020160129173511001/29/16 17:35:31  5-MIN K1J0 292335Z AUTO 00000KT 10SM CLR 12/07 A3006 -40 74 -400 000/00 RMK AO2 T01170072 $
63871K1J0 1J020160129174011001/29/16 17:40:31  5-MIN K1J0 292340Z AUTO 00000KT 10SM CLR 12/07 A3006 -40 71 -400 000/00 RMK AO2 T01170067 $
63871K1J0 1J020160129174511001/29/16 17:45:31  5-MIN K1J0 292345Z AUTO 00000KT 10SM CLR 12/07 A3006 -40 74 -400 000/00 RMK AO2 T01170072 $
63871K1J0 1J020160129175011001/29/16 17:50:31  5-MIN K1J0 292350Z AUTO 00000KT 10SM CLR 12/07 A3006 -40 74 -400 000/00 RMK AO2 T01170072 $
63871K1J0 1J020160129175513501/29/16 17:55:31  5-MIN K1J0 292355Z AUTO 00000KT 10SM CLR 11/07 A3007 -40 77 -400 000/00 RMK AO2 SLP168 T01110072 10200 20111 56014 $
63871K1J0 1J020160129180011001/29/16 18:00:31  5-MIN K1J0 300000Z AUTO 00000KT 10SM CLR 11/07 A3007 -50 80 -500 000/00 RMK AO2 T01060072 $
63871K1J0 1J020160129180511001/29/16 18:05:31  5-MIN K1J0 300005Z AUTO 00000KT 10SM CLR 11/07 A3007 -50 80 -500 000/00 RMK AO2 T01060072 $
63871K1J0 1J020160129181011001/29/16 18:10:31  5-MIN K1J0 300010Z AUTO 00000KT 10SM CLR 10/07 A3007 -50 80 -600 000/00 RMK AO2 T01000067 $
63871K1J0 1J020160129181511001/29/16 18:15:31  5-MIN K1J0 300015Z AUTO 20005KT 10SM CLR 10/07 A3008 -60 80 -600 200/05 RMK AO2 T01000067 $
63871K1J0 1J020160129182011001/29/16 18:20:31  5-MIN K1J0 300020Z AUTO 23006KT 10SM CLR 12/06 A3008 -60 66 -400 230/06 RMK AO2 T01170056 $
63871K1J0 1J020160129182511001/29/16 18:25:31  5-MIN K1J0 300025Z AUTO 23008KT 10SM CLR 13/06 A3008 -60 59 -200 230/08 RMK AO2 T01330056 $
63871K1J0 1J020160129183011001/29/16 18:30:31  5-MIN K1J0 300030Z AUTO 22006KT 10SM CLR 13/06 A3008 -60 59 -200 220/06 RMK AO2 T01330056 $
63871K1J0 1J020160129183511001/29/16 18:35:31  5-MIN K1J0 300035Z AUTO 23006KT 10SM CLR 13/06 A3008 -60 59 -200 230/06 RMK AO2 T01330056 $
63871K1J0 1J020160129184011001/29/16 18:40:31  5-MIN K1J0 300040Z AUTO 23005KT 10SM CLR 13/06 A3008 -60 59 -200 230/05 RMK AO2 T01330056 $
63871K1J0 1J020160129184511001/29/16 18:45:31  5-MIN K1J0 300045Z AUTO 23005KT 10SM CLR 13/06 A3008 -60 61 -300 230/05 RMK AO2 T01280056 $
63871K1J0 1J020160129185011001/29/16 18:50:31  5-MIN K1J0 300050Z AUTO 23005KT 10SM CLR 12/06 A3009 -60 66 -300 230/05 RMK AO2 T01220061 $
63871K1J0 1J020160129185511701/29/16 18:55:31  5-MIN K1J0 300055Z AUTO 23005KT 10SM CLR 13/06 A3009 -60 63 -300 230/05 RMK AO2 SLP174 T01280061 $
63871K1J0 1J020160129190011001/29/16 19:00:31  5-MIN K1J0 300100Z AUTO 23005KT 10SM CLR 12/06 A3009 -60 66 -300 230/05 RMK AO2 T01220061 $
63871K1J0 1J020160129190511001/29/16 19:05:31  5-MIN K1J0 300105Z AUTO 23004KT 10SM CLR 13/06 A3009 -60 63 -300 230/04 RMK AO2 T01280061 $
63871K1J0 1J020160129191011001/29/16 19:10:31  5-MIN K1J0 300110Z AUTO 24003KT 10SM CLR 12/06 A3009 -60 66 -300 240/03 RMK AO2 T01220061 $
63871K1J0 1J020160129191511001/29/16 19:15:31  5-MIN K1J0 300115Z AUTO 23003KT 10SM CLR 12/06 A3009 -60 66 -300 230/03 RMK AO2 T01220061 $
63871K1J0 1J020160129192011001/29/16 19:20:31  5-MIN K1J0 300120Z AUTO 00000KT 10SM CLR 12/06 A3009 -60 68 -400 000/00 RMK AO2 T01170061 $
63871K1J0 1J020160129192511001/29/16 19:25:31  5-MIN K1J0 300125Z AUTO 00000KT 10SM CLR 10/07 A3009 -60 80 -600 000/00 RMK AO2 T01000067 $
63871K1J0 1J020160129193011001/29/16 19:30:31  5-MIN K1J0 300130Z AUTO 00000KT 10SM CLR 10/07 A3009 -60 80 -600 000/00 RMK AO2 T01000067 $
63871K1J0 1J020160129193511001/29/16 19:35:31  5-MIN K1J0 300135Z AUTO 00000KT 10SM CLR 09/07 A3009 -70 83 -700 000/00 RMK AO2 T00940067 $
63871K1J0 1J020160129194011001/29/16 19:40:31  5-MIN K1J0 300140Z AUTO 00000KT 10SM CLR 09/07 A3009 -70 83 -700 000/00 RMK AO2 T00940067 $
63871K1J0 1J020160129194511001/29/16 19:45:31  5-MIN K1J0 300145Z AUTO 00000KT 10SM CLR 09/07 A3009 -70 83 -700 000/00 RMK AO2 T00940067 $
63871K1J0 1J020160129195011001/29/16 19:50:31  5-MIN K1J0 300150Z AUTO 00000KT 10SM CLR 09/07 A3009 -70 86 -700 000/00 RMK AO2 T00890067 $
63871K1J0 1J020160129195511701/29/16 19:55:31  5-MIN K1J0 300155Z AUTO 00000KT 10SM CLR 09/07 A3010 -70 86 -700 000/00 RMK AO2 SLP176 T00890067 $
63871K1J0 1J020160129200011001/29/16 20:00:31  5-MIN K1J0 300200Z AUTO 00000KT 10SM CLR 09/07 A3010 -70 86 -700 000/00 RMK AO2 T00890067 $
63871K1J0 1J020160129200511001/29/16 20:05:31  5-MIN K1J0 300205Z AUTO 00000KT 10SM CLR 09/07 A3009 -70 86 -700 000/00 RMK AO2 T00890067 $
63871K1J0 1J020160129201011001/29/16 20:10:31  5-MIN K1J0 300210Z AUTO 00000KT 10SM CLR 09/06 A3009 -70 83 -700 000/00 RMK AO2 T00890061 $
63871K1J0 1J020160129201511001/29/16 20:15:31  5-MIN K1J0 300215Z AUTO 00000KT 10SM CLR 09/06 A3009 -70 83 -700 000/00 RMK AO2 T00890061 $
63871K1J0 1J020160129202011001/29/16 20:20:31  5-MIN K1J0 300220Z AUTO 00000KT 10SM CLR 08/07 A3009 -70 89 -800 000/00 RMK AO2 T00830067 $
63871K1J0 1J020160129202511001/29/16 20:25:31  5-MIN K1J0 300225Z AUTO 00000KT 10SM CLR 08/07 A3010 -70 89 -800 000/00 RMK AO2 T00830067 $
63871K1J0 1J020160129203011001/29/16 20:30:31  5-MIN K1J0 300230Z AUTO 00000KT 10SM CLR 08/06 A3010 -70 86 -800 000/00 RMK AO2 T00830061 $
63871K1J0 1J020160129203511001/29/16 20:35:31  5-MIN K1J0 300235Z AUTO 00000KT 10SM CLR 08/07 A3010 -70 89 -800 000/00 RMK AO2 T00830067 $
63871K1J0 1J020160129204011001/29/16 20:40:31  5-MIN K1J0 300240Z AUTO 00000KT 10SM CLR 08/07 A3010 -70 89 -800 000/00 RMK AO2 T00830067 $
63871K1J0 1J020160129204511001/29/16 20:45:31  5-MIN K1J0 300245Z AUTO 00000KT 10SM CLR 08/07 A3010 -70 89 -800 000/00 RMK AO2 T00830067 $
63871K1J0 1J020160129205011001/29/16 20:50:31  5-MIN K1J0 300250Z AUTO 00000KT 10SM CLR 08/07 A3010 -70 93 -900 000/00 RMK AO2 T00780067 $
63871K1J0 1J020160129205512301/29/16 20:55:31  5-MIN K1J0 300255Z AUTO 00000KT 10SM CLR 08/07 A3010 -70 93 -900 000/00 RMK AO2 SLP178 T00780067 53014 $
63871K1J0 1J020160129210011001/29/16 21:00:31  5-MIN K1J0 300300Z AUTO 00000KT 10SM CLR 08/07 A3010 -70 93 -900 000/00 RMK AO2 T00780067 $
63871K1J0 1J020160129210511001/29/16 21:05:31  5-MIN K1J0 300305Z AUTO 00000KT 10SM CLR 08/07 A3010 -70 93 -900 000/00 RMK AO2 T00780067 $
63871K1J0 1J020160129211011001/29/16 21:10:31  5-MIN K1J0 300310Z AUTO 00000KT 10SM CLR 08/07 A3010 -70 93 -900 000/00 RMK AO2 T00780067 $
63871K1J0 1J020160129211511001/29/16 21:15:31  5-MIN K1J0 300315Z AUTO 00000KT 10SM CLR 07/06 A3010 -80 93 -900 000/00 RMK AO2 T00720061 $
63871K1J0 1J020160129212011001/29/16 21:20:31  5-MIN K1J0 300320Z AUTO 00000KT 10SM CLR 07/06 A3010 -80 93 -900 000/00 RMK AO2 T00720061 $
63871K1J0 1J020160129212511001/29/16 21:25:31  5-MIN K1J0 300325Z AUTO 00000KT 10SM CLR 07/06 A3010 -80 93 -900 000/00 RMK AO2 T00720061 $
63871K1J0 1J020160129213011001/29/16 21:30:31  5-MIN K1J0 300330Z AUTO 00000KT 10SM CLR 07/06 A3010 -80 93 -900 000/00 RMK AO2 T00720061 $
63871K1J0 1J020160129213511101/29/16 21:35:31  5-MIN K1J0 300335Z AUTO 00000KT 10SM CLR 07/06 A3010 -80 96 -1000 000/00 RMK AO2 T00670061 $
63871K1J0 1J020160129214011101/29/16 21:40:31  5-MIN K1J0 300340Z AUTO 00000KT 10SM CLR 07/06 A3010 -80 96 -1000 000/00 RMK AO2 T00670061 $
63871K1J0 1J020160129214511101/29/16 21:45:31  5-MIN K1J0 300345Z AUTO 00000KT 10SM CLR 07/06 A3010 -70 93 -1000 000/00 RMK AO2 T00670056 $
63871K1J0 1J020160129215011101/29/16 21:50:31  5-MIN K1J0 300350Z AUTO 00000KT 10SM CLR 07/06 A3010 -80 93 -1000 000/00 RMK AO2 T00670056 $
63871K1J0 1J020160129215511701/29/16 21:55:31  5-MIN K1J0 300355Z AUTO 00000KT 10SM CLR 07/06 A3010 -80 93 -900 000/00 RMK AO2 SLP178 T00720061 $
63871K1J0 1J020160129220011101/29/16 22:00:31  5-MIN K1J0 300400Z AUTO 00000KT 10SM CLR 07/06 A3010 -70 96 -1000 000/00 RMK AO2 T00670061 $
63871K1J0 1J020160129220511101/29/16 22:05:31  5-MIN K1J0 300405Z AUTO 00000KT 10SM CLR 07/06 A3010 -70 93 -1000 000/00 RMK AO2 T00670056 $
63871K1J0 1J020160129221011101/29/16 22:10:31  5-MIN K1J0 300410Z AUTO 00000KT 10SM CLR 07/06 A3010 -70 93 -1000 000/00 RMK AO2 T00670056 $
63871K1J0 1J020160129221511101/29/16 22:15:31  5-MIN K1J0 300415Z AUTO 00000KT 10SM CLR 07/06 A3009 -70 93 -1000 000/00 RMK AO2 T00670056 $
63871K1J0 1J020160129222011101/29/16 22:20:31  5-MIN K1J0 300420Z AUTO 00000KT 10SM CLR 06/05 A3009 -70 93 -1100 000/00 RMK AO2 T00610050 $
63871K1J0 1J020160129222511101/29/16 22:25:31  5-MIN K1J0 300425Z AUTO 00000KT 10SM CLR 07/05 A3009 -70 89 -1000 000/00 RMK AO2 T00670050 $
63871K1J0 1J020160129223011101/29/16 22:30:31  5-MIN K1J0 300430Z AUTO 00000KT 10SM CLR 07/05 A3009 -60 89 -1000 000/00 RMK AO2 T00670050 $
63871K1J0 1J020160129223511101/29/16 22:35:31  5-MIN K1J0 300435Z AUTO 00000KT 10SM CLR 06/05 A3009 -60 93 -1100 000/00 RMK AO2 T00610050 $
63871K1J0 1J020160129224011101/29/16 22:40:31  5-MIN K1J0 300440Z AUTO 00000KT 10SM CLR 06/05 A3009 -60 93 -1100 000/00 RMK AO2 T00610050 $
63871K1J0 1J020160129224511101/29/16 22:45:31  5-MIN K1J0 300445Z AUTO 00000KT 10SM CLR 06/05 A3008 -60 93 -1100 000/00 RMK AO2 T00610050 $
63871K1J0 1J020160129225011101/29/16 22:50:31  5-MIN K1J0 300450Z AUTO 00000KT 10SM CLR 06/05 A3009 -60 93 -1100 000/00 RMK AO2 T00610050 $
63871K1J0 1J020160129225511801/29/16 22:55:31  5-MIN K1J0 300455Z AUTO 00000KT 10SM CLR 06/05 A3009 -60 96 -1100 000/00 RMK AO2 SLP172 T00560050 $
63871K1J0 1J020160129230011101/29/16 23:00:31  5-MIN K1J0 300500Z AUTO 00000KT 10SM CLR 06/05 A3009 -60 96 -1100 000/00 RMK AO2 T00560050 $
63871K1J0 1J020160129230511101/29/16 23:05:31  5-MIN K1J0 300505Z AUTO 00000KT 10SM CLR 06/05 A3009 -60 96 -1100 000/00 RMK AO2 T00560050 $
63871K1J0 1J020160129231011101/29/16 23:10:31  5-MIN K1J0 300510Z AUTO 00000KT 10SM CLR 06/04 A3008 -60 92 -1100 000/00 RMK AO2 T00560044 $
63871K1J0 1J020160129231511101/29/16 23:15:31  5-MIN K1J0 300515Z AUTO 00000KT 10SM CLR 06/05 A3008 -60 96 -1100 000/00 RMK AO2 T00560050 $
63871K1J0 1J020160129232011101/29/16 23:20:31  5-MIN K1J0 300520Z AUTO 00000KT 10SM CLR 06/04 A3008 -60 92 -1100 000/00 RMK AO2 T00560044 $
63871K1J0 1J020160129232511101/29/16 23:25:31  5-MIN K1J0 300525Z AUTO 00000KT 10SM CLR 06/04 A3009 -60 92 -1100 000/00 RMK AO2 T00560044 $
63871K1J0 1J020160129233011101/29/16 23:30:31  5-MIN K1J0 300530Z AUTO 00000KT 10SM CLR 06/04 A3009 -60 92 -1100 000/00 RMK AO2 T00560044 $
63871K1J0 1J020160129233511101/29/16 23:35:31  5-MIN K1J0 300535Z AUTO 00000KT 10SM CLR 06/04 A3009 -60 92 -1100 000/00 RMK AO2 T00560044 $
63871K1J0 1J020160129234011101/29/16 23:40:31  5-MIN K1J0 300540Z AUTO 00000KT 10SM CLR 05/04 A3008 -60 96 -1200 000/00 RMK AO2 T00500044 $
63871K1J0 1J020160129234511101/29/16 23:45:31  5-MIN K1J0 300545Z AUTO 00000KT 10SM CLR 05/04 A3008 -60 92 -1200 000/00 RMK AO2 T00500039 $
63871K1J0 1J020160129235011101/29/16 23:50:31  5-MIN K1J0 300550Z AUTO 00000KT 10SM CLR 05/04 A3008 -60 96 -1200 000/00 RMK AO2 T00500044 $
63871K1J0 1J020160129235514601/29/16 23:55:31  5-MIN K1J0 300555Z AUTO 00000KT 10SM CLR 05/04 A3008 -60 96 -1200 000/00 RMK AO2 SLP172 T00500044 10133 20050 402000011 51011 $
63871K1J0 1J020160130000011101/30/16 00:00:31  5-MIN K1J0 300600Z AUTO 00000KT 10SM CLR 05/04 A3008 -60 96 -1200 000/00 RMK AO2 T00500044 $
63871K1J0 1J020160130000511101/30/16 00:05:31  5-MIN K1J0 300605Z AUTO 00000KT 10SM CLR 05/04 A3009 -60 96 -1200 000/00 RMK AO2 T00500044 $
63871K1J0 1J020160130001011101/30/16 00:10:31  5-MIN K1J0 300610Z AUTO 00000KT 10SM CLR 05/04 A3009 -60 92 -1200 000/00 RMK AO2 T00500039 $
63871K1J0 1J020160130001511101/30/16 00:15:31  5-MIN K1J0 300615Z AUTO 00000KT 10SM CLR 05/04 A3009 -60 92 -1200 000/00 RMK AO2 T00500039 $
63871K1J0 1J020160130002011101/30/16 00:20:31  5-MIN K1J0 300620Z AUTO 00000KT 10SM CLR 05/04 A3009 -60 92 -1200 000/00 RMK AO2 T00500039 $
63871K1J0 1J020160130002511101/30/16 00:25:31  5-MIN K1J0 300625Z AUTO 00000KT 10SM CLR 05/04 A3009 -70 92 -1200 000/00 RMK AO2 T00500039 $
63871K1J0 1J020160130003011101/30/16 00:30:31  5-MIN K1J0 300630Z AUTO 00000KT 10SM CLR 05/04 A3009 -70 92 -1200 000/00 RMK AO2 T00500039 $
63871K1J0 1J020160130003511101/30/16 00:35:31  5-MIN K1J0 300635Z AUTO 00000KT 10SM CLR 04/04 A3009 -60 96 -1300 000/00 RMK AO2 T00440039 $
63871K1J0 1J020160130004011101/30/16 00:40:31  5-MIN K1J0 300640Z AUTO 00000KT 10SM CLR 05/04 A3009 -60 92 -1200 000/00 RMK AO2 T00500039 $
63871K1J0 1J020160130004511101/30/16 00:45:31  5-MIN K1J0 300645Z AUTO 00000KT 10SM CLR 04/04 A3009 -70 96 -1300 000/00 RMK AO2 T00440039 $
63871K1J0 1J020160130005011101/30/16 00:50:31  5-MIN K1J0 300650Z AUTO 00000KT 10SM CLR 04/04 A3009 -70 96 -1300 000/00 RMK AO2 T00440039 $
63871K1J0 1J020160130005511801/30/16 00:55:31  5-MIN K1J0 300655Z AUTO 00000KT 10SM CLR 04/04 A3009 -70 96 -1300 000/00 RMK AO2 SLP175 T00440039 $
63871K1J0 1J020160130010011101/30/16 01:00:31  5-MIN K1J0 300700Z AUTO 00000KT 10SM CLR 04/04 A3010 -70 96 -1300 000/00 RMK AO2 T00440039 $
63871K1J0 1J020160130010511101/30/16 01:05:31  5-MIN K1J0 300705Z AUTO 00000KT 10SM CLR 04/04 A3010 -70 96 -1300 000/00 RMK AO2 T00440039 $
63871K1J0 1J020160130011011101/30/16 01:10:31  5-MIN K1J0 300710Z AUTO 00000KT 10SM CLR 04/03 A3010 -70 92 -1300 000/00 RMK AO2 T00440033 $
63871K1J0 1J020160130011511101/30/16 01:15:31  5-MIN K1J0 300715Z AUTO 00000KT 10SM CLR 04/03 A3010 -70 92 -1300 000/00 RMK AO2 T00440033 $
63871K1J0 1J020160130012011101/30/16 01:20:31  5-MIN K1J0 300720Z AUTO 00000KT 10SM CLR 04/03 A3010 -70 92 -1300 000/00 RMK AO2 T00440033 $
63871K1J0 1J020160130012511101/30/16 01:25:31  5-MIN K1J0 300725Z AUTO 00000KT 10SM CLR 04/03 A3010 -70 96 -1400 000/00 RMK AO2 T00390033 $
63871K1J0 1J020160130013011101/30/16 01:30:31  5-MIN K1J0 300730Z AUTO 00000KT 10SM CLR 04/03 A3010 -70 96 -1400 000/00 RMK AO2 T00390033 $
63871K1J0 1J020160130013511101/30/16 01:35:31  5-MIN K1J0 300735Z AUTO 00000KT 10SM CLR 04/03 A3010 -80 96 -1400 000/00 RMK AO2 T00390033 $
63871K1J0 1J020160130014011101/30/16 01:40:31  5-MIN K1J0 300740Z AUTO 00000KT 10SM CLR 04/03 A3010 -80 96 -1400 000/00 RMK AO2 T00390033 $
63871K1J0 1J020160130014511101/30/16 01:45:31  5-MIN K1J0 300745Z AUTO 00000KT 10SM CLR 04/03 A3010 -80 92 -1400 000/00 RMK AO2 T00390028 $
63871K1J0 1J020160130015011101/30/16 01:50:31  5-MIN K1J0 300750Z AUTO 00000KT 10SM CLR 04/03 A3010 -70 92 -1400 000/00 RMK AO2 T00390028 $
63871K1J0 1J020160130015511801/30/16 01:55:31  5-MIN K1J0 300755Z AUTO 00000KT 10SM CLR 04/03 A3010 -70 92 -1400 000/00 RMK AO2 SLP176 T00390028 $
63871K1J0 1J020160130020011101/30/16 02:00:31  5-MIN K1J0 300800Z AUTO 00000KT 10SM CLR 04/03 A3010 -70 92 -1400 000/00 RMK AO2 T00390028 $
63871K1J0 1J020160130020511101/30/16 02:05:31  5-MIN K1J0 300805Z AUTO 00000KT 10SM CLR 04/03 A3010 -70 92 -1400 000/00 RMK AO2 T00390028 $
63871K1J0 1J020160130021011101/30/16 02:10:31  5-MIN K1J0 300810Z AUTO 00000KT 10SM CLR 04/03 A3009 -70 92 -1400 000/00 RMK AO2 T00390028 $
63871K1J0 1J020160130021511101/30/16 02:15:31  5-MIN K1J0 300815Z AUTO 00000KT 10SM CLR 04/03 A3009 -70 96 -1400 000/00 RMK AO2 T00390033 $
63871K1J0 1J020160130022011101/30/16 02:20:31  5-MIN K1J0 300820Z AUTO 00000KT 10SM CLR 04/03 A3009 -70 92 -1400 000/00 RMK AO2 T00390028 $
63871K1J0 1J020160130022511101/30/16 02:25:31  5-MIN K1J0 300825Z AUTO 00000KT 10SM CLR 04/03 A3009 -70 92 -1300 000/00 RMK AO2 T00390028 $
63871K1J0 1J020160130023011101/30/16 02:30:31  5-MIN K1J0 300830Z AUTO 00000KT 10SM CLR 04/03 A3009 -70 92 -1400 000/00 RMK AO2 T00390028 $
63871K1J0 1J020160130023511101/30/16 02:35:31  5-MIN K1J0 300835Z AUTO 00000KT 10SM CLR 04/03 A3009 -70 92 -1300 000/00 RMK AO2 T00390028 $
63871K1J0 1J020160130024011101/30/16 02:40:31  5-MIN K1J0 300840Z AUTO 00000KT 10SM CLR 04/03 A3009 -70 92 -1300 000/00 RMK AO2 T00390028 $
63871K1J0 1J020160130024511101/30/16 02:45:31  5-MIN K1J0 300845Z AUTO 00000KT 10SM CLR 04/03 A3010 -70 92 -1400 000/00 RMK AO2 T00390028 $
63871K1J0 1J020160130025011101/30/16 02:50:31  5-MIN K1J0 300850Z AUTO 00000KT 10SM CLR 03/03 A3010 -70 96 -1400 000/00 RMK AO2 T00330028 $
63871K1J0 1J020160130025512401/30/16 02:55:31  5-MIN K1J0 300855Z AUTO 00000KT 10SM CLR 03/03 A3010 -80 96 -1400 000/00 RMK AO2 SLP177 T00330028 58005 $
63871K1J0 1J020160130030011101/30/16 03:00:31  5-MIN K1J0 300900Z AUTO 00000KT 10SM CLR 03/03 A3010 -80 96 -1400 000/00 RMK AO2 T00330028 $
63871K1J0 1J020160130030511101/30/16 03:05:31  5-MIN K1J0 300905Z AUTO 00000KT 10SM CLR 03/03 A3010 -80 96 -1400 000/00 RMK AO2 T00330028 $
63871K1J0 1J020160130031011101/30/16 03:10:31  5-MIN K1J0 300910Z AUTO 00000KT 10SM CLR 03/03 A3010 -70 96 -1400 000/00 RMK AO2 T00330028 $
63871K1J0 1J020160130031511101/30/16 03:15:31  5-MIN K1J0 300915Z AUTO 00000KT 10SM CLR 03/03 A3010 -80 96 -1400 000/00 RMK AO2 T00330028 $
63871K1J0 1J020160130032011101/30/16 03:20:31  5-MIN K1J0 300920Z AUTO 00000KT 10SM CLR 03/03 A3011 -80 96 -1400 000/00 RMK AO2 T00330028 $
63871K1J0 1J020160130032511101/30/16 03:25:31  5-MIN K1J0 300925Z AUTO 00000KT 10SM CLR 03/03 A3011 -80 96 -1400 000/00 RMK AO2 T00330028 $
63871K1J0 1J020160130033011101/30/16 03:30:31  5-MIN K1J0 300930Z AUTO 00000KT 10SM CLR 03/03 A3011 -80 96 -1400 000/00 RMK AO2 T00330028 $
63871K1J0 1J020160130033511101/30/16 03:35:31  5-MIN K1J0 300935Z AUTO 00000KT 10SM CLR 03/02 A3011 -80 92 -1400 000/00 RMK AO2 T00330022 $
63871K1J0 1J020160130034011101/30/16 03:40:31  5-MIN K1J0 300940Z AUTO 00000KT 10SM CLR 03/03 A3010 -80 96 -1400 000/00 RMK AO2 T00330028 $
63871K1J0 1J020160130034511401/30/16 03:45:31  5-MIN K1J0 300945Z AUTO 00000KT 10SM FEW002 03/03 A3011 -80 96 -1400 000/00 RMK AO2 T00330028 $
63871K1J0 1J020160130035011401/30/16 03:50:31  5-MIN K1J0 300950Z AUTO 00000KT 10SM SCT002 03/03 A3010 -80 96 -1400 000/00 RMK AO2 T00330028 $
63871K1J0 1J020160130035512101/30/16 03:55:31  5-MIN K1J0 300955Z AUTO 00000KT 10SM BKN002 03/02 A3010 -70 92 -1400 000/00 RMK AO2 SLP177 T00330022 $
63871K1J0 1J020160130040011301/30/16 04:00:31  5-MIN K1J0 301000Z AUTO 00000KT 9SM BKN002 03/03 A3010 -70 96 -1400 000/00 RMK AO2 T00330028 $
63871K1J0 1J020160130040511301/30/16 04:05:31  5-MIN K1J0 301005Z AUTO 00000KT 8SM BKN002 03/03 A3009 -70 96 -1400 000/00 RMK AO2 T00330028 $
63871K1J0 1J020160130041011401/30/16 04:10:31  5-MIN K1J0 301010Z AUTO 00000KT 10SM OVC002 03/03 A3010 -70 96 -1400 000/00 RMK AO2 T00330028 $
63871K1J0 1J020160130041511401/30/16 04:15:31  5-MIN K1J0 301015Z AUTO 00000KT 10SM OVC002 03/03 A3010 -70 96 -1400 000/00 RMK AO2 T00330028 $
63871K1J0 1J020160130042011401/30/16 04:20:31  5-MIN K1J0 301020Z AUTO 00000KT 10SM OVC002 03/03 A3010 -70 96 -1400 000/00 RMK AO2 T00330028 $
63871K1J0 1J020160130042511401/30/16 04:25:31  5-MIN K1J0 301025Z AUTO 00000KT 10SM OVC002 03/03 A3010 -80 96 -1400 000/00 RMK AO2 T00330028 $
63871K1J0 1J020160130043011301/30/16 04:30:31  5-MIN K1J0 301030Z AUTO 00000KT 8SM OVC002 03/03 A3010 -80 96 -1400 000/00 RMK AO2 T00330028 $
63871K1J0 1J020160130043511601/30/16 04:35:31  5-MIN K1J0 301035Z AUTO 00000KT 3SM BR OVC002 03/03 A3010 -80 96 -1400 000/00 RMK AO2 T00330028 $
63871K1J0 1J020160130044011601/30/16 04:40:31  5-MIN K1J0 301040Z AUTO 00000KT 3SM BR OVC002 03/03 A3011 -80 96 -1400 000/00 RMK AO2 T00330028 $
63871K1J0 1J020160130044513701/30/16 04:45:31  5-MIN K1J0 301045Z AUTO 00000KT 8SM -RA OVC002 03/03 A3011 -80 96 -1400 000/00 RMK AO2 RAB45SNB44E45 P0000 T00330028 $
63871K1J0 1J020160130045013801/30/16 04:50:31  5-MIN K1J0 301050Z AUTO 00000KT 10SM -RA OVC002 03/03 A3011 -80 96 -1400 000/00 RMK AO2 RAB45SNB44E45 P0000 T00330028 $
63871K1J0 1J020160130045514401/30/16 04:55:31  5-MIN K1J0 301055Z AUTO 00000KT 10SM OVC002 03/03 A3011 -80 96 -1400 000/00 RMK AO2 RAB45E53SNB44E54 SLP179 P0000 T00330028 $
63871K1J0 1J020160130050011401/30/16 05:00:31  5-MIN K1J0 301100Z AUTO 00000KT 10SM OVC002 03/03 A3011 -80 96 -1400 000/00 RMK AO2 T00330028 $
63871K1J0 1J020160130050511401/30/16 05:05:31  5-MIN K1J0 301105Z AUTO 00000KT 10SM OVC002 03/03 A3011 -80 96 -1400 000/00 RMK AO2 T00330028 $
63871K1J0 1J020160130051011401/30/16 05:10:31  5-MIN K1J0 301110Z AUTO 00000KT 10SM OVC002 03/03 A3011 -80 96 -1400 000/00 RMK AO2 T00330028 $
63871K1J0 1J020160130051511401/30/16 05:15:31  5-MIN K1J0 301115Z AUTO 00000KT 10SM BKN002 03/03 A3011 -90 96 -1400 000/00 RMK AO2 T00330028 $
63871K1J0 1J020160130052011401/30/16 05:20:31  5-MIN K1J0 301120Z AUTO 00000KT 10SM BKN002 03/03 A3011 -90 96 -1400 000/00 RMK AO2 T00330028 $
63871K1J0 1J020160130052511301/30/16 05:25:31  5-MIN K1J0 301125Z AUTO 00000KT 9SM BKN002 03/02 A3012 -90 92 -1400 000/00 RMK AO2 T00330022 $
63871K1J0 1J020160130053011301/30/16 05:30:31  5-MIN K1J0 301130Z AUTO 00000KT 9SM SCT002 03/02 A3012 -90 92 -1400 000/00 RMK AO2 T00330022 $
63871K1J0 1J020160130053511401/30/16 05:35:31  5-MIN K1J0 301135Z AUTO 00000KT 10SM FEW002 03/02 A3012 -90 96 -1500 000/00 RMK AO2 T00280022 $
63871K1J0 1J020160130054011501/30/16 05:40:31  5-MIN K1J0 301140Z AUTO 00000KT 10SM FEW002 03/02 A3012 -100 96 -1500 000/00 RMK AO2 T00280022 $
63871K1J0 1J020160130054511201/30/16 05:45:31  5-MIN K1J0 301145Z AUTO 00000KT 10SM CLR 03/02 A3013 -100 92 -1500 000/00 RMK AO2 T00330022 $
63871K1J0 1J020160130055011201/30/16 05:50:31  5-MIN K1J0 301150Z AUTO 00000KT 10SM CLR 03/02 A3013 -110 92 -1500 000/00 RMK AO2 T00330022 $
63871K1J0 1J020160130055514301/30/16 05:55:31  5-MIN K1J0 301155Z AUTO 00000KT 10SM CLR 03/02 A3013 -100 92 -1500 000/00 RMK AO2 SLP189 60000 T00330022 10050 20028 51006 $
63871K1J0 1J020160130060011201/30/16 06:00:31  5-MIN K1J0 301200Z AUTO 00000KT 10SM CLR 03/02 A3013 -100 96 -1500 000/00 RMK AO2 T00280022 $
63871K1J0 1J020160130060511201/30/16 06:05:31  5-MIN K1J0 301205Z AUTO 00000KT 10SM CLR 03/02 A3013 -110 92 -1500 000/00 RMK AO2 T00330022 $
63871K1J0 1J020160130061011201/30/16 06:10:31  5-MIN K1J0 301210Z AUTO 00000KT 10SM CLR 03/02 A3013 -110 92 -1500 000/00 RMK AO2 T00330022 $
63871K1J0 1J020160130061511201/30/16 06:15:31  5-MIN K1J0 301215Z AUTO 00000KT 10SM CLR 03/02 A3014 -110 92 -1500 000/00 RMK AO2 T00330022 $
63871K1J0 1J020160130062011201/30/16 06:20:31  5-MIN K1J0 301220Z AUTO 00000KT 10SM CLR 03/02 A3014 -110 96 -1500 000/00 RMK AO2 T00280022 $
63871K1J0 1J020160130062511201/30/16 06:25:31  5-MIN K1J0 301225Z AUTO 00000KT 10SM CLR 03/02 A3014 -110 96 -1500 000/00 RMK AO2 T00280022 $
63871K1J0 1J020160130063011201/30/16 06:30:31  5-MIN K1J0 301230Z AUTO 00000KT 10SM CLR 03/02 A3014 -110 96 -1500 000/00 RMK AO2 T00280022 $
63871K1J0 1J020160130063511201/30/16 06:35:31  5-MIN K1J0 301235Z AUTO 00000KT 10SM CLR 03/02 A3014 -120 92 -1500 000/00 RMK AO2 T00280017 $
63871K1J0 1J020160130064011201/30/16 06:40:31  5-MIN K1J0 301240Z AUTO 00000KT 10SM CLR 03/02 A3015 -120 96 -1600 000/00 RMK AO2 T00280022 $
63871K1J0 1J020160130064511201/30/16 06:45:31  5-MIN K1J0 301245Z AUTO 00000KT 10SM CLR 03/02 A3015 -120 96 -1600 000/00 RMK AO2 T00280022 $
63871K1J0 1J020160130065011201/30/16 06:50:31  5-MIN K1J0 301250Z AUTO 00000KT 10SM CLR 03/02 A3016 -130 96 -1600 000/00 RMK AO2 T00280022 $
63871K1J0 1J020160130065511901/30/16 06:55:31  5-MIN K1J0 301255Z AUTO 00000KT 10SM CLR 03/02 A3016 -130 92 -1500 000/00 RMK AO2 SLP197 T00330022 $
63871K1J0 1J020160130070011201/30/16 07:00:31  5-MIN K1J0 301300Z AUTO 00000KT 10SM CLR 03/02 A3016 -130 92 -1500 000/00 RMK AO2 T00330022 $
63871K1J0 1J020160130070511201/30/16 07:05:31  5-MIN K1J0 301305Z AUTO 00000KT 10SM CLR 03/03 A3016 -130 96 -1500 000/00 RMK AO2 T00330028 $
63871K1J0 1J020160130071011201/30/16 07:10:31  5-MIN K1J0 301310Z AUTO 00000KT 10SM CLR 04/03 A3017 -140 96 -1400 000/00 RMK AO2 T00390033 $
63871K1J0 1J020160130071511201/30/16 07:15:31  5-MIN K1J0 301315Z AUTO 00000KT 10SM CLR 04/04 A3017 -130 96 -1400 000/00 RMK AO2 T00440039 $
63871K1J0 1J020160130072011201/30/16 07:20:31  5-MIN K1J0 301320Z AUTO 00000KT 10SM CLR 04/04 A3017 -140 96 -1400 000/00 RMK AO2 T00440039 $
63871K1J0 1J020160130072511201/30/16 07:25:31  5-MIN K1J0 301325Z AUTO 00000KT 10SM CLR 04/04 A3017 -140 96 -1400 000/00 RMK AO2 T00440039 $
63871K1J0 1J020160130073011201/30/16 07:30:31  5-MIN K1J0 301330Z AUTO 00000KT 10SM CLR 04/04 A3017 -140 96 -1400 000/00 RMK AO2 T00440039 $
63871K1J0 1J020160130073511201/30/16 07:35:31  5-MIN K1J0 301335Z AUTO 00000KT 10SM CLR 05/04 A3017 -140 96 -1300 000/00 RMK AO2 T00500044 $
63871K1J0 1J020160130074011201/30/16 07:40:31  5-MIN K1J0 301340Z AUTO 00000KT 10SM CLR 06/05 A3017 -140 96 -1200 000/00 RMK AO2 T00560050 $
63871K1J0 1J020160130074511201/30/16 07:45:31  5-MIN K1J0 301345Z AUTO 00000KT 10SM CLR 06/05 A3017 -140 93 -1200 000/00 RMK AO2 T00610050 $
63871K1J0 1J020160130075011201/30/16 07:50:31  5-MIN K1J0 301350Z AUTO 00000KT 10SM CLR 06/05 A3017 -140 93 -1200 000/00 RMK AO2 T00610050 $
63871K1J0 1J020160130075511901/30/16 07:55:31  5-MIN K1J0 301355Z AUTO 00000KT 10SM CLR 06/05 A3018 -150 93 -1200 000/00 RMK AO2 SLP205 T00610050 $
63871K1J0 1J020160130080011201/30/16 08:00:31  5-MIN K1J0 301400Z AUTO 00000KT 10SM CLR 06/06 A3018 -150 96 -1200 000/00 RMK AO2 T00610056 $
63871K1J0 1J020160130080511201/30/16 08:05:31  5-MIN K1J0 301405Z AUTO 00000KT 10SM CLR 07/06 A3018 -150 96 -1100 000/00 RMK AO2 T00670061 $
63871K1J0 1J020160130081011201/30/16 08:10:31  5-MIN K1J0 301410Z AUTO 00000KT 10SM CLR 07/06 A3019 -150 96 -1100 000/00 RMK AO2 T00670061 $
63871K1J0 1J020160130081511301/30/16 08:15:31  5-MIN K1J0 301415Z AUTO 00000KT 10SM CLR 07/07 A3019 -160 100 -1100 000/00 RMK AO2 T00670067 $
63871K1J0 1J020160130082011201/30/16 08:20:31  5-MIN K1J0 301420Z AUTO 00000KT 10SM CLR 07/07 A3019 -160 96 -1000 000/00 RMK AO2 T00720067 $
63871K1J0 1J020160130082511201/30/16 08:25:31  5-MIN K1J0 301425Z AUTO 00000KT 10SM CLR 07/07 A3019 -160 96 -1000 000/00 RMK AO2 T00720067 $
63871K1J0 1J020160130083011201/30/16 08:30:31  5-MIN K1J0 301430Z AUTO 00000KT 10SM CLR 07/07 A3019 -160 96 -1000 000/00 RMK AO2 T00720067 $
63871K1J0 1J020160130083511201/30/16 08:35:31  5-MIN K1J0 301435Z AUTO 00000KT 10SM CLR 08/07 A3019 -160 93 -1000 000/00 RMK AO2 T00780067 $
63871K1J0 1J020160130084011201/30/16 08:40:31  5-MIN K1J0 301440Z AUTO 00000KT 10SM CLR 08/07 A3019 -160 93 -1000 000/00 RMK AO2 T00780067 $
63871K1J0 1J020160130084511101/30/16 08:45:31  5-MIN K1J0 301445Z AUTO 00000KT 10SM CLR 08/07 A3019 -160 93 -900 000/00 RMK AO2 T00830072 $
63871K1J0 1J020160130085011101/30/16 08:50:31  5-MIN K1J0 301450Z AUTO 00000KT 10SM CLR 09/07 A3019 -160 89 -800 000/00 RMK AO2 T00890072 $
63871K1J0 1J020160130085512401/30/16 08:55:31  5-MIN K1J0 301455Z AUTO 00000KT 10SM CLR 09/07 A3019 -160 89 -800 000/00 RMK AO2 SLP210 T00890072 53010 $
63871K1J0 1J020160130090011101/30/16 09:00:31  5-MIN K1J0 301500Z AUTO 00000KT 10SM CLR 09/08 A3020 -160 89 -800 000/00 RMK AO2 T00940078 $
63871K1J0 1J020160130090511101/30/16 09:05:31  5-MIN K1J0 301505Z AUTO 00000KT 10SM CLR 10/08 A3020 -160 86 -700 000/00 RMK AO2 T01000078 $
63871K1J0 1J020160130091011101/30/16 09:10:31  5-MIN K1J0 301510Z AUTO 00000KT 10SM CLR 11/08 A3020 -170 86 -700 000/00 RMK AO2 T01060083 $
63871K1J0 1J020160130091511101/30/16 09:15:31  5-MIN K1J0 301515Z AUTO 00000KT 10SM CLR 11/09 A3020 -160 86 -600 000/00 RMK AO2 T01110089 $
63871K1J0 1J020160130092011101/30/16 09:20:31  5-MIN K1J0 301520Z AUTO 14003KT 10SM CLR 12/09 A3020 -170 83 -500 140/03 RMK AO2 T01170089 $
63871K1J0 1J020160130092511101/30/16 09:25:31  5-MIN K1J0 301525Z AUTO 00000KT 10SM CLR 12/09 A3020 -170 80 -500 000/00 RMK AO2 T01220089 $
63871K1J0 1J020160130093011101/30/16 09:30:31  5-MIN K1J0 301530Z AUTO 00000KT 10SM CLR 12/09 A3020 -170 80 -500 000/00 RMK AO2 T01220089 $
63871K1J0 1J020160130093511101/30/16 09:35:31  5-MIN K1J0 301535Z AUTO 00000KT 10SM CLR 13/09 A3020 -160 77 -400 000/00 RMK AO2 T01280089 $
63871K1J0 1J020160130094011101/30/16 09:40:31  5-MIN K1J0 301540Z AUTO 00000KT 10SM CLR 13/09 A3019 -160 74 -300 000/00 RMK AO2 T01330089 $
63871K1J0 1J020160130094511101/30/16 09:45:31  5-MIN K1J0 301545Z AUTO 00000KT 10SM CLR 13/09 A3019 -160 74 -300 000/00 RMK AO2 T01330089 $
63871K1J0 1J020160130095011101/30/16 09:50:31  5-MIN K1J0 301550Z AUTO 00000KT 10SM CLR 14/09 A3019 -160 72 -200 000/00 RMK AO2 T01440094 $
63871K1J0 1J020160130095511801/30/16 09:55:31  5-MIN K1J0 301555Z AUTO 00000KT 10SM CLR 15/09 A3019 -160 69 -100 000/00 RMK AO2 SLP208 T01500094 $
63871K1J0 1J020160130100010801/30/16 10:00:31  5-MIN K1J0 301600Z AUTO 00000KT 10SM CLR 16/09 A3019 -160 64 0 000/00 RMK AO2 T01560089 $
63871K1J0 1J020160130100511101/30/16 10:05:31  5-MIN K1J0 301605Z AUTO 00000KT 10SM CLR 15/09 A3019 -160 66 -100 000/00 RMK AO2 T01500089 $
63871K1J0 1J020160130101010801/30/16 10:10:31  5-MIN K1J0 301610Z AUTO 00000KT 10SM CLR 16/08 A3019 -150 62 0 000/00 RMK AO2 T01560083 $
63871K1J0 1J020160130101510801/30/16 10:15:31  5-MIN K1J0 301615Z AUTO 13003KT 10SM CLR 16/09 A3018 -150 62 0 130/03 RMK AO2 T01610089 $
63871K1J0 1J020160130102011001/30/16 10:20:31  5-MIN K1J0 301620Z AUTO 14004KT 10SM CLR 17/09 A3018 -150 57 100 140/04 RMK AO2 T01720089 $
63871K1J0 1J020160130102511001/30/16 10:25:31  5-MIN K1J0 301625Z AUTO 15003KT 10SM CLR 17/09 A3018 -140 57 100 150/03 RMK AO2 T01720089 $
63871K1J0 1J020160130103011001/30/16 10:30:31  5-MIN K1J0 301630Z AUTO VRB03KT 10SM CLR 17/08 A3017 -140 55 100 VRB/03 RMK AO2 T01720083 $
63871K1J0 1J020160130103511001/30/16 10:35:31  5-MIN K1J0 301635Z AUTO 15004KT 10SM CLR 18/08 A3018 -150 51 200 150/04 RMK AO2 T01780078 $
63871K1J0 1J020160130104011001/30/16 10:40:31  5-MIN K1J0 301640Z AUTO 21006KT 10SM CLR 18/07 A3018 -150 49 200 210/06 RMK AO2 T01780072 $
63871K1J0 1J020160130104511001/30/16 10:45:31  5-MIN K1J0 301645Z AUTO VRB05KT 10SM CLR 18/08 A3018 -150 51 200 VRB/05 RMK AO2 T01780078 $
63871K1J0 1J020160130105011001/30/16 10:50:31  5-MIN K1J0 301650Z AUTO 19008KT 10SM CLR 18/08 A3018 -150 51 200 190/08 RMK AO2 T01780078 $
63871K1J0 1J020160130105511701/30/16 10:55:31  5-MIN K1J0 301655Z AUTO VRB04KT 10SM CLR 18/08 A3018 -140 50 200 VRB/04 RMK AO2 SLP203 T01830078 $
63871K1J0 1J020160130110011001/30/16 11:00:31  5-MIN K1J0 301700Z AUTO 19007KT 10SM CLR 18/08 A3018 -140 52 200 190/07 RMK AO2 T01830083 $
63871K1J0 1J020160130110511001/30/16 11:05:31  5-MIN K1J0 301705Z AUTO 20006KT 10SM CLR 18/09 A3018 -140 54 200 200/06 RMK AO2 T01830089 $
63871K1J0 1J020160130111011001/30/16 11:10:31  5-MIN K1J0 301710Z AUTO 18008KT 10SM CLR 18/08 A3018 -140 52 200 180/08 RMK AO2 T01830083 $
63871K1J0 1J020160130111512601/30/16 11:15:31  5-MIN K1J0 301715Z AUTO 18008KT 140V220 10SM CLR 19/08 A3017 -140 50 300 180/08 140V220 RMK AO2 T01890083 $
63871K1J0 1J020160130112011001/30/16 11:20:31  5-MIN K1J0 301720Z AUTO 20008KT 10SM CLR 18/08 A3017 -140 52 300 200/08 RMK AO2 T01830083 $
63871K1J0 1J020160130112511001/30/16 11:25:31  5-MIN K1J0 301725Z AUTO VRB06KT 10SM CLR 19/08 A3016 -130 50 300 VRB/06 RMK AO2 T01890083 $
63871K1J0 1J020160130113011001/30/16 11:30:31  5-MIN K1J0 301730Z AUTO 20008KT 10SM CLR 19/08 A3016 -130 48 300 200/08 RMK AO2 T01890078 $
63871K1J0 1J020160130113511001/30/16 11:35:31  5-MIN K1J0 301735Z AUTO 20007KT 10SM CLR 19/08 A3015 -120 48 300 200/07 RMK AO2 T01890078 $
63871K1J0 1J020160130114011701/30/16 11:40:31  5-MIN K1J0 301740Z AUTO 17011KT 10SM CLR 19/08 A3014 -120 50 300 170/11 RMK AO2 PRESFR T01890083 $
63871K1J0 1J020160130114511001/30/16 11:45:31  5-MIN K1J0 301745Z AUTO 16010KT 10SM CLR 19/08 A3014 -110 50 400 160/10 RMK AO2 T01890083 $
63871K1J0 1J020160130115012601/30/16 11:50:31  5-MIN K1J0 301750Z AUTO 19008KT 160V230 10SM CLR 19/08 A3014 -110 50 300 190/08 160V230 RMK AO2 T01890083 $
63871K1J0 1J020160130115515101/30/16 11:55:31  5-MIN K1J0 301755Z AUTO 21009KT 160V260 10SM CLR 19/08 A3015 -120 48 400 210/09 160V260 RMK AO2 SLP193 T01940083 10194 20028 51022 $
63871K1J0 1J020160130120011001/30/16 12:00:31  5-MIN K1J0 301800Z AUTO 22006KT 10SM CLR 19/08 A3014 -110 46 400 220/06 RMK AO2 T01940078 $
63871K1J0 1J020160130120511001/30/16 12:05:31  5-MIN K1J0 301805Z AUTO 20007KT 10SM CLR 19/07 A3014 -110 44 400 200/07 RMK AO2 T01940072 $
63871K1J0 1J020160130121011001/30/16 12:10:31  5-MIN K1J0 301810Z AUTO 24008KT 10SM CLR 20/08 A3014 -110 45 500 240/08 RMK AO2 T02000078 $
63871K1J0 1J020160130121511001/30/16 12:15:31  5-MIN K1J0 301815Z AUTO 24009KT 10SM CLR 20/07 A3014 -110 43 500 240/09 RMK AO2 T02000072 $
63871K1J0 1J020160130122011001/30/16 12:20:31  5-MIN K1J0 301820Z AUTO 20007KT 10SM CLR 20/08 A3014 -110 45 500 200/07 RMK AO2 T02000078 $
63871K1J0 1J020160130122511001/30/16 12:25:31  5-MIN K1J0 301825Z AUTO 19009KT 10SM CLR 19/08 A3013 -110 46 400 190/09 RMK AO2 T01940078 $
63871K1J0 1J020160130123011001/30/16 12:30:31  5-MIN K1J0 301830Z AUTO 20008KT 10SM CLR 19/08 A3013 -100 46 400 200/08 RMK AO2 T01940078 $
63871K1J0 1J020160130123511601/30/16 12:35:31  5-MIN K1J0 301835Z AUTO 21003G14KT 10SM CLR 20/08 A3013 -100 45 500 210/03G14 RMK AO2 T02000078 $
63871K1J0 1J020160130124010001/30/16 12:40:31  5-MIN K1J0 301840Z AUTO 10SM CLR 20/08 A3013 -100 45 500 M /M RMK AO2 T02000078 $
63871K1J0 1J020160130124511001/30/16 12:45:31  5-MIN K1J0 301845Z AUTO VRB04KT 10SM CLR 20/08 A3013 -100 45 500 VRB/04 RMK AO2 T02000078 $
63871K1J0 1J020160130125011001/30/16 12:50:31  5-MIN K1J0 301850Z AUTO 23006KT 10SM CLR 20/08 A3013 -100 45 500 230/06 RMK AO2 T02000078 $
63871K1J0 1J020160130125511701/30/16 12:55:31  5-MIN K1J0 301855Z AUTO VRB06KT 10SM CLR 21/08 A3013 -100 45 600 VRB/06 RMK AO2 SLP186 T02060083 $
63871K1J0 1J020160130130011001/30/16 13:00:31  5-MIN K1J0 301900Z AUTO 25006KT 10SM CLR 21/07 A3012 -100 41 600 250/06 RMK AO2 T02060072 $
63871K1J0 1J020160130130511001/30/16 13:05:31  5-MIN K1J0 301905Z AUTO VRB04KT 10SM CLR 21/08 A3012 -100 42 600 VRB/04 RMK AO2 T02110078 $
63871K1J0 1J020160130131012501/30/16 13:10:31  5-MIN K1J0 301910Z AUTO 22008KT 190V250 10SM CLR 21/08 A3012 -90 43 600 220/08 190V250 RMK AO2 T02060078 $
63871K1J0 1J020160130131510901/30/16 13:15:31  5-MIN K1J0 301915Z AUTO 22006KT 10SM CLR 20/08 A3012 -90 45 500 220/06 RMK AO2 T02000078 $
63871K1J0 1J020160130132012501/30/16 13:20:31  5-MIN K1J0 301920Z AUTO 21007KT 180V250 10SM CLR 21/07 A3011 -90 41 600 210/07 180V250 RMK AO2 T02060072 $
63871K1J0 1J020160130132510901/30/16 13:25:31  5-MIN K1J0 301925Z AUTO 20008KT 10SM CLR 21/08 A3012 -90 43 600 200/08 RMK AO2 T02060078 $
63871K1J0 1J020160130133010901/30/16 13:30:31  5-MIN K1J0 301930Z AUTO 21009KT 10SM CLR 21/08 A3011 -90 43 600 210/09 RMK AO2 T02060078 $
63871K1J0 1J020160130133510901/30/16 13:35:31  5-MIN K1J0 301935Z AUTO VRB06KT 10SM CLR 21/08 A3011 -80 43 600 VRB/06 RMK AO2 T02060078 $
63871K1J0 1J020160130134010901/30/16 13:40:31  5-MIN K1J0 301940Z AUTO VRB05KT 10SM CLR 21/08 A3011 -80 43 600 VRB/05 RMK AO2 T02060078 $
63871K1J0 1J020160130134510901/30/16 13:45:31  5-MIN K1J0 301945Z AUTO 19007KT 10SM CLR 21/08 A3011 -80 43 600 190/07 RMK AO2 T02110083 $
63871K1J0 1J020160130135010901/30/16 13:50:31  5-MIN K1J0 301950Z AUTO 20009KT 10SM CLR 21/09 A3011 -80 46 600 200/09 RMK AO2 T02060089 $
63871K1J0 1J020160130135511601/30/16 13:55:31  5-MIN K1J0 301955Z AUTO 19008KT 10SM CLR 21/08 A3011 -80 45 600 190/08 RMK AO2 SLP181 T02060083 $
63871K1J0 1J020160130140010901/30/16 14:00:31  5-MIN K1J0 302000Z AUTO 20007KT 10SM CLR 21/09 A3011 -80 46 600 200/07 RMK AO2 T02060089 $
63871K1J0 1J020160130140510901/30/16 14:05:31  5-MIN K1J0 302005Z AUTO 17008KT 10SM CLR 21/08 A3010 -80 45 600 170/08 RMK AO2 T02060083 $
63871K1J0 1J020160130141010901/30/16 14:10:31  5-MIN K1J0 302010Z AUTO 19008KT 10SM CLR 21/08 A3010 -80 43 600 190/08 RMK AO2 T02060078 $
63871K1J0 1J020160130141510901/30/16 14:15:31  5-MIN K1J0 302015Z AUTO 21008KT 10SM CLR 21/08 A3010 -70 43 600 210/08 RMK AO2 T02060078 $
63871K1J0 1J020160130142010901/30/16 14:20:31  5-MIN K1J0 302020Z AUTO 19010KT 10SM CLR 21/08 A3010 -70 45 600 190/10 RMK AO2 T02060083 $
63871K1J0 1J020160130142511501/30/16 14:25:31  5-MIN K1J0 302025Z AUTO 20005G14KT 10SM CLR 21/08 A3010 -70 45 600 200/05G14 RMK AO2 T02060083 $
63871K1J0 1J020160130143010901/30/16 14:30:31  5-MIN K1J0 302030Z AUTO 17008KT 10SM CLR 21/08 A3009 -70 45 600 170/08 RMK AO2 T02060083 $
63871K1J0 1J020160130143512501/30/16 14:35:31  5-MIN K1J0 302035Z AUTO 18010KT 150V220 10SM CLR 21/08 A3009 -70 45 600 180/10 150V220 RMK AO2 T02060083 $
63871K1J0 1J020160130144010901/30/16 14:40:31  5-MIN K1J0 302040Z AUTO 21009KT 10SM CLR 21/08 A3009 -70 43 700 210/09 RMK AO2 T02110083 $
63871K1J0 1J020160130144510901/30/16 14:45:31  5-MIN K1J0 302045Z AUTO 18008KT 10SM CLR 21/08 A3009 -70 45 600 180/08 RMK AO2 T02060083 $
63871K1J0 1J020160130145010901/30/16 14:50:31  5-MIN K1J0 302050Z AUTO 22008KT 10SM CLR 21/08 A3010 -70 45 600 220/08 RMK AO2 T02060083 $
63871K1J0 1J020160130145512201/30/16 14:55:31  5-MIN K1J0 302055Z AUTO 21006KT 10SM CLR 21/08 A3009 -70 43 600 210/06 RMK AO2 SLP174 T02060078 58017 $
63871K1J0 1J020160130150010901/30/16 15:00:31  5-MIN K1J0 302100Z AUTO 23006KT 10SM CLR 21/08 A3009 -70 45 600 230/06 RMK AO2 T02060083 $
63871K1J0 1J020160130150510901/30/16 15:05:31  5-MIN K1J0 302105Z AUTO VRB06KT 10SM CLR 21/08 A3009 -70 45 600 VRB/06 RMK AO2 T02060083 $
63871K1J0 1J020160130151010901/30/16 15:10:31  5-MIN K1J0 302110Z AUTO 21006KT 10SM CLR 21/09 A3009 -70 46 600 210/06 RMK AO2 T02060089 $
63871K1J0 1J020160130151510901/30/16 15:15:31  5-MIN K1J0 302115Z AUTO VRB06KT 10SM CLR 21/09 A3009 -60 46 600 VRB/06 RMK AO2 T02060089 $
63871K1J0 1J020160130152010901/30/16 15:20:31  5-MIN K1J0 302120Z AUTO VRB06KT 10SM CLR 21/08 A3009 -60 45 600 VRB/06 RMK AO2 T02060083 $
63871K1J0 1J020160130152512501/30/16 15:25:31  5-MIN K1J0 302125Z AUTO 20007KT 180V240 10SM CLR 21/09 A3009 -60 46 600 200/07 180V240 RMK AO2 T02060089 $
63871K1J0 1J020160130153010901/30/16 15:30:31  5-MIN K1J0 302130Z AUTO 21008KT 10SM CLR 20/09 A3009 -70 48 500 210/08 RMK AO2 T02000089 $
63871K1J0 1J020160130153510901/30/16 15:35:31  5-MIN K1J0 302135Z AUTO 22008KT 10SM CLR 20/09 A3010 -70 48 500 220/08 RMK AO2 T02000089 $
63871K1J0 1J020160130154010901/30/16 15:40:31  5-MIN K1J0 302140Z AUTO 21010KT 10SM CLR 20/09 A3009 -70 48 500 210/10 RMK AO2 T02000089 $
63871K1J0 1J020160130154510901/30/16 15:45:31  5-MIN K1J0 302145Z AUTO 20008KT 10SM CLR 20/09 A3009 -70 48 500 200/08 RMK AO2 T02000089 $
63871K1J0 1J020160130155010901/30/16 15:50:31  5-MIN K1J0 302150Z AUTO 22007KT 10SM CLR 20/09 A3009 -70 48 500 220/07 RMK AO2 T02000089 $
63871K1J0 1J020160130155511601/30/16 15:55:31  5-MIN K1J0 302155Z AUTO 20005KT 10SM CLR 19/09 A3009 -70 50 500 200/05 RMK AO2 SLP175 T01940089 $
63871K1J0 1J020160130160010901/30/16 16:00:31  5-MIN K1J0 302200Z AUTO 21007KT 10SM CLR 19/09 A3010 -70 52 500 210/07 RMK AO2 T01940094 $
63871K1J0 1J020160130160510901/30/16 16:05:31  5-MIN K1J0 302205Z AUTO 22008KT 10SM CLR 19/09 A3010 -70 52 500 220/08 RMK AO2 T01940094 $
63871K1J0 1J020160130161010901/30/16 16:10:31  5-MIN K1J0 302210Z AUTO 20007KT 10SM CLR 19/09 A3010 -70 50 500 200/07 RMK AO2 T01940089 $
63871K1J0 1J020160130161510901/30/16 16:15:31  5-MIN K1J0 302215Z AUTO 20005KT 10SM CLR 19/09 A3009 -70 52 500 200/05 RMK AO2 T01940094 $
63871K1J0 1J020160130162010901/30/16 16:20:31  5-MIN K1J0 302220Z AUTO 22005KT 10SM CLR 19/09 A3010 -70 54 400 220/05 RMK AO2 T01890094 $
63871K1J0 1J020160130162510901/30/16 16:25:31  5-MIN K1J0 302225Z AUTO 21006KT 10SM CLR 19/09 A3010 -70 54 400 210/06 RMK AO2 T01890094 $
63871K1J0 1J020160130163010901/30/16 16:30:31  5-MIN K1J0 302230Z AUTO 19005KT 10SM CLR 19/09 A3011 -80 54 400 190/05 RMK AO2 T01890094 $
63871K1J0 1J020160130163510901/30/16 16:35:31  5-MIN K1J0 302235Z AUTO 20006KT 10SM CLR 19/09 A3011 -80 54 400 200/06 RMK AO2 T01890094 $
63871K1J0 1J020160130164010901/30/16 16:40:31  5-MIN K1J0 302240Z AUTO 20004KT 10SM CLR 18/09 A3010 -80 56 300 200/04 RMK AO2 T01830094 $
63871K1J0 1J020160130164510901/30/16 16:45:31  5-MIN K1J0 302245Z AUTO 20006KT 10SM CLR 18/09 A3010 -80 54 300 200/06 RMK AO2 T01830089 $
63871K1J0 1J020160130165010901/30/16 16:50:31  5-MIN K1J0 302250Z AUTO 20004KT 10SM CLR 18/09 A3010 -80 54 300 200/04 RMK AO2 T01830089 $
63871K1J0 1J020160130165511601/30/16 16:55:31  5-MIN K1J0 302255Z AUTO 21004KT 10SM CLR 18/09 A3010 -80 58 300 210/04 RMK AO2 SLP179 T01780094 $
63871K1J0 1J020160130170010901/30/16 17:00:31  5-MIN K1J0 302300Z AUTO 21003KT 10SM CLR 18/09 A3010 -80 58 300 210/03 RMK AO2 T01780094 $
63871K1J0 1J020160130170510901/30/16 17:05:31  5-MIN K1J0 302305Z AUTO 19004KT 10SM CLR 17/09 A3010 -80 60 200 190/04 RMK AO2 T01720094 $
63871K1J0 1J020160130171010901/30/16 17:10:31  5-MIN K1J0 302310Z AUTO 20004KT 10SM CLR 17/09 A3010 -70 60 200 200/04 RMK AO2 T01720094 $
63871K1J0 1J020160130171510901/30/16 17:15:31  5-MIN K1J0 302315Z AUTO 21003KT 10SM CLR 17/09 A3010 -80 60 200 210/03 RMK AO2 T01720094 $
63871K1J0 1J020160130172010901/30/16 17:20:31  5-MIN K1J0 302320Z AUTO 21004KT 10SM CLR 17/09 A3010 -80 62 100 210/04 RMK AO2 T01670094 $
63871K1J0 1J020160130172510901/30/16 17:25:31  5-MIN K1J0 302325Z AUTO 20004KT 10SM CLR 17/09 A3010 -80 62 100 200/04 RMK AO2 T01670094 $
63871K1J0 1J020160130173010901/30/16 17:30:31  5-MIN K1J0 302330Z AUTO 21004KT 10SM CLR 17/10 A3011 -80 64 100 210/04 RMK AO2 T01670100 $
63871K1J0 1J020160130173510901/30/16 17:35:31  5-MIN K1J0 302335Z AUTO 21004KT 10SM CLR 16/09 A3011 -80 64 100 210/04 RMK AO2 T01610094 $
63871K1J0 1J020160130174010901/30/16 17:40:31  5-MIN K1J0 302340Z AUTO 20003KT 10SM CLR 16/10 A3011 -80 67 100 200/03 RMK AO2 T01610100 $
63871K1J0 1J020160130174510701/30/16 17:45:31  5-MIN K1J0 302345Z AUTO 19003KT 10SM CLR 16/10 A3011 -80 69 0 190/03 RMK AO2 T01560100 $
63871K1J0 1J020160130175010701/30/16 17:50:31  5-MIN K1J0 302350Z AUTO 20003KT 10SM CLR 16/10 A3011 -80 69 0 200/03 RMK AO2 T01560100 $
63871K1J0 1J020160130175513201/30/16 17:55:31  5-MIN K1J0 302355Z AUTO 20003KT 10SM CLR 16/10 A3011 -80 69 0 200/03 RMK AO2 SLP181 T01560100 10211 20156 56019 $
63871K1J0 1J020160130180010701/30/16 18:00:31  5-MIN K1J0 310000Z AUTO 00000KT 10SM CLR 15/10 A3011 -80 72 0 000/00 RMK AO2 T01500100 $
63871K1J0 1J020160130180511001/30/16 18:05:31  5-MIN K1J0 310005Z AUTO 00000KT 10SM CLR 14/10 A3011 -80 74 -100 000/00 RMK AO2 T01440100 $
63871K1J0 1J020160130181011001/30/16 18:10:31  5-MIN K1J0 310010Z AUTO 00000KT 10SM CLR 14/10 A3011 -90 74 -100 000/00 RMK AO2 T01440100 $
63871K1J0 1J020160130181511001/30/16 18:15:31  5-MIN K1J0 310015Z AUTO 00000KT 10SM CLR 14/10 A3012 -90 77 -200 000/00 RMK AO2 T01390100 $
63871K1J0 1J020160130182011001/30/16 18:20:31  5-MIN K1J0 310020Z AUTO 19003KT 10SM CLR 13/10 A3012 -90 80 -200 190/03 RMK AO2 T01330100 $
63871K1J0 1J020160130182511001/30/16 18:25:31  5-MIN K1J0 310025Z AUTO 00000KT 10SM CLR 13/10 A3012 -90 83 -300 000/00 RMK AO2 T01280100 $
63871K1J0 1J020160130183011001/30/16 18:30:31  5-MIN K1J0 310030Z AUTO 00000KT 10SM CLR 13/10 A3012 -90 80 -200 000/00 RMK AO2 T01330100 $
63871K1J0 1J020160130183511001/30/16 18:35:31  5-MIN K1J0 310035Z AUTO 00000KT 10SM CLR 13/10 A3012 -90 83 -300 000/00 RMK AO2 T01280100 $
63871K1J0 1J020160130184011001/30/16 18:40:31  5-MIN K1J0 310040Z AUTO 00000KT 10SM CLR 13/10 A3012 -90 83 -300 000/00 RMK AO2 T01280100 $
63871K1J0 1J020160130184511001/30/16 18:45:31  5-MIN K1J0 310045Z AUTO 18003KT 10SM CLR 12/10 A3012 -90 86 -400 180/03 RMK AO2 T01220100 $
63871K1J0 1J020160130185011001/30/16 18:50:31  5-MIN K1J0 310050Z AUTO 18003KT 10SM CLR 12/10 A3012 -90 86 -400 180/03 RMK AO2 T01220100 $
63871K1J0 1J020160130185511701/30/16 18:55:31  5-MIN K1J0 310055Z AUTO 19003KT 10SM CLR 12/09 A3012 -90 83 -400 190/03 RMK AO2 SLP185 T01220094 $
63871K1J0 1J020160130190011101/30/16 19:00:31  5-MIN K1J0 310100Z AUTO 00000KT 10SM CLR 12/09 A3012 -100 83 -400 000/00 RMK AO2 T01220094 $
63871K1J0 1J020160130190511101/30/16 19:05:31  5-MIN K1J0 310105Z AUTO 00000KT 10SM CLR 12/09 A3012 -100 83 -400 000/00 RMK AO2 T01220094 $
63871K1J0 1J020160130191011101/30/16 19:10:31  5-MIN K1J0 310110Z AUTO 00000KT 10SM CLR 12/09 A3013 -100 86 -400 000/00 RMK AO2 T01170094 $
63871K1J0 1J020160130191511101/30/16 19:15:31  5-MIN K1J0 310115Z AUTO 00000KT 10SM CLR 12/09 A3013 -100 86 -400 000/00 RMK AO2 T01170094 $
63871K1J0 1J020160130192011101/30/16 19:20:31  5-MIN K1J0 310120Z AUTO 00000KT 10SM CLR 12/09 A3013 -100 86 -400 000/00 RMK AO2 T01170094 $
63871K1J0 1J020160130192511101/30/16 19:25:31  5-MIN K1J0 310125Z AUTO 00000KT 10SM CLR 11/09 A3013 -100 89 -500 000/00 RMK AO2 T01110094 $
63871K1J0 1J020160130193011101/30/16 19:30:31  5-MIN K1J0 310130Z AUTO 00000KT 10SM CLR 11/09 A3012 -100 89 -500 000/00 RMK AO2 T01110094 $
63871K1J0 1J020160130193511101/30/16 19:35:31  5-MIN K1J0 310135Z AUTO 00000KT 10SM CLR 11/09 A3013 -100 93 -600 000/00 RMK AO2 T01060094 $
63871K1J0 1J020160130194011101/30/16 19:40:31  5-MIN K1J0 310140Z AUTO 00000KT 10SM CLR 11/09 A3013 -100 89 -500 000/00 RMK AO2 T01110094 $
63871K1J0 1J020160130194511101/30/16 19:45:31  5-MIN K1J0 310145Z AUTO 00000KT 10SM CLR 11/09 A3013 -100 89 -500 000/00 RMK AO2 T01110094 $
63871K1J0 1J020160130195011101/30/16 19:50:31  5-MIN K1J0 310150Z AUTO 00000KT 10SM CLR 11/09 A3013 -100 89 -500 000/00 RMK AO2 T01110094 $
63871K1J0 1J020160130195511801/30/16 19:55:31  5-MIN K1J0 310155Z AUTO 00000KT 10SM CLR 11/09 A3013 -110 93 -600 000/00 RMK AO2 SLP190 T01060094 $
63871K1J0 1J020160130200011101/30/16 20:00:31  5-MIN K1J0 310200Z AUTO 00000KT 10SM CLR 11/09 A3014 -110 93 -600 000/00 RMK AO2 T01060094 $
63871K1J0 1J020160130200511101/30/16 20:05:31  5-MIN K1J0 310205Z AUTO 00000KT 10SM CLR 11/09 A3014 -110 93 -600 000/00 RMK AO2 T01060094 $
63871K1J0 1J020160130201011101/30/16 20:10:31  5-MIN K1J0 310210Z AUTO 00000KT 10SM CLR 11/09 A3014 -110 89 -600 000/00 RMK AO2 T01060089 $
63871K1J0 1J020160130201511101/30/16 20:15:31  5-MIN K1J0 310215Z AUTO 00000KT 10SM CLR 10/09 A3014 -110 93 -600 000/00 RMK AO2 T01000089 $
63871K1J0 1J020160130202011101/30/16 20:20:31  5-MIN K1J0 310220Z AUTO 00000KT 10SM CLR 10/09 A3014 -110 93 -700 000/00 RMK AO2 T01000089 $
63871K1J0 1J020160130202511101/30/16 20:25:31  5-MIN K1J0 310225Z AUTO 00000KT 10SM CLR 10/09 A3014 -110 93 -700 000/00 RMK AO2 T01000089 $
63871K1J0 1J020160130203011101/30/16 20:30:31  5-MIN K1J0 310230Z AUTO 00000KT 10SM CLR 10/09 A3014 -110 93 -700 000/00 RMK AO2 T01000089 $
63871K1J0 1J020160130203511101/30/16 20:35:31  5-MIN K1J0 310235Z AUTO 00000KT 10SM CLR 10/09 A3014 -110 93 -700 000/00 RMK AO2 T01000089 $
63871K1J0 1J020160130204011101/30/16 20:40:31  5-MIN K1J0 310240Z AUTO 00000KT 10SM CLR 10/09 A3014 -110 93 -700 000/00 RMK AO2 T01000089 $
63871K1J0 1J020160130204511101/30/16 20:45:31  5-MIN K1J0 310245Z AUTO 00000KT 10SM CLR 10/09 A3014 -110 93 -700 000/00 RMK AO2 T01000089 $
63871K1J0 1J020160130205011101/30/16 20:50:31  5-MIN K1J0 310250Z AUTO 00000KT 10SM CLR 10/09 A3014 -110 93 -700 000/00 RMK AO2 T01000089 $
63871K1J0 1J020160130205512401/30/16 20:55:31  5-MIN K1J0 310255Z AUTO 00000KT 10SM CLR 10/09 A3014 -110 93 -700 000/00 RMK AO2 SLP192 T01000089 52006 $
63871K1J0 1J020160130210011101/30/16 21:00:31  5-MIN K1J0 310300Z AUTO 00000KT 10SM CLR 09/09 A3014 -110 96 -700 000/00 RMK AO2 T00940089 $
63871K1J0 1J020160130210511101/30/16 21:05:31  5-MIN K1J0 310305Z AUTO 00000KT 10SM CLR 09/08 A3014 -110 93 -700 000/00 RMK AO2 T00940083 $
63871K1J0 1J020160130211011101/30/16 21:10:31  5-MIN K1J0 310310Z AUTO 00000KT 10SM CLR 09/08 A3014 -110 93 -700 000/00 RMK AO2 T00940083 $
63871K1J0 1J020160130211511101/30/16 21:15:31  5-MIN K1J0 310315Z AUTO 00000KT 10SM CLR 09/08 A3014 -110 93 -700 000/00 RMK AO2 T00940083 $
63871K1J0 1J020160130212011101/30/16 21:20:31  5-MIN K1J0 310320Z AUTO 00000KT 10SM CLR 09/08 A3014 -110 93 -700 000/00 RMK AO2 T00940083 $
63871K1J0 1J020160130212511101/30/16 21:25:31  5-MIN K1J0 310325Z AUTO 00000KT 10SM CLR 09/08 A3014 -110 93 -700 000/00 RMK AO2 T00940083 $
63871K1J0 1J020160130213011101/30/16 21:30:31  5-MIN K1J0 310330Z AUTO 00000KT 10SM CLR 09/08 A3014 -110 93 -700 000/00 RMK AO2 T00940083 $
63871K1J0 1J020160130213511101/30/16 21:35:31  5-MIN K1J0 310335Z AUTO 00000KT 10SM CLR 09/08 A3014 -110 93 -700 000/00 RMK AO2 T00940083 $
63871K1J0 1J020160130214011101/30/16 21:40:31  5-MIN K1J0 310340Z AUTO 00000KT 10SM CLR 09/08 A3014 -110 93 -700 000/00 RMK AO2 T00940083 $
63871K1J0 1J020160130214511101/30/16 21:45:31  5-MIN K1J0 310345Z AUTO 00000KT 10SM CLR 09/08 A3014 -110 93 -700 000/00 RMK AO2 T00940083 $
63871K1J0 1J020160130215011101/30/16 21:50:31  5-MIN K1J0 310350Z AUTO 00000KT 10SM CLR 09/08 A3014 -110 93 -700 000/00 RMK AO2 T00940083 $
63871K1J0 1J020160130215511801/30/16 21:55:31  5-MIN K1J0 310355Z AUTO 00000KT 10SM CLR 09/08 A3013 -110 93 -700 000/00 RMK AO2 SLP189 T00940083 $
63871K1J0 1J020160130220011101/30/16 22:00:31  5-MIN K1J0 310400Z AUTO 00000KT 10SM CLR 09/08 A3013 -110 96 -800 000/00 RMK AO2 T00890083 $
63871K1J0 1J020160130220511101/30/16 22:05:31  5-MIN K1J0 310405Z AUTO 00000KT 10SM CLR 09/08 A3014 -110 96 -800 000/00 RMK AO2 T00890083 $
63871K1J0 1J020160130221011101/30/16 22:10:31  5-MIN K1J0 310410Z AUTO 00000KT 10SM CLR 09/08 A3013 -110 96 -800 000/00 RMK AO2 T00890083 $
63871K1J0 1J020160130221511101/30/16 22:15:31  5-MIN K1J0 310415Z AUTO 00000KT 10SM CLR 09/08 A3013 -110 96 -800 000/00 RMK AO2 T00890083 $
63871K1J0 1J020160130222011101/30/16 22:20:31  5-MIN K1J0 310420Z AUTO 00000KT 10SM CLR 09/08 A3013 -110 93 -800 000/00 RMK AO2 T00890078 $
63871K1J0 1J020160130222511101/30/16 22:25:31  5-MIN K1J0 310425Z AUTO 00000KT 10SM CLR 09/08 A3014 -110 93 -800 000/00 RMK AO2 T00890078 $
63871K1J0 1J020160130223011101/30/16 22:30:31  5-MIN K1J0 310430Z AUTO 00000KT 10SM CLR 09/08 A3014 -110 96 -800 000/00 RMK AO2 T00890083 $
63871K1J0 1J020160130223511101/30/16 22:35:31  5-MIN K1J0 310435Z AUTO 00000KT 10SM CLR 09/08 A3014 -110 96 -800 000/00 RMK AO2 T00890083 $
63871K1J0 1J020160130224011101/30/16 22:40:31  5-MIN K1J0 310440Z AUTO 00000KT 10SM CLR 09/08 A3014 -110 96 -800 000/00 RMK AO2 T00890083 $
63871K1J0 1J020160130224511101/30/16 22:45:31  5-MIN K1J0 310445Z AUTO 00000KT 10SM CLR 09/08 A3013 -110 96 -800 000/00 RMK AO2 T00890083 $
63871K1J0 1J020160130225011101/30/16 22:50:31  5-MIN K1J0 310450Z AUTO 00000KT 10SM CLR 09/08 A3013 -100 96 -800 000/00 RMK AO2 T00890083 $
63871K1J0 1J020160130225511801/30/16 22:55:31  5-MIN K1J0 310455Z AUTO 00000KT 10SM CLR 09/08 A3013 -100 93 -800 000/00 RMK AO2 SLP187 T00890078 $
63871K1J0 1J020160130230011101/30/16 23:00:31  5-MIN K1J0 310500Z AUTO 00000KT 10SM CLR 09/08 A3013 -100 93 -800 000/00 RMK AO2 T00890078 $
63871K1J0 1J020160130230511101/30/16 23:05:31  5-MIN K1J0 310505Z AUTO 00000KT 10SM CLR 08/08 A3013 -100 96 -800 000/00 RMK AO2 T00830078 $
63871K1J0 1J020160130231011101/30/16 23:10:31  5-MIN K1J0 310510Z AUTO 00000KT 10SM CLR 09/08 A3012 -100 93 -800 000/00 RMK AO2 T00890078 $
63871K1J0 1J020160130231511101/30/16 23:15:31  5-MIN K1J0 310515Z AUTO 00000KT 10SM CLR 09/08 A3013 -100 93 -800 000/00 RMK AO2 T00890078 $
63871K1J0 1J020160130232011101/30/16 23:20:31  5-MIN K1J0 310520Z AUTO 00000KT 10SM CLR 08/08 A3012 -100 96 -800 000/00 RMK AO2 T00830078 $
63871K1J0 1J020160130232511101/30/16 23:25:31  5-MIN K1J0 310525Z AUTO 00000KT 10SM CLR 09/08 A3012 -100 93 -800 000/00 RMK AO2 T00890078 $
63871K1J0 1J020160130233011001/30/16 23:30:31  5-MIN K1J0 310530Z AUTO 00000KT 10SM CLR 09/08 A3012 -90 93 -800 000/00 RMK AO2 T00890078 $
63871K1J0 1J020160130233511001/30/16 23:35:31  5-MIN K1J0 310535Z AUTO 00000KT 10SM CLR 08/08 A3012 -90 96 -800 000/00 RMK AO2 T00830078 $
63871K1J0 1J020160130234011001/30/16 23:40:31  5-MIN K1J0 310540Z AUTO 00000KT 10SM CLR 08/08 A3012 -90 96 -800 000/00 RMK AO2 T00830078 $
63871K1J0 1J020160130234511001/30/16 23:45:31  5-MIN K1J0 310545Z AUTO 00000KT 10SM CLR 08/08 A3012 -90 96 -800 000/00 RMK AO2 T00830078 $
63871K1J0 1J020160130235011001/30/16 23:50:31  5-MIN K1J0 310550Z AUTO 00000KT 10SM CLR 08/08 A3012 -90 96 -800 000/00 RMK AO2 T00830078 $
63871K1J0 1J020160130235514501/30/16 23:55:31  5-MIN K1J0 310555Z AUTO 00000KT 10SM CLR 08/08 A3011 -90 96 -800 000/00 RMK AO2 SLP182 T00830078 10150 20083 402110028 51012 $
63871K1J0 1J020160131000011001/31/16 00:00:31  5-MIN K1J0 310600Z AUTO 00000KT 10SM CLR 08/08 A3012 -90 96 -800 000/00 RMK AO2 T00830078 $
63871K1J0 1J020160131000511001/31/16 00:05:31  5-MIN K1J0 310605Z AUTO 00000KT 10SM CLR 08/08 A3011 -90 96 -800 000/00 RMK AO2 T00830078 $
63871K1J0 1J020160131001011001/31/16 00:10:31  5-MIN K1J0 310610Z AUTO 00000KT 10SM CLR 08/08 A3011 -80 96 -800 000/00 RMK AO2 T00830078 $
63871K1J0 1J020160131001511001/31/16 00:15:31  5-MIN K1J0 310615Z AUTO 00000KT 10SM CLR 08/08 A3011 -90 96 -800 000/00 RMK AO2 T00830078 $
63871K1J0 1J020160131002011001/31/16 00:20:31  5-MIN K1J0 310620Z AUTO 00000KT 10SM CLR 08/08 A3011 -90 96 -800 000/00 RMK AO2 T00830078 $
63871K1J0 1J020160131002511001/31/16 00:25:31  5-MIN K1J0 310625Z AUTO 00000KT 10SM CLR 08/08 A3011 -90 96 -800 000/00 RMK AO2 T00830078 $
63871K1J0 1J020160131003011001/31/16 00:30:31  5-MIN K1J0 310630Z AUTO 00000KT 10SM CLR 08/08 A3011 -90 96 -800 000/00 RMK AO2 T00830078 $
63871K1J0 1J020160131003511001/31/16 00:35:31  5-MIN K1J0 310635Z AUTO 00000KT 10SM CLR 08/08 A3011 -80 96 -800 000/00 RMK AO2 T00830078 $
63871K1J0 1J020160131004011001/31/16 00:40:31  5-MIN K1J0 310640Z AUTO 00000KT 10SM CLR 08/08 A3011 -80 96 -800 000/00 RMK AO2 T00830078 $
63871K1J0 1J020160131004511001/31/16 00:45:31  5-MIN K1J0 310645Z AUTO 00000KT 10SM CLR 08/08 A3011 -80 96 -800 000/00 RMK AO2 T00830078 $
63871K1J0 1J020160131005011001/31/16 00:50:31  5-MIN K1J0 310650Z AUTO 00000KT 10SM CLR 08/08 A3011 -80 96 -800 000/00 RMK AO2 T00830078 $
63871K1J0 1J020160131005511701/31/16 00:55:31  5-MIN K1J0 310655Z AUTO 00000KT 10SM CLR 08/08 A3011 -80 96 -800 000/00 RMK AO2 SLP179 T00830078 $
63871K1J0 1J020160131010011001/31/16 01:00:31  5-MIN K1J0 310700Z AUTO 00000KT 10SM CLR 08/07 A3011 -80 93 -800 000/00 RMK AO2 T00830072 $
63871K1J0 1J020160131010511001/31/16 01:05:31  5-MIN K1J0 310705Z AUTO 00000KT 10SM CLR 09/07 A3011 -80 89 -800 000/00 RMK AO2 T00890072 $
63871K1J0 1J020160131011011001/31/16 01:10:31  5-MIN K1J0 310710Z AUTO 00000KT 10SM CLR 08/08 A3011 -80 96 -800 000/00 RMK AO2 T00830078 $
63871K1J0 1J020160131011511001/31/16 01:15:31  5-MIN K1J0 310715Z AUTO 00000KT 10SM CLR 08/08 A3010 -80 96 -800 000/00 RMK AO2 T00830078 $
63871K1J0 1J020160131012011001/31/16 01:20:31  5-MIN K1J0 310720Z AUTO 00000KT 10SM CLR 08/08 A3010 -80 96 -800 000/00 RMK AO2 T00830078 $
63871K1J0 1J020160131012511001/31/16 01:25:31  5-MIN K1J0 310725Z AUTO 00000KT 10SM CLR 08/08 A3010 -80 96 -800 000/00 RMK AO2 T00830078 $
63871K1J0 1J020160131013011001/31/16 01:30:31  5-MIN K1J0 310730Z AUTO 00000KT 10SM CLR 08/08 A3010 -80 96 -800 000/00 RMK AO2 T00830078 $
63871K1J0 1J020160131013511001/31/16 01:35:31  5-MIN K1J0 310735Z AUTO 00000KT 10SM CLR 08/08 A3010 -70 96 -800 000/00 RMK AO2 T00830078 $
63871K1J0 1J020160131014011001/31/16 01:40:31  5-MIN K1J0 310740Z AUTO 00000KT 10SM CLR 08/08 A3009 -70 96 -800 000/00 RMK AO2 T00830078 $
63871K1J0 1J020160131014511001/31/16 01:45:31  5-MIN K1J0 310745Z AUTO 00000KT 10SM CLR 08/08 A3009 -70 96 -800 000/00 RMK AO2 T00830078 $
63871K1J0 1J020160131015011001/31/16 01:50:31  5-MIN K1J0 310750Z AUTO 00000KT 10SM CLR 08/08 A3009 -70 96 -800 000/00 RMK AO2 T00830078 $
63871K1J0 1J020160131015511701/31/16 01:55:31  5-MIN K1J0 310755Z AUTO 00000KT 10SM CLR 08/07 A3009 -60 93 -800 000/00 RMK AO2 SLP173 T00830072 $
63871K1J0 1J020160131020011001/31/16 02:00:31  5-MIN K1J0 310800Z AUTO 00000KT 10SM CLR 08/07 A3008 -60 93 -800 000/00 RMK AO2 T00830072 $
63871K1J0 1J020160131020511001/31/16 02:05:31  5-MIN K1J0 310805Z AUTO 00000KT 10SM CLR 08/07 A3008 -60 93 -800 000/00 RMK AO2 T00830072 $
63871K1J0 1J020160131021011001/31/16 02:10:31  5-MIN K1J0 310810Z AUTO 00000KT 10SM CLR 08/07 A3008 -60 93 -800 000/00 RMK AO2 T00830072 $
63871K1J0 1J020160131021511001/31/16 02:15:31  5-MIN K1J0 310815Z AUTO 00000KT 10SM CLR 08/08 A3008 -50 96 -800 000/00 RMK AO2 T00830078 $
63871K1J0 1J020160131022011301/31/16 02:20:31  5-MIN K1J0 310820Z AUTO 00000KT 10SM FEW003 08/07 A3008 -50 93 -800 000/00 RMK AO2 T00830072 $
63871K1J0 1J020160131022511301/31/16 02:25:31  5-MIN K1J0 310825Z AUTO 00000KT 10SM FEW003 08/08 A3008 -50 96 -800 000/00 RMK AO2 T00830078 $
63871K1J0 1J020160131023011301/31/16 02:30:31  5-MIN K1J0 310830Z AUTO 00000KT 10SM FEW003 08/08 A3008 -50 96 -800 000/00 RMK AO2 T00830078 $
63871K1J0 1J020160131023511301/31/16 02:35:31  5-MIN K1J0 310835Z AUTO 00000KT 10SM SCT003 08/08 A3008 -50 96 -800 000/00 RMK AO2 T00830078 $
63871K1J0 1J020160131024011301/31/16 02:40:31  5-MIN K1J0 310840Z AUTO 00000KT 10SM SCT003 08/08 A3008 -50 96 -800 000/00 RMK AO2 T00830078 $
63871K1J0 1J020160131024511301/31/16 02:45:31  5-MIN K1J0 310845Z AUTO 00000KT 10SM SCT003 08/08 A3007 -50 96 -800 000/00 RMK AO2 T00830078 $
63871K1J0 1J020160131025011301/31/16 02:50:31  5-MIN K1J0 310850Z AUTO 00000KT 10SM FEW003 08/07 A3007 -50 93 -800 000/00 RMK AO2 T00830072 $
63871K1J0 1J020160131025512601/31/16 02:55:31  5-MIN K1J0 310855Z AUTO 00000KT 10SM FEW003 08/08 A3007 -50 96 -800 000/00 RMK AO2 SLP167 T00830078 58009 $
63871K1J0 1J020160131030011301/31/16 03:00:31  5-MIN K1J0 310900Z AUTO 00000KT 10SM FEW003 08/08 A3007 -50 96 -800 000/00 RMK AO2 T00830078 $
63871K1J0 1J020160131030511301/31/16 03:05:31  5-MIN K1J0 310905Z AUTO 00000KT 10SM FEW003 08/08 A3007 -50 96 -800 000/00 RMK AO2 T00830078 $
63871K1J0 1J020160131031011001/31/16 03:10:31  5-MIN K1J0 310910Z AUTO 00000KT 10SM CLR 08/07 A3007 -50 93 -800 000/00 RMK AO2 T00830072 $
63871K1J0 1J020160131031511001/31/16 03:15:31  5-MIN K1J0 310915Z AUTO 00000KT 10SM CLR 08/07 A3007 -50 93 -800 000/00 RMK AO2 T00830072 $
63871K1J0 1J020160131032011001/31/16 03:20:31  5-MIN K1J0 310920Z AUTO 00000KT 10SM CLR 08/07 A3007 -50 93 -800 000/00 RMK AO2 T00830072 $
63871K1J0 1J020160131032511001/31/16 03:25:31  5-MIN K1J0 310925Z AUTO 00000KT 10SM CLR 08/08 A3007 -50 96 -800 000/00 RMK AO2 T00830078 $
63871K1J0 1J020160131033011001/31/16 03:30:31  5-MIN K1J0 310930Z AUTO 00000KT 10SM CLR 08/08 A3007 -50 96 -800 000/00 RMK AO2 T00830078 $
63871K1J0 1J020160131033511001/31/16 03:35:31  5-MIN K1J0 310935Z AUTO 00000KT 10SM CLR 08/08 A3007 -40 96 -800 000/00 RMK AO2 T00830078 $
63871K1J0 1J020160131034011001/31/16 03:40:31  5-MIN K1J0 310940Z AUTO 00000KT 10SM CLR 08/08 A3007 -40 96 -800 000/00 RMK AO2 T00830078 $
63871K1J0 1J020160131034511001/31/16 03:45:31  5-MIN K1J0 310945Z AUTO 00000KT 10SM CLR 08/08 A3007 -50 96 -800 000/00 RMK AO2 T00830078 $
63871K1J0 1J020160131035011001/31/16 03:50:31  5-MIN K1J0 310950Z AUTO 00000KT 10SM CLR 08/07 A3007 -50 93 -800 000/00 RMK AO2 T00830072 $
63871K1J0 1J020160131035511701/31/16 03:55:31  5-MIN K1J0 310955Z AUTO 00000KT 10SM CLR 08/08 A3007 -50 96 -800 000/00 RMK AO2 SLP167 T00830078 $
63871K1J0 1J020160131040011301/31/16 04:00:31  5-MIN K1J0 311000Z AUTO 00000KT 10SM FEW003 08/08 A3007 -50 96 -800 000/00 RMK AO2 T00830078 $
63871K1J0 1J020160131040511301/31/16 04:05:31  5-MIN K1J0 311005Z AUTO 00000KT 10SM FEW003 08/08 A3007 -50 96 -800 000/00 RMK AO2 T00830078 $
63871K1J0 1J020160131041011001/31/16 04:10:31  5-MIN K1J0 311010Z AUTO 00000KT 10SM CLR 08/08 A3007 -50 96 -800 000/00 RMK AO2 T00830078 $
63871K1J0 1J020160131041511001/31/16 04:15:31  5-MIN K1J0 311015Z AUTO 00000KT 10SM CLR 08/08 A3008 -50 96 -800 000/00 RMK AO2 T00830078 $
63871K1J0 1J020160131042011001/31/16 04:20:31  5-MIN K1J0 311020Z AUTO 00000KT 10SM CLR 08/08 A3008 -50 96 -800 000/00 RMK AO2 T00830078 $
63871K1J0 1J020160131042511301/31/16 04:25:31  5-MIN K1J0 311025Z AUTO 00000KT 10SM FEW003 08/08 A3008 -50 96 -800 000/00 RMK AO2 T00830078 $
63871K1J0 1J020160131043011001/31/16 04:30:31  5-MIN K1J0 311030Z AUTO 00000KT 10SM CLR 08/08 A3008 -60 96 -800 000/00 RMK AO2 T00830078 $
63871K1J0 1J020160131043511301/31/16 04:35:31  5-MIN K1J0 311035Z AUTO 00000KT 10SM FEW003 08/08 A3008 -60 96 -800 000/00 RMK AO2 T00830078 $
63871K1J0 1J020160131044011301/31/16 04:40:31  5-MIN K1J0 311040Z AUTO 00000KT 10SM SCT003 08/07 A3008 -60 93 -800 000/00 RMK AO2 T00830072 $
63871K1J0 1J020160131044511301/31/16 04:45:31  5-MIN K1J0 311045Z AUTO 00000KT 10SM BKN002 08/07 A3008 -60 93 -800 000/00 RMK AO2 T00830072 $
63871K1J0 1J020160131045011301/31/16 04:50:31  5-MIN K1J0 311050Z AUTO 00000KT 10SM BKN002 08/08 A3008 -60 96 -800 000/00 RMK AO2 T00830078 $
63871K1J0 1J020160131045512001/31/16 04:55:31  5-MIN K1J0 311055Z AUTO 00000KT 10SM SCT002 08/08 A3008 -60 96 -800 000/00 RMK AO2 SLP171 T00830078 $
63871K1J0 1J020160131050011301/31/16 05:00:31  5-MIN K1J0 311100Z AUTO 00000KT 10SM SCT002 08/08 A3008 -60 96 -800 000/00 RMK AO2 T00830078 $
63871K1J0 1J020160131050511301/31/16 05:05:31  5-MIN K1J0 311105Z AUTO 00000KT 10SM FEW002 08/08 A3009 -70 96 -800 000/00 RMK AO2 T00830078 $
63871K1J0 1J020160131051011301/31/16 05:10:31  5-MIN K1J0 311110Z AUTO 00000KT 10SM FEW002 08/08 A3009 -60 96 -800 000/00 RMK AO2 T00830078 $
63871K1J0 1J020160131051511001/31/16 05:15:31  5-MIN K1J0 311115Z AUTO 00000KT 10SM CLR 08/08 A3009 -70 96 -800 000/00 RMK AO2 T00830078 $
63871K1J0 1J020160131052011001/31/16 05:20:31  5-MIN K1J0 311120Z AUTO 00000KT 10SM CLR 08/08 A3009 -70 96 -800 000/00 RMK AO2 T00830078 $
63871K1J0 1J020160131052511001/31/16 05:25:31  5-MIN K1J0 311125Z AUTO 00000KT 10SM CLR 08/08 A3009 -70 96 -800 000/00 RMK AO2 T00830078 $
63871K1J0 1J020160131053011001/31/16 05:30:31  5-MIN K1J0 311130Z AUTO 00000KT 10SM CLR 08/08 A3009 -70 96 -800 000/00 RMK AO2 T00830078 $
63871K1J0 1J020160131053511001/31/16 05:35:31  5-MIN K1J0 311135Z AUTO 00000KT 10SM CLR 08/08 A3009 -70 96 -800 000/00 RMK AO2 T00830078 $
63871K1J0 1J020160131054011001/31/16 05:40:31  5-MIN K1J0 311140Z AUTO 00000KT 10SM CLR 08/08 A3010 -70 96 -800 000/00 RMK AO2 T00830078 $
63871K1J0 1J020160131054511001/31/16 05:45:31  5-MIN K1J0 311145Z AUTO 00000KT 10SM CLR 08/08 A3010 -70 96 -800 000/00 RMK AO2 T00830078 $
63871K1J0 1J020160131055011001/31/16 05:50:31  5-MIN K1J0 311150Z AUTO 00000KT 10SM CLR 08/08 A3010 -70 96 -800 000/00 RMK AO2 T00830078 $
63871K1J0 1J020160131055513501/31/16 05:55:31  5-MIN K1J0 311155Z AUTO 00000KT 10SM CLR 08/08 A3010 -70 96 -800 000/00 RMK AO2 SLP177 T00830078 10089 20083 58015 $
63871K1J0 1J020160131060011001/31/16 06:00:31  5-MIN K1J0 311200Z AUTO 00000KT 10SM CLR 08/08 A3010 -80 96 -800 000/00 RMK AO2 T00830078 $
63871K1J0 1J020160131060511001/31/16 06:05:31  5-MIN K1J0 311205Z AUTO 00000KT 10SM CLR 08/08 A3010 -70 96 -800 000/00 RMK AO2 T00830078 $
63871K1J0 1J020160131061011001/31/16 06:10:31  5-MIN K1J0 311210Z AUTO 00000KT 10SM CLR 08/08 A3010 -70 96 -800 000/00 RMK AO2 T00830078 $
63871K1J0 1J020160131061511001/31/16 06:15:31  5-MIN K1J0 311215Z AUTO 00000KT 10SM CLR 08/08 A3010 -80 96 -800 000/00 RMK AO2 T00830078 $
63871K1J0 1J020160131062011001/31/16 06:20:31  5-MIN K1J0 311220Z AUTO 00000KT 10SM CLR 08/08 A3010 -80 96 -800 000/00 RMK AO2 T00830078 $
63871K1J0 1J020160131062511001/31/16 06:25:31  5-MIN K1J0 311225Z AUTO 00000KT 10SM CLR 08/08 A3010 -80 96 -800 000/00 RMK AO2 T00830078 $
63871K1J0 1J020160131063011001/31/16 06:30:31  5-MIN K1J0 311230Z AUTO 00000KT 10SM CLR 08/08 A3011 -80 96 -800 000/00 RMK AO2 T00830078 $
63871K1J0 1J020160131063511001/31/16 06:35:31  5-MIN K1J0 311235Z AUTO 00000KT 10SM CLR 08/08 A3011 -80 96 -800 000/00 RMK AO2 T00830078 $
63871K1J0 1J020160131064011001/31/16 06:40:31  5-MIN K1J0 311240Z AUTO 00000KT 10SM CLR 08/08 A3011 -90 96 -800 000/00 RMK AO2 T00830078 $
63871K1J0 1J020160131064511001/31/16 06:45:31  5-MIN K1J0 311245Z AUTO 00000KT 10SM CLR 09/08 A3011 -90 93 -800 000/00 RMK AO2 T00890078 $
63871K1J0 1J020160131065011001/31/16 06:50:31  5-MIN K1J0 311250Z AUTO 00000KT 10SM CLR 09/08 A3011 -80 93 -800 000/00 RMK AO2 T00890078 $
63871K1J0 1J020160131065511701/31/16 06:55:31  5-MIN K1J0 311255Z AUTO 00000KT 10SM CLR 09/08 A3011 -90 93 -800 000/00 RMK AO2 SLP182 T00890078 $
63871K1J0 1J020160131070011001/31/16 07:00:31  5-MIN K1J0 311300Z AUTO 00000KT 10SM CLR 09/08 A3012 -90 93 -800 000/00 RMK AO2 T00890078 $
63871K1J0 1J020160131070511001/31/16 07:05:31  5-MIN K1J0 311305Z AUTO 00000KT 10SM CLR 09/08 A3011 -90 96 -800 000/00 RMK AO2 T00890083 $
63871K1J0 1J020160131071011001/31/16 07:10:31  5-MIN K1J0 311310Z AUTO 00000KT 10SM CLR 09/08 A3011 -90 93 -800 000/00 RMK AO2 T00890078 $
63871K1J0 1J020160131071511001/31/16 07:15:31  5-MIN K1J0 311315Z AUTO 00000KT 10SM CLR 09/08 A3011 -90 93 -800 000/00 RMK AO2 T00890078 $
63871K1J0 1J020160131072011001/31/16 07:20:31  5-MIN K1J0 311320Z AUTO 00000KT 10SM CLR 09/08 A3011 -90 96 -800 000/00 RMK AO2 T00890083 $
63871K1J0 1J020160131072511001/31/16 07:25:31  5-MIN K1J0 311325Z AUTO 00000KT 10SM CLR 09/08 A3011 -90 96 -800 000/00 RMK AO2 T00890083 $
63871K1J0 1J020160131073011001/31/16 07:30:31  5-MIN K1J0 311330Z AUTO 00000KT 10SM CLR 09/08 A3012 -90 96 -800 000/00 RMK AO2 T00890083 $
63871K1J0 1J020160131073511301/31/16 07:35:31  5-MIN K1J0 311335Z AUTO 00000KT 10SM FEW034 09/08 A3012 -90 93 -700 000/00 RMK AO2 T00940083 $
63871K1J0 1J020160131074011301/31/16 07:40:31  5-MIN K1J0 311340Z AUTO 00000KT 10SM SCT036 09/09 A3012 -90 96 -700 000/00 RMK AO2 T00940089 $
63871K1J0 1J020160131074511301/31/16 07:45:31  5-MIN K1J0 311345Z AUTO 00000KT 10SM BKN038 10/09 A3012 -90 93 -600 000/00 RMK AO2 T01000089 $
63871K1J0 1J020160131075011301/31/16 07:50:31  5-MIN K1J0 311350Z AUTO 00000KT 10SM BKN038 09/09 A3012 -90 96 -700 000/00 RMK AO2 T00940089 $
63871K1J0 1J020160131075512101/31/16 07:55:31  5-MIN K1J0 311355Z AUTO 00000KT 10SM BKN038 10/09 A3012 -100 93 -600 000/00 RMK AO2 SLP185 T01000089 $
63871K1J0 1J020160131080011401/31/16 08:00:31  5-MIN K1J0 311400Z AUTO 00000KT 10SM SCT038 10/09 A3012 -100 96 -600 000/00 RMK AO2 T01000094 $
63871K1J0 1J020160131080511401/31/16 08:05:31  5-MIN K1J0 311405Z AUTO 00000KT 10SM SCT038 10/09 A3012 -100 96 -600 000/00 RMK AO2 T01000094 $
63871K1J0 1J020160131081011301/31/16 08:10:31  5-MIN K1J0 311410Z AUTO 00000KT 10SM FEW040 10/09 A3012 -90 96 -600 000/00 RMK AO2 T01000094 $
63871K1J0 1J020160131081511301/31/16 08:15:31  5-MIN K1J0 311415Z AUTO 00000KT 10SM FEW040 11/09 A3012 -90 93 -600 000/00 RMK AO2 T01060094 $
63871K1J0 1J020160131082011001/31/16 08:20:31  5-MIN K1J0 311420Z AUTO 00000KT 10SM CLR 11/10 A3012 -90 96 -600 000/00 RMK AO2 T01060100 $
63871K1J0 1J020160131082511001/31/16 08:25:31  5-MIN K1J0 311425Z AUTO 00000KT 10SM CLR 11/11 A3012 -90 96 -500 000/00 RMK AO2 T01110106 $
63871K1J0 1J020160131083011001/31/16 08:30:31  5-MIN K1J0 311430Z AUTO 00000KT 10SM CLR 11/11 A3012 -90 96 -500 000/00 RMK AO2 T01110106 $
63871K1J0 1J020160131083511001/31/16 08:35:31  5-MIN K1J0 311435Z AUTO 00000KT 10SM CLR 12/11 A3012 -90 93 -400 000/00 RMK AO2 T01170106 $
63871K1J0 1J020160131084011001/31/16 08:40:31  5-MIN K1J0 311440Z AUTO 00000KT 10SM CLR 12/11 A3012 -90 96 -400 000/00 RMK AO2 T01170111 $
63871K1J0 1J020160131084511101/31/16 08:45:31  5-MIN K1J0 311445Z AUTO 00000KT 10SM CLR 12/11 A3012 -100 93 -400 000/00 RMK AO2 T01220111 $
63871K1J0 1J020160131085011101/31/16 08:50:31  5-MIN K1J0 311450Z AUTO 00000KT 10SM CLR 12/12 A3012 -100 96 -400 000/00 RMK AO2 T01220117 $
63871K1J0 1J020160131085512401/31/16 08:55:31  5-MIN K1J0 311455Z AUTO 00000KT 10SM CLR 12/12 A3012 -100 96 -400 000/00 RMK AO2 SLP186 T01220117 53010 $
63871K1J0 1J020160131090011101/31/16 09:00:31  5-MIN K1J0 311500Z AUTO 00000KT 10SM CLR 13/12 A3012 -100 96 -300 000/00 RMK AO2 T01280122 $
63871K1J0 1J020160131090511101/31/16 09:05:31  5-MIN K1J0 311505Z AUTO 00000KT 10SM CLR 13/12 A3012 -100 96 -300 000/00 RMK AO2 T01280122 $
63871K1J0 1J020160131091011101/31/16 09:10:31  5-MIN K1J0 311510Z AUTO 00000KT 10SM CLR 13/12 A3013 -100 93 -200 000/00 RMK AO2 T01330122 $
63871K1J0 1J020160131091511101/31/16 09:15:31  5-MIN K1J0 311515Z AUTO 00000KT 10SM CLR 13/12 A3013 -100 93 -200 000/00 RMK AO2 T01330122 $
63871K1J0 1J020160131092011101/31/16 09:20:31  5-MIN K1J0 311520Z AUTO 00000KT 10SM CLR 13/13 A3013 -100 96 -200 000/00 RMK AO2 T01330128 $
63871K1J0 1J020160131092511101/31/16 09:25:31  5-MIN K1J0 311525Z AUTO 00000KT 10SM CLR 14/13 A3013 -100 93 -200 000/00 RMK AO2 T01390128 $
63871K1J0 1J020160131093011101/31/16 09:30:31  5-MIN K1J0 311530Z AUTO 00000KT 10SM CLR 14/13 A3013 -100 93 -200 000/00 RMK AO2 T01390128 $
63871K1J0 1J020160131093511101/31/16 09:35:31  5-MIN K1J0 311535Z AUTO 00000KT 10SM CLR 14/13 A3013 -100 93 -200 000/00 RMK AO2 T01390128 $
63871K1J0 1J020160131094011101/31/16 09:40:31  5-MIN K1J0 311540Z AUTO 00000KT 10SM CLR 14/13 A3013 -100 93 -200 000/00 RMK AO2 T01390128 $
63871K1J0 1J020160131094511101/31/16 09:45:31  5-MIN K1J0 311545Z AUTO 00000KT 10SM CLR 14/13 A3013 -110 93 -200 000/00 RMK AO2 T01390128 $
63871K1J0 1J020160131095011101/31/16 09:50:31  5-MIN K1J0 311550Z AUTO 00000KT 10SM CLR 14/13 A3013 -100 90 -100 000/00 RMK AO2 T01440128 $
63871K1J0 1J020160131095511801/31/16 09:55:31  5-MIN K1J0 311555Z AUTO 15003KT 10SM CLR 14/13 A3013 -100 93 -100 150/03 RMK AO2 SLP188 T01440133 $
63871K1J0 1J020160131100011101/31/16 10:00:31  5-MIN K1J0 311600Z AUTO 00000KT 10SM CLR 14/13 A3013 -100 93 -100 000/00 RMK AO2 T01440133 $
63871K1J0 1J020160131100510801/31/16 10:05:31  5-MIN K1J0 311605Z AUTO 00000KT 10SM CLR 15/13 A3013 -100 90 0 000/00 RMK AO2 T01500133 $
63871K1J0 1J020160131101010801/31/16 10:10:31  5-MIN K1J0 311610Z AUTO 00000KT 10SM CLR 15/13 A3013 -100 90 0 000/00 RMK AO2 T01500133 $
63871K1J0 1J020160131101510801/31/16 10:15:31  5-MIN K1J0 311615Z AUTO 00000KT 10SM CLR 15/13 A3012 -100 90 0 000/00 RMK AO2 T01500133 $
63871K1J0 1J020160131102010801/31/16 10:20:31  5-MIN K1J0 311620Z AUTO 16003KT 10SM CLR 16/13 A3012 -100 86 0 160/03 RMK AO2 T01560133 $
63871K1J0 1J020160131102510801/31/16 10:25:31  5-MIN K1J0 311625Z AUTO 16003KT 10SM CLR 16/14 A3012 -100 86 0 160/03 RMK AO2 T01610139 $
63871K1J0 1J020160131103010701/31/16 10:30:31  5-MIN K1J0 311630Z AUTO 00000KT 10SM CLR 16/13 A3012 -90 83 0 000/00 RMK AO2 T01610133 $
63871K1J0 1J020160131103510901/31/16 10:35:31  5-MIN K1J0 311635Z AUTO 15004KT 10SM CLR 17/14 A3012 -90 83 100 150/04 RMK AO2 T01670139 $
63871K1J0 1J020160131104010901/31/16 10:40:31  5-MIN K1J0 311640Z AUTO 15005KT 10SM CLR 17/14 A3011 -90 80 200 150/05 RMK AO2 T01720139 $
63871K1J0 1J020160131104510901/31/16 10:45:31  5-MIN K1J0 311645Z AUTO 15007KT 10SM CLR 17/13 A3011 -90 78 200 150/07 RMK AO2 T01720133 $
63871K1J0 1J020160131105010901/31/16 10:50:31  5-MIN K1J0 311650Z AUTO 14005KT 10SM CLR 18/13 A3011 -80 75 300 140/05 RMK AO2 T01780133 $
63871K1J0 1J020160131105511601/31/16 10:55:31  5-MIN K1J0 311655Z AUTO 16007KT 10SM CLR 18/13 A3011 -80 75 300 160/07 RMK AO2 SLP180 T01780133 $
63871K1J0 1J020160131110010901/31/16 11:00:31  5-MIN K1J0 311700Z AUTO 16006KT 10SM CLR 18/13 A3011 -80 75 300 160/06 RMK AO2 T01780133 $
63871K1J0 1J020160131110510901/31/16 11:05:31  5-MIN K1J0 311705Z AUTO 16006KT 10SM CLR 18/14 A3011 -80 75 300 160/06 RMK AO2 T01830139 $
63871K1J0 1J020160131111010901/31/16 11:10:31  5-MIN K1J0 311710Z AUTO 17006KT 10SM CLR 18/13 A3010 -80 72 300 170/06 RMK AO2 T01830133 $
63871K1J0 1J020160131111510901/31/16 11:15:31  5-MIN K1J0 311715Z AUTO 16005KT 10SM CLR 18/14 A3010 -80 75 300 160/05 RMK AO2 T01830139 $
63871K1J0 1J020160131112011201/31/16 11:20:31  5-MIN K1J0 311720Z AUTO 17008KT 10SM FEW033 18/13 A3010 -70 72 300 170/08 RMK AO2 T01830133 $
63871K1J0 1J020160131112511201/31/16 11:25:31  5-MIN K1J0 311725Z AUTO 17009KT 10SM SCT033 18/13 A3009 -70 72 300 170/09 RMK AO2 T01830133 $
63871K1J0 1J020160131113011201/31/16 11:30:31  5-MIN K1J0 311730Z AUTO 16009KT 10SM SCT033 18/13 A3009 -70 72 300 160/09 RMK AO2 T01830133 $
63871K1J0 1J020160131113511201/31/16 11:35:31  5-MIN K1J0 311735Z AUTO 16009KT 10SM FEW033 19/13 A3008 -60 70 400 160/09 RMK AO2 T01890133 $
63871K1J0 1J020160131114011201/31/16 11:40:31  5-MIN K1J0 311740Z AUTO 15009KT 10SM FEW033 19/13 A3008 -60 70 400 150/09 RMK AO2 T01890133 $
63871K1J0 1J020160131114511201/31/16 11:45:31  5-MIN K1J0 311745Z AUTO 16010KT 10SM FEW032 19/13 A3008 -60 70 400 160/10 RMK AO2 T01890133 $
63871K1J0 1J020160131115011201/31/16 11:50:31  5-MIN K1J0 311750Z AUTO 16008KT 10SM SCT032 19/13 A3008 -50 70 400 160/08 RMK AO2 T01890133 $
63871K1J0 1J020160131115513701/31/16 11:55:31  5-MIN K1J0 311755Z AUTO 16007KT 10SM BKN034 19/14 A3008 -50 72 400 160/07 RMK AO2 SLP169 T01890139 10189 20083 51008 $
63871K1J0 1J020160131120011201/31/16 12:00:31  5-MIN K1J0 311800Z AUTO 16009KT 10SM BKN034 19/14 A3007 -50 70 500 160/09 RMK AO2 T01940139 $
63871K1J0 1J020160131120511901/31/16 12:05:31  5-MIN K1J0 311805Z AUTO 18008KT 10SM FEW027 BKN034 19/14 A3007 -50 70 500 180/08 RMK AO2 T01940139 $
63871K1J0 1J020160131121011901/31/16 12:10:31  5-MIN K1J0 311810Z AUTO 16008KT 10SM FEW027 BKN034 19/14 A3007 -50 70 500 160/08 RMK AO2 T01940139 $
63871K1J0 1J020160131121511201/31/16 12:15:31  5-MIN K1J0 311815Z AUTO 17010KT 10SM OVC034 19/14 A3007 -50 70 500 170/10 RMK AO2 T01940139 $
63871K1J0 1J020160131122011901/31/16 12:20:31  5-MIN K1J0 311820Z AUTO 17006KT 10SM FEW029 BKN034 20/14 A3007 -40 67 600 170/06 RMK AO2 T02000139 $
63871K1J0 1J020160131122511901/31/16 12:25:31  5-MIN K1J0 311825Z AUTO 17007KT 10SM SCT029 BKN034 20/14 A3006 -40 67 600 170/07 RMK AO2 T02000139 $
63871K1J0 1J020160131123011901/31/16 12:30:31  5-MIN K1J0 311830Z AUTO 16010KT 10SM SCT029 BKN034 20/14 A3006 -40 67 600 160/10 RMK AO2 T02000139 $
63871K1J0 1J020160131123511901/31/16 12:35:31  5-MIN K1J0 311835Z AUTO 15009KT 10SM FEW027 BKN034 20/14 A3005 -30 67 600 150/09 RMK AO2 T02000139 $
63871K1J0 1J020160131124011901/31/16 12:40:31  5-MIN K1J0 311840Z AUTO 17008KT 10SM FEW027 SCT034 20/14 A3005 -30 67 600 170/08 RMK AO2 T02000139 $
63871K1J0 1J020160131124511901/31/16 12:45:31  5-MIN K1J0 311845Z AUTO 17009KT 10SM FEW027 SCT047 20/14 A3005 -20 70 600 170/09 RMK AO2 T02000144 $
63871K1J0 1J020160131125013501/31/16 12:50:31  5-MIN K1J0 311850Z AUTO 17007KT 130V190 10SM FEW028 SCT047 20/14 A3005 -30 70 600 170/07 130V190 RMK AO2 T02000144 $
63871K1J0 1J020160131125511901/31/16 12:55:31  5-MIN K1J0 311855Z AUTO 19009KT 10SM SCT047 20/14 A3005 -30 67 600 190/09 RMK AO2 SLP160 T02000139 $
63871K1J0 1J020160131130011201/31/16 13:00:31  5-MIN K1J0 311900Z AUTO 18007KT 10SM BKN046 21/14 A3005 -30 65 700 180/07 RMK AO2 T02060139 $
63871K1J0 1J020160131130511201/31/16 13:05:31  5-MIN K1J0 311905Z AUTO 17011KT 10SM BKN046 20/14 A3005 -30 67 600 170/11 RMK AO2 T02000139 $
63871K1J0 1J020160131131011201/31/16 13:10:31  5-MIN K1J0 311910Z AUTO 17010KT 10SM BKN046 20/14 A3005 -20 67 600 170/10 RMK AO2 T02000139 $
63871K1J0 1J020160131131511201/31/16 13:15:31  5-MIN K1J0 311915Z AUTO 16008KT 10SM BKN046 20/14 A3004 -20 67 600 160/08 RMK AO2 T02000139 $
63871K1J0 1J020160131132012601/31/16 13:20:31  5-MIN K1J0 311920Z AUTO 18007KT 10SM FEW030 BKN046 OVC055 20/14 A3004 -20 67 600 180/07 RMK AO2 T02000139 $
63871K1J0 1J020160131132512601/31/16 13:25:31  5-MIN K1J0 311925Z AUTO 18007KT 10SM FEW030 SCT034 OVC049 20/14 A3004 -20 67 600 180/07 RMK AO2 T02000139 $
63871K1J0 1J020160131133012601/31/16 13:30:31  5-MIN K1J0 311930Z AUTO 19009KT 10SM FEW030 SCT036 OVC049 20/14 A3003 -10 67 600 190/09 RMK AO2 T02000139 $
63871K1J0 1J020160131133512601/31/16 13:35:31  5-MIN K1J0 311935Z AUTO 19011KT 10SM FEW030 BKN048 OVC055 20/14 A3003 -10 67 600 190/11 RMK AO2 T02000139 $
63871K1J0 1J020160131134012601/31/16 13:40:31  5-MIN K1J0 311940Z AUTO 19008KT 10SM FEW029 FEW036 OVC055 21/14 A3003 -10 65 700 190/08 RMK AO2 T02060139 $
63871K1J0 1J020160131134512601/31/16 13:45:31  5-MIN K1J0 311945Z AUTO VRB05KT 10SM FEW029 SCT036 OVC055 21/14 A3003 -10 65 700 VRB/05 RMK AO2 T02060139 $
63871K1J0 1J020160131135012601/31/16 13:50:31  5-MIN K1J0 311950Z AUTO 18006KT 10SM FEW029 SCT038 OVC055 21/14 A3003 -10 65 700 180/06 RMK AO2 T02060139 $
63871K1J0 1J020160131135513301/31/16 13:55:31  5-MIN K1J0 311955Z AUTO 18006KT 10SM SCT030 BKN041 OVC055 21/14 A3003 -10 65 700 180/06 RMK AO2 SLP154 T02060139 $
63871K1J0 1J020160131140012601/31/16 14:00:31  5-MIN K1J0 312000Z AUTO 20006KT 10SM SCT030 BKN042 OVC055 21/14 A3003 -10 65 700 200/06 RMK AO2 T02060139 $
63871K1J0 1J020160131140512601/31/16 14:05:31  5-MIN K1J0 312005Z AUTO 20006KT 10SM SCT030 BKN042 OVC055 20/14 A3003 -10 67 600 200/06 RMK AO2 T02000139 $
63871K1J0 1J020160131141012601/31/16 14:10:31  5-MIN K1J0 312010Z AUTO 19007KT 10SM SCT032 BKN042 OVC060 21/14 A3003 -10 65 700 190/07 RMK AO2 T02060139 $
63871K1J0 1J020160131141512601/31/16 14:15:31  5-MIN K1J0 312015Z AUTO 19006KT 10SM BKN034 BKN042 OVC060 21/14 A3003 -10 65 700 190/06 RMK AO2 T02060139 $
63871K1J0 1J020160131142012601/31/16 14:20:31  5-MIN K1J0 312020Z AUTO 18007KT 10SM SCT034 BKN042 OVC060 21/14 A3003 -10 65 700 180/07 RMK AO2 T02060139 $
63871K1J0 1J020160131142512601/31/16 14:25:31  5-MIN K1J0 312025Z AUTO 20008KT 10SM FEW032 BKN048 OVC060 21/14 A3003 -10 65 700 200/08 RMK AO2 T02060139 $
63871K1J0 1J020160131143012601/31/16 14:30:31  5-MIN K1J0 312030Z AUTO 19008KT 10SM FEW032 BKN048 OVC060 21/14 A3003 -10 65 700 190/08 RMK AO2 T02060139 $
63871K1J0 1J020160131143512601/31/16 14:35:31  5-MIN K1J0 312035Z AUTO 19006KT 10SM SCT034 SCT048 BKN060 21/14 A3003 -10 65 700 190/06 RMK AO2 T02060139 $
63871K1J0 1J020160131144012601/31/16 14:40:31  5-MIN K1J0 312040Z AUTO 17007KT 10SM SCT036 SCT048 BKN060 20/14 A3003 -10 67 600 170/07 RMK AO2 T02000139 $
63871K1J0 1J020160131144512601/31/16 14:45:31  5-MIN K1J0 312045Z AUTO 17007KT 10SM SCT031 BKN048 BKN060 20/14 A3003 -10 67 600 170/07 RMK AO2 T02000139 $
63871K1J0 1J020160131145012601/31/16 14:50:31  5-MIN K1J0 312050Z AUTO 19007KT 10SM BKN031 BKN047 OVC060 20/14 A3003 -10 67 600 190/07 RMK AO2 T02000139 $
63871K1J0 1J020160131145513901/31/16 14:55:31  5-MIN K1J0 312055Z AUTO 17008KT 10SM BKN031 BKN041 BKN065 20/14 A3003 -10 67 600 170/08 RMK AO2 SLP154 T02000139 58017 $
63871K1J0 1J020160131150012601/31/16 15:00:31  5-MIN K1J0 312100Z AUTO 18006KT 10SM BKN031 BKN041 OVC065 20/14 A3003 -10 67 600 180/06 RMK AO2 T02000139 $
63871K1J0 1J020160131150511901/31/16 15:05:31  5-MIN K1J0 312105Z AUTO 19006KT 10SM BKN031 OVC039 20/14 A3003 -10 67 600 190/06 RMK AO2 T02000139 $
63871K1J0 1J020160131151011901/31/16 15:10:31  5-MIN K1J0 312110Z AUTO 18008KT 10SM BKN031 OVC041 20/14 A3003 -10 70 600 180/08 RMK AO2 T02000144 $
63871K1J0 1J020160131151512601/31/16 15:15:31  5-MIN K1J0 312115Z AUTO 19008KT 10SM SCT031 BKN038 OVC046 20/14 A3003 -10 70 600 190/08 RMK AO2 T02000144 $
63871K1J0 1J020160131152012601/31/16 15:20:31  5-MIN K1J0 312120Z AUTO 18007KT 10SM SCT031 BKN038 BKN046 21/14 A3003 -10 67 700 180/07 RMK AO2 T02060144 $
63871K1J0 1J020160131152512601/31/16 15:25:31  5-MIN K1J0 312125Z AUTO 17009KT 10SM SCT031 SCT038 BKN046 20/14 A3003 -10 70 600 170/09 RMK AO2 T02000144 $
63871K1J0 1J020160131153011701/31/16 15:30:31  5-MIN K1J0 312130Z AUTO 16011KT 10SM FEW034 SCT046 20/14 A3002 0 70 600 160/11 RMK AO2 T02000144 $
63871K1J0 1J020160131153511901/31/16 15:35:31  5-MIN K1J0 312135Z AUTO 16009KT 10SM FEW034 SCT047 19/14 A3002 -10 72 500 160/09 RMK AO2 T01940144 $
63871K1J0 1J020160131154013501/31/16 15:40:31  5-MIN K1J0 312140Z AUTO 18007KT 160V220 10SM FEW034 SCT047 19/14 A3003 -10 72 500 180/07 160V220 RMK AO2 T01940144 $
63871K1J0 1J020160131154511201/31/16 15:45:31  5-MIN K1J0 312145Z AUTO 17011KT 10SM SCT034 19/14 A3003 -10 72 500 170/11 RMK AO2 T01940144 $
63871K1J0 1J020160131155011201/31/16 15:50:31  5-MIN K1J0 312150Z AUTO 17007KT 10SM FEW034 19/14 A3003 -10 72 500 170/07 RMK AO2 T01940144 $
63871K1J0 1J020160131155511901/31/16 15:55:31  5-MIN K1J0 312155Z AUTO 18008KT 10SM SCT034 19/14 A3003 -10 72 500 180/08 RMK AO2 SLP155 T01940144 $
63871K1J0 1J020160131160011901/31/16 16:00:31  5-MIN K1J0 312200Z AUTO 16008KT 10SM SCT034 BKN045 19/14 A3003 -10 75 500 160/08 RMK AO2 T01890144 $
63871K1J0 1J020160131160511901/31/16 16:05:31  5-MIN K1J0 312205Z AUTO 18008KT 10SM SCT036 BKN045 19/14 A3004 -20 75 500 180/08 RMK AO2 T01890144 $
63871K1J0 1J020160131161012601/31/16 16:10:31  5-MIN K1J0 312210Z AUTO 18008KT 10SM FEW029 BKN036 BKN044 19/14 A3004 -20 75 500 180/08 RMK AO2 T01890144 $
63871K1J0 1J020160131161512601/31/16 16:15:31  5-MIN K1J0 312215Z AUTO 18007KT 10SM SCT029 BKN036 BKN044 19/14 A3004 -20 75 500 180/07 RMK AO2 T01890144 $
63871K1J0 1J020160131162012601/31/16 16:20:31  5-MIN K1J0 312220Z AUTO 17006KT 10SM SCT027 BKN032 OVC042 19/14 A3004 -20 75 500 170/06 RMK AO2 T01890144 $
63871K1J0 1J020160131162512601/31/16 16:25:31  5-MIN K1J0 312225Z AUTO 18006KT 10SM BKN027 BKN032 OVC042 19/14 A3003 -10 75 500 180/06 RMK AO2 T01890144 $
63871K1J0 1J020160131163012601/31/16 16:30:31  5-MIN K1J0 312230Z AUTO 17006KT 10SM BKN027 BKN033 OVC041 19/14 A3003 -10 75 500 170/06 RMK AO2 T01890144 $
63871K1J0 1J020160131163511901/31/16 16:35:31  5-MIN K1J0 312235Z AUTO 17007KT 10SM BKN027 OVC033 19/14 A3004 -10 75 500 170/07 RMK AO2 T01890144 $
63871K1J0 1J020160131164011901/31/16 16:40:31  5-MIN K1J0 312240Z AUTO 16007KT 10SM BKN027 OVC033 19/14 A3003 -10 75 500 160/07 RMK AO2 T01890144 $
63871K1J0 1J020160131164512601/31/16 16:45:31  5-MIN K1J0 312245Z AUTO 16008KT 10SM BKN027 BKN033 BKN060 19/14 A3003 -10 75 500 160/08 RMK AO2 T01890144 $
63871K1J0 1J020160131165012601/31/16 16:50:31  5-MIN K1J0 312250Z AUTO 17007KT 10SM SCT025 BKN031 BKN055 18/14 A3004 -20 78 400 170/07 RMK AO2 T01830144 $
63871K1J0 1J020160131165513301/31/16 16:55:31  5-MIN K1J0 312255Z AUTO 16009KT 10SM BKN027 BKN035 OVC055 18/14 A3004 -20 78 400 160/09 RMK AO2 SLP156 T01830144 $
63871K1J0 1J020160131170011901/31/16 17:00:31  5-MIN K1J0 312300Z AUTO 17009KT 10SM BKN028 OVC060 18/14 A3003 -10 78 400 170/09 RMK AO2 T01830144 $
63871K1J0 1J020160131170512601/31/16 17:05:31  5-MIN K1J0 312305Z AUTO 18008KT 10SM FEW024 SCT029 OVC060 18/14 A3004 -20 75 400 180/08 RMK AO2 T01830139 $
63871K1J0 1J020160131171011901/31/16 17:10:31  5-MIN K1J0 312310Z AUTO 18006KT 10SM SCT031 OVC060 18/14 A3004 -20 75 400 180/06 RMK AO2 T01830139 $
63871K1J0 1J020160131171512601/31/16 17:15:31  5-MIN K1J0 312315Z AUTO 17006KT 10SM SCT031 BKN042 OVC060 18/14 A3004 -20 75 400 170/06 RMK AO2 T01830139 $
63871K1J0 1J020160131172012601/31/16 17:20:31  5-MIN K1J0 312320Z AUTO 18006KT 10SM FEW029 BKN034 OVC060 18/14 A3004 -20 75 400 180/06 RMK AO2 T01830139 $
63871K1J0 1J020160131172512601/31/16 17:25:31  5-MIN K1J0 312325Z AUTO 17005KT 10SM SCT032 BKN042 OVC060 18/14 A3003 -10 78 300 170/05 RMK AO2 T01780139 $
63871K1J0 1J020160131173012601/31/16 17:30:31  5-MIN K1J0 312330Z AUTO 16005KT 10SM SCT034 SCT041 OVC065 18/14 A3003 -10 78 300 160/05 RMK AO2 T01780139 $
63871K1J0 1J020160131173512601/31/16 17:35:31  5-MIN K1J0 312335Z AUTO 16004KT 10SM SCT032 SCT041 OVC065 17/14 A3003 -10 80 300 160/04 RMK AO2 T01720139 $
63871K1J0 1J020160131174012601/31/16 17:40:31  5-MIN K1J0 312340Z AUTO 15004KT 10SM FEW029 SCT034 BKN065 17/14 A3003 -10 80 300 150/04 RMK AO2 T01720139 $
63871K1J0 1J020160131174511901/31/16 17:45:31  5-MIN K1J0 312345Z AUTO 16003KT 10SM FEW034 SCT065 17/14 A3003 -10 80 300 160/03 RMK AO2 T01720139 $
63871K1J0 1J020160131175011901/31/16 17:50:31  5-MIN K1J0 312350Z AUTO 00000KT 10SM SCT032 BKN065 17/14 A3004 -20 80 300 000/00 RMK AO2 T01720139 $
63871K1J0 1J020160131175514401/31/16 17:55:31  5-MIN K1J0 312355Z AUTO 18003KT 10SM BKN032 BKN065 17/14 A3004 -20 83 200 180/03 RMK AO2 SLP157 T01670139 10206 20167 56015 $
63871K1J0 1J020160131180011201/31/16 18:00:31  5-MIN K1J0 010000Z AUTO 18003KT 10SM BKN032 17/14 A3004 -20 80 300 180/03 RMK AO2 T01720139 $
63871K1J0 1J020160131180511201/31/16 18:05:31  5-MIN K1J0 010005Z AUTO 16004KT 10SM BKN033 17/14 A3004 -20 83 200 160/04 RMK AO2 T01670139 $
63871K1J0 1J020160131181011201/31/16 18:10:31  5-MIN K1J0 010010Z AUTO 16003KT 10SM BKN033 17/14 A3004 -20 83 200 160/03 RMK AO2 T01670139 $
63871K1J0 1J020160131181511201/31/16 18:15:31  5-MIN K1J0 010015Z AUTO 13004KT 10SM BKN035 17/14 A3004 -20 83 200 130/04 RMK AO2 T01670139 $
63871K1J0 1J020160131182011201/31/16 18:20:31  5-MIN K1J0 010020Z AUTO 13004KT 10SM BKN035 17/14 A3004 -20 83 200 130/04 RMK AO2 T01670139 $
63871K1J0 1J020160131182511201/31/16 18:25:31  5-MIN K1J0 010025Z AUTO 14004KT 10SM SCT035 17/14 A3004 -20 83 200 140/04 RMK AO2 T01670139 $
63871K1J0 1J020160131183011201/31/16 18:30:31  5-MIN K1J0 010030Z AUTO 14004KT 10SM FEW035 17/14 A3004 -20 83 200 140/04 RMK AO2 T01670139 $
63871K1J0 1J020160131183511201/31/16 18:35:31  5-MIN K1J0 010035Z AUTO 14004KT 10SM FEW037 17/14 A3004 -20 83 200 140/04 RMK AO2 T01670139 $
63871K1J0 1J020160131184010901/31/16 18:40:31  5-MIN K1J0 010040Z AUTO 14004KT 10SM CLR 16/13 A3004 -20 83 100 140/04 RMK AO2 T01610133 $
63871K1J0 1J020160131184510901/31/16 18:45:31  5-MIN K1J0 010045Z AUTO 14005KT 10SM CLR 17/13 A3004 -20 80 200 140/05 RMK AO2 T01670133 $
63871K1J0 1J020160131185010901/31/16 18:50:31  5-MIN K1J0 010050Z AUTO 13005KT 10SM CLR 16/13 A3004 -20 83 100 130/05 RMK AO2 T01610133 $
63871K1J0 1J020160131185511601/31/16 18:55:31  5-MIN K1J0 010055Z AUTO 13004KT 10SM CLR 16/13 A3004 -20 83 100 130/04 RMK AO2 SLP156 T01610133 $
63871K1J0 1J020160131190010901/31/16 19:00:31  5-MIN K1J0 010100Z AUTO 12004KT 10SM CLR 16/13 A3003 -10 83 200 120/04 RMK AO2 T01610133 $
63871K1J0 1J020160131190510901/31/16 19:05:31  5-MIN K1J0 010105Z AUTO 12004KT 10SM CLR 16/13 A3003 -10 83 200 120/04 RMK AO2 T01610133 $
63871K1J0 1J020160131191010901/31/16 19:10:31  5-MIN K1J0 010110Z AUTO 13004KT 10SM CLR 16/13 A3003 -10 83 200 130/04 RMK AO2 T01610133 $
63871K1J0 1J020160131191510901/31/16 19:15:31  5-MIN K1J0 010115Z AUTO 13004KT 10SM CLR 16/13 A3003 -10 80 100 130/04 RMK AO2 T01610128 $
63871K1J0 1J020160131192010901/31/16 19:20:31  5-MIN K1J0 010120Z AUTO 13003KT 10SM CLR 16/13 A3003 -10 83 100 130/03 RMK AO2 T01560128 $
63871K1J0 1J020160131192510901/31/16 19:25:31  5-MIN K1J0 010125Z AUTO 13003KT 10SM CLR 16/13 A3004 -20 83 100 130/03 RMK AO2 T01560128 $
63871K1J0 1J020160131193010901/31/16 19:30:31  5-MIN K1J0 010130Z AUTO 15003KT 10SM CLR 16/13 A3004 -20 83 100 150/03 RMK AO2 T01560128 $
63871K1J0 1J020160131193510901/31/16 19:35:31  5-MIN K1J0 010135Z AUTO 15003KT 10SM CLR 16/13 A3004 -20 83 100 150/03 RMK AO2 T01560128 $
63871K1J0 1J020160131194010901/31/16 19:40:31  5-MIN K1J0 010140Z AUTO 15004KT 10SM CLR 16/13 A3004 -20 83 100 150/04 RMK AO2 T01560128 $
63871K1J0 1J020160131194510901/31/16 19:45:31  5-MIN K1J0 010145Z AUTO 15003KT 10SM CLR 16/12 A3004 -20 80 100 150/03 RMK AO2 T01560122 $
63871K1J0 1J020160131195010901/31/16 19:50:31  5-MIN K1J0 010150Z AUTO 00000KT 10SM CLR 16/12 A3004 -20 80 100 000/00 RMK AO2 T01560122 $
63871K1J0 1J020160131195511701/31/16 19:55:31  5-MIN K1J0 010155Z AUTO 00000KT 10SM FEW050 15/12 A3004 -20 83 0 000/00 RMK AO2 SLP158 T01500122 $
63871K1J0 1J020160131200011001/31/16 20:00:31  5-MIN K1J0 010200Z AUTO 12003KT 10SM FEW050 14/12 A3004 -20 86 0 120/03 RMK AO2 T01440122 $
63871K1J0 1J020160131200511001/31/16 20:05:31  5-MIN K1J0 010205Z AUTO 00000KT 10SM SCT055 14/12 A3004 -20 86 0 000/00 RMK AO2 T01440122 $
63871K1J0 1J020160131201011001/31/16 20:10:31  5-MIN K1J0 010210Z AUTO 11003KT 10SM BKN055 15/12 A3004 -20 83 0 110/03 RMK AO2 T01500122 $
63871K1J0 1J020160131201511001/31/16 20:15:31  5-MIN K1J0 010215Z AUTO 12005KT 10SM BKN055 14/12 A3004 -20 86 0 120/05 RMK AO2 T01440122 $
63871K1J0 1J020160131202011001/31/16 20:20:31  5-MIN K1J0 010220Z AUTO 12004KT 10SM BKN055 15/12 A3004 -20 83 0 120/04 RMK AO2 T01500122 $
63871K1J0 1J020160131202511001/31/16 20:25:31  5-MIN K1J0 010225Z AUTO 14003KT 10SM OVC055 15/12 A3004 -20 80 0 140/03 RMK AO2 T01500117 $
63871K1J0 1J020160131203011201/31/16 20:30:31  5-MIN K1J0 010230Z AUTO 12003KT 10SM OVC055 16/12 A3004 -20 77 100 120/03 RMK AO2 T01560117 $
63871K1J0 1J020160131203511201/31/16 20:35:31  5-MIN K1J0 010235Z AUTO 15003KT 10SM OVC055 16/12 A3004 -20 77 100 150/03 RMK AO2 T01560117 $
63871K1J0 1J020160131204011201/31/16 20:40:31  5-MIN K1J0 010240Z AUTO 15003KT 10SM OVC055 16/12 A3004 -20 77 100 150/03 RMK AO2 T01560117 $
63871K1J0 1J020160131204511001/31/16 20:45:31  5-MIN K1J0 010245Z AUTO 13003KT 10SM OVC060 15/12 A3004 -20 80 0 130/03 RMK AO2 T01500117 $
63871K1J0 1J020160131205011001/31/16 20:50:31  5-MIN K1J0 010250Z AUTO 13003KT 10SM OVC060 15/12 A3004 -10 80 0 130/03 RMK AO2 T01500117 $
63871K1J0 1J020160131205512301/31/16 20:55:31  5-MIN K1J0 010255Z AUTO 00000KT 10SM OVC060 15/12 A3003 -10 80 0 000/00 RMK AO2 SLP155 T01500117 51003 $
63871K1J0 1J020160131210011001/31/16 21:00:31  5-MIN K1J0 010300Z AUTO 00000KT 10SM OVC060 15/12 A3003 -10 80 0 000/00 RMK AO2 T01500117 $
63871K1J0 1J020160131210511701/31/16 21:05:31  5-MIN K1J0 010305Z AUTO 00000KT 10SM FEW050 OVC065 15/12 A3003 -10 80 0 000/00 RMK AO2 T01500117 $
63871K1J0 1J020160131211011701/31/16 21:10:31  5-MIN K1J0 010310Z AUTO 12003KT 10SM FEW048 OVC065 15/12 A3003 -10 80 0 120/03 RMK AO2 T01500117 $
63871K1J0 1J020160131211512401/31/16 21:15:31  5-MIN K1J0 010315Z AUTO 12003KT 10SM FEW040 BKN048 OVC065 15/12 A3003 -10 80 0 120/03 RMK AO2 T01500117 $
63871K1J0 1J020160131212011701/31/16 21:20:31  5-MIN K1J0 010320Z AUTO 14004KT 10SM BKN044 OVC065 15/12 A3003 -10 80 0 140/04 RMK AO2 T01500117 $
63871K1J0 1J020160131212511701/31/16 21:25:31  5-MIN K1J0 010325Z AUTO 14004KT 10SM BKN044 OVC065 15/12 A3003 -10 80 0 140/04 RMK AO2 T01500117 $
63871K1J0 1J020160131213012401/31/16 21:30:31  5-MIN K1J0 010330Z AUTO 12003KT 10SM BKN042 BKN050 OVC065 15/12 A3003 -10 80 0 120/03 RMK AO2 T01500117 $
63871K1J0 1J020160131213511701/31/16 21:35:31  5-MIN K1J0 010335Z AUTO 15003KT 10SM BKN042 OVC050 15/12 A3004 -20 80 0 150/03 RMK AO2 T01500117 $
63871K1J0 1J020160131214011001/31/16 21:40:31  5-MIN K1J0 010340Z AUTO 15004KT 10SM OVC045 15/12 A3004 -20 80 0 150/04 RMK AO2 T01500117 $
63871K1J0 1J020160131214511001/31/16 21:45:31  5-MIN K1J0 010345Z AUTO 16003KT 10SM OVC045 15/12 A3004 -20 80 0 160/03 RMK AO2 T01500117 $
63871K1J0 1J020160131215011001/31/16 21:50:31  5-MIN K1J0 010350Z AUTO 16003KT 10SM OVC044 15/12 A3004 -20 80 0 160/03 RMK AO2 T01500117 $
63871K1J0 1J020160131215512401/31/16 21:55:31  5-MIN K1J0 010355Z AUTO 17003KT 10SM SCT037 OVC047 15/12 A3004 -20 80 0 170/03 RMK AO2 SLP155 T01500117 $
63871K1J0 1J020160131220011701/31/16 22:00:31  5-MIN K1J0 010400Z AUTO 00000KT 10SM BKN037 OVC047 15/12 A3004 -20 80 0 000/00 RMK AO2 T01500117 $
63871K1J0 1J020160131220511701/31/16 22:05:31  5-MIN K1J0 010405Z AUTO 00000KT 10SM BKN037 OVC047 15/12 A3004 -20 80 0 000/00 RMK AO2 T01500117 $
63871K1J0 1J020160131221011701/31/16 22:10:31  5-MIN K1J0 010410Z AUTO 15004KT 10SM BKN039 OVC047 15/12 A3004 -20 80 0 150/04 RMK AO2 T01500117 $
63871K1J0 1J020160131221511701/31/16 22:15:31  5-MIN K1J0 010415Z AUTO 00000KT 10SM BKN039 OVC046 15/12 A3004 -20 80 0 000/00 RMK AO2 T01500117 $
63871K1J0 1J020160131222011701/31/16 22:20:31  5-MIN K1J0 010420Z AUTO 14003KT 10SM BKN039 OVC048 15/12 A3004 -20 83 0 140/03 RMK AO2 T01500122 $
63871K1J0 1J020160131222512401/31/16 22:25:31  5-MIN K1J0 010425Z AUTO 00000KT 10SM BKN039 BKN048 OVC065 14/12 A3004 -20 86 0 000/00 RMK AO2 T01440122 $
63871K1J0 1J020160131223012401/31/16 22:30:31  5-MIN K1J0 010430Z AUTO 00000KT 10SM SCT039 BKN048 OVC065 14/12 A3004 -20 83 0 000/00 RMK AO2 T01440117 $
63871K1J0 1J020160131223512401/31/16 22:35:31  5-MIN K1J0 010435Z AUTO 00000KT 10SM SCT039 BKN048 OVC070 14/12 A3004 -20 86 0 000/00 RMK AO2 T01440122 $
63871K1J0 1J020160131224012401/31/16 22:40:31  5-MIN K1J0 010440Z AUTO 00000KT 10SM BKN044 BKN055 OVC070 14/12 A3004 -20 83 0 000/00 RMK AO2 T01440117 $
63871K1J0 1J020160131224511701/31/16 22:45:31  5-MIN K1J0 010445Z AUTO 00000KT 10SM BKN044 OVC065 15/12 A3004 -20 80 0 000/00 RMK AO2 T01500117 $
63871K1J0 1J020160131225011701/31/16 22:50:31  5-MIN K1J0 010450Z AUTO 00000KT 10SM BKN044 OVC065 14/12 A3004 -20 86 0 000/00 RMK AO2 T01440122 $
63871K1J0 1J020160131225512401/31/16 22:55:31  5-MIN K1J0 010455Z AUTO 00000KT 10SM BKN046 BKN065 14/12 A3004 -20 86 0 000/00 RMK AO2 SLP130 T01440122 $
63871K1J0 1J020160131230011701/31/16 23:00:31  5-MIN K1J0 010500Z AUTO 00000KT 10SM SCT046 BKN065 14/12 A3004 -20 86 0 000/00 RMK AO2 T01440122 $
63871K1J0 1J020160131230511701/31/16 23:05:31  5-MIN K1J0 010505Z AUTO 18003KT 10SM SCT046 BKN065 14/12 A3004 -20 83 0 180/03 RMK AO2 T01440117 $
63871K1J0 1J020160131231011701/31/16 23:10:31  5-MIN K1J0 010510Z AUTO 17003KT 10SM SCT046 BKN065 14/12 A3004 -20 83 0 170/03 RMK AO2 T01440117 $
63871K1J0 1J020160131231511701/31/16 23:15:31  5-MIN K1J0 010515Z AUTO 00000KT 10SM BKN046 BKN060 14/12 A3004 -20 83 0 000/00 RMK AO2 T01440117 $
63871K1J0 1J020160131232011701/31/16 23:20:31  5-MIN K1J0 010520Z AUTO 00000KT 10SM SCT046 BKN065 14/12 A3004 -20 86 0 000/00 RMK AO2 T01440122 $
63871K1J0 1J020160131232511701/31/16 23:25:31  5-MIN K1J0 010525Z AUTO 15003KT 10SM SCT045 BKN065 14/12 A3004 -20 83 0 150/03 RMK AO2 T01440117 $
63871K1J0 1J020160131233011701/31/16 23:30:31  5-MIN K1J0 010530Z AUTO 00000KT 10SM SCT045 BKN065 14/12 A3004 -20 83 0 000/00 RMK AO2 T01440117 $
63871K1J0 1J020160131233511701/31/16 23:35:31  5-MIN K1J0 010535Z AUTO 00000KT 10SM SCT045 BKN065 14/12 A3004 -20 83 0 000/00 RMK AO2 T01440117 $
63871K1J0 1J020160131234012401/31/16 23:40:31  5-MIN K1J0 010540Z AUTO 00000KT 10SM FEW020 SCT045 OVC065 14/12 A3004 -20 83 0 000/00 RMK AO2 T01440117 $
63871K1J0 1J020160131234512001/31/16 23:45:31  5-MIN K1J0 010545Z AUTO 00000KT 10SM SCT047 OVC065 14/12 A3004 -20 86 -100 000/00 RMK AO2 T01390117 $
63871K1J0 1J020160131235012001/31/16 23:50:31  5-MIN K1J0 010550Z AUTO 00000KT 10SM SCT047 BKN060 14/12 A3004 -20 86 -100 000/00 RMK AO2 T01390117 $
63871K1J0 1J020160131235515501/31/16 23:55:31  5-MIN K1J0 010555Z AUTO 00000KT 10SM SCT047 OVC060 14/12 A3004 -20 86 -100 000/00 RMK AO2 SLP130 T01390117 10172 20139 402060083 58001 $
