03812KAVL AVL20160607084510406/07/16 08:45:31  5-MIN KAVL 071345Z 35013KT 10SM CLR 22/14 A2980 2280 59 3700 360/13 RMK AO2 T02220139
03812KAVL AVL20160607085011106/07/16 08:50:31  5-MIN KAVL 071350Z 35013KT 10SM CLR 23/14 A2979 2280 57 3700 350/13 RMK AO2 SLP063 T02280139
03812KAVL AVL20160607085510406/07/16 08:55:31  5-MIN KAVL 071355Z 34014KT 10SM CLR 23/14 A2980 2280 57 3700 350/14 RMK AO2 T02280139
03812KAVL AVL20160607090010406/07/16 09:00:31  5-MIN KAVL 071400Z 34011KT 10SM CLR 23/14 A2979 2280 59 3700 350/11 RMK AO2 T02280144
03812KAVL AVL20160607090510406/07/16 09:05:31  5-MIN KAVL 071405Z 33013KT 10SM CLR 23/14 A2979 2280 57 3800 340/13 RMK AO2 T02330144
03812KAVL AVL20160607091010406/07/16 09:10:31  5-MIN KAVL 071410Z 33012KT 10SM CLR 24/14 A2979 2280 55 3900 330/12 RMK AO2 T02390144
03812KAVL AVL20160607091510406/07/16 09:15:31  5-MIN KAVL 071415Z 35011KT 10SM CLR 24/14 A2979 2290 53 3900 350/11 RMK AO2 T02390139
03812KAVL AVL20160607092011006/07/16 09:20:31  5-MIN KAVL 071420Z 36008G18KT 10SM CLR 24/14 A2979 2290 53 3900 010/08G18 RMK AO2 T02390139
03812KAVL AVL20160607092510406/07/16 09:25:31  5-MIN KAVL 071425Z 34011KT 10SM CLR 24/13 A2979 2290 51 3900 350/11 RMK AO2 T02390133
03812KAVL AVL20160607093010406/07/16 09:30:31  5-MIN KAVL 071430Z 35008KT 10SM CLR 24/14 A2979 2290 51 3900 360/08 RMK AO2 T02440139
03812KAVL AVL20160607093510406/07/16 09:35:31  5-MIN KAVL 071435Z 35009KT 10SM CLR 25/14 A2978 2290 51 4000 350/09 RMK AO2 T02500144
03812KAVL AVL20160607094011306/07/16 09:40:31  5-MIN KAVL 071440Z 35011G16KT 10SM FEW050 25/14 A2978 2290 49 4000 360/11G16 RMK AO2 T02500139
03812KAVL AVL20160607094511306/07/16 09:45:31  5-MIN KAVL 071445Z 36012G17KT 10SM FEW050 25/14 A2978 2290 49 4000 010/12G17 RMK AO2 T02500139
03812KAVL AVL20160607095012606/07/16 09:50:31  5-MIN KAVL 071450Z 33009G17KT 10SM FEW050 26/14 A2978 2290 48 4100 340/09G17 RMK AO2 SLP056 T02560139 50001
03812KAVL AVL20160607095510706/07/16 09:55:31  5-MIN KAVL 071455Z 35011KT 10SM FEW050 25/14 A2978 2290 49 4000 360/11 RMK AO2 T02500139
03812KAVL AVL20160607100010706/07/16 10:00:31  5-MIN KAVL 071500Z 35012KT 10SM SCT055 25/13 A2978 2290 48 4000 360/12 RMK AO2 T02500133
03812KAVL AVL20160607100511306/07/16 10:05:31  5-MIN KAVL 071505Z 02010G17KT 10SM SCT055 25/13 A2978 2300 48 4000 030/10G17 RMK AO2 T02500133
03812KAVL AVL20160607101012006/07/16 10:10:31  5-MIN KAVL 071510Z 35009G18KT 10SM FEW049 SCT060 26/13 A2978 2290 46 4100 360/09G18 RMK AO2 T02560133
03812KAVL AVL20160607101511306/07/16 10:15:31  5-MIN KAVL 071515Z 36011G18KT 10SM SCT055 26/14 A2978 2290 48 4100 010/11G18 RMK AO2 T02560139
03812KAVL AVL20160607102011306/07/16 10:20:31  5-MIN KAVL 071520Z 35010G16KT 10SM SCT055 26/13 A2979 2290 46 4100 350/10G16 RMK AO2 T02560133
03812KAVL AVL20160607102512906/07/16 10:25:31  5-MIN KAVL 071525Z 31013G20KT 280V340 10SM BKN055 26/13 A2979 2290 43 4100 320/13G20 290V350 RMK AO2 T02610128
03812KAVL AVL20160607103014706/07/16 10:30:31  5-MIN KAVL 071530Z 33013G26KT 300V010 10SM SCT060 27/12 A2979 2290 37 4200 330/13G26 310V020 RMK AO2 PK WND 36026/1528 T02720117
03812KAVL AVL20160607103513806/07/16 10:35:31  5-MIN KAVL 071535Z 32011G26KT 10SM SCT055 SCT070 28/12 A2978 2290 37 4300 320/11G26 RMK AO2 PK WND 36026/1528 T02780122
03812KAVL AVL20160607104013806/07/16 10:40:31  5-MIN KAVL 071540Z 33015G24KT 10SM FEW060 SCT075 27/12 A2978 2300 39 4300 330/15G24 RMK AO2 PK WND 36026/1528 T02720122
03812KAVL AVL20160607104513106/07/16 10:45:31  5-MIN KAVL 071545Z 32011G22KT 10SM FEW060 28/12 A2978 2300 36 4300 330/11G22 RMK AO2 PK WND 36026/1528 T02780117
03812KAVL AVL20160607105013506/07/16 10:50:31  5-MIN KAVL 071550Z 30014G20KT 10SM CLR 28/11 A2978 2300 35 4300 310/14G20 RMK AO2 PK WND 36026/1528 SLP056 T02780111
03812KAVL AVL20160607105512606/07/16 10:55:31  5-MIN KAVL 071555Z 32013G25KT 300V360 10SM CLR 28/11 A2978 2300 35 4300 330/13G25 310V010 RMK AO2 T02780111
03812KAVL AVL20160607110011306/07/16 11:00:31  5-MIN KAVL 071600Z 33016G25KT 10SM FEW070 28/11 A2978 2300 35 4300 340/16G25 RMK AO2 T02780111
03812KAVL AVL20160607110511006/07/16 11:05:31  5-MIN KAVL 071605Z 34018G24KT 10SM CLR 28/11 A2978 2300 33 4300 350/18G24 RMK AO2 T02780106
03812KAVL AVL20160607111011006/07/16 11:10:31  5-MIN KAVL 071610Z 32015G24KT 10SM CLR 28/11 A2978 2300 32 4400 330/15G24 RMK AO2 T02830106
03812KAVL AVL20160607111511006/07/16 11:15:31  5-MIN KAVL 071615Z 33017G24KT 10SM CLR 28/10 A2978 2300 31 4400 340/17G24 RMK AO2 T02830100
03812KAVL AVL20160607112011006/07/16 11:20:31  5-MIN KAVL 071620Z 34016G24KT 10SM CLR 28/10 A2978 2300 32 4300 340/16G24 RMK AO2 T02780100
03812KAVL AVL20160607112512806/07/16 11:25:31  5-MIN KAVL 071625Z 31011G27KT 10SM CLR 28/11 A2978 2300 32 4400 310/11G27 RMK AO2 PK WND 33027/1622 T02830106
03812KAVL AVL20160607113013106/07/16 11:30:31  5-MIN KAVL 071630Z 33011G27KT 10SM FEW070 28/11 A2978 2300 32 4400 340/11G27 RMK AO2 PK WND 33027/1622 T02830106
03812KAVL AVL20160607113513106/07/16 11:35:31  5-MIN KAVL 071635Z 34017G29KT 10SM FEW070 28/10 A2978 2300 31 4400 340/17G29 RMK AO2 PK WND 34029/1632 T02830100
03812KAVL AVL20160607114013106/07/16 11:40:31  5-MIN KAVL 071640Z 34018G29KT 10SM FEW070 28/10 A2978 2290 31 4400 350/18G29 RMK AO2 PK WND 34029/1632 T02830100
03812KAVL AVL20160607114513106/07/16 11:45:31  5-MIN KAVL 071645Z 32023G31KT 10SM FEW070 28/09 A2979 2290 30 4400 330/23G31 RMK AO2 PK WND 32031/1643 T02830094
03812KAVL AVL20160607115013806/07/16 11:50:31  5-MIN KAVL 071650Z 32020G32KT 10SM FEW070 29/08 A2978 2300 27 4400 330/20G32 RMK AO2 PK WND 31032/1647 SLP055 T02890083
03812KAVL AVL20160607115511306/07/16 11:55:31  5-MIN KAVL 071655Z 30016G32KT 10SM FEW070 28/09 A2978 2300 30 4400 310/16G32 RMK AO2 T02830094
03812KAVL AVL20160607120011306/07/16 12:00:31  5-MIN KAVL 071700Z 32017G25KT 10SM FEW075 29/09 A2978 2300 29 4400 330/17G25 RMK AO2 T02890094
03812KAVL AVL20160607120511006/07/16 12:05:31  5-MIN KAVL 071705Z 33014G25KT 10SM CLR 29/09 A2978 2300 29 4400 330/14G25 RMK AO2 T02890094
03812KAVL AVL20160607121011006/07/16 12:10:31  5-MIN KAVL 071710Z 33014G21KT 10SM CLR 29/09 A2978 2300 29 4400 340/14G21 RMK AO2 T02890094
03812KAVL AVL20160607121512806/07/16 12:15:31  5-MIN KAVL 071715Z 32019G27KT 10SM CLR 29/09 A2978 2300 29 4400 330/19G27 RMK AO2 PK WND 33027/1713 T02890094
03812KAVL AVL20160607122012806/07/16 12:20:31  5-MIN KAVL 071720Z 33025G33KT 10SM CLR 29/09 A2978 2300 29 4400 330/25G33 RMK AO2 PK WND 33033/1717 T02890094
03812KAVL AVL20160607122512806/07/16 12:25:31  5-MIN KAVL 071725Z 33016G33KT 10SM CLR 29/09 A2978 2290 28 4400 330/16G33 RMK AO2 PK WND 33033/1717 T02890089
03812KAVL AVL20160607123012806/07/16 12:30:31  5-MIN KAVL 071730Z 31018G32KT 10SM CLR 29/09 A2979 2290 29 4400 320/18G32 RMK AO2 PK WND 33033/1717 T02890094
03812KAVL AVL20160607123512806/07/16 12:35:31  5-MIN KAVL 071735Z 32018G27KT 10SM CLR 28/10 A2979 2290 31 4400 330/18G27 RMK AO2 PK WND 33033/1717 T02830100
03812KAVL AVL20160607124013106/07/16 12:40:31  5-MIN KAVL 071740Z 33017G26KT 10SM FEW070 28/09 A2978 2290 31 4300 330/17G26 RMK AO2 PK WND 33033/1717 T02780094
03812KAVL AVL20160607124513106/07/16 12:45:31  5-MIN KAVL 071745Z 30013G26KT 10SM FEW070 28/10 A2978 2300 31 4400 310/13G26 RMK AO2 PK WND 33033/1717 T02830100
03812KAVL AVL20160607125015606/07/16 12:50:31  5-MIN KAVL 071750Z 30014G25KT 10SM FEW065 29/10 A2978 2300 30 4400 300/14G25 RMK AO2 PK WND 33033/1717 SLP055 T02890100 10294 20183 58008
03812KAVL AVL20160607125511306/07/16 12:55:31  5-MIN KAVL 071755Z 31010G24KT 10SM FEW070 29/10 A2978 2300 30 4400 320/10G24 RMK AO2 T02890100
03812KAVL AVL20160607130013106/07/16 13:00:31  5-MIN KAVL 071800Z 31017G27KT 10SM FEW070 29/09 A2978 2300 29 4400 320/17G27 RMK AO2 PK WND 32027/1757 T02890094
03812KAVL AVL20160607130513106/07/16 13:05:31  5-MIN KAVL 071805Z 32019G27KT 10SM FEW070 29/09 A2978 2300 28 4400 330/19G27 RMK AO2 PK WND 32027/1757 T02890089
03812KAVL AVL20160607131013106/07/16 13:10:31  5-MIN KAVL 071810Z 33021G29KT 10SM FEW070 29/08 A2978 2300 27 4400 340/21G29 RMK AO2 PK WND 34029/1810 T02890083
03812KAVL AVL20160607131513106/07/16 13:15:31  5-MIN KAVL 071815Z 32016G31KT 10SM FEW070 29/08 A2978 2300 27 4400 330/16G31 RMK AO2 PK WND 33031/1811 T02890083
03812KAVL AVL20160607132013106/07/16 13:20:31  5-MIN KAVL 071820Z 32014G31KT 10SM FEW070 29/08 A2978 2300 27 4400 320/14G31 RMK AO2 PK WND 33031/1811 T02890083
03812KAVL AVL20160607132512806/07/16 13:25:31  5-MIN KAVL 071825Z 33019G28KT 10SM CLR 29/09 A2978 2300 28 4400 330/19G28 RMK AO2 PK WND 33031/1811 T02890089
03812KAVL AVL20160607133012806/07/16 13:30:31  5-MIN KAVL 071830Z 34016G27KT 10SM CLR 29/09 A2978 2300 28 4400 340/16G27 RMK AO2 PK WND 33031/1811 T02890089
03812KAVL AVL20160607133512806/07/16 13:35:31  5-MIN KAVL 071835Z 33019G27KT 10SM CLR 28/08 A2978 2300 28 4400 340/19G27 RMK AO2 PK WND 33031/1811 T02830083
03812KAVL AVL20160607134012806/07/16 13:40:31  5-MIN KAVL 071840Z 33019G27KT 10SM CLR 29/09 A2978 2300 28 4400 330/19G27 RMK AO2 PK WND 33031/1811 T02890089
03812KAVL AVL20160607134512806/07/16 13:45:31  5-MIN KAVL 071845Z 31014G25KT 10SM CLR 28/09 A2978 2300 29 4400 320/14G25 RMK AO2 PK WND 33031/1811 T02830089
03812KAVL AVL20160607135013506/07/16 13:50:31  5-MIN KAVL 071850Z 30020G26KT 10SM CLR 29/08 A2978 2300 27 4400 300/20G26 RMK AO2 PK WND 33031/1811 SLP053 T02890083
03812KAVL AVL20160607135511006/07/16 13:55:31  5-MIN KAVL 071855Z 32019G27KT 10SM CLR 28/08 A2978 2300 28 4400 330/19G27 RMK AO2 T02830083
03812KAVL AVL20160607140011006/07/16 14:00:31  5-MIN KAVL 071900Z 31018G27KT 10SM CLR 28/08 A2978 2300 28 4400 320/18G27 RMK AO2 T02830083
03812KAVL AVL20160607140511006/07/16 14:05:31  5-MIN KAVL 071905Z 32010G25KT 10SM CLR 29/09 A2978 2300 28 4400 320/10G25 RMK AO2 T02890089
03812KAVL AVL20160607141011506/07/16 14:10:31  5-MIN KAVL 071910Z AUTO 34014G24KT 10SM CLR 29/09 A2977 2310 29 4400 350/14G24 RMK AO2 T02890094
03812KAVL AVL20160607141511506/07/16 14:15:31  5-MIN KAVL 071915Z AUTO 32010G24KT 10SM CLR 28/09 A2977 2300 30 4400 330/10G24 RMK AO2 T02830094
03812KAVL AVL20160607142011306/07/16 14:20:31  5-MIN KAVL 071920Z 35015G21KT 10SM FEW080 29/10 A2977 2300 30 4400 350/15G21 RMK AO2 T02890100
03812KAVL AVL20160607142511306/07/16 14:25:31  5-MIN KAVL 071925Z 33015G21KT 10SM FEW080 28/10 A2978 2300 31 4400 340/15G21 RMK AO2 T02830100
03812KAVL AVL20160607143011306/07/16 14:30:31  5-MIN KAVL 071930Z 33012G24KT 10SM FEW080 28/09 A2978 2300 30 4400 340/12G24 RMK AO2 T02830094
03812KAVL AVL20160607143511306/07/16 14:35:31  5-MIN KAVL 071935Z 34014G24KT 10SM FEW080 28/11 A2978 2300 32 4400 340/14G24 RMK AO2 T02830106
03812KAVL AVL20160607144013106/07/16 14:40:31  5-MIN KAVL 071940Z 33019G26KT 10SM FEW075 29/11 A2977 2300 31 4400 340/19G26 RMK AO2 PK WND 33026/1940 T02890106
03812KAVL AVL20160607144513106/07/16 14:45:31  5-MIN KAVL 071945Z 35013G26KT 10SM FEW070 28/11 A2977 2300 32 4400 350/13G26 RMK AO2 PK WND 33026/1940 T02830106
03812KAVL AVL20160607145013806/07/16 14:50:31  5-MIN KAVL 071950Z 34015G26KT 10SM SCT065 28/10 A2978 2300 32 4300 350/15G26 RMK AO2 PK WND 33026/1940 SLP055 T02780100
03812KAVL AVL20160607145511306/07/16 14:55:31  5-MIN KAVL 071955Z 32011G21KT 10SM FEW065 28/11 A2978 2300 32 4400 330/11G21 RMK AO2 T02830106
03812KAVL AVL20160607150011306/07/16 15:00:31  5-MIN KAVL 072000Z 34017G22KT 10SM FEW065 28/09 A2978 2300 30 4400 350/17G22 RMK AO2 T02830094
03812KAVL AVL20160607150511306/07/16 15:05:31  5-MIN KAVL 072005Z 34018G25KT 10SM FEW065 28/09 A2978 2300 29 4400 350/18G25 RMK AO2 T02830089
03812KAVL AVL20160607151011306/07/16 15:10:31  5-MIN KAVL 072010Z 32014G25KT 10SM FEW065 28/10 A2978 2300 31 4400 330/14G25 RMK AO2 T02830100
03812KAVL AVL20160607151511006/07/16 15:15:31  5-MIN KAVL 072015Z 33013G23KT 10SM CLR 29/10 A2978 2300 30 4400 330/13G23 RMK AO2 T02890100
03812KAVL AVL20160607152011006/07/16 15:20:31  5-MIN KAVL 072020Z 34014G24KT 10SM CLR 28/09 A2978 2300 29 4400 350/14G24 RMK AO2 T02830089
03812KAVL AVL20160607152511006/07/16 15:25:31  5-MIN KAVL 072025Z 34013G24KT 10SM CLR 28/09 A2978 2300 30 4400 350/13G24 RMK AO2 T02830094
03812KAVL AVL20160607153011006/07/16 15:30:31  5-MIN KAVL 072030Z 33015G21KT 10SM CLR 28/09 A2978 2300 30 4400 340/15G21 RMK AO2 T02830094
03812KAVL AVL20160607153511006/07/16 15:35:31  5-MIN KAVL 072035Z 32013G20KT 10SM CLR 28/09 A2978 2300 30 4400 330/13G20 RMK AO2 T02830094
03812KAVL AVL20160607154011006/07/16 15:40:31  5-MIN KAVL 072040Z 33011G19KT 10SM CLR 28/09 A2978 2300 30 4400 330/11G19 RMK AO2 T02830094
03812KAVL AVL20160607154511006/07/16 15:45:31  5-MIN KAVL 072045Z 34014G20KT 10SM CLR 28/09 A2978 2300 30 4400 340/14G20 RMK AO2 T02830094
03812KAVL AVL20160607155012306/07/16 15:50:31  5-MIN KAVL 072050Z 33013G20KT 10SM CLR 28/09 A2978 2300 29 4400 340/13G20 RMK AO2 SLP057 T02830089 55000
03812KAVL AVL20160607155511006/07/16 15:55:31  5-MIN KAVL 072055Z 35014G20KT 10SM CLR 28/09 A2978 2300 29 4400 350/14G20 RMK AO2 T02830089
03812KAVL AVL20160607160011006/07/16 16:00:31  5-MIN KAVL 072100Z 34014G21KT 10SM CLR 28/09 A2978 2300 29 4400 340/14G21 RMK AO2 T02830089
03812KAVL AVL20160607160511306/07/16 16:05:31  5-MIN KAVL 072105Z 34020G25KT 10SM FEW070 28/09 A2978 2290 30 4400 340/20G25 RMK AO2 T02830094
03812KAVL AVL20160607161011006/07/16 16:10:31  5-MIN KAVL 072110Z 32016G25KT 10SM CLR 28/09 A2978 2290 29 4400 330/16G25 RMK AO2 T02830089
03812KAVL AVL20160607161511006/07/16 16:15:31  5-MIN KAVL 072115Z 31013G22KT 10SM CLR 28/08 A2978 2290 29 4300 320/13G22 RMK AO2 T02780083
03812KAVL AVL20160607162011006/07/16 16:20:31  5-MIN KAVL 072120Z 31010G22KT 10SM CLR 28/08 A2979 2290 29 4300 320/10G22 RMK AO2 T02780083
03812KAVL AVL20160607162511006/07/16 16:25:31  5-MIN KAVL 072125Z 34011G22KT 10SM CLR 28/09 A2979 2290 29 4400 350/11G22 RMK AO2 T02830089
03812KAVL AVL20160607163011006/07/16 16:30:31  5-MIN KAVL 072130Z 33017G23KT 10SM CLR 28/08 A2979 2290 29 4300 340/17G23 RMK AO2 T02780083
03812KAVL AVL20160607163512806/07/16 16:35:31  5-MIN KAVL 072135Z 33016G26KT 10SM CLR 28/08 A2979 2290 29 4300 330/16G26 RMK AO2 PK WND 33026/2133 T02780083
03812KAVL AVL20160607164012806/07/16 16:40:31  5-MIN KAVL 072140Z 33010G26KT 10SM CLR 28/09 A2979 2290 30 4300 330/10G26 RMK AO2 PK WND 33026/2133 T02780089
03812KAVL AVL20160607164512806/07/16 16:45:31  5-MIN KAVL 072145Z 33013G20KT 10SM CLR 28/09 A2979 2290 30 4300 330/13G20 RMK AO2 PK WND 33026/2133 T02780089
03812KAVL AVL20160607165013506/07/16 16:50:31  5-MIN KAVL 072150Z 33015G23KT 10SM CLR 28/09 A2979 2290 30 4300 340/15G23 RMK AO2 PK WND 33026/2133 SLP061 T02780089
03812KAVL AVL20160607165511006/07/16 16:55:31  5-MIN KAVL 072155Z 33012G23KT 10SM CLR 28/08 A2979 2290 29 4300 340/12G23 RMK AO2 T02780083
03812KAVL AVL20160607170011006/07/16 17:00:31  5-MIN KAVL 072200Z 34014G23KT 10SM CLR 28/08 A2979 2290 29 4300 350/14G23 RMK AO2 T02780083
03812KAVL AVL20160607170511006/07/16 17:05:31  5-MIN KAVL 072205Z 32013G23KT 10SM CLR 27/08 A2979 2290 30 4200 330/13G23 RMK AO2 T02720083
03812KAVL AVL20160607171011006/07/16 17:10:31  5-MIN KAVL 072210Z 31012G21KT 10SM CLR 27/09 A2979 2290 31 4200 320/12G21 RMK AO2 T02720089
03812KAVL AVL20160607171511006/07/16 17:15:31  5-MIN KAVL 072215Z 32011G19KT 10SM CLR 27/09 A2979 2290 31 4200 320/11G19 RMK AO2 T02720089
03812KAVL AVL20160607172010406/07/16 17:20:31  5-MIN KAVL 072220Z 32012KT 10SM CLR 27/09 A2979 2290 31 4200 320/12 RMK AO2 T02720089
03812KAVL AVL20160607172511006/07/16 17:25:31  5-MIN KAVL 072225Z 31009G19KT 10SM CLR 27/08 A2979 2290 30 4200 320/09G19 RMK AO2 T02720083
03812KAVL AVL20160607173011006/07/16 17:30:31  5-MIN KAVL 072230Z 30010G19KT 10SM CLR 27/08 A2979 2290 30 4200 310/10G19 RMK AO2 T02720083
03812KAVL AVL20160607173510406/07/16 17:35:31  5-MIN KAVL 072235Z 32012KT 10SM CLR 27/08 A2979 2290 30 4200 330/12 RMK AO2 T02720083
03812KAVL AVL20160607174011006/07/16 17:40:31  5-MIN KAVL 072240Z 32011G20KT 10SM CLR 27/08 A2979 2290 30 4200 330/11G20 RMK AO2 T02720083
03812KAVL AVL20160607174511006/07/16 17:45:31  5-MIN KAVL 072245Z 33012G20KT 10SM CLR 27/08 A2979 2290 31 4200 340/12G20 RMK AO2 T02670083
03812KAVL AVL20160607175011106/07/16 17:50:31  5-MIN KAVL 072250Z 33014KT 10SM CLR 27/08 A2979 2290 31 4200 330/14 RMK AO2 SLP062 T02670083
03812KAVL AVL20160607175510406/07/16 17:55:31  5-MIN KAVL 072255Z 32010KT 10SM CLR 27/08 A2979 2290 31 4200 330/10 RMK AO2 T02670083
03812KAVL AVL20160607180010406/07/16 18:00:31  5-MIN KAVL 072300Z 32009KT 10SM CLR 27/08 A2979 2290 31 4200 330/09 RMK AO2 T02670083
03812KAVL AVL20160607180510406/07/16 18:05:31  5-MIN KAVL 072305Z 32013KT 10SM CLR 27/08 A2979 2280 29 4200 320/13 RMK AO2 T02670078
03812KAVL AVL20160607181010406/07/16 18:10:31  5-MIN KAVL 072310Z 34012KT 10SM CLR 26/08 A2980 2280 31 4100 350/12 RMK AO2 T02610078
03812KAVL AVL20160607181510406/07/16 18:15:31  5-MIN KAVL 072315Z 32012KT 10SM CLR 26/08 A2980 2280 31 4100 330/12 RMK AO2 T02610078
03812KAVL AVL20160607182010406/07/16 18:20:31  5-MIN KAVL 072320Z 32011KT 10SM CLR 26/08 A2980 2280 31 4100 330/11 RMK AO2 T02610078
03812KAVL AVL20160607182510406/07/16 18:25:31  5-MIN KAVL 072325Z 33010KT 10SM CLR 26/07 A2980 2280 29 4100 340/10 RMK AO2 T02610072
03812KAVL AVL20160607183010406/07/16 18:30:31  5-MIN KAVL 072330Z 32011KT 10SM CLR 26/08 A2980 2280 32 4000 330/11 RMK AO2 T02560078
03812KAVL AVL20160607183510406/07/16 18:35:31  5-MIN KAVL 072335Z 31012KT 10SM CLR 26/07 A2980 2280 30 4000 320/12 RMK AO2 T02560072
03812KAVL AVL20160607184011006/07/16 18:40:31  5-MIN KAVL 072340Z 33011G18KT 10SM CLR 26/07 A2981 2270 29 4000 340/11G18 RMK AO2 T02560067
03812KAVL AVL20160607184511006/07/16 18:45:31  5-MIN KAVL 072345Z 31011G18KT 10SM CLR 25/07 A2981 2270 31 4000 310/11G18 RMK AO2 T02500072
03812KAVL AVL20160607185013506/07/16 18:50:31  5-MIN KAVL 072350Z 32013G17KT 10SM CLR 25/07 A2981 2270 31 4000 330/13G17 RMK AO2 SLP069 T02500072 10289 20250 55000
03812KAVL AVL20160607185511006/07/16 18:55:31  5-MIN KAVL 072355Z 33012G17KT 10SM CLR 25/07 A2981 2270 31 4000 330/12G17 RMK AO2 T02500072
03812KAVL AVL20160607190010406/07/16 19:00:31  5-MIN KAVL 080000Z 33012KT 10SM CLR 25/07 A2981 2270 31 4000 330/12 RMK AO2 T02500072
03812KAVL AVL20160607190510406/07/16 19:05:31  5-MIN KAVL 080005Z 32009KT 10SM CLR 24/07 A2982 2260 33 3900 330/09 RMK AO2 T02440072
03812KAVL AVL20160607191010406/07/16 19:10:31  5-MIN KAVL 080010Z 32011KT 10SM CLR 24/07 A2982 2260 34 3800 330/11 RMK AO2 T02390072
03812KAVL AVL20160607191510406/07/16 19:15:31  5-MIN KAVL 080015Z 32009KT 10SM CLR 24/07 A2982 2260 34 3800 320/09 RMK AO2 T02390072
03812KAVL AVL20160607192010406/07/16 19:20:31  5-MIN KAVL 080020Z 32008KT 10SM CLR 24/07 A2982 2260 34 3800 320/08 RMK AO2 T02390072
03812KAVL AVL20160607192510406/07/16 19:25:31  5-MIN KAVL 080025Z 33010KT 10SM CLR 23/07 A2982 2260 35 3800 340/10 RMK AO2 T02330072
03812KAVL AVL20160607193010406/07/16 19:30:31  5-MIN KAVL 080030Z 32011KT 10SM CLR 23/07 A2982 2260 35 3800 330/11 RMK AO2 T02330072
03812KAVL AVL20160607193510406/07/16 19:35:31  5-MIN KAVL 080035Z 32010KT 10SM CLR 23/07 A2982 2260 35 3800 320/10 RMK AO2 T02330072
03812KAVL AVL20160607194010406/07/16 19:40:31  5-MIN KAVL 080040Z 32010KT 10SM CLR 23/07 A2982 2260 36 3700 330/10 RMK AO2 T02280072
03812KAVL AVL20160607194510406/07/16 19:45:31  5-MIN KAVL 080045Z 32010KT 10SM CLR 23/07 A2983 2260 36 3700 330/10 RMK AO2 T02280072
03812KAVL AVL20160607195011106/07/16 19:50:31  5-MIN KAVL 080050Z 32009KT 10SM CLR 23/07 A2983 2250 36 3700 330/09 RMK AO2 SLP074 T02280072
03812KAVL AVL20160607195510406/07/16 19:55:31  5-MIN KAVL 080055Z 33010KT 10SM CLR 23/07 A2983 2250 36 3700 330/10 RMK AO2 T02280072
03812KAVL AVL20160607200010406/07/16 20:00:31  5-MIN KAVL 080100Z 34009KT 10SM CLR 23/07 A2983 2250 36 3700 340/09 RMK AO2 T02280072
03812KAVL AVL20160607200510406/07/16 20:05:31  5-MIN KAVL 080105Z 34010KT 10SM CLR 22/08 A2983 2250 39 3600 350/10 RMK AO2 T02220078
03812KAVL AVL20160607201010406/07/16 20:10:31  5-MIN KAVL 080110Z 33011KT 10SM CLR 22/08 A2984 2250 42 3600 340/11 RMK AO2 T02170083
03812KAVL AVL20160607201510406/07/16 20:15:31  5-MIN KAVL 080115Z 34009KT 10SM CLR 22/09 A2984 2240 43 3600 340/09 RMK AO2 T02170089
03812KAVL AVL20160607202010406/07/16 20:20:31  5-MIN KAVL 080120Z 34008KT 10SM CLR 22/09 A2984 2240 43 3600 340/08 RMK AO2 T02170089
03812KAVL AVL20160607202510406/07/16 20:25:31  5-MIN KAVL 080125Z 33008KT 10SM CLR 22/09 A2984 2240 43 3600 340/08 RMK AO2 T02170089
03812KAVL AVL20160607203010406/07/16 20:30:31  5-MIN KAVL 080130Z 34007KT 10SM CLR 22/09 A2985 2240 43 3600 340/07 RMK AO2 T02170089
03812KAVL AVL20160607203510406/07/16 20:35:31  5-MIN KAVL 080135Z 34007KT 10SM CLR 21/09 A2985 2230 45 3500 350/07 RMK AO2 T02110089
03812KAVL AVL20160607204010406/07/16 20:40:31  5-MIN KAVL 080140Z 33008KT 10SM CLR 21/09 A2985 2230 45 3500 340/08 RMK AO2 T02110089
03812KAVL AVL20160616054510706/16/16 05:45:31  5-MIN KAVL 161045Z 36007KT 10SM FEW120 21/19 A2994 2150 87 3400 360/07 RMK AO2 T02110189
03812KAVL AVL20160616055012106/16/16 05:50:31  5-MIN KAVL 161050Z 36007KT 10SM FEW012 FEW120 21/19 A2994 2150 87 3400 360/07 RMK AO2 SLP108 T02110189
03812KAVL AVL20160616055511406/16/16 05:55:31  5-MIN KAVL 161055Z 34008KT 10SM FEW012 FEW120 21/19 A2994 2150 87 3400 350/08 RMK AO2 T02110189
03812KAVL AVL20160616060011406/16/16 06:00:31  5-MIN KAVL 161100Z 36006KT 10SM FEW012 FEW120 21/19 A2994 2150 87 3400 360/06 RMK AO2 T02110189
03812KAVL AVL20160616060511406/16/16 06:05:31  5-MIN KAVL 161105Z 34007KT 10SM FEW012 SCT120 21/19 A2994 2150 87 3400 350/07 RMK AO2 T02110189
03812KAVL AVL20160616061011406/16/16 06:10:31  5-MIN KAVL 161110Z 35006KT 10SM FEW012 SCT120 21/19 A2994 2140 87 3400 360/06 RMK AO2 T02110189
03812KAVL AVL20160616061511406/16/16 06:15:31  5-MIN KAVL 161115Z 34007KT 10SM FEW012 BKN120 22/19 A2995 2140 84 3400 340/07 RMK AO2 T02170189
03812KAVL AVL20160616062010706/16/16 06:20:31  5-MIN KAVL 161120Z 36005KT 10SM SCT120 22/19 A2995 2140 84 3400 010/05 RMK AO2 T02170189
03812KAVL AVL20160616062511406/16/16 06:25:31  5-MIN KAVL 161125Z 01005KT 10SM FEW008 SCT120 22/19 A2995 2140 84 3400 010/05 RMK AO2 T02170189
03812KAVL AVL20160616063011406/16/16 06:30:31  5-MIN KAVL 161130Z 01005KT 10SM FEW008 SCT120 22/19 A2995 2140 84 3400 020/05 RMK AO2 T02170189
03812KAVL AVL20160616063511406/16/16 06:35:31  5-MIN KAVL 161135Z 35005KT 10SM FEW008 SCT120 22/19 A2995 2140 84 3400 360/05 RMK AO2 T02170189
03812KAVL AVL20160616064011406/16/16 06:40:31  5-MIN KAVL 161140Z 36006KT 10SM FEW008 FEW120 22/19 A2995 2140 87 3400 010/06 RMK AO2 T02170194
03812KAVL AVL20160616064510706/16/16 06:45:31  5-MIN KAVL 161145Z 36009KT 10SM FEW008 22/19 A2996 2130 87 3400 010/09 RMK AO2 T02170194
03812KAVL AVL20160616065013806/16/16 06:50:31  5-MIN KAVL 161150Z 36008KT 10SM FEW008 22/19 A2996 2130 87 3400 010/08 RMK AO2 SLP113 70101 T02170194 10217 20200 56003
03812KAVL AVL20160616065510406/16/16 06:55:31  5-MIN KAVL 161155Z 36009KT 10SM CLR 22/19 A2996 2130 87 3400 360/09 RMK AO2 T02170194
03812KAVL AVL20160616070010406/16/16 07:00:31  5-MIN KAVL 161200Z 36008KT 10SM CLR 22/19 A2996 2130 87 3400 360/08 RMK AO2 T02170194
03812KAVL AVL20160616070510406/16/16 07:05:31  5-MIN KAVL 161205Z 36009KT 10SM CLR 22/19 A2996 2130 84 3500 360/09 RMK AO2 T02220194
03812KAVL AVL20160616071010406/16/16 07:10:31  5-MIN KAVL 161210Z 35010KT 10SM CLR 22/19 A2996 2130 84 3500 360/10 RMK AO2 T02220194
03812KAVL AVL20160616071510406/16/16 07:15:31  5-MIN KAVL 161215Z 34010KT 10SM CLR 22/19 A2996 2130 84 3500 350/10 RMK AO2 T02220194
03812KAVL AVL20160616072010706/16/16 07:20:31  5-MIN KAVL 161220Z 34010KT 10SM FEW009 22/19 A2996 2130 84 3500 340/10 RMK AO2 T02220194
03812KAVL AVL20160616072510406/16/16 07:25:31  5-MIN KAVL 161225Z 34011KT 10SM CLR 22/19 A2996 2130 84 3500 340/11 RMK AO2 T02220194
03812KAVL AVL20160616073010406/16/16 07:30:31  5-MIN KAVL 161230Z 34011KT 10SM CLR 23/19 A2996 2130 81 3600 350/11 RMK AO2 T02280194
03812KAVL AVL20160616073510406/16/16 07:35:31  5-MIN KAVL 161235Z 34010KT 10SM CLR 23/19 A2996 2130 81 3600 350/10 RMK AO2 T02280194
03812KAVL AVL20160616074010406/16/16 07:40:31  5-MIN KAVL 161240Z 35009KT 10SM CLR 23/19 A2996 2130 81 3600 350/09 RMK AO2 T02280194
03812KAVL AVL20160616074510406/16/16 07:45:31  5-MIN KAVL 161245Z 35009KT 10SM CLR 23/19 A2996 2130 78 3600 360/09 RMK AO2 T02330194
03812KAVL AVL20160616075011106/16/16 07:50:31  5-MIN KAVL 161250Z 36009KT 10SM CLR 23/19 A2996 2130 78 3600 360/09 RMK AO2 SLP116 T02330194
03812KAVL AVL20160616075510406/16/16 07:55:31  5-MIN KAVL 161255Z 35011KT 10SM CLR 24/19 A2996 2130 76 3700 350/11 RMK AO2 T02390194
03812KAVL AVL20160616080010406/16/16 08:00:31  5-MIN KAVL 161300Z 36011KT 10SM CLR 24/19 A2996 2130 73 3700 360/11 RMK AO2 T02390189
03812KAVL AVL20160616080510406/16/16 08:05:31  5-MIN KAVL 161305Z 36011KT 10SM CLR 24/19 A2996 2130 71 3700 360/11 RMK AO2 T02440189
03812KAVL AVL20160616081010406/16/16 08:10:31  5-MIN KAVL 161310Z 36010KT 10SM CLR 24/19 A2995 2140 71 3700 360/10 RMK AO2 T02440189
03812KAVL AVL20160616081510406/16/16 08:15:31  5-MIN KAVL 161315Z 35012KT 10SM CLR 24/19 A2995 2140 71 3700 360/12 RMK AO2 T02440189
03812KAVL AVL20160616082011006/16/16 08:20:31  5-MIN KAVL 161320Z 35014G20KT 10SM CLR 25/19 A2995 2140 68 3800 360/14G20 RMK AO2 T02500189
03812KAVL AVL20160616082510406/16/16 08:25:31  5-MIN KAVL 161325Z 34013KT 10SM CLR 25/18 A2995 2140 66 3800 350/13 RMK AO2 T02500183
03812KAVL AVL20160616083010406/16/16 08:30:31  5-MIN KAVL 161330Z 36013KT 10SM CLR 25/18 A2995 2140 66 3800 360/13 RMK AO2 T02500183
03812KAVL AVL20160616083510406/16/16 08:35:31  5-MIN KAVL 161335Z 35012KT 10SM CLR 25/18 A2995 2140 66 3800 360/12 RMK AO2 T02500183
03812KAVL AVL20160616084010406/16/16 08:40:31  5-MIN KAVL 161340Z 35012KT 10SM CLR 26/18 A2995 2140 64 3900 350/12 RMK AO2 T02560183
03812KAVL AVL20160616084511006/16/16 08:45:31  5-MIN KAVL 161345Z 34016G21KT 10SM CLR 26/18 A2995 2140 61 3900 350/16G21 RMK AO2 T02560178
03812KAVL AVL20160616085011706/16/16 08:50:31  5-MIN KAVL 161350Z 34015G21KT 10SM CLR 26/18 A2995 2140 61 3900 350/15G21 RMK AO2 SLP113 T02560178
03812KAVL AVL20160616085510406/16/16 08:55:31  5-MIN KAVL 161355Z 34015KT 10SM CLR 26/18 A2995 2140 61 3900 340/15 RMK AO2 T02560178
03812KAVL AVL20160616090010406/16/16 09:00:31  5-MIN KAVL 161400Z 35015KT 10SM CLR 26/18 A2995 2140 59 3900 350/15 RMK AO2 T02610178
03812KAVL AVL20160616090511006/16/16 09:05:31  5-MIN KAVL 161405Z 35015G21KT 10SM CLR 26/18 A2995 2140 59 3900 350/15G21 RMK AO2 T02610178
03812KAVL AVL20160616091010406/16/16 09:10:31  5-MIN KAVL 161410Z 35015KT 10SM CLR 26/18 A2995 2140 59 3900 360/15 RMK AO2 T02610178
03812KAVL AVL20160616091511006/16/16 09:15:31  5-MIN KAVL 161415Z 35015G22KT 10SM CLR 26/17 A2995 2140 57 3900 350/15G22 RMK AO2 T02610172
03812KAVL AVL20160616092011006/16/16 09:20:31  5-MIN KAVL 161420Z 35013G22KT 10SM CLR 27/17 A2995 2140 55 4000 360/13G22 RMK AO2 T02670172
03812KAVL AVL20160616092511006/16/16 09:25:31  5-MIN KAVL 161425Z 34017G21KT 10SM CLR 26/17 A2995 2140 57 3900 350/17G21 RMK AO2 T02610172
03812KAVL AVL20160616093011006/16/16 09:30:31  5-MIN KAVL 161430Z 36014G21KT 10SM CLR 26/17 A2995 2140 55 3900 010/14G21 RMK AO2 T02610167
03812KAVL AVL20160616093510406/16/16 09:35:31  5-MIN KAVL 161435Z 35016KT 10SM CLR 27/17 A2996 2130 53 4000 350/16 RMK AO2 T02670167
03812KAVL AVL20160616094011006/16/16 09:40:31  5-MIN KAVL 161440Z 36012G20KT 10SM CLR 27/17 A2996 2130 53 4000 360/12G20 RMK AO2 T02670167
03812KAVL AVL20160616094510406/16/16 09:45:31  5-MIN KAVL 161445Z 35014KT 10SM CLR 27/17 A2996 2130 52 4100 360/14 RMK AO2 T02720167
03812KAVL AVL20160616095012306/16/16 09:50:31  5-MIN KAVL 161450Z 36013G20KT 10SM CLR 27/17 A2996 2130 53 4000 360/13G20 RMK AO2 SLP114 T02670167 53011
03812KAVL AVL20160616095511006/16/16 09:55:31  5-MIN KAVL 161455Z 35014G20KT 10SM CLR 27/17 A2996 2130 52 4100 360/14G20 RMK AO2 T02720167
03812KAVL AVL20160616100010406/16/16 10:00:31  5-MIN KAVL 161500Z 36015KT 10SM CLR 27/16 A2996 2130 50 4000 360/15 RMK AO2 T02720161
03812KAVL AVL20160616100510406/16/16 10:05:31  5-MIN KAVL 161505Z 35013KT 10SM CLR 27/16 A2996 2130 48 4100 350/13 RMK AO2 T02720156
03812KAVL AVL20160616101010406/16/16 10:10:31  5-MIN KAVL 161510Z 36013KT 10SM CLR 27/16 A2996 2130 48 4000 360/13 RMK AO2 T02720156
03812KAVL AVL20160616101511006/16/16 10:15:31  5-MIN KAVL 161515Z 34010G19KT 10SM CLR 27/16 A2996 2140 50 4100 350/10G19 RMK AO2 T02720161
03812KAVL AVL20160616102010406/16/16 10:20:31  5-MIN KAVL 161520Z 36009KT 10SM CLR 27/16 A2995 2140 48 4100 360/09 RMK AO2 T02720156
03812KAVL AVL20160616102510406/16/16 10:25:31  5-MIN KAVL 161525Z 34013KT 10SM CLR 28/16 A2995 2140 46 4100 340/13 RMK AO2 T02780156
03812KAVL AVL20160616103010406/16/16 10:30:31  5-MIN KAVL 161530Z 35012KT 10SM CLR 28/16 A2995 2140 46 4100 360/12 RMK AO2 T02780156
03812KAVL AVL20160616103510406/16/16 10:35:31  5-MIN KAVL 161535Z 36010KT 10SM CLR 28/16 A2995 2140 46 4100 010/10 RMK AO2 T02780156
03812KAVL AVL20160616104012606/16/16 10:40:31  5-MIN KAVL 161540Z 36009G16KT 340V040 10SM CLR 28/16 A2995 2140 46 4100 010/09G16 350V050 RMK AO2 T02780156
03812KAVL AVL20160616104511006/16/16 10:45:31  5-MIN KAVL 161545Z 01010G18KT 10SM CLR 28/16 A2995 2140 45 4200 020/10G18 RMK AO2 T02830156
03812KAVL AVL20160616105011706/16/16 10:50:31  5-MIN KAVL 161550Z 01009G18KT 10SM CLR 28/16 A2995 2140 46 4100 010/09G18 RMK AO2 SLP112 T02780156
03812KAVL AVL20160616105511006/16/16 10:55:31  5-MIN KAVL 161555Z 35011G18KT 10SM CLR 28/16 A2995 2140 45 4200 360/11G18 RMK AO2 T02830156
03812KAVL AVL20160616110011006/16/16 11:00:31  5-MIN KAVL 161600Z 35015G19KT 10SM CLR 29/16 A2995 2140 44 4200 350/15G19 RMK AO2 T02890156
03812KAVL AVL20160616110511006/16/16 11:05:31  5-MIN KAVL 161605Z 35013G20KT 10SM CLR 29/16 A2995 2140 45 4200 350/13G20 RMK AO2 T02890161
03812KAVL AVL20160616111011006/16/16 11:10:31  5-MIN KAVL 161610Z 35014G21KT 10SM CLR 29/16 A2995 2140 45 4200 360/14G21 RMK AO2 T02890161
03812KAVL AVL20160616111511006/16/16 11:15:31  5-MIN KAVL 161615Z 35011G21KT 10SM CLR 29/16 A2995 2140 45 4200 350/11G21 RMK AO2 T02890161
03812KAVL AVL20160616112010406/16/16 11:20:31  5-MIN KAVL 161620Z 01011KT 10SM CLR 29/16 A2995 2140 45 4200 020/11 RMK AO2 T02890161
03812KAVL AVL20160616112511006/16/16 11:25:31  5-MIN KAVL 161625Z 35016G23KT 10SM CLR 29/16 A2995 2140 45 4200 360/16G23 RMK AO2 T02890161
03812KAVL AVL20160616113011006/16/16 11:30:31  5-MIN KAVL 161630Z 36013G23KT 10SM CLR 29/16 A2995 2140 45 4200 010/13G23 RMK AO2 T02890161
03812KAVL AVL20160616113510406/16/16 11:35:31  5-MIN KAVL 161635Z 36013KT 10SM CLR 29/17 A2995 2140 47 4200 010/13 RMK AO2 T02890167
03812KAVL AVL20160616114010406/16/16 11:40:31  5-MIN KAVL 161640Z 36013KT 10SM CLR 29/17 A2995 2140 47 4200 010/13 RMK AO2 T02890167
03812KAVL AVL20160616114510406/16/16 11:45:31  5-MIN KAVL 161645Z 35011KT 10SM CLR 29/17 A2995 2140 47 4200 360/11 RMK AO2 T02890167
03812KAVL AVL20160616115011706/16/16 11:50:31  5-MIN KAVL 161650Z 34013G22KT 10SM CLR 29/16 A2995 2140 44 4300 340/13G22 RMK AO2 SLP110 T02940161
03812KAVL AVL20160616115511006/16/16 11:55:31  5-MIN KAVL 161655Z 34011G22KT 10SM CLR 30/17 A2994 2150 44 4400 340/11G22 RMK AO2 T03000167
03812KAVL AVL20160616120010406/16/16 12:00:31  5-MIN KAVL 161700Z 34015KT 10SM CLR 30/17 A2995 2140 44 4400 350/15 RMK AO2 T03000167
03812KAVL AVL20160616120511006/16/16 12:05:31  5-MIN KAVL 161705Z 35015G20KT 10SM CLR 29/17 A2995 2140 45 4300 350/15G20 RMK AO2 T02940167
03812KAVL AVL20160616121011006/16/16 12:10:31  5-MIN KAVL 161710Z 35009G20KT 10SM CLR 29/16 A2994 2150 44 4300 350/09G20 RMK AO2 T02940161
03812KAVL AVL20160616121511006/16/16 12:15:31  5-MIN KAVL 161715Z 36012G17KT 10SM CLR 30/17 A2994 2150 44 4400 360/12G17 RMK AO2 T03000167
03812KAVL AVL20160616122010406/16/16 12:20:31  5-MIN KAVL 161720Z 35011KT 10SM CLR 30/17 A2994 2150 44 4400 360/11 RMK AO2 T03000167
03812KAVL AVL20160616122511006/16/16 12:25:31  5-MIN KAVL 161725Z 36010G17KT 10SM CLR 30/16 A2994 2150 42 4400 010/10G17 RMK AO2 T03000161
03812KAVL AVL20160616123011006/16/16 12:30:31  5-MIN KAVL 161730Z 01010G17KT 10SM CLR 30/16 A2994 2150 41 4400 010/10G17 RMK AO2 T03000156
03812KAVL AVL20160616123511006/16/16 12:35:31  5-MIN KAVL 161735Z 35015G19KT 10SM CLR 31/16 A2994 2150 39 4400 360/15G19 RMK AO2 T03060156
03812KAVL AVL20160616124011006/16/16 12:40:31  5-MIN KAVL 161740Z 35012G19KT 10SM CLR 31/16 A2994 2150 39 4400 360/12G19 RMK AO2 T03060156
03812KAVL AVL20160616124511006/16/16 12:45:31  5-MIN KAVL 161745Z 35014G19KT 10SM CLR 31/16 A2994 2150 41 4400 360/14G19 RMK AO2 T03060161
03812KAVL AVL20160616125013506/16/16 12:50:31  5-MIN KAVL 161750Z 35010G19KT 10SM CLR 31/16 A2994 2150 41 4400 360/10G19 RMK AO2 SLP106 T03060161 10306 20217 55000
03812KAVL AVL20160616125511006/16/16 12:55:31  5-MIN KAVL 161755Z 35013G22KT 10SM CLR 31/16 A2994 2150 41 4400 350/13G22 RMK AO2 T03060161
03812KAVL AVL20160616130011006/16/16 13:00:31  5-MIN KAVL 161800Z 36010G22KT 10SM CLR 31/16 A2993 2150 39 4400 010/10G22 RMK AO2 T03060156
03812KAVL AVL20160616130511006/16/16 13:05:31  5-MIN KAVL 161805Z 35012G18KT 10SM CLR 31/16 A2994 2150 40 4500 360/12G18 RMK AO2 T03110161
03812KAVL AVL20160616131011006/16/16 13:10:31  5-MIN KAVL 161810Z 35014G20KT 10SM CLR 31/16 A2994 2150 41 4400 360/14G20 RMK AO2 T03060161
03812KAVL AVL20160616131511006/16/16 13:15:31  5-MIN KAVL 161815Z 35011G20KT 10SM CLR 31/16 A2994 2150 39 4400 350/11G20 RMK AO2 T03060156
03812KAVL AVL20160616132011006/16/16 13:20:31  5-MIN KAVL 161820Z 35014G22KT 10SM CLR 31/16 A2994 2150 41 4400 360/14G22 RMK AO2 T03060161
03812KAVL AVL20160616132512606/16/16 13:25:31  5-MIN KAVL 161825Z 36010G22KT 330V040 10SM CLR 31/16 A2994 2150 41 4400 010/10G22 340V050 RMK AO2 T03060161
03812KAVL AVL20160616133011006/16/16 13:30:31  5-MIN KAVL 161830Z 33017G22KT 10SM CLR 31/16 A2993 2150 40 4500 340/17G22 RMK AO2 T03110161
03812KAVL AVL20160616133511006/16/16 13:35:31  5-MIN KAVL 161835Z 33016G22KT 10SM CLR 31/16 A2993 2160 40 4500 340/16G22 RMK AO2 T03110161
03812KAVL AVL20160616134011006/16/16 13:40:31  5-MIN KAVL 161840Z 36013G20KT 10SM CLR 32/16 A2993 2150 37 4600 010/13G20 RMK AO2 T03170156
03812KAVL AVL20160616134510406/16/16 13:45:31  5-MIN KAVL 161845Z 35012KT 10SM CLR 31/15 A2993 2160 37 4500 350/12 RMK AO2 T03110150
03812KAVL AVL20160616135011706/16/16 13:50:31  5-MIN KAVL 161850Z 01013G19KT 10SM CLR 32/15 A2993 2160 36 4600 020/13G19 RMK AO2 SLP105 T03170150
03812KAVL AVL20160616135510406/16/16 13:55:31  5-MIN KAVL 161855Z 33014KT 10SM CLR 32/14 A2993 2150 34 4600 340/14 RMK AO2 T03170144
03812KAVL AVL20160616140011006/16/16 14:00:31  5-MIN KAVL 161900Z 33015G22KT 10SM CLR 32/14 A2993 2160 34 4600 340/15G22 RMK AO2 T03170144
03812KAVL AVL20160616140511006/16/16 14:05:31  5-MIN KAVL 161905Z 32010G22KT 10SM CLR 32/13 A2993 2160 32 4600 320/10G22 RMK AO2 T03170133
03812KAVL AVL20160616141011306/16/16 14:10:31  5-MIN KAVL 161910Z 33010G17KT 10SM FEW060 32/14 A2993 2160 34 4600 330/10G17 RMK AO2 T03170144
03812KAVL AVL20160616141511306/16/16 14:15:31  5-MIN KAVL 161915Z 36013G23KT 10SM FEW060 32/14 A2993 2160 34 4600 360/13G23 RMK AO2 T03170144
03812KAVL AVL20160616142011306/16/16 14:20:31  5-MIN KAVL 161920Z 35010G23KT 10SM FEW060 31/14 A2993 2160 35 4500 360/10G23 RMK AO2 T03110144
03812KAVL AVL20160616142511306/16/16 14:25:31  5-MIN KAVL 161925Z 33012G17KT 10SM FEW060 32/14 A2993 2160 34 4600 340/12G17 RMK AO2 T03170144
03812KAVL AVL20160616143011306/16/16 14:30:31  5-MIN KAVL 161930Z 32012G18KT 10SM FEW060 32/13 A2993 2160 31 4600 330/12G18 RMK AO2 T03220133
03812KAVL AVL20160616143511306/16/16 14:35:31  5-MIN KAVL 161935Z 32011G18KT 10SM FEW065 32/14 A2993 2160 32 4600 330/11G18 RMK AO2 T03220139
03812KAVL AVL20160616144011306/16/16 14:40:31  5-MIN KAVL 161940Z 34006G18KT 10SM FEW065 32/14 A2993 2160 33 4600 350/06G18 RMK AO2 T03220144
03812KAVL AVL20160616144511306/16/16 14:45:31  5-MIN KAVL 161945Z 01010G18KT 10SM FEW065 32/15 A2992 2170 36 4600 010/10G18 RMK AO2 T03170150
03812KAVL AVL20160616145011406/16/16 14:50:31  5-MIN KAVL 161950Z 32009KT 10SM FEW065 32/15 A2992 2170 36 4600 330/09 RMK AO2 SLP101 T03170150
03812KAVL AVL20160616145510706/16/16 14:55:31  5-MIN KAVL 161955Z VRB05KT 10SM SCT065 32/14 A2992 2170 33 4600 VRB/05 RMK AO2 T03220144
03812KAVL AVL20160616150011306/16/16 15:00:31  5-MIN KAVL 162000Z 34010G15KT 10SM SCT065 32/14 A2992 2170 32 4600 340/10G15 RMK AO2 T03220139
03812KAVL AVL20160616150511306/16/16 15:05:31  5-MIN KAVL 162005Z 35011G16KT 10SM FEW065 32/13 A2992 2170 32 4600 360/11G16 RMK AO2 T03170133
03812KAVL AVL20160616151010706/16/16 15:10:31  5-MIN KAVL 162010Z 34009KT 10SM FEW065 32/14 A2992 2170 33 4600 340/09 RMK AO2 T03170139
03812KAVL AVL20160616151510706/16/16 15:15:31  5-MIN KAVL 162015Z 34009KT 10SM FEW065 32/14 A2992 2170 33 4600 340/09 RMK AO2 T03170139
03812KAVL AVL20160616152010706/16/16 15:20:31  5-MIN KAVL 162020Z 31010KT 10SM FEW065 32/13 A2992 2170 30 4600 310/10 RMK AO2 T03220128
03812KAVL AVL20160616152510406/16/16 15:25:31  5-MIN KAVL 162025Z 33011KT 10SM CLR 32/13 A2991 2170 30 4600 330/11 RMK AO2 T03220128
03812KAVL AVL20160616153010406/16/16 15:30:31  5-MIN KAVL 162030Z 34011KT 10SM CLR 32/13 A2991 2170 30 4600 350/11 RMK AO2 T03220128
03812KAVL AVL20160616153510406/16/16 15:35:31  5-MIN KAVL 162035Z 32009KT 10SM CLR 32/13 A2991 2180 31 4600 330/09 RMK AO2 T03170128
03812KAVL AVL20160616154011006/16/16 15:40:31  5-MIN KAVL 162040Z 32008G17KT 10SM CLR 32/12 A2991 2180 29 4700 320/08G17 RMK AO2 T03220122
03812KAVL AVL20160616154511006/16/16 15:45:31  5-MIN KAVL 162045Z 32013G17KT 10SM CLR 32/12 A2991 2180 28 4700 330/13G17 RMK AO2 T03220117
03812KAVL AVL20160616155011706/16/16 15:50:31  5-MIN KAVL 162050Z 31012KT 10SM CLR 32/12 A2991 2180 30 4600 320/12 RMK AO2 SLP097 T03170122 56006
03812KAVL AVL20160616155510406/16/16 15:55:31  5-MIN KAVL 162055Z 32012KT 10SM CLR 32/12 A2991 2180 28 4700 320/12 RMK AO2 T03220117
03812KAVL AVL20160616160010406/16/16 16:00:31  5-MIN KAVL 162100Z 33011KT 10SM CLR 32/12 A2991 2180 28 4700 330/11 RMK AO2 T03220117
03812KAVL AVL20160616160510406/16/16 16:05:31  5-MIN KAVL 162105Z 34012KT 10SM CLR 32/12 A2991 2180 29 4600 350/12 RMK AO2 T03170117
03812KAVL AVL20160616161010406/16/16 16:10:31  5-MIN KAVL 162110Z 35010KT 10SM CLR 32/11 A2990 2180 27 4700 350/10 RMK AO2 T03220111
03812KAVL AVL20160616161510406/16/16 16:15:31  5-MIN KAVL 162115Z 33009KT 10SM CLR 32/11 A2990 2180 27 4700 340/09 RMK AO2 T03220111
03812KAVL AVL20160616162010406/16/16 16:20:31  5-MIN KAVL 162120Z 34008KT 10SM CLR 32/12 A2990 2190 29 4700 350/08 RMK AO2 T03220122
03812KAVL AVL20160616162511006/16/16 16:25:31  5-MIN KAVL 162125Z 31009G14KT 10SM CLR 32/12 A2990 2190 29 4700 320/09G14 RMK AO2 T03220122
03812KAVL AVL20160616163010406/16/16 16:30:31  5-MIN KAVL 162130Z 30009KT 10SM CLR 32/12 A2990 2190 29 4700 310/09 RMK AO2 T03220122
03812KAVL AVL20160616163510406/16/16 16:35:31  5-MIN KAVL 162135Z 31012KT 10SM CLR 32/12 A2990 2190 29 4700 320/12 RMK AO2 T03220122
03812KAVL AVL20160616164010406/16/16 16:40:31  5-MIN KAVL 162140Z 31007KT 10SM CLR 32/12 A2990 2190 29 4700 320/07 RMK AO2 T03220122
03812KAVL AVL20160616164510406/16/16 16:45:31  5-MIN KAVL 162145Z 31007KT 10SM CLR 32/12 A2990 2190 29 4700 320/07 RMK AO2 T03220122
03812KAVL AVL20160616165011706/16/16 16:50:31  5-MIN KAVL 162150Z 33011G17KT 10SM CLR 32/12 A2990 2190 29 4700 330/11G17 RMK AO2 SLP093 T03220122
03812KAVL AVL20160616165510406/16/16 16:55:31  5-MIN KAVL 162155Z 30009KT 10SM CLR 32/12 A2990 2190 29 4600 300/09 RMK AO2 T03170117
03812KAVL AVL20160616170010406/16/16 17:00:31  5-MIN KAVL 162200Z 32009KT 10SM CLR 32/12 A2990 2190 29 4700 320/09 RMK AO2 T03220122
03812KAVL AVL20160616170510406/16/16 17:05:31  5-MIN KAVL 162205Z 32010KT 10SM CLR 32/12 A2990 2190 30 4600 320/10 RMK AO2 T03170122
03812KAVL AVL20160616171010406/16/16 17:10:31  5-MIN KAVL 162210Z 32009KT 10SM CLR 32/12 A2990 2190 30 4600 330/09 RMK AO2 T03170122
03812KAVL AVL20160616171510406/16/16 17:15:31  5-MIN KAVL 162215Z 35011KT 10SM CLR 32/12 A2990 2190 30 4600 360/11 RMK AO2 T03170122
03812KAVL AVL20160616172010406/16/16 17:20:31  5-MIN KAVL 162220Z 36009KT 10SM CLR 32/12 A2989 2190 29 4600 010/09 RMK AO2 T03170117
03812KAVL AVL20160616172510406/16/16 17:25:31  5-MIN KAVL 162225Z 33008KT 10SM CLR 32/12 A2989 2190 30 4600 330/08 RMK AO2 T03170122
03812KAVL AVL20160616173010406/16/16 17:30:31  5-MIN KAVL 162230Z 35011KT 10SM CLR 32/12 A2989 2190 30 4600 350/11 RMK AO2 T03170122
03812KAVL AVL20160616173510406/16/16 17:35:31  5-MIN KAVL 162235Z 31004KT 10SM CLR 32/13 A2989 2200 31 4600 320/04 RMK AO2 T03170128
03812KAVL AVL20160616174010406/16/16 17:40:31  5-MIN KAVL 162240Z 30006KT 10SM CLR 32/13 A2989 2200 31 4600 310/06 RMK AO2 T03170128
03812KAVL AVL20160616174510406/16/16 17:45:31  5-MIN KAVL 162245Z 29005KT 10SM CLR 31/12 A2989 2200 31 4600 300/05 RMK AO2 T03110122
03812KAVL AVL20160616175011106/16/16 17:50:31  5-MIN KAVL 162250Z 31009KT 10SM CLR 31/12 A2989 2200 31 4600 310/09 RMK AO2 SLP089 T03110122
03812KAVL AVL20160616175510406/16/16 17:55:31  5-MIN KAVL 162255Z 31007KT 10SM CLR 31/13 A2989 2200 32 4600 320/07 RMK AO2 T03110128
03812KAVL AVL20160616180010406/16/16 18:00:31  5-MIN KAVL 162300Z 29005KT 10SM CLR 31/12 A2988 2200 29 4600 300/05 RMK AO2 T03110117
03812KAVL AVL20160616180510406/16/16 18:05:31  5-MIN KAVL 162305Z 29006KT 10SM CLR 31/12 A2988 2200 29 4600 300/06 RMK AO2 T03110117
03812KAVL AVL20160616181010406/16/16 18:10:31  5-MIN KAVL 162310Z 30007KT 10SM CLR 31/12 A2988 2200 29 4600 310/07 RMK AO2 T03110117
03812KAVL AVL20160616181510406/16/16 18:15:31  5-MIN KAVL 162315Z 29005KT 10SM CLR 31/11 A2988 2200 28 4600 290/05 RMK AO2 T03110111
03812KAVL AVL20160616182010406/16/16 18:20:31  5-MIN KAVL 162320Z 29006KT 10SM CLR 31/11 A2988 2200 29 4500 300/06 RMK AO2 T03060111
03812KAVL AVL20160616182510406/16/16 18:25:31  5-MIN KAVL 162325Z 28005KT 10SM CLR 31/11 A2988 2200 29 4500 290/05 RMK AO2 T03060111
03812KAVL AVL20160616183010406/16/16 18:30:31  5-MIN KAVL 162330Z 28004KT 10SM CLR 31/11 A2988 2200 29 4500 280/04 RMK AO2 T03060111
03812KAVL AVL20160616183510406/16/16 18:35:31  5-MIN KAVL 162335Z 29004KT 10SM CLR 31/11 A2988 2200 29 4500 300/04 RMK AO2 T03060111
03812KAVL AVL20160616184010406/16/16 18:40:31  5-MIN KAVL 162340Z 30004KT 10SM CLR 31/12 A2988 2200 30 4500 310/04 RMK AO2 T03060117
03812KAVL AVL20160616184510406/16/16 18:45:31  5-MIN KAVL 162345Z 30004KT 10SM CLR 31/12 A2988 2200 30 4500 300/04 RMK AO2 T03060117
03812KAVL AVL20160616185012906/16/16 18:50:31  5-MIN KAVL 162350Z 27003KT 10SM CLR 30/12 A2988 2200 33 4400 280/03 RMK AO2 SLP087 T03000122 10322 20300 58009
03812KAVL AVL20160616185510406/16/16 18:55:31  5-MIN KAVL 162355Z 25003KT 10SM CLR 30/12 A2988 2210 31 4400 260/03 RMK AO2 T03000117
03812KAVL AVL20160616190010406/16/16 19:00:31  5-MIN KAVL 170000Z 00000KT 10SM CLR 30/11 A2988 2210 30 4400 000/00 RMK AO2 T03000111
03812KAVL AVL20160616190510406/16/16 19:05:31  5-MIN KAVL 170005Z 00000KT 10SM CLR 30/12 A2988 2200 31 4400 000/00 RMK AO2 T03000117
03812KAVL AVL20160616191010406/16/16 19:10:31  5-MIN KAVL 170010Z 26003KT 10SM CLR 30/12 A2988 2200 31 4400 260/03 RMK AO2 T03000117
03812KAVL AVL20160616191510406/16/16 19:15:31  5-MIN KAVL 170015Z 22004KT 10SM CLR 29/12 A2988 2210 33 4400 230/04 RMK AO2 T02940117
03812KAVL AVL20160616192010406/16/16 19:20:31  5-MIN KAVL 170020Z 24003KT 10SM CLR 28/14 A2988 2200 40 4300 250/03 RMK AO2 T02830139
03812KAVL AVL20160616192510406/16/16 19:25:31  5-MIN KAVL 170025Z 25003KT 10SM CLR 28/14 A2988 2200 43 4200 250/03 RMK AO2 T02780144
03812KAVL AVL20160616193010406/16/16 19:30:31  5-MIN KAVL 170030Z 24004KT 10SM CLR 28/14 A2988 2200 43 4200 240/04 RMK AO2 T02780144
03812KAVL AVL20160616193510406/16/16 19:35:31  5-MIN KAVL 170035Z VRB04KT 10SM CLR 27/14 A2988 2200 45 4100 VRB/04 RMK AO2 T02720144
03812KAVL AVL20160616194010406/16/16 19:40:31  5-MIN KAVL 170040Z 31004KT 10SM CLR 26/15 A2988 2200 50 4000 310/04 RMK AO2 T02610150
03812KAVL AVL20160616194510406/16/16 19:45:31  5-MIN KAVL 170045Z 00000KT 10SM CLR 26/16 A2988 2200 53 4000 000/00 RMK AO2 T02560156
03812KAVL AVL20160616195011106/16/16 19:50:31  5-MIN KAVL 170050Z 00000KT 10SM CLR 27/14 A2988 2200 46 4100 000/00 RMK AO2 SLP087 T02670144
03812KAVL AVL20160616195510406/16/16 19:55:31  5-MIN KAVL 170055Z 22004KT 10SM CLR 26/14 A2988 2200 48 4000 220/04 RMK AO2 T02610144
03812KAVL AVL20160616200010406/16/16 20:00:31  5-MIN KAVL 170100Z 23005KT 10SM CLR 24/16 A2988 2200 59 3800 240/05 RMK AO2 T02440161
03812KAVL AVL20160616200510406/16/16 20:05:31  5-MIN KAVL 170105Z 00000KT 10SM CLR 24/16 A2988 2210 59 3800 000/00 RMK AO2 T02440161
03812KAVL AVL20160616201010406/16/16 20:10:31  5-MIN KAVL 170110Z 00000KT 10SM CLR 24/16 A2988 2210 59 3800 000/00 RMK AO2 T02440161
03812KAVL AVL20160616201510406/16/16 20:15:31  5-MIN KAVL 170115Z 00000KT 10SM CLR 24/16 A2988 2210 57 3800 000/00 RMK AO2 T02440156
03812KAVL AVL20160616202010406/16/16 20:20:31  5-MIN KAVL 170120Z 00000KT 10SM CLR 25/15 A2988 2200 53 3900 000/00 RMK AO2 T02500150
03812KAVL AVL20160616202510406/16/16 20:25:31  5-MIN KAVL 170125Z 00000KT 10SM CLR 25/15 A2988 2200 53 3900 000/00 RMK AO2 T02500150
03812KAVL AVL20160616203010406/16/16 20:30:31  5-MIN KAVL 170130Z 17003KT 10SM CLR 24/15 A2988 2210 55 3800 180/03 RMK AO2 T02440150
03812KAVL AVL20160616203510406/16/16 20:35:31  5-MIN KAVL 170135Z 00000KT 10SM CLR 24/15 A2988 2200 55 3800 000/00 RMK AO2 T02440150
03812KAVL AVL20160616204010406/16/16 20:40:31  5-MIN KAVL 170140Z 00000KT 10SM CLR 24/15 A2988 2210 55 3800 000/00 RMK AO2 T02440150
03812KAVL AVL20160616204510406/16/16 20:45:31  5-MIN KAVL 170145Z 15003KT 10SM CLR 24/15 A2987 2210 55 3800 160/03 RMK AO2 T02440150
03812KAVL AVL20160616205011106/16/16 20:50:31  5-MIN KAVL 170150Z 00000KT 10SM CLR 24/16 A2987 2210 57 3800 000/00 RMK AO2 SLP084 T02440156
03812KAVL AVL20160616205510406/16/16 20:55:31  5-MIN KAVL 170155Z 00000KT 10SM CLR 24/16 A2987 2210 59 3800 000/00 RMK AO2 T02390156
03812KAVL AVL20160616210010406/16/16 21:00:31  5-MIN KAVL 170200Z 00000KT 10SM CLR 23/16 A2987 2220 61 3700 000/00 RMK AO2 T02330156
03812KAVL AVL20160616210510406/16/16 21:05:31  5-MIN KAVL 170205Z 00000KT 10SM CLR 24/16 A2987 2220 59 3800 000/00 RMK AO2 T02390156
03812KAVL AVL20160616211010406/16/16 21:10:31  5-MIN KAVL 170210Z 00000KT 10SM CLR 24/16 A2987 2210 59 3800 000/00 RMK AO2 T02390156
03812KAVL AVL20160616211510406/16/16 21:15:31  5-MIN KAVL 170215Z 00000KT 10SM CLR 24/16 A2987 2210 59 3800 000/00 RMK AO2 T02390156
03812KAVL AVL20160616212010406/16/16 21:20:31  5-MIN KAVL 170220Z 00000KT 10SM CLR 24/16 A2987 2210 59 3800 000/00 RMK AO2 T02390156
03812KAVL AVL20160616212510406/16/16 21:25:31  5-MIN KAVL 170225Z 00000KT 10SM CLR 23/16 A2987 2220 61 3700 000/00 RMK AO2 T02330156
03812KAVL AVL20160616213010406/16/16 21:30:31  5-MIN KAVL 170230Z 14003KT 10SM CLR 23/16 A2987 2220 61 3700 140/03 RMK AO2 T02330156
03812KAVL AVL20160616213510406/16/16 21:35:31  5-MIN KAVL 170235Z 00000KT 10SM CLR 23/16 A2986 2220 61 3700 000/00 RMK AO2 T02330156
03812KAVL AVL20160616214010406/16/16 21:40:31  5-MIN KAVL 170240Z 12003KT 10SM CLR 23/15 A2987 2220 59 3700 120/03 RMK AO2 T02330150
03812KAVL AVL20160616214510906/16/16 21:45:31  5-MIN KAVL 170245Z AUTO 00000KT 10SM CLR 23/16 A2986 2220 63 3700 000/00 RMK AO2 T02280156
03812KAVL AVL20160616215012206/16/16 21:50:31  5-MIN KAVL 170250Z AUTO 13004KT 10SM CLR 23/15 A2987 2220 59 3700 130/04 RMK AO2 SLP082 T02330150 56010
03812KAVL AVL20160616215510906/16/16 21:55:31  5-MIN KAVL 170255Z AUTO 12003KT 10SM CLR 23/15 A2987 2220 59 3700 120/03 RMK AO2 T02330150
03812KAVL AVL20160616220010906/16/16 22:00:31  5-MIN KAVL 170300Z AUTO 12003KT 10SM CLR 23/15 A2986 2220 59 3700 130/03 RMK AO2 T02330150
03812KAVL AVL20160616220510906/16/16 22:05:31  5-MIN KAVL 170305Z AUTO 13004KT 10SM CLR 23/15 A2986 2220 61 3700 140/04 RMK AO2 T02280150
03812KAVL AVL20160616221010906/16/16 22:10:31  5-MIN KAVL 170310Z AUTO 00000KT 10SM CLR 23/15 A2987 2220 61 3700 000/00 RMK AO2 T02280150
03812KAVL AVL20160616221510906/16/16 22:15:31  5-MIN KAVL 170315Z AUTO 00000KT 10SM CLR 23/16 A2987 2220 63 3700 000/00 RMK AO2 T02280156
03812KAVL AVL20160616222010906/16/16 22:20:31  5-MIN KAVL 170320Z AUTO 12003KT 10SM CLR 23/15 A2987 2220 61 3700 120/03 RMK AO2 T02280150
03812KAVL AVL20160616222510906/16/16 22:25:31  5-MIN KAVL 170325Z AUTO 12003KT 10SM CLR 23/15 A2987 2210 61 3700 120/03 RMK AO2 T02280150
03812KAVL AVL20160616223010906/16/16 22:30:31  5-MIN KAVL 170330Z AUTO VRB03KT 10SM CLR 22/16 A2987 2220 65 3600 VRB/03 RMK AO2 T02220156
03812KAVL AVL20160616223510906/16/16 22:35:31  5-MIN KAVL 170335Z AUTO 00000KT 10SM CLR 23/15 A2987 2210 61 3700 000/00 RMK AO2 T02280150
03812KAVL AVL20160616224010906/16/16 22:40:31  5-MIN KAVL 170340Z AUTO 12003KT 10SM CLR 23/15 A2987 2210 61 3700 130/03 RMK AO2 T02280150
03812KAVL AVL20160616224510906/16/16 22:45:31  5-MIN KAVL 170345Z AUTO 00000KT 10SM CLR 23/16 A2987 2220 63 3700 000/00 RMK AO2 T02280156
03812KAVL AVL20160616225011606/16/16 22:50:31  5-MIN KAVL 170350Z AUTO 13003KT 10SM CLR 22/16 A2987 2220 65 3600 130/03 RMK AO2 SLP081 T02220156
03812KAVL AVL20160616225510906/16/16 22:55:31  5-MIN KAVL 170355Z AUTO 00000KT 10SM CLR 22/16 A2986 2220 68 3600 000/00 RMK AO2 T02220161
03812KAVL AVL20160616230010906/16/16 23:00:31  5-MIN KAVL 170400Z AUTO 00000KT 10SM CLR 22/16 A2986 2220 70 3500 000/00 RMK AO2 T02170161
03812KAVL AVL20160616230510906/16/16 23:05:31  5-MIN KAVL 170405Z AUTO 00000KT 10SM CLR 22/16 A2986 2220 68 3600 000/00 RMK AO2 T02220161
03812KAVL AVL20160616231010906/16/16 23:10:31  5-MIN KAVL 170410Z AUTO 16004KT 10SM CLR 22/16 A2986 2220 70 3500 170/04 RMK AO2 T02170161
03812KAVL AVL20160616231510906/16/16 23:15:31  5-MIN KAVL 170415Z AUTO 00000KT 10SM CLR 21/16 A2986 2220 73 3500 000/00 RMK AO2 T02110161
03812KAVL AVL20160616232010906/16/16 23:20:31  5-MIN KAVL 170420Z AUTO 00000KT 10SM CLR 22/16 A2986 2220 70 3500 000/00 RMK AO2 T02170161
03812KAVL AVL20160616232511206/16/16 23:25:31  5-MIN KAVL 170425Z AUTO 00000KT 10SM FEW080 22/16 A2986 2220 70 3500 000/00 RMK AO2 T02170161
03812KAVL AVL20160616233011206/16/16 23:30:31  5-MIN KAVL 170430Z AUTO 00000KT 10SM FEW075 22/16 A2986 2220 68 3600 000/00 RMK AO2 T02220161
03812KAVL AVL20160616233511206/16/16 23:35:31  5-MIN KAVL 170435Z AUTO 00000KT 10SM FEW075 22/16 A2985 2230 68 3600 000/00 RMK AO2 T02220161
03812KAVL AVL20160616234011206/16/16 23:40:31  5-MIN KAVL 170440Z AUTO 18004KT 10SM FEW075 22/16 A2985 2230 68 3600 180/04 RMK AO2 T02220161
03812KAVL AVL20160616234511206/16/16 23:45:31  5-MIN KAVL 170445Z AUTO 00000KT 10SM FEW075 22/16 A2985 2230 68 3600 000/00 RMK AO2 T02220161
03812KAVL AVL20160616235012906/16/16 23:50:31  5-MIN KAVL 170450Z AUTO 13003KT 10SM FEW070 23/16 A2985 2240 65 3700 140/03 RMK AO2 SLP075 T02280161 403220200
03812KAVL AVL20160616235511206/16/16 23:55:31  5-MIN KAVL 170455Z AUTO 16004KT 10SM FEW065 22/16 A2985 2230 68 3600 170/04 RMK AO2 T02220161
03812KAVL AVL20160617000010906/17/16 00:00:31  5-MIN KAVL 170500Z AUTO 13003KT 10SM CLR 22/16 A2984 2240 70 3600 140/03 RMK AO2 T02170161
03812KAVL AVL20160617000510906/17/16 00:05:31  5-MIN KAVL 170505Z AUTO 00000KT 10SM CLR 22/16 A2985 2240 68 3600 000/00 RMK AO2 T02220161
03812KAVL AVL20160617001010906/17/16 00:10:31  5-MIN KAVL 170510Z AUTO 00000KT 10SM CLR 22/16 A2985 2240 68 3600 000/00 RMK AO2 T02220161
03812KAVL AVL20160617001510906/17/16 00:15:31  5-MIN KAVL 170515Z AUTO VRB03KT 10SM CLR 22/16 A2984 2240 68 3600 VRB/03 RMK AO2 T02220161
03812KAVL AVL20160617002010906/17/16 00:20:31  5-MIN KAVL 170520Z AUTO 14003KT 10SM CLR 22/16 A2985 2240 68 3600 150/03 RMK AO2 T02220161
03812KAVL AVL20160617002510906/17/16 00:25:31  5-MIN KAVL 170525Z AUTO 08003KT 10SM CLR 22/16 A2985 2240 68 3600 090/03 RMK AO2 T02220161
03812KAVL AVL20160617003010906/17/16 00:30:31  5-MIN KAVL 170530Z AUTO 16004KT 10SM CLR 22/16 A2984 2240 65 3600 170/04 RMK AO2 T02220156
03812KAVL AVL20160617003510906/17/16 00:35:31  5-MIN KAVL 170535Z AUTO 00000KT 10SM CLR 22/16 A2985 2230 68 3600 000/00 RMK AO2 T02220161
03812KAVL AVL20160617004010906/17/16 00:40:31  5-MIN KAVL 170540Z AUTO 00000KT 10SM CLR 22/16 A2985 2240 68 3600 000/00 RMK AO2 T02220161
03812KAVL AVL20160617004510906/17/16 00:45:31  5-MIN KAVL 170545Z AUTO 16004KT 10SM CLR 22/16 A2985 2230 68 3600 160/04 RMK AO2 T02220161
03812KAVL AVL20160617005013406/17/16 00:50:31  5-MIN KAVL 170550Z AUTO 15004KT 10SM CLR 22/16 A2985 2230 68 3600 150/04 RMK AO2 SLP074 T02220161 10300 20211 58004
03812KAVL AVL20160617005510906/17/16 00:55:31  5-MIN KAVL 170555Z AUTO VRB03KT 10SM CLR 22/16 A2985 2230 68 3600 VRB/03 RMK AO2 T02220161
03812KAVL AVL20160617010010906/17/16 01:00:31  5-MIN KAVL 170600Z AUTO 16005KT 10SM CLR 22/16 A2985 2230 68 3600 160/05 RMK AO2 T02220161
03812KAVL AVL20160617010511206/17/16 01:05:31  5-MIN KAVL 170605Z AUTO 00000KT 10SM FEW070 22/16 A2985 2240 70 3600 000/00 RMK AO2 T02170161
03812KAVL AVL20160617011011206/17/16 01:10:31  5-MIN KAVL 170610Z AUTO 12003KT 10SM FEW070 22/16 A2985 2240 68 3600 130/03 RMK AO2 T02220161
03812KAVL AVL20160617011510906/17/16 01:15:31  5-MIN KAVL 170615Z AUTO 10004KT 10SM CLR 22/16 A2984 2240 68 3600 100/04 RMK AO2 T02220161
03812KAVL AVL20160617012011206/17/16 01:20:31  5-MIN KAVL 170620Z AUTO 00000KT 10SM FEW070 22/16 A2984 2240 70 3600 000/00 RMK AO2 T02170161
03812KAVL AVL20160617012511206/17/16 01:25:31  5-MIN KAVL 170625Z AUTO 00000KT 10SM FEW070 22/16 A2984 2240 70 3600 000/00 RMK AO2 T02170161
03812KAVL AVL20160617013011206/17/16 01:30:31  5-MIN KAVL 170630Z AUTO 00000KT 10SM FEW070 22/16 A2984 2240 70 3600 000/00 RMK AO2 T02170161
03812KAVL AVL20160617013511206/17/16 01:35:31  5-MIN KAVL 170635Z AUTO 00000KT 10SM FEW065 21/16 A2984 2240 73 3500 000/00 RMK AO2 T02110161
03812KAVL AVL20160617014011206/17/16 01:40:31  5-MIN KAVL 170640Z AUTO 00000KT 10SM FEW065 21/16 A2984 2240 73 3500 000/00 RMK AO2 T02110161
03812KAVL AVL20160617014511206/17/16 01:45:31  5-MIN KAVL 170645Z AUTO 00000KT 10SM FEW065 21/16 A2984 2240 73 3500 000/00 RMK AO2 T02110161
03812KAVL AVL20160617015011906/17/16 01:50:31  5-MIN KAVL 170650Z AUTO 07003KT 10SM FEW060 21/16 A2984 2240 73 3500 080/03 RMK AO2 SLP070 T02110161
03812KAVL AVL20160617015511206/17/16 01:55:31  5-MIN KAVL 170655Z AUTO 00000KT 10SM FEW060 21/16 A2984 2240 73 3500 000/00 RMK AO2 T02110161
03812KAVL AVL20160617020011206/17/16 02:00:31  5-MIN KAVL 170700Z AUTO 11003KT 10SM SCT065 21/16 A2984 2240 73 3500 110/03 RMK AO2 T02110161
03812KAVL AVL20160617020512306/17/16 02:05:31  5-MIN KAVL 170705Z AUTO 00000KT 10SM SCT060 21/16 A2984 2240 73 3500 000/00 RMK AO2 LTG DSNT W T02110161
03812KAVL AVL20160617021012306/17/16 02:10:31  5-MIN KAVL 170710Z AUTO 00000KT 10SM SCT060 21/16 A2984 2240 73 3500 000/00 RMK AO2 LTG DSNT W T02110161
03812KAVL AVL20160617021512306/17/16 02:15:31  5-MIN KAVL 170715Z AUTO 00000KT 10SM SCT060 22/16 A2984 2240 70 3600 000/00 RMK AO2 LTG DSNT W T02170161
03812KAVL AVL20160617022011206/17/16 02:20:31  5-MIN KAVL 170720Z AUTO 00000KT 10SM BKN060 22/16 A2984 2240 70 3600 000/00 RMK AO2 T02170161
03812KAVL AVL20160617022511906/17/16 02:25:31  5-MIN KAVL 170725Z AUTO 00000KT 10SM BKN060 BKN070 21/16 A2984 2240 73 3500 000/00 RMK AO2 T02110161
03812KAVL AVL20160617023011206/17/16 02:30:31  5-MIN KAVL 170730Z AUTO 00000KT 10SM BKN060 21/17 A2984 2250 78 3400 000/00 RMK AO2 T02060167
03812KAVL AVL20160617023511906/17/16 02:35:31  5-MIN KAVL 170735Z AUTO 21003KT 10SM FEW050 BKN065 21/17 A2984 2250 78 3400 210/03 RMK AO2 T02060167
03812KAVL AVL20160617024011206/17/16 02:40:31  5-MIN KAVL 170740Z AUTO 18004KT 10SM BKN060 20/17 A2983 2250 81 3400 190/04 RMK AO2 T02000167
03812KAVL AVL20160617024511206/17/16 02:45:31  5-MIN KAVL 170745Z AUTO 00000KT 10SM BKN060 20/17 A2983 2250 81 3400 000/00 RMK AO2 T02000167
03812KAVL AVL20160617025011906/17/16 02:50:31  5-MIN KAVL 170750Z AUTO 00000KT 10SM BKN060 20/17 A2983 2250 81 3400 000/00 RMK AO2 SLP070 T02000167
03812KAVL AVL20160617025511906/17/16 02:55:31  5-MIN KAVL 170755Z AUTO 00000KT 10SM BKN055 BKN065 21/17 A2983 2250 78 3400 000/00 RMK AO2 T02060167
03812KAVL AVL20160617030011906/17/16 03:00:31  5-MIN KAVL 170800Z AUTO 21003KT 10SM FEW050 BKN060 21/17 A2984 2240 78 3400 210/03 RMK AO2 T02060167
03812KAVL AVL20160617030511906/17/16 03:05:31  5-MIN KAVL 170805Z AUTO 00000KT 10SM BKN055 BKN070 21/17 A2983 2250 78 3400 000/00 RMK AO2 T02060167
03812KAVL AVL20160617031011906/17/16 03:10:31  5-MIN KAVL 170810Z AUTO 00000KT 10SM BKN055 BKN070 21/17 A2984 2240 78 3400 000/00 RMK AO2 T02060167
03812KAVL AVL20160617031511906/17/16 03:15:31  5-MIN KAVL 170815Z AUTO 00000KT 10SM BKN060 BKN075 21/17 A2983 2250 78 3400 000/00 RMK AO2 T02060167
03812KAVL AVL20160617032011206/17/16 03:20:31  5-MIN KAVL 170820Z AUTO 00000KT 10SM SCT060 21/17 A2983 2250 75 3500 000/00 RMK AO2 T02110167
03812KAVL AVL20160617032511206/17/16 03:25:31  5-MIN KAVL 170825Z AUTO 00000KT 10SM SCT060 21/17 A2984 2250 75 3500 000/00 RMK AO2 T02110167
03812KAVL AVL20160617033011906/17/16 03:30:31  5-MIN KAVL 170830Z AUTO 19003KT 10SM FEW055 SCT065 21/16 A2984 2240 73 3500 190/03 RMK AO2 T02110161
03812KAVL AVL20160617033511206/17/16 03:35:31  5-MIN KAVL 170835Z AUTO 00000KT 10SM FEW060 21/17 A2984 2240 75 3500 000/00 RMK AO2 T02110167
03812KAVL AVL20160617034011206/17/16 03:40:31  5-MIN KAVL 170840Z AUTO 00000KT 10SM SCT060 21/17 A2984 2240 75 3500 000/00 RMK AO2 T02110167
03812KAVL AVL20160617034511906/17/16 03:45:31  5-MIN KAVL 170845Z AUTO 00000KT 10SM FEW049 SCT060 21/17 A2984 2240 75 3500 000/00 RMK AO2 T02110167
03812KAVL AVL20160617035012506/17/16 03:50:31  5-MIN KAVL 170850Z AUTO 00000KT 10SM SCT055 22/17 A2984 2240 73 3600 000/00 RMK AO2 SLP072 T02170167 55004
03812KAVL AVL20160617035511906/17/16 03:55:31  5-MIN KAVL 170855Z AUTO 00000KT 10SM FEW049 SCT060 22/17 A2984 2240 70 3600 000/00 RMK AO2 T02220167
03812KAVL AVL20160617040011206/17/16 04:00:31  5-MIN KAVL 170900Z AUTO 00000KT 10SM BKN055 22/17 A2984 2240 73 3600 000/00 RMK AO2 T02170167
03812KAVL AVL20160617040511206/17/16 04:05:31  5-MIN KAVL 170905Z AUTO 00000KT 10SM BKN055 22/17 A2984 2240 73 3600 000/00 RMK AO2 T02170167
03812KAVL AVL20160617041011206/17/16 04:10:31  5-MIN KAVL 170910Z AUTO 00000KT 10SM SCT055 22/17 A2984 2240 75 3600 000/00 RMK AO2 T02170172
03812KAVL AVL20160617041511206/17/16 04:15:31  5-MIN KAVL 170915Z AUTO 34005KT 10SM SCT055 23/17 A2984 2240 70 3700 340/05 RMK AO2 T02280172
03812KAVL AVL20160617042011906/17/16 04:20:31  5-MIN KAVL 170920Z AUTO VRB03KT 10SM FEW050 SCT060 23/17 A2984 2240 70 3700 VRB/03 RMK AO2 T02280172
03812KAVL AVL20160617042511906/17/16 04:25:31  5-MIN KAVL 170925Z AUTO 00000KT 10SM SCT050 BKN060 23/17 A2984 2240 70 3700 000/00 RMK AO2 T02280172
03812KAVL AVL20160617043011906/17/16 04:30:31  5-MIN KAVL 170930Z AUTO 00000KT 10SM FEW050 BKN065 22/17 A2984 2240 75 3600 000/00 RMK AO2 T02170172
03812KAVL AVL20160617043511906/17/16 04:35:31  5-MIN KAVL 170935Z AUTO 00000KT 10SM FEW050 BKN070 21/17 A2984 2240 78 3500 000/00 RMK AO2 T02110172
03812KAVL AVL20160617044011906/17/16 04:40:31  5-MIN KAVL 170940Z AUTO 00000KT 10SM SCT048 BKN065 22/17 A2984 2240 75 3600 000/00 RMK AO2 T02170172
03812KAVL AVL20160617044512606/17/16 04:45:31  5-MIN KAVL 170945Z AUTO 00000KT 10SM SCT048 BKN060 OVC080 22/17 A2984 2240 75 3600 000/00 RMK AO2 T02170172
03812KAVL AVL20160617045012606/17/16 04:50:31  5-MIN KAVL 170950Z AUTO VRB03KT 10SM SCT048 OVC060 22/17 A2985 2240 73 3600 VRB/03 RMK AO2 SLP072 T02220172
03812KAVL AVL20160617045511906/17/16 04:55:31  5-MIN KAVL 170955Z AUTO 32004KT 10SM SCT047 OVC060 23/17 A2985 2240 68 3700 320/04 RMK AO2 T02330172
03812KAVL AVL20160617050011906/17/16 05:00:31  5-MIN KAVL 171000Z AUTO 34004KT 10SM SCT047 OVC065 24/17 A2985 2230 66 3800 340/04 RMK AO2 T02390172
03812KAVL AVL20160617050511906/17/16 05:05:31  5-MIN KAVL 171005Z AUTO VRB03KT 10SM SCT047 OVC060 24/17 A2985 2230 66 3800 VRB/03 RMK AO2 T02390172
03812KAVL AVL20160617051012606/17/16 05:10:31  5-MIN KAVL 171010Z AUTO 32003KT 10SM FEW043 SCT050 OVC060 23/17 A2985 2230 68 3700 320/03 RMK AO2 T02330172
03812KAVL AVL20160617051511406/17/16 05:15:31  5-MIN KAVL 171015Z 34003KT 10SM FEW045 OVC060 23/17 A2986 2230 68 3700 350/03 RMK AO2 T02330172
03812KAVL AVL20160617052011406/17/16 05:20:31  5-MIN KAVL 171020Z 00000KT 10SM FEW043 OVC060 23/17 A2986 2230 70 3700 000/00 RMK AO2 T02280172
03812KAVL AVL20160617052511406/17/16 05:25:31  5-MIN KAVL 171025Z 00000KT 10SM SCT045 OVC060 22/18 A2986 2230 75 3600 000/00 RMK AO2 T02220178
03812KAVL AVL20160617053011406/17/16 05:30:31  5-MIN KAVL 171030Z 00000KT 10SM BKN047 OVC060 22/18 A2986 2230 75 3600 000/00 RMK AO2 T02220178
03812KAVL AVL20160617053511406/17/16 05:35:31  5-MIN KAVL 171035Z 00000KT 10SM BKN048 OVC060 23/18 A2986 2230 73 3700 000/00 RMK AO2 T02280178
03812KAVL AVL20160617054010706/17/16 05:40:31  5-MIN KAVL 171040Z 00000KT 10SM OVC048 23/18 A2986 2230 73 3700 000/00 RMK AO2 T02280178
03812KAVL AVL20160617054510706/17/16 05:45:31  5-MIN KAVL 171045Z 00000KT 10SM OVC047 23/18 A2986 2220 73 3700 000/00 RMK AO2 T02280178
03812KAVL AVL20160617055011406/17/16 05:50:31  5-MIN KAVL 171050Z 00000KT 10SM OVC047 23/18 A2986 2220 70 3700 000/00 RMK AO2 SLP076 T02330178
03812KAVL AVL20160617055510706/17/16 05:55:31  5-MIN KAVL 171055Z 00000KT 10SM OVC047 23/17 A2986 2220 68 3700 000/00 RMK AO2 T02330172
03812KAVL AVL20160617060010706/17/16 06:00:31  5-MIN KAVL 171100Z 31003KT 10SM OVC045 23/17 A2986 2220 66 3700 310/03 RMK AO2 T02330167
03812KAVL AVL20160617060510706/17/16 06:05:31  5-MIN KAVL 171105Z 00000KT 10SM OVC045 24/17 A2986 2220 63 3800 000/00 RMK AO2 T02390167
03812KAVL AVL20160617061010706/17/16 06:10:31  5-MIN KAVL 171110Z 00000KT 10SM OVC045 23/17 A2986 2220 68 3700 000/00 RMK AO2 T02330172
03812KAVL AVL20160617061510706/17/16 06:15:31  5-MIN KAVL 171115Z 00000KT 10SM OVC045 24/17 A2986 2220 63 3800 000/00 RMK AO2 T02390167
03812KAVL AVL20160617062010706/17/16 06:20:31  5-MIN KAVL 171120Z 34004KT 10SM OVC045 24/17 A2987 2220 63 3800 350/04 RMK AO2 T02390167
03812KAVL AVL20160617062510706/17/16 06:25:31  5-MIN KAVL 171125Z 35003KT 10SM OVC045 24/17 A2987 2220 63 3800 360/03 RMK AO2 T02390167
03812KAVL AVL20160617063010706/17/16 06:30:31  5-MIN KAVL 171130Z 35004KT 10SM OVC045 24/17 A2987 2220 63 3800 360/04 RMK AO2 T02390167
03812KAVL AVL20160617063510706/17/16 06:35:31  5-MIN KAVL 171135Z 35004KT 10SM OVC045 24/17 A2987 2220 61 3800 360/04 RMK AO2 T02440167
03812KAVL AVL20160617064010706/17/16 06:40:31  5-MIN KAVL 171140Z 01007KT 10SM OVC046 24/17 A2987 2210 63 3800 010/07 RMK AO2 T02390167
03812KAVL AVL20160617064510706/17/16 06:45:31  5-MIN KAVL 171145Z 36004KT 10SM OVC044 24/17 A2987 2210 63 3800 360/04 RMK AO2 T02390167
03812KAVL AVL20160617065013206/17/16 06:50:31  5-MIN KAVL 171150Z 35006KT 10SM OVC046 24/17 A2987 2210 61 3800 350/06 RMK AO2 SLP082 T02440167 10244 20200 55003
03812KAVL AVL20160617065511406/17/16 06:55:31  5-MIN KAVL 171155Z 35007KT 10SM BKN046 OVC060 24/17 A2987 2210 63 3800 360/07 RMK AO2 T02390167
03812KAVL AVL20160617070011406/17/16 07:00:31  5-MIN KAVL 171200Z 36005KT 10SM BKN046 OVC060 24/17 A2987 2210 61 3800 010/05 RMK AO2 T02440167
03812KAVL AVL20160617070511406/17/16 07:05:31  5-MIN KAVL 171205Z 36008KT 10SM SCT046 OVC060 24/17 A2988 2210 61 3800 360/08 RMK AO2 T02440167
03812KAVL AVL20160617071011406/17/16 07:10:31  5-MIN KAVL 171210Z 35009KT 10SM FEW046 OVC060 24/17 A2988 2200 63 3800 360/09 RMK AO2 T02390167
03812KAVL AVL20160617071511406/17/16 07:15:31  5-MIN KAVL 171215Z VRB06KT 10SM FEW046 OVC060 24/17 A2988 2200 63 3800 VRB/06 RMK AO2 T02390167
03812KAVL AVL20160617072010706/17/16 07:20:31  5-MIN KAVL 171220Z 33008KT 10SM OVC060 24/17 A2988 2200 63 3800 330/08 RMK AO2 T02390167
03812KAVL AVL20160617072510706/17/16 07:25:31  5-MIN KAVL 171225Z 33007KT 10SM OVC055 24/17 A2988 2200 66 3800 340/07 RMK AO2 T02390172
03812KAVL AVL20160617073010706/17/16 07:30:31  5-MIN KAVL 171230Z 34006KT 10SM OVC055 24/17 A2988 2200 63 3800 350/06 RMK AO2 T02440172
03812KAVL AVL20160617073510706/17/16 07:35:31  5-MIN KAVL 171235Z 34011KT 10SM OVC055 24/17 A2988 2200 66 3800 350/11 RMK AO2 T02390172
03812KAVL AVL20160617074011306/17/16 07:40:31  5-MIN KAVL 171240Z 35010G19KT 10SM OVC055 24/17 A2989 2200 66 3800 360/10G19 RMK AO2 T02390172
03812KAVL AVL20160617074511306/17/16 07:45:31  5-MIN KAVL 171245Z 36009G19KT 10SM OVC055 24/17 A2989 2200 66 3800 360/09G19 RMK AO2 T02390172
03812KAVL AVL20160617075011406/17/16 07:50:31  5-MIN KAVL 171250Z 35009KT 10SM OVC055 24/17 A2989 2200 66 3800 360/09 RMK AO2 SLP089 T02390172
03812KAVL AVL20160617075510706/17/16 07:55:31  5-MIN KAVL 171255Z 35007KT 10SM BKN055 24/17 A2989 2200 66 3800 360/07 RMK AO2 T02390172
03812KAVL AVL20160617080011406/17/16 08:00:31  5-MIN KAVL 171300Z 35008KT 10SM BKN055 BKN085 24/17 A2988 2200 63 3800 360/08 RMK AO2 T02440172
03812KAVL AVL20160617080511406/17/16 08:05:31  5-MIN KAVL 171305Z 36010KT 10SM SCT055 BKN085 24/17 A2988 2200 63 3800 360/10 RMK AO2 T02440172
03812KAVL AVL20160617081012106/17/16 08:10:31  5-MIN KAVL 171310Z 35010KT 10SM SCT055 SCT070 BKN085 24/17 A2989 2200 63 3800 360/10 RMK AO2 T02440172
03812KAVL AVL20160617081511406/17/16 08:15:31  5-MIN KAVL 171315Z 35009KT 10SM SCT060 BKN080 24/17 A2989 2200 61 3800 360/09 RMK AO2 T02440167
03812KAVL AVL20160617082011406/17/16 08:20:31  5-MIN KAVL 171320Z 35012KT 10SM SCT060 BKN080 24/17 A2989 2200 61 3800 350/12 RMK AO2 T02440167
03812KAVL AVL20160617082512106/17/16 08:25:31  5-MIN KAVL 171325Z 35011KT 10SM SCT060 BKN070 BKN085 24/17 A2989 2200 61 3800 350/11 RMK AO2 T02440167
03812KAVL AVL20160617083011406/17/16 08:30:31  5-MIN KAVL 171330Z 36012KT 10SM BKN060 BKN080 25/17 A2989 2200 59 3900 360/12 RMK AO2 T02500167
03812KAVL AVL20160617083511406/17/16 08:35:31  5-MIN KAVL 171335Z 36011KT 10SM BKN055 OVC070 25/17 A2989 2200 59 3900 010/11 RMK AO2 T02500167
03812KAVL AVL20160617084012106/17/16 08:40:31  5-MIN KAVL 171340Z 36010KT 10SM FEW050 BKN060 BKN070 25/17 A2989 2200 59 3900 010/10 RMK AO2 T02500167
03812KAVL AVL20160617084512106/17/16 08:45:31  5-MIN KAVL 171345Z 36008KT 10SM FEW050 BKN060 BKN070 26/17 A2989 2190 57 3900 010/08 RMK AO2 T02560167
03812KAVL AVL20160617085011406/17/16 08:50:31  5-MIN KAVL 171350Z 35008KT 10SM BKN055 26/17 A2989 2200 57 3900 360/08 RMK AO2 SLP090 T02560167
03812KAVL AVL20160617085512306/17/16 08:55:31  5-MIN KAVL 171355Z 33008KT 300V010 10SM BKN060 26/17 A2989 2200 57 3900 340/08 310V020 RMK AO2 T02560167
03812KAVL AVL20160617090011406/17/16 09:00:31  5-MIN KAVL 171400Z 35008KT 10SM FEW049 SCT060 26/17 A2989 2200 59 3900 360/08 RMK AO2 T02560172
03812KAVL AVL20160617090510706/17/16 09:05:31  5-MIN KAVL 171405Z 35008KT 10SM SCT055 26/17 A2989 2200 55 4000 360/08 RMK AO2 T02610167
03812KAVL AVL20160617091010706/17/16 09:10:31  5-MIN KAVL 171410Z 31008KT 10SM SCT055 27/17 A2989 2200 55 4100 320/08 RMK AO2 T02670172
03812KAVL AVL20160617091511306/17/16 09:15:31  5-MIN KAVL 171415Z 35009G17KT 10SM FEW055 27/17 A2989 2200 53 4100 360/09G17 RMK AO2 T02670167
03812KAVL AVL20160617092011306/17/16 09:20:31  5-MIN KAVL 171420Z 36008G17KT 10SM SCT049 27/17 A2989 2200 53 4100 360/08G17 RMK AO2 T02670167
03812KAVL AVL20160617092511406/17/16 09:25:31  5-MIN KAVL 171425Z 35010KT 10SM FEW042 SCT050 27/17 A2989 2200 52 4100 360/10 RMK AO2 T02720167
03812KAVL AVL20160617093012106/17/16 09:30:31  5-MIN KAVL 171430Z 34012KT 10SM FEW040 SCT050 BKN055 27/16 A2988 2200 50 4100 340/12 RMK AO2 T02720161
03812KAVL AVL20160617093511406/17/16 09:35:31  5-MIN KAVL 171435Z 36012KT 10SM FEW040 SCT048 27/16 A2988 2200 48 4100 360/12 RMK AO2 T02720156
03812KAVL AVL20160617094011306/17/16 09:40:31  5-MIN KAVL 171440Z 34014G20KT 10SM SCT045 28/15 A2988 2200 43 4300 350/14G20 RMK AO2 T02830150
03812KAVL AVL20160617094512706/17/16 09:45:31  5-MIN KAVL 171445Z 33014G21KT 10SM FEW040 SCT048 SCT060 28/14 A2989 2200 42 4200 340/14G21 RMK AO2 T02780139
03812KAVL AVL20160617095013306/17/16 09:50:31  5-MIN KAVL 171450Z 35017G23KT 10SM FEW043 SCT055 28/14 A2989 2200 42 4200 360/17G23 RMK AO2 SLP089 T02780139 53011
03812KAVL AVL20160617095512006/17/16 09:55:31  5-MIN KAVL 171455Z 36012G23KT 10SM FEW047 FEW060 28/14 A2989 2200 40 4300 360/12G23 RMK AO2 T02830139
03812KAVL AVL20160617100012006/17/16 10:00:31  5-MIN KAVL 171500Z 34012G21KT 10SM FEW048 FEW060 28/14 A2989 2200 42 4200 350/12G21 RMK AO2 T02780139
03812KAVL AVL20160617100511306/17/16 10:05:31  5-MIN KAVL 171505Z 36011G18KT 10SM FEW060 28/14 A2989 2200 42 4200 010/11G18 RMK AO2 T02780139
03812KAVL AVL20160617101011306/17/16 10:10:31  5-MIN KAVL 171510Z 01011G18KT 10SM FEW060 28/15 A2989 2190 45 4200 020/11G18 RMK AO2 T02780150
03812KAVL AVL20160617101510706/17/16 10:15:31  5-MIN KAVL 171515Z 35011KT 10SM FEW060 28/15 A2989 2190 45 4200 360/11 RMK AO2 T02780150
03812KAVL AVL20160617102011306/17/16 10:20:31  5-MIN KAVL 171520Z 36012G18KT 10SM SCT060 28/16 A2990 2190 46 4200 010/12G18 RMK AO2 T02780156
03812KAVL AVL20160617102511306/17/16 10:25:31  5-MIN KAVL 171525Z 02012G18KT 10SM SCT060 27/16 A2990 2190 48 4100 020/12G18 RMK AO2 T02720156
03812KAVL AVL20160617103011306/17/16 10:30:31  5-MIN KAVL 171530Z 01012G18KT 10SM BKN060 27/16 A2990 2190 50 4100 010/12G18 RMK AO2 T02670156
03812KAVL AVL20160617103511306/17/16 10:35:31  5-MIN KAVL 171535Z 36013G19KT 10SM BKN060 27/16 A2991 2180 48 4100 010/13G19 RMK AO2 T02720156
03812KAVL AVL20160617104012006/17/16 10:40:31  5-MIN KAVL 171540Z 01012G19KT 10SM BKN060 BKN075 27/16 A2991 2180 48 4100 010/12G19 RMK AO2 T02720156
03812KAVL AVL20160617104510706/17/16 10:45:31  5-MIN KAVL 171545Z 34013KT 10SM BKN060 27/16 A2991 2180 48 4100 350/13 RMK AO2 T02720156
03812KAVL AVL20160617105012006/17/16 10:50:31  5-MIN KAVL 171550Z 34013G19KT 10SM BKN060 27/16 A2991 2180 48 4100 350/13G19 RMK AO2 SLP097 T02720156
03812KAVL AVL20160617105510706/17/16 10:55:31  5-MIN KAVL 171555Z 01012KT 10SM BKN060 27/16 A2991 2180 48 4100 010/12 RMK AO2 T02720156
03812KAVL AVL20160617110012006/17/16 11:00:31  5-MIN KAVL 171600Z 35014G21KT 10SM SCT060 BKN070 27/16 A2991 2170 48 4100 360/14G21 RMK AO2 T02720156
03812KAVL AVL20160617110512906/17/16 11:05:31  5-MIN KAVL 171605Z 02010G21KT 360V070 10SM SCT060 27/16 A2991 2170 48 4100 020/10G21 010V080 RMK AO2 T02720156
03812KAVL AVL20160617111011306/17/16 11:10:31  5-MIN KAVL 171610Z 02009G18KT 10SM SCT060 28/16 A2992 2170 46 4200 030/09G18 RMK AO2 T02780156
03812KAVL AVL20160617111512906/17/16 11:15:31  5-MIN KAVL 171615Z 36009G20KT 330V050 10SM SCT060 28/16 A2992 2170 46 4200 010/09G20 340V060 RMK AO2 T02780156
03812KAVL AVL20160617112011306/17/16 11:20:31  5-MIN KAVL 171620Z 03008G20KT 10SM FEW060 27/16 A2992 2170 48 4100 030/08G20 RMK AO2 T02720156
03812KAVL AVL20160617112511306/17/16 11:25:31  5-MIN KAVL 171625Z 36012G18KT 10SM FEW060 27/15 A2991 2170 46 4100 010/12G18 RMK AO2 T02720150
03812KAVL AVL20160617113011306/17/16 11:30:31  5-MIN KAVL 171630Z 35013G21KT 10SM FEW060 28/15 A2992 2170 45 4200 360/13G21 RMK AO2 T02780150
03812KAVL AVL20160617113511006/17/16 11:35:31  5-MIN KAVL 171635Z 02012G21KT 10SM CLR 27/15 A2992 2170 46 4100 020/12G21 RMK AO2 T02720150
03812KAVL AVL20160617114011006/17/16 11:40:31  5-MIN KAVL 171640Z 01013G20KT 10SM CLR 28/15 A2992 2170 45 4200 020/13G20 RMK AO2 T02780150
03812KAVL AVL20160617114511006/17/16 11:45:31  5-MIN KAVL 171645Z 01010G20KT 10SM CLR 27/15 A2992 2170 46 4100 010/10G20 RMK AO2 T02720150
03812KAVL AVL20160617115011706/17/16 11:50:31  5-MIN KAVL 171650Z 36013G22KT 10SM CLR 27/15 A2992 2170 46 4100 360/13G22 RMK AO2 SLP100 T02720150
03812KAVL AVL20160617115511006/17/16 11:55:31  5-MIN KAVL 171655Z 01012G22KT 10SM CLR 27/15 A2992 2170 46 4100 020/12G22 RMK AO2 T02720150
03812KAVL AVL20160617120011006/17/16 12:00:31  5-MIN KAVL 171700Z 34014G22KT 10SM CLR 28/15 A2992 2170 45 4200 350/14G22 RMK AO2 T02780150
03812KAVL AVL20160617120511006/17/16 12:05:31  5-MIN KAVL 171705Z 34017G23KT 10SM CLR 28/15 A2992 2170 43 4200 350/17G23 RMK AO2 T02830150
03812KAVL AVL20160617121011006/17/16 12:10:31  5-MIN KAVL 171710Z 35011G23KT 10SM CLR 28/14 A2992 2170 43 4200 350/11G23 RMK AO2 T02780144
03812KAVL AVL20160617121511006/17/16 12:15:31  5-MIN KAVL 171715Z 35014G22KT 10SM CLR 28/14 A2992 2170 43 4200 350/14G22 RMK AO2 T02780144
03812KAVL AVL20160617122011006/17/16 12:20:31  5-MIN KAVL 171720Z 35012G22KT 10SM CLR 28/14 A2992 2170 43 4200 360/12G22 RMK AO2 T02780144
03812KAVL AVL20160617122511006/17/16 12:25:31  5-MIN KAVL 171725Z 35013G19KT 10SM CLR 28/14 A2992 2170 43 4200 350/13G19 RMK AO2 T02780144
03812KAVL AVL20160617123011006/17/16 12:30:31  5-MIN KAVL 171730Z 35014G22KT 10SM CLR 28/14 A2992 2170 43 4200 360/14G22 RMK AO2 T02780144
03812KAVL AVL20160617123511006/17/16 12:35:31  5-MIN KAVL 171735Z 36012G22KT 10SM CLR 28/14 A2992 2160 42 4200 010/12G22 RMK AO2 T02780139
03812KAVL AVL20160617124011306/17/16 12:40:31  5-MIN KAVL 171740Z 34014G20KT 10SM FEW060 27/14 A2992 2160 43 4100 350/14G20 RMK AO2 T02720139
03812KAVL AVL20160617124511306/17/16 12:45:31  5-MIN KAVL 171745Z 34013G19KT 10SM SCT060 27/14 A2993 2160 43 4100 340/13G19 RMK AO2 T02720139
03812KAVL AVL20160617125015606/17/16 12:50:31  5-MIN KAVL 171750Z 35012G26KT 10SM BKN065 27/14 A2993 2160 43 4100 350/12G26 RMK AO2 PK WND 34026/1747 SLP102 T02720139 10283 20239 50004
03812KAVL AVL20160617125512006/17/16 12:55:31  5-MIN KAVL 171755Z 35015G26KT 10SM FEW050 BKN065 28/14 A2993 2160 42 4200 350/15G26 RMK AO2 T02780139
03812KAVL AVL20160617130011306/17/16 13:00:31  5-MIN KAVL 171800Z 36014G23KT 10SM BKN060 27/14 A2993 2160 43 4100 360/14G23 RMK AO2 T02720139
03812KAVL AVL20160617130511306/17/16 13:05:31  5-MIN KAVL 171805Z 35015G25KT 10SM BKN060 27/14 A2993 2160 43 4100 360/15G25 RMK AO2 T02720139
03812KAVL AVL20160617131012006/17/16 13:10:31  5-MIN KAVL 171810Z 35013G25KT 10SM FEW055 SCT070 28/13 A2992 2160 40 4200 360/13G25 RMK AO2 T02780133
03812KAVL AVL20160617131511306/17/16 13:15:31  5-MIN KAVL 171815Z 35015G23KT 10SM FEW065 28/14 A2993 2160 42 4200 360/15G23 RMK AO2 T02780139
03812KAVL AVL20160617132011306/17/16 13:20:31  5-MIN KAVL 171820Z 35011G23KT 10SM FEW060 28/14 A2992 2160 42 4200 360/11G23 RMK AO2 T02780139
03812KAVL AVL20160617132511306/17/16 13:25:31  5-MIN KAVL 171825Z 35014G21KT 10SM FEW060 28/13 A2993 2160 40 4200 350/14G21 RMK AO2 T02780133
03812KAVL AVL20160617133011306/17/16 13:30:31  5-MIN KAVL 171830Z 34019G24KT 10SM FEW065 28/14 A2993 2160 42 4100 350/19G24 RMK AO2 T02780139
03812KAVL AVL20160617133511306/17/16 13:35:31  5-MIN KAVL 171835Z 35013G24KT 10SM SCT065 27/13 A2993 2160 43 4000 360/13G24 RMK AO2 T02670133
03812KAVL AVL20160617134011306/17/16 13:40:31  5-MIN KAVL 171840Z 36015G21KT 10SM BKN070 27/13 A2993 2160 43 4000 360/15G21 RMK AO2 T02670133
03812KAVL AVL20160617134511306/17/16 13:45:31  5-MIN KAVL 171845Z 35013G21KT 10SM BKN070 27/13 A2993 2160 42 4100 360/13G21 RMK AO2 T02720133
03812KAVL AVL20160617135011406/17/16 13:50:31  5-MIN KAVL 171850Z 34019KT 10SM BKN070 27/14 A2993 2160 45 4000 340/19 RMK AO2 SLP104 T02670139
03812KAVL AVL20160617135510706/17/16 13:55:31  5-MIN KAVL 171855Z 34015KT 10SM BKN070 27/14 A2992 2160 45 4100 350/15 RMK AO2 T02720144
03812KAVL AVL20160617140011306/17/16 14:00:31  5-MIN KAVL 171900Z 35014G24KT 10SM SCT070 27/14 A2992 2170 43 4100 350/14G24 RMK AO2 T02720139
03812KAVL AVL20160617140511306/17/16 14:05:31  5-MIN KAVL 171905Z 35017G24KT 10SM SCT070 27/14 A2992 2170 43 4100 350/17G24 RMK AO2 T02720139
03812KAVL AVL20160617141011306/17/16 14:10:31  5-MIN KAVL 171910Z 34015G23KT 10SM FEW070 27/14 A2991 2170 43 4100 350/15G23 RMK AO2 T02720139
03812KAVL AVL20160617141511806/17/16 14:15:31  5-MIN KAVL 171915Z AUTO 34017G24KT 10SM FEW070 28/14 A2991 2170 42 4200 340/17G24 RMK AO2 T02780139
03812KAVL AVL20160617142011506/17/16 14:20:31  5-MIN KAVL 171920Z AUTO 34016G24KT 10SM CLR 27/14 A2991 2170 45 4100 340/16G24 RMK AO2 T02720144
03812KAVL AVL20160617142511506/17/16 14:25:31  5-MIN KAVL 171925Z AUTO 35015G23KT 10SM CLR 28/14 A2992 2170 42 4200 360/15G23 RMK AO2 T02780139
03812KAVL AVL20160617143011506/17/16 14:30:31  5-MIN KAVL 171930Z AUTO 36014G23KT 10SM CLR 27/13 A2991 2170 42 4100 360/14G23 RMK AO2 T02720133
03812KAVL AVL20160617143511506/17/16 14:35:31  5-MIN KAVL 171935Z AUTO 35015G21KT 10SM CLR 27/13 A2991 2180 42 4100 360/15G21 RMK AO2 T02720133
03812KAVL AVL20160617144011506/17/16 14:40:31  5-MIN KAVL 171940Z AUTO 33015G21KT 10SM CLR 27/14 A2991 2180 43 4100 340/15G21 RMK AO2 T02720139
03812KAVL AVL20160617144511506/17/16 14:45:31  5-MIN KAVL 171945Z AUTO 32017G24KT 10SM CLR 28/14 A2991 2180 42 4200 330/17G24 RMK AO2 T02780139
03812KAVL AVL20160617145012206/17/16 14:50:31  5-MIN KAVL 171950Z AUTO 35013G24KT 10SM CLR 27/14 A2991 2180 43 4100 360/13G24 RMK AO2 SLP099 T02720139
03812KAVL AVL20160617145511006/17/16 14:55:31  5-MIN KAVL 171955Z 35014G19KT 10SM CLR 27/14 A2991 2180 45 4100 360/14G19 RMK AO2 T02720144
03812KAVL AVL20160617150011006/17/16 15:00:31  5-MIN KAVL 172000Z 36014G22KT 10SM CLR 27/14 A2990 2180 43 4100 360/14G22 RMK AO2 T02720139
03812KAVL AVL20160617150511006/17/16 15:05:31  5-MIN KAVL 172005Z 35014G22KT 10SM CLR 27/14 A2990 2180 43 4100 360/14G22 RMK AO2 T02720139
03812KAVL AVL20160617151011006/17/16 15:10:31  5-MIN KAVL 172010Z 34016G21KT 10SM CLR 27/14 A2990 2190 45 4100 350/16G21 RMK AO2 T02720144
03812KAVL AVL20160617151511006/17/16 15:15:31  5-MIN KAVL 172015Z 36012G21KT 10SM CLR 27/14 A2990 2190 45 4100 010/12G21 RMK AO2 T02720144
03812KAVL AVL20160617152010406/17/16 15:20:31  5-MIN KAVL 172020Z 36011KT 10SM CLR 27/14 A2990 2190 43 4100 010/11 RMK AO2 T02720139
03812KAVL AVL20160617152511006/17/16 15:25:31  5-MIN KAVL 172025Z 34017G22KT 10SM CLR 28/14 A2989 2190 43 4200 340/17G22 RMK AO2 T02780144
03812KAVL AVL20160617153011006/17/16 15:30:31  5-MIN KAVL 172030Z 33019G24KT 10SM CLR 27/14 A2990 2190 43 4100 340/19G24 RMK AO2 T02720139
03812KAVL AVL20160617153511006/17/16 15:35:31  5-MIN KAVL 172035Z 34016G24KT 10SM CLR 27/14 A2990 2190 43 4100 340/16G24 RMK AO2 T02720139
03812KAVL AVL20160617154011006/17/16 15:40:31  5-MIN KAVL 172040Z 36011G19KT 10SM CLR 27/14 A2990 2190 45 4100 360/11G19 RMK AO2 T02720144
03812KAVL AVL20160617154511006/17/16 15:45:31  5-MIN KAVL 172045Z 35014G22KT 10SM CLR 27/14 A2990 2190 45 4100 360/14G22 RMK AO2 T02670139
03812KAVL AVL20160617155012306/17/16 15:50:31  5-MIN KAVL 172050Z 33014G22KT 10SM CLR 27/14 A2990 2190 43 4100 340/14G22 RMK AO2 SLP094 T02720139 51012
03812KAVL AVL20160617155511006/17/16 15:55:31  5-MIN KAVL 172055Z 35012G22KT 10SM CLR 27/14 A2990 2190 45 4100 360/12G22 RMK AO2 T02720144
03812KAVL AVL20160617160011006/17/16 16:00:31  5-MIN KAVL 172100Z 33018G23KT 10SM CLR 27/14 A2990 2190 45 4100 330/18G23 RMK AO2 T02720144
03812KAVL AVL20160617160510406/17/16 16:05:31  5-MIN KAVL 172105Z 33018KT 10SM CLR 27/14 A2989 2190 45 4100 340/18 RMK AO2 T02720144
03812KAVL AVL20160617161010406/17/16 16:10:31  5-MIN KAVL 172110Z 33018KT 10SM CLR 27/14 A2989 2190 45 4100 330/18 RMK AO2 T02720144
03812KAVL AVL20160617161510406/17/16 16:15:31  5-MIN KAVL 172115Z 33016KT 10SM CLR 27/14 A2989 2190 45 4100 330/16 RMK AO2 T02720144
03812KAVL AVL20160617162011006/17/16 16:20:31  5-MIN KAVL 172120Z 35014G22KT 10SM CLR 27/14 A2990 2190 45 4100 360/14G22 RMK AO2 T02720144
03812KAVL AVL20160617162511006/17/16 16:25:31  5-MIN KAVL 172125Z 35014G21KT 10SM CLR 27/14 A2990 2190 43 4100 360/14G21 RMK AO2 T02720139
03812KAVL AVL20160617163011006/17/16 16:30:31  5-MIN KAVL 172130Z 34015G19KT 10SM CLR 27/14 A2990 2190 46 4100 350/15G19 RMK AO2 T02670144
03812KAVL AVL20160617163511006/17/16 16:35:31  5-MIN KAVL 172135Z 34012G21KT 10SM CLR 27/14 A2990 2190 45 4100 340/12G21 RMK AO2 T02720144
03812KAVL AVL20160617164011006/17/16 16:40:31  5-MIN KAVL 172140Z 33013G21KT 10SM CLR 27/15 A2990 2190 46 4100 340/13G21 RMK AO2 T02720150
03812KAVL AVL20160617164510406/17/16 16:45:31  5-MIN KAVL 172145Z 32010KT 10SM CLR 27/15 A2990 2190 46 4100 330/10 RMK AO2 T02720150
03812KAVL AVL20160617165011706/17/16 16:50:31  5-MIN KAVL 172150Z 33012G18KT 10SM CLR 27/15 A2990 2190 46 4100 340/12G18 RMK AO2 SLP093 T02720150
03812KAVL AVL20160617165510706/17/16 16:55:31  5-MIN KAVL 172155Z 33015KT 10SM FEW055 27/15 A2990 2180 46 4100 330/15 RMK AO2 T02720150
03812KAVL AVL20160617170010706/17/16 17:00:31  5-MIN KAVL 172200Z 32014KT 10SM FEW055 27/15 A2990 2180 46 4100 320/14 RMK AO2 T02720150
03812KAVL AVL20160617170510706/17/16 17:05:31  5-MIN KAVL 172205Z 32011KT 10SM SCT060 27/15 A2990 2190 46 4100 330/11 RMK AO2 T02720150
03812KAVL AVL20160617171011406/17/16 17:10:31  5-MIN KAVL 172210Z 32012KT 10SM FEW050 SCT065 26/15 A2991 2180 50 4000 330/12 RMK AO2 T02610150
03812KAVL AVL20160617171511406/17/16 17:15:31  5-MIN KAVL 172215Z 33010KT 10SM FEW050 SCT060 27/15 A2991 2180 46 4100 340/10 RMK AO2 T02720150
03812KAVL AVL20160617172011406/17/16 17:20:31  5-MIN KAVL 172220Z 33011KT 10SM SCT048 SCT060 28/15 A2991 2180 45 4200 340/11 RMK AO2 T02780150
03812KAVL AVL20160617172512006/17/16 17:25:31  5-MIN KAVL 172225Z 33014G19KT 10SM SCT048 BKN060 28/15 A2992 2170 45 4200 340/14G19 RMK AO2 T02780150
03812KAVL AVL20160617173011406/17/16 17:30:31  5-MIN KAVL 172230Z 33012KT 10SM SCT048 BKN060 27/14 A2992 2170 45 4100 330/12 RMK AO2 T02720144
03812KAVL AVL20160617173510706/17/16 17:35:31  5-MIN KAVL 172235Z 34012KT 10SM BKN048 27/14 A2992 2170 46 4000 340/12 RMK AO2 T02670144
03812KAVL AVL20160617174010706/17/16 17:40:31  5-MIN KAVL 172240Z 34009KT 10SM BKN047 27/15 A2992 2170 48 4000 350/09 RMK AO2 T02670150
03812KAVL AVL20160617174511306/17/16 17:45:31  5-MIN KAVL 172245Z 34013G17KT 10SM SCT047 27/15 A2992 2170 48 4000 340/13G17 RMK AO2 T02670150
03812KAVL AVL20160617175011406/17/16 17:50:31  5-MIN KAVL 172250Z 33012KT 10SM FEW047 27/15 A2992 2160 48 4000 340/12 RMK AO2 SLP101 T02670150
03812KAVL AVL20160617175510706/17/16 17:55:31  5-MIN KAVL 172255Z 34013KT 10SM FEW045 26/14 A2993 2160 48 4000 340/13 RMK AO2 T02610144
03812KAVL AVL20160617180010706/17/16 18:00:31  5-MIN KAVL 172300Z 33011KT 10SM FEW045 27/15 A2993 2160 48 4000 330/11 RMK AO2 T02670150
03812KAVL AVL20160617180510706/17/16 18:05:31  5-MIN KAVL 172305Z 34012KT 10SM FEW070 27/15 A2993 2150 48 4000 340/12 RMK AO2 T02670150
03812KAVL AVL20160617181011406/17/16 18:10:31  5-MIN KAVL 172310Z 33011KT 10SM SCT065 SCT080 27/14 A2994 2150 46 4000 340/11 RMK AO2 T02670144
03812KAVL AVL20160617181510706/17/16 18:15:31  5-MIN KAVL 172315Z 32011KT 10SM BKN060 26/14 A2994 2150 49 3900 330/11 RMK AO2 T02560144
03812KAVL AVL20160617182011406/17/16 18:20:31  5-MIN KAVL 172320Z 34009KT 10SM BKN055 BKN070 26/14 A2995 2140 48 3900 340/09 RMK AO2 T02610144
03812KAVL AVL20160617182511406/17/16 18:25:31  5-MIN KAVL 172325Z 35011KT 10SM BKN055 BKN070 26/14 A2995 2140 49 3900 350/11 RMK AO2 T02560144
03812KAVL AVL20160617183011406/17/16 18:30:31  5-MIN KAVL 172330Z 35011KT 10SM BKN055 OVC070 26/14 A2995 2140 49 3900 350/11 RMK AO2 T02560144
03812KAVL AVL20160617183511406/17/16 18:35:31  5-MIN KAVL 172335Z 34010KT 10SM SCT050 OVC060 26/14 A2996 2130 49 3900 350/10 RMK AO2 T02560144
03812KAVL AVL20160617184011406/17/16 18:40:31  5-MIN KAVL 172340Z 34010KT 10SM BKN055 OVC085 26/14 A2996 2130 49 3900 350/10 RMK AO2 T02560144
03812KAVL AVL20160617184511406/17/16 18:45:31  5-MIN KAVL 172345Z 35008KT 10SM BKN060 OVC085 26/14 A2996 2130 49 3900 360/08 RMK AO2 T02560144
03812KAVL AVL20160617185013906/17/16 18:50:31  5-MIN KAVL 172350Z 35008KT 10SM BKN055 OVC085 26/14 A2997 2120 49 3900 360/08 RMK AO2 SLP116 T02560144 10278 20256 58008
03812KAVL AVL20160617185511406/17/16 18:55:31  5-MIN KAVL 172355Z 34008KT 10SM BKN060 OVC080 26/14 A2997 2120 49 3900 350/08 RMK AO2 T02560144
03812KAVL AVL20160617190012106/17/16 19:00:31  5-MIN KAVL 180000Z 35009KT 10SM SCT050 BKN060 OVC085 26/14 A2997 2120 49 3900 350/09 RMK AO2 T02560144
03812KAVL AVL20160617190513706/17/16 19:05:31  5-MIN KAVL 180005Z 35008KT 10SM -RA BKN050 BKN065 OVC080 25/15 A2997 2120 53 3800 350/08 RMK AO2 RAB02 P0000 T02500150
03812KAVL AVL20160617191013706/17/16 19:10:31  5-MIN KAVL 180010Z 34009KT 10SM -RA SCT050 BKN065 OVC085 25/15 A2998 2110 53 3800 350/09 RMK AO2 RAB02 P0000 T02500150
03812KAVL AVL20160617191513706/17/16 19:15:31  5-MIN KAVL 180015Z 35008KT 10SM -RA BKN048 BKN065 OVC080 24/16 A2998 2110 57 3700 350/08 RMK AO2 RAB02 P0000 T02440156
03812KAVL AVL20160617192013706/17/16 19:20:31  5-MIN KAVL 180020Z 35007KT 10SM -RA BKN047 BKN060 OVC070 24/16 A2998 2110 57 3700 360/07 RMK AO2 RAB02 P0000 T02440156
03812KAVL AVL20160617192513006/17/16 19:25:31  5-MIN KAVL 180025Z 34008KT 10SM -RA BKN047 OVC060 25/16 A2998 2110 55 3800 340/08 RMK AO2 RAB02 P0000 T02500156
03812KAVL AVL20160617193012906/17/16 19:30:31  5-MIN KAVL 180030Z 35008KT 10SM BKN045 OVC055 24/16 A2999 2110 57 3700 350/08 RMK AO2 RAB02E27 P0000 T02440156
03812KAVL AVL20160617193512906/17/16 19:35:31  5-MIN KAVL 180035Z 34008KT 10SM BKN045 OVC060 24/16 A2999 2110 57 3700 350/08 RMK AO2 RAB02E27 P0000 T02440156
03812KAVL AVL20160617194012206/17/16 19:40:31  5-MIN KAVL 180040Z 35006KT 10SM OVC045 24/15 A2999 2100 55 3700 350/06 RMK AO2 RAB02E27 P0000 T02440150
03812KAVL AVL20160617194512206/17/16 19:45:31  5-MIN KAVL 180045Z 36006KT 10SM OVC043 25/15 A2999 2100 53 3800 360/06 RMK AO2 RAB02E27 P0000 T02500150
03812KAVL AVL20160617195012906/17/16 19:50:31  5-MIN KAVL 180050Z 01006KT 10SM OVC043 25/15 A2999 2100 53 3800 020/06 RMK AO2 RAB02E27 SLP126 P0000 T02500150
03812KAVL AVL20160617195510706/17/16 19:55:31  5-MIN KAVL 180055Z 01007KT 10SM OVC043 25/15 A2999 2100 53 3800 020/07 RMK AO2 T02500150
03812KAVL AVL20160617200010706/17/16 20:00:31  5-MIN KAVL 180100Z VRB06KT 10SM OVC041 24/15 A2999 2100 55 3700 VRB/06 RMK AO2 T02440150
03812KAVL AVL20160617200512306/17/16 20:05:31  5-MIN KAVL 180105Z 04007KT 010V080 10SM OVC041 24/16 A2999 2100 57 3700 050/07 020V090 RMK AO2 T02440156
03812KAVL AVL20160617201012306/17/16 20:10:31  5-MIN KAVL 180110Z 04007KT 020V100 10SM OVC041 24/16 A3000 2100 59 3600 050/07 030V110 RMK AO2 T02390156
03812KAVL AVL20160617201512906/17/16 20:15:31  5-MIN KAVL 180115Z 05011G20KT 020V100 10SM OVC041 24/16 A3000 2090 59 3600 060/11G20 030V110 RMK AO2 T02390156
03812KAVL AVL20160617202012006/17/16 20:20:31  5-MIN KAVL 180120Z VRB06G20KT 10SM BKN039 OVC049 23/15 A3001 2090 59 3600 VRB/06G20 RMK AO2 T02330150
03812KAVL AVL20160617202512706/17/16 20:25:31  5-MIN KAVL 180125Z VRB05G17KT 10SM FEW033 BKN040 OVC049 23/15 A3001 2080 59 3600 VRB/05G17 RMK AO2 T02330150
03812KAVL AVL20160617203014306/17/16 20:30:31  5-MIN KAVL 180130Z 04007G17KT 360V090 10SM BKN038 BKN049 OVC110 23/15 A3001 2080 59 3600 050/07G17 010V100 RMK AO2 T02330150
03812KAVL AVL20160617203513706/17/16 20:35:31  5-MIN KAVL 180135Z 08007KT 040V130 10SM FEW033 BKN049 OVC110 23/15 A3001 2080 61 3500 080/07 050V140 RMK AO2 T02280150
03812KAVL AVL20160617204012106/17/16 20:40:31  5-MIN KAVL 180140Z 08008KT 10SM FEW033 BKN044 OVC110 23/15 A3002 2080 61 3500 090/08 RMK AO2 T02280150
03812KAVL AVL20160617204513706/17/16 20:45:31  5-MIN KAVL 180145Z 08007KT 050V120 10SM FEW033 BKN047 OVC110 23/15 A3002 2070 61 3500 090/07 060V130 RMK AO2 T02280150
03812KAVL AVL20160617205012806/17/16 20:50:31  5-MIN KAVL 180150Z VRB05KT 10SM FEW033 BKN047 OVC110 23/15 A3002 2070 61 3500 VRB/05 RMK AO2 SLP136 T02280150
03812KAVL AVL20160617205513006/17/16 20:55:31  5-MIN KAVL 180155Z 05007KT 340V130 10SM BKN049 OVC110 22/15 A3003 2070 63 3400 060/07 350V140 RMK AO2 T02220150
03812KAVL AVL20160617210011406/17/16 21:00:31  5-MIN KAVL 180200Z VRB05KT 10SM BKN049 OVC110 22/15 A3003 2060 63 3400 VRB/05 RMK AO2 T02220150
03812KAVL AVL20160617210512306/17/16 21:05:31  5-MIN KAVL 180205Z 05007KT 010V100 10SM OVC049 22/15 A3003 2060 63 3400 060/07 020V110 RMK AO2 T02220150
03812KAVL AVL20160617211010706/17/16 21:10:31  5-MIN KAVL 180210Z VRB03KT 10SM OVC055 22/15 A3004 2060 63 3400 VRB/03 RMK AO2 T02220150
03812KAVL AVL20160617211511406/17/16 21:15:31  5-MIN KAVL 180215Z VRB06KT 10SM SCT050 OVC065 22/15 A3004 2050 63 3400 VRB/06 RMK AO2 T02220150
03812KAVL AVL20160617212010706/17/16 21:20:31  5-MIN KAVL 180220Z VRB06KT 10SM OVC060 22/15 A3005 2050 63 3400 VRB/06 RMK AO2 T02220150
03812KAVL AVL20160617212510706/17/16 21:25:31  5-MIN KAVL 180225Z VRB03KT 10SM OVC060 22/15 A3005 2050 63 3400 VRB/03 RMK AO2 T02220150
03812KAVL AVL20160617213010706/17/16 21:30:31  5-MIN KAVL 180230Z VRB04KT 10SM OVC060 22/15 A3005 2050 63 3400 VRB/04 RMK AO2 T02220150
03812KAVL AVL20160617213511406/17/16 21:35:31  5-MIN KAVL 180235Z 00000KT 10SM FEW026 OVC060 22/15 A3005 2040 63 3400 000/00 RMK AO2 T02220150
03812KAVL AVL20160617214011406/17/16 21:40:31  5-MIN KAVL 180240Z VRB04KT 10SM FEW026 OVC060 22/15 A3006 2040 63 3400 VRB/04 RMK AO2 T02220150
03812KAVL AVL20160617214511906/17/16 21:45:31  5-MIN KAVL 180245Z AUTO VRB03KT 10SM SCT026 OVC060 22/15 A3006 2040 63 3400 VRB/03 RMK AO2 T02220150
03812KAVL AVL20160617215010906/17/16 21:50:31  5-MIN KAVL 180250Z AUTO VRB05KT 10SM BKN026 OVC060 22/15 A3006 2040 65 3300 VRB/05 RMK AO2
03812KAVL AVL20160617215511906/17/16 21:55:31  5-MIN KAVL 180255Z AUTO 00000KT 10SM BKN026 OVC060 22/15 A3006 2030 65 3300 000/00 RMK AO2 T02170150
03812KAVL AVL20160617220010906/17/16 22:00:31  5-MIN KAVL 180300Z AUTO 10SM SCT026 OVC065 22/15 A3007 2030 65 3300 M /M RMK AO2 T02170150
03812KAVL AVL20160617220511906/17/16 22:05:31  5-MIN KAVL 180305Z AUTO 00000KT 10SM SCT026 OVC065 22/15 A3007 2030 65 3300 000/00 RMK AO2 T02170150
03812KAVL AVL20160617221012606/17/16 22:10:31  5-MIN KAVL 180310Z AUTO 11005KT 10SM SCT026 BKN070 OVC090 22/15 A3007 2030 65 3300 120/05 RMK AO2 T02170150
03812KAVL AVL20160617221512606/17/16 22:15:31  5-MIN KAVL 180315Z AUTO VRB03KT 10SM FEW026 BKN075 OVC090 22/15 A3006 2040 65 3300 VRB/03 RMK AO2 T02170150
03812KAVL AVL20160617222012606/17/16 22:20:31  5-MIN KAVL 180320Z AUTO VRB05KT 10SM SCT070 BKN080 BKN095 21/15 A3006 2030 68 3200 VRB/05 RMK AO2 T02110150
03812KAVL AVL20160617222512606/17/16 22:25:31  5-MIN KAVL 180325Z AUTO VRB05KT 10SM SCT070 BKN095 OVC110 22/14 A3006 2030 63 3300 VRB/05 RMK AO2 T02170144
03812KAVL AVL20160617223012606/17/16 22:30:31  5-MIN KAVL 180330Z AUTO VRB04KT 10SM FEW070 BKN095 OVC110 22/14 A3007 2030 63 3300 VRB/04 RMK AO2 T02170144
03812KAVL AVL20160617223514206/17/16 22:35:31  5-MIN KAVL 180335Z AUTO 06008KT 020V100 10SM FEW065 BKN095 OVC110 22/14 A3007 2030 63 3300 070/08 030V110 RMK AO2 T02170144
03812KAVL AVL20160617224012606/17/16 22:40:31  5-MIN KAVL 180340Z AUTO 10005KT 10SM FEW032 BKN095 BKN110 22/14 A3007 2030 63 3300 100/05 RMK AO2 T02170144
03812KAVL AVL20160617224512606/17/16 22:45:31  5-MIN KAVL 180345Z AUTO VRB05KT 10SM BKN029 BKN095 OVC110 22/15 A3008 2020 65 3300 VRB/05 RMK AO2 T02170150
03812KAVL AVL20160617225011606/17/16 22:50:31  5-MIN KAVL 180350Z AUTO VRB06KT 10SM BKN029 BKN090 OVC110 22/15 A3008 2020 65 3300 VRB/06 RMK AO2
03812KAVL AVL20160617225512606/17/16 22:55:31  5-MIN KAVL 180355Z AUTO 08004KT 10SM BKN029 BKN035 OVC110 22/15 A3008 2020 65 3300 090/04 RMK AO2 T02170150
03812KAVL AVL20160617230013506/17/16 23:00:31  5-MIN KAVL 180400Z AUTO 09007KT 070V130 10SM BKN029 OVC035 22/15 A3008 2020 65 3300 100/07 080V140 RMK AO2 T02170150
03812KAVL AVL20160617230511906/17/16 23:05:31  5-MIN KAVL 180405Z AUTO VRB06KT 10SM BKN029 OVC037 22/14 A3008 2020 63 3300 VRB/06 RMK AO2 T02170144
03812KAVL AVL20160617231014206/17/16 23:10:31  5-MIN KAVL 180410Z AUTO 09007KT 040V130 10SM SCT027 BKN035 OVC045 21/14 A3008 2020 65 3200 100/07 050V140 RMK AO2 T02110144
03812KAVL AVL20160617231512606/17/16 23:15:31  5-MIN KAVL 180415Z AUTO 11007KT 10SM SCT027 BKN035 OVC090 21/14 A3009 2010 65 3200 110/07 RMK AO2 T02110144
03812KAVL AVL20160617232012606/17/16 23:20:31  5-MIN KAVL 180420Z AUTO VRB06KT 10SM SCT029 BKN037 OVC090 21/14 A3009 2010 65 3200 VRB/06 RMK AO2 T02110144
03812KAVL AVL20160617232512606/17/16 23:25:31  5-MIN KAVL 180425Z AUTO VRB06KT 10SM FEW031 BKN090 OVC100 21/14 A3009 2010 63 3200 VRB/06 RMK AO2 T02110139
03812KAVL AVL20160617233013206/17/16 23:30:31  5-MIN KAVL 180430Z AUTO VRB06G14KT 10SM FEW027 BKN090 OVC100 21/14 A3009 2010 65 3200 VRB/06G14 RMK AO2 T02060139
03812KAVL AVL20160617233514106/17/16 23:35:31  5-MIN KAVL 180435Z AUTO 09007G14KT 050V130 10SM FEW027 OVC100 21/13 A3010 2010 63 3100 100/07G14 060V140 RMK AO2 T02060133
03812KAVL AVL20160617234011906/17/16 23:40:31  5-MIN KAVL 180440Z AUTO VRB05KT 10SM FEW027 OVC095 21/13 A3010 2000 63 3100 VRB/05 RMK AO2 T02060133
03812KAVL AVL20160617234511206/17/16 23:45:31  5-MIN KAVL 180445Z AUTO VRB03KT 10SM OVC095 21/13 A3010 2000 63 3100 VRB/03 RMK AO2 T02060133
03812KAVL AVL20160617235012906/17/16 23:50:31  5-MIN KAVL 180450Z AUTO VRB04KT 10SM OVC095 21/13 A3010 2000 63 3100 VRB/04 RMK AO2 SLP164 T02060133 402830200
03812KAVL AVL20160617235511906/17/16 23:55:31  5-MIN KAVL 180455Z AUTO VRB04KT 10SM FEW029 OVC095 21/13 A3010 2000 63 3100 VRB/04 RMK AO2 T02060133
03812KAVL AVL20160618000011906/18/16 00:00:31  5-MIN KAVL 180500Z AUTO VRB03KT 10SM FEW029 OVC100 21/14 A3010 2000 65 3100 VRB/03 RMK AO2 T02060139
03812KAVL AVL20160618000511906/18/16 00:05:31  5-MIN KAVL 180505Z AUTO VRB05KT 10SM FEW029 OVC100 20/13 A3010 2000 65 3100 VRB/05 RMK AO2 T02000133
03812KAVL AVL20160618001012606/18/16 00:10:31  5-MIN KAVL 180510Z AUTO 11003KT 10SM FEW028 FEW065 BKN100 20/13 A3011 2000 65 3100 120/03 RMK AO2 T02000133
03812KAVL AVL20160618001512606/18/16 00:15:31  5-MIN KAVL 180515Z AUTO 00000KT 10SM FEW028 SCT034 BKN100 20/13 A3010 2000 65 3100 000/00 RMK AO2 T02000133
03812KAVL AVL20160618002012606/18/16 00:20:31  5-MIN KAVL 180520Z AUTO VRB03KT 10SM SCT030 BKN041 BKN100 20/13 A3010 2000 65 3100 VRB/03 RMK AO2 T02000133
03812KAVL AVL20160618002512606/18/16 00:25:31  5-MIN KAVL 180525Z AUTO 14004KT 10SM SCT030 BKN041 BKN100 20/13 A3011 2000 65 3100 140/04 RMK AO2 T02000133
03812KAVL AVL20160618003012606/18/16 00:30:31  5-MIN KAVL 180530Z AUTO VRB03KT 10SM FEW028 SCT033 BKN041 20/13 A3011 2000 65 3100 VRB/03 RMK AO2 T02000133
03812KAVL AVL20160618003511906/18/16 00:35:31  5-MIN KAVL 180535Z AUTO 12003KT 10SM FEW028 OVC039 20/13 A3011 2000 65 3100 130/03 RMK AO2 T02000133
03812KAVL AVL20160618004011906/18/16 00:40:31  5-MIN KAVL 180540Z AUTO 12003KT 10SM SCT028 OVC039 20/13 A3011 2000 65 3100 120/03 RMK AO2 T02000133
03812KAVL AVL20160618004511906/18/16 00:45:31  5-MIN KAVL 180545Z AUTO VRB03KT 10SM SCT029 OVC039 20/13 A3011 2000 65 3100 VRB/03 RMK AO2 T02000133
03812KAVL AVL20160618005010906/18/16 00:50:31  5-MIN KAVL 180550Z AUTO 13003KT 10SM BKN029 OVC039 20/14 A3011 2000 67 3100 130/03 RMK AO2
03812KAVL AVL20160618005511906/18/16 00:55:31  5-MIN KAVL 180555Z AUTO 10006KT 10SM BKN029 OVC039 20/13 A3011 1990 65 3100 110/06 RMK AO2 T02000133
03812KAVL AVL20160618010011906/18/16 01:00:31  5-MIN KAVL 180600Z AUTO VRB03KT 10SM BKN029 OVC038 20/14 A3011 1990 67 3100 VRB/03 RMK AO2 T02000139
03812KAVL AVL20160618010511906/18/16 01:05:31  5-MIN KAVL 180605Z AUTO VRB04KT 10SM BKN028 OVC038 20/14 A3011 1990 67 3100 VRB/04 RMK AO2 T02000139
03812KAVL AVL20160618011011906/18/16 01:10:31  5-MIN KAVL 180610Z AUTO 00000KT 10SM BKN028 OVC036 20/14 A3011 1990 67 3100 000/00 RMK AO2 T02000139
03812KAVL AVL20160618011511906/18/16 01:15:31  5-MIN KAVL 180615Z AUTO 00000KT 10SM BKN028 OVC036 20/14 A3011 1990 67 3100 000/00 RMK AO2 T02000139
03812KAVL AVL20160618012011906/18/16 01:20:31  5-MIN KAVL 180620Z AUTO VRB04KT 10SM BKN028 OVC036 20/14 A3011 1990 67 3100 VRB/04 RMK AO2 T02000139
03812KAVL AVL20160618012511906/18/16 01:25:31  5-MIN KAVL 180625Z AUTO VRB03KT 10SM BKN028 OVC036 20/14 A3011 1990 67 3100 VRB/03 RMK AO2 T02000139
03812KAVL AVL20160618013011906/18/16 01:30:31  5-MIN KAVL 180630Z AUTO 07003KT 10SM BKN028 OVC036 20/13 A3011 1990 65 3100 070/03 RMK AO2 T02000133
03812KAVL AVL20160618013511206/18/16 01:35:31  5-MIN KAVL 180635Z AUTO VRB04KT 10SM OVC033 20/13 A3011 1990 65 3100 VRB/04 RMK AO2 T02000133
03812KAVL AVL20160618014011906/18/16 01:40:31  5-MIN KAVL 180640Z AUTO VRB04KT 10SM SCT026 OVC033 20/13 A3011 1990 65 3100 VRB/04 RMK AO2 T02000133
03812KAVL AVL20160618014511906/18/16 01:45:31  5-MIN KAVL 180645Z AUTO VRB04KT 10SM SCT026 OVC034 19/13 A3011 1990 67 3000 VRB/04 RMK AO2 T01940133
03812KAVL AVL20160618015010906/18/16 01:50:31  5-MIN KAVL 180650Z AUTO VRB04KT 10SM BKN026 OVC034 19/13 A3011 1990 67 3000 VRB/04 RMK AO2
03812KAVL AVL20160618015511906/18/16 01:55:31  5-MIN KAVL 180655Z AUTO 03004KT 10SM BKN026 OVC034 19/13 A3011 1990 67 3000 040/04 RMK AO2 T01940133
03812KAVL AVL20160618020011906/18/16 02:00:31  5-MIN KAVL 180700Z AUTO VRB03KT 10SM BKN026 OVC034 19/13 A3011 1990 67 3000 VRB/03 RMK AO2 T01940133
03812KAVL AVL20160618020512606/18/16 02:05:31  5-MIN KAVL 180705Z AUTO VRB03KT 10SM FEW023 BKN029 OVC037 19/13 A3011 1990 67 3000 VRB/03 RMK AO2 T01940133
03812KAVL AVL20160618021012606/18/16 02:10:31  5-MIN KAVL 180710Z AUTO VRB03KT 10SM BKN027 BKN034 OVC041 19/14 A3011 1990 70 3000 VRB/03 RMK AO2 T01940139
03812KAVL AVL20160618021511906/18/16 02:15:31  5-MIN KAVL 180715Z AUTO 03004KT 10SM BKN027 OVC033 19/14 A3012 1990 70 3000 040/04 RMK AO2 T01940139
03812KAVL AVL20160618022011906/18/16 02:20:31  5-MIN KAVL 180720Z AUTO VRB03KT 10SM BKN025 OVC033 19/14 A3012 1990 70 3000 VRB/03 RMK AO2 T01940139
03812KAVL AVL20160618022512606/18/16 02:25:31  5-MIN KAVL 180725Z AUTO 00000KT 10SM BKN023 BKN030 OVC037 19/14 A3012 1980 70 3000 000/00 RMK AO2 T01940139
03812KAVL AVL20160618023011906/18/16 02:30:31  5-MIN KAVL 180730Z AUTO VRB03KT 10SM BKN023 OVC030 19/14 A3012 1990 70 3000 VRB/03 RMK AO2 T01940139
03812KAVL AVL20160618023511906/18/16 02:35:31  5-MIN KAVL 180735Z AUTO 08004KT 10SM BKN023 OVC028 19/14 A3012 1990 70 3000 080/04 RMK AO2 T01940139
03812KAVL AVL20160618024011206/18/16 02:40:31  5-MIN KAVL 180740Z AUTO VRB04KT 10SM OVC021 19/13 A3012 1990 67 3000 VRB/04 RMK AO2 T01940133
