53843K79J 79J20160101000009701/01/16 00:00:31  5-MIN K79J 010500Z AUTO 04003KT 10SM OVC060 14/08 A3018 70 69 0 040/03 RMK AO2
53843K79J 79J20160101000509701/01/16 00:05:31  5-MIN K79J 010505Z AUTO 03006KT 10SM OVC060 14/08 A3018 70 69 0 030/06 RMK AO2
53843K79J 79J20160101001009701/01/16 00:10:31  5-MIN K79J 010510Z AUTO 02005KT 10SM OVC060 14/08 A3018 70 69 0 020/05 RMK AO2
53843K79J 79J20160101001509701/01/16 00:15:31  5-MIN K79J 010515Z AUTO 03006KT 10SM OVC060 14/08 A3018 70 69 0 030/06 RMK AO2
53843K79J 79J20160101002009701/01/16 00:20:31  5-MIN K79J 010520Z AUTO 03005KT 10SM OVC060 14/08 A3018 80 69 0 040/05 RMK AO2
53843K79J 79J20160101002509701/01/16 00:25:31  5-MIN K79J 010525Z AUTO 01007KT 10SM OVC060 14/08 A3018 80 69 0 010/07 RMK AO2
53843K79J 79J20160101003009701/01/16 00:30:31  5-MIN K79J 010530Z AUTO 01007KT 10SM OVC060 13/08 A3018 70 71 0 010/07 RMK AO2
53843K79J 79J20160101003509701/01/16 00:35:31  5-MIN K79J 010535Z AUTO 02006KT 10SM OVC060 13/08 A3018 70 71 0 020/06 RMK AO2
53843K79J 79J20160101004009701/01/16 00:40:31  5-MIN K79J 010540Z AUTO 02006KT 10SM OVC060 13/08 A3018 70 71 0 020/06 RMK AO2
53843K79J 79J20160101004509701/01/16 00:45:31  5-MIN K79J 010545Z AUTO 02006KT 10SM OVC060 13/08 A3018 70 71 0 020/06 RMK AO2
53843K79J 79J20160101005013201/01/16 00:50:31  5-MIN K79J 010550Z AUTO 03008KT 10SM OVC060 13/08 A3018 70 71 0 030/08 RMK AO2 SLP218 T01330083 10150 20133 50005
53843K79J 79J20160101005513201/01/16 00:55:31  5-MIN K79J 010555Z AUTO 02008KT 10SM OVC060 13/08 A3018 80 71 0 020/08 RMK AO2 SLP217 T01330083 10150 20133 50005
53843K79J 79J20160101010009701/01/16 01:00:31  5-MIN K79J 010600Z AUTO 02007KT 10SM OVC060 13/08 A3017 80 71 0 020/07 RMK AO2
53843K79J 79J20160101010509701/01/16 01:05:31  5-MIN K79J 010605Z AUTO 02007KT 10SM OVC060 13/08 A3017 80 71 0 020/07 RMK AO2
53843K79J 79J20160101011009701/01/16 01:10:31  5-MIN K79J 010610Z AUTO 02008KT 10SM OVC060 13/08 A3017 80 69 0 020/08 RMK AO2
53843K79J 79J20160101011509701/01/16 01:15:31  5-MIN K79J 010615Z AUTO 02007KT 10SM OVC060 13/08 A3017 80 69 0 030/07 RMK AO2
53843K79J 79J20160101012009701/01/16 01:20:31  5-MIN K79J 010620Z AUTO 02006KT 10SM OVC060 13/08 A3017 90 71 0 020/06 RMK AO2
53843K79J 79J20160101012509701/01/16 01:25:31  5-MIN K79J 010625Z AUTO 02007KT 10SM OVC060 13/08 A3017 80 69 0 020/07 RMK AO2
53843K79J 79J20160101013009701/01/16 01:30:31  5-MIN K79J 010630Z AUTO 02006KT 10SM OVC060 13/08 A3016 90 69 0 020/06 RMK AO2
53843K79J 79J20160101013509701/01/16 01:35:31  5-MIN K79J 010635Z AUTO 03004KT 10SM OVC065 13/08 A3016 90 69 0 030/04 RMK AO2
53843K79J 79J20160101014009701/01/16 01:40:31  5-MIN K79J 010640Z AUTO 02006KT 10SM OVC065 13/08 A3016 90 69 0 020/06 RMK AO2
53843K79J 79J20160101014509701/01/16 01:45:31  5-MIN K79J 010645Z AUTO 02006KT 10SM OVC065 13/07 A3016 90 66 0 020/06 RMK AO2
53843K79J 79J20160101015011401/01/16 01:50:31  5-MIN K79J 010650Z AUTO 02006KT 10SM OVC065 13/07 A3017 80 66 0 020/06 RMK AO2 SLP213 T01330072
53843K79J 79J20160101015511401/01/16 01:55:31  5-MIN K79J 010655Z AUTO 01006KT 10SM OVC065 13/07 A3017 80 66 0 010/06 RMK AO2 SLP215 T01330072
53843K79J 79J20160101020009701/01/16 02:00:31  5-MIN K79J 010700Z AUTO 01006KT 10SM OVC060 13/07 A3017 90 66 0 020/06 RMK AO2
53843K79J 79J20160101020510001/01/16 02:05:31  5-MIN K79J 010705Z AUTO 02007KT 10SM OVC060 13/07 A3016 90 69 -100 020/07 RMK AO2
53843K79J 79J20160101021010101/01/16 02:10:31  5-MIN K79J 010710Z AUTO 04005KT 10SM OVC060 13/07 A3015 100 69 -100 040/05 RMK AO2
53843K79J 79J20160101021510501/01/16 02:15:31  5-MIN K79J 010715Z AUTO 03006KT 10SM OVC060 13/08 A3015 100 71 0 030/06 RMK AO2 PRESFR
53843K79J 79J20160101022009801/01/16 02:20:31  5-MIN K79J 010720Z AUTO 04006KT 10SM OVC060 13/07 A3015 100 69 0 040/06 RMK AO2
53843K79J 79J20160101022510101/01/16 02:25:31  5-MIN K79J 010725Z AUTO 02005KT 10SM OVC060 13/08 A3015 100 71 -100 030/05 RMK AO2
53843K79J 79J20160101023010101/01/16 02:30:31  5-MIN K79J 010730Z AUTO 02007KT 10SM OVC060 12/07 A3015 100 71 -100 020/07 RMK AO2
53843K79J 79J20160101023510101/01/16 02:35:31  5-MIN K79J 010735Z AUTO 02007KT 10SM OVC060 13/07 A3016 100 69 -100 020/07 RMK AO2
53843K79J 79J20160101024010101/01/16 02:40:31  5-MIN K79J 010740Z AUTO 02010KT 10SM OVC060 13/07 A3015 100 69 -100 020/10 RMK AO2
53843K79J 79J20160101024510101/01/16 02:45:31  5-MIN K79J 010745Z AUTO 01006KT 10SM OVC065 13/07 A3015 100 69 -100 010/06 RMK AO2
53843K79J 79J20160101025011801/01/16 02:50:31  5-MIN K79J 010750Z AUTO 01008KT 10SM OVC065 13/07 A3015 100 69 -100 020/08 RMK AO2 SLP209 T01280072
53843K79J 79J20160101025511801/01/16 02:55:31  5-MIN K79J 010755Z AUTO 03006KT 10SM OVC065 13/07 A3015 100 69 -100 030/06 RMK AO2 SLP209 T01280072
53843K79J 79J20160101030010101/01/16 03:00:31  5-MIN K79J 010800Z AUTO 03007KT 10SM OVC065 13/07 A3015 100 69 -100 040/07 RMK AO2
53843K79J 79J20160101030509801/01/16 03:05:31  5-MIN K79J 010805Z AUTO 02007KT 10SM OVC065 13/07 A3015 100 69 0 020/07 RMK AO2
53843K79J 79J20160101031010101/01/16 03:10:31  5-MIN K79J 010810Z AUTO 02005KT 10SM OVC065 13/07 A3015 100 69 -100 030/05 RMK AO2
53843K79J 79J20160101031510001/01/16 03:15:31  5-MIN K79J 010815Z AUTO 01005KT 10SM OVC065 13/07 A3016 90 69 -100 010/05 RMK AO2
53843K79J 79J20160101032010001/01/16 03:20:31  5-MIN K79J 010820Z AUTO 36007KT 10SM OVC065 12/07 A3016 90 71 -100 010/07 RMK AO2
53843K79J 79J20160101032510001/01/16 03:25:31  5-MIN K79J 010825Z AUTO 36006KT 10SM OVC065 12/07 A3016 90 71 -100 360/06 RMK AO2
53843K79J 79J20160101033010701/01/16 03:30:31  5-MIN K79J 010830Z AUTO 36009KT 10SM OVC065 12/07 A3017 80 71 -100 360/09 RMK AO2 PRESRR
53843K79J 79J20160101033510701/01/16 03:35:31  5-MIN K79J 010835Z AUTO 36010KT 10SM OVC065 12/07 A3018 70 71 -100 360/10 RMK AO2 PRESRR
53843K79J 79J20160101034010001/01/16 03:40:31  5-MIN K79J 010840Z AUTO 36008KT 10SM OVC060 12/07 A3018 70 71 -100 360/08 RMK AO2
53843K79J 79J20160101034510001/01/16 03:45:31  5-MIN K79J 010845Z AUTO 02004KT 10SM OVC060 12/07 A3017 80 68 -100 020/04 RMK AO2
53843K79J 79J20160101035012301/01/16 03:50:31  5-MIN K79J 010850Z AUTO 02005KT 10SM OVC060 12/07 A3017 80 68 -100 020/05 RMK AO2 SLP214 T01220067 58006
53843K79J 79J20160101035512301/01/16 03:55:31  5-MIN K79J 010855Z AUTO 36005KT 10SM OVC060 12/07 A3017 80 71 -100 360/05 RMK AO2 SLP214 T01220072 58006
53843K79J 79J20160101040010001/01/16 04:00:31  5-MIN K79J 010900Z AUTO 02009KT 10SM OVC060 12/07 A3017 80 71 -100 020/09 RMK AO2
53843K79J 79J20160101040510001/01/16 04:05:31  5-MIN K79J 010905Z AUTO 03008KT 10SM OVC060 12/07 A3016 90 68 -100 030/08 RMK AO2
53843K79J 79J20160101041010001/01/16 04:10:31  5-MIN K79J 010910Z AUTO 01007KT 10SM OVC060 12/07 A3017 90 68 -100 020/07 RMK AO2
53843K79J 79J20160101041510001/01/16 04:15:31  5-MIN K79J 010915Z AUTO 01010KT 10SM OVC060 12/07 A3017 80 68 -100 010/10 RMK AO2
53843K79J 79J20160101042010001/01/16 04:20:31  5-MIN K79J 010920Z AUTO 02009KT 10SM OVC060 12/06 A3017 80 66 -100 020/09 RMK AO2
53843K79J 79J20160101042510001/01/16 04:25:31  5-MIN K79J 010925Z AUTO 02007KT 10SM OVC060 12/07 A3017 80 68 -100 020/07 RMK AO2
53843K79J 79J20160101043010001/01/16 04:30:31  5-MIN K79J 010930Z AUTO 01005KT 10SM OVC060 12/07 A3017 80 68 -100 010/05 RMK AO2
53843K79J 79J20160101043510001/01/16 04:35:31  5-MIN K79J 010935Z AUTO VRB05KT 10SM OVC060 12/07 A3017 80 71 -200 VRB/05 RMK AO2
53843K79J 79J20160101044010001/01/16 04:40:31  5-MIN K79J 010940Z AUTO 01009KT 10SM OVC065 12/06 A3017 80 68 -200 010/09 RMK AO2
53843K79J 79J20160101044510001/01/16 04:45:31  5-MIN K79J 010945Z AUTO 01010KT 10SM OVC065 12/06 A3018 80 68 -200 010/10 RMK AO2
53843K79J 79J20160101045012301/01/16 04:50:31  5-MIN K79J 010950Z AUTO 01012G15KT 10SM OVC065 12/06 A3017 80 68 -200 010/12G15 RMK AO2 SLP215 T01170061
53843K79J 79J20160101045512301/01/16 04:55:31  5-MIN K79J 010955Z AUTO 02009G15KT 10SM OVC065 12/06 A3017 90 68 -200 020/09G15 RMK AO2 SLP213 T01170061
53843K79J 79J20160101050010001/01/16 05:00:31  5-MIN K79J 011000Z AUTO 02010KT 10SM OVC065 12/06 A3016 90 68 -200 020/10 RMK AO2
53843K79J 79J20160101050510001/01/16 05:05:31  5-MIN K79J 011005Z AUTO 02008KT 10SM OVC065 12/06 A3016 90 68 -200 020/08 RMK AO2
53843K79J 79J20160101051010001/01/16 05:10:31  5-MIN K79J 011010Z AUTO 02007KT 10SM OVC065 12/06 A3016 90 68 -200 020/07 RMK AO2
53843K79J 79J20160101051510001/01/16 05:15:31  5-MIN K79J 011015Z AUTO 02007KT 10SM OVC065 12/06 A3016 90 68 -200 020/07 RMK AO2
53843K79J 79J20160101052010001/01/16 05:20:31  5-MIN K79J 011020Z AUTO 02009KT 10SM OVC065 12/06 A3016 90 68 -200 020/09 RMK AO2
53843K79J 79J20160101052510101/01/16 05:25:31  5-MIN K79J 011025Z AUTO 02007KT 10SM OVC065 12/06 A3015 100 68 -200 020/07 RMK AO2
53843K79J 79J20160101053010101/01/16 05:30:31  5-MIN K79J 011030Z AUTO 02007KT 10SM OVC065 12/06 A3015 100 68 -200 020/07 RMK AO2
53843K79J 79J20160101053510001/01/16 05:35:31  5-MIN K79J 011035Z AUTO 01006KT 10SM OVC070 12/06 A3016 90 68 -200 010/06 RMK AO2
53843K79J 79J20160101054010001/01/16 05:40:31  5-MIN K79J 011040Z AUTO 01006KT 10SM OVC070 12/06 A3016 90 68 -200 010/06 RMK AO2
53843K79J 79J20160101054510001/01/16 05:45:31  5-MIN K79J 011045Z AUTO 36008KT 10SM OVC065 12/06 A3017 80 68 -200 010/08 RMK AO2
53843K79J 79J20160101055011701/01/16 05:50:31  5-MIN K79J 011050Z AUTO 01008KT 10SM OVC065 12/06 A3017 80 68 -200 010/08 RMK AO2 SLP215 T01170061
53843K79J 79J20160101055512401/01/16 05:55:31  5-MIN K79J 011055Z AUTO 36012KT 10SM OVC065 12/06 A3018 70 68 -200 360/12 RMK AO2 PRESRR SLP218 T01170061
53843K79J 79J20160101060010001/01/16 06:00:31  5-MIN K79J 011100Z AUTO 36012KT 10SM OVC065 11/06 A3019 70 68 -300 360/12 RMK AO2
53843K79J 79J20160101060510701/01/16 06:05:31  5-MIN K79J 011105Z AUTO 01011KT 10SM OVC060 11/06 A3019 60 68 -300 010/11 RMK AO2 PRESRR
53843K79J 79J20160101061010001/01/16 06:10:31  5-MIN K79J 011110Z AUTO 01011KT 10SM OVC060 11/06 A3019 60 68 -300 010/11 RMK AO2
53843K79J 79J20160101061510001/01/16 06:15:31  5-MIN K79J 011115Z AUTO 01010KT 10SM OVC060 11/06 A3019 60 68 -300 010/10 RMK AO2
53843K79J 79J20160101062010601/01/16 06:20:31  5-MIN K79J 011120Z AUTO 01008G17KT 10SM OVC060 11/06 A3019 60 68 -300 010/08G17 RMK AO2
53843K79J 79J20160101082510701/01/16 08:25:31  5-MIN K79J 011325Z AUTO 35010KT 10SM SCT070 BKN120 10/05 A3023 30 71 -500 350/10 RMK AO2
53843K79J 79J20160101083010701/01/16 08:30:31  5-MIN K79J 011330Z AUTO 36010KT 10SM BKN070 BKN120 10/05 A3023 20 71 -500 360/10 RMK AO2
53843K79J 79J20160101083510701/01/16 08:35:31  5-MIN K79J 011335Z AUTO 36010KT 10SM BKN070 BKN120 10/04 A3024 20 68 -500 360/10 RMK AO2
53843K79J 79J20160101084010701/01/16 08:40:31  5-MIN K79J 011340Z AUTO 36009KT 10SM BKN070 OVC120 10/04 A3024 20 68 -500 360/09 RMK AO2
53843K79J 79J20160101084511601/01/16 08:45:31  5-MIN K79J 011345Z AUTO 36011KT 10SM -RA OVC070 10/04 A3024 10 68 -500 010/11 RMK AO2 RAB45 P0000
53843K79J 79J20160101085013301/01/16 08:50:31  5-MIN K79J 011350Z AUTO 36009KT 10SM -RA OVC070 10/04 A3025 10 68 -500 360/09 RMK AO2 RAB45 SLP240 P0000 T01000044
53843K79J 79J20160101085513901/01/16 08:55:31  5-MIN K79J 011355Z AUTO 35012G19KT 10SM -RA OVC070 10/04 A3025 10 68 -500 360/12G19 RMK AO2 RAB45 SLP242 P0000 T01000044
53843K79J 79J20160101090012001/01/16 09:00:31  5-MIN K79J 011400Z AUTO 36011G19KT 10SM OVC065 10/04 A3025 10 68 -500 360/11G19 RMK AO2 RAE1359 P0000
53843K79J 79J20160101090511401/01/16 09:05:31  5-MIN K79J 011405Z AUTO 36008KT 10SM OVC070 09/04 A3025 10 71 -600 360/08 RMK AO2 RAE1359 P0000
53843K79J 79J20160101091011001/01/16 09:10:31  5-MIN K79J 011410Z AUTO 36007KT 10SM -RA OVC070 09/04 A3025 10 71 -600 360/07 RMK AO2 P0000
53843K79J 79J20160101091511001/01/16 09:15:31  5-MIN K79J 011415Z AUTO 36007KT 10SM -RA OVC070 09/04 A3025 10 71 -600 010/07 RMK AO2 P0000
53843K79J 79J20160101092011601/01/16 09:20:31  5-MIN K79J 011420Z AUTO 36009KT 10SM -RA BKN070 OVC110 09/04 A3026 0 71 -600 360/09 RMK AO2 P0000
53843K79J 79J20160101092511701/01/16 09:25:31  5-MIN K79J 011425Z AUTO 02008KT 10SM -RA BKN070 OVC110 09/04 A3025 10 71 -600 020/08 RMK AO2 P0001
53843K79J 79J20160101093011601/01/16 09:30:31  5-MIN K79J 011430Z AUTO 35006KT 10SM -RA BKN070 OVC100 09/04 A3026 0 71 -600 360/06 RMK AO2 P0001
53843K79J 79J20160101093511601/01/16 09:35:31  5-MIN K79J 011435Z AUTO 35007KT 10SM -RA BKN070 OVC100 09/04 A3026 0 71 -600 350/07 RMK AO2 P0001
53843K79J 79J20160101094011701/01/16 09:40:31  5-MIN K79J 011440Z AUTO 01006KT 10SM -RA SCT070 OVC100 09/04 A3025 10 71 -600 010/06 RMK AO2 P0001
53843K79J 79J20160101094511901/01/16 09:45:31  5-MIN K79J 011445Z AUTO 01008KT 10SM SCT070 OVC100 09/04 A3025 10 71 -600 010/08 RMK AO2 RAE44 P0001
53843K79J 79J20160101095014801/01/16 09:50:31  5-MIN K79J 011450Z AUTO 03006KT 10SM FEW070 OVC100 09/04 A3025 10 71 -600 030/06 RMK AO2 RAE44 SLP240 P0001 60001 T00940044 53008
53843K79J 79J20160101095514801/01/16 09:55:31  5-MIN K79J 011455Z AUTO 02009KT 10SM FEW070 OVC100 09/04 A3025 10 71 -600 020/09 RMK AO2 RAE44 SLP240 P0001 60001 T00940044 53008
53843K79J 79J20160101100010001/01/16 10:00:31  5-MIN K79J 011500Z AUTO 02009KT 10SM OVC100 09/04 A3025 10 71 -600 020/09 RMK AO2
53843K79J 79J20160101100509901/01/16 10:05:31  5-MIN K79J 011505Z AUTO 34005KT 10SM OVC100 09/04 A3027 0 71 -600 340/05 RMK AO2
53843K79J 79J20160101101010801/01/16 10:10:31  5-MIN K79J 011510Z AUTO 35005KT 10SM OVC100 09/04 A3027 -10 71 -600 350/05 RMK AO2 PRESRR
53843K79J 79J20160101101510101/01/16 10:15:31  5-MIN K79J 011515Z AUTO 35006KT 10SM OVC100 09/04 A3027 -10 71 -600 350/06 RMK AO2
53843K79J 79J20160101102010101/01/16 10:20:31  5-MIN K79J 011520Z AUTO 01006KT 10SM OVC100 09/04 A3027 -10 71 -600 010/06 RMK AO2
53843K79J 79J20160101102511501/01/16 10:25:31  5-MIN K79J 011525Z AUTO 02008KT 10SM -RA OVC100 09/04 A3027 0 68 -600 020/08 RMK AO2 RAB23 P0000
53843K79J 79J20160101103011501/01/16 10:30:31  5-MIN K79J 011530Z AUTO 02006KT 10SM -RA BKN100 09/04 A3026 0 68 -600 020/06 RMK AO2 RAB23 P0000
53843K79J 79J20160101103511601/01/16 10:35:31  5-MIN K79J 011535Z AUTO 01004KT 10SM BKN110 09/04 A3027 -10 68 -600 010/04 RMK AO2 RAB23E34 P0000
53843K79J 79J20160101104011701/01/16 10:40:31  5-MIN K79J 011540Z AUTO 02005KT 10SM -RA BKN110 10/04 A3027 -10 68 -500 020/05 RMK AO2 RAB23 P0000
53843K79J 79J20160101104511701/01/16 10:45:31  5-MIN K79J 011545Z AUTO 02005KT 10SM -RA BKN110 09/04 A3027 -10 71 -600 020/05 RMK AO2 RAB23 P0000
53843K79J 79J20160101105013401/01/16 10:50:31  5-MIN K79J 011550Z AUTO 35005KT 10SM -RA BKN110 09/04 A3027 -10 71 -600 360/05 RMK AO2 RAB23 SLP249 P0000 T00940044
53843K79J 79J20160101105513401/01/16 10:55:31  5-MIN K79J 011555Z AUTO 35006KT 10SM -RA SCT110 09/04 A3028 -10 71 -600 350/06 RMK AO2 RAB23 SLP251 P0000 T00940044
53843K79J 79J20160101110011101/01/16 11:00:31  5-MIN K79J 011600Z AUTO 36005KT 10SM -RA BKN110 09/04 A3027 -10 71 -600 360/05 RMK AO2 P0000
53843K79J 79J20160101110510901/01/16 11:05:31  5-MIN K79J 011605Z AUTO 03005KT 10SM -RA BKN110 09/04 A3027 0 71 -600 030/05 RMK AO2 P0000
53843K79J 79J20160101111010901/01/16 11:10:31  5-MIN K79J 011610Z AUTO 03005KT 10SM -RA BKN110 09/04 A3027 0 68 -600 030/05 RMK AO2 P0000
53843K79J 79J20160101111510901/01/16 11:15:31  5-MIN K79J 011615Z AUTO 01005KT 10SM -RA BKN110 09/04 A3027 0 71 -600 010/05 RMK AO2 P0000
53843K79J 79J20160101112010901/01/16 11:20:31  5-MIN K79J 011620Z AUTO 02005KT 10SM -RA OVC100 09/04 A3026 0 71 -600 020/05 RMK AO2 P0000
53843K79J 79J20160101112511801/01/16 11:25:31  5-MIN K79J 011625Z AUTO 02005KT 10SM FEW070 OVC110 09/04 A3026 0 71 -600 020/05 RMK AO2 RAE24 P0000
53843K79J 79J20160101113011601/01/16 11:30:31  5-MIN K79J 011630Z AUTO 36004KT 10SM -RA FEW070 OVC110 09/04 A3027 0 71 -600 360/04 RMK AO2 P0000
53843K79J 79J20160101113511601/01/16 11:35:31  5-MIN K79J 011635Z AUTO 34006KT 10SM -RA FEW070 OVC110 09/05 A3027 0 74 -600 350/06 RMK AO2 P0000
53843K79J 79J20160101114011601/01/16 11:40:31  5-MIN K79J 011640Z AUTO 36006KT 10SM -RA FEW070 OVC110 09/04 A3026 0 71 -600 360/06 RMK AO2 P0000
53843K79J 79J20160101114511601/01/16 11:45:31  5-MIN K79J 011645Z AUTO 01004KT 10SM -RA FEW070 OVC110 09/04 A3026 0 71 -600 010/04 RMK AO2 P0000
53843K79J 79J20160101115014301/01/16 11:50:31  5-MIN K79J 011650Z AUTO 05004KT 10SM FEW070 OVC110 10/05 A3024 20 71 -500 050/04 RMK AO2 RAE48 PRESFR SLP239 P0000 T01000050
53843K79J 79J20160101115513601/01/16 11:55:31  5-MIN K79J 011655Z AUTO 03003KT 10SM BKN110 10/04 A3024 20 68 -500 030/03 RMK AO2 RAE48 PRESFR SLP236 P0000 T01000044
53843K79J 79J20160101120010701/01/16 12:00:31  5-MIN K79J 011700Z AUTO 04005KT 10SM BKN110 10/05 A3023 30 71 -500 040/05 RMK AO2 PRESFR
53843K79J 79J20160101120510701/01/16 12:05:31  5-MIN K79J 011705Z AUTO 04004KT 10SM FEW100 BKN110 10/05 A3023 30 71 -500 040/04 RMK AO2
53843K79J 79J20160101121011401/01/16 12:10:31  5-MIN K79J 011710Z AUTO 03004KT 10SM FEW075 SCT100 BKN110 10/04 A3022 30 68 -500 030/04 RMK AO2
53843K79J 79J20160101121511401/01/16 12:15:31  5-MIN K79J 011715Z AUTO 08005KT 10SM FEW075 BKN100 10/04 A3021 50 68 -400 080/05 RMK AO2 PRESFR
53843K79J 79J20160101122010701/01/16 12:20:31  5-MIN K79J 011720Z AUTO 05006KT 10SM FEW070 BKN110 11/04 A3020 50 66 -400 050/06 RMK AO2
53843K79J 79J20160101122510701/01/16 12:25:31  5-MIN K79J 011725Z AUTO 02008KT 10SM FEW075 BKN110 11/04 A3020 50 66 -400 020/08 RMK AO2
53843K79J 79J20160101123010701/01/16 12:30:31  5-MIN K79J 011730Z AUTO 02006KT 10SM FEW075 BKN100 11/05 A3021 40 68 -400 020/06 RMK AO2
53843K79J 79J20160101123510701/01/16 12:35:31  5-MIN K79J 011735Z AUTO 01006KT 10SM FEW080 BKN100 11/05 A3021 50 66 -300 010/06 RMK AO2
53843K79J 79J20160101124010701/01/16 12:40:31  5-MIN K79J 011740Z AUTO 36007KT 10SM FEW065 BKN100 11/05 A3022 40 66 -300 010/07 RMK AO2
53843K79J 79J20160101124510701/01/16 12:45:31  5-MIN K79J 011745Z AUTO 02007KT 10SM FEW060 SCT100 11/05 A3022 40 66 -300 020/07 RMK AO2
53843K79J 79J20160101125014101/01/16 12:50:31  5-MIN K79J 011750Z AUTO 35008KT 10SM FEW110 11/05 A3022 30 66 -300 350/08 RMK AO2 SLP232 60001 T01110050 10111 20094 50018
53843K79J 79J20160101125514101/01/16 12:55:31  5-MIN K79J 011755Z AUTO 35012KT 10SM SCT120 11/05 A3023 30 68 -400 350/12 RMK AO2 SLP235 60001 T01060050 10111 20094 50018
53843K79J 79J20160101130010001/01/16 13:00:31  5-MIN K79J 011800Z AUTO 01011KT 10SM BKN120 11/04 A3023 30 66 -400 010/11 RMK AO2
53843K79J 79J20160101130510001/01/16 13:05:31  5-MIN K79J 011805Z AUTO 35012KT 10SM BKN110 11/04 A3023 30 66 -400 350/12 RMK AO2
53843K79J 79J20160102062509901/02/16 06:25:31  5-MIN K79J 021125Z AUTO 03009KT 10SM CLR 07/M01 A3028 -10 60 -900 030/09 RMK AO2
53843K79J 79J20160102063009901/02/16 06:30:31  5-MIN K79J 021130Z AUTO 02006KT 10SM CLR 07/M01 A3028 -20 60 -900 020/06 RMK AO2
53843K79J 79J20160102063509901/02/16 06:35:31  5-MIN K79J 021135Z AUTO 03007KT 10SM CLR 07/M01 A3028 -20 60 -900 030/07 RMK AO2
53843K79J 79J20160102064010001/02/16 06:40:31  5-MIN K79J 021140Z AUTO 02009KT 10SM CLR 07/M01 A3029 -20 60 -1000 020/09 RMK AO2
53843K79J 79J20160102064510001/02/16 06:45:31  5-MIN K79J 021145Z AUTO 02007KT 10SM CLR 07/M01 A3029 -30 60 -1000 020/07 RMK AO2
53843K79J 79J20160102065014101/02/16 06:50:31  5-MIN K79J 021150Z AUTO 02008KT 10SM CLR 07/M01 A3029 -30 60 -1000 030/08 RMK AO2 SLP257 70001 T00671006 10083 20067 55003
53843K79J 79J20160102065514101/02/16 06:55:31  5-MIN K79J 021155Z AUTO 02006KT 10SM CLR 07/M01 A3029 -30 60 -1000 020/06 RMK AO2 SLP258 70001 T00671006 10083 20067 55003
53843K79J 79J20160102070010001/02/16 07:00:31  5-MIN K79J 021200Z AUTO 02005KT 10SM CLR 06/M01 A3030 -30 62 -1000 020/05 RMK AO2
53843K79J 79J20160102070510001/02/16 07:05:31  5-MIN K79J 021205Z AUTO 02005KT 10SM CLR 06/M01 A3029 -20 62 -1000 030/05 RMK AO2
53843K79J 79J20160102071010001/02/16 07:10:31  5-MIN K79J 021210Z AUTO 03006KT 10SM CLR 06/M01 A3029 -20 62 -1000 040/06 RMK AO2
53843K79J 79J20160102071510001/02/16 07:15:31  5-MIN K79J 021215Z AUTO 02007KT 10SM CLR 06/M01 A3030 -30 62 -1000 020/07 RMK AO2
53843K79J 79J20160102072010001/02/16 07:20:31  5-MIN K79J 021220Z AUTO 01007KT 10SM CLR 06/M01 A3031 -40 62 -1000 010/07 RMK AO2
53843K79J 79J20160102072510001/02/16 07:25:31  5-MIN K79J 021225Z AUTO 01007KT 10SM CLR 06/M01 A3031 -40 62 -1000 010/07 RMK AO2
53843K79J 79J20160102073010001/02/16 07:30:31  5-MIN K79J 021230Z AUTO 01006KT 10SM CLR 06/M01 A3031 -40 62 -1000 020/06 RMK AO2
53843K79J 79J20160102073509901/02/16 07:35:31  5-MIN K79J 021235Z AUTO 01007KT 10SM CLR 06/00 A3030 -40 65 -1000 010/07 RMK AO2
53843K79J 79J20160102074010001/02/16 07:40:31  5-MIN K79J 021240Z AUTO 02007KT 10SM CLR 06/M01 A3030 -40 62 -1000 020/07 RMK AO2
53843K79J 79J20160102074509901/02/16 07:45:31  5-MIN K79J 021245Z AUTO 02007KT 10SM CLR 06/00 A3030 -40 65 -1000 020/07 RMK AO2
53843K79J 79J20160102075011701/02/16 07:50:31  5-MIN K79J 021250Z AUTO 02008KT 10SM CLR 06/M01 A3031 -40 62 -1000 020/08 RMK AO2 SLP261 T00611006
53843K79J 79J20160102075511701/02/16 07:55:31  5-MIN K79J 021255Z AUTO 02009KT 10SM CLR 06/M01 A3030 -30 62 -1000 020/09 RMK AO2 SLP258 T00611006
53843K79J 79J20160102080010001/02/16 08:00:31  5-MIN K79J 021300Z AUTO 02007KT 10SM CLR 06/M01 A3031 -40 62 -1000 030/07 RMK AO2
53843K79J 79J20160102080510001/02/16 08:05:31  5-MIN K79J 021305Z AUTO 02008KT 10SM CLR 06/M01 A3031 -40 62 -1000 030/08 RMK AO2
53843K79J 79J20160102081010001/02/16 08:10:31  5-MIN K79J 021310Z AUTO 02008KT 10SM CLR 06/M01 A3031 -40 62 -1000 030/08 RMK AO2
53843K79J 79J20160102081509901/02/16 08:15:31  5-MIN K79J 021315Z AUTO 02008KT 10SM CLR 06/00 A3031 -40 65 -1000 030/08 RMK AO2
53843K79J 79J20160102082009901/02/16 08:20:31  5-MIN K79J 021320Z AUTO 02009KT 10SM CLR 06/00 A3031 -40 65 -1000 020/09 RMK AO2
53843K79J 79J20160102082509901/02/16 08:25:31  5-MIN K79J 021325Z AUTO 02006KT 10SM CLR 06/00 A3031 -40 65 -1000 030/06 RMK AO2
53843K79J 79J20160102083010001/02/16 08:30:31  5-MIN K79J 021330Z AUTO 03008KT 10SM CLR 06/M01 A3031 -40 62 -1000 030/08 RMK AO2
53843K79J 79J20160102083510001/02/16 08:35:31  5-MIN K79J 021335Z AUTO 03008KT 10SM CLR 07/M01 A3030 -30 60 -1000 030/08 RMK AO2
53843K79J 79J20160102084009901/02/16 08:40:31  5-MIN K79J 021340Z AUTO 03008KT 10SM CLR 07/00 A3030 -40 62 -1000 030/08 RMK AO2
53843K79J 79J20160102084510001/02/16 08:45:31  5-MIN K79J 021345Z AUTO 03008KT 10SM CLR 07/M01 A3031 -40 60 -1000 030/08 RMK AO2
53843K79J 79J20160102085011701/02/16 08:50:31  5-MIN K79J 021350Z AUTO 03007KT 10SM CLR 07/M01 A3031 -40 60 -1000 030/07 RMK AO2 SLP262 T00671006
53843K79J 79J20160102085511701/02/16 08:55:31  5-MIN K79J 021355Z AUTO 02008KT 10SM CLR 07/M01 A3031 -40 60 -1000 020/08 RMK AO2 SLP262 T00671006
53843K79J 79J20160102090009901/02/16 09:00:31  5-MIN K79J 021400Z AUTO 02010KT 10SM CLR 07/00 A3032 -50 62 -1000 020/10 RMK AO2
53843K79J 79J20160102090510001/02/16 09:05:31  5-MIN K79J 021405Z AUTO 02009KT 10SM CLR 07/M01 A3032 -50 60 -1000 030/09 RMK AO2
53843K79J 79J20160102091009901/02/16 09:10:31  5-MIN K79J 021410Z AUTO 03008KT 10SM CLR 07/00 A3033 -60 62 -1000 030/08 RMK AO2
53843K79J 79J20160102091509901/02/16 09:15:31  5-MIN K79J 021415Z AUTO 02008KT 10SM CLR 07/00 A3033 -60 62 -1000 030/08 RMK AO2
53843K79J 79J20160102092009901/02/16 09:20:31  5-MIN K79J 021420Z AUTO 02008KT 10SM CLR 07/00 A3033 -60 62 -1000 020/08 RMK AO2
53843K79J 79J20160102092509901/02/16 09:25:31  5-MIN K79J 021425Z AUTO 02009KT 10SM CLR 07/00 A3033 -60 62 -1000 020/09 RMK AO2
53843K79J 79J20160102093009901/02/16 09:30:31  5-MIN K79J 021430Z AUTO 02008KT 10SM CLR 07/M01 A3033 -60 57 -900 020/08 RMK AO2
53843K79J 79J20160102093509801/02/16 09:35:31  5-MIN K79J 021435Z AUTO 03005KT 10SM CLR 07/00 A3032 -50 60 -900 040/05 RMK AO2
53843K79J 79J20160102094009901/02/16 09:40:31  5-MIN K79J 021440Z AUTO 03009KT 10SM CLR 07/M01 A3032 -50 57 -900 040/09 RMK AO2
53843K79J 79J20160102094509901/02/16 09:45:31  5-MIN K79J 021445Z AUTO 02007KT 10SM CLR 07/M01 A3033 -60 57 -900 020/07 RMK AO2
53843K79J 79J20160102095012101/02/16 09:50:31  5-MIN K79J 021450Z AUTO 03007KT 10SM CLR 07/00 A3033 -60 60 -900 030/07 RMK AO2 SLP269 T00720000 51006
53843K79J 79J20160102095512201/02/16 09:55:31  5-MIN K79J 021455Z AUTO 03008KT 10SM CLR 07/M01 A3032 -50 57 -900 030/08 RMK AO2 SLP266 T00721006 51006
53843K79J 79J20160102100009901/02/16 10:00:31  5-MIN K79J 021500Z AUTO 02009KT 10SM CLR 07/M01 A3032 -50 57 -900 020/09 RMK AO2
53843K79J 79J20160102100509901/02/16 10:05:31  5-MIN K79J 021505Z AUTO 01009KT 10SM CLR 07/M01 A3032 -50 57 -900 010/09 RMK AO2
53843K79J 79J20160102101009901/02/16 10:10:31  5-MIN K79J 021510Z AUTO 03009KT 10SM CLR 07/M01 A3032 -50 57 -900 030/09 RMK AO2
53843K79J 79J20160102101509901/02/16 10:15:31  5-MIN K79J 021515Z AUTO 03008KT 10SM CLR 08/M01 A3032 -50 55 -900 030/08 RMK AO2
53843K79J 79J20160102102009801/02/16 10:20:31  5-MIN K79J 021520Z AUTO 01008KT 10SM CLR 08/00 A3032 -50 58 -900 010/08 RMK AO2
53843K79J 79J20160102102509801/02/16 10:25:31  5-MIN K79J 021525Z AUTO 03008KT 10SM CLR 08/00 A3033 -60 58 -900 030/08 RMK AO2
53843K79J 79J20160102103009801/02/16 10:30:31  5-MIN K79J 021530Z AUTO 02008KT 10SM CLR 08/00 A3033 -60 55 -800 020/08 RMK AO2
53843K79J 79J20160102103511501/02/16 10:35:31  5-MIN K79J 021535Z AUTO 04007KT 360V070 10SM CLR 08/M01 A3033 -60 53 -800 040/07 360V070 RMK AO2
53843K79J 79J20160102104009801/02/16 10:40:31  5-MIN K79J 021540Z AUTO 03008KT 10SM CLR 08/00 A3032 -50 55 -800 040/08 RMK AO2
53843K79J 79J20160102104509901/02/16 10:45:31  5-MIN K79J 021545Z AUTO 04008KT 10SM CLR 08/M01 A3032 -50 53 -800 040/08 RMK AO2
53843K79J 79J20160102105011601/02/16 10:50:31  5-MIN K79J 021550Z AUTO 03009KT 10SM CLR 08/M01 A3032 -50 53 -800 030/09 RMK AO2 SLP266 T00831006
53843K79J 79J20160102105511601/02/16 10:55:31  5-MIN K79J 021555Z AUTO 04009KT 10SM CLR 08/M01 A3032 -50 53 -800 040/09 RMK AO2 SLP266 T00831006
53843K79J 79J20160102110009901/02/16 11:00:31  5-MIN K79J 021600Z AUTO 03009KT 10SM CLR 08/M01 A3031 -40 53 -800 040/09 RMK AO2
53843K79J 79J20160102110509901/02/16 11:05:31  5-MIN K79J 021605Z AUTO 02007KT 10SM CLR 08/M01 A3032 -50 53 -800 030/07 RMK AO2
53843K79J 79J20160102111009801/02/16 11:10:31  5-MIN K79J 021610Z AUTO 03006KT 10SM CLR 09/00 A3031 -40 53 -700 030/06 RMK AO2
53843K79J 79J20160102111509801/02/16 11:15:31  5-MIN K79J 021615Z AUTO 01009KT 10SM CLR 09/00 A3030 -40 51 -600 010/09 RMK AO2
53843K79J 79J20160102112009801/02/16 11:20:31  5-MIN K79J 021620Z AUTO 02010KT 10SM CLR 09/00 A3030 -30 51 -600 020/10 RMK AO2
53843K79J 79J20160102112509901/02/16 11:25:31  5-MIN K79J 021625Z AUTO 03009KT 10SM CLR 09/M01 A3030 -30 49 -600 030/09 RMK AO2
53843K79J 79J20160102113009901/02/16 11:30:31  5-MIN K79J 021630Z AUTO 03009KT 10SM CLR 09/M01 A3030 -30 51 -700 030/09 RMK AO2
53843K79J 79J20160102113509901/02/16 11:35:31  5-MIN K79J 021635Z AUTO 04007KT 10SM CLR 09/M01 A3030 -30 47 -600 040/07 RMK AO2
53843K79J 79J20160102114009901/02/16 11:40:31  5-MIN K79J 021640Z AUTO 04007KT 10SM CLR 09/M01 A3030 -30 47 -600 040/07 RMK AO2
53843K79J 79J20160102114509901/02/16 11:45:31  5-MIN K79J 021645Z AUTO 36009KT 10SM CLR 09/M01 A3030 -30 49 -600 010/09 RMK AO2
53843K79J 79J20160102115012201/02/16 11:50:31  5-MIN K79J 021650Z AUTO 03008G14KT 10SM CLR 09/M01 A3029 -20 47 -600 040/08G14 RMK AO2 SLP255 T00941011
53843K79J 79J20160102115511601/02/16 11:55:31  5-MIN K79J 021655Z AUTO 01009KT 10SM CLR 09/M01 A3029 -20 49 -600 010/09 RMK AO2 SLP256 T00941006
53843K79J 79J20160102120009901/02/16 12:00:31  5-MIN K79J 021700Z AUTO 03010KT 10SM CLR 09/M01 A3029 -20 49 -600 030/10 RMK AO2
53843K79J 79J20160102120509901/02/16 12:05:31  5-MIN K79J 021705Z AUTO 04007KT 10SM CLR 09/M01 A3028 -20 49 -600 040/07 RMK AO2
53843K79J 79J20160102121009901/02/16 12:10:31  5-MIN K79J 021710Z AUTO 02008KT 10SM CLR 10/M01 A3028 -10 47 -500 020/08 RMK AO2
53843K79J 79J20160102121509901/02/16 12:15:31  5-MIN K79J 021715Z AUTO 36006KT 10SM CLR 10/M01 A3028 -10 47 -500 360/06 RMK AO2
53843K79J 79J20160102122009601/02/16 12:20:31  5-MIN K79J 021720Z AUTO 02006KT 10SM CLR 11/00 A3027 0 48 -400 030/06 RMK AO2
53843K79J 79J20160102122509701/02/16 12:25:31  5-MIN K79J 021725Z AUTO 01007KT 10SM CLR 11/M01 A3027 0 46 -500 020/07 RMK AO2
53843K79J 79J20160102123007301/02/16 12:30:31  5-MIN K79J 021730Z AUTO 01006KT 10SM CLR 11/M01 A3027 
53843K79J 79J20160102172509701/02/16 17:25:31  5-MIN K79J 022225Z AUTO 00000KT 10SM CLR 12/01 A3019 70 48 -200 000/00 RMK AO2
53843K79J 79J20160102173009701/02/16 17:30:31  5-MIN K79J 022230Z AUTO 00000KT 10SM CLR 12/01 A3019 60 48 -200 000/00 RMK AO2
53843K79J 79J20160102173509701/02/16 17:35:31  5-MIN K79J 022235Z AUTO 36004KT 10SM CLR 12/01 A3019 60 48 -200 360/04 RMK AO2
53843K79J 79J20160102174009701/02/16 17:40:31  5-MIN K79J 022240Z AUTO 02005KT 10SM CLR 12/01 A3019 60 48 -200 020/05 RMK AO2
53843K79J 79J20160102174509701/02/16 17:45:31  5-MIN K79J 022245Z AUTO 02005KT 10SM CLR 12/01 A3019 60 46 -200 020/05 RMK AO2
53843K79J 79J20160102175011401/02/16 17:50:31  5-MIN K79J 022250Z AUTO 02005KT 10SM CLR 11/00 A3019 60 46 -300 020/05 RMK AO2 SLP223 T01110000
53843K79J 79J20160102175511401/02/16 17:55:31  5-MIN K79J 022255Z AUTO 03005KT 10SM CLR 11/00 A3019 60 46 -300 030/05 RMK AO2 SLP224 T01110000
53843K79J 79J20160102180009801/02/16 18:00:31  5-MIN K79J 022300Z AUTO 02005KT 10SM CLR 11/M01 A3019 60 42 -300 020/05 RMK AO2
53843K79J 79J20160102180509801/02/16 18:05:31  5-MIN K79J 022305Z AUTO 01004KT 10SM CLR 11/M01 A3020 60 42 -300 020/04 RMK AO2
53843K79J 79J20160102181009801/02/16 18:10:31  5-MIN K79J 022310Z AUTO 02004KT 10SM CLR 11/M01 A3019 60 42 -300 030/04 RMK AO2
53843K79J 79J20160102181509801/02/16 18:15:31  5-MIN K79J 022315Z AUTO 03004KT 10SM CLR 11/M01 A3019 60 46 -400 030/04 RMK AO2
53843K79J 79J20160102182009801/02/16 18:20:31  5-MIN K79J 022320Z AUTO 02004KT 10SM CLR 11/M01 A3019 60 46 -400 020/04 RMK AO2
53843K79J 79J20160102182509801/02/16 18:25:31  5-MIN K79J 022325Z AUTO 00000KT 10SM CLR 11/M01 A3019 60 46 -400 000/00 RMK AO2
53843K79J 79J20160102183009701/02/16 18:30:31  5-MIN K79J 022330Z AUTO 00000KT 10SM CLR 11/00 A3019 60 48 -400 000/00 RMK AO2
53843K79J 79J20160102183509701/02/16 18:35:31  5-MIN K79J 022335Z AUTO 00000KT 10SM CLR 11/01 A3019 60 50 -400 000/00 RMK AO2
53843K79J 79J20160102184009701/02/16 18:40:31  5-MIN K79J 022340Z AUTO 33003KT 10SM CLR 10/01 A3020 50 52 -400 340/03 RMK AO2
53843K79J 79J20160102184509701/02/16 18:45:31  5-MIN K79J 022345Z AUTO 32003KT 10SM CLR 10/00 A3021 50 49 -400 320/03 RMK AO2
53843K79J 79J20160102185013201/02/16 18:50:31  5-MIN K79J 022350Z AUTO 31003KT 10SM CLR 10/00 A3021 50 49 -400 310/03 RMK AO2 SLP228 T01000000 10144 20100 56022
53843K79J 79J20160102185513201/02/16 18:55:31  5-MIN K79J 022355Z AUTO 35003KT 10SM CLR 10/01 A3020 50 52 -400 350/03 RMK AO2 SLP226 T01000006 10144 20100 56022
53843K79J 79J20160102190009701/02/16 19:00:31  5-MIN K79J 030000Z AUTO 34003KT 10SM CLR 10/01 A3020 50 54 -400 350/03 RMK AO2
53843K79J 79J20160102190509701/02/16 19:05:31  5-MIN K79J 030005Z AUTO 33003KT 10SM CLR 10/01 A3021 40 54 -500 340/03 RMK AO2
53843K79J 79J20160102191009701/02/16 19:10:31  5-MIN K79J 030010Z AUTO 33003KT 10SM CLR 10/01 A3021 40 54 -500 330/03 RMK AO2
53843K79J 79J20160102191509701/02/16 19:15:31  5-MIN K79J 030015Z AUTO 32003KT 10SM CLR 10/01 A3022 40 54 -500 320/03 RMK AO2
53843K79J 79J20160102192009701/02/16 19:20:31  5-MIN K79J 030020Z AUTO 32004KT 10SM CLR 10/01 A3023 30 54 -500 320/04 RMK AO2
53843K79J 79J20160102192509701/02/16 19:25:31  5-MIN K79J 030025Z AUTO 34004KT 10SM CLR 10/02 A3022 30 56 -500 340/04 RMK AO2
53843K79J 79J20160102193009701/02/16 19:30:31  5-MIN K79J 030030Z AUTO 35003KT 10SM CLR 10/02 A3022 30 56 -500 350/03 RMK AO2
53843K79J 79J20160102193509701/02/16 19:35:31  5-MIN K79J 030035Z AUTO 34004KT 10SM CLR 10/02 A3023 30 56 -500 350/04 RMK AO2
53843K79J 79J20160102194009701/02/16 19:40:31  5-MIN K79J 030040Z AUTO 34004KT 10SM CLR 09/02 A3023 30 58 -500 350/04 RMK AO2
53843K79J 79J20160102194509701/02/16 19:45:31  5-MIN K79J 030045Z AUTO 35003KT 10SM CLR 09/01 A3023 30 56 -500 350/03 RMK AO2
53843K79J 79J20160102195011401/02/16 19:50:31  5-MIN K79J 030050Z AUTO 36003KT 10SM CLR 09/02 A3022 30 58 -500 360/03 RMK AO2 SLP233 T00940017
53843K79J 79J20160102195511401/02/16 19:55:31  5-MIN K79J 030055Z AUTO 34003KT 10SM CLR 09/02 A3023 30 58 -500 340/03 RMK AO2 SLP234 T00940017
53843K79J 79J20160102200009701/02/16 20:00:31  5-MIN K79J 030100Z AUTO 34003KT 10SM CLR 09/02 A3023 30 58 -500 340/03 RMK AO2
53843K79J 79J20160102200509701/02/16 20:05:31  5-MIN K79J 030105Z AUTO 34004KT 10SM CLR 09/02 A3023 20 58 -500 340/04 RMK AO2
53843K79J 79J20160102201009701/02/16 20:10:31  5-MIN K79J 030110Z AUTO 34004KT 10SM CLR 09/02 A3024 20 58 -600 340/04 RMK AO2
53843K79J 79J20160102201509701/02/16 20:15:31  5-MIN K79J 030115Z AUTO 34004KT 10SM CLR 09/02 A3024 20 58 -500 340/04 RMK AO2
53843K79J 79J20160102202009701/02/16 20:20:31  5-MIN K79J 030120Z AUTO 34003KT 10SM CLR 09/02 A3023 20 58 -500 340/03 RMK AO2
53843K79J 79J20160102202509701/02/16 20:25:31  5-MIN K79J 030125Z AUTO 33003KT 10SM CLR 09/02 A3024 20 58 -500 330/03 RMK AO2
53843K79J 79J20160102203009701/02/16 20:30:31  5-MIN K79J 030130Z AUTO 34004KT 10SM CLR 09/01 A3023 20 56 -500 340/04 RMK AO2
53843K79J 79J20160102203509701/02/16 20:35:31  5-MIN K79J 030135Z AUTO 36004KT 10SM CLR 09/01 A3022 30 56 -500 360/04 RMK AO2
53843K79J 79J20160102204009701/02/16 20:40:31  5-MIN K79J 030140Z AUTO 36004KT 10SM CLR 09/02 A3023 30 58 -500 360/04 RMK AO2
53843K79J 79J20160102204509701/02/16 20:45:31  5-MIN K79J 030145Z AUTO 36003KT 10SM CLR 09/02 A3022 30 58 -500 360/03 RMK AO2
53843K79J 79J20160102205011401/02/16 20:50:31  5-MIN K79J 030150Z AUTO 36004KT 10SM CLR 09/02 A3022 30 58 -500 010/04 RMK AO2 SLP233 T00940017
53843K79J 79J20160102205511401/02/16 20:55:31  5-MIN K79J 030155Z AUTO 36004KT 10SM CLR 09/01 A3022 40 56 -500 360/04 RMK AO2 SLP232 T00940011
53843K79J 79J20160102210009701/02/16 21:00:31  5-MIN K79J 030200Z AUTO 36004KT 10SM CLR 09/01 A3022 40 56 -500 360/04 RMK AO2
53843K79J 79J20160102210509701/02/16 21:05:31  5-MIN K79J 030205Z AUTO 36004KT 10SM CLR 09/02 A3022 40 58 -500 360/04 RMK AO2
53843K79J 79J20160102211009701/02/16 21:10:31  5-MIN K79J 030210Z AUTO 36005KT 10SM CLR 09/01 A3022 40 56 -500 360/05 RMK AO2
53843K79J 79J20160102211509701/02/16 21:15:31  5-MIN K79J 030215Z AUTO 36005KT 10SM CLR 09/01 A3022 30 56 -500 360/05 RMK AO2
53843K79J 79J20160102212009701/02/16 21:20:31  5-MIN K79J 030220Z AUTO 35005KT 10SM CLR 09/01 A3023 30 56 -500 350/05 RMK AO2
53843K79J 79J20160102212509701/02/16 21:25:31  5-MIN K79J 030225Z AUTO 35005KT 10SM CLR 09/01 A3022 30 53 -500 350/05 RMK AO2
53843K79J 79J20160102213009701/02/16 21:30:31  5-MIN K79J 030230Z AUTO 35004KT 10SM CLR 09/01 A3023 30 53 -500 360/04 RMK AO2
53843K79J 79J20160102213509701/02/16 21:35:31  5-MIN K79J 030235Z AUTO 36004KT 10SM CLR 09/01 A3023 30 53 -500 360/04 RMK AO2
53843K79J 79J20160102214009701/02/16 21:40:31  5-MIN K79J 030240Z AUTO 34005KT 10SM CLR 09/01 A3023 30 56 -500 350/05 RMK AO2
53843K79J 79J20160102214509701/02/16 21:45:31  5-MIN K79J 030245Z AUTO 34004KT 10SM CLR 09/01 A3023 30 56 -500 350/04 RMK AO2
53843K79J 79J20160102215012001/02/16 21:50:31  5-MIN K79J 030250Z AUTO 35004KT 10SM CLR 09/01 A3022 40 56 -500 360/04 RMK AO2 SLP232 T00940011 53005
53843K79J 79J20160102215512001/02/16 21:55:31  5-MIN K79J 030255Z AUTO 01004KT 10SM CLR 09/01 A3021 40 56 -500 020/04 RMK AO2 SLP229 T00940011 53005
53843K79J 79J20160102220009701/02/16 22:00:31  5-MIN K79J 030300Z AUTO 01005KT 10SM CLR 09/01 A3021 50 56 -500 020/05 RMK AO2
53843K79J 79J20160102220509701/02/16 22:05:31  5-MIN K79J 030305Z AUTO 36005KT 10SM CLR 09/01 A3021 40 56 -500 360/05 RMK AO2
53843K79J 79J20160102221009701/02/16 22:10:31  5-MIN K79J 030310Z AUTO 35005KT 10SM CLR 09/01 A3022 40 56 -500 360/05 RMK AO2
53843K79J 79J20160102221509701/02/16 22:15:31  5-MIN K79J 030315Z AUTO 36005KT 10SM CLR 09/01 A3021 40 58 -600 360/05 RMK AO2
53843K79J 79J20160102222009701/02/16 22:20:31  5-MIN K79J 030320Z AUTO 36005KT 10SM CLR 09/01 A3021 40 58 -600 010/05 RMK AO2
53843K79J 79J20160102222509701/02/16 22:25:31  5-MIN K79J 030325Z AUTO 01005KT 10SM CLR 09/01 A3021 40 58 -600 010/05 RMK AO2
53843K79J 79J20160102223009701/02/16 22:30:31  5-MIN K79J 030330Z AUTO 36005KT 10SM CLR 08/01 A3021 50 60 -700 360/05 RMK AO2
53843K79J 79J20160102223509701/02/16 22:35:31  5-MIN K79J 030335Z AUTO 01004KT 10SM CLR 08/01 A3021 50 60 -700 010/04 RMK AO2
53843K79J 79J20160102224009701/02/16 22:40:31  5-MIN K79J 030340Z AUTO 01005KT 10SM CLR 08/01 A3021 40 60 -700 010/05 RMK AO2
53843K79J 79J20160102224509701/02/16 22:45:31  5-MIN K79J 030345Z AUTO 36004KT 10SM CLR 08/01 A3021 50 60 -700 010/04 RMK AO2
53843K79J 79J20160102225011401/02/16 22:50:31  5-MIN K79J 030350Z AUTO 02004KT 10SM CLR 08/01 A3021 50 62 -700 020/04 RMK AO2 SLP228 T00780011
53843K79J 79J20160102225511401/02/16 22:55:31  5-MIN K79J 030355Z AUTO 36004KT 10SM CLR 08/01 A3021 40 62 -700 360/04 RMK AO2 SLP230 T00780011
53843K79J 79J20160102230009701/02/16 23:00:31  5-MIN K79J 030400Z AUTO 36003KT 10SM CLR 08/01 A3021 40 60 -700 010/03 RMK AO2
53843K79J 79J20160102230509701/02/16 23:05:31  5-MIN K79J 030405Z AUTO 36004KT 10SM CLR 08/01 A3022 40 60 -700 010/04 RMK AO2
53843K79J 79J20160102231009701/02/16 23:10:31  5-MIN K79J 030410Z AUTO 00000KT 10SM CLR 08/01 A3021 40 62 -700 000/00 RMK AO2
53843K79J 79J20160102231509701/02/16 23:15:31  5-MIN K79J 030415Z AUTO 35003KT 10SM CLR 08/01 A3022 40 60 -700 350/03 RMK AO2
53843K79J 79J20160102232009701/02/16 23:20:31  5-MIN K79J 030420Z AUTO 35003KT 10SM CLR 08/01 A3021 40 60 -700 360/03 RMK AO2
53843K79J 79J20160102232509701/02/16 23:25:31  5-MIN K79J 030425Z AUTO 36003KT 10SM CLR 08/01 A3021 40 62 -700 360/03 RMK AO2
53843K79J 79J20160102233009701/02/16 23:30:31  5-MIN K79J 030430Z AUTO 00000KT 10SM CLR 08/01 A3021 40 60 -700 000/00 RMK AO2
53843K79J 79J20160102233509701/02/16 23:35:31  5-MIN K79J 030435Z AUTO 00000KT 10SM CLR 07/01 A3021 50 65 -800 000/00 RMK AO2
53843K79J 79J20160102234009701/02/16 23:40:31  5-MIN K79J 030440Z AUTO 00000KT 10SM CLR 07/01 A3021 50 65 -800 000/00 RMK AO2
53843K79J 79J20160102234509701/02/16 23:45:31  5-MIN K79J 030445Z AUTO 00000KT 10SM CLR 07/01 A3021 50 65 -800 000/00 RMK AO2
53843K79J 79J20160102235012401/02/16 23:50:31  5-MIN K79J 030450Z AUTO 35003KT 10SM CLR 07/01 A3021 50 65 -800 350/03 RMK AO2 SLP228 T00720011 401440061
53843K79J 79J20160102235512401/02/16 23:55:31  5-MIN K79J 030455Z AUTO 35003KT 10SM CLR 07/01 A3021 50 65 -800 350/03 RMK AO2 SLP228 T00720011 401440061
53843K79J 79J20160103000009701/03/16 00:00:31  5-MIN K79J 030500Z AUTO 34003KT 10SM CLR 07/01 A3021 40 67 -900 340/03 RMK AO2
53843K79J 79J20160103000509701/03/16 00:05:31  5-MIN K79J 030505Z AUTO 33003KT 10SM CLR 07/01 A3021 50 67 -900 340/03 RMK AO2
53843K79J 79J20160103001009701/03/16 00:10:31  5-MIN K79J 030510Z AUTO 32003KT 10SM CLR 07/01 A3021 40 67 -900 320/03 RMK AO2
53843K79J 79J20160103001509701/03/16 00:15:31  5-MIN K79J 030515Z AUTO 33003KT 10SM CLR 07/01 A3021 50 65 -800 340/03 RMK AO2
53843K79J 79J20160103002009701/03/16 00:20:31  5-MIN K79J 030520Z AUTO 34003KT 10SM CLR 07/01 A3021 50 67 -900 340/03 RMK AO2
53843K79J 79J20160103002509701/03/16 00:25:31  5-MIN K79J 030525Z AUTO 34004KT 10SM CLR 07/01 A3021 40 67 -900 340/04 RMK AO2
53843K79J 79J20160103003009701/03/16 00:30:31  5-MIN K79J 030530Z AUTO 35003KT 10SM CLR 07/01 A3021 50 67 -900 350/03 RMK AO2
53843K79J 79J20160103003509701/03/16 00:35:31  5-MIN K79J 030535Z AUTO 35003KT 10SM CLR 07/01 A3021 50 67 -900 350/03 RMK AO2
53843K79J 79J20160103004009701/03/16 00:40:31  5-MIN K79J 030540Z AUTO 34003KT 10SM CLR 07/01 A3021 50 67 -900 340/03 RMK AO2
53843K79J 79J20160103004509701/03/16 00:45:31  5-MIN K79J 030545Z AUTO 00000KT 10SM CLR 07/01 A3021 50 67 -900 000/00 RMK AO2
53843K79J 79J20160103005013201/03/16 00:50:31  5-MIN K79J 030550Z AUTO 33003KT 10SM CLR 07/01 A3020 50 67 -900 340/03 RMK AO2 SLP227 T00670011 10100 20067 50003
53843K79J 79J20160103005513201/03/16 00:55:31  5-MIN K79J 030555Z AUTO 00000KT 10SM CLR 07/02 A3020 60 70 -800 000/00 RMK AO2 SLP225 T00670017 10100 20067 50003
53843K79J 79J20160103010009701/03/16 01:00:31  5-MIN K79J 030600Z AUTO 35003KT 10SM CLR 07/02 A3020 50 70 -800 350/03 RMK AO2
53843K79J 79J20160103010509701/03/16 01:05:31  5-MIN K79J 030605Z AUTO 36004KT 10SM CLR 07/02 A3019 60 70 -800 360/04 RMK AO2
53843K79J 79J20160103011009701/03/16 01:10:31  5-MIN K79J 030610Z AUTO 36003KT 10SM CLR 07/02 A3019 60 70 -800 360/03 RMK AO2
53843K79J 79J20160103011509701/03/16 01:15:31  5-MIN K79J 030615Z AUTO 35003KT 10SM CLR 07/02 A3019 60 68 -800 360/03 RMK AO2
53843K79J 79J20160103012009701/03/16 01:20:31  5-MIN K79J 030620Z AUTO 34003KT 10SM CLR 07/02 A3019 60 68 -800 340/03 RMK AO2
53843K79J 79J20160103012509701/03/16 01:25:31  5-MIN K79J 030625Z AUTO 34004KT 10SM CLR 07/01 A3019 60 67 -800 340/04 RMK AO2
53843K79J 79J20160103013009701/03/16 01:30:31  5-MIN K79J 030630Z AUTO 35004KT 10SM CLR 07/01 A3019 60 67 -800 350/04 RMK AO2
53843K79J 79J20160103013509701/03/16 01:35:31  5-MIN K79J 030635Z AUTO 35004KT 10SM CLR 07/01 A3019 60 67 -800 350/04 RMK AO2
53843K79J 79J20160103014009701/03/16 01:40:31  5-MIN K79J 030640Z AUTO 36004KT 10SM CLR 07/01 A3019 60 67 -800 360/04 RMK AO2
53843K79J 79J20160103014509701/03/16 01:45:31  5-MIN K79J 030645Z AUTO 36004KT 10SM CLR 07/01 A3019 70 65 -800 010/04 RMK AO2
53843K79J 79J20160103015011401/03/16 01:50:31  5-MIN K79J 030650Z AUTO 36005KT 10SM CLR 07/01 A3019 70 65 -800 360/05 RMK AO2 SLP221 T00720011
53843K79J 79J20160103015511401/03/16 01:55:31  5-MIN K79J 030655Z AUTO 36005KT 10SM CLR 07/01 A3019 70 65 -800 010/05 RMK AO2 SLP221 T00720011
53843K79J 79J20160103020009701/03/16 02:00:31  5-MIN K79J 030700Z AUTO 36005KT 10SM CLR 07/01 A3019 70 65 -800 360/05 RMK AO2
53843K79J 79J20160103020509701/03/16 02:05:31  5-MIN K79J 030705Z AUTO 01005KT 10SM CLR 07/01 A3018 70 65 -800 010/05 RMK AO2
53843K79J 79J20160103021009701/03/16 02:10:31  5-MIN K79J 030710Z AUTO 35003KT 10SM CLR 07/01 A3019 70 65 -800 350/03 RMK AO2
53843K79J 79J20160103021509701/03/16 02:15:31  5-MIN K79J 030715Z AUTO 35005KT 10SM CLR 07/01 A3019 70 65 -800 360/05 RMK AO2
53843K79J 79J20160103022009701/03/16 02:20:31  5-MIN K79J 030720Z AUTO 36004KT 10SM CLR 07/01 A3019 70 65 -800 010/04 RMK AO2
53843K79J 79J20160103022509701/03/16 02:25:31  5-MIN K79J 030725Z AUTO 36004KT 10SM CLR 07/01 A3018 70 65 -800 360/04 RMK AO2
53843K79J 79J20160103023009701/03/16 02:30:31  5-MIN K79J 030730Z AUTO 36004KT 10SM CLR 07/01 A3019 60 67 -800 360/04 RMK AO2
53843K79J 79J20160103023509701/03/16 02:35:31  5-MIN K79J 030735Z AUTO 35004KT 10SM CLR 07/01 A3019 70 65 -800 350/04 RMK AO2
53843K79J 79J20160103024009701/03/16 02:40:31  5-MIN K79J 030740Z AUTO 36004KT 10SM CLR 07/01 A3018 70 65 -800 010/04 RMK AO2
53843K79J 79J20160103024509701/03/16 02:45:31  5-MIN K79J 030745Z AUTO 02004KT 10SM CLR 07/01 A3018 70 65 -800 020/04 RMK AO2
53843K79J 79J20160103025011401/03/16 02:50:31  5-MIN K79J 030750Z AUTO 02005KT 10SM CLR 07/01 A3017 80 62 -700 020/05 RMK AO2 SLP217 T00720006
53843K79J 79J20160103025511401/03/16 02:55:31  5-MIN K79J 030755Z AUTO 02004KT 10SM CLR 07/01 A3017 80 62 -700 020/04 RMK AO2 SLP216 T00720006
53843K79J 79J20160103030009701/03/16 03:00:31  5-MIN K79J 030800Z AUTO 02004KT 10SM CLR 07/01 A3017 80 62 -700 020/04 RMK AO2
53843K79J 79J20160103030509701/03/16 03:05:31  5-MIN K79J 030805Z AUTO 01005KT 10SM CLR 07/01 A3017 80 62 -700 020/05 RMK AO2
53843K79J 79J20160103031009701/03/16 03:10:31  5-MIN K79J 030810Z AUTO 02004KT 10SM CLR 07/01 A3017 90 62 -700 030/04 RMK AO2
53843K79J 79J20160103031509701/03/16 03:15:31  5-MIN K79J 030815Z AUTO 02003KT 10SM CLR 07/01 A3016 90 67 -800 020/03 RMK AO2
53843K79J 79J20160103032009701/03/16 03:20:31  5-MIN K79J 030820Z AUTO 01004KT 10SM CLR 07/01 A3017 80 65 -800 010/04 RMK AO2
53843K79J 79J20160103032509701/03/16 03:25:31  5-MIN K79J 030825Z AUTO 01005KT 10SM CLR 07/01 A3017 90 65 -800 010/05 RMK AO2
53843K79J 79J20160103033009701/03/16 03:30:31  5-MIN K79J 030830Z AUTO 01004KT 10SM CLR 07/01 A3016 90 65 -800 020/04 RMK AO2
53843K79J 79J20160103033509701/03/16 03:35:31  5-MIN K79J 030835Z AUTO 02005KT 10SM CLR 07/01 A3017 80 65 -800 020/05 RMK AO2
53843K79J 79J20160103034009701/03/16 03:40:31  5-MIN K79J 030840Z AUTO 01005KT 10SM CLR 07/01 A3017 80 65 -800 010/05 RMK AO2
53843K79J 79J20160103034509701/03/16 03:45:31  5-MIN K79J 030845Z AUTO 01006KT 10SM CLR 07/01 A3017 80 65 -800 010/06 RMK AO2
53843K79J 79J20160103035012001/03/16 03:50:31  5-MIN K79J 030850Z AUTO 01005KT 10SM CLR 07/01 A3017 80 65 -800 010/05 RMK AO2 SLP215 T00670006 58004
53843K79J 79J20160103035512001/03/16 03:55:31  5-MIN K79J 030855Z AUTO 36005KT 10SM CLR 07/01 A3017 80 65 -800 360/05 RMK AO2 SLP216 T00670006 58004
53843K79J 79J20160103040009701/03/16 04:00:31  5-MIN K79J 030900Z AUTO 02005KT 10SM CLR 07/01 A3016 90 65 -800 020/05 RMK AO2
53843K79J 79J20160103040509701/03/16 04:05:31  5-MIN K79J 030905Z AUTO 03003KT 10SM CLR 07/01 A3016 90 65 -800 030/03 RMK AO2
53843K79J 79J20160103041009701/03/16 04:10:31  5-MIN K79J 030910Z AUTO 03005KT 10SM CLR 07/00 A3016 90 62 -800 040/05 RMK AO2
53843K79J 79J20160103041509701/03/16 04:15:31  5-MIN K79J 030915Z AUTO 03004KT 10SM CLR 07/00 A3016 90 62 -800 030/04 RMK AO2
53843K79J 79J20160103042009701/03/16 04:20:31  5-MIN K79J 030920Z AUTO 02005KT 10SM CLR 07/00 A3016 90 62 -800 020/05 RMK AO2
53843K79J 79J20160103042509701/03/16 04:25:31  5-MIN K79J 030925Z AUTO 03004KT 10SM CLR 07/00 A3016 90 62 -800 030/04 RMK AO2
53843K79J 79J20160103043009701/03/16 04:30:31  5-MIN K79J 030930Z AUTO 01003KT 10SM CLR 07/00 A3016 90 62 -800 020/03 RMK AO2
53843K79J 79J20160103043509701/03/16 04:35:31  5-MIN K79J 030935Z AUTO 02004KT 10SM CLR 07/00 A3016 90 62 -800 020/04 RMK AO2
53843K79J 79J20160103044009701/03/16 04:40:31  5-MIN K79J 030940Z AUTO 00000KT 10SM CLR 07/01 A3016 90 65 -800 000/00 RMK AO2
53843K79J 79J20160103044509701/03/16 04:45:31  5-MIN K79J 030945Z AUTO 01003KT 10SM CLR 07/01 A3016 90 65 -800 010/03 RMK AO2
53843K79J 79J20160103045011401/03/16 04:50:31  5-MIN K79J 030950Z AUTO 00000KT 10SM CLR 07/00 A3016 90 62 -800 000/00 RMK AO2 SLP212 T00670000
53843K79J 79J20160103045511401/03/16 04:55:31  5-MIN K79J 030955Z AUTO 36003KT 10SM CLR 07/01 A3016 90 65 -800 360/03 RMK AO2 SLP211 T00670006
53843K79J 79J20160103050009801/03/16 05:00:31  5-MIN K79J 031000Z AUTO 01003KT 10SM CLR 07/01 A3015 100 65 -800 010/03 RMK AO2
53843K79J 79J20160103050509801/03/16 05:05:31  5-MIN K79J 031005Z AUTO 03004KT 10SM CLR 07/01 A3015 100 65 -800 030/04 RMK AO2
53843K79J 79J20160103051009801/03/16 05:10:31  5-MIN K79J 031010Z AUTO 03003KT 10SM CLR 07/01 A3014 110 65 -800 030/03 RMK AO2
53843K79J 79J20160103051509801/03/16 05:15:31  5-MIN K79J 031015Z AUTO 03004KT 10SM CLR 07/01 A3014 110 65 -800 040/04 RMK AO2
53843K79J 79J20160103052009801/03/16 05:20:31  5-MIN K79J 031020Z AUTO 03003KT 10SM CLR 07/00 A3014 110 62 -800 030/03 RMK AO2
53843K79J 79J20160103052509801/03/16 05:25:31  5-MIN K79J 031025Z AUTO 03003KT 10SM CLR 07/00 A3014 110 62 -800 030/03 RMK AO2
53843K79J 79J20160103053009801/03/16 05:30:31  5-MIN K79J 031030Z AUTO 03004KT 10SM CLR 07/01 A3014 110 65 -800 040/04 RMK AO2
53843K79J 79J20160103053509801/03/16 05:35:31  5-MIN K79J 031035Z AUTO 03004KT 10SM CLR 07/00 A3014 110 62 -800 030/04 RMK AO2
53843K79J 79J20160103054009801/03/16 05:40:31  5-MIN K79J 031040Z AUTO 01005KT 10SM CLR 07/00 A3015 100 62 -800 010/05 RMK AO2
53843K79J 79J20160103212510101/03/16 21:25:31  5-MIN K79J 040225Z AUTO 33006KT 10SM OVC095 11/01 A3010 150 52 -300 330/06 RMK AO2
53843K79J 79J20160103213010101/03/16 21:30:31  5-MIN K79J 040230Z AUTO 33008KT 10SM OVC095 11/01 A3010 140 52 -300 330/08 RMK AO2
53843K79J 79J20160103213510101/03/16 21:35:31  5-MIN K79J 040235Z AUTO 34007KT 10SM OVC090 11/01 A3011 140 52 -300 340/07 RMK AO2
53843K79J 79J20160103214010101/03/16 21:40:31  5-MIN K79J 040240Z AUTO 33008KT 10SM OVC090 11/01 A3011 140 52 -300 330/08 RMK AO2
53843K79J 79J20160103214510101/03/16 21:45:31  5-MIN K79J 040245Z AUTO 33007KT 10SM OVC090 11/01 A3011 140 52 -300 330/07 RMK AO2
53843K79J 79J20160103215012401/03/16 21:50:31  5-MIN K79J 040250Z AUTO 33007KT 10SM OVC090 11/01 A3011 130 52 -300 340/07 RMK AO2 SLP196 T01060011 50001
53843K79J 79J20160103215512401/03/16 21:55:31  5-MIN K79J 040255Z AUTO 33006KT 10SM OVC095 11/01 A3011 130 52 -300 340/06 RMK AO2 SLP196 T01060011 50001
53843K79J 79J20160103220010101/03/16 22:00:31  5-MIN K79J 040300Z AUTO 33007KT 10SM OVC095 11/01 A3012 130 52 -300 340/07 RMK AO2
53843K79J 79J20160103220510101/03/16 22:05:31  5-MIN K79J 040305Z AUTO 33008KT 10SM OVC100 11/01 A3011 130 52 -300 330/08 RMK AO2
53843K79J 79J20160103221010101/03/16 22:10:31  5-MIN K79J 040310Z AUTO 33007KT 10SM OVC100 10/01 A3012 130 54 -300 340/07 RMK AO2
53843K79J 79J20160103221510101/03/16 22:15:31  5-MIN K79J 040315Z AUTO 33007KT 10SM OVC100 10/01 A3011 130 54 -300 340/07 RMK AO2
53843K79J 79J20160103222010101/03/16 22:20:31  5-MIN K79J 040320Z AUTO 34008KT 10SM OVC100 10/01 A3011 130 54 -300 340/08 RMK AO2
53843K79J 79J20160103222510801/03/16 22:25:31  5-MIN K79J 040325Z AUTO 34008KT 10SM FEW080 OVC100 10/01 A3011 130 54 -300 340/08 RMK AO2
53843K79J 79J20160103223010101/03/16 22:30:31  5-MIN K79J 040330Z AUTO 33006KT 10SM OVC100 10/01 A3011 130 54 -300 340/06 RMK AO2
53843K79J 79J20160103223510101/03/16 22:35:31  5-MIN K79J 040335Z AUTO 34006KT 10SM OVC100 10/01 A3011 140 54 -300 340/06 RMK AO2
53843K79J 79J20160103224010801/03/16 22:40:31  5-MIN K79J 040340Z AUTO 34007KT 10SM FEW085 OVC100 10/01 A3011 130 54 -300 340/07 RMK AO2
53843K79J 79J20160103224510801/03/16 22:45:31  5-MIN K79J 040345Z AUTO 34007KT 10SM SCT085 OVC100 10/01 A3011 130 54 -300 340/07 RMK AO2
53843K79J 79J20160103225012501/03/16 22:50:31  5-MIN K79J 040350Z AUTO 33008KT 10SM BKN085 OVC100 10/01 A3011 130 54 -300 340/08 RMK AO2 SLP196 T01000011
53843K79J 79J20160103225512501/03/16 22:55:31  5-MIN K79J 040355Z AUTO 34008KT 10SM BKN085 OVC110 10/01 A3011 130 54 -300 340/08 RMK AO2 SLP196 T01000011
53843K79J 79J20160103230010801/03/16 23:00:31  5-MIN K79J 040400Z AUTO 34008KT 10SM BKN080 OVC110 10/01 A3011 130 54 -300 340/08 RMK AO2
53843K79J 79J20160103230510801/03/16 23:05:31  5-MIN K79J 040405Z AUTO 33009KT 10SM BKN085 OVC110 10/01 A3011 130 52 -300 330/09 RMK AO2
53843K79J 79J20160103231010801/03/16 23:10:31  5-MIN K79J 040410Z AUTO 34007KT 10SM BKN085 BKN110 10/01 A3011 130 52 -300 340/07 RMK AO2
53843K79J 79J20160103231510101/03/16 23:15:31  5-MIN K79J 040415Z AUTO 34007KT 10SM BKN085 10/01 A3011 130 54 -300 340/07 RMK AO2
53843K79J 79J20160103232010801/03/16 23:20:31  5-MIN K79J 040420Z AUTO 35007KT 10SM BKN090 BKN110 10/01 A3011 140 52 -300 350/07 RMK AO2
53843K79J 79J20160103232510801/03/16 23:25:31  5-MIN K79J 040425Z AUTO 34006KT 10SM SCT085 BKN110 10/01 A3011 140 52 -300 350/06 RMK AO2
53843K79J 79J20160103233010801/03/16 23:30:31  5-MIN K79J 040430Z AUTO 34006KT 10SM FEW090 BKN110 09/01 A3011 140 53 -400 340/06 RMK AO2
53843K79J 79J20160103233510801/03/16 23:35:31  5-MIN K79J 040435Z AUTO 34006KT 10SM SCT100 BKN110 09/01 A3011 140 53 -400 340/06 RMK AO2
53843K79J 79J20160103234010101/03/16 23:40:31  5-MIN K79J 040440Z AUTO 34006KT 10SM BKN110 09/01 A3011 140 53 -400 340/06 RMK AO2
53843K79J 79J20160103234510101/03/16 23:45:31  5-MIN K79J 040445Z AUTO 34005KT 10SM BKN110 09/01 A3011 140 53 -400 340/05 RMK AO2
53843K79J 79J20160103235012801/03/16 23:50:31  5-MIN K79J 040450Z AUTO 34007KT 10SM BKN110 09/01 A3011 140 53 -400 340/07 RMK AO2 SLP193 T00940006 401280056
53843K79J 79J20160103235512801/03/16 23:55:31  5-MIN K79J 040455Z AUTO 34007KT 10SM BKN110 09/01 A3010 140 53 -400 340/07 RMK AO2 SLP193 T00940006 401280056
53843K79J 79J20160104000010101/04/16 00:00:31  5-MIN K79J 040500Z AUTO 34006KT 10SM OVC110 09/01 A3010 150 53 -400 340/06 RMK AO2
53843K79J 79J20160104000510101/04/16 00:05:31  5-MIN K79J 040505Z AUTO 34007KT 10SM OVC110 09/01 A3010 140 53 -400 340/07 RMK AO2
53843K79J 79J20160104001010101/04/16 00:10:31  5-MIN K79J 040510Z AUTO 34006KT 10SM OVC110 09/01 A3010 140 53 -400 340/06 RMK AO2
53843K79J 79J20160104001510101/04/16 00:15:31  5-MIN K79J 040515Z AUTO 34006KT 10SM OVC110 09/01 A3010 150 56 -400 350/06 RMK AO2
53843K79J 79J20160104002010101/04/16 00:20:31  5-MIN K79J 040520Z AUTO 34007KT 10SM OVC100 09/01 A3010 150 56 -400 340/07 RMK AO2
53843K79J 79J20160104002510101/04/16 00:25:31  5-MIN K79J 040525Z AUTO 35006KT 10SM OVC100 09/01 A3010 150 56 -400 350/06 RMK AO2
53843K79J 79J20160104003010101/04/16 00:30:31  5-MIN K79J 040530Z AUTO 35005KT 10SM OVC100 09/01 A3009 150 56 -400 350/05 RMK AO2
53843K79J 79J20160104003510101/04/16 00:35:31  5-MIN K79J 040535Z AUTO 34005KT 10SM BKN110 09/01 A3009 150 58 -500 350/05 RMK AO2
53843K79J 79J20160104004010101/04/16 00:40:31  5-MIN K79J 040540Z AUTO 34005KT 10SM BKN110 09/01 A3009 150 58 -500 340/05 RMK AO2
53843K79J 79J20160104004510101/04/16 00:45:31  5-MIN K79J 040545Z AUTO 34005KT 10SM SCT100 09/01 A3009 160 58 -500 340/05 RMK AO2
53843K79J 79J20160104005013601/04/16 00:50:31  5-MIN K79J 040550Z AUTO 34005KT 10SM SCT100 08/01 A3009 160 60 -500 350/05 RMK AO2 SLP188 T00830011 10111 20083 53015
53843K79J 79J20160104005513601/04/16 00:55:31  5-MIN K79J 040555Z AUTO 34005KT 10SM SCT100 08/01 A3009 160 60 -500 340/05 RMK AO2 SLP188 T00830011 10111 20083 53015
53843K79J 79J20160104010010101/04/16 01:00:31  5-MIN K79J 040600Z AUTO 34004KT 10SM FEW100 08/01 A3009 160 60 -500 340/04 RMK AO2
53843K79J 79J20160104010509801/04/16 01:05:31  5-MIN K79J 040605Z AUTO 34004KT 10SM CLR 08/01 A3008 160 60 -500 340/04 RMK AO2
53843K79J 79J20160104011009801/04/16 01:10:31  5-MIN K79J 040610Z AUTO 34004KT 10SM CLR 08/01 A3008 160 60 -500 340/04 RMK AO2
53843K79J 79J20160104011509801/04/16 01:15:31  5-MIN K79J 040615Z AUTO 33004KT 10SM CLR 08/01 A3008 160 62 -600 330/04 RMK AO2
53843K79J 79J20160104012009801/04/16 01:20:31  5-MIN K79J 040620Z AUTO 33005KT 10SM CLR 08/01 A3009 160 62 -600 330/05 RMK AO2
53843K79J 79J20160104012509801/04/16 01:25:31  5-MIN K79J 040625Z AUTO 33005KT 10SM CLR 08/01 A3008 160 62 -600 330/05 RMK AO2
53843K79J 79J20160104013009801/04/16 01:30:31  5-MIN K79J 040630Z AUTO 33005KT 10SM CLR 08/01 A3008 160 62 -600 330/05 RMK AO2
53843K79J 79J20160104013509801/04/16 01:35:31  5-MIN K79J 040635Z AUTO 33005KT 10SM CLR 08/01 A3008 160 62 -600 330/05 RMK AO2
53843K79J 79J20160104014009801/04/16 01:40:31  5-MIN K79J 040640Z AUTO 33005KT 10SM CLR 07/01 A3008 160 65 -600 330/05 RMK AO2
53843K79J 79J20160104014509801/04/16 01:45:31  5-MIN K79J 040645Z AUTO 33004KT 10SM CLR 07/01 A3008 170 65 -600 330/04 RMK AO2
53843K79J 79J20160105172509901/05/16 17:25:31  5-MIN K79J 052225Z AUTO 10005KT 10SM CLR 10/M07 A3037 -90 29 -600 100/05 RMK AO2
53843K79J 79J20160105173009901/05/16 17:30:31  5-MIN K79J 052230Z AUTO 10005KT 10SM CLR 10/M07 A3037 -90 29 -600 100/05 RMK AO2
53843K79J 79J20160105173509901/05/16 17:35:31  5-MIN K79J 052235Z AUTO 09006KT 10SM CLR 09/M07 A3037 -90 30 -700 090/06 RMK AO2
53843K79J 79J20160105174009901/05/16 17:40:31  5-MIN K79J 052240Z AUTO 09005KT 10SM CLR 09/M07 A3037 -90 30 -700 090/05 RMK AO2
53843K79J 79J20160105174510001/05/16 17:45:31  5-MIN K79J 052245Z AUTO 09005KT 10SM CLR 09/M07 A3037 -100 32 -800 090/05 RMK AO2
53843K79J 79J20160105175011701/05/16 17:50:31  5-MIN K79J 052250Z AUTO 09004KT 10SM CLR 09/M07 A3037 -100 32 -800 090/04 RMK AO2 SLP285 T00891067
53843K79J 79J20160105175511701/05/16 17:55:31  5-MIN K79J 052255Z AUTO 09004KT 10SM CLR 08/M07 A3037 -100 34 -800 090/04 RMK AO2 SLP286 T00831067
53843K79J 79J20160105180010001/05/16 18:00:31  5-MIN K79J 052300Z AUTO 09004KT 10SM CLR 08/M07 A3038 -100 34 -800 100/04 RMK AO2
53843K79J 79J20160105180510001/05/16 18:05:31  5-MIN K79J 052305Z AUTO 09004KT 10SM CLR 08/M06 A3038 -100 36 -900 090/04 RMK AO2
53843K79J 79J20160105181010001/05/16 18:10:31  5-MIN K79J 052310Z AUTO 10004KT 10SM CLR 08/M06 A3038 -110 36 -900 100/04 RMK AO2
53843K79J 79J20160105181510001/05/16 18:15:31  5-MIN K79J 052315Z AUTO 09003KT 10SM CLR 08/M06 A3038 -110 36 -900 090/03 RMK AO2
53843K79J 79J20160105182010101/05/16 18:20:31  5-MIN K79J 052320Z AUTO 10004KT 10SM CLR 07/M06 A3039 -110 38 -1000 100/04 RMK AO2
53843K79J 79J20160105182510101/05/16 18:25:31  5-MIN K79J 052325Z AUTO 10003KT 10SM CLR 07/M06 A3039 -110 38 -1000 100/03 RMK AO2
53843K79J 79J20160105183010101/05/16 18:30:31  5-MIN K79J 052330Z AUTO 09003KT 10SM CLR 07/M06 A3039 -110 40 -1000 100/03 RMK AO2
53843K79J 79J20160105183510101/05/16 18:35:31  5-MIN K79J 052335Z AUTO 09003KT 10SM CLR 07/M06 A3039 -110 40 -1000 100/03 RMK AO2
53843K79J 79J20160105184010101/05/16 18:40:31  5-MIN K79J 052340Z AUTO 09004KT 10SM CLR 07/M06 A3039 -110 41 -1100 090/04 RMK AO2
53843K79J 79J20160105184510101/05/16 18:45:31  5-MIN K79J 052345Z AUTO 08004KT 10SM CLR 07/M06 A3039 -110 41 -1100 090/04 RMK AO2
53843K79J 79J20160105185013601/05/16 18:50:31  5-MIN K79J 052350Z AUTO 09005KT 10SM CLR 07/M06 A3038 -110 39 -1100 090/05 RMK AO2 SLP289 T00671061 10122 20067 56014
53843K79J 79J20160105185513601/05/16 18:55:31  5-MIN K79J 052355Z AUTO 09004KT 10SM CLR 07/M06 A3038 -110 39 -1100 090/04 RMK AO2 SLP289 T00671061 10122 20067 56014
53843K79J 79J20160105190010101/05/16 19:00:31  5-MIN K79J 060000Z AUTO 08006KT 10SM CLR 07/M06 A3038 -110 39 -1100 090/06 RMK AO2
53843K79J 79J20160105190510101/05/16 19:05:31  5-MIN K79J 060005Z AUTO 08004KT 10SM CLR 07/M06 A3038 -110 39 -1100 090/04 RMK AO2
53843K79J 79J20160105191010101/05/16 19:10:31  5-MIN K79J 060010Z AUTO 09005KT 10SM CLR 06/M06 A3038 -110 41 -1100 090/05 RMK AO2
53843K79J 79J20160105191510101/05/16 19:15:31  5-MIN K79J 060015Z AUTO 09004KT 10SM CLR 06/M06 A3038 -110 41 -1100 090/04 RMK AO2
53843K79J 79J20160105192010101/05/16 19:20:31  5-MIN K79J 060020Z AUTO 09005KT 10SM CLR 06/M06 A3038 -110 41 -1100 100/05 RMK AO2
53843K79J 79J20160105192510101/05/16 19:25:31  5-MIN K79J 060025Z AUTO 09005KT 10SM CLR 06/M06 A3039 -110 41 -1100 090/05 RMK AO2
53843K79J 79J20160105193010101/05/16 19:30:31  5-MIN K79J 060030Z AUTO 09004KT 10SM CLR 06/M06 A3039 -110 41 -1100 090/04 RMK AO2
53843K79J 79J20160105193510101/05/16 19:35:31  5-MIN K79J 060035Z AUTO 09004KT 10SM CLR 06/M06 A3039 -110 41 -1100 100/04 RMK AO2
53843K79J 79J20160105194010101/05/16 19:40:31  5-MIN K79J 060040Z AUTO 09004KT 10SM CLR 06/M06 A3039 -120 41 -1100 100/04 RMK AO2
53843K79J 79J20160105194510101/05/16 19:45:31  5-MIN K79J 060045Z AUTO 10004KT 10SM CLR 06/M06 A3039 -120 43 -1200 100/04 RMK AO2
53843K79J 79J20160105195011801/05/16 19:50:31  5-MIN K79J 060050Z AUTO 10004KT 10SM CLR 06/M06 A3040 -120 43 -1200 100/04 RMK AO2 SLP293 T00561061
53843K79J 79J20160105195511801/05/16 19:55:31  5-MIN K79J 060055Z AUTO 10003KT 10SM CLR 06/M06 A3040 -120 43 -1200 100/03 RMK AO2 SLP295 T00561061
53843K79J 79J20160105200010101/05/16 20:00:31  5-MIN K79J 060100Z AUTO 10003KT 10SM CLR 06/M06 A3040 -130 43 -1200 100/03 RMK AO2
53843K79J 79J20160105200510101/05/16 20:05:31  5-MIN K79J 060105Z AUTO 09003KT 10SM CLR 05/M06 A3041 -130 46 -1300 090/03 RMK AO2
53843K79J 79J20160105201010101/05/16 20:10:31  5-MIN K79J 060110Z AUTO 10003KT 10SM CLR 05/M06 A3041 -130 44 -1300 100/03 RMK AO2
53843K79J 79J20160105201510101/05/16 20:15:31  5-MIN K79J 060115Z AUTO 00000KT 10SM CLR 04/M05 A3041 -130 50 -1400 000/00 RMK AO2
53843K79J 79J20160105202010101/05/16 20:20:31  5-MIN K79J 060120Z AUTO 00000KT 10SM CLR 04/M06 A3041 -130 50 -1400 000/00 RMK AO2
53843K79J 79J20160105202510101/05/16 20:25:31  5-MIN K79J 060125Z AUTO 00000KT 10SM CLR 04/M06 A3041 -130 48 -1400 000/00 RMK AO2
53843K79J 79J20160105203010101/05/16 20:30:31  5-MIN K79J 060130Z AUTO 00000KT 10SM CLR 04/M05 A3041 -130 50 -1400 000/00 RMK AO2
53843K79J 79J20160105203510101/05/16 20:35:31  5-MIN K79J 060135Z AUTO 00000KT 10SM CLR 04/M05 A3041 -130 50 -1400 000/00 RMK AO2
53843K79J 79J20160105204010101/05/16 20:40:31  5-MIN K79J 060140Z AUTO 11003KT 10SM CLR 04/M06 A3041 -130 50 -1400 110/03 RMK AO2
53843K79J 79J20160105204510101/05/16 20:45:31  5-MIN K79J 060145Z AUTO 12003KT 10SM CLR 04/M05 A3041 -130 52 -1400 120/03 RMK AO2
53843K79J 79J20160105205011801/05/16 20:50:31  5-MIN K79J 060150Z AUTO 12003KT 10SM CLR 03/M04 A3041 -130 57 -1500 120/03 RMK AO2 SLP299 T00331044
53843K79J 79J20160105205511801/05/16 20:55:31  5-MIN K79J 060155Z AUTO 12003KT 10SM CLR 03/M05 A3041 -130 54 -1500 120/03 RMK AO2 SLP299 T00331050
53843K79J 79J20160105210010101/05/16 21:00:31  5-MIN K79J 060200Z AUTO 11004KT 10SM CLR 04/M05 A3041 -140 52 -1400 120/04 RMK AO2
53843K79J 79J20160105210510101/05/16 21:05:31  5-MIN K79J 060205Z AUTO 11004KT 10SM CLR 04/M05 A3041 -140 52 -1400 110/04 RMK AO2
53843K79J 79J20160105211010101/05/16 21:10:31  5-MIN K79J 060210Z AUTO 12003KT 10SM CLR 03/M04 A3042 -140 57 -1500 120/03 RMK AO2
53843K79J 79J20160105211510101/05/16 21:15:31  5-MIN K79J 060215Z AUTO 11004KT 10SM CLR 03/M05 A3041 -140 54 -1500 110/04 RMK AO2
53843K79J 79J20160105212010101/05/16 21:20:31  5-MIN K79J 060220Z AUTO 11004KT 10SM CLR 04/M05 A3041 -140 52 -1400 110/04 RMK AO2
53843K79J 79J20160105212510101/05/16 21:25:31  5-MIN K79J 060225Z AUTO 11004KT 10SM CLR 04/M05 A3041 -130 52 -1400 110/04 RMK AO2
53843K79J 79J20160105213010101/05/16 21:30:31  5-MIN K79J 060230Z AUTO 11005KT 10SM CLR 03/M04 A3041 -130 57 -1500 110/05 RMK AO2
53843K79J 79J20160105213510101/05/16 21:35:31  5-MIN K79J 060235Z AUTO 11006KT 10SM CLR 03/M04 A3041 -130 57 -1500 110/06 RMK AO2
53843K79J 79J20160105214010101/05/16 21:40:31  5-MIN K79J 060240Z AUTO 11006KT 10SM CLR 03/M04 A3041 -130 57 -1500 120/06 RMK AO2
53843K79J 79J20160105214510101/05/16 21:45:31  5-MIN K79J 060245Z AUTO 11006KT 10SM CLR 03/M04 A3041 -130 57 -1500 110/06 RMK AO2
53843K79J 79J20160105215012401/05/16 21:50:31  5-MIN K79J 060250Z AUTO 11005KT 10SM CLR 03/M04 A3041 -130 59 -1600 120/05 RMK AO2 SLP298 T00281044 52010
53843K79J 79J20160105215512401/05/16 21:55:31  5-MIN K79J 060255Z AUTO 11005KT 10SM CLR 03/M04 A3041 -130 57 -1500 110/05 RMK AO2 SLP297 T00331044 52010
53843K79J 79J20160105220010101/05/16 22:00:31  5-MIN K79J 060300Z AUTO 11005KT 10SM CLR 03/M04 A3041 -130 57 -1500 110/05 RMK AO2
53843K79J 79J20160105220510101/05/16 22:05:31  5-MIN K79J 060305Z AUTO 11005KT 10SM CLR 03/M05 A3041 -130 54 -1500 110/05 RMK AO2
53843K79J 79J20160105221010101/05/16 22:10:31  5-MIN K79J 060310Z AUTO 11005KT 10SM CLR 03/M05 A3041 -130 54 -1500 120/05 RMK AO2
53843K79J 79J20160105221510101/05/16 22:15:31  5-MIN K79J 060315Z AUTO 11005KT 10SM CLR 03/M05 A3041 -130 54 -1500 110/05 RMK AO2
53843K79J 79J20160105222010101/05/16 22:20:31  5-MIN K79J 060320Z AUTO 11005KT 10SM CLR 03/M05 A3041 -130 56 -1600 110/05 RMK AO2
53843K79J 79J20160105222510101/05/16 22:25:31  5-MIN K79J 060325Z AUTO 11005KT 10SM CLR 03/M05 A3041 -130 54 -1500 110/05 RMK AO2
53843K79J 79J20160105223010101/05/16 22:30:31  5-MIN K79J 060330Z AUTO 11004KT 10SM CLR 03/M05 A3041 -130 54 -1500 110/04 RMK AO2
53843K79J 79J20160105223510101/05/16 22:35:31  5-MIN K79J 060335Z AUTO 11005KT 10SM CLR 03/M05 A3041 -130 54 -1500 110/05 RMK AO2
53843K79J 79J20160105224010101/05/16 22:40:31  5-MIN K79J 060340Z AUTO 11005KT 10SM CLR 03/M05 A3041 -130 54 -1500 110/05 RMK AO2
53843K79J 79J20160105224510101/05/16 22:45:31  5-MIN K79J 060345Z AUTO 11005KT 10SM CLR 03/M05 A3041 -130 54 -1500 110/05 RMK AO2
53843K79J 79J20160105225011801/05/16 22:50:31  5-MIN K79J 060350Z AUTO 11005KT 10SM CLR 03/M05 A3041 -130 54 -1500 110/05 RMK AO2 SLP296 T00331050
53843K79J 79J20160105225511801/05/16 22:55:31  5-MIN K79J 060355Z AUTO 11005KT 10SM CLR 03/M05 A3040 -130 54 -1500 110/05 RMK AO2 SLP296 T00331050
53843K79J 79J20160105230010101/05/16 23:00:31  5-MIN K79J 060400Z AUTO 11005KT 10SM CLR 03/M05 A3040 -130 54 -1500 110/05 RMK AO2
53843K79J 79J20160105230510101/05/16 23:05:31  5-MIN K79J 060405Z AUTO 11005KT 10SM CLR 03/M05 A3040 -130 54 -1500 110/05 RMK AO2
53843K79J 79J20160105231010101/05/16 23:10:31  5-MIN K79J 060410Z AUTO 11005KT 10SM CLR 03/M05 A3040 -130 54 -1500 110/05 RMK AO2
53843K79J 79J20160105231510101/05/16 23:15:31  5-MIN K79J 060415Z AUTO 10004KT 10SM CLR 03/M05 A3040 -120 54 -1500 110/04 RMK AO2
53843K79J 79J20160105232010101/05/16 23:20:31  5-MIN K79J 060420Z AUTO 10005KT 10SM CLR 03/M05 A3040 -120 54 -1500 110/05 RMK AO2
53843K79J 79J20160105232510101/05/16 23:25:31  5-MIN K79J 060425Z AUTO 11004KT 10SM CLR 03/M05 A3040 -120 54 -1500 110/04 RMK AO2
53843K79J 79J20160105233010101/05/16 23:30:31  5-MIN K79J 060430Z AUTO 11004KT 10SM CLR 03/M05 A3039 -120 54 -1500 110/04 RMK AO2
53843K79J 79J20160105233510101/05/16 23:35:31  5-MIN K79J 060435Z AUTO 11004KT 10SM CLR 03/M05 A3039 -120 56 -1600 110/04 RMK AO2
53843K79J 79J20160105234010101/05/16 23:40:31  5-MIN K79J 060440Z AUTO 11004KT 10SM CLR 03/M05 A3039 -120 56 -1600 110/04 RMK AO2
53843K79J 79J20160105234510101/05/16 23:45:31  5-MIN K79J 060445Z AUTO 10004KT 10SM CLR 03/M05 A3039 -120 56 -1500 110/04 RMK AO2
53843K79J 79J20160105235012801/05/16 23:50:31  5-MIN K79J 060450Z AUTO 11004KT 10SM CLR 03/M05 A3039 -120 56 -1500 110/04 RMK AO2 SLP291 T00281050 401220011
53843K79J 79J20160105235512801/05/16 23:55:31  5-MIN K79J 060455Z AUTO 11004KT 10SM CLR 03/M05 A3039 -110 56 -1500 110/04 RMK AO2 SLP291 T00281050 401220011
53843K79J 79J20160106000010101/06/16 00:00:31  5-MIN K79J 060500Z AUTO 11004KT 10SM CLR 03/M05 A3039 -110 56 -1500 110/04 RMK AO2
53843K79J 79J20160106000510101/06/16 00:05:31  5-MIN K79J 060505Z AUTO 10003KT 10SM CLR 03/M05 A3039 -110 56 -1500 110/03 RMK AO2
53843K79J 79J20160106001010101/06/16 00:10:31  5-MIN K79J 060510Z AUTO 11003KT 10SM CLR 03/M04 A3039 -110 59 -1500 110/03 RMK AO2
53843K79J 79J20160106001510101/06/16 00:15:31  5-MIN K79J 060515Z AUTO 11003KT 10SM CLR 03/M04 A3039 -110 59 -1500 110/03 RMK AO2
53843K79J 79J20160106002010101/06/16 00:20:31  5-MIN K79J 060520Z AUTO 11003KT 10SM CLR 02/M04 A3039 -110 61 -1600 110/03 RMK AO2
53843K79J 79J20160106002510101/06/16 00:25:31  5-MIN K79J 060525Z AUTO 10003KT 10SM CLR 02/M04 A3039 -110 61 -1600 100/03 RMK AO2
53843K79J 79J20160106003010101/06/16 00:30:31  5-MIN K79J 060530Z AUTO 11003KT 10SM CLR 02/M04 A3039 -110 61 -1600 110/03 RMK AO2
53843K79J 79J20160106003510101/06/16 00:35:31  5-MIN K79J 060535Z AUTO 10004KT 10SM CLR 02/M04 A3038 -110 61 -1600 100/04 RMK AO2
53843K79J 79J20160106004010101/06/16 00:40:31  5-MIN K79J 060540Z AUTO 11004KT 10SM CLR 02/M04 A3038 -110 61 -1600 110/04 RMK AO2
53843K79J 79J20160106004510101/06/16 00:45:31  5-MIN K79J 060545Z AUTO 10004KT 10SM CLR 02/M04 A3038 -110 61 -1600 110/04 RMK AO2
53843K79J 79J20160106005013601/06/16 00:50:31  5-MIN K79J 060550Z AUTO 10004KT 10SM CLR 02/M04 A3038 -110 61 -1600 100/04 RMK AO2 SLP289 T00221044 10067 20022 50008
53843K79J 79J20160106005513601/06/16 00:55:31  5-MIN K79J 060555Z AUTO 10004KT 10SM CLR 03/M04 A3038 -110 59 -1500 100/04 RMK AO2 SLP289 T00281044 10067 20022 50008
53843K79J 79J20160106010010101/06/16 01:00:31  5-MIN K79J 060600Z AUTO 10004KT 10SM CLR 03/M04 A3038 -110 59 -1500 100/04 RMK AO2
53843K79J 79J20160106010510101/06/16 01:05:31  5-MIN K79J 060605Z AUTO 10004KT 10SM CLR 03/M05 A3038 -110 56 -1500 110/04 RMK AO2
53843K79J 79J20160106011010101/06/16 01:10:31  5-MIN K79J 060610Z AUTO 11004KT 10SM CLR 03/M04 A3038 -100 59 -1500 110/04 RMK AO2
53843K79J 79J20160106011510101/06/16 01:15:31  5-MIN K79J 060615Z AUTO 10004KT 10SM CLR 02/M04 A3038 -100 61 -1600 110/04 RMK AO2
53843K79J 79J20160106012010101/06/16 01:20:31  5-MIN K79J 060620Z AUTO 11004KT 10SM CLR 02/M04 A3038 -100 61 -1600 110/04 RMK AO2
53843K79J 79J20160106012510101/06/16 01:25:31  5-MIN K79J 060625Z AUTO 11004KT 10SM CLR 02/M04 A3037 -100 61 -1600 110/04 RMK AO2
53843K79J 79J20160106013010101/06/16 01:30:31  5-MIN K79J 060630Z AUTO 11005KT 10SM CLR 02/M04 A3037 -100 61 -1600 110/05 RMK AO2
53843K79J 79J20160106042510301/06/16 04:25:31  5-MIN K79J 060925Z AUTO 11006KT 10SM BKN036 05/M04 A3035 -80 52 -1200 110/06 RMK AO2
53843K79J 79J20160106043010301/06/16 04:30:31  5-MIN K79J 060930Z AUTO 10005KT 10SM BKN034 04/M04 A3035 -80 52 -1300 110/05 RMK AO2
53843K79J 79J20160106043510301/06/16 04:35:31  5-MIN K79J 060935Z AUTO 11005KT 10SM BKN034 05/M04 A3035 -80 50 -1200 110/05 RMK AO2
53843K79J 79J20160106044010301/06/16 04:40:31  5-MIN K79J 060940Z AUTO 12006KT 10SM OVC034 05/M04 A3035 -80 52 -1200 120/06 RMK AO2
53843K79J 79J20160106044511001/06/16 04:45:31  5-MIN K79J 060945Z AUTO 11006KT 10SM BKN034 OVC044 05/M04 A3035 -80 50 -1200 110/06 RMK AO2
53843K79J 79J20160106045012701/06/16 04:50:31  5-MIN K79J 060950Z AUTO 11006KT 10SM BKN036 OVC044 05/M04 A3035 -80 50 -1200 110/06 RMK AO2 SLP276 T00501044
53843K79J 79J20160106045512701/06/16 04:55:31  5-MIN K79J 060955Z AUTO 11005KT 10SM BKN036 OVC044 05/M04 A3035 -80 52 -1200 110/05 RMK AO2 SLP276 T00501039
53843K79J 79J20160106050011001/06/16 05:00:31  5-MIN K79J 061000Z AUTO 11005KT 10SM BKN038 OVC044 05/M04 A3035 -80 52 -1200 120/05 RMK AO2
53843K79J 79J20160106050510301/06/16 05:05:31  5-MIN K79J 061005Z AUTO 11005KT 10SM OVC042 05/M04 A3035 -80 52 -1200 110/05 RMK AO2
53843K79J 79J20160106051010301/06/16 05:10:31  5-MIN K79J 061010Z AUTO 12005KT 10SM OVC042 05/M04 A3036 -80 52 -1200 120/05 RMK AO2
53843K79J 79J20160106051510301/06/16 05:15:31  5-MIN K79J 061015Z AUTO 11005KT 10SM OVC044 05/M04 A3036 -80 52 -1200 110/05 RMK AO2
53843K79J 79J20160106052010301/06/16 05:20:31  5-MIN K79J 061020Z AUTO 10005KT 10SM OVC044 05/M04 A3036 -80 52 -1200 100/05 RMK AO2
53843K79J 79J20160106052510301/06/16 05:25:31  5-MIN K79J 061025Z AUTO 10004KT 10SM OVC044 05/M04 A3035 -80 52 -1200 100/04 RMK AO2
53843K79J 79J20160106053010301/06/16 05:30:31  5-MIN K79J 061030Z AUTO 10007KT 10SM OVC044 05/M04 A3035 -80 52 -1200 100/07 RMK AO2
53843K79J 79J20160106053510301/06/16 05:35:31  5-MIN K79J 061035Z AUTO 10007KT 10SM OVC044 05/M04 A3035 -80 52 -1200 100/07 RMK AO2
53843K79J 79J20160106054010301/06/16 05:40:31  5-MIN K79J 061040Z AUTO 11007KT 10SM OVC046 05/M04 A3035 -80 52 -1200 110/07 RMK AO2
53843K79J 79J20160106054510301/06/16 05:45:31  5-MIN K79J 061045Z AUTO 11006KT 10SM OVC046 05/M04 A3035 -80 52 -1200 110/06 RMK AO2
53843K79J 79J20160106055012001/06/16 05:50:31  5-MIN K79J 061050Z AUTO 10006KT 10SM OVC046 05/M04 A3035 -80 52 -1200 100/06 RMK AO2 SLP278 T00501039
53843K79J 79J20160106055512001/06/16 05:55:31  5-MIN K79J 061055Z AUTO 10007KT 10SM OVC048 05/M04 A3035 -80 52 -1200 100/07 RMK AO2 SLP278 T00501039
53843K79J 79J20160106060010301/06/16 06:00:31  5-MIN K79J 061100Z AUTO 11007KT 10SM OVC048 05/M04 A3035 -80 52 -1200 110/07 RMK AO2
53843K79J 79J20160106060510301/06/16 06:05:31  5-MIN K79J 061105Z AUTO 12005KT 10SM OVC048 05/M04 A3035 -80 52 -1200 120/05 RMK AO2
53843K79J 79J20160106061010301/06/16 06:10:31  5-MIN K79J 061110Z AUTO 09007KT 10SM OVC048 05/M04 A3035 -80 52 -1200 100/07 RMK AO2
53843K79J 79J20160106061510301/06/16 06:15:31  5-MIN K79J 061115Z AUTO 11008KT 10SM OVC048 05/M04 A3035 -80 52 -1200 110/08 RMK AO2
53843K79J 79J20160106062010301/06/16 06:20:31  5-MIN K79J 061120Z AUTO 11007KT 10SM OVC048 05/M04 A3035 -80 52 -1200 110/07 RMK AO2
53843K79J 79J20160106152509601/06/16 15:25:31  5-MIN K79J 062025Z AUTO 13012KT 10SM CLR 16/02 A3021 40 39 200 130/12 RMK AO2
53843K79J 79J20160106153009601/06/16 15:30:31  5-MIN K79J 062030Z AUTO 14008KT 10SM CLR 16/02 A3021 40 37 200 140/08 RMK AO2
53843K79J 79J20160106153509601/06/16 15:35:31  5-MIN K79J 062035Z AUTO 11008KT 10SM CLR 16/02 A3021 40 37 200 110/08 RMK AO2
53843K79J 79J20160106154009601/06/16 15:40:31  5-MIN K79J 062040Z AUTO 09007KT 10SM CLR 16/02 A3021 40 37 200 090/07 RMK AO2
53843K79J 79J20160106154509601/06/16 15:45:31  5-MIN K79J 062045Z AUTO 12008KT 10SM CLR 16/02 A3021 40 37 200 120/08 RMK AO2
53843K79J 79J20160106155011901/06/16 15:50:31  5-MIN K79J 062050Z AUTO 11008KT 10SM CLR 17/02 A3021 40 37 300 110/08 RMK AO2 SLP230 T01670022 58026
53843K79J 79J20160106155511901/06/16 15:55:31  5-MIN K79J 062055Z AUTO 11007KT 10SM CLR 16/02 A3021 40 37 200 110/07 RMK AO2 SLP230 T01610017 58026
53843K79J 79J20160106160009601/06/16 16:00:31  5-MIN K79J 062100Z AUTO 10006KT 10SM CLR 17/02 A3021 40 36 300 100/06 RMK AO2
53843K79J 79J20160106160509601/06/16 16:05:31  5-MIN K79J 062105Z AUTO 11008KT 10SM CLR 17/02 A3021 50 37 300 110/08 RMK AO2
53843K79J 79J20160106161009601/06/16 16:10:31  5-MIN K79J 062110Z AUTO 12008KT 10SM CLR 17/02 A3021 50 37 300 120/08 RMK AO2
53843K79J 79J20160106161509601/06/16 16:15:31  5-MIN K79J 062115Z AUTO 11010KT 10SM CLR 17/02 A3021 50 37 300 110/10 RMK AO2
53843K79J 79J20160106162009601/06/16 16:20:31  5-MIN K79J 062120Z AUTO 11009KT 10SM CLR 16/02 A3021 50 37 200 110/09 RMK AO2
53843K79J 79J20160106162509601/06/16 16:25:31  5-MIN K79J 062125Z AUTO 13011KT 10SM CLR 16/02 A3021 50 39 200 130/11 RMK AO2
53843K79J 79J20160106163009601/06/16 16:30:31  5-MIN K79J 062130Z AUTO 12009KT 10SM CLR 16/02 A3021 50 40 200 130/09 RMK AO2
53843K79J 79J20160106163509601/06/16 16:35:31  5-MIN K79J 062135Z AUTO 12010KT 10SM CLR 16/02 A3021 50 39 200 120/10 RMK AO2
53843K79J 79J20160106164009601/06/16 16:40:31  5-MIN K79J 062140Z AUTO 11008KT 10SM CLR 16/02 A3021 40 39 200 110/08 RMK AO2
53843K79J 79J20160106164509601/06/16 16:45:31  5-MIN K79J 062145Z AUTO 13009KT 10SM CLR 16/02 A3021 50 39 200 130/09 RMK AO2
53843K79J 79J20160106165011301/06/16 16:50:31  5-MIN K79J 062150Z AUTO 13009KT 10SM CLR 16/02 A3021 50 40 200 130/09 RMK AO2 SLP228 T01560022
53843K79J 79J20160106165511301/06/16 16:55:31  5-MIN K79J 062155Z AUTO 11009KT 10SM CLR 16/02 A3021 50 40 200 110/09 RMK AO2 SLP228 T01560022
53843K79J 79J20160106170009601/06/16 17:00:31  5-MIN K79J 062200Z AUTO 10009KT 10SM CLR 16/02 A3021 50 39 200 100/09 RMK AO2
53843K79J 79J20160106170509601/06/16 17:05:31  5-MIN K79J 062205Z AUTO 11009KT 10SM CLR 16/02 A3020 50 40 200 120/09 RMK AO2
53843K79J 79J20160106171009601/06/16 17:10:31  5-MIN K79J 062210Z AUTO 11010KT 10SM CLR 16/02 A3020 50 39 200 110/10 RMK AO2
53843K79J 79J20160106171509601/06/16 17:15:31  5-MIN K79J 062215Z AUTO 13010KT 10SM CLR 15/02 A3020 50 40 100 130/10 RMK AO2
53843K79J 79J20160106172009401/06/16 17:20:31  5-MIN K79J 062220Z AUTO 13009KT 10SM CLR 14/02 A3021 50 41 0 130/09 RMK AO2
53843K79J 79J20160106172510001/06/16 17:25:31  5-MIN K79J 062225Z AUTO 11010G18KT 10SM CLR 14/02 A3021 50 41 0 110/10G18 RMK AO2
53843K79J 79J20160106173010001/06/16 17:30:31  5-MIN K79J 062230Z AUTO 11009G18KT 10SM CLR 14/02 A3021 50 41 0 120/09G18 RMK AO2
53843K79J 79J20160106173509401/06/16 17:35:31  5-MIN K79J 062235Z AUTO 12011KT 10SM CLR 14/01 A3020 50 41 0 120/11 RMK AO2
53843K79J 79J20160106174009401/06/16 17:40:31  5-MIN K79J 062240Z AUTO 11010KT 10SM CLR 14/01 A3021 50 41 0 120/10 RMK AO2
53843K79J 79J20160106174509401/06/16 17:45:31  5-MIN K79J 062245Z AUTO 12007KT 10SM CLR 14/01 A3021 50 41 0 120/07 RMK AO2
53843K79J 79J20160106175011401/06/16 17:50:31  5-MIN K79J 062250Z AUTO 11007KT 10SM CLR 13/01 A3021 50 43 -100 110/07 RMK AO2 SLP228 T01330011
53843K79J 79J20160106175511101/06/16 17:55:31  5-MIN K79J 062255Z AUTO 11007KT 10SM CLR 13/01 A3021 50 43 0 110/07 RMK AO2 SLP228 T01330011
53843K79J 79J20160106180009701/06/16 18:00:31  5-MIN K79J 062300Z AUTO 11006KT 10SM CLR 13/02 A3021 50 46 -100 110/06 RMK AO2
53843K79J 79J20160106180509701/06/16 18:05:31  5-MIN K79J 062305Z AUTO 11007KT 10SM CLR 13/01 A3021 50 44 -100 110/07 RMK AO2
53843K79J 79J20160106181009701/06/16 18:10:31  5-MIN K79J 062310Z AUTO 11008KT 10SM CLR 12/02 A3021 50 48 -200 110/08 RMK AO2
53843K79J 79J20160106181509701/06/16 18:15:31  5-MIN K79J 062315Z AUTO 11006KT 10SM CLR 12/02 A3020 50 48 -200 110/06 RMK AO2
53843K79J 79J20160106182009701/06/16 18:20:31  5-MIN K79J 062320Z AUTO 11006KT 10SM CLR 12/02 A3020 50 48 -200 110/06 RMK AO2
53843K79J 79J20160106182509701/06/16 18:25:31  5-MIN K79J 062325Z AUTO 10005KT 10SM CLR 12/01 A3020 50 46 -200 110/05 RMK AO2
53843K79J 79J20160106183009701/06/16 18:30:31  5-MIN K79J 062330Z AUTO 10004KT 10SM CLR 12/02 A3020 50 50 -200 100/04 RMK AO2
53843K79J 79J20160106183509701/06/16 18:35:31  5-MIN K79J 062335Z AUTO 10006KT 10SM CLR 12/02 A3020 50 50 -200 110/06 RMK AO2
53843K79J 79J20160106184009701/06/16 18:40:31  5-MIN K79J 062340Z AUTO 11006KT 10SM CLR 12/02 A3020 50 50 -200 110/06 RMK AO2
53843K79J 79J20160106184509701/06/16 18:45:31  5-MIN K79J 062345Z AUTO 10006KT 10SM CLR 11/01 A3020 50 50 -300 110/06 RMK AO2
53843K79J 79J20160106185013201/06/16 18:50:31  5-MIN K79J 062350Z AUTO 10005KT 10SM CLR 11/01 A3021 50 50 -300 100/05 RMK AO2 SLP228 T01110011 10167 20111 56031
53843K79J 79J20160106185513201/06/16 18:55:31  5-MIN K79J 062355Z AUTO 11005KT 10SM CLR 11/01 A3021 50 50 -300 110/05 RMK AO2 SLP229 T01110011 10167 20111 56031
53843K79J 79J20160106190009701/06/16 19:00:31  5-MIN K79J 070000Z AUTO 11005KT 10SM CLR 11/01 A3021 40 52 -400 110/05 RMK AO2
53843K79J 79J20160106190509701/06/16 19:05:31  5-MIN K79J 070005Z AUTO 11004KT 10SM CLR 11/01 A3021 40 52 -400 120/04 RMK AO2
53843K79J 79J20160106191009701/06/16 19:10:31  5-MIN K79J 070010Z AUTO 11005KT 10SM CLR 11/01 A3022 40 52 -400 110/05 RMK AO2
53843K79J 79J20160106191509701/06/16 19:15:31  5-MIN K79J 070015Z AUTO 11006KT 10SM CLR 11/01 A3022 40 52 -400 110/06 RMK AO2
53843K79J 79J20160106192009701/06/16 19:20:31  5-MIN K79J 070020Z AUTO 12005KT 10SM CLR 11/01 A3022 40 52 -400 130/05 RMK AO2
53843K79J 79J20160106192509701/06/16 19:25:31  5-MIN K79J 070025Z AUTO 12005KT 10SM CLR 10/01 A3022 40 54 -500 120/05 RMK AO2
53843K79J 79J20160106193009701/06/16 19:30:31  5-MIN K79J 070030Z AUTO 11007KT 10SM CLR 10/01 A3022 40 54 -500 120/07 RMK AO2
53843K79J 79J20160106193509701/06/16 19:35:31  5-MIN K79J 070035Z AUTO 11007KT 10SM CLR 10/01 A3022 40 52 -500 110/07 RMK AO2
53843K79J 79J20160106194009701/06/16 19:40:31  5-MIN K79J 070040Z AUTO 11007KT 10SM CLR 10/01 A3022 40 52 -500 110/07 RMK AO2
53843K79J 79J20160106194509701/06/16 19:45:31  5-MIN K79J 070045Z AUTO 11006KT 10SM CLR 10/01 A3022 40 52 -500 120/06 RMK AO2
53843K79J 79J20160106195011401/06/16 19:50:31  5-MIN K79J 070050Z AUTO 11006KT 10SM CLR 10/01 A3022 30 52 -500 120/06 RMK AO2 SLP233 T01000006
53843K79J 79J20160106195511401/06/16 19:55:31  5-MIN K79J 070055Z AUTO 11006KT 10SM CLR 09/01 A3022 40 56 -500 120/06 RMK AO2 SLP232 T00940011
53843K79J 79J20160106200009701/06/16 20:00:31  5-MIN K79J 070100Z AUTO 11007KT 10SM CLR 09/01 A3022 30 53 -500 110/07 RMK AO2
53843K79J 79J20160106200509701/06/16 20:05:31  5-MIN K79J 070105Z AUTO 11006KT 10SM CLR 10/01 A3022 30 52 -500 110/06 RMK AO2
53843K79J 79J20160106201009701/06/16 20:10:31  5-MIN K79J 070110Z AUTO 12004KT 10SM CLR 09/01 A3023 30 53 -500 120/04 RMK AO2
53843K79J 79J20160106201509701/06/16 20:15:31  5-MIN K79J 070115Z AUTO 11005KT 10SM CLR 09/01 A3023 30 56 -600 110/05 RMK AO2
53843K79J 79J20160106202009701/06/16 20:20:31  5-MIN K79J 070120Z AUTO 11004KT 10SM CLR 09/01 A3023 30 56 -600 110/04 RMK AO2
53843K79J 79J20160106202509701/06/16 20:25:31  5-MIN K79J 070125Z AUTO 11003KT 10SM CLR 09/01 A3023 30 56 -600 110/03 RMK AO2
53843K79J 79J20160106203009701/06/16 20:30:31  5-MIN K79J 070130Z AUTO 00000KT 10SM CLR 09/01 A3023 20 56 -600 000/00 RMK AO2
53843K79J 79J20160106203509701/06/16 20:35:31  5-MIN K79J 070135Z AUTO 10003KT 10SM CLR 09/00 A3023 30 53 -600 100/03 RMK AO2
53843K79J 79J20160106204009701/06/16 20:40:31  5-MIN K79J 070140Z AUTO 10005KT 10SM CLR 09/01 A3023 30 56 -600 110/05 RMK AO2
53843K79J 79J20160106204509701/06/16 20:45:31  5-MIN K79J 070145Z AUTO 10006KT 10SM CLR 09/00 A3023 30 53 -600 100/06 RMK AO2
53843K79J 79J20160106205011401/06/16 20:50:31  5-MIN K79J 070150Z AUTO 10007KT 10SM CLR 09/00 A3023 30 53 -600 110/07 RMK AO2 SLP234 T00890000
53843K79J 79J20160106205511401/06/16 20:55:31  5-MIN K79J 070155Z AUTO 11007KT 10SM CLR 09/00 A3023 30 53 -600 110/07 RMK AO2 SLP234 T00890000
53843K79J 79J20160106210009701/06/16 21:00:31  5-MIN K79J 070200Z AUTO 11006KT 10SM CLR 09/00 A3023 30 53 -600 110/06 RMK AO2
53843K79J 79J20160106210509701/06/16 21:05:31  5-MIN K79J 070205Z AUTO 11007KT 10SM CLR 09/00 A3023 30 53 -600 110/07 RMK AO2
53843K79J 79J20160106211009801/06/16 21:10:31  5-MIN K79J 070210Z AUTO 11007KT 10SM CLR 09/M01 A3023 30 51 -600 110/07 RMK AO2
53843K79J 79J20160106211509801/06/16 21:15:31  5-MIN K79J 070215Z AUTO 11006KT 10SM CLR 09/M01 A3023 30 51 -600 110/06 RMK AO2
53843K79J 79J20160106212009801/06/16 21:20:31  5-MIN K79J 070220Z AUTO 11006KT 10SM CLR 09/M01 A3023 30 51 -600 120/06 RMK AO2
53843K79J 79J20160106212509701/06/16 21:25:31  5-MIN K79J 070225Z AUTO 11005KT 10SM CLR 08/00 A3023 30 55 -700 110/05 RMK AO2
53843K79J 79J20160106213009801/06/16 21:30:31  5-MIN K79J 070230Z AUTO 11005KT 10SM CLR 08/M01 A3023 30 53 -700 110/05 RMK AO2
53843K79J 79J20160106213509801/06/16 21:35:31  5-MIN K79J 070235Z AUTO 11004KT 10SM CLR 08/M01 A3023 30 53 -700 110/04 RMK AO2
53843K79J 79J20160106214009801/06/16 21:40:31  5-MIN K79J 070240Z AUTO 11003KT 10SM CLR 08/M01 A3023 30 53 -700 110/03 RMK AO2
53843K79J 79J20160106214509801/06/16 21:45:31  5-MIN K79J 070245Z AUTO 10003KT 10SM CLR 08/M01 A3023 30 55 -700 100/03 RMK AO2
53843K79J 79J20160106215012101/06/16 21:50:31  5-MIN K79J 070250Z AUTO 11003KT 10SM CLR 08/M01 A3023 30 55 -700 110/03 RMK AO2 SLP235 T00781006 55001
53843K79J 79J20160106215512101/06/16 21:55:31  5-MIN K79J 070255Z AUTO 10003KT 10SM CLR 08/M01 A3023 30 55 -700 110/03 RMK AO2 SLP234 T00781006 55001
53843K79J 79J20160106220009801/06/16 22:00:31  5-MIN K79J 070300Z AUTO 10003KT 10SM CLR 08/M01 A3023 30 55 -700 110/03 RMK AO2
53843K79J 79J20160106220509801/06/16 22:05:31  5-MIN K79J 070305Z AUTO 11003KT 10SM CLR 08/M01 A3023 30 55 -700 110/03 RMK AO2
53843K79J 79J20160106221009701/06/16 22:10:31  5-MIN K79J 070310Z AUTO 10003KT 10SM CLR 07/00 A3022 30 60 -800 110/03 RMK AO2
53843K79J 79J20160106221509801/06/16 22:15:31  5-MIN K79J 070315Z AUTO 11004KT 10SM CLR 07/M01 A3022 30 57 -800 110/04 RMK AO2
53843K79J 79J20160106222009701/06/16 22:20:31  5-MIN K79J 070320Z AUTO 11005KT 10SM CLR 07/00 A3022 40 60 -800 110/05 RMK AO2
53843K79J 79J20160106222509701/06/16 22:25:31  5-MIN K79J 070325Z AUTO 11005KT 10SM CLR 07/00 A3022 40 60 -800 110/05 RMK AO2
53843K79J 79J20160106223009701/06/16 22:30:31  5-MIN K79J 070330Z AUTO 11005KT 10SM CLR 07/00 A3022 40 60 -800 110/05 RMK AO2
53843K79J 79J20160106223509701/06/16 22:35:31  5-MIN K79J 070335Z AUTO 11004KT 10SM CLR 07/00 A3022 40 60 -800 110/04 RMK AO2
53843K79J 79J20160106224009701/06/16 22:40:31  5-MIN K79J 070340Z AUTO 11004KT 10SM CLR 07/00 A3022 40 60 -800 110/04 RMK AO2
53843K79J 79J20160106224509701/06/16 22:45:31  5-MIN K79J 070345Z AUTO 12003KT 10SM CLR 07/00 A3022 40 60 -800 120/03 RMK AO2
53843K79J 79J20160106225011401/06/16 22:50:31  5-MIN K79J 070350Z AUTO 11005KT 10SM CLR 07/00 A3022 40 62 -900 110/05 RMK AO2 SLP232 T00670000
53843K79J 79J20160106225511401/06/16 22:55:31  5-MIN K79J 070355Z AUTO 12006KT 10SM CLR 07/00 A3022 40 62 -900 120/06 RMK AO2 SLP232 T00670000
53843K79J 79J20160106230009701/06/16 23:00:31  5-MIN K79J 070400Z AUTO 12005KT 10SM CLR 07/00 A3022 40 62 -900 120/05 RMK AO2
53843K79J 79J20160106230509701/06/16 23:05:31  5-MIN K79J 070405Z AUTO 11006KT 10SM CLR 07/00 A3022 40 62 -900 120/06 RMK AO2
53843K79J 79J20160106231009701/06/16 23:10:31  5-MIN K79J 070410Z AUTO 12005KT 10SM CLR 07/00 A3022 40 62 -900 120/05 RMK AO2
53843K79J 79J20160106231509701/06/16 23:15:31  5-MIN K79J 070415Z AUTO 11006KT 10SM CLR 07/00 A3021 40 62 -900 110/06 RMK AO2
53843K79J 79J20160106232009701/06/16 23:20:31  5-MIN K79J 070420Z AUTO 11005KT 10SM CLR 07/00 A3021 40 60 -800 110/05 RMK AO2
53843K79J 79J20160106232509701/06/16 23:25:31  5-MIN K79J 070425Z AUTO 11005KT 10SM CLR 07/00 A3021 40 60 -800 120/05 RMK AO2
53843K79J 79J20160106233009701/06/16 23:30:31  5-MIN K79J 070430Z AUTO 11005KT 10SM CLR 07/00 A3021 40 60 -800 110/05 RMK AO2
53843K79J 79J20160106233509701/06/16 23:35:31  5-MIN K79J 070435Z AUTO 12004KT 10SM CLR 07/00 A3021 40 60 -800 120/04 RMK AO2
53843K79J 79J20160106234009701/06/16 23:40:31  5-MIN K79J 070440Z AUTO 13004KT 10SM CLR 07/00 A3021 40 62 -900 130/04 RMK AO2
53843K79J 79J20160106234509701/06/16 23:45:31  5-MIN K79J 070445Z AUTO 11004KT 10SM CLR 07/00 A3021 50 62 -900 120/04 RMK AO2
53843K79J 79J20160106235012401/06/16 23:50:31  5-MIN K79J 070450Z AUTO 12005KT 10SM CLR 07/00 A3021 50 62 -900 120/05 RMK AO2 SLP227 T00670000 401670022
53843K79J 79J20160106235512401/06/16 23:55:31  5-MIN K79J 070455Z AUTO 12005KT 10SM CLR 07/00 A3020 50 62 -900 120/05 RMK AO2 SLP227 T00670000 401670022
53843K79J 79J20160107000009701/07/16 00:00:31  5-MIN K79J 070500Z AUTO 11005KT 10SM CLR 07/00 A3020 50 62 -800 110/05 RMK AO2
53843K79J 79J20160107000509701/07/16 00:05:31  5-MIN K79J 070505Z AUTO 11006KT 10SM CLR 07/00 A3020 60 62 -800 110/06 RMK AO2
53843K79J 79J20160107001009701/07/16 00:10:31  5-MIN K79J 070510Z AUTO 11006KT 10SM CLR 07/00 A3019 60 62 -800 110/06 RMK AO2
53843K79J 79J20160107001509801/07/16 00:15:31  5-MIN K79J 070515Z AUTO 11006KT 10SM CLR 07/M01 A3019 60 57 -800 110/06 RMK AO2
53843K79J 79J20160107002009801/07/16 00:20:31  5-MIN K79J 070520Z AUTO 11006KT 10SM CLR 07/M01 A3019 60 57 -800 110/06 RMK AO2
53843K79J 79J20160107002509801/07/16 00:25:31  5-MIN K79J 070525Z AUTO 11005KT 10SM CLR 07/M01 A3019 70 57 -800 110/05 RMK AO2
53843K79J 79J20160107003009801/07/16 00:30:31  5-MIN K79J 070530Z AUTO 11005KT 10SM CLR 07/M01 A3019 70 60 -800 110/05 RMK AO2
53843K79J 79J20160107003509801/07/16 00:35:31  5-MIN K79J 070535Z AUTO 11005KT 10SM CLR 07/M01 A3019 70 60 -800 110/05 RMK AO2
53843K79J 79J20160107004009801/07/16 00:40:31  5-MIN K79J 070540Z AUTO 11005KT 10SM CLR 07/M01 A3019 70 60 -800 110/05 RMK AO2
53843K79J 79J20160107004509801/07/16 00:45:31  5-MIN K79J 070545Z AUTO 10004KT 10SM CLR 07/M01 A3018 70 60 -800 110/04 RMK AO2
53843K79J 79J20160107005013301/07/16 00:50:31  5-MIN K79J 070550Z AUTO 10005KT 10SM CLR 07/M01 A3018 70 60 -800 100/05 RMK AO2 SLP218 T00671006 10111 20067 50005
53843K79J 79J20160107005513301/07/16 00:55:31  5-MIN K79J 070555Z AUTO 11005KT 10SM CLR 07/M01 A3018 70 60 -800 110/05 RMK AO2 SLP219 T00671006 10111 20067 50005
53843K79J 79J20160107010010101/07/16 01:00:31  5-MIN K79J 070600Z AUTO 11005KT 10SM FEW011 07/M01 A3018 70 60 -800 110/05 RMK AO2
53843K79J 79J20160107010510101/07/16 01:05:31  5-MIN K79J 070605Z AUTO 11005KT 10SM FEW011 07/M01 A3018 80 60 -800 110/05 RMK AO2
53843K79J 79J20160107011009801/07/16 01:10:31  5-MIN K79J 070610Z AUTO 11005KT 10SM CLR 06/M01 A3017 80 62 -900 110/05 RMK AO2
53843K79J 79J20160107011509801/07/16 01:15:31  5-MIN K79J 070615Z AUTO 11005KT 10SM CLR 06/M01 A3017 80 62 -900 120/05 RMK AO2
53843K79J 79J20160107012010101/07/16 01:20:31  5-MIN K79J 070620Z AUTO 11004KT 10SM SCT011 06/M01 A3017 80 62 -900 120/04 RMK AO2
53843K79J 79J20160107012510001/07/16 01:25:31  5-MIN K79J 070625Z AUTO 11004KT 10SM SCT011 06/00 A3017 80 65 -900 110/04 RMK AO2
53843K79J 79J20160107013010001/07/16 01:30:31  5-MIN K79J 070630Z AUTO 11003KT 10SM BKN011 06/00 A3017 90 65 -900 110/03 RMK AO2
53843K79J 79J20160107013510101/07/16 01:35:31  5-MIN K79J 070635Z AUTO 10004KT 10SM BKN011 07/M01 A3016 90 60 -800 110/04 RMK AO2
53843K79J 79J20160107014010101/07/16 01:40:31  5-MIN K79J 070640Z AUTO 11004KT 10SM BKN011 07/M01 A3016 90 60 -800 110/04 RMK AO2
53843K79J 79J20160107014510101/07/16 01:45:31  5-MIN K79J 070645Z AUTO 11005KT 10SM SCT011 07/M01 A3016 90 60 -800 120/05 RMK AO2
53843K79J 79J20160107015011801/07/16 01:50:31  5-MIN K79J 070650Z AUTO 12006KT 10SM BKN011 07/M01 A3016 90 60 -800 120/06 RMK AO2 SLP211 T00671006
53843K79J 79J20160107015511901/07/16 01:55:31  5-MIN K79J 070655Z AUTO 11006KT 10SM BKN011 07/M01 A3016 100 60 -800 120/06 RMK AO2 SLP210 T00671006
53843K79J 79J20160107020010201/07/16 02:00:31  5-MIN K79J 070700Z AUTO 11006KT 10SM BKN011 07/M01 A3015 100 57 -700 110/06 RMK AO2
53843K79J 79J20160107020510201/07/16 02:05:31  5-MIN K79J 070705Z AUTO 11007KT 10SM BKN011 07/M01 A3015 100 57 -700 110/07 RMK AO2
53843K79J 79J20160107021010201/07/16 02:10:31  5-MIN K79J 070710Z AUTO 12006KT 10SM BKN011 07/M01 A3015 100 57 -700 120/06 RMK AO2
53843K79J 79J20160107021510201/07/16 02:15:31  5-MIN K79J 070715Z AUTO 12006KT 10SM BKN011 07/M01 A3015 100 60 -800 120/06 RMK AO2
53843K79J 79J20160107022010101/07/16 02:20:31  5-MIN K79J 070720Z AUTO 12007KT 10SM BKN011 07/00 A3014 110 62 -800 120/07 RMK AO2
53843K79J 79J20160107022510201/07/16 02:25:31  5-MIN K79J 070725Z AUTO 11007KT 10SM BKN011 07/M01 A3014 110 57 -700 120/07 RMK AO2
53843K79J 79J20160107023010101/07/16 02:30:31  5-MIN K79J 070730Z AUTO 12006KT 10SM BKN011 07/00 A3014 110 62 -800 120/06 RMK AO2
53843K79J 79J20160107023510101/07/16 02:35:31  5-MIN K79J 070735Z AUTO 11008KT 10SM BKN011 07/00 A3014 110 60 -700 120/08 RMK AO2
53843K79J 79J20160107024010101/07/16 02:40:31  5-MIN K79J 070740Z AUTO 11008KT 10SM OVC011 07/00 A3013 120 60 -700 110/08 RMK AO2
53843K79J 79J20160107024510101/07/16 02:45:31  5-MIN K79J 070745Z AUTO 12007KT 10SM OVC011 07/00 A3013 120 60 -700 120/07 RMK AO2
53843K79J 79J20160107025011801/07/16 02:50:31  5-MIN K79J 070750Z AUTO 11007KT 10SM OVC011 08/00 A3013 120 58 -600 120/07 RMK AO2 SLP200 T00780000
53843K79J 79J20160107025511801/07/16 02:55:31  5-MIN K79J 070755Z AUTO 11008KT 10SM OVC011 08/00 A3012 120 58 -600 110/08 RMK AO2 SLP199 T00780000
53843K79J 79J20160107030010101/07/16 03:00:31  5-MIN K79J 070800Z AUTO 11009KT 10SM OVC011 08/00 A3012 130 58 -600 120/09 RMK AO2
53843K79J 79J20160107030510101/07/16 03:05:31  5-MIN K79J 070805Z AUTO 11008KT 10SM OVC011 08/00 A3012 130 58 -600 120/08 RMK AO2
53843K79J 79J20160107031010101/07/16 03:10:31  5-MIN K79J 070810Z AUTO 12008KT 10SM BKN011 07/00 A3012 130 60 -700 120/08 RMK AO2
53843K79J 79J20160107031510101/07/16 03:15:31  5-MIN K79J 070815Z AUTO 11009KT 10SM BKN011 07/00 A3012 130 60 -700 120/09 RMK AO2
53843K79J 79J20160107032010101/07/16 03:20:31  5-MIN K79J 070820Z AUTO 12008KT 10SM BKN011 07/00 A3012 130 60 -700 120/08 RMK AO2
53843K79J 79J20160107132509701/07/16 13:25:31  5-MIN K79J 071825Z AUTO 15004KT 10SM CLR 16/07 A3003 210 55 400 150/04 RMK AO2
53843K79J 79J20160107133009701/07/16 13:30:31  5-MIN K79J 071830Z AUTO VRB05KT 10SM CLR 16/07 A3002 220 55 400 VRB/05 RMK AO2
53843K79J 79J20160107133509701/07/16 13:35:31  5-MIN K79J 071835Z AUTO 11005KT 10SM CLR 16/07 A3002 220 55 400 120/05 RMK AO2
53843K79J 79J20160107134009701/07/16 13:40:31  5-MIN K79J 071840Z AUTO 14003KT 10SM CLR 16/07 A3002 220 55 400 140/03 RMK AO2
53843K79J 79J20160107134509701/07/16 13:45:31  5-MIN K79J 071845Z AUTO 11003KT 10SM CLR 16/08 A3002 220 57 400 110/03 RMK AO2
53843K79J 79J20160107135011401/07/16 13:50:31  5-MIN K79J 071850Z AUTO 00000KT 10SM CLR 16/08 A3001 230 57 500 000/00 RMK AO2 SLP160 T01610078
53843K79J 79J20160107135511401/07/16 13:55:31  5-MIN K79J 071855Z AUTO VRB04KT 10SM CLR 16/08 A3000 240 57 500 VRB/04 RMK AO2 SLP157 T01610078
53843K79J 79J20160107140009701/07/16 14:00:31  5-MIN K79J 071900Z AUTO 12005KT 10SM CLR 16/08 A3000 240 57 500 120/05 RMK AO2
53843K79J 79J20160107140509701/07/16 14:05:31  5-MIN K79J 071905Z AUTO 13005KT 10SM CLR 16/08 A3000 240 57 500 130/05 RMK AO2
53843K79J 79J20160107141009701/07/16 14:10:31  5-MIN K79J 071910Z AUTO 14004KT 10SM CLR 16/08 A2999 250 57 500 140/04 RMK AO2
53843K79J 79J20160107141509701/07/16 14:15:31  5-MIN K79J 071915Z AUTO 10006KT 10SM CLR 16/08 A2998 250 57 500 100/06 RMK AO2
53843K79J 79J20160107142009701/07/16 14:20:31  5-MIN K79J 071920Z AUTO 10005KT 10SM CLR 16/08 A2998 260 57 500 100/05 RMK AO2
53843K79J 79J20160107142509701/07/16 14:25:31  5-MIN K79J 071925Z AUTO 10005KT 10SM CLR 17/08 A2998 260 57 600 100/05 RMK AO2
53843K79J 79J20160107143009701/07/16 14:30:31  5-MIN K79J 071930Z AUTO 10006KT 10SM CLR 17/08 A2998 260 57 600 110/06 RMK AO2
53843K79J 79J20160107143509701/07/16 14:35:31  5-MIN K79J 071935Z AUTO 11006KT 10SM CLR 16/08 A2997 260 59 500 110/06 RMK AO2
53843K79J 79J20160107144009701/07/16 14:40:31  5-MIN K79J 071940Z AUTO 11006KT 10SM CLR 16/08 A2997 270 59 500 110/06 RMK AO2
53843K79J 79J20160107144509701/07/16 14:45:31  5-MIN K79J 071945Z AUTO 10006KT 10SM CLR 16/08 A2997 270 59 500 110/06 RMK AO2
53843K79J 79J20160107145011401/07/16 14:50:31  5-MIN K79J 071950Z AUTO 10005KT 10SM CLR 16/08 A2997 270 59 500 100/05 RMK AO2 SLP147 T01610083
53843K79J 79J20160107145511401/07/16 14:55:31  5-MIN K79J 071955Z AUTO 10004KT 10SM CLR 16/08 A2997 270 59 500 100/04 RMK AO2 SLP146 T01610083
53843K79J 79J20160107150009701/07/16 15:00:31  5-MIN K79J 072000Z AUTO 10005KT 10SM CLR 16/08 A2997 270 59 500 100/05 RMK AO2
53843K79J 79J20160107150509701/07/16 15:05:31  5-MIN K79J 072005Z AUTO 10004KT 10SM CLR 17/09 A2997 270 60 600 100/04 RMK AO2
53843K79J 79J20160107151009701/07/16 15:10:31  5-MIN K79J 072010Z AUTO 13004KT 10SM CLR 17/09 A2997 270 60 600 130/04 RMK AO2
53843K79J 79J20160107151509701/07/16 15:15:31  5-MIN K79J 072015Z AUTO 14003KT 10SM CLR 17/09 A2997 270 60 600 140/03 RMK AO2
53843K79J 79J20160107152009701/07/16 15:20:31  5-MIN K79J 072020Z AUTO 13004KT 10SM CLR 17/09 A2996 270 60 600 130/04 RMK AO2
53843K79J 79J20160107152509701/07/16 15:25:31  5-MIN K79J 072025Z AUTO 13004KT 10SM CLR 18/09 A2996 280 55 700 130/04 RMK AO2
53843K79J 79J20160107153009701/07/16 15:30:31  5-MIN K79J 072030Z AUTO 13006KT 10SM CLR 18/09 A2996 280 55 700 130/06 RMK AO2
53843K79J 79J20160107153509701/07/16 15:35:31  5-MIN K79J 072035Z AUTO 13007KT 10SM CLR 17/09 A2996 280 57 600 130/07 RMK AO2
53843K79J 79J20160107154009701/07/16 15:40:31  5-MIN K79J 072040Z AUTO 12007KT 10SM CLR 17/09 A2995 280 57 600 120/07 RMK AO2
53843K79J 79J20160107154509701/07/16 15:45:31  5-MIN K79J 072045Z AUTO 11007KT 10SM CLR 17/09 A2995 290 60 700 110/07 RMK AO2
53843K79J 79J20160107155012001/07/16 15:50:31  5-MIN K79J 072050Z AUTO 13007KT 10SM CLR 18/09 A2995 290 58 700 130/07 RMK AO2 SLP139 T01780094 58028
53843K79J 79J20160107155512001/07/16 15:55:31  5-MIN K79J 072055Z AUTO 13007KT 10SM CLR 18/09 A2995 290 58 700 140/07 RMK AO2 SLP139 T01780094 58028
53843K79J 79J20160107160009701/07/16 16:00:31  5-MIN K79J 072100Z AUTO 12007KT 10SM CLR 17/09 A2995 280 60 600 120/07 RMK AO2
53843K79J 79J20160107160509701/07/16 16:05:31  5-MIN K79J 072105Z AUTO 13006KT 10SM CLR 17/09 A2996 280 60 600 130/06 RMK AO2
53843K79J 79J20160107161009701/07/16 16:10:31  5-MIN K79J 072110Z AUTO 13004KT 10SM CLR 18/09 A2995 280 58 700 140/04 RMK AO2
53843K79J 79J20160107161509701/07/16 16:15:31  5-MIN K79J 072115Z AUTO 13006KT 10SM CLR 17/09 A2995 280 60 700 130/06 RMK AO2
53843K79J 79J20160107162009701/07/16 16:20:31  5-MIN K79J 072120Z AUTO 11005KT 10SM CLR 17/09 A2995 290 60 700 120/05 RMK AO2
53843K79J 79J20160107162509701/07/16 16:25:31  5-MIN K79J 072125Z AUTO 11005KT 10SM CLR 17/09 A2994 290 62 600 120/05 RMK AO2
53843K79J 79J20160107163009701/07/16 16:30:31  5-MIN K79J 072130Z AUTO 12005KT 10SM CLR 17/09 A2995 290 60 700 120/05 RMK AO2
53843K79J 79J20160107163509701/07/16 16:35:31  5-MIN K79J 072135Z AUTO 14004KT 10SM CLR 17/09 A2995 290 62 600 150/04 RMK AO2
53843K79J 79J20160107164009701/07/16 16:40:31  5-MIN K79J 072140Z AUTO 14003KT 10SM CLR 17/09 A2995 280 62 600 150/03 RMK AO2
53843K79J 79J20160107164509701/07/16 16:45:31  5-MIN K79J 072145Z AUTO 13003KT 10SM CLR 17/09 A2995 290 62 600 130/03 RMK AO2
53843K79J 79J20160107165011401/07/16 16:50:31  5-MIN K79J 072150Z AUTO 13004KT 10SM CLR 17/10 A2995 290 64 600 130/04 RMK AO2 SLP139 T01670100
53843K79J 79J20160107165511401/07/16 16:55:31  5-MIN K79J 072155Z AUTO 15004KT 10SM CLR 17/10 A2995 280 64 600 150/04 RMK AO2 SLP141 T01670100
53843K79J 79J20160107170009701/07/16 17:00:31  5-MIN K79J 072200Z AUTO 15005KT 10SM CLR 17/10 A2996 280 64 600 150/05 RMK AO2
53843K79J 79J20160107170509701/07/16 17:05:31  5-MIN K79J 072205Z AUTO 15003KT 10SM CLR 17/10 A2996 280 64 600 150/03 RMK AO2
53843K79J 79J20160107171009701/07/16 17:10:31  5-MIN K79J 072210Z AUTO 13003KT 10SM CLR 17/10 A2996 280 64 600 130/03 RMK AO2
53843K79J 79J20160107171509701/07/16 17:15:31  5-MIN K79J 072215Z AUTO 11004KT 10SM CLR 17/10 A2996 280 64 600 120/04 RMK AO2
53843K79J 79J20160107172009701/07/16 17:20:31  5-MIN K79J 072220Z AUTO 13003KT 10SM CLR 17/10 A2996 270 64 600 130/03 RMK AO2
53843K79J 79J20160107172509701/07/16 17:25:31  5-MIN K79J 072225Z AUTO 00000KT 10SM CLR 16/10 A2996 270 67 500 000/00 RMK AO2
53843K79J 79J20160107173009701/07/16 17:30:31  5-MIN K79J 072230Z AUTO 00000KT 10SM CLR 16/10 A2997 270 67 500 000/00 RMK AO2
53843K79J 79J20160107173509701/07/16 17:35:31  5-MIN K79J 072235Z AUTO 00000KT 10SM CLR 16/10 A2997 270 67 500 000/00 RMK AO2
53843K79J 79J20160107174009701/07/16 17:40:31  5-MIN K79J 072240Z AUTO 00000KT 10SM CLR 16/10 A2997 260 67 500 000/00 RMK AO2
53843K79J 79J20160107174510001/07/16 17:45:31  5-MIN K79J 072245Z AUTO 00000KT 10SM FEW050 16/10 A2997 260 67 500 000/00 RMK AO2
53843K79J 79J20160107175011701/07/16 17:50:31  5-MIN K79J 072250Z AUTO 00000KT 10SM SCT050 16/10 A2997 260 67 500 000/00 RMK AO2 SLP148 T01610100
53843K79J 79J20160107175511701/07/16 17:55:31  5-MIN K79J 072255Z AUTO 13003KT 10SM BKN050 16/10 A2997 260 69 400 130/03 RMK AO2 SLP148 T01560100
53843K79J 79J20160107180010001/07/16 18:00:31  5-MIN K79J 072300Z AUTO 00000KT 10SM BKN050 16/10 A2997 270 69 400 000/00 RMK AO2
53843K79J 79J20160107180510001/07/16 18:05:31  5-MIN K79J 072305Z AUTO 11003KT 10SM BKN050 16/10 A2997 270 69 400 120/03 RMK AO2
53843K79J 79J20160107181010001/07/16 18:10:31  5-MIN K79J 072310Z AUTO 16003KT 10SM BKN050 15/10 A2998 260 72 400 170/03 RMK AO2
53843K79J 79J20160107181510001/07/16 18:15:31  5-MIN K79J 072315Z AUTO 00000KT 10SM BKN050 15/10 A2998 260 72 400 000/00 RMK AO2
53843K79J 79J20160107182010001/07/16 18:20:31  5-MIN K79J 072320Z AUTO 00000KT 10SM BKN048 16/10 A2998 260 69 400 000/00 RMK AO2
53843K79J 79J20160107182510001/07/16 18:25:31  5-MIN K79J 072325Z AUTO 15003KT 10SM BKN048 16/10 A2998 260 69 400 160/03 RMK AO2
53843K79J 79J20160107183010001/07/16 18:30:31  5-MIN K79J 072330Z AUTO 15003KT 10SM BKN048 16/10 A2998 250 69 400 150/03 RMK AO2
53843K79J 79J20160107183510001/07/16 18:35:31  5-MIN K79J 072335Z AUTO 13003KT 10SM OVC046 16/10 A2998 260 69 400 140/03 RMK AO2
53843K79J 79J20160107184010001/07/16 18:40:31  5-MIN K79J 072340Z AUTO 12003KT 10SM OVC046 16/10 A2998 260 69 400 120/03 RMK AO2
53843K79J 79J20160107184510001/07/16 18:45:31  5-MIN K79J 072345Z AUTO 13003KT 10SM OVC046 15/10 A2998 260 72 400 130/03 RMK AO2
53843K79J 79J20160107185013501/07/16 18:50:31  5-MIN K79J 072350Z AUTO 11005KT 10SM OVC046 15/10 A2998 260 72 400 110/05 RMK AO2 SLP150 T01500100 10178 20150 56031
53843K79J 79J20160107185516401/07/16 18:55:31  5-MIN K79J 072355Z AUTO 11006KT 10SM -RA BKN046 OVC100 15/10 A2998 260 72 400 120/06 RMK AO2 RAB53 SLP149 P0000 60000 T01500100 10178 20150 56031
53843K79J 79J20160107190011701/07/16 19:00:31  5-MIN K79J 080000Z AUTO 12005KT 10SM -RA BKN046 OVC100 15/10 A2997 260 72 400 120/05 RMK AO2 P0000
53843K79J 79J20160107190511701/07/16 19:05:31  5-MIN K79J 080005Z AUTO 12006KT 10SM -RA SCT044 OVC100 15/10 A2997 260 72 400 120/06 RMK AO2 P0000
53843K79J 79J20160107191011701/07/16 19:10:31  5-MIN K79J 080010Z AUTO 12006KT 10SM -RA FEW044 OVC095 15/11 A2997 270 74 400 120/06 RMK AO2 P0000
53843K79J 79J20160107191511701/07/16 19:15:31  5-MIN K79J 080015Z AUTO 12005KT 10SM -RA FEW044 OVC095 14/11 A2997 270 77 300 120/05 RMK AO2 P0000
53843K79J 79J20160107192010901/07/16 19:20:31  5-MIN K79J 080020Z AUTO 11005KT 10SM RA OVC090 14/11 A2997 270 77 300 120/05 RMK AO2 P0001
53843K79J 79J20160107192510801/07/16 19:25:31  5-MIN K79J 080025Z AUTO 11005KT 9SM RA OVC095 14/11 A2996 270 77 300 110/05 RMK AO2 P0002
53843K79J 79J20160107193010801/07/16 19:30:31  5-MIN K79J 080030Z AUTO 10005KT 9SM RA OVC090 14/11 A2996 280 77 300 100/05 RMK AO2 P0002
53843K79J 79J20160107193511001/07/16 19:35:31  5-MIN K79J 080035Z AUTO 10006KT 10SM -RA OVC090 14/11 A2996 280 77 300 110/06 RMK AO2 P0002
53843K79J 79J20160107194011001/07/16 19:40:31  5-MIN K79J 080040Z AUTO 11006KT 10SM -RA OVC090 14/11 A2996 280 77 300 110/06 RMK AO2 P0002
53843K79J 79J20160107194511001/07/16 19:45:31  5-MIN K79J 080045Z AUTO 12005KT 10SM -RA OVC090 14/11 A2996 280 77 300 120/05 RMK AO2 P0002
53843K79J 79J20160107195012701/07/16 19:50:31  5-MIN K79J 080050Z AUTO 11006KT 10SM -RA OVC090 14/11 A2996 280 77 300 110/06 RMK AO2 SLP144 P0002 T01440106
53843K79J 79J20160107195512701/07/16 19:55:31  5-MIN K79J 080055Z AUTO 11005KT 10SM -RA OVC090 14/11 A2996 270 77 300 110/05 RMK AO2 SLP144 P0003 T01440106
53843K79J 79J20160107200011001/07/16 20:00:31  5-MIN K79J 080100Z AUTO 11004KT 10SM -RA OVC090 14/11 A2996 270 77 300 120/04 RMK AO2 P0000
53843K79J 79J20160107200511001/07/16 20:05:31  5-MIN K79J 080105Z AUTO 13003KT 10SM -RA OVC090 14/11 A2997 270 80 200 130/03 RMK AO2 P0000
53843K79J 79J20160107201011001/07/16 20:10:31  5-MIN K79J 080110Z AUTO 13003KT 10SM -RA OVC085 14/11 A2997 270 83 200 130/03 RMK AO2 P0000
53843K79J 79J20160107201511001/07/16 20:15:31  5-MIN K79J 080115Z AUTO 13004KT 10SM -RA OVC085 14/11 A2996 270 83 200 130/04 RMK AO2 P0001
53843K79J 79J20160107202011001/07/16 20:20:31  5-MIN K79J 080120Z AUTO 13006KT 10SM -RA OVC085 14/11 A2996 270 83 200 130/06 RMK AO2 P0001
53843K79J 79J20160107202510901/07/16 20:25:31  5-MIN K79J 080125Z AUTO 14006KT 9SM -RA OVC085 14/11 A2996 270 83 200 140/06 RMK AO2 P0001
53843K79J 79J20160107203010901/07/16 20:30:31  5-MIN K79J 080130Z AUTO 13007KT 9SM -RA OVC085 14/11 A2996 280 83 200 140/07 RMK AO2 P0002
53843K79J 79J20160107203511501/07/16 20:35:31  5-MIN K79J 080135Z AUTO 13008KT 9SM RA BKN090 OVC110 14/11 A2996 280 80 200 130/08 RMK AO2 P0002
53843K79J 79J20160107204011601/07/16 20:40:31  5-MIN K79J 080140Z AUTO 13008KT 9SM -RA BKN090 OVC110 14/11 A2996 270 83 200 130/08 RMK AO2 P0002
53843K79J 79J20160109022510601/09/16 02:25:31  5-MIN K79J 090725Z AUTO 13006KT 1 3/4SM BR OVC004 15/13 A2991 330 86 400 130/06 RMK AO2
53843K79J 79J20160109023010601/09/16 02:30:31  5-MIN K79J 090730Z AUTO 13006KT 1 3/4SM BR OVC004 14/13 A2990 330 90 400 130/06 RMK AO2
53843K79J 79J20160109023510601/09/16 02:35:31  5-MIN K79J 090735Z AUTO 12006KT 1 3/4SM BR OVC004 15/13 A2990 330 86 500 120/06 RMK AO2
53843K79J 79J20160109024010601/09/16 02:40:31  5-MIN K79J 090740Z AUTO 12005KT 1 3/4SM BR OVC004 15/13 A2990 330 86 400 130/05 RMK AO2
53843K79J 79J20160109024510201/09/16 02:45:31  5-MIN K79J 090745Z AUTO 13005KT 2SM BR OVC004 15/13 A2990 330 86 400 130/05 RMK AO2
53843K79J 79J20160109025011901/09/16 02:50:31  5-MIN K79J 090750Z AUTO 13005KT 2SM BR OVC004 15/13 A2990 330 86 500 140/05 RMK AO2 SLP121 T01500128
53843K79J 79J20160109025512301/09/16 02:55:31  5-MIN K79J 090755Z AUTO 13004KT 1 3/4SM BR OVC004 15/13 A2990 330 86 500 140/04 RMK AO2 SLP121 T01500128
53843K79J 79J20160109030010201/09/16 03:00:31  5-MIN K79J 090800Z AUTO 13006KT 2SM BR OVC004 15/13 A2990 330 86 500 130/06 RMK AO2
53843K79J 79J20160109030510201/09/16 03:05:31  5-MIN K79J 090805Z AUTO 13007KT 2SM BR OVC004 15/13 A2989 340 86 500 130/07 RMK AO2
53843K79J 79J20160109031010201/09/16 03:10:31  5-MIN K79J 090810Z AUTO 13007KT 2SM BR OVC004 15/13 A2989 340 86 500 130/07 RMK AO2
53843K79J 79J20160110003010701/10/16 00:30:31  5-MIN K79J 100530Z AUTO 34010KT 10SM FEW014 SCT022 16/12 A2979 430 77 600 340/10 RMK AO2
53843K79J 79J20160110003511301/10/16 00:35:31  5-MIN K79J 100535Z AUTO 33013G18KT 10SM FEW014 SCT022 15/11 A2980 430 77 600 340/13G18 RMK AO2
53843K79J 79J20160110004010001/10/16 00:40:31  5-MIN K79J 100540Z AUTO 34012KT 10SM FEW014 15/11 A2980 430 74 600 340/12 RMK AO2
53843K79J 79J20160110004510001/10/16 00:45:31  5-MIN K79J 100545Z AUTO 33013KT 10SM FEW014 15/10 A2980 420 72 600 330/13 RMK AO2
53843K79J 79J20160110005014101/10/16 00:50:31  5-MIN K79J 100550Z AUTO 33011KT 10SM FEW023 14/10 A2981 420 74 500 330/11 RMK AO2 SLP090 60008 T01440100 10178 20144 51009
53843K79J 79J20160110005514101/10/16 00:55:31  5-MIN K79J 100555Z AUTO 33011KT 10SM FEW023 14/10 A2981 420 74 500 330/11 RMK AO2 SLP090 60008 T01440100 10178 20144 51009
53843K79J 79J20160110010009701/10/16 01:00:31  5-MIN K79J 100600Z AUTO 34012KT 10SM CLR 14/10 A2981 420 74 500 340/12 RMK AO2
53843K79J 79J20160110010510301/10/16 01:05:31  5-MIN K79J 100605Z AUTO 33011G18KT 10SM CLR 14/10 A2981 410 77 400 330/11G18 RMK AO2
53843K79J 79J20160110011009701/10/16 01:10:31  5-MIN K79J 100610Z AUTO 33011KT 10SM CLR 14/10 A2982 410 77 400 330/11 RMK AO2
53843K79J 79J20160110011509701/10/16 01:15:31  5-MIN K79J 100615Z AUTO 33012KT 10SM CLR 14/10 A2982 410 77 400 340/12 RMK AO2
53843K79J 79J20160110012009701/10/16 01:20:31  5-MIN K79J 100620Z AUTO 34010KT 10SM CLR 14/10 A2982 410 77 400 340/10 RMK AO2
53843K79J 79J20160110012509701/10/16 01:25:31  5-MIN K79J 100625Z AUTO 33008KT 10SM CLR 14/09 A2982 410 74 400 340/08 RMK AO2
53843K79J 79J20160110013009701/10/16 01:30:31  5-MIN K79J 100630Z AUTO 34008KT 10SM CLR 13/09 A2981 410 77 300 340/08 RMK AO2
53843K79J 79J20160110013509701/10/16 01:35:31  5-MIN K79J 100635Z AUTO 33008KT 10SM CLR 13/09 A2982 410 77 300 340/08 RMK AO2
53843K79J 79J20160110014009701/10/16 01:40:31  5-MIN K79J 100640Z AUTO 33008KT 10SM CLR 13/09 A2982 410 77 300 330/08 RMK AO2
53843K79J 79J20160110014509701/10/16 01:45:31  5-MIN K79J 100645Z AUTO 33009KT 10SM CLR 13/09 A2982 410 80 300 330/09 RMK AO2
53843K79J 79J20160110015011401/10/16 01:50:31  5-MIN K79J 100650Z AUTO 32009KT 10SM CLR 13/09 A2982 410 77 300 330/09 RMK AO2 SLP095 T01280089
53843K79J 79J20160110015511401/10/16 01:55:31  5-MIN K79J 100655Z AUTO 32008KT 10SM CLR 13/09 A2982 400 77 300 320/08 RMK AO2 SLP096 T01280089
53843K79J 79J20160110020009701/10/16 02:00:31  5-MIN K79J 100700Z AUTO 32008KT 10SM CLR 13/09 A2982 400 77 300 320/08 RMK AO2
53843K79J 79J20160110020509701/10/16 02:05:31  5-MIN K79J 100705Z AUTO 33011KT 10SM CLR 13/08 A2983 400 74 300 330/11 RMK AO2
53843K79J 79J20160110021009701/10/16 02:10:31  5-MIN K79J 100710Z AUTO 33011KT 10SM CLR 13/08 A2983 400 74 300 330/11 RMK AO2
53843K79J 79J20160110021509701/10/16 02:15:31  5-MIN K79J 100715Z AUTO 33010KT 10SM CLR 13/08 A2983 400 71 300 330/10 RMK AO2
53843K79J 79J20160110022009701/10/16 02:20:31  5-MIN K79J 100720Z AUTO 33009KT 10SM CLR 12/08 A2983 400 74 200 340/09 RMK AO2
53843K79J 79J20160110022509701/10/16 02:25:31  5-MIN K79J 100725Z AUTO 33012KT 10SM CLR 12/08 A2984 390 74 200 330/12 RMK AO2
53843K79J 79J20160110023009701/10/16 02:30:31  5-MIN K79J 100730Z AUTO 33011KT 10SM CLR 12/08 A2983 390 74 200 330/11 RMK AO2
53843K79J 79J20160110112510701/10/16 11:25:31  5-MIN K79J 101625Z AUTO 33015G19KT 10SM OVC024 09/02 A3008 160 60 -400 340/15G19 RMK AO2
53843K79J 79J20160110113010101/10/16 11:30:31  5-MIN K79J 101630Z AUTO 33015KT 10SM OVC024 09/02 A3008 160 60 -400 330/15 RMK AO2
53843K79J 79J20160110113510101/10/16 11:35:31  5-MIN K79J 101635Z AUTO 34011KT 10SM OVC024 09/02 A3008 160 60 -400 340/11 RMK AO2
53843K79J 79J20160110114010801/10/16 11:40:31  5-MIN K79J 101640Z AUTO 35011KT 10SM BKN024 OVC030 09/03 A3008 160 63 -400 350/11 RMK AO2
53843K79J 79J20160110114510801/10/16 11:45:31  5-MIN K79J 101645Z AUTO 34009KT 10SM BKN024 OVC030 10/03 A3009 160 60 -300 350/09 RMK AO2
53843K79J 79J20160110115013101/10/16 11:50:31  5-MIN K79J 101650Z AUTO 35016G20KT 10SM BKN022 OVC030 09/02 A3009 160 60 -400 360/16G20 RMK AO2 SLP186 T00940022
53843K79J 79J20160110115513101/10/16 11:55:31  5-MIN K79J 101655Z AUTO 35010G20KT 10SM BKN022 OVC030 09/02 A3009 160 63 -400 350/10G20 RMK AO2 SLP186 T00890022
53843K79J 79J20160110120010801/10/16 12:00:31  5-MIN K79J 101700Z AUTO 33012KT 10SM BKN022 OVC030 11/02 A3008 160 56 -200 330/12 RMK AO2
53843K79J 79J20160110120510801/10/16 12:05:31  5-MIN K79J 101705Z AUTO 33011KT 10SM BKN025 OVC030 10/02 A3009 160 58 -300 340/11 RMK AO2
53843K79J 79J20160110121010801/10/16 12:10:31  5-MIN K79J 101710Z AUTO 31015KT 10SM BKN025 OVC030 11/02 A3009 160 54 -200 320/15 RMK AO2
53843K79J 79J20160110121513001/10/16 12:15:31  5-MIN K79J 101715Z AUTO 34016G22KT 310V010 10SM BKN025 OVC030 11/02 A3009 160 54 -200 340/16G22 310V010 RMK AO2
53843K79J 79J20160110122012301/10/16 12:20:31  5-MIN K79J 101720Z AUTO 34008G22KT 310V010 10SM OVC027 11/02 A3009 160 56 -200 350/08G22 310V010 RMK AO2
53843K79J 79J20160110122510701/10/16 12:25:31  5-MIN K79J 101725Z AUTO 33017G21KT 10SM OVC027 11/02 A3009 160 52 -200 340/17G21 RMK AO2
53843K79J 79J20160110123010701/10/16 12:30:31  5-MIN K79J 101730Z AUTO 34011G21KT 10SM OVC029 11/01 A3009 160 52 -200 340/11G21 RMK AO2
53843K79J 79J20160110123510101/10/16 12:35:31  5-MIN K79J 101735Z AUTO 33010KT 10SM OVC029 11/01 A3008 160 52 -200 340/10 RMK AO2
53843K79J 79J20160110124010701/10/16 12:40:31  5-MIN K79J 101740Z AUTO 33010G18KT 10SM OVC029 11/02 A3008 160 54 -200 330/10G18 RMK AO2
53843K79J 79J20160110124510701/10/16 12:45:31  5-MIN K79J 101745Z AUTO 33013G17KT 10SM OVC029 11/01 A3008 160 52 -200 330/13G17 RMK AO2
53843K79J 79J20160110125014201/10/16 12:50:31  5-MIN K79J 101750Z AUTO 33014G18KT 10SM OVC029 10/01 A3008 160 54 -300 330/14G18 RMK AO2 SLP185 T01000011 10111 20089 51041
53843K79J 79J20160110125514201/10/16 12:55:31  5-MIN K79J 101755Z AUTO 34010G18KT 10SM OVC029 10/01 A3008 170 54 -300 340/10G18 RMK AO2 SLP184 T01000011 10111 20089 51041
53843K79J 79J20160110130010101/10/16 13:00:31  5-MIN K79J 101800Z AUTO 34010KT 10SM OVC031 11/01 A3008 170 52 -200 340/10 RMK AO2
53843K79J 79J20160110130510701/10/16 13:05:31  5-MIN K79J 101805Z AUTO 33011G17KT 10SM OVC033 11/01 A3008 170 52 -200 340/11G17 RMK AO2
53843K79J 79J20160110131010701/10/16 13:10:31  5-MIN K79J 101810Z AUTO 33014G17KT 10SM OVC033 11/01 A3008 170 52 -200 340/14G17 RMK AO2
53843K79J 79J20160110131510101/10/16 13:15:31  5-MIN K79J 101815Z AUTO 34012KT 10SM OVC033 11/01 A3007 170 52 -200 340/12 RMK AO2
53843K79J 79J20160110132010101/10/16 13:20:31  5-MIN K79J 101820Z AUTO 33012KT 10SM OVC033 11/01 A3007 180 52 -200 330/12 RMK AO2
53843K79J 79J20160110132510701/10/16 13:25:31  5-MIN K79J 101825Z AUTO 34014G19KT 10SM OVC033 11/01 A3007 180 52 -200 340/14G19 RMK AO2
53843K79J 79J20160110133010701/10/16 13:30:31  5-MIN K79J 101830Z AUTO 35012G19KT 10SM OVC033 11/01 A3007 170 52 -200 360/12G19 RMK AO2
53843K79J 79J20160110133510101/10/16 13:35:31  5-MIN K79J 101835Z AUTO 34009KT 10SM OVC033 11/01 A3007 170 52 -200 340/09 RMK AO2
53843K79J 79J20160110134010101/10/16 13:40:31  5-MIN K79J 101840Z AUTO 34013KT 10SM OVC033 11/01 A3007 170 52 -200 340/13 RMK AO2
53843K79J 79J20160110134510101/10/16 13:45:31  5-MIN K79J 101845Z AUTO 33012KT 10SM OVC033 11/01 A3007 170 52 -200 330/12 RMK AO2
53843K79J 79J20160110135011801/10/16 13:50:31  5-MIN K79J 101850Z AUTO 33014KT 10SM OVC033 11/01 A3007 170 52 -200 330/14 RMK AO2 SLP180 T01060011
53843K79J 79J20160110135511801/10/16 13:55:31  5-MIN K79J 101855Z AUTO 35010KT 10SM OVC033 11/01 A3007 170 52 -200 350/10 RMK AO2 SLP180 T01060011
53843K79J 79J20160110140010701/10/16 14:00:31  5-MIN K79J 101900Z AUTO 33013G17KT 10SM OVC033 11/01 A3007 170 52 -200 330/13G17 RMK AO2
53843K79J 79J20160110140510701/10/16 14:05:31  5-MIN K79J 101905Z AUTO 35011G17KT 10SM OVC033 11/01 A3007 170 50 -200 350/11G17 RMK AO2
53843K79J 79J20160110141010701/10/16 14:10:31  5-MIN K79J 101910Z AUTO 35014G18KT 10SM OVC033 11/01 A3007 170 52 -200 350/14G18 RMK AO2
53843K79J 79J20160110141510701/10/16 14:15:31  5-MIN K79J 101915Z AUTO 35013G18KT 10SM OVC033 11/01 A3007 170 52 -200 360/13G18 RMK AO2
53843K79J 79J20160110142010701/10/16 14:20:31  5-MIN K79J 101920Z AUTO 33010G17KT 10SM OVC033 11/01 A3007 170 48 -200 340/10G17 RMK AO2
53843K79J 79J20160110142510701/10/16 14:25:31  5-MIN K79J 101925Z AUTO 34011G17KT 10SM OVC033 11/01 A3007 170 48 -200 350/11G17 RMK AO2
53843K79J 79J20160110143010701/10/16 14:30:31  5-MIN K79J 101930Z AUTO 34012G17KT 10SM OVC033 11/01 A3008 170 48 -200 340/12G17 RMK AO2
53843K79J 79J20160110143510101/10/16 14:35:31  5-MIN K79J 101935Z AUTO 01013KT 10SM OVC033 11/01 A3008 170 50 -200 010/13 RMK AO2
53843K79J 79J20160110144010101/10/16 14:40:31  5-MIN K79J 101940Z AUTO 35013KT 10SM OVC033 11/01 A3008 160 52 -200 350/13 RMK AO2
53843K79J 79J20160110144510101/10/16 14:45:31  5-MIN K79J 101945Z AUTO 35014KT 10SM OVC033 10/01 A3008 160 52 -300 350/14 RMK AO2
53843K79J 79J20160110145011801/10/16 14:50:31  5-MIN K79J 101950Z AUTO 34010KT 10SM OVC033 10/01 A3008 160 52 -300 350/10 RMK AO2 SLP186 T01000006
53843K79J 79J20160110145511801/10/16 14:55:31  5-MIN K79J 101955Z AUTO 36011KT 10SM OVC033 10/01 A3009 160 52 -300 360/11 RMK AO2 SLP187 T01000006
53843K79J 79J20160110150010101/10/16 15:00:31  5-MIN K79J 102000Z AUTO 36010KT 10SM OVC031 10/01 A3009 160 52 -300 360/10 RMK AO2
53843K79J 79J20160110150510701/10/16 15:05:31  5-MIN K79J 102005Z AUTO 01013G17KT 10SM OVC031 10/01 A3009 160 52 -300 010/13G17 RMK AO2
53843K79J 79J20160110151010101/10/16 15:10:31  5-MIN K79J 102010Z AUTO 35014KT 10SM OVC031 10/01 A3009 160 52 -300 350/14 RMK AO2
53843K79J 79J20160110151510101/10/16 15:15:31  5-MIN K79J 102015Z AUTO 34012KT 10SM OVC031 10/01 A3009 150 52 -300 340/12 RMK AO2
53843K79J 79J20160110152010701/10/16 15:20:31  5-MIN K79J 102020Z AUTO 33016G21KT 10SM OVC031 10/00 A3009 150 49 -300 340/16G21 RMK AO2
53843K79J 79J20160110152510701/10/16 15:25:31  5-MIN K79J 102025Z AUTO 34014G21KT 10SM OVC031 10/00 A3009 150 49 -300 340/14G21 RMK AO2
53843K79J 79J20160110153010101/10/16 15:30:31  5-MIN K79J 102030Z AUTO 36011KT 10SM OVC031 10/00 A3009 150 49 -300 360/11 RMK AO2
53843K79J 79J20160110153510701/10/16 15:35:31  5-MIN K79J 102035Z AUTO 36015G19KT 10SM OVC031 10/01 A3009 150 52 -300 360/15G19 RMK AO2
53843K79J 79J20160110154010701/10/16 15:40:31  5-MIN K79J 102040Z AUTO 36012G22KT 10SM OVC031 10/00 A3009 150 49 -300 360/12G22 RMK AO2
53843K79J 79J20160110154510701/10/16 15:45:31  5-MIN K79J 102045Z AUTO 34014G22KT 10SM OVC031 10/00 A3009 150 49 -300 350/14G22 RMK AO2
53843K79J 79J20160110155013001/10/16 15:50:31  5-MIN K79J 102050Z AUTO 35015G20KT 10SM OVC033 09/00 A3009 150 51 -400 350/15G20 RMK AO2 SLP189 T00940000 50004
53843K79J 79J20160110155513001/10/16 15:55:31  5-MIN K79J 102055Z AUTO 35012G20KT 10SM OVC033 09/00 A3010 150 51 -400 350/12G20 RMK AO2 SLP190 T00940000 50004
53843K79J 79J20160110160010101/10/16 16:00:31  5-MIN K79J 102100Z AUTO 35011KT 10SM OVC033 09/00 A3010 150 51 -400 350/11 RMK AO2
53843K79J 79J20160110160510101/10/16 16:05:31  5-MIN K79J 102105Z AUTO 35012KT 10SM OVC033 09/00 A3010 140 51 -400 360/12 RMK AO2
53843K79J 79J20160110161010701/10/16 16:10:31  5-MIN K79J 102110Z AUTO 36014G17KT 10SM OVC033 09/00 A3010 140 51 -400 360/14G17 RMK AO2
53843K79J 79J20160110161510101/10/16 16:15:31  5-MIN K79J 102115Z AUTO 36010KT 10SM OVC033 09/00 A3010 140 51 -400 360/10 RMK AO2
53843K79J 79J20160110162010101/10/16 16:20:31  5-MIN K79J 102120Z AUTO 36010KT 10SM OVC033 09/00 A3011 140 51 -400 360/10 RMK AO2
53843K79J 79J20160110162510101/10/16 16:25:31  5-MIN K79J 102125Z AUTO 35010KT 10SM OVC033 09/00 A3011 140 51 -400 360/10 RMK AO2
53843K79J 79J20160110163010101/10/16 16:30:31  5-MIN K79J 102130Z AUTO 35013KT 10SM OVC033 09/00 A3011 130 51 -400 350/13 RMK AO2
53843K79J 79J20160110163510101/10/16 16:35:31  5-MIN K79J 102135Z AUTO 35009KT 10SM OVC033 09/00 A3011 130 51 -400 350/09 RMK AO2
53843K79J 79J20160110164010701/10/16 16:40:31  5-MIN K79J 102140Z AUTO 34010G16KT 10SM OVC031 09/01 A3012 130 53 -400 340/10G16 RMK AO2
53843K79J 79J20160110164510101/10/16 16:45:31  5-MIN K79J 102145Z AUTO 34008KT 10SM OVC031 09/00 A3012 130 51 -400 350/08 RMK AO2
53843K79J 79J20160110165011801/10/16 16:50:31  5-MIN K79J 102150Z AUTO 35010KT 10SM OVC033 09/00 A3012 120 51 -400 350/10 RMK AO2 SLP200 T00940000
53843K79J 79J20160110165511801/10/16 16:55:31  5-MIN K79J 102155Z AUTO 34007KT 10SM OVC033 09/00 A3013 120 51 -400 350/07 RMK AO2 SLP201 T00940000
53843K79J 79J20160110170010701/10/16 17:00:31  5-MIN K79J 102200Z AUTO 36011G15KT 10SM OVC033 09/01 A3013 120 53 -400 360/11G15 RMK AO2
53843K79J 79J20160110170510101/10/16 17:05:31  5-MIN K79J 102205Z AUTO 36013KT 10SM OVC033 09/00 A3013 120 51 -400 360/13 RMK AO2
53843K79J 79J20160110171010201/10/16 17:10:31  5-MIN K79J 102210Z AUTO 35008KT 10SM OVC033 09/M01 A3013 120 51 -500 350/08 RMK AO2
53843K79J 79J20160110171510101/10/16 17:15:31  5-MIN K79J 102215Z AUTO 01009KT 10SM OVC033 09/00 A3013 120 53 -500 010/09 RMK AO2
53843K79J 79J20160110172010801/10/16 17:20:31  5-MIN K79J 102220Z AUTO 35011G16KT 10SM OVC033 09/M01 A3013 120 51 -500 360/11G16 RMK AO2
53843K79J 79J20160110172510201/10/16 17:25:31  5-MIN K79J 102225Z AUTO 36010KT 10SM OVC033 09/M01 A3014 110 51 -500 360/10 RMK AO2
53843K79J 79J20160110173010101/10/16 17:30:31  5-MIN K79J 102230Z AUTO 35009KT 10SM OVC033 09/00 A3014 110 53 -500 350/09 RMK AO2
53843K79J 79J20160110173510101/10/16 17:35:31  5-MIN K79J 102235Z AUTO 35007KT 10SM OVC033 09/00 A3014 110 53 -500 350/07 RMK AO2
53843K79J 79J20160110174010201/10/16 17:40:31  5-MIN K79J 102240Z AUTO 01009KT 10SM OVC033 08/M01 A3014 110 53 -600 010/09 RMK AO2
53843K79J 79J20160110174510201/10/16 17:45:31  5-MIN K79J 102245Z AUTO 01008KT 10SM OVC033 08/M01 A3014 110 53 -600 010/08 RMK AO2
53843K79J 79J20160110175011901/10/16 17:50:31  5-MIN K79J 102250Z AUTO 36008KT 10SM OVC033 08/M01 A3014 110 53 -600 360/08 RMK AO2 SLP206 T00831006
53843K79J 79J20160110175511901/10/16 17:55:31  5-MIN K79J 102255Z AUTO 35010KT 10SM OVC033 08/M01 A3014 110 53 -600 360/10 RMK AO2 SLP207 T00831006
53843K79J 79J20160110180010201/10/16 18:00:31  5-MIN K79J 102300Z AUTO 36007KT 10SM OVC033 08/M01 A3015 100 53 -600 360/07 RMK AO2
53843K79J 79J20160110180510101/10/16 18:05:31  5-MIN K79J 102305Z AUTO 36007KT 10SM OVC033 08/00 A3015 100 58 -700 360/07 RMK AO2
53843K79J 79J20160110181010101/10/16 18:10:31  5-MIN K79J 102310Z AUTO 35006KT 10SM OVC033 08/00 A3015 100 58 -700 360/06 RMK AO2
53843K79J 79J20160110181510101/10/16 18:15:31  5-MIN K79J 102315Z AUTO 36006KT 10SM OVC031 08/00 A3015 100 58 -700 360/06 RMK AO2
53843K79J 79J20160110182010201/10/16 18:20:31  5-MIN K79J 102320Z AUTO 36009KT 10SM OVC031 08/M01 A3015 100 55 -700 360/09 RMK AO2
53843K79J 79J20160110182510201/10/16 18:25:31  5-MIN K79J 102325Z AUTO 36008KT 10SM OVC031 08/M01 A3015 100 55 -700 360/08 RMK AO2
53843K79J 79J20160110183010201/10/16 18:30:31  5-MIN K79J 102330Z AUTO 35007KT 10SM OVC031 08/M01 A3015 100 55 -700 350/07 RMK AO2
53843K79J 79J20160110183510101/10/16 18:35:31  5-MIN K79J 102335Z AUTO 35008KT 10SM OVC031 08/00 A3016 100 58 -700 350/08 RMK AO2
53843K79J 79J20160110184010101/10/16 18:40:31  5-MIN K79J 102340Z AUTO 35007KT 10SM OVC031 08/M01 A3016 90 55 -700 350/07 RMK AO2
53843K79J 79J20160110184510001/10/16 18:45:31  5-MIN K79J 102345Z AUTO 35006KT 10SM OVC031 08/00 A3016 90 58 -700 350/06 RMK AO2
53843K79J 79J20160110185010001/10/16 18:50:31  5-MIN K79J 102350Z AUTO 35006KT 10SM OVC029 08/00 A3016 90 58 -700 350/06 RMK AO2
53843K79J 79J20160110185513501/10/16 18:55:31  5-MIN K79J 102355Z AUTO 36007KT 10SM OVC029 08/00 A3017 90 58 -700 360/07 RMK AO2 SLP214 T00780000 10111 20078 51023
53843K79J 79J20160110190010001/10/16 19:00:31  5-MIN K79J 110000Z AUTO 36008KT 10SM OVC031 07/00 A3017 90 60 -700 360/08 RMK AO2
53843K79J 79J20160110190510101/10/16 19:05:31  5-MIN K79J 110005Z AUTO 35008KT 10SM BKN031 07/M01 A3017 90 57 -700 350/08 RMK AO2
53843K79J 79J20160110191010101/10/16 19:10:31  5-MIN K79J 110010Z AUTO 36008KT 10SM BKN031 07/M01 A3017 90 57 -700 360/08 RMK AO2
53843K79J 79J20160110191510101/10/16 19:15:31  5-MIN K79J 110015Z AUTO 36006KT 10SM BKN031 07/M01 A3017 80 60 -800 010/06 RMK AO2
53843K79J 79J20160110192010101/10/16 19:20:31  5-MIN K79J 110020Z AUTO 01006KT 10SM SCT031 07/M01 A3017 80 60 -800 010/06 RMK AO2
53843K79J 79J20160110192510101/10/16 19:25:31  5-MIN K79J 110025Z AUTO 36005KT 10SM SCT031 07/M01 A3017 80 60 -800 010/05 RMK AO2
53843K79J 79J20160110193010101/10/16 19:30:31  5-MIN K79J 110030Z AUTO 36005KT 10SM SCT031 07/M01 A3017 80 60 -800 360/05 RMK AO2
53843K79J 79J20160110193510101/10/16 19:35:31  5-MIN K79J 110035Z AUTO 34005KT 10SM FEW031 06/M01 A3017 80 62 -900 340/05 RMK AO2
53843K79J 79J20160110194010101/10/16 19:40:31  5-MIN K79J 110040Z AUTO 34005KT 10SM FEW031 06/M01 A3018 80 62 -900 340/05 RMK AO2
53843K79J 79J20160110194510101/10/16 19:45:31  5-MIN K79J 110045Z AUTO 35007KT 10SM FEW031 06/M01 A3017 80 62 -900 350/07 RMK AO2
53843K79J 79J20160110195011801/10/16 19:50:31  5-MIN K79J 110050Z AUTO 35006KT 10SM FEW031 06/M01 A3018 80 62 -900 350/06 RMK AO2 SLP217 T00611006
53843K79J 79J20160110195511501/10/16 19:55:31  5-MIN K79J 110055Z AUTO 34007KT 10SM CLR 06/00 A3018 80 67 -1000 340/07 RMK AO2 SLP217 T00560000
53843K79J 79J20160110200009901/10/16 20:00:31  5-MIN K79J 110100Z AUTO 34006KT 10SM CLR 06/M01 A3018 80 65 -1000 340/06 RMK AO2
53843K79J 79J20160110200509901/10/16 20:05:31  5-MIN K79J 110105Z AUTO 34005KT 10SM CLR 06/M01 A3017 80 65 -1000 350/05 RMK AO2
53843K79J 79J20160110201009901/10/16 20:10:31  5-MIN K79J 110110Z AUTO 34005KT 10SM CLR 06/M01 A3018 80 65 -1000 340/05 RMK AO2
53843K79J 79J20160110201509901/10/16 20:15:31  5-MIN K79J 110115Z AUTO 34005KT 10SM CLR 06/M01 A3018 80 65 -1000 340/05 RMK AO2
53843K79J 79J20160110202009901/10/16 20:20:31  5-MIN K79J 110120Z AUTO 34005KT 10SM CLR 05/M01 A3018 80 67 -1000 340/05 RMK AO2
53843K79J 79J20160110202509901/10/16 20:25:31  5-MIN K79J 110125Z AUTO 33005KT 10SM CLR 05/M01 A3018 70 67 -1000 340/05 RMK AO2
53843K79J 79J20160110203009901/10/16 20:30:31  5-MIN K79J 110130Z AUTO 34006KT 10SM CLR 05/M01 A3018 80 67 -1000 340/06 RMK AO2
53843K79J 79J20160110203509901/10/16 20:35:31  5-MIN K79J 110135Z AUTO 34005KT 10SM CLR 05/M01 A3018 80 67 -1000 340/05 RMK AO2
53843K79J 79J20160110204009901/10/16 20:40:31  5-MIN K79J 110140Z AUTO 34005KT 10SM CLR 05/M01 A3018 70 67 -1000 340/05 RMK AO2
53843K79J 79J20160110204509901/10/16 20:45:31  5-MIN K79J 110145Z AUTO 34006KT 10SM CLR 05/M01 A3018 70 67 -1000 340/06 RMK AO2
53843K79J 79J20160110205011601/10/16 20:50:31  5-MIN K79J 110150Z AUTO 34004KT 10SM CLR 04/M01 A3018 70 70 -1100 340/04 RMK AO2 SLP221 T00441006
53843K79J 79J20160110205511601/10/16 20:55:31  5-MIN K79J 110155Z AUTO 33004KT 10SM CLR 04/M01 A3019 70 70 -1100 330/04 RMK AO2 SLP221 T00441006
53843K79J 79J20160110210009901/10/16 21:00:31  5-MIN K79J 110200Z AUTO 33005KT 10SM CLR 04/M01 A3019 70 70 -1100 340/05 RMK AO2
53843K79J 79J20160110210509901/10/16 21:05:31  5-MIN K79J 110205Z AUTO 34004KT 10SM CLR 04/M01 A3019 70 70 -1100 340/04 RMK AO2
53843K79J 79J20160110211009901/10/16 21:10:31  5-MIN K79J 110210Z AUTO 33003KT 10SM CLR 04/M01 A3019 60 70 -1100 340/03 RMK AO2
53843K79J 79J20160110211509901/10/16 21:15:31  5-MIN K79J 110215Z AUTO 34003KT 10SM CLR 04/M01 A3019 60 67 -1100 340/03 RMK AO2
53843K79J 79J20160110212009901/10/16 21:20:31  5-MIN K79J 110220Z AUTO 34004KT 10SM CLR 04/M01 A3019 60 67 -1100 340/04 RMK AO2
53843K79J 79J20160110212509901/10/16 21:25:31  5-MIN K79J 110225Z AUTO 33004KT 10SM CLR 04/M01 A3020 60 70 -1200 330/04 RMK AO2
53843K79J 79J20160110213009901/10/16 21:30:31  5-MIN K79J 110230Z AUTO 32004KT 10SM CLR 04/M01 A3020 60 70 -1100 330/04 RMK AO2
53843K79J 79J20160110213509901/10/16 21:35:31  5-MIN K79J 110235Z AUTO 33003KT 10SM CLR 04/M01 A3020 50 67 -1100 330/03 RMK AO2
53843K79J 79J20160110214009901/10/16 21:40:31  5-MIN K79J 110240Z AUTO 31003KT 10SM CLR 04/M01 A3020 50 70 -1100 310/03 RMK AO2
53843K79J 79J20160110214509901/10/16 21:45:31  5-MIN K79J 110245Z AUTO 31003KT 10SM CLR 04/M01 A3020 50 70 -1100 310/03 RMK AO2
53843K79J 79J20160110215012201/10/16 21:50:31  5-MIN K79J 110250Z AUTO 32003KT 10SM CLR 04/M01 A3020 50 70 -1100 330/03 RMK AO2 SLP227 T00441006 51013
53843K79J 79J20160110215512201/10/16 21:55:31  5-MIN K79J 110255Z AUTO 31003KT 10SM CLR 04/M01 A3020 50 73 -1200 310/03 RMK AO2 SLP228 T00391006 51013
53843K79J 79J20160110220009901/10/16 22:00:31  5-MIN K79J 110300Z AUTO 00000KT 10SM CLR 03/M01 A3021 50 76 -1300 000/00 RMK AO2
53843K79J 79J20160110220509901/10/16 22:05:31  5-MIN K79J 110305Z AUTO 31003KT 10SM CLR 04/M01 A3021 50 73 -1200 310/03 RMK AO2
53843K79J 79J20160110221009901/10/16 22:10:31  5-MIN K79J 110310Z AUTO 32003KT 10SM CLR 03/M01 A3021 50 76 -1300 320/03 RMK AO2
53843K79J 79J20160110221509901/10/16 22:15:31  5-MIN K79J 110315Z AUTO 00000KT 10SM CLR 03/M01 A3021 50 76 -1300 000/00 RMK AO2
53843K79J 79J20160110222009901/10/16 22:20:31  5-MIN K79J 110320Z AUTO 32003KT 10SM CLR 03/M01 A3021 50 76 -1300 320/03 RMK AO2
53843K79J 79J20160110222509901/10/16 22:25:31  5-MIN K79J 110325Z AUTO 33003KT 10SM CLR 03/M01 A3021 50 76 -1300 340/03 RMK AO2
53843K79J 79J20160110223009901/10/16 22:30:31  5-MIN K79J 110330Z AUTO 00000KT 10SM CLR 03/M01 A3021 50 79 -1300 000/00 RMK AO2
53843K79J 79J20160110223509901/10/16 22:35:31  5-MIN K79J 110335Z AUTO 35003KT 10SM CLR 03/M01 A3021 50 79 -1300 360/03 RMK AO2
53843K79J 79J20160110224009901/10/16 22:40:31  5-MIN K79J 110340Z AUTO 36003KT 10SM CLR 03/M01 A3020 50 79 -1300 360/03 RMK AO2
53843K79J 79J20160110224509901/10/16 22:45:31  5-MIN K79J 110345Z AUTO 00000KT 10SM CLR 03/M01 A3020 50 75 -1300 000/00 RMK AO2
53843K79J 79J20160110225011601/10/16 22:50:31  5-MIN K79J 110350Z AUTO 00000KT 10SM CLR 03/M01 A3020 50 75 -1300 000/00 RMK AO2 SLP227 T00281011
53843K79J 79J20160110225511601/10/16 22:55:31  5-MIN K79J 110355Z AUTO 00000KT 10SM CLR 03/M01 A3020 50 79 -1300 000/00 RMK AO2 SLP228 T00281006
53843K79J 79J20160110230009901/10/16 23:00:31  5-MIN K79J 110400Z AUTO 00000KT 10SM CLR 03/M01 A3020 50 75 -1300 000/00 RMK AO2
53843K79J 79J20160110230509901/10/16 23:05:31  5-MIN K79J 110405Z AUTO 00000KT 10SM CLR 03/M01 A3020 50 75 -1300 000/00 RMK AO2
53843K79J 79J20160110231009901/10/16 23:10:31  5-MIN K79J 110410Z AUTO 34003KT 10SM CLR 03/M01 A3020 50 75 -1300 350/03 RMK AO2
53843K79J 79J20160110231509901/10/16 23:15:31  5-MIN K79J 110415Z AUTO 35003KT 10SM CLR 03/M01 A3020 50 75 -1300 350/03 RMK AO2
53843K79J 79J20160110232009901/10/16 23:20:31  5-MIN K79J 110420Z AUTO 35003KT 10SM CLR 03/M01 A3021 50 75 -1300 350/03 RMK AO2
53843K79J 79J20160110232509901/10/16 23:25:31  5-MIN K79J 110425Z AUTO 34003KT 10SM CLR 03/M01 A3021 40 75 -1300 350/03 RMK AO2
53843K79J 79J20160110233009901/10/16 23:30:31  5-MIN K79J 110430Z AUTO 00000KT 10SM CLR 03/M01 A3022 40 75 -1300 000/00 RMK AO2
53843K79J 79J20160110233509901/10/16 23:35:31  5-MIN K79J 110435Z AUTO 00000KT 10SM CLR 03/M01 A3022 40 75 -1300 000/00 RMK AO2
53843K79J 79J20160110234009901/10/16 23:40:31  5-MIN K79J 110440Z AUTO 00000KT 10SM CLR 03/M01 A3022 40 75 -1300 000/00 RMK AO2
53843K79J 79J20160110234509901/10/16 23:45:31  5-MIN K79J 110445Z AUTO 00000KT 10SM CLR 03/M01 A3022 40 75 -1400 000/00 RMK AO2
53843K79J 79J20160110235012601/10/16 23:50:31  5-MIN K79J 110450Z AUTO 00000KT 10SM CLR 03/M01 A3022 40 75 -1400 000/00 RMK AO2 SLP233 T00281011 401610028
53843K79J 79J20160110235512601/10/16 23:55:31  5-MIN K79J 110455Z AUTO 00000KT 10SM CLR 03/M01 A3022 40 75 -1400 000/00 RMK AO2 SLP233 T00281011 401610028
53843K79J 79J20160111000009901/11/16 00:00:31  5-MIN K79J 110500Z AUTO 32003KT 10SM CLR 03/M01 A3022 40 75 -1400 320/03 RMK AO2
53843K79J 79J20160111000509901/11/16 00:05:31  5-MIN K79J 110505Z AUTO 00000KT 10SM CLR 03/M02 A3022 40 72 -1400 000/00 RMK AO2
53843K79J 79J20160111001009901/11/16 00:10:31  5-MIN K79J 110510Z AUTO 35003KT 10SM CLR 02/M02 A3021 40 75 -1400 350/03 RMK AO2
53843K79J 79J20160111001509901/11/16 00:15:31  5-MIN K79J 110515Z AUTO 36004KT 10SM CLR 02/M02 A3021 50 78 -1500 010/04 RMK AO2
53843K79J 79J20160111002009901/11/16 00:20:31  5-MIN K79J 110520Z AUTO 01003KT 10SM CLR 02/M02 A3021 50 78 -1500 010/03 RMK AO2
53843K79J 79J20160111002509901/11/16 00:25:31  5-MIN K79J 110525Z AUTO 01004KT 10SM CLR 02/M02 A3020 50 75 -1400 010/04 RMK AO2
53843K79J 79J20160111003009901/11/16 00:30:31  5-MIN K79J 110530Z AUTO 36003KT 10SM CLR 02/M02 A3021 50 75 -1400 360/03 RMK AO2
53843K79J 79J20160111003509901/11/16 00:35:31  5-MIN K79J 110535Z AUTO 36003KT 10SM CLR 02/M02 A3021 50 72 -1400 360/03 RMK AO2
53843K79J 79J20160111004009901/11/16 00:40:31  5-MIN K79J 110540Z AUTO 36003KT 10SM CLR 02/M02 A3021 40 72 -1400 360/03 RMK AO2
53843K79J 79J20160111004509901/11/16 00:45:31  5-MIN K79J 110545Z AUTO 00000KT 10SM CLR 02/M02 A3021 40 72 -1400 000/00 RMK AO2
53843K79J 79J20160111005013401/11/16 00:50:31  5-MIN K79J 110550Z AUTO 34003KT 10SM CLR 02/M02 A3022 40 72 -1400 350/03 RMK AO2 SLP232 T00221022 10078 20017 53013
53843K79J 79J20160111005513401/11/16 00:55:31  5-MIN K79J 110555Z AUTO 35003KT 10SM CLR 02/M03 A3022 40 69 -1400 350/03 RMK AO2 SLP232 T00221028 10078 20017 53013
53843K79J 79J20160111010009901/11/16 01:00:31  5-MIN K79J 110600Z AUTO 36003KT 10SM CLR 02/M03 A3022 40 72 -1500 360/03 RMK AO2
53843K79J 79J20160111010509901/11/16 01:05:31  5-MIN K79J 110605Z AUTO 36004KT 10SM CLR 02/M03 A3022 40 72 -1500 360/04 RMK AO2
53843K79J 79J20160111011009901/11/16 01:10:31  5-MIN K79J 110610Z AUTO 35003KT 10SM CLR 02/M03 A3022 40 72 -1500 350/03 RMK AO2
53843K79J 79J20160111011509901/11/16 01:15:31  5-MIN K79J 110615Z AUTO 00000KT 10SM CLR 02/M03 A3022 40 72 -1500 000/00 RMK AO2
53843K79J 79J20160111012009901/11/16 01:20:31  5-MIN K79J 110620Z AUTO 35003KT 10SM CLR 02/M03 A3022 40 72 -1500 350/03 RMK AO2
53843K79J 79J20160111012509901/11/16 01:25:31  5-MIN K79J 110625Z AUTO 00000KT 10SM CLR 02/M03 A3022 40 72 -1500 000/00 RMK AO2
53843K79J 79J20160111013009901/11/16 01:30:31  5-MIN K79J 110630Z AUTO 35003KT 10SM CLR 02/M03 A3022 40 69 -1500 350/03 RMK AO2
53843K79J 79J20160111013509901/11/16 01:35:31  5-MIN K79J 110635Z AUTO 35003KT 10SM CLR 02/M03 A3022 40 69 -1500 350/03 RMK AO2
53843K79J 79J20160111014009901/11/16 01:40:31  5-MIN K79J 110640Z AUTO 34003KT 10SM CLR 02/M03 A3022 30 69 -1500 340/03 RMK AO2
53843K79J 79J20160111014509901/11/16 01:45:31  5-MIN K79J 110645Z AUTO 34003KT 10SM CLR 02/M03 A3022 30 69 -1500 340/03 RMK AO2
53843K79J 79J20160111015011601/11/16 01:50:31  5-MIN K79J 110650Z AUTO 33004KT 10SM CLR 02/M03 A3023 30 69 -1500 340/04 RMK AO2 SLP235 T00171033
53843K79J 79J20160111015511601/11/16 01:55:31  5-MIN K79J 110655Z AUTO 34003KT 10SM CLR 02/M03 A3023 30 69 -1500 340/03 RMK AO2 SLP236 T00171033
53843K79J 79J20160111020009901/11/16 02:00:31  5-MIN K79J 110700Z AUTO 34003KT 10SM CLR 01/M03 A3023 30 72 -1600 340/03 RMK AO2
53843K79J 79J20160111020509901/11/16 02:05:31  5-MIN K79J 110705Z AUTO 34003KT 10SM CLR 01/M04 A3023 30 69 -1600 340/03 RMK AO2
53843K79J 79J20160111021009901/11/16 02:10:31  5-MIN K79J 110710Z AUTO 35003KT 10SM CLR 01/M04 A3023 30 69 -1600 350/03 RMK AO2
53843K79J 79J20160111021509901/11/16 02:15:31  5-MIN K79J 110715Z AUTO 36003KT 10SM CLR 01/M04 A3023 30 69 -1600 010/03 RMK AO2
53843K79J 79J20160111022009901/11/16 02:20:31  5-MIN K79J 110720Z AUTO 36003KT 10SM CLR 01/M04 A3023 30 69 -1600 360/03 RMK AO2
53843K79J 79J20160111022509901/11/16 02:25:31  5-MIN K79J 110725Z AUTO 35004KT 10SM CLR 01/M04 A3023 30 69 -1600 360/04 RMK AO2
53843K79J 79J20160111023009901/11/16 02:30:31  5-MIN K79J 110730Z AUTO 35004KT 10SM CLR 01/M04 A3023 30 72 -1600 360/04 RMK AO2
53843K79J 79J20160111023509901/11/16 02:35:31  5-MIN K79J 110735Z AUTO 35004KT 10SM CLR 01/M04 A3023 30 69 -1600 350/04 RMK AO2
53843K79J 79J20160111024009901/11/16 02:40:31  5-MIN K79J 110740Z AUTO 35005KT 10SM CLR 01/M04 A3024 20 69 -1600 350/05 RMK AO2
53843K79J 79J20160111024509901/11/16 02:45:31  5-MIN K79J 110745Z AUTO 35004KT 10SM CLR 01/M04 A3023 20 72 -1600 350/04 RMK AO2
53843K79J 79J20160111025011601/11/16 02:50:31  5-MIN K79J 110750Z AUTO 36004KT 10SM CLR 01/M04 A3023 30 72 -1600 010/04 RMK AO2 SLP236 T00061039
53843K79J 79J20160111025511601/11/16 02:55:31  5-MIN K79J 110755Z AUTO 36004KT 10SM CLR 01/M04 A3023 30 72 -1600 360/04 RMK AO2 SLP236 T00061039
53843K79J 79J20160111030007501/11/16 03:00:31  5-MIN K79J 110800Z AUTO 36004KT 10SM CLR 01/M04 A3023 30
53843K79J 79J20160112212509701/12/16 21:25:31  5-MIN K79J 130225Z AUTO 00000KT 10SM CLR 06/01 A3022 40 67 -900 000/00 RMK AO2
53843K79J 79J20160112213009701/12/16 21:30:31  5-MIN K79J 130230Z AUTO 00000KT 10SM CLR 07/01 A3022 40 67 -900 000/00 RMK AO2
53843K79J 79J20160112213509701/12/16 21:35:31  5-MIN K79J 130235Z AUTO 00000KT 10SM CLR 07/01 A3022 40 65 -900 000/00 RMK AO2
53843K79J 79J20160112214009701/12/16 21:40:31  5-MIN K79J 130240Z AUTO 00000KT 10SM CLR 06/01 A3022 30 67 -900 000/00 RMK AO2
53843K79J 79J20160112214509801/12/16 21:45:31  5-MIN K79J 130245Z AUTO 00000KT 10SM CLR 06/01 A3022 30 70 -1000 000/00 RMK AO2
53843K79J 79J20160112215012101/12/16 21:50:31  5-MIN K79J 130250Z AUTO 00000KT 10SM CLR 06/01 A3022 30 70 -1000 000/00 RMK AO2 SLP235 T00560006 51009
53843K79J 79J20160112215512101/12/16 21:55:31  5-MIN K79J 130255Z AUTO 00000KT 10SM CLR 06/01 A3023 30 70 -1000 000/00 RMK AO2 SLP235 T00560006 51009
53843K79J 79J20160112220009701/12/16 22:00:31  5-MIN K79J 130300Z AUTO 00000KT 10SM CLR 06/01 A3023 30 67 -900 000/00 RMK AO2
53843K79J 79J20160112220509701/12/16 22:05:31  5-MIN K79J 130305Z AUTO 00000KT 10SM CLR 07/01 A3023 30 65 -900 000/00 RMK AO2
53843K79J 79J20160112221009701/12/16 22:10:31  5-MIN K79J 130310Z AUTO VRB03KT 10SM CLR 07/01 A3023 30 62 -800 VRB/03 RMK AO2
53843K79J 79J20160112221509701/12/16 22:15:31  5-MIN K79J 130315Z AUTO 34003KT 10SM CLR 08/01 A3022 30 58 -700 340/03 RMK AO2
53843K79J 79J20160112222009701/12/16 22:20:31  5-MIN K79J 130320Z AUTO 00000KT 10SM CLR 08/01 A3022 30 60 -700 000/00 RMK AO2
53843K79J 79J20160112222509701/12/16 22:25:31  5-MIN K79J 130325Z AUTO 00000KT 10SM CLR 07/01 A3022 40 65 -900 000/00 RMK AO2
53843K79J 79J20160112223009701/12/16 22:30:31  5-MIN K79J 130330Z AUTO 00000KT 10SM CLR 06/01 A3022 40 67 -900 000/00 RMK AO2
53843K79J 79J20160112223509801/12/16 22:35:31  5-MIN K79J 130335Z AUTO 34004KT 10SM CLR 06/01 A3022 40 70 -1000 340/04 RMK AO2
53843K79J 79J20160112224009801/12/16 22:40:31  5-MIN K79J 130340Z AUTO 36003KT 10SM CLR 06/01 A3022 40 70 -1000 360/03 RMK AO2
53843K79J 79J20160112224509801/12/16 22:45:31  5-MIN K79J 130345Z AUTO 36004KT 10SM CLR 05/01 A3022 40 73 -1100 360/04 RMK AO2
53843K79J 79J20160112225011501/12/16 22:50:31  5-MIN K79J 130350Z AUTO 36003KT 10SM CLR 06/01 A3022 40 70 -1000 360/03 RMK AO2 SLP232 T00560006
53843K79J 79J20160112225511401/12/16 22:55:31  5-MIN K79J 130355Z AUTO 00000KT 10SM CLR 06/01 A3022 30 67 -900 000/00 RMK AO2 SLP233 T00610006
53843K79J 79J20160112230009701/12/16 23:00:31  5-MIN K79J 130400Z AUTO 00000KT 10SM CLR 07/01 A3023 30 65 -900 000/00 RMK AO2
53843K79J 79J20160112230509701/12/16 23:05:31  5-MIN K79J 130405Z AUTO 00000KT 10SM CLR 07/01 A3023 30 62 -800 000/00 RMK AO2
53843K79J 79J20160112231009701/12/16 23:10:31  5-MIN K79J 130410Z AUTO 30003KT 10SM CLR 07/00 A3023 30 60 -800 310/03 RMK AO2
53843K79J 79J20160112231509701/12/16 23:15:31  5-MIN K79J 130415Z AUTO 00000KT 10SM CLR 07/00 A3023 30 60 -800 000/00 RMK AO2
53843K79J 79J20160112232009701/12/16 23:20:31  5-MIN K79J 130420Z AUTO 00000KT 10SM CLR 07/00 A3023 30 60 -800 000/00 RMK AO2
53843K79J 79J20160112232509701/12/16 23:25:31  5-MIN K79J 130425Z AUTO 00000KT 10SM CLR 06/01 A3023 30 67 -900 000/00 RMK AO2
53843K79J 79J20160112233009801/12/16 23:30:31  5-MIN K79J 130430Z AUTO 00000KT 10SM CLR 06/01 A3023 30 70 -1000 000/00 RMK AO2
53843K79J 79J20160112233509801/12/16 23:35:31  5-MIN K79J 130435Z AUTO 00000KT 10SM CLR 05/01 A3023 30 73 -1100 000/00 RMK AO2
53843K79J 79J20160112234009801/12/16 23:40:31  5-MIN K79J 130440Z AUTO 27003KT 10SM CLR 05/01 A3023 30 73 -1100 270/03 RMK AO2
53843K79J 79J20160112234509801/12/16 23:45:31  5-MIN K79J 130445Z AUTO 00000KT 10SM CLR 06/01 A3023 20 70 -1000 000/00 RMK AO2
53843K79J 79J20160112235012501/12/16 23:50:31  5-MIN K79J 130450Z AUTO 00000KT 10SM CLR 06/00 A3023 30 65 -1000 000/00 RMK AO2 SLP236 T00610000 401720000
53843K79J 79J20160112235512501/12/16 23:55:31  5-MIN K79J 130455Z AUTO 00000KT 10SM CLR 06/01 A3023 30 67 -1000 000/00 RMK AO2 SLP236 T00610006 401720000
53843K79J 79J20160113000009801/13/16 00:00:31  5-MIN K79J 130500Z AUTO 00000KT 10SM CLR 05/01 A3023 20 73 -1100 000/00 RMK AO2
53843K79J 79J20160113000509801/13/16 00:05:31  5-MIN K79J 130505Z AUTO 00000KT 10SM CLR 05/01 A3023 20 73 -1100 000/00 RMK AO2
53843K79J 79J20160113001009801/13/16 00:10:31  5-MIN K79J 130510Z AUTO 26003KT 10SM CLR 05/01 A3024 20 73 -1100 260/03 RMK AO2
53843K79J 79J20160113001509801/13/16 00:15:31  5-MIN K79J 130515Z AUTO 00000KT 10SM CLR 05/01 A3024 20 73 -1100 000/00 RMK AO2
53843K79J 79J20160113002009801/13/16 00:20:31  5-MIN K79J 130520Z AUTO 00000KT 10SM CLR 04/00 A3024 20 73 -1200 000/00 RMK AO2
53843K79J 79J20160113002509801/13/16 00:25:31  5-MIN K79J 130525Z AUTO 00000KT 10SM CLR 04/00 A3024 20 76 -1200 000/00 RMK AO2
53843K79J 79J20160113003009801/13/16 00:30:31  5-MIN K79J 130530Z AUTO 00000KT 10SM CLR 04/01 A3024 20 79 -1200 000/00 RMK AO2
53843K79J 79J20160113003509801/13/16 00:35:31  5-MIN K79J 130535Z AUTO 33003KT 10SM CLR 04/01 A3024 20 79 -1200 340/03 RMK AO2
53843K79J 79J20160113004009801/13/16 00:40:31  5-MIN K79J 130540Z AUTO 35004KT 10SM CLR 04/00 A3023 20 76 -1200 350/04 RMK AO2
53843K79J 79J20160113004509801/13/16 00:45:31  5-MIN K79J 130545Z AUTO 33003KT 10SM CLR 04/00 A3023 20 76 -1200 340/03 RMK AO2
53843K79J 79J20160113005013301/13/16 00:50:31  5-MIN K79J 130550Z AUTO 29003KT 10SM CLR 04/00 A3024 20 73 -1200 290/03 RMK AO2 SLP238 T00440000 10100 20039 51008
53843K79J 79J20160113005513301/13/16 00:55:31  5-MIN K79J 130555Z AUTO 30003KT 10SM CLR 05/00 A3024 20 70 -1100 300/03 RMK AO2 SLP238 T00500000 10100 20039 51008
53843K79J 79J20160113010009801/13/16 01:00:31  5-MIN K79J 130600Z AUTO 29003KT 10SM CLR 06/00 A3024 20 67 -1000 300/03 RMK AO2
53843K79J 79J20160113010509801/13/16 01:05:31  5-MIN K79J 130605Z AUTO 00000KT 10SM CLR 06/00 A3024 20 67 -1000 000/00 RMK AO2
53843K79J 79J20160113011009801/13/16 01:10:31  5-MIN K79J 130610Z AUTO 00000KT 10SM CLR 06/00 A3024 20 67 -1000 000/00 RMK AO2
53843K79J 79J20160113011509801/13/16 01:15:31  5-MIN K79J 130615Z AUTO 00000KT 10SM CLR 06/00 A3024 20 67 -1000 000/00 RMK AO2
53843K79J 79J20160113012009801/13/16 01:20:31  5-MIN K79J 130620Z AUTO 00000KT 10SM CLR 04/00 A3024 20 73 -1200 000/00 RMK AO2
53843K79J 79J20160113012509801/13/16 01:25:31  5-MIN K79J 130625Z AUTO 31003KT 10SM CLR 04/00 A3024 20 76 -1200 310/03 RMK AO2
53843K79J 79J20160113013009801/13/16 01:30:31  5-MIN K79J 130630Z AUTO 31004KT 10SM CLR 04/00 A3024 20 76 -1200 310/04 RMK AO2
53843K79J 79J20160113013509801/13/16 01:35:31  5-MIN K79J 130635Z AUTO 32003KT 10SM CLR 04/00 A3024 20 76 -1200 320/03 RMK AO2
53843K79J 79J20160113014009801/13/16 01:40:31  5-MIN K79J 130640Z AUTO 30003KT 10SM CLR 04/00 A3024 20 73 -1200 310/03 RMK AO2
53843K79J 79J20160113014509801/13/16 01:45:31  5-MIN K79J 130645Z AUTO 30003KT 10SM CLR 05/00 A3024 20 70 -1100 300/03 RMK AO2
53843K79J 79J20160113015011501/13/16 01:50:31  5-MIN K79J 130650Z AUTO 31003KT 10SM CLR 05/00 A3024 20 70 -1100 310/03 RMK AO2 SLP239 T00500000
53843K79J 79J20160113015511501/13/16 01:55:31  5-MIN K79J 130655Z AUTO 32003KT 10SM CLR 04/00 A3024 20 73 -1200 320/03 RMK AO2 SLP238 T00440000
53843K79J 79J20160113020009801/13/16 02:00:31  5-MIN K79J 130700Z AUTO 00000KT 10SM CLR 04/00 A3024 20 73 -1200 000/00 RMK AO2
53843K79J 79J20160113020509801/13/16 02:05:31  5-MIN K79J 130705Z AUTO 00000KT 10SM CLR 04/00 A3024 20 73 -1200 000/00 RMK AO2
53843K79J 79J20160113021009801/13/16 02:10:31  5-MIN K79J 130710Z AUTO 00000KT 10SM CLR 04/00 A3024 20 76 -1200 000/00 RMK AO2
53843K79J 79J20160113021509901/13/16 02:15:31  5-MIN K79J 130715Z AUTO 00000KT 10SM CLR 03/M01 A3024 20 76 -1300 000/00 RMK AO2
53843K79J 79J20160113022009901/13/16 02:20:31  5-MIN K79J 130720Z AUTO 32003KT 10SM CLR 03/M01 A3024 20 76 -1300 320/03 RMK AO2
53843K79J 79J20160113022509801/13/16 02:25:31  5-MIN K79J 130725Z AUTO 00000KT 10SM CLR 03/00 A3024 20 79 -1300 000/00 RMK AO2
53843K79J 79J20160113023009901/13/16 02:30:31  5-MIN K79J 130730Z AUTO 33003KT 10SM CLR 03/M01 A3024 20 79 -1400 340/03 RMK AO2
53843K79J 79J20160113023509901/13/16 02:35:31  5-MIN K79J 130735Z AUTO 35004KT 10SM CLR 03/M01 A3024 20 79 -1400 360/04 RMK AO2
53843K79J 79J20160113024009901/13/16 02:40:31  5-MIN K79J 130740Z AUTO 35005KT 10SM CLR 03/M01 A3024 20 79 -1400 350/05 RMK AO2
53843K79J 79J20160113024509901/13/16 02:45:31  5-MIN K79J 130745Z AUTO 34005KT 10SM CLR 03/M01 A3024 20 76 -1300 350/05 RMK AO2
53843K79J 79J20160113025011601/13/16 02:50:31  5-MIN K79J 130750Z AUTO 34006KT 10SM CLR 04/M01 A3024 20 70 -1200 340/06 RMK AO2 SLP240 T00441006
53843K79J 79J20160113025511601/13/16 02:55:31  5-MIN K79J 130755Z AUTO 35006KT 10SM CLR 04/M01 A3024 20 70 -1200 350/06 RMK AO2 SLP239 T00441006
53843K79J 79J20160113030009901/13/16 03:00:31  5-MIN K79J 130800Z AUTO 35006KT 10SM CLR 05/M01 A3024 20 67 -1100 350/06 RMK AO2
53843K79J 79J20160113030509901/13/16 03:05:31  5-MIN K79J 130805Z AUTO 35005KT 10SM CLR 05/M01 A3024 20 67 -1100 350/05 RMK AO2
53843K79J 79J20160113031009901/13/16 03:10:31  5-MIN K79J 130810Z AUTO 35005KT 10SM CLR 05/M01 A3024 20 67 -1100 350/05 RMK AO2
53843K79J 79J20160113031509901/13/16 03:15:31  5-MIN K79J 130815Z AUTO 35005KT 10SM CLR 05/M01 A3024 20 67 -1100 350/05 RMK AO2
53843K79J 79J20160113032009901/13/16 03:20:31  5-MIN K79J 130820Z AUTO 35005KT 10SM CLR 05/M01 A3024 20 67 -1100 350/05 RMK AO2
53843K79J 79J20160113032509901/13/16 03:25:31  5-MIN K79J 130825Z AUTO 35004KT 10SM CLR 05/M01 A3024 20 67 -1100 350/04 RMK AO2
53843K79J 79J20160113033009901/13/16 03:30:31  5-MIN K79J 130830Z AUTO 34004KT 10SM CLR 06/M01 A3024 20 65 -1000 350/04 RMK AO2
53843K79J 79J20160113033509901/13/16 03:35:31  5-MIN K79J 130835Z AUTO 35004KT 10SM CLR 06/M01 A3024 20 65 -1000 350/04 RMK AO2
53843K79J 79J20160113034009901/13/16 03:40:31  5-MIN K79J 130840Z AUTO 35005KT 10SM CLR 06/M01 A3024 20 65 -1000 350/05 RMK AO2
53843K79J 79J20160113034509901/13/16 03:45:31  5-MIN K79J 130845Z AUTO 35005KT 10SM CLR 05/M01 A3024 20 67 -1100 350/05 RMK AO2
53843K79J 79J20160113035012201/13/16 03:50:31  5-MIN K79J 130850Z AUTO 35004KT 10SM CLR 05/M01 A3024 20 67 -1100 360/04 RMK AO2 SLP240 T00501006 53004
53843K79J 79J20160113035512201/13/16 03:55:31  5-MIN K79J 130855Z AUTO 36005KT 10SM CLR 05/M01 A3024 20 67 -1100 360/05 RMK AO2 SLP240 T00501006 53004
53843K79J 79J20160113040009901/13/16 04:00:31  5-MIN K79J 130900Z AUTO 36006KT 10SM CLR 05/M01 A3024 20 67 -1100 360/06 RMK AO2
53843K79J 79J20160113040509901/13/16 04:05:31  5-MIN K79J 130905Z AUTO 36006KT 10SM CLR 05/M01 A3024 20 67 -1100 360/06 RMK AO2
53843K79J 79J20160113041009901/13/16 04:10:31  5-MIN K79J 130910Z AUTO 36005KT 10SM CLR 05/M01 A3024 10 67 -1100 360/05 RMK AO2
53843K79J 79J20160113041509901/13/16 04:15:31  5-MIN K79J 130915Z AUTO 36005KT 10SM CLR 05/M01 A3024 10 67 -1100 360/05 RMK AO2
53843K79J 79J20160113042009901/13/16 04:20:31  5-MIN K79J 130920Z AUTO 36004KT 10SM CLR 05/M01 A3024 10 67 -1100 010/04 RMK AO2
53843K79J 79J20160113042509901/13/16 04:25:31  5-MIN K79J 130925Z AUTO 36003KT 10SM CLR 05/M01 A3024 10 67 -1100 360/03 RMK AO2
53843K79J 79J20160113043009901/13/16 04:30:31  5-MIN K79J 130930Z AUTO 36003KT 10SM CLR 06/M01 A3025 10 62 -1000 360/03 RMK AO2
53843K79J 79J20160113043509901/13/16 04:35:31  5-MIN K79J 130935Z AUTO 36003KT 10SM CLR 06/M01 A3025 10 62 -1000 360/03 RMK AO2
53843K79J 79J20160113044009901/13/16 04:40:31  5-MIN K79J 130940Z AUTO 35003KT 10SM CLR 06/M01 A3025 10 62 -1000 360/03 RMK AO2
53843K79J 79J20160113044509901/13/16 04:45:31  5-MIN K79J 130945Z AUTO 36003KT 10SM CLR 06/M01 A3025 10 62 -1000 360/03 RMK AO2
53843K79J 79J20160113045011601/13/16 04:50:31  5-MIN K79J 130950Z AUTO 00000KT 10SM CLR 06/M01 A3025 10 65 -1000 000/00 RMK AO2 SLP242 T00561006
53843K79J 79J20160113045511601/13/16 04:55:31  5-MIN K79J 130955Z AUTO 00000KT 10SM CLR 06/M01 A3025 10 65 -1000 000/00 RMK AO2 SLP242 T00561006
53843K79J 79J20160113050009901/13/16 05:00:31  5-MIN K79J 131000Z AUTO 00000KT 10SM CLR 06/M01 A3025 10 65 -1000 000/00 RMK AO2
53843K79J 79J20160113050509901/13/16 05:05:31  5-MIN K79J 131005Z AUTO 00000KT 10SM CLR 05/M01 A3025 10 67 -1100 000/00 RMK AO2
53843K79J 79J20160113051009901/13/16 05:10:31  5-MIN K79J 131010Z AUTO 00000KT 10SM CLR 05/M01 A3025 10 67 -1100 000/00 RMK AO2
53843K79J 79J20160113051509901/13/16 05:15:31  5-MIN K79J 131015Z AUTO 00000KT 10SM CLR 04/M01 A3025 10 70 -1200 000/00 RMK AO2
53843K79J 79J20160113052009901/13/16 05:20:31  5-MIN K79J 131020Z AUTO 00000KT 10SM CLR 04/M01 A3025 10 73 -1200 000/00 RMK AO2
53843K79J 79J20160113092509801/13/16 09:25:31  5-MIN K79J 131425Z AUTO 00000KT 10SM CLR 08/02 A3029 -20 63 -700 000/00 RMK AO2
53843K79J 79J20160113093009801/13/16 09:30:31  5-MIN K79J 131430Z AUTO 00000KT 10SM CLR 09/02 A3029 -20 60 -700 000/00 RMK AO2
53843K79J 79J20160113093509801/13/16 09:35:31  5-MIN K79J 131435Z AUTO 00000KT 10SM CLR 09/02 A3029 -20 58 -600 000/00 RMK AO2
53843K79J 79J20160113094009801/13/16 09:40:31  5-MIN K79J 131440Z AUTO 10004KT 10SM CLR 10/01 A3029 -20 52 -500 100/04 RMK AO2
53843K79J 79J20160113094509801/13/16 09:45:31  5-MIN K79J 131445Z AUTO 11003KT 10SM CLR 10/01 A3029 -20 52 -500 110/03 RMK AO2
53843K79J 79J20160113095012101/13/16 09:50:31  5-MIN K79J 131450Z AUTO 11004KT 10SM CLR 11/01 A3029 -20 50 -500 110/04 RMK AO2 SLP256 T01060006 53010
53843K79J 79J20160113095512101/13/16 09:55:31  5-MIN K79J 131455Z AUTO 11005KT 10SM CLR 11/00 A3029 -30 48 -500 110/05 RMK AO2 SLP257 T01060000 53010
53843K79J 79J20160113100009801/13/16 10:00:31  5-MIN K79J 131500Z AUTO 11004KT 10SM CLR 11/00 A3030 -30 46 -400 110/04 RMK AO2
53843K79J 79J20160113100509801/13/16 10:05:31  5-MIN K79J 131505Z AUTO 11004KT 10SM CLR 11/00 A3030 -30 46 -400 110/04 RMK AO2
53843K79J 79J20160113101009801/13/16 10:10:31  5-MIN K79J 131510Z AUTO 10003KT 10SM CLR 11/01 A3030 -40 48 -400 110/03 RMK AO2
53843K79J 79J20160113101509801/13/16 10:15:31  5-MIN K79J 131515Z AUTO 12003KT 10SM CLR 12/01 A3031 -40 46 -400 120/03 RMK AO2
53843K79J 79J20160113102009801/13/16 10:20:31  5-MIN K79J 131520Z AUTO 11004KT 10SM CLR 12/01 A3030 -30 46 -400 120/04 RMK AO2
53843K79J 79J20160113102509801/13/16 10:25:31  5-MIN K79J 131525Z AUTO 07004KT 10SM CLR 12/00 A3030 -40 43 -300 080/04 RMK AO2
53843K79J 79J20160113103009901/13/16 10:30:31  5-MIN K79J 131530Z AUTO 09004KT 10SM CLR 12/M01 A3031 -40 41 -300 090/04 RMK AO2
53843K79J 79J20160113103509801/13/16 10:35:31  5-MIN K79J 131535Z AUTO 13004KT 10SM CLR 13/00 A3031 -40 41 -200 130/04 RMK AO2
53843K79J 79J20160113104009801/13/16 10:40:31  5-MIN K79J 131540Z AUTO 12004KT 10SM CLR 13/00 A3031 -40 41 -200 120/04 RMK AO2
53843K79J 79J20160113104509901/13/16 10:45:31  5-MIN K79J 131545Z AUTO 16003KT 10SM CLR 13/M01 A3031 -40 39 -200 160/03 RMK AO2
53843K79J 79J20160113105011601/13/16 10:50:31  5-MIN K79J 131550Z AUTO 12003KT 10SM CLR 13/M01 A3031 -40 38 -200 130/03 RMK AO2 SLP263 T01331006
53843K79J 79J20160113105511601/13/16 10:55:31  5-MIN K79J 131555Z AUTO VRB04KT 10SM CLR 13/M01 A3031 -40 38 -200 VRB/04 RMK AO2 SLP262 T01331006
53843K79J 79J20160113110009901/13/16 11:00:31  5-MIN K79J 131600Z AUTO 12003KT 10SM CLR 14/M01 A3031 -40 37 -100 120/03 RMK AO2
53843K79J 79J20160113110509901/13/16 11:05:31  5-MIN K79J 131605Z AUTO 00000KT 10SM CLR 14/M01 A3031 -40 37 -100 000/00 RMK AO2
53843K79J 79J20160113111009601/13/16 11:10:31  5-MIN K79J 131610Z AUTO VRB03KT 10SM CLR 14/M01 A3031 -40 35 0 VRB/03 RMK AO2
53843K79J 79J20160113111509601/13/16 11:15:31  5-MIN K79J 131615Z AUTO VRB04KT 10SM CLR 14/M01 A3031 -40 34 0 VRB/04 RMK AO2
53843K79J 79J20160113112009601/13/16 11:20:31  5-MIN K79J 131620Z AUTO 12003KT 10SM CLR 15/M01 A3031 -40 34 0 120/03 RMK AO2
53843K79J 79J20160113112509601/13/16 11:25:31  5-MIN K79J 131625Z AUTO 14003KT 10SM CLR 14/M01 A3031 -40 35 0 140/03 RMK AO2
53843K79J 79J20160113113009601/13/16 11:30:31  5-MIN K79J 131630Z AUTO 00000KT 10SM CLR 14/M01 A3031 -40 34 0 000/00 RMK AO2
53843K79J 79J20160113113509601/13/16 11:35:31  5-MIN K79J 131635Z AUTO VRB03KT 10SM CLR 15/M01 A3030 -40 33 0 VRB/03 RMK AO2
53843K79J 79J20160113114009601/13/16 11:40:31  5-MIN K79J 131640Z AUTO VRB03KT 10SM CLR 15/M01 A3030 -30 33 0 VRB/03 RMK AO2
53843K79J 79J20160113114509601/13/16 11:45:31  5-MIN K79J 131645Z AUTO VRB03KT 10SM CLR 15/M02 A3029 -30 31 0 VRB/03 RMK AO2
53843K79J 79J20160113115011301/13/16 11:50:31  5-MIN K79J 131650Z AUTO 16003KT 10SM CLR 15/M02 A3029 -30 31 0 160/03 RMK AO2 SLP258 T01501017
53843K79J 79J20160113115507301/13/16 11:55:31  5-MIN K79J 131655Z AUTO 00000KT 10SM CLR 16/M02 A3030 
53843K79J 79J20160114072509901/14/16 07:25:31  5-MIN K79J 141225Z AUTO 00000KT 10SM CLR 02/M01 A3016 90 82 -1400 000/00 RMK AO2
53843K79J 79J20160114073009901/14/16 07:30:31  5-MIN K79J 141230Z AUTO 00000KT 10SM CLR 02/M01 A3016 90 82 -1400 000/00 RMK AO2
53843K79J 79J20160114073509901/14/16 07:35:31  5-MIN K79J 141235Z AUTO 00000KT 10SM CLR 02/M01 A3017 80 82 -1400 000/00 RMK AO2
53843K79J 79J20160114074009901/14/16 07:40:31  5-MIN K79J 141240Z AUTO 00000KT 10SM CLR 02/M01 A3017 80 82 -1400 000/00 RMK AO2
53843K79J 79J20160115073012501/15/16 07:30:31  5-MIN K79J 151230Z AUTO 35011KT 4SM RA BR BKN005 BKN015 OVC021 09/07 A2966 560 86 100 350/11 RMK AO2 P0003
53843K79J 79J20160115073511801/15/16 07:35:31  5-MIN K79J 151235Z AUTO 36008KT 6SM RA BR BKN007 OVC023 09/07 A2966 560 86 100 360/08 RMK AO2 P0003
53843K79J 79J20160115074012501/15/16 07:40:31  5-MIN K79J 151240Z AUTO 01007KT 5SM RA BR BKN007 BKN023 OVC027 09/07 A2966 560 86 100 010/07 RMK AO2 P0004
53843K79J 79J20160115074512201/15/16 07:45:31  5-MIN K79J 151245Z AUTO 03007KT 5SM RA SCT007 BKN023 OVC028 10/07 A2965 570 83 100 030/07 RMK AO2 P0004
53843K79J 79J20160115075013901/15/16 07:50:31  5-MIN K79J 151250Z AUTO 02007KT 4SM RA FEW007 BKN029 OVC038 10/07 A2965 560 83 100 020/07 RMK AO2 SLP039 P0005 T01000072
53843K79J 79J20160115075514001/15/16 07:55:31  5-MIN K79J 151255Z AUTO 02007KT 5SM -RA FEW007 BKN027 OVC038 10/07 A2965 560 83 100 020/07 RMK AO2 SLP040 P0005 T01000072
53843K79J 79J20160115080012301/15/16 08:00:31  5-MIN K79J 151300Z AUTO 05005KT 8SM -RA FEW007 BKN027 OVC036 10/07 A2964 570 83 100 060/05 RMK AO2 P0000
53843K79J 79J20160115080512301/15/16 08:05:31  5-MIN K79J 151305Z AUTO VRB04KT 9SM -RA FEW005 BKN029 OVC049 10/07 A2965 560 83 100 VRB/04 RMK AO2 P0000
53843K79J 79J20160115081012401/15/16 08:10:31  5-MIN K79J 151310Z AUTO 03005KT 10SM -RA BKN031 BKN055 OVC065 10/07 A2965 570 83 100 030/05 RMK AO2 P0000
53843K79J 79J20160115081512601/15/16 08:15:31  5-MIN K79J 151315Z AUTO 36008KT 10SM SCT031 SCT050 BKN065 10/07 A2965 560 83 100 360/08 RMK AO2 RAE12 P0000
53843K79J 79J20160115082012601/15/16 08:20:31  5-MIN K79J 151320Z AUTO VRB04KT 10SM FEW031 SCT055 BKN085 10/07 A2963 580 83 200 VRB/04 RMK AO2 RAE12 P0000
53843K79J 79J20160115082512601/15/16 08:25:31  5-MIN K79J 151325Z AUTO VRB03KT 10SM FEW004 SCT055 BKN085 10/07 A2963 580 83 200 VRB/03 RMK AO2 RAE12 P0000
53843K79J 79J20160115083012601/15/16 08:30:31  5-MIN K79J 151330Z AUTO 00000KT 10SM FEW004 SCT065 BKN090 10/07 A2964 580 83 200 000/00 RMK AO2 RAE12 P0000
53843K79J 79J20160115083512601/15/16 08:35:31  5-MIN K79J 151335Z AUTO 00000KT 10SM FEW004 SCT085 BKN110 10/07 A2963 580 83 200 000/00 RMK AO2 RAE12 P0000
53843K79J 79J20160115084012601/15/16 08:40:31  5-MIN K79J 151340Z AUTO 10003KT 10SM FEW004 SCT085 SCT110 10/07 A2962 590 83 200 100/03 RMK AO2 RAE12 P0000
53843K79J 79J20160115084511901/15/16 08:45:31  5-MIN K79J 151345Z AUTO VRB03KT 10SM SCT004 SCT085 10/08 A2962 590 86 200 VRB/03 RMK AO2 RAE12 P0000
53843K79J 79J20160115085012901/15/16 08:50:31  5-MIN K79J 151350Z AUTO 00000KT 10SM SCT004 10/08 A2963 590 86 200 000/00 RMK AO2 RAE12 SLP031 P0000 T01000078
53843K79J 79J20160115085512901/15/16 08:55:31  5-MIN K79J 151355Z AUTO 00000KT 10SM BKN004 11/08 A2964 580 83 200 000/00 RMK AO2 RAE12 SLP034 P0000 T01060078
53843K79J 79J20160115090010001/15/16 09:00:31  5-MIN K79J 151400Z AUTO 00000KT 10SM BKN004 11/08 A2964 570 83 200 000/00 RMK AO2
53843K79J 79J20160115090510701/15/16 09:05:31  5-MIN K79J 151405Z AUTO 00000KT 10SM BKN004 11/08 A2965 570 83 200 000/00 RMK AO2 PRESRR
53843K79J 79J20160115091010701/15/16 09:10:31  5-MIN K79J 151410Z AUTO 31004KT 10SM OVC004 11/08 A2966 560 83 200 320/04 RMK AO2 PRESRR
53843K79J 79J20160115091510001/15/16 09:15:31  5-MIN K79J 151415Z AUTO 32006KT 10SM OVC004 11/08 A2966 550 83 200 320/06 RMK AO2
53843K79J 79J20160115092010001/15/16 09:20:31  5-MIN K79J 151420Z AUTO 32007KT 10SM OVC004 11/08 A2966 550 83 200 320/07 RMK AO2
53843K79J 79J20160115092510001/15/16 09:25:31  5-MIN K79J 151425Z AUTO 33007KT 10SM OVC004 11/08 A2967 550 86 200 330/07 RMK AO2
53843K79J 79J20160115093011301/15/16 09:30:31  5-MIN K79J 151430Z AUTO 31015G20KT 10SM OVC004 11/08 A2969 530 86 200 310/15G20 RMK AO2 PRESRR
53843K79J 79J20160115093510601/15/16 09:35:31  5-MIN K79J 151435Z AUTO 32012G20KT 10SM OVC004 11/08 A2969 530 83 200 320/12G20 RMK AO2
53843K79J 79J20160115094009901/15/16 09:40:31  5-MIN K79J 151440Z AUTO 32012KT 8SM OVC004 11/08 A2969 520 86 200 320/12 RMK AO2
53843K79J 79J20160115094509901/15/16 09:45:31  5-MIN K79J 151445Z AUTO 32013KT 7SM OVC002 11/08 A2969 520 86 200 320/13 RMK AO2
53843K79J 79J20160115095012801/15/16 09:50:31  5-MIN K79J 151450Z AUTO 31010KT 7SM OVC002 11/08 A2970 520 86 200 320/10 RMK AO2 SLP054 60005 T01060083 55017
53843K79J 79J20160115095513101/15/16 09:55:31  5-MIN K79J 151455Z AUTO 32009KT 6SM BR OVC002 11/08 A2969 520 86 200 320/09 RMK AO2 SLP053 60005 T01060083 55017
53843K79J 79J20160115100010201/15/16 10:00:31  5-MIN K79J 151500Z AUTO 32008KT 6SM BR OVC002 11/08 A2970 520 86 200 320/08 RMK AO2
53843K79J 79J20160115100510201/15/16 10:05:31  5-MIN K79J 151505Z AUTO 32011KT 6SM BR OVC002 11/08 A2970 520 86 100 320/11 RMK AO2
53843K79J 79J20160115101009901/15/16 10:10:31  5-MIN K79J 151510Z AUTO 32011KT 7SM OVC002 11/08 A2971 510 83 200 320/11 RMK AO2
53843K79J 79J20160115101509901/15/16 10:15:31  5-MIN K79J 151515Z AUTO 31011KT 8SM OVC002 11/08 A2971 510 83 200 310/11 RMK AO2
53843K79J 79J20160115102009901/15/16 10:20:31  5-MIN K79J 151520Z AUTO 31008KT 8SM OVC002 11/08 A2971 510 83 200 310/08 RMK AO2
53843K79J 79J20160115102509901/15/16 10:25:31  5-MIN K79J 151525Z AUTO 31011KT 9SM OVC002 11/09 A2971 510 86 200 310/11 RMK AO2
53843K79J 79J20160115103009901/15/16 10:30:31  5-MIN K79J 151530Z AUTO 31011KT 9SM OVC002 11/09 A2971 510 86 200 320/11 RMK AO2
53843K79J 79J20160115103509901/15/16 10:35:31  5-MIN K79J 151535Z AUTO 32012KT 9SM OVC002 12/09 A2971 510 83 300 320/12 RMK AO2
53843K79J 79J20160115104009901/15/16 10:40:31  5-MIN K79J 151540Z AUTO 31012KT 8SM OVC002 12/09 A2971 510 83 300 320/12 RMK AO2
53843K79J 79J20160115104510201/15/16 10:45:31  5-MIN K79J 151545Z AUTO 32011KT 6SM HZ OVC002 12/09 A2971 500 83 300 320/11 RMK AO2
53843K79J 79J20160115105011901/15/16 10:50:31  5-MIN K79J 151550Z AUTO 31010KT 5SM HZ OVC002 12/09 A2972 500 83 300 310/10 RMK AO2 SLP060 T01170089
53843K79J 79J20160115105511901/15/16 10:55:31  5-MIN K79J 151555Z AUTO 32010KT 4SM HZ OVC002 12/09 A2971 500 83 300 320/10 RMK AO2 SLP060 T01170089
53843K79J 79J20160115110010201/15/16 11:00:31  5-MIN K79J 151600Z AUTO 31011KT 3SM HZ OVC002 12/09 A2972 500 83 300 310/11 RMK AO2
53843K79J 79J20160115110510601/15/16 11:05:31  5-MIN K79J 151605Z AUTO 30009KT 2 1/2SM HZ OVC002 12/09 A2972 500 83 300 310/09 RMK AO2
53843K79J 79J20160115111010601/15/16 11:10:31  5-MIN K79J 151610Z AUTO 31008KT 2 1/2SM HZ OVC002 12/09 A2972 500 83 300 310/08 RMK AO2
53843K79J 79J20160115111510201/15/16 11:15:31  5-MIN K79J 151615Z AUTO 30007KT 5SM BR OVC002 12/09 A2972 500 86 300 300/07 RMK AO2
53843K79J 79J20160115112009901/15/16 11:20:31  5-MIN K79J 151620Z AUTO 31008KT 7SM OVC002 12/09 A2972 500 86 300 310/08 RMK AO2
53843K79J 79J20160115112509901/15/16 11:25:31  5-MIN K79J 151625Z AUTO 31008KT 9SM OVC002 12/09 A2972 500 83 300 320/08 RMK AO2
53843K79J 79J20160115113010001/15/16 11:30:31  5-MIN K79J 151630Z AUTO 32008KT 10SM OVC004 12/09 A2972 500 86 300 320/08 RMK AO2
53843K79J 79J20160115113510001/15/16 11:35:31  5-MIN K79J 151635Z AUTO 32008KT 10SM OVC004 12/09 A2972 500 83 300 320/08 RMK AO2
53843K79J 79J20160115114010001/15/16 11:40:31  5-MIN K79J 151640Z AUTO 31007KT 10SM OVC004 12/09 A2972 500 83 300 310/07 RMK AO2
53843K79J 79J20160115114509901/15/16 11:45:31  5-MIN K79J 151645Z AUTO 30008KT 9SM OVC004 12/09 A2972 500 83 300 300/08 RMK AO2
53843K79J 79J20160115115011601/15/16 11:50:31  5-MIN K79J 151650Z AUTO 28006KT 9SM OVC004 12/09 A2972 500 83 300 290/06 RMK AO2 SLP061 T01220094
53843K79J 79J20160115115511601/15/16 11:55:31  5-MIN K79J 151655Z AUTO 29005KT 9SM OVC004 12/09 A2972 500 83 300 290/05 RMK AO2 SLP061 T01220094
53843K79J 79J20160115120009901/15/16 12:00:31  5-MIN K79J 151700Z AUTO 30007KT 9SM OVC004 12/09 A2972 500 83 300 300/07 RMK AO2
53843K79J 79J20160115120510001/15/16 12:05:31  5-MIN K79J 151705Z AUTO 30008KT 10SM OVC004 12/09 A2972 500 83 300 300/08 RMK AO2
53843K79J 79J20160115121010001/15/16 12:10:31  5-MIN K79J 151710Z AUTO 30009KT 10SM OVC004 12/09 A2972 500 83 300 300/09 RMK AO2
53843K79J 79J20160115121510001/15/16 12:15:31  5-MIN K79J 151715Z AUTO 29008KT 10SM OVC004 13/09 A2972 500 80 400 290/08 RMK AO2
53843K79J 79J20160115122010001/15/16 12:20:31  5-MIN K79J 151720Z AUTO 29008KT 10SM OVC004 13/09 A2972 500 80 400 290/08 RMK AO2
53843K79J 79J20160115122509901/15/16 12:25:31  5-MIN K79J 151725Z AUTO 29007KT 9SM OVC004 12/09 A2972 500 83 300 290/07 RMK AO2
53843K79J 79J20160115123009901/15/16 12:30:31  5-MIN K79J 151730Z AUTO 30007KT 9SM OVC004 13/10 A2972 500 83 400 300/07 RMK AO2
53843K79J 79J20160115123509901/15/16 12:35:31  5-MIN K79J 151735Z AUTO 30006KT 8SM OVC004 13/10 A2971 510 83 400 300/06 RMK AO2
53843K79J 79J20160115124009901/15/16 12:40:31  5-MIN K79J 151740Z AUTO 28006KT 8SM OVC004 13/10 A2971 500 83 400 280/06 RMK AO2
53843K79J 79J20160115124509901/15/16 12:45:31  5-MIN K79J 151745Z AUTO 29006KT 8SM OVC004 13/10 A2972 500 83 400 290/06 RMK AO2
53843K79J 79J20160115125014001/15/16 12:50:31  5-MIN K79J 151750Z AUTO 31006KT 8SM OVC004 13/10 A2971 500 83 400 310/06 RMK AO2 SLP059 60005 T01280100 10128 20094 53025
53843K79J 79J20160115125514001/15/16 12:55:31  5-MIN K79J 151755Z AUTO 30006KT 8SM OVC004 13/10 A2971 510 83 400 300/06 RMK AO2 SLP058 60005 T01280100 10128 20094 53025
53843K79J 79J20160115130009901/15/16 13:00:31  5-MIN K79J 151800Z AUTO 30006KT 9SM OVC004 13/10 A2971 510 80 500 300/06 RMK AO2
53843K79J 79J20160115130509901/15/16 13:05:31  5-MIN K79J 151805Z AUTO 29004KT 9SM OVC004 13/10 A2970 510 80 500 290/04 RMK AO2
53843K79J 79J20160115131010001/15/16 13:10:31  5-MIN K79J 151810Z AUTO 29006KT 10SM OVC004 13/10 A2970 520 80 500 290/06 RMK AO2
53843K79J 79J20160115131510001/15/16 13:15:31  5-MIN K79J 151815Z AUTO 29005KT 10SM OVC004 13/10 A2970 520 80 500 290/05 RMK AO2
53843K79J 79J20160115132010001/15/16 13:20:31  5-MIN K79J 151820Z AUTO 28005KT 10SM OVC004 14/10 A2969 520 77 600 280/05 RMK AO2
53843K79J 79J20160115132510001/15/16 13:25:31  5-MIN K79J 151825Z AUTO 27006KT 10SM OVC006 14/10 A2969 520 77 600 270/06 RMK AO2
53843K79J 79J20160115133010001/15/16 13:30:31  5-MIN K79J 151830Z AUTO 27006KT 10SM OVC006 14/10 A2969 520 77 600 270/06 RMK AO2
53843K79J 79J20160115133511201/15/16 13:35:31  5-MIN K79J 151835Z AUTO 29005KT 10SM OVC006 14/11 A2969 520 80 600 290/05 RMK AO2 CIG 005V010
53843K79J 79J20160115134011201/15/16 13:40:31  5-MIN K79J 151840Z AUTO 25006KT 10SM OVC006 14/11 A2969 520 80 600 250/06 RMK AO2 CIG 005V010
53843K79J 79J20160115134511201/15/16 13:45:31  5-MIN K79J 151845Z AUTO 27006KT 10SM OVC006 14/11 A2969 530 77 600 280/06 RMK AO2 CIG 006V009
53843K79J 79J20160115135012901/15/16 13:50:31  5-MIN K79J 151850Z AUTO 25007KT 10SM OVC006 14/11 A2969 530 77 600 260/07 RMK AO2 CIG 006V011 SLP051 T01440106
53843K79J 79J20160115135512901/15/16 13:55:31  5-MIN K79J 151855Z AUTO 29008KT 10SM OVC008 14/11 A2969 530 77 600 290/08 RMK AO2 CIG 006V011 SLP051 T01440106
53843K79J 79J20160115140010001/15/16 14:00:31  5-MIN K79J 151900Z AUTO 28007KT 10SM OVC008 14/11 A2969 530 77 600 280/07 RMK AO2
53843K79J 79J20160115140510001/15/16 14:05:31  5-MIN K79J 151905Z AUTO 29008KT 10SM OVC008 14/11 A2969 530 77 600 290/08 RMK AO2
53843K79J 79J20160115141010001/15/16 14:10:31  5-MIN K79J 151910Z AUTO VRB05KT 10SM OVC008 14/11 A2968 530 77 600 VRB/05 RMK AO2
53843K79J 79J20160115141510001/15/16 14:15:31  5-MIN K79J 151915Z AUTO 27004KT 10SM OVC008 14/11 A2968 540 77 600 270/04 RMK AO2
53843K79J 79J20160115142010001/15/16 14:20:31  5-MIN K79J 151920Z AUTO 26008KT 10SM OVC008 14/11 A2968 540 77 600 260/08 RMK AO2
53843K79J 79J20160115142510001/15/16 14:25:31  5-MIN K79J 151925Z AUTO 26007KT 10SM OVC008 14/11 A2968 540 77 600 260/07 RMK AO2
53843K79J 79J20160115143010001/15/16 14:30:31  5-MIN K79J 151930Z AUTO 26009KT 10SM OVC008 14/11 A2968 540 77 600 260/09 RMK AO2
53843K79J 79J20160115143510001/15/16 14:35:31  5-MIN K79J 151935Z AUTO 27006KT 10SM OVC008 14/11 A2967 540 77 600 270/06 RMK AO2
53843K79J 79J20160115144010001/15/16 14:40:31  5-MIN K79J 151940Z AUTO 27005KT 10SM OVC008 14/11 A2968 540 77 600 280/05 RMK AO2
53843K79J 79J20160115144510001/15/16 14:45:31  5-MIN K79J 151945Z AUTO 30005KT 10SM OVC008 14/11 A2968 540 77 600 300/05 RMK AO2
53843K79J 79J20160115145011701/15/16 14:50:31  5-MIN K79J 151950Z AUTO 29007KT 10SM OVC008 14/11 A2968 540 77 600 290/07 RMK AO2 SLP047 T01440106
53843K79J 79J20160115145511701/15/16 14:55:31  5-MIN K79J 151955Z AUTO 30005KT 10SM OVC008 14/11 A2968 540 77 600 300/05 RMK AO2 SLP048 T01440106
53843K79J 79J20160115150009901/15/16 15:00:31  5-MIN K79J 152000Z AUTO 29005KT 9SM OVC008 14/11 A2968 540 77 600 290/05 RMK AO2
53843K79J 79J20160115150509901/15/16 15:05:31  5-MIN K79J 152005Z AUTO 28005KT 9SM OVC008 14/11 A2968 540 77 600 290/05 RMK AO2
53843K79J 79J20160115151009901/15/16 15:10:31  5-MIN K79J 152010Z AUTO 28008KT 9SM OVC008 14/11 A2968 540 77 600 280/08 RMK AO2
53843K79J 79J20160115151511101/15/16 15:15:31  5-MIN K79J 152015Z AUTO 26006KT 8SM OVC008 14/11 A2968 540 77 600 260/06 RMK AO2 CIG 008V012
53843K79J 79J20160115152011101/15/16 15:20:31  5-MIN K79J 152020Z AUTO 28007KT 7SM OVC008 14/11 A2968 530 80 600 280/07 RMK AO2 CIG 008V012
53843K79J 79J20160115152511101/15/16 15:25:31  5-MIN K79J 152025Z AUTO 27006KT 7SM OVC008 14/11 A2968 530 80 600 270/06 RMK AO2 CIG 007V012
53843K79J 79J20160115153011101/15/16 15:30:31  5-MIN K79J 152030Z AUTO 27004KT 7SM OVC008 14/11 A2968 530 80 600 280/04 RMK AO2 CIG 007V012
53843K79J 79J20160115153511101/15/16 15:35:31  5-MIN K79J 152035Z AUTO 28004KT 7SM OVC008 14/11 A2968 530 80 600 280/04 RMK AO2 CIG 007V012
53843K79J 79J20160115154011101/15/16 15:40:31  5-MIN K79J 152040Z AUTO 28005KT 8SM OVC008 14/11 A2968 530 80 600 280/05 RMK AO2 CIG 007V012
53843K79J 79J20160115154509901/15/16 15:45:31  5-MIN K79J 152045Z AUTO VRB06KT 8SM OVC008 15/11 A2968 530 77 700 VRB/06 RMK AO2
53843K79J 79J20160115155012201/15/16 15:50:31  5-MIN K79J 152050Z AUTO 29006KT 8SM OVC008 15/11 A2969 530 77 700 290/06 RMK AO2 SLP050 T01500111 50004
53843K79J 79J20160115155512201/15/16 15:55:31  5-MIN K79J 152055Z AUTO 28006KT 7SM OVC008 15/11 A2969 530 77 700 280/06 RMK AO2 SLP051 T01500111 50004
53843K79J 79J20160115160009901/15/16 16:00:31  5-MIN K79J 152100Z AUTO 28007KT 8SM OVC008 15/11 A2969 530 77 700 280/07 RMK AO2
53843K79J 79J20160115160509901/15/16 16:05:31  5-MIN K79J 152105Z AUTO 27006KT 8SM OVC008 15/11 A2969 530 77 700 270/06 RMK AO2
53843K79J 79J20160115161009901/15/16 16:10:31  5-MIN K79J 152110Z AUTO 27003KT 8SM OVC010 15/11 A2969 530 77 700 270/03 RMK AO2
53843K79J 79J20160115161509901/15/16 16:15:31  5-MIN K79J 152115Z AUTO 28004KT 8SM OVC010 15/11 A2969 530 77 700 290/04 RMK AO2
53843K79J 79J20160115162009901/15/16 16:20:31  5-MIN K79J 152120Z AUTO 27005KT 9SM OVC010 15/11 A2969 530 77 700 270/05 RMK AO2
53843K79J 79J20160115162509901/15/16 16:25:31  5-MIN K79J 152125Z AUTO 29007KT 9SM OVC010 15/11 A2969 530 77 700 290/07 RMK AO2
53843K79J 79J20160115163010001/15/16 16:30:31  5-MIN K79J 152130Z AUTO 28004KT 10SM OVC010 15/11 A2969 530 77 700 280/04 RMK AO2
53843K79J 79J20160115163510001/15/16 16:35:31  5-MIN K79J 152135Z AUTO 26003KT 10SM OVC010 15/11 A2969 530 77 700 270/03 RMK AO2
53843K79J 79J20160115164010001/15/16 16:40:31  5-MIN K79J 152140Z AUTO 29004KT 10SM OVC010 15/11 A2969 520 77 700 290/04 RMK AO2
53843K79J 79J20160115164510001/15/16 16:45:31  5-MIN K79J 152145Z AUTO 28004KT 10SM OVC010 15/11 A2969 520 77 700 280/04 RMK AO2
53843K79J 79J20160115165011701/15/16 16:50:31  5-MIN K79J 152150Z AUTO 30004KT 10SM OVC010 15/11 A2970 520 77 700 300/04 RMK AO2 SLP054 T01500111
53843K79J 79J20160115165511601/15/16 16:55:31  5-MIN K79J 152155Z AUTO 29003KT 9SM OVC012 15/11 A2970 520 77 700 300/03 RMK AO2 SLP054 T01500111
53843K79J 79J20160115170009901/15/16 17:00:31  5-MIN K79J 152200Z AUTO 29006KT 9SM OVC012 15/11 A2970 520 77 700 290/06 RMK AO2
53843K79J 79J20160115170509901/15/16 17:05:31  5-MIN K79J 152205Z AUTO 00000KT 9SM OVC012 15/11 A2970 520 77 700 000/00 RMK AO2
53843K79J 79J20160115171009901/15/16 17:10:31  5-MIN K79J 152210Z AUTO 30003KT 9SM OVC012 15/11 A2970 520 77 700 300/03 RMK AO2
53843K79J 79J20160115171510601/15/16 17:15:31  5-MIN K79J 152215Z AUTO 28004KT 9SM BKN012 OVC019 15/11 A2971 510 77 700 290/04 RMK AO2
53843K79J 79J20160115172010601/15/16 17:20:31  5-MIN K79J 152220Z AUTO 28004KT 9SM BKN015 OVC019 15/11 A2971 510 77 700 280/04 RMK AO2
53843K79J 79J20160115172509901/15/16 17:25:31  5-MIN K79J 152225Z AUTO 00000KT 9SM OVC015 15/11 A2971 510 77 700 000/00 RMK AO2
53843K79J 79J20160115173009901/15/16 17:30:31  5-MIN K79J 152230Z AUTO 30004KT 9SM OVC015 15/11 A2971 510 77 700 310/04 RMK AO2
53843K79J 79J20160115173509901/15/16 17:35:31  5-MIN K79J 152235Z AUTO 29003KT 9SM OVC017 15/11 A2971 510 77 700 290/03 RMK AO2
53843K79J 79J20160115174009901/15/16 17:40:31  5-MIN K79J 152240Z AUTO 31004KT 9SM OVC019 15/11 A2971 510 77 700 310/04 RMK AO2
53843K79J 79J20160115174509901/15/16 17:45:31  5-MIN K79J 152245Z AUTO 32004KT 9SM OVC019 15/11 A2971 500 77 700 320/04 RMK AO2
53843K79J 79J20160115175011701/15/16 17:50:31  5-MIN K79J 152250Z AUTO 31003KT 10SM OVC019 15/11 A2972 500 77 700 310/03 RMK AO2 SLP060 T01500111
53843K79J 79J20160115175511701/15/16 17:55:31  5-MIN K79J 152255Z AUTO 30003KT 10SM OVC019 15/11 A2972 500 77 700 300/03 RMK AO2 SLP062 T01500111
53843K79J 79J20160115180010001/15/16 18:00:31  5-MIN K79J 152300Z AUTO 30003KT 10SM OVC019 15/11 A2972 500 77 700 300/03 RMK AO2
53843K79J 79J20160115180510001/15/16 18:05:31  5-MIN K79J 152305Z AUTO 31003KT 10SM OVC019 15/11 A2972 500 77 700 310/03 RMK AO2
53843K79J 79J20160115181010701/15/16 18:10:31  5-MIN K79J 152310Z AUTO 00000KT 10SM BKN021 OVC026 15/11 A2972 490 77 700 000/00 RMK AO2
53843K79J 79J20160115181510001/15/16 18:15:31  5-MIN K79J 152315Z AUTO 00000KT 10SM OVC023 15/11 A2972 490 77 600 000/00 RMK AO2
53843K79J 79J20160115182010001/15/16 18:20:31  5-MIN K79J 152320Z AUTO 00000KT 10SM OVC023 15/11 A2973 490 77 600 000/00 RMK AO2
53843K79J 79J20160115182510001/15/16 18:25:31  5-MIN K79J 152325Z AUTO 00000KT 10SM OVC023 15/11 A2973 490 77 600 000/00 RMK AO2
53843K79J 79J20160115183009901/15/16 18:30:31  5-MIN K79J 152330Z AUTO 00000KT 9SM OVC025 14/12 A2973 490 83 600 000/00 RMK AO2
53843K79J 79J20160115183509901/15/16 18:35:31  5-MIN K79J 152335Z AUTO 00000KT 9SM OVC025 14/12 A2973 490 83 600 000/00 RMK AO2
53843K79J 79J20160115184009901/15/16 18:40:31  5-MIN K79J 152340Z AUTO 00000KT 8SM OVC025 14/11 A2973 490 83 500 000/00 RMK AO2
53843K79J 79J20160115184509901/15/16 18:45:31  5-MIN K79J 152345Z AUTO 00000KT 7SM BKN025 14/11 A2973 490 83 500 000/00 RMK AO2
53843K79J 79J20160115185013401/15/16 18:50:31  5-MIN K79J 152350Z AUTO 00000KT 7SM BKN025 14/11 A2973 490 83 500 000/00 RMK AO2 SLP066 T01390111 10150 20128 55006
53843K79J 79J20160115185513401/15/16 18:55:31  5-MIN K79J 152355Z AUTO 00000KT 7SM SCT025 14/11 A2974 480 83 500 000/00 RMK AO2 SLP067 T01390111 10150 20128 55006
53843K79J 79J20160115190009901/15/16 19:00:31  5-MIN K79J 160000Z AUTO 00000KT 7SM FEW025 13/11 A2974 480 86 400 000/00 RMK AO2
53843K79J 79J20160115190509901/15/16 19:05:31  5-MIN K79J 160005Z AUTO 00000KT 7SM FEW025 13/11 A2974 480 86 400 000/00 RMK AO2
53843K79J 79J20160115191009901/15/16 19:10:31  5-MIN K79J 160010Z AUTO 00000KT 6SM HZ CLR 13/11 A2974 480 83 400 000/00 RMK AO2
53843K79J 79J20160115191509901/15/16 19:15:31  5-MIN K79J 160015Z AUTO 00000KT 5SM HZ CLR 13/11 A2974 480 83 400 000/00 RMK AO2
53843K79J 79J20160115192009901/15/16 19:20:31  5-MIN K79J 160020Z AUTO 00000KT 4SM BR CLR 13/11 A2974 480 86 400 000/00 RMK AO2
53843K79J 79J20160115192509901/15/16 19:25:31  5-MIN K79J 160025Z AUTO 00000KT 4SM BR CLR 13/11 A2975 470 86 400 000/00 RMK AO2
53843K79J 79J20160115193009901/15/16 19:30:31  5-MIN K79J 160030Z AUTO 00000KT 4SM HZ CLR 13/10 A2975 470 83 400 000/00 RMK AO2
53843K79J 79J20160115193509901/15/16 19:35:31  5-MIN K79J 160035Z AUTO 20003KT 4SM BR CLR 13/11 A2975 470 86 400 200/03 RMK AO2
53843K79J 79J20160115194009901/15/16 19:40:31  5-MIN K79J 160040Z AUTO 19003KT 4SM HZ CLR 13/10 A2975 470 83 400 190/03 RMK AO2
53843K79J 79J20160115194509901/15/16 19:45:31  5-MIN K79J 160045Z AUTO 19003KT 4SM BR CLR 12/10 A2975 470 86 300 190/03 RMK AO2
53843K79J 79J20160115195011601/15/16 19:50:31  5-MIN K79J 160050Z AUTO 19003KT 5SM BR CLR 13/11 A2975 470 86 400 190/03 RMK AO2 SLP072 T01280106
53843K79J 79J20160115195511601/15/16 19:55:31  5-MIN K79J 160055Z AUTO 19003KT 5SM BR CLR 13/11 A2975 470 86 400 190/03 RMK AO2 SLP073 T01280106
53843K79J 79J20160115200009901/15/16 20:00:31  5-MIN K79J 160100Z AUTO 00000KT 3SM BR CLR 13/11 A2975 470 86 400 000/00 RMK AO2
53843K79J 79J20160115200511101/15/16 20:05:31  5-MIN K79J 160105Z AUTO 00000KT 1 1/2SM BR CLR 12/10 A2976 470 86 300 000/00 RMK AO2 VIS 1V4
53843K79J 79J20160115201010301/15/16 20:10:31  5-MIN K79J 160110Z AUTO 00000KT 1 1/2SM BR CLR 12/09 A2975 470 86 200 000/00 RMK AO2
53843K79J 79J20160115201510301/15/16 20:15:31  5-MIN K79J 160115Z AUTO 00000KT 1 1/4SM HZ CLR 12/09 A2976 470 83 200 000/00 RMK AO2
53843K79J 79J20160115202010101/15/16 20:20:31  5-MIN K79J 160120Z AUTO 00000KT 1/2SM FG CLR 11/09 A2976 460 86 100 000/00 RMK AO2
53843K79J 79J20160115202510101/15/16 20:25:31  5-MIN K79J 160125Z AUTO 00000KT 3/4SM BR CLR 11/09 A2976 460 86 100 000/00 RMK AO2
53843K79J 79J20160115203010301/15/16 20:30:31  5-MIN K79J 160130Z AUTO 00000KT 1 3/4SM BR CLR 11/09 A2976 460 86 100 000/00 RMK AO2
53843K79J 79J20160115203510301/15/16 20:35:31  5-MIN K79J 160135Z AUTO 00000KT 2 1/2SM BR CLR 11/09 A2976 460 86 100 000/00 RMK AO2
53843K79J 79J20160115204009901/15/16 20:40:31  5-MIN K79J 160140Z AUTO 00000KT 2SM BR CLR 11/09 A2976 460 86 100 000/00 RMK AO2
53843K79J 79J20160115204510201/15/16 20:45:31  5-MIN K79J 160145Z AUTO 18003KT 2SM BR FEW038 11/09 A2976 460 86 100 180/03 RMK AO2
53843K79J 79J20160115205011601/15/16 20:50:31  5-MIN K79J 160150Z AUTO 17003KT 1 1/2SM BR FEW038 11/08 A2976 460 86 100 180/03 RMK AO2 VIS 3/4V4
53843K79J 79J20160115205512001/15/16 20:55:31  5-MIN K79J 160155Z AUTO 00000KT 1 1/4SM BR CLR 11/08 A2977 460 86 100 000/00 RMK AO2 SLP078 T01060083
53843K79J 79J20160115210010301/15/16 21:00:31  5-MIN K79J 160200Z AUTO 00000KT 1 1/2SM BR CLR 11/08 A2977 450 86 100 000/00 RMK AO2
53843K79J 79J20160115210509901/15/16 21:05:31  5-MIN K79J 160205Z AUTO 00000KT 1SM BR CLR 11/08 A2977 450 86 100 000/00 RMK AO2
53843K79J 79J20160115211010101/15/16 21:10:31  5-MIN K79J 160210Z AUTO 00000KT 3/4SM BR CLR 11/08 A2977 450 86 100 000/00 RMK AO2
53843K79J 79J20160115211509901/15/16 21:15:31  5-MIN K79J 160215Z AUTO 19003KT 1SM BR CLR 11/08 A2977 450 86 100 190/03 RMK AO2
53843K79J 79J20160115212009901/15/16 21:20:31  5-MIN K79J 160220Z AUTO 20003KT 2SM BR CLR 11/08 A2977 450 86 100 200/03 RMK AO2
53843K79J 79J20160115212509901/15/16 21:25:31  5-MIN K79J 160225Z AUTO 20003KT 3SM BR CLR 11/09 A2977 450 86 100 200/03 RMK AO2
53843K79J 79J20160115213009901/15/16 21:30:31  5-MIN K79J 160230Z AUTO 00000KT 4SM BR CLR 11/09 A2977 450 86 100 000/00 RMK AO2
53843K79J 79J20160115213510201/15/16 21:35:31  5-MIN K79J 160235Z AUTO 00000KT 4SM HZ FEW048 12/09 A2977 450 83 200 000/00 RMK AO2
53843K79J 79J20160115214010201/15/16 21:40:31  5-MIN K79J 160240Z AUTO 00000KT 2SM BR FEW046 11/08 A2977 450 86 100 000/00 RMK AO2
53843K79J 79J20160115214511301/15/16 21:45:31  5-MIN K79J 160245Z AUTO 00000KT 1 1/4SM BR SCT002 SCT046 11/08 A2977 450 86 100 000/00 RMK AO2
53843K79J 79J20160115215010701/15/16 21:50:31  5-MIN K79J 160250Z AUTO 00000KT 1SM BR SCT002 SCT046 10/08 A2977 450 86 0 000/00 RMK AO2
53843K79J 79J20160115215513401/15/16 21:55:31  5-MIN K79J 160255Z AUTO 00000KT 1 1/4SM BR FEW002 SCT046 10/08 A2977 450 86 0 000/00 RMK AO2 SLP080 T01000078 51007
53843K79J 79J20160115220011101/15/16 22:00:31  5-MIN K79J 160300Z AUTO 00000KT 1 3/4SM BR FEW002 SCT046 10/08 A2977 450 89 0 000/00 RMK AO2
53843K79J 79J20160115220510601/15/16 22:05:31  5-MIN K79J 160305Z AUTO 00000KT 2 1/2SM BR FEW002 11/08 A2977 450 86 100 000/00 RMK AO2
53843K79J 79J20160115221010001/15/16 22:10:31  5-MIN K79J 160310Z AUTO 00000KT 3SM BR FEW002 10/08 A2977 450 86 0 000/00 RMK AO2
53843K79J 79J20160115221511101/15/16 22:15:31  5-MIN K79J 160315Z AUTO 00000KT 1 1/4SM BR CLR 10/08 A2977 450 86 0 000/00 RMK AO2 VIS 3/4V3
53843K79J 79J20160115222009901/15/16 22:20:31  5-MIN K79J 160320Z AUTO 00000KT 1SM BR VV002 10/08 A2978 450 86 0 000/00 RMK AO2
53843K79J 79J20160115222510101/15/16 22:25:31  5-MIN K79J 160325Z AUTO 00000KT 3/4SM BR VV002 10/08 A2978 440 86 0 000/00 RMK AO2
53843K79J 79J20160115223011101/15/16 22:30:31  5-MIN K79J 160330Z AUTO 00000KT 1/2SM FG FEW002 SCT037 11/08 A2978 440 86 100 000/00 RMK AO2
53843K79J 79J20160115223510401/15/16 22:35:31  5-MIN K79J 160335Z AUTO 00000KT 3/4SM BR SCT039 11/08 A2978 440 86 100 000/00 RMK AO2
53843K79J 79J20160115224010601/15/16 22:40:31  5-MIN K79J 160340Z AUTO 00000KT 1 1/4SM BR SCT041 11/08 A2978 440 86 100 000/00 RMK AO2
53843K79J 79J20160115224511101/15/16 22:45:31  5-MIN K79J 160345Z AUTO 00000KT 3/4SM BR SCT039 SCT046 11/08 A2978 450 86 100 000/00 RMK AO2
53843K79J 79J20160115225011901/15/16 22:50:31  5-MIN K79J 160350Z AUTO 00000KT 1/2SM FG FEW039 10/08 A2977 450 86 0 000/00 RMK AO2 SLP081 T01000078
53843K79J 79J20160115225511901/15/16 22:55:31  5-MIN K79J 160355Z AUTO 00000KT 3/4SM HZ SCT041 10/07 A2977 450 83 0 000/00 RMK AO2 SLP080 T01000072
53843K79J 79J20160115230011201/15/16 23:00:31  5-MIN K79J 160400Z AUTO 00000KT 1 3/4SM BR FEW041 10/08 A2978 440 86 0 000/00 RMK AO2 VIS 1V3
53843K79J 79J20160115230510401/15/16 23:05:31  5-MIN K79J 160405Z AUTO 00000KT 2 1/2SM BR FEW045 10/08 A2978 440 86 0 000/00 RMK AO2
53843K79J 79J20160115231009701/15/16 23:10:31  5-MIN K79J 160410Z AUTO 00000KT 4SM BR CLR 10/08 A2978 440 86 0 000/00 RMK AO2
53843K79J 79J20160115231509701/15/16 23:15:31  5-MIN K79J 160415Z AUTO 00000KT 3SM BR CLR 10/08 A2978 440 86 0 000/00 RMK AO2
53843K79J 79J20160115232009701/15/16 23:20:31  5-MIN K79J 160420Z AUTO 00000KT 3SM BR CLR 10/08 A2978 440 86 0 000/00 RMK AO2
53843K79J 79J20160115232509701/15/16 23:25:31  5-MIN K79J 160425Z AUTO 00000KT 2SM HZ CLR 10/07 A2978 440 83 0 000/00 RMK AO2
53843K79J 79J20160115233009701/15/16 23:30:31  5-MIN K79J 160430Z AUTO 00000KT 1SM HZ CLR 10/07 A2978 440 83 0 000/00 RMK AO2
53843K79J 79J20160115233509901/15/16 23:35:31  5-MIN K79J 160435Z AUTO 00000KT 3/4SM HZ CLR 10/07 A2978 440 83 0 000/00 RMK AO2
53843K79J 79J20160115234010101/15/16 23:40:31  5-MIN K79J 160440Z AUTO 00000KT 3/4SM BR VV002 09/07 A2978 440 86 0 000/00 RMK AO2
53843K79J 79J20160115234510401/15/16 23:45:31  5-MIN K79J 160445Z AUTO 00000KT 1 3/4SM BR FEW002 09/07 A2978 440 86 0 000/00 RMK AO2
53843K79J 79J20160115235011001/15/16 23:50:31  5-MIN K79J 160450Z AUTO 00000KT 6SM BR FEW002 09/07 A2978 440 86 0 000/00 RMK AO2 401500094
53843K79J 79J20160115235512701/15/16 23:55:31  5-MIN K79J 160455Z AUTO 00000KT 6SM BR FEW002 09/07 A2978 450 86 0 000/00 RMK AO2 SLP082 T00940072 401500094
53843K79J 79J20160116000010001/16/16 00:00:31  5-MIN K79J 160500Z AUTO 00000KT 5SM BR FEW002 09/07 A2978 440 86 0 000/00 RMK AO2
53843K79J 79J20160116000509901/16/16 00:05:31  5-MIN K79J 160505Z AUTO 00000KT 1SM BR VV002 09/07 A2978 450 86 0 000/00 RMK AO2
53843K79J 79J20160116001010101/16/16 00:10:31  5-MIN K79J 160510Z AUTO 00000KT 1/2SM FG VV001 09/07 A2978 450 86 0 000/00 RMK AO2
53843K79J 79J20160116001510401/16/16 00:15:31  5-MIN K79J 160515Z AUTO 00000KT 1/4SM FG VV001 09/07 A2978 440 86 -100 000/00 RMK AO2
53843K79J 79J20160116002010401/16/16 00:20:31  5-MIN K79J 160520Z AUTO 00000KT 1/4SM FG VV001 09/07 A2978 440 86 -100 000/00 RMK AO2
53843K79J 79J20160116002510101/16/16 00:25:31  5-MIN K79J 160525Z AUTO 00000KT 1/4SM FG VV001 09/07 A2978 440 86 0 000/00 RMK AO2
53843K79J 79J20160116003010101/16/16 00:30:31  5-MIN K79J 160530Z AUTO 00000KT 1/4SM FG VV001 09/07 A2978 450 86 0 000/00 RMK AO2
53843K79J 79J20160116003510401/16/16 00:35:31  5-MIN K79J 160535Z AUTO 00000KT 1/4SM FG VV001 09/07 A2978 450 89 -100 000/00 RMK AO2
53843K79J 79J20160116004010401/16/16 00:40:31  5-MIN K79J 160540Z AUTO 00000KT 1/4SM FG VV001 09/07 A2978 440 86 -100 000/00 RMK AO2
53843K79J 79J20160116004510401/16/16 00:45:31  5-MIN K79J 160545Z AUTO 00000KT 1/4SM HZ VV001 09/06 A2978 440 83 -100 000/00 RMK AO2
53843K79J 79J20160116005013901/16/16 00:50:31  5-MIN K79J 160550Z AUTO 00000KT 1/4SM FG VV001 08/06 A2978 450 86 -200 000/00 RMK AO2 SLP082 T00830061 10139 20083 51003
53843K79J 79J20160116005513901/16/16 00:55:31  5-MIN K79J 160555Z AUTO 00000KT 1/2SM FG VV001 08/06 A2978 450 86 -200 000/00 RMK AO2 SLP081 T00830061 10139 20083 51003
53843K79J 79J20160116010010401/16/16 01:00:31  5-MIN K79J 160600Z AUTO 00000KT 3/4SM BR VV001 09/07 A2977 450 86 -100 000/00 RMK AO2
53843K79J 79J20160116010510401/16/16 01:05:31  5-MIN K79J 160605Z AUTO 00000KT 1/2SM FG VV001 09/07 A2977 450 86 -100 000/00 RMK AO2
53843K79J 79J20160116011010401/16/16 01:10:31  5-MIN K79J 160610Z AUTO 00000KT 1/2SM FG VV001 09/07 A2977 450 86 -100 000/00 RMK AO2
53843K79J 79J20160116011511001/16/16 01:15:31  5-MIN K79J 160615Z AUTO 00000KT 1/4SM FG VV001 08/07 A2977 450 89 -100 000/00 RMK AO2 P0001
53843K79J 79J20160116012011001/16/16 01:20:31  5-MIN K79J 160620Z AUTO 00000KT 1/4SM FG VV001 08/06 A2976 460 86 -100 000/00 RMK AO2 P0001
53843K79J 79J20160116012512001/16/16 01:25:31  5-MIN K79J 160625Z AUTO 00000KT 1/4SM -RA FG VV001 08/06 A2977 450 86 -100 000/00 RMK AO2 RAB24 P0001
53843K79J 79J20160116013012001/16/16 01:30:31  5-MIN K79J 160630Z AUTO 00000KT 1/4SM -RA FG VV001 08/06 A2977 450 86 -100 000/00 RMK AO2 RAB24 P0001
53843K79J 79J20160116013512001/16/16 01:35:31  5-MIN K79J 160635Z AUTO 00000KT 1/4SM -RA FG VV001 08/06 A2976 460 86 -100 000/00 RMK AO2 RAB24 P0001
53843K79J 79J20160116014012001/16/16 01:40:31  5-MIN K79J 160640Z AUTO 00000KT 1/4SM -RA FG VV001 08/06 A2976 460 86 -100 000/00 RMK AO2 RAB24 P0001
53843K79J 79J20160116014512001/16/16 01:45:31  5-MIN K79J 160645Z AUTO 00000KT 1/4SM -RA FG VV002 08/06 A2977 460 86 -100 000/00 RMK AO2 RAB24 P0001
53843K79J 79J20160116052011901/16/16 05:20:31  5-MIN K79J 161020Z AUTO 00000KT 1/4SM -RA FG VV001 12/11 A2979 430 89 200 000/00 RMK AO2 RAB02 P0000
53843K79J 79J20160116052511901/16/16 05:25:31  5-MIN K79J 161025Z AUTO 00000KT 1/4SM -RA FG VV001 12/11 A2979 430 89 200 000/00 RMK AO2 RAB02 P0000
53843K79J 79J20160116053011901/16/16 05:30:31  5-MIN K79J 161030Z AUTO 00000KT 1/4SM -RA FG VV001 12/11 A2979 430 89 200 000/00 RMK AO2 RAB02 P0000
53843K79J 79J20160116053511901/16/16 05:35:31  5-MIN K79J 161035Z AUTO 00000KT 1/4SM -RA FG VV001 12/11 A2980 430 89 200 000/00 RMK AO2 RAB02 P0000
53843K79J 79J20160116054011901/16/16 05:40:31  5-MIN K79J 161040Z AUTO 00000KT 1/4SM -RA FG VV001 12/11 A2980 430 89 200 000/00 RMK AO2 RAB02 P0000
53843K79J 79J20160116054511901/16/16 05:45:31  5-MIN K79J 161045Z AUTO 00000KT 1/4SM -RA FG VV001 12/10 A2980 420 89 200 000/00 RMK AO2 RAB02 P0000
53843K79J 79J20160116055013601/16/16 05:50:31  5-MIN K79J 161050Z AUTO 00000KT 1/4SM -RA FG VV001 12/10 A2980 420 89 200 000/00 RMK AO2 RAB02 SLP089 P0000 T01170100
53843K79J 79J20160116055513601/16/16 05:55:31  5-MIN K79J 161055Z AUTO 00000KT 1/4SM -RA FG VV001 12/10 A2980 420 89 200 000/00 RMK AO2 RAB02 SLP090 P0000 T01170100
53843K79J 79J20160116060011301/16/16 06:00:31  5-MIN K79J 161100Z AUTO 00000KT 1/4SM -RA FG VV001 12/10 A2980 420 89 200 000/00 RMK AO2 P0000
53843K79J 79J20160116060511301/16/16 06:05:31  5-MIN K79J 161105Z AUTO 00000KT 1/4SM -RA FG VV001 12/10 A2980 420 89 200 000/00 RMK AO2 P0000
53843K79J 79J20160116061011301/16/16 06:10:31  5-MIN K79J 161110Z AUTO 00000KT 1/4SM -RA FG VV001 12/09 A2980 420 86 200 000/00 RMK AO2 P0000
53843K79J 79J20160116061511301/16/16 06:15:31  5-MIN K79J 161115Z AUTO 00000KT 1/4SM -RA FG VV002 12/09 A2981 420 86 200 000/00 RMK AO2 P0000
53843K79J 79J20160116062011501/16/16 06:20:31  5-MIN K79J 161120Z AUTO 00000KT 1/4SM FG VV002 11/09 A2981 420 89 100 000/00 RMK AO2 RAE20 P0000
53843K79J 79J20160116062511301/16/16 06:25:31  5-MIN K79J 161125Z AUTO 00000KT 1/4SM -RA FG VV002 11/09 A2981 410 89 100 000/00 RMK AO2 P0000
53843K79J 79J20160116063011301/16/16 06:30:31  5-MIN K79J 161130Z AUTO 00000KT 1/4SM -RA FG VV002 11/09 A2981 410 89 100 000/00 RMK AO2 P0000
53843K79J 79J20160116063511301/16/16 06:35:31  5-MIN K79J 161135Z AUTO 00000KT 1/4SM -RA FG VV002 11/09 A2981 410 89 100 000/00 RMK AO2 P0000
53843K79J 79J20160116064011301/16/16 06:40:31  5-MIN K79J 161140Z AUTO 00000KT 1/4SM -RA FG VV002 11/09 A2982 400 89 100 000/00 RMK AO2 P0000
53843K79J 79J20160116064511301/16/16 06:45:31  5-MIN K79J 161145Z AUTO 00000KT 1/4SM -RA FG VV001 11/09 A2982 400 89 100 000/00 RMK AO2 P0000
53843K79J 79J20160116065016001/16/16 06:50:31  5-MIN K79J 161150Z AUTO 00000KT 1/4SM -RA FG VV001 11/09 A2983 400 86 100 000/00 RMK AO2 SLP097 P0000 60002 70007 T01110089 10122 20083 53003
53843K79J 79J20160116065516001/16/16 06:55:31  5-MIN K79J 161155Z AUTO 00000KT 1/4SM -RA FG VV001 11/09 A2983 400 86 100 000/00 RMK AO2 SLP099 P0000 60002 70007 T01110089 10122 20083 53003
53843K79J 79J20160116070011301/16/16 07:00:31  5-MIN K79J 161200Z AUTO 34007KT 1/4SM -RA FG VV001 11/09 A2984 390 86 100 340/07 RMK AO2 P0000
53843K79J 79J20160116070511301/16/16 07:05:31  5-MIN K79J 161205Z AUTO 33003KT 1/4SM -RA FG VV002 11/09 A2984 390 86 100 330/03 RMK AO2 P0000
53843K79J 79J20160116071011501/16/16 07:10:31  5-MIN K79J 161210Z AUTO 32004KT 1/4SM FG VV001 11/09 A2984 390 86 100 320/04 RMK AO2 RAE08 P0000
53843K79J 79J20160116071511301/16/16 07:15:31  5-MIN K79J 161215Z AUTO 30003KT 1/4SM FG VV001 11/09 A2984 380 86 0 310/03 RMK AO2 RAE08 P0000
53843K79J 79J20160116072011101/16/16 07:20:31  5-MIN K79J 161220Z AUTO 30003KT 1/4SM -RA FG VV001 11/09 A2985 380 86 0 310/03 RMK AO2 P0000
53843K79J 79J20160116072511101/16/16 07:25:31  5-MIN K79J 161225Z AUTO 00000KT 1/4SM -RA FG VV002 11/09 A2985 380 89 0 000/00 RMK AO2 P0000
53843K79J 79J20160116073011101/16/16 07:30:31  5-MIN K79J 161230Z AUTO 00000KT 1/4SM -RA FG VV001 11/09 A2985 380 89 0 000/00 RMK AO2 P0000
53843K79J 79J20160116073511101/16/16 07:35:31  5-MIN K79J 161235Z AUTO 31003KT 1/4SM -RA FG VV001 11/09 A2985 380 89 0 310/03 RMK AO2 P0000
53843K79J 79J20160116074011101/16/16 07:40:31  5-MIN K79J 161240Z AUTO 32003KT 1/4SM -RA FG VV001 11/09 A2986 370 89 0 320/03 RMK AO2 P0000
53843K79J 79J20160116074511201/16/16 07:45:31  5-MIN K79J 161245Z AUTO 29003KT M1/4SM -RA FG VV001 11/09 A2986 370 89 0 290/03 RMK AO2 P0000
53843K79J 79J20160116075012901/16/16 07:50:31  5-MIN K79J 161250Z AUTO 29003KT M1/4SM -RA FG VV001 11/09 A2986 370 89 0 290/03 RMK AO2 SLP110 P0000 T01060089
53843K79J 79J20160116075512901/16/16 07:55:31  5-MIN K79J 161255Z AUTO 32003KT M1/4SM -RA FG VV001 11/09 A2986 370 89 0 320/03 RMK AO2 SLP110 P0000 T01060089
53843K79J 79J20160116080011601/16/16 08:00:31  5-MIN K79J 161300Z AUTO 31003KT M1/4SM FG VV001 11/09 A2986 360 89 0 310/03 RMK AO2 RAE1259 P0000
53843K79J 79J20160116080511601/16/16 08:05:31  5-MIN K79J 161305Z AUTO 00000KT M1/4SM FG VV001 11/09 A2986 370 89 0 000/00 RMK AO2 RAE1259 P0000
53843K79J 79J20160116081011201/16/16 08:10:31  5-MIN K79J 161310Z AUTO 00000KT M1/4SM -RA FG VV001 11/09 A2986 360 89 0 000/00 RMK AO2 P0000
53843K79J 79J20160116081511201/16/16 08:15:31  5-MIN K79J 161315Z AUTO 00000KT M1/4SM -RA FG VV001 11/09 A2986 370 89 0 000/00 RMK AO2 P0000
53843K79J 79J20160116082011401/16/16 08:20:31  5-MIN K79J 161320Z AUTO 00000KT M1/4SM FG VV001 11/09 A2986 370 89 0 000/00 RMK AO2 RAE19 P0000
53843K79J 79J20160116082511401/16/16 08:25:31  5-MIN K79J 161325Z AUTO 33003KT M1/4SM FG VV001 11/09 A2986 360 89 0 330/03 RMK AO2 RAE19 P0000
53843K79J 79J20160116083011401/16/16 08:30:31  5-MIN K79J 161330Z AUTO 33004KT M1/4SM FG VV001 11/09 A2987 360 89 0 330/04 RMK AO2 RAE19 P0000
53843K79J 79J20160116083511401/16/16 08:35:31  5-MIN K79J 161335Z AUTO 34004KT M1/4SM FG VV001 11/09 A2987 360 89 0 350/04 RMK AO2 RAE19 P0000
53843K79J 79J20160116084011401/16/16 08:40:31  5-MIN K79J 161340Z AUTO 34003KT M1/4SM FG VV001 11/09 A2986 360 89 0 340/03 RMK AO2 RAE19 P0000
53843K79J 79J20160116084511401/16/16 08:45:31  5-MIN K79J 161345Z AUTO 33003KT M1/4SM FG VV002 11/09 A2987 360 89 0 330/03 RMK AO2 RAE19 P0000
53843K79J 79J20160116085013101/16/16 08:50:31  5-MIN K79J 161350Z AUTO 00000KT M1/4SM FG VV002 11/09 A2987 360 89 0 000/00 RMK AO2 RAE19 SLP113 P0000 T01060089
53843K79J 79J20160116085513101/16/16 08:55:31  5-MIN K79J 161355Z AUTO 35003KT M1/4SM FG VV002 11/09 A2987 360 89 0 350/03 RMK AO2 RAE19 SLP113 P0000 T01060089
53843K79J 79J20160116090010201/16/16 09:00:31  5-MIN K79J 161400Z AUTO 35003KT M1/4SM FG VV002 11/09 A2987 360 86 0 350/03 RMK AO2
53843K79J 79J20160116090510101/16/16 09:05:31  5-MIN K79J 161405Z AUTO 00000KT 1/4SM FG VV002 11/09 A2987 350 86 0 000/00 RMK AO2
53843K79J 79J20160116091010101/16/16 09:10:31  5-MIN K79J 161410Z AUTO 00000KT 1/4SM FG VV002 11/09 A2987 360 89 0 000/00 RMK AO2
53843K79J 79J20160116091510101/16/16 09:15:31  5-MIN K79J 161415Z AUTO 00000KT 1/4SM FG VV002 11/09 A2987 360 86 0 000/00 RMK AO2
53843K79J 79J20160116092010101/16/16 09:20:31  5-MIN K79J 161420Z AUTO 36004KT 1/4SM FG VV002 11/09 A2988 350 89 0 360/04 RMK AO2
53843K79J 79J20160116092510101/16/16 09:25:31  5-MIN K79J 161425Z AUTO 36003KT 1/4SM FG VV002 11/09 A2988 350 89 0 360/03 RMK AO2
53843K79J 79J20160116093010101/16/16 09:30:31  5-MIN K79J 161430Z AUTO 36003KT 1/4SM FG VV002 11/09 A2988 350 89 0 360/03 RMK AO2
53843K79J 79J20160116093510301/16/16 09:35:31  5-MIN K79J 161435Z AUTO 36005KT 1/2SM FG VV002 12/09 A2988 350 86 100 360/05 RMK AO2
53843K79J 79J20160116094010401/16/16 09:40:31  5-MIN K79J 161440Z AUTO 34004KT 1/2SM FG OVC002 12/09 A2988 350 86 100 340/04 RMK AO2
53843K79J 79J20160116094510401/16/16 09:45:31  5-MIN K79J 161445Z AUTO 01005KT 3/4SM BR OVC002 12/09 A2988 350 86 100 010/05 RMK AO2
53843K79J 79J20160116095013301/16/16 09:50:31  5-MIN K79J 161450Z AUTO 36005KT 3/4SM BR OVC002 12/09 A2989 340 86 100 360/05 RMK AO2 SLP119 60000 T01170094 53016
53843K79J 79J20160116095513101/16/16 09:55:31  5-MIN K79J 161455Z AUTO 36004KT 1SM BR OVC002 12/09 A2989 340 86 100 360/04 RMK AO2 SLP119 60000 T01170094 53016
53843K79J 79J20160116100010601/16/16 10:00:31  5-MIN K79J 161500Z AUTO VRB03KT 1 1/4SM BR OVC002 12/09 A2989 340 86 100 VRB/03 RMK AO2
53843K79J 79J20160116100510601/16/16 10:05:31  5-MIN K79J 161505Z AUTO 00000KT 1 1/4SM BR OVC002 12/09 A2989 340 86 100 000/00 RMK AO2
53843K79J 79J20160116101010601/16/16 10:10:31  5-MIN K79J 161510Z AUTO 00000KT 1 1/4SM BR OVC002 12/10 A2989 340 89 100 000/00 RMK AO2
53843K79J 79J20160116101510601/16/16 10:15:31  5-MIN K79J 161515Z AUTO 00000KT 1 1/4SM BR OVC002 12/10 A2989 340 86 100 000/00 RMK AO2
53843K79J 79J20160116102010601/16/16 10:20:31  5-MIN K79J 161520Z AUTO 00000KT 1 1/4SM HZ OVC002 12/09 A2989 340 83 100 000/00 RMK AO2
53843K79J 79J20160116102510601/16/16 10:25:31  5-MIN K79J 161525Z AUTO 00000KT 1 1/4SM BR OVC002 12/10 A2990 330 86 100 000/00 RMK AO2
53843K79J 79J20160116103010601/16/16 10:30:31  5-MIN K79J 161530Z AUTO 00000KT 1 3/4SM BR OVC002 12/10 A2990 330 86 100 000/00 RMK AO2
53843K79J 79J20160116103510201/16/16 10:35:31  5-MIN K79J 161535Z AUTO 32003KT 2SM BR OVC002 12/10 A2990 330 86 100 320/03 RMK AO2
53843K79J 79J20160116104010601/16/16 10:40:31  5-MIN K79J 161540Z AUTO 00000KT 2 1/2SM BR OVC002 12/10 A2990 330 86 100 000/00 RMK AO2
53843K79J 79J20160116104510601/16/16 10:45:31  5-MIN K79J 161545Z AUTO 00000KT 2 1/2SM HZ OVC002 13/10 A2990 330 83 200 000/00 RMK AO2
53843K79J 79J20160116105010201/16/16 10:50:31  5-MIN K79J 161550Z AUTO 00000KT 3SM BR OVC002 13/11 A2990 330 86 200 000/00 RMK AO2
53843K79J 79J20160116105511901/16/16 10:55:31  5-MIN K79J 161555Z AUTO 00000KT 3SM BR OVC002 13/11 A2990 330 86 200 000/00 RMK AO2 SLP123 T01280106
53843K79J 79J20160116110010201/16/16 11:00:31  5-MIN K79J 161600Z AUTO 00000KT 4SM BR OVC002 13/11 A2990 330 86 200 000/00 RMK AO2
53843K79J 79J20160116110510201/16/16 11:05:31  5-MIN K79J 161605Z AUTO 03003KT 5SM HZ OVC002 13/11 A2989 340 83 300 030/03 RMK AO2
53843K79J 79J20160116111010201/16/16 11:10:31  5-MIN K79J 161610Z AUTO 00000KT 6SM HZ OVC002 13/10 A2989 340 80 300 000/00 RMK AO2
53843K79J 79J20160116111509901/16/16 11:15:31  5-MIN K79J 161615Z AUTO 00000KT 7SM OVC002 14/11 A2989 340 80 300 000/00 RMK AO2
53843K79J 79J20160116112009901/16/16 11:20:31  5-MIN K79J 161620Z AUTO 00000KT 7SM OVC002 14/11 A2990 330 80 300 000/00 RMK AO2
53843K79J 79J20160116112509901/16/16 11:25:31  5-MIN K79J 161625Z AUTO 00000KT 7SM OVC004 14/11 A2989 340 80 300 000/00 RMK AO2
53843K79J 79J20160116113009901/16/16 11:30:31  5-MIN K79J 161630Z AUTO 00000KT 7SM OVC004 14/11 A2990 330 80 300 000/00 RMK AO2
53843K79J 79J20160116113509901/16/16 11:35:31  5-MIN K79J 161635Z AUTO 00000KT 8SM OVC004 14/11 A2990 330 77 400 000/00 RMK AO2
53843K79J 79J20160116114009901/16/16 11:40:31  5-MIN K79J 161640Z AUTO 00000KT 8SM OVC004 14/11 A2990 330 77 400 000/00 RMK AO2
53843K79J 79J20160116114509901/16/16 11:45:31  5-MIN K79J 161645Z AUTO 34003KT 8SM OVC004 14/11 A2990 330 77 400 340/03 RMK AO2
53843K79J 79J20160116115011601/16/16 11:50:31  5-MIN K79J 161650Z AUTO 00000KT 8SM OVC004 14/11 A2990 330 77 400 000/00 RMK AO2 SLP122 T01440106
53843K79J 79J20160116115511601/16/16 11:55:31  5-MIN K79J 161655Z AUTO 00000KT 8SM OVC004 14/11 A2990 330 77 400 000/00 RMK AO2 SLP122 T01440106
53843K79J 79J20160116120009901/16/16 12:00:31  5-MIN K79J 161700Z AUTO 30003KT 8SM OVC004 15/11 A2989 340 77 500 310/03 RMK AO2
53843K79J 79J20160116120509901/16/16 12:05:31  5-MIN K79J 161705Z AUTO 00000KT 7SM OVC004 14/11 A2989 340 77 400 000/00 RMK AO2
53843K79J 79J20160116121009901/16/16 12:10:31  5-MIN K79J 161710Z AUTO 34003KT 8SM OVC006 15/11 A2989 340 74 500 340/03 RMK AO2
53843K79J 79J20160116121509901/16/16 12:15:31  5-MIN K79J 161715Z AUTO 31003KT 9SM OVC006 15/11 A2989 340 74 500 310/03 RMK AO2
53843K79J 79J20160116122010001/16/16 12:20:31  5-MIN K79J 161720Z AUTO 02003KT 10SM OVC006 15/11 A2989 340 77 500 030/03 RMK AO2
53843K79J 79J20160116122510001/16/16 12:25:31  5-MIN K79J 161725Z AUTO 00000KT 10SM OVC006 16/11 A2989 340 74 500 000/00 RMK AO2
53843K79J 79J20160116123010001/16/16 12:30:31  5-MIN K79J 161730Z AUTO VRB03KT 10SM OVC006 16/11 A2989 340 74 500 VRB/03 RMK AO2
53843K79J 79J20160116123510001/16/16 12:35:31  5-MIN K79J 161735Z AUTO 00000KT 10SM OVC006 16/11 A2989 340 74 500 000/00 RMK AO2
53843K79J 79J20160116124010001/16/16 12:40:31  5-MIN K79J 161740Z AUTO VRB03KT 10SM OVC006 16/11 A2989 340 72 600 VRB/03 RMK AO2
53843K79J 79J20160116124510001/16/16 12:45:31  5-MIN K79J 161745Z AUTO 00000KT 10SM OVC006 16/11 A2988 350 72 600 000/00 RMK AO2
53843K79J 79J20160116125010001/16/16 12:50:31  5-MIN K79J 161750Z AUTO 01004KT 10SM OVC008 16/11 A2988 350 72 600 010/04 RMK AO2
53843K79J 79J20160116125514101/16/16 12:55:31  5-MIN K79J 161755Z AUTO VRB03KT 10SM OVC008 16/11 A2987 350 69 600 VRB/03 RMK AO2 SLP114 60000 T01610106 10167 20106 58008
53843K79J 79J20160116130010001/16/16 13:00:31  5-MIN K79J 161800Z AUTO 00000KT 10SM BKN008 17/11 A2987 360 69 700 000/00 RMK AO2
53843K79J 79J20160116130510001/16/16 13:05:31  5-MIN K79J 161805Z AUTO VRB03KT 10SM SCT008 17/11 A2987 360 69 700 VRB/03 RMK AO2
53843K79J 79J20160116131010001/16/16 13:10:31  5-MIN K79J 161810Z AUTO VRB03KT 10SM SCT008 17/11 A2987 360 67 700 VRB/03 RMK AO2
53843K79J 79J20160116131510001/16/16 13:15:31  5-MIN K79J 161815Z AUTO VRB04KT 10SM FEW008 17/11 A2986 370 67 800 VRB/04 RMK AO2
53843K79J 79J20160116132010001/16/16 13:20:31  5-MIN K79J 161820Z AUTO 33004KT 10SM FEW008 17/11 A2986 370 64 800 330/04 RMK AO2
53843K79J 79J20160116132509701/16/16 13:25:31  5-MIN K79J 161825Z AUTO 00000KT 10SM CLR 17/11 A2986 370 64 800 000/00 RMK AO2
53843K79J 79J20160116133009701/16/16 13:30:31  5-MIN K79J 161830Z AUTO 34005KT 10SM CLR 18/11 A2985 370 64 800 340/05 RMK AO2
53843K79J 79J20160116133509701/16/16 13:35:31  5-MIN K79J 161835Z AUTO VRB05KT 10SM CLR 18/11 A2985 370 64 800 VRB/05 RMK AO2
53843K79J 79J20160116134009701/16/16 13:40:31  5-MIN K79J 161840Z AUTO 32006KT 10SM CLR 18/11 A2985 380 64 800 320/06 RMK AO2
53843K79J 79J20160116134509701/16/16 13:45:31  5-MIN K79J 161845Z AUTO 34005KT 10SM CLR 18/11 A2985 370 62 800 340/05 RMK AO2
53843K79J 79J20160116135011401/16/16 13:50:31  5-MIN K79J 161850Z AUTO 01004KT 10SM CLR 18/11 A2985 380 64 800 010/04 RMK AO2 SLP106 T01780111
53843K79J 79J20160116135511401/16/16 13:55:31  5-MIN K79J 161855Z AUTO VRB04KT 10SM CLR 18/11 A2985 380 60 900 VRB/04 RMK AO2 SLP104 T01830106
53843K79J 79J20160116140009701/16/16 14:00:31  5-MIN K79J 161900Z AUTO 35005KT 10SM CLR 18/11 A2984 390 62 900 360/05 RMK AO2
53843K79J 79J20160116140509701/16/16 14:05:31  5-MIN K79J 161905Z AUTO 35005KT 10SM CLR 18/11 A2984 390 62 800 350/05 RMK AO2
53843K79J 79J20160116141009701/16/16 14:10:31  5-MIN K79J 161910Z AUTO 03006KT 10SM CLR 18/11 A2984 390 62 800 030/06 RMK AO2
53843K79J 79J20160116141509701/16/16 14:15:31  5-MIN K79J 161915Z AUTO 03003KT 10SM CLR 18/09 A2984 390 56 900 030/03 RMK AO2
53843K79J 79J20160116142009701/16/16 14:20:31  5-MIN K79J 161920Z AUTO 33004KT 10SM CLR 18/10 A2984 390 58 900 340/04 RMK AO2
53843K79J 79J20160116142509701/16/16 14:25:31  5-MIN K79J 161925Z AUTO VRB03KT 10SM CLR 18/10 A2984 390 58 900 VRB/03 RMK AO2
53843K79J 79J20160116143009701/16/16 14:30:31  5-MIN K79J 161930Z AUTO 34004KT 10SM CLR 18/10 A2983 390 58 900 340/04 RMK AO2
53843K79J 79J20160116143509801/16/16 14:35:31  5-MIN K79J 161935Z AUTO 02004KT 10SM CLR 19/11 A2983 390 58 1000 030/04 RMK AO2
53843K79J 79J20160116144009801/16/16 14:40:31  5-MIN K79J 161940Z AUTO 00000KT 10SM CLR 19/11 A2984 390 58 1000 000/00 RMK AO2
53843K79J 79J20160116162509801/16/16 16:25:31  5-MIN K79J 162125Z AUTO 36004KT 10SM CLR 19/08 A2984 390 46 1000 360/04 RMK AO2
53843K79J 79J20160116163009801/16/16 16:30:31  5-MIN K79J 162130Z AUTO 02004KT 10SM CLR 19/08 A2984 390 46 1000 020/04 RMK AO2
53843K79J 79J20160116163509801/16/16 16:35:31  5-MIN K79J 162135Z AUTO 02003KT 10SM CLR 19/08 A2984 390 48 1000 020/03 RMK AO2
53843K79J 79J20160116164009801/16/16 16:40:31  5-MIN K79J 162140Z AUTO 00000KT 10SM CLR 19/08 A2984 390 48 1000 000/00 RMK AO2
53843K79J 79J20160116164509801/16/16 16:45:31  5-MIN K79J 162145Z AUTO 36003KT 10SM CLR 19/08 A2984 390 48 1000 360/03 RMK AO2
53843K79J 79J20160116165011501/16/16 16:50:31  5-MIN K79J 162150Z AUTO 00000KT 10SM CLR 19/08 A2984 390 46 1000 000/00 RMK AO2 SLP101 T01940078
53843K79J 79J20160116165511501/16/16 16:55:31  5-MIN K79J 162155Z AUTO 01004KT 10SM CLR 19/08 A2984 390 46 1000 010/04 RMK AO2 SLP101 T01940078
53843K79J 79J20160116170009801/16/16 17:00:31  5-MIN K79J 162200Z AUTO 00000KT 10SM CLR 19/07 A2984 390 46 1000 000/00 RMK AO2
53843K79J 79J20160116170509801/16/16 17:05:31  5-MIN K79J 162205Z AUTO 00000KT 10SM CLR 19/08 A2983 390 48 1000 000/00 RMK AO2
53843K79J 79J20160116171009701/16/16 17:10:31  5-MIN K79J 162210Z AUTO 00000KT 10SM CLR 18/08 A2983 400 50 900 000/00 RMK AO2
53843K79J 79J20160116171509701/16/16 17:15:31  5-MIN K79J 162215Z AUTO 00000KT 10SM CLR 18/09 A2983 400 54 900 000/00 RMK AO2
53843K79J 79J20160116172009701/16/16 17:20:31  5-MIN K79J 162220Z AUTO 05003KT 10SM CLR 18/09 A2983 400 55 900 050/03 RMK AO2
53843K79J 79J20160117032510001/17/16 03:25:31  5-MIN K79J 170825Z AUTO 35010KT 10SM BKN100 11/04 A2976 460 61 100 360/10 RMK AO2
53843K79J 79J20160117033010001/17/16 03:30:31  5-MIN K79J 170830Z AUTO 01009KT 10SM OVC100 11/04 A2975 470 61 200 020/09 RMK AO2
53843K79J 79J20160117033510001/17/16 03:35:31  5-MIN K79J 170835Z AUTO 05005KT 10SM BKN100 11/04 A2974 480 61 200 050/05 RMK AO2
53843K79J 79J20160117034010701/17/16 03:40:31  5-MIN K79J 170840Z AUTO 06004KT 10SM BKN100 11/04 A2973 490 61 200 060/04 RMK AO2 PRESFR
53843K79J 79J20160117034510001/17/16 03:45:31  5-MIN K79J 170845Z AUTO 01007KT 10SM SCT100 11/04 A2975 470 63 100 020/07 RMK AO2
53843K79J 79J20160117035012901/17/16 03:50:31  5-MIN K79J 170850Z AUTO 01007KT 10SM SCT100 11/04 A2975 470 63 100 010/07 RMK AO2 SLP072 60000 T01060039 53001
53843K79J 79J20160117035512901/17/16 03:55:31  5-MIN K79J 170855Z AUTO 01007KT 10SM FEW100 11/04 A2976 460 63 100 010/07 RMK AO2 SLP073 60000 T01060039 53001
53843K79J 79J20160117040009701/17/16 04:00:31  5-MIN K79J 170900Z AUTO 01006KT 10SM CLR 11/04 A2976 460 63 100 010/06 RMK AO2
53843K79J 79J20160117040510201/17/16 04:05:31  5-MIN K79J 170905Z AUTO 35006KT 10SM CLR 10/03 A2977 450 63 0 360/06 RMK AO2 PRESRR
53843K79J 79J20160117041009501/17/16 04:10:31  5-MIN K79J 170910Z AUTO 36007KT 10SM CLR 10/03 A2977 450 63 0 360/07 RMK AO2
53843K79J 79J20160117041509501/17/16 04:15:31  5-MIN K79J 170915Z AUTO 36006KT 10SM CLR 10/03 A2978 450 63 0 360/06 RMK AO2
53843K79J 79J20160117042009501/17/16 04:20:31  5-MIN K79J 170920Z AUTO 35008KT 10SM CLR 10/03 A2978 440 63 0 350/08 RMK AO2
53843K79J 79J20160117042509501/17/16 04:25:31  5-MIN K79J 170925Z AUTO 34008KT 10SM CLR 10/03 A2979 440 63 0 350/08 RMK AO2
53843K79J 79J20160117043009501/17/16 04:30:31  5-MIN K79J 170930Z AUTO 35006KT 10SM CLR 10/04 A2979 430 65 0 350/06 RMK AO2
53843K79J 79J20160117043509501/17/16 04:35:31  5-MIN K79J 170935Z AUTO 35007KT 10SM CLR 10/04 A2979 430 65 0 350/07 RMK AO2
53843K79J 79J20160117044009501/17/16 04:40:31  5-MIN K79J 170940Z AUTO 35007KT 10SM CLR 10/03 A2979 430 63 0 350/07 RMK AO2
53843K79J 79J20160117044509501/17/16 04:45:31  5-MIN K79J 170945Z AUTO 34009KT 10SM CLR 10/04 A2980 430 65 0 340/09 RMK AO2
53843K79J 79J20160117045011201/17/16 04:50:31  5-MIN K79J 170950Z AUTO 35012KT 10SM CLR 10/03 A2981 420 63 0 360/12 RMK AO2 SLP090 T01000033
53843K79J 79J20160117045511501/17/16 04:55:31  5-MIN K79J 170955Z AUTO 36010KT 10SM FEW110 10/03 A2981 420 63 0 360/10 RMK AO2 SLP091 T01000033
53843K79J 79J20160117050009801/17/16 05:00:31  5-MIN K79J 171000Z AUTO 36010KT 10SM SCT110 10/03 A2981 420 63 0 360/10 RMK AO2
53843K79J 79J20160117050509801/17/16 05:05:31  5-MIN K79J 171005Z AUTO 36012KT 10SM BKN110 10/03 A2981 410 63 0 360/12 RMK AO2
53843K79J 79J20160117051010401/17/16 05:10:31  5-MIN K79J 171010Z AUTO 36013G18KT 10SM BKN110 10/03 A2982 410 63 0 360/13G18 RMK AO2
53843K79J 79J20160117051510401/17/16 05:15:31  5-MIN K79J 171015Z AUTO 35013G18KT 10SM BKN110 10/03 A2982 410 63 0 350/13G18 RMK AO2
53843K79J 79J20160117052009801/17/16 05:20:31  5-MIN K79J 171020Z AUTO 36010KT 10SM BKN110 10/03 A2982 410 63 0 360/10 RMK AO2
53843K79J 79J20160117052509801/17/16 05:25:31  5-MIN K79J 171025Z AUTO 35012KT 10SM BKN100 10/03 A2983 400 60 0 350/12 RMK AO2
53843K79J 79J20160117053010401/17/16 05:30:31  5-MIN K79J 171030Z AUTO 35012G18KT 10SM SCT100 10/03 A2983 400 60 0 350/12G18 RMK AO2
53843K79J 79J20160117053510401/17/16 05:35:31  5-MIN K79J 171035Z AUTO 36013G19KT 10SM FEW100 10/03 A2984 390 60 0 360/13G19 RMK AO2
53843K79J 79J20160117054010401/17/16 05:40:31  5-MIN K79J 171040Z AUTO 36015G20KT 10SM FEW100 10/03 A2984 390 60 0 360/15G20 RMK AO2
53843K79J 79J20160117054510701/17/16 05:45:31  5-MIN K79J 171045Z AUTO 35011G20KT 10SM FEW100 09/03 A2984 390 63 -100 350/11G20 RMK AO2
53843K79J 79J20160117055012401/17/16 05:50:31  5-MIN K79J 171050Z AUTO 36011G18KT 10SM FEW100 09/03 A2985 380 65 -100 360/11G18 RMK AO2 SLP104 T00940033
53843K79J 79J20160117055512101/17/16 05:55:31  5-MIN K79J 171055Z AUTO 36012G18KT 10SM CLR 09/03 A2985 370 65 -100 360/12G18 RMK AO2 SLP107 T00940033
53843K79J 79J20160117060011101/17/16 06:00:31  5-MIN K79J 171100Z AUTO 35017G22KT 10SM CLR 09/03 A2986 370 65 -100 350/17G22 RMK AO2 PRESRR
53843K79J 79J20160117060511101/17/16 06:05:31  5-MIN K79J 171105Z AUTO 35014G22KT 10SM CLR 09/03 A2987 360 65 -100 350/14G22 RMK AO2 PRESRR
53843K79J 79J20160117061011101/17/16 06:10:31  5-MIN K79J 171110Z AUTO 35014G19KT 10SM CLR 09/03 A2987 360 65 -100 360/14G19 RMK AO2 PRESRR
53843K79J 79J20160117061510501/17/16 06:15:31  5-MIN K79J 171115Z AUTO 35013KT 10SM CLR 09/03 A2988 350 68 -200 350/13 RMK AO2 PRESRR
53843K79J 79J20160117062009801/17/16 06:20:31  5-MIN K79J 171120Z AUTO 36012KT 10SM CLR 09/03 A2988 350 68 -200 360/12 RMK AO2
53843K79J 79J20160117062509801/17/16 06:25:31  5-MIN K79J 171125Z AUTO 36009KT 10SM CLR 09/03 A2987 350 68 -200 360/09 RMK AO2
53843K79J 79J20160117063009801/17/16 06:30:31  5-MIN K79J 171130Z AUTO 01008KT 10SM CLR 09/03 A2987 360 68 -200 010/08 RMK AO2
53843K79J 79J20160117063509801/17/16 06:35:31  5-MIN K79J 171135Z AUTO 36010KT 10SM CLR 08/03 A2987 360 70 -300 360/10 RMK AO2
53843K79J 79J20160117064009801/17/16 06:40:31  5-MIN K79J 171140Z AUTO 36012KT 10SM CLR 08/03 A2987 360 70 -300 010/12 RMK AO2
53843K79J 79J20160117064510101/17/16 06:45:31  5-MIN K79J 171145Z AUTO 36010KT 10SM FEW065 08/03 A2987 350 70 -300 360/10 RMK AO2
53843K79J 79J20160117065014201/17/16 06:50:31  5-MIN K79J 171150Z AUTO 36008KT 10SM SCT065 08/03 A2988 350 70 -300 360/08 RMK AO2 SLP117 60000 T00830033 10122 20083 55017
53843K79J 79J20160117065514201/17/16 06:55:31  5-MIN K79J 171155Z AUTO 36008KT 10SM FEW060 08/03 A2989 340 70 -300 360/08 RMK AO2 SLP119 60000 T00830033 10122 20083 55017
53843K79J 79J20160117070010101/17/16 07:00:31  5-MIN K79J 171200Z AUTO 36007KT 10SM FEW060 08/03 A2988 350 70 -300 360/07 RMK AO2
53843K79J 79J20160117070510101/17/16 07:05:31  5-MIN K79J 171205Z AUTO 35009KT 10SM FEW065 08/03 A2989 340 70 -300 350/09 RMK AO2
53843K79J 79J20160117071010801/17/16 07:10:31  5-MIN K79J 171210Z AUTO 34010KT 10SM FEW065 08/03 A2990 330 70 -300 340/10 RMK AO2 PRESRR
53843K79J 79J20160117071510101/17/16 07:15:31  5-MIN K79J 171215Z AUTO 35010KT 10SM FEW060 08/03 A2991 320 70 -300 350/10 RMK AO2
53843K79J 79J20160117072009801/17/16 07:20:31  5-MIN K79J 171220Z AUTO 34012KT 10SM CLR 08/03 A2991 320 70 -300 350/12 RMK AO2
53843K79J 79J20160117072509801/17/16 07:25:31  5-MIN K79J 171225Z AUTO 35010KT 10SM CLR 08/03 A2992 320 70 -300 350/10 RMK AO2
53843K79J 79J20160117073010401/17/16 07:30:31  5-MIN K79J 171230Z AUTO 34008G16KT 10SM CLR 08/03 A2992 310 70 -300 350/08G16 RMK AO2
53843K79J 79J20160117073510401/17/16 07:35:31  5-MIN K79J 171235Z AUTO 35010G16KT 10SM CLR 08/03 A2992 310 73 -400 350/10G16 RMK AO2
53843K79J 79J20160117074009801/17/16 07:40:31  5-MIN K79J 171240Z AUTO 35008KT 10SM CLR 08/03 A2992 310 73 -400 350/08 RMK AO2
53843K79J 79J20160117074509801/17/16 07:45:31  5-MIN K79J 171245Z AUTO 35010KT 10SM CLR 08/03 A2993 310 73 -400 350/10 RMK AO2
53843K79J 79J20160117075011501/17/16 07:50:31  5-MIN K79J 171250Z AUTO 35009KT 10SM CLR 08/03 A2993 300 73 -400 350/09 RMK AO2 SLP135 T00780033
53843K79J 79J20160117075511501/17/16 07:55:31  5-MIN K79J 171255Z AUTO 34012KT 10SM CLR 08/03 A2994 290 73 -400 350/12 RMK AO2 SLP138 T00780033
53843K79J 79J20160117080010101/17/16 08:00:31  5-MIN K79J 171300Z AUTO 35010KT 10SM FEW016 08/03 A2995 290 73 -400 350/10 RMK AO2
53843K79J 79J20160117080510801/17/16 08:05:31  5-MIN K79J 171305Z AUTO 35014KT 10SM SCT016 08/03 A2996 280 73 -400 350/14 RMK AO2 PRESRR
53843K79J 79J20160117081011401/17/16 08:10:31  5-MIN K79J 171310Z AUTO 34014G21KT 10SM SCT016 08/03 A2996 270 73 -400 340/14G21 RMK AO2 PRESRR
53843K79J 79J20160117081510701/17/16 08:15:31  5-MIN K79J 171315Z AUTO 35016G21KT 10SM BKN016 08/03 A2996 270 73 -400 350/16G21 RMK AO2
53843K79J 79J20160117082010101/17/16 08:20:31  5-MIN K79J 171320Z AUTO 35013KT 10SM BKN016 08/03 A2996 270 68 -400 350/13 RMK AO2
53843K79J 79J20160117082510701/17/16 08:25:31  5-MIN K79J 171325Z AUTO 35015G20KT 10SM BKN016 08/03 A2997 270 70 -400 350/15G20 RMK AO2
53843K79J 79J20160117083010701/17/16 08:30:31  5-MIN K79J 171330Z AUTO 35012G20KT 10SM BKN014 08/03 A2997 270 70 -400 350/12G20 RMK AO2
53843K79J 79J20160117083510701/17/16 08:35:31  5-MIN K79J 171335Z AUTO 34012G19KT 10SM SCT014 08/03 A2997 260 70 -500 350/12G19 RMK AO2
53843K79J 79J20160117084010701/17/16 08:40:31  5-MIN K79J 171340Z AUTO 34014G19KT 10SM SCT016 08/03 A2998 260 70 -500 350/14G19 RMK AO2
53843K79J 79J20160117084510701/17/16 08:45:31  5-MIN K79J 171345Z AUTO 34010G19KT 10SM SCT016 08/03 A2997 260 68 -400 340/10G19 RMK AO2
53843K79J 79J20160117085011801/17/16 08:50:31  5-MIN K79J 171350Z AUTO 34010KT 10SM FEW016 08/03 A2998 260 68 -400 340/10 RMK AO2 SLP151 T00830028
53843K79J 79J20160117085511801/17/16 08:55:31  5-MIN K79J 171355Z AUTO 35010KT 10SM FEW016 08/02 A2999 250 65 -400 350/10 RMK AO2 SLP153 T00830022
53843K79J 79J20160117090010101/17/16 09:00:31  5-MIN K79J 171400Z AUTO 34011KT 10SM FEW016 08/02 A2999 250 65 -400 340/11 RMK AO2
53843K79J 79J20160117090510101/17/16 09:05:31  5-MIN K79J 171405Z AUTO 35011KT 10SM FEW016 08/02 A2999 240 65 -400 350/11 RMK AO2
53843K79J 79J20160117091010701/17/16 09:10:31  5-MIN K79J 171410Z AUTO 35011G17KT 10SM FEW018 08/02 A3000 240 65 -400 350/11G17 RMK AO2
53843K79J 79J20160117091510701/17/16 09:15:31  5-MIN K79J 171415Z AUTO 34010G17KT 10SM FEW018 08/02 A3000 240 65 -400 340/10G17 RMK AO2
53843K79J 79J20160117092010101/17/16 09:20:31  5-MIN K79J 171420Z AUTO 35014KT 10SM FEW018 09/02 A3000 240 60 -300 350/14 RMK AO2
53843K79J 79J20160117092510701/17/16 09:25:31  5-MIN K79J 171425Z AUTO 34012G18KT 10SM FEW018 09/02 A3000 240 63 -300 340/12G18 RMK AO2
53843K79J 79J20160117093010701/17/16 09:30:31  5-MIN K79J 171430Z AUTO 35011G17KT 10SM FEW018 09/02 A3001 230 63 -400 350/11G17 RMK AO2
53843K79J 79J20160117093510701/17/16 09:35:31  5-MIN K79J 171435Z AUTO 34012G17KT 10SM FEW018 09/02 A3001 230 63 -400 340/12G17 RMK AO2
53843K79J 79J20160117094009801/17/16 09:40:31  5-MIN K79J 171440Z AUTO 34012KT 10SM CLR 09/02 A3001 230 60 -400 340/12 RMK AO2
53843K79J 79J20160117094509801/17/16 09:45:31  5-MIN K79J 171445Z AUTO 35010KT 10SM CLR 09/02 A3001 230 58 -300 360/10 RMK AO2
53843K79J 79J20160117095012101/17/16 09:50:31  5-MIN K79J 171450Z AUTO 36011KT 10SM CLR 09/02 A3001 230 58 -300 360/11 RMK AO2 SLP162 T00940017 51043
53843K79J 79J20160117095512701/17/16 09:55:31  5-MIN K79J 171455Z AUTO 36012G18KT 10SM CLR 09/02 A3002 220 58 -300 360/12G18 RMK AO2 SLP163 T00940017 51043
53843K79J 79J20160117100009801/17/16 10:00:31  5-MIN K79J 171500Z AUTO 36012KT 10SM CLR 10/02 A3002 220 56 -200 360/12 RMK AO2
53843K79J 79J20160117100509801/17/16 10:05:31  5-MIN K79J 171505Z AUTO 36011KT 10SM CLR 10/01 A3002 220 54 -200 360/11 RMK AO2
53843K79J 79J20160117101009801/17/16 10:10:31  5-MIN K79J 171510Z AUTO 34010KT 10SM CLR 10/02 A3003 220 58 -200 350/10 RMK AO2
53843K79J 79J20160117101510401/17/16 10:15:31  5-MIN K79J 171515Z AUTO 36012G18KT 10SM CLR 11/02 A3002 220 56 -200 360/12G18 RMK AO2
53843K79J 79J20160117102010401/17/16 10:20:31  5-MIN K79J 171520Z AUTO 01012G18KT 10SM CLR 11/01 A3001 230 52 -200 010/12G18 RMK AO2
53843K79J 79J20160117102510401/17/16 10:25:31  5-MIN K79J 171525Z AUTO 02015G19KT 10SM CLR 10/01 A3001 230 52 -200 020/15G19 RMK AO2
53843K79J 79J20160117103009801/17/16 10:30:31  5-MIN K79J 171530Z AUTO 02014KT 10SM CLR 11/01 A3001 230 52 -200 020/14 RMK AO2
53843K79J 79J20160117103509801/17/16 10:35:31  5-MIN K79J 171535Z AUTO 02014KT 10SM CLR 11/01 A3002 220 52 -200 020/14 RMK AO2
53843K79J 79J20160117104010401/17/16 10:40:31  5-MIN K79J 171540Z AUTO 36012G18KT 10SM CLR 11/01 A3002 220 52 -200 360/12G18 RMK AO2
53843K79J 79J20160117104510401/17/16 10:45:31  5-MIN K79J 171545Z AUTO 36011G17KT 10SM CLR 11/01 A3002 220 52 -200 010/11G17 RMK AO2
53843K79J 79J20160117105011501/17/16 10:50:31  5-MIN K79J 171550Z AUTO 35011KT 10SM CLR 11/02 A3002 220 54 -200 360/11 RMK AO2 SLP164 T01060017
53843K79J 79J20160117105512101/17/16 10:55:31  5-MIN K79J 171555Z AUTO 35010G16KT 10SM CLR 11/02 A3002 220 54 -200 350/10G16 RMK AO2 SLP164 T01060017
53843K79J 79J20160117110009801/17/16 11:00:31  5-MIN K79J 171600Z AUTO 03012KT 10SM CLR 11/02 A3002 220 52 -100 030/12 RMK AO2
53843K79J 79J20160117110510401/17/16 11:05:31  5-MIN K79J 171605Z AUTO 02011G17KT 10SM CLR 11/02 A3002 220 52 -100 020/11G17 RMK AO2
53843K79J 79J20160117111010401/17/16 11:10:31  5-MIN K79J 171610Z AUTO 35012G18KT 10SM CLR 11/01 A3002 220 50 -100 350/12G18 RMK AO2
53843K79J 79J20160117111510401/17/16 11:15:31  5-MIN K79J 171615Z AUTO 03010G18KT 10SM CLR 11/01 A3002 220 50 -100 030/10G18 RMK AO2
53843K79J 79J20160117112010101/17/16 11:20:31  5-MIN K79J 171620Z AUTO 02012G17KT 10SM CLR 12/01 A3002 220 48 0 020/12G17 RMK AO2
53843K79J 79J20160117112509501/17/16 11:25:31  5-MIN K79J 171625Z AUTO 01011KT 10SM CLR 12/02 A3002 220 50 0 010/11 RMK AO2
53843K79J 79J20160117113009501/17/16 11:30:31  5-MIN K79J 171630Z AUTO 36010KT 10SM CLR 12/02 A3002 220 50 0 360/10 RMK AO2
53843K79J 79J20160117113509501/17/16 11:35:31  5-MIN K79J 171635Z AUTO 35010KT 10SM CLR 12/02 A3002 220 52 0 350/10 RMK AO2
53843K79J 79J20160117114009801/17/16 11:40:31  5-MIN K79J 171640Z AUTO 34011KT 10SM FEW030 12/02 A3001 220 50 0 340/11 RMK AO2
53843K79J 79J20160117114509501/17/16 11:45:31  5-MIN K79J 171645Z AUTO 01010KT 10SM CLR 12/02 A3002 220 50 0 010/10 RMK AO2
53843K79J 79J20160117115011501/17/16 11:50:31  5-MIN K79J 171650Z AUTO 33010KT 10SM FEW029 12/02 A3002 220 52 0 330/10 RMK AO2 SLP163 T01170022
53843K79J 79J20160117115512101/17/16 11:55:31  5-MIN K79J 171655Z AUTO 35011G17KT 10SM FEW029 12/02 A3002 220 52 0 360/11G17 RMK AO2 SLP164 T01170022
53843K79J 79J20160117120010401/17/16 12:00:31  5-MIN K79J 171700Z AUTO 35009G17KT 10SM FEW029 12/02 A3002 220 52 0 360/09G17 RMK AO2
53843K79J 79J20160117120510401/17/16 12:05:31  5-MIN K79J 171705Z AUTO 34012G17KT 10SM FEW029 12/02 A3003 220 52 0 340/12G17 RMK AO2
53843K79J 79J20160117121010401/17/16 12:10:31  5-MIN K79J 171710Z AUTO 33014G19KT 10SM FEW027 12/02 A3003 210 52 0 330/14G19 RMK AO2
53843K79J 79J20160117121510401/17/16 12:15:31  5-MIN K79J 171715Z AUTO 32013G19KT 10SM FEW027 12/02 A3003 210 50 0 320/13G19 RMK AO2
53843K79J 79J20160117122009801/17/16 12:20:31  5-MIN K79J 171720Z AUTO 32012KT 10SM FEW029 12/02 A3002 220 50 0 330/12 RMK AO2
53843K79J 79J20160117122509501/17/16 12:25:31  5-MIN K79J 171725Z AUTO 34009KT 10SM CLR 12/02 A3002 220 50 0 340/09 RMK AO2
53843K79J 79J20160117123009801/17/16 12:30:31  5-MIN K79J 171730Z AUTO 35012KT 10SM FEW031 12/02 A3002 220 50 0 360/12 RMK AO2
53843K79J 79J20160117123509801/17/16 12:35:31  5-MIN K79J 171735Z AUTO 33012KT 10SM FEW031 13/02 A3002 220 48 0 330/12 RMK AO2
53843K79J 79J20160117124010101/17/16 12:40:31  5-MIN K79J 171740Z AUTO 36010G16KT 10SM CLR 12/02 A3001 230 48 0 010/10G16 RMK AO2
53843K79J 79J20160117124509501/17/16 12:45:31  5-MIN K79J 171745Z AUTO 35010KT 10SM CLR 12/02 A3001 230 48 0 350/10 RMK AO2
53843K79J 79J20160117125013201/17/16 12:50:31  5-MIN K79J 171750Z AUTO 36011KT 10SM CLR 13/02 A3001 230 46 100 360/11 RMK AO2 SLP161 T01280017 10128 20078 51044
53843K79J 79J20160117125507501/17/16 12:55:31  5-MIN K79J 171755Z AUTO 35013G18KT 10SM CLR 13/01 A3001 
53843K79J 79J20160117141509701/17/16 14:15:31  5-MIN K79J 171915Z AUTO 36012KT 10SM CLR 14/00 A3000 240 38 200 360/12 RMK AO2
53843K79J 79J20160117142010301/17/16 14:20:31  5-MIN K79J 171920Z AUTO 34014G18KT 10SM CLR 14/00 A3001 230 38 200 340/14G18 RMK AO2
53843K79J 79J20160117142510301/17/16 14:25:31  5-MIN K79J 171925Z AUTO 33014G18KT 10SM CLR 14/00 A3001 230 37 300 330/14G18 RMK AO2
53843K79J 79J20160117143010401/17/16 14:30:31  5-MIN K79J 171930Z AUTO 33013G17KT 10SM CLR 14/M01 A3001 230 37 200 330/13G17 RMK AO2
53843K79J 79J20160117143510401/17/16 14:35:31  5-MIN K79J 171935Z AUTO 33011G17KT 10SM CLR 14/M02 A3001 230 34 200 330/11G17 RMK AO2
53843K79J 79J20160117144009801/17/16 14:40:31  5-MIN K79J 171940Z AUTO 35013KT 10SM CLR 14/M02 A3001 230 31 300 350/13 RMK AO2
53843K79J 79J20160117144509801/17/16 14:45:31  5-MIN K79J 171945Z AUTO 01011KT 10SM CLR 14/M03 A3001 230 30 300 010/11 RMK AO2
53843K79J 79J20160117145011501/17/16 14:50:31  5-MIN K79J 171950Z AUTO 35009KT 10SM CLR 14/M02 A3002 220 31 300 350/09 RMK AO2 SLP162 T01441022
53843K79J 79J20160117145512101/17/16 14:55:31  5-MIN K79J 171955Z AUTO 02009G15KT 10SM CLR 14/M02 A3001 230 31 300 020/09G15 RMK AO2 SLP160 T01441022
53843K79J 79J20160117150010401/17/16 15:00:31  5-MIN K79J 172000Z AUTO 33012G15KT 10SM CLR 14/M02 A3001 230 33 300 330/12G15 RMK AO2
53843K79J 79J20160117150510401/17/16 15:05:31  5-MIN K79J 172005Z AUTO 33011G18KT 10SM CLR 14/M01 A3001 230 34 300 330/11G18 RMK AO2
53843K79J 79J20160117151010401/17/16 15:10:31  5-MIN K79J 172010Z AUTO 36009G18KT 10SM CLR 14/M02 A3001 230 34 200 360/09G18 RMK AO2
53843K79J 79J20160117151509801/17/16 15:15:31  5-MIN K79J 172015Z AUTO 35011KT 10SM CLR 14/M02 A3001 230 33 300 350/11 RMK AO2
53843K79J 79J20160117152010401/17/16 15:20:31  5-MIN K79J 172020Z AUTO 35013G18KT 10SM CLR 14/M02 A3001 230 33 300 350/13G18 RMK AO2
53843K79J 79J20160117152510401/17/16 15:25:31  5-MIN K79J 172025Z AUTO 36014G18KT 10SM CLR 14/M02 A3001 230 32 200 360/14G18 RMK AO2
53843K79J 79J20160117153010401/17/16 15:30:31  5-MIN K79J 172030Z AUTO 01009G18KT 10SM CLR 14/M02 A3002 220 32 200 010/09G18 RMK AO2
53843K79J 79J20160117153511401/17/16 15:35:31  5-MIN K79J 172035Z AUTO 01009KT 330V040 10SM CLR 14/M02 A3002 220 33 200 010/09 330V040 RMK AO2
53843K79J 79J20160117154010401/17/16 15:40:31  5-MIN K79J 172040Z AUTO 36009G18KT 10SM CLR 14/M02 A3002 220 31 300 010/09G18 RMK AO2
53843K79J 79J20160117154510401/17/16 15:45:31  5-MIN K79J 172045Z AUTO 35013G18KT 10SM CLR 14/M02 A3002 220 31 300 350/13G18 RMK AO2
53843K79J 79J20160117155012701/17/16 15:50:31  5-MIN K79J 172050Z AUTO 01010G19KT 10SM CLR 14/M02 A3002 220 32 200 010/10G19 RMK AO2 SLP163 T01391022 58002
53843K79J 79J20160117155512701/17/16 15:55:31  5-MIN K79J 172055Z AUTO 02011G19KT 10SM CLR 14/M02 A3002 220 31 200 020/11G19 RMK AO2 SLP165 T01441022 58002
53843K79J 79J20160117160010401/17/16 16:00:31  5-MIN K79J 172100Z AUTO 02009G16KT 10SM CLR 14/M02 A3002 220 32 200 020/09G16 RMK AO2
53843K79J 79J20160117160509801/17/16 16:05:31  5-MIN K79J 172105Z AUTO 02010KT 10SM CLR 14/M02 A3002 220 32 200 020/10 RMK AO2
53843K79J 79J20160117161010401/17/16 16:10:31  5-MIN K79J 172110Z AUTO 02010G18KT 10SM CLR 14/M02 A3002 220 32 200 020/10G18 RMK AO2
53843K79J 79J20160117161510401/17/16 16:15:31  5-MIN K79J 172115Z AUTO 36010G18KT 10SM CLR 14/M02 A3003 210 32 200 360/10G18 RMK AO2
53843K79J 79J20160117162010401/17/16 16:20:31  5-MIN K79J 172120Z AUTO 35014G18KT 10SM CLR 14/M02 A3003 210 32 200 360/14G18 RMK AO2
53843K79J 79J20160117162509801/17/16 16:25:31  5-MIN K79J 172125Z AUTO 35012KT 10SM CLR 14/M03 A3003 210 31 200 360/12 RMK AO2
53843K79J 79J20160117163010401/17/16 16:30:31  5-MIN K79J 172130Z AUTO 36010G17KT 10SM CLR 14/M02 A3003 210 32 200 360/10G17 RMK AO2
53843K79J 79J20160117163510401/17/16 16:35:31  5-MIN K79J 172135Z AUTO 36010G16KT 10SM CLR 14/M03 A3004 210 31 200 360/10G16 RMK AO2
53843K79J 79J20160117164009801/17/16 16:40:31  5-MIN K79J 172140Z AUTO 34011KT 10SM CLR 13/M03 A3004 210 32 100 350/11 RMK AO2
53843K79J 79J20160117164509801/17/16 16:45:31  5-MIN K79J 172145Z AUTO 35009KT 10SM CLR 13/M02 A3004 200 34 100 350/09 RMK AO2
53843K79J 79J20160117165011501/17/16 16:50:31  5-MIN K79J 172150Z AUTO 36011KT 10SM CLR 13/M02 A3004 200 34 100 360/11 RMK AO2 SLP169 T01331022
53843K79J 79J20160117165511501/17/16 16:55:31  5-MIN K79J 172155Z AUTO 35010KT 10SM CLR 13/M03 A3004 200 32 100 350/10 RMK AO2 SLP170 T01331028
53843K79J 79J20160117170009801/17/16 17:00:31  5-MIN K79J 172200Z AUTO 36009KT 10SM CLR 13/M02 A3004 200 34 100 360/09 RMK AO2
53843K79J 79J20160117170510401/17/16 17:05:31  5-MIN K79J 172205Z AUTO 34012G16KT 10SM CLR 13/M03 A3005 200 32 100 350/12G16 RMK AO2
53843K79J 79J20160117171009601/17/16 17:10:31  5-MIN K79J 172210Z AUTO 35011KT 10SM CLR 13/M03 A3005 190 33 0 360/11 RMK AO2
53843K79J 79J20160117171510201/17/16 17:15:31  5-MIN K79J 172215Z AUTO 35012G17KT 10SM CLR 13/M03 A3005 190 33 0 350/12G17 RMK AO2
53843K79J 79J20160117172009601/17/16 17:20:31  5-MIN K79J 172220Z AUTO 34012KT 10SM CLR 13/M03 A3005 190 33 0 350/12 RMK AO2
53843K79J 79J20160117172510201/17/16 17:25:31  5-MIN K79J 172225Z AUTO 36012G17KT 10SM CLR 13/M03 A3006 190 33 0 360/12G17 RMK AO2
53843K79J 79J20160117173010201/17/16 17:30:31  5-MIN K79J 172230Z AUTO 01009G16KT 10SM CLR 12/M03 A3006 190 35 0 010/09G16 RMK AO2
53843K79J 79J20160117173509601/17/16 17:35:31  5-MIN K79J 172235Z AUTO 35008KT 10SM CLR 12/M02 A3006 180 36 0 360/08 RMK AO2
53843K79J 79J20160117174009601/17/16 17:40:31  5-MIN K79J 172240Z AUTO 01008KT 10SM CLR 12/M03 A3006 180 35 0 010/08 RMK AO2
53843K79J 79J20160117174509901/17/16 17:45:31  5-MIN K79J 172245Z AUTO 36006KT 10SM CLR 12/M02 A3006 180 38 -100 360/06 RMK AO2
53843K79J 79J20160117175011601/17/16 17:50:31  5-MIN K79J 172250Z AUTO 35007KT 10SM CLR 12/M02 A3006 180 38 -100 360/07 RMK AO2 SLP179 T01171022
53843K79J 79J20160117175511601/17/16 17:55:31  5-MIN K79J 172255Z AUTO 36007KT 10SM CLR 11/M02 A3006 180 41 -200 360/07 RMK AO2 SLP179 T01111017
53843K79J 79J20160117180009901/17/16 18:00:31  5-MIN K79J 172300Z AUTO 35007KT 10SM CLR 11/M02 A3007 180 41 -200 350/07 RMK AO2
53843K79J 79J20160117180509901/17/16 18:05:31  5-MIN K79J 172305Z AUTO 35007KT 10SM CLR 11/M02 A3007 170 41 -200 350/07 RMK AO2
53843K79J 79J20160117181009901/17/16 18:10:31  5-MIN K79J 172310Z AUTO 34006KT 10SM CLR 11/M02 A3007 170 42 -200 340/06 RMK AO2
53843K79J 79J20160117181509901/17/16 18:15:31  5-MIN K79J 172315Z AUTO 34006KT 10SM CLR 11/M01 A3007 170 44 -200 340/06 RMK AO2
53843K79J 79J20160117182009901/17/16 18:20:31  5-MIN K79J 172320Z AUTO 34006KT 10SM CLR 10/M01 A3008 160 46 -300 350/06 RMK AO2
53843K79J 79J20160117182509901/17/16 18:25:31  5-MIN K79J 172325Z AUTO 34005KT 10SM CLR 10/M01 A3008 160 46 -300 340/05 RMK AO2
53843K79J 79J20160117183009901/17/16 18:30:31  5-MIN K79J 172330Z AUTO 34006KT 10SM CLR 10/M01 A3009 160 46 -300 340/06 RMK AO2
53843K79J 79J20160117183509901/17/16 18:35:31  5-MIN K79J 172335Z AUTO 34006KT 10SM CLR 10/M01 A3009 160 46 -300 340/06 RMK AO2
53843K79J 79J20160117184009901/17/16 18:40:31  5-MIN K79J 172340Z AUTO 34006KT 10SM CLR 09/M01 A3009 160 47 -400 350/06 RMK AO2
53843K79J 79J20160117184509901/17/16 18:45:31  5-MIN K79J 172345Z AUTO 34005KT 10SM CLR 09/M01 A3009 150 47 -400 340/05 RMK AO2
53843K79J 79J20160117185013401/17/16 18:50:31  5-MIN K79J 172350Z AUTO 34005KT 10SM CLR 09/M01 A3010 150 49 -400 350/05 RMK AO2 SLP190 T00941006 10144 20094 53004
53843K79J 79J20160117185513401/17/16 18:55:31  5-MIN K79J 172355Z AUTO 34005KT 10SM CLR 09/M01 A3010 150 51 -500 340/05 RMK AO2 SLP192 T00891006 10144 20089 53004
53843K79J 79J20160117190009901/17/16 19:00:31  5-MIN K79J 180000Z AUTO 34006KT 10SM CLR 09/M01 A3010 140 51 -500 340/06 RMK AO2
53843K79J 79J20160117190509901/17/16 19:05:31  5-MIN K79J 180005Z AUTO 34006KT 10SM CLR 09/M01 A3011 140 51 -500 340/06 RMK AO2
53843K79J 79J20160117191009901/17/16 19:10:31  5-MIN K79J 180010Z AUTO 34006KT 10SM CLR 09/M01 A3011 130 51 -500 340/06 RMK AO2
53843K79J 79J20160117191509901/17/16 19:15:31  5-MIN K79J 180015Z AUTO 34005KT 10SM CLR 08/M01 A3011 130 53 -500 340/05 RMK AO2
53843K79J 79J20160117192009901/17/16 19:20:31  5-MIN K79J 180020Z AUTO 34007KT 10SM CLR 08/M01 A3012 130 53 -500 340/07 RMK AO2
53843K79J 79J20160117192509901/17/16 19:25:31  5-MIN K79J 180025Z AUTO 34006KT 10SM CLR 08/M01 A3012 130 53 -600 340/06 RMK AO2
53843K79J 79J20160117193009901/17/16 19:30:31  5-MIN K79J 180030Z AUTO 34006KT 10SM CLR 08/M01 A3012 130 53 -500 340/06 RMK AO2
53843K79J 79J20160117193509901/17/16 19:35:31  5-MIN K79J 180035Z AUTO 34007KT 10SM CLR 08/M01 A3012 130 53 -600 340/07 RMK AO2
53843K79J 79J20160117194009901/17/16 19:40:31  5-MIN K79J 180040Z AUTO 34007KT 10SM CLR 08/M01 A3012 120 53 -600 340/07 RMK AO2
53843K79J 79J20160117194509901/17/16 19:45:31  5-MIN K79J 180045Z AUTO 34006KT 10SM CLR 08/M01 A3012 120 53 -600 340/06 RMK AO2
53843K79J 79J20160117195011601/17/16 19:50:31  5-MIN K79J 180050Z AUTO 34005KT 10SM CLR 08/M01 A3012 130 55 -600 340/05 RMK AO2 SLP199 T00781006
53843K79J 79J20160117195511601/17/16 19:55:31  5-MIN K79J 180055Z AUTO 34006KT 10SM CLR 08/M01 A3012 130 55 -600 340/06 RMK AO2 SLP199 T00781006
53843K79J 79J20160117200009901/17/16 20:00:31  5-MIN K79J 180100Z AUTO 34005KT 10SM CLR 08/M01 A3012 130 55 -600 340/05 RMK AO2
53843K79J 79J20160117200509901/17/16 20:05:31  5-MIN K79J 180105Z AUTO 34005KT 10SM CLR 08/M01 A3012 130 55 -600 340/05 RMK AO2
53843K79J 79J20160117201009901/17/16 20:10:31  5-MIN K79J 180110Z AUTO 34005KT 10SM CLR 08/M01 A3012 130 55 -600 340/05 RMK AO2
53843K79J 79J20160117201509901/17/16 20:15:31  5-MIN K79J 180115Z AUTO 34006KT 10SM CLR 08/M01 A3013 120 55 -600 340/06 RMK AO2
53843K79J 79J20160117202009901/17/16 20:20:31  5-MIN K79J 180120Z AUTO 34005KT 10SM CLR 08/M01 A3013 120 53 -600 340/05 RMK AO2
53843K79J 79J20160117202509901/17/16 20:25:31  5-MIN K79J 180125Z AUTO 34004KT 10SM CLR 07/M01 A3013 120 55 -700 340/04 RMK AO2
53843K79J 79J20160117203009901/17/16 20:30:31  5-MIN K79J 180130Z AUTO 34004KT 10SM CLR 07/M01 A3013 120 57 -700 340/04 RMK AO2
53843K79J 79J20160117203509901/17/16 20:35:31  5-MIN K79J 180135Z AUTO 34005KT 10SM CLR 07/M01 A3013 120 57 -700 340/05 RMK AO2
53843K79J 79J20160117204009901/17/16 20:40:31  5-MIN K79J 180140Z AUTO 33005KT 10SM CLR 07/M01 A3013 120 60 -800 340/05 RMK AO2
53843K79J 79J20160117204509901/17/16 20:45:31  5-MIN K79J 180145Z AUTO 34006KT 10SM CLR 07/M01 A3013 110 60 -800 340/06 RMK AO2
53843K79J 79J20160117205011601/17/16 20:50:31  5-MIN K79J 180150Z AUTO 34006KT 10SM CLR 07/M01 A3013 120 60 -800 340/06 RMK AO2 SLP203 T00671006
53843K79J 79J20160117205511601/17/16 20:55:31  5-MIN K79J 180155Z AUTO 34005KT 10SM CLR 07/M01 A3014 110 60 -800 340/05 RMK AO2 SLP204 T00671006
53843K79J 79J20160117210009901/17/16 21:00:31  5-MIN K79J 180200Z AUTO 34005KT 10SM CLR 07/M01 A3014 110 57 -800 340/05 RMK AO2
53843K79J 79J20160117210509901/17/16 21:05:31  5-MIN K79J 180205Z AUTO 34005KT 10SM CLR 07/M01 A3014 110 57 -800 340/05 RMK AO2
53843K79J 79J20160117211009901/17/16 21:10:31  5-MIN K79J 180210Z AUTO 34005KT 10SM CLR 07/M01 A3014 110 57 -800 340/05 RMK AO2
53843K79J 79J20160117211509901/17/16 21:15:31  5-MIN K79J 180215Z AUTO 34004KT 10SM CLR 07/M01 A3013 110 57 -800 340/04 RMK AO2
53843K79J 79J20160117212009901/17/16 21:20:31  5-MIN K79J 180220Z AUTO 33005KT 10SM CLR 07/M01 A3014 110 57 -800 330/05 RMK AO2
53843K79J 79J20160117212509901/17/16 21:25:31  5-MIN K79J 180225Z AUTO 33004KT 10SM CLR 07/M01 A3014 110 57 -800 330/04 RMK AO2
53843K79J 79J20160117213009901/17/16 21:30:31  5-MIN K79J 180230Z AUTO 33004KT 10SM CLR 07/M01 A3014 110 57 -800 330/04 RMK AO2
53843K79J 79J20160117213509901/17/16 21:35:31  5-MIN K79J 180235Z AUTO 33004KT 10SM CLR 07/M01 A3014 110 57 -800 330/04 RMK AO2
53843K79J 79J20160117214009901/17/16 21:40:31  5-MIN K79J 180240Z AUTO 33005KT 10SM CLR 06/M01 A3015 100 60 -900 340/05 RMK AO2
53843K79J 79J20160117214509901/17/16 21:45:31  5-MIN K79J 180245Z AUTO 33005KT 10SM CLR 06/M01 A3015 100 60 -900 330/05 RMK AO2
53843K79J 79J20160117215012201/17/16 21:50:31  5-MIN K79J 180250Z AUTO 33005KT 10SM CLR 06/M01 A3015 100 60 -900 340/05 RMK AO2 SLP208 T00611011 53025
53843K79J 79J20160117215512201/17/16 21:55:31  5-MIN K79J 180255Z AUTO 34004KT 10SM CLR 06/M01 A3015 100 60 -900 340/04 RMK AO2 SLP209 T00611011 53025
53843K79J 79J20160117220009901/17/16 22:00:31  5-MIN K79J 180300Z AUTO 33004KT 10SM CLR 06/M01 A3015 100 60 -900 330/04 RMK AO2
53843K79J 79J20160117220509801/17/16 22:05:31  5-MIN K79J 180305Z AUTO 33004KT 10SM CLR 06/M01 A3016 90 60 -900 330/04 RMK AO2
53843K79J 79J20160117221009801/17/16 22:10:31  5-MIN K79J 180310Z AUTO 34004KT 10SM CLR 06/M02 A3016 90 57 -900 340/04 RMK AO2
53843K79J 79J20160117221509801/17/16 22:15:31  5-MIN K79J 180315Z AUTO 34004KT 10SM CLR 06/M01 A3016 90 60 -900 340/04 RMK AO2
53843K79J 79J20160117222009801/17/16 22:20:31  5-MIN K79J 180320Z AUTO 34004KT 10SM CLR 06/M02 A3016 90 59 -900 340/04 RMK AO2
53843K79J 79J20160117222509801/17/16 22:25:31  5-MIN K79J 180325Z AUTO 34005KT 10SM CLR 06/M01 A3017 90 62 -900 340/05 RMK AO2
53843K79J 79J20160117223009801/17/16 22:30:31  5-MIN K79J 180330Z AUTO 34005KT 10SM CLR 06/M02 A3017 80 57 -900 340/05 RMK AO2
53843K79J 79J20160117223509801/17/16 22:35:31  5-MIN K79J 180335Z AUTO 34005KT 10SM CLR 06/M02 A3017 80 57 -900 340/05 RMK AO2
53843K79J 79J20160117224009801/17/16 22:40:31  5-MIN K79J 180340Z AUTO 34005KT 10SM CLR 06/M02 A3018 80 57 -900 340/05 RMK AO2
53843K79J 79J20160117224509801/17/16 22:45:31  5-MIN K79J 180345Z AUTO 33004KT 10SM CLR 06/M02 A3018 70 57 -900 330/04 RMK AO2
53843K79J 79J20160117225011501/17/16 22:50:31  5-MIN K79J 180350Z AUTO 33005KT 10SM CLR 06/M02 A3018 70 57 -900 330/05 RMK AO2 SLP219 T00611017
53843K79J 79J20160117225511501/17/16 22:55:31  5-MIN K79J 180355Z AUTO 34006KT 10SM CLR 06/M02 A3018 70 57 -900 340/06 RMK AO2 SLP219 T00611017
53843K79J 79J20160117230009801/17/16 23:00:31  5-MIN K79J 180400Z AUTO 34005KT 10SM CLR 06/M02 A3018 70 57 -900 350/05 RMK AO2
53843K79J 79J20160117230509801/17/16 23:05:31  5-MIN K79J 180405Z AUTO 35005KT 10SM CLR 06/M02 A3018 70 57 -900 350/05 RMK AO2
53843K79J 79J20160117231009801/17/16 23:10:31  5-MIN K79J 180410Z AUTO 35006KT 10SM CLR 06/M02 A3018 80 57 -900 350/06 RMK AO2
53843K79J 79J20160117231509801/17/16 23:15:31  5-MIN K79J 180415Z AUTO 34005KT 10SM CLR 06/M02 A3018 70 57 -900 350/05 RMK AO2
53843K79J 79J20160117232009901/17/16 23:20:31  5-MIN K79J 180420Z AUTO 35006KT 10SM CLR 06/M02 A3018 70 59 -1000 350/06 RMK AO2
53843K79J 79J20160117232509901/17/16 23:25:31  5-MIN K79J 180425Z AUTO 35005KT 10SM CLR 06/M02 A3018 70 59 -1000 350/05 RMK AO2
53843K79J 79J20160117233009901/17/16 23:30:31  5-MIN K79J 180430Z AUTO 35005KT 10SM CLR 06/M02 A3018 70 59 -1000 360/05 RMK AO2
53843K79J 79J20160117233509901/17/16 23:35:31  5-MIN K79J 180435Z AUTO 35005KT 10SM CLR 06/M02 A3018 70 59 -1000 350/05 RMK AO2
53843K79J 79J20160117234009901/17/16 23:40:31  5-MIN K79J 180440Z AUTO 34005KT 10SM CLR 06/M02 A3018 70 59 -1000 350/05 RMK AO2
53843K79J 79J20160117234509901/17/16 23:45:31  5-MIN K79J 180445Z AUTO 34005KT 10SM CLR 06/M02 A3019 70 59 -1000 350/05 RMK AO2
53843K79J 79J20160117235012601/17/16 23:50:31  5-MIN K79J 180450Z AUTO 35005KT 10SM CLR 06/M02 A3019 60 59 -1000 350/05 RMK AO2 SLP222 T00561017 401440056
53843K79J 79J20160117235512601/17/16 23:55:31  5-MIN K79J 180455Z AUTO 35005KT 10SM CLR 06/M02 A3019 60 59 -1000 350/05 RMK AO2 SLP222 T00561017 401440056
53843K79J 79J20160118000009901/18/16 00:00:31  5-MIN K79J 180500Z AUTO 35005KT 10SM CLR 06/M02 A3019 70 59 -1000 350/05 RMK AO2
53843K79J 79J20160118000509901/18/16 00:05:31  5-MIN K79J 180505Z AUTO 35006KT 10SM CLR 06/M02 A3019 60 59 -1000 350/06 RMK AO2
53843K79J 79J20160118001009901/18/16 00:10:31  5-MIN K79J 180510Z AUTO 35006KT 10SM CLR 06/M02 A3019 60 59 -1000 350/06 RMK AO2
53843K79J 79J20160118001509901/18/16 00:15:31  5-MIN K79J 180515Z AUTO 35005KT 10SM CLR 06/M02 A3019 60 59 -1000 350/05 RMK AO2
53843K79J 79J20160118002009901/18/16 00:20:31  5-MIN K79J 180520Z AUTO 35006KT 10SM CLR 06/M02 A3019 60 59 -1000 350/06 RMK AO2
53843K79J 79J20160118002509901/18/16 00:25:31  5-MIN K79J 180525Z AUTO 35006KT 10SM CLR 06/M02 A3019 60 59 -1000 350/06 RMK AO2
53843K79J 79J20160118003009901/18/16 00:30:31  5-MIN K79J 180530Z AUTO 35006KT 10SM CLR 06/M02 A3019 60 59 -1000 350/06 RMK AO2
53843K79J 79J20160118003509901/18/16 00:35:31  5-MIN K79J 180535Z AUTO 35005KT 10SM CLR 06/M02 A3020 60 57 -1000 350/05 RMK AO2
53843K79J 79J20160118004009901/18/16 00:40:31  5-MIN K79J 180540Z AUTO 34005KT 10SM CLR 06/M02 A3020 60 57 -1000 340/05 RMK AO2
53843K79J 79J20160118004509901/18/16 00:45:31  5-MIN K79J 180545Z AUTO 35006KT 10SM CLR 06/M02 A3020 60 57 -1000 350/06 RMK AO2
53843K79J 79J20160118005013401/18/16 00:50:31  5-MIN K79J 180550Z AUTO 34004KT 10SM CLR 06/M02 A3020 50 57 -1000 340/04 RMK AO2 SLP225 T00561022 10089 20056 51017
53843K79J 79J20160118005513401/18/16 00:55:31  5-MIN K79J 180555Z AUTO 34004KT 10SM CLR 06/M02 A3020 60 57 -1000 350/04 RMK AO2 SLP225 T00561022 10089 20056 51017
53843K79J 79J20160118010009901/18/16 01:00:31  5-MIN K79J 180600Z AUTO 35004KT 10SM CLR 05/M02 A3020 60 59 -1000 350/04 RMK AO2
53843K79J 79J20160118010509901/18/16 01:05:31  5-MIN K79J 180605Z AUTO 35003KT 10SM CLR 05/M02 A3019 60 59 -1000 350/03 RMK AO2
53843K79J 79J20160118011009901/18/16 01:10:31  5-MIN K79J 180610Z AUTO 34003KT 10SM CLR 05/M02 A3020 60 59 -1000 340/03 RMK AO2
53843K79J 79J20160118011509901/18/16 01:15:31  5-MIN K79J 180615Z AUTO 34003KT 10SM CLR 05/M02 A3020 60 59 -1000 340/03 RMK AO2
53843K79J 79J20160118012009901/18/16 01:20:31  5-MIN K79J 180620Z AUTO 35003KT 10SM CLR 05/M02 A3019 60 59 -1000 350/03 RMK AO2
53843K79J 79J20160118012509901/18/16 01:25:31  5-MIN K79J 180625Z AUTO 00000KT 10SM CLR 05/M02 A3019 60 59 -1000 000/00 RMK AO2
53843K79J 79J20160118013009901/18/16 01:30:31  5-MIN K79J 180630Z AUTO 34003KT 10SM CLR 05/M02 A3020 60 59 -1100 350/03 RMK AO2
53843K79J 79J20160118013509901/18/16 01:35:31  5-MIN K79J 180635Z AUTO 34003KT 10SM CLR 05/M02 A3020 60 59 -1100 340/03 RMK AO2
53843K79J 79J20160118014009901/18/16 01:40:31  5-MIN K79J 180640Z AUTO 00000KT 10SM CLR 05/M02 A3019 60 59 -1000 000/00 RMK AO2
53843K79J 79J20160118014509901/18/16 01:45:31  5-MIN K79J 180645Z AUTO 00000KT 10SM CLR 05/M02 A3019 60 59 -1000 000/00 RMK AO2
53843K79J 79J20160118015011601/18/16 01:50:31  5-MIN K79J 180650Z AUTO 00000KT 10SM CLR 05/M02 A3019 60 59 -1000 000/00 RMK AO2 SLP224 T00501022
53843K79J 79J20160118015511601/18/16 01:55:31  5-MIN K79J 180655Z AUTO 00000KT 10SM CLR 04/M02 A3020 60 62 -1100 000/00 RMK AO2 SLP224 T00441022
53843K79J 79J20160118020009901/18/16 02:00:31  5-MIN K79J 180700Z AUTO 34003KT 10SM CLR 04/M02 A3020 60 64 -1100 340/03 RMK AO2
53843K79J 79J20160118020509901/18/16 02:05:31  5-MIN K79J 180705Z AUTO 35003KT 10SM CLR 04/M02 A3020 60 67 -1200 350/03 RMK AO2
53843K79J 79J20160118021009901/18/16 02:10:31  5-MIN K79J 180710Z AUTO 00000KT 10SM CLR 03/M02 A3020 60 70 -1300 000/00 RMK AO2
53843K79J 79J20160118122510501/18/16 12:25:31  5-MIN K79J 181725Z AUTO 31007G14KT 10SM CLR 11/M03 A3032 -50 39 -500 310/07G14 RMK AO2
53843K79J 79J20160118123009901/18/16 12:30:31  5-MIN K79J 181730Z AUTO 34010KT 10SM CLR 11/M02 A3032 -50 39 -400 340/10 RMK AO2
53843K79J 79J20160118123509901/18/16 12:35:31  5-MIN K79J 181735Z AUTO 35007KT 10SM CLR 12/M02 A3032 -50 38 -400 350/07 RMK AO2
53843K79J 79J20160118124009901/18/16 12:40:31  5-MIN K79J 181740Z AUTO 31007KT 10SM CLR 11/M02 A3032 -50 39 -400 310/07 RMK AO2
53843K79J 79J20160118124509901/18/16 12:45:31  5-MIN K79J 181745Z AUTO 32008KT 10SM CLR 12/M02 A3031 -40 38 -400 320/08 RMK AO2
53843K79J 79J20160118125014001/18/16 12:50:31  5-MIN K79J 181750Z AUTO 33011G16KT 10SM CLR 12/M03 A3031 -40 36 -400 330/11G16 RMK AO2 SLP263 T01171028 10117 20000 51027
53843K79J 79J20160118125514001/18/16 12:55:31  5-MIN K79J 181755Z AUTO 31010G16KT 10SM CLR 12/M03 A3031 -40 36 -400 320/10G16 RMK AO2 SLP262 T01171028 10117 20000 51027
53843K79J 79J20160118130010501/18/16 13:00:31  5-MIN K79J 181800Z AUTO 34009G15KT 10SM CLR 12/M02 A3031 -40 38 -400 340/09G15 RMK AO2
53843K79J 79J20160118130512101/18/16 13:05:31  5-MIN K79J 181805Z AUTO 32007G15KT 300V020 10SM CLR 12/M02 A3030 -30 36 -300 320/07G15 300V020 RMK AO2
53843K79J 79J20160118131010501/18/16 13:10:31  5-MIN K79J 181810Z AUTO 32009G15KT 10SM CLR 12/M03 A3030 -30 35 -300 330/09G15 RMK AO2
53843K79J 79J20160118131512101/18/16 13:15:31  5-MIN K79J 181815Z AUTO 32009G15KT 300V010 10SM CLR 12/M02 A3030 -30 36 -300 320/09G15 300V010 RMK AO2
53843K79J 79J20160118132010501/18/16 13:20:31  5-MIN K79J 181820Z AUTO 32011G16KT 10SM CLR 12/M02 A3029 -30 36 -300 320/11G16 RMK AO2
53843K79J 79J20160118132510501/18/16 13:25:31  5-MIN K79J 181825Z AUTO 33008G16KT 10SM CLR 12/M02 A3029 -30 36 -300 330/08G16 RMK AO2
53843K79J 79J20160118133010501/18/16 13:30:31  5-MIN K79J 181830Z AUTO 32012G18KT 10SM CLR 12/M02 A3029 -20 36 -300 320/12G18 RMK AO2
53843K79J 79J20160118133510501/18/16 13:35:31  5-MIN K79J 181835Z AUTO 31011G18KT 10SM CLR 13/M02 A3029 -20 35 -200 310/11G18 RMK AO2
53843K79J 79J20160118134010501/18/16 13:40:31  5-MIN K79J 181840Z AUTO 31014G17KT 10SM CLR 13/M02 A3029 -20 35 -200 320/14G17 RMK AO2
53843K79J 79J20160118134510501/18/16 13:45:31  5-MIN K79J 181845Z AUTO 35010G17KT 10SM CLR 13/M03 A3028 -20 33 -200 350/10G17 RMK AO2
53843K79J 79J20160118135012201/18/16 13:50:31  5-MIN K79J 181850Z AUTO 32014G21KT 10SM CLR 13/M02 A3029 -20 35 -200 320/14G21 RMK AO2 SLP254 T01281022
53843K79J 79J20160118135512201/18/16 13:55:31  5-MIN K79J 181855Z AUTO 33010G21KT 10SM CLR 13/M03 A3028 -20 33 -200 330/10G21 RMK AO2 SLP254 T01281028
53843K79J 79J20160118140010501/18/16 14:00:31  5-MIN K79J 181900Z AUTO 33012G22KT 10SM CLR 13/M02 A3028 -20 34 -100 340/12G22 RMK AO2
53843K79J 79J20160118140510501/18/16 14:05:31  5-MIN K79J 181905Z AUTO 33012G22KT 10SM CLR 13/M02 A3028 -20 34 -100 330/12G22 RMK AO2
53843K79J 79J20160118141009901/18/16 14:10:31  5-MIN K79J 181910Z AUTO 32012KT 10SM CLR 13/M02 A3028 -10 34 -100 320/12 RMK AO2
53843K79J 79J20160118141509901/18/16 14:15:31  5-MIN K79J 181915Z AUTO 33010KT 10SM CLR 13/M02 A3028 -10 35 -200 330/10 RMK AO2
53843K79J 79J20160118142010501/18/16 14:20:31  5-MIN K79J 181920Z AUTO 36011G17KT 10SM CLR 13/M02 A3028 -10 34 -100 360/11G17 RMK AO2
53843K79J 79J20160118142510501/18/16 14:25:31  5-MIN K79J 181925Z AUTO 34012G17KT 10SM CLR 13/M02 A3028 -10 34 -100 340/12G17 RMK AO2
53843K79J 79J20160118143010501/18/16 14:30:31  5-MIN K79J 181930Z AUTO 31013G20KT 10SM CLR 13/M02 A3028 -10 35 -200 320/13G20 RMK AO2
53843K79J 79J20160118143510501/18/16 14:35:31  5-MIN K79J 181935Z AUTO 33013G20KT 10SM CLR 13/M02 A3027 -10 34 -100 330/13G20 RMK AO2
53843K79J 79J20160118144010501/18/16 14:40:31  5-MIN K79J 181940Z AUTO 35013G19KT 10SM CLR 13/M02 A3027 -10 34 -100 360/13G19 RMK AO2
53843K79J 79J20160118144510501/18/16 14:45:31  5-MIN K79J 181945Z AUTO 33011G19KT 10SM CLR 13/M02 A3027 -10 34 -100 330/11G19 RMK AO2
53843K79J 79J20160118145011601/18/16 14:50:31  5-MIN K79J 181950Z AUTO 33012KT 10SM CLR 13/M02 A3027 -10 34 -100 340/12 RMK AO2 SLP250 T01331022
53843K79J 79J20160118145511601/18/16 14:55:31  5-MIN K79J 181955Z AUTO 01011KT 10SM CLR 13/M02 A3027 -10 34 -100 010/11 RMK AO2 SLP251 T01331022
53843K79J 79J20160118150010501/18/16 15:00:31  5-MIN K79J 182000Z AUTO 36010G17KT 10SM CLR 13/M02 A3027 -10 34 -100 010/10G17 RMK AO2
53843K79J 79J20160118150509901/18/16 15:05:31  5-MIN K79J 182005Z AUTO 34013KT 10SM CLR 13/M02 A3028 -10 34 -100 340/13 RMK AO2
53843K79J 79J20160118151009901/18/16 15:10:31  5-MIN K79J 182010Z AUTO 33010KT 10SM CLR 13/M02 A3028 -10 34 -100 330/10 RMK AO2
53843K79J 79J20160118151509901/18/16 15:15:31  5-MIN K79J 182015Z AUTO 35008KT 10SM CLR 13/M02 A3027 -10 34 -100 350/08 RMK AO2
53843K79J 79J20160118152009901/18/16 15:20:31  5-MIN K79J 182020Z AUTO 33011KT 10SM CLR 13/M02 A3027 -10 34 -100 340/11 RMK AO2
53843K79J 79J20160118152510501/18/16 15:25:31  5-MIN K79J 182025Z AUTO 34012G15KT 10SM CLR 13/M02 A3027 -10 34 -100 340/12G15 RMK AO2
53843K79J 79J20160118153010501/18/16 15:30:31  5-MIN K79J 182030Z AUTO 34010G15KT 10SM CLR 13/M02 A3027 -10 35 -100 350/10G15 RMK AO2
53843K79J 79J20160118153509901/18/16 15:35:31  5-MIN K79J 182035Z AUTO 35010KT 10SM CLR 13/M02 A3027 -10 34 -100 350/10 RMK AO2
53843K79J 79J20160118154009901/18/16 15:40:31  5-MIN K79J 182040Z AUTO 35010KT 10SM CLR 13/M02 A3027 -10 34 -100 350/10 RMK AO2
53843K79J 79J20160118154509901/18/16 15:45:31  5-MIN K79J 182045Z AUTO 35008KT 10SM CLR 13/M02 A3027 -10 35 -100 350/08 RMK AO2
53843K79J 79J20160118155012201/18/16 15:50:31  5-MIN K79J 182050Z AUTO 35010KT 10SM CLR 13/M02 A3027 -10 34 -100 350/10 RMK AO2 SLP251 T01331022 58003
53843K79J 79J20160118155512201/18/16 15:55:31  5-MIN K79J 182055Z AUTO 33011KT 10SM CLR 13/M02 A3028 -10 35 -100 330/11 RMK AO2 SLP251 T01331017 58003
53843K79J 79J20160118160010501/18/16 16:00:31  5-MIN K79J 182100Z AUTO 36013G16KT 10SM CLR 13/M02 A3028 -10 34 -100 360/13G16 RMK AO2
53843K79J 79J20160118160509901/18/16 16:05:31  5-MIN K79J 182105Z AUTO 36011KT 10SM CLR 13/M02 A3028 -10 35 -200 360/11 RMK AO2
53843K79J 79J20160118161009901/18/16 16:10:31  5-MIN K79J 182110Z AUTO 35010KT 10SM CLR 13/M02 A3028 -10 36 -200 360/10 RMK AO2
53843K79J 79J20160118161510501/18/16 16:15:31  5-MIN K79J 182115Z AUTO 35010G16KT 10SM CLR 13/M02 A3028 -10 34 -100 360/10G16 RMK AO2
53843K79J 79J20160118162010501/18/16 16:20:31  5-MIN K79J 182120Z AUTO 36010G17KT 10SM CLR 13/M02 A3028 -10 36 -200 360/10G17 RMK AO2
53843K79J 79J20160118162510501/18/16 16:25:31  5-MIN K79J 182125Z AUTO 36013G17KT 10SM CLR 13/M02 A3028 -10 35 -200 010/13G17 RMK AO2
53843K79J 79J20160118163009901/18/16 16:30:31  5-MIN K79J 182130Z AUTO 32012KT 10SM CLR 13/M02 A3028 -20 35 -200 320/12 RMK AO2
53843K79J 79J20160118163510501/18/16 16:35:31  5-MIN K79J 182135Z AUTO 35007G17KT 10SM CLR 13/M02 A3028 -20 36 -200 350/07G17 RMK AO2
53843K79J 79J20160118164009901/18/16 16:40:31  5-MIN K79J 182140Z AUTO 35008KT 10SM CLR 13/M02 A3029 -20 36 -200 360/08 RMK AO2
53843K79J 79J20160118164509901/18/16 16:45:31  5-MIN K79J 182145Z AUTO 02008KT 10SM CLR 13/M02 A3029 -20 36 -200 020/08 RMK AO2
53843K79J 79J20160118165011601/18/16 16:50:31  5-MIN K79J 182150Z AUTO 01010KT 10SM CLR 12/M02 A3029 -20 38 -300 010/10 RMK AO2 SLP256 T01221017
53843K79J 79J20160118165511601/18/16 16:55:31  5-MIN K79J 182155Z AUTO 36010KT 10SM CLR 12/M02 A3029 -20 38 -300 360/10 RMK AO2 SLP256 T01221017
53843K79J 79J20160118170009901/18/16 17:00:31  5-MIN K79J 182200Z AUTO 36008KT 10SM CLR 12/M02 A3029 -30 38 -300 010/08 RMK AO2
53843K79J 79J20160118170509901/18/16 17:05:31  5-MIN K79J 182205Z AUTO 36009KT 10SM CLR 12/M02 A3029 -30 38 -300 360/09 RMK AO2
53843K79J 79J20160118171009901/18/16 17:10:31  5-MIN K79J 182210Z AUTO 02009KT 10SM CLR 12/M02 A3030 -30 38 -300 020/09 RMK AO2
53843K79J 79J20160118171509901/18/16 17:15:31  5-MIN K79J 182215Z AUTO 35010KT 10SM CLR 12/M02 A3030 -30 39 -400 350/10 RMK AO2
53843K79J 79J20160118172009901/18/16 17:20:31  5-MIN K79J 182220Z AUTO 35010KT 10SM CLR 12/M02 A3030 -30 38 -400 350/10 RMK AO2
53843K79J 79J20160118172510501/18/16 17:25:31  5-MIN K79J 182225Z AUTO 35011G15KT 10SM CLR 11/M02 A3031 -40 41 -400 360/11G15 RMK AO2
53843K79J 79J20160118173010501/18/16 17:30:31  5-MIN K79J 182230Z AUTO 36009G15KT 10SM CLR 11/M02 A3031 -40 41 -400 360/09G15 RMK AO2
53843K79J 79J20160118173509901/18/16 17:35:31  5-MIN K79J 182235Z AUTO 35008KT 10SM CLR 11/M02 A3031 -40 39 -400 360/08 RMK AO2
53843K79J 79J20160118174009901/18/16 17:40:31  5-MIN K79J 182240Z AUTO 35008KT 10SM CLR 11/M02 A3031 -40 42 -500 350/08 RMK AO2
53843K79J 79J20160118174510501/18/16 17:45:31  5-MIN K79J 182245Z AUTO 35011G16KT 10SM CLR 11/M02 A3031 -40 40 -500 350/11G16 RMK AO2
53843K79J 79J20160118175012201/18/16 17:50:31  5-MIN K79J 182250Z AUTO 36007G16KT 10SM CLR 10/M02 A3031 -50 42 -600 360/07G16 RMK AO2 SLP265 T01001022
53843K79J 79J20160118175511601/18/16 17:55:31  5-MIN K79J 182255Z AUTO 35008KT 10SM CLR 10/M02 A3031 -40 44 -600 350/08 RMK AO2 SLP265 T01001017
53843K79J 79J20160118180009901/18/16 18:00:31  5-MIN K79J 182300Z AUTO 35008KT 10SM CLR 10/M02 A3031 -50 44 -600 360/08 RMK AO2
53843K79J 79J20160118180509901/18/16 18:05:31  5-MIN K79J 182305Z AUTO 36007KT 10SM CLR 09/M02 A3032 -50 45 -600 360/07 RMK AO2
53843K79J 79J20160118181009901/18/16 18:10:31  5-MIN K79J 182310Z AUTO 36007KT 10SM CLR 09/M02 A3032 -50 45 -600 360/07 RMK AO2
53843K79J 79J20160118181509901/18/16 18:15:31  5-MIN K79J 182315Z AUTO 36006KT 10SM CLR 09/M02 A3032 -50 45 -600 360/06 RMK AO2
53843K79J 79J20160118182009901/18/16 18:20:31  5-MIN K79J 182320Z AUTO 36006KT 10SM CLR 09/M02 A3032 -50 47 -700 360/06 RMK AO2
53843K79J 79J20160118182509901/18/16 18:25:31  5-MIN K79J 182325Z AUTO 36006KT 10SM CLR 09/M02 A3033 -60 47 -700 360/06 RMK AO2
53843K79J 79J20160118183009901/18/16 18:30:31  5-MIN K79J 182330Z AUTO 36006KT 10SM CLR 08/M02 A3033 -60 49 -800 360/06 RMK AO2
53843K79J 79J20160118183509901/18/16 18:35:31  5-MIN K79J 182335Z AUTO 35006KT 10SM CLR 08/M02 A3033 -60 49 -800 360/06 RMK AO2
53843K79J 79J20160118184009901/18/16 18:40:31  5-MIN K79J 182340Z AUTO 36005KT 10SM CLR 08/M02 A3033 -60 49 -800 360/05 RMK AO2
53843K79J 79J20160118184509901/18/16 18:45:31  5-MIN K79J 182345Z AUTO 35004KT 10SM CLR 08/M02 A3033 -60 49 -800 360/04 RMK AO2
53843K79J 79J20160118185013401/18/16 18:50:31  5-MIN K79J 182350Z AUTO 35005KT 10SM CLR 08/M02 A3034 -70 51 -900 350/05 RMK AO2 SLP273 T00781017 10133 20078 55010
53843K79J 79J20160118185513401/18/16 18:55:31  5-MIN K79J 182355Z AUTO 35006KT 10SM CLR 08/M02 A3034 -70 51 -900 350/06 RMK AO2 SLP274 T00781017 10133 20078 55010
53843K79J 79J20160118190009901/18/16 19:00:31  5-MIN K79J 190000Z AUTO 35006KT 10SM CLR 08/M02 A3034 -70 51 -900 350/06 RMK AO2
53843K79J 79J20160118190509901/18/16 19:05:31  5-MIN K79J 190005Z AUTO 34005KT 10SM CLR 08/M02 A3034 -70 51 -900 350/05 RMK AO2
53843K79J 79J20160118191009901/18/16 19:10:31  5-MIN K79J 190010Z AUTO 35005KT 10SM CLR 08/M02 A3034 -70 51 -900 350/05 RMK AO2
53843K79J 79J20160118191509901/18/16 19:15:31  5-MIN K79J 190015Z AUTO 35005KT 10SM CLR 07/M02 A3034 -70 53 -900 350/05 RMK AO2
53843K79J 79J20160118192009901/18/16 19:20:31  5-MIN K79J 190020Z AUTO 35004KT 10SM CLR 07/M02 A3035 -70 53 -900 350/04 RMK AO2
53843K79J 79J20160118192509901/18/16 19:25:31  5-MIN K79J 190025Z AUTO 34004KT 10SM CLR 07/M02 A3035 -70 53 -900 340/04 RMK AO2
53843K79J 79J20160118193009901/18/16 19:30:31  5-MIN K79J 190030Z AUTO 35004KT 10SM CLR 07/M02 A3035 -80 53 -900 350/04 RMK AO2
53843K79J 79J20160118193510001/18/16 19:35:31  5-MIN K79J 190035Z AUTO 36004KT 10SM CLR 07/M02 A3035 -80 55 -1000 360/04 RMK AO2
53843K79J 79J20160118194010001/18/16 19:40:31  5-MIN K79J 190040Z AUTO 35004KT 10SM CLR 07/M02 A3035 -80 55 -1000 350/04 RMK AO2
53843K79J 79J20160118194510001/18/16 19:45:31  5-MIN K79J 190045Z AUTO 35004KT 10SM CLR 07/M02 A3035 -80 55 -1000 360/04 RMK AO2
53843K79J 79J20160118195011701/18/16 19:50:31  5-MIN K79J 190050Z AUTO 36004KT 10SM CLR 07/M02 A3035 -80 55 -1000 360/04 RMK AO2 SLP278 T00671017
53843K79J 79J20160118195511701/18/16 19:55:31  5-MIN K79J 190055Z AUTO 36004KT 10SM CLR 07/M02 A3035 -80 55 -1000 360/04 RMK AO2 SLP279 T00671017
53843K79J 79J20160118200010001/18/16 20:00:31  5-MIN K79J 190100Z AUTO 36004KT 10SM CLR 07/M02 A3035 -80 55 -1000 360/04 RMK AO2
53843K79J 79J20160118200510001/18/16 20:05:31  5-MIN K79J 190105Z AUTO 36005KT 10SM CLR 06/M02 A3036 -80 57 -1100 360/05 RMK AO2
53843K79J 79J20160118201010001/18/16 20:10:31  5-MIN K79J 190110Z AUTO 35004KT 10SM CLR 06/M02 A3036 -90 57 -1100 350/04 RMK AO2
53843K79J 79J20160118201510001/18/16 20:15:31  5-MIN K79J 190115Z AUTO 35003KT 10SM CLR 06/M02 A3036 -90 57 -1100 360/03 RMK AO2
53843K79J 79J20160118202010001/18/16 20:20:31  5-MIN K79J 190120Z AUTO 36004KT 10SM CLR 06/M02 A3036 -90 57 -1100 360/04 RMK AO2
53843K79J 79J20160118202510001/18/16 20:25:31  5-MIN K79J 190125Z AUTO 01003KT 10SM CLR 06/M02 A3036 -90 57 -1100 010/03 RMK AO2
53843K79J 79J20160118203010001/18/16 20:30:31  5-MIN K79J 190130Z AUTO 36004KT 10SM CLR 06/M02 A3037 -90 57 -1100 360/04 RMK AO2
53843K79J 79J20160118203510101/18/16 20:35:31  5-MIN K79J 190135Z AUTO 36004KT 10SM CLR 06/M02 A3037 -100 57 -1100 360/04 RMK AO2
53843K79J 79J20160118204010101/18/16 20:40:31  5-MIN K79J 190140Z AUTO 36004KT 10SM CLR 06/M02 A3037 -100 59 -1200 360/04 RMK AO2
53843K79J 79J20160118204510101/18/16 20:45:31  5-MIN K79J 190145Z AUTO 36004KT 10SM CLR 06/M02 A3037 -100 59 -1200 010/04 RMK AO2
53843K79J 79J20160118205011801/18/16 20:50:31  5-MIN K79J 190150Z AUTO 36004KT 10SM CLR 06/M02 A3038 -100 59 -1200 360/04 RMK AO2 SLP286 T00561017
53843K79J 79J20160118205511801/18/16 20:55:31  5-MIN K79J 190155Z AUTO 36004KT 10SM CLR 06/M02 A3038 -100 59 -1200 360/04 RMK AO2 SLP286 T00561017
53843K79J 79J20160118210010101/18/16 21:00:31  5-MIN K79J 190200Z AUTO 35003KT 10SM CLR 06/M02 A3038 -100 57 -1200 360/03 RMK AO2
53843K79J 79J20160118210510101/18/16 21:05:31  5-MIN K79J 190205Z AUTO 36004KT 10SM CLR 06/M02 A3038 -110 57 -1200 360/04 RMK AO2
53843K79J 79J20160118211010101/18/16 21:10:31  5-MIN K79J 190210Z AUTO 36003KT 10SM CLR 06/M02 A3038 -110 57 -1200 010/03 RMK AO2
53843K79J 79J20160118211510101/18/16 21:15:31  5-MIN K79J 190215Z AUTO 36003KT 10SM CLR 06/M02 A3038 -110 57 -1200 360/03 RMK AO2
53843K79J 79J20160118212010101/18/16 21:20:31  5-MIN K79J 190220Z AUTO 36003KT 10SM CLR 06/M02 A3038 -110 57 -1200 360/03 RMK AO2
53843K79J 79J20160118212510101/18/16 21:25:31  5-MIN K79J 190225Z AUTO 34003KT 10SM CLR 05/M02 A3038 -110 59 -1300 350/03 RMK AO2
53843K79J 79J20160121171513101/21/16 17:15:31  5-MIN K79J 212215Z AUTO 15005KT 2 1/2SM RA BKN006 OVC010 17/14 A2997 270 83 600 150/05 RMK AO2 CIG 004V008 P0001
53843K79J 79J20160121172012701/21/16 17:20:31  5-MIN K79J 212220Z AUTO 14008KT 2SM RA BKN006 OVC010 17/14 A2997 270 83 600 150/08 RMK AO2 CIG 004V008 P0002
53843K79J 79J20160121172513401/21/16 17:25:31  5-MIN K79J 212225Z AUTO 15005KT 1 3/4SM RA BR BKN006 OVC013 16/14 A2997 260 86 500 150/05 RMK AO2 CIG 004V010 P0003
53843K79J 79J20160121173013401/21/16 17:30:31  5-MIN K79J 212230Z AUTO 15006KT 1 3/4SM RA BR BKN006 OVC010 16/14 A2997 260 86 500 150/06 RMK AO2 CIG 002V008 P0004
53843K79J 79J20160121173511901/21/16 17:35:31  5-MIN K79J 212235Z AUTO VRB04KT 2SM +RA BR BKN006 OVC010 16/14 A2997 260 86 500 VRB/04 RMK AO2 P0006
53843K79J 79J20160121174012201/21/16 17:40:31  5-MIN K79J 212240Z AUTO 14005KT 1 3/4SM RA BR BKN004 OVC010 16/14 A2997 260 86 500 140/05 RMK AO2 P0007
53843K79J 79J20160121174511501/21/16 17:45:31  5-MIN K79J 212245Z AUTO 14004KT 1 1/2SM RA BR OVC004 16/14 A2997 270 86 500 140/04 RMK AO2 P0008
53843K79J 79J20160121175013201/21/16 17:50:31  5-MIN K79J 212250Z AUTO 15005KT 1 3/4SM RA BR OVC004 16/14 A2997 270 86 500 150/05 RMK AO2 SLP147 P0009 T01610139
53843K79J 79J20160121175513201/21/16 17:55:31  5-MIN K79J 212255Z AUTO 14005KT 1 1/2SM RA BR OVC004 16/14 A2997 270 86 500 140/05 RMK AO2 SLP145 P0010 T01610139
53843K79J 79J20160121180012301/21/16 18:00:31  5-MIN K79J 212300Z AUTO 15007KT 1 1/2SM +RA BR BKN004 OVC013 16/14 A2996 270 86 500 150/07 RMK AO2 P0000
53843K79J 79J20160121180512601/21/16 18:05:31  5-MIN K79J 212305Z AUTO 15006KT 2SM -RA BR BKN004 BKN011 OVC026 16/14 A2996 270 86 500 150/06 RMK AO2 P0001
53843K79J 79J20160121181012601/21/16 18:10:31  5-MIN K79J 212310Z AUTO 15008KT 3SM -RA BR SCT004 BKN007 OVC026 16/14 A2996 280 86 500 150/08 RMK AO2 P0001
53843K79J 79J20160121181511601/21/16 18:15:31  5-MIN K79J 212315Z AUTO 14008KT 4SM -RA BKN004 OVC011 17/14 A2996 280 83 600 150/08 RMK AO2 P0001
53843K79J 79J20160121182012901/21/16 18:20:31  5-MIN K79J 212320Z AUTO 14009G15KT 7SM -RA SCT004 BKN008 OVC013 17/14 A2995 290 83 600 150/09G15 RMK AO2 P0002
53843K79J 79J20160121182512901/21/16 18:25:31  5-MIN K79J 212325Z AUTO 15009G16KT 9SM -RA BKN006 BKN013 OVC025 17/14 A2995 290 83 600 150/09G16 RMK AO2 P0002
53843K79J 79J20160121183013001/21/16 18:30:31  5-MIN K79J 212330Z AUTO 15008G16KT 10SM -RA BKN008 BKN013 OVC038 17/14 A2995 290 83 600 150/08G16 RMK AO2 P0002
53843K79J 79J20160121183514201/21/16 18:35:31  5-MIN K79J 212335Z AUTO 15008G16KT 10SM -RA BKN008 BKN013 OVC047 17/14 A2994 290 83 600 150/08G16 RMK AO2 CIG 004V011 P0002
53843K79J 79J20160121184012901/21/16 18:40:31  5-MIN K79J 212340Z AUTO 15006G15KT 9SM -RA SCT006 BKN010 OVC047 17/14 A2994 290 83 600 150/06G15 RMK AO2 P0002
53843K79J 79J20160121184512901/21/16 18:45:31  5-MIN K79J 212345Z AUTO 15009G15KT 5SM -RA SCT006 BKN013 OVC047 17/14 A2994 290 83 600 160/09G15 RMK AO2 P0002
53843K79J 79J20160121185012501/21/16 18:50:31  5-MIN K79J 212350Z AUTO VRB06KT 3SM RA BR SCT009 BKN028 OVC047 16/14 A2993 300 86 500 VRB/06 RMK AO2 P0003
53843K79J 79J20160121185516601/21/16 18:55:31  5-MIN K79J 212355Z AUTO 15006KT 3SM RA BR SCT006 BKN024 OVC035 16/14 A2993 300 86 500 150/06 RMK AO2 SLP134 P0004 60039 T01610139 10167 20156 58018
53843K79J 79J20160121190012501/21/16 19:00:31  5-MIN K79J 220000Z AUTO 22004KT 3SM RA BR SCT006 BKN020 OVC035 16/14 A2994 290 86 500 220/04 RMK AO2 P0001
53843K79J 79J20160121190514201/21/16 19:05:31  5-MIN K79J 220005Z AUTO 15007KT 130V200 3SM +RA BR BKN006 BKN018 OVC035 16/14 A2993 300 86 500 150/07 130V200 RMK AO2 P0002
53843K79J 79J20160121191012601/21/16 19:10:31  5-MIN K79J 220010Z AUTO VRB04KT 5SM -RA BR BKN006 BKN024 OVC035 16/14 A2994 290 86 500 VRB/04 RMK AO2 P0002
53843K79J 79J20160121191511601/21/16 19:15:31  5-MIN K79J 220015Z AUTO 15008KT 7SM -RA BKN006 OVC024 16/14 A2993 300 86 500 150/08 RMK AO2 P0003
53843K79J 79J20160121192013501/21/16 19:20:31  5-MIN K79J 220020Z AUTO 15007KT 8SM -RA BKN006 BKN024 OVC042 17/14 A2993 300 83 600 150/07 RMK AO2 CIG 003V010 P0003
53843K79J 79J20160121192513601/21/16 19:25:31  5-MIN K79J 220025Z AUTO 16005KT 10SM -RA BKN006 BKN021 OVC028 17/14 A2993 300 83 600 160/05 RMK AO2 CIG 003V010 P0003
53843K79J 79J20160121193013401/21/16 19:30:31  5-MIN K79J 220030Z AUTO 16006KT 8SM RA BKN006 BKN024 OVC030 17/14 A2993 300 83 600 160/06 RMK AO2 CIG 004V010 P0005
53843K79J 79J20160121193513501/21/16 19:35:31  5-MIN K79J 220035Z AUTO VRB04KT 5SM +RA BKN006 BKN022 OVC030 17/14 A2994 300 83 600 VRB/04 RMK AO2 CIG 004V010 P0006
53843K79J 79J20160121194012701/21/16 19:40:31  5-MIN K79J 220040Z AUTO VRB03KT 6SM RA BKN006 OVC028 17/14 A2993 300 83 600 VRB/03 RMK AO2 CIG 004V010 P0007
53843K79J 79J20160121194512801/21/16 19:45:31  5-MIN K79J 220045Z AUTO 16005KT 9SM -RA BKN006 OVC028 17/14 A2993 300 83 600 170/05 RMK AO2 CIG 004V010 P0007
53843K79J 79J20160121195013701/21/16 19:50:31  5-MIN K79J 220050Z AUTO 15006KT 7SM RA OVC006 17/14 A2992 310 83 600 150/06 RMK AO2 CIG 004V010 SLP130 P0008 T01670139
53843K79J 79J20160121195514001/21/16 19:55:31  5-MIN K79J 220055Z AUTO 15008KT 4SM RA BR OVC006 17/14 A2992 310 86 600 150/08 RMK AO2 CIG 004V010 SLP129 P0009 T01670144
53843K79J 79J20160121200013101/21/16 20:00:31  5-MIN K79J 220100Z AUTO 15008KT 4SM +RA BR BKN006 OVC029 17/14 A2992 310 86 600 150/08 RMK AO2 CIG 002V012 P0001
53843K79J 79J20160121200513701/21/16 20:05:31  5-MIN K79J 220105Z AUTO 15008KT 5SM RA BR BKN006 OVC029 17/14 A2991 320 86 600 150/08 RMK AO2 CIG 002V009 PRESFR P0001
53843K79J 79J20160121201012501/21/16 20:10:31  5-MIN K79J 220110Z AUTO 15009KT 6SM RA BR BKN006 BKN029 OVC050 17/14 A2991 330 86 600 150/09 RMK AO2 P0002
53843K79J 79J20160121201512601/21/16 20:15:31  5-MIN K79J 220115Z AUTO 15006KT 6SM +RA BR BKN004 BKN029 OVC050 17/14 A2991 320 86 600 150/06 RMK AO2 P0004
53843K79J 79J20160121202011501/21/16 20:20:31  5-MIN K79J 220120Z AUTO 16006KT 7SM RA BKN004 OVC029 17/14 A2991 320 86 600 160/06 RMK AO2 P0004
53843K79J 79J20160121202511901/21/16 20:25:31  5-MIN K79J 220125Z AUTO VRB04KT 5SM -RA BR BKN004 OVC027 17/14 A2991 320 86 600 VRB/04 RMK AO2 P0006
53843K79J 79J20160121203012601/21/16 20:30:31  5-MIN K79J 220130Z AUTO 16005KT 4SM +RA BR BKN004 BKN037 OVC047 17/14 A2991 320 86 600 160/05 RMK AO2 P0007
53843K79J 79J20160121203512601/21/16 20:35:31  5-MIN K79J 220135Z AUTO VRB04KT 5SM +RA BR BKN004 BKN024 OVC037 17/14 A2991 320 86 600 VRB/04 RMK AO2 P0010
53843K79J 79J20160121204012601/21/16 20:40:31  5-MIN K79J 220140Z AUTO VRB05KT 3SM +RA BR BKN004 BKN022 OVC037 17/14 A2991 320 86 600 VRB/05 RMK AO2 P0015
53843K79J 79J20160121204512601/21/16 20:45:31  5-MIN K79J 220145Z AUTO 17004KT 3SM +RA BR BKN004 BKN020 OVC029 17/14 A2990 330 86 600 170/04 RMK AO2 P0017
53843K79J 79J20160121205014301/21/16 20:50:31  5-MIN K79J 220150Z AUTO 15006KT 4SM +RA BR BKN004 BKN020 OVC037 17/14 A2990 330 86 600 150/06 RMK AO2 SLP121 P0019 T01670144
53843K79J 79J20160121205514301/21/16 20:55:31  5-MIN K79J 220155Z AUTO 15004KT 5SM -RA BR BKN004 BKN020 OVC039 17/14 A2989 340 86 700 150/04 RMK AO2 SLP120 P0019 T01670144
53843K79J 79J20160121210012601/21/16 21:00:31  5-MIN K79J 220200Z AUTO 15006KT 4SM +RA BR BKN004 BKN016 OVC025 17/14 A2989 340 86 700 150/06 RMK AO2 P0003
53843K79J 79J20160121210512601/21/16 21:05:31  5-MIN K79J 220205Z AUTO 14006KT 4SM +RA BR BKN004 BKN016 OVC027 17/14 A2988 350 86 700 150/06 RMK AO2 P0004
53843K79J 79J20160121211013301/21/16 21:10:31  5-MIN K79J 220210Z AUTO 15007KT 6SM -RA BR BKN004 BKN018 OVC029 17/14 A2988 350 86 700 150/07 RMK AO2 PRESFR P0004
53843K79J 79J20160121211512401/21/16 21:15:31  5-MIN K79J 220215Z AUTO 16006KT 10SM -RA BKN004 BKN008 OVC018 17/14 A2988 350 86 700 160/06 RMK AO2 P0004
53843K79J 79J20160121212012201/21/16 21:20:31  5-MIN K79J 220220Z AUTO 15008KT 10SM -RA OVC006 17/14 A2987 360 83 700 150/08 RMK AO2 CIG 003V010 P0004
53843K79J 79J20160121212513401/21/16 21:25:31  5-MIN K79J 220225Z AUTO VRB06G14KT 6SM +RA BKN006 OVC014 17/14 A2987 360 83 700 VRB/06G14 RMK AO2 CIG 003V009 P0006
53843K79J 79J20160121213014101/21/16 21:30:31  5-MIN K79J 220230Z AUTO 15010G17KT 4SM +RA BKN006 OVC010 17/14 A2986 370 83 800 150/10G17 RMK AO2 CIG 003V007 PRESFR P0007
53843K79J 79J20160121213513401/21/16 21:35:31  5-MIN K79J 220235Z AUTO 15009G17KT 5SM +RA BKN006 OVC010 17/14 A2985 380 83 800 160/09G17 RMK AO2 CIG 004V008 P0009
53843K79J 79J20160121214014301/21/16 21:40:31  5-MIN K79J 220240Z AUTO 16008G17KT 6SM RA BR BKN006 OVC012 17/15 A2985 380 87 800 160/08G17 RMK AO2 CIG 004V009 PRESFR P0009
53843K79J 79J20160121214513301/21/16 21:45:31  5-MIN K79J 220245Z AUTO 16011G19KT 8SM RA BKN006 OVC012 17/15 A2984 380 87 800 170/11G19 RMK AO2 CIG 004V009 P0010
53843K79J 79J20160121215017001/21/16 21:50:31  5-MIN K79J 220250Z AUTO 16007G19KT 8SM TSRA BKN009 OVC014 17/15 A2985 380 87 800 170/07G19 RMK AO2 TSB46 CIG 005V011 SLP104 P0011 60039 T01720150 55012
53843K79J 79J20160121215517301/21/16 21:55:31  5-MIN K79J 220255Z AUTO 17010G18KT 6SM TSRA BR BKN009 OVC014 17/15 A2984 390 87 800 170/10G18 RMK AO2 TSB46 CIG 005V010 SLP101 P0012 60040 T01720150 55012
53843K79J 79J20160121220012601/21/16 22:00:31  5-MIN K79J 220300Z AUTO 17009G18KT 6SM TSRA BR SCT009 OVC014 17/15 A2984 390 87 800 170/09G18 RMK AO2 P0000
53843K79J 79J20160121220513401/21/16 22:05:31  5-MIN K79J 220305Z AUTO 15009G17KT 7SM RA SCT009 BKN012 OVC070 17/15 A2983 400 87 800 150/09G17 RMK AO2 TSE02 P0001
53843K79J 79J20160121221014301/21/16 22:10:31  5-MIN K79J 220310Z AUTO 16008G18KT 140V210 8SM RA BKN011 OVC075 17/14 A2984 390 83 800 160/08G18 140V210 RMK AO2 TSE02 P0002
53843K79J 79J20160121221513501/21/16 22:15:31  5-MIN K79J 220315Z AUTO 15011G18KT 9SM -RA BKN009 BKN015 OVC060 17/14 A2982 400 83 800 150/11G18 RMK AO2 TSE02 P0002
53843K79J 79J20160121222012701/21/16 22:20:31  5-MIN K79J 220320Z AUTO 15008G19KT 8SM RA BKN011 OVC060 17/14 A2982 410 83 800 150/08G19 RMK AO2 TSE02 P0003
53843K79J 79J20160121222515601/21/16 22:25:31  5-MIN K79J 220325Z AUTO 16011G20KT 130V190 9SM -TSRA BKN010 BKN015 OVC060 17/15 A2983 400 87 800 160/11G20 130V190 RMK AO2 TSE02B25 P0003
53843K79J 79J20160121223014101/21/16 22:30:31  5-MIN K79J 220330Z AUTO 15009G20KT 10SM -TSRA BKN010 BKN020 OVC060 17/14 A2982 410 83 800 160/09G20 RMK AO2 TSE02B25 P0003
53843K79J 79J20160121223514801/21/16 22:35:31  5-MIN K79J 220335Z AUTO 16012G19KT 10SM TS BKN011 OVC018 17/15 A2982 410 87 800 160/12G19 RMK AO2 TSE02B25RAE31 CIG 006V013 P0003
53843K79J 79J20160121224015901/21/16 22:40:31  5-MIN K79J 220340Z AUTO 16009G19KT 130V190 10SM TS FEW008 BKN013 OVC018 18/14 A2982 400 81 900 160/09G19 130V190 RMK AO2 TSE02B25RAE31 P0003
53843K79J 79J20160121224513401/21/16 22:45:31  5-MIN K79J 220345Z AUTO 15011G22KT 10SM -TSRA BKN011 OVC018 18/15 A2981 410 83 900 160/11G22 RMK AO2 TSE02B25 P0003
53843K79J 79J20160121225015601/21/16 22:50:31  5-MIN K79J 220350Z AUTO 16012G22KT 130V210 9SM -TSRA FEW009 BKN014 OVC018 18/15 A2981 410 83 900 170/12G22 130V210 RMK AO2 TSE02B25 P0003
53843K79J 79J20160121225515001/21/16 22:55:31  5-MIN K79J 220355Z AUTO 17011G22KT 8SM -TSRA BKN012 OVC018 18/15 A2981 410 83 900 170/11G22 RMK AO2 TSE02B25 SLP093 P0004 T01780150
53843K79J 79J20160121230013501/21/16 23:00:31  5-MIN K79J 220400Z AUTO 16014G30KT 8SM -TSRA OVC015 18/15 A2981 420 83 900 160/14G30 RMK AO2 PK WND 17030/0359 P0000
53843K79J 79J20160121230514101/21/16 23:05:31  5-MIN K79J 220405Z AUTO 16010G30KT 8SM TSRA BKN013 OVC018 18/15 A2980 420 83 900 160/10G30 RMK AO2 PK WND 17030/0359 P0001
53843K79J 79J20160121231013901/21/16 23:10:31  5-MIN K79J 220410Z AUTO 17008G19KT 9SM -RA OVC013 18/15 A2980 430 83 900 170/08G19 RMK AO2 PK WND 17030/0359 TSE07 P0001
53843K79J 79J20160121231517501/21/16 23:15:31  5-MIN K79J 220415Z AUTO 17011G23KT 140V200 10SM -RA BKN010 OVC015 17/15 A2979 430 87 800 170/11G23 140V200 RMK AO2 PK WND 17030/0359 TSE07 CIG 008V013 P0002
53843K79J 79J20160121232015801/21/16 23:20:31  5-MIN K79J 220420Z AUTO 17011G23KT 9SM -RA BKN010 OVC015 17/14 A2979 430 83 800 170/11G23 RMK AO2 PK WND 17030/0359 TSE07 CIG 008V013 P0002
53843K79J 79J20160121232515801/21/16 23:25:31  5-MIN K79J 220425Z AUTO 18009G21KT 9SM -RA BKN010 OVC015 17/14 A2979 430 83 800 190/09G21 RMK AO2 PK WND 17030/0359 TSE07 CIG 008V013 P0002
53843K79J 79J20160121233015201/21/16 23:30:31  5-MIN K79J 220430Z AUTO 17011G21KT 10SM -RA OVC010 17/14 A2978 440 83 800 180/11G21 RMK AO2 PK WND 17030/0359 TSE07 CIG 008V013 P0003
53843K79J 79J20160121233516801/21/16 23:35:31  5-MIN K79J 220435Z AUTO 18010G21KT 140V210 10SM -RA OVC010 17/14 A2979 440 83 800 180/10G21 140V210 RMK AO2 PK WND 17030/0359 TSE07 CIG 008V013 P0003
53843K79J 79J20160121234015001/21/16 23:40:31  5-MIN K79J 220440Z AUTO 17009G21KT 8SM RA OVC010 17/15 A2978 440 87 800 170/09G21 RMK AO2 PK WND 17030/0359 TSE07 CIG 008V014 P0004
53843K79J 79J20160121234515701/21/16 23:45:31  5-MIN K79J 220445Z AUTO 19011G21KT 150V220 6SM RA BR OVC010 17/15 A2978 440 87 800 190/11G21 150V220 RMK AO2 PK WND 17030/0359 TSE07 P0005
53843K79J 79J20160121235017701/21/16 23:50:31  5-MIN K79J 220450Z AUTO 17011G20KT 7SM RA OVC010 17/15 A2977 450 87 900 170/11G20 RMK AO2 PK WND 17030/0359 TSE07 CIG 007V013 SLP079 P0006 T01720150 401780128
53843K79J 79J20160121235518201/21/16 23:55:31  5-MIN K79J 220455Z AUTO 19008G18KT 6SM RA BR BKN010 BKN018 OVC024 17/15 A2979 440 87 800 200/08G18 RMK AO2 PK WND 17030/0359 TSE07 SLP083 P0007 T01720150 401780128
53843K79J 79J20160122000016001/22/16 00:00:31  5-MIN K79J 220500Z AUTO 20007G19KT 170V270 6SM -RA BR BKN010 BKN018 OVC024 17/15 A2979 440 87 800 200/07G19 170V270 RMK AO2 CIG 007V014 P0000
53843K79J 79J20160122000513501/22/16 00:05:31  5-MIN K79J 220505Z AUTO 19010G19KT 10SM -RA BKN010 OVC017 17/15 A2978 440 87 800 190/10G19 RMK AO2 CIG 007V012 P0000
53843K79J 79J20160122001015801/22/16 00:10:31  5-MIN K79J 220510Z AUTO 17007G19KT 140V210 10SM -RA BKN010 BKN017 OVC023 17/15 A2978 440 87 800 170/07G19 140V210 RMK AO2 CIG 007V012 P0000
53843K79J 79J20160122001516001/22/16 00:15:31  5-MIN K79J 220515Z AUTO 18008G15KT 120V200 10SM BKN010 BKN015 OVC023 18/15 A2979 440 83 900 180/08G15 120V200 RMK AO2 RAE15 CIG 007V012 P0000
53843K79J 79J20160122002014401/22/16 00:20:31  5-MIN K79J 220520Z AUTO VRB06G15KT 10SM BKN010 BKN015 OVC023 18/15 A2979 430 83 900 VRB/06G15 RMK AO2 RAE15 CIG 007V012 P0000
53843K79J 79J20160122002513701/22/16 00:25:31  5-MIN K79J 220525Z AUTO 18009G15KT 10SM BKN010 OVC015 18/15 A2979 440 83 900 180/09G15 RMK AO2 RAE15 CIG 007V013 P0000
53843K79J 79J20160122003013101/22/16 00:30:31  5-MIN K79J 220530Z AUTO 18007KT 10SM BKN010 OVC015 18/15 A2978 440 83 900 180/07 RMK AO2 RAE15 CIG 008V013 P0000
53843K79J 79J20160122003514201/22/16 00:35:31  5-MIN K79J 220535Z AUTO 17007KT 120V210 10SM SCT010 BKN015 OVC021 18/15 A2977 450 83 900 170/07 120V210 RMK AO2 RAE15 P0000
53843K79J 79J20160122004012501/22/16 00:40:31  5-MIN K79J 220540Z AUTO VRB06G15KT 10SM BKN010 OVC015 18/15 A2977 450 83 900 VRB/06G15 RMK AO2 RAE15 P0000
53843K79J 79J20160122004513201/22/16 00:45:31  5-MIN K79J 220545Z AUTO 17006G15KT 10SM BKN010 BKN015 OVC023 18/15 A2977 450 83 900 170/06G15 RMK AO2 RAE15 P0000
53843K79J 79J20160122005016701/22/16 00:50:31  5-MIN K79J 220550Z AUTO 17008KT 10SM FEW008 BKN015 OVC023 18/15 A2977 450 83 900 170/08 RMK AO2 RAE15 SLP077 P0000 60052 T01780150 10178 20161 58034
53843K79J 79J20160122005518201/22/16 00:55:31  5-MIN K79J 220555Z AUTO 18007G18KT 150V220 10SM SCT010 OVC019 18/15 A2976 460 83 900 180/07G18 150V220 RMK AO2 RAE15 SLP076 P0000 60052 T01780150 10178 20161 58034
53843K79J 79J20160122010014001/22/16 01:00:31  5-MIN K79J 220600Z AUTO 18007G18KT 150V220 10SM TS SCT010 OVC019 18/15 A2976 460 83 900 180/07G18 150V220 RMK AO2 TSB0559
53843K79J 79J20160122010514501/22/16 01:05:31  5-MIN K79J 220605Z AUTO 17007G17KT 10SM -TSRA SCT010 BKN019 OVC026 18/15 A2975 470 83 900 170/07G17 RMK AO2 TSB0559RAB02 P0000
53843K79J 79J20160122011016101/22/16 01:10:31  5-MIN K79J 220610Z AUTO 17007G17KT 140V200 10SM -TSRA FEW010 BKN019 OVC095 18/15 A2975 470 83 900 170/07G17 140V200 RMK AO2 TSB0559RAB02 P0000
53843K79J 79J20160122011514001/22/16 01:15:31  5-MIN K79J 220615Z AUTO VRB06KT 10SM -RA SCT016 BKN032 OVC095 18/15 A2975 470 83 900 VRB/06 RMK AO2 TSB0559E14RAB02 P0001
53843K79J 79J20160122012014601/22/16 01:20:31  5-MIN K79J 220620Z AUTO 16006KT 9SM RA SCT016 BKN032 OVC090 18/15 A2973 490 83 1000 170/06 RMK AO2 TSB0559E14RAB02 PRESFR P0002
53843K79J 79J20160122012516001/22/16 01:25:31  5-MIN K79J 220625Z AUTO 15007KT 120V190 8SM TSRA FEW016 BKN050 OVC095 18/15 A2973 490 83 1000 160/07 120V190 RMK AO2 TSB0559E14B24RAB02 P0002
53843K79J 79J20160122013014501/22/16 01:30:31  5-MIN K79J 220630Z AUTO 16006KT 9SM -TSRA FEW020 BKN075 OVC095 18/15 A2973 490 83 1000 170/06 RMK AO2 TSB0559E14B24RAB02 P0003
53843K79J 79J20160122013514601/22/16 01:35:31  5-MIN K79J 220635Z AUTO 15007KT 10SM -TSRA SCT022 BKN033 OVC090 18/15 A2972 500 83 1000 160/07 RMK AO2 TSB0559E14B24RAB02 P0003
53843K79J 79J20160122014016601/22/16 01:40:31  5-MIN K79J 220640Z AUTO 21008KT 140V280 8SM TSRA SCT021 BKN032 OVC090 18/15 A2976 460 83 900 220/08 140V280 RMK AO2 TSB0559E14B24RAB02 PRESRR P0005
53843K79J 79J20160122014517901/22/16 01:45:31  5-MIN K79J 220645Z AUTO 28013G29KT 1 3/4SM +TSRA FEW009 BKN024 OVC095 17/14 A2978 440 80 800 280/13G29 RMK AO2 PK WND 28029/0642 TSB0559E14B24RAB02 PRESRR P0026
53843K79J 79J20160122015017001/22/16 01:50:31  5-MIN K79J 220650Z AUTO 27009G29KT 3/4SM +TSRA FEW009 BKN013 OVC095 16/13 A2978 450 83 700 270/09G29 RMK AO2 PK WND 28029/0642 TSB0559E14B24RAB02 P0052
53843K79J 79J20160122015518701/22/16 01:55:31  5-MIN K79J 220655Z AUTO 25008G16KT 1/2SM +TSRA BKN013 BKN023 OVC032 16/13 A2978 450 83 700 250/08G16 RMK AO2 PK WND 28029/0642 TSB0559E14B24RAB02 SLP080 P0083 T01610133
53843K79J 79J20160122020012901/22/16 02:00:31  5-MIN K79J 220700Z AUTO VRB05G16KT 3/4SM +TSRA BR BKN015 OVC023 16/13 A2975 470 86 700 VRB/05G16 RMK AO2 P0011
53843K79J 79J20160122020512101/22/16 02:05:31  5-MIN K79J 220705Z AUTO 22006KT 1SM +TSRA BR BKN015 OVC023 16/13 A2978 450 86 700 220/06 RMK AO2 P0020
53843K79J 79J20160122021011801/22/16 02:10:31  5-MIN K79J 220710Z AUTO 17005KT 1 1/2SM +TSRA BR OVC016 16/13 A2976 460 86 700 170/05 RMK AO2 P0026
53843K79J 79J20160122021512101/22/16 02:15:31  5-MIN K79J 220715Z AUTO VRB04KT 2SM +TSRA BR FEW011 OVC018 16/13 A2973 490 86 700 VRB/04 RMK AO2 P0031
53843K79J 79J20160122022012901/22/16 02:20:31  5-MIN K79J 220720Z AUTO VRB05KT 2 1/2SM +TSRA SCT014 SCT018 OVC025 16/13 A2973 490 83 800 VRB/05 RMK AO2 P0032
53843K79J 79J20160122022512801/22/16 02:25:31  5-MIN K79J 220725Z AUTO 00000KT 4SM +TSRA BR FEW011 SCT018 OVC032 16/13 A2972 500 86 700 000/00 RMK AO2 P0034
53843K79J 79J20160122023012501/22/16 02:30:31  5-MIN K79J 220730Z AUTO VRB05KT 4SM +TSRA FEW008 BKN034 OVC070 16/13 A2972 500 83 800 VRB/05 RMK AO2 P0035
53843K79J 79J20160122023512701/22/16 02:35:31  5-MIN K79J 220735Z AUTO VRB03KT 5SM TSRA BR FEW009 BKN036 OVC070 16/14 A2971 510 86 800 VRB/03 RMK AO2 P0036
53843K79J 79J20160122024012501/22/16 02:40:31  5-MIN K79J 220740Z AUTO 18007KT 4SM +TSRA FEW008 BKN043 OVC075 17/14 A2970 520 83 900 180/07 RMK AO2 P0038
53843K79J 79J20160122024512401/22/16 02:45:31  5-MIN K79J 220745Z AUTO VRB05KT 5SM TSRA FEW011 SCT043 OVC075 17/14 A2968 540 83 900 VRB/05 RMK AO2 P0039
53843K79J 79J20160122025013501/22/16 02:50:31  5-MIN K79J 220750Z AUTO VRB04KT 5SM +TSRA FEW011 OVC075 17/14 A2970 520 83 900 VRB/04 RMK AO2 SLP053 P0041 T01670139
53843K79J 79J20160122025513801/22/16 02:55:31  5-MIN K79J 220755Z AUTO 25005KT 5SM +TSRA BR SCT050 OVC075 17/14 A2971 510 86 900 250/05 RMK AO2 SLP055 P0042 T01670144
53843K79J 79J20160122030014001/22/16 03:00:31  5-MIN K79J 220800Z AUTO 25008KT 210V290 6SM TSRA FEW016 BKN050 OVC075 17/14 A2971 500 83 900 250/08 210V290 RMK AO2 P0001
53843K79J 79J20160122030513301/22/16 03:05:31  5-MIN K79J 220805Z AUTO 24008KT 10SM -TSRA SCT016 BKN050 OVC075 17/14 A2972 500 83 900 240/08 RMK AO2 PRESRR P0001
53843K79J 79J20160122031013101/22/16 03:10:31  5-MIN K79J 220810Z AUTO 24011G21KT 9SM TSRA BKN014 BKN050 OVC080 18/14 A2972 500 81 1000 240/11G21 RMK AO2 P0003
53843K79J 79J20160122031514801/22/16 03:15:31  5-MIN K79J 220815Z AUTO 25010G21KT 200V270 6SM +TSRA BKN014 BKN050 OVC070 18/14 A2971 510 81 1000 250/10G21 200V270 RMK AO2 P0005
53843K79J 79J20160122032012401/22/16 03:20:31  5-MIN K79J 220820Z AUTO 24007G18KT 5SM +TSRA BKN014 OVC048 17/14 A2971 510 83 900 240/07G18 RMK AO2 P0006
53843K79J 79J20160122032513901/22/16 03:25:31  5-MIN K79J 220825Z AUTO 23008G14KT 200V260 7SM TSRA BKN012 OVC042 17/14 A2970 510 83 900 230/08G14 200V260 RMK AO2 P0007
53843K79J 79J20160122033014601/22/16 03:30:31  5-MIN K79J 220830Z AUTO 20007G14KT 150V240 8SM TSRA BKN012 BKN043 OVC085 17/14 A2969 520 83 900 200/07G14 150V240 RMK AO2 P0007
53843K79J 79J20160122033512501/22/16 03:35:31  5-MIN K79J 220835Z AUTO VRB05KT 9SM TSRA BKN014 BKN045 OVC090 17/14 A2969 530 83 1000 VRB/05 RMK AO2 P0008
53843K79J 79J20160122034014301/22/16 03:40:31  5-MIN K79J 220840Z AUTO 20007KT 170V250 10SM -TSRA BKN014 BKN042 OVC090 17/14 A2969 530 83 1000 200/07 170V250 RMK AO2 P0008
53843K79J 79J20160122034513301/22/16 03:45:31  5-MIN K79J 220845Z AUTO 21006G15KT 10SM -TSRA BKN012 BKN044 OVC095 17/14 A2968 530 80 1000 210/06G15 RMK AO2 P0008
53843K79J 79J20160122035013201/22/16 03:50:31  5-MIN K79J 220850Z AUTO VRB06G15KT 10SM -TSRA SCT012 BKN044 OVC085 17/14 A2967 540 83 900 VRB/06G15 RMK AO2 P0008
53843K79J 79J20160122035515901/22/16 03:55:31  5-MIN K79J 220855Z AUTO 24005KT 10SM -RA SCT014 BKN047 OVC090 17/14 A2967 540 83 900 240/05 RMK AO2 TSE54 SLP044 P0008 60137 T01670139 56025
53843K79J 79J20160122040012401/22/16 04:00:31  5-MIN K79J 220900Z AUTO VRB04KT 10SM -RA SCT012 BKN065 OVC095 17/14 A2967 540 83 900 VRB/04 RMK AO2 P0000
53843K79J 79J20160122040512401/22/16 04:05:31  5-MIN K79J 220905Z AUTO 25004KT 10SM -RA SCT012 BKN055 OVC095 17/14 A2967 550 83 900 250/04 RMK AO2 P0000
53843K79J 79J20160122041012401/22/16 04:10:31  5-MIN K79J 220910Z AUTO 20004KT 10SM -RA SCT010 BKN055 OVC090 17/14 A2966 560 83 900 200/04 RMK AO2 P0001
53843K79J 79J20160122041512401/22/16 04:15:31  5-MIN K79J 220915Z AUTO 22005KT 10SM -RA SCT010 BKN060 OVC095 17/14 A2966 550 83 900 220/05 RMK AO2 P0001
53843K79J 79J20160122042012401/22/16 04:20:31  5-MIN K79J 220920Z AUTO VRB06KT 10SM -RA BKN012 BKN060 OVC100 17/14 A2966 550 83 900 VRB/06 RMK AO2 P0001
53843K79J 79J20160122042512401/22/16 04:25:31  5-MIN K79J 220925Z AUTO 24006KT 10SM -RA BKN012 BKN060 OVC080 17/14 A2966 560 83 900 240/06 RMK AO2 P0001
53843K79J 79J20160122043012601/22/16 04:30:31  5-MIN K79J 220930Z AUTO 23005KT 10SM BKN012 BKN080 OVC100 17/14 A2966 550 83 900 230/05 RMK AO2 RAE27 P0001
53843K79J 79J20160122043511901/22/16 04:35:31  5-MIN K79J 220935Z AUTO 23005KT 10SM BKN012 OVC100 17/14 A2966 560 83 900 230/05 RMK AO2 RAE27 P0001
53843K79J 79J20160122044011201/22/16 04:40:31  5-MIN K79J 220940Z AUTO 22006KT 10SM OVC012 17/14 A2966 560 83 900 230/06 RMK AO2 RAE27 P0001
53843K79J 79J20160122044512401/22/16 04:45:31  5-MIN K79J 220945Z AUTO 22006KT 10SM OVC010 17/14 A2966 560 83 900 220/06 RMK AO2 RAE27 CIG 008V015 P0001
53843K79J 79J20160122045014101/22/16 04:50:31  5-MIN K79J 220950Z AUTO VRB06KT 10SM OVC010 17/14 A2965 560 83 900 VRB/06 RMK AO2 RAE27 CIG 008V013 SLP038 P0001 T01670139
53843K79J 79J20160122045513601/22/16 04:55:31  5-MIN K79J 220955Z AUTO 22006KT 10SM BKN010 OVC013 17/14 A2965 560 83 900 230/06 RMK AO2 RAE27 SLP036 P0001 T01670139
53843K79J 79J20160122050011201/22/16 05:00:31  5-MIN K79J 221000Z AUTO 24005KT 10SM OVC010 17/14 A2965 570 83 900 240/05 RMK AO2 CIG 008V011
53843K79J 79J20160122050511301/22/16 05:05:31  5-MIN K79J 221005Z AUTO VRB06KT 10SM OVC010 17/14 A2965 570 80 1000 VRB/06 RMK AO2 CIG 008V011
53843K79J 79J20160122051011301/22/16 05:10:31  5-MIN K79J 221010Z AUTO 24006KT 10SM OVC010 17/14 A2965 570 80 1000 250/06 RMK AO2 CIG 007V011
53843K79J 79J20160122051511301/22/16 05:15:31  5-MIN K79J 221015Z AUTO VRB06KT 10SM OVC010 17/14 A2964 570 80 1000 VRB/06 RMK AO2 CIG 007V011
53843K79J 79J20160122052011301/22/16 05:20:31  5-MIN K79J 221020Z AUTO 24005KT 10SM OVC010 17/14 A2964 570 83 1000 240/05 RMK AO2 CIG 007V013
53843K79J 79J20160122052511301/22/16 05:25:31  5-MIN K79J 221025Z AUTO 24006KT 10SM OVC010 17/14 A2964 570 83 1000 240/06 RMK AO2 CIG 007V013
53843K79J 79J20160122053011301/22/16 05:30:31  5-MIN K79J 221030Z AUTO 24005KT 10SM OVC010 17/14 A2964 570 83 1000 240/05 RMK AO2 CIG 007V013
53843K79J 79J20160122053511301/22/16 05:35:31  5-MIN K79J 221035Z AUTO 24005KT 10SM OVC010 17/14 A2964 570 83 1000 240/05 RMK AO2 CIG 007V014
53843K79J 79J20160122054012001/22/16 05:40:31  5-MIN K79J 221040Z AUTO 24004KT 10SM BKN010 OVC014 17/14 A2964 570 83 1000 250/04 RMK AO2 CIG 007V012
53843K79J 79J20160122054512001/22/16 05:45:31  5-MIN K79J 221045Z AUTO 23003KT 10SM BKN010 OVC014 17/14 A2964 570 83 1000 240/03 RMK AO2 CIG 007V012
53843K79J 79J20160122055013701/22/16 05:50:31  5-MIN K79J 221050Z AUTO 23005KT 10SM BKN010 OVC014 17/14 A2964 570 83 1000 230/05 RMK AO2 CIG 007V012 SLP034 T01720144
53843K79J 79J20160122055513701/22/16 05:55:31  5-MIN K79J 221055Z AUTO VRB05KT 10SM BKN010 OVC014 17/14 A2964 570 83 1000 VRB/05 RMK AO2 CIG 007V012 SLP035 T01720144
53843K79J 79J20160123022511501/23/16 02:25:31  5-MIN K79J 230725Z AUTO 34016G23KT 10SM BKN022 OVC027 03/M02 A2991 330 67 -900 340/16G23 RMK AO2
53843K79J 79J20160123023011501/23/16 02:30:31  5-MIN K79J 230730Z AUTO 33016G23KT 10SM BKN022 OVC027 03/M02 A2991 330 67 -900 330/16G23 RMK AO2
53843K79J 79J20160123023510801/23/16 02:35:31  5-MIN K79J 230735Z AUTO 35015G22KT 10SM OVC022 03/M02 A2991 330 67 -900 350/15G22 RMK AO2
53843K79J 79J20160123024010801/23/16 02:40:31  5-MIN K79J 230740Z AUTO 34013G19KT 10SM OVC022 03/M02 A2991 330 67 -900 350/13G19 RMK AO2
53843K79J 79J20160123024510801/23/16 02:45:31  5-MIN K79J 230745Z AUTO 35014G19KT 10SM OVC022 03/M02 A2991 330 67 -900 350/14G19 RMK AO2
53843K79J 79J20160123025012501/23/16 02:50:31  5-MIN K79J 230750Z AUTO 36017G22KT 10SM OVC022 03/M02 A2991 320 67 -900 360/17G22 RMK AO2 SLP127 T00331022
53843K79J 79J20160123025512501/23/16 02:55:31  5-MIN K79J 230755Z AUTO 36017G25KT 10SM OVC022 03/M03 A2991 320 64 -900 360/17G25 RMK AO2 SLP128 T00331028
53843K79J 79J20160123030010801/23/16 03:00:31  5-MIN K79J 230800Z AUTO 35011G25KT 10SM OVC022 03/M02 A2991 320 67 -900 350/11G25 RMK AO2
53843K79J 79J20160123030510201/23/16 03:05:31  5-MIN K79J 230805Z AUTO 34013KT 10SM OVC022 03/M02 A2991 320 67 -900 350/13 RMK AO2
53843K79J 79J20160123031010201/23/16 03:10:31  5-MIN K79J 230810Z AUTO 34014KT 10SM OVC020 03/M02 A2991 320 67 -900 340/14 RMK AO2
53843K79J 79J20160123031510801/23/16 03:15:31  5-MIN K79J 230815Z AUTO 33012G18KT 10SM OVC020 03/M02 A2991 320 67 -900 340/12G18 RMK AO2
53843K79J 79J20160123032010801/23/16 03:20:31  5-MIN K79J 230820Z AUTO 34010G19KT 10SM OVC020 03/M02 A2992 320 67 -900 340/10G19 RMK AO2
53843K79J 79J20160123032510801/23/16 03:25:31  5-MIN K79J 230825Z AUTO 34012G19KT 10SM OVC020 03/M02 A2992 310 67 -900 340/12G19 RMK AO2
53843K79J 79J20160123033010201/23/16 03:30:31  5-MIN K79J 230830Z AUTO 33012KT 10SM OVC020 03/M02 A2992 310 67 -900 330/12 RMK AO2
53843K79J 79J20160123033510801/23/16 03:35:31  5-MIN K79J 230835Z AUTO 34011G19KT 10SM OVC020 03/M02 A2992 310 67 -900 340/11G19 RMK AO2
53843K79J 79J20160123034010801/23/16 03:40:31  5-MIN K79J 230840Z AUTO 34012G19KT 10SM OVC020 03/M02 A2992 310 67 -900 340/12G19 RMK AO2
53843K79J 79J20160123034510801/23/16 03:45:31  5-MIN K79J 230845Z AUTO 34012G20KT 10SM OVC020 03/M02 A2992 310 67 -900 340/12G20 RMK AO2
53843K79J 79J20160123035013701/23/16 03:50:31  5-MIN K79J 230850Z AUTO 35015G23KT 10SM OVC020 04/M02 A2992 310 64 -900 350/15G23 RMK AO2 SLP131 60000 T00391022 51011
53843K79J 79J20160123035513701/23/16 03:55:31  5-MIN K79J 230855Z AUTO 35016G23KT 10SM OVC020 04/M02 A2992 310 64 -900 350/16G23 RMK AO2 SLP131 60000 T00391022 51011
53843K79J 79J20160123040010801/23/16 04:00:31  5-MIN K79J 230900Z AUTO 34013G22KT 10SM OVC020 04/M02 A2992 310 64 -900 340/13G22 RMK AO2
53843K79J 79J20160123040510801/23/16 04:05:31  5-MIN K79J 230905Z AUTO 34010G21KT 10SM OVC020 04/M02 A2992 310 64 -900 340/10G21 RMK AO2
53843K79J 79J20160123041010801/23/16 04:10:31  5-MIN K79J 230910Z AUTO 34012G20KT 10SM OVC022 04/M02 A2992 310 64 -900 340/12G20 RMK AO2
53843K79J 79J20160123041512601/23/16 04:15:31  5-MIN K79J 230915Z AUTO 35015G26KT 10SM OVC022 04/M02 A2992 310 64 -900 360/15G26 RMK AO2 PK WND 36026/0915
53843K79J 79J20160123042012601/23/16 04:20:31  5-MIN K79J 230920Z AUTO 34013G26KT 10SM OVC022 04/M02 A2992 310 64 -900 340/13G26 RMK AO2 PK WND 36026/0915
53843K79J 79J20160123042512601/23/16 04:25:31  5-MIN K79J 230925Z AUTO 34013G20KT 10SM OVC022 04/M02 A2993 310 64 -900 340/13G20 RMK AO2 PK WND 36026/0915
53843K79J 79J20160123043012001/23/16 04:30:31  5-MIN K79J 230930Z AUTO 35013KT 10SM OVC022 04/M02 A2993 310 64 -900 350/13 RMK AO2 PK WND 36026/0915
53843K79J 79J20160123043512601/23/16 04:35:31  5-MIN K79J 230935Z AUTO 35014G20KT 10SM OVC024 03/M03 A2993 300 64 -900 350/14G20 RMK AO2 PK WND 36026/0915
53843K79J 79J20160123044012601/23/16 04:40:31  5-MIN K79J 230940Z AUTO 34014G20KT 10SM OVC024 04/M03 A2993 300 62 -900 340/14G20 RMK AO2 PK WND 36026/0915
53843K79J 79J20160123132512601/23/16 13:25:31  5-MIN K79J 231825Z AUTO 34015G20KT 10SM FEW032 06/M04 A3006 180 46 -800 340/15G20 RMK AO2 PK WND 33028/1806
53843K79J 79J20160123133012601/23/16 13:30:31  5-MIN K79J 231830Z AUTO 35016G22KT 10SM FEW032 06/M04 A3006 180 46 -800 350/16G22 RMK AO2 PK WND 33028/1806
53843K79J 79J20160123133512601/23/16 13:35:31  5-MIN K79J 231835Z AUTO 34016G22KT 10SM FEW032 06/M04 A3006 180 46 -800 340/16G22 RMK AO2 PK WND 33028/1806
53843K79J 79J20160123134012601/23/16 13:40:31  5-MIN K79J 231840Z AUTO 33017G24KT 10SM SCT032 06/M04 A3006 180 46 -800 340/17G24 RMK AO2 PK WND 33028/1806
53843K79J 79J20160123134512601/23/16 13:45:31  5-MIN K79J 231845Z AUTO 35014G24KT 10SM SCT032 07/M04 A3006 180 45 -700 350/14G24 RMK AO2 PK WND 33028/1806
53843K79J 79J20160123135014301/23/16 13:50:31  5-MIN K79J 231850Z AUTO 35017G24KT 10SM SCT032 07/M04 A3006 180 45 -700 350/17G24 RMK AO2 PK WND 33028/1806 SLP178 T00671044
53843K79J 79J20160123135514301/23/16 13:55:31  5-MIN K79J 231855Z AUTO 01012G24KT 10SM SCT032 07/M04 A3005 190 47 -700 010/12G24 RMK AO2 PK WND 33028/1806 SLP177 T00671039
53843K79J 79J20160123140010801/23/16 14:00:31  5-MIN K79J 231900Z AUTO 01013G19KT 10SM SCT032 07/M04 A3006 190 43 -600 020/13G19 RMK AO2
53843K79J 79J20160123140510801/23/16 14:05:31  5-MIN K79J 231905Z AUTO 35014G22KT 10SM FEW032 07/M04 A3005 190 43 -600 360/14G22 RMK AO2
53843K79J 79J20160123141010801/23/16 14:10:31  5-MIN K79J 231910Z AUTO 36014G22KT 10SM FEW034 07/M04 A3005 190 45 -700 010/14G22 RMK AO2
53843K79J 79J20160123141510801/23/16 14:15:31  5-MIN K79J 231915Z AUTO 36012G22KT 10SM FEW034 07/M04 A3005 200 45 -700 360/12G22 RMK AO2
53843K79J 79J20160123142010801/23/16 14:20:31  5-MIN K79J 231920Z AUTO 35015G22KT 10SM FEW034 07/M04 A3005 200 45 -600 350/15G22 RMK AO2
53843K79J 79J20160123142510501/23/16 14:25:31  5-MIN K79J 231925Z AUTO 35014G23KT 10SM CLR 07/M04 A3004 200 43 -600 350/14G23 RMK AO2
53843K79J 79J20160123143010501/23/16 14:30:31  5-MIN K79J 231930Z AUTO 34012G23KT 10SM CLR 07/M04 A3004 200 43 -600 340/12G23 RMK AO2
53843K79J 79J20160123143510501/23/16 14:35:31  5-MIN K79J 231935Z AUTO 01014G21KT 10SM CLR 07/M04 A3004 200 43 -600 010/14G21 RMK AO2
53843K79J 79J20160123144010501/23/16 14:40:31  5-MIN K79J 231940Z AUTO 34014G21KT 10SM CLR 07/M04 A3004 200 43 -600 350/14G21 RMK AO2
53843K79J 79J20160123144510501/23/16 14:45:31  5-MIN K79J 231945Z AUTO 36014G21KT 10SM CLR 07/M04 A3004 200 43 -600 010/14G21 RMK AO2
53843K79J 79J20160123145012201/23/16 14:50:31  5-MIN K79J 231950Z AUTO 34014G20KT 10SM CLR 07/M04 A3004 200 43 -600 340/14G20 RMK AO2 SLP174 T00721044
53843K79J 79J20160123145511601/23/16 14:55:31  5-MIN K79J 231955Z AUTO 34015KT 10SM CLR 07/M04 A3004 200 43 -600 340/15 RMK AO2 SLP173 T00721044
53843K79J 79J20160123150012101/23/16 15:00:31  5-MIN K79J 232000Z AUTO 35014G21KT 310V030 10SM CLR 07/M04 A3004 200 43 -600 350/14G21 310V030 RMK AO2
53843K79J 79J20160123150510501/23/16 15:05:31  5-MIN K79J 232005Z AUTO 36013G21KT 10SM CLR 08/M04 A3004 200 41 -500 360/13G21 RMK AO2
53843K79J 79J20160123151010501/23/16 15:10:31  5-MIN K79J 232010Z AUTO 34015G21KT 10SM CLR 08/M04 A3004 200 41 -500 340/15G21 RMK AO2
53843K79J 79J20160123151510501/23/16 15:15:31  5-MIN K79J 232015Z AUTO 33013G21KT 10SM CLR 07/M04 A3004 200 43 -600 330/13G21 RMK AO2
53843K79J 79J20160123152010501/23/16 15:20:31  5-MIN K79J 232020Z AUTO 33016G20KT 10SM CLR 08/M04 A3004 200 43 -500 340/16G20 RMK AO2
53843K79J 79J20160123152510501/23/16 15:25:31  5-MIN K79J 232025Z AUTO 32016G21KT 10SM CLR 08/M04 A3004 200 43 -500 330/16G21 RMK AO2
53843K79J 79J20160123153010501/23/16 15:30:31  5-MIN K79J 232030Z AUTO 33017G23KT 10SM CLR 07/M04 A3004 200 45 -600 330/17G23 RMK AO2
53843K79J 79J20160123153510501/23/16 15:35:31  5-MIN K79J 232035Z AUTO 33015G24KT 10SM CLR 07/M04 A3004 200 45 -600 330/15G24 RMK AO2
53843K79J 79J20160123154010501/23/16 15:40:31  5-MIN K79J 232040Z AUTO 35014G24KT 10SM CLR 07/M04 A3004 200 45 -600 360/14G24 RMK AO2
53843K79J 79J20160123154509901/23/16 15:45:31  5-MIN K79J 232045Z AUTO 33013KT 10SM CLR 07/M04 A3004 200 45 -600 340/13 RMK AO2
53843K79J 79J20160123155012201/23/16 15:50:31  5-MIN K79J 232050Z AUTO 34014KT 10SM CLR 07/M04 A3004 200 45 -600 340/14 RMK AO2 SLP174 T00721039 58007
53843K79J 79J20160123155512201/23/16 15:55:31  5-MIN K79J 232055Z AUTO 35014KT 10SM CLR 07/M04 A3005 200 45 -600 350/14 RMK AO2 SLP174 T00721039 58007
53843K79J 79J20160123160010501/23/16 16:00:31  5-MIN K79J 232100Z AUTO 35017G21KT 10SM CLR 07/M04 A3005 190 43 -600 350/17G21 RMK AO2
53843K79J 79J20160123160510501/23/16 16:05:31  5-MIN K79J 232105Z AUTO 01016G23KT 10SM CLR 07/M04 A3005 190 43 -600 010/16G23 RMK AO2
53843K79J 79J20160123161010501/23/16 16:10:31  5-MIN K79J 232110Z AUTO 36011G23KT 10SM CLR 08/M04 A3005 190 41 -500 360/11G23 RMK AO2
53843K79J 79J20160123161510501/23/16 16:15:31  5-MIN K79J 232115Z AUTO 36015G23KT 10SM CLR 07/M04 A3005 190 43 -600 360/15G23 RMK AO2
53843K79J 79J20160123162010501/23/16 16:20:31  5-MIN K79J 232120Z AUTO 34013G23KT 10SM CLR 07/M05 A3005 190 41 -600 340/13G23 RMK AO2
53843K79J 79J20160123162510501/23/16 16:25:31  5-MIN K79J 232125Z AUTO 34011G20KT 10SM CLR 07/M04 A3006 190 43 -600 340/11G20 RMK AO2
53843K79J 79J20160123163010501/23/16 16:30:31  5-MIN K79J 232130Z AUTO 35009G19KT 10SM CLR 08/M04 A3006 190 41 -500 360/09G19 RMK AO2
53843K79J 79J20160123163510501/23/16 16:35:31  5-MIN K79J 232135Z AUTO 34013G19KT 10SM CLR 08/M04 A3006 190 41 -500 340/13G19 RMK AO2
53843K79J 79J20160123164010501/23/16 16:40:31  5-MIN K79J 232140Z AUTO 34009G18KT 10SM CLR 07/M04 A3005 190 43 -600 350/09G18 RMK AO2
53843K79J 79J20160123164509901/23/16 16:45:31  5-MIN K79J 232145Z AUTO 35012KT 10SM CLR 07/M04 A3006 180 43 -600 350/12 RMK AO2
53843K79J 79J20160123165012201/23/16 16:50:31  5-MIN K79J 232150Z AUTO 01014G19KT 10SM CLR 07/M04 A3006 180 43 -600 010/14G19 RMK AO2 SLP180 T00721044
53843K79J 79J20160123165512201/23/16 16:55:31  5-MIN K79J 232155Z AUTO 01012G19KT 10SM CLR 07/M04 A3006 180 43 -600 010/12G19 RMK AO2 SLP179 T00721044
53843K79J 79J20160123170009901/23/16 17:00:31  5-MIN K79J 232200Z AUTO 36010KT 10SM CLR 07/M04 A3006 180 43 -600 360/10 RMK AO2
53843K79J 79J20160123170510501/23/16 17:05:31  5-MIN K79J 232205Z AUTO 36011G18KT 10SM CLR 07/M04 A3007 180 43 -600 360/11G18 RMK AO2
53843K79J 79J20160123171010501/23/16 17:10:31  5-MIN K79J 232210Z AUTO 36012G21KT 10SM CLR 07/M04 A3007 180 43 -600 360/12G21 RMK AO2
53843K79J 79J20160123171510501/23/16 17:15:31  5-MIN K79J 232215Z AUTO 36013G21KT 10SM CLR 07/M04 A3007 180 43 -600 360/13G21 RMK AO2
53843K79J 79J20160123172010501/23/16 17:20:31  5-MIN K79J 232220Z AUTO 35014G19KT 10SM CLR 07/M04 A3007 170 43 -600 350/14G19 RMK AO2
53843K79J 79J20160123172510501/23/16 17:25:31  5-MIN K79J 232225Z AUTO 35012G20KT 10SM CLR 07/M04 A3007 170 45 -700 350/12G20 RMK AO2
53843K79J 79J20160123173010501/23/16 17:30:31  5-MIN K79J 232230Z AUTO 35010G20KT 10SM CLR 07/M04 A3008 170 45 -700 360/10G20 RMK AO2
53843K79J 79J20160123173510501/23/16 17:35:31  5-MIN K79J 232235Z AUTO 33014G19KT 10SM CLR 07/M04 A3008 160 45 -700 340/14G19 RMK AO2
53843K79J 79J20160123174010501/23/16 17:40:31  5-MIN K79J 232240Z AUTO 33014G19KT 10SM CLR 06/M04 A3009 160 48 -800 340/14G19 RMK AO2
53843K79J 79J20160123174509901/23/16 17:45:31  5-MIN K79J 232245Z AUTO 33015KT 10SM CLR 06/M04 A3009 160 48 -800 330/15 RMK AO2
53843K79J 79J20160123175012201/23/16 17:50:31  5-MIN K79J 232250Z AUTO 33015G21KT 10SM CLR 06/M04 A3009 160 48 -900 340/15G21 RMK AO2 SLP188 T00561044
53843K79J 79J20160123175512201/23/16 17:55:31  5-MIN K79J 232255Z AUTO 35013G21KT 10SM CLR 06/M04 A3009 160 48 -900 350/13G21 RMK AO2 SLP189 T00561044
53843K79J 79J20160123180010501/23/16 18:00:31  5-MIN K79J 232300Z AUTO 34011G19KT 10SM CLR 06/M04 A3009 150 48 -900 340/11G19 RMK AO2
53843K79J 79J20160123180509901/23/16 18:05:31  5-MIN K79J 232305Z AUTO 35010KT 10SM CLR 05/M04 A3009 150 50 -900 350/10 RMK AO2
53843K79J 79J20160123181009901/23/16 18:10:31  5-MIN K79J 232310Z AUTO 34010KT 10SM CLR 05/M04 A3009 150 50 -900 350/10 RMK AO2
53843K79J 79J20160123181509901/23/16 18:15:31  5-MIN K79J 232315Z AUTO 34009KT 10SM CLR 05/M04 A3009 150 50 -900 340/09 RMK AO2
53843K79J 79J20160123182009901/23/16 18:20:31  5-MIN K79J 232320Z AUTO 34007KT 10SM CLR 05/M04 A3009 150 50 -900 340/07 RMK AO2
53843K79J 79J20160123182510001/23/16 18:25:31  5-MIN K79J 232325Z AUTO 34011KT 10SM CLR 04/M04 A3009 150 52 -1000 340/11 RMK AO2
53843K79J 79J20160123183010501/23/16 18:30:31  5-MIN K79J 232330Z AUTO 34007G18KT 10SM CLR 05/M04 A3010 150 50 -900 350/07G18 RMK AO2
53843K79J 79J20160123183510601/23/16 18:35:31  5-MIN K79J 232335Z AUTO 34011G18KT 10SM CLR 04/M04 A3010 150 52 -1000 340/11G18 RMK AO2
53843K79J 79J20160123184010001/23/16 18:40:31  5-MIN K79J 232340Z AUTO 34009KT 10SM CLR 04/M04 A3010 150 52 -1000 340/09 RMK AO2
53843K79J 79J20160123184510001/23/16 18:45:31  5-MIN K79J 232345Z AUTO 35007KT 10SM CLR 04/M04 A3010 150 52 -1000 350/07 RMK AO2
53843K79J 79J20160123185013501/23/16 18:50:31  5-MIN K79J 232350Z AUTO 33006KT 10SM CLR 04/M04 A3010 150 52 -1000 340/06 RMK AO2 SLP193 T00441044 10078 20044 55009
53843K79J 79J20160123185513501/23/16 18:55:31  5-MIN K79J 232355Z AUTO 34007KT 10SM CLR 04/M04 A3010 140 57 -1100 340/07 RMK AO2 SLP194 T00391039 10078 20039 55009
53843K79J 79J20160123190010001/23/16 19:00:31  5-MIN K79J 240000Z AUTO 33007KT 10SM CLR 04/M04 A3010 140 57 -1100 340/07 RMK AO2
53843K79J 79J20160123190510001/23/16 19:05:31  5-MIN K79J 240005Z AUTO 34008KT 10SM CLR 04/M04 A3011 140 57 -1100 340/08 RMK AO2
53843K79J 79J20160123191010001/23/16 19:10:31  5-MIN K79J 240010Z AUTO 33008KT 10SM CLR 04/M04 A3011 140 57 -1100 330/08 RMK AO2
53843K79J 79J20160123191510001/23/16 19:15:31  5-MIN K79J 240015Z AUTO 33009KT 10SM CLR 04/M04 A3011 130 57 -1100 330/09 RMK AO2
53843K79J 79J20160123192010001/23/16 19:20:31  5-MIN K79J 240020Z AUTO 33008KT 10SM CLR 04/M04 A3011 130 57 -1100 330/08 RMK AO2
53843K79J 79J20160123192510001/23/16 19:25:31  5-MIN K79J 240025Z AUTO 33008KT 10SM CLR 04/M04 A3011 130 57 -1100 330/08 RMK AO2
53843K79J 79J20160123193010001/23/16 19:30:31  5-MIN K79J 240030Z AUTO 32006KT 10SM CLR 04/M04 A3012 130 57 -1100 330/06 RMK AO2
53843K79J 79J20160123193510001/23/16 19:35:31  5-MIN K79J 240035Z AUTO 33007KT 10SM CLR 03/M04 A3012 130 59 -1200 330/07 RMK AO2
53843K79J 79J20160123194010001/23/16 19:40:31  5-MIN K79J 240040Z AUTO 32006KT 10SM CLR 03/M04 A3012 130 59 -1200 330/06 RMK AO2
53843K79J 79J20160123194510001/23/16 19:45:31  5-MIN K79J 240045Z AUTO 32006KT 10SM CLR 03/M04 A3012 130 59 -1200 320/06 RMK AO2
53843K79J 79J20160123195011701/23/16 19:50:31  5-MIN K79J 240050Z AUTO 32006KT 10SM CLR 03/M04 A3012 130 59 -1200 330/06 RMK AO2 SLP201 T00331039
53843K79J 79J20160123195511701/23/16 19:55:31  5-MIN K79J 240055Z AUTO 33006KT 10SM CLR 03/M04 A3012 120 59 -1200 330/06 RMK AO2 SLP202 T00331039
53843K79J 79J20160123200010001/23/16 20:00:31  5-MIN K79J 240100Z AUTO 32007KT 10SM CLR 03/M04 A3012 120 59 -1200 320/07 RMK AO2
53843K79J 79J20160123200510001/23/16 20:05:31  5-MIN K79J 240105Z AUTO 33006KT 10SM CLR 03/M03 A3013 120 64 -1200 330/06 RMK AO2
53843K79J 79J20160123201010001/23/16 20:10:31  5-MIN K79J 240110Z AUTO 33006KT 10SM CLR 03/M04 A3013 120 61 -1200 330/06 RMK AO2
53843K79J 79J20160123201510001/23/16 20:15:31  5-MIN K79J 240115Z AUTO 32007KT 10SM CLR 03/M04 A3013 120 61 -1200 330/07 RMK AO2
53843K79J 79J20160123202010001/23/16 20:20:31  5-MIN K79J 240120Z AUTO 32007KT 10SM CLR 03/M04 A3013 120 59 -1200 330/07 RMK AO2
53843K79J 79J20160123202510001/23/16 20:25:31  5-MIN K79J 240125Z AUTO 33008KT 10SM CLR 03/M04 A3013 120 59 -1200 330/08 RMK AO2
53843K79J 79J20160123203010001/23/16 20:30:31  5-MIN K79J 240130Z AUTO 33008KT 10SM CLR 03/M04 A3013 120 59 -1200 330/08 RMK AO2
53843K79J 79J20160123203510001/23/16 20:35:31  5-MIN K79J 240135Z AUTO 33008KT 10SM CLR 03/M04 A3013 110 61 -1300 330/08 RMK AO2
53843K79J 79J20160123204010001/23/16 20:40:31  5-MIN K79J 240140Z AUTO 33008KT 10SM CLR 03/M04 A3013 120 59 -1200 330/08 RMK AO2
53843K79J 79J20160123204510001/23/16 20:45:31  5-MIN K79J 240145Z AUTO 33008KT 10SM CLR 03/M04 A3014 110 61 -1300 330/08 RMK AO2
53843K79J 79J20160123205011701/23/16 20:50:31  5-MIN K79J 240150Z AUTO 33009KT 10SM CLR 03/M04 A3014 110 61 -1300 330/09 RMK AO2 SLP206 T00281039
53843K79J 79J20160123205511701/23/16 20:55:31  5-MIN K79J 240155Z AUTO 33007KT 10SM CLR 03/M04 A3014 110 61 -1300 330/07 RMK AO2 SLP207 T00281039
53843K79J 79J20160123210010001/23/16 21:00:31  5-MIN K79J 240200Z AUTO 33008KT 10SM CLR 03/M04 A3014 110 61 -1300 330/08 RMK AO2
53843K79J 79J20160123210510001/23/16 21:05:31  5-MIN K79J 240205Z AUTO 33008KT 10SM CLR 03/M04 A3014 110 61 -1300 330/08 RMK AO2
53843K79J 79J20160123211010001/23/16 21:10:31  5-MIN K79J 240210Z AUTO 33008KT 10SM CLR 03/M04 A3014 110 61 -1300 330/08 RMK AO2
53843K79J 79J20160123211510001/23/16 21:15:31  5-MIN K79J 240215Z AUTO 33009KT 10SM CLR 03/M04 A3015 100 61 -1300 330/09 RMK AO2
53843K79J 79J20160123212010001/23/16 21:20:31  5-MIN K79J 240220Z AUTO 33009KT 10SM CLR 03/M04 A3015 100 61 -1300 340/09 RMK AO2
53843K79J 79J20160123212510001/23/16 21:25:31  5-MIN K79J 240225Z AUTO 34009KT 10SM CLR 03/M04 A3015 100 61 -1300 340/09 RMK AO2
53843K79J 79J20160123213010001/23/16 21:30:31  5-MIN K79J 240230Z AUTO 34008KT 10SM CLR 03/M04 A3015 100 61 -1300 340/08 RMK AO2
53843K79J 79J20160123213510001/23/16 21:35:31  5-MIN K79J 240235Z AUTO 34009KT 10SM CLR 03/M04 A3015 100 61 -1300 340/09 RMK AO2
53843K79J 79J20160123214010001/23/16 21:40:31  5-MIN K79J 240240Z AUTO 34007KT 10SM CLR 03/M04 A3015 100 61 -1300 340/07 RMK AO2
53843K79J 79J20160123214509901/23/16 21:45:31  5-MIN K79J 240245Z AUTO 34008KT 10SM CLR 03/M04 A3016 90 59 -1300 340/08 RMK AO2
53843K79J 79J20160123215012201/23/16 21:50:31  5-MIN K79J 240250Z AUTO 33009KT 10SM CLR 03/M04 A3016 90 59 -1300 340/09 RMK AO2 SLP214 T00281044 51019
53843K79J 79J20160123215512201/23/16 21:55:31  5-MIN K79J 240255Z AUTO 33010KT 10SM CLR 03/M04 A3016 90 59 -1300 330/10 RMK AO2 SLP215 T00281044 51019
53843K79J 79J20160123220009901/23/16 22:00:31  5-MIN K79J 240300Z AUTO 33009KT 10SM CLR 03/M04 A3017 90 59 -1300 340/09 RMK AO2
53843K79J 79J20160123220509901/23/16 22:05:31  5-MIN K79J 240305Z AUTO 33011KT 10SM CLR 03/M04 A3017 80 59 -1300 330/11 RMK AO2
53843K79J 79J20160123221009901/23/16 22:10:31  5-MIN K79J 240310Z AUTO 33010KT 10SM CLR 03/M04 A3017 80 59 -1300 340/10 RMK AO2
53843K79J 79J20160123221509901/23/16 22:15:31  5-MIN K79J 240315Z AUTO 33010KT 10SM CLR 03/M04 A3017 80 59 -1300 340/10 RMK AO2
53843K79J 79J20160123222009901/23/16 22:20:31  5-MIN K79J 240320Z AUTO 33010KT 10SM CLR 03/M04 A3017 80 59 -1300 330/10 RMK AO2
53843K79J 79J20160123222509901/23/16 22:25:31  5-MIN K79J 240325Z AUTO 34008KT 10SM CLR 02/M04 A3018 80 61 -1400 340/08 RMK AO2
53843K79J 79J20160123223009901/23/16 22:30:31  5-MIN K79J 240330Z AUTO 33009KT 10SM CLR 03/M04 A3018 70 59 -1300 330/09 RMK AO2
53843K79J 79J20160123223509901/23/16 22:35:31  5-MIN K79J 240335Z AUTO 33009KT 10SM CLR 02/M04 A3018 70 61 -1400 330/09 RMK AO2
53843K79J 79J20160123224009901/23/16 22:40:31  5-MIN K79J 240340Z AUTO 33007KT 10SM CLR 02/M04 A3018 70 61 -1400 340/07 RMK AO2
53843K79J 79J20160123224509901/23/16 22:45:31  5-MIN K79J 240345Z AUTO 34007KT 10SM CLR 02/M04 A3018 70 61 -1400 340/07 RMK AO2
53843K79J 79J20160123225011601/23/16 22:50:31  5-MIN K79J 240350Z AUTO 33006KT 10SM CLR 02/M04 A3018 70 61 -1400 330/06 RMK AO2 SLP222 T00221044
53843K79J 79J20160123225511601/23/16 22:55:31  5-MIN K79J 240355Z AUTO 34006KT 10SM CLR 02/M04 A3018 70 61 -1400 340/06 RMK AO2 SLP222 T00221044
53843K79J 79J20160123230009901/23/16 23:00:31  5-MIN K79J 240400Z AUTO 33006KT 10SM CLR 02/M04 A3019 70 61 -1400 340/06 RMK AO2
53843K79J 79J20160123230509901/23/16 23:05:31  5-MIN K79J 240405Z AUTO 33006KT 10SM CLR 02/M04 A3019 70 61 -1400 330/06 RMK AO2
53843K79J 79J20160123231009901/23/16 23:10:31  5-MIN K79J 240410Z AUTO 33006KT 10SM CLR 02/M04 A3019 60 61 -1400 330/06 RMK AO2
53843K79J 79J20160123231509901/23/16 23:15:31  5-MIN K79J 240415Z AUTO 32007KT 10SM CLR 02/M04 A3019 60 61 -1400 320/07 RMK AO2
53843K79J 79J20160123232009901/23/16 23:20:31  5-MIN K79J 240420Z AUTO 33007KT 10SM CLR 02/M04 A3019 60 61 -1400 330/07 RMK AO2
53843K79J 79J20160123232509901/23/16 23:25:31  5-MIN K79J 240425Z AUTO 33007KT 10SM CLR 02/M04 A3019 60 61 -1400 330/07 RMK AO2
53843K79J 79J20160123233009901/23/16 23:30:31  5-MIN K79J 240430Z AUTO 33006KT 10SM CLR 02/M04 A3019 60 64 -1500 330/06 RMK AO2
53843K79J 79J20160123233509901/23/16 23:35:31  5-MIN K79J 240435Z AUTO 33006KT 10SM CLR 02/M04 A3020 60 61 -1400 330/06 RMK AO2
53843K79J 79J20160123234009901/23/16 23:40:31  5-MIN K79J 240440Z AUTO 33007KT 10SM CLR 02/M04 A3020 60 64 -1500 330/07 RMK AO2
53843K79J 79J20160123234509901/23/16 23:45:31  5-MIN K79J 240445Z AUTO 33007KT 10SM CLR 02/M04 A3019 60 64 -1500 340/07 RMK AO2
53843K79J 79J20160123235012601/23/16 23:50:31  5-MIN K79J 240450Z AUTO 33006KT 10SM CLR 02/M04 A3019 60 64 -1500 330/06 RMK AO2 SLP224 T00171044 400780017
53843K79J 79J20160123235512601/23/16 23:55:31  5-MIN K79J 240455Z AUTO 33006KT 10SM CLR 02/M04 A3019 60 64 -1500 330/06 RMK AO2 SLP224 T00171044 400780017
53843K79J 79J20160124000009901/24/16 00:00:31  5-MIN K79J 240500Z AUTO 34005KT 10SM CLR 02/M04 A3019 60 64 -1500 340/05 RMK AO2
53843K79J 79J20160124000510101/24/16 00:05:31  5-MIN K79J 240505Z AUTO 33006KT 10SM CLR 02/M04 A3019 70 64 -1500 340/06 RMK AO2 $
53843K79J 79J20160124001009601/24/16 00:10:31  5-MIN K79J 240510Z AUTO 34005KT CLR 02/M04 A3019 70 64 -1500 340/05 RMK AO2 $
53843K79J 79J20160124001509601/24/16 00:15:31  5-MIN K79J 240515Z AUTO 33005KT CLR 02/M04 A3019 70 64 -1500 330/05 RMK AO2 $
53843K79J 79J20160124002010101/24/16 00:20:31  5-MIN K79J 240520Z AUTO 33005KT 10SM CLR 01/M04 A3019 70 66 -1500 340/05 RMK AO2 $
53843K79J 79J20160124002509601/24/16 00:25:31  5-MIN K79J 240525Z AUTO 34006KT CLR 01/M04 A3019 70 66 -1500 340/06 RMK AO2 $
53843K79J 79J20160124003009601/24/16 00:30:31  5-MIN K79J 240530Z AUTO 33006KT CLR 01/M04 A3019 70 66 -1500 340/06 RMK AO2 $
53843K79J 79J20160124003509601/24/16 00:35:31  5-MIN K79J 240535Z AUTO 33005KT CLR 01/M04 A3018 70 66 -1500 330/05 RMK AO2 $
53843K79J 79J20160124004010101/24/16 00:40:31  5-MIN K79J 240540Z AUTO 33006KT 10SM CLR 01/M04 A3018 70 66 -1500 340/06 RMK AO2 $
53843K79J 79J20160124004509601/24/16 00:45:31  5-MIN K79J 240545Z AUTO 33005KT CLR 01/M04 A3018 80 66 -1500 340/05 RMK AO2 $
53843K79J 79J20160124005013101/24/16 00:50:31  5-MIN K79J 240550Z AUTO 34004KT CLR 01/M05 A3017 80 64 -1500 340/04 RMK AO2 SLP218 T00111050 10039 20011 53020 $
53843K79J 79J20160124005513101/24/16 00:55:31  5-MIN K79J 240555Z AUTO 33005KT CLR 01/M05 A3017 80 64 -1500 340/05 RMK AO2 SLP217 T00111050 10039 20011 53020 $
53843K79J 79J20160124010010101/24/16 01:00:31  5-MIN K79J 240600Z AUTO 34005KT 10SM CLR 01/M05 A3017 80 66 -1600 340/05 RMK AO2 $
53843K79J 79J20160124010509601/24/16 01:05:31  5-MIN K79J 240605Z AUTO 34005KT CLR 01/M05 A3017 80 66 -1600 340/05 RMK AO2 $
53843K79J 79J20160124011009601/24/16 01:10:31  5-MIN K79J 240610Z AUTO 34005KT CLR 01/M05 A3017 80 66 -1600 350/05 RMK AO2 $
53843K79J 79J20160124011509601/24/16 01:15:31  5-MIN K79J 240615Z AUTO 35005KT CLR 01/M05 A3017 80 66 -1600 360/05 RMK AO2 $
53843K79J 79J20160124012009601/24/16 01:20:31  5-MIN K79J 240620Z AUTO 35005KT CLR 01/M05 A3017 90 66 -1600 350/05 RMK AO2 $
53843K79J 79J20160125092510001/25/16 09:25:31  5-MIN K79J 251425Z AUTO 00000KT 10SM BKN036 06/02 A3026 0 79 -1100 000/00 RMK AO2
53843K79J 79J20160125093010001/25/16 09:30:31  5-MIN K79J 251430Z AUTO 11003KT 10SM BKN036 06/02 A3026 0 76 -1000 110/03 RMK AO2
53843K79J 79J20160125093509901/25/16 09:35:31  5-MIN K79J 251435Z AUTO 12003KT 10SM BKN036 07/02 A3026 0 73 -900 120/03 RMK AO2
53843K79J 79J20160125094009901/25/16 09:40:31  5-MIN K79J 251440Z AUTO 13005KT 10SM BKN036 07/02 A3027 0 70 -900 130/05 RMK AO2
53843K79J 79J20160125094509901/25/16 09:45:31  5-MIN K79J 251445Z AUTO 11004KT 10SM BKN038 07/02 A3027 0 70 -900 110/04 RMK AO2
53843K79J 79J20160125095012401/25/16 09:50:31  5-MIN K79J 251450Z AUTO 11004KT 10SM BKN038 08/02 A3027 -10 68 -800 120/04 RMK AO2 SLP250 T00780022 53014
53843K79J 79J20160125095512401/25/16 09:55:31  5-MIN K79J 251455Z AUTO 12005KT 10SM BKN038 08/02 A3027 -10 68 -800 120/05 RMK AO2 SLP251 T00780022 53014
53843K79J 79J20160125100010101/25/16 10:00:31  5-MIN K79J 251500Z AUTO 13005KT 10SM BKN038 08/02 A3028 -10 65 -700 130/05 RMK AO2
53843K79J 79J20160125100510101/25/16 10:05:31  5-MIN K79J 251505Z AUTO 12005KT 10SM BKN038 08/02 A3028 -10 65 -700 120/05 RMK AO2
53843K79J 79J20160125101010101/25/16 10:10:31  5-MIN K79J 251510Z AUTO 12006KT 10SM OVC040 08/02 A3027 -10 65 -700 120/06 RMK AO2
53843K79J 79J20160125101510101/25/16 10:15:31  5-MIN K79J 251515Z AUTO 12005KT 10SM OVC040 08/02 A3027 -10 65 -700 120/05 RMK AO2
53843K79J 79J20160125102010101/25/16 10:20:31  5-MIN K79J 251520Z AUTO 12005KT 10SM OVC040 09/02 A3027 -10 63 -700 120/05 RMK AO2
53843K79J 79J20160125102510101/25/16 10:25:31  5-MIN K79J 251525Z AUTO 13006KT 10SM OVC040 09/03 A3028 -10 65 -700 130/06 RMK AO2
53843K79J 79J20160125103010101/25/16 10:30:31  5-MIN K79J 251530Z AUTO 12005KT 10SM OVC040 09/02 A3028 -10 60 -600 120/05 RMK AO2
53843K79J 79J20160125103510101/25/16 10:35:31  5-MIN K79J 251535Z AUTO 12005KT 10SM OVC040 09/03 A3028 -10 63 -600 120/05 RMK AO2
53843K79J 79J20160125104010101/25/16 10:40:31  5-MIN K79J 251540Z AUTO 12004KT 10SM OVC040 10/03 A3028 -10 60 -500 120/04 RMK AO2
53843K79J 79J20160125104510101/25/16 10:45:31  5-MIN K79J 251545Z AUTO 12003KT 10SM OVC040 10/03 A3028 -20 60 -500 120/03 RMK AO2
53843K79J 79J20160125105011801/25/16 10:50:31  5-MIN K79J 251550Z AUTO 12003KT 10SM OVC040 10/03 A3028 -20 60 -500 120/03 RMK AO2 SLP254 T01000028
53843K79J 79J20160125105511801/25/16 10:55:31  5-MIN K79J 251555Z AUTO 12005KT 10SM OVC040 11/03 A3028 -10 61 -500 120/05 RMK AO2 SLP253 T01060033
53843K79J 79J20160125110010101/25/16 11:00:31  5-MIN K79J 251600Z AUTO 14004KT 10SM OVC040 11/03 A3028 -10 61 -500 150/04 RMK AO2
53843K79J 79J20160125110510101/25/16 11:05:31  5-MIN K79J 251605Z AUTO 14004KT 10SM OVC040 11/03 A3028 -10 58 -400 140/04 RMK AO2
53843K79J 79J20160125111010101/25/16 11:10:31  5-MIN K79J 251610Z AUTO 14004KT 10SM OVC040 11/03 A3028 -10 58 -400 150/04 RMK AO2
53843K79J 79J20160125111510101/25/16 11:15:31  5-MIN K79J 251615Z AUTO 13004KT 10SM OVC040 11/03 A3028 -10 58 -400 130/04 RMK AO2
53843K79J 79J20160125112010101/25/16 11:20:31  5-MIN K79J 251620Z AUTO 13005KT 10SM OVC040 11/03 A3028 -10 58 -400 130/05 RMK AO2
53843K79J 79J20160125112510101/25/16 11:25:31  5-MIN K79J 251625Z AUTO 15005KT 10SM OVC040 11/03 A3027 -10 58 -400 150/05 RMK AO2
53843K79J 79J20160125113010101/25/16 11:30:31  5-MIN K79J 251630Z AUTO 14004KT 10SM OVC040 11/03 A3027 -10 58 -400 140/04 RMK AO2
53843K79J 79J20160125113509901/25/16 11:35:31  5-MIN K79J 251635Z AUTO 15004KT 10SM OVC040 12/03 A3027 0 56 -300 150/04 RMK AO2
53843K79J 79J20160125114009901/25/16 11:40:31  5-MIN K79J 251640Z AUTO 13006KT 10SM OVC040 12/03 A3027 0 56 -300 130/06 RMK AO2
53843K79J 79J20160125114509901/25/16 11:45:31  5-MIN K79J 251645Z AUTO 13005KT 10SM OVC040 12/04 A3027 0 58 -300 130/05 RMK AO2
53843K79J 79J20160125115011601/25/16 11:50:31  5-MIN K79J 251650Z AUTO 13005KT 10SM OVC040 12/04 A3026 0 58 -300 130/05 RMK AO2 SLP248 T01170039
53843K79J 79J20160125115511601/25/16 11:55:31  5-MIN K79J 251655Z AUTO 15005KT 10SM OVC040 12/04 A3026 0 56 -200 150/05 RMK AO2 SLP247 T01220039
53843K79J 79J20160125120009901/25/16 12:00:31  5-MIN K79J 251700Z AUTO 14005KT 10SM OVC040 12/04 A3026 0 56 -200 140/05 RMK AO2
53843K79J 79J20160125120509901/25/16 12:05:31  5-MIN K79J 251705Z AUTO 15006KT 10SM OVC040 12/04 A3026 0 56 -200 150/06 RMK AO2
53843K79J 79J20160125121009901/25/16 12:10:31  5-MIN K79J 251710Z AUTO 15006KT 10SM OVC042 12/04 A3026 0 56 -200 150/06 RMK AO2
53843K79J 79J20160125121509901/25/16 12:15:31  5-MIN K79J 251715Z AUTO 15006KT 10SM OVC042 12/04 A3026 0 56 -200 150/06 RMK AO2
53843K79J 79J20160125122009901/25/16 12:20:31  5-MIN K79J 251720Z AUTO 14006KT 10SM OVC042 12/04 A3026 0 59 -200 140/06 RMK AO2
53843K79J 79J20160125122509901/25/16 12:25:31  5-MIN K79J 251725Z AUTO 14006KT 10SM OVC042 13/04 A3026 0 56 -200 140/06 RMK AO2
53843K79J 79J20160125123010001/25/16 12:30:31  5-MIN K79J 251730Z AUTO VRB04KT 10SM OVC042 13/04 A3025 10 56 -200 VRB/04 RMK AO2
53843K79J 79J20160125123510001/25/16 12:35:31  5-MIN K79J 251735Z AUTO 14005KT 10SM OVC042 13/04 A3025 10 54 -100 150/05 RMK AO2
53843K79J 79J20160125124010001/25/16 12:40:31  5-MIN K79J 251740Z AUTO 14006KT 10SM OVC042 13/04 A3025 10 54 -100 140/06 RMK AO2
53843K79J 79J20160125124510001/25/16 12:45:31  5-MIN K79J 251745Z AUTO 15006KT 10SM OVC042 13/04 A3025 10 54 -100 150/06 RMK AO2
53843K79J 79J20160125125013501/25/16 12:50:31  5-MIN K79J 251750Z AUTO 15004KT 10SM OVC042 13/05 A3025 10 57 -100 150/04 RMK AO2 SLP241 T01330050 10133 20006 51022
53843K79J 79J20160125125513501/25/16 12:55:31  5-MIN K79J 251755Z AUTO 14004KT 10SM OVC042 13/05 A3024 10 57 -100 150/04 RMK AO2 SLP240 T01330050 10133 20006 51022
53843K79J 79J20160125130009701/25/16 13:00:31  5-MIN K79J 251800Z AUTO 14004KT 10SM OVC044 14/05 A3024 10 55 0 140/04 RMK AO2
53843K79J 79J20160125130509701/25/16 13:05:31  5-MIN K79J 251805Z AUTO 12004KT 10SM OVC044 14/05 A3025 10 55 0 120/04 RMK AO2
53843K79J 79J20160125131009701/25/16 13:10:31  5-MIN K79J 251810Z AUTO 00000KT 10SM OVC044 14/05 A3025 10 55 0 000/00 RMK AO2
53843K79J 79J20160125131509701/25/16 13:15:31  5-MIN K79J 251815Z AUTO VRB03KT 10SM OVC044 14/05 A3024 10 55 0 VRB/03 RMK AO2
53843K79J 79J20160125132009701/25/16 13:20:31  5-MIN K79J 251820Z AUTO 16004KT 10SM OVC044 14/05 A3024 20 55 0 160/04 RMK AO2
53843K79J 79J20160125132509701/25/16 13:25:31  5-MIN K79J 251825Z AUTO VRB03KT 10SM OVC044 14/05 A3024 20 55 0 VRB/03 RMK AO2
53843K79J 79J20160125133009701/25/16 13:30:31  5-MIN K79J 251830Z AUTO VRB04KT 10SM OVC044 14/05 A3024 20 55 0 VRB/04 RMK AO2
53843K79J 79J20160125133509701/25/16 13:35:31  5-MIN K79J 251835Z AUTO 14004KT 10SM OVC044 14/05 A3024 20 55 0 150/04 RMK AO2
53843K79J 79J20160125134009701/25/16 13:40:31  5-MIN K79J 251840Z AUTO VRB03KT 10SM OVC044 14/06 A3024 20 55 0 VRB/03 RMK AO2
53843K79J 79J20160125134509701/25/16 13:45:31  5-MIN K79J 251845Z AUTO 14005KT 10SM OVC044 14/06 A3023 30 55 0 140/05 RMK AO2
53843K79J 79J20160125135011401/25/16 13:50:31  5-MIN K79J 251850Z AUTO 13004KT 10SM OVC044 14/06 A3023 30 55 0 140/04 RMK AO2 SLP236 T01440056
53843K79J 79J20160125135511601/25/16 13:55:31  5-MIN K79J 251855Z AUTO 12005KT 10SM OVC046 15/06 A3023 30 53 100 130/05 RMK AO2 SLP235 T01500056
53843K79J 79J20160125140009901/25/16 14:00:31  5-MIN K79J 251900Z AUTO 13007KT 10SM OVC046 15/06 A3023 30 53 100 130/07 RMK AO2
53843K79J 79J20160125140509901/25/16 14:05:31  5-MIN K79J 251905Z AUTO 14006KT 10SM OVC046 15/06 A3022 30 53 100 140/06 RMK AO2
53843K79J 79J20160125141009901/25/16 14:10:31  5-MIN K79J 251910Z AUTO VRB03KT 10SM OVC046 15/06 A3022 40 53 100 VRB/03 RMK AO2
53843K79J 79J20160125141509901/25/16 14:15:31  5-MIN K79J 251915Z AUTO VRB03KT 10SM OVC046 15/06 A3022 40 55 100 VRB/03 RMK AO2
53843K79J 79J20160125142009901/25/16 14:20:31  5-MIN K79J 251920Z AUTO 13005KT 10SM OVC046 15/06 A3022 30 55 100 130/05 RMK AO2
53843K79J 79J20160125142509901/25/16 14:25:31  5-MIN K79J 251925Z AUTO VRB03KT 10SM OVC046 16/06 A3022 30 53 100 VRB/03 RMK AO2
53843K79J 79J20160125143009901/25/16 14:30:31  5-MIN K79J 251930Z AUTO VRB03KT 10SM OVC046 16/06 A3023 30 53 100 VRB/03 RMK AO2
53843K79J 79J20160125143509901/25/16 14:35:31  5-MIN K79J 251935Z AUTO 15003KT 10SM OVC046 16/06 A3022 30 53 100 150/03 RMK AO2
53843K79J 79J20160125144009901/25/16 14:40:31  5-MIN K79J 251940Z AUTO 14003KT 10SM OVC046 16/06 A3022 30 53 100 140/03 RMK AO2
53843K79J 79J20160125144509901/25/16 14:45:31  5-MIN K79J 251945Z AUTO 11006KT 10SM OVC046 16/06 A3022 40 53 200 110/06 RMK AO2
53843K79J 79J20160125145011601/25/16 14:50:31  5-MIN K79J 251950Z AUTO 12005KT 10SM OVC048 16/07 A3022 40 55 200 120/05 RMK AO2 SLP232 T01560067
53843K79J 79J20160125145511601/25/16 14:55:31  5-MIN K79J 251955Z AUTO 12005KT 10SM OVC048 16/07 A3022 40 55 200 130/05 RMK AO2 SLP231 T01560067
53843K79J 79J20160125150009901/25/16 15:00:31  5-MIN K79J 252000Z AUTO VRB05KT 10SM OVC048 16/07 A3022 30 55 100 VRB/05 RMK AO2
53843K79J 79J20160125150509901/25/16 15:05:31  5-MIN K79J 252005Z AUTO 13005KT 10SM OVC048 16/07 A3022 40 55 200 130/05 RMK AO2
53843K79J 79J20160125151009901/25/16 15:10:31  5-MIN K79J 252010Z AUTO 12005KT 10SM OVC048 16/07 A3022 40 53 200 130/05 RMK AO2
53843K79J 79J20160125151509901/25/16 15:15:31  5-MIN K79J 252015Z AUTO 13004KT 10SM OVC048 16/07 A3021 40 53 200 130/04 RMK AO2
53843K79J 79J20160125152009901/25/16 15:20:31  5-MIN K79J 252020Z AUTO 15003KT 10SM OVC048 16/07 A3021 40 53 200 150/03 RMK AO2
53843K79J 79J20160125152509901/25/16 15:25:31  5-MIN K79J 252025Z AUTO 14003KT 10SM OVC050 16/07 A3021 40 53 200 140/03 RMK AO2
53843K79J 79J20160125153009901/25/16 15:30:31  5-MIN K79J 252030Z AUTO 15003KT 10SM OVC050 16/07 A3021 50 53 200 150/03 RMK AO2
53843K79J 79J20160125153509901/25/16 15:35:31  5-MIN K79J 252035Z AUTO 13004KT 10SM OVC050 16/07 A3021 50 55 200 130/04 RMK AO2
53843K79J 79J20160125154009901/25/16 15:40:31  5-MIN K79J 252040Z AUTO 14004KT 10SM OVC050 16/07 A3021 50 53 200 140/04 RMK AO2
53843K79J 79J20160125154509901/25/16 15:45:31  5-MIN K79J 252045Z AUTO 13005KT 10SM OVC050 16/07 A3021 50 55 200 130/05 RMK AO2
53843K79J 79J20160125155012201/25/16 15:50:31  5-MIN K79J 252050Z AUTO 13006KT 10SM OVC050 16/07 A3021 50 55 200 130/06 RMK AO2 SLP228 T01610072 58010
53843K79J 79J20160125155512201/25/16 15:55:31  5-MIN K79J 252055Z AUTO 13005KT 10SM OVC050 16/07 A3021 50 55 200 130/05 RMK AO2 SLP228 T01610072 58010
53843K79J 79J20160125160009901/25/16 16:00:31  5-MIN K79J 252100Z AUTO 14005KT 10SM OVC050 16/07 A3020 50 55 200 140/05 RMK AO2
53843K79J 79J20160125160509901/25/16 16:05:31  5-MIN K79J 252105Z AUTO 14005KT 10SM OVC050 16/07 A3020 60 55 200 140/05 RMK AO2
53843K79J 79J20160125161009901/25/16 16:10:31  5-MIN K79J 252110Z AUTO 14004KT 10SM OVC050 16/07 A3019 60 55 200 140/04 RMK AO2
53843K79J 79J20160125161509901/25/16 16:15:31  5-MIN K79J 252115Z AUTO 14004KT 10SM OVC050 16/07 A3019 60 55 300 140/04 RMK AO2
53843K79J 79J20160125162009901/25/16 16:20:31  5-MIN K79J 252120Z AUTO 14005KT 10SM OVC050 17/07 A3018 70 53 300 140/05 RMK AO2
53843K79J 79J20160125162509901/25/16 16:25:31  5-MIN K79J 252125Z AUTO 14005KT 10SM OVC050 17/07 A3018 70 53 300 140/05 RMK AO2
53843K79J 79J20160125163009901/25/16 16:30:31  5-MIN K79J 252130Z AUTO 14004KT 10SM OVC050 17/08 A3018 70 55 300 150/04 RMK AO2
53843K79J 79J20160125163509901/25/16 16:35:31  5-MIN K79J 252135Z AUTO 13007KT 10SM OVC050 17/07 A3018 80 53 300 140/07 RMK AO2
53843K79J 79J20160125164009901/25/16 16:40:31  5-MIN K79J 252140Z AUTO VRB05KT 10SM OVC055 17/07 A3018 70 53 300 VRB/05 RMK AO2
53843K79J 79J20160125164509901/25/16 16:45:31  5-MIN K79J 252145Z AUTO 14007KT 10SM OVC050 17/07 A3018 70 53 300 150/07 RMK AO2
53843K79J 79J20160125165011601/25/16 16:50:31  5-MIN K79J 252150Z AUTO 15004KT 10SM OVC055 17/07 A3018 70 53 300 150/04 RMK AO2 SLP219 T01670072
53843K79J 79J20160125165511601/25/16 16:55:31  5-MIN K79J 252155Z AUTO 15004KT 10SM OVC055 17/08 A3018 70 55 300 150/04 RMK AO2 SLP218 T01670078
53843K79J 79J20160125170009901/25/16 17:00:31  5-MIN K79J 252200Z AUTO 15005KT 10SM OVC055 17/08 A3018 70 55 300 150/05 RMK AO2
53843K79J 79J20160125170509901/25/16 17:05:31  5-MIN K79J 252205Z AUTO 15006KT 10SM OVC055 17/08 A3018 80 55 300 150/06 RMK AO2
53843K79J 79J20160125171007501/25/16 17:10:31  5-MIN K79J 252210Z AUTO 15005KT 10SM OVC055 17/08 A3018 
53843K79J 79J20160126182510701/26/16 18:25:31  5-MIN K79J 262325Z AUTO VRB03KT 10SM BKN070 BKN090 19/14 A3004 200 72 700 VRB/03 RMK AO2
53843K79J 79J20160126183010701/26/16 18:30:31  5-MIN K79J 262330Z AUTO VRB04KT 10SM SCT070 BKN090 19/14 A3004 200 72 700 VRB/04 RMK AO2
53843K79J 79J20160126183510701/26/16 18:35:31  5-MIN K79J 262335Z AUTO VRB04KT 10SM FEW075 OVC090 19/14 A3004 210 72 700 VRB/04 RMK AO2
53843K79J 79J20160126184010701/26/16 18:40:31  5-MIN K79J 262340Z AUTO 00000KT 10SM SCT080 BKN090 19/14 A3004 200 72 700 000/00 RMK AO2
53843K79J 79J20160126212511701/26/16 21:25:31  5-MIN K79J 270225Z AUTO 03006KT 10SM -RA BKN005 OVC021 16/13 A3008 160 83 300 030/06 RMK AO2 P0006
53843K79J 79J20160126213011701/26/16 21:30:31  5-MIN K79J 270230Z AUTO 04008KT 10SM -RA BKN005 OVC018 16/13 A3008 160 83 300 040/08 RMK AO2 P0006
53843K79J 79J20160126213511701/26/16 21:35:31  5-MIN K79J 270235Z AUTO 04009KT 10SM -RA BKN005 OVC018 16/13 A3008 170 83 300 040/09 RMK AO2 P0006
53843K79J 79J20160126214011901/26/16 21:40:31  5-MIN K79J 270240Z AUTO 04006KT 10SM BKN007 OVC020 16/13 A3008 170 83 300 050/06 RMK AO2 RAE39 P0006
53843K79J 79J20160126214512501/26/16 21:45:31  5-MIN K79J 270245Z AUTO 04008G15KT 10SM BKN007 OVC020 16/12 A3008 160 80 300 040/08G15 RMK AO2 RAE39 P0006
53843K79J 79J20160126215014501/26/16 21:50:31  5-MIN K79J 270250Z AUTO 04007G15KT 10SM -RA OVC007 16/12 A3008 160 80 300 050/07G15 RMK AO2 SLP184 P0006 60010 T01560122 56004
53843K79J 79J20160126215513901/26/16 21:55:31  5-MIN K79J 270255Z AUTO VRB06KT 10SM -RA OVC007 16/12 A3009 160 80 300 VRB/06 RMK AO2 SLP185 P0006 60010 T01560122 56004
53843K79J 79J20160126220011001/26/16 22:00:31  5-MIN K79J 270300Z AUTO 04005KT 10SM -RA OVC007 15/12 A3009 160 83 200 050/05 RMK AO2 P0000
53843K79J 79J20160126220511201/26/16 22:05:31  5-MIN K79J 270305Z AUTO 04008KT 10SM OVC007 15/12 A3009 160 83 200 050/08 RMK AO2 RAE03 P0000
53843K79J 79J20160126221011201/26/16 22:10:31  5-MIN K79J 270310Z AUTO 06008KT 10SM OVC007 15/12 A3009 160 83 200 060/08 RMK AO2 RAE03 P0000
53843K79J 79J20160126221511001/26/16 22:15:31  5-MIN K79J 270315Z AUTO 05006KT 10SM -RA OVC007 15/12 A3009 160 83 200 060/06 RMK AO2 P0000
53843K79J 79J20160126222011001/26/16 22:20:31  5-MIN K79J 270320Z AUTO 05005KT 10SM -RA OVC007 15/12 A3009 160 83 200 050/05 RMK AO2 P0000
53843K79J 79J20160126222511001/26/16 22:25:31  5-MIN K79J 270325Z AUTO 05007KT 10SM -RA OVC007 15/12 A3009 160 83 200 060/07 RMK AO2 P0000
53843K79J 79J20160126223011001/26/16 22:30:31  5-MIN K79J 270330Z AUTO 05006KT 10SM -RA OVC007 15/12 A3009 150 83 200 060/06 RMK AO2 P0001
53843K79J 79J20160126223510801/26/16 22:35:31  5-MIN K79J 270335Z AUTO 05008KT 9SM RA OVC007 15/12 A3009 150 83 200 050/08 RMK AO2 P0001
53843K79J 79J20160126224010901/26/16 22:40:31  5-MIN K79J 270340Z AUTO VRB05KT 6SM +RA OVC007 15/12 A3009 160 83 200 VRB/05 RMK AO2 P0003
53843K79J 79J20160126224510901/26/16 22:45:31  5-MIN K79J 270345Z AUTO 06006KT 5SM +RA OVC007 15/12 A3009 160 83 200 060/06 RMK AO2 P0004
53843K79J 79J20160126225012501/26/16 22:50:31  5-MIN K79J 270350Z AUTO 06007KT 5SM RA OVC007 15/12 A3009 160 83 200 060/07 RMK AO2 SLP185 P0005 T01500122
53843K79J 79J20160126225512501/26/16 22:55:31  5-MIN K79J 270355Z AUTO 06006KT 6SM RA OVC007 15/12 A3009 160 83 200 060/06 RMK AO2 SLP184 P0006 T01500122
53843K79J 79J20160126230011601/26/16 23:00:31  5-MIN K79J 270400Z AUTO 05006KT 6SM +RA BKN007 OVC038 15/12 A3009 150 83 200 050/06 RMK AO2 P0001
53843K79J 79J20160126230511501/26/16 23:05:31  5-MIN K79J 270405Z AUTO 06005KT 6SM RA BKN007 OVC038 15/12 A3009 160 83 200 060/05 RMK AO2 P0002
53843K79J 79J20160126231011601/26/16 23:10:31  5-MIN K79J 270410Z AUTO 05006KT 8SM -RA BKN007 OVC037 15/12 A3009 160 83 200 060/06 RMK AO2 P0002
53843K79J 79J20160126231511001/26/16 23:15:31  5-MIN K79J 270415Z AUTO 06007KT 10SM -RA BKN007 15/12 A3009 150 83 200 060/07 RMK AO2 P0002
53843K79J 79J20160126232011001/26/16 23:20:31  5-MIN K79J 270420Z AUTO 05006KT 10SM -RA OVC007 15/12 A3009 150 83 200 050/06 RMK AO2 P0002
53843K79J 79J20160126232511001/26/16 23:25:31  5-MIN K79J 270425Z AUTO 06007KT 10SM -RA OVC007 15/12 A3009 150 83 200 060/07 RMK AO2 P0002
53843K79J 79J20160126233011001/26/16 23:30:31  5-MIN K79J 270430Z AUTO 07006KT 10SM -RA OVC007 15/12 A3009 160 80 200 070/06 RMK AO2 P0002
53843K79J 79J20160126233511001/26/16 23:35:31  5-MIN K79J 270435Z AUTO 06006KT 10SM -RA OVC007 14/12 A3009 160 86 200 070/06 RMK AO2 P0003
53843K79J 79J20160126234011001/26/16 23:40:31  5-MIN K79J 270440Z AUTO 06006KT 10SM -RA OVC007 14/12 A3008 160 86 200 060/06 RMK AO2 P0003
53843K79J 79J20160126234511701/26/16 23:45:31  5-MIN K79J 270445Z AUTO 06008KT 10SM -RA BKN007 OVC048 14/12 A3008 160 86 200 060/08 RMK AO2 P0003
53843K79J 79J20160126235015101/26/16 23:50:31  5-MIN K79J 270450Z AUTO 05006KT 10SM -RA BKN007 BKN014 OVC048 14/12 A3008 160 83 200 060/06 RMK AO2 SLP184 P0003 T01440117 402110122
53843K79J 79J20160126235514401/26/16 23:55:31  5-MIN K79J 270455Z AUTO 05007KT 10SM -RA BKN007 OVC014 14/12 A3008 160 83 200 050/07 RMK AO2 SLP184 P0003 T01440117 402110122
53843K79J 79J20160127000011701/27/16 00:00:31  5-MIN K79J 270500Z AUTO 07006KT 10SM -RA BKN007 OVC014 14/12 A3008 160 83 200 070/06 RMK AO2 P0000
53843K79J 79J20160127000512901/27/16 00:05:31  5-MIN K79J 270505Z AUTO 07008KT 10SM -RA BKN007 OVC014 14/12 A3008 160 83 200 070/08 RMK AO2 CIG 005V010 P0001
53843K79J 79J20160127001011601/27/16 00:10:31  5-MIN K79J 270510Z AUTO 07008KT 9SM -RA BKN007 OVC016 14/12 A3008 160 83 200 080/08 RMK AO2 P0001
53843K79J 79J20160127001511601/27/16 00:15:31  5-MIN K79J 270515Z AUTO 09006KT 8SM -RA BKN007 OVC016 14/12 A3008 170 83 200 090/06 RMK AO2 P0001
53843K79J 79J20160127002012301/27/16 00:20:31  5-MIN K79J 270520Z AUTO 09008KT 7SM -RA BKN007 BKN016 OVC039 14/12 A3008 170 83 200 090/08 RMK AO2 P0001
53843K79J 79J20160127002512301/27/16 00:25:31  5-MIN K79J 270525Z AUTO 08007KT 8SM -RA BKN007 BKN016 OVC042 14/12 A3007 170 83 200 080/07 RMK AO2 P0002
53843K79J 79J20160127003012301/27/16 00:30:31  5-MIN K79J 270530Z AUTO 07007KT 9SM -RA BKN007 BKN016 OVC042 14/12 A3007 170 83 200 070/07 RMK AO2 P0002
53843K79J 79J20160127003512301/27/16 00:35:31  5-MIN K79J 270535Z AUTO 08006KT 9SM -RA BKN007 BKN016 OVC038 14/12 A3007 170 83 200 080/06 RMK AO2 P0002
53843K79J 79J20160127004012401/27/16 00:40:31  5-MIN K79J 270540Z AUTO 07005KT 10SM -RA BKN007 BKN040 OVC060 14/12 A3007 170 86 200 080/05 RMK AO2 P0002
53843K79J 79J20160127004511701/27/16 00:45:31  5-MIN K79J 270545Z AUTO 07005KT 10SM -RA BKN007 OVC080 14/12 A3007 170 83 200 070/05 RMK AO2 P0002
53843K79J 79J20160127005015101/27/16 00:50:31  5-MIN K79J 270550Z AUTO 06006KT 10SM -RA OVC007 14/12 A3007 170 83 200 060/06 RMK AO2 SLP180 P0002 60021 T01440117 10189 20144 53017
53843K79J 79J20160127005515901/27/16 00:55:31  5-MIN K79J 270555Z AUTO VRB04KT 10SM -TSRA OVC007 14/12 A3007 170 83 200 VRB/04 RMK AO2 TSB51 SLP180 P0003 60022 T01440117 10189 20144 53017
53843K79J 79J20160127010011201/27/16 01:00:31  5-MIN K79J 270600Z AUTO 08006KT 10SM -TSRA OVC007 14/12 A3006 180 83 200 080/06 RMK AO2 P0000
53843K79J 79J20160127010511101/27/16 01:05:31  5-MIN K79J 270605Z AUTO 08006KT 9SM -TSRA OVC007 14/12 A3007 180 83 200 090/06 RMK AO2 P0000
53843K79J 79J20160127011011801/27/16 01:10:31  5-MIN K79J 270610Z AUTO 08006KT 9SM -TSRA BKN007 OVC049 14/12 A3006 190 83 200 080/06 RMK AO2 P0001
53843K79J 79J20160127011512401/27/16 01:15:31  5-MIN K79J 270615Z AUTO 08007KT 8SM TSRA BKN007 BKN049 OVC070 14/12 A3005 190 83 200 080/07 RMK AO2 P0002
53843K79J 79J20160127012012501/27/16 01:20:31  5-MIN K79J 270620Z AUTO 08009KT 8SM -TSRA BKN007 BKN014 OVC100 14/12 A3006 180 83 200 080/09 RMK AO2 P0002
53843K79J 79J20160127012513001/27/16 01:25:31  5-MIN K79J 270625Z AUTO 09006KT 10SM -RA BKN007 BKN014 OVC100 14/12 A3007 180 83 200 100/06 RMK AO2 TSE21 P0002
53843K79J 79J20160127013012301/27/16 01:30:31  5-MIN K79J 270630Z AUTO 09004KT 10SM -RA BKN007 BKN014 14/12 A3006 180 83 200 090/04 RMK AO2 TSE21 P0002
53843K79J 79J20160127013512301/27/16 01:35:31  5-MIN K79J 270635Z AUTO VRB05KT 10SM -RA BKN007 OVC014 14/12 A3007 180 83 200 VRB/05 RMK AO2 TSE21 P0002
53843K79J 79J20160127014012301/27/16 01:40:31  5-MIN K79J 270640Z AUTO 10005KT 10SM -RA BKN007 OVC014 14/12 A3006 180 83 200 100/05 RMK AO2 TSE21 P0002
53843K79J 79J20160127014512301/27/16 01:45:31  5-MIN K79J 270645Z AUTO 09006KT 10SM -RA BKN007 OVC014 14/12 A3006 180 83 200 090/06 RMK AO2 TSE21 P0003
53843K79J 79J20160127015013101/27/16 01:50:31  5-MIN K79J 270650Z AUTO 08005KT 9SM RA OVC007 14/12 A3006 190 83 200 080/05 RMK AO2 TSE21 SLP175 P0003 T01440117
53843K79J 79J20160127015513801/27/16 01:55:31  5-MIN K79J 270655Z AUTO 06005KT 7SM RA BKN007 OVC014 14/12 A3005 190 83 200 060/05 RMK AO2 TSE21 SLP174 P0004 T01440117
53843K79J 79J20160127020012601/27/16 02:00:31  5-MIN K79J 270700Z AUTO 08005KT 6SM +RA BR BKN007 BKN014 OVC045 14/12 A3005 190 86 100 080/05 RMK AO2 P0001
53843K79J 79J20160127020511801/27/16 02:05:31  5-MIN K79J 270705Z AUTO 10005KT 5SM RA BR BKN007 OVC045 14/12 A3006 190 86 100 110/05 RMK AO2 P0002
53843K79J 79J20160127021011801/27/16 02:10:31  5-MIN K79J 270710Z AUTO VRB03KT 5SM RA BR BKN007 OVC045 14/12 A3006 190 86 100 VRB/03 RMK AO2 P0003
53843K79J 79J20160127021511801/27/16 02:15:31  5-MIN K79J 270715Z AUTO 11005KT 5SM RA BR BKN005 OVC045 14/12 A3005 190 86 100 110/05 RMK AO2 P0003
53843K79J 79J20160127022011901/27/16 02:20:31  5-MIN K79J 270720Z AUTO 11005KT 4SM +RA BR BKN005 OVC045 14/12 A3005 190 86 100 110/05 RMK AO2 P0005
53843K79J 79J20160127022512501/27/16 02:25:31  5-MIN K79J 270725Z AUTO 11004KT 4SM RA BR BKN005 BKN035 OVC045 14/12 A3005 190 86 100 110/04 RMK AO2 P0005
53843K79J 79J20160127023011801/27/16 02:30:31  5-MIN K79J 270730Z AUTO 09003KT 6SM RA BR BKN005 OVC035 14/12 A3005 190 86 100 090/03 RMK AO2 P0006
53843K79J 79J20160127023511601/27/16 02:35:31  5-MIN K79J 270735Z AUTO 10004KT 8SM -RA BKN005 OVC049 14/12 A3005 190 86 100 100/04 RMK AO2 P0006
53843K79J 79J20160127024011601/27/16 02:40:31  5-MIN K79J 270740Z AUTO 10005KT 7SM -RA BKN005 OVC029 14/12 A3005 190 86 100 100/05 RMK AO2 P0006
53843K79J 79J20160127024512501/27/16 02:45:31  5-MIN K79J 270745Z AUTO 09005KT 4SM RA BR BKN005 BKN027 OVC049 14/12 A3004 200 86 200 100/05 RMK AO2 P0008
53843K79J 79J20160127025014201/27/16 02:50:31  5-MIN K79J 270750Z AUTO 07005KT 4SM RA BR BKN005 BKN027 OVC049 14/12 A3004 200 86 200 070/05 RMK AO2 SLP168 P0008 T01390117
53843K79J 79J20160127025514301/27/16 02:55:31  5-MIN K79J 270755Z AUTO VRB03KT 6SM -RA BR BKN005 BKN024 OVC049 14/12 A3004 200 86 200 VRB/03 RMK AO2 SLP170 P0008 T01390117
53843K79J 79J20160127030011701/27/16 03:00:31  5-MIN K79J 270800Z AUTO 06003KT 10SM -RA BKN005 OVC024 14/12 A3004 200 86 200 060/03 RMK AO2 P0000
53843K79J 79J20160127030511701/27/16 03:05:31  5-MIN K79J 270805Z AUTO 07003KT 10SM -RA BKN005 OVC024 14/12 A3004 200 86 200 080/03 RMK AO2 P0000
53843K79J 79J20160127031011001/27/16 03:10:31  5-MIN K79J 270810Z AUTO 07003KT 10SM -RA OVC005 14/12 A3004 200 86 200 080/03 RMK AO2 P0000
53843K79J 79J20160127031511001/27/16 03:15:31  5-MIN K79J 270815Z AUTO 05004KT 10SM -RA OVC005 14/12 A3003 210 86 200 050/04 RMK AO2 P0001
53843K79J 79J20160127032011001/27/16 03:20:31  5-MIN K79J 270820Z AUTO 05006KT 10SM -RA OVC005 14/11 A3002 220 83 200 050/06 RMK AO2 P0001
53843K79J 79J20160127032511001/27/16 03:25:31  5-MIN K79J 270825Z AUTO 03006KT 10SM -RA OVC005 14/11 A3002 220 83 200 040/06 RMK AO2 P0001
53843K79J 79J20160127033011001/27/16 03:30:31  5-MIN K79J 270830Z AUTO 03005KT 10SM -RA OVC005 14/12 A3003 210 86 200 030/05 RMK AO2 P0001
53843K79J 79J20160127033511001/27/16 03:35:31  5-MIN K79J 270835Z AUTO 03006KT 10SM -RA OVC005 14/11 A3003 210 83 200 030/06 RMK AO2 P0001
53843K79J 79J20160127034011001/27/16 03:40:31  5-MIN K79J 270840Z AUTO 03004KT 10SM -RA OVC005 14/12 A3003 210 86 200 030/04 RMK AO2 P0001
53843K79J 79J20160127034511001/27/16 03:45:31  5-MIN K79J 270845Z AUTO 04003KT 10SM -RA OVC005 14/12 A3003 210 86 200 050/03 RMK AO2 P0001
53843K79J 79J20160127035013901/27/16 03:50:31  5-MIN K79J 270850Z AUTO 07004KT 10SM -RA OVC005 14/12 A3003 210 86 200 070/04 RMK AO2 SLP166 P0002 60014 T01390117 58005
53843K79J 79J20160127035513901/27/16 03:55:31  5-MIN K79J 270855Z AUTO VRB04KT 10SM -RA OVC005 14/11 A3003 210 83 200 VRB/04 RMK AO2 SLP167 P0002 60014 T01390111 58005
53843K79J 79J20160127040010801/27/16 04:00:31  5-MIN K79J 270900Z AUTO 03006KT 9SM RA OVC005 14/11 A3003 210 83 200 030/06 RMK AO2 P0000
53843K79J 79J20160127040510801/27/16 04:05:31  5-MIN K79J 270905Z AUTO 04004KT 7SM RA OVC005 14/11 A3003 210 83 200 040/04 RMK AO2 P0000
53843K79J 79J20160127041010901/27/16 04:10:31  5-MIN K79J 270910Z AUTO 00000KT 8SM -RA OVC005 14/12 A3004 210 86 200 000/00 RMK AO2 P0001
53843K79J 79J20160127041511001/27/16 04:15:31  5-MIN K79J 270915Z AUTO 05004KT 10SM -RA OVC005 14/11 A3003 210 83 200 050/04 RMK AO2 P0001
53843K79J 79J20160127042011001/27/16 04:20:31  5-MIN K79J 270920Z AUTO 05003KT 10SM -RA OVC005 14/11 A3003 210 83 200 050/03 RMK AO2 P0001
53843K79J 79J20160127042511001/27/16 04:25:31  5-MIN K79J 270925Z AUTO 00000KT 10SM -RA OVC005 14/12 A3003 210 86 200 000/00 RMK AO2 P0001
53843K79J 79J20160127043011601/27/16 04:30:31  5-MIN K79J 270930Z AUTO 10003KT 10SM RA BKN005 OVC041 14/11 A3003 210 83 200 100/03 RMK AO2 P0001
53843K79J 79J20160127043511701/27/16 04:35:31  5-MIN K79J 270935Z AUTO 00000KT 10SM -RA BKN005 OVC041 14/12 A3003 210 86 200 000/00 RMK AO2 P0002
53843K79J 79J20160127044011501/27/16 04:40:31  5-MIN K79J 270940Z AUTO 10004KT 9SM RA BKN005 OVC042 14/11 A3003 210 83 200 100/04 RMK AO2 P0003
53843K79J 79J20160127044511501/27/16 04:45:31  5-MIN K79J 270945Z AUTO 08003KT 7SM RA BKN005 OVC042 14/11 A3003 210 83 200 080/03 RMK AO2 P0003
53843K79J 79J20160127045013201/27/16 04:50:31  5-MIN K79J 270950Z AUTO 06003KT 6SM RA BKN005 OVC043 14/11 A3003 210 83 200 060/03 RMK AO2 SLP167 P0004 T01390111
53843K79J 79J20160127045513301/27/16 04:55:31  5-MIN K79J 270955Z AUTO 06003KT 5SM +RA BKN005 OVC039 14/11 A3003 210 83 200 060/03 RMK AO2 SLP165 P0005 T01390111
53843K79J 79J20160127050011501/27/16 05:00:31  5-MIN K79J 271000Z AUTO 03004KT 5SM RA BKN005 OVC041 14/11 A3003 210 83 200 040/04 RMK AO2 P0001
53843K79J 79J20160127050512201/27/16 05:05:31  5-MIN K79J 271005Z AUTO 04004KT 6SM RA BKN005 BKN009 OVC043 14/11 A3003 210 83 200 040/04 RMK AO2 P0001
53843K79J 79J20160127051012301/27/16 05:10:31  5-MIN K79J 271010Z AUTO 09003KT 7SM -RA BKN005 BKN009 OVC039 14/11 A3002 220 83 200 090/03 RMK AO2 P0002
53843K79J 79J20160127051512201/27/16 05:15:31  5-MIN K79J 271015Z AUTO 09005KT 7SM RA SCT005 BKN009 OVC080 14/11 A3002 220 83 200 090/05 RMK AO2 P0002
53843K79J 79J20160127052012201/27/16 05:20:31  5-MIN K79J 271020Z AUTO 00000KT 7SM RA SCT005 BKN009 OVC100 14/11 A3003 220 83 200 000/00 RMK AO2 P0003
53843K79J 79J20160127052512301/27/16 05:25:31  5-MIN K79J 271025Z AUTO 00000KT 9SM -RA BKN005 BKN009 OVC100 14/11 A3003 210 83 200 000/00 RMK AO2 P0003
53843K79J 79J20160127053012401/27/16 05:30:31  5-MIN K79J 271030Z AUTO 04003KT 10SM -RA BKN005 BKN009 OVC100 14/12 A3003 210 86 200 040/03 RMK AO2 P0003
53843K79J 79J20160127053512401/27/16 05:35:31  5-MIN K79J 271035Z AUTO 03003KT 10SM -RA BKN005 BKN009 OVC100 14/11 A3004 210 83 200 030/03 RMK AO2 P0003
53843K79J 79J20160127054011701/27/16 05:40:31  5-MIN K79J 271040Z AUTO 02003KT 10SM -RA BKN005 OVC100 14/11 A3004 200 83 200 020/03 RMK AO2 P0003
53843K79J 79J20160127054511001/27/16 05:45:31  5-MIN K79J 271045Z AUTO 00000KT 10SM -RA OVC005 14/11 A3004 200 83 200 000/00 RMK AO2 P0003
53843K79J 79J20160127055012701/27/16 05:50:31  5-MIN K79J 271050Z AUTO 01004KT 10SM -RA OVC005 14/11 A3004 200 83 200 010/04 RMK AO2 SLP170 P0003 T01390111
53843K79J 79J20160127055512701/27/16 05:55:31  5-MIN K79J 271055Z AUTO 01004KT 10SM -RA OVC005 14/11 A3004 200 83 200 010/04 RMK AO2 SLP169 P0004 T01390111
53843K79J 79J20160127060010801/27/16 06:00:31  5-MIN K79J 271100Z AUTO 02004KT 9SM RA OVC005 14/11 A3004 200 83 200 020/04 RMK AO2 P0000
53843K79J 79J20160127060510801/27/16 06:05:31  5-MIN K79J 271105Z AUTO 02005KT 8SM RA OVC005 14/11 A3004 200 83 200 030/05 RMK AO2 P0001
53843K79J 79J20160127061010801/27/16 06:10:31  5-MIN K79J 271110Z AUTO 02005KT 8SM RA OVC005 14/11 A3004 200 83 200 020/05 RMK AO2 P0001
53843K79J 79J20160127061510801/27/16 06:15:31  5-MIN K79J 271115Z AUTO 03006KT 8SM RA OVC005 14/11 A3004 200 83 200 040/06 RMK AO2 P0002
53843K79J 79J20160127062010801/27/16 06:20:31  5-MIN K79J 271120Z AUTO 02007KT 7SM RA OVC005 14/11 A3004 200 83 200 030/07 RMK AO2 P0003
53843K79J 79J20160127062510801/27/16 06:25:31  5-MIN K79J 271125Z AUTO 01006KT 6SM RA OVC005 14/11 A3004 200 83 200 010/06 RMK AO2 P0003
53843K79J 79J20160127063010801/27/16 06:30:31  5-MIN K79J 271130Z AUTO 04005KT 6SM RA OVC005 14/11 A3004 200 83 200 040/05 RMK AO2 P0004
53843K79J 79J20160127063510801/27/16 06:35:31  5-MIN K79J 271135Z AUTO 03006KT 6SM RA OVC005 14/11 A3004 200 83 200 030/06 RMK AO2 P0004
53843K79J 79J20160127064010901/27/16 06:40:31  5-MIN K79J 271140Z AUTO 03005KT 6SM -RA OVC005 14/11 A3004 200 83 200 030/05 RMK AO2 P0004
53843K79J 79J20160127064510801/27/16 06:45:31  5-MIN K79J 271145Z AUTO 07005KT 7SM RA OVC005 14/11 A3004 200 83 200 070/05 RMK AO2 P0005
53843K79J 79J20160127065017501/27/16 06:50:31  5-MIN K79J 271150Z AUTO 06004KT 8SM -RA BKN005 OVC015 14/11 A3005 200 83 200 070/04 RMK AO2 CIG 004V009 SLP171 P0005 60028 70050 T01390111 10144 20139 56013
53843K79J 79J20160127065517501/27/16 06:55:31  5-MIN K79J 271155Z AUTO 04004KT 8SM -RA BKN005 OVC015 14/11 A3004 200 83 200 040/04 RMK AO2 CIG 004V009 SLP171 P0005 60028 70050 T01390111 10144 20139 56013
53843K79J 79J20160127070012101/27/16 07:00:31  5-MIN K79J 271200Z AUTO 05004KT 9SM -RA OVC005 14/11 A3005 200 83 100 050/04 RMK AO2 CIG 004V009 P0000
53843K79J 79J20160127070510901/27/16 07:05:31  5-MIN K79J 271205Z AUTO 05004KT 9SM -RA OVC007 14/11 A3005 200 83 200 050/04 RMK AO2 P0000
53843K79J 79J20160127071010901/27/16 07:10:31  5-MIN K79J 271210Z AUTO 04004KT 9SM -RA OVC007 14/11 A3005 200 83 200 050/04 RMK AO2 P0001
53843K79J 79J20160127071510901/27/16 07:15:31  5-MIN K79J 271215Z AUTO 04005KT 9SM -RA OVC007 14/11 A3004 200 83 200 040/05 RMK AO2 P0001
53843K79J 79J20160127072010901/27/16 07:20:31  5-MIN K79J 271220Z AUTO 06005KT 9SM -RA OVC007 14/11 A3004 200 83 200 070/05 RMK AO2 P0001
53843K79J 79J20160127072510901/27/16 07:25:31  5-MIN K79J 271225Z AUTO 06005KT 9SM -RA OVC007 14/11 A3004 200 83 200 070/05 RMK AO2 P0001
53843K79J 79J20160127073010901/27/16 07:30:31  5-MIN K79J 271230Z AUTO 05005KT 9SM -RA OVC007 14/11 A3004 200 83 200 050/05 RMK AO2 P0001
53843K79J 79J20160127073511001/27/16 07:35:31  5-MIN K79J 271235Z AUTO 07006KT 10SM -RA OVC007 14/11 A3003 210 83 200 070/06 RMK AO2 P0001
53843K79J 79J20160127074011001/27/16 07:40:31  5-MIN K79J 271240Z AUTO 05005KT 10SM -RA OVC007 14/11 A3004 200 83 200 050/05 RMK AO2 P0001
53843K79J 79J20160127074511001/27/16 07:45:31  5-MIN K79J 271245Z AUTO 04006KT 10SM -RA OVC007 14/11 A3004 200 83 200 050/06 RMK AO2 P0001
53843K79J 79J20160127075014101/27/16 07:50:31  5-MIN K79J 271250Z AUTO 06005KT 10SM OVC007 14/11 A3004 200 83 200 070/05 RMK AO2 RAE46 CIG 005V009 SLP170 P0001 T01390111
53843K79J 79J20160127075512901/27/16 07:55:31  5-MIN K79J 271255Z AUTO 06006KT 10SM OVC007 14/11 A3004 200 83 200 060/06 RMK AO2 RAE46 SLP170 P0001 T01390111
53843K79J 79J20160127080010001/27/16 08:00:31  5-MIN K79J 271300Z AUTO 06005KT 10SM OVC007 14/11 A3004 200 83 200 070/05 RMK AO2
53843K79J 79J20160127080511201/27/16 08:05:31  5-MIN K79J 271305Z AUTO 05006KT 10SM OVC007 14/11 A3004 200 83 200 060/06 RMK AO2 CIG 006V010
53843K79J 79J20160127081010001/27/16 08:10:31  5-MIN K79J 271310Z AUTO 06005KT 10SM OVC007 14/11 A3005 190 83 100 060/05 RMK AO2
53843K79J 79J20160127081510001/27/16 08:15:31  5-MIN K79J 271315Z AUTO VRB04KT 10SM OVC007 14/11 A3005 190 83 100 VRB/04 RMK AO2
53843K79J 79J20160127082010001/27/16 08:20:31  5-MIN K79J 271320Z AUTO 07006KT 10SM OVC007 14/11 A3005 190 83 100 080/06 RMK AO2
53843K79J 79J20160127082510001/27/16 08:25:31  5-MIN K79J 271325Z AUTO 08005KT 10SM OVC007 14/11 A3005 190 83 100 090/05 RMK AO2
53843K79J 79J20160127083010001/27/16 08:30:31  5-MIN K79J 271330Z AUTO 06005KT 10SM OVC007 14/11 A3005 190 83 100 060/05 RMK AO2
53843K79J 79J20160127083510001/27/16 08:35:31  5-MIN K79J 271335Z AUTO 05005KT 10SM OVC007 14/11 A3005 190 83 100 050/05 RMK AO2
53843K79J 79J20160127084010001/27/16 08:40:31  5-MIN K79J 271340Z AUTO 06005KT 10SM OVC007 14/11 A3006 190 83 100 060/05 RMK AO2
53843K79J 79J20160127084510001/27/16 08:45:31  5-MIN K79J 271345Z AUTO VRB03KT 10SM OVC007 14/11 A3005 190 83 100 VRB/03 RMK AO2
53843K79J 79J20160127085011701/27/16 08:50:31  5-MIN K79J 271350Z AUTO VRB03KT 10SM OVC007 14/11 A3006 190 83 100 VRB/03 RMK AO2 SLP175 T01390111
53843K79J 79J20160127085511701/27/16 08:55:31  5-MIN K79J 271355Z AUTO 04004KT 10SM OVC007 14/11 A3006 180 80 100 040/04 RMK AO2 SLP176 T01390106
53843K79J 79J20160127090010001/27/16 09:00:31  5-MIN K79J 271400Z AUTO 06004KT 10SM OVC007 14/11 A3006 180 80 100 060/04 RMK AO2
53843K79J 79J20160127090510001/27/16 09:05:31  5-MIN K79J 271405Z AUTO 06003KT 10SM OVC007 14/11 A3006 180 80 100 060/03 RMK AO2
53843K79J 79J20160127091011601/27/16 09:10:31  5-MIN K79J 271410Z AUTO 04004KT 10SM -RA OVC007 14/11 A3006 180 80 100 040/04 RMK AO2 RAB10 P0000
53843K79J 79J20160127091511601/27/16 09:15:31  5-MIN K79J 271415Z AUTO 04003KT 10SM -RA OVC007 14/11 A3007 180 80 100 040/03 RMK AO2 RAB10 P0000
53843K79J 79J20160127092011501/27/16 09:20:31  5-MIN K79J 271420Z AUTO 02004KT 8SM -RA OVC007 14/11 A3007 180 83 100 030/04 RMK AO2 RAB10 P0001
53843K79J 79J20160127092511501/27/16 09:25:31  5-MIN K79J 271425Z AUTO 03003KT 4SM +RA OVC007 14/11 A3007 170 80 100 030/03 RMK AO2 RAB10 P0001
53843K79J 79J20160127093011401/27/16 09:30:31  5-MIN K79J 271430Z AUTO 00000KT 4SM RA OVC007 14/11 A3007 170 83 100 000/00 RMK AO2 RAB10 P0002
53843K79J 79J20160127093512401/27/16 09:35:31  5-MIN K79J 271435Z AUTO 12006KT 4SM RA BR BKN007 OVC024 13/11 A3006 190 86 100 120/06 RMK AO2 RAB10 P0002
53843K79J 79J20160127094012201/27/16 09:40:31  5-MIN K79J 271440Z AUTO 11007KT 2SM +RA BKN007 OVC024 13/11 A3006 190 83 100 110/07 RMK AO2 RAB10 P0007
53843K79J 79J20160127094513301/27/16 09:45:31  5-MIN K79J 271445Z AUTO VRB03KT 1 1/4SM +RA BKN007 BKN012 OVC024 13/11 A3007 170 83 100 VRB/03 RMK AO2 RAB10 P0009
53843K79J 79J20160127095016301/27/16 09:50:31  5-MIN K79J 271450Z AUTO 35008KT 1 3/4SM +RA BR BKN007 BKN012 OVC024 13/11 A3009 160 86 0 350/08 RMK AO2 RAB10 SLP186 P0011 60012 T01330111 53004
53843K79J 79J20160127095517001/27/16 09:55:31  5-MIN K79J 271455Z AUTO 34007KT 2 1/2SM +RA BR BKN007 BKN012 OVC024 13/11 A3009 150 86 0 340/07 RMK AO2 RAB10 PRESRR SLP189 P0013 60014 T01330111 53004
53843K79J 79J20160127100012401/27/16 10:00:31  5-MIN K79J 271500Z AUTO 36006KT 4SM +RA BR BKN007 BKN012 OVC024 13/11 A3010 150 86 0 360/06 RMK AO2 P0001
53843K79J 79J20160127100513101/27/16 10:05:31  5-MIN K79J 271505Z AUTO 33007KT 6SM -RA BR BKN007 BKN012 OVC020 13/11 A3011 140 86 0 340/07 RMK AO2 PRESRR P0001
53843K79J 79J20160127101011401/27/16 10:10:31  5-MIN K79J 271510Z AUTO 33005KT 9SM -RA BKN007 OVC012 13/11 A3010 140 86 0 340/05 RMK AO2 P0001
53843K79J 79J20160127101511501/27/16 10:15:31  5-MIN K79J 271515Z AUTO 02004KT 10SM -RA BKN007 OVC019 13/11 A3010 150 86 0 020/04 RMK AO2 P0001
53843K79J 79J20160127102012401/27/16 10:20:31  5-MIN K79J 271520Z AUTO 03004KT 10SM -RA SCT007 BKN010 OVC021 14/11 A3010 140 83 100 030/04 RMK AO2 P0001
53843K79J 79J20160127102511701/27/16 10:25:31  5-MIN K79J 271525Z AUTO 01006KT 10SM -RA SCT009 OVC021 14/11 A3010 140 83 100 020/06 RMK AO2 P0001
53843K79J 79J20160127103011701/27/16 10:30:31  5-MIN K79J 271530Z AUTO 03007KT 10SM -RA SCT009 OVC021 14/11 A3010 150 83 100 030/07 RMK AO2 P0001
53843K79J 79J20160127103511901/27/16 10:35:31  5-MIN K79J 271535Z AUTO 01005KT 10SM SCT009 OVC021 14/11 A3011 140 83 100 020/05 RMK AO2 RAE31 P0001
53843K79J 79J20160127104013101/27/16 10:40:31  5-MIN K79J 271540Z AUTO 03006KT 10SM BKN009 OVC021 14/11 A3010 140 83 100 030/06 RMK AO2 RAE31 CIG 005V012 P0001
53843K79J 79J20160127104512601/27/16 10:45:31  5-MIN K79J 271545Z AUTO 03007KT 10SM BKN009 BKN012 OVC021 14/11 A3010 140 83 100 030/07 RMK AO2 RAE31 P0001
53843K79J 79J20160127105014301/27/16 10:50:31  5-MIN K79J 271550Z AUTO 04007KT 10SM BKN009 BKN012 OVC021 14/11 A3010 140 83 100 040/07 RMK AO2 RAE31 SLP192 P0001 T01390111
53843K79J 79J20160127105513601/27/16 10:55:31  5-MIN K79J 271555Z AUTO 04005KT 10SM BKN009 OVC012 14/11 A3010 140 83 100 040/05 RMK AO2 RAE31 SLP192 P0001 T01390111
53843K79J 79J20160127110011201/27/16 11:00:31  5-MIN K79J 271600Z AUTO 04007KT 10SM OVC009 14/11 A3010 140 83 100 040/07 RMK AO2 CIG 006V010
53843K79J 79J20160127110510001/27/16 11:05:31  5-MIN K79J 271605Z AUTO 04005KT 10SM OVC009 14/11 A3010 140 80 100 040/05 RMK AO2
53843K79J 79J20160127111010001/27/16 11:10:31  5-MIN K79J 271610Z AUTO 03007KT 10SM OVC009 14/11 A3011 140 83 100 030/07 RMK AO2
53843K79J 79J20160127111511201/27/16 11:15:31  5-MIN K79J 271615Z AUTO 03005KT 10SM OVC009 14/11 A3011 140 83 100 030/05 RMK AO2 CIG 006V012
53843K79J 79J20160127112007501/27/16 11:20:31  5-MIN K79J 271620Z AUTO 02006KT 10SM OVC009 14/11 A3011 
53843K79J 79J20160127192511501/27/16 19:25:31  5-MIN K79J 280025Z AUTO 03007KT 10SM OVC005 12/09 A3007 180 83 -100 030/07 RMK AO2 RAE2358 P0000
53843K79J 79J20160127193011401/27/16 19:30:31  5-MIN K79J 280030Z AUTO 03007KT 9SM OVC005 12/08 A3007 170 80 -100 030/07 RMK AO2 RAE2358 P0000
53843K79J 79J20160127193511401/27/16 19:35:31  5-MIN K79J 280035Z AUTO 02007KT 9SM OVC005 12/08 A3008 170 80 -100 020/07 RMK AO2 RAE2358 P0000
53843K79J 79J20160127194011401/27/16 19:40:31  5-MIN K79J 280040Z AUTO 03008KT 8SM OVC005 12/09 A3007 170 83 -100 030/08 RMK AO2 RAE2358 P0000
53843K79J 79J20160127194511401/27/16 19:45:31  5-MIN K79J 280045Z AUTO 04008KT 8SM OVC005 11/08 A3007 170 83 -200 040/08 RMK AO2 RAE2358 P0000
53843K79J 79J20160127195013101/27/16 19:50:31  5-MIN K79J 280050Z AUTO 04008KT 7SM OVC005 11/08 A3007 170 83 -200 040/08 RMK AO2 RAE2358 SLP180 P0000 T01110083
53843K79J 79J20160127195513101/27/16 19:55:31  5-MIN K79J 280055Z AUTO 03006KT 7SM OVC005 11/08 A3007 170 83 -200 030/06 RMK AO2 RAE2358 SLP180 P0000 T01110083
53843K79J 79J20160127200011201/27/16 20:00:31  5-MIN K79J 280100Z AUTO 02008KT 7SM OVC005 11/08 A3007 170 80 -200 020/08 RMK AO2 CIG 004V008
53843K79J 79J20160127200511201/27/16 20:05:31  5-MIN K79J 280105Z AUTO 03008KT 7SM OVC007 11/08 A3007 170 80 -200 030/08 RMK AO2 CIG 004V009
53843K79J 79J20160127201011201/27/16 20:10:31  5-MIN K79J 280110Z AUTO 02007KT 8SM OVC007 11/08 A3007 170 80 -200 030/07 RMK AO2 CIG 004V009
53843K79J 79J20160127201511201/27/16 20:15:31  5-MIN K79J 280115Z AUTO 03009KT 8SM OVC007 11/08 A3007 180 80 -200 030/09 RMK AO2 CIG 004V009
53843K79J 79J20160127202011201/27/16 20:20:31  5-MIN K79J 280120Z AUTO 02011KT 8SM OVC007 11/08 A3007 170 80 -200 020/11 RMK AO2 CIG 005V009
53843K79J 79J20160127202510001/27/16 20:25:31  5-MIN K79J 280125Z AUTO 01006KT 8SM OVC007 11/08 A3007 170 80 -200 010/06 RMK AO2
53843K79J 79J20160127203011201/27/16 20:30:31  5-MIN K79J 280130Z AUTO 02007KT 7SM OVC007 11/08 A3007 180 83 -200 020/07 RMK AO2 CIG 006V009
53843K79J 79J20160127203510001/27/16 20:35:31  5-MIN K79J 280135Z AUTO 02007KT 7SM OVC007 11/08 A3007 180 83 -200 030/07 RMK AO2
53843K79J 79J20160127204010001/27/16 20:40:31  5-MIN K79J 280140Z AUTO 03008KT 7SM OVC007 11/07 A3007 180 80 -200 030/08 RMK AO2
53843K79J 79J20160127204510001/27/16 20:45:31  5-MIN K79J 280145Z AUTO 02008KT 7SM OVC007 11/07 A3007 170 80 -200 020/08 RMK AO2
53843K79J 79J20160127205012901/27/16 20:50:31  5-MIN K79J 280150Z AUTO 03009KT 7SM OVC007 11/07 A3007 170 80 -200 030/09 RMK AO2 CIG 006V011 SLP181 T01060072
53843K79J 79J20160127205513601/27/16 20:55:31  5-MIN K79J 280155Z AUTO 04007KT 7SM BKN009 OVC013 11/07 A3007 180 80 -200 040/07 RMK AO2 CIG 006V011 SLP179 T01060072
53843K79J 79J20160127210011901/27/16 21:00:31  5-MIN K79J 280200Z AUTO 05007KT 8SM BKN009 OVC015 11/07 A3006 180 77 -200 050/07 RMK AO2 CIG 006V012
53843K79J 79J20160127210511901/27/16 21:05:31  5-MIN K79J 280205Z AUTO 04009KT 8SM BKN009 OVC015 11/07 A3006 180 77 -200 050/09 RMK AO2 CIG 007V012
53843K79J 79J20160127211010701/27/16 21:10:31  5-MIN K79J 280210Z AUTO 05006KT 9SM SCT009 OVC015 10/07 A3006 190 80 -300 050/06 RMK AO2
53843K79J 79J20160127211510701/27/16 21:15:31  5-MIN K79J 280215Z AUTO 04009KT 9SM FEW009 OVC015 10/07 A3006 190 80 -300 040/09 RMK AO2
53843K79J 79J20160127212010701/27/16 21:20:31  5-MIN K79J 280220Z AUTO 03007KT 9SM FEW009 OVC015 10/07 A3006 190 80 -300 030/07 RMK AO2
53843K79J 79J20160127212510001/27/16 21:25:31  5-MIN K79J 280225Z AUTO 02006KT 9SM OVC015 10/07 A3007 180 80 -300 030/06 RMK AO2
53843K79J 79J20160127213010001/27/16 21:30:31  5-MIN K79J 280230Z AUTO 02007KT 9SM OVC015 10/06 A3007 170 77 -300 020/07 RMK AO2
53843K79J 79J20160127213510101/27/16 21:35:31  5-MIN K79J 280235Z AUTO 01005KT 10SM OVC015 10/06 A3007 170 77 -300 010/05 RMK AO2
53843K79J 79J20160127214010101/27/16 21:40:31  5-MIN K79J 280240Z AUTO 01005KT 10SM OVC017 10/06 A3008 170 77 -300 020/05 RMK AO2
53843K79J 79J20160127214510101/27/16 21:45:31  5-MIN K79J 280245Z AUTO 36003KT 10SM OVC017 10/06 A3008 170 77 -300 360/03 RMK AO2
53843K79J 79J20160127215013001/27/16 21:50:31  5-MIN K79J 280250Z AUTO 01005KT 10SM OVC017 10/06 A3008 170 77 -300 020/05 RMK AO2 SLP182 60000 T01000061 51011
53843K79J 79J20160127215513001/27/16 21:55:31  5-MIN K79J 280255Z AUTO 03006KT 10SM OVC017 10/06 A3007 170 77 -300 030/06 RMK AO2 SLP181 60000 T01000061 51011
53843K79J 79J20160127220010101/27/16 22:00:31  5-MIN K79J 280300Z AUTO 03006KT 10SM OVC017 10/06 A3007 170 77 -300 030/06 RMK AO2
53843K79J 79J20160127220510101/27/16 22:05:31  5-MIN K79J 280305Z AUTO 03004KT 10SM OVC017 10/06 A3007 170 77 -300 030/04 RMK AO2
53843K79J 79J20160127221010101/27/16 22:10:31  5-MIN K79J 280310Z AUTO 03006KT 10SM OVC017 10/06 A3007 170 77 -300 030/06 RMK AO2
53843K79J 79J20160127221510101/27/16 22:15:31  5-MIN K79J 280315Z AUTO 03005KT 10SM OVC017 10/06 A3007 170 77 -300 030/05 RMK AO2
53843K79J 79J20160127222010101/27/16 22:20:31  5-MIN K79J 280320Z AUTO 02005KT 10SM OVC017 10/06 A3007 170 77 -300 020/05 RMK AO2
53843K79J 79J20160127222510101/27/16 22:25:31  5-MIN K79J 280325Z AUTO VRB03KT 10SM OVC017 10/06 A3007 170 77 -300 VRB/03 RMK AO2
53843K79J 79J20160127223010101/27/16 22:30:31  5-MIN K79J 280330Z AUTO 01006KT 10SM OVC017 10/06 A3007 170 77 -300 010/06 RMK AO2
53843K79J 79J20160127223510101/27/16 22:35:31  5-MIN K79J 280335Z AUTO 01006KT 10SM OVC017 10/06 A3007 170 74 -300 010/06 RMK AO2
53843K79J 79J20160127224010101/27/16 22:40:31  5-MIN K79J 280340Z AUTO 01007KT 10SM OVC017 10/06 A3007 170 74 -300 010/07 RMK AO2
53843K79J 79J20160127224510801/27/16 22:45:31  5-MIN K79J 280345Z AUTO 01007KT 10SM BKN017 OVC025 10/06 A3006 180 74 -300 020/07 RMK AO2
53843K79J 79J20160127225012501/27/16 22:50:31  5-MIN K79J 280350Z AUTO 03004KT 10SM BKN017 OVC027 10/06 A3006 180 74 -300 040/04 RMK AO2 SLP177 T01000056
53843K79J 79J20160127225512501/27/16 22:55:31  5-MIN K79J 280355Z AUTO 04007KT 10SM SCT017 OVC027 10/06 A3006 190 74 -300 040/07 RMK AO2 SLP175 T01000056
53843K79J 79J20160127230010801/27/16 23:00:31  5-MIN K79J 280400Z AUTO 03005KT 10SM SCT017 OVC027 10/06 A3005 190 74 -300 030/05 RMK AO2
53843K79J 79J20160127230510801/27/16 23:05:31  5-MIN K79J 280405Z AUTO 03005KT 10SM FEW017 OVC027 10/06 A3005 190 74 -300 030/05 RMK AO2
53843K79J 79J20160127231010801/27/16 23:10:31  5-MIN K79J 280410Z AUTO 04006KT 10SM FEW017 OVC027 10/06 A3004 200 74 -300 040/06 RMK AO2
53843K79J 79J20160127231510101/27/16 23:15:31  5-MIN K79J 280415Z AUTO 04005KT 10SM OVC027 09/06 A3004 200 76 -300 040/05 RMK AO2
53843K79J 79J20160127232010101/27/16 23:20:31  5-MIN K79J 280420Z AUTO 04005KT 10SM OVC027 09/06 A3005 200 76 -300 050/05 RMK AO2
53843K79J 79J20160127232510101/27/16 23:25:31  5-MIN K79J 280425Z AUTO 03006KT 10SM OVC025 09/06 A3005 190 76 -300 040/06 RMK AO2
53843K79J 79J20160127233010101/27/16 23:30:31  5-MIN K79J 280430Z AUTO 03006KT 10SM OVC025 10/05 A3005 190 71 -300 030/06 RMK AO2
53843K79J 79J20160127233510101/27/16 23:35:31  5-MIN K79J 280435Z AUTO 00000KT 10SM OVC025 10/05 A3005 190 71 -300 000/00 RMK AO2
53843K79J 79J20160127234010101/27/16 23:40:31  5-MIN K79J 280440Z AUTO 04004KT 10SM OVC025 09/05 A3005 200 74 -300 040/04 RMK AO2
53843K79J 79J20160127234510101/27/16 23:45:31  5-MIN K79J 280445Z AUTO 03003KT 10SM OVC025 09/05 A3005 200 74 -300 030/03 RMK AO2
53843K79J 79J20160127235012801/27/16 23:50:31  5-MIN K79J 280450Z AUTO 03005KT 10SM OVC025 09/05 A3005 200 74 -300 030/05 RMK AO2 SLP172 T00940050 401440094
53843K79J 79J20160127235512801/27/16 23:55:31  5-MIN K79J 280455Z AUTO 01004KT 10SM OVC025 09/05 A3005 200 74 -300 020/04 RMK AO2 SLP172 T00940050 401440094
53843K79J 79J20160128000010101/28/16 00:00:31  5-MIN K79J 280500Z AUTO 02004KT 10SM OVC025 09/05 A3005 190 74 -300 020/04 RMK AO2
53843K79J 79J20160128000510101/28/16 00:05:31  5-MIN K79J 280505Z AUTO 02004KT 10SM OVC025 09/05 A3005 200 74 -300 020/04 RMK AO2
53843K79J 79J20160128001010101/28/16 00:10:31  5-MIN K79J 280510Z AUTO 02004KT 10SM OVC025 09/05 A3004 200 74 -300 030/04 RMK AO2
53843K79J 79J20160128001510101/28/16 00:15:31  5-MIN K79J 280515Z AUTO 02005KT 10SM OVC025 09/05 A3004 200 74 -300 020/05 RMK AO2
53843K79J 79J20160128002010101/28/16 00:20:31  5-MIN K79J 280520Z AUTO 01005KT 10SM OVC025 09/05 A3004 200 74 -300 010/05 RMK AO2
53843K79J 79J20160128002510101/28/16 00:25:31  5-MIN K79J 280525Z AUTO 36006KT 10SM OVC025 09/05 A3004 200 74 -300 010/06 RMK AO2
53843K79J 79J20160128003010101/28/16 00:30:31  5-MIN K79J 280530Z AUTO 01005KT 10SM OVC025 09/05 A3005 200 74 -300 010/05 RMK AO2
53843K79J 79J20160128003510801/28/16 00:35:31  5-MIN K79J 280535Z AUTO 02005KT 10SM FEW018 OVC025 09/05 A3005 190 74 -300 020/05 RMK AO2
53843K79J 79J20160128004010801/28/16 00:40:31  5-MIN K79J 280540Z AUTO 36005KT 10SM SCT018 OVC025 09/05 A3005 200 74 -300 360/05 RMK AO2
53843K79J 79J20160128004510801/28/16 00:45:31  5-MIN K79J 280545Z AUTO 01004KT 10SM BKN018 OVC025 09/05 A3004 200 74 -300 020/04 RMK AO2
53843K79J 79J20160128005014901/28/16 00:50:31  5-MIN K79J 280550Z AUTO 02006KT 10SM BKN018 OVC025 09/04 A3004 200 71 -300 020/06 RMK AO2 SLP169 60000 T00940044 10117 20094 51008
53843K79J 79J20160128005514901/28/16 00:55:31  5-MIN K79J 280555Z AUTO 03005KT 10SM BKN018 OVC025 09/04 A3003 210 71 -300 030/05 RMK AO2 SLP167 60000 T00940044 10117 20094 51008
53843K79J 79J20160128010010101/28/16 01:00:31  5-MIN K79J 280600Z AUTO 03004KT 10SM OVC018 09/04 A3003 210 71 -300 030/04 RMK AO2
53843K79J 79J20160128010510101/28/16 01:05:31  5-MIN K79J 280605Z AUTO 02007KT 10SM OVC018 09/05 A3002 220 74 -300 020/07 RMK AO2
53843K79J 79J20160128011010101/28/16 01:10:31  5-MIN K79J 280610Z AUTO 05006KT 10SM OVC018 09/04 A3002 220 71 -300 050/06 RMK AO2
53843K79J 79J20160128011510101/28/16 01:15:31  5-MIN K79J 280615Z AUTO 05005KT 10SM OVC018 09/04 A3002 220 71 -300 050/05 RMK AO2
53843K79J 79J20160128012010101/28/16 01:20:31  5-MIN K79J 280620Z AUTO 05005KT 10SM OVC018 09/04 A3002 220 68 -300 060/05 RMK AO2
53843K79J 79J20160128012510101/28/16 01:25:31  5-MIN K79J 280625Z AUTO 04004KT 10SM OVC018 09/04 A3002 220 68 -300 040/04 RMK AO2
53843K79J 79J20160128013010101/28/16 01:30:31  5-MIN K79J 280630Z AUTO 05004KT 10SM OVC018 09/04 A3001 220 68 -300 050/04 RMK AO2
53843K79J 79J20160128013510101/28/16 01:35:31  5-MIN K79J 280635Z AUTO 03006KT 10SM OVC016 09/04 A3002 220 68 -300 030/06 RMK AO2
53843K79J 79J20160128014010101/28/16 01:40:31  5-MIN K79J 280640Z AUTO 03006KT 10SM OVC016 09/04 A3001 230 71 -300 030/06 RMK AO2
53843K79J 79J20160128014510101/28/16 01:45:31  5-MIN K79J 280645Z AUTO 02006KT 10SM OVC016 09/04 A3001 230 71 -300 020/06 RMK AO2
53843K79J 79J20160128015011801/28/16 01:50:31  5-MIN K79J 280650Z AUTO 02007KT 10SM OVC016 09/04 A3001 230 71 -300 020/07 RMK AO2 SLP162 T00940044
53843K79J 79J20160128015511801/28/16 01:55:31  5-MIN K79J 280655Z AUTO 03006KT 10SM OVC016 09/04 A3001 230 71 -300 030/06 RMK AO2 SLP159 T00940044
53843K79J 79J20160128020010101/28/16 02:00:31  5-MIN K79J 280700Z AUTO 01005KT 10SM OVC016 09/04 A3001 230 71 -300 010/05 RMK AO2
53843K79J 79J20160128020510101/28/16 02:05:31  5-MIN K79J 280705Z AUTO 02005KT 10SM OVC016 09/04 A3001 230 71 -300 020/05 RMK AO2
53843K79J 79J20160128021010101/28/16 02:10:31  5-MIN K79J 280710Z AUTO 02005KT 10SM OVC016 09/04 A3001 230 71 -300 030/05 RMK AO2
53843K79J 79J20160128021510101/28/16 02:15:31  5-MIN K79J 280715Z AUTO 01006KT 10SM OVC016 09/04 A3001 230 71 -300 020/06 RMK AO2
53843K79J 79J20160128022010101/28/16 02:20:31  5-MIN K79J 280720Z AUTO 02007KT 10SM OVC016 09/04 A3000 240 71 -300 020/07 RMK AO2
53843K79J 79J20160128022510101/28/16 02:25:31  5-MIN K79J 280725Z AUTO 02007KT 10SM OVC016 09/04 A3000 240 71 -400 020/07 RMK AO2
53843K79J 79J20160128023010101/28/16 02:30:31  5-MIN K79J 280730Z AUTO 02006KT 10SM OVC016 09/04 A3001 230 71 -300 020/06 RMK AO2
53843K79J 79J20160128023510101/28/16 02:35:31  5-MIN K79J 280735Z AUTO 01006KT 10SM OVC016 09/04 A3001 230 68 -300 020/06 RMK AO2
53843K79J 79J20160128024010101/28/16 02:40:31  5-MIN K79J 280740Z AUTO 02007KT 10SM OVC016 09/04 A3000 240 71 -400 030/07 RMK AO2
53843K79J 79J20160128024510101/28/16 02:45:31  5-MIN K79J 280745Z AUTO 02008KT 10SM OVC016 09/04 A3000 240 71 -400 020/08 RMK AO2
53843K79J 79J20160128025011801/28/16 02:50:31  5-MIN K79J 280750Z AUTO 03006KT 10SM OVC016 09/04 A3000 230 71 -400 030/06 RMK AO2 SLP159 T00890039
53843K79J 79J20160128025511801/28/16 02:55:31  5-MIN K79J 280755Z AUTO 02006KT 10SM OVC016 09/04 A3000 240 71 -300 030/06 RMK AO2 SLP158 T00890039
53843K79J 79J20160128030010101/28/16 03:00:31  5-MIN K79J 280800Z AUTO 03007KT 10SM OVC016 09/04 A3000 240 71 -300 030/07 RMK AO2
53843K79J 79J20160128030510101/28/16 03:05:31  5-MIN K79J 280805Z AUTO 02007KT 10SM OVC016 09/04 A3001 230 71 -400 020/07 RMK AO2
53843K79J 79J20160128031010101/28/16 03:10:31  5-MIN K79J 280810Z AUTO 01006KT 10SM OVC016 09/04 A3001 230 71 -400 010/06 RMK AO2
53843K79J 79J20160128031510101/28/16 03:15:31  5-MIN K79J 280815Z AUTO 01006KT 10SM OVC016 09/04 A3000 240 71 -300 010/06 RMK AO2
53843K79J 79J20160128032010101/28/16 03:20:31  5-MIN K79J 280820Z AUTO 02007KT 10SM OVC016 09/04 A3000 240 71 -300 020/07 RMK AO2
53843K79J 79J20160128032510101/28/16 03:25:31  5-MIN K79J 280825Z AUTO 02007KT 10SM OVC016 09/04 A2999 250 71 -300 020/07 RMK AO2
53843K79J 79J20160128033010101/28/16 03:30:31  5-MIN K79J 280830Z AUTO 01008KT 10SM OVC016 09/04 A3000 240 71 -300 010/08 RMK AO2
53843K79J 79J20160128202509801/28/16 20:25:31  5-MIN K79J 290125Z AUTO 00000KT 10SM CLR 06/02 A2996 270 76 -700 000/00 RMK AO2
53843K79J 79J20160128203009801/28/16 20:30:31  5-MIN K79J 290130Z AUTO 00000KT 10SM CLR 06/02 A2996 270 79 -700 000/00 RMK AO2
53843K79J 79J20160128203509801/28/16 20:35:31  5-MIN K79J 290135Z AUTO 00000KT 10SM CLR 05/02 A2996 270 79 -800 000/00 RMK AO2
53843K79J 79J20160128204009801/28/16 20:40:31  5-MIN K79J 290140Z AUTO 00000KT 10SM CLR 05/02 A2997 270 79 -800 000/00 RMK AO2
53843K79J 79J20160128204509801/28/16 20:45:31  5-MIN K79J 290145Z AUTO 00000KT 10SM CLR 05/02 A2997 270 79 -800 000/00 RMK AO2
53843K79J 79J20160128205011501/28/16 20:50:31  5-MIN K79J 290150Z AUTO 00000KT 10SM CLR 05/02 A2997 270 79 -800 000/00 RMK AO2 SLP148 T00500017
53843K79J 79J20160128205511501/28/16 20:55:31  5-MIN K79J 290155Z AUTO 31003KT 10SM CLR 04/02 A2997 270 82 -900 320/03 RMK AO2 SLP148 T00440017
53843K79J 79J20160129072509901/29/16 07:25:31  5-MIN K79J 291225Z AUTO 29004KT 10SM CLR 06/M01 A3004 200 62 -800 300/04 RMK AO2
53843K79J 79J20160129073009901/29/16 07:30:31  5-MIN K79J 291230Z AUTO 30006KT 10SM CLR 06/M01 A3004 200 62 -800 300/06 RMK AO2
53843K79J 79J20160129073509901/29/16 07:35:31  5-MIN K79J 291235Z AUTO 29005KT 10SM CLR 06/M01 A3004 200 62 -800 290/05 RMK AO2
53843K79J 79J20160129074009901/29/16 07:40:31  5-MIN K79J 291240Z AUTO 30004KT 10SM CLR 06/M01 A3004 200 62 -800 300/04 RMK AO2
53843K79J 79J20160129074509901/29/16 07:45:31  5-MIN K79J 291245Z AUTO 30005KT 10SM CLR 06/M01 A3005 200 62 -800 300/05 RMK AO2
53843K79J 79J20160129075011601/29/16 07:50:31  5-MIN K79J 291250Z AUTO 30005KT 10SM CLR 06/M01 A3005 190 62 -800 300/05 RMK AO2 SLP175 T00561011
53843K79J 79J20160129075511601/29/16 07:55:31  5-MIN K79J 291255Z AUTO 30005KT 10SM CLR 06/M01 A3005 190 62 -800 300/05 RMK AO2 SLP176 T00561011
53843K79J 79J20160129080009901/29/16 08:00:31  5-MIN K79J 291300Z AUTO 30005KT 10SM CLR 06/M01 A3005 190 60 -700 300/05 RMK AO2
53843K79J 79J20160129080509901/29/16 08:05:31  5-MIN K79J 291305Z AUTO 31005KT 10SM CLR 06/M01 A3006 190 60 -800 310/05 RMK AO2
53843K79J 79J20160129081009901/29/16 08:10:31  5-MIN K79J 291310Z AUTO 31006KT 10SM CLR 06/M01 A3006 180 62 -800 310/06 RMK AO2
53843K79J 79J20160129081509901/29/16 08:15:31  5-MIN K79J 291315Z AUTO 31007KT 10SM CLR 06/M01 A3006 180 62 -800 310/07 RMK AO2
53843K79J 79J20160129082009901/29/16 08:20:31  5-MIN K79J 291320Z AUTO 31005KT 10SM CLR 06/M01 A3006 180 62 -800 310/05 RMK AO2
53843K79J 79J20160129082509901/29/16 08:25:31  5-MIN K79J 291325Z AUTO 31006KT 10SM CLR 06/M01 A3006 180 62 -800 310/06 RMK AO2
53843K79J 79J20160129083009901/29/16 08:30:31  5-MIN K79J 291330Z AUTO 30005KT 10SM CLR 07/M01 A3006 180 60 -700 300/05 RMK AO2
53843K79J 79J20160129083509901/29/16 08:35:31  5-MIN K79J 291335Z AUTO 31005KT 10SM CLR 07/M01 A3007 180 60 -700 310/05 RMK AO2
53843K79J 79J20160129084009901/29/16 08:40:31  5-MIN K79J 291340Z AUTO 30006KT 10SM CLR 07/M01 A3007 180 57 -600 300/06 RMK AO2
53843K79J 79J20160129084509801/29/16 08:45:31  5-MIN K79J 291345Z AUTO 30005KT 10SM CLR 07/00 A3007 180 60 -600 300/05 RMK AO2
53843K79J 79J20160129085011501/29/16 08:50:31  5-MIN K79J 291350Z AUTO 31006KT 10SM CLR 07/00 A3007 180 60 -600 310/06 RMK AO2 SLP182 T00720000
53843K79J 79J20160129085511501/29/16 08:55:31  5-MIN K79J 291355Z AUTO 31007KT 10SM CLR 08/00 A3007 170 58 -600 310/07 RMK AO2 SLP182 T00780000
53843K79J 79J20160129090009801/29/16 09:00:31  5-MIN K79J 291400Z AUTO 31005KT 10SM CLR 08/00 A3007 180 58 -600 320/05 RMK AO2
53843K79J 79J20160129090509801/29/16 09:05:31  5-MIN K79J 291405Z AUTO 32008KT 10SM CLR 08/01 A3007 180 58 -500 320/08 RMK AO2
53843K79J 79J20160129091009801/29/16 09:10:31  5-MIN K79J 291410Z AUTO 32007KT 10SM CLR 08/01 A3007 180 58 -500 320/07 RMK AO2
53843K79J 79J20160129091509801/29/16 09:15:31  5-MIN K79J 291415Z AUTO 32008KT 10SM CLR 09/00 A3007 170 53 -400 320/08 RMK AO2
53843K79J 79J20160129092009801/29/16 09:20:31  5-MIN K79J 291420Z AUTO 32006KT 10SM CLR 09/01 A3007 170 56 -400 330/06 RMK AO2
53843K79J 79J20160129092509801/29/16 09:25:31  5-MIN K79J 291425Z AUTO 32008KT 10SM CLR 09/01 A3007 170 53 -400 320/08 RMK AO2
53843K79J 79J20160129093009801/29/16 09:30:31  5-MIN K79J 291430Z AUTO 31008KT 10SM CLR 09/01 A3008 170 53 -400 320/08 RMK AO2
53843K79J 79J20160129093509801/29/16 09:35:31  5-MIN K79J 291435Z AUTO 31007KT 10SM CLR 10/01 A3008 160 52 -300 310/07 RMK AO2
53843K79J 79J20160129094007501/29/16 09:40:31  5-MIN K79J 291440Z AUTO 31007KT 10SM CLR 10/01 A3008 160
53843K79J 79J20160130052509901/30/16 05:25:31  5-MIN K79J 301025Z AUTO 00000KT 10SM CLR 03/01 A3007 170 85 -1100 000/00 RMK AO2
53843K79J 79J20160130053009901/30/16 05:30:31  5-MIN K79J 301030Z AUTO 00000KT 10SM CLR 03/01 A3007 170 85 -1100 000/00 RMK AO2
53843K79J 79J20160130053509901/30/16 05:35:31  5-MIN K79J 301035Z AUTO 00000KT 10SM CLR 03/01 A3007 180 85 -1100 000/00 RMK AO2
53843K79J 79J20160130054009901/30/16 05:40:31  5-MIN K79J 301040Z AUTO 00000KT 10SM CLR 03/01 A3007 180 85 -1100 000/00 RMK AO2
53843K79J 79J20160130054509901/30/16 05:45:31  5-MIN K79J 301045Z AUTO 00000KT 10SM CLR 03/01 A3007 170 85 -1100 000/00 RMK AO2
53843K79J 79J20160130055011601/30/16 05:50:31  5-MIN K79J 301050Z AUTO 00000KT 10SM CLR 03/01 A3007 170 85 -1100 000/00 RMK AO2 SLP182 T00330011
53843K79J 79J20160130055511601/30/16 05:55:31  5-MIN K79J 301055Z AUTO 00000KT 10SM CLR 03/01 A3008 170 85 -1100 000/00 RMK AO2 SLP184 T00330011
53843K79J 79J20160130060009901/30/16 06:00:31  5-MIN K79J 301100Z AUTO 00000KT 10SM CLR 03/01 A3008 170 85 -1100 000/00 RMK AO2
53843K79J 79J20160130060509901/30/16 06:05:31  5-MIN K79J 301105Z AUTO 00000KT 10SM CLR 03/01 A3008 170 85 -1100 000/00 RMK AO2
53843K79J 79J20160130061009901/30/16 06:10:31  5-MIN K79J 301110Z AUTO 00000KT 10SM CLR 03/01 A3008 170 85 -1100 000/00 RMK AO2
53843K79J 79J20160130061509901/30/16 06:15:31  5-MIN K79J 301115Z AUTO 00000KT 10SM CLR 03/01 A3008 160 85 -1100 000/00 RMK AO2
53843K79J 79J20160130062009901/30/16 06:20:31  5-MIN K79J 301120Z AUTO 16003KT 10SM CLR 03/01 A3008 160 85 -1100 160/03 RMK AO2
53843K79J 79J20160130062509901/30/16 06:25:31  5-MIN K79J 301125Z AUTO 16003KT 10SM CLR 03/01 A3009 160 85 -1200 160/03 RMK AO2
53843K79J 79J20160130063009801/30/16 06:30:31  5-MIN K79J 301130Z AUTO 00000KT 9SM CLR 03/01 A3009 150 85 -1200 000/00 RMK AO2
53843K79J 79J20160130063509901/30/16 06:35:31  5-MIN K79J 301135Z AUTO 00000KT 10SM CLR 03/01 A3009 150 82 -1100 000/00 RMK AO2
53843K79J 79J20160130064009901/30/16 06:40:31  5-MIN K79J 301140Z AUTO 00000KT 10SM CLR 03/01 A3010 150 82 -1100 000/00 RMK AO2
53843K79J 79J20160130064509901/30/16 06:45:31  5-MIN K79J 301145Z AUTO 00000KT 10SM CLR 03/01 A3010 150 82 -1100 000/00 RMK AO2
53843K79J 79J20160130065013401/30/16 06:50:31  5-MIN K79J 301150Z AUTO 00000KT 10SM CLR 03/01 A3010 140 82 -1100 000/00 RMK AO2 SLP192 T00330006 10061 20028 52003
53843K79J 79J20160130065513401/30/16 06:55:31  5-MIN K79J 301155Z AUTO 00000KT 10SM CLR 03/01 A3010 150 82 -1100 000/00 RMK AO2 SLP192 T00330006 10061 20028 52003
53843K79J 79J20160130070009901/30/16 07:00:31  5-MIN K79J 301200Z AUTO 00000KT 10SM CLR 03/01 A3010 150 82 -1100 000/00 RMK AO2
53843K79J 79J20160130070509901/30/16 07:05:31  5-MIN K79J 301205Z AUTO 00000KT 10SM CLR 03/01 A3010 150 82 -1100 000/00 RMK AO2
53843K79J 79J20160130071009901/30/16 07:10:31  5-MIN K79J 301210Z AUTO 00000KT 10SM CLR 03/01 A3010 140 82 -1100 000/00 RMK AO2
53843K79J 79J20160130071509901/30/16 07:15:31  5-MIN K79J 301215Z AUTO 00000KT 10SM CLR 03/01 A3011 140 85 -1200 000/00 RMK AO2
53843K79J 79J20160130072009901/30/16 07:20:31  5-MIN K79J 301220Z AUTO 00000KT 10SM CLR 03/01 A3011 140 82 -1200 000/00 RMK AO2
53843K79J 79J20160130072509901/30/16 07:25:31  5-MIN K79J 301225Z AUTO 00000KT 10SM CLR 03/01 A3011 130 85 -1200 000/00 RMK AO2
53843K79J 79J20160130073009901/30/16 07:30:31  5-MIN K79J 301230Z AUTO 00000KT 10SM CLR 03/01 A3011 130 85 -1200 000/00 RMK AO2
53843K79J 79J20160130073509901/30/16 07:35:31  5-MIN K79J 301235Z AUTO 00000KT 10SM CLR 03/01 A3011 130 85 -1200 000/00 RMK AO2
53843K79J 79J20160130074009801/30/16 07:40:31  5-MIN K79J 301240Z AUTO 00000KT 9SM CLR 03/01 A3011 130 85 -1200 000/00 RMK AO2
53843K79J 79J20160130074509801/30/16 07:45:31  5-MIN K79J 301245Z AUTO 00000KT 8SM CLR 03/01 A3012 130 85 -1200 000/00 RMK AO2
53843K79J 79J20160130075011501/30/16 07:50:31  5-MIN K79J 301250Z AUTO 00000KT 9SM CLR 03/01 A3012 130 85 -1200 000/00 RMK AO2 SLP200 T00280006
53843K79J 79J20160130075511601/30/16 07:55:31  5-MIN K79J 301255Z AUTO 00000KT 10SM CLR 03/01 A3012 130 85 -1200 000/00 RMK AO2 SLP200 T00280006
53843K79J 79J20160130080009901/30/16 08:00:31  5-MIN K79J 301300Z AUTO 00000KT 10SM CLR 03/01 A3012 120 82 -1200 000/00 RMK AO2
53843K79J 79J20160130080509901/30/16 08:05:31  5-MIN K79J 301305Z AUTO 00000KT 10SM CLR 03/01 A3013 120 82 -1200 000/00 RMK AO2
53843K79J 79J20160130081009901/30/16 08:10:31  5-MIN K79J 301310Z AUTO 00000KT 10SM CLR 03/01 A3013 120 85 -1200 000/00 RMK AO2
53843K79J 79J20160130081509901/30/16 08:15:31  5-MIN K79J 301315Z AUTO 00000KT 10SM CLR 03/01 A3013 120 82 -1200 000/00 RMK AO2
53843K79J 79J20160130082009901/30/16 08:20:31  5-MIN K79J 301320Z AUTO 00000KT 10SM CLR 03/01 A3013 120 82 -1200 000/00 RMK AO2
53843K79J 79J20160130082509901/30/16 08:25:31  5-MIN K79J 301325Z AUTO 00000KT 10SM CLR 03/01 A3013 120 82 -1200 000/00 RMK AO2
53843K79J 79J20160130083010201/30/16 08:30:31  5-MIN K79J 301330Z AUTO 00000KT 10SM FEW002 03/01 A3014 110 85 -1200 000/00 RMK AO2
53843K79J 79J20160130083510201/30/16 08:35:31  5-MIN K79J 301335Z AUTO 00000KT 10SM SCT002 04/01 A3014 110 82 -1100 000/00 RMK AO2
53843K79J 79J20160130084010201/30/16 08:40:31  5-MIN K79J 301340Z AUTO 00000KT 10SM BKN002 04/02 A3014 110 82 -1100 000/00 RMK AO2
53843K79J 79J20160130084510101/30/16 08:45:31  5-MIN K79J 301345Z AUTO 00000KT 9SM SCT002 04/02 A3014 110 85 -1100 000/00 RMK AO2
53843K79J 79J20160130085012001/30/16 08:50:31  5-MIN K79J 301350Z AUTO 00000KT 6SM HZ SCT002 06/03 A3014 110 82 -900 000/00 RMK AO2 SLP206 T00560028
53843K79J 79J20160130085512001/30/16 08:55:31  5-MIN K79J 301355Z AUTO 00000KT 6SM HZ SCT002 06/03 A3015 100 82 -900 000/00 RMK AO2 SLP207 T00610033
53843K79J 79J20160130090010301/30/16 09:00:31  5-MIN K79J 301400Z AUTO 00000KT 6SM HZ FEW002 07/04 A3015 100 82 -800 000/00 RMK AO2
53843K79J 79J20160130090510301/30/16 09:05:31  5-MIN K79J 301405Z AUTO 00000KT 5SM HZ FEW002 07/04 A3015 100 82 -700 000/00 RMK AO2
53843K79J 79J20160130091010001/30/16 09:10:31  5-MIN K79J 301410Z AUTO 15003KT 4SM HZ CLR 08/05 A3015 100 82 -700 150/03 RMK AO2
53843K79J 79J20160130091510001/30/16 09:15:31  5-MIN K79J 301415Z AUTO 00000KT 4SM HZ CLR 08/06 A3015 100 82 -600 000/00 RMK AO2
53843K79J 79J20160130092009901/30/16 09:20:31  5-MIN K79J 301420Z AUTO 13003KT 5SM HZ CLR 08/06 A3016 90 82 -600 130/03 RMK AO2
53843K79J 79J20160130092509901/30/16 09:25:31  5-MIN K79J 301425Z AUTO 00000KT 5SM HZ CLR 09/06 A3016 90 83 -500 000/00 RMK AO2
53843K79J 79J20160130093009901/30/16 09:30:31  5-MIN K79J 301430Z AUTO 00000KT 6SM HZ CLR 09/06 A3016 90 79 -500 000/00 RMK AO2
53843K79J 79J20160130093509901/30/16 09:35:31  5-MIN K79J 301435Z AUTO 00000KT 6SM HZ CLR 10/07 A3016 90 80 -400 000/00 RMK AO2
53843K79J 79J20160130094009601/30/16 09:40:31  5-MIN K79J 301440Z AUTO 00000KT 8SM CLR 11/07 A3016 90 80 -300 000/00 RMK AO2
53843K79J 79J20160130094509601/30/16 09:45:31  5-MIN K79J 301445Z AUTO 00000KT 9SM CLR 11/07 A3016 90 77 -300 000/00 RMK AO2
53843K79J 79J20160130095012001/30/16 09:50:31  5-MIN K79J 301450Z AUTO 00000KT 10SM CLR 11/07 A3016 90 77 -300 000/00 RMK AO2 SLP213 T01110072 53008
53843K79J 79J20160130095512001/30/16 09:55:31  5-MIN K79J 301455Z AUTO 00000KT 10SM CLR 11/08 A3016 90 80 -300 000/00 RMK AO2 SLP213 T01110078 53008
53843K79J 79J20160130100009701/30/16 10:00:31  5-MIN K79J 301500Z AUTO 00000KT 10SM CLR 12/08 A3017 90 77 -200 000/00 RMK AO2
53843K79J 79J20160130100509701/30/16 10:05:31  5-MIN K79J 301505Z AUTO 00000KT 10SM CLR 13/08 A3017 80 74 -100 000/00 RMK AO2
53843K79J 79J20160130101009401/30/16 10:10:31  5-MIN K79J 301510Z AUTO 00000KT 10SM CLR 13/08 A3017 80 71 0 000/00 RMK AO2
53843K79J 79J20160130101509401/30/16 10:15:31  5-MIN K79J 301515Z AUTO 00000KT 10SM CLR 14/08 A3017 80 69 0 000/00 RMK AO2
53843K79J 79J20160130102009601/30/16 10:20:31  5-MIN K79J 301520Z AUTO 00000KT 10SM CLR 14/09 A3017 80 69 100 000/00 RMK AO2
53843K79J 79J20160130102509601/30/16 10:25:31  5-MIN K79J 301525Z AUTO 29004KT 10SM CLR 15/08 A3018 70 62 100 290/04 RMK AO2
53843K79J 79J20160130103009601/30/16 10:30:31  5-MIN K79J 301530Z AUTO 28004KT 10SM CLR 15/07 A3018 70 59 100 280/04 RMK AO2
53843K79J 79J20160130103509601/30/16 10:35:31  5-MIN K79J 301535Z AUTO 26003KT 10SM CLR 14/07 A3018 80 61 100 260/03 RMK AO2
53843K79J 79J20160130104009601/30/16 10:40:31  5-MIN K79J 301540Z AUTO 27003KT 10SM CLR 15/07 A3017 80 59 100 270/03 RMK AO2
53843K79J 79J20160130104509601/30/16 10:45:31  5-MIN K79J 301545Z AUTO 27003KT 10SM CLR 16/07 A3017 90 55 200 270/03 RMK AO2
53843K79J 79J20160130105011301/30/16 10:50:31  5-MIN K79J 301550Z AUTO 23004KT 10SM CLR 16/07 A3016 90 55 200 230/04 RMK AO2 SLP211 T01560067
53843K79J 79J20160130105512101/30/16 10:55:31  5-MIN K79J 301555Z AUTO VRB04KT 10SM CLR 16/06 A3015 100 53 200 VRB/04 RMK AO2 PRESFR SLP209 T01560061
53843K79J 79J20160130110009601/30/16 11:00:31  5-MIN K79J 301600Z AUTO VRB03KT 10SM CLR 17/06 A3016 90 49 400 VRB/03 RMK AO2
53843K79J 79J20160130110509601/30/16 11:05:31  5-MIN K79J 301605Z AUTO 29003KT 10SM CLR 17/06 A3016 90 49 300 300/03 RMK AO2
53843K79J 79J20160130111009601/30/16 11:10:31  5-MIN K79J 301610Z AUTO VRB04KT 10SM CLR 17/06 A3016 90 47 400 VRB/04 RMK AO2
53843K79J 79J20160130111509601/30/16 11:15:31  5-MIN K79J 301615Z AUTO 27003KT 10SM CLR 18/06 A3016 90 46 500 270/03 RMK AO2
53843K79J 79J20160130112009601/30/16 11:20:31  5-MIN K79J 301620Z AUTO VRB04KT 10SM CLR 18/06 A3016 90 46 500 VRB/04 RMK AO2
53843K79J 79J20160130112509601/30/16 11:25:31  5-MIN K79J 301625Z AUTO VRB03KT 10SM CLR 18/06 A3016 90 46 500 VRB/03 RMK AO2
53843K79J 79J20160130113009601/30/16 11:30:31  5-MIN K79J 301630Z AUTO 27005KT 10SM CLR 18/06 A3016 90 42 500 270/05 RMK AO2
53843K79J 79J20160130113509601/30/16 11:35:31  5-MIN K79J 301635Z AUTO 30004KT 10SM CLR 18/06 A3016 90 44 500 310/04 RMK AO2
53843K79J 79J20160130114009601/30/16 11:40:31  5-MIN K79J 301640Z AUTO 25005KT 10SM CLR 19/05 A3016 90 39 600 250/05 RMK AO2
53843K79J 79J20160130114509601/30/16 11:45:31  5-MIN K79J 301645Z AUTO 23006KT 10SM CLR 19/05 A3016 90 39 600 240/06 RMK AO2
53843K79J 79J20160130115011301/30/16 11:50:31  5-MIN K79J 301650Z AUTO 26005KT 10SM CLR 19/05 A3016 90 39 600 260/05 RMK AO2 SLP210 T01890050
53843K79J 79J20160130115511301/30/16 11:55:31  5-MIN K79J 301655Z AUTO VRB04KT 10SM CLR 19/06 A3016 90 40 700 VRB/04 RMK AO2 SLP210 T01940056
53843K79J 79J20160130120009701/30/16 12:00:31  5-MIN K79J 301700Z AUTO 22004KT 10SM CLR 19/06 A3016 100 40 700 230/04 RMK AO2
53843K79J 79J20160130120509701/30/16 12:05:31  5-MIN K79J 301705Z AUTO VRB04KT 10SM CLR 20/06 A3015 100 38 700 VRB/04 RMK AO2
53843K79J 79J20160130121009701/30/16 12:10:31  5-MIN K79J 301710Z AUTO 23006KT 10SM CLR 20/06 A3015 100 38 700 230/06 RMK AO2
53843K79J 79J20160130121509701/30/16 12:15:31  5-MIN K79J 301715Z AUTO VRB04KT 10SM CLR 20/06 A3015 100 38 700 VRB/04 RMK AO2
53843K79J 79J20160130122009701/30/16 12:20:31  5-MIN K79J 301720Z AUTO VRB06KT 10SM CLR 20/06 A3015 100 38 800 VRB/06 RMK AO2
53843K79J 79J20160130122509701/30/16 12:25:31  5-MIN K79J 301725Z AUTO 29004KT 10SM CLR 21/06 A3014 110 37 800 290/04 RMK AO2
53843K79J 79J20160130123009701/30/16 12:30:31  5-MIN K79J 301730Z AUTO VRB05KT 10SM CLR 21/05 A3015 100 34 900 VRB/05 RMK AO2
53843K79J 79J20160130123509701/30/16 12:35:31  5-MIN K79J 301735Z AUTO 26010KT 10SM CLR 21/04 A3014 110 33 900 270/10 RMK AO2
53843K79J 79J20160130124010301/30/16 12:40:31  5-MIN K79J 301740Z AUTO 26009G16KT 10SM CLR 21/03 A3014 110 30 900 260/09G16 RMK AO2
53843K79J 79J20160130124510301/30/16 12:45:31  5-MIN K79J 301745Z AUTO 26008G16KT 10SM CLR 21/04 A3014 110 32 900 260/08G16 RMK AO2
53843K79J 79J20160130125013801/30/16 12:50:31  5-MIN K79J 301750Z AUTO 24010G17KT 10SM CLR 21/03 A3014 110 30 900 240/10G17 RMK AO2 SLP204 T02110033 10217 20028 51021
53843K79J 79J20160130125515401/30/16 12:55:31  5-MIN K79J 301755Z AUTO 23008G17KT 190V270 10SM CLR 21/04 A3013 120 32 900 230/08G17 190V270 RMK AO2 SLP202 T02110039 10217 20028 51021
53843K79J 79J20160130130010401/30/16 13:00:31  5-MIN K79J 301800Z AUTO 23010G15KT 10SM CLR 22/04 A3013 120 32 1000 230/10G15 RMK AO2
53843K79J 79J20160130130512001/30/16 13:05:31  5-MIN K79J 301805Z AUTO 26008G15KT 220V290 10SM CLR 22/04 A3013 120 32 1000 260/08G15 220V290 RMK AO2
53843K79J 79J20160130131009801/30/16 13:10:31  5-MIN K79J 301810Z AUTO 25008KT 10SM CLR 22/04 A3012 130 32 1000 250/08 RMK AO2
53843K79J 79J20160130131510401/30/16 13:15:31  5-MIN K79J 301815Z AUTO 22009G15KT 10SM CLR 22/04 A3011 130 32 1000 220/09G15 RMK AO2
53843K79J 79J20160130132010401/30/16 13:20:31  5-MIN K79J 301820Z AUTO VRB06G15KT 10SM CLR 22/05 A3011 140 32 1000 VRB/06G15 RMK AO2
53843K79J 79J20160130132512001/30/16 13:25:31  5-MIN K79J 301825Z AUTO 23007G15KT 190V250 10SM CLR 22/06 A3011 140 33 1100 230/07G15 190V250 RMK AO2
53843K79J 79J20160130133010401/30/16 13:30:31  5-MIN K79J 301830Z AUTO 25008G15KT 10SM CLR 22/05 A3011 140 32 1100 250/08G15 RMK AO2
53843K79J 79J20160130133510401/30/16 13:35:31  5-MIN K79J 301835Z AUTO 26007G14KT 10SM CLR 22/06 A3011 140 33 1100 260/07G14 RMK AO2
53843K79J 79J20160130134009801/30/16 13:40:31  5-MIN K79J 301840Z AUTO 25008KT 10SM CLR 22/06 A3011 140 33 1100 250/08 RMK AO2
53843K79J 79J20160130134509801/30/16 13:45:31  5-MIN K79J 301845Z AUTO 29007KT 10SM CLR 22/06 A3011 140 35 1100 290/07 RMK AO2
53843K79J 79J20160130135011501/30/16 13:50:31  5-MIN K79J 301850Z AUTO 23004KT 10SM CLR 22/06 A3010 150 35 1100 240/04 RMK AO2 SLP191 T02220061
53843K79J 79J20160130135513101/30/16 13:55:31  5-MIN K79J 301855Z AUTO 23008KT 190V260 10SM CLR 23/06 A3010 150 32 1100 230/08 190V260 RMK AO2 SLP190 T02280056
53843K79J 79J20160130140010401/30/16 14:00:31  5-MIN K79J 301900Z AUTO VRB05G14KT 10SM CLR 23/06 A3010 150 32 1100 VRB/05G14 RMK AO2
53843K79J 79J20160130140512001/30/16 14:05:31  5-MIN K79J 301905Z AUTO 23007G14KT 190V250 10SM CLR 23/06 A3009 150 32 1100 230/07G14 190V250 RMK AO2
53843K79J 79J20160130141009801/30/16 14:10:31  5-MIN K79J 301910Z AUTO 23004KT 10SM CLR 23/06 A3009 160 32 1100 230/04 RMK AO2
53843K79J 79J20160130141509801/30/16 14:15:31  5-MIN K79J 301915Z AUTO 25008KT 10SM CLR 23/06 A3009 160 32 1100 250/08 RMK AO2
53843K79J 79J20160130142011401/30/16 14:20:31  5-MIN K79J 301920Z AUTO 24008KT 190V260 10SM CLR 23/05 A3009 160 31 1100 240/08 190V260 RMK AO2
53843K79J 79J20160130142509801/30/16 14:25:31  5-MIN K79J 301925Z AUTO 25009KT 10SM CLR 23/06 A3009 160 32 1100 260/09 RMK AO2
53843K79J 79J20160130143009801/30/16 14:30:31  5-MIN K79J 301930Z AUTO VRB06KT 10SM CLR 23/05 A3009 160 31 1100 VRB/06 RMK AO2
53843K79J 79J20160130143510401/30/16 14:35:31  5-MIN K79J 301935Z AUTO VRB05G14KT 10SM CLR 23/05 A3008 160 31 1100 VRB/05G14 RMK AO2
53843K79J 79J20160130144010401/30/16 14:40:31  5-MIN K79J 301940Z AUTO VRB05G14KT 10SM CLR 23/06 A3008 160 31 1200 VRB/05G14 RMK AO2
53843K79J 79J20160130144511401/30/16 14:45:31  5-MIN K79J 301945Z AUTO 22008KT 180V270 10SM CLR 23/05 A3008 170 31 1200 220/08 180V270 RMK AO2
53843K79J 79J20160130145011501/30/16 14:50:31  5-MIN K79J 301950Z AUTO 24006KT 10SM CLR 23/06 A3008 170 32 1200 240/06 RMK AO2 SLP183 T02280056
53843K79J 79J20160130145513101/30/16 14:55:31  5-MIN K79J 301955Z AUTO 23007KT 190V260 10SM CLR 23/06 A3008 170 33 1200 230/07 190V260 RMK AO2 SLP183 T02280061
53843K79J 79J20160130150010401/30/16 15:00:31  5-MIN K79J 302000Z AUTO 23010G15KT 10SM CLR 23/06 A3008 170 33 1200 230/10G15 RMK AO2
53843K79J 79J20160130150510401/30/16 15:05:31  5-MIN K79J 302005Z AUTO 23010G17KT 10SM CLR 23/06 A3008 170 33 1200 230/10G17 RMK AO2
53843K79J 79J20160130151010401/30/16 15:10:31  5-MIN K79J 302010Z AUTO VRB05G17KT 10SM CLR 23/06 A3008 170 32 1200 VRB/05G17 RMK AO2
53843K79J 79J20160130151510401/30/16 15:15:31  5-MIN K79J 302015Z AUTO 23009G17KT 10SM CLR 23/06 A3007 170 31 1200 240/09G17 RMK AO2
53843K79J 79J20160130152010401/30/16 15:20:31  5-MIN K79J 302020Z AUTO 23011G17KT 10SM CLR 23/04 A3007 170 29 1200 230/11G17 RMK AO2
53843K79J 79J20160130152510401/30/16 15:25:31  5-MIN K79J 302025Z AUTO 25006G15KT 10SM CLR 23/04 A3007 170 30 1200 250/06G15 RMK AO2
53843K79J 79J20160130153009801/30/16 15:30:31  5-MIN K79J 302030Z AUTO 26006KT 10SM CLR 23/04 A3007 170 29 1200 260/06 RMK AO2
53843K79J 79J20160130153509801/30/16 15:35:31  5-MIN K79J 302035Z AUTO VRB06KT 10SM CLR 23/05 A3007 170 30 1200 VRB/06 RMK AO2
53843K79J 79J20160130154009801/30/16 15:40:31  5-MIN K79J 302040Z AUTO 23007KT 10SM CLR 23/05 A3007 180 30 1200 230/07 RMK AO2
53843K79J 79J20160130154509801/30/16 15:45:31  5-MIN K79J 302045Z AUTO 22007KT 10SM CLR 23/04 A3006 180 29 1200 220/07 RMK AO2
53843K79J 79J20160130155012701/30/16 15:50:31  5-MIN K79J 302050Z AUTO 23010G15KT 10SM CLR 23/04 A3007 180 29 1200 230/10G15 RMK AO2 SLP179 T02330044 58010
53843K79J 79J20160130155514301/30/16 15:55:31  5-MIN K79J 302055Z AUTO 25008G17KT 210V270 10SM CLR 23/03 A3007 180 26 1200 250/08G17 210V270 RMK AO2 SLP179 T02330033 58010
53843K79J 79J20160130160010401/30/16 16:00:31  5-MIN K79J 302100Z AUTO 26011G18KT 10SM CLR 23/03 A3007 180 26 1200 260/11G18 RMK AO2
53843K79J 79J20160130160512001/30/16 16:05:31  5-MIN K79J 302105Z AUTO 23009G18KT 200V260 10SM CLR 23/03 A3006 180 26 1200 230/09G18 200V260 RMK AO2
53843K79J 79J20160130161009801/30/16 16:10:31  5-MIN K79J 302110Z AUTO 26008KT 10SM CLR 23/03 A3006 180 26 1200 260/08 RMK AO2
53843K79J 79J20160130161510401/30/16 16:15:31  5-MIN K79J 302115Z AUTO 26009G14KT 10SM CLR 23/04 A3006 180 28 1200 260/09G14 RMK AO2
53843K79J 79J20160130162010401/30/16 16:20:31  5-MIN K79J 302120Z AUTO 23007G14KT 10SM CLR 23/04 A3006 180 29 1200 230/07G14 RMK AO2
53843K79J 79J20160130162509801/30/16 16:25:31  5-MIN K79J 302125Z AUTO 22007KT 10SM CLR 23/04 A3006 180 29 1200 220/07 RMK AO2
53843K79J 79J20160130163009801/30/16 16:30:31  5-MIN K79J 302130Z AUTO VRB04KT 10SM CLR 23/04 A3006 180 29 1200 VRB/04 RMK AO2
53843K79J 79J20160130163509801/30/16 16:35:31  5-MIN K79J 302135Z AUTO 22007KT 10SM CLR 23/04 A3006 180 30 1200 230/07 RMK AO2
53843K79J 79J20160130164009801/30/16 16:40:31  5-MIN K79J 302140Z AUTO 22006KT 10SM CLR 23/05 A3006 180 31 1200 220/06 RMK AO2
53843K79J 79J20160130164509801/30/16 16:45:31  5-MIN K79J 302145Z AUTO VRB06KT 10SM CLR 23/05 A3006 180 31 1200 VRB/06 RMK AO2
53843K79J 79J20160130165012101/30/16 16:50:31  5-MIN K79J 302150Z AUTO VRB05G14KT 10SM CLR 23/04 A3006 180 30 1200 VRB/05G14 RMK AO2 SLP177 T02280044
53843K79J 79J20160130165513701/30/16 16:55:31  5-MIN K79J 302155Z AUTO 20007G14KT 170V250 10SM CLR 23/04 A3006 180 30 1200 200/07G14 170V250 RMK AO2 SLP178 T02280044
53843K79J 79J20160130170009801/30/16 17:00:31  5-MIN K79J 302200Z AUTO VRB04KT 10SM CLR 22/05 A3007 180 32 1100 VRB/04 RMK AO2
53843K79J 79J20160130170509801/30/16 17:05:31  5-MIN K79J 302205Z AUTO VRB05KT 10SM CLR 22/05 A3006 180 32 1100 VRB/05 RMK AO2
53843K79J 79J20160130171009801/30/16 17:10:31  5-MIN K79J 302210Z AUTO 23008KT 10SM CLR 22/05 A3006 180 32 1100 230/08 RMK AO2
53843K79J 79J20160130171509801/30/16 17:15:31  5-MIN K79J 302215Z AUTO 22008KT 10SM CLR 22/05 A3006 180 32 1100 230/08 RMK AO2
53843K79J 79J20160130172010401/30/16 17:20:31  5-MIN K79J 302220Z AUTO 23005G15KT 10SM CLR 22/06 A3007 180 33 1100 230/05G15 RMK AO2
53843K79J 79J20160130172510401/30/16 17:25:31  5-MIN K79J 302225Z AUTO 22006G15KT 10SM CLR 22/06 A3007 180 34 1000 220/06G15 RMK AO2
53843K79J 79J20160130173009801/30/16 17:30:31  5-MIN K79J 302230Z AUTO 23007KT 10SM CLR 22/06 A3007 180 34 1000 230/07 RMK AO2
53843K79J 79J20160130173509801/30/16 17:35:31  5-MIN K79J 302235Z AUTO 22007KT 10SM CLR 22/06 A3007 180 34 1000 220/07 RMK AO2
53843K79J 79J20160130174009801/30/16 17:40:31  5-MIN K79J 302240Z AUTO 23005KT 10SM CLR 21/06 A3007 180 36 1000 230/05 RMK AO2
53843K79J 79J20160130174509801/30/16 17:45:31  5-MIN K79J 302245Z AUTO 23007KT 10SM CLR 21/06 A3007 180 36 1000 230/07 RMK AO2
53843K79J 79J20160130175011501/30/16 17:50:31  5-MIN K79J 302250Z AUTO VRB05KT 10SM CLR 21/06 A3007 180 36 1000 VRB/05 RMK AO2 SLP179 T02110056
53843K79J 79J20160130175511401/30/16 17:55:31  5-MIN K79J 302255Z AUTO VRB05KT 10SM CLR 21/06 A3007 180 38 900 VRB/05 RMK AO2 SLP179 T02060061
53843K79J 79J20160130180009701/30/16 18:00:31  5-MIN K79J 302300Z AUTO VRB05KT 10SM CLR 21/06 A3006 180 38 900 VRB/05 RMK AO2
53843K79J 79J20160130180509701/30/16 18:05:31  5-MIN K79J 302305Z AUTO 23005KT 10SM CLR 20/06 A3006 180 40 800 230/05 RMK AO2
53843K79J 79J20160130181009701/30/16 18:10:31  5-MIN K79J 302310Z AUTO VRB05KT 10SM CLR 19/06 A3006 180 41 800 VRB/05 RMK AO2
53843K79J 79J20160130181509701/30/16 18:15:31  5-MIN K79J 302315Z AUTO 23006KT 10SM CLR 19/06 A3006 180 41 800 230/06 RMK AO2
53843K79J 79J20160130182009701/30/16 18:20:31  5-MIN K79J 302320Z AUTO VRB05KT 10SM CLR 19/06 A3006 180 41 800 VRB/05 RMK AO2
53843K79J 79J20160130182509701/30/16 18:25:31  5-MIN K79J 302325Z AUTO 23004KT 10SM CLR 19/07 A3007 180 44 700 230/04 RMK AO2
53843K79J 79J20160130183009701/30/16 18:30:31  5-MIN K79J 302330Z AUTO 22003KT 10SM CLR 19/07 A3007 180 44 700 230/03 RMK AO2
53843K79J 79J20160130183509701/30/16 18:35:31  5-MIN K79J 302335Z AUTO 23003KT 10SM CLR 18/07 A3007 170 46 600 230/03 RMK AO2
53843K79J 79J20160130184009701/30/16 18:40:31  5-MIN K79J 302340Z AUTO 23004KT 10SM CLR 18/07 A3007 170 48 600 230/04 RMK AO2
53843K79J 79J20160130184509701/30/16 18:45:31  5-MIN K79J 302345Z AUTO 23003KT 10SM CLR 18/07 A3008 170 48 600 240/03 RMK AO2
53843K79J 79J20160130185013201/30/16 18:50:31  5-MIN K79J 302350Z AUTO 23004KT 10SM CLR 18/07 A3008 170 48 600 230/04 RMK AO2 SLP183 T01830072 10233 20183 56022
53843K79J 79J20160130185513201/30/16 18:55:31  5-MIN K79J 302355Z AUTO 23003KT 10SM CLR 18/07 A3007 170 48 600 230/03 RMK AO2 SLP183 T01830072 10233 20183 56022
53843K79J 79J20160130190009701/30/16 19:00:31  5-MIN K79J 310000Z AUTO 23003KT 10SM CLR 18/07 A3008 170 49 600 230/03 RMK AO2
53843K79J 79J20160130190509701/30/16 19:05:31  5-MIN K79J 310005Z AUTO 00000KT 10SM CLR 18/08 A3008 170 51 600 000/00 RMK AO2
53843K79J 79J20160130191009701/30/16 19:10:31  5-MIN K79J 310010Z AUTO VRB03KT 10SM CLR 18/08 A3008 170 51 600 VRB/03 RMK AO2
53843K79J 79J20160130191509701/30/16 19:15:31  5-MIN K79J 310015Z AUTO 23003KT 10SM CLR 18/08 A3008 160 51 600 230/03 RMK AO2
53843K79J 79J20160130192009701/30/16 19:20:31  5-MIN K79J 310020Z AUTO 22003KT 10SM CLR 17/08 A3008 160 53 500 220/03 RMK AO2
53843K79J 79J20160130192509701/30/16 19:25:31  5-MIN K79J 310025Z AUTO 21003KT 10SM CLR 17/08 A3008 160 53 500 220/03 RMK AO2
53843K79J 79J20160130193009701/30/16 19:30:31  5-MIN K79J 310030Z AUTO 22003KT 10SM CLR 17/08 A3008 160 53 500 220/03 RMK AO2
53843K79J 79J20160130193509701/30/16 19:35:31  5-MIN K79J 310035Z AUTO 00000KT 10SM CLR 17/08 A3009 160 53 500 000/00 RMK AO2
53843K79J 79J20160130194009701/30/16 19:40:31  5-MIN K79J 310040Z AUTO 00000KT 10SM CLR 17/08 A3009 160 57 400 000/00 RMK AO2
53843K79J 79J20160130194509701/30/16 19:45:31  5-MIN K79J 310045Z AUTO 00000KT 10SM CLR 17/08 A3009 160 57 400 000/00 RMK AO2
53843K79J 79J20160130195011401/30/16 19:50:31  5-MIN K79J 310050Z AUTO 22003KT 10SM CLR 17/08 A3009 160 57 400 220/03 RMK AO2 SLP188 T01670083
53843K79J 79J20160130195511401/30/16 19:55:31  5-MIN K79J 310055Z AUTO 21003KT 10SM CLR 17/08 A3009 150 57 400 220/03 RMK AO2 SLP188 T01670083
53843K79J 79J20160130200009701/30/16 20:00:31  5-MIN K79J 310100Z AUTO 00000KT 10SM CLR 17/08 A3009 150 57 400 000/00 RMK AO2
53843K79J 79J20160130200509701/30/16 20:05:31  5-MIN K79J 310105Z AUTO 00000KT 10SM CLR 16/08 A3009 150 59 400 000/00 RMK AO2
53843K79J 79J20160130201009701/30/16 20:10:31  5-MIN K79J 310110Z AUTO 00000KT 10SM CLR 16/08 A3010 150 59 400 000/00 RMK AO2
53843K79J 79J20160130201509701/30/16 20:15:31  5-MIN K79J 310115Z AUTO 00000KT 10SM CLR 16/08 A3010 150 62 300 000/00 RMK AO2
53843K79J 79J20160130202009701/30/16 20:20:31  5-MIN K79J 310120Z AUTO 20003KT 10SM CLR 15/08 A3010 150 64 200 200/03 RMK AO2
53843K79J 79J20160130202509701/30/16 20:25:31  5-MIN K79J 310125Z AUTO 00000KT 10SM CLR 15/08 A3010 150 64 200 000/00 RMK AO2
53843K79J 79J20160130203009701/30/16 20:30:31  5-MIN K79J 310130Z AUTO 00000KT 10SM CLR 15/08 A3010 150 64 200 000/00 RMK AO2
53843K79J 79J20160130203509701/30/16 20:35:31  5-MIN K79J 310135Z AUTO 00000KT 10SM CLR 15/08 A3010 150 64 200 000/00 RMK AO2
53843K79J 79J20160130204009701/30/16 20:40:31  5-MIN K79J 310140Z AUTO 00000KT 10SM CLR 15/08 A3010 150 64 200 000/00 RMK AO2
53843K79J 79J20160130204509701/30/16 20:45:31  5-MIN K79J 310145Z AUTO 00000KT 10SM CLR 15/08 A3010 150 64 200 000/00 RMK AO2
53843K79J 79J20160130205011401/30/16 20:50:31  5-MIN K79J 310150Z AUTO 00000KT 10SM CLR 14/08 A3010 140 66 200 000/00 RMK AO2 SLP192 T01440083
53843K79J 79J20160130205511401/30/16 20:55:31  5-MIN K79J 310155Z AUTO 00000KT 10SM CLR 14/08 A3010 140 69 100 000/00 RMK AO2 SLP192 T01390083
53843K79J 79J20160130210009701/30/16 21:00:31  5-MIN K79J 310200Z AUTO 00000KT 10SM CLR 14/08 A3011 140 66 100 000/00 RMK AO2
53843K79J 79J20160130210509701/30/16 21:05:31  5-MIN K79J 310205Z AUTO 00000KT 10SM CLR 14/08 A3011 140 69 100 000/00 RMK AO2
53843K79J 79J20160130211009701/30/16 21:10:31  5-MIN K79J 310210Z AUTO 00000KT 10SM CLR 14/08 A3011 140 69 100 000/00 RMK AO2
53843K79J 79J20160130211509701/30/16 21:15:31  5-MIN K79J 310215Z AUTO 00000KT 10SM CLR 14/09 A3011 140 69 100 000/00 RMK AO2
53843K79J 79J20160130212009701/30/16 21:20:31  5-MIN K79J 310220Z AUTO 00000KT 10SM CLR 14/09 A3011 140 69 100 000/00 RMK AO2
53843K79J 79J20160130212509701/30/16 21:25:31  5-MIN K79J 310225Z AUTO 21003KT 10SM CLR 14/09 A3011 140 69 100 210/03 RMK AO2
53843K79J 79J20160130213009701/30/16 21:30:31  5-MIN K79J 310230Z AUTO VRB03KT 10SM CLR 14/09 A3011 140 69 100 VRB/03 RMK AO2
53843K79J 79J20160130213509701/30/16 21:35:31  5-MIN K79J 310235Z AUTO 00000KT 10SM CLR 14/09 A3011 130 69 100 000/00 RMK AO2
53843K79J 79J20160130214009701/30/16 21:40:31  5-MIN K79J 310240Z AUTO 00000KT 10SM CLR 14/09 A3011 130 69 100 000/00 RMK AO2
53843K79J 79J20160130214509701/30/16 21:45:31  5-MIN K79J 310245Z AUTO 00000KT 10SM CLR 14/09 A3011 140 71 100 000/00 RMK AO2
53843K79J 79J20160130215012001/30/16 21:50:31  5-MIN K79J 310250Z AUTO 19003KT 10SM CLR 14/09 A3011 130 71 100 190/03 RMK AO2 SLP195 T01390089 53003
53843K79J 79J20160130215512001/30/16 21:55:31  5-MIN K79J 310255Z AUTO 00000KT 10SM CLR 14/09 A3012 130 71 100 000/00 RMK AO2 SLP196 T01390089 53003
53843K79J 79J20160130220009701/30/16 22:00:31  5-MIN K79J 310300Z AUTO 00000KT 10SM CLR 14/09 A3012 130 71 100 000/00 RMK AO2
53843K79J 79J20160130220509501/30/16 22:05:31  5-MIN K79J 310305Z AUTO 19003KT 10SM CLR 13/09 A3011 130 74 0 190/03 RMK AO2
53843K79J 79J20160130221009501/30/16 22:10:31  5-MIN K79J 310310Z AUTO 00000KT 10SM CLR 13/09 A3011 130 74 0 000/00 RMK AO2
53843K79J 79J20160130221509501/30/16 22:15:31  5-MIN K79J 310315Z AUTO 00000KT 10SM CLR 13/09 A3011 130 74 0 000/00 RMK AO2
53843K79J 79J20160130222009501/30/16 22:20:31  5-MIN K79J 310320Z AUTO 00000KT 10SM CLR 13/09 A3011 140 74 0 000/00 RMK AO2
53843K79J 79J20160130222509501/30/16 22:25:31  5-MIN K79J 310325Z AUTO 00000KT 10SM CLR 13/09 A3011 140 77 0 000/00 RMK AO2
53843K79J 79J20160130223009501/30/16 22:30:31  5-MIN K79J 310330Z AUTO 00000KT 10SM CLR 13/09 A3011 140 77 0 000/00 RMK AO2
53843K79J 79J20160130223509501/30/16 22:35:31  5-MIN K79J 310335Z AUTO 00000KT 10SM CLR 13/09 A3011 140 77 0 000/00 RMK AO2
53843K79J 79J20160130224009501/30/16 22:40:31  5-MIN K79J 310340Z AUTO 00000KT 10SM CLR 13/09 A3011 140 77 0 000/00 RMK AO2
53843K79J 79J20160130224509501/30/16 22:45:31  5-MIN K79J 310345Z AUTO 19003KT 10SM CLR 13/09 A3011 140 80 0 190/03 RMK AO2
53843K79J 79J20160130225011201/30/16 22:50:31  5-MIN K79J 310350Z AUTO 00000KT 10SM CLR 13/09 A3011 140 77 0 000/00 RMK AO2 SLP194 T01330094
53843K79J 79J20160130225511201/30/16 22:55:31  5-MIN K79J 310355Z AUTO 17003KT 10SM CLR 13/09 A3011 140 80 0 170/03 RMK AO2 SLP194 T01280094
53843K79J 79J20160130230009501/30/16 23:00:31  5-MIN K79J 310400Z AUTO 00000KT 10SM CLR 13/09 A3011 140 80 0 000/00 RMK AO2
53843K79J 79J20160130230509501/30/16 23:05:31  5-MIN K79J 310405Z AUTO 00000KT 10SM CLR 13/09 A3011 140 80 0 000/00 RMK AO2
53843K79J 79J20160130231009801/30/16 23:10:31  5-MIN K79J 310410Z AUTO 00000KT 10SM CLR 12/09 A3011 140 80 -100 000/00 RMK AO2
53843K79J 79J20160130231509501/30/16 23:15:31  5-MIN K79J 310415Z AUTO 00000KT 10SM CLR 13/09 A3011 140 80 0 000/00 RMK AO2
53843K79J 79J20160130232009801/30/16 23:20:31  5-MIN K79J 310420Z AUTO 00000KT 10SM CLR 12/09 A3011 140 80 -100 000/00 RMK AO2
53843K79J 79J20160130232509801/30/16 23:25:31  5-MIN K79J 310425Z AUTO 00000KT 10SM CLR 12/09 A3010 140 83 -100 000/00 RMK AO2
53843K79J 79J20160130233009801/30/16 23:30:31  5-MIN K79J 310430Z AUTO 00000KT 10SM CLR 12/09 A3010 140 83 -100 000/00 RMK AO2
53843K79J 79J20160130233509801/30/16 23:35:31  5-MIN K79J 310435Z AUTO 00000KT 10SM CLR 12/09 A3010 140 83 -100 000/00 RMK AO2
53843K79J 79J20160130234009801/30/16 23:40:31  5-MIN K79J 310440Z AUTO 00000KT 10SM CLR 12/09 A3010 140 83 -100 000/00 RMK AO2
53843K79J 79J20160130234509801/30/16 23:45:31  5-MIN K79J 310445Z AUTO 00000KT 10SM CLR 12/09 A3010 140 83 -100 000/00 RMK AO2
53843K79J 79J20160130235012401/30/16 23:50:31  5-MIN K79J 310450Z AUTO 00000KT 9SM CLR 12/09 A3010 150 83 -100 000/00 RMK AO2 SLP189 T01170089 402330028
53843K79J 79J20160130235512401/30/16 23:55:31  5-MIN K79J 310455Z AUTO 00000KT 9SM CLR 12/09 A3010 150 83 -100 000/00 RMK AO2 SLP189 T01170089 402330028
53843K79J 79J20160131000009801/31/16 00:00:31  5-MIN K79J 310500Z AUTO 00000KT 10SM CLR 12/09 A3010 150 86 -100 000/00 RMK AO2
53843K79J 79J20160131000509801/31/16 00:05:31  5-MIN K79J 310505Z AUTO 00000KT 10SM CLR 12/09 A3009 150 83 -100 000/00 RMK AO2
53843K79J 79J20160131001009801/31/16 00:10:31  5-MIN K79J 310510Z AUTO 00000KT 10SM CLR 12/09 A3009 150 86 -100 000/00 RMK AO2
53843K79J 79J20160131001509801/31/16 00:15:31  5-MIN K79J 310515Z AUTO 16003KT 10SM CLR 12/09 A3009 150 86 -100 160/03 RMK AO2
53843K79J 79J20160131002009401/31/16 00:20:31  5-MIN K79J 310520Z AUTO 17003KT 9SM CLR 12/09 A3009 160 83 0 170/03 RMK AO2
53843K79J 79J20160131002509801/31/16 00:25:31  5-MIN K79J 310525Z AUTO 18003KT 10SM CLR 12/10 A3009 150 86 -100 180/03 RMK AO2
53843K79J 79J20160131003009801/31/16 00:30:31  5-MIN K79J 310530Z AUTO 00000KT 10SM CLR 12/10 A3009 150 86 -100 000/00 RMK AO2
53843K79J 79J20160131003509501/31/16 00:35:31  5-MIN K79J 310535Z AUTO 00000KT 10SM CLR 12/10 A3009 150 86 0 000/00 RMK AO2
53843K79J 79J20160131004009501/31/16 00:40:31  5-MIN K79J 310540Z AUTO 16003KT 10SM CLR 13/10 A3009 160 83 0 160/03 RMK AO2
53843K79J 79J20160131004509501/31/16 00:45:31  5-MIN K79J 310545Z AUTO 17003KT 10SM CLR 12/10 A3009 160 86 0 170/03 RMK AO2
53843K79J 79J20160131005013001/31/16 00:50:31  5-MIN K79J 310550Z AUTO VRB03KT 10SM CLR 12/10 A3009 160 86 0 VRB/03 RMK AO2 SLP185 T01220100 10178 20117 51014
53843K79J 79J20160131005513001/31/16 00:55:31  5-MIN K79J 310555Z AUTO 00000KT 10SM CLR 12/10 A3008 160 86 0 000/00 RMK AO2 SLP184 T01220100 10178 20117 51014
53843K79J 79J20160131010009501/31/16 01:00:31  5-MIN K79J 310600Z AUTO 17003KT 10SM CLR 12/10 A3008 160 86 0 170/03 RMK AO2
53843K79J 79J20160131010509501/31/16 01:05:31  5-MIN K79J 310605Z AUTO 16003KT 10SM CLR 12/10 A3008 170 86 0 170/03 RMK AO2
53843K79J 79J20160131011009501/31/16 01:10:31  5-MIN K79J 310610Z AUTO 17003KT 10SM CLR 12/10 A3008 170 86 0 170/03 RMK AO2
53843K79J 79J20160131011509501/31/16 01:15:31  5-MIN K79J 310615Z AUTO 16003KT 10SM CLR 12/10 A3008 170 86 0 160/03 RMK AO2
53843K79J 79J20160131012009501/31/16 01:20:31  5-MIN K79J 310620Z AUTO 00000KT 10SM CLR 12/10 A3008 170 86 0 000/00 RMK AO2
53843K79J 79J20160131012509501/31/16 01:25:31  5-MIN K79J 310625Z AUTO 16003KT 10SM CLR 12/10 A3008 170 86 0 160/03 RMK AO2
53843K79J 79J20160131013009501/31/16 01:30:31  5-MIN K79J 310630Z AUTO 00000KT 10SM CLR 12/10 A3008 170 86 0 000/00 RMK AO2
53843K79J 79J20160131013509801/31/16 01:35:31  5-MIN K79J 310635Z AUTO 00000KT 10SM FEW034 12/10 A3008 160 86 0 000/00 RMK AO2
53843K79J 79J20160131014009801/31/16 01:40:31  5-MIN K79J 310640Z AUTO 00000KT 10SM SCT034 12/10 A3008 160 86 0 000/00 RMK AO2
53843K79J 79J20160131014509801/31/16 01:45:31  5-MIN K79J 310645Z AUTO 00000KT 10SM SCT034 13/10 A3008 170 83 0 000/00 RMK AO2
53843K79J 79J20160131015011501/31/16 01:50:31  5-MIN K79J 310650Z AUTO 00000KT 10SM BKN034 13/10 A3008 160 83 0 000/00 RMK AO2 SLP183 T01280100
53843K79J 79J20160131015511501/31/16 01:55:31  5-MIN K79J 310655Z AUTO 00000KT 10SM BKN034 13/10 A3008 170 83 0 000/00 RMK AO2 SLP182 T01280100
53843K79J 79J20160131020009801/31/16 02:00:31  5-MIN K79J 310700Z AUTO 00000KT 10SM SCT034 13/10 A3008 170 83 0 000/00 RMK AO2
53843K79J 79J20160131020509801/31/16 02:05:31  5-MIN K79J 310705Z AUTO 00000KT 10SM SCT034 13/10 A3007 170 83 0 000/00 RMK AO2
53843K79J 79J20160131021009801/31/16 02:10:31  5-MIN K79J 310710Z AUTO 00000KT 10SM BKN034 13/10 A3007 170 83 0 000/00 RMK AO2
53843K79J 79J20160131021509801/31/16 02:15:31  5-MIN K79J 310715Z AUTO 00000KT 10SM BKN034 13/10 A3007 170 83 0 000/00 RMK AO2
53843K79J 79J20160131022009801/31/16 02:20:31  5-MIN K79J 310720Z AUTO 00000KT 10SM BKN034 13/10 A3007 170 83 0 000/00 RMK AO2
53843K79J 79J20160131022509801/31/16 02:25:31  5-MIN K79J 310725Z AUTO 00000KT 10SM BKN034 13/10 A3007 180 83 0 000/00 RMK AO2
53843K79J 79J20160131023009801/31/16 02:30:31  5-MIN K79J 310730Z AUTO 00000KT 10SM BKN034 13/10 A3007 180 83 0 000/00 RMK AO2
53843K79J 79J20160131023509801/31/16 02:35:31  5-MIN K79J 310735Z AUTO 17003KT 10SM BKN034 13/10 A3006 180 83 0 180/03 RMK AO2
53843K79J 79J20160131024009701/31/16 02:40:31  5-MIN K79J 310740Z AUTO 16003KT 9SM BKN034 12/10 A3006 180 86 0 160/03 RMK AO2
53843K79J 79J20160131024509701/31/16 02:45:31  5-MIN K79J 310745Z AUTO 16003KT 8SM BKN034 12/10 A3006 180 86 0 160/03 RMK AO2
53843K79J 79J20160131025011401/31/16 02:50:31  5-MIN K79J 310750Z AUTO 00000KT 8SM BKN034 12/10 A3006 180 86 0 000/00 RMK AO2 SLP175 T01220100
53843K79J 79J20160131025511401/31/16 02:55:31  5-MIN K79J 310755Z AUTO 00000KT 8SM BKN034 12/10 A3006 190 86 0 000/00 RMK AO2 SLP175 T01220100
53843K79J 79J20160131030009701/31/16 03:00:31  5-MIN K79J 310800Z AUTO 00000KT 8SM BKN034 13/10 A3006 190 83 0 000/00 RMK AO2
53843K79J 79J20160131030509701/31/16 03:05:31  5-MIN K79J 310805Z AUTO 17003KT 9SM BKN034 13/10 A3005 190 83 0 170/03 RMK AO2
53843K79J 79J20160131031009801/31/16 03:10:31  5-MIN K79J 310810Z AUTO 17003KT 10SM SCT034 13/10 A3005 190 83 0 170/03 RMK AO2
53843K79J 79J20160131031509801/31/16 03:15:31  5-MIN K79J 310815Z AUTO 17003KT 10SM FEW034 13/10 A3005 200 83 0 170/03 RMK AO2
53843K79J 79J20160131032009801/31/16 03:20:31  5-MIN K79J 310820Z AUTO 00000KT 10SM FEW034 13/10 A3004 200 83 0 000/00 RMK AO2
53843K79J 79J20160131032509701/31/16 03:25:31  5-MIN K79J 310825Z AUTO 00000KT 9SM FEW034 13/10 A3004 200 83 0 000/00 RMK AO2
53843K79J 79J20160131033009401/31/16 03:30:31  5-MIN K79J 310830Z AUTO 15003KT 9SM CLR 13/10 A3004 200 83 0 150/03 RMK AO2
53843K79J 79J20160131033509401/31/16 03:35:31  5-MIN K79J 310835Z AUTO 00000KT 8SM CLR 12/10 A3004 200 86 0 000/00 RMK AO2
53843K79J 79J20160131034009401/31/16 03:40:31  5-MIN K79J 310840Z AUTO 00000KT 7SM CLR 12/10 A3004 200 86 0 000/00 RMK AO2
53843K79J 79J20160131034509701/31/16 03:45:31  5-MIN K79J 310845Z AUTO 00000KT 6SM BR CLR 12/10 A3004 200 86 0 000/00 RMK AO2
53843K79J 79J20160131035011701/31/16 03:50:31  5-MIN K79J 310850Z AUTO 15003KT 7SM CLR 12/10 A3004 200 86 0 150/03 RMK AO2 SLP169 T01220100 58010
53843K79J 79J20160131035511701/31/16 03:55:31  5-MIN K79J 310855Z AUTO 00000KT 7SM CLR 12/10 A3004 200 86 0 000/00 RMK AO2 SLP169 T01220100 58010
53843K79J 79J20160131040009401/31/16 04:00:31  5-MIN K79J 310900Z AUTO 16003KT 7SM CLR 12/10 A3004 200 86 0 160/03 RMK AO2
53843K79J 79J20160131040509401/31/16 04:05:31  5-MIN K79J 310905Z AUTO 00000KT 7SM CLR 12/10 A3004 200 86 0 000/00 RMK AO2
53843K79J 79J20160131041009401/31/16 04:10:31  5-MIN K79J 310910Z AUTO 00000KT 7SM CLR 12/10 A3004 200 86 0 000/00 RMK AO2
53843K79J 79J20160131041509401/31/16 04:15:31  5-MIN K79J 310915Z AUTO 15003KT 7SM CLR 12/10 A3004 200 86 0 150/03 RMK AO2
53843K79J 79J20160131042009401/31/16 04:20:31  5-MIN K79J 310920Z AUTO 15003KT 7SM CLR 12/09 A3004 200 83 0 150/03 RMK AO2
