53843K79J 79J20160701000010807/01/16 00:00:31  5-MIN K79J 010500Z AUTO 15003KT 10SM CLR 26/22 A2999 250 81 1600 160/03 RMK AO2 T02560222
53843K79J 79J20160701000510807/01/16 00:05:31  5-MIN K79J 010505Z AUTO VRB03KT 10SM CLR 26/22 A2999 250 81 1600 VRB/03 RMK AO2 T02560222
53843K79J 79J20160701001010807/01/16 00:10:31  5-MIN K79J 010510Z AUTO VRB03KT 10SM CLR 26/22 A2999 250 81 1600 VRB/03 RMK AO2 T02560222
53843K79J 79J20160701001510807/01/16 00:15:31  5-MIN K79J 010515Z AUTO 00000KT 10SM CLR 26/22 A2998 250 81 1600 000/00 RMK AO2 T02560222
53843K79J 79J20160701002010807/01/16 00:20:31  5-MIN K79J 010520Z AUTO 00000KT 10SM CLR 26/22 A2998 250 81 1600 000/00 RMK AO2 T02560222
53843K79J 79J20160701002510807/01/16 00:25:31  5-MIN K79J 010525Z AUTO 00000KT 10SM CLR 26/22 A2998 250 81 1600 000/00 RMK AO2 T02560222
53843K79J 79J20160701003010807/01/16 00:30:31  5-MIN K79J 010530Z AUTO 00000KT 10SM CLR 26/22 A2999 250 81 1600 000/00 RMK AO2 T02560222
53843K79J 79J20160701003510807/01/16 00:35:31  5-MIN K79J 010535Z AUTO 00000KT 10SM CLR 26/22 A2999 250 81 1600 000/00 RMK AO2 T02560222
53843K79J 79J20160701004010807/01/16 00:40:31  5-MIN K79J 010540Z AUTO 00000KT 10SM CLR 26/22 A2998 250 81 1600 000/00 RMK AO2 T02560222
53843K79J 79J20160701004510807/01/16 00:45:31  5-MIN K79J 010545Z AUTO 00000KT 10SM CLR 26/22 A2998 250 81 1600 000/00 RMK AO2 T02560222
53843K79J 79J20160701005013307/01/16 00:50:31  5-MIN K79J 010550Z AUTO 00000KT 10SM CLR 25/22 A2999 250 84 1500 000/00 RMK AO2 SLP149 T02500222 10278 20250 53012
53843K79J 79J20160701005513307/01/16 00:55:31  5-MIN K79J 010555Z AUTO 00000KT 10SM CLR 25/22 A2998 260 84 1500 000/00 RMK AO2 SLP147 T02500222 10278 20250 53012
53843K79J 79J20160701010010807/01/16 01:00:31  5-MIN K79J 010600Z AUTO 00000KT 10SM CLR 25/22 A2998 260 84 1500 000/00 RMK AO2 T02500222
53843K79J 79J20160701010510807/01/16 01:05:31  5-MIN K79J 010605Z AUTO 00000KT 10SM CLR 25/22 A2998 260 84 1500 000/00 RMK AO2 T02500222
53843K79J 79J20160701011010807/01/16 01:10:31  5-MIN K79J 010610Z AUTO 00000KT 10SM CLR 25/22 A2998 260 84 1500 000/00 RMK AO2 T02500222
53843K79J 79J20160701011510807/01/16 01:15:31  5-MIN K79J 010615Z AUTO 00000KT 10SM CLR 25/22 A2998 260 84 1500 000/00 RMK AO2 T02500222
53843K79J 79J20160701012010807/01/16 01:20:31  5-MIN K79J 010620Z AUTO 00000KT 10SM CLR 25/22 A2998 260 84 1500 000/00 RMK AO2 T02500222
53843K79J 79J20160701012510807/01/16 01:25:31  5-MIN K79J 010625Z AUTO 00000KT 10SM CLR 25/22 A2998 260 84 1500 000/00 RMK AO2 T02500222
53843K79J 79J20160701013010807/01/16 01:30:31  5-MIN K79J 010630Z AUTO 00000KT 10SM CLR 25/22 A2998 260 84 1500 000/00 RMK AO2 T02500222
53843K79J 79J20160701013510807/01/16 01:35:31  5-MIN K79J 010635Z AUTO 00000KT 10SM CLR 25/22 A2998 260 84 1500 000/00 RMK AO2 T02500222
53843K79J 79J20160701014010807/01/16 01:40:31  5-MIN K79J 010640Z AUTO 00000KT 10SM CLR 25/22 A2998 260 84 1500 000/00 RMK AO2 T02500222
53843K79J 79J20160701014510807/01/16 01:45:31  5-MIN K79J 010645Z AUTO 00000KT 10SM CLR 25/22 A2998 260 84 1500 000/00 RMK AO2 T02500222
53843K79J 79J20160701015011507/01/16 01:50:31  5-MIN K79J 010650Z AUTO 00000KT 10SM CLR 25/22 A2998 260 84 1500 000/00 RMK AO2 SLP147 T02500222
53843K79J 79J20160701015511407/01/16 01:55:31  5-MIN K79J 010655Z AUTO 00000KT 9SM CLR 24/22 A2998 260 87 1400 000/00 RMK AO2 SLP147 T02440222
53843K79J 79J20160701020010707/01/16 02:00:31  5-MIN K79J 010700Z AUTO 00000KT 9SM CLR 24/22 A2998 260 87 1400 000/00 RMK AO2 T02440222
53843K79J 79J20160701020510707/01/16 02:05:31  5-MIN K79J 010705Z AUTO 00000KT 9SM CLR 24/22 A2998 260 87 1500 000/00 RMK AO2 T02440222
53843K79J 79J20160701021010707/01/16 02:10:31  5-MIN K79J 010710Z AUTO 00000KT 8SM CLR 24/22 A2998 260 84 1500 000/00 RMK AO2 T02440217
53843K79J 79J20160701021510707/01/16 02:15:31  5-MIN K79J 010715Z AUTO 00000KT 9SM CLR 24/22 A2998 260 84 1500 000/00 RMK AO2 T02440217
53843K79J 79J20160701022010707/01/16 02:20:31  5-MIN K79J 010720Z AUTO 00000KT 9SM CLR 24/22 A2997 260 84 1500 000/00 RMK AO2 T02440217
53843K79J 79J20160701022510707/01/16 02:25:31  5-MIN K79J 010725Z AUTO 00000KT 9SM CLR 24/22 A2997 260 84 1500 000/00 RMK AO2 T02440217
53843K79J 79J20160701023010707/01/16 02:30:31  5-MIN K79J 010730Z AUTO 00000KT 9SM CLR 24/22 A2997 260 84 1500 000/00 RMK AO2 T02440217
53843K79J 79J20160701023510707/01/16 02:35:31  5-MIN K79J 010735Z AUTO 00000KT 9SM CLR 24/22 A2997 260 84 1500 000/00 RMK AO2 T02440217
53843K79J 79J20160701024010707/01/16 02:40:31  5-MIN K79J 010740Z AUTO 00000KT 9SM CLR 24/22 A2997 260 84 1500 000/00 RMK AO2 T02440217
53843K79J 79J20160701024510707/01/16 02:45:31  5-MIN K79J 010745Z AUTO 00000KT 9SM CLR 24/22 A2997 260 84 1500 000/00 RMK AO2 T02440217
53843K79J 79J20160701025011407/01/16 02:50:31  5-MIN K79J 010750Z AUTO 00000KT 8SM CLR 24/22 A2998 260 87 1400 000/00 RMK AO2 SLP145 T02390217
53843K79J 79J20160701025511407/01/16 02:55:31  5-MIN K79J 010755Z AUTO 00000KT 7SM CLR 24/22 A2998 260 84 1500 000/00 RMK AO2 SLP146 T02440217
53843K79J 79J20160701030010707/01/16 03:00:31  5-MIN K79J 010800Z AUTO 00000KT 7SM CLR 24/22 A2998 260 87 1400 000/00 RMK AO2 T02390217
53843K79J 79J20160701030510707/01/16 03:05:31  5-MIN K79J 010805Z AUTO 13003KT 8SM CLR 24/22 A2998 260 87 1400 130/03 RMK AO2 T02390217
53843K79J 79J20160701031010707/01/16 03:10:31  5-MIN K79J 010810Z AUTO 13003KT 8SM CLR 24/22 A2998 260 87 1400 130/03 RMK AO2 T02390217
53843K79J 79J20160701031510707/01/16 03:15:31  5-MIN K79J 010815Z AUTO 00000KT 8SM CLR 24/22 A2998 260 84 1500 000/00 RMK AO2 T02440217
53843K79J 79J20160701032010707/01/16 03:20:31  5-MIN K79J 010820Z AUTO 00000KT 8SM CLR 24/22 A2998 260 84 1500 000/00 RMK AO2 T02440217
53843K79J 79J20160701032510707/01/16 03:25:31  5-MIN K79J 010825Z AUTO 00000KT 9SM CLR 24/22 A2998 260 84 1500 000/00 RMK AO2 T02440217
53843K79J 79J20160701033010807/01/16 03:30:31  5-MIN K79J 010830Z AUTO 00000KT 10SM CLR 24/22 A2998 260 84 1500 000/00 RMK AO2 T02440217
53843K79J 79J20160701033510807/01/16 03:35:31  5-MIN K79J 010835Z AUTO 00000KT 10SM CLR 24/22 A2998 260 84 1500 000/00 RMK AO2 T02440217
53843K79J 79J20160701034010707/01/16 03:40:31  5-MIN K79J 010840Z AUTO 00000KT 9SM CLR 24/22 A2998 260 87 1400 000/00 RMK AO2 T02390217
53843K79J 79J20160701034510707/01/16 03:45:31  5-MIN K79J 010845Z AUTO 00000KT 9SM CLR 24/22 A2998 250 87 1400 000/00 RMK AO2 T02390217
53843K79J 79J20160701035012007/01/16 03:50:31  5-MIN K79J 010850Z AUTO 00000KT 8SM CLR 24/22 A2998 250 87 1400 000/00 RMK AO2 SLP148 T02390217 58001
53843K79J 79J20160701035512007/01/16 03:55:31  5-MIN K79J 010855Z AUTO 11003KT 7SM CLR 24/22 A2999 250 87 1400 110/03 RMK AO2 SLP149 T02390217 58001
53843K79J 79J20160701040010707/01/16 04:00:31  5-MIN K79J 010900Z AUTO 00000KT 8SM CLR 24/22 A2999 250 87 1400 000/00 RMK AO2 T02390217
53843K79J 79J20160701040511007/01/16 04:05:31  5-MIN K79J 010905Z AUTO 00000KT 9SM FEW023 24/22 A2999 250 87 1400 000/00 RMK AO2 T02390217
53843K79J 79J20160701041011107/01/16 04:10:31  5-MIN K79J 010910Z AUTO 00000KT 10SM FEW023 24/22 A2999 250 87 1400 000/00 RMK AO2 T02390217
53843K79J 79J20160701041511107/01/16 04:15:31  5-MIN K79J 010915Z AUTO 00000KT 10SM SCT021 24/22 A2999 250 87 1400 000/00 RMK AO2 T02390217
53843K79J 79J20160701042011007/01/16 04:20:31  5-MIN K79J 010920Z AUTO 12003KT 9SM SCT021 24/22 A2999 250 87 1400 120/03 RMK AO2 T02390217
53843K79J 79J20160701042511007/01/16 04:25:31  5-MIN K79J 010925Z AUTO 00000KT 8SM FEW021 24/22 A2999 250 87 1400 000/00 RMK AO2 T02390217
53843K79J 79J20160701043011007/01/16 04:30:31  5-MIN K79J 010930Z AUTO 00000KT 7SM FEW021 24/22 A2999 250 87 1400 000/00 RMK AO2 T02390217
53843K79J 79J20160701043511007/01/16 04:35:31  5-MIN K79J 010935Z AUTO 00000KT 7SM FEW021 24/22 A2999 250 87 1400 000/00 RMK AO2 T02390217
53843K79J 79J20160701044011007/01/16 04:40:31  5-MIN K79J 010940Z AUTO 00000KT 7SM FEW021 24/22 A2999 250 87 1400 000/00 RMK AO2 T02390217
53843K79J 79J20160701044511007/01/16 04:45:31  5-MIN K79J 010945Z AUTO 13003KT 8SM FEW002 24/22 A2999 250 87 1400 130/03 RMK AO2 T02390217
53843K79J 79J20160701045010007/01/16 04:50:31  5-MIN K79J 010950Z AUTO 14003KT 7SM SCT002 24/22 A2999 250 87 1400 140/03 RMK AO2
53843K79J 79J20160701045512007/01/16 04:55:31  5-MIN K79J 010955Z AUTO 00000KT 6SM BR BKN002 24/22 A2999 240 87 1400 000/00 RMK AO2 SLP151 T02390217
53843K79J 79J20160701050011307/01/16 05:00:31  5-MIN K79J 011000Z AUTO 13003KT 4SM BR BKN002 24/22 A2999 240 87 1400 130/03 RMK AO2 T02390217
53843K79J 79J20160701050511307/01/16 05:05:31  5-MIN K79J 011005Z AUTO 12003KT 3SM BR BKN002 24/22 A3000 240 87 1400 120/03 RMK AO2 T02390217
53843K79J 79J20160701051011707/01/16 05:10:31  5-MIN K79J 011010Z AUTO 00000KT 2 1/2SM BR OVC002 24/22 A3000 240 87 1400 000/00 RMK AO2 T02390217
53843K79J 79J20160701051511707/01/16 05:15:31  5-MIN K79J 011015Z AUTO 00000KT 2 1/2SM BR OVC002 24/22 A3000 240 87 1400 000/00 RMK AO2 T02390217
53843K79J 79J20160701052011307/01/16 05:20:31  5-MIN K79J 011020Z AUTO 00000KT 3SM BR OVC002 24/22 A3000 240 87 1400 000/00 RMK AO2 T02390217
53843K79J 79J20160701052511707/01/16 05:25:31  5-MIN K79J 011025Z AUTO 00000KT 2 1/2SM BR OVC002 24/22 A3000 240 87 1400 000/00 RMK AO2 T02390217
53843K79J 79J20160701053011507/01/16 05:30:31  5-MIN K79J 011030Z AUTO 00000KT 3/4SM BR OVC002 24/22 A3000 240 87 1400 000/00 RMK AO2 T02390217
53843K79J 79J20160701053511407/01/16 05:35:31  5-MIN K79J 011035Z AUTO 00000KT 1/2SM FG VV002 24/22 A3000 230 87 1400 000/00 RMK AO2 T02390217
53843K79J 79J20160701054011407/01/16 05:40:31  5-MIN K79J 011040Z AUTO 15004KT 1/2SM HZ VV002 24/22 A3000 230 84 1400 150/04 RMK AO2 T02440217
53843K79J 79J20160701054511407/01/16 05:45:31  5-MIN K79J 011045Z AUTO 00000KT 1/4SM FG VV002 24/22 A3001 230 87 1400 000/00 RMK AO2 T02440222
53843K79J 79J20160701055010407/01/16 05:50:31  5-MIN K79J 011050Z AUTO 14003KT 1/4SM FG VV002 24/22 A3000 230 90 1400 150/03 RMK AO2
53843K79J 79J20160701055512107/01/16 05:55:31  5-MIN K79J 011055Z AUTO 15004KT 1/4SM FG VV002 24/22 A3000 240 90 1400 150/04 RMK AO2 SLP155 T02390222
53843K79J 79J20160701060011407/01/16 06:00:31  5-MIN K79J 011100Z AUTO 15004KT 1/4SM FG VV002 24/22 A3001 230 87 1400 150/04 RMK AO2 T02390217
53843K79J 79J20160701060511407/01/16 06:05:31  5-MIN K79J 011105Z AUTO 00000KT 1/4SM FG VV002 24/22 A3001 230 90 1400 000/00 RMK AO2 T02390222
53843K79J 79J20160701061011407/01/16 06:10:31  5-MIN K79J 011110Z AUTO 00000KT 1/4SM FG VV002 24/22 A3001 230 90 1400 000/00 RMK AO2 T02390222
53843K79J 79J20160701061511407/01/16 06:15:31  5-MIN K79J 011115Z AUTO 00000KT 1/4SM FG VV002 24/22 A3001 230 87 1400 000/00 RMK AO2 T02440222
53843K79J 79J20160701062011407/01/16 06:20:31  5-MIN K79J 011120Z AUTO 00000KT 1/4SM FG VV002 24/22 A3001 230 87 1400 000/00 RMK AO2 T02440222
53843K79J 79J20160701062511407/01/16 06:25:31  5-MIN K79J 011125Z AUTO 00000KT 1/4SM FG VV002 24/22 A3001 230 87 1400 000/00 RMK AO2 T02440222
53843K79J 79J20160701063011407/01/16 06:30:31  5-MIN K79J 011130Z AUTO 00000KT 1/4SM FG VV002 24/22 A3001 230 87 1400 000/00 RMK AO2 T02440222
53843K79J 79J20160701063511407/01/16 06:35:31  5-MIN K79J 011135Z AUTO 00000KT 1/4SM FG VV002 24/22 A3001 230 87 1400 000/00 RMK AO2 T02440222
53843K79J 79J20160701064011407/01/16 06:40:31  5-MIN K79J 011140Z AUTO 00000KT 1/4SM FG VV002 24/22 A3001 230 87 1400 000/00 RMK AO2 T02440222
53843K79J 79J20160701064511407/01/16 06:45:31  5-MIN K79J 011145Z AUTO 00000KT 1/4SM FG VV002 24/22 A3001 230 87 1400 000/00 RMK AO2 T02440222
53843K79J 79J20160701065014507/01/16 06:50:31  5-MIN K79J 011150Z AUTO 00000KT 1/4SM FG VV002 24/22 A3001 230 87 1400 000/00 RMK AO2 SLP156 70010 T02440222 10244 20239 53002
53843K79J 79J20160701065514507/01/16 06:55:31  5-MIN K79J 011155Z AUTO 00000KT 1/4SM FG VV002 24/22 A3001 230 87 1400 000/00 RMK AO2 SLP156 70010 T02440222 10244 20239 53002
53843K79J 79J20160701070011407/01/16 07:00:31  5-MIN K79J 011200Z AUTO 00000KT 1/4SM FG VV002 24/22 A3001 230 87 1400 000/00 RMK AO2 T02440222
53843K79J 79J20160701070511407/01/16 07:05:31  5-MIN K79J 011205Z AUTO VRB03KT 1/4SM FG VV002 25/23 A3001 230 87 1500 VRB/03 RMK AO2 T02500228
53843K79J 79J20160701071011407/01/16 07:10:31  5-MIN K79J 011210Z AUTO 00000KT 1/4SM FG VV002 25/23 A3001 230 87 1500 000/00 RMK AO2 T02500228
53843K79J 79J20160701071511407/01/16 07:15:31  5-MIN K79J 011215Z AUTO 00000KT 1/4SM FG VV002 25/23 A3001 230 87 1500 000/00 RMK AO2 T02500228
53843K79J 79J20160701072011407/01/16 07:20:31  5-MIN K79J 011220Z AUTO 00000KT 1/4SM FG VV002 25/23 A3002 220 87 1500 000/00 RMK AO2 T02500228
53843K79J 79J20160701072511407/01/16 07:25:31  5-MIN K79J 011225Z AUTO 00000KT 1/2SM FG VV002 25/23 A3002 220 87 1500 000/00 RMK AO2 T02500228
53843K79J 79J20160701073011407/01/16 07:30:31  5-MIN K79J 011230Z AUTO 00000KT 1/2SM FG VV002 25/23 A3002 220 87 1500 000/00 RMK AO2 T02500228
53843K79J 79J20160701073511507/01/16 07:35:31  5-MIN K79J 011235Z AUTO 00000KT 3/4SM BR OVC002 25/23 A3002 220 87 1500 000/00 RMK AO2 T02500228
53843K79J 79J20160701074011707/01/16 07:40:31  5-MIN K79J 011240Z AUTO 00000KT 1 1/4SM BR OVC002 26/23 A3002 220 87 1500 000/00 RMK AO2 T02560233
53843K79J 79J20160701074511307/01/16 07:45:31  5-MIN K79J 011245Z AUTO 00000KT 4SM BR OVC002 26/23 A3002 220 87 1500 000/00 RMK AO2 T02560233
53843K79J 79J20160701075010007/01/16 07:50:31  5-MIN K79J 011250Z AUTO 00000KT 8SM OVC002 26/23 A3002 220 84 1600 000/00 RMK AO2
53843K79J 79J20160701075511807/01/16 07:55:31  5-MIN K79J 011255Z AUTO 00000KT 10SM OVC002 26/23 A3002 220 84 1600 000/00 RMK AO2 SLP160 T02610233
53843K79J 79J20160701080011107/01/16 08:00:31  5-MIN K79J 011300Z AUTO 00000KT 10SM OVC002 27/23 A3002 220 82 1700 000/00 RMK AO2 T02670233
53843K79J 79J20160701080511107/01/16 08:05:31  5-MIN K79J 011305Z AUTO 21004KT 10SM BKN004 27/23 A3002 220 79 1700 210/04 RMK AO2 T02720233
53843K79J 79J20160701081012307/01/16 08:10:31  5-MIN K79J 011310Z AUTO 23003KT 10SM BKN004 27/23 A3002 220 79 1700 230/03 RMK AO2 CIG 002V006 T02720233
53843K79J 79J20160701081511107/01/16 08:15:31  5-MIN K79J 011315Z AUTO 00000KT 10SM SCT004 27/23 A3002 220 82 1700 000/00 RMK AO2 T02670233
53843K79J 79J20160701082011107/01/16 08:20:31  5-MIN K79J 011320Z AUTO 00000KT 10SM SCT004 27/23 A3002 220 79 1700 000/00 RMK AO2 T02720233
53843K79J 79J20160701082511107/01/16 08:25:31  5-MIN K79J 011325Z AUTO VRB04KT 10SM FEW004 28/23 A3002 220 76 1800 VRB/04 RMK AO2 T02780233
53843K79J 79J20160701083011107/01/16 08:30:31  5-MIN K79J 011330Z AUTO 26004KT 10SM FEW004 28/23 A3002 220 76 1800 260/04 RMK AO2 T02780233
53843K79J 79J20160701083511107/01/16 08:35:31  5-MIN K79J 011335Z AUTO 00000KT 10SM FEW005 28/23 A3003 210 76 1800 000/00 RMK AO2 T02780233
53843K79J 79J20160701084011107/01/16 08:40:31  5-MIN K79J 011340Z AUTO 20003KT 10SM FEW005 28/23 A3003 210 74 1800 210/03 RMK AO2 T02830233
53843K79J 79J20160701084511107/01/16 08:45:31  5-MIN K79J 011345Z AUTO 29003KT 10SM FEW005 28/23 A3003 210 74 1800 290/03 RMK AO2 T02830233
53843K79J 79J20160701085011807/01/16 08:50:31  5-MIN K79J 011350Z AUTO 26003KT 10SM FEW008 29/23 A3003 210 71 1900 260/03 RMK AO2 SLP164 T02890233
53843K79J 79J20160701085511807/01/16 08:55:31  5-MIN K79J 011355Z AUTO 31003KT 10SM FEW010 29/23 A3003 210 71 1900 310/03 RMK AO2 SLP163 T02890233
53843K79J 79J20160701090011107/01/16 09:00:31  5-MIN K79J 011400Z AUTO VRB04KT 10SM FEW010 29/23 A3003 210 71 1900 VRB/04 RMK AO2 T02890233
53843K79J 79J20160701090511107/01/16 09:05:31  5-MIN K79J 011405Z AUTO 26004KT 10SM SCT012 29/23 A3003 210 69 1900 260/04 RMK AO2 T02890228
53843K79J 79J20160701091011807/01/16 09:10:31  5-MIN K79J 011410Z AUTO 00000KT 10SM SCT012 BKN030 29/23 A3003 210 69 1900 000/00 RMK AO2 T02890228
53843K79J 79J20160701091511807/01/16 09:15:31  5-MIN K79J 011415Z AUTO 00000KT 10SM BKN012 BKN030 29/23 A3003 210 69 2000 000/00 RMK AO2 T02940233
53843K79J 79J20160701092011807/01/16 09:20:31  5-MIN K79J 011420Z AUTO 28004KT 10SM BKN013 BKN030 30/23 A3003 210 65 2000 280/04 RMK AO2 T03000228
53843K79J 79J20160701092512507/01/16 09:25:31  5-MIN K79J 011425Z AUTO 32005KT 10SM SCT013 SCT023 BKN032 30/23 A3003 210 65 2000 320/05 RMK AO2 T03000228
53843K79J 79J20160701093012507/01/16 09:30:31  5-MIN K79J 011430Z AUTO 32007KT 10SM SCT013 SCT023 BKN032 29/23 A3004 210 67 2000 320/07 RMK AO2 T02940228
53843K79J 79J20160701093512507/01/16 09:35:31  5-MIN K79J 011435Z AUTO 30009KT 10SM SCT015 SCT023 BKN029 29/23 A3004 200 67 1900 300/09 RMK AO2 T02940228
53843K79J 79J20160701094012507/01/16 09:40:31  5-MIN K79J 011440Z AUTO 29009KT 10SM FEW015 SCT023 BKN029 29/23 A3004 200 67 1900 290/09 RMK AO2 T02940228
53843K79J 79J20160701094512507/01/16 09:45:31  5-MIN K79J 011445Z AUTO 31008KT 10SM FEW017 SCT029 BKN036 30/23 A3004 200 65 2000 310/08 RMK AO2 T03000228
53843K79J 79J20160701095013807/01/16 09:50:31  5-MIN K79J 011450Z AUTO 29006KT 10SM FEW017 SCT029 BKN042 31/23 A3004 200 62 2100 290/06 RMK AO2 SLP167 T03060228 52005
53843K79J 79J20160701095513807/01/16 09:55:31  5-MIN K79J 011455Z AUTO 29005KT 10SM FEW017 FEW029 SCT042 31/23 A3004 200 60 2100 290/05 RMK AO2 SLP167 T03110228 52005
53843K79J 79J20160701100012507/01/16 10:00:31  5-MIN K79J 011500Z AUTO 31009KT 10SM FEW020 FEW029 SCT042 31/23 A3004 200 60 2100 310/09 RMK AO2 T03110228
53843K79J 79J20160701100511807/01/16 10:05:31  5-MIN K79J 011505Z AUTO 34009KT 10SM FEW022 SCT042 32/23 A3004 200 58 2200 340/09 RMK AO2 T03170228
53843K79J 79J20160701101011807/01/16 10:10:31  5-MIN K79J 011510Z AUTO 32006KT 10SM FEW022 FEW042 32/23 A3004 200 58 2200 320/06 RMK AO2 T03170228
53843K79J 79J20160701101511807/01/16 10:15:31  5-MIN K79J 011515Z AUTO VRB05KT 10SM FEW021 FEW044 32/23 A3004 200 58 2200 VRB/05 RMK AO2 T03170228
53843K79J 79J20160701102012707/01/16 10:20:31  5-MIN K79J 011520Z AUTO 31007KT 280V350 10SM SCT021 32/23 A3005 200 57 2200 320/07 280V350 RMK AO2 T03220228
53843K79J 79J20160701102511107/01/16 10:25:31  5-MIN K79J 011525Z AUTO 34006KT 10SM FEW022 32/22 A3004 200 56 2200 340/06 RMK AO2 T03170222
53843K79J 79J20160701103011107/01/16 10:30:31  5-MIN K79J 011530Z AUTO 34007KT 10SM FEW022 32/22 A3004 200 56 2200 340/07 RMK AO2 T03170222
53843K79J 79J20160701103511107/01/16 10:35:31  5-MIN K79J 011535Z AUTO 33006KT 10SM FEW024 32/23 A3004 200 57 2200 330/06 RMK AO2 T03220228
53843K79J 79J20160701104011807/01/16 10:40:31  5-MIN K79J 011540Z AUTO 30007KT 10SM SCT024 BKN030 32/23 A3005 190 58 2200 310/07 RMK AO2 T03170228
53843K79J 79J20160701104512507/01/16 10:45:31  5-MIN K79J 011545Z AUTO 29008KT 10SM SCT024 SCT030 BKN042 31/23 A3005 190 60 2100 290/08 RMK AO2 T03110228
53843K79J 79J20160701105013207/01/16 10:50:31  5-MIN K79J 011550Z AUTO VRB04KT 10SM FEW024 SCT030 SCT042 32/23 A3005 200 58 2200 VRB/04 RMK AO2 SLP169 T03170228
53843K79J 79J20160701105512507/01/16 10:55:31  5-MIN K79J 011555Z AUTO 28006KT 10SM SCT026 BKN030 32/22 A3005 190 56 2200 280/06 RMK AO2 SLP170 T03170222
53843K79J 79J20160701110011107/01/16 11:00:31  5-MIN K79J 011600Z AUTO 33005KT 10SM BKN026 31/22 A3005 200 58 2100 330/05 RMK AO2 T03110222
53843K79J 79J20160701110511107/01/16 11:05:31  5-MIN K79J 011605Z AUTO 33006KT 10SM BKN026 32/22 A3005 200 55 2200 330/06 RMK AO2 T03220222
53843K79J 79J20160701111011807/01/16 11:10:31  5-MIN K79J 011610Z AUTO 32008KT 10SM SCT028 SCT085 33/22 A3005 200 53 2300 330/08 RMK AO2 T03280222
53843K79J 79J20160701111511807/01/16 11:15:31  5-MIN K79J 011615Z AUTO 36006KT 10SM SCT028 SCT085 33/22 A3005 200 53 2300 360/06 RMK AO2 T03280222
53843K79J 79J20160701112011107/01/16 11:20:31  5-MIN K79J 011620Z AUTO VRB04KT 10SM SCT027 33/23 A3004 200 53 2400 VRB/04 RMK AO2 T03330228
53843K79J 79J20160701112511107/01/16 11:25:31  5-MIN K79J 011625Z AUTO 34006KT 10SM FEW027 33/22 A3005 200 53 2300 340/06 RMK AO2 T03280222
53843K79J 79J20160701113010807/01/16 11:30:31  5-MIN K79J 011630Z AUTO 34008KT 10SM CLR 32/22 A3004 200 55 2200 340/08 RMK AO2 T03220222
53843K79J 79J20160701113510807/01/16 11:35:31  5-MIN K79J 011635Z AUTO 36007KT 10SM CLR 33/22 A3004 200 53 2300 360/07 RMK AO2 T03280222
53843K79J 79J20160701114010807/01/16 11:40:31  5-MIN K79J 011640Z AUTO 35005KT 10SM CLR 34/22 A3004 200 48 2400 360/05 RMK AO2 T03390217
53843K79J 79J20160701114511107/01/16 11:45:31  5-MIN K79J 011645Z AUTO 35006KT 10SM FEW030 34/22 A3004 200 50 2400 350/06 RMK AO2 T03390222
53843K79J 79J20160701115012507/01/16 11:50:31  5-MIN K79J 011650Z AUTO 33008KT 10SM FEW030 FEW040 34/22 A3004 200 50 2400 330/08 RMK AO2 SLP166 T03390222
53843K79J 79J20160701115512507/01/16 11:55:31  5-MIN K79J 011655Z AUTO 33006KT 10SM FEW030 FEW040 33/23 A3003 210 53 2400 330/06 RMK AO2 SLP165 T03330228
53843K79J 79J20160701120011107/01/16 12:00:31  5-MIN K79J 011700Z AUTO 31007KT 10SM FEW040 33/22 A3003 210 50 2400 310/07 RMK AO2 T03330217
53843K79J 79J20160701120511107/01/16 12:05:31  5-MIN K79J 011705Z AUTO 35005KT 10SM FEW040 34/22 A3003 210 48 2400 350/05 RMK AO2 T03390217
53843K79J 79J20160701121011107/01/16 12:10:31  5-MIN K79J 011710Z AUTO 35003KT 10SM FEW040 34/22 A3003 210 46 2500 360/03 RMK AO2 T03440217
53843K79J 79J20160701121511107/01/16 12:15:31  5-MIN K79J 011715Z AUTO 02006KT 10SM FEW035 35/22 A3002 220 47 2600 030/06 RMK AO2 T03500222
53843K79J 79J20160701122011107/01/16 12:20:31  5-MIN K79J 011720Z AUTO 02005KT 10SM FEW035 35/22 A3002 220 45 2600 020/05 RMK AO2 T03500217
53843K79J 79J20160701122511107/01/16 12:25:31  5-MIN K79J 011725Z AUTO 33009KT 10SM FEW035 34/21 A3002 220 45 2500 330/09 RMK AO2 T03440211
53843K79J 79J20160701123010807/01/16 12:30:31  5-MIN K79J 011730Z AUTO VRB05KT 10SM CLR 34/21 A3002 220 43 2500 VRB/05 RMK AO2 T03440206
53843K79J 79J20160701123511107/01/16 12:35:31  5-MIN K79J 011735Z AUTO 36007KT 10SM FEW037 34/21 A3002 220 45 2500 010/07 RMK AO2 T03440211
53843K79J 79J20160701124011107/01/16 12:40:31  5-MIN K79J 011740Z AUTO 36009KT 10SM FEW039 34/21 A3002 220 43 2500 360/09 RMK AO2 T03440206
53843K79J 79J20160701124511107/01/16 12:45:31  5-MIN K79J 011745Z AUTO 35008KT 10SM FEW039 35/21 A3001 230 42 2600 360/08 RMK AO2 T03500206
53843K79J 79J20160701125013607/01/16 12:50:31  5-MIN K79J 011750Z AUTO 02008KT 10SM FEW042 35/21 A3001 230 42 2600 020/08 RMK AO2 SLP157 T03500206 10350 20244 52011
53843K79J 79J20160701125513607/01/16 12:55:31  5-MIN K79J 011755Z AUTO 03004KT 10SM FEW042 35/21 A3000 240 43 2600 030/04 RMK AO2 SLP155 T03500211 10350 20244 52011
53843K79J 79J20160701130011107/01/16 13:00:31  5-MIN K79J 011800Z AUTO 33007KT 10SM FEW042 35/21 A3000 240 43 2600 330/07 RMK AO2 T03500211
53843K79J 79J20160701230010807/01/16 23:00:31  5-MIN K79J 020400Z AUTO 17004KT 10SM CLR 26/22 A3003 210 76 1600 170/04 RMK AO2 T02610217
53843K79J 79J20160701230510807/01/16 23:05:31  5-MIN K79J 020405Z AUTO 00000KT 10SM CLR 26/22 A3003 210 76 1600 000/00 RMK AO2 T02610217
53843K79J 79J20160701231010807/01/16 23:10:31  5-MIN K79J 020410Z AUTO 00000KT 10SM CLR 26/22 A3003 210 76 1600 000/00 RMK AO2 T02610217
53843K79J 79J20160701231510807/01/16 23:15:31  5-MIN K79J 020415Z AUTO 18003KT 10SM CLR 26/22 A3003 210 76 1600 180/03 RMK AO2 T02610217
53843K79J 79J20160701232010807/01/16 23:20:31  5-MIN K79J 020420Z AUTO 21003KT 10SM CLR 26/22 A3002 220 79 1600 210/03 RMK AO2 T02610222
53843K79J 79J20160701232510807/01/16 23:25:31  5-MIN K79J 020425Z AUTO 00000KT 10SM CLR 26/22 A3003 220 79 1600 000/00 RMK AO2 T02610222
53843K79J 79J20160701233010807/01/16 23:30:31  5-MIN K79J 020430Z AUTO 17003KT 10SM CLR 26/22 A3003 210 79 1600 180/03 RMK AO2 T02610222
53843K79J 79J20160701233510807/01/16 23:35:31  5-MIN K79J 020435Z AUTO 19003KT 10SM CLR 26/22 A3003 210 79 1600 190/03 RMK AO2 T02610222
53843K79J 79J20160701234010807/01/16 23:40:31  5-MIN K79J 020440Z AUTO 20003KT 10SM CLR 26/22 A3003 210 79 1600 200/03 RMK AO2 T02610222
53843K79J 79J20160701234510807/01/16 23:45:31  5-MIN K79J 020445Z AUTO 00000KT 10SM CLR 26/22 A3003 210 79 1600 000/00 RMK AO2 T02610222
53843K79J 79J20160701235004907/01/16 23:50:31  5-MIN K79J 020450Z AUTO RVRNO 
53843K79J 79J20160701235510107/01/16 23:55:31  5-MIN K79J 020455Z AUTO 00000KT 26/22 A3003 210 79 1600 000/00 RMK AO2 T02610222 $
53843K79J 79J20160702000010607/02/16 00:00:31  5-MIN K79J 020500Z AUTO 00000KT 10SM 25/22 A3003 210 81 1500 000/00 RMK AO2 T02500217 $
53843K79J 79J20160702000510607/02/16 00:05:31  5-MIN K79J 020505Z AUTO 00000KT 10SM 25/22 A3003 210 81 1500 000/00 RMK AO2 T02500217 $
53843K79J 79J20160702001010607/02/16 00:10:31  5-MIN K79J 020510Z AUTO 00000KT 10SM 25/22 A3003 210 81 1500 000/00 RMK AO2 T02500217 $
53843K79J 79J20160702001510607/02/16 00:15:31  5-MIN K79J 020515Z AUTO 00000KT 10SM 25/22 A3003 210 81 1500 000/00 RMK AO2 T02500217 $
53843K79J 79J20160702002010607/02/16 00:20:31  5-MIN K79J 020520Z AUTO 00000KT 10SM 25/22 A3003 210 81 1500 000/00 RMK AO2 T02500217 $
53843K79J 79J20160702002511007/02/16 00:25:31  5-MIN K79J 020525Z AUTO 00000KT 10SM CLR 26/22 A3003 210 81 1500 000/00 RMK AO2 T02560222 $
53843K79J 79J20160702003011007/02/16 00:30:31  5-MIN K79J 020530Z AUTO 00000KT 10SM CLR 26/22 A3003 210 81 1500 000/00 RMK AO2 T02560222 $
53843K79J 79J20160702003511007/02/16 00:35:31  5-MIN K79J 020535Z AUTO 00000KT 10SM CLR 26/22 A3003 220 81 1500 000/00 RMK AO2 T02560222 $
53843K79J 79J20160702004011007/02/16 00:40:31  5-MIN K79J 020540Z AUTO 23003KT 10SM CLR 26/23 A3002 220 84 1500 240/03 RMK AO2 T02560228 $
53843K79J 79J20160702004511007/02/16 00:45:31  5-MIN K79J 020545Z AUTO 24003KT 10SM CLR 26/23 A3002 220 81 1600 240/03 RMK AO2 T02610228 $
53843K79J 79J20160702005012907/02/16 00:50:31  5-MIN K79J 020550Z AUTO 00000KT 10SM CLR 26/23 A3002 220 81 1600 000/00 RMK AO2 SLP160 T02610228 10356 20250 $
53843K79J 79J20160702005512907/02/16 00:55:31  5-MIN K79J 020555Z AUTO 00000KT 10SM CLR 26/23 A3002 220 84 1500 000/00 RMK AO2 SLP160 T02560228 10356 20250 $
53843K79J 79J20160702010011007/02/16 01:00:31  5-MIN K79J 020600Z AUTO 00000KT 10SM CLR 26/23 A3002 220 81 1600 000/00 RMK AO2 T02610228 $
53843K79J 79J20160702010511007/02/16 01:05:31  5-MIN K79J 020605Z AUTO 00000KT 10SM CLR 26/23 A3002 220 81 1600 000/00 RMK AO2 T02610228 $
53843K79J 79J20160702011011007/02/16 01:10:31  5-MIN K79J 020610Z AUTO 00000KT 10SM CLR 26/23 A3002 220 81 1600 000/00 RMK AO2 T02610228 $
53843K79J 79J20160702011511007/02/16 01:15:31  5-MIN K79J 020615Z AUTO 00000KT 10SM CLR 26/23 A3002 220 81 1600 000/00 RMK AO2 T02610228 $
53843K79J 79J20160702012011007/02/16 01:20:31  5-MIN K79J 020620Z AUTO 24003KT 10SM CLR 26/23 A3002 220 81 1600 240/03 RMK AO2 T02610228 $
53843K79J 79J20160702012511007/02/16 01:25:31  5-MIN K79J 020625Z AUTO 24003KT 10SM CLR 26/23 A3002 220 81 1600 240/03 RMK AO2 T02610228 $
53843K79J 79J20160702013011007/02/16 01:30:31  5-MIN K79J 020630Z AUTO 24003KT 10SM CLR 26/23 A3001 230 81 1600 240/03 RMK AO2 T02610228 $
53843K79J 79J20160702013511007/02/16 01:35:31  5-MIN K79J 020635Z AUTO 25003KT 10SM CLR 26/23 A3001 230 81 1600 250/03 RMK AO2 T02610228 $
53843K79J 79J20160702014011007/02/16 01:40:31  5-MIN K79J 020640Z AUTO 25003KT 10SM CLR 26/23 A3001 230 81 1600 250/03 RMK AO2 T02610228 $
53843K79J 79J20160702014511007/02/16 01:45:31  5-MIN K79J 020645Z AUTO 27003KT 10SM CLR 26/23 A3001 230 81 1600 270/03 RMK AO2 T02610228 $
53843K79J 79J20160702015011707/02/16 01:50:31  5-MIN K79J 020650Z AUTO 27003KT 10SM CLR 26/22 A3001 230 81 1500 270/03 RMK AO2 SLP156 T02560222 $
53843K79J 79J20160702015511707/02/16 01:55:31  5-MIN K79J 020655Z AUTO 27003KT 10SM CLR 26/22 A3001 230 81 1500 270/03 RMK AO2 SLP155 T02560222 $
53843K79J 79J20160702020011007/02/16 02:00:31  5-MIN K79J 020700Z AUTO 27003KT 10SM CLR 25/22 A3001 230 81 1500 280/03 RMK AO2 T02500217 $
53843K79J 79J20160702020511007/02/16 02:05:31  5-MIN K79J 020705Z AUTO 00000KT 10SM CLR 25/22 A3001 230 84 1500 000/00 RMK AO2 T02500222 $
53843K79J 79J20160702021011007/02/16 02:10:31  5-MIN K79J 020710Z AUTO 26003KT 10SM CLR 26/22 A3000 230 81 1500 270/03 RMK AO2 T02560222 $
53843K79J 79J20160702021511007/02/16 02:15:31  5-MIN K79J 020715Z AUTO 26003KT 10SM CLR 25/22 A3000 230 84 1500 260/03 RMK AO2 T02500222 $
53843K79J 79J20160702022011007/02/16 02:20:31  5-MIN K79J 020720Z AUTO 00000KT 10SM CLR 25/22 A3000 240 84 1500 000/00 RMK AO2 T02500222 $
53843K79J 79J20160702022511007/02/16 02:25:31  5-MIN K79J 020725Z AUTO 00000KT 10SM CLR 25/22 A3000 240 84 1500 000/00 RMK AO2 T02500222 $
53843K79J 79J20160702023011007/02/16 02:30:31  5-MIN K79J 020730Z AUTO 00000KT 10SM CLR 25/22 A3000 240 84 1500 000/00 RMK AO2 T02500222 $
53843K79J 79J20160702023511007/02/16 02:35:31  5-MIN K79J 020735Z AUTO 00000KT 10SM CLR 26/22 A3000 240 81 1600 000/00 RMK AO2 T02560222 $
53843K79J 79J20160702024011007/02/16 02:40:31  5-MIN K79J 020740Z AUTO 00000KT 10SM CLR 26/22 A3000 240 81 1600 000/00 RMK AO2 T02560222 $
53843K79J 79J20160702024511007/02/16 02:45:31  5-MIN K79J 020745Z AUTO 00000KT 10SM CLR 25/22 A3000 240 84 1500 000/00 RMK AO2 T02500222 $
53843K79J 79J20160702025011707/02/16 02:50:31  5-MIN K79J 020750Z AUTO 00000KT 10SM CLR 25/22 A3000 240 84 1500 000/00 RMK AO2 SLP152 T02500222 $
53843K79J 79J20160702025511707/02/16 02:55:31  5-MIN K79J 020755Z AUTO 00000KT 10SM CLR 26/22 A3000 240 81 1600 000/00 RMK AO2 SLP152 T02560222 $
53843K79J 79J20160702030011007/02/16 03:00:31  5-MIN K79J 020800Z AUTO 00000KT 10SM CLR 25/22 A3000 240 84 1500 000/00 RMK AO2 T02500222 $
53843K79J 79J20160702030511007/02/16 03:05:31  5-MIN K79J 020805Z AUTO 00000KT 10SM CLR 25/22 A3000 240 84 1500 000/00 RMK AO2 T02500222 $
53843K79J 79J20160702031011007/02/16 03:10:31  5-MIN K79J 020810Z AUTO 00000KT 10SM CLR 26/22 A3000 240 81 1600 000/00 RMK AO2 T02560222 $
53843K79J 79J20160702031511007/02/16 03:15:31  5-MIN K79J 020815Z AUTO 00000KT 10SM CLR 25/22 A3000 240 84 1500 000/00 RMK AO2 T02500222 $
53843K79J 79J20160702032011007/02/16 03:20:31  5-MIN K79J 020820Z AUTO 00000KT 10SM CLR 25/22 A3000 240 84 1500 000/00 RMK AO2 T02500222 $
53843K79J 79J20160702032511007/02/16 03:25:31  5-MIN K79J 020825Z AUTO 00000KT 10SM CLR 25/22 A3000 240 84 1500 000/00 RMK AO2 T02500222 $
53843K79J 79J20160702033011007/02/16 03:30:31  5-MIN K79J 020830Z AUTO 00000KT 10SM CLR 25/22 A3000 240 84 1500 000/00 RMK AO2 T02500222 $
53843K79J 79J20160702033511007/02/16 03:35:31  5-MIN K79J 020835Z AUTO 00000KT 10SM CLR 25/22 A3000 240 81 1500 000/00 RMK AO2 T02500217 $
53843K79J 79J20160702034011007/02/16 03:40:31  5-MIN K79J 020840Z AUTO 00000KT 10SM CLR 25/22 A3000 240 84 1500 000/00 RMK AO2 T02500222 $
53843K79J 79J20160702034511007/02/16 03:45:31  5-MIN K79J 020845Z AUTO 00000KT 10SM CLR 25/22 A3000 230 81 1500 000/00 RMK AO2 T02500217 $
53843K79J 79J20160702035011707/02/16 03:50:31  5-MIN K79J 020850Z AUTO 00000KT 10SM CLR 25/22 A3000 230 81 1500 000/00 RMK AO2 SLP154 T02500217 $
53843K79J 79J20160702035511707/02/16 03:55:31  5-MIN K79J 020855Z AUTO 00000KT 10SM CLR 24/22 A3001 230 84 1400 000/00 RMK AO2 SLP154 T02440217 $
53843K79J 79J20160702040011007/02/16 04:00:31  5-MIN K79J 020900Z AUTO 00000KT 10SM CLR 24/22 A3000 230 87 1400 000/00 RMK AO2 T02440222 $
53843K79J 79J20160702040511007/02/16 04:05:31  5-MIN K79J 020905Z AUTO 00000KT 10SM CLR 24/22 A3001 230 87 1400 000/00 RMK AO2 T02440222 $
53843K79J 79J20160702041011007/02/16 04:10:31  5-MIN K79J 020910Z AUTO 00000KT 10SM CLR 24/22 A3001 230 87 1400 000/00 RMK AO2 T02440222 $
53843K79J 79J20160702041511007/02/16 04:15:31  5-MIN K79J 020915Z AUTO 00000KT 10SM CLR 24/22 A3001 230 84 1400 000/00 RMK AO2 T02440217 $
53843K79J 79J20160702042011007/02/16 04:20:31  5-MIN K79J 020920Z AUTO 00000KT 10SM CLR 24/22 A3001 230 84 1400 000/00 RMK AO2 T02440217 $
53843K79J 79J20160702042511007/02/16 04:25:31  5-MIN K79J 020925Z AUTO 00000KT 10SM CLR 24/22 A3001 230 84 1400 000/00 RMK AO2 T02440217 $
53843K79J 79J20160702043011007/02/16 04:30:31  5-MIN K79J 020930Z AUTO 00000KT 10SM CLR 24/22 A3001 230 84 1400 000/00 RMK AO2 T02440217 $
53843K79J 79J20160702043511007/02/16 04:35:31  5-MIN K79J 020935Z AUTO 00000KT 10SM CLR 24/22 A3001 230 84 1400 000/00 RMK AO2 T02440217 $
53843K79J 79J20160702044011007/02/16 04:40:31  5-MIN K79J 020940Z AUTO 00000KT 10SM CLR 24/22 A3001 230 84 1400 000/00 RMK AO2 T02440217 $
53843K79J 79J20160702044511007/02/16 04:45:31  5-MIN K79J 020945Z AUTO 00000KT 10SM CLR 24/22 A3001 230 84 1400 000/00 RMK AO2 T02440217 $
53843K79J 79J20160702045011707/02/16 04:50:31  5-MIN K79J 020950Z AUTO 00000KT 10SM CLR 24/22 A3002 220 84 1400 000/00 RMK AO2 SLP158 T02440217 $
53843K79J 79J20160702045511607/02/16 04:55:31  5-MIN K79J 020955Z AUTO 00000KT 9SM CLR 24/22 A3002 220 84 1400 000/00 RMK AO2 SLP159 T02440217 $
53843K79J 79J20160702050010907/02/16 05:00:31  5-MIN K79J 021000Z AUTO 00000KT 9SM CLR 24/22 A3002 220 87 1300 000/00 RMK AO2 T02390217 $
53843K79J 79J20160702050511007/02/16 05:05:31  5-MIN K79J 021005Z AUTO 00000KT 10SM CLR 24/22 A3002 220 87 1300 000/00 RMK AO2 T02390217 $
53843K79J 79J20160702051010907/02/16 05:10:31  5-MIN K79J 021010Z AUTO 00000KT 8SM CLR 24/22 A3002 220 87 1300 000/00 RMK AO2 T02390217 $
53843K79J 79J20160702051511207/02/16 05:15:31  5-MIN K79J 021015Z AUTO 00000KT 6SM BR CLR 24/22 A3002 220 87 1300 000/00 RMK AO2 T02390217 $
53843K79J 79J20160702052011207/02/16 05:20:31  5-MIN K79J 021020Z AUTO 00000KT 6SM BR CLR 24/22 A3003 210 87 1300 000/00 RMK AO2 T02390217 $
53843K79J 79J20160702052510907/02/16 05:25:31  5-MIN K79J 021025Z AUTO 00000KT 8SM CLR 24/21 A3003 210 84 1300 000/00 RMK AO2 T02390211 $
53843K79J 79J20160702053011007/02/16 05:30:31  5-MIN K79J 021030Z AUTO 00000KT 10SM CLR 24/21 A3003 210 84 1300 000/00 RMK AO2 T02390211 $
53843K79J 79J20160702053511007/02/16 05:35:31  5-MIN K79J 021035Z AUTO 00000KT 10SM CLR 24/21 A3003 210 84 1300 000/00 RMK AO2 T02390211 $
53843K79J 79J20160702054010907/02/16 05:40:31  5-MIN K79J 021040Z AUTO 00000KT 9SM CLR 24/21 A3004 210 84 1300 000/00 RMK AO2 T02390211 $
53843K79J 79J20160702054510907/02/16 05:45:31  5-MIN K79J 021045Z AUTO 00000KT 9SM CLR 24/21 A3004 210 84 1300 000/00 RMK AO2 T02390211 $
53843K79J 79J20160702055011607/02/16 05:50:31  5-MIN K79J 021050Z AUTO 00000KT 9SM CLR 24/21 A3004 200 84 1300 000/00 RMK AO2 SLP166 T02390211 $
53843K79J 79J20160702055511607/02/16 05:55:31  5-MIN K79J 021055Z AUTO 00000KT 9SM CLR 24/21 A3004 210 84 1300 000/00 RMK AO2 SLP166 T02390211 $
53843K79J 79J20160702060011007/02/16 06:00:31  5-MIN K79J 021100Z AUTO 00000KT 10SM CLR 24/21 A3004 210 84 1300 000/00 RMK AO2 T02390211 $
53843K79J 79J20160702060511007/02/16 06:05:31  5-MIN K79J 021105Z AUTO 00000KT 10SM CLR 24/21 A3004 200 84 1300 000/00 RMK AO2 T02390211 $
53843K79J 79J20160702061011007/02/16 06:10:31  5-MIN K79J 021110Z AUTO 00000KT 10SM CLR 24/21 A3004 200 84 1300 000/00 RMK AO2 T02390211 $
53843K79J 79J20160702061511007/02/16 06:15:31  5-MIN K79J 021115Z AUTO 00000KT 10SM CLR 24/21 A3004 200 81 1300 000/00 RMK AO2 T02390206 $
53843K79J 79J20160702062011007/02/16 06:20:31  5-MIN K79J 021120Z AUTO 00000KT 10SM CLR 24/21 A3004 200 84 1300 000/00 RMK AO2 T02390211 $
53843K79J 79J20160702062511007/02/16 06:25:31  5-MIN K79J 021125Z AUTO 00000KT 10SM CLR 24/21 A3004 200 81 1400 000/00 RMK AO2 T02440211 $
53843K79J 79J20160702063011007/02/16 06:30:31  5-MIN K79J 021130Z AUTO 00000KT 10SM CLR 24/22 A3004 200 84 1400 000/00 RMK AO2 T02440217 $
53843K79J 79J20160702063511007/02/16 06:35:31  5-MIN K79J 021135Z AUTO 00000KT 10SM CLR 25/21 A3004 200 79 1400 000/00 RMK AO2 T02500211 $
53843K79J 79J20160702064011007/02/16 06:40:31  5-MIN K79J 021140Z AUTO 00000KT 10SM CLR 25/21 A3004 200 79 1400 000/00 RMK AO2 T02500211 $
53843K79J 79J20160702064511007/02/16 06:45:31  5-MIN K79J 021145Z AUTO 00000KT 10SM CLR 25/22 A3004 200 81 1400 000/00 RMK AO2 T02500217 $
53843K79J 79J20160702065013507/02/16 06:50:31  5-MIN K79J 021150Z AUTO 00000KT 10SM CLR 26/22 A3004 200 79 1500 000/00 RMK AO2 SLP168 T02560217 10261 20239 55005 $
53843K79J 79J20160702065513507/02/16 06:55:31  5-MIN K79J 021155Z AUTO 00000KT 10SM CLR 26/22 A3004 200 81 1500 000/00 RMK AO2 SLP168 T02560222 10261 20239 55005 $
53843K79J 79J20160702070011007/02/16 07:00:31  5-MIN K79J 021200Z AUTO 00000KT 10SM CLR 26/22 A3005 200 79 1600 000/00 RMK AO2 T02610222 $
53843K79J 79J20160702070511007/02/16 07:05:31  5-MIN K79J 021205Z AUTO 00000KT 10SM CLR 26/22 A3005 200 79 1600 000/00 RMK AO2 T02610222 $
53843K79J 79J20160702071011007/02/16 07:10:31  5-MIN K79J 021210Z AUTO 00000KT 10SM CLR 26/23 A3005 190 81 1600 000/00 RMK AO2 T02610228 $
53843K79J 79J20160702071511007/02/16 07:15:31  5-MIN K79J 021215Z AUTO 00000KT 10SM CLR 26/23 A3005 190 81 1600 000/00 RMK AO2 T02610228 $
53843K79J 79J20160702072011007/02/16 07:20:31  5-MIN K79J 021220Z AUTO 00000KT 10SM CLR 27/23 A3005 190 82 1600 000/00 RMK AO2 T02670233 $
53843K79J 79J20160702072511007/02/16 07:25:31  5-MIN K79J 021225Z AUTO 00000KT 10SM CLR 27/23 A3005 190 82 1600 000/00 RMK AO2 T02670233 $
53843K79J 79J20160702073011007/02/16 07:30:31  5-MIN K79J 021230Z AUTO 00000KT 10SM CLR 27/23 A3006 190 82 1600 000/00 RMK AO2 T02670233 $
53843K79J 79J20160702073511007/02/16 07:35:31  5-MIN K79J 021235Z AUTO 00000KT 10SM CLR 27/23 A3006 190 79 1700 000/00 RMK AO2 T02720233 $
53843K79J 79J20160702074011007/02/16 07:40:31  5-MIN K79J 021240Z AUTO 00000KT 10SM CLR 27/23 A3006 180 79 1700 000/00 RMK AO2 T02720233 $
53843K79J 79J20160702074511007/02/16 07:45:31  5-MIN K79J 021245Z AUTO 31003KT 10SM CLR 28/23 A3006 190 76 1700 310/03 RMK AO2 T02780233 $
53843K79J 79J20160702075011707/02/16 07:50:31  5-MIN K79J 021250Z AUTO 31003KT 10SM CLR 28/23 A3006 180 71 1800 310/03 RMK AO2 SLP174 T02830228 $
53843K79J 79J20160702075511707/02/16 07:55:31  5-MIN K79J 021255Z AUTO 31004KT 10SM CLR 28/23 A3006 180 71 1800 310/04 RMK AO2 SLP174 T02830228 $
53843K79J 79J20160702080011007/02/16 08:00:31  5-MIN K79J 021300Z AUTO 31004KT 10SM CLR 29/22 A3006 180 67 1900 320/04 RMK AO2 T02890222 $
53843K79J 79J20160702080511007/02/16 08:05:31  5-MIN K79J 021305Z AUTO 31005KT 10SM CLR 29/22 A3006 180 67 1900 310/05 RMK AO2 T02890222 $
53843K79J 79J20160702081011007/02/16 08:10:31  5-MIN K79J 021310Z AUTO 31005KT 10SM CLR 29/22 A3006 180 67 1900 310/05 RMK AO2 T02890222 $
53843K79J 79J20160702081511007/02/16 08:15:31  5-MIN K79J 021315Z AUTO 30004KT 10SM CLR 29/22 A3006 180 67 1900 300/04 RMK AO2 T02890222 $
53843K79J 79J20160702082011007/02/16 08:20:31  5-MIN K79J 021320Z AUTO 30004KT 10SM CLR 29/22 A3006 180 64 1900 310/04 RMK AO2 T02940222 $
53843K79J 79J20160702082511007/02/16 08:25:31  5-MIN K79J 021325Z AUTO 31004KT 10SM CLR 30/22 A3006 180 62 2000 310/04 RMK AO2 T03000222 $
53843K79J 79J20160702083011007/02/16 08:30:31  5-MIN K79J 021330Z AUTO 31003KT 10SM CLR 30/22 A3006 180 62 2000 310/03 RMK AO2 T03000222 $
53843K79J 79J20160702083511007/02/16 08:35:31  5-MIN K79J 021335Z AUTO 30003KT 10SM CLR 31/22 A3007 180 60 2000 300/03 RMK AO2 T03060222 $
53843K79J 79J20160702084011007/02/16 08:40:31  5-MIN K79J 021340Z AUTO 31004KT 10SM CLR 31/22 A3007 170 56 2100 320/04 RMK AO2 T03110217 $
53843K79J 79J20160702084511007/02/16 08:45:31  5-MIN K79J 021345Z AUTO 31004KT 10SM CLR 31/22 A3007 170 56 2100 310/04 RMK AO2 T03110217 $
53843K79J 79J20160702085011707/02/16 08:50:31  5-MIN K79J 021350Z AUTO 30004KT 10SM CLR 32/22 A3007 170 55 2200 300/04 RMK AO2 SLP178 T03170217 $
53843K79J 79J20160702085511707/02/16 08:55:31  5-MIN K79J 021355Z AUTO VRB03KT 10SM CLR 32/22 A3007 170 55 2200 VRB/03 RMK AO2 SLP177 T03170217 $
53843K79J 79J20160702090011007/02/16 09:00:31  5-MIN K79J 021400Z AUTO VRB04KT 10SM CLR 32/22 A3007 170 55 2200 VRB/04 RMK AO2 T03170217 $
53843K79J 79J20160702090511007/02/16 09:05:31  5-MIN K79J 021405Z AUTO 32004KT 10SM CLR 32/22 A3007 170 53 2200 320/04 RMK AO2 T03220217 $
53843K79J 79J20160702091011007/02/16 09:10:31  5-MIN K79J 021410Z AUTO 31005KT 10SM CLR 32/21 A3007 170 51 2200 320/05 RMK AO2 T03220211 $
53843K79J 79J20160702091511007/02/16 09:15:31  5-MIN K79J 021415Z AUTO 32004KT 10SM CLR 33/21 A3007 170 49 2300 320/04 RMK AO2 T03280211 $
53843K79J 79J20160702092011007/02/16 09:20:31  5-MIN K79J 021420Z AUTO 33005KT 10SM CLR 33/21 A3007 170 49 2300 330/05 RMK AO2 T03280211 $
53843K79J 79J20160702092511007/02/16 09:25:31  5-MIN K79J 021425Z AUTO 33006KT 10SM CLR 33/22 A3007 170 51 2300 340/06 RMK AO2 T03280217 $
53843K79J 79J20160702093011007/02/16 09:30:31  5-MIN K79J 021430Z AUTO 31006KT 10SM CLR 33/21 A3007 170 48 2300 310/06 RMK AO2 T03330211 $
53843K79J 79J20160702093511007/02/16 09:35:31  5-MIN K79J 021435Z AUTO 31004KT 10SM CLR 33/21 A3007 170 48 2300 310/04 RMK AO2 T03330211 $
53843K79J 79J20160702094011007/02/16 09:40:31  5-MIN K79J 021440Z AUTO 30003KT 10SM CLR 33/21 A3007 170 46 2300 310/03 RMK AO2 T03330206 $
53843K79J 79J20160702094511007/02/16 09:45:31  5-MIN K79J 021445Z AUTO 30005KT 10SM CLR 34/21 A3007 170 45 2400 310/05 RMK AO2 T03390206 $
53843K79J 79J20160702095012307/02/16 09:50:31  5-MIN K79J 021450Z AUTO VRB05KT 10SM CLR 34/20 A3007 170 43 2400 VRB/05 RMK AO2 SLP177 T03390200 51013 $
53843K79J 79J20160702095512307/02/16 09:55:31  5-MIN K79J 021455Z AUTO 00000KT 10SM CLR 34/20 A3007 170 43 2400 000/00 RMK AO2 SLP178 T03390200 51013 $
53843K79J 79J20160702100011007/02/16 10:00:31  5-MIN K79J 021500Z AUTO VRB04KT 10SM CLR 34/20 A3007 170 42 2500 VRB/04 RMK AO2 T03440200 $
53843K79J 79J20160702100511007/02/16 10:05:31  5-MIN K79J 021505Z AUTO 31004KT 10SM CLR 34/20 A3007 170 42 2500 310/04 RMK AO2 T03440200 $
53843K79J 79J20160702101011007/02/16 10:10:31  5-MIN K79J 021510Z AUTO 00000KT 10SM CLR 34/19 A3007 180 40 2500 000/00 RMK AO2 T03440194 $
53843K79J 79J20160702101511007/02/16 10:15:31  5-MIN K79J 021515Z AUTO VRB04KT 10SM CLR 36/19 A3007 180 38 2600 VRB/04 RMK AO2 T03560194 $
53843K79J 79J20160702102011007/02/16 10:20:31  5-MIN K79J 021520Z AUTO VRB04KT 10SM CLR 35/19 A3007 180 38 2500 VRB/04 RMK AO2 T03500189 $
53843K79J 79J20160702102510907/02/16 10:25:31  5-MIN K79J 021525Z AUTO 00000KT 9SM CLR 35/19 A3007 180 39 2500 000/00 RMK AO2 T03500194 $
53843K79J 79J20160702103010907/02/16 10:30:31  5-MIN K79J 021530Z AUTO 25005KT 9SM CLR 35/19 A3007 180 39 2500 250/05 RMK AO2 T03500194 $
53843K79J 79J20160702103510907/02/16 10:35:31  5-MIN K79J 021535Z AUTO 21005KT 8SM CLR 35/19 A3007 180 38 2500 210/05 RMK AO2 T03500189 $
53843K79J 79J20160702104010907/02/16 10:40:31  5-MIN K79J 021540Z AUTO 00000KT 7SM CLR 35/19 A3007 180 38 2500 000/00 RMK AO2 T03500189 $
53843K79J 79J20160702104510907/02/16 10:45:31  5-MIN K79J 021545Z AUTO 17004KT 8SM CLR 36/18 A3006 180 35 2600 180/04 RMK AO2 T03560183 $
53843K79J 79J20160702105011707/02/16 10:50:31  5-MIN K79J 021550Z AUTO 27004KT 10SM CLR 36/19 A3006 180 37 2600 270/04 RMK AO2 SLP173 T03560189 $
53843K79J 79J20160702105511707/02/16 10:55:31  5-MIN K79J 021555Z AUTO 00000KT 10SM CLR 36/19 A3006 180 37 2600 000/00 RMK AO2 SLP173 T03560189 $
53843K79J 79J20160702110011007/02/16 11:00:31  5-MIN K79J 021600Z AUTO 26004KT 10SM CLR 36/19 A3006 180 35 2700 260/04 RMK AO2 T03610189 $
53843K79J 79J20160702110511007/02/16 11:05:31  5-MIN K79J 021605Z AUTO VRB04KT 10SM CLR 36/18 A3006 180 35 2600 VRB/04 RMK AO2 T03560183 $
53843K79J 79J20160702111011007/02/16 11:10:31  5-MIN K79J 021610Z AUTO 00000KT 10SM CLR 36/18 A3006 180 35 2600 000/00 RMK AO2 T03560183 $
53843K79J 79J20160702111511007/02/16 11:15:31  5-MIN K79J 021615Z AUTO 00000KT 10SM CLR 36/18 A3006 180 35 2600 000/00 RMK AO2 T03560183 $
53843K79J 79J20160702112010807/02/16 11:20:31  5-MIN K79J 021620Z AUTO 33004KT 10SM CLR 36/19 A3006 180 35 2700 330/04 RMK AO2 T03610189
53843K79J 79J20160702112510807/02/16 11:25:31  5-MIN K79J 021625Z AUTO 27005KT 10SM CLR 36/19 A3006 180 35 2700 270/05 RMK AO2 T03610189
53843K79J 79J20160702113010807/02/16 11:30:31  5-MIN K79J 021630Z AUTO 00000KT 10SM CLR 36/18 A3006 190 34 2700 000/00 RMK AO2 T03610183
53843K79J 79J20160702113510807/02/16 11:35:31  5-MIN K79J 021635Z AUTO 00000KT 10SM CLR 37/18 A3006 190 33 2700 000/00 RMK AO2 T03670183
53843K79J 79J20160702114010807/02/16 11:40:31  5-MIN K79J 021640Z AUTO 03004KT 10SM CLR 37/18 A3006 180 32 2700 030/04 RMK AO2 T03670178
53843K79J 79J20160702114510807/02/16 11:45:31  5-MIN K79J 021645Z AUTO 00000KT 10SM CLR 37/18 A3006 180 31 2800 000/00 RMK AO2 T03720178
53843K79J 79J20160702115011507/02/16 11:50:31  5-MIN K79J 021650Z AUTO 04005KT 10SM CLR 37/18 A3006 180 31 2800 040/05 RMK AO2 SLP173 T03720178
53843K79J 79J20160702115511507/02/16 11:55:31  5-MIN K79J 021655Z AUTO 06005KT 10SM CLR 37/18 A3006 180 31 2800 060/05 RMK AO2 SLP173 T03720178
53843K79J 79J20160702120010807/02/16 12:00:31  5-MIN K79J 021700Z AUTO VRB03KT 10SM CLR 37/18 A3006 180 31 2800 VRB/03 RMK AO2 T03720178
53843K79J 79J20160702120510807/02/16 12:05:31  5-MIN K79J 021705Z AUTO 34006KT 10SM CLR 37/18 A3006 180 31 2800 340/06 RMK AO2 T03720178
53843K79J 79J20160702121010807/02/16 12:10:31  5-MIN K79J 021710Z AUTO 33004KT 10SM CLR 37/18 A3006 180 31 2800 340/04 RMK AO2 T03720178
53843K79J 79J20160702121510807/02/16 12:15:31  5-MIN K79J 021715Z AUTO 34003KT 10SM CLR 37/17 A3006 180 30 2800 350/03 RMK AO2 T03720172
53843K79J 79J20160702122010807/02/16 12:20:31  5-MIN K79J 021720Z AUTO VRB03KT 10SM CLR 37/18 A3006 180 31 2800 VRB/03 RMK AO2 T03720178
53843K79J 79J20160702122510807/02/16 12:25:31  5-MIN K79J 021725Z AUTO 00000KT 10SM CLR 37/18 A3006 190 32 2700 000/00 RMK AO2 T03670178
53843K79J 79J20160702123010807/02/16 12:30:31  5-MIN K79J 021730Z AUTO 01006KT 10SM CLR 38/17 A3006 190 29 2800 020/06 RMK AO2 T03780172
53843K79J 79J20160702123510807/02/16 12:35:31  5-MIN K79J 021735Z AUTO 02007KT 10SM CLR 38/17 A3006 190 29 2800 030/07 RMK AO2 T03780172
53843K79J 79J20160702124010807/02/16 12:40:31  5-MIN K79J 021740Z AUTO 03005KT 10SM CLR 37/17 A3005 190 29 2800 030/05 RMK AO2 T03720167
53843K79J 79J20160702124510807/02/16 12:45:31  5-MIN K79J 021745Z AUTO 01004KT 10SM CLR 38/17 A3006 190 28 2800 010/04 RMK AO2 T03780167
53843K79J 79J20160702125013307/02/16 12:50:31  5-MIN K79J 021750Z AUTO 05004KT 10SM CLR 38/17 A3005 190 28 2800 050/04 RMK AO2 SLP171 T03780167 10378 20256 51009
53843K79J 79J20160702125513307/02/16 12:55:31  5-MIN K79J 021755Z AUTO VRB03KT 10SM CLR 38/17 A3005 190 28 2800 VRB/03 RMK AO2 SLP171 T03780167 10378 20256 51009
53843K79J 79J20160702130010807/02/16 13:00:31  5-MIN K79J 021800Z AUTO 11003KT 10SM CLR 38/17 A3006 190 28 2800 120/03 RMK AO2 T03780167
53843K79J 79J20160702130510807/02/16 13:05:31  5-MIN K79J 021805Z AUTO VRB04KT 10SM CLR 38/17 A3005 190 29 2800 VRB/04 RMK AO2 T03780172
53843K79J 79J20160702131010807/02/16 13:10:31  5-MIN K79J 021810Z AUTO VRB04KT 10SM CLR 38/18 A3005 190 30 2800 VRB/04 RMK AO2 T03780178
53843K79J 79J20160702131510807/02/16 13:15:31  5-MIN K79J 021815Z AUTO 00000KT 10SM CLR 38/17 A3005 190 29 2800 000/00 RMK AO2 T03780172
53843K79J 79J20160702132010807/02/16 13:20:31  5-MIN K79J 021820Z AUTO VRB04KT 10SM CLR 38/17 A3005 190 29 2800 VRB/04 RMK AO2 T03780172
53843K79J 79J20160702132510807/02/16 13:25:31  5-MIN K79J 021825Z AUTO VRB03KT 10SM CLR 38/17 A3005 200 28 2900 VRB/03 RMK AO2 T03780167
53843K79J 79J20160702133011107/02/16 13:30:31  5-MIN K79J 021830Z AUTO 21004KT 10SM FEW080 38/17 A3004 200 29 2900 220/04 RMK AO2 T03780172
53843K79J 79J20160702133511107/02/16 13:35:31  5-MIN K79J 021835Z AUTO VRB05KT 10SM FEW075 38/18 A3004 200 29 2900 VRB/05 RMK AO2 T03830178
53843K79J 79J20160702134011107/02/16 13:40:31  5-MIN K79J 021840Z AUTO 15004KT 10SM FEW075 38/17 A3004 200 28 2900 150/04 RMK AO2 T03830172
53843K79J 79J20160702134511107/02/16 13:45:31  5-MIN K79J 021845Z AUTO VRB03KT 10SM FEW070 38/17 A3004 200 29 2900 VRB/03 RMK AO2 T03780172
53843K79J 79J20160702135011807/02/16 13:50:31  5-MIN K79J 021850Z AUTO 00000KT 10SM SCT070 38/17 A3004 200 29 2900 000/00 RMK AO2 SLP166 T03780172
53843K79J 79J20160702135511807/02/16 13:55:31  5-MIN K79J 021855Z AUTO VRB03KT 10SM SCT070 38/17 A3004 200 29 2900 VRB/03 RMK AO2 SLP166 T03780172
53843K79J 79J20160702140011107/02/16 14:00:31  5-MIN K79J 021900Z AUTO 03003KT 10SM SCT070 38/17 A3004 200 27 2900 030/03 RMK AO2 T03830167
53843K79J 79J20160702140511107/02/16 14:05:31  5-MIN K79J 021905Z AUTO VRB03KT 10SM FEW070 39/17 A3003 210 27 3000 VRB/03 RMK AO2 T03890172
53843K79J 79J20160702141010107/02/16 14:10:31  5-MIN K79J 021910Z AUTO 10SM FEW070 38/17 A3003 210 28 2900 M /M RMK AO2 T03830172
53843K79J 79J20160702141511107/02/16 14:15:31  5-MIN K79J 021915Z AUTO 06006KT 10SM FEW070 38/17 A3003 210 27 2900 060/06 RMK AO2 T03830167
53843K79J 79J20160702142011107/02/16 14:20:31  5-MIN K79J 021920Z AUTO 03006KT 10SM FEW075 39/17 A3003 210 27 3000 030/06 RMK AO2 T03890172
53843K79J 79J20160702142510807/02/16 14:25:31  5-MIN K79J 021925Z AUTO VRB04KT 10SM CLR 38/17 A3003 210 27 2900 VRB/04 RMK AO2 T03830167
53843K79J 79J20160702143010807/02/16 14:30:31  5-MIN K79J 021930Z AUTO VRB04KT 10SM CLR 39/17 A3003 210 27 3000 VRB/04 RMK AO2 T03890172
53843K79J 79J20160702143510807/02/16 14:35:31  5-MIN K79J 021935Z AUTO 09008KT 10SM CLR 38/17 A3002 220 28 2900 090/08 RMK AO2 T03830172
53843K79J 79J20160702144010807/02/16 14:40:31  5-MIN K79J 021940Z AUTO 10006KT 10SM CLR 37/17 A3002 220 29 2800 100/06 RMK AO2 T03720167
53843K79J 79J20160702144510807/02/16 14:45:31  5-MIN K79J 021945Z AUTO 00000KT 10SM CLR 36/17 A3002 220 31 2700 000/00 RMK AO2 T03610167
53843K79J 79J20160702145011507/02/16 14:50:31  5-MIN K79J 021950Z AUTO 00000KT 10SM CLR 37/17 A3002 220 31 2800 000/00 RMK AO2 SLP159 T03670172
53843K79J 79J20160702145511507/02/16 14:55:31  5-MIN K79J 021955Z AUTO 00000KT 10SM CLR 37/17 A3002 220 30 2800 000/00 RMK AO2 SLP159 T03720172
53843K79J 79J20160702150010807/02/16 15:00:31  5-MIN K79J 022000Z AUTO 00000KT 10SM CLR 37/18 A3002 220 31 2800 000/00 RMK AO2 T03720178
53843K79J 79J20160702150510807/02/16 15:05:31  5-MIN K79J 022005Z AUTO 00000KT 10SM CLR 37/17 A3002 220 30 2800 000/00 RMK AO2 T03670167
53843K79J 79J20160702151010807/02/16 15:10:31  5-MIN K79J 022010Z AUTO VRB03KT 10SM CLR 36/17 A3002 220 31 2700 VRB/03 RMK AO2 T03610167
53843K79J 79J20160702151510807/02/16 15:15:31  5-MIN K79J 022015Z AUTO 23003KT 10SM CLR 36/17 A3001 230 31 2700 230/03 RMK AO2 T03610167
53843K79J 79J20160702152010807/02/16 15:20:31  5-MIN K79J 022020Z AUTO 00000KT 10SM CLR 37/17 A3001 230 30 2800 000/00 RMK AO2 T03670167
53843K79J 79J20160702152510807/02/16 15:25:31  5-MIN K79J 022025Z AUTO 00000KT 10SM CLR 38/17 A3001 230 28 2900 000/00 RMK AO2 T03780167
53843K79J 79J20160702153010807/02/16 15:30:31  5-MIN K79J 022030Z AUTO 00000KT 10SM CLR 38/17 A3001 230 27 3000 000/00 RMK AO2 T03830167
53843K79J 79J20160702153510807/02/16 15:35:31  5-MIN K79J 022035Z AUTO 15003KT 10SM CLR 38/17 A3001 230 29 2900 150/03 RMK AO2 T03780172
53843K79J 79J20160702154010807/02/16 15:40:31  5-MIN K79J 022040Z AUTO VRB03KT 10SM CLR 38/17 A3000 240 29 2900 VRB/03 RMK AO2 T03780172
53843K79J 79J20160702154510807/02/16 15:45:31  5-MIN K79J 022045Z AUTO 17005KT 10SM CLR 38/17 A3000 230 29 2900 170/05 RMK AO2 T03780172
53843K79J 79J20160702155012107/02/16 15:50:31  5-MIN K79J 022050Z AUTO 00000KT 10SM CLR 38/17 A3000 240 29 2900 000/00 RMK AO2 SLP153 T03780172 56006
53843K79J 79J20160702155512107/02/16 15:55:31  5-MIN K79J 022055Z AUTO 15003KT 10SM CLR 38/17 A3000 240 28 3000 150/03 RMK AO2 SLP153 T03830172 56006
53843K79J 79J20160702160010807/02/16 16:00:31  5-MIN K79J 022100Z AUTO VRB03KT 10SM CLR 38/17 A3000 240 28 2900 VRB/03 RMK AO2 T03780167
53843K79J 79J20160702160511107/02/16 16:05:31  5-MIN K79J 022105Z AUTO VRB04KT 10SM FEW070 38/17 A3000 240 27 3000 VRB/04 RMK AO2 T03830167
53843K79J 79J20160702161011107/02/16 16:10:31  5-MIN K79J 022110Z AUTO 27004KT 10SM FEW070 38/17 A3000 240 28 3000 270/04 RMK AO2 T03830172
53843K79J 79J20160702161511107/02/16 16:15:31  5-MIN K79J 022115Z AUTO 24005KT 10SM FEW070 39/17 A3000 240 27 3000 240/05 RMK AO2 T03890172
53843K79J 79J20160702162011107/02/16 16:20:31  5-MIN K79J 022120Z AUTO VRB03KT 10SM FEW070 38/17 A3000 240 27 3000 VRB/03 RMK AO2 T03830167
53843K79J 79J20160702162511107/02/16 16:25:31  5-MIN K79J 022125Z AUTO 32006KT 10SM FEW070 38/17 A3000 240 28 3000 320/06 RMK AO2 T03830172
53843K79J 79J20160702163011107/02/16 16:30:31  5-MIN K79J 022130Z AUTO 32005KT 10SM FEW070 38/17 A2999 240 28 3000 320/05 RMK AO2 T03830172
53843K79J 79J20160702163510807/02/16 16:35:31  5-MIN K79J 022135Z AUTO VRB04KT 10SM CLR 38/17 A2999 240 27 3000 VRB/04 RMK AO2 T03830167
53843K79J 79J20160702164010807/02/16 16:40:31  5-MIN K79J 022140Z AUTO 32004KT 10SM CLR 38/16 A2999 250 26 3000 320/04 RMK AO2 T03830161
53843K79J 79J20160702164510807/02/16 16:45:31  5-MIN K79J 022145Z AUTO VRB03KT 10SM CLR 38/17 A2999 250 27 3000 VRB/03 RMK AO2 T03830167
53843K79J 79J20160702165011507/02/16 16:50:31  5-MIN K79J 022150Z AUTO VRB03KT 10SM CLR 39/17 A2999 250 26 3000 VRB/03 RMK AO2 SLP150 T03890167
53843K79J 79J20160702165511507/02/16 16:55:31  5-MIN K79J 022155Z AUTO 33005KT 10SM CLR 39/17 A2999 250 27 3000 330/05 RMK AO2 SLP149 T03890172
53843K79J 79J20160702170010807/02/16 17:00:31  5-MIN K79J 022200Z AUTO 33005KT 10SM CLR 38/18 A2999 250 29 3000 340/05 RMK AO2 T03830178
53843K79J 79J20160702170510807/02/16 17:05:31  5-MIN K79J 022205Z AUTO 35003KT 10SM CLR 38/18 A2999 250 29 3000 350/03 RMK AO2 T03830178
53843K79J 79J20160702171010807/02/16 17:10:31  5-MIN K79J 022210Z AUTO 01005KT 10SM CLR 39/17 A2999 250 27 3000 020/05 RMK AO2 T03890172
53843K79J 79J20160702171510807/02/16 17:15:31  5-MIN K79J 022215Z AUTO 02004KT 10SM CLR 38/17 A2999 250 28 3000 020/04 RMK AO2 T03830172
53843K79J 79J20160702172010807/02/16 17:20:31  5-MIN K79J 022220Z AUTO 00000KT 10SM CLR 38/17 A2999 250 28 3000 000/00 RMK AO2 T03830172
53843K79J 79J20160702172510807/02/16 17:25:31  5-MIN K79J 022225Z AUTO 00000KT 10SM CLR 38/17 A2999 250 28 3000 000/00 RMK AO2 T03830172
53843K79J 79J20160702173010807/02/16 17:30:31  5-MIN K79J 022230Z AUTO VRB04KT 10SM CLR 38/18 A2999 250 29 3000 VRB/04 RMK AO2 T03830178
53843K79J 79J20160702173510807/02/16 17:35:31  5-MIN K79J 022235Z AUTO 35003KT 10SM CLR 38/17 A2999 250 29 2900 350/03 RMK AO2 T03780172
53843K79J 79J20160702174010807/02/16 17:40:31  5-MIN K79J 022240Z AUTO 30005KT 10SM CLR 38/17 A2999 250 29 2900 310/05 RMK AO2 T03780172
53843K79J 79J20160702174510807/02/16 17:45:31  5-MIN K79J 022245Z AUTO 00000KT 10SM CLR 38/17 A2999 250 29 2900 000/00 RMK AO2 T03780172
53843K79J 79J20160702175011507/02/16 17:50:31  5-MIN K79J 022250Z AUTO 35005KT 10SM CLR 38/17 A2999 250 29 2900 360/05 RMK AO2 SLP148 T03780172
53843K79J 79J20160702175511507/02/16 17:55:31  5-MIN K79J 022255Z AUTO VRB04KT 10SM CLR 38/17 A2999 250 29 2900 VRB/04 RMK AO2 SLP149 T03780172
53843K79J 79J20160702180010807/02/16 18:00:31  5-MIN K79J 022300Z AUTO 36005KT 10SM CLR 38/17 A2999 250 29 2900 360/05 RMK AO2 T03780172
53843K79J 79J20160702180510807/02/16 18:05:31  5-MIN K79J 022305Z AUTO 36004KT 10SM CLR 38/18 A2999 250 30 2900 360/04 RMK AO2 T03780178
53843K79J 79J20160702181010807/02/16 18:10:31  5-MIN K79J 022310Z AUTO 01004KT 10SM CLR 38/17 A2999 250 29 2900 010/04 RMK AO2 T03780172
53843K79J 79J20160702181510807/02/16 18:15:31  5-MIN K79J 022315Z AUTO 01004KT 10SM CLR 38/18 A2999 250 30 2900 010/04 RMK AO2 T03780178
53843K79J 79J20160702182010807/02/16 18:20:31  5-MIN K79J 022320Z AUTO 02003KT 10SM CLR 38/17 A2999 250 29 2900 030/03 RMK AO2 T03780172
53843K79J 79J20160702182510807/02/16 18:25:31  5-MIN K79J 022325Z AUTO 02003KT 10SM CLR 38/17 A2999 240 29 2900 020/03 RMK AO2 T03780172
53843K79J 79J20160702183010807/02/16 18:30:31  5-MIN K79J 022330Z AUTO 02003KT 10SM CLR 38/18 A2999 240 30 2900 030/03 RMK AO2 T03780178
53843K79J 79J20160702183510807/02/16 18:35:31  5-MIN K79J 022335Z AUTO 02003KT 10SM CLR 37/18 A3000 240 31 2800 020/03 RMK AO2 T03720178
53843K79J 79J20160702184010807/02/16 18:40:31  5-MIN K79J 022340Z AUTO 00000KT 10SM CLR 37/18 A3000 240 31 2800 000/00 RMK AO2 T03720178
53843K79J 79J20160702184510807/02/16 18:45:31  5-MIN K79J 022345Z AUTO 00000KT 10SM CLR 37/18 A3000 240 32 2800 000/00 RMK AO2 T03720183
53843K79J 79J20160702185013307/02/16 18:50:31  5-MIN K79J 022350Z AUTO 00000KT 10SM CLR 37/19 A3000 240 36 2800 000/00 RMK AO2 SLP152 T03670194 10389 20361 58018
53843K79J 79J20160702185513307/02/16 18:55:31  5-MIN K79J 022355Z AUTO 00000KT 10SM CLR 37/19 A3000 240 36 2800 000/00 RMK AO2 SLP153 T03670194 10389 20361 58018
53843K79J 79J20160702190010807/02/16 19:00:31  5-MIN K79J 030000Z AUTO 00000KT 10SM CLR 36/21 A3000 240 39 2700 000/00 RMK AO2 T03610206
53843K79J 79J20160702190510807/02/16 19:05:31  5-MIN K79J 030005Z AUTO 00000KT 10SM CLR 34/22 A3000 240 46 2500 000/00 RMK AO2 T03440217
53843K79J 79J20160702191010807/02/16 19:10:31  5-MIN K79J 030010Z AUTO 00000KT 10SM CLR 34/21 A3000 240 46 2500 000/00 RMK AO2 T03390211
53843K79J 79J20160702191510807/02/16 19:15:31  5-MIN K79J 030015Z AUTO 00000KT 10SM CLR 33/21 A3000 240 48 2400 000/00 RMK AO2 T03330211
53843K79J 79J20160702192010807/02/16 19:20:31  5-MIN K79J 030020Z AUTO 00000KT 10SM CLR 33/21 A3000 240 48 2400 000/00 RMK AO2 T03280206
53843K79J 79J20160702192510807/02/16 19:25:31  5-MIN K79J 030025Z AUTO 00000KT 10SM CLR 32/22 A3000 230 53 2300 000/00 RMK AO2 T03220217
53843K79J 79J20160702193010807/02/16 19:30:31  5-MIN K79J 030030Z AUTO 00000KT 10SM CLR 32/21 A3001 230 51 2300 000/00 RMK AO2 T03220211
53843K79J 79J20160702193510807/02/16 19:35:31  5-MIN K79J 030035Z AUTO 00000KT 10SM CLR 32/21 A3001 230 53 2200 000/00 RMK AO2 T03170211
53843K79J 79J20160702194010807/02/16 19:40:31  5-MIN K79J 030040Z AUTO 00000KT 10SM CLR 32/21 A3001 230 53 2200 000/00 RMK AO2 T03170211
53843K79J 79J20160702194510807/02/16 19:45:31  5-MIN K79J 030045Z AUTO 00000KT 10SM CLR 32/21 A3001 230 53 2200 000/00 RMK AO2 T03170211
53843K79J 79J20160702195011507/02/16 19:50:31  5-MIN K79J 030050Z AUTO 00000KT 10SM CLR 31/22 A3001 230 56 2200 000/00 RMK AO2 SLP157 T03110217
53843K79J 79J20160702195511507/02/16 19:55:31  5-MIN K79J 030055Z AUTO 00000KT 10SM CLR 31/22 A3001 230 56 2200 000/00 RMK AO2 SLP158 T03110217
53843K79J 79J20160702200010807/02/16 20:00:31  5-MIN K79J 030100Z AUTO 00000KT 10SM CLR 31/22 A3001 230 58 2100 000/00 RMK AO2 T03060217
53843K79J 79J20160702200510807/02/16 20:05:31  5-MIN K79J 030105Z AUTO 00000KT 10SM CLR 31/22 A3002 220 60 2100 000/00 RMK AO2 T03060222
53843K79J 79J20160702201010807/02/16 20:10:31  5-MIN K79J 030110Z AUTO 00000KT 10SM CLR 30/22 A3002 220 60 2000 000/00 RMK AO2 T03000217
53843K79J 79J20160702201510807/02/16 20:15:31  5-MIN K79J 030115Z AUTO 00000KT 10SM CLR 30/22 A3002 220 62 2000 000/00 RMK AO2 T03000222
53843K79J 79J20160702202010807/02/16 20:20:31  5-MIN K79J 030120Z AUTO 00000KT 10SM CLR 29/22 A3002 220 62 2000 000/00 RMK AO2 T02940217
53843K79J 79J20160702202510807/02/16 20:25:31  5-MIN K79J 030125Z AUTO 00000KT 10SM CLR 29/22 A3002 220 62 2000 000/00 RMK AO2 T02940217
53843K79J 79J20160702203010807/02/16 20:30:31  5-MIN K79J 030130Z AUTO 18005KT 10SM CLR 30/21 A3003 210 58 2000 180/05 RMK AO2 T03000211
53843K79J 79J20160702203510807/02/16 20:35:31  5-MIN K79J 030135Z AUTO 20004KT 10SM CLR 31/21 A3003 210 53 2100 210/04 RMK AO2 T03110206
53843K79J 79J20160702204010807/02/16 20:40:31  5-MIN K79J 030140Z AUTO 20004KT 10SM CLR 31/21 A3003 210 54 2100 200/04 RMK AO2 T03110211
53843K79J 79J20160702204510807/02/16 20:45:31  5-MIN K79J 030145Z AUTO 22004KT 10SM CLR 32/21 A3003 210 53 2200 220/04 RMK AO2 T03170211
53843K79J 79J20160702205011507/02/16 20:50:31  5-MIN K79J 030150Z AUTO 21005KT 10SM CLR 31/22 A3003 210 56 2100 220/05 RMK AO2 SLP164 T03110217
53843K79J 79J20160702205511507/02/16 20:55:31  5-MIN K79J 030155Z AUTO 21004KT 10SM CLR 31/22 A3003 210 56 2100 210/04 RMK AO2 SLP164 T03110217
53843K79J 79J20160702210010807/02/16 21:00:31  5-MIN K79J 030200Z AUTO 21005KT 10SM CLR 31/22 A3003 210 56 2100 220/05 RMK AO2 T03110217
53843K79J 79J20160702210510807/02/16 21:05:31  5-MIN K79J 030205Z AUTO 22003KT 10SM CLR 31/22 A3004 210 58 2100 220/03 RMK AO2 T03110222
53843K79J 79J20160702211010807/02/16 21:10:31  5-MIN K79J 030210Z AUTO 22005KT 10SM CLR 31/22 A3003 210 58 2100 220/05 RMK AO2 T03110222
53843K79J 79J20160702211510807/02/16 21:15:31  5-MIN K79J 030215Z AUTO 22004KT 10SM CLR 31/22 A3004 200 58 2100 220/04 RMK AO2 T03110222
53843K79J 79J20160702212010807/02/16 21:20:31  5-MIN K79J 030220Z AUTO 22004KT 10SM CLR 31/23 A3004 200 62 2100 220/04 RMK AO2 T03060228
53843K79J 79J20160702212510807/02/16 21:25:31  5-MIN K79J 030225Z AUTO 22005KT 10SM CLR 31/23 A3004 200 62 2100 230/05 RMK AO2 T03060228
53843K79J 79J20160702213010807/02/16 21:30:31  5-MIN K79J 030230Z AUTO 23005KT 10SM CLR 31/23 A3004 200 62 2100 230/05 RMK AO2 T03060228
53843K79J 79J20160702213510807/02/16 21:35:31  5-MIN K79J 030235Z AUTO 23005KT 10SM CLR 31/23 A3004 200 62 2100 230/05 RMK AO2 T03060228
53843K79J 79J20160702214010807/02/16 21:40:31  5-MIN K79J 030240Z AUTO 23005KT 10SM CLR 31/23 A3004 200 62 2100 230/05 RMK AO2 T03060228
53843K79J 79J20160702214510807/02/16 21:45:31  5-MIN K79J 030245Z AUTO 23005KT 10SM CLR 31/23 A3004 200 62 2100 230/05 RMK AO2 T03060228
53843K79J 79J20160702215012107/02/16 21:50:31  5-MIN K79J 030250Z AUTO 23005KT 10SM CLR 31/23 A3004 200 62 2100 230/05 RMK AO2 SLP167 T03060228 55000
53843K79J 79J20160702215512107/02/16 21:55:31  5-MIN K79J 030255Z AUTO 23004KT 10SM CLR 30/23 A3004 200 65 2000 230/04 RMK AO2 SLP167 T03000228 55000
53843K79J 79J20160702220010807/02/16 22:00:31  5-MIN K79J 030300Z AUTO 23004KT 10SM CLR 30/23 A3004 200 65 2000 230/04 RMK AO2 T03000228
53843K79J 79J20160702220510807/02/16 22:05:31  5-MIN K79J 030305Z AUTO 00000KT 10SM CLR 30/23 A3004 200 65 2000 000/00 RMK AO2 T03000228
53843K79J 79J20160702221010807/02/16 22:10:31  5-MIN K79J 030310Z AUTO 22004KT 10SM CLR 30/23 A3004 200 65 2000 220/04 RMK AO2 T03000228
53843K79J 79J20160702221510807/02/16 22:15:31  5-MIN K79J 030315Z AUTO 23004KT 10SM CLR 30/23 A3004 200 65 2000 230/04 RMK AO2 T03000228
53843K79J 79J20160702222010807/02/16 22:20:31  5-MIN K79J 030320Z AUTO 23003KT 10SM CLR 29/23 A3004 200 67 1900 240/03 RMK AO2 T02940228
53843K79J 79J20160702222510807/02/16 22:25:31  5-MIN K79J 030325Z AUTO 23003KT 10SM CLR 29/23 A3004 200 67 1900 230/03 RMK AO2 T02940228
53843K79J 79J20160702223010807/02/16 22:30:31  5-MIN K79J 030330Z AUTO 22003KT 10SM CLR 29/23 A3004 200 67 1900 230/03 RMK AO2 T02940228
53843K79J 79J20160702223510807/02/16 22:35:31  5-MIN K79J 030335Z AUTO 22003KT 10SM CLR 29/23 A3005 200 67 1900 220/03 RMK AO2 T02940228
53843K79J 79J20160702224010807/02/16 22:40:31  5-MIN K79J 030340Z AUTO 22003KT 10SM CLR 29/23 A3004 200 67 1900 220/03 RMK AO2 T02940228
53843K79J 79J20160702224510807/02/16 22:45:31  5-MIN K79J 030345Z AUTO 21003KT 10SM CLR 29/23 A3004 200 67 1900 210/03 RMK AO2 T02940228
53843K79J 79J20160702225011507/02/16 22:50:31  5-MIN K79J 030350Z AUTO 00000KT 10SM CLR 29/23 A3004 200 67 1900 000/00 RMK AO2 SLP167 T02940228
53843K79J 79J20160702225511507/02/16 22:55:31  5-MIN K79J 030355Z AUTO 21003KT 10SM CLR 29/23 A3004 200 67 1900 210/03 RMK AO2 SLP167 T02940228
53843K79J 79J20160702230010807/02/16 23:00:31  5-MIN K79J 030400Z AUTO 22003KT 10SM CLR 29/23 A3004 200 69 1900 220/03 RMK AO2 T02890228
53843K79J 79J20160702230510807/02/16 23:05:31  5-MIN K79J 030405Z AUTO 23004KT 10SM CLR 29/23 A3004 200 67 1900 230/04 RMK AO2 T02940228
53843K79J 79J20160702231010807/02/16 23:10:31  5-MIN K79J 030410Z AUTO 22004KT 10SM CLR 29/23 A3004 200 67 1900 230/04 RMK AO2 T02940228
53843K79J 79J20160702231510807/02/16 23:15:31  5-MIN K79J 030415Z AUTO 21003KT 10SM CLR 29/23 A3004 200 69 1900 220/03 RMK AO2 T02890228
53843K79J 79J20160702232010807/02/16 23:20:31  5-MIN K79J 030420Z AUTO 21003KT 10SM CLR 29/23 A3004 200 69 1900 210/03 RMK AO2 T02890228
53843K79J 79J20160702232510807/02/16 23:25:31  5-MIN K79J 030425Z AUTO 21003KT 10SM CLR 29/23 A3004 200 69 1900 210/03 RMK AO2 T02890228
53843K79J 79J20160702233010807/02/16 23:30:31  5-MIN K79J 030430Z AUTO VRB03KT 10SM CLR 29/23 A3004 200 69 1900 VRB/03 RMK AO2 T02890228
53843K79J 79J20160702233510807/02/16 23:35:31  5-MIN K79J 030435Z AUTO 00000KT 10SM CLR 29/23 A3004 200 69 1900 000/00 RMK AO2 T02890228
53843K79J 79J20160702234010807/02/16 23:40:31  5-MIN K79J 030440Z AUTO 21003KT 10SM CLR 28/23 A3004 200 71 1800 220/03 RMK AO2 T02830228
53843K79J 79J20160702234510807/02/16 23:45:31  5-MIN K79J 030445Z AUTO 22003KT 10SM CLR 28/23 A3004 200 71 1800 220/03 RMK AO2 T02830228
53843K79J 79J20160702235012507/02/16 23:50:31  5-MIN K79J 030450Z AUTO 00000KT 10SM CLR 28/23 A3004 200 71 1800 000/00 RMK AO2 SLP167 T02830228 403890239
53843K79J 79J20160702235512507/02/16 23:55:31  5-MIN K79J 030455Z AUTO 00000KT 10SM CLR 28/23 A3004 200 71 1800 000/00 RMK AO2 SLP166 T02830228 403890239
53843K79J 79J20160703000010807/03/16 00:00:31  5-MIN K79J 030500Z AUTO 00000KT 10SM CLR 28/23 A3004 200 71 1800 000/00 RMK AO2 T02830228
53843K79J 79J20160703000510807/03/16 00:05:31  5-MIN K79J 030505Z AUTO 00000KT 10SM CLR 28/23 A3004 200 71 1800 000/00 RMK AO2 T02830228
53843K79J 79J20160703001010807/03/16 00:10:31  5-MIN K79J 030510Z AUTO 00000KT 10SM CLR 28/23 A3004 200 71 1800 000/00 RMK AO2 T02830228
53843K79J 79J20160703001510807/03/16 00:15:31  5-MIN K79J 030515Z AUTO 00000KT 10SM CLR 28/23 A3004 200 71 1800 000/00 RMK AO2 T02830228
53843K79J 79J20160703002010807/03/16 00:20:31  5-MIN K79J 030520Z AUTO 00000KT 10SM CLR 28/23 A3004 200 71 1800 000/00 RMK AO2 T02830228
53843K79J 79J20160703002510807/03/16 00:25:31  5-MIN K79J 030525Z AUTO 00000KT 10SM CLR 28/23 A3004 200 71 1800 000/00 RMK AO2 T02830228
53843K79J 79J20160703003010807/03/16 00:30:31  5-MIN K79J 030530Z AUTO 00000KT 10SM CLR 28/23 A3004 200 74 1800 000/00 RMK AO2 T02780228
53843K79J 79J20160703003510807/03/16 00:35:31  5-MIN K79J 030535Z AUTO 00000KT 10SM CLR 28/23 A3004 200 74 1800 000/00 RMK AO2 T02780228
53843K79J 79J20160703004010807/03/16 00:40:31  5-MIN K79J 030540Z AUTO 00000KT 10SM CLR 28/23 A3004 200 74 1800 000/00 RMK AO2 T02780228
53843K79J 79J20160703004510807/03/16 00:45:31  5-MIN K79J 030545Z AUTO 00000KT 10SM CLR 28/23 A3004 200 74 1800 000/00 RMK AO2 T02780228
53843K79J 79J20160703005013307/03/16 00:50:31  5-MIN K79J 030550Z AUTO 00000KT 10SM CLR 27/23 A3004 200 76 1700 000/00 RMK AO2 SLP166 T02720228 10361 20272 51015
53843K79J 79J20160703005513307/03/16 00:55:31  5-MIN K79J 030555Z AUTO 00000KT 10SM CLR 27/23 A3004 200 76 1700 000/00 RMK AO2 SLP166 T02720228 10361 20272 51015
53843K79J 79J20160703010010807/03/16 01:00:31  5-MIN K79J 030600Z AUTO 00000KT 10SM CLR 27/23 A3004 200 76 1700 000/00 RMK AO2 T02720228
53843K79J 79J20160703010510807/03/16 01:05:31  5-MIN K79J 030605Z AUTO 00000KT 10SM CLR 27/23 A3004 210 76 1700 000/00 RMK AO2 T02720228
53843K79J 79J20160703011010807/03/16 01:10:31  5-MIN K79J 030610Z AUTO 00000KT 10SM CLR 28/23 A3003 210 74 1800 000/00 RMK AO2 T02780228
53843K79J 79J20160703011510807/03/16 01:15:31  5-MIN K79J 030615Z AUTO 00000KT 10SM CLR 27/23 A3003 210 76 1700 000/00 RMK AO2 T02720228
53843K79J 79J20160703012010807/03/16 01:20:31  5-MIN K79J 030620Z AUTO 00000KT 10SM CLR 27/23 A3003 210 76 1700 000/00 RMK AO2 T02720228
53843K79J 79J20160703012510807/03/16 01:25:31  5-MIN K79J 030625Z AUTO 21003KT 10SM CLR 27/23 A3003 210 76 1700 210/03 RMK AO2 T02720228
53843K79J 79J20160703013010807/03/16 01:30:31  5-MIN K79J 030630Z AUTO 00000KT 10SM CLR 27/23 A3003 210 76 1700 000/00 RMK AO2 T02720228
53843K79J 79J20160703013510807/03/16 01:35:31  5-MIN K79J 030635Z AUTO 20003KT 10SM CLR 27/23 A3003 210 76 1700 210/03 RMK AO2 T02720228
53843K79J 79J20160703014010807/03/16 01:40:31  5-MIN K79J 030640Z AUTO 00000KT 10SM CLR 27/23 A3003 210 76 1700 000/00 RMK AO2 T02720228
53843K79J 79J20160703014510807/03/16 01:45:31  5-MIN K79J 030645Z AUTO 00000KT 10SM CLR 27/23 A3003 210 76 1700 000/00 RMK AO2 T02720228
53843K79J 79J20160703015011507/03/16 01:50:31  5-MIN K79J 030650Z AUTO 00000KT 10SM CLR 27/23 A3003 210 76 1700 000/00 RMK AO2 SLP163 T02720228
53843K79J 79J20160703015511507/03/16 01:55:31  5-MIN K79J 030655Z AUTO 22003KT 10SM CLR 28/23 A3003 210 74 1800 220/03 RMK AO2 SLP162 T02780228
53843K79J 79J20160703020010807/03/16 02:00:31  5-MIN K79J 030700Z AUTO 22003KT 10SM CLR 28/23 A3003 210 74 1800 220/03 RMK AO2 T02780228
53843K79J 79J20160703020510807/03/16 02:05:31  5-MIN K79J 030705Z AUTO 00000KT 10SM CLR 28/23 A3003 210 74 1800 000/00 RMK AO2 T02780228
53843K79J 79J20160703021010807/03/16 02:10:31  5-MIN K79J 030710Z AUTO VRB03KT 10SM CLR 28/23 A3003 210 74 1800 VRB/03 RMK AO2 T02780228
53843K79J 79J20160703021510807/03/16 02:15:31  5-MIN K79J 030715Z AUTO VRB03KT 10SM CLR 28/23 A3003 210 74 1800 VRB/03 RMK AO2 T02780228
53843K79J 79J20160703022010807/03/16 02:20:31  5-MIN K79J 030720Z AUTO 24003KT 10SM CLR 27/23 A3003 210 76 1700 240/03 RMK AO2 T02720228
53843K79J 79J20160703022510807/03/16 02:25:31  5-MIN K79J 030725Z AUTO 00000KT 10SM CLR 27/23 A3003 210 76 1700 000/00 RMK AO2 T02720228
53843K79J 79J20160703023010807/03/16 02:30:31  5-MIN K79J 030730Z AUTO 00000KT 10SM CLR 27/23 A3003 210 76 1700 000/00 RMK AO2 T02720228
53843K79J 79J20160703023510807/03/16 02:35:31  5-MIN K79J 030735Z AUTO 24003KT 10SM CLR 27/23 A3003 210 76 1700 250/03 RMK AO2 T02720228
53843K79J 79J20160703024010807/03/16 02:40:31  5-MIN K79J 030740Z AUTO 25003KT 10SM CLR 27/23 A3003 210 76 1700 250/03 RMK AO2 T02720228
53843K79J 79J20160703024510807/03/16 02:45:31  5-MIN K79J 030745Z AUTO 24003KT 10SM CLR 27/23 A3003 210 76 1700 240/03 RMK AO2 T02720228
53843K79J 79J20160703025011407/03/16 02:50:31  5-MIN K79J 030750Z AUTO 00000KT 9SM CLR 27/23 A3003 210 76 1700 000/00 RMK AO2 SLP162 T02720228
53843K79J 79J20160703025511407/03/16 02:55:31  5-MIN K79J 030755Z AUTO 24003KT 9SM CLR 27/23 A3003 210 76 1700 240/03 RMK AO2 SLP163 T02720228
53843K79J 79J20160703030010707/03/16 03:00:31  5-MIN K79J 030800Z AUTO 24003KT 9SM CLR 27/23 A3003 210 76 1700 250/03 RMK AO2 T02720228
53843K79J 79J20160703030510707/03/16 03:05:31  5-MIN K79J 030805Z AUTO 00000KT 9SM CLR 27/23 A3003 210 76 1700 000/00 RMK AO2 T02720228
53843K79J 79J20160703031010707/03/16 03:10:31  5-MIN K79J 030810Z AUTO 00000KT 9SM CLR 27/23 A3003 210 76 1700 000/00 RMK AO2 T02720228
53843K79J 79J20160703031510807/03/16 03:15:31  5-MIN K79J 030815Z AUTO 00000KT 10SM CLR 27/23 A3003 210 76 1700 000/00 RMK AO2 T02720228
53843K79J 79J20160703032010807/03/16 03:20:31  5-MIN K79J 030820Z AUTO 00000KT 10SM CLR 27/23 A3003 210 76 1700 000/00 RMK AO2 T02720228
53843K79J 79J20160703032510807/03/16 03:25:31  5-MIN K79J 030825Z AUTO 24003KT 10SM CLR 27/23 A3003 210 76 1700 240/03 RMK AO2 T02720228
53843K79J 79J20160703033010807/03/16 03:30:31  5-MIN K79J 030830Z AUTO 25003KT 10SM CLR 27/23 A3003 210 76 1700 250/03 RMK AO2 T02720228
53843K79J 79J20160703033510807/03/16 03:35:31  5-MIN K79J 030835Z AUTO 00000KT 10SM CLR 27/23 A3003 210 76 1700 000/00 RMK AO2 T02720228
53843K79J 79J20160703034010807/03/16 03:40:31  5-MIN K79J 030840Z AUTO 00000KT 10SM CLR 27/23 A3003 210 76 1700 000/00 RMK AO2 T02720228
53843K79J 79J20160703034510807/03/16 03:45:31  5-MIN K79J 030845Z AUTO 00000KT 10SM CLR 27/23 A3004 210 79 1600 000/00 RMK AO2 T02670228
53843K79J 79J20160703035012107/03/16 03:50:31  5-MIN K79J 030850Z AUTO 00000KT 10SM CLR 27/23 A3004 200 79 1600 000/00 RMK AO2 SLP165 T02670228 58002
53843K79J 79J20160703035512007/03/16 03:55:31  5-MIN K79J 030855Z AUTO 00000KT 9SM CLR 27/23 A3004 200 76 1700 000/00 RMK AO2 SLP165 T02720228 58002
53843K79J 79J20160703040010707/03/16 04:00:31  5-MIN K79J 030900Z AUTO 00000KT 9SM CLR 27/23 A3004 200 76 1700 000/00 RMK AO2 T02720228
53843K79J 79J20160703040510707/03/16 04:05:31  5-MIN K79J 030905Z AUTO 00000KT 9SM CLR 27/23 A3004 200 79 1600 000/00 RMK AO2 T02670228
53843K79J 79J20160703041010807/03/16 04:10:31  5-MIN K79J 030910Z AUTO 00000KT 10SM CLR 26/23 A3004 200 81 1600 000/00 RMK AO2 T02610228
53843K79J 79J20160703041510707/03/16 04:15:31  5-MIN K79J 030915Z AUTO 00000KT 9SM CLR 26/23 A3004 200 81 1600 000/00 RMK AO2 T02610228
53843K79J 79J20160703042010707/03/16 04:20:31  5-MIN K79J 030920Z AUTO 00000KT 9SM CLR 26/23 A3004 200 81 1600 000/00 RMK AO2 T02610228
53843K79J 79J20160703042510707/03/16 04:25:31  5-MIN K79J 030925Z AUTO 00000KT 8SM CLR 26/23 A3004 200 81 1600 000/00 RMK AO2 T02610228
53843K79J 79J20160703043010707/03/16 04:30:31  5-MIN K79J 030930Z AUTO 00000KT 9SM CLR 26/23 A3004 200 84 1500 000/00 RMK AO2 T02560228
53843K79J 79J20160703043510707/03/16 04:35:31  5-MIN K79J 030935Z AUTO 00000KT 9SM CLR 26/23 A3004 200 84 1500 000/00 RMK AO2 T02560228
53843K79J 79J20160703044010707/03/16 04:40:31  5-MIN K79J 030940Z AUTO 00000KT 7SM CLR 26/23 A3004 200 81 1600 000/00 RMK AO2 T02610228
53843K79J 79J20160703044510707/03/16 04:45:31  5-MIN K79J 030945Z AUTO 00000KT 7SM CLR 26/23 A3004 200 81 1600 000/00 RMK AO2 T02610228
53843K79J 79J20160703045011407/03/16 04:50:31  5-MIN K79J 030950Z AUTO 00000KT 7SM CLR 26/23 A3004 200 84 1500 000/00 RMK AO2 SLP167 T02560228
53843K79J 79J20160703045511407/03/16 04:55:31  5-MIN K79J 030955Z AUTO 00000KT 7SM CLR 26/23 A3004 200 84 1500 000/00 RMK AO2 SLP167 T02560228
53843K79J 79J20160703050010707/03/16 05:00:31  5-MIN K79J 031000Z AUTO 00000KT 7SM CLR 26/23 A3004 200 84 1500 000/00 RMK AO2 T02560228
53843K79J 79J20160703050511007/03/16 05:05:31  5-MIN K79J 031005Z AUTO 00000KT 6SM HZ CLR 26/23 A3005 200 84 1500 000/00 RMK AO2 T02560228
53843K79J 79J20160703051011007/03/16 05:10:31  5-MIN K79J 031010Z AUTO 11003KT 5SM HZ CLR 26/23 A3005 200 84 1500 110/03 RMK AO2 T02560228
53843K79J 79J20160703051511007/03/16 05:15:31  5-MIN K79J 031015Z AUTO 00000KT 4SM HZ CLR 26/23 A3005 200 84 1500 000/00 RMK AO2 T02560228
53843K79J 79J20160703052011007/03/16 05:20:31  5-MIN K79J 031020Z AUTO 00000KT 5SM HZ CLR 26/23 A3005 200 84 1500 000/00 RMK AO2 T02560228
53843K79J 79J20160703052511007/03/16 05:25:31  5-MIN K79J 031025Z AUTO 00000KT 5SM HZ CLR 26/23 A3005 190 84 1500 000/00 RMK AO2 T02560228
53843K79J 79J20160703053011007/03/16 05:30:31  5-MIN K79J 031030Z AUTO 00000KT 4SM HZ CLR 25/22 A3005 200 84 1400 000/00 RMK AO2 T02500222
53843K79J 79J20160703053511007/03/16 05:35:31  5-MIN K79J 031035Z AUTO 00000KT 4SM HZ CLR 25/22 A3005 190 84 1400 000/00 RMK AO2 T02500222
53843K79J 79J20160703054011007/03/16 05:40:31  5-MIN K79J 031040Z AUTO 00000KT 4SM HZ CLR 25/22 A3005 190 84 1400 000/00 RMK AO2 T02500222
53843K79J 79J20160703054511007/03/16 05:45:31  5-MIN K79J 031045Z AUTO 00000KT 4SM HZ CLR 25/22 A3005 190 84 1400 000/00 RMK AO2 T02500222
53843K79J 79J20160703055011707/03/16 05:50:31  5-MIN K79J 031050Z AUTO 00000KT 4SM HZ CLR 25/22 A3005 190 84 1400 000/00 RMK AO2 SLP170 T02500222
53843K79J 79J20160703055511707/03/16 05:55:31  5-MIN K79J 031055Z AUTO 00000KT 3SM HZ CLR 25/22 A3005 190 84 1400 000/00 RMK AO2 SLP170 T02500222
53843K79J 79J20160703060011407/03/16 06:00:31  5-MIN K79J 031100Z AUTO 00000KT 2 1/2SM HZ CLR 25/22 A3005 190 84 1400 000/00 RMK AO2 T02500222
53843K79J 79J20160703060511407/03/16 06:05:31  5-MIN K79J 031105Z AUTO 00000KT 2 1/2SM HZ CLR 25/22 A3005 190 84 1400 000/00 RMK AO2 T02500222
53843K79J 79J20160703061011007/03/16 06:10:31  5-MIN K79J 031110Z AUTO 00000KT 3SM HZ CLR 25/22 A3005 190 84 1400 000/00 RMK AO2 T02500222
53843K79J 79J20160703061511007/03/16 06:15:31  5-MIN K79J 031115Z AUTO 00000KT 4SM HZ CLR 25/22 A3005 190 84 1400 000/00 RMK AO2 T02500222
53843K79J 79J20160703062011007/03/16 06:20:31  5-MIN K79J 031120Z AUTO 00000KT 3SM HZ CLR 26/23 A3005 190 84 1500 000/00 RMK AO2 T02560228
53843K79J 79J20160703062511007/03/16 06:25:31  5-MIN K79J 031125Z AUTO 00000KT 3SM HZ CLR 26/23 A3006 190 84 1500 000/00 RMK AO2 T02560228
53843K79J 79J20160703063011007/03/16 06:30:31  5-MIN K79J 031130Z AUTO 00000KT 3SM HZ CLR 26/23 A3006 190 84 1500 000/00 RMK AO2 T02560228
53843K79J 79J20160703063511007/03/16 06:35:31  5-MIN K79J 031135Z AUTO 00000KT 3SM HZ CLR 26/23 A3006 190 84 1500 000/00 RMK AO2 T02560228
53843K79J 79J20160703064011007/03/16 06:40:31  5-MIN K79J 031140Z AUTO 00000KT 4SM HZ CLR 26/23 A3006 180 81 1600 000/00 RMK AO2 T02610228
53843K79J 79J20160703064511007/03/16 06:45:31  5-MIN K79J 031145Z AUTO 00000KT 4SM HZ CLR 26/23 A3006 180 81 1500 000/00 RMK AO2 T02610228
53843K79J 79J20160703065013507/03/16 06:50:31  5-MIN K79J 031150Z AUTO 00000KT 3SM HZ CLR 26/23 A3006 180 81 1500 000/00 RMK AO2 SLP175 T02610228 10278 20250 55000
53843K79J 79J20160703065513507/03/16 06:55:31  5-MIN K79J 031155Z AUTO 00000KT 4SM HZ CLR 26/23 A3007 180 81 1500 000/00 RMK AO2 SLP175 T02610228 10278 20250 55000
53843K79J 79J20160703070011007/03/16 07:00:31  5-MIN K79J 031200Z AUTO 00000KT 4SM HZ CLR 27/23 A3007 180 79 1600 000/00 RMK AO2 T02670228
53843K79J 79J20160703070511007/03/16 07:05:31  5-MIN K79J 031205Z AUTO 00000KT 5SM HZ CLR 27/23 A3007 180 79 1700 000/00 RMK AO2 T02720233
53843K79J 79J20160703071010707/03/16 07:10:31  5-MIN K79J 031210Z AUTO 00000KT 7SM CLR 27/23 A3007 170 79 1700 000/00 RMK AO2 T02720233
53843K79J 79J20160703071510707/03/16 07:15:31  5-MIN K79J 031215Z AUTO 22003KT 9SM CLR 28/23 A3007 170 76 1700 220/03 RMK AO2 T02780233
53843K79J 79J20160703072010807/03/16 07:20:31  5-MIN K79J 031220Z AUTO 23004KT 10SM CLR 28/23 A3007 170 74 1800 230/04 RMK AO2 T02830233
53843K79J 79J20160703072510807/03/16 07:25:31  5-MIN K79J 031225Z AUTO 23004KT 10SM CLR 28/23 A3007 170 74 1800 230/04 RMK AO2 T02830233
53843K79J 79J20160703073010807/03/16 07:30:31  5-MIN K79J 031230Z AUTO VRB04KT 10SM CLR 28/23 A3008 170 74 1800 VRB/04 RMK AO2 T02830233
53843K79J 79J20160703073510807/03/16 07:35:31  5-MIN K79J 031235Z AUTO 24005KT 10SM CLR 28/23 A3008 170 74 1800 240/05 RMK AO2 T02830233
53843K79J 79J20160703074010807/03/16 07:40:31  5-MIN K79J 031240Z AUTO 22004KT 10SM CLR 29/23 A3008 160 71 1800 230/04 RMK AO2 T02890233
53843K79J 79J20160703074510807/03/16 07:45:31  5-MIN K79J 031245Z AUTO 24005KT 10SM CLR 29/23 A3008 160 71 1800 240/05 RMK AO2 T02890233
53843K79J 79J20160703075011507/03/16 07:50:31  5-MIN K79J 031250Z AUTO 24005KT 10SM CLR 29/23 A3008 160 71 1800 240/05 RMK AO2 SLP182 T02890233
53843K79J 79J20160703075511507/03/16 07:55:31  5-MIN K79J 031255Z AUTO 24004KT 10SM CLR 29/23 A3008 160 71 1800 240/04 RMK AO2 SLP182 T02890233
53843K79J 79J20160703080010807/03/16 08:00:31  5-MIN K79J 031300Z AUTO VRB04KT 10SM CLR 29/23 A3008 160 69 1900 VRB/04 RMK AO2 T02940233
53843K79J 79J20160703080510807/03/16 08:05:31  5-MIN K79J 031305Z AUTO 25003KT 10SM CLR 29/23 A3009 160 69 1900 250/03 RMK AO2 T02940233
53843K79J 79J20160703081010807/03/16 08:10:31  5-MIN K79J 031310Z AUTO 23006KT 10SM CLR 30/23 A3009 160 67 2000 230/06 RMK AO2 T03000233
53843K79J 79J20160703081510807/03/16 08:15:31  5-MIN K79J 031315Z AUTO 24005KT 10SM CLR 30/23 A3009 160 67 2000 240/05 RMK AO2 T03000233
53843K79J 79J20160703082010807/03/16 08:20:31  5-MIN K79J 031320Z AUTO 24005KT 10SM CLR 31/24 A3009 160 67 2000 240/05 RMK AO2 T03060239
53843K79J 79J20160703082510807/03/16 08:25:31  5-MIN K79J 031325Z AUTO 26005KT 10SM CLR 31/24 A3009 150 67 2000 260/05 RMK AO2 T03060239
53843K79J 79J20160703083010807/03/16 08:30:31  5-MIN K79J 031330Z AUTO 25005KT 10SM CLR 31/24 A3009 150 65 2100 260/05 RMK AO2 T03110239
53843K79J 79J20160703083510807/03/16 08:35:31  5-MIN K79J 031335Z AUTO 25004KT 10SM CLR 31/24 A3009 150 65 2100 250/04 RMK AO2 T03110239
53843K79J 79J20160703084010807/03/16 08:40:31  5-MIN K79J 031340Z AUTO VRB05KT 10SM CLR 31/24 A3009 150 65 2100 VRB/05 RMK AO2 T03110239
53843K79J 79J20160703084510807/03/16 08:45:31  5-MIN K79J 031345Z AUTO 28007KT 10SM CLR 32/24 A3009 150 63 2100 280/07 RMK AO2 T03170239
53843K79J 79J20160703085011507/03/16 08:50:31  5-MIN K79J 031350Z AUTO 27006KT 10SM CLR 32/24 A3009 150 63 2100 270/06 RMK AO2 SLP184 T03170239
53843K79J 79J20160703085511507/03/16 08:55:31  5-MIN K79J 031355Z AUTO VRB05KT 10SM CLR 32/24 A3010 150 63 2100 VRB/05 RMK AO2 SLP185 T03170239
53843K79J 79J20160703090010807/03/16 09:00:31  5-MIN K79J 031400Z AUTO 28009KT 10SM CLR 32/24 A3010 150 61 2200 280/09 RMK AO2 T03220239
53843K79J 79J20160703090510807/03/16 09:05:31  5-MIN K79J 031405Z AUTO 26007KT 10SM CLR 32/24 A3010 150 61 2200 260/07 RMK AO2 T03220239
53843K79J 79J20160703091010807/03/16 09:10:31  5-MIN K79J 031410Z AUTO 25008KT 10SM CLR 32/24 A3009 150 61 2200 250/08 RMK AO2 T03220239
53843K79J 79J20160703091510807/03/16 09:15:31  5-MIN K79J 031415Z AUTO 26006KT 10SM CLR 32/24 A3009 150 61 2200 260/06 RMK AO2 T03220239
53843K79J 79J20160704055011807/04/16 05:50:31  5-MIN K79J 041050Z AUTO 22004KT 10SM FEW033 27/24 A3008 170 84 1600 220/04 RMK AO2 SLP180 T02670239
53843K79J 79J20160704055511807/04/16 05:55:31  5-MIN K79J 041055Z AUTO 21003KT 10SM FEW033 27/24 A3008 160 84 1600 210/03 RMK AO2 SLP180 T02670239
53843K79J 79J20160704060011107/04/16 06:00:31  5-MIN K79J 041100Z AUTO 20003KT 10SM FEW033 27/24 A3008 160 84 1600 200/03 RMK AO2 T02670239
53843K79J 79J20160704060511107/04/16 06:05:31  5-MIN K79J 041105Z AUTO VRB03KT 10SM FEW034 27/24 A3008 160 84 1600 VRB/03 RMK AO2 T02670239
53843K79J 79J20160704061011107/04/16 06:10:31  5-MIN K79J 041110Z AUTO 21004KT 10SM FEW034 27/24 A3009 160 84 1600 220/04 RMK AO2 T02670239
53843K79J 79J20160704061511107/04/16 06:15:31  5-MIN K79J 041115Z AUTO 21005KT 10SM FEW034 27/24 A3009 160 84 1600 210/05 RMK AO2 T02670239
53843K79J 79J20160704062011107/04/16 06:20:31  5-MIN K79J 041120Z AUTO VRB04KT 10SM FEW034 27/24 A3009 150 82 1600 VRB/04 RMK AO2 T02720239
53843K79J 79J20160704062510807/04/16 06:25:31  5-MIN K79J 041125Z AUTO 24004KT 10SM CLR 27/24 A3009 150 82 1600 240/04 RMK AO2 T02720239
53843K79J 79J20160704063011107/04/16 06:30:31  5-MIN K79J 041130Z AUTO 23003KT 10SM FEW031 27/24 A3009 150 82 1600 230/03 RMK AO2 T02720239
53843K79J 79J20160704063511107/04/16 06:35:31  5-MIN K79J 041135Z AUTO 21004KT 10SM FEW031 27/24 A3010 150 82 1600 210/04 RMK AO2 T02720239
53843K79J 79J20160704064011107/04/16 06:40:31  5-MIN K79J 041140Z AUTO 20004KT 10SM FEW032 27/24 A3010 150 82 1600 200/04 RMK AO2 T02720239
53843K79J 79J20160704064511107/04/16 06:45:31  5-MIN K79J 041145Z AUTO 19004KT 10SM FEW032 27/24 A3010 150 82 1600 200/04 RMK AO2 T02720239
53843K79J 79J20160704065013607/04/16 06:50:31  5-MIN K79J 041150Z AUTO 20004KT 10SM FEW032 27/24 A3010 140 82 1600 200/04 RMK AO2 SLP188 T02720239 10278 20261 53002
53843K79J 79J20160704065514307/04/16 06:55:31  5-MIN K79J 041155Z AUTO VRB03KT 10SM FEW032 FEW060 27/24 A3011 140 82 1600 VRB/03 RMK AO2 SLP189 T02720239 10278 20261 53002
53843K79J 79J20160704070011107/04/16 07:00:31  5-MIN K79J 041200Z AUTO 00000KT 10SM SCT060 28/24 A3011 140 79 1700 000/00 RMK AO2 T02780239
53843K79J 79J20160704070511107/04/16 07:05:31  5-MIN K79J 041205Z AUTO 00000KT 10SM BKN060 28/24 A3011 140 76 1700 000/00 RMK AO2 T02830239
53843K79J 79J20160704071011107/04/16 07:10:31  5-MIN K79J 041210Z AUTO 00000KT 10SM SCT060 28/24 A3011 140 76 1700 000/00 RMK AO2 T02830239
53843K79J 79J20160704071511807/04/16 07:15:31  5-MIN K79J 041215Z AUTO 00000KT 10SM FEW046 SCT060 28/24 A3011 140 79 1700 000/00 RMK AO2 T02830244
53843K79J 79J20160704072011807/04/16 07:20:31  5-MIN K79J 041220Z AUTO 21003KT 10SM FEW046 BKN060 28/24 A3011 140 79 1700 210/03 RMK AO2 T02830244
53843K79J 79J20160704072511807/04/16 07:25:31  5-MIN K79J 041225Z AUTO 20003KT 10SM SCT045 BKN060 29/24 A3011 140 76 1800 200/03 RMK AO2 T02890244
53843K79J 79J20160704073011807/04/16 07:30:31  5-MIN K79J 041230Z AUTO 21004KT 10SM SCT043 BKN060 28/24 A3011 140 79 1700 210/04 RMK AO2 T02830244
53843K79J 79J20160704073511107/04/16 07:35:31  5-MIN K79J 041235Z AUTO 22003KT 10SM SCT043 28/24 A3011 140 79 1700 220/03 RMK AO2 T02830244
53843K79J 79J20160704074011107/04/16 07:40:31  5-MIN K79J 041240Z AUTO VRB03KT 10SM SCT044 29/24 A3011 140 76 1800 VRB/03 RMK AO2 T02890244
53843K79J 79J20160704074511107/04/16 07:45:31  5-MIN K79J 041245Z AUTO VRB03KT 10SM SCT044 29/24 A3011 140 74 1900 VRB/03 RMK AO2 T02940244
53843K79J 79J20160704075011807/04/16 07:50:31  5-MIN K79J 041250Z AUTO VRB03KT 10SM FEW044 29/24 A3011 140 74 1900 VRB/03 RMK AO2 SLP190 T02940244
53843K79J 79J20160704075511807/04/16 07:55:31  5-MIN K79J 041255Z AUTO 19006KT 10SM FEW044 30/24 A3011 130 72 1900 200/06 RMK AO2 SLP191 T03000244
53843K79J 79J20160704080010807/04/16 08:00:31  5-MIN K79J 041300Z AUTO 23003KT 10SM CLR 30/24 A3012 130 72 1900 230/03 RMK AO2 T03000244
53843K79J 79J20160704080510807/04/16 08:05:31  5-MIN K79J 041305Z AUTO VRB04KT 10SM CLR 30/24 A3011 130 72 1900 VRB/04 RMK AO2 T03000244
53843K79J 79J20160704081010807/04/16 08:10:31  5-MIN K79J 041310Z AUTO 24004KT 10SM CLR 30/24 A3012 130 72 1900 240/04 RMK AO2 T03000244
53843K79J 79J20160704081510807/04/16 08:15:31  5-MIN K79J 041315Z AUTO VRB06KT 10SM CLR 31/24 A3011 130 69 2000 VRB/06 RMK AO2 T03060244
53843K79J 79J20160704082010807/04/16 08:20:31  5-MIN K79J 041320Z AUTO 21004KT 10SM CLR 31/24 A3011 130 69 2000 210/04 RMK AO2 T03060244
53843K79J 79J20160704082510807/04/16 08:25:31  5-MIN K79J 041325Z AUTO VRB04KT 10SM CLR 31/24 A3011 130 67 2000 VRB/04 RMK AO2 T03110244
53843K79J 79J20160704083010807/04/16 08:30:31  5-MIN K79J 041330Z AUTO VRB05KT 10SM CLR 31/24 A3012 130 67 2000 VRB/05 RMK AO2 T03110244
53843K79J 79J20160704083510807/04/16 08:35:31  5-MIN K79J 041335Z AUTO VRB04KT 10SM CLR 32/24 A3012 130 65 2100 VRB/04 RMK AO2 T03170244
53843K79J 79J20160704084010807/04/16 08:40:31  5-MIN K79J 041340Z AUTO VRB06KT 10SM CLR 32/24 A3012 130 65 2100 VRB/06 RMK AO2 T03170244
53843K79J 79J20160704084510807/04/16 08:45:31  5-MIN K79J 041345Z AUTO 23006KT 10SM CLR 32/24 A3012 130 65 2100 230/06 RMK AO2 T03170244
53843K79J 79J20160704085011507/04/16 08:50:31  5-MIN K79J 041350Z AUTO VRB04KT 10SM CLR 32/24 A3012 130 65 2100 VRB/04 RMK AO2 SLP192 T03170244
53843K79J 79J20160704085511507/04/16 08:55:31  5-MIN K79J 041355Z AUTO 00000KT 10SM CLR 32/24 A3011 140 63 2200 000/00 RMK AO2 SLP190 T03220244
53843K79J 79J20160704090010807/04/16 09:00:31  5-MIN K79J 041400Z AUTO 23005KT 10SM CLR 32/24 A3011 140 63 2200 240/05 RMK AO2 T03220244
53843K79J 79J20160704090510807/04/16 09:05:31  5-MIN K79J 041405Z AUTO VRB06KT 10SM CLR 32/24 A3011 140 63 2200 VRB/06 RMK AO2 T03220244
53843K79J 79J20160704091011107/04/16 09:10:31  5-MIN K79J 041410Z AUTO 24007KT 10SM FEW024 32/24 A3011 130 61 2200 240/07 RMK AO2 T03220239
53843K79J 79J20160704091511107/04/16 09:15:31  5-MIN K79J 041415Z AUTO 22005KT 10SM SCT024 32/24 A3011 140 63 2200 220/05 RMK AO2 T03220244
53843K79J 79J20160704092011107/04/16 09:20:31  5-MIN K79J 041420Z AUTO 20005KT 10SM SCT023 32/24 A3011 130 61 2200 200/05 RMK AO2 T03220239
53843K79J 79J20160704092511807/04/16 09:25:31  5-MIN K79J 041425Z AUTO VRB05KT 10SM BKN021 BKN029 32/24 A3011 130 63 2200 VRB/05 RMK AO2 T03220244
53843K79J 79J20160704093012507/04/16 09:30:31  5-MIN K79J 041430Z AUTO 22006KT 10SM SCT021 BKN025 BKN046 32/24 A3012 130 63 2100 230/06 RMK AO2 T03170239
53843K79J 79J20160704093512507/04/16 09:35:31  5-MIN K79J 041435Z AUTO 20004KT 10SM SCT021 BKN025 BKN046 32/24 A3011 130 63 2100 210/04 RMK AO2 T03170239
53843K79J 79J20160704094012507/04/16 09:40:31  5-MIN K79J 041440Z AUTO 25007KT 10SM SCT021 SCT028 BKN046 32/24 A3012 130 61 2200 250/07 RMK AO2 T03220239
53843K79J 79J20160704094512507/04/16 09:45:31  5-MIN K79J 041445Z AUTO 24006KT 10SM FEW021 SCT025 BKN046 33/24 A3012 130 59 2200 250/06 RMK AO2 T03280239
53843K79J 79J20160704095013807/04/16 09:50:31  5-MIN K79J 041450Z AUTO 27006KT 10SM FEW021 SCT037 BKN048 32/23 A3012 130 59 2200 270/06 RMK AO2 SLP192 T03220233 53019
53843K79J 79J20160704095513107/04/16 09:55:31  5-MIN K79J 041455Z AUTO VRB05KT 10SM FEW037 BKN048 33/23 A3012 130 57 2200 VRB/05 RMK AO2 SLP192 T03280233 53019
53843K79J 79J20160704100011807/04/16 10:00:31  5-MIN K79J 041500Z AUTO 20005KT 10SM FEW037 SCT048 32/24 A3012 130 61 2200 200/05 RMK AO2 T03220239
53843K79J 79J20160704100511807/04/16 10:05:31  5-MIN K79J 041505Z AUTO 22005KT 10SM FEW037 FEW048 33/24 A3012 130 61 2200 220/05 RMK AO2 T03280244
53843K79J 79J20160704101011807/04/16 10:10:31  5-MIN K79J 041510Z AUTO VRB05KT 10SM FEW037 FEW048 33/24 A3012 130 59 2300 VRB/05 RMK AO2 T03330244
53843K79J 79J20160704101511107/04/16 10:15:31  5-MIN K79J 041515Z AUTO 00000KT 10SM FEW048 34/24 A3012 130 55 2300 000/00 RMK AO2 T03390239
53843K79J 79J20160704102011107/04/16 10:20:31  5-MIN K79J 041520Z AUTO VRB05KT 10SM FEW030 34/24 A3012 130 53 2400 VRB/05 RMK AO2 T03440239
53843K79J 79J20160704102511107/04/16 10:25:31  5-MIN K79J 041525Z AUTO 26007KT 10SM FEW030 34/24 A3012 130 53 2400 270/07 RMK AO2 T03440239
53843K79J 79J20160704103011807/04/16 10:30:31  5-MIN K79J 041530Z AUTO 27008KT 10SM FEW030 SCT060 34/23 A3012 130 53 2400 270/08 RMK AO2 T03390233
53843K79J 79J20160704103512507/04/16 10:35:31  5-MIN K79J 041535Z AUTO 28008KT 10SM FEW029 SCT035 BKN065 34/23 A3012 130 52 2400 280/08 RMK AO2 T03440233
53843K79J 79J20160704104012507/04/16 10:40:31  5-MIN K79J 041540Z AUTO 28008KT 10SM SCT029 SCT035 BKN042 34/23 A3012 130 53 2400 280/08 RMK AO2 T03390233
53843K79J 79J20160704104512507/04/16 10:45:31  5-MIN K79J 041545Z AUTO 26007KT 10SM BKN029 BKN041 BKN070 33/23 A3012 130 57 2200 260/07 RMK AO2 T03280233
53843K79J 79J20160704105013207/04/16 10:50:31  5-MIN K79J 041550Z AUTO 26006KT 10SM SCT029 SCT035 BKN048 33/23 A3012 130 57 2200 260/06 RMK AO2 SLP192 T03280233
53843K79J 79J20160704105513207/04/16 10:55:31  5-MIN K79J 041555Z AUTO 25006KT 10SM FEW029 SCT037 BKN050 32/23 A3012 130 59 2200 260/06 RMK AO2 SLP193 T03220233
53843K79J 79J20160704110013407/04/16 11:00:31  5-MIN K79J 041600Z AUTO 24008KT 200V260 10SM FEW029 SCT048 34/23 A3011 130 53 2400 240/08 200V260 RMK AO2 T03390233
53843K79J 79J20160704110512507/04/16 11:05:31  5-MIN K79J 041605Z AUTO 24010KT 10SM FEW029 SCT045 SCT050 34/23 A3011 140 51 2400 240/10 RMK AO2 T03390228
53843K79J 79J20160704111012507/04/16 11:10:31  5-MIN K79J 041610Z AUTO 23008KT 10SM FEW031 SCT045 SCT050 33/23 A3012 130 53 2300 230/08 RMK AO2 T03330228
53843K79J 79J20160704111511807/04/16 11:15:31  5-MIN K79J 041615Z AUTO 26007KT 10SM FEW033 SCT047 34/23 A3012 130 53 2300 260/07 RMK AO2 T03390233
53843K79J 79J20160704112011807/04/16 11:20:31  5-MIN K79J 041620Z AUTO 27008KT 10SM FEW021 FEW033 35/23 A3012 130 50 2500 280/08 RMK AO2 T03500233
53843K79J 79J20160704112512507/04/16 11:25:31  5-MIN K79J 041625Z AUTO 25007KT 10SM FEW019 FEW033 FEW044 35/23 A3012 130 50 2500 260/07 RMK AO2 T03500233
53843K79J 79J20160704113012407/04/16 11:30:31  5-MIN K79J 041630Z AUTO 26009G16KT 10SM FEW032 SCT042 35/23 A3011 130 48 2500 260/09G16 RMK AO2 T03500228
53843K79J 79J20160704113512407/04/16 11:35:31  5-MIN K79J 041635Z AUTO 26011G17KT 10SM FEW032 FEW042 35/23 A3011 140 50 2500 260/11G17 RMK AO2 T03500233
53843K79J 79J20160704114011707/04/16 11:40:31  5-MIN K79J 041640Z AUTO 26011G17KT 10SM FEW042 35/23 A3011 140 48 2500 260/11G17 RMK AO2 T03500228
53843K79J 79J20160704114511807/04/16 11:45:31  5-MIN K79J 041645Z AUTO 21008KT 10SM FEW033 SCT042 34/23 A3011 140 50 2400 210/08 RMK AO2 T03440228
53843K79J 79J20160704115013107/04/16 11:50:31  5-MIN K79J 041650Z AUTO 20010G16KT 10SM SCT035 SCT044 34/23 A3010 140 50 2400 210/10G16 RMK AO2 SLP188 T03440228
53843K79J 79J20160704115513107/04/16 11:55:31  5-MIN K79J 041655Z AUTO 22010G16KT 10SM SCT035 SCT044 36/22 A3011 140 45 2500 220/10G16 RMK AO2 SLP189 T03560222
53843K79J 79J20160704120011707/04/16 12:00:31  5-MIN K79J 041700Z AUTO 23009G15KT 10SM FEW035 36/22 A3011 140 45 2500 230/09G15 RMK AO2 T03560222
53843K79J 79J20160704120511707/04/16 12:05:31  5-MIN K79J 041705Z AUTO 20010G15KT 10SM FEW035 36/22 A3010 140 44 2600 210/10G15 RMK AO2 T03610222
53843K79J 79J20160704121011707/04/16 12:10:31  5-MIN K79J 041710Z AUTO 22011G19KT 10SM FEW035 36/22 A3010 140 42 2600 220/11G19 RMK AO2 T03610217
53843K79J 79J20160704121511707/04/16 12:15:31  5-MIN K79J 041715Z AUTO 20011G19KT 10SM FEW037 36/22 A3010 140 45 2500 200/11G19 RMK AO2 T03560222
53843K79J 79J20160704122011407/04/16 12:20:31  5-MIN K79J 041720Z AUTO 22010G17KT 10SM CLR 35/22 A3010 140 47 2500 230/10G17 RMK AO2 T03500222
53843K79J 79J20160704122512407/04/16 12:25:31  5-MIN K79J 041725Z AUTO 19009KT 150V220 10SM CLR 35/23 A3010 140 48 2500 190/09 150V220 RMK AO2 T03500228
53843K79J 79J20160704123012407/04/16 12:30:31  5-MIN K79J 041730Z AUTO 19008KT 170V230 10SM CLR 35/23 A3010 140 50 2500 190/08 170V230 RMK AO2 T03500233
53843K79J 79J20160704123510807/04/16 12:35:31  5-MIN K79J 041735Z AUTO 22009KT 10SM CLR 35/23 A3010 150 50 2500 220/09 RMK AO2 T03500233
53843K79J 79J20160704124012407/04/16 12:40:31  5-MIN K79J 041740Z AUTO 21009KT 180V250 10SM CLR 34/24 A3010 150 53 2400 210/09 180V250 RMK AO2 T03440239
53843K79J 79J20160704124512407/04/16 12:45:31  5-MIN K79J 041745Z AUTO 21007KT 180V260 10SM CLR 34/24 A3009 150 53 2400 210/07 180V260 RMK AO2 T03440239
53843K79J 79J20160704125013307/04/16 12:50:31  5-MIN K79J 041750Z AUTO 22009KT 10SM CLR 35/23 A3009 150 50 2500 230/09 RMK AO2 SLP184 T03500233 10361 20278 52003
53843K79J 79J20160704125513907/04/16 12:55:31  5-MIN K79J 041755Z AUTO 22011G15KT 10SM CLR 35/23 A3009 160 50 2500 220/11G15 RMK AO2 SLP183 T03500233 10361 20278 52003
53843K79J 79J20160704130013007/04/16 13:00:31  5-MIN K79J 041800Z AUTO 23009G17KT 190V260 10SM CLR 35/23 A3009 160 50 2500 240/09G17 190V260 RMK AO2 T03500233
53843K79J 79J20160704130511407/04/16 13:05:31  5-MIN K79J 041805Z AUTO 21008G17KT 10SM CLR 36/23 A3009 160 47 2600 210/08G17 RMK AO2 T03560228
53843K79J 79J20160704131013007/04/16 13:10:31  5-MIN K79J 041810Z AUTO 21007G15KT 170V240 10SM CLR 36/23 A3009 160 47 2600 220/07G15 170V240 RMK AO2 T03560228
53843K79J 79J20160704131512407/04/16 13:15:31  5-MIN K79J 041815Z AUTO 25007KT 220V280 10SM CLR 36/23 A3009 160 47 2600 250/07 220V280 RMK AO2 T03560228
53843K79J 79J20160704132009807/04/16 13:20:31  5-MIN K79J 041820Z AUTO 10SM CLR 36/22 A3009 160 45 2600 M /M RMK AO2 T03560222
53843K79J 79J20160704132512707/04/16 13:25:31  5-MIN K79J 041825Z AUTO 24008KT 170V270 10SM FEW041 36/22 A3009 160 42 2600 240/08 170V270 RMK AO2 T03610217
53843K79J 79J20160704133011407/04/16 13:30:31  5-MIN K79J 041830Z AUTO 22009G15KT 10SM CLR 36/22 A3009 160 45 2600 230/09G15 RMK AO2 T03560222
53843K79J 79J20160704133512707/04/16 13:35:31  5-MIN K79J 041835Z AUTO 20008KT 170V230 10SM FEW040 36/22 A3009 160 45 2600 210/08 170V230 RMK AO2 T03560222
53843K79J 79J20160704134012707/04/16 13:40:31  5-MIN K79J 041840Z AUTO 23009KT 190V250 10SM FEW040 36/22 A3009 160 45 2600 230/09 190V250 RMK AO2 T03560222
53843K79J 79J20160704134511107/04/16 13:45:31  5-MIN K79J 041845Z AUTO 25009KT 10SM FEW040 36/22 A3009 160 44 2600 250/09 RMK AO2 T03610222
53843K79J 79J20160704135011807/04/16 13:50:31  5-MIN K79J 041850Z AUTO 23008KT 10SM FEW040 36/22 A3009 160 44 2600 230/08 RMK AO2 SLP181 T03610222
53843K79J 79J20160704135511807/04/16 13:55:31  5-MIN K79J 041855Z AUTO 25011KT 10SM FEW040 36/22 A3009 160 44 2600 250/11 RMK AO2 SLP182 T03610222
53843K79J 79J20160704140011707/04/16 14:00:31  5-MIN K79J 041900Z AUTO 25009G14KT 10SM FEW042 36/22 A3008 160 44 2600 250/09G14 RMK AO2 T03610222
53843K79J 79J20160704140511707/04/16 14:05:31  5-MIN K79J 041905Z AUTO 25011G15KT 10SM SCT042 36/22 A3009 160 44 2600 250/11G15 RMK AO2 T03610222
53843K79J 79J20160704141011107/04/16 14:10:31  5-MIN K79J 041910Z AUTO 26009KT 10SM BKN042 36/22 A3008 160 45 2600 270/09 RMK AO2 T03560222
53843K79J 79J20160704141511107/04/16 14:15:31  5-MIN K79J 041915Z AUTO 24009KT 10SM BKN042 35/22 A3008 160 47 2500 240/09 RMK AO2 T03500222
53843K79J 79J20160704142011707/04/16 14:20:31  5-MIN K79J 041920Z AUTO VRB05G14KT 10SM SCT043 36/22 A3008 160 44 2600 VRB/05G14 RMK AO2 T03560217
53843K79J 79J20160704142511107/04/16 14:25:31  5-MIN K79J 041925Z AUTO 22009KT 10SM SCT043 37/21 A3008 170 38 2700 230/09 RMK AO2 T03670206
53843K79J 79J20160704143011707/04/16 14:30:31  5-MIN K79J 041930Z AUTO 22011G17KT 10SM SCT043 36/19 A3008 170 35 2600 220/11G17 RMK AO2 T03610189
53843K79J 79J20160704143513307/04/16 14:35:31  5-MIN K79J 041935Z AUTO 22008G17KT 200V270 10SM FEW043 36/19 A3008 170 37 2600 220/08G17 200V270 RMK AO2 T03560189
53843K79J 79J20160704144011107/04/16 14:40:31  5-MIN K79J 041940Z AUTO 21007KT 10SM FEW045 36/19 A3008 170 38 2600 210/07 RMK AO2 T03560194
53843K79J 79J20160704144511407/04/16 14:45:31  5-MIN K79J 041945Z AUTO 23009G16KT 10SM CLR 36/19 A3008 170 38 2600 230/09G16 RMK AO2 T03560194
53843K79J 79J20160704145012107/04/16 14:50:31  5-MIN K79J 041950Z AUTO 23010G16KT 10SM CLR 36/19 A3008 170 37 2600 230/10G16 RMK AO2 SLP179 T03560189
53843K79J 79J20160704145511507/04/16 14:55:31  5-MIN K79J 041955Z AUTO 23008KT 10SM CLR 36/19 A3008 170 38 2600 230/08 RMK AO2 SLP178 T03560194
53843K79J 79J20160704150013007/04/16 15:00:31  5-MIN K79J 042000Z AUTO 25007G15KT 200V290 10SM CLR 36/19 A3007 170 35 2600 250/07G15 200V290 RMK AO2 T03610189
53843K79J 79J20160704150511407/04/16 15:05:31  5-MIN K79J 042005Z AUTO 23007G15KT 10SM CLR 37/19 A3007 180 36 2700 230/07G15 RMK AO2 T03670194
53843K79J 79J20160704151010807/04/16 15:10:31  5-MIN K79J 042010Z AUTO 23008KT 10SM CLR 37/20 A3006 180 36 2800 230/08 RMK AO2 T03720200
53843K79J 79J20160704151513007/04/16 15:15:31  5-MIN K79J 042015Z AUTO 22008G15KT 170V260 10SM CLR 36/21 A3006 180 39 2700 220/08G15 170V260 RMK AO2 T03610206
53843K79J 79J20160704152011407/04/16 15:20:31  5-MIN K79J 042020Z AUTO VRB06G15KT 10SM CLR 36/21 A3006 180 42 2600 VRB/06G15 RMK AO2 T03560211
53843K79J 79J20160704152510807/04/16 15:25:31  5-MIN K79J 042025Z AUTO VRB06KT 10SM CLR 35/21 A3006 180 43 2500 VRB/06 RMK AO2 T03500211
53843K79J 79J20160704153010807/04/16 15:30:31  5-MIN K79J 042030Z AUTO VRB06KT 10SM CLR 35/21 A3006 180 43 2500 VRB/06 RMK AO2 T03500211
53843K79J 79J20160704153510807/04/16 15:35:31  5-MIN K79J 042035Z AUTO 22006KT 10SM CLR 35/21 A3006 180 43 2500 220/06 RMK AO2 T03500211
53843K79J 79J20160704154010807/04/16 15:40:31  5-MIN K79J 042040Z AUTO 19006KT 10SM CLR 35/22 A3006 180 45 2500 200/06 RMK AO2 T03500217
53843K79J 79J20160704154510807/04/16 15:45:31  5-MIN K79J 042045Z AUTO VRB06KT 10SM CLR 35/22 A3006 180 45 2500 VRB/06 RMK AO2 T03500217
53843K79J 79J20160704155013707/04/16 15:50:31  5-MIN K79J 042050Z AUTO 21008KT 170V240 10SM CLR 35/22 A3006 180 45 2500 210/08 170V240 RMK AO2 SLP173 T03500217 58009
53843K79J 79J20160704155512107/04/16 15:55:31  5-MIN K79J 042055Z AUTO VRB06KT 10SM CLR 34/22 A3006 180 46 2500 VRB/06 RMK AO2 SLP173 T03440217 58009
53843K79J 79J20160704160010807/04/16 16:00:31  5-MIN K79J 042100Z AUTO 22006KT 10SM CLR 34/22 A3006 180 46 2500 220/06 RMK AO2 T03440217
53843K79J 79J20160704160510807/04/16 16:05:31  5-MIN K79J 042105Z AUTO 21005KT 10SM CLR 34/22 A3006 190 46 2500 210/05 RMK AO2 T03440217
53843K79J 79J20160704161010807/04/16 16:10:31  5-MIN K79J 042110Z AUTO 21007KT 10SM CLR 35/22 A3006 190 45 2500 210/07 RMK AO2 T03500217
53843K79J 79J20160704161510807/04/16 16:15:31  5-MIN K79J 042115Z AUTO 24008KT 10SM CLR 36/21 A3006 190 42 2600 240/08 RMK AO2 T03560211
53843K79J 79J20160704162010807/04/16 16:20:31  5-MIN K79J 042120Z AUTO 22008KT 10SM CLR 36/21 A3005 190 42 2600 220/08 RMK AO2 T03560211
53843K79J 79J20160704162513007/04/16 16:25:31  5-MIN K79J 042125Z AUTO 20008G15KT 170V230 10SM CLR 36/21 A3005 190 42 2600 200/08G15 170V230 RMK AO2 T03560211
53843K79J 79J20160704163011407/04/16 16:30:31  5-MIN K79J 042130Z AUTO 22007G15KT 10SM CLR 36/21 A3005 190 41 2700 220/07G15 RMK AO2 T03610211
53843K79J 79J20160704163510807/04/16 16:35:31  5-MIN K79J 042135Z AUTO VRB05KT 10SM CLR 36/21 A3005 190 41 2700 VRB/05 RMK AO2 T03610211
53843K79J 79J20160704164012407/04/16 16:40:31  5-MIN K79J 042140Z AUTO 21008KT 170V240 10SM CLR 36/21 A3005 200 41 2700 210/08 170V240 RMK AO2 T03610211
53843K79J 79J20160704164512407/04/16 16:45:31  5-MIN K79J 042145Z AUTO 20007KT 160V240 10SM CLR 36/22 A3005 200 44 2600 210/07 160V240 RMK AO2 T03560217
53843K79J 79J20160704165011507/04/16 16:50:31  5-MIN K79J 042150Z AUTO 21006KT 10SM CLR 36/22 A3004 200 44 2600 210/06 RMK AO2 SLP168 T03560217
53843K79J 79J20160704165511507/04/16 16:55:31  5-MIN K79J 042155Z AUTO 24008KT 10SM CLR 36/22 A3004 200 42 2700 240/08 RMK AO2 SLP167 T03610217
53843K79J 79J20160704170010807/04/16 17:00:31  5-MIN K79J 042200Z AUTO 22008KT 10SM CLR 36/22 A3004 200 44 2600 220/08 RMK AO2 T03560217
53843K79J 79J20160704170510807/04/16 17:05:31  5-MIN K79J 042205Z AUTO 23008KT 10SM CLR 36/22 A3004 200 45 2600 230/08 RMK AO2 T03560222
53843K79J 79J20160704171011107/04/16 17:10:31  5-MIN K79J 042210Z AUTO VRB05KT 10SM FEW045 35/22 A3004 200 47 2600 VRB/05 RMK AO2 T03500222
53843K79J 79J20160704171511107/04/16 17:15:31  5-MIN K79J 042215Z AUTO 20005KT 10SM FEW045 35/22 A3004 200 47 2600 200/05 RMK AO2 T03500222
53843K79J 79J20160704172011107/04/16 17:20:31  5-MIN K79J 042220Z AUTO 22006KT 10SM FEW045 35/22 A3004 200 47 2600 220/06 RMK AO2 T03500222
53843K79J 79J20160704172512007/04/16 17:25:31  5-MIN K79J 042225Z AUTO 21009KT 10SM TS SCT045 34/22 A3004 200 46 2500 210/09 RMK AO2 TSB22 T03440217
53843K79J 79J20160704173013407/04/16 17:30:31  5-MIN K79J 042230Z AUTO 21009KT 10SM TS SCT045 SCT080 BKN090 34/22 A3004 200 50 2400 210/09 RMK AO2 TSB22 T03390222
53843K79J 79J20160704173514907/04/16 17:35:31  5-MIN K79J 042235Z AUTO 22006KT 10SM -TSRA SCT043 BKN075 BKN090 33/23 A3004 200 53 2400 230/06 RMK AO2 RAB35 TSB22 P0000 T03330228
53843K79J 79J20160704174014807/04/16 17:40:31  5-MIN K79J 042240Z AUTO VRB04KT 3SM RA SCT045 BKN050 BKN075 32/24 A3004 200 61 2200 VRB/04 RMK AO2 RAB35 TSB22E38 P0002 T03220239
53843K79J 79J20160704174514907/04/16 17:45:31  5-MIN K79J 042245Z AUTO 20003KT 3SM -RA SCT042 BKN055 BKN075 31/24 A3004 200 65 2100 200/03 RMK AO2 RAB35 TSB22E38 P0002 T03110239
53843K79J 79J20160705040511007/05/16 04:05:31  5-MIN K79J 050905Z AUTO 00000KT 6SM BR CLR 27/24 A3007 170 87 1600 000/00 RMK AO2 T02670244
53843K79J 79J20160705041011007/05/16 04:10:31  5-MIN K79J 050910Z AUTO 00000KT 5SM HZ CLR 27/24 A3007 170 84 1600 000/00 RMK AO2 T02670239
53843K79J 79J20160705041511007/05/16 04:15:31  5-MIN K79J 050915Z AUTO 20003KT 5SM HZ CLR 27/24 A3007 170 84 1600 200/03 RMK AO2 T02670239
53843K79J 79J20160705042011007/05/16 04:20:31  5-MIN K79J 050920Z AUTO 20003KT 5SM HZ CLR 27/24 A3007 170 84 1600 200/03 RMK AO2 T02670239
53843K79J 79J20160705042511007/05/16 04:25:31  5-MIN K79J 050925Z AUTO 00000KT 4SM HZ CLR 27/24 A3007 170 84 1600 000/00 RMK AO2 T02670239
53843K79J 79J20160705043011007/05/16 04:30:31  5-MIN K79J 050930Z AUTO 00000KT 5SM HZ CLR 27/24 A3008 170 84 1600 000/00 RMK AO2 T02670239
53843K79J 79J20160705043511007/05/16 04:35:31  5-MIN K79J 050935Z AUTO 00000KT 5SM HZ CLR 27/24 A3008 170 84 1600 000/00 RMK AO2 T02670239
53843K79J 79J20160705044011007/05/16 04:40:31  5-MIN K79J 050940Z AUTO 00000KT 5SM HZ CLR 27/24 A3008 170 84 1600 000/00 RMK AO2 T02670239
53843K79J 79J20160705044511007/05/16 04:45:31  5-MIN K79J 050945Z AUTO 00000KT 5SM HZ CLR 27/24 A3008 160 84 1600 000/00 RMK AO2 T02670239
53843K79J 79J20160705045011707/05/16 04:50:31  5-MIN K79J 050950Z AUTO 00000KT 5SM HZ CLR 27/24 A3008 160 84 1600 000/00 RMK AO2 SLP181 T02670239
53843K79J 79J20160705045511707/05/16 04:55:31  5-MIN K79J 050955Z AUTO 00000KT 5SM HZ CLR 27/24 A3009 160 84 1600 000/00 RMK AO2 SLP182 T02670239
53843K79J 79J20160705050011007/05/16 05:00:31  5-MIN K79J 051000Z AUTO 00000KT 4SM HZ CLR 27/24 A3009 160 84 1600 000/00 RMK AO2 T02670239
53843K79J 79J20160705050511007/05/16 05:05:31  5-MIN K79J 051005Z AUTO 00000KT 4SM HZ CLR 27/24 A3009 160 84 1600 000/00 RMK AO2 T02670239
53843K79J 79J20160705051007307/05/16 05:10:31  5-MIN K79J 051010Z AUTO 00000KT M M M 000/00 RMK AO2 $
53843K79J 79J20160705051510107/05/16 05:15:31  5-MIN K79J 051015Z AUTO 00000KT 27/24 A3009 160 84 1600 000/00 RMK AO2 T02670239 $
53843K79J 79J20160705052010807/05/16 05:20:31  5-MIN K79J 051020Z AUTO 00000KT 4SM HZ 27/24 A3009 150 84 1600 000/00 RMK AO2 T02670239 $
53843K79J 79J20160705052510807/05/16 05:25:31  5-MIN K79J 051025Z AUTO 00000KT 4SM HZ 27/24 A3009 150 84 1600 000/00 RMK AO2 T02670239 $
53843K79J 79J20160705053010807/05/16 05:30:31  5-MIN K79J 051030Z AUTO 00000KT 4SM HZ 27/24 A3009 150 84 1600 000/00 RMK AO2 T02670239 $
53843K79J 79J20160705053510807/05/16 05:35:31  5-MIN K79J 051035Z AUTO 19003KT 4SM HZ 27/24 A3009 150 84 1600 200/03 RMK AO2 T02670239 $
53843K79J 79J20160705054011207/05/16 05:40:31  5-MIN K79J 051040Z AUTO 19003KT 4SM HZ CLR 27/24 A3009 150 84 1600 200/03 RMK AO2 T02670239 $
53843K79J 79J20160705054511207/05/16 05:45:31  5-MIN K79J 051045Z AUTO 00000KT 3SM HZ CLR 27/24 A3009 150 84 1600 000/00 RMK AO2 T02670239 $
53843K79J 79J20160705055011907/05/16 05:50:31  5-MIN K79J 051050Z AUTO 00000KT 3SM HZ CLR 27/24 A3010 150 84 1600 000/00 RMK AO2 SLP187 T02670239 $
53843K79J 79J20160705055511907/05/16 05:55:31  5-MIN K79J 051055Z AUTO 00000KT 3SM HZ CLR 27/24 A3010 150 84 1600 000/00 RMK AO2 SLP187 T02670239 $
53843K79J 79J20160705060011207/05/16 06:00:31  5-MIN K79J 051100Z AUTO 23003KT 4SM HZ CLR 27/24 A3010 140 84 1600 230/03 RMK AO2 T02670239 $
53843K79J 79J20160705060511207/05/16 06:05:31  5-MIN K79J 051105Z AUTO 00000KT 5SM HZ CLR 27/24 A3010 140 84 1600 000/00 RMK AO2 T02670239 $
53843K79J 79J20160705061011207/05/16 06:10:31  5-MIN K79J 051110Z AUTO 00000KT 5SM HZ CLR 27/24 A3010 140 84 1600 000/00 RMK AO2 T02670239 $
53843K79J 79J20160705061511207/05/16 06:15:31  5-MIN K79J 051115Z AUTO 00000KT 5SM HZ CLR 27/24 A3010 140 84 1600 000/00 RMK AO2 T02670239 $
53843K79J 79J20160705062011207/05/16 06:20:31  5-MIN K79J 051120Z AUTO 00000KT 5SM HZ CLR 27/24 A3011 140 84 1600 000/00 RMK AO2 T02670239 $
53843K79J 79J20160705062511207/05/16 06:25:31  5-MIN K79J 051125Z AUTO 00000KT 4SM HZ CLR 27/24 A3010 140 84 1600 000/00 RMK AO2 T02670239 $
53843K79J 79J20160705063011207/05/16 06:30:31  5-MIN K79J 051130Z AUTO 20003KT 4SM HZ CLR 27/24 A3011 140 82 1600 200/03 RMK AO2 T02720239 $
53843K79J 79J20160705063511207/05/16 06:35:31  5-MIN K79J 051135Z AUTO 19003KT 4SM HZ CLR 27/24 A3011 140 82 1600 200/03 RMK AO2 T02720239 $
53843K79J 79J20160705064011207/05/16 06:40:31  5-MIN K79J 051140Z AUTO 19003KT 4SM HZ CLR 27/24 A3011 140 84 1600 200/03 RMK AO2 T02720244 $
53843K79J 79J20160705064511207/05/16 06:45:31  5-MIN K79J 051145Z AUTO 20003KT 5SM HZ CLR 27/24 A3011 140 84 1600 200/03 RMK AO2 T02720244 $
53843K79J 79J20160705065013707/05/16 06:50:31  5-MIN K79J 051150Z AUTO 22004KT 5SM HZ CLR 27/24 A3011 130 84 1600 220/04 RMK AO2 SLP191 70002 T02720244 10283 20261 $
53843K79J 79J20160705065513707/05/16 06:55:31  5-MIN K79J 051155Z AUTO 22003KT 6SM HZ CLR 28/24 A3011 130 82 1700 220/03 RMK AO2 SLP191 70002 T02780244 10283 20261 $
53843K79J 79J20160705070010907/05/16 07:00:31  5-MIN K79J 051200Z AUTO VRB04KT 7SM CLR 28/24 A3011 130 82 1700 VRB/04 RMK AO2 T02780244 $
53843K79J 79J20160705070510907/05/16 07:05:31  5-MIN K79J 051205Z AUTO 25004KT 7SM CLR 28/24 A3012 130 82 1700 250/04 RMK AO2 T02780244 $
53843K79J 79J20160705071010907/05/16 07:10:31  5-MIN K79J 051210Z AUTO 23004KT 7SM CLR 28/24 A3012 130 82 1700 230/04 RMK AO2 T02780244 $
53843K79J 79J20160705071510707/05/16 07:15:31  5-MIN K79J 051215Z AUTO 21004KT 8SM CLR 28/24 A3012 130 79 1700 210/04 RMK AO2 T02830244
53843K79J 79J20160705072010707/05/16 07:20:31  5-MIN K79J 051220Z AUTO 22004KT 8SM CLR 28/24 A3012 130 79 1700 220/04 RMK AO2 T02830244
53843K79J 79J20160705072510707/05/16 07:25:31  5-MIN K79J 051225Z AUTO 21004KT 9SM CLR 28/24 A3012 130 79 1700 220/04 RMK AO2 T02830244
53843K79J 79J20160705073010707/05/16 07:30:31  5-MIN K79J 051230Z AUTO 21004KT 9SM CLR 29/24 A3011 130 76 1800 210/04 RMK AO2 T02890244
53843K79J 79J20160705073510807/05/16 07:35:31  5-MIN K79J 051235Z AUTO 21003KT 10SM CLR 29/24 A3012 130 76 1800 210/03 RMK AO2 T02890244
53843K79J 79J20160705074010807/05/16 07:40:31  5-MIN K79J 051240Z AUTO 23004KT 10SM CLR 29/24 A3012 130 76 1800 230/04 RMK AO2 T02890244
53843K79J 79J20160705074510807/05/16 07:45:31  5-MIN K79J 051245Z AUTO 23004KT 10SM CLR 29/24 A3012 130 74 1900 230/04 RMK AO2 T02940244
53843K79J 79J20160705075011507/05/16 07:50:31  5-MIN K79J 051250Z AUTO 22006KT 10SM CLR 29/24 A3012 130 71 1900 220/06 RMK AO2 SLP192 T02940239
53843K79J 79J20160705075511507/05/16 07:55:31  5-MIN K79J 051255Z AUTO 22004KT 10SM CLR 29/24 A3012 130 74 1900 230/04 RMK AO2 SLP192 T02940244
53843K79J 79J20160705080010807/05/16 08:00:31  5-MIN K79J 051300Z AUTO 23006KT 10SM CLR 29/24 A3012 130 71 1900 230/06 RMK AO2 T02940239
53843K79J 79J20160705080510807/05/16 08:05:31  5-MIN K79J 051305Z AUTO VRB06KT 10SM CLR 30/24 A3012 130 72 1900 VRB/06 RMK AO2 T03000244
53843K79J 79J20160705081010807/05/16 08:10:31  5-MIN K79J 051310Z AUTO 24007KT 10SM CLR 31/24 A3012 130 69 2000 240/07 RMK AO2 T03060244
53843K79J 79J20160705081510807/05/16 08:15:31  5-MIN K79J 051315Z AUTO 24007KT 10SM CLR 31/24 A3012 130 69 2000 240/07 RMK AO2 T03060244
53843K79J 79J20160705082010807/05/16 08:20:31  5-MIN K79J 051320Z AUTO 22008KT 10SM CLR 31/24 A3012 130 69 2000 220/08 RMK AO2 T03060244
53843K79J 79J20160705082510807/05/16 08:25:31  5-MIN K79J 051325Z AUTO 24007KT 10SM CLR 31/24 A3012 130 69 2000 250/07 RMK AO2 T03060244
53843K79J 79J20160705083010807/05/16 08:30:31  5-MIN K79J 051330Z AUTO 25005KT 10SM CLR 31/24 A3012 130 67 2000 260/05 RMK AO2 T03110244
53843K79J 79J20160705083510807/05/16 08:35:31  5-MIN K79J 051335Z AUTO 25006KT 10SM CLR 31/24 A3012 120 67 2000 250/06 RMK AO2 T03110244
53843K79J 79J20160705084010807/05/16 08:40:31  5-MIN K79J 051340Z AUTO 23007KT 10SM CLR 32/24 A3012 130 63 2100 230/07 RMK AO2 T03170239
53843K79J 79J20160705084510807/05/16 08:45:31  5-MIN K79J 051345Z AUTO 26007KT 10SM CLR 32/24 A3012 120 63 2100 270/07 RMK AO2 T03170239
53843K79J 79J20160705085011507/05/16 08:50:31  5-MIN K79J 051350Z AUTO 25009KT 10SM CLR 32/23 A3012 130 61 2100 260/09 RMK AO2 SLP194 T03170233
53843K79J 79J20160705085511507/05/16 08:55:31  5-MIN K79J 051355Z AUTO 24008KT 10SM CLR 32/23 A3012 130 61 2100 240/08 RMK AO2 SLP194 T03170233
53843K79J 79J20160705090010807/05/16 09:00:31  5-MIN K79J 051400Z AUTO 23005KT 10SM CLR 32/23 A3012 130 61 2100 230/05 RMK AO2 T03170233
53843K79J 79J20160705090510807/05/16 09:05:31  5-MIN K79J 051405Z AUTO 24007KT 10SM CLR 33/24 A3012 130 59 2200 250/07 RMK AO2 T03280239
53843K79J 79J20160705091010807/05/16 09:10:31  5-MIN K79J 051410Z AUTO 22006KT 10SM CLR 32/23 A3012 130 59 2200 220/06 RMK AO2 T03220233
53843K79J 79J20160705091510807/05/16 09:15:31  5-MIN K79J 051415Z AUTO 23007KT 10SM CLR 33/23 A3012 130 57 2200 230/07 RMK AO2 T03280233
53843K79J 79J20160705092010807/05/16 09:20:31  5-MIN K79J 051420Z AUTO 26007KT 10SM CLR 33/23 A3012 130 57 2200 260/07 RMK AO2 T03280233
53843K79J 79J20160705092512707/05/16 09:25:31  5-MIN K79J 051425Z AUTO 22007KT 180V250 10SM FEW026 32/23 A3012 130 59 2200 220/07 180V250 RMK AO2 T03220233
53843K79J 79J20160705093011807/05/16 09:30:31  5-MIN K79J 051430Z AUTO 24006KT 10SM FEW026 FEW037 33/23 A3012 130 57 2200 240/06 RMK AO2 T03280233
53843K79J 79J20160705093511807/05/16 09:35:31  5-MIN K79J 051435Z AUTO 24009KT 10SM FEW026 FEW037 33/23 A3012 130 53 2300 240/09 RMK AO2 T03330228
53843K79J 79J20160705094011107/05/16 09:40:31  5-MIN K79J 051440Z AUTO 24006KT 10SM FEW037 33/22 A3012 130 53 2200 240/06 RMK AO2 T03280222
53843K79J 79J20160705094511107/05/16 09:45:31  5-MIN K79J 051445Z AUTO 27009KT 10SM FEW035 33/22 A3012 130 51 2300 270/09 RMK AO2 T03330222
53843K79J 79J20160705095011807/05/16 09:50:31  5-MIN K79J 051450Z AUTO 27010KT 10SM FEW035 33/22 A3012 130 51 2300 270/10 RMK AO2 SLP194 T03330222
53843K79J 79J20160705095511807/05/16 09:55:31  5-MIN K79J 051455Z AUTO 24009KT 10SM FEW033 33/22 A3012 130 51 2300 250/09 RMK AO2 SLP194 T03330222
53843K79J 79J20160705100011107/05/16 10:00:31  5-MIN K79J 051500Z AUTO 25007KT 10SM FEW035 33/22 A3012 120 51 2300 250/07 RMK AO2 T03330222
53843K79J 79J20160705100511107/05/16 10:05:31  5-MIN K79J 051505Z AUTO 27008KT 10SM SCT031 34/22 A3013 120 50 2300 270/08 RMK AO2 T03390222
53843K79J 79J20160705101011807/05/16 10:10:31  5-MIN K79J 051510Z AUTO 27010KT 10SM SCT031 SCT038 33/22 A3013 120 51 2300 270/10 RMK AO2 T03330222
53843K79J 79J20160705101511807/05/16 10:15:31  5-MIN K79J 051515Z AUTO 25007KT 10SM FEW031 SCT038 33/22 A3013 120 51 2300 260/07 RMK AO2 T03330222
53843K79J 79J20160705102014107/05/16 10:20:31  5-MIN K79J 051520Z AUTO 27009KT 230V290 10SM FEW031 SCT038 SCT047 34/22 A3013 120 50 2300 270/09 230V290 RMK AO2 T03390222
53843K79J 79J20160705102511807/05/16 10:25:31  5-MIN K79J 051525Z AUTO 27008KT 10SM FEW031 SCT044 34/22 A3013 120 50 2300 270/08 RMK AO2 T03390222
53843K79J 79J20160705103011807/05/16 10:30:31  5-MIN K79J 051530Z AUTO 23008KT 10SM FEW031 SCT044 34/22 A3013 120 48 2400 240/08 RMK AO2 T03440222
53843K79J 79J20160705103511807/05/16 10:35:31  5-MIN K79J 051535Z AUTO VRB06KT 10SM FEW035 FEW046 34/22 A3013 120 50 2300 VRB/06 RMK AO2 T03390222
53843K79J 79J20160705104011807/05/16 10:40:31  5-MIN K79J 051540Z AUTO 22006KT 10SM FEW035 FEW046 35/23 A3013 120 48 2500 220/06 RMK AO2 T03500228
53843K79J 79J20160705104511107/05/16 10:45:31  5-MIN K79J 051545Z AUTO 26010KT 10SM FEW046 34/22 A3013 120 48 2400 260/10 RMK AO2 T03440222
53843K79J 79J20160705105012507/05/16 10:50:31  5-MIN K79J 051550Z AUTO 27008KT 10SM FEW036 FEW046 34/22 A3013 120 50 2300 280/08 RMK AO2 SLP196 T03390222
53843K79J 79J20160705105511807/05/16 10:55:31  5-MIN K79J 051555Z AUTO 24008KT 10SM FEW036 34/22 A3013 120 48 2400 240/08 RMK AO2 SLP195 T03440222
53843K79J 79J20160705110011107/05/16 11:00:31  5-MIN K79J 051600Z AUTO 24007KT 10SM FEW036 34/22 A3012 130 48 2400 250/07 RMK AO2 T03440222
53843K79J 79J20160705110511107/05/16 11:05:31  5-MIN K79J 051605Z AUTO 27008KT 10SM FEW036 34/22 A3012 130 50 2300 270/08 RMK AO2 T03390222
53843K79J 79J20160705111011107/05/16 11:10:31  5-MIN K79J 051610Z AUTO VRB06KT 10SM FEW036 34/22 A3012 130 48 2400 VRB/06 RMK AO2 T03440222
53843K79J 79J20160705111511107/05/16 11:15:31  5-MIN K79J 051615Z AUTO VRB06KT 10SM FEW036 35/22 A3011 130 47 2500 VRB/06 RMK AO2 T03500222
53843K79J 79J20160705112011107/05/16 11:20:31  5-MIN K79J 051620Z AUTO 23007KT 10SM FEW036 36/22 A3011 140 45 2500 230/07 RMK AO2 T03560222
53843K79J 79J20160705112510807/05/16 11:25:31  5-MIN K79J 051625Z AUTO 24006KT 10SM CLR 36/22 A3011 140 44 2500 250/06 RMK AO2 T03560217
53843K79J 79J20160705113011107/05/16 11:30:31  5-MIN K79J 051630Z AUTO VRB04KT 10SM FEW036 36/22 A3011 140 45 2500 VRB/04 RMK AO2 T03560222
53843K79J 79J20160705113511107/05/16 11:35:31  5-MIN K79J 051635Z AUTO VRB06KT 10SM FEW040 36/22 A3011 140 45 2500 VRB/06 RMK AO2 T03560222
53843K79J 79J20160705114011807/05/16 11:40:31  5-MIN K79J 051640Z AUTO 20007KT 10SM FEW040 SCT070 36/22 A3011 140 45 2500 200/07 RMK AO2 T03560222
53843K79J 79J20160705114512507/05/16 11:45:31  5-MIN K79J 051645Z AUTO VRB03KT 10SM FEW040 FEW046 SCT070 36/22 A3011 140 44 2600 VRB/03 RMK AO2 T03610222
53843K79J 79J20160705115012207/05/16 11:50:31  5-MIN K79J 051650Z AUTO 10SM SCT041 SCT055 SCT070 36/22 A3011 140 42 2600 M /M RMK AO2 SLP190 T03610217
53843K79J 79J20160705115513207/05/16 11:55:31  5-MIN K79J 051655Z AUTO 23009KT 10SM SCT041 SCT055 SCT070 36/22 A3011 140 42 2600 230/09 RMK AO2 SLP189 T03610217
53843K79J 79J20160705120012507/05/16 12:00:31  5-MIN K79J 051700Z AUTO 22006KT 10SM FEW041 FEW050 SCT070 36/22 A3011 140 42 2600 230/06 RMK AO2 T03610217
53843K79J 79J20160705120511807/05/16 12:05:31  5-MIN K79J 051705Z AUTO 23007KT 10SM FEW041 SCT070 36/22 A3011 140 42 2600 230/07 RMK AO2 T03610217
53843K79J 79J20160705121012507/05/16 12:10:31  5-MIN K79J 051710Z AUTO 23005KT 10SM FEW041 FEW060 SCT080 37/21 A3011 140 40 2700 230/05 RMK AO2 T03670211
53843K79J 79J20160705121513407/05/16 12:15:31  5-MIN K79J 051715Z AUTO 21007KT 180V240 10SM FEW043 SCT060 36/22 A3012 130 42 2600 220/07 180V240 RMK AO2 T03610217
53843K79J 79J20160705122014007/05/16 12:20:31  5-MIN K79J 051720Z AUTO 22009G15KT 190V250 10SM FEW045 SCT050 36/22 A3011 130 44 2500 220/09G15 190V250 RMK AO2 T03560217
53843K79J 79J20160705122511807/05/16 12:25:31  5-MIN K79J 051725Z AUTO 23009KT 10SM FEW045 SCT050 35/22 A3011 130 45 2500 230/09 RMK AO2 T03500217
53843K79J 79J20160705123015407/05/16 12:30:31  5-MIN K79J 051730Z AUTO 23019G35KT 10SM VCTS FEW045 SCT050 SCT085 36/21 A3011 130 42 2500 230/19G35 RMK AO2 PK WND 23035/1730 T03560211
53843K79J 79J20160705123515107/05/16 12:35:31  5-MIN K79J 051735Z AUTO 29026G35KT 10SM TS SCT045 BKN050 33/20 A3013 120 46 2200 290/26G35 RMK AO2 PK WND 29035/1732 TSB35 T03280200
53843K79J 79J20160705124017207/05/16 12:40:31  5-MIN K79J 051740Z AUTO 29025G35KT 10SM TS SCT045 BKN050 BKN070 31/20 A3013 110 51 2000 290/25G35 RMK AO2 PK WND 29035/1732 WSHFT 1726 TSB35B38 T03110200
53843K79J 79J20160705124517207/05/16 12:45:31  5-MIN K79J 051745Z AUTO 30020G34KT 10SM TS FEW045 SCT050 BKN065 29/21 A3013 120 60 1800 300/20G34 RMK AO2 PK WND 29035/1732 WSHFT 1726 TSB35B38 T02940211
53843K79J 79J20160705125021607/05/16 12:50:31  5-MIN K79J 051750Z AUTO 29012G27KT 7SM TSRA FEW030 SCT046 BKN060 29/22 A3013 120 67 1800 290/12G27 RMK AO2 PK WND 29035/1732 WSHFT 1726 RAB48 TSB35B38 SLP196 P0001 60001 T02890222 10367 20278 51003
53843K79J 79J20160705125521107/05/16 12:55:31  5-MIN K79J 051755Z AUTO 30012KT 7SM -TSRA SCT033 BKN046 BKN060 29/23 A3013 120 69 1800 310/12 RMK AO2 PK WND 29035/1732 WSHFT 1726 RAB48 TSB35B38 SLP196 P0001 60001 T02940233 10367 20278 51003
53843K79J 79J20160705130013707/05/16 13:00:31  5-MIN K79J 051800Z AUTO 29012KT 10SM -TSRA SCT033 SCT046 BKN060 30/22 A3013 120 60 1900 300/12 RMK AO2 P0000 T03000217
53843K79J 79J20160705130514007/05/16 13:05:31  5-MIN K79J 051805Z AUTO 30013KT 10SM TS FEW033 SCT065 SCT090 31/22 A3013 120 58 2000 310/13 RMK AO2 RAE01 P0000 T03060217
53843K79J 79J20160705131014307/05/16 13:10:31  5-MIN K79J 051810Z AUTO 31011KT 10SM FEW033 FEW060 SCT090 31/22 A3013 120 58 2000 310/11 RMK AO2 RAE01 TSE10 P0000 T03060217
53843K79J 79J20160705131512907/05/16 13:15:31  5-MIN K79J 051815Z AUTO 30010KT 10SM FEW033 31/22 A3013 120 56 2000 310/10 RMK AO2 RAE01 TSE10 P0000 T03110217
53843K79J 79J20160705132012907/05/16 13:20:31  5-MIN K79J 051820Z AUTO 29011KT 10SM FEW035 31/22 A3013 120 58 2000 290/11 RMK AO2 RAE01 TSE10 P0000 T03060217
53843K79J 79J20160705132512607/05/16 13:25:31  5-MIN K79J 051825Z AUTO 30010KT 10SM CLR 32/22 A3013 120 55 2100 300/10 RMK AO2 RAE01 TSE10 P0000 T03170217
53843K79J 79J20160705133012607/05/16 13:30:31  5-MIN K79J 051830Z AUTO 29010KT 10SM CLR 32/22 A3013 120 55 2200 290/10 RMK AO2 RAE01 TSE10 P0000 T03220222
53843K79J 79J20160705133512607/05/16 13:35:31  5-MIN K79J 051835Z AUTO 27009KT 10SM CLR 33/22 A3013 120 51 2300 280/09 RMK AO2 RAE01 TSE10 P0000 T03330222
53843K79J 79J20160705134012607/05/16 13:40:31  5-MIN K79J 051840Z AUTO 27010KT 10SM CLR 33/22 A3013 120 51 2300 270/10 RMK AO2 RAE01 TSE10 P0000 T03330222
53843K79J 79J20160705134513207/05/16 13:45:31  5-MIN K79J 051845Z AUTO 26011G17KT 10SM CLR 34/22 A3013 120 50 2300 270/11G17 RMK AO2 RAE01 TSE10 P0000 T03390222
53843K79J 79J20160705135013907/05/16 13:50:31  5-MIN K79J 051850Z AUTO 26010G17KT 10SM CLR 34/22 A3013 120 50 2300 260/10G17 RMK AO2 RAE01 TSE10 SLP195 P0000 T03390222
53843K79J 79J20160705135513907/05/16 13:55:31  5-MIN K79J 051855Z AUTO 28012G18KT 10SM CLR 34/22 A3012 130 46 2400 280/12G18 RMK AO2 RAE01 TSE10 SLP194 P0000 T03440217
53843K79J 79J20160705140011407/05/16 14:00:31  5-MIN K79J 051900Z AUTO 26012G18KT 10SM CLR 34/22 A3012 130 48 2400 260/12G18 RMK AO2 T03440222
53843K79J 79J20160705140511407/05/16 14:05:31  5-MIN K79J 051905Z AUTO 26012G19KT 10SM CLR 34/22 A3011 130 48 2400 270/12G19 RMK AO2 T03440222
53843K79J 79J20160705141011707/05/16 14:10:31  5-MIN K79J 051910Z AUTO 27013G19KT 10SM FEW050 34/22 A3011 140 46 2400 270/13G19 RMK AO2 T03440217
53843K79J 79J20160705141513307/05/16 14:15:31  5-MIN K79J 051915Z AUTO 23010G17KT 10SM -RA FEW050 34/22 A3011 130 46 2400 230/10G17 RMK AO2 RAB12 P0000 T03440217
53843K79J 79J20160705142014107/05/16 14:20:31  5-MIN K79J 051920Z AUTO 25009KT 10SM -RA FEW048 FEW080 SCT090 34/22 A3011 130 48 2400 250/09 RMK AO2 RAB12 P0000 T03390217
53843K79J 79J20160705142514107/05/16 14:25:31  5-MIN K79J 051925Z AUTO 22008KT 10SM -RA FEW048 FEW080 SCT090 33/22 A3012 130 53 2200 220/08 RMK AO2 RAB12 P0000 T03280222
53843K79J 79J20160705143013407/05/16 14:30:31  5-MIN K79J 051930Z AUTO 25007KT 10SM -RA FEW046 SCT090 33/22 A3012 130 53 2200 250/07 RMK AO2 RAB12 P0000 T03280222
53843K79J 79J20160705143513307/05/16 14:35:31  5-MIN K79J 051935Z AUTO 23009KT 10SM FEW046 SCT090 33/22 A3012 130 53 2200 230/09 RMK AO2 RAB12E31 P0000 T03280222
53843K79J 79J20160705144012607/05/16 14:40:31  5-MIN K79J 051940Z AUTO 26008KT 10SM FEW090 33/22 A3012 130 51 2300 260/08 RMK AO2 RAB12E31 P0000 T03330222
53843K79J 79J20160705144512607/05/16 14:45:31  5-MIN K79J 051945Z AUTO 26008KT 10SM FEW036 33/22 A3012 130 51 2200 270/08 RMK AO2 RAB12E31 P0000 T03280217
53843K79J 79J20160705145014007/05/16 14:50:31  5-MIN K79J 051950Z AUTO 27008KT 10SM -RA SCT036 33/22 A3012 130 51 2300 270/08 RMK AO2 RAB12E31B47 SLP193 P0000 T03330222
53843K79J 79J20160705145514007/05/16 14:55:31  5-MIN K79J 051955Z AUTO 27010KT 10SM -RA FEW036 33/23 A3012 130 53 2300 270/10 RMK AO2 RAB12E31B47 SLP193 P0000 T03330228
53843K79J 79J20160705150012507/05/16 15:00:31  5-MIN K79J 052000Z AUTO 27013KT 10SM FEW036 33/23 A3012 120 55 2200 280/13 RMK AO2 RAE1958 P0000 T03280228
53843K79J 79J20160705150512507/05/16 15:05:31  5-MIN K79J 052005Z AUTO 28008KT 10SM FEW036 33/23 A3013 120 53 2300 280/08 RMK AO2 RAE1958 P0000 T03330228
53843K79J 79J20160705151012507/05/16 15:10:31  5-MIN K79J 052010Z AUTO 30012KT 10SM FEW036 33/23 A3013 120 53 2300 300/12 RMK AO2 RAE1958 P0000 T03330228
53843K79J 79J20160705151512207/05/16 15:15:31  5-MIN K79J 052015Z AUTO 31013KT 10SM CLR 33/23 A3013 120 55 2200 310/13 RMK AO2 RAE1958 P0000 T03280228
53843K79J 79J20160705152012207/05/16 15:20:31  5-MIN K79J 052020Z AUTO 29011KT 10SM CLR 32/23 A3013 120 57 2200 300/11 RMK AO2 RAE1958 P0000 T03220228
53843K79J 79J20160705152512207/05/16 15:25:31  5-MIN K79J 052025Z AUTO 30011KT 10SM CLR 33/23 A3013 120 53 2300 300/11 RMK AO2 RAE1958 P0000 T03330228
53843K79J 79J20160705153012507/05/16 15:30:31  5-MIN K79J 052030Z AUTO 31009KT 10SM FEW120 33/23 A3013 120 53 2300 310/09 RMK AO2 RAE1958 P0000 T03330228
53843K79J 79J20160705153512507/05/16 15:35:31  5-MIN K79J 052035Z AUTO 29009KT 10SM FEW120 34/23 A3013 120 51 2300 290/09 RMK AO2 RAE1958 P0000 T03390228
53843K79J 79J20160705154012507/05/16 15:40:31  5-MIN K79J 052040Z AUTO 31008KT 10SM FEW120 34/22 A3012 130 50 2300 310/08 RMK AO2 RAE1958 P0000 T03390222
53843K79J 79J20160705154512507/05/16 15:45:31  5-MIN K79J 052045Z AUTO 31009KT 10SM FEW120 33/22 A3012 130 51 2300 310/09 RMK AO2 RAE1958 P0000 T03330222
53843K79J 79J20160705155014407/05/16 15:50:31  5-MIN K79J 052050Z AUTO 28010KT 10SM FEW120 33/22 A3012 130 51 2300 280/10 RMK AO2 RAE1958 SLP193 P0000 60000 T03330222 53002
53843K79J 79J20160705155514407/05/16 15:55:31  5-MIN K79J 052055Z AUTO 29008KT 10SM FEW120 33/22 A3012 130 50 2300 290/08 RMK AO2 RAE1958 SLP192 P0000 60000 T03330217 53002
53843K79J 79J20160705160010807/05/16 16:00:31  5-MIN K79J 052100Z AUTO 29009KT 10SM CLR 33/22 A3011 140 50 2300 300/09 RMK AO2 T03330217
53843K79J 79J20160705160510807/05/16 16:05:31  5-MIN K79J 052105Z AUTO 29008KT 10SM CLR 33/22 A3011 140 50 2300 290/08 RMK AO2 T03330217
53843K79J 79J20160705161010807/05/16 16:10:31  5-MIN K79J 052110Z AUTO 28006KT 10SM CLR 33/22 A3011 140 50 2300 280/06 RMK AO2 T03330217
53843K79J 79J20160705161510807/05/16 16:15:31  5-MIN K79J 052115Z AUTO 27008KT 10SM CLR 34/22 A3011 140 48 2400 270/08 RMK AO2 T03390217
53843K79J 79J20160705162010807/05/16 16:20:31  5-MIN K79J 052120Z AUTO 25008KT 10SM CLR 34/22 A3010 140 48 2400 250/08 RMK AO2 T03390217
53843K79J 79J20160705162510807/05/16 16:25:31  5-MIN K79J 052125Z AUTO 25006KT 10SM CLR 34/21 A3010 150 46 2400 250/06 RMK AO2 T03390211
53843K79J 79J20160705163010807/05/16 16:30:31  5-MIN K79J 052130Z AUTO 26007KT 10SM CLR 34/22 A3010 150 48 2400 260/07 RMK AO2 T03390217
53843K79J 79J20160705163510807/05/16 16:35:31  5-MIN K79J 052135Z AUTO 29008KT 10SM CLR 34/21 A3009 150 46 2400 290/08 RMK AO2 T03390211
53843K79J 79J20160705164010807/05/16 16:40:31  5-MIN K79J 052140Z AUTO 28008KT 10SM CLR 34/21 A3009 150 46 2400 280/08 RMK AO2 T03390211
53843K79J 79J20160705164510807/05/16 16:45:31  5-MIN K79J 052145Z AUTO 29006KT 10SM CLR 34/21 A3009 150 46 2400 290/06 RMK AO2 T03390211
53843K79J 79J20160705165011507/05/16 16:50:31  5-MIN K79J 052150Z AUTO 29007KT 10SM CLR 34/21 A3009 160 46 2400 290/07 RMK AO2 SLP183 T03390211
53843K79J 79J20160705165511507/05/16 16:55:31  5-MIN K79J 052155Z AUTO 26009KT 10SM CLR 34/21 A3009 160 45 2400 260/09 RMK AO2 SLP182 T03440211
53843K79J 79J20160705170010807/05/16 17:00:31  5-MIN K79J 052200Z AUTO 26008KT 10SM CLR 34/21 A3009 160 46 2400 260/08 RMK AO2 T03390211
53843K79J 79J20160705170510807/05/16 17:05:31  5-MIN K79J 052205Z AUTO 24006KT 10SM CLR 34/22 A3009 160 48 2400 240/06 RMK AO2 T03390217
53843K79J 79J20160705171010807/05/16 17:10:31  5-MIN K79J 052210Z AUTO 26005KT 10SM CLR 34/21 A3009 160 46 2400 260/05 RMK AO2 T03390211
53843K79J 79J20160705171510807/05/16 17:15:31  5-MIN K79J 052215Z AUTO 27005KT 10SM CLR 34/22 A3009 160 46 2400 270/05 RMK AO2 T03440217
53843K79J 79J20160705172012407/05/16 17:20:31  5-MIN K79J 052220Z AUTO 25007KT 210V280 10SM CLR 34/22 A3009 160 46 2400 250/07 210V280 RMK AO2 T03440217
53843K79J 79J20160705172510807/05/16 17:25:31  5-MIN K79J 052225Z AUTO 25008KT 10SM CLR 34/22 A3009 160 50 2400 250/08 RMK AO2 T03390222
53843K79J 79J20160705173010807/05/16 17:30:31  5-MIN K79J 052230Z AUTO 25006KT 10SM CLR 33/22 A3009 160 51 2300 250/06 RMK AO2 T03330222
53843K79J 79J20160705173510807/05/16 17:35:31  5-MIN K79J 052235Z AUTO 25005KT 10SM CLR 33/22 A3009 160 51 2300 260/05 RMK AO2 T03330222
53843K79J 79J20160705174010807/05/16 17:40:31  5-MIN K79J 052240Z AUTO 24004KT 10SM CLR 34/22 A3009 160 50 2400 240/04 RMK AO2 T03390222
53843K79J 79J20160705174510807/05/16 17:45:31  5-MIN K79J 052245Z AUTO 27004KT 10SM CLR 34/23 A3008 170 51 2400 270/04 RMK AO2 T03390228
53843K79J 79J20160705175011507/05/16 17:50:31  5-MIN K79J 052250Z AUTO 23004KT 10SM CLR 34/23 A3008 170 51 2400 230/04 RMK AO2 SLP179 T03390228
53843K79J 79J20160705175511507/05/16 17:55:31  5-MIN K79J 052255Z AUTO VRB05KT 10SM CLR 34/23 A3008 170 51 2400 VRB/05 RMK AO2 SLP178 T03390228
53843K79J 79J20160705180010807/05/16 18:00:31  5-MIN K79J 052300Z AUTO VRB04KT 10SM CLR 34/23 A3007 170 51 2400 VRB/04 RMK AO2 T03390228
53843K79J 79J20160705180510807/05/16 18:05:31  5-MIN K79J 052305Z AUTO VRB04KT 10SM CLR 34/23 A3007 170 51 2400 VRB/04 RMK AO2 T03390228
53843K79J 79J20160705181010807/05/16 18:10:31  5-MIN K79J 052310Z AUTO 21007KT 10SM CLR 34/23 A3007 170 51 2400 210/07 RMK AO2 T03390228
53843K79J 79J20160705181510807/05/16 18:15:31  5-MIN K79J 052315Z AUTO 24006KT 10SM CLR 34/23 A3007 170 51 2400 250/06 RMK AO2 T03390228
53843K79J 79J20160705182010807/05/16 18:20:31  5-MIN K79J 052320Z AUTO 23005KT 10SM CLR 33/22 A3007 170 51 2300 230/05 RMK AO2 T03330222
53843K79J 79J20160705182510807/05/16 18:25:31  5-MIN K79J 052325Z AUTO 26005KT 10SM CLR 33/22 A3007 170 51 2300 260/05 RMK AO2 T03330222
53843K79J 79J20160705183010807/05/16 18:30:31  5-MIN K79J 052330Z AUTO 24004KT 10SM CLR 33/22 A3007 170 51 2300 240/04 RMK AO2 T03330222
53843K79J 79J20160705183510807/05/16 18:35:31  5-MIN K79J 052335Z AUTO 26005KT 10SM CLR 33/22 A3007 170 51 2300 260/05 RMK AO2 T03330222
53843K79J 79J20160705184010807/05/16 18:40:31  5-MIN K79J 052340Z AUTO 25005KT 10SM CLR 33/22 A3007 170 53 2300 250/05 RMK AO2 T03280222
53843K79J 79J20160705184510807/05/16 18:45:31  5-MIN K79J 052345Z AUTO 25004KT 10SM CLR 33/22 A3007 180 53 2300 250/04 RMK AO2 T03280222
53843K79J 79J20160705185013907/05/16 18:50:31  5-MIN K79J 052350Z AUTO 28005KT 10SM CLR 33/22 A3007 180 53 2300 280/05 RMK AO2 SLP176 60000 T03280222 10344 20294 56004
53843K79J 79J20160705185513907/05/16 18:55:31  5-MIN K79J 052355Z AUTO 30005KT 10SM CLR 33/23 A3006 180 55 2300 300/05 RMK AO2 SLP174 60000 T03280228 10344 20294 56004
53843K79J 79J20160705190010807/05/16 19:00:31  5-MIN K79J 060000Z AUTO 30006KT 10SM CLR 33/23 A3007 180 55 2300 300/06 RMK AO2 T03280228
53843K79J 79J20160705190510807/05/16 19:05:31  5-MIN K79J 060005Z AUTO 28006KT 10SM CLR 33/23 A3007 170 55 2300 290/06 RMK AO2 T03280228
53843K79J 79J20160705191010807/05/16 19:10:31  5-MIN K79J 060010Z AUTO VRB04KT 10SM CLR 33/22 A3007 170 51 2300 VRB/04 RMK AO2 T03330222
53843K79J 79J20160705191510807/05/16 19:15:31  5-MIN K79J 060015Z AUTO 26004KT 10SM CLR 33/22 A3007 170 53 2300 260/04 RMK AO2 T03280222
53843K79J 79J20160705192010807/05/16 19:20:31  5-MIN K79J 060020Z AUTO 27004KT 10SM CLR 33/22 A3007 170 53 2300 270/04 RMK AO2 T03280222
53843K79J 79J20160705192510807/05/16 19:25:31  5-MIN K79J 060025Z AUTO 26004KT 10SM CLR 32/22 A3007 170 55 2200 260/04 RMK AO2 T03220222
53843K79J 79J20160705193010807/05/16 19:30:31  5-MIN K79J 060030Z AUTO 27004KT 10SM CLR 32/22 A3007 170 55 2200 270/04 RMK AO2 T03220222
53843K79J 79J20160705193510807/05/16 19:35:31  5-MIN K79J 060035Z AUTO 27005KT 10SM CLR 32/23 A3007 170 57 2200 270/05 RMK AO2 T03220228
53843K79J 79J20160705194010807/05/16 19:40:31  5-MIN K79J 060040Z AUTO 26005KT 10SM CLR 32/23 A3008 170 57 2200 270/05 RMK AO2 T03220228
53843K79J 79J20160705194510807/05/16 19:45:31  5-MIN K79J 060045Z AUTO 26004KT 10SM CLR 32/23 A3008 170 58 2200 260/04 RMK AO2 T03170228
53843K79J 79J20160705195011507/05/16 19:50:31  5-MIN K79J 060050Z AUTO 31003KT 10SM CLR 32/23 A3008 160 61 2100 310/03 RMK AO2 SLP180 T03170233
53843K79J 79J20160705195511507/05/16 19:55:31  5-MIN K79J 060055Z AUTO 30003KT 10SM CLR 31/23 A3009 160 60 2100 300/03 RMK AO2 SLP181 T03110228
53843K79J 79J20160705200010807/05/16 20:00:31  5-MIN K79J 060100Z AUTO 00000KT 10SM CLR 31/23 A3008 160 63 2100 000/00 RMK AO2 T03110233
53843K79J 79J20160705200510807/05/16 20:05:31  5-MIN K79J 060105Z AUTO 00000KT 10SM CLR 30/23 A3008 160 67 2000 000/00 RMK AO2 T03000233
53843K79J 79J20160705201010807/05/16 20:10:31  5-MIN K79J 060110Z AUTO 00000KT 10SM CLR 30/23 A3008 170 67 2000 000/00 RMK AO2 T03000233
53843K79J 79J20160705201510807/05/16 20:15:31  5-MIN K79J 060115Z AUTO 00000KT 10SM CLR 30/23 A3008 170 67 2000 000/00 RMK AO2 T03000233
53843K79J 79J20160705202010807/05/16 20:20:31  5-MIN K79J 060120Z AUTO 00000KT 10SM CLR 29/23 A3008 170 69 1900 000/00 RMK AO2 T02940233
53843K79J 79J20160705202510807/05/16 20:25:31  5-MIN K79J 060125Z AUTO 00000KT 10SM CLR 29/23 A3008 170 69 1900 000/00 RMK AO2 T02940233
53843K79J 79J20160705203010807/05/16 20:30:31  5-MIN K79J 060130Z AUTO 00000KT 10SM CLR 29/23 A3008 170 69 1900 000/00 RMK AO2 T02940233
53843K79J 79J20160705203510807/05/16 20:35:31  5-MIN K79J 060135Z AUTO 18003KT 10SM CLR 29/23 A3007 170 69 1900 190/03 RMK AO2 T02940233
53843K79J 79J20160705204010807/05/16 20:40:31  5-MIN K79J 060140Z AUTO 19004KT 10SM CLR 29/23 A3007 170 69 1900 200/04 RMK AO2 T02940233
53843K79J 79J20160705204510807/05/16 20:45:31  5-MIN K79J 060145Z AUTO 19005KT 10SM CLR 29/23 A3007 170 69 1900 190/05 RMK AO2 T02940233
53843K79J 79J20160705205011507/05/16 20:50:31  5-MIN K79J 060150Z AUTO 19005KT 10SM CLR 30/23 A3007 170 67 2000 190/05 RMK AO2 SLP176 T03000233
53843K79J 79J20160705205511507/05/16 20:55:31  5-MIN K79J 060155Z AUTO 18004KT 10SM CLR 30/23 A3007 170 67 2000 190/04 RMK AO2 SLP176 T03000233
53843K79J 79J20160705210010807/05/16 21:00:31  5-MIN K79J 060200Z AUTO 18003KT 10SM CLR 29/23 A3007 170 69 1900 190/03 RMK AO2 T02940233
53843K79J 79J20160705210510807/05/16 21:05:31  5-MIN K79J 060205Z AUTO 20004KT 10SM CLR 29/23 A3008 170 69 1900 200/04 RMK AO2 T02940233
53843K79J 79J20160705211010807/05/16 21:10:31  5-MIN K79J 060210Z AUTO VRB04KT 10SM CLR 29/23 A3008 170 69 1900 VRB/04 RMK AO2 T02940233
53843K79J 79J20160705211510807/05/16 21:15:31  5-MIN K79J 060215Z AUTO 18003KT 10SM CLR 29/23 A3008 170 67 1900 180/03 RMK AO2 T02940228
53843K79J 79J20160705212010807/05/16 21:20:31  5-MIN K79J 060220Z AUTO VRB04KT 10SM CLR 29/23 A3008 170 67 1900 VRB/04 RMK AO2 T02940228
53843K79J 79J20160706022510707/06/16 02:25:31  5-MIN K79J 060725Z AUTO 17003KT 9SM CLR 26/23 A3008 160 84 1500 170/03 RMK AO2 T02610233
53843K79J 79J20160706023010707/06/16 02:30:31  5-MIN K79J 060730Z AUTO 19003KT 9SM CLR 26/23 A3008 160 84 1500 190/03 RMK AO2 T02610233
53843K79J 79J20160706023510707/06/16 02:35:31  5-MIN K79J 060735Z AUTO 00000KT 9SM CLR 26/23 A3008 160 84 1500 000/00 RMK AO2 T02610233
53843K79J 79J20160706024010707/06/16 02:40:31  5-MIN K79J 060740Z AUTO 00000KT 9SM CLR 26/23 A3008 160 84 1500 000/00 RMK AO2 T02610233
53843K79J 79J20160706024510707/06/16 02:45:31  5-MIN K79J 060745Z AUTO 00000KT 8SM CLR 26/23 A3009 160 84 1500 000/00 RMK AO2 T02610233
53843K79J 79J20160706025011407/06/16 02:50:31  5-MIN K79J 060750Z AUTO 16003KT 7SM CLR 26/23 A3008 160 84 1500 160/03 RMK AO2 SLP181 T02610233
53843K79J 79J20160706025511407/06/16 02:55:31  5-MIN K79J 060755Z AUTO VRB03KT 7SM CLR 26/23 A3008 170 84 1500 VRB/03 RMK AO2 SLP180 T02610233
53843K79J 79J20160706030010707/06/16 03:00:31  5-MIN K79J 060800Z AUTO 17003KT 7SM CLR 26/23 A3008 170 84 1500 170/03 RMK AO2 T02610233
53843K79J 79J20160706030510707/06/16 03:05:31  5-MIN K79J 060805Z AUTO 16003KT 7SM CLR 26/23 A3008 170 84 1500 160/03 RMK AO2 T02610233
53843K79J 79J20160706031010707/06/16 03:10:31  5-MIN K79J 060810Z AUTO VRB03KT 7SM CLR 26/23 A3008 170 84 1500 VRB/03 RMK AO2 T02610233
53843K79J 79J20160706031510707/06/16 03:15:31  5-MIN K79J 060815Z AUTO 20003KT 7SM CLR 26/23 A3008 160 84 1500 200/03 RMK AO2 T02610233
53843K79J 79J20160706032010707/06/16 03:20:31  5-MIN K79J 060820Z AUTO 00000KT 7SM CLR 26/23 A3008 160 84 1500 000/00 RMK AO2 T02610233
53843K79J 79J20160706032510707/06/16 03:25:31  5-MIN K79J 060825Z AUTO 00000KT 7SM CLR 26/23 A3008 160 84 1500 000/00 RMK AO2 T02610233
53843K79J 79J20160706033010707/06/16 03:30:31  5-MIN K79J 060830Z AUTO 00000KT 7SM CLR 26/23 A3008 160 84 1500 000/00 RMK AO2 T02610233
53843K79J 79J20160706033510707/06/16 03:35:31  5-MIN K79J 060835Z AUTO 00000KT 7SM CLR 26/23 A3008 160 84 1500 000/00 RMK AO2 T02610233
53843K79J 79J20160706034010707/06/16 03:40:31  5-MIN K79J 060840Z AUTO 00000KT 7SM CLR 26/23 A3008 160 84 1500 000/00 RMK AO2 T02610233
53843K79J 79J20160706034510707/06/16 03:45:31  5-MIN K79J 060845Z AUTO 00000KT 7SM CLR 26/23 A3008 160 84 1500 000/00 RMK AO2 T02610233
53843K79J 79J20160706035012007/06/16 03:50:31  5-MIN K79J 060850Z AUTO 00000KT 7SM CLR 27/23 A3008 160 82 1600 000/00 RMK AO2 SLP182 T02670233 51004
53843K79J 79J20160706035512007/06/16 03:55:31  5-MIN K79J 060855Z AUTO 00000KT 7SM CLR 27/24 A3008 160 84 1600 000/00 RMK AO2 SLP182 T02670239 51004
53843K79J 79J20160706040010707/06/16 04:00:31  5-MIN K79J 060900Z AUTO 00000KT 7SM CLR 27/24 A3008 160 84 1600 000/00 RMK AO2 T02670239
53843K79J 79J20160706040510707/06/16 04:05:31  5-MIN K79J 060905Z AUTO 00000KT 7SM CLR 27/24 A3008 160 84 1600 000/00 RMK AO2 T02670239
53843K79J 79J20160706041010707/06/16 04:10:31  5-MIN K79J 060910Z AUTO 00000KT 7SM CLR 27/24 A3008 160 84 1600 000/00 RMK AO2 T02670239
53843K79J 79J20160706041510707/06/16 04:15:31  5-MIN K79J 060915Z AUTO 00000KT 7SM CLR 27/24 A3008 160 84 1600 000/00 RMK AO2 T02670239
53843K79J 79J20160706042010707/06/16 04:20:31  5-MIN K79J 060920Z AUTO 00000KT 7SM CLR 27/24 A3008 160 84 1600 000/00 RMK AO2 T02670239
53843K79J 79J20160706042510707/06/16 04:25:31  5-MIN K79J 060925Z AUTO 00000KT 7SM CLR 27/24 A3009 160 84 1600 000/00 RMK AO2 T02670239
53843K79J 79J20160706043010707/06/16 04:30:31  5-MIN K79J 060930Z AUTO 28003KT 7SM CLR 27/23 A3009 150 82 1600 280/03 RMK AO2 T02670233
53843K79J 79J20160706043510707/06/16 04:35:31  5-MIN K79J 060935Z AUTO 00000KT 8SM CLR 26/23 A3009 160 84 1500 000/00 RMK AO2 T02610233
53843K79J 79J20160706044010707/06/16 04:40:31  5-MIN K79J 060940Z AUTO 00000KT 8SM CLR 26/23 A3009 160 84 1500 000/00 RMK AO2 T02610233
53843K79J 79J20160706044510707/06/16 04:45:31  5-MIN K79J 060945Z AUTO 00000KT 7SM CLR 26/23 A3009 160 84 1500 000/00 RMK AO2 T02610233
53843K79J 79J20160706045011707/06/16 04:50:31  5-MIN K79J 060950Z AUTO 00000KT 6SM HZ CLR 26/23 A3009 160 84 1500 000/00 RMK AO2 SLP184 T02610233
53843K79J 79J20160706045511707/06/16 04:55:31  5-MIN K79J 060955Z AUTO 17003KT 5SM HZ CLR 26/23 A3009 150 84 1500 180/03 RMK AO2 SLP184 T02610233
53843K79J 79J20160706050011007/06/16 05:00:31  5-MIN K79J 061000Z AUTO 00000KT 5SM HZ CLR 26/23 A3010 150 84 1500 000/00 RMK AO2 T02610233
53843K79J 79J20160706050511007/06/16 05:05:31  5-MIN K79J 061005Z AUTO 00000KT 5SM HZ CLR 26/23 A3010 150 84 1500 000/00 RMK AO2 T02610233
53843K79J 79J20160706051011007/06/16 05:10:31  5-MIN K79J 061010Z AUTO 00000KT 6SM HZ CLR 26/23 A3010 150 84 1500 000/00 RMK AO2 T02610233
53843K79J 79J20160706051511007/06/16 05:15:31  5-MIN K79J 061015Z AUTO 00000KT 6SM HZ CLR 26/23 A3010 150 84 1500 000/00 RMK AO2 T02610233
53843K79J 79J20160706052011007/06/16 05:20:31  5-MIN K79J 061020Z AUTO 00000KT 6SM HZ CLR 26/23 A3010 140 84 1500 000/00 RMK AO2 T02610233
53843K79J 79J20160706052511007/06/16 05:25:31  5-MIN K79J 061025Z AUTO 00000KT 6SM HZ CLR 26/23 A3011 140 84 1500 000/00 RMK AO2 T02610233
53843K79J 79J20160706053011007/06/16 05:30:31  5-MIN K79J 061030Z AUTO 00000KT 5SM HZ CLR 26/23 A3011 140 84 1500 000/00 RMK AO2 T02610233
53843K79J 79J20160706053511007/06/16 05:35:31  5-MIN K79J 061035Z AUTO 00000KT 6SM HZ CLR 26/23 A3011 140 84 1500 000/00 RMK AO2 T02610233
53843K79J 79J20160706054011007/06/16 05:40:31  5-MIN K79J 061040Z AUTO 00000KT 6SM HZ CLR 26/23 A3011 140 84 1500 000/00 RMK AO2 T02610233
53843K79J 79J20160706054511007/06/16 05:45:31  5-MIN K79J 061045Z AUTO 00000KT 4SM HZ CLR 26/23 A3011 140 84 1500 000/00 RMK AO2 T02610233
53843K79J 79J20160706055011707/06/16 05:50:31  5-MIN K79J 061050Z AUTO 00000KT 4SM HZ CLR 26/23 A3011 140 84 1500 000/00 RMK AO2 SLP191 T02610233
53843K79J 79J20160706055511707/06/16 05:55:31  5-MIN K79J 061055Z AUTO 00000KT 4SM HZ CLR 26/23 A3011 140 84 1500 000/00 RMK AO2 SLP191 T02610233
53843K79J 79J20160706060011007/06/16 06:00:31  5-MIN K79J 061100Z AUTO 00000KT 5SM HZ CLR 26/23 A3011 130 84 1500 000/00 RMK AO2 T02610233
53843K79J 79J20160706060511007/06/16 06:05:31  5-MIN K79J 061105Z AUTO 00000KT 5SM HZ CLR 26/23 A3011 140 84 1500 000/00 RMK AO2 T02610233
53843K79J 79J20160706061011007/06/16 06:10:31  5-MIN K79J 061110Z AUTO 00000KT 3SM HZ CLR 26/23 A3011 140 84 1500 000/00 RMK AO2 T02610233
53843K79J 79J20160706061511407/06/16 06:15:31  5-MIN K79J 061115Z AUTO 00000KT 2 1/2SM BR CLR 26/23 A3011 130 87 1400 000/00 RMK AO2 T02560233
53843K79J 79J20160706062011407/06/16 06:20:31  5-MIN K79J 061120Z AUTO 00000KT 2 1/2SM BR CLR 26/23 A3012 130 87 1400 000/00 RMK AO2 T02560233
53843K79J 79J20160706062511007/06/16 06:25:31  5-MIN K79J 061125Z AUTO 00000KT 3SM HZ CLR 26/23 A3012 130 84 1500 000/00 RMK AO2 T02610233
53843K79J 79J20160706063011007/06/16 06:30:31  5-MIN K79J 061130Z AUTO 00000KT 3SM HZ CLR 26/23 A3012 130 84 1500 000/00 RMK AO2 T02610233
53843K79J 79J20160706063511407/06/16 06:35:31  5-MIN K79J 061135Z AUTO 00000KT 2 1/2SM HZ CLR 26/23 A3013 120 84 1500 000/00 RMK AO2 T02610233
53843K79J 79J20160706064011007/06/16 06:40:31  5-MIN K79J 061140Z AUTO 00000KT 2SM BR CLR 26/24 A3013 120 87 1500 000/00 RMK AO2 T02610239
53843K79J 79J20160706064511407/06/16 06:45:31  5-MIN K79J 061145Z AUTO 00000KT 2 1/2SM HZ CLR 27/24 A3013 120 84 1500 000/00 RMK AO2 T02670239
53843K79J 79J20160706065010007/06/16 06:50:31  5-MIN K79J 061150Z AUTO 00000KT 3SM HZ CLR 27/24 A3013 120 84 1500 000/00 RMK AO2
53843K79J 79J20160706065514107/06/16 06:55:31  5-MIN K79J 061155Z AUTO 00000KT 4SM HZ CLR 27/24 A3013 120 84 1500 000/00 RMK AO2 SLP197 70001 T02670239 10267 20256 53016
53843K79J 79J20160706070011007/06/16 07:00:31  5-MIN K79J 061200Z AUTO 00000KT 5SM HZ CLR 27/24 A3013 120 84 1600 000/00 RMK AO2 T02720244
53843K79J 79J20160706070511007/06/16 07:05:31  5-MIN K79J 061205Z AUTO 00000KT 6SM HZ CLR 28/24 A3013 120 82 1700 000/00 RMK AO2 T02780244
53843K79J 79J20160706071011007/06/16 07:10:31  5-MIN K79J 061210Z AUTO 00000KT 6SM HZ CLR 28/24 A3013 120 82 1700 000/00 RMK AO2 T02780244
53843K79J 79J20160706071511007/06/16 07:15:31  5-MIN K79J 061215Z AUTO 00000KT 6SM HZ CLR 28/24 A3013 120 82 1700 000/00 RMK AO2 T02780244
53843K79J 79J20160706072011007/06/16 07:20:31  5-MIN K79J 061220Z AUTO 00000KT 6SM HZ CLR 28/24 A3013 120 82 1700 000/00 RMK AO2 T02780244
53843K79J 79J20160706072510707/06/16 07:25:31  5-MIN K79J 061225Z AUTO 00000KT 7SM CLR 28/24 A3013 110 79 1700 000/00 RMK AO2 T02830244
53843K79J 79J20160706073010707/06/16 07:30:31  5-MIN K79J 061230Z AUTO 25003KT 8SM CLR 28/24 A3014 110 79 1700 250/03 RMK AO2 T02830244
53843K79J 79J20160706073510707/06/16 07:35:31  5-MIN K79J 061235Z AUTO 21003KT 9SM CLR 29/24 A3014 110 76 1800 210/03 RMK AO2 T02890244
53843K79J 79J20160706074010707/06/16 07:40:31  5-MIN K79J 061240Z AUTO VRB04KT 9SM CLR 29/24 A3014 110 76 1800 VRB/04 RMK AO2 T02890244
53843K79J 79J20160706074510807/06/16 07:45:31  5-MIN K79J 061245Z AUTO 23004KT 10SM CLR 29/24 A3014 110 74 1800 240/04 RMK AO2 T02940244
53843K79J 79J20160706075011507/06/16 07:50:31  5-MIN K79J 061250Z AUTO 24004KT 10SM CLR 29/24 A3014 110 74 1800 240/04 RMK AO2 SLP201 T02940244
53843K79J 79J20160706075511507/06/16 07:55:31  5-MIN K79J 061255Z AUTO 24004KT 10SM CLR 30/24 A3015 100 72 1900 240/04 RMK AO2 SLP202 T03000244
53843K79J 79J20160706080010807/06/16 08:00:31  5-MIN K79J 061300Z AUTO 23005KT 10SM CLR 30/25 A3015 100 74 1900 240/05 RMK AO2 T03000250
53843K79J 79J20160706080510807/06/16 08:05:31  5-MIN K79J 061305Z AUTO VRB03KT 10SM CLR 30/24 A3015 100 72 1900 VRB/03 RMK AO2 T03000244
53843K79J 79J20160706081010807/06/16 08:10:31  5-MIN K79J 061310Z AUTO VRB04KT 10SM CLR 31/25 A3015 100 72 1900 VRB/04 RMK AO2 T03060250
53843K79J 79J20160706081510807/06/16 08:15:31  5-MIN K79J 061315Z AUTO 25006KT 10SM CLR 31/25 A3016 100 72 1900 260/06 RMK AO2 T03060250
53843K79J 79J20160706082010807/06/16 08:20:31  5-MIN K79J 061320Z AUTO 24005KT 10SM CLR 31/25 A3016 100 72 1900 240/05 RMK AO2 T03060250
53843K79J 79J20160706082510707/06/16 08:25:31  5-MIN K79J 061325Z AUTO 24005KT 10SM CLR 31/25 A3016 90 69 2000 240/05 RMK AO2 T03110250
53843K79J 79J20160706083011107/06/16 08:30:31  5-MIN K79J 061330Z AUTO 23005KT 10SM FEW020 31/25 A3016 100 69 2000 230/05 RMK AO2 T03110250
53843K79J 79J20160706083511707/06/16 08:35:31  5-MIN K79J 061335Z AUTO 22006KT 10SM FEW015 FEW022 32/25 A3016 90 67 2100 220/06 RMK AO2 T03170250
53843K79J 79J20160706084011707/06/16 08:40:31  5-MIN K79J 061340Z AUTO 25004KT 10SM FEW015 FEW022 32/25 A3016 90 67 2100 250/04 RMK AO2 T03170250
53843K79J 79J20160706084512507/06/16 08:45:31  5-MIN K79J 061345Z AUTO 27005KT 10SM FEW015 SCT021 SCT029 32/25 A3016 100 67 2100 270/05 RMK AO2 T03170250
53843K79J 79J20160706085011707/06/16 08:50:31  5-MIN K79J 061350Z AUTO 23005KT 10SM SCT018 32/25 A3016 90 67 2100 230/05 RMK AO2 SLP206 T03170250
53843K79J 79J20160706085511707/06/16 08:55:31  5-MIN K79J 061355Z AUTO 25005KT 10SM BKN016 32/25 A3016 90 65 2100 260/05 RMK AO2 SLP206 T03220250
53843K79J 79J20160706090011807/06/16 09:00:31  5-MIN K79J 061400Z AUTO 24006KT 10SM BKN016 BKN029 32/25 A3016 100 67 2100 240/06 RMK AO2 T03170250
53843K79J 79J20160706090511707/06/16 09:05:31  5-MIN K79J 061405Z AUTO VRB06KT 10SM BKN016 BKN029 32/25 A3016 90 67 2100 VRB/06 RMK AO2 T03170250
53843K79J 79J20160706091011707/06/16 09:10:31  5-MIN K79J 061410Z AUTO 26006KT 10SM BKN016 BKN029 32/25 A3016 90 65 2100 260/06 RMK AO2 T03220250
53843K79J 79J20160706091511707/06/16 09:15:31  5-MIN K79J 061415Z AUTO 28007KT 10SM BKN016 BKN029 32/25 A3016 90 67 2100 280/07 RMK AO2 T03170250
53843K79J 79J20160706092012407/06/16 09:20:31  5-MIN K79J 061420Z AUTO 28007KT 10SM SCT016 BKN021 BKN031 32/25 A3016 90 65 2100 280/07 RMK AO2 T03220250
53843K79J 79J20160706092512507/06/16 09:25:31  5-MIN K79J 061425Z AUTO 28009KT 10SM SCT016 SCT029 SCT050 33/25 A3016 100 63 2200 280/09 RMK AO2 T03280250
53843K79J 79J20160706093011807/06/16 09:30:31  5-MIN K79J 061430Z AUTO 29007KT 10SM SCT018 SCT029 33/25 A3015 100 63 2200 290/07 RMK AO2 T03280250
53843K79J 79J20160706093511807/06/16 09:35:31  5-MIN K79J 061435Z AUTO 27008KT 10SM FEW018 SCT029 33/25 A3016 100 63 2200 280/08 RMK AO2 T03280250
53843K79J 79J20160706094012507/06/16 09:40:31  5-MIN K79J 061440Z AUTO 28009KT 10SM FEW016 FEW022 SCT029 33/24 A3016 100 61 2200 290/09 RMK AO2 T03280244
53843K79J 79J20160706094511807/06/16 09:45:31  5-MIN K79J 061445Z AUTO 28007KT 10SM FEW024 FEW029 33/24 A3015 100 61 2200 280/07 RMK AO2 T03280244
53843K79J 79J20160706095013107/06/16 09:50:31  5-MIN K79J 061450Z AUTO 28010KT 10SM FEW021 SCT029 33/24 A3015 100 61 2200 290/10 RMK AO2 SLP205 T03280244 50012
53843K79J 79J20160706095512407/06/16 09:55:31  5-MIN K79J 061455Z AUTO 27009KT 10SM SCT021 33/24 A3015 100 59 2200 280/09 RMK AO2 SLP205 T03330244 50012
53843K79J 79J20160706100011807/06/16 10:00:31  5-MIN K79J 061500Z AUTO 29009KT 10SM FEW021 SCT029 33/24 A3015 100 59 2200 290/09 RMK AO2 T03330244
53843K79J 79J20160706100511807/06/16 10:05:31  5-MIN K79J 061505Z AUTO 28006KT 10SM FEW023 SCT048 33/24 A3015 100 59 2200 280/06 RMK AO2 T03330244
53843K79J 79J20160706101014007/06/16 10:10:31  5-MIN K79J 061510Z AUTO 29009KT 10SM -RA SCT022 SCT027 BKN048 33/24 A3016 90 59 2200 290/09 RMK AO2 RAB07 P0000 T03330244
53843K79J 79J20160706101513407/06/16 10:15:31  5-MIN K79J 061515Z AUTO 29009KT 10SM -TSRA SCT022 33/24 A3016 90 61 2200 290/09 RMK AO2 RAB07 TSB13 P0000 T03280244
53843K79J 79J20160706102013407/06/16 10:20:31  5-MIN K79J 061520Z AUTO 29007KT 10SM TS FEW022 32/24 A3016 90 63 2100 290/07 RMK AO2 RAB07E16 TSB13 P0000 T03220244
53843K79J 79J20160706102514207/06/16 10:25:31  5-MIN K79J 061525Z AUTO 28007KT 10SM TS FEW022 FEW027 33/24 A3016 100 61 2200 280/07 RMK AO2 RAB07E16 TSB13 P0000 T03280244
53843K79J 79J20160706103014207/06/16 10:30:31  5-MIN K79J 061530Z AUTO 29007KT 10SM FEW022 FEW027 34/24 A3015 100 57 2300 290/07 RMK AO2 RAB07E16 TSB13E29 P0000 T03390244
53843K79J 79J20160706103513407/06/16 10:35:31  5-MIN K79J 061535Z AUTO 27010KT 10SM FEW022 34/24 A3016 90 55 2300 280/10 RMK AO2 RAB07E16 TSB13E29 P0000 T03390239
53843K79J 79J20160706104013507/06/16 10:40:31  5-MIN K79J 061540Z AUTO VRB04KT 10SM FEW036 34/24 A3015 100 55 2300 VRB/04 RMK AO2 RAB07E16 TSB13E29 P0000 T03390239
53843K79J 79J20160706104514207/06/16 10:45:31  5-MIN K79J 061545Z AUTO 27008KT 10SM FEW028 SCT036 34/24 A3015 100 53 2400 270/08 RMK AO2 RAB07E16 TSB13E29 P0000 T03440239
53843K79J 79J20160706105015707/06/16 10:50:31  5-MIN K79J 061550Z AUTO 26012G20KT 10SM -TSRA SCT026 SCT036 SCT042 33/24 A3016 100 57 2200 270/12G20 RMK AO2 RAB07E16B50 TSB13E29B49 P0000
53843K79J 79J20160706105517207/06/16 10:55:31  5-MIN K79J 061555Z AUTO 25008G20KT 4SM +TSRA FEW026 SCT038 BKN090 31/23 A3016 90 62 1900 250/08G20 RMK AO2 RAB07E16B50 TSB13E29B49 SLP209 P0002 T03060228
53843K79J 79J20160706110015707/06/16 11:00:31  5-MIN K79J 061600Z AUTO 25007G17KT 2 1/2SM +TSRA FEW027 SCT038 BKN085 29/23 A3017 90 69 1700 260/07G17 RMK AO2 VIS 1 1/2V5 P0001 T02890228
53843K79J 79J20160706110513407/06/16 11:05:31  5-MIN K79J 061605Z AUTO 24005KT 4SM TSRA FEW026 SCT037 BKN085 28/23 A3016 90 74 1700 250/05 RMK AO2 P0001 T02830233
53843K79J 79J20160706111013507/06/16 11:10:31  5-MIN K79J 061610Z AUTO 22004KT 8SM -TSRA FEW027 SCT070 BKN085 29/24 A3016 90 74 1700 220/04 RMK AO2 P0001 T02890239
53843K79J 79J20160706111513907/06/16 11:15:31  5-MIN K79J 061615Z AUTO 21003KT 10SM TS FEW027 FEW070 SCT090 29/24 A3016 90 76 1800 210/03 RMK AO2 RAE14 P0001 T02890244
53843K79J 79J20160706112013307/06/16 11:20:31  5-MIN K79J 061620Z AUTO 21003KT 10SM TS FEW070 SCT090 29/24 A3015 100 76 1800 220/03 RMK AO2 RAE14 P0001 T02890244
53843K79J 79J20160706112512607/06/16 11:25:31  5-MIN K79J 061625Z AUTO 22003KT 10SM TS FEW090 29/24 A3015 100 76 1800 230/03 RMK AO2 RAE14 P0001 T02890244
53843K79J 79J20160706113012607/06/16 11:30:31  5-MIN K79J 061630Z AUTO 22004KT 10SM TS FEW090 29/24 A3015 100 71 1800 220/04 RMK AO2 RAE14 P0001 T02940239
53843K79J 79J20160706113512307/06/16 11:35:31  5-MIN K79J 061635Z AUTO 28004KT 10SM TS CLR 30/23 A3015 100 67 1900 280/04 RMK AO2 RAE14 P0001 T03000233
53843K79J 79J20160706114012307/06/16 11:40:31  5-MIN K79J 061640Z AUTO 27004KT 10SM TS CLR 31/24 A3015 100 67 1900 280/04 RMK AO2 RAE14 P0001 T03060239
53843K79J 79J20160706114512307/06/16 11:45:31  5-MIN K79J 061645Z AUTO 28004KT 10SM TS CLR 31/24 A3015 100 65 2000 280/04 RMK AO2 RAE14 P0001 T03110239
53843K79J 79J20160706115013007/06/16 11:50:31  5-MIN K79J 061650Z AUTO 25004KT 10SM TS CLR 32/24 A3015 100 63 2100 260/04 RMK AO2 RAE14 SLP204 P0001 T03170239
53843K79J 79J20160706115513007/06/16 11:55:31  5-MIN K79J 061655Z AUTO 25004KT 10SM TS CLR 32/23 A3015 100 61 2100 250/04 RMK AO2 RAE14 SLP205 P0001 T03170233
53843K79J 79J20160706120011107/06/16 12:00:31  5-MIN K79J 061700Z AUTO 25005KT 10SM TS CLR 33/24 A3015 100 59 2200 250/05 RMK AO2 T03280239
53843K79J 79J20160706120511007/06/16 12:05:31  5-MIN K79J 061705Z AUTO 24005KT 10SM TS CLR 33/24 A3016 90 59 2200 240/05 RMK AO2 T03330244
53843K79J 79J20160706121011307/06/16 12:10:31  5-MIN K79J 061710Z AUTO 23009KT 10SM TS FEW100 33/25 A3016 90 61 2200 230/09 RMK AO2 T03330250
53843K79J 79J20160706121511407/06/16 12:15:31  5-MIN K79J 061715Z AUTO 23006KT 10SM TS FEW100 33/25 A3016 100 63 2200 230/06 RMK AO2 T03280250
53843K79J 79J20160706122011407/06/16 12:20:31  5-MIN K79J 061720Z AUTO 24007KT 10SM TS FEW100 34/25 A3015 100 59 2300 240/07 RMK AO2 T03390250
53843K79J 79J20160706122513007/06/16 12:25:31  5-MIN K79J 061725Z AUTO 22008KT 180V250 10SM TS FEW028 34/24 A3015 100 55 2400 220/08 180V250 RMK AO2 T03440244
53843K79J 79J20160706123013307/06/16 12:30:31  5-MIN K79J 061730Z AUTO 25011G22KT 10SM TS FEW028 FEW038 SCT048 32/22 A3016 90 53 2100 250/11G22 RMK AO2 T03220217
53843K79J 79J20160706123514707/06/16 12:35:31  5-MIN K79J 061735Z AUTO 23014G23KT 4SM -TSRA SCT033 SCT048 BKN080 29/21 A3017 90 58 1800 230/14G23 RMK AO2 RAB34 P0004 T02940206
53843K79J 79J20160706124014707/06/16 12:40:31  5-MIN K79J 061740Z AUTO 15010G23KT 1SM +TSRA SCT026 BKN045 BKN065 26/21 A3016 90 73 1400 150/10G23 RMK AO2 RAB34 P0020 T02610211
53843K79J 79J20160706124514907/06/16 12:45:31  5-MIN K79J 061745Z AUTO 12009G16KT 3/4SM +TSRA BKN026 BKN049 BKN095 25/21 A3016 90 76 1300 120/09G16 RMK AO2 RAB34 P0026 T02500206
53843K79J 79J20160706125014207/06/16 12:50:31  5-MIN K79J 061750Z AUTO 12008G16KT 2 1/2SM -TSRA SCT028 BKN046 BKN070 25/21 A3015 100 79 1300 120/08G16 RMK AO2 RAB34 P0026
53843K79J 79J20160706125517407/06/16 12:55:31  5-MIN K79J 061755Z AUTO 15004KT 10SM -TSRA SCT028 SCT046 BKN070 25/21 A3015 100 79 1300 150/04 RMK AO2 RAB34 SLP204 P0026 60030 T02500211 10344 20250 50008
53843K79J 79J20160706130014207/06/16 13:00:31  5-MIN K79J 061800Z AUTO 00000KT 10SM TS FEW028 BKN095 OVC120 25/21 A3014 110 79 1300 000/00 RMK AO2 RAE1759 P0000 T02500211
53843K79J 79J20160706130514207/06/16 13:05:31  5-MIN K79J 061805Z AUTO 00000KT 10SM TS FEW025 BKN095 OVC120 26/21 A3014 110 76 1400 000/00 RMK AO2 RAE1759 P0000 T02560211
53843K79J 79J20160706131014207/06/16 13:10:31  5-MIN K79J 061810Z AUTO 00000KT 10SM TS FEW036 BKN100 BKN120 26/21 A3014 110 76 1400 000/00 RMK AO2 RAE1759 P0000 T02560211
53843K79J 79J20160706131513507/06/16 13:15:31  5-MIN K79J 061815Z AUTO 03003KT 10SM TS BKN100 BKN120 26/22 A3015 100 76 1400 040/03 RMK AO2 RAE1759 P0000 T02610217
53843K79J 79J20160706132013407/06/16 13:20:31  5-MIN K79J 061820Z AUTO 09003KT 10SM TS SCT095 BKN120 26/22 A3016 90 81 1400 090/03 RMK AO2 RAE1759 P0000 T02560222
53843K79J 79J20160706132513907/06/16 13:25:31  5-MIN K79J 061825Z AUTO 00000KT 9SM -TSRA SCT100 BKN120 26/22 A3016 90 81 1400 000/00 RMK AO2 RAE1759B21 P0000 T02560222
53843K79J 79J20160706133013307/06/16 13:30:31  5-MIN K79J 061830Z AUTO 28003KT 8SM -TSRA SCT110 26/22 A3015 100 81 1400 280/03 RMK AO2 RAE1759B21 P0000 T02560222
53843K79J 79J20160706133513307/06/16 13:35:31  5-MIN K79J 061835Z AUTO 26003KT 8SM -TSRA SCT110 26/22 A3014 110 79 1400 260/03 RMK AO2 RAE1759B21 P0001 T02560217
53843K79J 79J20160706134014007/06/16 13:40:31  5-MIN K79J 061840Z AUTO 28003KT 9SM -TSRA SCT110 26/22 A3014 110 79 1400 290/03 RMK AO2 RAE1759B21 PRESFR P0001 T02560217
53843K79J 79J20160706134515407/06/16 13:45:31  5-MIN K79J 061845Z AUTO 32004KT 8SM -TSRA FEW070 SCT090 BKN110 26/22 A3013 120 79 1400 320/04 RMK AO2 RAE1759B21 PRESFR P0001 T02560217
53843K79J 79J20160706135014907/06/16 13:50:31  5-MIN K79J 061850Z AUTO 00000KT 10SM -RA SCT065 BKN090 BKN110 26/22 A3012 130 81 1400 000/00 RMK AO2 RAE1759B21 TSE48 PRESFR P0001
53843K79J 79J20160706135515207/06/16 13:55:31  5-MIN K79J 061855Z AUTO 00000KT 10SM -RA SCT065 BKN110 26/22 A3012 130 81 1400 000/00 RMK AO2 RAE1759B21 TSE48 SLP195 P0001 T02560222
53843K79J 79J20160706140013207/06/16 14:00:31  5-MIN K79J 061900Z AUTO 00000KT 3SM HZ FEW065 SCT110 26/22 A3012 120 81 1400 000/00 RMK AO2 RAE00 P0000 T02560222
53843K79J 79J20160706140514507/06/16 14:05:31  5-MIN K79J 061905Z AUTO 00000KT 2 1/2SM TS HZ FEW065 SCT110 26/22 A3013 120 81 1400 000/00 RMK AO2 RAE00 TSB01 P0000 T02560222
53843K79J 79J20160706141013207/06/16 14:10:31  5-MIN K79J 061910Z AUTO 31004KT 10SM TS FEW065 26/22 A3014 110 81 1400 320/04 RMK AO2 RAE00 TSB01 P0000 T02560222
53843K79J 79J20160706141514507/06/16 14:15:31  5-MIN K79J 061915Z AUTO 00000KT 10SM -TSRA FEW060 SCT090 26/22 A3014 110 81 1400 000/00 RMK AO2 RAE00B14 TSB01 P0000 T02560222
53843K79J 79J20160706142013807/06/16 14:20:31  5-MIN K79J 061920Z AUTO 22003KT 10SM -TSRA SCT100 26/22 A3013 110 81 1400 220/03 RMK AO2 RAE00B14 TSB01 P0000 T02560222
53843K79J 79J20160707094511107/07/16 09:45:31  5-MIN K79J 071445Z AUTO 26007KT 10SM SCT020 32/24 A3014 110 63 2100 260/07 RMK AO2 T03170239
53843K79J 79J20160707095014007/07/16 09:50:31  5-MIN K79J 071450Z AUTO 26007KT 220V290 10SM FEW018 32/24 A3014 110 61 2100 260/07 220V290 RMK AO2 SLP200 T03220239 51015
53843K79J 79J20160707095512407/07/16 09:55:31  5-MIN K79J 071455Z AUTO 27009KT 10SM FEW020 32/24 A3013 120 61 2100 270/09 RMK AO2 SLP199 T03220239 51015
53843K79J 79J20160707100011107/07/16 10:00:31  5-MIN K79J 071500Z AUTO 24007KT 10SM FEW020 32/24 A3013 120 63 2100 240/07 RMK AO2 T03170239
53843K79J 79J20160707100511107/07/16 10:05:31  5-MIN K79J 071505Z AUTO 23008KT 10SM FEW020 32/23 A3013 120 59 2100 240/08 RMK AO2 T03220233
53843K79J 79J20160707101011807/07/16 10:10:31  5-MIN K79J 071510Z AUTO 23006KT 10SM FEW020 FEW028 33/23 A3013 120 57 2200 230/06 RMK AO2 T03280233
53843K79J 79J20160707101511807/07/16 10:15:31  5-MIN K79J 071515Z AUTO 25007KT 10SM FEW023 FEW028 33/23 A3013 120 57 2200 250/07 RMK AO2 T03280233
53843K79J 79J20160707102011107/07/16 10:20:31  5-MIN K79J 071520Z AUTO 24008KT 10SM FEW025 33/23 A3013 120 55 2300 240/08 RMK AO2 T03330233
53843K79J 79J20160707102511107/07/16 10:25:31  5-MIN K79J 071525Z AUTO 27006KT 10SM FEW025 33/23 A3013 120 55 2200 270/06 RMK AO2 T03280228
53843K79J 79J20160707103011107/07/16 10:30:31  5-MIN K79J 071530Z AUTO 24006KT 10SM FEW027 33/23 A3013 120 53 2300 250/06 RMK AO2 T03330228
53843K79J 79J20160707103511107/07/16 10:35:31  5-MIN K79J 071535Z AUTO 23008KT 10SM FEW027 33/23 A3013 120 53 2300 230/08 RMK AO2 T03330228
53843K79J 79J20160707104010807/07/16 10:40:31  5-MIN K79J 071540Z AUTO 25007KT 10SM CLR 33/23 A3013 120 53 2300 250/07 RMK AO2 T03330228
53843K79J 79J20160707104511107/07/16 10:45:31  5-MIN K79J 071545Z AUTO VRB05KT 10SM FEW029 33/23 A3013 120 53 2300 VRB/05 RMK AO2 T03330228
53843K79J 79J20160707105011507/07/16 10:50:31  5-MIN K79J 071550Z AUTO VRB06KT 10SM CLR 34/23 A3013 120 51 2300 VRB/06 RMK AO2 SLP197 T03390228
53843K79J 79J20160707105511507/07/16 10:55:31  5-MIN K79J 071555Z AUTO 27008KT 10SM CLR 34/23 A3013 120 51 2300 270/08 RMK AO2 SLP196 T03390228
53843K79J 79J20160707110010807/07/16 11:00:31  5-MIN K79J 071600Z AUTO 24007KT 10SM CLR 34/22 A3013 120 48 2300 240/07 RMK AO2 T03390217
53843K79J 79J20160707110511407/07/16 11:05:31  5-MIN K79J 071605Z AUTO 27010G16KT 10SM CLR 34/22 A3013 120 46 2400 280/10G16 RMK AO2 T03440217
53843K79J 79J20160707111012407/07/16 11:10:31  5-MIN K79J 071610Z AUTO 26009KT 220V300 10SM CLR 34/21 A3013 120 46 2300 260/09 220V300 RMK AO2 T03390211
53843K79J 79J20160707111510807/07/16 11:15:31  5-MIN K79J 071615Z AUTO 26007KT 10SM CLR 34/22 A3013 120 48 2300 260/07 RMK AO2 T03390217
53843K79J 79J20160707112010807/07/16 11:20:31  5-MIN K79J 071620Z AUTO 27009KT 10SM CLR 34/22 A3013 120 48 2300 270/09 RMK AO2 T03390217
53843K79J 79J20160707112510807/07/16 11:25:31  5-MIN K79J 071625Z AUTO 25007KT 10SM CLR 34/21 A3012 130 45 2400 260/07 RMK AO2 T03440211
53843K79J 79J20160707113010807/07/16 11:30:31  5-MIN K79J 071630Z AUTO 26007KT 10SM CLR 34/21 A3012 130 45 2400 260/07 RMK AO2 T03440211
53843K79J 79J20160707113510807/07/16 11:35:31  5-MIN K79J 071635Z AUTO 26007KT 10SM CLR 35/22 A3012 130 45 2500 270/07 RMK AO2 T03500217
53843K79J 79J20160707114010807/07/16 11:40:31  5-MIN K79J 071640Z AUTO 27009KT 10SM CLR 35/22 A3012 130 45 2500 270/09 RMK AO2 T03500217
53843K79J 79J20160707114511407/07/16 11:45:31  5-MIN K79J 071645Z AUTO 27010G15KT 10SM CLR 35/21 A3012 130 43 2500 270/10G15 RMK AO2 T03500211
53843K79J 79J20160707115012107/07/16 11:50:31  5-MIN K79J 071650Z AUTO 24007G15KT 10SM CLR 35/21 A3012 130 42 2500 250/07G15 RMK AO2 SLP194 T03500206
53843K79J 79J20160707115511507/07/16 11:55:31  5-MIN K79J 071655Z AUTO 24007KT 10SM CLR 35/21 A3012 130 43 2500 240/07 RMK AO2 SLP193 T03500211
53843K79J 79J20160707120010807/07/16 12:00:31  5-MIN K79J 071700Z AUTO 27009KT 10SM CLR 35/22 A3012 130 45 2500 270/09 RMK AO2 T03500217
53843K79J 79J20160707121010107/07/16 12:10:31  5-MIN K79J 071710Z AUTO 28007KT 35/22 A3011 130 45 2500 280/07 RMK AO2 T03500217 $
53843K79J 79J20160707121510607/07/16 12:15:31  5-MIN K79J 071715Z AUTO VRB04KT 10SM 34/22 A3011 140 48 2400 VRB/04 RMK AO2 T03440222 $
53843K79J 79J20160707122010607/07/16 12:20:31  5-MIN K79J 071720Z AUTO VRB06KT 10SM 34/22 A3011 140 48 2400 VRB/06 RMK AO2 T03440222 $
53843K79J 79J20160707122510607/07/16 12:25:31  5-MIN K79J 071725Z AUTO 23006KT 10SM 36/23 A3011 140 47 2500 240/06 RMK AO2 T03560228 $
53843K79J 79J20160707123009607/07/16 12:30:31  5-MIN K79J 071730Z AUTO 10SM 36/22 A3011 140 45 2500 M /M RMK AO2 T03560222 $
53843K79J 79J20160707123510607/07/16 12:35:31  5-MIN K79J 071735Z AUTO 21008KT 10SM 36/22 A3011 140 44 2600 210/08 RMK AO2 T03610222 $
53843K79J 79J20160707124011307/07/16 12:40:31  5-MIN K79J 071740Z AUTO 24009KT 10SM FEW041 36/22 A3011 140 44 2600 240/09 RMK AO2 T03610222 $
53843K79J 79J20160707124511307/07/16 12:45:31  5-MIN K79J 071745Z AUTO 21007KT 10SM FEW045 36/22 A3011 140 44 2600 210/07 RMK AO2 T03610222 $
53843K79J 79J20160707125013207/07/16 12:50:31  5-MIN K79J 071750Z AUTO 25006KT 10SM SCT045 36/22 A3011 140 45 2500 250/06 RMK AO2 SLP190 T03560222 10361 20261 $
53843K79J 79J20160707125513207/07/16 12:55:31  5-MIN K79J 071755Z AUTO 23006KT 10SM SCT047 36/22 A3011 140 44 2600 230/06 RMK AO2 SLP189 T03610222 10361 20261 $
53843K79J 79J20160707130011307/07/16 13:00:31  5-MIN K79J 071800Z AUTO 26004KT 10SM SCT047 36/22 A3010 140 42 2600 260/04 RMK AO2 T03610217 $
53843K79J 79J20160707130511307/07/16 13:05:31  5-MIN K79J 071805Z AUTO 26007KT 10SM SCT047 36/22 A3010 140 44 2600 260/07 RMK AO2 T03610222 $
53843K79J 79J20160707131012007/07/16 13:10:31  5-MIN K79J 071810Z AUTO VRB05KT 10SM SCT047 BKN055 36/22 A3010 150 45 2500 VRB/05 RMK AO2 T03560222 $
53843K79J 79J20160707131511307/07/16 13:15:31  5-MIN K79J 071815Z AUTO VRB03KT 10SM SCT046 36/22 A3010 150 42 2600 VRB/03 RMK AO2 T03610217 $
53843K79J 79J20160707132011307/07/16 13:20:31  5-MIN K79J 071820Z AUTO 27008KT 10SM SCT048 37/22 A3010 150 41 2700 270/08 RMK AO2 T03670217 $
53843K79J 79J20160707132511307/07/16 13:25:31  5-MIN K79J 071825Z AUTO 26009KT 10SM SCT048 36/22 A3009 150 42 2600 260/09 RMK AO2 T03610217 $
53843K79J 79J20160707133011307/07/16 13:30:31  5-MIN K79J 071830Z AUTO 28006KT 10SM FEW048 36/22 A3009 150 42 2600 280/06 RMK AO2 T03610217 $
53843K79J 79J20160707133511307/07/16 13:35:31  5-MIN K79J 071835Z AUTO VRB04KT 10SM SCT047 36/22 A3009 150 44 2600 VRB/04 RMK AO2 T03560217 $
53843K79J 79J20160707134013607/07/16 13:40:31  5-MIN K79J 071840Z AUTO 22008KT 190V250 10SM SCT047 SCT060 36/21 A3009 150 42 2600 220/08 190V250 RMK AO2 T03560211 $
53843K79J 79J20160707134512007/07/16 13:45:31  5-MIN K79J 071845Z AUTO 27006KT 10SM SCT047 SCT060 36/21 A3009 160 41 2600 270/06 RMK AO2 T03610211 $
53843K79J 79J20160707135012707/07/16 13:50:31  5-MIN K79J 071850Z AUTO 28005KT 10SM SCT047 SCT060 36/22 A3008 160 42 2600 280/05 RMK AO2 SLP181 T03610217 $
53843K79J 79J20160707135514307/07/16 13:55:31  5-MIN K79J 071855Z AUTO 24007KT 230V290 10SM FEW047 SCT055 37/21 A3008 160 40 2700 250/07 230V290 RMK AO2 SLP181 T03670211 $
53843K79J 79J20160707140013607/07/16 14:00:31  5-MIN K79J 071900Z AUTO 24007KT 200V270 10SM FEW047 SCT055 37/21 A3008 160 40 2700 240/07 200V270 RMK AO2 T03670211 $
53843K79J 79J20160707140512007/07/16 14:05:31  5-MIN K79J 071905Z AUTO 26008KT 10SM FEW047 FEW055 36/21 A3008 160 41 2600 260/08 RMK AO2 T03610211 $
53843K79J 79J20160707141011307/07/16 14:10:31  5-MIN K79J 071910Z AUTO 29008KT 10SM FEW055 37/21 A3008 170 40 2700 290/08 RMK AO2 T03670211 $
53843K79J 79J20160707141511307/07/16 14:15:31  5-MIN K79J 071915Z AUTO VRB03KT 10SM FEW050 37/21 A3008 170 40 2700 VRB/03 RMK AO2 T03670211 $
53843K79J 79J20160707142011307/07/16 14:20:31  5-MIN K79J 071920Z AUTO 24008KT 10SM FEW055 37/21 A3008 170 38 2800 240/08 RMK AO2 T03720211 $
53843K79J 79J20160707142511007/07/16 14:25:31  5-MIN K79J 071925Z AUTO 25008KT 10SM CLR 37/21 A3007 170 38 2700 260/08 RMK AO2 T03670206 $
53843K79J 79J20160707143011007/07/16 14:30:31  5-MIN K79J 071930Z AUTO 25008KT 10SM CLR 37/21 A3007 170 38 2800 260/08 RMK AO2 T03720211 $
53843K79J 79J20160707143511007/07/16 14:35:31  5-MIN K79J 071935Z AUTO 24008KT 10SM CLR 37/21 A3007 170 38 2800 240/08 RMK AO2 T03720211 $
53843K79J 79J20160707144011307/07/16 14:40:31  5-MIN K79J 071940Z AUTO 23008KT 10SM FEW055 36/21 A3007 170 39 2600 230/08 RMK AO2 T03610206 $
53843K79J 79J20160707144511307/07/16 14:45:31  5-MIN K79J 071945Z AUTO 26007KT 10SM FEW055 37/21 A3007 170 38 2700 260/07 RMK AO2 T03670206 $
53843K79J 79J20160707145012007/07/16 14:50:31  5-MIN K79J 071950Z AUTO VRB06KT 10SM FEW055 37/21 A3007 180 40 2700 VRB/06 RMK AO2 SLP176 T03670211 $
53843K79J 79J20160707145512007/07/16 14:55:31  5-MIN K79J 071955Z AUTO 24008KT 10SM FEW055 37/21 A3007 180 40 2700 240/08 RMK AO2 SLP175 T03670211 $
53843K79J 79J20160707150011307/07/16 15:00:31  5-MIN K79J 072000Z AUTO 25007KT 10SM FEW055 37/21 A3007 180 37 2800 250/07 RMK AO2 T03720206 $
53843K79J 79J20160707150511307/07/16 15:05:31  5-MIN K79J 072005Z AUTO 26006KT 10SM FEW060 36/21 A3007 180 39 2600 260/06 RMK AO2 T03610206 $
53843K79J 79J20160707151007507/07/16 15:10:31  5-MIN K79J 072010Z AUTO 27009KT 10SM FEW060 37/21 A3006 
53843K79J 79J20160707224511007/07/16 22:45:31  5-MIN K79J 080345Z AUTO 23004KT 10SM CLR 29/23 A3007 170 71 1800 230/04 RMK AO2 T02890233 $
53843K79J 79J20160707225011707/07/16 22:50:31  5-MIN K79J 080350Z AUTO 22004KT 10SM CLR 29/24 A3007 170 74 1800 220/04 RMK AO2 SLP177 T02890239 $
53843K79J 79J20160707225511707/07/16 22:55:31  5-MIN K79J 080355Z AUTO 20004KT 10SM CLR 28/24 A3007 170 76 1800 200/04 RMK AO2 SLP176 T02830239 $
53843K79J 79J20160707230011007/07/16 23:00:31  5-MIN K79J 080400Z AUTO 20004KT 10SM CLR 28/24 A3007 180 76 1800 200/04 RMK AO2 T02830239 $
53843K79J 79J20160707230511007/07/16 23:05:31  5-MIN K79J 080405Z AUTO 19003KT 10SM CLR 28/24 A3006 180 76 1800 190/03 RMK AO2 T02830239 $
53843K79J 79J20160707231011007/07/16 23:10:31  5-MIN K79J 080410Z AUTO 20004KT 10SM CLR 28/24 A3006 180 76 1800 210/04 RMK AO2 T02830239 $
53843K79J 79J20160707231511007/07/16 23:15:31  5-MIN K79J 080415Z AUTO 21005KT 10SM CLR 28/24 A3006 180 76 1800 210/05 RMK AO2 T02830239 $
53843K79J 79J20160707232011007/07/16 23:20:31  5-MIN K79J 080420Z AUTO 21005KT 10SM CLR 28/24 A3006 190 76 1800 210/05 RMK AO2 T02830239 $
53843K79J 79J20160707232511007/07/16 23:25:31  5-MIN K79J 080425Z AUTO 20006KT 10SM CLR 28/24 A3005 190 76 1800 210/06 RMK AO2 T02830239 $
53843K79J 79J20160707233011007/07/16 23:30:31  5-MIN K79J 080430Z AUTO 22004KT 10SM CLR 28/24 A3005 190 76 1800 220/04 RMK AO2 T02830239 $
53843K79J 79J20160707233506307/07/16 23:35:31  5-MIN K79J 080435Z AUTO M M M M /M RMK AO2 $
53843K79J 79J20160707234010107/07/16 23:40:31  5-MIN K79J 080440Z AUTO 21005KT 28/24 A3005 190 76 1800 210/05 RMK AO2 T02830239 $
53843K79J 79J20160707234510607/07/16 23:45:31  5-MIN K79J 080445Z AUTO 21005KT 10SM 28/24 A3005 200 76 1800 210/05 RMK AO2 T02830239 $
53843K79J 79J20160707235012307/07/16 23:50:31  5-MIN K79J 080450Z AUTO 21005KT 10SM 28/24 A3005 200 76 1800 210/05 RMK AO2 SLP168 T02830239 403780250 $
53843K79J 79J20160707235512307/07/16 23:55:31  5-MIN K79J 080455Z AUTO 23004KT 10SM 28/24 A3005 190 76 1800 230/04 RMK AO2 SLP170 T02830239 403780250 $
53843K79J 79J20160708000010607/08/16 00:00:31  5-MIN K79J 080500Z AUTO 23005KT 10SM 28/24 A3005 190 76 1800 240/05 RMK AO2 T02830239 $
53843K79J 79J20160708000511007/08/16 00:05:31  5-MIN K79J 080505Z AUTO 23003KT 10SM CLR 28/24 A3005 190 76 1800 230/03 RMK AO2 T02830239 $
53843K79J 79J20160708001011007/08/16 00:10:31  5-MIN K79J 080510Z AUTO 23005KT 10SM CLR 28/24 A3005 190 76 1800 230/05 RMK AO2 T02830239 $
53843K79J 79J20160708001511007/08/16 00:15:31  5-MIN K79J 080515Z AUTO 24004KT 10SM CLR 28/24 A3005 190 76 1800 250/04 RMK AO2 T02830239 $
53843K79J 79J20160708002011007/08/16 00:20:31  5-MIN K79J 080520Z AUTO 22003KT 10SM CLR 28/24 A3005 190 76 1800 220/03 RMK AO2 T02830239 $
53843K79J 79J20160708002511007/08/16 00:25:31  5-MIN K79J 080525Z AUTO 23004KT 10SM CLR 28/24 A3005 200 76 1800 230/04 RMK AO2 T02830239 $
53843K79J 79J20160708003011007/08/16 00:30:31  5-MIN K79J 080530Z AUTO 22004KT 10SM CLR 28/24 A3005 200 79 1800 230/04 RMK AO2 T02780239 $
53843K79J 79J20160708003511007/08/16 00:35:31  5-MIN K79J 080535Z AUTO 21004KT 10SM CLR 28/24 A3004 200 79 1800 220/04 RMK AO2 T02780239 $
53843K79J 79J20160708004011007/08/16 00:40:31  5-MIN K79J 080540Z AUTO 23005KT 10SM CLR 28/24 A3005 200 79 1800 240/05 RMK AO2 T02780239 $
53843K79J 79J20160708004511007/08/16 00:45:31  5-MIN K79J 080545Z AUTO 22004KT 10SM CLR 28/24 A3005 200 79 1800 220/04 RMK AO2 T02780239 $
53843K79J 79J20160708005012907/08/16 00:50:31  5-MIN K79J 080550Z AUTO 23005KT 10SM CLR 28/24 A3005 200 79 1800 230/05 RMK AO2 SLP168 T02780239 10339 20278 $
53843K79J 79J20160708005512907/08/16 00:55:31  5-MIN K79J 080555Z AUTO 22003KT 10SM CLR 28/24 A3004 200 79 1800 220/03 RMK AO2 SLP167 T02780239 10339 20278 $
53843K79J 79J20160708010011007/08/16 01:00:31  5-MIN K79J 080600Z AUTO 22004KT 10SM CLR 28/24 A3004 200 79 1800 230/04 RMK AO2 T02780239 $
53843K79J 79J20160708010511007/08/16 01:05:31  5-MIN K79J 080605Z AUTO 22004KT 10SM CLR 28/24 A3004 200 79 1800 230/04 RMK AO2 T02780239 $
53843K79J 79J20160708011011007/08/16 01:10:31  5-MIN K79J 080610Z AUTO VRB03KT 10SM CLR 28/24 A3004 200 79 1800 VRB/03 RMK AO2 T02780239 $
53843K79J 79J20160708011511007/08/16 01:15:31  5-MIN K79J 080615Z AUTO 22003KT 10SM CLR 28/24 A3005 200 79 1800 230/03 RMK AO2 T02780239 $
53843K79J 79J20160708012011007/08/16 01:20:31  5-MIN K79J 080620Z AUTO 21004KT 10SM CLR 28/24 A3004 200 79 1800 220/04 RMK AO2 T02780239 $
53843K79J 79J20160708012511007/08/16 01:25:31  5-MIN K79J 080625Z AUTO 21004KT 10SM CLR 27/24 A3004 200 82 1700 210/04 RMK AO2 T02720239 $
53843K79J 79J20160708013011007/08/16 01:30:31  5-MIN K79J 080630Z AUTO 23003KT 10SM CLR 27/24 A3004 200 82 1700 230/03 RMK AO2 T02720239 $
53843K79J 79J20160708013511007/08/16 01:35:31  5-MIN K79J 080635Z AUTO 23004KT 10SM CLR 27/24 A3004 200 82 1700 230/04 RMK AO2 T02720239 $
53843K79J 79J20160708014011007/08/16 01:40:31  5-MIN K79J 080640Z AUTO 23005KT 10SM CLR 27/24 A3004 200 82 1700 230/05 RMK AO2 T02720239 $
53843K79J 79J20160708014511007/08/16 01:45:31  5-MIN K79J 080645Z AUTO 24004KT 10SM CLR 27/24 A3004 200 82 1700 240/04 RMK AO2 T02720239 $
53843K79J 79J20160708015011707/08/16 01:50:31  5-MIN K79J 080650Z AUTO 23004KT 10SM CLR 27/24 A3004 200 82 1700 230/04 RMK AO2 SLP165 T02720239 $
53843K79J 79J20160708015511707/08/16 01:55:31  5-MIN K79J 080655Z AUTO 22004KT 10SM CLR 27/24 A3004 200 82 1700 220/04 RMK AO2 SLP165 T02720239 $
53843K79J 79J20160708020011007/08/16 02:00:31  5-MIN K79J 080700Z AUTO 00000KT 10SM CLR 27/24 A3004 200 82 1700 000/00 RMK AO2 T02720239 $
53843K79J 79J20160708020511007/08/16 02:05:31  5-MIN K79J 080705Z AUTO 23003KT 10SM CLR 27/24 A3004 200 82 1700 230/03 RMK AO2 T02720239 $
53843K79J 79J20160708021011007/08/16 02:10:31  5-MIN K79J 080710Z AUTO 21004KT 10SM CLR 27/24 A3004 200 82 1700 210/04 RMK AO2 T02720239 $
53843K79J 79J20160708021511007/08/16 02:15:31  5-MIN K79J 080715Z AUTO VRB03KT 10SM CLR 27/24 A3004 200 82 1700 VRB/03 RMK AO2 T02720239 $
53843K79J 79J20160708022011007/08/16 02:20:31  5-MIN K79J 080720Z AUTO VRB03KT 10SM CLR 27/24 A3004 200 82 1700 VRB/03 RMK AO2 T02720239 $
53843K79J 79J20160708022511007/08/16 02:25:31  5-MIN K79J 080725Z AUTO 19004KT 10SM CLR 27/24 A3004 210 82 1700 200/04 RMK AO2 T02720239 $
53843K79J 79J20160708023011007/08/16 02:30:31  5-MIN K79J 080730Z AUTO VRB03KT 10SM CLR 27/24 A3004 200 82 1700 VRB/03 RMK AO2 T02720239 $
53843K79J 79J20160708023511007/08/16 02:35:31  5-MIN K79J 080735Z AUTO 21003KT 10SM CLR 27/24 A3004 200 82 1700 220/03 RMK AO2 T02720239 $
53843K79J 79J20160708024011007/08/16 02:40:31  5-MIN K79J 080740Z AUTO 00000KT 10SM CLR 27/24 A3004 200 82 1700 000/00 RMK AO2 T02720239 $
53843K79J 79J20160708024511007/08/16 02:45:31  5-MIN K79J 080745Z AUTO VRB03KT 10SM CLR 27/24 A3004 200 82 1700 VRB/03 RMK AO2 T02720239 $
53843K79J 79J20160708025011707/08/16 02:50:31  5-MIN K79J 080750Z AUTO 26003KT 10SM CLR 27/24 A3004 200 82 1700 260/03 RMK AO2 SLP166 T02720239 $
53843K79J 79J20160708025511707/08/16 02:55:31  5-MIN K79J 080755Z AUTO 00000KT 10SM CLR 27/24 A3004 200 82 1700 000/00 RMK AO2 SLP166 T02720239 $
53843K79J 79J20160708030011007/08/16 03:00:31  5-MIN K79J 080800Z AUTO 00000KT 10SM CLR 27/24 A3004 200 84 1600 000/00 RMK AO2 T02670239 $
53843K79J 79J20160708030511007/08/16 03:05:31  5-MIN K79J 080805Z AUTO 00000KT 10SM CLR 27/24 A3004 200 84 1600 000/00 RMK AO2 T02670239 $
53843K79J 79J20160708031011007/08/16 03:10:31  5-MIN K79J 080810Z AUTO 00000KT 10SM CLR 27/24 A3004 200 84 1600 000/00 RMK AO2 T02670239 $
53843K79J 79J20160708031511007/08/16 03:15:31  5-MIN K79J 080815Z AUTO 00000KT 10SM CLR 27/24 A3004 210 84 1600 000/00 RMK AO2 T02670239 $
53843K79J 79J20160708032011007/08/16 03:20:31  5-MIN K79J 080820Z AUTO 19003KT 10SM CLR 27/24 A3003 210 84 1600 190/03 RMK AO2 T02670239 $
53843K79J 79J20160708032511007/08/16 03:25:31  5-MIN K79J 080825Z AUTO 00000KT 10SM CLR 27/24 A3004 200 84 1600 000/00 RMK AO2 T02670239 $
53843K79J 79J20160708033011007/08/16 03:30:31  5-MIN K79J 080830Z AUTO 00000KT 10SM CLR 27/24 A3004 200 84 1600 000/00 RMK AO2 T02670239 $
53843K79J 79J20160708033511007/08/16 03:35:31  5-MIN K79J 080835Z AUTO 21003KT 10SM CLR 27/24 A3004 200 84 1600 210/03 RMK AO2 T02670239 $
53843K79J 79J20160708034011007/08/16 03:40:31  5-MIN K79J 080840Z AUTO 00000KT 10SM CLR 27/24 A3004 200 84 1600 000/00 RMK AO2 T02670239 $
53843K79J 79J20160708034511007/08/16 03:45:31  5-MIN K79J 080845Z AUTO 00000KT 10SM CLR 27/24 A3004 200 84 1600 000/00 RMK AO2 T02670239 $
53843K79J 79J20160708035011707/08/16 03:50:31  5-MIN K79J 080850Z AUTO 20003KT 10SM CLR 27/23 A3004 200 82 1600 200/03 RMK AO2 SLP165 T02670233 $
53843K79J 79J20160708035511707/08/16 03:55:31  5-MIN K79J 080855Z AUTO 00000KT 10SM CLR 27/23 A3004 200 82 1600 000/00 RMK AO2 SLP166 T02670233 $
53843K79J 79J20160708040011007/08/16 04:00:31  5-MIN K79J 080900Z AUTO 00000KT 10SM CLR 27/23 A3004 200 82 1600 000/00 RMK AO2 T02670233 $
53843K79J 79J20160708040511007/08/16 04:05:31  5-MIN K79J 080905Z AUTO 00000KT 10SM CLR 27/24 A3004 200 84 1600 000/00 RMK AO2 T02670239 $
53843K79J 79J20160708041011007/08/16 04:10:31  5-MIN K79J 080910Z AUTO 00000KT 10SM CLR 27/24 A3005 200 84 1600 000/00 RMK AO2 T02670239 $
53843K79J 79J20160708041511007/08/16 04:15:31  5-MIN K79J 080915Z AUTO 00000KT 10SM CLR 27/24 A3005 190 84 1600 000/00 RMK AO2 T02670239 $
53843K79J 79J20160708042011007/08/16 04:20:31  5-MIN K79J 080920Z AUTO 00000KT 10SM CLR 27/24 A3005 190 84 1600 000/00 RMK AO2 T02670239 $
53843K79J 79J20160708042511007/08/16 04:25:31  5-MIN K79J 080925Z AUTO 00000KT 10SM CLR 27/24 A3006 190 84 1600 000/00 RMK AO2 T02670239 $
53843K79J 79J20160708043011007/08/16 04:30:31  5-MIN K79J 080930Z AUTO 00000KT 10SM CLR 26/23 A3005 190 84 1600 000/00 RMK AO2 T02610233 $
53843K79J 79J20160708043511007/08/16 04:35:31  5-MIN K79J 080935Z AUTO 00000KT 10SM CLR 26/23 A3006 190 84 1600 000/00 RMK AO2 T02610233 $
53843K79J 79J20160708044011007/08/16 04:40:31  5-MIN K79J 080940Z AUTO 00000KT 10SM CLR 26/23 A3006 180 84 1500 000/00 RMK AO2 T02610233 $
53843K79J 79J20160708044511007/08/16 04:45:31  5-MIN K79J 080945Z AUTO 00000KT 10SM CLR 26/23 A3007 180 84 1500 000/00 RMK AO2 T02610233 $
53843K79J 79J20160708045011707/08/16 04:50:31  5-MIN K79J 080950Z AUTO 01003KT 10SM CLR 26/23 A3007 170 84 1500 010/03 RMK AO2 SLP177 T02610233 $
53843K79J 79J20160708045512407/08/16 04:55:31  5-MIN K79J 080955Z AUTO 00000KT 10SM CLR 26/23 A3008 170 84 1500 000/00 RMK AO2 PRESRR SLP179 T02610233 $
53843K79J 79J20160708050011007/08/16 05:00:31  5-MIN K79J 081000Z AUTO 00000KT 10SM CLR 26/23 A3008 160 84 1500 000/00 RMK AO2 T02610233 $
53843K79J 79J20160708050511007/08/16 05:05:31  5-MIN K79J 081005Z AUTO 00000KT 10SM CLR 26/23 A3008 160 84 1500 000/00 RMK AO2 T02610233 $
53843K79J 79J20160708051011007/08/16 05:10:31  5-MIN K79J 081010Z AUTO 00000KT 10SM CLR 26/23 A3009 160 84 1500 000/00 RMK AO2 T02610233 $
53843K79J 79J20160708051511007/08/16 05:15:31  5-MIN K79J 081015Z AUTO 00000KT 10SM CLR 26/23 A3009 160 84 1500 000/00 RMK AO2 T02610233 $
53843K79J 79J20160708052011007/08/16 05:20:31  5-MIN K79J 081020Z AUTO 00000KT 10SM CLR 26/23 A3009 150 84 1500 000/00 RMK AO2 T02610233 $
53843K79J 79J20160708052511007/08/16 05:25:31  5-MIN K79J 081025Z AUTO 00000KT 10SM CLR 26/23 A3010 150 84 1500 000/00 RMK AO2 T02610233 $
53843K79J 79J20160708053011307/08/16 05:30:31  5-MIN K79J 081030Z AUTO 00000KT 10SM FEW019 26/23 A3010 150 84 1500 000/00 RMK AO2 T02610233 $
53843K79J 79J20160708053511307/08/16 05:35:31  5-MIN K79J 081035Z AUTO 00000KT 10SM FEW019 26/23 A3010 150 84 1500 000/00 RMK AO2 T02610233 $
53843K79J 79J20160708054011307/08/16 05:40:31  5-MIN K79J 081040Z AUTO 00000KT 10SM FEW018 26/23 A3010 140 87 1400 000/00 RMK AO2 T02560233 $
53843K79J 79J20160708054511207/08/16 05:45:31  5-MIN K79J 081045Z AUTO 00000KT 8SM SCT018 26/23 A3011 140 87 1400 000/00 RMK AO2 T02560233 $
53843K79J 79J20160708055011907/08/16 05:50:31  5-MIN K79J 081050Z AUTO 00000KT 8SM SCT019 26/23 A3011 140 87 1400 000/00 RMK AO2 SLP188 T02560233 $
53843K79J 79J20160708055511907/08/16 05:55:31  5-MIN K79J 081055Z AUTO 00000KT 8SM FEW019 26/23 A3011 140 84 1400 000/00 RMK AO2 SLP188 T02560228 $
53843K79J 79J20160708060011207/08/16 06:00:31  5-MIN K79J 081100Z AUTO 00000KT 7SM FEW019 26/23 A3011 140 84 1400 000/00 RMK AO2 T02560228 $
53843K79J 79J20160708060511207/08/16 06:05:31  5-MIN K79J 081105Z AUTO 00000KT 7SM FEW019 26/23 A3011 140 84 1400 000/00 RMK AO2 T02560228 $
53843K79J 79J20160708061011207/08/16 06:10:31  5-MIN K79J 081110Z AUTO 00000KT 7SM FEW019 26/23 A3011 140 84 1400 000/00 RMK AO2 T02560228 $
53843K79J 79J20160708061510907/08/16 06:15:31  5-MIN K79J 081115Z AUTO 00000KT 8SM CLR 26/23 A3011 140 87 1400 000/00 RMK AO2 T02560233 $
53843K79J 79J20160708062011007/08/16 06:20:31  5-MIN K79J 081120Z AUTO 00000KT 10SM CLR 26/23 A3011 130 84 1500 000/00 RMK AO2 T02610233 $
53843K79J 79J20160708062511007/08/16 06:25:31  5-MIN K79J 081125Z AUTO 00000KT 10SM CLR 26/23 A3012 130 84 1500 000/00 RMK AO2 T02610233 $
53843K79J 79J20160708063011007/08/16 06:30:31  5-MIN K79J 081130Z AUTO 00000KT 10SM CLR 26/23 A3012 130 84 1500 000/00 RMK AO2 T02610233 $
53843K79J 79J20160708063510807/08/16 06:35:31  5-MIN K79J 081135Z AUTO 00000KT 10SM CLR 26/23 A3012 130 84 1500 000/00 RMK AO2 T02610233
53843K79J 79J20160708064010807/08/16 06:40:31  5-MIN K79J 081140Z AUTO 00000KT 10SM CLR 27/24 A3012 130 84 1500 000/00 RMK AO2 T02670239
53843K79J 79J20160708064510807/08/16 06:45:31  5-MIN K79J 081145Z AUTO 00000KT 10SM CLR 27/24 A3012 130 84 1500 000/00 RMK AO2 T02670239
53843K79J 79J20160708065013307/08/16 06:50:31  5-MIN K79J 081150Z AUTO 00000KT 10SM CLR 27/24 A3012 130 82 1600 000/00 RMK AO2 SLP194 T02720239 10278 20256 56001
53843K79J 79J20160708065513307/08/16 06:55:31  5-MIN K79J 081155Z AUTO 00000KT 10SM CLR 28/24 A3012 130 79 1700 000/00 RMK AO2 SLP194 T02780239 10278 20256 56001
53843K79J 79J20160708070010807/08/16 07:00:31  5-MIN K79J 081200Z AUTO 00000KT 10SM CLR 28/24 A3012 130 79 1700 000/00 RMK AO2 T02780239
53843K79J 79J20160708070510807/08/16 07:05:31  5-MIN K79J 081205Z AUTO 00000KT 10SM CLR 28/24 A3012 120 82 1700 000/00 RMK AO2 T02780244
53843K79J 79J20160708071010807/08/16 07:10:31  5-MIN K79J 081210Z AUTO 00000KT 10SM CLR 28/24 A3013 120 79 1700 000/00 RMK AO2 T02830244
53843K79J 79J20160708071510807/08/16 07:15:31  5-MIN K79J 081215Z AUTO 31003KT 10SM CLR 28/24 A3013 120 76 1700 310/03 RMK AO2 T02830239
53843K79J 79J20160708072011107/08/16 07:20:31  5-MIN K79J 081220Z AUTO 31004KT 10SM FEW020 28/24 A3013 120 76 1700 310/04 RMK AO2 T02830239
53843K79J 79J20160708072511107/08/16 07:25:31  5-MIN K79J 081225Z AUTO 30003KT 10SM FEW020 28/24 A3013 120 76 1700 300/03 RMK AO2 T02830239
53843K79J 79J20160708073011107/08/16 07:30:31  5-MIN K79J 081230Z AUTO 30003KT 10SM FEW021 29/24 A3013 120 74 1800 300/03 RMK AO2 T02890239
53843K79J 79J20160708073511107/08/16 07:35:31  5-MIN K79J 081235Z AUTO 27003KT 10SM FEW021 29/24 A3013 120 74 1800 270/03 RMK AO2 T02890239
53843K79J 79J20160708074011107/08/16 07:40:31  5-MIN K79J 081240Z AUTO 28003KT 10SM FEW021 29/24 A3013 120 71 1800 280/03 RMK AO2 T02940239
53843K79J 79J20160708074511107/08/16 07:45:31  5-MIN K79J 081245Z AUTO 24003KT 10SM FEW021 29/24 A3013 120 74 1800 240/03 RMK AO2 T02940244
53843K79J 79J20160708075011507/08/16 07:50:31  5-MIN K79J 081250Z AUTO 23004KT 10SM CLR 29/24 A3013 110 74 1800 240/04 RMK AO2 SLP198 T02940244
53843K79J 79J20160708075511507/08/16 07:55:31  5-MIN K79J 081255Z AUTO 27006KT 10SM CLR 29/24 A3013 110 74 1800 280/06 RMK AO2 SLP198 T02940244
53843K79J 79J20160708080010807/08/16 08:00:31  5-MIN K79J 081300Z AUTO 27006KT 10SM CLR 29/24 A3014 110 71 1800 270/06 RMK AO2 T02940239
53843K79J 79J20160708080510807/08/16 08:05:31  5-MIN K79J 081305Z AUTO 27006KT 10SM CLR 30/24 A3014 110 72 1900 270/06 RMK AO2 T03000244
53843K79J 79J20160708081010807/08/16 08:10:31  5-MIN K79J 081310Z AUTO 27008KT 10SM CLR 30/24 A3014 110 72 1900 270/08 RMK AO2 T03000244
53843K79J 79J20160708081511107/08/16 08:15:31  5-MIN K79J 081315Z AUTO 27005KT 10SM FEW023 31/24 A3014 110 69 2000 270/05 RMK AO2 T03060244
53843K79J 79J20160708082011807/08/16 08:20:31  5-MIN K79J 081320Z AUTO 27006KT 10SM FEW019 FEW023 31/24 A3014 110 69 2000 270/06 RMK AO2 T03060244
53843K79J 79J20160708082511807/08/16 08:25:31  5-MIN K79J 081325Z AUTO 25006KT 10SM SCT019 SCT025 31/24 A3014 110 67 2000 260/06 RMK AO2 T03110244
53843K79J 79J20160708083011807/08/16 08:30:31  5-MIN K79J 081330Z AUTO 28006KT 10SM SCT019 BKN025 31/24 A3015 100 69 2000 280/06 RMK AO2 T03060244
53843K79J 79J20160708083511807/08/16 08:35:31  5-MIN K79J 081335Z AUTO 29007KT 10SM SCT019 SCT025 31/24 A3015 100 69 2000 290/07 RMK AO2 T03060244
53843K79J 79J20160708084011807/08/16 08:40:31  5-MIN K79J 081340Z AUTO 26006KT 10SM SCT019 SCT025 31/24 A3014 110 67 2000 260/06 RMK AO2 T03110244
53843K79J 79J20160708084511107/08/16 08:45:31  5-MIN K79J 081345Z AUTO 27007KT 10SM SCT019 32/24 A3014 110 65 2100 270/07 RMK AO2 T03170244
53843K79J 79J20160708085011807/08/16 08:50:31  5-MIN K79J 081350Z AUTO 28007KT 10SM SCT019 32/24 A3014 110 65 2100 280/07 RMK AO2 SLP201 T03170244
53843K79J 79J20160708085511807/08/16 08:55:31  5-MIN K79J 081355Z AUTO 28008KT 10SM FEW019 32/24 A3014 110 63 2100 280/08 RMK AO2 SLP201 T03170239
53843K79J 79J20160708090011107/08/16 09:00:31  5-MIN K79J 081400Z AUTO 29010KT 10SM SCT019 32/24 A3014 110 61 2100 290/10 RMK AO2 T03220239
53843K79J 79J20160708090511107/08/16 09:05:31  5-MIN K79J 081405Z AUTO 28010KT 10SM FEW019 32/24 A3014 110 61 2100 280/10 RMK AO2 T03220239
53843K79J 79J20160708091011107/08/16 09:10:31  5-MIN K79J 081410Z AUTO 30010KT 10SM FEW019 32/24 A3014 110 61 2100 300/10 RMK AO2 T03220239
53843K79J 79J20160708091511107/08/16 09:15:31  5-MIN K79J 081415Z AUTO 29008KT 10SM FEW021 32/24 A3014 110 61 2100 300/08 RMK AO2 T03220239
53843K79J 79J20160708092011107/08/16 09:20:31  5-MIN K79J 081420Z AUTO 28007KT 10SM FEW021 32/24 A3014 110 61 2100 280/07 RMK AO2 T03220239
53843K79J 79J20160708092511107/08/16 09:25:31  5-MIN K79J 081425Z AUTO 28008KT 10SM FEW021 32/24 A3014 110 61 2100 290/08 RMK AO2 T03220239
53843K79J 79J20160708093011107/08/16 09:30:31  5-MIN K79J 081430Z AUTO 27007KT 10SM FEW023 32/23 A3014 110 59 2100 270/07 RMK AO2 T03220233
53843K79J 79J20160708093511107/08/16 09:35:31  5-MIN K79J 081435Z AUTO 29009KT 10SM FEW023 33/23 A3014 110 57 2200 290/09 RMK AO2 T03280233
53843K79J 79J20160708094011107/08/16 09:40:31  5-MIN K79J 081440Z AUTO 29010KT 10SM FEW025 33/23 A3014 110 55 2300 300/10 RMK AO2 T03330233
53843K79J 79J20160708094511807/08/16 09:45:31  5-MIN K79J 081445Z AUTO 26009KT 10SM SCT025 SCT034 33/23 A3014 110 55 2200 260/09 RMK AO2 T03280228
53843K79J 79J20160708095013107/08/16 09:50:31  5-MIN K79J 081450Z AUTO 29008KT 10SM SCT025 BKN034 32/23 A3014 110 59 2100 290/08 RMK AO2 SLP200 T03220233 51028
53843K79J 79J20160708095513107/08/16 09:55:31  5-MIN K79J 081455Z AUTO 26005KT 10SM SCT026 SCT032 32/23 A3014 110 57 2100 270/05 RMK AO2 SLP199 T03220228 51028
53843K79J 79J20160708100011107/08/16 10:00:31  5-MIN K79J 081500Z AUTO VRB06KT 10SM SCT028 33/23 A3014 110 53 2300 VRB/06 RMK AO2 T03330228
53843K79J 79J20160708100511107/08/16 10:05:31  5-MIN K79J 081505Z AUTO 31008KT 10SM SCT028 32/23 A3014 110 57 2100 320/08 RMK AO2 T03220228
53843K79J 79J20160708101012507/08/16 10:10:31  5-MIN K79J 081510Z AUTO 31006KT 10SM SCT028 SCT034 SCT045 33/23 A3013 110 55 2200 310/06 RMK AO2 T03280228
53843K79J 79J20160708101512507/08/16 10:15:31  5-MIN K79J 081515Z AUTO 28009KT 10SM FEW028 SCT034 BKN045 34/23 A3013 110 53 2300 290/09 RMK AO2 T03390233
53843K79J 79J20160708102011807/08/16 10:20:31  5-MIN K79J 081520Z AUTO 26006KT 10SM FEW028 SCT038 33/23 A3013 120 53 2300 260/06 RMK AO2 T03330228
53843K79J 79J20160708102511807/08/16 10:25:31  5-MIN K79J 081525Z AUTO 25005KT 10SM FEW028 SCT037 34/23 A3013 120 51 2300 250/05 RMK AO2 T03390228
53843K79J 79J20160708103013407/08/16 10:30:31  5-MIN K79J 081530Z AUTO 25007KT 230V290 10SM SCT034 SCT041 34/23 A3013 120 52 2400 250/07 230V290 RMK AO2 T03440233
53843K79J 79J20160708103512507/08/16 10:35:31  5-MIN K79J 081535Z AUTO 26006KT 10SM SCT034 SCT047 SCT060 34/23 A3013 120 52 2400 260/06 RMK AO2 T03440233
53843K79J 79J20160708104012507/08/16 10:40:31  5-MIN K79J 081540Z AUTO 26008KT 10SM SCT029 SCT034 BKN060 34/23 A3013 120 53 2300 270/08 RMK AO2 T03390233
53843K79J 79J20160708104511107/08/16 10:45:31  5-MIN K79J 081545Z AUTO 27006KT 10SM SCT032 33/23 A3013 120 55 2200 270/06 RMK AO2 T03280228
53843K79J 79J20160708105011807/08/16 10:50:31  5-MIN K79J 081550Z AUTO 27006KT 10SM FEW032 33/22 A3013 120 53 2200 270/06 RMK AO2 SLP197 T03280222
53843K79J 79J20160708105513407/08/16 10:55:31  5-MIN K79J 081555Z AUTO 28008KT 250V320 10SM SCT034 34/23 A3013 120 50 2400 280/08 250V320 RMK AO2 SLP197 T03440228
53843K79J 79J20160708110011107/08/16 11:00:31  5-MIN K79J 081600Z AUTO 28009KT 10SM SCT034 34/22 A3013 120 50 2300 280/09 RMK AO2 T03390222
53843K79J 79J20160708110511107/08/16 11:05:31  5-MIN K79J 081605Z AUTO 31007KT 10SM SCT034 33/22 A3013 120 50 2300 310/07 RMK AO2 T03330217
53843K79J 79J20160708111011107/08/16 11:10:31  5-MIN K79J 081610Z AUTO 32005KT 10SM FEW034 34/22 A3013 120 48 2400 320/05 RMK AO2 T03440222
53843K79J 79J20160708111511107/08/16 11:15:31  5-MIN K79J 081615Z AUTO 27008KT 10SM SCT036 34/22 A3013 120 48 2400 270/08 RMK AO2 T03440222
53843K79J 79J20160708112011107/08/16 11:20:31  5-MIN K79J 081620Z AUTO 22005KT 10SM SCT036 34/22 A3013 120 46 2400 220/05 RMK AO2 T03440217
53843K79J 79J20160708112511107/08/16 11:25:31  5-MIN K79J 081625Z AUTO 27005KT 10SM SCT036 34/22 A3013 120 48 2400 270/05 RMK AO2 T03440222
53843K79J 79J20160708113011107/08/16 11:30:31  5-MIN K79J 081630Z AUTO 26006KT 10SM FEW038 34/22 A3012 120 46 2400 270/06 RMK AO2 T03440217
53843K79J 79J20160708113512707/08/16 11:35:31  5-MIN K79J 081635Z AUTO 29007KT 270V340 10SM FEW038 35/21 A3012 130 43 2500 300/07 270V340 RMK AO2 T03500211
53843K79J 79J20160708114011107/08/16 11:40:31  5-MIN K79J 081640Z AUTO 32009KT 10SM FEW038 36/21 A3012 130 41 2500 320/09 RMK AO2 T03560206
53843K79J 79J20160708114511107/08/16 11:45:31  5-MIN K79J 081645Z AUTO 33005KT 10SM FEW038 36/21 A3012 130 41 2500 330/05 RMK AO2 T03560206
53843K79J 79J20160708115011807/08/16 11:50:31  5-MIN K79J 081650Z AUTO VRB04KT 10SM SCT042 36/21 A3011 130 42 2500 VRB/04 RMK AO2 SLP191 T03560211
53843K79J 79J20160708115510807/08/16 11:55:31  5-MIN K79J 081655Z AUTO 10SM SCT044 36/22 A3011 130 44 2500 M /M RMK AO2 SLP191 T03560217
53843K79J 79J20160708120011107/08/16 12:00:31  5-MIN K79J 081700Z AUTO VRB03KT 10SM SCT044 36/21 A3011 130 42 2500 VRB/03 RMK AO2 T03560211
53843K79J 79J20160708120511107/08/16 12:05:31  5-MIN K79J 081705Z AUTO VRB06KT 10SM SCT044 36/22 A3011 130 44 2500 VRB/06 RMK AO2 T03560217
53843K79J 79J20160708121011107/08/16 12:10:31  5-MIN K79J 081710Z AUTO VRB05KT 10SM SCT044 35/20 A3011 140 40 2500 VRB/05 RMK AO2 T03500200
53843K79J 79J20160708121511107/08/16 12:15:31  5-MIN K79J 081715Z AUTO 28007KT 10SM FEW044 36/21 A3011 140 42 2500 290/07 RMK AO2 T03560211
53843K79J 79J20160708122011107/08/16 12:20:31  5-MIN K79J 081720Z AUTO 25004KT 10SM FEW047 36/21 A3011 140 41 2600 250/04 RMK AO2 T03610211
53843K79J 79J20160708122511107/08/16 12:25:31  5-MIN K79J 081725Z AUTO 29006KT 10SM SCT047 36/21 A3011 140 41 2600 290/06 RMK AO2 T03610211
53843K79J 79J20160708123011107/08/16 12:30:31  5-MIN K79J 081730Z AUTO 28008KT 10SM SCT049 36/21 A3011 140 41 2600 280/08 RMK AO2 T03610211
53843K79J 79J20160708123511107/08/16 12:35:31  5-MIN K79J 081735Z AUTO 23007KT 10SM SCT049 36/22 A3011 140 42 2600 230/07 RMK AO2 T03610217
53843K79J 79J20160708124011107/08/16 12:40:31  5-MIN K79J 081740Z AUTO 25007KT 10SM BKN049 36/22 A3010 140 44 2500 250/07 RMK AO2 T03560217
53843K79J 79J20160708124511107/08/16 12:45:31  5-MIN K79J 081745Z AUTO VRB04KT 10SM BKN047 36/22 A3010 150 44 2500 VRB/04 RMK AO2 T03560217
53843K79J 79J20160708125013607/08/16 12:50:31  5-MIN K79J 081750Z AUTO 22005KT 10SM BKN047 36/21 A3010 150 41 2600 220/05 RMK AO2 SLP187 T03610211 10361 20278 50005
53843K79J 79J20160708125515207/08/16 12:55:31  5-MIN K79J 081755Z AUTO 30007KT 250V330 10SM BKN047 36/21 A3010 150 42 2600 300/07 250V330 RMK AO2 SLP186 T03560211 10361 20278 50005
53843K79J 79J20160708130011107/08/16 13:00:31  5-MIN K79J 081800Z AUTO VRB05KT 10SM BKN047 36/21 A3010 150 42 2600 VRB/05 RMK AO2 T03560211
53843K79J 79J20160708130511107/08/16 13:05:31  5-MIN K79J 081805Z AUTO 27005KT 10SM SCT047 36/20 A3009 150 38 2600 270/05 RMK AO2 T03610200
53843K79J 79J20160708131011107/08/16 13:10:31  5-MIN K79J 081810Z AUTO VRB04KT 10SM FEW047 37/20 A3009 160 37 2700 VRB/04 RMK AO2 T03670200
53843K79J 79J20160708131511107/08/16 13:15:31  5-MIN K79J 081815Z AUTO VRB04KT 10SM FEW047 37/21 A3009 160 38 2700 VRB/04 RMK AO2 T03720211
53843K79J 79J20160708132011807/08/16 13:20:31  5-MIN K79J 081820Z AUTO 25006KT 10SM FEW049 SCT060 37/21 A3009 160 40 2700 250/06 RMK AO2 T03670211
53843K79J 79J20160708132511107/08/16 13:25:31  5-MIN K79J 081825Z AUTO VRB05KT 10SM FEW050 37/21 A3008 160 38 2700 VRB/05 RMK AO2 T03670206
53843K79J 79J20160708133011107/08/16 13:30:31  5-MIN K79J 081830Z AUTO 34006KT 10SM FEW050 37/21 A3008 160 38 2800 340/06 RMK AO2 T03720211
53843K79J 79J20160708133511107/08/16 13:35:31  5-MIN K79J 081835Z AUTO 34004KT 10SM FEW050 37/21 A3008 160 38 2700 340/04 RMK AO2 T03670206
53843K79J 79J20160708134011107/08/16 13:40:31  5-MIN K79J 081840Z AUTO 28004KT 10SM FEW050 37/21 A3008 160 37 2800 280/04 RMK AO2 T03720206
53843K79J 79J20160708134511107/08/16 13:45:31  5-MIN K79J 081845Z AUTO 00000KT 10SM FEW050 37/19 A3008 170 34 2800 000/00 RMK AO2 T03720194
53843K79J 79J20160708135011507/08/16 13:50:31  5-MIN K79J 081850Z AUTO VRB06KT 10SM CLR 37/20 A3008 170 36 2800 VRB/06 RMK AO2 SLP178 T03720200
53843K79J 79J20160708135511507/08/16 13:55:31  5-MIN K79J 081855Z AUTO 32005KT 10SM CLR 37/20 A3007 170 36 2800 320/05 RMK AO2 SLP178 T03720200
53843K79J 79J20160708140010807/08/16 14:00:31  5-MIN K79J 081900Z AUTO VRB03KT 10SM CLR 37/20 A3007 170 36 2800 VRB/03 RMK AO2 T03720200
53843K79J 79J20160708140510807/08/16 14:05:31  5-MIN K79J 081905Z AUTO 34003KT 10SM CLR 37/19 A3007 170 34 2800 340/03 RMK AO2 T03720194
53843K79J 79J20160708141010807/08/16 14:10:31  5-MIN K79J 081910Z AUTO 28009KT 10SM CLR 38/19 A3007 170 33 2800 290/09 RMK AO2 T03780194
53843K79J 79J20160708141510807/08/16 14:15:31  5-MIN K79J 081915Z AUTO 26008KT 10SM CLR 37/19 A3007 170 33 2800 260/08 RMK AO2 T03720189
53843K79J 79J20160708142012407/08/16 14:20:31  5-MIN K79J 081920Z AUTO 24007KT 210V300 10SM CLR 37/19 A3007 170 33 2800 240/07 210V300 RMK AO2 T03720189
53843K79J 79J20160708142510807/08/16 14:25:31  5-MIN K79J 081925Z AUTO 29005KT 10SM CLR 37/19 A3007 180 34 2800 290/05 RMK AO2 T03720194
53843K79J 79J20160708143010807/08/16 14:30:31  5-MIN K79J 081930Z AUTO VRB05KT 10SM CLR 37/19 A3006 180 34 2800 VRB/05 RMK AO2 T03720194
53843K79J 79J20160708143510807/08/16 14:35:31  5-MIN K79J 081935Z AUTO VRB05KT 10SM CLR 37/19 A3006 180 34 2800 VRB/05 RMK AO2 T03720194
53843K79J 79J20160708144010807/08/16 14:40:31  5-MIN K79J 081940Z AUTO VRB04KT 10SM CLR 38/19 A3006 180 32 2900 VRB/04 RMK AO2 T03830194
53843K79J 79J20160708144510807/08/16 14:45:31  5-MIN K79J 081945Z AUTO VRB06KT 10SM CLR 38/20 A3006 190 35 2800 VRB/06 RMK AO2 T03780200
53843K79J 79J20160708145011507/08/16 14:50:31  5-MIN K79J 081950Z AUTO 20007KT 10SM CLR 38/20 A3005 190 35 2800 200/07 RMK AO2 SLP171 T03780200
53843K79J 79J20160708145511507/08/16 14:55:31  5-MIN K79J 081955Z AUTO 20008KT 10SM CLR 38/19 A3005 190 33 2800 200/08 RMK AO2 SLP170 T03780194
53843K79J 79J20160708150010807/08/16 15:00:31  5-MIN K79J 082000Z AUTO VRB06KT 10SM CLR 38/19 A3005 190 33 2800 VRB/06 RMK AO2 T03780194
53843K79J 79J20160708150510807/08/16 15:05:31  5-MIN K79J 082005Z AUTO 27006KT 10SM CLR 38/19 A3005 200 33 2900 280/06 RMK AO2 T03780194
53843K79J 79J20160708151012407/08/16 15:10:31  5-MIN K79J 082010Z AUTO 24007KT 210V270 10SM CLR 38/19 A3005 200 33 2900 240/07 210V270 RMK AO2 T03780194
53843K79J 79J20160708151510807/08/16 15:15:31  5-MIN K79J 082015Z AUTO VRB04KT 10SM CLR 38/20 A3004 200 35 2900 VRB/04 RMK AO2 T03780200
53843K79J 79J20160708152010807/08/16 15:20:31  5-MIN K79J 082020Z AUTO 00000KT 10SM CLR 38/20 A3004 200 35 2900 000/00 RMK AO2 T03780200
53843K79J 79J20160708152509807/08/16 15:25:31  5-MIN K79J 082025Z AUTO 10SM CLR 38/20 A3004 200 35 2900 M /M RMK AO2 T03780200
53843K79J 79J20160708153010807/08/16 15:30:31  5-MIN K79J 082030Z AUTO VRB06KT 10SM CLR 38/20 A3004 200 35 2900 VRB/06 RMK AO2 T03780200
53843K79J 79J20160708153510807/08/16 15:35:31  5-MIN K79J 082035Z AUTO 26007KT 10SM CLR 38/20 A3003 210 35 2900 260/07 RMK AO2 T03780200
53843K79J 79J20160708154010807/08/16 15:40:31  5-MIN K79J 082040Z AUTO VRB06KT 10SM CLR 37/20 A3003 210 36 2800 VRB/06 RMK AO2 T03720200
53843K79J 79J20160708154510807/08/16 15:45:31  5-MIN K79J 082045Z AUTO 21007KT 10SM CLR 38/20 A3003 210 35 2900 220/07 RMK AO2 T03780200
53843K79J 79J20160708155012107/08/16 15:50:31  5-MIN K79J 082050Z AUTO 23008KT 10SM CLR 38/19 A3003 210 33 2900 230/08 RMK AO2 SLP161 T03780194 58013
53843K79J 79J20160708155512107/08/16 15:55:31  5-MIN K79J 082055Z AUTO 21007KT 10SM CLR 38/19 A3002 220 33 2900 210/07 RMK AO2 SLP160 T03780194 58013
53843K79J 79J20160708160010807/08/16 16:00:31  5-MIN K79J 082100Z AUTO 21007KT 10SM CLR 38/19 A3002 220 33 2900 210/07 RMK AO2 T03780194
53843K79J 79J20160708160510807/08/16 16:05:31  5-MIN K79J 082105Z AUTO VRB05KT 10SM CLR 38/19 A3002 220 32 2900 VRB/05 RMK AO2 T03830194
53843K79J 79J20160708161010807/08/16 16:10:31  5-MIN K79J 082110Z AUTO 20006KT 10SM CLR 38/19 A3002 220 33 2900 200/06 RMK AO2 T03780194
53843K79J 79J20160708161510807/08/16 16:15:31  5-MIN K79J 082115Z AUTO 21009KT 10SM CLR 38/19 A3002 220 32 2900 220/09 RMK AO2 T03830194
53843K79J 79J20160708162010807/08/16 16:20:31  5-MIN K79J 082120Z AUTO 25007KT 10SM CLR 38/20 A3003 210 35 2900 250/07 RMK AO2 T03780200
53843K79J 79J20160708162510807/08/16 16:25:31  5-MIN K79J 082125Z AUTO 24008KT 10SM CLR 38/20 A3003 210 34 2900 250/08 RMK AO2 T03830200
53843K79J 79J20160708163010807/08/16 16:30:31  5-MIN K79J 082130Z AUTO VRB05KT 10SM CLR 38/20 A3002 220 35 2900 VRB/05 RMK AO2 T03780200
53843K79J 79J20160708163510807/08/16 16:35:31  5-MIN K79J 082135Z AUTO 22007KT 10SM CLR 38/21 A3002 220 36 2900 220/07 RMK AO2 T03780206
53843K79J 79J20160708164011107/08/16 16:40:31  5-MIN K79J 082140Z AUTO 21005KT 10SM FEW060 38/21 A3002 220 36 2900 210/05 RMK AO2 T03780206
53843K79J 79J20160708164511107/08/16 16:45:31  5-MIN K79J 082145Z AUTO 20004KT 10SM SCT060 38/21 A3002 220 36 2900 210/04 RMK AO2 T03780206
53843K79J 79J20160708165011807/08/16 16:50:31  5-MIN K79J 082150Z AUTO 22005KT 10SM SCT060 38/21 A3002 220 36 2900 220/05 RMK AO2 SLP159 T03780206
53843K79J 79J20160708165511807/08/16 16:55:31  5-MIN K79J 082155Z AUTO 24007KT 10SM SCT060 38/20 A3002 220 35 2900 240/07 RMK AO2 SLP159 T03780200
53843K79J 79J20160708170011107/08/16 17:00:31  5-MIN K79J 082200Z AUTO 25006KT 10SM SCT065 38/20 A3001 220 35 2900 250/06 RMK AO2 T03780200
53843K79J 79J20160708170511107/08/16 17:05:31  5-MIN K79J 082205Z AUTO 24009KT 10SM SCT065 37/20 A3001 230 36 2800 240/09 RMK AO2 T03720200
53843K79J 79J20160708171011107/08/16 17:10:31  5-MIN K79J 082210Z AUTO 22008KT 10SM SCT060 38/21 A3001 230 36 2900 220/08 RMK AO2 T03780206
53843K79J 79J20160708171511107/08/16 17:15:31  5-MIN K79J 082215Z AUTO 22006KT 10SM SCT060 37/21 A3001 230 37 2800 220/06 RMK AO2 T03720206
53843K79J 79J20160708172011107/08/16 17:20:31  5-MIN K79J 082220Z AUTO 21005KT 10SM FEW065 38/21 A3001 230 36 2900 210/05 RMK AO2 T03780206
53843K79J 79J20160708172512707/08/16 17:25:31  5-MIN K79J 082225Z AUTO 19008KT 170V230 10SM FEW070 37/21 A3001 230 38 2800 200/08 170V230 RMK AO2 T03720211
53843K79J 79J20160708173011107/08/16 17:30:31  5-MIN K79J 082230Z AUTO 20008KT 10SM FEW060 36/23 A3001 230 45 2700 200/08 RMK AO2 T03610228
53843K79J 79J20160708173511107/08/16 17:35:31  5-MIN K79J 082235Z AUTO 19007KT 10SM FEW060 36/23 A3001 230 48 2600 200/07 RMK AO2 T03560233
53843K79J 79J20160708174011107/08/16 17:40:31  5-MIN K79J 082240Z AUTO VRB05KT 10SM FEW060 35/23 A3002 220 50 2600 VRB/05 RMK AO2 T03500233
53843K79J 79J20160708174511107/08/16 17:45:31  5-MIN K79J 082245Z AUTO VRB06KT 10SM SCT065 36/23 A3002 220 48 2600 VRB/06 RMK AO2 T03560233
53843K79J 79J20160708175012507/08/16 17:50:31  5-MIN K79J 082250Z AUTO VRB06KT 10SM SCT060 SCT080 35/23 A3001 230 48 2600 VRB/06 RMK AO2 SLP157 T03500228
53843K79J 79J20160708175512507/08/16 17:55:31  5-MIN K79J 082255Z AUTO 20005KT 10SM SCT065 SCT080 34/23 A3001 230 50 2500 200/05 RMK AO2 SLP158 T03440228
53843K79J 79J20160708180011807/08/16 18:00:31  5-MIN K79J 082300Z AUTO VRB05KT 10SM SCT065 BKN080 36/23 A3001 230 47 2600 VRB/05 RMK AO2 T03560228
53843K79J 79J20160708180511807/08/16 18:05:31  5-MIN K79J 082305Z AUTO 19008KT 10SM SCT065 BKN080 36/23 A3001 230 47 2600 190/08 RMK AO2 T03560228
53843K79J 79J20160708181011807/08/16 18:10:31  5-MIN K79J 082310Z AUTO VRB06KT 10SM BKN065 BKN080 35/23 A3001 230 48 2600 VRB/06 RMK AO2 T03500228
53843K79J 79J20160708181511807/08/16 18:15:31  5-MIN K79J 082315Z AUTO 20005KT 10SM SCT065 BKN080 35/23 A3001 230 48 2600 200/05 RMK AO2 T03500228
53843K79J 79J20160708182011807/08/16 18:20:31  5-MIN K79J 082320Z AUTO 19005KT 10SM FEW060 SCT075 35/23 A3002 220 50 2600 190/05 RMK AO2 T03500233
53843K79J 79J20160708182511807/08/16 18:25:31  5-MIN K79J 082325Z AUTO VRB05KT 10SM SCT065 SCT080 35/23 A3002 220 50 2600 VRB/05 RMK AO2 T03500233
53843K79J 79J20160708183011107/08/16 18:30:31  5-MIN K79J 082330Z AUTO 20005KT 10SM SCT060 34/23 A3001 230 52 2500 200/05 RMK AO2 T03440233
53843K79J 79J20160708183511107/08/16 18:35:31  5-MIN K79J 082335Z AUTO 22007KT 10SM SCT060 34/23 A3001 230 52 2500 220/07 RMK AO2 T03440233
53843K79J 79J20160708184011107/08/16 18:40:31  5-MIN K79J 082340Z AUTO 21007KT 10SM FEW060 34/23 A3001 230 52 2500 210/07 RMK AO2 T03440233
53843K79J 79J20160708184511107/08/16 18:45:31  5-MIN K79J 082345Z AUTO 20007KT 10SM SCT060 34/23 A3001 230 52 2500 200/07 RMK AO2 T03440233
53843K79J 79J20160708185013607/08/16 18:50:31  5-MIN K79J 082350Z AUTO 20006KT 10SM FEW060 34/23 A3001 230 53 2500 210/06 RMK AO2 SLP157 T03390233 10383 20339 58025
53843K79J 79J20160708185513607/08/16 18:55:31  5-MIN K79J 082355Z AUTO 21007KT 10SM FEW060 34/23 A3001 230 53 2500 210/07 RMK AO2 SLP157 T03390233 10383 20339 58025
53843K79J 79J20160708190011107/08/16 19:00:31  5-MIN K79J 090000Z AUTO 21006KT 10SM FEW060 34/23 A3002 220 53 2500 210/06 RMK AO2 T03390233
53843K79J 79J20160708190511107/08/16 19:05:31  5-MIN K79J 090005Z AUTO 21006KT 10SM FEW060 33/23 A3002 220 55 2400 220/06 RMK AO2 T03330233
53843K79J 79J20160708191010807/08/16 19:10:31  5-MIN K79J 090010Z AUTO 21005KT 10SM CLR 33/23 A3002 220 55 2400 210/05 RMK AO2 T03330233
53843K79J 79J20160708191510807/08/16 19:15:31  5-MIN K79J 090015Z AUTO 21006KT 10SM CLR 33/23 A3002 220 55 2400 210/06 RMK AO2 T03330233
53843K79J 79J20160708192010807/08/16 19:20:31  5-MIN K79J 090020Z AUTO 21005KT 10SM CLR 33/23 A3003 220 57 2300 210/05 RMK AO2 T03280233
53843K79J 79J20160708192510807/08/16 19:25:31  5-MIN K79J 090025Z AUTO 20004KT 10SM CLR 33/23 A3002 220 57 2300 210/04 RMK AO2 T03280233
53843K79J 79J20160708193010807/08/16 19:30:31  5-MIN K79J 090030Z AUTO 20005KT 10SM CLR 33/23 A3002 220 57 2300 200/05 RMK AO2 T03280233
53843K79J 79J20160708193510807/08/16 19:35:31  5-MIN K79J 090035Z AUTO 21004KT 10SM CLR 32/23 A3003 210 59 2300 210/04 RMK AO2 T03220233
53843K79J 79J20160708194010807/08/16 19:40:31  5-MIN K79J 090040Z AUTO 19004KT 10SM CLR 32/23 A3003 210 59 2300 200/04 RMK AO2 T03220233
53843K79J 79J20160708194510807/08/16 19:45:31  5-MIN K79J 090045Z AUTO 20005KT 10SM CLR 32/23 A3003 210 59 2300 200/05 RMK AO2 T03220233
53843K79J 79J20160708195011507/08/16 19:50:31  5-MIN K79J 090050Z AUTO 19004KT 10SM CLR 32/23 A3003 210 61 2200 190/04 RMK AO2 SLP162 T03170233
53843K79J 79J20160708195511507/08/16 19:55:31  5-MIN K79J 090055Z AUTO 19004KT 10SM CLR 32/23 A3003 210 61 2200 190/04 RMK AO2 SLP162 T03170233
53843K79J 79J20160708200010807/08/16 20:00:31  5-MIN K79J 090100Z AUTO 20004KT 10SM CLR 32/23 A3003 210 61 2200 200/04 RMK AO2 T03170233
53843K79J 79J20160708200510807/08/16 20:05:31  5-MIN K79J 090105Z AUTO VRB04KT 10SM CLR 32/23 A3003 210 61 2200 VRB/04 RMK AO2 T03170233
53843K79J 79J20160708201010807/08/16 20:10:31  5-MIN K79J 090110Z AUTO 21004KT 10SM CLR 32/23 A3003 210 61 2200 210/04 RMK AO2 T03170233
53843K79J 79J20160708201510807/08/16 20:15:31  5-MIN K79J 090115Z AUTO 22005KT 10SM CLR 32/23 A3004 210 61 2200 220/05 RMK AO2 T03170233
53843K79J 79J20160708202010807/08/16 20:20:31  5-MIN K79J 090120Z AUTO 21005KT 10SM CLR 31/23 A3004 210 63 2100 210/05 RMK AO2 T03110233
53843K79J 79J20160708202510807/08/16 20:25:31  5-MIN K79J 090125Z AUTO VRB03KT 10SM CLR 31/23 A3004 210 63 2100 VRB/03 RMK AO2 T03110233
53843K79J 79J20160708203010807/08/16 20:30:31  5-MIN K79J 090130Z AUTO VRB04KT 10SM CLR 31/23 A3004 200 63 2100 VRB/04 RMK AO2 T03110233
53843K79J 79J20160708203510807/08/16 20:35:31  5-MIN K79J 090135Z AUTO 22003KT 10SM CLR 31/23 A3004 200 63 2100 220/03 RMK AO2 T03110233
53843K79J 79J20160708204010807/08/16 20:40:31  5-MIN K79J 090140Z AUTO VRB03KT 10SM CLR 31/23 A3004 200 65 2100 VRB/03 RMK AO2 T03060233
53843K79J 79J20160708204510807/08/16 20:45:31  5-MIN K79J 090145Z AUTO 00000KT 10SM CLR 31/23 A3004 200 65 2100 000/00 RMK AO2 T03060233
53843K79J 79J20160708205011507/08/16 20:50:31  5-MIN K79J 090150Z AUTO 20004KT 10SM CLR 31/24 A3004 200 67 2100 200/04 RMK AO2 SLP167 T03060239
53843K79J 79J20160708205511507/08/16 20:55:31  5-MIN K79J 090155Z AUTO 21003KT 10SM CLR 31/23 A3004 200 65 2100 210/03 RMK AO2 SLP167 T03060233
53843K79J 79J20160708210010807/08/16 21:00:31  5-MIN K79J 090200Z AUTO VRB03KT 10SM CLR 31/24 A3004 200 67 2100 VRB/03 RMK AO2 T03060239
53843K79J 79J20160708210510807/08/16 21:05:31  5-MIN K79J 090205Z AUTO 20004KT 10SM CLR 31/24 A3004 200 67 2100 210/04 RMK AO2 T03060239
53843K79J 79J20160708211010807/08/16 21:10:31  5-MIN K79J 090210Z AUTO VRB04KT 10SM CLR 31/24 A3004 200 67 2100 VRB/04 RMK AO2 T03060239
53843K79J 79J20160708211510807/08/16 21:15:31  5-MIN K79J 090215Z AUTO 21005KT 10SM CLR 31/23 A3005 190 65 2100 220/05 RMK AO2 T03060233
53843K79J 79J20160708212010807/08/16 21:20:31  5-MIN K79J 090220Z AUTO 21005KT 10SM CLR 31/23 A3005 200 65 2100 220/05 RMK AO2 T03060233
53843K79J 79J20160708212510807/08/16 21:25:31  5-MIN K79J 090225Z AUTO 21004KT 10SM CLR 31/23 A3005 200 65 2100 210/04 RMK AO2 T03060233
53843K79J 79J20160708213010807/08/16 21:30:31  5-MIN K79J 090230Z AUTO 22005KT 10SM CLR 30/23 A3005 190 67 2000 230/05 RMK AO2 T03000233
53843K79J 79J20160708213510807/08/16 21:35:31  5-MIN K79J 090235Z AUTO 22006KT 10SM CLR 30/23 A3006 190 67 2000 230/06 RMK AO2 T03000233
53843K79J 79J20160708214010807/08/16 21:40:31  5-MIN K79J 090240Z AUTO 23004KT 10SM CLR 30/23 A3006 190 67 2000 230/04 RMK AO2 T03000233
53843K79J 79J20160708214510807/08/16 21:45:31  5-MIN K79J 090245Z AUTO 23004KT 10SM CLR 30/23 A3006 180 67 2000 240/04 RMK AO2 T03000233
53843K79J 79J20160708215012107/08/16 21:50:31  5-MIN K79J 090250Z AUTO 22005KT 10SM CLR 30/23 A3006 180 67 2000 230/05 RMK AO2 SLP173 T03000233 56003
53843K79J 79J20160708215512107/08/16 21:55:31  5-MIN K79J 090255Z AUTO 22005KT 10SM CLR 30/23 A3006 180 67 2000 220/05 RMK AO2 SLP172 T03000233 56003
53843K79J 79J20160708220010807/08/16 22:00:31  5-MIN K79J 090300Z AUTO 23004KT 10SM CLR 30/23 A3006 180 67 2000 230/04 RMK AO2 T03000233
53843K79J 79J20160708220510807/08/16 22:05:31  5-MIN K79J 090305Z AUTO 24004KT 10SM CLR 30/23 A3006 180 67 2000 240/04 RMK AO2 T03000233
53843K79J 79J20160708221010807/08/16 22:10:31  5-MIN K79J 090310Z AUTO 22003KT 10SM CLR 30/23 A3007 180 67 2000 230/03 RMK AO2 T03000233
53843K79J 79J20160708221510807/08/16 22:15:31  5-MIN K79J 090315Z AUTO 23003KT 10SM CLR 30/23 A3007 180 67 2000 230/03 RMK AO2 T03000233
53843K79J 79J20160708222010807/08/16 22:20:31  5-MIN K79J 090320Z AUTO 22004KT 10SM CLR 29/23 A3006 180 69 1900 220/04 RMK AO2 T02940233
53843K79J 79J20160708222510807/08/16 22:25:31  5-MIN K79J 090325Z AUTO 21004KT 10SM CLR 29/23 A3006 180 69 1900 210/04 RMK AO2 T02940233
53843K79J 79J20160708223010807/08/16 22:30:31  5-MIN K79J 090330Z AUTO 20004KT 10SM CLR 29/23 A3006 180 69 1900 200/04 RMK AO2 T02940233
53843K79J 79J20160708223510807/08/16 22:35:31  5-MIN K79J 090335Z AUTO 21004KT 10SM CLR 29/23 A3006 180 69 1900 220/04 RMK AO2 T02940233
53843K79J 79J20160708224010807/08/16 22:40:31  5-MIN K79J 090340Z AUTO 22004KT 10SM CLR 29/23 A3006 180 69 1900 220/04 RMK AO2 T02940233
53843K79J 79J20160708224510807/08/16 22:45:31  5-MIN K79J 090345Z AUTO 23004KT 10SM CLR 29/23 A3006 180 69 1900 230/04 RMK AO2 T02940233
53843K79J 79J20160708225011507/08/16 22:50:31  5-MIN K79J 090350Z AUTO 22004KT 10SM CLR 29/23 A3006 180 71 1900 220/04 RMK AO2 SLP174 T02890233
53843K79J 79J20160708225511507/08/16 22:55:31  5-MIN K79J 090355Z AUTO 22003KT 10SM CLR 29/23 A3006 180 71 1900 220/03 RMK AO2 SLP174 T02890233
53843K79J 79J20160708230010807/08/16 23:00:31  5-MIN K79J 090400Z AUTO 22003KT 10SM CLR 29/23 A3006 180 71 1900 220/03 RMK AO2 T02890233
53843K79J 79J20160708230510807/08/16 23:05:31  5-MIN K79J 090405Z AUTO 22004KT 10SM CLR 29/23 A3006 180 71 1900 220/04 RMK AO2 T02890233
53843K79J 79J20160708231010807/08/16 23:10:31  5-MIN K79J 090410Z AUTO 22005KT 10SM CLR 29/23 A3006 180 71 1900 220/05 RMK AO2 T02890233
53843K79J 79J20160708231510807/08/16 23:15:31  5-MIN K79J 090415Z AUTO 24003KT 10SM CLR 29/23 A3007 180 71 1900 240/03 RMK AO2 T02890233
53843K79J 79J20160708232010807/08/16 23:20:31  5-MIN K79J 090420Z AUTO 23003KT 10SM CLR 29/23 A3007 180 71 1900 230/03 RMK AO2 T02890233
53843K79J 79J20160708232510807/08/16 23:25:31  5-MIN K79J 090425Z AUTO 23004KT 10SM CLR 29/23 A3006 180 71 1900 240/04 RMK AO2 T02890233
53843K79J 79J20160708233010807/08/16 23:30:31  5-MIN K79J 090430Z AUTO 23003KT 10SM CLR 29/23 A3006 180 71 1900 240/03 RMK AO2 T02890233
53843K79J 79J20160708233510807/08/16 23:35:31  5-MIN K79J 090435Z AUTO 24004KT 10SM CLR 29/23 A3006 180 71 1900 240/04 RMK AO2 T02890233
53843K79J 79J20160708234010807/08/16 23:40:31  5-MIN K79J 090440Z AUTO 24003KT 10SM CLR 29/23 A3006 180 71 1900 250/03 RMK AO2 T02890233
53843K79J 79J20160708234510807/08/16 23:45:31  5-MIN K79J 090445Z AUTO 25004KT 10SM CLR 29/23 A3006 180 71 1900 250/04 RMK AO2 T02890233
53843K79J 79J20160708235012507/08/16 23:50:31  5-MIN K79J 090450Z AUTO 22003KT 10SM CLR 29/23 A3006 180 71 1900 220/03 RMK AO2 SLP172 T02890233 403830256
53843K79J 79J20160708235512507/08/16 23:55:31  5-MIN K79J 090455Z AUTO 24004KT 10SM CLR 28/23 A3006 190 74 1800 240/04 RMK AO2 SLP172 T02830233 403830256
53843K79J 79J20160709000010807/09/16 00:00:31  5-MIN K79J 090500Z AUTO 22004KT 10SM CLR 29/23 A3006 190 71 1900 230/04 RMK AO2 T02890233
53843K79J 79J20160709000510807/09/16 00:05:31  5-MIN K79J 090505Z AUTO 25003KT 10SM CLR 28/23 A3006 190 74 1800 260/03 RMK AO2 T02830233
53843K79J 79J20160709001010807/09/16 00:10:31  5-MIN K79J 090510Z AUTO 21004KT 10SM CLR 28/23 A3005 190 74 1800 220/04 RMK AO2 T02830233
53843K79J 79J20160709001510807/09/16 00:15:31  5-MIN K79J 090515Z AUTO 22004KT 10SM CLR 28/23 A3005 190 74 1800 220/04 RMK AO2 T02830233
53843K79J 79J20160709002010807/09/16 00:20:31  5-MIN K79J 090520Z AUTO 24003KT 10SM CLR 28/23 A3005 190 74 1800 250/03 RMK AO2 T02830233
53843K79J 79J20160709002510807/09/16 00:25:31  5-MIN K79J 090525Z AUTO 23003KT 10SM CLR 28/23 A3005 190 74 1800 230/03 RMK AO2 T02830233
53843K79J 79J20160709003010807/09/16 00:30:31  5-MIN K79J 090530Z AUTO 25003KT 10SM CLR 28/23 A3006 190 74 1800 250/03 RMK AO2 T02830233
53843K79J 79J20160709003510807/09/16 00:35:31  5-MIN K79J 090535Z AUTO 24003KT 10SM CLR 28/23 A3006 180 74 1800 240/03 RMK AO2 T02830233
53843K79J 79J20160709004010807/09/16 00:40:31  5-MIN K79J 090540Z AUTO 00000KT 10SM CLR 28/23 A3006 180 74 1800 000/00 RMK AO2 T02830233
53843K79J 79J20160709004510807/09/16 00:45:31  5-MIN K79J 090545Z AUTO 22003KT 10SM CLR 28/23 A3006 180 74 1800 220/03 RMK AO2 T02830233
53843K79J 79J20160709005013307/09/16 00:50:31  5-MIN K79J 090550Z AUTO 22003KT 10SM CLR 28/23 A3006 190 74 1800 220/03 RMK AO2 SLP172 T02830233 10339 20283 53015
53843K79J 79J20160709005513307/09/16 00:55:31  5-MIN K79J 090555Z AUTO 22003KT 10SM CLR 28/23 A3005 190 76 1700 220/03 RMK AO2 SLP171 T02780233 10339 20278 53015
53843K79J 79J20160709010010807/09/16 01:00:31  5-MIN K79J 090600Z AUTO 23003KT 10SM CLR 28/23 A3006 190 74 1800 230/03 RMK AO2 T02830233
53843K79J 79J20160709010510807/09/16 01:05:31  5-MIN K79J 090605Z AUTO 00000KT 10SM CLR 28/23 A3006 190 74 1800 000/00 RMK AO2 T02830233
53843K79J 79J20160709011010807/09/16 01:10:31  5-MIN K79J 090610Z AUTO 24003KT 10SM CLR 28/23 A3006 190 74 1800 240/03 RMK AO2 T02830233
53843K79J 79J20160709011510807/09/16 01:15:31  5-MIN K79J 090615Z AUTO 24003KT 10SM CLR 28/23 A3006 190 76 1700 240/03 RMK AO2 T02780233
53843K79J 79J20160709012010807/09/16 01:20:31  5-MIN K79J 090620Z AUTO 00000KT 10SM CLR 28/23 A3006 180 76 1700 000/00 RMK AO2 T02780233
53843K79J 79J20160709012510807/09/16 01:25:31  5-MIN K79J 090625Z AUTO 26004KT 10SM CLR 28/23 A3006 180 76 1700 260/04 RMK AO2 T02780233
53843K79J 79J20160709013010807/09/16 01:30:31  5-MIN K79J 090630Z AUTO 26004KT 10SM CLR 28/23 A3006 190 76 1700 260/04 RMK AO2 T02780233
53843K79J 79J20160709013510807/09/16 01:35:31  5-MIN K79J 090635Z AUTO 27004KT 10SM CLR 28/23 A3006 180 74 1800 270/04 RMK AO2 T02830233
53843K79J 79J20160709014010807/09/16 01:40:31  5-MIN K79J 090640Z AUTO 26004KT 10SM CLR 28/23 A3006 180 74 1800 270/04 RMK AO2 T02830233
53843K79J 79J20160709014510807/09/16 01:45:31  5-MIN K79J 090645Z AUTO 24004KT 10SM CLR 28/23 A3006 190 74 1800 240/04 RMK AO2 T02830233
53843K79J 79J20160709015011507/09/16 01:50:31  5-MIN K79J 090650Z AUTO 25004KT 10SM CLR 28/23 A3006 180 74 1800 260/04 RMK AO2 SLP172 T02830233
53843K79J 79J20160709015511507/09/16 01:55:31  5-MIN K79J 090655Z AUTO 26004KT 10SM CLR 28/23 A3006 190 74 1800 260/04 RMK AO2 SLP172 T02830233
53843K79J 79J20160709020010807/09/16 02:00:31  5-MIN K79J 090700Z AUTO 26004KT 10SM CLR 28/23 A3006 190 74 1800 270/04 RMK AO2 T02830233
53843K79J 79J20160709020510807/09/16 02:05:31  5-MIN K79J 090705Z AUTO 25005KT 10SM CLR 28/23 A3006 190 74 1800 250/05 RMK AO2 T02830233
53843K79J 79J20160709021010807/09/16 02:10:31  5-MIN K79J 090710Z AUTO 26005KT 10SM CLR 28/23 A3006 190 74 1800 260/05 RMK AO2 T02830233
53843K79J 79J20160709021510807/09/16 02:15:31  5-MIN K79J 090715Z AUTO 26005KT 10SM CLR 28/23 A3006 190 74 1800 270/05 RMK AO2 T02830233
53843K79J 79J20160709022010807/09/16 02:20:31  5-MIN K79J 090720Z AUTO 27005KT 10SM CLR 28/23 A3005 190 74 1800 270/05 RMK AO2 T02830233
53843K79J 79J20160709022510807/09/16 02:25:31  5-MIN K79J 090725Z AUTO 26005KT 10SM CLR 28/23 A3005 190 76 1700 270/05 RMK AO2 T02780233
53843K79J 79J20160709023010807/09/16 02:30:31  5-MIN K79J 090730Z AUTO 26005KT 10SM CLR 28/23 A3005 190 76 1700 270/05 RMK AO2 T02780233
53843K79J 79J20160709023510807/09/16 02:35:31  5-MIN K79J 090735Z AUTO 26005KT 10SM CLR 28/23 A3005 190 76 1700 260/05 RMK AO2 T02780233
53843K79J 79J20160709024010807/09/16 02:40:31  5-MIN K79J 090740Z AUTO 26004KT 10SM CLR 28/23 A3005 190 76 1700 270/04 RMK AO2 T02780233
53843K79J 79J20160709024510807/09/16 02:45:31  5-MIN K79J 090745Z AUTO 25004KT 10SM CLR 28/23 A3005 200 76 1800 250/04 RMK AO2 T02780233
53843K79J 79J20160709025011507/09/16 02:50:31  5-MIN K79J 090750Z AUTO 25004KT 10SM CLR 28/23 A3005 200 76 1800 250/04 RMK AO2 SLP168 T02780233
53843K79J 79J20160709025511507/09/16 02:55:31  5-MIN K79J 090755Z AUTO 25003KT 10SM CLR 28/23 A3005 200 76 1800 250/03 RMK AO2 SLP168 T02780233
53843K79J 79J20160709030010807/09/16 03:00:31  5-MIN K79J 090800Z AUTO 25003KT 10SM CLR 28/23 A3005 200 76 1800 250/03 RMK AO2 T02780233
53843K79J 79J20160709030510807/09/16 03:05:31  5-MIN K79J 090805Z AUTO 25003KT 10SM CLR 28/23 A3005 200 76 1800 250/03 RMK AO2 T02780233
53843K79J 79J20160709031010807/09/16 03:10:31  5-MIN K79J 090810Z AUTO 25004KT 10SM CLR 28/23 A3005 190 76 1800 250/04 RMK AO2 T02780233
53843K79J 79J20160709031510807/09/16 03:15:31  5-MIN K79J 090815Z AUTO 23003KT 10SM CLR 27/23 A3005 200 79 1700 230/03 RMK AO2 T02720233
53843K79J 79J20160709032010807/09/16 03:20:31  5-MIN K79J 090820Z AUTO 24004KT 10SM CLR 27/23 A3005 190 79 1700 240/04 RMK AO2 T02720233
53843K79J 79J20160709032510807/09/16 03:25:31  5-MIN K79J 090825Z AUTO 25003KT 10SM CLR 27/24 A3005 190 82 1700 250/03 RMK AO2 T02720239
53843K79J 79J20160709033010807/09/16 03:30:31  5-MIN K79J 090830Z AUTO 25003KT 10SM CLR 27/24 A3005 190 82 1700 250/03 RMK AO2 T02720239
53843K79J 79J20160709033510807/09/16 03:35:31  5-MIN K79J 090835Z AUTO VRB04KT 10SM CLR 27/23 A3005 190 79 1700 VRB/04 RMK AO2 T02720233
53843K79J 79J20160709034010807/09/16 03:40:31  5-MIN K79J 090840Z AUTO 25004KT 10SM CLR 27/23 A3005 190 79 1700 260/04 RMK AO2 T02720233
53843K79J 79J20160709034510807/09/16 03:45:31  5-MIN K79J 090845Z AUTO 26003KT 10SM CLR 27/23 A3005 190 79 1700 260/03 RMK AO2 T02720233
53843K79J 79J20160709035012107/09/16 03:50:31  5-MIN K79J 090850Z AUTO 25003KT 10SM CLR 27/23 A3005 190 79 1700 250/03 RMK AO2 SLP169 T02720233 58001
53843K79J 79J20160709035512107/09/16 03:55:31  5-MIN K79J 090855Z AUTO 24003KT 10SM CLR 27/23 A3005 190 79 1700 250/03 RMK AO2 SLP169 T02720233 58001
53843K79J 79J20160709040010807/09/16 04:00:31  5-MIN K79J 090900Z AUTO 00000KT 10SM CLR 27/23 A3005 190 79 1700 000/00 RMK AO2 T02720233
53843K79J 79J20160709040510807/09/16 04:05:31  5-MIN K79J 090905Z AUTO 25003KT 10SM CLR 27/23 A3005 190 79 1700 250/03 RMK AO2 T02720233
53843K79J 79J20160709041010807/09/16 04:10:31  5-MIN K79J 090910Z AUTO 00000KT 10SM CLR 27/23 A3005 190 79 1700 000/00 RMK AO2 T02720233
53843K79J 79J20160709041510807/09/16 04:15:31  5-MIN K79J 090915Z AUTO 00000KT 10SM CLR 27/23 A3005 190 79 1700 000/00 RMK AO2 T02720233
53843K79J 79J20160709042010807/09/16 04:20:31  5-MIN K79J 090920Z AUTO 00000KT 10SM CLR 27/23 A3005 190 82 1600 000/00 RMK AO2 T02670233
53843K79J 79J20160709042510807/09/16 04:25:31  5-MIN K79J 090925Z AUTO 27003KT 10SM CLR 27/23 A3005 190 82 1600 270/03 RMK AO2 T02670233
53843K79J 79J20160709043010807/09/16 04:30:31  5-MIN K79J 090930Z AUTO 27003KT 10SM CLR 27/23 A3006 190 82 1600 270/03 RMK AO2 T02670233
53843K79J 79J20160709043510807/09/16 04:35:31  5-MIN K79J 090935Z AUTO 27003KT 10SM CLR 27/23 A3006 190 82 1600 270/03 RMK AO2 T02670233
53843K79J 79J20160709044010807/09/16 04:40:31  5-MIN K79J 090940Z AUTO 28003KT 10SM CLR 27/23 A3006 190 82 1600 290/03 RMK AO2 T02670233
53843K79J 79J20160709044510807/09/16 04:45:31  5-MIN K79J 090945Z AUTO 28003KT 10SM CLR 27/23 A3006 180 82 1600 280/03 RMK AO2 T02670233
53843K79J 79J20160709045011507/09/16 04:50:31  5-MIN K79J 090950Z AUTO 28004KT 10SM CLR 27/23 A3006 180 82 1600 280/04 RMK AO2 SLP173 T02670233
53843K79J 79J20160709045511507/09/16 04:55:31  5-MIN K79J 090955Z AUTO 27003KT 10SM CLR 27/23 A3006 180 79 1700 270/03 RMK AO2 SLP172 T02720233
53843K79J 79J20160709050010807/09/16 05:00:31  5-MIN K79J 091000Z AUTO 25004KT 10SM CLR 27/23 A3006 180 79 1700 260/04 RMK AO2 T02720233
53843K79J 79J20160709050510807/09/16 05:05:31  5-MIN K79J 091005Z AUTO 27003KT 10SM CLR 27/24 A3006 180 82 1700 280/03 RMK AO2 T02720239
53843K79J 79J20160709051010807/09/16 05:10:31  5-MIN K79J 091010Z AUTO 27004KT 10SM CLR 27/24 A3006 180 82 1700 270/04 RMK AO2 T02720239
53843K79J 79J20160709051510807/09/16 05:15:31  5-MIN K79J 091015Z AUTO 26004KT 10SM CLR 27/24 A3006 180 82 1700 270/04 RMK AO2 T02720239
53843K79J 79J20160709052010807/09/16 05:20:31  5-MIN K79J 091020Z AUTO 27004KT 10SM CLR 27/24 A3006 180 82 1700 270/04 RMK AO2 T02720239
53843K79J 79J20160709052510807/09/16 05:25:31  5-MIN K79J 091025Z AUTO 26004KT 10SM CLR 27/24 A3007 180 82 1700 260/04 RMK AO2 T02720239
53843K79J 79J20160709053010807/09/16 05:30:31  5-MIN K79J 091030Z AUTO 25004KT 10SM CLR 27/24 A3006 180 82 1700 250/04 RMK AO2 T02720239
53843K79J 79J20160709053510807/09/16 05:35:31  5-MIN K79J 091035Z AUTO 25004KT 10SM CLR 27/24 A3007 180 84 1600 250/04 RMK AO2 T02670239
53843K79J 79J20160709054010807/09/16 05:40:31  5-MIN K79J 091040Z AUTO 25004KT 10SM CLR 27/24 A3007 180 84 1600 260/04 RMK AO2 T02670239
53843K79J 79J20160709054510807/09/16 05:45:31  5-MIN K79J 091045Z AUTO 26004KT 10SM CLR 27/24 A3007 180 84 1600 260/04 RMK AO2 T02670239
53843K79J 79J20160709055011507/09/16 05:50:31  5-MIN K79J 091050Z AUTO 25004KT 10SM CLR 27/24 A3007 180 84 1600 250/04 RMK AO2 SLP175 T02670239
53843K79J 79J20160709055511507/09/16 05:55:31  5-MIN K79J 091055Z AUTO 26004KT 10SM CLR 27/24 A3007 180 84 1600 260/04 RMK AO2 SLP176 T02670239
53843K79J 79J20160709060010807/09/16 06:00:31  5-MIN K79J 091100Z AUTO 25004KT 10SM CLR 27/24 A3007 170 84 1600 250/04 RMK AO2 T02670239
53843K79J 79J20160709060510807/09/16 06:05:31  5-MIN K79J 091105Z AUTO 26004KT 10SM CLR 27/24 A3007 170 84 1600 260/04 RMK AO2 T02670239
53843K79J 79J20160709061010807/09/16 06:10:31  5-MIN K79J 091110Z AUTO 26004KT 10SM CLR 27/24 A3007 170 82 1700 260/04 RMK AO2 T02720239
53843K79J 79J20160709061510807/09/16 06:15:31  5-MIN K79J 091115Z AUTO 25004KT 10SM CLR 27/24 A3007 170 82 1700 260/04 RMK AO2 T02720239
53843K79J 79J20160709062010807/09/16 06:20:31  5-MIN K79J 091120Z AUTO 25004KT 10SM CLR 27/24 A3007 170 82 1700 250/04 RMK AO2 T02720239
53843K79J 79J20160712084511007/12/16 08:45:31  5-MIN K79J 121345Z AUTO 11003KT 10SM CLR 29/24 A3014 110 71 1800 120/03 RMK AO2 T02940239 $
53843K79J 79J20160712085011707/12/16 08:50:31  5-MIN K79J 121350Z AUTO 15004KT 10SM CLR 30/24 A3014 110 69 1900 150/04 RMK AO2 SLP202 T03000239 $
53843K79J 79J20160712085511707/12/16 08:55:31  5-MIN K79J 121355Z AUTO 00000KT 10SM CLR 30/24 A3014 110 69 1900 000/00 RMK AO2 SLP202 T03000239 $
53843K79J 79J20160712090011007/12/16 09:00:31  5-MIN K79J 121400Z AUTO VRB03KT 10SM CLR 31/24 A3014 110 69 2000 VRB/03 RMK AO2 T03060244 $
53843K79J 79J20160712090511007/12/16 09:05:31  5-MIN K79J 121405Z AUTO 00000KT 10SM CLR 31/24 A3014 110 67 2000 000/00 RMK AO2 T03060239 $
53843K79J 79J20160712091011007/12/16 09:10:31  5-MIN K79J 121410Z AUTO 00000KT 10SM CLR 31/24 A3014 110 67 2000 000/00 RMK AO2 T03060239 $
53843K79J 79J20160712091511007/12/16 09:15:31  5-MIN K79J 121415Z AUTO 00000KT 10SM CLR 31/23 A3014 110 65 2000 000/00 RMK AO2 T03060233 $
53843K79J 79J20160712092011007/12/16 09:20:31  5-MIN K79J 121420Z AUTO 08004KT 10SM CLR 31/24 A3014 110 65 2000 090/04 RMK AO2 T03110239 $
53843K79J 79J20160712092511007/12/16 09:25:31  5-MIN K79J 121425Z AUTO 09004KT 10SM CLR 31/24 A3015 100 65 2000 090/04 RMK AO2 T03110239 $
53843K79J 79J20160712093011007/12/16 09:30:31  5-MIN K79J 121430Z AUTO 00000KT 10SM CLR 32/24 A3014 110 63 2100 000/00 RMK AO2 T03170239 $
53843K79J 79J20160712093511007/12/16 09:35:31  5-MIN K79J 121435Z AUTO 09003KT 10SM CLR 32/24 A3015 100 63 2100 090/03 RMK AO2 T03170239 $
53843K79J 79J20160712094011007/12/16 09:40:31  5-MIN K79J 121440Z AUTO 00000KT 10SM CLR 32/24 A3015 100 65 2100 000/00 RMK AO2 T03170244 $
53843K79J 79J20160712094511307/12/16 09:45:31  5-MIN K79J 121445Z AUTO 15005KT 10SM FEW018 32/24 A3015 100 63 2100 150/05 RMK AO2 T03220244 $
53843K79J 79J20160712095012607/12/16 09:50:31  5-MIN K79J 121450Z AUTO 00000KT 10SM FEW018 32/24 A3015 100 63 2100 000/00 RMK AO2 SLP203 T03170239 53013 $
53843K79J 79J20160712095512607/12/16 09:55:31  5-MIN K79J 121455Z AUTO VRB03KT 10SM FEW018 33/24 A3015 100 61 2200 VRB/03 RMK AO2 SLP203 T03280244 53013 $
53843K79J 79J20160712100011307/12/16 10:00:31  5-MIN K79J 121500Z AUTO VRB04KT 10SM FEW020 32/24 A3015 100 61 2100 VRB/04 RMK AO2 T03220239 $
53843K79J 79J20160712100512007/12/16 10:05:31  5-MIN K79J 121505Z AUTO VRB03KT 10SM FEW020 FEW036 33/24 A3015 100 59 2200 VRB/03 RMK AO2 T03280239 $
53843K79J 79J20160712101012707/12/16 10:10:31  5-MIN K79J 121510Z AUTO 14005KT 10SM FEW020 SCT025 SCT036 33/24 A3015 100 59 2200 150/05 RMK AO2 T03280239 $
53843K79J 79J20160712101512007/12/16 10:15:31  5-MIN K79J 121515Z AUTO VRB06KT 10SM FEW025 SCT036 33/23 A3014 110 57 2200 VRB/06 RMK AO2 T03280233 $
53843K79J 79J20160712102012007/12/16 10:20:31  5-MIN K79J 121520Z AUTO VRB03KT 10SM FEW025 SCT036 33/23 A3014 110 57 2200 VRB/03 RMK AO2 T03280233 $
53843K79J 79J20160712102512007/12/16 10:25:31  5-MIN K79J 121525Z AUTO VRB03KT 10SM FEW025 FEW036 33/24 A3014 110 59 2200 VRB/03 RMK AO2 T03280239 $
53843K79J 79J20160712103012007/12/16 10:30:31  5-MIN K79J 121530Z AUTO VRB04KT 10SM FEW025 SCT036 33/24 A3014 110 57 2300 VRB/04 RMK AO2 T03330239 $
53843K79J 79J20160712103512007/12/16 10:35:31  5-MIN K79J 121535Z AUTO 04003KT 10SM FEW025 BKN036 33/24 A3014 110 59 2200 050/03 RMK AO2 T03280239 $
53843K79J 79J20160712104012007/12/16 10:40:31  5-MIN K79J 121540Z AUTO VRB03KT 10SM SCT025 BKN037 33/23 A3014 110 57 2200 VRB/03 RMK AO2 T03280233 $
53843K79J 79J20160712104512707/12/16 10:45:31  5-MIN K79J 121545Z AUTO 00000KT 10SM FEW025 SCT037 BKN048 32/23 A3014 110 57 2100 000/00 RMK AO2 T03220228 $
53843K79J 79J20160712105013407/12/16 10:50:31  5-MIN K79J 121550Z AUTO 12004KT 10SM FEW024 SCT039 BKN048 33/23 A3014 110 55 2200 120/04 RMK AO2 SLP201 T03280228 $
53843K79J 79J20160712105513407/12/16 10:55:31  5-MIN K79J 121555Z AUTO 17004KT 10SM FEW024 SCT030 BKN039 32/23 A3014 110 61 2100 170/04 RMK AO2 SLP201 T03170233 $
53843K79J 79J20160712110012707/12/16 11:00:31  5-MIN K79J 121600Z AUTO 00000KT 10SM FEW024 BKN030 BKN037 32/23 A3014 110 61 2100 000/00 RMK AO2 T03170233 $
53843K79J 79J20160712110512707/12/16 11:05:31  5-MIN K79J 121605Z AUTO 00000KT 10SM SCT030 BKN041 BKN090 32/24 A3014 110 63 2100 000/00 RMK AO2 T03170239 $
53843K79J 79J20160712111014307/12/16 11:10:31  5-MIN K79J 121610Z AUTO 00000KT 10SM -RA FEW030 BKN043 BKN085 32/23 A3014 110 61 2100 000/00 RMK AO2 RAB07 P0000 T03170233 $
53843K79J 79J20160712111514307/12/16 11:15:31  5-MIN K79J 121615Z AUTO 00000KT 10SM -RA FEW030 SCT040 BKN047 32/23 A3014 110 61 2100 000/00 RMK AO2 RAB07 P0000 T03170233 $
53843K79J 79J20160712112014207/12/16 11:20:31  5-MIN K79J 121620Z AUTO 00000KT 10SM FEW030 SCT040 BKN047 32/23 A3013 120 59 2100 000/00 RMK AO2 RAB07E18 P0000 T03220233 $
53843K79J 79J20160712112514207/12/16 11:25:31  5-MIN K79J 121625Z AUTO 11003KT 10SM FEW030 SCT046 BKN055 33/23 A3013 120 55 2300 110/03 RMK AO2 RAB07E18 P0000 T03330233 $
53843K79J 79J20160712113013507/12/16 11:30:31  5-MIN K79J 121630Z AUTO 00000KT 10SM FEW043 SCT055 33/23 A3013 120 55 2300 000/00 RMK AO2 RAB07E18 P0000 T03330233 $
53843K79J 79J20160712113513507/12/16 11:35:31  5-MIN K79J 121635Z AUTO 00000KT 10SM FEW045 FEW055 34/23 A3013 120 53 2300 000/00 RMK AO2 RAB07E18 P0000 T03390233 $
53843K79J 79J20160712114014407/12/16 11:40:31  5-MIN K79J 121640Z AUTO 00000KT 10SM TS FEW033 FEW055 34/23 A3013 120 51 2300 000/00 RMK AO2 RAB07E18 TSB39 P0000 T03390228 $
53843K79J 79J20160712114514407/12/16 11:45:31  5-MIN K79J 121645Z AUTO 12003KT 10SM TS SCT030 SCT055 33/23 A3012 130 53 2300 120/03 RMK AO2 RAB07E18 TSB39 P0000 T03330228 $
53843K79J 79J20160712115015107/12/16 11:50:31  5-MIN K79J 121650Z AUTO 15005KT 10SM TS BKN030 BKN055 33/23 A3012 130 55 2300 150/05 RMK AO2 RAB07E18 TSB39 SLP194 P0000 T03330233 $
53843K79J 79J20160712115514407/12/16 11:55:31  5-MIN K79J 121655Z AUTO 09004KT 10SM TS BKN030 33/23 A3013 120 57 2200 090/04 RMK AO2 RAB07E18 TSB39 SLP196 P0000 T03280233 $
53843K79J 79J20160712120011607/12/16 12:00:31  5-MIN K79J 121700Z AUTO VRB04KT 10SM TS BKN030 32/23 A3013 120 59 2100 VRB/04 RMK AO2 T03220233 $
53843K79J 79J20160712120511607/12/16 12:05:31  5-MIN K79J 121705Z AUTO 19006KT 10SM TS OVC030 32/23 A3014 110 61 2100 190/06 RMK AO2 T03170233 $
53843K79J 79J20160712121012307/12/16 12:10:31  5-MIN K79J 121710Z AUTO 18004KT 10SM TS BKN031 BKN038 31/23 A3013 110 62 2000 180/04 RMK AO2 T03060228 $
53843K79J 79J20160712121512307/12/16 12:15:31  5-MIN K79J 121715Z AUTO 18005KT 10SM TS BKN031 BKN039 31/23 A3014 110 62 2000 180/05 RMK AO2 T03060228 $
53843K79J 79J20160712122011607/12/16 12:20:31  5-MIN K79J 121720Z AUTO 17003KT 10SM TS SCT033 31/23 A3014 110 62 2000 170/03 RMK AO2 T03060228 $
53843K79J 79J20160712122511607/12/16 12:25:31  5-MIN K79J 121725Z AUTO 16007KT 10SM TS SCT033 31/23 A3015 100 62 1900 170/07 RMK AO2 T03060228 $
53843K79J 79J20160712123012907/12/16 12:30:31  5-MIN K79J 121730Z AUTO 17008G23KT 10SM TS FEW035 SCT055 29/22 A3014 110 62 1800 170/08G23 RMK AO2 T02940217 $
53843K79J 79J20160712123512207/12/16 12:35:31  5-MIN K79J 121735Z AUTO 17006G23KT 10SM TS FEW055 28/21 A3014 110 64 1700 170/06G23 RMK AO2 T02830211 $
53843K79J 79J20160712124011607/12/16 12:40:31  5-MIN K79J 121740Z AUTO VRB05KT 10SM TS FEW055 28/21 A3015 100 64 1700 VRB/05 RMK AO2 T02830211 $
53843K79J 79J20160712124511607/12/16 12:45:31  5-MIN K79J 121745Z AUTO VRB06KT 10SM TS FEW055 28/21 A3015 100 66 1600 VRB/06 RMK AO2 T02780211 $
53843K79J 79J20160712125014707/12/16 12:50:31  5-MIN K79J 121750Z AUTO 17003KT 10SM TS FEW055 28/21 A3014 110 66 1600 170/03 RMK AO2 SLP203 60000 T02780211 10339 20250 51013 $
53843K79J 79J20160712125514707/12/16 12:55:31  5-MIN K79J 121755Z AUTO 22004KT 10SM TS FEW055 28/22 A3015 100 69 1600 220/04 RMK AO2 SLP206 60000 T02780217 10339 20250 51013 $
53843K79J 79J20160712130011507/12/16 13:00:31  5-MIN K79J 121800Z AUTO VRB03KT 10SM TS FEW095 28/21 A3016 90 66 1600 VRB/03 RMK AO2 T02780211 $
53843K79J 79J20160712130511507/12/16 13:05:31  5-MIN K79J 121805Z AUTO 21005KT 10SM TS FEW095 28/22 A3016 90 66 1700 210/05 RMK AO2 T02830217 $
53843K79J 79J20160712131011307/12/16 13:10:31  5-MIN K79J 121810Z AUTO 21005KT 10SM TS CLR 28/22 A3015 100 69 1600 220/05 RMK AO2 T02780217 $
53843K79J 79J20160712131511307/12/16 13:15:31  5-MIN K79J 121815Z AUTO 23006KT 10SM TS CLR 28/22 A3015 100 71 1600 230/06 RMK AO2 T02780222 $
53843K79J 79J20160712132011307/12/16 13:20:31  5-MIN K79J 121820Z AUTO 21004KT 10SM TS CLR 28/22 A3015 100 71 1600 210/04 RMK AO2 T02780222 $
53843K79J 79J20160712132511307/12/16 13:25:31  5-MIN K79J 121825Z AUTO 26004KT 10SM TS CLR 28/22 A3015 100 71 1600 260/04 RMK AO2 T02780222 $
53843K79J 79J20160712133011307/12/16 13:30:31  5-MIN K79J 121830Z AUTO 27006KT 10SM TS CLR 28/22 A3015 100 66 1700 270/06 RMK AO2 T02830217 $
53843K79J 79J20160712133511307/12/16 13:35:31  5-MIN K79J 121835Z AUTO 25005KT 10SM TS CLR 28/20 A3015 100 60 1700 260/05 RMK AO2 T02830200 $
53843K79J 79J20160712134011307/12/16 13:40:31  5-MIN K79J 121840Z AUTO 22005KT 10SM TS CLR 28/20 A3015 100 60 1700 220/05 RMK AO2 T02830200 $
53843K79J 79J20160712134511307/12/16 13:45:31  5-MIN K79J 121845Z AUTO 26007KT 10SM TS CLR 28/20 A3015 100 62 1600 260/07 RMK AO2 T02780200 $
53843K79J 79J20160712135012307/12/16 13:50:31  5-MIN K79J 121850Z AUTO 26005KT 10SM TS FEW110 28/19 A3015 100 60 1600 260/05 RMK AO2 SLP205 T02780194 $
53843K79J 79J20160712135512107/12/16 13:55:31  5-MIN K79J 121855Z AUTO 27006KT 10SM TS FEW110 28/19 A3015 100 60 1600 270/06 RMK AO2 SLP205 T02780194
53843K79J 79J20160712140012907/12/16 14:00:31  5-MIN K79J 121900Z AUTO 23004KT 10SM -TSRA FEW110 28/19 A3015 100 60 1600 230/04 RMK AO2 RAB00 P0000 T02780194
53843K79J 79J20160712140512907/12/16 14:05:31  5-MIN K79J 121905Z AUTO 24005KT 10SM -TSRA SCT110 27/20 A3015 100 64 1600 240/05 RMK AO2 RAB00 P0000 T02720200
53843K79J 79J20160712141012907/12/16 14:10:31  5-MIN K79J 121910Z AUTO 25003KT 10SM -TSRA SCT110 27/20 A3014 110 64 1600 250/03 RMK AO2 RAB00 P0000 T02720200
53843K79J 79J20160712141512907/12/16 14:15:31  5-MIN K79J 121915Z AUTO 24003KT 10SM -TSRA SCT110 27/20 A3015 100 64 1600 240/03 RMK AO2 RAB00 P0000 T02720200
53843K79J 79J20160712142012907/12/16 14:20:31  5-MIN K79J 121920Z AUTO 26003KT 10SM -TSRA BKN110 27/21 A3015 100 66 1600 260/03 RMK AO2 RAB00 P0000 T02720206
53843K79J 79J20160712142510607/12/16 14:25:31  5-MIN K79J 121925Z AUTO 00000KT -TSFZRA M M M 000/00 RMK AO2 RAB00FZRAB24 TSB23 P0000 $
53843K79J 79J20160712143013407/12/16 14:30:31  5-MIN K79J 121930Z AUTO 00000KT -TSFZRA 27/21 A3015 100 69 1600 000/00 RMK AO2 RAB00FZRAB24 TSB23 P0001 T02720211 $
53843K79J 79J20160712143513907/12/16 14:35:31  5-MIN K79J 121935Z AUTO 22004KT 10SM -TSFZRA 27/21 A3015 100 71 1500 230/04 RMK AO2 RAB00FZRAB24 TSB23 P0001 T02670211 $
53843K79J 79J20160712144014007/12/16 14:40:31  5-MIN K79J 121940Z AUTO 00000KT 10SM -FZRA 27/22 A3015 100 73 1500 000/00 RMK AO2 RAB00FZRAB24 TSB23E38 P0001 T02670217 $
53843K79J 79J20160712144514407/12/16 14:45:31  5-MIN K79J 121945Z AUTO 00000KT 10SM -RA 27/22 A3014 110 73 1500 000/00 RMK AO2 RAB00B41FZRAB24E41 TSB23E38 P0001 T02670217 $
53843K79J 79J20160712145014807/12/16 14:50:31  5-MIN K79J 121950Z AUTO 12004KT 10SM 27/22 A3014 110 73 1500 120/04 RMK AO2 RAB00B41E49FZRAB24E41 TSB23E38 SLP201 P0001 T02670217
53843K79J 79J20160712145516207/12/16 14:55:31  5-MIN K79J 121955Z AUTO VRB04KT 10SM FEW021 SCT110 27/22 A3014 110 73 1500 VRB/04 RMK AO2 RAB00B41E49FZRAB24E41 TSB23E38 SLP201 P0001 T02670217
53843K79J 79J20160712150012107/12/16 15:00:31  5-MIN K79J 122000Z AUTO 15003KT 10SM TS FEW021 FEW100 27/22 A3014 110 76 1500 150/03 RMK AO2 T02670222
53843K79J 79J20160712150512107/12/16 15:05:31  5-MIN K79J 122005Z AUTO 13004KT 10SM TS FEW021 FEW080 27/22 A3014 110 76 1500 130/04 RMK AO2 T02670222
53843K79J 79J20160712151011407/12/16 15:10:31  5-MIN K79J 122010Z AUTO 11004KT 10SM TS FEW080 27/22 A3013 120 76 1500 110/04 RMK AO2 T02670222
53843K79J 79J20160712151512007/12/16 15:15:31  5-MIN K79J 122015Z AUTO 11004KT 10SM TS CLR 27/22 A3013 120 76 1500 110/04 RMK AO2 TSE11B13 T02670222
53843K79J 79J20160712152012007/12/16 15:20:31  5-MIN K79J 122020Z AUTO 09004KT 10SM TS CLR 27/22 A3012 130 76 1500 090/04 RMK AO2 TSE11B13 T02670222
53843K79J 79J20160712152512007/12/16 15:25:31  5-MIN K79J 122025Z AUTO 06004KT 10SM TS CLR 27/23 A3012 130 76 1600 060/04 RMK AO2 TSE11B13 T02720228
53843K79J 79J20160712153012007/12/16 15:30:31  5-MIN K79J 122030Z AUTO 05003KT 10SM CLR 27/23 A3011 130 76 1600 050/03 RMK AO2 TSE11B13E29 T02720228
53843K79J 79J20160712153512007/12/16 15:35:31  5-MIN K79J 122035Z AUTO 06004KT 10SM CLR 27/23 A3011 140 76 1600 060/04 RMK AO2 TSE11B13E29 T02720228
53843K79J 79J20160712154012007/12/16 15:40:31  5-MIN K79J 122040Z AUTO 05004KT 10SM CLR 27/23 A3011 140 76 1600 050/04 RMK AO2 TSE11B13E29 T02720228
53843K79J 79J20160712154512007/12/16 15:45:31  5-MIN K79J 122045Z AUTO 05003KT 10SM CLR 28/23 A3011 140 74 1700 050/03 RMK AO2 TSE11B13E29 T02780228
53843K79J 79J20160713065013907/13/16 06:50:31  5-MIN K79J 131150Z AUTO 00000KT 10SM CLR 25/22 A3014 110 81 1300 000/00 RMK AO2 SLP200 70001 T02500217 10250 20233 58001
53843K79J 79J20160713065513907/13/16 06:55:31  5-MIN K79J 131155Z AUTO 00000KT 10SM CLR 25/22 A3014 110 81 1300 000/00 RMK AO2 SLP199 70001 T02500217 10250 20233 58001
53843K79J 79J20160713070010807/13/16 07:00:31  5-MIN K79J 131200Z AUTO 00000KT 10SM CLR 25/22 A3014 110 81 1300 000/00 RMK AO2 T02500217
53843K79J 79J20160713070510807/13/16 07:05:31  5-MIN K79J 131205Z AUTO 00000KT 10SM CLR 26/22 A3014 110 79 1400 000/00 RMK AO2 T02560217
53843K79J 79J20160713071010807/13/16 07:10:31  5-MIN K79J 131210Z AUTO 00000KT 10SM CLR 26/22 A3014 110 81 1400 000/00 RMK AO2 T02560222
53843K79J 79J20160713071510807/13/16 07:15:31  5-MIN K79J 131215Z AUTO 05003KT 10SM CLR 26/22 A3015 100 79 1400 050/03 RMK AO2 T02560217
53843K79J 79J20160713072010807/13/16 07:20:31  5-MIN K79J 131220Z AUTO 00000KT 10SM CLR 26/22 A3015 100 76 1500 000/00 RMK AO2 T02610217
53843K79J 79J20160713072510807/13/16 07:25:31  5-MIN K79J 131225Z AUTO 00000KT 10SM CLR 26/22 A3015 100 79 1500 000/00 RMK AO2 T02610222
53843K79J 79J20160713073010807/13/16 07:30:31  5-MIN K79J 131230Z AUTO 00000KT 10SM CLR 26/22 A3015 100 79 1400 000/00 RMK AO2 T02610222
53843K79J 79J20160713073510807/13/16 07:35:31  5-MIN K79J 131235Z AUTO 00000KT 10SM CLR 26/22 A3015 100 79 1400 000/00 RMK AO2 T02610222
53843K79J 79J20160713074010807/13/16 07:40:31  5-MIN K79J 131240Z AUTO 00000KT 10SM CLR 27/22 A3015 100 76 1500 000/00 RMK AO2 T02670222
53843K79J 79J20160713074510807/13/16 07:45:31  5-MIN K79J 131245Z AUTO 00000KT 10SM CLR 27/22 A3015 100 76 1500 000/00 RMK AO2 T02670222
53843K79J 79J20160713075011507/13/16 07:50:31  5-MIN K79J 131250Z AUTO 00000KT 10SM CLR 27/22 A3015 100 76 1500 000/00 RMK AO2 SLP206 T02670222
53843K79J 79J20160713075511507/13/16 07:55:31  5-MIN K79J 131255Z AUTO 10003KT 10SM CLR 27/22 A3015 100 74 1600 100/03 RMK AO2 SLP205 T02720222
53843K79J 79J20160713080010807/13/16 08:00:31  5-MIN K79J 131300Z AUTO 00000KT 10SM CLR 27/22 A3015 100 74 1600 000/00 RMK AO2 T02720222
53843K79J 79J20160713080510807/13/16 08:05:31  5-MIN K79J 131305Z AUTO 09003KT 10SM CLR 28/23 A3015 100 74 1600 090/03 RMK AO2 T02780228
53843K79J 79J20160713081010707/13/16 08:10:31  5-MIN K79J 131310Z AUTO 09003KT 10SM CLR 28/22 A3016 90 71 1600 100/03 RMK AO2 T02780222
53843K79J 79J20160713081510707/13/16 08:15:31  5-MIN K79J 131315Z AUTO 13004KT 10SM CLR 28/23 A3016 90 71 1700 140/04 RMK AO2 T02830228
53843K79J 79J20160713082010707/13/16 08:20:31  5-MIN K79J 131320Z AUTO 10004KT 10SM CLR 28/23 A3016 90 71 1700 110/04 RMK AO2 T02830228
53843K79J 79J20160713082510707/13/16 08:25:31  5-MIN K79J 131325Z AUTO VRB03KT 10SM CLR 28/23 A3016 90 71 1700 VRB/03 RMK AO2 T02830228
53843K79J 79J20160713083010707/13/16 08:30:31  5-MIN K79J 131330Z AUTO 00000KT 10SM CLR 29/23 A3016 90 69 1700 000/00 RMK AO2 T02890228
53843K79J 79J20160713083510707/13/16 08:35:31  5-MIN K79J 131335Z AUTO 00000KT 10SM CLR 29/23 A3017 90 71 1700 000/00 RMK AO2 T02890233
53843K79J 79J20160713084010707/13/16 08:40:31  5-MIN K79J 131340Z AUTO 13003KT 10SM CLR 29/23 A3017 90 71 1700 140/03 RMK AO2 T02890233
53843K79J 79J20160713084510707/13/16 08:45:31  5-MIN K79J 131345Z AUTO 00000KT 10SM CLR 29/23 A3017 80 69 1800 000/00 RMK AO2 T02940233
53843K79J 79J20160713085011407/13/16 08:50:31  5-MIN K79J 131350Z AUTO VRB03KT 10SM CLR 29/23 A3017 90 69 1800 VRB/03 RMK AO2 SLP210 T02940233
53843K79J 79J20160713085511407/13/16 08:55:31  5-MIN K79J 131355Z AUTO 17004KT 10SM CLR 30/24 A3017 80 69 1900 170/04 RMK AO2 SLP211 T03000239
53843K79J 79J20160713090010707/13/16 09:00:31  5-MIN K79J 131400Z AUTO 12003KT 10SM CLR 30/23 A3017 90 67 1900 120/03 RMK AO2 T03000233
53843K79J 79J20160713090510707/13/16 09:05:31  5-MIN K79J 131405Z AUTO 00000KT 10SM CLR 30/24 A3017 90 69 1900 000/00 RMK AO2 T03000239
53843K79J 79J20160713091010707/13/16 09:10:31  5-MIN K79J 131410Z AUTO VRB04KT 10SM CLR 30/24 A3017 80 69 1900 VRB/04 RMK AO2 T03000239
53843K79J 79J20160713091510707/13/16 09:15:31  5-MIN K79J 131415Z AUTO 13004KT 10SM CLR 30/24 A3017 80 69 1900 130/04 RMK AO2 T03000239
53843K79J 79J20160713092010707/13/16 09:20:31  5-MIN K79J 131420Z AUTO 00000KT 10SM CLR 31/23 A3017 80 65 1900 000/00 RMK AO2 T03060233
53843K79J 79J20160713092510707/13/16 09:25:31  5-MIN K79J 131425Z AUTO VRB03KT 10SM CLR 31/23 A3017 80 65 1900 VRB/03 RMK AO2 T03060233
53843K79J 79J20160713093010707/13/16 09:30:31  5-MIN K79J 131430Z AUTO 00000KT 10SM CLR 31/24 A3017 80 67 1900 000/00 RMK AO2 T03060239
53843K79J 79J20160713093510707/13/16 09:35:31  5-MIN K79J 131435Z AUTO 13003KT 10SM CLR 31/24 A3017 80 65 2000 130/03 RMK AO2 T03110239
53843K79J 79J20160713094010707/13/16 09:40:31  5-MIN K79J 131440Z AUTO 00000KT 10SM CLR 31/24 A3017 80 65 2000 000/00 RMK AO2 T03110239
53843K79J 79J20160713094510707/13/16 09:45:31  5-MIN K79J 131445Z AUTO 22003KT 10SM CLR 32/24 A3017 80 63 2000 220/03 RMK AO2 T03170239
53843K79J 79J20160713095012007/13/16 09:50:31  5-MIN K79J 131450Z AUTO 20003KT 10SM CLR 32/23 A3017 80 61 2000 200/03 RMK AO2 SLP210 T03170233 53006
53843K79J 79J20160713095512007/13/16 09:55:31  5-MIN K79J 131455Z AUTO 00000KT 10SM CLR 32/23 A3017 80 61 2000 000/00 RMK AO2 SLP211 T03170233 53006
53843K79J 79J20160713100010707/13/16 10:00:31  5-MIN K79J 131500Z AUTO 32003KT 10SM CLR 32/23 A3017 80 57 2100 330/03 RMK AO2 T03220228
53843K79J 79J20160713100510707/13/16 10:05:31  5-MIN K79J 131505Z AUTO 00000KT 10SM CLR 33/23 A3017 80 57 2200 000/00 RMK AO2 T03280233
53843K79J 79J20160713101010707/13/16 10:10:31  5-MIN K79J 131510Z AUTO 08004KT 10SM CLR 33/23 A3017 80 57 2200 090/04 RMK AO2 T03280233
53843K79J 79J20160713101511007/13/16 10:15:31  5-MIN K79J 131515Z AUTO VRB03KT 10SM FEW024 33/24 A3017 80 59 2200 VRB/03 RMK AO2 T03280239
53843K79J 79J20160713102011007/13/16 10:20:31  5-MIN K79J 131520Z AUTO 16003KT 10SM FEW024 33/23 A3017 80 55 2200 160/03 RMK AO2 T03280228
53843K79J 79J20160713102511007/13/16 10:25:31  5-MIN K79J 131525Z AUTO 00000KT 10SM FEW024 33/23 A3017 80 55 2200 000/00 RMK AO2 T03280228
53843K79J 79J20160713103011007/13/16 10:30:31  5-MIN K79J 131530Z AUTO 00000KT 10SM FEW024 33/23 A3017 80 53 2200 000/00 RMK AO2 T03330228
53843K79J 79J20160713103511007/13/16 10:35:31  5-MIN K79J 131535Z AUTO 00000KT 10SM FEW024 33/23 A3017 80 53 2200 000/00 RMK AO2 T03330228
53843K79J 79J20160713104011707/13/16 10:40:31  5-MIN K79J 131540Z AUTO 00000KT 10SM FEW024 SCT029 33/23 A3017 80 55 2200 000/00 RMK AO2 T03330233
53843K79J 79J20160713104511007/13/16 10:45:31  5-MIN K79J 131545Z AUTO 19003KT 10SM FEW031 33/22 A3017 80 53 2200 190/03 RMK AO2 T03280222
53843K79J 79J20160713105011707/13/16 10:50:31  5-MIN K79J 131550Z AUTO 00000KT 10SM FEW031 32/22 A3017 80 55 2100 000/00 RMK AO2 SLP212 T03220222
53843K79J 79J20160713105511707/13/16 10:55:31  5-MIN K79J 131555Z AUTO 00000KT 10SM FEW031 32/22 A3017 80 56 2000 000/00 RMK AO2 SLP212 T03170222
53843K79J 79J20160713110011007/13/16 11:00:31  5-MIN K79J 131600Z AUTO 00000KT 10SM FEW031 32/23 A3017 80 58 2000 000/00 RMK AO2 T03170228
53843K79J 79J20160713110511007/13/16 11:05:31  5-MIN K79J 131605Z AUTO 00000KT 10SM FEW031 33/22 A3017 80 53 2200 000/00 RMK AO2 T03280222
53843K79J 79J20160713111011007/13/16 11:10:31  5-MIN K79J 131610Z AUTO 00000KT 10SM FEW031 33/22 A3017 80 53 2200 000/00 RMK AO2 T03280222
53843K79J 79J20160713111511007/13/16 11:15:31  5-MIN K79J 131615Z AUTO 00000KT 10SM FEW031 32/22 A3017 80 53 2100 000/00 RMK AO2 T03220217
53843K79J 79J20160713112011007/13/16 11:20:31  5-MIN K79J 131620Z AUTO 00000KT 10SM FEW033 33/22 A3017 80 53 2200 000/00 RMK AO2 T03280222
53843K79J 79J20160713112511707/13/16 11:25:31  5-MIN K79J 131625Z AUTO 16004KT 10SM FEW033 SCT055 32/23 A3017 80 57 2100 160/04 RMK AO2 T03220228
53843K79J 79J20160713113011707/13/16 11:30:31  5-MIN K79J 131630Z AUTO 00000KT 10SM FEW033 SCT060 33/23 A3017 80 55 2200 000/00 RMK AO2 T03280228
53843K79J 79J20160713113511707/13/16 11:35:31  5-MIN K79J 131635Z AUTO 00000KT 10SM FEW033 FEW055 34/23 A3017 80 51 2300 000/00 RMK AO2 T03390228
53843K79J 79J20160713114011707/13/16 11:40:31  5-MIN K79J 131640Z AUTO 09004KT 10SM FEW033 FEW055 34/23 A3017 80 50 2400 090/04 RMK AO2 T03440228
53843K79J 79J20160713114511007/13/16 11:45:31  5-MIN K79J 131645Z AUTO 00000KT 10SM FEW055 34/23 A3017 80 50 2400 000/00 RMK AO2 T03440228
53843K79J 79J20160713115011707/13/16 11:50:31  5-MIN K79J 131650Z AUTO 21005KT 10SM FEW055 34/23 A3017 80 50 2400 210/05 RMK AO2 SLP210 T03440228
53843K79J 79J20160713115511707/13/16 11:55:31  5-MIN K79J 131655Z AUTO 00000KT 10SM FEW035 34/23 A3017 90 51 2300 000/00 RMK AO2 SLP210 T03390228
53843K79J 79J20160713120011007/13/16 12:00:31  5-MIN K79J 131700Z AUTO 00000KT 10SM SCT035 33/23 A3017 80 53 2200 000/00 RMK AO2 T03330228
53843K79J 79J20160713120512407/13/16 12:05:31  5-MIN K79J 131705Z AUTO VRB03KT 10SM SCT035 SCT065 SCT080 34/23 A3017 80 51 2300 VRB/03 RMK AO2 T03390228
53843K79J 79J20160713121012407/13/16 12:10:31  5-MIN K79J 131710Z AUTO 13003KT 10SM SCT037 BKN065 BKN080 34/23 A3016 90 51 2300 130/03 RMK AO2 T03390228
53843K79J 79J20160713121512407/13/16 12:15:31  5-MIN K79J 131715Z AUTO 00000KT 10SM SCT037 BKN070 BKN080 33/22 A3016 90 51 2200 000/00 RMK AO2 T03330222
53843K79J 79J20160713122011707/13/16 12:20:31  5-MIN K79J 131720Z AUTO 00000KT 10SM SCT037 BKN075 34/22 A3016 90 50 2300 000/00 RMK AO2 T03390222
53843K79J 79J20160713122512407/13/16 12:25:31  5-MIN K79J 131725Z AUTO 05004KT 10SM SCT037 BKN080 OVC100 34/22 A3016 90 50 2300 050/04 RMK AO2 T03390222
53843K79J 79J20160713123012407/13/16 12:30:31  5-MIN K79J 131730Z AUTO VRB04KT 10SM FEW037 BKN080 OVC110 35/23 A3016 90 48 2400 VRB/04 RMK AO2 T03500228
53843K79J 79J20160713123512407/13/16 12:35:31  5-MIN K79J 131735Z AUTO 03003KT 10SM FEW037 BKN075 BKN095 36/23 A3016 90 47 2500 030/03 RMK AO2 T03560228
53843K79J 79J20160713124012407/13/16 12:40:31  5-MIN K79J 131740Z AUTO 00000KT 10SM SCT039 BKN080 BKN100 34/22 A3016 90 48 2400 000/00 RMK AO2 T03440222
53843K79J 79J20160713124512407/13/16 12:45:31  5-MIN K79J 131745Z AUTO VRB03KT 10SM BKN039 BKN075 BKN110 34/22 A3016 90 50 2300 VRB/03 RMK AO2 T03390222
53843K79J 79J20160713125014907/13/16 12:50:31  5-MIN K79J 131750Z AUTO 00000KT 10SM BKN039 BKN060 OVC110 34/22 A3016 90 50 2300 000/00 RMK AO2 SLP207 T03390222 10356 20250 51011
53843K79J 79J20160713125515007/13/16 12:55:31  5-MIN K79J 131755Z AUTO 00000KT 10SM BKN041 BKN065 BKN110 35/23 A3016 100 48 2400 000/00 RMK AO2 SLP206 T03500228 10356 20250 51011
53843K79J 79J20160713130012507/13/16 13:00:31  5-MIN K79J 131800Z AUTO VRB04KT 10SM SCT041 BKN047 BKN065 34/22 A3015 100 48 2400 VRB/04 RMK AO2 T03440222
53843K79J 79J20160713130512507/13/16 13:05:31  5-MIN K79J 131805Z AUTO 22003KT 10SM SCT040 BKN050 OVC110 33/22 A3015 100 50 2300 220/03 RMK AO2 T03330217
53843K79J 79J20160713131014107/13/16 13:10:31  5-MIN K79J 131810Z AUTO 25003KT 10SM -RA FEW040 BKN070 OVC110 33/22 A3014 110 50 2300 250/03 RMK AO2 RAB08 P0000 T03330217
53843K79J 79J20160713131514007/13/16 13:15:31  5-MIN K79J 131815Z AUTO VRB03KT 4SM +RA SCT044 BKN060 OVC110 32/22 A3014 110 55 2100 VRB/03 RMK AO2 RAB08 P0002 T03220222
53843K79J 79J20160713132013907/13/16 13:20:31  5-MIN K79J 131820Z AUTO 33004KT 3SM RA SCT040 BKN060 OVC110 32/24 A3014 110 61 2100 340/04 RMK AO2 RAB08 P0002 T03220239
53843K79J 79J20160713132514007/13/16 13:25:31  5-MIN K79J 131825Z AUTO 02005KT 7SM -RA BKN036 BKN048 OVC095 33/23 A3014 110 57 2200 020/05 RMK AO2 RAB08 P0002 T03280233
53843K79J 79J20160713133014107/13/16 13:30:31  5-MIN K79J 131830Z AUTO 03003KT 10SM -RA BKN036 BKN055 BKN100 34/23 A3013 110 51 2300 030/03 RMK AO2 RAB08 P0002 T03390228
53843K79J 79J20160713133513307/13/16 13:35:31  5-MIN K79J 131835Z AUTO VRB03KT 10SM SCT038 BKN100 34/23 A3013 120 52 2400 VRB/03 RMK AO2 RAB08E34 P0002 T03440233
53843K79J 79J20160713134014207/13/16 13:40:31  5-MIN K79J 131840Z AUTO 18007KT 140V220 10SM SCT038 34/23 A3014 110 52 2400 180/07 140V220 RMK AO2 RAB08E34 P0002 T03440233
53843K79J 79J20160713134513307/13/16 13:45:31  5-MIN K79J 131845Z AUTO 19006KT 10SM FEW034 BKN041 32/23 A3014 110 59 2100 190/06 RMK AO2 RAB08E34 P0002 T03220233
53843K79J 79J20160713135014007/13/16 13:50:31  5-MIN K79J 131850Z AUTO 19005KT 10SM FEW034 BKN041 32/23 A3014 110 58 2100 190/05 RMK AO2 RAB08E34 SLP201 P0002 T03170228
53843K79J 79J20160713135513307/13/16 13:55:31  5-MIN K79J 131855Z AUTO VRB05KT 10SM FEW041 32/23 A3013 110 58 2100 VRB/05 RMK AO2 RAB08E34 SLP199 P0002 T03170228
53843K79J 79J20160713140015107/13/16 14:00:31  5-MIN K79J 131900Z AUTO 19008KT 140V230 9SM -RA FEW011 SCT041 32/22 A3013 120 56 2100 190/08 140V230 RMK AO2 RAB00 P0000 T03170222 $
53843K79J 79J20160713140513407/13/16 14:05:31  5-MIN K79J 131905Z AUTO VRB06KT 10SM -RA FEW011 SCT041 30/21 A3012 130 58 1900 VRB/06 RMK AO2 RAB00 P0000 T03000211
53843K79J 79J20160713141012607/13/16 14:10:31  5-MIN K79J 131910Z AUTO 18007KT 10SM FEW041 31/21 A3013 120 54 2000 180/07 RMK AO2 RAB00E09 P0000 T03110211
53843K79J 79J20160713141513507/13/16 14:15:31  5-MIN K79J 131915Z AUTO 17006KT 10SM -TSRA FEW012 31/21 A3013 120 54 2000 170/06 RMK AO2 RAB00 TSB11 P0000 T03110211
53843K79J 79J20160713142013507/13/16 14:20:31  5-MIN K79J 131920Z AUTO 16003KT 10SM -TSRA SCT018 31/22 A3013 120 58 2000 160/03 RMK AO2 RAB00 TSB11 P0000 T03110222
53843K79J 79J20160713142514207/13/16 14:25:31  5-MIN K79J 131925Z AUTO 00000KT 10SM -TSRA SCT020 32/23 A3015 100 58 2100 000/00 RMK AO2 RAB00 TSB11 PRESRR P0000 T03170228
53843K79J 79J20160713143014207/13/16 14:30:31  5-MIN K79J 131930Z AUTO 00000KT 10SM TS FEW022 SCT065 32/23 A3015 100 57 2100 000/00 RMK AO2 RAB00E30 TSB11 P0000 T03220228
53843K79J 79J20160713143514507/13/16 14:35:31  5-MIN K79J 131935Z AUTO 23003KT 10SM TS FEW022 SCT060 32/22 A3013 110 55 2100 230/03 RMK AO2 RAB00E30 TSB11B31 P0000 T03220222
53843K79J 79J20160713144014507/13/16 14:40:31  5-MIN K79J 131940Z AUTO 00000KT 10SM TS FEW021 SCT060 32/23 A3013 120 57 2100 000/00 RMK AO2 RAB00E30 TSB11B31 P0000 T03220228
53843K79J 79J20160713144514807/13/16 14:45:31  5-MIN K79J 131945Z AUTO 20004KT 10SM TS FEW023 FEW060 32/24 A3013 120 63 2100 200/04 RMK AO2 RAB00E30 TSB11B31B42 P0000 T03170239
53843K79J 79J20160713145015507/13/16 14:50:31  5-MIN K79J 131950Z AUTO 21005KT 10SM TS FEW038 SCT060 31/23 A3013 120 63 2000 220/05 RMK AO2 RAB00E30 TSB11B31B42 SLP199 P0000 T03110233
53843K79J 79J20160713145517707/13/16 14:55:31  5-MIN K79J 131955Z AUTO 23015G21KT 1 3/4SM +TSRA SCT036 SCT043 BKN060 31/23 A3014 110 65 2000 230/15G21 RMK AO2 RAB00E30B52 TSB11B31B42 SLP201 P0010 T03060233
53843K79J 79J20160713150016207/13/16 15:00:31  5-MIN K79J 132000Z AUTO 26010G21KT 220V290 1 1/4SM +TSRA FEW022 SCT034 BKN043 28/24 A3014 110 79 1700 260/10G21 220V290 RMK AO2 P0005 T02830244
53843K79J 79J20160713150514207/13/16 15:05:31  5-MIN K79J 132005Z AUTO 25008G18KT 1SM +TSRA SCT030 SCT038 BKN050 27/23 A3014 110 76 1600 250/08G18 RMK AO2 P0020 T02720228
53843K79J 79J20160713151014207/13/16 15:10:31  5-MIN K79J 132010Z AUTO 29008G18KT 1SM +TSRA BKN036 BKN049 BKN095 27/24 A3014 110 82 1600 290/08G18 RMK AO2 P0023 T02720239
53843K79J 79J20160713151514007/13/16 15:15:31  5-MIN K79J 132015Z AUTO 26008KT 1 3/4SM +TSRA SCT036 BKN049 OVC090 27/24 A3014 110 82 1600 260/08 RMK AO2 P0027 T02720239
53843K79J 79J20160713152013607/13/16 15:20:31  5-MIN K79J 132020Z AUTO 27009KT 2SM +TSRA SCT036 BKN070 OVC110 27/23 A3014 110 79 1500 270/09 RMK AO2 P0030 T02670228
53843K79J 79J20160713152513907/13/16 15:25:31  5-MIN K79J 132025Z AUTO 27009KT 2 1/2SM TSRA SCT040 BKN090 OVC110 27/22 A3014 110 76 1500 270/09 RMK AO2 P0031 T02670222
53843K79J 79J20160713153013507/13/16 15:30:31  5-MIN K79J 132030Z AUTO 27010KT 6SM TSRA FEW039 SCT065 BKN090 26/22 A3015 100 79 1400 280/10 RMK AO2 P0031 T02610222
53843K79J 79J20160713153513707/13/16 15:35:31  5-MIN K79J 132035Z AUTO 27009KT 10SM -TSRA FEW048 BKN090 BKN110 26/22 A3015 100 79 1500 270/09 RMK AO2 P0032 T02610222
53843K79J 79J20160713154013707/13/16 15:40:31  5-MIN K79J 132040Z AUTO 26007KT 10SM -TSRA FEW075 SCT090 BKN110 26/22 A3014 110 79 1500 260/07 RMK AO2 P0032 T02610222
53843K79J 79J20160713154514107/13/16 15:45:31  5-MIN K79J 132045Z AUTO 27005KT 10SM -RA FEW070 FEW090 BKN110 26/22 A3014 110 79 1500 270/05 RMK AO2 TSE42 P0032 T02610222
53843K79J 79J20160713155015307/13/16 15:50:31  5-MIN K79J 132050Z AUTO 24005KT 10SM -RA FEW080 BKN110 26/22 A3014 110 79 1500 240/05 RMK AO2 TSE42 SLP203 P0032 60045 T02610222 58005
53843K79J 79J20160713155515807/13/16 15:55:31  5-MIN K79J 132055Z AUTO 23007KT 10SM -TSRA FEW080 BKN110 26/22 A3014 110 79 1500 230/07 RMK AO2 TSE42B54 SLP201 P0033 60046 T02610222 58005
53843K79J 79J20160713160013007/13/16 16:00:31  5-MIN K79J 132100Z AUTO 23007KT 10SM -TSRA FEW080 BKN110 26/22 A3013 120 81 1400 240/07 RMK AO2 P0000 T02560222
53843K79J 79J20160713160512307/13/16 16:05:31  5-MIN K79J 132105Z AUTO 22005KT 10SM -TSRA SCT110 26/23 A3013 120 84 1400 220/05 RMK AO2 P0000 T02560228
53843K79J 79J20160713161013407/13/16 16:10:31  5-MIN K79J 132110Z AUTO 22005KT 10SM -RA FEW090 SCT110 26/23 A3013 120 84 1400 220/05 RMK AO2 TSE10 P0000 T02560228
53843K79J 79J20160713161513907/13/16 16:15:31  5-MIN K79J 132115Z AUTO VRB04KT 10SM -TSRA FEW090 SCT110 26/23 A3013 120 84 1400 VRB/04 RMK AO2 TSE10B14 P0000 T02560228
53843K79J 79J20160713162013207/13/16 16:20:31  5-MIN K79J 132120Z AUTO VRB03KT 10SM -TSRA FEW110 26/23 A3012 120 84 1400 VRB/03 RMK AO2 TSE10B14 P0000 T02560228
53843K79J 79J20160713162513207/13/16 16:25:31  5-MIN K79J 132125Z AUTO 12003KT 10SM -TSRA FEW120 26/23 A3013 120 84 1400 120/03 RMK AO2 TSE10B14 P0000 T02560228
53843K79J 79J20160713163013207/13/16 16:30:31  5-MIN K79J 132130Z AUTO 12003KT 10SM -TSRA FEW120 26/23 A3012 120 81 1500 120/03 RMK AO2 TSE10B14 P0001 T02610228
53843K79J 79J20160713163513207/13/16 16:35:31  5-MIN K79J 132135Z AUTO 13003KT 10SM -TSRA SCT110 26/23 A3012 130 84 1500 130/03 RMK AO2 TSE10B14 P0001 T02610233
53843K79J 79J20160713164013207/13/16 16:40:31  5-MIN K79J 132140Z AUTO 11005KT 10SM -TSRA BKN110 26/23 A3011 140 84 1500 110/05 RMK AO2 TSE10B14 P0001 T02610233
53843K79J 79J20160713164514607/13/16 16:45:31  5-MIN K79J 132145Z AUTO 11006KT 10SM RA SCT100 BKN110 26/23 A3010 140 84 1500 110/06 RMK AO2 TSE10B14E44 PRESFR P0002 T02610233
53843K79J 79J20160713165013707/13/16 16:50:31  5-MIN K79J 132150Z AUTO 11004KT 10SM -RA BKN100 BKN110 26/23 A3010 150 81 1500 110/04 RMK AO2 TSE10B14E44 PRESFR P0002
53843K79J 79J20160713165514707/13/16 16:55:31  5-MIN K79J 132155Z AUTO 00000KT 10SM -RA BKN095 OVC110 26/23 A3009 150 84 1500 000/00 RMK AO2 TSE10B14E44 SLP187 P0002 T02610233
53843K79J 79J20160713170013507/13/16 17:00:31  5-MIN K79J 132200Z AUTO 00000KT 10SM -RA FEW036 BKN090 OVC110 26/23 A3009 160 84 1500 000/00 RMK AO2 P0000 T02610233
53843K79J 79J20160713170513507/13/16 17:05:31  5-MIN K79J 132205Z AUTO 00000KT 10SM -RA FEW036 SCT090 BKN110 26/23 A3008 160 84 1500 000/00 RMK AO2 P0000 T02610233
53843K79J 79J20160713171012307/13/16 17:10:31  5-MIN K79J 132210Z AUTO 09003KT 10SM SCT095 26/23 A3008 160 84 1500 090/03 RMK AO2 RAE10 P0000 T02610233
53843K79J 79J20160713171512307/13/16 17:15:31  5-MIN K79J 132215Z AUTO 35003KT 10SM SCT095 27/23 A3009 160 82 1600 350/03 RMK AO2 RAE10 P0000 T02670233
53843K79J 79J20160713172012307/13/16 17:20:31  5-MIN K79J 132220Z AUTO 34003KT 10SM FEW090 27/23 A3009 150 82 1600 340/03 RMK AO2 RAE10 P0000 T02670233
53843K79J 79J20160713172513007/13/16 17:25:31  5-MIN K79J 132225Z AUTO 30003KT 10SM FEW041 SCT090 26/23 A3010 150 84 1500 300/03 RMK AO2 RAE10 P0000 T02610233
53843K79J 79J20160713173013007/13/16 17:30:31  5-MIN K79J 132230Z AUTO 31003KT 10SM FEW043 FEW085 26/23 A3009 150 84 1500 310/03 RMK AO2 RAE10 P0000 T02610233
53843K79J 79J20160713173513707/13/16 17:35:31  5-MIN K79J 132235Z AUTO 32005KT 10SM FEW050 SCT080 SCT095 26/23 A3010 150 84 1500 320/05 RMK AO2 RAE10 P0000 T02610233
53843K79J 79J20160713174014407/13/16 17:40:31  5-MIN K79J 132240Z AUTO 31007KT 10SM -RA FEW046 SCT080 BKN100 26/23 A3010 150 84 1500 320/07 RMK AO2 RAE10B36 P0000 T02610233
53843K79J 79J20160713174514407/13/16 17:45:31  5-MIN K79J 132245Z AUTO 31007KT 10SM -RA FEW044 SCT080 BKN120 26/23 A3010 150 84 1500 320/07 RMK AO2 RAE10B36 P0000 T02610233
53843K79J 79J20160713175007507/13/16 17:50:31  5-MIN K79J 132250Z AUTO 31007KT 10SM FEW044 SCT075 26/23
53843K79J 79J20160713175014307/13/16 17:50:31  5-MIN K79J 132250Z AUTO 31007KT 10SM FEW044 SCT075 26/23 A3010 150 84 1500 310/07 RMK AO2 RAE10B36E48 SLP189 P0000 T02610233
53843K79J 79J20160713175514307/13/16 17:55:31  5-MIN K79J 132255Z AUTO 31007KT 10SM FEW044 FEW075 26/23 A3010 150 84 1500 310/07 RMK AO2 RAE10B36E48 SLP188 P0000 T02610233
53843K79J 79J20160713180011807/13/16 18:00:31  5-MIN K79J 132300Z AUTO 30008KT 10SM FEW044 FEW075 26/23 A3010 150 84 1500 300/08 RMK AO2 T02610233
53843K79J 79J20160713180511807/13/16 18:05:31  5-MIN K79J 132305Z AUTO 29006KT 10SM FEW042 FEW110 26/23 A3009 150 84 1500 290/06 RMK AO2 T02610233
53843K79J 79J20160713181010807/13/16 18:10:31  5-MIN K79J 132310Z AUTO 28006KT 10SM CLR 27/23 A3009 150 82 1600 280/06 RMK AO2 T02670233
53843K79J 79J20160713181510807/13/16 18:15:31  5-MIN K79J 132315Z AUTO 30006KT 10SM CLR 27/23 A3009 150 82 1600 300/06 RMK AO2 T02670233
53843K79J 79J20160713182010807/13/16 18:20:31  5-MIN K79J 132320Z AUTO 30008KT 10SM CLR 27/24 A3009 150 84 1600 300/08 RMK AO2 T02670239
53843K79J 79J20160713182510807/13/16 18:25:31  5-MIN K79J 132325Z AUTO 30007KT 10SM CLR 27/23 A3009 160 82 1600 300/07 RMK AO2 T02670233
53843K79J 79J20160713183010807/13/16 18:30:31  5-MIN K79J 132330Z AUTO 31005KT 10SM CLR 27/23 A3009 160 82 1600 310/05 RMK AO2 T02670233
53843K79J 79J20160713183510807/13/16 18:35:31  5-MIN K79J 132335Z AUTO 31003KT 10SM CLR 27/23 A3009 160 82 1600 320/03 RMK AO2 T02670233
53843K79J 79J20160713184010807/13/16 18:40:31  5-MIN K79J 132340Z AUTO 00000KT 10SM CLR 27/23 A3008 160 82 1600 000/00 RMK AO2 T02670233
53843K79J 79J20160713184510807/13/16 18:45:31  5-MIN K79J 132345Z AUTO VRB03KT 10SM CLR 26/23 A3009 150 81 1500 VRB/03 RMK AO2 T02610228
53843K79J 79J20160713185013907/13/16 18:50:31  5-MIN K79J 132350Z AUTO 24003KT 10SM CLR 27/23 A3009 160 82 1600 240/03 RMK AO2 SLP183 60048 T02670233 10322 20256 56005
53843K79J 79J20160713185513907/13/16 18:55:31  5-MIN K79J 132355Z AUTO 00000KT 10SM CLR 27/23 A3009 160 82 1600 000/00 RMK AO2 SLP182 60048 T02670233 10322 20256 56005
53843K79J 79J20160713190010807/13/16 19:00:31  5-MIN K79J 140000Z AUTO 00000KT 10SM CLR 26/23 A3008 160 84 1500 000/00 RMK AO2 T02610233
53843K79J 79J20160713190510807/13/16 19:05:31  5-MIN K79J 140005Z AUTO 20003KT 10SM CLR 26/23 A3008 160 84 1500 200/03 RMK AO2 T02610233
53843K79J 79J20160713191010807/13/16 19:10:31  5-MIN K79J 140010Z AUTO 00000KT 10SM CLR 26/23 A3008 160 84 1500 000/00 RMK AO2 T02610233
53843K79J 79J20160713191510807/13/16 19:15:31  5-MIN K79J 140015Z AUTO 00000KT 10SM CLR 26/23 A3008 160 84 1500 000/00 RMK AO2 T02610233
53843K79J 79J20160713192010807/13/16 19:20:31  5-MIN K79J 140020Z AUTO 00000KT 10SM CLR 27/23 A3008 160 82 1600 000/00 RMK AO2 T02670233
53843K79J 79J20160713192510807/13/16 19:25:31  5-MIN K79J 140025Z AUTO 00000KT 10SM CLR 26/23 A3008 160 84 1500 000/00 RMK AO2 T02610233
53843K79J 79J20160713193010807/13/16 19:30:31  5-MIN K79J 140030Z AUTO 00000KT 10SM CLR 26/23 A3009 160 84 1500 000/00 RMK AO2 T02610233
53843K79J 79J20160713193510807/13/16 19:35:31  5-MIN K79J 140035Z AUTO 00000KT 10SM CLR 26/23 A3009 160 84 1500 000/00 RMK AO2 T02610233
53843K79J 79J20160713194010807/13/16 19:40:31  5-MIN K79J 140040Z AUTO 00000KT 10SM CLR 26/23 A3009 160 84 1500 000/00 RMK AO2 T02610233
53843K79J 79J20160713194510807/13/16 19:45:31  5-MIN K79J 140045Z AUTO 00000KT 10SM CLR 26/23 A3009 150 84 1500 000/00 RMK AO2 T02610233
53843K79J 79J20160713195011507/13/16 19:50:31  5-MIN K79J 140050Z AUTO 00000KT 10SM CLR 26/23 A3010 150 84 1500 000/00 RMK AO2 SLP186 T02610233
53843K79J 79J20160713195511507/13/16 19:55:31  5-MIN K79J 140055Z AUTO 00000KT 10SM CLR 26/23 A3010 150 84 1500 000/00 RMK AO2 SLP187 T02610233
53843K79J 79J20160713200010807/13/16 20:00:31  5-MIN K79J 140100Z AUTO 00000KT 10SM CLR 26/23 A3010 150 87 1400 000/00 RMK AO2 T02560233
53843K79J 79J20160713200510807/13/16 20:05:31  5-MIN K79J 140105Z AUTO 17003KT 10SM CLR 26/23 A3010 150 87 1400 180/03 RMK AO2 T02560233
53843K79J 79J20160713201010807/13/16 20:10:31  5-MIN K79J 140110Z AUTO 00000KT 10SM CLR 26/23 A3010 140 87 1400 000/00 RMK AO2 T02560233
53843K79J 79J20160713201510807/13/16 20:15:31  5-MIN K79J 140115Z AUTO 00000KT 10SM CLR 26/23 A3011 140 87 1400 000/00 RMK AO2 T02560233
53843K79J 79J20160713202010807/13/16 20:20:31  5-MIN K79J 140120Z AUTO 00000KT 10SM CLR 26/23 A3011 140 84 1500 000/00 RMK AO2 T02610233
53843K79J 79J20160713202510807/13/16 20:25:31  5-MIN K79J 140125Z AUTO 00000KT 10SM CLR 26/23 A3012 130 84 1500 000/00 RMK AO2 T02610233
53843K79J 79J20160713203010807/13/16 20:30:31  5-MIN K79J 140130Z AUTO 00000KT 10SM CLR 26/23 A3012 130 87 1400 000/00 RMK AO2 T02560233
53843K79J 79J20160713203510807/13/16 20:35:31  5-MIN K79J 140135Z AUTO 12003KT 10SM CLR 26/23 A3012 130 87 1400 120/03 RMK AO2 T02560233
53843K79J 79J20160713204010807/13/16 20:40:31  5-MIN K79J 140140Z AUTO 00000KT 10SM CLR 26/23 A3012 130 87 1400 000/00 RMK AO2 T02560233
53843K79J 79J20160713204510807/13/16 20:45:31  5-MIN K79J 140145Z AUTO 10003KT 10SM CLR 26/23 A3012 130 87 1400 100/03 RMK AO2 T02560233
53843K79J 79J20160713205011507/13/16 20:50:31  5-MIN K79J 140150Z AUTO 00000KT 10SM CLR 26/23 A3012 130 87 1400 000/00 RMK AO2 SLP194 T02560233
53843K79J 79J20160713205511507/13/16 20:55:31  5-MIN K79J 140155Z AUTO 11004KT 10SM CLR 26/23 A3012 130 87 1400 110/04 RMK AO2 SLP195 T02560233
53843K79J 79J20160713210010807/13/16 21:00:31  5-MIN K79J 140200Z AUTO 09003KT 10SM CLR 26/23 A3013 120 87 1400 100/03 RMK AO2 T02560233
53843K79J 79J20160713210510807/13/16 21:05:31  5-MIN K79J 140205Z AUTO 10003KT 10SM CLR 26/23 A3013 120 87 1400 100/03 RMK AO2 T02560233
53843K79J 79J20160713211010807/13/16 21:10:31  5-MIN K79J 140210Z AUTO 00000KT 10SM CLR 26/23 A3013 120 87 1400 000/00 RMK AO2 T02560233
53843K79J 79J20160713211510807/13/16 21:15:31  5-MIN K79J 140215Z AUTO 00000KT 10SM CLR 26/23 A3013 120 87 1400 000/00 RMK AO2 T02560233
53843K79J 79J20160713212010807/13/16 21:20:31  5-MIN K79J 140220Z AUTO 00000KT 10SM CLR 26/23 A3013 120 87 1400 000/00 RMK AO2 T02560233
53843K79J 79J20160713212510807/13/16 21:25:31  5-MIN K79J 140225Z AUTO 00000KT 10SM CLR 26/23 A3013 120 84 1400 000/00 RMK AO2 T02560228
53843K79J 79J20160713213010807/13/16 21:30:31  5-MIN K79J 140230Z AUTO 00000KT 10SM CLR 26/23 A3013 120 84 1400 000/00 RMK AO2 T02560228
53843K79J 79J20160713213510807/13/16 21:35:31  5-MIN K79J 140235Z AUTO 07003KT 10SM CLR 26/23 A3014 110 84 1400 070/03 RMK AO2 T02560228
53843K79J 79J20160713214010807/13/16 21:40:31  5-MIN K79J 140240Z AUTO 00000KT 10SM CLR 26/23 A3014 110 84 1400 000/00 RMK AO2 T02560228
53843K79J 79J20160713214510807/13/16 21:45:31  5-MIN K79J 140245Z AUTO 00000KT 10SM CLR 26/23 A3014 110 84 1400 000/00 RMK AO2 T02560228
53843K79J 79J20160713215012107/13/16 21:50:31  5-MIN K79J 140250Z AUTO 10003KT 10SM CLR 26/23 A3014 110 84 1400 100/03 RMK AO2 SLP201 T02560228 56018
53843K79J 79J20160713215512107/13/16 21:55:31  5-MIN K79J 140255Z AUTO 08003KT 10SM CLR 26/23 A3014 110 84 1400 080/03 RMK AO2 SLP202 T02560228 56018
53843K79J 79J20160713220010807/13/16 22:00:31  5-MIN K79J 140300Z AUTO 00000KT 10SM CLR 26/23 A3014 110 84 1400 000/00 RMK AO2 T02560228
53843K79J 79J20160713220510707/13/16 22:05:31  5-MIN K79J 140305Z AUTO 10003KT 9SM CLR 25/23 A3014 110 87 1300 100/03 RMK AO2 T02500228
53843K79J 79J20160713221010707/13/16 22:10:31  5-MIN K79J 140310Z AUTO 10003KT 9SM CLR 26/23 A3014 110 84 1400 100/03 RMK AO2 T02560228
53843K79J 79J20160713221510807/13/16 22:15:31  5-MIN K79J 140315Z AUTO 00000KT 10SM CLR 26/23 A3014 110 84 1400 000/00 RMK AO2 T02560228
53843K79J 79J20160713222010807/13/16 22:20:31  5-MIN K79J 140320Z AUTO 10003KT 10SM CLR 26/23 A3014 110 84 1400 100/03 RMK AO2 T02560228
53843K79J 79J20160713222510807/13/16 22:25:31  5-MIN K79J 140325Z AUTO 00000KT 10SM CLR 26/23 A3014 110 84 1400 000/00 RMK AO2 T02560228
53843K79J 79J20160713223010807/13/16 22:30:31  5-MIN K79J 140330Z AUTO 00000KT 10SM CLR 25/23 A3014 110 87 1300 000/00 RMK AO2 T02500228
53843K79J 79J20160713223510807/13/16 22:35:31  5-MIN K79J 140335Z AUTO 00000KT 10SM CLR 25/23 A3014 110 87 1300 000/00 RMK AO2 T02500228
53843K79J 79J20160713224010707/13/16 22:40:31  5-MIN K79J 140340Z AUTO 00000KT 9SM CLR 25/23 A3013 110 87 1300 000/00 RMK AO2 T02500228
53843K79J 79J20160713224510807/13/16 22:45:31  5-MIN K79J 140345Z AUTO 00000KT 10SM CLR 25/23 A3013 120 87 1300 000/00 RMK AO2 T02500228
53843K79J 79J20160713225011507/13/16 22:50:31  5-MIN K79J 140350Z AUTO 00000KT 10SM CLR 25/22 A3013 120 84 1300 000/00 RMK AO2 SLP198 T02500222
53843K79J 79J20160713225511507/13/16 22:55:31  5-MIN K79J 140355Z AUTO 00000KT 10SM CLR 25/22 A3013 120 84 1300 000/00 RMK AO2 SLP198 T02500222
53843K79J 79J20160713230010707/13/16 23:00:31  5-MIN K79J 140400Z AUTO 00000KT 9SM CLR 25/23 A3013 120 87 1300 000/00 RMK AO2 T02500228
53843K79J 79J20160713230510707/13/16 23:05:31  5-MIN K79J 140405Z AUTO 00000KT 9SM CLR 25/23 A3013 120 87 1300 000/00 RMK AO2 T02500228
53843K79J 79J20160713231010807/13/16 23:10:31  5-MIN K79J 140410Z AUTO 00000KT 10SM CLR 25/23 A3013 120 87 1300 000/00 RMK AO2 T02500228
53843K79J 79J20160713231510807/13/16 23:15:31  5-MIN K79J 140415Z AUTO 00000KT 10SM CLR 25/23 A3013 120 87 1300 000/00 RMK AO2 T02500228
53843K79J 79J20160713232010807/13/16 23:20:31  5-MIN K79J 140420Z AUTO 00000KT 10SM CLR 25/23 A3013 120 87 1300 000/00 RMK AO2 T02500228
53843K79J 79J20160713232510807/13/16 23:25:31  5-MIN K79J 140425Z AUTO 00000KT 10SM CLR 25/22 A3013 120 84 1300 000/00 RMK AO2 T02500222
53843K79J 79J20160713233010707/13/16 23:30:31  5-MIN K79J 140430Z AUTO 00000KT 9SM CLR 25/22 A3014 110 84 1300 000/00 RMK AO2 T02500222
53843K79J 79J20160713233510707/13/16 23:35:31  5-MIN K79J 140435Z AUTO 00000KT 8SM CLR 24/22 A3013 110 87 1300 000/00 RMK AO2 T02440222
53843K79J 79J20160713234010707/13/16 23:40:31  5-MIN K79J 140440Z AUTO 00000KT 9SM CLR 25/22 A3013 120 84 1300 000/00 RMK AO2 T02500222
53843K79J 79J20160713234510807/13/16 23:45:31  5-MIN K79J 140445Z AUTO 00000KT 10SM CLR 25/22 A3013 120 84 1300 000/00 RMK AO2 T02500222
53843K79J 79J20160713235012507/13/16 23:50:31  5-MIN K79J 140450Z AUTO 00000KT 10SM CLR 25/22 A3013 120 84 1300 000/00 RMK AO2 SLP196 T02500222 403560233
53843K79J 79J20160713235512507/13/16 23:55:31  5-MIN K79J 140455Z AUTO 00000KT 10SM CLR 25/22 A3013 120 84 1400 000/00 RMK AO2 SLP196 T02500222 403560233
53843K79J 79J20160714000010807/14/16 00:00:31  5-MIN K79J 140500Z AUTO 00000KT 10SM CLR 25/22 A3013 120 84 1400 000/00 RMK AO2 T02500222
53843K79J 79J20160714000510807/14/16 00:05:31  5-MIN K79J 140505Z AUTO 00000KT 10SM CLR 25/22 A3012 120 84 1400 000/00 RMK AO2 T02500222
53843K79J 79J20160714001010807/14/16 00:10:31  5-MIN K79J 140510Z AUTO 00000KT 10SM CLR 25/22 A3012 130 84 1400 000/00 RMK AO2 T02500222
53843K79J 79J20160714001510807/14/16 00:15:31  5-MIN K79J 140515Z AUTO 00000KT 10SM CLR 25/22 A3012 130 84 1400 000/00 RMK AO2 T02500222
53843K79J 79J20160714002010807/14/16 00:20:31  5-MIN K79J 140520Z AUTO 00000KT 10SM CLR 25/22 A3012 130 84 1400 000/00 RMK AO2 T02500222
53843K79J 79J20160714002510807/14/16 00:25:31  5-MIN K79J 140525Z AUTO 00000KT 10SM CLR 24/22 A3012 130 87 1300 000/00 RMK AO2 T02440222
53843K79J 79J20160714003010807/14/16 00:30:31  5-MIN K79J 140530Z AUTO 31003KT 10SM CLR 24/22 A3012 130 87 1300 310/03 RMK AO2 T02440222
53843K79J 79J20160714003510807/14/16 00:35:31  5-MIN K79J 140535Z AUTO 00000KT 10SM CLR 24/22 A3012 130 87 1300 000/00 RMK AO2 T02440222
53843K79J 79J20160714004010707/14/16 00:40:31  5-MIN K79J 140540Z AUTO 00000KT 9SM CLR 25/22 A3012 130 84 1400 000/00 RMK AO2 T02500222
53843K79J 79J20160714004510707/14/16 00:45:31  5-MIN K79J 140545Z AUTO 00000KT 7SM CLR 24/22 A3011 130 87 1300 000/00 RMK AO2 T02440222
53843K79J 79J20160714005013207/14/16 00:50:31  5-MIN K79J 140550Z AUTO 00000KT 8SM CLR 24/22 A3011 140 87 1300 000/00 RMK AO2 SLP191 T02440222 10267 20244 53019
53843K79J 79J20160714005513207/14/16 00:55:31  5-MIN K79J 140555Z AUTO 00000KT 7SM CLR 24/22 A3011 140 87 1300 000/00 RMK AO2 SLP190 T02440222 10267 20244 53019
53843K79J 79J20160714010011007/14/16 01:00:31  5-MIN K79J 140600Z AUTO 00000KT 6SM BR CLR 24/22 A3011 140 87 1300 000/00 RMK AO2 T02440222
53843K79J 79J20160714010510707/14/16 01:05:31  5-MIN K79J 140605Z AUTO 00000KT 7SM CLR 24/22 A3010 140 87 1300 000/00 RMK AO2 T02440222
53843K79J 79J20160714011010707/14/16 01:10:31  5-MIN K79J 140610Z AUTO 00000KT 7SM CLR 24/22 A3010 140 84 1300 000/00 RMK AO2 T02440217
53843K79J 79J20160714011510707/14/16 01:15:31  5-MIN K79J 140615Z AUTO 00000KT 7SM CLR 24/22 A3010 150 84 1300 000/00 RMK AO2 T02440217
53843K79J 79J20160714012010707/14/16 01:20:31  5-MIN K79J 140620Z AUTO 00000KT 7SM CLR 24/22 A3010 150 84 1300 000/00 RMK AO2 T02440217
53843K79J 79J20160714012511007/14/16 01:25:31  5-MIN K79J 140625Z AUTO 00000KT 6SM BR CLR 24/22 A3009 150 87 1300 000/00 RMK AO2 T02390217
53843K79J 79J20160714013011007/14/16 01:30:31  5-MIN K79J 140630Z AUTO 17003KT 6SM BR CLR 24/22 A3009 150 87 1300 170/03 RMK AO2 T02390217
53843K79J 79J20160714013511007/14/16 01:35:31  5-MIN K79J 140635Z AUTO 15003KT 6SM BR CLR 24/22 A3009 150 87 1300 150/03 RMK AO2 T02390217
53843K79J 79J20160714014010707/14/16 01:40:31  5-MIN K79J 140640Z AUTO 00000KT 7SM CLR 24/22 A3009 150 87 1300 000/00 RMK AO2 T02440222
53843K79J 79J20160714014510707/14/16 01:45:31  5-MIN K79J 140645Z AUTO 00000KT 9SM CLR 24/22 A3009 160 87 1300 000/00 RMK AO2 T02440222
53843K79J 79J20160714015011407/14/16 01:50:31  5-MIN K79J 140650Z AUTO 00000KT 9SM CLR 24/22 A3009 160 84 1300 000/00 RMK AO2 SLP183 T02440217
53843K79J 79J20160714015511507/14/16 01:55:31  5-MIN K79J 140655Z AUTO 00000KT 10SM CLR 24/22 A3009 160 84 1300 000/00 RMK AO2 SLP183 T02440217
53843K79J 79J20160714020010807/14/16 02:00:31  5-MIN K79J 140700Z AUTO 00000KT 10SM CLR 24/22 A3009 160 84 1300 000/00 RMK AO2 T02440217
53843K79J 79J20160714020510807/14/16 02:05:31  5-MIN K79J 140705Z AUTO 00000KT 10SM CLR 24/22 A3009 160 84 1300 000/00 RMK AO2 T02440217
53843K79J 79J20160714021010807/14/16 02:10:31  5-MIN K79J 140710Z AUTO 00000KT 10SM CLR 24/22 A3009 160 84 1300 000/00 RMK AO2 T02440217
53843K79J 79J20160714021510807/14/16 02:15:31  5-MIN K79J 140715Z AUTO 00000KT 10SM CLR 24/22 A3009 160 84 1300 000/00 RMK AO2 T02440217
53843K79J 79J20160714022010807/14/16 02:20:31  5-MIN K79J 140720Z AUTO 00000KT 10SM CLR 24/22 A3008 160 84 1300 000/00 RMK AO2 T02440217
53843K79J 79J20160714022510707/14/16 02:25:31  5-MIN K79J 140725Z AUTO 00000KT 9SM CLR 24/22 A3008 170 84 1300 000/00 RMK AO2 T02440217
53843K79J 79J20160714023011007/14/16 02:30:31  5-MIN K79J 140730Z AUTO 00000KT 6SM BR CLR 24/22 A3008 170 87 1300 000/00 RMK AO2 T02390217
53843K79J 79J20160714023511007/14/16 02:35:31  5-MIN K79J 140735Z AUTO 00000KT 5SM BR CLR 24/22 A3008 170 87 1300 000/00 RMK AO2 T02390217
53843K79J 79J20160714024011007/14/16 02:40:31  5-MIN K79J 140740Z AUTO 00000KT 6SM BR CLR 24/22 A3008 170 87 1300 000/00 RMK AO2 T02390217
53843K79J 79J20160714024511007/14/16 02:45:31  5-MIN K79J 140745Z AUTO 00000KT 6SM BR CLR 24/22 A3008 170 87 1300 000/00 RMK AO2 T02390217
53843K79J 79J20160714025011707/14/16 02:50:31  5-MIN K79J 140750Z AUTO 00000KT 6SM BR CLR 24/22 A3008 170 87 1300 000/00 RMK AO2 SLP180 T02390217
53843K79J 79J20160714025511407/14/16 02:55:31  5-MIN K79J 140755Z AUTO 00000KT 7SM CLR 24/22 A3008 170 87 1300 000/00 RMK AO2 SLP180 T02390217
53843K79J 79J20160714030010707/14/16 03:00:31  5-MIN K79J 140800Z AUTO 00000KT 9SM CLR 24/22 A3008 170 84 1300 000/00 RMK AO2 T02440217
53843K79J 79J20160714030510807/14/16 03:05:31  5-MIN K79J 140805Z AUTO 00000KT 10SM CLR 24/22 A3008 170 87 1300 000/00 RMK AO2 T02390217
53843K79J 79J20160714031010807/14/16 03:10:31  5-MIN K79J 140810Z AUTO 00000KT 10SM CLR 24/22 A3008 170 87 1300 000/00 RMK AO2 T02390217
53843K79J 79J20160714031510807/14/16 03:15:31  5-MIN K79J 140815Z AUTO 00000KT 10SM CLR 24/22 A3007 170 84 1300 000/00 RMK AO2 T02440217
53843K79J 79J20160714032010807/14/16 03:20:31  5-MIN K79J 140820Z AUTO 00000KT 10SM CLR 24/22 A3007 170 87 1300 000/00 RMK AO2 T02390217
53843K79J 79J20160714032510707/14/16 03:25:31  5-MIN K79J 140825Z AUTO 00000KT 9SM CLR 24/22 A3007 170 87 1300 000/00 RMK AO2 T02390217
53843K79J 79J20160714033010707/14/16 03:30:31  5-MIN K79J 140830Z AUTO 00000KT 8SM CLR 24/22 A3007 170 87 1300 000/00 RMK AO2 T02390217
53843K79J 79J20160714033510707/14/16 03:35:31  5-MIN K79J 140835Z AUTO 00000KT 9SM CLR 24/22 A3007 170 87 1300 000/00 RMK AO2 T02390217
53843K79J 79J20160714034010807/14/16 03:40:31  5-MIN K79J 140840Z AUTO 00000KT 10SM CLR 24/22 A3007 170 84 1300 000/00 RMK AO2 T02440217
53843K79J 79J20160714034510807/14/16 03:45:31  5-MIN K79J 140845Z AUTO 00000KT 10SM CLR 24/21 A3007 170 84 1300 000/00 RMK AO2 T02390211
53843K79J 79J20160714035012107/14/16 03:50:31  5-MIN K79J 140850Z AUTO 00000KT 10SM CLR 24/21 A3007 170 84 1300 000/00 RMK AO2 SLP179 T02390211 58012
53843K79J 79J20160714035512107/14/16 03:55:31  5-MIN K79J 140855Z AUTO 00000KT 10SM CLR 24/21 A3007 170 84 1300 000/00 RMK AO2 SLP178 T02390211 58012
53843K79J 79J20160714040010807/14/16 04:00:31  5-MIN K79J 140900Z AUTO 00000KT 10SM CLR 24/22 A3007 170 87 1300 000/00 RMK AO2 T02390217
53843K79J 79J20160714040510807/14/16 04:05:31  5-MIN K79J 140905Z AUTO 00000KT 10SM CLR 24/22 A3007 170 87 1300 000/00 RMK AO2 T02390217
53843K79J 79J20160714041010807/14/16 04:10:31  5-MIN K79J 140910Z AUTO 00000KT 10SM CLR 24/21 A3007 180 84 1300 000/00 RMK AO2 T02390211
53843K79J 79J20160714041510807/14/16 04:15:31  5-MIN K79J 140915Z AUTO 00000KT 10SM CLR 24/21 A3007 170 84 1300 000/00 RMK AO2 T02390211
53843K79J 79J20160714042010807/14/16 04:20:31  5-MIN K79J 140920Z AUTO 00000KT 10SM CLR 24/21 A3007 170 84 1300 000/00 RMK AO2 T02390211
53843K79J 79J20160714042510807/14/16 04:25:31  5-MIN K79J 140925Z AUTO 00000KT 10SM CLR 24/21 A3007 170 84 1300 000/00 RMK AO2 T02390211
53843K79J 79J20160714043010807/14/16 04:30:31  5-MIN K79J 140930Z AUTO 00000KT 10SM CLR 24/22 A3007 170 87 1300 000/00 RMK AO2 T02390217
53843K79J 79J20160714043510807/14/16 04:35:31  5-MIN K79J 140935Z AUTO 00000KT 10SM CLR 24/22 A3007 170 87 1300 000/00 RMK AO2 T02390217
53843K79J 79J20160714044010707/14/16 04:40:31  5-MIN K79J 140940Z AUTO 00000KT 9SM CLR 24/21 A3007 170 84 1300 000/00 RMK AO2 T02390211
53843K79J 79J20160714044510707/14/16 04:45:31  5-MIN K79J 140945Z AUTO 00000KT 7SM CLR 24/21 A3007 170 84 1300 000/00 RMK AO2 T02390211
53843K79J 79J20160714045011407/14/16 04:50:31  5-MIN K79J 140950Z AUTO 00000KT 7SM CLR 24/21 A3008 170 84 1300 000/00 RMK AO2 SLP181 T02390211
53843K79J 79J20160714045511407/14/16 04:55:31  5-MIN K79J 140955Z AUTO 00000KT 7SM CLR 24/21 A3008 160 84 1300 000/00 RMK AO2 SLP182 T02390211
53843K79J 79J20160714050011007/14/16 05:00:31  5-MIN K79J 141000Z AUTO 00000KT 6SM HZ CLR 24/21 A3008 170 84 1300 000/00 RMK AO2 T02390211
53843K79J 79J20160714050511007/14/16 05:05:31  5-MIN K79J 141005Z AUTO 00000KT 6SM HZ CLR 24/21 A3008 170 84 1300 000/00 RMK AO2 T02390211
53843K79J 79J20160714051010707/14/16 05:10:31  5-MIN K79J 141010Z AUTO 00000KT 7SM CLR 24/21 A3008 160 84 1300 000/00 RMK AO2 T02390211
53843K79J 79J20160714051510707/14/16 05:15:31  5-MIN K79J 141015Z AUTO 00000KT 9SM CLR 24/21 A3008 160 84 1300 000/00 RMK AO2 T02390211
53843K79J 79J20160714052010807/14/16 05:20:31  5-MIN K79J 141020Z AUTO 00000KT 10SM CLR 24/21 A3008 160 84 1300 000/00 RMK AO2 T02390211
53843K79J 79J20160714052510807/14/16 05:25:31  5-MIN K79J 141025Z AUTO 32003KT 10SM CLR 24/21 A3009 160 84 1300 320/03 RMK AO2 T02390211
53843K79J 79J20160714053010807/14/16 05:30:31  5-MIN K79J 141030Z AUTO 32003KT 10SM CLR 24/21 A3009 150 84 1300 320/03 RMK AO2 T02390211
53843K79J 79J20160714053510807/14/16 05:35:31  5-MIN K79J 141035Z AUTO 00000KT 10SM CLR 24/21 A3009 150 84 1300 000/00 RMK AO2 T02390211
53843K79J 79J20160714054010807/14/16 05:40:31  5-MIN K79J 141040Z AUTO 00000KT 10SM CLR 24/21 A3009 150 84 1300 000/00 RMK AO2 T02390211
53843K79J 79J20160714054510807/14/16 05:45:31  5-MIN K79J 141045Z AUTO 00000KT 10SM CLR 24/21 A3010 150 84 1300 000/00 RMK AO2 T02390211
53843K79J 79J20160718075011407/18/16 07:50:31  5-MIN K79J 181250Z AUTO 09004KT 10SM CLR 27/23 A3024 20 76 1500 090/04 RMK AO2 SLP235 T02720228
53843K79J 79J20160718075511407/18/16 07:55:31  5-MIN K79J 181255Z AUTO 07004KT 10SM CLR 27/23 A3024 20 76 1500 080/04 RMK AO2 SLP235 T02720228
53843K79J 79J20160718080010707/18/16 08:00:31  5-MIN K79J 181300Z AUTO 07004KT 10SM CLR 28/23 A3024 20 74 1500 070/04 RMK AO2 T02780228
53843K79J 79J20160718080510707/18/16 08:05:31  5-MIN K79J 181305Z AUTO 09003KT 10SM CLR 28/23 A3025 10 74 1600 100/03 RMK AO2 T02830233
53843K79J 79J20160718081010707/18/16 08:10:31  5-MIN K79J 181310Z AUTO 09003KT 10SM CLR 28/23 A3025 10 74 1600 090/03 RMK AO2 T02830233
53843K79J 79J20160718081510707/18/16 08:15:31  5-MIN K79J 181315Z AUTO 08003KT 10SM CLR 28/23 A3025 10 74 1600 090/03 RMK AO2 T02830233
53843K79J 79J20160718082010707/18/16 08:20:31  5-MIN K79J 181320Z AUTO VRB03KT 10SM CLR 29/23 A3025 10 71 1600 VRB/03 RMK AO2 T02890233
53843K79J 79J20160718082510707/18/16 08:25:31  5-MIN K79J 181325Z AUTO 00000KT 10SM CLR 29/23 A3025 10 71 1600 000/00 RMK AO2 T02890233
53843K79J 79J20160718083011007/18/16 08:30:31  5-MIN K79J 181330Z AUTO 10003KT 10SM FEW021 29/23 A3025 10 71 1600 100/03 RMK AO2 T02890233
53843K79J 79J20160718083511007/18/16 08:35:31  5-MIN K79J 181335Z AUTO 09004KT 10SM SCT021 29/24 A3025 10 71 1700 090/04 RMK AO2 T02940239
53843K79J 79J20160718084010907/18/16 08:40:31  5-MIN K79J 181340Z AUTO 09004KT 10SM FEW021 30/23 A3026 0 67 1800 090/04 RMK AO2 T03000233
53843K79J 79J20160718084510907/18/16 08:45:31  5-MIN K79J 181345Z AUTO 08003KT 10SM FEW021 30/23 A3026 0 67 1800 090/03 RMK AO2 T03000233
53843K79J 79J20160718085011607/18/16 08:50:31  5-MIN K79J 181350Z AUTO 11004KT 10SM FEW021 30/23 A3026 0 67 1800 110/04 RMK AO2 SLP241 T03000233
53843K79J 79J20160718085511607/18/16 08:55:31  5-MIN K79J 181355Z AUTO 11004KT 10SM FEW021 30/23 A3026 0 67 1800 110/04 RMK AO2 SLP241 T03000233
53843K79J 79J20160718090010607/18/16 09:00:31  5-MIN K79J 181400Z AUTO 09005KT 10SM CLR 31/24 A3026 0 67 1800 090/05 RMK AO2 T03060239
53843K79J 79J20160718090510607/18/16 09:05:31  5-MIN K79J 181405Z AUTO VRB04KT 10SM CLR 31/23 A3026 0 65 1800 VRB/04 RMK AO2 T03060233
53843K79J 79J20160718091010607/18/16 09:10:31  5-MIN K79J 181410Z AUTO 11005KT 10SM CLR 31/23 A3026 0 65 1800 110/05 RMK AO2 T03060233
53843K79J 79J20160718091510607/18/16 09:15:31  5-MIN K79J 181415Z AUTO 11005KT 10SM CLR 31/23 A3026 0 63 1900 110/05 RMK AO2 T03110233
53843K79J 79J20160718092010607/18/16 09:20:31  5-MIN K79J 181420Z AUTO 09006KT 10SM CLR 31/24 A3026 0 65 1900 090/06 RMK AO2 T03110239
53843K79J 79J20160718092510607/18/16 09:25:31  5-MIN K79J 181425Z AUTO 08004KT 10SM CLR 31/23 A3026 0 63 1900 080/04 RMK AO2 T03110233
53843K79J 79J20160718093010907/18/16 09:30:31  5-MIN K79J 181430Z AUTO 13004KT 10SM FEW018 32/24 A3026 0 63 1900 130/04 RMK AO2 T03170239
53843K79J 79J20160718093510907/18/16 09:35:31  5-MIN K79J 181435Z AUTO 09006KT 10SM FEW018 32/24 A3026 0 63 1900 090/06 RMK AO2 T03170239
53843K79J 79J20160718094010907/18/16 09:40:31  5-MIN K79J 181440Z AUTO 09005KT 10SM FEW020 31/24 A3026 0 65 1900 090/05 RMK AO2 T03110239
53843K79J 79J20160718094510907/18/16 09:45:31  5-MIN K79J 181445Z AUTO 08005KT 10SM SCT020 32/24 A3026 0 63 1900 090/05 RMK AO2 T03170239
53843K79J 79J20160718095012907/18/16 09:50:31  5-MIN K79J 181450Z AUTO 00000KT 10SM SCT020 SCT026 31/24 A3026 0 65 1900 000/00 RMK AO2 SLP242 T03110239 51016
53843K79J 79J20160718095512207/18/16 09:55:31  5-MIN K79J 181455Z AUTO 00000KT 10SM FEW020 31/24 A3026 0 65 1900 000/00 RMK AO2 SLP243 T03110239 51016
53843K79J 79J20160718100010907/18/16 10:00:31  5-MIN K79J 181500Z AUTO VRB03KT 10SM FEW020 32/24 A3026 0 63 1900 VRB/03 RMK AO2 T03170239
53843K79J 79J20160718100510907/18/16 10:05:31  5-MIN K79J 181505Z AUTO 07006KT 10SM SCT020 32/24 A3026 0 63 1900 080/06 RMK AO2 T03170239
53843K79J 79J20160718101011607/18/16 10:10:31  5-MIN K79J 181510Z AUTO 10004KT 10SM SCT020 BKN033 32/23 A3027 0 61 1900 100/04 RMK AO2 T03170233
53843K79J 79J20160718101511607/18/16 10:15:31  5-MIN K79J 181515Z AUTO 08006KT 10SM SCT022 BKN033 32/24 A3027 0 61 2000 090/06 RMK AO2 T03220239
53843K79J 79J20160718102011607/18/16 10:20:31  5-MIN K79J 181520Z AUTO VRB04KT 10SM SCT022 BKN033 33/24 A3027 0 59 2100 VRB/04 RMK AO2 T03280239
53843K79J 79J20160718102511807/18/16 10:25:31  5-MIN K79J 181525Z AUTO VRB04KT 10SM SCT022 BKN029 33/23 A3027 -10 57 2100 VRB/04 RMK AO2 T03280233
53843K79J 79J20160718103012507/18/16 10:30:31  5-MIN K79J 181530Z AUTO 08007KT 10SM SCT022 BKN027 BKN034 33/23 A3027 -10 57 2100 080/07 RMK AO2 T03280233
53843K79J 79J20160718103512507/18/16 10:35:31  5-MIN K79J 181535Z AUTO 07005KT 10SM BKN024 BKN034 BKN049 33/23 A3027 -10 55 2100 070/05 RMK AO2 T03280228
53843K79J 79J20160718104011807/18/16 10:40:31  5-MIN K79J 181540Z AUTO 09004KT 10SM SCT024 BKN034 32/23 A3027 -10 59 2000 090/04 RMK AO2 T03220233
53843K79J 79J20160718104511807/18/16 10:45:31  5-MIN K79J 181545Z AUTO 12005KT 10SM FEW024 BKN034 33/23 A3027 -10 57 2100 120/05 RMK AO2 T03280233
53843K79J 79J20160718105012507/18/16 10:50:31  5-MIN K79J 181550Z AUTO VRB03KT 10SM FEW024 SCT034 33/23 A3027 -10 57 2100 VRB/03 RMK AO2 SLP247 T03280233
53843K79J 79J20160718105513207/18/16 10:55:31  5-MIN K79J 181555Z AUTO 12004KT 10SM FEW025 SCT032 BKN038 33/23 A3027 -10 57 2100 120/04 RMK AO2 SLP246 T03280233
53843K79J 79J20160718110012507/18/16 11:00:31  5-MIN K79J 181600Z AUTO 00000KT 10SM FEW026 SCT030 SCT038 33/23 A3027 -10 55 2100 000/00 RMK AO2 T03330233
53843K79J 79J20160718110511107/18/16 11:05:31  5-MIN K79J 181605Z AUTO 15005KT 10SM FEW034 33/23 A3028 -10 55 2100 150/05 RMK AO2 T03330233
53843K79J 79J20160718111011107/18/16 11:10:31  5-MIN K79J 181610Z AUTO 15003KT 10SM SCT033 33/23 A3027 -10 53 2100 150/03 RMK AO2 T03330228
53843K79J 79J20160718111511107/18/16 11:15:31  5-MIN K79J 181615Z AUTO VRB03KT 10SM BKN033 33/23 A3027 -10 53 2100 VRB/03 RMK AO2 T03330228
53843K79J 79J20160718112012307/18/16 11:20:31  5-MIN K79J 181620Z AUTO 08005KT 10SM BKN033 BKN039 BKN048 34/23 A3027 0 51 2200 080/05 RMK AO2 T03390228
53843K79J 79J20160718112511607/18/16 11:25:31  5-MIN K79J 181625Z AUTO 11006KT 10SM BKN033 BKN055 34/22 A3027 0 50 2200 120/06 RMK AO2 T03390222
53843K79J 79J20160718113011607/18/16 11:30:31  5-MIN K79J 181630Z AUTO VRB04KT 10SM SCT033 BKN055 34/22 A3026 0 50 2200 VRB/04 RMK AO2 T03390222
53843K79J 79J20160718113510907/18/16 11:35:31  5-MIN K79J 181635Z AUTO VRB04KT 10SM SCT032 34/22 A3026 0 50 2200 VRB/04 RMK AO2 T03390222
53843K79J 79J20160718114010907/18/16 11:40:31  5-MIN K79J 181640Z AUTO 10005KT 10SM SCT032 34/22 A3026 0 50 2200 100/05 RMK AO2 T03390222
53843K79J 79J20160718114510907/18/16 11:45:31  5-MIN K79J 181645Z AUTO 00000KT 10SM FEW032 34/22 A3026 0 48 2200 000/00 RMK AO2 T03390217
53843K79J 79J20160718115011607/18/16 11:50:31  5-MIN K79J 181650Z AUTO 11004KT 10SM FEW033 34/22 A3026 0 48 2300 110/04 RMK AO2 SLP241 T03440222
53843K79J 79J20160718115511307/18/16 11:55:31  5-MIN K79J 181655Z AUTO VRB03KT 10SM CLR 34/22 A3026 0 48 2300 VRB/03 RMK AO2 SLP242 T03440222
53843K79J 79J20160718120010607/18/16 12:00:31  5-MIN K79J 181700Z AUTO 09006KT 10SM CLR 34/22 A3026 0 48 2300 090/06 RMK AO2 T03440222
53843K79J 79J20160718120510607/18/16 12:05:31  5-MIN K79J 181705Z AUTO 00000KT 10SM CLR 34/22 A3026 0 46 2300 000/00 RMK AO2 T03440217
53843K79J 79J20160718121010607/18/16 12:10:31  5-MIN K79J 181710Z AUTO 16003KT 10SM CLR 34/22 A3025 0 46 2300 160/03 RMK AO2 T03440217
53843K79J 79J20160718121510707/18/16 12:15:31  5-MIN K79J 181715Z AUTO VRB04KT 10SM CLR 34/22 A3025 10 48 2300 VRB/04 RMK AO2 T03440222
53843K79J 79J20160718122010707/18/16 12:20:31  5-MIN K79J 181720Z AUTO VRB05KT 10SM CLR 35/22 A3025 10 45 2300 VRB/05 RMK AO2 T03500217
53843K79J 79J20160718122510707/18/16 12:25:31  5-MIN K79J 181725Z AUTO 07005KT 10SM CLR 35/22 A3025 10 45 2300 070/05 RMK AO2 T03500217
53843K79J 79J20160718123010707/18/16 12:30:31  5-MIN K79J 181730Z AUTO VRB03KT 10SM CLR 35/21 A3025 10 43 2300 VRB/03 RMK AO2 T03500211
53843K79J 79J20160718123511007/18/16 12:35:31  5-MIN K79J 181735Z AUTO 00000KT 10SM FEW042 35/22 A3024 10 45 2300 000/00 RMK AO2 T03500217
53843K79J 79J20160718124011007/18/16 12:40:31  5-MIN K79J 181740Z AUTO VRB03KT 10SM FEW042 36/22 A3024 20 44 2400 VRB/03 RMK AO2 T03560217
53843K79J 79J20160718124511007/18/16 12:45:31  5-MIN K79J 181745Z AUTO 00000KT 10SM FEW044 35/22 A3024 20 47 2300 000/00 RMK AO2 T03500222
53843K79J 79J20160718125013507/18/16 12:50:31  5-MIN K79J 181750Z AUTO 12004KT 10SM FEW042 34/22 A3023 20 50 2200 120/04 RMK AO2 SLP233 T03390222 10356 20256 51017
53843K79J 79J20160718125513507/18/16 12:55:31  5-MIN K79J 181755Z AUTO 00000KT 10SM FEW042 35/22 A3023 30 45 2300 000/00 RMK AO2 SLP230 T03500217 10356 20256 51017
53843K79J 79J20160718130011007/18/16 13:00:31  5-MIN K79J 181800Z AUTO 08004KT 10SM FEW043 36/22 A3023 30 44 2400 090/04 RMK AO2 T03560217
53843K79J 79J20160718130510707/18/16 13:05:31  5-MIN K79J 181805Z AUTO 09003KT 10SM CLR 36/22 A3022 30 44 2400 090/03 RMK AO2 T03560217
53843K79J 79J20160718131010707/18/16 13:10:31  5-MIN K79J 181810Z AUTO VRB03KT 10SM CLR 36/22 A3022 40 44 2400 VRB/03 RMK AO2 T03560217
53843K79J 79J20160718131511007/18/16 13:15:31  5-MIN K79J 181815Z AUTO 06004KT 10SM FEW045 36/22 A3022 40 42 2500 070/04 RMK AO2 T03610217
53843K79J 79J20160718132011007/18/16 13:20:31  5-MIN K79J 181820Z AUTO 00000KT 10SM FEW045 36/21 A3022 40 41 2400 000/00 RMK AO2 T03560206
53843K79J 79J20160718132510707/18/16 13:25:31  5-MIN K79J 181825Z AUTO VRB03KT 10SM CLR 36/21 A3021 40 42 2400 VRB/03 RMK AO2 T03560211
53843K79J 79J20160718133010707/18/16 13:30:31  5-MIN K79J 181830Z AUTO 10003KT 10SM CLR 36/21 A3021 50 39 2500 110/03 RMK AO2 T03610206
53843K79J 79J20160718133510707/18/16 13:35:31  5-MIN K79J 181835Z AUTO 00000KT 10SM CLR 36/21 A3021 50 39 2500 000/00 RMK AO2 T03610206
53843K79J 79J20160718134010707/18/16 13:40:31  5-MIN K79J 181840Z AUTO 33004KT 10SM CLR 36/21 A3020 50 41 2500 340/04 RMK AO2 T03610211
53843K79J 79J20160718134511007/18/16 13:45:31  5-MIN K79J 181845Z AUTO 08005KT 10SM FEW055 36/21 A3020 50 41 2500 080/05 RMK AO2 T03610211
53843K79J 79J20160718135012407/18/16 13:50:31  5-MIN K79J 181850Z AUTO VRB04KT 10SM FEW050 FEW060 37/21 A3020 60 40 2600 VRB/04 RMK AO2 SLP220 T03670211
53843K79J 79J20160718135512407/18/16 13:55:31  5-MIN K79J 181855Z AUTO 00000KT 10SM FEW050 FEW065 36/21 A3020 60 41 2500 000/00 RMK AO2 SLP220 T03610211
53843K79J 79J20160718140011007/18/16 14:00:31  5-MIN K79J 181900Z AUTO VRB04KT 10SM FEW055 36/21 A3020 60 42 2400 VRB/04 RMK AO2 T03560211
53843K79J 79J20160718140511707/18/16 14:05:31  5-MIN K79J 181905Z AUTO 00000KT 10SM FEW049 SCT060 36/21 A3020 60 42 2400 000/00 RMK AO2 T03560211
53843K79J 79J20160718141011007/18/16 14:10:31  5-MIN K79J 181910Z AUTO VRB03KT 10SM FEW049 36/22 A3020 60 42 2500 VRB/03 RMK AO2 T03610217
53843K79J 79J20160718141511707/18/16 14:15:31  5-MIN K79J 181915Z AUTO VRB03KT 10SM FEW050 FEW060 37/22 A3019 60 41 2600 VRB/03 RMK AO2 T03670217
53843K79J 79J20160718142011007/18/16 14:20:31  5-MIN K79J 181920Z AUTO 07004KT 10SM FEW050 37/21 A3019 60 40 2600 070/04 RMK AO2 T03670211
53843K79J 79J20160718142511007/18/16 14:25:31  5-MIN K79J 181925Z AUTO VRB03KT 10SM FEW050 36/22 A3019 60 42 2500 VRB/03 RMK AO2 T03610217
53843K79J 79J20160718143011007/18/16 14:30:31  5-MIN K79J 181930Z AUTO 00000KT 10SM SCT048 36/22 A3019 70 44 2500 000/00 RMK AO2 T03610222
53843K79J 79J20160718143511007/18/16 14:35:31  5-MIN K79J 181935Z AUTO 01004KT 10SM SCT048 36/22 A3019 70 45 2500 010/04 RMK AO2 T03560222
53843K79J 79J20160718144011007/18/16 14:40:31  5-MIN K79J 181940Z AUTO 02004KT 10SM SCT048 36/22 A3018 70 42 2500 020/04 RMK AO2 T03610217
53843K79J 79J20160718144511007/18/16 14:45:31  5-MIN K79J 181945Z AUTO 36003KT 10SM FEW048 37/22 A3018 70 41 2600 360/03 RMK AO2 T03670217
53843K79J 79J20160718145011707/18/16 14:50:31  5-MIN K79J 181950Z AUTO 10005KT 10SM FEW048 37/22 A3018 70 41 2600 100/05 RMK AO2 SLP213 T03670217
53843K79J 79J20160718145511707/18/16 14:55:31  5-MIN K79J 181955Z AUTO 08005KT 10SM FEW048 37/22 A3018 80 42 2600 080/05 RMK AO2 SLP213 T03670222
53843K79J 79J20160718150010707/18/16 15:00:31  5-MIN K79J 182000Z AUTO 09005KT 10SM CLR 36/21 A3017 80 41 2500 100/05 RMK AO2 T03610211
53843K79J 79J20160718150510707/18/16 15:05:31  5-MIN K79J 182005Z AUTO 07004KT 10SM CLR 36/21 A3017 80 41 2500 070/04 RMK AO2 T03610211
53843K79J 79J20160718151010707/18/16 15:10:31  5-MIN K79J 182010Z AUTO 00000KT 10SM CLR 37/21 A3017 80 38 2600 000/00 RMK AO2 T03670206
53843K79J 79J20160718151510707/18/16 15:15:31  5-MIN K79J 182015Z AUTO VRB04KT 10SM CLR 37/21 A3017 80 38 2600 VRB/04 RMK AO2 T03670206
53843K79J 79J20160718152010707/18/16 15:20:31  5-MIN K79J 182020Z AUTO 09003KT 10SM CLR 37/21 A3017 90 38 2600 090/03 RMK AO2 T03670206
53843K79J 79J20160718152510707/18/16 15:25:31  5-MIN K79J 182025Z AUTO 01005KT 10SM CLR 37/21 A3016 90 38 2700 010/05 RMK AO2 T03720211
53843K79J 79J20160718153010707/18/16 15:30:31  5-MIN K79J 182030Z AUTO 00000KT 10SM CLR 37/21 A3016 90 38 2700 000/00 RMK AO2 T03720211
53843K79J 79J20160718153511007/18/16 15:35:31  5-MIN K79J 182035Z AUTO 03004KT 10SM FEW050 38/22 A3016 90 38 2700 040/04 RMK AO2 T03780217
53843K79J 79J20160718154011007/18/16 15:40:31  5-MIN K79J 182040Z AUTO 02004KT 10SM FEW050 37/21 A3016 90 40 2600 030/04 RMK AO2 T03670211
53843K79J 79J20160718154511007/18/16 15:45:31  5-MIN K79J 182045Z AUTO VRB03KT 10SM FEW050 36/21 A3016 90 39 2500 VRB/03 RMK AO2 T03610206
53843K79J 79J20160718155012307/18/16 15:50:31  5-MIN K79J 182050Z AUTO 12003KT 10SM FEW050 36/21 A3016 90 42 2500 120/03 RMK AO2 SLP208 T03560211 58011
53843K79J 79J20160718155512307/18/16 15:55:31  5-MIN K79J 182055Z AUTO 00000KT 10SM FEW050 36/21 A3016 90 41 2500 000/00 RMK AO2 SLP207 T03610211 58011
53843K79J 79J20160718160011007/18/16 16:00:31  5-MIN K79J 182100Z AUTO VRB05KT 10SM FEW050 37/22 A3016 90 41 2600 VRB/05 RMK AO2 T03670217
53843K79J 79J20160718160511007/18/16 16:05:31  5-MIN K79J 182105Z AUTO 10005KT 10SM SCT055 37/21 A3016 90 38 2700 100/05 RMK AO2 T03720211
53843K79J 79J20160718161011107/18/16 16:10:31  5-MIN K79J 182110Z AUTO VRB05KT 10SM FEW055 37/21 A3016 100 38 2600 VRB/05 RMK AO2 T03670206
53843K79J 79J20160718161511107/18/16 16:15:31  5-MIN K79J 182115Z AUTO 12005KT 10SM FEW055 36/21 A3015 100 39 2600 130/05 RMK AO2 T03610206
53843K79J 79J20160718162011107/18/16 16:20:31  5-MIN K79J 182120Z AUTO 14004KT 10SM FEW055 36/21 A3015 100 41 2500 150/04 RMK AO2 T03560206
53843K79J 79J20160718162511107/18/16 16:25:31  5-MIN K79J 182125Z AUTO VRB03KT 10SM FEW055 36/21 A3015 100 39 2600 VRB/03 RMK AO2 T03610206
53843K79J 79J20160718163011107/18/16 16:30:31  5-MIN K79J 182130Z AUTO 00000KT 10SM FEW055 37/20 A3015 100 37 2600 000/00 RMK AO2 T03670200
53843K79J 79J20160718163510807/18/16 16:35:31  5-MIN K79J 182135Z AUTO 15004KT 10SM CLR 37/21 A3015 100 37 2700 150/04 RMK AO2 T03720206
53843K79J 79J20160718164010807/18/16 16:40:31  5-MIN K79J 182140Z AUTO 16004KT 10SM CLR 37/20 A3015 100 37 2600 160/04 RMK AO2 T03670200
53843K79J 79J20160718164510707/18/16 16:45:31  5-MIN K79J 182145Z AUTO 00000KT 10SM CLR 36/19 A3016 90 37 2500 000/00 RMK AO2 T03610194
53843K79J 79J20160718165011407/18/16 16:50:31  5-MIN K79J 182150Z AUTO 00000KT 10SM CLR 37/19 A3016 90 36 2600 000/00 RMK AO2 SLP206 T03670194
53843K79J 79J20160718165511407/18/16 16:55:31  5-MIN K79J 182155Z AUTO VRB03KT 10SM CLR 37/21 A3016 90 38 2600 VRB/03 RMK AO2 SLP207 T03670206
53843K79J 79J20160718170010707/18/16 17:00:31  5-MIN K79J 182200Z AUTO VRB04KT 10SM CLR 37/21 A3016 90 40 2600 VRB/04 RMK AO2 T03670211
53843K79J 79J20160718170510707/18/16 17:05:31  5-MIN K79J 182205Z AUTO VRB04KT 10SM CLR 37/21 A3016 90 38 2600 VRB/04 RMK AO2 T03670206
53843K79J 79J20160718171010707/18/16 17:10:31  5-MIN K79J 182210Z AUTO 10005KT 10SM CLR 37/21 A3017 90 38 2600 100/05 RMK AO2 T03670206
53843K79J 79J20160718171510707/18/16 17:15:31  5-MIN K79J 182215Z AUTO 00000KT 10SM CLR 37/21 A3017 80 40 2600 000/00 RMK AO2 T03670211
53843K79J 79J20160718172010707/18/16 17:20:31  5-MIN K79J 182220Z AUTO 10006KT 10SM CLR 36/20 A3017 80 38 2500 100/06 RMK AO2 T03610200
53843K79J 79J20160718172510707/18/16 17:25:31  5-MIN K79J 182225Z AUTO 11004KT 10SM CLR 37/21 A3017 90 38 2600 110/04 RMK AO2 T03670206
53843K79J 79J20160718173010707/18/16 17:30:31  5-MIN K79J 182230Z AUTO 11005KT 10SM CLR 36/21 A3016 90 39 2500 120/05 RMK AO2 T03610206
53843K79J 79J20160718173511007/18/16 17:35:31  5-MIN K79J 182235Z AUTO 14005KT 10SM FEW055 36/21 A3016 90 41 2500 140/05 RMK AO2 T03610211
53843K79J 79J20160718174010007/18/16 17:40:31  5-MIN K79J 182240Z AUTO 10SM SCT055 36/21 A3016 90 41 2500 M /M RMK AO2 T03610211
53843K79J 79J20160718174511007/18/16 17:45:31  5-MIN K79J 182245Z AUTO VRB05KT 10SM BKN055 36/22 A3016 90 42 2500 VRB/05 RMK AO2 T03610217
53843K79J 79J20160718175012307/18/16 17:50:31  5-MIN K79J 182250Z AUTO 13011G18KT 10SM BKN055 34/22 A3018 80 46 2300 140/11G18 RMK AO2 SLP213 T03440217
53843K79J 79J20160718175515307/18/16 17:55:31  5-MIN K79J 182255Z AUTO 15008G18KT 090V180 10SM BKN055 BKN070 BKN090 32/22 A3018 70 55 2100 150/08G18 090V180 RMK AO2 SLP215 T03220222
53843K79J 79J20160718180013707/18/16 18:00:31  5-MIN K79J 182300Z AUTO 14010G18KT 10SM BKN055 BKN070 OVC090 32/22 A3019 70 55 2000 140/10G18 RMK AO2 PRESRR T03170217
53843K79J 79J20160718180513007/18/16 18:05:31  5-MIN K79J 182305Z AUTO 15009G18KT 10SM SCT055 OVC095 31/22 A3019 60 56 2000 150/09G18 RMK AO2 PRESRR T03110217
53843K79J 79J20160718181014607/18/16 18:10:31  5-MIN K79J 182310Z AUTO 14007G17KT 110V180 10SM SCT055 BKN095 OVC110 31/22 A3019 60 58 1900 140/07G17 110V180 RMK AO2 T03060217
53843K79J 79J20160718181513007/18/16 18:15:31  5-MIN K79J 182315Z AUTO 16006G16KT 10SM FEW055 SCT085 OVC110 31/22 A3019 60 58 1900 160/06G16 RMK AO2 T03060217
53843K79J 79J20160718182012407/18/16 18:20:31  5-MIN K79J 182320Z AUTO 16004KT 10SM FEW060 SCT090 OVC110 31/22 A3019 60 58 1900 160/04 RMK AO2 T03060217
53843K79J 79J20160718182512407/18/16 18:25:31  5-MIN K79J 182325Z AUTO 16005KT 10SM SCT055 BKN100 OVC110 31/22 A3019 60 58 2000 160/05 RMK AO2 T03110222
53843K79J 79J20160718183011707/18/16 18:30:31  5-MIN K79J 182330Z AUTO 14006KT 10SM SCT055 BKN110 31/22 A3018 70 58 2000 150/06 RMK AO2 T03110222
53843K79J 79J20160718183511707/18/16 18:35:31  5-MIN K79J 182335Z AUTO 14005KT 10SM SCT060 BKN110 31/22 A3018 70 60 1900 140/05 RMK AO2 T03060222
53843K79J 79J20160718184011707/18/16 18:40:31  5-MIN K79J 182340Z AUTO VRB05KT 10SM BKN060 BKN110 31/22 A3018 70 60 1900 VRB/05 RMK AO2 T03060222
53843K79J 79J20160718184511007/18/16 18:45:31  5-MIN K79J 182345Z AUTO VRB04KT 10SM BKN060 31/22 A3018 80 60 1900 VRB/04 RMK AO2 T03060222
53843K79J 79J20160718185013507/18/16 18:50:31  5-MIN K79J 182350Z AUTO 14004KT 10SM SCT060 31/22 A3018 80 60 1900 140/04 RMK AO2 SLP213 T03060222 10378 20306 56023
53843K79J 79J20160718185513507/18/16 18:55:31  5-MIN K79J 182355Z AUTO VRB05KT 10SM FEW060 31/22 A3018 70 60 1900 VRB/05 RMK AO2 SLP215 T03060222 10378 20306 56023
53843K79J 79J20160718190011007/18/16 19:00:31  5-MIN K79J 190000Z AUTO 00000KT 10SM FEW060 30/22 A3018 70 62 1800 000/00 RMK AO2 T03000222
53843K79J 79J20160718190511007/18/16 19:05:31  5-MIN K79J 190005Z AUTO 00000KT 10SM FEW060 30/22 A3018 80 62 1900 000/00 RMK AO2 T03000222
53843K79J 79J20160718191010707/18/16 19:10:31  5-MIN K79J 190010Z AUTO 17004KT 10SM CLR 29/22 A3018 80 64 1800 170/04 RMK AO2 T02940222
53843K79J 79J20160718191510707/18/16 19:15:31  5-MIN K79J 190015Z AUTO 00000KT 10SM CLR 29/22 A3018 70 64 1800 000/00 RMK AO2 T02940222
53843K79J 79J20160718192010707/18/16 19:20:31  5-MIN K79J 190020Z AUTO 00000KT 10SM CLR 29/23 A3018 70 67 1800 000/00 RMK AO2 T02940228
53843K79J 79J20160718192510707/18/16 19:25:31  5-MIN K79J 190025Z AUTO 00000KT 10SM CLR 29/23 A3018 80 67 1800 000/00 RMK AO2 T02940228
53843K79J 79J20160718193010707/18/16 19:30:31  5-MIN K79J 190030Z AUTO 12004KT 10SM CLR 29/23 A3018 80 69 1700 130/04 RMK AO2 T02890228
53843K79J 79J20160718193510707/18/16 19:35:31  5-MIN K79J 190035Z AUTO 00000KT 10SM CLR 29/23 A3018 80 69 1700 000/00 RMK AO2 T02890228
53843K79J 79J20160718194010707/18/16 19:40:31  5-MIN K79J 190040Z AUTO 00000KT 10SM CLR 29/23 A3018 80 69 1700 000/00 RMK AO2 T02890228
53843K79J 79J20160718194510707/18/16 19:45:31  5-MIN K79J 190045Z AUTO 12003KT 10SM CLR 29/23 A3018 80 71 1700 120/03 RMK AO2 T02890233
53843K79J 79J20160718195011407/18/16 19:50:31  5-MIN K79J 190050Z AUTO 12004KT 10SM CLR 28/23 A3018 70 71 1700 120/04 RMK AO2 SLP215 T02830228
53843K79J 79J20160718195511407/18/16 19:55:31  5-MIN K79J 190055Z AUTO 12004KT 10SM CLR 28/23 A3018 70 71 1700 120/04 RMK AO2 SLP216 T02830228
53843K79J 79J20160718200010707/18/16 20:00:31  5-MIN K79J 190100Z AUTO 00000KT 10SM CLR 28/23 A3018 70 71 1700 000/00 RMK AO2 T02830228
53843K79J 79J20160718200510707/18/16 20:05:31  5-MIN K79J 190105Z AUTO 12003KT 10SM CLR 28/23 A3018 70 71 1700 130/03 RMK AO2 T02830228
53843K79J 79J20160718201010707/18/16 20:10:31  5-MIN K79J 190110Z AUTO 00000KT 10SM CLR 28/23 A3018 70 71 1700 000/00 RMK AO2 T02830228
53843K79J 79J20160718201510707/18/16 20:15:31  5-MIN K79J 190115Z AUTO 00000KT 10SM CLR 28/23 A3018 80 71 1700 000/00 RMK AO2 T02830228
53843K79J 79J20160718202010707/18/16 20:20:31  5-MIN K79J 190120Z AUTO 00000KT 10SM CLR 28/23 A3017 80 71 1700 000/00 RMK AO2 T02830228
53843K79J 79J20160718202510707/18/16 20:25:31  5-MIN K79J 190125Z AUTO 00000KT 10SM CLR 28/23 A3017 80 71 1700 000/00 RMK AO2 T02830228
53843K79J 79J20160718203010707/18/16 20:30:31  5-MIN K79J 190130Z AUTO 07003KT 10SM CLR 28/23 A3018 70 74 1700 070/03 RMK AO2 T02830233
53843K79J 79J20160718203510707/18/16 20:35:31  5-MIN K79J 190135Z AUTO 00000KT 10SM CLR 28/23 A3018 70 76 1600 000/00 RMK AO2 T02780233
53843K79J 79J20160718204010707/18/16 20:40:31  5-MIN K79J 190140Z AUTO 00000KT 10SM CLR 28/23 A3019 60 76 1600 000/00 RMK AO2 T02780233
53843K79J 79J20160718204511407/18/16 20:45:31  5-MIN K79J 190145Z AUTO 27004KT 10SM CLR 28/23 A3020 60 74 1600 270/04 RMK AO2 PRESRR T02830233
53843K79J 79J20160718205011407/18/16 20:50:31  5-MIN K79J 190150Z AUTO 00000KT 10SM CLR 28/23 A3019 60 74 1600 000/00 RMK AO2 SLP219 T02830233
53843K79J 79J20160718205511407/18/16 20:55:31  5-MIN K79J 190155Z AUTO 00000KT 10SM CLR 28/23 A3019 60 76 1600 000/00 RMK AO2 SLP218 T02780233
53843K79J 79J20160718210010707/18/16 21:00:31  5-MIN K79J 190200Z AUTO 00000KT 10SM CLR 28/23 A3019 60 76 1600 000/00 RMK AO2 T02780233
53843K79J 79J20160718210510707/18/16 21:05:31  5-MIN K79J 190205Z AUTO 00000KT 10SM CLR 28/23 A3019 60 76 1600 000/00 RMK AO2 T02780233
53843K79J 79J20160718211010707/18/16 21:10:31  5-MIN K79J 190210Z AUTO 00000KT 10SM CLR 27/23 A3019 60 79 1500 000/00 RMK AO2 T02720233
53843K79J 79J20160718211510707/18/16 21:15:31  5-MIN K79J 190215Z AUTO 23003KT 10SM CLR 27/23 A3019 60 79 1500 240/03 RMK AO2 T02720233
53843K79J 79J20160718212010707/18/16 21:20:31  5-MIN K79J 190220Z AUTO 00000KT 10SM CLR 27/23 A3019 60 79 1500 000/00 RMK AO2 T02720233
53843K79J 79J20160718212510707/18/16 21:25:31  5-MIN K79J 190225Z AUTO 00000KT 10SM CLR 27/23 A3019 60 79 1500 000/00 RMK AO2 T02720233
53843K79J 79J20160718213010707/18/16 21:30:31  5-MIN K79J 190230Z AUTO 00000KT 10SM CLR 27/23 A3019 60 79 1500 000/00 RMK AO2 T02720233
53843K79J 79J20160718213510707/18/16 21:35:31  5-MIN K79J 190235Z AUTO 00000KT 10SM CLR 27/23 A3019 60 79 1500 000/00 RMK AO2 T02720233
53843K79J 79J20160718214010707/18/16 21:40:31  5-MIN K79J 190240Z AUTO 00000KT 10SM CLR 27/23 A3020 60 79 1500 000/00 RMK AO2 T02720233
53843K79J 79J20160718214510707/18/16 21:45:31  5-MIN K79J 190245Z AUTO 00000KT 10SM CLR 27/23 A3020 60 79 1500 000/00 RMK AO2 T02720233
53843K79J 79J20160718215012007/18/16 21:50:31  5-MIN K79J 190250Z AUTO 23003KT 10SM CLR 27/23 A3020 60 79 1500 230/03 RMK AO2 SLP220 T02720233 51007
53843K79J 79J20160718215512007/18/16 21:55:31  5-MIN K79J 190255Z AUTO 00000KT 10SM CLR 27/23 A3020 60 79 1500 000/00 RMK AO2 SLP221 T02720233 51007
53843K79J 79J20160718220010707/18/16 22:00:31  5-MIN K79J 190300Z AUTO 23003KT 10SM CLR 27/23 A3020 50 79 1500 240/03 RMK AO2 T02720233
53843K79J 79J20160718220510707/18/16 22:05:31  5-MIN K79J 190305Z AUTO 24003KT 10SM CLR 27/23 A3020 60 76 1500 250/03 RMK AO2 T02720228
53843K79J 79J20160718221010707/18/16 22:10:31  5-MIN K79J 190310Z AUTO 00000KT 10SM CLR 27/23 A3020 60 79 1500 000/00 RMK AO2 T02720233
53843K79J 79J20160718221510707/18/16 22:15:31  5-MIN K79J 190315Z AUTO 00000KT 10SM CLR 27/23 A3020 50 79 1500 000/00 RMK AO2 T02720233
53843K79J 79J20160718222010707/18/16 22:20:31  5-MIN K79J 190320Z AUTO 00000KT 10SM CLR 27/23 A3020 60 79 1500 000/00 RMK AO2 T02720233
53843K79J 79J20160718222510707/18/16 22:25:31  5-MIN K79J 190325Z AUTO 00000KT 10SM CLR 27/23 A3020 60 79 1500 000/00 RMK AO2 T02670228
53843K79J 79J20160718223010707/18/16 22:30:31  5-MIN K79J 190330Z AUTO 00000KT 10SM CLR 26/23 A3020 60 81 1400 000/00 RMK AO2 T02610228
53843K79J 79J20160718223510707/18/16 22:35:31  5-MIN K79J 190335Z AUTO 00000KT 10SM CLR 26/23 A3020 60 84 1400 000/00 RMK AO2 T02610233
53843K79J 79J20160718224010707/18/16 22:40:31  5-MIN K79J 190340Z AUTO 00000KT 10SM CLR 26/23 A3019 60 81 1400 000/00 RMK AO2 T02610228
53843K79J 79J20160718224510707/18/16 22:45:31  5-MIN K79J 190345Z AUTO 00000KT 10SM CLR 26/23 A3019 60 81 1400 000/00 RMK AO2 T02610228
53843K79J 79J20160718225011407/18/16 22:50:31  5-MIN K79J 190350Z AUTO 00000KT 10SM CLR 26/23 A3019 60 81 1400 000/00 RMK AO2 SLP219 T02610228
53843K79J 79J20160718225511407/18/16 22:55:31  5-MIN K79J 190355Z AUTO 00000KT 10SM CLR 26/23 A3019 60 84 1400 000/00 RMK AO2 SLP220 T02610233
53843K79J 79J20160718230010707/18/16 23:00:31  5-MIN K79J 190400Z AUTO 00000KT 10SM CLR 26/23 A3019 60 84 1400 000/00 RMK AO2 T02610233
53843K79J 79J20160718230510707/18/16 23:05:31  5-MIN K79J 190405Z AUTO 00000KT 10SM CLR 26/23 A3019 60 84 1400 000/00 RMK AO2 T02610233
53843K79J 79J20160718231010707/18/16 23:10:31  5-MIN K79J 190410Z AUTO 00000KT 10SM CLR 26/23 A3019 60 81 1400 000/00 RMK AO2 T02610228
53843K79J 79J20160718231510707/18/16 23:15:31  5-MIN K79J 190415Z AUTO 18003KT 10SM CLR 26/23 A3019 60 81 1400 180/03 RMK AO2 T02610228
53843K79J 79J20160718232010707/18/16 23:20:31  5-MIN K79J 190420Z AUTO 00000KT 10SM CLR 26/23 A3019 60 81 1400 000/00 RMK AO2 T02610228
53843K79J 79J20160718232510707/18/16 23:25:31  5-MIN K79J 190425Z AUTO 26003KT 10SM CLR 27/23 A3020 60 79 1500 270/03 RMK AO2 T02670228
53843K79J 79J20160718233010707/18/16 23:30:31  5-MIN K79J 190430Z AUTO 24003KT 10SM CLR 27/22 A3019 60 76 1500 250/03 RMK AO2 T02670222
53843K79J 79J20160718233510707/18/16 23:35:31  5-MIN K79J 190435Z AUTO 23003KT 10SM CLR 27/23 A3019 60 79 1500 230/03 RMK AO2 T02670228
53843K79J 79J20160718234010707/18/16 23:40:31  5-MIN K79J 190440Z AUTO 00000KT 10SM CLR 27/23 A3019 60 79 1500 000/00 RMK AO2 T02670228
53843K79J 79J20160718234510707/18/16 23:45:31  5-MIN K79J 190445Z AUTO 00000KT 10SM CLR 27/23 A3019 70 79 1500 000/00 RMK AO2 T02670228
53843K79J 79J20160718235012407/18/16 23:50:31  5-MIN K79J 190450Z AUTO 00000KT 10SM CLR 26/23 A3018 70 81 1400 000/00 RMK AO2 SLP215 T02610228 403780244
53843K79J 79J20160718235512407/18/16 23:55:31  5-MIN K79J 190455Z AUTO 24003KT 10SM CLR 26/23 A3018 70 81 1400 250/03 RMK AO2 SLP214 T02610228 403780244
53843K79J 79J20160719000010707/19/16 00:00:31  5-MIN K79J 190500Z AUTO 24003KT 10SM CLR 26/23 A3018 70 81 1400 240/03 RMK AO2 T02610228
53843K79J 79J20160719000510707/19/16 00:05:31  5-MIN K79J 190505Z AUTO 20003KT 10SM CLR 26/23 A3018 70 81 1400 210/03 RMK AO2 T02610228
53843K79J 79J20160719001010707/19/16 00:10:31  5-MIN K79J 190510Z AUTO 00000KT 10SM CLR 26/23 A3018 70 81 1400 000/00 RMK AO2 T02610228
53843K79J 79J20160719001510707/19/16 00:15:31  5-MIN K79J 190515Z AUTO 23003KT 10SM CLR 26/23 A3018 70 81 1400 230/03 RMK AO2 T02610228
53843K79J 79J20160719002010707/19/16 00:20:31  5-MIN K79J 190520Z AUTO 00000KT 10SM CLR 26/23 A3018 70 81 1400 000/00 RMK AO2 T02610228
53843K79J 79J20160719002510707/19/16 00:25:31  5-MIN K79J 190525Z AUTO 00000KT 10SM CLR 26/23 A3018 70 81 1400 000/00 RMK AO2 T02610228
53843K79J 79J20160719003010707/19/16 00:30:31  5-MIN K79J 190530Z AUTO 00000KT 10SM CLR 26/23 A3018 70 81 1400 000/00 RMK AO2 T02610228
53843K79J 79J20160719003510707/19/16 00:35:31  5-MIN K79J 190535Z AUTO 00000KT 10SM CLR 26/22 A3018 80 79 1400 000/00 RMK AO2 T02610222
53843K79J 79J20160719004010707/19/16 00:40:31  5-MIN K79J 190540Z AUTO 00000KT 10SM CLR 26/22 A3017 80 79 1400 000/00 RMK AO2 T02610222
53843K79J 79J20160719004510707/19/16 00:45:31  5-MIN K79J 190545Z AUTO 18003KT 10SM CLR 26/22 A3017 80 81 1400 180/03 RMK AO2 T02560222
53843K79J 79J20160719005013207/19/16 00:50:31  5-MIN K79J 190550Z AUTO 00000KT 10SM CLR 26/23 A3017 80 84 1400 000/00 RMK AO2 SLP212 T02560228 10300 20256 53006
53843K79J 79J20160719005513207/19/16 00:55:31  5-MIN K79J 190555Z AUTO 00000KT 10SM CLR 26/22 A3017 80 81 1400 000/00 RMK AO2 SLP211 T02560222 10300 20256 53006
53843K79J 79J20160719010010707/19/16 01:00:31  5-MIN K79J 190600Z AUTO 00000KT 10SM CLR 26/22 A3017 80 81 1400 000/00 RMK AO2 T02560222
53843K79J 79J20160719010510707/19/16 01:05:31  5-MIN K79J 190605Z AUTO 00000KT 10SM CLR 26/22 A3017 80 81 1400 000/00 RMK AO2 T02560222
53843K79J 79J20160719011010707/19/16 01:10:31  5-MIN K79J 190610Z AUTO 00000KT 10SM CLR 26/22 A3017 80 81 1400 000/00 RMK AO2 T02560222
53843K79J 79J20160719011510707/19/16 01:15:31  5-MIN K79J 190615Z AUTO 00000KT 10SM CLR 26/22 A3017 80 81 1400 000/00 RMK AO2 T02560222
53843K79J 79J20160719012010707/19/16 01:20:31  5-MIN K79J 190620Z AUTO 00000KT 10SM CLR 25/22 A3017 80 84 1300 000/00 RMK AO2 T02500222
53843K79J 79J20160719012510707/19/16 01:25:31  5-MIN K79J 190625Z AUTO 00000KT 10SM CLR 25/22 A3017 80 84 1300 000/00 RMK AO2 T02500222
53843K79J 79J20160719013010707/19/16 01:30:31  5-MIN K79J 190630Z AUTO 00000KT 10SM CLR 25/22 A3017 80 84 1300 000/00 RMK AO2 T02500222
53843K79J 79J20160719013510707/19/16 01:35:31  5-MIN K79J 190635Z AUTO 00000KT 10SM CLR 25/22 A3017 90 84 1300 000/00 RMK AO2 T02500222
53843K79J 79J20160719014010707/19/16 01:40:31  5-MIN K79J 190640Z AUTO 00000KT 10SM CLR 25/22 A3017 90 84 1300 000/00 RMK AO2 T02500222
53843K79J 79J20160719014510707/19/16 01:45:31  5-MIN K79J 190645Z AUTO 00000KT 10SM CLR 25/22 A3017 90 84 1300 000/00 RMK AO2 T02500222
53843K79J 79J20160719015011407/19/16 01:50:31  5-MIN K79J 190650Z AUTO 00000KT 10SM CLR 25/22 A3016 90 84 1300 000/00 RMK AO2 SLP208 T02500222
53843K79J 79J20160719015511407/19/16 01:55:31  5-MIN K79J 190655Z AUTO 09003KT 10SM CLR 25/22 A3017 90 84 1300 090/03 RMK AO2 SLP209 T02500222
53843K79J 79J20160719020010707/19/16 02:00:31  5-MIN K79J 190700Z AUTO 10003KT 10SM CLR 25/22 A3017 90 84 1300 100/03 RMK AO2 T02500222
53843K79J 79J20160719020510707/19/16 02:05:31  5-MIN K79J 190705Z AUTO 00000KT 10SM CLR 25/22 A3017 80 84 1300 000/00 RMK AO2 T02500222
53843K79J 79J20160719021010707/19/16 02:10:31  5-MIN K79J 190710Z AUTO 00000KT 10SM CLR 25/22 A3017 80 84 1300 000/00 RMK AO2 T02500222
53843K79J 79J20160719021510707/19/16 02:15:31  5-MIN K79J 190715Z AUTO 00000KT 10SM CLR 25/22 A3017 80 84 1300 000/00 RMK AO2 T02500222
53843K79J 79J20160719022010707/19/16 02:20:31  5-MIN K79J 190720Z AUTO 00000KT 10SM CLR 25/22 A3017 80 84 1300 000/00 RMK AO2 T02500222
53843K79J 79J20160719022510707/19/16 02:25:31  5-MIN K79J 190725Z AUTO 00000KT 10SM CLR 25/22 A3017 80 84 1300 000/00 RMK AO2 T02500222
53843K79J 79J20160719023010707/19/16 02:30:31  5-MIN K79J 190730Z AUTO 00000KT 10SM CLR 25/22 A3017 80 84 1300 000/00 RMK AO2 T02500222
53843K79J 79J20160719023510707/19/16 02:35:31  5-MIN K79J 190735Z AUTO 00000KT 10SM CLR 25/22 A3017 80 84 1300 000/00 RMK AO2 T02500222
53843K79J 79J20160719024010707/19/16 02:40:31  5-MIN K79J 190740Z AUTO 00000KT 10SM CLR 25/22 A3017 80 81 1300 000/00 RMK AO2 T02500217
53843K79J 79J20160719024510707/19/16 02:45:31  5-MIN K79J 190745Z AUTO 00000KT 10SM CLR 25/22 A3017 80 84 1300 000/00 RMK AO2 T02500222
53843K79J 79J20160719025011407/19/16 02:50:31  5-MIN K79J 190750Z AUTO 00000KT 10SM CLR 24/22 A3017 80 87 1200 000/00 RMK AO2 SLP212 T02440222
53843K79J 79J20160719025511407/19/16 02:55:31  5-MIN K79J 190755Z AUTO 00000KT 10SM CLR 24/22 A3017 80 87 1200 000/00 RMK AO2 SLP211 T02440222
53843K79J 79J20160719030010707/19/16 03:00:31  5-MIN K79J 190800Z AUTO 00000KT 10SM CLR 25/22 A3017 80 84 1300 000/00 RMK AO2 T02500222
53843K79J 79J20160719030510707/19/16 03:05:31  5-MIN K79J 190805Z AUTO 00000KT 10SM CLR 25/22 A3017 80 84 1300 000/00 RMK AO2 T02500222
53843K79J 79J20160719031010707/19/16 03:10:31  5-MIN K79J 190810Z AUTO 00000KT 10SM CLR 25/22 A3018 70 84 1300 000/00 RMK AO2 T02500222
53843K79J 79J20160719031510707/19/16 03:15:31  5-MIN K79J 190815Z AUTO 00000KT 10SM CLR 25/22 A3018 70 84 1300 000/00 RMK AO2 T02500222
53843K79J 79J20160719032010707/19/16 03:20:31  5-MIN K79J 190820Z AUTO 00000KT 10SM CLR 24/22 A3018 70 84 1200 000/00 RMK AO2 T02440217
53843K79J 79J20160719032510707/19/16 03:25:31  5-MIN K79J 190825Z AUTO 00000KT 10SM CLR 24/22 A3018 70 84 1200 000/00 RMK AO2 T02440217
53843K79J 79J20160719033010707/19/16 03:30:31  5-MIN K79J 190830Z AUTO 00000KT 10SM CLR 25/22 A3018 70 84 1300 000/00 RMK AO2 T02500222
53843K79J 79J20160719033510707/19/16 03:35:31  5-MIN K79J 190835Z AUTO 00000KT 10SM CLR 25/22 A3019 70 84 1300 000/00 RMK AO2 T02500222
53843K79J 79J20160719034010707/19/16 03:40:31  5-MIN K79J 190840Z AUTO 00000KT 10SM CLR 24/22 A3019 70 84 1200 000/00 RMK AO2 T02440217
53843K79J 79J20160719034510707/19/16 03:45:31  5-MIN K79J 190845Z AUTO 00000KT 10SM CLR 24/22 A3018 70 84 1200 000/00 RMK AO2 T02440217
53843K79J 79J20160719035012007/19/16 03:50:31  5-MIN K79J 190850Z AUTO 00000KT 10SM CLR 24/22 A3018 70 84 1200 000/00 RMK AO2 SLP216 T02440217 58009
53843K79J 79J20160719035512007/19/16 03:55:31  5-MIN K79J 190855Z AUTO 00000KT 10SM CLR 24/22 A3018 70 84 1200 000/00 RMK AO2 SLP214 T02440217 58009
53843K79J 79J20160719040010707/19/16 04:00:31  5-MIN K79J 190900Z AUTO 00000KT 10SM CLR 24/22 A3018 70 84 1200 000/00 RMK AO2 T02440217
53843K79J 79J20160719040510607/19/16 04:05:31  5-MIN K79J 190905Z AUTO 00000KT 9SM CLR 24/22 A3018 70 84 1200 000/00 RMK AO2 T02440217
53843K79J 79J20160719041010607/19/16 04:10:31  5-MIN K79J 190910Z AUTO 00000KT 8SM CLR 24/22 A3018 70 84 1200 000/00 RMK AO2 T02440217
53843K79J 79J20160719041510607/19/16 04:15:31  5-MIN K79J 190915Z AUTO 00000KT 9SM CLR 24/22 A3018 70 84 1200 000/00 RMK AO2 T02440217
53843K79J 79J20160719042010607/19/16 04:20:31  5-MIN K79J 190920Z AUTO 00000KT 8SM CLR 24/22 A3018 70 87 1200 000/00 RMK AO2 T02390217
53843K79J 79J20160719042510607/19/16 04:25:31  5-MIN K79J 190925Z AUTO 00000KT 8SM CLR 24/22 A3019 70 84 1200 000/00 RMK AO2 T02440217
53843K79J 79J20160719043010607/19/16 04:30:31  5-MIN K79J 190930Z AUTO 00000KT 8SM CLR 24/22 A3019 70 84 1200 000/00 RMK AO2 T02440217
53843K79J 79J20160719043510607/19/16 04:35:31  5-MIN K79J 190935Z AUTO 00000KT 8SM CLR 24/22 A3019 60 84 1200 000/00 RMK AO2 T02440217
53843K79J 79J20160719044010607/19/16 04:40:31  5-MIN K79J 190940Z AUTO 00000KT 8SM CLR 24/22 A3019 60 87 1100 000/00 RMK AO2 T02390217
53843K79J 79J20160719044510607/19/16 04:45:31  5-MIN K79J 190945Z AUTO 00000KT 8SM CLR 24/22 A3019 60 87 1200 000/00 RMK AO2 T02390217
53843K79J 79J20160719045011307/19/16 04:50:31  5-MIN K79J 190950Z AUTO 00000KT 9SM CLR 24/22 A3019 60 84 1200 000/00 RMK AO2 SLP217 T02440217
53843K79J 79J20160719045511307/19/16 04:55:31  5-MIN K79J 190955Z AUTO 00000KT 9SM CLR 24/22 A3019 60 87 1100 000/00 RMK AO2 SLP218 T02390217
53843K79J 79J20160719050010607/19/16 05:00:31  5-MIN K79J 191000Z AUTO 00000KT 8SM CLR 24/22 A3020 60 87 1100 000/00 RMK AO2 T02390217
53843K79J 79J20160719050510607/19/16 05:05:31  5-MIN K79J 191005Z AUTO 00000KT 8SM CLR 24/22 A3020 60 87 1100 000/00 RMK AO2 T02390217
53843K79J 79J20160719051010607/19/16 05:10:31  5-MIN K79J 191010Z AUTO 00000KT 7SM CLR 24/22 A3020 60 87 1100 000/00 RMK AO2 T02390217
53843K79J 79J20160719051510607/19/16 05:15:31  5-MIN K79J 191015Z AUTO 00000KT 7SM CLR 24/22 A3020 50 87 1100 000/00 RMK AO2 T02390217
53843K79J 79J20160719052010607/19/16 05:20:31  5-MIN K79J 191020Z AUTO 00000KT 7SM CLR 24/21 A3020 50 84 1100 000/00 RMK AO2 T02390211
53843K79J 79J20160719052510607/19/16 05:25:31  5-MIN K79J 191025Z AUTO 00000KT 7SM CLR 24/22 A3020 50 87 1100 000/00 RMK AO2 T02390217
53843K79J 79J20160719053010607/19/16 05:30:31  5-MIN K79J 191030Z AUTO 00000KT 8SM CLR 24/21 A3020 50 84 1100 000/00 RMK AO2 T02390211
53843K79J 79J20160719053510607/19/16 05:35:31  5-MIN K79J 191035Z AUTO 00000KT 9SM CLR 24/22 A3020 50 87 1100 000/00 RMK AO2 T02390217
53843K79J 79J20160719054010707/19/16 05:40:31  5-MIN K79J 191040Z AUTO 00000KT 10SM CLR 24/22 A3020 50 87 1100 000/00 RMK AO2 T02390217
53843K79J 79J20160719054510707/19/16 05:45:31  5-MIN K79J 191045Z AUTO 00000KT 10SM CLR 24/21 A3021 50 84 1100 000/00 RMK AO2 T02390211
53843K79J 79J20160719055011307/19/16 05:50:31  5-MIN K79J 191050Z AUTO 00000KT 7SM CLR 24/21 A3021 50 84 1100 000/00 RMK AO2 SLP224 T02390211
53843K79J 79J20160719055511307/19/16 05:55:31  5-MIN K79J 191055Z AUTO 00000KT 7SM CLR 24/21 A3021 50 84 1100 000/00 RMK AO2 SLP223 T02390211
53843K79J 79J20160719060010607/19/16 06:00:31  5-MIN K79J 191100Z AUTO 00000KT 9SM CLR 24/22 A3021 50 87 1100 000/00 RMK AO2 T02390217
53843K79J 79J20160719060510607/19/16 06:05:31  5-MIN K79J 191105Z AUTO 00000KT 9SM CLR 24/22 A3021 40 87 1100 000/00 RMK AO2 T02390217
53843K79J 79J20160719061010707/19/16 06:10:31  5-MIN K79J 191110Z AUTO 00000KT 10SM CLR 24/22 A3021 40 84 1200 000/00 RMK AO2 T02440217
53843K79J 79J20160719061510707/19/16 06:15:31  5-MIN K79J 191115Z AUTO 00000KT 10SM CLR 24/22 A3022 40 87 1100 000/00 RMK AO2 T02390217
53843K79J 79J20160719062010607/19/16 06:20:31  5-MIN K79J 191120Z AUTO 00000KT 9SM CLR 24/22 A3022 40 87 1100 000/00 RMK AO2 T02390217
53843K79J 79J20160719062510607/19/16 06:25:31  5-MIN K79J 191125Z AUTO 00000KT 8SM CLR 24/22 A3022 40 87 1100 000/00 RMK AO2 T02390217
53843K79J 79J20160719063010607/19/16 06:30:31  5-MIN K79J 191130Z AUTO 00000KT 9SM CLR 24/22 A3022 40 84 1200 000/00 RMK AO2 T02440217
53843K79J 79J20160719063510707/19/16 06:35:31  5-MIN K79J 191135Z AUTO 00000KT 10SM CLR 24/22 A3022 40 84 1200 000/00 RMK AO2 T02440217
53843K79J 79J20160719064010707/19/16 06:40:31  5-MIN K79J 191140Z AUTO 00000KT 10SM CLR 24/22 A3022 40 84 1200 000/00 RMK AO2 T02440217
53843K79J 79J20160719064510607/19/16 06:45:31  5-MIN K79J 191145Z AUTO 00000KT 9SM CLR 24/22 A3022 40 84 1200 000/00 RMK AO2 T02440217
53843K79J 79J20160719065013107/19/16 06:50:31  5-MIN K79J 191150Z AUTO 00000KT 9SM CLR 25/22 A3022 30 84 1200 000/00 RMK AO2 SLP229 T02500222 10256 20239 53003
53843K79J 79J20160719065513107/19/16 06:55:31  5-MIN K79J 191155Z AUTO 00000KT 9SM CLR 25/22 A3022 30 84 1200 000/00 RMK AO2 SLP229 T02500222 10256 20239 53003
53843K79J 79J20160719070010707/19/16 07:00:31  5-MIN K79J 191200Z AUTO 00000KT 10SM CLR 26/22 A3022 30 81 1300 000/00 RMK AO2 T02560222
53843K79J 79J20160719070510707/19/16 07:05:31  5-MIN K79J 191205Z AUTO 00000KT 10SM CLR 26/23 A3023 30 84 1300 000/00 RMK AO2 T02560228
53843K79J 79J20160719071010707/19/16 07:10:31  5-MIN K79J 191210Z AUTO 00000KT 10SM CLR 26/23 A3023 30 81 1400 000/00 RMK AO2 T02610228
53843K79J 79J20160719071510707/19/16 07:15:31  5-MIN K79J 191215Z AUTO 00000KT 10SM CLR 26/23 A3023 30 81 1400 000/00 RMK AO2 T02610228
53843K79J 79J20160719072010707/19/16 07:20:31  5-MIN K79J 191220Z AUTO 00000KT 10SM CLR 27/23 A3023 30 79 1400 000/00 RMK AO2 T02670228
53843K79J 79J20160719072510707/19/16 07:25:31  5-MIN K79J 191225Z AUTO 00000KT 10SM CLR 27/23 A3023 30 79 1400 000/00 RMK AO2 T02670228
53843K79J 79J20160719073010707/19/16 07:30:31  5-MIN K79J 191230Z AUTO 09003KT 10SM CLR 27/23 A3023 20 79 1400 090/03 RMK AO2 T02670228
53843K79J 79J20160719073510707/19/16 07:35:31  5-MIN K79J 191235Z AUTO 00000KT 10SM CLR 27/23 A3024 20 79 1400 000/00 RMK AO2 T02670228
53843K79J 79J20160719074010707/19/16 07:40:31  5-MIN K79J 191240Z AUTO 00000KT 10SM CLR 27/23 A3024 20 76 1500 000/00 RMK AO2 T02720228
53843K79J 79J20160719074510707/19/16 07:45:31  5-MIN K79J 191245Z AUTO 00000KT 10SM CLR 27/23 A3024 20 76 1500 000/00 RMK AO2 T02720228
53843K79J 79J20160719075011407/19/16 07:50:31  5-MIN K79J 191250Z AUTO 00000KT 10SM CLR 28/23 A3024 20 74 1500 000/00 RMK AO2 SLP234 T02780228
53843K79J 79J20160719075511407/19/16 07:55:31  5-MIN K79J 191255Z AUTO 00000KT 10SM CLR 28/23 A3024 20 74 1500 000/00 RMK AO2 SLP234 T02780228
53843K79J 79J20160719080010707/19/16 08:00:31  5-MIN K79J 191300Z AUTO 00000KT 10SM CLR 28/22 A3024 20 69 1600 000/00 RMK AO2 T02830222
53843K79J 79J20160719080510707/19/16 08:05:31  5-MIN K79J 191305Z AUTO 00000KT 10SM CLR 28/22 A3024 10 69 1600 000/00 RMK AO2 T02830222
53843K79J 79J20160719081010707/19/16 08:10:31  5-MIN K79J 191310Z AUTO 00000KT 10SM CLR 29/22 A3025 10 67 1700 000/00 RMK AO2 T02890222
53843K79J 79J20160719081510707/19/16 08:15:31  5-MIN K79J 191315Z AUTO 00000KT 10SM CLR 29/22 A3025 10 67 1700 000/00 RMK AO2 T02890222
53843K79J 79J20160719082010707/19/16 08:20:31  5-MIN K79J 191320Z AUTO 00000KT 10SM CLR 29/22 A3025 10 64 1700 000/00 RMK AO2 T02940222
53843K79J 79J20160719082510707/19/16 08:25:31  5-MIN K79J 191325Z AUTO 00000KT 10SM CLR 29/22 A3025 10 64 1700 000/00 RMK AO2 T02940222
53843K79J 79J20160719083010707/19/16 08:30:31  5-MIN K79J 191330Z AUTO 00000KT 10SM CLR 30/22 A3025 10 62 1800 000/00 RMK AO2 T03000222
53843K79J 79J20160719083510707/19/16 08:35:31  5-MIN K79J 191335Z AUTO 00000KT 10SM CLR 30/22 A3025 10 62 1800 000/00 RMK AO2 T03000222
53843K79J 79J20160719084010707/19/16 08:40:31  5-MIN K79J 191340Z AUTO 29003KT 10SM CLR 31/22 A3025 10 58 1800 290/03 RMK AO2 T03060217
53843K79J 79J20160719084510707/19/16 08:45:31  5-MIN K79J 191345Z AUTO 00000KT 10SM CLR 31/22 A3025 10 58 1800 000/00 RMK AO2 T03060217
53843K79J 79J20160719085011307/19/16 08:50:31  5-MIN K79J 191350Z AUTO VRB03KT 10SM CLR 31/22 A3025 0 58 1800 VRB/03 RMK AO2 SLP240 T03060217
53843K79J 79J20160719085511307/19/16 08:55:31  5-MIN K79J 191355Z AUTO 28005KT 10SM CLR 31/22 A3026 0 56 1900 290/05 RMK AO2 SLP240 T03110217
53843K79J 79J20160719090010607/19/16 09:00:31  5-MIN K79J 191400Z AUTO 31003KT 10SM CLR 31/22 A3026 0 60 1800 310/03 RMK AO2 T03060222
53843K79J 79J20160719090510607/19/16 09:05:31  5-MIN K79J 191405Z AUTO 29004KT 10SM CLR 31/22 A3026 0 58 1900 290/04 RMK AO2 T03110222
53843K79J 79J20160719091010607/19/16 09:10:31  5-MIN K79J 191410Z AUTO 29005KT 10SM CLR 31/22 A3026 0 58 1900 290/05 RMK AO2 T03110222
53843K79J 79J20160719091510607/19/16 09:15:31  5-MIN K79J 191415Z AUTO 28005KT 10SM CLR 31/22 A3026 0 58 1900 280/05 RMK AO2 T03110222
53843K79J 79J20160719092010707/19/16 09:20:31  5-MIN K79J 191420Z AUTO VRB04KT 10SM CLR 32/22 A3025 10 56 2000 VRB/04 RMK AO2 T03170222
53843K79J 79J20160719092510707/19/16 09:25:31  5-MIN K79J 191425Z AUTO VRB03KT 10SM CLR 32/22 A3025 10 56 2000 VRB/03 RMK AO2 T03170222
53843K79J 79J20160719093010707/19/16 09:30:31  5-MIN K79J 191430Z AUTO 31005KT 10SM CLR 32/22 A3025 10 56 2000 320/05 RMK AO2 T03170222
53843K79J 79J20160719093510707/19/16 09:35:31  5-MIN K79J 191435Z AUTO 30006KT 10SM CLR 32/22 A3025 10 53 2000 300/06 RMK AO2 T03220217
53843K79J 79J20160719094010707/19/16 09:40:31  5-MIN K79J 191440Z AUTO 30006KT 10SM CLR 32/21 A3025 10 49 2000 310/06 RMK AO2 T03220206
53843K79J 79J20160719094510707/19/16 09:45:31  5-MIN K79J 191445Z AUTO 30005KT 10SM CLR 32/21 A3025 10 51 2000 300/05 RMK AO2 T03220211
53843K79J 79J20160719095012007/19/16 09:50:31  5-MIN K79J 191450Z AUTO 27006KT 10SM CLR 33/21 A3025 10 49 2100 270/06 RMK AO2 SLP238 T03280211 53014
53843K79J 79J20160719095512007/19/16 09:55:31  5-MIN K79J 191455Z AUTO 27005KT 10SM CLR 32/21 A3025 10 51 2000 270/05 RMK AO2 SLP239 T03220211 53014
53843K79J 79J20160719100010707/19/16 10:00:31  5-MIN K79J 191500Z AUTO 31003KT 10SM CLR 33/22 A3025 10 51 2100 310/03 RMK AO2 T03280217
53843K79J 79J20160719100510707/19/16 10:05:31  5-MIN K79J 191505Z AUTO 22004KT 10SM CLR 33/21 A3025 10 49 2100 220/04 RMK AO2 T03280211
53843K79J 79J20160719101010707/19/16 10:10:31  5-MIN K79J 191510Z AUTO 27004KT 10SM CLR 33/21 A3025 10 49 2100 280/04 RMK AO2 T03280211
53843K79J 79J20160719101510707/19/16 10:15:31  5-MIN K79J 191515Z AUTO VRB04KT 10SM CLR 33/21 A3025 10 48 2100 VRB/04 RMK AO2 T03330211
53843K79J 79J20160719102010707/19/16 10:20:31  5-MIN K79J 191520Z AUTO VRB05KT 10SM CLR 33/21 A3025 10 46 2100 VRB/05 RMK AO2 T03330206
53843K79J 79J20160719102510707/19/16 10:25:31  5-MIN K79J 191525Z AUTO VRB05KT 10SM CLR 33/21 A3025 10 46 2100 VRB/05 RMK AO2 T03330206
53843K79J 79J20160719103010707/19/16 10:30:31  5-MIN K79J 191530Z AUTO 26004KT 10SM CLR 33/20 A3025 10 45 2100 260/04 RMK AO2 T03330200
53843K79J 79J20160719103510707/19/16 10:35:31  5-MIN K79J 191535Z AUTO 31003KT 10SM CLR 34/21 A3025 10 45 2200 310/03 RMK AO2 T03390206
53843K79J 79J20160719104010707/19/16 10:40:31  5-MIN K79J 191540Z AUTO VRB05KT 10SM CLR 34/21 A3025 10 46 2200 VRB/05 RMK AO2 T03390211
53843K79J 79J20160719104510707/19/16 10:45:31  5-MIN K79J 191545Z AUTO 28003KT 10SM CLR 34/21 A3025 10 46 2200 280/03 RMK AO2 T03390211
53843K79J 79J20160719105011407/19/16 10:50:31  5-MIN K79J 191550Z AUTO 28004KT 10SM CLR 34/22 A3024 10 48 2200 280/04 RMK AO2 SLP237 T03390217
53843K79J 79J20160719105511407/19/16 10:55:31  5-MIN K79J 191555Z AUTO 27004KT 10SM CLR 34/22 A3024 20 48 2200 270/04 RMK AO2 SLP236 T03390217
53843K79J 79J20160719110010707/19/16 11:00:31  5-MIN K79J 191600Z AUTO 30005KT 10SM CLR 34/22 A3024 20 48 2200 300/05 RMK AO2 T03390217
53843K79J 79J20160719110510707/19/16 11:05:31  5-MIN K79J 191605Z AUTO VRB04KT 10SM CLR 34/21 A3024 20 46 2200 VRB/04 RMK AO2 T03390211
53843K79J 79J20160719111010707/19/16 11:10:31  5-MIN K79J 191610Z AUTO VRB04KT 10SM CLR 34/22 A3024 20 46 2300 VRB/04 RMK AO2 T03440217
53843K79J 79J20160719111510707/19/16 11:15:31  5-MIN K79J 191615Z AUTO 30004KT 10SM CLR 34/22 A3024 20 48 2300 310/04 RMK AO2 T03440222
53843K79J 79J20160719112010707/19/16 11:20:31  5-MIN K79J 191620Z AUTO 28005KT 10SM CLR 34/22 A3024 20 46 2300 280/05 RMK AO2 T03440217
53843K79J 79J20160719112510707/19/16 11:25:31  5-MIN K79J 191625Z AUTO 34004KT 10SM CLR 34/22 A3024 20 46 2300 350/04 RMK AO2 T03440217
53843K79J 79J20160719113010707/19/16 11:30:31  5-MIN K79J 191630Z AUTO 27006KT 10SM CLR 35/22 A3023 20 45 2300 270/06 RMK AO2 T03500217
53843K79J 79J20160719113510707/19/16 11:35:31  5-MIN K79J 191635Z AUTO 28007KT 10SM CLR 34/22 A3023 30 46 2300 290/07 RMK AO2 T03440217
53843K79J 79J20160719114010707/19/16 11:40:31  5-MIN K79J 191640Z AUTO 27003KT 10SM CLR 34/22 A3023 30 46 2300 270/03 RMK AO2 T03440217
53843K79J 79J20160719114510707/19/16 11:45:31  5-MIN K79J 191645Z AUTO 31003KT 10SM CLR 34/22 A3022 30 46 2300 310/03 RMK AO2 T03440217
53843K79J 79J20160719115011407/19/16 11:50:31  5-MIN K79J 191650Z AUTO 00000KT 10SM CLR 34/22 A3022 40 46 2300 000/00 RMK AO2 SLP227 T03440217
53843K79J 79J20160719115511407/19/16 11:55:31  5-MIN K79J 191655Z AUTO VRB04KT 10SM CLR 35/21 A3022 40 43 2400 VRB/04 RMK AO2 SLP226 T03500211
53843K79J 79J20160719120010707/19/16 12:00:31  5-MIN K79J 191700Z AUTO 26006KT 10SM CLR 35/21 A3022 40 43 2400 260/06 RMK AO2 T03500211
53843K79J 79J20160719120510707/19/16 12:05:31  5-MIN K79J 191705Z AUTO VRB05KT 10SM CLR 35/21 A3022 40 42 2400 VRB/05 RMK AO2 T03500206
53843K79J 79J20160719121010707/19/16 12:10:31  5-MIN K79J 191710Z AUTO 24003KT 10SM CLR 35/21 A3021 50 43 2400 240/03 RMK AO2 T03500211
53843K79J 79J20160719121510707/19/16 12:15:31  5-MIN K79J 191715Z AUTO 30006KT 10SM CLR 36/21 A3021 50 41 2400 300/06 RMK AO2 T03560206
53843K79J 79J20160719122010707/19/16 12:20:31  5-MIN K79J 191720Z AUTO VRB05KT 10SM CLR 35/21 A3021 50 42 2400 VRB/05 RMK AO2 T03500206
53843K79J 79J20160719122510707/19/16 12:25:31  5-MIN K79J 191725Z AUTO 00000KT 10SM CLR 35/21 A3021 50 43 2400 000/00 RMK AO2 T03500211
53843K79J 79J20160719123010707/19/16 12:30:31  5-MIN K79J 191730Z AUTO 24003KT 10SM CLR 36/21 A3021 50 42 2400 240/03 RMK AO2 T03560211
53843K79J 79J20160719123510707/19/16 12:35:31  5-MIN K79J 191735Z AUTO VRB03KT 10SM CLR 36/21 A3020 50 42 2400 VRB/03 RMK AO2 T03560211
53843K79J 79J20160719211010707/19/16 21:10:31  5-MIN K79J 200210Z AUTO 00000KT 10SM CLR 28/24 A3017 90 82 1600 000/00 RMK AO2 T02780244
53843K79J 79J20160719211510707/19/16 21:15:31  5-MIN K79J 200215Z AUTO 00000KT 10SM CLR 28/24 A3017 90 82 1600 000/00 RMK AO2 T02780244
53843K79J 79J20160719212010707/19/16 21:20:31  5-MIN K79J 200220Z AUTO 00000KT 10SM CLR 28/24 A3017 90 82 1600 000/00 RMK AO2 T02780244
53843K79J 79J20160719212510707/19/16 21:25:31  5-MIN K79J 200225Z AUTO 00000KT 10SM CLR 28/24 A3017 80 82 1600 000/00 RMK AO2 T02780244
53843K79J 79J20160719213010707/19/16 21:30:31  5-MIN K79J 200230Z AUTO 00000KT 10SM CLR 28/24 A3017 80 79 1600 000/00 RMK AO2 T02780239
53843K79J 79J20160719213510707/19/16 21:35:31  5-MIN K79J 200235Z AUTO 00000KT 10SM CLR 28/24 A3017 80 76 1700 000/00 RMK AO2 T02830239
53843K79J 79J20160719214010707/19/16 21:40:31  5-MIN K79J 200240Z AUTO 00000KT 10SM CLR 27/24 A3017 90 82 1600 000/00 RMK AO2 T02720239
53843K79J 79J20160719214510707/19/16 21:45:31  5-MIN K79J 200245Z AUTO 00000KT 10SM CLR 27/24 A3017 90 84 1600 000/00 RMK AO2 T02720244
53843K79J 79J20160719215012007/19/16 21:50:31  5-MIN K79J 200250Z AUTO 00000KT 10SM CLR 27/24 A3017 90 82 1600 000/00 RMK AO2 SLP210 T02720239 55013
53843K79J 79J20160719215512007/19/16 21:55:31  5-MIN K79J 200255Z AUTO 00000KT 10SM CLR 27/24 A3016 90 84 1500 000/00 RMK AO2 SLP209 T02670239 55013
53843K79J 79J20160719220010707/19/16 22:00:31  5-MIN K79J 200300Z AUTO 00000KT 10SM CLR 27/24 A3016 90 82 1600 000/00 RMK AO2 T02720239
53843K79J 79J20160719220510707/19/16 22:05:31  5-MIN K79J 200305Z AUTO 00000KT 10SM CLR 27/24 A3016 90 84 1500 000/00 RMK AO2 T02670239
53843K79J 79J20160719221010707/19/16 22:10:31  5-MIN K79J 200310Z AUTO 00000KT 10SM CLR 27/24 A3016 90 84 1500 000/00 RMK AO2 T02670239
53843K79J 79J20160719221510707/19/16 22:15:31  5-MIN K79J 200315Z AUTO 00000KT 10SM CLR 27/24 A3016 90 84 1500 000/00 RMK AO2 T02670239
53843K79J 79J20160719222010707/19/16 22:20:31  5-MIN K79J 200320Z AUTO 00000KT 10SM CLR 27/24 A3016 90 84 1500 000/00 RMK AO2 T02670239
53843K79J 79J20160719222510707/19/16 22:25:31  5-MIN K79J 200325Z AUTO 13003KT 10SM CLR 27/24 A3016 90 84 1500 130/03 RMK AO2 T02670239
53843K79J 79J20160719223010707/19/16 22:30:31  5-MIN K79J 200330Z AUTO 14003KT 10SM CLR 27/24 A3016 90 84 1500 140/03 RMK AO2 T02670239
53843K79J 79J20160719223510707/19/16 22:35:31  5-MIN K79J 200335Z AUTO 13004KT 10SM CLR 27/24 A3016 90 84 1500 130/04 RMK AO2 T02670239
53843K79J 79J20160719224010807/19/16 22:40:31  5-MIN K79J 200340Z AUTO 14003KT 10SM CLR 27/24 A3015 100 84 1500 140/03 RMK AO2 T02670239
53843K79J 79J20160719224510707/19/16 22:45:31  5-MIN K79J 200345Z AUTO 00000KT 10SM CLR 27/24 A3016 90 84 1500 000/00 RMK AO2 T02670239
53843K79J 79J20160719225011407/19/16 22:50:31  5-MIN K79J 200350Z AUTO 00000KT 10SM CLR 27/24 A3016 90 84 1500 000/00 RMK AO2 SLP207 T02670239
53843K79J 79J20160719225511407/19/16 22:55:31  5-MIN K79J 200355Z AUTO 00000KT 10SM CLR 27/24 A3016 90 84 1500 000/00 RMK AO2 SLP207 T02670239
53843K79J 79J20160719230010707/19/16 23:00:31  5-MIN K79J 200400Z AUTO 00000KT 10SM CLR 27/24 A3016 90 84 1500 000/00 RMK AO2 T02670239
53843K79J 79J20160719230510707/19/16 23:05:31  5-MIN K79J 200405Z AUTO 00000KT 10SM CLR 27/24 A3016 90 84 1500 000/00 RMK AO2 T02670239
53843K79J 79J20160719231010707/19/16 23:10:31  5-MIN K79J 200410Z AUTO 00000KT 10SM CLR 27/23 A3016 90 82 1500 000/00 RMK AO2 T02670233
53843K79J 79J20160719231510707/19/16 23:15:31  5-MIN K79J 200415Z AUTO 00000KT 10SM CLR 27/23 A3016 90 82 1500 000/00 RMK AO2 T02670233
53843K79J 79J20160719232010707/19/16 23:20:31  5-MIN K79J 200420Z AUTO 00000KT 10SM CLR 27/23 A3016 90 82 1500 000/00 RMK AO2 T02670233
53843K79J 79J20160719232510707/19/16 23:25:31  5-MIN K79J 200425Z AUTO 00000KT 10SM CLR 27/23 A3016 90 82 1500 000/00 RMK AO2 T02670233
53843K79J 79J20160719233010707/19/16 23:30:31  5-MIN K79J 200430Z AUTO 00000KT 10SM CLR 27/23 A3016 90 82 1500 000/00 RMK AO2 T02670233
53843K79J 79J20160719233510707/19/16 23:35:31  5-MIN K79J 200435Z AUTO 00000KT 10SM CLR 27/23 A3016 90 82 1500 000/00 RMK AO2 T02670233
53843K79J 79J20160719234010707/19/16 23:40:31  5-MIN K79J 200440Z AUTO 00000KT 10SM CLR 27/23 A3016 90 82 1500 000/00 RMK AO2 T02670233
53843K79J 79J20160719234510707/19/16 23:45:31  5-MIN K79J 200445Z AUTO 00000KT 10SM CLR 26/23 A3016 90 84 1400 000/00 RMK AO2 T02610233
53843K79J 79J20160719235008907/19/16 23:50:31  5-MIN K79J 200450Z AUTO 00000KT M M M 000/00 RMK AO2 SLPNO 403560239 $
53843K79J 79J20160719235511707/19/16 23:55:31  5-MIN K79J 200455Z AUTO 13003KT 26/23 A3016 90 84 1400 130/03 RMK AO2 SLP208 T02610233 403560239 $
53843K79J 79J20160720000010507/20/16 00:00:31  5-MIN K79J 200500Z AUTO 12003KT 10SM 26/23 A3016 90 84 1400 130/03 RMK AO2 T02610233 $
53843K79J 79J20160720000510407/20/16 00:05:31  5-MIN K79J 200505Z AUTO 12003KT 9SM 26/23 A3016 90 84 1400 130/03 RMK AO2 T02610233 $
53843K79J 79J20160720001010507/20/16 00:10:31  5-MIN K79J 200510Z AUTO 00000KT 10SM 26/23 A3017 90 84 1400 000/00 RMK AO2 T02610233 $
53843K79J 79J20160720001510507/20/16 00:15:31  5-MIN K79J 200515Z AUTO 00000KT 10SM 26/23 A3016 90 84 1400 000/00 RMK AO2 T02610233 $
53843K79J 79J20160720002010907/20/16 00:20:31  5-MIN K79J 200520Z AUTO 00000KT 10SM CLR 26/23 A3016 90 84 1400 000/00 RMK AO2 T02610233 $
53843K79J 79J20160720002510907/20/16 00:25:31  5-MIN K79J 200525Z AUTO 00000KT 10SM CLR 26/23 A3016 90 84 1400 000/00 RMK AO2 T02610233 $
53843K79J 79J20160720003010907/20/16 00:30:31  5-MIN K79J 200530Z AUTO 00000KT 10SM CLR 26/23 A3016 90 84 1400 000/00 RMK AO2 T02610233 $
53843K79J 79J20160720003510907/20/16 00:35:31  5-MIN K79J 200535Z AUTO 00000KT 10SM CLR 26/23 A3016 90 84 1400 000/00 RMK AO2 T02610233 $
53843K79J 79J20160720080010007/20/16 08:00:31  5-MIN K79J 201300Z AUTO 00000KT 30/23 A3019 70 67 1800 000/00 RMK AO2 T03000233 $
53843K79J 79J20160720080510507/20/16 08:05:31  5-MIN K79J 201305Z AUTO 00000KT 10SM 31/22 A3019 70 60 1900 000/00 RMK AO2 T03060222 $
53843K79J 79J20160720081010507/20/16 08:10:31  5-MIN K79J 201310Z AUTO 00000KT 10SM 31/23 A3019 70 62 1900 000/00 RMK AO2 T03060228 $
53843K79J 79J20160720081510507/20/16 08:15:31  5-MIN K79J 201315Z AUTO 30003KT 10SM 31/23 A3019 60 60 2000 300/03 RMK AO2 T03110228 $
53843K79J 79J20160720082010507/20/16 08:20:31  5-MIN K79J 201320Z AUTO 30003KT 10SM 31/23 A3019 70 62 1900 300/03 RMK AO2 T03060228 $
53843K79J 79J20160720082510907/20/16 08:25:31  5-MIN K79J 201325Z AUTO 31003KT 10SM CLR 31/23 A3019 70 63 2000 310/03 RMK AO2 T03110233 $
53843K79J 79J20160720083010907/20/16 08:30:31  5-MIN K79J 201330Z AUTO 00000KT 10SM CLR 31/22 A3019 70 58 2000 000/00 RMK AO2 T03110222 $
53843K79J 79J20160720083510907/20/16 08:35:31  5-MIN K79J 201335Z AUTO 00000KT 10SM CLR 32/22 A3019 70 56 2000 000/00 RMK AO2 T03170222 $
53843K79J 79J20160720084010907/20/16 08:40:31  5-MIN K79J 201340Z AUTO 00000KT 10SM CLR 32/22 A3019 60 56 2000 000/00 RMK AO2 T03170222 $
53843K79J 79J20160720084510907/20/16 08:45:31  5-MIN K79J 201345Z AUTO 00000KT 10SM CLR 32/23 A3019 70 57 2100 000/00 RMK AO2 T03220228 $
53843K79J 79J20160720085011607/20/16 08:50:31  5-MIN K79J 201350Z AUTO 00000KT 10SM CLR 32/22 A3019 70 53 2100 000/00 RMK AO2 SLP217 T03220217 $
53843K79J 79J20160720085511607/20/16 08:55:31  5-MIN K79J 201355Z AUTO 00000KT 10SM CLR 32/22 A3019 70 53 2100 000/00 RMK AO2 SLP217 T03220217 $
53843K79J 79J20160720090010907/20/16 09:00:31  5-MIN K79J 201400Z AUTO 00000KT 10SM CLR 33/22 A3019 70 51 2100 000/00 RMK AO2 T03280217 $
53843K79J 79J20160720090510907/20/16 09:05:31  5-MIN K79J 201405Z AUTO 00000KT 10SM CLR 33/22 A3019 70 53 2100 000/00 RMK AO2 T03280222 $
53843K79J 79J20160720091010907/20/16 09:10:31  5-MIN K79J 201410Z AUTO 00000KT 10SM CLR 33/22 A3019 70 53 2100 000/00 RMK AO2 T03280222 $
53843K79J 79J20160720091510707/20/16 09:15:31  5-MIN K79J 201415Z AUTO 00000KT 10SM CLR 33/22 A3019 60 51 2200 000/00 RMK AO2 T03330222
53843K79J 79J20160720092010707/20/16 09:20:31  5-MIN K79J 201420Z AUTO 00000KT 10SM CLR 33/22 A3019 60 53 2100 000/00 RMK AO2 T03280222
53843K79J 79J20160720092510707/20/16 09:25:31  5-MIN K79J 201425Z AUTO 00000KT 10SM CLR 33/23 A3019 60 53 2200 000/00 RMK AO2 T03330228
53843K79J 79J20160720093010707/20/16 09:30:31  5-MIN K79J 201430Z AUTO VRB03KT 10SM CLR 33/23 A3019 60 53 2200 VRB/03 RMK AO2 T03330228
53843K79J 79J20160720093510707/20/16 09:35:31  5-MIN K79J 201435Z AUTO 26003KT 10SM CLR 33/23 A3019 60 53 2200 260/03 RMK AO2 T03330228
53843K79J 79J20160720094010707/20/16 09:40:31  5-MIN K79J 201440Z AUTO 27003KT 10SM CLR 33/23 A3019 60 55 2100 270/03 RMK AO2 T03280228
53843K79J 79J20160720094510707/20/16 09:45:31  5-MIN K79J 201445Z AUTO 31003KT 10SM CLR 33/23 A3019 60 53 2200 310/03 RMK AO2 T03330228
53843K79J 79J20160720095011407/20/16 09:50:31  5-MIN K79J 201450Z AUTO 00000KT 10SM CLR 34/23 A3019 60 53 2300 000/00 RMK AO2 SLP218 T03390233
53843K79J 79J20160720095511407/20/16 09:55:31  5-MIN K79J 201455Z AUTO 00000KT 10SM CLR 33/23 A3019 60 53 2200 000/00 RMK AO2 SLP219 T03330228
53843K79J 79J20160720100010707/20/16 10:00:31  5-MIN K79J 201500Z AUTO VRB05KT 10SM CLR 33/23 A3019 60 55 2200 VRB/05 RMK AO2 T03330233
53843K79J 79J20160720100510707/20/16 10:05:31  5-MIN K79J 201505Z AUTO VRB03KT 10SM CLR 34/23 A3019 60 53 2300 VRB/03 RMK AO2 T03390233
53843K79J 79J20160720101010707/20/16 10:10:31  5-MIN K79J 201510Z AUTO 34005KT 10SM CLR 34/23 A3019 60 53 2300 340/05 RMK AO2 T03390233
53843K79J 79J20160720101510707/20/16 10:15:31  5-MIN K79J 201515Z AUTO VRB03KT 10SM CLR 34/23 A3019 60 53 2300 VRB/03 RMK AO2 T03390233
53843K79J 79J20160720102010707/20/16 10:20:31  5-MIN K79J 201520Z AUTO 32004KT 10SM CLR 34/23 A3020 60 52 2300 320/04 RMK AO2 T03440233
53843K79J 79J20160720102510707/20/16 10:25:31  5-MIN K79J 201525Z AUTO 00000KT 10SM CLR 34/23 A3019 60 51 2300 000/00 RMK AO2 T03390228
53843K79J 79J20160720103010707/20/16 10:30:31  5-MIN K79J 201530Z AUTO 31004KT 10SM CLR 34/23 A3019 60 53 2300 310/04 RMK AO2 T03390233
53843K79J 79J20160720103510707/20/16 10:35:31  5-MIN K79J 201535Z AUTO 34005KT 10SM CLR 34/23 A3019 60 52 2300 340/05 RMK AO2 T03440233
53843K79J 79J20160720104010707/20/16 10:40:31  5-MIN K79J 201540Z AUTO 00000KT 10SM CLR 34/23 A3019 70 52 2300 000/00 RMK AO2 T03440233
53843K79J 79J20160720104510707/20/16 10:45:31  5-MIN K79J 201545Z AUTO VRB03KT 10SM CLR 34/23 A3019 70 52 2300 VRB/03 RMK AO2 T03440233
53843K79J 79J20160720105011407/20/16 10:50:31  5-MIN K79J 201550Z AUTO VRB05KT 10SM CLR 35/23 A3019 70 50 2400 VRB/05 RMK AO2 SLP216 T03500233
53843K79J 79J20160720105511407/20/16 10:55:31  5-MIN K79J 201555Z AUTO 01005KT 10SM CLR 36/24 A3019 70 50 2500 010/05 RMK AO2 SLP216 T03560239
53843K79J 79J20160720110010707/20/16 11:00:31  5-MIN K79J 201600Z AUTO 05004KT 10SM CLR 36/23 A3019 60 48 2500 050/04 RMK AO2 T03560233
53843K79J 79J20160720110510707/20/16 11:05:31  5-MIN K79J 201605Z AUTO 00000KT 10SM CLR 36/23 A3019 70 48 2500 000/00 RMK AO2 T03560233
53843K79J 79J20160720111011007/20/16 11:10:31  5-MIN K79J 201610Z AUTO 00000KT 10SM SCT033 36/23 A3019 70 48 2500 000/00 RMK AO2 T03560233
53843K79J 79J20160720111511007/20/16 11:15:31  5-MIN K79J 201615Z AUTO 36005KT 10SM SCT033 36/24 A3019 70 50 2500 360/05 RMK AO2 T03560239
53843K79J 79J20160720112011007/20/16 11:20:31  5-MIN K79J 201620Z AUTO 35003KT 10SM SCT033 36/23 A3019 70 47 2500 350/03 RMK AO2 T03610233
53843K79J 79J20160720112511707/20/16 11:25:31  5-MIN K79J 201625Z AUTO 30003KT 10SM SCT033 SCT045 36/23 A3019 70 47 2500 300/03 RMK AO2 T03560228
53843K79J 79J20160720113011707/20/16 11:30:31  5-MIN K79J 201630Z AUTO 00000KT 10SM SCT035 BKN043 34/23 A3018 70 50 2300 000/00 RMK AO2 T03440228
53843K79J 79J20160720113511707/20/16 11:35:31  5-MIN K79J 201635Z AUTO 34003KT 10SM BKN035 BKN045 35/23 A3018 70 50 2400 340/03 RMK AO2 T03500233
53843K79J 79J20160720114011707/20/16 11:40:31  5-MIN K79J 201640Z AUTO VRB04KT 10SM SCT037 BKN045 36/24 A3018 70 50 2500 VRB/04 RMK AO2 T03560239
53843K79J 79J20160720114511707/20/16 11:45:31  5-MIN K79J 201645Z AUTO VRB03KT 10SM SCT038 SCT045 36/23 A3018 70 48 2500 VRB/03 RMK AO2 T03560233
53843K79J 79J20160720115012307/20/16 11:50:31  5-MIN K79J 201650Z AUTO 35005KT 10SM BKN038 BKN045 36/23 A3018 70 48 2500 350/05 RMK AO2 SLPNO T03560233
53843K79J 79J20160720115513107/20/16 11:55:31  5-MIN K79J 201655Z AUTO 30003KT 10SM SCT036 BKN045 BKN055 35/23 A3018 70 50 2400 300/03 RMK AO2 SLP213 T03500233
53843K79J 79J20160720120012407/20/16 12:00:31  5-MIN K79J 201700Z AUTO VRB03KT 10SM SCT038 SCT046 SCT055 36/23 A3018 80 48 2500 VRB/03 RMK AO2 T03560233
53843K79J 79J20160720120512407/20/16 12:05:31  5-MIN K79J 201705Z AUTO VRB04KT 10SM SCT038 SCT050 SCT065 36/23 A3018 80 47 2500 VRB/04 RMK AO2 T03560228
53843K79J 79J20160720121012407/20/16 12:10:31  5-MIN K79J 201710Z AUTO 33005KT 10SM SCT038 SCT050 BKN065 34/23 A3017 80 50 2300 330/05 RMK AO2 T03440228
53843K79J 79J20160720121511707/20/16 12:15:31  5-MIN K79J 201715Z AUTO VRB03KT 10SM SCT038 SCT050 34/23 A3017 80 50 2300 VRB/03 RMK AO2 T03440228
53843K79J 79J20160720122012407/20/16 12:20:31  5-MIN K79J 201720Z AUTO 00000KT 10SM FEW038 FEW050 SCT060 36/23 A3017 80 48 2500 000/00 RMK AO2 T03560233
53843K79J 79J20160720122512407/20/16 12:25:31  5-MIN K79J 201725Z AUTO 34005KT 10SM FEW038 FEW050 SCT060 36/23 A3017 80 48 2500 340/05 RMK AO2 T03560233
53843K79J 79J20160720123011707/20/16 12:30:31  5-MIN K79J 201730Z AUTO 32004KT 10SM FEW039 SCT060 37/23 A3017 90 45 2600 330/04 RMK AO2 T03670233
53843K79J 79J20160720123511707/20/16 12:35:31  5-MIN K79J 201735Z AUTO 00000KT 10SM FEW039 BKN060 36/23 A3016 90 48 2500 000/00 RMK AO2 T03560233
53843K79J 79J20160720124011007/20/16 12:40:31  5-MIN K79J 201740Z AUTO 36004KT 10SM BKN055 37/23 A3016 90 45 2600 360/04 RMK AO2 T03670233
53843K79J 79J20160720124511707/20/16 12:45:31  5-MIN K79J 201745Z AUTO VRB03KT 10SM BKN060 BKN075 36/23 A3016 90 47 2500 VRB/03 RMK AO2 T03560228
53843K79J 79J20160720125014307/20/16 12:50:31  5-MIN K79J 201750Z AUTO 00000KT 10SM FEW041 BKN060 BKN075 34/23 A3016 90 50 2400 000/00 RMK AO2 SLP206 T03440228 10367 20244
53843K79J 79J20160720125513707/20/16 12:55:31  5-MIN K79J 201755Z AUTO 01004KT 10SM FEW041 BKN060 35/23 A3015 100 48 2400 010/04 RMK AO2 SLP205 T03500228 10367 20244
53843K79J 79J20160720130011807/20/16 13:00:31  5-MIN K79J 201800Z AUTO VRB03KT 10SM FEW041 BKN055 36/23 A3015 100 47 2500 VRB/03 RMK AO2 T03560228
53843K79J 79J20160720130511807/20/16 13:05:31  5-MIN K79J 201805Z AUTO VRB03KT 10SM FEW041 SCT055 37/23 A3014 110 44 2600 VRB/03 RMK AO2 T03670228
53843K79J 79J20160720131011807/20/16 13:10:31  5-MIN K79J 201810Z AUTO VRB04KT 10SM SCT046 BKN060 37/23 A3014 110 44 2600 VRB/04 RMK AO2 T03670228
53843K79J 79J20160720131511807/20/16 13:15:31  5-MIN K79J 201815Z AUTO 00000KT 10SM SCT046 BKN060 36/23 A3014 110 47 2500 000/00 RMK AO2 T03560228
53843K79J 79J20160720132011807/20/16 13:20:31  5-MIN K79J 201820Z AUTO 00000KT 10SM SCT046 BKN060 36/22 A3014 110 45 2500 000/00 RMK AO2 T03560222
53843K79J 79J20160720132511807/20/16 13:25:31  5-MIN K79J 201825Z AUTO VRB03KT 10SM FEW046 SCT065 37/23 A3014 110 45 2600 VRB/03 RMK AO2 T03670233
53843K79J 79J20160720133011807/20/16 13:30:31  5-MIN K79J 201830Z AUTO 05005KT 10SM FEW046 SCT060 37/23 A3014 110 44 2700 060/05 RMK AO2 T03720233
53843K79J 79J20160720133511807/20/16 13:35:31  5-MIN K79J 201835Z AUTO 00000KT 10SM FEW047 SCT065 37/23 A3014 110 42 2700 000/00 RMK AO2 T03720228
53843K79J 79J20160720134011807/20/16 13:40:31  5-MIN K79J 201840Z AUTO VRB04KT 10SM FEW045 SCT060 37/23 A3013 120 44 2600 VRB/04 RMK AO2 T03670228
53843K79J 79J20160720134511807/20/16 13:45:31  5-MIN K79J 201845Z AUTO VRB04KT 10SM SCT050 SCT065 36/22 A3013 120 44 2600 VRB/04 RMK AO2 T03610222
53843K79J 79J20160720135012507/20/16 13:50:31  5-MIN K79J 201850Z AUTO VRB04KT 10SM SCT047 BKN060 36/22 A3013 120 45 2500 VRB/04 RMK AO2 SLP196 T03560222
53843K79J 79J20160720135512507/20/16 13:55:31  5-MIN K79J 201855Z AUTO VRB04KT 10SM SCT045 BKN060 36/23 A3013 120 47 2500 VRB/04 RMK AO2 SLP196 T03560228
53843K79J 79J20160720140007507/20/16 14:00:31  5-MIN K79J 201900Z AUTO 09003KT 10SM SCT045 BKN060 36/23
53843K79J 79J20160720185511007/20/16 18:55:31  5-MIN K79J 202355Z AUTO 00000KT 31/22 A3009 160 60 2000 000/00 RMK AO2 TSB00E16 T03060222 $
53843K79J 79J20160720190011407/20/16 19:00:31  5-MIN K79J 210000Z AUTO 00000KT 31/23 A3009 160 62 2000 000/00 RMK AO2 TSB2300E2316 T03060228 $
53843K79J 79J20160720190511907/20/16 19:05:31  5-MIN K79J 210005Z AUTO 22003KT 10SM 31/23 A3009 160 62 2000 230/03 RMK AO2 TSB2300E2316 T03060228 $
53843K79J 79J20160720191011907/20/16 19:10:31  5-MIN K79J 210010Z AUTO 24003KT 10SM 30/23 A3009 160 65 2000 240/03 RMK AO2 TSB2300E2316 T03000228 $
53843K79J 79J20160720191511907/20/16 19:15:31  5-MIN K79J 210015Z AUTO 26003KT 10SM 31/23 A3009 150 62 2000 270/03 RMK AO2 TSB2300E2316 T03060228 $
53843K79J 79J20160720192011907/20/16 19:20:31  5-MIN K79J 210020Z AUTO 25003KT 10SM 31/22 A3010 150 58 2100 260/03 RMK AO2 TSB2300E2316 T03110222 $
53843K79J 79J20160720192512607/20/16 19:25:31  5-MIN K79J 210025Z AUTO 28004KT 10SM SCT060 31/22 A3010 150 60 2000 280/04 RMK AO2 TSB2300E2316 T03060222 $
53843K79J 79J20160720193013307/20/16 19:30:31  5-MIN K79J 210030Z AUTO 00000KT 10SM SCT060 BKN080 31/23 A3010 140 62 2000 000/00 RMK AO2 TSB2300E2316 T03060228 $
53843K79J 79J20160720193513307/20/16 19:35:31  5-MIN K79J 210035Z AUTO 00000KT 10SM SCT060 SCT080 30/23 A3011 140 67 1900 000/00 RMK AO2 TSB2300E2316 T03000233 $
53843K79J 79J20160720194013307/20/16 19:40:31  5-MIN K79J 210040Z AUTO 00000KT 10SM SCT060 SCT075 30/23 A3010 140 67 1900 000/00 RMK AO2 TSB2300E2316 T03000233 $
53843K79J 79J20160720194513307/20/16 19:45:31  5-MIN K79J 210045Z AUTO 00000KT 10SM SCT060 SCT075 30/23 A3010 140 67 1900 000/00 RMK AO2 TSB2300E2316 T03000233 $
53843K79J 79J20160720195013307/20/16 19:50:31  5-MIN K79J 210050Z AUTO 00000KT 10SM FEW065 29/24 A3010 140 71 1900 000/00 RMK AO2 TSB2300E2316 SLP188 T02940239 $
53843K79J 79J20160720195513207/20/16 19:55:31  5-MIN K79J 210055Z AUTO 00000KT 10SM FEW065 29/24 A3010 150 71 1900 000/00 RMK AO2 TSB2300E2316 SLPNO T02940239 $
53843K79J 79J20160720200011007/20/16 20:00:31  5-MIN K79J 210100Z AUTO 00000KT 10SM CLR 29/24 A3009 150 71 1900 000/00 RMK AO2 T02940239 $
53843K79J 79J20160720200511007/20/16 20:05:31  5-MIN K79J 210105Z AUTO 00000KT 10SM CLR 29/24 A3009 150 71 1900 000/00 RMK AO2 T02940239 $
53843K79J 79J20160720201011007/20/16 20:10:31  5-MIN K79J 210110Z AUTO 00000KT 10SM CLR 29/24 A3009 150 71 1900 000/00 RMK AO2 T02940239 $
53843K79J 79J20160720201511007/20/16 20:15:31  5-MIN K79J 210115Z AUTO 00000KT 10SM CLR 29/24 A3010 140 71 1900 000/00 RMK AO2 T02940239 $
53843K79J 79J20160720202011907/20/16 20:20:31  5-MIN K79J 210120Z AUTO 00000KT 10SM TS CLR 29/24 A3011 140 74 1800 000/00 RMK AO2 TSB19 T02890239 $
53843K79J 79J20160720202511907/20/16 20:25:31  5-MIN K79J 210125Z AUTO 00000KT 10SM TS CLR 28/24 A3011 140 76 1700 000/00 RMK AO2 TSB19 T02830239 $
53843K79J 79J20160720203011907/20/16 20:30:31  5-MIN K79J 210130Z AUTO 15004KT 10SM TS CLR 28/24 A3012 130 76 1700 150/04 RMK AO2 TSB19 T02830239 $
53843K79J 79J20160720203512907/20/16 20:35:31  5-MIN K79J 210135Z AUTO 15007KT 10SM TS FEW050 28/24 A3013 120 76 1700 150/07 RMK AO2 TSB19 PRESRR T02830239 $
53843K79J 79J20160720204012907/20/16 20:40:31  5-MIN K79J 210140Z AUTO 16008KT 10SM TS SCT050 29/24 A3014 110 74 1800 160/08 RMK AO2 TSB19 PRESRR T02890239 $
53843K79J 79J20160720204513807/20/16 20:45:31  5-MIN K79J 210145Z AUTO 15009G14KT 10SM TS BKN048 29/24 A3014 110 71 1800 150/09G14 RMK AO2 TSB19B42 PRESRR T02940239 $
53843K79J 79J20160720205016107/20/16 20:50:31  5-MIN K79J 210150Z AUTO 15008G15KT 120V190 10SM TS BKN048 BKN080 29/23 A3014 110 69 1800 150/08G15 120V190 RMK AO2 TSB19B42 SLP201 T02940233 $
53843K79J 79J20160720205514507/20/16 20:55:31  5-MIN K79J 210155Z AUTO 16007G15KT 10SM TS SCT048 BKN080 29/23 A3014 110 67 1800 160/07G15 RMK AO2 TSB19B42 SLP202 T02940228 $
53843K79J 79J20160720210012307/20/16 21:00:31  5-MIN K79J 210200Z AUTO 18007KT 10SM TS BKN048 BKN080 29/22 A3014 110 64 1800 180/07 RMK AO2 T02940222 $
53843K79J 79J20160720210514607/20/16 21:05:31  5-MIN K79J 210205Z AUTO 17007KT 130V190 10SM TS BKN048 BKN055 BKN080 29/22 A3014 110 62 1800 170/07 130V190 RMK AO2 T02940217 $
53843K79J 79J20160720211014607/20/16 21:10:31  5-MIN K79J 210210Z AUTO 19007KT 160V220 10SM TS SCT048 SCT055 BKN080 29/20 A3014 110 58 1800 190/07 160V220 RMK AO2 T02890200 $
53843K79J 79J20160720211512307/20/16 21:15:31  5-MIN K79J 210215Z AUTO VRB06KT 10SM TS FEW050 SCT080 29/19 A3013 120 54 1800 VRB/06 RMK AO2 T02890189 $
53843K79J 79J20160720212011907/20/16 21:20:31  5-MIN K79J 210220Z AUTO VRB04KT 10SM FEW050 29/19 A3013 120 54 1800 VRB/04 RMK AO2 TSE18 T02890189 $
53843K79J 79J20160720212511907/20/16 21:25:31  5-MIN K79J 210225Z AUTO 16003KT 10SM FEW050 28/19 A3013 120 56 1700 160/03 RMK AO2 TSE18 T02830189 $
53843K79J 79J20160720213011607/20/16 21:30:31  5-MIN K79J 210230Z AUTO 00000KT 10SM CLR 28/19 A3013 120 56 1700 000/00 RMK AO2 TSE18 T02830189 $
53843K79J 79J20160720213511607/20/16 21:35:31  5-MIN K79J 210235Z AUTO VRB03KT 10SM CLR 28/19 A3013 120 56 1700 VRB/03 RMK AO2 TSE18 T02830189 $
53843K79J 79J20160720214011607/20/16 21:40:31  5-MIN K79J 210240Z AUTO 13004KT 10SM CLR 28/19 A3013 120 56 1700 130/04 RMK AO2 TSE18 T02830189 $
53843K79J 79J20160720214511607/20/16 21:45:31  5-MIN K79J 210245Z AUTO 20003KT 10SM CLR 28/19 A3013 120 58 1700 200/03 RMK AO2 TSE18 T02780189 $
53843K79J 79J20160720215012307/20/16 21:50:31  5-MIN K79J 210250Z AUTO 21003KT 10SM CLR 28/19 A3013 120 56 1700 220/03 RMK AO2 TSE18 SLP196 T02830189 $
53843K79J 79J20160720215512607/20/16 21:55:31  5-MIN K79J 210255Z AUTO 17003KT 10SM FEW050 28/19 A3013 120 56 1700 170/03 RMK AO2 TSE18 SLP196 T02830189 $
53843K79J 79J20160720220011307/20/16 22:00:31  5-MIN K79J 210300Z AUTO 00000KT 10SM FEW050 28/19 A3013 120 58 1700 000/00 RMK AO2 T02780189 $
53843K79J 79J20160720220512207/20/16 22:05:31  5-MIN K79J 210305Z AUTO 00000KT 10SM TS FEW050 28/19 A3014 110 58 1600 000/00 RMK AO2 TSB02 T02780189 $
53843K79J 79J20160720221012207/20/16 22:10:31  5-MIN K79J 210310Z AUTO 24003KT 10SM TS FEW050 28/19 A3014 110 60 1600 240/03 RMK AO2 TSB02 T02780194 $
53843K79J 79J20160720221512507/20/16 22:15:31  5-MIN K79J 210315Z AUTO 00000KT 10SM TS FEW055 28/19 A3014 110 60 1700 000/00 RMK AO2 TSB02B14 T02780194 $
53843K79J 79J20160720222012507/20/16 22:20:31  5-MIN K79J 210320Z AUTO 10003KT 10SM TS SCT055 28/19 A3013 120 60 1700 100/03 RMK AO2 TSB02B14 T02780194 $
53843K79J 79J20160720222512507/20/16 22:25:31  5-MIN K79J 210325Z AUTO 10006KT 10SM TS SCT060 28/19 A3014 110 60 1600 110/06 RMK AO2 TSB02B14 T02780194 $
53843K79J 79J20160720223012507/20/16 22:30:31  5-MIN K79J 210330Z AUTO 00000KT 10SM SCT055 28/19 A3014 110 58 1600 000/00 RMK AO2 TSB02B14E29 T02780189 $
53843K79J 79J20160720223512507/20/16 22:35:31  5-MIN K79J 210335Z AUTO 10007KT 10SM BKN055 28/19 A3014 110 60 1600 100/07 RMK AO2 TSB02B14E29 T02780194 $
53843K79J 79J20160720224012507/20/16 22:40:31  5-MIN K79J 210340Z AUTO VRB03KT 10SM BKN055 27/19 A3014 110 60 1600 VRB/03 RMK AO2 TSB02B14E29 T02720189 $
53843K79J 79J20160720224512507/20/16 22:45:31  5-MIN K79J 210345Z AUTO 23003KT 10SM BKN055 28/19 A3014 110 60 1600 230/03 RMK AO2 TSB02B14E29 T02780194 $
53843K79J 79J20160720225013207/20/16 22:50:31  5-MIN K79J 210350Z AUTO 14003KT 10SM BKN050 28/19 A3014 110 60 1600 140/03 RMK AO2 TSB02B14E29 SLP200 T02780194 $
53843K79J 79J20160720225513207/20/16 22:55:31  5-MIN K79J 210355Z AUTO 00000KT 10SM BKN050 27/19 A3014 110 62 1600 000/00 RMK AO2 TSB02B14E29 SLP200 T02720194 $
53843K79J 79J20160720230011307/20/16 23:00:31  5-MIN K79J 210400Z AUTO 21004KT 10SM BKN050 27/20 A3014 110 64 1600 210/04 RMK AO2 T02720200 $
53843K79J 79J20160720230511307/20/16 23:05:31  5-MIN K79J 210405Z AUTO 00000KT 10SM BKN050 27/20 A3014 110 64 1600 000/00 RMK AO2 T02720200 $
53843K79J 79J20160720231011307/20/16 23:10:31  5-MIN K79J 210410Z AUTO 00000KT 10SM BKN050 28/20 A3014 110 62 1600 000/00 RMK AO2 T02780200 $
53843K79J 79J20160720231512007/20/16 23:15:31  5-MIN K79J 210415Z AUTO 00000KT 10SM BKN050 BKN060 27/20 A3014 110 64 1600 000/00 RMK AO2 T02720200 $
53843K79J 79J20160720232012007/20/16 23:20:31  5-MIN K79J 210420Z AUTO 00000KT 10SM SCT050 SCT060 27/21 A3013 120 66 1600 000/00 RMK AO2 T02720206 $
53843K79J 79J20160720232511307/20/16 23:25:31  5-MIN K79J 210425Z AUTO 00000KT 10SM BKN049 27/21 A3014 110 66 1600 000/00 RMK AO2 T02720206 $
53843K79J 79J20160720233012007/20/16 23:30:31  5-MIN K79J 210430Z AUTO 19003KT 10SM BKN049 BKN065 27/21 A3014 110 69 1500 190/03 RMK AO2 T02670206 $
53843K79J 79J20160720233512007/20/16 23:35:31  5-MIN K79J 210435Z AUTO 15003KT 10SM SCT049 BKN060 27/21 A3014 110 69 1500 150/03 RMK AO2 T02670206 $
53843K79J 79J20160720234012007/20/16 23:40:31  5-MIN K79J 210440Z AUTO 10003KT 10SM SCT049 BKN060 27/21 A3014 110 69 1500 100/03 RMK AO2 T02670206 $
53843K79J 79J20160720234512007/20/16 23:45:31  5-MIN K79J 210445Z AUTO 11003KT 10SM SCT049 BKN070 27/21 A3014 110 71 1500 110/03 RMK AO2 T02670211 $
53843K79J 79J20160720235013707/20/16 23:50:31  5-MIN K79J 210450Z AUTO 00000KT 10SM SCT049 BKN060 27/21 A3014 110 69 1500 000/00 RMK AO2 SLP200 T02670206 403780244 $
53843K79J 79J20160720235513707/20/16 23:55:31  5-MIN K79J 210455Z AUTO 00000KT 10SM BKN049 BKN065 27/21 A3014 110 69 1600 000/00 RMK AO2 SLP201 T02720211 403780244 $
53843K79J 79J20160721000012007/21/16 00:00:31  5-MIN K79J 210500Z AUTO 08003KT 10SM BKN050 BKN070 27/21 A3014 110 71 1500 080/03 RMK AO2 T02670211 $
53843K79J 79J20160721000512007/21/16 00:05:31  5-MIN K79J 210505Z AUTO 00000KT 10SM BKN050 OVC070 27/21 A3014 110 71 1500 000/00 RMK AO2 T02670211 $
53843K79J 79J20160721001012007/21/16 00:10:31  5-MIN K79J 210510Z AUTO 00000KT 10SM BKN050 BKN070 27/21 A3013 120 71 1500 000/00 RMK AO2 T02670211 $
53843K79J 79J20160721001511307/21/16 00:15:31  5-MIN K79J 210515Z AUTO 00000KT 10SM BKN050 26/21 A3013 120 73 1500 000/00 RMK AO2 T02610211 $
53843K79J 79J20160721002011307/21/16 00:20:31  5-MIN K79J 210520Z AUTO 12003KT 10SM SCT050 26/21 A3013 120 73 1500 120/03 RMK AO2 T02610211 $
53843K79J 79J20160721002511307/21/16 00:25:31  5-MIN K79J 210525Z AUTO 09003KT 10SM FEW050 26/21 A3013 120 73 1500 090/03 RMK AO2 T02610211 $
53843K79J 79J20160721003011307/21/16 00:30:31  5-MIN K79J 210530Z AUTO 00000KT 10SM FEW050 26/21 A3013 120 73 1500 000/00 RMK AO2 T02610211 $
53843K79J 79J20160721003511007/21/16 00:35:31  5-MIN K79J 210535Z AUTO 00000KT 10SM CLR 26/21 A3013 120 73 1500 000/00 RMK AO2 T02610211 $
53843K79J 79J20160721004011007/21/16 00:40:31  5-MIN K79J 210540Z AUTO 00000KT 10SM CLR 27/21 A3012 130 71 1500 000/00 RMK AO2 T02670211 $
53843K79J 79J20160721004511007/21/16 00:45:31  5-MIN K79J 210545Z AUTO 00000KT 10SM CLR 27/21 A3012 130 71 1500 000/00 RMK AO2 T02670211 $
53843K79J 79J20160721005012907/21/16 00:50:31  5-MIN K79J 210550Z AUTO 00000KT 10SM CLR 26/21 A3012 130 73 1500 000/00 RMK AO2 SLP193 T02610211 10311 20261 $
53843K79J 79J20160721005512907/21/16 00:55:31  5-MIN K79J 210555Z AUTO 00000KT 10SM CLR 26/21 A3012 130 76 1400 000/00 RMK AO2 SLP193 T02560211 10311 20256 $
53843K79J 79J20160721010011007/21/16 01:00:31  5-MIN K79J 210600Z AUTO 00000KT 10SM CLR 26/21 A3012 130 76 1400 000/00 RMK AO2 T02560211 $
53843K79J 79J20160721010511007/21/16 01:05:31  5-MIN K79J 210605Z AUTO 00000KT 10SM CLR 26/22 A3011 130 76 1500 000/00 RMK AO2 T02610217 $
53843K79J 79J20160721011011007/21/16 01:10:31  5-MIN K79J 210610Z AUTO 00000KT 10SM CLR 26/22 A3011 140 76 1500 000/00 RMK AO2 T02610217 $
53843K79J 79J20160721011511007/21/16 01:15:31  5-MIN K79J 210615Z AUTO 00000KT 10SM CLR 26/22 A3011 140 76 1500 000/00 RMK AO2 T02610217 $
53843K79J 79J20160721012011007/21/16 01:20:31  5-MIN K79J 210620Z AUTO 00000KT 10SM CLR 26/22 A3011 140 79 1400 000/00 RMK AO2 T02560217 $
53843K79J 79J20160721012511007/21/16 01:25:31  5-MIN K79J 210625Z AUTO 00000KT 10SM CLR 26/22 A3010 150 79 1400 000/00 RMK AO2 T02560217 $
53843K79J 79J20160721013011007/21/16 01:30:31  5-MIN K79J 210630Z AUTO 00000KT 10SM CLR 26/22 A3010 150 79 1400 000/00 RMK AO2 T02560217 $
53843K79J 79J20160721013511007/21/16 01:35:31  5-MIN K79J 210635Z AUTO 29003KT 10SM CLR 26/22 A3009 150 76 1500 290/03 RMK AO2 T02610217 $
53843K79J 79J20160721014011007/21/16 01:40:31  5-MIN K79J 210640Z AUTO 25003KT 10SM CLR 26/22 A3009 150 76 1500 250/03 RMK AO2 T02610217 $
53843K79J 79J20160721014511007/21/16 01:45:31  5-MIN K79J 210645Z AUTO 00000KT 10SM CLR 26/22 A3010 150 76 1500 000/00 RMK AO2 T02610217 $
53843K79J 79J20160721015011707/21/16 01:50:31  5-MIN K79J 210650Z AUTO 00000KT 10SM CLR 26/22 A3009 150 79 1400 000/00 RMK AO2 SLP184 T02560217 $
53843K79J 79J20160721015511707/21/16 01:55:31  5-MIN K79J 210655Z AUTO 00000KT 10SM CLR 26/22 A3009 150 79 1500 000/00 RMK AO2 SLP184 T02560217 $
53843K79J 79J20160721020011007/21/16 02:00:31  5-MIN K79J 210700Z AUTO 00000KT 10SM CLR 26/22 A3009 160 79 1500 000/00 RMK AO2 T02560217 $
53843K79J 79J20160721020511007/21/16 02:05:31  5-MIN K79J 210705Z AUTO 00000KT 10SM CLR 26/22 A3009 160 79 1500 000/00 RMK AO2 T02560217 $
53843K79J 79J20160721021011007/21/16 02:10:31  5-MIN K79J 210710Z AUTO 00000KT 10SM CLR 26/22 A3009 160 79 1500 000/00 RMK AO2 T02560217 $
53843K79J 79J20160721021511007/21/16 02:15:31  5-MIN K79J 210715Z AUTO 00000KT 10SM CLR 26/22 A3009 160 79 1500 000/00 RMK AO2 T02560217 $
53843K79J 79J20160721022011007/21/16 02:20:31  5-MIN K79J 210720Z AUTO 00000KT 10SM CLR 26/22 A3009 160 79 1500 000/00 RMK AO2 T02560217 $
53843K79J 79J20160721022511007/21/16 02:25:31  5-MIN K79J 210725Z AUTO 00000KT 10SM CLR 26/22 A3009 160 79 1500 000/00 RMK AO2 T02560217 $
53843K79J 79J20160721023011007/21/16 02:30:31  5-MIN K79J 210730Z AUTO 00000KT 10SM CLR 26/22 A3009 160 79 1500 000/00 RMK AO2 T02560217 $
53843K79J 79J20160721023511007/21/16 02:35:31  5-MIN K79J 210735Z AUTO 00000KT 10SM CLR 26/22 A3008 160 79 1500 000/00 RMK AO2 T02560217 $
53843K79J 79J20160721024011007/21/16 02:40:31  5-MIN K79J 210740Z AUTO 00000KT 10SM CLR 26/22 A3008 160 79 1500 000/00 RMK AO2 T02560217 $
53843K79J 79J20160721024511007/21/16 02:45:31  5-MIN K79J 210745Z AUTO 27003KT 10SM CLR 26/22 A3009 160 79 1500 270/03 RMK AO2 T02560217 $
53843K79J 79J20160721025011707/21/16 02:50:31  5-MIN K79J 210750Z AUTO 26003KT 10SM CLR 26/22 A3008 160 76 1500 260/03 RMK AO2 SLP181 T02610217 $
53843K79J 79J20160721025511707/21/16 02:55:31  5-MIN K79J 210755Z AUTO 00000KT 10SM CLR 26/22 A3008 160 76 1500 000/00 RMK AO2 SLP180 T02610217 $
53843K79J 79J20160721030011007/21/16 03:00:31  5-MIN K79J 210800Z AUTO 00000KT 10SM CLR 26/22 A3008 160 79 1500 000/00 RMK AO2 T02560217 $
53843K79J 79J20160721030511007/21/16 03:05:31  5-MIN K79J 210805Z AUTO 06003KT 10SM CLR 26/22 A3008 160 79 1500 060/03 RMK AO2 T02560217 $
53843K79J 79J20160721031011007/21/16 03:10:31  5-MIN K79J 210810Z AUTO 08005KT 10SM CLR 25/22 A3009 160 81 1400 080/05 RMK AO2 T02500217 $
53843K79J 79J20160721031511007/21/16 03:15:31  5-MIN K79J 210815Z AUTO 09004KT 10SM CLR 25/22 A3009 150 81 1400 090/04 RMK AO2 T02500217 $
53843K79J 79J20160721032011007/21/16 03:20:31  5-MIN K79J 210820Z AUTO 10003KT 10SM CLR 25/22 A3009 150 81 1400 100/03 RMK AO2 T02500217 $
53843K79J 79J20160721032511007/21/16 03:25:31  5-MIN K79J 210825Z AUTO 11003KT 10SM CLR 25/22 A3009 150 81 1400 110/03 RMK AO2 T02500217 $
53843K79J 79J20160721033011007/21/16 03:30:31  5-MIN K79J 210830Z AUTO 00000KT 10SM CLR 25/22 A3009 160 81 1400 000/00 RMK AO2 T02500217 $
53843K79J 79J20160721033511007/21/16 03:35:31  5-MIN K79J 210835Z AUTO 12003KT 10SM CLR 25/21 A3009 160 79 1400 130/03 RMK AO2 T02500211 $
53843K79J 79J20160721034011007/21/16 03:40:31  5-MIN K79J 210840Z AUTO 14003KT 10SM CLR 25/22 A3008 160 81 1400 140/03 RMK AO2 T02500217 $
53843K79J 79J20160721034511007/21/16 03:45:31  5-MIN K79J 210845Z AUTO 10003KT 10SM CLR 25/22 A3008 160 81 1400 100/03 RMK AO2 T02500217 $
53843K79J 79J20160721035012307/21/16 03:50:31  5-MIN K79J 210850Z AUTO 00000KT 10SM CLR 25/22 A3008 160 81 1400 000/00 RMK AO2 SLP181 T02500217 58003 $
53843K79J 79J20160721035512307/21/16 03:55:31  5-MIN K79J 210855Z AUTO 00000KT 10SM CLR 25/22 A3008 160 81 1400 000/00 RMK AO2 SLP181 T02500217 58003 $
53843K79J 79J20160721040011007/21/16 04:00:31  5-MIN K79J 210900Z AUTO 00000KT 10SM CLR 25/22 A3008 160 81 1400 000/00 RMK AO2 T02500217 $
53843K79J 79J20160721040511007/21/16 04:05:31  5-MIN K79J 210905Z AUTO 12003KT 10SM CLR 24/22 A3009 160 84 1300 120/03 RMK AO2 T02440217 $
53843K79J 79J20160721041011007/21/16 04:10:31  5-MIN K79J 210910Z AUTO 14003KT 10SM CLR 24/22 A3009 160 84 1300 140/03 RMK AO2 T02440217 $
53843K79J 79J20160721041511007/21/16 04:15:31  5-MIN K79J 210915Z AUTO 00000KT 10SM CLR 24/22 A3009 160 84 1300 000/00 RMK AO2 T02440217 $
53843K79J 79J20160721042011007/21/16 04:20:31  5-MIN K79J 210920Z AUTO 00000KT 10SM CLR 24/22 A3009 150 84 1300 000/00 RMK AO2 T02440217 $
53843K79J 79J20160721042511007/21/16 04:25:31  5-MIN K79J 210925Z AUTO 00000KT 10SM CLR 25/22 A3010 150 81 1400 000/00 RMK AO2 T02500217 $
53843K79J 79J20160721043011007/21/16 04:30:31  5-MIN K79J 210930Z AUTO 00000KT 10SM CLR 25/22 A3010 150 81 1400 000/00 RMK AO2 T02500217 $
53843K79J 79J20160721043511007/21/16 04:35:31  5-MIN K79J 210935Z AUTO 00000KT 10SM CLR 25/22 A3009 150 81 1400 000/00 RMK AO2 T02500217 $
53843K79J 79J20160721044011007/21/16 04:40:31  5-MIN K79J 210940Z AUTO 00000KT 10SM CLR 25/22 A3009 150 81 1400 000/00 RMK AO2 T02500217 $
53843K79J 79J20160721044511007/21/16 04:45:31  5-MIN K79J 210945Z AUTO 00000KT 10SM CLR 25/22 A3009 150 81 1400 000/00 RMK AO2 T02500217 $
53843K79J 79J20160721045011707/21/16 04:50:31  5-MIN K79J 210950Z AUTO 00000KT 10SM CLR 25/22 A3010 150 81 1400 000/00 RMK AO2 SLP185 T02500217 $
53843K79J 79J20160721045511707/21/16 04:55:31  5-MIN K79J 210955Z AUTO 00000KT 10SM CLR 25/22 A3009 150 81 1400 000/00 RMK AO2 SLP184 T02500217 $
53843K79J 79J20160721050011007/21/16 05:00:31  5-MIN K79J 211000Z AUTO 00000KT 10SM CLR 25/22 A3010 150 81 1400 000/00 RMK AO2 T02500217 $
53843K79J 79J20160721050511007/21/16 05:05:31  5-MIN K79J 211005Z AUTO 00000KT 10SM CLR 25/22 A3010 150 81 1400 000/00 RMK AO2 T02500217 $
53843K79J 79J20160721051011007/21/16 05:10:31  5-MIN K79J 211010Z AUTO 00000KT 10SM CLR 25/22 A3010 150 81 1400 000/00 RMK AO2 T02500217 $
53843K79J 79J20160721051511007/21/16 05:15:31  5-MIN K79J 211015Z AUTO 00000KT 10SM CLR 25/22 A3010 150 81 1400 000/00 RMK AO2 T02500217 $
53843K79J 79J20160721052011007/21/16 05:20:31  5-MIN K79J 211020Z AUTO 00000KT 10SM CLR 25/22 A3010 150 81 1400 000/00 RMK AO2 T02500217 $
53843K79J 79J20160721052511007/21/16 05:25:31  5-MIN K79J 211025Z AUTO 00000KT 10SM CLR 25/22 A3010 150 81 1400 000/00 RMK AO2 T02500217 $
53843K79J 79J20160721053011007/21/16 05:30:31  5-MIN K79J 211030Z AUTO 00000KT 10SM CLR 25/22 A3010 150 81 1400 000/00 RMK AO2 T02500217 $
53843K79J 79J20160721053511007/21/16 05:35:31  5-MIN K79J 211035Z AUTO 00000KT 10SM CLR 25/22 A3010 140 81 1400 000/00 RMK AO2 T02500217 $
53843K79J 79J20160721054011007/21/16 05:40:31  5-MIN K79J 211040Z AUTO 00000KT 10SM CLR 25/22 A3010 140 81 1400 000/00 RMK AO2 T02500217 $
53843K79J 79J20160721054511007/21/16 05:45:31  5-MIN K79J 211045Z AUTO 00000KT 10SM CLR 25/22 A3010 140 81 1400 000/00 RMK AO2 T02500217 $
53843K79J 79J20160721055011707/21/16 05:50:31  5-MIN K79J 211050Z AUTO 28003KT 10SM CLR 25/22 A3010 150 81 1400 280/03 RMK AO2 SLP188 T02500217 $
53843K79J 79J20160721055511707/21/16 05:55:31  5-MIN K79J 211055Z AUTO 00000KT 10SM CLR 25/22 A3010 150 81 1400 000/00 RMK AO2 SLP188 T02500217 $
53843K79J 79J20160721060011007/21/16 06:00:31  5-MIN K79J 211100Z AUTO 00000KT 10SM CLR 25/22 A3010 150 81 1400 000/00 RMK AO2 T02500217 $
53843K79J 79J20160721060511007/21/16 06:05:31  5-MIN K79J 211105Z AUTO 00000KT 10SM CLR 25/22 A3010 150 81 1400 000/00 RMK AO2 T02500217 $
53843K79J 79J20160721061011007/21/16 06:10:31  5-MIN K79J 211110Z AUTO 00000KT 10SM CLR 25/22 A3010 140 81 1400 000/00 RMK AO2 T02500217 $
53843K79J 79J20160721061511007/21/16 06:15:31  5-MIN K79J 211115Z AUTO 00000KT 10SM CLR 25/22 A3010 140 81 1400 000/00 RMK AO2 T02500217 $
53843K79J 79J20160721062011007/21/16 06:20:31  5-MIN K79J 211120Z AUTO 00000KT 10SM CLR 25/22 A3011 140 81 1400 000/00 RMK AO2 T02500217 $
53843K79J 79J20160721062511007/21/16 06:25:31  5-MIN K79J 211125Z AUTO 09003KT 10SM CLR 25/22 A3011 140 81 1400 100/03 RMK AO2 T02500217 $
53843K79J 79J20160721063011007/21/16 06:30:31  5-MIN K79J 211130Z AUTO 00000KT 10SM CLR 25/22 A3012 130 81 1400 000/00 RMK AO2 T02500217 $
53843K79J 79J20160721063511007/21/16 06:35:31  5-MIN K79J 211135Z AUTO 00000KT 10SM CLR 25/22 A3012 130 84 1400 000/00 RMK AO2 T02500222 $
53843K79J 79J20160721064011007/21/16 06:40:31  5-MIN K79J 211140Z AUTO 00000KT 10SM CLR 25/22 A3012 130 84 1400 000/00 RMK AO2 T02500222 $
53843K79J 79J20160721064511007/21/16 06:45:31  5-MIN K79J 211145Z AUTO 00000KT 10SM CLR 26/22 A3013 120 81 1400 000/00 RMK AO2 T02560222 $
53843K79J 79J20160721065013507/21/16 06:50:31  5-MIN K79J 211150Z AUTO 00000KT 10SM CLR 26/22 A3013 120 81 1400 000/00 RMK AO2 SLP196 T02560222 10261 20244 55012 $
53843K79J 79J20160722015511807/22/16 01:55:31  5-MIN K79J 220655Z AUTO 12005KT 10SM BKN060 24/22 A3011 140 87 1300 120/05 RMK AO2 SLP189 T02440222
53843K79J 79J20160722020011107/22/16 02:00:31  5-MIN K79J 220700Z AUTO 13003KT 10SM BKN060 24/22 A3011 140 87 1300 130/03 RMK AO2 T02440222
53843K79J 79J20160722020511107/22/16 02:05:31  5-MIN K79J 220705Z AUTO 12003KT 10SM BKN060 24/22 A3011 140 87 1300 120/03 RMK AO2 T02440222
53843K79J 79J20160722021011107/22/16 02:10:31  5-MIN K79J 220710Z AUTO 12003KT 10SM BKN060 24/22 A3010 150 87 1300 120/03 RMK AO2 T02440222
53843K79J 79J20160722021511107/22/16 02:15:31  5-MIN K79J 220715Z AUTO 13003KT 10SM BKN060 24/22 A3009 150 87 1300 130/03 RMK AO2 T02440222
53843K79J 79J20160722022011107/22/16 02:20:31  5-MIN K79J 220720Z AUTO 00000KT 10SM BKN060 24/22 A3009 160 87 1300 000/00 RMK AO2 T02440222
53843K79J 79J20160722022511107/22/16 02:25:31  5-MIN K79J 220725Z AUTO 00000KT 10SM SCT060 24/22 A3008 160 84 1300 000/00 RMK AO2 T02440217
53843K79J 79J20160722023011107/22/16 02:30:31  5-MIN K79J 220730Z AUTO 00000KT 10SM SCT060 24/22 A3008 160 84 1300 000/00 RMK AO2 T02440217
53843K79J 79J20160722023511107/22/16 02:35:31  5-MIN K79J 220735Z AUTO 00000KT 10SM SCT065 24/22 A3008 160 87 1300 000/00 RMK AO2 T02440222
53843K79J 79J20160722024011107/22/16 02:40:31  5-MIN K79J 220740Z AUTO 00000KT 10SM SCT060 24/22 A3008 160 87 1300 000/00 RMK AO2 T02440222
53843K79J 79J20160722024511107/22/16 02:45:31  5-MIN K79J 220745Z AUTO 00000KT 10SM SCT060 25/22 A3008 170 84 1400 000/00 RMK AO2 T02500222
53843K79J 79J20160722025011807/22/16 02:50:31  5-MIN K79J 220750Z AUTO 00000KT 10SM BKN065 25/22 A3008 170 84 1400 000/00 RMK AO2 SLP180 T02500222
53843K79J 79J20160722025511807/22/16 02:55:31  5-MIN K79J 220755Z AUTO 00000KT 10SM BKN070 25/22 A3008 170 84 1400 000/00 RMK AO2 SLP179 T02500222
53843K79J 79J20160722030011807/22/16 03:00:31  5-MIN K79J 220800Z AUTO 00000KT 10SM BKN065 BKN075 25/22 A3008 170 81 1400 000/00 RMK AO2 T02500217
53843K79J 79J20160722030511107/22/16 03:05:31  5-MIN K79J 220805Z AUTO 12003KT 10SM BKN065 24/22 A3008 170 87 1300 120/03 RMK AO2 T02440222
53843K79J 79J20160722031011107/22/16 03:10:31  5-MIN K79J 220810Z AUTO 00000KT 10SM BKN065 24/22 A3008 170 87 1300 000/00 RMK AO2 T02440222
53843K79J 79J20160722031511107/22/16 03:15:31  5-MIN K79J 220815Z AUTO 00000KT 10SM SCT070 24/22 A3007 170 87 1300 000/00 RMK AO2 T02440222
53843K79J 79J20160722032011107/22/16 03:20:31  5-MIN K79J 220820Z AUTO 00000KT 10SM FEW065 24/22 A3007 170 87 1300 000/00 RMK AO2 T02440222
53843K79J 79J20160722032511107/22/16 03:25:31  5-MIN K79J 220825Z AUTO 00000KT 10SM FEW065 24/22 A3007 170 87 1300 000/00 RMK AO2 T02440222
53843K79J 79J20160722033011107/22/16 03:30:31  5-MIN K79J 220830Z AUTO 00000KT 10SM FEW060 25/22 A3007 170 81 1400 000/00 RMK AO2 T02500217
53843K79J 79J20160722033510807/22/16 03:35:31  5-MIN K79J 220835Z AUTO 00000KT 10SM CLR 25/22 A3008 170 81 1400 000/00 RMK AO2 T02500217
53843K79J 79J20160722034010807/22/16 03:40:31  5-MIN K79J 220840Z AUTO 00000KT 10SM CLR 25/22 A3008 170 84 1400 000/00 RMK AO2 T02500222
53843K79J 79J20160722034511107/22/16 03:45:31  5-MIN K79J 220845Z AUTO 00000KT 10SM FEW065 25/22 A3008 170 84 1400 000/00 RMK AO2 T02500222
53843K79J 79J20160722035013107/22/16 03:50:31  5-MIN K79J 220850Z AUTO 00000KT 10SM SCT060 SCT070 25/22 A3008 160 84 1400 000/00 RMK AO2 SLP181 T02500222 53001
53843K79J 79J20160722035512407/22/16 03:55:31  5-MIN K79J 220855Z AUTO 00000KT 10SM BKN065 25/22 A3008 160 84 1400 000/00 RMK AO2 SLP182 T02500222 53001
53843K79J 79J20160722040011107/22/16 04:00:31  5-MIN K79J 220900Z AUTO 06003KT 10SM BKN065 25/22 A3008 160 84 1400 070/03 RMK AO2 T02500222
53843K79J 79J20160722040511107/22/16 04:05:31  5-MIN K79J 220905Z AUTO 06003KT 10SM BKN065 25/22 A3009 160 84 1400 060/03 RMK AO2 T02500222
53843K79J 79J20160722041011107/22/16 04:10:31  5-MIN K79J 220910Z AUTO 00000KT 10SM BKN065 25/22 A3008 160 84 1400 000/00 RMK AO2 T02500222
53843K79J 79J20160722041512507/22/16 04:15:31  5-MIN K79J 220915Z AUTO 11004KT 10SM BKN065 BKN080 BKN120 25/22 A3009 160 84 1400 120/04 RMK AO2 T02500222
53843K79J 79J20160722042012507/22/16 04:20:31  5-MIN K79J 220920Z AUTO 12005KT 10SM FEW017 BKN065 OVC120 25/22 A3009 160 84 1400 130/05 RMK AO2 T02500222
53843K79J 79J20160722042511807/22/16 04:25:31  5-MIN K79J 220925Z AUTO 11005KT 10SM SCT017 BKN065 25/22 A3009 160 84 1400 110/05 RMK AO2 T02500222
53843K79J 79J20160722043011807/22/16 04:30:31  5-MIN K79J 220930Z AUTO 12005KT 10SM BKN017 BKN065 24/22 A3008 160 87 1300 120/05 RMK AO2 T02440222
53843K79J 79J20160722043511807/22/16 04:35:31  5-MIN K79J 220935Z AUTO 12004KT 10SM SCT017 BKN065 24/22 A3008 160 87 1300 120/04 RMK AO2 T02440222
53843K79J 79J20160722044011807/22/16 04:40:31  5-MIN K79J 220940Z AUTO 11005KT 10SM SCT017 BKN065 24/22 A3009 160 84 1300 110/05 RMK AO2 T02440217
53843K79J 79J20160722044511107/22/16 04:45:31  5-MIN K79J 220945Z AUTO 11005KT 10SM BKN017 24/22 A3009 160 84 1300 110/05 RMK AO2 T02440217
53843K79J 79J20160722045011807/22/16 04:50:31  5-MIN K79J 220950Z AUTO 11004KT 10SM BKN017 24/22 A3009 150 84 1300 110/04 RMK AO2 SLP184 T02440217
53843K79J 79J20160722045511807/22/16 04:55:31  5-MIN K79J 220955Z AUTO 12005KT 10SM SCT017 24/22 A3009 150 84 1300 120/05 RMK AO2 SLP184 T02440217
53843K79J 79J20160722050011807/22/16 05:00:31  5-MIN K79J 221000Z AUTO 12005KT 10SM FEW017 SCT065 24/22 A3009 150 84 1300 120/05 RMK AO2 T02440217
53843K79J 79J20160722050511807/22/16 05:05:31  5-MIN K79J 221005Z AUTO 00000KT 10SM FEW018 BKN065 24/22 A3009 150 84 1300 000/00 RMK AO2 T02440217
53843K79J 79J20160722051011807/22/16 05:10:31  5-MIN K79J 221010Z AUTO 00000KT 10SM SCT018 BKN065 24/22 A3010 150 84 1300 000/00 RMK AO2 T02440217
53843K79J 79J20160722051511807/22/16 05:15:31  5-MIN K79J 221015Z AUTO 09004KT 10SM SCT018 BKN065 24/22 A3010 150 84 1300 090/04 RMK AO2 T02440217
53843K79J 79J20160722052011807/22/16 05:20:31  5-MIN K79J 221020Z AUTO 11004KT 10SM BKN020 BKN065 24/22 A3010 150 84 1300 110/04 RMK AO2 T02440217
53843K79J 79J20160722052511807/22/16 05:25:31  5-MIN K79J 221025Z AUTO 11003KT 10SM SCT020 BKN065 24/22 A3010 140 84 1300 110/03 RMK AO2 T02440217
53843K79J 79J20160722053012507/22/16 05:30:31  5-MIN K79J 221030Z AUTO 10005KT 10SM SCT020 SCT024 BKN065 24/22 A3011 140 84 1300 110/05 RMK AO2 T02440217
53843K79J 79J20160722053511807/22/16 05:35:31  5-MIN K79J 221035Z AUTO 11003KT 10SM SCT020 BKN065 24/22 A3010 140 84 1300 120/03 RMK AO2 T02440217
53843K79J 79J20160722054011807/22/16 05:40:31  5-MIN K79J 221040Z AUTO 11004KT 10SM FEW020 BKN065 24/22 A3010 140 84 1300 120/04 RMK AO2 T02440217
53843K79J 79J20160722054511807/22/16 05:45:31  5-MIN K79J 221045Z AUTO 00000KT 10SM FEW020 BKN065 24/22 A3010 150 84 1300 000/00 RMK AO2 T02440217
53843K79J 79J20160722055011807/22/16 05:50:31  5-MIN K79J 221050Z AUTO 09003KT 10SM SCT065 24/21 A3010 150 81 1300 090/03 RMK AO2 SLP187 T02440211
53843K79J 79J20160722055511807/22/16 05:55:31  5-MIN K79J 221055Z AUTO 00000KT 10SM SCT065 24/22 A3010 140 84 1300 000/00 RMK AO2 SLP188 T02440217
53843K79J 79J20160722060011107/22/16 06:00:31  5-MIN K79J 221100Z AUTO 00000KT 10SM FEW065 24/22 A3010 150 84 1300 000/00 RMK AO2 T02440217
53843K79J 79J20160722060511107/22/16 06:05:31  5-MIN K79J 221105Z AUTO 00000KT 10SM FEW065 24/22 A3010 150 84 1300 000/00 RMK AO2 T02440217
53843K79J 79J20160722061010807/22/16 06:10:31  5-MIN K79J 221110Z AUTO 00000KT 10SM CLR 24/22 A3010 140 84 1300 000/00 RMK AO2 T02440217
53843K79J 79J20160722061510807/22/16 06:15:31  5-MIN K79J 221115Z AUTO 00000KT 10SM CLR 24/22 A3010 140 84 1300 000/00 RMK AO2 T02440217
53843K79J 79J20160722062010807/22/16 06:20:31  5-MIN K79J 221120Z AUTO 00000KT 10SM CLR 24/22 A3010 140 84 1300 000/00 RMK AO2 T02440217
53843K79J 79J20160722062510807/22/16 06:25:31  5-MIN K79J 221125Z AUTO 00000KT 10SM CLR 24/22 A3010 140 84 1300 000/00 RMK AO2 T02440217
53843K79J 79J20160722063010807/22/16 06:30:31  5-MIN K79J 221130Z AUTO 13003KT 10SM CLR 24/22 A3010 140 84 1300 130/03 RMK AO2 T02440217
53843K79J 79J20160722063510807/22/16 06:35:31  5-MIN K79J 221135Z AUTO 12003KT 10SM CLR 24/22 A3010 140 84 1300 120/03 RMK AO2 T02440217
53843K79J 79J20160722064010807/22/16 06:40:31  5-MIN K79J 221140Z AUTO 12004KT 10SM CLR 24/22 A3010 140 84 1300 120/04 RMK AO2 T02440217
53843K79J 79J20160722064510807/22/16 06:45:31  5-MIN K79J 221145Z AUTO 00000KT 10SM CLR 24/22 A3010 140 84 1300 000/00 RMK AO2 T02440217
53843K79J 79J20160722065013907/22/16 06:50:31  5-MIN K79J 221150Z AUTO 00000KT 10SM CLR 25/22 A3010 140 81 1400 000/00 RMK AO2 SLP189 70019 T02500217 10250 20244 55010
53843K79J 79J20160722065513907/22/16 06:55:31  5-MIN K79J 221155Z AUTO 00000KT 10SM CLR 25/22 A3010 140 81 1400 000/00 RMK AO2 SLP189 70019 T02500217 10250 20244 55010
53843K79J 79J20160722070010807/22/16 07:00:31  5-MIN K79J 221200Z AUTO 00000KT 10SM CLR 25/22 A3010 140 81 1400 000/00 RMK AO2 T02500217
53843K79J 79J20160722070510807/22/16 07:05:31  5-MIN K79J 221205Z AUTO 31003KT 10SM CLR 26/22 A3010 140 79 1400 310/03 RMK AO2 T02560217
53843K79J 79J20160722071010807/22/16 07:10:31  5-MIN K79J 221210Z AUTO 00000KT 10SM CLR 26/22 A3010 150 79 1400 000/00 RMK AO2 T02560217
53843K79J 79J20160722071510807/22/16 07:15:31  5-MIN K79J 221215Z AUTO 00000KT 10SM CLR 26/22 A3011 140 79 1400 000/00 RMK AO2 T02560217
53843K79J 79J20160722072010807/22/16 07:20:31  5-MIN K79J 221220Z AUTO 00000KT 10SM CLR 26/22 A3011 140 76 1500 000/00 RMK AO2 T02610217
53843K79J 79J20160722072510807/22/16 07:25:31  5-MIN K79J 221225Z AUTO 10003KT 10SM CLR 26/22 A3011 140 76 1500 110/03 RMK AO2 T02610217
53843K79J 79J20160722073010807/22/16 07:30:31  5-MIN K79J 221230Z AUTO 10003KT 10SM CLR 26/22 A3011 140 76 1500 110/03 RMK AO2 T02610217
53843K79J 79J20160722073510807/22/16 07:35:31  5-MIN K79J 221235Z AUTO 00000KT 10SM CLR 26/22 A3011 140 76 1500 000/00 RMK AO2 T02610217
53843K79J 79J20160722074011107/22/16 07:40:31  5-MIN K79J 221240Z AUTO 00000KT 10SM SCT100 27/22 A3011 140 73 1600 000/00 RMK AO2 T02670217
53843K79J 79J20160722074511107/22/16 07:45:31  5-MIN K79J 221245Z AUTO 00000KT 10SM SCT100 27/22 A3011 140 76 1600 000/00 RMK AO2 T02670222
53843K79J 79J20160722075011807/22/16 07:50:31  5-MIN K79J 221250Z AUTO 00000KT 10SM FEW100 27/22 A3011 140 76 1600 000/00 RMK AO2 SLP191 T02670222
53843K79J 79J20160722075511807/22/16 07:55:31  5-MIN K79J 221255Z AUTO 14003KT 10SM FEW100 27/22 A3011 130 73 1600 140/03 RMK AO2 SLP192 T02670217
53843K79J 79J20160722080011807/22/16 08:00:31  5-MIN K79J 221300Z AUTO VRB04KT 10SM FEW028 SCT100 27/22 A3011 130 73 1600 VRB/04 RMK AO2 T02670217
53843K79J 79J20160722080512507/22/16 08:05:31  5-MIN K79J 221305Z AUTO 14004KT 10SM FEW019 SCT030 BKN100 27/22 A3012 130 73 1500 150/04 RMK AO2 T02670217
53843K79J 79J20160722081011807/22/16 08:10:31  5-MIN K79J 221310Z AUTO 14005KT 10SM SCT019 BKN030 27/22 A3011 130 73 1600 150/05 RMK AO2 T02670217
53843K79J 79J20160722081512507/22/16 08:15:31  5-MIN K79J 221315Z AUTO VRB03KT 10SM SCT019 BKN030 BKN035 27/22 A3011 140 71 1600 VRB/03 RMK AO2 T02720217
53843K79J 79J20160722082012507/22/16 08:20:31  5-MIN K79J 221320Z AUTO 13004KT 10SM SCT019 BKN030 BKN037 27/22 A3011 140 71 1600 130/04 RMK AO2 T02720217
53843K79J 79J20160722082512507/22/16 08:25:31  5-MIN K79J 221325Z AUTO VRB03KT 10SM FEW019 SCT023 BKN030 28/22 A3011 140 71 1700 VRB/03 RMK AO2 T02780222
53843K79J 79J20160722083012507/22/16 08:30:31  5-MIN K79J 221330Z AUTO 13005KT 10SM FEW018 SCT023 BKN035 28/22 A3011 140 69 1700 130/05 RMK AO2 T02830222
53843K79J 79J20160722083512507/22/16 08:35:31  5-MIN K79J 221335Z AUTO 14005KT 10SM FEW018 FEW023 SCT035 28/22 A3011 140 69 1700 140/05 RMK AO2 T02780217
53843K79J 79J20160722084011807/22/16 08:40:31  5-MIN K79J 221340Z AUTO 16003KT 10SM FEW016 FEW034 28/22 A3011 140 69 1700 160/03 RMK AO2 T02830222
53843K79J 79J20160722084510807/22/16 08:45:31  5-MIN K79J 221345Z AUTO VRB04KT 10SM CLR 28/22 A3011 140 69 1700 VRB/04 RMK AO2 T02830222
53843K79J 79J20160722085011507/22/16 08:50:31  5-MIN K79J 221350Z AUTO 16005KT 10SM CLR 28/22 A3011 140 69 1700 160/05 RMK AO2 SLP191 T02830222
53843K79J 79J20160722085511507/22/16 08:55:31  5-MIN K79J 221355Z AUTO 22005KT 10SM CLR 28/22 A3011 130 69 1700 230/05 RMK AO2 SLP192 T02830222
53843K79J 79J20160722090010807/22/16 09:00:31  5-MIN K79J 221400Z AUTO 23003KT 10SM CLR 29/22 A3011 130 67 1800 230/03 RMK AO2 T02890222
53843K79J 79J20160722090510807/22/16 09:05:31  5-MIN K79J 221405Z AUTO 24004KT 10SM CLR 29/23 A3012 130 69 1800 250/04 RMK AO2 T02890228
53843K79J 79J20160722091010807/22/16 09:10:31  5-MIN K79J 221410Z AUTO VRB04KT 10SM CLR 29/22 A3012 130 67 1800 VRB/04 RMK AO2 T02890222
53843K79J 79J20160722091510807/22/16 09:15:31  5-MIN K79J 221415Z AUTO VRB03KT 10SM CLR 29/23 A3011 130 69 1800 VRB/03 RMK AO2 T02890228
53843K79J 79J20160722092010807/22/16 09:20:31  5-MIN K79J 221420Z AUTO VRB04KT 10SM CLR 29/23 A3011 140 67 1900 VRB/04 RMK AO2 T02940228
53843K79J 79J20160722092510807/22/16 09:25:31  5-MIN K79J 221425Z AUTO 23004KT 10SM CLR 29/23 A3011 140 67 1900 240/04 RMK AO2 T02940228
53843K79J 79J20160722093010807/22/16 09:30:31  5-MIN K79J 221430Z AUTO 24003KT 10SM CLR 30/23 A3011 140 65 1900 240/03 RMK AO2 T03000228
53843K79J 79J20160722093510807/22/16 09:35:31  5-MIN K79J 221435Z AUTO 25004KT 10SM CLR 30/23 A3011 140 65 1900 250/04 RMK AO2 T03000228
53843K79J 79J20160722094010807/22/16 09:40:31  5-MIN K79J 221440Z AUTO 23003KT 10SM CLR 30/23 A3011 140 65 1900 240/03 RMK AO2 T03000228
53843K79J 79J20160722094510807/22/16 09:45:31  5-MIN K79J 221445Z AUTO 25003KT 10SM CLR 31/23 A3010 140 65 2000 250/03 RMK AO2 T03060233
53843K79J 79J20160722095012107/22/16 09:50:31  5-MIN K79J 221450Z AUTO VRB04KT 10SM CLR 31/23 A3011 140 65 2000 VRB/04 RMK AO2 SLP189 T03060233 51006
53843K79J 79J20160722095512107/22/16 09:55:31  5-MIN K79J 221455Z AUTO VRB03KT 10SM CLR 31/24 A3011 140 65 2100 VRB/03 RMK AO2 SLP190 T03110239 51006
53843K79J 79J20160722100010807/22/16 10:00:31  5-MIN K79J 221500Z AUTO 00000KT 10SM CLR 31/24 A3011 140 65 2100 000/00 RMK AO2 T03110239
53843K79J 79J20160722100510807/22/16 10:05:31  5-MIN K79J 221505Z AUTO 09004KT 10SM CLR 32/24 A3011 140 63 2100 100/04 RMK AO2 T03170239
53843K79J 79J20160722101010807/22/16 10:10:31  5-MIN K79J 221510Z AUTO VRB04KT 10SM CLR 32/24 A3011 140 63 2100 VRB/04 RMK AO2 T03170239
53843K79J 79J20160722101510807/22/16 10:15:31  5-MIN K79J 221515Z AUTO VRB03KT 10SM CLR 32/24 A3011 140 63 2200 VRB/03 RMK AO2 T03220244
53843K79J 79J20160722102010807/22/16 10:20:31  5-MIN K79J 221520Z AUTO 00000KT 10SM CLR 32/24 A3011 140 61 2200 000/00 RMK AO2 T03220239
53843K79J 79J20160722102511107/22/16 10:25:31  5-MIN K79J 221525Z AUTO VRB03KT 10SM SCT019 32/24 A3011 140 61 2200 VRB/03 RMK AO2 T03220239
53843K79J 79J20160722103011107/22/16 10:30:31  5-MIN K79J 221530Z AUTO 00000KT 10SM SCT019 31/24 A3011 140 65 2100 000/00 RMK AO2 T03110239
53843K79J 79J20160722103511107/22/16 10:35:31  5-MIN K79J 221535Z AUTO 00000KT 10SM BKN020 32/24 A3011 140 63 2100 000/00 RMK AO2 T03170239
53843K79J 79J20160722104011107/22/16 10:40:31  5-MIN K79J 221540Z AUTO 00000KT 10SM BKN020 32/24 A3011 140 63 2100 000/00 RMK AO2 T03170239
53843K79J 79J20160722104511107/22/16 10:45:31  5-MIN K79J 221545Z AUTO 00000KT 10SM BKN022 33/24 A3011 140 59 2200 000/00 RMK AO2 T03280239
53843K79J 79J20160722105011807/22/16 10:50:31  5-MIN K79J 221550Z AUTO 00000KT 10SM OVC022 33/24 A3011 140 61 2200 000/00 RMK AO2 SLP190 T03280244
53843K79J 79J20160722105512507/22/16 10:55:31  5-MIN K79J 221555Z AUTO 27004KT 10SM BKN022 OVC029 32/24 A3011 140 63 2200 280/04 RMK AO2 SLP190 T03220244
53843K79J 79J20160722110011807/22/16 11:00:31  5-MIN K79J 221600Z AUTO 23004KT 10SM BKN022 OVC029 32/24 A3011 140 65 2100 230/04 RMK AO2 T03170244
53843K79J 79J20160722110511107/22/16 11:05:31  5-MIN K79J 221605Z AUTO 23003KT 10SM BKN022 31/24 A3011 140 67 2100 230/03 RMK AO2 T03110244
53843K79J 79J20160722111011107/22/16 11:10:31  5-MIN K79J 221610Z AUTO 00000KT 10SM BKN024 31/24 A3011 140 65 2100 000/00 RMK AO2 T03110239
53843K79J 79J20160722111511107/22/16 11:15:31  5-MIN K79J 221615Z AUTO 25003KT 10SM SCT024 32/24 A3011 140 63 2100 250/03 RMK AO2 T03170239
53843K79J 79J20160722112011807/22/16 11:20:31  5-MIN K79J 221620Z AUTO 00000KT 10SM FEW024 SCT085 32/24 A3011 140 63 2100 000/00 RMK AO2 T03170239
53843K79J 79J20160722112512507/22/16 11:25:31  5-MIN K79J 221625Z AUTO VRB03KT 10SM FEW024 SCT070 SCT085 33/24 A3010 140 61 2200 VRB/03 RMK AO2 T03280244
53843K79J 79J20160722113011107/22/16 11:30:31  5-MIN K79J 221630Z AUTO 00000KT 10SM SCT065 33/24 A3011 140 59 2300 000/00 RMK AO2 T03330244
53843K79J 79J20160722113511807/22/16 11:35:31  5-MIN K79J 221635Z AUTO 20004KT 10SM FEW021 SCT065 33/24 A3011 140 59 2300 200/04 RMK AO2 T03330244
53843K79J 79J20160722114011807/22/16 11:40:31  5-MIN K79J 221640Z AUTO 00000KT 10SM SCT021 BKN065 33/24 A3011 140 59 2200 000/00 RMK AO2 T03280239
53843K79J 79J20160722114511807/22/16 11:45:31  5-MIN K79J 221645Z AUTO 27003KT 10SM SCT022 BKN065 33/24 A3011 140 59 2200 270/03 RMK AO2 T03280239
53843K79J 79J20160722115010807/22/16 11:50:31  5-MIN K79J 221650Z AUTO 00000KT 10SM BKN022 BKN065 32/24 A3011 140 61 2200 000/00 RMK AO2
53843K79J 79J20160722115512507/22/16 11:55:31  5-MIN K79J 221655Z AUTO 22003KT 10SM BKN022 BKN065 32/24 A3011 140 65 2100 220/03 RMK AO2 SLP190 T03170244
53843K79J 79J20160722120011107/22/16 12:00:31  5-MIN K79J 221700Z AUTO 00000KT 10SM BKN022 32/24 A3011 140 63 2100 000/00 RMK AO2 T03170239
53843K79J 79J20160722120511107/22/16 12:05:31  5-MIN K79J 221705Z AUTO 00000KT 10SM SCT022 33/24 A3011 140 59 2200 000/00 RMK AO2 T03280239
53843K79J 79J20160722121011107/22/16 12:10:31  5-MIN K79J 221710Z AUTO 16003KT 10SM SCT022 32/24 A3011 140 61 2200 160/03 RMK AO2 T03220239
53843K79J 79J20160722121511107/22/16 12:15:31  5-MIN K79J 221715Z AUTO 16003KT 10SM FEW023 32/24 A3010 140 61 2200 170/03 RMK AO2 T03220239
53843K79J 79J20160722122011107/22/16 12:20:31  5-MIN K79J 221720Z AUTO VRB03KT 10SM FEW023 33/24 A3010 140 59 2300 VRB/03 RMK AO2 T03330244
53843K79J 79J20160722122510807/22/16 12:25:31  5-MIN K79J 221725Z AUTO VRB03KT 10SM CLR 34/24 A3010 150 55 2400 VRB/03 RMK AO2 T03390239
53843K79J 79J20160722123010807/22/16 12:30:31  5-MIN K79J 221730Z AUTO 00000KT 10SM CLR 34/24 A3009 150 55 2400 000/00 RMK AO2 T03390239
53843K79J 79J20160722123510807/22/16 12:35:31  5-MIN K79J 221735Z AUTO 12005KT 10SM CLR 34/24 A3009 150 55 2400 120/05 RMK AO2 T03440244
53843K79J 79J20160722124011107/22/16 12:40:31  5-MIN K79J 221740Z AUTO VRB04KT 10SM FEW028 34/24 A3009 160 55 2400 VRB/04 RMK AO2 T03390239
53843K79J 79J20160722124511107/22/16 12:45:31  5-MIN K79J 221745Z AUTO 00000KT 10SM FEW028 34/24 A3009 160 55 2400 000/00 RMK AO2 T03390239
53843K79J 79J20160722125012307/22/16 12:50:31  5-MIN K79J 221750Z AUTO 10SM CLR 34/24 A3009 160 55 2400 M /M RMK AO2 SLP183 T03440244 10344 20250 50002
53843K79J 79J20160722125513307/22/16 12:55:31  5-MIN K79J 221755Z AUTO VRB03KT 10SM CLR 34/24 A3009 160 55 2400 VRB/03 RMK AO2 SLP183 T03440244 10344 20250 50002
53843K79J 79J20160722130011107/22/16 13:00:31  5-MIN K79J 221800Z AUTO 14004KT 10SM FEW028 34/24 A3009 160 55 2400 140/04 RMK AO2 T03390239
53843K79J 79J20160722130511107/22/16 13:05:31  5-MIN K79J 221805Z AUTO VRB03KT 10SM SCT032 34/24 A3009 160 55 2400 VRB/03 RMK AO2 T03390239
53843K79J 79J20160722131011107/22/16 13:10:31  5-MIN K79J 221810Z AUTO 18008KT 10SM BKN034 33/23 A3008 160 55 2300 180/08 RMK AO2 T03330233
53843K79J 79J20160722131511807/22/16 13:15:31  5-MIN K79J 221815Z AUTO 18004KT 10SM BKN032 BKN039 33/24 A3009 160 59 2300 180/04 RMK AO2 T03280239
53843K79J 79J20160722132011807/22/16 13:20:31  5-MIN K79J 221820Z AUTO VRB06KT 10SM BKN030 BKN035 33/24 A3009 160 59 2300 VRB/06 RMK AO2 T03280239
53843K79J 79J20160722132511807/22/16 13:25:31  5-MIN K79J 221825Z AUTO 15006KT 10SM SCT030 BKN035 32/24 A3008 160 63 2200 150/06 RMK AO2 T03220244
53843K79J 79J20160722133012507/22/16 13:30:31  5-MIN K79J 221830Z AUTO VRB04KT 10SM FEW029 BKN036 OVC045 32/24 A3008 160 63 2200 VRB/04 RMK AO2 T03220244
53843K79J 79J20160722133512507/22/16 13:35:31  5-MIN K79J 221835Z AUTO 17004KT 10SM SCT029 BKN036 OVC045 32/24 A3008 160 63 2200 170/04 RMK AO2 T03220244
53843K79J 79J20160722134012507/22/16 13:40:31  5-MIN K79J 221840Z AUTO 17005KT 10SM SCT032 BKN045 OVC080 32/25 A3008 170 65 2200 170/05 RMK AO2 T03220250
53843K79J 79J20160722134512507/22/16 13:45:31  5-MIN K79J 221845Z AUTO 00000KT 10SM FEW032 BKN045 OVC080 32/24 A3008 160 63 2200 000/00 RMK AO2 T03220244
53843K79J 79J20160722135014707/22/16 13:50:31  5-MIN K79J 221850Z AUTO 00000KT 8SM -RA SCT037 BKN043 OVC080 32/24 A3009 150 65 2100 000/00 RMK AO2 RAB50 SLP185 P0001 T03170244
53843K79J 79J20160722135514007/22/16 13:55:31  5-MIN K79J 221855Z AUTO VRB03KT 3SM +RA BKN041 OVC080 31/25 A3009 150 69 2100 VRB/03 RMK AO2 RAB50 SLP185 P0003 T03110250
53843K79J 79J20160722140013407/22/16 14:00:31  5-MIN K79J 221900Z AUTO 01004KT 1SM +RA FEW026 BKN041 OVC080 30/26 A3009 150 77 1900 010/04 RMK AO2 P0012 T03000256
53843K79J 79J20160722140513407/22/16 14:05:31  5-MIN K79J 221905Z AUTO 1/2SM +TSRA SCT026 BKN041 OVC080 29/25 A3009 160 79 1800 M /M RMK AO2 TSB05 P0022 T02890250
53843K79J 79J20160722141014407/22/16 14:10:31  5-MIN K79J 221910Z AUTO 23004KT 1/2SM +TSRA FEW022 BKN038 OVC080 27/23 A3008 160 76 1600 240/04 RMK AO2 TSB05 P0026 T02720228
53843K79J 79J20160722141514207/22/16 14:15:31  5-MIN K79J 221915Z AUTO 26004KT 1SM +TSRA FEW022 BKN040 OVC075 27/23 A3009 160 76 1600 260/04 RMK AO2 TSB05 P0029 T02720228
53843K79J 79J20160722142014607/22/16 14:20:31  5-MIN K79J 221920Z AUTO 30006KT 1 1/2SM +TSRA FEW022 BKN040 OVC070 27/23 A3009 160 76 1600 300/06 RMK AO2 TSB05 P0032 T02720228
53843K79J 79J20160722142514907/22/16 14:25:31  5-MIN K79J 221925Z AUTO 32008KT 1 3/4SM +TSRA FEW022 BKN042 OVC070 27/23 A3009 160 79 1600 320/08 RMK AO2 TSB05B22 P0034 T02720233
53843K79J 79J20160722143014407/22/16 14:30:31  5-MIN K79J 221930Z AUTO 31011KT 3SM TSRA FEW022 BKN055 OVC075 27/23 A3009 160 79 1600 310/11 RMK AO2 TSB05B22 P0035 T02720233
53843K79J 79J20160722143514507/22/16 14:35:31  5-MIN K79J 221935Z AUTO 30010KT 5SM -TSRA FEW033 BKN050 OVC075 27/23 A3009 160 79 1600 300/10 RMK AO2 TSB05B22 P0035 T02670228
53843K79J 79J20160722144014607/22/16 14:40:31  5-MIN K79J 221940Z AUTO 29009KT 10SM -TSRA FEW033 BKN055 OVC075 27/23 A3008 160 82 1600 300/09 RMK AO2 TSB05B22 P0035 T02670233
53843K79J 79J20160722144514607/22/16 14:45:31  5-MIN K79J 221945Z AUTO 30009KT 10SM -TSRA SCT043 SCT065 BKN080 27/23 A3008 160 82 1600 300/09 RMK AO2 TSB05B22 P0035 T02670233
53843K79J 79J20160722145015307/22/16 14:50:31  5-MIN K79J 221950Z AUTO 30009KT 10SM -TSRA FEW038 SCT055 BKN080 26/23 A3008 170 81 1500 300/09 RMK AO2 TSB05B22 SLP180 P0035 T02610228
53843K79J 79J20160722145515307/22/16 14:55:31  5-MIN K79J 221955Z AUTO 31010KT 10SM -TSRA FEW035 SCT050 SCT080 26/23 A3007 170 81 1500 310/10 RMK AO2 TSB05B22 SLP179 P0035 T02610228
53843K79J 79J20160722150013007/22/16 15:00:31  5-MIN K79J 222000Z AUTO 32009KT 10SM -TSRA FEW035 SCT090 26/23 A3007 180 81 1500 330/09 RMK AO2 P0000 T02610228
53843K79J 79J20160722150512307/22/16 15:05:31  5-MIN K79J 222005Z AUTO 32007KT 10SM -TSRA FEW090 26/22 A3007 180 79 1500 320/07 RMK AO2 P0000 T02610222
53843K79J 79J20160722151012607/22/16 15:10:31  5-MIN K79J 222010Z AUTO 31006KT 10SM TS FEW100 27/22 A3006 180 76 1600 310/06 RMK AO2 RAE06 P0000 T02670222
53843K79J 79J20160722151512307/22/16 15:15:31  5-MIN K79J 222015Z AUTO 31006KT 10SM TS CLR 27/23 A3006 180 79 1600 310/06 RMK AO2 RAE06 P0000 T02670228
53843K79J 79J20160722152012307/22/16 15:20:31  5-MIN K79J 222020Z AUTO 30006KT 10SM TS CLR 27/22 A3006 190 76 1600 310/06 RMK AO2 RAE06 P0000 T02670222
53843K79J 79J20160722152512607/22/16 15:25:31  5-MIN K79J 222025Z AUTO 30007KT 10SM CLR 27/22 A3006 190 76 1600 300/07 RMK AO2 RAE06 TSE22 P0000 T02670222
53843K79J 79J20160722153012607/22/16 15:30:31  5-MIN K79J 222030Z AUTO 30008KT 10SM CLR 27/22 A3005 190 76 1600 300/08 RMK AO2 RAE06 TSE22 P0000 T02670222
53843K79J 79J20160722153512607/22/16 15:35:31  5-MIN K79J 222035Z AUTO 28006KT 10SM CLR 27/22 A3005 200 74 1700 280/06 RMK AO2 RAE06 TSE22 P0000 T02720222
53843K79J 79J20160722154012607/22/16 15:40:31  5-MIN K79J 222040Z AUTO 27004KT 10SM CLR 28/22 A3004 200 71 1800 280/04 RMK AO2 RAE06 TSE22 P0000 T02780222
53843K79J 79J20160722154512607/22/16 15:45:31  5-MIN K79J 222045Z AUTO VRB03KT 10SM CLR 28/22 A3004 200 66 1800 VRB/03 RMK AO2 RAE06 TSE22 P0000 T02830217
53843K79J 79J20160722155014507/22/16 15:50:31  5-MIN K79J 222050Z AUTO 25003KT 10SM CLR 29/22 A3004 200 64 1900 250/03 RMK AO2 RAE06 TSE22 SLP166 P0000 60039 T02890217 58006
53843K79J 79J20160722155514507/22/16 15:55:31  5-MIN K79J 222055Z AUTO 26003KT 10SM CLR 29/22 A3003 210 64 2000 260/03 RMK AO2 RAE06 TSE22 SLP164 P0000 60039 T02940222 58006
53843K79J 79J20160722160010807/22/16 16:00:31  5-MIN K79J 222100Z AUTO 29005KT 10SM CLR 30/22 A3003 210 60 2000 290/05 RMK AO2 T03000217
53843K79J 79J20160722160510807/22/16 16:05:31  5-MIN K79J 222105Z AUTO 31004KT 10SM CLR 30/22 A3003 210 62 2000 310/04 RMK AO2 T03000222
53843K79J 79J20160722161010807/22/16 16:10:31  5-MIN K79J 222110Z AUTO 31005KT 10SM CLR 31/22 A3003 210 60 2100 310/05 RMK AO2 T03060222
53843K79J 79J20160722161510807/22/16 16:15:31  5-MIN K79J 222115Z AUTO 30005KT 10SM CLR 31/22 A3003 210 58 2100 300/05 RMK AO2 T03060217
53843K79J 79J20160722162010807/22/16 16:20:31  5-MIN K79J 222120Z AUTO 30006KT 10SM CLR 31/22 A3003 210 60 2100 300/06 RMK AO2 T03060222
53843K79J 79J20160722162510807/22/16 16:25:31  5-MIN K79J 222125Z AUTO 22005KT 10SM CLR 31/22 A3003 210 56 2100 220/05 RMK AO2 T03110217
53843K79J 79J20160722163010807/22/16 16:30:31  5-MIN K79J 222130Z AUTO 25006KT 10SM CLR 31/22 A3004 210 60 2100 250/06 RMK AO2 T03060222
53843K79J 79J20160722163510807/22/16 16:35:31  5-MIN K79J 222135Z AUTO 26005KT 10SM CLR 30/23 A3003 210 65 2000 260/05 RMK AO2 T03000228
53843K79J 79J20160722164010807/22/16 16:40:31  5-MIN K79J 222140Z AUTO 27005KT 10SM CLR 30/23 A3003 210 67 2000 270/05 RMK AO2 T03000233
53843K79J 79J20160722164510807/22/16 16:45:31  5-MIN K79J 222145Z AUTO 26004KT 10SM CLR 30/23 A3003 210 67 2000 260/04 RMK AO2 T03000233
53843K79J 79J20160722165011507/22/16 16:50:31  5-MIN K79J 222150Z AUTO 28006KT 10SM CLR 31/24 A3003 210 67 2100 280/06 RMK AO2 SLP163 T03060239
53843K79J 79J20160722165511507/22/16 16:55:31  5-MIN K79J 222155Z AUTO 29006KT 10SM CLR 31/24 A3003 210 65 2100 290/06 RMK AO2 SLP163 T03110239
53843K79J 79J20160722170010807/22/16 17:00:31  5-MIN K79J 222200Z AUTO 27007KT 10SM CLR 31/24 A3003 220 65 2100 270/07 RMK AO2 T03110239
53843K79J 79J20160722170510807/22/16 17:05:31  5-MIN K79J 222205Z AUTO 26005KT 10SM CLR 31/24 A3002 220 65 2100 270/05 RMK AO2 T03110239
53843K79J 79J20160722171010807/22/16 17:10:31  5-MIN K79J 222210Z AUTO 22004KT 10SM CLR 31/24 A3003 210 67 2100 230/04 RMK AO2 T03110244
53843K79J 79J20160722171510807/22/16 17:15:31  5-MIN K79J 222215Z AUTO 26004KT 10SM CLR 32/23 A3002 220 61 2200 270/04 RMK AO2 T03170233
53843K79J 79J20160722172010807/22/16 17:20:31  5-MIN K79J 222220Z AUTO 28006KT 10SM CLR 32/24 A3002 220 63 2200 280/06 RMK AO2 T03170239
53843K79J 79J20160722172510807/22/16 17:25:31  5-MIN K79J 222225Z AUTO 29007KT 10SM CLR 32/23 A3002 220 61 2200 290/07 RMK AO2 T03170233
53843K79J 79J20160722173010807/22/16 17:30:31  5-MIN K79J 222230Z AUTO 27006KT 10SM CLR 32/23 A3002 220 61 2200 270/06 RMK AO2 T03170233
53843K79J 79J20160722173510807/22/16 17:35:31  5-MIN K79J 222235Z AUTO 27006KT 10SM CLR 32/24 A3002 220 63 2200 280/06 RMK AO2 T03170239
53843K79J 79J20160722174010807/22/16 17:40:31  5-MIN K79J 222240Z AUTO 27005KT 10SM CLR 32/24 A3002 220 63 2200 270/05 RMK AO2 T03170239
53843K79J 79J20160722174510807/22/16 17:45:31  5-MIN K79J 222245Z AUTO 27005KT 10SM CLR 32/24 A3002 220 63 2200 270/05 RMK AO2 T03170239
53843K79J 79J20160722175011507/22/16 17:50:31  5-MIN K79J 222250Z AUTO 26004KT 10SM CLR 32/23 A3002 220 61 2200 260/04 RMK AO2 SLP160 T03170233
53843K79J 79J20160722175511507/22/16 17:55:31  5-MIN K79J 222255Z AUTO 24003KT 10SM CLR 31/23 A3001 230 63 2200 250/03 RMK AO2 SLP158 T03110233
53843K79J 79J20160722180010807/22/16 18:00:31  5-MIN K79J 222300Z AUTO 26005KT 10SM CLR 32/23 A3001 230 61 2200 270/05 RMK AO2 T03170233
53843K79J 79J20160722180510807/22/16 18:05:31  5-MIN K79J 222305Z AUTO 27003KT 10SM CLR 32/23 A3000 240 61 2200 270/03 RMK AO2 T03170233
53843K79J 79J20160722181010807/22/16 18:10:31  5-MIN K79J 222310Z AUTO 26004KT 10SM CLR 32/23 A3000 240 61 2200 260/04 RMK AO2 T03170233
53843K79J 79J20160722181510807/22/16 18:15:31  5-MIN K79J 222315Z AUTO 25003KT 10SM CLR 32/23 A3000 240 61 2200 250/03 RMK AO2 T03170233
53843K79J 79J20160722182010807/22/16 18:20:31  5-MIN K79J 222320Z AUTO 26003KT 10SM CLR 31/23 A3000 240 63 2200 260/03 RMK AO2 T03110233
53843K79J 79J20160722182510807/22/16 18:25:31  5-MIN K79J 222325Z AUTO 25004KT 10SM CLR 31/23 A3000 240 63 2200 260/04 RMK AO2 T03110233
53843K79J 79J20160722183010807/22/16 18:30:31  5-MIN K79J 222330Z AUTO 27004KT 10SM CLR 31/23 A3000 240 63 2200 270/04 RMK AO2 T03110233
53843K79J 79J20160722183510807/22/16 18:35:31  5-MIN K79J 222335Z AUTO 00000KT 10SM CLR 31/23 A3001 230 63 2200 000/00 RMK AO2 T03110233
53843K79J 79J20160722184010807/22/16 18:40:31  5-MIN K79J 222340Z AUTO 00000KT 10SM CLR 32/24 A3001 230 63 2200 000/00 RMK AO2 T03170239
53843K79J 79J20160722184510807/22/16 18:45:31  5-MIN K79J 222345Z AUTO 21003KT 10SM CLR 31/24 A3001 230 67 2200 210/03 RMK AO2 T03110244
53843K79J 79J20160722185013907/22/16 18:50:31  5-MIN K79J 222350Z AUTO 00000KT 10SM CLR 31/24 A3001 230 67 2200 000/00 RMK AO2 SLP158 60039 T03110244 10344 20261 58019
53843K79J 79J20160722185513907/22/16 18:55:31  5-MIN K79J 222355Z AUTO 00000KT 10SM CLR 31/24 A3002 220 65 2200 000/00 RMK AO2 SLP159 60039 T03110239 10344 20261 58019
53843K79J 79J20160722190010807/22/16 19:00:31  5-MIN K79J 230000Z AUTO 22003KT 10SM CLR 31/24 A3002 220 67 2100 220/03 RMK AO2 T03060239
53843K79J 79J20160722190510807/22/16 19:05:31  5-MIN K79J 230005Z AUTO 00000KT 10SM CLR 31/24 A3003 220 65 2100 000/00 RMK AO2 T03110239
53843K79J 79J20160722191010807/22/16 19:10:31  5-MIN K79J 230010Z AUTO 00000KT 10SM CLR 31/24 A3003 210 67 2100 000/00 RMK AO2 T03060239
53843K79J 79J20160722191510807/22/16 19:15:31  5-MIN K79J 230015Z AUTO 00000KT 10SM CLR 31/24 A3003 210 69 2100 000/00 RMK AO2 T03060244
53843K79J 79J20160722192010807/22/16 19:20:31  5-MIN K79J 230020Z AUTO 20003KT 10SM CLR 30/24 A3003 210 72 2000 200/03 RMK AO2 T03000244
53843K79J 79J20160722192510807/22/16 19:25:31  5-MIN K79J 230025Z AUTO 00000KT 10SM CLR 30/24 A3003 210 72 2000 000/00 RMK AO2 T03000244
53843K79J 79J20160722193010807/22/16 19:30:31  5-MIN K79J 230030Z AUTO 16003KT 10SM CLR 30/24 A3003 210 72 2000 170/03 RMK AO2 T03000244
53843K79J 79J20160722193510807/22/16 19:35:31  5-MIN K79J 230035Z AUTO 15003KT 10SM CLR 29/24 A3003 210 74 2000 150/03 RMK AO2 T02940244
53843K79J 79J20160722194010807/22/16 19:40:31  5-MIN K79J 230040Z AUTO 15003KT 10SM CLR 29/24 A3003 210 74 2000 150/03 RMK AO2 T02940244
53843K79J 79J20160722194512407/22/16 19:45:31  5-MIN K79J 230045Z AUTO 14007KT 100V160 10SM CLR 29/24 A3003 210 71 2000 140/07 100V160 RMK AO2 T02940239
53843K79J 79J20160722195011507/22/16 19:50:31  5-MIN K79J 230050Z AUTO VRB03KT 10SM CLR 29/24 A3004 200 74 1900 VRB/03 RMK AO2 SLP167 T02890239
53843K79J 79J20160722195511507/22/16 19:55:31  5-MIN K79J 230055Z AUTO 14004KT 10SM CLR 29/24 A3004 200 74 1900 150/04 RMK AO2 SLP168 T02890239
53843K79J 79J20160722200010807/22/16 20:00:31  5-MIN K79J 230100Z AUTO VRB03KT 10SM CLR 29/23 A3005 200 71 1900 VRB/03 RMK AO2 T02890233
53843K79J 79J20160722200510807/22/16 20:05:31  5-MIN K79J 230105Z AUTO VRB03KT 10SM CLR 28/23 A3004 200 74 1800 VRB/03 RMK AO2 T02830233
53843K79J 79J20160722201010807/22/16 20:10:31  5-MIN K79J 230110Z AUTO VRB03KT 10SM CLR 28/23 A3004 200 74 1800 VRB/03 RMK AO2 T02830233
53843K79J 79J20160722201510807/22/16 20:15:31  5-MIN K79J 230115Z AUTO VRB03KT 10SM CLR 28/23 A3004 200 74 1800 VRB/03 RMK AO2 T02830233
53843K79J 79J20160722202010807/22/16 20:20:31  5-MIN K79J 230120Z AUTO 16003KT 10SM CLR 28/23 A3004 200 71 1800 160/03 RMK AO2 T02830228
53843K79J 79J20160722202510807/22/16 20:25:31  5-MIN K79J 230125Z AUTO 00000KT 10SM CLR 28/23 A3004 200 71 1800 000/00 RMK AO2 T02830228
53843K79J 79J20160722203010807/22/16 20:30:31  5-MIN K79J 230130Z AUTO 17003KT 10SM CLR 28/23 A3004 200 71 1800 170/03 RMK AO2 T02830228
53843K79J 79J20160722203510807/22/16 20:35:31  5-MIN K79J 230135Z AUTO 00000KT 10SM CLR 28/23 A3004 200 71 1800 000/00 RMK AO2 T02830228
53843K79J 79J20160722204010807/22/16 20:40:31  5-MIN K79J 230140Z AUTO 00000KT 10SM CLR 28/23 A3004 200 74 1800 000/00 RMK AO2 T02780228
53843K79J 79J20160722204510807/22/16 20:45:31  5-MIN K79J 230145Z AUTO 00000KT 10SM CLR 28/23 A3004 210 76 1800 000/00 RMK AO2 T02780233
53843K79J 79J20160722205011507/22/16 20:50:31  5-MIN K79J 230150Z AUTO 00000KT 10SM CLR 28/23 A3004 210 76 1800 000/00 RMK AO2 SLP166 T02780233
53843K79J 79J20160722205511507/22/16 20:55:31  5-MIN K79J 230155Z AUTO 00000KT 10SM CLR 27/23 A3004 210 79 1700 000/00 RMK AO2 SLP166 T02720233
53843K79J 79J20160722210010807/22/16 21:00:31  5-MIN K79J 230200Z AUTO 00000KT 10SM CLR 27/23 A3003 210 79 1700 000/00 RMK AO2 T02720233
53843K79J 79J20160722210510807/22/16 21:05:31  5-MIN K79J 230205Z AUTO 00000KT 10SM CLR 27/23 A3004 200 79 1700 000/00 RMK AO2 T02720233
53843K79J 79J20160722211010807/22/16 21:10:31  5-MIN K79J 230210Z AUTO 00000KT 10SM CLR 28/23 A3004 200 76 1800 000/00 RMK AO2 T02780233
53843K79J 79J20160722211510807/22/16 21:15:31  5-MIN K79J 230215Z AUTO 00000KT 10SM CLR 28/23 A3004 200 76 1800 000/00 RMK AO2 T02780233
53843K79J 79J20160722212010807/22/16 21:20:31  5-MIN K79J 230220Z AUTO 00000KT 10SM CLR 27/23 A3004 200 79 1700 000/00 RMK AO2 T02720233
53843K79J 79J20160722212510807/22/16 21:25:31  5-MIN K79J 230225Z AUTO 00000KT 10SM CLR 27/23 A3004 200 79 1700 000/00 RMK AO2 T02720233
53843K79J 79J20160722213010807/22/16 21:30:31  5-MIN K79J 230230Z AUTO 21003KT 10SM CLR 27/23 A3004 200 82 1600 210/03 RMK AO2 T02670233
53843K79J 79J20160722213510807/22/16 21:35:31  5-MIN K79J 230235Z AUTO 22003KT 10SM CLR 26/23 A3003 210 87 1500 220/03 RMK AO2 T02560233
53843K79J 79J20160722214010807/22/16 21:40:31  5-MIN K79J 230240Z AUTO 19003KT 10SM CLR 27/23 A3004 200 82 1600 200/03 RMK AO2 T02670233
53843K79J 79J20160722214510807/22/16 21:45:31  5-MIN K79J 230245Z AUTO 00000KT 10SM CLR 27/23 A3004 200 82 1600 000/00 RMK AO2 T02670233
53843K79J 79J20160722215012107/22/16 21:50:31  5-MIN K79J 230250Z AUTO 00000KT 10SM CLR 27/23 A3004 200 82 1600 000/00 RMK AO2 SLP167 T02670233 55005
53843K79J 79J20160722215512107/22/16 21:55:31  5-MIN K79J 230255Z AUTO 23004KT 10SM CLR 27/23 A3004 200 79 1600 230/04 RMK AO2 SLP167 T02670228 55005
53843K79J 79J20160722220010807/22/16 22:00:31  5-MIN K79J 230300Z AUTO 00000KT 10SM CLR 27/23 A3004 200 76 1700 000/00 RMK AO2 T02720228
53843K79J 79J20160722220510807/22/16 22:05:31  5-MIN K79J 230305Z AUTO 00000KT 10SM CLR 27/23 A3004 200 76 1700 000/00 RMK AO2 T02720228
53843K79J 79J20160722221010807/22/16 22:10:31  5-MIN K79J 230310Z AUTO 00000KT 10SM CLR 27/23 A3004 200 79 1600 000/00 RMK AO2 T02670228
53843K79J 79J20160722221510807/22/16 22:15:31  5-MIN K79J 230315Z AUTO 17003KT 10SM CLR 27/23 A3004 200 79 1600 170/03 RMK AO2 T02670228
53843K79J 79J20160722222010807/22/16 22:20:31  5-MIN K79J 230320Z AUTO 00000KT 10SM CLR 26/23 A3004 200 84 1600 000/00 RMK AO2 T02610233
53843K79J 79J20160722222510807/22/16 22:25:31  5-MIN K79J 230325Z AUTO 14003KT 10SM CLR 27/23 A3004 200 82 1600 140/03 RMK AO2 T02670233
53843K79J 79J20160722223010807/22/16 22:30:31  5-MIN K79J 230330Z AUTO 00000KT 10SM CLR 26/23 A3004 200 84 1600 000/00 RMK AO2 T02610233
53843K79J 79J20160722223510807/22/16 22:35:31  5-MIN K79J 230335Z AUTO 00000KT 10SM CLR 26/23 A3004 200 84 1600 000/00 RMK AO2 T02610233
53843K79J 79J20160722224010807/22/16 22:40:31  5-MIN K79J 230340Z AUTO 00000KT 10SM CLR 26/23 A3005 200 84 1600 000/00 RMK AO2 T02610233
53843K79J 79J20160722224510807/22/16 22:45:31  5-MIN K79J 230345Z AUTO 00000KT 10SM CLR 27/23 A3005 190 82 1600 000/00 RMK AO2 T02670233
53843K79J 79J20160722225011507/22/16 22:50:31  5-MIN K79J 230350Z AUTO 00000KT 10SM CLR 26/23 A3005 200 84 1600 000/00 RMK AO2 SLP170 T02610233
53843K79J 79J20160722225511507/22/16 22:55:31  5-MIN K79J 230355Z AUTO 00000KT 10SM CLR 26/23 A3005 200 84 1600 000/00 RMK AO2 SLP169 T02610233
53843K79J 79J20160722230010807/22/16 23:00:31  5-MIN K79J 230400Z AUTO 00000KT 10SM CLR 26/23 A3005 200 84 1600 000/00 RMK AO2 T02610233
53843K79J 79J20160722230510807/22/16 23:05:31  5-MIN K79J 230405Z AUTO 00000KT 10SM CLR 26/23 A3004 200 81 1600 000/00 RMK AO2 T02610228
53843K79J 79J20160722231010807/22/16 23:10:31  5-MIN K79J 230410Z AUTO 00000KT 10SM CLR 26/23 A3004 200 84 1600 000/00 RMK AO2 T02610233
53843K79J 79J20160722231510807/22/16 23:15:31  5-MIN K79J 230415Z AUTO 00000KT 10SM CLR 26/23 A3004 200 84 1600 000/00 RMK AO2 T02610233
53843K79J 79J20160722232010807/22/16 23:20:31  5-MIN K79J 230420Z AUTO 00000KT 10SM CLR 26/23 A3004 200 81 1600 000/00 RMK AO2 T02610228
53843K79J 79J20160722232510807/22/16 23:25:31  5-MIN K79J 230425Z AUTO 00000KT 10SM CLR 26/23 A3004 200 84 1500 000/00 RMK AO2 T02560228
53843K79J 79J20160722233010807/22/16 23:30:31  5-MIN K79J 230430Z AUTO 00000KT 10SM CLR 26/23 A3004 210 84 1500 000/00 RMK AO2 T02560228
53843K79J 79J20160722233510807/22/16 23:35:31  5-MIN K79J 230435Z AUTO 00000KT 10SM CLR 26/23 A3003 210 84 1500 000/00 RMK AO2 T02560228
53843K79J 79J20160722234010807/22/16 23:40:31  5-MIN K79J 230440Z AUTO 00000KT 10SM CLR 26/23 A3004 210 84 1500 000/00 RMK AO2 T02560228
53843K79J 79J20160722234510807/22/16 23:45:31  5-MIN K79J 230445Z AUTO 00000KT 10SM CLR 26/23 A3003 210 84 1500 000/00 RMK AO2 T02560228
53843K79J 79J20160722235012507/22/16 23:50:31  5-MIN K79J 230450Z AUTO 00000KT 10SM CLR 26/23 A3003 210 87 1500 000/00 RMK AO2 SLP164 T02560233 403440244
53843K79J 79J20160722235512507/22/16 23:55:31  5-MIN K79J 230455Z AUTO 00000KT 10SM CLR 26/23 A3003 210 84 1500 000/00 RMK AO2 SLP165 T02560228 403440244
53843K79J 79J20160723000010807/23/16 00:00:31  5-MIN K79J 230500Z AUTO 00000KT 10SM CLR 26/23 A3003 210 84 1500 000/00 RMK AO2 T02560228
53843K79J 79J20160723000510807/23/16 00:05:31  5-MIN K79J 230505Z AUTO 00000KT 10SM CLR 26/23 A3003 210 84 1500 000/00 RMK AO2 T02560228
53843K79J 79J20160723001010807/23/16 00:10:31  5-MIN K79J 230510Z AUTO 00000KT 10SM CLR 26/23 A3003 210 84 1500 000/00 RMK AO2 T02560228
53843K79J 79J20160723001510707/23/16 00:15:31  5-MIN K79J 230515Z AUTO 00000KT 9SM CLR 26/23 A3003 210 84 1500 000/00 RMK AO2 T02560228
53843K79J 79J20160723002010707/23/16 00:20:31  5-MIN K79J 230520Z AUTO 12003KT 8SM CLR 25/23 A3003 210 87 1500 120/03 RMK AO2 T02500228
53843K79J 79J20160723002510707/23/16 00:25:31  5-MIN K79J 230525Z AUTO 12003KT 8SM CLR 26/23 A3003 210 84 1500 130/03 RMK AO2 T02560228
53843K79J 79J20160723003010707/23/16 00:30:31  5-MIN K79J 230530Z AUTO 14004KT 8SM CLR 26/23 A3003 210 84 1500 140/04 RMK AO2 T02560228
53843K79J 79J20160723003510707/23/16 00:35:31  5-MIN K79J 230535Z AUTO 13005KT 8SM CLR 26/23 A3003 210 84 1500 130/05 RMK AO2 T02560228
53843K79J 79J20160723004010707/23/16 00:40:31  5-MIN K79J 230540Z AUTO 11003KT 8SM CLR 26/23 A3003 210 84 1500 110/03 RMK AO2 T02560228
53843K79J 79J20160723004510707/23/16 00:45:31  5-MIN K79J 230545Z AUTO 13003KT 9SM CLR 26/23 A3003 210 84 1500 130/03 RMK AO2 T02560228
53843K79J 79J20160723005013207/23/16 00:50:31  5-MIN K79J 230550Z AUTO 13003KT 9SM CLR 26/23 A3002 220 84 1500 130/03 RMK AO2 SLP161 T02560228 10311 20250 51007
53843K79J 79J20160723005513207/23/16 00:55:31  5-MIN K79J 230555Z AUTO 00000KT 9SM CLR 26/23 A3002 220 84 1500 000/00 RMK AO2 SLP161 T02560228 10311 20250 51007
53843K79J 79J20160723010010707/23/16 01:00:31  5-MIN K79J 230600Z AUTO 00000KT 8SM CLR 26/23 A3002 220 84 1500 000/00 RMK AO2 T02560228
53843K79J 79J20160723010510707/23/16 01:05:31  5-MIN K79J 230605Z AUTO 00000KT 8SM CLR 26/23 A3002 220 84 1500 000/00 RMK AO2 T02560228
53843K79J 79J20160723011010707/23/16 01:10:31  5-MIN K79J 230610Z AUTO 00000KT 7SM CLR 26/23 A3002 220 84 1500 000/00 RMK AO2 T02560228
53843K79J 79J20160723011510707/23/16 01:15:31  5-MIN K79J 230615Z AUTO 00000KT 7SM CLR 26/23 A3002 220 84 1500 000/00 RMK AO2 T02560228
53843K79J 79J20160723012010707/23/16 01:20:31  5-MIN K79J 230620Z AUTO 00000KT 8SM CLR 26/23 A3002 220 84 1500 000/00 RMK AO2 T02560228
53843K79J 79J20160723012510707/23/16 01:25:31  5-MIN K79J 230625Z AUTO 00000KT 8SM CLR 25/23 A3002 220 87 1500 000/00 RMK AO2 T02500228
53843K79J 79J20160723013010707/23/16 01:30:31  5-MIN K79J 230630Z AUTO 00000KT 7SM CLR 25/23 A3002 220 87 1500 000/00 RMK AO2 T02500228
53843K79J 79J20160723013510707/23/16 01:35:31  5-MIN K79J 230635Z AUTO 12003KT 7SM CLR 25/23 A3002 220 87 1500 120/03 RMK AO2 T02500228
53843K79J 79J20160723014011007/23/16 01:40:31  5-MIN K79J 230640Z AUTO 09003KT 6SM BR CLR 25/23 A3002 220 87 1500 100/03 RMK AO2 T02500228
53843K79J 79J20160723014510707/23/16 01:45:31  5-MIN K79J 230645Z AUTO 06003KT 7SM CLR 25/23 A3001 230 87 1500 060/03 RMK AO2 T02500228
53843K79J 79J20160723015011407/23/16 01:50:31  5-MIN K79J 230650Z AUTO 00000KT 9SM CLR 25/23 A3002 220 87 1500 000/00 RMK AO2 SLP159 T02500228
53843K79J 79J20160723015511407/23/16 01:55:31  5-MIN K79J 230655Z AUTO 00000KT 9SM CLR 25/23 A3002 220 87 1500 000/00 RMK AO2 SLP159 T02500228
53843K79J 79J20160723020010707/23/16 02:00:31  5-MIN K79J 230700Z AUTO 00000KT 8SM CLR 25/23 A3002 220 87 1500 000/00 RMK AO2 T02500228
53843K79J 79J20160723020510707/23/16 02:05:31  5-MIN K79J 230705Z AUTO 00000KT 8SM CLR 25/23 A3001 230 87 1500 000/00 RMK AO2 T02500228
53843K79J 79J20160723021010807/23/16 02:10:31  5-MIN K79J 230710Z AUTO 00000KT 10SM CLR 26/23 A3001 230 84 1500 000/00 RMK AO2 T02560228
53843K79J 79J20160723021510807/23/16 02:15:31  5-MIN K79J 230715Z AUTO 00000KT 10SM CLR 25/23 A3001 230 87 1500 000/00 RMK AO2 T02500228
53843K79J 79J20160723022010807/23/16 02:20:31  5-MIN K79J 230720Z AUTO 00000KT 10SM CLR 25/23 A3001 230 87 1500 000/00 RMK AO2 T02500228
53843K79J 79J20160723022510707/23/16 02:25:31  5-MIN K79J 230725Z AUTO 00000KT 8SM CLR 25/23 A3001 230 87 1500 000/00 RMK AO2 T02500228
53843K79J 79J20160723023010707/23/16 02:30:31  5-MIN K79J 230730Z AUTO 00000KT 7SM CLR 25/22 A3001 230 84 1500 000/00 RMK AO2 T02500222
53843K79J 79J20160723023511007/23/16 02:35:31  5-MIN K79J 230735Z AUTO 13003KT 6SM HZ CLR 25/22 A3001 230 84 1500 130/03 RMK AO2 T02500222
53843K79J 79J20160723024011007/23/16 02:40:31  5-MIN K79J 230740Z AUTO 00000KT 6SM HZ CLR 25/22 A3001 230 84 1500 000/00 RMK AO2 T02500222
53843K79J 79J20160723024511007/23/16 02:45:31  5-MIN K79J 230745Z AUTO 00000KT 6SM BR CLR 25/23 A3001 230 87 1500 000/00 RMK AO2 T02500228
53843K79J 79J20160723025011707/23/16 02:50:31  5-MIN K79J 230750Z AUTO 00000KT 6SM BR CLR 25/23 A3001 230 87 1500 000/00 RMK AO2 SLP157 T02500228
53843K79J 79J20160723025511407/23/16 02:55:31  5-MIN K79J 230755Z AUTO 00000KT 7SM CLR 25/23 A3001 230 87 1500 000/00 RMK AO2 SLP156 T02500228
53843K79J 79J20160723030010707/23/16 03:00:31  5-MIN K79J 230800Z AUTO 00000KT 8SM CLR 25/22 A3001 230 84 1500 000/00 RMK AO2 T02500222
53843K79J 79J20160723030510707/23/16 03:05:31  5-MIN K79J 230805Z AUTO 00000KT 7SM CLR 25/22 A3001 230 84 1500 000/00 RMK AO2 T02500222
53843K79J 79J20160723031010707/23/16 03:10:31  5-MIN K79J 230810Z AUTO 00000KT 7SM CLR 25/22 A3001 230 84 1500 000/00 RMK AO2 T02500222
53843K79J 79J20160723031511007/23/16 03:15:31  5-MIN K79J 230815Z AUTO 00000KT 6SM BR CLR 24/22 A3001 230 87 1400 000/00 RMK AO2 T02440222
53843K79J 79J20160723032011007/23/16 03:20:31  5-MIN K79J 230820Z AUTO 00000KT 6SM BR CLR 24/22 A3001 230 87 1400 000/00 RMK AO2 T02440222
53843K79J 79J20160723032511007/23/16 03:25:31  5-MIN K79J 230825Z AUTO 00000KT 6SM HZ CLR 25/22 A3001 230 84 1500 000/00 RMK AO2 T02500222
53843K79J 79J20160723033010707/23/16 03:30:31  5-MIN K79J 230830Z AUTO 00000KT 7SM CLR 25/22 A3001 230 84 1500 000/00 RMK AO2 T02500222
53843K79J 79J20160723033510707/23/16 03:35:31  5-MIN K79J 230835Z AUTO 00000KT 9SM CLR 25/22 A3001 230 84 1500 000/00 RMK AO2 T02500222
53843K79J 79J20160723034010707/23/16 03:40:31  5-MIN K79J 230840Z AUTO 00000KT 9SM CLR 25/22 A3001 230 84 1500 000/00 RMK AO2 T02500222
53843K79J 79J20160723034510707/23/16 03:45:31  5-MIN K79J 230845Z AUTO 00000KT 8SM CLR 24/22 A3001 230 87 1400 000/00 RMK AO2 T02440222
53843K79J 79J20160723035012307/23/16 03:50:31  5-MIN K79J 230850Z AUTO 00000KT 6SM BR CLR 24/22 A3001 230 87 1400 000/00 RMK AO2 SLP157 T02440222 58005
53843K79J 79J20160723035512307/23/16 03:55:31  5-MIN K79J 230855Z AUTO 00000KT 6SM BR CLR 24/22 A3001 230 87 1400 000/00 RMK AO2 SLP157 T02440222 58005
53843K79J 79J20160723040011007/23/16 04:00:31  5-MIN K79J 230900Z AUTO 00000KT 5SM BR CLR 24/22 A3001 230 87 1400 000/00 RMK AO2 T02440222
53843K79J 79J20160723040511007/23/16 04:05:31  5-MIN K79J 230905Z AUTO 00000KT 5SM BR CLR 24/22 A3001 230 87 1400 000/00 RMK AO2 T02440222
53843K79J 79J20160723041011007/23/16 04:10:31  5-MIN K79J 230910Z AUTO 00000KT 6SM HZ CLR 25/22 A3001 230 84 1500 000/00 RMK AO2 T02500222
53843K79J 79J20160723041511007/23/16 04:15:31  5-MIN K79J 230915Z AUTO 00000KT 6SM HZ CLR 25/22 A3000 230 84 1500 000/00 RMK AO2 T02500222
53843K79J 79J20160723042011007/23/16 04:20:31  5-MIN K79J 230920Z AUTO 00000KT 6SM HZ CLR 25/22 A3000 230 84 1500 000/00 RMK AO2 T02500222
53843K79J 79J20160723042511007/23/16 04:25:31  5-MIN K79J 230925Z AUTO 00000KT 6SM BR CLR 24/22 A3001 230 87 1400 000/00 RMK AO2 T02440222
53843K79J 79J20160723043011007/23/16 04:30:31  5-MIN K79J 230930Z AUTO 00000KT 6SM BR CLR 24/22 A3000 230 87 1400 000/00 RMK AO2 T02440222
53843K79J 79J20160723043511007/23/16 04:35:31  5-MIN K79J 230935Z AUTO 00000KT 6SM BR CLR 24/22 A3000 240 87 1400 000/00 RMK AO2 T02440222
53843K79J 79J20160723044011007/23/16 04:40:31  5-MIN K79J 230940Z AUTO 00000KT 5SM BR CLR 24/22 A3001 230 87 1400 000/00 RMK AO2 T02440222
53843K79J 79J20160723044511307/23/16 04:45:31  5-MIN K79J 230945Z AUTO 00000KT 5SM BR FEW001 24/22 A3001 230 87 1400 000/00 RMK AO2 T02440222
53843K79J 79J20160723045012007/23/16 04:50:31  5-MIN K79J 230950Z AUTO 00000KT 4SM BR SCT001 24/22 A3000 230 87 1400 000/00 RMK AO2 SLP155 T02440222
53843K79J 79J20160723045512407/23/16 04:55:31  5-MIN K79J 230955Z AUTO 00000KT 2 1/2SM BR BKN001 24/22 A3001 230 87 1400 000/00 RMK AO2 SLP155 T02440222
53843K79J 79J20160723050011707/23/16 05:00:31  5-MIN K79J 231000Z AUTO 00000KT 1 3/4SM BR BKN001 24/22 A3001 230 87 1400 000/00 RMK AO2 T02440222
53843K79J 79J20160723050511307/23/16 05:05:31  5-MIN K79J 231005Z AUTO 00000KT 2SM BR BKN002 24/22 A3001 230 87 1400 000/00 RMK AO2 T02440222
53843K79J 79J20160723051011307/23/16 05:10:31  5-MIN K79J 231010Z AUTO 00000KT 5SM BR OVC002 24/22 A3001 230 87 1400 000/00 RMK AO2 T02440222
53843K79J 79J20160723051511307/23/16 05:15:31  5-MIN K79J 231015Z AUTO 00000KT 6SM BR BKN002 24/22 A3001 230 87 1400 000/00 RMK AO2 T02440222
53843K79J 79J20160723052011307/23/16 05:20:31  5-MIN K79J 231020Z AUTO 00000KT 4SM HZ BKN002 24/22 A3002 220 84 1400 000/00 RMK AO2 T02440217
53843K79J 79J20160723052511307/23/16 05:25:31  5-MIN K79J 231025Z AUTO 00000KT 4SM BR BKN002 24/22 A3002 220 87 1400 000/00 RMK AO2 T02440222
53843K79J 79J20160723053011307/23/16 05:30:31  5-MIN K79J 231030Z AUTO 12003KT 4SM BR SCT002 24/22 A3001 220 87 1400 130/03 RMK AO2 T02440222
53843K79J 79J20160723053511307/23/16 05:35:31  5-MIN K79J 231035Z AUTO 00000KT 4SM BR FEW002 24/22 A3002 220 87 1400 000/00 RMK AO2 T02440222
53843K79J 79J20160723054011307/23/16 05:40:31  5-MIN K79J 231040Z AUTO 00000KT 4SM HZ FEW002 24/22 A3002 220 84 1400 000/00 RMK AO2 T02440217
53843K79J 79J20160723054511307/23/16 05:45:31  5-MIN K79J 231045Z AUTO 00000KT 5SM HZ FEW002 24/22 A3002 220 84 1400 000/00 RMK AO2 T02440217
53843K79J 79J20160723055012007/23/16 05:50:31  5-MIN K79J 231050Z AUTO 00000KT 5SM HZ FEW002 24/22 A3002 220 84 1400 000/00 RMK AO2 SLP160 T02440217
53843K79J 79J20160723055511707/23/16 05:55:31  5-MIN K79J 231055Z AUTO 00000KT 5SM BR CLR 24/22 A3002 220 87 1400 000/00 RMK AO2 SLP160 T02440222
53843K79J 79J20160723060011007/23/16 06:00:31  5-MIN K79J 231100Z AUTO 00000KT 6SM HZ CLR 24/22 A3002 220 84 1400 000/00 RMK AO2 T02440217
53843K79J 79J20160723060510707/23/16 06:05:31  5-MIN K79J 231105Z AUTO 00000KT 8SM CLR 24/22 A3002 220 84 1400 000/00 RMK AO2 T02440217
53843K79J 79J20160723061010707/23/16 06:10:31  5-MIN K79J 231110Z AUTO 00000KT 9SM CLR 24/22 A3002 220 87 1400 000/00 RMK AO2 T02440222
53843K79J 79J20160723061510807/23/16 06:15:31  5-MIN K79J 231115Z AUTO 00000KT 10SM CLR 24/22 A3002 220 87 1400 000/00 RMK AO2 T02440222
53843K79J 79J20160723062010707/23/16 06:20:31  5-MIN K79J 231120Z AUTO 00000KT 9SM CLR 25/22 A3002 220 84 1500 000/00 RMK AO2 T02500222
53843K79J 79J20160723062510707/23/16 06:25:31  5-MIN K79J 231125Z AUTO 00000KT 7SM CLR 24/22 A3002 220 87 1400 000/00 RMK AO2 T02440222
53843K79J 79J20160723063011007/23/16 06:30:31  5-MIN K79J 231130Z AUTO 00000KT 6SM BR CLR 24/22 A3002 220 87 1400 000/00 RMK AO2 T02440222
53843K79J 79J20160723063510707/23/16 06:35:31  5-MIN K79J 231135Z AUTO 00000KT 8SM CLR 25/22 A3002 220 84 1500 000/00 RMK AO2 T02500222
53843K79J 79J20160723064010807/23/16 06:40:31  5-MIN K79J 231140Z AUTO 00000KT 10SM CLR 26/22 A3002 220 81 1500 000/00 RMK AO2 T02560222
53843K79J 79J20160723064510807/23/16 06:45:31  5-MIN K79J 231145Z AUTO 30003KT 10SM CLR 26/22 A3002 220 81 1500 310/03 RMK AO2 T02560222
53843K79J 79J20160723065013807/23/16 06:50:31  5-MIN K79J 231150Z AUTO 30003KT 9SM CLR 25/22 A3002 220 84 1500 300/03 RMK AO2 SLP161 70039 T02500222 10256 20244 55004
53843K79J 79J20160723065513807/23/16 06:55:31  5-MIN K79J 231155Z AUTO 28003KT 8SM CLR 25/23 A3002 220 87 1500 280/03 RMK AO2 SLP162 70039 T02500228 10256 20244 55004
53843K79J 79J20160723070010707/23/16 07:00:31  5-MIN K79J 231200Z AUTO 00000KT 9SM CLR 26/23 A3002 220 84 1500 000/00 RMK AO2 T02560228
53843K79J 79J20160723070510807/23/16 07:05:31  5-MIN K79J 231205Z AUTO 00000KT 10SM CLR 26/23 A3003 210 84 1500 000/00 RMK AO2 T02560228
53843K79J 79J20160723071010807/23/16 07:10:31  5-MIN K79J 231210Z AUTO 00000KT 10SM CLR 26/23 A3003 210 81 1600 000/00 RMK AO2 T02610228
53843K79J 79J20160723071510807/23/16 07:15:31  5-MIN K79J 231215Z AUTO 00000KT 10SM CLR 26/23 A3003 210 81 1600 000/00 RMK AO2 T02610228
53843K79J 79J20160723072010807/23/16 07:20:31  5-MIN K79J 231220Z AUTO 00000KT 10SM CLR 26/23 A3003 210 81 1600 000/00 RMK AO2 T02610228
53843K79J 79J20160723072510807/23/16 07:25:31  5-MIN K79J 231225Z AUTO 00000KT 10SM CLR 27/23 A3003 210 79 1600 000/00 RMK AO2 T02670228
53843K79J 79J20160723073010807/23/16 07:30:31  5-MIN K79J 231230Z AUTO 09003KT 10SM CLR 27/23 A3003 210 79 1600 100/03 RMK AO2 T02670228
53843K79J 79J20160723073510807/23/16 07:35:31  5-MIN K79J 231235Z AUTO VRB03KT 10SM CLR 27/23 A3003 210 79 1600 VRB/03 RMK AO2 T02670228
53843K79J 79J20160723074010807/23/16 07:40:31  5-MIN K79J 231240Z AUTO 00000KT 10SM CLR 27/23 A3003 210 79 1700 000/00 RMK AO2 T02720233
53843K79J 79J20160723074510807/23/16 07:45:31  5-MIN K79J 231245Z AUTO 00000KT 10SM CLR 27/23 A3003 210 76 1700 000/00 RMK AO2 T02720228
53843K79J 79J20160723075011507/23/16 07:50:31  5-MIN K79J 231250Z AUTO 00000KT 10SM CLR 28/23 A3003 210 74 1800 000/00 RMK AO2 SLP165 T02780228
53843K79J 79J20160723075511507/23/16 07:55:31  5-MIN K79J 231255Z AUTO 00000KT 10SM CLR 28/23 A3004 210 74 1800 000/00 RMK AO2 SLP166 T02830233
53843K79J 79J20160723080010807/23/16 08:00:31  5-MIN K79J 231300Z AUTO 00000KT 10SM CLR 28/23 A3004 200 74 1800 000/00 RMK AO2 T02830233
53843K79J 79J20160723080510807/23/16 08:05:31  5-MIN K79J 231305Z AUTO 10003KT 10SM CLR 28/23 A3004 200 74 1800 100/03 RMK AO2 T02830233
53843K79J 79J20160723081010807/23/16 08:10:31  5-MIN K79J 231310Z AUTO 00000KT 10SM CLR 29/23 A3004 200 71 1900 000/00 RMK AO2 T02890233
53843K79J 79J20160723081510807/23/16 08:15:31  5-MIN K79J 231315Z AUTO 10003KT 10SM CLR 29/23 A3004 200 71 1900 100/03 RMK AO2 T02890233
53843K79J 79J20160723082010807/23/16 08:20:31  5-MIN K79J 231320Z AUTO 11004KT 10SM CLR 29/23 A3004 200 71 1900 110/04 RMK AO2 T02890233
53843K79J 79J20160723082510807/23/16 08:25:31  5-MIN K79J 231325Z AUTO 00000KT 10SM CLR 29/23 A3004 200 71 1900 000/00 RMK AO2 T02890233
53843K79J 79J20160723083010807/23/16 08:30:31  5-MIN K79J 231330Z AUTO 00000KT 10SM CLR 29/24 A3004 200 71 1900 000/00 RMK AO2 T02940239
53843K79J 79J20160723083510807/23/16 08:35:31  5-MIN K79J 231335Z AUTO 00000KT 10SM CLR 29/24 A3004 200 71 1900 000/00 RMK AO2 T02940239
53843K79J 79J20160723084010807/23/16 08:40:31  5-MIN K79J 231340Z AUTO 09004KT 10SM CLR 29/24 A3004 200 71 1900 090/04 RMK AO2 T02940239
53843K79J 79J20160723084510807/23/16 08:45:31  5-MIN K79J 231345Z AUTO VRB03KT 10SM CLR 30/24 A3004 200 69 2000 VRB/03 RMK AO2 T03000239
53843K79J 79J20160723085011507/23/16 08:50:31  5-MIN K79J 231350Z AUTO 13004KT 10SM CLR 30/24 A3004 200 69 2000 140/04 RMK AO2 SLP168 T03000239
53843K79J 79J20160723085511507/23/16 08:55:31  5-MIN K79J 231355Z AUTO 12004KT 10SM CLR 30/23 A3004 200 67 2000 120/04 RMK AO2 SLP168 T03000233
53843K79J 79J20160723090010807/23/16 09:00:31  5-MIN K79J 231400Z AUTO 16004KT 10SM CLR 30/24 A3004 200 69 2000 160/04 RMK AO2 T03000239
53843K79J 79J20160723090510807/23/16 09:05:31  5-MIN K79J 231405Z AUTO 11004KT 10SM CLR 30/24 A3004 200 69 2000 110/04 RMK AO2 T03000239
53843K79J 79J20160723091010807/23/16 09:10:31  5-MIN K79J 231410Z AUTO 10004KT 10SM CLR 31/24 A3004 200 67 2100 100/04 RMK AO2 T03060239
53843K79J 79J20160723091510807/23/16 09:15:31  5-MIN K79J 231415Z AUTO 08004KT 10SM CLR 31/24 A3004 200 67 2100 080/04 RMK AO2 T03060239
53843K79J 79J20160723092010807/23/16 09:20:31  5-MIN K79J 231420Z AUTO 07003KT 10SM CLR 31/24 A3004 200 65 2100 070/03 RMK AO2 T03110239
53843K79J 79J20160723092510807/23/16 09:25:31  5-MIN K79J 231425Z AUTO 00000KT 10SM CLR 31/24 A3004 200 67 2100 000/00 RMK AO2 T03060239
53843K79J 79J20160723093010807/23/16 09:30:31  5-MIN K79J 231430Z AUTO 00000KT 10SM CLR 31/24 A3004 200 65 2100 000/00 RMK AO2 T03110239
53843K79J 79J20160723093511107/23/16 09:35:31  5-MIN K79J 231435Z AUTO 00000KT 10SM FEW016 31/24 A3004 200 65 2100 000/00 RMK AO2 T03110239
53843K79J 79J20160723094011107/23/16 09:40:31  5-MIN K79J 231440Z AUTO 10004KT 10SM SCT016 32/24 A3005 200 65 2200 100/04 RMK AO2 T03170244
53843K79J 79J20160723094511107/23/16 09:45:31  5-MIN K79J 231445Z AUTO 07004KT 10SM FEW018 32/24 A3005 200 63 2200 070/04 RMK AO2 T03170239
53843K79J 79J20160723095012407/23/16 09:50:31  5-MIN K79J 231450Z AUTO VRB03KT 10SM SCT020 32/23 A3005 200 61 2200 VRB/03 RMK AO2 SLP169 T03170233 53005
53843K79J 79J20160723095512407/23/16 09:55:31  5-MIN K79J 231455Z AUTO VRB03KT 10SM BKN020 32/24 A3005 200 61 2200 VRB/03 RMK AO2 SLP169 T03220239 53005
53843K79J 79J20160723100011107/23/16 10:00:31  5-MIN K79J 231500Z AUTO 10003KT 10SM BKN020 32/23 A3004 200 59 2200 100/03 RMK AO2 T03220233
53843K79J 79J20160723100511107/23/16 10:05:31  5-MIN K79J 231505Z AUTO 00000KT 10SM SCT020 31/23 A3004 200 63 2100 000/00 RMK AO2 T03110233
53843K79J 79J20160723101011107/23/16 10:10:31  5-MIN K79J 231510Z AUTO 00000KT 10SM SCT020 31/23 A3004 200 63 2100 000/00 RMK AO2 T03110233
53843K79J 79J20160723101511107/23/16 10:15:31  5-MIN K79J 231515Z AUTO 00000KT 10SM FEW020 32/23 A3004 200 61 2200 000/00 RMK AO2 T03170233
53843K79J 79J20160723102011107/23/16 10:20:31  5-MIN K79J 231520Z AUTO VRB03KT 10SM FEW020 32/23 A3004 200 59 2300 VRB/03 RMK AO2 T03220233
53843K79J 79J20160723102510807/23/16 10:25:31  5-MIN K79J 231525Z AUTO 11004KT 10SM CLR 32/23 A3004 200 59 2300 120/04 RMK AO2 T03220233
53843K79J 79J20160723103010807/23/16 10:30:31  5-MIN K79J 231530Z AUTO 13003KT 10SM CLR 32/23 A3004 200 61 2200 130/03 RMK AO2 T03170233
53843K79J 79J20160723103510807/23/16 10:35:31  5-MIN K79J 231535Z AUTO VRB03KT 10SM CLR 32/23 A3004 200 61 2200 VRB/03 RMK AO2 T03170233
53843K79J 79J20160723104010807/23/16 10:40:31  5-MIN K79J 231540Z AUTO VRB03KT 10SM CLR 32/23 A3004 200 59 2300 VRB/03 RMK AO2 T03220233
53843K79J 79J20160723104510807/23/16 10:45:31  5-MIN K79J 231545Z AUTO 10004KT 10SM CLR 33/23 A3004 200 57 2300 100/04 RMK AO2 T03280233
53843K79J 79J20160723105011507/23/16 10:50:31  5-MIN K79J 231550Z AUTO 13003KT 10SM CLR 33/23 A3004 200 57 2300 130/03 RMK AO2 SLP167 T03280233
53843K79J 79J20160723105511507/23/16 10:55:31  5-MIN K79J 231555Z AUTO 07005KT 10SM CLR 33/23 A3004 200 55 2300 070/05 RMK AO2 SLP167 T03280228
53843K79J 79J20160723110010807/23/16 11:00:31  5-MIN K79J 231600Z AUTO 00000KT 10SM CLR 33/23 A3004 200 55 2400 000/00 RMK AO2 T03330233
53843K79J 79J20160723110510807/23/16 11:05:31  5-MIN K79J 231605Z AUTO 10005KT 10SM CLR 33/23 A3004 210 55 2400 100/05 RMK AO2 T03330233
53843K79J 79J20160723111010807/23/16 11:10:31  5-MIN K79J 231610Z AUTO 15003KT 10SM CLR 33/23 A3003 210 55 2300 150/03 RMK AO2 T03280228
53843K79J 79J20160723111510807/23/16 11:15:31  5-MIN K79J 231615Z AUTO 00000KT 10SM CLR 33/23 A3003 210 57 2300 000/00 RMK AO2 T03280233
53843K79J 79J20160723112009807/23/16 11:20:31  5-MIN K79J 231620Z AUTO 10SM CLR 33/23 A3003 210 55 2400 M /M RMK AO2 T03330233
53843K79J 79J20160723112510807/23/16 11:25:31  5-MIN K79J 231625Z AUTO 11007KT 10SM CLR 33/23 A3003 210 53 2400 110/07 RMK AO2 T03330228
53843K79J 79J20160723113011107/23/16 11:30:31  5-MIN K79J 231630Z AUTO 09006KT 10SM FEW027 33/23 A3003 210 53 2400 090/06 RMK AO2 T03330228
53843K79J 79J20160723113511107/23/16 11:35:31  5-MIN K79J 231635Z AUTO VRB04KT 10SM FEW027 33/23 A3003 210 55 2400 VRB/04 RMK AO2 T03330233
53843K79J 79J20160723114011107/23/16 11:40:31  5-MIN K79J 231640Z AUTO VRB03KT 10SM FEW028 33/22 A3003 210 51 2400 VRB/03 RMK AO2 T03330222
53843K79J 79J20160723114511107/23/16 11:45:31  5-MIN K79J 231645Z AUTO 10005KT 10SM FEW028 34/23 A3003 210 53 2500 110/05 RMK AO2 T03390233
53843K79J 79J20160723214510807/23/16 21:45:31  5-MIN K79J 240245Z AUTO 00000KT 10SM CLR 27/24 A3000 230 82 1700 000/00 RMK AO2 T02720239
53843K79J 79J20160723215012107/23/16 21:50:31  5-MIN K79J 240250Z AUTO 00000KT 10SM CLR 27/24 A3001 230 82 1700 000/00 RMK AO2 SLP155 T02720239 55000
53843K79J 79J20160723215512107/23/16 21:55:31  5-MIN K79J 240255Z AUTO 00000KT 10SM CLR 27/24 A3001 230 84 1700 000/00 RMK AO2 SLP156 T02720244 55000
53843K79J 79J20160723220010807/23/16 22:00:31  5-MIN K79J 240300Z AUTO 00000KT 10SM CLR 27/24 A3001 230 82 1700 000/00 RMK AO2 T02720239
53843K79J 79J20160723220510807/23/16 22:05:31  5-MIN K79J 240305Z AUTO 00000KT 10SM CLR 27/24 A3001 230 82 1700 000/00 RMK AO2 T02720239
53843K79J 79J20160723221010807/23/16 22:10:31  5-MIN K79J 240310Z AUTO 00000KT 10SM CLR 27/24 A3001 230 84 1700 000/00 RMK AO2 T02670239
53843K79J 79J20160723221510807/23/16 22:15:31  5-MIN K79J 240315Z AUTO 00000KT 10SM CLR 27/24 A3001 230 84 1700 000/00 RMK AO2 T02670239
53843K79J 79J20160723222010807/23/16 22:20:31  5-MIN K79J 240320Z AUTO 00000KT 10SM CLR 27/24 A3001 230 84 1700 000/00 RMK AO2 T02670239
53843K79J 79J20160723222510807/23/16 22:25:31  5-MIN K79J 240325Z AUTO 13003KT 10SM CLR 27/24 A3001 230 84 1700 140/03 RMK AO2 T02670239
53843K79J 79J20160723223010807/23/16 22:30:31  5-MIN K79J 240330Z AUTO 13003KT 10SM CLR 27/24 A3001 230 84 1700 130/03 RMK AO2 T02670239
53843K79J 79J20160723223510807/23/16 22:35:31  5-MIN K79J 240335Z AUTO 00000KT 10SM CLR 27/24 A3001 230 84 1700 000/00 RMK AO2 T02670239
53843K79J 79J20160723224010807/23/16 22:40:31  5-MIN K79J 240340Z AUTO 00000KT 10SM CLR 27/24 A3002 220 84 1700 000/00 RMK AO2 T02670239
53843K79J 79J20160723224510807/23/16 22:45:31  5-MIN K79J 240345Z AUTO 12003KT 10SM CLR 27/24 A3002 220 84 1700 120/03 RMK AO2 T02670239
53843K79J 79J20160723225510107/23/16 22:55:31  5-MIN K79J 240355Z AUTO 14003KT 27/24 A3002 220 84 1700 140/03 RMK AO2 T02670239 $
53843K79J 79J20160723230010607/23/16 23:00:31  5-MIN K79J 240400Z AUTO 14003KT 10SM 27/24 A3002 220 84 1700 150/03 RMK AO2 T02670239 $
53843K79J 79J20160723230510607/23/16 23:05:31  5-MIN K79J 240405Z AUTO 00000KT 10SM 27/24 A3002 220 84 1700 000/00 RMK AO2 T02670239 $
53843K79J 79J20160723231010607/23/16 23:10:31  5-MIN K79J 240410Z AUTO 16003KT 10SM 27/24 A3002 220 84 1700 170/03 RMK AO2 T02670239 $
53843K79J 79J20160723231510607/23/16 23:15:31  5-MIN K79J 240415Z AUTO 00000KT 10SM 27/24 A3002 220 84 1700 000/00 RMK AO2 T02670239 $
53843K79J 79J20160723232010607/23/16 23:20:31  5-MIN K79J 240420Z AUTO 16003KT 10SM 27/24 A3002 220 84 1700 160/03 RMK AO2 T02670239 $
53843K79J 79J20160723232511007/23/16 23:25:31  5-MIN K79J 240425Z AUTO 00000KT 10SM CLR 27/24 A3002 220 84 1700 000/00 RMK AO2 T02670239 $
53843K79J 79J20160723233011007/23/16 23:30:31  5-MIN K79J 240430Z AUTO 00000KT 10SM CLR 27/24 A3002 220 84 1700 000/00 RMK AO2 T02670239 $
53843K79J 79J20160723233511007/23/16 23:35:31  5-MIN K79J 240435Z AUTO 00000KT 10SM CLR 27/24 A3002 220 84 1700 000/00 RMK AO2 T02670239 $
53843K79J 79J20160723234011007/23/16 23:40:31  5-MIN K79J 240440Z AUTO 00000KT 10SM CLR 27/24 A3002 220 84 1700 000/00 RMK AO2 T02670239 $
53843K79J 79J20160723234511007/23/16 23:45:31  5-MIN K79J 240445Z AUTO 00000KT 10SM CLR 27/24 A3002 220 84 1700 000/00 RMK AO2 T02670239 $
53843K79J 79J20160723235012707/23/16 23:50:31  5-MIN K79J 240450Z AUTO 00000KT 10SM CLR 27/24 A3002 220 84 1700 000/00 RMK AO2 SLP160 T02670239 403560244 $
53843K79J 79J20160723235507007/23/16 23:55:31  5-MIN K79J 240455Z AUTO M M M M /M RMK AO2 FZRANO $
53843K79J 79J20160724000010107/24/16 00:00:31  5-MIN K79J 240500Z AUTO 00000KT 27/24 A3002 220 84 1700 000/00 RMK AO2 T02670239 $
53843K79J 79J20160724000510607/24/16 00:05:31  5-MIN K79J 240505Z AUTO 00000KT 10SM 27/24 A3002 220 84 1700 000/00 RMK AO2 T02670239 $
53843K79J 79J20160724001010607/24/16 00:10:31  5-MIN K79J 240510Z AUTO 00000KT 10SM 27/24 A3002 220 84 1700 000/00 RMK AO2 T02670239 $
53843K79J 79J20160724001510607/24/16 00:15:31  5-MIN K79J 240515Z AUTO 00000KT 10SM 27/24 A3002 220 84 1700 000/00 RMK AO2 T02670239 $
53843K79J 79J20160724002010607/24/16 00:20:31  5-MIN K79J 240520Z AUTO 00000KT 10SM 26/24 A3001 230 87 1600 000/00 RMK AO2 T02610239 $
53843K79J 79J20160724002511007/24/16 00:25:31  5-MIN K79J 240525Z AUTO 15003KT 10SM CLR 26/23 A3001 230 84 1600 160/03 RMK AO2 T02610233 $
53843K79J 79J20160724003011007/24/16 00:30:31  5-MIN K79J 240530Z AUTO 00000KT 10SM CLR 26/23 A3001 230 84 1600 000/00 RMK AO2 T02610233 $
53843K79J 79J20160724003511007/24/16 00:35:31  5-MIN K79J 240535Z AUTO 00000KT 10SM CLR 26/23 A3001 230 84 1600 000/00 RMK AO2 T02610233 $
53843K79J 79J20160724004011007/24/16 00:40:31  5-MIN K79J 240540Z AUTO 00000KT 10SM CLR 26/24 A3001 230 87 1600 000/00 RMK AO2 T02610239 $
53843K79J 79J20160724004511007/24/16 00:45:31  5-MIN K79J 240545Z AUTO 00000KT 10SM CLR 26/24 A3001 230 87 1600 000/00 RMK AO2 T02610239 $
53843K79J 79J20160724005012907/24/16 00:50:31  5-MIN K79J 240550Z AUTO 00000KT 10SM CLR 26/23 A3001 230 84 1600 000/00 RMK AO2 SLP156 T02610233 10339 20261 $
53843K79J 79J20160724005512907/24/16 00:55:31  5-MIN K79J 240555Z AUTO 00000KT 10SM CLR 26/23 A3001 230 84 1600 000/00 RMK AO2 SLP155 T02610233 10339 20261 $
53843K79J 79J20160724010011007/24/16 01:00:31  5-MIN K79J 240600Z AUTO 00000KT 10SM CLR 27/23 A3000 240 82 1700 000/00 RMK AO2 T02670233 $
53843K79J 79J20160724010511007/24/16 01:05:31  5-MIN K79J 240605Z AUTO 00000KT 10SM CLR 27/23 A3000 240 82 1700 000/00 RMK AO2 T02670233 $
53843K79J 79J20160724011011007/24/16 01:10:31  5-MIN K79J 240610Z AUTO 00000KT 10SM CLR 27/23 A3000 240 82 1700 000/00 RMK AO2 T02670233 $
53843K79J 79J20160724011511007/24/16 01:15:31  5-MIN K79J 240615Z AUTO 19003KT 10SM CLR 26/23 A3000 240 84 1600 200/03 RMK AO2 T02610233 $
53843K79J 79J20160724012011007/24/16 01:20:31  5-MIN K79J 240620Z AUTO 00000KT 10SM CLR 26/23 A3000 240 84 1600 000/00 RMK AO2 T02610233 $
53843K79J 79J20160724012511007/24/16 01:25:31  5-MIN K79J 240625Z AUTO 00000KT 10SM CLR 26/23 A2999 240 84 1600 000/00 RMK AO2 T02610233 $
53843K79J 79J20160724013011007/24/16 01:30:31  5-MIN K79J 240630Z AUTO 00000KT 10SM CLR 26/23 A2999 240 84 1600 000/00 RMK AO2 T02610233 $
53843K79J 79J20160724013511007/24/16 01:35:31  5-MIN K79J 240635Z AUTO 00000KT 10SM CLR 26/23 A2999 240 84 1600 000/00 RMK AO2 T02610233 $
53843K79J 79J20160724014011007/24/16 01:40:31  5-MIN K79J 240640Z AUTO 00000KT 10SM CLR 26/23 A2999 240 84 1600 000/00 RMK AO2 T02610233 $
53843K79J 79J20160724014511007/24/16 01:45:31  5-MIN K79J 240645Z AUTO 00000KT 10SM CLR 26/23 A2999 250 84 1600 000/00 RMK AO2 T02610233 $
53843K79J 79J20160724015011707/24/16 01:50:31  5-MIN K79J 240650Z AUTO 00000KT 10SM CLR 26/23 A2999 250 84 1600 000/00 RMK AO2 SLP150 T02610233 $
53843K79J 79J20160724015511707/24/16 01:55:31  5-MIN K79J 240655Z AUTO 10003KT 10SM CLR 26/23 A2999 240 84 1600 100/03 RMK AO2 SLP150 T02610233 $
53843K79J 79J20160724020011007/24/16 02:00:31  5-MIN K79J 240700Z AUTO 11003KT 10SM CLR 26/23 A2999 240 84 1600 110/03 RMK AO2 T02610233 $
53843K79J 79J20160724020511007/24/16 02:05:31  5-MIN K79J 240705Z AUTO 00000KT 10SM CLR 26/23 A2999 250 87 1600 000/00 RMK AO2 T02560233 $
53843K79J 79J20160724021011007/24/16 02:10:31  5-MIN K79J 240710Z AUTO 12003KT 10SM CLR 26/23 A2999 250 87 1600 120/03 RMK AO2 T02560233 $
53843K79J 79J20160724021511007/24/16 02:15:31  5-MIN K79J 240715Z AUTO 11004KT 10SM CLR 26/23 A2999 250 87 1600 110/04 RMK AO2 T02560233 $
53843K79J 79J20160724022011007/24/16 02:20:31  5-MIN K79J 240720Z AUTO 11003KT 10SM CLR 26/23 A2999 250 87 1600 110/03 RMK AO2 T02560233 $
53843K79J 79J20160724022511007/24/16 02:25:31  5-MIN K79J 240725Z AUTO 00000KT 10SM CLR 26/23 A2999 250 87 1600 000/00 RMK AO2 T02560233 $
53843K79J 79J20160724023011007/24/16 02:30:31  5-MIN K79J 240730Z AUTO 00000KT 10SM CLR 26/23 A2999 250 87 1600 000/00 RMK AO2 T02560233 $
53843K79J 79J20160724023511007/24/16 02:35:31  5-MIN K79J 240735Z AUTO 00000KT 10SM CLR 26/23 A2999 250 84 1600 000/00 RMK AO2 T02560228 $
53843K79J 79J20160724024011007/24/16 02:40:31  5-MIN K79J 240740Z AUTO 00000KT 10SM CLR 26/23 A2998 250 84 1600 000/00 RMK AO2 T02560228 $
53843K79J 79J20160724024511007/24/16 02:45:31  5-MIN K79J 240745Z AUTO 00000KT 10SM CLR 26/23 A2998 250 84 1600 000/00 RMK AO2 T02560228 $
53843K79J 79J20160724025011707/24/16 02:50:31  5-MIN K79J 240750Z AUTO 00000KT 10SM CLR 26/23 A2998 250 84 1600 000/00 RMK AO2 SLP147 T02560228 $
53843K79J 79J20160724025511707/24/16 02:55:31  5-MIN K79J 240755Z AUTO 00000KT 10SM CLR 26/23 A2998 260 84 1600 000/00 RMK AO2 SLP146 T02560228 $
53843K79J 79J20160724030011007/24/16 03:00:31  5-MIN K79J 240800Z AUTO 00000KT 10SM CLR 26/23 A2998 250 84 1600 000/00 RMK AO2 T02560228 $
53843K79J 79J20160724030511007/24/16 03:05:31  5-MIN K79J 240805Z AUTO 00000KT 10SM CLR 26/23 A2998 260 84 1600 000/00 RMK AO2 T02560228 $
53843K79J 79J20160724031011007/24/16 03:10:31  5-MIN K79J 240810Z AUTO 00000KT 10SM CLR 26/23 A2998 260 84 1600 000/00 RMK AO2 T02560228 $
53843K79J 79J20160724031511007/24/16 03:15:31  5-MIN K79J 240815Z AUTO 00000KT 10SM CLR 26/23 A2998 260 84 1600 000/00 RMK AO2 T02560228 $
53843K79J 79J20160724032011007/24/16 03:20:31  5-MIN K79J 240820Z AUTO 00000KT 10SM CLR 26/23 A2998 260 84 1600 000/00 RMK AO2 T02560228 $
53843K79J 79J20160724032511007/24/16 03:25:31  5-MIN K79J 240825Z AUTO 00000KT 10SM CLR 26/23 A2998 260 84 1600 000/00 RMK AO2 T02560228 $
53843K79J 79J20160724033011007/24/16 03:30:31  5-MIN K79J 240830Z AUTO 00000KT 10SM CLR 26/23 A2998 260 84 1600 000/00 RMK AO2 T02560228 $
53843K79J 79J20160724033511007/24/16 03:35:31  5-MIN K79J 240835Z AUTO 00000KT 10SM CLR 26/23 A2998 260 84 1600 000/00 RMK AO2 T02560228 $
53843K79J 79J20160724034011007/24/16 03:40:31  5-MIN K79J 240840Z AUTO 00000KT 10SM CLR 26/23 A2998 260 84 1600 000/00 RMK AO2 T02560228 $
53843K79J 79J20160724034511007/24/16 03:45:31  5-MIN K79J 240845Z AUTO 00000KT 10SM CLR 25/23 A2998 260 87 1500 000/00 RMK AO2 T02500228 $
53843K79J 79J20160724035011707/24/16 03:50:31  5-MIN K79J 240850Z AUTO 00000KT 10SM CLR 25/23 A2998 250 87 1500 000/00 RMK AO2 SLP147 T02500228 $
53843K79J 79J20160724035511707/24/16 03:55:31  5-MIN K79J 240855Z AUTO 00000KT 10SM CLR 25/23 A2998 250 87 1500 000/00 RMK AO2 SLP147 T02500228 $
53843K79J 79J20160724040011007/24/16 04:00:31  5-MIN K79J 240900Z AUTO 00000KT 10SM CLR 25/23 A2998 250 87 1500 000/00 RMK AO2 T02500228 $
53843K79J 79J20160724040511007/24/16 04:05:31  5-MIN K79J 240905Z AUTO 00000KT 10SM CLR 25/23 A2998 250 87 1500 000/00 RMK AO2 T02500228 $
53843K79J 79J20160724041011007/24/16 04:10:31  5-MIN K79J 240910Z AUTO 00000KT 10SM CLR 25/23 A2998 250 87 1500 000/00 RMK AO2 T02500228 $
53843K79J 79J20160724041511007/24/16 04:15:31  5-MIN K79J 240915Z AUTO 00000KT 10SM CLR 25/23 A2999 250 87 1500 000/00 RMK AO2 T02500228 $
53843K79J 79J20160724042011007/24/16 04:20:31  5-MIN K79J 240920Z AUTO 00000KT 10SM CLR 25/22 A2999 250 84 1500 000/00 RMK AO2 T02500222 $
53843K79J 79J20160724042511007/24/16 04:25:31  5-MIN K79J 240925Z AUTO 09003KT 10SM CLR 25/22 A2999 250 84 1500 100/03 RMK AO2 T02500222 $
53843K79J 79J20160724043011007/24/16 04:30:31  5-MIN K79J 240930Z AUTO 10003KT 10SM CLR 25/22 A2999 250 84 1500 100/03 RMK AO2 T02500222 $
53843K79J 79J20160724043511007/24/16 04:35:31  5-MIN K79J 240935Z AUTO 08003KT 10SM CLR 25/22 A2999 250 84 1500 090/03 RMK AO2 T02500222 $
53843K79J 79J20160724044011007/24/16 04:40:31  5-MIN K79J 240940Z AUTO 10003KT 10SM CLR 25/22 A2999 240 84 1500 110/03 RMK AO2 T02500222 $
53843K79J 79J20160724044511007/24/16 04:45:31  5-MIN K79J 240945Z AUTO 00000KT 10SM CLR 25/22 A3000 240 84 1500 000/00 RMK AO2 T02500222 $
53843K79J 79J20160724045011707/24/16 04:50:31  5-MIN K79J 240950Z AUTO 00000KT 10SM CLR 25/22 A3000 240 84 1500 000/00 RMK AO2 SLP154 T02500222 $
53843K79J 79J20160724045511707/24/16 04:55:31  5-MIN K79J 240955Z AUTO 00000KT 10SM CLR 25/22 A3000 240 84 1500 000/00 RMK AO2 SLP154 T02500222 $
53843K79J 79J20160724050011007/24/16 05:00:31  5-MIN K79J 241000Z AUTO 00000KT 10SM CLR 25/22 A3001 230 84 1500 000/00 RMK AO2 T02500222 $
53843K79J 79J20160724050511007/24/16 05:05:31  5-MIN K79J 241005Z AUTO 00000KT 10SM CLR 25/22 A3001 230 84 1500 000/00 RMK AO2 T02500222 $
53843K79J 79J20160724051011007/24/16 05:10:31  5-MIN K79J 241010Z AUTO 00000KT 10SM CLR 25/22 A3001 230 84 1500 000/00 RMK AO2 T02500222 $
53843K79J 79J20160724051511007/24/16 05:15:31  5-MIN K79J 241015Z AUTO 00000KT 10SM CLR 25/22 A3001 230 84 1500 000/00 RMK AO2 T02500222 $
53843K79J 79J20160724052011007/24/16 05:20:31  5-MIN K79J 241020Z AUTO 00000KT 10SM CLR 25/22 A3001 230 84 1500 000/00 RMK AO2 T02500222 $
53843K79J 79J20160724052511007/24/16 05:25:31  5-MIN K79J 241025Z AUTO 00000KT 10SM CLR 25/22 A3001 230 84 1500 000/00 RMK AO2 T02500222 $
53843K79J 79J20160724053011007/24/16 05:30:31  5-MIN K79J 241030Z AUTO 00000KT 10SM CLR 25/22 A3001 230 84 1500 000/00 RMK AO2 T02500222 $
53843K79J 79J20160724053511007/24/16 05:35:31  5-MIN K79J 241035Z AUTO 00000KT 10SM CLR 25/22 A3001 230 84 1500 000/00 RMK AO2 T02500222 $
53843K79J 79J20160724054011007/24/16 05:40:31  5-MIN K79J 241040Z AUTO 00000KT 10SM CLR 25/22 A3001 230 84 1500 000/00 RMK AO2 T02500222 $
53843K79J 79J20160724054511007/24/16 05:45:31  5-MIN K79J 241045Z AUTO 00000KT 10SM CLR 25/22 A3001 230 84 1500 000/00 RMK AO2 T02500222 $
53843K79J 79J20160724055011707/24/16 05:50:31  5-MIN K79J 241050Z AUTO 00000KT 10SM CLR 25/22 A3001 230 84 1500 000/00 RMK AO2 SLP158 T02500222 $
53843K79J 79J20160724055511707/24/16 05:55:31  5-MIN K79J 241055Z AUTO 00000KT 10SM CLR 25/22 A3001 230 84 1500 000/00 RMK AO2 SLP158 T02500222 $
53843K79J 79J20160724060011007/24/16 06:00:31  5-MIN K79J 241100Z AUTO 00000KT 10SM CLR 24/22 A3001 230 87 1400 000/00 RMK AO2 T02440222 $
53843K79J 79J20160724060510907/24/16 06:05:31  5-MIN K79J 241105Z AUTO 11003KT 9SM CLR 24/22 A3001 220 87 1400 110/03 RMK AO2 T02440222 $
53843K79J 79J20160724061010907/24/16 06:10:31  5-MIN K79J 241110Z AUTO 10003KT 8SM CLR 24/22 A3001 220 87 1400 100/03 RMK AO2 T02440222 $
53843K79J 79J20160724061510907/24/16 06:15:31  5-MIN K79J 241115Z AUTO 00000KT 8SM CLR 24/22 A3002 220 87 1400 000/00 RMK AO2 T02440222 $
53843K79J 79J20160724062010907/24/16 06:20:31  5-MIN K79J 241120Z AUTO 00000KT 9SM CLR 25/22 A3001 220 84 1500 000/00 RMK AO2 T02500222 $
53843K79J 79J20160724062510907/24/16 06:25:31  5-MIN K79J 241125Z AUTO 00000KT 9SM CLR 25/22 A3002 220 84 1500 000/00 RMK AO2 T02500222 $
53843K79J 79J20160724063010907/24/16 06:30:31  5-MIN K79J 241130Z AUTO 00000KT 9SM CLR 25/23 A3001 230 87 1500 000/00 RMK AO2 T02500228 $
53843K79J 79J20160724063511007/24/16 06:35:31  5-MIN K79J 241135Z AUTO 00000KT 10SM CLR 25/23 A3002 220 87 1500 000/00 RMK AO2 T02500228 $
53843K79J 79J20160724064011007/24/16 06:40:31  5-MIN K79J 241140Z AUTO 00000KT 10SM CLR 25/23 A3002 220 87 1500 000/00 RMK AO2 T02500228 $
53843K79J 79J20160724064511007/24/16 06:45:31  5-MIN K79J 241145Z AUTO 00000KT 10SM CLR 25/23 A3002 220 87 1500 000/00 RMK AO2 T02500228 $
53843K79J 79J20160724065013507/24/16 06:50:31  5-MIN K79J 241150Z AUTO 00000KT 10SM CLR 26/23 A3002 220 84 1500 000/00 RMK AO2 SLP160 T02560228 10267 20244 55007 $
53843K79J 79J20160724065513507/24/16 06:55:31  5-MIN K79J 241155Z AUTO 00000KT 10SM CLR 26/23 A3002 220 84 1500 000/00 RMK AO2 SLP160 T02560228 10267 20244 55007 $
53843K79J 79J20160724070011007/24/16 07:00:31  5-MIN K79J 241200Z AUTO 00000KT 10SM CLR 26/23 A3002 220 84 1500 000/00 RMK AO2 T02560228 $
53843K79J 79J20160724070511007/24/16 07:05:31  5-MIN K79J 241205Z AUTO 00000KT 10SM CLR 26/23 A3003 220 84 1600 000/00 RMK AO2 T02610233 $
53843K79J 79J20160724071011007/24/16 07:10:31  5-MIN K79J 241210Z AUTO 09003KT 10SM CLR 27/23 A3003 210 82 1600 100/03 RMK AO2 T02670233 $
53843K79J 79J20160724071511007/24/16 07:15:31  5-MIN K79J 241215Z AUTO 00000KT 10SM CLR 27/23 A3003 210 82 1600 000/00 RMK AO2 T02670233 $
53843K79J 79J20160724072011007/24/16 07:20:31  5-MIN K79J 241220Z AUTO 00000KT 10SM CLR 27/24 A3003 210 84 1600 000/00 RMK AO2 T02670239 $
53843K79J 79J20160724072511007/24/16 07:25:31  5-MIN K79J 241225Z AUTO 11003KT 10SM CLR 27/24 A3003 210 84 1600 110/03 RMK AO2 T02670239 $
53843K79J 79J20160724073011007/24/16 07:30:31  5-MIN K79J 241230Z AUTO 09004KT 10SM CLR 27/24 A3003 210 82 1700 090/04 RMK AO2 T02720239 $
53843K79J 79J20160724073511007/24/16 07:35:31  5-MIN K79J 241235Z AUTO 12004KT 10SM CLR 27/24 A3004 210 82 1700 120/04 RMK AO2 T02720239 $
53843K79J 79J20160724074011007/24/16 07:40:31  5-MIN K79J 241240Z AUTO 11003KT 10SM CLR 27/24 A3004 210 82 1700 110/03 RMK AO2 T02720239 $
53843K79J 79J20160724074511007/24/16 07:45:31  5-MIN K79J 241245Z AUTO 12003KT 10SM CLR 28/24 A3004 200 79 1800 120/03 RMK AO2 T02780239 $
53843K79J 79J20160724075011707/24/16 07:50:31  5-MIN K79J 241250Z AUTO 11003KT 10SM CLR 28/24 A3004 200 76 1800 110/03 RMK AO2 SLP167 T02830239 $
53843K79J 79J20160724075511707/24/16 07:55:31  5-MIN K79J 241255Z AUTO 10003KT 10SM CLR 28/24 A3004 200 76 1800 100/03 RMK AO2 SLP168 T02830239 $
53843K79J 79J20160724080011007/24/16 08:00:31  5-MIN K79J 241300Z AUTO 09003KT 10SM CLR 29/24 A3004 200 74 1900 090/03 RMK AO2 T02890239 $
53843K79J 79J20160724080511007/24/16 08:05:31  5-MIN K79J 241305Z AUTO 10003KT 10SM CLR 29/24 A3004 200 74 1900 100/03 RMK AO2 T02890239 $
53843K79J 79J20160724081011007/24/16 08:10:31  5-MIN K79J 241310Z AUTO 00000KT 10SM CLR 29/24 A3005 200 71 1900 000/00 RMK AO2 T02940239 $
53843K79J 79J20160724081511007/24/16 08:15:31  5-MIN K79J 241315Z AUTO 15003KT 10SM CLR 29/24 A3004 200 71 1900 150/03 RMK AO2 T02940239 $
53843K79J 79J20160724082011007/24/16 08:20:31  5-MIN K79J 241320Z AUTO 10003KT 10SM CLR 29/23 A3004 200 69 1900 100/03 RMK AO2 T02940233 $
53843K79J 79J20160724082511007/24/16 08:25:31  5-MIN K79J 241325Z AUTO 00000KT 10SM CLR 30/24 A3004 200 69 2000 000/00 RMK AO2 T03000239 $
53843K79J 79J20160724083011007/24/16 08:30:31  5-MIN K79J 241330Z AUTO 11003KT 10SM CLR 30/24 A3004 200 69 2000 110/03 RMK AO2 T03000239 $
53843K79J 79J20160724083511007/24/16 08:35:31  5-MIN K79J 241335Z AUTO 10003KT 10SM CLR 31/24 A3004 200 67 2100 100/03 RMK AO2 T03060239 $
53843K79J 79J20160724084011007/24/16 08:40:31  5-MIN K79J 241340Z AUTO 00000KT 10SM CLR 31/23 A3004 200 65 2100 000/00 RMK AO2 T03060233 $
53843K79J 79J20160724084511007/24/16 08:45:31  5-MIN K79J 241345Z AUTO 09003KT 10SM CLR 31/24 A3004 200 67 2100 090/03 RMK AO2 T03060239 $
53843K79J 79J20160724085011707/24/16 08:50:31  5-MIN K79J 241350Z AUTO 11004KT 10SM CLR 31/23 A3004 200 65 2100 110/04 RMK AO2 SLP167 T03060233 $
53843K79J 79J20160724085511707/24/16 08:55:31  5-MIN K79J 241355Z AUTO 12004KT 10SM CLR 31/23 A3004 200 65 2100 120/04 RMK AO2 SLP167 T03060233 $
53843K79J 79J20160724090011007/24/16 09:00:31  5-MIN K79J 241400Z AUTO VRB03KT 10SM CLR 31/23 A3004 200 63 2100 VRB/03 RMK AO2 T03110233 $
53843K79J 79J20160724090511007/24/16 09:05:31  5-MIN K79J 241405Z AUTO 00000KT 10SM CLR 31/24 A3004 200 65 2100 000/00 RMK AO2 T03110239 $
53843K79J 79J20160724091011007/24/16 09:10:31  5-MIN K79J 241410Z AUTO VRB03KT 10SM CLR 31/24 A3004 200 65 2100 VRB/03 RMK AO2 T03110239 $
53843K79J 79J20160724091511007/24/16 09:15:31  5-MIN K79J 241415Z AUTO VRB03KT 10SM CLR 32/24 A3004 200 63 2200 VRB/03 RMK AO2 T03170239 $
53843K79J 79J20160724092011007/24/16 09:20:31  5-MIN K79J 241420Z AUTO 10004KT 10SM CLR 32/24 A3004 200 63 2200 100/04 RMK AO2 T03170239 $
53843K79J 79J20160724092511007/24/16 09:25:31  5-MIN K79J 241425Z AUTO 13003KT 10SM CLR 31/24 A3004 200 65 2100 130/03 RMK AO2 T03110239 $
53843K79J 79J20160724093011007/24/16 09:30:31  5-MIN K79J 241430Z AUTO 12003KT 10SM CLR 31/23 A3004 200 63 2100 130/03 RMK AO2 T03110233 $
53843K79J 79J20160724093511007/24/16 09:35:31  5-MIN K79J 241435Z AUTO VRB03KT 10SM CLR 31/24 A3004 200 65 2100 VRB/03 RMK AO2 T03110239 $
53843K79J 79J20160724094011307/24/16 09:40:31  5-MIN K79J 241440Z AUTO VRB03KT 10SM FEW021 32/24 A3004 200 63 2200 VRB/03 RMK AO2 T03170239 $
53843K79J 79J20160724094511307/24/16 09:45:31  5-MIN K79J 241445Z AUTO VRB03KT 10SM FEW021 32/23 A3004 200 61 2200 VRB/03 RMK AO2 T03170233 $
53843K79J 79J20160724095012607/24/16 09:50:31  5-MIN K79J 241450Z AUTO VRB04KT 10SM SCT023 32/24 A3004 200 63 2200 VRB/04 RMK AO2 SLP168 T03170239 51012 $
53843K79J 79J20160724095513307/24/16 09:55:31  5-MIN K79J 241455Z AUTO 11006KT 10SM SCT023 SCT029 33/23 A3005 200 57 2300 110/06 RMK AO2 SLP169 T03280233 51012 $
53843K79J 79J20160724100012007/24/16 10:00:31  5-MIN K79J 241500Z AUTO 10004KT 10SM SCT023 SCT029 33/23 A3005 200 57 2300 100/04 RMK AO2 T03280233 $
53843K79J 79J20160724100512007/24/16 10:05:31  5-MIN K79J 241505Z AUTO 00000KT 10SM SCT023 SCT028 32/23 A3005 200 59 2200 000/00 RMK AO2 T03220233 $
53843K79J 79J20160724101012007/24/16 10:10:31  5-MIN K79J 241510Z AUTO 13005KT 10SM BKN025 BKN038 32/23 A3004 200 61 2200 140/05 RMK AO2 T03170233 $
53843K79J 79J20160724101512707/24/16 10:15:31  5-MIN K79J 241515Z AUTO VRB03KT 10SM SCT025 BKN033 BKN041 32/23 A3004 200 59 2300 VRB/03 RMK AO2 T03220233 $
53843K79J 79J20160724102012007/24/16 10:20:31  5-MIN K79J 241520Z AUTO VRB03KT 10SM SCT025 SCT043 33/23 A3004 200 57 2300 VRB/03 RMK AO2 T03280233 $
53843K79J 79J20160724102511307/24/16 10:25:31  5-MIN K79J 241525Z AUTO 09004KT 10SM FEW025 33/23 A3004 200 57 2300 090/04 RMK AO2 T03280233 $
53843K79J 79J20160724103012007/24/16 10:30:31  5-MIN K79J 241530Z AUTO VRB03KT 10SM FEW026 SCT036 33/23 A3004 200 57 2300 VRB/03 RMK AO2 T03280233 $
53843K79J 79J20160724103512007/24/16 10:35:31  5-MIN K79J 241535Z AUTO 00000KT 10SM FEW026 FEW033 33/23 A3004 200 55 2300 000/00 RMK AO2 T03280228 $
53843K79J 79J20160724104011307/24/16 10:40:31  5-MIN K79J 241540Z AUTO 14006KT 10SM FEW030 33/23 A3004 200 55 2300 150/06 RMK AO2 T03280228 $
53843K79J 79J20160724104512007/24/16 10:45:31  5-MIN K79J 241545Z AUTO 12006KT 10SM FEW030 SCT041 34/23 A3005 200 51 2400 120/06 RMK AO2 T03390228 $
53843K79J 79J20160724105012707/24/16 10:50:31  5-MIN K79J 241550Z AUTO 10005KT 10SM FEW030 SCT043 33/23 A3005 200 53 2400 110/05 RMK AO2 SLP169 T03330228 $
53843K79J 79J20160724105512707/24/16 10:55:31  5-MIN K79J 241555Z AUTO 08006KT 10SM FEW030 BKN043 33/23 A3005 200 57 2300 090/06 RMK AO2 SLP169 T03280233 $
53843K79J 79J20160724110012007/24/16 11:00:31  5-MIN K79J 241600Z AUTO VRB04KT 10SM SCT030 BKN041 33/23 A3005 200 57 2300 VRB/04 RMK AO2 T03280233 $
53843K79J 79J20160724110512707/24/16 11:05:31  5-MIN K79J 241605Z AUTO 17003KT 10SM FEW030 BKN041 BKN048 33/23 A3004 200 57 2300 180/03 RMK AO2 T03280233 $
53843K79J 79J20160724111012007/24/16 11:10:31  5-MIN K79J 241610Z AUTO 14004KT 10SM SCT033 BKN044 33/23 A3004 200 57 2300 140/04 RMK AO2 T03280233 $
53843K79J 79J20160724111512007/24/16 11:15:31  5-MIN K79J 241615Z AUTO 11006KT 10SM BKN035 BKN045 33/23 A3004 200 53 2400 110/06 RMK AO2 T03330228 $
53843K79J 79J20160724112012007/24/16 11:20:31  5-MIN K79J 241620Z AUTO 12007KT 10SM BKN036 BKN045 34/22 A3004 200 50 2400 120/07 RMK AO2 T03390222 $
53843K79J 79J20160724112512007/24/16 11:25:31  5-MIN K79J 241625Z AUTO 12007KT 10SM FEW033 SCT042 34/21 A3004 200 46 2400 120/07 RMK AO2 T03390211 $
53843K79J 79J20160724113012007/24/16 11:30:31  5-MIN K79J 241630Z AUTO 12005KT 10SM FEW033 SCT042 34/22 A3004 200 48 2400 130/05 RMK AO2 T03390217 $
53843K79J 79J20160724113512007/24/16 11:35:31  5-MIN K79J 241635Z AUTO VRB05KT 10SM FEW035 FEW045 34/22 A3004 200 48 2400 VRB/05 RMK AO2 T03390217 $
53843K79J 79J20160724114011307/24/16 11:40:31  5-MIN K79J 241640Z AUTO 11006KT 10SM FEW039 35/22 A3004 200 47 2600 120/06 RMK AO2 T03500222 $
53843K79J 79J20160724114510307/24/16 11:45:31  5-MIN K79J 241645Z AUTO 10SM SCT039 34/22 A3003 210 48 2400 M /M RMK AO2 T03390217 $
53843K79J 79J20160724115012007/24/16 11:50:31  5-MIN K79J 241650Z AUTO VRB04KT 10SM SCT039 34/22 A3003 210 48 2500 VRB/04 RMK AO2 SLP164 T03440222 $
53843K79J 79J20160724115511907/24/16 11:55:31  5-MIN K79J 241655Z AUTO 11006KT 10SM SCT038 34/22 A3003 210 48 2500 110/06 RMK AO2 SLPNO T03440222 $
53843K79J 79J20160724120011307/24/16 12:00:31  5-MIN K79J 241700Z AUTO VRB03KT 10SM BKN038 34/22 A3003 210 50 2400 VRB/03 RMK AO2 T03390222 $
53843K79J 79J20160724120511307/24/16 12:05:31  5-MIN K79J 241705Z AUTO 10005KT 10SM BKN038 34/22 A3003 210 48 2500 100/05 RMK AO2 T03440222 $
53843K79J 79J20160724121011307/24/16 12:10:31  5-MIN K79J 241710Z AUTO VRB04KT 10SM SCT038 34/22 A3003 210 48 2500 VRB/04 RMK AO2 T03440222 $
53843K79J 79J20160724121511307/24/16 12:15:31  5-MIN K79J 241715Z AUTO VRB05KT 10SM SCT038 34/22 A3003 210 48 2400 VRB/05 RMK AO2 T03390217 $
53843K79J 79J20160724122011307/24/16 12:20:31  5-MIN K79J 241720Z AUTO 10005KT 10SM BKN038 33/22 A3003 210 51 2400 110/05 RMK AO2 T03330222 $
53843K79J 79J20160724122513607/24/16 12:25:31  5-MIN K79J 241725Z AUTO 10007KT 080V140 10SM BKN038 BKN050 33/23 A3003 210 53 2400 100/07 080V140 RMK AO2 T03330228 $
53843K79J 79J20160724123012007/24/16 12:30:31  5-MIN K79J 241730Z AUTO 06007KT 10SM SCT038 BKN048 34/23 A3003 220 51 2500 060/07 RMK AO2 T03390228 $
53843K79J 79J20160724123512007/24/16 12:35:31  5-MIN K79J 241735Z AUTO 06006KT 10SM SCT040 BKN048 34/23 A3002 220 50 2500 070/06 RMK AO2 T03440228 $
53843K79J 79J20160724124012007/24/16 12:40:31  5-MIN K79J 241740Z AUTO VRB04KT 10SM SCT040 SCT048 34/23 A3002 220 50 2500 VRB/04 RMK AO2 T03440228 $
53843K79J 79J20160724124512007/24/16 12:45:31  5-MIN K79J 241745Z AUTO 08005KT 10SM SCT038 BKN048 34/23 A3002 220 50 2500 080/05 RMK AO2 T03440228 $
53843K79J 79J20160724125014507/24/16 12:50:31  5-MIN K79J 241750Z AUTO 08007KT 10SM SCT036 SCT045 35/23 A3002 220 50 2600 090/07 RMK AO2 SLP158 T03500233 10350 20256 51008 $
53843K79J 79J20160724125514507/24/16 12:55:31  5-MIN K79J 241755Z AUTO VRB04KT 10SM FEW036 FEW044 35/23 A3002 220 48 2600 VRB/04 RMK AO2 SLP158 T03500228 10350 20256 51008 $
53843K79J 79J20160724130011307/24/16 13:00:31  5-MIN K79J 241800Z AUTO 08007KT 10SM FEW038 35/23 A3001 230 50 2600 090/07 RMK AO2 T03500233 $
53843K79J 79J20160724130512007/24/16 13:05:31  5-MIN K79J 241805Z AUTO 08006KT 10SM SCT038 SCT045 34/23 A3001 230 50 2500 080/06 RMK AO2 T03440228 $
53843K79J 79J20160724131011307/24/16 13:10:31  5-MIN K79J 241810Z AUTO 04005KT 10SM SCT038 35/23 A3001 230 48 2600 050/05 RMK AO2 T03500228 $
53843K79J 79J20160724131511307/24/16 13:15:31  5-MIN K79J 241815Z AUTO VRB05KT 10SM SCT038 36/23 A3001 230 47 2700 VRB/05 RMK AO2 T03560228 $
53843K79J 79J20160724132011307/24/16 13:20:31  5-MIN K79J 241820Z AUTO 08005KT 10SM SCT043 35/23 A3001 230 48 2600 080/05 RMK AO2 T03500228 $
53843K79J 79J20160724132512007/24/16 13:25:31  5-MIN K79J 241825Z AUTO 07005KT 10SM SCT040 BKN047 36/23 A3001 230 47 2700 080/05 RMK AO2 T03560228 $
53843K79J 79J20160724133012007/24/16 13:30:31  5-MIN K79J 241830Z AUTO VRB05KT 10SM FEW038 SCT047 36/23 A3001 230 47 2700 VRB/05 RMK AO2 T03560228 $
53843K79J 79J20160724133512707/24/16 13:35:31  5-MIN K79J 241835Z AUTO 09007KT 10SM FEW039 SCT049 SCT055 35/22 A3001 230 47 2600 100/07 RMK AO2 T03500222 $
53843K79J 79J20160724134012707/24/16 13:40:31  5-MIN K79J 241840Z AUTO 05004KT 10SM FEW039 SCT049 SCT055 36/22 A3000 240 45 2700 060/04 RMK AO2 T03560222 $
53843K79J 79J20160724134512007/24/16 13:45:31  5-MIN K79J 241845Z AUTO 11004KT 10SM SCT043 SCT050 36/23 A3000 240 45 2700 110/04 RMK AO2 T03610228 $
53843K79J 79J20160724135012707/24/16 13:50:31  5-MIN K79J 241850Z AUTO 08006KT 10SM SCT043 BKN050 36/22 A3000 240 45 2700 080/06 RMK AO2 SLP153 T03560222 $
53843K79J 79J20160724135512707/24/16 13:55:31  5-MIN K79J 241855Z AUTO 08007KT 10SM SCT043 SCT055 35/23 A3000 240 48 2600 090/07 RMK AO2 SLP153 T03500228 $
53843K79J 79J20160724140012007/24/16 14:00:31  5-MIN K79J 241900Z AUTO 08007KT 10SM SCT045 BKN055 36/23 A3000 240 47 2700 080/07 RMK AO2 T03560228 $
53843K79J 79J20160724140511307/24/16 14:05:31  5-MIN K79J 241905Z AUTO 06006KT 10SM BKN045 35/22 A3000 240 47 2600 060/06 RMK AO2 T03500222 $
53843K79J 79J20160724141012707/24/16 14:10:31  5-MIN K79J 241910Z AUTO 10007KT 10SM SCT045 BKN055 BKN070 35/22 A3000 240 47 2600 100/07 RMK AO2 T03500222 $
53843K79J 79J20160724141512707/24/16 14:15:31  5-MIN K79J 241915Z AUTO 09006KT 10SM SCT045 SCT055 BKN070 36/22 A3000 240 45 2700 090/06 RMK AO2 T03560222 $
53843K79J 79J20160724142012007/24/16 14:20:31  5-MIN K79J 241920Z AUTO 09006KT 10SM FEW048 SCT060 36/22 A3000 240 42 2700 100/06 RMK AO2 T03610217 $
53843K79J 79J20160724142511307/24/16 14:25:31  5-MIN K79J 241925Z AUTO VRB04KT 10SM FEW048 36/22 A3000 240 44 2700 VRB/04 RMK AO2 T03560217 $
53843K79J 79J20160724143011307/24/16 14:30:31  5-MIN K79J 241930Z AUTO 12004KT 10SM FEW048 36/21 A2999 250 42 2700 120/04 RMK AO2 T03560211 $
53843K79J 79J20160724143511307/24/16 14:35:31  5-MIN K79J 241935Z AUTO VRB06KT 10SM FEW050 36/21 A2999 250 41 2700 VRB/06 RMK AO2 T03610211 $
53843K79J 79J20160724144011007/24/16 14:40:31  5-MIN K79J 241940Z AUTO 13005KT 10SM CLR 36/22 A2999 250 42 2700 130/05 RMK AO2 T03610217 $
53843K79J 79J20160724144512907/24/16 14:45:31  5-MIN K79J 241945Z AUTO 14008KT 120V190 10SM FEW049 36/21 A2999 250 42 2700 150/08 120V190 RMK AO2 T03560211 $
53843K79J 79J20160724145012707/24/16 14:50:31  5-MIN K79J 241950Z AUTO VRB06KT 10SM FEW049 SCT085 36/22 A2999 250 42 2700 VRB/06 RMK AO2 SLP148 T03610217 $
53843K79J 79J20160724145512707/24/16 14:55:31  5-MIN K79J 241955Z AUTO 12008KT 10SM FEW049 SCT085 36/22 A2999 250 42 2700 120/08 RMK AO2 SLP148 T03610217 $
53843K79J 79J20160724150011307/24/16 15:00:31  5-MIN K79J 242000Z AUTO 11006KT 10SM FEW050 36/22 A2999 250 44 2700 110/06 RMK AO2 T03560217 $
53843K79J 79J20160724150511307/24/16 15:05:31  5-MIN K79J 242005Z AUTO 12007KT 10SM SCT050 36/22 A2998 250 44 2700 120/07 RMK AO2 T03560217 $
53843K79J 79J20160724151011307/24/16 15:10:31  5-MIN K79J 242010Z AUTO VRB04KT 10SM SCT050 36/21 A2998 260 42 2700 VRB/04 RMK AO2 T03560211 $
53843K79J 79J20160724151511307/24/16 15:15:31  5-MIN K79J 242015Z AUTO 10009KT 10SM FEW050 36/21 A2998 260 42 2700 110/09 RMK AO2 T03560211 $
53843K79J 79J20160724152011307/24/16 15:20:31  5-MIN K79J 242020Z AUTO 11005KT 10SM FEW050 36/22 A2997 260 45 2700 110/05 RMK AO2 T03560222 $
53843K79J 79J20160724152511307/24/16 15:25:31  5-MIN K79J 242025Z AUTO 11007KT 10SM FEW050 36/22 A2997 270 44 2800 110/07 RMK AO2 T03610222 $
53843K79J 79J20160724153011307/24/16 15:30:31  5-MIN K79J 242030Z AUTO VRB04KT 10SM FEW050 36/21 A2997 270 41 2800 VRB/04 RMK AO2 T03610211 $
53843K79J 79J20160724153511007/24/16 15:35:31  5-MIN K79J 242035Z AUTO 11008KT 10SM CLR 36/21 A2997 270 41 2800 110/08 RMK AO2 T03610211 $
53843K79J 79J20160724154011007/24/16 15:40:31  5-MIN K79J 242040Z AUTO 09009KT 10SM CLR 36/23 A2997 270 45 2800 100/09 RMK AO2 T03610228 $
53843K79J 79J20160724154511007/24/16 15:45:31  5-MIN K79J 242045Z AUTO 08007KT 10SM CLR 36/23 A2997 270 47 2700 080/07 RMK AO2 T03560228 $
53843K79J 79J20160724155014207/24/16 15:50:31  5-MIN K79J 242050Z AUTO 09008KT 050V140 10SM FEW050 36/22 A2997 270 44 2800 090/08 050V140 RMK AO2 SLP141 T03610222 58010 $
53843K79J 79J20160724155512907/24/16 15:55:31  5-MIN K79J 242055Z AUTO 09008G14KT 10SM CLR 36/23 A2997 270 45 2800 090/08G14 RMK AO2 SLP142 T03610228 58010 $
53843K79J 79J20160724160012607/24/16 16:00:31  5-MIN K79J 242100Z AUTO 11007KT 080V170 10SM CLR 36/22 A2997 270 44 2800 110/07 080V170 RMK AO2 T03610222 $
53843K79J 79J20160724160512607/24/16 16:05:31  5-MIN K79J 242105Z AUTO 16007KT 120V190 10SM CLR 36/22 A2997 270 44 2700 160/07 120V190 RMK AO2 T03560217 $
53843K79J 79J20160724161011007/24/16 16:10:31  5-MIN K79J 242110Z AUTO 13006KT 10SM CLR 36/22 A2997 270 44 2700 140/06 RMK AO2 T03560217 $
53843K79J 79J20160724161511007/24/16 16:15:31  5-MIN K79J 242115Z AUTO 12005KT 10SM CLR 36/21 A2997 270 42 2700 120/05 RMK AO2 T03560211 $
53843K79J 79J20160724162011007/24/16 16:20:31  5-MIN K79J 242120Z AUTO VRB05KT 10SM CLR 36/22 A2997 270 44 2800 VRB/05 RMK AO2 T03610222 $
53843K79J 79J20160724162511007/24/16 16:25:31  5-MIN K79J 242125Z AUTO VRB06KT 10SM CLR 36/22 A2997 270 42 2800 VRB/06 RMK AO2 T03610217 $
53843K79J 79J20160724163011007/24/16 16:30:31  5-MIN K79J 242130Z AUTO 12008KT 10SM CLR 36/21 A2997 270 42 2700 120/08 RMK AO2 T03560211 $
53843K79J 79J20160724163511007/24/16 16:35:31  5-MIN K79J 242135Z AUTO 13006KT 10SM CLR 36/22 A2997 270 44 2700 130/06 RMK AO2 T03560217 $
53843K79J 79J20160724164011007/24/16 16:40:31  5-MIN K79J 242140Z AUTO 16004KT 10SM CLR 35/22 A2997 270 45 2600 160/04 RMK AO2 T03500217 $
53843K79J 79J20160724164511007/24/16 16:45:31  5-MIN K79J 242145Z AUTO VRB04KT 10SM CLR 36/22 A2997 270 44 2700 VRB/04 RMK AO2 T03560217 $
53843K79J 79J20160724165011707/24/16 16:50:31  5-MIN K79J 242150Z AUTO 12008KT 10SM CLR 36/22 A2997 270 44 2700 130/08 RMK AO2 SLP141 T03560217 $
53843K79J 79J20160724165513307/24/16 16:55:31  5-MIN K79J 242155Z AUTO 13007KT 090V160 10SM CLR 36/22 A2997 270 44 2700 130/07 090V160 RMK AO2 SLP141 T03560217 $
53843K79J 79J20160724170011007/24/16 17:00:31  5-MIN K79J 242200Z AUTO 12008KT 10SM CLR 35/21 A2996 270 43 2600 120/08 RMK AO2 T03500211 $
53843K79J 79J20160724170511307/24/16 17:05:31  5-MIN K79J 242205Z AUTO 14006KT 10SM FEW050 35/21 A2997 270 43 2600 140/06 RMK AO2 T03500211 $
53843K79J 79J20160724171011307/24/16 17:10:31  5-MIN K79J 242210Z AUTO VRB05KT 10SM FEW050 34/21 A2997 270 46 2500 VRB/05 RMK AO2 T03390211 $
53843K79J 79J20160724171511307/24/16 17:15:31  5-MIN K79J 242215Z AUTO VRB06KT 10SM FEW050 33/22 A2997 270 51 2500 VRB/06 RMK AO2 T03330222 $
53843K79J 79J20160724172011307/24/16 17:20:31  5-MIN K79J 242220Z AUTO 19006KT 10SM FEW050 33/23 A2996 270 53 2500 190/06 RMK AO2 T03330228 $
53843K79J 79J20160724172511307/24/16 17:25:31  5-MIN K79J 242225Z AUTO VRB05KT 10SM FEW050 34/23 A2997 270 51 2500 VRB/05 RMK AO2 T03390228 $
53843K79J 79J20160724173011307/24/16 17:30:31  5-MIN K79J 242230Z AUTO 21005KT 10SM FEW050 34/23 A2997 270 52 2600 210/05 RMK AO2 T03440233 $
53843K79J 79J20160724173512907/24/16 17:35:31  5-MIN K79J 242235Z AUTO 19007KT 150V220 10SM FEW050 34/23 A2997 270 53 2500 190/07 150V220 RMK AO2 T03390233 $
53843K79J 79J20160724174011307/24/16 17:40:31  5-MIN K79J 242240Z AUTO 17007KT 10SM FEW050 33/23 A2997 270 53 2500 170/07 RMK AO2 T03330228 $
53843K79J 79J20160724174511307/24/16 17:45:31  5-MIN K79J 242245Z AUTO 18006KT 10SM FEW050 33/23 A2997 260 53 2500 180/06 RMK AO2 T03330228 $
53843K79J 79J20160724175012007/24/16 17:50:31  5-MIN K79J 242250Z AUTO 17008KT 10SM FEW050 33/23 A2997 260 53 2400 180/08 RMK AO2 SLP145 T03330228 $
53843K79J 79J20160724175512007/24/16 17:55:31  5-MIN K79J 242255Z AUTO VRB05KT 10SM FEW050 33/23 A2998 260 53 2400 VRB/05 RMK AO2 SLP145 T03330228 $
53843K79J 79J20160724180011007/24/16 18:00:31  5-MIN K79J 242300Z AUTO 18008KT 10SM CLR 33/23 A2998 260 53 2400 180/08 RMK AO2 T03330228 $
53843K79J 79J20160724180511007/24/16 18:05:31  5-MIN K79J 242305Z AUTO 18005KT 10SM CLR 33/23 A2998 260 53 2400 180/05 RMK AO2 T03330228 $
53843K79J 79J20160724181011007/24/16 18:10:31  5-MIN K79J 242310Z AUTO 18005KT 10SM CLR 33/23 A2998 260 55 2400 190/05 RMK AO2 T03280228 $
53843K79J 79J20160724181511007/24/16 18:15:31  5-MIN K79J 242315Z AUTO 18006KT 10SM CLR 33/23 A2998 250 55 2400 180/06 RMK AO2 T03280228 $
53843K79J 79J20160724182011007/24/16 18:20:31  5-MIN K79J 242320Z AUTO 20005KT 10SM CLR 33/23 A2998 260 55 2400 210/05 RMK AO2 T03280228 $
53843K79J 79J20160724182511007/24/16 18:25:31  5-MIN K79J 242325Z AUTO 23006KT 10SM CLR 33/22 A2998 260 53 2400 230/06 RMK AO2 T03280222 $
53843K79J 79J20160724183011007/24/16 18:30:31  5-MIN K79J 242330Z AUTO 22005KT 10SM CLR 33/22 A2998 250 53 2400 220/05 RMK AO2 T03280222 $
53843K79J 79J20160724183511007/24/16 18:35:31  5-MIN K79J 242335Z AUTO 22006KT 10SM CLR 33/22 A2999 250 53 2400 220/06 RMK AO2 T03280222 $
53843K79J 79J20160724184011007/24/16 18:40:31  5-MIN K79J 242340Z AUTO 21005KT 10SM CLR 33/22 A2998 250 53 2400 220/05 RMK AO2 T03280222 $
53843K79J 79J20160724184511007/24/16 18:45:31  5-MIN K79J 242345Z AUTO 21004KT 10SM CLR 32/22 A2999 250 55 2300 220/04 RMK AO2 T03220222 $
53843K79J 79J20160724185013507/24/16 18:50:31  5-MIN K79J 242350Z AUTO 21004KT 10SM CLR 32/22 A2999 250 55 2300 210/04 RMK AO2 SLP149 T03220222 10361 20322 58016 $
53843K79J 79J20160724185513507/24/16 18:55:31  5-MIN K79J 242355Z AUTO 20004KT 10SM CLR 32/22 A2999 250 55 2300 200/04 RMK AO2 SLP150 T03220222 10361 20322 58016 $
53843K79J 79J20160724190011007/24/16 19:00:31  5-MIN K79J 250000Z AUTO 00000KT 10SM CLR 32/22 A2999 250 55 2300 000/00 RMK AO2 T03220222 $
53843K79J 79J20160724190511007/24/16 19:05:31  5-MIN K79J 250005Z AUTO 00000KT 10SM CLR 32/22 A2999 250 56 2200 000/00 RMK AO2 T03170222 $
53843K79J 79J20160724191011007/24/16 19:10:31  5-MIN K79J 250010Z AUTO 00000KT 10SM CLR 32/22 A2999 250 56 2200 000/00 RMK AO2 T03170222 $
53843K79J 79J20160724191511007/24/16 19:15:31  5-MIN K79J 250015Z AUTO 18003KT 10SM CLR 32/23 A2999 240 58 2200 180/03 RMK AO2 T03170228 $
53843K79J 79J20160724192011007/24/16 19:20:31  5-MIN K79J 250020Z AUTO 18003KT 10SM CLR 31/22 A3000 240 58 2200 180/03 RMK AO2 T03110222 $
53843K79J 79J20160724192511007/24/16 19:25:31  5-MIN K79J 250025Z AUTO 00000KT 10SM CLR 31/22 A3000 240 58 2200 000/00 RMK AO2 T03110222 $
53843K79J 79J20160724193011007/24/16 19:30:31  5-MIN K79J 250030Z AUTO 00000KT 10SM CLR 31/22 A3000 240 58 2200 000/00 RMK AO2 T03110222 $
53843K79J 79J20160724193511007/24/16 19:35:31  5-MIN K79J 250035Z AUTO 00000KT 10SM CLR 31/23 A3000 230 62 2100 000/00 RMK AO2 T03060228 $
53843K79J 79J20160724194011007/24/16 19:40:31  5-MIN K79J 250040Z AUTO 00000KT 10SM CLR 31/23 A3001 230 62 2100 000/00 RMK AO2 T03060228 $
53843K79J 79J20160724194511007/24/16 19:45:31  5-MIN K79J 250045Z AUTO 00000KT 10SM CLR 30/23 A3001 230 65 2000 000/00 RMK AO2 T03000228 $
53843K79J 79J20160724195011707/24/16 19:50:31  5-MIN K79J 250050Z AUTO 18003KT 10SM CLR 30/23 A3001 230 65 2000 180/03 RMK AO2 SLP155 T03000228 $
53843K79J 79J20160724195511707/24/16 19:55:31  5-MIN K79J 250055Z AUTO 19004KT 10SM CLR 30/22 A3000 240 60 2000 190/04 RMK AO2 SLP155 T03000217 $
53843K79J 79J20160724200011007/24/16 20:00:31  5-MIN K79J 250100Z AUTO 00000KT 10SM CLR 30/22 A3001 230 60 2000 000/00 RMK AO2 T03000217 $
53843K79J 79J20160724200511007/24/16 20:05:31  5-MIN K79J 250105Z AUTO 00000KT 10SM CLR 30/22 A3001 230 62 2000 000/00 RMK AO2 T03000222 $
53843K79J 79J20160724201011007/24/16 20:10:31  5-MIN K79J 250110Z AUTO 00000KT 10SM CLR 29/22 A3001 230 64 2000 000/00 RMK AO2 T02940222 $
53843K79J 79J20160724201511007/24/16 20:15:31  5-MIN K79J 250115Z AUTO 00000KT 10SM CLR 29/22 A3001 230 64 2000 000/00 RMK AO2 T02940222 $
53843K79J 79J20160724202011007/24/16 20:20:31  5-MIN K79J 250120Z AUTO 00000KT 10SM CLR 29/22 A3001 230 64 2000 000/00 RMK AO2 T02940222 $
53843K79J 79J20160724202511007/24/16 20:25:31  5-MIN K79J 250125Z AUTO 00000KT 10SM CLR 29/22 A3001 230 67 1900 000/00 RMK AO2 T02890222 $
53843K79J 79J20160724203011007/24/16 20:30:31  5-MIN K79J 250130Z AUTO 00000KT 10SM CLR 28/22 A3001 230 69 1900 000/00 RMK AO2 T02830222 $
53843K79J 79J20160724203511007/24/16 20:35:31  5-MIN K79J 250135Z AUTO 00000KT 10SM CLR 28/22 A3001 230 69 1900 000/00 RMK AO2 T02830222 $
53843K79J 79J20160724205011307/24/16 20:50:31  5-MIN K79J 250150Z AUTO 00000KT 10SM 28/23 A3001 230 74 1800 000/00 RMK AO2 SLP157 T02780228 $
53843K79J 79J20160724205511307/24/16 20:55:31  5-MIN K79J 250155Z AUTO 00000KT 10SM 28/23 A3001 230 74 1800 000/00 RMK AO2 SLP158 T02780228 $
53843K79J 79J20160724210010607/24/16 21:00:31  5-MIN K79J 250200Z AUTO 00000KT 10SM 28/23 A3001 220 74 1800 000/00 RMK AO2 T02780228 $
53843K79J 79J20160724210510607/24/16 21:05:31  5-MIN K79J 250205Z AUTO 00000KT 10SM 28/23 A3002 220 74 1800 000/00 RMK AO2 T02780228 $
53843K79J 79J20160724211010607/24/16 21:10:31  5-MIN K79J 250210Z AUTO 00000KT 10SM 28/23 A3002 220 74 1800 000/00 RMK AO2 T02780228 $
53843K79J 79J20160724211511007/24/16 21:15:31  5-MIN K79J 250215Z AUTO 00000KT 10SM CLR 28/23 A3002 220 74 1800 000/00 RMK AO2 T02780228 $
53843K79J 79J20160724212011007/24/16 21:20:31  5-MIN K79J 250220Z AUTO 12003KT 10SM CLR 27/23 A3002 220 76 1700 120/03 RMK AO2 T02720228 $
53843K79J 79J20160724212511007/24/16 21:25:31  5-MIN K79J 250225Z AUTO 00000KT 10SM CLR 27/23 A3002 220 76 1700 000/00 RMK AO2 T02720228 $
53843K79J 79J20160724213011007/24/16 21:30:31  5-MIN K79J 250230Z AUTO 00000KT 10SM CLR 27/23 A3003 220 76 1700 000/00 RMK AO2 T02720228 $
53843K79J 79J20160724213511007/24/16 21:35:31  5-MIN K79J 250235Z AUTO 00000KT 10SM CLR 27/23 A3003 210 82 1700 000/00 RMK AO2 T02670233 $
53843K79J 79J20160724214011007/24/16 21:40:31  5-MIN K79J 250240Z AUTO 00000KT 10SM CLR 27/23 A3003 210 82 1700 000/00 RMK AO2 T02670233 $
53843K79J 79J20160724214511007/24/16 21:45:31  5-MIN K79J 250245Z AUTO 00000KT 10SM CLR 27/23 A3003 210 79 1600 000/00 RMK AO2 T02670228 $
53843K79J 79J20160724215011707/24/16 21:50:31  5-MIN K79J 250250Z AUTO 00000KT 10SM CLR 27/23 A3003 210 82 1600 000/00 RMK AO2 SLP163 T02670233 $
53843K79J 79J20160724215511707/24/16 21:55:31  5-MIN K79J 250255Z AUTO 00000KT 10SM CLR 27/23 A3003 210 82 1600 000/00 RMK AO2 SLP164 T02670233 $
53843K79J 79J20160724220011007/24/16 22:00:31  5-MIN K79J 250300Z AUTO 00000KT 10SM CLR 27/23 A3003 210 82 1600 000/00 RMK AO2 T02670233 $
53843K79J 79J20160724220511007/24/16 22:05:31  5-MIN K79J 250305Z AUTO 00000KT 10SM CLR 27/23 A3003 210 82 1600 000/00 RMK AO2 T02670233 $
53843K79J 79J20160724221011007/24/16 22:10:31  5-MIN K79J 250310Z AUTO 10003KT 10SM CLR 27/23 A3003 210 82 1600 110/03 RMK AO2 T02670233 $
53843K79J 79J20160724221511007/24/16 22:15:31  5-MIN K79J 250315Z AUTO 09003KT 10SM CLR 27/23 A3003 210 82 1600 090/03 RMK AO2 T02670233 $
53843K79J 79J20160724222011007/24/16 22:20:31  5-MIN K79J 250320Z AUTO 10003KT 10SM CLR 27/23 A3003 210 82 1600 100/03 RMK AO2 T02670233 $
53843K79J 79J20160724222511007/24/16 22:25:31  5-MIN K79J 250325Z AUTO 10003KT 10SM CLR 27/23 A3003 210 82 1600 100/03 RMK AO2 T02670233 $
53843K79J 79J20160724223011007/24/16 22:30:31  5-MIN K79J 250330Z AUTO 00000KT 10SM CLR 27/23 A3004 210 82 1600 000/00 RMK AO2 T02670233 $
53843K79J 79J20160724223511007/24/16 22:35:31  5-MIN K79J 250335Z AUTO 00000KT 10SM CLR 27/23 A3004 200 82 1600 000/00 RMK AO2 T02670233 $
53843K79J 79J20160724224011007/24/16 22:40:31  5-MIN K79J 250340Z AUTO 00000KT 10SM CLR 26/23 A3004 200 84 1600 000/00 RMK AO2 T02610233 $
53843K79J 79J20160724224511007/24/16 22:45:31  5-MIN K79J 250345Z AUTO 00000KT 10SM CLR 26/23 A3004 200 84 1600 000/00 RMK AO2 T02610233 $
53843K79J 79J20160724225011707/24/16 22:50:31  5-MIN K79J 250350Z AUTO 11003KT 10SM CLR 26/23 A3004 200 84 1600 120/03 RMK AO2 SLP168 T02610233 $
53843K79J 79J20160724225511707/24/16 22:55:31  5-MIN K79J 250355Z AUTO 12003KT 10SM CLR 26/23 A3004 200 81 1600 120/03 RMK AO2 SLP168 T02610228 $
53843K79J 79J20160724230011007/24/16 23:00:31  5-MIN K79J 250400Z AUTO 12003KT 10SM CLR 26/23 A3004 200 81 1600 120/03 RMK AO2 T02610228 $
53843K79J 79J20160724230511007/24/16 23:05:31  5-MIN K79J 250405Z AUTO 12003KT 10SM CLR 26/23 A3004 200 81 1600 120/03 RMK AO2 T02610228 $
53843K79J 79J20160724231011007/24/16 23:10:31  5-MIN K79J 250410Z AUTO 00000KT 10SM CLR 26/23 A3004 200 81 1600 000/00 RMK AO2 T02610228 $
53843K79J 79J20160724231511007/24/16 23:15:31  5-MIN K79J 250415Z AUTO 00000KT 10SM CLR 26/23 A3004 200 81 1600 000/00 RMK AO2 T02610228 $
53843K79J 79J20160724232011007/24/16 23:20:31  5-MIN K79J 250420Z AUTO 08003KT 10SM CLR 26/23 A3004 200 81 1600 090/03 RMK AO2 T02610228 $
53843K79J 79J20160724232511007/24/16 23:25:31  5-MIN K79J 250425Z AUTO 00000KT 10SM CLR 26/23 A3004 200 81 1600 000/00 RMK AO2 T02610228 $
53843K79J 79J20160724233011007/24/16 23:30:31  5-MIN K79J 250430Z AUTO 00000KT 10SM CLR 26/23 A3004 200 81 1600 000/00 RMK AO2 T02610228 $
53843K79J 79J20160724233511007/24/16 23:35:31  5-MIN K79J 250435Z AUTO 00000KT 10SM CLR 26/23 A3003 210 84 1500 000/00 RMK AO2 T02560228 $
53843K79J 79J20160724234011007/24/16 23:40:31  5-MIN K79J 250440Z AUTO 00000KT 10SM CLR 26/23 A3003 210 84 1500 000/00 RMK AO2 T02560228 $
53843K79J 79J20160724234511007/24/16 23:45:31  5-MIN K79J 250445Z AUTO 00000KT 10SM CLR 26/23 A3003 210 84 1500 000/00 RMK AO2 T02560228 $
53843K79J 79J20160724235012707/24/16 23:50:31  5-MIN K79J 250450Z AUTO 00000KT 10SM CLR 26/23 A3003 210 84 1500 000/00 RMK AO2 SLP163 T02560228 403610244 $
53843K79J 79J20160724235512707/24/16 23:55:31  5-MIN K79J 250455Z AUTO 00000KT 10SM CLR 26/23 A3003 210 84 1500 000/00 RMK AO2 SLP163 T02560228 403610244 $
53843K79J 79J20160725000011007/25/16 00:00:31  5-MIN K79J 250500Z AUTO 00000KT 10SM CLR 26/23 A3003 210 84 1500 000/00 RMK AO2 T02560228 $
53843K79J 79J20160725000511007/25/16 00:05:31  5-MIN K79J 250505Z AUTO 00000KT 10SM CLR 26/23 A3002 220 84 1500 000/00 RMK AO2 T02560228 $
53843K79J 79J20160725001011007/25/16 00:10:31  5-MIN K79J 250510Z AUTO 00000KT 10SM CLR 26/23 A3002 220 84 1500 000/00 RMK AO2 T02560228 $
53843K79J 79J20160725001511007/25/16 00:15:31  5-MIN K79J 250515Z AUTO 12003KT 10SM CLR 26/23 A3003 210 84 1500 120/03 RMK AO2 T02560228 $
53843K79J 79J20160725002011007/25/16 00:20:31  5-MIN K79J 250520Z AUTO 00000KT 10SM CLR 26/23 A3003 210 84 1500 000/00 RMK AO2 T02560228 $
53843K79J 79J20160725002511007/25/16 00:25:31  5-MIN K79J 250525Z AUTO 00000KT 10SM CLR 26/23 A3002 220 84 1500 000/00 RMK AO2 T02560228 $
53843K79J 79J20160725003011007/25/16 00:30:31  5-MIN K79J 250530Z AUTO 00000KT 10SM CLR 26/23 A3002 220 84 1500 000/00 RMK AO2 T02560228 $
53843K79J 79J20160725003511007/25/16 00:35:31  5-MIN K79J 250535Z AUTO 00000KT 10SM CLR 26/23 A3002 220 84 1500 000/00 RMK AO2 T02560228 $
53843K79J 79J20160725004011007/25/16 00:40:31  5-MIN K79J 250540Z AUTO 00000KT 10SM CLR 26/23 A3001 230 84 1500 000/00 RMK AO2 T02560228 $
53843K79J 79J20160725004511007/25/16 00:45:31  5-MIN K79J 250545Z AUTO 00000KT 10SM CLR 26/23 A3002 220 84 1500 000/00 RMK AO2 T02560228 $
53843K79J 79J20160725005012907/25/16 00:50:31  5-MIN K79J 250550Z AUTO 00000KT 10SM CLR 26/23 A3002 220 84 1500 000/00 RMK AO2 SLP158 T02560228 10322 20256 $
53843K79J 79J20160725005512907/25/16 00:55:31  5-MIN K79J 250555Z AUTO 00000KT 10SM CLR 26/23 A3001 230 84 1500 000/00 RMK AO2 SLP158 T02560228 10322 20256 $
53843K79J 79J20160725010011007/25/16 01:00:31  5-MIN K79J 250600Z AUTO 00000KT 10SM CLR 26/23 A3001 230 84 1500 000/00 RMK AO2 T02560228 $
53843K79J 79J20160725010511007/25/16 01:05:31  5-MIN K79J 250605Z AUTO 00000KT 10SM CLR 26/23 A3001 230 84 1500 000/00 RMK AO2 T02560228 $
53843K79J 79J20160725011011007/25/16 01:10:31  5-MIN K79J 250610Z AUTO 00000KT 10SM CLR 26/23 A3001 230 84 1500 000/00 RMK AO2 T02560228 $
53843K79J 79J20160725011511007/25/16 01:15:31  5-MIN K79J 250615Z AUTO 00000KT 10SM CLR 26/23 A3001 230 84 1500 000/00 RMK AO2 T02560228 $
53843K79J 79J20160725012011007/25/16 01:20:31  5-MIN K79J 250620Z AUTO 00000KT 10SM CLR 26/23 A3001 230 84 1500 000/00 RMK AO2 T02560228 $
53843K79J 79J20160725012511007/25/16 01:25:31  5-MIN K79J 250625Z AUTO 00000KT 10SM CLR 25/23 A3000 240 87 1500 000/00 RMK AO2 T02500228 $
53843K79J 79J20160725013011007/25/16 01:30:31  5-MIN K79J 250630Z AUTO 12003KT 10SM CLR 25/23 A3000 240 87 1500 120/03 RMK AO2 T02500228 $
53843K79J 79J20160725013511007/25/16 01:35:31  5-MIN K79J 250635Z AUTO 00000KT 10SM CLR 25/23 A3000 240 87 1500 000/00 RMK AO2 T02500228 $
53843K79J 79J20160725014011007/25/16 01:40:31  5-MIN K79J 250640Z AUTO 00000KT 10SM CLR 25/22 A2999 240 84 1500 000/00 RMK AO2 T02500222 $
53843K79J 79J20160725014511007/25/16 01:45:31  5-MIN K79J 250645Z AUTO 00000KT 10SM CLR 25/22 A2999 250 84 1500 000/00 RMK AO2 T02500222 $
53843K79J 79J20160725015011707/25/16 01:50:31  5-MIN K79J 250650Z AUTO 00000KT 10SM CLR 25/22 A2998 250 84 1500 000/00 RMK AO2 SLP147 T02500222 $
53843K79J 79J20160725015511707/25/16 01:55:31  5-MIN K79J 250655Z AUTO 09003KT 10SM CLR 25/22 A2998 250 84 1500 090/03 RMK AO2 SLP148 T02500222 $
53843K79J 79J20160725020011007/25/16 02:00:31  5-MIN K79J 250700Z AUTO 11003KT 10SM CLR 25/22 A2998 250 84 1500 110/03 RMK AO2 T02500222 $
53843K79J 79J20160725020511007/25/16 02:05:31  5-MIN K79J 250705Z AUTO 00000KT 10SM CLR 25/23 A2998 250 87 1500 000/00 RMK AO2 T02500228 $
53843K79J 79J20160725021011007/25/16 02:10:31  5-MIN K79J 250710Z AUTO 12003KT 10SM CLR 25/23 A2998 250 87 1500 130/03 RMK AO2 T02500228 $
53843K79J 79J20160725021511007/25/16 02:15:31  5-MIN K79J 250715Z AUTO 12003KT 10SM CLR 25/22 A2998 260 84 1500 120/03 RMK AO2 T02500222 $
53843K79J 79J20160725022011007/25/16 02:20:31  5-MIN K79J 250720Z AUTO 12003KT 10SM CLR 25/22 A2998 260 84 1500 130/03 RMK AO2 T02500222 $
53843K79J 79J20160725022511007/25/16 02:25:31  5-MIN K79J 250725Z AUTO 11003KT 10SM CLR 26/23 A2998 260 84 1600 120/03 RMK AO2 T02560228 $
53843K79J 79J20160725023011007/25/16 02:30:31  5-MIN K79J 250730Z AUTO 10003KT 10SM CLR 25/22 A2998 260 84 1500 100/03 RMK AO2 T02500222 $
53843K79J 79J20160725023511007/25/16 02:35:31  5-MIN K79J 250735Z AUTO 00000KT 10SM CLR 25/22 A2998 260 84 1500 000/00 RMK AO2 T02500222 $
53843K79J 79J20160725024011007/25/16 02:40:31  5-MIN K79J 250740Z AUTO 11003KT 10SM CLR 25/22 A2998 260 84 1500 110/03 RMK AO2 T02500222 $
53843K79J 79J20160725024511007/25/16 02:45:31  5-MIN K79J 250745Z AUTO 10003KT 10SM CLR 25/22 A2998 260 84 1500 100/03 RMK AO2 T02500222 $
53843K79J 79J20160725025011707/25/16 02:50:31  5-MIN K79J 250750Z AUTO 00000KT 10SM CLR 25/22 A2998 260 84 1500 000/00 RMK AO2 SLP145 T02500222 $
53843K79J 79J20160725025511707/25/16 02:55:31  5-MIN K79J 250755Z AUTO 00000KT 10SM CLR 25/22 A2998 260 84 1500 000/00 RMK AO2 SLP145 T02500222 $
53843K79J 79J20160725030011007/25/16 03:00:31  5-MIN K79J 250800Z AUTO 11003KT 10SM CLR 25/22 A2998 260 84 1500 110/03 RMK AO2 T02500222 $
53843K79J 79J20160725030511007/25/16 03:05:31  5-MIN K79J 250805Z AUTO 10003KT 10SM CLR 25/22 A2998 260 84 1500 110/03 RMK AO2 T02500222 $
53843K79J 79J20160725031011007/25/16 03:10:31  5-MIN K79J 250810Z AUTO 00000KT 10SM CLR 25/22 A2998 250 84 1500 000/00 RMK AO2 T02500222 $
53843K79J 79J20160725031511007/25/16 03:15:31  5-MIN K79J 250815Z AUTO 00000KT 10SM CLR 25/23 A2998 260 87 1500 000/00 RMK AO2 T02500228 $
53843K79J 79J20160725032011007/25/16 03:20:31  5-MIN K79J 250820Z AUTO 11003KT 10SM CLR 25/22 A2998 260 84 1500 120/03 RMK AO2 T02500222 $
53843K79J 79J20160725032511007/25/16 03:25:31  5-MIN K79J 250825Z AUTO 00000KT 10SM CLR 25/23 A2998 250 87 1500 000/00 RMK AO2 T02500228 $
53843K79J 79J20160725033011007/25/16 03:30:31  5-MIN K79J 250830Z AUTO 00000KT 10SM CLR 26/23 A2999 250 84 1600 000/00 RMK AO2 T02560228 $
53843K79J 79J20160725033511007/25/16 03:35:31  5-MIN K79J 250835Z AUTO 12003KT 10SM CLR 25/22 A2999 250 84 1500 130/03 RMK AO2 T02500222 $
53843K79J 79J20160725034011007/25/16 03:40:31  5-MIN K79J 250840Z AUTO 10004KT 10SM CLR 25/23 A2999 250 87 1500 110/04 RMK AO2 T02500228 $
53843K79J 79J20160725034511007/25/16 03:45:31  5-MIN K79J 250845Z AUTO 09003KT 10SM CLR 25/23 A2999 250 87 1500 090/03 RMK AO2 T02500228 $
53843K79J 79J20160725035012307/25/16 03:50:31  5-MIN K79J 250850Z AUTO 00000KT 10SM CLR 25/22 A3000 240 84 1500 000/00 RMK AO2 SLP151 T02500222 58006 $
53843K79J 79J20160725035512307/25/16 03:55:31  5-MIN K79J 250855Z AUTO 00000KT 10SM CLR 25/22 A3000 240 84 1500 000/00 RMK AO2 SLP152 T02500222 58006 $
53843K79J 79J20160725040011007/25/16 04:00:31  5-MIN K79J 250900Z AUTO 00000KT 10SM CLR 25/22 A3000 240 84 1500 000/00 RMK AO2 T02500222 $
53843K79J 79J20160725040511007/25/16 04:05:31  5-MIN K79J 250905Z AUTO 00000KT 10SM CLR 25/22 A3000 240 84 1500 000/00 RMK AO2 T02500222 $
53843K79J 79J20160725041011007/25/16 04:10:31  5-MIN K79J 250910Z AUTO 00000KT 10SM CLR 25/22 A3000 240 84 1500 000/00 RMK AO2 T02500222 $
53843K79J 79J20160725041511007/25/16 04:15:31  5-MIN K79J 250915Z AUTO 08003KT 10SM CLR 25/22 A3000 240 84 1500 080/03 RMK AO2 T02500222 $
53843K79J 79J20160725042011007/25/16 04:20:31  5-MIN K79J 250920Z AUTO 09004KT 10SM CLR 25/22 A3000 240 84 1500 090/04 RMK AO2 T02500222 $
53843K79J 79J20160725042511007/25/16 04:25:31  5-MIN K79J 250925Z AUTO 07004KT 10SM CLR 25/22 A3000 240 84 1500 080/04 RMK AO2 T02500222 $
53843K79J 79J20160725043011007/25/16 04:30:31  5-MIN K79J 250930Z AUTO 08003KT 10SM CLR 25/22 A3000 230 84 1500 090/03 RMK AO2 T02500222 $
53843K79J 79J20160725043511007/25/16 04:35:31  5-MIN K79J 250935Z AUTO 00000KT 10SM CLR 25/22 A3001 230 84 1500 000/00 RMK AO2 T02500222 $
53843K79J 79J20160725044011007/25/16 04:40:31  5-MIN K79J 250940Z AUTO 08003KT 10SM CLR 25/22 A3001 230 84 1500 090/03 RMK AO2 T02500222 $
53843K79J 79J20160725044511007/25/16 04:45:31  5-MIN K79J 250945Z AUTO 00000KT 10SM CLR 25/23 A3001 230 87 1500 000/00 RMK AO2 T02500228 $
53843K79J 79J20160725045011707/25/16 04:50:31  5-MIN K79J 250950Z AUTO 07003KT 10SM CLR 25/23 A3001 230 87 1500 070/03 RMK AO2 SLP157 T02500228 $
53843K79J 79J20160725045511707/25/16 04:55:31  5-MIN K79J 250955Z AUTO 08003KT 10SM CLR 25/23 A3002 220 87 1500 080/03 RMK AO2 SLP159 T02500228 $
53843K79J 79J20160725050011007/25/16 05:00:31  5-MIN K79J 251000Z AUTO 00000KT 10SM CLR 25/23 A3002 220 87 1500 000/00 RMK AO2 T02500228 $
53843K79J 79J20160725050511007/25/16 05:05:31  5-MIN K79J 251005Z AUTO 07003KT 10SM CLR 25/23 A3002 220 87 1500 070/03 RMK AO2 T02500228 $
53843K79J 79J20160725051011007/25/16 05:10:31  5-MIN K79J 251010Z AUTO 08003KT 10SM CLR 25/23 A3002 220 87 1500 080/03 RMK AO2 T02500228 $
53843K79J 79J20160725051511007/25/16 05:15:31  5-MIN K79J 251015Z AUTO 07003KT 10SM CLR 25/23 A3002 220 87 1500 070/03 RMK AO2 T02500228 $
53843K79J 79J20160725052011007/25/16 05:20:31  5-MIN K79J 251020Z AUTO 00000KT 10SM CLR 25/23 A3003 210 87 1500 000/00 RMK AO2 T02500228 $
53843K79J 79J20160725052511007/25/16 05:25:31  5-MIN K79J 251025Z AUTO 00000KT 10SM CLR 25/23 A3003 210 87 1500 000/00 RMK AO2 T02500228 $
53843K79J 79J20160725053011007/25/16 05:30:31  5-MIN K79J 251030Z AUTO 00000KT 10SM CLR 25/22 A3003 210 84 1500 000/00 RMK AO2 T02500222 $
53843K79J 79J20160725053511007/25/16 05:35:31  5-MIN K79J 251035Z AUTO 08003KT 10SM CLR 25/22 A3003 210 84 1500 090/03 RMK AO2 T02500222 $
53843K79J 79J20160725054011007/25/16 05:40:31  5-MIN K79J 251040Z AUTO 09003KT 10SM CLR 25/22 A3003 210 84 1500 090/03 RMK AO2 T02500222 $
53843K79J 79J20160725054511007/25/16 05:45:31  5-MIN K79J 251045Z AUTO 09004KT 10SM CLR 25/22 A3003 210 84 1500 100/04 RMK AO2 T02500222 $
53843K79J 79J20160725055011707/25/16 05:50:31  5-MIN K79J 251050Z AUTO 09003KT 10SM CLR 25/22 A3003 210 84 1500 100/03 RMK AO2 SLP164 T02500222 $
53843K79J 79J20160725055511707/25/16 05:55:31  5-MIN K79J 251055Z AUTO 09004KT 10SM CLR 25/22 A3003 210 84 1500 090/04 RMK AO2 SLP164 T02500222 $
53843K79J 79J20160725060011007/25/16 06:00:31  5-MIN K79J 251100Z AUTO 10003KT 10SM CLR 25/22 A3003 210 84 1500 100/03 RMK AO2 T02500222 $
53843K79J 79J20160725060511007/25/16 06:05:31  5-MIN K79J 251105Z AUTO 09004KT 10SM CLR 25/22 A3003 210 84 1500 100/04 RMK AO2 T02500222 $
53843K79J 79J20160725061011007/25/16 06:10:31  5-MIN K79J 251110Z AUTO 09004KT 10SM CLR 25/22 A3004 200 84 1400 100/04 RMK AO2 T02500222 $
53843K79J 79J20160725061511007/25/16 06:15:31  5-MIN K79J 251115Z AUTO 10003KT 10SM CLR 25/23 A3004 200 87 1400 100/03 RMK AO2 T02500228 $
53843K79J 79J20160725062011007/25/16 06:20:31  5-MIN K79J 251120Z AUTO 00000KT 10SM CLR 25/23 A3004 200 87 1400 000/00 RMK AO2 T02500228 $
53843K79J 79J20160725062511007/25/16 06:25:31  5-MIN K79J 251125Z AUTO 00000KT 10SM CLR 25/23 A3004 200 87 1400 000/00 RMK AO2 T02500228 $
53843K79J 79J20160725063011007/25/16 06:30:31  5-MIN K79J 251130Z AUTO 00000KT 10SM CLR 25/23 A3004 200 87 1400 000/00 RMK AO2 T02500228 $
53843K79J 79J20160725063511007/25/16 06:35:31  5-MIN K79J 251135Z AUTO 00000KT 10SM CLR 26/23 A3004 200 84 1500 000/00 RMK AO2 T02560228 $
53843K79J 79J20160725064011007/25/16 06:40:31  5-MIN K79J 251140Z AUTO 00000KT 10SM CLR 26/23 A3004 200 84 1500 000/00 RMK AO2 T02560228 $
53843K79J 79J20160725064511007/25/16 06:45:31  5-MIN K79J 251145Z AUTO 00000KT 10SM CLR 26/23 A3004 200 84 1500 000/00 RMK AO2 T02560228 $
53843K79J 79J20160725065013507/25/16 06:50:31  5-MIN K79J 251150Z AUTO 00000KT 10SM CLR 26/23 A3005 200 81 1600 000/00 RMK AO2 SLP169 T02610228 10261 20250 55005 $
53843K79J 79J20160725065513507/25/16 06:55:31  5-MIN K79J 251155Z AUTO 06003KT 10SM CLR 26/23 A3005 200 84 1600 070/03 RMK AO2 SLP169 T02610233 10261 20250 55005 $
53843K79J 79J20160725070011007/25/16 07:00:31  5-MIN K79J 251200Z AUTO 08003KT 10SM CLR 26/23 A3005 190 84 1600 080/03 RMK AO2 T02610233 $
53843K79J 79J20160725070511007/25/16 07:05:31  5-MIN K79J 251205Z AUTO 09004KT 10SM CLR 26/23 A3005 190 84 1600 090/04 RMK AO2 T02610233 $
53843K79J 79J20160725071011007/25/16 07:10:31  5-MIN K79J 251210Z AUTO 09004KT 10SM CLR 26/23 A3006 190 84 1600 090/04 RMK AO2 T02610233 $
53843K79J 79J20160725071511007/25/16 07:15:31  5-MIN K79J 251215Z AUTO 09005KT 10SM CLR 27/23 A3006 190 82 1600 090/05 RMK AO2 T02670233 $
53843K79J 79J20160725072011007/25/16 07:20:31  5-MIN K79J 251220Z AUTO 08005KT 10SM CLR 27/23 A3006 180 82 1600 090/05 RMK AO2 T02670233 $
53843K79J 79J20160725072511007/25/16 07:25:31  5-MIN K79J 251225Z AUTO 09005KT 10SM CLR 27/23 A3006 180 82 1600 090/05 RMK AO2 T02670233 $
53843K79J 79J20160725073011007/25/16 07:30:31  5-MIN K79J 251230Z AUTO 09006KT 10SM CLR 27/23 A3006 180 79 1700 090/06 RMK AO2 T02720233 $
53843K79J 79J20160725073511007/25/16 07:35:31  5-MIN K79J 251235Z AUTO 09006KT 10SM CLR 27/24 A3006 180 82 1700 090/06 RMK AO2 T02720239 $
53843K79J 79J20160725074011007/25/16 07:40:31  5-MIN K79J 251240Z AUTO 09005KT 10SM CLR 27/24 A3006 180 82 1700 090/05 RMK AO2 T02720239 $
53843K79J 79J20160725074511007/25/16 07:45:31  5-MIN K79J 251245Z AUTO 10006KT 10SM CLR 28/24 A3006 180 79 1700 100/06 RMK AO2 T02780239 $
53843K79J 79J20160725075011707/25/16 07:50:31  5-MIN K79J 251250Z AUTO 10006KT 10SM CLR 28/24 A3006 190 79 1700 100/06 RMK AO2 SLP173 T02780239 $
53843K79J 79J20160725075511707/25/16 07:55:31  5-MIN K79J 251255Z AUTO 10006KT 10SM CLR 28/24 A3006 190 76 1800 110/06 RMK AO2 SLP173 T02830239 $
53843K79J 79J20160725080011007/25/16 08:00:31  5-MIN K79J 251300Z AUTO 11006KT 10SM CLR 28/24 A3006 190 76 1800 120/06 RMK AO2 T02830239 $
53843K79J 79J20160725080511007/25/16 08:05:31  5-MIN K79J 251305Z AUTO 11005KT 10SM CLR 29/24 A3006 180 74 1900 110/05 RMK AO2 T02890239 $
53843K79J 79J20160725081011007/25/16 08:10:31  5-MIN K79J 251310Z AUTO 11004KT 10SM CLR 29/24 A3006 180 74 1900 110/04 RMK AO2 T02890239 $
53843K79J 79J20160725081511007/25/16 08:15:31  5-MIN K79J 251315Z AUTO 10006KT 10SM CLR 29/24 A3006 180 74 1900 100/06 RMK AO2 T02890239 $
53843K79J 79J20160725082011007/25/16 08:20:31  5-MIN K79J 251320Z AUTO 10007KT 10SM CLR 29/24 A3006 180 71 1900 100/07 RMK AO2 T02940239 $
53843K79J 79J20160725082511007/25/16 08:25:31  5-MIN K79J 251325Z AUTO 12005KT 10SM CLR 29/24 A3006 180 71 1900 120/05 RMK AO2 T02940239 $
53843K79J 79J20160725083011007/25/16 08:30:31  5-MIN K79J 251330Z AUTO 11005KT 10SM CLR 29/24 A3006 180 71 1900 120/05 RMK AO2 T02940239 $
53843K79J 79J20160725083511007/25/16 08:35:31  5-MIN K79J 251335Z AUTO VRB04KT 10SM CLR 30/24 A3006 180 69 2000 VRB/04 RMK AO2 T03000239 $
53843K79J 79J20160725084011007/25/16 08:40:31  5-MIN K79J 251340Z AUTO 12004KT 10SM CLR 30/24 A3006 180 69 2000 130/04 RMK AO2 T03000239 $
53843K79J 79J20160725084511007/25/16 08:45:31  5-MIN K79J 251345Z AUTO 10006KT 10SM CLR 30/24 A3007 180 69 2000 100/06 RMK AO2 T03000239 $
53843K79J 79J20160725085011707/25/16 08:50:31  5-MIN K79J 251350Z AUTO 09007KT 10SM CLR 30/24 A3007 180 69 2000 090/07 RMK AO2 SLP176 T03000239 $
53843K79J 79J20160725085511707/25/16 08:55:31  5-MIN K79J 251355Z AUTO VRB04KT 10SM CLR 31/24 A3007 180 67 2000 VRB/04 RMK AO2 SLP177 T03060239 $
53843K79J 79J20160725090012607/25/16 09:00:31  5-MIN K79J 251400Z AUTO 11007KT 080V150 10SM CLR 31/24 A3007 170 67 2000 110/07 080V150 RMK AO2 T03060239 $
53843K79J 79J20160725090511007/25/16 09:05:31  5-MIN K79J 251405Z AUTO 09007KT 10SM CLR 31/23 A3007 180 65 2000 100/07 RMK AO2 T03060233 $
53843K79J 79J20160725091011007/25/16 09:10:31  5-MIN K79J 251410Z AUTO 11006KT 10SM CLR 31/24 A3006 180 65 2100 110/06 RMK AO2 T03110239 $
53843K79J 79J20160725091511007/25/16 09:15:31  5-MIN K79J 251415Z AUTO 11006KT 10SM CLR 31/24 A3006 180 65 2100 110/06 RMK AO2 T03110239 $
53843K79J 79J20160725092011007/25/16 09:20:31  5-MIN K79J 251420Z AUTO 11007KT 10SM CLR 31/23 A3006 180 63 2100 110/07 RMK AO2 T03110233 $
53843K79J 79J20160725092511007/25/16 09:25:31  5-MIN K79J 251425Z AUTO 13003KT 10SM CLR 31/23 A3006 180 63 2100 130/03 RMK AO2 T03110233 $
53843K79J 79J20160725093011007/25/16 09:30:31  5-MIN K79J 251430Z AUTO 12005KT 10SM CLR 31/23 A3006 180 60 2100 120/05 RMK AO2 T03110228 $
53843K79J 79J20160725093511307/25/16 09:35:31  5-MIN K79J 251435Z AUTO VRB05KT 10SM FEW022 31/23 A3006 180 63 2100 VRB/05 RMK AO2 T03110233 $
53843K79J 79J20160725094011307/25/16 09:40:31  5-MIN K79J 251440Z AUTO 12006KT 10SM FEW022 32/23 A3006 180 61 2200 120/06 RMK AO2 T03170233 $
53843K79J 79J20160725094511307/25/16 09:45:31  5-MIN K79J 251445Z AUTO 09008KT 10SM FEW022 32/23 A3006 180 61 2200 100/08 RMK AO2 T03170233 $
53843K79J 79J20160725095012607/25/16 09:50:31  5-MIN K79J 251450Z AUTO VRB06KT 10SM SCT022 32/23 A3006 180 59 2200 VRB/06 RMK AO2 SLP174 T03220233 51016 $
53843K79J 79J20160725095512607/25/16 09:55:31  5-MIN K79J 251455Z AUTO 15003KT 10SM SCT025 32/23 A3006 180 58 2200 160/03 RMK AO2 SLP174 T03170228 51016 $
53843K79J 79J20160725100011307/25/16 10:00:31  5-MIN K79J 251500Z AUTO VRB04KT 10SM SCT025 32/23 A3006 190 61 2200 VRB/04 RMK AO2 T03170233 $
53843K79J 79J20160725100511307/25/16 10:05:31  5-MIN K79J 251505Z AUTO 11007KT 10SM SCT025 32/23 A3006 190 57 2200 110/07 RMK AO2 T03220228 $
53843K79J 79J20160725101011307/25/16 10:10:31  5-MIN K79J 251510Z AUTO VRB05KT 10SM SCT027 32/23 A3006 180 59 2200 VRB/05 RMK AO2 T03220233 $
53843K79J 79J20160725101511307/25/16 10:15:31  5-MIN K79J 251515Z AUTO VRB06KT 10SM SCT027 33/23 A3006 190 55 2300 VRB/06 RMK AO2 T03280228 $
53843K79J 79J20160725102011307/25/16 10:20:31  5-MIN K79J 251520Z AUTO 16005KT 10SM FEW027 33/23 A3006 190 57 2300 160/05 RMK AO2 T03280233 $
53843K79J 79J20160725102511307/25/16 10:25:31  5-MIN K79J 251525Z AUTO VRB06KT 10SM FEW027 32/23 A3006 190 57 2200 VRB/06 RMK AO2 T03220228 $
53843K79J 79J20160725103011307/25/16 10:30:31  5-MIN K79J 251530Z AUTO 13004KT 10SM FEW027 33/23 A3006 190 57 2300 130/04 RMK AO2 T03280233 $
53843K79J 79J20160725103511307/25/16 10:35:31  5-MIN K79J 251535Z AUTO VRB06KT 10SM FEW029 33/23 A3006 190 57 2300 VRB/06 RMK AO2 T03280233 $
53843K79J 79J20160725104011307/25/16 10:40:31  5-MIN K79J 251540Z AUTO 14004KT 10SM FEW029 33/23 A3006 190 53 2400 140/04 RMK AO2 T03330228 $
53843K79J 79J20160725104512007/25/16 10:45:31  5-MIN K79J 251545Z AUTO VRB05KT 10SM FEW029 FEW039 33/23 A3006 190 53 2400 VRB/05 RMK AO2 T03330228 $
53843K79J 79J20160725105012707/25/16 10:50:31  5-MIN K79J 251550Z AUTO VRB04KT 10SM FEW029 SCT037 33/23 A3006 190 55 2300 VRB/04 RMK AO2 SLP173 T03280228 $
53843K79J 79J20160725105512707/25/16 10:55:31  5-MIN K79J 251555Z AUTO VRB04KT 10SM FEW029 SCT037 34/23 A3006 190 51 2400 VRB/04 RMK AO2 SLP173 T03390228 $
53843K79J 79J20160725110011007/25/16 11:00:31  5-MIN K79J 251600Z AUTO 10SM FEW030 FEW037 34/23 A3006 190 51 2400 M /M RMK AO2 T03390228 $
53843K79J 79J20160725110511307/25/16 11:05:31  5-MIN K79J 251605Z AUTO 11006KT 10SM FEW034 34/23 A3005 190 51 2400 110/06 RMK AO2 T03390228 $
53843K79J 79J20160725111012907/25/16 11:10:31  5-MIN K79J 251610Z AUTO 06007KT 020V090 10SM SCT036 34/22 A3005 190 50 2400 070/07 020V090 RMK AO2 T03390222 $
53843K79J 79J20160725111511307/25/16 11:15:31  5-MIN K79J 251615Z AUTO 10009KT 10SM SCT036 34/22 A3005 190 50 2400 100/09 RMK AO2 T03390222 $
53843K79J 79J20160725112011307/25/16 11:20:31  5-MIN K79J 251620Z AUTO 12008KT 10SM FEW038 34/22 A3005 190 48 2400 120/08 RMK AO2 T03390217 $
53843K79J 79J20160725112511307/25/16 11:25:31  5-MIN K79J 251625Z AUTO VRB05KT 10SM FEW036 34/22 A3005 190 50 2400 VRB/05 RMK AO2 T03390222 $
53843K79J 79J20160725113011307/25/16 11:30:31  5-MIN K79J 251630Z AUTO 11008KT 10SM FEW038 34/22 A3005 200 48 2500 110/08 RMK AO2 T03440222 $
53843K79J 79J20160725113511307/25/16 11:35:31  5-MIN K79J 251635Z AUTO 13007KT 10SM FEW038 34/22 A3004 200 48 2400 130/07 RMK AO2 T03390217 $
53843K79J 79J20160725114011307/25/16 11:40:31  5-MIN K79J 251640Z AUTO VRB05KT 10SM FEW040 34/22 A3004 200 48 2400 VRB/05 RMK AO2 T03390217 $
53843K79J 79J20160725114511307/25/16 11:45:31  5-MIN K79J 251645Z AUTO 12005KT 10SM FEW040 34/22 A3004 200 50 2400 130/05 RMK AO2 T03390222 $
53843K79J 79J20160725115012007/25/16 11:50:31  5-MIN K79J 251650Z AUTO 14006KT 10SM FEW041 34/22 A3004 210 50 2400 140/06 RMK AO2 SLP166 T03390222 $
53843K79J 79J20160725115512007/25/16 11:55:31  5-MIN K79J 251655Z AUTO VRB04KT 10SM SCT041 34/22 A3003 210 50 2400 VRB/04 RMK AO2 SLP165 T03390222 $
53843K79J 79J20160725120011307/25/16 12:00:31  5-MIN K79J 251700Z AUTO VRB06KT 10SM SCT041 34/22 A3004 210 48 2500 VRB/06 RMK AO2 T03440222 $
53843K79J 79J20160725120512907/25/16 12:05:31  5-MIN K79J 251705Z AUTO 12008KT 080V170 10SM FEW041 34/22 A3003 210 48 2500 120/08 080V170 RMK AO2 T03440222 $
53843K79J 79J20160725121011307/25/16 12:10:31  5-MIN K79J 251710Z AUTO 17004KT 10SM FEW041 34/22 A3003 210 48 2500 170/04 RMK AO2 T03440222 $
53843K79J 79J20160725121511307/25/16 12:15:31  5-MIN K79J 251715Z AUTO VRB06KT 10SM FEW041 34/22 A3003 210 48 2400 VRB/06 RMK AO2 T03390217 $
53843K79J 79J20160725122011307/25/16 12:20:31  5-MIN K79J 251720Z AUTO 15007KT 10SM FEW041 34/22 A3003 210 48 2500 150/07 RMK AO2 T03440222 $
53843K79J 79J20160725122511307/25/16 12:25:31  5-MIN K79J 251725Z AUTO VRB05KT 10SM FEW060 34/22 A3003 210 48 2500 VRB/05 RMK AO2 T03440222 $
53843K79J 79J20160725123012007/25/16 12:30:31  5-MIN K79J 251730Z AUTO VRB05KT 10SM FEW043 SCT055 34/22 A3003 210 48 2500 VRB/05 RMK AO2 T03440222 $
53843K79J 79J20160725123512607/25/16 12:35:31  5-MIN K79J 251735Z AUTO 12009G15KT 10SM FEW043 SCT055 35/22 A3002 220 45 2600 120/09G15 RMK AO2 T03500217 $
53843K79J 79J20160725124012607/25/16 12:40:31  5-MIN K79J 251740Z AUTO 14004G15KT 10SM FEW043 SCT055 35/22 A3002 220 45 2600 140/04G15 RMK AO2 T03500217 $
53843K79J 79J20160725124513607/25/16 12:45:31  5-MIN K79J 251745Z AUTO 12008KT 100V160 10SM FEW046 SCT060 36/22 A3002 220 45 2600 120/08 100V160 RMK AO2 T03560222 $
53843K79J 79J20160725125014507/25/16 12:50:31  5-MIN K79J 251750Z AUTO VRB05KT 10SM SCT044 BKN060 35/22 A3002 220 45 2600 VRB/05 RMK AO2 SLP159 T03500217 10356 20261 50004 $
53843K79J 79J20160725125514507/25/16 12:55:31  5-MIN K79J 251755Z AUTO VRB05KT 10SM SCT044 BKN055 36/22 A3002 220 45 2600 VRB/05 RMK AO2 SLP158 T03560222 10356 20261 50004 $
53843K79J 79J20160725130013607/25/16 13:00:31  5-MIN K79J 251800Z AUTO 13007KT 090V170 10SM FEW044 SCT060 36/22 A3002 220 45 2600 130/07 090V170 RMK AO2 T03560222 $
53843K79J 79J20160725130512007/25/16 13:05:31  5-MIN K79J 251805Z AUTO VRB05KT 10SM FEW044 FEW055 34/22 A3001 230 46 2500 VRB/05 RMK AO2 T03440217 $
53843K79J 79J20160725131014307/25/16 13:10:31  5-MIN K79J 251810Z AUTO 13007KT 090V160 10SM FEW042 FEW055 SCT070 36/22 A3001 230 44 2700 130/07 090V160 RMK AO2 T03560217 $
53843K79J 79J20160725131512007/25/16 13:15:31  5-MIN K79J 251815Z AUTO 12008KT 10SM FEW042 SCT060 36/21 A3001 230 42 2700 120/08 RMK AO2 T03560211 $
53843K79J 79J20160725132011307/25/16 13:20:31  5-MIN K79J 251820Z AUTO 11008KT 10SM SCT060 36/21 A3001 230 42 2700 110/08 RMK AO2 T03560211 $
53843K79J 79J20160725132512007/25/16 13:25:31  5-MIN K79J 251825Z AUTO 09007KT 10SM FEW060 SCT075 34/21 A3001 230 45 2500 090/07 RMK AO2 T03440211 $
53843K79J 79J20160725133012007/25/16 13:30:31  5-MIN K79J 251830Z AUTO 08006KT 10SM FEW060 SCT080 36/21 A3001 230 42 2700 080/06 RMK AO2 T03560211 $
53843K79J 79J20160725133512707/25/16 13:35:31  5-MIN K79J 251835Z AUTO VRB04KT 10SM FEW050 SCT065 SCT085 34/21 A3001 230 45 2500 VRB/04 RMK AO2 T03440211 $
53843K79J 79J20160725134012007/25/16 13:40:31  5-MIN K79J 251840Z AUTO 12009KT 10SM FEW050 SCT065 35/22 A3000 230 45 2600 120/09 RMK AO2 T03500217 $
53843K79J 79J20160725134513607/25/16 13:45:31  5-MIN K79J 251845Z AUTO 12008KT 090V160 10SM FEW048 FEW070 36/21 A3000 240 42 2700 130/08 090V160 RMK AO2 T03560211 $
53843K79J 79J20160725135012707/25/16 13:50:31  5-MIN K79J 251850Z AUTO 11008KT 10SM FEW050 FEW070 36/21 A3000 240 41 2700 120/08 RMK AO2 SLP152 T03560206 $
53843K79J 79J20160725135512007/25/16 13:55:31  5-MIN K79J 251855Z AUTO 14007KT 10SM FEW050 36/21 A3000 240 41 2700 140/07 RMK AO2 SLP152 T03610211 $
53843K79J 79J20160725140011307/25/16 14:00:31  5-MIN K79J 251900Z AUTO VRB05KT 10SM FEW049 36/21 A3000 240 41 2700 VRB/05 RMK AO2 T03560206 $
53843K79J 79J20160725140511007/25/16 14:05:31  5-MIN K79J 251905Z AUTO 10008KT 10SM CLR 36/21 A2999 240 39 2700 110/08 RMK AO2 T03610206 $
53843K79J 79J20160725141011307/25/16 14:10:31  5-MIN K79J 251910Z AUTO 10006KT 10SM FEW060 36/20 A2999 250 39 2700 100/06 RMK AO2 T03560200 $
53843K79J 79J20160725141511307/25/16 14:15:31  5-MIN K79J 251915Z AUTO 09009KT 10SM FEW060 36/21 A2999 250 42 2700 100/09 RMK AO2 T03560211 $
53843K79J 79J20160725142012907/25/16 14:20:31  5-MIN K79J 251920Z AUTO 12007KT 080V170 10SM FEW055 36/21 A2999 250 39 2700 120/07 080V170 RMK AO2 T03610206 $
53843K79J 79J20160725142511307/25/16 14:25:31  5-MIN K79J 251925Z AUTO 10007KT 10SM FEW055 36/21 A2999 250 39 2700 110/07 RMK AO2 T03610206 $
53843K79J 79J20160725143011307/25/16 14:30:31  5-MIN K79J 251930Z AUTO 08009KT 10SM FEW060 36/21 A2998 250 39 2700 080/09 RMK AO2 T03610206 $
53843K79J 79J20160725143511307/25/16 14:35:31  5-MIN K79J 251935Z AUTO VRB05KT 10SM FEW060 36/21 A2998 250 41 2700 VRB/05 RMK AO2 T03610211 $
53843K79J 79J20160725144011007/25/16 14:40:31  5-MIN K79J 251940Z AUTO 11007KT 10SM CLR 36/21 A2998 260 39 2700 110/07 RMK AO2 T03610206 $
53843K79J 79J20160725144511007/25/16 14:45:31  5-MIN K79J 251945Z AUTO 11009KT 10SM CLR 36/20 A2998 260 38 2800 110/09 RMK AO2 T03610200 $
53843K79J 79J20160725145011707/25/16 14:50:31  5-MIN K79J 251950Z AUTO 12008KT 10SM CLR 36/20 A2997 260 39 2700 120/08 RMK AO2 SLP144 T03560200 $
53843K79J 79J20160725145513307/25/16 14:55:31  5-MIN K79J 251955Z AUTO 12008KT 090V160 10SM CLR 36/20 A2997 260 39 2700 120/08 090V160 RMK AO2 SLP144 T03560200 $
53843K79J 79J20160725150011007/25/16 15:00:31  5-MIN K79J 252000Z AUTO 11006KT 10SM CLR 36/20 A2997 260 38 2800 110/06 RMK AO2 T03610200 $
53843K79J 79J20160725150511307/25/16 15:05:31  5-MIN K79J 252005Z AUTO 10010KT 10SM FEW070 36/20 A2997 260 38 2800 100/10 RMK AO2 T03610200 $
53843K79J 79J20160725151011307/25/16 15:10:31  5-MIN K79J 252010Z AUTO 09009KT 10SM SCT070 34/19 A2997 270 40 2600 090/09 RMK AO2 T03440194 $
53843K79J 79J20160725151511307/25/16 15:15:31  5-MIN K79J 252015Z AUTO 10008KT 10SM FEW075 36/20 A2997 270 39 2700 110/08 RMK AO2 T03560200 $
53843K79J 79J20160725152011907/25/16 15:20:31  5-MIN K79J 252020Z AUTO 11008G16KT 10SM FEW070 36/20 A2997 270 38 2800 110/08G16 RMK AO2 T03610200 $
53843K79J 79J20160725152511907/25/16 15:25:31  5-MIN K79J 252025Z AUTO 11008G16KT 10SM SCT065 36/19 A2997 270 38 2700 110/08G16 RMK AO2 T03560194 $
53843K79J 79J20160725153011307/25/16 15:30:31  5-MIN K79J 252030Z AUTO 11006KT 10SM SCT065 34/19 A2997 270 40 2600 120/06 RMK AO2 T03440194 $
53843K79J 79J20160725153511307/25/16 15:35:31  5-MIN K79J 252035Z AUTO 11006KT 10SM FEW065 36/20 A2997 270 39 2700 110/06 RMK AO2 T03560200 $
53843K79J 79J20160725154011307/25/16 15:40:31  5-MIN K79J 252040Z AUTO VRB06KT 10SM FEW065 35/20 A2997 270 40 2600 VRB/06 RMK AO2 T03500200 $
53843K79J 79J20160725154511307/25/16 15:45:31  5-MIN K79J 252045Z AUTO 14006KT 10SM FEW065 35/20 A2997 270 40 2600 140/06 RMK AO2 T03500200 $
53843K79J 79J20160725155012607/25/16 15:50:31  5-MIN K79J 252050Z AUTO VRB05KT 10SM FEW060 35/21 A2997 270 42 2600 VRB/05 RMK AO2 SLP142 T03500206 58014 $
53843K79J 79J20160725155512607/25/16 15:55:31  5-MIN K79J 252055Z AUTO VRB05KT 10SM FEW060 36/20 A2996 270 38 2800 VRB/05 RMK AO2 SLP140 T03610200 58014 $
53843K79J 79J20160725160011307/25/16 16:00:31  5-MIN K79J 252100Z AUTO 11008KT 10SM SCT060 37/20 A2996 280 37 2800 110/08 RMK AO2 T03670200 $
53843K79J 79J20160725160511307/25/16 16:05:31  5-MIN K79J 252105Z AUTO 10011KT 10SM SCT060 36/20 A2996 280 38 2800 110/11 RMK AO2 T03610200 $
53843K79J 79J20160725161012007/25/16 16:10:31  5-MIN K79J 252110Z AUTO 10009KT 10SM FEW060 SCT070 36/20 A2996 270 39 2700 100/09 RMK AO2 T03560200 $
53843K79J 79J20160725161511307/25/16 16:15:31  5-MIN K79J 252115Z AUTO VRB06KT 10SM FEW060 36/20 A2996 280 39 2700 VRB/06 RMK AO2 T03560200 $
53843K79J 79J20160725162011307/25/16 16:20:31  5-MIN K79J 252120Z AUTO 14008KT 10SM FEW060 36/21 A2996 270 41 2700 140/08 RMK AO2 T03560206 $
53843K79J 79J20160725162513507/25/16 16:25:31  5-MIN K79J 252125Z AUTO 15008G25KT 110V180 10SM SCT060 34/21 A2997 260 45 2600 150/08G25 110V180 RMK AO2 T03440211 $
53843K79J 79J20160725163011907/25/16 16:30:31  5-MIN K79J 252130Z AUTO 15011G25KT 10SM SCT060 33/22 A2997 260 51 2400 160/11G25 RMK AO2 T03280217 $
53843K79J 79J20160725163513507/25/16 16:35:31  5-MIN K79J 252135Z AUTO 17010G22KT 130V210 10SM FEW065 32/22 A2997 260 53 2300 170/10G22 130V210 RMK AO2 T03220217 $
53843K79J 79J20160725164011907/25/16 16:40:31  5-MIN K79J 252140Z AUTO 17008G20KT 10SM FEW065 33/22 A2997 260 51 2400 170/08G20 RMK AO2 T03280217 $
53843K79J 79J20160725164511907/25/16 16:45:31  5-MIN K79J 252145Z AUTO 15010G20KT 10SM FEW065 33/22 A2997 260 51 2400 160/10G20 RMK AO2 T03280217 $
53843K79J 79J20160725165014207/25/16 16:50:31  5-MIN K79J 252150Z AUTO 16009G17KT 140V210 10SM FEW060 33/22 A2997 260 51 2400 170/09G17 140V210 RMK AO2 SLP145 T03280217 $
53843K79J 79J20160725165512307/25/16 16:55:31  5-MIN K79J 252155Z AUTO 16009G16KT 10SM CLR 33/21 A2997 260 49 2400 160/09G16 RMK AO2 SLP144 T03280211 $
53843K79J 79J20160725170011607/25/16 17:00:31  5-MIN K79J 252200Z AUTO 18008G15KT 10SM CLR 32/21 A2997 260 51 2300 190/08G15 RMK AO2 T03220211 $
53843K79J 79J20160725170512607/25/16 17:05:31  5-MIN K79J 252205Z AUTO 17007KT 130V190 10SM CLR 32/21 A2997 260 51 2300 170/07 130V190 RMK AO2 T03220211 $
53843K79J 79J20160725171012607/25/16 17:10:31  5-MIN K79J 252210Z AUTO 15007KT 120V190 10SM CLR 32/21 A2997 260 51 2300 160/07 120V190 RMK AO2 T03220211 $
53843K79J 79J20160725171511007/25/16 17:15:31  5-MIN K79J 252215Z AUTO 15006KT 10SM CLR 32/22 A2997 260 55 2300 160/06 RMK AO2 T03170217 $
53843K79J 79J20160725172011007/25/16 17:20:31  5-MIN K79J 252220Z AUTO VRB04KT 10SM CLR 32/22 A2997 260 55 2300 VRB/04 RMK AO2 T03170217 $
53843K79J 79J20160725172511007/25/16 17:25:31  5-MIN K79J 252225Z AUTO 14006KT 10SM CLR 32/22 A2997 270 55 2300 150/06 RMK AO2 T03170217 $
53843K79J 79J20160725173011007/25/16 17:30:31  5-MIN K79J 252230Z AUTO VRB05KT 10SM CLR 32/22 A2997 270 55 2300 VRB/05 RMK AO2 T03170217 $
53843K79J 79J20160725173511007/25/16 17:35:31  5-MIN K79J 252235Z AUTO 16006KT 10SM CLR 32/22 A2997 270 55 2300 160/06 RMK AO2 T03220222 $
53843K79J 79J20160725174011007/25/16 17:40:31  5-MIN K79J 252240Z AUTO VRB05KT 10SM CLR 32/22 A2997 270 55 2300 VRB/05 RMK AO2 T03220222 $
53843K79J 79J20160725174511007/25/16 17:45:31  5-MIN K79J 252245Z AUTO 16004KT 10SM CLR 32/22 A2997 270 56 2300 160/04 RMK AO2 T03170222 $
53843K79J 79J20160725175011707/25/16 17:50:31  5-MIN K79J 252250Z AUTO 15005KT 10SM CLR 31/23 A2997 270 60 2200 150/05 RMK AO2 SLP142 T03110228 $
53843K79J 79J20160725175511707/25/16 17:55:31  5-MIN K79J 252255Z AUTO 16008KT 10SM CLR 32/23 A2997 270 57 2300 160/08 RMK AO2 SLP142 T03220228 $
53843K79J 79J20160725180011007/25/16 18:00:31  5-MIN K79J 252300Z AUTO VRB04KT 10SM CLR 32/22 A2997 270 55 2300 VRB/04 RMK AO2 T03220222 $
53843K79J 79J20160725180511007/25/16 18:05:31  5-MIN K79J 252305Z AUTO VRB06KT 10SM CLR 33/22 A2997 270 53 2400 VRB/06 RMK AO2 T03280222 $
53843K79J 79J20160725181011007/25/16 18:10:31  5-MIN K79J 252310Z AUTO 15006KT 10SM CLR 32/22 A2997 270 55 2300 150/06 RMK AO2 T03220222 $
53843K79J 79J20160725181511007/25/16 18:15:31  5-MIN K79J 252315Z AUTO 16006KT 10SM CLR 32/22 A2997 270 55 2300 160/06 RMK AO2 T03220222 $
53843K79J 79J20160725182011007/25/16 18:20:31  5-MIN K79J 252320Z AUTO VRB06KT 10SM CLR 32/22 A2997 260 55 2300 VRB/06 RMK AO2 T03220222 $
53843K79J 79J20160725182511007/25/16 18:25:31  5-MIN K79J 252325Z AUTO VRB05KT 10SM CLR 32/22 A2998 260 56 2300 VRB/05 RMK AO2 T03170222 $
53843K79J 79J20160725183011007/25/16 18:30:31  5-MIN K79J 252330Z AUTO 17004KT 10SM CLR 32/22 A2998 260 56 2300 170/04 RMK AO2 T03170222 $
53843K79J 79J20160725183511007/25/16 18:35:31  5-MIN K79J 252335Z AUTO VRB03KT 10SM CLR 32/23 A2998 260 57 2300 VRB/03 RMK AO2 T03220228 $
53843K79J 79J20160725184011007/25/16 18:40:31  5-MIN K79J 252340Z AUTO VRB03KT 10SM CLR 32/23 A2998 260 57 2300 VRB/03 RMK AO2 T03220228 $
53843K79J 79J20160725184511007/25/16 18:45:31  5-MIN K79J 252345Z AUTO VRB04KT 10SM CLR 32/23 A2998 260 57 2300 VRB/04 RMK AO2 T03220228 $
53843K79J 79J20160725185015107/25/16 18:50:31  5-MIN K79J 252350Z AUTO 15007KT 120V180 10SM CLR 32/23 A2998 260 57 2300 150/07 120V180 RMK AO2 SLP147 T03220228 10367 20311 56019 $
53843K79J 79J20160725185513507/25/16 18:55:31  5-MIN K79J 252355Z AUTO VRB03KT 10SM CLR 32/23 A2998 250 57 2300 VRB/03 RMK AO2 SLP148 T03220228 10367 20311 56019 $
53843K79J 79J20160725190011007/25/16 19:00:31  5-MIN K79J 260000Z AUTO VRB03KT 10SM CLR 32/23 A2998 250 57 2300 VRB/03 RMK AO2 T03220228 $
53843K79J 79J20160725190511007/25/16 19:05:31  5-MIN K79J 260005Z AUTO 13005KT 10SM CLR 32/22 A2998 260 56 2300 130/05 RMK AO2 T03170222 $
53843K79J 79J20160725191011007/25/16 19:10:31  5-MIN K79J 260010Z AUTO 14004KT 10SM CLR 32/22 A2998 250 56 2300 150/04 RMK AO2 T03170222 $
53843K79J 79J20160725191511007/25/16 19:15:31  5-MIN K79J 260015Z AUTO 15004KT 10SM CLR 32/22 A2998 250 56 2300 150/04 RMK AO2 T03170222 $
53843K79J 79J20160725192011007/25/16 19:20:31  5-MIN K79J 260020Z AUTO 15004KT 10SM CLR 31/23 A2999 250 60 2200 150/04 RMK AO2 T03110228 $
53843K79J 79J20160725192511007/25/16 19:25:31  5-MIN K79J 260025Z AUTO 15003KT 10SM CLR 31/23 A2999 250 60 2200 150/03 RMK AO2 T03110228 $
53843K79J 79J20160725193011007/25/16 19:30:31  5-MIN K79J 260030Z AUTO 15003KT 10SM CLR 31/23 A2999 250 60 2200 150/03 RMK AO2 T03110228 $
53843K79J 79J20160725193511007/25/16 19:35:31  5-MIN K79J 260035Z AUTO 15003KT 10SM CLR 31/23 A2999 250 62 2100 150/03 RMK AO2 T03060228 $
53843K79J 79J20160725194011007/25/16 19:40:31  5-MIN K79J 260040Z AUTO 00000KT 10SM CLR 31/23 A2999 250 62 2100 000/00 RMK AO2 T03060228 $
53843K79J 79J20160725194511007/25/16 19:45:31  5-MIN K79J 260045Z AUTO 00000KT 10SM CLR 30/23 A2999 240 67 2100 000/00 RMK AO2 T03000233 $
53843K79J 79J20160725195011707/25/16 19:50:31  5-MIN K79J 260050Z AUTO 22003KT 10SM CLR 30/23 A2999 240 67 2100 220/03 RMK AO2 SLP151 T03000233 $
53843K79J 79J20160725195511707/25/16 19:55:31  5-MIN K79J 260055Z AUTO 19004KT 10SM CLR 30/23 A2999 240 67 2100 190/04 RMK AO2 SLP152 T03000233 $
53843K79J 79J20160725200011007/25/16 20:00:31  5-MIN K79J 260100Z AUTO 18003KT 10SM CLR 29/23 A2999 250 69 2000 190/03 RMK AO2 T02940233 $
53843K79J 79J20160725200512007/25/16 20:05:31  5-MIN K79J 260105Z AUTO 00000KT 10SM FEW036 FEW045 29/23 A2999 250 69 2000 000/00 RMK AO2 T02940233 $
53843K79J 79J20160725201012007/25/16 20:10:31  5-MIN K79J 260110Z AUTO 13003KT 10SM SCT034 SCT045 29/23 A3000 240 69 2000 130/03 RMK AO2 T02940233 $
53843K79J 79J20160725201512007/25/16 20:15:31  5-MIN K79J 260115Z AUTO 19003KT 10SM SCT028 BKN034 29/23 A3000 240 69 2000 190/03 RMK AO2 T02940233 $
53843K79J 79J20160725202012007/25/16 20:20:31  5-MIN K79J 260120Z AUTO 00000KT 10SM SCT026 BKN034 29/23 A3000 240 69 2000 000/00 RMK AO2 T02940233 $
53843K79J 79J20160725202512007/25/16 20:25:31  5-MIN K79J 260125Z AUTO VRB03KT 10SM SCT026 BKN034 29/23 A3000 230 69 2000 VRB/03 RMK AO2 T02940233 $
53843K79J 79J20160725203012007/25/16 20:30:31  5-MIN K79J 260130Z AUTO 16003KT 10SM SCT026 BKN034 29/23 A3001 230 69 2000 160/03 RMK AO2 T02940233 $
53843K79J 79J20160725203512007/25/16 20:35:31  5-MIN K79J 260135Z AUTO 00000KT 10SM SCT027 BKN034 29/23 A3001 230 69 2000 000/00 RMK AO2 T02940233 $
53843K79J 79J20160725204012007/25/16 20:40:31  5-MIN K79J 260140Z AUTO 16004KT 10SM FEW027 BKN034 29/23 A3001 230 69 2000 160/04 RMK AO2 T02940233 $
53843K79J 79J20160725204511007/25/16 20:45:31  5-MIN K79J 260145Z AUTO 10SM FEW027 SCT034 29/23 A3001 230 71 1900 M /M RMK AO2 T02890233 $
53843K79J 79J20160725205012007/25/16 20:50:31  5-MIN K79J 260150Z AUTO 16005KT 10SM FEW032 29/23 A3001 230 69 1900 160/05 RMK AO2 SLP158 T02890228 $
53843K79J 79J20160725205512007/25/16 20:55:31  5-MIN K79J 260155Z AUTO 16003KT 10SM FEW034 29/23 A3001 230 69 1900 160/03 RMK AO2 SLP158 T02890228 $
53843K79J 79J20160725210011007/25/16 21:00:31  5-MIN K79J 260200Z AUTO 17004KT 10SM CLR 29/23 A3001 230 69 1900 170/04 RMK AO2 T02890228 $
53843K79J 79J20160725210511007/25/16 21:05:31  5-MIN K79J 260205Z AUTO VRB04KT 10SM CLR 29/22 A3001 230 67 1900 VRB/04 RMK AO2 T02890222 $
53843K79J 79J20160725211011007/25/16 21:10:31  5-MIN K79J 260210Z AUTO 15003KT 10SM CLR 29/22 A3001 230 67 1900 150/03 RMK AO2 T02890222 $
53843K79J 79J20160725211511007/25/16 21:15:31  5-MIN K79J 260215Z AUTO 00000KT 10SM CLR 29/22 A3002 220 67 1900 000/00 RMK AO2 T02890222 $
53843K79J 79J20160725212011007/25/16 21:20:31  5-MIN K79J 260220Z AUTO 00000KT 10SM CLR 28/22 A3002 220 69 1800 000/00 RMK AO2 T02830222 $
53843K79J 79J20160725212511007/25/16 21:25:31  5-MIN K79J 260225Z AUTO 13003KT 10SM CLR 28/23 A3002 220 71 1800 130/03 RMK AO2 T02830228 $
53843K79J 79J20160725213011007/25/16 21:30:31  5-MIN K79J 260230Z AUTO 12003KT 10SM CLR 28/23 A3002 220 71 1800 120/03 RMK AO2 T02830228 $
53843K79J 79J20160725213511007/25/16 21:35:31  5-MIN K79J 260235Z AUTO 12003KT 10SM CLR 28/23 A3002 220 71 1800 120/03 RMK AO2 T02830228 $
53843K79J 79J20160725214011007/25/16 21:40:31  5-MIN K79J 260240Z AUTO 12003KT 10SM CLR 28/23 A3002 220 71 1800 120/03 RMK AO2 T02830228 $
53843K79J 79J20160725214511007/25/16 21:45:31  5-MIN K79J 260245Z AUTO 12003KT 10SM CLR 28/23 A3002 220 71 1800 120/03 RMK AO2 T02830228 $
53843K79J 79J20160725215012307/25/16 21:50:31  5-MIN K79J 260250Z AUTO 00000KT 10SM CLR 28/23 A3002 220 71 1800 000/00 RMK AO2 SLP160 T02830228 53007 $
53843K79J 79J20160725215512307/25/16 21:55:31  5-MIN K79J 260255Z AUTO 00000KT 10SM CLR 28/23 A3002 220 74 1800 000/00 RMK AO2 SLP161 T02780228 53007 $
53843K79J 79J20160725220011007/25/16 22:00:31  5-MIN K79J 260300Z AUTO 13003KT 10SM CLR 28/23 A3002 220 74 1800 130/03 RMK AO2 T02780228 $
53843K79J 79J20160725220511007/25/16 22:05:31  5-MIN K79J 260305Z AUTO 12003KT 10SM CLR 28/22 A3002 220 71 1800 130/03 RMK AO2 T02780222 $
53843K79J 79J20160725221011007/25/16 22:10:31  5-MIN K79J 260310Z AUTO 14003KT 10SM CLR 28/22 A3002 220 71 1800 140/03 RMK AO2 T02780222 $
53843K79J 79J20160725221511007/25/16 22:15:31  5-MIN K79J 260315Z AUTO 14003KT 10SM CLR 28/22 A3002 220 71 1800 150/03 RMK AO2 T02780222 $
53843K79J 79J20160725222011007/25/16 22:20:31  5-MIN K79J 260320Z AUTO 13003KT 10SM CLR 28/23 A3002 220 74 1800 130/03 RMK AO2 T02780228 $
53843K79J 79J20160725222511007/25/16 22:25:31  5-MIN K79J 260325Z AUTO 12003KT 10SM CLR 28/23 A3002 220 74 1800 120/03 RMK AO2 T02780228 $
53843K79J 79J20160725223011007/25/16 22:30:31  5-MIN K79J 260330Z AUTO 11003KT 10SM CLR 27/23 A3002 220 76 1700 120/03 RMK AO2 T02720228 $
53843K79J 79J20160725223511007/25/16 22:35:31  5-MIN K79J 260335Z AUTO 12003KT 10SM CLR 27/23 A3002 220 76 1700 120/03 RMK AO2 T02720228 $
53843K79J 79J20160725224011007/25/16 22:40:31  5-MIN K79J 260340Z AUTO 12003KT 10SM CLR 27/23 A3002 220 76 1700 120/03 RMK AO2 T02720228 $
53843K79J 79J20160725224511007/25/16 22:45:31  5-MIN K79J 260345Z AUTO 00000KT 10SM CLR 27/23 A3003 210 76 1700 000/00 RMK AO2 T02720228 $
53843K79J 79J20160725225011707/25/16 22:50:31  5-MIN K79J 260350Z AUTO 12003KT 10SM CLR 27/23 A3003 210 76 1700 120/03 RMK AO2 SLP162 T02720228 $
53843K79J 79J20160725225511707/25/16 22:55:31  5-MIN K79J 260355Z AUTO 12003KT 10SM CLR 27/23 A3003 220 76 1700 120/03 RMK AO2 SLP161 T02720228 $
53843K79J 79J20160725230011007/25/16 23:00:31  5-MIN K79J 260400Z AUTO 00000KT 10SM CLR 27/23 A3003 210 76 1700 000/00 RMK AO2 T02720228 $
53843K79J 79J20160725230511007/25/16 23:05:31  5-MIN K79J 260405Z AUTO 00000KT 10SM CLR 27/23 A3003 210 76 1700 000/00 RMK AO2 T02720228 $
53843K79J 79J20160725231011007/25/16 23:10:31  5-MIN K79J 260410Z AUTO 10003KT 10SM CLR 27/23 A3003 210 76 1700 110/03 RMK AO2 T02720228 $
53843K79J 79J20160725231511007/25/16 23:15:31  5-MIN K79J 260415Z AUTO 00000KT 10SM CLR 27/23 A3003 210 76 1700 000/00 RMK AO2 T02720228 $
53843K79J 79J20160725232011007/25/16 23:20:31  5-MIN K79J 260420Z AUTO 07003KT 10SM CLR 27/23 A3003 210 76 1700 070/03 RMK AO2 T02720228 $
53843K79J 79J20160725232511007/25/16 23:25:31  5-MIN K79J 260425Z AUTO 00000KT 10SM CLR 27/23 A3003 210 79 1700 000/00 RMK AO2 T02670228 $
53843K79J 79J20160725233011007/25/16 23:30:31  5-MIN K79J 260430Z AUTO 00000KT 10SM CLR 27/23 A3003 210 79 1600 000/00 RMK AO2 T02670228 $
53843K79J 79J20160725233511007/25/16 23:35:31  5-MIN K79J 260435Z AUTO 00000KT 10SM CLR 27/23 A3003 210 79 1600 000/00 RMK AO2 T02670228 $
53843K79J 79J20160725234011007/25/16 23:40:31  5-MIN K79J 260440Z AUTO 00000KT 10SM CLR 27/23 A3003 220 79 1700 000/00 RMK AO2 T02670228 $
53843K79J 79J20160725234511007/25/16 23:45:31  5-MIN K79J 260445Z AUTO 00000KT 10SM CLR 27/23 A3002 220 79 1700 000/00 RMK AO2 T02670228 $
53843K79J 79J20160725235012707/25/16 23:50:31  5-MIN K79J 260450Z AUTO 00000KT 10SM CLR 26/23 A3003 210 81 1600 000/00 RMK AO2 SLP162 T02610228 403670250 $
53843K79J 79J20160725235512707/25/16 23:55:31  5-MIN K79J 260455Z AUTO 00000KT 10SM CLR 26/23 A3003 220 81 1600 000/00 RMK AO2 SLP162 T02610228 403670250 $
53843K79J 79J20160726000011007/26/16 00:00:31  5-MIN K79J 260500Z AUTO 00000KT 10SM CLR 26/23 A3002 220 81 1600 000/00 RMK AO2 T02610228 $
53843K79J 79J20160726000511007/26/16 00:05:31  5-MIN K79J 260505Z AUTO 09003KT 10SM CLR 26/23 A3002 220 81 1600 090/03 RMK AO2 T02610228 $
53843K79J 79J20160726001011007/26/16 00:10:31  5-MIN K79J 260510Z AUTO 10003KT 10SM CLR 26/23 A3002 220 81 1600 100/03 RMK AO2 T02610228 $
53843K79J 79J20160726001511007/26/16 00:15:31  5-MIN K79J 260515Z AUTO 10003KT 10SM CLR 26/23 A3002 220 81 1600 100/03 RMK AO2 T02610228 $
53843K79J 79J20160726002011007/26/16 00:20:31  5-MIN K79J 260520Z AUTO 10003KT 10SM CLR 26/23 A3002 220 81 1600 100/03 RMK AO2 T02610228 $
53843K79J 79J20160726002511007/26/16 00:25:31  5-MIN K79J 260525Z AUTO 00000KT 10SM CLR 26/23 A3002 220 81 1600 000/00 RMK AO2 T02610228 $
53843K79J 79J20160726003011007/26/16 00:30:31  5-MIN K79J 260530Z AUTO 00000KT 10SM CLR 26/23 A3002 220 81 1600 000/00 RMK AO2 T02610228 $
53843K79J 79J20160726003511007/26/16 00:35:31  5-MIN K79J 260535Z AUTO 00000KT 10SM CLR 26/23 A3002 220 81 1600 000/00 RMK AO2 T02610228 $
53843K79J 79J20160726004011007/26/16 00:40:31  5-MIN K79J 260540Z AUTO 08003KT 10SM CLR 26/23 A3002 220 81 1600 080/03 RMK AO2 T02610228 $
53843K79J 79J20160726004511007/26/16 00:45:31  5-MIN K79J 260545Z AUTO 00000KT 10SM CLR 26/23 A3002 220 81 1600 000/00 RMK AO2 T02610228 $
53843K79J 79J20160726005013507/26/16 00:50:31  5-MIN K79J 260550Z AUTO 08003KT 10SM CLR 26/23 A3002 220 81 1600 080/03 RMK AO2 SLP160 T02610228 10322 20261 51013 $
53843K79J 79J20160726005513507/26/16 00:55:31  5-MIN K79J 260555Z AUTO 10004KT 10SM CLR 26/23 A3002 220 81 1600 100/04 RMK AO2 SLP160 T02610228 10322 20261 51013 $
53843K79J 79J20160726010011007/26/16 01:00:31  5-MIN K79J 260600Z AUTO 10004KT 10SM CLR 26/23 A3002 220 81 1600 100/04 RMK AO2 T02610228 $
53843K79J 79J20160726010511007/26/16 01:05:31  5-MIN K79J 260605Z AUTO 10004KT 10SM CLR 26/23 A3001 230 81 1600 110/04 RMK AO2 T02610228 $
53843K79J 79J20160726011011007/26/16 01:10:31  5-MIN K79J 260610Z AUTO 12004KT 10SM CLR 26/23 A3001 230 81 1600 120/04 RMK AO2 T02610228 $
53843K79J 79J20160726011511007/26/16 01:15:31  5-MIN K79J 260615Z AUTO 11005KT 10SM CLR 26/23 A3001 230 81 1600 110/05 RMK AO2 T02610228 $
53843K79J 79J20160726012011007/26/16 01:20:31  5-MIN K79J 260620Z AUTO 11004KT 10SM CLR 26/23 A3001 230 81 1600 110/04 RMK AO2 T02610228 $
53843K79J 79J20160726012511307/26/16 01:25:31  5-MIN K79J 260625Z AUTO 11003KT 10SM FEW024 26/23 A3001 230 81 1600 110/03 RMK AO2 T02610228 $
53843K79J 79J20160726013011307/26/16 01:30:31  5-MIN K79J 260630Z AUTO 10003KT 10SM FEW024 26/23 A3001 230 81 1600 100/03 RMK AO2 T02610228 $
53843K79J 79J20160726013511007/26/16 01:35:31  5-MIN K79J 260635Z AUTO 09004KT 10SM CLR 26/23 A3001 230 81 1600 090/04 RMK AO2 T02610228 $
53843K79J 79J20160726014011007/26/16 01:40:31  5-MIN K79J 260640Z AUTO 11003KT 10SM CLR 26/23 A3001 230 81 1600 110/03 RMK AO2 T02610228 $
53843K79J 79J20160726014511007/26/16 01:45:31  5-MIN K79J 260645Z AUTO 11003KT 10SM CLR 26/23 A3001 230 81 1600 110/03 RMK AO2 T02610228 $
53843K79J 79J20160726015011707/26/16 01:50:31  5-MIN K79J 260650Z AUTO 00000KT 10SM CLR 26/23 A3001 230 81 1600 000/00 RMK AO2 SLP156 T02610228 $
53843K79J 79J20160726015511707/26/16 01:55:31  5-MIN K79J 260655Z AUTO 12003KT 10SM CLR 26/23 A3001 230 81 1600 120/03 RMK AO2 SLP157 T02610228 $
53843K79J 79J20160726020011007/26/16 02:00:31  5-MIN K79J 260700Z AUTO 11003KT 10SM CLR 26/23 A3001 230 81 1600 110/03 RMK AO2 T02610228 $
53843K79J 79J20160726020511007/26/16 02:05:31  5-MIN K79J 260705Z AUTO 11003KT 10SM CLR 26/23 A3001 230 84 1500 110/03 RMK AO2 T02560228 $
53843K79J 79J20160726021011007/26/16 02:10:31  5-MIN K79J 260710Z AUTO 00000KT 10SM CLR 26/23 A3001 230 81 1600 000/00 RMK AO2 T02610228 $
53843K79J 79J20160726021511007/26/16 02:15:31  5-MIN K79J 260715Z AUTO 10003KT 10SM CLR 26/23 A3000 240 81 1600 100/03 RMK AO2 T02610228 $
53843K79J 79J20160726022011007/26/16 02:20:31  5-MIN K79J 260720Z AUTO 00000KT 10SM CLR 26/23 A3000 240 84 1600 000/00 RMK AO2 T02560228 $
53843K79J 79J20160726022511007/26/16 02:25:31  5-MIN K79J 260725Z AUTO 00000KT 10SM CLR 26/23 A3000 240 84 1600 000/00 RMK AO2 T02560228 $
53843K79J 79J20160726023011007/26/16 02:30:31  5-MIN K79J 260730Z AUTO 09004KT 10SM CLR 26/23 A3000 240 84 1600 090/04 RMK AO2 T02560228 $
53843K79J 79J20160726023511007/26/16 02:35:31  5-MIN K79J 260735Z AUTO 10004KT 10SM CLR 26/23 A3000 240 84 1600 100/04 RMK AO2 T02560228 $
53843K79J 79J20160726024011007/26/16 02:40:31  5-MIN K79J 260740Z AUTO 10003KT 10SM CLR 26/23 A3000 240 84 1600 100/03 RMK AO2 T02560228 $
53843K79J 79J20160726024511007/26/16 02:45:31  5-MIN K79J 260745Z AUTO 10003KT 10SM CLR 26/23 A3000 240 84 1600 100/03 RMK AO2 T02560228 $
53843K79J 79J20160726025011707/26/16 02:50:31  5-MIN K79J 260750Z AUTO 00000KT 10SM CLR 26/23 A3000 240 84 1600 000/00 RMK AO2 SLP151 T02560228 $
53843K79J 79J20160726025511707/26/16 02:55:31  5-MIN K79J 260755Z AUTO 09004KT 10SM CLR 26/23 A3000 240 84 1600 090/04 RMK AO2 SLP151 T02560228 $
53843K79J 79J20160726030011007/26/16 03:00:31  5-MIN K79J 260800Z AUTO 10003KT 10SM CLR 26/23 A2999 240 84 1600 110/03 RMK AO2 T02560228 $
53843K79J 79J20160726030511007/26/16 03:05:31  5-MIN K79J 260805Z AUTO 11004KT 10SM CLR 26/23 A2999 250 84 1600 110/04 RMK AO2 T02560228 $
53843K79J 79J20160726031011007/26/16 03:10:31  5-MIN K79J 260810Z AUTO 11005KT 10SM CLR 26/23 A2999 250 84 1600 110/05 RMK AO2 T02560228 $
53843K79J 79J20160726031511007/26/16 03:15:31  5-MIN K79J 260815Z AUTO 11004KT 10SM CLR 26/23 A2999 250 81 1600 110/04 RMK AO2 T02610228 $
53843K79J 79J20160726032011007/26/16 03:20:31  5-MIN K79J 260820Z AUTO 11004KT 10SM CLR 26/23 A2998 250 84 1600 110/04 RMK AO2 T02560228 $
53843K79J 79J20160726032511007/26/16 03:25:31  5-MIN K79J 260825Z AUTO 11004KT 10SM CLR 26/23 A2998 250 84 1600 110/04 RMK AO2 T02560228 $
53843K79J 79J20160726033011007/26/16 03:30:31  5-MIN K79J 260830Z AUTO 10004KT 10SM CLR 26/23 A2999 250 84 1600 100/04 RMK AO2 T02560228 $
53843K79J 79J20160726033511007/26/16 03:35:31  5-MIN K79J 260835Z AUTO 09005KT 10SM CLR 26/23 A2999 250 84 1600 090/05 RMK AO2 T02560228 $
53843K79J 79J20160726034011007/26/16 03:40:31  5-MIN K79J 260840Z AUTO 10004KT 10SM CLR 26/23 A2999 250 84 1600 100/04 RMK AO2 T02560228 $
53843K79J 79J20160726034511007/26/16 03:45:31  5-MIN K79J 260845Z AUTO 10005KT 10SM CLR 26/23 A2999 250 84 1600 100/05 RMK AO2 T02560228 $
53843K79J 79J20160726035012307/26/16 03:50:31  5-MIN K79J 260850Z AUTO 10005KT 10SM CLR 26/23 A2999 250 84 1600 100/05 RMK AO2 SLP148 T02560228 58000 $
53843K79J 79J20160726035512307/26/16 03:55:31  5-MIN K79J 260855Z AUTO 10004KT 10SM CLR 26/23 A2999 250 84 1600 100/04 RMK AO2 SLP148 T02560228 58000 $
53843K79J 79J20160726040011007/26/16 04:00:31  5-MIN K79J 260900Z AUTO 11004KT 10SM CLR 26/23 A2998 250 84 1600 110/04 RMK AO2 T02560228 $
53843K79J 79J20160726040511007/26/16 04:05:31  5-MIN K79J 260905Z AUTO 11005KT 10SM CLR 26/23 A2998 250 84 1600 110/05 RMK AO2 T02560228 $
53843K79J 79J20160726041011007/26/16 04:10:31  5-MIN K79J 260910Z AUTO 11004KT 10SM CLR 26/23 A2999 250 84 1600 110/04 RMK AO2 T02560228 $
53843K79J 79J20160726041511007/26/16 04:15:31  5-MIN K79J 260915Z AUTO 11003KT 10SM CLR 26/23 A2999 250 84 1600 110/03 RMK AO2 T02560228 $
53843K79J 79J20160726042011007/26/16 04:20:31  5-MIN K79J 260920Z AUTO 09004KT 10SM CLR 26/23 A2999 250 84 1600 100/04 RMK AO2 T02560228 $
53843K79J 79J20160726042511007/26/16 04:25:31  5-MIN K79J 260925Z AUTO 10004KT 10SM CLR 26/23 A2999 250 84 1600 100/04 RMK AO2 T02560228 $
53843K79J 79J20160726043011007/26/16 04:30:31  5-MIN K79J 260930Z AUTO 09003KT 10SM CLR 26/23 A2999 250 84 1600 100/03 RMK AO2 T02560228 $
53843K79J 79J20160726043511007/26/16 04:35:31  5-MIN K79J 260935Z AUTO 09003KT 10SM CLR 26/23 A2999 250 84 1600 100/03 RMK AO2 T02560228 $
53843K79J 79J20160726044011007/26/16 04:40:31  5-MIN K79J 260940Z AUTO 09004KT 10SM CLR 26/23 A2999 250 84 1600 090/04 RMK AO2 T02560228 $
53843K79J 79J20160726044511007/26/16 04:45:31  5-MIN K79J 260945Z AUTO 08003KT 10SM CLR 26/23 A2999 250 84 1600 080/03 RMK AO2 T02560228 $
53843K79J 79J20160726045011707/26/16 04:50:31  5-MIN K79J 260950Z AUTO 08003KT 10SM CLR 26/23 A2999 250 84 1600 090/03 RMK AO2 SLP150 T02560228 $
53843K79J 79J20160726045511707/26/16 04:55:31  5-MIN K79J 260955Z AUTO 08003KT 10SM CLR 26/23 A2999 250 84 1600 080/03 RMK AO2 SLP150 T02560228 $
53843K79J 79J20160726050011007/26/16 05:00:31  5-MIN K79J 261000Z AUTO 09003KT 10SM CLR 26/23 A2999 250 84 1600 090/03 RMK AO2 T02560228 $
53843K79J 79J20160726050511007/26/16 05:05:31  5-MIN K79J 261005Z AUTO 07003KT 10SM CLR 26/23 A2999 240 84 1600 070/03 RMK AO2 T02560228 $
53843K79J 79J20160726051011307/26/16 05:10:31  5-MIN K79J 261010Z AUTO 00000KT 10SM FEW023 26/23 A3000 240 84 1600 000/00 RMK AO2 T02560228 $
53843K79J 79J20160726051511307/26/16 05:15:31  5-MIN K79J 261015Z AUTO 00000KT 10SM FEW023 26/23 A3000 240 84 1600 000/00 RMK AO2 T02560228 $
53843K79J 79J20160726052011307/26/16 05:20:31  5-MIN K79J 261020Z AUTO 00000KT 10SM FEW023 26/23 A3000 240 84 1600 000/00 RMK AO2 T02560228 $
53843K79J 79J20160726052511307/26/16 05:25:31  5-MIN K79J 261025Z AUTO 00000KT 10SM FEW023 26/23 A3000 240 84 1600 000/00 RMK AO2 T02560228 $
53843K79J 79J20160726053011307/26/16 05:30:31  5-MIN K79J 261030Z AUTO 08003KT 10SM FEW023 26/23 A3000 240 84 1600 080/03 RMK AO2 T02560228 $
53843K79J 79J20160726053511007/26/16 05:35:31  5-MIN K79J 261035Z AUTO 08003KT 10SM CLR 26/23 A3000 230 84 1500 080/03 RMK AO2 T02560228 $
53843K79J 79J20160726054011007/26/16 05:40:31  5-MIN K79J 261040Z AUTO 07004KT 10SM CLR 26/23 A3001 230 84 1500 080/04 RMK AO2 T02560228 $
53843K79J 79J20160726054511307/26/16 05:45:31  5-MIN K79J 261045Z AUTO 07003KT 10SM FEW024 26/23 A3001 230 84 1500 070/03 RMK AO2 T02560228 $
53843K79J 79J20160726055012007/26/16 05:50:31  5-MIN K79J 261050Z AUTO 08003KT 10SM FEW024 26/23 A3001 230 84 1500 080/03 RMK AO2 SLP156 T02560228 $
53843K79J 79J20160726055512007/26/16 05:55:31  5-MIN K79J 261055Z AUTO 09004KT 10SM FEW025 26/23 A3001 230 84 1500 090/04 RMK AO2 SLP157 T02560228 $
53843K79J 79J20160726060011307/26/16 06:00:31  5-MIN K79J 261100Z AUTO 08003KT 10SM FEW025 26/23 A3001 230 84 1500 080/03 RMK AO2 T02560228 $
53843K79J 79J20160726060511307/26/16 06:05:31  5-MIN K79J 261105Z AUTO 09004KT 10SM FEW025 26/23 A3001 230 84 1500 090/04 RMK AO2 T02560228 $
53843K79J 79J20160726061011307/26/16 06:10:31  5-MIN K79J 261110Z AUTO 09005KT 10SM FEW025 26/23 A3001 230 84 1500 090/05 RMK AO2 T02560228 $
53843K79J 79J20160726061511007/26/16 06:15:31  5-MIN K79J 261115Z AUTO 09004KT 10SM CLR 26/23 A3001 230 84 1500 100/04 RMK AO2 T02560228 $
53843K79J 79J20160726062011307/26/16 06:20:31  5-MIN K79J 261120Z AUTO 10004KT 10SM FEW049 26/23 A3001 230 84 1500 100/04 RMK AO2 T02560228 $
53843K79J 79J20160726062511307/26/16 06:25:31  5-MIN K79J 261125Z AUTO 10005KT 10SM SCT049 26/23 A3001 230 84 1500 100/05 RMK AO2 T02560228 $
53843K79J 79J20160726063011307/26/16 06:30:31  5-MIN K79J 261130Z AUTO 09005KT 10SM SCT049 26/23 A3001 230 84 1500 090/05 RMK AO2 T02560228 $
53843K79J 79J20160726063511307/26/16 06:35:31  5-MIN K79J 261135Z AUTO 10005KT 10SM BKN049 26/23 A3002 220 81 1600 100/05 RMK AO2 T02610228 $
53843K79J 79J20160726064011307/26/16 06:40:31  5-MIN K79J 261140Z AUTO 09006KT 10SM BKN049 26/23 A3002 220 81 1600 090/06 RMK AO2 T02610228 $
53843K79J 79J20160726064511307/26/16 06:45:31  5-MIN K79J 261145Z AUTO 10006KT 10SM BKN050 26/23 A3002 220 84 1600 100/06 RMK AO2 T02610233 $
53843K79J 79J20160726065013807/26/16 06:50:31  5-MIN K79J 261150Z AUTO 09007KT 10SM SCT050 26/23 A3002 220 84 1600 090/07 RMK AO2 SLP160 T02610233 10261 20256 58012 $
53843K79J 79J20160726065513807/26/16 06:55:31  5-MIN K79J 261155Z AUTO 08006KT 10SM SCT050 27/23 A3002 220 79 1700 090/06 RMK AO2 SLP160 T02670228 10267 20256 58012 $
53843K79J 79J20160726070011307/26/16 07:00:31  5-MIN K79J 261200Z AUTO 08006KT 10SM FEW050 27/23 A3002 220 79 1700 090/06 RMK AO2 T02670228 $
53843K79J 79J20160726070511307/26/16 07:05:31  5-MIN K79J 261205Z AUTO 09007KT 10SM FEW055 27/23 A3002 220 82 1700 090/07 RMK AO2 T02670233 $
53843K79J 79J20160726071011007/26/16 07:10:31  5-MIN K79J 261210Z AUTO 09007KT 10SM CLR 27/23 A3002 220 82 1700 090/07 RMK AO2 T02670233 $
53843K79J 79J20160726071511007/26/16 07:15:31  5-MIN K79J 261215Z AUTO 09007KT 10SM CLR 27/23 A3002 220 82 1700 090/07 RMK AO2 T02670233 $
53843K79J 79J20160726072011007/26/16 07:20:31  5-MIN K79J 261220Z AUTO 08008KT 10SM CLR 27/23 A3002 220 79 1700 080/08 RMK AO2 T02720233 $
53843K79J 79J20160726072511007/26/16 07:25:31  5-MIN K79J 261225Z AUTO 09008KT 10SM CLR 27/23 A3002 220 79 1700 090/08 RMK AO2 T02720233 $
53843K79J 79J20160726073011007/26/16 07:30:31  5-MIN K79J 261230Z AUTO 10005KT 10SM CLR 27/23 A3002 220 79 1700 100/05 RMK AO2 T02720233 $
53843K79J 79J20160726073511007/26/16 07:35:31  5-MIN K79J 261235Z AUTO 10007KT 10SM CLR 28/23 A3003 210 76 1800 100/07 RMK AO2 T02780233 $
53843K79J 79J20160726074011007/26/16 07:40:31  5-MIN K79J 261240Z AUTO 10006KT 10SM CLR 28/23 A3003 210 76 1800 100/06 RMK AO2 T02780233 $
53843K79J 79J20160726074511007/26/16 07:45:31  5-MIN K79J 261245Z AUTO 12006KT 10SM CLR 28/23 A3003 210 76 1800 120/06 RMK AO2 T02780233 $
53843K79J 79J20160726075011707/26/16 07:50:31  5-MIN K79J 261250Z AUTO 11005KT 10SM CLR 28/23 A3003 210 74 1800 110/05 RMK AO2 SLP163 T02830233 $
53843K79J 79J20160726075512007/26/16 07:55:31  5-MIN K79J 261255Z AUTO 12010KT 10SM FEW065 28/23 A3003 210 76 1800 120/10 RMK AO2 SLP164 T02780233 $
53843K79J 79J20160726080011307/26/16 08:00:31  5-MIN K79J 261300Z AUTO 11007KT 10SM SCT060 28/23 A3003 210 76 1800 110/07 RMK AO2 T02780233 $
53843K79J 79J20160726080511307/26/16 08:05:31  5-MIN K79J 261305Z AUTO 11006KT 10SM SCT060 28/23 A3003 210 76 1800 120/06 RMK AO2 T02780233 $
53843K79J 79J20160726081011307/26/16 08:10:31  5-MIN K79J 261310Z AUTO 12007KT 10SM FEW060 28/23 A3003 210 74 1800 120/07 RMK AO2 T02830233 $
53843K79J 79J20160726081511307/26/16 08:15:31  5-MIN K79J 261315Z AUTO 12006KT 10SM FEW060 28/23 A3003 210 74 1800 120/06 RMK AO2 T02830233 $
53843K79J 79J20160726082011307/26/16 08:20:31  5-MIN K79J 261320Z AUTO 11006KT 10SM FEW060 28/23 A3002 220 74 1800 120/06 RMK AO2 T02830233 $
53843K79J 79J20160726082511307/26/16 08:25:31  5-MIN K79J 261325Z AUTO 12007KT 10SM FEW060 29/23 A3003 220 71 1900 120/07 RMK AO2 T02890233 $
53843K79J 79J20160726083011007/26/16 08:30:31  5-MIN K79J 261330Z AUTO 12008KT 10SM CLR 29/24 A3003 220 71 2000 120/08 RMK AO2 T02940239 $
53843K79J 79J20160726083511007/26/16 08:35:31  5-MIN K79J 261335Z AUTO 11009KT 10SM CLR 29/23 A3002 220 69 2000 110/09 RMK AO2 T02940233 $
53843K79J 79J20160726084011007/26/16 08:40:31  5-MIN K79J 261340Z AUTO 12008KT 10SM CLR 30/24 A3002 220 69 2000 120/08 RMK AO2 T03000239 $
53843K79J 79J20160726084511007/26/16 08:45:31  5-MIN K79J 261345Z AUTO VRB06KT 10SM CLR 30/23 A3003 210 67 2000 VRB/06 RMK AO2 T03000233 $
53843K79J 79J20160726085011707/26/16 08:50:31  5-MIN K79J 261350Z AUTO 13007KT 10SM CLR 31/24 A3003 210 67 2100 130/07 RMK AO2 SLP163 T03060239 $
53843K79J 79J20160726085511707/26/16 08:55:31  5-MIN K79J 261355Z AUTO 10008KT 10SM CLR 31/23 A3003 210 65 2100 110/08 RMK AO2 SLP163 T03060233 $
53843K79J 79J20160726090011007/26/16 09:00:31  5-MIN K79J 261400Z AUTO 13008KT 10SM CLR 31/24 A3003 210 67 2100 130/08 RMK AO2 T03060239 $
53843K79J 79J20160726090511007/26/16 09:05:31  5-MIN K79J 261405Z AUTO VRB06KT 10SM CLR 31/24 A3003 210 65 2100 VRB/06 RMK AO2 T03110239 $
53843K79J 79J20160726091012607/26/16 09:10:31  5-MIN K79J 261410Z AUTO 14007KT 100V160 10SM CLR 31/24 A3003 210 65 2100 140/07 100V160 RMK AO2 T03110239 $
53843K79J 79J20160726091511307/26/16 09:15:31  5-MIN K79J 261415Z AUTO 12005KT 10SM FEW070 31/23 A3003 210 65 2100 120/05 RMK AO2 T03060233 $
53843K79J 79J20160726092012707/26/16 09:20:31  5-MIN K79J 261420Z AUTO VRB05KT 10SM FEW050 SCT065 SCT080 32/24 A3003 210 63 2200 VRB/05 RMK AO2 T03170239 $
53843K79J 79J20160726092514307/26/16 09:25:31  5-MIN K79J 261425Z AUTO 12007KT 100V160 10SM FEW050 SCT065 BKN080 32/24 A3003 210 63 2200 120/07 100V160 RMK AO2 T03170239 $
53843K79J 79J20160726093012707/26/16 09:30:31  5-MIN K79J 261430Z AUTO VRB05KT 10SM FEW024 SCT050 BKN080 31/24 A3003 210 65 2100 VRB/05 RMK AO2 T03110239 $
53843K79J 79J20160726093512707/26/16 09:35:31  5-MIN K79J 261435Z AUTO VRB05KT 10SM FEW024 SCT048 BKN065 31/24 A3003 210 67 2100 VRB/05 RMK AO2 T03060239 $
53843K79J 79J20160726094012707/26/16 09:40:31  5-MIN K79J 261440Z AUTO 14006KT 10SM SCT022 SCT034 BKN060 31/24 A3002 220 67 2100 150/06 RMK AO2 T03060239 $
53843K79J 79J20160726094512507/26/16 09:45:31  5-MIN K79J 261445Z AUTO 17006KT 10SM SCT022 BKN036 OVC080 31/24 A3002 220 67 2100 170/06 RMK AO2 T03060239
53843K79J 79J20160726095013007/26/16 09:50:31  5-MIN K79J 261450Z AUTO 17004KT 8SM -RA BKN022 BKN032 OVC080 30/24 A3002 220 72 2000 170/04 RMK AO2 RAB47 P0000
53843K79J 79J20160726095515907/26/16 09:55:31  5-MIN K79J 261455Z AUTO 16004KT 8SM -RA SCT022 BKN027 BKN037 30/24 A3002 220 72 2000 160/04 RMK AO2 RAB47 SLP161 P0000 60000 T03000244 50000
53843K79J 79J20160726100013907/26/16 10:00:31  5-MIN K79J 261500Z AUTO 16003KT 10SM SCT022 BKN036 BKN046 30/24 A3002 220 72 2000 160/03 RMK AO2 RAE1458 P0000 T03000244
53843K79J 79J20160726100513507/26/16 10:05:31  5-MIN K79J 261505Z AUTO VRB03KT 10SM -RA SCT022 BKN028 OVC047 29/24 A3003 210 74 2000 VRB/03 RMK AO2 P0000 T02940244
53843K79J 79J20160726101013507/26/16 10:10:31  5-MIN K79J 261510Z AUTO 00000KT 10SM -RA SCT022 BKN028 OVC065 29/25 A3002 220 76 2000 000/00 RMK AO2 P0000 T02940250
53843K79J 79J20160726101513507/26/16 10:15:31  5-MIN K79J 261515Z AUTO VRB04KT 10SM -RA FEW021 BKN037 OVC065 29/25 A3002 220 76 2000 VRB/04 RMK AO2 P0000 T02940250
53843K79J 79J20160726102013707/26/16 10:20:31  5-MIN K79J 261520Z AUTO 00000KT 10SM SCT021 BKN038 OVC065 30/25 A3002 220 74 2000 000/00 RMK AO2 RAE16 P0000 T03000250
53843K79J 79J20160726102514407/26/16 10:25:31  5-MIN K79J 261525Z AUTO 18003KT 10SM -RA SCT021 BKN028 OVC048 31/25 A3002 220 72 2100 190/03 RMK AO2 RAE16B25 P0000 T03060250
53843K79J 79J20160726103014407/26/16 10:30:31  5-MIN K79J 261530Z AUTO VRB04KT 10SM -RA SCT022 BKN028 OVC060 32/25 A3002 220 67 2200 VRB/04 RMK AO2 RAE16B25 P0000 T03170250
53843K79J 79J20160726103515907/26/16 10:35:31  5-MIN K79J 261535Z AUTO 12007KT 080V170 10SM BKN025 BKN035 OVC060 32/24 A3002 220 65 2200 120/07 080V170 RMK AO2 RAE16B25E35 P0000 T03170244
53843K79J 79J20160726104014307/26/16 10:40:31  5-MIN K79J 261540Z AUTO VRB04KT 10SM BKN025 BKN035 BKN060 33/24 A3002 220 61 2300 VRB/04 RMK AO2 RAE16B25E35 P0000 T03280244
53843K79J 79J20160726104514307/26/16 10:45:31  5-MIN K79J 261545Z AUTO 16006KT 10SM BKN025 BKN037 BKN047 32/24 A3003 210 61 2300 160/06 RMK AO2 RAE16B25E35 P0000 T03220239
53843K79J 79J20160726105015007/26/16 10:50:31  5-MIN K79J 261550Z AUTO 17006KT 10SM BKN025 BKN030 BKN036 32/24 A3002 220 61 2300 170/06 RMK AO2 RAE16B25E35 SLP162 P0000 T03220239
53843K79J 79J20160726105515507/26/16 10:55:31  5-MIN K79J 261555Z AUTO VRB06KT 10SM TS BKN027 BKN034 33/24 A3002 220 59 2300 VRB/06 RMK AO2 RAE16B25E35 TSB51B53 SLP160 P0000 T03280239
53843K79J 79J20160726110013707/26/16 11:00:31  5-MIN K79J 261600Z AUTO 16007KT 140V200 10SM TS BKN027 BKN034 32/23 A3002 220 59 2300 160/07 140V200 RMK AO2 T03220233
53843K79J 79J20160726110512107/26/16 11:05:31  5-MIN K79J 261605Z AUTO 17007KT 10SM TS BKN027 BKN038 32/23 A3002 220 61 2200 180/07 RMK AO2 T03170233
53843K79J 79J20160726111013407/26/16 11:10:31  5-MIN K79J 261610Z AUTO 18009G17KT 10SM TS SCT025 BKN030 OVC046 31/23 A3003 210 63 2100 180/09G17 RMK AO2 T03110233
53843K79J 79J20160726111513307/26/16 11:15:31  5-MIN K79J 261615Z AUTO 18008G19KT 9SM TS FEW023 BKN028 OVC055 30/23 A3003 210 67 2000 180/08G19 RMK AO2 T03000233
53843K79J 79J20160726112017007/26/16 11:20:31  5-MIN K79J 261620Z AUTO 16007G19KT 120V190 9SM -TSRA SCT027 BKN039 OVC055 28/23 A3003 210 71 1800 160/07G19 120V190 RMK AO2 RAB16 TSB16 P0001 T02830228
53843K79J 79J20160726112516907/26/16 11:25:31  5-MIN K79J 261625Z AUTO 15008G15KT 110V170 5SM TSRA SCT027 BKN050 OVC060 27/23 A3004 200 76 1700 150/08G15 110V170 RMK AO2 RAB16 TSB16 P0003 T02720228
53843K79J 79J20160726113015207/26/16 11:30:31  5-MIN K79J 261630Z AUTO 15006KT 2 1/2SM +TSRA FEW024 BKN050 OVC070 27/23 A3004 210 82 1600 160/06 RMK AO2 RAB16 TSB16 P0006 T02670233
53843K79J 79J20160726113514807/26/16 11:35:31  5-MIN K79J 261635Z AUTO VRB04KT 3SM +TSRA FEW030 BKN050 OVC100 27/23 A3003 210 82 1600 VRB/04 RMK AO2 RAB16 TSB16 P0007 T02670233
53843K79J 79J20160726114014807/26/16 11:40:31  5-MIN K79J 261640Z AUTO 13003KT 6SM -TSRA FEW037 BKN050 OVC100 27/23 A3003 210 82 1600 130/03 RMK AO2 RAB16 TSB16 P0007 T02670233
53843K79J 79J20160726114515507/26/16 11:45:31  5-MIN K79J 261645Z AUTO 14003KT 10SM VCTS -RA BKN050 BKN080 OVC110 27/24 A3003 220 84 1700 140/03 RMK AO2 RAB16 TSB16E45 P0007 T02670239
53843K79J 79J20160726115014407/26/16 11:50:31  5-MIN K79J 261650Z AUTO 00000KT 10SM VCTS SCT050 SCT070 BKN090 27/24 A3002 220 82 1700 000/00 RMK AO2 RAB16E50 TSB16E45 P0007
53843K79J 79J20160726115516307/26/16 11:55:31  5-MIN K79J 261655Z AUTO VRB05KT 10SM FEW050 SCT080 SCT100 28/24 A3001 230 82 1800 VRB/05 RMK AO2 RAB16E50 TSB16E45 PRESFR SLP157 P0007 T02780244
53843K79J 79J20160726120014107/26/16 12:00:31  5-MIN K79J 261700Z AUTO 15007KT 120V180 10SM FEW050 FEW095 SCT110 28/24 A3001 230 76 1900 150/07 120V180 RMK AO2 T02830239
53843K79J 79J20160726120511807/26/16 12:05:31  5-MIN K79J 261705Z AUTO 15006KT 10SM FEW044 FEW090 28/24 A3002 220 76 1800 160/06 RMK AO2 T02830239
53843K79J 79J20160726121013407/26/16 12:10:31  5-MIN K79J 261710Z AUTO VRB06KT 9SM -TSRA SCT034 28/24 A3003 210 79 1800 VRB/06 RMK AO2 RAB10 TSB10 P0000 T02830244
53843K79J 79J20160726121514807/26/16 12:15:31  5-MIN K79J 261715Z AUTO 14007KT 9SM -TSRA SCT034 SCT080 SCT090 28/24 A3003 210 79 1800 150/07 RMK AO2 RAB10 TSB10 P0000 T02830244
53843K79J 79J20160726122014907/26/16 12:20:31  5-MIN K79J 261720Z AUTO 15006KT 10SM -TSRA SCT034 SCT080 BKN090 28/24 A3003 210 79 1800 150/06 RMK AO2 RAB10 TSB10 P0000 T02780239
53843K79J 79J20160726122514907/26/16 12:25:31  5-MIN K79J 261725Z AUTO 14005KT 10SM TS FEW034 SCT085 BKN110 28/24 A3004 210 76 1800 140/05 RMK AO2 RAB10E23 TSB10 P0000 T02830239
53843K79J 79J20160726123014907/26/16 12:30:31  5-MIN K79J 261730Z AUTO VRB05KT 10SM FEW034 BKN090 BKN110 28/24 A3004 200 76 1800 VRB/05 RMK AO2 RAB10E23 TSB10E26 P0000 T02830239
53843K79J 79J20160726123514907/26/16 12:35:31  5-MIN K79J 261735Z AUTO VRB03KT 10SM FEW034 BKN090 OVC110 28/24 A3003 210 76 1800 VRB/03 RMK AO2 RAB10E23 TSB10E26 P0000 T02830239
53843K79J 79J20160726124014907/26/16 12:40:31  5-MIN K79J 261740Z AUTO 17004KT 10SM FEW037 BKN090 OVC110 28/24 A3003 210 76 1800 170/04 RMK AO2 RAB10E23 TSB10E26 P0000 T02830239
53843K79J 79J20160726124514907/26/16 12:45:31  5-MIN K79J 261745Z AUTO 16003KT 10SM FEW080 BKN090 OVC110 28/24 A3003 210 76 1800 160/03 RMK AO2 RAB10E23 TSB10E26 P0000 T02830239
53843K79J 79J20160726125016607/26/16 12:50:31  5-MIN K79J 261750Z AUTO VRB03KT 10SM BKN090 28/24 A3003 210 79 1800 VRB/03 RMK AO2 RAB10E23 TSB10E26 SLP163 P0000 60007 T02830244 10328 20267 55002
53843K79J 79J20160726125516607/26/16 12:55:31  5-MIN K79J 261755Z AUTO VRB03KT 10SM BKN090 29/24 A3003 210 76 1900 VRB/03 RMK AO2 RAB10E23 TSB10E26 SLP163 P0000 60007 T02890244 10328 20267 55002
53843K79J 79J20160726130011107/26/16 13:00:31  5-MIN K79J 261800Z AUTO VRB04KT 10SM BKN100 29/24 A3003 210 76 1900 VRB/04 RMK AO2 T02890244
53843K79J 79J20160726130511807/26/16 13:05:31  5-MIN K79J 261805Z AUTO 12004KT 10SM BKN090 BKN110 29/24 A3003 210 76 1900 120/04 RMK AO2 T02890244
53843K79J 79J20160726131011807/26/16 13:10:31  5-MIN K79J 261810Z AUTO 00000KT 10SM BKN085 BKN110 29/24 A3002 220 74 2000 000/00 RMK AO2 T02940244
53843K79J 79J20160726131512507/26/16 13:15:31  5-MIN K79J 261815Z AUTO 00000KT 10SM FEW019 SCT090 BKN110 31/25 A3002 220 72 2100 000/00 RMK AO2 T03060250
53843K79J 79J20160726132012507/26/16 13:20:31  5-MIN K79J 261820Z AUTO 14003KT 10SM FEW016 SCT080 BKN110 31/24 A3001 230 67 2200 140/03 RMK AO2 T03110244
53843K79J 79J20160726132512507/26/16 13:25:31  5-MIN K79J 261825Z AUTO VRB05KT 10SM SCT016 SCT025 BKN080 31/24 A3001 230 67 2200 VRB/05 RMK AO2 T03110244
53843K79J 79J20160726133013207/26/16 13:30:31  5-MIN K79J 261830Z AUTO 15006KT 10SM FEW016 SCT024 BKN080 32/24 A3000 240 65 2200 150/06 RMK AO2 PRESFR T03170244
53843K79J 79J20160726133514107/26/16 13:35:31  5-MIN K79J 261835Z AUTO 14008KT 100V170 10SM FEW016 SCT024 SCT085 32/24 A3000 240 65 2200 140/08 100V170 RMK AO2 T03170244
53843K79J 79J20160726134011807/26/16 13:40:31  5-MIN K79J 261840Z AUTO 15008KT 10SM FEW015 SCT024 32/24 A3001 230 63 2200 150/08 RMK AO2 T03170239
53843K79J 79J20160726134513107/26/16 13:45:31  5-MIN K79J 261845Z AUTO 15008G15KT 10SM FEW015 FEW021 SCT026 32/24 A3001 230 63 2200 160/08G15 RMK AO2 T03170239
53843K79J 79J20160726135012407/26/16 13:50:31  5-MIN K79J 261850Z AUTO 17008G16KT 10SM SCT023 32/24 A3001 230 63 2200 170/08G16 RMK AO2 SLP155 T03170239
53843K79J 79J20160726135514007/26/16 13:55:31  5-MIN K79J 261855Z AUTO 17007G16KT 140V200 10SM FEW023 32/23 A3001 230 61 2200 170/07G16 140V200 RMK AO2 SLP156 T03170233
53843K79J 79J20160726140011107/26/16 14:00:31  5-MIN K79J 261900Z AUTO 14008KT 10SM FEW023 32/23 A3000 240 61 2200 140/08 RMK AO2 T03170233
53843K79J 79J20160726140511107/26/16 14:05:31  5-MIN K79J 261905Z AUTO VRB05KT 10SM FEW021 32/24 A3000 240 61 2300 VRB/05 RMK AO2 T03220239
53843K79J 79J20160726141010107/26/16 14:10:31  5-MIN K79J 261910Z AUTO 10SM FEW021 33/24 A3000 240 59 2400 M /M RMK AO2 T03280239
53843K79J 79J20160726141511407/26/16 14:15:31  5-MIN K79J 261915Z AUTO VRB05G15KT 10SM CLR 32/23 A3000 240 59 2300 VRB/05G15 RMK AO2 T03220233
53843K79J 79J20160726142013007/26/16 14:20:31  5-MIN K79J 261920Z AUTO 14007G15KT 110V170 10SM CLR 32/24 A2999 250 61 2300 140/07G15 110V170 RMK AO2 T03220239
53843K79J 79J20160726142513307/26/16 14:25:31  5-MIN K79J 261925Z AUTO 14008G14KT 100V170 10SM FEW110 32/24 A2999 250 61 2300 150/08G14 100V170 RMK AO2 T03220239
53843K79J 79J20160726143011107/26/16 14:30:31  5-MIN K79J 261930Z AUTO VRB06KT 10SM FEW110 32/23 A2999 250 59 2300 VRB/06 RMK AO2 T03220233
53843K79J 79J20160726143511107/26/16 14:35:31  5-MIN K79J 261935Z AUTO 13006KT 10SM SCT110 32/24 A2999 250 61 2300 130/06 RMK AO2 T03220239
53843K79J 79J20160726144011707/26/16 14:40:31  5-MIN K79J 261940Z AUTO 15010G17KT 10SM SCT110 33/24 A2999 250 59 2400 150/10G17 RMK AO2 T03280239
53843K79J 79J20160726144512407/26/16 14:45:31  5-MIN K79J 261945Z AUTO VRB05G17KT 10SM FEW027 SCT110 33/24 A2998 250 59 2400 VRB/05G17 RMK AO2 T03280239
53843K79J 79J20160726145014707/26/16 14:50:31  5-MIN K79J 261950Z AUTO 14008G15KT 110V170 10SM FEW027 SCT110 33/24 A2999 250 57 2400 140/08G15 110V170 RMK AO2 SLP149 T03330239
53843K79J 79J20160726145513407/26/16 14:55:31  5-MIN K79J 261955Z AUTO 14008KT 110V170 10SM FEW110 33/23 A2999 250 55 2400 140/08 110V170 RMK AO2 SLP149 T03330233
53843K79J 79J20160726150012407/26/16 15:00:31  5-MIN K79J 262000Z AUTO 13010G14KT 10SM FEW027 SCT110 33/24 A2999 250 59 2400 130/10G14 RMK AO2 T03280239
53843K79J 79J20160726150511707/26/16 15:05:31  5-MIN K79J 262005Z AUTO 15011G17KT 10SM FEW027 33/24 A2999 250 59 2400 150/11G17 RMK AO2 T03280239
53843K79J 79J20160726151011707/26/16 15:10:31  5-MIN K79J 262010Z AUTO 14009G17KT 10SM FEW026 32/23 A2999 250 59 2300 140/09G17 RMK AO2 T03220233
53843K79J 79J20160726151512407/26/16 15:15:31  5-MIN K79J 262015Z AUTO 18011G17KT 10SM FEW026 SCT060 33/24 A2999 250 59 2400 180/11G17 RMK AO2 T03280239
53843K79J 79J20160726152014707/26/16 15:20:31  5-MIN K79J 262020Z AUTO 14007G16KT 110V180 10SM FEW024 SCT030 SCT060 32/24 A2999 250 63 2300 140/07G16 110V180 RMK AO2 T03170239
53843K79J 79J20160726152514007/26/16 15:25:31  5-MIN K79J 262025Z AUTO 14007G14KT 110V180 10SM SCT024 SCT030 32/24 A2999 250 63 2300 140/07G14 110V180 RMK AO2 T03170239
53843K79J 79J20160726153012407/26/16 15:30:31  5-MIN K79J 262030Z AUTO 16007G14KT 10SM SCT024 SCT055 32/24 A2999 250 63 2300 160/07G14 RMK AO2 T03170239
53843K79J 79J20160726153511807/26/16 15:35:31  5-MIN K79J 262035Z AUTO VRB06KT 10SM FEW024 SCT055 32/24 A2999 250 63 2300 VRB/06 RMK AO2 T03220244
53843K79J 79J20160726154012707/26/16 15:40:31  5-MIN K79J 262040Z AUTO 13009KT 10SM TS FEW024 SCT055 32/24 A2999 250 63 2300 130/09 RMK AO2 TSB37 T03220244
53843K79J 79J20160726154512707/26/16 15:45:31  5-MIN K79J 262045Z AUTO 15005KT 10SM TS FEW024 SCT030 32/24 A2999 250 61 2300 150/05 RMK AO2 TSB37 T03220239
53843K79J 79J20160726155014707/26/16 15:50:31  5-MIN K79J 262050Z AUTO 15009KT 10SM TS FEW024 SCT030 BKN060 32/23 A2999 250 59 2300 150/09 RMK AO2 TSB37 SLP151 T03220233 53003
53843K79J 79J20160726155514607/26/16 15:55:31  5-MIN K79J 262055Z AUTO 15008G15KT 10SM TS FEW028 BKN060 31/23 A2999 250 60 2200 150/08G15 RMK AO2 TSB37 SLP151 T03110228 53003
53843K79J 79J20160726160012707/26/16 16:00:31  5-MIN K79J 262100Z AUTO 14007KT 10SM TS FEW028 BKN060 31/23 A2999 250 62 2100 150/07 RMK AO2 TSB00 T03060228
53843K79J 79J20160726160513407/26/16 16:05:31  5-MIN K79J 262105Z AUTO VRB06KT 10SM TS FEW028 BKN060 BKN075 31/23 A2999 240 65 2100 VRB/06 RMK AO2 TSB00 T03060233
53843K79J 79J20160726161013407/26/16 16:10:31  5-MIN K79J 262110Z AUTO VRB06KT 10SM TS FEW029 BKN060 OVC075 31/23 A2999 250 65 2100 VRB/06 RMK AO2 TSB00 T03060233
53843K79J 79J20160726161512707/26/16 16:15:31  5-MIN K79J 262115Z AUTO VRB05KT 10SM BKN060 OVC075 31/23 A2999 250 65 2100 VRB/05 RMK AO2 TSB00E15 T03060233
53843K79J 79J20160726162012707/26/16 16:20:31  5-MIN K79J 262120Z AUTO VRB04KT 10SM BKN070 OVC080 31/23 A2999 250 65 2100 VRB/04 RMK AO2 TSB00E15 T03060233
53843K79J 79J20160726162512707/26/16 16:25:31  5-MIN K79J 262125Z AUTO VRB04KT 10SM BKN070 OVC080 31/23 A2999 250 63 2200 VRB/04 RMK AO2 TSB00E15 T03110233
53843K79J 79J20160726163012707/26/16 16:30:31  5-MIN K79J 262130Z AUTO 16004KT 10SM BKN075 OVC090 31/23 A2999 250 63 2200 160/04 RMK AO2 TSB00E15 T03110233
53843K79J 79J20160726163512707/26/16 16:35:31  5-MIN K79J 262135Z AUTO 15005KT 10SM BKN075 BKN085 31/23 A2999 250 63 2200 150/05 RMK AO2 TSB00E15 T03110233
53843K79J 79J20160726164012007/26/16 16:40:31  5-MIN K79J 262140Z AUTO 16003KT 10SM SCT080 31/24 A2999 250 65 2200 160/03 RMK AO2 TSB00E15 T03110239
53843K79J 79J20160726164512707/26/16 16:45:31  5-MIN K79J 262145Z AUTO VRB03KT 10SM FEW028 SCT080 31/24 A2999 250 65 2200 VRB/03 RMK AO2 TSB00E15 T03110239
53843K79J 79J20160726165014107/26/16 16:50:31  5-MIN K79J 262150Z AUTO 16005KT 10SM FEW027 FEW032 SCT080 32/24 A2998 250 63 2300 160/05 RMK AO2 TSB00E15 SLP148 T03170239
53843K79J 79J20160726165513407/26/16 16:55:31  5-MIN K79J 262155Z AUTO VRB03KT 10SM SCT029 BKN085 32/24 A2998 260 63 2300 VRB/03 RMK AO2 TSB00E15 SLP147 T03170239
53843K79J 79J20160726170012507/26/16 17:00:31  5-MIN K79J 262200Z AUTO VRB04KT 10SM FEW024 SCT029 BKN038 32/24 A2998 260 63 2300 VRB/04 RMK AO2 T03170239
53843K79J 79J20160726170512507/26/16 17:05:31  5-MIN K79J 262205Z AUTO 16006KT 10SM FEW024 SCT029 BKN037 31/24 A2998 260 65 2200 170/06 RMK AO2 T03110239
53843K79J 79J20160726171012407/26/16 17:10:31  5-MIN K79J 262210Z AUTO 18006KT 7SM BKN029 BKN036 BKN044 31/24 A2998 250 65 2200 190/06 RMK AO2 T03110239
53843K79J 79J20160726171514507/26/16 17:15:31  5-MIN K79J 262215Z AUTO 22007G16KT 6SM RA SCT024 BKN034 OVC060 30/24 A2998 250 69 2100 230/07G16 RMK AO2 RAB11 P0001 T03000239
53843K79J 79J20160726172014607/26/16 17:20:31  5-MIN K79J 262220Z AUTO 21005G16KT 7SM -RA SCT024 BKN031 OVC060 29/24 A2998 260 76 2000 220/05G16 RMK AO2 RAB11 P0001 T02890244
53843K79J 79J20160726172514107/26/16 17:25:31  5-MIN K79J 262225Z AUTO 19003KT 10SM -RA FEW025 SCT030 BKN038 29/24 A2998 260 74 2000 200/03 RMK AO2 RAB11 P0002 T02940244
53843K79J 79J20160726173014007/26/16 17:30:31  5-MIN K79J 262230Z AUTO VRB03KT 10SM FEW025 SCT036 BKN045 31/24 A2998 260 69 2100 VRB/03 RMK AO2 RAB11E28 P0002 T03060244
53843K79J 79J20160726173514007/26/16 17:35:31  5-MIN K79J 262235Z AUTO 00000KT 10SM FEW025 SCT029 BKN045 31/24 A2997 260 67 2200 000/00 RMK AO2 RAB11E28 P0002 T03110244
53843K79J 79J20160726174013007/26/16 17:40:31  5-MIN K79J 262240Z AUTO 10SM FEW023 BKN028 BKN038 31/24 A2997 260 65 2200 M /M RMK AO2 RAB11E28 P0002 T03110239
53843K79J 79J20160726174514607/26/16 17:45:31  5-MIN K79J 262245Z AUTO 15007G17KT 9SM -RA SCT026 BKN032 BKN044 30/23 A2998 260 65 2100 160/07G17 RMK AO2 RAB11 P0002 T03000228
53843K79J 79J20160726175015407/26/16 17:50:31  5-MIN K79J 262250Z AUTO VRB05G17KT 10SM -RA SCT026 BKN032 BKN043 29/23 A2998 260 69 2000 VRB/05G17 RMK AO2 RAB11 SLP146 P0002 T02890228
53843K79J 79J20160726175514807/26/16 17:55:31  5-MIN K79J 262255Z AUTO 14006KT 10SM -RA SCT026 BKN033 BKN043 29/23 A2998 260 69 2000 140/06 RMK AO2 RAB11 SLP147 P0002 T02890228
53843K79J 79J20160726180014307/26/16 18:00:31  5-MIN K79J 262300Z AUTO VRB03KT 10SM -RA BKN028 BKN045 OVC055 29/23 A2998 250 71 1900 VRB/03 RMK AO2 RAB2259 P0000 T02890233
53843K79J 79J20160726180514307/26/16 18:05:31  5-MIN K79J 262305Z AUTO VRB03KT 10SM -RA FEW024 BKN030 OVC100 29/23 A2998 250 71 1900 VRB/03 RMK AO2 RAB2259 P0000 T02890233
53843K79J 79J20160726181014207/26/16 18:10:31  5-MIN K79J 262310Z AUTO VRB03KT 10SM SCT028 BKN055 OVC100 29/24 A2999 250 74 1900 VRB/03 RMK AO2 RAB2259E09 P0000 T02890239
53843K79J 79J20160726181514207/26/16 18:15:31  5-MIN K79J 262315Z AUTO 00000KT 10SM FEW026 SCT050 OVC100 29/24 A2999 250 74 1900 000/00 RMK AO2 RAB2259E09 P0000 T02890239
53843K79J 79J20160726182014507/26/16 18:20:31  5-MIN K79J 262320Z AUTO 00000KT 10SM TS FEW023 SCT033 OVC100 29/24 A3000 240 71 2000 000/00 RMK AO2 RAB2259E09 P0000 T02940239
53843K79J 79J20160726182515107/26/16 18:25:31  5-MIN K79J 262325Z AUTO 00000KT 10SM TS FEW021 SCT032 OVC100 29/24 A3000 240 74 2000 000/00 RMK AO2 RAB2259E09 TSB23 P0000 T02940244
53843K79J 79J20160726183015107/26/16 18:30:31  5-MIN K79J 262330Z AUTO 10004KT 10SM TS FEW021 BKN032 OVC100 29/24 A3000 240 74 2000 100/04 RMK AO2 RAB2259E09 TSB23 P0000 T02940244
53843K79J 79J20160726183515107/26/16 18:35:31  5-MIN K79J 262335Z AUTO 12003KT 10SM TS FEW021 BKN030 OVC100 29/24 A3000 240 76 1900 120/03 RMK AO2 RAB2259E09 TSB23 P0000 T02890244
53843K79J 79J20160726184015107/26/16 18:40:31  5-MIN K79J 262340Z AUTO 10004KT 10SM TS FEW021 BKN028 OVC100 29/24 A3000 240 76 1900 110/04 RMK AO2 RAB2259E09 TSB23 P0000 T02890244
53843K79J 79J20160726184515107/26/16 18:45:31  5-MIN K79J 262345Z AUTO 12003KT 10SM SCT021 BKN030 OVC100 29/24 A3000 240 76 1900 120/03 RMK AO2 RAB2259E09 TSB23E44 P0000 T02890244
53843K79J 79J20160726185014107/26/16 18:50:31  5-MIN K79J 262350Z AUTO 00000KT 10SM FEW021 BKN030 OVC095 28/24 A3000 240 79 1900 000/00 RMK AO2 RAB2259E09 TSB23E44 P0000
53843K79J 79J20160726185518207/26/16 18:55:31  5-MIN K79J 262355Z AUTO 00000KT 10SM SCT025 BKN030 OVC095 28/24 A3000 240 79 1900 000/00 RMK AO2 RAB2259E09 TSB23E44 SLP155 P0000 60002 T02830244 10333 20283 55012
53843K79J 79J20160726190012507/26/16 19:00:31  5-MIN K79J 270000Z AUTO 00000KT 10SM FEW022 BKN027 OVC050 28/24 A3001 230 79 1900 000/00 RMK AO2 T02830244
53843K79J 79J20160726190512507/26/16 19:05:31  5-MIN K79J 270005Z AUTO 00000KT 10SM BKN024 BKN040 BKN095 29/24 A3000 240 76 1900 000/00 RMK AO2 T02890244
53843K79J 79J20160726191012507/26/16 19:10:31  5-MIN K79J 270010Z AUTO 00000KT 10SM BKN024 BKN044 OVC095 28/24 A3001 230 79 1900 000/00 RMK AO2 T02830244
53843K79J 79J20160726191512507/26/16 19:15:31  5-MIN K79J 270015Z AUTO 00000KT 10SM BKN024 BKN046 OVC095 28/24 A3001 230 79 1900 000/00 RMK AO2 T02830244
53843K79J 79J20160726192011807/26/16 19:20:31  5-MIN K79J 270020Z AUTO VRB04KT 10SM BKN024 BKN065 28/24 A3001 230 76 1900 VRB/04 RMK AO2 T02830239
53843K79J 79J20160726192512507/26/16 19:25:31  5-MIN K79J 270025Z AUTO VRB03KT 10SM SCT022 BKN027 BKN065 28/24 A3001 230 76 1900 VRB/03 RMK AO2 T02830239
53843K79J 79J20160726193012507/26/16 19:30:31  5-MIN K79J 270030Z AUTO 14004KT 10SM FEW022 BKN027 OVC100 28/24 A3001 230 76 1900 140/04 RMK AO2 T02830239
53843K79J 79J20160726193512507/26/16 19:35:31  5-MIN K79J 270035Z AUTO 16004KT 10SM SCT026 BKN070 OVC100 28/23 A3001 230 74 1900 160/04 RMK AO2 T02830233
53843K79J 79J20160726194012507/26/16 19:40:31  5-MIN K79J 270040Z AUTO 15003KT 10SM SCT026 BKN070 OVC095 28/23 A3001 230 74 1900 150/03 RMK AO2 T02830233
53843K79J 79J20160726194512507/26/16 19:45:31  5-MIN K79J 270045Z AUTO 15003KT 10SM FEW026 BKN075 OVC100 28/23 A3001 230 76 1800 150/03 RMK AO2 T02780233
53843K79J 79J20160726195013207/26/16 19:50:31  5-MIN K79J 270050Z AUTO 14003KT 10SM FEW027 BKN075 OVC100 28/23 A3001 230 76 1800 140/03 RMK AO2 SLP157 T02780233
53843K79J 79J20160726195512507/26/16 19:55:31  5-MIN K79J 270055Z AUTO 17003KT 10SM BKN070 BKN085 28/24 A3001 230 79 1800 170/03 RMK AO2 SLP158 T02780239
53843K79J 79J20160726200012507/26/16 20:00:31  5-MIN K79J 270100Z AUTO 00000KT 10SM FEW026 SCT036 BKN070 28/24 A3001 230 79 1800 000/00 RMK AO2 T02780239
53843K79J 79J20160726200512507/26/16 20:05:31  5-MIN K79J 270105Z AUTO VRB03KT 10SM FEW022 SCT028 OVC075 28/24 A3001 230 79 1800 VRB/03 RMK AO2 T02780239
53843K79J 79J20160726201014107/26/16 20:10:31  5-MIN K79J 270110Z AUTO VRB04KT 10SM -RA FEW024 BKN038 OVC075 28/24 A3002 220 79 1800 VRB/04 RMK AO2 RAB06 P0000 T02780239
53843K79J 79J20160726201514007/26/16 20:15:31  5-MIN K79J 270115Z AUTO 20006KT 8SM -RA FEW024 BKN047 OVC075 28/24 A3001 220 79 1800 200/06 RMK AO2 RAB06 P0000 T02780239
53843K79J 79J20160726202014007/26/16 20:20:31  5-MIN K79J 270120Z AUTO VRB03KT 8SM -RA FEW022 SCT027 OVC047 27/24 A3002 220 82 1700 VRB/03 RMK AO2 RAB06 P0000 T02720239
53843K79J 79J20160726202514007/26/16 20:25:31  5-MIN K79J 270125Z AUTO 20004KT 10SM SCT027 BKN038 OVC049 27/24 A3002 220 82 1700 200/04 RMK AO2 RAB06E24 P0000 T02720239
53843K79J 79J20160726203014007/26/16 20:30:31  5-MIN K79J 270130Z AUTO 19003KT 10SM SCT029 BKN045 OVC075 27/24 A3001 220 82 1700 190/03 RMK AO2 RAB06E24 P0000 T02720239
53843K79J 79J20160726203514007/26/16 20:35:31  5-MIN K79J 270135Z AUTO 00000KT 10SM FEW029 SCT045 BKN050 27/24 A3002 220 82 1700 000/00 RMK AO2 RAB06E24 P0000 T02720239
53843K79J 79J20160726204014007/26/16 20:40:31  5-MIN K79J 270140Z AUTO 00000KT 10SM FEW027 SCT048 BKN075 27/24 A3002 220 82 1700 000/00 RMK AO2 RAB06E24 P0000 T02720239
53843K79J 79J20160726204514007/26/16 20:45:31  5-MIN K79J 270145Z AUTO 00000KT 10SM FEW029 SCT050 SCT075 27/24 A3002 220 82 1700 000/00 RMK AO2 RAB06E24 P0000 T02720239
53843K79J 79J20160726205014707/26/16 20:50:31  5-MIN K79J 270150Z AUTO 00000KT 10SM FEW029 SCT055 BKN075 27/24 A3002 220 82 1700 000/00 RMK AO2 RAB06E24 SLP160 P0000 T02720239
53843K79J 79J20160726205514707/26/16 20:55:31  5-MIN K79J 270155Z AUTO 00000KT 10SM FEW047 SCT055 BKN075 27/24 A3002 220 82 1700 000/00 RMK AO2 RAB06E24 SLP160 P0000 T02720239
53843K79J 79J20160726210014307/26/16 21:00:31  5-MIN K79J 270200Z AUTO 13003KT 10SM -RA FEW026 SCT045 BKN050 27/24 A3002 220 82 1700 130/03 RMK AO2 RAB0158 P0000 T02720239
53843K79J 79J20160726210514307/26/16 21:05:31  5-MIN K79J 270205Z AUTO 15003KT 10SM -RA FEW026 SCT047 BKN055 27/24 A3002 220 82 1700 150/03 RMK AO2 RAB0158 P0000 T02720239
53843K79J 79J20160726211014307/26/16 21:10:31  5-MIN K79J 270210Z AUTO 17003KT 10SM -RA FEW022 SCT028 BKN047 27/24 A3003 210 82 1700 180/03 RMK AO2 RAB0158 P0000 T02720239
53843K79J 79J20160726211514307/26/16 21:15:31  5-MIN K79J 270215Z AUTO VRB03KT 10SM -RA SCT023 BKN040 OVC050 27/24 A3003 210 82 1700 VRB/03 RMK AO2 RAB0158 P0000 T02720239
53843K79J 79J20160726212014207/26/16 21:20:31  5-MIN K79J 270220Z AUTO VRB06KT 10SM SCT023 BKN033 OVC065 27/24 A3003 210 82 1700 VRB/06 RMK AO2 RAB0158E18 P0000 T02720239
53843K79J 79J20160726212514207/26/16 21:25:31  5-MIN K79J 270225Z AUTO VRB04KT 10SM FEW024 BKN033 OVC065 27/23 A3003 210 79 1700 VRB/04 RMK AO2 RAB0158E18 P0000 T02720233
53843K79J 79J20160726213014207/26/16 21:30:31  5-MIN K79J 270230Z AUTO VRB05KT 10SM FEW024 BKN049 OVC060 27/23 A3003 210 79 1700 VRB/05 RMK AO2 RAB0158E18 P0000 T02720233
53843K79J 79J20160726213514207/26/16 21:35:31  5-MIN K79J 270235Z AUTO VRB03KT 10SM FEW022 BKN049 OVC060 27/23 A3003 210 79 1700 VRB/03 RMK AO2 RAB0158E18 P0000 T02720233
53843K79J 79J20160726214014207/26/16 21:40:31  5-MIN K79J 270240Z AUTO 18004KT 10SM FEW033 SCT049 OVC060 27/23 A3003 210 79 1700 190/04 RMK AO2 RAB0158E18 P0000 T02720233
53843K79J 79J20160726214514207/26/16 21:45:31  5-MIN K79J 270245Z AUTO 00000KT 10SM FEW026 SCT049 OVC060 27/23 A3004 210 79 1700 000/00 RMK AO2 RAB0158E18 P0000 T02720233
53843K79J 79J20160726215016107/26/16 21:50:31  5-MIN K79J 270250Z AUTO 15003KT 10SM SCT026 BKN049 OVC060 27/23 A3004 210 79 1700 160/03 RMK AO2 RAB0158E18 SLP166 P0000 60000 T02720233 53004
53843K79J 79J20160726215516107/26/16 21:55:31  5-MIN K79J 270255Z AUTO 16003KT 10SM SCT026 BKN049 OVC060 27/23 A3004 200 79 1700 160/03 RMK AO2 RAB0158E18 SLP166 P0000 60000 T02720233 53004
53843K79J 79J20160726220011807/26/16 22:00:31  5-MIN K79J 270300Z AUTO 00000KT 10SM BKN028 OVC060 27/23 A3004 200 79 1700 000/00 RMK AO2 T02720233
53843K79J 79J20160726220512507/26/16 22:05:31  5-MIN K79J 270305Z AUTO 15003KT 10SM SCT028 BKN032 OVC080 27/23 A3004 200 79 1700 150/03 RMK AO2 T02720233
53843K79J 79J20160726221012507/26/16 22:10:31  5-MIN K79J 270310Z AUTO 16003KT 10SM BKN028 BKN060 BKN080 27/23 A3004 200 76 1700 160/03 RMK AO2 T02720228
53843K79J 79J20160726221512507/26/16 22:15:31  5-MIN K79J 270315Z AUTO 16004KT 10SM SCT026 BKN031 BKN075 27/23 A3005 200 79 1600 160/04 RMK AO2 T02670228
53843K79J 79J20160726222012507/26/16 22:20:31  5-MIN K79J 270320Z AUTO 15003KT 10SM FEW026 BKN031 BKN075 27/23 A3005 200 79 1600 160/03 RMK AO2 T02670228
53843K79J 79J20160726222511107/26/16 22:25:31  5-MIN K79J 270325Z AUTO 15004KT 10SM SCT031 27/23 A3005 200 79 1600 150/04 RMK AO2 T02670228
53843K79J 79J20160726223011107/26/16 22:30:31  5-MIN K79J 270330Z AUTO 16005KT 10SM FEW031 27/23 A3005 190 79 1600 160/05 RMK AO2 T02670228
53843K79J 79J20160726223511807/26/16 22:35:31  5-MIN K79J 270335Z AUTO 16003KT 10SM FEW031 FEW040 27/23 A3005 200 79 1600 160/03 RMK AO2 T02670228
53843K79J 79J20160726224011807/26/16 22:40:31  5-MIN K79J 270340Z AUTO VRB04KT 10SM FEW031 FEW040 27/23 A3005 200 79 1600 VRB/04 RMK AO2 T02670228
53843K79J 79J20160726224510807/26/16 22:45:31  5-MIN K79J 270345Z AUTO 17003KT 10SM CLR 27/23 A3005 200 79 1600 170/03 RMK AO2 T02670228
53843K79J 79J20160726225011507/26/16 22:50:31  5-MIN K79J 270350Z AUTO VRB03KT 10SM CLR 27/23 A3005 190 79 1600 VRB/03 RMK AO2 SLP170 T02670228
53843K79J 79J20160726225511507/26/16 22:55:31  5-MIN K79J 270355Z AUTO 17004KT 10SM CLR 26/23 A3005 190 81 1600 170/04 RMK AO2 SLP171 T02610228
53843K79J 79J20160726230010807/26/16 23:00:31  5-MIN K79J 270400Z AUTO VRB03KT 10SM CLR 26/23 A3005 190 81 1600 VRB/03 RMK AO2 T02610228
53843K79J 79J20160726230510807/26/16 23:05:31  5-MIN K79J 270405Z AUTO VRB04KT 10SM CLR 26/23 A3006 180 81 1600 VRB/04 RMK AO2 T02610228
53843K79J 79J20160726231010807/26/16 23:10:31  5-MIN K79J 270410Z AUTO 18003KT 10SM CLR 26/23 A3006 180 81 1600 180/03 RMK AO2 T02610228
53843K79J 79J20160726231510807/26/16 23:15:31  5-MIN K79J 270415Z AUTO 00000KT 10SM CLR 26/23 A3006 190 81 1600 000/00 RMK AO2 T02610228
53843K79J 79J20160726232010807/26/16 23:20:31  5-MIN K79J 270420Z AUTO 00000KT 10SM CLR 26/23 A3006 190 81 1600 000/00 RMK AO2 T02610228
53843K79J 79J20160726232510807/26/16 23:25:31  5-MIN K79J 270425Z AUTO 00000KT 10SM CLR 26/23 A3006 190 81 1600 000/00 RMK AO2 T02610228
53843K79J 79J20160726233010807/26/16 23:30:31  5-MIN K79J 270430Z AUTO 00000KT 10SM CLR 26/23 A3006 180 81 1600 000/00 RMK AO2 T02610228
53843K79J 79J20160726233510807/26/16 23:35:31  5-MIN K79J 270435Z AUTO 13003KT 10SM CLR 26/23 A3006 180 81 1500 130/03 RMK AO2 T02610228
53843K79J 79J20160726234010807/26/16 23:40:31  5-MIN K79J 270440Z AUTO 13003KT 10SM CLR 26/23 A3006 180 81 1600 140/03 RMK AO2 T02610228
53843K79J 79J20160726234510807/26/16 23:45:31  5-MIN K79J 270445Z AUTO 15003KT 10SM CLR 26/23 A3006 190 81 1600 150/03 RMK AO2 T02610228
53843K79J 79J20160726235012507/26/16 23:50:31  5-MIN K79J 270450Z AUTO 15003KT 10SM CLR 26/23 A3006 180 81 1600 150/03 RMK AO2 SLP174 T02610228 403330256
53843K79J 79J20160726235512507/26/16 23:55:31  5-MIN K79J 270455Z AUTO 16003KT 10SM CLR 26/23 A3006 190 81 1600 160/03 RMK AO2 SLP173 T02610228 403330256
53843K79J 79J20160727000010807/27/16 00:00:31  5-MIN K79J 270500Z AUTO 15003KT 10SM CLR 26/23 A3006 180 87 1500 150/03 RMK AO2 T02560233
53843K79J 79J20160727000510807/27/16 00:05:31  5-MIN K79J 270505Z AUTO 00000KT 10SM CLR 26/23 A3006 180 87 1500 000/00 RMK AO2 T02560233
53843K79J 79J20160727001010807/27/16 00:10:31  5-MIN K79J 270510Z AUTO VRB03KT 10SM CLR 26/23 A3006 180 87 1500 VRB/03 RMK AO2 T02560233
53843K79J 79J20160727001510807/27/16 00:15:31  5-MIN K79J 270515Z AUTO VRB04KT 10SM CLR 26/23 A3006 180 81 1600 VRB/04 RMK AO2 T02610228
53843K79J 79J20160727002010807/27/16 00:20:31  5-MIN K79J 270520Z AUTO 00000KT 10SM CLR 26/23 A3006 190 81 1600 000/00 RMK AO2 T02610228
53843K79J 79J20160727002510807/27/16 00:25:31  5-MIN K79J 270525Z AUTO 00000KT 10SM CLR 26/23 A3006 190 84 1500 000/00 RMK AO2 T02560228
53843K79J 79J20160727003010807/27/16 00:30:31  5-MIN K79J 270530Z AUTO 17003KT 10SM CLR 26/23 A3005 190 84 1500 170/03 RMK AO2 T02560228
53843K79J 79J20160727003510807/27/16 00:35:31  5-MIN K79J 270535Z AUTO VRB03KT 10SM CLR 26/23 A3005 190 84 1500 VRB/03 RMK AO2 T02560228
53843K79J 79J20160727004010807/27/16 00:40:31  5-MIN K79J 270540Z AUTO VRB04KT 10SM CLR 26/23 A3005 190 84 1500 VRB/04 RMK AO2 T02560228
53843K79J 79J20160727004510807/27/16 00:45:31  5-MIN K79J 270545Z AUTO 00000KT 10SM CLR 26/23 A3005 190 84 1500 000/00 RMK AO2 T02560228
53843K79J 79J20160727005013907/27/16 00:50:31  5-MIN K79J 270550Z AUTO 00000KT 10SM CLR 26/23 A3005 190 84 1500 000/00 RMK AO2 SLP170 60000 T02560228 10289 20256 53011
53843K79J 79J20160727005513907/27/16 00:55:31  5-MIN K79J 270555Z AUTO 00000KT 10SM CLR 26/23 A3005 190 84 1500 000/00 RMK AO2 SLP170 60000 T02560228 10289 20256 53011
53843K79J 79J20160727010010807/27/16 01:00:31  5-MIN K79J 270600Z AUTO VRB03KT 10SM CLR 26/23 A3005 200 84 1500 VRB/03 RMK AO2 T02560228
53843K79J 79J20160727010510807/27/16 01:05:31  5-MIN K79J 270605Z AUTO VRB03KT 10SM CLR 26/23 A3004 200 84 1500 VRB/03 RMK AO2 T02560228
53843K79J 79J20160727011010807/27/16 01:10:31  5-MIN K79J 270610Z AUTO 00000KT 10SM CLR 26/23 A3004 200 84 1500 000/00 RMK AO2 T02560228
53843K79J 79J20160727011510807/27/16 01:15:31  5-MIN K79J 270615Z AUTO VRB03KT 10SM CLR 26/23 A3004 200 84 1500 VRB/03 RMK AO2 T02560228
53843K79J 79J20160727012010807/27/16 01:20:31  5-MIN K79J 270620Z AUTO 18003KT 10SM CLR 26/23 A3004 200 84 1500 190/03 RMK AO2 T02560228
53843K79J 79J20160727012510807/27/16 01:25:31  5-MIN K79J 270625Z AUTO 17004KT 10SM CLR 26/23 A3004 200 84 1500 170/04 RMK AO2 T02560228
53843K79J 79J20160727013010807/27/16 01:30:31  5-MIN K79J 270630Z AUTO VRB03KT 10SM CLR 26/23 A3004 200 84 1500 VRB/03 RMK AO2 T02560228
53843K79J 79J20160727013510807/27/16 01:35:31  5-MIN K79J 270635Z AUTO 00000KT 10SM CLR 26/23 A3004 200 84 1500 000/00 RMK AO2 T02560228
53843K79J 79J20160727014010807/27/16 01:40:31  5-MIN K79J 270640Z AUTO 00000KT 10SM CLR 26/23 A3004 210 84 1500 000/00 RMK AO2 T02560228
53843K79J 79J20160727014510807/27/16 01:45:31  5-MIN K79J 270645Z AUTO 14003KT 10SM CLR 26/23 A3003 210 84 1500 150/03 RMK AO2 T02560228
53843K79J 79J20160727015011807/27/16 01:50:31  5-MIN K79J 270650Z AUTO 14003KT 10SM FEW029 26/23 A3003 210 84 1500 150/03 RMK AO2 SLP165 T02560228
53843K79J 79J20160727015511807/27/16 01:55:31  5-MIN K79J 270655Z AUTO 15003KT 10SM BKN029 26/23 A3003 210 84 1500 150/03 RMK AO2 SLP164 T02560228
53843K79J 79J20160727020011107/27/16 02:00:31  5-MIN K79J 270700Z AUTO 00000KT 10SM BKN029 26/23 A3003 210 84 1500 000/00 RMK AO2 T02560228
53843K79J 79J20160727020511107/27/16 02:05:31  5-MIN K79J 270705Z AUTO 15003KT 10SM SCT029 26/23 A3003 210 84 1500 150/03 RMK AO2 T02560228
53843K79J 79J20160727021011807/27/16 02:10:31  5-MIN K79J 270710Z AUTO 16003KT 10SM FEW022 SCT029 26/23 A3003 210 84 1500 160/03 RMK AO2 T02560228
53843K79J 79J20160727021511807/27/16 02:15:31  5-MIN K79J 270715Z AUTO 00000KT 10SM FEW022 BKN029 26/23 A3003 210 84 1500 000/00 RMK AO2 T02560228
53843K79J 79J20160727022011107/27/16 02:20:31  5-MIN K79J 270720Z AUTO VRB03KT 10SM BKN026 26/23 A3003 220 84 1500 VRB/03 RMK AO2 T02560228
53843K79J 79J20160727022511807/27/16 02:25:31  5-MIN K79J 270725Z AUTO VRB03KT 10SM SCT024 SCT030 26/23 A3003 210 84 1500 VRB/03 RMK AO2 T02560228
53843K79J 79J20160727023011107/27/16 02:30:31  5-MIN K79J 270730Z AUTO 00000KT 10SM SCT024 26/23 A3002 220 84 1500 000/00 RMK AO2 T02560228
53843K79J 79J20160727023511107/27/16 02:35:31  5-MIN K79J 270735Z AUTO 00000KT 10SM BKN024 26/23 A3002 220 84 1500 000/00 RMK AO2 T02560228
53843K79J 79J20160727024011807/27/16 02:40:31  5-MIN K79J 270740Z AUTO 00000KT 10SM SCT024 BKN037 26/23 A3002 220 84 1500 000/00 RMK AO2 T02560228
53843K79J 79J20160727024511807/27/16 02:45:31  5-MIN K79J 270745Z AUTO 00000KT 10SM SCT024 BKN037 26/23 A3002 220 84 1500 000/00 RMK AO2 T02560228
53843K79J 79J20160727025012507/27/16 02:50:31  5-MIN K79J 270750Z AUTO 14003KT 10SM FEW024 SCT037 26/23 A3002 220 84 1500 140/03 RMK AO2 SLP160 T02560228
53843K79J 79J20160727025512507/27/16 02:55:31  5-MIN K79J 270755Z AUTO 00000KT 10SM FEW024 SCT036 26/23 A3002 220 84 1500 000/00 RMK AO2 SLP160 T02560228
53843K79J 79J20160727030011807/27/16 03:00:31  5-MIN K79J 270800Z AUTO 16003KT 10SM SCT024 SCT036 26/23 A3002 220 84 1500 160/03 RMK AO2 T02560228
53843K79J 79J20160727030511807/27/16 03:05:31  5-MIN K79J 270805Z AUTO VRB04KT 10SM SCT024 BKN036 26/23 A3002 220 84 1500 VRB/04 RMK AO2 T02560228
53843K79J 79J20160727031011807/27/16 03:10:31  5-MIN K79J 270810Z AUTO 15003KT 10SM SCT024 SCT036 26/23 A3002 220 84 1500 150/03 RMK AO2 T02560228
53843K79J 79J20160727031511107/27/16 03:15:31  5-MIN K79J 270815Z AUTO VRB03KT 10SM FEW024 26/23 A3002 220 84 1500 VRB/03 RMK AO2 T02560228
53843K79J 79J20160727032011107/27/16 03:20:31  5-MIN K79J 270820Z AUTO 15003KT 10SM FEW024 26/23 A3002 220 84 1500 150/03 RMK AO2 T02560228
53843K79J 79J20160727032511107/27/16 03:25:31  5-MIN K79J 270825Z AUTO VRB03KT 10SM FEW024 26/23 A3002 220 84 1500 VRB/03 RMK AO2 T02560228
53843K79J 79J20160727033011107/27/16 03:30:31  5-MIN K79J 270830Z AUTO 00000KT 10SM FEW024 25/23 A3002 220 87 1500 000/00 RMK AO2 T02500228
53843K79J 79J20160727033511107/27/16 03:35:31  5-MIN K79J 270835Z AUTO 15003KT 10SM FEW026 25/23 A3002 220 87 1500 160/03 RMK AO2 T02500228
53843K79J 79J20160727034010807/27/16 03:40:31  5-MIN K79J 270840Z AUTO 00000KT 10SM CLR 25/23 A3002 220 87 1500 000/00 RMK AO2 T02500228
53843K79J 79J20160727034510807/27/16 03:45:31  5-MIN K79J 270845Z AUTO 00000KT 10SM CLR 25/23 A3002 220 87 1500 000/00 RMK AO2 T02500228
53843K79J 79J20160727035012107/27/16 03:50:31  5-MIN K79J 270850Z AUTO 00000KT 10SM CLR 25/23 A3002 220 87 1500 000/00 RMK AO2 SLP160 T02500228 50004
53843K79J 79J20160727035512107/27/16 03:55:31  5-MIN K79J 270855Z AUTO 00000KT 10SM CLR 25/23 A3002 220 87 1500 000/00 RMK AO2 SLP160 T02500228 50004
53843K79J 79J20160727040010807/27/16 04:00:31  5-MIN K79J 270900Z AUTO 00000KT 10SM CLR 25/23 A3002 220 87 1500 000/00 RMK AO2 T02500228
53843K79J 79J20160727040510807/27/16 04:05:31  5-MIN K79J 270905Z AUTO 00000KT 10SM CLR 25/22 A3002 220 84 1500 000/00 RMK AO2 T02500222
53843K79J 79J20160727041010807/27/16 04:10:31  5-MIN K79J 270910Z AUTO 00000KT 10SM CLR 25/23 A3002 220 87 1500 000/00 RMK AO2 T02500228
53843K79J 79J20160727041510807/27/16 04:15:31  5-MIN K79J 270915Z AUTO 00000KT 10SM CLR 25/23 A3001 230 87 1500 000/00 RMK AO2 T02500228
53843K79J 79J20160727042010807/27/16 04:20:31  5-MIN K79J 270920Z AUTO 00000KT 10SM CLR 25/23 A3001 230 87 1500 000/00 RMK AO2 T02500228
53843K79J 79J20160727042510807/27/16 04:25:31  5-MIN K79J 270925Z AUTO 00000KT 10SM CLR 25/23 A3001 230 87 1500 000/00 RMK AO2 T02500228
53843K79J 79J20160727043010807/27/16 04:30:31  5-MIN K79J 270930Z AUTO 00000KT 10SM CLR 25/22 A3002 220 84 1500 000/00 RMK AO2 T02500222
53843K79J 79J20160727043510807/27/16 04:35:31  5-MIN K79J 270935Z AUTO 00000KT 10SM CLR 25/22 A3002 220 84 1500 000/00 RMK AO2 T02500222
53843K79J 79J20160727044010807/27/16 04:40:31  5-MIN K79J 270940Z AUTO 00000KT 10SM CLR 25/22 A3002 220 84 1500 000/00 RMK AO2 T02500222
53843K79J 79J20160727044510807/27/16 04:45:31  5-MIN K79J 270945Z AUTO 00000KT 10SM CLR 25/22 A3002 220 84 1500 000/00 RMK AO2 T02500222
53843K79J 79J20160727045011407/27/16 04:50:31  5-MIN K79J 270950Z AUTO 00000KT 9SM CLR 24/22 A3002 220 87 1400 000/00 RMK AO2 SLP161 T02440222
53843K79J 79J20160727045511507/27/16 04:55:31  5-MIN K79J 270955Z AUTO 00000KT 10SM CLR 24/22 A3002 220 87 1400 000/00 RMK AO2 SLP162 T02440222
53843K79J 79J20160727050010807/27/16 05:00:31  5-MIN K79J 271000Z AUTO 00000KT 10SM CLR 25/22 A3003 210 84 1500 000/00 RMK AO2 T02500222
53843K79J 79J20160727050510807/27/16 05:05:31  5-MIN K79J 271005Z AUTO 00000KT 10SM CLR 25/22 A3003 220 84 1500 000/00 RMK AO2 T02500222
53843K79J 79J20160727051010807/27/16 05:10:31  5-MIN K79J 271010Z AUTO 13003KT 10SM CLR 24/22 A3003 220 87 1400 130/03 RMK AO2 T02440222
53843K79J 79J20160727051510707/27/16 05:15:31  5-MIN K79J 271015Z AUTO 13003KT 9SM CLR 24/22 A3003 210 87 1400 130/03 RMK AO2 T02440222
53843K79J 79J20160727052010707/27/16 05:20:31  5-MIN K79J 271020Z AUTO 12003KT 9SM CLR 24/22 A3003 210 87 1400 120/03 RMK AO2 T02440222
53843K79J 79J20160727052510707/27/16 05:25:31  5-MIN K79J 271025Z AUTO 13003KT 9SM CLR 24/22 A3003 210 87 1400 130/03 RMK AO2 T02440222
53843K79J 79J20160727053010707/27/16 05:30:31  5-MIN K79J 271030Z AUTO 13003KT 9SM CLR 24/22 A3003 210 87 1400 130/03 RMK AO2 T02440222
53843K79J 79J20160727053510807/27/16 05:35:31  5-MIN K79J 271035Z AUTO 14003KT 10SM CLR 24/22 A3003 210 87 1400 140/03 RMK AO2 T02440222
53843K79J 79J20160727054010807/27/16 05:40:31  5-MIN K79J 271040Z AUTO 15003KT 10SM CLR 24/22 A3003 210 87 1400 150/03 RMK AO2 T02440222
53843K79J 79J20160727054510807/27/16 05:45:31  5-MIN K79J 271045Z AUTO 15003KT 10SM CLR 24/22 A3004 210 87 1400 150/03 RMK AO2 T02440222
53843K79J 79J20160727055011507/27/16 05:50:31  5-MIN K79J 271050Z AUTO 15003KT 10SM CLR 25/22 A3004 200 84 1400 150/03 RMK AO2 SLP167 T02500222
53843K79J 79J20160727055511507/27/16 05:55:31  5-MIN K79J 271055Z AUTO 15003KT 10SM CLR 25/22 A3004 200 84 1400 150/03 RMK AO2 SLP167 T02500222
53843K79J 79J20160727060010807/27/16 06:00:31  5-MIN K79J 271100Z AUTO 16003KT 10SM CLR 25/22 A3004 200 84 1400 160/03 RMK AO2 T02500222
53843K79J 79J20160727060510807/27/16 06:05:31  5-MIN K79J 271105Z AUTO 00000KT 10SM CLR 25/22 A3004 200 84 1400 000/00 RMK AO2 T02500222
53843K79J 79J20160727061010807/27/16 06:10:31  5-MIN K79J 271110Z AUTO 00000KT 10SM CLR 25/22 A3004 200 84 1400 000/00 RMK AO2 T02500222
53843K79J 79J20160727061510807/27/16 06:15:31  5-MIN K79J 271115Z AUTO 00000KT 10SM CLR 25/22 A3004 200 84 1400 000/00 RMK AO2 T02500222
53843K79J 79J20160727062010807/27/16 06:20:31  5-MIN K79J 271120Z AUTO 00000KT 10SM CLR 25/22 A3005 200 84 1400 000/00 RMK AO2 T02500222
53843K79J 79J20160727062510807/27/16 06:25:31  5-MIN K79J 271125Z AUTO 00000KT 10SM CLR 25/22 A3005 190 84 1400 000/00 RMK AO2 T02500222
53843K79J 79J20160727063010807/27/16 06:30:31  5-MIN K79J 271130Z AUTO 00000KT 10SM CLR 25/23 A3005 190 87 1400 000/00 RMK AO2 T02500228
53843K79J 79J20160727063510807/27/16 06:35:31  5-MIN K79J 271135Z AUTO 00000KT 10SM CLR 25/23 A3005 190 87 1400 000/00 RMK AO2 T02500228
53843K79J 79J20160727064010807/27/16 06:40:31  5-MIN K79J 271140Z AUTO 00000KT 10SM CLR 26/23 A3005 200 84 1500 000/00 RMK AO2 T02560228
53843K79J 79J20160727064510807/27/16 06:45:31  5-MIN K79J 271145Z AUTO 14003KT 10SM CLR 26/23 A3005 190 84 1500 140/03 RMK AO2 T02560228
53843K79J 79J20160727065013907/27/16 06:50:31  5-MIN K79J 271150Z AUTO 00000KT 10SM CLR 26/23 A3005 190 84 1500 000/00 RMK AO2 SLP170 70009 T02560228 10256 20244 56010
53843K79J 79J20160727065513907/27/16 06:55:31  5-MIN K79J 271155Z AUTO 13003KT 10SM CLR 26/23 A3005 190 84 1500 130/03 RMK AO2 SLP172 70009 T02560228 10256 20244 56010
53843K79J 79J20160727070010807/27/16 07:00:31  5-MIN K79J 271200Z AUTO 15003KT 10SM CLR 26/23 A3006 190 84 1500 150/03 RMK AO2 T02560228
53843K79J 79J20160727070510807/27/16 07:05:31  5-MIN K79J 271205Z AUTO 14003KT 10SM CLR 26/23 A3006 180 84 1500 140/03 RMK AO2 T02560228
53843K79J 79J20160727071010807/27/16 07:10:31  5-MIN K79J 271210Z AUTO 14003KT 10SM CLR 26/23 A3006 190 81 1600 140/03 RMK AO2 T02610228
53843K79J 79J20160727071510807/27/16 07:15:31  5-MIN K79J 271215Z AUTO 00000KT 10SM CLR 26/23 A3006 190 81 1600 000/00 RMK AO2 T02610228
53843K79J 79J20160727072010807/27/16 07:20:31  5-MIN K79J 271220Z AUTO 15003KT 10SM CLR 26/23 A3006 190 81 1600 150/03 RMK AO2 T02610228
53843K79J 79J20160727072510807/27/16 07:25:31  5-MIN K79J 271225Z AUTO 15004KT 10SM CLR 26/23 A3006 190 81 1600 160/04 RMK AO2 T02610228
53843K79J 79J20160727073010807/27/16 07:30:31  5-MIN K79J 271230Z AUTO VRB04KT 10SM CLR 27/23 A3006 190 79 1600 VRB/04 RMK AO2 T02670228
53843K79J 79J20160727073510807/27/16 07:35:31  5-MIN K79J 271235Z AUTO 00000KT 10SM CLR 27/23 A3006 180 82 1600 000/00 RMK AO2 T02670233
53843K79J 79J20160727074010807/27/16 07:40:31  5-MIN K79J 271240Z AUTO VRB03KT 10SM CLR 27/23 A3006 180 79 1700 VRB/03 RMK AO2 T02720233
53843K79J 79J20160727074510807/27/16 07:45:31  5-MIN K79J 271245Z AUTO VRB03KT 10SM CLR 27/23 A3007 180 79 1700 VRB/03 RMK AO2 T02720233
53843K79J 79J20160727075011507/27/16 07:50:31  5-MIN K79J 271250Z AUTO VRB04KT 10SM CLR 28/23 A3007 180 76 1700 VRB/04 RMK AO2 SLP176 T02780233
53843K79J 79J20160727075511507/27/16 07:55:31  5-MIN K79J 271255Z AUTO 00000KT 10SM CLR 28/23 A3007 180 76 1700 000/00 RMK AO2 SLP177 T02780233
53843K79J 79J20160727080010807/27/16 08:00:31  5-MIN K79J 271300Z AUTO VRB04KT 10SM CLR 28/23 A3007 180 74 1800 VRB/04 RMK AO2 T02830233
53843K79J 79J20160727080510807/27/16 08:05:31  5-MIN K79J 271305Z AUTO 16003KT 10SM CLR 28/23 A3007 170 74 1800 170/03 RMK AO2 T02830233
53843K79J 79J20160727081010807/27/16 08:10:31  5-MIN K79J 271310Z AUTO 00000KT 10SM CLR 29/24 A3007 180 74 1900 000/00 RMK AO2 T02890239
53843K79J 79J20160727081510807/27/16 08:15:31  5-MIN K79J 271315Z AUTO 21003KT 10SM CLR 29/23 A3007 180 71 1900 210/03 RMK AO2 T02890233
53843K79J 79J20160727082010807/27/16 08:20:31  5-MIN K79J 271320Z AUTO 21004KT 10SM CLR 29/23 A3007 180 69 1900 220/04 RMK AO2 T02940233
53843K79J 79J20160727082510807/27/16 08:25:31  5-MIN K79J 271325Z AUTO VRB03KT 10SM CLR 29/24 A3007 180 71 1900 VRB/03 RMK AO2 T02940239
53843K79J 79J20160727083010807/27/16 08:30:31  5-MIN K79J 271330Z AUTO 20004KT 10SM CLR 29/23 A3007 180 69 1900 210/04 RMK AO2 T02940233
53843K79J 79J20160727083510807/27/16 08:35:31  5-MIN K79J 271335Z AUTO 22004KT 10SM CLR 30/23 A3007 180 67 2000 230/04 RMK AO2 T03000233
53843K79J 79J20160727084010807/27/16 08:40:31  5-MIN K79J 271340Z AUTO 22005KT 10SM CLR 30/23 A3007 180 67 2000 230/05 RMK AO2 T03000233
53843K79J 79J20160727084510807/27/16 08:45:31  5-MIN K79J 271345Z AUTO 22005KT 10SM CLR 30/23 A3007 180 67 2000 230/05 RMK AO2 T03000233
53843K79J 79J20160727085011507/27/16 08:50:31  5-MIN K79J 271350Z AUTO 20005KT 10SM CLR 30/23 A3007 180 67 2000 200/05 RMK AO2 SLP177 T03000233
53843K79J 79J20160727085511507/27/16 08:55:31  5-MIN K79J 271355Z AUTO 00000KT 10SM CLR 31/23 A3007 180 65 2000 000/00 RMK AO2 SLP177 T03060233
53843K79J 79J20160727090010807/27/16 09:00:31  5-MIN K79J 271400Z AUTO 23006KT 10SM CLR 31/24 A3007 170 67 2000 230/06 RMK AO2 T03060239
53843K79J 79J20160727090510807/27/16 09:05:31  5-MIN K79J 271405Z AUTO 23006KT 10SM CLR 31/23 A3007 170 65 2000 240/06 RMK AO2 T03060233
53843K79J 79J20160727091010807/27/16 09:10:31  5-MIN K79J 271410Z AUTO VRB06KT 10SM CLR 31/23 A3007 170 65 2000 VRB/06 RMK AO2 T03060233
53843K79J 79J20160727091511107/27/16 09:15:31  5-MIN K79J 271415Z AUTO 23005KT 10SM FEW022 31/23 A3007 170 65 2000 230/05 RMK AO2 T03060233
53843K79J 79J20160727092011107/27/16 09:20:31  5-MIN K79J 271420Z AUTO VRB03KT 10SM FEW022 31/23 A3008 170 63 2100 VRB/03 RMK AO2 T03110233
53843K79J 79J20160727092511107/27/16 09:25:31  5-MIN K79J 271425Z AUTO 20004KT 10SM FEW022 32/23 A3008 170 61 2100 200/04 RMK AO2 T03170233
53843K79J 79J20160727093011107/27/16 09:30:31  5-MIN K79J 271430Z AUTO 25006KT 10SM FEW022 32/22 A3008 170 56 2100 250/06 RMK AO2 T03170222
53843K79J 79J20160727093511107/27/16 09:35:31  5-MIN K79J 271435Z AUTO 21006KT 10SM FEW022 32/22 A3008 170 56 2100 210/06 RMK AO2 T03170222
53843K79J 79J20160727094011107/27/16 09:40:31  5-MIN K79J 271440Z AUTO 24008KT 10SM FEW022 32/22 A3008 160 56 2100 240/08 RMK AO2 T03170222
53843K79J 79J20160727094512407/27/16 09:45:31  5-MIN K79J 271445Z AUTO 22007KT 190V250 10SM CLR 32/22 A3008 160 56 2100 220/07 190V250 RMK AO2 T03170222
53843K79J 79J20160727095012107/27/16 09:50:31  5-MIN K79J 271450Z AUTO 25007KT 10SM CLR 32/22 A3008 160 56 2100 260/07 RMK AO2 SLP182 T03170222 53012
53843K79J 79J20160727095512107/27/16 09:55:31  5-MIN K79J 271455Z AUTO 27006KT 10SM CLR 32/22 A3008 160 56 2100 270/06 RMK AO2 SLP182 T03170222 53012
53843K79J 79J20160727100010807/27/16 10:00:31  5-MIN K79J 271500Z AUTO VRB05KT 10SM CLR 32/23 A3008 160 57 2200 VRB/05 RMK AO2 T03220228
53843K79J 79J20160727100510807/27/16 10:05:31  5-MIN K79J 271505Z AUTO VRB06KT 10SM CLR 32/22 A3008 160 55 2200 VRB/06 RMK AO2 T03220222
53843K79J 79J20160727101011107/27/16 10:10:31  5-MIN K79J 271510Z AUTO 24006KT 10SM FEW029 32/22 A3008 160 55 2200 250/06 RMK AO2 T03220222
53843K79J 79J20160727101511107/27/16 10:15:31  5-MIN K79J 271515Z AUTO 20007KT 10SM FEW029 32/22 A3008 160 55 2200 200/07 RMK AO2 T03220222
53843K79J 79J20160727102011107/27/16 10:20:31  5-MIN K79J 271520Z AUTO VRB04KT 10SM FEW029 32/22 A3008 160 55 2200 VRB/04 RMK AO2 T03220222
53843K79J 79J20160727102511107/27/16 10:25:31  5-MIN K79J 271525Z AUTO 22007KT 10SM SCT029 33/23 A3009 160 55 2300 220/07 RMK AO2 T03280228
53843K79J 79J20160727103011107/27/16 10:30:31  5-MIN K79J 271530Z AUTO VRB06KT 10SM FEW029 33/22 A3009 160 53 2300 VRB/06 RMK AO2 T03280222
53843K79J 79J20160727103511107/27/16 10:35:31  5-MIN K79J 271535Z AUTO 21006KT 10SM FEW029 33/22 A3009 160 53 2300 210/06 RMK AO2 T03280222
53843K79J 79J20160727104011107/27/16 10:40:31  5-MIN K79J 271540Z AUTO 21005KT 10SM FEW030 33/22 A3009 160 53 2300 210/05 RMK AO2 T03280222
53843K79J 79J20160727104511107/27/16 10:45:31  5-MIN K79J 271545Z AUTO 24007KT 10SM FEW030 33/23 A3009 160 53 2300 240/07 RMK AO2 T03330228
53843K79J 79J20160727105011807/27/16 10:50:31  5-MIN K79J 271550Z AUTO 25007KT 10SM FEW032 33/22 A3009 160 51 2300 260/07 RMK AO2 SLP184 T03330222
53843K79J 79J20160727105511807/27/16 10:55:31  5-MIN K79J 271555Z AUTO 23006KT 10SM FEW032 33/22 A3009 160 53 2300 240/06 RMK AO2 SLP184 T03280222
53843K79J 79J20160727110011107/27/16 11:00:31  5-MIN K79J 271600Z AUTO VRB06KT 10SM FEW032 33/22 A3009 160 53 2300 VRB/06 RMK AO2 T03280222
53843K79J 79J20160727110511107/27/16 11:05:31  5-MIN K79J 271605Z AUTO VRB05KT 10SM FEW032 33/23 A3009 160 53 2300 VRB/05 RMK AO2 T03330228
53843K79J 79J20160727111011807/27/16 11:10:31  5-MIN K79J 271610Z AUTO 25007KT 10SM FEW035 FEW043 33/22 A3009 160 50 2300 250/07 RMK AO2 T03330217
53843K79J 79J20160727111513407/27/16 11:15:31  5-MIN K79J 271615Z AUTO 26007KT 220V280 10SM FEW035 FEW043 33/22 A3009 160 51 2300 260/07 220V280 RMK AO2 T03330222
53843K79J 79J20160727112011107/27/16 11:20:31  5-MIN K79J 271620Z AUTO VRB03KT 10SM FEW037 33/22 A3009 160 51 2300 VRB/03 RMK AO2 T03330222
53843K79J 79J20160727112510107/27/16 11:25:31  5-MIN K79J 271625Z AUTO 10SM FEW037 34/22 A3008 160 50 2400 M /M RMK AO2 T03390222
53843K79J 79J20160727113011107/27/16 11:30:31  5-MIN K79J 271630Z AUTO 25006KT 10SM FEW039 34/22 A3008 160 50 2400 250/06 RMK AO2 T03390222
53843K79J 79J20160727113511107/27/16 11:35:31  5-MIN K79J 271635Z AUTO 21008KT 10SM FEW039 33/22 A3008 160 51 2300 210/08 RMK AO2 T03330222
53843K79J 79J20160727114011107/27/16 11:40:31  5-MIN K79J 271640Z AUTO 21006KT 10SM FEW039 33/22 A3008 160 50 2300 210/06 RMK AO2 T03330217
53843K79J 79J20160727114512707/27/16 11:45:31  5-MIN K79J 271645Z AUTO 25007KT 210V270 10SM FEW039 34/22 A3008 160 48 2400 250/07 210V270 RMK AO2 T03390217
53843K79J 79J20160727115014107/27/16 11:50:31  5-MIN K79J 271650Z AUTO 23007KT 200V260 10SM FEW039 FEW055 34/21 A3008 160 46 2400 240/07 200V260 RMK AO2 SLP181 T03390211
53843K79J 79J20160727115512507/27/16 11:55:31  5-MIN K79J 271655Z AUTO VRB06KT 10SM FEW039 FEW060 34/22 A3008 160 46 2500 VRB/06 RMK AO2 SLP180 T03440217
53843K79J 79J20160727120013407/27/16 12:00:31  5-MIN K79J 271700Z AUTO 22007KT 180V250 10SM FEW043 SCT055 34/22 A3008 160 48 2400 220/07 180V250 RMK AO2 T03390217
53843K79J 79J20160727120513407/27/16 12:05:31  5-MIN K79J 271705Z AUTO 25008KT 210V270 10SM FEW043 SCT055 34/22 A3008 160 48 2400 250/08 210V270 RMK AO2 T03390217
53843K79J 79J20160727121011807/27/16 12:10:31  5-MIN K79J 271710Z AUTO 23006KT 10SM FEW041 FEW055 34/22 A3008 170 46 2500 240/06 RMK AO2 T03440217
53843K79J 79J20160727121511807/27/16 12:15:31  5-MIN K79J 271715Z AUTO VRB05KT 10SM FEW041 FEW055 34/22 A3008 170 46 2500 VRB/05 RMK AO2 T03440217
53843K79J 79J20160727122011807/27/16 12:20:31  5-MIN K79J 271720Z AUTO 19007KT 10SM FEW042 FEW055 34/22 A3008 170 48 2500 190/07 RMK AO2 T03440222
53843K79J 79J20160727122511107/27/16 12:25:31  5-MIN K79J 271725Z AUTO 21006KT 10SM FEW042 34/22 A3007 170 46 2500 210/06 RMK AO2 T03440217
53843K79J 79J20160727123010807/27/16 12:30:31  5-MIN K79J 271730Z AUTO 23007KT 10SM CLR 34/22 A3007 170 46 2500 230/07 RMK AO2 T03440217
53843K79J 79J20160727123511107/27/16 12:35:31  5-MIN K79J 271735Z AUTO VRB04KT 10SM FEW046 34/22 A3007 170 48 2500 VRB/04 RMK AO2 T03440222
53843K79J 79J20160727124011107/27/16 12:40:31  5-MIN K79J 271740Z AUTO 19005KT 10SM FEW046 34/22 A3007 170 48 2500 190/05 RMK AO2 T03440222
53843K79J 79J20160727124512707/27/16 12:45:31  5-MIN K79J 271745Z AUTO 18007KT 130V210 10SM FEW046 35/22 A3007 170 45 2500 180/07 130V210 RMK AO2 T03500217
53843K79J 79J20160727125014307/27/16 12:50:31  5-MIN K79J 271750Z AUTO VRB04KT 10SM FEW044 SCT060 34/22 A3007 170 48 2400 VRB/04 RMK AO2 SLP178 T03390217 10350 20256 53009
53843K79J 79J20160727125515607/27/16 12:55:31  5-MIN K79J 271755Z AUTO 23010G14KT 10SM FEW042 SCT060 BKN075 34/22 A3007 170 46 2500 230/10G14 RMK AO2 SLP177 T03440217 10350 20256 53009
53843K79J 79J20160727130013107/27/16 13:00:31  5-MIN K79J 271800Z AUTO 22008G14KT 10SM SCT046 SCT060 BKN075 34/21 A3007 170 46 2400 230/08G14 RMK AO2 T03390211
53843K79J 79J20160727130512507/27/16 13:05:31  5-MIN K79J 271805Z AUTO 22004KT 10SM SCT044 BKN060 BKN075 34/22 A3007 170 48 2400 220/04 RMK AO2 T03390217
53843K79J 79J20160727131012507/27/16 13:10:31  5-MIN K79J 271810Z AUTO 23006KT 10SM FEW044 SCT060 BKN080 35/22 A3007 180 45 2500 230/06 RMK AO2 T03500217
53843K79J 79J20160727131512507/27/16 13:15:31  5-MIN K79J 271815Z AUTO VRB06KT 10SM SCT045 SCT065 BKN080 34/21 A3007 180 45 2500 VRB/06 RMK AO2 T03440211
53843K79J 79J20160727132011807/27/16 13:20:31  5-MIN K79J 271820Z AUTO 22008KT 10SM FEW047 BKN070 35/21 A3006 180 43 2500 220/08 RMK AO2 T03500211
53843K79J 79J20160727132511807/27/16 13:25:31  5-MIN K79J 271825Z AUTO 23008KT 10SM FEW045 SCT070 35/21 A3006 180 43 2500 240/08 RMK AO2 T03500211
53843K79J 79J20160727133013407/27/16 13:30:31  5-MIN K79J 271830Z AUTO 22007KT 180V270 10SM FEW047 FEW070 35/21 A3006 180 43 2500 220/07 180V270 RMK AO2 T03500211
53843K79J 79J20160727133511807/27/16 13:35:31  5-MIN K79J 271835Z AUTO VRB06KT 10SM FEW050 SCT070 35/21 A3006 180 42 2500 VRB/06 RMK AO2 T03500206
53843K79J 79J20160727134012507/27/16 13:40:31  5-MIN K79J 271840Z AUTO VRB05KT 10SM FEW050 SCT070 SCT090 36/21 A3006 180 42 2600 VRB/05 RMK AO2 T03560211
53843K79J 79J20160727134512407/27/16 13:45:31  5-MIN K79J 271845Z AUTO 24010G16KT 10SM FEW049 FEW090 36/21 A3006 180 42 2600 240/10G16 RMK AO2 T03560211
53843K79J 79J20160727135013107/27/16 13:50:31  5-MIN K79J 271850Z AUTO 24007G16KT 10SM FEW049 FEW075 34/20 A3006 190 42 2500 240/07G16 RMK AO2 SLP173 T03440200
53843K79J 79J20160727135512507/27/16 13:55:31  5-MIN K79J 271855Z AUTO VRB05KT 10SM FEW050 FEW075 35/21 A3005 190 42 2500 VRB/05 RMK AO2 SLP171 T03500206
53843K79J 79J20160727140011807/27/16 14:00:31  5-MIN K79J 271900Z AUTO VRB05KT 10SM FEW050 FEW080 36/21 A3005 190 41 2600 VRB/05 RMK AO2 T03560206
53843K79J 79J20160727140512707/27/16 14:05:31  5-MIN K79J 271905Z AUTO 23007KT 190V270 10SM FEW080 36/20 A3005 190 39 2600 230/07 190V270 RMK AO2 T03560200
53843K79J 79J20160727141011107/27/16 14:10:31  5-MIN K79J 271910Z AUTO VRB04KT 10SM FEW075 36/21 A3005 190 41 2700 VRB/04 RMK AO2 T03610211
53843K79J 79J20160727141511107/27/16 14:15:31  5-MIN K79J 271915Z AUTO 23006KT 10SM FEW065 36/21 A3005 200 41 2600 240/06 RMK AO2 T03560206
53843K79J 79J20160727142011807/27/16 14:20:31  5-MIN K79J 271920Z AUTO 25007KT 10SM FEW065 SCT080 36/20 A3004 200 39 2600 250/07 RMK AO2 T03560200
53843K79J 79J20160727142512507/27/16 14:25:31  5-MIN K79J 271925Z AUTO 19007KT 10SM SCT060 SCT070 BKN090 35/21 A3004 200 42 2600 200/07 RMK AO2 T03500206
53843K79J 79J20160727143012507/27/16 14:30:31  5-MIN K79J 271930Z AUTO VRB06KT 10SM SCT055 SCT070 BKN100 35/21 A3004 200 42 2600 VRB/06 RMK AO2 T03500206
53843K79J 79J20160727143512507/27/16 14:35:31  5-MIN K79J 271935Z AUTO VRB06KT 10SM FEW060 BKN070 BKN095 34/21 A3004 200 43 2500 VRB/06 RMK AO2 T03440206
53843K79J 79J20160727144015707/27/16 14:40:31  5-MIN K79J 271940Z AUTO 21007KT 160V230 10SM -RA FEW060 BKN070 BKN095 34/21 A3004 210 45 2500 210/07 160V230 RMK AO2 RAB40 P0000 T03440211
53843K79J 79J20160727144514107/27/16 14:45:31  5-MIN K79J 271945Z AUTO VRB05KT 10SM -RA FEW060 BKN070 BKN100 36/22 A3003 210 44 2600 VRB/05 RMK AO2 RAB40 P0000 T03560217
53843K79J 79J20160727145014707/27/16 14:50:31  5-MIN K79J 271950Z AUTO 23008KT 10SM FEW055 SCT070 SCT095 36/22 A3003 210 42 2700 230/08 RMK AO2 RAB40E49 SLP163 P0000 T03610217
53843K79J 79J20160727145514707/27/16 14:55:31  5-MIN K79J 271955Z AUTO 22008KT 10SM FEW055 FEW070 SCT100 36/21 A3003 210 42 2600 220/08 RMK AO2 RAB40E49 SLP162 P0000 T03560211
53843K79J 79J20160727150011107/27/16 15:00:31  5-MIN K79J 272000Z AUTO 22006KT 10SM FEW070 35/21 A3002 220 43 2600 220/06 RMK AO2 T03500211
53843K79J 79J20160727150511807/27/16 15:05:31  5-MIN K79J 272005Z AUTO VRB05KT 10SM FEW070 FEW090 36/22 A3002 220 44 2600 VRB/05 RMK AO2 T03560217
53843K79J 79J20160727151012507/27/16 15:10:31  5-MIN K79J 272010Z AUTO 22006KT 10SM FEW060 FEW070 SCT090 34/21 A3002 220 45 2500 230/06 RMK AO2 T03440211
53843K79J 79J20160727151511807/27/16 15:15:31  5-MIN K79J 272015Z AUTO 21006KT 10SM FEW050 SCT065 34/21 A3002 220 46 2500 220/06 RMK AO2 T03390211
53843K79J 79J20160727152012507/27/16 15:20:31  5-MIN K79J 272020Z AUTO VRB04KT 10SM FEW050 SCT060 BKN070 34/22 A3002 220 48 2500 VRB/04 RMK AO2 T03390217
53843K79J 79J20160727152512507/27/16 15:25:31  5-MIN K79J 272025Z AUTO 21007KT 10SM FEW049 BKN060 BKN070 34/22 A3002 220 48 2500 210/07 RMK AO2 T03390217
53843K79J 79J20160727153014507/27/16 15:30:31  5-MIN K79J 272030Z AUTO 25005G14KT 6SM RA SCT049 BKN070 BKN085 32/22 A3002 220 55 2300 250/05G14 RMK AO2 RAB27 P0001 T03220222
53843K79J 79J20160727153514607/27/16 15:35:31  5-MIN K79J 272035Z AUTO 22005G14KT 6SM -RA SCT055 BKN070 OVC090 32/23 A3002 220 57 2300 220/05G14 RMK AO2 RAB27 P0001 T03220228
53843K79J 79J20160727154014107/27/16 15:40:31  5-MIN K79J 272040Z AUTO 23003KT 10SM -RA SCT055 SCT065 BKN080 33/24 A3001 230 57 2400 230/03 RMK AO2 RAB27 P0001 T03330239
53843K79J 79J20160727154514007/27/16 15:45:31  5-MIN K79J 272045Z AUTO 24004KT 10SM SCT050 SCT065 BKN080 34/23 A3001 230 51 2500 240/04 RMK AO2 RAB27E41 P0001 T03390228
53843K79J 79J20160727155015907/27/16 15:50:31  5-MIN K79J 272050Z AUTO 22006KT 10SM SCT050 BKN070 BKN095 33/23 A3001 230 53 2400 220/06 RMK AO2 RAB27E41 SLP158 P0001 60001 T03330228 58004
53843K79J 79J20160727155515907/27/16 15:55:31  5-MIN K79J 272055Z AUTO 22007KT 10SM FEW050 BKN070 BKN095 34/23 A3002 220 51 2500 220/07 RMK AO2 RAB27E41 SLP159 P0001 60001 T03390228 58004
53843K79J 79J20160727160012507/27/16 16:00:31  5-MIN K79J 272100Z AUTO 22007KT 10SM FEW050 SCT080 BKN095 34/22 A3001 230 48 2500 220/07 RMK AO2 T03440222
53843K79J 79J20160727160512507/27/16 16:05:31  5-MIN K79J 272105Z AUTO 20007KT 10SM FEW050 SCT070 BKN095 35/22 A3001 230 47 2600 210/07 RMK AO2 T03500222
53843K79J 79J20160727161012507/27/16 16:10:31  5-MIN K79J 272110Z AUTO VRB06KT 10SM FEW050 SCT080 BKN095 35/22 A3001 230 45 2600 VRB/06 RMK AO2 T03500217
53843K79J 79J20160727161512507/27/16 16:15:31  5-MIN K79J 272115Z AUTO 22007KT 10SM SCT050 SCT070 BKN095 35/22 A3001 230 45 2600 220/07 RMK AO2 T03500217
53843K79J 79J20160727162012507/27/16 16:20:31  5-MIN K79J 272120Z AUTO 22007KT 10SM SCT050 BKN075 BKN095 34/22 A3001 230 48 2500 220/07 RMK AO2 T03390217
53843K79J 79J20160727162511807/27/16 16:25:31  5-MIN K79J 272125Z AUTO 23006KT 10SM BKN050 BKN095 34/22 A3001 230 48 2500 230/06 RMK AO2 T03390217
53843K79J 79J20160727163012507/27/16 16:30:31  5-MIN K79J 272130Z AUTO 22006KT 10SM SCT048 BKN055 BKN075 34/22 A3001 230 48 2500 230/06 RMK AO2 T03390217
53843K79J 79J20160727163512507/27/16 16:35:31  5-MIN K79J 272135Z AUTO VRB05KT 10SM SCT048 SCT055 BKN075 33/22 A3001 230 50 2400 VRB/05 RMK AO2 T03330217
53843K79J 79J20160727164012507/27/16 16:40:31  5-MIN K79J 272140Z AUTO 28010KT 10SM BKN050 BKN070 OVC090 33/22 A3001 230 51 2400 280/10 RMK AO2 T03330222
53843K79J 79J20160727164512507/27/16 16:45:31  5-MIN K79J 272145Z AUTO 27007KT 10SM BKN048 BKN055 OVC090 33/22 A3001 230 53 2300 270/07 RMK AO2 T03280222
53843K79J 79J20160727165013207/27/16 16:50:31  5-MIN K79J 272150Z AUTO 27006KT 10SM SCT048 BKN060 BKN080 32/23 A3001 230 57 2300 270/06 RMK AO2 SLP157 T03220228
53843K79J 79J20160727165513207/27/16 16:55:31  5-MIN K79J 272155Z AUTO 29007KT 10SM FEW048 SCT060 BKN095 32/23 A3001 230 57 2300 290/07 RMK AO2 SLP157 T03220228
53843K79J 79J20160727170011807/27/16 17:00:31  5-MIN K79J 272200Z AUTO 30004KT 10SM SCT048 BKN095 33/23 A3001 230 57 2400 310/04 RMK AO2 T03280233
53843K79J 79J20160727170512507/27/16 17:05:31  5-MIN K79J 272205Z AUTO 28005KT 10SM SCT050 SCT060 BKN100 33/23 A3001 230 55 2400 280/05 RMK AO2 T03330233
53843K79J 79J20160727171012507/27/16 17:10:31  5-MIN K79J 272210Z AUTO 25006KT 10SM FEW050 SCT060 BKN100 33/23 A3001 230 53 2400 250/06 RMK AO2 T03330228
53843K79J 79J20160727171511807/27/16 17:15:31  5-MIN K79J 272215Z AUTO 25007KT 10SM FEW055 SCT100 34/22 A3001 230 50 2500 250/07 RMK AO2 T03390222
53843K79J 79J20160727172012507/27/16 17:20:31  5-MIN K79J 272220Z AUTO VRB03KT 10SM FEW050 SCT075 BKN095 33/23 A3001 230 53 2400 VRB/03 RMK AO2 T03330228
53843K79J 79J20160727172512507/27/16 17:25:31  5-MIN K79J 272225Z AUTO 26005KT 10SM SCT050 SCT060 BKN075 34/23 A3001 230 51 2500 260/05 RMK AO2 T03390228
53843K79J 79J20160727173014107/27/16 17:30:31  5-MIN K79J 272230Z AUTO 21007KT 170V280 10SM SCT050 BKN060 BKN075 34/22 A3001 230 50 2500 220/07 170V280 RMK AO2 T03390222
53843K79J 79J20160727173512507/27/16 17:35:31  5-MIN K79J 272235Z AUTO 23008KT 10SM SCT048 BKN060 BKN075 34/22 A3001 230 48 2500 230/08 RMK AO2 T03390217
53843K79J 79J20160727174013107/27/16 17:40:31  5-MIN K79J 272240Z AUTO 22010G17KT 10SM SCT048 BKN060 BKN075 33/22 A3001 230 50 2400 220/10G17 RMK AO2 T03330217
53843K79J 79J20160727174513107/27/16 17:45:31  5-MIN K79J 272245Z AUTO VRB05G17KT 10SM BKN048 BKN060 BKN075 33/22 A3001 230 50 2400 VRB/05G17 RMK AO2 T03330217
53843K79J 79J20160727175012507/27/16 17:50:31  5-MIN K79J 272250Z AUTO 20005KT 10SM BKN047 BKN070 33/22 A3001 230 50 2400 210/05 RMK AO2 SLP158 T03330217
53843K79J 79J20160727175512507/27/16 17:55:31  5-MIN K79J 272255Z AUTO 22008KT 10SM SCT047 BKN070 33/22 A3002 220 50 2400 230/08 RMK AO2 SLP159 T03330217
53843K79J 79J20160727180011807/27/16 18:00:31  5-MIN K79J 272300Z AUTO 23007KT 10SM FEW047 SCT070 33/22 A3002 220 50 2400 230/07 RMK AO2 T03330217
53843K79J 79J20160727180511807/27/16 18:05:31  5-MIN K79J 272305Z AUTO 23007KT 10SM FEW046 SCT070 33/22 A3002 220 50 2400 230/07 RMK AO2 T03330217
53843K79J 79J20160727181011807/27/16 18:10:31  5-MIN K79J 272310Z AUTO VRB05KT 10SM FEW046 FEW070 33/22 A3002 220 50 2400 VRB/05 RMK AO2 T03330217
53843K79J 79J20160727181511107/27/16 18:15:31  5-MIN K79J 272315Z AUTO 22004KT 10SM FEW070 33/22 A3002 220 51 2300 220/04 RMK AO2 T03280217
53843K79J 79J20160727182011807/27/16 18:20:31  5-MIN K79J 272320Z AUTO VRB06KT 10SM FEW055 FEW085 33/22 A3002 220 51 2300 VRB/06 RMK AO2 T03280217
53843K79J 79J20160727182512507/27/16 18:25:31  5-MIN K79J 272325Z AUTO 21005KT 10SM FEW043 SCT055 SCT085 32/22 A3002 220 53 2300 210/05 RMK AO2 T03220217
53843K79J 79J20160727183012507/27/16 18:30:31  5-MIN K79J 272330Z AUTO 21004KT 10SM FEW043 SCT055 BKN085 32/22 A3003 210 53 2300 210/04 RMK AO2 T03220217
53843K79J 79J20160727183512507/27/16 18:35:31  5-MIN K79J 272335Z AUTO 21007KT 10SM FEW055 SCT070 SCT085 32/22 A3003 210 53 2300 220/07 RMK AO2 T03220217
53843K79J 79J20160727184012507/27/16 18:40:31  5-MIN K79J 272340Z AUTO 21005KT 10SM FEW055 FEW070 SCT085 33/22 A3003 210 51 2300 210/05 RMK AO2 T03280217
53843K79J 79J20160727184511807/27/16 18:45:31  5-MIN K79J 272345Z AUTO 22005KT 10SM FEW055 SCT085 33/22 A3003 210 51 2300 220/05 RMK AO2 T03280217
53843K79J 79J20160727185014907/27/16 18:50:31  5-MIN K79J 272350Z AUTO 22006KT 10SM FEW055 FEW090 32/22 A3003 210 55 2300 220/06 RMK AO2 SLP164 60001 T03220222 10361 20317 56019
53843K79J 79J20160727185514207/27/16 18:55:31  5-MIN K79J 272355Z AUTO 22004KT 10SM FEW090 32/22 A3003 210 55 2300 220/04 RMK AO2 SLP163 60001 T03220222 10361 20317 56019
53843K79J 79J20160727190010807/27/16 19:00:31  5-MIN K79J 280000Z AUTO VRB04KT 10SM CLR 32/22 A3003 210 56 2200 VRB/04 RMK AO2 T03170222
53843K79J 79J20160727190510807/27/16 19:05:31  5-MIN K79J 280005Z AUTO 22006KT 10SM CLR 32/22 A3003 210 56 2200 220/06 RMK AO2 T03170222
53843K79J 79J20160727191010807/27/16 19:10:31  5-MIN K79J 280010Z AUTO VRB03KT 10SM CLR 32/22 A3003 210 56 2200 VRB/03 RMK AO2 T03170222
53843K79J 79J20160727191510807/27/16 19:15:31  5-MIN K79J 280015Z AUTO 22005KT 10SM CLR 31/22 A3003 210 58 2100 220/05 RMK AO2 T03110222
53843K79J 79J20160727192010807/27/16 19:20:31  5-MIN K79J 280020Z AUTO 21005KT 10SM CLR 31/22 A3003 210 56 2100 210/05 RMK AO2 T03110217
53843K79J 79J20160727192510807/27/16 19:25:31  5-MIN K79J 280025Z AUTO 21004KT 10SM CLR 31/22 A3003 210 58 2100 210/04 RMK AO2 T03110222
53843K79J 79J20160727193010807/27/16 19:30:31  5-MIN K79J 280030Z AUTO 21004KT 10SM CLR 31/22 A3003 210 58 2100 210/04 RMK AO2 T03110222
53843K79J 79J20160727193510807/27/16 19:35:31  5-MIN K79J 280035Z AUTO 19004KT 10SM CLR 31/22 A3003 210 60 2100 190/04 RMK AO2 T03060222
53843K79J 79J20160727194010807/27/16 19:40:31  5-MIN K79J 280040Z AUTO 19004KT 10SM CLR 31/22 A3003 210 60 2100 200/04 RMK AO2 T03060222
53843K79J 79J20160727194510807/27/16 19:45:31  5-MIN K79J 280045Z AUTO 20004KT 10SM CLR 31/22 A3003 210 60 2100 200/04 RMK AO2 T03060222
53843K79J 79J20160727195011507/27/16 19:50:31  5-MIN K79J 280050Z AUTO 22004KT 10SM CLR 31/22 A3003 210 60 2100 220/04 RMK AO2 SLP163 T03060222
53843K79J 79J20160727195511507/27/16 19:55:31  5-MIN K79J 280055Z AUTO 22004KT 10SM CLR 31/22 A3003 210 60 2100 220/04 RMK AO2 SLP164 T03060222
53843K79J 79J20160727200010807/27/16 20:00:31  5-MIN K79J 280100Z AUTO 22004KT 10SM CLR 30/22 A3003 210 62 2000 220/04 RMK AO2 T03000222
53843K79J 79J20160727200510807/27/16 20:05:31  5-MIN K79J 280105Z AUTO 22004KT 10SM CLR 30/22 A3003 210 62 2000 220/04 RMK AO2 T03000222
53843K79J 79J20160727201010807/27/16 20:10:31  5-MIN K79J 280110Z AUTO 21003KT 10SM CLR 30/22 A3003 210 62 2000 210/03 RMK AO2 T03000222
53843K79J 79J20160727201510807/27/16 20:15:31  5-MIN K79J 280115Z AUTO VRB03KT 10SM CLR 30/22 A3003 210 62 2000 VRB/03 RMK AO2 T03000222
53843K79J 79J20160727202010807/27/16 20:20:31  5-MIN K79J 280120Z AUTO 21004KT 10SM CLR 30/22 A3003 210 62 2000 220/04 RMK AO2 T03000222
53843K79J 79J20160727202510807/27/16 20:25:31  5-MIN K79J 280125Z AUTO 21004KT 10SM CLR 30/23 A3004 210 65 2000 210/04 RMK AO2 T03000228
53843K79J 79J20160727203010807/27/16 20:30:31  5-MIN K79J 280130Z AUTO 20003KT 10SM CLR 29/22 A3003 210 64 2000 210/03 RMK AO2 T02940222
53843K79J 79J20160727203510807/27/16 20:35:31  5-MIN K79J 280135Z AUTO VRB04KT 10SM CLR 29/22 A3003 210 64 2000 VRB/04 RMK AO2 T02940222
53843K79J 79J20160727204010807/27/16 20:40:31  5-MIN K79J 280140Z AUTO 22005KT 10SM CLR 29/22 A3004 210 64 2000 220/05 RMK AO2 T02940222
53843K79J 79J20160727204510807/27/16 20:45:31  5-MIN K79J 280145Z AUTO 22004KT 10SM CLR 29/22 A3004 200 64 1900 220/04 RMK AO2 T02940222
53843K79J 79J20160727205011507/27/16 20:50:31  5-MIN K79J 280150Z AUTO 22003KT 10SM CLR 29/22 A3004 200 64 1900 220/03 RMK AO2 SLP167 T02940222
53843K79J 79J20160727205512507/27/16 20:55:31  5-MIN K79J 280155Z AUTO 23005KT 10SM FEW028 FEW050 29/22 A3004 200 64 1900 230/05 RMK AO2 SLP167 T02940222
53843K79J 79J20160727210011807/27/16 21:00:31  5-MIN K79J 280200Z AUTO 23009KT 10SM FEW028 FEW050 29/22 A3004 200 64 1900 230/09 RMK AO2 T02940222
53843K79J 79J20160727210511707/27/16 21:05:31  5-MIN K79J 280205Z AUTO 25010G15KT 10SM FEW028 29/22 A3005 190 64 1900 250/10G15 RMK AO2 T02940222
53843K79J 79J20160727211011107/27/16 21:10:31  5-MIN K79J 280210Z AUTO 25008KT 10SM FEW028 29/22 A3005 190 62 1900 250/08 RMK AO2 T02940217
53843K79J 79J20160727211511107/27/16 21:15:31  5-MIN K79J 280215Z AUTO 26007KT 10SM FEW028 29/21 A3005 190 62 1900 260/07 RMK AO2 T02890211
53843K79J 79J20160727212011107/27/16 21:20:31  5-MIN K79J 280220Z AUTO 26006KT 10SM FEW028 29/21 A3005 190 62 1900 260/06 RMK AO2 T02890211
53843K79J 79J20160727212510807/27/16 21:25:31  5-MIN K79J 280225Z AUTO 25004KT 10SM CLR 28/21 A3005 190 64 1800 250/04 RMK AO2 T02830211
53843K79J 79J20160727213010807/27/16 21:30:31  5-MIN K79J 280230Z AUTO 25004KT 10SM CLR 28/21 A3005 190 64 1800 250/04 RMK AO2 T02830211
53843K79J 79J20160727213510807/27/16 21:35:31  5-MIN K79J 280235Z AUTO 26004KT 10SM CLR 28/21 A3005 190 66 1700 260/04 RMK AO2 T02780211
53843K79J 79J20160727214010807/27/16 21:40:31  5-MIN K79J 280240Z AUTO 25003KT 10SM CLR 28/21 A3005 190 64 1800 250/03 RMK AO2 T02830211
53843K79J 79J20160727214510807/27/16 21:45:31  5-MIN K79J 280245Z AUTO 24003KT 10SM CLR 28/21 A3005 190 66 1700 240/03 RMK AO2 T02780211
53843K79J 79J20160727215012107/27/16 21:50:31  5-MIN K79J 280250Z AUTO 00000KT 10SM CLR 28/21 A3005 190 66 1700 000/00 RMK AO2 SLP172 T02780211 53005
53843K79J 79J20160727215512107/27/16 21:55:31  5-MIN K79J 280255Z AUTO 25003KT 10SM CLR 27/21 A3006 190 69 1700 250/03 RMK AO2 SLP173 T02720211 53005
53843K79J 79J20160727220010807/27/16 22:00:31  5-MIN K79J 280300Z AUTO 00000KT 10SM CLR 28/21 A3005 190 66 1700 000/00 RMK AO2 T02780211
53843K79J 79J20160727220510807/27/16 22:05:31  5-MIN K79J 280305Z AUTO 00000KT 10SM CLR 27/21 A3005 190 69 1700 000/00 RMK AO2 T02720211
53843K79J 79J20160727221010807/27/16 22:10:31  5-MIN K79J 280310Z AUTO 20003KT 10SM CLR 27/21 A3005 190 69 1700 200/03 RMK AO2 T02720211
53843K79J 79J20160727221510807/27/16 22:15:31  5-MIN K79J 280315Z AUTO 21003KT 10SM CLR 27/21 A3005 190 69 1700 210/03 RMK AO2 T02720211
53843K79J 79J20160727222010807/27/16 22:20:31  5-MIN K79J 280320Z AUTO 00000KT 10SM CLR 27/21 A3005 200 71 1600 000/00 RMK AO2 T02670211
53843K79J 79J20160727222510807/27/16 22:25:31  5-MIN K79J 280325Z AUTO 17003KT 10SM CLR 27/21 A3005 190 71 1600 170/03 RMK AO2 T02670211
53843K79J 79J20160727223010807/27/16 22:30:31  5-MIN K79J 280330Z AUTO 00000KT 10SM CLR 27/21 A3005 200 71 1600 000/00 RMK AO2 T02670211
53843K79J 79J20160727223510807/27/16 22:35:31  5-MIN K79J 280335Z AUTO 00000KT 10SM CLR 27/21 A3005 200 71 1600 000/00 RMK AO2 T02670211
53843K79J 79J20160727224010807/27/16 22:40:31  5-MIN K79J 280340Z AUTO 00000KT 10SM CLR 27/21 A3005 190 71 1600 000/00 RMK AO2 T02670211
53843K79J 79J20160727224510807/27/16 22:45:31  5-MIN K79J 280345Z AUTO 00000KT 10SM CLR 27/22 A3005 190 73 1600 000/00 RMK AO2 T02670217
53843K79J 79J20160727225011507/27/16 22:50:31  5-MIN K79J 280350Z AUTO 00000KT 10SM CLR 26/21 A3005 190 73 1600 000/00 RMK AO2 SLP171 T02610211
53843K79J 79J20160727225511507/27/16 22:55:31  5-MIN K79J 280355Z AUTO 00000KT 10SM CLR 26/21 A3005 190 73 1600 000/00 RMK AO2 SLP171 T02610211
53843K79J 79J20160727230010807/27/16 23:00:31  5-MIN K79J 280400Z AUTO 00000KT 10SM CLR 26/21 A3005 190 73 1600 000/00 RMK AO2 T02610211
53843K79J 79J20160727230510807/27/16 23:05:31  5-MIN K79J 280405Z AUTO 00000KT 10SM CLR 26/22 A3005 190 79 1500 000/00 RMK AO2 T02560217
53843K79J 79J20160727231010807/27/16 23:10:31  5-MIN K79J 280410Z AUTO 00000KT 10SM CLR 26/22 A3005 190 79 1500 000/00 RMK AO2 T02560217
53843K79J 79J20160727231510807/27/16 23:15:31  5-MIN K79J 280415Z AUTO 00000KT 10SM CLR 26/22 A3005 190 79 1500 000/00 RMK AO2 T02560217
53843K79J 79J20160727232010807/27/16 23:20:31  5-MIN K79J 280420Z AUTO 00000KT 10SM CLR 26/22 A3005 190 79 1500 000/00 RMK AO2 T02560217
53843K79J 79J20160727232510807/27/16 23:25:31  5-MIN K79J 280425Z AUTO 00000KT 10SM CLR 26/22 A3005 190 79 1500 000/00 RMK AO2 T02560217
53843K79J 79J20160727233010807/27/16 23:30:31  5-MIN K79J 280430Z AUTO 00000KT 10SM CLR 26/22 A3005 190 79 1500 000/00 RMK AO2 T02560217
53843K79J 79J20160727233510807/27/16 23:35:31  5-MIN K79J 280435Z AUTO 00000KT 10SM CLR 25/22 A3005 200 81 1400 000/00 RMK AO2 T02500217
53843K79J 79J20160727234010807/27/16 23:40:31  5-MIN K79J 280440Z AUTO 00000KT 10SM CLR 25/22 A3005 200 81 1400 000/00 RMK AO2 T02500217
53843K79J 79J20160727234510807/27/16 23:45:31  5-MIN K79J 280445Z AUTO 00000KT 10SM CLR 26/22 A3004 200 79 1500 000/00 RMK AO2 T02560217
53843K79J 79J20160727235012507/27/16 23:50:31  5-MIN K79J 280450Z AUTO 00000KT 10SM CLR 25/22 A3004 200 81 1400 000/00 RMK AO2 SLP168 T02500217 403610244
53843K79J 79J20160727235512507/27/16 23:55:31  5-MIN K79J 280455Z AUTO 00000KT 10SM CLR 25/22 A3004 200 81 1400 000/00 RMK AO2 SLP168 T02500217 403610244
53843K79J 79J20160728000010807/28/16 00:00:31  5-MIN K79J 280500Z AUTO 00000KT 10SM CLR 26/22 A3005 200 79 1500 000/00 RMK AO2 T02560217
53843K79J 79J20160728000510807/28/16 00:05:31  5-MIN K79J 280505Z AUTO 00000KT 10SM CLR 26/22 A3005 190 79 1500 000/00 RMK AO2 T02560217
53843K79J 79J20160728001010807/28/16 00:10:31  5-MIN K79J 280510Z AUTO 00000KT 10SM CLR 26/22 A3005 190 79 1500 000/00 RMK AO2 T02560217
53843K79J 79J20160728001510807/28/16 00:15:31  5-MIN K79J 280515Z AUTO 00000KT 10SM CLR 26/21 A3005 190 76 1500 000/00 RMK AO2 T02560211
53843K79J 79J20160728002010807/28/16 00:20:31  5-MIN K79J 280520Z AUTO 00000KT 10SM CLR 26/22 A3005 190 79 1500 000/00 RMK AO2 T02560217
53843K79J 79J20160728002510807/28/16 00:25:31  5-MIN K79J 280525Z AUTO 00000KT 10SM CLR 26/22 A3005 190 79 1500 000/00 RMK AO2 T02560217
53843K79J 79J20160728003010807/28/16 00:30:31  5-MIN K79J 280530Z AUTO 00000KT 10SM CLR 26/22 A3005 190 79 1500 000/00 RMK AO2 T02560217
53843K79J 79J20160728003510807/28/16 00:35:31  5-MIN K79J 280535Z AUTO 00000KT 10SM CLR 26/22 A3005 190 79 1500 000/00 RMK AO2 T02560217
53843K79J 79J20160728004010807/28/16 00:40:31  5-MIN K79J 280540Z AUTO 00000KT 10SM CLR 25/22 A3005 200 81 1400 000/00 RMK AO2 T02500217
53843K79J 79J20160728004510807/28/16 00:45:31  5-MIN K79J 280545Z AUTO 00000KT 10SM CLR 25/22 A3005 200 81 1400 000/00 RMK AO2 T02500217
53843K79J 79J20160728005013307/28/16 00:50:31  5-MIN K79J 280550Z AUTO 00000KT 10SM CLR 25/22 A3004 200 81 1400 000/00 RMK AO2 SLP169 T02500217 10322 20250 53009
53843K79J 79J20160728005513307/28/16 00:55:31  5-MIN K79J 280555Z AUTO 00000KT 10SM CLR 25/22 A3005 200 81 1400 000/00 RMK AO2 SLP169 T02500217 10322 20250 53009
53843K79J 79J20160728010010807/28/16 01:00:31  5-MIN K79J 280600Z AUTO 00000KT 10SM CLR 25/22 A3004 200 81 1400 000/00 RMK AO2 T02500217
53843K79J 79J20160728010510807/28/16 01:05:31  5-MIN K79J 280605Z AUTO 00000KT 10SM CLR 26/22 A3004 200 79 1500 000/00 RMK AO2 T02560217
53843K79J 79J20160728011010807/28/16 01:10:31  5-MIN K79J 280610Z AUTO 00000KT 10SM CLR 26/22 A3004 200 79 1500 000/00 RMK AO2 T02560217
53843K79J 79J20160728011510807/28/16 01:15:31  5-MIN K79J 280615Z AUTO 00000KT 10SM CLR 26/22 A3004 200 79 1500 000/00 RMK AO2 T02560217
53843K79J 79J20160728012010807/28/16 01:20:31  5-MIN K79J 280620Z AUTO 00000KT 10SM CLR 25/22 A3004 200 81 1400 000/00 RMK AO2 T02500217
53843K79J 79J20160728012510807/28/16 01:25:31  5-MIN K79J 280625Z AUTO 00000KT 10SM CLR 25/22 A3004 200 81 1400 000/00 RMK AO2 T02500217
53843K79J 79J20160728013010807/28/16 01:30:31  5-MIN K79J 280630Z AUTO 00000KT 10SM CLR 25/22 A3004 200 81 1400 000/00 RMK AO2 T02500217
53843K79J 79J20160728013510807/28/16 01:35:31  5-MIN K79J 280635Z AUTO 00000KT 10SM CLR 24/22 A3004 200 84 1400 000/00 RMK AO2 T02440217
53843K79J 79J20160728014010807/28/16 01:40:31  5-MIN K79J 280640Z AUTO 00000KT 10SM CLR 24/22 A3004 200 84 1400 000/00 RMK AO2 T02440217
53843K79J 79J20160728014510807/28/16 01:45:31  5-MIN K79J 280645Z AUTO 00000KT 10SM CLR 24/22 A3004 200 84 1400 000/00 RMK AO2 T02440217
53843K79J 79J20160728015011507/28/16 01:50:31  5-MIN K79J 280650Z AUTO 00000KT 10SM CLR 24/22 A3004 200 84 1400 000/00 RMK AO2 SLP169 T02440217
53843K79J 79J20160728015511507/28/16 01:55:31  5-MIN K79J 280655Z AUTO 00000KT 10SM CLR 24/22 A3004 200 84 1400 000/00 RMK AO2 SLP168 T02440217
53843K79J 79J20160728020010807/28/16 02:00:31  5-MIN K79J 280700Z AUTO 00000KT 10SM CLR 24/22 A3004 200 84 1400 000/00 RMK AO2 T02440217
53843K79J 79J20160728020510807/28/16 02:05:31  5-MIN K79J 280705Z AUTO 00000KT 10SM CLR 24/22 A3004 200 84 1400 000/00 RMK AO2 T02440217
53843K79J 79J20160728021010807/28/16 02:10:31  5-MIN K79J 280710Z AUTO 00000KT 10SM CLR 24/22 A3004 200 84 1400 000/00 RMK AO2 T02440217
53843K79J 79J20160728021510807/28/16 02:15:31  5-MIN K79J 280715Z AUTO 00000KT 10SM CLR 24/22 A3004 200 84 1400 000/00 RMK AO2 T02440217
53843K79J 79J20160728022010807/28/16 02:20:31  5-MIN K79J 280720Z AUTO 00000KT 10SM CLR 24/22 A3004 200 84 1400 000/00 RMK AO2 T02440217
53843K79J 79J20160728022510807/28/16 02:25:31  5-MIN K79J 280725Z AUTO 00000KT 10SM CLR 24/21 A3004 200 84 1300 000/00 RMK AO2 T02390211
53843K79J 79J20160728023010807/28/16 02:30:31  5-MIN K79J 280730Z AUTO 11003KT 10SM CLR 24/21 A3004 200 84 1300 110/03 RMK AO2 T02390211
53843K79J 79J20160728023510807/28/16 02:35:31  5-MIN K79J 280735Z AUTO 00000KT 10SM CLR 24/22 A3004 200 87 1300 000/00 RMK AO2 T02390217
53843K79J 79J20160728024010807/28/16 02:40:31  5-MIN K79J 280740Z AUTO 00000KT 10SM CLR 24/21 A3004 200 84 1300 000/00 RMK AO2 T02390211
53843K79J 79J20160728024510807/28/16 02:45:31  5-MIN K79J 280745Z AUTO 00000KT 10SM CLR 24/21 A3005 200 84 1300 000/00 RMK AO2 T02390211
53843K79J 79J20160728025011507/28/16 02:50:31  5-MIN K79J 280750Z AUTO 00000KT 10SM CLR 24/21 A3004 200 84 1300 000/00 RMK AO2 SLP168 T02390211
53843K79J 79J20160728025511507/28/16 02:55:31  5-MIN K79J 280755Z AUTO 00000KT 10SM CLR 24/21 A3004 200 84 1300 000/00 RMK AO2 SLP167 T02390211
53843K79J 79J20160728030010807/28/16 03:00:31  5-MIN K79J 280800Z AUTO 00000KT 10SM CLR 24/21 A3004 200 84 1300 000/00 RMK AO2 T02390211
53843K79J 79J20160728030510807/28/16 03:05:31  5-MIN K79J 280805Z AUTO 00000KT 10SM CLR 24/21 A3004 200 84 1300 000/00 RMK AO2 T02390211
53843K79J 79J20160728031010807/28/16 03:10:31  5-MIN K79J 280810Z AUTO 00000KT 10SM CLR 24/21 A3004 200 81 1400 000/00 RMK AO2 T02440211
53843K79J 79J20160728031510807/28/16 03:15:31  5-MIN K79J 280815Z AUTO 00000KT 10SM CLR 24/21 A3004 200 81 1400 000/00 RMK AO2 T02440211
53843K79J 79J20160728032010807/28/16 03:20:31  5-MIN K79J 280820Z AUTO 00000KT 10SM CLR 24/21 A3005 200 84 1300 000/00 RMK AO2 T02390211
53843K79J 79J20160728032510807/28/16 03:25:31  5-MIN K79J 280825Z AUTO 00000KT 10SM CLR 24/21 A3005 200 84 1300 000/00 RMK AO2 T02390211
53843K79J 79J20160728033010807/28/16 03:30:31  5-MIN K79J 280830Z AUTO 00000KT 10SM CLR 24/21 A3005 200 84 1300 000/00 RMK AO2 T02390211
53843K79J 79J20160728033510807/28/16 03:35:31  5-MIN K79J 280835Z AUTO 00000KT 10SM CLR 24/21 A3005 200 84 1300 000/00 RMK AO2 T02390211
53843K79J 79J20160728034010807/28/16 03:40:31  5-MIN K79J 280840Z AUTO 00000KT 10SM CLR 24/21 A3005 200 84 1300 000/00 RMK AO2 T02390211
53843K79J 79J20160728034510807/28/16 03:45:31  5-MIN K79J 280845Z AUTO 00000KT 10SM CLR 24/21 A3005 200 84 1300 000/00 RMK AO2 T02390211
53843K79J 79J20160728035012107/28/16 03:50:31  5-MIN K79J 280850Z AUTO 00000KT 10SM CLR 24/21 A3005 200 84 1300 000/00 RMK AO2 SLP169 T02390211 55003
53843K79J 79J20160728035512107/28/16 03:55:31  5-MIN K79J 280855Z AUTO 00000KT 10SM CLR 24/21 A3004 200 84 1300 000/00 RMK AO2 SLP169 T02390211 55003
53843K79J 79J20160728040010807/28/16 04:00:31  5-MIN K79J 280900Z AUTO 15003KT 10SM CLR 24/21 A3004 200 84 1300 150/03 RMK AO2 T02390211
53843K79J 79J20160728040510807/28/16 04:05:31  5-MIN K79J 280905Z AUTO 00000KT 10SM CLR 24/21 A3005 190 84 1300 000/00 RMK AO2 T02390211
53843K79J 79J20160728041010807/28/16 04:10:31  5-MIN K79J 280910Z AUTO 00000KT 10SM CLR 24/21 A3005 190 84 1300 000/00 RMK AO2 T02390211
53843K79J 79J20160728041510807/28/16 04:15:31  5-MIN K79J 280915Z AUTO 00000KT 10SM CLR 24/21 A3005 190 84 1300 000/00 RMK AO2 T02390211
53843K79J 79J20160728042010807/28/16 04:20:31  5-MIN K79J 280920Z AUTO 00000KT 10SM CLR 24/21 A3005 190 84 1300 000/00 RMK AO2 T02390211
53843K79J 79J20160728042510807/28/16 04:25:31  5-MIN K79J 280925Z AUTO 00000KT 10SM CLR 24/21 A3005 190 84 1300 000/00 RMK AO2 T02390211
53843K79J 79J20160728043010807/28/16 04:30:31  5-MIN K79J 280930Z AUTO 00000KT 10SM CLR 24/21 A3005 190 84 1300 000/00 RMK AO2 T02390211
53843K79J 79J20160728043510807/28/16 04:35:31  5-MIN K79J 280935Z AUTO 00000KT 10SM CLR 24/21 A3005 190 84 1300 000/00 RMK AO2 T02390211
53843K79J 79J20160728044010707/28/16 04:40:31  5-MIN K79J 280940Z AUTO 00000KT 9SM CLR 24/21 A3005 190 84 1300 000/00 RMK AO2 T02390211
53843K79J 79J20160728044510807/28/16 04:45:31  5-MIN K79J 280945Z AUTO 00000KT 10SM CLR 24/21 A3005 190 84 1300 000/00 RMK AO2 T02390211
53843K79J 79J20160728045011507/28/16 04:50:31  5-MIN K79J 280950Z AUTO 00000KT 10SM CLR 24/21 A3005 190 84 1300 000/00 RMK AO2 SLP172 T02390211
53843K79J 79J20160728045511507/28/16 04:55:31  5-MIN K79J 280955Z AUTO 00000KT 10SM CLR 24/21 A3006 190 84 1300 000/00 RMK AO2 SLP172 T02390211
53843K79J 79J20160728050010807/28/16 05:00:31  5-MIN K79J 281000Z AUTO 00000KT 10SM CLR 24/21 A3006 190 84 1300 000/00 RMK AO2 T02390211
53843K79J 79J20160728050510807/28/16 05:05:31  5-MIN K79J 281005Z AUTO 00000KT 10SM CLR 24/21 A3006 190 84 1300 000/00 RMK AO2 T02390211
53843K79J 79J20160728051010807/28/16 05:10:31  5-MIN K79J 281010Z AUTO 00000KT 10SM CLR 24/21 A3006 190 84 1300 000/00 RMK AO2 T02390211
53843K79J 79J20160728051510807/28/16 05:15:31  5-MIN K79J 281015Z AUTO 00000KT 10SM CLR 24/21 A3006 180 84 1300 000/00 RMK AO2 T02390211
53843K79J 79J20160728052010807/28/16 05:20:31  5-MIN K79J 281020Z AUTO 00000KT 10SM CLR 24/21 A3006 180 84 1300 000/00 RMK AO2 T02390211
53843K79J 79J20160728052510707/28/16 05:25:31  5-MIN K79J 281025Z AUTO 00000KT 9SM CLR 23/21 A3006 180 87 1200 000/00 RMK AO2 T02330211
53843K79J 79J20160728053010707/28/16 05:30:31  5-MIN K79J 281030Z AUTO 00000KT 8SM CLR 23/21 A3006 180 84 1200 000/00 RMK AO2 T02330206
53843K79J 79J20160728053510707/28/16 05:35:31  5-MIN K79J 281035Z AUTO 00000KT 8SM CLR 23/21 A3006 180 84 1200 000/00 RMK AO2 T02330206
53843K79J 79J20160728054010707/28/16 05:40:31  5-MIN K79J 281040Z AUTO 00000KT 9SM CLR 23/21 A3006 180 84 1200 000/00 RMK AO2 T02330206
53843K79J 79J20160728054510707/28/16 05:45:31  5-MIN K79J 281045Z AUTO 00000KT 9SM CLR 23/21 A3006 180 87 1200 000/00 RMK AO2 T02330211
53843K79J 79J20160728055011507/28/16 05:50:31  5-MIN K79J 281050Z AUTO 00000KT 10SM CLR 23/21 A3006 180 87 1200 000/00 RMK AO2 SLP175 T02330211
53843K79J 79J20160728055511507/28/16 05:55:31  5-MIN K79J 281055Z AUTO 00000KT 10SM CLR 23/21 A3006 180 84 1200 000/00 RMK AO2 SLP175 T02330206
53843K79J 79J20160728060010807/28/16 06:00:31  5-MIN K79J 281100Z AUTO 00000KT 10SM CLR 23/21 A3006 180 84 1200 000/00 RMK AO2 T02330206
53843K79J 79J20160728060510707/28/16 06:05:31  5-MIN K79J 281105Z AUTO 00000KT 8SM CLR 23/21 A3006 180 84 1200 000/00 RMK AO2 T02330206
53843K79J 79J20160728061010707/28/16 06:10:31  5-MIN K79J 281110Z AUTO 00000KT 7SM CLR 23/21 A3006 180 84 1200 000/00 RMK AO2 T02330206
53843K79J 79J20160728061510707/28/16 06:15:31  5-MIN K79J 281115Z AUTO 00000KT 8SM CLR 23/21 A3006 180 84 1200 000/00 RMK AO2 T02330206
53843K79J 79J20160728062010707/28/16 06:20:31  5-MIN K79J 281120Z AUTO 00000KT 9SM CLR 24/21 A3006 180 81 1300 000/00 RMK AO2 T02390206
53843K79J 79J20160728062510807/28/16 06:25:31  5-MIN K79J 281125Z AUTO 28003KT 10SM CLR 23/21 A3006 180 84 1200 290/03 RMK AO2 T02330206
53843K79J 79J20160728063010807/28/16 06:30:31  5-MIN K79J 281130Z AUTO 00000KT 10SM CLR 24/21 A3006 180 84 1300 000/00 RMK AO2 T02390211
53843K79J 79J20160728063510807/28/16 06:35:31  5-MIN K79J 281135Z AUTO 00000KT 10SM CLR 24/21 A3006 180 84 1300 000/00 RMK AO2 T02390211
53843K79J 79J20160728064010807/28/16 06:40:31  5-MIN K79J 281140Z AUTO 00000KT 10SM CLR 24/22 A3006 180 84 1400 000/00 RMK AO2 T02440217
53843K79J 79J20160728064510807/28/16 06:45:31  5-MIN K79J 281145Z AUTO 00000KT 10SM CLR 24/22 A3006 180 84 1400 000/00 RMK AO2 T02440217
53843K79J 79J20160728065013907/28/16 06:50:31  5-MIN K79J 281150Z AUTO 00000KT 10SM CLR 25/22 A3006 180 81 1400 000/00 RMK AO2 SLP174 70001 T02500217 10256 20233 55001
53843K79J 79J20160728065513907/28/16 06:55:31  5-MIN K79J 281155Z AUTO 00000KT 10SM CLR 25/22 A3006 180 81 1400 000/00 RMK AO2 SLP174 70001 T02500217 10256 20233 55001
53843K79J 79J20160728070010807/28/16 07:00:31  5-MIN K79J 281200Z AUTO 00000KT 10SM CLR 26/22 A3006 180 81 1500 000/00 RMK AO2 T02560222
53843K79J 79J20160728070510807/28/16 07:05:31  5-MIN K79J 281205Z AUTO 00000KT 10SM CLR 26/22 A3006 180 81 1500 000/00 RMK AO2 T02560222
53843K79J 79J20160728071010807/28/16 07:10:31  5-MIN K79J 281210Z AUTO 25003KT 10SM CLR 26/22 A3006 180 81 1500 260/03 RMK AO2 T02560222
53843K79J 79J20160728071510807/28/16 07:15:31  5-MIN K79J 281215Z AUTO 00000KT 10SM CLR 26/23 A3006 180 84 1500 000/00 RMK AO2 T02560228
53843K79J 79J20160728072010807/28/16 07:20:31  5-MIN K79J 281220Z AUTO 25004KT 10SM CLR 26/23 A3006 180 81 1500 250/04 RMK AO2 T02610228
53843K79J 79J20160728072510807/28/16 07:25:31  5-MIN K79J 281225Z AUTO 24003KT 10SM CLR 26/23 A3006 180 81 1500 250/03 RMK AO2 T02610228
53843K79J 79J20160728073010807/28/16 07:30:31  5-MIN K79J 281230Z AUTO 25003KT 10SM CLR 26/23 A3006 180 81 1500 250/03 RMK AO2 T02610228
53843K79J 79J20160728073510807/28/16 07:35:31  5-MIN K79J 281235Z AUTO 25003KT 10SM CLR 27/23 A3006 180 79 1600 250/03 RMK AO2 T02670228
53843K79J 79J20160728074010807/28/16 07:40:31  5-MIN K79J 281240Z AUTO 25003KT 10SM CLR 27/23 A3006 180 79 1600 250/03 RMK AO2 T02670228
53843K79J 79J20160728074510807/28/16 07:45:31  5-MIN K79J 281245Z AUTO VRB03KT 10SM CLR 27/23 A3007 180 76 1700 VRB/03 RMK AO2 T02720228
53843K79J 79J20160728075011507/28/16 07:50:31  5-MIN K79J 281250Z AUTO 26004KT 10SM CLR 28/23 A3006 180 74 1700 260/04 RMK AO2 SLP175 T02780228
53843K79J 79J20160728075511507/28/16 07:55:31  5-MIN K79J 281255Z AUTO 26004KT 10SM CLR 28/23 A3007 180 74 1700 260/04 RMK AO2 SLP176 T02780228
53843K79J 79J20160728080010807/28/16 08:00:31  5-MIN K79J 281300Z AUTO 25004KT 10SM CLR 28/23 A3007 170 71 1800 250/04 RMK AO2 T02830228
53843K79J 79J20160728080510807/28/16 08:05:31  5-MIN K79J 281305Z AUTO 25004KT 10SM CLR 28/23 A3007 170 74 1800 250/04 RMK AO2 T02830233
53843K79J 79J20160728081010807/28/16 08:10:31  5-MIN K79J 281310Z AUTO 26005KT 10SM CLR 29/23 A3007 170 71 1900 260/05 RMK AO2 T02890233
53843K79J 79J20160728081510807/28/16 08:15:31  5-MIN K79J 281315Z AUTO 23004KT 10SM CLR 29/23 A3007 170 71 1900 230/04 RMK AO2 T02890233
53843K79J 79J20160728082010807/28/16 08:20:31  5-MIN K79J 281320Z AUTO 24004KT 10SM CLR 29/23 A3007 170 69 1900 240/04 RMK AO2 T02940233
53843K79J 79J20160728082510807/28/16 08:25:31  5-MIN K79J 281325Z AUTO 26004KT 10SM CLR 29/23 A3007 170 69 1900 260/04 RMK AO2 T02940233
53843K79J 79J20160728083010807/28/16 08:30:31  5-MIN K79J 281330Z AUTO 25004KT 10SM CLR 29/23 A3007 170 69 1900 250/04 RMK AO2 T02940233
53843K79J 79J20160728083510807/28/16 08:35:31  5-MIN K79J 281335Z AUTO 26005KT 10SM CLR 30/23 A3007 170 67 2000 260/05 RMK AO2 T03000233
53843K79J 79J20160728084010807/28/16 08:40:31  5-MIN K79J 281340Z AUTO 25005KT 10SM CLR 30/24 A3007 170 69 2000 250/05 RMK AO2 T03000239
53843K79J 79J20160728084510807/28/16 08:45:31  5-MIN K79J 281345Z AUTO 24007KT 10SM CLR 31/24 A3007 170 67 2000 240/07 RMK AO2 T03060239
53843K79J 79J20160728085011507/28/16 08:50:31  5-MIN K79J 281350Z AUTO 25005KT 10SM CLR 31/23 A3007 170 65 2000 250/05 RMK AO2 SLP178 T03060233
53843K79J 79J20160728085511507/28/16 08:55:31  5-MIN K79J 281355Z AUTO 24007KT 10SM CLR 31/23 A3007 170 65 2000 240/07 RMK AO2 SLP178 T03060233
53843K79J 79J20160728090010807/28/16 09:00:31  5-MIN K79J 281400Z AUTO 25004KT 10SM CLR 31/24 A3007 170 67 2000 260/04 RMK AO2 T03060239
53843K79J 79J20160728090510807/28/16 09:05:31  5-MIN K79J 281405Z AUTO 27005KT 10SM CLR 31/23 A3007 180 63 2100 270/05 RMK AO2 T03110233
53843K79J 79J20160728091010807/28/16 09:10:31  5-MIN K79J 281410Z AUTO 28006KT 10SM CLR 31/24 A3007 180 65 2100 280/06 RMK AO2 T03110239
53843K79J 79J20160728091510807/28/16 09:15:31  5-MIN K79J 281415Z AUTO VRB04KT 10SM CLR 32/23 A3007 180 61 2200 VRB/04 RMK AO2 T03170233
53843K79J 79J20160728092010807/28/16 09:20:31  5-MIN K79J 281420Z AUTO VRB04KT 10SM CLR 32/23 A3007 180 61 2200 VRB/04 RMK AO2 T03170233
53843K79J 79J20160728092510807/28/16 09:25:31  5-MIN K79J 281425Z AUTO 27005KT 10SM CLR 32/23 A3007 180 61 2200 270/05 RMK AO2 T03170233
53843K79J 79J20160728093010807/28/16 09:30:31  5-MIN K79J 281430Z AUTO VRB03KT 10SM CLR 32/23 A3007 180 59 2200 VRB/03 RMK AO2 T03220233
53843K79J 79J20160728093510807/28/16 09:35:31  5-MIN K79J 281435Z AUTO 24005KT 10SM CLR 32/23 A3007 180 57 2200 240/05 RMK AO2 T03220228
53843K79J 79J20160728094010807/28/16 09:40:31  5-MIN K79J 281440Z AUTO 25006KT 10SM CLR 32/23 A3007 180 57 2200 250/06 RMK AO2 T03220228
53843K79J 79J20160728094510807/28/16 09:45:31  5-MIN K79J 281445Z AUTO VRB05KT 10SM CLR 32/23 A3007 180 57 2200 VRB/05 RMK AO2 T03220228
53843K79J 79J20160728095012107/28/16 09:50:31  5-MIN K79J 281450Z AUTO 25006KT 10SM CLR 32/22 A3007 170 55 2200 250/06 RMK AO2 SLP177 T03220222 50006
53843K79J 79J20160728095512107/28/16 09:55:31  5-MIN K79J 281455Z AUTO 27005KT 10SM CLR 32/22 A3007 180 55 2200 270/05 RMK AO2 SLP177 T03220222 50006
53843K79J 79J20160728100010807/28/16 10:00:31  5-MIN K79J 281500Z AUTO 23005KT 10SM CLR 32/22 A3007 180 55 2200 230/05 RMK AO2 T03220222
53843K79J 79J20160728100510807/28/16 10:05:31  5-MIN K79J 281505Z AUTO 26006KT 10SM CLR 33/22 A3007 180 53 2300 260/06 RMK AO2 T03280222
53843K79J 79J20160728101010807/28/16 10:10:31  5-MIN K79J 281510Z AUTO VRB05KT 10SM CLR 33/22 A3007 180 53 2300 VRB/05 RMK AO2 T03280222
53843K79J 79J20160728101510807/28/16 10:15:31  5-MIN K79J 281515Z AUTO 24005KT 10SM CLR 33/22 A3007 180 53 2300 240/05 RMK AO2 T03280222
53843K79J 79J20160728102010807/28/16 10:20:31  5-MIN K79J 281520Z AUTO 27005KT 10SM CLR 33/22 A3006 180 53 2300 280/05 RMK AO2 T03280222
53843K79J 79J20160728102510807/28/16 10:25:31  5-MIN K79J 281525Z AUTO VRB03KT 10SM CLR 33/22 A3007 180 51 2300 VRB/03 RMK AO2 T03330222
53843K79J 79J20160728103010807/28/16 10:30:31  5-MIN K79J 281530Z AUTO 28005KT 10SM CLR 33/22 A3007 180 50 2300 280/05 RMK AO2 T03330217
53843K79J 79J20160728103510807/28/16 10:35:31  5-MIN K79J 281535Z AUTO 26005KT 10SM CLR 33/22 A3007 180 50 2300 260/05 RMK AO2 T03330217
53843K79J 79J20160728104010807/28/16 10:40:31  5-MIN K79J 281540Z AUTO 22005KT 10SM CLR 33/22 A3007 180 50 2300 220/05 RMK AO2 T03330217
53843K79J 79J20160728104510807/28/16 10:45:31  5-MIN K79J 281545Z AUTO 27006KT 10SM CLR 33/22 A3007 180 50 2300 270/06 RMK AO2 T03330217
53843K79J 79J20160728105011807/28/16 10:50:31  5-MIN K79J 281550Z AUTO 30004KT 10SM FEW036 34/22 A3007 180 48 2400 300/04 RMK AO2 SLP176 T03390217
53843K79J 79J20160728105511807/28/16 10:55:31  5-MIN K79J 281555Z AUTO 27004KT 10SM FEW036 34/22 A3007 180 50 2400 270/04 RMK AO2 SLP176 T03390222
53843K79J 79J20160728110011107/28/16 11:00:31  5-MIN K79J 281600Z AUTO VRB03KT 10SM FEW036 34/22 A3007 180 50 2400 VRB/03 RMK AO2 T03390222
53843K79J 79J20160728110511107/28/16 11:05:31  5-MIN K79J 281605Z AUTO 28005KT 10SM SCT036 34/22 A3007 180 50 2400 290/05 RMK AO2 T03390222
53843K79J 79J20160728111011107/28/16 11:10:31  5-MIN K79J 281610Z AUTO VRB06KT 10SM SCT036 34/22 A3006 180 48 2400 VRB/06 RMK AO2 T03390217
53843K79J 79J20160728111511107/28/16 11:15:31  5-MIN K79J 281615Z AUTO 22006KT 10SM FEW036 34/21 A3006 180 45 2500 230/06 RMK AO2 T03440211
53843K79J 79J20160728112011107/28/16 11:20:31  5-MIN K79J 281620Z AUTO VRB03KT 10SM FEW036 34/22 A3006 180 46 2500 VRB/03 RMK AO2 T03440217
53843K79J 79J20160728112511807/28/16 11:25:31  5-MIN K79J 281625Z AUTO 25006KT 10SM FEW036 FEW043 35/22 A3006 180 47 2500 260/06 RMK AO2 T03500222
53843K79J 79J20160728113012707/28/16 11:30:31  5-MIN K79J 281630Z AUTO 24007KT 210V280 10SM FEW039 35/22 A3006 180 45 2500 240/07 210V280 RMK AO2 T03500217
53843K79J 79J20160728113510807/28/16 11:35:31  5-MIN K79J 281635Z AUTO VRB06KT 10SM CLR 35/21 A3006 180 43 2500 VRB/06 RMK AO2 T03500211
53843K79J 79J20160728114010807/28/16 11:40:31  5-MIN K79J 281640Z AUTO VRB06KT 10SM CLR 35/20 A3006 180 40 2500 VRB/06 RMK AO2 T03500200
53843K79J 79J20160728114510807/28/16 11:45:31  5-MIN K79J 281645Z AUTO 25007KT 10SM CLR 35/21 A3006 180 42 2500 250/07 RMK AO2 T03500206
53843K79J 79J20160728115011507/28/16 11:50:31  5-MIN K79J 281650Z AUTO 26007KT 10SM CLR 35/21 A3006 180 42 2500 270/07 RMK AO2 SLP174 T03500206
53843K79J 79J20160728115511507/28/16 11:55:31  5-MIN K79J 281655Z AUTO VRB06KT 10SM CLR 35/21 A3006 180 42 2500 VRB/06 RMK AO2 SLP174 T03500206
53843K79J 79J20160728120010807/28/16 12:00:31  5-MIN K79J 281700Z AUTO VRB03KT 10SM CLR 36/21 A3006 180 41 2600 VRB/03 RMK AO2 T03560206
53843K79J 79J20160728120510807/28/16 12:05:31  5-MIN K79J 281705Z AUTO VRB05KT 10SM CLR 36/21 A3006 180 41 2600 VRB/05 RMK AO2 T03560206
53843K79J 79J20160728121010807/28/16 12:10:31  5-MIN K79J 281710Z AUTO 28010KT 10SM CLR 36/21 A3006 190 41 2600 280/10 RMK AO2 T03560206
53843K79J 79J20160728121510807/28/16 12:15:31  5-MIN K79J 281715Z AUTO 24006KT 10SM CLR 35/21 A3006 190 42 2500 240/06 RMK AO2 T03500206
53843K79J 79J20160728122010807/28/16 12:20:31  5-MIN K79J 281720Z AUTO 26007KT 10SM CLR 36/21 A3006 180 42 2600 260/07 RMK AO2 T03560211
53843K79J 79J20160728122511107/28/16 12:25:31  5-MIN K79J 281725Z AUTO 27009KT 10SM FEW049 35/21 A3006 190 43 2500 280/09 RMK AO2 T03500211
53843K79J 79J20160728123011107/28/16 12:30:31  5-MIN K79J 281730Z AUTO 24005KT 10SM FEW049 35/21 A3006 190 43 2500 240/05 RMK AO2 T03500211
53843K79J 79J20160728123511107/28/16 12:35:31  5-MIN K79J 281735Z AUTO 27007KT 10SM FEW049 36/22 A3005 190 42 2700 270/07 RMK AO2 T03610217
53843K79J 79J20160728124011107/28/16 12:40:31  5-MIN K79J 281740Z AUTO 23007KT 10SM FEW049 36/21 A3006 190 41 2700 240/07 RMK AO2 T03610211
53843K79J 79J20160728124511107/28/16 12:45:31  5-MIN K79J 281745Z AUTO 26009KT 10SM FEW049 36/20 A3006 190 38 2700 260/09 RMK AO2 T03610200
53843K79J 79J20160728125013607/28/16 12:50:31  5-MIN K79J 281750Z AUTO 28010KT 10SM FEW049 36/21 A3006 190 42 2600 280/10 RMK AO2 SLP171 T03560211 10361 20250 50002
53843K79J 79J20160728125513607/28/16 12:55:31  5-MIN K79J 281755Z AUTO VRB06KT 10SM FEW049 36/22 A3005 190 44 2600 VRB/06 RMK AO2 SLP171 T03560217 10361 20250 50002
53843K79J 79J20160728130011107/28/16 13:00:31  5-MIN K79J 281800Z AUTO 24006KT 10SM FEW050 35/21 A3005 190 43 2500 240/06 RMK AO2 T03500211
53843K79J 79J20160728130511107/28/16 13:05:31  5-MIN K79J 281805Z AUTO VRB06KT 10SM FEW050 36/21 A3005 190 42 2600 VRB/06 RMK AO2 T03560211
53843K79J 79J20160728131012407/28/16 13:10:31  5-MIN K79J 281810Z AUTO 28007KT 230V300 10SM CLR 36/21 A3005 190 39 2700 280/07 230V300 RMK AO2 T03610206
53843K79J 79J20160728131511807/28/16 13:15:31  5-MIN K79J 281815Z AUTO 25005KT 10SM FEW055 SCT080 34/21 A3005 200 43 2500 250/05 RMK AO2 T03440206
53843K79J 79J20160728132011807/28/16 13:20:31  5-MIN K79J 281820Z AUTO VRB03KT 10SM FEW055 FEW075 36/21 A3004 200 42 2600 VRB/03 RMK AO2 T03560211
53843K79J 79J20160728132511807/28/16 13:25:31  5-MIN K79J 281825Z AUTO 24008KT 10SM FEW050 FEW080 36/21 A3004 200 41 2700 240/08 RMK AO2 T03610211
53843K79J 79J20160728133011807/28/16 13:30:31  5-MIN K79J 281830Z AUTO VRB06KT 10SM FEW055 FEW080 36/21 A3004 200 39 2700 VRB/06 RMK AO2 T03610206
53843K79J 79J20160728133511807/28/16 13:35:31  5-MIN K79J 281835Z AUTO 23008KT 10SM FEW050 SCT080 35/21 A3004 200 42 2600 230/08 RMK AO2 T03500206
53843K79J 79J20160728134011807/28/16 13:40:31  5-MIN K79J 281840Z AUTO 25007KT 10SM SCT050 SCT080 34/21 A3004 200 43 2500 250/07 RMK AO2 T03440206
53843K79J 79J20160728134512507/28/16 13:45:31  5-MIN K79J 281845Z AUTO 26006KT 10SM SCT050 SCT060 BKN080 34/21 A3003 210 43 2500 260/06 RMK AO2 T03440206
53843K79J 79J20160728135013207/28/16 13:50:31  5-MIN K79J 281850Z AUTO 23006KT 10SM FEW050 SCT060 SCT080 36/21 A3003 210 42 2600 240/06 RMK AO2 SLP164 T03560211
53843K79J 79J20160728135511807/28/16 13:55:31  5-MIN K79J 281855Z AUTO 27009KT 10SM FEW050 36/21 A3003 210 41 2700 280/09 RMK AO2 SLP162 T03610211
53843K79J 79J20160728140011107/28/16 14:00:31  5-MIN K79J 281900Z AUTO 27007KT 10SM SCT050 36/21 A3003 210 42 2600 270/07 RMK AO2 T03560211
53843K79J 79J20160728140511107/28/16 14:05:31  5-MIN K79J 281905Z AUTO 27009KT 10SM FEW050 36/21 A3002 220 39 2700 270/09 RMK AO2 T03610206
53843K79J 79J20160728141011107/28/16 14:10:31  5-MIN K79J 281910Z AUTO VRB06KT 10SM FEW050 36/21 A3002 220 39 2700 VRB/06 RMK AO2 T03610206
53843K79J 79J20160728141511107/28/16 14:15:31  5-MIN K79J 281915Z AUTO 26007KT 10SM FEW050 36/21 A3002 220 39 2700 270/07 RMK AO2 T03610206
53843K79J 79J20160728142011107/28/16 14:20:31  5-MIN K79J 281920Z AUTO 24008KT 10SM FEW049 36/21 A3002 220 39 2700 240/08 RMK AO2 T03610206
53843K79J 79J20160728142512407/28/16 14:25:31  5-MIN K79J 281925Z AUTO 24007KT 190V270 10SM CLR 36/21 A3001 230 39 2700 250/07 190V270 RMK AO2 T03610206
53843K79J 79J20160728143010807/28/16 14:30:31  5-MIN K79J 281930Z AUTO VRB04KT 10SM CLR 36/21 A3001 230 39 2700 VRB/04 RMK AO2 T03610206
53843K79J 79J20160728143511107/28/16 14:35:31  5-MIN K79J 281935Z AUTO 23006KT 10SM FEW048 37/21 A3001 230 40 2800 230/06 RMK AO2 T03670211
53843K79J 79J20160728144012707/28/16 14:40:31  5-MIN K79J 281940Z AUTO 25007KT 230V290 10SM FEW048 37/22 A3001 230 41 2800 250/07 230V290 RMK AO2 T03670217
53843K79J 79J20160728144511107/28/16 14:45:31  5-MIN K79J 281945Z AUTO 27005KT 10SM FEW048 37/22 A3001 230 41 2800 270/05 RMK AO2 T03670217
53843K79J 79J20160728145011807/28/16 14:50:31  5-MIN K79J 281950Z AUTO 27008KT 10SM FEW050 37/22 A3001 230 41 2800 270/08 RMK AO2 SLP155 T03670217
53843K79J 79J20160728145513407/28/16 14:55:31  5-MIN K79J 281955Z AUTO 26007KT 230V310 10SM FEW050 36/22 A3001 230 42 2700 260/07 230V310 RMK AO2 SLP156 T03610217
53843K79J 79J20160728150011107/28/16 15:00:31  5-MIN K79J 282000Z AUTO VRB05KT 10SM SCT050 36/22 A3001 230 44 2600 VRB/05 RMK AO2 T03560217
53843K79J 79J20160728150512407/28/16 15:05:31  5-MIN K79J 282005Z AUTO 19011G17KT 10SM SCT055 SCT110 34/22 A3002 220 50 2500 190/11G17 RMK AO2 T03390222
53843K79J 79J20160728151012407/28/16 15:10:31  5-MIN K79J 282010Z AUTO 18014G23KT 10SM SCT055 BKN100 32/22 A3002 220 53 2300 180/14G23 RMK AO2 T03220217
53843K79J 79J20160728151513107/28/16 15:15:31  5-MIN K79J 282015Z AUTO 18009G23KT 10SM SCT055 BKN080 BKN100 31/22 A3002 220 56 2200 180/09G23 RMK AO2 T03110217
53843K79J 79J20160728152013107/28/16 15:20:31  5-MIN K79J 282020Z AUTO 20009G18KT 10SM BKN050 BKN080 BKN100 31/22 A3002 220 58 2100 200/09G18 RMK AO2 T03060217
53843K79J 79J20160728152513407/28/16 15:25:31  5-MIN K79J 282025Z AUTO 19007KT 10SM -RA BKN050 OVC080 30/22 A3001 230 62 2000 190/07 RMK AO2 RAB25 P0000 T03000222
53843K79J 79J20160728153014107/28/16 15:30:31  5-MIN K79J 282030Z AUTO VRB05KT 10SM -RA BKN050 BKN070 OVC110 29/23 A3001 230 67 2000 VRB/05 RMK AO2 RAB25 P0000 T02940228
53843K79J 79J20160728153514107/28/16 15:35:31  5-MIN K79J 282035Z AUTO 18004KT 10SM -RA SCT050 BKN085 BKN120 30/23 A3001 230 67 2000 190/04 RMK AO2 RAB25 P0000 T03000233
53843K79J 79J20160728154014007/28/16 15:40:31  5-MIN K79J 282040Z AUTO 15006KT 10SM SCT050 SCT085 BKN120 31/23 A3001 230 63 2200 160/06 RMK AO2 RAB25E40 P0000 T03110233
53843K79J 79J20160728154513307/28/16 15:45:31  5-MIN K79J 282045Z AUTO VRB03KT 10SM FEW050 SCT110 32/23 A3001 230 61 2200 VRB/03 RMK AO2 RAB25E40 P0000 T03170233
53843K79J 79J20160728155015207/28/16 15:50:31  5-MIN K79J 282050Z AUTO 16005KT 10SM FEW050 SCT120 33/23 A3001 230 57 2300 160/05 RMK AO2 RAB25E40 SLP158 P0000 60000 T03280233 58005
53843K79J 79J20160728155516107/28/16 15:55:31  5-MIN K79J 282055Z AUTO 19008KT 140V230 10SM SCT120 33/23 A3001 230 55 2400 190/08 140V230 RMK AO2 RAB25E40 SLP159 P0000 60000 T03330233 58005
53843K79J 79J20160728160011107/28/16 16:00:31  5-MIN K79J 282100Z AUTO 19005KT 10SM FEW120 33/23 A3001 230 55 2300 190/05 RMK AO2 T03280228
53843K79J 79J20160728160511107/28/16 16:05:31  5-MIN K79J 282105Z AUTO 17005KT 10SM FEW110 33/22 A3001 230 53 2400 170/05 RMK AO2 T03280222
53843K79J 79J20160728161011107/28/16 16:10:31  5-MIN K79J 282110Z AUTO VRB03KT 10SM FEW120 33/22 A3001 230 53 2400 VRB/03 RMK AO2 T03280222
53843K79J 79J20160728161511107/28/16 16:15:31  5-MIN K79J 282115Z AUTO 19004KT 10SM FEW120 32/22 A3001 230 55 2300 190/04 RMK AO2 T03220222
53843K79J 79J20160728162010807/28/16 16:20:31  5-MIN K79J 282120Z AUTO 19004KT 10SM CLR 32/22 A3001 230 55 2300 190/04 RMK AO2 T03220222
53843K79J 79J20160728162510807/28/16 16:25:31  5-MIN K79J 282125Z AUTO VRB03KT 10SM CLR 33/22 A3000 240 51 2400 VRB/03 RMK AO2 T03330222
53843K79J 79J20160728163010807/28/16 16:30:31  5-MIN K79J 282130Z AUTO VRB04KT 10SM CLR 34/23 A3000 240 51 2500 VRB/04 RMK AO2 T03390228
53843K79J 79J20160728163510807/28/16 16:35:31  5-MIN K79J 282135Z AUTO VRB03KT 10SM CLR 34/23 A3000 240 51 2500 VRB/03 RMK AO2 T03390228
53843K79J 79J20160728164010807/28/16 16:40:31  5-MIN K79J 282140Z AUTO 20004KT 10SM CLR 34/23 A3000 240 50 2500 210/04 RMK AO2 T03440228
53843K79J 79J20160728164510807/28/16 16:45:31  5-MIN K79J 282145Z AUTO VRB03KT 10SM CLR 34/23 A3000 240 52 2500 VRB/03 RMK AO2 T03440233
53843K79J 79J20160728165011507/28/16 16:50:31  5-MIN K79J 282150Z AUTO 19005KT 10SM CLR 34/22 A3000 240 48 2500 190/05 RMK AO2 SLP153 T03440222
53843K79J 79J20160728165511507/28/16 16:55:31  5-MIN K79J 282155Z AUTO 22004KT 10SM CLR 34/23 A3000 240 50 2500 220/04 RMK AO2 SLP152 T03440228
53843K79J 79J20160728170010807/28/16 17:00:31  5-MIN K79J 282200Z AUTO 21005KT 10SM CLR 35/22 A2999 240 47 2600 210/05 RMK AO2 T03500222
53843K79J 79J20160728170510807/28/16 17:05:31  5-MIN K79J 282205Z AUTO 21004KT 10SM CLR 35/22 A2999 240 47 2600 220/04 RMK AO2 T03500222
53843K79J 79J20160728171010807/28/16 17:10:31  5-MIN K79J 282210Z AUTO 22006KT 10SM CLR 35/22 A2999 240 47 2600 220/06 RMK AO2 T03500222
53843K79J 79J20160728171510807/28/16 17:15:31  5-MIN K79J 282215Z AUTO 22005KT 10SM CLR 35/22 A2999 240 47 2600 220/05 RMK AO2 T03500222
53843K79J 79J20160728172010807/28/16 17:20:31  5-MIN K79J 282220Z AUTO VRB06KT 10SM CLR 35/22 A2999 250 47 2600 VRB/06 RMK AO2 T03500222
53843K79J 79J20160728172510807/28/16 17:25:31  5-MIN K79J 282225Z AUTO VRB05KT 10SM CLR 34/22 A2999 250 48 2600 VRB/05 RMK AO2 T03440222
53843K79J 79J20160728173010807/28/16 17:30:31  5-MIN K79J 282230Z AUTO 23006KT 10SM CLR 34/23 A2999 250 50 2600 230/06 RMK AO2 T03440228
53843K79J 79J20160728173510807/28/16 17:35:31  5-MIN K79J 282235Z AUTO 21004KT 10SM CLR 34/23 A2999 250 50 2600 210/04 RMK AO2 T03440228
53843K79J 79J20160728174010807/28/16 17:40:31  5-MIN K79J 282240Z AUTO 20005KT 10SM CLR 34/23 A2999 250 50 2600 200/05 RMK AO2 T03440228
53843K79J 79J20160728174510807/28/16 17:45:31  5-MIN K79J 282245Z AUTO 22007KT 10SM CLR 34/23 A2999 250 50 2600 220/07 RMK AO2 T03440228
53843K79J 79J20160728175011507/28/16 17:50:31  5-MIN K79J 282250Z AUTO 22004KT 10SM CLR 34/22 A2999 250 50 2500 220/04 RMK AO2 SLP149 T03390222
53843K79J 79J20160728175511807/28/16 17:55:31  5-MIN K79J 282255Z AUTO 22005KT 10SM FEW050 33/23 A2999 250 53 2400 220/05 RMK AO2 SLP149 T03330228
53843K79J 79J20160728180011107/28/16 18:00:31  5-MIN K79J 282300Z AUTO 20005KT 10SM FEW055 33/23 A2999 250 53 2400 210/05 RMK AO2 T03330228
53843K79J 79J20160728180511107/28/16 18:05:31  5-MIN K79J 282305Z AUTO 22005KT 10SM FEW055 33/23 A2999 250 53 2400 220/05 RMK AO2 T03330228
53843K79J 79J20160728181011107/28/16 18:10:31  5-MIN K79J 282310Z AUTO 22005KT 10SM FEW055 33/23 A2999 250 53 2400 220/05 RMK AO2 T03330228
53843K79J 79J20160728181511107/28/16 18:15:31  5-MIN K79J 282315Z AUTO VRB04KT 10SM FEW055 33/23 A2998 250 55 2400 VRB/04 RMK AO2 T03280228
53843K79J 79J20160728182011107/28/16 18:20:31  5-MIN K79J 282320Z AUTO 23005KT 10SM FEW055 33/23 A2999 250 55 2400 230/05 RMK AO2 T03280228
53843K79J 79J20160728182510807/28/16 18:25:31  5-MIN K79J 282325Z AUTO 21003KT 10SM CLR 33/23 A2999 250 55 2400 220/03 RMK AO2 T03280228
53843K79J 79J20160728183010807/28/16 18:30:31  5-MIN K79J 282330Z AUTO 00000KT 10SM CLR 33/23 A2999 250 55 2400 000/00 RMK AO2 T03280228
53843K79J 79J20160728183510807/28/16 18:35:31  5-MIN K79J 282335Z AUTO 00000KT 10SM CLR 33/23 A2999 250 57 2400 000/00 RMK AO2 T03280233
53843K79J 79J20160728184010807/28/16 18:40:31  5-MIN K79J 282340Z AUTO VRB03KT 10SM CLR 33/23 A2999 250 53 2400 VRB/03 RMK AO2 T03330228
53843K79J 79J20160728184510807/28/16 18:45:31  5-MIN K79J 282345Z AUTO 21005KT 10SM CLR 33/23 A2999 250 53 2400 210/05 RMK AO2 T03330228
53843K79J 79J20160728185013907/28/16 18:50:31  5-MIN K79J 282350Z AUTO 21004KT 10SM CLR 33/23 A2999 250 53 2400 210/04 RMK AO2 SLP150 60000 T03330228 10367 20294 55013
53843K79J 79J20160728185513907/28/16 18:55:31  5-MIN K79J 282355Z AUTO 22004KT 10SM CLR 33/23 A2999 250 55 2400 220/04 RMK AO2 SLP150 60000 T03280228 10367 20294 55013
53843K79J 79J20160728190010807/28/16 19:00:31  5-MIN K79J 290000Z AUTO 23003KT 10SM CLR 33/23 A2999 240 55 2400 230/03 RMK AO2 T03280228
53843K79J 79J20160728190510807/28/16 19:05:31  5-MIN K79J 290005Z AUTO 25004KT 10SM CLR 33/23 A2999 240 55 2400 260/04 RMK AO2 T03280228
53843K79J 79J20160728191010807/28/16 19:10:31  5-MIN K79J 290010Z AUTO 22003KT 10SM CLR 32/22 A2999 240 55 2300 220/03 RMK AO2 T03220222
53843K79J 79J20160728191510807/28/16 19:15:31  5-MIN K79J 290015Z AUTO 22004KT 10SM CLR 32/22 A3000 240 55 2300 220/04 RMK AO2 T03220222
53843K79J 79J20160728192010807/28/16 19:20:31  5-MIN K79J 290020Z AUTO 22003KT 10SM CLR 32/22 A2999 250 56 2200 220/03 RMK AO2 T03170222
53843K79J 79J20160728192510807/28/16 19:25:31  5-MIN K79J 290025Z AUTO VRB03KT 10SM CLR 31/23 A3000 240 60 2200 VRB/03 RMK AO2 T03110228
53843K79J 79J20160728193010807/28/16 19:30:31  5-MIN K79J 290030Z AUTO 23004KT 10SM CLR 31/22 A3000 240 58 2200 230/04 RMK AO2 T03110222
53843K79J 79J20160728193510807/28/16 19:35:31  5-MIN K79J 290035Z AUTO 22003KT 10SM CLR 31/22 A3000 240 58 2200 220/03 RMK AO2 T03110222
53843K79J 79J20160728194010807/28/16 19:40:31  5-MIN K79J 290040Z AUTO 22003KT 10SM CLR 31/22 A3000 240 58 2200 220/03 RMK AO2 T03110222
53843K79J 79J20160728194510807/28/16 19:45:31  5-MIN K79J 290045Z AUTO 22003KT 10SM CLR 31/22 A3000 240 58 2200 220/03 RMK AO2 T03110222
53843K79J 79J20160728195011507/28/16 19:50:31  5-MIN K79J 290050Z AUTO 21003KT 10SM CLR 31/22 A2999 240 60 2100 210/03 RMK AO2 SLP152 T03060222
53843K79J 79J20160728195511507/28/16 19:55:31  5-MIN K79J 290055Z AUTO 20003KT 10SM CLR 31/22 A2999 240 60 2100 200/03 RMK AO2 SLP151 T03060222
53843K79J 79J20160728200011107/28/16 20:00:31  5-MIN K79J 290100Z AUTO 19003KT 10SM FEW003 30/23 A2999 240 65 2100 190/03 RMK AO2 T03000228
53843K79J 79J20160728200511107/28/16 20:05:31  5-MIN K79J 290105Z AUTO 21003KT 10SM FEW003 30/22 A3000 240 62 2100 210/03 RMK AO2 T03000222
53843K79J 79J20160728201010807/28/16 20:10:31  5-MIN K79J 290110Z AUTO 00000KT 10SM CLR 30/22 A3000 240 62 2100 000/00 RMK AO2 T03000222
53843K79J 79J20160728201510807/28/16 20:15:31  5-MIN K79J 290115Z AUTO 00000KT 10SM CLR 30/22 A3000 240 62 2000 000/00 RMK AO2 T03000222
53843K79J 79J20160728202010807/28/16 20:20:31  5-MIN K79J 290120Z AUTO 00000KT 10SM CLR 30/22 A3001 230 62 2000 000/00 RMK AO2 T03000222
53843K79J 79J20160728202510807/28/16 20:25:31  5-MIN K79J 290125Z AUTO 00000KT 10SM CLR 29/22 A3001 230 64 2000 000/00 RMK AO2 T02940222
53843K79J 79J20160728203010807/28/16 20:30:31  5-MIN K79J 290130Z AUTO 00000KT 10SM CLR 29/22 A3001 230 64 2000 000/00 RMK AO2 T02940222
53843K79J 79J20160728203510807/28/16 20:35:31  5-MIN K79J 290135Z AUTO 21003KT 10SM CLR 29/22 A3001 230 64 2000 210/03 RMK AO2 T02940222
53843K79J 79J20160728204010807/28/16 20:40:31  5-MIN K79J 290140Z AUTO 00000KT 10SM CLR 29/23 A3001 230 69 1900 000/00 RMK AO2 T02890228
53843K79J 79J20160728204510807/28/16 20:45:31  5-MIN K79J 290145Z AUTO 00000KT 10SM CLR 29/22 A3002 220 67 1900 000/00 RMK AO2 T02890222
53843K79J 79J20160728205011507/28/16 20:50:31  5-MIN K79J 290150Z AUTO 00000KT 10SM CLR 29/23 A3002 220 69 1900 000/00 RMK AO2 SLP160 T02890228
53843K79J 79J20160728205511507/28/16 20:55:31  5-MIN K79J 290155Z AUTO 00000KT 10SM CLR 29/22 A3002 220 67 1900 000/00 RMK AO2 SLP160 T02890222
53843K79J 79J20160728210010807/28/16 21:00:31  5-MIN K79J 290200Z AUTO 20003KT 10SM CLR 29/22 A3002 220 67 1900 200/03 RMK AO2 T02890222
53843K79J 79J20160728210510807/28/16 21:05:31  5-MIN K79J 290205Z AUTO 20003KT 10SM CLR 29/22 A3002 220 67 1900 200/03 RMK AO2 T02890222
53843K79J 79J20160728211010807/28/16 21:10:31  5-MIN K79J 290210Z AUTO 21003KT 10SM CLR 29/22 A3003 210 67 1900 210/03 RMK AO2 T02890222
53843K79J 79J20160728211510807/28/16 21:15:31  5-MIN K79J 290215Z AUTO 20003KT 10SM CLR 29/22 A3003 210 67 1900 210/03 RMK AO2 T02890222
53843K79J 79J20160728212010807/28/16 21:20:31  5-MIN K79J 290220Z AUTO 21003KT 10SM CLR 29/22 A3003 210 64 1900 210/03 RMK AO2 T02890217
53843K79J 79J20160728212510807/28/16 21:25:31  5-MIN K79J 290225Z AUTO 22004KT 10SM CLR 29/22 A3003 210 67 1900 220/04 RMK AO2 T02890222
53843K79J 79J20160728213010807/28/16 21:30:31  5-MIN K79J 290230Z AUTO 22004KT 10SM CLR 29/22 A3004 210 64 1900 220/04 RMK AO2 T02890217
53843K79J 79J20160728213510807/28/16 21:35:31  5-MIN K79J 290235Z AUTO 22004KT 10SM CLR 29/22 A3004 200 64 1900 220/04 RMK AO2 T02890217
53843K79J 79J20160728214010807/28/16 21:40:31  5-MIN K79J 290240Z AUTO 22004KT 10SM CLR 29/22 A3004 200 64 1900 220/04 RMK AO2 T02890217
53843K79J 79J20160728214510807/28/16 21:45:31  5-MIN K79J 290245Z AUTO 22003KT 10SM CLR 29/22 A3004 200 64 1900 220/03 RMK AO2 T02890217
53843K79J 79J20160728215012107/28/16 21:50:31  5-MIN K79J 290250Z AUTO 21003KT 10SM CLR 29/22 A3004 200 64 1900 210/03 RMK AO2 SLP167 T02890217 55008
53843K79J 79J20160728215512107/28/16 21:55:31  5-MIN K79J 290255Z AUTO 22004KT 10SM CLR 29/22 A3004 200 64 1900 220/04 RMK AO2 SLP167 T02890217 55008
53843K79J 79J20160728220010807/28/16 22:00:31  5-MIN K79J 290300Z AUTO 21003KT 10SM CLR 29/22 A3004 200 64 1900 210/03 RMK AO2 T02890217
53843K79J 79J20160728220510807/28/16 22:05:31  5-MIN K79J 290305Z AUTO 21004KT 10SM CLR 28/22 A3004 200 66 1800 210/04 RMK AO2 T02830217
53843K79J 79J20160728221010807/28/16 22:10:31  5-MIN K79J 290310Z AUTO 22004KT 10SM CLR 29/22 A3004 200 64 1900 220/04 RMK AO2 T02890217
53843K79J 79J20160728221510807/28/16 22:15:31  5-MIN K79J 290315Z AUTO 24004KT 10SM CLR 28/22 A3004 200 66 1800 240/04 RMK AO2 T02830217
53843K79J 79J20160728222010807/28/16 22:20:31  5-MIN K79J 290320Z AUTO 00000KT 10SM CLR 29/22 A3004 200 64 1900 000/00 RMK AO2 T02890217
53843K79J 79J20160728222510807/28/16 22:25:31  5-MIN K79J 290325Z AUTO 00000KT 10SM CLR 28/22 A3004 210 66 1800 000/00 RMK AO2 T02830217
53843K79J 79J20160728223010807/28/16 22:30:31  5-MIN K79J 290330Z AUTO 00000KT 10SM CLR 28/22 A3004 210 69 1800 000/00 RMK AO2 T02830222
53843K79J 79J20160728223510807/28/16 22:35:31  5-MIN K79J 290335Z AUTO 00000KT 10SM CLR 28/22 A3003 210 69 1800 000/00 RMK AO2 T02830222
53843K79J 79J20160728224010807/28/16 22:40:31  5-MIN K79J 290340Z AUTO 00000KT 10SM CLR 28/22 A3003 210 69 1800 000/00 RMK AO2 T02780217
53843K79J 79J20160728224510807/28/16 22:45:31  5-MIN K79J 290345Z AUTO 20003KT 10SM CLR 28/22 A3003 210 71 1800 200/03 RMK AO2 T02780222
53843K79J 79J20160728225011507/28/16 22:50:31  5-MIN K79J 290350Z AUTO 22003KT 10SM CLR 28/22 A3003 210 69 1800 220/03 RMK AO2 SLP163 T02780217
53843K79J 79J20160728225511507/28/16 22:55:31  5-MIN K79J 290355Z AUTO 22003KT 10SM CLR 28/22 A3003 210 71 1800 220/03 RMK AO2 SLP163 T02780222
53843K79J 79J20160728230010807/28/16 23:00:31  5-MIN K79J 290400Z AUTO 22003KT 10SM CLR 28/22 A3003 210 71 1800 230/03 RMK AO2 T02780222
53843K79J 79J20160728230510807/28/16 23:05:31  5-MIN K79J 290405Z AUTO 24003KT 10SM CLR 28/22 A3003 210 71 1800 240/03 RMK AO2 T02780222
53843K79J 79J20160728231010807/28/16 23:10:31  5-MIN K79J 290410Z AUTO 25003KT 10SM CLR 28/22 A3003 210 71 1800 250/03 RMK AO2 T02780222
53843K79J 79J20160728231510807/28/16 23:15:31  5-MIN K79J 290415Z AUTO 26003KT 10SM CLR 28/22 A3003 210 71 1800 260/03 RMK AO2 T02780222
53843K79J 79J20160728232010807/28/16 23:20:31  5-MIN K79J 290420Z AUTO 23003KT 10SM CLR 28/22 A3003 210 71 1800 230/03 RMK AO2 T02780222
53843K79J 79J20160728232510807/28/16 23:25:31  5-MIN K79J 290425Z AUTO 21003KT 10SM CLR 27/22 A3003 210 74 1700 220/03 RMK AO2 T02720222
53843K79J 79J20160728233010807/28/16 23:30:31  5-MIN K79J 290430Z AUTO 22003KT 10SM CLR 27/22 A3003 210 74 1700 220/03 RMK AO2 T02720222
53843K79J 79J20160728233510807/28/16 23:35:31  5-MIN K79J 290435Z AUTO 22003KT 10SM CLR 27/22 A3004 210 74 1700 220/03 RMK AO2 T02720222
53843K79J 79J20160728234010807/28/16 23:40:31  5-MIN K79J 290440Z AUTO 00000KT 10SM CLR 27/22 A3004 200 74 1700 000/00 RMK AO2 T02720222
53843K79J 79J20160728234510807/28/16 23:45:31  5-MIN K79J 290445Z AUTO 00000KT 10SM CLR 27/22 A3004 200 74 1700 000/00 RMK AO2 T02720222
53843K79J 79J20160728235012507/28/16 23:50:31  5-MIN K79J 290450Z AUTO 27003KT 10SM CLR 27/22 A3004 200 74 1700 270/03 RMK AO2 SLP166 T02720222 403670233
53843K79J 79J20160728235512507/28/16 23:55:31  5-MIN K79J 290455Z AUTO 00000KT 10SM CLR 27/22 A3004 200 74 1700 000/00 RMK AO2 SLP166 T02720222 403670233
53843K79J 79J20160729000010807/29/16 00:00:31  5-MIN K79J 290500Z AUTO 00000KT 10SM CLR 27/22 A3004 200 76 1600 000/00 RMK AO2 T02670222
53843K79J 79J20160729000510807/29/16 00:05:31  5-MIN K79J 290505Z AUTO 00000KT 10SM CLR 27/22 A3004 200 76 1600 000/00 RMK AO2 T02670222
53843K79J 79J20160729001010807/29/16 00:10:31  5-MIN K79J 290510Z AUTO 00000KT 10SM CLR 27/22 A3004 200 76 1600 000/00 RMK AO2 T02670222
53843K79J 79J20160729001510807/29/16 00:15:31  5-MIN K79J 290515Z AUTO 00000KT 10SM CLR 27/22 A3004 200 76 1600 000/00 RMK AO2 T02670222
53843K79J 79J20160729002010807/29/16 00:20:31  5-MIN K79J 290520Z AUTO 24003KT 10SM CLR 27/22 A3005 200 76 1600 240/03 RMK AO2 T02670222
53843K79J 79J20160729002510807/29/16 00:25:31  5-MIN K79J 290525Z AUTO 25003KT 10SM CLR 27/22 A3005 200 74 1700 260/03 RMK AO2 T02720222
53843K79J 79J20160729003010807/29/16 00:30:31  5-MIN K79J 290530Z AUTO 00000KT 10SM CLR 27/22 A3005 200 74 1700 000/00 RMK AO2 T02720222
53843K79J 79J20160729003510807/29/16 00:35:31  5-MIN K79J 290535Z AUTO 00000KT 10SM CLR 27/23 A3004 200 79 1600 000/00 RMK AO2 T02670228
53843K79J 79J20160729004010807/29/16 00:40:31  5-MIN K79J 290540Z AUTO 00000KT 10SM CLR 27/23 A3004 200 79 1600 000/00 RMK AO2 T02670228
53843K79J 79J20160729004510807/29/16 00:45:31  5-MIN K79J 290545Z AUTO 00000KT 10SM CLR 27/23 A3004 200 79 1600 000/00 RMK AO2 T02670228
53843K79J 79J20160729005013307/29/16 00:50:31  5-MIN K79J 290550Z AUTO 00000KT 10SM CLR 27/23 A3004 200 79 1600 000/00 RMK AO2 SLP166 T02670228 10328 20267 53017
53843K79J 79J20160729005513307/29/16 00:55:31  5-MIN K79J 290555Z AUTO 00000KT 10SM CLR 26/23 A3004 200 81 1600 000/00 RMK AO2 SLP166 T02610228 10328 20261 53017
53843K79J 79J20160729010010807/29/16 01:00:31  5-MIN K79J 290600Z AUTO 00000KT 10SM CLR 27/23 A3004 200 79 1600 000/00 RMK AO2 T02670228
53843K79J 79J20160729010510807/29/16 01:05:31  5-MIN K79J 290605Z AUTO 00000KT 10SM CLR 26/22 A3004 200 79 1600 000/00 RMK AO2 T02610222
53843K79J 79J20160729011010807/29/16 01:10:31  5-MIN K79J 290610Z AUTO 00000KT 10SM CLR 26/23 A3004 200 81 1600 000/00 RMK AO2 T02610228
53843K79J 79J20160729011510807/29/16 01:15:31  5-MIN K79J 290615Z AUTO 00000KT 10SM CLR 26/23 A3004 200 81 1600 000/00 RMK AO2 T02610228
53843K79J 79J20160729012010807/29/16 01:20:31  5-MIN K79J 290620Z AUTO 00000KT 10SM CLR 26/23 A3004 200 81 1600 000/00 RMK AO2 T02610228
53843K79J 79J20160729012510807/29/16 01:25:31  5-MIN K79J 290625Z AUTO 00000KT 10SM CLR 26/23 A3004 200 81 1600 000/00 RMK AO2 T02610228
53843K79J 79J20160729013010807/29/16 01:30:31  5-MIN K79J 290630Z AUTO 00000KT 10SM CLR 26/23 A3004 210 81 1600 000/00 RMK AO2 T02610228
53843K79J 79J20160729013510807/29/16 01:35:31  5-MIN K79J 290635Z AUTO 00000KT 10SM CLR 26/23 A3003 210 81 1600 000/00 RMK AO2 T02610228
53843K79J 79J20160729014010807/29/16 01:40:31  5-MIN K79J 290640Z AUTO 00000KT 10SM CLR 26/23 A3003 210 81 1600 000/00 RMK AO2 T02610228
53843K79J 79J20160729014510807/29/16 01:45:31  5-MIN K79J 290645Z AUTO 00000KT 10SM CLR 26/23 A3003 210 81 1600 000/00 RMK AO2 T02610228
53843K79J 79J20160729015011507/29/16 01:50:31  5-MIN K79J 290650Z AUTO 00000KT 10SM CLR 26/23 A3003 210 81 1600 000/00 RMK AO2 SLP164 T02610228
53843K79J 79J20160729015511507/29/16 01:55:31  5-MIN K79J 290655Z AUTO 00000KT 10SM CLR 26/23 A3003 210 81 1600 000/00 RMK AO2 SLP164 T02610228
53843K79J 79J20160729020010807/29/16 02:00:31  5-MIN K79J 290700Z AUTO 00000KT 10SM CLR 26/23 A3003 210 81 1600 000/00 RMK AO2 T02610228
53843K79J 79J20160729020510807/29/16 02:05:31  5-MIN K79J 290705Z AUTO 00000KT 10SM CLR 26/23 A3003 210 84 1500 000/00 RMK AO2 T02560228
53843K79J 79J20160729021010807/29/16 02:10:31  5-MIN K79J 290710Z AUTO 00000KT 10SM CLR 26/23 A3003 210 81 1600 000/00 RMK AO2 T02610228
53843K79J 79J20160729021510807/29/16 02:15:31  5-MIN K79J 290715Z AUTO 00000KT 10SM CLR 26/23 A3003 210 81 1600 000/00 RMK AO2 T02610228
53843K79J 79J20160729022010807/29/16 02:20:31  5-MIN K79J 290720Z AUTO 00000KT 10SM CLR 26/23 A3003 210 81 1600 000/00 RMK AO2 T02610228
53843K79J 79J20160729022510807/29/16 02:25:31  5-MIN K79J 290725Z AUTO 00000KT 10SM CLR 26/22 A3003 210 81 1500 000/00 RMK AO2 T02560222
53843K79J 79J20160729023010807/29/16 02:30:31  5-MIN K79J 290730Z AUTO 28003KT 10SM CLR 26/22 A3003 210 81 1500 280/03 RMK AO2 T02560222
53843K79J 79J20160729023510807/29/16 02:35:31  5-MIN K79J 290735Z AUTO 00000KT 10SM CLR 26/22 A3003 210 81 1500 000/00 RMK AO2 T02560222
53843K79J 79J20160729024010807/29/16 02:40:31  5-MIN K79J 290740Z AUTO 00000KT 10SM CLR 26/23 A3003 210 81 1600 000/00 RMK AO2 T02610228
53843K79J 79J20160729024510807/29/16 02:45:31  5-MIN K79J 290745Z AUTO 00000KT 10SM CLR 26/23 A3003 210 81 1600 000/00 RMK AO2 T02610228
53843K79J 79J20160729025011507/29/16 02:50:31  5-MIN K79J 290750Z AUTO 00000KT 10SM CLR 26/22 A3003 210 81 1500 000/00 RMK AO2 SLP164 T02560222
53843K79J 79J20160729025511507/29/16 02:55:31  5-MIN K79J 290755Z AUTO 00000KT 10SM CLR 26/22 A3004 210 81 1500 000/00 RMK AO2 SLP165 T02560222
53843K79J 79J20160729030010807/29/16 03:00:31  5-MIN K79J 290800Z AUTO 00000KT 10SM CLR 26/23 A3004 210 84 1500 000/00 RMK AO2 T02560228
53843K79J 79J20160729030510807/29/16 03:05:31  5-MIN K79J 290805Z AUTO 00000KT 10SM CLR 26/23 A3003 210 84 1500 000/00 RMK AO2 T02560228
53843K79J 79J20160729031010807/29/16 03:10:31  5-MIN K79J 290810Z AUTO 00000KT 10SM CLR 26/22 A3004 210 81 1500 000/00 RMK AO2 T02560222
53843K79J 79J20160729031510807/29/16 03:15:31  5-MIN K79J 290815Z AUTO 00000KT 10SM CLR 26/23 A3004 200 84 1500 000/00 RMK AO2 T02560228
53843K79J 79J20160729032010807/29/16 03:20:31  5-MIN K79J 290820Z AUTO 00000KT 10SM CLR 26/23 A3004 210 84 1500 000/00 RMK AO2 T02560228
53843K79J 79J20160729032510807/29/16 03:25:31  5-MIN K79J 290825Z AUTO 26003KT 10SM CLR 26/23 A3004 210 81 1600 260/03 RMK AO2 T02610228
53843K79J 79J20160729033010807/29/16 03:30:31  5-MIN K79J 290830Z AUTO 00000KT 10SM CLR 26/23 A3003 210 81 1600 000/00 RMK AO2 T02610228
53843K79J 79J20160729033510807/29/16 03:35:31  5-MIN K79J 290835Z AUTO 00000KT 10SM CLR 26/23 A3003 210 84 1500 000/00 RMK AO2 T02560228
53843K79J 79J20160729034010807/29/16 03:40:31  5-MIN K79J 290840Z AUTO 00000KT 10SM CLR 26/23 A3003 210 84 1500 000/00 RMK AO2 T02560228
53843K79J 79J20160729034510807/29/16 03:45:31  5-MIN K79J 290845Z AUTO 00000KT 10SM CLR 26/23 A3003 210 84 1500 000/00 RMK AO2 T02560228
53843K79J 79J20160729035012107/29/16 03:50:31  5-MIN K79J 290850Z AUTO 00000KT 10SM CLR 26/23 A3003 210 84 1500 000/00 RMK AO2 SLP165 T02560228 56001
53843K79J 79J20160729035512107/29/16 03:55:31  5-MIN K79J 290855Z AUTO 00000KT 10SM CLR 26/23 A3003 210 84 1500 000/00 RMK AO2 SLP165 T02560228 56001
53843K79J 79J20160729040010807/29/16 04:00:31  5-MIN K79J 290900Z AUTO 25003KT 10SM CLR 26/23 A3004 210 84 1500 260/03 RMK AO2 T02560228
53843K79J 79J20160729040510807/29/16 04:05:31  5-MIN K79J 290905Z AUTO 25003KT 10SM CLR 26/23 A3003 210 84 1500 250/03 RMK AO2 T02560228
53843K79J 79J20160729041010807/29/16 04:10:31  5-MIN K79J 290910Z AUTO 00000KT 10SM CLR 26/23 A3003 210 84 1500 000/00 RMK AO2 T02560228
53843K79J 79J20160729041510807/29/16 04:15:31  5-MIN K79J 290915Z AUTO 00000KT 10SM CLR 26/23 A3003 210 84 1500 000/00 RMK AO2 T02560228
53843K79J 79J20160729042010807/29/16 04:20:31  5-MIN K79J 290920Z AUTO 00000KT 10SM CLR 26/23 A3003 210 84 1500 000/00 RMK AO2 T02560228
53843K79J 79J20160729042510807/29/16 04:25:31  5-MIN K79J 290925Z AUTO 00000KT 10SM CLR 26/23 A3003 210 84 1500 000/00 RMK AO2 T02560228
53843K79J 79J20160729043010807/29/16 04:30:31  5-MIN K79J 290930Z AUTO 27003KT 10SM CLR 26/23 A3003 210 84 1500 270/03 RMK AO2 T02560228
53843K79J 79J20160729043510807/29/16 04:35:31  5-MIN K79J 290935Z AUTO 30003KT 10SM CLR 26/23 A3003 210 84 1500 300/03 RMK AO2 T02560228
53843K79J 79J20160729044010807/29/16 04:40:31  5-MIN K79J 290940Z AUTO 00000KT 10SM CLR 26/22 A3003 210 81 1500 000/00 RMK AO2 T02560222
53843K79J 79J20160729044510807/29/16 04:45:31  5-MIN K79J 290945Z AUTO 00000KT 10SM CLR 26/22 A3003 210 81 1500 000/00 RMK AO2 T02560222
53843K79J 79J20160729045011507/29/16 04:50:31  5-MIN K79J 290950Z AUTO 00000KT 10SM CLR 26/22 A3003 210 81 1500 000/00 RMK AO2 SLP163 T02560222
53843K79J 79J20160729045511507/29/16 04:55:31  5-MIN K79J 290955Z AUTO 00000KT 10SM CLR 25/22 A3003 210 84 1500 000/00 RMK AO2 SLP162 T02500222
53843K79J 79J20160729050010707/29/16 05:00:31  5-MIN K79J 291000Z AUTO 00000KT 9SM CLR 25/22 A3003 210 84 1500 000/00 RMK AO2 T02500222
53843K79J 79J20160729050510707/29/16 05:05:31  5-MIN K79J 291005Z AUTO 00000KT 9SM CLR 25/22 A3003 210 84 1500 000/00 RMK AO2 T02500222
53843K79J 79J20160729051010707/29/16 05:10:31  5-MIN K79J 291010Z AUTO 00000KT 8SM CLR 25/22 A3003 210 84 1500 000/00 RMK AO2 T02500222
53843K79J 79J20160729051510707/29/16 05:15:31  5-MIN K79J 291015Z AUTO 00000KT 8SM CLR 25/22 A3003 210 84 1500 000/00 RMK AO2 T02500222
53843K79J 79J20160729052010707/29/16 05:20:31  5-MIN K79J 291020Z AUTO 00000KT 9SM CLR 24/22 A3003 210 87 1400 000/00 RMK AO2 T02440222
53843K79J 79J20160729052510807/29/16 05:25:31  5-MIN K79J 291025Z AUTO 00000KT 10SM CLR 24/22 A3003 210 87 1400 000/00 RMK AO2 T02440222
53843K79J 79J20160729053010707/29/16 05:30:31  5-MIN K79J 291030Z AUTO 00000KT 9SM CLR 24/22 A3003 210 87 1400 000/00 RMK AO2 T02440222
53843K79J 79J20160729053510707/29/16 05:35:31  5-MIN K79J 291035Z AUTO 00000KT 9SM CLR 24/22 A3003 210 87 1400 000/00 RMK AO2 T02440222
53843K79J 79J20160729054010707/29/16 05:40:31  5-MIN K79J 291040Z AUTO 00000KT 8SM CLR 24/22 A3003 210 87 1400 000/00 RMK AO2 T02440222
53843K79J 79J20160729054510707/29/16 05:45:31  5-MIN K79J 291045Z AUTO 00000KT 8SM CLR 24/22 A3003 210 84 1400 000/00 RMK AO2 T02440217
53843K79J 79J20160729055011407/29/16 05:50:31  5-MIN K79J 291050Z AUTO 00000KT 8SM CLR 24/22 A3003 210 84 1400 000/00 RMK AO2 SLP164 T02440217
53843K79J 79J20160729055511407/29/16 05:55:31  5-MIN K79J 291055Z AUTO 00000KT 8SM CLR 24/22 A3003 210 84 1400 000/00 RMK AO2 SLP164 T02440217
53843K79J 79J20160729060010707/29/16 06:00:31  5-MIN K79J 291100Z AUTO 00000KT 7SM CLR 24/22 A3003 210 84 1400 000/00 RMK AO2 T02440217
53843K79J 79J20160729060511007/29/16 06:05:31  5-MIN K79J 291105Z AUTO 00000KT 6SM HZ CLR 24/22 A3004 210 84 1400 000/00 RMK AO2 T02440217
53843K79J 79J20160729061010707/29/16 06:10:31  5-MIN K79J 291110Z AUTO 00000KT 8SM CLR 24/22 A3004 200 84 1400 000/00 RMK AO2 T02440217
53843K79J 79J20160729061510707/29/16 06:15:31  5-MIN K79J 291115Z AUTO 00000KT 9SM CLR 24/22 A3004 200 84 1400 000/00 RMK AO2 T02440217
53843K79J 79J20160729062010707/29/16 06:20:31  5-MIN K79J 291120Z AUTO 00000KT 9SM CLR 24/22 A3004 200 84 1400 000/00 RMK AO2 T02440217
53843K79J 79J20160729062510707/29/16 06:25:31  5-MIN K79J 291125Z AUTO 00000KT 9SM CLR 24/22 A3004 200 87 1400 000/00 RMK AO2 T02440222
53843K79J 79J20160729063010707/29/16 06:30:31  5-MIN K79J 291130Z AUTO 00000KT 9SM CLR 24/22 A3005 200 87 1400 000/00 RMK AO2 T02440222
53843K79J 79J20160729063510707/29/16 06:35:31  5-MIN K79J 291135Z AUTO 00000KT 9SM CLR 25/22 A3005 200 84 1400 000/00 RMK AO2 T02500222
53843K79J 79J20160729064010707/29/16 06:40:31  5-MIN K79J 291140Z AUTO 00000KT 9SM CLR 25/22 A3004 200 84 1400 000/00 RMK AO2 T02500222
53843K79J 79J20160729064510707/29/16 06:45:31  5-MIN K79J 291145Z AUTO 00000KT 9SM CLR 25/22 A3005 190 84 1400 000/00 RMK AO2 T02500222
53843K79J 79J20160729065013207/29/16 06:50:31  5-MIN K79J 291150Z AUTO 00000KT 9SM CLR 25/23 A3005 190 87 1400 000/00 RMK AO2 SLP171 T02500228 10267 20244 56002
53843K79J 79J20160729065513307/29/16 06:55:31  5-MIN K79J 291155Z AUTO 00000KT 10SM CLR 26/23 A3005 190 84 1500 000/00 RMK AO2 SLP172 T02560228 10267 20244 56002
53843K79J 79J20160729070010807/29/16 07:00:31  5-MIN K79J 291200Z AUTO 00000KT 10SM CLR 26/23 A3006 190 81 1600 000/00 RMK AO2 T02610228
53843K79J 79J20160729070510807/29/16 07:05:31  5-MIN K79J 291205Z AUTO 00000KT 10SM CLR 27/23 A3006 190 82 1600 000/00 RMK AO2 T02670233
53843K79J 79J20160729071010807/29/16 07:10:31  5-MIN K79J 291210Z AUTO 00000KT 10SM CLR 27/23 A3006 190 82 1600 000/00 RMK AO2 T02670233
53843K79J 79J20160729071510807/29/16 07:15:31  5-MIN K79J 291215Z AUTO 28003KT 10SM CLR 27/23 A3005 190 82 1600 280/03 RMK AO2 T02670233
53843K79J 79J20160729072010807/29/16 07:20:31  5-MIN K79J 291220Z AUTO 00000KT 10SM CLR 27/23 A3005 190 82 1600 000/00 RMK AO2 T02670233
53843K79J 79J20160729072510807/29/16 07:25:31  5-MIN K79J 291225Z AUTO 00000KT 10SM CLR 27/24 A3005 190 82 1700 000/00 RMK AO2 T02720239
53843K79J 79J20160729073010807/29/16 07:30:31  5-MIN K79J 291230Z AUTO 22003KT 10SM CLR 27/24 A3005 190 82 1700 230/03 RMK AO2 T02720239
53843K79J 79J20160729073510807/29/16 07:35:31  5-MIN K79J 291235Z AUTO 23003KT 10SM CLR 27/24 A3005 190 82 1700 230/03 RMK AO2 T02720239
53843K79J 79J20160729074010807/29/16 07:40:31  5-MIN K79J 291240Z AUTO 25003KT 10SM CLR 28/24 A3005 190 79 1700 250/03 RMK AO2 T02780239
53843K79J 79J20160729074510807/29/16 07:45:31  5-MIN K79J 291245Z AUTO 28004KT 10SM CLR 28/24 A3006 190 79 1700 280/04 RMK AO2 T02780239
53843K79J 79J20160729075011507/29/16 07:50:31  5-MIN K79J 291250Z AUTO 27003KT 10SM CLR 28/24 A3006 190 76 1800 270/03 RMK AO2 SLP173 T02830239
53843K79J 79J20160729075511507/29/16 07:55:31  5-MIN K79J 291255Z AUTO 28004KT 10SM CLR 28/24 A3006 190 76 1800 280/04 RMK AO2 SLP173 T02830239
53843K79J 79J20160729080010807/29/16 08:00:31  5-MIN K79J 291300Z AUTO 27004KT 10SM CLR 29/24 A3005 190 74 1900 270/04 RMK AO2 T02890239
53843K79J 79J20160729080510807/29/16 08:05:31  5-MIN K79J 291305Z AUTO 29004KT 10SM CLR 29/24 A3006 190 76 1900 290/04 RMK AO2 T02890244
53843K79J 79J20160729081010807/29/16 08:10:31  5-MIN K79J 291310Z AUTO 28004KT 10SM CLR 29/24 A3006 190 74 1900 280/04 RMK AO2 T02940244
53843K79J 79J20160729081510807/29/16 08:15:31  5-MIN K79J 291315Z AUTO 25004KT 10SM CLR 29/24 A3006 190 74 1900 250/04 RMK AO2 T02940244
53843K79J 79J20160729082010807/29/16 08:20:31  5-MIN K79J 291320Z AUTO 26003KT 10SM CLR 30/24 A3006 190 72 2000 260/03 RMK AO2 T03000244
53843K79J 79J20160729082510807/29/16 08:25:31  5-MIN K79J 291325Z AUTO 29005KT 10SM CLR 31/24 A3006 190 69 2100 290/05 RMK AO2 T03060244
53843K79J 79J20160729083010807/29/16 08:30:31  5-MIN K79J 291330Z AUTO 24004KT 10SM CLR 31/24 A3006 190 69 2100 250/04 RMK AO2 T03060244
53843K79J 79J20160729083510807/29/16 08:35:31  5-MIN K79J 291335Z AUTO 27006KT 10SM CLR 31/24 A3005 190 69 2100 280/06 RMK AO2 T03060244
53843K79J 79J20160729084010807/29/16 08:40:31  5-MIN K79J 291340Z AUTO 27006KT 10SM CLR 31/24 A3006 190 67 2100 270/06 RMK AO2 T03110244
53843K79J 79J20160729084510807/29/16 08:45:31  5-MIN K79J 291345Z AUTO 27007KT 10SM CLR 31/24 A3006 190 67 2100 280/07 RMK AO2 T03110244
53843K79J 79J20160729085011507/29/16 08:50:31  5-MIN K79J 291350Z AUTO VRB05KT 10SM CLR 31/24 A3006 180 67 2100 VRB/05 RMK AO2 SLP174 T03110244
53843K79J 79J20160729085511507/29/16 08:55:31  5-MIN K79J 291355Z AUTO 28008KT 10SM CLR 31/24 A3006 180 65 2100 280/08 RMK AO2 SLP174 T03110239
53843K79J 79J20160729090010807/29/16 09:00:31  5-MIN K79J 291400Z AUTO 28009KT 10SM CLR 32/24 A3006 180 63 2200 290/09 RMK AO2 T03170239
53843K79J 79J20160729090510807/29/16 09:05:31  5-MIN K79J 291405Z AUTO 27009KT 10SM CLR 32/24 A3006 180 63 2200 270/09 RMK AO2 T03170239
53843K79J 79J20160729091011107/29/16 09:10:31  5-MIN K79J 291410Z AUTO 26007KT 10SM FEW021 32/24 A3006 180 63 2200 260/07 RMK AO2 T03170239
53843K79J 79J20160729091511107/29/16 09:15:31  5-MIN K79J 291415Z AUTO 29009KT 10SM FEW021 32/23 A3006 180 61 2200 290/09 RMK AO2 T03170233
53843K79J 79J20160729092011107/29/16 09:20:31  5-MIN K79J 291420Z AUTO 26006KT 10SM FEW021 32/24 A3006 180 61 2200 260/06 RMK AO2 T03220239
53843K79J 79J20160729092511107/29/16 09:25:31  5-MIN K79J 291425Z AUTO 28006KT 10SM FEW021 32/24 A3006 180 61 2200 280/06 RMK AO2 T03220239
53843K79J 79J20160729093011107/29/16 09:30:31  5-MIN K79J 291430Z AUTO 26006KT 10SM FEW021 32/24 A3006 180 63 2200 260/06 RMK AO2 T03170239
53843K79J 79J20160729093511107/29/16 09:35:31  5-MIN K79J 291435Z AUTO 29010KT 10SM FEW021 33/24 A3006 180 59 2300 290/10 RMK AO2 T03280239
53843K79J 79J20160729094011107/29/16 09:40:31  5-MIN K79J 291440Z AUTO 28008KT 10SM FEW023 32/24 A3006 180 61 2200 280/08 RMK AO2 T03220239
53843K79J 79J20160729094511107/29/16 09:45:31  5-MIN K79J 291445Z AUTO 28008KT 10SM SCT023 32/23 A3006 180 61 2200 280/08 RMK AO2 T03170233
53843K79J 79J20160729095012407/29/16 09:50:31  5-MIN K79J 291450Z AUTO 26007KT 10SM FEW023 32/23 A3006 180 59 2200 260/07 RMK AO2 SLP174 T03220233 53007
53843K79J 79J20160729095512407/29/16 09:55:31  5-MIN K79J 291455Z AUTO 27006KT 10SM FEW024 32/23 A3006 180 59 2200 270/06 RMK AO2 SLP174 T03220233 53007
53843K79J 79J20160729100011107/29/16 10:00:31  5-MIN K79J 291500Z AUTO 24005KT 10SM FEW024 33/23 A3006 180 57 2300 240/05 RMK AO2 T03280233
53843K79J 79J20160729100511107/29/16 10:05:31  5-MIN K79J 291505Z AUTO VRB05KT 10SM FEW024 33/23 A3006 180 57 2300 VRB/05 RMK AO2 T03280233
53843K79J 79J20160729101011107/29/16 10:10:31  5-MIN K79J 291510Z AUTO 23004KT 10SM FEW026 33/24 A3006 180 59 2300 240/04 RMK AO2 T03280239
53843K79J 79J20160729101511107/29/16 10:15:31  5-MIN K79J 291515Z AUTO 28008KT 10SM FEW026 33/23 A3006 180 55 2400 280/08 RMK AO2 T03330233
53843K79J 79J20160729102010807/29/16 10:20:31  5-MIN K79J 291520Z AUTO 30006KT 10SM CLR 33/23 A3006 180 57 2300 300/06 RMK AO2 T03280233
53843K79J 79J20160729102511107/29/16 10:25:31  5-MIN K79J 291525Z AUTO VRB06KT 10SM FEW026 33/23 A3006 180 55 2400 VRB/06 RMK AO2 T03330233
53843K79J 79J20160729103010107/29/16 10:30:31  5-MIN K79J 291530Z AUTO 10SM FEW026 34/23 A3006 180 53 2400 M /M RMK AO2 T03390233
53843K79J 79J20160729103510807/29/16 10:35:31  5-MIN K79J 291535Z AUTO 24006KT 10SM CLR 34/23 A3006 180 51 2400 240/06 RMK AO2 T03390228
53843K79J 79J20160729104010807/29/16 10:40:31  5-MIN K79J 291540Z AUTO 27008KT 10SM CLR 34/23 A3006 180 51 2400 270/08 RMK AO2 T03390228
53843K79J 79J20160729104511107/29/16 10:45:31  5-MIN K79J 291545Z AUTO 25006KT 10SM FEW029 34/22 A3006 180 50 2400 250/06 RMK AO2 T03390222
53843K79J 79J20160729105012507/29/16 10:50:31  5-MIN K79J 291550Z AUTO 22005KT 10SM FEW029 FEW035 34/23 A3006 180 51 2400 220/05 RMK AO2 SLP174 T03390228
53843K79J 79J20160729105511807/29/16 10:55:31  5-MIN K79J 291555Z AUTO 30006KT 10SM FEW033 34/22 A3006 180 48 2500 300/06 RMK AO2 SLP174 T03440222
53843K79J 79J20160729110011807/29/16 11:00:31  5-MIN K79J 291600Z AUTO VRB04KT 10SM FEW033 SCT055 34/23 A3006 180 51 2400 VRB/04 RMK AO2 T03390228
53843K79J 79J20160729110511807/29/16 11:05:31  5-MIN K79J 291605Z AUTO 29008KT 10SM SCT033 SCT055 34/23 A3006 180 51 2400 290/08 RMK AO2 T03390228
53843K79J 79J20160729111011107/29/16 11:10:31  5-MIN K79J 291610Z AUTO 30007KT 10SM SCT033 33/23 A3006 180 55 2300 300/07 RMK AO2 T03280228
53843K79J 79J20160729111511107/29/16 11:15:31  5-MIN K79J 291615Z AUTO 28005KT 10SM SCT033 33/23 A3006 180 53 2400 290/05 RMK AO2 T03330228
53843K79J 79J20160729112011107/29/16 11:20:31  5-MIN K79J 291620Z AUTO 00000KT 10SM SCT033 33/22 A3006 180 51 2400 000/00 RMK AO2 T03330222
53843K79J 79J20160729112511107/29/16 11:25:31  5-MIN K79J 291625Z AUTO VRB05KT 10SM SCT033 34/23 A3006 190 51 2400 VRB/05 RMK AO2 T03390228
53843K79J 79J20160729113011107/29/16 11:30:31  5-MIN K79J 291630Z AUTO VRB05KT 10SM FEW033 34/23 A3005 190 50 2500 VRB/05 RMK AO2 T03440228
53843K79J 79J20160729113511107/29/16 11:35:31  5-MIN K79J 291635Z AUTO 29007KT 10SM SCT033 34/23 A3005 190 50 2500 290/07 RMK AO2 T03440228
53843K79J 79J20160729114011807/29/16 11:40:31  5-MIN K79J 291640Z AUTO 30006KT 10SM SCT033 SCT042 33/23 A3005 190 53 2400 300/06 RMK AO2 T03330228
53843K79J 79J20160729114511807/29/16 11:45:31  5-MIN K79J 291645Z AUTO VRB06KT 10SM FEW033 FEW042 34/23 A3005 190 51 2400 VRB/06 RMK AO2 T03390228
53843K79J 79J20160729115011807/29/16 11:50:31  5-MIN K79J 291650Z AUTO 26006KT 10SM FEW033 34/22 A3005 190 46 2500 260/06 RMK AO2 SLP170 T03440217
53843K79J 79J20160729115511807/29/16 11:55:31  5-MIN K79J 291655Z AUTO 28005KT 10SM FEW035 35/22 A3005 190 47 2500 280/05 RMK AO2 SLP169 T03500222
53843K79J 79J20160729120011107/29/16 12:00:31  5-MIN K79J 291700Z AUTO 30008KT 10SM SCT035 36/22 A3005 190 45 2600 300/08 RMK AO2 T03560222
53843K79J 79J20160729120511107/29/16 12:05:31  5-MIN K79J 291705Z AUTO VRB03KT 10SM FEW037 36/22 A3005 200 44 2600 VRB/03 RMK AO2 T03560217
53843K79J 79J20160729121012707/29/16 12:10:31  5-MIN K79J 291710Z AUTO 25007KT 210V290 10SM FEW037 36/21 A3005 200 42 2600 250/07 210V290 RMK AO2 T03560211
53843K79J 79J20160729121511107/29/16 12:15:31  5-MIN K79J 291715Z AUTO 28006KT 10SM FEW038 36/22 A3004 200 44 2600 280/06 RMK AO2 T03560217
53843K79J 79J20160729122011107/29/16 12:20:31  5-MIN K79J 291720Z AUTO VRB03KT 10SM FEW038 36/22 A3005 200 45 2600 VRB/03 RMK AO2 T03560222
53843K79J 79J20160729122510807/29/16 12:25:31  5-MIN K79J 291725Z AUTO 26007KT 10SM CLR 36/22 A3005 200 44 2600 260/07 RMK AO2 T03560217
53843K79J 79J20160729123010807/29/16 12:30:31  5-MIN K79J 291730Z AUTO 30007KT 10SM CLR 36/22 A3005 200 44 2600 300/07 RMK AO2 T03560217
53843K79J 79J20160729123510807/29/16 12:35:31  5-MIN K79J 291735Z AUTO 33005KT 10SM CLR 36/22 A3004 200 44 2600 330/05 RMK AO2 T03560217
53843K79J 79J20160729124010807/29/16 12:40:31  5-MIN K79J 291740Z AUTO 25007KT 10SM CLR 36/22 A3004 200 44 2600 250/07 RMK AO2 T03560217
53843K79J 79J20160729124510807/29/16 12:45:31  5-MIN K79J 291745Z AUTO VRB03KT 10SM CLR 36/22 A3004 200 44 2600 VRB/03 RMK AO2 T03560217
53843K79J 79J20160729125012307/29/16 12:50:31  5-MIN K79J 291750Z AUTO 10SM CLR 36/22 A3004 210 44 2600 M /M RMK AO2 SLP164 T03560217 10356 20256 52002
53843K79J 79J20160729125513307/29/16 12:55:31  5-MIN K79J 291755Z AUTO 30009KT 10SM CLR 36/22 A3003 210 42 2700 300/09 RMK AO2 SLP164 T03610217 10361 20256 52002
53843K79J 79J20160729130010807/29/16 13:00:31  5-MIN K79J 291800Z AUTO 30005KT 10SM CLR 36/21 A3003 210 41 2700 300/05 RMK AO2 T03610211
53843K79J 79J20160729130510807/29/16 13:05:31  5-MIN K79J 291805Z AUTO 31009KT 10SM CLR 36/22 A3003 210 42 2700 310/09 RMK AO2 T03610217
53843K79J 79J20160729131010807/29/16 13:10:31  5-MIN K79J 291810Z AUTO 30009KT 10SM CLR 36/22 A3003 210 42 2700 310/09 RMK AO2 T03610217
53843K79J 79J20160729131511407/29/16 13:15:31  5-MIN K79J 291815Z AUTO 30013G18KT 10SM CLR 36/22 A3003 210 45 2600 300/13G18 RMK AO2 T03560222
53843K79J 79J20160729132010807/29/16 13:20:31  5-MIN K79J 291820Z AUTO 30011KT 10SM CLR 36/22 A3003 210 45 2600 300/11 RMK AO2 T03560222
53843K79J 79J20160729132510807/29/16 13:25:31  5-MIN K79J 291825Z AUTO 30009KT 10SM CLR 35/22 A3003 210 47 2600 300/09 RMK AO2 T03500222
53843K79J 79J20160729133010807/29/16 13:30:31  5-MIN K79J 291830Z AUTO 33007KT 10SM CLR 36/23 A3003 210 47 2600 330/07 RMK AO2 T03560228
53843K79J 79J20160729133510807/29/16 13:35:31  5-MIN K79J 291835Z AUTO 33008KT 10SM CLR 36/23 A3003 210 47 2600 340/08 RMK AO2 T03560228
53843K79J 79J20160729134010807/29/16 13:40:31  5-MIN K79J 291840Z AUTO 30007KT 10SM CLR 36/22 A3003 210 44 2700 310/07 RMK AO2 T03610222
53843K79J 79J20160729134510807/29/16 13:45:31  5-MIN K79J 291845Z AUTO VRB04KT 10SM CLR 36/22 A3003 210 45 2600 VRB/04 RMK AO2 T03560222
53843K79J 79J20160729135011507/29/16 13:50:31  5-MIN K79J 291850Z AUTO 32008KT 10SM CLR 36/22 A3003 210 44 2700 320/08 RMK AO2 SLP161 T03610222
53843K79J 79J20160729135513107/29/16 13:55:31  5-MIN K79J 291855Z AUTO 29007KT 260V330 10SM CLR 35/22 A3003 210 45 2600 290/07 260V330 RMK AO2 SLP161 T03500217
53843K79J 79J20160729140011107/29/16 14:00:31  5-MIN K79J 291900Z AUTO 30006KT 10SM FEW100 36/23 A3002 220 47 2600 310/06 RMK AO2 T03560228
53843K79J 79J20160729140511807/29/16 14:05:31  5-MIN K79J 291905Z AUTO 31007KT 10SM FEW070 FEW100 36/22 A3002 220 45 2600 310/07 RMK AO2 T03560222
53843K79J 79J20160729141012507/29/16 14:10:31  5-MIN K79J 291910Z AUTO 31008KT 10SM FEW043 FEW070 SCT100 35/22 A3002 220 47 2600 310/08 RMK AO2 T03500222
53843K79J 79J20160729141512507/29/16 14:15:31  5-MIN K79J 291915Z AUTO 33009KT 10SM FEW043 FEW070 SCT100 34/22 A3001 230 46 2500 330/09 RMK AO2 T03440217
53843K79J 79J20160729142011107/29/16 14:20:31  5-MIN K79J 291920Z AUTO 32005KT 10SM FEW095 34/22 A3001 230 48 2500 320/05 RMK AO2 T03440222
53843K79J 79J20160729142511107/29/16 14:25:31  5-MIN K79J 291925Z AUTO 31005KT 10SM SCT100 34/22 A3001 230 48 2500 320/05 RMK AO2 T03440222
53843K79J 79J20160729143011107/29/16 14:30:31  5-MIN K79J 291930Z AUTO VRB03KT 10SM SCT095 36/22 A3001 230 44 2700 VRB/03 RMK AO2 T03610222
53843K79J 79J20160729143511107/29/16 14:35:31  5-MIN K79J 291935Z AUTO 22004KT 10SM FEW100 37/22 A3001 230 42 2800 220/04 RMK AO2 T03670222
53843K79J 79J20160729144011107/29/16 14:40:31  5-MIN K79J 291940Z AUTO 31008KT 10SM FEW100 36/22 A3001 230 42 2700 310/08 RMK AO2 T03610217
53843K79J 79J20160729144511807/29/16 14:45:31  5-MIN K79J 291945Z AUTO 31006KT 10SM FEW075 SCT100 35/21 A3001 230 43 2600 320/06 RMK AO2 T03500211
53843K79J 79J20160729145013207/29/16 14:50:31  5-MIN K79J 291950Z AUTO VRB03KT 10SM FEW055 SCT075 BKN100 34/21 A3001 230 45 2500 VRB/03 RMK AO2 SLP158 T03440211
53843K79J 79J20160729145511507/29/16 14:55:31  5-MIN K79J 291955Z AUTO 10SM SCT048 BKN080 34/22 A3002 220 50 2500 M /M RMK AO2 SLP159 T03390222
53843K79J 79J20160729150013107/29/16 15:00:31  5-MIN K79J 292000Z AUTO 18008G20KT 10SM FEW039 SCT048 BKN055 31/22 A3002 220 58 2200 180/08G20 RMK AO2 T03110222
53843K79J 79J20160729150513107/29/16 15:05:31  5-MIN K79J 292005Z AUTO 16011G20KT 10SM FEW041 BKN048 BKN060 31/23 A3002 220 62 2100 160/11G20 RMK AO2 T03060228
53843K79J 79J20160729151013107/29/16 15:10:31  5-MIN K79J 292010Z AUTO 17008G18KT 10SM FEW041 BKN048 BKN060 29/23 A3002 220 67 2000 170/08G18 RMK AO2 T02940228
53843K79J 79J20160729151514707/29/16 15:15:31  5-MIN K79J 292015Z AUTO 18007G15KT 150V220 10SM SCT047 BKN060 BKN080 29/23 A3002 220 67 2000 180/07G15 150V220 RMK AO2 T02940228
53843K79J 79J20160729152014107/29/16 15:20:31  5-MIN K79J 292020Z AUTO 16007KT 130V210 10SM SCT046 BKN060 BKN100 29/23 A3002 220 67 2000 160/07 130V210 RMK AO2 T02940228
53843K79J 79J20160729152514107/29/16 15:25:31  5-MIN K79J 292025Z AUTO 18008KT 150V220 10SM SCT046 BKN060 BKN100 29/22 A3002 220 64 2000 180/08 150V220 RMK AO2 T02940222
53843K79J 79J20160729153013407/29/16 15:30:31  5-MIN K79J 292030Z AUTO 17007KT 150V210 10SM BKN055 BKN100 29/22 A3002 220 67 1900 170/07 150V210 RMK AO2 T02890222
53843K79J 79J20160729153512507/29/16 15:35:31  5-MIN K79J 292035Z AUTO 17007KT 10SM FEW050 SCT065 BKN100 29/23 A3002 220 69 1900 170/07 RMK AO2 T02890228
53843K79J 79J20160729154007207/29/16 15:40:31  5-MIN K79J 292040Z AUTO 17006KT 6SM RA FEW050 SCT080 
53843K79J 79J20160729205011507/29/16 20:50:31  5-MIN K79J 300150Z AUTO 27004KT 10SM CLR 28/24 A3002 220 76 1800 270/04 RMK AO2 SLP160 T02830239
53843K79J 79J20160729205511507/29/16 20:55:31  5-MIN K79J 300155Z AUTO 25003KT 10SM CLR 28/23 A3002 220 74 1800 250/03 RMK AO2 SLP161 T02830233
53843K79J 79J20160729210010807/29/16 21:00:31  5-MIN K79J 300200Z AUTO 24003KT 10SM CLR 28/23 A3002 220 74 1800 240/03 RMK AO2 T02830233
53843K79J 79J20160729210510807/29/16 21:05:31  5-MIN K79J 300205Z AUTO 23003KT 10SM CLR 28/23 A3003 220 74 1800 240/03 RMK AO2 T02830233
53843K79J 79J20160729211010807/29/16 21:10:31  5-MIN K79J 300210Z AUTO 27004KT 10SM CLR 28/23 A3003 210 71 1800 270/04 RMK AO2 T02830228
53843K79J 79J20160729211510807/29/16 21:15:31  5-MIN K79J 300215Z AUTO 26003KT 10SM CLR 28/23 A3003 210 74 1800 260/03 RMK AO2 T02780228
53843K79J 79J20160729212010807/29/16 21:20:31  5-MIN K79J 300220Z AUTO 00000KT 10SM CLR 28/23 A3003 210 74 1800 000/00 RMK AO2 T02780228
53843K79J 79J20160729212510807/29/16 21:25:31  5-MIN K79J 300225Z AUTO 00000KT 10SM CLR 28/23 A3003 210 74 1800 000/00 RMK AO2 T02780228
53843K79J 79J20160729213010807/29/16 21:30:31  5-MIN K79J 300230Z AUTO 24003KT 10SM CLR 27/23 A3003 210 76 1700 240/03 RMK AO2 T02720228
53843K79J 79J20160729213510807/29/16 21:35:31  5-MIN K79J 300235Z AUTO 27004KT 10SM CLR 27/23 A3004 200 76 1700 270/04 RMK AO2 T02720228
53843K79J 79J20160729214010807/29/16 21:40:31  5-MIN K79J 300240Z AUTO 27003KT 10SM CLR 28/23 A3004 200 74 1800 270/03 RMK AO2 T02780228
53843K79J 79J20160729214510807/29/16 21:45:31  5-MIN K79J 300245Z AUTO 00000KT 10SM CLR 27/23 A3004 200 76 1700 000/00 RMK AO2 T02720228
53843K79J 79J20160729215006907/29/16 21:50:31  5-MIN K79J 300250Z AUTO M M M M /M RMK AO2 SLPNO $
53843K79J 79J20160729215510807/29/16 21:55:31  5-MIN K79J 300255Z AUTO 00000KT 27/23 A3004 200 76 1700 000/00 RMK AO2 SLP168 T02720228 $
53843K79J 79J20160729220010607/29/16 22:00:31  5-MIN K79J 300300Z AUTO 00000KT 10SM 27/23 A3004 200 76 1700 000/00 RMK AO2 T02720228 $
53843K79J 79J20160729220510607/29/16 22:05:31  5-MIN K79J 300305Z AUTO 26003KT 10SM 27/23 A3004 200 76 1700 260/03 RMK AO2 T02720228 $
53843K79J 79J20160729221010607/29/16 22:10:31  5-MIN K79J 300310Z AUTO 28003KT 10SM 27/23 A3004 200 76 1700 290/03 RMK AO2 T02720228 $
53843K79J 79J20160729221510607/29/16 22:15:31  5-MIN K79J 300315Z AUTO 00000KT 10SM 27/23 A3004 200 76 1700 000/00 RMK AO2 T02720228 $
53843K79J 79J20160729222011007/29/16 22:20:31  5-MIN K79J 300320Z AUTO 00000KT 10SM CLR 27/23 A3004 210 76 1700 000/00 RMK AO2 T02720228 $
53843K79J 79J20160729222511007/29/16 22:25:31  5-MIN K79J 300325Z AUTO 00000KT 10SM CLR 27/23 A3003 210 79 1600 000/00 RMK AO2 T02670228 $
53843K79J 79J20160729223011007/29/16 22:30:31  5-MIN K79J 300330Z AUTO 00000KT 10SM CLR 27/23 A3003 210 79 1600 000/00 RMK AO2 T02670228 $
53843K79J 79J20160729223511007/29/16 22:35:31  5-MIN K79J 300335Z AUTO 00000KT 10SM CLR 27/23 A3004 210 79 1600 000/00 RMK AO2 T02670228 $
53843K79J 79J20160729224011007/29/16 22:40:31  5-MIN K79J 300340Z AUTO 00000KT 10SM CLR 27/23 A3003 210 79 1600 000/00 RMK AO2 T02670228 $
53843K79J 79J20160729224511007/29/16 22:45:31  5-MIN K79J 300345Z AUTO 00000KT 10SM CLR 26/23 A3003 210 81 1600 000/00 RMK AO2 T02610228 $
53843K79J 79J20160729225011707/29/16 22:50:31  5-MIN K79J 300350Z AUTO 00000KT 10SM CLR 26/22 A3003 210 79 1600 000/00 RMK AO2 SLP165 T02610222 $
53843K79J 79J20160729225511707/29/16 22:55:31  5-MIN K79J 300355Z AUTO 00000KT 10SM CLR 27/22 A3003 210 76 1600 000/00 RMK AO2 SLP163 T02670222 $
53843K79J 79J20160729230011007/29/16 23:00:31  5-MIN K79J 300400Z AUTO 00000KT 10SM CLR 27/22 A3003 210 76 1600 000/00 RMK AO2 T02670222 $
53843K79J 79J20160729230511007/29/16 23:05:31  5-MIN K79J 300405Z AUTO 00000KT 10SM CLR 27/22 A3003 210 76 1600 000/00 RMK AO2 T02670222 $
53843K79J 79J20160729231011007/29/16 23:10:31  5-MIN K79J 300410Z AUTO 00000KT 10SM CLR 27/22 A3003 210 76 1600 000/00 RMK AO2 T02670222 $
53843K79J 79J20160729231511007/29/16 23:15:31  5-MIN K79J 300415Z AUTO 00000KT 10SM CLR 27/22 A3003 210 76 1600 000/00 RMK AO2 T02670222 $
53843K79J 79J20160729232011007/29/16 23:20:31  5-MIN K79J 300420Z AUTO 00000KT 10SM CLR 27/22 A3003 210 76 1600 000/00 RMK AO2 T02670222 $
53843K79J 79J20160729232511007/29/16 23:25:31  5-MIN K79J 300425Z AUTO 00000KT 10SM CLR 27/22 A3003 210 76 1600 000/00 RMK AO2 T02670222 $
53843K79J 79J20160729233011007/29/16 23:30:31  5-MIN K79J 300430Z AUTO 00000KT 10SM CLR 26/22 A3003 210 79 1600 000/00 RMK AO2 T02610222 $
53843K79J 79J20160729233511007/29/16 23:35:31  5-MIN K79J 300435Z AUTO 00000KT 10SM CLR 26/22 A3003 210 79 1600 000/00 RMK AO2 T02610222 $
53843K79J 79J20160729234011007/29/16 23:40:31  5-MIN K79J 300440Z AUTO 23003KT 10SM CLR 26/22 A3003 210 79 1600 230/03 RMK AO2 T02610222 $
53843K79J 79J20160729234511007/29/16 23:45:31  5-MIN K79J 300445Z AUTO 00000KT 10SM CLR 26/22 A3003 210 79 1600 000/00 RMK AO2 T02610222 $
53843K79J 79J20160729235012707/29/16 23:50:31  5-MIN K79J 300450Z AUTO 00000KT 10SM CLR 26/22 A3003 210 79 1600 000/00 RMK AO2 SLP164 T02610222 403670244 $
53843K79J 79J20160729235512707/29/16 23:55:31  5-MIN K79J 300455Z AUTO 00000KT 10SM CLR 26/22 A3003 210 79 1600 000/00 RMK AO2 SLP163 T02610222 403670244 $
53843K79J 79J20160730000011007/30/16 00:00:31  5-MIN K79J 300500Z AUTO 00000KT 10SM CLR 26/22 A3003 210 81 1500 000/00 RMK AO2 T02560222 $
53843K79J 79J20160730000511007/30/16 00:05:31  5-MIN K79J 300505Z AUTO 00000KT 10SM CLR 26/22 A3003 210 81 1500 000/00 RMK AO2 T02560222 $
53843K79J 79J20160730001011007/30/16 00:10:31  5-MIN K79J 300510Z AUTO 00000KT 10SM CLR 26/22 A3003 210 81 1500 000/00 RMK AO2 T02560222 $
53843K79J 79J20160730001511007/30/16 00:15:31  5-MIN K79J 300515Z AUTO 00000KT 10SM CLR 26/22 A3003 210 81 1500 000/00 RMK AO2 T02560222 $
53843K79J 79J20160730002011007/30/16 00:20:31  5-MIN K79J 300520Z AUTO 00000KT 10SM CLR 26/22 A3003 210 81 1500 000/00 RMK AO2 T02560222 $
53843K79J 79J20160730002511007/30/16 00:25:31  5-MIN K79J 300525Z AUTO 00000KT 10SM CLR 26/22 A3003 210 81 1500 000/00 RMK AO2 T02560222 $
53843K79J 79J20160730003011007/30/16 00:30:31  5-MIN K79J 300530Z AUTO 00000KT 10SM CLR 26/22 A3003 220 81 1500 000/00 RMK AO2 T02560222 $
53843K79J 79J20160730003511007/30/16 00:35:31  5-MIN K79J 300535Z AUTO 00000KT 10SM CLR 26/22 A3002 220 81 1500 000/00 RMK AO2 T02560222 $
53843K79J 79J20160730004011007/30/16 00:40:31  5-MIN K79J 300540Z AUTO 00000KT 10SM CLR 26/22 A3002 220 81 1500 000/00 RMK AO2 T02560222 $
53843K79J 79J20160730004511007/30/16 00:45:31  5-MIN K79J 300545Z AUTO 00000KT 10SM CLR 26/22 A3002 220 81 1500 000/00 RMK AO2 T02560222 $
53843K79J 79J20160730005012907/30/16 00:50:31  5-MIN K79J 300550Z AUTO 00000KT 10SM CLR 26/22 A3002 220 81 1500 000/00 RMK AO2 SLP159 T02560222 10300 20256 $
53843K79J 79J20160730005512907/30/16 00:55:31  5-MIN K79J 300555Z AUTO 00000KT 10SM CLR 26/22 A3002 220 81 1500 000/00 RMK AO2 SLP158 T02560222 10300 20256 $
53843K79J 79J20160730010011007/30/16 01:00:31  5-MIN K79J 300600Z AUTO 00000KT 10SM CLR 26/22 A3002 220 81 1500 000/00 RMK AO2 T02560222 $
53843K79J 79J20160730010511007/30/16 01:05:31  5-MIN K79J 300605Z AUTO 00000KT 10SM CLR 26/22 A3002 220 81 1500 000/00 RMK AO2 T02560222 $
53843K79J 79J20160730011011007/30/16 01:10:31  5-MIN K79J 300610Z AUTO 00000KT 10SM CLR 26/22 A3002 220 81 1500 000/00 RMK AO2 T02560222 $
53843K79J 79J20160730011511007/30/16 01:15:31  5-MIN K79J 300615Z AUTO 00000KT 10SM CLR 26/22 A3002 220 81 1500 000/00 RMK AO2 T02560222 $
53843K79J 79J20160730012011007/30/16 01:20:31  5-MIN K79J 300620Z AUTO 00000KT 10SM CLR 26/22 A3002 220 81 1500 000/00 RMK AO2 T02560222 $
53843K79J 79J20160730012511007/30/16 01:25:31  5-MIN K79J 300625Z AUTO 00000KT 10SM CLR 26/22 A3002 220 81 1500 000/00 RMK AO2 T02560222 $
53843K79J 79J20160730013011007/30/16 01:30:31  5-MIN K79J 300630Z AUTO 00000KT 10SM CLR 26/22 A3002 220 81 1500 000/00 RMK AO2 T02560222 $
53843K79J 79J20160730013511007/30/16 01:35:31  5-MIN K79J 300635Z AUTO 00000KT 10SM CLR 26/22 A3001 220 81 1500 000/00 RMK AO2 T02560222 $
53843K79J 79J20160730014011007/30/16 01:40:31  5-MIN K79J 300640Z AUTO 22003KT 10SM CLR 26/22 A3001 220 81 1500 230/03 RMK AO2 T02560222 $
53843K79J 79J20160730014511007/30/16 01:45:31  5-MIN K79J 300645Z AUTO 23003KT 10SM CLR 26/22 A3001 230 81 1500 240/03 RMK AO2 T02560222 $
53843K79J 79J20160730015011707/30/16 01:50:31  5-MIN K79J 300650Z AUTO 00000KT 10SM CLR 26/22 A3001 230 81 1500 000/00 RMK AO2 SLP156 T02560222 $
53843K79J 79J20160730015511707/30/16 01:55:31  5-MIN K79J 300655Z AUTO 00000KT 10SM CLR 26/22 A3001 230 81 1500 000/00 RMK AO2 SLP156 T02560222 $
53843K79J 79J20160730020011007/30/16 02:00:31  5-MIN K79J 300700Z AUTO 00000KT 10SM CLR 26/22 A3001 230 81 1500 000/00 RMK AO2 T02560222 $
53843K79J 79J20160730020511007/30/16 02:05:31  5-MIN K79J 300705Z AUTO VRB03KT 10SM CLR 26/22 A3001 230 81 1500 VRB/03 RMK AO2 T02560222 $
53843K79J 79J20160730021011007/30/16 02:10:31  5-MIN K79J 300710Z AUTO 00000KT 10SM CLR 26/22 A3001 230 81 1500 000/00 RMK AO2 T02560222 $
53843K79J 79J20160730021511007/30/16 02:15:31  5-MIN K79J 300715Z AUTO 00000KT 10SM CLR 26/22 A3000 240 81 1600 000/00 RMK AO2 T02560222 $
53843K79J 79J20160730022011007/30/16 02:20:31  5-MIN K79J 300720Z AUTO 25003KT 10SM CLR 26/22 A3000 230 81 1500 260/03 RMK AO2 T02560222 $
53843K79J 79J20160730022511007/30/16 02:25:31  5-MIN K79J 300725Z AUTO 00000KT 10SM CLR 26/22 A3000 240 81 1600 000/00 RMK AO2 T02560222 $
53843K79J 79J20160730023011007/30/16 02:30:31  5-MIN K79J 300730Z AUTO 00000KT 10SM CLR 26/22 A3000 240 81 1600 000/00 RMK AO2 T02560222 $
53843K79J 79J20160730023511007/30/16 02:35:31  5-MIN K79J 300735Z AUTO 00000KT 10SM CLR 26/22 A3001 230 81 1500 000/00 RMK AO2 T02560222 $
53843K79J 79J20160730024011007/30/16 02:40:31  5-MIN K79J 300740Z AUTO 27003KT 10SM CLR 26/22 A3000 230 81 1500 270/03 RMK AO2 T02560222 $
53843K79J 79J20160730024511007/30/16 02:45:31  5-MIN K79J 300745Z AUTO 00000KT 10SM CLR 26/22 A3000 230 81 1500 000/00 RMK AO2 T02560222 $
53843K79J 79J20160730025011707/30/16 02:50:31  5-MIN K79J 300750Z AUTO 00000KT 10SM CLR 26/22 A3000 240 81 1600 000/00 RMK AO2 SLP154 T02560222 $
53843K79J 79J20160730025511707/30/16 02:55:31  5-MIN K79J 300755Z AUTO 00000KT 10SM CLR 26/22 A3000 240 81 1600 000/00 RMK AO2 SLP154 T02560222 $
53843K79J 79J20160730030011007/30/16 03:00:31  5-MIN K79J 300800Z AUTO 00000KT 10SM CLR 26/22 A3000 240 81 1600 000/00 RMK AO2 T02560222 $
53843K79J 79J20160730030511007/30/16 03:05:31  5-MIN K79J 300805Z AUTO 25003KT 10SM CLR 26/22 A3000 240 81 1600 260/03 RMK AO2 T02560222 $
53843K79J 79J20160730031011007/30/16 03:10:31  5-MIN K79J 300810Z AUTO 26003KT 10SM CLR 26/22 A3000 240 81 1600 260/03 RMK AO2 T02560222 $
53843K79J 79J20160730031511007/30/16 03:15:31  5-MIN K79J 300815Z AUTO 26003KT 10SM CLR 26/22 A3000 240 81 1600 270/03 RMK AO2 T02560222 $
53843K79J 79J20160730032011007/30/16 03:20:31  5-MIN K79J 300820Z AUTO 25003KT 10SM CLR 26/22 A3000 240 81 1600 260/03 RMK AO2 T02560222 $
53843K79J 79J20160730032511007/30/16 03:25:31  5-MIN K79J 300825Z AUTO 00000KT 10SM CLR 26/22 A3000 240 81 1600 000/00 RMK AO2 T02560222 $
53843K79J 79J20160730033011007/30/16 03:30:31  5-MIN K79J 300830Z AUTO 00000KT 10SM CLR 26/22 A3000 240 81 1600 000/00 RMK AO2 T02560222 $
53843K79J 79J20160730033511007/30/16 03:35:31  5-MIN K79J 300835Z AUTO 00000KT 10SM CLR 26/22 A3000 240 81 1600 000/00 RMK AO2 T02560222 $
53843K79J 79J20160730034011007/30/16 03:40:31  5-MIN K79J 300840Z AUTO 00000KT 10SM CLR 26/22 A3000 240 81 1600 000/00 RMK AO2 T02560222 $
53843K79J 79J20160730034511007/30/16 03:45:31  5-MIN K79J 300845Z AUTO 00000KT 10SM CLR 25/22 A3000 240 84 1500 000/00 RMK AO2 T02500222 $
53843K79J 79J20160730035012307/30/16 03:50:31  5-MIN K79J 300850Z AUTO 00000KT 10SM CLR 25/22 A2999 240 84 1500 000/00 RMK AO2 SLP151 T02500222 58008 $
53843K79J 79J20160730035512307/30/16 03:55:31  5-MIN K79J 300855Z AUTO 00000KT 10SM CLR 25/22 A2999 240 84 1500 000/00 RMK AO2 SLP152 T02500222 58008 $
53843K79J 79J20160730040011007/30/16 04:00:31  5-MIN K79J 300900Z AUTO 00000KT 10SM CLR 25/22 A3000 240 84 1500 000/00 RMK AO2 T02500222 $
53843K79J 79J20160730040511007/30/16 04:05:31  5-MIN K79J 300905Z AUTO 00000KT 10SM CLR 25/22 A3000 240 84 1500 000/00 RMK AO2 T02500222 $
53843K79J 79J20160730041011007/30/16 04:10:31  5-MIN K79J 300910Z AUTO 00000KT 10SM CLR 26/22 A3000 240 81 1600 000/00 RMK AO2 T02560222 $
53843K79J 79J20160730041511007/30/16 04:15:31  5-MIN K79J 300915Z AUTO 24003KT 10SM CLR 26/22 A3000 240 81 1600 250/03 RMK AO2 T02560222 $
53843K79J 79J20160730042011007/30/16 04:20:31  5-MIN K79J 300920Z AUTO 00000KT 10SM CLR 26/22 A3000 240 81 1600 000/00 RMK AO2 T02560222 $
53843K79J 79J20160730042511007/30/16 04:25:31  5-MIN K79J 300925Z AUTO 00000KT 10SM CLR 26/22 A3000 240 81 1600 000/00 RMK AO2 T02560222 $
53843K79J 79J20160730043011007/30/16 04:30:31  5-MIN K79J 300930Z AUTO 28003KT 10SM CLR 26/22 A3000 240 81 1600 290/03 RMK AO2 T02560222 $
53843K79J 79J20160730043511007/30/16 04:35:31  5-MIN K79J 300935Z AUTO 30004KT 10SM CLR 26/22 A3000 240 81 1600 300/04 RMK AO2 T02560222 $
53843K79J 79J20160730044011007/30/16 04:40:31  5-MIN K79J 300940Z AUTO 29004KT 10SM CLR 25/22 A3000 240 84 1500 290/04 RMK AO2 T02500222 $
53843K79J 79J20160730044511007/30/16 04:45:31  5-MIN K79J 300945Z AUTO 27004KT 10SM CLR 25/22 A3000 240 84 1500 270/04 RMK AO2 T02500222 $
53843K79J 79J20160730045011707/30/16 04:50:31  5-MIN K79J 300950Z AUTO 27004KT 10SM CLR 26/23 A3000 240 84 1600 270/04 RMK AO2 SLP154 T02560228 $
53843K79J 79J20160730045511707/30/16 04:55:31  5-MIN K79J 300955Z AUTO 28003KT 10SM CLR 26/23 A3000 240 84 1600 280/03 RMK AO2 SLP154 T02560228 $
53843K79J 79J20160730050011007/30/16 05:00:31  5-MIN K79J 301000Z AUTO 00000KT 10SM CLR 26/23 A3000 240 84 1600 000/00 RMK AO2 T02560228 $
53843K79J 79J20160730050511007/30/16 05:05:31  5-MIN K79J 301005Z AUTO 00000KT 10SM CLR 26/23 A3000 240 84 1600 000/00 RMK AO2 T02560228 $
53843K79J 79J20160730051011007/30/16 05:10:31  5-MIN K79J 301010Z AUTO 00000KT 10SM CLR 26/22 A3000 240 81 1600 000/00 RMK AO2 T02560222 $
53843K79J 79J20160730051511007/30/16 05:15:31  5-MIN K79J 301015Z AUTO 00000KT 10SM CLR 26/23 A3000 230 84 1500 000/00 RMK AO2 T02560228 $
53843K79J 79J20160730052011007/30/16 05:20:31  5-MIN K79J 301020Z AUTO 00000KT 10SM CLR 26/23 A3001 230 84 1500 000/00 RMK AO2 T02560228 $
53843K79J 79J20160730052511007/30/16 05:25:31  5-MIN K79J 301025Z AUTO 25003KT 10SM CLR 26/23 A3001 230 84 1500 250/03 RMK AO2 T02560228 $
53843K79J 79J20160730053011007/30/16 05:30:31  5-MIN K79J 301030Z AUTO 26003KT 10SM CLR 26/23 A3001 230 84 1500 260/03 RMK AO2 T02560228 $
53843K79J 79J20160730053511007/30/16 05:35:31  5-MIN K79J 301035Z AUTO 24003KT 10SM CLR 26/23 A3001 230 84 1500 240/03 RMK AO2 T02560228 $
53843K79J 79J20160730054011007/30/16 05:40:31  5-MIN K79J 301040Z AUTO 00000KT 10SM CLR 26/23 A3001 230 84 1500 000/00 RMK AO2 T02560228 $
53843K79J 79J20160730054511007/30/16 05:45:31  5-MIN K79J 301045Z AUTO 00000KT 10SM CLR 26/23 A3001 230 84 1500 000/00 RMK AO2 T02560228 $
53843K79J 79J20160730055011707/30/16 05:50:31  5-MIN K79J 301050Z AUTO 00000KT 10SM CLR 26/22 A3001 220 81 1500 000/00 RMK AO2 SLP159 T02560222 $
53843K79J 79J20160730055511707/30/16 05:55:31  5-MIN K79J 301055Z AUTO 00000KT 10SM CLR 26/23 A3002 220 84 1500 000/00 RMK AO2 SLP159 T02560228 $
53843K79J 79J20160730060011007/30/16 06:00:31  5-MIN K79J 301100Z AUTO 00000KT 10SM CLR 26/23 A3002 220 84 1500 000/00 RMK AO2 T02560228 $
53843K79J 79J20160730060511007/30/16 06:05:31  5-MIN K79J 301105Z AUTO 00000KT 10SM CLR 26/22 A3002 220 81 1500 000/00 RMK AO2 T02560222 $
53843K79J 79J20160730061011007/30/16 06:10:31  5-MIN K79J 301110Z AUTO 00000KT 10SM CLR 25/22 A3002 220 84 1500 000/00 RMK AO2 T02500222 $
53843K79J 79J20160730061511007/30/16 06:15:31  5-MIN K79J 301115Z AUTO 00000KT 10SM CLR 25/22 A3002 220 84 1500 000/00 RMK AO2 T02500222 $
53843K79J 79J20160730062011007/30/16 06:20:31  5-MIN K79J 301120Z AUTO 00000KT 10SM CLR 26/22 A3003 220 81 1500 000/00 RMK AO2 T02560222 $
53843K79J 79J20160730062511007/30/16 06:25:31  5-MIN K79J 301125Z AUTO 27003KT 10SM CLR 26/23 A3003 210 84 1500 270/03 RMK AO2 T02560228 $
53843K79J 79J20160730063011007/30/16 06:30:31  5-MIN K79J 301130Z AUTO 00000KT 10SM CLR 26/23 A3003 210 84 1500 000/00 RMK AO2 T02560228 $
53843K79J 79J20160730063511007/30/16 06:35:31  5-MIN K79J 301135Z AUTO 00000KT 10SM CLR 26/23 A3003 210 84 1500 000/00 RMK AO2 T02560228 $
53843K79J 79J20160730064011007/30/16 06:40:31  5-MIN K79J 301140Z AUTO 00000KT 10SM CLR 26/23 A3003 210 84 1500 000/00 RMK AO2 T02560228 $
53843K79J 79J20160730064511007/30/16 06:45:31  5-MIN K79J 301145Z AUTO 00000KT 10SM CLR 26/23 A3004 200 84 1500 000/00 RMK AO2 T02560228 $
53843K79J 79J20160730065014107/30/16 06:50:31  5-MIN K79J 301150Z AUTO 00000KT 10SM CLR 26/23 A3004 200 81 1600 000/00 RMK AO2 SLP166 70001 T02610228 10261 20250 58007 $
53843K79J 79J20160730065514107/30/16 06:55:31  5-MIN K79J 301155Z AUTO 00000KT 10SM CLR 26/23 A3004 200 81 1600 000/00 RMK AO2 SLP168 70001 T02610228 10261 20250 58007 $
53843K79J 79J20160730070011007/30/16 07:00:31  5-MIN K79J 301200Z AUTO 00000KT 10SM CLR 26/23 A3004 200 81 1600 000/00 RMK AO2 T02610228 $
53843K79J 79J20160730070511007/30/16 07:05:31  5-MIN K79J 301205Z AUTO 00000KT 10SM CLR 27/23 A3005 200 79 1600 000/00 RMK AO2 T02670228 $
53843K79J 79J20160730071011007/30/16 07:10:31  5-MIN K79J 301210Z AUTO 00000KT 10SM CLR 27/23 A3005 200 79 1600 000/00 RMK AO2 T02670228 $
53843K79J 79J20160730071511007/30/16 07:15:31  5-MIN K79J 301215Z AUTO 00000KT 10SM CLR 27/23 A3005 200 82 1600 000/00 RMK AO2 T02670233 $
53843K79J 79J20160730072011007/30/16 07:20:31  5-MIN K79J 301220Z AUTO 23003KT 10SM CLR 27/23 A3005 190 79 1700 240/03 RMK AO2 T02720233 $
53843K79J 79J20160730072511007/30/16 07:25:31  5-MIN K79J 301225Z AUTO 23003KT 10SM CLR 27/23 A3005 190 79 1700 240/03 RMK AO2 T02720233 $
53843K79J 79J20160730073011007/30/16 07:30:31  5-MIN K79J 301230Z AUTO VRB03KT 10SM CLR 27/23 A3005 190 79 1700 VRB/03 RMK AO2 T02720233 $
53843K79J 79J20160730073511007/30/16 07:35:31  5-MIN K79J 301235Z AUTO 25003KT 10SM CLR 27/23 A3005 190 79 1700 250/03 RMK AO2 T02720233 $
53843K79J 79J20160730074011007/30/16 07:40:31  5-MIN K79J 301240Z AUTO 24003KT 10SM CLR 28/23 A3005 190 76 1700 250/03 RMK AO2 T02780233 $
53843K79J 79J20160730074511007/30/16 07:45:31  5-MIN K79J 301245Z AUTO 00000KT 10SM CLR 28/23 A3006 190 76 1700 000/00 RMK AO2 T02780233 $
53843K79J 79J20160730075011707/30/16 07:50:31  5-MIN K79J 301250Z AUTO 00000KT 10SM CLR 28/23 A3006 190 74 1800 000/00 RMK AO2 SLP173 T02830233 $
53843K79J 79J20160730075511707/30/16 07:55:31  5-MIN K79J 301255Z AUTO 27005KT 10SM CLR 29/24 A3006 190 74 1900 270/05 RMK AO2 SLP173 T02890239 $
53843K79J 79J20160730080011007/30/16 08:00:31  5-MIN K79J 301300Z AUTO 27005KT 10SM CLR 29/24 A3006 180 74 1900 270/05 RMK AO2 T02890239 $
53843K79J 79J20160730080511007/30/16 08:05:31  5-MIN K79J 301305Z AUTO 29006KT 10SM CLR 29/24 A3006 180 71 1900 290/06 RMK AO2 T02940239 $
53843K79J 79J20160730081011007/30/16 08:10:31  5-MIN K79J 301310Z AUTO VRB05KT 10SM CLR 29/24 A3006 180 71 1900 VRB/05 RMK AO2 T02940239 $
53843K79J 79J20160730081511007/30/16 08:15:31  5-MIN K79J 301315Z AUTO 28008KT 10SM CLR 30/24 A3006 180 69 2000 290/08 RMK AO2 T03000239 $
53843K79J 79J20160730082011007/30/16 08:20:31  5-MIN K79J 301320Z AUTO 28009KT 10SM CLR 30/24 A3006 180 69 2000 280/09 RMK AO2 T03000239 $
53843K79J 79J20160730082511007/30/16 08:25:31  5-MIN K79J 301325Z AUTO 28007KT 10SM CLR 31/24 A3006 180 67 2000 290/07 RMK AO2 T03060239 $
53843K79J 79J20160730083011007/30/16 08:30:31  5-MIN K79J 301330Z AUTO 29007KT 10SM CLR 31/24 A3006 180 67 2000 290/07 RMK AO2 T03060239 $
53843K79J 79J20160730083511007/30/16 08:35:31  5-MIN K79J 301335Z AUTO 30008KT 10SM CLR 31/24 A3006 180 69 2000 300/08 RMK AO2 T03060244 $
53843K79J 79J20160730084011007/30/16 08:40:31  5-MIN K79J 301340Z AUTO 29008KT 10SM CLR 31/24 A3006 180 69 2000 290/08 RMK AO2 T03060244 $
53843K79J 79J20160730084511007/30/16 08:45:31  5-MIN K79J 301345Z AUTO 30009KT 10SM CLR 31/24 A3007 180 65 2100 300/09 RMK AO2 T03110239 $
53843K79J 79J20160730085011707/30/16 08:50:31  5-MIN K79J 301350Z AUTO 28007KT 10SM CLR 31/24 A3006 180 67 2100 280/07 RMK AO2 SLP175 T03110244 $
53843K79J 79J20160730085511707/30/16 08:55:31  5-MIN K79J 301355Z AUTO 27007KT 10SM CLR 31/24 A3006 180 65 2100 270/07 RMK AO2 SLP175 T03110239 $
53843K79J 79J20160730090011007/30/16 09:00:31  5-MIN K79J 301400Z AUTO 31006KT 10SM CLR 32/24 A3006 180 63 2200 310/06 RMK AO2 T03170239 $
53843K79J 79J20160730090511007/30/16 09:05:31  5-MIN K79J 301405Z AUTO 31007KT 10SM CLR 32/24 A3006 180 65 2200 310/07 RMK AO2 T03170244 $
53843K79J 79J20160730091011007/30/16 09:10:31  5-MIN K79J 301410Z AUTO 30008KT 10SM CLR 32/24 A3006 180 63 2200 300/08 RMK AO2 T03170239 $
53843K79J 79J20160730091511007/30/16 09:15:31  5-MIN K79J 301415Z AUTO 31008KT 10SM CLR 32/24 A3006 180 61 2200 310/08 RMK AO2 T03220239 $
53843K79J 79J20160730092011007/30/16 09:20:31  5-MIN K79J 301420Z AUTO 30009KT 10SM CLR 32/24 A3007 180 61 2200 310/09 RMK AO2 T03220239 $
53843K79J 79J20160730092511007/30/16 09:25:31  5-MIN K79J 301425Z AUTO 30008KT 10SM CLR 32/23 A3007 180 59 2200 300/08 RMK AO2 T03220233 $
53843K79J 79J20160730093011007/30/16 09:30:31  5-MIN K79J 301430Z AUTO 30007KT 10SM CLR 32/23 A3006 180 59 2200 300/07 RMK AO2 T03220233 $
53843K79J 79J20160730093511007/30/16 09:35:31  5-MIN K79J 301435Z AUTO 28007KT 10SM CLR 32/23 A3007 180 59 2200 280/07 RMK AO2 T03220233 $
53843K79J 79J20160730094011007/30/16 09:40:31  5-MIN K79J 301440Z AUTO 27006KT 10SM CLR 33/23 A3007 180 57 2300 270/06 RMK AO2 T03280233 $
53843K79J 79J20160730094511007/30/16 09:45:31  5-MIN K79J 301445Z AUTO 27006KT 10SM CLR 33/23 A3007 170 57 2300 280/06 RMK AO2 T03280233 $
53843K79J 79J20160730095012207/30/16 09:50:31  5-MIN K79J 301450Z AUTO 29007KT 10SM CLR 33/23 A3007 180 57 2300 290/07 RMK AO2 SLPNO T03280233 53016 $
53843K79J 79J20160730095512307/30/16 09:55:31  5-MIN K79J 301455Z AUTO 27008KT 10SM CLR 33/23 A3007 180 55 2300 270/08 RMK AO2 SLP176 T03330233 53016 $
53843K79J 79J20160730100011007/30/16 10:00:31  5-MIN K79J 301500Z AUTO 27004KT 10SM CLR 33/23 A3007 180 57 2300 280/04 RMK AO2 T03280233 $
53843K79J 79J20160730100511007/30/16 10:05:31  5-MIN K79J 301505Z AUTO 30008KT 10SM CLR 33/23 A3007 180 55 2300 300/08 RMK AO2 T03330233 $
53843K79J 79J20160730101011007/30/16 10:10:31  5-MIN K79J 301510Z AUTO 33008KT 10SM CLR 33/23 A3007 180 55 2300 340/08 RMK AO2 T03330233 $
53843K79J 79J20160730101511007/30/16 10:15:31  5-MIN K79J 301515Z AUTO VRB06KT 10SM CLR 33/23 A3007 170 55 2300 VRB/06 RMK AO2 T03330233 $
53843K79J 79J20160730102011007/30/16 10:20:31  5-MIN K79J 301520Z AUTO 31008KT 10SM CLR 33/23 A3007 170 55 2300 310/08 RMK AO2 T03330233 $
53843K79J 79J20160730102510807/30/16 10:25:31  5-MIN K79J 301525Z AUTO 27004KT 10SM CLR 34/23 A3007 170 53 2400 270/04 RMK AO2 T03390233
53843K79J 79J20160730103010807/30/16 10:30:31  5-MIN K79J 301530Z AUTO 33005KT 10SM CLR 34/23 A3007 170 53 2400 330/05 RMK AO2 T03390233
53843K79J 79J20160730103511107/30/16 10:35:31  5-MIN K79J 301535Z AUTO 30008KT 10SM FEW031 34/23 A3007 170 53 2400 300/08 RMK AO2 T03390233
53843K79J 79J20160730104013407/30/16 10:40:31  5-MIN K79J 301540Z AUTO 32007KT 270V340 10SM FEW031 SCT065 34/23 A3007 170 51 2400 320/07 270V340 RMK AO2 T03390228
53843K79J 79J20160730104512507/30/16 10:45:31  5-MIN K79J 301545Z AUTO 29007KT 10SM FEW031 SCT070 BKN090 34/23 A3007 170 51 2400 290/07 RMK AO2 T03390228
53843K79J 79J20160730105013207/30/16 10:50:31  5-MIN K79J 301550Z AUTO 33006KT 10SM FEW031 SCT070 SCT085 34/23 A3007 170 51 2400 330/06 RMK AO2 SLP178 T03390228
53843K79J 79J20160730105513207/30/16 10:55:31  5-MIN K79J 301555Z AUTO VRB04KT 10SM FEW031 FEW065 FEW080 34/23 A3007 170 52 2500 VRB/04 RMK AO2 SLP176 T03440233
53843K79J 79J20160730110012507/30/16 11:00:31  5-MIN K79J 301600Z AUTO 33006KT 10SM FEW031 FEW065 SCT080 34/23 A3007 180 52 2500 330/06 RMK AO2 T03440233
53843K79J 79J20160730110512507/30/16 11:05:31  5-MIN K79J 301605Z AUTO VRB04KT 10SM FEW031 FEW070 SCT090 34/23 A3007 180 52 2500 VRB/04 RMK AO2 T03440233
53843K79J 79J20160730111011107/30/16 11:10:31  5-MIN K79J 301610Z AUTO 28005KT 10SM FEW031 34/23 A3006 180 50 2500 280/05 RMK AO2 T03440228
53843K79J 79J20160730111511107/30/16 11:15:31  5-MIN K79J 301615Z AUTO 32007KT 10SM FEW032 34/23 A3006 180 50 2500 330/07 RMK AO2 T03440228
53843K79J 79J20160730112011107/30/16 11:20:31  5-MIN K79J 301620Z AUTO 31008KT 10SM FEW034 35/23 A3006 180 48 2500 310/08 RMK AO2 T03500228
53843K79J 79J20160730112511107/30/16 11:25:31  5-MIN K79J 301625Z AUTO 29005KT 10SM FEW034 35/22 A3006 180 47 2500 290/05 RMK AO2 T03500222
53843K79J 79J20160730113011107/30/16 11:30:31  5-MIN K79J 301630Z AUTO 25005KT 10SM FEW034 35/22 A3006 180 47 2500 250/05 RMK AO2 T03500222
53843K79J 79J20160730113511107/30/16 11:35:31  5-MIN K79J 301635Z AUTO 29006KT 10SM FEW034 36/22 A3006 190 45 2600 300/06 RMK AO2 T03560222
53843K79J 79J20160730114011107/30/16 11:40:31  5-MIN K79J 301640Z AUTO 29007KT 10SM FEW039 36/22 A3006 190 44 2600 290/07 RMK AO2 T03560217
53843K79J 79J20160730114511107/30/16 11:45:31  5-MIN K79J 301645Z AUTO 33006KT 10SM FEW039 36/22 A3005 190 44 2600 330/06 RMK AO2 T03560217
53843K79J 79J20160730115010507/30/16 11:50:31  5-MIN K79J 301650Z AUTO 10SM CLR 36/22 A3005 190 45 2600 M /M RMK AO2 SLP170 T03560222
53843K79J 79J20160730115511807/30/16 11:55:31  5-MIN K79J 301655Z AUTO 31008KT 10SM FEW085 36/22 A3005 190 42 2700 310/08 RMK AO2 SLP170 T03610217
53843K79J 79J20160730120011107/30/16 12:00:31  5-MIN K79J 301700Z AUTO 30008KT 10SM FEW085 36/23 A3005 190 47 2600 300/08 RMK AO2 T03560228
53843K79J 79J20160730120511107/30/16 12:05:31  5-MIN K79J 301705Z AUTO 32008KT 10SM FEW085 36/23 A3005 190 45 2700 320/08 RMK AO2 T03610228
53843K79J 79J20160730121011107/30/16 12:10:31  5-MIN K79J 301710Z AUTO 36008KT 10SM FEW085 36/22 A3005 190 45 2600 360/08 RMK AO2 T03560222
53843K79J 79J20160730121511807/30/16 12:15:31  5-MIN K79J 301715Z AUTO 35007KT 10SM FEW039 FEW085 36/22 A3005 190 44 2700 360/07 RMK AO2 T03610222
53843K79J 79J20160730122011807/30/16 12:20:31  5-MIN K79J 301720Z AUTO 36005KT 10SM FEW039 FEW085 36/22 A3005 200 44 2700 360/05 RMK AO2 T03610222
53843K79J 79J20160730122511107/30/16 12:25:31  5-MIN K79J 301725Z AUTO 29008KT 10SM FEW039 36/21 A3005 200 42 2600 290/08 RMK AO2 T03560211
53843K79J 79J20160730123011807/30/16 12:30:31  5-MIN K79J 301730Z AUTO 29007KT 10SM FEW040 FEW110 36/22 A3004 200 44 2600 300/07 RMK AO2 T03560217
53843K79J 79J20160730123511807/30/16 12:35:31  5-MIN K79J 301735Z AUTO VRB06KT 10SM FEW040 FEW110 36/21 A3004 200 41 2700 VRB/06 RMK AO2 T03610211
53843K79J 79J20160730124011807/30/16 12:40:31  5-MIN K79J 301740Z AUTO 25005KT 10SM FEW040 FEW120 36/22 A3004 200 42 2700 250/05 RMK AO2 T03610217
53843K79J 79J20160730124511807/30/16 12:45:31  5-MIN K79J 301745Z AUTO 30008KT 10SM FEW042 FEW120 36/22 A3004 200 44 2700 300/08 RMK AO2 T03610222
53843K79J 79J20160730125014307/30/16 12:50:31  5-MIN K79J 301750Z AUTO 32006KT 10SM FEW042 FEW110 36/22 A3004 200 45 2600 320/06 RMK AO2 SLP165 T03560222 10361 20261 51009
53843K79J 79J20160730125514307/30/16 12:55:31  5-MIN K79J 301755Z AUTO 27006KT 10SM FEW042 FEW110 36/22 A3003 210 44 2600 270/06 RMK AO2 SLP164 T03560217 10361 20261 51009
53843K79J 79J20160730130011807/30/16 13:00:31  5-MIN K79J 301800Z AUTO 28008KT 10SM FEW042 SCT085 34/22 A3003 210 46 2500 280/08 RMK AO2 T03440217
53843K79J 79J20160730130514107/30/16 13:05:31  5-MIN K79J 301805Z AUTO 28006KT 10SM -RA FEW042 FEW055 BKN080 33/23 A3003 210 53 2400 280/06 RMK AO2 RAB02 P0000 T03330228
53843K79J 79J20160730131014107/30/16 13:10:31  5-MIN K79J 301810Z AUTO 25006KT 10SM -RA FEW042 BKN080 BKN100 33/22 A3003 210 51 2400 250/06 RMK AO2 RAB02 P0000 T03330222
53843K79J 79J20160730131514107/30/16 13:15:31  5-MIN K79J 301815Z AUTO VRB05KT 10SM -RA FEW049 SCT075 BKN090 33/23 A3003 210 53 2400 VRB/05 RMK AO2 RAB02 P0000 T03330228
53843K79J 79J20160730132014007/30/16 13:20:31  5-MIN K79J 301820Z AUTO 23004KT 10SM FEW055 SCT080 SCT090 34/23 A3003 210 50 2500 230/04 RMK AO2 RAB02E16 P0000 T03440228
53843K79J 79J20160730132514007/30/16 13:25:31  5-MIN K79J 301825Z AUTO 28005KT 10SM FEW050 FEW065 SCT080 36/22 A3003 210 45 2600 280/05 RMK AO2 RAB02E16 P0000 T03560222
53843K79J 79J20160730133014007/30/16 13:30:31  5-MIN K79J 301830Z AUTO VRB03KT 10SM FEW050 SCT065 BKN075 36/22 A3003 210 44 2600 VRB/03 RMK AO2 RAB02E16 P0000 T03560217
53843K79J 79J20160730133514007/30/16 13:35:31  5-MIN K79J 301835Z AUTO 28005KT 10SM FEW050 SCT065 BKN075 36/23 A3003 210 47 2600 280/05 RMK AO2 RAB02E16 P0000 T03560228
53843K79J 79J20160730134014007/30/16 13:40:31  5-MIN K79J 301840Z AUTO 28006KT 10SM FEW046 SCT060 SCT070 34/22 A3003 210 48 2500 290/06 RMK AO2 RAB02E16 P0000 T03440222
53843K79J 79J20160730134516807/30/16 13:45:31  5-MIN K79J 301845Z AUTO 24012G17KT 210V270 7SM -RA SCT044 SCT065 BKN095 33/23 A3003 210 57 2300 240/12G17 210V270 RMK AO2 RAB02E16B42 P0000 T03280233
53843K79J 79J20160730135015807/30/16 13:50:31  5-MIN K79J 301850Z AUTO 15004G17KT 4SM RA FEW046 SCT080 BKN100 30/23 A3003 210 67 2000 150/04G17 RMK AO2 RAB02E16B42 SLP162 P0001 T03000233
53843K79J 79J20160730135514607/30/16 13:55:31  5-MIN K79J 301855Z AUTO 14003KT 5SM -RA FEW048 BKN095 31/25 A3002 220 72 2100 140/03 RMK AO2 RAB02E16B42 SLP161 P0001 T03060250
53843K79J 79J20160730140012807/30/16 14:00:31  5-MIN K79J 301900Z AUTO 00000KT 10SM -RA FEW043 SCT095 32/24 A3002 220 61 2300 000/00 RMK AO2 P0000 T03220239
53843K79J 79J20160730140513707/30/16 14:05:31  5-MIN K79J 301905Z AUTO 00000KT 10SM FEW039 FEW090 SCT110 34/22 A3002 220 48 2500 000/00 RMK AO2 RAE02 P0000 T03390217
53843K79J 79J20160730141013007/30/16 14:10:31  5-MIN K79J 301910Z AUTO 00000KT 10SM FEW090 SCT110 35/22 A3002 220 47 2600 000/00 RMK AO2 RAE02 P0000 T03500222
53843K79J 79J20160730141512307/30/16 14:15:31  5-MIN K79J 301915Z AUTO 13003KT 10SM FEW095 36/22 A3002 220 45 2600 130/03 RMK AO2 RAE02 P0000 T03560222
53843K79J 79J20160730142012007/30/16 14:20:31  5-MIN K79J 301920Z AUTO 16006KT 10SM CLR 35/24 A3002 220 53 2600 160/06 RMK AO2 RAE02 P0000 T03500244
53843K79J 79J20160730142512007/30/16 14:25:31  5-MIN K79J 301925Z AUTO VRB04KT 10SM CLR 34/24 A3002 220 53 2500 VRB/04 RMK AO2 RAE02 P0000 T03440239
53843K79J 79J20160730143012307/30/16 14:30:31  5-MIN K79J 301930Z AUTO 15003KT 10SM FEW060 33/24 A3001 230 57 2400 150/03 RMK AO2 RAE02 P0000 T03330239
53843K79J 79J20160730143513007/30/16 14:35:31  5-MIN K79J 301935Z AUTO 00000KT 10SM FEW049 SCT060 33/24 A3001 220 59 2300 000/00 RMK AO2 RAE02 P0000 T03280239
53843K79J 79J20160730144013707/30/16 14:40:31  5-MIN K79J 301940Z AUTO 16003KT 10SM FEW049 BKN060 BKN085 33/24 A3001 230 59 2300 160/03 RMK AO2 RAE02 P0000 T03280239
53843K79J 79J20160730144514307/30/16 14:45:31  5-MIN K79J 301945Z AUTO 16005KT 6SM -RA SCT049 BKN060 BKN085 32/25 A3001 230 65 2300 160/05 RMK AO2 RAE02B44 P0001 T03220250
53843K79J 79J20160730145016707/30/16 14:50:31  5-MIN K79J 301950Z AUTO 25016G27KT 2SM +RA BKN049 BKN060 BKN085 31/24 A3002 220 67 2100 250/16G27 RMK AO2 PK WND 25027/1949 VIS 3/4V5 RAE02B44 P0009
53843K79J 79J20160730145518807/30/16 14:55:31  5-MIN K79J 301955Z AUTO 22003G27KT 1 1/4SM +RA BKN049 BKN060 OVC090 29/21 A3001 230 62 1900 230/03G27 RMK AO2 PK WND 25027/1949 VIS 3/4V3 RAE02B44 SLP158 P0014 T02890211
53843K79J 79J20160730150013707/30/16 15:00:31  5-MIN K79J 302000Z AUTO 00000KT 1 3/4SM RA SCT047 BKN060 OVC090 29/24 A3001 230 76 1900 000/00 RMK AO2 P0000 T02890244
53843K79J 79J20160730150513407/30/16 15:05:31  5-MIN K79J 302005Z AUTO 15006KT 7SM -RA SCT047 SCT060 BKN070 29/24 A3000 240 74 2000 150/06 RMK AO2 P0000 T02940244
53843K79J 79J20160730151013507/30/16 15:10:31  5-MIN K79J 302010Z AUTO 15004KT 10SM -RA FEW042 SCT049 BKN070 31/25 A3000 230 69 2200 150/04 RMK AO2 P0000 T03110250
53843K79J 79J20160730151513707/30/16 15:15:31  5-MIN K79J 302015Z AUTO 00000KT 10SM FEW044 SCT050 SCT080 32/25 A3000 240 67 2200 000/00 RMK AO2 RAE12 P0000 T03170250
53843K79J 79J20160730152012707/30/16 15:20:31  5-MIN K79J 302020Z AUTO 10SM FEW042 SCT050 BKN080 33/23 A3000 240 55 2400 M /M RMK AO2 RAE12 P0000 T03280228
53843K79J 79J20160730152513007/30/16 15:25:31  5-MIN K79J 302025Z AUTO 02005KT 10SM BKN050 BKN080 33/24 A3000 230 59 2400 030/05 RMK AO2 RAE12 P0000 T03280239
53843K79J 79J20160730153012307/30/16 15:30:31  5-MIN K79J 302030Z AUTO 06006KT 10SM BKN048 32/23 A3000 230 61 2200 060/06 RMK AO2 RAE12 P0000 T03170233
53843K79J 79J20160730153513007/30/16 15:35:31  5-MIN K79J 302035Z AUTO 07008KT 10SM BKN048 BKN070 31/23 A3000 230 63 2200 070/08 RMK AO2 RAE12 P0000 T03110233
53843K79J 79J20160730154013007/30/16 15:40:31  5-MIN K79J 302040Z AUTO 07006KT 10SM BKN049 BKN070 31/24 A3001 230 65 2200 070/06 RMK AO2 RAE12 P0000 T03110239
53843K79J 79J20160730154513707/30/16 15:45:31  5-MIN K79J 302045Z AUTO 00000KT 10SM -RA BKN049 OVC065 31/25 A3001 230 72 2100 000/00 RMK AO2 RAE12B41 P0000 T03060250
53843K79J 79J20160730155016307/30/16 15:50:31  5-MIN K79J 302050Z AUTO 09004KT 10SM -RA BKN049 BKN065 OVC080 31/25 A3000 230 72 2100 090/04 RMK AO2 RAE12B41 SLP155 P0000 60015 T03060250 58012
53843K79J 79J20160730155516207/30/16 15:55:31  5-MIN K79J 302055Z AUTO 09004KT 10SM BKN049 BKN060 OVC080 31/24 A3000 240 67 2200 090/04 RMK AO2 RAE12B41E51 SLP155 P0000 60015 T03110244 58012
53843K79J 79J20160730160012507/30/16 16:00:31  5-MIN K79J 302100Z AUTO VRB03KT 10SM SCT049 SCT060 BKN080 32/25 A3000 240 67 2200 VRB/03 RMK AO2 T03170250
53843K79J 79J20160730160511807/30/16 16:05:31  5-MIN K79J 302105Z AUTO 04003KT 10SM SCT049 BKN080 32/25 A3000 240 67 2200 050/03 RMK AO2 T03170250
53843K79J 79J20160730161012507/30/16 16:10:31  5-MIN K79J 302110Z AUTO 00000KT 10SM FEW049 BKN080 BKN100 32/24 A3001 230 65 2200 000/00 RMK AO2 T03170244
53843K79J 79J20160730161514607/30/16 16:15:31  5-MIN K79J 302115Z AUTO 31013G21KT 7SM -RA FEW049 BKN080 BKN095 32/24 A3001 230 65 2200 310/13G21 RMK AO2 RAB14 P0000 T03170244
53843K79J 79J20160730162014607/30/16 16:20:31  5-MIN K79J 302120Z AUTO 02006G21KT 4SM +RA FEW049 BKN080 BKN095 30/23 A3001 230 67 2000 020/06G21 RMK AO2 RAB14 P0002 T03000233
53843K79J 79J20160730162513907/30/16 16:25:31  5-MIN K79J 302125Z AUTO 05007KT 3SM RA FEW060 BKN080 BKN095 29/24 A3001 230 74 2000 050/07 RMK AO2 RAB14 P0003 T02940244
53843K79J 79J20160730163013307/30/16 16:30:31  5-MIN K79J 302130Z AUTO 06004KT 5SM -RA SCT060 OVC090 29/25 A3001 230 76 2000 070/04 RMK AO2 RAB14 P0003 T02940250
53843K79J 79J20160730163514107/30/16 16:35:31  5-MIN K79J 302135Z AUTO 08004KT 10SM -RA FEW055 SCT070 BKN080 29/26 A3001 230 79 2000 080/04 RMK AO2 RAB14 P0003 T02940256
53843K79J 79J20160730164014007/30/16 16:40:31  5-MIN K79J 302140Z AUTO 00000KT 10SM SCT060 BKN080 BKN100 30/26 A3001 230 79 2000 000/00 RMK AO2 RAB14E38 P0003 T03000261
53843K79J 79J20160730164514007/30/16 16:45:31  5-MIN K79J 302145Z AUTO 00000KT 10SM BKN060 BKN080 BKN100 30/26 A3001 230 77 2000 000/00 RMK AO2 RAB14E38 P0003 T03000256
53843K79J 79J20160730165014707/30/16 16:50:31  5-MIN K79J 302150Z AUTO 00000KT 10SM BKN060 BKN080 BKN100 31/25 A3001 230 72 2100 000/00 RMK AO2 RAB14E38 SLP158 P0003 T03060250
53843K79J 79J20160730165514707/30/16 16:55:31  5-MIN K79J 302155Z AUTO 00000KT 10SM FEW055 SCT070 BKN095 31/26 A3001 230 77 2100 000/00 RMK AO2 RAB14E38 SLP158 P0003 T03060261
53843K79J 79J20160730170012507/30/16 17:00:31  5-MIN K79J 302200Z AUTO 30005KT 10SM FEW055 SCT080 BKN100 30/26 A3001 230 77 2000 310/05 RMK AO2 T03000256
53843K79J 79J20160730170513407/30/16 17:05:31  5-MIN K79J 302205Z AUTO 30004KT 10SM TS FEW055 SCT080 BKN095 30/25 A3001 230 74 2000 300/04 RMK AO2 TSB05 T03000250
53843K79J 79J20160730171013407/30/16 17:10:31  5-MIN K79J 302210Z AUTO 25003KT 10SM TS FEW050 FEW080 OVC095 30/24 A3001 230 72 2000 250/03 RMK AO2 TSB05 T03000244
53843K79J 79J20160730171513407/30/16 17:15:31  5-MIN K79J 302215Z AUTO 23004KT 10SM TS FEW080 BKN095 OVC120 30/25 A3001 230 74 2000 230/04 RMK AO2 TSB05 T03000250
53843K79J 79J20160730172012707/30/16 17:20:31  5-MIN K79J 302220Z AUTO 23010KT 10SM TS BKN095 OVC120 29/24 A3001 230 74 2000 240/10 RMK AO2 TSB05 T02940244
53843K79J 79J20160730172514707/30/16 17:25:31  5-MIN K79J 302225Z AUTO 23009KT 9SM VCTS -RA BKN095 OVC120 29/24 A3001 230 76 1900 240/09 RMK AO2 RAB23 TSB05E23 P0000 T02890244
53843K79J 79J20160730173015307/30/16 17:30:31  5-MIN K79J 302230Z AUTO 22007KT 5SM VCTS RA FEW075 BKN095 OVC110 29/24 A3000 240 76 1900 220/07 RMK AO2 RAB23 TSB05E23 P0001 T02890244
53843K79J 79J20160730173514907/30/16 17:35:31  5-MIN K79J 302235Z AUTO 19005KT 3SM +RA FEW075 BKN090 OVC110 29/24 A2999 240 76 1900 200/05 RMK AO2 RAB23 TSB05E23 P0003 T02890244
53843K79J 79J20160730174014907/30/16 17:40:31  5-MIN K79J 302240Z AUTO 19006KT 4SM -RA FEW031 BKN090 OVC110 28/24 A2999 250 79 1900 190/06 RMK AO2 RAB23 TSB05E23 P0003 T02830244
53843K79J 79J20160730174514907/30/16 17:45:31  5-MIN K79J 302245Z AUTO 18006KT 9SM -RA FEW031 BKN100 OVC120 28/24 A2999 250 76 1900 180/06 RMK AO2 RAB23 TSB05E23 P0003 T02830239
53843K79J 79J20160730175015707/30/16 17:50:31  5-MIN K79J 302250Z AUTO 16005KT 10SM -RA FEW027 BKN090 OVC110 29/24 A2999 250 76 1900 160/05 RMK AO2 RAB23 TSB05E23 SLP150 P0003 T02890244
53843K79J 79J20160730175515707/30/16 17:55:31  5-MIN K79J 302255Z AUTO 14004KT 10SM -RA FEW025 SCT070 BKN090 29/24 A2999 250 74 2000 140/04 RMK AO2 RAB23 TSB05E23 SLP151 P0003 T02940244
53843K79J 79J20160730180013907/30/16 18:00:31  5-MIN K79J 302300Z AUTO 14004KT 10SM FEW025 BKN100 BKN120 29/25 A2999 250 76 2000 140/04 RMK AO2 RAE2258 P0000 T02940250
53843K79J 79J20160730180513907/30/16 18:05:31  5-MIN K79J 302305Z AUTO 11006KT 10SM FEW025 FEW095 SCT110 29/25 A2999 250 76 2000 110/06 RMK AO2 RAE2258 P0000 T02940250
53843K79J 79J20160730181013207/30/16 18:10:31  5-MIN K79J 302310Z AUTO 12005KT 10SM FEW023 FEW100 29/25 A2999 250 76 2000 120/05 RMK AO2 RAE2258 P0000 T02940250
53843K79J 79J20160730181512507/30/16 18:15:31  5-MIN K79J 302315Z AUTO 18003KT 10SM FEW023 30/26 A2999 250 77 2100 180/03 RMK AO2 RAE2258 P0000 T03000256
53843K79J 79J20160730182012207/30/16 18:20:31  5-MIN K79J 302320Z AUTO 14003KT 10SM CLR 30/26 A2999 250 77 2100 150/03 RMK AO2 RAE2258 P0000 T03000256
53843K79J 79J20160730182512207/30/16 18:25:31  5-MIN K79J 302325Z AUTO 13004KT 10SM CLR 30/26 A2999 250 77 2100 130/04 RMK AO2 RAE2258 P0000 T03000256
53843K79J 79J20160730183012207/30/16 18:30:31  5-MIN K79J 302330Z AUTO 13003KT 10SM CLR 30/25 A2999 250 74 2100 130/03 RMK AO2 RAE2258 P0000 T03000250
53843K79J 79J20160730183512207/30/16 18:35:31  5-MIN K79J 302335Z AUTO VRB04KT 10SM CLR 29/26 A2999 250 79 2000 VRB/04 RMK AO2 RAE2258 P0000 T02940256
53843K79J 79J20160730184012207/30/16 18:40:31  5-MIN K79J 302340Z AUTO VRB05KT 10SM CLR 29/25 A2999 240 76 2000 VRB/05 RMK AO2 RAE2258 P0000 T02940250
53843K79J 79J20160730184512207/30/16 18:45:31  5-MIN K79J 302345Z AUTO 13004KT 10SM CLR 29/24 A2999 240 74 2000 130/04 RMK AO2 RAE2258 P0000 T02940244
53843K79J 79J20160730185015307/30/16 18:50:31  5-MIN K79J 302350Z AUTO 13003KT 10SM CLR 29/25 A3000 240 76 2000 130/03 RMK AO2 RAE2258 SLP152 P0000 60021 T02940250 10361 20283 56010
53843K79J 79J20160730185515307/30/16 18:55:31  5-MIN K79J 302355Z AUTO 17003KT 10SM CLR 29/25 A3000 240 76 2000 170/03 RMK AO2 RAE2258 SLP154 P0000 60021 T02940250 10361 20283 56010
53843K79J 79J20160730190010807/30/16 19:00:31  5-MIN K79J 310000Z AUTO 00000KT 10SM CLR 29/25 A3000 240 76 2000 000/00 RMK AO2 T02940250
53843K79J 79J20160730190510807/30/16 19:05:31  5-MIN K79J 310005Z AUTO 00000KT 10SM CLR 29/25 A3000 230 79 1900 000/00 RMK AO2 T02890250
53843K79J 79J20160730191010807/30/16 19:10:31  5-MIN K79J 310010Z AUTO 13003KT 10SM CLR 29/24 A3000 240 76 1900 130/03 RMK AO2 T02890244
53843K79J 79J20160730191510807/30/16 19:15:31  5-MIN K79J 310015Z AUTO 12003KT 10SM CLR 29/25 A3000 240 79 1900 120/03 RMK AO2 T02890250
53843K79J 79J20160730192010807/30/16 19:20:31  5-MIN K79J 310020Z AUTO 16003KT 10SM CLR 28/25 A3001 230 82 1900 160/03 RMK AO2 T02830250
53843K79J 79J20160730192510807/30/16 19:25:31  5-MIN K79J 310025Z AUTO 00000KT 10SM CLR 28/25 A3001 230 82 1900 000/00 RMK AO2 T02830250
53843K79J 79J20160730193010807/30/16 19:30:31  5-MIN K79J 310030Z AUTO 19003KT 10SM CLR 28/25 A3001 230 82 1900 190/03 RMK AO2 T02830250
53843K79J 79J20160730193510807/30/16 19:35:31  5-MIN K79J 310035Z AUTO 00000KT 10SM CLR 28/24 A3001 230 79 1900 000/00 RMK AO2 T02830244
53843K79J 79J20160730194010807/30/16 19:40:31  5-MIN K79J 310040Z AUTO 00000KT 10SM CLR 28/24 A3001 230 79 1900 000/00 RMK AO2 T02830244
53843K79J 79J20160730194510807/30/16 19:45:31  5-MIN K79J 310045Z AUTO 12003KT 10SM CLR 28/25 A3001 230 82 1900 120/03 RMK AO2 T02830250
53843K79J 79J20160730195011507/30/16 19:50:31  5-MIN K79J 310050Z AUTO 00000KT 10SM CLR 28/25 A3001 230 84 1800 000/00 RMK AO2 SLP158 T02780250
53843K79J 79J20160730195511507/30/16 19:55:31  5-MIN K79J 310055Z AUTO 00000KT 10SM CLR 28/25 A3001 230 84 1800 000/00 RMK AO2 SLP158 T02780250
53843K79J 79J20160730200010807/30/16 20:00:31  5-MIN K79J 310100Z AUTO 00000KT 10SM CLR 28/25 A3001 230 84 1800 000/00 RMK AO2 T02780250
53843K79J 79J20160730200510807/30/16 20:05:31  5-MIN K79J 310105Z AUTO 00000KT 10SM CLR 28/25 A3002 220 84 1800 000/00 RMK AO2 T02780250
53843K79J 79J20160730201010807/30/16 20:10:31  5-MIN K79J 310110Z AUTO 00000KT 10SM CLR 28/25 A3002 220 84 1800 000/00 RMK AO2 T02780250
53843K79J 79J20160730201510807/30/16 20:15:31  5-MIN K79J 310115Z AUTO 00000KT 10SM CLR 28/25 A3001 230 84 1800 000/00 RMK AO2 T02780250
53843K79J 79J20160730202010807/30/16 20:20:31  5-MIN K79J 310120Z AUTO 00000KT 10SM CLR 28/25 A3001 230 84 1800 000/00 RMK AO2 T02780250
53843K79J 79J20160730202510707/30/16 20:25:31  5-MIN K79J 310125Z AUTO 00000KT 9SM CLR 27/25 A3001 230 87 1700 000/00 RMK AO2 T02720250
53843K79J 79J20160730203010707/30/16 20:30:31  5-MIN K79J 310130Z AUTO 00000KT 9SM CLR 28/25 A3001 230 84 1800 000/00 RMK AO2 T02780250
53843K79J 79J20160730203510707/30/16 20:35:31  5-MIN K79J 310135Z AUTO 19003KT 9SM CLR 28/25 A3001 230 84 1800 190/03 RMK AO2 T02780250
53843K79J 79J20160730204010707/30/16 20:40:31  5-MIN K79J 310140Z AUTO 00000KT 9SM CLR 28/25 A3001 230 84 1800 000/00 RMK AO2 T02780250
53843K79J 79J20160730204510807/30/16 20:45:31  5-MIN K79J 310145Z AUTO 14003KT 10SM CLR 28/24 A3001 230 82 1800 140/03 RMK AO2 T02780244
53843K79J 79J20160730205011507/30/16 20:50:31  5-MIN K79J 310150Z AUTO 14003KT 10SM CLR 28/24 A3001 230 82 1800 140/03 RMK AO2 SLP157 T02780244
53843K79J 79J20160730205511507/30/16 20:55:31  5-MIN K79J 310155Z AUTO 15003KT 10SM CLR 28/24 A3001 230 82 1800 150/03 RMK AO2 SLP156 T02780244
53843K79J 79J20160730210010807/30/16 21:00:31  5-MIN K79J 310200Z AUTO 00000KT 10SM CLR 27/24 A3001 230 84 1700 000/00 RMK AO2 T02720244
53843K79J 79J20160730210510807/30/16 21:05:31  5-MIN K79J 310205Z AUTO 15003KT 10SM CLR 28/24 A3002 220 82 1800 160/03 RMK AO2 T02780244
53843K79J 79J20160730211010807/30/16 21:10:31  5-MIN K79J 310210Z AUTO 00000KT 10SM CLR 28/24 A3002 220 82 1800 000/00 RMK AO2 T02780244
53843K79J 79J20160730211510807/30/16 21:15:31  5-MIN K79J 310215Z AUTO 17003KT 10SM CLR 28/24 A3002 220 82 1800 180/03 RMK AO2 T02780244
53843K79J 79J20160730212010807/30/16 21:20:31  5-MIN K79J 310220Z AUTO 00000KT 10SM CLR 28/24 A3002 220 82 1800 000/00 RMK AO2 T02780244
53843K79J 79J20160730212510807/30/16 21:25:31  5-MIN K79J 310225Z AUTO 20003KT 10SM CLR 28/24 A3002 220 82 1800 200/03 RMK AO2 T02780244
53843K79J 79J20160730213010807/30/16 21:30:31  5-MIN K79J 310230Z AUTO 20003KT 10SM CLR 28/24 A3002 220 82 1800 200/03 RMK AO2 T02780244
53843K79J 79J20160730213510807/30/16 21:35:31  5-MIN K79J 310235Z AUTO 22003KT 10SM CLR 28/24 A3003 210 79 1800 220/03 RMK AO2 T02830244
53843K79J 79J20160730214010807/30/16 21:40:31  5-MIN K79J 310240Z AUTO 23004KT 10SM CLR 28/24 A3002 220 82 1800 230/04 RMK AO2 T02780244
53843K79J 79J20160730214510807/30/16 21:45:31  5-MIN K79J 310245Z AUTO 20004KT 10SM CLR 28/24 A3002 220 82 1800 200/04 RMK AO2 T02780244
53843K79J 79J20160730215012107/30/16 21:50:31  5-MIN K79J 310250Z AUTO 18004KT 10SM CLR 28/24 A3001 230 82 1800 180/04 RMK AO2 SLP156 T02780244 55001
53843K79J 79J20160730215512107/30/16 21:55:31  5-MIN K79J 310255Z AUTO VRB03KT 10SM CLR 27/24 A3001 230 84 1700 VRB/03 RMK AO2 SLP157 T02720244 55001
53843K79J 79J20160730220010807/30/16 22:00:31  5-MIN K79J 310300Z AUTO VRB04KT 10SM CLR 28/24 A3001 230 82 1800 VRB/04 RMK AO2 T02780244
53843K79J 79J20160730220510807/30/16 22:05:31  5-MIN K79J 310305Z AUTO 14003KT 10SM CLR 28/24 A3001 230 82 1800 150/03 RMK AO2 T02780244
53843K79J 79J20160730221010807/30/16 22:10:31  5-MIN K79J 310310Z AUTO 00000KT 10SM CLR 28/24 A3002 220 82 1800 000/00 RMK AO2 T02780244
53843K79J 79J20160730221510807/30/16 22:15:31  5-MIN K79J 310315Z AUTO 00000KT 10SM CLR 28/24 A3002 220 82 1800 000/00 RMK AO2 T02780244
53843K79J 79J20160730222010807/30/16 22:20:31  5-MIN K79J 310320Z AUTO 21003KT 10SM CLR 28/24 A3002 220 82 1800 210/03 RMK AO2 T02780244
53843K79J 79J20160730222510807/30/16 22:25:31  5-MIN K79J 310325Z AUTO 21003KT 10SM CLR 28/24 A3002 220 82 1800 210/03 RMK AO2 T02780244
53843K79J 79J20160730223010807/30/16 22:30:31  5-MIN K79J 310330Z AUTO 23003KT 10SM CLR 28/24 A3002 220 82 1800 230/03 RMK AO2 T02780244
53843K79J 79J20160730223510807/30/16 22:35:31  5-MIN K79J 310335Z AUTO 27004KT 10SM CLR 28/24 A3003 210 82 1800 280/04 RMK AO2 T02780244
53843K79J 79J20160730224010807/30/16 22:40:31  5-MIN K79J 310340Z AUTO 29005KT 10SM CLR 28/24 A3003 210 82 1800 290/05 RMK AO2 T02780244
53843K79J 79J20160730224510807/30/16 22:45:31  5-MIN K79J 310345Z AUTO 30004KT 10SM CLR 28/24 A3003 210 82 1800 300/04 RMK AO2 T02780244
53843K79J 79J20160730225011507/30/16 22:50:31  5-MIN K79J 310350Z AUTO 29004KT 10SM CLR 28/24 A3004 210 82 1800 290/04 RMK AO2 SLP164 T02780244
53843K79J 79J20160730225511507/30/16 22:55:31  5-MIN K79J 310355Z AUTO 28004KT 10SM CLR 28/24 A3004 210 82 1800 280/04 RMK AO2 SLP165 T02780244
53843K79J 79J20160730230010807/30/16 23:00:31  5-MIN K79J 310400Z AUTO 29005KT 10SM CLR 28/25 A3004 200 84 1800 290/05 RMK AO2 T02780250
53843K79J 79J20160730230510807/30/16 23:05:31  5-MIN K79J 310405Z AUTO 29004KT 10SM CLR 28/24 A3004 200 82 1800 290/04 RMK AO2 T02780244
53843K79J 79J20160730231010807/30/16 23:10:31  5-MIN K79J 310410Z AUTO 28003KT 10SM CLR 28/24 A3004 200 82 1800 280/03 RMK AO2 T02780244
53843K79J 79J20160730231510807/30/16 23:15:31  5-MIN K79J 310415Z AUTO 28004KT 10SM CLR 28/24 A3004 200 82 1800 280/04 RMK AO2 T02780244
53843K79J 79J20160730232010807/30/16 23:20:31  5-MIN K79J 310420Z AUTO 29005KT 10SM CLR 28/24 A3004 200 82 1800 290/05 RMK AO2 T02780244
53843K79J 79J20160730232510807/30/16 23:25:31  5-MIN K79J 310425Z AUTO 29005KT 10SM CLR 28/24 A3004 200 82 1800 290/05 RMK AO2 T02780244
53843K79J 79J20160730233010807/30/16 23:30:31  5-MIN K79J 310430Z AUTO 27004KT 10SM CLR 28/24 A3004 200 82 1800 270/04 RMK AO2 T02780244
53843K79J 79J20160730233510807/30/16 23:35:31  5-MIN K79J 310435Z AUTO 27004KT 10SM CLR 28/24 A3004 200 79 1800 270/04 RMK AO2 T02780239
53843K79J 79J20160730234010807/30/16 23:40:31  5-MIN K79J 310440Z AUTO 27004KT 10SM CLR 28/24 A3004 210 79 1800 270/04 RMK AO2 T02780239
53843K79J 79J20160730234510807/30/16 23:45:31  5-MIN K79J 310445Z AUTO 27003KT 10SM CLR 28/24 A3003 210 79 1800 270/03 RMK AO2 T02780239
53843K79J 79J20160730235012507/30/16 23:50:31  5-MIN K79J 310450Z AUTO 28003KT 10SM CLR 28/24 A3004 200 79 1800 280/03 RMK AO2 SLP165 T02780239 403610250
53843K79J 79J20160730235512507/30/16 23:55:31  5-MIN K79J 310455Z AUTO 28003KT 10SM CLR 28/24 A3004 200 79 1800 280/03 RMK AO2 SLP166 T02780239 403610250
53843K79J 79J20160731000011107/31/16 00:00:31  5-MIN K79J 310500Z AUTO 28003KT 10SM FEW045 28/24 A3004 200 79 1800 280/03 RMK AO2 T02780239
53843K79J 79J20160731000511107/31/16 00:05:31  5-MIN K79J 310505Z AUTO 00000KT 10SM SCT045 28/24 A3004 200 79 1800 000/00 RMK AO2 T02780239
53843K79J 79J20160731001011107/31/16 00:10:31  5-MIN K79J 310510Z AUTO 26003KT 10SM FEW045 28/24 A3004 200 79 1800 260/03 RMK AO2 T02780239
53843K79J 79J20160731001511107/31/16 00:15:31  5-MIN K79J 310515Z AUTO 26003KT 10SM FEW045 28/24 A3004 210 79 1800 260/03 RMK AO2 T02780239
53843K79J 79J20160731002011107/31/16 00:20:31  5-MIN K79J 310520Z AUTO 00000KT 10SM FEW045 28/24 A3003 210 79 1800 000/00 RMK AO2 T02780239
53843K79J 79J20160731002511107/31/16 00:25:31  5-MIN K79J 310525Z AUTO 25003KT 10SM FEW045 28/24 A3003 210 79 1800 250/03 RMK AO2 T02780239
53843K79J 79J20160731003011107/31/16 00:30:31  5-MIN K79J 310530Z AUTO 26003KT 10SM FEW045 27/24 A3003 210 82 1700 260/03 RMK AO2 T02720239
53843K79J 79J20160731003510807/31/16 00:35:31  5-MIN K79J 310535Z AUTO 00000KT 10SM CLR 27/24 A3003 210 82 1700 000/00 RMK AO2 T02720239
53843K79J 79J20160731004010807/31/16 00:40:31  5-MIN K79J 310540Z AUTO 28003KT 10SM CLR 27/24 A3003 210 82 1700 280/03 RMK AO2 T02720239
53843K79J 79J20160731004510807/31/16 00:45:31  5-MIN K79J 310545Z AUTO 29003KT 10SM CLR 27/24 A3003 210 82 1700 290/03 RMK AO2 T02720239
53843K79J 79J20160731005013307/31/16 00:50:31  5-MIN K79J 310550Z AUTO 27003KT 10SM CLR 27/24 A3003 210 82 1700 270/03 RMK AO2 SLP161 T02720239 10294 20272 51004
53843K79J 79J20160731005513307/31/16 00:55:31  5-MIN K79J 310555Z AUTO 27004KT 10SM CLR 27/24 A3003 210 82 1700 270/04 RMK AO2 SLP161 T02720239 10294 20272 51004
53843K79J 79J20160731010010807/31/16 01:00:31  5-MIN K79J 310600Z AUTO 27003KT 10SM CLR 27/24 A3002 220 82 1700 280/03 RMK AO2 T02720239
53843K79J 79J20160731010510807/31/16 01:05:31  5-MIN K79J 310605Z AUTO 28003KT 10SM CLR 27/24 A3002 220 82 1700 280/03 RMK AO2 T02720239
53843K79J 79J20160731011010807/31/16 01:10:31  5-MIN K79J 310610Z AUTO 00000KT 10SM CLR 27/24 A3002 220 82 1700 000/00 RMK AO2 T02720239
53843K79J 79J20160731011510807/31/16 01:15:31  5-MIN K79J 310615Z AUTO 00000KT 10SM CLR 27/24 A3002 220 82 1700 000/00 RMK AO2 T02720239
53843K79J 79J20160731012010707/31/16 01:20:31  5-MIN K79J 310620Z AUTO 00000KT 9SM CLR 27/24 A3002 220 84 1700 000/00 RMK AO2 T02670239
53843K79J 79J20160731012510707/31/16 01:25:31  5-MIN K79J 310625Z AUTO 00000KT 8SM CLR 27/24 A3002 220 84 1700 000/00 RMK AO2 T02670239
53843K79J 79J20160731013010707/31/16 01:30:31  5-MIN K79J 310630Z AUTO 00000KT 7SM CLR 27/24 A3002 220 84 1700 000/00 RMK AO2 T02670239
53843K79J 79J20160731013511007/31/16 01:35:31  5-MIN K79J 310635Z AUTO 00000KT 6SM BR CLR 26/24 A3002 220 87 1600 000/00 RMK AO2 T02610239
53843K79J 79J20160731014010707/31/16 01:40:31  5-MIN K79J 310640Z AUTO 00000KT 7SM CLR 26/24 A3002 220 87 1600 000/00 RMK AO2 T02610239
53843K79J 79J20160731014510707/31/16 01:45:31  5-MIN K79J 310645Z AUTO 00000KT 8SM CLR 26/24 A3002 220 87 1600 000/00 RMK AO2 T02610239
53843K79J 79J20160731015011407/31/16 01:50:31  5-MIN K79J 310650Z AUTO 00000KT 8SM CLR 26/24 A3002 220 87 1600 000/00 RMK AO2 SLP161 T02610239
53843K79J 79J20160731015511407/31/16 01:55:31  5-MIN K79J 310655Z AUTO 00000KT 8SM CLR 26/24 A3002 220 87 1600 000/00 RMK AO2 SLP161 T02610239
53843K79J 79J20160731020010707/31/16 02:00:31  5-MIN K79J 310700Z AUTO 00000KT 7SM CLR 26/23 A3002 220 84 1600 000/00 RMK AO2 T02610233
53843K79J 79J20160731020511007/31/16 02:05:31  5-MIN K79J 310705Z AUTO 00000KT 6SM BR CLR 26/24 A3002 220 87 1600 000/00 RMK AO2 T02610239
53843K79J 79J20160731021011007/31/16 02:10:31  5-MIN K79J 310710Z AUTO 00000KT 5SM BR CLR 26/24 A3002 220 87 1600 000/00 RMK AO2 T02610239
53843K79J 79J20160731021511007/31/16 02:15:31  5-MIN K79J 310715Z AUTO 00000KT 5SM BR CLR 26/24 A3002 220 87 1600 000/00 RMK AO2 T02610239
53843K79J 79J20160731022011007/31/16 02:20:31  5-MIN K79J 310720Z AUTO 00000KT 5SM HZ CLR 26/23 A3002 220 84 1600 000/00 RMK AO2 T02610233
53843K79J 79J20160731022510707/31/16 02:25:31  5-MIN K79J 310725Z AUTO 00000KT 7SM CLR 26/23 A3002 220 84 1600 000/00 RMK AO2 T02610233
53843K79J 79J20160731023011007/31/16 02:30:31  5-MIN K79J 310730Z AUTO 00000KT 6SM HZ CLR 26/23 A3002 220 84 1600 000/00 RMK AO2 T02610233
53843K79J 79J20160731023511007/31/16 02:35:31  5-MIN K79J 310735Z AUTO 00000KT 5SM HZ CLR 26/23 A3002 220 84 1600 000/00 RMK AO2 T02610233
53843K79J 79J20160731024011007/31/16 02:40:31  5-MIN K79J 310740Z AUTO 00000KT 5SM HZ CLR 26/23 A3002 220 84 1600 000/00 RMK AO2 T02610233
53843K79J 79J20160731024511007/31/16 02:45:31  5-MIN K79J 310745Z AUTO 00000KT 5SM HZ CLR 26/23 A3002 220 84 1600 000/00 RMK AO2 T02610233
53843K79J 79J20160731025011707/31/16 02:50:31  5-MIN K79J 310750Z AUTO 00000KT 5SM HZ CLR 26/23 A3002 220 84 1600 000/00 RMK AO2 SLP160 T02610233
53843K79J 79J20160731025511707/31/16 02:55:31  5-MIN K79J 310755Z AUTO 00000KT 6SM HZ CLR 26/23 A3002 220 84 1600 000/00 RMK AO2 SLP159 T02610233
53843K79J 79J20160731030011007/31/16 03:00:31  5-MIN K79J 310800Z AUTO 00000KT 6SM HZ CLR 26/23 A3002 220 84 1600 000/00 RMK AO2 T02610233
53843K79J 79J20160731030511007/31/16 03:05:31  5-MIN K79J 310805Z AUTO 00000KT 6SM HZ CLR 26/23 A3001 230 84 1600 000/00 RMK AO2 T02610233
53843K79J 79J20160731031011007/31/16 03:10:31  5-MIN K79J 310810Z AUTO 00000KT 6SM HZ CLR 26/23 A3001 230 84 1600 000/00 RMK AO2 T02610233
53843K79J 79J20160731031511007/31/16 03:15:31  5-MIN K79J 310815Z AUTO 00000KT 6SM BR CLR 26/23 A3001 230 87 1500 000/00 RMK AO2 T02560233
53843K79J 79J20160731032011007/31/16 03:20:31  5-MIN K79J 310820Z AUTO 00000KT 6SM BR CLR 26/23 A3001 230 87 1500 000/00 RMK AO2 T02560233
53843K79J 79J20160731032511007/31/16 03:25:31  5-MIN K79J 310825Z AUTO 00000KT 5SM BR CLR 26/23 A3001 230 87 1500 000/00 RMK AO2 T02560233
53843K79J 79J20160731033011007/31/16 03:30:31  5-MIN K79J 310830Z AUTO 00000KT 5SM BR CLR 26/23 A3001 230 87 1500 000/00 RMK AO2 T02560233
53843K79J 79J20160731033511007/31/16 03:35:31  5-MIN K79J 310835Z AUTO 00000KT 4SM BR CLR 26/23 A3001 230 87 1500 000/00 RMK AO2 T02560233
53843K79J 79J20160731034011007/31/16 03:40:31  5-MIN K79J 310840Z AUTO 00000KT 4SM BR CLR 26/23 A3001 230 87 1500 000/00 RMK AO2 T02560233
53843K79J 79J20160731034511007/31/16 03:45:31  5-MIN K79J 310845Z AUTO 00000KT 5SM BR CLR 26/23 A3001 230 87 1500 000/00 RMK AO2 T02560233
53843K79J 79J20160731035012007/31/16 03:50:31  5-MIN K79J 310850Z AUTO 00000KT 7SM CLR 26/23 A3001 230 84 1600 000/00 RMK AO2 SLP158 T02610233 50004
53843K79J 79J20160731035512007/31/16 03:55:31  5-MIN K79J 310855Z AUTO 00000KT 8SM CLR 26/23 A3001 230 84 1600 000/00 RMK AO2 SLP158 T02610233 50004
53843K79J 79J20160731040010707/31/16 04:00:31  5-MIN K79J 310900Z AUTO 00000KT 7SM CLR 26/23 A3001 230 87 1500 000/00 RMK AO2 T02560233
53843K79J 79J20160731040511007/31/16 04:05:31  5-MIN K79J 310905Z AUTO 00000KT 6SM BR CLR 26/23 A3001 230 87 1500 000/00 RMK AO2 T02560233
53843K79J 79J20160731041011007/31/16 04:10:31  5-MIN K79J 310910Z AUTO 00000KT 5SM BR CLR 26/23 A3001 230 87 1500 000/00 RMK AO2 T02560233
53843K79J 79J20160731041511007/31/16 04:15:31  5-MIN K79J 310915Z AUTO 00000KT 5SM BR CLR 26/23 A3001 230 87 1500 000/00 RMK AO2 T02560233
53843K79J 79J20160731042010707/31/16 04:20:31  5-MIN K79J 310920Z AUTO 00000KT 7SM CLR 26/23 A3001 230 84 1600 000/00 RMK AO2 T02610233
53843K79J 79J20160731042510707/31/16 04:25:31  5-MIN K79J 310925Z AUTO 00000KT 7SM CLR 26/23 A3001 230 87 1500 000/00 RMK AO2 T02560233
53843K79J 79J20160731043010707/31/16 04:30:31  5-MIN K79J 310930Z AUTO 00000KT 7SM CLR 26/23 A3001 230 87 1500 000/00 RMK AO2 T02560233
53843K79J 79J20160731043510707/31/16 04:35:31  5-MIN K79J 310935Z AUTO 00000KT 7SM CLR 26/23 A3002 220 87 1500 000/00 RMK AO2 T02560233
53843K79J 79J20160731044010707/31/16 04:40:31  5-MIN K79J 310940Z AUTO 00000KT 8SM CLR 26/23 A3002 220 87 1500 000/00 RMK AO2 T02560233
53843K79J 79J20160731044511007/31/16 04:45:31  5-MIN K79J 310945Z AUTO 00000KT 9SM FEW080 26/23 A3002 220 84 1600 000/00 RMK AO2 T02610233
53843K79J 79J20160731045011707/31/16 04:50:31  5-MIN K79J 310950Z AUTO 00000KT 9SM SCT080 26/23 A3002 220 84 1600 000/00 RMK AO2 SLP160 T02610233
53843K79J 79J20160731045511707/31/16 04:55:31  5-MIN K79J 310955Z AUTO 00000KT 9SM BKN080 26/23 A3002 220 84 1600 000/00 RMK AO2 SLP160 T02610233
53843K79J 79J20160731050011107/31/16 05:00:31  5-MIN K79J 311000Z AUTO 00000KT 10SM BKN080 26/23 A3002 220 84 1600 000/00 RMK AO2 T02610233
53843K79J 79J20160731050511007/31/16 05:05:31  5-MIN K79J 311005Z AUTO 00000KT 9SM BKN080 26/23 A3002 220 84 1600 000/00 RMK AO2 T02610233
53843K79J 79J20160731051011007/31/16 05:10:31  5-MIN K79J 311010Z AUTO 00000KT 7SM BKN080 26/23 A3001 230 87 1500 000/00 RMK AO2 T02560233
53843K79J 79J20160731051511307/31/16 05:15:31  5-MIN K79J 311015Z AUTO 00000KT 6SM HZ BKN080 26/23 A3001 230 84 1500 000/00 RMK AO2 T02560228
53843K79J 79J20160731052011007/31/16 05:20:31  5-MIN K79J 311020Z AUTO 00000KT 7SM SCT080 26/23 A3001 230 87 1500 000/00 RMK AO2 T02560233
53843K79J 79J20160731052511007/31/16 05:25:31  5-MIN K79J 311025Z AUTO 00000KT 7SM FEW080 26/23 A3001 230 87 1500 000/00 RMK AO2 T02560233
53843K79J 79J20160731053011007/31/16 05:30:31  5-MIN K79J 311030Z AUTO 00000KT 9SM FEW080 26/23 A3001 230 87 1500 000/00 RMK AO2 T02560233
53843K79J 79J20160731053510807/31/16 05:35:31  5-MIN K79J 311035Z AUTO 00000KT 10SM CLR 26/23 A3001 230 84 1600 000/00 RMK AO2 T02610233
53843K79J 79J20160731054010707/31/16 05:40:31  5-MIN K79J 311040Z AUTO 00000KT 9SM CLR 26/23 A3001 230 84 1600 000/00 RMK AO2 T02610233
53843K79J 79J20160731054510707/31/16 05:45:31  5-MIN K79J 311045Z AUTO 00000KT 8SM CLR 26/23 A3001 230 87 1500 000/00 RMK AO2 T02560233
53843K79J 79J20160731055011407/31/16 05:50:31  5-MIN K79J 311050Z AUTO 00000KT 9SM CLR 26/23 A3001 230 84 1500 000/00 RMK AO2 SLP158 T02560228
53843K79J 79J20160731055511407/31/16 05:55:31  5-MIN K79J 311055Z AUTO 00000KT 8SM CLR 26/23 A3002 220 84 1500 000/00 RMK AO2 SLP159 T02560228
53843K79J 79J20160731060011007/31/16 06:00:31  5-MIN K79J 311100Z AUTO 00000KT 5SM HZ CLR 26/23 A3002 220 84 1500 000/00 RMK AO2 T02560228
53843K79J 79J20160731060511007/31/16 06:05:31  5-MIN K79J 311105Z AUTO 00000KT 5SM HZ CLR 26/23 A3002 220 84 1500 000/00 RMK AO2 T02560228
53843K79J 79J20160731061011007/31/16 06:10:31  5-MIN K79J 311110Z AUTO 00000KT 6SM HZ CLR 26/23 A3002 220 84 1500 000/00 RMK AO2 T02560228
53843K79J 79J20160731061511007/31/16 06:15:31  5-MIN K79J 311115Z AUTO 00000KT 5SM HZ CLR 26/23 A3002 220 84 1500 000/00 RMK AO2 T02560228
53843K79J 79J20160731062011007/31/16 06:20:31  5-MIN K79J 311120Z AUTO 00000KT 4SM HZ CLR 26/23 A3003 210 84 1500 000/00 RMK AO2 T02560228
53843K79J 79J20160731062511007/31/16 06:25:31  5-MIN K79J 311125Z AUTO 00000KT 4SM HZ CLR 26/23 A3003 210 84 1500 000/00 RMK AO2 T02560228
53843K79J 79J20160731063011007/31/16 06:30:31  5-MIN K79J 311130Z AUTO 00000KT 3SM BR CLR 26/23 A3003 210 87 1500 000/00 RMK AO2 T02560233
53843K79J 79J20160731063511007/31/16 06:35:31  5-MIN K79J 311135Z AUTO 00000KT 3SM BR CLR 26/23 A3003 210 87 1500 000/00 RMK AO2 T02560233
53843K79J 79J20160731064011007/31/16 06:40:31  5-MIN K79J 311140Z AUTO 00000KT 4SM HZ CLR 26/23 A3003 210 84 1600 000/00 RMK AO2 T02610233
53843K79J 79J20160731064511007/31/16 06:45:31  5-MIN K79J 311145Z AUTO 00000KT 6SM HZ CLR 26/23 A3003 210 84 1600 000/00 RMK AO2 T02610233
53843K79J 79J20160731065013807/31/16 06:50:31  5-MIN K79J 311150Z AUTO 00000KT 8SM CLR 26/23 A3003 210 84 1600 000/00 RMK AO2 SLP165 70021 T02610233 10272 20256 57004
53843K79J 79J20160731065513807/31/16 06:55:31  5-MIN K79J 311155Z AUTO 00000KT 8SM CLR 27/24 A3004 210 84 1600 000/00 RMK AO2 SLP166 70021 T02670239 10272 20256 57004
53843K79J 79J20160731070010707/31/16 07:00:31  5-MIN K79J 311200Z AUTO 00000KT 8SM CLR 27/24 A3004 210 84 1600 000/00 RMK AO2 T02670239
53843K79J 79J20160731070510707/31/16 07:05:31  5-MIN K79J 311205Z AUTO 00000KT 7SM CLR 27/24 A3004 200 84 1600 000/00 RMK AO2 T02670239
53843K79J 79J20160731071010707/31/16 07:10:31  5-MIN K79J 311210Z AUTO 00000KT 8SM CLR 27/24 A3004 200 84 1600 000/00 RMK AO2 T02670239
53843K79J 79J20160731071510707/31/16 07:15:31  5-MIN K79J 311215Z AUTO 00000KT 9SM CLR 27/24 A3004 200 82 1700 000/00 RMK AO2 T02720239
53843K79J 79J20160731072010707/31/16 07:20:31  5-MIN K79J 311220Z AUTO 00000KT 9SM CLR 27/24 A3004 200 82 1700 000/00 RMK AO2 T02720239
53843K79J 79J20160731072510707/31/16 07:25:31  5-MIN K79J 311225Z AUTO 00000KT 8SM CLR 27/24 A3004 200 82 1700 000/00 RMK AO2 T02720239
53843K79J 79J20160731073010707/31/16 07:30:31  5-MIN K79J 311230Z AUTO 00000KT 9SM CLR 27/24 A3004 200 82 1700 000/00 RMK AO2 T02720239
53843K79J 79J20160731073510807/31/16 07:35:31  5-MIN K79J 311235Z AUTO 00000KT 10SM CLR 28/24 A3004 200 79 1800 000/00 RMK AO2 T02780239
53843K79J 79J20160731074010807/31/16 07:40:31  5-MIN K79J 311240Z AUTO 00000KT 10SM CLR 28/24 A3004 200 79 1800 000/00 RMK AO2 T02780239
53843K79J 79J20160731074510807/31/16 07:45:31  5-MIN K79J 311245Z AUTO 20004KT 10SM CLR 28/24 A3004 200 76 1800 200/04 RMK AO2 T02830239
53843K79J 79J20160731075011507/31/16 07:50:31  5-MIN K79J 311250Z AUTO 19003KT 10SM CLR 28/24 A3005 200 76 1800 190/03 RMK AO2 SLP169 T02830239
53843K79J 79J20160731075511507/31/16 07:55:31  5-MIN K79J 311255Z AUTO 23003KT 10SM CLR 29/24 A3005 190 76 1900 230/03 RMK AO2 SLP171 T02890244
53843K79J 79J20160731080010807/31/16 08:00:31  5-MIN K79J 311300Z AUTO VRB03KT 10SM CLR 29/24 A3005 190 74 1900 VRB/03 RMK AO2 T02890239
53843K79J 79J20160731165013007/31/16 16:50:31  5-MIN K79J 312150Z AUTO 21006KT 10SM TS BKN055 33/23 A3000 240 55 2400 210/06 RMK AO2 TSB00B01 SLP153 T03280228
53843K79J 79J20160731165513007/31/16 16:55:31  5-MIN K79J 312155Z AUTO 22005KT 10SM TS SCT060 33/22 A3000 240 53 2400 220/05 RMK AO2 TSB00B01 SLP153 T03280222
53843K79J 79J20160731170012107/31/16 17:00:31  5-MIN K79J 312200Z AUTO 00000KT 10SM TS SCT055 SCT120 32/22 A3000 230 55 2300 000/00 RMK AO2 T03220222
53843K79J 79J20160731170512807/31/16 17:05:31  5-MIN K79J 312205Z AUTO 00000KT 10SM TS SCT055 BKN110 32/22 A3002 220 55 2300 000/00 RMK AO2 PRESRR T03220222
53843K79J 79J20160731171013407/31/16 17:10:31  5-MIN K79J 312210Z AUTO 28009KT 8SM TS FEW038 SCT048 BKN110 32/23 A3003 210 61 2200 290/09 RMK AO2 PRESRR T03170233
53843K79J 79J20160731171514207/31/16 17:15:31  5-MIN K79J 312215Z AUTO 27005KT 4SM +TSRA FEW038 SCT048 BKN060 29/24 A3003 210 74 2000 270/05 RMK AO2 RAB11 P0002 T02940244
53843K79J 79J20160731172014107/31/16 17:20:31  5-MIN K79J 312220Z AUTO 00000KT 3SM TSRA FEW038 SCT048 BKN060 28/24 A3003 210 76 1800 000/00 RMK AO2 RAB11 P0003 T02830239
53843K79J 79J20160731172514107/31/16 17:25:31  5-MIN K79J 312225Z AUTO 00000KT 4SM TSRA FEW038 BKN048 OVC110 28/24 A3002 220 76 1800 000/00 RMK AO2 RAB11 P0004 T02830239
53843K79J 79J20160731173013507/31/16 17:30:31  5-MIN K79J 312230Z AUTO 00000KT 5SM -TSRA BKN042 OVC065 28/24 A3002 220 79 1800 000/00 RMK AO2 RAB11 P0005 T02830244
53843K79J 79J20160731173514207/31/16 17:35:31  5-MIN K79J 312235Z AUTO 23003KT 3SM +TSRA BKN042 BKN050 OVC095 28/24 A3002 220 79 1800 230/03 RMK AO2 RAB11 P0006 T02830244
53843K79J 79J20160731174014107/31/16 17:40:31  5-MIN K79J 312240Z AUTO 00000KT 4SM TSRA SCT040 BKN050 OVC110 28/24 A3003 210 79 1800 000/00 RMK AO2 RAB11 P0006 T02780239
53843K79J 79J20160731174514107/31/16 17:45:31  5-MIN K79J 312245Z AUTO 00000KT 4SM TSRA SCT042 BKN050 OVC110 28/24 A3004 210 82 1800 000/00 RMK AO2 RAB11 P0007 T02780244
53843K79J 79J20160731175014807/31/16 17:50:31  5-MIN K79J 312250Z AUTO VRB03KT 2 1/2SM +TSRA SCT042 BKN050 OVC090 28/24 A3003 210 82 1800 VRB/03 RMK AO2 VIS 1 3/4V5 RAB11 P0010
53843K79J 79J20160731175515307/31/16 17:55:31  5-MIN K79J 312255Z AUTO 00000KT 1 3/4SM +TSRA SCT042 BKN050 OVC090 27/24 A3003 210 82 1700 000/00 RMK AO2 RAB11 SLP165 P0014 T02720239
53843K79J 79J20160731180013607/31/16 18:00:31  5-MIN K79J 312300Z AUTO 00000KT 1SM +TSRA BKN045 BKN060 OVC090 27/24 A3004 200 82 1700 000/00 RMK AO2 P0004 T02720239
53843K79J 79J20160731180513607/31/16 18:05:31  5-MIN K79J 312305Z AUTO 28007KT 1SM +TSRA FEW036 BKN048 OVC065 27/24 A3005 200 82 1700 280/07 RMK AO2 P0007 T02720239
53843K79J 79J20160731181013307/31/16 18:10:31  5-MIN K79J 312310Z AUTO 30010KT 1 1/2SM +TSRA SCT036 OVC047 27/24 A3005 190 84 1700 310/10 RMK AO2 P0009 T02720244
53843K79J 79J20160731181514007/31/16 18:15:31  5-MIN K79J 312315Z AUTO 30012KT 2 1/2SM +TSRA FEW014 SCT036 OVC047 27/24 A3005 190 84 1700 300/12 RMK AO2 P0010 T02720244
53843K79J 79J20160731182012807/31/16 18:20:31  5-MIN K79J 312320Z AUTO 29012KT 4SM TSRA FEW014 OVC049 27/24 A3005 190 84 1600 300/12 RMK AO2 P0011 T02670239
53843K79J 79J20160731182513607/31/16 18:25:31  5-MIN K79J 312325Z AUTO 31009KT 6SM -TSRA FEW014 BKN049 OVC060 27/24 A3005 200 84 1600 310/09 RMK AO2 P0011 T02670239
53843K79J 79J20160731183013607/31/16 18:30:31  5-MIN K79J 312330Z AUTO 27009KT 8SM -TSRA FEW014 FEW035 BKN050 27/24 A3004 200 84 1600 280/09 RMK AO2 P0011 T02670239
53843K79J 79J20160731183513707/31/16 18:35:31  5-MIN K79J 312335Z AUTO 28007KT 10SM -TSRA FEW014 FEW035 SCT050 27/24 A3004 200 84 1600 280/07 RMK AO2 P0011 T02670239
53843K79J 79J20160731184013007/31/16 18:40:31  5-MIN K79J 312340Z AUTO 30005KT 10SM -TSRA SCT050 SCT110 27/24 A3004 200 84 1600 300/05 RMK AO2 P0011 T02670239
53843K79J 79J20160731184512807/31/16 18:45:31  5-MIN K79J 312345Z AUTO 29007KT 7SM TSRA FEW050 SCT120 27/24 A3005 190 84 1600 290/07 RMK AO2 P0012 T02670239
53843K79J 79J20160731185016307/31/16 18:50:31  5-MIN K79J 312350Z AUTO 25005KT 6SM -TSRA BR FEW055 BKN110 26/24 A3006 190 87 1600 260/05 RMK AO2 SLP173 P0012 60027 T02610239 10372 20261 56021
53843K79J 79J20160731185516007/31/16 18:55:31  5-MIN K79J 312355Z AUTO 25005KT 7SM -TSRA FEW005 BKN110 26/23 A3006 190 84 1600 250/05 RMK AO2 SLP173 P0012 60027 T02610233 10372 20261 56021
53843K79J 79J20160731190012207/31/16 19:00:31  5-MIN K79J 010000Z AUTO 24003KT 7SM -TSRA BKN110 26/23 A3006 180 84 1600 240/03 RMK AO2 P0001 T02610233
53843K79J 79J20160731190512207/31/16 19:05:31  5-MIN K79J 010005Z AUTO 23003KT 7SM -TSRA SCT110 26/23 A3006 180 81 1600 230/03 RMK AO2 P0001 T02610228
53843K79J 79J20160731191012207/31/16 19:10:31  5-MIN K79J 010010Z AUTO 21005KT 8SM -TSRA SCT110 26/23 A3006 190 81 1600 210/05 RMK AO2 P0001 T02610228
53843K79J 79J20160731191512107/31/16 19:15:31  5-MIN K79J 010015Z AUTO 21005KT 7SM TSRA FEW110 26/23 A3006 180 84 1500 210/05 RMK AO2 P0001 T02610233
53843K79J 79J20160731192012207/31/16 19:20:31  5-MIN K79J 010020Z AUTO 22005KT 7SM -TSRA FEW120 26/23 A3007 170 81 1500 220/05 RMK AO2 P0002 T02610228
53843K79J 79J20160731192512207/31/16 19:25:31  5-MIN K79J 010025Z AUTO 21006KT 9SM -TSRA FEW120 26/23 A3007 170 84 1500 210/06 RMK AO2 P0002 T02560228
53843K79J 79J20160731193012307/31/16 19:30:31  5-MIN K79J 010030Z AUTO 20006KT 10SM -TSRA FEW120 26/23 A3007 180 84 1500 210/06 RMK AO2 P0002 T02560228
53843K79J 79J20160731193512007/31/16 19:35:31  5-MIN K79J 010035Z AUTO 21005KT 10SM -TSRA CLR 26/23 A3007 170 84 1500 210/05 RMK AO2 P0002 T02560228
53843K79J 79J20160731194012007/31/16 19:40:31  5-MIN K79J 010040Z AUTO 21005KT 10SM -TSRA CLR 26/23 A3007 170 84 1500 210/05 RMK AO2 P0002 T02560228
53843K79J 79J20160731194512007/31/16 19:45:31  5-MIN K79J 010045Z AUTO 20005KT 10SM -TSRA CLR 26/22 A3007 170 81 1500 200/05 RMK AO2 P0002 T02560222
53843K79J 79J20160731195013707/31/16 19:50:31  5-MIN K79J 010050Z AUTO VRB03KT 10SM -TSRA FEW060 SCT080 25/22 A3008 170 84 1400 VRB/03 RMK AO2 SLP179 P0002 T02500222
53843K79J 79J20160731195513707/31/16 19:55:31  5-MIN K79J 010055Z AUTO 22005KT 10SM -TSRA FEW060 SCT075 25/22 A3008 170 84 1400 230/05 RMK AO2 SLP180 P0002 T02500222
53843K79J 79J20160731200013707/31/16 20:00:31  5-MIN K79J 010100Z AUTO 24006KT 10SM -TSRA FEW060 FEW080 FEW110 25/22 A3008 160 84 1400 240/06 RMK AO2 P0001 T02500222
53843K79J 79J20160731200513507/31/16 20:05:31  5-MIN K79J 010105Z AUTO 23005KT 9SM TSRA FEW060 FEW080 SCT110 25/22 A3009 160 84 1400 230/05 RMK AO2 P0001 T02500222
53843K79J 79J20160731201013507/31/16 20:10:31  5-MIN K79J 010110Z AUTO 21004KT 7SM TSRA FEW060 SCT100 BKN110 25/22 A3009 150 84 1400 220/04 RMK AO2 P0002 T02500222
53843K79J 79J20160731201513507/31/16 20:15:31  5-MIN K79J 010115Z AUTO 22007KT 7SM TSRA FEW070 BKN095 BKN110 25/22 A3010 150 81 1400 220/07 RMK AO2 P0003 T02500217
53843K79J 79J20160731202013607/31/16 20:20:31  5-MIN K79J 010120Z AUTO 22006KT 9SM -TSRA SCT080 BKN095 BKN110 24/22 A3010 150 87 1300 220/06 RMK AO2 P0003 T02440222
53843K79J 79J20160731202514107/31/16 20:25:31  5-MIN K79J 010125Z AUTO 23006KT 10SM -RA SCT080 SCT095 BKN110 24/22 A3010 150 84 1300 230/06 RMK AO2 TSE21 P0003 T02440217
53843K79J 79J20160731203014607/31/16 20:30:31  5-MIN K79J 010130Z AUTO 24006KT 10SM -TSRA FEW080 SCT095 SCT110 24/22 A3009 150 84 1300 240/06 RMK AO2 TSE21B28 P0003 T02440217
53843K79J 79J20160731203513207/31/16 20:35:31  5-MIN K79J 010135Z AUTO 24005KT 10SM -TSRA BKN090 24/22 A3009 160 87 1300 240/05 RMK AO2 TSE21B28 P0003 T02440222
53843K79J 79J20160731204013207/31/16 20:40:31  5-MIN K79J 010140Z AUTO 24005KT 10SM -TSRA BKN090 25/22 A3009 160 84 1400 240/05 RMK AO2 TSE21B28 P0003 T02500222
53843K79J 79J20160731204513907/31/16 20:45:31  5-MIN K79J 010145Z AUTO 25004KT 10SM -TSRA FEW080 SCT095 25/22 A3008 160 84 1400 250/04 RMK AO2 TSE21B28 P0003 T02500222
53843K79J 79J20160731205013907/31/16 20:50:31  5-MIN K79J 010150Z AUTO 25004KT 10SM -TSRA FEW090 25/22 A3008 160 84 1400 250/04 RMK AO2 TSE21B28 SLP181 P0004 T02500222
53843K79J 79J20160731205513707/31/16 20:55:31  5-MIN K79J 010155Z AUTO 24003KT 7SM TSRA FEW090 25/22 A3008 170 84 1400 250/03 RMK AO2 TSE21B28 SLP180 P0005 T02500222
53843K79J 79J20160731210012807/31/16 21:00:31  5-MIN K79J 010200Z AUTO 24003KT 4SM +RA FEW090 25/22 A3008 170 84 1400 240/03 RMK AO2 TSE0158 P0001 T02500222
53843K79J 79J20160731210512707/31/16 21:05:31  5-MIN K79J 010205Z AUTO 24004KT 4SM RA FEW120 25/22 A3008 170 84 1400 240/04 RMK AO2 TSE0158 P0002 T02500222
53843K79J 79J20160731211012807/31/16 21:10:31  5-MIN K79J 010210Z AUTO 22004KT 6SM -RA FEW120 25/22 A3007 170 84 1400 220/04 RMK AO2 TSE0158 P0003 T02500222
53843K79J 79J20160731211512407/31/16 21:15:31  5-MIN K79J 010215Z AUTO 24004KT 7SM RA CLR 25/22 A3007 170 84 1400 240/04 RMK AO2 TSE0158 P0003 T02500222
53843K79J 79J20160731212012507/31/16 21:20:31  5-MIN K79J 010220Z AUTO 24004KT 9SM -RA CLR 25/22 A3007 180 84 1400 240/04 RMK AO2 TSE0158 P0003 T02500222
53843K79J 79J20160731212512607/31/16 21:25:31  5-MIN K79J 010225Z AUTO 00000KT 10SM -RA CLR 25/23 A3006 180 87 1400 000/00 RMK AO2 TSE0158 P0003 T02500228
53843K79J 79J20160731213012907/31/16 21:30:31  5-MIN K79J 010230Z AUTO 00000KT 10SM -RA FEW110 25/22 A3006 180 84 1400 000/00 RMK AO2 TSE0158 P0003 T02500222
53843K79J 79J20160731213512907/31/16 21:35:31  5-MIN K79J 010235Z AUTO 12003KT 10SM -RA FEW090 24/22 A3006 180 90 1300 120/03 RMK AO2 TSE0158 P0003 T02390222
53843K79J 79J20160731214013007/31/16 21:40:31  5-MIN K79J 010240Z AUTO 12003KT 9SM FEW090 25/22 A3006 190 84 1400 120/03 RMK AO2 RAE36 TSE0158 P0003 T02500222
53843K79J 79J20160731214513007/31/16 21:45:31  5-MIN K79J 010245Z AUTO 10004KT 8SM FEW002 25/23 A3006 190 87 1400 100/04 RMK AO2 RAE36 TSE0158 P0004 T02500228
53843K79J 79J20160731215012007/31/16 21:50:31  5-MIN K79J 010250Z AUTO 11004KT 8SM FEW002 25/23 A3005 190 87 1400 110/04 RMK AO2 RAE36 TSE0158 P0004
53843K79J 79J20160731215514907/31/16 21:55:31  5-MIN K79J 010255Z AUTO 07003KT 9SM SCT002 25/23 A3005 190 87 1400 070/03 RMK AO2 RAE36 TSE0158 SLP172 P0004 60011 T02500228 53024
53843K79J 79J20160731220011107/31/16 22:00:31  5-MIN K79J 010300Z AUTO 00000KT 10SM BKN002 25/23 A3005 190 87 1400 000/00 RMK AO2 T02500228
53843K79J 79J20160731220511107/31/16 22:05:31  5-MIN K79J 010305Z AUTO 00000KT 10SM BKN003 25/23 A3005 190 87 1400 000/00 RMK AO2 T02500228
53843K79J 79J20160731221011107/31/16 22:10:31  5-MIN K79J 010310Z AUTO 08003KT 10SM BKN003 25/23 A3005 190 87 1400 080/03 RMK AO2 T02500228
53843K79J 79J20160731221511107/31/16 22:15:31  5-MIN K79J 010315Z AUTO 00000KT 10SM BKN003 25/23 A3005 190 87 1400 000/00 RMK AO2 T02500228
53843K79J 79J20160731222011107/31/16 22:20:31  5-MIN K79J 010320Z AUTO 00000KT 10SM BKN003 25/23 A3005 190 87 1400 000/00 RMK AO2 T02500228
53843K79J 79J20160731222511007/31/16 22:25:31  5-MIN K79J 010325Z AUTO 00000KT 9SM BKN003 25/23 A3006 180 87 1400 000/00 RMK AO2 T02500228
53843K79J 79J20160731223011007/31/16 22:30:31  5-MIN K79J 010330Z AUTO 00000KT 9SM SCT003 25/22 A3007 170 84 1400 000/00 RMK AO2 T02500222
53843K79J 79J20160731223511807/31/16 22:35:31  5-MIN K79J 010335Z AUTO 13003KT 10SM FEW003 25/22 A3008 170 84 1400 130/03 RMK AO2 PRESRR T02500222
53843K79J 79J20160731224011007/31/16 22:40:31  5-MIN K79J 010340Z AUTO 00000KT 9SM FEW003 25/22 A3008 170 84 1400 000/00 RMK AO2 T02500222
53843K79J 79J20160731224511007/31/16 22:45:31  5-MIN K79J 010345Z AUTO 00000KT 9SM FEW003 25/22 A3008 160 84 1400 000/00 RMK AO2 T02500222
53843K79J 79J20160731225011407/31/16 22:50:31  5-MIN K79J 010350Z AUTO 00000KT 9SM CLR 25/23 A3008 170 87 1400 000/00 RMK AO2 SLP181 T02500228
53843K79J 79J20160731225511507/31/16 22:55:31  5-MIN K79J 010355Z AUTO 00000KT 10SM CLR 25/22 A3008 160 84 1400 000/00 RMK AO2 SLP182 T02500222
53843K79J 79J20160731230010807/31/16 23:00:31  5-MIN K79J 010400Z AUTO 00000KT 10SM CLR 25/22 A3008 160 84 1400 000/00 RMK AO2 T02500222
53843K79J 79J20160731230510707/31/16 23:05:31  5-MIN K79J 010405Z AUTO 07003KT 9SM CLR 25/22 A3008 170 84 1400 080/03 RMK AO2 T02500222
53843K79J 79J20160731231010707/31/16 23:10:31  5-MIN K79J 010410Z AUTO 07004KT 9SM CLR 25/23 A3007 170 87 1400 070/04 RMK AO2 T02500228
53843K79J 79J20160731231510707/31/16 23:15:31  5-MIN K79J 010415Z AUTO 06005KT 8SM CLR 25/23 A3007 170 87 1400 060/05 RMK AO2 T02500228
53843K79J 79J20160731232010707/31/16 23:20:31  5-MIN K79J 010420Z AUTO 06005KT 8SM CLR 25/23 A3007 170 87 1400 060/05 RMK AO2 T02500228
53843K79J 79J20160731232510707/31/16 23:25:31  5-MIN K79J 010425Z AUTO 06005KT 8SM CLR 25/23 A3007 180 87 1400 070/05 RMK AO2 T02500228
53843K79J 79J20160731233010707/31/16 23:30:31  5-MIN K79J 010430Z AUTO 05004KT 9SM CLR 25/23 A3007 180 87 1400 050/04 RMK AO2 T02500228
53843K79J 79J20160731233510807/31/16 23:35:31  5-MIN K79J 010435Z AUTO 05003KT 10SM CLR 25/23 A3006 180 87 1400 060/03 RMK AO2 T02500228
53843K79J 79J20160731234010807/31/16 23:40:31  5-MIN K79J 010440Z AUTO 07003KT 10SM CLR 25/22 A3006 180 84 1400 070/03 RMK AO2 T02500222
53843K79J 79J20160731234510807/31/16 23:45:31  5-MIN K79J 010445Z AUTO 07003KT 10SM CLR 25/22 A3006 180 84 1400 070/03 RMK AO2 T02500222
53843K79J 79J20160731235012507/31/16 23:50:31  5-MIN K79J 010450Z AUTO 00000KT 10SM CLR 25/23 A3006 180 87 1400 000/00 RMK AO2 SLP172 T02500228 403720239
53843K79J 79J20160731235512507/31/16 23:55:31  5-MIN K79J 010455Z AUTO 00000KT 10SM CLR 25/23 A3006 180 87 1400 000/00 RMK AO2 SLP173 T02500228 403720239
