03812KAVL AVL20161101000011111/01/16 00:00:31  5-MIN KAVL 010500Z AUTO 00000KT 7SM BKN080 14/11 A3022 1890 80 2200 000/00 RMK AO2 T01390106
03812KAVL AVL20161101000511211/01/16 00:05:31  5-MIN KAVL 010505Z AUTO 00000KT 10SM BKN080 14/11 A3022 1890 80 2200 000/00 RMK AO2 T01390106
03812KAVL AVL20161101001011211/01/16 00:10:31  5-MIN KAVL 010510Z AUTO 00000KT 10SM SCT080 14/11 A3022 1890 80 2200 000/00 RMK AO2 T01390106
03812KAVL AVL20161101001511211/01/16 00:15:31  5-MIN KAVL 010515Z AUTO 00000KT 10SM SCT080 16/11 A3022 1890 72 2400 000/00 RMK AO2 T01560106
03812KAVL AVL20161101002011211/01/16 00:20:31  5-MIN KAVL 010520Z AUTO 00000KT 10SM FEW080 14/10 A3022 1890 74 2300 000/00 RMK AO2 T01440100
03812KAVL AVL20161101002511211/01/16 00:25:31  5-MIN KAVL 010525Z AUTO 00000KT 10SM FEW080 14/10 A3023 1890 77 2200 000/00 RMK AO2 T01390100
03812KAVL AVL20161101003011411/01/16 00:30:31  5-MIN KAVL 010530Z AUTO 00000KT 3SM HZ FEW002 14/11 A3023 1890 80 2200 000/00 RMK AO2 T01390106
03812KAVL AVL20161101003513311/01/16 00:35:31  5-MIN KAVL 010535Z AUTO 00000KT 2 1/2SM HZ FEW002 FEW075 14/11 A3023 1890 80 2200 000/00 RMK AO2 VIS 1V5 T01390106
03812KAVL AVL20161101004011411/01/16 00:40:31  5-MIN KAVL 010540Z AUTO 00000KT 5SM HZ SCT075 14/10 A3023 1880 77 2200 000/00 RMK AO2 T01390100
03812KAVL AVL20161101004511211/01/16 00:45:31  5-MIN KAVL 010545Z AUTO 00000KT 10SM FEW075 14/11 A3023 1880 80 2200 000/00 RMK AO2 T01390106
03812KAVL AVL20161101005013711/01/16 00:50:31  5-MIN KAVL 010550Z AUTO 00000KT 10SM FEW075 14/10 A3023 1880 77 2200 000/00 RMK AO2 SLP215 T01390100 10194 20139 53009
03812KAVL AVL20161101005511211/01/16 00:55:31  5-MIN KAVL 010555Z AUTO 00000KT 10SM FEW075 14/10 A3023 1880 77 2200 000/00 RMK AO2 T01390100
03812KAVL AVL20161101010011111/01/16 01:00:31  5-MIN KAVL 010600Z AUTO 00000KT 7SM FEW075 14/10 A3023 1880 77 2200 000/00 RMK AO2 T01390100
03812KAVL AVL20161101010511111/01/16 01:05:31  5-MIN KAVL 010605Z AUTO 00000KT 7SM FEW075 13/10 A3023 1880 80 2200 000/00 RMK AO2 T01330100
03812KAVL AVL20161101011011211/01/16 01:10:31  5-MIN KAVL 010610Z AUTO 00000KT 10SM SCT075 13/10 A3023 1880 80 2200 000/00 RMK AO2 T01330100
03812KAVL AVL20161101011511111/01/16 01:15:31  5-MIN KAVL 010615Z AUTO 00000KT 8SM SCT075 14/10 A3024 1880 77 2200 000/00 RMK AO2 T01390100
03812KAVL AVL20161101012011111/01/16 01:20:31  5-MIN KAVL 010620Z AUTO 00000KT 8SM BKN075 13/10 A3024 1880 80 2200 000/00 RMK AO2 T01330100
03812KAVL AVL20161101012511111/01/16 01:25:31  5-MIN KAVL 010625Z AUTO 00000KT 9SM BKN075 13/10 A3024 1870 80 2200 000/00 RMK AO2 T01330100
03812KAVL AVL20161101013011111/01/16 01:30:31  5-MIN KAVL 010630Z AUTO 00000KT 8SM BKN075 13/10 A3024 1870 80 2200 000/00 RMK AO2 T01330100
03812KAVL AVL20161101013511111/01/16 01:35:31  5-MIN KAVL 010635Z AUTO 15003KT 8SM SCT070 13/10 A3024 1870 80 2100 150/03 RMK AO2 T01330100
03812KAVL AVL20161101014011211/01/16 01:40:31  5-MIN KAVL 010640Z AUTO 13003KT 10SM BKN070 13/10 A3025 1870 80 2100 130/03 RMK AO2 T01330100
03812KAVL AVL20161101014511211/01/16 01:45:31  5-MIN KAVL 010645Z AUTO 13004KT 10SM SCT070 14/10 A3025 1870 77 2200 140/04 RMK AO2 T01390100
03812KAVL AVL20161101015011911/01/16 01:50:31  5-MIN KAVL 010650Z AUTO 15004KT 10SM FEW070 14/11 A3025 1860 77 2300 160/04 RMK AO2 SLP222 T01440106
03812KAVL AVL20161101015511211/01/16 01:55:31  5-MIN KAVL 010655Z AUTO 16003KT 10SM FEW070 14/11 A3025 1860 77 2300 160/03 RMK AO2 T01440106
03812KAVL AVL20161101020011211/01/16 02:00:31  5-MIN KAVL 010700Z AUTO 18003KT 10SM FEW070 14/11 A3025 1860 80 2200 180/03 RMK AO2 T01390106
03812KAVL AVL20161101020511211/01/16 02:05:31  5-MIN KAVL 010705Z AUTO 00000KT 10SM FEW070 14/11 A3026 1860 80 2200 000/00 RMK AO2 T01390106
03812KAVL AVL20161101021010911/01/16 02:10:31  5-MIN KAVL 010710Z AUTO 00000KT 10SM CLR 14/11 A3026 1860 77 2300 000/00 RMK AO2 T01440106
03812KAVL AVL20161101021511211/01/16 02:15:31  5-MIN KAVL 010715Z AUTO 00000KT 10SM FEW075 14/11 A3026 1860 80 2200 000/00 RMK AO2 T01390106
03812KAVL AVL20161101022011211/01/16 02:20:31  5-MIN KAVL 010720Z AUTO 00000KT 10SM FEW075 14/11 A3026 1860 80 2200 000/00 RMK AO2 T01390106
03812KAVL AVL20161101022511211/01/16 02:25:31  5-MIN KAVL 010725Z AUTO 00000KT 10SM FEW075 14/11 A3026 1860 80 2200 000/00 RMK AO2 T01390106
03812KAVL AVL20161101023011211/01/16 02:30:31  5-MIN KAVL 010730Z AUTO 00000KT 10SM FEW075 14/11 A3026 1860 80 2200 000/00 RMK AO2 T01390106
03812KAVL AVL20161101023511211/01/16 02:35:31  5-MIN KAVL 010735Z AUTO 00000KT 10SM FEW075 14/11 A3026 1860 77 2300 000/00 RMK AO2 T01440106
03812KAVL AVL20161101024011211/01/16 02:40:31  5-MIN KAVL 010740Z AUTO 00000KT 10SM FEW075 14/11 A3026 1860 80 2200 000/00 RMK AO2 T01390106
03812KAVL AVL20161101024510911/01/16 02:45:31  5-MIN KAVL 010745Z AUTO 00000KT 10SM CLR 14/11 A3026 1860 80 2200 000/00 RMK AO2 T01390106
03812KAVL AVL20161101025011611/01/16 02:50:31  5-MIN KAVL 010750Z AUTO 00000KT 10SM CLR 14/11 A3026 1860 83 2200 000/00 RMK AO2 SLP224 T01390111
03812KAVL AVL20161101025510911/01/16 02:55:31  5-MIN KAVL 010755Z AUTO 00000KT 10SM CLR 13/11 A3026 1860 83 2100 000/00 RMK AO2 T01330106
03812KAVL AVL20161101030010911/01/16 03:00:31  5-MIN KAVL 010800Z AUTO 00000KT 10SM CLR 13/11 A3026 1850 83 2100 000/00 RMK AO2 T01330106
03812KAVL AVL20161101030510911/01/16 03:05:31  5-MIN KAVL 010805Z AUTO 00000KT 10SM CLR 13/11 A3026 1850 83 2100 000/00 RMK AO2 T01330106
03812KAVL AVL20161101031010911/01/16 03:10:31  5-MIN KAVL 010810Z AUTO 00000KT 10SM CLR 13/11 A3026 1850 83 2100 000/00 RMK AO2 T01330106
03812KAVL AVL20161101031510911/01/16 03:15:31  5-MIN KAVL 010815Z AUTO 00000KT 10SM CLR 13/11 A3026 1850 83 2100 000/00 RMK AO2 T01330106
03812KAVL AVL20161101032010911/01/16 03:20:31  5-MIN KAVL 010820Z AUTO 00000KT 10SM CLR 13/11 A3026 1850 83 2100 000/00 RMK AO2 T01330106
03812KAVL AVL20161101032510911/01/16 03:25:31  5-MIN KAVL 010825Z AUTO 00000KT 10SM CLR 13/11 A3026 1850 86 2100 000/00 RMK AO2 T01330111
03812KAVL AVL20161101033010911/01/16 03:30:31  5-MIN KAVL 010830Z AUTO 00000KT 10SM CLR 14/11 A3026 1850 83 2200 000/00 RMK AO2 T01390111
03812KAVL AVL20161101033510911/01/16 03:35:31  5-MIN KAVL 010835Z AUTO 00000KT 10SM CLR 14/11 A3026 1850 83 2200 000/00 RMK AO2 T01390111
03812KAVL AVL20161101034010911/01/16 03:40:31  5-MIN KAVL 010840Z AUTO 00000KT 10SM CLR 14/11 A3027 1850 83 2200 000/00 RMK AO2 T01390111
03812KAVL AVL20161101034510911/01/16 03:45:31  5-MIN KAVL 010845Z AUTO 00000KT 10SM CLR 13/11 A3027 1850 86 2100 000/00 RMK AO2 T01330111
03812KAVL AVL20161101035012211/01/16 03:50:31  5-MIN KAVL 010850Z AUTO 00000KT 10SM CLR 13/11 A3027 1850 83 2100 000/00 RMK AO2 SLP229 T01330106 52011
03812KAVL AVL20161101035510911/01/16 03:55:31  5-MIN KAVL 010855Z AUTO 00000KT 10SM CLR 13/11 A3027 1850 86 2100 000/00 RMK AO2 T01330111
03812KAVL AVL20161101040010911/01/16 04:00:31  5-MIN KAVL 010900Z AUTO 00000KT 10SM CLR 14/11 A3027 1850 83 2200 000/00 RMK AO2 T01390111
03812KAVL AVL20161101040510911/01/16 04:05:31  5-MIN KAVL 010905Z AUTO 00000KT 10SM CLR 14/12 A3027 1840 86 2200 000/00 RMK AO2 T01390117
03812KAVL AVL20161101041010911/01/16 04:10:31  5-MIN KAVL 010910Z AUTO 00000KT 10SM CLR 13/12 A3027 1840 89 2100 000/00 RMK AO2 T01330117
03812KAVL AVL20161101041510911/01/16 04:15:31  5-MIN KAVL 010915Z AUTO 00000KT 10SM CLR 13/11 A3027 1840 86 2100 000/00 RMK AO2 T01330111
03812KAVL AVL20161101042010911/01/16 04:20:31  5-MIN KAVL 010920Z AUTO 00000KT 10SM CLR 13/11 A3028 1840 86 2100 000/00 RMK AO2 T01330111
03812KAVL AVL20161101042510911/01/16 04:25:31  5-MIN KAVL 010925Z AUTO 00000KT 10SM CLR 13/11 A3028 1840 86 2100 000/00 RMK AO2 T01330111
03812KAVL AVL20161101043010911/01/16 04:30:31  5-MIN KAVL 010930Z AUTO 00000KT 10SM CLR 13/11 A3028 1840 86 2100 000/00 RMK AO2 T01330111
03812KAVL AVL20161101043511111/01/16 04:35:31  5-MIN KAVL 010935Z AUTO 00000KT 9SM FEW016 13/11 A3028 1830 83 2100 000/00 RMK AO2 T01330106
03812KAVL AVL20161101044011111/01/16 04:40:31  5-MIN KAVL 010940Z AUTO 00000KT 9SM FEW014 13/11 A3028 1830 86 2100 000/00 RMK AO2 T01330111
03812KAVL AVL20161101044511111/01/16 04:45:31  5-MIN KAVL 010945Z AUTO 00000KT 9SM SCT014 13/11 A3029 1830 86 2100 000/00 RMK AO2 T01330111
03812KAVL AVL20161101045010111/01/16 04:50:31  5-MIN KAVL 010950Z AUTO 00000KT 9SM BKN014 13/12 A3028 1830 89 2100 000/00 RMK AO2
03812KAVL AVL20161101045511111/01/16 04:55:31  5-MIN KAVL 010955Z AUTO 00000KT 9SM BKN014 13/12 A3029 1830 89 2100 000/00 RMK AO2 T01330117
03812KAVL AVL20161101050011211/01/16 05:00:31  5-MIN KAVL 011000Z AUTO 21004KT 10SM BKN014 14/12 A3029 1830 86 2200 220/04 RMK AO2 T01390117
03812KAVL AVL20161101050511211/01/16 05:05:31  5-MIN KAVL 011005Z AUTO 21004KT 10SM OVC013 14/13 A3029 1830 90 2200 210/04 RMK AO2 T01440128
03812KAVL AVL20161101051011211/01/16 05:10:31  5-MIN KAVL 011010Z AUTO 20004KT 10SM OVC013 14/13 A3029 1830 90 2200 210/04 RMK AO2 T01440128
03812KAVL AVL20161101051511211/01/16 05:15:31  5-MIN KAVL 011015Z AUTO 20004KT 10SM OVC013 14/13 A3029 1830 90 2200 200/04 RMK AO2 T01440128
03812KAVL AVL20161101052010711/01/16 05:20:31  5-MIN KAVL 011020Z 20004KT 10SM OVC013 15/13 A3029 1830 86 2300 210/04 RMK AO2 T01500128
03812KAVL AVL20161101052510711/01/16 05:25:31  5-MIN KAVL 011025Z 20003KT 10SM OVC013 15/13 A3029 1830 86 2300 200/03 RMK AO2 T01500128
03812KAVL AVL20161101053010711/01/16 05:30:31  5-MIN KAVL 011030Z 20003KT 10SM OVC012 15/13 A3029 1830 86 2300 210/03 RMK AO2 T01500128
03812KAVL AVL20161101053510711/01/16 05:35:31  5-MIN KAVL 011035Z 00000KT 10SM OVC012 15/13 A3029 1830 86 2300 000/00 RMK AO2 T01500128
03812KAVL AVL20161101054010711/01/16 05:40:31  5-MIN KAVL 011040Z 00000KT 10SM OVC012 15/13 A3029 1820 86 2300 000/00 RMK AO2 T01500128
03812KAVL AVL20161101054510711/01/16 05:45:31  5-MIN KAVL 011045Z 19003KT 10SM OVC012 15/13 A3029 1830 86 2300 190/03 RMK AO2 T01500128
03812KAVL AVL20161101055011411/01/16 05:50:31  5-MIN KAVL 011050Z 19003KT 10SM OVC011 15/13 A3029 1830 86 2300 200/03 RMK AO2 SLP238 T01500128
03812KAVL AVL20161101055510711/01/16 05:55:31  5-MIN KAVL 011055Z 17003KT 10SM OVC011 15/13 A3029 1820 86 2300 180/03 RMK AO2 T01500128
03812KAVL AVL20161101060010611/01/16 06:00:31  5-MIN KAVL 011100Z 18003KT 9SM OVC011 15/13 A3029 1820 86 2300 190/03 RMK AO2 T01500128
03812KAVL AVL20161101060510611/01/16 06:05:31  5-MIN KAVL 011105Z 00000KT 9SM OVC011 15/13 A3030 1820 86 2300 000/00 RMK AO2 T01500128
03812KAVL AVL20161101061010611/01/16 06:10:31  5-MIN KAVL 011110Z 00000KT 9SM OVC011 15/13 A3030 1820 86 2300 000/00 RMK AO2 T01500128
03812KAVL AVL20161101061510611/01/16 06:15:31  5-MIN KAVL 011115Z 17003KT 9SM OVC011 15/13 A3030 1820 86 2300 180/03 RMK AO2 T01500128
03812KAVL AVL20161101062010611/01/16 06:20:31  5-MIN KAVL 011120Z 16004KT 9SM OVC011 15/13 A3030 1820 86 2300 170/04 RMK AO2 T01500128
03812KAVL AVL20161101062510611/01/16 06:25:31  5-MIN KAVL 011125Z 17004KT 9SM OVC011 15/13 A3030 1820 86 2300 170/04 RMK AO2 T01500128
03812KAVL AVL20161101063010611/01/16 06:30:31  5-MIN KAVL 011130Z 17004KT 9SM OVC011 15/13 A3030 1820 86 2300 180/04 RMK AO2 T01500128
03812KAVL AVL20161101063510611/01/16 06:35:31  5-MIN KAVL 011135Z 16003KT 9SM OVC011 15/13 A3030 1820 86 2300 170/03 RMK AO2 T01500128
03812KAVL AVL20161101064010611/01/16 06:40:31  5-MIN KAVL 011140Z 18004KT 9SM OVC011 15/13 A3030 1820 86 2300 180/04 RMK AO2 T01500128
03812KAVL AVL20161101064510611/01/16 06:45:31  5-MIN KAVL 011145Z 17004KT 9SM OVC011 15/13 A3030 1820 86 2300 180/04 RMK AO2 T01500128
03812KAVL AVL20161101065013111/01/16 06:50:31  5-MIN KAVL 011150Z 17004KT 9SM OVC011 15/13 A3030 1820 86 2300 180/04 RMK AO2 SLP243 T01500128 10150 20128 51011
03812KAVL AVL20161101065510611/01/16 06:55:31  5-MIN KAVL 011155Z 17004KT 9SM OVC011 15/13 A3030 1820 86 2300 180/04 RMK AO2 T01500128
03812KAVL AVL20161101070010611/01/16 07:00:31  5-MIN KAVL 011200Z 17004KT 9SM OVC011 15/13 A3030 1820 86 2300 170/04 RMK AO2 T01500128
03812KAVL AVL20161101070510611/01/16 07:05:31  5-MIN KAVL 011205Z 16003KT 8SM OVC011 15/13 A3030 1820 86 2300 170/03 RMK AO2 T01500128
03812KAVL AVL20161101071010611/01/16 07:10:31  5-MIN KAVL 011210Z 16004KT 8SM OVC011 15/13 A3030 1810 86 2300 170/04 RMK AO2 T01500128
03812KAVL AVL20161101071510611/01/16 07:15:31  5-MIN KAVL 011215Z 16004KT 8SM OVC011 15/13 A3031 1810 86 2300 160/04 RMK AO2 T01500128
03812KAVL AVL20161101072010611/01/16 07:20:31  5-MIN KAVL 011220Z 16004KT 7SM OVC011 15/13 A3031 1810 86 2300 170/04 RMK AO2 T01500128
03812KAVL AVL20161101072510611/01/16 07:25:31  5-MIN KAVL 011225Z 16004KT 7SM OVC011 15/13 A3031 1810 86 2300 170/04 RMK AO2 T01500128
03812KAVL AVL20161101073010911/01/16 07:30:31  5-MIN KAVL 011230Z 17004KT 6SM BR OVC011 15/13 A3031 1810 86 2300 170/04 RMK AO2 T01500128
03812KAVL AVL20161101073510611/01/16 07:35:31  5-MIN KAVL 011235Z 17004KT 7SM OVC011 15/13 A3031 1800 86 2300 170/04 RMK AO2 T01500128
03812KAVL AVL20161101074010611/01/16 07:40:31  5-MIN KAVL 011240Z 16004KT 7SM OVC011 15/13 A3032 1800 86 2300 160/04 RMK AO2 T01500128
03812KAVL AVL20161101074510611/01/16 07:45:31  5-MIN KAVL 011245Z 15004KT 7SM OVC011 15/13 A3032 1800 86 2300 160/04 RMK AO2 T01500128
03812KAVL AVL20161101075009911/01/16 07:50:31  5-MIN KAVL 011250Z 16004KT 5SM BR OVC009 15/13 A3032 1800 86 2300 170/04 RMK AO2
03812KAVL AVL20161101075510611/01/16 07:55:31  5-MIN KAVL 011255Z 17004KT 8SM OVC011 15/13 A3032 1800 86 2300 180/04 RMK AO2 T01500128
03812KAVL AVL20161101080010911/01/16 08:00:31  5-MIN KAVL 011300Z 18004KT 5SM HZ OVC009 16/13 A3033 1790 83 2300 180/04 RMK AO2 T01560128
03812KAVL AVL20161101080510911/01/16 08:05:31  5-MIN KAVL 011305Z 16003KT 5SM HZ OVC009 16/13 A3033 1790 83 2300 170/03 RMK AO2 T01560128
03812KAVL AVL20161101081010911/01/16 08:10:31  5-MIN KAVL 011310Z 17003KT 5SM HZ OVC009 16/13 A3033 1790 83 2300 180/03 RMK AO2 T01560128
03812KAVL AVL20161101081510911/01/16 08:15:31  5-MIN KAVL 011315Z 17003KT 5SM HZ OVC009 16/13 A3033 1790 83 2300 170/03 RMK AO2 T01560128
03812KAVL AVL20161101082010911/01/16 08:20:31  5-MIN KAVL 011320Z 18003KT 5SM HZ OVC009 16/13 A3034 1790 83 2300 180/03 RMK AO2 T01560128
03812KAVL AVL20161101082510911/01/16 08:25:31  5-MIN KAVL 011325Z 18004KT 5SM HZ OVC009 16/13 A3034 1780 83 2300 190/04 RMK AO2 T01560128
03812KAVL AVL20161101083010911/01/16 08:30:31  5-MIN KAVL 011330Z 20005KT 5SM HZ OVC009 16/13 A3034 1780 80 2400 200/05 RMK AO2 T01610128
03812KAVL AVL20161101083510911/01/16 08:35:31  5-MIN KAVL 011335Z 20005KT 5SM HZ OVC009 16/13 A3034 1780 83 2300 200/05 RMK AO2 T01560128
03812KAVL AVL20161101084010911/01/16 08:40:31  5-MIN KAVL 011340Z 19004KT 5SM HZ OVC009 16/13 A3034 1780 80 2400 190/04 RMK AO2 T01610128
03812KAVL AVL20161101084510911/01/16 08:45:31  5-MIN KAVL 011345Z 19005KT 5SM HZ OVC009 16/13 A3034 1780 83 2300 200/05 RMK AO2 T01560128
03812KAVL AVL20161101085011611/01/16 08:50:31  5-MIN KAVL 011350Z 19005KT 5SM HZ OVC009 16/13 A3034 1780 83 2300 190/05 RMK AO2 SLP261 T01560128
03812KAVL AVL20161101085510911/01/16 08:55:31  5-MIN KAVL 011355Z 19005KT 9SM HZ OVC009 16/13 A3034 1780 80 2400 190/05 RMK AO2 T01610128
03812KAVL AVL20161101090010911/01/16 09:00:31  5-MIN KAVL 011400Z 22004KT 9SM HZ OVC009 16/13 A3034 1780 80 2400 220/04 RMK AO2 T01610128
03812KAVL AVL20161101090510911/01/16 09:05:31  5-MIN KAVL 011405Z 20006KT 9SM HZ OVC010 16/13 A3034 1780 80 2400 210/06 RMK AO2 T01610128
03812KAVL AVL20161101091011011/01/16 09:10:31  5-MIN KAVL 011410Z 20005KT 10SM HZ OVC010 16/13 A3034 1780 80 2400 210/05 RMK AO2 T01610128
03812KAVL AVL20161101091511011/01/16 09:15:31  5-MIN KAVL 011415Z 21005KT 10SM HZ OVC010 16/13 A3034 1780 80 2400 220/05 RMK AO2 T01610128
03812KAVL AVL20161101092010911/01/16 09:20:31  5-MIN KAVL 011420Z 22005KT 5SM HZ OVC010 16/13 A3034 1780 80 2400 220/05 RMK AO2 T01610128
03812KAVL AVL20161101092510911/01/16 09:25:31  5-MIN KAVL 011425Z 21004KT 5SM HZ OVC010 17/13 A3034 1780 77 2400 210/04 RMK AO2 T01670128
03812KAVL AVL20161101093010911/01/16 09:30:31  5-MIN KAVL 011430Z 20006KT 8SM HZ OVC010 17/13 A3034 1780 77 2400 210/06 RMK AO2 T01670128
03812KAVL AVL20161101093510911/01/16 09:35:31  5-MIN KAVL 011435Z 21006KT 8SM HZ OVC010 17/13 A3034 1780 77 2400 210/06 RMK AO2 T01670128
03812KAVL AVL20161101094010911/01/16 09:40:31  5-MIN KAVL 011440Z 18005KT 9SM HZ OVC011 17/13 A3034 1780 77 2400 180/05 RMK AO2 T01670128
03812KAVL AVL20161101094510911/01/16 09:45:31  5-MIN KAVL 011445Z 19004KT 9SM HZ OVC011 17/13 A3034 1780 77 2400 200/04 RMK AO2 T01670128
03812KAVL AVL20161101095012211/01/16 09:50:31  5-MIN KAVL 011450Z 22005KT 9SM HZ OVC011 17/13 A3034 1780 75 2500 220/05 RMK AO2 SLP259 T01720128 51010
03812KAVL AVL20161101095510911/01/16 09:55:31  5-MIN KAVL 011455Z 22005KT 9SM HZ OVC011 17/13 A3034 1780 75 2500 230/05 RMK AO2 T01720128
03812KAVL AVL20161101100010911/01/16 10:00:31  5-MIN KAVL 011500Z VRB03KT 9SM HZ OVC011 17/13 A3034 1780 75 2500 VRB/03 RMK AO2 T01720128
03812KAVL AVL20161101100511011/01/16 10:05:31  5-MIN KAVL 011505Z VRB03KT 10SM HZ OVC011 18/13 A3034 1780 72 2600 VRB/03 RMK AO2 T01780128
03812KAVL AVL20161101101011011/01/16 10:10:31  5-MIN KAVL 011510Z VRB04KT 10SM HZ BKN011 18/13 A3034 1780 72 2600 VRB/04 RMK AO2 T01780128
03812KAVL AVL20161101101510711/01/16 10:15:31  5-MIN KAVL 011515Z 21004KT 10SM BKN011 18/13 A3034 1780 72 2600 210/04 RMK AO2 T01780128
03812KAVL AVL20161101102010711/01/16 10:20:31  5-MIN KAVL 011520Z 18004KT 10SM SCT011 18/13 A3034 1790 70 2600 190/04 RMK AO2 T01830128
03812KAVL AVL20161101102510711/01/16 10:25:31  5-MIN KAVL 011525Z VRB03KT 10SM FEW011 18/13 A3033 1790 72 2600 VRB/03 RMK AO2 T01780128
03812KAVL AVL20161101103010911/01/16 10:30:31  5-MIN KAVL 011530Z 25003KT 5SM HZ FEW011 18/12 A3034 1790 69 2600 260/03 RMK AO2 T01780122
03812KAVL AVL20161101103510611/01/16 10:35:31  5-MIN KAVL 011535Z 00000KT 5SM HZ CLR 18/12 A3034 1790 67 2600 000/00 RMK AO2 T01830122
03812KAVL AVL20161101104010411/01/16 10:40:31  5-MIN KAVL 011540Z 19003KT 10SM CLR 19/13 A3034 1790 67 2700 200/03 RMK AO2 T01890128
03812KAVL AVL20161101104510411/01/16 10:45:31  5-MIN KAVL 011545Z VRB03KT 10SM CLR 19/13 A3033 1790 67 2700 VRB/03 RMK AO2 T01890128
03812KAVL AVL20161101105011111/01/16 10:50:31  5-MIN KAVL 011550Z 23004KT 10SM CLR 19/12 A3033 1790 65 2700 230/04 RMK AO2 SLP256 T01890122
03812KAVL AVL20161101105510411/01/16 10:55:31  5-MIN KAVL 011555Z 23003KT 10SM CLR 19/13 A3033 1790 65 2800 230/03 RMK AO2 T01940128
03812KAVL AVL20161101110010411/01/16 11:00:31  5-MIN KAVL 011600Z 00000KT 10SM CLR 19/12 A3033 1790 62 2800 000/00 RMK AO2 T01940122
03812KAVL AVL20161101110510411/01/16 11:05:31  5-MIN KAVL 011605Z 00000KT 10SM CLR 20/13 A3033 1790 63 2800 000/00 RMK AO2 T02000128
03812KAVL AVL20161101111010411/01/16 11:10:31  5-MIN KAVL 011610Z 25003KT 10SM CLR 20/12 A3033 1790 60 2800 250/03 RMK AO2 T02000122
03812KAVL AVL20161101111510411/01/16 11:15:31  5-MIN KAVL 011615Z 00000KT 10SM CLR 21/12 A3033 1790 58 2900 000/00 RMK AO2 T02060122
03812KAVL AVL20161101112010411/01/16 11:20:31  5-MIN KAVL 011620Z VRB03KT 10SM CLR 21/13 A3033 1790 60 2900 VRB/03 RMK AO2 T02060128
03812KAVL AVL20161101112510411/01/16 11:25:31  5-MIN KAVL 011625Z 16004KT 10SM CLR 21/13 A3032 1800 60 2900 170/04 RMK AO2 T02060128
03812KAVL AVL20161101113010411/01/16 11:30:31  5-MIN KAVL 011630Z 18004KT 10SM CLR 21/13 A3032 1800 58 3000 180/04 RMK AO2 T02110128
03812KAVL AVL20161101113510411/01/16 11:35:31  5-MIN KAVL 011635Z 20006KT 10SM CLR 22/13 A3032 1800 56 3000 210/06 RMK AO2 T02170128
03812KAVL AVL20161101114010411/01/16 11:40:31  5-MIN KAVL 011640Z VRB03KT 10SM CLR 22/12 A3032 1800 54 3000 VRB/03 RMK AO2 T02170122
03812KAVL AVL20161101114510411/01/16 11:45:31  5-MIN KAVL 011645Z 17008KT 10SM CLR 22/12 A3031 1810 52 3100 170/08 RMK AO2 T02220122
03812KAVL AVL20161101115011111/01/16 11:50:31  5-MIN KAVL 011650Z 20006KT 10SM CLR 23/12 A3031 1810 49 3200 210/06 RMK AO2 SLP246 T02280117
03812KAVL AVL20161101115510411/01/16 11:55:31  5-MIN KAVL 011655Z 17008KT 10SM CLR 23/12 A3031 1810 49 3200 180/08 RMK AO2 T02280117
03812KAVL AVL20161101120010411/01/16 12:00:31  5-MIN KAVL 011700Z 19009KT 10SM CLR 23/11 A3030 1810 47 3200 190/09 RMK AO2 T02280111
03812KAVL AVL20161101120510411/01/16 12:05:31  5-MIN KAVL 011705Z 20006KT 10SM CLR 23/11 A3030 1820 45 3200 210/06 RMK AO2 T02330111
03812KAVL AVL20161101121010411/01/16 12:10:31  5-MIN KAVL 011710Z 19005KT 10SM CLR 24/11 A3030 1820 44 3300 190/05 RMK AO2 T02390111
03812KAVL AVL20161101121510411/01/16 12:15:31  5-MIN KAVL 011715Z 16010KT 10SM CLR 24/11 A3029 1820 42 3300 170/10 RMK AO2 T02390106
03812KAVL AVL20161101122010411/01/16 12:20:31  5-MIN KAVL 011720Z 19009KT 10SM CLR 24/11 A3029 1830 42 3300 190/09 RMK AO2 T02390106
03812KAVL AVL20161101122510411/01/16 12:25:31  5-MIN KAVL 011725Z 18007KT 10SM CLR 24/11 A3029 1830 42 3300 180/07 RMK AO2 T02390106
03812KAVL AVL20161101123010411/01/16 12:30:31  5-MIN KAVL 011730Z 20008KT 10SM CLR 24/11 A3029 1830 42 3300 200/08 RMK AO2 T02390106
03812KAVL AVL20161101123510411/01/16 12:35:31  5-MIN KAVL 011735Z 16009KT 10SM CLR 25/11 A3029 1830 39 3400 170/09 RMK AO2 T02500106
03812KAVL AVL20161101124010411/01/16 12:40:31  5-MIN KAVL 011740Z 19004KT 10SM CLR 24/11 A3028 1830 41 3400 200/04 RMK AO2 T02440106
03812KAVL AVL20161101124509411/01/16 12:45:31  5-MIN KAVL 011745Z 10SM CLR 25/11 A3028 1830 39 3400 M /M RMK AO2 T02500106
03812KAVL AVL20161101125014811/01/16 12:50:31  5-MIN KAVL 011750Z 17008KT 150V240 10SM FEW080 25/10 A3028 1840 38 3400 180/08 160V250 RMK AO2 SLP233 T02500100 10256 20150 50014
03812KAVL AVL20161101125511311/01/16 12:55:31  5-MIN KAVL 011755Z 17009G15KT 10SM SCT075 25/10 A3028 1840 38 3400 180/09G15 RMK AO2 T02500100
03812KAVL AVL20161101130011311/01/16 13:00:31  5-MIN KAVL 011800Z 18008G15KT 10SM SCT075 25/10 A3028 1840 38 3400 180/08G15 RMK AO2 T02500100
03812KAVL AVL20161101130510711/01/16 13:05:31  5-MIN KAVL 011805Z 20010KT 10SM FEW075 25/09 A3027 1840 37 3500 210/10 RMK AO2 T02500094
03812KAVL AVL20161101131011311/01/16 13:10:31  5-MIN KAVL 011810Z 21010G14KT 10SM FEW075 25/09 A3027 1840 37 3500 210/10G14 RMK AO2 T02500094
03812KAVL AVL20161101131510911/01/16 13:15:31  5-MIN KAVL 011815Z 23009KT 6SM HZ FEW075 26/09 A3027 1850 34 3500 240/09 RMK AO2 T02560089
03812KAVL AVL20161101132012511/01/16 13:20:31  5-MIN KAVL 011820Z 19007KT 110V240 6SM HZ FEW075 26/09 A3027 1850 33 3600 190/07 120V250 RMK AO2 T02610089
03812KAVL AVL20161101132510411/01/16 13:25:31  5-MIN KAVL 011825Z 17005KT 10SM CLR 25/10 A3027 1850 38 3500 170/05 RMK AO2 T02500100
03812KAVL AVL20161101133010411/01/16 13:30:31  5-MIN KAVL 011830Z 19005KT 10SM CLR 24/11 A3027 1850 42 3400 200/05 RMK AO2 T02440111
03812KAVL AVL20161101133510711/01/16 13:35:31  5-MIN KAVL 011835Z 13006KT 10SM FEW060 24/12 A3026 1850 44 3400 140/06 RMK AO2 T02440117
03812KAVL AVL20161101134010711/01/16 13:40:31  5-MIN KAVL 011840Z 17010KT 10SM SCT060 24/10 A3026 1850 39 3400 180/10 RMK AO2 T02440100
03812KAVL AVL20161101134510611/01/16 13:45:31  5-MIN KAVL 011845Z 18010KT 9SM BKN060 24/09 A3026 1850 36 3400 190/10 RMK AO2 T02440089
03812KAVL AVL20161101135012911/01/16 13:50:31  5-MIN KAVL 011850Z 17007KT 130V200 7SM BKN060 24/09 A3026 1850 36 3400 180/07 140V210 RMK AO2 SLP226 T02440089
03812KAVL AVL20161101135510611/01/16 13:55:31  5-MIN KAVL 011855Z 18009KT 8SM BKN060 24/12 A3026 1860 46 3300 190/09 RMK AO2 T02390117
03812KAVL AVL20161101140010711/01/16 14:00:31  5-MIN KAVL 011900Z 16008KT 10SM BKN060 24/12 A3026 1860 46 3300 160/08 RMK AO2 T02390117
03812KAVL AVL20161101140511411/01/16 14:05:31  5-MIN KAVL 011905Z 16006KT 10SM SCT060 SCT070 24/12 A3026 1860 46 3300 160/06 RMK AO2 T02390117
03812KAVL AVL20161101141012011/01/16 14:10:31  5-MIN KAVL 011910Z 16006G14KT 10SM SCT060 SCT070 23/12 A3026 1860 47 3300 160/06G14 RMK AO2 T02330117
03812KAVL AVL20161101141511311/01/16 14:15:31  5-MIN KAVL 011915Z 14006G14KT 10SM FEW060 23/12 A3026 1860 47 3300 150/06G14 RMK AO2 T02330117
03812KAVL AVL20161101142011411/01/16 14:20:31  5-MIN KAVL 011920Z 13005KT 10SM FEW060 FEW070 23/12 A3026 1860 47 3300 140/05 RMK AO2 T02330117
03812KAVL AVL20161101142511411/01/16 14:25:31  5-MIN KAVL 011925Z 14005KT 10SM FEW055 SCT070 23/12 A3026 1860 49 3300 140/05 RMK AO2 T02330122
03812KAVL AVL20161101143011411/01/16 14:30:31  5-MIN KAVL 011930Z 15005KT 10SM SCT055 SCT070 23/12 A3026 1860 49 3300 150/05 RMK AO2 T02330122
03812KAVL AVL20161101143511411/01/16 14:35:31  5-MIN KAVL 011935Z 12007KT 10SM SCT060 BKN070 23/12 A3025 1860 49 3300 130/07 RMK AO2 T02330122
03812KAVL AVL20161101144011411/01/16 14:40:31  5-MIN KAVL 011940Z VRB03KT 10SM SCT060 SCT070 23/12 A3025 1860 49 3300 VRB/03 RMK AO2 T02330122
03812KAVL AVL20161101144511411/01/16 14:45:31  5-MIN KAVL 011945Z 13008KT 10SM FEW060 SCT070 24/12 A3025 1860 46 3400 130/08 RMK AO2 T02440122
03812KAVL AVL20161101145012811/01/16 14:50:31  5-MIN KAVL 011950Z 16006KT 10SM FEW050 SCT060 SCT070 24/12 A3025 1860 46 3400 170/06 RMK AO2 SLP223 T02440122
03812KAVL AVL20161101145511411/01/16 14:55:31  5-MIN KAVL 011955Z 18006KT 10SM FEW050 SCT060 24/10 A3025 1860 39 3400 190/06 RMK AO2 T02440100
03812KAVL AVL20161101150011411/01/16 15:00:31  5-MIN KAVL 012000Z 19008KT 10SM FEW050 FEW060 25/09 A3025 1860 37 3500 200/08 RMK AO2 T02500094
03812KAVL AVL20161101150510711/01/16 15:05:31  5-MIN KAVL 012005Z 18009KT 10SM FEW050 25/09 A3025 1870 37 3500 180/09 RMK AO2 T02500094
03812KAVL AVL20161101151010711/01/16 15:10:31  5-MIN KAVL 012010Z 21008KT 10SM FEW049 24/09 A3025 1860 36 3400 220/08 RMK AO2 T02440089
03812KAVL AVL20161101151510711/01/16 15:15:31  5-MIN KAVL 012015Z 22007KT 10SM FEW049 24/09 A3025 1860 36 3400 230/07 RMK AO2 T02440089
03812KAVL AVL20161101152010411/01/16 15:20:31  5-MIN KAVL 012020Z 21008KT 10SM CLR 24/09 A3025 1860 36 3400 210/08 RMK AO2 T02440089
03812KAVL AVL20161101152510411/01/16 15:25:31  5-MIN KAVL 012025Z 22007KT 10SM CLR 24/09 A3025 1860 36 3400 220/07 RMK AO2 T02440089
03812KAVL AVL20161101153010411/01/16 15:30:31  5-MIN KAVL 012030Z 22009KT 10SM CLR 24/09 A3025 1860 36 3400 220/09 RMK AO2 T02440089
03812KAVL AVL20161101153510411/01/16 15:35:31  5-MIN KAVL 012035Z 21009KT 10SM CLR 24/09 A3025 1860 36 3400 220/09 RMK AO2 T02440089
03812KAVL AVL20161101154010411/01/16 15:40:31  5-MIN KAVL 012040Z 19011KT 10SM CLR 24/09 A3025 1860 36 3400 200/11 RMK AO2 T02440089
03812KAVL AVL20161101154510411/01/16 15:45:31  5-MIN KAVL 012045Z 21008KT 10SM CLR 24/09 A3025 1860 38 3400 210/08 RMK AO2 T02390089
03812KAVL AVL20161101155011711/01/16 15:50:31  5-MIN KAVL 012050Z 19008KT 10SM CLR 24/09 A3025 1860 39 3400 200/08 RMK AO2 SLP224 T02390094 58021
03812KAVL AVL20161101155510411/01/16 15:55:31  5-MIN KAVL 012055Z 18008KT 10SM CLR 24/11 A3025 1860 42 3400 190/08 RMK AO2 T02390106
03812KAVL AVL20161101160010411/01/16 16:00:31  5-MIN KAVL 012100Z 19008KT 10SM CLR 24/11 A3025 1860 42 3400 200/08 RMK AO2 T02390106
03812KAVL AVL20161101160510411/01/16 16:05:31  5-MIN KAVL 012105Z 18009KT 10SM CLR 24/11 A3025 1860 44 3400 180/09 RMK AO2 T02390111
03812KAVL AVL20161101161010411/01/16 16:10:31  5-MIN KAVL 012110Z 20007KT 10SM CLR 24/10 A3025 1860 41 3400 200/07 RMK AO2 T02390100
03812KAVL AVL20161101161510411/01/16 16:15:31  5-MIN KAVL 012115Z 20006KT 10SM CLR 23/10 A3025 1860 42 3300 200/06 RMK AO2 T02330100
03812KAVL AVL20161101162010411/01/16 16:20:31  5-MIN KAVL 012120Z 18006KT 10SM CLR 23/11 A3025 1860 44 3300 190/06 RMK AO2 T02330106
03812KAVL AVL20161101162510411/01/16 16:25:31  5-MIN KAVL 012125Z 18008KT 10SM CLR 23/11 A3025 1860 45 3300 190/08 RMK AO2 T02330111
03812KAVL AVL20161101163010411/01/16 16:30:31  5-MIN KAVL 012130Z 19010KT 10SM CLR 23/11 A3026 1860 45 3300 200/10 RMK AO2 T02330111
03812KAVL AVL20161101163510411/01/16 16:35:31  5-MIN KAVL 012135Z 17009KT 10SM CLR 23/11 A3026 1860 47 3200 180/09 RMK AO2 T02280111
03812KAVL AVL20161101164010411/01/16 16:40:31  5-MIN KAVL 012140Z 17009KT 10SM CLR 23/11 A3026 1860 47 3200 180/09 RMK AO2 T02280111
03812KAVL AVL20161101164510411/01/16 16:45:31  5-MIN KAVL 012145Z 18009KT 10SM CLR 23/11 A3026 1850 47 3200 180/09 RMK AO2 T02280111
03812KAVL AVL20161101165011111/01/16 16:50:31  5-MIN KAVL 012150Z 17008KT 10SM CLR 22/11 A3026 1850 49 3200 180/08 RMK AO2 SLP229 T02220111
03812KAVL AVL20161101165510411/01/16 16:55:31  5-MIN KAVL 012155Z 17009KT 10SM CLR 22/12 A3026 1850 51 3200 180/09 RMK AO2 T02220117
03812KAVL AVL20161101170010411/01/16 17:00:31  5-MIN KAVL 012200Z 17008KT 10SM CLR 22/12 A3026 1850 52 3100 170/08 RMK AO2 T02170117
03812KAVL AVL20161101170510411/01/16 17:05:31  5-MIN KAVL 012205Z 17009KT 10SM CLR 22/11 A3026 1850 50 3100 180/09 RMK AO2 T02170111
03812KAVL AVL20161101171010411/01/16 17:10:31  5-MIN KAVL 012210Z 18008KT 10SM CLR 22/12 A3027 1850 52 3100 180/08 RMK AO2 T02170117
03812KAVL AVL20161101171510411/01/16 17:15:31  5-MIN KAVL 012215Z 17007KT 10SM CLR 21/12 A3027 1850 54 3000 180/07 RMK AO2 T02110117
03812KAVL AVL20161101172010411/01/16 17:20:31  5-MIN KAVL 012220Z 17008KT 10SM CLR 21/12 A3027 1850 54 3000 180/08 RMK AO2 T02110117
03812KAVL AVL20161101172510411/01/16 17:25:31  5-MIN KAVL 012225Z 18008KT 10SM CLR 21/11 A3027 1850 52 3000 180/08 RMK AO2 T02110111
03812KAVL AVL20161101173010411/01/16 17:30:31  5-MIN KAVL 012230Z 17006KT 10SM CLR 21/11 A3027 1840 54 3000 180/06 RMK AO2 T02060111
03812KAVL AVL20161101173510411/01/16 17:35:31  5-MIN KAVL 012235Z 17006KT 10SM CLR 21/11 A3028 1840 54 2900 180/06 RMK AO2 T02060111
03812KAVL AVL20161101174010411/01/16 17:40:31  5-MIN KAVL 012240Z 16005KT 10SM CLR 21/11 A3028 1840 54 2900 170/05 RMK AO2 T02060111
03812KAVL AVL20161101174510411/01/16 17:45:31  5-MIN KAVL 012245Z 17005KT 10SM CLR 20/11 A3028 1840 56 2900 170/05 RMK AO2 T02000111
03812KAVL AVL20161101175011111/01/16 17:50:31  5-MIN KAVL 012250Z 16005KT 10SM CLR 20/12 A3028 1840 58 2900 170/05 RMK AO2 SLP236 T02000117
03812KAVL AVL20161101175510411/01/16 17:55:31  5-MIN KAVL 012255Z 17006KT 10SM CLR 19/12 A3028 1830 60 2800 170/06 RMK AO2 T01940117
03812KAVL AVL20161101180010411/01/16 18:00:31  5-MIN KAVL 012300Z 18006KT 10SM CLR 19/12 A3029 1830 60 2800 180/06 RMK AO2 T01940117
03812KAVL AVL20161101180510411/01/16 18:05:31  5-MIN KAVL 012305Z 18007KT 10SM CLR 19/12 A3029 1830 60 2800 180/07 RMK AO2 T01940117
03812KAVL AVL20161101181010411/01/16 18:10:31  5-MIN KAVL 012310Z 16004KT 10SM CLR 19/12 A3029 1830 62 2700 170/04 RMK AO2 T01890117
03812KAVL AVL20161101181510411/01/16 18:15:31  5-MIN KAVL 012315Z 17005KT 10SM CLR 18/12 A3029 1830 65 2700 180/05 RMK AO2 T01830117
03812KAVL AVL20161101182010411/01/16 18:20:31  5-MIN KAVL 012320Z 17005KT 10SM CLR 19/12 A3029 1820 62 2700 170/05 RMK AO2 T01890117
03812KAVL AVL20161101182510411/01/16 18:25:31  5-MIN KAVL 012325Z 15003KT 10SM CLR 19/12 A3030 1820 62 2700 160/03 RMK AO2 T01890117
03812KAVL AVL20161101183010411/01/16 18:30:31  5-MIN KAVL 012330Z 17004KT 10SM CLR 19/12 A3030 1820 62 2700 170/04 RMK AO2 T01890117
03812KAVL AVL20161101183510411/01/16 18:35:31  5-MIN KAVL 012335Z 18005KT 10SM CLR 18/12 A3030 1820 65 2700 180/05 RMK AO2 T01830117
03812KAVL AVL20161101184010411/01/16 18:40:31  5-MIN KAVL 012340Z 16004KT 10SM CLR 18/12 A3030 1820 67 2600 170/04 RMK AO2 T01780117
03812KAVL AVL20161101184510411/01/16 18:45:31  5-MIN KAVL 012345Z 15003KT 10SM CLR 18/12 A3030 1820 65 2700 150/03 RMK AO2 T01830117
03812KAVL AVL20161101185012911/01/16 18:50:31  5-MIN KAVL 012350Z 15004KT 10SM CLR 18/12 A3030 1820 65 2700 150/04 RMK AO2 SLP245 T01830117 10261 20178 55008
03812KAVL AVL20161101185510411/01/16 18:55:31  5-MIN KAVL 012355Z 15003KT 10SM CLR 19/12 A3030 1810 62 2700 150/03 RMK AO2 T01890117
03812KAVL AVL20161101190010411/01/16 19:00:31  5-MIN KAVL 020000Z 14004KT 10SM CLR 18/12 A3030 1810 65 2700 150/04 RMK AO2 T01830117
03812KAVL AVL20161101190510411/01/16 19:05:31  5-MIN KAVL 020005Z 14004KT 10SM CLR 18/12 A3031 1810 65 2700 150/04 RMK AO2 T01830117
03812KAVL AVL20161101191010711/01/16 19:10:31  5-MIN KAVL 020010Z 14004KT 10SM FEW065 18/12 A3031 1810 65 2700 150/04 RMK AO2 T01830117
03812KAVL AVL20161101191510711/01/16 19:15:31  5-MIN KAVL 020015Z 15005KT 10SM SCT065 18/12 A3031 1810 67 2700 150/05 RMK AO2 T01830122
03812KAVL AVL20161101192010711/01/16 19:20:31  5-MIN KAVL 020020Z 14005KT 10SM BKN065 19/12 A3031 1810 65 2700 150/05 RMK AO2 T01890122
03812KAVL AVL20161101192510711/01/16 19:25:31  5-MIN KAVL 020025Z 14005KT 10SM BKN065 19/12 A3031 1810 65 2700 140/05 RMK AO2 T01890122
03812KAVL AVL20161101193010711/01/16 19:30:31  5-MIN KAVL 020030Z 15004KT 10SM SCT065 18/12 A3031 1810 67 2700 160/04 RMK AO2 T01830122
03812KAVL AVL20161101193510711/01/16 19:35:31  5-MIN KAVL 020035Z 16004KT 10SM SCT065 18/12 A3031 1810 69 2600 170/04 RMK AO2 T01780122
03812KAVL AVL20161101194010711/01/16 19:40:31  5-MIN KAVL 020040Z 15003KT 10SM SCT065 17/12 A3031 1810 69 2500 150/03 RMK AO2 T01720117
03812KAVL AVL20161101194510711/01/16 19:45:31  5-MIN KAVL 020045Z 00000KT 10SM FEW065 17/12 A3031 1810 69 2500 000/00 RMK AO2 T01720117
03812KAVL AVL20161101195011111/01/16 19:50:31  5-MIN KAVL 020050Z 16003KT 10SM CLR 17/12 A3031 1810 72 2500 170/03 RMK AO2 SLP250 T01720122
03812KAVL AVL20161101195510411/01/16 19:55:31  5-MIN KAVL 020055Z 16003KT 10SM CLR 17/12 A3031 1810 69 2500 160/03 RMK AO2 T01720117
03812KAVL AVL20161101200010411/01/16 20:00:31  5-MIN KAVL 020100Z 00000KT 10SM CLR 17/12 A3031 1810 72 2500 000/00 RMK AO2 T01720122
03812KAVL AVL20161101200510411/01/16 20:05:31  5-MIN KAVL 020105Z 00000KT 10SM CLR 17/12 A3031 1800 72 2500 000/00 RMK AO2 T01720122
03812KAVL AVL20161101201010411/01/16 20:10:31  5-MIN KAVL 020110Z 14003KT 10SM CLR 17/12 A3032 1800 72 2500 150/03 RMK AO2 T01720122
03812KAVL AVL20161101201510411/01/16 20:15:31  5-MIN KAVL 020115Z 13003KT 10SM CLR 17/12 A3032 1800 72 2500 140/03 RMK AO2 T01720122
03812KAVL AVL20161101202010411/01/16 20:20:31  5-MIN KAVL 020120Z 00000KT 10SM CLR 17/12 A3031 1800 72 2500 000/00 RMK AO2 T01720122
03812KAVL AVL20161101202510411/01/16 20:25:31  5-MIN KAVL 020125Z 00000KT 10SM CLR 17/12 A3031 1810 72 2500 000/00 RMK AO2 T01720122
03812KAVL AVL20161101203010411/01/16 20:30:31  5-MIN KAVL 020130Z 11003KT 10SM CLR 17/12 A3032 1800 72 2500 120/03 RMK AO2 T01720122
03812KAVL AVL20161101203510411/01/16 20:35:31  5-MIN KAVL 020135Z 12003KT 10SM CLR 17/12 A3032 1800 72 2500 120/03 RMK AO2 T01720122
03812KAVL AVL20161101204010411/01/16 20:40:31  5-MIN KAVL 020140Z 13003KT 10SM CLR 17/12 A3032 1800 72 2500 140/03 RMK AO2 T01720122
03812KAVL AVL20161101204510411/01/16 20:45:31  5-MIN KAVL 020145Z 14004KT 10SM CLR 17/12 A3032 1800 72 2500 140/04 RMK AO2 T01720122
03812KAVL AVL20161101205011111/01/16 20:50:31  5-MIN KAVL 020150Z 13004KT 10SM CLR 17/12 A3033 1800 75 2400 130/04 RMK AO2 SLP254 T01670122
03812KAVL AVL20161101205510411/01/16 20:55:31  5-MIN KAVL 020155Z 12004KT 10SM CLR 17/12 A3033 1790 75 2400 130/04 RMK AO2 T01670122
03812KAVL AVL20161101210010411/01/16 21:00:31  5-MIN KAVL 020200Z 12004KT 10SM CLR 17/12 A3033 1790 75 2400 130/04 RMK AO2 T01670122
03812KAVL AVL20161101210510411/01/16 21:05:31  5-MIN KAVL 020205Z 13004KT 10SM CLR 17/12 A3033 1790 75 2400 140/04 RMK AO2 T01670122
03812KAVL AVL20161101211010411/01/16 21:10:31  5-MIN KAVL 020210Z 13004KT 10SM CLR 17/12 A3033 1790 75 2400 140/04 RMK AO2 T01670122
03812KAVL AVL20161101211510411/01/16 21:15:31  5-MIN KAVL 020215Z 14004KT 10SM CLR 17/12 A3033 1790 75 2400 150/04 RMK AO2 T01670122
03812KAVL AVL20161101212010411/01/16 21:20:31  5-MIN KAVL 020220Z 16004KT 10SM CLR 16/12 A3033 1790 77 2400 160/04 RMK AO2 T01610122
03812KAVL AVL20161101212510411/01/16 21:25:31  5-MIN KAVL 020225Z 14004KT 10SM CLR 16/12 A3033 1790 80 2300 150/04 RMK AO2 T01560122
03812KAVL AVL20161101213010411/01/16 21:30:31  5-MIN KAVL 020230Z 15004KT 10SM CLR 16/12 A3033 1790 77 2400 160/04 RMK AO2 T01610122
03812KAVL AVL20161101213510411/01/16 21:35:31  5-MIN KAVL 020235Z 15004KT 10SM CLR 16/12 A3033 1790 77 2400 150/04 RMK AO2 T01610122
03812KAVL AVL20161101214010411/01/16 21:40:31  5-MIN KAVL 020240Z 14004KT 10SM CLR 17/12 A3033 1790 75 2400 150/04 RMK AO2 T01670122
03812KAVL AVL20161101214510411/01/16 21:45:31  5-MIN KAVL 020245Z 17005KT 10SM CLR 16/13 A3033 1790 80 2400 170/05 RMK AO2 T01610128
03812KAVL AVL20161101215011711/01/16 21:50:31  5-MIN KAVL 020250Z 16006KT 10SM CLR 16/12 A3033 1790 80 2300 160/06 RMK AO2 SLP256 T01560122 53017
03812KAVL AVL20161101215510411/01/16 21:55:31  5-MIN KAVL 020255Z 15005KT 10SM CLR 16/12 A3033 1790 77 2400 150/05 RMK AO2 T01610122
03812KAVL AVL20161101220010411/01/16 22:00:31  5-MIN KAVL 020300Z 17003KT 10SM CLR 16/12 A3034 1790 80 2300 180/03 RMK AO2 T01560122
03812KAVL AVL20161101220510911/01/16 22:05:31  5-MIN KAVL 020305Z AUTO 19004KT 10SM CLR 15/12 A3034 1790 83 2200 200/04 RMK AO2 T01500122
03812KAVL AVL20161101221010911/01/16 22:10:31  5-MIN KAVL 020310Z AUTO 19004KT 10SM CLR 14/12 A3034 1780 86 2200 200/04 RMK AO2 T01440122
03812KAVL AVL20161101221510911/01/16 22:15:31  5-MIN KAVL 020315Z AUTO 20003KT 10SM CLR 14/12 A3034 1780 86 2200 200/03 RMK AO2 T01440122
03812KAVL AVL20161101222010911/01/16 22:20:31  5-MIN KAVL 020320Z AUTO 20003KT 10SM CLR 14/12 A3034 1780 86 2200 210/03 RMK AO2 T01440122
03812KAVL AVL20161101222510911/01/16 22:25:31  5-MIN KAVL 020325Z AUTO 18004KT 10SM CLR 14/12 A3034 1780 86 2200 190/04 RMK AO2 T01440122
03812KAVL AVL20161101223010911/01/16 22:30:31  5-MIN KAVL 020330Z AUTO 17003KT 10SM CLR 14/12 A3035 1780 90 2100 180/03 RMK AO2 T01390122
03812KAVL AVL20161101223510911/01/16 22:35:31  5-MIN KAVL 020335Z AUTO 19004KT 10SM CLR 14/12 A3035 1780 86 2200 190/04 RMK AO2 T01440122
03812KAVL AVL20161101224010911/01/16 22:40:31  5-MIN KAVL 020340Z AUTO 19004KT 10SM CLR 14/12 A3035 1780 86 2200 190/04 RMK AO2 T01440122
03812KAVL AVL20161101224510811/01/16 22:45:31  5-MIN KAVL 020345Z AUTO 17003KT 9SM CLR 14/12 A3034 1780 86 2200 180/03 RMK AO2 T01440122
03812KAVL AVL20161101225011511/01/16 22:50:31  5-MIN KAVL 020350Z AUTO 17003KT 9SM CLR 14/12 A3034 1780 86 2200 170/03 RMK AO2 SLP260 T01440122
03812KAVL AVL20161101225510811/01/16 22:55:31  5-MIN KAVL 020355Z AUTO 17003KT 9SM CLR 14/12 A3034 1780 90 2100 170/03 RMK AO2 T01390122
03812KAVL AVL20161101230010811/01/16 23:00:31  5-MIN KAVL 020400Z AUTO 17003KT 8SM CLR 14/12 A3035 1780 90 2100 180/03 RMK AO2 T01390122
03812KAVL AVL20161101230510811/01/16 23:05:31  5-MIN KAVL 020405Z AUTO 18004KT 8SM CLR 14/12 A3035 1780 90 2100 180/04 RMK AO2 T01390122
03812KAVL AVL20161101231010811/01/16 23:10:31  5-MIN KAVL 020410Z AUTO 00000KT 8SM CLR 14/12 A3035 1770 90 2100 000/00 RMK AO2 T01390122
03812KAVL AVL20161101231510811/01/16 23:15:31  5-MIN KAVL 020415Z AUTO 15003KT 8SM CLR 14/12 A3035 1780 86 2200 160/03 RMK AO2 T01440122
03812KAVL AVL20161101232010811/01/16 23:20:31  5-MIN KAVL 020420Z AUTO 16003KT 8SM CLR 14/13 A3035 1770 90 2200 170/03 RMK AO2 T01440128
03812KAVL AVL20161101232510811/01/16 23:25:31  5-MIN KAVL 020425Z AUTO 16003KT 8SM CLR 14/12 A3035 1780 90 2100 170/03 RMK AO2 T01390122
03812KAVL AVL20161101233010811/01/16 23:30:31  5-MIN KAVL 020430Z AUTO 15003KT 8SM CLR 14/12 A3035 1770 90 2100 160/03 RMK AO2 T01390122
03812KAVL AVL20161101233510811/01/16 23:35:31  5-MIN KAVL 020435Z AUTO 00000KT 8SM CLR 14/12 A3035 1770 90 2100 000/00 RMK AO2 T01390122
03812KAVL AVL20161101234011111/01/16 23:40:31  5-MIN KAVL 020440Z AUTO 00000KT 7SM FEW007 14/12 A3035 1770 86 2200 000/00 RMK AO2 T01440122
03812KAVL AVL20161101234511111/01/16 23:45:31  5-MIN KAVL 020445Z AUTO 14004KT 7SM SCT007 14/13 A3035 1770 90 2200 150/04 RMK AO2 T01440128
03812KAVL AVL20161101235012811/01/16 23:50:31  5-MIN KAVL 020450Z AUTO 13003KT 7SM SCT009 14/13 A3035 1770 90 2200 140/03 RMK AO2 SLP257 T01440128 402610128
03812KAVL AVL20161101235511411/01/16 23:55:31  5-MIN KAVL 020455Z AUTO 13003KT 6SM BR FEW009 14/13 A3035 1770 90 2200 140/03 RMK AO2 T01440128
03812KAVL AVL20161102000011411/02/16 00:00:31  5-MIN KAVL 020500Z AUTO 13003KT 6SM BR FEW009 14/13 A3035 1770 93 2100 140/03 RMK AO2 T01390128
03812KAVL AVL20161102000511411/02/16 00:05:31  5-MIN KAVL 020505Z AUTO 12003KT 6SM BR FEW009 14/13 A3035 1770 90 2200 130/03 RMK AO2 T01440128
03812KAVL AVL20161102001011411/02/16 00:10:31  5-MIN KAVL 020510Z AUTO 14003KT 6SM BR FEW008 14/13 A3035 1770 90 2200 150/03 RMK AO2 T01440128
03812KAVL AVL20161102001511311/02/16 00:15:31  5-MIN KAVL 020515Z AUTO 14003KT 6SM HZ CLR 16/13 A3035 1770 80 2400 140/03 RMK AO2 T01610128 $
03812KAVL AVL20161102002011311/02/16 00:20:31  5-MIN KAVL 020520Z AUTO 14003KT 6SM BR CLR 14/12 A3035 1770 90 2100 150/03 RMK AO2 T01390122 $
03812KAVL AVL20161102002511311/02/16 00:25:31  5-MIN KAVL 020525Z AUTO 16003KT 5SM BR CLR 14/12 A3035 1770 90 2100 170/03 RMK AO2 T01390122 $
03812KAVL AVL20161102003011311/02/16 00:30:31  5-MIN KAVL 020530Z AUTO 15004KT 5SM BR CLR 13/12 A3035 1770 93 2000 160/04 RMK AO2 T01330122 $
03812KAVL AVL20161102003511611/02/16 00:35:31  5-MIN KAVL 020535Z AUTO 15003KT 4SM BR SCT013 14/12 A3035 1770 90 2100 160/03 RMK AO2 T01390122 $
03812KAVL AVL20161102004011611/02/16 00:40:31  5-MIN KAVL 020540Z AUTO 14004KT 5SM BR BKN013 14/13 A3035 1770 93 2100 150/04 RMK AO2 T01390128 $
03812KAVL AVL20161102004511611/02/16 00:45:31  5-MIN KAVL 020545Z AUTO 16004KT 5SM BR BKN012 14/13 A3036 1770 93 2100 160/04 RMK AO2 T01390128 $
03812KAVL AVL20161102005014111/02/16 00:50:31  5-MIN KAVL 020550Z AUTO 15004KT 6SM BR BKN010 14/12 A3036 1770 90 2100 160/04 RMK AO2 SLP259 T01390122 10189 20133 51009 $
03812KAVL AVL20161102005511311/02/16 00:55:31  5-MIN KAVL 020555Z AUTO 14003KT 7SM OVC010 14/13 A3035 1770 93 2100 140/03 RMK AO2 T01390128 $
03812KAVL AVL20161102010011311/02/16 01:00:31  5-MIN KAVL 020600Z AUTO 15003KT 7SM OVC010 14/13 A3035 1770 93 2100 160/03 RMK AO2 T01390128 $
03812KAVL AVL20161102010511311/02/16 01:05:31  5-MIN KAVL 020605Z AUTO 16005KT 8SM OVC010 14/13 A3035 1770 90 2200 170/05 RMK AO2 T01440128 $
03812KAVL AVL20161102011011311/02/16 01:10:31  5-MIN KAVL 020610Z AUTO 16006KT 8SM OVC010 14/13 A3035 1770 90 2200 170/06 RMK AO2 T01440128 $
03812KAVL AVL20161102011511311/02/16 01:15:31  5-MIN KAVL 020615Z AUTO VRB05KT 9SM OVC010 15/13 A3035 1770 86 2200 VRB/05 RMK AO2 T01500128 $
03812KAVL AVL20161102012011311/02/16 01:20:31  5-MIN KAVL 020620Z AUTO 17005KT 9SM OVC009 15/13 A3035 1770 86 2200 180/05 RMK AO2 T01500128 $
03812KAVL AVL20161102012511311/02/16 01:25:31  5-MIN KAVL 020625Z AUTO 14004KT 8SM OVC009 14/13 A3035 1770 90 2200 150/04 RMK AO2 T01440128 $
03812KAVL AVL20161102013011311/02/16 01:30:31  5-MIN KAVL 020630Z AUTO 15004KT 7SM OVC009 15/13 A3036 1770 86 2200 160/04 RMK AO2 T01500128 $
03812KAVL AVL20161102013511311/02/16 01:35:31  5-MIN KAVL 020635Z AUTO 14004KT 8SM OVC009 15/13 A3036 1770 86 2200 150/04 RMK AO2 T01500128 $
03812KAVL AVL20161102014011311/02/16 01:40:31  5-MIN KAVL 020640Z AUTO 14004KT 8SM OVC009 15/13 A3036 1770 90 2200 140/04 RMK AO2 T01500133 $
03812KAVL AVL20161102014511311/02/16 01:45:31  5-MIN KAVL 020645Z AUTO 15006KT 8SM OVC009 15/13 A3036 1770 90 2200 150/06 RMK AO2 T01500133 $
03812KAVL AVL20161102015010311/02/16 01:50:31  5-MIN KAVL 020650Z AUTO 15005KT 8SM OVC010 16/13 A3036 1770 86 2300 150/05 RMK AO2 $
03812KAVL AVL20161102015511311/02/16 01:55:31  5-MIN KAVL 020655Z AUTO 14005KT 9SM OVC010 16/13 A3036 1770 86 2300 150/05 RMK AO2 T01560133 $
03812KAVL AVL20161102020011311/02/16 02:00:31  5-MIN KAVL 020700Z AUTO 15004KT 9SM OVC010 15/13 A3036 1770 90 2200 150/04 RMK AO2 T01500133 $
03812KAVL AVL20161102020511311/02/16 02:05:31  5-MIN KAVL 020705Z AUTO 16005KT 9SM OVC011 15/13 A3036 1770 86 2200 160/05 RMK AO2 T01500128 $
03812KAVL AVL20161102021011311/02/16 02:10:31  5-MIN KAVL 020710Z AUTO 16004KT 9SM OVC011 15/13 A3036 1760 86 2200 170/04 RMK AO2 T01500128 $
03812KAVL AVL20161102021511311/02/16 02:15:31  5-MIN KAVL 020715Z AUTO 16004KT 9SM OVC011 16/13 A3036 1770 83 2300 160/04 RMK AO2 T01560128 $
03812KAVL AVL20161102022011311/02/16 02:20:31  5-MIN KAVL 020720Z AUTO 16004KT 9SM OVC010 16/13 A3036 1770 83 2300 170/04 RMK AO2 T01560128 $
03812KAVL AVL20161102022511411/02/16 02:25:31  5-MIN KAVL 020725Z AUTO 16005KT 10SM OVC010 16/13 A3036 1770 83 2300 170/05 RMK AO2 T01560128 $
03812KAVL AVL20161102023011411/02/16 02:30:31  5-MIN KAVL 020730Z AUTO 14005KT 10SM OVC009 16/13 A3036 1770 83 2300 150/05 RMK AO2 T01560128 $
03812KAVL AVL20161102023511411/02/16 02:35:31  5-MIN KAVL 020735Z AUTO 16007KT 10SM OVC009 16/13 A3036 1760 83 2300 170/07 RMK AO2 T01560128 $
03812KAVL AVL20161102024011411/02/16 02:40:31  5-MIN KAVL 020740Z AUTO 16005KT 10SM OVC009 16/13 A3036 1760 83 2300 160/05 RMK AO2 T01560128 $
03812KAVL AVL20161102024511411/02/16 02:45:31  5-MIN KAVL 020745Z AUTO 17006KT 10SM OVC009 16/13 A3036 1760 83 2300 170/06 RMK AO2 T01560128 $
03812KAVL AVL20161102025012111/02/16 02:50:31  5-MIN KAVL 020750Z AUTO 15004KT 10SM OVC008 16/13 A3036 1760 83 2300 160/04 RMK AO2 SLP259 T01560128 $
03812KAVL AVL20161102025511411/02/16 02:55:31  5-MIN KAVL 020755Z AUTO 16004KT 10SM OVC008 15/13 A3036 1770 86 2200 160/04 RMK AO2 T01500128 $
03812KAVL AVL20161102030011411/02/16 03:00:31  5-MIN KAVL 020800Z AUTO 15005KT 10SM OVC008 15/13 A3036 1770 86 2200 150/05 RMK AO2 T01500128 $
03812KAVL AVL20161102030511311/02/16 03:05:31  5-MIN KAVL 020805Z AUTO 15004KT 9SM BKN008 15/13 A3035 1770 86 2200 160/04 RMK AO2 T01500128 $
03812KAVL AVL20161102031011311/02/16 03:10:31  5-MIN KAVL 020810Z AUTO 13004KT 9SM BKN008 15/13 A3035 1770 86 2200 140/04 RMK AO2 T01500128 $
03812KAVL AVL20161102031511311/02/16 03:15:31  5-MIN KAVL 020815Z AUTO 00000KT 9SM OVC008 15/13 A3035 1770 86 2200 000/00 RMK AO2 T01500128 $
03812KAVL AVL20161102032011311/02/16 03:20:31  5-MIN KAVL 020820Z AUTO 14003KT 9SM OVC008 15/13 A3035 1770 86 2200 150/03 RMK AO2 T01500128 $
03812KAVL AVL20161102032511311/02/16 03:25:31  5-MIN KAVL 020825Z AUTO 00000KT 9SM OVC008 14/13 A3035 1770 90 2200 000/00 RMK AO2 T01440128 $
03812KAVL AVL20161102033011311/02/16 03:30:31  5-MIN KAVL 020830Z AUTO 00000KT 9SM OVC007 14/12 A3035 1770 86 2200 000/00 RMK AO2 T01440122 $
03812KAVL AVL20161102033511311/02/16 03:35:31  5-MIN KAVL 020835Z AUTO 00000KT 8SM BKN007 14/12 A3035 1770 90 2100 000/00 RMK AO2 T01390122 $
03812KAVL AVL20161102034011311/02/16 03:40:31  5-MIN KAVL 020840Z AUTO 00000KT 8SM BKN007 14/12 A3035 1770 86 2100 000/00 RMK AO2 T01390117 $
03812KAVL AVL20161102034511311/02/16 03:45:31  5-MIN KAVL 020845Z AUTO 33005KT 7SM BKN007 13/11 A3036 1770 89 2000 340/05 RMK AO2 T01280111 $
03812KAVL AVL20161102035012611/02/16 03:50:31  5-MIN KAVL 020850Z AUTO 33005KT 7SM BKN007 13/11 A3036 1770 89 2000 340/05 RMK AO2 SLP261 T01280111 51006 $
03812KAVL AVL20161102035511311/02/16 03:55:31  5-MIN KAVL 020855Z AUTO 33004KT 7SM BKN007 13/11 A3036 1770 89 2000 340/04 RMK AO2 T01280111 $
03812KAVL AVL20161102040011311/02/16 04:00:31  5-MIN KAVL 020900Z AUTO 32004KT 7SM BKN007 13/11 A3036 1760 89 2000 330/04 RMK AO2 T01280111 $
03812KAVL AVL20161102040511311/02/16 04:05:31  5-MIN KAVL 020905Z AUTO 32004KT 7SM OVC007 13/11 A3036 1760 89 1900 330/04 RMK AO2 T01280111 $
03812KAVL AVL20161102041011311/02/16 04:10:31  5-MIN KAVL 020910Z AUTO 32003KT 7SM OVC007 13/11 A3036 1760 89 1900 330/03 RMK AO2 T01280111 $
03812KAVL AVL20161102041511311/02/16 04:15:31  5-MIN KAVL 020915Z AUTO 33003KT 7SM OVC007 13/12 A3036 1760 93 2000 340/03 RMK AO2 T01280117 $
03812KAVL AVL20161102042011311/02/16 04:20:31  5-MIN KAVL 020920Z AUTO 32003KT 8SM OVC007 13/12 A3036 1760 89 2000 330/03 RMK AO2 T01330117 $
03812KAVL AVL20161102042511311/02/16 04:25:31  5-MIN KAVL 020925Z AUTO 31004KT 8SM OVC007 13/11 A3036 1760 86 2000 320/04 RMK AO2 T01330111 $
03812KAVL AVL20161102043011311/02/16 04:30:31  5-MIN KAVL 020930Z AUTO 31004KT 8SM OVC007 13/11 A3037 1760 89 1900 320/04 RMK AO2 T01280111 $
03812KAVL AVL20161102043511311/02/16 04:35:31  5-MIN KAVL 020935Z AUTO 33004KT 8SM OVC007 13/11 A3037 1760 89 1900 340/04 RMK AO2 T01280111 $
03812KAVL AVL20161102044011311/02/16 04:40:31  5-MIN KAVL 020940Z AUTO 33004KT 8SM OVC007 13/11 A3037 1760 89 1900 340/04 RMK AO2 T01280111 $
03812KAVL AVL20161102044511311/02/16 04:45:31  5-MIN KAVL 020945Z AUTO 34003KT 8SM OVC007 13/11 A3037 1760 89 1900 340/03 RMK AO2 T01280111 $
03812KAVL AVL20161102045012011/02/16 04:50:31  5-MIN KAVL 020950Z AUTO 33003KT 8SM OVC007 13/11 A3037 1760 89 1900 340/03 RMK AO2 SLP266 T01280111 $
03812KAVL AVL20161102045511311/02/16 04:55:31  5-MIN KAVL 020955Z AUTO 32004KT 8SM OVC007 13/11 A3037 1750 89 1900 330/04 RMK AO2 T01280111 $
03812KAVL AVL20161102050011311/02/16 05:00:31  5-MIN KAVL 021000Z AUTO 00000KT 8SM OVC007 13/11 A3037 1750 89 1900 000/00 RMK AO2 T01280111 $
03812KAVL AVL20161102050511311/02/16 05:05:31  5-MIN KAVL 021005Z AUTO 00000KT 9SM OVC007 12/11 A3038 1750 89 1900 000/00 RMK AO2 T01220106 $
03812KAVL AVL20161102051011311/02/16 05:10:31  5-MIN KAVL 021010Z AUTO 30003KT 9SM OVC007 12/11 A3038 1750 89 1900 310/03 RMK AO2 T01220106 $
03812KAVL AVL20161102051510811/02/16 05:15:31  5-MIN KAVL 021015Z 00000KT 9SM BKN007 12/10 A3038 1750 89 1800 000/00 RMK AO2 T01170100 $
03812KAVL AVL20161102052010811/02/16 05:20:31  5-MIN KAVL 021020Z 00000KT 9SM BKN007 12/10 A3038 1750 89 1800 000/00 RMK AO2 T01170100 $
03812KAVL AVL20161102052510811/02/16 05:25:31  5-MIN KAVL 021025Z 00000KT 9SM BKN007 12/11 A3038 1750 89 1900 000/00 RMK AO2 T01220106 $
03812KAVL AVL20161102053010811/02/16 05:30:31  5-MIN KAVL 021030Z 00000KT 9SM BKN007 12/10 A3038 1750 89 1800 000/00 RMK AO2 T01170100 $
03812KAVL AVL20161102053510811/02/16 05:35:31  5-MIN KAVL 021035Z 00000KT 8SM BKN007 11/10 A3038 1750 93 1700 000/00 RMK AO2 T01110100 $
03812KAVL AVL20161102054010811/02/16 05:40:31  5-MIN KAVL 021040Z 00000KT 8SM SCT007 12/09 A3038 1750 86 1800 000/00 RMK AO2 T01170094 $
03812KAVL AVL20161102054510811/02/16 05:45:31  5-MIN KAVL 021045Z 26003KT 8SM BKN008 12/09 A3038 1740 86 1800 260/03 RMK AO2 T01170094 $
03812KAVL AVL20161102055011511/02/16 05:50:31  5-MIN KAVL 021050Z 00000KT 8SM BKN008 11/09 A3038 1740 89 1700 000/00 RMK AO2 SLP275 T01110094 $
03812KAVL AVL20161102055510811/02/16 05:55:31  5-MIN KAVL 021055Z 00000KT 7SM BKN007 11/09 A3038 1740 89 1700 000/00 RMK AO2 T01110094 $
03812KAVL AVL20161102060010811/02/16 06:00:31  5-MIN KAVL 021100Z 00000KT 7SM BKN007 11/09 A3038 1740 89 1700 000/00 RMK AO2 T01110094 $
03812KAVL AVL20161102060510811/02/16 06:05:31  5-MIN KAVL 021105Z 00000KT 8SM BKN007 11/10 A3038 1740 93 1700 000/00 RMK AO2 T01110100 $
03812KAVL AVL20161102061010811/02/16 06:10:31  5-MIN KAVL 021110Z 33003KT 8SM OVC007 12/10 A3038 1740 89 1800 330/03 RMK AO2 T01170100 $
03812KAVL AVL20161102061510811/02/16 06:15:31  5-MIN KAVL 021115Z 00000KT 8SM OVC007 12/11 A3038 1740 93 1800 000/00 RMK AO2 T01170106 $
03812KAVL AVL20161102062010811/02/16 06:20:31  5-MIN KAVL 021120Z 33003KT 8SM OVC007 12/11 A3038 1740 89 1900 340/03 RMK AO2 T01220106 $
03812KAVL AVL20161102062510811/02/16 06:25:31  5-MIN KAVL 021125Z 00000KT 8SM OVC007 12/11 A3038 1740 89 1900 000/00 RMK AO2 T01220106 $
03812KAVL AVL20161102063010811/02/16 06:30:31  5-MIN KAVL 021130Z 00000KT 8SM OVC006 12/11 A3038 1740 89 1900 000/00 RMK AO2 T01220106 $
03812KAVL AVL20161102063510811/02/16 06:35:31  5-MIN KAVL 021135Z 00000KT 8SM OVC006 12/11 A3038 1740 89 1900 000/00 RMK AO2 T01220106 $
03812KAVL AVL20161102064010811/02/16 06:40:31  5-MIN KAVL 021140Z 00000KT 8SM OVC006 12/10 A3039 1740 89 1800 000/00 RMK AO2 T01170100 $
03812KAVL AVL20161102064510811/02/16 06:45:31  5-MIN KAVL 021145Z 19003KT 8SM OVC006 12/10 A3039 1740 89 1800 200/03 RMK AO2 T01170100 $
03812KAVL AVL20161102065013311/02/16 06:50:31  5-MIN KAVL 021150Z 00000KT 7SM OVC006 11/09 A3039 1740 89 1700 000/00 RMK AO2 SLP278 T01110094 10156 20111 52000 $
03812KAVL AVL20161102065511111/02/16 06:55:31  5-MIN KAVL 021155Z 00000KT 6SM BR OVC006 11/09 A3039 1730 89 1700 000/00 RMK AO2 T01110094 $
03812KAVL AVL20161102070011111/02/16 07:00:31  5-MIN KAVL 021200Z 18003KT 6SM BR OVC005 11/10 A3040 1730 93 1700 180/03 RMK AO2 T01110100 $
03812KAVL AVL20161102070511111/02/16 07:05:31  5-MIN KAVL 021205Z 00000KT 5SM BR OVC005 11/09 A3040 1730 89 1700 000/00 RMK AO2 T01110094 $
03812KAVL AVL20161102071012111/02/16 07:10:31  5-MIN KAVL 021210Z 00000KT 3SM BR OVC003 11/10 A3040 1730 93 1700 000/00 RMK AO2 SFC VIS 5 T01110100 $
03812KAVL AVL20161102071512111/02/16 07:15:31  5-MIN KAVL 021215Z 00000KT 3SM BR OVC003 12/10 A3040 1730 89 1800 000/00 RMK AO2 SFC VIS 6 T01170100 $
03812KAVL AVL20161102072012111/02/16 07:20:31  5-MIN KAVL 021220Z 00000KT 3SM BR OVC003 12/10 A3040 1730 89 1800 000/00 RMK AO2 SFC VIS 6 T01170100 $
03812KAVL AVL20161102072511911/02/16 07:25:31  5-MIN KAVL 021225Z 00000KT 3SM BR OVC003 12/10 A3040 1730 89 1800 000/00 RMK AO2 SFC VIS 6 T01170100
03812KAVL AVL20161102073011911/02/16 07:30:31  5-MIN KAVL 021230Z 00000KT 3SM BR OVC003 12/10 A3040 1720 89 1800 000/00 RMK AO2 SFC VIS 6 T01170100
03812KAVL AVL20161102073511911/02/16 07:35:31  5-MIN KAVL 021235Z 00000KT 3SM BR OVC003 12/10 A3040 1720 89 1800 000/00 RMK AO2 SFC VIS 6 T01170100
03812KAVL AVL20161102074011911/02/16 07:40:31  5-MIN KAVL 021240Z 00000KT 3SM BR OVC003 12/10 A3041 1720 86 1800 000/00 RMK AO2 SFC VIS 6 T01220100
03812KAVL AVL20161102074511911/02/16 07:45:31  5-MIN KAVL 021245Z 00000KT 3SM BR OVC003 12/11 A3041 1720 89 1800 000/00 RMK AO2 SFC VIS 6 T01220106
03812KAVL AVL20161102075012611/02/16 07:50:31  5-MIN KAVL 021250Z 00000KT 3SM BR OVC004 12/11 A3041 1720 89 1800 000/00 RMK AO2 SFC VIS 6 SLP285 T01220106
03812KAVL AVL20161102075511911/02/16 07:55:31  5-MIN KAVL 021255Z 00000KT 3SM BR OVC004 12/11 A3041 1720 89 1800 000/00 RMK AO2 SFC VIS 5 T01220106
03812KAVL AVL20161102080011911/02/16 08:00:31  5-MIN KAVL 021300Z 20003KT 3SM BR OVC003 12/11 A3041 1720 89 1800 210/03 RMK AO2 SFC VIS 5 T01220106
03812KAVL AVL20161102080511911/02/16 08:05:31  5-MIN KAVL 021305Z 20003KT 3SM BR OVC003 12/11 A3041 1720 89 1800 210/03 RMK AO2 SFC VIS 5 T01220106
03812KAVL AVL20161102081011911/02/16 08:10:31  5-MIN KAVL 021310Z 00000KT 3SM BR OVC003 12/11 A3041 1710 89 1800 000/00 RMK AO2 SFC VIS 5 T01220106
03812KAVL AVL20161102081511911/02/16 08:15:31  5-MIN KAVL 021315Z 00000KT 3SM BR OVC003 13/11 A3042 1710 86 1900 000/00 RMK AO2 SFC VIS 5 T01280106
03812KAVL AVL20161102082011911/02/16 08:20:31  5-MIN KAVL 021320Z 00000KT 3SM BR OVC003 13/11 A3042 1710 89 1900 000/00 RMK AO2 SFC VIS 4 T01280111
03812KAVL AVL20161102082512311/02/16 08:25:31  5-MIN KAVL 021325Z 00000KT 2 1/2SM BR OVC003 13/11 A3042 1710 89 1900 000/00 RMK AO2 TWR VIS 3 T01280111
03812KAVL AVL20161102083012311/02/16 08:30:31  5-MIN KAVL 021330Z 00000KT 1 1/2SM BR OVC002 13/12 A3042 1710 93 1900 000/00 RMK AO2 TWR VIS 3 T01280117
03812KAVL AVL20161102083512311/02/16 08:35:31  5-MIN KAVL 021335Z 00000KT 1 1/4SM BR OVC002 13/12 A3042 1710 93 1900 000/00 RMK AO2 TWR VIS 3 T01280117
03812KAVL AVL20161102084012511/02/16 08:40:31  5-MIN KAVL 021340Z 00000KT 1SM BR OVC002 13/12 A3042 1710 93 1900 000/00 RMK AO2 TWR VIS 3 T01280117 RVRNO
03812KAVL AVL20161102084512511/02/16 08:45:31  5-MIN KAVL 021345Z 00000KT 1SM BR OVC002 13/12 A3042 1700 93 1900 000/00 RMK AO2 TWR VIS 3 T01280117 RVRNO
03812KAVL AVL20161102085013011/02/16 08:50:31  5-MIN KAVL 021350Z 00000KT 1 1/4SM BR OVC002 13/12 A3043 1700 89 1900 000/00 RMK AO2 TWR VIS 3 SLP291 T01330117
03812KAVL AVL20161102085512311/02/16 08:55:31  5-MIN KAVL 021355Z 00000KT 1 1/4SM BR OVC002 13/12 A3043 1700 93 1900 000/00 RMK AO2 TWR VIS 3 T01330122
03812KAVL AVL20161102090011911/02/16 09:00:31  5-MIN KAVL 021400Z 00000KT 2SM BR OVC002 14/12 A3043 1700 90 2000 000/00 RMK AO2 TWR VIS 3 T01390122
03812KAVL AVL20161102090512311/02/16 09:05:31  5-MIN KAVL 021405Z 31004KT 2 1/2SM BR OVC002 14/12 A3043 1700 90 2000 320/04 RMK AO2 TWR VIS 3 T01390122
03812KAVL AVL20161102091011911/02/16 09:10:31  5-MIN KAVL 021410Z 33003KT 2SM BR OVC002 13/12 A3043 1700 93 1900 330/03 RMK AO2 TWR VIS 3 T01330122
03812KAVL AVL20161102091512311/02/16 09:15:31  5-MIN KAVL 021415Z 00000KT 2 1/2SM BR OVC002 14/12 A3043 1700 90 2000 000/00 RMK AO2 TWR VIS 3 T01390122
03812KAVL AVL20161102092011911/02/16 09:20:31  5-MIN KAVL 021420Z 31003KT 3SM BR OVC002 14/12 A3043 1700 90 2000 310/03 RMK AO2 SFC VIS 3 T01390122
03812KAVL AVL20161102092511911/02/16 09:25:31  5-MIN KAVL 021425Z 32004KT 3SM BR OVC002 14/12 A3043 1700 86 2100 320/04 RMK AO2 SFC VIS 4 T01440122
03812KAVL AVL20161102093011911/02/16 09:30:31  5-MIN KAVL 021430Z VRB03KT 3SM BR OVC002 14/12 A3043 1700 86 2100 VRB/03 RMK AO2 SFC VIS 4 T01440122
03812KAVL AVL20161102093511911/02/16 09:35:31  5-MIN KAVL 021435Z VRB04KT 3SM BR OVC002 14/12 A3043 1700 86 2100 VRB/04 RMK AO2 SFC VIS 5 T01440122
03812KAVL AVL20161102094011911/02/16 09:40:31  5-MIN KAVL 021440Z 29003KT 3SM HZ BKN003 15/12 A3043 1700 83 2100 290/03 RMK AO2 SFC VIS 6 T01500122
03812KAVL AVL20161102094511611/02/16 09:45:31  5-MIN KAVL 021445Z 30003KT 3SM BKN003 16/12 A3043 1700 80 2200 300/03 RMK AO2 SFC VIS 7 T01560122
03812KAVL AVL20161102095010611/02/16 09:50:31  5-MIN KAVL 021450Z 33003KT 3SM SCT003 16/12 A3043 1700 80 2200 330/03 RMK AO2 SFC VIS 7
03812KAVL AVL20161102095511611/02/16 09:55:31  5-MIN KAVL 021455Z 30004KT 3SM FEW003 16/12 A3043 1700 77 2300 310/04 RMK AO2 SFC VIS 7 T01610122
03812KAVL AVL20161102100011611/02/16 10:00:31  5-MIN KAVL 021500Z 31003KT 3SM FEW004 16/12 A3043 1700 77 2300 310/03 RMK AO2 SFC VIS 8 T01610122
03812KAVL AVL20161102100511311/02/16 10:05:31  5-MIN KAVL 021505Z 31004KT 3SM CLR 17/12 A3043 1700 75 2300 310/04 RMK AO2 SFC VIS 9 T01670122
03812KAVL AVL20161102101011411/02/16 10:10:31  5-MIN KAVL 021510Z 31003KT 3SM CLR 17/12 A3043 1700 69 2400 310/03 RMK AO2 SFC VIS 10 T01720117
03812KAVL AVL20161102101511411/02/16 10:15:31  5-MIN KAVL 021515Z 30003KT 3SM CLR 18/12 A3042 1700 67 2500 300/03 RMK AO2 SFC VIS 10 T01780117
03812KAVL AVL20161102102011411/02/16 10:20:31  5-MIN KAVL 021520Z 32004KT 3SM CLR 18/12 A3042 1710 65 2500 330/04 RMK AO2 SFC VIS 10 T01830117
03812KAVL AVL20161102102511411/02/16 10:25:31  5-MIN KAVL 021525Z 30004KT 3SM CLR 18/12 A3042 1710 65 2500 310/04 RMK AO2 SFC VIS 10 T01830117
03812KAVL AVL20161102103011411/02/16 10:30:31  5-MIN KAVL 021530Z 00000KT 3SM CLR 18/11 A3042 1710 62 2500 000/00 RMK AO2 SFC VIS 10 T01830111
03812KAVL AVL20161102103511411/02/16 10:35:31  5-MIN KAVL 021535Z 00000KT 3SM CLR 19/11 A3042 1710 60 2600 000/00 RMK AO2 SFC VIS 10 T01890111
03812KAVL AVL20161102104011411/02/16 10:40:31  5-MIN KAVL 021540Z 30003KT 3SM CLR 19/11 A3041 1710 58 2600 310/03 RMK AO2 SFC VIS 10 T01890106
03812KAVL AVL20161102104511411/02/16 10:45:31  5-MIN KAVL 021545Z 00000KT 3SM CLR 19/11 A3042 1710 56 2700 000/00 RMK AO2 SFC VIS 10 T01940106
03812KAVL AVL20161102105012111/02/16 10:50:31  5-MIN KAVL 021550Z 28003KT 3SM CLR 21/11 A3041 1710 52 2800 280/03 RMK AO2 SFC VIS 10 SLP282 T02060106
03812KAVL AVL20161102105511411/02/16 10:55:31  5-MIN KAVL 021555Z 24003KT 3SM CLR 19/10 A3041 1720 54 2700 250/03 RMK AO2 SFC VIS 10 T01940100
03812KAVL AVL20161102110011411/02/16 11:00:31  5-MIN KAVL 021600Z 00000KT 3SM CLR 19/10 A3041 1720 54 2700 000/00 RMK AO2 SFC VIS 10 T01940100
03812KAVL AVL20161102110511411/02/16 11:05:31  5-MIN KAVL 021605Z 22003KT 3SM CLR 19/11 A3041 1720 56 2700 230/03 RMK AO2 SFC VIS 10 T01940106
03812KAVL AVL20161102111011411/02/16 11:10:31  5-MIN KAVL 021610Z 00000KT 3SM CLR 19/11 A3041 1720 56 2700 000/00 RMK AO2 SFC VIS 10 T01940106
03812KAVL AVL20161102111511411/02/16 11:15:31  5-MIN KAVL 021615Z 00000KT 3SM CLR 19/11 A3041 1720 56 2700 000/00 RMK AO2 SFC VIS 10 T01940106
03812KAVL AVL20161102112011411/02/16 11:20:31  5-MIN KAVL 021620Z 00000KT 3SM CLR 20/11 A3041 1720 54 2700 000/00 RMK AO2 SFC VIS 10 T02000106
03812KAVL AVL20161102112511411/02/16 11:25:31  5-MIN KAVL 021625Z 00000KT 3SM CLR 20/11 A3040 1720 54 2700 000/00 RMK AO2 SFC VIS 10 T02000106
03812KAVL AVL20161102113011411/02/16 11:30:31  5-MIN KAVL 021630Z 00000KT 3SM CLR 21/11 A3040 1720 52 2800 000/00 RMK AO2 SFC VIS 10 T02060106
03812KAVL AVL20161102113511411/02/16 11:35:31  5-MIN KAVL 021635Z 00000KT 3SM CLR 21/10 A3040 1730 50 2800 000/00 RMK AO2 SFC VIS 10 T02060100
03812KAVL AVL20161102114011411/02/16 11:40:31  5-MIN KAVL 021640Z 00000KT 3SM CLR 22/09 A3040 1730 45 2900 000/00 RMK AO2 SFC VIS 10 T02170094
03812KAVL AVL20161102114510411/02/16 11:45:31  5-MIN KAVL 021645Z 00000KT 10SM CLR 22/09 A3039 1730 45 2900 000/00 RMK AO2 T02170094
03812KAVL AVL20161102115011111/02/16 11:50:31  5-MIN KAVL 021650Z 00000KT 10SM CLR 22/08 A3039 1730 42 2900 000/00 RMK AO2 SLP273 T02170083
03812KAVL AVL20161102115510411/02/16 11:55:31  5-MIN KAVL 021655Z 00000KT 10SM CLR 22/08 A3039 1740 40 3000 000/00 RMK AO2 T02220083
03812KAVL AVL20161102120010411/02/16 12:00:31  5-MIN KAVL 021700Z 00000KT 10SM CLR 22/08 A3039 1740 40 3000 000/00 RMK AO2 T02220083
03812KAVL AVL20161102120510411/02/16 12:05:31  5-MIN KAVL 021705Z 00000KT 10SM CLR 22/08 A3039 1740 39 3000 000/00 RMK AO2 T02220078
03812KAVL AVL20161102121010411/02/16 12:10:31  5-MIN KAVL 021710Z 00000KT 10SM CLR 22/08 A3038 1740 39 3000 000/00 RMK AO2 T02220078
03812KAVL AVL20161102121510411/02/16 12:15:31  5-MIN KAVL 021715Z 00000KT 10SM CLR 22/08 A3038 1740 40 3000 000/00 RMK AO2 T02220083
03812KAVL AVL20161102122010411/02/16 12:20:31  5-MIN KAVL 021720Z 00000KT 10SM CLR 23/08 A3038 1750 39 3100 000/00 RMK AO2 T02280083
03812KAVL AVL20161102122510411/02/16 12:25:31  5-MIN KAVL 021725Z 00000KT 10SM CLR 23/08 A3038 1750 38 3100 000/00 RMK AO2 T02330083
03812KAVL AVL20161102123010411/02/16 12:30:31  5-MIN KAVL 021730Z 00000KT 10SM CLR 23/08 A3038 1750 39 3100 000/00 RMK AO2 T02280083
03812KAVL AVL20161102123510411/02/16 12:35:31  5-MIN KAVL 021735Z 00000KT 10SM CLR 23/08 A3037 1750 39 3100 000/00 RMK AO2 T02280083
03812KAVL AVL20161102124010411/02/16 12:40:31  5-MIN KAVL 021740Z 00000KT 10SM CLR 23/08 A3037 1750 36 3200 000/00 RMK AO2 T02330078
03812KAVL AVL20161102124510411/02/16 12:45:31  5-MIN KAVL 021745Z 00000KT 10SM CLR 23/06 A3037 1760 33 3100 000/00 RMK AO2 T02280061
03812KAVL AVL20161102125012911/02/16 12:50:31  5-MIN KAVL 021750Z VRB03KT 10SM CLR 23/07 A3037 1760 35 3100 VRB/03 RMK AO2 SLP265 T02280067 10233 20111 51005
03812KAVL AVL20161102125510411/02/16 12:55:31  5-MIN KAVL 021755Z 33003KT 10SM CLR 23/07 A3036 1760 35 3200 330/03 RMK AO2 T02330072
03812KAVL AVL20161102130010411/02/16 13:00:31  5-MIN KAVL 021800Z 34003KT 10SM CLR 24/08 A3036 1760 35 3200 350/03 RMK AO2 T02390078
03812KAVL AVL20161102130510411/02/16 13:05:31  5-MIN KAVL 021805Z 00000KT 10SM CLR 24/08 A3036 1770 34 3300 000/00 RMK AO2 T02440078
03812KAVL AVL20161102131010411/02/16 13:10:31  5-MIN KAVL 021810Z 00000KT 10SM CLR 24/07 A3036 1770 32 3200 000/00 RMK AO2 T02390067
03812KAVL AVL20161102131510411/02/16 13:15:31  5-MIN KAVL 021815Z 00000KT 10SM CLR 24/07 A3035 1770 31 3300 000/00 RMK AO2 T02440067
03812KAVL AVL20161102132010411/02/16 13:20:31  5-MIN KAVL 021820Z VRB03KT 10SM CLR 24/06 A3035 1770 30 3300 VRB/03 RMK AO2 T02440061
03812KAVL AVL20161102132510411/02/16 13:25:31  5-MIN KAVL 021825Z 00000KT 10SM CLR 24/06 A3035 1770 29 3300 000/00 RMK AO2 T02440056
03812KAVL AVL20161102133010411/02/16 13:30:31  5-MIN KAVL 021830Z 00000KT 10SM CLR 24/06 A3035 1780 30 3300 000/00 RMK AO2 T02440061
03812KAVL AVL20161102133510411/02/16 13:35:31  5-MIN KAVL 021835Z 00000KT 10SM CLR 25/06 A3034 1780 28 3400 000/00 RMK AO2 T02500056
03812KAVL AVL20161102134010411/02/16 13:40:31  5-MIN KAVL 021840Z 00000KT 10SM CLR 24/06 A3034 1780 29 3300 000/00 RMK AO2 T02440056
03812KAVL AVL20161102134510411/02/16 13:45:31  5-MIN KAVL 021845Z 00000KT 10SM CLR 24/06 A3034 1780 29 3300 000/00 RMK AO2 T02440056
03812KAVL AVL20161102135011111/02/16 13:50:31  5-MIN KAVL 021850Z 00000KT 10SM CLR 25/06 A3034 1780 29 3400 000/00 RMK AO2 SLP252 T02500061
03812KAVL AVL20161102135510411/02/16 13:55:31  5-MIN KAVL 021855Z VRB03KT 10SM CLR 24/07 A3034 1780 31 3300 VRB/03 RMK AO2 T02440067
03812KAVL AVL20161102140010411/02/16 14:00:31  5-MIN KAVL 021900Z VRB03KT 10SM CLR 25/07 A3034 1780 30 3400 VRB/03 RMK AO2 T02500067
03812KAVL AVL20161102140510411/02/16 14:05:31  5-MIN KAVL 021905Z VRB03KT 10SM CLR 24/07 A3033 1790 31 3300 VRB/03 RMK AO2 T02440067
03812KAVL AVL20161102141010411/02/16 14:10:31  5-MIN KAVL 021910Z 00000KT 10SM CLR 26/07 A3033 1790 29 3400 000/00 RMK AO2 T02560067
03812KAVL AVL20161102141510411/02/16 14:15:31  5-MIN KAVL 021915Z VRB05KT 10SM CLR 26/07 A3033 1790 29 3400 VRB/05 RMK AO2 T02560067
03812KAVL AVL20161102142010411/02/16 14:20:31  5-MIN KAVL 021920Z 00000KT 10SM CLR 26/07 A3033 1790 29 3500 000/00 RMK AO2 T02560067
03812KAVL AVL20161102142510411/02/16 14:25:31  5-MIN KAVL 021925Z 00000KT 10SM CLR 25/07 A3033 1790 30 3400 000/00 RMK AO2 T02500067
03812KAVL AVL20161102143010411/02/16 14:30:31  5-MIN KAVL 021930Z 17004KT 10SM CLR 26/07 A3033 1790 29 3500 170/04 RMK AO2 T02560067
03812KAVL AVL20161102143510411/02/16 14:35:31  5-MIN KAVL 021935Z 18004KT 10SM CLR 26/07 A3033 1790 29 3500 180/04 RMK AO2 T02560067
03812KAVL AVL20161102144010411/02/16 14:40:31  5-MIN KAVL 021940Z 00000KT 10SM CLR 25/06 A3033 1790 29 3400 000/00 RMK AO2 T02500061
03812KAVL AVL20161102144510411/02/16 14:45:31  5-MIN KAVL 021945Z 00000KT 10SM CLR 26/06 A3033 1800 28 3500 000/00 RMK AO2 T02560061
03812KAVL AVL20161102145011111/02/16 14:50:31  5-MIN KAVL 021950Z 21004KT 10SM CLR 26/07 A3032 1800 29 3500 220/04 RMK AO2 SLP246 T02560067
03812KAVL AVL20161102145510411/02/16 14:55:31  5-MIN KAVL 021955Z 26003KT 10SM CLR 25/06 A3032 1800 29 3400 260/03 RMK AO2 T02500061
03812KAVL AVL20161102150010411/02/16 15:00:31  5-MIN KAVL 022000Z 24004KT 10SM CLR 25/06 A3032 1800 29 3400 240/04 RMK AO2 T02500061
03812KAVL AVL20161102150510411/02/16 15:05:31  5-MIN KAVL 022005Z VRB03KT 10SM CLR 25/06 A3032 1800 29 3400 VRB/03 RMK AO2 T02500061
03812KAVL AVL20161102151010411/02/16 15:10:31  5-MIN KAVL 022010Z 17003KT 10SM CLR 25/07 A3032 1800 30 3400 180/03 RMK AO2 T02500067
03812KAVL AVL20161102151510411/02/16 15:15:31  5-MIN KAVL 022015Z 20005KT 10SM CLR 25/07 A3032 1800 30 3400 200/05 RMK AO2 T02500067
03812KAVL AVL20161102152010411/02/16 15:20:31  5-MIN KAVL 022020Z 00000KT 10SM CLR 25/07 A3032 1800 30 3400 000/00 RMK AO2 T02500067
03812KAVL AVL20161102152510411/02/16 15:25:31  5-MIN KAVL 022025Z 00000KT 10SM CLR 25/07 A3032 1800 30 3400 000/00 RMK AO2 T02500067
03812KAVL AVL20161102153010411/02/16 15:30:31  5-MIN KAVL 022030Z 00000KT 10SM CLR 26/06 A3032 1800 28 3500 000/00 RMK AO2 T02560061
03812KAVL AVL20161102153510411/02/16 15:35:31  5-MIN KAVL 022035Z 00000KT 10SM CLR 26/07 A3032 1800 29 3500 000/00 RMK AO2 T02560067
03812KAVL AVL20161102154010411/02/16 15:40:31  5-MIN KAVL 022040Z VRB03KT 10SM CLR 26/07 A3032 1800 29 3500 VRB/03 RMK AO2 T02560067
03812KAVL AVL20161102154510411/02/16 15:45:31  5-MIN KAVL 022045Z 14005KT 10SM CLR 24/07 A3032 1800 31 3300 150/05 RMK AO2 T02440067
03812KAVL AVL20161102155011711/02/16 15:50:31  5-MIN KAVL 022050Z 17004KT 10SM CLR 24/07 A3032 1800 31 3300 170/04 RMK AO2 SLP248 T02440067 58020
03812KAVL AVL20161102155510411/02/16 15:55:31  5-MIN KAVL 022055Z 17004KT 10SM CLR 24/07 A3032 1800 31 3300 180/04 RMK AO2 T02440067
03812KAVL AVL20161102160010411/02/16 16:00:31  5-MIN KAVL 022100Z 16004KT 10SM CLR 24/07 A3032 1800 33 3300 170/04 RMK AO2 T02440072
03812KAVL AVL20161102160510411/02/16 16:05:31  5-MIN KAVL 022105Z 17005KT 10SM CLR 24/08 A3032 1800 34 3300 170/05 RMK AO2 T02440078
03812KAVL AVL20161102161010411/02/16 16:10:31  5-MIN KAVL 022110Z 16005KT 10SM CLR 24/08 A3032 1800 35 3300 160/05 RMK AO2 T02390078
03812KAVL AVL20161102161510411/02/16 16:15:31  5-MIN KAVL 022115Z 17008KT 10SM CLR 24/08 A3032 1800 35 3300 180/08 RMK AO2 T02390078
03812KAVL AVL20161102162010411/02/16 16:20:31  5-MIN KAVL 022120Z 18007KT 10SM CLR 23/09 A3032 1800 39 3200 190/07 RMK AO2 T02330089
03812KAVL AVL20161102162510411/02/16 16:25:31  5-MIN KAVL 022125Z 19007KT 10SM CLR 23/09 A3032 1800 39 3200 190/07 RMK AO2 T02330089
03812KAVL AVL20161102163010411/02/16 16:30:31  5-MIN KAVL 022130Z 19006KT 10SM CLR 23/09 A3032 1800 39 3200 190/06 RMK AO2 T02330089
03812KAVL AVL20161102163510411/02/16 16:35:31  5-MIN KAVL 022135Z 18007KT 10SM CLR 23/09 A3032 1800 41 3200 190/07 RMK AO2 T02330094
03812KAVL AVL20161102164010411/02/16 16:40:31  5-MIN KAVL 022140Z 18006KT 10SM CLR 23/09 A3032 1800 42 3100 180/06 RMK AO2 T02280094
03812KAVL AVL20161102164510411/02/16 16:45:31  5-MIN KAVL 022145Z 18007KT 10SM CLR 23/10 A3032 1800 44 3100 190/07 RMK AO2 T02280100
03812KAVL AVL20161102165011111/02/16 16:50:31  5-MIN KAVL 022150Z 18007KT 10SM CLR 23/10 A3033 1800 44 3100 180/07 RMK AO2 SLP251 T02280100
03812KAVL AVL20161102165510411/02/16 16:55:31  5-MIN KAVL 022155Z 17007KT 10SM CLR 22/11 A3032 1800 47 3100 180/07 RMK AO2 T02220106
03812KAVL AVL20161102170010411/02/16 17:00:31  5-MIN KAVL 022200Z 16005KT 10SM CLR 22/11 A3032 1800 47 3100 170/05 RMK AO2 T02220106
03812KAVL AVL20161102170510411/02/16 17:05:31  5-MIN KAVL 022205Z 17006KT 10SM CLR 22/11 A3032 1800 47 3100 170/06 RMK AO2 T02220106
03812KAVL AVL20161102171010411/02/16 17:10:31  5-MIN KAVL 022210Z 16005KT 10SM CLR 22/11 A3032 1800 47 3100 170/05 RMK AO2 T02220106
03812KAVL AVL20161102171510411/02/16 17:15:31  5-MIN KAVL 022215Z 16004KT 10SM CLR 22/10 A3032 1800 47 3000 160/04 RMK AO2 T02170100
03812KAVL AVL20161102172010411/02/16 17:20:31  5-MIN KAVL 022220Z 15005KT 10SM CLR 22/10 A3032 1800 45 3100 160/05 RMK AO2 T02220100
03812KAVL AVL20161102172510411/02/16 17:25:31  5-MIN KAVL 022225Z 16005KT 10SM CLR 22/10 A3032 1800 47 3000 170/05 RMK AO2 T02170100
03812KAVL AVL20161102173010411/02/16 17:30:31  5-MIN KAVL 022230Z 17006KT 10SM CLR 21/11 A3032 1800 50 3000 170/06 RMK AO2 T02110106
03812KAVL AVL20161102173510411/02/16 17:35:31  5-MIN KAVL 022235Z 17004KT 10SM CLR 21/11 A3032 1800 50 3000 170/04 RMK AO2 T02110106
03812KAVL AVL20161102174010411/02/16 17:40:31  5-MIN KAVL 022240Z 17003KT 10SM CLR 21/11 A3032 1800 52 2900 180/03 RMK AO2 T02060106
03812KAVL AVL20161102174510411/02/16 17:45:31  5-MIN KAVL 022245Z 18004KT 10SM CLR 20/11 A3032 1800 54 2800 180/04 RMK AO2 T02000106
03812KAVL AVL20161102175011111/02/16 17:50:31  5-MIN KAVL 022250Z 19004KT 10SM CLR 21/11 A3032 1800 52 2900 190/04 RMK AO2 SLP253 T02060106
03812KAVL AVL20161102175510411/02/16 17:55:31  5-MIN KAVL 022255Z 18004KT 10SM CLR 21/11 A3032 1800 52 2900 190/04 RMK AO2 T02060106
03812KAVL AVL20161102180010411/02/16 18:00:31  5-MIN KAVL 022300Z 20004KT 10SM CLR 20/11 A3032 1800 54 2800 200/04 RMK AO2 T02000106
03812KAVL AVL20161102180510411/02/16 18:05:31  5-MIN KAVL 022305Z 17004KT 10SM CLR 19/11 A3032 1800 56 2800 180/04 RMK AO2 T01940106
03812KAVL AVL20161102181010411/02/16 18:10:31  5-MIN KAVL 022310Z 17003KT 10SM CLR 19/11 A3032 1800 56 2800 170/03 RMK AO2 T01940106
03812KAVL AVL20161102181510411/02/16 18:15:31  5-MIN KAVL 022315Z 00000KT 10SM CLR 19/11 A3032 1800 56 2800 000/00 RMK AO2 T01940106
03812KAVL AVL20161102182010411/02/16 18:20:31  5-MIN KAVL 022320Z 00000KT 10SM CLR 20/10 A3032 1800 52 2800 000/00 RMK AO2 T02000100
03812KAVL AVL20161102182510411/02/16 18:25:31  5-MIN KAVL 022325Z 00000KT 10SM CLR 20/10 A3032 1800 52 2800 000/00 RMK AO2 T02000100
03812KAVL AVL20161102183010411/02/16 18:30:31  5-MIN KAVL 022330Z 00000KT 10SM CLR 20/10 A3032 1800 52 2800 000/00 RMK AO2 T02000100
03812KAVL AVL20161102183510411/02/16 18:35:31  5-MIN KAVL 022335Z 00000KT 10SM CLR 20/10 A3033 1800 52 2800 000/00 RMK AO2 T02000100
03812KAVL AVL20161102184010411/02/16 18:40:31  5-MIN KAVL 022340Z 00000KT 10SM CLR 19/10 A3032 1800 54 2800 000/00 RMK AO2 T01940100
03812KAVL AVL20161102184510411/02/16 18:45:31  5-MIN KAVL 022345Z 00000KT 10SM CLR 19/10 A3033 1790 54 2800 000/00 RMK AO2 T01940100
03812KAVL AVL20161102185012911/02/16 18:50:31  5-MIN KAVL 022350Z 00000KT 10SM CLR 19/10 A3033 1790 54 2800 000/00 RMK AO2 SLP255 T01940100 10256 20194 56014
03812KAVL AVL20161102185510411/02/16 18:55:31  5-MIN KAVL 022355Z 13003KT 10SM CLR 19/10 A3033 1790 54 2800 130/03 RMK AO2 T01940100
03812KAVL AVL20161102190010411/02/16 19:00:31  5-MIN KAVL 030000Z 14003KT 10SM CLR 19/10 A3033 1790 56 2700 140/03 RMK AO2 T01890100
03812KAVL AVL20161102190510411/02/16 19:05:31  5-MIN KAVL 030005Z 12003KT 10SM CLR 19/10 A3033 1790 56 2700 130/03 RMK AO2 T01890100
03812KAVL AVL20161102191010411/02/16 19:10:31  5-MIN KAVL 030010Z 00000KT 10SM CLR 19/10 A3033 1790 56 2700 000/00 RMK AO2 T01890100
03812KAVL AVL20161102191510411/02/16 19:15:31  5-MIN KAVL 030015Z 00000KT 10SM CLR 19/09 A3033 1790 54 2700 000/00 RMK AO2 T01890094
03812KAVL AVL20161102192010411/02/16 19:20:31  5-MIN KAVL 030020Z 00000KT 10SM CLR 18/09 A3033 1790 56 2600 000/00 RMK AO2 T01830094
03812KAVL AVL20161102192510411/02/16 19:25:31  5-MIN KAVL 030025Z 00000KT 10SM CLR 18/09 A3033 1790 56 2600 000/00 RMK AO2 T01830094
03812KAVL AVL20161102193010411/02/16 19:30:31  5-MIN KAVL 030030Z 00000KT 10SM CLR 18/09 A3033 1790 56 2600 000/00 RMK AO2 T01830094
03812KAVL AVL20161102193510411/02/16 19:35:31  5-MIN KAVL 030035Z 00000KT 10SM CLR 18/09 A3033 1800 58 2600 000/00 RMK AO2 T01780094
03812KAVL AVL20161102194010411/02/16 19:40:31  5-MIN KAVL 030040Z 00000KT 10SM CLR 18/09 A3033 1790 58 2600 000/00 RMK AO2 T01780094
03812KAVL AVL20161102194510411/02/16 19:45:31  5-MIN KAVL 030045Z 00000KT 10SM CLR 18/09 A3033 1790 58 2600 000/00 RMK AO2 T01780094
03812KAVL AVL20161102195011111/02/16 19:50:31  5-MIN KAVL 030050Z 00000KT 10SM CLR 18/09 A3033 1790 58 2600 000/00 RMK AO2 SLP257 T01780094
03812KAVL AVL20161102195510411/02/16 19:55:31  5-MIN KAVL 030055Z 00000KT 10SM CLR 17/10 A3033 1790 62 2500 000/00 RMK AO2 T01720100
03812KAVL AVL20161102200010411/02/16 20:00:31  5-MIN KAVL 030100Z 00000KT 10SM CLR 17/10 A3033 1800 62 2500 000/00 RMK AO2 T01720100
03812KAVL AVL20161102200510411/02/16 20:05:31  5-MIN KAVL 030105Z 00000KT 10SM CLR 17/10 A3032 1800 62 2500 000/00 RMK AO2 T01720100
03812KAVL AVL20161102201010411/02/16 20:10:31  5-MIN KAVL 030110Z 14003KT 10SM CLR 17/09 A3032 1800 60 2500 140/03 RMK AO2 T01720094
03812KAVL AVL20161102201510411/02/16 20:15:31  5-MIN KAVL 030115Z 00000KT 10SM CLR 17/09 A3032 1800 60 2500 000/00 RMK AO2 T01720094
03812KAVL AVL20161102202010411/02/16 20:20:31  5-MIN KAVL 030120Z 00000KT 10SM CLR 17/09 A3032 1800 62 2400 000/00 RMK AO2 T01670094
03812KAVL AVL20161102202510411/02/16 20:25:31  5-MIN KAVL 030125Z 00000KT 10SM CLR 17/09 A3033 1800 60 2500 000/00 RMK AO2 T01720094
03812KAVL AVL20161102203010411/02/16 20:30:31  5-MIN KAVL 030130Z 00000KT 10SM CLR 17/09 A3033 1790 62 2400 000/00 RMK AO2 T01670094
03812KAVL AVL20161102203510411/02/16 20:35:31  5-MIN KAVL 030135Z 00000KT 10SM CLR 17/10 A3033 1790 64 2400 000/00 RMK AO2 T01670100
03812KAVL AVL20161102204010411/02/16 20:40:31  5-MIN KAVL 030140Z 12003KT 10SM CLR 17/10 A3033 1790 64 2400 120/03 RMK AO2 T01670100
03812KAVL AVL20161102204510911/02/16 20:45:31  5-MIN KAVL 030145Z AUTO 13003KT 10SM CLR 17/09 A3033 1790 62 2400 140/03 RMK AO2 T01670094
03812KAVL AVL20161102205011111/02/16 20:50:31  5-MIN KAVL 030150Z 00000KT 10SM CLR 17/09 A3033 1790 62 2400 000/00 RMK AO2 SLP258 T01670094
03812KAVL AVL20161102205510411/02/16 20:55:31  5-MIN KAVL 030155Z 00000KT 10SM CLR 17/09 A3033 1790 62 2400 000/00 RMK AO2 T01670094
03812KAVL AVL20161102210010411/02/16 21:00:31  5-MIN KAVL 030200Z 00000KT 10SM CLR 17/10 A3033 1790 64 2400 000/00 RMK AO2 T01670100
03812KAVL AVL20161102210510411/02/16 21:05:31  5-MIN KAVL 030205Z 00000KT 10SM CLR 16/10 A3033 1790 67 2400 000/00 RMK AO2 T01610100
03812KAVL AVL20161102211010411/02/16 21:10:31  5-MIN KAVL 030210Z 00000KT 10SM CLR 17/10 A3033 1790 64 2400 000/00 RMK AO2 T01670100
03812KAVL AVL20161102211510411/02/16 21:15:31  5-MIN KAVL 030215Z 00000KT 10SM CLR 17/10 A3033 1790 64 2400 000/00 RMK AO2 T01670100
03812KAVL AVL20161102212010411/02/16 21:20:31  5-MIN KAVL 030220Z 00000KT 10SM CLR 16/10 A3033 1790 67 2400 000/00 RMK AO2 T01610100
03812KAVL AVL20161102212510411/02/16 21:25:31  5-MIN KAVL 030225Z 00000KT 10SM CLR 16/10 A3033 1790 67 2400 000/00 RMK AO2 T01610100
03812KAVL AVL20161102213010411/02/16 21:30:31  5-MIN KAVL 030230Z 00000KT 10SM CLR 16/10 A3033 1790 67 2400 000/00 RMK AO2 T01610100
03812KAVL AVL20161102213510411/02/16 21:35:31  5-MIN KAVL 030235Z 10003KT 10SM CLR 16/10 A3034 1790 67 2400 110/03 RMK AO2 T01610100
03812KAVL AVL20161102214010411/02/16 21:40:31  5-MIN KAVL 030240Z 00000KT 10SM CLR 16/10 A3034 1790 69 2300 000/00 RMK AO2 T01560100
03812KAVL AVL20161102214510411/02/16 21:45:31  5-MIN KAVL 030245Z 00000KT 10SM CLR 16/10 A3034 1790 67 2400 000/00 RMK AO2 T01610100
03812KAVL AVL20161102215011711/02/16 21:50:31  5-MIN KAVL 030250Z 00000KT 10SM CLR 16/10 A3034 1790 67 2400 000/00 RMK AO2 SLP258 T01610100 51002
03812KAVL AVL20161102215510911/02/16 21:55:31  5-MIN KAVL 030255Z AUTO 00000KT 10SM CLR 16/10 A3033 1790 67 2400 000/00 RMK AO2 T01610100
03812KAVL AVL20161102220010911/02/16 22:00:31  5-MIN KAVL 030300Z AUTO 00000KT 10SM CLR 16/10 A3033 1790 67 2400 000/00 RMK AO2 T01610100
03812KAVL AVL20161102220510911/02/16 22:05:31  5-MIN KAVL 030305Z AUTO 00000KT 10SM CLR 16/10 A3033 1790 67 2400 000/00 RMK AO2 T01610100
03812KAVL AVL20161102221010911/02/16 22:10:31  5-MIN KAVL 030310Z AUTO 00000KT 10SM CLR 15/10 A3033 1790 72 2200 000/00 RMK AO2 T01500100
03812KAVL AVL20161102221510911/02/16 22:15:31  5-MIN KAVL 030315Z AUTO 00000KT 10SM CLR 14/10 A3033 1790 74 2200 000/00 RMK AO2 T01440100
03812KAVL AVL20161102222010911/02/16 22:20:31  5-MIN KAVL 030320Z AUTO 00000KT 10SM CLR 14/10 A3033 1790 74 2200 000/00 RMK AO2 T01440100
03812KAVL AVL20161102222510911/02/16 22:25:31  5-MIN KAVL 030325Z AUTO 00000KT 10SM CLR 14/10 A3033 1790 74 2200 000/00 RMK AO2 T01440100
03812KAVL AVL20161102223010911/02/16 22:30:31  5-MIN KAVL 030330Z AUTO 00000KT 10SM CLR 14/10 A3033 1790 74 2200 000/00 RMK AO2 T01440100
03812KAVL AVL20161102223510911/02/16 22:35:31  5-MIN KAVL 030335Z AUTO 00000KT 10SM CLR 14/10 A3033 1790 74 2200 000/00 RMK AO2 T01440100
03812KAVL AVL20161102224010911/02/16 22:40:31  5-MIN KAVL 030340Z AUTO 00000KT 10SM CLR 14/10 A3033 1790 77 2100 000/00 RMK AO2 T01390100
03812KAVL AVL20161102224510911/02/16 22:45:31  5-MIN KAVL 030345Z AUTO 00000KT 10SM CLR 14/10 A3033 1790 74 2200 000/00 RMK AO2 T01440100
03812KAVL AVL20161102225011611/02/16 22:50:31  5-MIN KAVL 030350Z AUTO 00000KT 10SM CLR 14/10 A3033 1790 77 2100 000/00 RMK AO2 SLP253 T01390100
03812KAVL AVL20161102225510911/02/16 22:55:31  5-MIN KAVL 030355Z AUTO 00000KT 10SM CLR 14/10 A3033 1790 77 2100 000/00 RMK AO2 T01390100
03812KAVL AVL20161102230010911/02/16 23:00:31  5-MIN KAVL 030400Z AUTO 00000KT 10SM CLR 14/10 A3033 1790 77 2100 000/00 RMK AO2 T01390100
03812KAVL AVL20161102230510911/02/16 23:05:31  5-MIN KAVL 030405Z AUTO 00000KT 10SM CLR 14/09 A3033 1790 74 2100 000/00 RMK AO2 T01390094
03812KAVL AVL20161102231010911/02/16 23:10:31  5-MIN KAVL 030410Z AUTO 00000KT 10SM CLR 14/10 A3033 1800 77 2100 000/00 RMK AO2 T01390100
03812KAVL AVL20161102231510911/02/16 23:15:31  5-MIN KAVL 030415Z AUTO 00000KT 10SM CLR 13/10 A3033 1800 80 2100 000/00 RMK AO2 T01330100
03812KAVL AVL20161102232010911/02/16 23:20:31  5-MIN KAVL 030420Z AUTO 00000KT 10SM CLR 13/10 A3032 1800 80 2100 000/00 RMK AO2 T01330100
03812KAVL AVL20161102232510911/02/16 23:25:31  5-MIN KAVL 030425Z AUTO 00000KT 10SM CLR 13/10 A3032 1800 80 2100 000/00 RMK AO2 T01330100
03812KAVL AVL20161102233010911/02/16 23:30:31  5-MIN KAVL 030430Z AUTO 00000KT 10SM CLR 13/10 A3032 1800 80 2100 000/00 RMK AO2 T01330100
03812KAVL AVL20161102233510911/02/16 23:35:31  5-MIN KAVL 030435Z AUTO 00000KT 10SM CLR 13/10 A3032 1800 80 2100 000/00 RMK AO2 T01330100
03812KAVL AVL20161102234010911/02/16 23:40:31  5-MIN KAVL 030440Z AUTO 00000KT 10SM CLR 13/10 A3032 1800 80 2100 000/00 RMK AO2 T01330100
03812KAVL AVL20161102234510911/02/16 23:45:31  5-MIN KAVL 030445Z AUTO 00000KT 10SM CLR 13/10 A3032 1800 80 2100 000/00 RMK AO2 T01330100
03812KAVL AVL20161102235012611/02/16 23:50:31  5-MIN KAVL 030450Z AUTO 00000KT 10SM CLR 12/09 A3032 1800 83 1900 000/00 RMK AO2 SLP251 T01220094 402560111
03812KAVL AVL20161102235510911/02/16 23:55:31  5-MIN KAVL 030455Z AUTO 00000KT 10SM CLR 12/09 A3032 1800 83 1900 000/00 RMK AO2 T01220094
03812KAVL AVL20161103000010911/03/16 00:00:31  5-MIN KAVL 030500Z AUTO 00000KT 10SM CLR 12/09 A3032 1800 83 1900 000/00 RMK AO2 T01220094
03812KAVL AVL20161103000510911/03/16 00:05:31  5-MIN KAVL 030505Z AUTO 00000KT 10SM CLR 12/09 A3032 1800 83 1900 000/00 RMK AO2 T01220094
03812KAVL AVL20161103001010911/03/16 00:10:31  5-MIN KAVL 030510Z AUTO 00000KT 10SM CLR 13/09 A3032 1800 80 2000 000/00 RMK AO2 T01280094
03812KAVL AVL20161103001510911/03/16 00:15:31  5-MIN KAVL 030515Z AUTO 00000KT 10SM CLR 12/09 A3032 1800 86 1900 000/00 RMK AO2 T01170094
03812KAVL AVL20161103002010911/03/16 00:20:31  5-MIN KAVL 030520Z AUTO 00000KT 10SM CLR 12/09 A3032 1800 83 1900 000/00 RMK AO2 T01220094
03812KAVL AVL20161103002510911/03/16 00:25:31  5-MIN KAVL 030525Z AUTO 00000KT 10SM CLR 12/09 A3032 1800 83 1900 000/00 RMK AO2 T01220094
03812KAVL AVL20161103003010911/03/16 00:30:31  5-MIN KAVL 030530Z AUTO 00000KT 10SM CLR 12/09 A3033 1800 83 1900 000/00 RMK AO2 T01220094
03812KAVL AVL20161103003510911/03/16 00:35:31  5-MIN KAVL 030535Z AUTO 00000KT 10SM CLR 12/09 A3032 1800 86 1900 000/00 RMK AO2 T01170094
03812KAVL AVL20161103004010911/03/16 00:40:31  5-MIN KAVL 030540Z AUTO 00000KT 10SM CLR 12/09 A3032 1800 80 1900 000/00 RMK AO2 T01220089
03812KAVL AVL20161103004510911/03/16 00:45:31  5-MIN KAVL 030545Z AUTO 00000KT 10SM CLR 12/09 A3032 1800 83 1900 000/00 RMK AO2 T01220094
03812KAVL AVL20161103005013411/03/16 00:50:31  5-MIN KAVL 030550Z AUTO 00000KT 10SM CLR 12/09 A3032 1800 83 1900 000/00 RMK AO2 SLP249 T01220094 10194 20117 53002
03812KAVL AVL20161103005510911/03/16 00:55:31  5-MIN KAVL 030555Z AUTO 00000KT 10SM CLR 12/09 A3032 1800 86 1900 000/00 RMK AO2 T01170094
03812KAVL AVL20161103010010911/03/16 01:00:31  5-MIN KAVL 030600Z AUTO 00000KT 10SM CLR 12/09 A3032 1800 86 1900 000/00 RMK AO2 T01170094
03812KAVL AVL20161103010510911/03/16 01:05:31  5-MIN KAVL 030605Z AUTO 00000KT 10SM CLR 12/09 A3031 1810 86 1900 000/00 RMK AO2 T01170094
03812KAVL AVL20161103011010911/03/16 01:10:31  5-MIN KAVL 030610Z AUTO 00000KT 10SM CLR 12/09 A3031 1810 83 1900 000/00 RMK AO2 T01170089
03812KAVL AVL20161103011510911/03/16 01:15:31  5-MIN KAVL 030615Z AUTO 00000KT 10SM CLR 11/09 A3031 1810 89 1800 000/00 RMK AO2 T01110094
03812KAVL AVL20161103012010911/03/16 01:20:31  5-MIN KAVL 030620Z AUTO 29003KT 10SM CLR 11/09 A3031 1810 86 1800 300/03 RMK AO2 T01110089
03812KAVL AVL20161103012510911/03/16 01:25:31  5-MIN KAVL 030625Z AUTO 00000KT 10SM CLR 11/09 A3031 1810 86 1800 000/00 RMK AO2 T01110089
03812KAVL AVL20161103013010911/03/16 01:30:31  5-MIN KAVL 030630Z AUTO 00000KT 10SM CLR 11/09 A3031 1810 86 1800 000/00 RMK AO2 T01110089
03812KAVL AVL20161103013510911/03/16 01:35:31  5-MIN KAVL 030635Z AUTO 00000KT 10SM CLR 11/09 A3031 1810 89 1800 000/00 RMK AO2 T01110094
03812KAVL AVL20161103014010911/03/16 01:40:31  5-MIN KAVL 030640Z AUTO 00000KT 10SM CLR 11/09 A3031 1800 89 1800 000/00 RMK AO2 T01110094
03812KAVL AVL20161103014510911/03/16 01:45:31  5-MIN KAVL 030645Z AUTO 00000KT 10SM CLR 11/09 A3032 1800 89 1700 000/00 RMK AO2 T01060089
03812KAVL AVL20161103015011611/03/16 01:50:31  5-MIN KAVL 030650Z AUTO 00000KT 10SM CLR 11/09 A3032 1800 86 1800 000/00 RMK AO2 SLP248 T01110089
03812KAVL AVL20161103015510911/03/16 01:55:31  5-MIN KAVL 030655Z AUTO 00000KT 10SM CLR 11/08 A3031 1810 83 1800 000/00 RMK AO2 T01110083
03812KAVL AVL20161103020010911/03/16 02:00:31  5-MIN KAVL 030700Z AUTO 00000KT 10SM CLR 11/08 A3031 1810 83 1800 000/00 RMK AO2 T01110083
03812KAVL AVL20161103020510911/03/16 02:05:31  5-MIN KAVL 030705Z AUTO 00000KT 10SM CLR 11/09 A3031 1800 86 1800 000/00 RMK AO2 T01110089
03812KAVL AVL20161103021010911/03/16 02:10:31  5-MIN KAVL 030710Z AUTO 00000KT 10SM CLR 11/09 A3031 1810 86 1800 000/00 RMK AO2 T01110089
03812KAVL AVL20161103021510911/03/16 02:15:31  5-MIN KAVL 030715Z AUTO 00000KT 10SM CLR 10/08 A3031 1810 89 1700 000/00 RMK AO2 T01000083
03812KAVL AVL20161103022010911/03/16 02:20:31  5-MIN KAVL 030720Z AUTO 00000KT 10SM CLR 10/08 A3031 1810 89 1700 000/00 RMK AO2 T01000083
03812KAVL AVL20161103022510911/03/16 02:25:31  5-MIN KAVL 030725Z AUTO 00000KT 10SM CLR 10/09 A3031 1810 93 1700 000/00 RMK AO2 T01000089
03812KAVL AVL20161103023010911/03/16 02:30:31  5-MIN KAVL 030730Z AUTO 00000KT 10SM CLR 10/08 A3030 1810 89 1700 000/00 RMK AO2 T01000083
03812KAVL AVL20161103023510911/03/16 02:35:31  5-MIN KAVL 030735Z AUTO 00000KT 10SM CLR 10/08 A3030 1810 86 1700 000/00 RMK AO2 T01000078
03812KAVL AVL20161103024010911/03/16 02:40:31  5-MIN KAVL 030740Z AUTO 00000KT 10SM CLR 10/08 A3030 1810 86 1700 000/00 RMK AO2 T01000078
03812KAVL AVL20161103024510911/03/16 02:45:31  5-MIN KAVL 030745Z AUTO 00000KT 10SM CLR 10/08 A3030 1820 86 1700 000/00 RMK AO2 T01000078
03812KAVL AVL20161103025011611/03/16 02:50:31  5-MIN KAVL 030750Z AUTO 00000KT 10SM CLR 10/08 A3030 1820 86 1700 000/00 RMK AO2 SLP243 T01000078
03812KAVL AVL20161103025510911/03/16 02:55:31  5-MIN KAVL 030755Z AUTO 00000KT 10SM CLR 11/08 A3030 1820 86 1800 000/00 RMK AO2 T01060083
03812KAVL AVL20161103030010911/03/16 03:00:31  5-MIN KAVL 030800Z AUTO 00000KT 10SM CLR 11/08 A3030 1820 86 1800 000/00 RMK AO2 T01060083
03812KAVL AVL20161103030510811/03/16 03:05:31  5-MIN KAVL 030805Z AUTO 00000KT 9SM CLR 10/08 A3030 1820 89 1700 000/00 RMK AO2 T01000083
03812KAVL AVL20161103031010811/03/16 03:10:31  5-MIN KAVL 030810Z AUTO 00000KT 9SM CLR 10/08 A3030 1820 89 1700 000/00 RMK AO2 T01000083
03812KAVL AVL20161103031510811/03/16 03:15:31  5-MIN KAVL 030815Z AUTO 00000KT 9SM CLR 10/08 A3029 1820 86 1700 000/00 RMK AO2 T01000078
03812KAVL AVL20161103032010811/03/16 03:20:31  5-MIN KAVL 030820Z AUTO 00000KT 9SM CLR 09/08 A3030 1820 89 1600 000/00 RMK AO2 T00940078
03812KAVL AVL20161103032511111/03/16 03:25:31  5-MIN KAVL 030825Z AUTO 00000KT 6SM BR CLR 09/07 A3030 1820 86 1600 000/00 RMK AO2 T00940072
03812KAVL AVL20161103033011111/03/16 03:30:31  5-MIN KAVL 030830Z AUTO 00000KT 4SM BR CLR 09/07 A3030 1820 86 1600 000/00 RMK AO2 T00940072
03812KAVL AVL20161103033511111/03/16 03:35:31  5-MIN KAVL 030835Z AUTO 00000KT 4SM BR CLR 10/08 A3030 1820 86 1700 000/00 RMK AO2 T01000078
03812KAVL AVL20161103034011111/03/16 03:40:31  5-MIN KAVL 030840Z AUTO 00000KT 6SM BR CLR 09/08 A3030 1820 89 1600 000/00 RMK AO2 T00940078
03812KAVL AVL20161103034510811/03/16 03:45:31  5-MIN KAVL 030845Z AUTO 00000KT 7SM CLR 09/08 A3030 1820 89 1600 000/00 RMK AO2 T00940078
03812KAVL AVL20161103035012411/03/16 03:50:31  5-MIN KAVL 030850Z AUTO 00000KT 6SM BR CLR 09/08 A3030 1820 89 1600 000/00 RMK AO2 SLP243 T00940078 56005
03812KAVL AVL20161103035510811/03/16 03:55:31  5-MIN KAVL 030855Z AUTO 00000KT 8SM CLR 09/08 A3030 1820 89 1600 000/00 RMK AO2 T00940078
03812KAVL AVL20161103040010811/03/16 04:00:31  5-MIN KAVL 030900Z AUTO 00000KT 9SM CLR 10/08 A3030 1820 86 1700 000/00 RMK AO2 T01000078
03812KAVL AVL20161103040510911/03/16 04:05:31  5-MIN KAVL 030905Z AUTO 00000KT 10SM CLR 10/08 A3030 1820 86 1700 000/00 RMK AO2 T01000078
03812KAVL AVL20161103041010911/03/16 04:10:31  5-MIN KAVL 030910Z AUTO 00000KT 10SM CLR 09/08 A3030 1820 89 1600 000/00 RMK AO2 T00940078
03812KAVL AVL20161103041510911/03/16 04:15:31  5-MIN KAVL 030915Z AUTO 00000KT 10SM CLR 09/08 A3030 1820 89 1600 000/00 RMK AO2 T00940078
03812KAVL AVL20161103042010911/03/16 04:20:31  5-MIN KAVL 030920Z AUTO 00000KT 10SM CLR 09/08 A3030 1820 89 1600 000/00 RMK AO2 T00940078
03812KAVL AVL20161103042510911/03/16 04:25:31  5-MIN KAVL 030925Z AUTO 00000KT 10SM CLR 09/08 A3030 1820 89 1600 000/00 RMK AO2 T00940078
03812KAVL AVL20161103043010911/03/16 04:30:31  5-MIN KAVL 030930Z AUTO 00000KT 10SM CLR 09/08 A3030 1820 89 1600 000/00 RMK AO2 T00940078
03812KAVL AVL20161103043510911/03/16 04:35:31  5-MIN KAVL 030935Z AUTO 00000KT 10SM CLR 09/07 A3030 1820 89 1600 000/00 RMK AO2 T00890072
03812KAVL AVL20161103044010811/03/16 04:40:31  5-MIN KAVL 030940Z AUTO 00000KT 9SM CLR 08/07 A3030 1820 93 1500 000/00 RMK AO2 T00830072
03812KAVL AVL20161103044510811/03/16 04:45:31  5-MIN KAVL 030945Z AUTO 00000KT 9SM CLR 08/07 A3030 1820 89 1500 000/00 RMK AO2 T00830067
03812KAVL AVL20161103045011611/03/16 04:50:31  5-MIN KAVL 030950Z AUTO 00000KT 10SM CLR 08/07 A3030 1820 89 1500 000/00 RMK AO2 SLP246 T00830067
03812KAVL AVL20161103045510911/03/16 04:55:31  5-MIN KAVL 030955Z AUTO 00000KT 10SM CLR 09/07 A3030 1820 86 1600 000/00 RMK AO2 T00890067
03812KAVL AVL20161103050010911/03/16 05:00:31  5-MIN KAVL 031000Z AUTO 00000KT 10SM CLR 09/07 A3030 1820 86 1600 000/00 RMK AO2 T00890067
03812KAVL AVL20161103050510911/03/16 05:05:31  5-MIN KAVL 031005Z AUTO 00000KT 10SM CLR 09/07 A3029 1820 86 1600 000/00 RMK AO2 T00890067
03812KAVL AVL20161103051010911/03/16 05:10:31  5-MIN KAVL 031010Z AUTO 00000KT 10SM CLR 09/07 A3030 1820 89 1600 000/00 RMK AO2 T00890072
03812KAVL AVL20161103051510311/03/16 05:15:31  5-MIN KAVL 031015Z 00000KT 9SM CLR 09/07 A3030 1820 89 1600 000/00 RMK AO2 T00890072
03812KAVL AVL20161103052010311/03/16 05:20:31  5-MIN KAVL 031020Z 00000KT 8SM CLR 09/08 A3029 1820 93 1600 000/00 RMK AO2 T00890078
03812KAVL AVL20161103052510311/03/16 05:25:31  5-MIN KAVL 031025Z 00000KT 8SM CLR 09/07 A3030 1820 89 1600 000/00 RMK AO2 T00890072
03812KAVL AVL20161103053010311/03/16 05:30:31  5-MIN KAVL 031030Z 00000KT 8SM CLR 09/07 A3030 1820 89 1600 000/00 RMK AO2 T00890072
03812KAVL AVL20161103053510611/03/16 05:35:31  5-MIN KAVL 031035Z 00000KT 6SM BR CLR 08/07 A3030 1820 89 1500 000/00 RMK AO2 T00830067
03812KAVL AVL20161103054010311/03/16 05:40:31  5-MIN KAVL 031040Z 00000KT 7SM CLR 09/07 A3030 1820 89 1600 000/00 RMK AO2 T00890072
03812KAVL AVL20161114054511311/14/16 05:45:31  5-MIN KAVL 141045Z AUTO 00000KT 4SM HZ CLR 02/M02 A3010 2000 78 900 000/00 RMK AO2 T00171017 $
03812KAVL AVL20161114055012011/14/16 05:50:31  5-MIN KAVL 141050Z AUTO 00000KT 4SM HZ CLR 02/M02 A3010 2000 78 900 000/00 RMK AO2 SLP194 T00171017 $
03812KAVL AVL20161114055511311/14/16 05:55:31  5-MIN KAVL 141055Z AUTO 23003KT 4SM HZ CLR 01/M02 A3010 2000 82 800 230/03 RMK AO2 T00111017 $
03812KAVL AVL20161114060011311/14/16 06:00:31  5-MIN KAVL 141100Z AUTO 00000KT 4SM HZ CLR 01/M02 A3010 2000 82 800 000/00 RMK AO2 T00111017 $
03812KAVL AVL20161114060511311/14/16 06:05:31  5-MIN KAVL 141105Z AUTO 00000KT 4SM HZ CLR 01/M02 A3010 2000 82 800 000/00 RMK AO2 T00111017 $
03812KAVL AVL20161114061011311/14/16 06:10:31  5-MIN KAVL 141110Z AUTO 00000KT 4SM HZ CLR 02/M02 A3010 2000 78 900 000/00 RMK AO2 T00171017 $
03812KAVL AVL20161114061511311/14/16 06:15:31  5-MIN KAVL 141115Z AUTO 00000KT 4SM HZ CLR 01/M02 A3010 2000 82 800 000/00 RMK AO2 T00111017 $
03812KAVL AVL20161114062011311/14/16 06:20:31  5-MIN KAVL 141120Z AUTO 00000KT 4SM HZ CLR 02/M02 A3010 2010 78 900 000/00 RMK AO2 T00171017 $
03812KAVL AVL20161114062510811/14/16 06:25:31  5-MIN KAVL 141125Z 00000KT 4SM HZ CLR 01/M02 A3009 2010 82 800 000/00 RMK AO2 T00111017 $
03812KAVL AVL20161114063010811/14/16 06:30:31  5-MIN KAVL 141130Z 00000KT 4SM HZ CLR 01/M02 A3010 2000 82 800 000/00 RMK AO2 T00111017 $
03812KAVL AVL20161114063510811/14/16 06:35:31  5-MIN KAVL 141135Z 00000KT 4SM BR CLR 01/M02 A3010 2000 85 800 000/00 RMK AO2 T00061017 $
03812KAVL AVL20161114064010811/14/16 06:40:31  5-MIN KAVL 141140Z 00000KT 4SM HZ CLR 01/M02 A3010 2000 82 800 000/00 RMK AO2 T00111017 $
03812KAVL AVL20161114064510811/14/16 06:45:31  5-MIN KAVL 141145Z 00000KT 4SM HZ CLR 01/M02 A3011 2000 82 800 000/00 RMK AO2 T00111017 $
03812KAVL AVL20161114065013311/14/16 06:50:31  5-MIN KAVL 141150Z 00000KT 4SM FU CLR 01/M02 A3011 1990 82 800 000/00 RMK AO2 SLP197 T00111017 10033 20000 58012 $
03812KAVL AVL20161114065510811/14/16 06:55:31  5-MIN KAVL 141155Z 00000KT 4SM FU CLR 01/M02 A3011 2000 82 800 000/00 RMK AO2 T00111017 $
03812KAVL AVL20161114070010811/14/16 07:00:31  5-MIN KAVL 141200Z 12003KT 4SM FU CLR 01/M02 A3011 2000 82 800 130/03 RMK AO2 T00061022 $
03812KAVL AVL20161114070510811/14/16 07:05:31  5-MIN KAVL 141205Z 00000KT 4SM FU CLR 01/M02 A3011 2000 82 800 000/00 RMK AO2 T00061022 $
03812KAVL AVL20161114071010811/14/16 07:10:31  5-MIN KAVL 141210Z 00000KT 3SM FU CLR 01/M02 A3011 1990 82 800 000/00 RMK AO2 T00061022 $
03812KAVL AVL20161114071511211/14/16 07:15:31  5-MIN KAVL 141215Z 00000KT 2 1/2SM FU CLR 01/M02 A3011 1990 82 800 000/00 RMK AO2 T00111017 $
03812KAVL AVL20161114072011211/14/16 07:20:31  5-MIN KAVL 141220Z 00000KT 2 1/2SM FU CLR 01/M02 A3011 1990 85 800 000/00 RMK AO2 T00061017 $
03812KAVL AVL20161114072511211/14/16 07:25:31  5-MIN KAVL 141225Z 35004KT 2 1/2SM FU CLR 01/M02 A3011 1990 82 800 360/04 RMK AO2 T00111017 $
03812KAVL AVL20161114073010811/14/16 07:30:31  5-MIN KAVL 141230Z 35005KT 3SM FU CLR 02/M02 A3011 1990 78 900 360/05 RMK AO2 T00171017 $
03812KAVL AVL20161114073510911/14/16 07:35:31  5-MIN KAVL 141235Z 36005KT 3SM FU CLR 02/M01 A3011 1990 78 1000 010/05 RMK AO2 T00221011 $
03812KAVL AVL20161114074010911/14/16 07:40:31  5-MIN KAVL 141240Z 36004KT 3SM FU CLR 02/M01 A3012 1990 78 1000 360/04 RMK AO2 T00221011 $
03812KAVL AVL20161114074510911/14/16 07:45:31  5-MIN KAVL 141245Z 01004KT 3SM FU CLR 02/M01 A3012 1990 78 1000 010/04 RMK AO2 T00221011 $
03812KAVL AVL20161114075011611/14/16 07:50:31  5-MIN KAVL 141250Z 00000KT 3SM FU CLR 02/M01 A3012 1980 78 1000 000/00 RMK AO2 SLP201 T00221011 $
03812KAVL AVL20161114075510911/14/16 07:55:31  5-MIN KAVL 141255Z 01004KT 3SM FU CLR 03/M01 A3012 1980 75 1000 020/04 RMK AO2 T00281011 $
03812KAVL AVL20161114080010711/14/16 08:00:31  5-MIN KAVL 141300Z 01005KT 3SM FU CLR 03/M01 A3012 1980 75 1000 010/05 RMK AO2 T00281011
03812KAVL AVL20161114080510711/14/16 08:05:31  5-MIN KAVL 141305Z 36007KT 3SM FU CLR 03/M01 A3012 1980 72 1100 010/07 RMK AO2 T00331011
03812KAVL AVL20161114081010711/14/16 08:10:31  5-MIN KAVL 141310Z 36006KT 3SM FU CLR 03/M01 A3012 1980 72 1100 010/06 RMK AO2 T00331011
03812KAVL AVL20161114081510711/14/16 08:15:31  5-MIN KAVL 141315Z 36006KT 3SM FU CLR 04/M01 A3012 1980 70 1200 010/06 RMK AO2 T00391011
03812KAVL AVL20161114082010711/14/16 08:20:31  5-MIN KAVL 141320Z 35004KT 3SM FU CLR 04/M01 A3012 1980 73 1200 350/04 RMK AO2 T00391006
03812KAVL AVL20161114082510711/14/16 08:25:31  5-MIN KAVL 141325Z 33007KT 3SM FU CLR 04/M01 A3012 1980 70 1200 340/07 RMK AO2 T00441006
03812KAVL AVL20161114083010611/14/16 08:30:31  5-MIN KAVL 141330Z 32008KT 4SM FU CLR 04/00 A3013 1980 73 1200 330/08 RMK AO2 T00440000
03812KAVL AVL20161114083510611/14/16 08:35:31  5-MIN KAVL 141335Z 33008KT 4SM FU CLR 05/00 A3012 1980 70 1300 340/08 RMK AO2 T00500000
03812KAVL AVL20161114084010611/14/16 08:40:31  5-MIN KAVL 141340Z 33006KT 4SM FU CLR 05/00 A3012 1980 70 1300 330/06 RMK AO2 T00500000
03812KAVL AVL20161114084510611/14/16 08:45:31  5-MIN KAVL 141345Z 34005KT 4SM FU CLR 06/00 A3012 1980 67 1400 340/05 RMK AO2 T00560000
03812KAVL AVL20161114085011311/14/16 08:50:31  5-MIN KAVL 141350Z 33005KT 4SM FU CLR 06/00 A3012 1980 65 1400 340/05 RMK AO2 SLP200 T00610000
03812KAVL AVL20161114085510611/14/16 08:55:31  5-MIN KAVL 141355Z 34006KT 4SM FU CLR 07/00 A3012 1980 62 1500 350/06 RMK AO2 T00670000
03812KAVL AVL20161114090010711/14/16 09:00:31  5-MIN KAVL 141400Z 35007KT 4SM FU CLR 07/M01 A3012 1980 60 1500 360/07 RMK AO2 T00671006
03812KAVL AVL20161114090510711/14/16 09:05:31  5-MIN KAVL 141405Z 35007KT 4SM FU CLR 07/M01 A3012 1980 57 1600 350/07 RMK AO2 T00721006
03812KAVL AVL20161114091010711/14/16 09:10:31  5-MIN KAVL 141410Z 35005KT 3SM FU CLR 07/M01 A3012 1980 57 1600 360/05 RMK AO2 T00721006
03812KAVL AVL20161114091510711/14/16 09:15:31  5-MIN KAVL 141415Z 35006KT 3SM FU CLR 08/M01 A3012 1980 55 1600 350/06 RMK AO2 T00781006
03812KAVL AVL20161114092010711/14/16 09:20:31  5-MIN KAVL 141420Z 35005KT 3SM FU CLR 08/M01 A3012 1990 53 1700 360/05 RMK AO2 T00831006
03812KAVL AVL20161114092510711/14/16 09:25:31  5-MIN KAVL 141425Z 35005KT 3SM FU CLR 08/M01 A3012 1990 53 1700 350/05 RMK AO2 T00831006
03812KAVL AVL20161114093010711/14/16 09:30:31  5-MIN KAVL 141430Z 35007KT 3SM FU CLR 09/M01 A3012 1990 51 1800 360/07 RMK AO2 T00891006
03812KAVL AVL20161114093510711/14/16 09:35:31  5-MIN KAVL 141435Z 36005KT 3SM FU CLR 09/M01 A3012 1980 49 1800 010/05 RMK AO2 T00941006
03812KAVL AVL20161114094010711/14/16 09:40:31  5-MIN KAVL 141440Z 36006KT 3SM FU CLR 09/M01 A3012 1980 49 1800 010/06 RMK AO2 T00941006
03812KAVL AVL20161114094510711/14/16 09:45:31  5-MIN KAVL 141445Z 36007KT 3SM FU CLR 10/M01 A3012 1990 47 1900 010/07 RMK AO2 T01001006
03812KAVL AVL20161114095012011/14/16 09:50:31  5-MIN KAVL 141450Z 36007KT 3SM FU CLR 10/M01 A3011 1990 47 1900 360/07 RMK AO2 SLP194 T01001006 55000
03812KAVL AVL20161114095510711/14/16 09:55:31  5-MIN KAVL 141455Z 36007KT 3SM FU CLR 11/M01 A3011 1990 46 2000 010/07 RMK AO2 T01061006
03812KAVL AVL20161114100010711/14/16 10:00:31  5-MIN KAVL 141500Z 36007KT 3SM FU CLR 11/M01 A3011 1990 46 2000 010/07 RMK AO2 T01061006
03812KAVL AVL20161114100510711/14/16 10:05:31  5-MIN KAVL 141505Z 36008KT 3SM FU CLR 11/M01 A3011 1990 44 2000 360/08 RMK AO2 T01111006
03812KAVL AVL20161114101010711/14/16 10:10:31  5-MIN KAVL 141510Z 01009KT 3SM FU CLR 11/M01 A3011 1990 44 2000 010/09 RMK AO2 T01111006
03812KAVL AVL20161114101510711/14/16 10:15:31  5-MIN KAVL 141515Z 01007KT 3SM FU CLR 12/M01 A3010 2000 42 2100 010/07 RMK AO2 T01171006
03812KAVL AVL20161114102010711/14/16 10:20:31  5-MIN KAVL 141520Z 01006KT 3SM FU CLR 12/M01 A3011 2000 41 2200 020/06 RMK AO2 T01221006
03812KAVL AVL20161114102510711/14/16 10:25:31  5-MIN KAVL 141525Z 36006KT 3SM FU CLR 12/M01 A3011 2000 41 2200 010/06 RMK AO2 T01221006
03812KAVL AVL20161114103010711/14/16 10:30:31  5-MIN KAVL 141530Z 35008KT 4SM FU CLR 13/M01 A3010 2000 39 2200 350/08 RMK AO2 T01281006
03812KAVL AVL20161114103510711/14/16 10:35:31  5-MIN KAVL 141535Z 35007KT 4SM FU CLR 13/M01 A3011 2000 39 2200 360/07 RMK AO2 T01281006
03812KAVL AVL20161114104010711/14/16 10:40:31  5-MIN KAVL 141540Z 34013KT 4SM FU CLR 13/M01 A3010 2000 38 2300 340/13 RMK AO2 T01331006
03812KAVL AVL20161114104510711/14/16 10:45:31  5-MIN KAVL 141545Z 35009KT 4SM FU CLR 13/M01 A3010 2000 38 2300 360/09 RMK AO2 T01331006
03812KAVL AVL20161114105012011/14/16 10:50:31  5-MIN KAVL 141550Z 34011G16KT 5SM FU CLR 13/M01 A3010 2010 38 2300 350/11G16 RMK AO2 SLP188 T01331006
03812KAVL AVL20161114105511311/14/16 10:55:31  5-MIN KAVL 141555Z 34011G16KT 5SM FU CLR 14/M01 A3010 2000 37 2400 340/11G16 RMK AO2 T01391006
03812KAVL AVL20161114110010711/14/16 11:00:31  5-MIN KAVL 141600Z 34014KT 5SM FU CLR 14/M01 A3009 2010 37 2400 350/14 RMK AO2 T01391006
03812KAVL AVL20161114110510711/14/16 11:05:31  5-MIN KAVL 141605Z 34013KT 5SM FU CLR 14/M01 A3009 2010 35 2400 350/13 RMK AO2 T01391011
03812KAVL AVL20161114111010711/14/16 11:10:31  5-MIN KAVL 141610Z 35011KT 5SM FU CLR 14/M01 A3009 2010 35 2400 350/11 RMK AO2 T01391011
03812KAVL AVL20161114111510711/14/16 11:15:31  5-MIN KAVL 141615Z 34012KT 5SM FU CLR 14/M01 A3009 2010 35 2400 340/12 RMK AO2 T01391011
03812KAVL AVL20161114112010711/14/16 11:20:31  5-MIN KAVL 141620Z 34013KT 5SM FU CLR 14/M01 A3008 2020 34 2500 340/13 RMK AO2 T01441011
03812KAVL AVL20161114112510711/14/16 11:25:31  5-MIN KAVL 141625Z 33011KT 6SM FU CLR 14/M01 A3008 2020 34 2500 340/11 RMK AO2 T01441011
03812KAVL AVL20161114113010711/14/16 11:30:31  5-MIN KAVL 141630Z 36011KT 6SM FU CLR 15/M01 A3008 2020 33 2500 360/11 RMK AO2 T01501011
03812KAVL AVL20161114113510711/14/16 11:35:31  5-MIN KAVL 141635Z 35010KT 7SM FU CLR 14/M02 A3007 2030 33 2500 360/10 RMK AO2 T01441017
03812KAVL AVL20161114114011311/14/16 11:40:31  5-MIN KAVL 141640Z 34013G17KT 8SM FU CLR 15/M02 A3007 2030 31 2500 340/13G17 RMK AO2 T01501017
03812KAVL AVL20161114114511311/14/16 11:45:31  5-MIN KAVL 141645Z 33013G17KT 8SM FU CLR 15/M02 A3007 2030 31 2500 340/13G17 RMK AO2 T01501017
03812KAVL AVL20161114115011411/14/16 11:50:31  5-MIN KAVL 141650Z 34013KT 8SM FU CLR 15/M02 A3006 2040 31 2500 340/13 RMK AO2 SLP175 T01501017
03812KAVL AVL20161114115510711/14/16 11:55:31  5-MIN KAVL 141655Z 33012KT 8SM FU CLR 15/M02 A3006 2040 31 2600 330/12 RMK AO2 T01501017
03812KAVL AVL20161114120010711/14/16 12:00:31  5-MIN KAVL 141700Z 35012KT 8SM FU CLR 16/M01 A3005 2040 31 2600 350/12 RMK AO2 T01561011
03812KAVL AVL20161114120511311/14/16 12:05:31  5-MIN KAVL 141705Z 35012G18KT 8SM FU CLR 16/M01 A3005 2050 31 2600 360/12G18 RMK AO2 T01561011
03812KAVL AVL20161114121011311/14/16 12:10:31  5-MIN KAVL 141710Z 35010G18KT 8SM FU CLR 16/M01 A3005 2050 31 2600 350/10G18 RMK AO2 T01561011
03812KAVL AVL20161114121510711/14/16 12:15:31  5-MIN KAVL 141715Z 34010KT 8SM FU CLR 16/M01 A3005 2050 31 2600 340/10 RMK AO2 T01561011
03812KAVL AVL20161114122010711/14/16 12:20:31  5-MIN KAVL 141720Z 32011KT 8SM FU CLR 16/M01 A3004 2050 31 2600 330/11 RMK AO2 T01561011
03812KAVL AVL20161114122510711/14/16 12:25:31  5-MIN KAVL 141725Z 35011KT 8SM FU CLR 16/M01 A3004 2060 31 2600 350/11 RMK AO2 T01561011
03812KAVL AVL20161114123010711/14/16 12:30:31  5-MIN KAVL 141730Z 34010KT 8SM FU CLR 16/M01 A3004 2060 31 2600 350/10 RMK AO2 T01561011
03812KAVL AVL20161114123510711/14/16 12:35:31  5-MIN KAVL 141735Z 34009KT 8SM FU CLR 16/M01 A3004 2060 30 2700 350/09 RMK AO2 T01611011
03812KAVL AVL20161114124010711/14/16 12:40:31  5-MIN KAVL 141740Z 35011KT 8SM FU CLR 16/M01 A3003 2060 31 2600 360/11 RMK AO2 T01561011
03812KAVL AVL20161114124511311/14/16 12:45:31  5-MIN KAVL 141745Z 01007G16KT 8SM FU CLR 16/M01 A3003 2070 30 2700 010/07G16 RMK AO2 T01611011
03812KAVL AVL20161114125013211/14/16 12:50:31  5-MIN KAVL 141750Z 01010KT 8SM FU CLR 16/M01 A3003 2070 30 2700 010/10 RMK AO2 SLP164 T01611011 10161 20006 50001
03812KAVL AVL20161114125510711/14/16 12:55:31  5-MIN KAVL 141755Z 35009KT 8SM FU CLR 16/M01 A3002 2070 30 2700 360/09 RMK AO2 T01611011
03812KAVL AVL20161114130011311/14/16 13:00:31  5-MIN KAVL 141800Z 34011G17KT 8SM FU CLR 16/M01 A3002 2070 31 2700 350/11G17 RMK AO2 T01561011
03812KAVL AVL20161114130511311/14/16 13:05:31  5-MIN KAVL 141805Z 35008G17KT 8SM FU CLR 16/M01 A3002 2080 30 2700 360/08G17 RMK AO2 T01611011
03812KAVL AVL20161114131010711/14/16 13:10:31  5-MIN KAVL 141810Z 36009KT 8SM FU CLR 17/M01 A3002 2080 29 2800 360/09 RMK AO2 T01671011
03812KAVL AVL20161114131510711/14/16 13:15:31  5-MIN KAVL 141815Z 33011KT 7SM FU CLR 17/M01 A3001 2080 29 2800 330/11 RMK AO2 T01671011
03812KAVL AVL20161114132010711/14/16 13:20:31  5-MIN KAVL 141820Z 34007KT 8SM FU CLR 16/M01 A3001 2080 30 2700 350/07 RMK AO2 T01611011
03812KAVL AVL20161114132510711/14/16 13:25:31  5-MIN KAVL 141825Z 35008KT 8SM FU CLR 16/M01 A3001 2080 30 2700 350/08 RMK AO2 T01611011
03812KAVL AVL20161114133010711/14/16 13:30:31  5-MIN KAVL 141830Z 33010KT 8SM FU CLR 17/M01 A3001 2080 29 2800 340/10 RMK AO2 T01671011
03812KAVL AVL20161114133510711/14/16 13:35:31  5-MIN KAVL 141835Z 01004KT 8SM FU CLR 16/M01 A3001 2090 30 2700 020/04 RMK AO2 T01611011
03812KAVL AVL20161114134010711/14/16 13:40:31  5-MIN KAVL 141840Z 33007KT 7SM FU CLR 17/M01 A3001 2090 29 2800 340/07 RMK AO2 T01671011
03812KAVL AVL20161114134510711/14/16 13:45:31  5-MIN KAVL 141845Z 32008KT 7SM FU CLR 17/M01 A3000 2090 29 2800 320/08 RMK AO2 T01671011
03812KAVL AVL20161114135011411/14/16 13:50:31  5-MIN KAVL 141850Z 33008KT 7SM FU CLR 17/M01 A3000 2090 29 2800 330/08 RMK AO2 SLP154 T01671011
03812KAVL AVL20161114135510711/14/16 13:55:31  5-MIN KAVL 141855Z 34009KT 7SM FU CLR 17/M01 A3000 2090 29 2800 340/09 RMK AO2 T01671011
03812KAVL AVL20161114140010711/14/16 14:00:31  5-MIN KAVL 141900Z 32008KT 7SM FU CLR 17/M01 A3000 2090 29 2800 320/08 RMK AO2 T01671011
03812KAVL AVL20161114140510711/14/16 14:05:31  5-MIN KAVL 141905Z 00000KT 7SM FU CLR 17/M01 A3000 2100 29 2800 000/00 RMK AO2 T01671011
03812KAVL AVL20161114141010711/14/16 14:10:31  5-MIN KAVL 141910Z 33007KT 6SM FU CLR 17/M01 A2999 2100 29 2800 340/07 RMK AO2 T01671011
03812KAVL AVL20161114141510711/14/16 14:15:31  5-MIN KAVL 141915Z 32006KT 6SM FU CLR 17/M01 A2999 2100 29 2800 320/06 RMK AO2 T01671011
03812KAVL AVL20161114142010711/14/16 14:20:31  5-MIN KAVL 141920Z 34004KT 6SM FU CLR 17/M01 A2999 2100 29 2800 350/04 RMK AO2 T01671011
03812KAVL AVL20161114142510711/14/16 14:25:31  5-MIN KAVL 141925Z VRB05KT 6SM FU CLR 17/M01 A2999 2100 29 2800 VRB/05 RMK AO2 T01671011
03812KAVL AVL20161114143010711/14/16 14:30:31  5-MIN KAVL 141930Z 33005KT 6SM FU CLR 17/M01 A2999 2100 28 2900 340/05 RMK AO2 T01721011
03812KAVL AVL20161114143512311/14/16 14:35:31  5-MIN KAVL 141935Z 35007KT 320V040 6SM FU CLR 17/M01 A2999 2100 29 2900 350/07 330V050 RMK AO2 T01721006
03812KAVL AVL20161114144010711/14/16 14:40:31  5-MIN KAVL 141940Z 32007KT 6SM FU CLR 17/M01 A2999 2100 31 2800 330/07 RMK AO2 T01671006
03812KAVL AVL20161114144510711/14/16 14:45:31  5-MIN KAVL 141945Z 32005KT 6SM FU CLR 17/M01 A2999 2100 29 2800 330/05 RMK AO2 T01671011
03812KAVL AVL20161114145011411/14/16 14:50:31  5-MIN KAVL 141950Z VRB05KT 6SM FU CLR 17/M01 A2999 2110 31 2800 VRB/05 RMK AO2 SLP150 T01671006
03812KAVL AVL20161114145510711/14/16 14:55:31  5-MIN KAVL 141955Z 34006KT 6SM FU CLR 17/M01 A2999 2110 29 2800 350/06 RMK AO2 T01671011
03812KAVL AVL20161114150010711/14/16 15:00:31  5-MIN KAVL 142000Z 34004KT 6SM FU CLR 17/M01 A2999 2110 29 2800 350/04 RMK AO2 T01671011
03812KAVL AVL20161114150510711/14/16 15:05:31  5-MIN KAVL 142005Z 35004KT 6SM FU CLR 17/M01 A2999 2110 29 2800 350/04 RMK AO2 T01671011
03812KAVL AVL20161114151010711/14/16 15:10:31  5-MIN KAVL 142010Z 36004KT 6SM FU CLR 17/M01 A2998 2110 29 2800 360/04 RMK AO2 T01671011
03812KAVL AVL20161114151510711/14/16 15:15:31  5-MIN KAVL 142015Z 32005KT 6SM FU CLR 17/M01 A2998 2110 29 2800 330/05 RMK AO2 T01671011
03812KAVL AVL20161114152010711/14/16 15:20:31  5-MIN KAVL 142020Z 33006KT 6SM FU CLR 16/M01 A2998 2110 30 2800 340/06 RMK AO2 T01611011
03812KAVL AVL20161114152511211/14/16 15:25:31  5-MIN KAVL 142025Z AUTO VRB04KT 6SM FU CLR 16/M01 A2998 2110 30 2800 VRB/04 RMK AO2 T01611011
03812KAVL AVL20161114153011211/14/16 15:30:31  5-MIN KAVL 142030Z AUTO 33004KT 6SM FU CLR 16/M01 A2998 2110 30 2800 330/04 RMK AO2 T01611011
03812KAVL AVL20161114153511211/14/16 15:35:31  5-MIN KAVL 142035Z AUTO 32004KT 6SM FU CLR 16/M01 A2998 2110 32 2800 320/04 RMK AO2 T01611006
03812KAVL AVL20161114154011211/14/16 15:40:31  5-MIN KAVL 142040Z AUTO 32005KT 6SM FU CLR 16/M01 A2998 2110 32 2800 330/05 RMK AO2 T01611006
03812KAVL AVL20161114154511211/14/16 15:45:31  5-MIN KAVL 142045Z AUTO 33003KT 6SM FU CLR 16/M01 A2999 2110 32 2800 340/03 RMK AO2 T01611006
03812KAVL AVL20161114155012511/14/16 15:50:31  5-MIN KAVL 142050Z AUTO 33004KT 6SM FU CLR 16/M01 A2998 2110 32 2800 330/04 RMK AO2 SLP148 T01611006 58027
03812KAVL AVL20161114155511211/14/16 15:55:31  5-MIN KAVL 142055Z AUTO 32004KT 6SM FU CLR 16/M01 A2998 2110 33 2700 330/04 RMK AO2 T01561006
03812KAVL AVL20161114160011211/14/16 16:00:31  5-MIN KAVL 142100Z AUTO 31003KT 6SM FU CLR 16/M01 A2998 2110 33 2700 320/03 RMK AO2 T01561006
03812KAVL AVL20161114160511211/14/16 16:05:31  5-MIN KAVL 142105Z AUTO 34006KT 6SM FU CLR 16/M01 A2998 2110 32 2800 350/06 RMK AO2 T01611006
03812KAVL AVL20161114161011211/14/16 16:10:31  5-MIN KAVL 142110Z AUTO 32006KT 6SM FU CLR 16/M01 A2998 2110 33 2700 330/06 RMK AO2 T01561006
03812KAVL AVL20161114161511211/14/16 16:15:31  5-MIN KAVL 142115Z AUTO 33005KT 6SM FU CLR 16/M01 A2998 2110 33 2700 340/05 RMK AO2 T01561006
03812KAVL AVL20161114162011211/14/16 16:20:31  5-MIN KAVL 142120Z AUTO 34007KT 6SM FU CLR 16/M01 A2998 2110 33 2700 350/07 RMK AO2 T01561006
03812KAVL AVL20161114162511211/14/16 16:25:31  5-MIN KAVL 142125Z AUTO 33007KT 6SM FU CLR 16/M01 A2998 2110 33 2700 340/07 RMK AO2 T01561006
03812KAVL AVL20161114163011211/14/16 16:30:31  5-MIN KAVL 142130Z AUTO 34007KT 6SM FU CLR 16/M01 A2998 2110 33 2700 350/07 RMK AO2 T01561006
03812KAVL AVL20161114163510711/14/16 16:35:31  5-MIN KAVL 142135Z 34007KT 6SM FU CLR 16/M01 A2998 2110 33 2700 350/07 RMK AO2 T01561006
03812KAVL AVL20161114164010711/14/16 16:40:31  5-MIN KAVL 142140Z 34007KT 6SM FU CLR 15/M01 A2998 2120 34 2600 350/07 RMK AO2 T01501006
03812KAVL AVL20161114164510711/14/16 16:45:31  5-MIN KAVL 142145Z 34007KT 6SM FU CLR 15/M01 A2998 2120 34 2600 350/07 RMK AO2 T01501006
03812KAVL AVL20161114165011411/14/16 16:50:31  5-MIN KAVL 142150Z 34007KT 6SM FU CLR 15/M01 A2998 2120 34 2600 340/07 RMK AO2 SLP145 T01501006
03812KAVL AVL20161114165510711/14/16 16:55:31  5-MIN KAVL 142155Z 34006KT 6SM FU CLR 15/M01 A2997 2120 34 2600 340/06 RMK AO2 T01501006
03812KAVL AVL20161114170010611/14/16 17:00:31  5-MIN KAVL 142200Z 34005KT 6SM FU CLR 14/00 A2997 2120 37 2600 340/05 RMK AO2 T01440000
03812KAVL AVL20161114170510611/14/16 17:05:31  5-MIN KAVL 142205Z 35005KT 6SM FU CLR 14/00 A2997 2120 37 2600 360/05 RMK AO2 T01440000
03812KAVL AVL20161114171010711/14/16 17:10:31  5-MIN KAVL 142210Z 34006KT 6SM FU CLR 14/M01 A2997 2120 35 2600 340/06 RMK AO2 T01441006
03812KAVL AVL20161114171510711/14/16 17:15:31  5-MIN KAVL 142215Z 34006KT 6SM FU CLR 14/M01 A2997 2120 37 2500 340/06 RMK AO2 T01391006
03812KAVL AVL20161114172010611/14/16 17:20:31  5-MIN KAVL 142220Z 34006KT 6SM FU CLR 14/00 A2998 2120 38 2500 350/06 RMK AO2 T01390000
03812KAVL AVL20161114172510711/14/16 17:25:31  5-MIN KAVL 142225Z 35005KT 6SM FU CLR 14/M01 A2998 2120 37 2500 360/05 RMK AO2 T01391006
03812KAVL AVL20161114173010711/14/16 17:30:31  5-MIN KAVL 142230Z 34009KT 6SM FU CLR 14/M01 A2998 2110 37 2500 350/09 RMK AO2 T01391006
03812KAVL AVL20161114173510711/14/16 17:35:31  5-MIN KAVL 142235Z 34008KT 6SM FU CLR 14/M01 A2998 2110 37 2500 350/08 RMK AO2 T01391006
03812KAVL AVL20161114174010711/14/16 17:40:31  5-MIN KAVL 142240Z 35008KT 6SM FU CLR 14/M01 A2998 2110 37 2500 350/08 RMK AO2 T01391006
03812KAVL AVL20161114174510711/14/16 17:45:31  5-MIN KAVL 142245Z 35008KT 6SM FU CLR 14/M01 A2998 2110 37 2500 350/08 RMK AO2 T01391006
03812KAVL AVL20161114175011411/14/16 17:50:31  5-MIN KAVL 142250Z 34009KT 6SM FU CLR 13/M01 A2998 2110 38 2400 340/09 RMK AO2 SLP150 T01331006
03812KAVL AVL20161114175510711/14/16 17:55:31  5-MIN KAVL 142255Z 33008KT 6SM FU CLR 13/M01 A2998 2110 39 2400 340/08 RMK AO2 T01281006
03812KAVL AVL20161114180010711/14/16 18:00:31  5-MIN KAVL 142300Z 35008KT 6SM FU CLR 13/M01 A2999 2110 39 2400 350/08 RMK AO2 T01281006
03812KAVL AVL20161114180510711/14/16 18:05:31  5-MIN KAVL 142305Z 34008KT 6SM FU CLR 13/M01 A2999 2110 39 2400 350/08 RMK AO2 T01281006
03812KAVL AVL20161114181010711/14/16 18:10:31  5-MIN KAVL 142310Z 34008KT 5SM FU CLR 12/M01 A2999 2100 41 2300 340/08 RMK AO2 T01221006
03812KAVL AVL20161114181510711/14/16 18:15:31  5-MIN KAVL 142315Z 34008KT 5SM FU CLR 12/M01 A2999 2100 42 2200 350/08 RMK AO2 T01171006
03812KAVL AVL20161114182010711/14/16 18:20:31  5-MIN KAVL 142320Z 34009KT 5SM FU CLR 12/M01 A2999 2100 42 2200 340/09 RMK AO2 T01171006
03812KAVL AVL20161114182510711/14/16 18:25:31  5-MIN KAVL 142325Z 34009KT 5SM FU CLR 12/M01 A3000 2100 42 2200 340/09 RMK AO2 T01171006
03812KAVL AVL20161114183010611/14/16 18:30:31  5-MIN KAVL 142330Z 33007KT 5SM FU CLR 11/00 A3000 2100 46 2200 330/07 RMK AO2 T01110000
03812KAVL AVL20161114183510611/14/16 18:35:31  5-MIN KAVL 142335Z 33008KT 5SM FU CLR 11/00 A3000 2100 48 2100 340/08 RMK AO2 T01060000
03812KAVL AVL20161114184010611/14/16 18:40:31  5-MIN KAVL 142340Z 33007KT 5SM FU CLR 11/00 A3000 2100 48 2100 340/07 RMK AO2 T01060000
03812KAVL AVL20161114184510611/14/16 18:45:31  5-MIN KAVL 142345Z 33008KT 5SM FU CLR 11/00 A3000 2100 48 2100 330/08 RMK AO2 T01060000
03812KAVL AVL20161114185013111/14/16 18:50:31  5-MIN KAVL 142350Z 32008KT 5SM FU CLR 11/00 A3000 2090 48 2100 330/08 RMK AO2 SLP159 T01060000 10172 20106 56013
03812KAVL AVL20161114185510611/14/16 18:55:31  5-MIN KAVL 142355Z 33007KT 5SM FU CLR 10/00 A3000 2090 49 2000 330/07 RMK AO2 T01000000
03812KAVL AVL20161114190010611/14/16 19:00:31  5-MIN KAVL 150000Z 32007KT 5SM FU CLR 10/00 A3000 2090 49 2000 330/07 RMK AO2 T01000000
03812KAVL AVL20161114190510611/14/16 19:05:31  5-MIN KAVL 150005Z 32007KT 5SM FU CLR 09/00 A3000 2090 51 2000 330/07 RMK AO2 T00940000
03812KAVL AVL20161114191010611/14/16 19:10:31  5-MIN KAVL 150010Z 33006KT 5SM FU CLR 10/00 A3001 2090 49 2000 330/06 RMK AO2 T01000000
03812KAVL AVL20161114191510611/14/16 19:15:31  5-MIN KAVL 150015Z 32007KT 5SM FU CLR 10/00 A3001 2090 49 2000 330/07 RMK AO2 T01000000
03812KAVL AVL20161114192010611/14/16 19:20:31  5-MIN KAVL 150020Z 32006KT 5SM FU CLR 10/00 A3001 2090 49 2000 330/06 RMK AO2 T01000000
03812KAVL AVL20161114192510611/14/16 19:25:31  5-MIN KAVL 150025Z 33007KT 5SM FU CLR 09/00 A3001 2090 51 2000 330/07 RMK AO2 T00940000
03812KAVL AVL20161114193010611/14/16 19:30:31  5-MIN KAVL 150030Z 32007KT 5SM FU CLR 09/00 A3001 2090 51 2000 330/07 RMK AO2 T00940000
03812KAVL AVL20161114193510611/14/16 19:35:31  5-MIN KAVL 150035Z 32007KT 5SM FU CLR 09/00 A3001 2090 51 2000 330/07 RMK AO2 T00940000
03812KAVL AVL20161114194010611/14/16 19:40:31  5-MIN KAVL 150040Z 33006KT 5SM FU CLR 09/00 A3001 2090 51 2000 330/06 RMK AO2 T00940000
03812KAVL AVL20161114194510611/14/16 19:45:31  5-MIN KAVL 150045Z 33005KT 5SM FU CLR 09/00 A3001 2090 53 1900 330/05 RMK AO2 T00890000
03812KAVL AVL20161114195011311/14/16 19:50:31  5-MIN KAVL 150050Z 34004KT 5SM FU CLR 09/00 A3001 2090 53 1900 350/04 RMK AO2 SLP162 T00890000
03812KAVL AVL20161114195510611/14/16 19:55:31  5-MIN KAVL 150055Z 35004KT 5SM FU CLR 09/00 A3001 2090 51 2000 360/04 RMK AO2 T00940000
03812KAVL AVL20161114200010611/14/16 20:00:31  5-MIN KAVL 150100Z 36004KT 5SM FU CLR 09/00 A3001 2090 51 2000 010/04 RMK AO2 T00940000
03812KAVL AVL20161114200510611/14/16 20:05:31  5-MIN KAVL 150105Z 36004KT 5SM FU CLR 09/00 A3001 2090 51 2000 360/04 RMK AO2 T00940000
03812KAVL AVL20161114201010611/14/16 20:10:31  5-MIN KAVL 150110Z 35005KT 5SM FU CLR 09/00 A3001 2090 51 2000 360/05 RMK AO2 T00940000
03812KAVL AVL20161114201510611/14/16 20:15:31  5-MIN KAVL 150115Z 35004KT 5SM FU CLR 09/00 A3001 2090 51 2000 350/04 RMK AO2 T00940000
03812KAVL AVL20161114202010611/14/16 20:20:31  5-MIN KAVL 150120Z 35004KT 5SM FU CLR 09/00 A3001 2090 51 2000 350/04 RMK AO2 T00940000
03812KAVL AVL20161114202510611/14/16 20:25:31  5-MIN KAVL 150125Z 35004KT 5SM FU CLR 09/00 A3001 2090 53 1900 350/04 RMK AO2 T00890000
03812KAVL AVL20161114203010611/14/16 20:30:31  5-MIN KAVL 150130Z 34004KT 5SM FU CLR 09/00 A3001 2090 53 1900 350/04 RMK AO2 T00890000
03812KAVL AVL20161114203510611/14/16 20:35:31  5-MIN KAVL 150135Z 36003KT 5SM FU CLR 09/00 A3001 2080 53 1900 360/03 RMK AO2 T00890000
03812KAVL AVL20161114204010611/14/16 20:40:31  5-MIN KAVL 150140Z 01003KT 5SM FU CLR 09/00 A3001 2090 53 1900 010/03 RMK AO2 T00890000
03812KAVL AVL20161114204510611/14/16 20:45:31  5-MIN KAVL 150145Z 36004KT 5SM FU CLR 09/00 A3001 2090 53 1900 360/04 RMK AO2 T00890000
03812KAVL AVL20161114205011311/14/16 20:50:31  5-MIN KAVL 150150Z 01003KT 5SM FU CLR 09/00 A3001 2080 53 1900 010/03 RMK AO2 SLP160 T00890000
03812KAVL AVL20161114205510611/14/16 20:55:31  5-MIN KAVL 150155Z 01003KT 5SM FU CLR 09/00 A3001 2080 53 1900 010/03 RMK AO2 T00890000
03812KAVL AVL20161114210010611/14/16 21:00:31  5-MIN KAVL 150200Z 36004KT 5SM FU CLR 09/00 A3001 2080 53 1900 360/04 RMK AO2 T00890000
03812KAVL AVL20161114210510611/14/16 21:05:31  5-MIN KAVL 150205Z 36004KT 5SM FU CLR 09/00 A3001 2080 53 1900 360/04 RMK AO2 T00890000
03812KAVL AVL20161114211010611/14/16 21:10:31  5-MIN KAVL 150210Z 35004KT 5SM FU CLR 08/00 A3001 2080 55 1800 360/04 RMK AO2 T00830000
03812KAVL AVL20161114211510611/14/16 21:15:31  5-MIN KAVL 150215Z 35004KT 6SM FU CLR 08/00 A3002 2080 58 1700 360/04 RMK AO2 T00780000
03812KAVL AVL20161114212010611/14/16 21:20:31  5-MIN KAVL 150220Z 35005KT 6SM FU CLR 08/00 A3002 2080 58 1700 350/05 RMK AO2 T00780000
03812KAVL AVL20161114212510611/14/16 21:25:31  5-MIN KAVL 150225Z 35005KT 6SM FU CLR 08/00 A3002 2080 58 1700 350/05 RMK AO2 T00780000
03812KAVL AVL20161114213010611/14/16 21:30:31  5-MIN KAVL 150230Z 36005KT 6SM FU CLR 08/00 A3002 2080 55 1800 010/05 RMK AO2 T00830000
03812KAVL AVL20161114213510611/14/16 21:35:31  5-MIN KAVL 150235Z 36004KT 6SM FU CLR 09/00 A3001 2080 53 1900 010/04 RMK AO2 T00890000
03812KAVL AVL20161114214010611/14/16 21:40:31  5-MIN KAVL 150240Z 36004KT 6SM FU CLR 08/00 A3001 2080 55 1800 360/04 RMK AO2 T00830000
03812KAVL AVL20161114214510611/14/16 21:45:31  5-MIN KAVL 150245Z 35004KT 6SM FU CLR 08/00 A3001 2080 55 1800 350/04 RMK AO2 T00830000
03812KAVL AVL20161114215011911/14/16 21:50:31  5-MIN KAVL 150250Z 00000KT 6SM FU CLR 07/00 A3002 2080 60 1700 000/00 RMK AO2 SLP159 T00720000 53005
03812KAVL AVL20161114215510611/14/16 21:55:31  5-MIN KAVL 150255Z 00000KT 6SM FU CLR 07/00 A3002 2080 60 1700 000/00 RMK AO2 T00720000
03812KAVL AVL20161114220010611/14/16 22:00:31  5-MIN KAVL 150300Z 00000KT 5SM FU CLR 06/00 A3002 2080 67 1500 000/00 RMK AO2 T00560000
03812KAVL AVL20161114220510611/14/16 22:05:31  5-MIN KAVL 150305Z 00000KT 5SM FU CLR 05/00 A3002 2080 70 1400 000/00 RMK AO2 T00500000
03812KAVL AVL20161114221010611/14/16 22:10:31  5-MIN KAVL 150310Z 00000KT 5SM FU CLR 06/00 A3002 2080 67 1500 000/00 RMK AO2 T00560000
03812KAVL AVL20161114221510611/14/16 22:15:31  5-MIN KAVL 150315Z 00000KT 5SM FU CLR 06/00 A3002 2080 67 1500 000/00 RMK AO2 T00560000
03812KAVL AVL20161114222010611/14/16 22:20:31  5-MIN KAVL 150320Z 00000KT 5SM FU CLR 06/00 A3002 2080 67 1500 000/00 RMK AO2 T00560000
03812KAVL AVL20161114222510611/14/16 22:25:31  5-MIN KAVL 150325Z 00000KT 5SM FU CLR 06/00 A3002 2080 65 1500 000/00 RMK AO2 T00610000
03812KAVL AVL20161114223010611/14/16 22:30:31  5-MIN KAVL 150330Z 00000KT 5SM FU CLR 07/00 A3002 2080 60 1700 000/00 RMK AO2 T00720000
03812KAVL AVL20161114223510611/14/16 22:35:31  5-MIN KAVL 150335Z 00000KT 6SM FU CLR 07/00 A3002 2080 62 1600 000/00 RMK AO2 T00670000
03812KAVL AVL20161114224010611/14/16 22:40:31  5-MIN KAVL 150340Z 00000KT 5SM FU CLR 06/00 A3002 2080 65 1500 000/00 RMK AO2 T00610000
03812KAVL AVL20161114224510611/14/16 22:45:31  5-MIN KAVL 150345Z 00000KT 5SM FU CLR 06/00 A3002 2080 67 1500 000/00 RMK AO2 T00560000
03812KAVL AVL20161114225011311/14/16 22:50:31  5-MIN KAVL 150350Z 00000KT 5SM FU CLR 05/00 A3002 2080 70 1400 000/00 RMK AO2 SLP158 T00500000
03812KAVL AVL20161114225511111/14/16 22:55:31  5-MIN KAVL 150355Z AUTO 00000KT 5SM HZ CLR 06/00 A3002 2080 67 1500 000/00 RMK AO2 T00560000
03812KAVL AVL20161114230011111/14/16 23:00:31  5-MIN KAVL 150400Z AUTO 00000KT 5SM HZ CLR 05/00 A3002 2080 70 1400 000/00 RMK AO2 T00500000
03812KAVL AVL20161114230511111/14/16 23:05:31  5-MIN KAVL 150405Z AUTO 00000KT 5SM HZ CLR 04/00 A3002 2080 73 1300 000/00 RMK AO2 T00440000
03812KAVL AVL20161114231011111/14/16 23:10:31  5-MIN KAVL 150410Z AUTO 00000KT 5SM HZ CLR 04/00 A3002 2080 73 1300 000/00 RMK AO2 T00440000
03812KAVL AVL20161114231511111/14/16 23:15:31  5-MIN KAVL 150415Z AUTO 00000KT 5SM HZ CLR 05/00 A3002 2080 70 1400 000/00 RMK AO2 T00500000
03812KAVL AVL20161114232011111/14/16 23:20:31  5-MIN KAVL 150420Z AUTO 00000KT 5SM HZ CLR 04/00 A3002 2080 73 1300 000/00 RMK AO2 T00440000
03812KAVL AVL20161114232511111/14/16 23:25:31  5-MIN KAVL 150425Z AUTO 00000KT 5SM HZ CLR 04/00 A3002 2080 73 1300 000/00 RMK AO2 T00440000
03812KAVL AVL20161114233011111/14/16 23:30:31  5-MIN KAVL 150430Z AUTO 00000KT 5SM HZ CLR 03/00 A3002 2080 79 1200 000/00 RMK AO2 T00330000
03812KAVL AVL20161114233511111/14/16 23:35:31  5-MIN KAVL 150435Z AUTO 00000KT 5SM HZ CLR 03/00 A3001 2080 79 1200 000/00 RMK AO2 T00330000
03812KAVL AVL20161114234011111/14/16 23:40:31  5-MIN KAVL 150440Z AUTO 18003KT 5SM HZ CLR 03/00 A3002 2080 79 1200 190/03 RMK AO2 T00330000
03812KAVL AVL20161114234511111/14/16 23:45:31  5-MIN KAVL 150445Z AUTO 19003KT 5SM HZ CLR 03/00 A3002 2080 79 1200 190/03 RMK AO2 T00330000
03812KAVL AVL20161114235012811/14/16 23:50:31  5-MIN KAVL 150450Z AUTO 00000KT 5SM HZ CLR 03/00 A3002 2080 79 1200 000/00 RMK AO2 SLP158 T00330000 401720000
03812KAVL AVL20161114235511211/14/16 23:55:31  5-MIN KAVL 150455Z AUTO 00000KT 5SM HZ CLR 03/M01 A3001 2080 76 1200 000/00 RMK AO2 T00331006
03812KAVL AVL20161115000011111/15/16 00:00:31  5-MIN KAVL 150500Z AUTO 00000KT 5SM HZ CLR 03/00 A3001 2080 79 1200 000/00 RMK AO2 T00330000
03812KAVL AVL20161115000511211/15/16 00:05:31  5-MIN KAVL 150505Z AUTO 00000KT 5SM HZ CLR 03/M01 A3001 2080 79 1100 000/00 RMK AO2 T00281006
03812KAVL AVL20161115001011211/15/16 00:10:31  5-MIN KAVL 150510Z AUTO 00000KT 5SM HZ CLR 03/M01 A3001 2080 76 1200 000/00 RMK AO2 T00331006
03812KAVL AVL20161115001511211/15/16 00:15:31  5-MIN KAVL 150515Z AUTO 00000KT 5SM HZ CLR 03/M01 A3001 2090 79 1100 000/00 RMK AO2 T00281006
03812KAVL AVL20161115002011211/15/16 00:20:31  5-MIN KAVL 150520Z AUTO 00000KT 5SM HZ CLR 03/M01 A3001 2090 79 1200 000/00 RMK AO2 T00281006
03812KAVL AVL20161115002511211/15/16 00:25:31  5-MIN KAVL 150525Z AUTO 00000KT 5SM HZ CLR 03/M01 A3001 2090 75 1200 000/00 RMK AO2 T00281011
03812KAVL AVL20161115003011211/15/16 00:30:31  5-MIN KAVL 150530Z AUTO 00000KT 5SM HZ CLR 03/M01 A3001 2090 79 1200 000/00 RMK AO2 T00281006
03812KAVL AVL20161115003511211/15/16 00:35:31  5-MIN KAVL 150535Z AUTO 00000KT 5SM HZ CLR 03/M01 A3001 2090 76 1200 000/00 RMK AO2 T00331006
03812KAVL AVL20161115004011211/15/16 00:40:31  5-MIN KAVL 150540Z AUTO 00000KT 5SM HZ CLR 03/M01 A3001 2090 76 1200 000/00 RMK AO2 T00331006
03812KAVL AVL20161115004511111/15/16 00:45:31  5-MIN KAVL 150545Z AUTO 31004KT 5SM HZ CLR 03/00 A3001 2090 79 1200 310/04 RMK AO2 T00330000
03812KAVL AVL20161115005013711/15/16 00:50:31  5-MIN KAVL 150550Z AUTO 32005KT 5SM HZ CLR 02/M01 A3001 2090 82 1100 330/05 RMK AO2 SLP156 T00221006 10100 20022 51005
03812KAVL AVL20161115005511111/15/16 00:55:31  5-MIN KAVL 150555Z AUTO 33006KT 5SM HZ CLR 03/00 A3001 2090 82 1200 330/06 RMK AO2 T00280000
03812KAVL AVL20161115010011211/15/16 01:00:31  5-MIN KAVL 150600Z AUTO 34006KT 5SM HZ CLR 03/M01 A3000 2090 79 1200 340/06 RMK AO2 T00281006
03812KAVL AVL20161115010511111/15/16 01:05:31  5-MIN KAVL 150605Z AUTO 35005KT 5SM HZ CLR 04/00 A3000 2090 76 1300 360/05 RMK AO2 T00390000
03812KAVL AVL20161115011011111/15/16 01:10:31  5-MIN KAVL 150610Z AUTO 35005KT 5SM HZ CLR 04/00 A3000 2100 76 1300 350/05 RMK AO2 T00390000
03812KAVL AVL20161115011511211/15/16 01:15:31  5-MIN KAVL 150615Z AUTO 35005KT 5SM HZ CLR 03/M01 A3000 2100 79 1200 350/05 RMK AO2 T00281006
03812KAVL AVL20161115012011211/15/16 01:20:31  5-MIN KAVL 150620Z AUTO 35003KT 5SM HZ CLR 02/M01 A3000 2100 82 1100 360/03 RMK AO2 T00221006
03812KAVL AVL20161115012511211/15/16 01:25:31  5-MIN KAVL 150625Z AUTO 00000KT 5SM HZ CLR 03/M01 A3000 2100 79 1200 000/00 RMK AO2 T00281006
03812KAVL AVL20161115013011211/15/16 01:30:31  5-MIN KAVL 150630Z AUTO 00000KT 5SM BR CLR 02/M01 A3000 2100 85 1000 000/00 RMK AO2 T00171006
03812KAVL AVL20161115013511211/15/16 01:35:31  5-MIN KAVL 150635Z AUTO 00000KT 4SM BR CLR 01/M01 A3000 2090 85 1000 000/00 RMK AO2 T00111011
03812KAVL AVL20161115014011111/15/16 01:40:31  5-MIN KAVL 150640Z AUTO 00000KT 4SM BR CLR 01/M01 A3000 2090 85 900 000/00 RMK AO2 T00111011
03812KAVL AVL20161115014511211/15/16 01:45:31  5-MIN KAVL 150645Z AUTO 00000KT 4SM BR CLR 01/M01 A3000 2090 85 1000 000/00 RMK AO2 T00111011
03812KAVL AVL20161115015011911/15/16 01:50:31  5-MIN KAVL 150650Z AUTO 17003KT 4SM BR CLR 01/M01 A3000 2090 85 1000 170/03 RMK AO2 SLP155 T00111011
03812KAVL AVL20161115015511211/15/16 01:55:31  5-MIN KAVL 150655Z AUTO 00000KT 4SM BR CLR 01/M01 A3000 2090 85 1000 000/00 RMK AO2 T00111011
03812KAVL AVL20161115020011211/15/16 02:00:31  5-MIN KAVL 150700Z AUTO 00000KT 4SM BR CLR 01/M01 A3000 2090 85 1000 000/00 RMK AO2 T00111011
03812KAVL AVL20161115020511211/15/16 02:05:31  5-MIN KAVL 150705Z AUTO 00000KT 4SM BR CLR 01/M01 A3000 2090 85 1000 000/00 RMK AO2 T00111011
03812KAVL AVL20161115021011111/15/16 02:10:31  5-MIN KAVL 150710Z AUTO 00000KT 4SM BR CLR 01/M01 A3000 2090 85 900 000/00 RMK AO2 T00111011
03812KAVL AVL20161115021511111/15/16 02:15:31  5-MIN KAVL 150715Z AUTO 00000KT 4SM HZ CLR 01/M02 A3001 2090 82 900 000/00 RMK AO2 T00111017
03812KAVL AVL20161115022011111/15/16 02:20:31  5-MIN KAVL 150720Z AUTO 00000KT 4SM HZ CLR 01/M02 A3001 2090 82 900 000/00 RMK AO2 T00111017
03812KAVL AVL20161115022511111/15/16 02:25:31  5-MIN KAVL 150725Z AUTO 00000KT 4SM HZ CLR 01/M02 A3001 2090 82 900 000/00 RMK AO2 T00111017
03812KAVL AVL20161115023011111/15/16 02:30:31  5-MIN KAVL 150730Z AUTO 00000KT 4SM BR CLR 01/M02 A3000 2090 85 900 000/00 RMK AO2 T00061017
03812KAVL AVL20161115023511111/15/16 02:35:31  5-MIN KAVL 150735Z AUTO 00000KT 4SM HZ CLR 01/M02 A3000 2090 82 900 000/00 RMK AO2 T00111017
03812KAVL AVL20161115024011111/15/16 02:40:31  5-MIN KAVL 150740Z AUTO 00000KT 4SM BR CLR 01/M01 A3000 2090 85 900 000/00 RMK AO2 T00111011
03812KAVL AVL20161115024511111/15/16 02:45:31  5-MIN KAVL 150745Z AUTO 22003KT 4SM BR CLR 01/M01 A3000 2090 85 900 230/03 RMK AO2 T00111011
03812KAVL AVL20161115025011811/15/16 02:50:31  5-MIN KAVL 150750Z AUTO 00000KT 4SM BR CLR 01/M02 A3000 2090 85 900 000/00 RMK AO2 SLP155 T00061017
03812KAVL AVL20161115025511111/15/16 02:55:31  5-MIN KAVL 150755Z AUTO 00000KT 3SM BR CLR 00/M02 A3000 2090 85 800 000/00 RMK AO2 T00001022
03812KAVL AVL20161115030011111/15/16 03:00:31  5-MIN KAVL 150800Z AUTO 00000KT 3SM BR CLR 00/M02 A3000 2090 88 800 000/00 RMK AO2 T00001017
03812KAVL AVL20161115030511111/15/16 03:05:31  5-MIN KAVL 150805Z AUTO 00000KT 3SM BR CLR 00/M02 A3000 2090 88 800 000/00 RMK AO2 T00001017
03812KAVL AVL20161115031011111/15/16 03:10:31  5-MIN KAVL 150810Z AUTO 00000KT 4SM BR CLR 00/M02 A3000 2090 88 800 000/00 RMK AO2 T00001017
03812KAVL AVL20161115031511111/15/16 03:15:31  5-MIN KAVL 150815Z AUTO 00000KT 4SM BR CLR 00/M02 A3000 2090 85 800 000/00 RMK AO2 T00001022
03812KAVL AVL20161115032011111/15/16 03:20:31  5-MIN KAVL 150820Z AUTO 00000KT 4SM BR CLR 00/M02 A3000 2090 85 800 000/00 RMK AO2 T00001022
03812KAVL AVL20161115032511111/15/16 03:25:31  5-MIN KAVL 150825Z AUTO 00000KT 4SM BR CLR 00/M02 A3000 2090 85 800 000/00 RMK AO2 T00001022
03812KAVL AVL20161115043507311/15/16 04:35:31  5-MIN KAVL 150935Z AUTO M M M M /M RMK AO2 RVRNO PNO $
03812KAVL AVL20161115044010811/15/16 04:40:31  5-MIN KAVL 150940Z AUTO 00000KT 01/M02 A3000 2090 85 900 000/00 RMK AO2 T00061017 RVRNO $
03812KAVL AVL20161115194510711/15/16 19:45:31  5-MIN KAVL 160045Z 32004KT 10SM HZ CLR 10/00 A2995 2140 49 2100 330/04 RMK AO2 T01000000
03812KAVL AVL20161115195011411/15/16 19:50:31  5-MIN KAVL 160050Z 31004KT 10SM HZ CLR 09/00 A2995 2140 53 2000 320/04 RMK AO2 SLP144 T00890000
03812KAVL AVL20161115195510711/15/16 19:55:31  5-MIN KAVL 160055Z 30005KT 10SM HZ CLR 09/00 A2995 2140 53 2000 310/05 RMK AO2 T00890000
03812KAVL AVL20161115200010711/15/16 20:00:31  5-MIN KAVL 160100Z 30004KT 10SM HZ CLR 08/01 A2995 2140 60 1800 300/04 RMK AO2 T00780006
03812KAVL AVL20161115200510711/15/16 20:05:31  5-MIN KAVL 160105Z 32004KT 10SM HZ CLR 08/00 A2995 2140 55 1900 330/04 RMK AO2 T00830000
03812KAVL AVL20161115201010711/15/16 20:10:31  5-MIN KAVL 160110Z 32004KT 10SM HZ CLR 08/00 A2995 2140 55 1900 330/04 RMK AO2 T00830000
03812KAVL AVL20161115201510711/15/16 20:15:31  5-MIN KAVL 160115Z 34003KT 10SM HZ CLR 09/00 A2995 2140 53 2000 350/03 RMK AO2 T00890000
03812KAVL AVL20161115202010711/15/16 20:20:31  5-MIN KAVL 160120Z 00000KT 10SM HZ CLR 09/00 A2995 2140 51 2000 000/00 RMK AO2 T00940000
03812KAVL AVL20161115202510711/15/16 20:25:31  5-MIN KAVL 160125Z 35003KT 10SM HZ CLR 09/00 A2995 2140 51 2000 350/03 RMK AO2 T00940000
03812KAVL AVL20161115203010711/15/16 20:30:31  5-MIN KAVL 160130Z 00000KT 10SM HZ CLR 09/00 A2996 2140 53 1900 000/00 RMK AO2 T00890000
03812KAVL AVL20161115203510711/15/16 20:35:31  5-MIN KAVL 160135Z 00000KT 10SM HZ CLR 08/00 A2996 2130 55 1900 000/00 RMK AO2 T00830000
03812KAVL AVL20161115204010711/15/16 20:40:31  5-MIN KAVL 160140Z 34003KT 10SM HZ CLR 09/00 A2996 2130 53 1900 350/03 RMK AO2 T00890000
03812KAVL AVL20161115204511011/15/16 20:45:31  5-MIN KAVL 160145Z 00000KT 10SM HZ FEW070 09/00 A2996 2130 53 1900 000/00 RMK AO2 T00890000
03812KAVL AVL20161115205011711/15/16 20:50:31  5-MIN KAVL 160150Z 00000KT 10SM HZ FEW070 08/00 A2996 2130 55 1900 000/00 RMK AO2 SLP146 T00830000
03812KAVL AVL20161115205511011/15/16 20:55:31  5-MIN KAVL 160155Z 00000KT 10SM HZ SCT070 09/00 A2996 2130 53 1900 000/00 RMK AO2 T00890000
03812KAVL AVL20161115210011011/15/16 21:00:31  5-MIN KAVL 160200Z 31003KT 10SM HZ BKN070 08/00 A2996 2130 58 1800 310/03 RMK AO2 T00780000
03812KAVL AVL20161115210511011/15/16 21:05:31  5-MIN KAVL 160205Z 32004KT 10SM HZ BKN070 08/00 A2997 2130 55 1900 330/04 RMK AO2 T00830000
03812KAVL AVL20161115211011011/15/16 21:10:31  5-MIN KAVL 160210Z 29004KT 10SM HZ BKN070 07/01 A2997 2120 62 1700 290/04 RMK AO2 T00720006
03812KAVL AVL20161115211511011/15/16 21:15:31  5-MIN KAVL 160215Z 32003KT 10SM HZ BKN065 07/01 A2997 2120 62 1700 320/03 RMK AO2 T00720006
03812KAVL AVL20161115212011711/15/16 21:20:31  5-MIN KAVL 160220Z 00000KT 10SM HZ FEW050 BKN065 07/00 A2997 2120 62 1700 000/00 RMK AO2 T00670000
03812KAVL AVL20161115212511711/15/16 21:25:31  5-MIN KAVL 160225Z 00000KT 10SM HZ SCT048 BKN065 07/01 A2997 2120 62 1700 000/00 RMK AO2 T00720006
03812KAVL AVL20161115213011711/15/16 21:30:31  5-MIN KAVL 160230Z 00000KT 10SM HZ SCT048 BKN065 07/00 A2997 2120 60 1700 000/00 RMK AO2 T00720000
03812KAVL AVL20161115213511711/15/16 21:35:31  5-MIN KAVL 160235Z 00000KT 10SM HZ FEW047 SCT065 06/00 A2997 2120 65 1600 000/00 RMK AO2 T00610000
03812KAVL AVL20161115214011711/15/16 21:40:31  5-MIN KAVL 160240Z 00000KT 10SM HZ FEW047 SCT065 06/00 A2997 2120 65 1600 000/00 RMK AO2 T00610000
03812KAVL AVL20161115214511011/15/16 21:45:31  5-MIN KAVL 160245Z 00000KT 10SM HZ FEW047 06/00 A2997 2120 65 1600 000/00 RMK AO2 T00610000
03812KAVL AVL20161115215012311/15/16 21:50:31  5-MIN KAVL 160250Z 00000KT 10SM HZ FEW047 07/00 A2998 2120 62 1700 000/00 RMK AO2 SLP149 T00670000 53011
03812KAVL AVL20161115215510711/15/16 21:55:31  5-MIN KAVL 160255Z 00000KT 10SM HZ CLR 07/00 A2998 2120 62 1700 000/00 RMK AO2 T00670000
03812KAVL AVL20161115220010711/15/16 22:00:31  5-MIN KAVL 160300Z 00000KT 10SM HZ CLR 06/00 A2998 2120 65 1600 000/00 RMK AO2 T00610000
03812KAVL AVL20161115220510711/15/16 22:05:31  5-MIN KAVL 160305Z 00000KT 10SM HZ CLR 06/01 A2998 2110 67 1600 000/00 RMK AO2 T00610006
03812KAVL AVL20161115221010711/15/16 22:10:31  5-MIN KAVL 160310Z 00000KT 10SM HZ CLR 06/00 A2998 2110 67 1500 000/00 RMK AO2 T00560000
03812KAVL AVL20161115221510711/15/16 22:15:31  5-MIN KAVL 160315Z 00000KT 10SM HZ CLR 06/01 A2998 2110 70 1500 000/00 RMK AO2 T00560006
03812KAVL AVL20161115222011011/15/16 22:20:31  5-MIN KAVL 160320Z 00000KT 10SM HZ FEW065 06/01 A2998 2110 70 1500 000/00 RMK AO2 T00560006
03812KAVL AVL20161115222511011/15/16 22:25:31  5-MIN KAVL 160325Z 00000KT 10SM HZ SCT065 06/01 A2998 2110 67 1600 000/00 RMK AO2 T00610006
03812KAVL AVL20161115223011011/15/16 22:30:31  5-MIN KAVL 160330Z 00000KT 10SM HZ SCT065 06/01 A2998 2110 70 1500 000/00 RMK AO2 T00560006
03812KAVL AVL20161115223511011/15/16 22:35:31  5-MIN KAVL 160335Z 00000KT 10SM HZ BKN065 06/01 A2998 2110 70 1500 000/00 RMK AO2 T00560006
03812KAVL AVL20161115224011011/15/16 22:40:31  5-MIN KAVL 160340Z 00000KT 10SM HZ BKN065 06/01 A2998 2110 70 1500 000/00 RMK AO2 T00560006
03812KAVL AVL20161115224511011/15/16 22:45:31  5-MIN KAVL 160345Z 00000KT 10SM HZ BKN065 06/01 A2998 2110 70 1500 000/00 RMK AO2 T00560006
03812KAVL AVL20161115225011711/15/16 22:50:31  5-MIN KAVL 160350Z 00000KT 10SM HZ BKN070 06/01 A2998 2110 70 1500 000/00 RMK AO2 SLP147 T00560006
03812KAVL AVL20161115225511011/15/16 22:55:31  5-MIN KAVL 160355Z 00000KT 10SM HZ BKN070 06/01 A2998 2120 70 1500 000/00 RMK AO2 T00560006
03812KAVL AVL20161115230011511/15/16 23:00:31  5-MIN KAVL 160400Z AUTO 00000KT 10SM HZ BKN070 06/01 A2998 2120 70 1500 000/00 RMK AO2 T00560006
03812KAVL AVL20161115230511511/15/16 23:05:31  5-MIN KAVL 160405Z AUTO 00000KT 10SM HZ BKN070 05/01 A2997 2120 73 1500 000/00 RMK AO2 T00500006
03812KAVL AVL20161115231011511/15/16 23:10:31  5-MIN KAVL 160410Z AUTO 00000KT 10SM HZ BKN070 05/01 A2997 2120 73 1500 000/00 RMK AO2 T00500006
03812KAVL AVL20161115231512211/15/16 23:15:31  5-MIN KAVL 160415Z AUTO 00000KT 10SM HZ FEW049 BKN070 06/01 A2997 2120 70 1500 000/00 RMK AO2 T00560006
03812KAVL AVL20161115232012211/15/16 23:20:31  5-MIN KAVL 160420Z AUTO 00000KT 10SM HZ FEW049 SCT070 05/01 A2997 2120 73 1500 000/00 RMK AO2 T00500006
03812KAVL AVL20161115232512211/15/16 23:25:31  5-MIN KAVL 160425Z AUTO 00000KT 10SM HZ FEW050 SCT070 05/01 A2997 2120 73 1500 000/00 RMK AO2 T00500006
03812KAVL AVL20161115233012211/15/16 23:30:31  5-MIN KAVL 160430Z AUTO 00000KT 10SM HZ FEW050 FEW065 05/01 A2997 2120 73 1500 000/00 RMK AO2 T00500006
03812KAVL AVL20161115233512211/15/16 23:35:31  5-MIN KAVL 160435Z AUTO 00000KT 10SM HZ FEW050 FEW070 04/01 A2997 2120 76 1400 000/00 RMK AO2 T00440006
03812KAVL AVL20161115234012211/15/16 23:40:31  5-MIN KAVL 160440Z AUTO 00000KT 10SM HZ FEW050 FEW065 04/01 A2997 2120 76 1400 000/00 RMK AO2 T00440006
03812KAVL AVL20161115234511211/15/16 23:45:31  5-MIN KAVL 160445Z AUTO 00000KT 10SM HZ CLR 04/01 A2997 2120 76 1400 000/00 RMK AO2 T00440006
03812KAVL AVL20161115235012911/15/16 23:50:31  5-MIN KAVL 160450Z AUTO 00000KT 10SM HZ CLR 04/01 A2997 2120 76 1400 000/00 RMK AO2 SLP143 T00440006 401671017
03812KAVL AVL20161115235511211/15/16 23:55:31  5-MIN KAVL 160455Z AUTO 00000KT 10SM HZ CLR 04/01 A2997 2120 79 1300 000/00 RMK AO2 T00390006
03812KAVL AVL20161116000011211/16/16 00:00:31  5-MIN KAVL 160500Z AUTO 00000KT 10SM HZ CLR 04/01 A2997 2120 76 1400 000/00 RMK AO2 T00440006
03812KAVL AVL20161116000511511/16/16 00:05:31  5-MIN KAVL 160505Z AUTO 00000KT 10SM HZ FEW055 04/01 A2997 2120 79 1300 000/00 RMK AO2 T00390006
03812KAVL AVL20161116001011511/16/16 00:10:31  5-MIN KAVL 160510Z AUTO 00000KT 10SM HZ FEW055 04/00 A2998 2120 76 1300 000/00 RMK AO2 T00390000
03812KAVL AVL20161116001512211/16/16 00:15:31  5-MIN KAVL 160515Z AUTO 00000KT 10SM HZ FEW039 SCT050 04/00 A2997 2120 76 1300 000/00 RMK AO2 T00390000
03812KAVL AVL20161116002012211/16/16 00:20:31  5-MIN KAVL 160520Z AUTO 00000KT 10SM HZ FEW039 SCT050 04/01 A2997 2120 79 1300 000/00 RMK AO2 T00390006
03812KAVL AVL20161116002512211/16/16 00:25:31  5-MIN KAVL 160525Z AUTO 00000KT 10SM HZ FEW040 SCT055 04/01 A2997 2120 79 1300 000/00 RMK AO2 T00390006
03812KAVL AVL20161116003012211/16/16 00:30:31  5-MIN KAVL 160530Z AUTO 00000KT 10SM HZ FEW040 SCT050 04/01 A2997 2120 79 1300 000/00 RMK AO2 T00390006
03812KAVL AVL20161116003512211/16/16 00:35:31  5-MIN KAVL 160535Z AUTO 00000KT 10SM HZ FEW040 SCT055 04/01 A2997 2120 79 1300 000/00 RMK AO2 T00390006
03812KAVL AVL20161116004012211/16/16 00:40:31  5-MIN KAVL 160540Z AUTO 00000KT 10SM HZ FEW040 SCT060 04/01 A2997 2120 79 1300 000/00 RMK AO2 T00390006
03812KAVL AVL20161116004511511/16/16 00:45:31  5-MIN KAVL 160545Z AUTO 00000KT 10SM HZ SCT060 04/01 A2997 2120 79 1300 000/00 RMK AO2 T00390006
03812KAVL AVL20161116005014011/16/16 00:50:31  5-MIN KAVL 160550Z AUTO 00000KT 10SM HZ FEW055 04/00 A2997 2120 76 1300 000/00 RMK AO2 SLP144 T00390000 10106 20039 53009
03812KAVL AVL20161116005511511/16/16 00:55:31  5-MIN KAVL 160555Z AUTO 00000KT 10SM HZ FEW055 04/00 A2997 2120 76 1300 000/00 RMK AO2 T00390000
03812KAVL AVL20161116010011511/16/16 01:00:31  5-MIN KAVL 160600Z AUTO 00000KT 10SM HZ FEW060 04/00 A2997 2120 76 1300 000/00 RMK AO2 T00390000
03812KAVL AVL20161116010511511/16/16 01:05:31  5-MIN KAVL 160605Z AUTO 00000KT 10SM HZ FEW060 04/00 A2997 2120 76 1300 000/00 RMK AO2 T00390000
03812KAVL AVL20161116011011211/16/16 01:10:31  5-MIN KAVL 160610Z AUTO 00000KT 10SM HZ CLR 04/00 A2997 2120 76 1300 000/00 RMK AO2 T00390000
03812KAVL AVL20161116011511211/16/16 01:15:31  5-MIN KAVL 160615Z AUTO 00000KT 10SM HZ CLR 04/00 A2997 2120 76 1300 000/00 RMK AO2 T00390000
03812KAVL AVL20161116012011511/16/16 01:20:31  5-MIN KAVL 160620Z AUTO 00000KT 10SM HZ FEW065 03/00 A2997 2120 82 1200 000/00 RMK AO2 T00280000
03812KAVL AVL20161116012512211/16/16 01:25:31  5-MIN KAVL 160625Z AUTO 00000KT 10SM HZ FEW047 FEW065 03/00 A2997 2120 82 1200 000/00 RMK AO2 T00280000
03812KAVL AVL20161116013012211/16/16 01:30:31  5-MIN KAVL 160630Z AUTO 00000KT 10SM HZ FEW047 SCT065 03/00 A2997 2120 82 1200 000/00 RMK AO2 T00280000
03812KAVL AVL20161116013512211/16/16 01:35:31  5-MIN KAVL 160635Z AUTO 00000KT 10SM HZ FEW045 SCT065 03/00 A2997 2120 82 1200 000/00 RMK AO2 T00280000
03812KAVL AVL20161116014012211/16/16 01:40:31  5-MIN KAVL 160640Z AUTO 00000KT 10SM HZ FEW045 BKN065 03/00 A2997 2120 79 1300 000/00 RMK AO2 T00330000
03812KAVL AVL20161116014512211/16/16 01:45:31  5-MIN KAVL 160645Z AUTO 00000KT 10SM HZ SCT045 BKN070 03/00 A2997 2120 79 1300 000/00 RMK AO2 T00330000
03812KAVL AVL20161116015012911/16/16 01:50:31  5-MIN KAVL 160650Z AUTO 00000KT 10SM HZ SCT045 BKN070 03/00 A2997 2120 79 1300 000/00 RMK AO2 SLP143 T00330000
03812KAVL AVL20161116015512211/16/16 01:55:31  5-MIN KAVL 160655Z AUTO 00000KT 10SM HZ BKN045 BKN070 03/00 A2997 2120 79 1300 000/00 RMK AO2 T00330000
03812KAVL AVL20161116020012211/16/16 02:00:31  5-MIN KAVL 160700Z AUTO 00000KT 10SM HZ SCT047 BKN070 03/00 A2997 2120 79 1300 000/00 RMK AO2 T00330000
03812KAVL AVL20161116020512211/16/16 02:05:31  5-MIN KAVL 160705Z AUTO 00000KT 10SM HZ SCT047 BKN070 03/00 A2997 2120 82 1200 000/00 RMK AO2 T00280000
03812KAVL AVL20161116021012211/16/16 02:10:31  5-MIN KAVL 160710Z AUTO 00000KT 10SM HZ FEW046 SCT070 03/00 A2997 2120 82 1200 000/00 RMK AO2 T00280000
03812KAVL AVL20161116021511511/16/16 02:15:31  5-MIN KAVL 160715Z AUTO 00000KT 10SM HZ FEW046 03/00 A2997 2120 82 1200 000/00 RMK AO2 T00280000
03812KAVL AVL20161116022011511/16/16 02:20:31  5-MIN KAVL 160720Z AUTO 00000KT 10SM HZ FEW048 03/00 A2997 2120 82 1200 000/00 RMK AO2 T00280000
03812KAVL AVL20161116022511211/16/16 02:25:31  5-MIN KAVL 160725Z AUTO 00000KT 10SM HZ CLR 03/00 A2997 2120 79 1300 000/00 RMK AO2 T00330000
03812KAVL AVL20161116023011211/16/16 02:30:31  5-MIN KAVL 160730Z AUTO 00000KT 10SM HZ CLR 03/00 A2997 2120 82 1200 000/00 RMK AO2 T00280000
03812KAVL AVL20161116023511311/16/16 02:35:31  5-MIN KAVL 160735Z AUTO 32003KT 10SM HZ CLR 02/M01 A2997 2120 82 1100 330/03 RMK AO2 T00221006
03812KAVL AVL20161116024011211/16/16 02:40:31  5-MIN KAVL 160740Z AUTO 32003KT 9SM HZ CLR 02/M01 A2997 2120 82 1100 330/03 RMK AO2 T00221006
03812KAVL AVL20161116024511111/16/16 02:45:31  5-MIN KAVL 160745Z AUTO 00000KT 9SM HZ CLR 02/00 A2997 2120 85 1100 000/00 RMK AO2 T00220000
03812KAVL AVL20161116025011911/16/16 02:50:31  5-MIN KAVL 160750Z AUTO 00000KT 9SM HZ CLR 02/M01 A2997 2120 82 1100 000/00 RMK AO2 SLP144 T00221006
03812KAVL AVL20161116025511311/16/16 02:55:31  5-MIN KAVL 160755Z AUTO 00000KT 10SM HZ CLR 02/M01 A2997 2120 82 1100 000/00 RMK AO2 T00221006
03812KAVL AVL20161116030011211/16/16 03:00:31  5-MIN KAVL 160800Z AUTO 00000KT 9SM HZ CLR 02/M01 A2998 2120 82 1100 000/00 RMK AO2 T00221006
03812KAVL AVL20161116030511211/16/16 03:05:31  5-MIN KAVL 160805Z AUTO 00000KT 9SM HZ CLR 02/M01 A2998 2120 82 1100 000/00 RMK AO2 T00221006
03812KAVL AVL20161116031011211/16/16 03:10:31  5-MIN KAVL 160810Z AUTO 00000KT 9SM HZ CLR 02/M01 A2998 2120 82 1100 000/00 RMK AO2 T00221006
03812KAVL AVL20161116031511211/16/16 03:15:31  5-MIN KAVL 160815Z AUTO 00000KT 9SM HZ CLR 02/M01 A2998 2120 82 1100 000/00 RMK AO2 T00221006
03812KAVL AVL20161116032011211/16/16 03:20:31  5-MIN KAVL 160820Z AUTO 00000KT 9SM HZ CLR 02/M01 A2998 2110 82 1100 000/00 RMK AO2 T00221006
03812KAVL AVL20161116032511211/16/16 03:25:31  5-MIN KAVL 160825Z AUTO 00000KT 9SM HZ CLR 02/M01 A2998 2110 82 1100 000/00 RMK AO2 T00221006
03812KAVL AVL20161116033011511/16/16 03:30:31  5-MIN KAVL 160830Z AUTO 00000KT 9SM HZ FEW055 02/M01 A2998 2120 82 1100 000/00 RMK AO2 T00171011
03812KAVL AVL20161116033511511/16/16 03:35:31  5-MIN KAVL 160835Z AUTO 00000KT 9SM HZ SCT050 02/M01 A2998 2120 82 1100 000/00 RMK AO2 T00221006
03812KAVL AVL20161116034011511/16/16 03:40:31  5-MIN KAVL 160840Z AUTO 00000KT 9SM HZ BKN050 02/M01 A2997 2120 82 1100 000/00 RMK AO2 T00221006
03812KAVL AVL20161116034511511/16/16 03:45:31  5-MIN KAVL 160845Z AUTO 32003KT 9SM HZ BKN050 02/M01 A2998 2110 82 1100 320/03 RMK AO2 T00221006
03812KAVL AVL20161116035012711/16/16 03:50:31  5-MIN KAVL 160850Z AUTO 00000KT 9SM HZ BKN055 02/00 A2998 2120 85 1100 000/00 RMK AO2 SLP145 T00220000 57002
03812KAVL AVL20161116035511411/16/16 03:55:31  5-MIN KAVL 160855Z AUTO 00000KT 9SM HZ OVC055 03/00 A2998 2120 82 1200 000/00 RMK AO2 T00280000
03812KAVL AVL20161116040011411/16/16 04:00:31  5-MIN KAVL 160900Z AUTO 00000KT 9SM HZ OVC055 03/00 A2998 2110 82 1200 000/00 RMK AO2 T00280000
03812KAVL AVL20161116040511411/16/16 04:05:31  5-MIN KAVL 160905Z AUTO 00000KT 9SM HZ BKN055 03/00 A2998 2120 82 1200 000/00 RMK AO2 T00280000
03812KAVL AVL20161116041011511/16/16 04:10:31  5-MIN KAVL 160910Z AUTO 00000KT 9SM HZ BKN055 02/M01 A2998 2120 82 1100 000/00 RMK AO2 T00221006
03812KAVL AVL20161116041511511/16/16 04:15:31  5-MIN KAVL 160915Z AUTO 21003KT 9SM HZ SCT055 02/M01 A2998 2120 85 1000 210/03 RMK AO2 T00171006
03812KAVL AVL20161116042011511/16/16 04:20:31  5-MIN KAVL 160920Z AUTO 00000KT 9SM HZ SCT055 02/M01 A2998 2120 85 1000 000/00 RMK AO2 T00171006
03812KAVL AVL20161116042511511/16/16 04:25:31  5-MIN KAVL 160925Z AUTO 00000KT 9SM HZ FEW055 02/M01 A2998 2120 85 1000 000/00 RMK AO2 T00171006
03812KAVL AVL20161116043011211/16/16 04:30:31  5-MIN KAVL 160930Z AUTO 00000KT 9SM HZ CLR 01/M01 A2998 2110 89 1000 000/00 RMK AO2 T00111006
03812KAVL AVL20161116043511211/16/16 04:35:31  5-MIN KAVL 160935Z AUTO 00000KT 9SM HZ CLR 02/M01 A2998 2110 82 1000 000/00 RMK AO2 T00171011
03812KAVL AVL20161116044011211/16/16 04:40:31  5-MIN KAVL 160940Z AUTO 00000KT 9SM HZ CLR 02/M01 A2998 2110 82 1000 000/00 RMK AO2 T00171011
03812KAVL AVL20161116044511211/16/16 04:45:31  5-MIN KAVL 160945Z AUTO 00000KT 9SM HZ CLR 02/M01 A2998 2110 82 1000 000/00 RMK AO2 T00171011
03812KAVL AVL20161116045011911/16/16 04:50:31  5-MIN KAVL 160950Z AUTO 00000KT 9SM HZ CLR 01/M01 A2998 2110 85 1000 000/00 RMK AO2 SLP148 T00111011
03812KAVL AVL20161116045511211/16/16 04:55:31  5-MIN KAVL 160955Z AUTO 00000KT 9SM HZ CLR 01/M01 A2998 2110 85 1000 000/00 RMK AO2 T00111011
03812KAVL AVL20161116050011211/16/16 05:00:31  5-MIN KAVL 161000Z AUTO 00000KT 9SM HZ CLR 02/M01 A2998 2110 82 1000 000/00 RMK AO2 T00171011
03812KAVL AVL20161116050511211/16/16 05:05:31  5-MIN KAVL 161005Z AUTO 00000KT 9SM HZ CLR 02/M01 A2998 2110 82 1000 000/00 RMK AO2 T00171011
03812KAVL AVL20161116051011211/16/16 05:10:31  5-MIN KAVL 161010Z AUTO 00000KT 9SM HZ CLR 01/M01 A2998 2110 85 1000 000/00 RMK AO2 T00111011
03812KAVL AVL20161116051511211/16/16 05:15:31  5-MIN KAVL 161015Z AUTO 00000KT 8SM HZ CLR 01/M01 A2998 2110 85 1000 000/00 RMK AO2 T00111011
03812KAVL AVL20161116052011211/16/16 05:20:31  5-MIN KAVL 161020Z AUTO 00000KT 8SM HZ CLR 01/M01 A2998 2110 85 1000 000/00 RMK AO2 T00111011
03812KAVL AVL20161116052511211/16/16 05:25:31  5-MIN KAVL 161025Z AUTO 00000KT 8SM HZ CLR 01/M01 A2998 2110 85 1000 000/00 RMK AO2 T00111011
03812KAVL AVL20161116053011211/16/16 05:30:31  5-MIN KAVL 161030Z AUTO 00000KT 8SM HZ CLR 01/M01 A2998 2110 85 1000 000/00 RMK AO2 T00111011
03812KAVL AVL20161116053511211/16/16 05:35:31  5-MIN KAVL 161035Z AUTO 00000KT 8SM HZ CLR 01/M01 A2998 2110 85 1000 000/00 RMK AO2 T00111011
03812KAVL AVL20161116054011211/16/16 05:40:31  5-MIN KAVL 161040Z AUTO 00000KT 8SM HZ CLR 01/M01 A2998 2110 85 1000 000/00 RMK AO2 T00111011
03812KAVL AVL20161116054511211/16/16 05:45:31  5-MIN KAVL 161045Z AUTO 00000KT 8SM HZ CLR 01/M01 A2998 2110 85 1000 000/00 RMK AO2 T00111011
03812KAVL AVL20161116055011911/16/16 05:50:31  5-MIN KAVL 161050Z AUTO 00000KT 8SM HZ CLR 01/M01 A2998 2110 85 1000 000/00 RMK AO2 SLP150 T00111011
03812KAVL AVL20161116055511111/16/16 05:55:31  5-MIN KAVL 161055Z AUTO 00000KT 8SM HZ CLR 01/M01 A2998 2110 89 900 000/00 RMK AO2 T00061011
03812KAVL AVL20161116060011111/16/16 06:00:31  5-MIN KAVL 161100Z AUTO 00000KT 8SM HZ CLR 01/M01 A2998 2110 89 900 000/00 RMK AO2 T00061011
03812KAVL AVL20161116060511111/16/16 06:05:31  5-MIN KAVL 161105Z AUTO 00000KT 8SM HZ CLR 01/M02 A2998 2110 85 900 000/00 RMK AO2 T00061017
03812KAVL AVL20161116061011211/16/16 06:10:31  5-MIN KAVL 161110Z AUTO 00000KT 8SM HZ CLR 01/M01 A2999 2110 85 1000 000/00 RMK AO2 T00111011
03812KAVL AVL20161116061511211/16/16 06:15:31  5-MIN KAVL 161115Z AUTO 00000KT 8SM HZ CLR 01/M01 A2999 2100 85 1000 000/00 RMK AO2 T00111011
03812KAVL AVL20161116062011111/16/16 06:20:31  5-MIN KAVL 161120Z AUTO 00000KT 8SM HZ CLR 01/M02 A2999 2100 85 900 000/00 RMK AO2 T00061017
03812KAVL AVL20161116062511111/16/16 06:25:31  5-MIN KAVL 161125Z AUTO 00000KT 8SM HZ CLR 01/M02 A2999 2100 85 900 000/00 RMK AO2 T00061017
03812KAVL AVL20161116063010611/16/16 06:30:31  5-MIN KAVL 161130Z 00000KT 8SM HZ CLR 01/M02 A2999 2100 85 900 000/00 RMK AO2 T00061017
03812KAVL AVL20161116063510611/16/16 06:35:31  5-MIN KAVL 161135Z 00000KT 8SM HZ CLR 01/M02 A2999 2100 85 900 000/00 RMK AO2 T00061017
03812KAVL AVL20161116064010611/16/16 06:40:31  5-MIN KAVL 161140Z 00000KT 8SM HZ CLR 00/M02 A3000 2100 88 800 000/00 RMK AO2 T00001017
03812KAVL AVL20161116064510611/16/16 06:45:31  5-MIN KAVL 161145Z 00000KT 7SM HZ CLR 00/M02 A3000 2100 88 800 000/00 RMK AO2 T00001017
03812KAVL AVL20161116065013111/16/16 06:50:31  5-MIN KAVL 161150Z 00000KT 7SM HZ CLR 00/M02 A3000 2100 88 800 000/00 RMK AO2 SLP159 T00001017 10039 20000 53002
03812KAVL AVL20161116065510611/16/16 06:55:31  5-MIN KAVL 161155Z 00000KT 7SM HZ CLR 00/M02 A3000 2100 88 800 000/00 RMK AO2 T00001017
03812KAVL AVL20161116070010611/16/16 07:00:31  5-MIN KAVL 161200Z 00000KT 7SM HZ CLR 00/M02 A3000 2090 88 800 000/00 RMK AO2 T00001017
03812KAVL AVL20161116070510611/16/16 07:05:31  5-MIN KAVL 161205Z 00000KT 7SM HZ CLR 00/M02 A3000 2090 88 800 000/00 RMK AO2 T00001017
03812KAVL AVL20161116071010611/16/16 07:10:31  5-MIN KAVL 161210Z 00000KT 6SM HZ CLR 01/M01 A3000 2090 89 900 000/00 RMK AO2 T00061011
03812KAVL AVL20161116071510611/16/16 07:15:31  5-MIN KAVL 161215Z 00000KT 6SM HZ CLR 01/M01 A3000 2090 89 900 000/00 RMK AO2 T00061011
03812KAVL AVL20161116072010611/16/16 07:20:31  5-MIN KAVL 161220Z 00000KT 6SM HZ CLR 01/M01 A3000 2090 89 900 000/00 RMK AO2 T00061011
03812KAVL AVL20161116072510611/16/16 07:25:31  5-MIN KAVL 161225Z 00000KT 6SM HZ CLR 01/M01 A3001 2090 89 900 000/00 RMK AO2 T00061011
03812KAVL AVL20161116073010611/16/16 07:30:31  5-MIN KAVL 161230Z 00000KT 6SM HZ CLR 01/M01 A3000 2090 89 900 000/00 RMK AO2 T00061011
03812KAVL AVL20161116073510611/16/16 07:35:31  5-MIN KAVL 161235Z 00000KT 6SM HZ CLR 01/M01 A3000 2090 89 900 000/00 RMK AO2 T00061011
03812KAVL AVL20161116074010611/16/16 07:40:31  5-MIN KAVL 161240Z 00000KT 6SM HZ CLR 01/M01 A3000 2090 85 900 000/00 RMK AO2 T00111011
03812KAVL AVL20161116074510611/16/16 07:45:31  5-MIN KAVL 161245Z 00000KT 6SM HZ CLR 01/M01 A3000 2090 89 900 000/00 RMK AO2 T00111006
03812KAVL AVL20161116075011311/16/16 07:50:31  5-MIN KAVL 161250Z 00000KT 6SM HZ CLR 01/M01 A3000 2090 89 900 000/00 RMK AO2 SLP162 T00111006
03812KAVL AVL20161116075510711/16/16 07:55:31  5-MIN KAVL 161255Z 00000KT 6SM HZ CLR 02/M01 A3001 2090 85 1000 000/00 RMK AO2 T00171006
03812KAVL AVL20161116080010711/16/16 08:00:31  5-MIN KAVL 161300Z 00000KT 6SM HZ CLR 02/M01 A3001 2090 85 1000 000/00 RMK AO2 T00171006
03812KAVL AVL20161116080510611/16/16 08:05:31  5-MIN KAVL 161305Z 00000KT 6SM HZ CLR 01/M01 A3001 2090 89 900 000/00 RMK AO2 T00111006
03812KAVL AVL20161116081010711/16/16 08:10:31  5-MIN KAVL 161310Z 00000KT 6SM HZ CLR 02/M01 A3001 2080 85 1000 000/00 RMK AO2 T00171006
03812KAVL AVL20161116081510611/16/16 08:15:31  5-MIN KAVL 161315Z 00000KT 6SM HZ CLR 02/00 A3001 2080 85 1100 000/00 RMK AO2 T00220000
03812KAVL AVL20161116082010611/16/16 08:20:31  5-MIN KAVL 161320Z 00000KT 6SM HZ CLR 02/00 A3001 2080 85 1100 000/00 RMK AO2 T00220000
03812KAVL AVL20161116082510611/16/16 08:25:31  5-MIN KAVL 161325Z 00000KT 7SM HZ CLR 03/01 A3001 2080 82 1200 000/00 RMK AO2 T00330006
03812KAVL AVL20161116083010611/16/16 08:30:31  5-MIN KAVL 161330Z 00000KT 7SM HZ CLR 04/01 A3001 2080 79 1300 000/00 RMK AO2 T00390006
03812KAVL AVL20161116083510611/16/16 08:35:31  5-MIN KAVL 161335Z 00000KT 7SM HZ CLR 04/01 A3001 2080 79 1300 000/00 RMK AO2 T00390006
03812KAVL AVL20161116084010611/16/16 08:40:31  5-MIN KAVL 161340Z 00000KT 7SM HZ CLR 04/01 A3001 2080 79 1300 000/00 RMK AO2 T00390006
03812KAVL AVL20161116084510611/16/16 08:45:31  5-MIN KAVL 161345Z 00000KT 7SM HZ CLR 04/01 A3001 2080 79 1300 000/00 RMK AO2 T00390006
03812KAVL AVL20161116085011311/16/16 08:50:31  5-MIN KAVL 161350Z 00000KT 7SM HZ CLR 04/01 A3001 2080 76 1300 000/00 RMK AO2 SLP162 T00440006
03812KAVL AVL20161116085510611/16/16 08:55:31  5-MIN KAVL 161355Z 00000KT 7SM HZ CLR 04/01 A3001 2080 76 1300 000/00 RMK AO2 T00440006
03812KAVL AVL20161116090010611/16/16 09:00:31  5-MIN KAVL 161400Z 00000KT 7SM HZ CLR 05/01 A3001 2080 73 1400 000/00 RMK AO2 T00500006
03812KAVL AVL20161116090510611/16/16 09:05:31  5-MIN KAVL 161405Z 00000KT 7SM HZ CLR 06/01 A3001 2090 73 1500 000/00 RMK AO2 T00560011
03812KAVL AVL20161116091010611/16/16 09:10:31  5-MIN KAVL 161410Z 00000KT 7SM HZ CLR 06/01 A3001 2090 70 1600 000/00 RMK AO2 T00610011
03812KAVL AVL20161116091510611/16/16 09:15:31  5-MIN KAVL 161415Z 00000KT 7SM HZ CLR 06/02 A3001 2090 73 1600 000/00 RMK AO2 T00610017
03812KAVL AVL20161116092010611/16/16 09:20:31  5-MIN KAVL 161420Z 00000KT 7SM HZ CLR 07/02 A3001 2090 70 1600 000/00 RMK AO2 T00670017
03812KAVL AVL20161116092510611/16/16 09:25:31  5-MIN KAVL 161425Z 00000KT 8SM HZ CLR 07/02 A3001 2090 68 1700 000/00 RMK AO2 T00720017
03812KAVL AVL20161116093010611/16/16 09:30:31  5-MIN KAVL 161430Z 00000KT 8SM HZ CLR 08/02 A3001 2090 65 1800 000/00 RMK AO2 T00780017
03812KAVL AVL20161116093510611/16/16 09:35:31  5-MIN KAVL 161435Z 00000KT 8SM HZ CLR 08/02 A3001 2090 63 1800 000/00 RMK AO2 T00830017
03812KAVL AVL20161116094010611/16/16 09:40:31  5-MIN KAVL 161440Z 00000KT 8SM HZ CLR 09/02 A3000 2090 63 1900 000/00 RMK AO2 T00890022
03812KAVL AVL20161116094510611/16/16 09:45:31  5-MIN KAVL 161445Z 00000KT 9SM HZ CLR 09/02 A3001 2090 60 2000 000/00 RMK AO2 T00940022
03812KAVL AVL20161116095011911/16/16 09:50:31  5-MIN KAVL 161450Z 00000KT 9SM HZ CLR 10/02 A3001 2090 58 2000 000/00 RMK AO2 SLP157 T01000022 53007
03812KAVL AVL20161116095510611/16/16 09:55:31  5-MIN KAVL 161455Z VRB03KT 9SM HZ CLR 11/03 A3001 2090 56 2200 VRB/03 RMK AO2 T01110028
03812KAVL AVL20161116100010711/16/16 10:00:31  5-MIN KAVL 161500Z 34008KT 10SM HZ CLR 13/03 A3001 2090 50 2400 350/08 RMK AO2 T01280028
03812KAVL AVL20161116100511311/16/16 10:05:31  5-MIN KAVL 161505Z 35009G14KT 10SM HZ CLR 13/03 A3001 2090 50 2400 350/09G14 RMK AO2 T01280028
03812KAVL AVL20161116101010711/16/16 10:10:31  5-MIN KAVL 161510Z 35011KT 10SM HZ CLR 13/03 A3001 2090 50 2400 350/11 RMK AO2 T01280028
03812KAVL AVL20161116101510711/16/16 10:15:31  5-MIN KAVL 161515Z 34013KT 10SM HZ CLR 12/02 A3001 2090 50 2300 350/13 RMK AO2 T01220022
03812KAVL AVL20161116102010711/16/16 10:20:31  5-MIN KAVL 161520Z 34014KT 10SM HZ CLR 13/03 A3001 2090 50 2400 350/14 RMK AO2 T01280028
03812KAVL AVL20161116102510711/16/16 10:25:31  5-MIN KAVL 161525Z 33012KT 10SM HZ CLR 13/03 A3001 2090 48 2400 340/12 RMK AO2 T01330028
03812KAVL AVL20161116103010711/16/16 10:30:31  5-MIN KAVL 161530Z 33012KT 10SM HZ CLR 14/03 A3001 2090 47 2500 340/12 RMK AO2 T01390028
03812KAVL AVL20161116103510711/16/16 10:35:31  5-MIN KAVL 161535Z 34011KT 10SM HZ CLR 14/03 A3001 2090 47 2500 340/11 RMK AO2 T01390028
03812KAVL AVL20161116104010711/16/16 10:40:31  5-MIN KAVL 161540Z 33013KT 10SM HZ CLR 14/03 A3001 2090 45 2500 340/13 RMK AO2 T01440028
03812KAVL AVL20161116104511311/16/16 10:45:31  5-MIN KAVL 161545Z 34013G18KT 10SM HZ CLR 14/03 A3000 2090 47 2500 340/13G18 RMK AO2 T01440033
03812KAVL AVL20161116105012011/16/16 10:50:31  5-MIN KAVL 161550Z 34013G18KT 10SM HZ CLR 14/03 A3000 2090 47 2600 340/13G18 RMK AO2 SLP153 T01440033
03812KAVL AVL20161116105510711/16/16 10:55:31  5-MIN KAVL 161555Z 35010KT 10SM HZ CLR 15/03 A3000 2090 45 2600 350/10 RMK AO2 T01500033
03812KAVL AVL20161116110011311/16/16 11:00:31  5-MIN KAVL 161600Z 35010G17KT 10SM HZ CLR 15/03 A3001 2090 45 2600 350/10G17 RMK AO2 T01500033
03812KAVL AVL20161116110510711/16/16 11:05:31  5-MIN KAVL 161605Z 36008KT 10SM HZ CLR 16/03 A3001 2090 43 2700 360/08 RMK AO2 T01560033
03812KAVL AVL20161116111011311/16/16 11:10:31  5-MIN KAVL 161610Z 34012G17KT 10SM HZ CLR 16/03 A3001 2090 43 2700 340/12G17 RMK AO2 T01560033
03812KAVL AVL20161116111511311/16/16 11:15:31  5-MIN KAVL 161615Z 35010G17KT 10SM HZ CLR 16/03 A3000 2090 40 2700 360/10G17 RMK AO2 T01610028
03812KAVL AVL20161116112011311/16/16 11:20:31  5-MIN KAVL 161620Z 33011G18KT 10SM HZ CLR 16/03 A3000 2090 40 2700 340/11G18 RMK AO2 T01610028
03812KAVL AVL20161116112510711/16/16 11:25:31  5-MIN KAVL 161625Z 35011KT 10SM HZ CLR 16/03 A3000 2090 40 2700 350/11 RMK AO2 T01610028
03812KAVL AVL20161116113011311/16/16 11:30:31  5-MIN KAVL 161630Z 34010G17KT 10SM HZ CLR 17/03 A3000 2090 39 2800 350/10G17 RMK AO2 T01670028
03812KAVL AVL20161116113511311/16/16 11:35:31  5-MIN KAVL 161635Z 35012G16KT 10SM HZ CLR 17/03 A3000 2090 39 2800 360/12G16 RMK AO2 T01670028
03812KAVL AVL20161116114011311/16/16 11:40:31  5-MIN KAVL 161640Z 35011G19KT 10SM HZ CLR 17/03 A3000 2090 39 2800 360/11G19 RMK AO2 T01670028
03812KAVL AVL20161116114511311/16/16 11:45:31  5-MIN KAVL 161645Z 35011G19KT 10SM HZ CLR 16/03 A3000 2100 40 2800 360/11G19 RMK AO2 T01610028
03812KAVL AVL20161116115012011/16/16 11:50:31  5-MIN KAVL 161650Z 35013G20KT 10SM HZ CLR 17/03 A2999 2100 39 2800 350/13G20 RMK AO2 SLP149 T01670028
03812KAVL AVL20161116115510711/16/16 11:55:31  5-MIN KAVL 161655Z 35014KT 10SM HZ CLR 17/02 A2999 2100 37 2800 360/14 RMK AO2 T01670022
03812KAVL AVL20161116120010711/16/16 12:00:31  5-MIN KAVL 161700Z 35014KT 10SM HZ CLR 17/02 A2999 2100 37 2800 350/14 RMK AO2 T01670022
03812KAVL AVL20161116120510711/16/16 12:05:31  5-MIN KAVL 161705Z 36012KT 10SM HZ CLR 17/02 A2999 2100 37 2800 360/12 RMK AO2 T01670022
03812KAVL AVL20161116121010711/16/16 12:10:31  5-MIN KAVL 161710Z 34011KT 10SM HZ CLR 17/02 A2999 2100 37 2800 350/11 RMK AO2 T01670022
03812KAVL AVL20161116121510711/16/16 12:15:31  5-MIN KAVL 161715Z 36008KT 10SM HZ CLR 17/02 A2999 2110 37 2800 360/08 RMK AO2 T01670022
03812KAVL AVL20161116122010711/16/16 12:20:31  5-MIN KAVL 161720Z 35008KT 10SM HZ CLR 17/02 A2998 2110 37 2800 360/08 RMK AO2 T01670022
03812KAVL AVL20161116122510711/16/16 12:25:31  5-MIN KAVL 161725Z 34010KT 10SM HZ CLR 17/02 A2998 2110 36 2900 350/10 RMK AO2 T01720022
03812KAVL AVL20161116123010711/16/16 12:30:31  5-MIN KAVL 161730Z 36009KT 10SM HZ CLR 18/02 A2998 2110 35 3000 360/09 RMK AO2 T01780022
03812KAVL AVL20161116123510711/16/16 12:35:31  5-MIN KAVL 161735Z 35012KT 10SM HZ CLR 17/02 A2998 2110 36 2900 360/12 RMK AO2 T01720022
03812KAVL AVL20161116124010711/16/16 12:40:31  5-MIN KAVL 161740Z 35012KT 10SM HZ CLR 18/02 A2998 2120 35 3000 360/12 RMK AO2 T01780022
03812KAVL AVL20161116124510711/16/16 12:45:31  5-MIN KAVL 161745Z 36012KT 10SM HZ CLR 18/02 A2997 2120 35 3000 360/12 RMK AO2 T01780022
03812KAVL AVL20161116125013211/16/16 12:50:31  5-MIN KAVL 161750Z 35011KT 10SM HZ CLR 18/02 A2997 2120 35 3000 360/11 RMK AO2 SLP140 T01780022 10178 20000 50002
03812KAVL AVL20161116125510711/16/16 12:55:31  5-MIN KAVL 161755Z 34012KT 10SM HZ CLR 18/02 A2997 2120 35 3000 350/12 RMK AO2 T01780022
03812KAVL AVL20161116130011311/16/16 13:00:31  5-MIN KAVL 161800Z 35011G18KT 10SM HZ CLR 18/02 A2996 2130 33 3000 360/11G18 RMK AO2 T01780017
03812KAVL AVL20161116130510711/16/16 13:05:31  5-MIN KAVL 161805Z 36009KT 10SM HZ CLR 18/02 A2996 2130 35 3000 010/09 RMK AO2 T01780022
03812KAVL AVL20161116131010711/16/16 13:10:31  5-MIN KAVL 161810Z 36010KT 10SM HZ CLR 18/02 A2997 2130 34 3000 010/10 RMK AO2 T01830022
03812KAVL AVL20161116131510711/16/16 13:15:31  5-MIN KAVL 161815Z 02007KT 10SM HZ CLR 18/02 A2996 2130 35 3000 020/07 RMK AO2 T01780022
03812KAVL AVL20161116132010711/16/16 13:20:31  5-MIN KAVL 161820Z 35010KT 10SM HZ CLR 18/02 A2996 2130 35 3000 360/10 RMK AO2 T01780022
03812KAVL AVL20161116132510711/16/16 13:25:31  5-MIN KAVL 161825Z 36009KT 10SM HZ CLR 18/02 A2996 2130 33 3000 360/09 RMK AO2 T01780017
03812KAVL AVL20161116133010711/16/16 13:30:31  5-MIN KAVL 161830Z 36010KT 10SM HZ CLR 18/02 A2996 2130 32 3100 360/10 RMK AO2 T01830017
03812KAVL AVL20161116133510711/16/16 13:35:31  5-MIN KAVL 161835Z 36011KT 10SM HZ CLR 18/02 A2996 2130 32 3100 360/11 RMK AO2 T01830017
03812KAVL AVL20161116134010711/16/16 13:40:31  5-MIN KAVL 161840Z 36009KT 10SM HZ CLR 18/02 A2996 2130 32 3000 360/09 RMK AO2 T01830017
03812KAVL AVL20161116134510711/16/16 13:45:31  5-MIN KAVL 161845Z 34011KT 10SM HZ CLR 19/02 A2996 2130 31 3100 340/11 RMK AO2 T01890017
03812KAVL AVL20161116135011411/16/16 13:50:31  5-MIN KAVL 161850Z 36010KT 10SM HZ CLR 19/02 A2996 2130 31 3100 360/10 RMK AO2 SLP136 T01890017
03812KAVL AVL20161116135510711/16/16 13:55:31  5-MIN KAVL 161855Z 35011KT 10SM HZ CLR 18/02 A2996 2130 32 3100 360/11 RMK AO2 T01830017
03812KAVL AVL20161116140011311/16/16 14:00:31  5-MIN KAVL 161900Z 36009G16KT 10SM HZ CLR 18/02 A2996 2130 34 3100 360/09G16 RMK AO2 T01830022
03812KAVL AVL20161116140510711/16/16 14:05:31  5-MIN KAVL 161905Z 34010KT 10SM HZ CLR 19/02 A2996 2130 31 3100 350/10 RMK AO2 T01890017
03812KAVL AVL20161116141010711/16/16 14:10:31  5-MIN KAVL 161910Z 01009KT 10SM HZ CLR 19/02 A2996 2130 31 3100 020/09 RMK AO2 T01890017
03812KAVL AVL20161116141510711/16/16 14:15:31  5-MIN KAVL 161915Z 35011KT 10SM HZ CLR 19/02 A2996 2130 31 3100 360/11 RMK AO2 T01890017
03812KAVL AVL20161116142010711/16/16 14:20:31  5-MIN KAVL 161920Z 35009KT 10SM HZ CLR 18/02 A2996 2130 32 3000 360/09 RMK AO2 T01830017
03812KAVL AVL20161116142510711/16/16 14:25:31  5-MIN KAVL 161925Z 36009KT 10SM HZ CLR 19/02 A2996 2130 31 3100 360/09 RMK AO2 T01890017
03812KAVL AVL20161116143010711/16/16 14:30:31  5-MIN KAVL 161930Z 01007KT 10SM HZ CLR 18/02 A2996 2130 32 3000 020/07 RMK AO2 T01830017
03812KAVL AVL20161116143510711/16/16 14:35:31  5-MIN KAVL 161935Z 35006KT 10SM HZ CLR 19/02 A2996 2130 30 3200 360/06 RMK AO2 T01940017
03812KAVL AVL20161116144010711/16/16 14:40:31  5-MIN KAVL 161940Z 35009KT 10SM HZ CLR 19/02 A2996 2130 31 3100 350/09 RMK AO2 T01890017
03812KAVL AVL20161116144510711/16/16 14:45:31  5-MIN KAVL 161945Z 36006KT 10SM HZ CLR 19/02 A2996 2130 30 3200 360/06 RMK AO2 T01940017
03812KAVL AVL20161116145011411/16/16 14:50:31  5-MIN KAVL 161950Z 35009KT 10SM HZ CLR 19/02 A2996 2130 30 3200 360/09 RMK AO2 SLP136 T01940017
03812KAVL AVL20161116145510711/16/16 14:55:31  5-MIN KAVL 161955Z 35007KT 10SM HZ CLR 19/02 A2996 2130 31 3100 350/07 RMK AO2 T01890017
03812KAVL AVL20161116150010711/16/16 15:00:31  5-MIN KAVL 162000Z 02006KT 10SM HZ CLR 19/02 A2996 2130 31 3100 020/06 RMK AO2 T01890017
03812KAVL AVL20161116150510711/16/16 15:05:31  5-MIN KAVL 162005Z 36006KT 10SM HZ CLR 19/02 A2996 2130 31 3100 010/06 RMK AO2 T01890017
03812KAVL AVL20161116151010711/16/16 15:10:31  5-MIN KAVL 162010Z 36008KT 10SM HZ CLR 19/02 A2996 2130 30 3200 360/08 RMK AO2 T01940017
03812KAVL AVL20161116151510711/16/16 15:15:31  5-MIN KAVL 162015Z 36006KT 10SM HZ CLR 19/02 A2996 2130 31 3100 010/06 RMK AO2 T01890017
03812KAVL AVL20161116152010711/16/16 15:20:31  5-MIN KAVL 162020Z 33008KT 10SM HZ CLR 19/02 A2996 2130 31 3100 340/08 RMK AO2 T01890017
03812KAVL AVL20161116152510711/16/16 15:25:31  5-MIN KAVL 162025Z 35007KT 10SM HZ CLR 19/02 A2996 2130 31 3100 360/07 RMK AO2 T01890017
03812KAVL AVL20161116153011211/16/16 15:30:31  5-MIN KAVL 162030Z AUTO 34005KT 10SM HZ CLR 19/02 A2996 2130 31 3100 340/05 RMK AO2 T01890017
03812KAVL AVL20161116153511211/16/16 15:35:31  5-MIN KAVL 162035Z AUTO 34007KT 10SM HZ CLR 19/02 A2996 2130 31 3100 340/07 RMK AO2 T01890017
03812KAVL AVL20161116154011211/16/16 15:40:31  5-MIN KAVL 162040Z AUTO 35006KT 10SM HZ CLR 19/02 A2996 2130 31 3100 350/06 RMK AO2 T01890017
03812KAVL AVL20161116154510711/16/16 15:45:31  5-MIN KAVL 162045Z 32004KT 10SM HZ CLR 19/02 A2996 2130 31 3100 330/04 RMK AO2 T01890017
03812KAVL AVL20161116155012011/16/16 15:50:31  5-MIN KAVL 162050Z VRB03KT 10SM HZ CLR 19/02 A2996 2130 31 3100 VRB/03 RMK AO2 SLP138 T01890017 58012
03812KAVL AVL20161116155510711/16/16 15:55:31  5-MIN KAVL 162055Z 34007KT 10SM HZ CLR 19/02 A2996 2130 31 3100 350/07 RMK AO2 T01890017
03812KAVL AVL20161116160010711/16/16 16:00:31  5-MIN KAVL 162100Z 33005KT 10SM HZ CLR 18/01 A2997 2130 31 3000 330/05 RMK AO2 T01830011
03812KAVL AVL20161116160510711/16/16 16:05:31  5-MIN KAVL 162105Z 34005KT 10SM HZ CLR 18/01 A2997 2120 31 3000 350/05 RMK AO2 T01830011
03812KAVL AVL20161116161010711/16/16 16:10:31  5-MIN KAVL 162110Z 34007KT 10SM HZ CLR 18/01 A2997 2120 31 3000 350/07 RMK AO2 T01830011
03812KAVL AVL20161116161510711/16/16 16:15:31  5-MIN KAVL 162115Z 34008KT 10SM HZ CLR 18/01 A2997 2120 30 3000 340/08 RMK AO2 T01830006
03812KAVL AVL20161116162010711/16/16 16:20:31  5-MIN KAVL 162120Z 34008KT 10SM HZ CLR 18/01 A2997 2120 30 3000 350/08 RMK AO2 T01830006
03812KAVL AVL20161116162510711/16/16 16:25:31  5-MIN KAVL 162125Z 36007KT 10SM HZ CLR 18/01 A2997 2120 30 3000 360/07 RMK AO2 T01830006
03812KAVL AVL20161116163010711/16/16 16:30:31  5-MIN KAVL 162130Z 33008KT 10SM HZ CLR 18/00 A2997 2120 30 3000 340/08 RMK AO2 T01780000
03812KAVL AVL20161116163510711/16/16 16:35:31  5-MIN KAVL 162135Z 34009KT 10SM HZ CLR 18/00 A2997 2120 30 3000 350/09 RMK AO2 T01780000
03812KAVL AVL20161116164010711/16/16 16:40:31  5-MIN KAVL 162140Z 35007KT 10SM HZ CLR 18/00 A2997 2120 30 3000 360/07 RMK AO2 T01780000
03812KAVL AVL20161116164510811/16/16 16:45:31  5-MIN KAVL 162145Z 34007KT 10SM HZ CLR 18/M01 A2997 2120 28 3000 350/07 RMK AO2 T01781006
03812KAVL AVL20161116165011511/16/16 16:50:31  5-MIN KAVL 162150Z 01006KT 10SM HZ CLR 18/M01 A2997 2120 27 3000 010/06 RMK AO2 SLP143 T01781011
03812KAVL AVL20161116165510811/16/16 16:55:31  5-MIN KAVL 162155Z 35005KT 10SM HZ CLR 18/M01 A2997 2120 27 3000 360/05 RMK AO2 T01781011
03812KAVL AVL20161116170010811/16/16 17:00:31  5-MIN KAVL 162200Z 34007KT 10SM HZ CLR 17/M01 A2998 2120 29 2900 340/07 RMK AO2 T01721006
03812KAVL AVL20161116170510811/16/16 17:05:31  5-MIN KAVL 162205Z 35009KT 10SM HZ CLR 17/M01 A2998 2120 29 2800 350/09 RMK AO2 T01671011
03812KAVL AVL20161116171010811/16/16 17:10:31  5-MIN KAVL 162210Z 35006KT 10SM HZ CLR 17/M01 A2998 2110 29 2800 350/06 RMK AO2 T01671011
03812KAVL AVL20161116171510811/16/16 17:15:31  5-MIN KAVL 162215Z 34006KT 10SM HZ CLR 17/M01 A2998 2110 29 2800 340/06 RMK AO2 T01671011
03812KAVL AVL20161116172010811/16/16 17:20:31  5-MIN KAVL 162220Z 32007KT 10SM HZ CLR 16/M01 A2998 2110 31 2700 330/07 RMK AO2 T01561011
03812KAVL AVL20161116172510811/16/16 17:25:31  5-MIN KAVL 162225Z 33006KT 10SM HZ CLR 16/M01 A2998 2110 31 2700 330/06 RMK AO2 T01561011
03812KAVL AVL20161116173010811/16/16 17:30:31  5-MIN KAVL 162230Z 35003KT 10SM HZ CLR 15/M01 A2998 2110 33 2600 350/03 RMK AO2 T01501011
03812KAVL AVL20161116173510811/16/16 17:35:31  5-MIN KAVL 162235Z 34004KT 10SM HZ CLR 16/M01 A2998 2110 31 2700 350/04 RMK AO2 T01561011
03812KAVL AVL20161116174010811/16/16 17:40:31  5-MIN KAVL 162240Z 36003KT 10SM HZ CLR 15/M01 A2998 2110 33 2600 010/03 RMK AO2 T01501011
03812KAVL AVL20161116174510811/16/16 17:45:31  5-MIN KAVL 162245Z 01004KT 10SM HZ CLR 15/M01 A2999 2110 33 2600 010/04 RMK AO2 T01501011
03812KAVL AVL20161116175011511/16/16 17:50:31  5-MIN KAVL 162250Z 36004KT 10SM HZ CLR 15/M02 A2999 2100 31 2600 360/04 RMK AO2 SLP152 T01501017
03812KAVL AVL20161116175510811/16/16 17:55:31  5-MIN KAVL 162255Z 35004KT 10SM HZ CLR 15/M02 A2999 2100 31 2600 360/04 RMK AO2 T01501017
03812KAVL AVL20161116180010811/16/16 18:00:31  5-MIN KAVL 162300Z 36005KT 10SM HZ CLR 15/M02 A3000 2100 31 2600 010/05 RMK AO2 T01501017
03812KAVL AVL20161116180510811/16/16 18:05:31  5-MIN KAVL 162305Z 34006KT 10SM HZ CLR 14/M02 A3000 2100 33 2600 340/06 RMK AO2 T01441017
03812KAVL AVL20161116181010811/16/16 18:10:31  5-MIN KAVL 162310Z 34006KT 10SM HZ CLR 14/M02 A3000 2090 34 2500 350/06 RMK AO2 T01391017
03812KAVL AVL20161116181510811/16/16 18:15:31  5-MIN KAVL 162315Z 34006KT 10SM HZ CLR 14/M02 A3000 2090 34 2500 350/06 RMK AO2 T01391017
03812KAVL AVL20161116182010811/16/16 18:20:31  5-MIN KAVL 162320Z 35006KT 10SM HZ CLR 14/M01 A3000 2090 34 2600 360/06 RMK AO2 T01441011
03812KAVL AVL20161116182510811/16/16 18:25:31  5-MIN KAVL 162325Z 35006KT 10SM HZ CLR 14/M01 A3000 2090 35 2500 350/06 RMK AO2 T01391011
03812KAVL AVL20161116183010811/16/16 18:30:31  5-MIN KAVL 162330Z 33009KT 10SM HZ CLR 13/M01 A3000 2090 36 2400 340/09 RMK AO2 T01331011
03812KAVL AVL20161116183510811/16/16 18:35:31  5-MIN KAVL 162335Z 33008KT 10SM HZ CLR 12/M01 A3001 2090 41 2300 330/08 RMK AO2 T01221006
03812KAVL AVL20161116184010811/16/16 18:40:31  5-MIN KAVL 162340Z 33008KT 10SM HZ CLR 12/M01 A3001 2090 41 2300 340/08 RMK AO2 T01221006
03812KAVL AVL20161116184510811/16/16 18:45:31  5-MIN KAVL 162345Z 34007KT 10SM HZ CLR 13/M01 A3001 2090 39 2300 340/07 RMK AO2 T01281006
03812KAVL AVL20161116185013311/16/16 18:50:31  5-MIN KAVL 162350Z 34008KT 10SM HZ CLR 12/M01 A3001 2080 41 2300 340/08 RMK AO2 SLP162 T01221006 10194 20122 55002
03812KAVL AVL20161116185510811/16/16 18:55:31  5-MIN KAVL 162355Z 33008KT 10SM HZ CLR 12/M01 A3001 2090 42 2200 340/08 RMK AO2 T01171006
03812KAVL AVL20161116190010811/16/16 19:00:31  5-MIN KAVL 170000Z 33008KT 10SM HZ CLR 12/M01 A3001 2090 42 2200 330/08 RMK AO2 T01171006
03812KAVL AVL20161116190510711/16/16 19:05:31  5-MIN KAVL 170005Z 34005KT 10SM HZ CLR 12/00 A3001 2090 44 2200 350/05 RMK AO2 T01170000
03812KAVL AVL20161116191010811/16/16 19:10:31  5-MIN KAVL 170010Z 36005KT 10SM HZ CLR 12/M01 A3001 2080 41 2300 360/05 RMK AO2 T01221006
03812KAVL AVL20161116191510811/16/16 19:15:31  5-MIN KAVL 170015Z 36004KT 10SM HZ CLR 13/M01 A3001 2080 39 2300 360/04 RMK AO2 T01281006
03812KAVL AVL20161116192010811/16/16 19:20:31  5-MIN KAVL 170020Z 36005KT 10SM HZ CLR 13/M01 A3002 2080 39 2300 360/05 RMK AO2 T01281006
03812KAVL AVL20161116192510811/16/16 19:25:31  5-MIN KAVL 170025Z 34005KT 10SM HZ CLR 12/M01 A3002 2080 41 2300 350/05 RMK AO2 T01221006
03812KAVL AVL20161116193010811/16/16 19:30:31  5-MIN KAVL 170030Z 35004KT 10SM HZ CLR 12/M01 A3002 2080 41 2300 350/04 RMK AO2 T01221006
03812KAVL AVL20161116193510711/16/16 19:35:31  5-MIN KAVL 170035Z 35003KT 10SM HZ CLR 12/00 A3002 2080 43 2300 350/03 RMK AO2 T01220000
03812KAVL AVL20161116194010811/16/16 19:40:31  5-MIN KAVL 170040Z 35003KT 10SM HZ CLR 12/M01 A3002 2070 42 2200 350/03 RMK AO2 T01171006
03812KAVL AVL20161116194510811/16/16 19:45:31  5-MIN KAVL 170045Z 34003KT 10SM HZ CLR 12/M01 A3002 2070 41 2300 350/03 RMK AO2 T01221006
03812KAVL AVL20161116195011411/16/16 19:50:31  5-MIN KAVL 170050Z 35003KT 10SM HZ CLR 12/00 A3002 2070 44 2200 360/03 RMK AO2 SLP165 T01170000
03812KAVL AVL20161116195510711/16/16 19:55:31  5-MIN KAVL 170055Z 33004KT 10SM HZ CLR 12/00 A3002 2070 44 2200 330/04 RMK AO2 T01170000
03812KAVL AVL20161116200010711/16/16 20:00:31  5-MIN KAVL 170100Z 33004KT 10SM HZ CLR 12/00 A3002 2070 43 2300 340/04 RMK AO2 T01220000
03812KAVL AVL20161116200510811/16/16 20:05:31  5-MIN KAVL 170105Z 35004KT 10SM HZ CLR 11/M01 A3002 2070 44 2100 350/04 RMK AO2 T01111006
03812KAVL AVL20161116201010711/16/16 20:10:31  5-MIN KAVL 170110Z 35004KT 10SM HZ CLR 11/00 A3003 2070 46 2100 350/04 RMK AO2 T01110000
03812KAVL AVL20161116201510711/16/16 20:15:31  5-MIN KAVL 170115Z 35003KT 10SM HZ CLR 11/00 A3003 2070 46 2100 360/03 RMK AO2 T01110000
03812KAVL AVL20161116202010711/16/16 20:20:31  5-MIN KAVL 170120Z 36004KT 10SM HZ CLR 11/00 A3003 2070 46 2100 360/04 RMK AO2 T01110000
03812KAVL AVL20161116202510711/16/16 20:25:31  5-MIN KAVL 170125Z 01004KT 10SM HZ CLR 11/00 A3003 2070 48 2100 010/04 RMK AO2 T01060000
03812KAVL AVL20161116203010711/16/16 20:30:31  5-MIN KAVL 170130Z 35004KT 10SM HZ CLR 11/00 A3003 2070 46 2100 360/04 RMK AO2 T01110000
03812KAVL AVL20161116203510711/16/16 20:35:31  5-MIN KAVL 170135Z 36005KT 10SM HZ CLR 11/00 A3003 2070 46 2100 360/05 RMK AO2 T01110000
03812KAVL AVL20161116204010711/16/16 20:40:31  5-MIN KAVL 170140Z 35005KT 10SM HZ CLR 11/00 A3003 2070 46 2100 350/05 RMK AO2 T01110000
03812KAVL AVL20161116204510711/16/16 20:45:31  5-MIN KAVL 170145Z 36004KT 10SM HZ CLR 11/00 A3003 2060 48 2100 360/04 RMK AO2 T01060000
03812KAVL AVL20161116205011411/16/16 20:50:31  5-MIN KAVL 170150Z 36003KT 10SM HZ CLR 11/00 A3003 2060 48 2100 360/03 RMK AO2 SLP167 T01060000
03812KAVL AVL20161116205510711/16/16 20:55:31  5-MIN KAVL 170155Z 35003KT 10SM HZ CLR 11/00 A3004 2060 48 2100 360/03 RMK AO2 T01060000
03812KAVL AVL20161116210010711/16/16 21:00:31  5-MIN KAVL 170200Z 36003KT 10SM HZ CLR 10/00 A3004 2060 49 2000 360/03 RMK AO2 T01000000
03812KAVL AVL20161116210510711/16/16 21:05:31  5-MIN KAVL 170205Z 36004KT 10SM HZ CLR 10/00 A3004 2060 49 2000 360/04 RMK AO2 T01000000
03812KAVL AVL20161116211010711/16/16 21:10:31  5-MIN KAVL 170210Z 36004KT 10SM HZ CLR 09/00 A3004 2060 53 1900 360/04 RMK AO2 T00890000
03812KAVL AVL20161116211510711/16/16 21:15:31  5-MIN KAVL 170215Z 36004KT 10SM HZ CLR 09/00 A3004 2050 51 1900 360/04 RMK AO2 T00940000
03812KAVL AVL20161116212010711/16/16 21:20:31  5-MIN KAVL 170220Z 36004KT 10SM HZ CLR 10/00 A3004 2050 49 2000 360/04 RMK AO2 T01000000
03812KAVL AVL20161116212510711/16/16 21:25:31  5-MIN KAVL 170225Z 36004KT 10SM HZ CLR 10/00 A3004 2050 49 2000 360/04 RMK AO2 T01000000
03812KAVL AVL20161116213010711/16/16 21:30:31  5-MIN KAVL 170230Z 35004KT 10SM HZ CLR 10/00 A3005 2050 49 2000 360/04 RMK AO2 T01000000
03812KAVL AVL20161116213510711/16/16 21:35:31  5-MIN KAVL 170235Z 35004KT 10SM HZ CLR 10/00 A3005 2050 49 2000 360/04 RMK AO2 T01000000
03812KAVL AVL20161116214010711/16/16 21:40:31  5-MIN KAVL 170240Z 36004KT 10SM HZ CLR 09/00 A3005 2050 51 1900 010/04 RMK AO2 T00940000
03812KAVL AVL20161116214510711/16/16 21:45:31  5-MIN KAVL 170245Z 01005KT 10SM HZ CLR 10/01 A3005 2050 52 2000 010/05 RMK AO2 T01000006
03812KAVL AVL20161116215012011/16/16 21:50:31  5-MIN KAVL 170250Z 01004KT 10SM HZ CLR 10/00 A3005 2050 49 2000 010/04 RMK AO2 SLP170 T01000000 53014
03812KAVL AVL20161116215510711/16/16 21:55:31  5-MIN KAVL 170255Z 00000KT 10SM HZ CLR 09/01 A3005 2040 56 1800 000/00 RMK AO2 T00890006
03812KAVL AVL20161116220010411/16/16 22:00:31  5-MIN KAVL 170300Z 00000KT 10SM CLR 07/01 A3005 2040 62 1600 000/00 RMK AO2 T00720006
03812KAVL AVL20161116220510411/16/16 22:05:31  5-MIN KAVL 170305Z 00000KT 10SM CLR 07/00 A3006 2040 62 1600 000/00 RMK AO2 T00670000
03812KAVL AVL20161116221010411/16/16 22:10:31  5-MIN KAVL 170310Z 00000KT 10SM CLR 06/01 A3006 2040 67 1500 000/00 RMK AO2 T00610006
03812KAVL AVL20161116221510411/16/16 22:15:31  5-MIN KAVL 170315Z 00000KT 10SM CLR 07/01 A3006 2040 65 1600 000/00 RMK AO2 T00670006
03812KAVL AVL20161116222010411/16/16 22:20:31  5-MIN KAVL 170320Z 00000KT 10SM CLR 06/01 A3006 2040 67 1500 000/00 RMK AO2 T00610006
03812KAVL AVL20161116222510411/16/16 22:25:31  5-MIN KAVL 170325Z 00000KT 10SM CLR 06/01 A3006 2040 67 1500 000/00 RMK AO2 T00610006
03812KAVL AVL20161116223010411/16/16 22:30:31  5-MIN KAVL 170330Z 00000KT 10SM CLR 06/01 A3006 2040 67 1500 000/00 RMK AO2 T00610006
03812KAVL AVL20161116223510411/16/16 22:35:31  5-MIN KAVL 170335Z 00000KT 10SM CLR 07/01 A3006 2040 65 1600 000/00 RMK AO2 T00670006
03812KAVL AVL20161116224010411/16/16 22:40:31  5-MIN KAVL 170340Z 00000KT 10SM CLR 06/01 A3006 2040 67 1500 000/00 RMK AO2 T00610006
03812KAVL AVL20161116224510411/16/16 22:45:31  5-MIN KAVL 170345Z 00000KT 10SM CLR 07/01 A3006 2040 65 1600 000/00 RMK AO2 T00670006
03812KAVL AVL20161116225011111/16/16 22:50:31  5-MIN KAVL 170350Z 00000KT 10SM CLR 06/01 A3006 2040 67 1500 000/00 RMK AO2 SLP172 T00610006
03812KAVL AVL20161116225510911/16/16 22:55:31  5-MIN KAVL 170355Z AUTO 00000KT 10SM CLR 06/01 A3006 2040 70 1400 000/00 RMK AO2 T00560006
03812KAVL AVL20161116230010911/16/16 23:00:31  5-MIN KAVL 170400Z AUTO 00000KT 10SM CLR 06/01 A3006 2040 70 1400 000/00 RMK AO2 T00560006
03812KAVL AVL20161116230510911/16/16 23:05:31  5-MIN KAVL 170405Z AUTO 00000KT 10SM CLR 05/00 A3006 2030 70 1400 000/00 RMK AO2 T00500000
03812KAVL AVL20161116231010911/16/16 23:10:31  5-MIN KAVL 170410Z AUTO 00000KT 10SM CLR 06/00 A3007 2030 67 1400 000/00 RMK AO2 T00560000
03812KAVL AVL20161116231510911/16/16 23:15:31  5-MIN KAVL 170415Z AUTO 00000KT 10SM CLR 06/00 A3007 2030 67 1400 000/00 RMK AO2 T00560000
03812KAVL AVL20161116232010911/16/16 23:20:31  5-MIN KAVL 170420Z AUTO 00000KT 10SM CLR 06/00 A3007 2030 67 1400 000/00 RMK AO2 T00560000
03812KAVL AVL20161116232510911/16/16 23:25:31  5-MIN KAVL 170425Z AUTO 00000KT 10SM CLR 05/00 A3007 2030 70 1400 000/00 RMK AO2 T00500000
03812KAVL AVL20161116233010911/16/16 23:30:31  5-MIN KAVL 170430Z AUTO 00000KT 10SM CLR 04/00 A3007 2030 73 1300 000/00 RMK AO2 T00440000
03812KAVL AVL20161116233510911/16/16 23:35:31  5-MIN KAVL 170435Z AUTO 00000KT 10SM CLR 04/00 A3007 2030 73 1300 000/00 RMK AO2 T00440000
03812KAVL AVL20161116234010911/16/16 23:40:31  5-MIN KAVL 170440Z AUTO 00000KT 10SM CLR 05/00 A3007 2030 70 1300 000/00 RMK AO2 T00500000
03812KAVL AVL20161116234510911/16/16 23:45:31  5-MIN KAVL 170445Z AUTO 00000KT 10SM CLR 06/01 A3007 2030 70 1400 000/00 RMK AO2 T00560006
03812KAVL AVL20161116235012611/16/16 23:50:31  5-MIN KAVL 170450Z AUTO 32004KT 10SM CLR 06/01 A3007 2030 70 1400 330/04 RMK AO2 SLP175 T00560006 401940000
03812KAVL AVL20161116235510911/16/16 23:55:31  5-MIN KAVL 170455Z AUTO 31005KT 10SM CLR 05/00 A3007 2030 70 1300 320/05 RMK AO2 T00500000
03812KAVL AVL20161117000010911/17/16 00:00:31  5-MIN KAVL 170500Z AUTO 29004KT 10SM CLR 05/00 A3007 2030 70 1300 300/04 RMK AO2 T00500000
03812KAVL AVL20161117000510911/17/16 00:05:31  5-MIN KAVL 170505Z AUTO 29004KT 10SM CLR 04/00 A3007 2030 73 1300 300/04 RMK AO2 T00440000
03812KAVL AVL20161117001010911/17/16 00:10:31  5-MIN KAVL 170510Z AUTO 30003KT 10SM CLR 04/00 A3007 2030 73 1300 310/03 RMK AO2 T00440000
03812KAVL AVL20161117001510911/17/16 00:15:31  5-MIN KAVL 170515Z AUTO 31003KT 10SM CLR 04/00 A3007 2030 73 1300 320/03 RMK AO2 T00440000
03812KAVL AVL20161117002010911/17/16 00:20:31  5-MIN KAVL 170520Z AUTO 31004KT 10SM CLR 04/00 A3007 2030 73 1300 320/04 RMK AO2 T00440000
03812KAVL AVL20161117002510911/17/16 00:25:31  5-MIN KAVL 170525Z AUTO 00000KT 10SM CLR 04/00 A3007 2030 76 1200 000/00 RMK AO2 T00390000
03812KAVL AVL20161117003010911/17/16 00:30:31  5-MIN KAVL 170530Z AUTO 00000KT 10SM CLR 04/00 A3007 2020 76 1200 000/00 RMK AO2 T00390000
03812KAVL AVL20161117003510911/17/16 00:35:31  5-MIN KAVL 170535Z AUTO 32004KT 10SM CLR 03/00 A3008 2020 79 1100 330/04 RMK AO2 T00330000
03812KAVL AVL20161117004010911/17/16 00:40:31  5-MIN KAVL 170540Z AUTO 30004KT 10SM CLR 03/00 A3008 2020 79 1100 310/04 RMK AO2 T00330000
03812KAVL AVL20161117004510911/17/16 00:45:31  5-MIN KAVL 170545Z AUTO 31005KT 10SM CLR 03/00 A3008 2020 79 1100 320/05 RMK AO2 T00330000
03812KAVL AVL20161117005013411/17/16 00:50:31  5-MIN KAVL 170550Z AUTO 31004KT 10SM CLR 04/00 A3008 2020 76 1200 320/04 RMK AO2 SLP177 T00390000 10128 20033 53014
03812KAVL AVL20161117005510911/17/16 00:55:31  5-MIN KAVL 170555Z AUTO 00000KT 10SM CLR 03/00 A3008 2020 79 1100 000/00 RMK AO2 T00330000
03812KAVL AVL20161117010011011/17/16 01:00:31  5-MIN KAVL 170600Z AUTO 00000KT 10SM CLR 03/M01 A3008 2020 76 1100 000/00 RMK AO2 T00331006
03812KAVL AVL20161117010510911/17/16 01:05:31  5-MIN KAVL 170605Z AUTO 00000KT 10SM CLR 03/00 A3007 2030 79 1100 000/00 RMK AO2 T00330000
03812KAVL AVL20161117011010911/17/16 01:10:31  5-MIN KAVL 170610Z AUTO 00000KT 10SM CLR 03/00 A3007 2030 79 1100 000/00 RMK AO2 T00330000
03812KAVL AVL20161117011511011/17/16 01:15:31  5-MIN KAVL 170615Z AUTO 00000KT 10SM CLR 03/M01 A3007 2030 76 1100 000/00 RMK AO2 T00331006
03812KAVL AVL20161117012011011/17/16 01:20:31  5-MIN KAVL 170620Z AUTO 00000KT 10SM CLR 03/M01 A3007 2030 79 1100 000/00 RMK AO2 T00281006
03812KAVL AVL20161117012511011/17/16 01:25:31  5-MIN KAVL 170625Z AUTO 00000KT 10SM CLR 03/M01 A3007 2030 79 1100 000/00 RMK AO2 T00281006
03812KAVL AVL20161117013011011/17/16 01:30:31  5-MIN KAVL 170630Z AUTO 00000KT 10SM CLR 03/M01 A3007 2030 79 1100 000/00 RMK AO2 T00281006
03812KAVL AVL20161117013511011/17/16 01:35:31  5-MIN KAVL 170635Z AUTO 00000KT 10SM CLR 03/M01 A3007 2030 79 1100 000/00 RMK AO2 T00281006
03812KAVL AVL20161117014011011/17/16 01:40:31  5-MIN KAVL 170640Z AUTO 00000KT 10SM CLR 03/M01 A3008 2020 79 1100 000/00 RMK AO2 T00281006
03812KAVL AVL20161117014511011/17/16 01:45:31  5-MIN KAVL 170645Z AUTO 00000KT 10SM CLR 03/M01 A3008 2020 79 1100 000/00 RMK AO2 T00281006
03812KAVL AVL20161117015011711/17/16 01:50:31  5-MIN KAVL 170650Z AUTO 00000KT 10SM CLR 02/M01 A3008 2020 82 1000 000/00 RMK AO2 SLP177 T00221006
03812KAVL AVL20161117015511011/17/16 01:55:31  5-MIN KAVL 170655Z AUTO 00000KT 10SM CLR 03/M01 A3008 2020 79 1100 000/00 RMK AO2 T00281006
03812KAVL AVL20161117020011011/17/16 02:00:31  5-MIN KAVL 170700Z AUTO 18003KT 10SM CLR 02/M01 A3008 2020 82 1000 180/03 RMK AO2 T00221006
03812KAVL AVL20161117020511011/17/16 02:05:31  5-MIN KAVL 170705Z AUTO 00000KT 10SM CLR 02/M01 A3008 2020 82 1000 000/00 RMK AO2 T00221006
03812KAVL AVL20161117021010911/17/16 02:10:31  5-MIN KAVL 170710Z AUTO 00000KT 10SM CLR 02/M01 A3008 2020 82 900 000/00 RMK AO2 T00171011
03812KAVL AVL20161117021511011/17/16 02:15:31  5-MIN KAVL 170715Z AUTO 00000KT 10SM CLR 02/M01 A3008 2020 82 1000 000/00 RMK AO2 T00221006
03812KAVL AVL20161117022011011/17/16 02:20:31  5-MIN KAVL 170720Z AUTO 00000KT 10SM CLR 02/M01 A3008 2020 82 1000 000/00 RMK AO2 T00221006
03812KAVL AVL20161117022511011/17/16 02:25:31  5-MIN KAVL 170725Z AUTO 00000KT 10SM CLR 02/M01 A3009 2020 82 1000 000/00 RMK AO2 T00221006
03812KAVL AVL20161117023011011/17/16 02:30:31  5-MIN KAVL 170730Z AUTO 00000KT 10SM CLR 02/M01 A3009 2010 78 1000 000/00 RMK AO2 T00221011
03812KAVL AVL20161117023511011/17/16 02:35:31  5-MIN KAVL 170735Z AUTO 00000KT 10SM CLR 02/M01 A3009 2010 78 1000 000/00 RMK AO2 T00221011
03812KAVL AVL20161117024011011/17/16 02:40:31  5-MIN KAVL 170740Z AUTO 00000KT 10SM CLR 02/M01 A3009 2010 78 1000 000/00 RMK AO2 T00221011
03812KAVL AVL20161117024511011/17/16 02:45:31  5-MIN KAVL 170745Z AUTO 00000KT 10SM CLR 02/M01 A3009 2010 78 1000 000/00 RMK AO2 T00221011
03812KAVL AVL20161117025011711/17/16 02:50:31  5-MIN KAVL 170750Z AUTO 00000KT 10SM CLR 02/M01 A3009 2010 78 1000 000/00 RMK AO2 SLP182 T00221011
03812KAVL AVL20161117025510911/17/16 02:55:31  5-MIN KAVL 170755Z AUTO 00000KT 10SM CLR 02/M01 A3009 2010 82 900 000/00 RMK AO2 T00171011
03812KAVL AVL20161117030010911/17/16 03:00:31  5-MIN KAVL 170800Z AUTO 00000KT 10SM CLR 01/M01 A3009 2010 85 800 000/00 RMK AO2 T00111011
03812KAVL AVL20161117030510911/17/16 03:05:31  5-MIN KAVL 170805Z AUTO 00000KT 10SM CLR 02/M01 A3009 2010 82 900 000/00 RMK AO2 T00171011
03812KAVL AVL20161117031010911/17/16 03:10:31  5-MIN KAVL 170810Z AUTO 00000KT 10SM CLR 02/M01 A3009 2010 82 900 000/00 RMK AO2 T00171011
03812KAVL AVL20161117031510911/17/16 03:15:31  5-MIN KAVL 170815Z AUTO 00000KT 10SM CLR 01/M01 A3009 2010 85 800 000/00 RMK AO2 T00111011
03812KAVL AVL20161117032010911/17/16 03:20:31  5-MIN KAVL 170820Z AUTO 00000KT 10SM CLR 01/M01 A3009 2010 85 800 000/00 RMK AO2 T00111011
03812KAVL AVL20161117032510911/17/16 03:25:31  5-MIN KAVL 170825Z AUTO 00000KT 10SM CLR 02/M01 A3009 2010 82 900 000/00 RMK AO2 T00171011
03812KAVL AVL20161117033010911/17/16 03:30:31  5-MIN KAVL 170830Z AUTO 00000KT 10SM CLR 01/M01 A3009 2010 85 800 000/00 RMK AO2 T00111011
03812KAVL AVL20161117033510911/17/16 03:35:31  5-MIN KAVL 170835Z AUTO 00000KT 10SM CLR 01/M02 A3010 2010 82 800 000/00 RMK AO2 T00111017
03812KAVL AVL20161117034010911/17/16 03:40:31  5-MIN KAVL 170840Z AUTO 00000KT 10SM CLR 02/M01 A3010 2010 82 900 000/00 RMK AO2 T00171011
03812KAVL AVL20161117034510911/17/16 03:45:31  5-MIN KAVL 170845Z AUTO 00000KT 10SM CLR 02/M01 A3010 2000 82 900 000/00 RMK AO2 T00171011
03812KAVL AVL20161117035012211/17/16 03:50:31  5-MIN KAVL 170850Z AUTO 00000KT 10SM CLR 02/M01 A3010 2000 82 900 000/00 RMK AO2 SLP185 T00171011 51007
03812KAVL AVL20161117035510911/17/16 03:55:31  5-MIN KAVL 170855Z AUTO 00000KT 10SM CLR 01/M02 A3010 2000 82 800 000/00 RMK AO2 T00111017
03812KAVL AVL20161117040010911/17/16 04:00:31  5-MIN KAVL 170900Z AUTO 00000KT 10SM CLR 01/M02 A3011 2000 82 800 000/00 RMK AO2 T00111017
03812KAVL AVL20161117040510911/17/16 04:05:31  5-MIN KAVL 170905Z AUTO 00000KT 10SM CLR 01/M02 A3011 2000 82 800 000/00 RMK AO2 T00111017
03812KAVL AVL20161117041010911/17/16 04:10:31  5-MIN KAVL 170910Z AUTO 00000KT 10SM CLR 01/M02 A3011 1990 82 800 000/00 RMK AO2 T00111017
03812KAVL AVL20161117041510911/17/16 04:15:31  5-MIN KAVL 170915Z AUTO 00000KT 10SM CLR 01/M01 A3011 1990 85 800 000/00 RMK AO2 T00111011
03812KAVL AVL20161117042010911/17/16 04:20:31  5-MIN KAVL 170920Z AUTO 00000KT 10SM CLR 01/M02 A3011 1990 85 800 000/00 RMK AO2 T00061017
03812KAVL AVL20161117042510911/17/16 04:25:31  5-MIN KAVL 170925Z AUTO 00000KT 10SM CLR 01/M01 A3011 1990 89 800 000/00 RMK AO2 T00061011
03812KAVL AVL20161117043010911/17/16 04:30:31  5-MIN KAVL 170930Z AUTO 00000KT 10SM CLR 00/M02 A3011 1990 88 700 000/00 RMK AO2 T00001017
03812KAVL AVL20161117043510911/17/16 04:35:31  5-MIN KAVL 170935Z AUTO 00000KT 10SM CLR 01/M02 A3011 1990 85 800 000/00 RMK AO2 T00061017
03812KAVL AVL20161117044010911/17/16 04:40:31  5-MIN KAVL 170940Z AUTO 00000KT 10SM CLR 01/M02 A3011 1990 85 800 000/00 RMK AO2 T00061017
03812KAVL AVL20161117044510911/17/16 04:45:31  5-MIN KAVL 170945Z AUTO 00000KT 10SM CLR 01/M02 A3011 1990 82 800 000/00 RMK AO2 T00111017
03812KAVL AVL20161117045011611/17/16 04:50:31  5-MIN KAVL 170950Z AUTO 00000KT 10SM CLR 01/M02 A3011 1990 85 800 000/00 RMK AO2 SLP191 T00061017
03812KAVL AVL20161117045510911/17/16 04:55:31  5-MIN KAVL 170955Z AUTO 00000KT 10SM CLR 01/M02 A3011 1990 82 800 000/00 RMK AO2 T00111017
03812KAVL AVL20161117050010911/17/16 05:00:31  5-MIN KAVL 171000Z AUTO 00000KT 10SM CLR 01/M02 A3012 1990 82 800 000/00 RMK AO2 T00111017
03812KAVL AVL20161117050510911/17/16 05:05:31  5-MIN KAVL 171005Z AUTO 00000KT 10SM CLR 01/M02 A3012 1990 82 800 000/00 RMK AO2 T00111017
03812KAVL AVL20161117051010911/17/16 05:10:31  5-MIN KAVL 171010Z AUTO 00000KT 10SM CLR 01/M02 A3012 1990 82 800 000/00 RMK AO2 T00111017
03812KAVL AVL20161117051510911/17/16 05:15:31  5-MIN KAVL 171015Z AUTO 00000KT 10SM CLR 01/M02 A3012 1990 82 800 000/00 RMK AO2 T00111017
03812KAVL AVL20161117052010911/17/16 05:20:31  5-MIN KAVL 171020Z AUTO 00000KT 10SM CLR 01/M02 A3012 1980 82 800 000/00 RMK AO2 T00111017
03812KAVL AVL20161117052510911/17/16 05:25:31  5-MIN KAVL 171025Z AUTO 00000KT 10SM CLR 01/M02 A3012 1980 82 800 000/00 RMK AO2 T00111017
03812KAVL AVL20161117053010911/17/16 05:30:31  5-MIN KAVL 171030Z AUTO 00000KT 10SM CLR 01/M02 A3012 1980 82 800 000/00 RMK AO2 T00111017
03812KAVL AVL20161117053510911/17/16 05:35:31  5-MIN KAVL 171035Z AUTO 00000KT 10SM CLR 01/M02 A3012 1980 82 800 000/00 RMK AO2 T00111017
03812KAVL AVL20161117054010911/17/16 05:40:31  5-MIN KAVL 171040Z AUTO 00000KT 10SM CLR 01/M02 A3013 1980 85 700 000/00 RMK AO2 T00061017
03812KAVL AVL20161117054510911/17/16 05:45:31  5-MIN KAVL 171045Z AUTO 00000KT 10SM CLR 01/M02 A3013 1980 85 700 000/00 RMK AO2 T00061017
03812KAVL AVL20161117055011611/17/16 05:50:31  5-MIN KAVL 171050Z AUTO 00000KT 10SM CLR 01/M02 A3013 1970 85 700 000/00 RMK AO2 SLP201 T00061017
03812KAVL AVL20161117055510911/17/16 05:55:31  5-MIN KAVL 171055Z AUTO 00000KT 10SM CLR 01/M02 A3013 1970 85 700 000/00 RMK AO2 T00061017
03812KAVL AVL20161117060010911/17/16 06:00:31  5-MIN KAVL 171100Z AUTO 00000KT 10SM CLR 01/M02 A3013 1970 85 700 000/00 RMK AO2 T00061017
03812KAVL AVL20161117060510411/17/16 06:05:31  5-MIN KAVL 171105Z 00000KT 10SM CLR 01/M02 A3013 1970 85 700 000/00 RMK AO2 T00061017
03812KAVL AVL20161117061010411/17/16 06:10:31  5-MIN KAVL 171110Z 00000KT 10SM CLR 01/M02 A3013 1970 85 700 000/00 RMK AO2 T00061017
03812KAVL AVL20161117061510411/17/16 06:15:31  5-MIN KAVL 171115Z 00000KT 10SM CLR 01/M02 A3014 1970 82 800 000/00 RMK AO2 T00111017
03812KAVL AVL20161117062010411/17/16 06:20:31  5-MIN KAVL 171120Z 00000KT 10SM CLR 01/M02 A3014 1970 82 800 000/00 RMK AO2 T00111017
03812KAVL AVL20161117062510411/17/16 06:25:31  5-MIN KAVL 171125Z 00000KT 10SM CLR 01/M02 A3014 1970 85 700 000/00 RMK AO2 T00061017
03812KAVL AVL20161117063010411/17/16 06:30:31  5-MIN KAVL 171130Z 00000KT 10SM CLR 01/M02 A3014 1960 85 700 000/00 RMK AO2 T00061017
03812KAVL AVL20161117063510511/17/16 06:35:31  5-MIN KAVL 171135Z 00000KT 10SM CLR M01/M02 A3014 1960 88 600 000/00 RMK AO2 T10061022
03812KAVL AVL20161117064010511/17/16 06:40:31  5-MIN KAVL 171140Z 00000KT 10SM CLR M01/M02 A3015 1960 88 600 000/00 RMK AO2 T10061022
03812KAVL AVL20161117064510511/17/16 06:45:31  5-MIN KAVL 171145Z 00000KT 10SM CLR M01/M02 A3015 1960 88 600 000/00 RMK AO2 T10061022
03812KAVL AVL20161117065013011/17/16 06:50:31  5-MIN KAVL 171150Z 00000KT 10SM CLR M01/M02 A3015 1960 88 600 000/00 RMK AO2 SLP209 T10061022 10033 21006 53008
03812KAVL AVL20161117065510411/17/16 06:55:31  5-MIN KAVL 171155Z 00000KT 10SM CLR 00/M02 A3015 1960 88 600 000/00 RMK AO2 T00001017
03812KAVL AVL20161117070010411/17/16 07:00:31  5-MIN KAVL 171200Z 00000KT 10SM CLR 00/M02 A3015 1960 88 600 000/00 RMK AO2 T00001017
03812KAVL AVL20161117070510411/17/16 07:05:31  5-MIN KAVL 171205Z 00000KT 10SM CLR 00/M02 A3015 1960 88 600 000/00 RMK AO2 T00001017
03812KAVL AVL20161117071010411/17/16 07:10:31  5-MIN KAVL 171210Z 00000KT 10SM CLR 00/M02 A3015 1950 85 600 000/00 RMK AO2 T00001022
03812KAVL AVL20161117071510411/17/16 07:15:31  5-MIN KAVL 171215Z 00000KT 10SM CLR 00/M02 A3015 1950 85 600 000/00 RMK AO2 T00001022
03812KAVL AVL20161117072010411/17/16 07:20:31  5-MIN KAVL 171220Z 00000KT 10SM CLR 00/M02 A3016 1950 85 600 000/00 RMK AO2 T00001022
03812KAVL AVL20161117072510411/17/16 07:25:31  5-MIN KAVL 171225Z 00000KT 10SM CLR 01/M02 A3016 1950 82 700 000/00 RMK AO2 T00061022
03812KAVL AVL20161117073010311/17/16 07:30:31  5-MIN KAVL 171230Z 00000KT 9SM CLR 01/M02 A3016 1950 85 700 000/00 RMK AO2 T00061017
03812KAVL AVL20161117073510311/17/16 07:35:31  5-MIN KAVL 171235Z 00000KT 7SM CLR 01/M02 A3016 1940 85 700 000/00 RMK AO2 T00061017
03812KAVL AVL20161117074010311/17/16 07:40:31  5-MIN KAVL 171240Z 00000KT 8SM CLR 01/M02 A3017 1940 85 700 000/00 RMK AO2 T00061017
03812KAVL AVL20161117074510411/17/16 07:45:31  5-MIN KAVL 171245Z 00000KT 10SM CLR 01/M01 A3017 1940 89 700 000/00 RMK AO2 T00061011
03812KAVL AVL20161117075011011/17/16 07:50:31  5-MIN KAVL 171250Z 00000KT 7SM CLR 01/M01 A3017 1940 89 700 000/00 RMK AO2 SLP218 T00061011
03812KAVL AVL20161117075510611/17/16 07:55:31  5-MIN KAVL 171255Z 00000KT 6SM BR CLR 01/M01 A3017 1930 85 800 000/00 RMK AO2 T00111011
03812KAVL AVL20161117080010611/17/16 08:00:31  5-MIN KAVL 171300Z 00000KT 5SM BR CLR 01/M01 A3017 1940 85 800 000/00 RMK AO2 T00111011
03812KAVL AVL20161117080510611/17/16 08:05:31  5-MIN KAVL 171305Z 00000KT 6SM BR CLR 02/M01 A3017 1930 85 800 000/00 RMK AO2 T00171006
03812KAVL AVL20161117081010311/17/16 08:10:31  5-MIN KAVL 171310Z 00000KT 8SM CLR 02/M01 A3018 1930 85 800 000/00 RMK AO2 T00171006
03812KAVL AVL20161117081510311/17/16 08:15:31  5-MIN KAVL 171315Z 00000KT 8SM CLR 02/M01 A3018 1930 82 900 000/00 RMK AO2 T00221006
03812KAVL AVL20161117082010311/17/16 08:20:31  5-MIN KAVL 171320Z 00000KT 9SM CLR 02/M01 A3018 1930 82 900 000/00 RMK AO2 T00221006
03812KAVL AVL20161117082510311/17/16 08:25:31  5-MIN KAVL 171325Z 00000KT 9SM CLR 03/00 A3018 1930 82 1000 000/00 RMK AO2 T00280000
03812KAVL AVL20161117083010211/17/16 08:30:31  5-MIN KAVL 171330Z 00000KT 9SM CLR 03/00 A3018 1930 82 900 000/00 RMK AO2 T00280000
03812KAVL AVL20161117083510411/17/16 08:35:31  5-MIN KAVL 171335Z 00000KT 10SM CLR 03/00 A3018 1920 79 1000 000/00 RMK AO2 T00330000
03812KAVL AVL20161117084010311/17/16 08:40:31  5-MIN KAVL 171340Z 00000KT 9SM CLR 04/01 A3019 1920 79 1100 000/00 RMK AO2 T00390006
03812KAVL AVL20161117084510311/17/16 08:45:31  5-MIN KAVL 171345Z 00000KT 9SM CLR 04/01 A3019 1920 79 1100 000/00 RMK AO2 T00390006
03812KAVL AVL20161117085011111/17/16 08:50:31  5-MIN KAVL 171350Z 00000KT 10SM CLR 04/01 A3019 1920 76 1100 000/00 RMK AO2 SLP220 T00440006
03812KAVL AVL20161117085510411/17/16 08:55:31  5-MIN KAVL 171355Z 00000KT 10SM CLR 05/01 A3019 1920 73 1200 000/00 RMK AO2 T00500006
03812KAVL AVL20161117090010411/17/16 09:00:31  5-MIN KAVL 171400Z 00000KT 10SM CLR 06/01 A3019 1920 73 1300 000/00 RMK AO2 T00560011
03812KAVL AVL20161117090510411/17/16 09:05:31  5-MIN KAVL 171405Z 00000KT 10SM CLR 07/01 A3019 1920 67 1400 000/00 RMK AO2 T00670011
03812KAVL AVL20161117091010411/17/16 09:10:31  5-MIN KAVL 171410Z 00000KT 10SM CLR 07/01 A3019 1920 67 1400 000/00 RMK AO2 T00670011
03812KAVL AVL20161117091510411/17/16 09:15:31  5-MIN KAVL 171415Z 00000KT 10SM CLR 07/01 A3019 1920 65 1500 000/00 RMK AO2 T00720011
03812KAVL AVL20161117092010411/17/16 09:20:31  5-MIN KAVL 171420Z 00000KT 10SM CLR 07/01 A3019 1920 65 1500 000/00 RMK AO2 T00720011
03812KAVL AVL20161117092510411/17/16 09:25:31  5-MIN KAVL 171425Z 00000KT 10SM CLR 08/01 A3019 1920 62 1600 000/00 RMK AO2 T00780011
03812KAVL AVL20161117093010411/17/16 09:30:31  5-MIN KAVL 171430Z 00000KT 10SM CLR 08/01 A3019 1920 60 1600 000/00 RMK AO2 T00830011
03812KAVL AVL20161117093510411/17/16 09:35:31  5-MIN KAVL 171435Z 16003KT 10SM CLR 08/01 A3019 1920 62 1600 170/03 RMK AO2 T00780011
03812KAVL AVL20161117094010411/17/16 09:40:31  5-MIN KAVL 171440Z 00000KT 10SM CLR 08/01 A3019 1920 60 1600 000/00 RMK AO2 T00830011
03812KAVL AVL20161117094510611/17/16 09:45:31  5-MIN KAVL 171445Z 00000KT 6SM HZ CLR 09/01 A3019 1920 58 1700 000/00 RMK AO2 T00890011
03812KAVL AVL20161117095011911/17/16 09:50:31  5-MIN KAVL 171450Z 17003KT 5SM HZ CLR 09/01 A3019 1920 58 1700 180/03 RMK AO2 SLP218 T00890011 53014
03812KAVL AVL20161117095510311/17/16 09:55:31  5-MIN KAVL 171455Z 16004KT 7SM CLR 09/02 A3019 1920 58 1700 160/04 RMK AO2 T00940017
03812KAVL AVL20161117100010311/17/16 10:00:31  5-MIN KAVL 171500Z 16004KT 9SM CLR 09/02 A3019 1920 58 1700 170/04 RMK AO2 T00940017
03812KAVL AVL20161117100510411/17/16 10:05:31  5-MIN KAVL 171505Z 17004KT 10SM CLR 09/01 A3019 1920 56 1800 170/04 RMK AO2 T00940011
03812KAVL AVL20161117101010411/17/16 10:10:31  5-MIN KAVL 171510Z 17004KT 10SM CLR 09/01 A3019 1920 56 1700 180/04 RMK AO2 T00940011
03812KAVL AVL20161117101510411/17/16 10:15:31  5-MIN KAVL 171515Z 16004KT 10SM CLR 10/01 A3019 1920 54 1800 160/04 RMK AO2 T01000011
03812KAVL AVL20161117102010411/17/16 10:20:31  5-MIN KAVL 171520Z 16004KT 10SM CLR 11/01 A3019 1920 52 1900 170/04 RMK AO2 T01060011
03812KAVL AVL20161117102510411/17/16 10:25:31  5-MIN KAVL 171525Z 17003KT 10SM CLR 11/01 A3019 1920 50 1900 170/03 RMK AO2 T01110011
03812KAVL AVL20161117103010411/17/16 10:30:31  5-MIN KAVL 171530Z 17003KT 10SM CLR 11/01 A3019 1920 50 1900 170/03 RMK AO2 T01110011
03812KAVL AVL20161117103510411/17/16 10:35:31  5-MIN KAVL 171535Z 16004KT 10SM CLR 12/01 A3019 1920 46 2100 170/04 RMK AO2 T01220011
03812KAVL AVL20161117104010411/17/16 10:40:31  5-MIN KAVL 171540Z 17003KT 10SM CLR 12/01 A3019 1920 46 2100 180/03 RMK AO2 T01220011
03812KAVL AVL20161117104510411/17/16 10:45:31  5-MIN KAVL 171545Z 00000KT 10SM CLR 13/01 A3019 1920 43 2200 000/00 RMK AO2 T01330011
03812KAVL AVL20161117105011111/17/16 10:50:31  5-MIN KAVL 171550Z 00000KT 10SM CLR 14/01 A3019 1920 41 2300 000/00 RMK AO2 SLP216 T01390011
03812KAVL AVL20161117105510411/17/16 10:55:31  5-MIN KAVL 171555Z 00000KT 10SM CLR 15/01 A3018 1920 38 2400 000/00 RMK AO2 T01500011
03812KAVL AVL20161117110010411/17/16 11:00:31  5-MIN KAVL 171600Z 00000KT 10SM CLR 16/01 A3018 1930 37 2500 000/00 RMK AO2 T01560011
03812KAVL AVL20161117110510411/17/16 11:05:31  5-MIN KAVL 171605Z 36003KT 10SM CLR 17/01 A3018 1930 34 2600 360/03 RMK AO2 T01670011
03812KAVL AVL20161117111010411/17/16 11:10:31  5-MIN KAVL 171610Z 35004KT 10SM CLR 17/02 A3018 1930 36 2600 350/04 RMK AO2 T01670017
03812KAVL AVL20161117111510411/17/16 11:15:31  5-MIN KAVL 171615Z 33005KT 10SM CLR 17/02 A3018 1930 36 2600 340/05 RMK AO2 T01670017
03812KAVL AVL20161117112010411/17/16 11:20:31  5-MIN KAVL 171620Z 33005KT 10SM CLR 17/02 A3018 1930 36 2700 340/05 RMK AO2 T01720022
03812KAVL AVL20161117112510411/17/16 11:25:31  5-MIN KAVL 171625Z 32004KT 10SM CLR 18/02 A3017 1930 35 2700 320/04 RMK AO2 T01780022
03812KAVL AVL20161117113010411/17/16 11:30:31  5-MIN KAVL 171630Z 33006KT 10SM CLR 18/02 A3017 1940 34 2800 330/06 RMK AO2 T01830022
03812KAVL AVL20161117113510411/17/16 11:35:31  5-MIN KAVL 171635Z 34007KT 10SM CLR 18/02 A3017 1940 34 2800 340/07 RMK AO2 T01830022
03812KAVL AVL20161117114010411/17/16 11:40:31  5-MIN KAVL 171640Z 33006KT 10SM CLR 19/02 A3016 1940 32 2900 330/06 RMK AO2 T01890022
03812KAVL AVL20161117114510411/17/16 11:45:31  5-MIN KAVL 171645Z 31006KT 10SM CLR 19/02 A3016 1940 32 2900 320/06 RMK AO2 T01890022
03812KAVL AVL20161117115011111/17/16 11:50:31  5-MIN KAVL 171650Z VRB05KT 10SM CLR 19/03 A3016 1950 33 3000 VRB/05 RMK AO2 SLP202 T01940028
03812KAVL AVL20161117115510411/17/16 11:55:31  5-MIN KAVL 171655Z 35009KT 10SM CLR 20/03 A3016 1950 31 3000 350/09 RMK AO2 T02000028
03812KAVL AVL20161117120010411/17/16 12:00:31  5-MIN KAVL 171700Z 35009KT 10SM CLR 20/03 A3015 1950 31 3000 350/09 RMK AO2 T02000028
03812KAVL AVL20161117120510411/17/16 12:05:31  5-MIN KAVL 171705Z 34011KT 10SM CLR 19/03 A3015 1950 33 3000 350/11 RMK AO2 T01940028
03812KAVL AVL20161117121010411/17/16 12:10:31  5-MIN KAVL 171710Z 33010KT 10SM CLR 20/03 A3015 1960 31 3000 340/10 RMK AO2 T02000028
03812KAVL AVL20161117121510411/17/16 12:15:31  5-MIN KAVL 171715Z 34010KT 10SM CLR 20/03 A3015 1960 31 3000 350/10 RMK AO2 T02000028
03812KAVL AVL20161117122010411/17/16 12:20:31  5-MIN KAVL 171720Z 33011KT 10SM CLR 21/03 A3014 1960 32 3100 330/11 RMK AO2 T02060033
03812KAVL AVL20161117122510411/17/16 12:25:31  5-MIN KAVL 171725Z 34011KT 10SM CLR 20/03 A3014 1960 33 3000 350/11 RMK AO2 T02000033
03812KAVL AVL20161117123010411/17/16 12:30:31  5-MIN KAVL 171730Z 33009KT 10SM CLR 21/03 A3014 1960 32 3100 340/09 RMK AO2 T02060033
03812KAVL AVL20161117123510411/17/16 12:35:31  5-MIN KAVL 171735Z 36010KT 10SM CLR 21/03 A3014 1970 30 3100 360/10 RMK AO2 T02060028
03812KAVL AVL20161117124010411/17/16 12:40:31  5-MIN KAVL 171740Z 34009KT 10SM CLR 21/03 A3014 1970 30 3100 350/09 RMK AO2 T02060028
03812KAVL AVL20161117124510411/17/16 12:45:31  5-MIN KAVL 171745Z 34008KT 10SM CLR 21/03 A3013 1970 30 3100 350/08 RMK AO2 T02060028
03812KAVL AVL20161117125012911/17/16 12:50:31  5-MIN KAVL 171750Z 34010KT 10SM CLR 21/02 A3013 1970 29 3100 350/10 RMK AO2 SLP193 T02060022 10206 20000 51014
03812KAVL AVL20161117125510411/17/16 12:55:31  5-MIN KAVL 171755Z 34009KT 10SM CLR 21/02 A3013 1980 28 3200 350/09 RMK AO2 T02110022
03812KAVL AVL20161117130010411/17/16 13:00:31  5-MIN KAVL 171800Z 35008KT 10SM CLR 21/02 A3013 1980 28 3200 360/08 RMK AO2 T02110022
03812KAVL AVL20161117130510411/17/16 13:05:31  5-MIN KAVL 171805Z 30008KT 10SM CLR 22/02 A3012 1980 27 3200 310/08 RMK AO2 T02170022
03812KAVL AVL20161117131010411/17/16 13:10:31  5-MIN KAVL 171810Z 34010KT 10SM CLR 22/02 A3013 1980 27 3200 350/10 RMK AO2 T02170022
03812KAVL AVL20161117131510411/17/16 13:15:31  5-MIN KAVL 171815Z 32009KT 10SM CLR 22/02 A3012 1980 27 3200 320/09 RMK AO2 T02170022
03812KAVL AVL20161117132010411/17/16 13:20:31  5-MIN KAVL 171820Z 33009KT 10SM CLR 22/02 A3012 1980 26 3300 330/09 RMK AO2 T02220022
03812KAVL AVL20161117132510411/17/16 13:25:31  5-MIN KAVL 171825Z 35009KT 10SM CLR 22/02 A3012 1980 27 3200 360/09 RMK AO2 T02170022
03812KAVL AVL20161117133010411/17/16 13:30:31  5-MIN KAVL 171830Z 36011KT 10SM CLR 22/02 A3012 1990 27 3300 360/11 RMK AO2 T02170022
03812KAVL AVL20161117133510411/17/16 13:35:31  5-MIN KAVL 171835Z 36010KT 10SM CLR 22/02 A3012 1990 26 3300 360/10 RMK AO2 T02170017
03812KAVL AVL20161117134010411/17/16 13:40:31  5-MIN KAVL 171840Z 35010KT 10SM CLR 22/02 A3012 1990 27 3300 350/10 RMK AO2 T02170022
03812KAVL AVL20161117134510411/17/16 13:45:31  5-MIN KAVL 171845Z 35011KT 10SM CLR 22/02 A3011 1990 26 3300 360/11 RMK AO2 T02170017
03812KAVL AVL20161117135011111/17/16 13:50:31  5-MIN KAVL 171850Z 36010KT 10SM CLR 22/02 A3011 1990 26 3300 360/10 RMK AO2 SLP187 T02170017
03812KAVL AVL20161117135510411/17/16 13:55:31  5-MIN KAVL 171855Z 36010KT 10SM CLR 22/02 A3011 1990 25 3300 360/10 RMK AO2 T02220017
03812KAVL AVL20161117140010411/17/16 14:00:31  5-MIN KAVL 171900Z 36010KT 10SM CLR 22/02 A3011 1990 25 3300 010/10 RMK AO2 T02220017
03812KAVL AVL20161117140510411/17/16 14:05:31  5-MIN KAVL 171905Z 35010KT 10SM CLR 22/02 A3011 1990 25 3300 350/10 RMK AO2 T02220017
03812KAVL AVL20161117141010411/17/16 14:10:31  5-MIN KAVL 171910Z 36009KT 10SM CLR 22/02 A3011 1990 25 3300 010/09 RMK AO2 T02220017
03812KAVL AVL20161117141510411/17/16 14:15:31  5-MIN KAVL 171915Z 36009KT 10SM CLR 22/02 A3011 1990 25 3300 010/09 RMK AO2 T02220017
03812KAVL AVL20161117142010411/17/16 14:20:31  5-MIN KAVL 171920Z 35009KT 10SM CLR 23/02 A3011 2000 24 3400 350/09 RMK AO2 T02280017
03812KAVL AVL20161117142510411/17/16 14:25:31  5-MIN KAVL 171925Z 35010KT 10SM CLR 23/02 A3011 2000 24 3400 350/10 RMK AO2 T02280017
03812KAVL AVL20161117143010411/17/16 14:30:31  5-MIN KAVL 171930Z 34010KT 10SM CLR 23/02 A3011 2000 24 3400 350/10 RMK AO2 T02280017
03812KAVL AVL20161117143510411/17/16 14:35:31  5-MIN KAVL 171935Z 36008KT 10SM CLR 23/02 A3011 2000 24 3400 010/08 RMK AO2 T02280017
03812KAVL AVL20161117144010411/17/16 14:40:31  5-MIN KAVL 171940Z 36009KT 10SM CLR 23/02 A3011 2000 24 3400 010/09 RMK AO2 T02280017
03812KAVL AVL20161117144510411/17/16 14:45:31  5-MIN KAVL 171945Z 35009KT 10SM CLR 23/02 A3011 2000 24 3400 360/09 RMK AO2 T02280017
03812KAVL AVL20161117145011111/17/16 14:50:31  5-MIN KAVL 171950Z 36009KT 10SM CLR 23/02 A3010 2000 24 3400 010/09 RMK AO2 SLP183 T02280017
03812KAVL AVL20161117145510411/17/16 14:55:31  5-MIN KAVL 171955Z 34009KT 10SM CLR 23/02 A3010 2000 24 3400 350/09 RMK AO2 T02280017
03812KAVL AVL20161117150010411/17/16 15:00:31  5-MIN KAVL 172000Z 35009KT 10SM CLR 23/02 A3010 2000 24 3400 350/09 RMK AO2 T02280017
03812KAVL AVL20161117150510411/17/16 15:05:31  5-MIN KAVL 172005Z 35008KT 10SM CLR 23/02 A3010 2000 24 3400 360/08 RMK AO2 T02280017
03812KAVL AVL20161117151010411/17/16 15:10:31  5-MIN KAVL 172010Z 35009KT 10SM CLR 23/02 A3010 2000 24 3400 350/09 RMK AO2 T02280017
03812KAVL AVL20161117151510411/17/16 15:15:31  5-MIN KAVL 172015Z 34009KT 10SM CLR 23/02 A3010 2000 24 3400 340/09 RMK AO2 T02280017
03812KAVL AVL20161117152010411/17/16 15:20:31  5-MIN KAVL 172020Z 34007KT 10SM CLR 23/02 A3010 2000 25 3400 340/07 RMK AO2 T02280022
03812KAVL AVL20161117152510411/17/16 15:25:31  5-MIN KAVL 172025Z 36008KT 10SM CLR 23/02 A3010 2000 24 3400 360/08 RMK AO2 T02280017
03812KAVL AVL20161117153010411/17/16 15:30:31  5-MIN KAVL 172030Z 35007KT 10SM CLR 23/01 A3010 2000 23 3400 360/07 RMK AO2 T02280011
03812KAVL AVL20161117153510411/17/16 15:35:31  5-MIN KAVL 172035Z 36009KT 10SM CLR 23/02 A3010 2000 24 3400 010/09 RMK AO2 T02280017
03812KAVL AVL20161117154010411/17/16 15:40:31  5-MIN KAVL 172040Z 35006KT 10SM CLR 23/02 A3010 2000 24 3400 350/06 RMK AO2 T02280017
03812KAVL AVL20161117154510411/17/16 15:45:31  5-MIN KAVL 172045Z 34006KT 10SM CLR 23/02 A3010 2000 24 3400 340/06 RMK AO2 T02280017
03812KAVL AVL20161117155011711/17/16 15:50:31  5-MIN KAVL 172050Z 34004KT 10SM CLR 23/01 A3011 2000 23 3400 340/04 RMK AO2 SLP185 T02280011 58019
03812KAVL AVL20161117155510411/17/16 15:55:31  5-MIN KAVL 172055Z 34006KT 10SM CLR 23/01 A3011 1990 23 3400 340/06 RMK AO2 T02280011
03812KAVL AVL20161117160010411/17/16 16:00:31  5-MIN KAVL 172100Z 34007KT 10SM CLR 23/02 A3011 1990 24 3400 340/07 RMK AO2 T02280017
03812KAVL AVL20161117160510411/17/16 16:05:31  5-MIN KAVL 172105Z 34007KT 10SM CLR 22/02 A3011 1990 25 3300 350/07 RMK AO2 T02220017
03812KAVL AVL20161117161010411/17/16 16:10:31  5-MIN KAVL 172110Z 35007KT 10SM CLR 22/01 A3011 1990 24 3300 350/07 RMK AO2 T02220011
03812KAVL AVL20161117161510411/17/16 16:15:31  5-MIN KAVL 172115Z 35006KT 10SM CLR 22/01 A3011 1990 24 3300 360/06 RMK AO2 T02220011
03812KAVL AVL20161117162010411/17/16 16:20:31  5-MIN KAVL 172120Z 34006KT 10SM CLR 22/01 A3011 1990 24 3300 350/06 RMK AO2 T02220011
03812KAVL AVL20161117162510411/17/16 16:25:31  5-MIN KAVL 172125Z 33007KT 10SM CLR 22/02 A3011 1990 26 3300 330/07 RMK AO2 T02170017
03812KAVL AVL20161117163010411/17/16 16:30:31  5-MIN KAVL 172130Z 33006KT 10SM CLR 22/02 A3012 1990 26 3300 330/06 RMK AO2 T02170017
03812KAVL AVL20161117163510411/17/16 16:35:31  5-MIN KAVL 172135Z 33006KT 10SM CLR 22/02 A3011 1990 26 3300 330/06 RMK AO2 T02170017
03812KAVL AVL20161117164010411/17/16 16:40:31  5-MIN KAVL 172140Z 33005KT 10SM CLR 22/02 A3011 1990 26 3300 330/05 RMK AO2 T02170017
03812KAVL AVL20161117164510411/17/16 16:45:31  5-MIN KAVL 172145Z 33006KT 10SM CLR 21/02 A3012 1990 28 3200 340/06 RMK AO2 T02110022
03812KAVL AVL20161117165011011/17/16 16:50:31  5-MIN KAVL 172150Z 33006KT 7SM CLR 21/02 A3012 1990 29 3100 340/06 RMK AO2 SLP191 T02060022
03812KAVL AVL20161117165510311/17/16 16:55:31  5-MIN KAVL 172155Z 33005KT 7SM CLR 21/02 A3012 1990 29 3100 340/05 RMK AO2 T02060022
03812KAVL AVL20161117170010411/17/16 17:00:31  5-MIN KAVL 172200Z 35003KT 10SM CLR 21/02 A3012 1990 28 3100 360/03 RMK AO2 T02060017
03812KAVL AVL20161117170510411/17/16 17:05:31  5-MIN KAVL 172205Z 33005KT 10SM CLR 21/02 A3012 1990 28 3100 330/05 RMK AO2 T02060017
03812KAVL AVL20161117171010411/17/16 17:10:31  5-MIN KAVL 172210Z 33005KT 10SM CLR 20/02 A3012 1980 29 3100 330/05 RMK AO2 T02000017
03812KAVL AVL20161117171510411/17/16 17:15:31  5-MIN KAVL 172215Z 32004KT 10SM CLR 20/02 A3012 1980 29 3100 330/04 RMK AO2 T02000017
03812KAVL AVL20161117172010411/17/16 17:20:31  5-MIN KAVL 172220Z 31003KT 10SM CLR 20/02 A3012 1980 29 3100 320/03 RMK AO2 T02000017
03812KAVL AVL20161117172510411/17/16 17:25:31  5-MIN KAVL 172225Z 30003KT 10SM CLR 19/02 A3012 1980 30 3000 310/03 RMK AO2 T01940017
03812KAVL AVL20161117173010411/17/16 17:30:31  5-MIN KAVL 172230Z 00000KT 10SM CLR 19/02 A3013 1980 31 2900 000/00 RMK AO2 T01890017
03812KAVL AVL20161117173510411/17/16 17:35:31  5-MIN KAVL 172235Z 00000KT 10SM CLR 18/02 A3013 1980 32 2900 000/00 RMK AO2 T01830017
03812KAVL AVL20161117174010411/17/16 17:40:31  5-MIN KAVL 172240Z 00000KT 10SM CLR 18/02 A3013 1970 33 2800 000/00 RMK AO2 T01780017
03812KAVL AVL20161117174510411/17/16 17:45:31  5-MIN KAVL 172245Z 00000KT 10SM CLR 17/02 A3013 1970 36 2700 000/00 RMK AO2 T01720022
03812KAVL AVL20161117175011111/17/16 17:50:31  5-MIN KAVL 172250Z 00000KT 10SM CLR 17/02 A3013 1970 37 2700 000/00 RMK AO2 SLP200 T01670022
03812KAVL AVL20161117175510311/17/16 17:55:31  5-MIN KAVL 172255Z 20004KT 9SM CLR 17/02 A3014 1970 35 2700 200/04 RMK AO2 T01720017
03812KAVL AVL20161117180010311/17/16 18:00:31  5-MIN KAVL 172300Z 00000KT 8SM CLR 17/01 A3013 1970 34 2700 000/00 RMK AO2 T01670011
03812KAVL AVL20161117180510311/17/16 18:05:31  5-MIN KAVL 172305Z 00000KT 8SM CLR 17/01 A3014 1970 34 2700 000/00 RMK AO2 T01670011
03812KAVL AVL20161117181010311/17/16 18:10:31  5-MIN KAVL 172310Z 18003KT 8SM CLR 17/01 A3014 1970 34 2700 180/03 RMK AO2 T01670011
03812KAVL AVL20161117181510311/17/16 18:15:31  5-MIN KAVL 172315Z 16003KT 8SM CLR 17/01 A3014 1960 32 2700 170/03 RMK AO2 T01720006
03812KAVL AVL20161117182010311/17/16 18:20:31  5-MIN KAVL 172320Z 15003KT 7SM CLR 16/01 A3014 1960 37 2500 160/03 RMK AO2 T01560011
03812KAVL AVL20161117182510311/17/16 18:25:31  5-MIN KAVL 172325Z 16004KT 7SM CLR 16/01 A3015 1960 37 2500 160/04 RMK AO2 T01560011
03812KAVL AVL20161117183010311/17/16 18:30:31  5-MIN KAVL 172330Z 15004KT 7SM CLR 16/01 A3015 1960 36 2500 150/04 RMK AO2 T01560006
03812KAVL AVL20161117183510311/17/16 18:35:31  5-MIN KAVL 172335Z 15004KT 7SM CLR 15/01 A3015 1960 37 2400 160/04 RMK AO2 T01500006
03812KAVL AVL20161117184010311/17/16 18:40:31  5-MIN KAVL 172340Z 16004KT 7SM CLR 16/01 A3015 1950 36 2500 170/04 RMK AO2 T01560006
03812KAVL AVL20161117184510311/17/16 18:45:31  5-MIN KAVL 172345Z 15003KT 7SM CLR 15/01 A3015 1950 37 2400 150/03 RMK AO2 T01500006
03812KAVL AVL20161117185012811/17/16 18:50:31  5-MIN KAVL 172350Z 15004KT 7SM CLR 15/01 A3015 1950 37 2400 160/04 RMK AO2 SLP209 T01500006 10228 20150 55007
03812KAVL AVL20161117185510311/17/16 18:55:31  5-MIN KAVL 172355Z 14004KT 7SM CLR 15/01 A3015 1950 37 2400 150/04 RMK AO2 T01500006
03812KAVL AVL20161117190010611/17/16 19:00:31  5-MIN KAVL 180000Z 00000KT 8SM FU CLR 14/01 A3015 1950 38 2400 000/00 RMK AO2 T01440006
03812KAVL AVL20161117190510611/17/16 19:05:31  5-MIN KAVL 180005Z 16003KT 8SM FU CLR 15/00 A3015 1950 35 2400 170/03 RMK AO2 T01500000
03812KAVL AVL20161117191010611/17/16 19:10:31  5-MIN KAVL 180010Z 14003KT 8SM FU CLR 14/00 A3015 1950 37 2400 150/03 RMK AO2 T01440000
03812KAVL AVL20161117191510611/17/16 19:15:31  5-MIN KAVL 180015Z 15004KT 8SM FU CLR 14/01 A3015 1950 40 2300 160/04 RMK AO2 T01390006
03812KAVL AVL20161117192010611/17/16 19:20:31  5-MIN KAVL 180020Z 15004KT 9SM FU CLR 14/00 A3016 1950 38 2300 160/04 RMK AO2 T01390000
03812KAVL AVL20161117192510611/17/16 19:25:31  5-MIN KAVL 180025Z 15003KT 9SM FU CLR 14/00 A3016 1950 38 2300 160/03 RMK AO2 T01390000
03812KAVL AVL20161117193010611/17/16 19:30:31  5-MIN KAVL 180030Z 15003KT 9SM FU CLR 14/00 A3016 1950 38 2300 160/03 RMK AO2 T01390000
03812KAVL AVL20161117193510611/17/16 19:35:31  5-MIN KAVL 180035Z 00000KT 9SM FU CLR 14/00 A3016 1950 38 2300 000/00 RMK AO2 T01390000
03812KAVL AVL20161117194010611/17/16 19:40:31  5-MIN KAVL 180040Z 00000KT 9SM FU CLR 14/00 A3016 1950 38 2300 000/00 RMK AO2 T01390000
03812KAVL AVL20161117194510611/17/16 19:45:31  5-MIN KAVL 180045Z 00000KT 9SM FU CLR 13/00 A3016 1940 40 2200 000/00 RMK AO2 T01330000
03812KAVL AVL20161117195011311/17/16 19:50:31  5-MIN KAVL 180050Z 14003KT 9SM FU CLR 13/01 A3017 1940 41 2200 150/03 RMK AO2 SLP213 T01330006
03812KAVL AVL20161117195510611/17/16 19:55:31  5-MIN KAVL 180055Z 00000KT 9SM FU CLR 13/01 A3017 1940 41 2200 000/00 RMK AO2 T01330006
03812KAVL AVL20161117200010611/17/16 20:00:31  5-MIN KAVL 180100Z 16003KT 9SM FU CLR 12/01 A3017 1940 44 2100 160/03 RMK AO2 T01220006
03812KAVL AVL20161117200510611/17/16 20:05:31  5-MIN KAVL 180105Z 14003KT 9SM FU CLR 12/01 A3017 1940 46 2000 150/03 RMK AO2 T01170006
03812KAVL AVL20161117201010611/17/16 20:10:31  5-MIN KAVL 180110Z 14003KT 9SM FU CLR 11/01 A3017 1930 50 2000 140/03 RMK AO2 T01110011
03812KAVL AVL20161117201510611/17/16 20:15:31  5-MIN KAVL 180115Z 00000KT 9SM FU CLR 11/01 A3017 1930 52 1900 000/00 RMK AO2 T01060011
03812KAVL AVL20161117202010611/17/16 20:20:31  5-MIN KAVL 180120Z 00000KT 9SM FU CLR 11/01 A3018 1930 50 2000 000/00 RMK AO2 T01110011
03812KAVL AVL20161117202510611/17/16 20:25:31  5-MIN KAVL 180125Z 00000KT 9SM FU CLR 11/01 A3018 1930 50 2000 000/00 RMK AO2 T01110011
03812KAVL AVL20161117203010611/17/16 20:30:31  5-MIN KAVL 180130Z 00000KT 9SM FU CLR 11/02 A3018 1930 54 1900 000/00 RMK AO2 T01060017
03812KAVL AVL20161117203510611/17/16 20:35:31  5-MIN KAVL 180135Z 00000KT 9SM FU CLR 11/02 A3018 1930 54 1900 000/00 RMK AO2 T01060017
03812KAVL AVL20161117204010611/17/16 20:40:31  5-MIN KAVL 180140Z 00000KT 9SM FU CLR 11/02 A3018 1930 54 1900 000/00 RMK AO2 T01060017
03812KAVL AVL20161117204510611/17/16 20:45:31  5-MIN KAVL 180145Z 00000KT 9SM FU CLR 10/02 A3019 1920 56 1800 000/00 RMK AO2 T01000017
03812KAVL AVL20161117205011311/17/16 20:50:31  5-MIN KAVL 180150Z 00000KT 9SM FU CLR 10/02 A3018 1920 56 1800 000/00 RMK AO2 SLP220 T01000017
03812KAVL AVL20161117205510611/17/16 20:55:31  5-MIN KAVL 180155Z 00000KT 8SM FU CLR 10/02 A3019 1920 58 1800 000/00 RMK AO2 T01000022
03812KAVL AVL20161117210010611/17/16 21:00:31  5-MIN KAVL 180200Z 00000KT 8SM FU CLR 09/02 A3019 1920 60 1800 000/00 RMK AO2 T00940022
03812KAVL AVL20161117210510611/17/16 21:05:31  5-MIN KAVL 180205Z 00000KT 8SM FU CLR 09/02 A3019 1920 60 1700 000/00 RMK AO2 T00890017
03812KAVL AVL20161117211010611/17/16 21:10:31  5-MIN KAVL 180210Z 00000KT 8SM FU CLR 09/02 A3019 1920 60 1700 000/00 RMK AO2 T00890017
03812KAVL AVL20161117211510611/17/16 21:15:31  5-MIN KAVL 180215Z 00000KT 8SM FU CLR 09/02 A3019 1920 63 1700 000/00 RMK AO2 T00890022
03812KAVL AVL20161117212010611/17/16 21:20:31  5-MIN KAVL 180220Z 00000KT 8SM FU CLR 09/02 A3019 1920 63 1700 000/00 RMK AO2 T00890022
03812KAVL AVL20161117212510611/17/16 21:25:31  5-MIN KAVL 180225Z 00000KT 8SM FU CLR 08/02 A3019 1920 63 1600 000/00 RMK AO2 T00830017
03812KAVL AVL20161117213010611/17/16 21:30:31  5-MIN KAVL 180230Z 00000KT 9SM FU CLR 08/02 A3019 1910 63 1600 000/00 RMK AO2 T00830017
03812KAVL AVL20161117213510611/17/16 21:35:31  5-MIN KAVL 180235Z 00000KT 9SM FU CLR 08/02 A3020 1910 65 1600 000/00 RMK AO2 T00830022
03812KAVL AVL20161117214010611/17/16 21:40:31  5-MIN KAVL 180240Z 00000KT 8SM FU CLR 08/02 A3020 1910 63 1600 000/00 RMK AO2 T00830017
03812KAVL AVL20161117214510611/17/16 21:45:31  5-MIN KAVL 180245Z 00000KT 9SM FU CLR 08/02 A3020 1910 63 1600 000/00 RMK AO2 T00830017
03812KAVL AVL20161117215011911/17/16 21:50:31  5-MIN KAVL 180250Z 00000KT 9SM FU CLR 08/02 A3020 1910 63 1600 000/00 RMK AO2 SLP221 T00830017 53014
03812KAVL AVL20161117215510611/17/16 21:55:31  5-MIN KAVL 180255Z 00000KT 9SM FU CLR 08/02 A3020 1910 63 1600 000/00 RMK AO2 T00830017
03812KAVL AVL20161117220010611/17/16 22:00:31  5-MIN KAVL 180300Z 00000KT 9SM FU CLR 08/02 A3020 1910 68 1500 000/00 RMK AO2 T00780022
03812KAVL AVL20161117220510611/17/16 22:05:31  5-MIN KAVL 180305Z 00000KT 9SM FU CLR 08/02 A3020 1910 65 1500 000/00 RMK AO2 T00780017
03812KAVL AVL20161117221010611/17/16 22:10:31  5-MIN KAVL 180310Z 00000KT 9SM FU CLR 08/02 A3020 1910 68 1500 000/00 RMK AO2 T00780022
03812KAVL AVL20161117221510611/17/16 22:15:31  5-MIN KAVL 180315Z 00000KT 9SM FU CLR 08/02 A3020 1910 65 1600 000/00 RMK AO2 T00830022
03812KAVL AVL20161117222010711/17/16 22:20:31  5-MIN KAVL 180320Z 00000KT 10SM FU CLR 08/02 A3020 1910 68 1500 000/00 RMK AO2 T00780022
03812KAVL AVL20161117222510711/17/16 22:25:31  5-MIN KAVL 180325Z 00000KT 10SM FU CLR 08/02 A3020 1910 68 1500 000/00 RMK AO2 T00780022
03812KAVL AVL20161117223010711/17/16 22:30:31  5-MIN KAVL 180330Z 00000KT 10SM FU CLR 07/02 A3020 1910 68 1500 000/00 RMK AO2 T00720017
03812KAVL AVL20161117223510711/17/16 22:35:31  5-MIN KAVL 180335Z 00000KT 10SM FU CLR 08/02 A3020 1910 65 1500 000/00 RMK AO2 T00780017
03812KAVL AVL20161117224010711/17/16 22:40:31  5-MIN KAVL 180340Z 00000KT 10SM FU CLR 07/02 A3020 1910 68 1500 000/00 RMK AO2 T00720017
03812KAVL AVL20161117224510711/17/16 22:45:31  5-MIN KAVL 180345Z 00000KT 10SM FU CLR 07/02 A3020 1910 68 1500 000/00 RMK AO2 T00720017
03812KAVL AVL20161117225011411/17/16 22:50:31  5-MIN KAVL 180350Z 00000KT 10SM FU CLR 06/02 A3020 1910 73 1300 000/00 RMK AO2 SLP221 T00610017
03812KAVL AVL20161117225511211/17/16 22:55:31  5-MIN KAVL 180355Z AUTO 00000KT 10SM FU CLR 06/02 A3020 1910 73 1300 000/00 RMK AO2 T00610017
03812KAVL AVL20161117230011211/17/16 23:00:31  5-MIN KAVL 180400Z AUTO 00000KT 10SM FU CLR 07/02 A3020 1910 70 1400 000/00 RMK AO2 T00670017
03812KAVL AVL20161117230511211/17/16 23:05:31  5-MIN KAVL 180405Z AUTO 00000KT 10SM FU CLR 07/02 A3021 1900 70 1400 000/00 RMK AO2 T00670017
03812KAVL AVL20161117231011211/17/16 23:10:31  5-MIN KAVL 180410Z AUTO 00000KT 10SM FU CLR 07/02 A3021 1900 70 1400 000/00 RMK AO2 T00670017
03812KAVL AVL20161117231511211/17/16 23:15:31  5-MIN KAVL 180415Z AUTO 00000KT 10SM FU CLR 07/02 A3021 1900 70 1400 000/00 RMK AO2 T00670017
03812KAVL AVL20161117232011211/17/16 23:20:31  5-MIN KAVL 180420Z AUTO 00000KT 10SM FU CLR 07/02 A3021 1900 70 1400 000/00 RMK AO2 T00670017
03812KAVL AVL20161117232511211/17/16 23:25:31  5-MIN KAVL 180425Z AUTO 00000KT 10SM FU CLR 07/02 A3021 1900 70 1400 000/00 RMK AO2 T00670017
03812KAVL AVL20161117233011111/17/16 23:30:31  5-MIN KAVL 180430Z AUTO 00000KT 9SM FU CLR 06/01 A3020 1910 70 1300 000/00 RMK AO2 T00610011
03812KAVL AVL20161117233511211/17/16 23:35:31  5-MIN KAVL 180435Z AUTO 00000KT 10SM FU CLR 06/02 A3021 1900 73 1300 000/00 RMK AO2 T00610017
03812KAVL AVL20161117234011211/17/16 23:40:31  5-MIN KAVL 180440Z AUTO 00000KT 10SM FU CLR 06/02 A3021 1900 73 1300 000/00 RMK AO2 T00610017
03812KAVL AVL20161117234511211/17/16 23:45:31  5-MIN KAVL 180445Z AUTO 00000KT 10SM FU CLR 06/01 A3021 1900 70 1300 000/00 RMK AO2 T00610011
03812KAVL AVL20161117235012811/17/16 23:50:31  5-MIN KAVL 180450Z AUTO 00000KT 9SM FU CLR 06/01 A3021 1900 73 1300 000/00 RMK AO2 SLP219 T00560011 402281006
03812KAVL AVL20161117235511111/17/16 23:55:31  5-MIN KAVL 180455Z AUTO 00000KT 9SM FU CLR 06/01 A3021 1900 73 1300 000/00 RMK AO2 T00560011
03812KAVL AVL20161118000011111/18/16 00:00:31  5-MIN KAVL 180500Z AUTO 00000KT 9SM FU CLR 06/01 A3021 1900 70 1300 000/00 RMK AO2 T00610011
03812KAVL AVL20161118000511111/18/16 00:05:31  5-MIN KAVL 180505Z AUTO 00000KT 9SM FU CLR 06/02 A3021 1900 73 1300 000/00 RMK AO2 T00610017
03812KAVL AVL20161118001011111/18/16 00:10:31  5-MIN KAVL 180510Z AUTO 00000KT 9SM FU CLR 06/02 A3021 1900 73 1300 000/00 RMK AO2 T00610017
03812KAVL AVL20161118001511111/18/16 00:15:31  5-MIN KAVL 180515Z AUTO 00000KT 9SM FU CLR 06/01 A3021 1900 70 1300 000/00 RMK AO2 T00610011
03812KAVL AVL20161118002011111/18/16 00:20:31  5-MIN KAVL 180520Z AUTO 00000KT 9SM FU CLR 06/01 A3021 1900 73 1300 000/00 RMK AO2 T00560011
03812KAVL AVL20161118002511111/18/16 00:25:31  5-MIN KAVL 180525Z AUTO 00000KT 9SM FU CLR 06/01 A3021 1900 70 1300 000/00 RMK AO2 T00610011
03812KAVL AVL20161118003011111/18/16 00:30:31  5-MIN KAVL 180530Z AUTO 00000KT 9SM FU CLR 05/01 A3021 1900 76 1200 000/00 RMK AO2 T00500011
03812KAVL AVL20161118003511111/18/16 00:35:31  5-MIN KAVL 180535Z AUTO 00000KT 9SM FU CLR 04/01 A3021 1900 79 1100 000/00 RMK AO2 T00440011
03812KAVL AVL20161118004011111/18/16 00:40:31  5-MIN KAVL 180540Z AUTO 00000KT 9SM FU CLR 04/01 A3021 1900 79 1100 000/00 RMK AO2 T00440011
03812KAVL AVL20161118004511111/18/16 00:45:31  5-MIN KAVL 180545Z AUTO 00000KT 9SM FU CLR 04/01 A3021 1900 79 1100 000/00 RMK AO2 T00440011
03812KAVL AVL20161118005013611/18/16 00:50:31  5-MIN KAVL 180550Z AUTO 00000KT 9SM FU CLR 04/01 A3021 1900 79 1100 000/00 RMK AO2 SLP222 T00390006 10150 20039 51015
03812KAVL AVL20161118005511211/18/16 00:55:31  5-MIN KAVL 180555Z AUTO 00000KT 10SM FU CLR 04/01 A3021 1900 79 1000 000/00 RMK AO2 T00390006
03812KAVL AVL20161118010011211/18/16 01:00:31  5-MIN KAVL 180600Z AUTO 00000KT 10SM FU CLR 04/01 A3022 1900 76 1100 000/00 RMK AO2 T00440006
03812KAVL AVL20161118010511211/18/16 01:05:31  5-MIN KAVL 180605Z AUTO 00000KT 10SM FU CLR 04/01 A3022 1900 82 1000 000/00 RMK AO2 T00390011
03812KAVL AVL20161118011011111/18/16 01:10:31  5-MIN KAVL 180610Z AUTO 00000KT 9SM FU CLR 04/01 A3021 1900 79 1100 000/00 RMK AO2 T00440011
03812KAVL AVL20161118011511111/18/16 01:15:31  5-MIN KAVL 180615Z AUTO 00000KT 9SM FU CLR 04/01 A3021 1900 76 1100 000/00 RMK AO2 T00440006
03812KAVL AVL20161118012011111/18/16 01:20:31  5-MIN KAVL 180620Z AUTO 00000KT 9SM FU CLR 04/01 A3021 1900 79 1100 000/00 RMK AO2 T00440011
03812KAVL AVL20161118012511111/18/16 01:25:31  5-MIN KAVL 180625Z AUTO 00000KT 9SM FU CLR 05/01 A3021 1900 76 1200 000/00 RMK AO2 T00500011
03812KAVL AVL20161118013011111/18/16 01:30:31  5-MIN KAVL 180630Z AUTO 00000KT 9SM FU CLR 05/01 A3021 1900 76 1200 000/00 RMK AO2 T00500011
03812KAVL AVL20161118013511111/18/16 01:35:31  5-MIN KAVL 180635Z AUTO 00000KT 9SM FU CLR 04/01 A3021 1900 79 1100 000/00 RMK AO2 T00440011
03812KAVL AVL20161118014011111/18/16 01:40:31  5-MIN KAVL 180640Z AUTO 00000KT 9SM FU CLR 04/01 A3021 1900 79 1100 000/00 RMK AO2 T00440011
03812KAVL AVL20161118014511111/18/16 01:45:31  5-MIN KAVL 180645Z AUTO 00000KT 9SM FU CLR 04/01 A3021 1900 79 1000 000/00 RMK AO2 T00390006
03812KAVL AVL20161118015011911/18/16 01:50:31  5-MIN KAVL 180650Z AUTO 00000KT 10SM FU CLR 03/01 A3021 1900 82 1000 000/00 RMK AO2 SLP221 T00330006
03812KAVL AVL20161118015511111/18/16 01:55:31  5-MIN KAVL 180655Z AUTO 00000KT 10SM FU CLR 03/01 A3021 1900 85 900 000/00 RMK AO2 T00280006
03812KAVL AVL20161118020011211/18/16 02:00:31  5-MIN KAVL 180700Z AUTO 00000KT 10SM FU CLR 03/01 A3021 1900 82 1000 000/00 RMK AO2 T00330006
03812KAVL AVL20161118020511211/18/16 02:05:31  5-MIN KAVL 180705Z AUTO 00000KT 10SM FU CLR 03/01 A3021 1900 82 1000 000/00 RMK AO2 T00330006
03812KAVL AVL20161118021011211/18/16 02:10:31  5-MIN KAVL 180710Z AUTO 00000KT 10SM FU CLR 03/01 A3021 1900 82 1000 000/00 RMK AO2 T00330006
03812KAVL AVL20161118021511211/18/16 02:15:31  5-MIN KAVL 180715Z AUTO 00000KT 10SM FU CLR 04/01 A3021 1900 79 1100 000/00 RMK AO2 T00390006
03812KAVL AVL20161118022011211/18/16 02:20:31  5-MIN KAVL 180720Z AUTO 00000KT 10SM FU CLR 04/01 A3021 1900 79 1100 000/00 RMK AO2 T00390006
03812KAVL AVL20161118022511111/18/16 02:25:31  5-MIN KAVL 180725Z AUTO 00000KT 9SM FU CLR 03/01 A3021 1900 82 1000 000/00 RMK AO2 T00330006
03812KAVL AVL20161118023011211/18/16 02:30:31  5-MIN KAVL 180730Z AUTO 00000KT 10SM FU CLR 03/01 A3021 1900 82 1000 000/00 RMK AO2 T00330006
03812KAVL AVL20161118023511111/18/16 02:35:31  5-MIN KAVL 180735Z AUTO 00000KT 9SM FU CLR 03/01 A3021 1900 82 1000 000/00 RMK AO2 T00330006
03812KAVL AVL20161118024011111/18/16 02:40:31  5-MIN KAVL 180740Z AUTO 00000KT 9SM FU CLR 04/01 A3021 1900 79 1100 000/00 RMK AO2 T00390006
03812KAVL AVL20161118024511111/18/16 02:45:31  5-MIN KAVL 180745Z AUTO 00000KT 9SM FU CLR 04/01 A3021 1900 82 1100 000/00 RMK AO2 T00390011
03812KAVL AVL20161118025011811/18/16 02:50:31  5-MIN KAVL 180750Z AUTO 00000KT 9SM FU CLR 03/01 A3021 1900 82 1000 000/00 RMK AO2 SLP218 T00330006
03812KAVL AVL20161118025511111/18/16 02:55:31  5-MIN KAVL 180755Z AUTO 00000KT 9SM FU CLR 03/00 A3021 1900 79 1000 000/00 RMK AO2 T00330000
03812KAVL AVL20161118030011111/18/16 03:00:31  5-MIN KAVL 180800Z AUTO 00000KT 9SM FU CLR 03/01 A3021 1900 82 1000 000/00 RMK AO2 T00330006
03812KAVL AVL20161118030511111/18/16 03:05:31  5-MIN KAVL 180805Z AUTO 33003KT 9SM FU CLR 03/01 A3021 1900 82 1000 330/03 RMK AO2 T00330006
03812KAVL AVL20161118031011011/18/16 03:10:31  5-MIN KAVL 180810Z AUTO 32004KT 9SM FU CLR 03/01 A3021 1900 85 900 330/04 RMK AO2 T00280006
03812KAVL AVL20161118031511111/18/16 03:15:31  5-MIN KAVL 180815Z AUTO 33003KT 10SM FU CLR 03/01 A3021 1900 85 900 330/03 RMK AO2 T00280006
03812KAVL AVL20161118032011111/18/16 03:20:31  5-MIN KAVL 180820Z AUTO 33003KT 10SM FU CLR 03/01 A3021 1900 85 900 340/03 RMK AO2 T00280006
03812KAVL AVL20161118032511111/18/16 03:25:31  5-MIN KAVL 180825Z AUTO 33003KT 10SM FU CLR 03/01 A3021 1900 85 900 330/03 RMK AO2 T00280006
03812KAVL AVL20161118033011111/18/16 03:30:31  5-MIN KAVL 180830Z AUTO 00000KT 10SM FU CLR 03/01 A3021 1900 85 900 000/00 RMK AO2 T00280006
03812KAVL AVL20161118033511111/18/16 03:35:31  5-MIN KAVL 180835Z AUTO 00000KT 10SM FU CLR 03/01 A3021 1900 85 900 000/00 RMK AO2 T00280006
03812KAVL AVL20161118034011111/18/16 03:40:31  5-MIN KAVL 180840Z AUTO 00000KT 10SM FU CLR 03/01 A3021 1900 85 900 000/00 RMK AO2 T00280006
03812KAVL AVL20161118034511111/18/16 03:45:31  5-MIN KAVL 180845Z AUTO 00000KT 10SM FU CLR 02/00 A3021 1900 85 800 000/00 RMK AO2 T00220000
03812KAVL AVL20161118035012311/18/16 03:50:31  5-MIN KAVL 180850Z AUTO 00000KT 9SM FU CLR 02/00 A3022 1890 85 800 000/00 RMK AO2 SLP222 T00220000 53005
03812KAVL AVL20161118035511011/18/16 03:55:31  5-MIN KAVL 180855Z AUTO 00000KT 9SM FU CLR 02/00 A3022 1890 85 800 000/00 RMK AO2 T00220000
03812KAVL AVL20161118040011011/18/16 04:00:31  5-MIN KAVL 180900Z AUTO 00000KT 9SM FU CLR 02/00 A3022 1890 85 800 000/00 RMK AO2 T00220000
03812KAVL AVL20161118040511011/18/16 04:05:31  5-MIN KAVL 180905Z AUTO 00000KT 9SM FU CLR 02/00 A3022 1900 85 800 000/00 RMK AO2 T00220000
03812KAVL AVL20161118041011111/18/16 04:10:31  5-MIN KAVL 180910Z AUTO 00000KT 10SM FU CLR 03/00 A3022 1900 82 900 000/00 RMK AO2 T00280000
03812KAVL AVL20161118041511011/18/16 04:15:31  5-MIN KAVL 180915Z AUTO 00000KT 9SM FU CLR 03/00 A3021 1900 82 900 000/00 RMK AO2 T00280000
03812KAVL AVL20161118042011011/18/16 04:20:31  5-MIN KAVL 180920Z AUTO 00000KT 9SM FU CLR 03/00 A3022 1900 82 900 000/00 RMK AO2 T00280000
03812KAVL AVL20161118042511111/18/16 04:25:31  5-MIN KAVL 180925Z AUTO 00000KT 9SM FU CLR 02/M01 A3022 1890 82 800 000/00 RMK AO2 T00221006
03812KAVL AVL20161118043011011/18/16 04:30:31  5-MIN KAVL 180930Z AUTO 00000KT 9SM FU CLR 03/00 A3022 1890 82 900 000/00 RMK AO2 T00280000
03812KAVL AVL20161118043511011/18/16 04:35:31  5-MIN KAVL 180935Z AUTO 34003KT 9SM FU CLR 02/00 A3022 1890 85 800 340/03 RMK AO2 T00220000
03812KAVL AVL20161118044011111/18/16 04:40:31  5-MIN KAVL 180940Z AUTO 00000KT 10SM FU CLR 02/01 A3022 1890 89 800 000/00 RMK AO2 T00220006
03812KAVL AVL20161118044511111/18/16 04:45:31  5-MIN KAVL 180945Z AUTO 00000KT 10SM FU CLR 02/00 A3022 1890 85 800 000/00 RMK AO2 T00220000
03812KAVL AVL20161118045011711/18/16 04:50:31  5-MIN KAVL 180950Z AUTO 00000KT 9SM FU CLR 02/00 A3022 1890 85 800 000/00 RMK AO2 SLP225 T00220000
03812KAVL AVL20161118045511011/18/16 04:55:31  5-MIN KAVL 180955Z AUTO 00000KT 9SM FU CLR 02/00 A3022 1890 85 800 000/00 RMK AO2 T00220000
03812KAVL AVL20161118050011111/18/16 05:00:31  5-MIN KAVL 181000Z AUTO 00000KT 9SM FU CLR 02/M01 A3022 1890 85 800 000/00 RMK AO2 T00171006
03812KAVL AVL20161118050511111/18/16 05:05:31  5-MIN KAVL 181005Z AUTO 00000KT 9SM FU CLR 01/M01 A3022 1890 85 700 000/00 RMK AO2 T00111011
03812KAVL AVL20161118051011111/18/16 05:10:31  5-MIN KAVL 181010Z AUTO 00000KT 9SM FU CLR 01/M01 A3022 1890 89 700 000/00 RMK AO2 T00111006
03812KAVL AVL20161118051511111/18/16 05:15:31  5-MIN KAVL 181015Z AUTO 00000KT 9SM FU CLR 02/M01 A3022 1890 85 800 000/00 RMK AO2 T00171006
03812KAVL AVL20161118052011111/18/16 05:20:31  5-MIN KAVL 181020Z AUTO 00000KT 9SM FU CLR 02/M01 A3022 1890 85 800 000/00 RMK AO2 T00171006
03812KAVL AVL20161118052511111/18/16 05:25:31  5-MIN KAVL 181025Z AUTO 00000KT 9SM FU CLR 02/M01 A3023 1890 85 800 000/00 RMK AO2 T00171006
03812KAVL AVL20161118053011111/18/16 05:30:31  5-MIN KAVL 181030Z AUTO 00000KT 9SM FU CLR 01/M01 A3023 1880 89 700 000/00 RMK AO2 T00111006
03812KAVL AVL20161118053511111/18/16 05:35:31  5-MIN KAVL 181035Z AUTO 00000KT 9SM FU CLR 02/M01 A3023 1880 85 800 000/00 RMK AO2 T00171006
03812KAVL AVL20161118054011111/18/16 05:40:31  5-MIN KAVL 181040Z AUTO 00000KT 9SM FU CLR 02/M01 A3023 1880 82 800 000/00 RMK AO2 T00171011
03812KAVL AVL20161118054511111/18/16 05:45:31  5-MIN KAVL 181045Z AUTO 00000KT 9SM FU CLR 02/M01 A3023 1880 82 800 000/00 RMK AO2 T00171011
03812KAVL AVL20161118055011811/18/16 05:50:31  5-MIN KAVL 181050Z AUTO 00000KT 9SM FU CLR 02/M01 A3023 1880 82 800 000/00 RMK AO2 SLP232 T00171011
03812KAVL AVL20161118055511111/18/16 05:55:31  5-MIN KAVL 181055Z AUTO 00000KT 8SM FU CLR 02/M01 A3023 1880 85 800 000/00 RMK AO2 T00171006
03812KAVL AVL20161118060011111/18/16 06:00:31  5-MIN KAVL 181100Z AUTO 00000KT 8SM FU CLR 02/M01 A3023 1880 82 800 000/00 RMK AO2 T00171011
03812KAVL AVL20161118060511111/18/16 06:05:31  5-MIN KAVL 181105Z AUTO 00000KT 8SM FU CLR 02/M01 A3023 1880 82 800 000/00 RMK AO2 T00171011
03812KAVL AVL20161118061011111/18/16 06:10:31  5-MIN KAVL 181110Z AUTO 00000KT 8SM FU CLR 02/M01 A3023 1880 85 800 000/00 RMK AO2 T00171006
03812KAVL AVL20161118061511111/18/16 06:15:31  5-MIN KAVL 181115Z AUTO 00000KT 9SM FU CLR 01/M01 A3023 1880 89 600 000/00 RMK AO2 T00061011
03812KAVL AVL20161118062011111/18/16 06:20:31  5-MIN KAVL 181120Z AUTO 00000KT 9SM FU CLR 01/M01 A3024 1880 89 600 000/00 RMK AO2 T00061011
03812KAVL AVL20161118062510611/18/16 06:25:31  5-MIN KAVL 181125Z 00000KT 9SM FU CLR 01/M01 A3024 1880 89 700 000/00 RMK AO2 T00111006
03812KAVL AVL20161118063010611/18/16 06:30:31  5-MIN KAVL 181130Z 00000KT 8SM FU CLR 01/M01 A3024 1870 89 700 000/00 RMK AO2 T00111006
03812KAVL AVL20161118063510611/18/16 06:35:31  5-MIN KAVL 181135Z 00000KT 8SM FU CLR 01/M01 A3024 1870 89 700 000/00 RMK AO2 T00111006
03812KAVL AVL20161118064010611/18/16 06:40:31  5-MIN KAVL 181140Z 00000KT 9SM FU CLR 02/M01 A3024 1870 85 700 000/00 RMK AO2 T00171006
03812KAVL AVL20161118064510611/18/16 06:45:31  5-MIN KAVL 181145Z 00000KT 9SM FU CLR 02/M01 A3024 1870 85 700 000/00 RMK AO2 T00171006
03812KAVL AVL20161118065013211/18/16 06:50:31  5-MIN KAVL 181150Z 00000KT 10SM FU CLR 01/M01 A3025 1870 89 700 000/00 RMK AO2 SLP239 T00111006 10050 20006 53001
03812KAVL AVL20161118065510611/18/16 06:55:31  5-MIN KAVL 181155Z 00000KT 9SM FU CLR 01/M01 A3025 1870 89 700 000/00 RMK AO2 T00111006
03812KAVL AVL20161118070010611/18/16 07:00:31  5-MIN KAVL 181200Z 00000KT 9SM FU CLR 01/M01 A3025 1870 85 700 000/00 RMK AO2 T00111011
03812KAVL AVL20161118070510611/18/16 07:05:31  5-MIN KAVL 181205Z 00000KT 9SM FU CLR 01/M01 A3025 1860 85 700 000/00 RMK AO2 T00111011
03812KAVL AVL20161118071010611/18/16 07:10:31  5-MIN KAVL 181210Z 00000KT 8SM FU CLR 01/M01 A3025 1860 85 700 000/00 RMK AO2 T00111011
03812KAVL AVL20161118071510611/18/16 07:15:31  5-MIN KAVL 181215Z 00000KT 8SM FU CLR 01/M01 A3025 1860 89 600 000/00 RMK AO2 T00061011
03812KAVL AVL20161118072010611/18/16 07:20:31  5-MIN KAVL 181220Z 00000KT 7SM FU CLR 01/M01 A3025 1860 85 700 000/00 RMK AO2 T00111011
03812KAVL AVL20161118072510611/18/16 07:25:31  5-MIN KAVL 181225Z 00000KT 7SM FU CLR 01/M01 A3026 1860 85 700 000/00 RMK AO2 T00111011
03812KAVL AVL20161118073010611/18/16 07:30:31  5-MIN KAVL 181230Z 00000KT 7SM FU CLR 01/M01 A3026 1860 89 700 000/00 RMK AO2 T00111006
03812KAVL AVL20161118073510611/18/16 07:35:31  5-MIN KAVL 181235Z 00000KT 7SM FU CLR 02/M01 A3026 1860 85 700 000/00 RMK AO2 T00171006
03812KAVL AVL20161118074010611/18/16 07:40:31  5-MIN KAVL 181240Z 00000KT 7SM FU CLR 02/M01 A3026 1860 85 700 000/00 RMK AO2 T00171006
03812KAVL AVL20161118074510611/18/16 07:45:31  5-MIN KAVL 181245Z 00000KT 7SM FU CLR 02/M01 A3026 1860 85 700 000/00 RMK AO2 T00171006
03812KAVL AVL20161118075011311/18/16 07:50:31  5-MIN KAVL 181250Z 00000KT 7SM FU CLR 02/M01 A3026 1850 85 700 000/00 RMK AO2 SLP246 T00171006
03812KAVL AVL20161118075510511/18/16 07:55:31  5-MIN KAVL 181255Z 00000KT 7SM FU CLR 02/00 A3026 1850 89 700 000/00 RMK AO2 T00170000
03812KAVL AVL20161118080010511/18/16 08:00:31  5-MIN KAVL 181300Z 32003KT 7SM FU CLR 02/00 A3027 1850 85 800 330/03 RMK AO2 T00220000
03812KAVL AVL20161118080510511/18/16 08:05:31  5-MIN KAVL 181305Z 33003KT 7SM FU CLR 02/00 A3027 1850 85 800 330/03 RMK AO2 T00220000
03812KAVL AVL20161118081010511/18/16 08:10:31  5-MIN KAVL 181310Z 00000KT 8SM FU CLR 03/01 A3027 1850 85 900 000/00 RMK AO2 T00280006
03812KAVL AVL20161118081510511/18/16 08:15:31  5-MIN KAVL 181315Z 00000KT 8SM FU CLR 03/01 A3027 1850 85 900 000/00 RMK AO2 T00330011
03812KAVL AVL20161118082010611/18/16 08:20:31  5-MIN KAVL 181320Z 00000KT 7SM FU CLR 04/02 A3027 1850 85 1000 000/00 RMK AO2 T00390017
03812KAVL AVL20161118082510611/18/16 08:25:31  5-MIN KAVL 181325Z 34004KT 7SM FU CLR 05/02 A3027 1850 79 1100 350/04 RMK AO2 T00500017
03812KAVL AVL20161118083010611/18/16 08:30:31  5-MIN KAVL 181330Z 33004KT 7SM FU CLR 05/02 A3027 1840 79 1100 340/04 RMK AO2 T00500017
03812KAVL AVL20161118083510611/18/16 08:35:31  5-MIN KAVL 181335Z 34004KT 8SM FU CLR 06/02 A3027 1840 76 1200 340/04 RMK AO2 T00560017
03812KAVL AVL20161118084010611/18/16 08:40:31  5-MIN KAVL 181340Z 32004KT 8SM FU CLR 07/02 A3027 1840 73 1300 330/04 RMK AO2 T00670022
03812KAVL AVL20161118084510611/18/16 08:45:31  5-MIN KAVL 181345Z 33004KT 8SM FU CLR 07/02 A3027 1840 73 1300 330/04 RMK AO2 T00670022
03812KAVL AVL20161118085011311/18/16 08:50:31  5-MIN KAVL 181350Z 00000KT 8SM FU CLR 07/02 A3028 1840 73 1300 000/00 RMK AO2 SLP250 T00670022
03812KAVL AVL20161118085510611/18/16 08:55:31  5-MIN KAVL 181355Z 00000KT 8SM FU CLR 06/02 A3028 1840 76 1300 000/00 RMK AO2 T00610022
03812KAVL AVL20161118090010611/18/16 09:00:31  5-MIN KAVL 181400Z 00000KT 7SM FU CLR 06/02 A3028 1840 79 1200 000/00 RMK AO2 T00560022
03812KAVL AVL20161118090510611/18/16 09:05:31  5-MIN KAVL 181405Z 00000KT 7SM FU CLR 06/02 A3027 1840 79 1200 000/00 RMK AO2 T00560022
03812KAVL AVL20161118091010911/18/16 09:10:31  5-MIN KAVL 181410Z 17003KT 6SM HZ FU CLR 07/02 A3027 1840 73 1300 180/03 RMK AO2 T00670022
03812KAVL AVL20161118091510611/18/16 09:15:31  5-MIN KAVL 181415Z 00000KT 7SM FU CLR 07/02 A3028 1840 73 1300 000/00 RMK AO2 T00670022
03812KAVL AVL20161118092010611/18/16 09:20:31  5-MIN KAVL 181420Z 17003KT 8SM FU CLR 07/03 A3027 1840 73 1400 180/03 RMK AO2 T00720028
03812KAVL AVL20161118092510611/18/16 09:25:31  5-MIN KAVL 181425Z 00000KT 8SM FU CLR 08/03 A3027 1840 70 1500 000/00 RMK AO2 T00780028
03812KAVL AVL20161118093010611/18/16 09:30:31  5-MIN KAVL 181430Z 00000KT 9SM FU CLR 09/03 A3027 1840 65 1600 000/00 RMK AO2 T00890028
03812KAVL AVL20161118093510611/18/16 09:35:31  5-MIN KAVL 181435Z 00000KT 9SM FU CLR 09/03 A3027 1840 63 1700 000/00 RMK AO2 T00940028
03812KAVL AVL20161118094010611/18/16 09:40:31  5-MIN KAVL 181440Z 00000KT 9SM FU CLR 10/03 A3027 1850 60 1700 000/00 RMK AO2 T01000028
03812KAVL AVL20161118094510611/18/16 09:45:31  5-MIN KAVL 181445Z 00000KT 8SM FU CLR 10/03 A3027 1850 60 1700 000/00 RMK AO2 T01000028
03812KAVL AVL20161118095011911/18/16 09:50:31  5-MIN KAVL 181450Z 00000KT 9SM FU CLR 11/02 A3027 1850 54 1900 000/00 RMK AO2 SLP245 T01110022 53009
03812KAVL AVL20161118095510711/18/16 09:55:31  5-MIN KAVL 181455Z 29003KT 10SM FU CLR 11/02 A3027 1850 54 1900 290/03 RMK AO2 T01110022
03812KAVL AVL20161118100010711/18/16 10:00:31  5-MIN KAVL 181500Z 28003KT 10SM FU CLR 12/02 A3027 1850 52 1900 290/03 RMK AO2 T01170022
03812KAVL AVL20161118100510711/18/16 10:05:31  5-MIN KAVL 181505Z 00000KT 10SM FU CLR 12/02 A3027 1850 50 2000 000/00 RMK AO2 T01220022
03812KAVL AVL20161118101010711/18/16 10:10:31  5-MIN KAVL 181510Z 00000KT 10SM FU CLR 12/02 A3027 1850 50 2000 000/00 RMK AO2 T01220022
03812KAVL AVL20161118101510711/18/16 10:15:31  5-MIN KAVL 181515Z 32003KT 10SM FU CLR 13/03 A3027 1850 48 2100 330/03 RMK AO2 T01330028
03812KAVL AVL20161118102010711/18/16 10:20:31  5-MIN KAVL 181520Z 31004KT 10SM FU CLR 14/03 A3026 1850 47 2200 320/04 RMK AO2 T01390028
03812KAVL AVL20161118102510711/18/16 10:25:31  5-MIN KAVL 181525Z 32004KT 10SM FU CLR 14/03 A3026 1850 45 2300 330/04 RMK AO2 T01440028
03812KAVL AVL20161118103010711/18/16 10:30:31  5-MIN KAVL 181530Z 33004KT 10SM FU CLR 15/03 A3026 1850 43 2300 330/04 RMK AO2 T01500028
03812KAVL AVL20161118103510711/18/16 10:35:31  5-MIN KAVL 181535Z 35005KT 10SM FU CLR 16/02 A3026 1860 40 2400 360/05 RMK AO2 T01560022
03812KAVL AVL20161118104010711/18/16 10:40:31  5-MIN KAVL 181540Z VRB04KT 10SM FU CLR 16/02 A3026 1860 39 2500 VRB/04 RMK AO2 T01610022
03812KAVL AVL20161118104510711/18/16 10:45:31  5-MIN KAVL 181545Z 34005KT 10SM FU CLR 16/02 A3026 1860 39 2500 350/05 RMK AO2 T01610022
03812KAVL AVL20161118105011411/18/16 10:50:31  5-MIN KAVL 181550Z 34005KT 10SM FU CLR 17/02 A3026 1860 37 2500 350/05 RMK AO2 SLP237 T01670022
03812KAVL AVL20161118105510711/18/16 10:55:31  5-MIN KAVL 181555Z 34004KT 10SM FU CLR 17/02 A3025 1860 36 2600 350/04 RMK AO2 T01720022
03812KAVL AVL20161118110010711/18/16 11:00:31  5-MIN KAVL 181600Z 33003KT 10SM FU CLR 17/02 A3025 1860 36 2600 340/03 RMK AO2 T01720022
03812KAVL AVL20161118110510711/18/16 11:05:31  5-MIN KAVL 181605Z 35004KT 10SM FU CLR 18/02 A3025 1860 34 2700 360/04 RMK AO2 T01830022
03812KAVL AVL20161118111010711/18/16 11:10:31  5-MIN KAVL 181610Z 35005KT 10SM FU CLR 18/02 A3025 1860 32 2700 360/05 RMK AO2 T01830017
03812KAVL AVL20161118111510711/18/16 11:15:31  5-MIN KAVL 181615Z 34007KT 10SM FU CLR 19/02 A3025 1860 31 2800 350/07 RMK AO2 T01890017
03812KAVL AVL20161118112010711/18/16 11:20:31  5-MIN KAVL 181620Z 34006KT 10SM FU CLR 19/02 A3025 1860 32 2800 350/06 RMK AO2 T01890022
03812KAVL AVL20161118112510711/18/16 11:25:31  5-MIN KAVL 181625Z 34007KT 10SM FU CLR 19/02 A3025 1870 30 2900 350/07 RMK AO2 T01940017
03812KAVL AVL20161118113010711/18/16 11:30:31  5-MIN KAVL 181630Z 33008KT 10SM FU CLR 20/02 A3025 1870 30 2900 340/08 RMK AO2 T02000022
03812KAVL AVL20161118113510711/18/16 11:35:31  5-MIN KAVL 181635Z 33007KT 10SM FU CLR 20/02 A3024 1870 30 2900 340/07 RMK AO2 T02000022
03812KAVL AVL20161118114010711/18/16 11:40:31  5-MIN KAVL 181640Z 34007KT 10SM FU CLR 21/02 A3024 1870 29 3000 350/07 RMK AO2 T02060022
03812KAVL AVL20161118114510711/18/16 11:45:31  5-MIN KAVL 181645Z 34008KT 10SM FU CLR 21/02 A3024 1880 29 3000 340/08 RMK AO2 T02060022
03812KAVL AVL20161118115011411/18/16 11:50:31  5-MIN KAVL 181650Z 35007KT 10SM FU CLR 21/02 A3023 1880 28 3100 360/07 RMK AO2 SLP226 T02110022
03812KAVL AVL20161118115510711/18/16 11:55:31  5-MIN KAVL 181655Z 35008KT 10SM FU CLR 21/02 A3023 1880 28 3100 360/08 RMK AO2 T02110022
03812KAVL AVL20161118120010711/18/16 12:00:31  5-MIN KAVL 181700Z 36010KT 10SM FU CLR 22/02 A3023 1890 27 3100 360/10 RMK AO2 T02170022
03812KAVL AVL20161118120510711/18/16 12:05:31  5-MIN KAVL 181705Z 33009KT 10SM FU CLR 22/02 A3022 1890 26 3100 340/09 RMK AO2 T02170017
03812KAVL AVL20161118121010711/18/16 12:10:31  5-MIN KAVL 181710Z 35008KT 10SM FU CLR 22/02 A3022 1890 26 3200 350/08 RMK AO2 T02220022
03812KAVL AVL20161118121510711/18/16 12:15:31  5-MIN KAVL 181715Z 35007KT 10SM FU CLR 22/02 A3022 1890 25 3200 350/07 RMK AO2 T02220017
03812KAVL AVL20161118122010711/18/16 12:20:31  5-MIN KAVL 181720Z 35009KT 10SM FU CLR 22/02 A3022 1890 25 3200 360/09 RMK AO2 T02220017
03812KAVL AVL20161118122510711/18/16 12:25:31  5-MIN KAVL 181725Z 34008KT 10SM FU CLR 22/02 A3021 1900 25 3200 350/08 RMK AO2 T02220017
03812KAVL AVL20161118123010711/18/16 12:30:31  5-MIN KAVL 181730Z 35007KT 10SM FU CLR 23/02 A3021 1900 24 3300 350/07 RMK AO2 T02280017
03812KAVL AVL20161118123510711/18/16 12:35:31  5-MIN KAVL 181735Z 33009KT 10SM FU CLR 23/01 A3021 1900 23 3300 340/09 RMK AO2 T02330011
03812KAVL AVL20161118124010711/18/16 12:40:31  5-MIN KAVL 181740Z 33006KT 10SM FU CLR 23/01 A3020 1910 23 3300 340/06 RMK AO2 T02330011
03812KAVL AVL20161118124510711/18/16 12:45:31  5-MIN KAVL 181745Z 33006KT 10SM FU CLR 23/01 A3020 1910 22 3300 340/06 RMK AO2 T02330006
03812KAVL AVL20161118125013211/18/16 12:50:31  5-MIN KAVL 181750Z 36006KT 10SM FU CLR 23/01 A3020 1910 22 3300 360/06 RMK AO2 SLP214 T02330006 10233 20006 50007
03812KAVL AVL20161118125510711/18/16 12:55:31  5-MIN KAVL 181755Z 34005KT 10SM FU CLR 23/01 A3020 1910 22 3300 340/05 RMK AO2 T02280006
03812KAVL AVL20161118130010711/18/16 13:00:31  5-MIN KAVL 181800Z 33005KT 10SM FU CLR 23/01 A3020 1910 22 3400 330/05 RMK AO2 T02330006
03812KAVL AVL20161118130510711/18/16 13:05:31  5-MIN KAVL 181805Z 33005KT 10SM FU CLR 24/00 A3019 1920 20 3400 340/05 RMK AO2 T02390000
03812KAVL AVL20161118131010711/18/16 13:10:31  5-MIN KAVL 181810Z 32006KT 10SM FU CLR 24/00 A3019 1920 20 3400 330/06 RMK AO2 T02390000
03812KAVL AVL20161118131510811/18/16 13:15:31  5-MIN KAVL 181815Z 33004KT 10SM FU CLR 24/M01 A3019 1920 19 3400 340/04 RMK AO2 T02391006
03812KAVL AVL20161118132010811/18/16 13:20:31  5-MIN KAVL 181820Z 34005KT 10SM FU CLR 24/M01 A3018 1930 19 3500 340/05 RMK AO2 T02441006
03812KAVL AVL20161118132510811/18/16 13:25:31  5-MIN KAVL 181825Z 00000KT 10SM FU CLR 24/M01 A3018 1930 19 3500 000/00 RMK AO2 T02441006
03812KAVL AVL20161118133010811/18/16 13:30:31  5-MIN KAVL 181830Z 36004KT 10SM FU CLR 24/M01 A3018 1930 18 3500 010/04 RMK AO2 T02441011
03812KAVL AVL20161118133510811/18/16 13:35:31  5-MIN KAVL 181835Z VRB03KT 10SM FU CLR 24/M01 A3018 1930 19 3500 VRB/03 RMK AO2 T02441006
03812KAVL AVL20161118134010811/18/16 13:40:31  5-MIN KAVL 181840Z 31003KT 10SM FU CLR 25/M01 A3018 1930 18 3600 310/03 RMK AO2 T02501006
03812KAVL AVL20161118134510811/18/16 13:45:31  5-MIN KAVL 181845Z 31003KT 10SM FU CLR 24/M01 A3017 1930 19 3500 310/03 RMK AO2 T02441006
03812KAVL AVL20161118135011511/18/16 13:50:31  5-MIN KAVL 181850Z VRB03KT 10SM FU CLR 24/M01 A3017 1940 19 3500 VRB/03 RMK AO2 SLP204 T02441006
03812KAVL AVL20161118135510811/18/16 13:55:31  5-MIN KAVL 181855Z 00000KT 10SM FU CLR 24/M01 A3017 1940 19 3400 000/00 RMK AO2 T02391011
03812KAVL AVL20161118140010811/18/16 14:00:31  5-MIN KAVL 181900Z 00000KT 10SM FU CLR 24/M02 A3017 1940 17 3500 000/00 RMK AO2 T02441017
03812KAVL AVL20161118140510811/18/16 14:05:31  5-MIN KAVL 181905Z 31003KT 10SM FU CLR 25/M02 A3016 1940 17 3600 320/03 RMK AO2 T02501017
03812KAVL AVL20161118141010811/18/16 14:10:31  5-MIN KAVL 181910Z 00000KT 10SM FU CLR 25/M02 A3016 1950 16 3600 000/00 RMK AO2 T02501022
03812KAVL AVL20161118141510811/18/16 14:15:31  5-MIN KAVL 181915Z 00000KT 10SM FU CLR 24/M02 A3016 1950 17 3500 000/00 RMK AO2 T02441022
03812KAVL AVL20161118142010811/18/16 14:20:31  5-MIN KAVL 181920Z 16005KT 10SM FU CLR 25/M02 A3016 1950 16 3600 170/05 RMK AO2 T02501022
03812KAVL AVL20161118142510811/18/16 14:25:31  5-MIN KAVL 181925Z 00000KT 10SM FU CLR 24/M03 A3016 1950 16 3500 000/00 RMK AO2 T02441028
03812KAVL AVL20161118143010811/18/16 14:30:31  5-MIN KAVL 181930Z VRB03KT 10SM FU CLR 24/M02 A3015 1950 17 3500 VRB/03 RMK AO2 T02441022
03812KAVL AVL20161118143510811/18/16 14:35:31  5-MIN KAVL 181935Z VRB05KT 10SM FU CLR 25/M02 A3015 1950 16 3600 VRB/05 RMK AO2 T02501022
03812KAVL AVL20161118144010711/18/16 14:40:31  5-MIN KAVL 181940Z 17004KT 8SM FU CLR 24/M03 A3015 1960 16 3500 170/04 RMK AO2 T02441028
03812KAVL AVL20161118144510711/18/16 14:45:31  5-MIN KAVL 181945Z 18003KT 8SM FU CLR 24/M03 A3015 1960 15 3500 190/03 RMK AO2 T02441033
03812KAVL AVL20161118145011511/18/16 14:50:31  5-MIN KAVL 181950Z 14005KT 10SM FU CLR 24/M03 A3015 1960 15 3500 150/05 RMK AO2 SLP196 T02441033
03812KAVL AVL20161118145510811/18/16 14:55:31  5-MIN KAVL 181955Z 16004KT 10SM FU CLR 24/M03 A3015 1960 16 3500 160/04 RMK AO2 T02441028
03812KAVL AVL20161118150010811/18/16 15:00:31  5-MIN KAVL 182000Z VRB04KT 10SM FU CLR 24/M03 A3014 1960 16 3500 VRB/04 RMK AO2 T02441028
03812KAVL AVL20161118150510811/18/16 15:05:31  5-MIN KAVL 182005Z 16004KT 10SM FU CLR 24/M02 A3014 1960 17 3500 160/04 RMK AO2 T02441022
03812KAVL AVL20161118151010811/18/16 15:10:31  5-MIN KAVL 182010Z VRB03KT 10SM FU CLR 24/M02 A3014 1960 17 3500 VRB/03 RMK AO2 T02441022
03812KAVL AVL20161118151510811/18/16 15:15:31  5-MIN KAVL 182015Z 17005KT 10SM FU CLR 24/M02 A3014 1960 17 3500 180/05 RMK AO2 T02441017
03812KAVL AVL20161118152010811/18/16 15:20:31  5-MIN KAVL 182020Z 13003KT 10SM FU CLR 24/M02 A3014 1960 17 3500 140/03 RMK AO2 T02441017
03812KAVL AVL20161118152511311/18/16 15:25:31  5-MIN KAVL 182025Z AUTO VRB05KT 10SM FU CLR 24/M02 A3014 1960 17 3500 VRB/05 RMK AO2 T02441017
03812KAVL AVL20161118153011311/18/16 15:30:31  5-MIN KAVL 182030Z AUTO 19006KT 10SM FU CLR 24/M01 A3014 1960 18 3500 200/06 RMK AO2 T02441011
03812KAVL AVL20161118153511311/18/16 15:35:31  5-MIN KAVL 182035Z AUTO 16008KT 10SM FU CLR 24/M01 A3014 1960 18 3500 160/08 RMK AO2 T02441011
03812KAVL AVL20161118154011111/18/16 15:40:31  5-MIN KAVL 182040Z AUTO 15007KT 7SM FU CLR 24/01 A3014 1960 22 3500 160/07 RMK AO2 T02390011
03812KAVL AVL20161118154511411/18/16 15:45:31  5-MIN KAVL 182045Z AUTO 15007KT 5SM HZ FU CLR 24/02 A3014 1960 23 3500 160/07 RMK AO2 T02390017
03812KAVL AVL20161118155012711/18/16 15:50:31  5-MIN KAVL 182050Z AUTO 14007KT 5SM HZ FU CLR 24/02 A3014 1960 23 3500 150/07 RMK AO2 SLP195 T02390017 58022
03812KAVL AVL20161118155510911/18/16 15:55:31  5-MIN KAVL 182055Z 15005KT 5SM HZ FU CLR 23/02 A3014 1960 24 3400 160/05 RMK AO2 T02330017
03812KAVL AVL20161118160010911/18/16 16:00:31  5-MIN KAVL 182100Z 16007KT 5SM HZ FU CLR 23/02 A3015 1960 24 3400 170/07 RMK AO2 T02330022
03812KAVL AVL20161118160510911/18/16 16:05:31  5-MIN KAVL 182105Z 15006KT 5SM HZ FU CLR 23/02 A3015 1960 24 3400 150/06 RMK AO2 T02330022
03812KAVL AVL20161118161010911/18/16 16:10:31  5-MIN KAVL 182110Z 16007KT 5SM HZ FU CLR 23/02 A3015 1960 24 3400 170/07 RMK AO2 T02330022
03812KAVL AVL20161118161510911/18/16 16:15:31  5-MIN KAVL 182115Z 16007KT 4SM HZ FU CLR 23/02 A3015 1960 25 3300 170/07 RMK AO2 T02280022
03812KAVL AVL20161118162010911/18/16 16:20:31  5-MIN KAVL 182120Z 17007KT 4SM HZ FU CLR 22/03 A3014 1960 27 3300 170/07 RMK AO2 T02220028
03812KAVL AVL20161118162510911/18/16 16:25:31  5-MIN KAVL 182125Z 16006KT 2SM HZ FU CLR 22/03 A3014 1960 27 3300 160/06 RMK AO2 T02220028
03812KAVL AVL20161118163010911/18/16 16:30:31  5-MIN KAVL 182130Z 17006KT 2SM HZ FU CLR 22/03 A3014 1960 27 3300 180/06 RMK AO2 T02220028
03812KAVL AVL20161118163510911/18/16 16:35:31  5-MIN KAVL 182135Z 17007KT 4SM HZ FU CLR 22/03 A3014 1960 29 3200 180/07 RMK AO2 T02170033
03812KAVL AVL20161118164010911/18/16 16:40:31  5-MIN KAVL 182140Z 18008KT 2SM HZ FU CLR 21/03 A3014 1960 30 3200 180/08 RMK AO2 T02110033
03812KAVL AVL20161118164510911/18/16 16:45:31  5-MIN KAVL 182145Z 18007KT 2SM HZ FU CLR 21/03 A3014 1960 29 3200 190/07 RMK AO2 T02110028
03812KAVL AVL20161118165011611/18/16 16:50:31  5-MIN KAVL 182150Z 19007KT 2SM HZ FU CLR 21/02 A3014 1960 28 3200 200/07 RMK AO2 SLP199 T02110022
03812KAVL AVL20161118165510911/18/16 16:55:31  5-MIN KAVL 182155Z 19008KT 5SM HZ FU CLR 21/02 A3014 1960 28 3200 200/08 RMK AO2 T02110022
03812KAVL AVL20161118170010911/18/16 17:00:31  5-MIN KAVL 182200Z 18008KT 2SM HZ FU CLR 21/02 A3014 1960 29 3100 190/08 RMK AO2 T02060022
03812KAVL AVL20161118170510911/18/16 17:05:31  5-MIN KAVL 182205Z 18007KT 2SM HZ FU CLR 19/02 A3014 1960 31 3000 180/07 RMK AO2 T01940022
03812KAVL AVL20161118171010911/18/16 17:10:31  5-MIN KAVL 182210Z 18008KT 2SM HZ FU CLR 19/02 A3014 1960 31 3000 190/08 RMK AO2 T01940022
03812KAVL AVL20161118171510911/18/16 17:15:31  5-MIN KAVL 182215Z 18008KT 2SM HZ FU CLR 19/02 A3014 1960 32 2900 190/08 RMK AO2 T01890022
03812KAVL AVL20161118172010911/18/16 17:20:31  5-MIN KAVL 182220Z 17007KT 2SM HZ FU CLR 19/02 A3014 1960 32 2900 170/07 RMK AO2 T01890022
03812KAVL AVL20161118172510911/18/16 17:25:31  5-MIN KAVL 182225Z 16006KT 2SM HZ FU CLR 18/02 A3014 1960 34 2800 160/06 RMK AO2 T01830022
03812KAVL AVL20161118173010911/18/16 17:30:31  5-MIN KAVL 182230Z 16005KT 2SM HZ FU CLR 19/02 A3014 1960 32 2900 170/05 RMK AO2 T01890022
03812KAVL AVL20161118173510911/18/16 17:35:31  5-MIN KAVL 182235Z 17006KT 2SM HZ FU CLR 18/03 A3014 1960 36 2800 180/06 RMK AO2 T01780028
03812KAVL AVL20161118174010911/18/16 17:40:31  5-MIN KAVL 182240Z 18006KT 2SM HZ FU CLR 18/02 A3014 1960 35 2800 180/06 RMK AO2 T01780022
03812KAVL AVL20161118174510911/18/16 17:45:31  5-MIN KAVL 182245Z 18007KT 3SM HZ FU CLR 17/02 A3014 1970 37 2700 190/07 RMK AO2 T01670022
03812KAVL AVL20161118175011611/18/16 17:50:31  5-MIN KAVL 182250Z 17007KT 3SM HZ FU CLR 18/02 A3014 1960 35 2800 180/07 RMK AO2 SLP201 T01780022
03812KAVL AVL20161118175510611/18/16 17:55:31  5-MIN KAVL 182255Z 19005KT 8SM FU CLR 18/02 A3015 1960 35 2800 200/05 RMK AO2 T01780022
03812KAVL AVL20161118180010611/18/16 18:00:31  5-MIN KAVL 182300Z 18004KT 8SM FU CLR 17/02 A3015 1960 36 2700 180/04 RMK AO2 T01720022
03812KAVL AVL20161118180510611/18/16 18:05:31  5-MIN KAVL 182305Z 16005KT 8SM FU CLR 17/02 A3015 1960 36 2700 160/05 RMK AO2 T01720022
03812KAVL AVL20161118181010611/18/16 18:10:31  5-MIN KAVL 182310Z 16004KT 8SM FU CLR 17/03 A3015 1960 39 2600 170/04 RMK AO2 T01670028
03812KAVL AVL20161118181510611/18/16 18:15:31  5-MIN KAVL 182315Z 14004KT 8SM FU CLR 17/03 A3014 1960 37 2700 150/04 RMK AO2 T01720028
03812KAVL AVL20161118182010611/18/16 18:20:31  5-MIN KAVL 182320Z 15004KT 8SM FU CLR 18/02 A3015 1960 35 2800 160/04 RMK AO2 T01780022
03812KAVL AVL20161118182510611/18/16 18:25:31  5-MIN KAVL 182325Z 18003KT 9SM FU CLR 18/02 A3015 1960 35 2800 190/03 RMK AO2 T01780022
03812KAVL AVL20161118183010611/18/16 18:30:31  5-MIN KAVL 182330Z 21003KT 9SM FU CLR 17/02 A3015 1950 36 2700 210/03 RMK AO2 T01720022
03812KAVL AVL20161118183510611/18/16 18:35:31  5-MIN KAVL 182335Z 19004KT 9SM FU CLR 18/02 A3015 1950 35 2800 200/04 RMK AO2 T01780022
03812KAVL AVL20161118184010611/18/16 18:40:31  5-MIN KAVL 182340Z 15003KT 8SM FU CLR 17/02 A3015 1950 37 2600 150/03 RMK AO2 T01670022
03812KAVL AVL20161118184510611/18/16 18:45:31  5-MIN KAVL 182345Z 14003KT 8SM FU CLR 16/03 A3015 1950 40 2600 150/03 RMK AO2 T01610028
03812KAVL AVL20161118185013111/18/16 18:50:31  5-MIN KAVL 182350Z 14003KT 9SM FU CLR 16/03 A3015 1950 40 2600 150/03 RMK AO2 SLP207 T01610028 10250 20161 56018
03812KAVL AVL20161118185510611/18/16 18:55:31  5-MIN KAVL 182355Z 15004KT 9SM FU CLR 16/03 A3016 1950 42 2500 160/04 RMK AO2 T01560028
03812KAVL AVL20161118190010611/18/16 19:00:31  5-MIN KAVL 190000Z 15004KT 9SM FU CLR 16/03 A3016 1950 42 2500 160/04 RMK AO2 T01560028
03812KAVL AVL20161118190510611/18/16 19:05:31  5-MIN KAVL 190005Z 15006KT 9SM FU CLR 16/03 A3016 1950 42 2500 160/06 RMK AO2 T01560028
03812KAVL AVL20161118191010611/18/16 19:10:31  5-MIN KAVL 190010Z 15006KT 8SM FU CLR 16/03 A3016 1950 40 2600 150/06 RMK AO2 T01610028
03812KAVL AVL20161118191510611/18/16 19:15:31  5-MIN KAVL 190015Z 15004KT 8SM FU CLR 16/03 A3016 1950 40 2600 150/04 RMK AO2 T01610028
03812KAVL AVL20161118192010611/18/16 19:20:31  5-MIN KAVL 190020Z 14005KT 8SM FU CLR 16/03 A3016 1950 40 2600 150/05 RMK AO2 T01610028
03812KAVL AVL20161118192510611/18/16 19:25:31  5-MIN KAVL 190025Z 12003KT 8SM FU CLR 16/03 A3016 1950 40 2600 130/03 RMK AO2 T01610028
03812KAVL AVL20161118193010611/18/16 19:30:31  5-MIN KAVL 190030Z 13004KT 8SM FU CLR 16/03 A3016 1950 40 2600 140/04 RMK AO2 T01610028
03812KAVL AVL20161118193510611/18/16 19:35:31  5-MIN KAVL 190035Z 13004KT 9SM FU CLR 16/03 A3016 1950 42 2500 140/04 RMK AO2 T01560028
03812KAVL AVL20161118194010611/18/16 19:40:31  5-MIN KAVL 190040Z 14004KT 9SM FU CLR 16/03 A3016 1950 40 2600 140/04 RMK AO2 T01610028
03812KAVL AVL20161118194510611/18/16 19:45:31  5-MIN KAVL 190045Z 15004KT 9SM FU CLR 16/03 A3016 1950 40 2600 160/04 RMK AO2 T01610028
03812KAVL AVL20161118195011311/18/16 19:50:31  5-MIN KAVL 190050Z 16004KT 9SM FU CLR 16/03 A3016 1950 43 2500 160/04 RMK AO2 SLP208 T01560033
03812KAVL AVL20161118195510611/18/16 19:55:31  5-MIN KAVL 190055Z 15004KT 9SM FU CLR 14/03 A3016 1950 47 2400 160/04 RMK AO2 T01440033
03812KAVL AVL20161118200010611/18/16 20:00:31  5-MIN KAVL 190100Z 15004KT 9SM FU CLR 14/03 A3016 1950 47 2400 150/04 RMK AO2 T01440033
03812KAVL AVL20161118200510611/18/16 20:05:31  5-MIN KAVL 190105Z 15005KT 9SM FU CLR 14/03 A3016 1950 48 2300 150/05 RMK AO2 T01390033
03812KAVL AVL20161118201010611/18/16 20:10:31  5-MIN KAVL 190110Z 15005KT 9SM FU CLR 14/03 A3016 1950 47 2400 150/05 RMK AO2 T01440033
03812KAVL AVL20161118201510611/18/16 20:15:31  5-MIN KAVL 190115Z 14004KT 9SM FU CLR 14/03 A3016 1950 47 2400 150/04 RMK AO2 T01440033
03812KAVL AVL20161118202010711/18/16 20:20:31  5-MIN KAVL 190120Z 15004KT 10SM FU CLR 14/03 A3016 1950 47 2400 150/04 RMK AO2 T01440033
03812KAVL AVL20161118202510711/18/16 20:25:31  5-MIN KAVL 190125Z 13004KT 10SM FU CLR 14/03 A3016 1950 47 2400 140/04 RMK AO2 T01440033
03812KAVL AVL20161118203010711/18/16 20:30:31  5-MIN KAVL 190130Z VRB03KT 10SM FU CLR 14/03 A3016 1950 47 2400 VRB/03 RMK AO2 T01440033
03812KAVL AVL20161118203510711/18/16 20:35:31  5-MIN KAVL 190135Z 13005KT 10SM FU CLR 15/03 A3015 1950 45 2400 130/05 RMK AO2 T01500033
03812KAVL AVL20161118204010711/18/16 20:40:31  5-MIN KAVL 190140Z 13004KT 10SM FU CLR 15/03 A3015 1950 45 2400 130/04 RMK AO2 T01500033
03812KAVL AVL20161118204510711/18/16 20:45:31  5-MIN KAVL 190145Z 14005KT 10SM FU CLR 14/03 A3015 1950 47 2400 140/05 RMK AO2 T01440033
03812KAVL AVL20161118205011411/18/16 20:50:31  5-MIN KAVL 190150Z 14004KT 10SM FU CLR 14/03 A3015 1950 47 2400 150/04 RMK AO2 SLP204 T01440033
03812KAVL AVL20161118205510711/18/16 20:55:31  5-MIN KAVL 190155Z 14005KT 10SM FU CLR 14/03 A3015 1950 47 2400 150/05 RMK AO2 T01440033
03812KAVL AVL20161118210010711/18/16 21:00:31  5-MIN KAVL 190200Z 14005KT 10SM FU CLR 14/03 A3015 1960 47 2400 140/05 RMK AO2 T01440033
03812KAVL AVL20161118210510711/18/16 21:05:31  5-MIN KAVL 190205Z 14005KT 10SM FU CLR 14/03 A3015 1950 47 2400 150/05 RMK AO2 T01440033
03812KAVL AVL20161118211010711/18/16 21:10:31  5-MIN KAVL 190210Z 14006KT 10SM FU CLR 14/03 A3015 1950 48 2300 150/06 RMK AO2 T01390033
03812KAVL AVL20161118211510711/18/16 21:15:31  5-MIN KAVL 190215Z 14006KT 10SM FU CLR 14/03 A3015 1950 48 2300 150/06 RMK AO2 T01390033
03812KAVL AVL20161118212010711/18/16 21:20:31  5-MIN KAVL 190220Z 13005KT 10SM FU CLR 14/03 A3015 1960 48 2300 140/05 RMK AO2 T01390033
03812KAVL AVL20161118212510711/18/16 21:25:31  5-MIN KAVL 190225Z 12004KT 10SM FU CLR 14/03 A3015 1960 48 2300 130/04 RMK AO2 T01390033
03812KAVL AVL20161118213010711/18/16 21:30:31  5-MIN KAVL 190230Z 13003KT 10SM FU CLR 14/03 A3015 1960 48 2300 130/03 RMK AO2 T01390033
03812KAVL AVL20161118213510711/18/16 21:35:31  5-MIN KAVL 190235Z 14005KT 10SM FU CLR 13/03 A3015 1960 50 2300 140/05 RMK AO2 T01330033
03812KAVL AVL20161118214010711/18/16 21:40:31  5-MIN KAVL 190240Z 13004KT 10SM FU CLR 14/03 A3015 1960 48 2300 130/04 RMK AO2 T01390033
03812KAVL AVL20161118214510711/18/16 21:45:31  5-MIN KAVL 190245Z 12004KT 10SM FU CLR 14/03 A3015 1960 48 2300 130/04 RMK AO2 T01390033
03812KAVL AVL20161118215012011/18/16 21:50:31  5-MIN KAVL 190250Z 11003KT 10SM FU CLR 13/03 A3015 1960 50 2300 120/03 RMK AO2 SLP198 T01330033 53004
03812KAVL AVL20161118215510711/18/16 21:55:31  5-MIN KAVL 190255Z 14003KT 10SM FU CLR 13/03 A3015 1960 50 2300 140/03 RMK AO2 T01330033
03812KAVL AVL20161118220010711/18/16 22:00:31  5-MIN KAVL 190300Z 13003KT 10SM FU CLR 13/03 A3015 1960 50 2300 140/03 RMK AO2 T01330033
03812KAVL AVL20161118220510711/18/16 22:05:31  5-MIN KAVL 190305Z 13003KT 10SM FU CLR 13/03 A3015 1960 50 2300 140/03 RMK AO2 T01330033
03812KAVL AVL20161118221010711/18/16 22:10:31  5-MIN KAVL 190310Z 00000KT 10SM FU CLR 13/03 A3015 1960 52 2200 000/00 RMK AO2 T01280033
03812KAVL AVL20161118221510711/18/16 22:15:31  5-MIN KAVL 190315Z 15003KT 10SM FU CLR 13/03 A3015 1960 52 2200 150/03 RMK AO2 T01280033
03812KAVL AVL20161118222010711/18/16 22:20:31  5-MIN KAVL 190320Z 14003KT 10SM FU CLR 11/03 A3014 1960 58 2000 150/03 RMK AO2 T01110033
03812KAVL AVL20161118222510711/18/16 22:25:31  5-MIN KAVL 190325Z 00000KT 10SM FU CLR 11/03 A3015 1960 58 1900 000/00 RMK AO2 T01060028
03812KAVL AVL20161118223010711/18/16 22:30:31  5-MIN KAVL 190330Z 13003KT 10SM FU CLR 11/03 A3014 1960 58 1900 140/03 RMK AO2 T01060028
03812KAVL AVL20161118223510711/18/16 22:35:31  5-MIN KAVL 190335Z 12003KT 10SM FU CLR 09/03 A3014 1960 63 1800 130/03 RMK AO2 T00940028
03812KAVL AVL20161118224010711/18/16 22:40:31  5-MIN KAVL 190340Z 13003KT 10SM FU CLR 10/03 A3014 1960 60 1900 130/03 RMK AO2 T01000028
03812KAVL AVL20161118224510711/18/16 22:45:31  5-MIN KAVL 190345Z 13003KT 10SM FU CLR 11/03 A3014 1960 61 1900 130/03 RMK AO2 T01060033
03812KAVL AVL20161118225011911/18/16 22:50:31  5-MIN KAVL 190350Z AUTO 00000KT 10SM FU CLR 11/03 A3014 1960 61 1900 000/00 RMK AO2 SLP194 T01060033
03812KAVL AVL20161118225511211/18/16 22:55:31  5-MIN KAVL 190355Z AUTO 00000KT 10SM FU CLR 10/03 A3014 1960 63 1900 000/00 RMK AO2 T01000033
03812KAVL AVL20161118230011211/18/16 23:00:31  5-MIN KAVL 190400Z AUTO 00000KT 10SM FU CLR 11/03 A3014 1960 61 1900 000/00 RMK AO2 T01060033
03812KAVL AVL20161118230511211/18/16 23:05:31  5-MIN KAVL 190405Z AUTO 00000KT 10SM FU CLR 10/03 A3014 1960 63 1900 000/00 RMK AO2 T01000033
03812KAVL AVL20161118231011211/18/16 23:10:31  5-MIN KAVL 190410Z AUTO 00000KT 10SM FU CLR 09/03 A3014 1960 63 1800 000/00 RMK AO2 T00940028
03812KAVL AVL20161118231511211/18/16 23:15:31  5-MIN KAVL 190415Z AUTO 00000KT 10SM FU CLR 10/03 A3015 1960 63 1900 000/00 RMK AO2 T01000033
03812KAVL AVL20161118232011211/18/16 23:20:31  5-MIN KAVL 190420Z AUTO 00000KT 10SM FU CLR 10/03 A3015 1960 63 1900 000/00 RMK AO2 T01000033
03812KAVL AVL20161118232511211/18/16 23:25:31  5-MIN KAVL 190425Z AUTO 00000KT 10SM FU CLR 09/03 A3015 1960 65 1800 000/00 RMK AO2 T00940033
03812KAVL AVL20161118233011211/18/16 23:30:31  5-MIN KAVL 190430Z AUTO 00000KT 10SM FU CLR 09/03 A3015 1950 65 1800 000/00 RMK AO2 T00940033
03812KAVL AVL20161118233511211/18/16 23:35:31  5-MIN KAVL 190435Z AUTO 00000KT 10SM FU CLR 09/03 A3015 1950 63 1800 000/00 RMK AO2 T00940028
03812KAVL AVL20161118234011211/18/16 23:40:31  5-MIN KAVL 190440Z AUTO 00000KT 10SM FU CLR 09/03 A3016 1950 65 1800 000/00 RMK AO2 T00940033
03812KAVL AVL20161118234511211/18/16 23:45:31  5-MIN KAVL 190445Z AUTO 00000KT 10SM FU CLR 09/03 A3016 1950 65 1800 000/00 RMK AO2 T00940033
03812KAVL AVL20161118235012911/18/16 23:50:31  5-MIN KAVL 190450Z AUTO 00000KT 10SM FU CLR 09/03 A3016 1950 68 1700 000/00 RMK AO2 SLP198 T00890033 402500006
03812KAVL AVL20161118235511211/18/16 23:55:31  5-MIN KAVL 190455Z AUTO 12003KT 10SM FU CLR 08/03 A3015 1950 68 1700 130/03 RMK AO2 T00830028
03812KAVL AVL20161119000011211/19/16 00:00:31  5-MIN KAVL 190500Z AUTO 00000KT 10SM FU CLR 08/03 A3015 1960 68 1700 000/00 RMK AO2 T00830028
03812KAVL AVL20161119000511211/19/16 00:05:31  5-MIN KAVL 190505Z AUTO 12003KT 10SM FU CLR 09/03 A3014 1960 65 1700 120/03 RMK AO2 T00890028
03812KAVL AVL20161119001011211/19/16 00:10:31  5-MIN KAVL 190510Z AUTO 00000KT 10SM FU CLR 09/03 A3014 1960 65 1700 000/00 RMK AO2 T00890028
03812KAVL AVL20161119001511211/19/16 00:15:31  5-MIN KAVL 190515Z AUTO 00000KT 10SM FU CLR 11/03 A3014 1960 61 1900 000/00 RMK AO2 T01060033
03812KAVL AVL20161119002011211/19/16 00:20:31  5-MIN KAVL 190520Z AUTO 00000KT 10SM FU CLR 08/03 A3014 1960 68 1700 000/00 RMK AO2 T00830028
03812KAVL AVL20161119002511111/19/16 00:25:31  5-MIN KAVL 190525Z AUTO 00000KT 9SM FU CLR 07/02 A3013 1970 70 1500 000/00 RMK AO2 T00720022
03812KAVL AVL20161119003011111/19/16 00:30:31  5-MIN KAVL 190530Z AUTO 00000KT 8SM FU CLR 06/02 A3013 1970 76 1400 000/00 RMK AO2 T00610022
03812KAVL AVL20161119003511111/19/16 00:35:31  5-MIN KAVL 190535Z AUTO 29003KT 8SM FU CLR 07/02 A3014 1970 73 1500 290/03 RMK AO2 T00670022
03812KAVL AVL20161119004011111/19/16 00:40:31  5-MIN KAVL 190540Z AUTO 33006KT 9SM FU CLR 07/02 A3014 1960 73 1500 340/06 RMK AO2 T00670022
03812KAVL AVL20161119004511111/19/16 00:45:31  5-MIN KAVL 190545Z AUTO 00000KT 9SM FU CLR 07/03 A3014 1970 73 1500 000/00 RMK AO2 T00720028
03812KAVL AVL20161119005013611/19/16 00:50:31  5-MIN KAVL 190550Z AUTO 00000KT 9SM FU CLR 07/02 A3013 1970 70 1500 000/00 RMK AO2 SLP189 T00720022 10161 20061 58002
03812KAVL AVL20161119005511111/19/16 00:55:31  5-MIN KAVL 190555Z AUTO 00000KT 9SM FU CLR 07/02 A3013 1970 70 1500 000/00 RMK AO2 T00720022
03812KAVL AVL20161119010011111/19/16 01:00:31  5-MIN KAVL 190600Z AUTO 00000KT 9SM FU CLR 07/02 A3013 1970 70 1600 000/00 RMK AO2 T00720022
03812KAVL AVL20161119010511111/19/16 01:05:31  5-MIN KAVL 190605Z AUTO 00000KT 9SM FU CLR 07/02 A3013 1980 70 1600 000/00 RMK AO2 T00720022
03812KAVL AVL20161119011011111/19/16 01:10:31  5-MIN KAVL 190610Z AUTO 00000KT 9SM FU CLR 07/02 A3012 1980 70 1600 000/00 RMK AO2 T00720022
03812KAVL AVL20161119011511211/19/16 01:15:31  5-MIN KAVL 190615Z AUTO 14003KT 10SM FU CLR 07/03 A3012 1980 73 1600 140/03 RMK AO2 T00720028
03812KAVL AVL20161119012011111/19/16 01:20:31  5-MIN KAVL 190620Z AUTO 23005KT 9SM FU CLR 06/02 A3012 1980 76 1400 240/05 RMK AO2 T00560017
03812KAVL AVL20161119012511111/19/16 01:25:31  5-MIN KAVL 190625Z AUTO 25003KT 9SM FU CLR 06/02 A3012 1980 79 1400 250/03 RMK AO2 T00560022
03812KAVL AVL20161119013011111/19/16 01:30:31  5-MIN KAVL 190630Z AUTO 00000KT 9SM FU CLR 06/02 A3012 1980 79 1400 000/00 RMK AO2 T00560022
03812KAVL AVL20161119013511111/19/16 01:35:31  5-MIN KAVL 190635Z AUTO 00000KT 9SM FU CLR 06/02 A3012 1980 79 1400 000/00 RMK AO2 T00560022
03812KAVL AVL20161119014011111/19/16 01:40:31  5-MIN KAVL 190640Z AUTO 00000KT 9SM FU CLR 06/02 A3011 1990 79 1400 000/00 RMK AO2 T00560022
03812KAVL AVL20161119014511111/19/16 01:45:31  5-MIN KAVL 190645Z AUTO 00000KT 9SM FU CLR 06/02 A3011 1990 79 1400 000/00 RMK AO2 T00560022
03812KAVL AVL20161119015011811/19/16 01:50:31  5-MIN KAVL 190650Z AUTO 00000KT 9SM FU CLR 06/02 A3011 1990 79 1400 000/00 RMK AO2 SLP183 T00560022
03812KAVL AVL20161119015511111/19/16 01:55:31  5-MIN KAVL 190655Z AUTO 00000KT 9SM FU CLR 06/02 A3011 1990 76 1400 000/00 RMK AO2 T00610022
03812KAVL AVL20161119020011111/19/16 02:00:31  5-MIN KAVL 190700Z AUTO 00000KT 8SM FU CLR 06/02 A3011 1990 76 1400 000/00 RMK AO2 T00560017
03812KAVL AVL20161119020511111/19/16 02:05:31  5-MIN KAVL 190705Z AUTO 00000KT 8SM FU CLR 05/02 A3011 1990 79 1300 000/00 RMK AO2 T00500017
03812KAVL AVL20161119021011111/19/16 02:10:31  5-MIN KAVL 190710Z AUTO 00000KT 8SM FU CLR 05/02 A3011 1990 79 1300 000/00 RMK AO2 T00500017
03812KAVL AVL20161119021511111/19/16 02:15:31  5-MIN KAVL 190715Z AUTO 30003KT 8SM FU CLR 06/02 A3011 1990 79 1400 310/03 RMK AO2 T00560022
03812KAVL AVL20161119022011111/19/16 02:20:31  5-MIN KAVL 190720Z AUTO 33004KT 8SM FU CLR 06/02 A3011 1990 79 1400 330/04 RMK AO2 T00560022
03812KAVL AVL20161119022511111/19/16 02:25:31  5-MIN KAVL 190725Z AUTO 34006KT 9SM FU CLR 05/02 A3011 1990 79 1300 350/06 RMK AO2 T00500017
03812KAVL AVL20161119023011211/19/16 02:30:31  5-MIN KAVL 190730Z AUTO 00000KT 10SM FU CLR 05/02 A3011 2000 79 1300 000/00 RMK AO2 T00500017
03812KAVL AVL20161119023511211/19/16 02:35:31  5-MIN KAVL 190735Z AUTO 34003KT 10SM FU CLR 05/02 A3010 2000 82 1300 340/03 RMK AO2 T00500022
03812KAVL AVL20161119024011211/19/16 02:40:31  5-MIN KAVL 190740Z AUTO 00000KT 10SM FU CLR 05/02 A3010 2000 82 1300 000/00 RMK AO2 T00500022
03812KAVL AVL20161119024511211/19/16 02:45:31  5-MIN KAVL 190745Z AUTO 00000KT 10SM FU CLR 04/02 A3010 2000 82 1200 000/00 RMK AO2 T00440017
03812KAVL AVL20161119025011911/19/16 02:50:31  5-MIN KAVL 190750Z AUTO 00000KT 10SM FU CLR 05/02 A3010 2010 82 1300 000/00 RMK AO2 SLP177 T00500022
03812KAVL AVL20161119025511211/19/16 02:55:31  5-MIN KAVL 190755Z AUTO 00000KT 10SM FU CLR 06/02 A3010 2010 79 1400 000/00 RMK AO2 T00560022
03812KAVL AVL20161119030011111/19/16 03:00:31  5-MIN KAVL 190800Z AUTO 00000KT 9SM FU CLR 05/02 A3009 2010 79 1300 000/00 RMK AO2 T00500017
03812KAVL AVL20161119030511111/19/16 03:05:31  5-MIN KAVL 190805Z AUTO 00000KT 9SM FU CLR 04/02 A3009 2010 82 1300 000/00 RMK AO2 T00440017
03812KAVL AVL20161119031011111/19/16 03:10:31  5-MIN KAVL 190810Z AUTO 00000KT 9SM FU CLR 04/02 A3009 2010 85 1200 000/00 RMK AO2 T00390017
03812KAVL AVL20161119031511111/19/16 03:15:31  5-MIN KAVL 190815Z AUTO 00000KT 9SM FU CLR 04/01 A3009 2010 82 1200 000/00 RMK AO2 T00390011
03812KAVL AVL20161119032011111/19/16 03:20:31  5-MIN KAVL 190820Z AUTO 00000KT 9SM FU CLR 04/01 A3009 2010 82 1200 000/00 RMK AO2 T00390011
03812KAVL AVL20161119032511111/19/16 03:25:31  5-MIN KAVL 190825Z AUTO 00000KT 9SM FU CLR 04/01 A3009 2010 82 1200 000/00 RMK AO2 T00390011
03812KAVL AVL20161119033011111/19/16 03:30:31  5-MIN KAVL 190830Z AUTO 00000KT 9SM FU CLR 04/01 A3009 2010 82 1200 000/00 RMK AO2 T00390011
03812KAVL AVL20161119033511111/19/16 03:35:31  5-MIN KAVL 190835Z AUTO 00000KT 9SM FU CLR 04/02 A3008 2020 85 1200 000/00 RMK AO2 T00390017
03812KAVL AVL20161119034011111/19/16 03:40:31  5-MIN KAVL 190840Z AUTO 00000KT 9SM FU CLR 04/02 A3008 2020 82 1300 000/00 RMK AO2 T00440017
03812KAVL AVL20161119034511111/19/16 03:45:31  5-MIN KAVL 190845Z AUTO 34003KT 9SM FU CLR 04/02 A3008 2020 82 1300 340/03 RMK AO2 T00440017
03812KAVL AVL20161119035012411/19/16 03:50:31  5-MIN KAVL 190850Z AUTO 33006KT 9SM FU CLR 04/01 A3008 2020 82 1200 340/06 RMK AO2 SLP173 T00390011 58005
03812KAVL AVL20161119035511211/19/16 03:55:31  5-MIN KAVL 190855Z AUTO 30004KT 10SM FU CLR 04/02 A3008 2020 85 1200 310/04 RMK AO2 T00390017
03812KAVL AVL20161119040011211/19/16 04:00:31  5-MIN KAVL 190900Z AUTO 33003KT 10SM FU CLR 04/02 A3008 2020 85 1200 330/03 RMK AO2 T00390017
03812KAVL AVL20161119040511211/19/16 04:05:31  5-MIN KAVL 190905Z AUTO 00000KT 10SM FU CLR 04/02 A3007 2030 85 1200 000/00 RMK AO2 T00390017
03812KAVL AVL20161119041011211/19/16 04:10:31  5-MIN KAVL 190910Z AUTO 00000KT 10SM FU CLR 04/02 A3008 2020 82 1300 000/00 RMK AO2 T00440017
03812KAVL AVL20161119041511211/19/16 04:15:31  5-MIN KAVL 190915Z AUTO 32005KT 10SM FU CLR 03/01 A3008 2020 85 1100 320/05 RMK AO2 T00330011
03812KAVL AVL20161119042011211/19/16 04:20:31  5-MIN KAVL 190920Z AUTO 34005KT 10SM FU CLR 04/02 A3008 2020 85 1200 350/05 RMK AO2 T00390017
03812KAVL AVL20161119042511211/19/16 04:25:31  5-MIN KAVL 190925Z AUTO 33004KT 10SM FU CLR 04/02 A3007 2030 85 1200 340/04 RMK AO2 T00390017
03812KAVL AVL20161119043011211/19/16 04:30:31  5-MIN KAVL 190930Z AUTO 00000KT 10SM FU CLR 04/02 A3007 2030 85 1200 000/00 RMK AO2 T00390017
03812KAVL AVL20161119043511211/19/16 04:35:31  5-MIN KAVL 190935Z AUTO 00000KT 10SM FU CLR 04/02 A3007 2030 85 1200 000/00 RMK AO2 T00390017
03812KAVL AVL20161119044011211/19/16 04:40:31  5-MIN KAVL 190940Z AUTO 00000KT 10SM FU CLR 04/02 A3006 2040 85 1200 000/00 RMK AO2 T00390017
03812KAVL AVL20161119044511211/19/16 04:45:31  5-MIN KAVL 190945Z AUTO 00000KT 10SM FU CLR 04/01 A3006 2040 82 1200 000/00 RMK AO2 T00390011
03812KAVL AVL20161119045011911/19/16 04:50:31  5-MIN KAVL 190950Z AUTO 31003KT 10SM FU CLR 04/01 A3007 2030 82 1200 310/03 RMK AO2 SLP170 T00390011
03812KAVL AVL20161119045511211/19/16 04:55:31  5-MIN KAVL 190955Z AUTO 33003KT 10SM FU CLR 03/01 A3007 2030 85 1100 340/03 RMK AO2 T00330011
03812KAVL AVL20161119050011211/19/16 05:00:31  5-MIN KAVL 191000Z AUTO 00000KT 10SM FU CLR 04/02 A3006 2030 85 1200 000/00 RMK AO2 T00390017
03812KAVL AVL20161119050511211/19/16 05:05:31  5-MIN KAVL 191005Z AUTO 00000KT 10SM FU CLR 04/02 A3006 2040 85 1200 000/00 RMK AO2 T00390017
03812KAVL AVL20161119051011211/19/16 05:10:31  5-MIN KAVL 191010Z AUTO 00000KT 10SM FU CLR 04/02 A3006 2040 85 1200 000/00 RMK AO2 T00390017
03812KAVL AVL20161119051511211/19/16 05:15:31  5-MIN KAVL 191015Z AUTO 00000KT 10SM FU CLR 04/01 A3006 2040 82 1200 000/00 RMK AO2 T00390011
03812KAVL AVL20161119052011211/19/16 05:20:31  5-MIN KAVL 191020Z AUTO 00000KT 10SM FU CLR 03/01 A3006 2040 85 1200 000/00 RMK AO2 T00330011
03812KAVL AVL20161119052511211/19/16 05:25:31  5-MIN KAVL 191025Z AUTO 00000KT 10SM FU CLR 03/01 A3005 2040 85 1200 000/00 RMK AO2 T00330011
03812KAVL AVL20161119053011211/19/16 05:30:31  5-MIN KAVL 191030Z AUTO 00000KT 10SM FU CLR 03/01 A3005 2050 85 1200 000/00 RMK AO2 T00330011
03812KAVL AVL20161119053511211/19/16 05:35:31  5-MIN KAVL 191035Z AUTO 00000KT 10SM FU CLR 03/01 A3005 2050 82 1200 000/00 RMK AO2 T00330006
03812KAVL AVL20161119054011211/19/16 05:40:31  5-MIN KAVL 191040Z AUTO 00000KT 10SM FU CLR 03/01 A3005 2050 82 1200 000/00 RMK AO2 T00330006
03812KAVL AVL20161119054511211/19/16 05:45:31  5-MIN KAVL 191045Z AUTO 20004KT 10SM FU CLR 03/01 A3005 2050 85 1100 200/04 RMK AO2 T00280006
03812KAVL AVL20161119055011911/19/16 05:50:31  5-MIN KAVL 191050Z AUTO 17003KT 10SM FU CLR 02/00 A3005 2050 85 1000 180/03 RMK AO2 SLP169 T00220000
03812KAVL AVL20161119055511111/19/16 05:55:31  5-MIN KAVL 191055Z AUTO 00000KT 9SM FU CLR 02/01 A3005 2050 89 1000 000/00 RMK AO2 T00220006
03812KAVL AVL20161119060011111/19/16 06:00:31  5-MIN KAVL 191100Z AUTO 00000KT 9SM FU CLR 02/01 A3004 2060 89 1000 000/00 RMK AO2 T00220006
03812KAVL AVL20161119060511111/19/16 06:05:31  5-MIN KAVL 191105Z AUTO 00000KT 9SM FU CLR 02/01 A3004 2050 89 1000 000/00 RMK AO2 T00220006
03812KAVL AVL20161119061011111/19/16 06:10:31  5-MIN KAVL 191110Z AUTO 00000KT 9SM FU CLR 03/01 A3005 2050 85 1100 000/00 RMK AO2 T00280006
03812KAVL AVL20161119061511111/19/16 06:15:31  5-MIN KAVL 191115Z AUTO 19003KT 9SM FU CLR 03/01 A3005 2050 85 1100 200/03 RMK AO2 T00280006
03812KAVL AVL20161119062010611/19/16 06:20:31  5-MIN KAVL 191120Z 00000KT 8SM FU CLR 02/01 A3005 2050 89 1000 000/00 RMK AO2 T00220006
03812KAVL AVL20161119062510611/19/16 06:25:31  5-MIN KAVL 191125Z 00000KT 8SM FU CLR 03/01 A3004 2060 85 1100 000/00 RMK AO2 T00280006
03812KAVL AVL20161119063010611/19/16 06:30:31  5-MIN KAVL 191130Z 00000KT 9SM FU CLR 03/01 A3004 2060 85 1100 000/00 RMK AO2 T00280006
03812KAVL AVL20161119063510611/19/16 06:35:31  5-MIN KAVL 191135Z 00000KT 9SM FU CLR 03/01 A3003 2060 85 1100 000/00 RMK AO2 T00280006
03812KAVL AVL20161119064011311/19/16 06:40:31  5-MIN KAVL 191140Z 00000KT 9SM FU CLR 03/01 A3002 2070 85 1100 000/00 RMK AO2 PRESFR T00280006
03812KAVL AVL20161119064511311/19/16 06:45:31  5-MIN KAVL 191145Z 00000KT 9SM FU CLR 03/01 A3002 2080 82 1200 000/00 RMK AO2 PRESFR T00330006
03812KAVL AVL20161119065013111/19/16 06:50:31  5-MIN KAVL 191150Z 00000KT 9SM FU CLR 03/01 A3002 2080 85 1200 000/00 RMK AO2 SLP158 T00330011 10072 20022 56016
03812KAVL AVL20161119065510611/19/16 06:55:31  5-MIN KAVL 191155Z 25004KT 8SM FU CLR 02/01 A3002 2070 89 1100 250/04 RMK AO2 T00220006
03812KAVL AVL20161119070010611/19/16 07:00:31  5-MIN KAVL 191200Z 26004KT 8SM FU CLR 02/00 A3003 2070 85 1100 270/04 RMK AO2 T00220000
03812KAVL AVL20161119070510611/19/16 07:05:31  5-MIN KAVL 191205Z 00000KT 8SM FU CLR 02/00 A3004 2060 85 1000 000/00 RMK AO2 T00220000
03812KAVL AVL20161119071010611/19/16 07:10:31  5-MIN KAVL 191210Z 00000KT 8SM FU CLR 03/01 A3004 2060 85 1100 000/00 RMK AO2 T00280006
03812KAVL AVL20161119071510611/19/16 07:15:31  5-MIN KAVL 191215Z 00000KT 8SM FU CLR 03/01 A3003 2070 85 1100 000/00 RMK AO2 T00280006
03812KAVL AVL20161119072010611/19/16 07:20:31  5-MIN KAVL 191220Z 00000KT 8SM FU CLR 03/01 A3002 2070 85 1200 000/00 RMK AO2 T00330011
03812KAVL AVL20161119072510611/19/16 07:25:31  5-MIN KAVL 191225Z 00000KT 7SM FU CLR 03/01 A3003 2070 85 1200 000/00 RMK AO2 T00330011
03812KAVL AVL20161119073010611/19/16 07:30:31  5-MIN KAVL 191230Z 00000KT 7SM FU CLR 04/01 A3002 2070 82 1300 000/00 RMK AO2 T00390011
03812KAVL AVL20161119073510611/19/16 07:35:31  5-MIN KAVL 191235Z 00000KT 8SM FU CLR 04/02 A3001 2080 85 1300 000/00 RMK AO2 T00390017
03812KAVL AVL20161119074010611/19/16 07:40:31  5-MIN KAVL 191240Z 21003KT 7SM FU CLR 03/01 A3002 2080 85 1200 220/03 RMK AO2 T00330011
03812KAVL AVL20161119074510611/19/16 07:45:31  5-MIN KAVL 191245Z 19003KT 7SM FU CLR 03/01 A3002 2070 85 1100 190/03 RMK AO2 T00280006
03812KAVL AVL20161119075011911/19/16 07:50:31  5-MIN KAVL 191250Z 00000KT 6SM BR FU FEW055 03/01 A3002 2070 85 1100 000/00 RMK AO2 SLP160 T00280006
03812KAVL AVL20161119075511211/19/16 07:55:31  5-MIN KAVL 191255Z 00000KT 6SM BR FU SCT050 03/01 A3002 2070 89 1100 000/00 RMK AO2 T00280011
03812KAVL AVL20161119080011211/19/16 08:00:31  5-MIN KAVL 191300Z 00000KT 6SM BR FU SCT050 03/01 A3002 2070 85 1200 000/00 RMK AO2 T00330011
03812KAVL AVL20161119080511611/19/16 08:05:31  5-MIN KAVL 191305Z 00000KT 7SM FU BKN048 BKN055 04/02 A3002 2070 85 1300 000/00 RMK AO2 T00390017
03812KAVL AVL20161119081011611/19/16 08:10:31  5-MIN KAVL 191310Z 00000KT 7SM FU BKN048 BKN055 04/02 A3002 2080 85 1300 000/00 RMK AO2 T00440022
03812KAVL AVL20161119081511611/19/16 08:15:31  5-MIN KAVL 191315Z 00000KT 7SM FU BKN048 BKN055 04/02 A3002 2080 85 1300 000/00 RMK AO2 T00440022
03812KAVL AVL20161119082011611/19/16 08:20:31  5-MIN KAVL 191320Z 00000KT 7SM FU BKN048 BKN060 05/02 A3001 2080 82 1400 000/00 RMK AO2 T00500022
03812KAVL AVL20161119082511611/19/16 08:25:31  5-MIN KAVL 191325Z VRB03KT 7SM FU SCT048 BKN060 06/03 A3001 2080 79 1600 VRB/03 RMK AO2 T00610028
03812KAVL AVL20161119083011611/19/16 08:30:31  5-MIN KAVL 191330Z 34007KT 8SM FU SCT049 BKN060 06/03 A3002 2080 79 1500 340/07 RMK AO2 T00610028
03812KAVL AVL20161119083511611/19/16 08:35:31  5-MIN KAVL 191335Z 33006KT 9SM FU FEW047 BKN060 07/03 A3002 2080 76 1600 340/06 RMK AO2 T00670028
03812KAVL AVL20161119084010911/19/16 08:40:31  5-MIN KAVL 191340Z 33006KT 9SM FU BKN055 07/03 A3003 2070 73 1700 340/06 RMK AO2 T00720028
03812KAVL AVL20161119084511711/19/16 08:45:31  5-MIN KAVL 191345Z 35010KT 10SM FU BKN055 BKN075 07/03 A3003 2070 73 1700 350/10 RMK AO2 T00720028
03812KAVL AVL20161119085012411/19/16 08:50:31  5-MIN KAVL 191350Z 36010KT 10SM FU SCT050 BKN060 08/03 A3003 2070 73 1700 360/10 RMK AO2 SLP160 T00780033
03812KAVL AVL20161119085511711/19/16 08:55:31  5-MIN KAVL 191355Z 35008KT 10SM FU BKN055 BKN070 08/03 A3003 2070 70 1800 360/08 RMK AO2 T00830033
03812KAVL AVL20161119090012411/19/16 09:00:31  5-MIN KAVL 191400Z 34013KT 10SM FU FEW049 BKN055 BKN070 09/03 A3001 2080 65 1900 350/13 RMK AO2 T00940033
03812KAVL AVL20161119090511611/19/16 09:05:31  5-MIN KAVL 191405Z 34012KT 9SM FU BKN055 BKN070 10/03 A3002 2070 63 2000 350/12 RMK AO2 T01000033
03812KAVL AVL20161119091010911/19/16 09:10:31  5-MIN KAVL 191410Z 35011KT 9SM FU BKN060 11/04 A3002 2070 66 2100 350/11 RMK AO2 T01060044
03812KAVL AVL20161119091511711/19/16 09:15:31  5-MIN KAVL 191415Z 35012KT 10SM FU FEW050 BKN060 11/04 A3002 2070 66 2100 360/12 RMK AO2 T01060044
03812KAVL AVL20161119092011611/19/16 09:20:31  5-MIN KAVL 191420Z 35018G24KT 10SM FU BKN060 12/06 A3002 2080 66 2200 360/18G24 RMK AO2 T01170056
03812KAVL AVL20161119092513411/19/16 09:25:31  5-MIN KAVL 191425Z 34019G28KT 10SM FU SCT060 12/07 A3002 2080 71 2200 350/19G28 RMK AO2 PK WND 35028/1421 T01170067
03812KAVL AVL20161119093013411/19/16 09:30:31  5-MIN KAVL 191430Z 35021G28KT 10SM FU FEW060 12/07 A3002 2080 68 2300 360/21G28 RMK AO2 PK WND 35028/1430 T01220067
03812KAVL AVL20161119093513411/19/16 09:35:31  5-MIN KAVL 191435Z 35023G33KT 10SM FU FEW060 12/06 A3002 2080 66 2300 360/23G33 RMK AO2 PK WND 34033/1435 T01220061
03812KAVL AVL20161119094013411/19/16 09:40:31  5-MIN KAVL 191440Z 35023G33KT 10SM FU FEW060 12/06 A3002 2080 68 2200 350/23G33 RMK AO2 PK WND 34033/1435 T01170061
03812KAVL AVL20161119094513411/19/16 09:45:31  5-MIN KAVL 191445Z 35022G33KT 10SM FU FEW060 12/06 A3001 2080 66 2200 350/22G33 RMK AO2 PK WND 36033/1441 T01170056
03812KAVL AVL20161119095014411/19/16 09:50:31  5-MIN KAVL 191450Z 35022G33KT 10SM FU CLR 12/06 A3001 2080 66 2200 350/22G33 RMK AO2 PK WND 36033/1441 SLP152 T01170056 58020
03812KAVL AVL20161119095513111/19/16 09:55:31  5-MIN KAVL 191455Z 34026G35KT 10SM FU CLR 12/06 A3001 2080 63 2300 350/26G35 RMK AO2 PK WND 34031/1455 T01220056
03812KAVL AVL20161119100013111/19/16 10:00:31  5-MIN KAVL 191500Z 35024G35KT 10SM FU CLR 12/05 A3001 2090 61 2300 350/24G35 RMK AO2 PK WND 34035/1457 T01220050
03812KAVL AVL20161119100513111/19/16 10:05:31  5-MIN KAVL 191505Z 35025G35KT 10SM FU CLR 12/04 A3001 2080 59 2300 350/25G35 RMK AO2 PK WND 34035/1457 T01220044
03812KAVL AVL20161119101013111/19/16 10:10:31  5-MIN KAVL 191510Z 34026G35KT 10SM FU CLR 12/05 A3002 2080 61 2300 350/26G35 RMK AO2 PK WND 34035/1457 T01220050
03812KAVL AVL20161119101513111/19/16 10:15:31  5-MIN KAVL 191515Z 35023G35KT 10SM FU CLR 12/04 A3002 2070 61 2200 360/23G35 RMK AO2 PK WND 34035/1457 T01170044
03812KAVL AVL20161119102013111/19/16 10:20:31  5-MIN KAVL 191520Z 35025G34KT 10SM FU CLR 12/04 A3003 2070 61 2200 350/25G34 RMK AO2 PK WND 34035/1457 T01170044
03812KAVL AVL20161119102513111/19/16 10:25:31  5-MIN KAVL 191525Z 35028G36KT 10SM FU CLR 11/04 A3003 2070 61 2100 350/28G36 RMK AO2 PK WND 34036/1525 T01110039
03812KAVL AVL20161119103013111/19/16 10:30:31  5-MIN KAVL 191530Z 35023G36KT 10SM FU CLR 11/04 A3004 2060 61 2100 350/23G36 RMK AO2 PK WND 34036/1525 T01110039
03812KAVL AVL20161119103513811/19/16 10:35:31  5-MIN KAVL 191535Z 35025G35KT 10SM FU CLR 11/03 A3005 2050 58 2100 350/25G35 RMK AO2 PK WND 34036/1525 PRESRR T01110033
03812KAVL AVL20161119104013811/19/16 10:40:31  5-MIN KAVL 191540Z 35025G34KT 10SM FU CLR 11/03 A3005 2050 56 2100 350/25G34 RMK AO2 PK WND 34036/1525 PRESRR T01110028
03812KAVL AVL20161119104513111/19/16 10:45:31  5-MIN KAVL 191545Z 35018G34KT 10SM FU CLR 11/03 A3005 2040 58 2100 360/18G34 RMK AO2 PK WND 34036/1525 T01110033
03812KAVL AVL20161119105013811/19/16 10:50:31  5-MIN KAVL 191550Z 35020G32KT 10SM FU CLR 11/02 A3006 2040 54 2100 360/20G32 RMK AO2 PK WND 34036/1525 SLP171 T01110022
03812KAVL AVL20161119105511311/19/16 10:55:31  5-MIN KAVL 191555Z 35018G32KT 10SM FU CLR 11/02 A3006 2040 52 2100 360/18G32 RMK AO2 T01110017
03812KAVL AVL20161119110013111/19/16 11:00:31  5-MIN KAVL 191600Z 34023G34KT 10SM FU CLR 11/01 A3006 2040 50 2100 350/23G34 RMK AO2 PK WND 33034/1557 T01110011
03812KAVL AVL20161119110513111/19/16 11:05:31  5-MIN KAVL 191605Z 35017G34KT 10SM FU CLR 11/01 A3006 2040 48 2100 360/17G34 RMK AO2 PK WND 33034/1557 T01110006
03812KAVL AVL20161119111013111/19/16 11:10:31  5-MIN KAVL 191610Z 34021G29KT 10SM FU CLR 11/00 A3005 2040 46 2100 350/21G29 RMK AO2 PK WND 33034/1557 T01110000
03812KAVL AVL20161119111513111/19/16 11:15:31  5-MIN KAVL 191615Z 35020G34KT 10SM FU CLR 11/00 A3006 2040 48 2000 360/20G34 RMK AO2 PK WND 34034/1613 T01060000
03812KAVL AVL20161119112013111/19/16 11:20:31  5-MIN KAVL 191620Z 35025G34KT 10SM FU CLR 11/00 A3006 2040 48 2000 350/25G34 RMK AO2 PK WND 34034/1613 T01060000
03812KAVL AVL20161119112513111/19/16 11:25:31  5-MIN KAVL 191625Z 35016G37KT 10SM FU CLR 11/00 A3007 2030 48 2000 360/16G37 RMK AO2 PK WND 34037/1621 T01060000
03812KAVL AVL20161119113013111/19/16 11:30:31  5-MIN KAVL 191630Z 35018G37KT 10SM FU CLR 10/00 A3007 2030 49 1900 350/18G37 RMK AO2 PK WND 34037/1621 T01000000
03812KAVL AVL20161119113513111/19/16 11:35:31  5-MIN KAVL 191635Z 35019G30KT 10SM FU CLR 10/01 A3008 2020 52 1900 360/19G30 RMK AO2 PK WND 34037/1621 T01000006
03812KAVL AVL20161119114013111/19/16 11:40:31  5-MIN KAVL 191640Z 35016G30KT 10SM FU CLR 09/01 A3007 2030 53 1900 360/16G30 RMK AO2 PK WND 34037/1621 T00940006
03812KAVL AVL20161119114513111/19/16 11:45:31  5-MIN KAVL 191645Z 35021G30KT 10SM FU CLR 09/00 A3007 2030 51 1900 360/21G30 RMK AO2 PK WND 34037/1621 T00940000
03812KAVL AVL20161119115013811/19/16 11:50:31  5-MIN KAVL 191650Z 34029G37KT 9SM FU CLR 09/M01 A3007 2030 49 1900 340/29G37 RMK AO2 PK WND 33037/1648 SLP176 T00941006
03812KAVL AVL20161119115513111/19/16 11:55:31  5-MIN KAVL 191655Z 34025G37KT 8SM FU CLR 09/M01 A3007 2030 47 1900 350/25G37 RMK AO2 PK WND 34032/1655 T00941011
03812KAVL AVL20161119120013111/19/16 12:00:31  5-MIN KAVL 191700Z 35027G37KT 9SM FU CLR 09/M01 A3007 2030 49 1800 350/27G37 RMK AO2 PK WND 34035/1658 T00891011
03812KAVL AVL20161119120513211/19/16 12:05:31  5-MIN KAVL 191705Z 35025G40KT 10SM FU CLR 08/M01 A3007 2030 51 1800 350/25G40 RMK AO2 PK WND 35040/1701 T00831011
03812KAVL AVL20161119121013211/19/16 12:10:31  5-MIN KAVL 191710Z 35018G40KT 10SM FU CLR 08/M01 A3007 2030 53 1800 360/18G40 RMK AO2 PK WND 35040/1701 T00831006
03812KAVL AVL20161119121513211/19/16 12:15:31  5-MIN KAVL 191715Z 34023G33KT 10SM FU CLR 09/M01 A3007 2030 49 1800 350/23G33 RMK AO2 PK WND 35040/1701 T00891011
03812KAVL AVL20161119122013211/19/16 12:20:31  5-MIN KAVL 191720Z 36017G34KT 10SM FU CLR 08/M01 A3007 2030 53 1700 010/17G34 RMK AO2 PK WND 35040/1701 T00781011
03812KAVL AVL20161119122513211/19/16 12:25:31  5-MIN KAVL 191725Z 36018G34KT 10SM FU CLR 08/M01 A3007 2030 55 1700 360/18G34 RMK AO2 PK WND 35040/1701 T00781006
03812KAVL AVL20161119123013211/19/16 12:30:31  5-MIN KAVL 191730Z 36021G29KT 10SM FU CLR 08/M01 A3007 2030 53 1700 010/21G29 RMK AO2 PK WND 35040/1701 T00781011
03812KAVL AVL20161119123513211/19/16 12:35:31  5-MIN KAVL 191735Z 36022G32KT 10SM FU CLR 07/M01 A3007 2030 57 1600 360/22G32 RMK AO2 PK WND 35040/1701 T00721006
03812KAVL AVL20161119124013211/19/16 12:40:31  5-MIN KAVL 191740Z 36024G32KT 10SM FU CLR 07/M01 A3007 2030 60 1500 360/24G32 RMK AO2 PK WND 35040/1701 T00671006
03812KAVL AVL20161119124513211/19/16 12:45:31  5-MIN KAVL 191745Z 36020G31KT 10SM FU CLR 07/M01 A3007 2030 60 1500 010/20G31 RMK AO2 PK WND 35040/1701 T00671006
03812KAVL AVL20161119125015711/19/16 12:50:31  5-MIN KAVL 191750Z 36021G32KT 10SM FU CLR 07/M01 A3008 2020 60 1500 360/21G32 RMK AO2 PK WND 35040/1701 SLP183 T00671006 10122 20017 58002
03812KAVL AVL20161119125511411/19/16 12:55:31  5-MIN KAVL 191755Z 36018G32KT 10SM FU CLR 07/M01 A3008 2020 60 1500 010/18G32 RMK AO2 T00671006
03812KAVL AVL20161119130013211/19/16 13:00:31  5-MIN KAVL 191800Z 36017G26KT 10SM FU CLR 07/M01 A3008 2020 60 1500 360/17G26 RMK AO2 PK WND 01026/1759 T00671006
03812KAVL AVL20161119130513211/19/16 13:05:31  5-MIN KAVL 191805Z 36018G32KT 10SM FU CLR 07/M02 A3008 2020 53 1600 010/18G32 RMK AO2 PK WND 34032/1802 T00721017
03812KAVL AVL20161119131013211/19/16 13:10:31  5-MIN KAVL 191810Z 36015G32KT 10SM FU CLR 07/M01 A3008 2020 55 1600 010/15G32 RMK AO2 PK WND 34032/1802 T00721011
03812KAVL AVL20161119131513211/19/16 13:15:31  5-MIN KAVL 191815Z 01012G23KT 10SM FU CLR 07/M01 A3008 2020 55 1600 020/12G23 RMK AO2 PK WND 34032/1802 T00721011
03812KAVL AVL20161119132013211/19/16 13:20:31  5-MIN KAVL 191820Z 36014G22KT 10SM FU CLR 08/M01 A3008 2020 53 1700 010/14G22 RMK AO2 PK WND 34032/1802 T00781011
03812KAVL AVL20161119132513211/19/16 13:25:31  5-MIN KAVL 191825Z 35019G28KT 10SM FU CLR 08/M02 A3008 2020 51 1700 350/19G28 RMK AO2 PK WND 34032/1802 T00781017
03812KAVL AVL20161119133013211/19/16 13:30:31  5-MIN KAVL 191830Z 36018G28KT 10SM FU CLR 08/M03 A3008 2020 47 1700 010/18G28 RMK AO2 PK WND 34032/1802 T00781028
03812KAVL AVL20161119133513211/19/16 13:35:31  5-MIN KAVL 191835Z 35014G26KT 10SM FU CLR 08/M03 A3008 2020 47 1700 360/14G26 RMK AO2 PK WND 34032/1802 T00781028
03812KAVL AVL20161119134013211/19/16 13:40:31  5-MIN KAVL 191840Z 36014G25KT 10SM FU CLR 08/M02 A3008 2020 49 1700 010/14G25 RMK AO2 PK WND 34032/1802 T00781022
03812KAVL AVL20161119134513211/19/16 13:45:31  5-MIN KAVL 191845Z 35015G30KT 10SM FU CLR 08/M03 A3008 2020 47 1700 360/15G30 RMK AO2 PK WND 34032/1802 T00781028
03812KAVL AVL20161119135013911/19/16 13:50:31  5-MIN KAVL 191850Z 35019G30KT 10SM FU CLR 08/M03 A3007 2030 45 1700 360/19G30 RMK AO2 PK WND 34032/1802 SLP183 T00781033
03812KAVL AVL20161119135511411/19/16 13:55:31  5-MIN KAVL 191855Z 35019G30KT 10SM FU CLR 08/M03 A3008 2020 45 1700 360/19G30 RMK AO2 T00781033
03812KAVL AVL20161119140013211/19/16 14:00:31  5-MIN KAVL 191900Z 33018G30KT 10SM FU CLR 08/M04 A3008 2020 42 1700 340/18G30 RMK AO2 PK WND 35030/1857 T00831039
03812KAVL AVL20161119140513211/19/16 14:05:31  5-MIN KAVL 191905Z 35019G30KT 10SM FU CLR 09/M04 A3008 2020 40 1800 360/19G30 RMK AO2 PK WND 35030/1857 T00891039
03812KAVL AVL20161119141013211/19/16 14:10:31  5-MIN KAVL 191910Z 35018G31KT 10SM FU CLR 08/M04 A3008 2020 40 1700 350/18G31 RMK AO2 PK WND 35031/1906 T00831044
03812KAVL AVL20161119141513211/19/16 14:15:31  5-MIN KAVL 191915Z 35018G31KT 10SM FU CLR 08/M04 A3008 2020 42 1700 360/18G31 RMK AO2 PK WND 35031/1906 T00831039
03812KAVL AVL20161119142013211/19/16 14:20:31  5-MIN KAVL 191920Z 35015G26KT 10SM FU CLR 08/M04 A3008 2020 40 1700 360/15G26 RMK AO2 PK WND 35031/1906 T00831044
03812KAVL AVL20161119142513211/19/16 14:25:31  5-MIN KAVL 191925Z 35019G27KT 10SM FU CLR 08/M04 A3008 2020 40 1700 360/19G27 RMK AO2 PK WND 35031/1906 T00831044
03812KAVL AVL20161119143013211/19/16 14:30:31  5-MIN KAVL 191930Z 34016G28KT 10SM FU CLR 08/M04 A3007 2030 40 1700 350/16G28 RMK AO2 PK WND 35031/1906 T00831044
03812KAVL AVL20161119143513211/19/16 14:35:31  5-MIN KAVL 191935Z 34020G28KT 10SM FU CLR 08/M04 A3008 2020 40 1700 350/20G28 RMK AO2 PK WND 35031/1906 T00831044
03812KAVL AVL20161119144013211/19/16 14:40:31  5-MIN KAVL 191940Z 34020G29KT 10SM FU CLR 08/M04 A3008 2020 40 1700 340/20G29 RMK AO2 PK WND 35031/1906 T00831044
03812KAVL AVL20161119144513211/19/16 14:45:31  5-MIN KAVL 191945Z 34018G29KT 10SM FU CLR 08/M04 A3007 2030 40 1700 350/18G29 RMK AO2 PK WND 35031/1906 T00831044
03812KAVL AVL20161119145013911/19/16 14:50:31  5-MIN KAVL 191950Z 34019G31KT 10SM FU CLR 08/M05 A3008 2020 38 1700 350/19G31 RMK AO2 PK WND 34031/1947 SLP184 T00831050
03812KAVL AVL20161119145513211/19/16 14:55:31  5-MIN KAVL 191955Z 35019G31KT 10SM FU CLR 08/M05 A3008 2020 38 1700 350/19G31 RMK AO2 PK WND 33029/1955 T00831050
03812KAVL AVL20161119150013211/19/16 15:00:31  5-MIN KAVL 192000Z 35018G29KT 10SM FU CLR 08/M05 A3008 2020 38 1700 360/18G29 RMK AO2 PK WND 33029/1956 T00831050
03812KAVL AVL20161119150513211/19/16 15:05:31  5-MIN KAVL 192005Z 35016G29KT 10SM FU CLR 08/M05 A3008 2020 40 1700 360/16G29 RMK AO2 PK WND 33029/1956 T00781050
03812KAVL AVL20161119151013211/19/16 15:10:31  5-MIN KAVL 192010Z 35017G25KT 10SM FU CLR 08/M05 A3008 2020 40 1700 360/17G25 RMK AO2 PK WND 33029/1956 T00781050
03812KAVL AVL20161119151513211/19/16 15:15:31  5-MIN KAVL 192015Z 35018G29KT 10SM FU CLR 08/M05 A3008 2020 40 1700 350/18G29 RMK AO2 PK WND 35029/2013 T00781050
03812KAVL AVL20161119152013711/19/16 15:20:31  5-MIN KAVL 192020Z AUTO 34016G29KT 10SM FU CLR 08/M06 A3008 2020 38 1700 350/16G29 RMK AO2 PK WND 35029/2013 T00781056
03812KAVL AVL20161119152513711/19/16 15:25:31  5-MIN KAVL 192025Z AUTO 33019G26KT 10SM FU CLR 08/M06 A3008 2020 37 1700 340/19G26 RMK AO2 PK WND 35029/2013 T00831056
03812KAVL AVL20161119153013711/19/16 15:30:31  5-MIN KAVL 192030Z AUTO 35017G26KT 10SM FU CLR 08/M06 A3008 2020 38 1700 350/17G26 RMK AO2 PK WND 35029/2013 T00781056
03812KAVL AVL20161119153513711/19/16 15:35:31  5-MIN KAVL 192035Z AUTO 34022G29KT 10SM FU CLR 08/M06 A3008 2020 36 1700 350/22G29 RMK AO2 PK WND 35029/2013 T00781061
03812KAVL AVL20161119154013711/19/16 15:40:31  5-MIN KAVL 192040Z AUTO 34019G29KT 10SM FU CLR 08/M06 A3008 2020 36 1700 350/19G29 RMK AO2 PK WND 35029/2013 T00781061
03812KAVL AVL20161119154513711/19/16 15:45:31  5-MIN KAVL 192045Z AUTO 35020G27KT 10SM FU CLR 08/M06 A3009 2020 36 1700 350/20G27 RMK AO2 PK WND 35029/2013 T00781061
03812KAVL AVL20161119155014511/19/16 15:50:31  5-MIN KAVL 192050Z 34020G30KT 10SM FU CLR 08/M06 A3009 2010 36 1700 350/20G30 RMK AO2 PK WND 32030/2047 SLP189 T00781061 51021
03812KAVL AVL20161119155511411/19/16 15:55:31  5-MIN KAVL 192055Z 34020G30KT 10SM FU CLR 08/M07 A3009 2010 35 1700 340/20G30 RMK AO2 T00781067
03812KAVL AVL20161119160013211/19/16 16:00:31  5-MIN KAVL 192100Z 35020G30KT 10SM FU CLR 07/M07 A3009 2010 36 1600 350/20G30 RMK AO2 PK WND 33030/2056 T00721067
03812KAVL AVL20161119160513211/19/16 16:05:31  5-MIN KAVL 192105Z 34017G30KT 10SM FU CLR 07/M07 A3009 2010 36 1600 350/17G30 RMK AO2 PK WND 33030/2056 T00721067
03812KAVL AVL20161119161013211/19/16 16:10:31  5-MIN KAVL 192110Z 34016G27KT 10SM FU CLR 07/M07 A3009 2010 35 1600 350/16G27 RMK AO2 PK WND 33030/2056 T00721072
03812KAVL AVL20161119161513211/19/16 16:15:31  5-MIN KAVL 192115Z 34019G27KT 10SM FU CLR 07/M07 A3009 2010 35 1600 350/19G27 RMK AO2 PK WND 33030/2056 T00721072
03812KAVL AVL20161119162013211/19/16 16:20:31  5-MIN KAVL 192120Z 33019G26KT 10SM FU CLR 07/M07 A3009 2010 35 1600 340/19G26 RMK AO2 PK WND 33030/2056 T00721072
03812KAVL AVL20161119162513211/19/16 16:25:31  5-MIN KAVL 192125Z 34016G28KT 10SM FU CLR 07/M07 A3009 2010 35 1600 340/16G28 RMK AO2 PK WND 33030/2056 T00721072
03812KAVL AVL20161119163013211/19/16 16:30:31  5-MIN KAVL 192130Z 33018G28KT 10SM FU CLR 07/M07 A3009 2010 35 1600 340/18G28 RMK AO2 PK WND 33030/2056 T00721072
03812KAVL AVL20161119163513211/19/16 16:35:31  5-MIN KAVL 192135Z 33014G24KT 10SM FU CLR 07/M07 A3009 2010 35 1600 340/14G24 RMK AO2 PK WND 33030/2056 T00721072
03812KAVL AVL20161119164014811/19/16 16:40:31  5-MIN KAVL 192140Z 33017G26KT 280V360 10SM FU CLR 07/M07 A3009 2010 36 1500 330/17G26 290V010 RMK AO2 PK WND 33030/2056 T00671072
03812KAVL AVL20161119164513211/19/16 16:45:31  5-MIN KAVL 192145Z 33014G26KT 10SM FU CLR 07/M08 A3009 2010 35 1500 340/14G26 RMK AO2 PK WND 33030/2056 T00671078
03812KAVL AVL20161119165013911/19/16 16:50:31  5-MIN KAVL 192150Z 34016G26KT 10SM FU CLR 07/M07 A3009 2010 36 1500 340/16G26 RMK AO2 PK WND 33030/2056 SLP192 T00671072
03812KAVL AVL20161119165511411/19/16 16:55:31  5-MIN KAVL 192155Z 33020G30KT 10SM FU CLR 07/M08 A3009 2010 35 1500 330/20G30 RMK AO2 T00671078
03812KAVL AVL20161119170013211/19/16 17:00:31  5-MIN KAVL 192200Z 33017G30KT 10SM FU CLR 06/M08 A3009 2010 36 1500 340/17G30 RMK AO2 PK WND 33028/2200 T00611078
03812KAVL AVL20161119170513211/19/16 17:05:31  5-MIN KAVL 192205Z 33020G28KT 10SM FU CLR 06/M08 A3009 2010 36 1500 340/20G28 RMK AO2 PK WND 33028/2200 T00611078
03812KAVL AVL20161119171013211/19/16 17:10:31  5-MIN KAVL 192210Z 33019G28KT 10SM FU CLR 06/M08 A3009 2010 36 1500 340/19G28 RMK AO2 PK WND 33028/2200 T00611078
03812KAVL AVL20161119171513211/19/16 17:15:31  5-MIN KAVL 192215Z 33018G28KT 10SM FU CLR 06/M08 A3009 2010 36 1500 340/18G28 RMK AO2 PK WND 33028/2200 T00611078
03812KAVL AVL20161119172012911/19/16 17:20:31  5-MIN KAVL 192220Z 33019G29KT 10SM CLR 06/M08 A3009 2010 37 1400 340/19G29 RMK AO2 PK WND 34029/2220 T00561078
03812KAVL AVL20161119172512911/19/16 17:25:31  5-MIN KAVL 192225Z 33017G29KT 10SM CLR 06/M08 A3009 2010 37 1400 340/17G29 RMK AO2 PK WND 34029/2221 T00561078
03812KAVL AVL20161119173012911/19/16 17:30:31  5-MIN KAVL 192230Z 33020G29KT 10SM CLR 06/M08 A3009 2010 37 1400 330/20G29 RMK AO2 PK WND 34029/2221 T00561078
03812KAVL AVL20161119173512911/19/16 17:35:31  5-MIN KAVL 192235Z 34018G27KT 10SM CLR 06/M08 A3009 2010 37 1400 350/18G27 RMK AO2 PK WND 34029/2221 T00561078
03812KAVL AVL20161119174012911/19/16 17:40:31  5-MIN KAVL 192240Z 32018G29KT 10SM CLR 06/M08 A3009 2010 37 1400 330/18G29 RMK AO2 PK WND 34029/2221 T00561078
03812KAVL AVL20161119174512911/19/16 17:45:31  5-MIN KAVL 192245Z 33023G29KT 10SM CLR 06/M08 A3009 2010 37 1400 340/23G29 RMK AO2 PK WND 34029/2221 T00561078
03812KAVL AVL20161119175013611/19/16 17:50:31  5-MIN KAVL 192250Z 33018G28KT 10SM CLR 06/M08 A3009 2010 37 1400 340/18G28 RMK AO2 PK WND 34029/2221 SLP194 T00561078
03812KAVL AVL20161119175511111/19/16 17:55:31  5-MIN KAVL 192255Z 33017G26KT 10SM CLR 06/M08 A3010 2010 37 1400 340/17G26 RMK AO2 T00561078
03812KAVL AVL20161119180011111/19/16 18:00:31  5-MIN KAVL 192300Z 33017G26KT 10SM CLR 05/M08 A3010 2000 39 1300 330/17G26 RMK AO2 T00501078
03812KAVL AVL20161119180511111/19/16 18:05:31  5-MIN KAVL 192305Z 33017G23KT 10SM CLR 05/M08 A3010 2000 39 1300 330/17G23 RMK AO2 T00501078
03812KAVL AVL20161119181011111/19/16 18:10:31  5-MIN KAVL 192310Z 33015G23KT 10SM CLR 06/M08 A3010 2000 37 1400 340/15G23 RMK AO2 T00561078
03812KAVL AVL20161119181510511/19/16 18:15:31  5-MIN KAVL 192315Z 33014KT 10SM CLR 05/M08 A3010 2000 39 1300 340/14 RMK AO2 T00501078
03812KAVL AVL20161119182012911/19/16 18:20:31  5-MIN KAVL 192320Z 33019G26KT 10SM CLR 05/M08 A3010 2000 39 1300 340/19G26 RMK AO2 PK WND 32026/2319 T00501078
03812KAVL AVL20161119182512911/19/16 18:25:31  5-MIN KAVL 192325Z 32014G26KT 10SM CLR 05/M08 A3010 2000 39 1300 330/14G26 RMK AO2 PK WND 32026/2319 T00501078
03812KAVL AVL20161119183012311/19/16 18:30:31  5-MIN KAVL 192330Z 33013KT 10SM CLR 05/M08 A3010 2000 39 1300 340/13 RMK AO2 PK WND 32026/2319 T00501078
03812KAVL AVL20161119183512911/19/16 18:35:31  5-MIN KAVL 192335Z 33016G23KT 10SM CLR 05/M08 A3010 2000 39 1300 340/16G23 RMK AO2 PK WND 32026/2319 T00501078
03812KAVL AVL20161119184012911/19/16 18:40:31  5-MIN KAVL 192340Z 32016G23KT 10SM CLR 05/M08 A3010 2000 39 1300 330/16G23 RMK AO2 PK WND 32026/2319 T00501078
03812KAVL AVL20161119184512911/19/16 18:45:31  5-MIN KAVL 192345Z 33016G23KT 10SM CLR 05/M08 A3010 2000 39 1300 330/16G23 RMK AO2 PK WND 32026/2319 T00501078
03812KAVL AVL20161119185015411/19/16 18:50:31  5-MIN KAVL 192350Z 33012G23KT 10SM CLR 05/M08 A3010 2000 39 1300 340/12G23 RMK AO2 PK WND 32026/2319 SLP195 T00501078 10089 20050 53002
03812KAVL AVL20161119185511111/19/16 18:55:31  5-MIN KAVL 192355Z 33015G21KT 10SM CLR 05/M08 A3010 2000 39 1300 330/15G21 RMK AO2 T00501078
03812KAVL AVL20161119190011111/19/16 19:00:31  5-MIN KAVL 200000Z 33015G21KT 10SM CLR 05/M08 A3010 2010 39 1300 340/15G21 RMK AO2 T00501078
03812KAVL AVL20161119190511111/19/16 19:05:31  5-MIN KAVL 200005Z 32013G21KT 10SM CLR 05/M08 A3010 2010 39 1300 330/13G21 RMK AO2 T00501078
03812KAVL AVL20161119191011111/19/16 19:10:31  5-MIN KAVL 200010Z 34013G19KT 10SM CLR 05/M08 A3009 2010 37 1300 340/13G19 RMK AO2 T00501083
03812KAVL AVL20161119191511111/19/16 19:15:31  5-MIN KAVL 200015Z 33018G23KT 10SM CLR 05/M08 A3009 2010 37 1300 340/18G23 RMK AO2 T00501083
03812KAVL AVL20161119192011111/19/16 19:20:31  5-MIN KAVL 200020Z 33012G24KT 10SM CLR 05/M09 A3009 2010 36 1300 340/12G24 RMK AO2 T00501089
03812KAVL AVL20161119192511111/19/16 19:25:31  5-MIN KAVL 200025Z 33018G25KT 10SM CLR 05/M09 A3009 2010 34 1300 340/18G25 RMK AO2 T00501094
03812KAVL AVL20161119193012911/19/16 19:30:31  5-MIN KAVL 200030Z 34018G27KT 10SM CLR 05/M10 A3009 2010 33 1300 350/18G27 RMK AO2 PK WND 33027/0027 T00501100
03812KAVL AVL20161119193512911/19/16 19:35:31  5-MIN KAVL 200035Z 34016G27KT 10SM CLR 05/M11 A3009 2010 31 1300 350/16G27 RMK AO2 PK WND 33027/0027 T00501106
03812KAVL AVL20161119194012911/19/16 19:40:31  5-MIN KAVL 200040Z 34017G25KT 10SM CLR 05/M11 A3009 2010 31 1300 340/17G25 RMK AO2 PK WND 33027/0027 T00501106
03812KAVL AVL20161119194512911/19/16 19:45:31  5-MIN KAVL 200045Z 34014G25KT 10SM CLR 05/M10 A3009 2010 33 1300 350/14G25 RMK AO2 PK WND 33027/0027 T00501100
03812KAVL AVL20161119195013611/19/16 19:50:31  5-MIN KAVL 200050Z 35012G27KT 10SM CLR 05/M11 A3009 2010 31 1300 350/12G27 RMK AO2 PK WND 33027/0048 SLP194 T00501106
03812KAVL AVL20161119195511111/19/16 19:55:31  5-MIN KAVL 200055Z 33016G27KT 10SM CLR 05/M11 A3009 2010 31 1300 340/16G27 RMK AO2 T00501106
03812KAVL AVL20161119200011111/19/16 20:00:31  5-MIN KAVL 200100Z 34015G23KT 10SM CLR 05/M11 A3009 2010 30 1300 350/15G23 RMK AO2 T00501111
03812KAVL AVL20161119200512911/19/16 20:05:31  5-MIN KAVL 200105Z 34021G26KT 10SM CLR 05/M11 A3009 2010 30 1300 340/21G26 RMK AO2 PK WND 34026/0104 T00501111
03812KAVL AVL20161119201012911/19/16 20:10:31  5-MIN KAVL 200110Z 34017G29KT 10SM CLR 05/M11 A3009 2010 30 1300 340/17G29 RMK AO2 PK WND 33029/0108 T00501111
03812KAVL AVL20161119201512911/19/16 20:15:31  5-MIN KAVL 200115Z 34016G29KT 10SM CLR 05/M11 A3009 2010 30 1300 350/16G29 RMK AO2 PK WND 33029/0108 T00501111
03812KAVL AVL20161119202012911/19/16 20:20:31  5-MIN KAVL 200120Z 34017G29KT 10SM CLR 05/M11 A3009 2010 30 1300 350/17G29 RMK AO2 PK WND 33029/0108 T00501111
03812KAVL AVL20161119202512911/19/16 20:25:31  5-MIN KAVL 200125Z 35018G29KT 10SM CLR 05/M11 A3009 2010 31 1300 350/18G29 RMK AO2 PK WND 33029/0108 T00501106
03812KAVL AVL20161119203012911/19/16 20:30:31  5-MIN KAVL 200130Z 34016G29KT 10SM CLR 05/M11 A3009 2010 31 1300 350/16G29 RMK AO2 PK WND 33029/0108 T00501106
03812KAVL AVL20161119203512911/19/16 20:35:31  5-MIN KAVL 200135Z 34017G22KT 10SM CLR 05/M11 A3009 2010 31 1300 350/17G22 RMK AO2 PK WND 33029/0108 T00501106
03812KAVL AVL20161119204012911/19/16 20:40:31  5-MIN KAVL 200140Z 33024G29KT 10SM CLR 05/M11 A3009 2010 30 1300 340/24G29 RMK AO2 PK WND 34029/0140 T00501111
03812KAVL AVL20161119204512911/19/16 20:45:31  5-MIN KAVL 200145Z 34021G31KT 10SM CLR 05/M11 A3009 2010 30 1300 340/21G31 RMK AO2 PK WND 33031/0143 T00501111
03812KAVL AVL20161119205013611/19/16 20:50:31  5-MIN KAVL 200150Z 34018G31KT 10SM CLR 05/M11 A3009 2010 30 1300 350/18G31 RMK AO2 PK WND 33031/0143 SLP189 T00501111
03812KAVL AVL20161119205511111/19/16 20:55:31  5-MIN KAVL 200155Z 34018G25KT 10SM CLR 05/M12 A3009 2010 29 1300 340/18G25 RMK AO2 T00501117
03812KAVL AVL20161119210011111/19/16 21:00:31  5-MIN KAVL 200200Z 34017G24KT 10SM CLR 04/M12 A3009 2010 30 1300 340/17G24 RMK AO2 T00441117
03812KAVL AVL20161119210512911/19/16 21:05:31  5-MIN KAVL 200205Z 34021G29KT 10SM CLR 04/M12 A3009 2010 30 1300 340/21G29 RMK AO2 PK WND 32029/0202 T00441117
03812KAVL AVL20161119211012911/19/16 21:10:31  5-MIN KAVL 200210Z 34015G29KT 10SM CLR 04/M12 A3009 2010 30 1300 350/15G29 RMK AO2 PK WND 32029/0202 T00441117
03812KAVL AVL20161119211512911/19/16 21:15:31  5-MIN KAVL 200215Z 34021G29KT 10SM CLR 04/M12 A3009 2010 30 1300 350/21G29 RMK AO2 PK WND 34029/0215 T00441117
03812KAVL AVL20161119212012911/19/16 21:20:31  5-MIN KAVL 200220Z 34015G29KT 10SM CLR 04/M11 A3009 2010 32 1200 340/15G29 RMK AO2 PK WND 34029/0215 T00391111
03812KAVL AVL20161119212512311/19/16 21:25:31  5-MIN KAVL 200225Z 34016KT 10SM CLR 04/M11 A3009 2010 32 1200 350/16 RMK AO2 PK WND 34029/0215 T00391111
03812KAVL AVL20161119213012911/19/16 21:30:31  5-MIN KAVL 200230Z 34017G23KT 10SM CLR 04/M11 A3010 2010 34 1200 350/17G23 RMK AO2 PK WND 34029/0215 T00391106
03812KAVL AVL20161119213512911/19/16 21:35:31  5-MIN KAVL 200235Z 34016G25KT 10SM CLR 04/M11 A3010 2010 34 1200 340/16G25 RMK AO2 PK WND 34029/0215 T00391106
03812KAVL AVL20161119214012911/19/16 21:40:31  5-MIN KAVL 200240Z 34019G26KT 10SM CLR 04/M10 A3010 2010 35 1200 350/19G26 RMK AO2 PK WND 34029/0215 T00391100
03812KAVL AVL20161119214512911/19/16 21:45:31  5-MIN KAVL 200245Z 33020G26KT 10SM CLR 04/M10 A3010 2010 35 1200 340/20G26 RMK AO2 PK WND 34029/0215 T00391100
03812KAVL AVL20161119215014211/19/16 21:50:31  5-MIN KAVL 200250Z 34019G26KT 10SM CLR 04/M10 A3010 2010 35 1200 340/19G26 RMK AO2 PK WND 34029/0215 SLP189 T00391100 51003
03812KAVL AVL20161119215512911/19/16 21:55:31  5-MIN KAVL 200255Z 34021G27KT 10SM CLR 04/M10 A3009 2010 35 1200 350/21G27 RMK AO2 PK WND 34027/0255 T00391100
03812KAVL AVL20161119220012911/19/16 22:00:31  5-MIN KAVL 200300Z 33020G27KT 10SM CLR 04/M09 A3009 2010 37 1200 340/20G27 RMK AO2 PK WND 34027/0255 T00391094
03812KAVL AVL20161119220512911/19/16 22:05:31  5-MIN KAVL 200305Z 34019G26KT 10SM CLR 03/M09 A3009 2010 39 1100 340/19G26 RMK AO2 PK WND 34027/0255 T00331094
03812KAVL AVL20161119221012911/19/16 22:10:31  5-MIN KAVL 200310Z 33020G26KT 10SM CLR 03/M09 A3009 2010 39 1100 340/20G26 RMK AO2 PK WND 34027/0255 T00331094
03812KAVL AVL20161119221512911/19/16 22:15:31  5-MIN KAVL 200315Z 34024G30KT 10SM CLR 03/M09 A3009 2010 39 1100 340/24G30 RMK AO2 PK WND 35030/0313 T00331094
03812KAVL AVL20161119222012911/19/16 22:20:31  5-MIN KAVL 200320Z 34023G30KT 10SM CLR 03/M09 A3009 2010 39 1100 340/23G30 RMK AO2 PK WND 35030/0313 T00331094
03812KAVL AVL20161119222512911/19/16 22:25:31  5-MIN KAVL 200325Z 34021G29KT 10SM CLR 03/M09 A3008 2020 39 1100 340/21G29 RMK AO2 PK WND 35030/0313 T00331094
03812KAVL AVL20161119223012911/19/16 22:30:31  5-MIN KAVL 200330Z 35021G29KT 10SM CLR 03/M10 A3008 2020 37 1100 350/21G29 RMK AO2 PK WND 35030/0313 T00331100
03812KAVL AVL20161119223512911/19/16 22:35:31  5-MIN KAVL 200335Z 33021G29KT 10SM CLR 03/M09 A3008 2020 39 1100 340/21G29 RMK AO2 PK WND 35030/0313 T00331094
03812KAVL AVL20161119224012911/19/16 22:40:31  5-MIN KAVL 200340Z 34024G31KT 10SM CLR 03/M10 A3008 2020 37 1100 340/24G31 RMK AO2 PK WND 34031/0338 T00331100
03812KAVL AVL20161119224512911/19/16 22:45:31  5-MIN KAVL 200345Z 33021G31KT 10SM CLR 03/M10 A3008 2020 37 1100 340/21G31 RMK AO2 PK WND 34031/0338 T00331100
03812KAVL AVL20161119225013611/19/16 22:50:31  5-MIN KAVL 200350Z 33018G28KT 10SM CLR 03/M10 A3008 2020 38 1100 340/18G28 RMK AO2 PK WND 34031/0338 SLP186 T00281100
03812KAVL AVL20161119225511611/19/16 22:55:31  5-MIN KAVL 200355Z AUTO 32021G26KT 10SM CLR 03/M09 A3008 2020 40 1100 330/21G26 RMK AO2 T00281094
03812KAVL AVL20161119230013411/19/16 23:00:31  5-MIN KAVL 200400Z AUTO 33022G29KT 10SM CLR 03/M09 A3008 2020 40 1100 340/22G29 RMK AO2 PK WND 33029/0400 T00281094
03812KAVL AVL20161119230513411/19/16 23:05:31  5-MIN KAVL 200405Z AUTO 33018G29KT 10SM CLR 03/M09 A3008 2020 40 1100 340/18G29 RMK AO2 PK WND 33029/0400 T00281094
03812KAVL AVL20161119231013411/19/16 23:10:31  5-MIN KAVL 200410Z AUTO 33020G27KT 10SM CLR 03/M09 A3008 2020 40 1100 340/20G27 RMK AO2 PK WND 33029/0400 T00281094
03812KAVL AVL20161119231513411/19/16 23:15:31  5-MIN KAVL 200415Z AUTO 33022G29KT 10SM CLR 03/M10 A3008 2020 38 1100 330/22G29 RMK AO2 PK WND 33029/0414 T00281100
03812KAVL AVL20161119232013411/19/16 23:20:31  5-MIN KAVL 200420Z AUTO 34021G34KT 10SM CLR 03/M10 A3008 2020 38 1100 340/21G34 RMK AO2 PK WND 33034/0418 T00281100
03812KAVL AVL20161119232513411/19/16 23:25:31  5-MIN KAVL 200425Z AUTO 33024G34KT 10SM CLR 03/M10 A3008 2020 38 1100 340/24G34 RMK AO2 PK WND 33034/0418 T00281100
03812KAVL AVL20161119233013411/19/16 23:30:31  5-MIN KAVL 200430Z AUTO 33017G30KT 10SM CLR 03/M10 A3009 2010 38 1100 340/17G30 RMK AO2 PK WND 33034/0418 T00281100
03812KAVL AVL20161119233513411/19/16 23:35:31  5-MIN KAVL 200435Z AUTO 33017G27KT 10SM CLR 03/M10 A3009 2010 38 1100 330/17G27 RMK AO2 PK WND 33034/0418 T00281100
03812KAVL AVL20161119234013411/19/16 23:40:31  5-MIN KAVL 200440Z AUTO 33018G32KT 10SM CLR 03/M10 A3009 2010 38 1100 340/18G32 RMK AO2 PK WND 33034/0418 T00281100
03812KAVL AVL20161119234513411/19/16 23:45:31  5-MIN KAVL 200445Z AUTO 34017G32KT 10SM CLR 03/M10 A3009 2010 38 1100 350/17G32 RMK AO2 PK WND 33034/0418 T00281100
03812KAVL AVL20161119235015111/19/16 23:50:31  5-MIN KAVL 200450Z AUTO 33015G28KT 10SM CLR 02/M10 A3009 2010 40 1000 340/15G28 RMK AO2 PK WND 33034/0418 SLP190 T00221100 401220017
03812KAVL AVL20161119235511611/19/16 23:55:31  5-MIN KAVL 200455Z AUTO 34013G21KT 10SM CLR 02/M10 A3009 2010 40 1000 340/13G21 RMK AO2 T00221100
03812KAVL AVL20161120000011611/20/16 00:00:31  5-MIN KAVL 200500Z AUTO 35013G30KT 10SM CLR 02/M10 A3009 2010 40 1000 350/13G30 RMK AO2 T00221100
03812KAVL AVL20161120000511611/20/16 00:05:31  5-MIN KAVL 200505Z AUTO 34013G30KT 10SM CLR 02/M10 A3009 2010 40 1000 340/13G30 RMK AO2 T00221100
03812KAVL AVL20161120001011611/20/16 00:10:31  5-MIN KAVL 200510Z AUTO 34012G23KT 10SM CLR 02/M09 A3009 2010 42 1000 350/12G23 RMK AO2 T00221094
03812KAVL AVL20161120001513411/20/16 00:15:31  5-MIN KAVL 200515Z AUTO 33016G27KT 10SM CLR 02/M09 A3009 2010 42 1000 340/16G27 RMK AO2 PK WND 35027/0515 T00221094
03812KAVL AVL20161120002013411/20/16 00:20:31  5-MIN KAVL 200520Z AUTO 34018G27KT 10SM CLR 02/M10 A3009 2010 40 1000 350/18G27 RMK AO2 PK WND 35027/0515 T00221100
03812KAVL AVL20161120002513411/20/16 00:25:31  5-MIN KAVL 200525Z AUTO 33014G26KT 10SM CLR 02/M10 A3010 2010 40 1000 340/14G26 RMK AO2 PK WND 35027/0515 T00221100
03812KAVL AVL20161120003013411/20/16 00:30:31  5-MIN KAVL 200530Z AUTO 33015G24KT 10SM CLR 02/M10 A3010 2000 40 1000 340/15G24 RMK AO2 PK WND 35027/0515 T00221100
03812KAVL AVL20161120003513411/20/16 00:35:31  5-MIN KAVL 200535Z AUTO 33016G25KT 10SM CLR 02/M10 A3009 2010 40 1000 340/16G25 RMK AO2 PK WND 35027/0515 T00221100
03812KAVL AVL20161120004013411/20/16 00:40:31  5-MIN KAVL 200540Z AUTO 33013G25KT 10SM CLR 02/M10 A3009 2010 40 1000 340/13G25 RMK AO2 PK WND 35027/0515 T00221100
03812KAVL AVL20161120004513411/20/16 00:45:31  5-MIN KAVL 200545Z AUTO 34018G27KT 10SM CLR 02/M10 A3009 2010 40 1000 340/18G27 RMK AO2 PK WND 34027/0545 T00221100
03812KAVL AVL20161120005015911/20/16 00:50:31  5-MIN KAVL 200550Z AUTO 33016G27KT 10SM CLR 02/M10 A3009 2010 40 1000 330/16G27 RMK AO2 PK WND 34027/0545 SLP193 T00221100 10056 20022 55001
03812KAVL AVL20161120005511611/20/16 00:55:31  5-MIN KAVL 200555Z AUTO 33017G27KT 10SM CLR 02/M10 A3009 2010 40 1000 340/17G27 RMK AO2 T00221100
03812KAVL AVL20161120010013411/20/16 01:00:31  5-MIN KAVL 200600Z AUTO 34018G27KT 10SM CLR 02/M10 A3009 2010 40 1000 340/18G27 RMK AO2 PK WND 34027/0557 T00221100
03812KAVL AVL20161120010513311/20/16 01:05:31  5-MIN KAVL 200605Z AUTO 33016G27KT 10SM CLR 02/M09 A3009 2010 43 900 340/16G27 RMK AO2 PK WND 34027/0601 T00171094
03812KAVL AVL20161120011013311/20/16 01:10:31  5-MIN KAVL 200610Z AUTO 34015G27KT 10SM CLR 02/M09 A3009 2010 43 900 350/15G27 RMK AO2 PK WND 34027/0601 T00171094
03812KAVL AVL20161120011513311/20/16 01:15:31  5-MIN KAVL 200615Z AUTO 33014G21KT 10SM CLR 02/M09 A3009 2010 43 900 340/14G21 RMK AO2 PK WND 34027/0601 T00171094
03812KAVL AVL20161120012013311/20/16 01:20:31  5-MIN KAVL 200620Z AUTO 33016G25KT 10SM CLR 02/M09 A3009 2010 43 900 340/16G25 RMK AO2 PK WND 34027/0601 T00171094
03812KAVL AVL20161120012513311/20/16 01:25:31  5-MIN KAVL 200625Z AUTO 34016G25KT 10SM CLR 02/M09 A3009 2010 45 900 340/16G25 RMK AO2 PK WND 34027/0601 T00171089
03812KAVL AVL20161120013013311/20/16 01:30:31  5-MIN KAVL 200630Z AUTO 34017G26KT 10SM CLR 02/M09 A3009 2010 45 900 340/17G26 RMK AO2 PK WND 34027/0601 T00171089
03812KAVL AVL20161120013513311/20/16 01:35:31  5-MIN KAVL 200635Z AUTO 34011G26KT 10SM CLR 02/M09 A3009 2010 45 900 350/11G26 RMK AO2 PK WND 34027/0601 T00171089
03812KAVL AVL20161120014013311/20/16 01:40:31  5-MIN KAVL 200640Z AUTO 33015G21KT 10SM CLR 02/M09 A3009 2010 45 900 340/15G21 RMK AO2 PK WND 34027/0601 T00171089
03812KAVL AVL20161120014513311/20/16 01:45:31  5-MIN KAVL 200645Z AUTO 34014G21KT 10SM CLR 02/M09 A3009 2010 45 900 340/14G21 RMK AO2 PK WND 34027/0601 T00171089
03812KAVL AVL20161120015014011/20/16 01:50:31  5-MIN KAVL 200650Z AUTO 34016G22KT 10SM CLR 02/M08 A3009 2010 47 900 340/16G22 RMK AO2 PK WND 34027/0601 SLP193 T00171083
03812KAVL AVL20161120015511511/20/16 01:55:31  5-MIN KAVL 200655Z AUTO 33015G22KT 10SM CLR 01/M08 A3010 2000 49 800 340/15G22 RMK AO2 T00111083
03812KAVL AVL20161120020011511/20/16 02:00:31  5-MIN KAVL 200700Z AUTO 33017G22KT 10SM CLR 01/M08 A3010 2000 49 800 340/17G22 RMK AO2 T00111083
03812KAVL AVL20161120020511511/20/16 02:05:31  5-MIN KAVL 200705Z AUTO 33016G22KT 10SM CLR 01/M08 A3009 2010 49 800 340/16G22 RMK AO2 T00111083
03812KAVL AVL20161120021011511/20/16 02:10:31  5-MIN KAVL 200710Z AUTO 33018G23KT 10SM CLR 01/M08 A3010 2000 49 800 340/18G23 RMK AO2 T00111083
03812KAVL AVL20161120021513311/20/16 02:15:31  5-MIN KAVL 200715Z AUTO 33019G26KT 10SM CLR 01/M08 A3010 2000 49 800 340/19G26 RMK AO2 PK WND 33026/0714 T00111083
03812KAVL AVL20161120022013311/20/16 02:20:31  5-MIN KAVL 200720Z AUTO 34017G26KT 10SM CLR 01/M08 A3010 2000 49 800 350/17G26 RMK AO2 PK WND 33026/0714 T00111083
03812KAVL AVL20161120022513311/20/16 02:25:31  5-MIN KAVL 200725Z AUTO 33016G23KT 10SM CLR 01/M08 A3010 2000 49 800 340/16G23 RMK AO2 PK WND 33026/0714 T00111083
03812KAVL AVL20161120023013311/20/16 02:30:31  5-MIN KAVL 200730Z AUTO 33016G23KT 10SM CLR 01/M08 A3010 2000 49 800 340/16G23 RMK AO2 PK WND 33026/0714 T00111083
03812KAVL AVL20161120023513311/20/16 02:35:31  5-MIN KAVL 200735Z AUTO 33019G25KT 10SM CLR 01/M08 A3010 2000 49 800 330/19G25 RMK AO2 PK WND 33026/0714 T00111083
03812KAVL AVL20161120024013311/20/16 02:40:31  5-MIN KAVL 200740Z AUTO 34019G25KT 10SM CLR 01/M09 A3010 2010 47 800 340/19G25 RMK AO2 PK WND 33026/0714 T00111089
03812KAVL AVL20161120024513311/20/16 02:45:31  5-MIN KAVL 200745Z AUTO 33017G24KT 10SM CLR 01/M08 A3010 2010 49 800 340/17G24 RMK AO2 PK WND 33026/0714 T00111083
03812KAVL AVL20161120025014011/20/16 02:50:31  5-MIN KAVL 200750Z AUTO 34019G25KT 10SM CLR 01/M08 A3010 2000 49 800 340/19G25 RMK AO2 PK WND 33026/0714 SLP194 T00111083
03812KAVL AVL20161120025511511/20/16 02:55:31  5-MIN KAVL 200755Z AUTO 33020G27KT 10SM CLR 01/M09 A3010 2000 47 800 340/20G27 RMK AO2 T00111089
03812KAVL AVL20161120030011511/20/16 03:00:31  5-MIN KAVL 200800Z AUTO 34017G27KT 10SM CLR 01/M09 A3010 2000 47 800 350/17G27 RMK AO2 T00111089
03812KAVL AVL20161120030511511/20/16 03:05:31  5-MIN KAVL 200805Z AUTO 34015G25KT 10SM CLR 01/M08 A3010 2000 51 800 350/15G25 RMK AO2 T00061083
03812KAVL AVL20161120031013311/20/16 03:10:31  5-MIN KAVL 200810Z AUTO 34017G27KT 10SM CLR 01/M09 A3010 2000 49 800 340/17G27 RMK AO2 PK WND 33027/0808 T00061089
03812KAVL AVL20161120031513311/20/16 03:15:31  5-MIN KAVL 200815Z AUTO 35011G27KT 10SM CLR 01/M08 A3010 2000 51 800 360/11G27 RMK AO2 PK WND 33027/0808 T00061083
03812KAVL AVL20161120032013311/20/16 03:20:31  5-MIN KAVL 200820Z AUTO 35015G22KT 10SM CLR 01/M08 A3010 2000 51 800 350/15G22 RMK AO2 PK WND 33027/0808 T00061083
03812KAVL AVL20161120032513311/20/16 03:25:31  5-MIN KAVL 200825Z AUTO 36014G22KT 10SM CLR 01/M08 A3010 2000 54 800 360/14G22 RMK AO2 PK WND 33027/0808 T00061078
03812KAVL AVL20161120033013311/20/16 03:30:31  5-MIN KAVL 200830Z AUTO 34014G22KT 10SM CLR 01/M08 A3010 2000 54 800 350/14G22 RMK AO2 PK WND 33027/0808 T00061078
03812KAVL AVL20161120033513311/20/16 03:35:31  5-MIN KAVL 200835Z AUTO 35017G22KT 10SM CLR 01/M08 A3010 2000 54 800 360/17G22 RMK AO2 PK WND 33027/0808 T00061078
03812KAVL AVL20161120034013311/20/16 03:40:31  5-MIN KAVL 200840Z AUTO 34013G22KT 10SM CLR 01/M08 A3010 2000 54 800 350/13G22 RMK AO2 PK WND 33027/0808 T00061078
03812KAVL AVL20161120034513311/20/16 03:45:31  5-MIN KAVL 200845Z AUTO 35016G23KT 10SM CLR 01/M08 A3011 2000 54 800 360/16G23 RMK AO2 PK WND 33027/0808 T00061078
03812KAVL AVL20161120035014611/20/16 03:50:31  5-MIN KAVL 200850Z AUTO 34016G23KT 10SM CLR 01/M08 A3010 2000 54 800 350/16G23 RMK AO2 PK WND 33027/0808 SLP196 T00061078 55000
03812KAVL AVL20161120035511511/20/16 03:55:31  5-MIN KAVL 200855Z AUTO 35013G21KT 10SM CLR 00/M08 A3010 2000 56 700 360/13G21 RMK AO2 T00001078
03812KAVL AVL20161120040011511/20/16 04:00:31  5-MIN KAVL 200900Z AUTO 35014G21KT 10SM CLR 00/M08 A3010 2000 56 700 360/14G21 RMK AO2 T00001078
03812KAVL AVL20161120040511511/20/16 04:05:31  5-MIN KAVL 200905Z AUTO 35014G21KT 10SM CLR 00/M08 A3010 2010 56 700 360/14G21 RMK AO2 T00001078
03812KAVL AVL20161120041011511/20/16 04:10:31  5-MIN KAVL 200910Z AUTO 35015G25KT 10SM CLR 00/M08 A3009 2010 56 700 350/15G25 RMK AO2 T00001078
03812KAVL AVL20161120041511511/20/16 04:15:31  5-MIN KAVL 200915Z AUTO 36014G25KT 10SM CLR 00/M08 A3009 2010 56 700 360/14G25 RMK AO2 T00001078
03812KAVL AVL20161120042011511/20/16 04:20:31  5-MIN KAVL 200920Z AUTO 35015G21KT 10SM CLR 00/M08 A3009 2010 56 700 360/15G21 RMK AO2 T00001078
03812KAVL AVL20161120042511511/20/16 04:25:31  5-MIN KAVL 200925Z AUTO 36015G23KT 10SM CLR 00/M08 A3009 2010 56 700 360/15G23 RMK AO2 T00001078
03812KAVL AVL20161120043011511/20/16 04:30:31  5-MIN KAVL 200930Z AUTO 36016G24KT 10SM CLR 00/M08 A3009 2010 53 700 360/16G24 RMK AO2 T00001083
03812KAVL AVL20161120043511511/20/16 04:35:31  5-MIN KAVL 200935Z AUTO 35017G25KT 10SM CLR 00/M08 A3009 2010 53 700 360/17G25 RMK AO2 T00001083
03812KAVL AVL20161120044011511/20/16 04:40:31  5-MIN KAVL 200940Z AUTO 35017G25KT 10SM CLR 00/M08 A3009 2010 53 700 360/17G25 RMK AO2 T00001083
03812KAVL AVL20161120044513311/20/16 04:45:31  5-MIN KAVL 200945Z AUTO 35018G27KT 10SM CLR 00/M08 A3010 2010 53 700 360/18G27 RMK AO2 PK WND 36027/0945 T00001083
03812KAVL AVL20161120045014011/20/16 04:50:31  5-MIN KAVL 200950Z AUTO 35016G27KT 10SM CLR 00/M08 A3009 2010 53 700 360/16G27 RMK AO2 PK WND 36027/0945 SLP195 T00001083
03812KAVL AVL20161120045511511/20/16 04:55:31  5-MIN KAVL 200955Z AUTO 35017G26KT 10SM CLR 00/M08 A3009 2010 53 700 360/17G26 RMK AO2 T00001083
03812KAVL AVL20161120050011511/20/16 05:00:31  5-MIN KAVL 201000Z AUTO 35014G26KT 10SM CLR 00/M08 A3009 2010 53 700 360/14G26 RMK AO2 T00001083
03812KAVL AVL20161120050511611/20/16 05:05:31  5-MIN KAVL 201005Z AUTO 35016G24KT 10SM CLR M01/M08 A3009 2010 56 600 360/16G24 RMK AO2 T10061083
03812KAVL AVL20161120051011611/20/16 05:10:31  5-MIN KAVL 201010Z AUTO 35016G23KT 10SM CLR M01/M08 A3009 2010 56 600 360/16G23 RMK AO2 T10061083
03812KAVL AVL20161120051511611/20/16 05:15:31  5-MIN KAVL 201015Z AUTO 35017G23KT 10SM CLR M01/M08 A3009 2010 56 600 360/17G23 RMK AO2 T10061083
03812KAVL AVL20161120052013411/20/16 05:20:31  5-MIN KAVL 201020Z AUTO 35016G28KT 10SM CLR M01/M08 A3009 2010 56 600 360/16G28 RMK AO2 PK WND 35028/1018 T10061083
03812KAVL AVL20161120052513411/20/16 05:25:31  5-MIN KAVL 201025Z AUTO 35018G28KT 10SM CLR M01/M08 A3009 2010 56 600 350/18G28 RMK AO2 PK WND 35028/1018 T10061083
03812KAVL AVL20161120053013411/20/16 05:30:31  5-MIN KAVL 201030Z AUTO 35019G27KT 10SM CLR M01/M08 A3009 2010 56 600 350/19G27 RMK AO2 PK WND 35028/1018 T10061083
03812KAVL AVL20161120053513411/20/16 05:35:31  5-MIN KAVL 201035Z AUTO 35016G27KT 10SM CLR M01/M08 A3009 2010 56 600 360/16G27 RMK AO2 PK WND 35028/1018 T10061083
03812KAVL AVL20161120054013411/20/16 05:40:31  5-MIN KAVL 201040Z AUTO 35014G23KT 10SM CLR M01/M08 A3009 2010 56 600 350/14G23 RMK AO2 PK WND 35028/1018 T10061083
03812KAVL AVL20161120054513411/20/16 05:45:31  5-MIN KAVL 201045Z AUTO 35018G32KT 10SM CLR M01/M08 A3009 2010 56 600 360/18G32 RMK AO2 PK WND 35032/1043 T10061083
03812KAVL AVL20161120055014111/20/16 05:50:31  5-MIN KAVL 201050Z AUTO 35013G32KT 10SM CLR M01/M08 A3009 2010 56 600 360/13G32 RMK AO2 PK WND 35032/1043 SLP196 T10061083
03812KAVL AVL20161120055513411/20/16 05:55:31  5-MIN KAVL 201055Z AUTO 35017G27KT 10SM CLR M01/M08 A3009 2010 56 600 350/17G27 RMK AO2 PK WND 35027/1055 T10061083
03812KAVL AVL20161120060013411/20/16 06:00:31  5-MIN KAVL 201100Z AUTO 35016G27KT 10SM CLR M01/M08 A3009 2010 56 600 360/16G27 RMK AO2 PK WND 35027/1055 T10061083
03812KAVL AVL20161120060513411/20/16 06:05:31  5-MIN KAVL 201105Z AUTO 35017G25KT 10SM CLR M01/M08 A3009 2010 56 600 360/17G25 RMK AO2 PK WND 35027/1055 T10061083
03812KAVL AVL20161120061013411/20/16 06:10:31  5-MIN KAVL 201110Z AUTO 35016G24KT 10SM CLR M01/M08 A3009 2010 56 600 350/16G24 RMK AO2 PK WND 35027/1055 T10061083
03812KAVL AVL20161120061513411/20/16 06:15:31  5-MIN KAVL 201115Z AUTO 35017G23KT 10SM CLR M01/M08 A3009 2010 56 600 350/17G23 RMK AO2 PK WND 35027/1055 T10061083
03812KAVL AVL20161120062013411/20/16 06:20:31  5-MIN KAVL 201120Z AUTO 35016G26KT 10SM CLR M01/M08 A3009 2010 56 600 350/16G26 RMK AO2 PK WND 35027/1055 T10061083
03812KAVL AVL20161120062512911/20/16 06:25:31  5-MIN KAVL 201125Z 34019G26KT 10SM CLR M01/M08 A3010 2010 58 600 350/19G26 RMK AO2 PK WND 35027/1055 T10111083
03812KAVL AVL20161120063012911/20/16 06:30:31  5-MIN KAVL 201130Z 35015G25KT 10SM CLR M01/M08 A3009 2010 58 600 350/15G25 RMK AO2 PK WND 35027/1055 T10111083
03812KAVL AVL20161120063512911/20/16 06:35:31  5-MIN KAVL 201135Z 35013G24KT 10SM CLR M01/M08 A3010 2000 58 600 360/13G24 RMK AO2 PK WND 35027/1055 T10111083
03812KAVL AVL20161120064012911/20/16 06:40:31  5-MIN KAVL 201140Z 35017G26KT 10SM CLR M01/M08 A3010 2000 58 600 360/17G26 RMK AO2 PK WND 35027/1055 T10111083
03812KAVL AVL20161120064512911/20/16 06:45:31  5-MIN KAVL 201145Z 35014G26KT 10SM CLR M01/M09 A3010 2000 55 600 360/14G26 RMK AO2 PK WND 35027/1055 T10111089
03812KAVL AVL20161120065015411/20/16 06:50:31  5-MIN KAVL 201150Z 35014G22KT 10SM CLR M01/M09 A3010 2000 55 600 360/14G22 RMK AO2 PK WND 35027/1055 SLP200 T10111089 10022 21011 51002
03812KAVL AVL20161120065511111/20/16 06:55:31  5-MIN KAVL 201155Z 35016G24KT 10SM CLR M01/M09 A3010 2000 55 600 350/16G24 RMK AO2 T10111089
03812KAVL AVL20161120070011111/20/16 07:00:31  5-MIN KAVL 201200Z 35012G24KT 10SM CLR M01/M09 A3011 2000 55 600 350/12G24 RMK AO2 T10111089
03812KAVL AVL20161120070511111/20/16 07:05:31  5-MIN KAVL 201205Z 34016G21KT 10SM CLR M01/M09 A3011 1990 55 600 350/16G21 RMK AO2 T10111089
03812KAVL AVL20161120071011111/20/16 07:10:31  5-MIN KAVL 201210Z 35017G25KT 10SM CLR M01/M09 A3011 1990 53 600 350/17G25 RMK AO2 T10061089
03812KAVL AVL20161120071511111/20/16 07:15:31  5-MIN KAVL 201215Z 35017G25KT 10SM CLR M01/M09 A3011 2000 55 600 350/17G25 RMK AO2 T10111089
03812KAVL AVL20161120072011111/20/16 07:20:31  5-MIN KAVL 201220Z 35013G24KT 10SM CLR M01/M09 A3011 2000 55 600 350/13G24 RMK AO2 T10111089
03812KAVL AVL20161120072511111/20/16 07:25:31  5-MIN KAVL 201225Z 35014G22KT 10SM CLR M01/M09 A3011 2000 55 600 350/14G22 RMK AO2 T10111089
03812KAVL AVL20161120073011111/20/16 07:30:31  5-MIN KAVL 201230Z 35017G24KT 10SM CLR M01/M09 A3011 1990 55 600 350/17G24 RMK AO2 T10111089
03812KAVL AVL20161120073511111/20/16 07:35:31  5-MIN KAVL 201235Z 35014G24KT 10SM CLR M01/M09 A3011 1990 55 600 360/14G24 RMK AO2 T10111089
03812KAVL AVL20161120074011111/20/16 07:40:31  5-MIN KAVL 201240Z 34018G24KT 10SM CLR M01/M09 A3011 1990 55 500 350/18G24 RMK AO2 T10111089
03812KAVL AVL20161120074512911/20/16 07:45:31  5-MIN KAVL 201245Z 35020G28KT 10SM CLR M01/M09 A3011 1990 55 500 350/20G28 RMK AO2 PK WND 34028/1243 T10111089
03812KAVL AVL20161120075013611/20/16 07:50:31  5-MIN KAVL 201250Z 34019G28KT 10SM CLR M01/M09 A3011 1990 55 500 350/19G28 RMK AO2 PK WND 34028/1243 SLP204 T10111089
03812KAVL AVL20161120075511111/20/16 07:55:31  5-MIN KAVL 201255Z 35016G25KT 10SM CLR M01/M09 A3012 1990 53 600 350/16G25 RMK AO2 T10061089
03812KAVL AVL20161120080011111/20/16 08:00:31  5-MIN KAVL 201300Z 35017G24KT 10SM CLR M01/M09 A3012 1990 53 600 350/17G24 RMK AO2 T10061089
03812KAVL AVL20161120080512911/20/16 08:05:31  5-MIN KAVL 201305Z 35017G26KT 10SM CLR M01/M09 A3012 1980 53 600 350/17G26 RMK AO2 PK WND 33026/1301 T10061089
03812KAVL AVL20161120081012911/20/16 08:10:31  5-MIN KAVL 201310Z 35016G26KT 10SM CLR M01/M09 A3012 1980 53 600 350/16G26 RMK AO2 PK WND 33026/1301 T10061089
03812KAVL AVL20161120081512811/20/16 08:15:31  5-MIN KAVL 201315Z 35014G24KT 10SM CLR 00/M09 A3012 1980 51 700 350/14G24 RMK AO2 PK WND 33026/1301 T00001089
03812KAVL AVL20161120082012811/20/16 08:20:31  5-MIN KAVL 201320Z 35017G24KT 10SM CLR 00/M09 A3013 1980 51 700 360/17G24 RMK AO2 PK WND 33026/1301 T00001089
03812KAVL AVL20161120082512811/20/16 08:25:31  5-MIN KAVL 201325Z 35016G24KT 10SM CLR 00/M09 A3013 1980 51 700 360/16G24 RMK AO2 PK WND 33026/1301 T00001089
03812KAVL AVL20161120083012811/20/16 08:30:31  5-MIN KAVL 201330Z 35016G24KT 10SM CLR 00/M09 A3013 1970 51 700 360/16G24 RMK AO2 PK WND 33026/1301 T00001089
03812KAVL AVL20161120083512811/20/16 08:35:31  5-MIN KAVL 201335Z 35015G24KT 10SM CLR 00/M09 A3013 1980 51 700 360/15G24 RMK AO2 PK WND 33026/1301 T00001089
03812KAVL AVL20161120084012811/20/16 08:40:31  5-MIN KAVL 201340Z 35020G26KT 10SM CLR 00/M09 A3013 1970 51 700 350/20G26 RMK AO2 PK WND 33026/1340 T00001089
03812KAVL AVL20161120084512811/20/16 08:45:31  5-MIN KAVL 201345Z 35015G27KT 10SM CLR 00/M09 A3013 1970 51 700 360/15G27 RMK AO2 PK WND 34027/1342 T00001089
03812KAVL AVL20161120085013511/20/16 08:50:31  5-MIN KAVL 201350Z 35013G27KT 10SM CLR 01/M09 A3013 1970 49 700 360/13G27 RMK AO2 PK WND 34027/1342 SLP210 T00061089
03812KAVL AVL20161120085511011/20/16 08:55:31  5-MIN KAVL 201355Z 35016G22KT 10SM CLR 01/M09 A3013 1970 49 700 360/16G22 RMK AO2 T00061089
03812KAVL AVL20161120090012811/20/16 09:00:31  5-MIN KAVL 201400Z 35019G31KT 10SM CLR 01/M09 A3013 1980 47 700 360/19G31 RMK AO2 PK WND 35031/1400 T00061094
03812KAVL AVL20161120090512811/20/16 09:05:31  5-MIN KAVL 201405Z 36019G31KT 10SM CLR 01/M09 A3013 1980 47 700 360/19G31 RMK AO2 PK WND 35031/1400 T00061094
03812KAVL AVL20161120091012811/20/16 09:10:31  5-MIN KAVL 201410Z 35019G28KT 10SM CLR 01/M09 A3013 1980 47 700 360/19G28 RMK AO2 PK WND 35031/1400 T00061094
03812KAVL AVL20161120091512811/20/16 09:15:31  5-MIN KAVL 201415Z 35018G28KT 10SM CLR 01/M09 A3013 1980 47 700 360/18G28 RMK AO2 PK WND 35031/1400 T00061094
03812KAVL AVL20161120092012811/20/16 09:20:31  5-MIN KAVL 201420Z 35019G26KT 10SM CLR 01/M09 A3013 1980 45 800 360/19G26 RMK AO2 PK WND 35031/1400 T00111094
03812KAVL AVL20161120092512811/20/16 09:25:31  5-MIN KAVL 201425Z 35021G30KT 10SM CLR 01/M09 A3013 1980 45 800 360/21G30 RMK AO2 PK WND 35031/1400 T00111094
03812KAVL AVL20161120093012811/20/16 09:30:31  5-MIN KAVL 201430Z 35021G32KT 10SM CLR 01/M09 A3013 1980 45 800 360/21G32 RMK AO2 PK WND 34032/1427 T00111094
03812KAVL AVL20161120093512811/20/16 09:35:31  5-MIN KAVL 201435Z 36018G32KT 10SM CLR 01/M09 A3013 1980 45 800 360/18G32 RMK AO2 PK WND 34032/1427 T00111094
03812KAVL AVL20161120094012811/20/16 09:40:31  5-MIN KAVL 201440Z 35017G29KT 10SM CLR 01/M09 A3013 1980 45 800 360/17G29 RMK AO2 PK WND 34032/1427 T00111094
03812KAVL AVL20161120094512811/20/16 09:45:31  5-MIN KAVL 201445Z 36016G26KT 10SM CLR 02/M09 A3012 1980 43 900 360/16G26 RMK AO2 PK WND 34032/1427 T00171094
03812KAVL AVL20161120095014111/20/16 09:50:31  5-MIN KAVL 201450Z 35016G26KT 10SM CLR 02/M09 A3012 1980 43 900 350/16G26 RMK AO2 PK WND 34032/1427 SLP207 T00171094 53001
03812KAVL AVL20161120095511011/20/16 09:55:31  5-MIN KAVL 201455Z 35017G26KT 10SM CLR 02/M09 A3012 1980 43 900 360/17G26 RMK AO2 T00171094
03812KAVL AVL20161120100011111/20/16 10:00:31  5-MIN KAVL 201500Z 35018G24KT 10SM CLR 02/M09 A3012 1990 42 1000 350/18G24 RMK AO2 T00221094
03812KAVL AVL20161120100511111/20/16 10:05:31  5-MIN KAVL 201505Z 36016G24KT 10SM CLR 02/M09 A3012 1990 42 1000 360/16G24 RMK AO2 T00221094
03812KAVL AVL20161120101011111/20/16 10:10:31  5-MIN KAVL 201510Z 36016G24KT 10SM CLR 02/M09 A3012 1990 42 1000 360/16G24 RMK AO2 T00221094
03812KAVL AVL20161120101512911/20/16 10:15:31  5-MIN KAVL 201515Z 35015G26KT 10SM CLR 03/M09 A3012 1990 40 1000 350/15G26 RMK AO2 PK WND 35026/1513 T00281094
03812KAVL AVL20161120102012911/20/16 10:20:31  5-MIN KAVL 201520Z 35017G26KT 10SM CLR 03/M09 A3012 1980 40 1000 360/17G26 RMK AO2 PK WND 35026/1513 T00281094
03812KAVL AVL20161120102512911/20/16 10:25:31  5-MIN KAVL 201525Z 35017G25KT 10SM CLR 03/M09 A3012 1980 40 1000 360/17G25 RMK AO2 PK WND 35026/1513 T00281094
03812KAVL AVL20161120103012911/20/16 10:30:31  5-MIN KAVL 201530Z 35016G27KT 10SM CLR 03/M09 A3012 1980 40 1000 360/16G27 RMK AO2 PK WND 35027/1527 T00281094
03812KAVL AVL20161120103512911/20/16 10:35:31  5-MIN KAVL 201535Z 35016G27KT 10SM CLR 03/M09 A3012 1980 40 1000 360/16G27 RMK AO2 PK WND 35027/1527 T00281094
03812KAVL AVL20161120104012911/20/16 10:40:31  5-MIN KAVL 201540Z 36014G23KT 10SM CLR 03/M09 A3013 1980 39 1100 010/14G23 RMK AO2 PK WND 35027/1527 T00331094
03812KAVL AVL20161120104512911/20/16 10:45:31  5-MIN KAVL 201545Z 35019G23KT 10SM CLR 03/M10 A3012 1980 37 1100 360/19G23 RMK AO2 PK WND 35027/1527 T00331100
03812KAVL AVL20161120105013611/20/16 10:50:31  5-MIN KAVL 201550Z 35016G25KT 10SM CLR 03/M10 A3013 1980 37 1100 360/16G25 RMK AO2 PK WND 35027/1527 SLP206 T00331100
03812KAVL AVL20161120105511111/20/16 10:55:31  5-MIN KAVL 201555Z 35015G25KT 10SM CLR 03/M10 A3012 1980 37 1100 360/15G25 RMK AO2 T00331100
03812KAVL AVL20161120110011111/20/16 11:00:31  5-MIN KAVL 201600Z 36012G25KT 10SM CLR 03/M10 A3013 1980 37 1100 360/12G25 RMK AO2 T00331100
03812KAVL AVL20161120110512911/20/16 11:05:31  5-MIN KAVL 201605Z 36018G27KT 10SM CLR 03/M11 A3013 1980 35 1100 360/18G27 RMK AO2 PK WND 35027/1604 T00331106
03812KAVL AVL20161120111012911/20/16 11:10:31  5-MIN KAVL 201610Z 36014G27KT 10SM CLR 04/M10 A3013 1980 35 1200 010/14G27 RMK AO2 PK WND 35027/1604 T00391100
03812KAVL AVL20161120111512911/20/16 11:15:31  5-MIN KAVL 201615Z 36013G23KT 10SM CLR 04/M11 A3013 1980 34 1100 360/13G23 RMK AO2 PK WND 35027/1604 T00391106
03812KAVL AVL20161120112012911/20/16 11:20:31  5-MIN KAVL 201620Z 35015G23KT 10SM CLR 04/M11 A3013 1980 33 1200 360/15G23 RMK AO2 PK WND 35027/1604 T00441106
03812KAVL AVL20161120112512911/20/16 11:25:31  5-MIN KAVL 201625Z 36018G24KT 10SM CLR 04/M11 A3013 1970 32 1100 360/18G24 RMK AO2 PK WND 35027/1604 T00391111
03812KAVL AVL20161120113012911/20/16 11:30:31  5-MIN KAVL 201630Z 35018G28KT 10SM CLR 04/M11 A3013 1970 32 1100 360/18G28 RMK AO2 PK WND 34028/1628 T00391111
03812KAVL AVL20161120113512911/20/16 11:35:31  5-MIN KAVL 201635Z 35017G28KT 10SM CLR 04/M11 A3013 1970 31 1200 350/17G28 RMK AO2 PK WND 34028/1628 T00441111
03812KAVL AVL20161120114012911/20/16 11:40:31  5-MIN KAVL 201640Z 35018G30KT 10SM CLR 05/M11 A3013 1970 30 1300 360/18G30 RMK AO2 PK WND 33030/1637 T00501111
03812KAVL AVL20161120114512911/20/16 11:45:31  5-MIN KAVL 201645Z 36017G30KT 10SM CLR 04/M12 A3013 1970 30 1200 010/17G30 RMK AO2 PK WND 33030/1637 T00441117
03812KAVL AVL20161120115013611/20/16 11:50:31  5-MIN KAVL 201650Z 35015G27KT 10SM CLR 04/M11 A3013 1970 31 1200 360/15G27 RMK AO2 PK WND 33030/1637 SLP208 T00441111
03812KAVL AVL20161120115511111/20/16 11:55:31  5-MIN KAVL 201655Z 36017G23KT 10SM CLR 04/M11 A3013 1980 31 1200 360/17G23 RMK AO2 T00441111
03812KAVL AVL20161120120011111/20/16 12:00:31  5-MIN KAVL 201700Z 36018G25KT 10SM CLR 04/M11 A3012 1980 31 1200 360/18G25 RMK AO2 T00441111
03812KAVL AVL20161120120511111/20/16 12:05:31  5-MIN KAVL 201705Z 36017G25KT 10SM CLR 05/M11 A3012 1980 30 1300 360/17G25 RMK AO2 T00501111
03812KAVL AVL20161120121011111/20/16 12:10:31  5-MIN KAVL 201710Z 35015G25KT 10SM CLR 05/M11 A3012 1990 30 1300 350/15G25 RMK AO2 T00501111
03812KAVL AVL20161120121511111/20/16 12:15:31  5-MIN KAVL 201715Z 36015G24KT 10SM CLR 05/M12 A3011 1990 29 1300 010/15G24 RMK AO2 T00501117
03812KAVL AVL20161120122012911/20/16 12:20:31  5-MIN KAVL 201720Z 36014G26KT 10SM CLR 05/M11 A3011 1990 30 1300 360/14G26 RMK AO2 PK WND 35026/1717 T00501111
03812KAVL AVL20161120122512911/20/16 12:25:31  5-MIN KAVL 201725Z 35016G26KT 10SM CLR 05/M12 A3011 2000 29 1300 360/16G26 RMK AO2 PK WND 35026/1717 T00501117
03812KAVL AVL20161120123012911/20/16 12:30:31  5-MIN KAVL 201730Z 35016G25KT 10SM CLR 05/M12 A3011 2000 29 1300 360/16G25 RMK AO2 PK WND 35026/1717 T00501117
03812KAVL AVL20161120123512911/20/16 12:35:31  5-MIN KAVL 201735Z 36016G27KT 10SM CLR 05/M12 A3011 2000 29 1300 360/16G27 RMK AO2 PK WND 35027/1733 T00501117
03812KAVL AVL20161120124012911/20/16 12:40:31  5-MIN KAVL 201740Z 35014G27KT 10SM CLR 06/M12 A3011 2000 28 1400 360/14G27 RMK AO2 PK WND 35027/1733 T00561117
03812KAVL AVL20161120124512911/20/16 12:45:31  5-MIN KAVL 201745Z 35016G23KT 10SM CLR 06/M12 A3010 2000 28 1400 360/16G23 RMK AO2 PK WND 35027/1733 T00561117
03812KAVL AVL20161120125015411/20/16 12:50:31  5-MIN KAVL 201750Z 35013G23KT 10SM CLR 06/M12 A3010 2000 27 1400 360/13G23 RMK AO2 PK WND 35027/1733 SLP197 T00611117 10061 21011 50006
03812KAVL AVL20161120125511111/20/16 12:55:31  5-MIN KAVL 201755Z 35014G23KT 10SM CLR 06/M12 A3010 2000 25 1400 360/14G23 RMK AO2 T00611122
03812KAVL AVL20161120130011111/20/16 13:00:31  5-MIN KAVL 201800Z 36012G22KT 10SM CLR 07/M12 A3010 2000 26 1500 360/12G22 RMK AO2 T00671117
03812KAVL AVL20161120130511111/20/16 13:05:31  5-MIN KAVL 201805Z 36014G21KT 10SM CLR 06/M12 A3010 2000 25 1400 360/14G21 RMK AO2 T00611122
03812KAVL AVL20161120131011111/20/16 13:10:31  5-MIN KAVL 201810Z 35018G25KT 10SM CLR 06/M12 A3010 2000 25 1500 350/18G25 RMK AO2 T00611122
03812KAVL AVL20161120131512911/20/16 13:15:31  5-MIN KAVL 201815Z 34014G27KT 10SM CLR 06/M13 A3010 2010 24 1500 340/14G27 RMK AO2 PK WND 34027/1811 T00611128
03812KAVL AVL20161120132012911/20/16 13:20:31  5-MIN KAVL 201820Z 35016G27KT 10SM CLR 06/M13 A3010 2010 24 1500 350/16G27 RMK AO2 PK WND 34027/1811 T00611128
03812KAVL AVL20161120132512911/20/16 13:25:31  5-MIN KAVL 201825Z 35013G21KT 10SM CLR 07/M13 A3009 2010 23 1500 360/13G21 RMK AO2 PK WND 34027/1811 T00671128
03812KAVL AVL20161120133012911/20/16 13:30:31  5-MIN KAVL 201830Z 35014G19KT 10SM CLR 07/M13 A3010 2010 23 1500 350/14G19 RMK AO2 PK WND 34027/1811 T00671128
03812KAVL AVL20161120133512911/20/16 13:35:31  5-MIN KAVL 201835Z 35013G23KT 10SM CLR 06/M13 A3009 2010 23 1500 360/13G23 RMK AO2 PK WND 34027/1811 T00611133
03812KAVL AVL20161120134012911/20/16 13:40:31  5-MIN KAVL 201840Z 36014G23KT 10SM CLR 06/M13 A3009 2010 23 1500 360/14G23 RMK AO2 PK WND 34027/1811 T00611133
03812KAVL AVL20161120134512911/20/16 13:45:31  5-MIN KAVL 201845Z 36014G23KT 10SM CLR 07/M13 A3010 2000 23 1500 360/14G23 RMK AO2 PK WND 34027/1811 T00671128
03812KAVL AVL20161120135013611/20/16 13:50:31  5-MIN KAVL 201850Z 36012G21KT 10SM CLR 06/M13 A3010 2000 24 1500 360/12G21 RMK AO2 PK WND 34027/1811 SLP196 T00611128
03812KAVL AVL20161120135511111/20/16 13:55:31  5-MIN KAVL 201855Z 36014G21KT 10SM CLR 07/M13 A3010 2000 23 1500 010/14G21 RMK AO2 T00671128
03812KAVL AVL20161120140011111/20/16 14:00:31  5-MIN KAVL 201900Z 36014G22KT 10SM CLR 07/M13 A3010 2000 22 1500 010/14G22 RMK AO2 T00671133
03812KAVL AVL20161120140511111/20/16 14:05:31  5-MIN KAVL 201905Z 01013G22KT 10SM CLR 07/M13 A3010 2010 22 1500 010/13G22 RMK AO2 T00671133
03812KAVL AVL20161120141011111/20/16 14:10:31  5-MIN KAVL 201910Z 36014G22KT 10SM CLR 07/M13 A3010 2010 22 1500 010/14G22 RMK AO2 T00671133
03812KAVL AVL20161120141511111/20/16 14:15:31  5-MIN KAVL 201915Z 35016G24KT 10SM CLR 07/M13 A3010 2010 22 1500 360/16G24 RMK AO2 T00671133
03812KAVL AVL20161120142011111/20/16 14:20:31  5-MIN KAVL 201920Z 35013G24KT 10SM CLR 07/M13 A3009 2010 22 1500 360/13G24 RMK AO2 T00671133
03812KAVL AVL20161120142511111/20/16 14:25:31  5-MIN KAVL 201925Z 36015G23KT 10SM CLR 07/M13 A3009 2010 22 1500 360/15G23 RMK AO2 T00671133
03812KAVL AVL20161120143011111/20/16 14:30:31  5-MIN KAVL 201930Z 35015G24KT 10SM CLR 07/M13 A3009 2010 22 1500 360/15G24 RMK AO2 T00671133
03812KAVL AVL20161120143511111/20/16 14:35:31  5-MIN KAVL 201935Z 36012G24KT 10SM CLR 07/M13 A3009 2010 22 1500 010/12G24 RMK AO2 T00671133
03812KAVL AVL20161120144012911/20/16 14:40:31  5-MIN KAVL 201940Z 35012G27KT 10SM CLR 07/M13 A3009 2020 22 1600 360/12G27 RMK AO2 PK WND 33027/1936 T00721133
03812KAVL AVL20161120144512911/20/16 14:45:31  5-MIN KAVL 201945Z 35015G27KT 10SM CLR 07/M13 A3008 2020 22 1500 360/15G27 RMK AO2 PK WND 33027/1936 T00671133
03812KAVL AVL20161120145013611/20/16 14:50:31  5-MIN KAVL 201950Z 35014G26KT 10SM CLR 07/M13 A3009 2010 22 1500 360/14G26 RMK AO2 PK WND 33027/1936 SLP192 T00671133
03812KAVL AVL20161120145511111/20/16 14:55:31  5-MIN KAVL 201955Z 36011G26KT 10SM CLR 07/M13 A3008 2020 22 1500 360/11G26 RMK AO2 T00671133
03812KAVL AVL20161120150011111/20/16 15:00:31  5-MIN KAVL 202000Z 35013G23KT 10SM CLR 07/M13 A3008 2020 23 1500 360/13G23 RMK AO2 T00671128
03812KAVL AVL20161120150511111/20/16 15:05:31  5-MIN KAVL 202005Z 36013G23KT 10SM CLR 07/M13 A3008 2020 23 1500 360/13G23 RMK AO2 T00671128
03812KAVL AVL20161120151011111/20/16 15:10:31  5-MIN KAVL 202010Z 36013G21KT 10SM CLR 07/M13 A3007 2030 23 1500 010/13G21 RMK AO2 T00671128
03812KAVL AVL20161120151511111/20/16 15:15:31  5-MIN KAVL 202015Z 36014G21KT 10SM CLR 07/M13 A3007 2030 22 1500 360/14G21 RMK AO2 T00671133
03812KAVL AVL20161120152011611/20/16 15:20:31  5-MIN KAVL 202020Z AUTO 36014G23KT 10SM CLR 07/M13 A3007 2030 22 1500 360/14G23 RMK AO2 T00671133
03812KAVL AVL20161120152511611/20/16 15:25:31  5-MIN KAVL 202025Z AUTO 35014G23KT 10SM CLR 07/M13 A3007 2030 22 1600 360/14G23 RMK AO2 T00671133
03812KAVL AVL20161120153013411/20/16 15:30:31  5-MIN KAVL 202030Z AUTO 36018G26KT 10SM CLR 07/M13 A3007 2030 22 1600 010/18G26 RMK AO2 PK WND 35026/2028 T00671133
03812KAVL AVL20161120153513411/20/16 15:35:31  5-MIN KAVL 202035Z AUTO 35018G26KT 10SM CLR 07/M13 A3007 2030 22 1500 360/18G26 RMK AO2 PK WND 35026/2028 T00671133
03812KAVL AVL20161120154013411/20/16 15:40:31  5-MIN KAVL 202040Z AUTO 35014G24KT 10SM CLR 06/M13 A3007 2030 23 1500 360/14G24 RMK AO2 PK WND 35026/2028 T00611133
03812KAVL AVL20161120154513411/20/16 15:45:31  5-MIN KAVL 202045Z AUTO 36016G22KT 10SM CLR 07/M13 A3008 2020 22 1500 360/16G22 RMK AO2 PK WND 35026/2028 T00671133
03812KAVL AVL20161120155014211/20/16 15:50:31  5-MIN KAVL 202050Z 35015G21KT 10SM CLR 06/M13 A3008 2020 23 1500 360/15G21 RMK AO2 PK WND 35026/2028 SLP192 T00611133 58006
03812KAVL AVL20161120155511111/20/16 15:55:31  5-MIN KAVL 202055Z 36015G26KT 10SM CLR 06/M13 A3009 2010 23 1500 360/15G26 RMK AO2 T00611133
03812KAVL AVL20161120160011111/20/16 16:00:31  5-MIN KAVL 202100Z 34016G26KT 10SM CLR 06/M13 A3009 2010 23 1500 350/16G26 RMK AO2 T00611133
03812KAVL AVL20161120160511111/20/16 16:05:31  5-MIN KAVL 202105Z 35017G24KT 10SM CLR 06/M13 A3009 2010 23 1500 350/17G24 RMK AO2 T00611133
03812KAVL AVL20161120161012911/20/16 16:10:31  5-MIN KAVL 202110Z 35016G27KT 10SM CLR 06/M13 A3009 2010 23 1500 350/16G27 RMK AO2 PK WND 34027/2106 T00611133
03812KAVL AVL20161120161512911/20/16 16:15:31  5-MIN KAVL 202115Z 35015G27KT 10SM CLR 06/M13 A3010 2010 24 1400 360/15G27 RMK AO2 PK WND 34027/2106 T00561133
03812KAVL AVL20161120162012911/20/16 16:20:31  5-MIN KAVL 202120Z 36014G25KT 10SM CLR 06/M13 A3010 2000 24 1400 010/14G25 RMK AO2 PK WND 34027/2106 T00561133
03812KAVL AVL20161120162512911/20/16 16:25:31  5-MIN KAVL 202125Z 35014G25KT 10SM CLR 06/M13 A3010 2010 24 1400 360/14G25 RMK AO2 PK WND 34027/2106 T00561133
03812KAVL AVL20161120163012911/20/16 16:30:31  5-MIN KAVL 202130Z 35014G25KT 10SM CLR 06/M13 A3009 2010 24 1400 350/14G25 RMK AO2 PK WND 34027/2106 T00561133
03812KAVL AVL20161120163512911/20/16 16:35:31  5-MIN KAVL 202135Z 35010G25KT 10SM CLR 06/M13 A3009 2010 24 1400 360/10G25 RMK AO2 PK WND 34027/2106 T00561133
03812KAVL AVL20161120164012911/20/16 16:40:31  5-MIN KAVL 202140Z 36012G20KT 10SM CLR 06/M13 A3009 2010 24 1400 360/12G20 RMK AO2 PK WND 34027/2106 T00561133
03812KAVL AVL20161120164512911/20/16 16:45:31  5-MIN KAVL 202145Z 36012G21KT 10SM CLR 06/M14 A3009 2020 23 1400 360/12G21 RMK AO2 PK WND 34027/2106 T00561139
03812KAVL AVL20161120165013611/20/16 16:50:31  5-MIN KAVL 202150Z 35013G21KT 10SM CLR 05/M14 A3009 2020 24 1300 350/13G21 RMK AO2 PK WND 34027/2106 SLP193 T00501139
03812KAVL AVL20161120165511111/20/16 16:55:31  5-MIN KAVL 202155Z 35013G23KT 10SM CLR 05/M14 A3009 2020 24 1300 360/13G23 RMK AO2 T00501139
03812KAVL AVL20161120170011111/20/16 17:00:31  5-MIN KAVL 202200Z 35013G23KT 10SM CLR 05/M14 A3009 2010 24 1300 360/13G23 RMK AO2 T00501139
03812KAVL AVL20161120170511111/20/16 17:05:31  5-MIN KAVL 202205Z 35014G21KT 10SM CLR 05/M14 A3009 2010 24 1300 350/14G21 RMK AO2 T00501139
03812KAVL AVL20161120171011111/20/16 17:10:31  5-MIN KAVL 202210Z 35015G22KT 10SM CLR 04/M14 A3009 2010 25 1300 350/15G22 RMK AO2 T00441139
03812KAVL AVL20161120171511111/20/16 17:15:31  5-MIN KAVL 202215Z 34013G22KT 10SM CLR 04/M13 A3009 2010 26 1300 350/13G22 RMK AO2 T00441133
03812KAVL AVL20161120172011111/20/16 17:20:31  5-MIN KAVL 202220Z 35012G20KT 10SM CLR 04/M13 A3009 2010 26 1300 350/12G20 RMK AO2 T00441133
03812KAVL AVL20161120172511111/20/16 17:25:31  5-MIN KAVL 202225Z 35013G20KT 10SM CLR 04/M13 A3009 2010 26 1300 360/13G20 RMK AO2 T00441133
03812KAVL AVL20161120173011111/20/16 17:30:31  5-MIN KAVL 202230Z 34014G19KT 10SM CLR 04/M13 A3009 2010 27 1200 350/14G19 RMK AO2 T00391133
03812KAVL AVL20161120173511111/20/16 17:35:31  5-MIN KAVL 202235Z 35013G21KT 10SM CLR 04/M13 A3009 2010 27 1200 350/13G21 RMK AO2 T00391133
03812KAVL AVL20161120174011111/20/16 17:40:31  5-MIN KAVL 202240Z 35013G21KT 10SM CLR 04/M13 A3009 2010 27 1200 350/13G21 RMK AO2 T00391133
03812KAVL AVL20161120174511111/20/16 17:45:31  5-MIN KAVL 202245Z 35013G19KT 10SM CLR 04/M13 A3009 2010 27 1200 350/13G19 RMK AO2 T00391133
03812KAVL AVL20161120175011811/20/16 17:50:31  5-MIN KAVL 202250Z 35013G19KT 10SM CLR 04/M13 A3010 2010 27 1200 350/13G19 RMK AO2 SLP199 T00391133
03812KAVL AVL20161120175511111/20/16 17:55:31  5-MIN KAVL 202255Z 35012G19KT 10SM CLR 04/M13 A3010 2000 28 1200 360/12G19 RMK AO2 T00391128
03812KAVL AVL20161120180011111/20/16 18:00:31  5-MIN KAVL 202300Z 35014G21KT 10SM CLR 04/M13 A3010 2010 27 1200 350/14G21 RMK AO2 T00391133
03812KAVL AVL20161120180511111/20/16 18:05:31  5-MIN KAVL 202305Z 35014G21KT 10SM CLR 04/M13 A3010 2000 27 1200 360/14G21 RMK AO2 T00391133
03812KAVL AVL20161120181011111/20/16 18:10:31  5-MIN KAVL 202310Z 35015G20KT 10SM CLR 03/M13 A3010 2000 28 1100 360/15G20 RMK AO2 T00331133
03812KAVL AVL20161120181511111/20/16 18:15:31  5-MIN KAVL 202315Z 34014G20KT 10SM CLR 03/M13 A3010 2000 30 1100 350/14G20 RMK AO2 T00331128
03812KAVL AVL20161120182011111/20/16 18:20:31  5-MIN KAVL 202320Z 35010G20KT 10SM CLR 03/M13 A3010 2000 30 1100 350/10G20 RMK AO2 T00331128
03812KAVL AVL20161120182511111/20/16 18:25:31  5-MIN KAVL 202325Z 34012G20KT 10SM CLR 03/M13 A3010 2000 30 1100 350/12G20 RMK AO2 T00331128
03812KAVL AVL20161120183011111/20/16 18:30:31  5-MIN KAVL 202330Z 34012G19KT 10SM CLR 03/M13 A3010 2000 30 1100 340/12G19 RMK AO2 T00331128
03812KAVL AVL20161120183511111/20/16 18:35:31  5-MIN KAVL 202335Z 35011G19KT 10SM CLR 03/M13 A3010 2000 30 1100 350/11G19 RMK AO2 T00331128
03812KAVL AVL20161120184011111/20/16 18:40:31  5-MIN KAVL 202340Z 35013G20KT 10SM CLR 03/M13 A3010 2000 30 1100 360/13G20 RMK AO2 T00331128
03812KAVL AVL20161120184511111/20/16 18:45:31  5-MIN KAVL 202345Z 35012G20KT 10SM CLR 03/M13 A3010 2000 30 1100 360/12G20 RMK AO2 T00331128
03812KAVL AVL20161120185013611/20/16 18:50:31  5-MIN KAVL 202350Z 35012G19KT 10SM CLR 03/M13 A3010 2000 30 1100 360/12G19 RMK AO2 SLP203 T00331128 10072 20033 55005
03812KAVL AVL20161120185510511/20/16 18:55:31  5-MIN KAVL 202355Z 35013KT 10SM CLR 03/M13 A3010 2000 30 1100 360/13 RMK AO2 T00331128
03812KAVL AVL20161120190011111/20/16 19:00:31  5-MIN KAVL 210000Z 36009G18KT 10SM CLR 03/M13 A3010 2000 31 1000 360/09G18 RMK AO2 T00281128
03812KAVL AVL20161120190511111/20/16 19:05:31  5-MIN KAVL 210005Z 35009G18KT 10SM CLR 03/M12 A3010 2000 32 1000 360/09G18 RMK AO2 T00281122
03812KAVL AVL20161120191010511/20/16 19:10:31  5-MIN KAVL 210010Z 35011KT 10SM CLR 03/M12 A3010 2000 32 1000 360/11 RMK AO2 T00281122
03812KAVL AVL20161120191511111/20/16 19:15:31  5-MIN KAVL 210015Z 35010G18KT 10SM CLR 03/M12 A3010 2000 32 1000 360/10G18 RMK AO2 T00281122
03812KAVL AVL20161120192011111/20/16 19:20:31  5-MIN KAVL 210020Z 35011G18KT 10SM CLR 03/M12 A3010 2000 32 1000 360/11G18 RMK AO2 T00281122
03812KAVL AVL20161120192510511/20/16 19:25:31  5-MIN KAVL 210025Z 35012KT 10SM CLR 03/M12 A3010 2000 32 1000 360/12 RMK AO2 T00281122
03812KAVL AVL20161120193011111/20/16 19:30:31  5-MIN KAVL 210030Z 35011G17KT 10SM CLR 03/M12 A3010 2000 32 1000 350/11G17 RMK AO2 T00281122
03812KAVL AVL20161120193511111/20/16 19:35:31  5-MIN KAVL 210035Z 35013G22KT 10SM CLR 03/M12 A3010 2000 32 1000 360/13G22 RMK AO2 T00281122
03812KAVL AVL20161120194011111/20/16 19:40:31  5-MIN KAVL 210040Z 35011G22KT 10SM CLR 03/M12 A3010 2000 32 1000 350/11G22 RMK AO2 T00281122
03812KAVL AVL20161120194511111/20/16 19:45:31  5-MIN KAVL 210045Z 35010G18KT 10SM CLR 03/M12 A3010 2000 32 1000 360/10G18 RMK AO2 T00281122
03812KAVL AVL20161120195011811/20/16 19:50:31  5-MIN KAVL 210050Z 35011G18KT 10SM CLR 03/M12 A3010 2000 32 1000 360/11G18 RMK AO2 SLP201 T00281122
03812KAVL AVL20161120195511111/20/16 19:55:31  5-MIN KAVL 210055Z 35012G18KT 10SM CLR 03/M13 A3010 2000 31 1000 360/12G18 RMK AO2 T00281128
03812KAVL AVL20161120200011111/20/16 20:00:31  5-MIN KAVL 210100Z 36010G18KT 10SM CLR 03/M13 A3010 2000 31 1000 010/10G18 RMK AO2 T00281128
03812KAVL AVL20161120200510511/20/16 20:05:31  5-MIN KAVL 210105Z 36010KT 10SM CLR 03/M13 A3010 2010 31 1000 010/10 RMK AO2 T00281128
03812KAVL AVL20161120201011111/20/16 20:10:31  5-MIN KAVL 210110Z 36013G18KT 10SM CLR 03/M13 A3010 2000 31 1000 010/13G18 RMK AO2 T00281128
03812KAVL AVL20161120201511111/20/16 20:15:31  5-MIN KAVL 210115Z 36013G19KT 10SM CLR 03/M13 A3009 2010 31 1100 010/13G19 RMK AO2 T00281128
03812KAVL AVL20161120202011111/20/16 20:20:31  5-MIN KAVL 210120Z 36013G19KT 10SM CLR 03/M13 A3009 2010 31 1100 360/13G19 RMK AO2 T00281128
03812KAVL AVL20161120202511111/20/16 20:25:31  5-MIN KAVL 210125Z 36012G19KT 10SM CLR 02/M13 A3009 2010 32 1000 010/12G19 RMK AO2 T00221128
03812KAVL AVL20161120203011111/20/16 20:30:31  5-MIN KAVL 210130Z 35013G19KT 10SM CLR 02/M13 A3009 2010 32 1000 360/13G19 RMK AO2 T00221128
03812KAVL AVL20161120203511111/20/16 20:35:31  5-MIN KAVL 210135Z 36011G19KT 10SM CLR 02/M13 A3009 2010 32 1000 360/11G19 RMK AO2 T00221128
03812KAVL AVL20161120204011111/20/16 20:40:31  5-MIN KAVL 210140Z 36012G19KT 10SM CLR 02/M13 A3009 2010 32 1000 360/12G19 RMK AO2 T00221128
03812KAVL AVL20161120204511111/20/16 20:45:31  5-MIN KAVL 210145Z 36010G18KT 10SM CLR 02/M13 A3009 2010 32 1000 360/10G18 RMK AO2 T00221128
03812KAVL AVL20161120205011811/20/16 20:50:31  5-MIN KAVL 210150Z 36011G18KT 10SM CLR 02/M13 A3009 2010 32 1000 360/11G18 RMK AO2 SLP197 T00221128
03812KAVL AVL20161120205511111/20/16 20:55:31  5-MIN KAVL 210155Z 36010G19KT 10SM CLR 02/M13 A3009 2010 32 1000 010/10G19 RMK AO2 T00221128
03812KAVL AVL20161120210011111/20/16 21:00:31  5-MIN KAVL 210200Z 36011G19KT 10SM CLR 02/M13 A3009 2010 32 1000 360/11G19 RMK AO2 T00221128
03812KAVL AVL20161120210510511/20/16 21:05:31  5-MIN KAVL 210205Z 36012KT 10SM CLR 02/M13 A3009 2010 32 1000 360/12 RMK AO2 T00221128
03812KAVL AVL20161120211010511/20/16 21:10:31  5-MIN KAVL 210210Z 36013KT 10SM CLR 02/M13 A3009 2010 32 1000 010/13 RMK AO2 T00221128
03812KAVL AVL20161120211511111/20/16 21:15:31  5-MIN KAVL 210215Z 36011G19KT 10SM CLR 02/M13 A3009 2010 32 1000 010/11G19 RMK AO2 T00221128
03812KAVL AVL20161120212011111/20/16 21:20:31  5-MIN KAVL 210220Z 35013G19KT 10SM CLR 02/M13 A3009 2010 32 1000 360/13G19 RMK AO2 T00221128
03812KAVL AVL20161120212511111/20/16 21:25:31  5-MIN KAVL 210225Z 35013G20KT 10SM CLR 02/M13 A3009 2010 32 1000 360/13G20 RMK AO2 T00221128
03812KAVL AVL20161120213011111/20/16 21:30:31  5-MIN KAVL 210230Z 36012G20KT 10SM CLR 02/M13 A3009 2010 32 1000 360/12G20 RMK AO2 T00221128
03812KAVL AVL20161120213511111/20/16 21:35:31  5-MIN KAVL 210235Z 36012G22KT 10SM CLR 02/M13 A3009 2010 32 1000 360/12G22 RMK AO2 T00221128
03812KAVL AVL20161120214011111/20/16 21:40:31  5-MIN KAVL 210240Z 36012G22KT 10SM CLR 02/M13 A3009 2010 31 1000 360/12G22 RMK AO2 T00221133
03812KAVL AVL20161120214511111/20/16 21:45:31  5-MIN KAVL 210245Z 35014G20KT 10SM CLR 02/M13 A3009 2010 31 1000 360/14G20 RMK AO2 T00221133
03812KAVL AVL20161120215012411/20/16 21:50:31  5-MIN KAVL 210250Z 36012G20KT 10SM CLR 03/M13 A3009 2010 29 1100 010/12G20 RMK AO2 SLP197 T00281133 53005
03812KAVL AVL20161120215511111/20/16 21:55:31  5-MIN KAVL 210255Z 35014G22KT 10SM CLR 02/M13 A3009 2010 32 1000 360/14G22 RMK AO2 T00221128
03812KAVL AVL20161120220011311/20/16 22:00:31  5-MIN KAVL 210300Z 36015G22KT 10SM CLR 02/M13 A3009 2010 32 1000 360/15G22 RMK AO2 T00221128 $
03812KAVL AVL20161120220511311/20/16 22:05:31  5-MIN KAVL 210305Z 35014G22KT 10SM CLR 02/M13 A3009 2010 32 1000 360/14G22 RMK AO2 T00221128 $
03812KAVL AVL20161120221011311/20/16 22:10:31  5-MIN KAVL 210310Z 36014G22KT 10SM CLR 02/M13 A3009 2010 32 1000 360/14G22 RMK AO2 T00221128 $
03812KAVL AVL20161120221511311/20/16 22:15:31  5-MIN KAVL 210315Z 36015G23KT 10SM CLR 02/M13 A3009 2010 32 1000 360/15G23 RMK AO2 T00221128 $
03812KAVL AVL20161120222011311/20/16 22:20:31  5-MIN KAVL 210320Z 35014G23KT 10SM CLR 02/M13 A3008 2020 32 1000 360/14G23 RMK AO2 T00221128 $
03812KAVL AVL20161120222511311/20/16 22:25:31  5-MIN KAVL 210325Z 35012G22KT 10SM CLR 02/M13 A3008 2020 32 1000 360/12G22 RMK AO2 T00221128 $
03812KAVL AVL20161120223011311/20/16 22:30:31  5-MIN KAVL 210330Z 36012G21KT 10SM CLR 02/M12 A3008 2020 33 1000 360/12G21 RMK AO2 T00221122 $
03812KAVL AVL20161120223511311/20/16 22:35:31  5-MIN KAVL 210335Z 35014G21KT 10SM CLR 02/M12 A3008 2020 33 1000 360/14G21 RMK AO2 T00221122 $
03812KAVL AVL20161120224011311/20/16 22:40:31  5-MIN KAVL 210340Z 35016G21KT 10SM CLR 02/M12 A3008 2020 33 1000 360/16G21 RMK AO2 T00221122 $
03812KAVL AVL20161120224511311/20/16 22:45:31  5-MIN KAVL 210345Z 35013G21KT 10SM CLR 02/M12 A3008 2020 33 1000 350/13G21 RMK AO2 T00221122 $
03812KAVL AVL20161120225011411/20/16 22:50:31  5-MIN KAVL 210350Z 36014KT 10SM CLR 02/M12 A3008 2020 33 1000 360/14 RMK AO2 SLP192 T00221122 $
03812KAVL AVL20161120225511811/20/16 22:55:31  5-MIN KAVL 210355Z AUTO 36017G22KT 10SM CLR 02/M13 A3008 2020 32 1000 360/17G22 RMK AO2 T00221128 $
03812KAVL AVL20161120230011811/20/16 23:00:31  5-MIN KAVL 210400Z AUTO 35016G23KT 10SM CLR 02/M13 A3008 2020 32 1000 350/16G23 RMK AO2 T00221128 $
03812KAVL AVL20161120230511811/20/16 23:05:31  5-MIN KAVL 210405Z AUTO 36013G24KT 10SM CLR 02/M13 A3008 2020 32 1000 360/13G24 RMK AO2 T00221128 $
03812KAVL AVL20161120231011811/20/16 23:10:31  5-MIN KAVL 210410Z AUTO 35016G24KT 10SM CLR 02/M13 A3008 2020 31 1000 360/16G24 RMK AO2 T00221133 $
03812KAVL AVL20161120231511811/20/16 23:15:31  5-MIN KAVL 210415Z AUTO 35013G23KT 10SM CLR 02/M13 A3007 2030 31 1000 360/13G23 RMK AO2 T00221133 $
03812KAVL AVL20161120232011811/20/16 23:20:31  5-MIN KAVL 210420Z AUTO 36016G24KT 10SM CLR 02/M13 A3007 2030 31 1000 360/16G24 RMK AO2 T00221133 $
03812KAVL AVL20161120232511811/20/16 23:25:31  5-MIN KAVL 210425Z AUTO 36017G24KT 10SM CLR 02/M13 A3007 2030 31 1000 010/17G24 RMK AO2 T00221133 $
03812KAVL AVL20161120233011811/20/16 23:30:31  5-MIN KAVL 210430Z AUTO 35012G22KT 10SM CLR 02/M13 A3008 2020 31 1000 360/12G22 RMK AO2 T00221133 $
03812KAVL AVL20161120233511711/20/16 23:35:31  5-MIN KAVL 210435Z AUTO 35018G22KT 10SM CLR 02/M13 A3007 2030 32 900 360/18G22 RMK AO2 T00171133 $
03812KAVL AVL20161120234013611/20/16 23:40:31  5-MIN KAVL 210440Z AUTO 35019G28KT 10SM CLR 02/M13 A3007 2030 31 1000 350/19G28 RMK AO2 PK WND 33028/0439 T00221133 $
03812KAVL AVL20161120234513511/20/16 23:45:31  5-MIN KAVL 210445Z AUTO 35018G28KT 10SM CLR 02/M13 A3007 2030 32 900 360/18G28 RMK AO2 PK WND 33028/0439 T00171133 $
03812KAVL AVL20161120235015211/20/16 23:50:31  5-MIN KAVL 210450Z AUTO 35018G25KT 10SM CLR 02/M13 A3007 2030 32 900 360/18G25 RMK AO2 PK WND 33028/0439 SLP187 T00171133 400721011 $
03812KAVL AVL20161120235511711/20/16 23:55:31  5-MIN KAVL 210455Z AUTO 35018G29KT 10SM CLR 02/M14 A3007 2030 30 900 360/18G29 RMK AO2 T00171139 $
03812KAVL AVL20161121000011711/21/16 00:00:31  5-MIN KAVL 210500Z AUTO 35016G29KT 10SM CLR 02/M13 A3007 2030 32 900 360/16G29 RMK AO2 T00171133 $
03812KAVL AVL20161121000513511/21/16 00:05:31  5-MIN KAVL 210505Z AUTO 36018G27KT 10SM CLR 02/M13 A3006 2030 32 900 360/18G27 RMK AO2 PK WND 35026/0505 T00171133 $
03812KAVL AVL20161121001013511/21/16 00:10:31  5-MIN KAVL 210510Z AUTO 36019G27KT 10SM CLR 02/M13 A3006 2030 32 900 360/19G27 RMK AO2 PK WND 36027/0510 T00171133 $
03812KAVL AVL20161121001513511/21/16 00:15:31  5-MIN KAVL 210515Z AUTO 36015G27KT 10SM CLR 02/M13 A3007 2030 32 900 360/15G27 RMK AO2 PK WND 36027/0510 T00171133 $
03812KAVL AVL20161121002013511/21/16 00:20:31  5-MIN KAVL 210520Z AUTO 35013G23KT 10SM CLR 02/M13 A3007 2030 32 900 360/13G23 RMK AO2 PK WND 36027/0510 T00171133 $
03812KAVL AVL20161121002513511/21/16 00:25:31  5-MIN KAVL 210525Z AUTO 36012G23KT 10SM CLR 02/M13 A3007 2030 32 900 360/12G23 RMK AO2 PK WND 36027/0510 T00171133 $
03812KAVL AVL20161121003013511/21/16 00:30:31  5-MIN KAVL 210530Z AUTO 36011G20KT 10SM CLR 02/M13 A3007 2030 33 900 360/11G20 RMK AO2 PK WND 36027/0510 T00171128 $
03812KAVL AVL20161121003513511/21/16 00:35:31  5-MIN KAVL 210535Z AUTO 36011G20KT 10SM CLR 01/M13 A3008 2020 35 900 360/11G20 RMK AO2 PK WND 36027/0510 T00111128 $
03812KAVL AVL20161121004013511/21/16 00:40:31  5-MIN KAVL 210540Z AUTO 36011G18KT 10SM CLR 01/M13 A3008 2020 35 900 010/11G18 RMK AO2 PK WND 36027/0510 T00111128 $
03812KAVL AVL20161121004513511/21/16 00:45:31  5-MIN KAVL 210545Z AUTO 35012G19KT 10SM CLR 01/M13 A3008 2020 35 900 350/12G19 RMK AO2 PK WND 36027/0510 T00111128 $
03812KAVL AVL20161121005016011/21/16 00:50:31  5-MIN KAVL 210550Z AUTO 35010G19KT 10SM CLR 01/M13 A3008 2020 35 900 360/10G19 RMK AO2 PK WND 36027/0510 SLP189 T00111128 10033 20011 55004 $
03812KAVL AVL20161121005511711/21/16 00:55:31  5-MIN KAVL 210555Z AUTO 36011G16KT 10SM CLR 01/M13 A3008 2020 35 900 360/11G16 RMK AO2 T00111128 $
03812KAVL AVL20161121010011711/21/16 01:00:31  5-MIN KAVL 210600Z AUTO 36011G17KT 10SM CLR 01/M12 A3008 2020 36 900 360/11G17 RMK AO2 T00111122 $
03812KAVL AVL20161121010511711/21/16 01:05:31  5-MIN KAVL 210605Z AUTO 36011G18KT 10SM CLR 01/M12 A3008 2020 36 900 360/11G18 RMK AO2 T00111122 $
03812KAVL AVL20161121011011711/21/16 01:10:31  5-MIN KAVL 210610Z AUTO 36013G18KT 10SM CLR 01/M12 A3008 2020 36 900 360/13G18 RMK AO2 T00111122 $
03812KAVL AVL20161121011511111/21/16 01:15:31  5-MIN KAVL 210615Z AUTO 35011KT 10SM CLR 01/M12 A3007 2030 36 900 360/11 RMK AO2 T00111122 $
03812KAVL AVL20161121012011111/21/16 01:20:31  5-MIN KAVL 210620Z AUTO 36011KT 10SM CLR 01/M12 A3007 2030 36 900 360/11 RMK AO2 T00111122 $
03812KAVL AVL20161121012511711/21/16 01:25:31  5-MIN KAVL 210625Z AUTO 36012G19KT 10SM CLR 01/M12 A3007 2030 36 900 010/12G19 RMK AO2 T00111122 $
03812KAVL AVL20161121013011711/21/16 01:30:31  5-MIN KAVL 210630Z AUTO 36014G19KT 10SM CLR 01/M12 A3007 2030 36 900 010/14G19 RMK AO2 T00111122 $
03812KAVL AVL20161121013511711/21/16 01:35:31  5-MIN KAVL 210635Z AUTO 35012G19KT 10SM CLR 01/M12 A3007 2030 36 900 360/12G19 RMK AO2 T00111122 $
03812KAVL AVL20161121014011711/21/16 01:40:31  5-MIN KAVL 210640Z AUTO 36009G19KT 10SM CLR 01/M12 A3007 2030 38 900 360/09G19 RMK AO2 T00111117 $
03812KAVL AVL20161121014511711/21/16 01:45:31  5-MIN KAVL 210645Z AUTO 35011G18KT 10SM CLR 01/M12 A3007 2030 38 900 360/11G18 RMK AO2 T00111117 $
03812KAVL AVL20161121015012411/21/16 01:50:31  5-MIN KAVL 210650Z AUTO 35011G18KT 10SM CLR 01/M12 A3007 2030 38 900 350/11G18 RMK AO2 SLP186 T00111117 $
03812KAVL AVL20161121015511711/21/16 01:55:31  5-MIN KAVL 210655Z AUTO 35011G20KT 10SM CLR 01/M12 A3007 2030 38 900 360/11G20 RMK AO2 T00111117 $
03812KAVL AVL20161121020011711/21/16 02:00:31  5-MIN KAVL 210700Z AUTO 35012G20KT 10SM CLR 01/M12 A3007 2030 38 900 350/12G20 RMK AO2 T00111117 $
03812KAVL AVL20161121020511711/21/16 02:05:31  5-MIN KAVL 210705Z AUTO 35012G20KT 10SM CLR 01/M12 A3007 2030 38 900 360/12G20 RMK AO2 T00111117 $
03812KAVL AVL20161121021011711/21/16 02:10:31  5-MIN KAVL 210710Z AUTO 35011G20KT 10SM CLR 01/M12 A3007 2030 39 800 360/11G20 RMK AO2 T00061117 $
03812KAVL AVL20161121021511711/21/16 02:15:31  5-MIN KAVL 210715Z AUTO 35012G17KT 10SM CLR 01/M12 A3007 2030 39 800 360/12G17 RMK AO2 T00061117 $
03812KAVL AVL20161121022011711/21/16 02:20:31  5-MIN KAVL 210720Z AUTO 36011G18KT 10SM CLR 01/M12 A3007 2030 39 800 360/11G18 RMK AO2 T00061117 $
03812KAVL AVL20161121022511111/21/16 02:25:31  5-MIN KAVL 210725Z AUTO 35012KT 10SM CLR 01/M12 A3007 2030 39 800 360/12 RMK AO2 T00061117 $
03812KAVL AVL20161121023011711/21/16 02:30:31  5-MIN KAVL 210730Z AUTO 35010G18KT 10SM CLR 01/M12 A3007 2030 39 800 350/10G18 RMK AO2 T00061117 $
03812KAVL AVL20161121023511111/21/16 02:35:31  5-MIN KAVL 210735Z AUTO 35010KT 10SM CLR 01/M12 A3007 2030 39 800 360/10 RMK AO2 T00061117 $
03812KAVL AVL20161121024011111/21/16 02:40:31  5-MIN KAVL 210740Z AUTO 36012KT 10SM CLR 01/M12 A3007 2030 39 800 360/12 RMK AO2 T00061117 $
03812KAVL AVL20161121024511111/21/16 02:45:31  5-MIN KAVL 210745Z AUTO 35012KT 10SM CLR 01/M12 A3007 2030 39 800 360/12 RMK AO2 T00061117 $
03812KAVL AVL20161121025012411/21/16 02:50:31  5-MIN KAVL 210750Z AUTO 35011G18KT 10SM CLR 01/M12 A3007 2030 39 800 360/11G18 RMK AO2 SLP188 T00061117 $
03812KAVL AVL20161121025511711/21/16 02:55:31  5-MIN KAVL 210755Z AUTO 36013G22KT 10SM CLR 01/M12 A3007 2030 39 800 360/13G22 RMK AO2 T00061117 $
03812KAVL AVL20161121030011711/21/16 03:00:31  5-MIN KAVL 210800Z AUTO 36012G22KT 10SM CLR 01/M12 A3007 2030 39 800 360/12G22 RMK AO2 T00061117 $
03812KAVL AVL20161121030511111/21/16 03:05:31  5-MIN KAVL 210805Z AUTO 36012KT 10SM CLR 01/M12 A3007 2030 39 800 360/12 RMK AO2 T00061117 $
03812KAVL AVL20161121031011711/21/16 03:10:31  5-MIN KAVL 210810Z AUTO 36012G18KT 10SM CLR 01/M12 A3007 2030 39 800 360/12G18 RMK AO2 T00061117 $
03812KAVL AVL20161121031511711/21/16 03:15:31  5-MIN KAVL 210815Z AUTO 36015G19KT 10SM CLR 01/M12 A3008 2020 39 800 010/15G19 RMK AO2 T00061117 $
03812KAVL AVL20161121032011711/21/16 03:20:31  5-MIN KAVL 210820Z AUTO 36012G22KT 10SM CLR 01/M12 A3007 2030 39 800 360/12G22 RMK AO2 T00061117 $
03812KAVL AVL20161121032511711/21/16 03:25:31  5-MIN KAVL 210825Z AUTO 36012G22KT 10SM CLR 01/M12 A3007 2030 39 800 010/12G22 RMK AO2 T00061117 $
03812KAVL AVL20161121033011711/21/16 03:30:31  5-MIN KAVL 210830Z AUTO 35011G20KT 10SM CLR 01/M12 A3007 2030 39 800 360/11G20 RMK AO2 T00061117 $
03812KAVL AVL20161121033511711/21/16 03:35:31  5-MIN KAVL 210835Z AUTO 35014G22KT 10SM CLR 01/M11 A3007 2030 41 800 360/14G22 RMK AO2 T00061111 $
03812KAVL AVL20161121034011711/21/16 03:40:31  5-MIN KAVL 210840Z AUTO 36013G22KT 10SM CLR 01/M11 A3007 2030 41 800 010/13G22 RMK AO2 T00061111 $
03812KAVL AVL20161121034511711/21/16 03:45:31  5-MIN KAVL 210845Z AUTO 36012G20KT 10SM CLR 00/M11 A3007 2030 43 700 360/12G20 RMK AO2 T00001111 $
03812KAVL AVL20161121035013011/21/16 03:50:31  5-MIN KAVL 210850Z AUTO 36013G20KT 10SM CLR 00/M11 A3007 2030 43 700 360/13G20 RMK AO2 SLP187 T00001111 55005 $
03812KAVL AVL20161121035511711/21/16 03:55:31  5-MIN KAVL 210855Z AUTO 36013G19KT 10SM CLR 00/M11 A3007 2030 43 700 360/13G19 RMK AO2 T00001111 $
03812KAVL AVL20161121040011711/21/16 04:00:31  5-MIN KAVL 210900Z AUTO 35013G19KT 10SM CLR 00/M11 A3007 2030 43 700 360/13G19 RMK AO2 T00001111 $
03812KAVL AVL20161121040511711/21/16 04:05:31  5-MIN KAVL 210905Z AUTO 35013G19KT 10SM CLR 00/M11 A3007 2030 43 700 360/13G19 RMK AO2 T00001111 $
03812KAVL AVL20161121041011711/21/16 04:10:31  5-MIN KAVL 210910Z AUTO 36011G19KT 10SM CLR 00/M11 A3007 2030 43 700 360/11G19 RMK AO2 T00001111 $
03812KAVL AVL20161121041511711/21/16 04:15:31  5-MIN KAVL 210915Z AUTO 36011G17KT 10SM CLR 00/M11 A3008 2020 43 700 360/11G17 RMK AO2 T00001111 $
03812KAVL AVL20161121042011711/21/16 04:20:31  5-MIN KAVL 210920Z AUTO 36011G17KT 10SM CLR 00/M11 A3008 2020 43 700 010/11G17 RMK AO2 T00001111 $
03812KAVL AVL20161121042511111/21/16 04:25:31  5-MIN KAVL 210925Z AUTO 36012KT 10SM CLR 00/M11 A3008 2020 43 700 360/12 RMK AO2 T00001111 $
03812KAVL AVL20161121043011711/21/16 04:30:31  5-MIN KAVL 210930Z AUTO 35013G18KT 10SM CLR 00/M11 A3008 2020 43 700 360/13G18 RMK AO2 T00001111 $
03812KAVL AVL20161121043511711/21/16 04:35:31  5-MIN KAVL 210935Z AUTO 36013G18KT 10SM CLR 00/M11 A3008 2020 43 700 360/13G18 RMK AO2 T00001111 $
03812KAVL AVL20161121044011711/21/16 04:40:31  5-MIN KAVL 210940Z AUTO 35011G18KT 10SM CLR 00/M11 A3009 2010 43 700 360/11G18 RMK AO2 T00001111 $
03812KAVL AVL20161121044511111/21/16 04:45:31  5-MIN KAVL 210945Z AUTO 36009KT 10SM CLR 00/M11 A3009 2010 43 700 360/09 RMK AO2 T00001111 $
03812KAVL AVL20161121045011811/21/16 04:50:31  5-MIN KAVL 210950Z AUTO 35010KT 10SM CLR 00/M11 A3010 2010 43 700 360/10 RMK AO2 SLP197 T00001111 $
03812KAVL AVL20161121045511111/21/16 04:55:31  5-MIN KAVL 210955Z AUTO 36010KT 10SM CLR 00/M11 A3010 2000 43 700 360/10 RMK AO2 T00001111 $
03812KAVL AVL20161121050011111/21/16 05:00:31  5-MIN KAVL 211000Z AUTO 36010KT 10SM CLR 00/M11 A3010 2000 43 700 010/10 RMK AO2 T00001111 $
03812KAVL AVL20161121050511111/21/16 05:05:31  5-MIN KAVL 211005Z AUTO 36008KT 10SM CLR 00/M11 A3010 2000 43 700 360/08 RMK AO2 T00001111 $
03812KAVL AVL20161121051011111/21/16 05:10:31  5-MIN KAVL 211010Z AUTO 36010KT 10SM CLR 00/M11 A3010 2000 43 700 010/10 RMK AO2 T00001111 $
03812KAVL AVL20161121051511111/21/16 05:15:31  5-MIN KAVL 211015Z AUTO 35010KT 10SM CLR 00/M11 A3011 1990 43 700 360/10 RMK AO2 T00001111 $
03812KAVL AVL20161121052011111/21/16 05:20:31  5-MIN KAVL 211020Z AUTO 35012KT 10SM CLR 00/M11 A3011 1990 43 700 360/12 RMK AO2 T00001111 $
03812KAVL AVL20161121052511111/21/16 05:25:31  5-MIN KAVL 211025Z AUTO 35010KT 10SM CLR 00/M11 A3011 1990 43 700 360/10 RMK AO2 T00001111 $
03812KAVL AVL20161121053011111/21/16 05:30:31  5-MIN KAVL 211030Z AUTO 36009KT 10SM CLR 00/M11 A3011 1990 43 700 360/09 RMK AO2 T00001111 $
03812KAVL AVL20161121053511111/21/16 05:35:31  5-MIN KAVL 211035Z AUTO 36009KT 10SM CLR 00/M11 A3011 1990 43 700 010/09 RMK AO2 T00001111 $
03812KAVL AVL20161121054011111/21/16 05:40:31  5-MIN KAVL 211040Z AUTO 36011KT 10SM CLR 00/M11 A3011 1990 43 700 360/11 RMK AO2 T00001111 $
03812KAVL AVL20161121054511711/21/16 05:45:31  5-MIN KAVL 211045Z AUTO 36010G20KT 10SM CLR 00/M11 A3011 1990 43 700 010/10G20 RMK AO2 T00001111 $
03812KAVL AVL20161121055012411/21/16 05:50:31  5-MIN KAVL 211050Z AUTO 36012G20KT 10SM CLR 00/M11 A3011 1990 43 700 360/12G20 RMK AO2 SLP204 T00001111 $
03812KAVL AVL20161121055511711/21/16 05:55:31  5-MIN KAVL 211055Z AUTO 36010G18KT 10SM CLR 00/M11 A3012 1990 43 700 360/10G18 RMK AO2 T00001111 $
03812KAVL AVL20161121060011211/21/16 06:00:31  5-MIN KAVL 211100Z AUTO 01009KT 10SM CLR M01/M11 A3012 1990 45 600 010/09 RMK AO2 T10061111 $
03812KAVL AVL20161121060511711/21/16 06:05:31  5-MIN KAVL 211105Z AUTO 36013G18KT 10SM CLR 00/M11 A3012 1980 45 700 010/13G18 RMK AO2 T00001106 $
03812KAVL AVL20161121061011111/21/16 06:10:31  5-MIN KAVL 211110Z AUTO 36010KT 10SM CLR 00/M11 A3012 1980 45 700 010/10 RMK AO2 T00001106 $
03812KAVL AVL20161121061511211/21/16 06:15:31  5-MIN KAVL 211115Z AUTO 36011KT 10SM CLR M01/M11 A3013 1980 47 600 010/11 RMK AO2 T10061106 $
03812KAVL AVL20161121062011311/21/16 06:20:31  5-MIN KAVL 211120Z 36012G18KT 10SM CLR M01/M11 A3013 1980 47 600 010/12G18 RMK AO2 T10061106 $
03812KAVL AVL20161121062511311/21/16 06:25:31  5-MIN KAVL 211125Z 36011G18KT 10SM CLR M01/M11 A3013 1980 47 600 360/11G18 RMK AO2 T10061106 $
03812KAVL AVL20161121063010711/21/16 06:30:31  5-MIN KAVL 211130Z 36012KT 10SM CLR M01/M11 A3013 1970 47 600 360/12 RMK AO2 T10061106 $
03812KAVL AVL20161121063511211/21/16 06:35:31  5-MIN KAVL 211135Z 36013G18KT 10SM CLR 00/M11 A3013 1970 45 700 010/13G18 RMK AO2 T00001106 $
03812KAVL AVL20161121064011211/21/16 06:40:31  5-MIN KAVL 211140Z 36012G18KT 10SM CLR 00/M11 A3013 1970 45 700 360/12G18 RMK AO2 T00001106 $
03812KAVL AVL20161121064511211/21/16 06:45:31  5-MIN KAVL 211145Z 35014G23KT 10SM CLR 00/M11 A3014 1970 45 700 360/14G23 RMK AO2 T00001106 $
03812KAVL AVL20161121065013711/21/16 06:50:31  5-MIN KAVL 211150Z 36010G23KT 10SM CLR 00/M11 A3014 1970 45 700 010/10G23 RMK AO2 SLP213 T00001106 10011 21006 56002 $
03812KAVL AVL20161121065511211/21/16 06:55:31  5-MIN KAVL 211155Z 35011G17KT 10SM CLR 00/M11 A3014 1970 45 700 360/11G17 RMK AO2 T00001106 $
03812KAVL AVL20161121070010611/21/16 07:00:31  5-MIN KAVL 211200Z 35010KT 10SM CLR 00/M11 A3014 1970 45 700 360/10 RMK AO2 T00001106 $
03812KAVL AVL20161121070510611/21/16 07:05:31  5-MIN KAVL 211205Z 35009KT 10SM CLR 00/M11 A3014 1970 45 700 360/09 RMK AO2 T00001106 $
03812KAVL AVL20161121071010611/21/16 07:10:31  5-MIN KAVL 211210Z 35009KT 10SM CLR 00/M11 A3014 1960 45 700 360/09 RMK AO2 T00001106 $
03812KAVL AVL20161121071510711/21/16 07:15:31  5-MIN KAVL 211215Z 35011KT 10SM CLR M01/M11 A3014 1960 47 600 350/11 RMK AO2 T10061106 $
03812KAVL AVL20161121072010711/21/16 07:20:31  5-MIN KAVL 211220Z 35009KT 10SM CLR M01/M11 A3014 1960 47 600 360/09 RMK AO2 T10061106 $
03812KAVL AVL20161121072511211/21/16 07:25:31  5-MIN KAVL 211225Z 34011G17KT 10SM CLR 00/M11 A3014 1960 45 700 340/11G17 RMK AO2 T00001106 $
03812KAVL AVL20161121073010611/21/16 07:30:31  5-MIN KAVL 211230Z 35009KT 10SM CLR 00/M11 A3014 1960 45 700 350/09 RMK AO2 T00001106 $
03812KAVL AVL20161121073510611/21/16 07:35:31  5-MIN KAVL 211235Z 35011KT 10SM CLR 00/M11 A3014 1960 45 700 360/11 RMK AO2 T00001106 $
03812KAVL AVL20161121074010611/21/16 07:40:31  5-MIN KAVL 211240Z 35010KT 10SM CLR 00/M11 A3014 1960 45 700 350/10 RMK AO2 T00001106 $
03812KAVL AVL20161121074510611/21/16 07:45:31  5-MIN KAVL 211245Z 35011KT 10SM CLR 00/M11 A3014 1960 45 700 360/11 RMK AO2 T00001106 $
03812KAVL AVL20161121075011311/21/16 07:50:31  5-MIN KAVL 211250Z 35011KT 10SM CLR 00/M11 A3015 1960 45 600 350/11 RMK AO2 SLP216 T00001106 $
03812KAVL AVL20161121075510611/21/16 07:55:31  5-MIN KAVL 211255Z 35012KT 10SM CLR 00/M11 A3015 1960 45 600 350/12 RMK AO2 T00001106 $
03812KAVL AVL20161121080011211/21/16 08:00:31  5-MIN KAVL 211300Z 34013G19KT 10SM CLR 00/M11 A3015 1960 45 600 350/13G19 RMK AO2 T00001106 $
03812KAVL AVL20161121080511211/21/16 08:05:31  5-MIN KAVL 211305Z 35012G19KT 10SM CLR 00/M11 A3015 1950 45 600 350/12G19 RMK AO2 T00001106 $
03812KAVL AVL20161121081010411/21/16 08:10:31  5-MIN KAVL 211310Z 35011KT 10SM CLR 00/M11 A3015 1950 45 600 350/11 RMK AO2 T00001106
03812KAVL AVL20161121081510411/21/16 08:15:31  5-MIN KAVL 211315Z 36011KT 10SM CLR 00/M11 A3015 1950 45 600 360/11 RMK AO2 T00001106
03812KAVL AVL20161121082010411/21/16 08:20:31  5-MIN KAVL 211320Z 35012KT 10SM CLR 01/M11 A3016 1950 43 700 360/12 RMK AO2 T00061106
03812KAVL AVL20161121082511011/21/16 08:25:31  5-MIN KAVL 211325Z 35012G19KT 10SM CLR 01/M11 A3016 1950 43 700 360/12G19 RMK AO2 T00061106
03812KAVL AVL20161121083011011/21/16 08:30:31  5-MIN KAVL 211330Z 34014G21KT 10SM CLR 01/M11 A3016 1950 43 700 350/14G21 RMK AO2 T00061106
03812KAVL AVL20161121083511011/21/16 08:35:31  5-MIN KAVL 211335Z 35011G21KT 10SM CLR 01/M11 A3016 1950 43 700 350/11G21 RMK AO2 T00061106
03812KAVL AVL20161121084011011/21/16 08:40:31  5-MIN KAVL 211340Z 35010G18KT 10SM CLR 01/M11 A3016 1940 41 800 360/10G18 RMK AO2 T00111106
03812KAVL AVL20161121084511011/21/16 08:45:31  5-MIN KAVL 211345Z 35013G20KT 10SM CLR 01/M11 A3016 1950 41 800 350/13G20 RMK AO2 T00111106
03812KAVL AVL20161121085011711/21/16 08:50:31  5-MIN KAVL 211350Z 35017G23KT 10SM CLR 01/M11 A3016 1950 41 800 360/17G23 RMK AO2 SLP221 T00111106
03812KAVL AVL20161121085511011/21/16 08:55:31  5-MIN KAVL 211355Z 35015G23KT 10SM CLR 01/M11 A3016 1950 40 800 360/15G23 RMK AO2 T00111111
03812KAVL AVL20161121090011011/21/16 09:00:31  5-MIN KAVL 211400Z 35015G20KT 10SM CLR 02/M11 A3016 1940 38 800 360/15G20 RMK AO2 T00171111
03812KAVL AVL20161121090511011/21/16 09:05:31  5-MIN KAVL 211405Z 35017G23KT 10SM CLR 02/M11 A3016 1940 38 800 360/17G23 RMK AO2 T00171111
03812KAVL AVL20161121091011011/21/16 09:10:31  5-MIN KAVL 211410Z 35015G23KT 10SM CLR 02/M11 A3017 1940 38 800 350/15G23 RMK AO2 T00171111
03812KAVL AVL20161121091510411/21/16 09:15:31  5-MIN KAVL 211415Z 35013KT 10SM CLR 02/M11 A3017 1940 38 800 360/13 RMK AO2 T00171111
03812KAVL AVL20161121092010411/21/16 09:20:31  5-MIN KAVL 211420Z 36013KT 10SM CLR 02/M11 A3017 1940 37 900 360/13 RMK AO2 T00221111
03812KAVL AVL20161121092511011/21/16 09:25:31  5-MIN KAVL 211425Z 36011G18KT 10SM CLR 02/M11 A3017 1940 37 900 360/11G18 RMK AO2 T00221111
03812KAVL AVL20161121093011011/21/16 09:30:31  5-MIN KAVL 211430Z 34015G18KT 10SM CLR 02/M11 A3017 1940 37 900 350/15G18 RMK AO2 T00221111
03812KAVL AVL20161121093510411/21/16 09:35:31  5-MIN KAVL 211435Z 36011KT 10SM CLR 02/M11 A3017 1940 37 900 010/11 RMK AO2 T00221111
03812KAVL AVL20161121094011111/21/16 09:40:31  5-MIN KAVL 211440Z 34013G20KT 10SM CLR 03/M11 A3017 1940 35 1000 350/13G20 RMK AO2 T00281111
03812KAVL AVL20161121094511111/21/16 09:45:31  5-MIN KAVL 211445Z 34010G20KT 10SM CLR 03/M11 A3017 1940 34 1000 350/10G20 RMK AO2 T00331111
03812KAVL AVL20161121095012411/21/16 09:50:31  5-MIN KAVL 211450Z 01009G18KT 10SM CLR 03/M11 A3017 1940 34 1000 010/09G18 RMK AO2 SLP222 T00331111 51021
03812KAVL AVL20161121095511111/21/16 09:55:31  5-MIN KAVL 211455Z 35011G19KT 10SM CLR 03/M12 A3017 1940 32 1000 350/11G19 RMK AO2 T00331117
03812KAVL AVL20161121100011111/21/16 10:00:31  5-MIN KAVL 211500Z 01015G19KT 10SM CLR 04/M12 A3017 1930 31 1100 010/15G19 RMK AO2 T00391117
03812KAVL AVL20161121100511111/21/16 10:05:31  5-MIN KAVL 211505Z 36012G18KT 10SM CLR 04/M12 A3017 1930 30 1100 010/12G18 RMK AO2 T00391122
03812KAVL AVL20161121101010511/21/16 10:10:31  5-MIN KAVL 211510Z 36012KT 10SM CLR 04/M12 A3018 1930 30 1100 360/12 RMK AO2 T00391122
03812KAVL AVL20161121101510511/21/16 10:15:31  5-MIN KAVL 211515Z 36011KT 10SM CLR 04/M13 A3018 1930 28 1100 010/11 RMK AO2 T00391128
03812KAVL AVL20161121102010511/21/16 10:20:31  5-MIN KAVL 211520Z 36011KT 10SM CLR 04/M13 A3018 1930 27 1200 010/11 RMK AO2 T00441128
03812KAVL AVL20161121102510511/21/16 10:25:31  5-MIN KAVL 211525Z 35012KT 10SM CLR 04/M13 A3018 1930 27 1200 360/12 RMK AO2 T00441128
03812KAVL AVL20161121103010511/21/16 10:30:31  5-MIN KAVL 211530Z 36012KT 10SM CLR 05/M13 A3018 1930 25 1200 360/12 RMK AO2 T00501133
03812KAVL AVL20161121103510511/21/16 10:35:31  5-MIN KAVL 211535Z 35015KT 10SM CLR 05/M13 A3017 1930 25 1200 360/15 RMK AO2 T00501133
03812KAVL AVL20161121104011111/21/16 10:40:31  5-MIN KAVL 211540Z 35012G19KT 10SM CLR 06/M13 A3017 1930 24 1300 360/12G19 RMK AO2 T00561133
03812KAVL AVL20161121104511111/21/16 10:45:31  5-MIN KAVL 211545Z 35014G19KT 10SM CLR 06/M14 A3017 1930 23 1300 350/14G19 RMK AO2 T00561139
03812KAVL AVL20161121105011211/21/16 10:50:31  5-MIN KAVL 211550Z 34013KT 10SM CLR 06/M14 A3017 1940 23 1300 350/13 RMK AO2 SLP222 T00561139
03812KAVL AVL20161121105510511/21/16 10:55:31  5-MIN KAVL 211555Z 34013KT 10SM CLR 06/M14 A3017 1940 22 1400 350/13 RMK AO2 T00611139
03812KAVL AVL20161121110010511/21/16 11:00:31  5-MIN KAVL 211600Z 35013KT 10SM CLR 06/M14 A3017 1940 22 1400 360/13 RMK AO2 T00611139
03812KAVL AVL20161121110510511/21/16 11:05:31  5-MIN KAVL 211605Z 36012KT 10SM CLR 06/M14 A3017 1940 21 1400 360/12 RMK AO2 T00611144
03812KAVL AVL20161121111011111/21/16 11:10:31  5-MIN KAVL 211610Z 36013G17KT 10SM CLR 06/M14 A3016 1940 21 1400 360/13G17 RMK AO2 T00611144
03812KAVL AVL20161121111511111/21/16 11:15:31  5-MIN KAVL 211615Z 35012G18KT 10SM CLR 06/M14 A3016 1950 21 1400 360/12G18 RMK AO2 T00611144
03812KAVL AVL20161121112011111/21/16 11:20:31  5-MIN KAVL 211620Z 35012G18KT 10SM CLR 07/M14 A3016 1950 20 1500 360/12G18 RMK AO2 T00671144
03812KAVL AVL20161121112510511/21/16 11:25:31  5-MIN KAVL 211625Z 35011KT 10SM CLR 07/M14 A3016 1950 20 1500 350/11 RMK AO2 T00671144
03812KAVL AVL20161121113010511/21/16 11:30:31  5-MIN KAVL 211630Z 36012KT 10SM CLR 07/M15 A3016 1950 20 1500 010/12 RMK AO2 T00671150
03812KAVL AVL20161121113510511/21/16 11:35:31  5-MIN KAVL 211635Z 36013KT 10SM CLR 07/M15 A3016 1950 20 1500 360/13 RMK AO2 T00671150
03812KAVL AVL20161121114010511/21/16 11:40:31  5-MIN KAVL 211640Z 36013KT 10SM CLR 07/M16 A3015 1950 19 1500 010/13 RMK AO2 T00671156
03812KAVL AVL20161121114511111/21/16 11:45:31  5-MIN KAVL 211645Z 35012G18KT 10SM CLR 07/M16 A3015 1950 18 1500 360/12G18 RMK AO2 T00721156
03812KAVL AVL20161121115011811/21/16 11:50:31  5-MIN KAVL 211650Z 01011G18KT 10SM CLR 07/M16 A3015 1950 18 1500 010/11G18 RMK AO2 SLP214 T00721156
03812KAVL AVL20161121115511111/21/16 11:55:31  5-MIN KAVL 211655Z 35011G19KT 10SM CLR 07/M16 A3015 1960 17 1500 360/11G19 RMK AO2 T00721161
03812KAVL AVL20161121120011111/21/16 12:00:31  5-MIN KAVL 211700Z 36011G19KT 10SM CLR 08/M16 A3015 1960 17 1600 360/11G19 RMK AO2 T00781161
03812KAVL AVL20161121120511111/21/16 12:05:31  5-MIN KAVL 211705Z 35012G19KT 10SM CLR 08/M16 A3015 1960 17 1600 360/12G19 RMK AO2 T00781161
03812KAVL AVL20161121121011111/21/16 12:10:31  5-MIN KAVL 211710Z 36014G19KT 10SM CLR 08/M17 A3015 1960 16 1600 360/14G19 RMK AO2 T00781167
03812KAVL AVL20161121121511111/21/16 12:15:31  5-MIN KAVL 211715Z 35012G19KT 10SM CLR 08/M17 A3014 1960 16 1600 360/12G19 RMK AO2 T00781167
03812KAVL AVL20161121122010511/21/16 12:20:31  5-MIN KAVL 211720Z 36010KT 10SM CLR 08/M17 A3014 1960 15 1700 360/10 RMK AO2 T00831167
03812KAVL AVL20161121122510511/21/16 12:25:31  5-MIN KAVL 211725Z 35015KT 10SM CLR 08/M17 A3014 1960 14 1700 350/15 RMK AO2 T00831172
03812KAVL AVL20161121123010511/21/16 12:30:31  5-MIN KAVL 211730Z 35014KT 10SM CLR 08/M18 A3014 1970 14 1700 360/14 RMK AO2 T00831178
03812KAVL AVL20161121123510511/21/16 12:35:31  5-MIN KAVL 211735Z 34015KT 10SM CLR 09/M17 A3014 1960 14 1700 350/15 RMK AO2 T00891172
03812KAVL AVL20161121124011111/21/16 12:40:31  5-MIN KAVL 211740Z 35014G20KT 10SM CLR 08/M18 A3014 1970 14 1700 360/14G20 RMK AO2 T00831178
03812KAVL AVL20161121124511111/21/16 12:45:31  5-MIN KAVL 211745Z 35012G20KT 10SM CLR 08/M18 A3013 1970 14 1700 360/12G20 RMK AO2 T00831178
03812KAVL AVL20161121125013611/21/16 12:50:31  5-MIN KAVL 211750Z 36013G20KT 10SM CLR 09/M18 A3013 1970 13 1700 360/13G20 RMK AO2 SLP206 T00891178 10089 21006 53011
03812KAVL AVL20161121125511111/21/16 12:55:31  5-MIN KAVL 211755Z 36015G21KT 10SM CLR 09/M17 A3013 1970 14 1700 360/15G21 RMK AO2 T00891172
03812KAVL AVL20161121130011111/21/16 13:00:31  5-MIN KAVL 211800Z 35012G21KT 10SM CLR 09/M17 A3013 1970 14 1700 360/12G21 RMK AO2 T00891172
03812KAVL AVL20161121130511111/21/16 13:05:31  5-MIN KAVL 211805Z 35012G20KT 10SM CLR 09/M17 A3013 1980 14 1800 360/12G20 RMK AO2 T00891172
03812KAVL AVL20161121131011111/21/16 13:10:31  5-MIN KAVL 211810Z 35011G22KT 10SM CLR 09/M17 A3013 1980 14 1800 360/11G22 RMK AO2 T00891172
03812KAVL AVL20161121131511111/21/16 13:15:31  5-MIN KAVL 211815Z 35014G22KT 10SM CLR 09/M17 A3013 1980 13 1800 360/14G22 RMK AO2 T00941172
03812KAVL AVL20161121132011111/21/16 13:20:31  5-MIN KAVL 211820Z 35013G22KT 10SM CLR 09/M17 A3012 1980 13 1800 350/13G22 RMK AO2 T00941172
03812KAVL AVL20161121132511111/21/16 13:25:31  5-MIN KAVL 211825Z 35016G19KT 10SM CLR 09/M18 A3012 1980 13 1800 350/16G19 RMK AO2 T00941178
03812KAVL AVL20161121133011111/21/16 13:30:31  5-MIN KAVL 211830Z 35013G20KT 10SM CLR 09/M17 A3012 1980 13 1800 360/13G20 RMK AO2 T00941172
03812KAVL AVL20161121133511111/21/16 13:35:31  5-MIN KAVL 211835Z 35013G22KT 10SM CLR 10/M18 A3012 1990 12 1900 360/13G22 RMK AO2 T01001178
03812KAVL AVL20161121134011111/21/16 13:40:31  5-MIN KAVL 211840Z 36013G22KT 10SM CLR 10/M17 A3011 1990 13 1900 010/13G22 RMK AO2 T01001172
03812KAVL AVL20161121134511111/21/16 13:45:31  5-MIN KAVL 211845Z 34013G19KT 10SM CLR 10/M17 A3011 1990 13 1900 350/13G19 RMK AO2 T01001172
03812KAVL AVL20161121135011211/21/16 13:50:31  5-MIN KAVL 211850Z 35012KT 10SM CLR 10/M17 A3011 1990 13 1900 350/12 RMK AO2 SLP199 T01001172
03812KAVL AVL20161121135511111/21/16 13:55:31  5-MIN KAVL 211855Z 35014G20KT 10SM CLR 10/M17 A3011 1990 13 1900 350/14G20 RMK AO2 T01001172
03812KAVL AVL20161121140011111/21/16 14:00:31  5-MIN KAVL 211900Z 35014G21KT 10SM CLR 10/M17 A3011 1990 13 1900 360/14G21 RMK AO2 T01001172
03812KAVL AVL20161121140511111/21/16 14:05:31  5-MIN KAVL 211905Z 35012G22KT 10SM CLR 10/M17 A3011 1990 13 1900 360/12G22 RMK AO2 T01001172
03812KAVL AVL20161121141011111/21/16 14:10:31  5-MIN KAVL 211910Z 35013G22KT 10SM CLR 10/M17 A3011 1990 14 1900 350/13G22 RMK AO2 T01001167
03812KAVL AVL20161121141511111/21/16 14:15:31  5-MIN KAVL 211915Z 36016G21KT 10SM CLR 10/M17 A3011 1990 13 1900 360/16G21 RMK AO2 T01001172
03812KAVL AVL20161121142011111/21/16 14:20:31  5-MIN KAVL 211920Z 35013G21KT 10SM CLR 10/M17 A3011 1990 13 1900 360/13G21 RMK AO2 T01001172
03812KAVL AVL20161121142511111/21/16 14:25:31  5-MIN KAVL 211925Z 34013G21KT 10SM CLR 10/M17 A3011 1990 14 1900 340/13G21 RMK AO2 T01001167
03812KAVL AVL20161121143011111/21/16 14:30:31  5-MIN KAVL 211930Z 35011G18KT 10SM CLR 10/M17 A3011 1990 14 1900 360/11G18 RMK AO2 T01001167
03812KAVL AVL20161121143511111/21/16 14:35:31  5-MIN KAVL 211935Z 36012G18KT 10SM CLR 10/M16 A3011 2000 14 1900 010/12G18 RMK AO2 T01001161
03812KAVL AVL20161121144010511/21/16 14:40:31  5-MIN KAVL 211940Z 35013KT 10SM CLR 10/M17 A3011 1990 14 1900 350/13 RMK AO2 T01001167
03812KAVL AVL20161121144511111/21/16 14:45:31  5-MIN KAVL 211945Z 34014G22KT 10SM CLR 10/M17 A3011 1990 14 1900 350/14G22 RMK AO2 T01001167
03812KAVL AVL20161121145011811/21/16 14:50:31  5-MIN KAVL 211950Z 35012G22KT 10SM CLR 10/M17 A3011 1990 13 1900 350/12G22 RMK AO2 SLP199 T01001172
03812KAVL AVL20161121145511111/21/16 14:55:31  5-MIN KAVL 211955Z 35009G20KT 10SM CLR 11/M17 A3012 1990 13 2000 360/09G20 RMK AO2 T01061167
03812KAVL AVL20161121150011111/21/16 15:00:31  5-MIN KAVL 212000Z 35011G18KT 10SM CLR 10/M17 A3012 1990 14 1900 350/11G18 RMK AO2 T01001167
03812KAVL AVL20161121150511111/21/16 15:05:31  5-MIN KAVL 212005Z 35010G18KT 10SM CLR 11/M16 A3012 1990 14 2000 360/10G18 RMK AO2 T01061161
03812KAVL AVL20161121151011111/21/16 15:10:31  5-MIN KAVL 212010Z 34012G18KT 10SM CLR 11/M17 A3012 1980 13 2000 350/12G18 RMK AO2 T01061167
03812KAVL AVL20161121151510511/21/16 15:15:31  5-MIN KAVL 212015Z 35010KT 10SM CLR 11/M17 A3012 1980 13 2000 360/10 RMK AO2 T01061167
03812KAVL AVL20161121152011111/21/16 15:20:31  5-MIN KAVL 212020Z 35011G19KT 10SM CLR 10/M17 A3012 1980 13 1900 350/11G19 RMK AO2 T01001172
03812KAVL AVL20161121152511111/21/16 15:25:31  5-MIN KAVL 212025Z 36015G20KT 10SM CLR 10/M17 A3012 1990 14 1900 360/15G20 RMK AO2 T01001167
03812KAVL AVL20161121153011111/21/16 15:30:31  5-MIN KAVL 212030Z 35012G20KT 10SM CLR 10/M17 A3012 1980 14 1900 350/12G20 RMK AO2 T01001167
03812KAVL AVL20161121153511111/21/16 15:35:31  5-MIN KAVL 212035Z 35016G21KT 10SM CLR 10/M17 A3012 1990 14 1900 360/16G21 RMK AO2 T01001167
03812KAVL AVL20161121154011111/21/16 15:40:31  5-MIN KAVL 212040Z 35014G21KT 10SM CLR 10/M17 A3012 1980 13 1900 360/14G21 RMK AO2 T01001172
03812KAVL AVL20161121154511111/21/16 15:45:31  5-MIN KAVL 212045Z 35012G21KT 10SM CLR 10/M17 A3012 1980 13 1900 350/12G21 RMK AO2 T01001172
03812KAVL AVL20161121155012411/21/16 15:50:31  5-MIN KAVL 212050Z 35014G19KT 10SM CLR 10/M17 A3012 1980 14 1900 360/14G19 RMK AO2 SLP202 T01001167 58013
03812KAVL AVL20161121155511111/21/16 15:55:31  5-MIN KAVL 212055Z 34014G20KT 10SM CLR 09/M17 A3012 1980 14 1800 350/14G20 RMK AO2 T00941167
03812KAVL AVL20161121160011111/21/16 16:00:31  5-MIN KAVL 212100Z 35012G20KT 10SM CLR 10/M17 A3013 1980 14 1900 360/12G20 RMK AO2 T01001167
03812KAVL AVL20161121160511111/21/16 16:05:31  5-MIN KAVL 212105Z 35013G19KT 10SM CLR 09/M17 A3013 1980 14 1800 360/13G19 RMK AO2 T00941167
03812KAVL AVL20161121161011111/21/16 16:10:31  5-MIN KAVL 212110Z 35010G19KT 10SM CLR 09/M17 A3013 1980 14 1800 360/10G19 RMK AO2 T00941167
03812KAVL AVL20161121161510511/21/16 16:15:31  5-MIN KAVL 212115Z 35013KT 10SM CLR 09/M16 A3013 1970 15 1800 350/13 RMK AO2 T00941161
03812KAVL AVL20161121162010511/21/16 16:20:31  5-MIN KAVL 212120Z 35010KT 10SM CLR 09/M16 A3013 1970 15 1800 350/10 RMK AO2 T00941161
03812KAVL AVL20161121162510511/21/16 16:25:31  5-MIN KAVL 212125Z 35010KT 10SM CLR 09/M16 A3014 1970 15 1800 360/10 RMK AO2 T00941161
03812KAVL AVL20161121163011111/21/16 16:30:31  5-MIN KAVL 212130Z 35009G16KT 10SM CLR 09/M16 A3014 1970 16 1700 350/09G16 RMK AO2 T00891156
03812KAVL AVL20161121163511111/21/16 16:35:31  5-MIN KAVL 212135Z 36009G15KT 10SM CLR 09/M16 A3013 1970 16 1700 360/09G15 RMK AO2 T00891156
03812KAVL AVL20161121164011111/21/16 16:40:31  5-MIN KAVL 212140Z 36010G15KT 10SM CLR 09/M16 A3013 1970 16 1700 010/10G15 RMK AO2 T00891156
03812KAVL AVL20161121164510511/21/16 16:45:31  5-MIN KAVL 212145Z 34009KT 10SM CLR 09/M15 A3013 1970 17 1700 350/09 RMK AO2 T00891150
03812KAVL AVL20161121165011211/21/16 16:50:31  5-MIN KAVL 212150Z 35004KT 10SM CLR 09/M15 A3013 1970 17 1700 360/04 RMK AO2 SLP208 T00891150
03812KAVL AVL20161121165510511/21/16 16:55:31  5-MIN KAVL 212155Z 36009KT 10SM CLR 08/M15 A3014 1970 17 1700 010/09 RMK AO2 T00831150
03812KAVL AVL20161121170010511/21/16 17:00:31  5-MIN KAVL 212200Z 34007KT 10SM CLR 08/M15 A3014 1970 17 1700 340/07 RMK AO2 T00831150
03812KAVL AVL20161121170510511/21/16 17:05:31  5-MIN KAVL 212205Z 36006KT 10SM CLR 08/M15 A3013 1970 18 1600 010/06 RMK AO2 T00781150
03812KAVL AVL20161121171011011/21/16 17:10:31  5-MIN KAVL 212210Z AUTO 35007KT 10SM CLR 07/M14 A3014 1970 20 1500 350/07 RMK AO2 T00721144
03812KAVL AVL20161121171511011/21/16 17:15:31  5-MIN KAVL 212215Z AUTO VRB06KT 10SM CLR 07/M14 A3014 1970 20 1500 VRB/06 RMK AO2 T00721144
03812KAVL AVL20161121172011011/21/16 17:20:31  5-MIN KAVL 212220Z AUTO 35006KT 10SM CLR 07/M14 A3014 1970 20 1500 350/06 RMK AO2 T00721144
03812KAVL AVL20161121172511011/21/16 17:25:31  5-MIN KAVL 212225Z AUTO 35009KT 10SM CLR 07/M14 A3014 1970 20 1500 360/09 RMK AO2 T00721144
03812KAVL AVL20161121173011011/21/16 17:30:31  5-MIN KAVL 212230Z AUTO 35008KT 10SM CLR 07/M14 A3014 1970 21 1500 360/08 RMK AO2 T00721139
03812KAVL AVL20161121173511011/21/16 17:35:31  5-MIN KAVL 212235Z AUTO 35009KT 10SM CLR 07/M14 A3014 1970 21 1500 360/09 RMK AO2 T00721139
03812KAVL AVL20161121174011011/21/16 17:40:31  5-MIN KAVL 212240Z AUTO 35010KT 10SM CLR 07/M14 A3014 1970 21 1500 350/10 RMK AO2 T00721139
03812KAVL AVL20161121174511011/21/16 17:45:31  5-MIN KAVL 212245Z AUTO 36007KT 10SM CLR 06/M14 A3014 1970 22 1400 360/07 RMK AO2 T00611139
03812KAVL AVL20161121175011711/21/16 17:50:31  5-MIN KAVL 212250Z AUTO 35008KT 10SM CLR 07/M14 A3014 1960 21 1500 350/08 RMK AO2 SLP213 T00671139
03812KAVL AVL20161121175511011/21/16 17:55:31  5-MIN KAVL 212255Z AUTO 34009KT 10SM CLR 06/M13 A3014 1960 23 1400 350/09 RMK AO2 T00611133
03812KAVL AVL20161121180011011/21/16 18:00:31  5-MIN KAVL 212300Z AUTO 34011KT 10SM CLR 06/M13 A3015 1960 23 1400 350/11 RMK AO2 T00611133
03812KAVL AVL20161121180511011/21/16 18:05:31  5-MIN KAVL 212305Z AUTO 35008KT 10SM CLR 06/M13 A3015 1960 23 1400 350/08 RMK AO2 T00611133
03812KAVL AVL20161121181011011/21/16 18:10:31  5-MIN KAVL 212310Z AUTO 35009KT 10SM CLR 06/M13 A3015 1960 23 1400 350/09 RMK AO2 T00611133
03812KAVL AVL20161121181511611/21/16 18:15:31  5-MIN KAVL 212315Z AUTO 35007G14KT 10SM CLR 06/M13 A3015 1950 23 1400 350/07G14 RMK AO2 T00611133
03812KAVL AVL20161121182011011/21/16 18:20:31  5-MIN KAVL 212320Z AUTO 35009KT 10SM CLR 06/M13 A3015 1950 24 1300 360/09 RMK AO2 T00561133
03812KAVL AVL20161121182511011/21/16 18:25:31  5-MIN KAVL 212325Z AUTO 35007KT 10SM CLR 06/M13 A3016 1950 24 1300 350/07 RMK AO2 T00561133
03812KAVL AVL20161121183011011/21/16 18:30:31  5-MIN KAVL 212330Z AUTO 35007KT 10SM CLR 06/M13 A3016 1950 24 1300 360/07 RMK AO2 T00561133
03812KAVL AVL20161121183511011/21/16 18:35:31  5-MIN KAVL 212335Z AUTO 35006KT 10SM CLR 06/M13 A3016 1950 24 1300 360/06 RMK AO2 T00561133
03812KAVL AVL20161121184011011/21/16 18:40:31  5-MIN KAVL 212340Z AUTO 34007KT 10SM CLR 06/M13 A3016 1950 24 1300 350/07 RMK AO2 T00561133
03812KAVL AVL20161121184511011/21/16 18:45:31  5-MIN KAVL 212345Z AUTO 35009KT 10SM CLR 06/M13 A3016 1950 24 1300 350/09 RMK AO2 T00561133
03812KAVL AVL20161121185013511/21/16 18:50:31  5-MIN KAVL 212350Z AUTO 34008KT 10SM CLR 05/M13 A3016 1950 25 1200 350/08 RMK AO2 SLP219 T00501133 10106 20050 55003
03812KAVL AVL20161121185511011/21/16 18:55:31  5-MIN KAVL 212355Z AUTO 34009KT 10SM CLR 04/M13 A3016 1950 27 1200 350/09 RMK AO2 T00441128
03812KAVL AVL20161121190011011/21/16 19:00:31  5-MIN KAVL 220000Z AUTO 35007KT 10SM CLR 05/M13 A3016 1950 26 1200 360/07 RMK AO2 T00501128
03812KAVL AVL20161121190511011/21/16 19:05:31  5-MIN KAVL 220005Z AUTO 35007KT 10SM CLR 05/M13 A3016 1950 26 1200 350/07 RMK AO2 T00501128
03812KAVL AVL20161121191011011/21/16 19:10:31  5-MIN KAVL 220010Z AUTO 33008KT 10SM CLR 04/M13 A3016 1940 27 1200 340/08 RMK AO2 T00441128
03812KAVL AVL20161121191511011/21/16 19:15:31  5-MIN KAVL 220015Z AUTO 33008KT 10SM CLR 04/M13 A3016 1940 27 1200 340/08 RMK AO2 T00441128
03812KAVL AVL20161121192011011/21/16 19:20:31  5-MIN KAVL 220020Z AUTO 34009KT 10SM CLR 04/M13 A3017 1940 28 1100 340/09 RMK AO2 T00391128
03812KAVL AVL20161121192511011/21/16 19:25:31  5-MIN KAVL 220025Z AUTO 34008KT 10SM CLR 04/M12 A3017 1940 29 1200 350/08 RMK AO2 T00441122
03812KAVL AVL20161121193011011/21/16 19:30:31  5-MIN KAVL 220030Z AUTO 35007KT 10SM CLR 04/M13 A3016 1940 27 1200 360/07 RMK AO2 T00441128
03812KAVL AVL20161121193511011/21/16 19:35:31  5-MIN KAVL 220035Z AUTO 35009KT 10SM CLR 05/M12 A3016 1940 27 1200 360/09 RMK AO2 T00501122
03812KAVL AVL20161121194011011/21/16 19:40:31  5-MIN KAVL 220040Z AUTO 35008KT 10SM CLR 05/M12 A3016 1940 27 1200 360/08 RMK AO2 T00501122
03812KAVL AVL20161121194511011/21/16 19:45:31  5-MIN KAVL 220045Z AUTO 35006KT 10SM CLR 04/M12 A3016 1940 29 1200 360/06 RMK AO2 T00441122
03812KAVL AVL20161121195011711/21/16 19:50:31  5-MIN KAVL 220050Z AUTO 35007KT 10SM CLR 04/M12 A3017 1940 29 1200 360/07 RMK AO2 SLP222 T00441122
03812KAVL AVL20161121195511011/21/16 19:55:31  5-MIN KAVL 220055Z AUTO 35007KT 10SM CLR 04/M12 A3017 1940 29 1200 360/07 RMK AO2 T00441122
03812KAVL AVL20161121200011011/21/16 20:00:31  5-MIN KAVL 220100Z AUTO 35006KT 10SM CLR 04/M12 A3017 1940 29 1200 360/06 RMK AO2 T00441122
03812KAVL AVL20161121200511011/21/16 20:05:31  5-MIN KAVL 220105Z AUTO 35007KT 10SM CLR 04/M12 A3017 1940 30 1200 360/07 RMK AO2 T00441117
03812KAVL AVL20161121201011011/21/16 20:10:31  5-MIN KAVL 220110Z AUTO 35006KT 10SM CLR 04/M12 A3017 1940 31 1100 350/06 RMK AO2 T00391117
03812KAVL AVL20161121201511011/21/16 20:15:31  5-MIN KAVL 220115Z AUTO 34008KT 10SM CLR 04/M12 A3018 1930 31 1100 350/08 RMK AO2 T00391117
03812KAVL AVL20161121202011011/21/16 20:20:31  5-MIN KAVL 220120Z AUTO 34008KT 10SM CLR 03/M12 A3018 1930 32 1000 350/08 RMK AO2 T00331117
03812KAVL AVL20161121202511011/21/16 20:25:31  5-MIN KAVL 220125Z AUTO 35007KT 10SM CLR 03/M12 A3018 1930 32 1000 350/07 RMK AO2 T00331117
03812KAVL AVL20161121203011011/21/16 20:30:31  5-MIN KAVL 220130Z AUTO 34009KT 10SM CLR 03/M12 A3018 1930 32 1000 350/09 RMK AO2 T00331117
03812KAVL AVL20161121203511011/21/16 20:35:31  5-MIN KAVL 220135Z AUTO 34009KT 10SM CLR 03/M12 A3018 1930 32 1000 340/09 RMK AO2 T00331117
03812KAVL AVL20161121204011011/21/16 20:40:31  5-MIN KAVL 220140Z AUTO 34008KT 10SM CLR 03/M12 A3018 1930 34 1000 350/08 RMK AO2 T00281117
03812KAVL AVL20161121204510911/21/16 20:45:31  5-MIN KAVL 220145Z AUTO 34009KT 10SM CLR 03/M11 A3018 1930 35 900 340/09 RMK AO2 T00281111
03812KAVL AVL20161121205011611/21/16 20:50:31  5-MIN KAVL 220150Z AUTO 34008KT 10SM CLR 03/M11 A3019 1920 35 900 350/08 RMK AO2 SLP229 T00281111
03812KAVL AVL20161121205510511/21/16 20:55:31  5-MIN KAVL 220155Z 35006KT 10SM CLR 03/M11 A3018 1920 34 1000 350/06 RMK AO2 T00331111
03812KAVL AVL20161121210010511/21/16 21:00:31  5-MIN KAVL 220200Z 35006KT 10SM CLR 03/M12 A3018 1930 32 1000 360/06 RMK AO2 T00331117
03812KAVL AVL20161121210510511/21/16 21:05:31  5-MIN KAVL 220205Z 35006KT 10SM CLR 03/M12 A3018 1920 32 1000 360/06 RMK AO2 T00331117
03812KAVL AVL20161121211010511/21/16 21:10:31  5-MIN KAVL 220210Z 35007KT 10SM CLR 04/M12 A3019 1920 31 1100 360/07 RMK AO2 T00391117
03812KAVL AVL20161121211510511/21/16 21:15:31  5-MIN KAVL 220215Z 34007KT 10SM CLR 04/M12 A3019 1920 31 1100 350/07 RMK AO2 T00391117
03812KAVL AVL20161121212010411/21/16 21:20:31  5-MIN KAVL 220220Z 34009KT 10SM CLR 03/M11 A3019 1920 35 900 350/09 RMK AO2 T00281111
03812KAVL AVL20161121212510411/21/16 21:25:31  5-MIN KAVL 220225Z 34008KT 10SM CLR 03/M11 A3019 1920 35 900 350/08 RMK AO2 T00281111
03812KAVL AVL20161121213010411/21/16 21:30:31  5-MIN KAVL 220230Z 34008KT 10SM CLR 03/M12 A3018 1930 34 900 350/08 RMK AO2 T00281117
03812KAVL AVL20161121213510511/21/16 21:35:31  5-MIN KAVL 220235Z 35008KT 10SM CLR 03/M12 A3018 1930 34 1000 350/08 RMK AO2 T00281117
03812KAVL AVL20161121214010511/21/16 21:40:31  5-MIN KAVL 220240Z 35009KT 10SM CLR 03/M12 A3018 1930 34 1000 350/09 RMK AO2 T00281117
03812KAVL AVL20161121214510411/21/16 21:45:31  5-MIN KAVL 220245Z 34009KT 10SM CLR 02/M11 A3018 1930 37 900 350/09 RMK AO2 T00221111
03812KAVL AVL20161121215011711/21/16 21:50:31  5-MIN KAVL 220250Z 35009KT 10SM CLR 02/M11 A3018 1930 37 900 350/09 RMK AO2 SLP226 T00221111 53011
03812KAVL AVL20161121215510411/21/16 21:55:31  5-MIN KAVL 220255Z 34010KT 10SM CLR 02/M11 A3018 1930 37 900 350/10 RMK AO2 T00221111
03812KAVL AVL20161121220010411/21/16 22:00:31  5-MIN KAVL 220300Z 35009KT 10SM CLR 02/M11 A3018 1930 37 900 350/09 RMK AO2 T00221111
03812KAVL AVL20161121220510411/21/16 22:05:31  5-MIN KAVL 220305Z 35008KT 10SM CLR 02/M11 A3018 1930 37 900 360/08 RMK AO2 T00221111
03812KAVL AVL20161121221010411/21/16 22:10:31  5-MIN KAVL 220310Z 35009KT 10SM CLR 03/M12 A3018 1930 34 900 360/09 RMK AO2 T00281117
03812KAVL AVL20161121221510511/21/16 22:15:31  5-MIN KAVL 220315Z 36009KT 10SM CLR 03/M12 A3018 1930 34 1000 360/09 RMK AO2 T00281117
03812KAVL AVL20161121222010511/21/16 22:20:31  5-MIN KAVL 220320Z 36010KT 10SM CLR 03/M12 A3018 1930 34 1000 010/10 RMK AO2 T00281117
03812KAVL AVL20161121222510511/21/16 22:25:31  5-MIN KAVL 220325Z 36009KT 10SM CLR 03/M12 A3018 1930 34 1000 360/09 RMK AO2 T00281117
03812KAVL AVL20161121223010411/21/16 22:30:31  5-MIN KAVL 220330Z 35009KT 10SM CLR 02/M12 A3018 1930 35 900 360/09 RMK AO2 T00221117
03812KAVL AVL20161121223510411/21/16 22:35:31  5-MIN KAVL 220335Z 35009KT 10SM CLR 02/M11 A3018 1930 37 900 360/09 RMK AO2 T00221111
03812KAVL AVL20161121224010411/21/16 22:40:31  5-MIN KAVL 220340Z 35008KT 10SM CLR 02/M11 A3018 1930 37 900 360/08 RMK AO2 T00221111
03812KAVL AVL20161121224510411/21/16 22:45:31  5-MIN KAVL 220345Z 36008KT 10SM CLR 02/M11 A3017 1930 37 900 360/08 RMK AO2 T00221111
03812KAVL AVL20161121225011111/21/16 22:50:31  5-MIN KAVL 220350Z 36007KT 10SM CLR 02/M12 A3018 1930 35 900 360/07 RMK AO2 SLP223 T00221117
03812KAVL AVL20161121225510911/21/16 22:55:31  5-MIN KAVL 220355Z AUTO 36008KT 10SM CLR 02/M12 A3017 1940 35 900 360/08 RMK AO2 T00221117
03812KAVL AVL20161121230010911/21/16 23:00:31  5-MIN KAVL 220400Z AUTO 36008KT 10SM CLR 02/M11 A3017 1940 37 900 360/08 RMK AO2 T00221111
03812KAVL AVL20161121230510911/21/16 23:05:31  5-MIN KAVL 220405Z AUTO 35009KT 10SM CLR 02/M11 A3017 1940 37 900 360/09 RMK AO2 T00221111
03812KAVL AVL20161121231010911/21/16 23:10:31  5-MIN KAVL 220410Z AUTO 35009KT 10SM CLR 02/M11 A3017 1930 37 900 360/09 RMK AO2 T00221111
03812KAVL AVL20161121231510911/21/16 23:15:31  5-MIN KAVL 220415Z AUTO 35009KT 10SM CLR 02/M11 A3018 1930 37 900 360/09 RMK AO2 T00221111
03812KAVL AVL20161121232010911/21/16 23:20:31  5-MIN KAVL 220420Z AUTO 36007KT 10SM CLR 02/M11 A3018 1930 37 900 010/07 RMK AO2 T00221111
03812KAVL AVL20161121232510911/21/16 23:25:31  5-MIN KAVL 220425Z AUTO 36008KT 10SM CLR 02/M11 A3018 1930 37 900 360/08 RMK AO2 T00221111
03812KAVL AVL20161121233010911/21/16 23:30:31  5-MIN KAVL 220430Z AUTO 36007KT 10SM CLR 02/M11 A3018 1930 37 900 010/07 RMK AO2 T00221111
03812KAVL AVL20161121233510911/21/16 23:35:31  5-MIN KAVL 220435Z AUTO 01007KT 10SM CLR 02/M11 A3018 1930 37 900 010/07 RMK AO2 T00221111
03812KAVL AVL20161121234010911/21/16 23:40:31  5-MIN KAVL 220440Z AUTO 36006KT 10SM CLR 02/M11 A3018 1930 37 900 360/06 RMK AO2 T00221111
03812KAVL AVL20161121234510911/21/16 23:45:31  5-MIN KAVL 220445Z AUTO 36005KT 10SM CLR 02/M11 A3018 1920 37 900 360/05 RMK AO2 T00221111
03812KAVL AVL20161121235012611/21/16 23:50:31  5-MIN KAVL 220450Z AUTO 01006KT 10SM CLR 02/M11 A3019 1920 37 900 010/06 RMK AO2 SLP224 T00221111 401061006
03812KAVL AVL20161121235510911/21/16 23:55:31  5-MIN KAVL 220455Z AUTO 01005KT 10SM CLR 02/M11 A3018 1920 37 900 020/05 RMK AO2 T00221111
03812KAVL AVL20161122000010911/22/16 00:00:31  5-MIN KAVL 220500Z AUTO 00000KT 10SM CLR 02/M11 A3019 1920 37 900 000/00 RMK AO2 T00221111
03812KAVL AVL20161122000510911/22/16 00:05:31  5-MIN KAVL 220505Z AUTO 00000KT 10SM CLR 02/M11 A3019 1920 37 900 000/00 RMK AO2 T00221111
03812KAVL AVL20161122001010911/22/16 00:10:31  5-MIN KAVL 220510Z AUTO 00000KT 10SM CLR 02/M11 A3019 1910 38 800 000/00 RMK AO2 T00171111
03812KAVL AVL20161122001510911/22/16 00:15:31  5-MIN KAVL 220515Z AUTO 00000KT 10SM CLR 01/M11 A3019 1920 41 700 000/00 RMK AO2 T00111106
03812KAVL AVL20161122002010911/22/16 00:20:31  5-MIN KAVL 220520Z AUTO 00000KT 10SM CLR 01/M11 A3019 1920 41 700 000/00 RMK AO2 T00111106
03812KAVL AVL20161122002510911/22/16 00:25:31  5-MIN KAVL 220525Z AUTO 00000KT 10SM CLR 01/M11 A3019 1920 41 700 000/00 RMK AO2 T00111106
03812KAVL AVL20161122003010911/22/16 00:30:31  5-MIN KAVL 220530Z AUTO 00000KT 10SM CLR 01/M11 A3019 1920 41 700 000/00 RMK AO2 T00111106
03812KAVL AVL20161122003510911/22/16 00:35:31  5-MIN KAVL 220535Z AUTO 00000KT 10SM CLR 01/M11 A3019 1920 41 700 000/00 RMK AO2 T00111106
03812KAVL AVL20161122004010911/22/16 00:40:31  5-MIN KAVL 220540Z AUTO 00000KT 10SM CLR 01/M11 A3019 1910 40 700 000/00 RMK AO2 T00111111
03812KAVL AVL20161122004510911/22/16 00:45:31  5-MIN KAVL 220545Z AUTO 00000KT 10SM CLR 01/M11 A3020 1910 41 700 000/00 RMK AO2 T00111106
03812KAVL AVL20161122005013411/22/16 00:50:31  5-MIN KAVL 220550Z AUTO 35003KT 10SM CLR 01/M11 A3020 1910 41 700 360/03 RMK AO2 SLP228 T00111106 10050 20011 50007
03812KAVL AVL20161122005510911/22/16 00:55:31  5-MIN KAVL 220555Z AUTO 00000KT 10SM CLR 01/M11 A3020 1910 40 700 000/00 RMK AO2 T00111111
03812KAVL AVL20161122010010911/22/16 01:00:31  5-MIN KAVL 220600Z AUTO 00000KT 10SM CLR 01/M11 A3019 1920 41 700 000/00 RMK AO2 T00111106
03812KAVL AVL20161122010510911/22/16 01:05:31  5-MIN KAVL 220605Z AUTO 00000KT 10SM CLR 01/M11 A3019 1920 43 700 000/00 RMK AO2 T00061106
03812KAVL AVL20161122011010911/22/16 01:10:31  5-MIN KAVL 220610Z AUTO 00000KT 10SM CLR 01/M11 A3019 1920 41 700 000/00 RMK AO2 T00111106
03812KAVL AVL20161122011510911/22/16 01:15:31  5-MIN KAVL 220615Z AUTO 35005KT 10SM CLR 02/M11 A3019 1920 40 800 360/05 RMK AO2 T00171106
03812KAVL AVL20161122012010911/22/16 01:20:31  5-MIN KAVL 220620Z AUTO 35005KT 10SM CLR 02/M11 A3019 1920 38 900 350/05 RMK AO2 T00221106
03812KAVL AVL20161122012510911/22/16 01:25:31  5-MIN KAVL 220625Z AUTO 33007KT 10SM CLR 02/M11 A3019 1920 38 900 340/07 RMK AO2 T00221106
03812KAVL AVL20161122013010911/22/16 01:30:31  5-MIN KAVL 220630Z AUTO 32007KT 10SM CLR 01/M10 A3020 1910 43 700 330/07 RMK AO2 T00111100
03812KAVL AVL20161122013510911/22/16 01:35:31  5-MIN KAVL 220635Z AUTO 31007KT 10SM CLR 01/M09 A3020 1910 45 700 310/07 RMK AO2 T00111094
03812KAVL AVL20161122014010911/22/16 01:40:31  5-MIN KAVL 220640Z AUTO 32006KT 10SM CLR 01/M09 A3020 1910 45 700 320/06 RMK AO2 T00111094
03812KAVL AVL20161122014510911/22/16 01:45:31  5-MIN KAVL 220645Z AUTO 32008KT 10SM CLR 01/M09 A3020 1910 47 700 330/08 RMK AO2 T00061094
03812KAVL AVL20161122015011611/22/16 01:50:31  5-MIN KAVL 220650Z AUTO 33009KT 10SM CLR 01/M10 A3020 1910 45 700 330/09 RMK AO2 SLP227 T00061100
03812KAVL AVL20161122015510911/22/16 01:55:31  5-MIN KAVL 220655Z AUTO 33010KT 10SM CLR 01/M10 A3020 1910 45 700 330/10 RMK AO2 T00061100
03812KAVL AVL20161122020010911/22/16 02:00:31  5-MIN KAVL 220700Z AUTO 33010KT 10SM CLR 01/M10 A3020 1910 45 700 330/10 RMK AO2 T00061100
03812KAVL AVL20161122020510911/22/16 02:05:31  5-MIN KAVL 220705Z AUTO 32009KT 10SM CLR 01/M10 A3020 1910 45 700 330/09 RMK AO2 T00061100
03812KAVL AVL20161122021010911/22/16 02:10:31  5-MIN KAVL 220710Z AUTO 33011KT 10SM CLR 01/M10 A3020 1910 45 700 340/11 RMK AO2 T00061100
03812KAVL AVL20161122021510911/22/16 02:15:31  5-MIN KAVL 220715Z AUTO 34012KT 10SM CLR 01/M10 A3020 1910 45 700 340/12 RMK AO2 T00061100
03812KAVL AVL20161122022010911/22/16 02:20:31  5-MIN KAVL 220720Z AUTO 34012KT 10SM CLR 01/M10 A3020 1910 45 700 340/12 RMK AO2 T00061100
03812KAVL AVL20161122022510911/22/16 02:25:31  5-MIN KAVL 220725Z AUTO 34011KT 10SM CLR 01/M10 A3019 1910 45 700 340/11 RMK AO2 T00061100
03812KAVL AVL20161122023010911/22/16 02:30:31  5-MIN KAVL 220730Z AUTO 34011KT 10SM CLR 01/M10 A3019 1920 45 700 350/11 RMK AO2 T00061100
03812KAVL AVL20161122023510911/22/16 02:35:31  5-MIN KAVL 220735Z AUTO 33013KT 10SM CLR 01/M10 A3019 1920 43 700 340/13 RMK AO2 T00111100
03812KAVL AVL20161122024010911/22/16 02:40:31  5-MIN KAVL 220740Z AUTO 33013KT 10SM CLR 01/M10 A3020 1910 43 700 340/13 RMK AO2 T00111100
03812KAVL AVL20161122024510911/22/16 02:45:31  5-MIN KAVL 220745Z AUTO 33012KT 10SM CLR 01/M10 A3020 1910 43 700 330/12 RMK AO2 T00111100
03812KAVL AVL20161122025011611/22/16 02:50:31  5-MIN KAVL 220750Z AUTO 33011KT 10SM CLR 01/M10 A3019 1920 43 700 330/11 RMK AO2 SLP226 T00111100
03812KAVL AVL20161122025510911/22/16 02:55:31  5-MIN KAVL 220755Z AUTO 33010KT 10SM CLR 01/M10 A3019 1920 43 700 340/10 RMK AO2 T00111100
03812KAVL AVL20161122030010911/22/16 03:00:31  5-MIN KAVL 220800Z AUTO 33009KT 10SM CLR 01/M09 A3019 1920 45 700 340/09 RMK AO2 T00111094
03812KAVL AVL20161122030510911/22/16 03:05:31  5-MIN KAVL 220805Z AUTO 33010KT 10SM CLR 01/M09 A3019 1920 47 700 330/10 RMK AO2 T00061094
03812KAVL AVL20161122031010911/22/16 03:10:31  5-MIN KAVL 220810Z AUTO 33010KT 10SM CLR 01/M09 A3020 1910 47 700 340/10 RMK AO2 T00061094
03812KAVL AVL20161122031510911/22/16 03:15:31  5-MIN KAVL 220815Z AUTO 33009KT 10SM CLR 01/M10 A3020 1910 43 700 340/09 RMK AO2 T00111100
03812KAVL AVL20161122032010911/22/16 03:20:31  5-MIN KAVL 220820Z AUTO 33009KT 10SM CLR 01/M10 A3020 1910 43 700 340/09 RMK AO2 T00111100
03812KAVL AVL20161122032510911/22/16 03:25:31  5-MIN KAVL 220825Z AUTO 34009KT 10SM CLR 01/M10 A3020 1910 43 700 340/09 RMK AO2 T00111100
03812KAVL AVL20161122033010911/22/16 03:30:31  5-MIN KAVL 220830Z AUTO 35007KT 10SM CLR 01/M10 A3019 1910 43 700 350/07 RMK AO2 T00111100
03812KAVL AVL20161122033510911/22/16 03:35:31  5-MIN KAVL 220835Z AUTO 34009KT 10SM CLR 01/M10 A3021 1900 43 700 350/09 RMK AO2 T00111100
03812KAVL AVL20161122034010911/22/16 03:40:31  5-MIN KAVL 220840Z AUTO 35008KT 10SM CLR 01/M10 A3021 1900 43 700 350/08 RMK AO2 T00111100
03812KAVL AVL20161122034510911/22/16 03:45:31  5-MIN KAVL 220845Z AUTO 35008KT 10SM CLR 01/M10 A3021 1900 43 700 360/08 RMK AO2 T00111100
03812KAVL AVL20161122035012211/22/16 03:50:31  5-MIN KAVL 220850Z AUTO 35007KT 10SM CLR 01/M10 A3020 1910 43 700 360/07 RMK AO2 SLP229 T00111100 53004
03812KAVL AVL20161122035510911/22/16 03:55:31  5-MIN KAVL 220855Z AUTO 35009KT 10SM CLR 01/M10 A3020 1910 43 700 350/09 RMK AO2 T00111100
03812KAVL AVL20161122040010911/22/16 04:00:31  5-MIN KAVL 220900Z AUTO 34011KT 10SM CLR 01/M10 A3020 1910 43 700 350/11 RMK AO2 T00111100
03812KAVL AVL20161122040510911/22/16 04:05:31  5-MIN KAVL 220905Z AUTO 34008KT 10SM CLR 01/M09 A3020 1910 47 700 350/08 RMK AO2 T00061094
03812KAVL AVL20161122041010911/22/16 04:10:31  5-MIN KAVL 220910Z AUTO 34007KT 10SM CLR 01/M09 A3021 1900 47 600 350/07 RMK AO2 T00061094
03812KAVL AVL20161122041510911/22/16 04:15:31  5-MIN KAVL 220915Z AUTO 34008KT 10SM CLR 01/M09 A3021 1900 47 600 350/08 RMK AO2 T00061094
03812KAVL AVL20161122042010911/22/16 04:20:31  5-MIN KAVL 220920Z AUTO 35006KT 10SM CLR 01/M09 A3020 1910 47 700 350/06 RMK AO2 T00061094
03812KAVL AVL20161122042510911/22/16 04:25:31  5-MIN KAVL 220925Z AUTO 34009KT 10SM CLR 01/M10 A3021 1900 45 600 340/09 RMK AO2 T00061100
03812KAVL AVL20161122043010911/22/16 04:30:31  5-MIN KAVL 220930Z AUTO 34010KT 10SM CLR 00/M09 A3021 1900 49 600 340/10 RMK AO2 T00001094
03812KAVL AVL20161122043510911/22/16 04:35:31  5-MIN KAVL 220935Z AUTO 34012KT 10SM CLR 01/M10 A3022 1900 45 600 350/12 RMK AO2 T00061100
03812KAVL AVL20161122044010911/22/16 04:40:31  5-MIN KAVL 220940Z AUTO 34011KT 10SM CLR 01/M10 A3022 1890 45 600 340/11 RMK AO2 T00061100
03812KAVL AVL20161122044510911/22/16 04:45:31  5-MIN KAVL 220945Z AUTO 34011KT 10SM CLR 01/M10 A3022 1890 45 600 350/11 RMK AO2 T00061100
03812KAVL AVL20161122045011611/22/16 04:50:31  5-MIN KAVL 220950Z AUTO 35009KT 10SM CLR 01/M10 A3022 1900 45 600 350/09 RMK AO2 SLP235 T00061100
03812KAVL AVL20161122045510911/22/16 04:55:31  5-MIN KAVL 220955Z AUTO 34012KT 10SM CLR 01/M10 A3022 1890 45 600 340/12 RMK AO2 T00061100
03812KAVL AVL20161122050010911/22/16 05:00:31  5-MIN KAVL 221000Z AUTO 33012KT 10SM CLR 00/M09 A3022 1890 49 600 340/12 RMK AO2 T00001094
03812KAVL AVL20161122050510911/22/16 05:05:31  5-MIN KAVL 221005Z AUTO 34011KT 10SM CLR 00/M09 A3022 1890 49 600 350/11 RMK AO2 T00001094
03812KAVL AVL20161122051010911/22/16 05:10:31  5-MIN KAVL 221010Z AUTO 34013KT 10SM CLR 00/M10 A3022 1890 47 600 340/13 RMK AO2 T00001100
03812KAVL AVL20161122051510911/22/16 05:15:31  5-MIN KAVL 221015Z AUTO 34011KT 10SM CLR 00/M10 A3022 1890 47 600 350/11 RMK AO2 T00001100
03812KAVL AVL20161122052010911/22/16 05:20:31  5-MIN KAVL 221020Z AUTO 34011KT 10SM CLR 01/M10 A3022 1890 45 600 340/11 RMK AO2 T00061100
03812KAVL AVL20161122052510911/22/16 05:25:31  5-MIN KAVL 221025Z AUTO 33012KT 10SM CLR 00/M10 A3022 1890 47 600 340/12 RMK AO2 T00001100
03812KAVL AVL20161122053010911/22/16 05:30:31  5-MIN KAVL 221030Z AUTO 33010KT 10SM CLR 00/M10 A3022 1890 47 600 340/10 RMK AO2 T00001100
03812KAVL AVL20161122053510911/22/16 05:35:31  5-MIN KAVL 221035Z AUTO 32010KT 10SM CLR 00/M10 A3022 1890 47 600 330/10 RMK AO2 T00001100
03812KAVL AVL20161122054010911/22/16 05:40:31  5-MIN KAVL 221040Z AUTO 33011KT 10SM CLR 00/M10 A3023 1880 47 600 330/11 RMK AO2 T00001100
03812KAVL AVL20161122054510911/22/16 05:45:31  5-MIN KAVL 221045Z AUTO 32011KT 10SM CLR 00/M10 A3023 1880 47 600 330/11 RMK AO2 T00001100
03812KAVL AVL20161122055011611/22/16 05:50:31  5-MIN KAVL 221050Z AUTO 33010KT 10SM CLR 00/M10 A3023 1890 47 600 340/10 RMK AO2 SLP241 T00001100
03812KAVL AVL20161122055510911/22/16 05:55:31  5-MIN KAVL 221055Z AUTO 33011KT 10SM CLR 00/M10 A3023 1890 47 600 340/11 RMK AO2 T00001100
03812KAVL AVL20161122060010911/22/16 06:00:31  5-MIN KAVL 221100Z AUTO 33011KT 10SM CLR 00/M10 A3023 1880 47 600 340/11 RMK AO2 T00001100
03812KAVL AVL20161122060510911/22/16 06:05:31  5-MIN KAVL 221105Z AUTO 34011KT 10SM CLR 01/M11 A3023 1880 43 600 350/11 RMK AO2 T00061106
03812KAVL AVL20161122061010911/22/16 06:10:31  5-MIN KAVL 221110Z AUTO 34011KT 10SM CLR 01/M11 A3023 1890 43 600 350/11 RMK AO2 T00061106
03812KAVL AVL20161122061510411/22/16 06:15:31  5-MIN KAVL 221115Z 35009KT 10SM CLR 01/M11 A3023 1890 43 600 350/09 RMK AO2 T00061106
03812KAVL AVL20161122062010411/22/16 06:20:31  5-MIN KAVL 221120Z 36008KT 10SM CLR 01/M11 A3023 1890 43 600 360/08 RMK AO2 T00061106
03812KAVL AVL20161122062510411/22/16 06:25:31  5-MIN KAVL 221125Z 36006KT 10SM CLR 01/M11 A3023 1880 43 600 010/06 RMK AO2 T00061106
03812KAVL AVL20161122063010411/22/16 06:30:31  5-MIN KAVL 221130Z 36007KT 10SM CLR 00/M11 A3023 1880 45 500 010/07 RMK AO2 T00001106
03812KAVL AVL20161122063510411/22/16 06:35:31  5-MIN KAVL 221135Z 36008KT 10SM CLR 00/M11 A3024 1880 45 500 010/08 RMK AO2 T00001106
03812KAVL AVL20161122064010411/22/16 06:40:31  5-MIN KAVL 221140Z 36009KT 10SM CLR 01/M11 A3024 1880 43 600 360/09 RMK AO2 T00061106
03812KAVL AVL20161122064510411/22/16 06:45:31  5-MIN KAVL 221145Z 36010KT 10SM CLR 01/M11 A3023 1880 43 600 360/10 RMK AO2 T00061106
03812KAVL AVL20161122065012911/22/16 06:50:31  5-MIN KAVL 221150Z 34008KT 10SM CLR 01/M11 A3024 1880 43 600 350/08 RMK AO2 SLP245 T00061106 10022 20000 53003
03812KAVL AVL20161122065510411/22/16 06:55:31  5-MIN KAVL 221155Z 01006KT 10SM CLR 00/M10 A3024 1870 47 500 010/06 RMK AO2 T00001100
03812KAVL AVL20161122070010411/22/16 07:00:31  5-MIN KAVL 221200Z 01007KT 10SM CLR 01/M10 A3024 1870 45 600 020/07 RMK AO2 T00061100
03812KAVL AVL20161122070510411/22/16 07:05:31  5-MIN KAVL 221205Z 36005KT 10SM CLR 01/M10 A3025 1860 45 600 010/05 RMK AO2 T00061100
03812KAVL AVL20161122071010411/22/16 07:10:31  5-MIN KAVL 221210Z 00000KT 10SM CLR 01/M09 A3025 1860 47 600 000/00 RMK AO2 T00061094
03812KAVL AVL20161122071510411/22/16 07:15:31  5-MIN KAVL 221215Z 00000KT 10SM CLR 01/M09 A3025 1860 47 600 000/00 RMK AO2 T00061094
03812KAVL AVL20161122072010411/22/16 07:20:31  5-MIN KAVL 221220Z 30003KT 10SM CLR 00/M09 A3025 1860 49 500 300/03 RMK AO2 T00001094
03812KAVL AVL20161122072510511/22/16 07:25:31  5-MIN KAVL 221225Z 00000KT 10SM CLR M01/M09 A3026 1860 51 500 000/00 RMK AO2 T10061094
03812KAVL AVL20161122073010511/22/16 07:30:31  5-MIN KAVL 221230Z 32005KT 10SM CLR M01/M09 A3026 1860 51 500 330/05 RMK AO2 T10061094
03812KAVL AVL20161122073510511/22/16 07:35:31  5-MIN KAVL 221235Z 33005KT 10SM CLR M01/M09 A3026 1860 51 500 330/05 RMK AO2 T10061094
03812KAVL AVL20161122074010511/22/16 07:40:31  5-MIN KAVL 221240Z 32006KT 10SM CLR M01/M09 A3025 1860 53 400 330/06 RMK AO2 T10111094
03812KAVL AVL20161122074510511/22/16 07:45:31  5-MIN KAVL 221245Z 32005KT 10SM CLR M01/M09 A3026 1860 51 500 320/05 RMK AO2 T10061094
03812KAVL AVL20161122075011111/22/16 07:50:31  5-MIN KAVL 221250Z 30003KT 10SM CLR 00/M09 A3026 1850 49 500 300/03 RMK AO2 SLP255 T00001094
03812KAVL AVL20161122075510411/22/16 07:55:31  5-MIN KAVL 221255Z 00000KT 10SM CLR 00/M09 A3027 1850 49 500 000/00 RMK AO2 T00001094
03812KAVL AVL20161122080010411/22/16 08:00:31  5-MIN KAVL 221300Z 00000KT 10SM CLR 00/M09 A3027 1850 49 500 000/00 RMK AO2 T00001094
03812KAVL AVL20161122080510411/22/16 08:05:31  5-MIN KAVL 221305Z 00000KT 10SM CLR 01/M09 A3027 1850 47 600 000/00 RMK AO2 T00061094
03812KAVL AVL20161122081010411/22/16 08:10:31  5-MIN KAVL 221310Z 00000KT 10SM CLR 01/M09 A3027 1840 45 600 000/00 RMK AO2 T00111094
03812KAVL AVL20161122081510411/22/16 08:15:31  5-MIN KAVL 221315Z 00000KT 10SM CLR 02/M10 A3028 1840 42 700 000/00 RMK AO2 T00171100
03812KAVL AVL20161122082010411/22/16 08:20:31  5-MIN KAVL 221320Z 00000KT 10SM CLR 02/M10 A3028 1840 42 700 000/00 RMK AO2 T00171100
03812KAVL AVL20161122082510411/22/16 08:25:31  5-MIN KAVL 221325Z 00000KT 10SM CLR 02/M09 A3028 1840 42 800 000/00 RMK AO2 T00221094
03812KAVL AVL20161122083010411/22/16 08:30:31  5-MIN KAVL 221330Z 00000KT 10SM CLR 02/M09 A3028 1840 45 700 000/00 RMK AO2 T00171089
03812KAVL AVL20161122083510411/22/16 08:35:31  5-MIN KAVL 221335Z 34003KT 10SM CLR 02/M09 A3028 1840 42 800 350/03 RMK AO2 T00221094
03812KAVL AVL20161122084010411/22/16 08:40:31  5-MIN KAVL 221340Z 35004KT 10SM CLR 02/M10 A3028 1840 40 800 350/04 RMK AO2 T00221100
03812KAVL AVL20161122084510411/22/16 08:45:31  5-MIN KAVL 221345Z 34005KT 10SM CLR 02/M10 A3028 1840 40 800 340/05 RMK AO2 T00221100
03812KAVL AVL20161122085011111/22/16 08:50:31  5-MIN KAVL 221350Z 33005KT 10SM CLR 03/M09 A3028 1840 40 800 340/05 RMK AO2 SLP259 T00281094
03812KAVL AVL20161122085510411/22/16 08:55:31  5-MIN KAVL 221355Z 32005KT 10SM CLR 03/M09 A3028 1840 40 800 320/05 RMK AO2 T00281094
03812KAVL AVL20161122090010411/22/16 09:00:31  5-MIN KAVL 221400Z 31005KT 10SM CLR 03/M09 A3028 1840 39 900 320/05 RMK AO2 T00331094
03812KAVL AVL20161122090510411/22/16 09:05:31  5-MIN KAVL 221405Z 32006KT 10SM CLR 03/M09 A3028 1840 39 900 330/06 RMK AO2 T00331094
03812KAVL AVL20161122091010511/22/16 09:10:31  5-MIN KAVL 221410Z 33005KT 10SM CLR 04/M09 A3028 1840 37 1000 330/05 RMK AO2 T00391094
03812KAVL AVL20161122091510511/22/16 09:15:31  5-MIN KAVL 221415Z 32006KT 10SM CLR 04/M09 A3028 1840 37 1000 330/06 RMK AO2 T00391094
03812KAVL AVL20161122092010511/22/16 09:20:31  5-MIN KAVL 221420Z 33006KT 10SM CLR 04/M09 A3028 1830 36 1000 340/06 RMK AO2 T00441094
03812KAVL AVL20161122092510511/22/16 09:25:31  5-MIN KAVL 221425Z 31005KT 10SM CLR 05/M09 A3028 1830 34 1100 320/05 RMK AO2 T00501094
03812KAVL AVL20161122093010511/22/16 09:30:31  5-MIN KAVL 221430Z 32006KT 10SM CLR 05/M09 A3028 1830 34 1100 330/06 RMK AO2 T00501094
03812KAVL AVL20161122093510511/22/16 09:35:31  5-MIN KAVL 221435Z 32004KT 10SM CLR 05/M10 A3028 1840 33 1100 330/04 RMK AO2 T00501100
03812KAVL AVL20161122094010511/22/16 09:40:31  5-MIN KAVL 221440Z 31004KT 10SM CLR 05/M10 A3028 1830 33 1100 310/04 RMK AO2 T00501100
03812KAVL AVL20161122094510511/22/16 09:45:31  5-MIN KAVL 221445Z 32005KT 10SM CLR 06/M09 A3029 1830 33 1200 320/05 RMK AO2 T00561094
03812KAVL AVL20161122095011811/22/16 09:50:31  5-MIN KAVL 221450Z 33005KT 10SM CLR 06/M10 A3029 1830 32 1200 340/05 RMK AO2 SLP261 T00561100 51010
03812KAVL AVL20161122095510511/22/16 09:55:31  5-MIN KAVL 221455Z 32006KT 10SM CLR 06/M10 A3029 1830 32 1200 330/06 RMK AO2 T00561100
03812KAVL AVL20161122100010511/22/16 10:00:31  5-MIN KAVL 221500Z 32006KT 10SM CLR 06/M10 A3029 1830 30 1200 330/06 RMK AO2 T00611100
03812KAVL AVL20161122100510511/22/16 10:05:31  5-MIN KAVL 221505Z 32004KT 10SM CLR 07/M10 A3029 1830 29 1300 330/04 RMK AO2 T00671100
03812KAVL AVL20161122101010511/22/16 10:10:31  5-MIN KAVL 221510Z 33004KT 10SM CLR 06/M10 A3029 1830 30 1200 330/04 RMK AO2 T00611100
03812KAVL AVL20161122101510511/22/16 10:15:31  5-MIN KAVL 221515Z 31004KT 10SM CLR 07/M10 A3030 1820 29 1300 310/04 RMK AO2 T00671100
03812KAVL AVL20161122102010511/22/16 10:20:31  5-MIN KAVL 221520Z 33003KT 10SM CLR 07/M10 A3029 1820 29 1300 330/03 RMK AO2 T00671100
03812KAVL AVL20161122102510511/22/16 10:25:31  5-MIN KAVL 221525Z VRB03KT 10SM CLR 07/M11 A3029 1830 27 1400 VRB/03 RMK AO2 T00721106
03812KAVL AVL20161122103010511/22/16 10:30:31  5-MIN KAVL 221530Z 00000KT 10SM CLR 08/M11 A3029 1830 26 1400 000/00 RMK AO2 T00781106
03812KAVL AVL20161122103510511/22/16 10:35:31  5-MIN KAVL 221535Z VRB03KT 10SM CLR 08/M11 A3029 1830 25 1500 VRB/03 RMK AO2 T00831106
03812KAVL AVL20161122104010511/22/16 10:40:31  5-MIN KAVL 221540Z 31003KT 10SM CLR 08/M12 A3029 1830 24 1400 320/03 RMK AO2 T00781117
03812KAVL AVL20161122104510511/22/16 10:45:31  5-MIN KAVL 221545Z 35004KT 10SM CLR 08/M11 A3029 1830 25 1400 350/04 RMK AO2 T00781111
03812KAVL AVL20161122105011211/22/16 10:50:31  5-MIN KAVL 221550Z 34005KT 10SM CLR 08/M11 A3029 1830 24 1500 350/05 RMK AO2 SLP259 T00831111
03812KAVL AVL20161122105510511/22/16 10:55:31  5-MIN KAVL 221555Z VRB03KT 10SM CLR 09/M11 A3029 1830 23 1600 VRB/03 RMK AO2 T00891111
03812KAVL AVL20161122110010511/22/16 11:00:31  5-MIN KAVL 221600Z 00000KT 10SM CLR 09/M11 A3029 1830 24 1600 000/00 RMK AO2 T00891106
03812KAVL AVL20161122110510511/22/16 11:05:31  5-MIN KAVL 221605Z 01003KT 10SM CLR 09/M11 A3028 1830 23 1600 020/03 RMK AO2 T00941106
03812KAVL AVL20161122111010511/22/16 11:10:31  5-MIN KAVL 221610Z VRB03KT 10SM CLR 09/M11 A3028 1830 22 1600 VRB/03 RMK AO2 T00941111
03812KAVL AVL20161122111510511/22/16 11:15:31  5-MIN KAVL 221615Z 34003KT 10SM CLR 09/M11 A3028 1840 22 1600 350/03 RMK AO2 T00941111
03812KAVL AVL20161122112010511/22/16 11:20:31  5-MIN KAVL 221620Z 00000KT 10SM CLR 09/M11 A3028 1830 23 1600 000/00 RMK AO2 T00941106
03812KAVL AVL20161122112510511/22/16 11:25:31  5-MIN KAVL 221625Z 00000KT 10SM CLR 09/M11 A3028 1840 23 1600 000/00 RMK AO2 T00941106
03812KAVL AVL20161122113010511/22/16 11:30:31  5-MIN KAVL 221630Z 00000KT 10SM CLR 09/M11 A3028 1830 23 1600 000/00 RMK AO2 T00941106
03812KAVL AVL20161122113510511/22/16 11:35:31  5-MIN KAVL 221635Z 36003KT 10SM CLR 10/M11 A3028 1830 22 1700 360/03 RMK AO2 T01001106
03812KAVL AVL20161122114010511/22/16 11:40:31  5-MIN KAVL 221640Z 00000KT 10SM CLR 10/M11 A3028 1840 22 1700 000/00 RMK AO2 T01001106
03812KAVL AVL20161122114510511/22/16 11:45:31  5-MIN KAVL 221645Z 35003KT 10SM CLR 11/M10 A3028 1840 22 1800 360/03 RMK AO2 T01061100
03812KAVL AVL20161122115011211/22/16 11:50:31  5-MIN KAVL 221650Z 00000KT 10SM CLR 11/M10 A3027 1850 22 1900 000/00 RMK AO2 SLP251 T01111100
03812KAVL AVL20161122115510811/22/16 11:55:31  5-MIN KAVL 221655Z 00000KT 10SM FU CLR 11/M10 A3027 1850 22 1900 000/00 RMK AO2 T01111100
03812KAVL AVL20161122120010811/22/16 12:00:31  5-MIN KAVL 221700Z 00000KT 10SM FU CLR 11/M10 A3027 1850 22 1900 000/00 RMK AO2 T01111100
03812KAVL AVL20161122120510811/22/16 12:05:31  5-MIN KAVL 221705Z 00000KT 10SM FU CLR 11/M11 A3026 1850 21 1900 000/00 RMK AO2 T01111106
03812KAVL AVL20161122121010811/22/16 12:10:31  5-MIN KAVL 221710Z 00000KT 10SM FU CLR 11/M11 A3026 1850 21 1900 000/00 RMK AO2 T01111106
03812KAVL AVL20161122121510811/22/16 12:15:31  5-MIN KAVL 221715Z 00000KT 10SM FU CLR 12/M10 A3026 1860 21 1900 000/00 RMK AO2 T01171100
03812KAVL AVL20161122122010811/22/16 12:20:31  5-MIN KAVL 221720Z 00000KT 10SM FU CLR 12/M10 A3025 1860 20 2000 000/00 RMK AO2 T01221100
03812KAVL AVL20161122122510811/22/16 12:25:31  5-MIN KAVL 221725Z 00000KT 10SM FU CLR 12/M11 A3025 1860 19 2000 000/00 RMK AO2 T01221106
03812KAVL AVL20161122123010811/22/16 12:30:31  5-MIN KAVL 221730Z 00000KT 10SM FU CLR 12/M11 A3025 1860 19 2000 000/00 RMK AO2 T01221106
03812KAVL AVL20161122123510811/22/16 12:35:31  5-MIN KAVL 221735Z 00000KT 10SM FU CLR 13/M11 A3025 1870 18 2100 000/00 RMK AO2 T01281111
03812KAVL AVL20161122124010811/22/16 12:40:31  5-MIN KAVL 221740Z 00000KT 10SM FU CLR 12/M11 A3025 1870 18 2000 000/00 RMK AO2 T01221111
03812KAVL AVL20161122124510711/22/16 12:45:31  5-MIN KAVL 221745Z 17006KT 9SM FU CLR 12/M11 A3024 1870 18 2000 180/06 RMK AO2 T01221111
03812KAVL AVL20161122125013211/22/16 12:50:31  5-MIN KAVL 221750Z 15005KT 9SM FU CLR 12/M11 A3024 1870 18 2000 160/05 RMK AO2 SLP240 T01221111 10128 21011 51016
03812KAVL AVL20161122125510811/22/16 12:55:31  5-MIN KAVL 221755Z 16004KT 10SM FU CLR 12/M11 A3024 1870 18 2000 160/04 RMK AO2 T01221111
03812KAVL AVL20161122130010711/22/16 13:00:31  5-MIN KAVL 221800Z 17005KT 7SM FU CLR 12/M11 A3024 1880 18 2000 180/05 RMK AO2 T01221111
03812KAVL AVL20161122130511011/22/16 13:05:31  5-MIN KAVL 221805Z 18005KT 5SM HZ FU CLR 13/M11 A3024 1870 18 2100 180/05 RMK AO2 T01281106
03812KAVL AVL20161122131011011/22/16 13:10:31  5-MIN KAVL 221810Z 19003KT 4SM HZ FU CLR 13/M11 A3024 1880 18 2100 190/03 RMK AO2 T01281106
03812KAVL AVL20161122131511011/22/16 13:15:31  5-MIN KAVL 221815Z 21004KT 4SM HZ FU CLR 13/M11 A3024 1880 18 2100 220/04 RMK AO2 T01281106
03812KAVL AVL20161122132011011/22/16 13:20:31  5-MIN KAVL 221820Z 16004KT 3SM HZ FU CLR 13/M10 A3023 1880 19 2100 170/04 RMK AO2 T01281100
03812KAVL AVL20161122132511411/22/16 13:25:31  5-MIN KAVL 221825Z 16007KT 2 1/2SM HZ FU CLR 13/M10 A3023 1890 19 2200 170/07 RMK AO2 T01331100
03812KAVL AVL20161122133011011/22/16 13:30:31  5-MIN KAVL 221830Z 16006KT 2SM HZ FU CLR 13/M10 A3023 1890 19 2200 160/06 RMK AO2 T01331100
03812KAVL AVL20161122133511411/22/16 13:35:31  5-MIN KAVL 221835Z 20007KT 1 3/4SM HZ FU CLR 13/M10 A3023 1890 19 2200 200/07 RMK AO2 T01331100
03812KAVL AVL20161122134011011/22/16 13:40:31  5-MIN KAVL 221840Z 18006KT 2SM HZ FU CLR 14/M10 A3023 1890 18 2200 180/06 RMK AO2 T01391100
03812KAVL AVL20161122134511411/22/16 13:45:31  5-MIN KAVL 221845Z 18005KT 2 1/2SM HZ FU CLR 14/M09 A3023 1880 19 2200 190/05 RMK AO2 T01391094
03812KAVL AVL20161122135012111/22/16 13:50:31  5-MIN KAVL 221850Z 17006KT 2 1/2SM HZ FU CLR 14/M09 A3023 1890 19 2200 180/06 RMK AO2 SLP234 T01391094
03812KAVL AVL20161122135511411/22/16 13:55:31  5-MIN KAVL 221855Z 18007KT 2 1/2SM HZ FU CLR 14/M10 A3022 1890 18 2200 180/07 RMK AO2 T01391100
03812KAVL AVL20161122140011411/22/16 14:00:31  5-MIN KAVL 221900Z 17007KT 2 1/2SM HZ FU CLR 14/M09 A3022 1890 19 2200 180/07 RMK AO2 T01391094
03812KAVL AVL20161122140511411/22/16 14:05:31  5-MIN KAVL 221905Z 18005KT 2 1/2SM HZ FU CLR 14/M09 A3022 1890 19 2200 180/05 RMK AO2 T01391094
03812KAVL AVL20161122141011411/22/16 14:10:31  5-MIN KAVL 221910Z VRB05KT 2 1/2SM HZ FU CLR 14/M09 A3022 1890 19 2200 VRB/05 RMK AO2 T01391094
03812KAVL AVL20161122141511011/22/16 14:15:31  5-MIN KAVL 221915Z 19006KT 2SM HZ FU CLR 14/M09 A3022 1890 19 2200 200/06 RMK AO2 T01391094
03812KAVL AVL20161122142011011/22/16 14:20:31  5-MIN KAVL 221920Z 18005KT 2SM HZ FU CLR 13/M09 A3021 1900 19 2200 190/05 RMK AO2 T01331094
03812KAVL AVL20161122142511011/22/16 14:25:31  5-MIN KAVL 221925Z VRB04KT 2SM HZ FU CLR 14/M09 A3022 1900 19 2200 VRB/04 RMK AO2 T01391094
03812KAVL AVL20161122143011411/22/16 14:30:31  5-MIN KAVL 221930Z 14006KT 2 1/2SM HZ FU CLR 14/M09 A3022 1900 18 2300 150/06 RMK AO2 T01441094
03812KAVL AVL20161122143511411/22/16 14:35:31  5-MIN KAVL 221935Z VRB04KT 2 1/2SM HZ FU CLR 14/M10 A3021 1900 18 2200 VRB/04 RMK AO2 T01391100
03812KAVL AVL20161122144011011/22/16 14:40:31  5-MIN KAVL 221940Z VRB06KT 2SM HZ FU CLR 14/M09 A3021 1900 18 2300 VRB/06 RMK AO2 T01441094
03812KAVL AVL20161122144511311/22/16 14:45:31  5-MIN KAVL 221945Z 15004KT 2SM HZ FU FEW022 14/M09 A3021 1900 18 2300 160/04 RMK AO2 T01441094
03812KAVL AVL20161122145012011/22/16 14:50:31  5-MIN KAVL 221950Z VRB05KT 2SM HZ FU FEW024 14/M09 A3021 1900 18 2300 VRB/05 RMK AO2 SLP228 T01441094
03812KAVL AVL20161122145511311/22/16 14:55:31  5-MIN KAVL 221955Z 15006KT 2SM HZ FU FEW024 14/M09 A3021 1900 19 2200 150/06 RMK AO2 T01391094
03812KAVL AVL20161122150011311/22/16 15:00:31  5-MIN KAVL 222000Z 17004KT 2SM HZ FU FEW024 14/M09 A3021 1900 19 2200 170/04 RMK AO2 T01391094
03812KAVL AVL20161122150511311/22/16 15:05:31  5-MIN KAVL 222005Z 15006KT 2SM HZ FU SCT022 14/M09 A3021 1900 18 2300 160/06 RMK AO2 T01441094
03812KAVL AVL20161122151011711/22/16 15:10:31  5-MIN KAVL 222010Z 13003KT 1 3/4SM HZ FU BKN022 14/M10 A3021 1900 18 2200 130/03 RMK AO2 T01391100
03812KAVL AVL20161122151512211/22/16 15:15:31  5-MIN KAVL 222015Z AUTO 15007KT 1 1/2SM HZ FU BKN020 13/M10 A3021 1900 19 2200 150/07 RMK AO2 T01331100
03812KAVL AVL20161122152012211/22/16 15:20:31  5-MIN KAVL 222020Z AUTO 16006KT 1 1/2SM HZ FU BKN020 13/M10 A3021 1900 19 2200 160/06 RMK AO2 T01331100
03812KAVL AVL20161122152512211/22/16 15:25:31  5-MIN KAVL 222025Z AUTO 16005KT 1 1/2SM HZ FU BKN020 14/M10 A3022 1900 18 2200 170/05 RMK AO2 T01391100
03812KAVL AVL20161122153012211/22/16 15:30:31  5-MIN KAVL 222030Z AUTO 15005KT 1 1/4SM HZ FU OVC020 13/M10 A3022 1900 19 2200 150/05 RMK AO2 T01331100
03812KAVL AVL20161122153512211/22/16 15:35:31  5-MIN KAVL 222035Z AUTO 15006KT 1 1/4SM HZ FU OVC020 13/M10 A3022 1900 19 2200 160/06 RMK AO2 T01331100
03812KAVL AVL20161122154012211/22/16 15:40:31  5-MIN KAVL 222040Z AUTO 15005KT 1 1/4SM HZ FU OVC020 14/M10 A3022 1890 18 2200 150/05 RMK AO2 T01391100
03812KAVL AVL20161122154512211/22/16 15:45:31  5-MIN KAVL 222045Z AUTO 16006KT 1 1/4SM HZ FU OVC020 13/M10 A3022 1890 19 2200 160/06 RMK AO2 T01331100
03812KAVL AVL20161122155013611/22/16 15:50:31  5-MIN KAVL 222050Z AUTO 15006KT 1SM HZ FU VV020 13/M10 A3022 1900 19 2200 160/06 RMK AO2 SLP231 T01331100 58015 RVRNO
03812KAVL AVL20161122155511811/22/16 15:55:31  5-MIN KAVL 222055Z VRB05KT 1SM HZ FU VV020 13/M09 A3022 1890 19 2200 VRB/05 RMK AO2 T01331094 RVRNO
03812KAVL AVL20161122160011811/22/16 16:00:31  5-MIN KAVL 222100Z 15005KT 1SM HZ FU VV020 13/M10 A3022 1890 19 2200 150/05 RMK AO2 T01331100 RVRNO
03812KAVL AVL20161122160511811/22/16 16:05:31  5-MIN KAVL 222105Z 15006KT 1SM HZ FU VV020 13/M10 A3023 1880 19 2100 160/06 RMK AO2 T01281100 RVRNO
03812KAVL AVL20161122161011811/22/16 16:10:31  5-MIN KAVL 222110Z 15004KT 1SM HZ FU VV020 13/M10 A3023 1880 19 2100 150/04 RMK AO2 T01281100 RVRNO
03812KAVL AVL20161122161511811/22/16 16:15:31  5-MIN KAVL 222115Z 15006KT 1SM HZ FU VV019 13/M10 A3023 1880 19 2100 160/06 RMK AO2 T01281100 RVRNO
03812KAVL AVL20161122162011811/22/16 16:20:31  5-MIN KAVL 222120Z 14003KT 1SM HZ FU VV019 13/M10 A3023 1890 19 2100 140/03 RMK AO2 T01281100 RVRNO
03812KAVL AVL20161122162511811/22/16 16:25:31  5-MIN KAVL 222125Z 14004KT 1SM HZ FU VV018 13/M09 A3023 1890 20 2100 150/04 RMK AO2 T01281094 RVRNO
03812KAVL AVL20161122163011811/22/16 16:30:31  5-MIN KAVL 222130Z VRB04KT 1SM HZ FU VV018 13/M09 A3023 1890 20 2100 VRB/04 RMK AO2 T01281094 RVRNO
03812KAVL AVL20161122163511811/22/16 16:35:31  5-MIN KAVL 222135Z 15005KT 1SM HZ FU VV018 13/M09 A3023 1890 20 2100 150/05 RMK AO2 T01281094 RVRNO
03812KAVL AVL20161122164011711/22/16 16:40:31  5-MIN KAVL 222140Z 14005KT 1 1/4SM HZ FU OVC018 13/M09 A3023 1880 20 2100 140/05 RMK AO2 T01281094
03812KAVL AVL20161122164511711/22/16 16:45:31  5-MIN KAVL 222145Z 15005KT 1 1/4SM HZ FU OVC018 12/M09 A3023 1880 21 2000 160/05 RMK AO2 T01221094
03812KAVL AVL20161122165010711/22/16 16:50:31  5-MIN KAVL 222150Z 15004KT 1 1/2SM HZ FU OVC018 12/M09 A3023 1880 21 2000 160/04 RMK AO2
03812KAVL AVL20161122165511711/22/16 16:55:31  5-MIN KAVL 222155Z 16005KT 1 3/4SM HZ FU OVC018 12/M09 A3023 1890 22 2000 160/05 RMK AO2 T01221089
03812KAVL AVL20161122170011311/22/16 17:00:31  5-MIN KAVL 222200Z 15004KT 2SM HZ FU OVC019 12/M09 A3023 1880 22 2000 160/04 RMK AO2 T01221089
03812KAVL AVL20161122170511311/22/16 17:05:31  5-MIN KAVL 222205Z 15004KT 2SM HZ FU OVC019 12/M09 A3023 1890 21 2000 160/04 RMK AO2 T01221094
03812KAVL AVL20161122171011711/22/16 17:10:31  5-MIN KAVL 222210Z 16004KT 2 1/2SM HZ FU OVC019 12/M09 A3023 1880 22 2000 170/04 RMK AO2 T01171094
03812KAVL AVL20161122171511711/22/16 17:15:31  5-MIN KAVL 222215Z 17005KT 2 1/2SM HZ FU OVC020 11/M08 A3023 1880 26 1900 180/05 RMK AO2 T01111078
03812KAVL AVL20161122172011711/22/16 17:20:31  5-MIN KAVL 222220Z 18005KT 2 1/2SM HZ FU OVC020 11/M08 A3024 1880 25 1800 190/05 RMK AO2 T01061083
03812KAVL AVL20161122172511311/22/16 17:25:31  5-MIN KAVL 222225Z 17005KT 3SM HZ FU OVC021 11/M08 A3024 1870 27 1800 180/05 RMK AO2 T01061078
03812KAVL AVL20161122173011311/22/16 17:30:31  5-MIN KAVL 222230Z 17005KT 4SM HZ FU BKN021 11/M08 A3024 1870 27 1800 170/05 RMK AO2 T01061078
03812KAVL AVL20161122173511311/22/16 17:35:31  5-MIN KAVL 222235Z 15004KT 2SM HZ FU BKN022 11/M08 A3024 1870 27 1800 160/04 RMK AO2 T01061078
03812KAVL AVL20161122174011311/22/16 17:40:31  5-MIN KAVL 222240Z 15005KT 2SM HZ FU SCT022 11/M09 A3024 1870 23 1900 160/05 RMK AO2 T01111089
03812KAVL AVL20161122174511311/22/16 17:45:31  5-MIN KAVL 222245Z 14005KT 2SM HZ FU FEW022 11/M09 A3024 1870 23 1900 150/05 RMK AO2 T01111089
03812KAVL AVL20161122175012011/22/16 17:50:31  5-MIN KAVL 222250Z 15004KT 2SM HZ FU FEW022 11/M09 A3024 1870 24 1800 150/04 RMK AO2 SLP243 T01061089
03812KAVL AVL20161122175511011/22/16 17:55:31  5-MIN KAVL 222255Z 16005KT 6SM HZ FU CLR 11/M08 A3025 1870 25 1800 160/05 RMK AO2 T01061083
03812KAVL AVL20161122180011011/22/16 18:00:31  5-MIN KAVL 222300Z 15003KT 2SM HZ FU CLR 10/M08 A3025 1870 26 1700 160/03 RMK AO2 T01001083
03812KAVL AVL20161122180511011/22/16 18:05:31  5-MIN KAVL 222305Z 16005KT 2SM HZ FU CLR 09/M08 A3025 1870 29 1700 160/05 RMK AO2 T00941078
03812KAVL AVL20161122181011311/22/16 18:10:31  5-MIN KAVL 222310Z 14003KT 2SM HZ FU FEW038 09/M08 A3025 1860 29 1700 150/03 RMK AO2 T00941078
03812KAVL AVL20161122181511311/22/16 18:15:31  5-MIN KAVL 222315Z 14004KT 2SM HZ FU SCT038 09/M08 A3025 1870 27 1700 150/04 RMK AO2 T00941083
03812KAVL AVL20161122182011311/22/16 18:20:31  5-MIN KAVL 222320Z 16004KT 4SM HZ FU SCT038 09/M08 A3026 1860 29 1700 170/04 RMK AO2 T00941078
03812KAVL AVL20161122182511311/22/16 18:25:31  5-MIN KAVL 222325Z 15003KT 4SM HZ FU FEW038 09/M07 A3026 1860 31 1600 150/03 RMK AO2 T00891072
03812KAVL AVL20161122183011311/22/16 18:30:31  5-MIN KAVL 222330Z 00000KT 4SM HZ FU FEW038 09/M08 A3026 1860 27 1700 000/00 RMK AO2 T00941083
03812KAVL AVL20161122183511311/22/16 18:35:31  5-MIN KAVL 222335Z 14003KT 4SM HZ FU FEW038 09/M08 A3026 1860 27 1700 140/03 RMK AO2 T00941083
03812KAVL AVL20161122184011311/22/16 18:40:31  5-MIN KAVL 222340Z 00000KT 4SM HZ FU FEW038 09/M08 A3026 1850 30 1600 000/00 RMK AO2 T00891078
03812KAVL AVL20161122184511011/22/16 18:45:31  5-MIN KAVL 222345Z 16003KT 4SM HZ FU CLR 09/M08 A3026 1850 30 1600 160/03 RMK AO2 T00891078
03812KAVL AVL20161122185013511/22/16 18:50:31  5-MIN KAVL 222350Z 15003KT 4SM HZ FU CLR 08/M08 A3026 1850 31 1500 150/03 RMK AO2 SLP252 T00831078 10144 20083 55007
03812KAVL AVL20161122185510711/22/16 18:55:31  5-MIN KAVL 222355Z 13003KT 7SM FU CLR 08/M08 A3027 1850 31 1500 140/03 RMK AO2 T00831078
03812KAVL AVL20161122190010711/22/16 19:00:31  5-MIN KAVL 230000Z 00000KT 7SM FU CLR 08/M08 A3026 1850 31 1500 000/00 RMK AO2 T00831078
03812KAVL AVL20161122190510711/22/16 19:05:31  5-MIN KAVL 230005Z 00000KT 7SM FU CLR 08/M08 A3027 1850 31 1500 000/00 RMK AO2 T00831078
03812KAVL AVL20161122191010711/22/16 19:10:31  5-MIN KAVL 230010Z 00000KT 7SM FU CLR 08/M08 A3027 1840 31 1500 000/00 RMK AO2 T00831078
03812KAVL AVL20161122191510711/22/16 19:15:31  5-MIN KAVL 230015Z 00000KT 7SM FU CLR 08/M07 A3027 1850 34 1500 000/00 RMK AO2 T00781072
03812KAVL AVL20161122192010711/22/16 19:20:31  5-MIN KAVL 230020Z 00000KT 7SM FU CLR 08/M07 A3027 1840 34 1500 000/00 RMK AO2 T00781072
03812KAVL AVL20161122192510711/22/16 19:25:31  5-MIN KAVL 230025Z 00000KT 7SM FU CLR 08/M07 A3027 1840 34 1500 000/00 RMK AO2 T00781072
03812KAVL AVL20161122193010711/22/16 19:30:31  5-MIN KAVL 230030Z 00000KT 7SM FU CLR 08/M07 A3027 1840 34 1500 000/00 RMK AO2 T00781072
03812KAVL AVL20161122193510711/22/16 19:35:31  5-MIN KAVL 230035Z 00000KT 7SM FU CLR 07/M07 A3027 1840 36 1400 000/00 RMK AO2 T00721067
03812KAVL AVL20161122194010711/22/16 19:40:31  5-MIN KAVL 230040Z 13003KT 7SM FU CLR 07/M07 A3027 1850 36 1400 130/03 RMK AO2 T00721067
03812KAVL AVL20161122194511011/22/16 19:45:31  5-MIN KAVL 230045Z 00000KT 7SM FU FEW040 07/M07 A3027 1840 38 1300 000/00 RMK AO2 T00671067
03812KAVL AVL20161122195011711/22/16 19:50:31  5-MIN KAVL 230050Z 00000KT 7SM FU FEW040 07/M06 A3028 1840 39 1300 000/00 RMK AO2 SLP258 T00671061
03812KAVL AVL20161122195511011/22/16 19:55:31  5-MIN KAVL 230055Z 00000KT 7SM FU FEW040 06/M06 A3028 1840 41 1200 000/00 RMK AO2 T00611061
03812KAVL AVL20161122200011011/22/16 20:00:31  5-MIN KAVL 230100Z 00000KT 7SM FU SCT040 06/M06 A3028 1840 41 1200 000/00 RMK AO2 T00611061
03812KAVL AVL20161122200511011/22/16 20:05:31  5-MIN KAVL 230105Z 00000KT 7SM FU SCT040 06/M06 A3028 1840 43 1200 000/00 RMK AO2 T00561061
03812KAVL AVL20161122201011011/22/16 20:10:31  5-MIN KAVL 230110Z 15003KT 7SM FU SCT040 06/M06 A3028 1840 43 1200 160/03 RMK AO2 T00561061
03812KAVL AVL20161122201511311/22/16 20:15:31  5-MIN KAVL 230115Z 00000KT 6SM HZ FU SCT040 05/M06 A3028 1840 46 1100 000/00 RMK AO2 T00501056
03812KAVL AVL20161122202011311/22/16 20:20:31  5-MIN KAVL 230120Z 17003KT 6SM HZ FU SCT039 05/M06 A3028 1840 46 1100 180/03 RMK AO2 T00501056
03812KAVL AVL20161122202511311/22/16 20:25:31  5-MIN KAVL 230125Z 00000KT 6SM HZ FU FEW039 04/M06 A3028 1840 48 1000 000/00 RMK AO2 T00441056
03812KAVL AVL20161122203011311/22/16 20:30:31  5-MIN KAVL 230130Z 16003KT 6SM HZ FU FEW039 05/M06 A3028 1840 44 1100 170/03 RMK AO2 T00501061
03812KAVL AVL20161122203511311/22/16 20:35:31  5-MIN KAVL 230135Z 00000KT 6SM HZ FU FEW039 04/M06 A3028 1840 48 1000 000/00 RMK AO2 T00441056
03812KAVL AVL20161122204011011/22/16 20:40:31  5-MIN KAVL 230140Z 00000KT 6SM HZ FU CLR 06/M06 A3028 1840 43 1200 000/00 RMK AO2 T00561061
03812KAVL AVL20161122204511011/22/16 20:45:31  5-MIN KAVL 230145Z 00000KT 6SM HZ FU CLR 05/M06 A3028 1840 44 1100 000/00 RMK AO2 T00501061
03812KAVL AVL20161122205011711/22/16 20:50:31  5-MIN KAVL 230150Z 00000KT 6SM HZ FU CLR 05/M06 A3029 1830 44 1100 000/00 RMK AO2 SLP261 T00501061
03812KAVL AVL20161122205511011/22/16 20:55:31  5-MIN KAVL 230155Z 00000KT 6SM HZ FU CLR 06/M07 A3028 1830 41 1200 000/00 RMK AO2 T00561067
03812KAVL AVL20161122210011011/22/16 21:00:31  5-MIN KAVL 230200Z 00000KT 6SM HZ FU CLR 05/M06 A3029 1830 46 1100 000/00 RMK AO2 T00501056
03812KAVL AVL20161122210511011/22/16 21:05:31  5-MIN KAVL 230205Z 00000KT 6SM HZ FU CLR 05/M06 A3029 1830 44 1100 000/00 RMK AO2 T00501061
03812KAVL AVL20161122211011011/22/16 21:10:31  5-MIN KAVL 230210Z 00000KT 6SM HZ FU CLR 04/M06 A3029 1830 48 1000 000/00 RMK AO2 T00441056
03812KAVL AVL20161122211511011/22/16 21:15:31  5-MIN KAVL 230215Z 16003KT 6SM HZ FU CLR 04/M06 A3029 1830 46 1000 160/03 RMK AO2 T00441061
03812KAVL AVL20161122212011011/22/16 21:20:31  5-MIN KAVL 230220Z 00000KT 5SM HZ FU CLR 04/M05 A3029 1830 52 1000 000/00 RMK AO2 T00391050
03812KAVL AVL20161122212511011/22/16 21:25:31  5-MIN KAVL 230225Z 15003KT 5SM HZ FU CLR 04/M06 A3029 1830 50 1000 150/03 RMK AO2 T00391056
03812KAVL AVL20161122213011011/22/16 21:30:31  5-MIN KAVL 230230Z 00000KT 5SM HZ FU CLR 04/M06 A3029 1830 50 1000 000/00 RMK AO2 T00391056
03812KAVL AVL20161122213510911/22/16 21:35:31  5-MIN KAVL 230235Z 00000KT 5SM HZ FU CLR 03/M05 A3029 1830 54 900 000/00 RMK AO2 T00331050
03812KAVL AVL20161122214011011/22/16 21:40:31  5-MIN KAVL 230240Z 00000KT 5SM HZ FU CLR 04/M06 A3029 1830 50 1000 000/00 RMK AO2 T00391056
03812KAVL AVL20161122214511011/22/16 21:45:31  5-MIN KAVL 230245Z 00000KT 5SM HZ FU CLR 04/M06 A3029 1830 50 1000 000/00 RMK AO2 T00391056
03812KAVL AVL20161122215012211/22/16 21:50:31  5-MIN KAVL 230250Z 00000KT 5SM HZ FU CLR 03/M05 A3029 1830 56 800 000/00 RMK AO2 SLP261 T00281050 53012
03812KAVL AVL20161122215510911/22/16 21:55:31  5-MIN KAVL 230255Z 00000KT 5SM HZ FU CLR 03/M05 A3030 1820 54 900 000/00 RMK AO2 T00331050
03812KAVL AVL20161122220010911/22/16 22:00:31  5-MIN KAVL 230300Z 00000KT 5SM HZ FU CLR 03/M06 A3030 1820 54 800 000/00 RMK AO2 T00281056
03812KAVL AVL20161122220510911/22/16 22:05:31  5-MIN KAVL 230305Z 00000KT 5SM HZ FU CLR 03/M05 A3029 1830 54 900 000/00 RMK AO2 T00331050
03812KAVL AVL20161122221010911/22/16 22:10:31  5-MIN KAVL 230310Z 00000KT 5SM HZ FU CLR 03/M05 A3029 1830 56 800 000/00 RMK AO2 T00281050
03812KAVL AVL20161122221510911/22/16 22:15:31  5-MIN KAVL 230315Z 00000KT 5SM HZ FU CLR 03/M05 A3029 1830 56 800 000/00 RMK AO2 T00281050
03812KAVL AVL20161122222010911/22/16 22:20:31  5-MIN KAVL 230320Z 00000KT 5SM HZ FU CLR 03/M05 A3029 1830 56 800 000/00 RMK AO2 T00281050
03812KAVL AVL20161122222510911/22/16 22:25:31  5-MIN KAVL 230325Z 00000KT 5SM HZ FU CLR 03/M06 A3029 1830 52 900 000/00 RMK AO2 T00331056
03812KAVL AVL20161122223010911/22/16 22:30:31  5-MIN KAVL 230330Z 00000KT 5SM HZ FU CLR 03/M06 A3029 1830 50 900 000/00 RMK AO2 T00331061
03812KAVL AVL20161122223510911/22/16 22:35:31  5-MIN KAVL 230335Z 00000KT 5SM HZ FU CLR 03/M06 A3029 1830 50 900 000/00 RMK AO2 T00331061
03812KAVL AVL20161122224010911/22/16 22:40:31  5-MIN KAVL 230340Z 00000KT 5SM HZ FU CLR 03/M06 A3028 1840 54 800 000/00 RMK AO2 T00281056
03812KAVL AVL20161122224511411/22/16 22:45:31  5-MIN KAVL 230345Z AUTO 00000KT 5SM HZ FU CLR 02/M05 A3028 1830 59 800 000/00 RMK AO2 T00221050
03812KAVL AVL20161122225012111/22/16 22:50:31  5-MIN KAVL 230350Z AUTO 17003KT 5SM HZ FU CLR 02/M05 A3029 1830 59 800 170/03 RMK AO2 SLP257 T00221050
03812KAVL AVL20161122225511411/22/16 22:55:31  5-MIN KAVL 230355Z AUTO 16003KT 5SM HZ FU CLR 02/M05 A3029 1830 61 700 170/03 RMK AO2 T00171050
03812KAVL AVL20161122230011411/22/16 23:00:31  5-MIN KAVL 230400Z AUTO 00000KT 5SM HZ FU CLR 02/M04 A3029 1830 64 700 000/00 RMK AO2 T00171044
03812KAVL AVL20161122230511411/22/16 23:05:31  5-MIN KAVL 230405Z AUTO 00000KT 5SM HZ FU CLR 02/M04 A3028 1830 64 700 000/00 RMK AO2 T00171044
03812KAVL AVL20161122231011411/22/16 23:10:31  5-MIN KAVL 230410Z AUTO 00000KT 4SM HZ FU CLR 02/M04 A3028 1840 64 700 000/00 RMK AO2 T00171044
03812KAVL AVL20161122231511411/22/16 23:15:31  5-MIN KAVL 230415Z AUTO 00000KT 5SM HZ FU CLR 02/M05 A3029 1830 59 800 000/00 RMK AO2 T00221050
03812KAVL AVL20161122232011411/22/16 23:20:31  5-MIN KAVL 230420Z AUTO 00000KT 5SM HZ FU CLR 02/M05 A3029 1830 59 800 000/00 RMK AO2 T00221050
03812KAVL AVL20161122232511711/22/16 23:25:31  5-MIN KAVL 230425Z AUTO 00000KT 5SM HZ FU FEW018 02/M06 A3028 1830 56 800 000/00 RMK AO2 T00221056
03812KAVL AVL20161122233011711/22/16 23:30:31  5-MIN KAVL 230430Z AUTO 00000KT 5SM HZ FU SCT018 02/M06 A3028 1840 56 800 000/00 RMK AO2 T00221056
03812KAVL AVL20161122233511711/22/16 23:35:31  5-MIN KAVL 230435Z AUTO 00000KT 5SM HZ FU BKN020 02/M05 A3028 1840 61 700 000/00 RMK AO2 T00171050
03812KAVL AVL20161122234011711/22/16 23:40:31  5-MIN KAVL 230440Z AUTO 00000KT 5SM HZ FU BKN020 02/M05 A3028 1830 61 700 000/00 RMK AO2 T00171050
03812KAVL AVL20161122234511711/22/16 23:45:31  5-MIN KAVL 230445Z AUTO 18003KT 5SM HZ FU BKN022 02/M06 A3028 1830 56 800 180/03 RMK AO2 T00221056
03812KAVL AVL20161122235013411/22/16 23:50:31  5-MIN KAVL 230450Z AUTO 00000KT 4SM HZ FU BKN022 02/M05 A3028 1830 59 800 000/00 RMK AO2 SLP255 T00221050 401441011
03812KAVL AVL20161122235511711/22/16 23:55:31  5-MIN KAVL 230455Z AUTO 00000KT 4SM HZ FU SCT022 02/M05 A3028 1840 61 700 000/00 RMK AO2 T00171050
03812KAVL AVL20161123000011711/23/16 00:00:31  5-MIN KAVL 230500Z AUTO 19003KT 5SM HZ FU SCT021 02/M05 A3028 1830 59 800 200/03 RMK AO2 T00221050
03812KAVL AVL20161123000511711/23/16 00:05:31  5-MIN KAVL 230505Z AUTO 17003KT 4SM HZ FU FEW023 02/M04 A3028 1840 64 700 170/03 RMK AO2 T00171044
03812KAVL AVL20161123001011411/23/16 00:10:31  5-MIN KAVL 230510Z AUTO 00000KT 4SM HZ FU CLR 02/M05 A3028 1840 59 800 000/00 RMK AO2 T00221050
03812KAVL AVL20161123001511411/23/16 00:15:31  5-MIN KAVL 230515Z AUTO 00000KT 4SM HZ FU CLR 02/M05 A3028 1840 61 700 000/00 RMK AO2 T00171050
03812KAVL AVL20161123002011411/23/16 00:20:31  5-MIN KAVL 230520Z AUTO 00000KT 4SM HZ FU CLR 02/M06 A3028 1840 59 700 000/00 RMK AO2 T00171056
03812KAVL AVL20161123002511411/23/16 00:25:31  5-MIN KAVL 230525Z AUTO 00000KT 4SM HZ FU CLR 02/M06 A3028 1840 54 800 000/00 RMK AO2 T00221061
03812KAVL AVL20161123003011411/23/16 00:30:31  5-MIN KAVL 230530Z AUTO 15003KT 4SM HZ FU CLR 02/M06 A3027 1840 56 800 150/03 RMK AO2 T00221056
03812KAVL AVL20161123003511411/23/16 00:35:31  5-MIN KAVL 230535Z AUTO 17003KT 4SM HZ FU CLR 02/M06 A3028 1840 56 800 180/03 RMK AO2 T00221056
03812KAVL AVL20161123004011411/23/16 00:40:31  5-MIN KAVL 230540Z AUTO 16003KT 4SM HZ FU CLR 02/M05 A3028 1840 61 700 160/03 RMK AO2 T00171050
03812KAVL AVL20161123004511411/23/16 00:45:31  5-MIN KAVL 230545Z AUTO 00000KT 4SM HZ FU CLR 02/M05 A3027 1840 61 700 000/00 RMK AO2 T00171050
03812KAVL AVL20161123005013911/23/16 00:50:31  5-MIN KAVL 230550Z AUTO 00000KT 4SM HZ FU CLR 02/M05 A3027 1840 61 700 000/00 RMK AO2 SLP251 T00171050 10083 20017 51009
03812KAVL AVL20161123005511411/23/16 00:55:31  5-MIN KAVL 230555Z AUTO 00000KT 4SM HZ FU CLR 02/M05 A3027 1840 61 700 000/00 RMK AO2 T00171050
03812KAVL AVL20161123010011411/23/16 01:00:31  5-MIN KAVL 230600Z AUTO 00000KT 5SM HZ FU CLR 02/M06 A3027 1850 56 800 000/00 RMK AO2 T00221056
03812KAVL AVL20161123010511411/23/16 01:05:31  5-MIN KAVL 230605Z AUTO 00000KT 5SM HZ FU CLR 02/M06 A3027 1840 56 800 000/00 RMK AO2 T00221056
03812KAVL AVL20161123011011411/23/16 01:10:31  5-MIN KAVL 230610Z AUTO 00000KT 5SM HZ FU CLR 02/M06 A3027 1850 56 800 000/00 RMK AO2 T00221056
03812KAVL AVL20161123011511411/23/16 01:15:31  5-MIN KAVL 230615Z AUTO 00000KT 5SM HZ FU CLR 02/M05 A3027 1850 61 700 000/00 RMK AO2 T00171050
03812KAVL AVL20161123012011411/23/16 01:20:31  5-MIN KAVL 230620Z AUTO 00000KT 5SM HZ FU CLR 02/M05 A3027 1850 61 700 000/00 RMK AO2 T00171050
03812KAVL AVL20161123012511411/23/16 01:25:31  5-MIN KAVL 230625Z AUTO 00000KT 5SM HZ FU CLR 02/M05 A3027 1850 61 700 000/00 RMK AO2 T00171050
03812KAVL AVL20161123013011411/23/16 01:30:31  5-MIN KAVL 230630Z AUTO 00000KT 4SM HZ FU CLR 02/M05 A3026 1850 59 800 000/00 RMK AO2 T00221050
03812KAVL AVL20161123013511411/23/16 01:35:31  5-MIN KAVL 230635Z AUTO 00000KT 4SM HZ FU CLR 02/M06 A3026 1850 56 800 000/00 RMK AO2 T00221056
03812KAVL AVL20161123014011411/23/16 01:40:31  5-MIN KAVL 230640Z AUTO 24003KT 4SM HZ FU CLR 02/M06 A3027 1840 56 800 250/03 RMK AO2 T00221056
03812KAVL AVL20161123014511411/23/16 01:45:31  5-MIN KAVL 230645Z AUTO 22004KT 4SM HZ FU CLR 01/M04 A3028 1840 66 600 220/04 RMK AO2 T00111044
03812KAVL AVL20161123015012111/23/16 01:50:31  5-MIN KAVL 230650Z AUTO 00000KT 4SM HZ FU CLR 01/M04 A3028 1840 66 600 000/00 RMK AO2 SLP252 T00111044
03812KAVL AVL20161123015511411/23/16 01:55:31  5-MIN KAVL 230655Z AUTO 00000KT 4SM HZ FU CLR 01/M04 A3028 1840 66 600 000/00 RMK AO2 T00111044
03812KAVL AVL20161123020011411/23/16 02:00:31  5-MIN KAVL 230700Z AUTO 00000KT 4SM HZ FU CLR 02/M04 A3027 1840 64 700 000/00 RMK AO2 T00171044
03812KAVL AVL20161123020511411/23/16 02:05:31  5-MIN KAVL 230705Z AUTO 00000KT 4SM HZ FU CLR 02/M05 A3028 1840 61 700 000/00 RMK AO2 T00171050
03812KAVL AVL20161123021011411/23/16 02:10:31  5-MIN KAVL 230710Z AUTO 00000KT 4SM HZ FU CLR 02/M05 A3028 1840 59 800 000/00 RMK AO2 T00221050
03812KAVL AVL20161123021511411/23/16 02:15:31  5-MIN KAVL 230715Z AUTO 00000KT 4SM HZ FU CLR 02/M04 A3028 1840 64 700 000/00 RMK AO2 T00171044
03812KAVL AVL20161123022011411/23/16 02:20:31  5-MIN KAVL 230720Z AUTO 00000KT 4SM HZ FU CLR 02/M04 A3028 1840 64 700 000/00 RMK AO2 T00171044
03812KAVL AVL20161123022511411/23/16 02:25:31  5-MIN KAVL 230725Z AUTO 00000KT 4SM HZ FU CLR 02/M04 A3028 1840 66 700 000/00 RMK AO2 T00171039
03812KAVL AVL20161123023011411/23/16 02:30:31  5-MIN KAVL 230730Z AUTO 00000KT 4SM HZ FU CLR 02/M04 A3028 1830 66 700 000/00 RMK AO2 T00171039
03812KAVL AVL20161123023511411/23/16 02:35:31  5-MIN KAVL 230735Z AUTO 00000KT 4SM HZ FU CLR 02/M05 A3028 1830 61 700 000/00 RMK AO2 T00171050
03812KAVL AVL20161123024011411/23/16 02:40:31  5-MIN KAVL 230740Z AUTO 00000KT 4SM HZ FU CLR 02/M05 A3028 1840 61 700 000/00 RMK AO2 T00171050
03812KAVL AVL20161123024511411/23/16 02:45:31  5-MIN KAVL 230745Z AUTO 12003KT 4SM HZ FU CLR 02/M05 A3028 1840 61 700 130/03 RMK AO2 T00171050
03812KAVL AVL20161123025012111/23/16 02:50:31  5-MIN KAVL 230750Z AUTO 12003KT 4SM HZ FU CLR 02/M05 A3029 1830 61 700 130/03 RMK AO2 SLP253 T00171050
03812KAVL AVL20161123025511411/23/16 02:55:31  5-MIN KAVL 230755Z AUTO 00000KT 4SM HZ FU CLR 02/M05 A3028 1830 61 700 000/00 RMK AO2 T00171050
03812KAVL AVL20161123030011411/23/16 03:00:31  5-MIN KAVL 230800Z AUTO 00000KT 4SM HZ FU CLR 02/M05 A3028 1830 61 700 000/00 RMK AO2 T00171050
03812KAVL AVL20161123030511411/23/16 03:05:31  5-MIN KAVL 230805Z AUTO 00000KT 4SM HZ FU CLR 02/M05 A3029 1830 61 700 000/00 RMK AO2 T00171050
03812KAVL AVL20161123031011411/23/16 03:10:31  5-MIN KAVL 230810Z AUTO 00000KT 4SM HZ FU CLR 02/M05 A3029 1830 61 700 000/00 RMK AO2 T00171050
03812KAVL AVL20161123031511411/23/16 03:15:31  5-MIN KAVL 230815Z AUTO 00000KT 4SM HZ FU CLR 01/M04 A3029 1830 66 600 000/00 RMK AO2 T00111044
03812KAVL AVL20161123032011411/23/16 03:20:31  5-MIN KAVL 230820Z AUTO 00000KT 4SM HZ FU CLR 01/M04 A3029 1830 66 600 000/00 RMK AO2 T00111044
03812KAVL AVL20161123032511411/23/16 03:25:31  5-MIN KAVL 230825Z AUTO 00000KT 4SM HZ FU CLR 02/M05 A3029 1820 61 700 000/00 RMK AO2 T00171050
03812KAVL AVL20161123033011411/23/16 03:30:31  5-MIN KAVL 230830Z AUTO 13003KT 4SM HZ FU CLR 02/M05 A3029 1830 61 700 140/03 RMK AO2 T00171050
03812KAVL AVL20161123033511411/23/16 03:35:31  5-MIN KAVL 230835Z AUTO 13003KT 4SM HZ FU CLR 02/M05 A3029 1830 61 700 130/03 RMK AO2 T00171050
03812KAVL AVL20161123034011411/23/16 03:40:31  5-MIN KAVL 230840Z AUTO 00000KT 4SM HZ FU CLR 02/M05 A3029 1830 61 700 000/00 RMK AO2 T00171050
03812KAVL AVL20161123034511411/23/16 03:45:31  5-MIN KAVL 230845Z AUTO 12003KT 5SM HZ FU CLR 02/M05 A3029 1830 61 700 120/03 RMK AO2 T00171050
03812KAVL AVL20161123035012711/23/16 03:50:31  5-MIN KAVL 230850Z AUTO 00000KT 5SM HZ FU CLR 02/M05 A3028 1830 59 800 000/00 RMK AO2 SLP253 T00221050 56006
03812KAVL AVL20161123035511411/23/16 03:55:31  5-MIN KAVL 230855Z AUTO 00000KT 5SM HZ FU CLR 02/M06 A3029 1830 56 800 000/00 RMK AO2 T00221056
03812KAVL AVL20161123040011411/23/16 04:00:31  5-MIN KAVL 230900Z AUTO 00000KT 5SM HZ FU CLR 02/M05 A3028 1830 59 800 000/00 RMK AO2 T00221050
03812KAVL AVL20161123040511411/23/16 04:05:31  5-MIN KAVL 230905Z AUTO 00000KT 5SM HZ FU CLR 02/M05 A3028 1840 59 800 000/00 RMK AO2 T00221050
03812KAVL AVL20161123041011411/23/16 04:10:31  5-MIN KAVL 230910Z AUTO 13003KT 5SM HZ FU CLR 02/M05 A3028 1840 59 800 140/03 RMK AO2 T00221050
03812KAVL AVL20161123041511411/23/16 04:15:31  5-MIN KAVL 230915Z AUTO 00000KT 5SM HZ FU CLR 02/M05 A3028 1840 59 800 000/00 RMK AO2 T00221050
03812KAVL AVL20161123042011411/23/16 04:20:31  5-MIN KAVL 230920Z AUTO 00000KT 5SM HZ FU CLR 02/M05 A3028 1830 59 800 000/00 RMK AO2 T00221050
03812KAVL AVL20161123042511411/23/16 04:25:31  5-MIN KAVL 230925Z AUTO 00000KT 5SM HZ FU CLR 02/M04 A3028 1830 64 700 000/00 RMK AO2 T00171044
03812KAVL AVL20161123043011411/23/16 04:30:31  5-MIN KAVL 230930Z AUTO 00000KT 5SM HZ FU CLR 02/M04 A3028 1830 64 700 000/00 RMK AO2 T00171044
03812KAVL AVL20161123043511411/23/16 04:35:31  5-MIN KAVL 230935Z AUTO 00000KT 5SM HZ FU CLR 02/M04 A3028 1840 64 700 000/00 RMK AO2 T00171044
03812KAVL AVL20161123044011411/23/16 04:40:31  5-MIN KAVL 230940Z AUTO 00000KT 4SM HZ FU CLR 02/M04 A3028 1840 64 700 000/00 RMK AO2 T00171044
03812KAVL AVL20161123044511411/23/16 04:45:31  5-MIN KAVL 230945Z AUTO 00000KT 4SM HZ FU CLR 02/M04 A3027 1840 64 700 000/00 RMK AO2 T00171044
03812KAVL AVL20161123045012111/23/16 04:50:31  5-MIN KAVL 230950Z AUTO 00000KT 4SM HZ FU CLR 01/M04 A3027 1840 69 600 000/00 RMK AO2 SLP252 T00111039
03812KAVL AVL20161123045511411/23/16 04:55:31  5-MIN KAVL 230955Z AUTO 00000KT 4SM HZ FU CLR 01/M04 A3027 1840 69 600 000/00 RMK AO2 T00111039
03812KAVL AVL20161123050011411/23/16 05:00:31  5-MIN KAVL 231000Z AUTO 00000KT 4SM HZ FU CLR 02/M04 A3027 1840 64 700 000/00 RMK AO2 T00171044
03812KAVL AVL20161123050511411/23/16 05:05:31  5-MIN KAVL 231005Z AUTO 17003KT 4SM HZ FU CLR 01/M04 A3027 1840 69 600 180/03 RMK AO2 T00111039
03812KAVL AVL20161123051011411/23/16 05:10:31  5-MIN KAVL 231010Z AUTO 18004KT 4SM HZ FU CLR 01/M04 A3028 1840 66 600 180/04 RMK AO2 T00111044
03812KAVL AVL20161123051511411/23/16 05:15:31  5-MIN KAVL 231015Z AUTO 17003KT 4SM HZ FU CLR 01/M04 A3028 1840 66 600 170/03 RMK AO2 T00111044
03812KAVL AVL20161123052011411/23/16 05:20:31  5-MIN KAVL 231020Z AUTO 00000KT 4SM HZ FU CLR 01/M04 A3028 1830 66 600 000/00 RMK AO2 T00111044
03812KAVL AVL20161123052511411/23/16 05:25:31  5-MIN KAVL 231025Z AUTO 16003KT 4SM HZ FU CLR 02/M04 A3028 1830 64 700 170/03 RMK AO2 T00171044
03812KAVL AVL20161123053011411/23/16 05:30:31  5-MIN KAVL 231030Z AUTO 17003KT 4SM HZ FU CLR 02/M04 A3028 1830 64 700 180/03 RMK AO2 T00171044
03812KAVL AVL20161123053511411/23/16 05:35:31  5-MIN KAVL 231035Z AUTO 00000KT 4SM HZ FU CLR 02/M04 A3028 1840 64 700 000/00 RMK AO2 T00171044
03812KAVL AVL20161123054011411/23/16 05:40:31  5-MIN KAVL 231040Z AUTO 00000KT 4SM HZ FU CLR 02/M04 A3028 1830 64 700 000/00 RMK AO2 T00171044
03812KAVL AVL20161123054511411/23/16 05:45:31  5-MIN KAVL 231045Z AUTO 00000KT 4SM HZ FU CLR 02/M04 A3029 1830 64 700 000/00 RMK AO2 T00171044
03812KAVL AVL20161123055012111/23/16 05:50:31  5-MIN KAVL 231050Z AUTO 00000KT 4SM HZ FU CLR 02/M05 A3028 1840 61 700 000/00 RMK AO2 SLP255 T00171050
03812KAVL AVL20161123055511411/23/16 05:55:31  5-MIN KAVL 231055Z AUTO 00000KT 4SM HZ FU CLR 02/M05 A3028 1840 61 700 000/00 RMK AO2 T00171050
03812KAVL AVL20161123060011411/23/16 06:00:31  5-MIN KAVL 231100Z AUTO 00000KT 4SM HZ FU CLR 02/M05 A3029 1830 59 800 000/00 RMK AO2 T00221050
03812KAVL AVL20161123060511411/23/16 06:05:31  5-MIN KAVL 231105Z AUTO 00000KT 4SM HZ FU CLR 02/M05 A3028 1830 59 800 000/00 RMK AO2 T00221050
03812KAVL AVL20161123061011411/23/16 06:10:31  5-MIN KAVL 231110Z AUTO 00000KT 4SM HZ FU CLR 02/M05 A3028 1830 59 800 000/00 RMK AO2 T00221050
03812KAVL AVL20161123061511411/23/16 06:15:31  5-MIN KAVL 231115Z AUTO 00000KT 4SM HZ FU CLR 02/M04 A3028 1830 61 800 000/00 RMK AO2 T00221044
03812KAVL AVL20161123062010911/23/16 06:20:31  5-MIN KAVL 231120Z 00000KT 4SM HZ FU CLR 02/M04 A3028 1840 61 800 000/00 RMK AO2 T00221044
03812KAVL AVL20161123062510911/23/16 06:25:31  5-MIN KAVL 231125Z 00000KT 4SM HZ FU CLR 02/M04 A3028 1830 61 800 000/00 RMK AO2 T00221044
03812KAVL AVL20161123063010911/23/16 06:30:31  5-MIN KAVL 231130Z 00000KT 4SM HZ FU CLR 02/M04 A3029 1830 61 800 000/00 RMK AO2 T00221044
03812KAVL AVL20161123063510911/23/16 06:35:31  5-MIN KAVL 231135Z 17003KT 4SM HZ FU CLR 02/M04 A3029 1830 61 800 180/03 RMK AO2 T00221044
03812KAVL AVL20161123064010911/23/16 06:40:31  5-MIN KAVL 231140Z 00000KT 4SM HZ FU CLR 02/M04 A3029 1830 61 800 000/00 RMK AO2 T00221044
03812KAVL AVL20161123064510911/23/16 06:45:31  5-MIN KAVL 231145Z 00000KT 4SM HZ FU CLR 02/M04 A3029 1830 61 800 000/00 RMK AO2 T00221044
03812KAVL AVL20161123065013411/23/16 06:50:31  5-MIN KAVL 231150Z 13003KT 4SM HZ FU CLR 02/M04 A3029 1830 61 800 130/03 RMK AO2 SLP258 T00221044 10022 20011 51003
03812KAVL AVL20161123065510911/23/16 06:55:31  5-MIN KAVL 231155Z 10003KT 4SM HZ FU CLR 02/M04 A3028 1830 61 800 110/03 RMK AO2 T00221044
03812KAVL AVL20161123070010911/23/16 07:00:31  5-MIN KAVL 231200Z 15003KT 4SM HZ FU CLR 03/M04 A3029 1830 59 800 160/03 RMK AO2 T00281044
03812KAVL AVL20161123070510911/23/16 07:05:31  5-MIN KAVL 231205Z 00000KT 4SM HZ FU CLR 02/M04 A3029 1830 64 800 000/00 RMK AO2 T00221039
03812KAVL AVL20161123071010911/23/16 07:10:31  5-MIN KAVL 231210Z 00000KT 4SM HZ FU CLR 02/M04 A3029 1830 61 800 000/00 RMK AO2 T00221044
03812KAVL AVL20161123071510911/23/16 07:15:31  5-MIN KAVL 231215Z 18004KT 4SM HZ FU CLR 02/M04 A3029 1830 61 800 190/04 RMK AO2 T00221044
03812KAVL AVL20161123072010911/23/16 07:20:31  5-MIN KAVL 231220Z 00000KT 4SM HZ FU CLR 02/M04 A3029 1830 66 700 000/00 RMK AO2 T00171039
03812KAVL AVL20161123072510911/23/16 07:25:31  5-MIN KAVL 231225Z 00000KT 3SM HZ FU CLR 02/M04 A3029 1830 64 700 000/00 RMK AO2 T00171044
03812KAVL AVL20161123073010911/23/16 07:30:31  5-MIN KAVL 231230Z 20003KT 3SM HZ FU CLR 02/M04 A3029 1830 64 700 210/03 RMK AO2 T00171044
03812KAVL AVL20161123073510911/23/16 07:35:31  5-MIN KAVL 231235Z 20003KT 3SM HZ FU CLR 02/M04 A3029 1830 64 700 200/03 RMK AO2 T00171044
03812KAVL AVL20161123074010911/23/16 07:40:31  5-MIN KAVL 231240Z 15003KT 3SM HZ FU CLR 02/M04 A3029 1830 66 700 160/03 RMK AO2 T00171039
03812KAVL AVL20161123074510911/23/16 07:45:31  5-MIN KAVL 231245Z 00000KT 3SM HZ FU CLR 02/M04 A3028 1830 64 700 000/00 RMK AO2 T00171044
03812KAVL AVL20161123075011611/23/16 07:50:31  5-MIN KAVL 231250Z 00000KT 3SM HZ FU CLR 02/M04 A3029 1830 61 800 000/00 RMK AO2 SLP261 T00221044
03812KAVL AVL20161123075510911/23/16 07:55:31  5-MIN KAVL 231255Z 00000KT 3SM HZ FU CLR 02/M04 A3029 1820 64 800 000/00 RMK AO2 T00221039
03812KAVL AVL20161123080010911/23/16 08:00:31  5-MIN KAVL 231300Z 24003KT 3SM HZ FU CLR 02/M04 A3030 1820 64 800 240/03 RMK AO2 T00221039
03812KAVL AVL20161123080510911/23/16 08:05:31  5-MIN KAVL 231305Z 00000KT 3SM HZ FU CLR 02/M04 A3029 1820 64 800 000/00 RMK AO2 T00221039
03812KAVL AVL20161123081010911/23/16 08:10:31  5-MIN KAVL 231310Z 00000KT 3SM HZ FU CLR 02/M04 A3029 1820 61 800 000/00 RMK AO2 T00221044
03812KAVL AVL20161123081510911/23/16 08:15:31  5-MIN KAVL 231315Z 00000KT 3SM HZ FU CLR 02/M04 A3030 1820 61 800 000/00 RMK AO2 T00221044
03812KAVL AVL20161123082010911/23/16 08:20:31  5-MIN KAVL 231320Z 00000KT 3SM HZ FU CLR 02/M04 A3030 1820 61 800 000/00 RMK AO2 T00221044
03812KAVL AVL20161123082510911/23/16 08:25:31  5-MIN KAVL 231325Z 00000KT 3SM HZ FU CLR 03/M04 A3030 1820 59 800 000/00 RMK AO2 T00281044
03812KAVL AVL20161123083010911/23/16 08:30:31  5-MIN KAVL 231330Z 00000KT 3SM HZ FU CLR 03/M04 A3030 1820 59 900 000/00 RMK AO2 T00331039
03812KAVL AVL20161123083510911/23/16 08:35:31  5-MIN KAVL 231335Z 00000KT 3SM HZ FU CLR 03/M04 A3030 1820 57 900 000/00 RMK AO2 T00331044
03812KAVL AVL20161123084010911/23/16 08:40:31  5-MIN KAVL 231340Z 00000KT 3SM HZ FU CLR 03/M04 A3031 1810 57 900 000/00 RMK AO2 T00331044
03812KAVL AVL20161123084510911/23/16 08:45:31  5-MIN KAVL 231345Z 00000KT 3SM HZ FU CLR 03/M04 A3031 1810 57 900 000/00 RMK AO2 T00331044
03812KAVL AVL20161123085011611/23/16 08:50:31  5-MIN KAVL 231350Z 00000KT 3SM HZ FU CLR 04/M04 A3030 1810 54 900 000/00 RMK AO2 SLP266 T00391044
03812KAVL AVL20161123085511011/23/16 08:55:31  5-MIN KAVL 231355Z 00000KT 3SM HZ FU CLR 04/M04 A3030 1820 57 1000 000/00 RMK AO2 T00391039
03812KAVL AVL20161123090011011/23/16 09:00:31  5-MIN KAVL 231400Z 00000KT 3SM HZ FU CLR 04/M04 A3030 1810 55 1000 000/00 RMK AO2 T00441039
03812KAVL AVL20161123090511011/23/16 09:05:31  5-MIN KAVL 231405Z 00000KT 3SM HZ FU CLR 05/M04 A3030 1810 52 1100 000/00 RMK AO2 T00501039
03812KAVL AVL20161123091011011/23/16 09:10:31  5-MIN KAVL 231410Z 16003KT 3SM HZ FU CLR 05/M04 A3030 1810 52 1100 170/03 RMK AO2 T00501039
03812KAVL AVL20161123091511011/23/16 09:15:31  5-MIN KAVL 231415Z 16003KT 2SM HZ FU CLR 05/M03 A3030 1810 55 1100 170/03 RMK AO2 T00501033
03812KAVL AVL20161123092011011/23/16 09:20:31  5-MIN KAVL 231420Z 00000KT 2SM HZ FU CLR 06/M03 A3031 1810 53 1100 000/00 RMK AO2 T00561033
03812KAVL AVL20161123092511011/23/16 09:25:31  5-MIN KAVL 231425Z 00000KT 3SM HZ FU CLR 06/M03 A3031 1810 51 1200 000/00 RMK AO2 T00611033
03812KAVL AVL20161123093011011/23/16 09:30:31  5-MIN KAVL 231430Z 00000KT 3SM HZ FU CLR 07/M03 A3031 1810 49 1300 000/00 RMK AO2 T00671033
03812KAVL AVL20161123093511011/23/16 09:35:31  5-MIN KAVL 231435Z 16003KT 3SM HZ FU CLR 07/M04 A3031 1810 45 1300 160/03 RMK AO2 T00721039
03812KAVL AVL20161123094011011/23/16 09:40:31  5-MIN KAVL 231440Z 17004KT 3SM HZ FU CLR 07/M04 A3031 1810 43 1300 170/04 RMK AO2 T00721044
03812KAVL AVL20161123094511011/23/16 09:45:31  5-MIN KAVL 231445Z 15004KT 4SM HZ FU CLR 08/M05 A3031 1810 40 1400 160/04 RMK AO2 T00781050
03812KAVL AVL20161123095012311/23/16 09:50:31  5-MIN KAVL 231450Z 15004KT 4SM HZ FU CLR 09/M06 A3031 1810 35 1500 150/04 RMK AO2 SLP265 T00891056 55001
03812KAVL AVL20161123095511011/23/16 09:55:31  5-MIN KAVL 231455Z 15004KT 5SM HZ FU CLR 09/M06 A3031 1810 35 1500 160/04 RMK AO2 T00891056
03812KAVL AVL20161123100011011/23/16 10:00:31  5-MIN KAVL 231500Z 16003KT 5SM HZ FU CLR 09/M06 A3031 1810 34 1500 160/03 RMK AO2 T00891061
03812KAVL AVL20161123100511011/23/16 10:05:31  5-MIN KAVL 231505Z 15004KT 5SM HZ FU CLR 09/M06 A3031 1810 35 1500 160/04 RMK AO2 T00891056
03812KAVL AVL20161123101011011/23/16 10:10:31  5-MIN KAVL 231510Z 16004KT 5SM HZ FU CLR 09/M06 A3031 1810 35 1500 170/04 RMK AO2 T00891056
03812KAVL AVL20161123101511011/23/16 10:15:31  5-MIN KAVL 231515Z 17005KT 5SM HZ FU CLR 09/M06 A3031 1810 35 1500 180/05 RMK AO2 T00891056
03812KAVL AVL20161123102011011/23/16 10:20:31  5-MIN KAVL 231520Z 16004KT 4SM HZ FU CLR 09/M06 A3031 1810 34 1500 170/04 RMK AO2 T00891061
03812KAVL AVL20161123102511011/23/16 10:25:31  5-MIN KAVL 231525Z 18004KT 4SM HZ FU CLR 09/M06 A3031 1810 34 1500 190/04 RMK AO2 T00891061
03812KAVL AVL20161123103011011/23/16 10:30:31  5-MIN KAVL 231530Z 17004KT 4SM HZ FU CLR 09/M06 A3030 1820 35 1600 180/04 RMK AO2 T00891056
03812KAVL AVL20161123103511011/23/16 10:35:31  5-MIN KAVL 231535Z 20003KT 5SM HZ FU CLR 09/M05 A3030 1820 35 1600 200/03 RMK AO2 T00941050
03812KAVL AVL20161123104011011/23/16 10:40:31  5-MIN KAVL 231540Z 17004KT 6SM HZ FU CLR 10/M05 A3030 1820 34 1700 180/04 RMK AO2 T01001050
03812KAVL AVL20161123104511011/23/16 10:45:31  5-MIN KAVL 231545Z 17005KT 5SM HZ FU CLR 10/M05 A3030 1820 34 1700 180/05 RMK AO2 T01001050
03812KAVL AVL20161123105011711/23/16 10:50:31  5-MIN KAVL 231550Z 18004KT 5SM HZ FU CLR 10/M05 A3030 1820 34 1700 190/04 RMK AO2 SLP261 T01001050
03812KAVL AVL20161123105511011/23/16 10:55:31  5-MIN KAVL 231555Z 17004KT 6SM HZ FU CLR 11/M05 A3029 1820 33 1800 180/04 RMK AO2 T01061050
03812KAVL AVL20161123110011011/23/16 11:00:31  5-MIN KAVL 231600Z 17005KT 5SM HZ FU CLR 11/M05 A3029 1830 32 1800 180/05 RMK AO2 T01111050
03812KAVL AVL20161123110511011/23/16 11:05:31  5-MIN KAVL 231605Z 15006KT 5SM HZ FU CLR 12/M05 A3029 1830 30 1900 160/06 RMK AO2 T01171050
03812KAVL AVL20161123111011011/23/16 11:10:31  5-MIN KAVL 231610Z 15007KT 3SM HZ FU CLR 12/M07 A3029 1830 27 1900 160/07 RMK AO2 T01171067
03812KAVL AVL20161123111511411/23/16 11:15:31  5-MIN KAVL 231615Z 15007KT 1 3/4SM HZ FU CLR 12/M07 A3029 1830 27 1900 160/07 RMK AO2 T01171067
03812KAVL AVL20161123112012411/23/16 11:20:31  5-MIN KAVL 231620Z 16009KT 1 1/4SM HZ FU CLR 12/M07 A3028 1830 27 1900 170/09 RMK AO2 TWR VIS 2 T01171067
03812KAVL AVL20161123112512411/23/16 11:25:31  5-MIN KAVL 231625Z 16009KT 1 1/4SM HZ FU CLR 12/M07 A3028 1830 26 2000 160/09 RMK AO2 TWR VIS 2 T01221067
03812KAVL AVL20161123113012411/23/16 11:30:31  5-MIN KAVL 231630Z 16009KT 1 1/2SM HZ FU CLR 12/M07 A3028 1840 25 2000 160/09 RMK AO2 TWR VIS 2 T01221072
03812KAVL AVL20161123113511011/23/16 11:35:31  5-MIN KAVL 231635Z 15009KT 2SM HZ FU CLR 12/M07 A3028 1840 25 2000 160/09 RMK AO2 T01221072
03812KAVL AVL20161123114012411/23/16 11:40:31  5-MIN KAVL 231640Z 14009KT 1 1/2SM HZ FU CLR 12/M07 A3027 1840 25 2000 140/09 RMK AO2 SFC VIS 2 T01221072
03812KAVL AVL20161123114512411/23/16 11:45:31  5-MIN KAVL 231645Z 15007KT 1 1/2SM HZ FU CLR 12/M07 A3027 1850 25 2000 160/07 RMK AO2 SFC VIS 2 T01221072
03812KAVL AVL20161123115013111/23/16 11:50:31  5-MIN KAVL 231650Z 13006KT 1 1/2SM HZ FU CLR 13/M07 A3026 1860 25 2100 140/06 RMK AO2 SFC VIS 2 SLP245 T01281067
03812KAVL AVL20161123115513111/23/16 11:55:31  5-MIN KAVL 231655Z VRB06KT 1 1/2SM HZ FU FEW015 13/M07 A3026 1860 24 2100 VRB/06 RMK AO2 SFC VIS 1 3/4 T01331067
03812KAVL AVL20161123120013111/23/16 12:00:31  5-MIN KAVL 231700Z 14005KT 1 1/2SM HZ FU SCT015 13/M07 A3025 1860 23 2100 140/05 RMK AO2 SFC VIS 1 3/4 T01331072
03812KAVL AVL20161123120511711/23/16 12:05:31  5-MIN KAVL 231705Z 14005KT 1 1/2SM HZ FU BKN017 13/M07 A3025 1860 23 2100 150/05 RMK AO2 T01331072
03812KAVL AVL20161123121011711/23/16 12:10:31  5-MIN KAVL 231710Z 16008KT 1 1/2SM HZ FU BKN017 13/M07 A3025 1870 24 2100 170/08 RMK AO2 T01331067
03812KAVL AVL20161123121511711/23/16 12:15:31  5-MIN KAVL 231715Z 16006KT 1 1/4SM HZ FU BKN017 13/M07 A3025 1870 24 2100 160/06 RMK AO2 T01331067
03812KAVL AVL20161123122011711/23/16 12:20:31  5-MIN KAVL 231720Z 16007KT 1 1/4SM HZ FU OVC017 14/M07 A3024 1870 22 2300 160/07 RMK AO2 T01441067
03812KAVL AVL20161123122511811/23/16 12:25:31  5-MIN KAVL 231725Z 13007KT 1SM HZ FU VV015 14/M07 A3024 1870 23 2200 140/07 RMK AO2 T01391067 RVRNO
03812KAVL AVL20161123123011711/23/16 12:30:31  5-MIN KAVL 231730Z 17006KT 1 1/4SM HZ FU OVC015 14/M07 A3024 1880 22 2200 170/06 RMK AO2 T01391072
03812KAVL AVL20161123123511811/23/16 12:35:31  5-MIN KAVL 231735Z 16009KT 1SM HZ FU VV015 15/M07 A3023 1880 22 2400 170/09 RMK AO2 T01501067 RVRNO
03812KAVL AVL20161123124011811/23/16 12:40:31  5-MIN KAVL 231740Z 16008KT 1SM HZ FU VV015 14/M08 A3023 1880 20 2300 160/08 RMK AO2 T01441078 RVRNO
03812KAVL AVL20161123124511811/23/16 12:45:31  5-MIN KAVL 231745Z 16009KT 1SM HZ FU VV015 15/M08 A3023 1880 20 2400 170/09 RMK AO2 T01501078 RVRNO
03812KAVL AVL20161123125014311/23/16 12:50:31  5-MIN KAVL 231750Z 16006KT 1SM HZ FU VV016 14/M08 A3023 1890 20 2300 160/06 RMK AO2 SLP233 T01441078 10150 20017 51008 RVRNO
03812KAVL AVL20161123125511811/23/16 12:55:31  5-MIN KAVL 231755Z 15007KT 1SM HZ FU VV017 14/M08 A3022 1890 20 2300 150/07 RMK AO2 T01441078 RVRNO
03812KAVL AVL20161123130011711/23/16 13:00:31  5-MIN KAVL 231800Z 18012KT 1 1/4SM HZ FU OVC019 15/M08 A3022 1890 19 2400 190/12 RMK AO2 T01501083
03812KAVL AVL20161123130512411/23/16 13:05:31  5-MIN KAVL 231805Z 18010KT 1 1/2SM HZ FU BKN019 OVC028 16/M08 A3022 1890 18 2400 190/10 RMK AO2 T01561083
03812KAVL AVL20161123131013011/23/16 13:10:31  5-MIN KAVL 231810Z 17013G19KT 1 3/4SM HZ FU BKN021 OVC028 16/M09 A3022 1890 17 2400 170/13G19 RMK AO2 T01561089
03812KAVL AVL20161123131513311/23/16 13:15:31  5-MIN KAVL 231815Z 17014G19KT 1SM HZ FU OVC021 16/M08 A3022 1890 18 2400 180/14G19 RMK AO2 SFC VIS 1 1/2 T01561083
03812KAVL AVL20161123132013411/23/16 13:20:31  5-MIN KAVL 231820Z 17014KT 1SM HZ FU BKN021 OVC027 15/M08 A3022 1890 19 2400 180/14 RMK AO2 SFC VIS 1 1/2 T01501083
03812KAVL AVL20161123132512711/23/16 13:25:31  5-MIN KAVL 231825Z 18013KT 1SM HZ FU OVC021 15/M08 A3022 1890 19 2400 190/13 RMK AO2 SFC VIS 1 1/2 T01501083
03812KAVL AVL20161123133012711/23/16 13:30:31  5-MIN KAVL 231830Z 18012KT 1SM HZ FU OVC019 15/M08 A3022 1900 20 2400 190/12 RMK AO2 SFC VIS 1 1/2 T01501078
03812KAVL AVL20161123133512711/23/16 13:35:31  5-MIN KAVL 231835Z 17013KT 1SM HZ FU OVC019 14/M08 A3021 1900 20 2300 180/13 RMK AO2 SFC VIS 1 1/2 T01441078
03812KAVL AVL20161123134012711/23/16 13:40:31  5-MIN KAVL 231840Z 17013KT 1SM HZ FU OVC017 15/M07 A3021 1900 21 2400 180/13 RMK AO2 SFC VIS 1 3/4 T01501072
03812KAVL AVL20161123134512711/23/16 13:45:31  5-MIN KAVL 231845Z 18012KT 1SM HZ FU OVC017 15/M07 A3021 1900 21 2400 190/12 RMK AO2 SFC VIS 1 3/4 T01501072
03812KAVL AVL20161123135013411/23/16 13:50:31  5-MIN KAVL 231850Z 18011KT 1SM HZ FU OVC017 16/M07 A3021 1900 20 2400 190/11 RMK AO2 SFC VIS 1 3/4 SLP228 T01561072
03812KAVL AVL20161123135512711/23/16 13:55:31  5-MIN KAVL 231855Z 17013KT 1SM HZ FU OVC019 15/M07 A3021 1900 21 2400 180/13 RMK AO2 SFC VIS 1 3/4 T01501072
03812KAVL AVL20161123140012511/23/16 14:00:31  5-MIN KAVL 231900Z 18013KT 1SM HZ FU OVC019 15/M07 A3021 1900 22 2400 180/13 RMK AO2 SFC VIS 2 T01501067 $
03812KAVL AVL20161123140512911/23/16 14:05:31  5-MIN KAVL 231905Z 18013KT 1SM HZ FU OVC021 15/M07 A3021 1900 22 2400 180/13 RMK AO2 SFC VIS 2 1/2 T01501067 $
03812KAVL AVL20161123141012911/23/16 14:10:31  5-MIN KAVL 231910Z 16010KT 1SM HZ FU OVC023 14/M07 A3021 1900 22 2300 170/10 RMK AO2 SFC VIS 2 1/2 T01441067 $
03812KAVL AVL20161123141512911/23/16 14:15:31  5-MIN KAVL 231915Z 18013KT 1SM HZ FU OVC023 14/M06 A3021 1900 23 2300 190/13 RMK AO2 SFC VIS 2 1/2 T01441061 $
03812KAVL AVL20161123142012911/23/16 14:20:31  5-MIN KAVL 231920Z 17012KT 1SM HZ FU OVC025 14/M05 A3021 1900 25 2300 180/12 RMK AO2 SFC VIS 2 1/2 T01441050 $
03812KAVL AVL20161123142512911/23/16 14:25:31  5-MIN KAVL 231925Z 16010KT 1SM HZ FU OVC025 14/M05 A3020 1910 25 2300 170/10 RMK AO2 SFC VIS 2 1/2 T01441050 $
03812KAVL AVL20161123143013611/23/16 14:30:31  5-MIN KAVL 231930Z 17012KT 1SM HZ FU BKN025 OVC032 14/M04 A3020 1910 26 2300 180/12 RMK AO2 SFC VIS 2 1/2 T01441044 $
03812KAVL AVL20161123143512511/23/16 14:35:31  5-MIN KAVL 231935Z 16012KT 1SM HZ FU OVC025 14/M04 A3021 1900 26 2300 170/12 RMK AO2 SFC VIS 3 T01441044 $
03812KAVL AVL20161123144012511/23/16 14:40:31  5-MIN KAVL 231940Z 18010KT 1SM HZ FU OVC026 14/M04 A3021 1900 28 2300 180/10 RMK AO2 SFC VIS 3 T01441039 $
03812KAVL AVL20161123144512511/23/16 14:45:31  5-MIN KAVL 231945Z 15010KT 1SM HZ FU BKN026 14/M04 A3021 1900 28 2300 150/10 RMK AO2 SFC VIS 3 T01441039 $
03812KAVL AVL20161123145013211/23/16 14:50:31  5-MIN KAVL 231950Z 15010KT 1SM HZ FU BKN028 14/M04 A3020 1910 28 2300 160/10 RMK AO2 SFC VIS 4 SLP225 T01441039 $
03812KAVL AVL20161123145512511/23/16 14:55:31  5-MIN KAVL 231955Z 16010KT 1SM HZ FU SCT028 14/M03 A3020 1910 29 2300 170/10 RMK AO2 SFC VIS 3 T01441033 $
03812KAVL AVL20161123150012511/23/16 15:00:31  5-MIN KAVL 232000Z 17010KT 1SM HZ FU SCT028 14/M03 A3020 1910 29 2300 170/10 RMK AO2 SFC VIS 3 T01441033 $
03812KAVL AVL20161123150512511/23/16 15:05:31  5-MIN KAVL 232005Z 16011KT 1SM HZ FU FEW028 14/M02 A3020 1910 31 2300 170/11 RMK AO2 SFC VIS 3 T01441022 $
03812KAVL AVL20161123151012511/23/16 15:10:31  5-MIN KAVL 232010Z 17011KT 1SM HZ FU FEW032 14/M02 A3020 1910 33 2300 180/11 RMK AO2 SFC VIS 3 T01441017 $
03812KAVL AVL20161123151512011/23/16 15:15:31  5-MIN KAVL 232015Z 20012KT 1SM HZ FU CLR 14/M01 A3020 1910 34 2300 200/12 RMK AO2 SFC VIS 3 T01441011
03812KAVL AVL20161123152012511/23/16 15:20:31  5-MIN KAVL 232020Z 19011G22KT 1SM HZ FU CLR 14/01 A3020 1910 38 2300 190/11G22 RMK AO2 SFC VIS 3 T01440006
03812KAVL AVL20161123152512511/23/16 15:25:31  5-MIN KAVL 232025Z 19012G22KT 1SM HZ FU CLR 14/01 A3020 1910 40 2300 200/12G22 RMK AO2 SFC VIS 3 T01440011
03812KAVL AVL20161123153010911/23/16 15:30:31  5-MIN KAVL 232030Z 19015KT 6SM HZ FU CLR 14/01 A3020 1910 40 2300 200/15 RMK AO2 T01440011
03812KAVL AVL20161123153511511/23/16 15:35:31  5-MIN KAVL 232035Z 19016G21KT 6SM HZ FU CLR 14/02 A3020 1910 41 2300 200/16G21 RMK AO2 T01440017
03812KAVL AVL20161123154011511/23/16 15:40:31  5-MIN KAVL 232040Z 18016G22KT 6SM HZ FU CLR 14/02 A3020 1910 43 2300 180/16G22 RMK AO2 T01440022
03812KAVL AVL20161123154511511/23/16 15:45:31  5-MIN KAVL 232045Z 18015G22KT 6SM HZ FU CLR 14/02 A3020 1910 43 2300 190/15G22 RMK AO2 T01440022
03812KAVL AVL20161123155012811/23/16 15:50:31  5-MIN KAVL 232050Z 19015G23KT 6SM HZ FU CLR 14/02 A3020 1910 45 2300 190/15G23 RMK AO2 SLP224 T01390022 58027
03812KAVL AVL20161123155511511/23/16 15:55:31  5-MIN KAVL 232055Z 18015G23KT 6SM HZ FU CLR 14/02 A3020 1910 45 2300 180/15G23 RMK AO2 T01390022
03812KAVL AVL20161123160011311/23/16 16:00:31  5-MIN KAVL 232100Z 19016G23KT 10SM FU CLR 14/02 A3020 1910 45 2300 200/16G23 RMK AO2 T01390022
03812KAVL AVL20161123160511311/23/16 16:05:31  5-MIN KAVL 232105Z 18014G23KT 10SM FU CLR 14/02 A3020 1910 45 2300 190/14G23 RMK AO2 T01390022
03812KAVL AVL20161123161011311/23/16 16:10:31  5-MIN KAVL 232110Z 19017G21KT 10SM FU CLR 14/03 A3020 1910 47 2300 190/17G21 RMK AO2 T01390028
03812KAVL AVL20161123161511311/23/16 16:15:31  5-MIN KAVL 232115Z 20014G21KT 10SM FU CLR 14/02 A3021 1910 45 2300 200/14G21 RMK AO2 T01390022
03812KAVL AVL20161123162010711/23/16 16:20:31  5-MIN KAVL 232120Z 20013KT 10SM FU CLR 14/02 A3021 1900 45 2300 200/13 RMK AO2 T01390022
03812KAVL AVL20161123162511311/23/16 16:25:31  5-MIN KAVL 232125Z 19011G17KT 10SM FU CLR 14/02 A3021 1900 45 2300 200/11G17 RMK AO2 T01390022
03812KAVL AVL20161123163011311/23/16 16:30:31  5-MIN KAVL 232130Z 18012G19KT 10SM FU CLR 13/02 A3021 1900 46 2200 190/12G19 RMK AO2 T01330022
03812KAVL AVL20161123163510711/23/16 16:35:31  5-MIN KAVL 232135Z 19014KT 10SM FU CLR 13/02 A3021 1900 46 2200 190/14 RMK AO2 T01330022
03812KAVL AVL20161123164011311/23/16 16:40:31  5-MIN KAVL 232140Z 19013G21KT 10SM FU CLR 13/02 A3020 1910 46 2200 200/13G21 RMK AO2 T01330022
03812KAVL AVL20161123164511311/23/16 16:45:31  5-MIN KAVL 232145Z 20011G21KT 10SM FU CLR 13/02 A3021 1900 46 2200 210/11G21 RMK AO2 T01330022
03812KAVL AVL20161123165011411/23/16 16:50:31  5-MIN KAVL 232150Z 20009KT 10SM FU CLR 13/02 A3021 1900 48 2100 200/09 RMK AO2 SLP230 T01280022
03812KAVL AVL20161123165510911/23/16 16:55:31  5-MIN KAVL 232155Z 20010KT 9SM FU FEW037 13/02 A3021 1900 45 2200 210/10 RMK AO2 T01330017
03812KAVL AVL20161123170010911/23/16 17:00:31  5-MIN KAVL 232200Z 19010KT 9SM FU FEW037 13/02 A3021 1900 46 2100 200/10 RMK AO2 T01280017
03812KAVL AVL20161123170510911/23/16 17:05:31  5-MIN KAVL 232205Z 18008KT 8SM FU FEW037 13/02 A3021 1900 46 2100 190/08 RMK AO2 T01280017
03812KAVL AVL20161123171010911/23/16 17:10:31  5-MIN KAVL 232210Z 17008KT 7SM FU FEW037 13/02 A3021 1900 46 2100 180/08 RMK AO2 T01280017
03812KAVL AVL20161123171511211/23/16 17:15:31  5-MIN KAVL 232215Z 18008KT 3SM HZ FU SCT037 12/02 A3021 1900 48 2100 180/08 RMK AO2 T01220017
03812KAVL AVL20161123172012311/23/16 17:20:31  5-MIN KAVL 232220Z 17007KT 2 1/2SM HZ FU FEW029 SCT037 12/01 A3021 1910 46 2100 180/07 RMK AO2 T01220011
03812KAVL AVL20161123172511911/23/16 17:25:31  5-MIN KAVL 232225Z 15007KT 3SM HZ FU FEW026 SCT036 12/01 A3020 1910 46 2100 160/07 RMK AO2 T01220011
03812KAVL AVL20161123173011911/23/16 17:30:31  5-MIN KAVL 232230Z 17008KT 3SM HZ FU FEW026 FEW036 12/01 A3021 1900 46 2100 170/08 RMK AO2 T01220011
03812KAVL AVL20161123173511911/23/16 17:35:31  5-MIN KAVL 232235Z 17009KT 4SM HZ FU FEW026 FEW036 12/01 A3020 1910 46 2100 170/09 RMK AO2 T01220011
03812KAVL AVL20161123174011911/23/16 17:40:31  5-MIN KAVL 232240Z 17008KT 4SM HZ FU FEW026 FEW036 12/01 A3020 1910 46 2100 180/08 RMK AO2 T01220011
03812KAVL AVL20161123174511911/23/16 17:45:31  5-MIN KAVL 232245Z 17007KT 4SM HZ FU FEW026 FEW034 12/01 A3020 1910 48 2000 170/07 RMK AO2 T01170011
03812KAVL AVL20161123175011911/23/16 17:50:31  5-MIN KAVL 232250Z 15006KT 5SM HZ FU FEW034 12/01 A3021 1900 44 2100 160/06 RMK AO2 SLP228 T01220006
03812KAVL AVL20161123175511011/23/16 17:55:31  5-MIN KAVL 232255Z 15006KT 8SM FU FEW034 12/M01 A3021 1900 41 2100 160/06 RMK AO2 T01221006
03812KAVL AVL20161123180011111/23/16 18:00:31  5-MIN KAVL 232300Z 16007KT 10SM FU FEW034 12/M01 A3021 1900 41 2100 170/07 RMK AO2 T01221006
03812KAVL AVL20161123180511111/23/16 18:05:31  5-MIN KAVL 232305Z 16006KT 10SM FU FEW034 12/M01 A3022 1900 42 2000 160/06 RMK AO2 T01171006
03812KAVL AVL20161123181011111/23/16 18:10:31  5-MIN KAVL 232310Z 16007KT 10SM FU FEW034 12/M01 A3022 1890 41 2000 160/07 RMK AO2 T01171011
03812KAVL AVL20161123181510811/23/16 18:15:31  5-MIN KAVL 232315Z 16006KT 10SM FU CLR 12/M01 A3022 1890 41 2000 160/06 RMK AO2 T01171011
03812KAVL AVL20161123182010811/23/16 18:20:31  5-MIN KAVL 232320Z 16006KT 10SM FU CLR 12/M01 A3022 1890 41 2000 170/06 RMK AO2 T01171011
03812KAVL AVL20161123182510811/23/16 18:25:31  5-MIN KAVL 232325Z 17007KT 10SM FU CLR 11/M01 A3022 1890 44 1900 180/07 RMK AO2 T01111006
03812KAVL AVL20161123183010811/23/16 18:30:31  5-MIN KAVL 232330Z 17006KT 10SM FU CLR 11/M01 A3022 1890 46 1800 180/06 RMK AO2 T01061006
03812KAVL AVL20161123183510811/23/16 18:35:31  5-MIN KAVL 232335Z 16007KT 10SM FU CLR 11/M01 A3022 1890 42 1900 170/07 RMK AO2 T01111011
03812KAVL AVL20161123184010811/23/16 18:40:31  5-MIN KAVL 232340Z 16006KT 10SM FU CLR 11/M01 A3022 1890 42 1900 170/06 RMK AO2 T01111011
03812KAVL AVL20161123184510811/23/16 18:45:31  5-MIN KAVL 232345Z 16007KT 10SM FU CLR 12/M01 A3022 1890 41 2000 160/07 RMK AO2 T01171011
03812KAVL AVL20161123185013311/23/16 18:50:31  5-MIN KAVL 232350Z 16005KT 10SM FU CLR 11/M01 A3022 1890 42 1900 160/05 RMK AO2 SLP234 T01111011 10156 20106 56007
03812KAVL AVL20161123185510811/23/16 18:55:31  5-MIN KAVL 232355Z 16007KT 10SM FU CLR 11/M01 A3022 1890 42 1900 170/07 RMK AO2 T01111011
03812KAVL AVL20161123190010811/23/16 19:00:31  5-MIN KAVL 240000Z 16007KT 10SM FU CLR 11/M01 A3022 1890 42 1900 170/07 RMK AO2 T01111011
03812KAVL AVL20161123190510811/23/16 19:05:31  5-MIN KAVL 240005Z 17007KT 10SM FU CLR 11/M01 A3022 1890 42 1900 170/07 RMK AO2 T01111011
03812KAVL AVL20161123191010811/23/16 19:10:31  5-MIN KAVL 240010Z 16008KT 10SM FU CLR 11/M01 A3022 1890 42 1900 170/08 RMK AO2 T01111011
03812KAVL AVL20161123191510811/23/16 19:15:31  5-MIN KAVL 240015Z 16006KT 10SM FU CLR 11/M01 A3022 1890 42 1900 170/06 RMK AO2 T01111011
03812KAVL AVL20161123192010811/23/16 19:20:31  5-MIN KAVL 240020Z 16005KT 10SM FU CLR 11/M02 A3022 1890 41 1900 170/05 RMK AO2 T01111017
03812KAVL AVL20161123192510811/23/16 19:25:31  5-MIN KAVL 240025Z 16006KT 10SM FU CLR 10/M01 A3022 1890 46 1800 170/06 RMK AO2 T01001011
03812KAVL AVL20161123193010811/23/16 19:30:31  5-MIN KAVL 240030Z 16006KT 10SM FU CLR 11/M02 A3022 1890 42 1800 160/06 RMK AO2 T01061017
03812KAVL AVL20161123193511111/23/16 19:35:31  5-MIN KAVL 240035Z 17006KT 10SM FU FEW037 11/M02 A3022 1890 42 1800 170/06 RMK AO2 T01061017
03812KAVL AVL20161123194011111/23/16 19:40:31  5-MIN KAVL 240040Z 17007KT 10SM FU FEW037 11/M02 A3023 1890 42 1800 180/07 RMK AO2 T01061017
03812KAVL AVL20161123194511111/23/16 19:45:31  5-MIN KAVL 240045Z 16006KT 10SM FU FEW038 10/M02 A3022 1890 44 1800 170/06 RMK AO2 T01001017
03812KAVL AVL20161123195011811/23/16 19:50:31  5-MIN KAVL 240050Z 17006KT 10SM FU FEW038 10/M01 A3023 1880 46 1800 180/06 RMK AO2 SLP237 T01001011
03812KAVL AVL20161123195511111/23/16 19:55:31  5-MIN KAVL 240055Z 19005KT 10SM FU FEW038 10/M02 A3023 1880 44 1800 190/05 RMK AO2 T01001017
03812KAVL AVL20161123200011111/23/16 20:00:31  5-MIN KAVL 240100Z 19004KT 10SM FU FEW038 09/M01 A3023 1880 47 1700 190/04 RMK AO2 T00941011
03812KAVL AVL20161123200511111/23/16 20:05:31  5-MIN KAVL 240105Z 15003KT 10SM FU FEW038 09/M01 A3023 1880 47 1700 160/03 RMK AO2 T00941011
03812KAVL AVL20161123201010811/23/16 20:10:31  5-MIN KAVL 240110Z 12003KT 10SM FU CLR 10/M01 A3023 1880 46 1800 130/03 RMK AO2 T01001011
03812KAVL AVL20161123201510811/23/16 20:15:31  5-MIN KAVL 240115Z 00000KT 10SM FU CLR 10/M02 A3024 1870 44 1800 000/00 RMK AO2 T01001017
03812KAVL AVL20161123202011111/23/16 20:20:31  5-MIN KAVL 240120Z 00000KT 10SM FU FEW024 10/M02 A3024 1870 42 1800 000/00 RMK AO2 T01001022
03812KAVL AVL20161123202511111/23/16 20:25:31  5-MIN KAVL 240125Z 11004KT 10SM FU FEW024 10/M02 A3024 1880 42 1800 120/04 RMK AO2 T01001022
03812KAVL AVL20161123203011111/23/16 20:30:31  5-MIN KAVL 240130Z 12003KT 10SM FU FEW024 10/M02 A3024 1870 42 1800 120/03 RMK AO2 T01001022
03812KAVL AVL20161123203511111/23/16 20:35:31  5-MIN KAVL 240135Z 11003KT 10SM FU SCT024 10/M03 A3024 1870 40 1800 120/03 RMK AO2 T01001028
03812KAVL AVL20161123204011111/23/16 20:40:31  5-MIN KAVL 240140Z 12004KT 10SM FU SCT025 11/M03 A3024 1880 39 1800 120/04 RMK AO2 T01061028
03812KAVL AVL20161123204511111/23/16 20:45:31  5-MIN KAVL 240145Z 13004KT 10SM FU BKN025 10/M03 A3023 1880 40 1800 140/04 RMK AO2 T01001028
03812KAVL AVL20161123205011811/23/16 20:50:31  5-MIN KAVL 240150Z 13004KT 10SM FU BKN025 10/M03 A3023 1880 40 1800 130/04 RMK AO2 SLP237 T01001028
03812KAVL AVL20161123205511111/23/16 20:55:31  5-MIN KAVL 240155Z 14005KT 10SM FU BKN025 10/M03 A3023 1880 40 1800 140/05 RMK AO2 T01001028
03812KAVL AVL20161123210011811/23/16 21:00:31  5-MIN KAVL 240200Z 14004KT 10SM FU FEW020 OVC025 10/M03 A3023 1880 40 1800 140/04 RMK AO2 T01001028
03812KAVL AVL20161123210511111/23/16 21:05:31  5-MIN KAVL 240205Z 11003KT 10SM FU OVC025 10/M03 A3023 1880 40 1800 120/03 RMK AO2 T01001028
03812KAVL AVL20161123211011111/23/16 21:10:31  5-MIN KAVL 240210Z 00000KT 10SM FU OVC023 10/M03 A3023 1880 40 1800 000/00 RMK AO2 T01001028
03812KAVL AVL20161123211511111/23/16 21:15:31  5-MIN KAVL 240215Z 13003KT 10SM FU OVC025 10/M03 A3023 1880 40 1800 130/03 RMK AO2 T01001028
03812KAVL AVL20161123212011111/23/16 21:20:31  5-MIN KAVL 240220Z 14004KT 10SM FU OVC025 10/M03 A3023 1880 40 1800 150/04 RMK AO2 T01001028
03812KAVL AVL20161123212511111/23/16 21:25:31  5-MIN KAVL 240225Z 14005KT 10SM FU OVC025 10/M03 A3023 1880 40 1800 140/05 RMK AO2 T01001028
03812KAVL AVL20161123213011111/23/16 21:30:31  5-MIN KAVL 240230Z 13004KT 10SM FU OVC025 10/M03 A3023 1880 40 1800 140/04 RMK AO2 T01001028
03812KAVL AVL20161123213511111/23/16 21:35:31  5-MIN KAVL 240235Z 13004KT 10SM FU BKN025 10/M03 A3023 1880 40 1800 140/04 RMK AO2 T01001028
03812KAVL AVL20161123214012511/23/16 21:40:31  5-MIN KAVL 240240Z 14004KT 10SM FU FEW020 BKN025 OVC070 10/M03 A3023 1880 40 1800 150/04 RMK AO2 T01001028
03812KAVL AVL20161123214511811/23/16 21:45:31  5-MIN KAVL 240245Z 13004KT 10SM FU BKN022 OVC070 10/M03 A3023 1880 40 1800 130/04 RMK AO2 T01001028
03812KAVL AVL20161123215013111/23/16 21:50:31  5-MIN KAVL 240250Z 12004KT 10SM FU BKN022 BKN070 10/M03 A3023 1880 40 1800 130/04 RMK AO2 SLP231 T01001028 53007
03812KAVL AVL20161123215511111/23/16 21:55:31  5-MIN KAVL 240255Z 12004KT 10SM FU BKN022 10/M03 A3022 1890 40 1800 120/04 RMK AO2 T01001028
03812KAVL AVL20161123220011111/23/16 22:00:31  5-MIN KAVL 240300Z 12004KT 10SM FU SCT020 10/M03 A3023 1890 40 1800 130/04 RMK AO2 T01001028
03812KAVL AVL20161123220511811/23/16 22:05:31  5-MIN KAVL 240305Z 14003KT 10SM FU FEW020 SCT039 10/M03 A3023 1880 40 1800 150/03 RMK AO2 T01001028
03812KAVL AVL20161123221011811/23/16 22:10:31  5-MIN KAVL 240310Z 14004KT 10SM FU FEW020 BKN037 10/M03 A3023 1880 40 1800 150/04 RMK AO2 T01001028
03812KAVL AVL20161123221511111/23/16 22:15:31  5-MIN KAVL 240315Z 16004KT 10SM FU BKN037 10/M03 A3023 1880 40 1800 160/04 RMK AO2 T01001028
03812KAVL AVL20161123222011811/23/16 22:20:31  5-MIN KAVL 240320Z 16005KT 10SM FU BKN037 BKN120 09/M03 A3023 1880 42 1700 170/05 RMK AO2 T00941028
03812KAVL AVL20161123222511811/23/16 22:25:31  5-MIN KAVL 240325Z 15004KT 10SM FU BKN037 BKN120 09/M02 A3024 1880 44 1700 160/04 RMK AO2 T00941022
03812KAVL AVL20161123223011811/23/16 22:30:31  5-MIN KAVL 240330Z 12004KT 10SM FU BKN037 OVC120 09/M03 A3024 1880 42 1700 130/04 RMK AO2 T00941028
03812KAVL AVL20161123223512511/23/16 22:35:31  5-MIN KAVL 240335Z 12003KT 10SM FU SCT031 BKN037 OVC120 10/M03 A3024 1870 40 1800 130/03 RMK AO2 T01001028
03812KAVL AVL20161123224013411/23/16 22:40:31  5-MIN KAVL 240340Z 11003KT 10SM -RA FU BKN035 OVC120 10/M03 A3024 1870 40 1800 120/03 RMK AO2 RAB37 P0000 T01001028
03812KAVL AVL20161123224513411/23/16 22:45:31  5-MIN KAVL 240345Z 13004KT 10SM -RA FU BKN035 OVC120 10/M02 A3024 1880 44 1800 140/04 RMK AO2 RAB37 P0000 T01001017
03812KAVL AVL20161123225015211/23/16 22:50:31  5-MIN KAVL 240350Z AUTO 14004KT 10SM FU BKN035 BKN055 OVC075 10/M02 A3024 1870 42 1800 140/04 RMK AO2 RAB37E47 SLP234 P0000 T01001022
03812KAVL AVL20161123225513011/23/16 22:55:31  5-MIN KAVL 240355Z AUTO 12004KT 10SM FU BKN035 BKN060 OVC075 10/M02 A3024 1880 42 1800 130/04 RMK AO2 T01001022
03812KAVL AVL20161123230013011/23/16 23:00:31  5-MIN KAVL 240400Z AUTO 12003KT 10SM FU SCT031 BKN036 OVC060 10/M02 A3024 1880 42 1800 120/03 RMK AO2 T01001022
03812KAVL AVL20161123230513011/23/16 23:05:31  5-MIN KAVL 240405Z AUTO 13003KT 10SM FU SCT031 BKN038 OVC060 10/M02 A3024 1880 42 1800 130/03 RMK AO2 T01001022
03812KAVL AVL20161123231013011/23/16 23:10:31  5-MIN KAVL 240410Z AUTO 12003KT 10SM FU BKN036 BKN060 OVC070 10/M02 A3024 1880 42 1800 120/03 RMK AO2 T01001022
03812KAVL AVL20161123231513011/23/16 23:15:31  5-MIN KAVL 240415Z AUTO 00000KT 10SM FU FEW032 BKN038 OVC070 10/M02 A3024 1880 42 1800 000/00 RMK AO2 T01001022
03812KAVL AVL20161123232012311/23/16 23:20:31  5-MIN KAVL 240420Z AUTO 00000KT 10SM FU SCT030 OVC040 10/M02 A3024 1870 42 1800 000/00 RMK AO2 T01001022
03812KAVL AVL20161123232512311/23/16 23:25:31  5-MIN KAVL 240425Z AUTO 00000KT 10SM FU BKN030 OVC040 10/M02 A3024 1870 42 1800 000/00 RMK AO2 T01001022
03812KAVL AVL20161123233012311/23/16 23:30:31  5-MIN KAVL 240430Z AUTO 00000KT 10SM FU BKN029 OVC039 11/M02 A3024 1870 40 1800 000/00 RMK AO2 T01061022
03812KAVL AVL20161123233512311/23/16 23:35:31  5-MIN KAVL 240435Z AUTO 00000KT 10SM FU BKN029 OVC039 11/M02 A3024 1870 40 1800 000/00 RMK AO2 T01061022
03812KAVL AVL20161123234012311/23/16 23:40:31  5-MIN KAVL 240440Z AUTO 12003KT 10SM FU BKN029 OVC039 10/M02 A3024 1870 42 1800 130/03 RMK AO2 T01001022
03812KAVL AVL20161123234512311/23/16 23:45:31  5-MIN KAVL 240445Z AUTO 13003KT 10SM FU BKN029 OVC039 10/M02 A3024 1880 42 1800 130/03 RMK AO2 T01001022
03812KAVL AVL20161123235014011/23/16 23:50:31  5-MIN KAVL 240450Z AUTO 15003KT 10SM FU BKN027 OVC037 10/M02 A3024 1880 42 1800 150/03 RMK AO2 SLP231 T01001022 401560011
03812KAVL AVL20161123235512311/23/16 23:55:31  5-MIN KAVL 240455Z AUTO 14003KT 10SM FU BKN027 OVC035 10/M02 A3024 1870 42 1800 150/03 RMK AO2 T01001022
03812KAVL AVL20161124000012311/24/16 00:00:31  5-MIN KAVL 240500Z AUTO 00000KT 10SM FU SCT025 OVC033 10/M02 A3024 1870 44 1800 000/00 RMK AO2 T01001017
03812KAVL AVL20161124000512311/24/16 00:05:31  5-MIN KAVL 240505Z AUTO 00000KT 10SM FU BKN025 OVC035 10/M02 A3024 1870 44 1800 000/00 RMK AO2 T01001017
03812KAVL AVL20161124001012311/24/16 00:10:31  5-MIN KAVL 240510Z AUTO 00000KT 10SM FU BKN025 OVC035 10/M02 A3024 1880 44 1800 000/00 RMK AO2 T01001017
03812KAVL AVL20161124001512311/24/16 00:15:31  5-MIN KAVL 240515Z AUTO 00000KT 10SM FU BKN025 OVC035 10/M01 A3024 1870 47 1800 000/00 RMK AO2 T01001006
03812KAVL AVL20161124002012311/24/16 00:20:31  5-MIN KAVL 240520Z AUTO 00000KT 10SM FU BKN025 OVC035 09/M01 A3024 1870 49 1700 000/00 RMK AO2 T00941006
03812KAVL AVL20161124002512311/24/16 00:25:31  5-MIN KAVL 240525Z AUTO 14004KT 10SM FU BKN025 OVC037 09/M01 A3023 1880 49 1700 140/04 RMK AO2 T00941006
03812KAVL AVL20161124003012311/24/16 00:30:31  5-MIN KAVL 240530Z AUTO 00000KT 10SM FU BKN025 OVC037 10/M01 A3023 1880 46 1800 000/00 RMK AO2 T01001011
03812KAVL AVL20161124003512311/24/16 00:35:31  5-MIN KAVL 240535Z AUTO 00000KT 10SM FU BKN025 OVC035 10/M02 A3023 1880 44 1800 000/00 RMK AO2 T01001017
03812KAVL AVL20161124004012311/24/16 00:40:31  5-MIN KAVL 240540Z AUTO 00000KT 10SM FU BKN025 OVC035 10/M01 A3023 1880 46 1800 000/00 RMK AO2 T01001011
03812KAVL AVL20161124004512311/24/16 00:45:31  5-MIN KAVL 240545Z AUTO 00000KT 10SM FU BKN024 OVC035 10/M01 A3023 1890 46 1800 000/00 RMK AO2 T01001011
03812KAVL AVL20161124005015411/24/16 00:50:31  5-MIN KAVL 240550Z AUTO 15003KT 10SM FU BKN022 OVC034 10/M02 A3022 1890 44 1800 160/03 RMK AO2 SLP224 60000 T01001017 10111 20094 50000
03812KAVL AVL20161124005512311/24/16 00:55:31  5-MIN KAVL 240555Z AUTO 16004KT 10SM FU BKN022 OVC034 10/M01 A3022 1890 46 1800 160/04 RMK AO2 T01001011
03812KAVL AVL20161124010011611/24/16 01:00:31  5-MIN KAVL 240600Z AUTO 00000KT 10SM FU OVC022 10/M01 A3022 1890 46 1800 000/00 RMK AO2 T01001011
03812KAVL AVL20161124010511611/24/16 01:05:31  5-MIN KAVL 240605Z AUTO 00000KT 10SM FU OVC022 09/M01 A3022 1890 49 1700 000/00 RMK AO2 T00941006
03812KAVL AVL20161124011011611/24/16 01:10:31  5-MIN KAVL 240610Z AUTO 15003KT 10SM FU OVC021 09/M01 A3022 1890 49 1700 150/03 RMK AO2 T00941006
03812KAVL AVL20161124011511611/24/16 01:15:31  5-MIN KAVL 240615Z AUTO 00000KT 10SM FU OVC021 10/M01 A3022 1890 46 1800 000/00 RMK AO2 T01001011
03812KAVL AVL20161124012011611/24/16 01:20:31  5-MIN KAVL 240620Z AUTO 13003KT 10SM FU OVC020 10/M01 A3022 1890 46 1800 130/03 RMK AO2 T01001011
03812KAVL AVL20161124012511611/24/16 01:25:31  5-MIN KAVL 240625Z AUTO 14004KT 10SM FU OVC020 10/M01 A3022 1890 46 1800 140/04 RMK AO2 T01001011
03812KAVL AVL20161124013011611/24/16 01:30:31  5-MIN KAVL 240630Z AUTO 13004KT 10SM FU OVC019 10/M01 A3022 1900 46 1800 130/04 RMK AO2 T01001011
03812KAVL AVL20161124013511611/24/16 01:35:31  5-MIN KAVL 240635Z AUTO 14004KT 10SM FU OVC019 10/M01 A3021 1900 46 1800 150/04 RMK AO2 T01001011
03812KAVL AVL20161124014011611/24/16 01:40:31  5-MIN KAVL 240640Z AUTO 13004KT 10SM FU OVC019 11/M01 A3021 1900 46 1900 140/04 RMK AO2 T01061006
03812KAVL AVL20161124014511611/24/16 01:45:31  5-MIN KAVL 240645Z AUTO VRB04KT 10SM FU OVC019 11/M01 A3021 1900 46 1900 VRB/04 RMK AO2 T01061006
03812KAVL AVL20161124015012311/24/16 01:50:31  5-MIN KAVL 240650Z AUTO VRB03KT 10SM FU OVC018 11/M01 A3021 1900 46 1900 VRB/03 RMK AO2 SLP220 T01061006
03812KAVL AVL20161124015511511/24/16 01:55:31  5-MIN KAVL 240655Z AUTO 11003KT 10SM FU OVC018 11/00 A3021 1900 48 1900 120/03 RMK AO2 T01060000
03812KAVL AVL20161124020013111/24/16 02:00:31  5-MIN KAVL 240700Z AUTO 15004KT 10SM -RA FU OVC018 11/00 A3021 1900 48 1900 160/04 RMK AO2 RAB00 P0000 T01060000
03812KAVL AVL20161124020513111/24/16 02:05:31  5-MIN KAVL 240705Z AUTO 15003KT 10SM -RA FU OVC018 10/01 A3021 1900 52 1800 160/03 RMK AO2 RAB00 P0000 T01000006
03812KAVL AVL20161124021013011/24/16 02:10:31  5-MIN KAVL 240710Z AUTO 14003KT 10SM FU OVC018 10/01 A3021 1900 54 1800 150/03 RMK AO2 RAB00E09 P0000 T01000011
03812KAVL AVL20161124021513111/24/16 02:15:31  5-MIN KAVL 240715Z AUTO 16004KT 10SM -RA FU OVC018 10/01 A3021 1900 54 1800 160/04 RMK AO2 RAB00 P0000 T01000011
03812KAVL AVL20161124022013111/24/16 02:20:31  5-MIN KAVL 240720Z AUTO 14004KT 10SM -RA FU OVC018 10/02 A3021 1900 56 1800 150/04 RMK AO2 RAB00 P0000 T01000017
03812KAVL AVL20161124022513111/24/16 02:25:31  5-MIN KAVL 240725Z AUTO 18006KT 10SM -RA FU OVC018 09/03 A3021 1900 63 1700 180/06 RMK AO2 RAB00 P0000 T00940028
03812KAVL AVL20161124023013111/24/16 02:30:31  5-MIN KAVL 240730Z AUTO 17006KT 10SM -RA FU OVC017 09/03 A3021 1900 68 1700 170/06 RMK AO2 RAB00 P0000 T00890033
03812KAVL AVL20161124023514411/24/16 02:35:31  5-MIN KAVL 240735Z AUTO 17006KT 10SM FU BKN017 BKN031 OVC038 09/03 A3021 1900 68 1700 180/06 RMK AO2 RAB00E33 P0000 T00890033
03812KAVL AVL20161124024013711/24/16 02:40:31  5-MIN KAVL 240740Z AUTO 18006KT 10SM FU BKN017 OVC031 09/03 A3021 1900 68 1700 180/06 RMK AO2 RAB00E33 P0000 T00890033
03812KAVL AVL20161124024513711/24/16 02:45:31  5-MIN KAVL 240745Z AUTO 17007KT 10SM FU BKN017 OVC031 09/04 A3021 1900 71 1700 180/07 RMK AO2 RAB00E33 P0000 T00890039
03812KAVL AVL20161124025014411/24/16 02:50:31  5-MIN KAVL 240750Z AUTO 17006KT 10SM FU BKN017 OVC031 09/04 A3021 1900 73 1700 180/06 RMK AO2 RAB00E33 SLP222 P0000 T00890044
03812KAVL AVL20161124025512211/24/16 02:55:31  5-MIN KAVL 240755Z AUTO 15005KT 10SM FU BKN017 OVC031 09/04 A3021 1900 71 1700 150/05 RMK AO2 T00890039
03812KAVL AVL20161124030011511/24/16 03:00:31  5-MIN KAVL 240800Z AUTO 15005KT 10SM FU OVC017 09/04 A3021 1900 71 1700 150/05 RMK AO2 T00890039
03812KAVL AVL20161124030511511/24/16 03:05:31  5-MIN KAVL 240805Z AUTO 14004KT 10SM FU OVC017 09/04 A3021 1900 71 1700 150/04 RMK AO2 T00890039
03812KAVL AVL20161124031011511/24/16 03:10:31  5-MIN KAVL 240810Z AUTO 14006KT 10SM FU OVC017 09/04 A3020 1910 71 1700 140/06 RMK AO2 T00890039
03812KAVL AVL20161124031511511/24/16 03:15:31  5-MIN KAVL 240815Z AUTO VRB03KT 10SM FU OVC017 09/04 A3021 1900 71 1700 VRB/03 RMK AO2 T00890039
03812KAVL AVL20161124032011511/24/16 03:20:31  5-MIN KAVL 240820Z AUTO 21003KT 10SM FU OVC017 09/04 A3021 1900 71 1700 210/03 RMK AO2 T00890039
03812KAVL AVL20161124032511511/24/16 03:25:31  5-MIN KAVL 240825Z AUTO 17005KT 10SM FU OVC017 08/04 A3021 1900 76 1600 180/05 RMK AO2 T00830044
03812KAVL AVL20161124033012211/24/16 03:30:31  5-MIN KAVL 240830Z AUTO 17005KT 10SM FU BKN017 OVC032 08/04 A3021 1900 76 1600 180/05 RMK AO2 T00830044
03812KAVL AVL20161124033512911/24/16 03:35:31  5-MIN KAVL 240835Z AUTO 15005KT 10SM FU BKN017 BKN027 OVC032 08/04 A3020 1910 76 1600 150/05 RMK AO2 T00830044
03812KAVL AVL20161124034012911/24/16 03:40:31  5-MIN KAVL 240840Z AUTO 15005KT 10SM FU BKN017 BKN027 BKN039 08/04 A3020 1910 76 1600 160/05 RMK AO2 T00830044
03812KAVL AVL20161124034512911/24/16 03:45:31  5-MIN KAVL 240845Z AUTO 16003KT 10SM FU SCT017 BKN029 BKN039 08/04 A3021 1900 76 1600 170/03 RMK AO2 T00830044
03812KAVL AVL20161124035014111/24/16 03:50:31  5-MIN KAVL 240850Z AUTO 00000KT 10SM FU SCT017 BKN029 08/04 A3021 1900 76 1600 000/00 RMK AO2 SLP221 60000 T00830044 58001
03812KAVL AVL20161124035512911/24/16 03:55:31  5-MIN KAVL 240855Z AUTO 00000KT 10SM FU FEW019 BKN029 OVC050 08/04 A3020 1910 76 1600 000/00 RMK AO2 T00830044
03812KAVL AVL20161124040012911/24/16 04:00:31  5-MIN KAVL 240900Z AUTO 16003KT 10SM FU FEW019 BKN029 BKN036 08/04 A3020 1910 76 1600 160/03 RMK AO2 T00830044
03812KAVL AVL20161124040512911/24/16 04:05:31  5-MIN KAVL 240905Z AUTO 00000KT 10SM FU BKN029 BKN036 BKN060 08/05 A3020 1910 79 1600 000/00 RMK AO2 T00830050
03812KAVL AVL20161124041012911/24/16 04:10:31  5-MIN KAVL 240910Z AUTO 00000KT 10SM FU BKN031 BKN060 OVC080 08/05 A3020 1910 82 1500 000/00 RMK AO2 T00780050
03812KAVL AVL20161124041512911/24/16 04:15:31  5-MIN KAVL 240915Z AUTO 00000KT 10SM FU SCT029 BKN038 OVC080 08/05 A3020 1910 82 1500 000/00 RMK AO2 T00780050
03812KAVL AVL20161124042012911/24/16 04:20:31  5-MIN KAVL 240920Z AUTO 00000KT 10SM FU SCT029 BKN038 OVC070 08/05 A3021 1910 82 1500 000/00 RMK AO2 T00780050
03812KAVL AVL20161124042512211/24/16 04:25:31  5-MIN KAVL 240925Z AUTO 11003KT 10SM FU SCT033 OVC065 08/05 A3020 1910 82 1500 120/03 RMK AO2 T00780050
03812KAVL AVL20161124043012211/24/16 04:30:31  5-MIN KAVL 240930Z AUTO 12004KT 10SM FU FEW033 OVC060 08/05 A3021 1900 82 1500 120/04 RMK AO2 T00780050
03812KAVL AVL20161124043514511/24/16 04:35:31  5-MIN KAVL 240935Z AUTO 11004KT 10SM -RA FU FEW035 BKN055 OVC070 08/06 A3020 1910 86 1500 120/04 RMK AO2 RAB33 P0000 T00780056
03812KAVL AVL20161124044014511/24/16 04:40:31  5-MIN KAVL 240940Z AUTO 14004KT 10SM -RA FU FEW035 BKN050 BKN070 08/06 A3021 1900 86 1500 140/04 RMK AO2 RAB33 P0000 T00780056
03812KAVL AVL20161124044513711/24/16 04:45:31  5-MIN KAVL 240945Z AUTO 14004KT 10SM FU BKN050 BKN070 08/06 A3021 1900 86 1500 150/04 RMK AO2 RAB33E42 P0000 T00780056
03812KAVL AVL20161124045014411/24/16 04:50:31  5-MIN KAVL 240950Z AUTO 13004KT 10SM FU BKN050 OVC065 08/06 A3021 1900 82 1600 140/04 RMK AO2 RAB33E42 SLP222 P0000 T00830056
03812KAVL AVL20161124045512211/24/16 04:55:31  5-MIN KAVL 240955Z AUTO 00000KT 10SM FU BKN050 OVC060 08/06 A3021 1900 82 1600 000/00 RMK AO2 T00830056
03812KAVL AVL20161124050012211/24/16 05:00:31  5-MIN KAVL 241000Z AUTO 00000KT 10SM FU BKN050 OVC060 08/06 A3021 1900 82 1600 000/00 RMK AO2 T00830056
03812KAVL AVL20161124050511511/24/16 05:05:31  5-MIN KAVL 241005Z AUTO 00000KT 10SM FU BKN050 08/06 A3021 1900 86 1600 000/00 RMK AO2 T00830061
03812KAVL AVL20161124051011511/24/16 05:10:31  5-MIN KAVL 241010Z AUTO 00000KT 10SM FU OVC048 08/06 A3022 1900 86 1600 000/00 RMK AO2 T00830061
03812KAVL AVL20161124051511511/24/16 05:15:31  5-MIN KAVL 241015Z AUTO 00000KT 10SM FU OVC048 08/06 A3021 1900 86 1600 000/00 RMK AO2 T00830061
03812KAVL AVL20161124052011511/24/16 05:20:31  5-MIN KAVL 241020Z AUTO 00000KT 10SM FU OVC048 08/06 A3021 1900 86 1600 000/00 RMK AO2 T00830061
03812KAVL AVL20161124052511511/24/16 05:25:31  5-MIN KAVL 241025Z AUTO 18003KT 10SM FU OVC048 08/06 A3021 1900 86 1600 180/03 RMK AO2 T00830061
03812KAVL AVL20161124053011511/24/16 05:30:31  5-MIN KAVL 241030Z AUTO 20003KT 10SM FU OVC046 08/07 A3021 1900 89 1600 200/03 RMK AO2 T00830067
03812KAVL AVL20161124053513111/24/16 05:35:31  5-MIN KAVL 241035Z AUTO 00000KT 10SM -RA FU OVC046 08/06 A3021 1900 86 1600 000/00 RMK AO2 RAB35 P0000 T00830061
03812KAVL AVL20161124054013111/24/16 05:40:31  5-MIN KAVL 241040Z AUTO 00000KT 10SM -RA FU OVC046 08/06 A3021 1900 86 1600 000/00 RMK AO2 RAB35 P0000 T00830061
03812KAVL AVL20161124054513111/24/16 05:45:31  5-MIN KAVL 241045Z AUTO 00000KT 10SM -RA FU OVC046 08/06 A3021 1900 86 1600 000/00 RMK AO2 RAB35 P0000 T00830061
03812KAVL AVL20161124055013711/24/16 05:50:31  5-MIN KAVL 241050Z AUTO 00000KT 10SM FU OVC046 08/06 A3022 1890 86 1600 000/00 RMK AO2 RAB35E46 SLP226 P0000 T00830061
03812KAVL AVL20161124055511511/24/16 05:55:31  5-MIN KAVL 241055Z AUTO 33004KT 10SM FU OVC046 08/06 A3022 1890 86 1600 340/04 RMK AO2 T00830061
03812KAVL AVL20161124060011511/24/16 06:00:31  5-MIN KAVL 241100Z AUTO 34004KT 10SM FU OVC046 08/06 A3022 1890 86 1600 350/04 RMK AO2 T00830061
03812KAVL AVL20161124060511511/24/16 06:05:31  5-MIN KAVL 241105Z AUTO 00000KT 10SM FU OVC046 08/06 A3022 1890 86 1600 000/00 RMK AO2 T00830061
03812KAVL AVL20161124061012211/24/16 06:10:31  5-MIN KAVL 241110Z AUTO 35003KT 10SM FU BKN045 OVC085 08/06 A3022 1890 86 1600 360/03 RMK AO2 T00830061
03812KAVL AVL20161124061512911/24/16 06:15:31  5-MIN KAVL 241115Z AUTO 35004KT 10SM FU BKN043 BKN050 OVC085 08/06 A3022 1890 86 1600 360/04 RMK AO2 T00830061
03812KAVL AVL20161124062012211/24/16 06:20:31  5-MIN KAVL 241120Z AUTO 33004KT 10SM FU BKN045 BKN085 08/06 A3022 1890 89 1500 340/04 RMK AO2 T00780061
03812KAVL AVL20161124062511711/24/16 06:25:31  5-MIN KAVL 241125Z 34003KT 10SM FU SCT043 BKN085 08/06 A3022 1890 89 1500 350/03 RMK AO2 T00780061
03812KAVL AVL20161124063011711/24/16 06:30:31  5-MIN KAVL 241130Z 32003KT 10SM FU FEW043 BKN085 08/06 A3022 1890 86 1500 330/03 RMK AO2 T00780056
03812KAVL AVL20161124063511711/24/16 06:35:31  5-MIN KAVL 241135Z 33004KT 10SM FU FEW043 BKN080 07/06 A3022 1890 89 1400 340/04 RMK AO2 T00720056
03812KAVL AVL20161124064011011/24/16 06:40:31  5-MIN KAVL 241140Z 00000KT 10SM FU BKN085 07/06 A3022 1890 89 1400 000/00 RMK AO2 T00720056
03812KAVL AVL20161124064511011/24/16 06:45:31  5-MIN KAVL 241145Z 00000KT 10SM FU BKN085 07/06 A3022 1890 89 1400 000/00 RMK AO2 T00720056
03812KAVL AVL20161124065014111/24/16 06:50:31  5-MIN KAVL 241150Z 00000KT 10SM FU BKN085 08/06 A3022 1890 89 1500 000/00 RMK AO2 SLP229 60000 T00780061 10106 20072 56005
03812KAVL AVL20161124065511011/24/16 06:55:31  5-MIN KAVL 241155Z 00000KT 10SM FU BKN085 07/06 A3022 1890 89 1400 000/00 RMK AO2 T00720056
03812KAVL AVL20161124070011011/24/16 07:00:31  5-MIN KAVL 241200Z 00000KT 10SM FU BKN085 07/06 A3022 1890 89 1400 000/00 RMK AO2 T00720056
03812KAVL AVL20161124070511011/24/16 07:05:31  5-MIN KAVL 241205Z 29004KT 10SM FU BKN085 07/06 A3023 1880 89 1400 300/04 RMK AO2 T00720056
03812KAVL AVL20161124071011011/24/16 07:10:31  5-MIN KAVL 241210Z 31004KT 10SM FU BKN085 07/05 A3023 1880 89 1400 320/04 RMK AO2 T00670050
03812KAVL AVL20161124071511011/24/16 07:15:31  5-MIN KAVL 241215Z 00000KT 10SM FU BKN085 07/05 A3023 1890 89 1400 000/00 RMK AO2 T00670050
03812KAVL AVL20161124072011011/24/16 07:20:31  5-MIN KAVL 241220Z 00000KT 10SM FU BKN080 07/06 A3023 1880 89 1400 000/00 RMK AO2 T00720056
03812KAVL AVL20161124072511011/24/16 07:25:31  5-MIN KAVL 241225Z 00000KT 10SM FU BKN080 07/06 A3023 1880 89 1400 000/00 RMK AO2 T00720056
03812KAVL AVL20161124073011011/24/16 07:30:31  5-MIN KAVL 241230Z 33005KT 10SM FU BKN080 07/05 A3023 1880 86 1400 340/05 RMK AO2 T00720050
03812KAVL AVL20161124073511011/24/16 07:35:31  5-MIN KAVL 241235Z 00000KT 10SM FU BKN080 07/06 A3023 1880 89 1400 000/00 RMK AO2 T00720056
03812KAVL AVL20161124074011011/24/16 07:40:31  5-MIN KAVL 241240Z 00000KT 10SM FU BKN080 07/06 A3023 1880 89 1400 000/00 RMK AO2 T00720056
03812KAVL AVL20161124074511011/24/16 07:45:31  5-MIN KAVL 241245Z 35005KT 10SM FU SCT080 08/06 A3023 1880 86 1500 360/05 RMK AO2 T00780056
03812KAVL AVL20161124075011711/24/16 07:50:31  5-MIN KAVL 241250Z 00000KT 10SM FU BKN080 08/06 A3023 1880 86 1500 000/00 RMK AO2 SLP234 T00780056
03812KAVL AVL20161124075511011/24/16 07:55:31  5-MIN KAVL 241255Z 34005KT 10SM FU BKN080 08/06 A3024 1880 82 1600 350/05 RMK AO2 T00830056
03812KAVL AVL20161124080011011/24/16 08:00:31  5-MIN KAVL 241300Z 36004KT 10SM FU SCT080 08/06 A3024 1880 82 1600 360/04 RMK AO2 T00830056
03812KAVL AVL20161124080511011/24/16 08:05:31  5-MIN KAVL 241305Z 00000KT 10SM FU FEW080 09/06 A3024 1880 79 1600 000/00 RMK AO2 T00890056
03812KAVL AVL20161124081011011/24/16 08:10:31  5-MIN KAVL 241310Z 34003KT 10SM FU SCT080 09/06 A3024 1880 79 1600 350/03 RMK AO2 T00890056
03812KAVL AVL20161124081511011/24/16 08:15:31  5-MIN KAVL 241315Z 31003KT 10SM FU SCT080 09/06 A3024 1880 83 1600 310/03 RMK AO2 T00890061
03812KAVL AVL20161124082011011/24/16 08:20:31  5-MIN KAVL 241320Z 30003KT 10SM FU FEW080 09/06 A3024 1870 83 1600 310/03 RMK AO2 T00890061
03812KAVL AVL20161124082510711/24/16 08:25:31  5-MIN KAVL 241325Z 33005KT 10SM FU CLR 09/06 A3024 1870 79 1700 340/05 RMK AO2 T00940061
03812KAVL AVL20161124083010711/24/16 08:30:31  5-MIN KAVL 241330Z 34005KT 10SM FU CLR 09/06 A3024 1870 79 1700 340/05 RMK AO2 T00940061
03812KAVL AVL20161124083510711/24/16 08:35:31  5-MIN KAVL 241335Z 00000KT 10SM FU CLR 09/06 A3024 1870 76 1700 000/00 RMK AO2 T00940056
03812KAVL AVL20161124084010711/24/16 08:40:31  5-MIN KAVL 241340Z 34004KT 10SM FU CLR 09/06 A3024 1870 76 1700 350/04 RMK AO2 T00940056
03812KAVL AVL20161124084510711/24/16 08:45:31  5-MIN KAVL 241345Z 32004KT 10SM FU CLR 10/06 A3024 1870 74 1800 330/04 RMK AO2 T01000056
03812KAVL AVL20161124085011411/24/16 08:50:31  5-MIN KAVL 241350Z 30003KT 10SM FU CLR 10/06 A3025 1870 77 1800 300/03 RMK AO2 SLP237 T01000061
03812KAVL AVL20161124085510711/24/16 08:55:31  5-MIN KAVL 241355Z 00000KT 10SM FU CLR 10/06 A3025 1870 74 1800 000/00 RMK AO2 T01000056
03812KAVL AVL20161124090010711/24/16 09:00:31  5-MIN KAVL 241400Z 00000KT 10SM FU CLR 11/06 A3025 1870 74 1800 000/00 RMK AO2 T01060061
03812KAVL AVL20161124090510711/24/16 09:05:31  5-MIN KAVL 241405Z 00000KT 10SM FU CLR 11/06 A3025 1860 71 1900 000/00 RMK AO2 T01110061
03812KAVL AVL20161124091010711/24/16 09:10:31  5-MIN KAVL 241410Z 00000KT 10SM FU CLR 11/07 A3025 1870 77 1800 000/00 RMK AO2 T01060067
03812KAVL AVL20161124091510711/24/16 09:15:31  5-MIN KAVL 241415Z 19003KT 10SM FU CLR 11/07 A3025 1860 74 1900 190/03 RMK AO2 T01110067
03812KAVL AVL20161124092010711/24/16 09:20:31  5-MIN KAVL 241420Z 18003KT 10SM FU CLR 11/07 A3025 1870 74 1900 180/03 RMK AO2 T01110067
03812KAVL AVL20161124092510711/24/16 09:25:31  5-MIN KAVL 241425Z 20003KT 10SM FU CLR 11/07 A3025 1870 74 1900 210/03 RMK AO2 T01110067
03812KAVL AVL20161124093011011/24/16 09:30:31  5-MIN KAVL 241430Z 00000KT 10SM FU FEW060 12/07 A3025 1860 71 1900 000/00 RMK AO2 T01170067
03812KAVL AVL20161124093511011/24/16 09:35:31  5-MIN KAVL 241435Z 00000KT 10SM FU SCT060 12/07 A3025 1870 68 2000 000/00 RMK AO2 T01220067
03812KAVL AVL20161124094011011/24/16 09:40:31  5-MIN KAVL 241440Z 00000KT 10SM FU BKN060 13/07 A3025 1870 69 2100 000/00 RMK AO2 T01280072
03812KAVL AVL20161124094511011/24/16 09:45:31  5-MIN KAVL 241445Z 00000KT 10SM FU BKN060 13/07 A3025 1860 69 2100 000/00 RMK AO2 T01280072
03812KAVL AVL20161124095012311/24/16 09:50:31  5-MIN KAVL 241450Z 00000KT 10SM FU BKN060 13/07 A3025 1870 69 2100 000/00 RMK AO2 SLP234 T01280072 51005
03812KAVL AVL20161124095511011/24/16 09:55:31  5-MIN KAVL 241455Z VRB03KT 10SM FU BKN060 13/07 A3025 1860 69 2100 VRB/03 RMK AO2 T01280072
03812KAVL AVL20161124100011011/24/16 10:00:31  5-MIN KAVL 241500Z 00000KT 10SM FU OVC060 13/07 A3025 1860 69 2100 000/00 RMK AO2 T01280072
03812KAVL AVL20161124100511011/24/16 10:05:31  5-MIN KAVL 241505Z 00000KT 10SM FU OVC060 13/07 A3025 1860 69 2100 000/00 RMK AO2 T01280072
03812KAVL AVL20161124101011011/24/16 10:10:31  5-MIN KAVL 241510Z 00000KT 10SM FU OVC060 13/07 A3025 1860 66 2100 000/00 RMK AO2 T01330072
03812KAVL AVL20161124101511011/24/16 10:15:31  5-MIN KAVL 241515Z 00000KT 10SM FU OVC060 14/08 A3025 1870 66 2200 000/00 RMK AO2 T01390078
03812KAVL AVL20161124102011011/24/16 10:20:31  5-MIN KAVL 241520Z 00000KT 10SM FU OVC060 15/08 A3025 1870 62 2300 000/00 RMK AO2 T01500078
03812KAVL AVL20161124102511011/24/16 10:25:31  5-MIN KAVL 241525Z 00000KT 10SM FU OVC060 14/08 A3025 1870 64 2300 000/00 RMK AO2 T01440078
03812KAVL AVL20161124103011011/24/16 10:30:31  5-MIN KAVL 241530Z 00000KT 10SM FU OVC060 14/08 A3024 1870 64 2300 000/00 RMK AO2 T01440078
03812KAVL AVL20161124103511011/24/16 10:35:31  5-MIN KAVL 241535Z 00000KT 10SM FU OVC060 15/08 A3025 1860 62 2300 000/00 RMK AO2 T01500078
03812KAVL AVL20161124104011011/24/16 10:40:31  5-MIN KAVL 241540Z VRB04KT 10SM FU OVC060 15/08 A3025 1860 64 2300 VRB/04 RMK AO2 T01500083
03812KAVL AVL20161124104511011/24/16 10:45:31  5-MIN KAVL 241545Z 00000KT 10SM FU OVC060 14/08 A3025 1860 66 2300 000/00 RMK AO2 T01440083
03812KAVL AVL20161124105011711/24/16 10:50:31  5-MIN KAVL 241550Z 15003KT 10SM FU OVC060 14/08 A3025 1860 66 2300 150/03 RMK AO2 SLP235 T01440083
03812KAVL AVL20161124105511011/24/16 10:55:31  5-MIN KAVL 241555Z 00000KT 10SM FU OVC060 15/08 A3025 1860 64 2300 000/00 RMK AO2 T01500083
03812KAVL AVL20161124110011011/24/16 11:00:31  5-MIN KAVL 241600Z 00000KT 10SM FU OVC060 15/08 A3025 1860 64 2300 000/00 RMK AO2 T01500083
03812KAVL AVL20161124110511011/24/16 11:05:31  5-MIN KAVL 241605Z 10003KT 10SM FU OVC060 15/08 A3025 1870 64 2300 110/03 RMK AO2 T01500083
03812KAVL AVL20161124111011011/24/16 11:10:31  5-MIN KAVL 241610Z 00000KT 10SM FU OVC055 15/08 A3025 1870 64 2300 000/00 RMK AO2 T01500083
03812KAVL AVL20161124111511011/24/16 11:15:31  5-MIN KAVL 241615Z 00000KT 10SM FU OVC060 16/08 A3025 1870 62 2400 000/00 RMK AO2 T01560083
03812KAVL AVL20161124112011011/24/16 11:20:31  5-MIN KAVL 241620Z 17003KT 10SM FU OVC060 16/08 A3024 1870 62 2400 180/03 RMK AO2 T01560083
03812KAVL AVL20161124112511011/24/16 11:25:31  5-MIN KAVL 241625Z 00000KT 10SM FU OVC060 16/08 A3024 1870 62 2400 000/00 RMK AO2 T01560083
03812KAVL AVL20161124113011011/24/16 11:30:31  5-MIN KAVL 241630Z 00000KT 10SM FU OVC060 16/08 A3024 1870 59 2500 000/00 RMK AO2 T01610083
03812KAVL AVL20161124113511011/24/16 11:35:31  5-MIN KAVL 241635Z 00000KT 10SM FU OVC055 16/08 A3024 1880 59 2500 000/00 RMK AO2 T01610083
03812KAVL AVL20161124114011011/24/16 11:40:31  5-MIN KAVL 241640Z 01004KT 10SM FU OVC055 17/08 A3023 1880 57 2500 020/04 RMK AO2 T01670083
03812KAVL AVL20161124114511011/24/16 11:45:31  5-MIN KAVL 241645Z 34003KT 10SM FU OVC050 17/08 A3023 1880 57 2500 350/03 RMK AO2 T01670083
03812KAVL AVL20161124115012411/24/16 11:50:31  5-MIN KAVL 241650Z 34003KT 10SM FU BKN050 OVC060 17/08 A3023 1880 55 2600 350/03 RMK AO2 SLP226 T01670078
03812KAVL AVL20161124115511711/24/16 11:55:31  5-MIN KAVL 241655Z 00000KT 10SM FU BKN050 OVC060 17/08 A3023 1880 55 2600 000/00 RMK AO2 T01670078
03812KAVL AVL20161124120011711/24/16 12:00:31  5-MIN KAVL 241700Z 00000KT 10SM FU BKN050 OVC060 17/08 A3023 1880 55 2600 000/00 RMK AO2 T01670078
03812KAVL AVL20161124120511711/24/16 12:05:31  5-MIN KAVL 241705Z 00000KT 10SM FU BKN049 OVC060 17/08 A3023 1880 55 2600 000/00 RMK AO2 T01670078
03812KAVL AVL20161124121011711/24/16 12:10:31  5-MIN KAVL 241710Z 00000KT 10SM FU BKN049 OVC060 17/08 A3023 1890 55 2600 000/00 RMK AO2 T01670078
03812KAVL AVL20161124121511011/24/16 12:15:31  5-MIN KAVL 241715Z 00000KT 10SM FU OVC055 17/08 A3022 1890 55 2600 000/00 RMK AO2 T01670078
03812KAVL AVL20161124122011711/24/16 12:20:31  5-MIN KAVL 241720Z 00000KT 10SM FU BKN047 OVC055 17/07 A3022 1890 53 2600 000/00 RMK AO2 T01670072
03812KAVL AVL20161124122511711/24/16 12:25:31  5-MIN KAVL 241725Z 00000KT 10SM FU BKN045 OVC050 17/08 A3022 1890 53 2600 000/00 RMK AO2 T01720078
03812KAVL AVL20161124123011711/24/16 12:30:31  5-MIN KAVL 241730Z 02003KT 10SM FU SCT045 BKN055 18/08 A3021 1900 50 2800 020/03 RMK AO2 T01830078
03812KAVL AVL20161124123511711/24/16 12:35:31  5-MIN KAVL 241735Z VRB03KT 10SM FU SCT045 BKN060 19/08 A3021 1900 48 2800 VRB/03 RMK AO2 T01890078
03812KAVL AVL20161124124011711/24/16 12:40:31  5-MIN KAVL 241740Z 32003KT 10SM FU SCT046 BKN055 19/08 A3021 1900 48 2900 330/03 RMK AO2 T01940083
03812KAVL AVL20161124124511711/24/16 12:45:31  5-MIN KAVL 241745Z 35003KT 10SM FU SCT046 BKN055 19/08 A3020 1910 48 2800 360/03 RMK AO2 T01890078
03812KAVL AVL20161124125014211/24/16 12:50:31  5-MIN KAVL 241750Z 35004KT 10SM FU FEW046 BKN055 19/08 A3020 1910 46 2900 360/04 RMK AO2 SLP214 T01940078 10194 20067 51009
03812KAVL AVL20161124125511011/24/16 12:55:31  5-MIN KAVL 241755Z 02003KT 10SM FU BKN055 19/07 A3020 1910 44 2900 030/03 RMK AO2 T01940072
03812KAVL AVL20161124130010911/24/16 13:00:31  5-MIN KAVL 241800Z 35003KT 8SM FU BKN055 20/07 A3020 1910 43 3000 360/03 RMK AO2 T02000072
03812KAVL AVL20161124130511211/24/16 13:05:31  5-MIN KAVL 241805Z 36006KT 6SM HZ FU SCT055 19/07 A3020 1910 43 2900 360/06 RMK AO2 T01940067
03812KAVL AVL20161124131011211/24/16 13:10:31  5-MIN KAVL 241810Z 35004KT 5SM HZ FU SCT055 19/07 A3019 1910 44 2800 350/04 RMK AO2 T01890067
03812KAVL AVL20161124131511211/24/16 13:15:31  5-MIN KAVL 241815Z 34003KT 5SM HZ FU FEW050 18/07 A3019 1920 46 2800 350/03 RMK AO2 T01830067
03812KAVL AVL20161124132011211/24/16 13:20:31  5-MIN KAVL 241820Z 35003KT 6SM HZ FU FEW050 19/07 A3019 1920 46 2900 360/03 RMK AO2 T01890072
03812KAVL AVL20161124132510611/24/16 13:25:31  5-MIN KAVL 241825Z 00000KT 7SM FU CLR 19/07 A3019 1920 44 2900 000/00 RMK AO2 T01940072
03812KAVL AVL20161124133010611/24/16 13:30:31  5-MIN KAVL 241830Z VRB04KT 8SM FU CLR 19/07 A3019 1920 44 2900 VRB/04 RMK AO2 T01890067
03812KAVL AVL20161124133510611/24/16 13:35:31  5-MIN KAVL 241835Z 00000KT 9SM FU CLR 19/07 A3019 1920 44 2900 000/00 RMK AO2 T01890067
03812KAVL AVL20161124134011011/24/16 13:40:31  5-MIN KAVL 241840Z 00000KT 10SM FU FEW049 20/07 A3019 1920 41 3000 000/00 RMK AO2 T02000067
03812KAVL AVL20161124134511011/24/16 13:45:31  5-MIN KAVL 241845Z VRB03KT 10SM FU FEW049 20/07 A3019 1920 41 3000 VRB/03 RMK AO2 T02000067
03812KAVL AVL20161124135011711/24/16 13:50:31  5-MIN KAVL 241850Z VRB04KT 10SM FU SCT050 21/06 A3019 1920 38 3000 VRB/04 RMK AO2 SLP208 T02060061
03812KAVL AVL20161124135511011/24/16 13:55:31  5-MIN KAVL 241855Z 01004KT 10SM FU BKN050 21/07 A3019 1920 40 3000 020/04 RMK AO2 T02060067
03812KAVL AVL20161124140010911/24/16 14:00:31  5-MIN KAVL 241900Z VRB04KT 9SM FU BKN050 22/07 A3019 1920 37 3200 VRB/04 RMK AO2 T02170067
03812KAVL AVL20161124140511011/24/16 14:05:31  5-MIN KAVL 241905Z VRB03KT 10SM FU BKN050 21/06 A3019 1920 37 3100 VRB/03 RMK AO2 T02110061
03812KAVL AVL20161124141010011/24/16 14:10:31  5-MIN KAVL 241910Z 10SM FU OVC050 22/06 A3018 1930 34 3200 M /M RMK AO2 T02170056
03812KAVL AVL20161124141511011/24/16 14:15:31  5-MIN KAVL 241915Z 29007KT 10SM FU OVC050 21/06 A3018 1930 36 3100 300/07 RMK AO2 T02110056
03812KAVL AVL20161124142011011/24/16 14:20:31  5-MIN KAVL 241920Z VRB05KT 10SM FU OVC055 21/06 A3018 1930 38 3100 VRB/05 RMK AO2 T02060061
03812KAVL AVL20161124142511011/24/16 14:25:31  5-MIN KAVL 241925Z 20009KT 10SM FU OVC055 21/05 A3018 1930 34 3100 210/09 RMK AO2 T02110050
03812KAVL AVL20161124143012611/24/16 14:30:31  5-MIN KAVL 241930Z 24009KT 200V300 10SM FU OVC055 21/04 A3018 1930 33 3100 250/09 210V310 RMK AO2 T02110044
03812KAVL AVL20161124143511011/24/16 14:35:31  5-MIN KAVL 241935Z 28005KT 10SM FU OVC055 21/06 A3018 1930 37 3100 290/05 RMK AO2 T02110061
03812KAVL AVL20161124144011011/24/16 14:40:31  5-MIN KAVL 241940Z 22010KT 10SM FU OVC055 21/05 A3018 1930 34 3100 230/10 RMK AO2 T02110050
03812KAVL AVL20161124144512611/24/16 14:45:31  5-MIN KAVL 241945Z 26008KT 210V290 10SM FU OVC055 21/04 A3018 1930 33 3100 260/08 220V300 RMK AO2 T02110044
03812KAVL AVL20161124145011711/24/16 14:50:31  5-MIN KAVL 241950Z 24011KT 10SM FU OVC055 21/05 A3018 1930 34 3100 250/11 RMK AO2 SLP208 T02110050
03812KAVL AVL20161124145511011/24/16 14:55:31  5-MIN KAVL 241955Z 23012KT 10SM FU OVC055 21/04 A3018 1930 34 3100 230/12 RMK AO2 T02060044
03812KAVL AVL20161124150011011/24/16 15:00:31  5-MIN KAVL 242000Z 23008KT 10SM FU SCT055 21/04 A3018 1930 33 3100 240/08 RMK AO2 T02110044
03812KAVL AVL20161124150511011/24/16 15:05:31  5-MIN KAVL 242005Z 24010KT 10SM FU SCT055 21/04 A3018 1920 34 3100 250/10 RMK AO2 T02060044
03812KAVL AVL20161124151012611/24/16 15:10:31  5-MIN KAVL 242010Z 24007KT 210V270 10SM FU SCT055 21/04 A3018 1920 33 3100 240/07 220V280 RMK AO2 T02110044
03812KAVL AVL20161124151511011/24/16 15:15:31  5-MIN KAVL 242015Z 22010KT 10SM FU SCT055 21/04 A3018 1930 34 3100 230/10 RMK AO2 T02060044
03812KAVL AVL20161124152011011/24/16 15:20:31  5-MIN KAVL 242020Z 23011KT 10SM FU SCT055 21/04 A3018 1930 34 3100 240/11 RMK AO2 T02060044
03812KAVL AVL20161124152511511/24/16 15:25:31  5-MIN KAVL 242025Z AUTO 23011KT 10SM FU SCT055 20/04 A3018 1920 35 3000 240/11 RMK AO2 T02000044
03812KAVL AVL20161124153011511/24/16 15:30:31  5-MIN KAVL 242030Z AUTO 23009KT 10SM FU SCT055 20/04 A3018 1920 35 3000 230/09 RMK AO2 T02000044
03812KAVL AVL20161124153511011/24/16 15:35:31  5-MIN KAVL 242035Z 23009KT 10SM FU SCT055 20/04 A3018 1920 35 3000 240/09 RMK AO2 T02000044
03812KAVL AVL20161124154011011/24/16 15:40:31  5-MIN KAVL 242040Z 23008KT 10SM FU SCT055 20/04 A3018 1920 35 3000 240/08 RMK AO2 T02000044
03812KAVL AVL20161124154511011/24/16 15:45:31  5-MIN KAVL 242045Z 21009KT 10SM FU SCT055 20/04 A3018 1920 35 3000 210/09 RMK AO2 T02000044
03812KAVL AVL20161124155012311/24/16 15:50:31  5-MIN KAVL 242050Z 22008KT 10SM FU SCT055 19/04 A3018 1920 37 2900 220/08 RMK AO2 SLP209 T01940044 58015
03812KAVL AVL20161124155511011/24/16 15:55:31  5-MIN KAVL 242055Z 21010KT 10SM FU BKN055 19/04 A3019 1920 37 2900 220/10 RMK AO2 T01940044
03812KAVL AVL20161124160011011/24/16 16:00:31  5-MIN KAVL 242100Z 21009KT 10SM FU SCT055 19/05 A3019 1920 38 2900 220/09 RMK AO2 T01940050
03812KAVL AVL20161124160511011/24/16 16:05:31  5-MIN KAVL 242105Z 22008KT 10SM FU SCT055 19/05 A3019 1920 38 2900 230/08 RMK AO2 T01940050
03812KAVL AVL20161124161011011/24/16 16:10:31  5-MIN KAVL 242110Z 23006KT 10SM FU FEW055 19/05 A3019 1920 38 2900 240/06 RMK AO2 T01940050
03812KAVL AVL20161124161511011/24/16 16:15:31  5-MIN KAVL 242115Z 22010KT 10SM FU FEW055 19/04 A3019 1920 37 2900 230/10 RMK AO2 T01940044
03812KAVL AVL20161124162010711/24/16 16:20:31  5-MIN KAVL 242120Z 22010KT 10SM FU CLR 19/04 A3019 1920 38 2800 230/10 RMK AO2 T01890044
03812KAVL AVL20161124162510711/24/16 16:25:31  5-MIN KAVL 242125Z 22008KT 10SM FU CLR 19/04 A3020 1910 38 2800 230/08 RMK AO2 T01890044
03812KAVL AVL20161124163010711/24/16 16:30:31  5-MIN KAVL 242130Z 23007KT 10SM FU CLR 19/04 A3020 1910 38 2800 230/07 RMK AO2 T01890044
03812KAVL AVL20161124163510711/24/16 16:35:31  5-MIN KAVL 242135Z 21009KT 10SM FU CLR 19/05 A3020 1910 39 2800 220/09 RMK AO2 T01890050
03812KAVL AVL20161124164010711/24/16 16:40:31  5-MIN KAVL 242140Z 22007KT 10SM FU CLR 19/05 A3020 1910 39 2800 220/07 RMK AO2 T01890050
03812KAVL AVL20161124164510711/24/16 16:45:31  5-MIN KAVL 242145Z 21006KT 10SM FU CLR 18/06 A3020 1910 42 2800 220/06 RMK AO2 T01830056
03812KAVL AVL20161124165011411/24/16 16:50:31  5-MIN KAVL 242150Z 22007KT 10SM FU CLR 18/06 A3020 1910 44 2800 220/07 RMK AO2 SLP216 T01830061
03812KAVL AVL20161124165510711/24/16 16:55:31  5-MIN KAVL 242155Z 23008KT 10SM FU CLR 18/06 A3020 1910 46 2700 230/08 RMK AO2 T01780061
03812KAVL AVL20161124170010711/24/16 17:00:31  5-MIN KAVL 242200Z 21007KT 10SM FU CLR 18/07 A3021 1900 48 2700 220/07 RMK AO2 T01780067
03812KAVL AVL20161124170510711/24/16 17:05:31  5-MIN KAVL 242205Z 22005KT 10SM FU CLR 18/07 A3021 1900 48 2700 230/05 RMK AO2 T01780067
03812KAVL AVL20161124171010711/24/16 17:10:31  5-MIN KAVL 242210Z 22004KT 10SM FU CLR 17/07 A3021 1900 49 2600 230/04 RMK AO2 T01720067
03812KAVL AVL20161124171510711/24/16 17:15:31  5-MIN KAVL 242215Z 22004KT 10SM FU CLR 17/07 A3021 1900 51 2600 220/04 RMK AO2 T01670067
03812KAVL AVL20161124172010711/24/16 17:20:31  5-MIN KAVL 242220Z 23003KT 10SM FU CLR 17/07 A3021 1900 51 2600 240/03 RMK AO2 T01670067
03812KAVL AVL20161124172510711/24/16 17:25:31  5-MIN KAVL 242225Z 00000KT 10SM FU CLR 17/07 A3021 1900 51 2600 000/00 RMK AO2 T01670067
03812KAVL AVL20161124173010711/24/16 17:30:31  5-MIN KAVL 242230Z 23003KT 10SM FU CLR 17/07 A3022 1900 51 2600 240/03 RMK AO2 T01670067
03812KAVL AVL20161124173510711/24/16 17:35:31  5-MIN KAVL 242235Z 00000KT 10SM FU CLR 16/07 A3022 1900 53 2500 000/00 RMK AO2 T01610067
03812KAVL AVL20161124174010711/24/16 17:40:31  5-MIN KAVL 242240Z 00000KT 10SM FU CLR 16/07 A3022 1890 53 2500 000/00 RMK AO2 T01610067
03812KAVL AVL20161124174510711/24/16 17:45:31  5-MIN KAVL 242245Z 00000KT 10SM FU CLR 16/07 A3022 1890 55 2500 000/00 RMK AO2 T01610072
03812KAVL AVL20161124175011411/24/16 17:50:31  5-MIN KAVL 242250Z 25003KT 10SM FU CLR 16/07 A3022 1890 55 2500 260/03 RMK AO2 SLP224 T01610072
03812KAVL AVL20161124175510711/24/16 17:55:31  5-MIN KAVL 242255Z 33004KT 10SM FU CLR 16/07 A3022 1890 57 2400 340/04 RMK AO2 T01560072
03812KAVL AVL20161124180010711/24/16 18:00:31  5-MIN KAVL 242300Z 34004KT 10SM FU CLR 14/06 A3022 1890 57 2300 340/04 RMK AO2 T01440061
03812KAVL AVL20161124180510711/24/16 18:05:31  5-MIN KAVL 242305Z 00000KT 10SM FU CLR 15/06 A3022 1890 55 2400 000/00 RMK AO2 T01500061
03812KAVL AVL20161124181010711/24/16 18:10:31  5-MIN KAVL 242310Z 00000KT 10SM FU CLR 14/06 A3022 1890 57 2300 000/00 RMK AO2 T01440061
03812KAVL AVL20161124181510711/24/16 18:15:31  5-MIN KAVL 242315Z 00000KT 10SM FU CLR 14/07 A3022 1890 59 2300 000/00 RMK AO2 T01440067
03812KAVL AVL20161124182010711/24/16 18:20:31  5-MIN KAVL 242320Z 00000KT 10SM FU CLR 14/07 A3022 1890 59 2300 000/00 RMK AO2 T01440067
03812KAVL AVL20161124182510711/24/16 18:25:31  5-MIN KAVL 242325Z 00000KT 10SM FU CLR 14/07 A3022 1890 64 2200 000/00 RMK AO2 T01390072
03812KAVL AVL20161124183010711/24/16 18:30:31  5-MIN KAVL 242330Z 00000KT 10SM FU CLR 14/06 A3022 1890 59 2200 000/00 RMK AO2 T01390061
03812KAVL AVL20161124183510711/24/16 18:35:31  5-MIN KAVL 242335Z 00000KT 10SM FU CLR 14/06 A3023 1890 59 2200 000/00 RMK AO2 T01390061
03812KAVL AVL20161124184010711/24/16 18:40:31  5-MIN KAVL 242340Z 00000KT 10SM FU CLR 13/06 A3023 1880 61 2200 000/00 RMK AO2 T01330061
03812KAVL AVL20161124184511011/24/16 18:45:31  5-MIN KAVL 242345Z 00000KT 10SM FU FEW050 12/06 A3023 1880 66 2000 000/00 RMK AO2 T01220061
03812KAVL AVL20161124185013511/24/16 18:50:31  5-MIN KAVL 242350Z 00000KT 10SM FU FEW050 12/06 A3023 1880 66 2000 000/00 RMK AO2 SLP230 T01220061 10217 20122 55005
03812KAVL AVL20161124185511011/24/16 18:55:31  5-MIN KAVL 242355Z 00000KT 10SM FU FEW050 12/06 A3023 1880 66 2000 000/00 RMK AO2 T01220061
03812KAVL AVL20161124190011011/24/16 19:00:31  5-MIN KAVL 250000Z 00000KT 10SM FU FEW050 12/07 A3023 1880 68 2000 000/00 RMK AO2 T01220067
03812KAVL AVL20161124190511011/24/16 19:05:31  5-MIN KAVL 250005Z 00000KT 10SM FU FEW050 12/06 A3023 1880 66 2000 000/00 RMK AO2 T01220061
03812KAVL AVL20161124191011011/24/16 19:10:31  5-MIN KAVL 250010Z 00000KT 10SM FU SCT050 13/07 A3023 1880 66 2100 000/00 RMK AO2 T01280067
03812KAVL AVL20161124191511011/24/16 19:15:31  5-MIN KAVL 250015Z 00000KT 10SM FU FEW050 13/07 A3023 1880 66 2100 000/00 RMK AO2 T01280067
03812KAVL AVL20161124192011011/24/16 19:20:31  5-MIN KAVL 250020Z 00000KT 10SM FU SCT050 12/07 A3024 1880 68 2000 000/00 RMK AO2 T01220067
03812KAVL AVL20161124192511011/24/16 19:25:31  5-MIN KAVL 250025Z 00000KT 10SM FU SCT049 12/07 A3024 1880 68 2000 000/00 RMK AO2 T01220067
03812KAVL AVL20161124193011011/24/16 19:30:31  5-MIN KAVL 250030Z 00000KT 10SM FU BKN049 12/07 A3024 1880 68 2000 000/00 RMK AO2 T01220067
03812KAVL AVL20161124193511011/24/16 19:35:31  5-MIN KAVL 250035Z 00000KT 10SM FU BKN049 12/07 A3024 1870 68 2000 000/00 RMK AO2 T01220067
03812KAVL AVL20161124194011011/24/16 19:40:31  5-MIN KAVL 250040Z 35003KT 10SM FU BKN049 12/06 A3024 1870 66 2000 350/03 RMK AO2 T01170056
03812KAVL AVL20161124194511011/24/16 19:45:31  5-MIN KAVL 250045Z 00000KT 10SM FU BKN050 12/06 A3024 1870 66 2000 000/00 RMK AO2 T01170056
03812KAVL AVL20161124195011711/24/16 19:50:31  5-MIN KAVL 250050Z 34003KT 10SM FU BKN050 12/06 A3024 1870 66 2000 350/03 RMK AO2 SLP236 T01170056
03812KAVL AVL20161124195511011/24/16 19:55:31  5-MIN KAVL 250055Z 35003KT 10SM FU BKN050 11/06 A3024 1870 68 1900 350/03 RMK AO2 T01110056
03812KAVL AVL20161124200011011/24/16 20:00:31  5-MIN KAVL 250100Z 32004KT 10SM FU BKN050 11/06 A3024 1870 68 1900 330/04 RMK AO2 T01110056
03812KAVL AVL20161124200511011/24/16 20:05:31  5-MIN KAVL 250105Z 32005KT 10SM FU SCT050 11/06 A3024 1870 68 1900 330/05 RMK AO2 T01110056
03812KAVL AVL20161124201011011/24/16 20:10:31  5-MIN KAVL 250110Z 33004KT 10SM FU FEW050 10/05 A3024 1870 71 1800 340/04 RMK AO2 T01000050
03812KAVL AVL20161124201511011/24/16 20:15:31  5-MIN KAVL 250115Z 33005KT 10SM FU FEW050 10/05 A3024 1870 71 1800 340/05 RMK AO2 T01000050
03812KAVL AVL20161124202010711/24/16 20:20:31  5-MIN KAVL 250120Z 34005KT 10SM FU CLR 10/05 A3024 1870 71 1800 340/05 RMK AO2 T01000050
03812KAVL AVL20161124202510711/24/16 20:25:31  5-MIN KAVL 250125Z 32004KT 10SM FU CLR 09/05 A3024 1880 74 1700 330/04 RMK AO2 T00940050
03812KAVL AVL20161124203010711/24/16 20:30:31  5-MIN KAVL 250130Z 31005KT 10SM FU CLR 09/05 A3024 1880 74 1700 320/05 RMK AO2 T00940050
03812KAVL AVL20161124203510711/24/16 20:35:31  5-MIN KAVL 250135Z 31003KT 10SM FU CLR 09/05 A3024 1880 74 1700 310/03 RMK AO2 T00940050
03812KAVL AVL20161124204010711/24/16 20:40:31  5-MIN KAVL 250140Z 19003KT 10SM FU CLR 10/05 A3024 1870 71 1800 200/03 RMK AO2 T01000050
03812KAVL AVL20161124204510711/24/16 20:45:31  5-MIN KAVL 250145Z 00000KT 10SM FU CLR 09/04 A3024 1870 73 1600 000/00 RMK AO2 T00890044
03812KAVL AVL20161124205011411/24/16 20:50:31  5-MIN KAVL 250150Z 00000KT 10SM FU CLR 08/04 A3024 1870 76 1600 000/00 RMK AO2 SLP236 T00830044
03812KAVL AVL20161124205510711/24/16 20:55:31  5-MIN KAVL 250155Z 00000KT 10SM FU CLR 08/04 A3024 1870 76 1600 000/00 RMK AO2 T00830044
03812KAVL AVL20161124210010711/24/16 21:00:31  5-MIN KAVL 250200Z 00000KT 10SM FU CLR 09/05 A3024 1870 76 1600 000/00 RMK AO2 T00890050
03812KAVL AVL20161124210510711/24/16 21:05:31  5-MIN KAVL 250205Z 00000KT 10SM FU CLR 09/05 A3024 1870 74 1700 000/00 RMK AO2 T00940050
03812KAVL AVL20161124211010711/24/16 21:10:31  5-MIN KAVL 250210Z 00000KT 10SM FU CLR 09/05 A3024 1870 74 1700 000/00 RMK AO2 T00940050
03812KAVL AVL20161124211510711/24/16 21:15:31  5-MIN KAVL 250215Z 00000KT 10SM FU CLR 09/05 A3024 1870 76 1600 000/00 RMK AO2 T00890050
03812KAVL AVL20161124212010711/24/16 21:20:31  5-MIN KAVL 250220Z 00000KT 10SM FU CLR 09/05 A3024 1870 76 1600 000/00 RMK AO2 T00890050
03812KAVL AVL20161124212510711/24/16 21:25:31  5-MIN KAVL 250225Z 00000KT 10SM FU CLR 09/05 A3025 1870 74 1700 000/00 RMK AO2 T00940050
03812KAVL AVL20161124213010711/24/16 21:30:31  5-MIN KAVL 250230Z 00000KT 10SM FU CLR 08/04 A3025 1870 76 1600 000/00 RMK AO2 T00830044
03812KAVL AVL20161124213510711/24/16 21:35:31  5-MIN KAVL 250235Z 00000KT 10SM FU CLR 08/04 A3025 1870 76 1600 000/00 RMK AO2 T00830044
03812KAVL AVL20161124214010711/24/16 21:40:31  5-MIN KAVL 250240Z 00000KT 10SM FU CLR 08/04 A3025 1860 79 1500 000/00 RMK AO2 T00780044
03812KAVL AVL20161124214510711/24/16 21:45:31  5-MIN KAVL 250245Z 00000KT 10SM FU CLR 08/04 A3025 1860 76 1500 000/00 RMK AO2 T00830044
03812KAVL AVL20161124215012011/24/16 21:50:31  5-MIN KAVL 250250Z 00000KT 10SM FU CLR 08/04 A3025 1860 76 1500 000/00 RMK AO2 SLP237 T00830044 51015
03812KAVL AVL20161124215510711/24/16 21:55:31  5-MIN KAVL 250255Z 00000KT 10SM FU CLR 08/04 A3025 1870 76 1500 000/00 RMK AO2 T00780039
03812KAVL AVL20161124220010711/24/16 22:00:31  5-MIN KAVL 250300Z 00000KT 10SM FU CLR 08/04 A3025 1870 79 1500 000/00 RMK AO2 T00780044
03812KAVL AVL20161124220510711/24/16 22:05:31  5-MIN KAVL 250305Z 00000KT 10SM FU CLR 08/04 A3025 1870 76 1500 000/00 RMK AO2 T00830044
03812KAVL AVL20161124221010711/24/16 22:10:31  5-MIN KAVL 250310Z 00000KT 10SM FU CLR 07/04 A3025 1870 79 1400 000/00 RMK AO2 T00720039
03812KAVL AVL20161124221510711/24/16 22:15:31  5-MIN KAVL 250315Z 00000KT 10SM FU CLR 07/04 A3025 1870 79 1400 000/00 RMK AO2 T00720039
03812KAVL AVL20161124222010711/24/16 22:20:31  5-MIN KAVL 250320Z 00000KT 10SM FU CLR 07/04 A3025 1870 79 1400 000/00 RMK AO2 T00720039
03812KAVL AVL20161124222510711/24/16 22:25:31  5-MIN KAVL 250325Z 00000KT 10SM FU CLR 07/03 A3025 1870 79 1400 000/00 RMK AO2 T00670033
03812KAVL AVL20161124223010711/24/16 22:30:31  5-MIN KAVL 250330Z 00000KT 10SM FU CLR 08/04 A3025 1870 76 1500 000/00 RMK AO2 T00780039
03812KAVL AVL20161124223510711/24/16 22:35:31  5-MIN KAVL 250335Z 00000KT 10SM FU CLR 07/04 A3025 1870 82 1400 000/00 RMK AO2 T00720044
03812KAVL AVL20161124224010711/24/16 22:40:31  5-MIN KAVL 250340Z 00000KT 10SM FU CLR 07/04 A3025 1870 79 1400 000/00 RMK AO2 T00720039
03812KAVL AVL20161124224510711/24/16 22:45:31  5-MIN KAVL 250345Z 00000KT 10SM FU CLR 07/04 A3025 1860 79 1400 000/00 RMK AO2 T00720039
03812KAVL AVL20161124225011411/24/16 22:50:31  5-MIN KAVL 250350Z 00000KT 10SM FU CLR 07/04 A3025 1860 79 1400 000/00 RMK AO2 SLP236 T00720039
03812KAVL AVL20161124225511211/24/16 22:55:31  5-MIN KAVL 250355Z AUTO 00000KT 10SM FU CLR 07/04 A3025 1860 79 1400 000/00 RMK AO2 T00720039
03812KAVL AVL20161124230011211/24/16 23:00:31  5-MIN KAVL 250400Z AUTO 20003KT 10SM FU CLR 07/04 A3025 1860 82 1300 200/03 RMK AO2 T00670039
03812KAVL AVL20161124230511211/24/16 23:05:31  5-MIN KAVL 250405Z AUTO 00000KT 10SM FU CLR 06/03 A3025 1860 82 1300 000/00 RMK AO2 T00610033
03812KAVL AVL20161124231011211/24/16 23:10:31  5-MIN KAVL 250410Z AUTO 00000KT 10SM FU CLR 06/03 A3025 1860 82 1300 000/00 RMK AO2 T00610033
03812KAVL AVL20161124231511211/24/16 23:15:31  5-MIN KAVL 250415Z AUTO 00000KT 10SM FU CLR 06/03 A3025 1870 82 1300 000/00 RMK AO2 T00610033
03812KAVL AVL20161124232011211/24/16 23:20:31  5-MIN KAVL 250420Z AUTO 00000KT 10SM FU CLR 06/03 A3025 1870 82 1300 000/00 RMK AO2 T00610033
03812KAVL AVL20161124232511211/24/16 23:25:31  5-MIN KAVL 250425Z AUTO 00000KT 10SM FU CLR 07/04 A3025 1860 82 1300 000/00 RMK AO2 T00670039
03812KAVL AVL20161124233011211/24/16 23:30:31  5-MIN KAVL 250430Z AUTO 00000KT 10SM FU CLR 06/03 A3025 1860 82 1300 000/00 RMK AO2 T00610033
03812KAVL AVL20161124233511211/24/16 23:35:31  5-MIN KAVL 250435Z AUTO 00000KT 10SM FU CLR 06/03 A3025 1860 82 1300 000/00 RMK AO2 T00610033
03812KAVL AVL20161124234011211/24/16 23:40:31  5-MIN KAVL 250440Z AUTO 00000KT 10SM FU CLR 06/04 A3025 1860 86 1300 000/00 RMK AO2 T00610039
03812KAVL AVL20161124234511211/24/16 23:45:31  5-MIN KAVL 250445Z AUTO 00000KT 10SM FU CLR 06/03 A3026 1860 85 1200 000/00 RMK AO2 T00560033
03812KAVL AVL20161124235012911/24/16 23:50:31  5-MIN KAVL 250450Z AUTO 00000KT 10SM FU CLR 06/03 A3026 1860 85 1200 000/00 RMK AO2 SLP238 T00560033 402170056
03812KAVL AVL20161124235511211/24/16 23:55:31  5-MIN KAVL 250455Z AUTO 00000KT 10SM FU CLR 06/03 A3025 1860 85 1200 000/00 RMK AO2 T00560033
03812KAVL AVL20161125000011211/25/16 00:00:31  5-MIN KAVL 250500Z AUTO 00000KT 10SM FU CLR 06/04 A3025 1860 86 1300 000/00 RMK AO2 T00610039
03812KAVL AVL20161125000511211/25/16 00:05:31  5-MIN KAVL 250505Z AUTO 00000KT 10SM FU CLR 06/04 A3025 1860 89 1200 000/00 RMK AO2 T00560039
03812KAVL AVL20161125001011211/25/16 00:10:31  5-MIN KAVL 250510Z AUTO 00000KT 10SM FU CLR 06/03 A3025 1860 85 1200 000/00 RMK AO2 T00560033
03812KAVL AVL20161125001511211/25/16 00:15:31  5-MIN KAVL 250515Z AUTO 00000KT 10SM FU CLR 06/04 A3025 1860 89 1200 000/00 RMK AO2 T00560039
03812KAVL AVL20161125002011211/25/16 00:20:31  5-MIN KAVL 250520Z AUTO 00000KT 10SM FU CLR 06/03 A3025 1860 85 1200 000/00 RMK AO2 T00560033
03812KAVL AVL20161125002511211/25/16 00:25:31  5-MIN KAVL 250525Z AUTO 35003KT 10SM FU CLR 05/03 A3025 1860 85 1100 360/03 RMK AO2 T00500028
03812KAVL AVL20161125003011211/25/16 00:30:31  5-MIN KAVL 250530Z AUTO 00000KT 10SM FU CLR 04/02 A3025 1860 85 1100 000/00 RMK AO2 T00440022
03812KAVL AVL20161125003511211/25/16 00:35:31  5-MIN KAVL 250535Z AUTO 32003KT 10SM FU CLR 04/03 A3025 1860 89 1100 330/03 RMK AO2 T00440028
03812KAVL AVL20161125004011211/25/16 00:40:31  5-MIN KAVL 250540Z AUTO 33003KT 10SM FU CLR 05/03 A3025 1860 85 1100 340/03 RMK AO2 T00500028
03812KAVL AVL20161125004511211/25/16 00:45:31  5-MIN KAVL 250545Z AUTO 00000KT 10SM FU CLR 04/03 A3025 1860 89 1100 000/00 RMK AO2 T00440028
03812KAVL AVL20161125005013711/25/16 00:50:31  5-MIN KAVL 250550Z AUTO 00000KT 10SM FU CLR 05/03 A3025 1860 85 1100 000/00 RMK AO2 SLP235 T00500028 10128 20044 51006
03812KAVL AVL20161125005511211/25/16 00:55:31  5-MIN KAVL 250555Z AUTO 00000KT 10SM FU CLR 04/03 A3025 1860 89 1100 000/00 RMK AO2 T00440028
03812KAVL AVL20161125010011211/25/16 01:00:31  5-MIN KAVL 250600Z AUTO 00000KT 10SM FU CLR 04/03 A3025 1860 92 1000 000/00 RMK AO2 T00390028
03812KAVL AVL20161125010511211/25/16 01:05:31  5-MIN KAVL 250605Z AUTO 00000KT 10SM FU CLR 04/02 A3025 1860 85 1100 000/00 RMK AO2 T00440022
03812KAVL AVL20161125011011211/25/16 01:10:31  5-MIN KAVL 250610Z AUTO 00000KT 10SM FU CLR 04/02 A3025 1860 85 1100 000/00 RMK AO2 T00440022
03812KAVL AVL20161125011511211/25/16 01:15:31  5-MIN KAVL 250615Z AUTO 00000KT 10SM FU CLR 05/02 A3025 1860 82 1100 000/00 RMK AO2 T00500022
03812KAVL AVL20161125012011211/25/16 01:20:31  5-MIN KAVL 250620Z AUTO 00000KT 10SM FU CLR 05/03 A3025 1860 85 1100 000/00 RMK AO2 T00500028
03812KAVL AVL20161125012511211/25/16 01:25:31  5-MIN KAVL 250625Z AUTO 00000KT 10SM FU CLR 04/02 A3025 1860 85 1100 000/00 RMK AO2 T00440022
03812KAVL AVL20161125013011211/25/16 01:30:31  5-MIN KAVL 250630Z AUTO 00000KT 10SM FU CLR 04/03 A3025 1870 89 1100 000/00 RMK AO2 T00440028
03812KAVL AVL20161125013511211/25/16 01:35:31  5-MIN KAVL 250635Z AUTO 00000KT 10SM FU CLR 05/03 A3025 1860 85 1100 000/00 RMK AO2 T00500028
03812KAVL AVL20161125014011211/25/16 01:40:31  5-MIN KAVL 250640Z AUTO 00000KT 10SM FU CLR 04/03 A3025 1870 89 1100 000/00 RMK AO2 T00440028
03812KAVL AVL20161125014511211/25/16 01:45:31  5-MIN KAVL 250645Z AUTO 00000KT 10SM FU CLR 04/03 A3024 1870 89 1100 000/00 RMK AO2 T00440028
03812KAVL AVL20161125015011911/25/16 01:50:31  5-MIN KAVL 250650Z AUTO 00000KT 10SM FU CLR 05/02 A3025 1870 82 1100 000/00 RMK AO2 SLP232 T00500022
03812KAVL AVL20161125015511211/25/16 01:55:31  5-MIN KAVL 250655Z AUTO 00000KT 10SM FU CLR 05/03 A3025 1870 85 1100 000/00 RMK AO2 T00500028
03812KAVL AVL20161125020011211/25/16 02:00:31  5-MIN KAVL 250700Z AUTO 00000KT 10SM FU CLR 04/02 A3025 1870 85 1100 000/00 RMK AO2 T00440022
03812KAVL AVL20161125020511211/25/16 02:05:31  5-MIN KAVL 250705Z AUTO 00000KT 10SM FU CLR 04/02 A3025 1870 89 1000 000/00 RMK AO2 T00390022
03812KAVL AVL20161125021011211/25/16 02:10:31  5-MIN KAVL 250710Z AUTO 00000KT 10SM FU CLR 04/02 A3025 1870 89 1000 000/00 RMK AO2 T00390022
03812KAVL AVL20161125021511211/25/16 02:15:31  5-MIN KAVL 250715Z AUTO 00000KT 10SM FU CLR 04/02 A3025 1870 85 1100 000/00 RMK AO2 T00440022
03812KAVL AVL20161125022011211/25/16 02:20:31  5-MIN KAVL 250720Z AUTO 00000KT 10SM FU CLR 04/02 A3025 1870 85 1000 000/00 RMK AO2 T00390017
03812KAVL AVL20161125022511211/25/16 02:25:31  5-MIN KAVL 250725Z AUTO 00000KT 10SM FU CLR 04/02 A3025 1870 85 1000 000/00 RMK AO2 T00390017
03812KAVL AVL20161125023011211/25/16 02:30:31  5-MIN KAVL 250730Z AUTO 00000KT 10SM FU CLR 04/02 A3025 1870 85 1100 000/00 RMK AO2 T00440022
03812KAVL AVL20161125023511111/25/16 02:35:31  5-MIN KAVL 250735Z AUTO 00000KT 9SM FU CLR 04/02 A3025 1870 89 1000 000/00 RMK AO2 T00390022
03812KAVL AVL20161125024011111/25/16 02:40:31  5-MIN KAVL 250740Z AUTO 00000KT 10SM FU CLR 03/02 A3025 1860 92 900 000/00 RMK AO2 T00330022
03812KAVL AVL20161125024511111/25/16 02:45:31  5-MIN KAVL 250745Z AUTO 00000KT 10SM FU CLR 03/02 A3025 1870 89 900 000/00 RMK AO2 T00330017
03812KAVL AVL20161125025011911/25/16 02:50:31  5-MIN KAVL 250750Z AUTO 00000KT 10SM FU CLR 04/02 A3025 1870 85 1000 000/00 RMK AO2 SLP232 T00390017
03812KAVL AVL20161125025511211/25/16 02:55:31  5-MIN KAVL 250755Z AUTO 00000KT 10SM FU CLR 04/02 A3025 1870 85 1000 000/00 RMK AO2 T00390017
03812KAVL AVL20161125030011211/25/16 03:00:31  5-MIN KAVL 250800Z AUTO 00000KT 10SM FU CLR 04/02 A3024 1870 85 1000 000/00 RMK AO2 T00390017
03812KAVL AVL20161125030511211/25/16 03:05:31  5-MIN KAVL 250805Z AUTO 00000KT 10SM FU CLR 04/02 A3024 1870 85 1000 000/00 RMK AO2 T00390017
03812KAVL AVL20161125031011211/25/16 03:10:31  5-MIN KAVL 250810Z AUTO 00000KT 10SM FU CLR 04/02 A3025 1870 85 1000 000/00 RMK AO2 T00390017
03812KAVL AVL20161125031511111/25/16 03:15:31  5-MIN KAVL 250815Z AUTO 00000KT 10SM FU CLR 03/02 A3024 1870 89 900 000/00 RMK AO2 T00330017
03812KAVL AVL20161125032011111/25/16 03:20:31  5-MIN KAVL 250820Z AUTO 00000KT 10SM FU CLR 03/01 A3024 1870 89 900 000/00 RMK AO2 T00280011
03812KAVL AVL20161125032511111/25/16 03:25:31  5-MIN KAVL 250825Z AUTO 00000KT 10SM FU CLR 03/01 A3024 1870 89 900 000/00 RMK AO2 T00280011
03812KAVL AVL20161125033011111/25/16 03:30:31  5-MIN KAVL 250830Z AUTO 00000KT 10SM FU CLR 03/01 A3024 1870 85 900 000/00 RMK AO2 T00330011
03812KAVL AVL20161125033511111/25/16 03:35:31  5-MIN KAVL 250835Z AUTO 00000KT 10SM FU CLR 03/01 A3024 1870 89 900 000/00 RMK AO2 T00280011
03812KAVL AVL20161125034011111/25/16 03:40:31  5-MIN KAVL 250840Z AUTO 00000KT 10SM FU CLR 03/01 A3024 1870 89 900 000/00 RMK AO2 T00280011
03812KAVL AVL20161125034511211/25/16 03:45:31  5-MIN KAVL 250845Z AUTO 00000KT 10SM FU CLR 03/01 A3024 1870 82 1000 000/00 RMK AO2 T00330006
03812KAVL AVL20161125035012411/25/16 03:50:31  5-MIN KAVL 250850Z AUTO 00000KT 10SM FU CLR 03/01 A3024 1870 89 900 000/00 RMK AO2 SLP232 T00280011 50001
03812KAVL AVL20161125035511111/25/16 03:55:31  5-MIN KAVL 250855Z AUTO 00000KT 10SM FU CLR 03/01 A3024 1870 85 900 000/00 RMK AO2 T00280006
03812KAVL AVL20161125040011111/25/16 04:00:31  5-MIN KAVL 250900Z AUTO 00000KT 10SM FU CLR 03/01 A3024 1870 89 900 000/00 RMK AO2 T00280011
03812KAVL AVL20161125040511111/25/16 04:05:31  5-MIN KAVL 250905Z AUTO 00000KT 10SM FU CLR 03/01 A3024 1870 85 900 000/00 RMK AO2 T00280006
03812KAVL AVL20161125041011111/25/16 04:10:31  5-MIN KAVL 250910Z AUTO 00000KT 10SM FU CLR 03/01 A3024 1870 85 900 000/00 RMK AO2 T00280006
03812KAVL AVL20161125041511111/25/16 04:15:31  5-MIN KAVL 250915Z AUTO 00000KT 10SM FU CLR 03/01 A3024 1870 82 900 000/00 RMK AO2 T00330006
03812KAVL AVL20161125042011111/25/16 04:20:31  5-MIN KAVL 250920Z AUTO 00000KT 10SM FU CLR 03/01 A3024 1870 85 900 000/00 RMK AO2 T00330011
03812KAVL AVL20161125042511111/25/16 04:25:31  5-MIN KAVL 250925Z AUTO 00000KT 10SM FU CLR 03/01 A3024 1870 89 900 000/00 RMK AO2 T00280011
03812KAVL AVL20161125043011111/25/16 04:30:31  5-MIN KAVL 250930Z AUTO 00000KT 10SM FU CLR 03/01 A3024 1870 89 900 000/00 RMK AO2 T00280011
03812KAVL AVL20161125043511111/25/16 04:35:31  5-MIN KAVL 250935Z AUTO 00000KT 10SM FU CLR 03/01 A3024 1870 89 900 000/00 RMK AO2 T00280011
03812KAVL AVL20161125044011111/25/16 04:40:31  5-MIN KAVL 250940Z AUTO 00000KT 10SM FU CLR 03/01 A3025 1870 85 900 000/00 RMK AO2 T00280006
03812KAVL AVL20161125044511111/25/16 04:45:31  5-MIN KAVL 250945Z AUTO 00000KT 10SM FU CLR 03/01 A3024 1870 85 900 000/00 RMK AO2 T00280006
03812KAVL AVL20161125045011811/25/16 04:50:31  5-MIN KAVL 250950Z AUTO 00000KT 10SM FU CLR 03/01 A3025 1870 85 900 000/00 RMK AO2 SLP235 T00280006
03812KAVL AVL20161125045511111/25/16 04:55:31  5-MIN KAVL 250955Z AUTO 00000KT 10SM FU CLR 03/01 A3024 1870 85 900 000/00 RMK AO2 T00330011
03812KAVL AVL20161125050011111/25/16 05:00:31  5-MIN KAVL 251000Z AUTO 00000KT 10SM FU CLR 03/01 A3024 1870 85 900 000/00 RMK AO2 T00280006
03812KAVL AVL20161125050511111/25/16 05:05:31  5-MIN KAVL 251005Z AUTO 00000KT 10SM FU CLR 02/00 A3024 1870 85 800 000/00 RMK AO2 T00220000
03812KAVL AVL20161125051011111/25/16 05:10:31  5-MIN KAVL 251010Z AUTO 00000KT 10SM FU CLR 02/00 A3024 1870 85 800 000/00 RMK AO2 T00220000
03812KAVL AVL20161125051511111/25/16 05:15:31  5-MIN KAVL 251015Z AUTO 00000KT 10SM FU CLR 02/00 A3024 1870 85 800 000/00 RMK AO2 T00220000
03812KAVL AVL20161125052011111/25/16 05:20:31  5-MIN KAVL 251020Z AUTO 00000KT 10SM FU CLR 02/00 A3024 1870 85 800 000/00 RMK AO2 T00220000
03812KAVL AVL20161125052511111/25/16 05:25:31  5-MIN KAVL 251025Z AUTO 00000KT 10SM FU CLR 02/00 A3024 1870 85 800 000/00 RMK AO2 T00220000
03812KAVL AVL20161125053011111/25/16 05:30:31  5-MIN KAVL 251030Z AUTO 00000KT 10SM FU CLR 03/01 A3024 1870 85 900 000/00 RMK AO2 T00280006
03812KAVL AVL20161125053511111/25/16 05:35:31  5-MIN KAVL 251035Z AUTO 00000KT 10SM FU CLR 02/01 A3024 1870 89 800 000/00 RMK AO2 T00220006
03812KAVL AVL20161125054011011/25/16 05:40:31  5-MIN KAVL 251040Z AUTO 34004KT 9SM FU CLR 02/01 A3024 1870 89 800 340/04 RMK AO2 T00220006
03812KAVL AVL20161125054511011/25/16 05:45:31  5-MIN KAVL 251045Z AUTO 33005KT 8SM FU CLR 02/01 A3024 1870 89 800 340/05 RMK AO2 T00220006
03812KAVL AVL20161125055013711/25/16 05:50:31  5-MIN KAVL 251050Z AUTO VRB03KT 1 1/2SM BR FU FEW002 02/01 A3025 1860 92 700 VRB/03 RMK AO2 VIS 1/2V5 SLP239 T00170006
03812KAVL AVL20161125055513111/25/16 05:55:31  5-MIN KAVL 251055Z AUTO 00000KT 1SM BR FU VV002 02/01 A3025 1860 92 700 000/00 RMK AO2 VIS 1/2V5 T00170006 RVRNO
03812KAVL AVL20161125060011611/25/16 06:00:31  5-MIN KAVL 251100Z AUTO 00000KT 2SM BR FU BKN002 02/01 A3025 1860 92 700 000/00 RMK AO2 T00170006
03812KAVL AVL20161125060511611/25/16 06:05:31  5-MIN KAVL 251105Z AUTO 34003KT 4SM BR FU BKN002 02/01 A3025 1860 92 700 340/03 RMK AO2 T00170006
03812KAVL AVL20161125061011611/25/16 06:10:31  5-MIN KAVL 251110Z AUTO 33003KT 5SM BR FU BKN002 02/01 A3025 1860 92 700 340/03 RMK AO2 T00170006
03812KAVL AVL20161125061512011/25/16 06:15:31  5-MIN KAVL 251115Z AUTO 35003KT 2 1/2SM BR FU OVC002 02/01 A3025 1860 92 800 350/03 RMK AO2 T00220011
03812KAVL AVL20161125062012311/25/16 06:20:31  5-MIN KAVL 251120Z AUTO 32004KT 3/4SM BR FU VV001 02/01 A3025 1860 92 800 330/04 RMK AO2 T00220011 RVRNO
03812KAVL AVL20161125062511811/25/16 06:25:31  5-MIN KAVL 251125Z 34003KT 1/2SM FG FU VV001 02/01 A3025 1860 92 800 340/03 RMK AO2 T00220011 RVRNO
03812KAVL AVL20161125063011811/25/16 06:30:31  5-MIN KAVL 251130Z 00000KT 1/4SM FG FU VV001 03/02 A3026 1860 92 900 000/00 RMK AO2 T00280017 RVRNO
03812KAVL AVL20161125063512911/25/16 06:35:31  5-MIN KAVL 251135Z 00000KT 1/4SM R35/3500VP6000FT FG FU VV001 02/02 A3026 1860 96 800 000/00 RMK AO2 T00220017
03812KAVL AVL20161125064012911/25/16 06:40:31  5-MIN KAVL 251140Z 33003KT 1/4SM R35/2400VP6000FT FG FU VV001 02/01 A3026 1860 92 700 340/03 RMK AO2 T00170006
03812KAVL AVL20161125064512811/25/16 06:45:31  5-MIN KAVL 251145Z 00000KT 1/4SM R35/1800V2800FT FG FU VV001 02/01 A3026 1860 92 800 000/00 RMK AO2 T00220011
03812KAVL AVL20161125065011811/25/16 06:50:31  5-MIN KAVL 251150Z 31003KT 1/4SM R35/1600V2200FT FG FU VV001 02/02 A3026 1860 96 800 310/03 RMK AO2
03812KAVL AVL20161125065512811/25/16 06:55:31  5-MIN KAVL 251155Z 00000KT 1/4SM R35/1200V1800FT FG FU VV001 03/02 A3026 1850 92 900 000/00 RMK AO2 T00280017
03812KAVL AVL20161125070011811/25/16 07:00:31  5-MIN KAVL 251200Z 00000KT 1/4SM FG FU VV001 02/02 A3026 1860 96 800 000/00 RMK AO2 T00220017 RVRNO
03812KAVL AVL20161125070511811/25/16 07:05:31  5-MIN KAVL 251205Z 18003KT 1/4SM FG FU VV001 02/01 A3026 1850 92 800 180/03 RMK AO2 T00220011 RVRNO
03812KAVL AVL20161125071011811/25/16 07:10:31  5-MIN KAVL 251210Z 17004KT 1/4SM FG FU VV001 02/01 A3027 1850 92 700 180/04 RMK AO2 T00170006 RVRNO
03812KAVL AVL20161125071511811/25/16 07:15:31  5-MIN KAVL 251215Z 17003KT 1/4SM FG FU VV001 02/01 A3027 1850 92 700 170/03 RMK AO2 T00170006 RVRNO
03812KAVL AVL20161125072011811/25/16 07:20:31  5-MIN KAVL 251220Z 17003KT 1/4SM FG FU VV001 02/01 A3027 1850 92 700 180/03 RMK AO2 T00170006 RVRNO
03812KAVL AVL20161125072511911/25/16 07:25:31  5-MIN KAVL 251225Z 00000KT M1/4SM FG FU VV001 02/01 A3027 1850 96 700 000/00 RMK AO2 T00170011 RVRNO
03812KAVL AVL20161125073011911/25/16 07:30:31  5-MIN KAVL 251230Z 00000KT M1/4SM FG FU VV001 02/01 A3027 1840 92 800 000/00 RMK AO2 T00220011 RVRNO
03812KAVL AVL20161125073511811/25/16 07:35:31  5-MIN KAVL 251235Z 00000KT 1/4SM FG FU VV001 02/02 A3027 1840 96 800 000/00 RMK AO2 T00220017 RVRNO
03812KAVL AVL20161125074011811/25/16 07:40:31  5-MIN KAVL 251240Z 00000KT 1/4SM FG FU VV001 03/02 A3027 1840 92 800 000/00 RMK AO2 T00280017 RVRNO
03812KAVL AVL20161125074511811/25/16 07:45:31  5-MIN KAVL 251245Z 00000KT 1/4SM FG FU VV002 03/02 A3027 1840 92 800 000/00 RMK AO2 T00280017 RVRNO
03812KAVL AVL20161125075012511/25/16 07:50:31  5-MIN KAVL 251250Z 00000KT 1/4SM FG FU VV002 03/02 A3027 1840 89 900 000/00 RMK AO2 SLP249 T00330017 RVRNO
03812KAVL AVL20161125075511811/25/16 07:55:31  5-MIN KAVL 251255Z 00000KT 1/4SM FG FU VV001 03/02 A3027 1840 96 800 000/00 RMK AO2 T00280022 RVRNO
03812KAVL AVL20161125080011811/25/16 08:00:31  5-MIN KAVL 251300Z 00000KT 1/4SM FG FU VV001 03/02 A3027 1850 92 900 000/00 RMK AO2 T00330022 RVRNO
03812KAVL AVL20161125080511811/25/16 08:05:31  5-MIN KAVL 251305Z 19003KT 1/4SM FG FU VV001 03/02 A3027 1840 96 800 190/03 RMK AO2 T00280022 RVRNO
03812KAVL AVL20161125081011811/25/16 08:10:31  5-MIN KAVL 251310Z 00000KT 1/4SM FG FU VV001 02/02 A3027 1840 96 800 000/00 RMK AO2 T00220017 RVRNO
03812KAVL AVL20161125081511811/25/16 08:15:31  5-MIN KAVL 251315Z 00000KT 1/4SM FG FU VV001 03/02 A3027 1840 92 800 000/00 RMK AO2 T00280017 RVRNO
03812KAVL AVL20161125082011911/25/16 08:20:31  5-MIN KAVL 251320Z 00000KT M1/4SM FG FU VV001 03/02 A3028 1840 92 800 000/00 RMK AO2 T00280017 RVRNO
03812KAVL AVL20161125082511911/25/16 08:25:31  5-MIN KAVL 251325Z 00000KT M1/4SM FG FU VV001 03/02 A3027 1840 92 800 000/00 RMK AO2 T00280017 RVRNO
03812KAVL AVL20161125083011911/25/16 08:30:31  5-MIN KAVL 251330Z 00000KT M1/4SM FG FU VV001 03/02 A3028 1840 92 900 000/00 RMK AO2 T00330022 RVRNO
03812KAVL AVL20161125083511811/25/16 08:35:31  5-MIN KAVL 251335Z 00000KT 1/4SM FG FU VV001 03/02 A3028 1840 92 900 000/00 RMK AO2 T00330022 RVRNO
03812KAVL AVL20161125084011911/25/16 08:40:31  5-MIN KAVL 251340Z 00000KT 1/4SM FG FU VV001 04/03 A3027 1840 92 1000 000/00 RMK AO2 T00390028 RVRNO
03812KAVL AVL20161125084511911/25/16 08:45:31  5-MIN KAVL 251345Z 00000KT 1/4SM FG FU VV001 04/03 A3027 1840 92 1000 000/00 RMK AO2 T00390028 RVRNO
03812KAVL AVL20161125085012611/25/16 08:50:31  5-MIN KAVL 251350Z 00000KT 1/4SM FG FU VV001 04/03 A3027 1840 96 1000 000/00 RMK AO2 SLP252 T00390033 RVRNO
03812KAVL AVL20161125085511911/25/16 08:55:31  5-MIN KAVL 251355Z 00000KT 1/2SM FG FU VV001 04/04 A3027 1840 96 1100 000/00 RMK AO2 T00440039 RVRNO
03812KAVL AVL20161125090011611/25/16 09:00:31  5-MIN KAVL 251400Z 00000KT 1 1/4SM BR FU BKN001 05/04 A3027 1840 92 1100 000/00 RMK AO2 T00500039
03812KAVL AVL20161125090511211/25/16 09:05:31  5-MIN KAVL 251405Z 00000KT 4SM BR FU BKN001 05/04 A3027 1840 92 1100 000/00 RMK AO2 T00500039
03812KAVL AVL20161125091011711/25/16 09:10:31  5-MIN KAVL 251410Z 30003KT 1SM BR FU VV001 05/04 A3028 1840 92 1100 300/03 RMK AO2 T00500039 RVRNO
03812KAVL AVL20161125091511711/25/16 09:15:31  5-MIN KAVL 251415Z 00000KT 1SM BR FU VV002 06/04 A3027 1840 92 1200 000/00 RMK AO2 T00560044 RVRNO
03812KAVL AVL20161125092011711/25/16 09:20:31  5-MIN KAVL 251420Z 00000KT 1SM BR FU VV002 06/04 A3027 1840 92 1200 000/00 RMK AO2 T00560044 RVRNO
03812KAVL AVL20161125092511711/25/16 09:25:31  5-MIN KAVL 251425Z 00000KT 1SM BR FU VV002 06/04 A3028 1840 89 1300 000/00 RMK AO2 T00610044 RVRNO
03812KAVL AVL20161125093011511/25/16 09:30:31  5-MIN KAVL 251430Z 00000KT 1SM BR FU CLR 06/05 A3028 1840 93 1200 000/00 RMK AO2 T00610050 RVRNO
03812KAVL AVL20161125093511511/25/16 09:35:31  5-MIN KAVL 251435Z 34003KT 1SM BR FU CLR 06/05 A3028 1840 93 1300 350/03 RMK AO2 T00610050 RVRNO
03812KAVL AVL20161125094011511/25/16 09:40:31  5-MIN KAVL 251440Z 00000KT 1SM BR FU CLR 07/05 A3028 1840 89 1300 000/00 RMK AO2 T00670050 RVRNO
03812KAVL AVL20161125094511511/25/16 09:45:31  5-MIN KAVL 251445Z 33004KT 1SM BR FU CLR 07/06 A3027 1840 89 1400 340/04 RMK AO2 T00720056 RVRNO
03812KAVL AVL20161125095012811/25/16 09:50:31  5-MIN KAVL 251450Z 31003KT 1SM BR FU CLR 07/06 A3027 1840 89 1400 320/03 RMK AO2 SLP250 T00720056 53007 RVRNO
03812KAVL AVL20161125095510611/25/16 09:55:31  5-MIN KAVL 251455Z 33004KT 8SM FU CLR 07/06 A3027 1840 89 1400 340/04 RMK AO2 T00720056
03812KAVL AVL20161125100010911/25/16 10:00:31  5-MIN KAVL 251500Z 33003KT 5SM BR FU CLR 08/06 A3027 1840 86 1500 330/03 RMK AO2 T00780056
03812KAVL AVL20161125100510911/25/16 10:05:31  5-MIN KAVL 251505Z VRB03KT 5SM HZ FU CLR 09/06 A3027 1840 83 1600 VRB/03 RMK AO2 T00890061
03812KAVL AVL20161125101010911/25/16 10:10:31  5-MIN KAVL 251510Z 30003KT 5SM HZ FU CLR 09/06 A3027 1840 79 1600 310/03 RMK AO2 T00890056
03812KAVL AVL20161125101510911/25/16 10:15:31  5-MIN KAVL 251515Z 31003KT 5SM HZ FU CLR 09/06 A3027 1840 76 1700 320/03 RMK AO2 T00940056
03812KAVL AVL20161125102010911/25/16 10:20:31  5-MIN KAVL 251520Z 31003KT 5SM HZ FU CLR 10/06 A3027 1840 77 1700 320/03 RMK AO2 T01000061
03812KAVL AVL20161125102510911/25/16 10:25:31  5-MIN KAVL 251525Z 30003KT 5SM HZ FU CLR 11/06 A3027 1840 74 1800 310/03 RMK AO2 T01060061
03812KAVL AVL20161125103010911/25/16 10:30:31  5-MIN KAVL 251530Z 00000KT 5SM HZ FU CLR 11/06 A3027 1850 71 1900 000/00 RMK AO2 T01110061
03812KAVL AVL20161125103510911/25/16 10:35:31  5-MIN KAVL 251535Z 00000KT 5SM HZ FU CLR 11/06 A3026 1850 71 1900 000/00 RMK AO2 T01110061
03812KAVL AVL20161125104010911/25/16 10:40:31  5-MIN KAVL 251540Z 31004KT 5SM HZ FU CLR 11/06 A3026 1850 71 1900 320/04 RMK AO2 T01110061
03812KAVL AVL20161125104510911/25/16 10:45:31  5-MIN KAVL 251545Z 35003KT 5SM HZ FU CLR 12/06 A3026 1860 66 2000 350/03 RMK AO2 T01220061
03812KAVL AVL20161125105011611/25/16 10:50:31  5-MIN KAVL 251550Z 33003KT 5SM HZ FU CLR 12/06 A3025 1860 66 2000 340/03 RMK AO2 SLP239 T01220061
03812KAVL AVL20161125105510711/25/16 10:55:31  5-MIN KAVL 251555Z 00000KT 10SM FU CLR 13/06 A3025 1860 63 2100 000/00 RMK AO2 T01280061
03812KAVL AVL20161125110010711/25/16 11:00:31  5-MIN KAVL 251600Z VRB03KT 10SM FU CLR 13/06 A3025 1870 61 2100 VRB/03 RMK AO2 T01330061
03812KAVL AVL20161125110510711/25/16 11:05:31  5-MIN KAVL 251605Z 00000KT 10SM FU CLR 13/06 A3024 1870 61 2200 000/00 RMK AO2 T01330061
03812KAVL AVL20161125111010711/25/16 11:10:31  5-MIN KAVL 251610Z 00000KT 10SM FU CLR 14/07 A3024 1870 61 2200 000/00 RMK AO2 T01390067
03812KAVL AVL20161125111510711/25/16 11:15:31  5-MIN KAVL 251615Z 28003KT 10SM FU CLR 14/07 A3024 1880 59 2300 290/03 RMK AO2 T01440067
03812KAVL AVL20161125112010711/25/16 11:20:31  5-MIN KAVL 251620Z 00000KT 10SM FU CLR 14/07 A3023 1880 59 2300 000/00 RMK AO2 T01440067
03812KAVL AVL20161125112510711/25/16 11:25:31  5-MIN KAVL 251625Z 00000KT 10SM FU CLR 15/07 A3023 1880 57 2400 000/00 RMK AO2 T01500067
03812KAVL AVL20161125113010711/25/16 11:30:31  5-MIN KAVL 251630Z 00000KT 10SM FU CLR 15/07 A3023 1890 57 2400 000/00 RMK AO2 T01500067
03812KAVL AVL20161125113510711/25/16 11:35:31  5-MIN KAVL 251635Z 00000KT 10SM FU CLR 16/07 A3022 1890 55 2400 000/00 RMK AO2 T01560067
03812KAVL AVL20161125114010711/25/16 11:40:31  5-MIN KAVL 251640Z VRB03KT 10SM FU CLR 16/06 A3022 1890 53 2400 VRB/03 RMK AO2 T01560061
03812KAVL AVL20161125114510711/25/16 11:45:31  5-MIN KAVL 251645Z 00000KT 10SM FU CLR 16/06 A3022 1900 51 2500 000/00 RMK AO2 T01610061
03812KAVL AVL20161125115011411/25/16 11:50:31  5-MIN KAVL 251650Z 20003KT 10SM FU CLR 16/06 A3021 1900 53 2400 200/03 RMK AO2 SLP224 T01560061
03812KAVL AVL20161125115510711/25/16 11:55:31  5-MIN KAVL 251655Z 20003KT 10SM FU CLR 16/06 A3021 1900 51 2500 200/03 RMK AO2 T01610061
03812KAVL AVL20161125120010711/25/16 12:00:31  5-MIN KAVL 251700Z 00000KT 10SM FU CLR 17/06 A3021 1900 49 2600 000/00 RMK AO2 T01670061
03812KAVL AVL20161125120510711/25/16 12:05:31  5-MIN KAVL 251705Z 29003KT 10SM FU CLR 17/06 A3021 1900 47 2600 300/03 RMK AO2 T01720061
03812KAVL AVL20161125121010711/25/16 12:10:31  5-MIN KAVL 251710Z 00000KT 10SM FU CLR 17/06 A3021 1910 47 2600 000/00 RMK AO2 T01720061
03812KAVL AVL20161125121510711/25/16 12:15:31  5-MIN KAVL 251715Z 00000KT 10SM FU CLR 18/06 A3020 1910 46 2700 000/00 RMK AO2 T01780061
03812KAVL AVL20161125122010711/25/16 12:20:31  5-MIN KAVL 251720Z 14004KT 10SM FU CLR 18/06 A3020 1910 46 2700 140/04 RMK AO2 T01780061
03812KAVL AVL20161125122510711/25/16 12:25:31  5-MIN KAVL 251725Z 00000KT 10SM FU CLR 17/06 A3020 1910 46 2700 000/00 RMK AO2 T01720056
03812KAVL AVL20161125123010711/25/16 12:30:31  5-MIN KAVL 251730Z 00000KT 10SM FU CLR 17/06 A3020 1910 46 2700 000/00 RMK AO2 T01720056
03812KAVL AVL20161125123510711/25/16 12:35:31  5-MIN KAVL 251735Z 00000KT 10SM FU CLR 18/06 A3019 1920 44 2700 000/00 RMK AO2 T01780056
03812KAVL AVL20161125124010711/25/16 12:40:31  5-MIN KAVL 251740Z 02004KT 10SM FU CLR 18/06 A3019 1920 42 2800 030/04 RMK AO2 T01830056
03812KAVL AVL20161125124510711/25/16 12:45:31  5-MIN KAVL 251745Z 02003KT 10SM FU CLR 18/05 A3019 1920 41 2800 030/03 RMK AO2 T01830050
03812KAVL AVL20161125125013211/25/16 12:50:31  5-MIN KAVL 251750Z 00000KT 10SM FU CLR 18/05 A3018 1930 42 2700 000/00 RMK AO2 SLP212 T01780050 10183 20017 51004
03812KAVL AVL20161125125510711/25/16 12:55:31  5-MIN KAVL 251755Z 00000KT 10SM FU CLR 19/05 A3018 1930 39 2900 000/00 RMK AO2 T01890050
03812KAVL AVL20161125130010711/25/16 13:00:31  5-MIN KAVL 251800Z 28003KT 10SM FU CLR 19/05 A3018 1930 38 2900 290/03 RMK AO2 T01940050
03812KAVL AVL20161125130510711/25/16 13:05:31  5-MIN KAVL 251805Z 31004KT 10SM FU CLR 18/05 A3018 1930 41 2800 310/04 RMK AO2 T01830050
03812KAVL AVL20161125131010711/25/16 13:10:31  5-MIN KAVL 251810Z 00000KT 10SM FU CLR 18/04 A3017 1940 39 2800 000/00 RMK AO2 T01830044
03812KAVL AVL20161125131510711/25/16 13:15:31  5-MIN KAVL 251815Z 29003KT 10SM FU CLR 19/04 A3017 1940 38 2900 300/03 RMK AO2 T01890044
03812KAVL AVL20161125132010711/25/16 13:20:31  5-MIN KAVL 251820Z 00000KT 10SM FU CLR 19/04 A3017 1940 38 2900 000/00 RMK AO2 T01890044
03812KAVL AVL20161125132510711/25/16 13:25:31  5-MIN KAVL 251825Z 00000KT 10SM FU CLR 19/04 A3016 1940 38 2900 000/00 RMK AO2 T01890044
03812KAVL AVL20161125133010711/25/16 13:30:31  5-MIN KAVL 251830Z 00000KT 10SM FU CLR 19/04 A3016 1950 38 2900 000/00 RMK AO2 T01890044
03812KAVL AVL20161125133510711/25/16 13:35:31  5-MIN KAVL 251835Z 00000KT 10SM FU CLR 19/04 A3016 1950 37 3000 000/00 RMK AO2 T01940044
03812KAVL AVL20161125134010711/25/16 13:40:31  5-MIN KAVL 251840Z 00000KT 10SM FU CLR 20/04 A3016 1950 35 3000 000/00 RMK AO2 T02000044
03812KAVL AVL20161125134510711/25/16 13:45:31  5-MIN KAVL 251845Z 00000KT 10SM FU CLR 20/04 A3015 1950 35 3000 000/00 RMK AO2 T02000044
03812KAVL AVL20161125135011411/25/16 13:50:31  5-MIN KAVL 251850Z 24005KT 10SM FU CLR 19/04 A3015 1950 37 3000 250/05 RMK AO2 SLP200 T01940044
03812KAVL AVL20161125135510711/25/16 13:55:31  5-MIN KAVL 251855Z 26003KT 10SM FU CLR 19/04 A3015 1960 38 2900 270/03 RMK AO2 T01890044
03812KAVL AVL20161125140011011/25/16 14:00:31  5-MIN KAVL 251900Z VRB03KT 10SM FU FEW060 19/04 A3015 1960 38 2900 VRB/03 RMK AO2 T01890044
03812KAVL AVL20161125140511011/25/16 14:05:31  5-MIN KAVL 251905Z 00000KT 10SM FU FEW060 19/04 A3015 1960 38 2900 000/00 RMK AO2 T01890044
03812KAVL AVL20161125141011011/25/16 14:10:31  5-MIN KAVL 251910Z 16004KT 10SM FU FEW060 19/04 A3015 1960 37 3000 160/04 RMK AO2 T01940044
03812KAVL AVL20161125141511011/25/16 14:15:31  5-MIN KAVL 251915Z 15004KT 10SM FU FEW060 19/04 A3015 1960 37 3000 150/04 RMK AO2 T01940044
03812KAVL AVL20161125142011011/25/16 14:20:31  5-MIN KAVL 251920Z 00000KT 10SM FU FEW060 19/04 A3014 1960 37 3000 000/00 RMK AO2 T01940044
03812KAVL AVL20161125142511011/25/16 14:25:31  5-MIN KAVL 251925Z VRB05KT 10SM FU FEW060 19/04 A3014 1960 37 3000 VRB/05 RMK AO2 T01940044
03812KAVL AVL20161125143010711/25/16 14:30:31  5-MIN KAVL 251930Z 35008KT 10SM FU CLR 20/04 A3014 1960 35 3000 350/08 RMK AO2 T02000044
03812KAVL AVL20161125143510711/25/16 14:35:31  5-MIN KAVL 251935Z 33004KT 10SM FU CLR 20/04 A3014 1960 35 3000 340/04 RMK AO2 T02000044
03812KAVL AVL20161125144010711/25/16 14:40:31  5-MIN KAVL 251940Z 34007KT 10SM FU CLR 20/04 A3014 1960 35 3000 350/07 RMK AO2 T02000044
03812KAVL AVL20161125144510711/25/16 14:45:31  5-MIN KAVL 251945Z 36006KT 10SM FU CLR 20/04 A3014 1960 34 3000 010/06 RMK AO2 T02000039
03812KAVL AVL20161125145011411/25/16 14:50:31  5-MIN KAVL 251950Z 35004KT 10SM FU CLR 20/04 A3014 1960 34 3000 350/04 RMK AO2 SLP197 T02000039
03812KAVL AVL20161125145510711/25/16 14:55:31  5-MIN KAVL 251955Z 35006KT 10SM FU CLR 20/04 A3014 1960 34 3000 350/06 RMK AO2 T02000039
03812KAVL AVL20161125150010711/25/16 15:00:31  5-MIN KAVL 252000Z 34008KT 10SM FU CLR 20/04 A3014 1970 34 3000 350/08 RMK AO2 T02000039
03812KAVL AVL20161125150510711/25/16 15:05:31  5-MIN KAVL 252005Z 34006KT 10SM FU CLR 20/04 A3014 1970 34 3000 340/06 RMK AO2 T02000039
03812KAVL AVL20161125151010711/25/16 15:10:31  5-MIN KAVL 252010Z 34006KT 10SM FU CLR 19/04 A3014 1970 35 3000 350/06 RMK AO2 T01940039
03812KAVL AVL20161125151510711/25/16 15:15:31  5-MIN KAVL 252015Z 35005KT 10SM FU CLR 19/04 A3014 1970 35 3000 360/05 RMK AO2 T01940039
03812KAVL AVL20161125152010711/25/16 15:20:31  5-MIN KAVL 252020Z 33009KT 10SM FU CLR 20/04 A3014 1970 34 3000 340/09 RMK AO2 T02000039
03812KAVL AVL20161125152510711/25/16 15:25:31  5-MIN KAVL 252025Z 34007KT 10SM FU CLR 20/04 A3014 1970 34 3000 340/07 RMK AO2 T02000039
03812KAVL AVL20161125153010711/25/16 15:30:31  5-MIN KAVL 252030Z 35007KT 10SM FU CLR 19/03 A3014 1970 34 3000 350/07 RMK AO2 T01940033
03812KAVL AVL20161125153510711/25/16 15:35:31  5-MIN KAVL 252035Z 35006KT 10SM FU CLR 19/03 A3014 1970 34 3000 360/06 RMK AO2 T01940033
03812KAVL AVL20161125154010711/25/16 15:40:31  5-MIN KAVL 252040Z 35009KT 10SM FU CLR 19/04 A3014 1970 35 3000 360/09 RMK AO2 T01940039
03812KAVL AVL20161125154510711/25/16 15:45:31  5-MIN KAVL 252045Z 35009KT 10SM FU CLR 19/04 A3014 1970 35 3000 360/09 RMK AO2 T01940039
03812KAVL AVL20161125155012011/25/16 15:50:31  5-MIN KAVL 252050Z 35010KT 10SM FU CLR 19/05 A3014 1960 39 2900 350/10 RMK AO2 SLP199 T01890050 58029
03812KAVL AVL20161125155510711/25/16 15:55:31  5-MIN KAVL 252055Z 34014KT 10SM FU CLR 18/06 A3014 1960 42 2800 350/14 RMK AO2 T01830056
03812KAVL AVL20161125160011211/25/16 16:00:31  5-MIN KAVL 252100Z AUTO 34015KT 10SM FU CLR 17/07 A3014 1960 49 2700 340/15 RMK AO2 T01720067
03812KAVL AVL20161125160510411/25/16 16:05:31  5-MIN KAVL 252105Z 33014KT 10SM CLR 17/07 A3014 1960 49 2700 340/14 RMK AO2 T01720067
03812KAVL AVL20161125161010411/25/16 16:10:31  5-MIN KAVL 252110Z 34014KT 10SM CLR 17/07 A3015 1960 51 2600 340/14 RMK AO2 T01670067
03812KAVL AVL20161125161510411/25/16 16:15:31  5-MIN KAVL 252115Z 34015KT 10SM CLR 16/07 A3015 1960 55 2600 340/15 RMK AO2 T01610072
03812KAVL AVL20161125162010411/25/16 16:20:31  5-MIN KAVL 252120Z 34015KT 10SM CLR 16/07 A3015 1960 57 2500 340/15 RMK AO2 T01560072
03812KAVL AVL20161125162510411/25/16 16:25:31  5-MIN KAVL 252125Z 35016KT 10SM CLR 16/07 A3015 1960 57 2500 360/16 RMK AO2 T01560072
03812KAVL AVL20161125163011011/25/16 16:30:31  5-MIN KAVL 252130Z 35015G24KT 10SM CLR 15/07 A3015 1960 57 2500 350/15G24 RMK AO2 T01500067
03812KAVL AVL20161125163511011/25/16 16:35:31  5-MIN KAVL 252135Z 34017G24KT 10SM CLR 14/07 A3015 1950 59 2400 350/17G24 RMK AO2 T01440067
03812KAVL AVL20161125164011011/25/16 16:40:31  5-MIN KAVL 252140Z 34017G23KT 10SM CLR 14/07 A3015 1950 59 2400 340/17G23 RMK AO2 T01440067
03812KAVL AVL20161125164510411/25/16 16:45:31  5-MIN KAVL 252145Z 34016KT 10SM CLR 14/07 A3015 1950 59 2400 350/16 RMK AO2 T01440067
03812KAVL AVL20161125165011111/25/16 16:50:31  5-MIN KAVL 252150Z 34017KT 10SM CLR 14/06 A3016 1950 59 2300 350/17 RMK AO2 SLP208 T01390061
03812KAVL AVL20161125165511011/25/16 16:55:31  5-MIN KAVL 252155Z 34015G23KT 10SM CLR 14/06 A3016 1950 59 2300 340/15G23 RMK AO2 T01390061
03812KAVL AVL20161125170010711/25/16 17:00:31  5-MIN KAVL 252200Z 34016KT 10SM FEW070 13/06 A3016 1950 61 2200 340/16 RMK AO2 T01330061
03812KAVL AVL20161125170510711/25/16 17:05:31  5-MIN KAVL 252205Z 34018KT 10SM FEW070 13/06 A3016 1950 61 2200 350/18 RMK AO2 T01330061
03812KAVL AVL20161125171010411/25/16 17:10:31  5-MIN KAVL 252210Z 34016KT 10SM CLR 13/06 A3016 1950 61 2200 350/16 RMK AO2 T01330061
03812KAVL AVL20161125171510411/25/16 17:15:31  5-MIN KAVL 252215Z 34018KT 10SM CLR 13/06 A3016 1950 63 2200 350/18 RMK AO2 T01280061
03812KAVL AVL20161125172010411/25/16 17:20:31  5-MIN KAVL 252220Z 34019KT 10SM CLR 13/06 A3016 1940 63 2200 340/19 RMK AO2 T01280061
03812KAVL AVL20161125172510411/25/16 17:25:31  5-MIN KAVL 252225Z 34019KT 10SM CLR 13/06 A3016 1940 63 2200 340/19 RMK AO2 T01280061
03812KAVL AVL20161125173010411/25/16 17:30:31  5-MIN KAVL 252230Z 34017KT 10SM CLR 13/06 A3017 1940 63 2200 340/17 RMK AO2 T01280061
03812KAVL AVL20161125173510411/25/16 17:35:31  5-MIN KAVL 252235Z 34017KT 10SM CLR 12/06 A3017 1940 66 2100 340/17 RMK AO2 T01220061
03812KAVL AVL20161125174011011/25/16 17:40:31  5-MIN KAVL 252240Z 34014G22KT 10SM CLR 12/06 A3017 1940 66 2100 350/14G22 RMK AO2 T01220061
03812KAVL AVL20161125174511011/25/16 17:45:31  5-MIN KAVL 252245Z 34014G21KT 10SM CLR 12/06 A3017 1940 63 2100 350/14G21 RMK AO2 T01220056
03812KAVL AVL20161125175011111/25/16 17:50:31  5-MIN KAVL 252250Z 34012KT 10SM CLR 12/06 A3017 1940 63 2100 350/12 RMK AO2 SLP214 T01220056
03812KAVL AVL20161125175510411/25/16 17:55:31  5-MIN KAVL 252255Z 34011KT 10SM CLR 12/06 A3017 1940 66 2000 340/11 RMK AO2 T01170056
03812KAVL AVL20161125180011011/25/16 18:00:31  5-MIN KAVL 252300Z 34015G19KT 10SM CLR 12/06 A3017 1940 66 2000 350/15G19 RMK AO2 T01170056
03812KAVL AVL20161125180511011/25/16 18:05:31  5-MIN KAVL 252305Z 35012G19KT 10SM CLR 12/06 A3017 1940 66 2000 350/12G19 RMK AO2 T01170056
03812KAVL AVL20161125181011011/25/16 18:10:31  5-MIN KAVL 252310Z 34011G18KT 10SM CLR 12/06 A3017 1940 66 2000 350/11G18 RMK AO2 T01170056
03812KAVL AVL20161125181510411/25/16 18:15:31  5-MIN KAVL 252315Z 34012KT 10SM CLR 12/06 A3017 1930 66 2000 350/12 RMK AO2 T01170056
03812KAVL AVL20161125182010411/25/16 18:20:31  5-MIN KAVL 252320Z 34012KT 10SM CLR 12/06 A3017 1940 66 2000 350/12 RMK AO2 T01170056
03812KAVL AVL20161125182510411/25/16 18:25:31  5-MIN KAVL 252325Z 35011KT 10SM CLR 12/06 A3017 1930 66 2000 360/11 RMK AO2 T01170056
03812KAVL AVL20161125183010411/25/16 18:30:31  5-MIN KAVL 252330Z 35012KT 10SM CLR 12/06 A3017 1930 66 2000 350/12 RMK AO2 T01170056
03812KAVL AVL20161125183510411/25/16 18:35:31  5-MIN KAVL 252335Z 35011KT 10SM CLR 12/06 A3018 1930 66 2000 350/11 RMK AO2 T01170056
03812KAVL AVL20161125184010411/25/16 18:40:31  5-MIN KAVL 252340Z 34013KT 10SM CLR 12/06 A3018 1930 66 2000 350/13 RMK AO2 T01170056
03812KAVL AVL20161125184510411/25/16 18:45:31  5-MIN KAVL 252345Z 35011KT 10SM CLR 11/06 A3018 1930 68 2000 350/11 RMK AO2 T01110056
03812KAVL AVL20161125185012911/25/16 18:50:31  5-MIN KAVL 252350Z 35010KT 10SM CLR 11/06 A3018 1930 68 2000 350/10 RMK AO2 SLP219 T01110056 10200 20111 56013
03812KAVL AVL20161125185510411/25/16 18:55:31  5-MIN KAVL 252355Z 35008KT 10SM CLR 11/06 A3018 1930 68 2000 350/08 RMK AO2 T01110056
03812KAVL AVL20161125190010411/25/16 19:00:31  5-MIN KAVL 260000Z 35009KT 10SM CLR 11/06 A3018 1930 68 2000 350/09 RMK AO2 T01110056
03812KAVL AVL20161125190510411/25/16 19:05:31  5-MIN KAVL 260005Z 35007KT 10SM CLR 11/06 A3018 1930 68 2000 350/07 RMK AO2 T01110056
03812KAVL AVL20161125191010411/25/16 19:10:31  5-MIN KAVL 260010Z 35010KT 10SM CLR 11/06 A3018 1930 68 2000 350/10 RMK AO2 T01110056
03812KAVL AVL20161125191510411/25/16 19:15:31  5-MIN KAVL 260015Z 35009KT 10SM CLR 11/06 A3018 1930 68 2000 350/09 RMK AO2 T01110056
03812KAVL AVL20161125192010411/25/16 19:20:31  5-MIN KAVL 260020Z 35009KT 10SM CLR 11/06 A3018 1920 68 2000 360/09 RMK AO2 T01110056
03812KAVL AVL20161125192510411/25/16 19:25:31  5-MIN KAVL 260025Z 35008KT 10SM CLR 11/06 A3019 1920 71 1900 350/08 RMK AO2 T01060056
03812KAVL AVL20161125193010411/25/16 19:30:31  5-MIN KAVL 260030Z 34010KT 10SM CLR 11/06 A3019 1920 71 1900 350/10 RMK AO2 T01060056
03812KAVL AVL20161125193511011/25/16 19:35:31  5-MIN KAVL 260035Z 35011G16KT 10SM CLR 11/06 A3019 1920 71 1900 350/11G16 RMK AO2 T01060056
03812KAVL AVL20161125194011011/25/16 19:40:31  5-MIN KAVL 260040Z 35008G16KT 10SM CLR 11/06 A3019 1920 71 1900 350/08G16 RMK AO2 T01060056
03812KAVL AVL20161125194510411/25/16 19:45:31  5-MIN KAVL 260045Z 35008KT 10SM CLR 11/06 A3019 1920 71 1900 350/08 RMK AO2 T01060056
03812KAVL AVL20161125195011111/25/16 19:50:31  5-MIN KAVL 260050Z 35008KT 10SM CLR 11/06 A3019 1920 71 1900 350/08 RMK AO2 SLP222 T01060056
03812KAVL AVL20161125195510411/25/16 19:55:31  5-MIN KAVL 260055Z 35012KT 10SM CLR 11/06 A3019 1920 71 1900 350/12 RMK AO2 T01060056
03812KAVL AVL20161125200010411/25/16 20:00:31  5-MIN KAVL 260100Z 35009KT 10SM CLR 10/06 A3019 1920 74 1800 350/09 RMK AO2 T01000056
03812KAVL AVL20161125200510411/25/16 20:05:31  5-MIN KAVL 260105Z 34009KT 10SM CLR 10/06 A3019 1920 74 1800 350/09 RMK AO2 T01000056
03812KAVL AVL20161125201010411/25/16 20:10:31  5-MIN KAVL 260110Z 35010KT 10SM CLR 10/05 A3019 1920 71 1800 350/10 RMK AO2 T01000050
03812KAVL AVL20161125201511011/25/16 20:15:31  5-MIN KAVL 260115Z 35010G16KT 10SM CLR 10/06 A3019 1920 74 1800 350/10G16 RMK AO2 T01000056
03812KAVL AVL20161125202011011/25/16 20:20:31  5-MIN KAVL 260120Z 35008G16KT 10SM CLR 10/06 A3019 1920 74 1800 360/08G16 RMK AO2 T01000056
03812KAVL AVL20161125202510411/25/16 20:25:31  5-MIN KAVL 260125Z 35009KT 10SM CLR 10/06 A3019 1920 74 1800 360/09 RMK AO2 T01000056
03812KAVL AVL20161125203010411/25/16 20:30:31  5-MIN KAVL 260130Z 35009KT 10SM CLR 10/06 A3019 1920 74 1800 360/09 RMK AO2 T01000056
03812KAVL AVL20161125203510411/25/16 20:35:31  5-MIN KAVL 260135Z 35011KT 10SM CLR 10/05 A3019 1910 71 1800 350/11 RMK AO2 T01000050
03812KAVL AVL20161125204010411/25/16 20:40:31  5-MIN KAVL 260140Z 35010KT 10SM CLR 10/05 A3020 1910 71 1800 350/10 RMK AO2 T01000050
03812KAVL AVL20161125204510411/25/16 20:45:31  5-MIN KAVL 260145Z 34011KT 10SM CLR 09/05 A3020 1910 74 1700 350/11 RMK AO2 T00940050
03812KAVL AVL20161125205011111/25/16 20:50:31  5-MIN KAVL 260150Z 35010KT 10SM CLR 09/05 A3020 1910 74 1700 350/10 RMK AO2 SLP226 T00940050
03812KAVL AVL20161125205510411/25/16 20:55:31  5-MIN KAVL 260155Z 35012KT 10SM CLR 09/05 A3020 1910 74 1700 360/12 RMK AO2 T00940050
03812KAVL AVL20161125210010411/25/16 21:00:31  5-MIN KAVL 260200Z 34013KT 10SM CLR 09/05 A3020 1910 74 1700 350/13 RMK AO2 T00940050
03812KAVL AVL20161125210510411/25/16 21:05:31  5-MIN KAVL 260205Z 35010KT 10SM CLR 09/05 A3020 1910 74 1700 350/10 RMK AO2 T00940050
03812KAVL AVL20161125211010411/25/16 21:10:31  5-MIN KAVL 260210Z 34012KT 10SM CLR 09/05 A3020 1910 74 1700 350/12 RMK AO2 T00940050
03812KAVL AVL20161125211510411/25/16 21:15:31  5-MIN KAVL 260215Z 34009KT 10SM CLR 09/05 A3020 1910 74 1700 350/09 RMK AO2 T00940050
03812KAVL AVL20161125212010411/25/16 21:20:31  5-MIN KAVL 260220Z 34013KT 10SM CLR 09/05 A3020 1910 74 1700 350/13 RMK AO2 T00940050
03812KAVL AVL20161125212510411/25/16 21:25:31  5-MIN KAVL 260225Z 34013KT 10SM CLR 09/05 A3020 1910 74 1700 350/13 RMK AO2 T00940050
03812KAVL AVL20161125213010411/25/16 21:30:31  5-MIN KAVL 260230Z 34014KT 10SM CLR 09/05 A3020 1910 74 1700 340/14 RMK AO2 T00940050
03812KAVL AVL20161125213510411/25/16 21:35:31  5-MIN KAVL 260235Z 34013KT 10SM CLR 09/05 A3020 1910 74 1700 340/13 RMK AO2 T00940050
03812KAVL AVL20161125214010411/25/16 21:40:31  5-MIN KAVL 260240Z 34013KT 10SM CLR 09/05 A3020 1910 74 1700 340/13 RMK AO2 T00940050
03812KAVL AVL20161125214510411/25/16 21:45:31  5-MIN KAVL 260245Z 34012KT 10SM CLR 09/05 A3020 1910 74 1700 340/12 RMK AO2 T00940050
03812KAVL AVL20161125215011711/25/16 21:50:31  5-MIN KAVL 260250Z 34014KT 10SM CLR 09/05 A3020 1910 74 1700 350/14 RMK AO2 SLP223 T00940050 51012
03812KAVL AVL20161125215510411/25/16 21:55:31  5-MIN KAVL 260255Z 34015KT 10SM CLR 09/05 A3020 1910 74 1700 340/15 RMK AO2 T00940050
03812KAVL AVL20161125220011011/25/16 22:00:31  5-MIN KAVL 260300Z 34018G23KT 10SM CLR 09/05 A3020 1910 74 1700 350/18G23 RMK AO2 T00940050
03812KAVL AVL20161125220510411/25/16 22:05:31  5-MIN KAVL 260305Z 34019KT 10SM CLR 09/05 A3019 1920 74 1700 350/19 RMK AO2 T00940050
03812KAVL AVL20161125221011011/25/16 22:10:31  5-MIN KAVL 260310Z 34017G24KT 10SM CLR 09/05 A3019 1920 74 1700 350/17G24 RMK AO2 T00940050
03812KAVL AVL20161125221511011/25/16 22:15:31  5-MIN KAVL 260315Z 34018G24KT 10SM CLR 09/05 A3019 1920 74 1700 350/18G24 RMK AO2 T00940050
03812KAVL AVL20161125222011011/25/16 22:20:31  5-MIN KAVL 260320Z 34019G24KT 10SM CLR 09/05 A3020 1910 74 1700 350/19G24 RMK AO2 T00940050
03812KAVL AVL20161125222511011/25/16 22:25:31  5-MIN KAVL 260325Z 34014G24KT 10SM CLR 09/05 A3020 1910 74 1700 350/14G24 RMK AO2 T00940050
03812KAVL AVL20161125223010411/25/16 22:30:31  5-MIN KAVL 260330Z 34011KT 10SM CLR 09/05 A3021 1900 76 1700 340/11 RMK AO2 T00890050
03812KAVL AVL20161125223510411/25/16 22:35:31  5-MIN KAVL 260335Z 34013KT 10SM CLR 09/05 A3020 1910 74 1700 340/13 RMK AO2 T00940050
03812KAVL AVL20161125224010411/25/16 22:40:31  5-MIN KAVL 260340Z 34013KT 10SM CLR 09/05 A3020 1910 76 1700 340/13 RMK AO2 T00890050
03812KAVL AVL20161125224510411/25/16 22:45:31  5-MIN KAVL 260345Z 33013KT 10SM CLR 09/05 A3021 1900 76 1700 340/13 RMK AO2 T00890050
03812KAVL AVL20161125225011111/25/16 22:50:31  5-MIN KAVL 260350Z 34013KT 10SM CLR 09/05 A3021 1900 76 1700 340/13 RMK AO2 SLP222 T00890050
03812KAVL AVL20161125225510411/25/16 22:55:31  5-MIN KAVL 260355Z 34014KT 10SM CLR 09/05 A3020 1910 76 1700 340/14 RMK AO2 T00890050
03812KAVL AVL20161125230011011/25/16 23:00:31  5-MIN KAVL 260400Z 34015G20KT 10SM CLR 09/05 A3020 1910 76 1700 340/15G20 RMK AO2 T00890050
03812KAVL AVL20161125230510411/25/16 23:05:31  5-MIN KAVL 260405Z 34014KT 10SM CLR 09/06 A3020 1910 79 1700 340/14 RMK AO2 T00890056
03812KAVL AVL20161125231010411/25/16 23:10:31  5-MIN KAVL 260410Z 34016KT 10SM CLR 09/06 A3020 1910 79 1700 340/16 RMK AO2 T00890056
03812KAVL AVL20161125231510411/25/16 23:15:31  5-MIN KAVL 260415Z 34016KT 10SM CLR 09/06 A3021 1910 79 1700 340/16 RMK AO2 T00890056
03812KAVL AVL20161125232010411/25/16 23:20:31  5-MIN KAVL 260420Z 33014KT 10SM CLR 09/05 A3021 1900 76 1700 340/14 RMK AO2 T00890050
03812KAVL AVL20161125232510411/25/16 23:25:31  5-MIN KAVL 260425Z 34016KT 10SM CLR 09/05 A3020 1910 76 1700 340/16 RMK AO2 T00890050
03812KAVL AVL20161125233010411/25/16 23:30:31  5-MIN KAVL 260430Z 34018KT 10SM CLR 09/05 A3020 1910 76 1700 340/18 RMK AO2 T00890050
03812KAVL AVL20161125233510411/25/16 23:35:31  5-MIN KAVL 260435Z 34017KT 10SM CLR 09/05 A3020 1910 76 1700 350/17 RMK AO2 T00890050
03812KAVL AVL20161125234011011/25/16 23:40:31  5-MIN KAVL 260440Z 34020G24KT 10SM CLR 09/04 A3020 1910 73 1700 350/20G24 RMK AO2 T00890044
03812KAVL AVL20161125234512811/25/16 23:45:31  5-MIN KAVL 260445Z 34019G26KT 10SM CLR 09/04 A3020 1910 73 1700 350/19G26 RMK AO2 PK WND 33026/0443 T00890044
03812KAVL AVL20161125235014511/25/16 23:50:31  5-MIN KAVL 260450Z 34022G26KT 10SM CLR 09/04 A3020 1910 71 1700 350/22G26 RMK AO2 PK WND 33026/0443 SLP216 T00890039 402000017
03812KAVL AVL20161125235511011/25/16 23:55:31  5-MIN KAVL 260455Z 34021G24KT 10SM CLR 09/04 A3020 1910 71 1700 350/21G24 RMK AO2 T00890039
03812KAVL AVL20161126000010411/26/16 00:00:31  5-MIN KAVL 260500Z 34020KT 10SM CLR 08/04 A3021 1910 73 1600 350/20 RMK AO2 T00830039
03812KAVL AVL20161126000511011/26/16 00:05:31  5-MIN KAVL 260505Z 34019G26KT 10SM CLR 08/04 A3021 1900 76 1500 350/19G26 RMK AO2 T00780039
03812KAVL AVL20161126001010411/26/16 00:10:31  5-MIN KAVL 260510Z 34017KT 10SM CLR 07/03 A3021 1900 79 1400 340/17 RMK AO2 T00670033
03812KAVL AVL20161126001510411/26/16 00:15:31  5-MIN KAVL 260515Z 35015KT 10SM CLR 07/03 A3021 1900 79 1400 350/15 RMK AO2 T00670033
03812KAVL AVL20161126002010411/26/16 00:20:31  5-MIN KAVL 260520Z 34015KT 10SM CLR 08/03 A3021 1900 70 1600 350/15 RMK AO2 T00830033
03812KAVL AVL20161126002511011/26/16 00:25:31  5-MIN KAVL 260525Z 35015G21KT 10SM CLR 08/03 A3021 1900 70 1600 350/15G21 RMK AO2 T00830033
03812KAVL AVL20161126003011011/26/16 00:30:31  5-MIN KAVL 260530Z 35013G19KT 10SM CLR 08/03 A3021 1900 70 1600 360/13G19 RMK AO2 T00830033
03812KAVL AVL20161126003510411/26/16 00:35:31  5-MIN KAVL 260535Z 34013KT 10SM CLR 08/03 A3020 1910 68 1600 350/13 RMK AO2 T00830028
03812KAVL AVL20161126004010411/26/16 00:40:31  5-MIN KAVL 260540Z 35014KT 10SM CLR 08/03 A3020 1910 68 1600 350/14 RMK AO2 T00830028
03812KAVL AVL20161126004511011/26/16 00:45:31  5-MIN KAVL 260545Z 35013G21KT 10SM CLR 08/03 A3020 1910 68 1600 350/13G21 RMK AO2 T00830028
03812KAVL AVL20161126005013511/26/16 00:50:31  5-MIN KAVL 260550Z 35012G21KT 10SM CLR 08/03 A3021 1900 70 1500 360/12G21 RMK AO2 SLP218 T00780028 10111 20067 51007
03812KAVL AVL20161126005511011/26/16 00:55:31  5-MIN KAVL 260555Z 35013G22KT 10SM CLR 08/03 A3020 1910 70 1500 360/13G22 RMK AO2 T00780028
03812KAVL AVL20161126010011011/26/16 01:00:31  5-MIN KAVL 260600Z 35013G22KT 10SM CLR 08/02 A3020 1910 68 1500 350/13G22 RMK AO2 T00780022
03812KAVL AVL20161126010511511/26/16 01:05:31  5-MIN KAVL 260605Z AUTO 36012G18KT 10SM CLR 08/02 A3020 1910 68 1500 010/12G18 RMK AO2 T00780022
03812KAVL AVL20161126011011511/26/16 01:10:31  5-MIN KAVL 260610Z AUTO 35013G19KT 10SM CLR 07/02 A3020 1910 70 1500 360/13G19 RMK AO2 T00720022
03812KAVL AVL20161126011511511/26/16 01:15:31  5-MIN KAVL 260615Z AUTO 36011G19KT 10SM CLR 07/02 A3020 1910 70 1500 360/11G19 RMK AO2 T00720022
03812KAVL AVL20161126012011511/26/16 01:20:31  5-MIN KAVL 260620Z AUTO 36010G18KT 10SM CLR 07/02 A3020 1910 70 1500 360/10G18 RMK AO2 T00720022
03812KAVL AVL20161126012511511/26/16 01:25:31  5-MIN KAVL 260625Z AUTO 35015G21KT 10SM CLR 07/02 A3020 1910 70 1500 360/15G21 RMK AO2 T00720022
03812KAVL AVL20161126013011511/26/16 01:30:31  5-MIN KAVL 260630Z AUTO 35014G21KT 10SM CLR 07/02 A3020 1910 70 1500 350/14G21 RMK AO2 T00720022
03812KAVL AVL20161126013511511/26/16 01:35:31  5-MIN KAVL 260635Z AUTO 35015G21KT 10SM CLR 07/02 A3020 1910 70 1500 350/15G21 RMK AO2 T00720022
03812KAVL AVL20161126014011511/26/16 01:40:31  5-MIN KAVL 260640Z AUTO 35015G21KT 10SM CLR 07/02 A3020 1910 70 1500 360/15G21 RMK AO2 T00720022
03812KAVL AVL20161126014511511/26/16 01:45:31  5-MIN KAVL 260645Z AUTO 35014G21KT 10SM CLR 07/02 A3020 1910 70 1500 360/14G21 RMK AO2 T00720022
03812KAVL AVL20161126015012211/26/16 01:50:31  5-MIN KAVL 260650Z AUTO 35013G21KT 10SM CLR 07/02 A3021 1900 73 1400 350/13G21 RMK AO2 SLP217 T00670022
03812KAVL AVL20161126015511511/26/16 01:55:31  5-MIN KAVL 260655Z AUTO 35014G19KT 10SM CLR 07/02 A3020 1910 73 1400 360/14G19 RMK AO2 T00670022
03812KAVL AVL20161126020011511/26/16 02:00:31  5-MIN KAVL 260700Z AUTO 35013G19KT 10SM CLR 07/02 A3021 1900 73 1400 350/13G19 RMK AO2 T00670022
03812KAVL AVL20161126020511511/26/16 02:05:31  5-MIN KAVL 260705Z AUTO 35014G20KT 10SM CLR 07/02 A3021 1900 70 1400 360/14G20 RMK AO2 T00670017
03812KAVL AVL20161126021011511/26/16 02:10:31  5-MIN KAVL 260710Z AUTO 36015G22KT 10SM CLR 07/02 A3021 1900 70 1400 360/15G22 RMK AO2 T00670017
03812KAVL AVL20161126021511511/26/16 02:15:31  5-MIN KAVL 260715Z AUTO 35014G22KT 10SM CLR 07/02 A3022 1900 70 1400 360/14G22 RMK AO2 T00670017
03812KAVL AVL20161126022011511/26/16 02:20:31  5-MIN KAVL 260720Z AUTO 35011G21KT 10SM CLR 06/02 A3022 1890 73 1300 350/11G21 RMK AO2 T00610017
03812KAVL AVL20161126022510911/26/16 02:25:31  5-MIN KAVL 260725Z AUTO 36010KT 10SM CLR 06/02 A3022 1890 73 1300 360/10 RMK AO2 T00610017
03812KAVL AVL20161126023010911/26/16 02:30:31  5-MIN KAVL 260730Z AUTO 36008KT 10SM CLR 06/02 A3022 1890 73 1300 010/08 RMK AO2 T00610017
03812KAVL AVL20161126023510911/26/16 02:35:31  5-MIN KAVL 260735Z AUTO 35009KT 10SM CLR 06/02 A3022 1890 73 1300 360/09 RMK AO2 T00610017
03812KAVL AVL20161126024011511/26/16 02:40:31  5-MIN KAVL 260740Z AUTO 36011G16KT 10SM CLR 06/02 A3022 1900 73 1300 010/11G16 RMK AO2 T00610017
03812KAVL AVL20161126024510911/26/16 02:45:31  5-MIN KAVL 260745Z AUTO 36009KT 10SM CLR 06/02 A3022 1890 73 1300 010/09 RMK AO2 T00610017
03812KAVL AVL20161126025011611/26/16 02:50:31  5-MIN KAVL 260750Z AUTO 36011KT 10SM CLR 06/02 A3022 1890 73 1300 010/11 RMK AO2 SLP221 T00610017
03812KAVL AVL20161126025511511/26/16 02:55:31  5-MIN KAVL 260755Z AUTO 36007G16KT 10SM CLR 06/02 A3022 1890 73 1300 010/07G16 RMK AO2 T00610017
03812KAVL AVL20161126030011511/26/16 03:00:31  5-MIN KAVL 260800Z AUTO 36012G17KT 10SM CLR 06/02 A3022 1890 73 1300 010/12G17 RMK AO2 T00610017
03812KAVL AVL20161126030511511/26/16 03:05:31  5-MIN KAVL 260805Z AUTO 35009G17KT 10SM CLR 06/01 A3022 1890 73 1200 350/09G17 RMK AO2 T00560011
03812KAVL AVL20161126031010911/26/16 03:10:31  5-MIN KAVL 260810Z AUTO 36010KT 10SM CLR 06/01 A3022 1900 73 1300 360/10 RMK AO2 T00560011
03812KAVL AVL20161126031510911/26/16 03:15:31  5-MIN KAVL 260815Z AUTO 36009KT 10SM CLR 06/01 A3021 1900 73 1300 010/09 RMK AO2 T00560011
03812KAVL AVL20161126032010911/26/16 03:20:31  5-MIN KAVL 260820Z AUTO 36010KT 10SM CLR 06/01 A3021 1900 73 1300 360/10 RMK AO2 T00560011
03812KAVL AVL20161126032510911/26/16 03:25:31  5-MIN KAVL 260825Z AUTO 34010KT 10SM CLR 06/01 A3021 1900 73 1300 340/10 RMK AO2 T00560011
03812KAVL AVL20161126033010911/26/16 03:30:31  5-MIN KAVL 260830Z AUTO 35008KT 10SM CLR 05/01 A3021 1900 76 1200 360/08 RMK AO2 T00500011
03812KAVL AVL20161126033510911/26/16 03:35:31  5-MIN KAVL 260835Z AUTO 34011KT 10SM CLR 05/01 A3021 1900 76 1200 350/11 RMK AO2 T00500011
03812KAVL AVL20161126034010911/26/16 03:40:31  5-MIN KAVL 260840Z AUTO 35010KT 10SM CLR 05/01 A3021 1900 76 1200 350/10 RMK AO2 T00500011
03812KAVL AVL20161126034510911/26/16 03:45:31  5-MIN KAVL 260845Z AUTO 35011KT 10SM CLR 05/01 A3021 1900 76 1200 360/11 RMK AO2 T00500011
03812KAVL AVL20161126035012211/26/16 03:50:31  5-MIN KAVL 260850Z AUTO 35011KT 10SM CLR 05/01 A3021 1900 76 1200 350/11 RMK AO2 SLP220 T00500011 52001
03812KAVL AVL20161126035510911/26/16 03:55:31  5-MIN KAVL 260855Z AUTO 34012KT 10SM CLR 05/01 A3021 1900 76 1200 350/12 RMK AO2 T00500011
03812KAVL AVL20161126040010911/26/16 04:00:31  5-MIN KAVL 260900Z AUTO 35011KT 10SM CLR 05/01 A3021 1900 76 1200 360/11 RMK AO2 T00500011
03812KAVL AVL20161126040511511/26/16 04:05:31  5-MIN KAVL 260905Z AUTO 34013G20KT 10SM CLR 05/01 A3021 1900 76 1200 350/13G20 RMK AO2 T00500011
03812KAVL AVL20161126041011511/26/16 04:10:31  5-MIN KAVL 260910Z AUTO 35012G20KT 10SM CLR 05/01 A3021 1900 76 1200 360/12G20 RMK AO2 T00500011
03812KAVL AVL20161126041511511/26/16 04:15:31  5-MIN KAVL 260915Z AUTO 35011G19KT 10SM CLR 05/01 A3021 1900 76 1200 350/11G19 RMK AO2 T00500011
03812KAVL AVL20161126042011511/26/16 04:20:31  5-MIN KAVL 260920Z AUTO 35011G19KT 10SM CLR 05/01 A3021 1900 76 1200 360/11G19 RMK AO2 T00500011
03812KAVL AVL20161126042511511/26/16 04:25:31  5-MIN KAVL 260925Z AUTO 35013G19KT 10SM CLR 05/01 A3021 1900 76 1200 350/13G19 RMK AO2 T00500011
03812KAVL AVL20161126043011811/26/16 04:30:31  5-MIN KAVL 260930Z AUTO 34015G22KT 10SM FEW023 05/01 A3021 1900 73 1200 350/15G22 RMK AO2 T00500006
03812KAVL AVL20161126043511811/26/16 04:35:31  5-MIN KAVL 260935Z AUTO 34015G24KT 10SM FEW023 05/01 A3021 1900 73 1200 350/15G24 RMK AO2 T00500006
03812KAVL AVL20161126044011811/26/16 04:40:31  5-MIN KAVL 260940Z AUTO 34017G25KT 10SM SCT023 05/01 A3021 1900 73 1200 340/17G25 RMK AO2 T00500006
03812KAVL AVL20161126044511811/26/16 04:45:31  5-MIN KAVL 260945Z AUTO 35016G25KT 10SM BKN023 05/01 A3021 1900 73 1200 360/16G25 RMK AO2 T00500006
03812KAVL AVL20161126045010811/26/16 04:50:31  5-MIN KAVL 260950Z AUTO 34015G24KT 10SM BKN023 05/01 A3021 1900 73 1200 350/15G24 RMK AO2
03812KAVL AVL20161126045511811/26/16 04:55:31  5-MIN KAVL 260955Z AUTO 34016G25KT 10SM BKN023 05/01 A3021 1900 73 1200 350/16G25 RMK AO2 T00500006
03812KAVL AVL20161126050011811/26/16 05:00:31  5-MIN KAVL 261000Z AUTO 35012G25KT 10SM BKN023 05/01 A3021 1900 73 1200 350/12G25 RMK AO2 T00500006
03812KAVL AVL20161126050511811/26/16 05:05:31  5-MIN KAVL 261005Z AUTO 35014G22KT 10SM BKN023 05/00 A3022 1890 70 1200 360/14G22 RMK AO2 T00500000
03812KAVL AVL20161126051011811/26/16 05:10:31  5-MIN KAVL 261010Z AUTO 35014G24KT 10SM BKN023 05/00 A3022 1890 70 1200 350/14G24 RMK AO2 T00500000
03812KAVL AVL20161126051513611/26/16 05:15:31  5-MIN KAVL 261015Z AUTO 35019G28KT 10SM BKN023 05/00 A3022 1890 70 1200 350/19G28 RMK AO2 PK WND 34028/1012 T00500000
03812KAVL AVL20161126052013611/26/16 05:20:31  5-MIN KAVL 261020Z AUTO 35017G28KT 10SM BKN022 05/00 A3023 1890 70 1200 360/17G28 RMK AO2 PK WND 34028/1012 T00500000
03812KAVL AVL20161126052513611/26/16 05:25:31  5-MIN KAVL 261025Z AUTO 35014G27KT 10SM BKN022 05/00 A3023 1880 70 1200 360/14G27 RMK AO2 PK WND 34028/1012 T00500000
03812KAVL AVL20161126053013611/26/16 05:30:31  5-MIN KAVL 261030Z AUTO 35014G21KT 10SM BKN022 05/00 A3023 1880 70 1200 360/14G21 RMK AO2 PK WND 34028/1012 T00500000
03812KAVL AVL20161126053513611/26/16 05:35:31  5-MIN KAVL 261035Z AUTO 35012G20KT 10SM OVC022 05/00 A3024 1880 70 1200 350/12G20 RMK AO2 PK WND 34028/1012 T00500000
03812KAVL AVL20161126054013611/26/16 05:40:31  5-MIN KAVL 261040Z AUTO 35014G21KT 10SM OVC022 05/00 A3024 1880 70 1200 360/14G21 RMK AO2 PK WND 34028/1012 T00500000
03812KAVL AVL20161126054513711/26/16 05:45:31  5-MIN KAVL 261045Z AUTO 36013G21KT 10SM OVC022 04/M01 A3024 1880 70 1100 360/13G21 RMK AO2 PK WND 34028/1012 T00441006
03812KAVL AVL20161126055014411/26/16 05:50:31  5-MIN KAVL 261050Z AUTO 36014G21KT 10SM OVC022 04/M01 A3024 1870 70 1100 360/14G21 RMK AO2 PK WND 34028/1012 SLP237 T00441006
03812KAVL AVL20161126055511911/26/16 05:55:31  5-MIN KAVL 261055Z AUTO 35012G21KT 10SM OVC022 04/M01 A3024 1870 70 1100 360/12G21 RMK AO2 T00441006
03812KAVL AVL20161126060011911/26/16 06:00:31  5-MIN KAVL 261100Z AUTO 35016G25KT 10SM OVC022 04/M01 A3024 1870 70 1100 360/16G25 RMK AO2 T00441006
03812KAVL AVL20161126060513711/26/16 06:05:31  5-MIN KAVL 261105Z AUTO 35017G26KT 10SM OVC022 04/M01 A3024 1870 73 1000 360/17G26 RMK AO2 PK WND 34026/1103 T00391006
03812KAVL AVL20161126061013711/26/16 06:10:31  5-MIN KAVL 261110Z AUTO 35017G30KT 10SM OVC022 04/M01 A3024 1870 73 1000 350/17G30 RMK AO2 PK WND 34030/1107 T00391006
03812KAVL AVL20161126061513711/26/16 06:15:31  5-MIN KAVL 261115Z AUTO 35015G30KT 10SM BKN022 04/M01 A3025 1870 70 1000 350/15G30 RMK AO2 PK WND 34030/1107 T00391011
03812KAVL AVL20161126062013211/26/16 06:20:31  5-MIN KAVL 261120Z 35017G27KT 10SM BKN022 04/M01 A3025 1860 70 1000 360/17G27 RMK AO2 PK WND 34030/1107 T00391011
03812KAVL AVL20161126062513211/26/16 06:25:31  5-MIN KAVL 261125Z 34019G27KT 10SM BKN022 04/M01 A3025 1860 70 1000 350/19G27 RMK AO2 PK WND 34030/1107 T00391011
03812KAVL AVL20161126063013211/26/16 06:30:31  5-MIN KAVL 261130Z 34016G26KT 10SM BKN021 04/M01 A3025 1860 70 1000 350/16G26 RMK AO2 PK WND 34030/1107 T00391011
03812KAVL AVL20161126063513211/26/16 06:35:31  5-MIN KAVL 261135Z 35017G25KT 10SM BKN019 04/M01 A3026 1860 70 1000 360/17G25 RMK AO2 PK WND 34030/1107 T00391011
03812KAVL AVL20161126064013211/26/16 06:40:31  5-MIN KAVL 261140Z 35017G25KT 10SM SCT019 04/M01 A3026 1860 70 1000 360/17G25 RMK AO2 PK WND 34030/1107 T00391011
03812KAVL AVL20161126064513111/26/16 06:45:31  5-MIN KAVL 261145Z 35014G24KT 10SM FEW019 03/M01 A3026 1860 72 900 360/14G24 RMK AO2 PK WND 34030/1107 T00331011
03812KAVL AVL20161126065015611/26/16 06:50:31  5-MIN KAVL 261150Z 36014G23KT 10SM FEW019 03/M01 A3026 1850 72 900 360/14G23 RMK AO2 PK WND 34030/1107 SLP246 T00331011 10078 20033 50001
03812KAVL AVL20161126065511011/26/16 06:55:31  5-MIN KAVL 261155Z 36014G23KT 10SM CLR 03/M01 A3026 1850 72 900 360/14G23 RMK AO2 T00331011
03812KAVL AVL20161126070011011/26/16 07:00:31  5-MIN KAVL 261200Z 36013G20KT 10SM CLR 03/M02 A3026 1850 70 900 010/13G20 RMK AO2 T00331017
03812KAVL AVL20161126070511011/26/16 07:05:31  5-MIN KAVL 261205Z 36011G21KT 10SM CLR 03/M02 A3027 1850 70 900 010/11G21 RMK AO2 T00331017
03812KAVL AVL20161126071011011/26/16 07:10:31  5-MIN KAVL 261210Z 36011G21KT 10SM CLR 03/M02 A3027 1850 70 900 010/11G21 RMK AO2 T00331017
03812KAVL AVL20161126071511011/26/16 07:15:31  5-MIN KAVL 261215Z 36012G20KT 10SM CLR 03/M02 A3027 1850 72 900 360/12G20 RMK AO2 T00281017
03812KAVL AVL20161126072011011/26/16 07:20:31  5-MIN KAVL 261220Z 36011G18KT 10SM CLR 03/M02 A3027 1850 72 900 360/11G18 RMK AO2 T00281017
03812KAVL AVL20161126072511011/26/16 07:25:31  5-MIN KAVL 261225Z 36014G20KT 10SM CLR 03/M02 A3027 1850 72 900 360/14G20 RMK AO2 T00281017
03812KAVL AVL20161126073011011/26/16 07:30:31  5-MIN KAVL 261230Z 35015G20KT 10SM CLR 03/M02 A3027 1850 72 900 360/15G20 RMK AO2 T00281017
03812KAVL AVL20161126073511011/26/16 07:35:31  5-MIN KAVL 261235Z 35012G20KT 10SM CLR 03/M02 A3027 1850 72 900 360/12G20 RMK AO2 T00281017
03812KAVL AVL20161126074011011/26/16 07:40:31  5-MIN KAVL 261240Z 35011G19KT 10SM CLR 03/M02 A3027 1840 72 800 360/11G19 RMK AO2 T00281017
03812KAVL AVL20161126074511011/26/16 07:45:31  5-MIN KAVL 261245Z 36014G19KT 10SM CLR 03/M02 A3028 1840 72 800 360/14G19 RMK AO2 T00281017
03812KAVL AVL20161126075011711/26/16 07:50:31  5-MIN KAVL 261250Z 35014G20KT 10SM CLR 03/M02 A3028 1840 72 800 360/14G20 RMK AO2 SLP254 T00281017
03812KAVL AVL20161126075511311/26/16 07:55:31  5-MIN KAVL 261255Z 36012G20KT 10SM FEW019 03/M02 A3028 1830 72 800 010/12G20 RMK AO2 T00281017
03812KAVL AVL20161126080011311/26/16 08:00:31  5-MIN KAVL 261300Z 36013G19KT 10SM SCT019 03/M02 A3028 1830 72 800 360/13G19 RMK AO2 T00281017
03812KAVL AVL20161126080510711/26/16 08:05:31  5-MIN KAVL 261305Z 35011KT 10SM BKN019 03/M02 A3029 1830 72 800 360/11 RMK AO2 T00281017
03812KAVL AVL20161126081011311/26/16 08:10:31  5-MIN KAVL 261310Z 35014G22KT 10SM BKN019 03/M02 A3029 1830 70 900 360/14G22 RMK AO2 T00331017
03812KAVL AVL20161126081511311/26/16 08:15:31  5-MIN KAVL 261315Z 01013G22KT 10SM BKN019 03/M02 A3029 1830 70 900 010/13G22 RMK AO2 T00331017
03812KAVL AVL20161126082011311/26/16 08:20:31  5-MIN KAVL 261320Z 35012G22KT 10SM OVC019 03/M02 A3029 1830 70 900 360/12G22 RMK AO2 T00331017
03812KAVL AVL20161126082511311/26/16 08:25:31  5-MIN KAVL 261325Z 36011G20KT 10SM BKN019 03/M02 A3029 1830 67 900 360/11G20 RMK AO2 T00331022
03812KAVL AVL20161126083011311/26/16 08:30:31  5-MIN KAVL 261330Z 35013G20KT 10SM BKN019 03/M02 A3029 1820 67 900 360/13G20 RMK AO2 T00331022
03812KAVL AVL20161126083511311/26/16 08:35:31  5-MIN KAVL 261335Z 35014G22KT 10SM BKN019 03/M02 A3029 1820 67 900 360/14G22 RMK AO2 T00331022
03812KAVL AVL20161126084011311/26/16 08:40:31  5-MIN KAVL 261340Z 36015G22KT 10SM BKN019 03/M02 A3030 1820 67 900 010/15G22 RMK AO2 T00331022
03812KAVL AVL20161126084511311/26/16 08:45:31  5-MIN KAVL 261345Z 36014G24KT 10SM BKN019 03/M02 A3030 1820 67 900 360/14G24 RMK AO2 T00331022
03812KAVL AVL20161126085010311/26/16 08:50:31  5-MIN KAVL 261350Z 36016G24KT 10SM SCT019 03/M02 A3030 1820 67 900 010/16G24 RMK AO2
03812KAVL AVL20161126085511311/26/16 08:55:31  5-MIN KAVL 261355Z 36008G23KT 10SM SCT019 03/M02 A3030 1820 67 900 360/08G23 RMK AO2 T00331022
03812KAVL AVL20161126090011311/26/16 09:00:31  5-MIN KAVL 261400Z 35015G22KT 10SM SCT019 03/M02 A3030 1820 67 900 360/15G22 RMK AO2 T00331022
03812KAVL AVL20161126090513111/26/16 09:05:31  5-MIN KAVL 261405Z 35019G27KT 10SM SCT018 03/M02 A3030 1820 67 900 360/19G27 RMK AO2 PK WND 35027/1404 T00331022
03812KAVL AVL20161126091013111/26/16 09:10:31  5-MIN KAVL 261410Z 35017G27KT 10SM FEW018 03/M02 A3030 1820 67 900 360/17G27 RMK AO2 PK WND 35027/1404 T00331022
03812KAVL AVL20161126091513211/26/16 09:15:31  5-MIN KAVL 261415Z 36013G26KT 10SM FEW018 04/M02 A3030 1820 64 1000 010/13G26 RMK AO2 PK WND 35027/1404 T00391022
03812KAVL AVL20161126092013111/26/16 09:20:31  5-MIN KAVL 261420Z 36015G22KT 10SM FEW018 03/M02 A3030 1820 67 900 360/15G22 RMK AO2 PK WND 35027/1404 T00331022
03812KAVL AVL20161126092512911/26/16 09:25:31  5-MIN KAVL 261425Z 36013G22KT 10SM CLR 04/M02 A3030 1820 64 1000 360/13G22 RMK AO2 PK WND 35027/1404 T00391022
03812KAVL AVL20161126093012911/26/16 09:30:31  5-MIN KAVL 261430Z 35014G19KT 10SM CLR 04/M03 A3030 1820 62 1000 360/14G19 RMK AO2 PK WND 35027/1404 T00391028
03812KAVL AVL20161126093512311/26/16 09:35:31  5-MIN KAVL 261435Z 36012KT 10SM CLR 04/M02 A3030 1820 62 1000 010/12 RMK AO2 PK WND 35027/1404 T00441022
03812KAVL AVL20161126094012911/26/16 09:40:31  5-MIN KAVL 261440Z 36014G19KT 10SM CLR 04/M03 A3030 1820 59 1000 360/14G19 RMK AO2 PK WND 35027/1404 T00441028
03812KAVL AVL20161126094512911/26/16 09:45:31  5-MIN KAVL 261445Z 36013G19KT 10SM CLR 04/M03 A3030 1820 59 1000 010/13G19 RMK AO2 PK WND 35027/1404 T00441028
03812KAVL AVL20161126095014211/26/16 09:50:31  5-MIN KAVL 261450Z 36011G19KT 10SM CLR 04/M03 A3030 1820 59 1000 360/11G19 RMK AO2 PK WND 35027/1404 SLP260 T00441028 53016
03812KAVL AVL20161126095511111/26/16 09:55:31  5-MIN KAVL 261455Z 36012G19KT 10SM CLR 04/M02 A3030 1820 62 1000 360/12G19 RMK AO2 T00441022
03812KAVL AVL20161126100011111/26/16 10:00:31  5-MIN KAVL 261500Z 35014G19KT 10SM CLR 05/M02 A3030 1820 59 1100 360/14G19 RMK AO2 T00501022
03812KAVL AVL20161126100511111/26/16 10:05:31  5-MIN KAVL 261505Z 35014G22KT 10SM CLR 05/M03 A3030 1820 57 1100 350/14G22 RMK AO2 T00501028
03812KAVL AVL20161126101011111/26/16 10:10:31  5-MIN KAVL 261510Z 35015G22KT 10SM CLR 05/M03 A3030 1820 57 1100 360/15G22 RMK AO2 T00501028
03812KAVL AVL20161126101511111/26/16 10:15:31  5-MIN KAVL 261515Z 36011G22KT 10SM CLR 05/M03 A3030 1820 57 1100 360/11G22 RMK AO2 T00501028
03812KAVL AVL20161126102010511/26/16 10:20:31  5-MIN KAVL 261520Z 36013KT 10SM CLR 05/M03 A3030 1820 57 1100 010/13 RMK AO2 T00501028
03812KAVL AVL20161126102510511/26/16 10:25:31  5-MIN KAVL 261525Z 35013KT 10SM CLR 06/M03 A3030 1820 55 1200 350/13 RMK AO2 T00561028
03812KAVL AVL20161126103011111/26/16 10:30:31  5-MIN KAVL 261530Z 33016G21KT 10SM CLR 06/M03 A3030 1820 55 1200 340/16G21 RMK AO2 T00561028
03812KAVL AVL20161126103511111/26/16 10:35:31  5-MIN KAVL 261535Z 36012G21KT 10SM CLR 06/M03 A3030 1820 55 1200 360/12G21 RMK AO2 T00561028
03812KAVL AVL20161126104010511/26/16 10:40:31  5-MIN KAVL 261540Z 34013KT 10SM CLR 06/M03 A3029 1820 53 1200 350/13 RMK AO2 T00611028
03812KAVL AVL20161126104510511/26/16 10:45:31  5-MIN KAVL 261545Z 35012KT 10SM CLR 06/M03 A3029 1820 53 1200 360/12 RMK AO2 T00611028
03812KAVL AVL20161126105011811/26/16 10:50:31  5-MIN KAVL 261550Z 34016G20KT 10SM CLR 06/M03 A3029 1820 53 1200 340/16G20 RMK AO2 SLP256 T00611028
03812KAVL AVL20161126105511111/26/16 10:55:31  5-MIN KAVL 261555Z 35014G20KT 10SM CLR 07/M03 A3029 1820 51 1300 350/14G20 RMK AO2 T00671028
03812KAVL AVL20161126110010511/26/16 11:00:31  5-MIN KAVL 261600Z 35017KT 10SM CLR 06/M03 A3029 1820 51 1200 350/17 RMK AO2 T00611033
03812KAVL AVL20161126110511111/26/16 11:05:31  5-MIN KAVL 261605Z 36014G21KT 10SM CLR 06/M03 A3029 1820 51 1200 360/14G21 RMK AO2 T00611033
03812KAVL AVL20161126111011111/26/16 11:10:31  5-MIN KAVL 261610Z 36012G22KT 10SM CLR 06/M03 A3030 1820 51 1200 010/12G22 RMK AO2 T00611033
03812KAVL AVL20161126111511111/26/16 11:15:31  5-MIN KAVL 261615Z 36015G22KT 10SM CLR 06/M04 A3030 1820 48 1200 360/15G22 RMK AO2 T00611039
03812KAVL AVL20161126112011111/26/16 11:20:31  5-MIN KAVL 261620Z 34015G21KT 10SM CLR 06/M04 A3030 1820 48 1200 350/15G21 RMK AO2 T00611039
03812KAVL AVL20161126112511111/26/16 11:25:31  5-MIN KAVL 261625Z 36014G20KT 10SM CLR 07/M03 A3029 1820 49 1300 360/14G20 RMK AO2 T00671033
03812KAVL AVL20161126113011111/26/16 11:30:31  5-MIN KAVL 261630Z 36013G20KT 10SM CLR 06/M04 A3029 1820 48 1200 360/13G20 RMK AO2 T00611039
03812KAVL AVL20161126113511111/26/16 11:35:31  5-MIN KAVL 261635Z 35012G21KT 10SM CLR 07/M04 A3029 1830 47 1300 360/12G21 RMK AO2 T00671039
03812KAVL AVL20161126114011111/26/16 11:40:31  5-MIN KAVL 261640Z 35015G21KT 10SM CLR 07/M04 A3029 1830 47 1300 360/15G21 RMK AO2 T00671039
03812KAVL AVL20161126114511111/26/16 11:45:31  5-MIN KAVL 261645Z 35014G21KT 10SM CLR 07/M04 A3029 1830 45 1400 360/14G21 RMK AO2 T00721039
03812KAVL AVL20161126115011811/26/16 11:50:31  5-MIN KAVL 261650Z 36015G21KT 10SM CLR 07/M04 A3028 1830 47 1300 360/15G21 RMK AO2 SLP253 T00671039
03812KAVL AVL20161126115511111/26/16 11:55:31  5-MIN KAVL 261655Z 35015G20KT 10SM CLR 07/M04 A3028 1840 47 1300 350/15G20 RMK AO2 T00671039
03812KAVL AVL20161126120011111/26/16 12:00:31  5-MIN KAVL 261700Z 36012G21KT 10SM CLR 07/M04 A3028 1840 45 1400 010/12G21 RMK AO2 T00721039
03812KAVL AVL20161126120511111/26/16 12:05:31  5-MIN KAVL 261705Z 36017G24KT 10SM CLR 07/M04 A3028 1830 45 1400 360/17G24 RMK AO2 T00721039
03812KAVL AVL20161126121011111/26/16 12:10:31  5-MIN KAVL 261710Z 36014G24KT 10SM CLR 07/M04 A3028 1840 47 1300 360/14G24 RMK AO2 T00671039
03812KAVL AVL20161126121511111/26/16 12:15:31  5-MIN KAVL 261715Z 36014G23KT 10SM CLR 07/M04 A3028 1840 45 1400 360/14G23 RMK AO2 T00721039
03812KAVL AVL20161126122011111/26/16 12:20:31  5-MIN KAVL 261720Z 35016G23KT 10SM CLR 07/M04 A3028 1840 45 1400 360/16G23 RMK AO2 T00721039
03812KAVL AVL20161126122511111/26/16 12:25:31  5-MIN KAVL 261725Z 35015G22KT 10SM CLR 07/M04 A3027 1840 45 1400 360/15G22 RMK AO2 T00721039
03812KAVL AVL20161126123011111/26/16 12:30:31  5-MIN KAVL 261730Z 36015G22KT 10SM CLR 07/M04 A3027 1850 45 1400 010/15G22 RMK AO2 T00721039
03812KAVL AVL20161126123511111/26/16 12:35:31  5-MIN KAVL 261735Z 35014G19KT 10SM CLR 07/M04 A3027 1850 45 1400 360/14G19 RMK AO2 T00721039
03812KAVL AVL20161126124011111/26/16 12:40:31  5-MIN KAVL 261740Z 35016G21KT 10SM CLR 08/M04 A3026 1850 41 1500 350/16G21 RMK AO2 T00781044
03812KAVL AVL20161126124511111/26/16 12:45:31  5-MIN KAVL 261745Z 35014G21KT 10SM CLR 08/M04 A3026 1850 41 1500 350/14G21 RMK AO2 T00781044
03812KAVL AVL20161126125013011/26/16 12:50:31  5-MIN KAVL 261750Z 36012KT 10SM CLR 08/M04 A3026 1860 41 1500 010/12 RMK AO2 SLP245 T00781044 10078 20028 51012
03812KAVL AVL20161126125511111/26/16 12:55:31  5-MIN KAVL 261755Z 35014G21KT 10SM CLR 08/M04 A3026 1860 40 1500 350/14G21 RMK AO2 T00831044
03812KAVL AVL20161126130011111/26/16 13:00:31  5-MIN KAVL 261800Z 34014G21KT 10SM CLR 08/M04 A3026 1860 40 1500 350/14G21 RMK AO2 T00831044
03812KAVL AVL20161126130511111/26/16 13:05:31  5-MIN KAVL 261805Z 35012G19KT 10SM CLR 09/M04 A3025 1860 38 1600 350/12G19 RMK AO2 T00891044
03812KAVL AVL20161126131010511/26/16 13:10:31  5-MIN KAVL 261810Z 35013KT 10SM CLR 09/M05 A3025 1860 37 1600 360/13 RMK AO2 T00891050
03812KAVL AVL20161126131510511/26/16 13:15:31  5-MIN KAVL 261815Z 35013KT 10SM CLR 09/M05 A3025 1870 37 1600 350/13 RMK AO2 T00891050
03812KAVL AVL20161126132010511/26/16 13:20:31  5-MIN KAVL 261820Z 36012KT 10SM CLR 09/M05 A3025 1870 35 1700 360/12 RMK AO2 T00941050
03812KAVL AVL20161126132510511/26/16 13:25:31  5-MIN KAVL 261825Z 35011KT 10SM CLR 09/M05 A3024 1870 35 1700 360/11 RMK AO2 T00941050
03812KAVL AVL20161126133011111/26/16 13:30:31  5-MIN KAVL 261830Z 34016G23KT 10SM CLR 09/M05 A3024 1870 35 1700 350/16G23 RMK AO2 T00941050
03812KAVL AVL20161126133511111/26/16 13:35:31  5-MIN KAVL 261835Z 36011G23KT 10SM CLR 09/M05 A3024 1870 35 1700 010/11G23 RMK AO2 T00941050
03812KAVL AVL20161126134010511/26/16 13:40:31  5-MIN KAVL 261840Z 35011KT 10SM CLR 10/M06 A3024 1870 33 1800 360/11 RMK AO2 T01001056
03812KAVL AVL20161126134510511/26/16 13:45:31  5-MIN KAVL 261845Z 35010KT 10SM CLR 10/M06 A3024 1870 33 1800 360/10 RMK AO2 T01001056
03812KAVL AVL20161126135011811/26/16 13:50:31  5-MIN KAVL 261850Z 35012G19KT 10SM CLR 10/M06 A3024 1870 33 1800 360/12G19 RMK AO2 SLP237 T01001056
03812KAVL AVL20161126135511111/26/16 13:55:31  5-MIN KAVL 261855Z 35015G21KT 10SM CLR 10/M06 A3024 1870 31 1800 360/15G21 RMK AO2 T01001061
03812KAVL AVL20161126140010511/26/16 14:00:31  5-MIN KAVL 261900Z 35017KT 10SM CLR 10/M07 A3024 1880 30 1800 360/17 RMK AO2 T01001067
03812KAVL AVL20161126140511111/26/16 14:05:31  5-MIN KAVL 261905Z 36016G21KT 10SM CLR 10/M07 A3023 1880 30 1800 010/16G21 RMK AO2 T01001067
03812KAVL AVL20161126141011111/26/16 14:10:31  5-MIN KAVL 261910Z 36014G21KT 10SM CLR 10/M06 A3024 1880 31 1800 360/14G21 RMK AO2 T01001061
03812KAVL AVL20161126141510511/26/16 14:15:31  5-MIN KAVL 261915Z 36013KT 10SM CLR 10/M06 A3024 1880 31 1800 360/13 RMK AO2 T01001061
03812KAVL AVL20161126142010511/26/16 14:20:31  5-MIN KAVL 261920Z 36014KT 10SM CLR 10/M06 A3024 1880 31 1800 010/14 RMK AO2 T01001061
03812KAVL AVL20161126142510511/26/16 14:25:31  5-MIN KAVL 261925Z 36013KT 10SM CLR 10/M06 A3024 1880 31 1800 360/13 RMK AO2 T01001061
03812KAVL AVL20161126143011111/26/16 14:30:31  5-MIN KAVL 261930Z 36013G19KT 10SM CLR 10/M06 A3024 1880 31 1800 010/13G19 RMK AO2 T01001061
03812KAVL AVL20161126143511111/26/16 14:35:31  5-MIN KAVL 261935Z 36013G19KT 10SM CLR 10/M06 A3024 1880 31 1800 360/13G19 RMK AO2 T01001061
03812KAVL AVL20161126144010511/26/16 14:40:31  5-MIN KAVL 261940Z 35013KT 10SM CLR 10/M06 A3024 1880 33 1800 350/13 RMK AO2 T01001056
03812KAVL AVL20161126144511111/26/16 14:45:31  5-MIN KAVL 261945Z 35013G19KT 10SM CLR 10/M06 A3024 1880 33 1800 360/13G19 RMK AO2 T01001056
03812KAVL AVL20161126145011811/26/16 14:50:31  5-MIN KAVL 261950Z 35011G18KT 10SM CLR 10/M06 A3024 1880 33 1800 360/11G18 RMK AO2 SLP236 T01001056
03812KAVL AVL20161126145511111/26/16 14:55:31  5-MIN KAVL 261955Z 34013G18KT 10SM CLR 10/M06 A3023 1880 33 1800 350/13G18 RMK AO2 T01001056
03812KAVL AVL20161126150011111/26/16 15:00:31  5-MIN KAVL 262000Z 35011G19KT 10SM CLR 10/M06 A3023 1880 31 1800 360/11G19 RMK AO2 T01001061
03812KAVL AVL20161126150511111/26/16 15:05:31  5-MIN KAVL 262005Z 36015G20KT 10SM CLR 10/M06 A3023 1880 31 1800 360/15G20 RMK AO2 T01001061
03812KAVL AVL20161126151011111/26/16 15:10:31  5-MIN KAVL 262010Z 36011G20KT 10SM CLR 10/M06 A3023 1880 31 1800 360/11G20 RMK AO2 T01001061
03812KAVL AVL20161126151510511/26/16 15:15:31  5-MIN KAVL 262015Z 35012KT 10SM CLR 10/M06 A3024 1880 31 1800 360/12 RMK AO2 T01001061
03812KAVL AVL20161126152010511/26/16 15:20:31  5-MIN KAVL 262020Z 35011KT 10SM CLR 10/M06 A3024 1880 31 1800 360/11 RMK AO2 T01001061
03812KAVL AVL20161126152511011/26/16 15:25:31  5-MIN KAVL 262025Z AUTO 35011KT 10SM CLR 10/M06 A3024 1870 31 1800 350/11 RMK AO2 T01001061
03812KAVL AVL20161126153011011/26/16 15:30:31  5-MIN KAVL 262030Z AUTO 35012KT 10SM CLR 10/M06 A3024 1870 31 1800 350/12 RMK AO2 T01001061
03812KAVL AVL20161126153511011/26/16 15:35:31  5-MIN KAVL 262035Z AUTO 35013KT 10SM CLR 10/M06 A3024 1870 31 1800 360/13 RMK AO2 T01001061
03812KAVL AVL20161126154011011/26/16 15:40:31  5-MIN KAVL 262040Z AUTO 34015KT 10SM CLR 10/M06 A3024 1870 31 1800 350/15 RMK AO2 T01001061
03812KAVL AVL20161126154511011/26/16 15:45:31  5-MIN KAVL 262045Z AUTO 35012KT 10SM CLR 09/M06 A3024 1870 33 1700 350/12 RMK AO2 T00941061
03812KAVL AVL20161126155012311/26/16 15:50:31  5-MIN KAVL 262050Z AUTO 36011KT 10SM CLR 09/M06 A3024 1870 33 1700 010/11 RMK AO2 SLP240 T00941061 58014
03812KAVL AVL20161126155511011/26/16 15:55:31  5-MIN KAVL 262055Z AUTO 35012KT 10SM CLR 09/M07 A3024 1870 31 1700 350/12 RMK AO2 T00941067
03812KAVL AVL20161126160011611/26/16 16:00:31  5-MIN KAVL 262100Z AUTO 35012G19KT 10SM CLR 09/M07 A3024 1870 31 1700 360/12G19 RMK AO2 T00941067
03812KAVL AVL20161126160511611/26/16 16:05:31  5-MIN KAVL 262105Z AUTO 35011G19KT 10SM CLR 09/M06 A3025 1870 33 1700 360/11G19 RMK AO2 T00941061
03812KAVL AVL20161126161011011/26/16 16:10:31  5-MIN KAVL 262110Z AUTO 35012KT 10SM CLR 09/M06 A3025 1870 33 1700 360/12 RMK AO2 T00941061
03812KAVL AVL20161126161511011/26/16 16:15:31  5-MIN KAVL 262115Z AUTO 36011KT 10SM CLR 09/M06 A3025 1870 34 1600 360/11 RMK AO2 T00891061
03812KAVL AVL20161126162011011/26/16 16:20:31  5-MIN KAVL 262120Z AUTO 35011KT 10SM CLR 09/M06 A3024 1870 34 1600 360/11 RMK AO2 T00891061
03812KAVL AVL20161126162511011/26/16 16:25:31  5-MIN KAVL 262125Z AUTO 35009KT 10SM CLR 09/M06 A3025 1870 35 1600 360/09 RMK AO2 T00891056
03812KAVL AVL20161126163011011/26/16 16:30:31  5-MIN KAVL 262130Z AUTO 36009KT 10SM CLR 09/M06 A3024 1870 35 1600 010/09 RMK AO2 T00891056
03812KAVL AVL20161126163511011/26/16 16:35:31  5-MIN KAVL 262135Z AUTO 35012KT 10SM CLR 09/M06 A3024 1870 35 1600 350/12 RMK AO2 T00891056
03812KAVL AVL20161126164011011/26/16 16:40:31  5-MIN KAVL 262140Z AUTO 36008KT 10SM CLR 08/M05 A3024 1870 38 1600 360/08 RMK AO2 T00831050
03812KAVL AVL20161126164511011/26/16 16:45:31  5-MIN KAVL 262145Z AUTO 36011KT 10SM CLR 08/M05 A3024 1870 38 1600 010/11 RMK AO2 T00831050
03812KAVL AVL20161126165011211/26/16 16:50:31  5-MIN KAVL 262150Z 35010KT 10SM CLR 08/M05 A3024 1870 38 1600 360/10 RMK AO2 SLP241 T00831050
03812KAVL AVL20161126165510511/26/16 16:55:31  5-MIN KAVL 262155Z 36010KT 10SM CLR 08/M05 A3024 1870 40 1500 360/10 RMK AO2 T00781050
03812KAVL AVL20161126170010511/26/16 17:00:31  5-MIN KAVL 262200Z 36009KT 10SM CLR 08/M05 A3025 1870 40 1500 360/09 RMK AO2 T00781050
03812KAVL AVL20161126170510511/26/16 17:05:31  5-MIN KAVL 262205Z 36008KT 10SM CLR 08/M05 A3025 1870 40 1500 360/08 RMK AO2 T00781050
03812KAVL AVL20161126171010511/26/16 17:10:31  5-MIN KAVL 262210Z 36009KT 10SM CLR 07/M05 A3025 1870 41 1400 360/09 RMK AO2 T00721050
03812KAVL AVL20161126171510511/26/16 17:15:31  5-MIN KAVL 262215Z 34008KT 10SM CLR 07/M05 A3025 1860 41 1400 340/08 RMK AO2 T00721050
03812KAVL AVL20161126172010511/26/16 17:20:31  5-MIN KAVL 262220Z 34012KT 10SM CLR 07/M05 A3025 1860 43 1300 350/12 RMK AO2 T00671050
03812KAVL AVL20161126172510511/26/16 17:25:31  5-MIN KAVL 262225Z 34012KT 10SM CLR 06/M05 A3025 1860 45 1300 340/12 RMK AO2 T00611050
03812KAVL AVL20161126173010511/26/16 17:30:31  5-MIN KAVL 262230Z 34011KT 10SM CLR 06/M05 A3025 1860 45 1300 340/11 RMK AO2 T00611050
03812KAVL AVL20161126173510511/26/16 17:35:31  5-MIN KAVL 262235Z 34012KT 10SM CLR 07/M05 A3025 1860 43 1300 350/12 RMK AO2 T00671050
03812KAVL AVL20161126174010511/26/16 17:40:31  5-MIN KAVL 262240Z 34011KT 10SM CLR 06/M05 A3025 1860 45 1300 340/11 RMK AO2 T00611050
03812KAVL AVL20161126174510511/26/16 17:45:31  5-MIN KAVL 262245Z 34012KT 10SM CLR 06/M05 A3025 1860 45 1300 350/12 RMK AO2 T00611050
03812KAVL AVL20161126175011211/26/16 17:50:31  5-MIN KAVL 262250Z 34011KT 10SM CLR 06/M05 A3025 1860 46 1200 340/11 RMK AO2 SLP246 T00561050
03812KAVL AVL20161126175510511/26/16 17:55:31  5-MIN KAVL 262255Z 34011KT 10SM CLR 06/M05 A3025 1860 46 1200 340/11 RMK AO2 T00561050
03812KAVL AVL20161126180010511/26/16 18:00:31  5-MIN KAVL 262300Z 34011KT 10SM CLR 05/M05 A3025 1860 48 1100 340/11 RMK AO2 T00501050
03812KAVL AVL20161126180510511/26/16 18:05:31  5-MIN KAVL 262305Z 34010KT 10SM CLR 05/M05 A3025 1860 48 1100 350/10 RMK AO2 T00501050
03812KAVL AVL20161126181010511/26/16 18:10:31  5-MIN KAVL 262310Z 34009KT 10SM CLR 05/M05 A3025 1860 48 1100 340/09 RMK AO2 T00501050
03812KAVL AVL20161126181510511/26/16 18:15:31  5-MIN KAVL 262315Z 33009KT 10SM CLR 04/M05 A3025 1860 50 1100 330/09 RMK AO2 T00441050
03812KAVL AVL20161126182010511/26/16 18:20:31  5-MIN KAVL 262320Z 32009KT 10SM CLR 04/M05 A3025 1860 50 1100 330/09 RMK AO2 T00441050
03812KAVL AVL20161126182510511/26/16 18:25:31  5-MIN KAVL 262325Z 32009KT 10SM CLR 04/M05 A3025 1860 50 1100 330/09 RMK AO2 T00441050
03812KAVL AVL20161126183010511/26/16 18:30:31  5-MIN KAVL 262330Z 32008KT 10SM CLR 04/M05 A3025 1860 50 1100 330/08 RMK AO2 T00441050
03812KAVL AVL20161126183510511/26/16 18:35:31  5-MIN KAVL 262335Z 32008KT 10SM CLR 04/M05 A3026 1860 52 1000 320/08 RMK AO2 T00391050
03812KAVL AVL20161126184010511/26/16 18:40:31  5-MIN KAVL 262340Z 32008KT 10SM CLR 04/M05 A3026 1860 50 1100 320/08 RMK AO2 T00441050
03812KAVL AVL20161126184510511/26/16 18:45:31  5-MIN KAVL 262345Z 32009KT 10SM CLR 04/M05 A3026 1860 50 1100 330/09 RMK AO2 T00441050
03812KAVL AVL20161126185013011/26/16 18:50:31  5-MIN KAVL 262350Z 32010KT 10SM CLR 04/M04 A3026 1860 52 1100 330/10 RMK AO2 SLP251 T00441044 10106 20039 55004
03812KAVL AVL20161126185510511/26/16 18:55:31  5-MIN KAVL 262355Z 33010KT 10SM CLR 04/M04 A3026 1850 52 1100 330/10 RMK AO2 T00441044
03812KAVL AVL20161126190010511/26/16 19:00:31  5-MIN KAVL 270000Z 33011KT 10SM CLR 04/M04 A3026 1850 52 1100 330/11 RMK AO2 T00441044
03812KAVL AVL20161126190510511/26/16 19:05:31  5-MIN KAVL 270005Z 33011KT 10SM CLR 04/M04 A3026 1850 54 1000 330/11 RMK AO2 T00391044
03812KAVL AVL20161126191010511/26/16 19:10:31  5-MIN KAVL 270010Z 33010KT 10SM CLR 04/M04 A3026 1850 54 1000 340/10 RMK AO2 T00391044
03812KAVL AVL20161126191510511/26/16 19:15:31  5-MIN KAVL 270015Z 33012KT 10SM CLR 04/M04 A3027 1850 54 1000 340/12 RMK AO2 T00391044
03812KAVL AVL20161126192010511/26/16 19:20:31  5-MIN KAVL 270020Z 34012KT 10SM CLR 04/M04 A3026 1850 54 1000 340/12 RMK AO2 T00391044
03812KAVL AVL20161126192510511/26/16 19:25:31  5-MIN KAVL 270025Z 33012KT 10SM CLR 04/M04 A3027 1850 54 1000 340/12 RMK AO2 T00391044
03812KAVL AVL20161126193010511/26/16 19:30:31  5-MIN KAVL 270030Z 33013KT 10SM CLR 04/M04 A3027 1850 54 1000 340/13 RMK AO2 T00391044
03812KAVL AVL20161126193510511/26/16 19:35:31  5-MIN KAVL 270035Z 33012KT 10SM CLR 04/M04 A3027 1850 54 1000 340/12 RMK AO2 T00391044
03812KAVL AVL20161126194010511/26/16 19:40:31  5-MIN KAVL 270040Z 33011KT 10SM CLR 04/M04 A3027 1850 54 1000 340/11 RMK AO2 T00391044
03812KAVL AVL20161126194510511/26/16 19:45:31  5-MIN KAVL 270045Z 33011KT 10SM CLR 04/M04 A3027 1850 54 1000 340/11 RMK AO2 T00391044
03812KAVL AVL20161126195011211/26/16 19:50:31  5-MIN KAVL 270050Z 33010KT 10SM CLR 04/M04 A3027 1850 54 1000 340/10 RMK AO2 SLP255 T00391044
03812KAVL AVL20161126195510511/26/16 19:55:31  5-MIN KAVL 270055Z 33009KT 10SM CLR 04/M04 A3027 1850 54 1000 340/09 RMK AO2 T00391044
03812KAVL AVL20161126200010511/26/16 20:00:31  5-MIN KAVL 270100Z 33009KT 10SM CLR 04/M04 A3027 1850 54 1000 340/09 RMK AO2 T00391044
03812KAVL AVL20161126200510511/26/16 20:05:31  5-MIN KAVL 270105Z 33011KT 10SM CLR 04/M04 A3027 1850 54 1000 340/11 RMK AO2 T00391044
03812KAVL AVL20161126201010411/26/16 20:10:31  5-MIN KAVL 270110Z 34009KT 10SM CLR 03/M04 A3026 1850 57 900 350/09 RMK AO2 T00331044
03812KAVL AVL20161126201510411/26/16 20:15:31  5-MIN KAVL 270115Z 34009KT 10SM CLR 03/M04 A3026 1850 57 900 350/09 RMK AO2 T00331044
03812KAVL AVL20161126202010411/26/16 20:20:31  5-MIN KAVL 270120Z 34011KT 10SM CLR 03/M04 A3026 1850 57 900 350/11 RMK AO2 T00331044
03812KAVL AVL20161126202510411/26/16 20:25:31  5-MIN KAVL 270125Z 34011KT 10SM CLR 03/M04 A3026 1850 57 900 350/11 RMK AO2 T00331044
03812KAVL AVL20161126203010411/26/16 20:30:31  5-MIN KAVL 270130Z 34011KT 10SM CLR 03/M04 A3026 1850 57 900 350/11 RMK AO2 T00331044
03812KAVL AVL20161126203510411/26/16 20:35:31  5-MIN KAVL 270135Z 35010KT 10SM CLR 03/M04 A3026 1850 57 900 350/10 RMK AO2 T00331044
03812KAVL AVL20161126204010411/26/16 20:40:31  5-MIN KAVL 270140Z 35010KT 10SM CLR 03/M04 A3026 1850 57 900 350/10 RMK AO2 T00331044
03812KAVL AVL20161126204510411/26/16 20:45:31  5-MIN KAVL 270145Z 36011KT 10SM CLR 03/M04 A3026 1850 57 900 010/11 RMK AO2 T00331044
03812KAVL AVL20161126205011111/26/16 20:50:31  5-MIN KAVL 270150Z 35010KT 10SM CLR 03/M04 A3026 1850 57 900 360/10 RMK AO2 SLP253 T00331044
03812KAVL AVL20161126205510411/26/16 20:55:31  5-MIN KAVL 270155Z 34010KT 10SM CLR 03/M04 A3026 1850 57 900 350/10 RMK AO2 T00331044
03812KAVL AVL20161126210010411/26/16 21:00:31  5-MIN KAVL 270200Z 34009KT 10SM CLR 03/M04 A3026 1850 59 900 350/09 RMK AO2 T00281044
03812KAVL AVL20161126210510411/26/16 21:05:31  5-MIN KAVL 270205Z 35008KT 10SM CLR 03/M04 A3026 1850 59 900 350/08 RMK AO2 T00281044
03812KAVL AVL20161126211010411/26/16 21:10:31  5-MIN KAVL 270210Z 35008KT 10SM CLR 03/M04 A3026 1850 59 900 360/08 RMK AO2 T00281044
03812KAVL AVL20161126211510411/26/16 21:15:31  5-MIN KAVL 270215Z 35007KT 10SM CLR 03/M04 A3026 1860 59 900 360/07 RMK AO2 T00281044
03812KAVL AVL20161126212010411/26/16 21:20:31  5-MIN KAVL 270220Z 35007KT 10SM CLR 03/M04 A3026 1850 59 900 350/07 RMK AO2 T00281044
03812KAVL AVL20161126212510411/26/16 21:25:31  5-MIN KAVL 270225Z 34008KT 10SM CLR 03/M04 A3026 1850 59 900 350/08 RMK AO2 T00281044
03812KAVL AVL20161126213010411/26/16 21:30:31  5-MIN KAVL 270230Z 34008KT 10SM CLR 02/M04 A3026 1850 61 800 350/08 RMK AO2 T00221044
03812KAVL AVL20161126213510411/26/16 21:35:31  5-MIN KAVL 270235Z 34007KT 10SM CLR 02/M04 A3026 1860 61 800 350/07 RMK AO2 T00221044
03812KAVL AVL20161126214010411/26/16 21:40:31  5-MIN KAVL 270240Z 35007KT 10SM CLR 02/M04 A3026 1850 61 800 350/07 RMK AO2 T00221044
03812KAVL AVL20161126214510411/26/16 21:45:31  5-MIN KAVL 270245Z 35007KT 10SM CLR 02/M04 A3026 1850 61 800 350/07 RMK AO2 T00221044
03812KAVL AVL20161126215011711/26/16 21:50:31  5-MIN KAVL 270250Z 35006KT 10SM CLR 02/M04 A3026 1860 61 800 350/06 RMK AO2 SLP252 T00221044 53005
03812KAVL AVL20161126215510411/26/16 21:55:31  5-MIN KAVL 270255Z 35006KT 10SM CLR 02/M04 A3026 1850 64 700 360/06 RMK AO2 T00171044
03812KAVL AVL20161126220010411/26/16 22:00:31  5-MIN KAVL 270300Z 35004KT 10SM CLR 02/M04 A3026 1860 61 800 360/04 RMK AO2 T00221044
03812KAVL AVL20161126220510411/26/16 22:05:31  5-MIN KAVL 270305Z 36005KT 10SM CLR 02/M04 A3026 1860 61 800 010/05 RMK AO2 T00221044
03812KAVL AVL20161126221010411/26/16 22:10:31  5-MIN KAVL 270310Z 01005KT 10SM CLR 02/M04 A3025 1860 61 800 010/05 RMK AO2 T00221044
03812KAVL AVL20161126221510411/26/16 22:15:31  5-MIN KAVL 270315Z 36005KT 10SM CLR 02/M04 A3025 1860 61 800 010/05 RMK AO2 T00221044
03812KAVL AVL20161126222010411/26/16 22:20:31  5-MIN KAVL 270320Z 36005KT 10SM CLR 02/M04 A3025 1860 61 800 010/05 RMK AO2 T00221044
03812KAVL AVL20161126222510411/26/16 22:25:31  5-MIN KAVL 270325Z 36005KT 10SM CLR 02/M04 A3025 1860 61 800 360/05 RMK AO2 T00221044
03812KAVL AVL20161126223010411/26/16 22:30:31  5-MIN KAVL 270330Z 36006KT 10SM CLR 02/M04 A3025 1860 61 800 010/06 RMK AO2 T00221044
03812KAVL AVL20161126223510411/26/16 22:35:31  5-MIN KAVL 270335Z 36006KT 10SM CLR 02/M04 A3025 1860 61 800 010/06 RMK AO2 T00221044
03812KAVL AVL20161126224010411/26/16 22:40:31  5-MIN KAVL 270340Z 36007KT 10SM CLR 02/M04 A3025 1860 61 800 010/07 RMK AO2 T00221044
03812KAVL AVL20161126224510411/26/16 22:45:31  5-MIN KAVL 270345Z 36006KT 10SM CLR 02/M04 A3025 1870 61 800 010/06 RMK AO2 T00221044
03812KAVL AVL20161126225011111/26/16 22:50:31  5-MIN KAVL 270350Z 36005KT 10SM CLR 02/M04 A3025 1860 61 800 010/05 RMK AO2 SLP247 T00221044
03812KAVL AVL20161126225510411/26/16 22:55:31  5-MIN KAVL 270355Z VRB03KT 10SM CLR 02/M04 A3025 1860 64 700 VRB/03 RMK AO2 T00171044
03812KAVL AVL20161126230010911/26/16 23:00:31  5-MIN KAVL 270400Z AUTO 00000KT 10SM CLR 02/M04 A3025 1860 64 700 000/00 RMK AO2 T00171044
03812KAVL AVL20161126230510911/26/16 23:05:31  5-MIN KAVL 270405Z AUTO 00000KT 10SM CLR 01/M04 A3025 1860 66 700 000/00 RMK AO2 T00111044
03812KAVL AVL20161126231010911/26/16 23:10:31  5-MIN KAVL 270410Z AUTO 00000KT 10SM CLR 01/M04 A3025 1860 66 700 000/00 RMK AO2 T00111044
03812KAVL AVL20161126231510911/26/16 23:15:31  5-MIN KAVL 270415Z AUTO 03003KT 10SM CLR 01/M04 A3025 1860 66 700 040/03 RMK AO2 T00111044
03812KAVL AVL20161126232010911/26/16 23:20:31  5-MIN KAVL 270420Z AUTO 03003KT 10SM CLR 01/M04 A3025 1870 69 600 030/03 RMK AO2 T00061044
03812KAVL AVL20161126232510911/26/16 23:25:31  5-MIN KAVL 270425Z AUTO 01004KT 10SM CLR 01/M04 A3025 1870 69 600 020/04 RMK AO2 T00061044
03812KAVL AVL20161126233010911/26/16 23:30:31  5-MIN KAVL 270430Z AUTO 02004KT 10SM CLR 01/M04 A3024 1870 66 700 030/04 RMK AO2 T00111044
03812KAVL AVL20161126233510911/26/16 23:35:31  5-MIN KAVL 270435Z AUTO 01003KT 10SM CLR 01/M04 A3024 1870 69 600 020/03 RMK AO2 T00061044
03812KAVL AVL20161126234010911/26/16 23:40:31  5-MIN KAVL 270440Z AUTO 00000KT 10SM CLR 00/M04 A3024 1870 72 500 000/00 RMK AO2 T00001044
03812KAVL AVL20161126234510911/26/16 23:45:31  5-MIN KAVL 270445Z AUTO 33003KT 10SM CLR 00/M04 A3024 1870 72 500 330/03 RMK AO2 T00001044
03812KAVL AVL20161126235012711/26/16 23:50:31  5-MIN KAVL 270450Z AUTO 33003KT 10SM CLR M01/M04 A3024 1870 75 500 330/03 RMK AO2 SLP245 T10061044 401061006
03812KAVL AVL20161126235510911/26/16 23:55:31  5-MIN KAVL 270455Z AUTO 32003KT 10SM CLR 00/M05 A3024 1870 69 500 330/03 RMK AO2 T00001050
03812KAVL AVL20161127000010911/27/16 00:00:31  5-MIN KAVL 270500Z AUTO 31003KT 10SM CLR 00/M04 A3024 1870 72 500 310/03 RMK AO2 T00001044
03812KAVL AVL20161127000511011/27/16 00:05:31  5-MIN KAVL 270505Z AUTO 34004KT 10SM CLR M01/M04 A3025 1870 75 500 350/04 RMK AO2 T10061044
03812KAVL AVL20161127001010911/27/16 00:10:31  5-MIN KAVL 270510Z AUTO 33003KT 10SM CLR 00/M04 A3024 1870 72 500 340/03 RMK AO2 T00001044
03812KAVL AVL20161127001511011/27/16 00:15:31  5-MIN KAVL 270515Z AUTO 00000KT 10SM CLR M01/M05 A3025 1870 75 400 000/00 RMK AO2 T10111050
03812KAVL AVL20161127002011011/27/16 00:20:31  5-MIN KAVL 270520Z AUTO 00000KT 10SM CLR M01/M04 A3025 1860 75 500 000/00 RMK AO2 T10061044
03812KAVL AVL20161127002511011/27/16 00:25:31  5-MIN KAVL 270525Z AUTO 00000KT 10SM CLR M01/M05 A3025 1870 72 500 000/00 RMK AO2 T10061050
03812KAVL AVL20161127003011011/27/16 00:30:31  5-MIN KAVL 270530Z AUTO 00000KT 10SM CLR M01/M05 A3025 1870 72 500 000/00 RMK AO2 T10061050
03812KAVL AVL20161127003511011/27/16 00:35:31  5-MIN KAVL 270535Z AUTO 00000KT 10SM CLR M01/M05 A3025 1860 72 500 000/00 RMK AO2 T10061050
03812KAVL AVL20161127004011011/27/16 00:40:31  5-MIN KAVL 270540Z AUTO 24003KT 10SM CLR M01/M05 A3025 1860 75 400 250/03 RMK AO2 T10111050
03812KAVL AVL20161127004511011/27/16 00:45:31  5-MIN KAVL 270545Z AUTO 00000KT 10SM CLR M02/M06 A3025 1860 78 300 000/00 RMK AO2 T10221056
03812KAVL AVL20161127005013511/27/16 00:50:31  5-MIN KAVL 270550Z AUTO 00000KT 10SM CLR M02/M06 A3025 1860 75 300 000/00 RMK AO2 SLP249 T10171056 10044 21022 50000
03812KAVL AVL20161127005511011/27/16 00:55:31  5-MIN KAVL 270555Z AUTO 00000KT 10SM CLR M02/M06 A3025 1870 75 300 000/00 RMK AO2 T10171056
03812KAVL AVL20161127010011011/27/16 01:00:31  5-MIN KAVL 270600Z AUTO 00000KT 10SM CLR M02/M06 A3025 1870 75 300 000/00 RMK AO2 T10171056
03812KAVL AVL20161127010511011/27/16 01:05:31  5-MIN KAVL 270605Z AUTO 00000KT 10SM CLR M02/M06 A3025 1870 75 300 000/00 RMK AO2 T10171056
03812KAVL AVL20161127011011011/27/16 01:10:31  5-MIN KAVL 270610Z AUTO 00000KT 10SM CLR M02/M06 A3024 1870 72 300 000/00 RMK AO2 T10171061
03812KAVL AVL20161127011511011/27/16 01:15:31  5-MIN KAVL 270615Z AUTO 00000KT 10SM CLR M02/M06 A3024 1870 72 300 000/00 RMK AO2 T10171061
03812KAVL AVL20161127012011011/27/16 01:20:31  5-MIN KAVL 270620Z AUTO 00000KT 10SM CLR M02/M06 A3024 1870 78 300 000/00 RMK AO2 T10221056
03812KAVL AVL20161127012511011/27/16 01:25:31  5-MIN KAVL 270625Z AUTO 00000KT 10SM CLR M03/M06 A3024 1870 78 200 000/00 RMK AO2 T10281061
03812KAVL AVL20161127013011011/27/16 01:30:31  5-MIN KAVL 270630Z AUTO 00000KT 10SM CLR M03/M06 A3024 1870 78 200 000/00 RMK AO2 T10281061
03812KAVL AVL20161127013511011/27/16 01:35:31  5-MIN KAVL 270635Z AUTO 24003KT 10SM CLR M03/M06 A3025 1870 81 100 240/03 RMK AO2 T10331061
03812KAVL AVL20161127014011011/27/16 01:40:31  5-MIN KAVL 270640Z AUTO 25003KT 10SM CLR M03/M06 A3025 1870 81 100 260/03 RMK AO2 T10331061
03812KAVL AVL20161127014511011/27/16 01:45:31  5-MIN KAVL 270645Z AUTO 00000KT 10SM CLR M03/M06 A3025 1870 81 100 000/00 RMK AO2 T10331061
03812KAVL AVL20161127015011711/27/16 01:50:31  5-MIN KAVL 270650Z AUTO 00000KT 10SM CLR M03/M06 A3025 1870 85 100 000/00 RMK AO2 SLP248 T10331056
03812KAVL AVL20161127015511011/27/16 01:55:31  5-MIN KAVL 270655Z AUTO 00000KT 10SM CLR M03/M06 A3025 1870 85 100 000/00 RMK AO2 T10331056
03812KAVL AVL20161127020011011/27/16 02:00:31  5-MIN KAVL 270700Z AUTO 00000KT 10SM CLR M03/M06 A3025 1870 81 200 000/00 RMK AO2 T10281056
03812KAVL AVL20161127020511011/27/16 02:05:31  5-MIN KAVL 270705Z AUTO 00000KT 10SM CLR M03/M06 A3025 1870 81 100 000/00 RMK AO2 T10331061
03812KAVL AVL20161127021010811/27/16 02:10:31  5-MIN KAVL 270710Z AUTO 00000KT 10SM CLR M04/M07 A3025 1870 81 0 000/00 RMK AO2 T10391067
03812KAVL AVL20161127021511011/27/16 02:15:31  5-MIN KAVL 270715Z AUTO 00000KT 10SM CLR M03/M06 A3025 1870 78 200 000/00 RMK AO2 T10281061
03812KAVL AVL20161127022011011/27/16 02:20:31  5-MIN KAVL 270720Z AUTO 00000KT 10SM CLR M03/M06 A3025 1870 78 200 000/00 RMK AO2 T10281061
03812KAVL AVL20161127022511011/27/16 02:25:31  5-MIN KAVL 270725Z AUTO 00000KT 10SM CLR M03/M06 A3025 1870 78 200 000/00 RMK AO2 T10281061
03812KAVL AVL20161127023011011/27/16 02:30:31  5-MIN KAVL 270730Z AUTO 00000KT 10SM CLR M03/M06 A3025 1860 81 100 000/00 RMK AO2 T10331061
03812KAVL AVL20161127023510811/27/16 02:35:31  5-MIN KAVL 270735Z AUTO 00000KT 10SM CLR M04/M07 A3025 1860 81 0 000/00 RMK AO2 T10391067
03812KAVL AVL20161127024011011/27/16 02:40:31  5-MIN KAVL 270740Z AUTO 00000KT 10SM CLR M03/M06 A3025 1860 81 100 000/00 RMK AO2 T10331061
03812KAVL AVL20161127024511011/27/16 02:45:31  5-MIN KAVL 270745Z AUTO 00000KT 10SM CLR M03/M06 A3025 1860 81 100 000/00 RMK AO2 T10331061
03812KAVL AVL20161127025011511/27/16 02:50:31  5-MIN KAVL 270750Z AUTO 00000KT 10SM CLR M04/M06 A3025 1860 85 0 000/00 RMK AO2 SLP250 T10391061
03812KAVL AVL20161127025510811/27/16 02:55:31  5-MIN KAVL 270755Z AUTO 00000KT 10SM CLR M04/M07 A3025 1860 81 0 000/00 RMK AO2 T10391067
03812KAVL AVL20161127030011011/27/16 03:00:31  5-MIN KAVL 270800Z AUTO 00000KT 10SM CLR M03/M07 A3025 1860 78 100 000/00 RMK AO2 T10331067
03812KAVL AVL20161127030510811/27/16 03:05:31  5-MIN KAVL 270805Z AUTO 00000KT 10SM CLR M04/M07 A3026 1860 81 0 000/00 RMK AO2 T10391067
03812KAVL AVL20161127031010811/27/16 03:10:31  5-MIN KAVL 270810Z AUTO 00000KT 10SM CLR M04/M07 A3026 1860 81 0 000/00 RMK AO2 T10391067
03812KAVL AVL20161127031511011/27/16 03:15:31  5-MIN KAVL 270815Z AUTO 00000KT 10SM CLR M03/M07 A3025 1860 74 100 000/00 RMK AO2 T10331072
03812KAVL AVL20161127032011011/27/16 03:20:31  5-MIN KAVL 270820Z AUTO 00000KT 10SM CLR M03/M07 A3026 1860 78 100 000/00 RMK AO2 T10331067
03812KAVL AVL20161127032510811/27/16 03:25:31  5-MIN KAVL 270825Z AUTO 00000KT 10SM CLR M04/M07 A3025 1860 78 0 000/00 RMK AO2 T10391072
03812KAVL AVL20161127033010811/27/16 03:30:31  5-MIN KAVL 270830Z AUTO 00000KT 10SM CLR M04/M07 A3025 1860 81 0 000/00 RMK AO2 T10391067
03812KAVL AVL20161127033510811/27/16 03:35:31  5-MIN KAVL 270835Z AUTO 00000KT 10SM CLR M04/M07 A3025 1860 78 0 000/00 RMK AO2 T10391072
03812KAVL AVL20161127034011011/27/16 03:40:31  5-MIN KAVL 270840Z AUTO 00000KT 10SM CLR M03/M07 A3025 1860 74 100 000/00 RMK AO2 T10331072
03812KAVL AVL20161127034511011/27/16 03:45:31  5-MIN KAVL 270845Z AUTO 00000KT 10SM CLR M03/M07 A3025 1860 74 100 000/00 RMK AO2 T10331072
03812KAVL AVL20161127035012311/27/16 03:50:31  5-MIN KAVL 270850Z AUTO 00000KT 10SM CLR M03/M07 A3025 1860 78 100 000/00 RMK AO2 SLP250 T10331067 55004
03812KAVL AVL20161127035510811/27/16 03:55:31  5-MIN KAVL 270855Z AUTO 00000KT 10SM CLR M04/M07 A3025 1860 78 0 000/00 RMK AO2 T10391072
03812KAVL AVL20161127040010811/27/16 04:00:31  5-MIN KAVL 270900Z AUTO 00000KT 10SM CLR M04/M07 A3025 1860 81 0 000/00 RMK AO2 T10441072
03812KAVL AVL20161127040510811/27/16 04:05:31  5-MIN KAVL 270905Z AUTO 00000KT 10SM CLR M04/M07 A3025 1860 81 0 000/00 RMK AO2 T10391067
03812KAVL AVL20161127041010811/27/16 04:10:31  5-MIN KAVL 270910Z AUTO 00000KT 10SM CLR M04/M07 A3025 1860 78 0 000/00 RMK AO2 T10391072
03812KAVL AVL20161127041510811/27/16 04:15:31  5-MIN KAVL 270915Z AUTO 00000KT 10SM CLR M04/M07 A3025 1860 78 0 000/00 RMK AO2 T10391072
03812KAVL AVL20161127042010811/27/16 04:20:31  5-MIN KAVL 270920Z AUTO 00000KT 10SM CLR M04/M07 A3025 1860 81 0 000/00 RMK AO2 T10441072
03812KAVL AVL20161127042511411/27/16 04:25:31  5-MIN KAVL 270925Z AUTO 00000KT 10SM CLR M04/M07 A3025 1860 81 0 000/00 RMK AO2 I1000 T10441072
03812KAVL AVL20161127043011411/27/16 04:30:31  5-MIN KAVL 270930Z AUTO 00000KT 10SM CLR M04/M08 A3025 1860 78 0 000/00 RMK AO2 I1000 T10441078
03812KAVL AVL20161127043511411/27/16 04:35:31  5-MIN KAVL 270935Z AUTO 00000KT 10SM CLR M04/M07 A3025 1860 81 0 000/00 RMK AO2 I1000 T10441072
03812KAVL AVL20161127044011411/27/16 04:40:31  5-MIN KAVL 270940Z AUTO 00000KT 10SM CLR M04/M07 A3025 1860 81 0 000/00 RMK AO2 I1000 T10441072
03812KAVL AVL20161127044511711/27/16 04:45:31  5-MIN KAVL 270945Z AUTO 00000KT 10SM CLR M06/M07 A3026 1860 88 -100 000/00 RMK AO2 I1000 T10561072
03812KAVL AVL20161127045012411/27/16 04:50:31  5-MIN KAVL 270950Z AUTO 00000KT 10SM CLR M06/M07 A3026 1860 88 -100 000/00 RMK AO2 SLP254 I1000 T10561072
03812KAVL AVL20161127045511711/27/16 04:55:31  5-MIN KAVL 270955Z AUTO 00000KT 10SM CLR M05/M07 A3026 1860 84 -100 000/00 RMK AO2 I1000 T10501072
03812KAVL AVL20161127050011111/27/16 05:00:31  5-MIN KAVL 271000Z AUTO 00000KT 10SM CLR M05/M07 A3026 1860 84 -100 000/00 RMK AO2 T10501072
03812KAVL AVL20161127050511111/27/16 05:05:31  5-MIN KAVL 271005Z AUTO 00000KT 10SM CLR M05/M08 A3026 1860 81 -100 000/00 RMK AO2 T10501078
03812KAVL AVL20161127051011111/27/16 05:10:31  5-MIN KAVL 271010Z AUTO 00000KT 10SM CLR M05/M08 A3026 1860 81 -100 000/00 RMK AO2 T10501078
03812KAVL AVL20161127051511111/27/16 05:15:31  5-MIN KAVL 271015Z AUTO 00000KT 10SM CLR M05/M08 A3025 1860 81 -100 000/00 RMK AO2 T10501078
03812KAVL AVL20161127052010811/27/16 05:20:31  5-MIN KAVL 271020Z AUTO 00000KT 10SM CLR M04/M07 A3025 1860 81 0 000/00 RMK AO2 T10441072
03812KAVL AVL20161127052511411/27/16 05:25:31  5-MIN KAVL 271025Z AUTO 00000KT 10SM CLR M04/M07 A3025 1860 81 0 000/00 RMK AO2 I1000 T10441072
03812KAVL AVL20161127053011411/27/16 05:30:31  5-MIN KAVL 271030Z AUTO 00000KT 10SM CLR M04/M07 A3025 1860 81 0 000/00 RMK AO2 I1000 T10441072
03812KAVL AVL20161127053511711/27/16 05:35:31  5-MIN KAVL 271035Z AUTO 00000KT 10SM CLR M05/M08 A3026 1860 81 -100 000/00 RMK AO2 I1000 T10501078
03812KAVL AVL20161127054011711/27/16 05:40:31  5-MIN KAVL 271040Z AUTO 00000KT 10SM CLR M06/M08 A3025 1860 84 -100 000/00 RMK AO2 I1000 T10561078
03812KAVL AVL20161127054511711/27/16 05:45:31  5-MIN KAVL 271045Z AUTO 22003KT 10SM CLR M06/M08 A3026 1860 84 -100 230/03 RMK AO2 I1000 T10561078
03812KAVL AVL20161127055012411/27/16 05:50:31  5-MIN KAVL 271050Z AUTO 00000KT 10SM CLR M06/M08 A3026 1860 84 -100 000/00 RMK AO2 SLP258 I1000 T10561078
03812KAVL AVL20161127055511711/27/16 05:55:31  5-MIN KAVL 271055Z AUTO 00000KT 10SM CLR M06/M08 A3026 1860 84 -100 000/00 RMK AO2 I1000 T10561078
03812KAVL AVL20161127060011111/27/16 06:00:31  5-MIN KAVL 271100Z AUTO 00000KT 10SM CLR M06/M08 A3026 1850 84 -100 000/00 RMK AO2 T10561078
03812KAVL AVL20161127060511111/27/16 06:05:31  5-MIN KAVL 271105Z AUTO 00000KT 10SM CLR M06/M08 A3026 1850 81 -100 000/00 RMK AO2 T10561083
03812KAVL AVL20161127061011111/27/16 06:10:31  5-MIN KAVL 271110Z AUTO 00000KT 10SM CLR M06/M08 A3027 1850 81 -100 000/00 RMK AO2 T10561083
03812KAVL AVL20161127061511111/27/16 06:15:31  5-MIN KAVL 271115Z AUTO 00000KT 10SM CLR M06/M08 A3027 1850 81 -100 000/00 RMK AO2 T10561083
03812KAVL AVL20161127062011111/27/16 06:20:31  5-MIN KAVL 271120Z AUTO 00000KT 10SM CLR M05/M08 A3027 1850 77 -100 000/00 RMK AO2 T10501083
03812KAVL AVL20161127062511211/27/16 06:25:31  5-MIN KAVL 271125Z 00000KT 10SM CLR M06/M08 A3027 1850 84 -100 000/00 RMK AO2 I1000 T10561078
03812KAVL AVL20161127063011211/27/16 06:30:31  5-MIN KAVL 271130Z 00000KT 10SM CLR M06/M08 A3027 1850 84 -100 000/00 RMK AO2 I1000 T10561078
03812KAVL AVL20161127063511211/27/16 06:35:31  5-MIN KAVL 271135Z 00000KT 10SM CLR M06/M08 A3027 1850 81 -100 000/00 RMK AO2 I1000 T10561083
03812KAVL AVL20161127064011211/27/16 06:40:31  5-MIN KAVL 271140Z 00000KT 10SM CLR M06/M08 A3027 1840 81 -100 000/00 RMK AO2 I1000 T10561083
03812KAVL AVL20161127064511211/27/16 06:45:31  5-MIN KAVL 271145Z 00000KT 10SM CLR M06/M08 A3027 1840 81 -100 000/00 RMK AO2 I1000 T10561083
03812KAVL AVL20161127065014311/27/16 06:50:31  5-MIN KAVL 271150Z 00000KT 10SM CLR M06/M08 A3027 1840 81 -100 000/00 RMK AO2 SLP264 I1000 I6000 T10561083 11017 21061 52001
03812KAVL AVL20161127065511211/27/16 06:55:31  5-MIN KAVL 271155Z 00000KT 10SM CLR M06/M08 A3028 1840 81 -200 000/00 RMK AO2 I1000 T10561083
03812KAVL AVL20161127070010611/27/16 07:00:31  5-MIN KAVL 271200Z 00000KT 10SM CLR M05/M08 A3028 1840 77 -100 000/00 RMK AO2 T10501083
03812KAVL AVL20161127070510611/27/16 07:05:31  5-MIN KAVL 271205Z 00000KT 10SM CLR M05/M08 A3028 1840 77 -100 000/00 RMK AO2 T10501083
03812KAVL AVL20161127071010611/27/16 07:10:31  5-MIN KAVL 271210Z 00000KT 10SM CLR M06/M08 A3028 1840 84 -200 000/00 RMK AO2 T10561078
03812KAVL AVL20161127071511211/27/16 07:15:31  5-MIN KAVL 271215Z 00000KT 10SM CLR M06/M08 A3028 1840 84 -200 000/00 RMK AO2 I1000 T10561078
03812KAVL AVL20161127072011211/27/16 07:20:31  5-MIN KAVL 271220Z 00000KT 10SM CLR M06/M08 A3027 1840 88 -200 000/00 RMK AO2 I1000 T10611078
03812KAVL AVL20161127072511211/27/16 07:25:31  5-MIN KAVL 271225Z 00000KT 10SM CLR M06/M08 A3027 1840 84 -100 000/00 RMK AO2 I1000 T10561078
03812KAVL AVL20161127073011211/27/16 07:30:31  5-MIN KAVL 271230Z 00000KT 10SM CLR M06/M08 A3027 1850 84 -100 000/00 RMK AO2 I1000 T10561078
03812KAVL AVL20161127073511211/27/16 07:35:31  5-MIN KAVL 271235Z 00000KT 10SM CLR M06/M08 A3027 1850 81 -100 000/00 RMK AO2 I1000 T10561083
03812KAVL AVL20161127074011211/27/16 07:40:31  5-MIN KAVL 271240Z 00000KT 10SM CLR M06/M08 A3027 1850 81 -100 000/00 RMK AO2 I1000 T10561083
03812KAVL AVL20161127074511211/27/16 07:45:31  5-MIN KAVL 271245Z 00000KT 10SM CLR M06/M08 A3027 1850 84 -100 000/00 RMK AO2 I1000 T10561078
03812KAVL AVL20161127075011911/27/16 07:50:31  5-MIN KAVL 271250Z 00000KT 10SM CLR M06/M08 A3027 1850 84 -100 000/00 RMK AO2 SLP262 I1000 T10561078
03812KAVL AVL20161127075511211/27/16 07:55:31  5-MIN KAVL 271255Z 00000KT 10SM CLR M06/M08 A3027 1850 84 -100 000/00 RMK AO2 I1000 T10561078
03812KAVL AVL20161127080010611/27/16 08:00:31  5-MIN KAVL 271300Z 00000KT 10SM CLR M06/M08 A3027 1850 84 -100 000/00 RMK AO2 T10561078
03812KAVL AVL20161127080510611/27/16 08:05:31  5-MIN KAVL 271305Z 00000KT 10SM CLR M06/M07 A3027 1840 88 -100 000/00 RMK AO2 T10561072
03812KAVL AVL20161127081010611/27/16 08:10:31  5-MIN KAVL 271310Z 00000KT 10SM CLR M06/M07 A3027 1840 88 -100 000/00 RMK AO2 T10561072
03812KAVL AVL20161127081510611/27/16 08:15:31  5-MIN KAVL 271315Z 00000KT 10SM CLR M05/M07 A3027 1840 88 -100 000/00 RMK AO2 T10501067
03812KAVL AVL20161127082010611/27/16 08:20:31  5-MIN KAVL 271320Z 00000KT 10SM CLR M05/M07 A3027 1840 88 -100 000/00 RMK AO2 T10501067
03812KAVL AVL20161127082510311/27/16 08:25:31  5-MIN KAVL 271325Z 00000KT 10SM CLR M04/M07 A3027 1840 84 0 000/00 RMK AO2 T10441067
03812KAVL AVL20161127083010311/27/16 08:30:31  5-MIN KAVL 271330Z 00000KT 10SM CLR M04/M06 A3028 1840 85 0 000/00 RMK AO2 T10391061
03812KAVL AVL20161127083510511/27/16 08:35:31  5-MIN KAVL 271335Z 00000KT 10SM CLR M03/M06 A3028 1840 81 100 000/00 RMK AO2 T10331061
03812KAVL AVL20161127084010511/27/16 08:40:31  5-MIN KAVL 271340Z 00000KT 10SM CLR M03/M06 A3028 1840 81 100 000/00 RMK AO2 T10331061
03812KAVL AVL20161127084510511/27/16 08:45:31  5-MIN KAVL 271345Z 00000KT 10SM CLR M03/M06 A3028 1840 78 100 000/00 RMK AO2 T10281061
03812KAVL AVL20161127085011211/27/16 08:50:31  5-MIN KAVL 271350Z 00000KT 10SM CLR M02/M06 A3028 1840 75 200 000/00 RMK AO2 SLP264 T10221061
03812KAVL AVL20161127085510511/27/16 08:55:31  5-MIN KAVL 271355Z 00000KT 10SM CLR M02/M07 A3028 1840 72 200 000/00 RMK AO2 T10221067
03812KAVL AVL20161127090010511/27/16 09:00:31  5-MIN KAVL 271400Z 00000KT 10SM CLR M02/M06 A3028 1840 72 300 000/00 RMK AO2 T10171061
03812KAVL AVL20161127090510511/27/16 09:05:31  5-MIN KAVL 271405Z 00000KT 10SM CLR M02/M06 A3028 1830 75 300 000/00 RMK AO2 T10171056
03812KAVL AVL20161127091010511/27/16 09:10:31  5-MIN KAVL 271410Z 00000KT 10SM CLR M02/M06 A3028 1830 75 300 000/00 RMK AO2 T10171056
03812KAVL AVL20161127091510511/27/16 09:15:31  5-MIN KAVL 271415Z 00000KT 10SM CLR M01/M06 A3028 1830 72 400 000/00 RMK AO2 T10111056
03812KAVL AVL20161127092010511/27/16 09:20:31  5-MIN KAVL 271420Z 00000KT 10SM CLR M01/M06 A3028 1840 72 400 000/00 RMK AO2 T10111056
03812KAVL AVL20161127092510511/27/16 09:25:31  5-MIN KAVL 271425Z 00000KT 10SM CLR M01/M06 A3028 1840 72 400 000/00 RMK AO2 T10111056
03812KAVL AVL20161127093010511/27/16 09:30:31  5-MIN KAVL 271430Z 00000KT 10SM CLR M01/M06 A3028 1840 69 400 000/00 RMK AO2 T10061056
03812KAVL AVL20161127093510511/27/16 09:35:31  5-MIN KAVL 271435Z 00000KT 10SM CLR M01/M05 A3027 1850 72 400 000/00 RMK AO2 T10061050
03812KAVL AVL20161127094010411/27/16 09:40:31  5-MIN KAVL 271440Z 00000KT 10SM CLR 00/M05 A3026 1850 69 500 000/00 RMK AO2 T00001050
03812KAVL AVL20161127094510411/27/16 09:45:31  5-MIN KAVL 271445Z 00000KT 10SM CLR 01/M05 A3026 1850 66 600 000/00 RMK AO2 T00061050
03812KAVL AVL20161127095012311/27/16 09:50:31  5-MIN KAVL 271450Z 00000KT 10SM CLR 01/M05 A3026 1860 66 600 000/00 RMK AO2 SLP255 I3/// T00061050 53008
03812KAVL AVL20161127095510411/27/16 09:55:31  5-MIN KAVL 271455Z 00000KT 10SM CLR 01/M05 A3026 1860 64 700 000/00 RMK AO2 T00111050
03812KAVL AVL20161127100010411/27/16 10:00:31  5-MIN KAVL 271500Z 00000KT 10SM CLR 01/M05 A3026 1850 64 700 000/00 RMK AO2 T00111050
03812KAVL AVL20161127100510411/27/16 10:05:31  5-MIN KAVL 271505Z 21003KT 10SM CLR 02/M05 A3027 1850 61 700 210/03 RMK AO2 T00171050
03812KAVL AVL20161127101010411/27/16 10:10:31  5-MIN KAVL 271510Z 19004KT 10SM CLR 02/M05 A3027 1850 61 700 190/04 RMK AO2 T00171050
03812KAVL AVL20161127101510411/27/16 10:15:31  5-MIN KAVL 271515Z 00000KT 10SM CLR 02/M06 A3026 1850 56 800 000/00 RMK AO2 T00221056
03812KAVL AVL20161127102010411/27/16 10:20:31  5-MIN KAVL 271520Z 00000KT 10SM CLR 02/M06 A3026 1850 56 800 000/00 RMK AO2 T00221056
03812KAVL AVL20161127102510411/27/16 10:25:31  5-MIN KAVL 271525Z 00000KT 10SM CLR 02/M06 A3026 1850 56 800 000/00 RMK AO2 T00221056
03812KAVL AVL20161127103010411/27/16 10:30:31  5-MIN KAVL 271530Z VRB03KT 10SM CLR 03/M06 A3026 1850 54 900 VRB/03 RMK AO2 T00281056
03812KAVL AVL20161127103510411/27/16 10:35:31  5-MIN KAVL 271535Z 16003KT 10SM CLR 03/M06 A3026 1850 54 900 170/03 RMK AO2 T00281056
03812KAVL AVL20161127104010411/27/16 10:40:31  5-MIN KAVL 271540Z VRB03KT 10SM CLR 03/M05 A3026 1850 54 900 VRB/03 RMK AO2 T00331050
03812KAVL AVL20161127104510511/27/16 10:45:31  5-MIN KAVL 271545Z 00000KT 10SM CLR 04/M05 A3026 1850 52 1000 000/00 RMK AO2 T00391050
03812KAVL AVL20161127105011211/27/16 10:50:31  5-MIN KAVL 271550Z 00000KT 10SM CLR 04/M05 A3026 1860 52 1000 000/00 RMK AO2 SLP252 T00391050
03812KAVL AVL20161127105510511/27/16 10:55:31  5-MIN KAVL 271555Z 16003KT 10SM CLR 04/M05 A3026 1860 50 1100 170/03 RMK AO2 T00441050
03812KAVL AVL20161127110010511/27/16 11:00:31  5-MIN KAVL 271600Z VRB03KT 10SM CLR 05/M05 A3026 1860 48 1100 VRB/03 RMK AO2 T00501050
03812KAVL AVL20161127110510511/27/16 11:05:31  5-MIN KAVL 271605Z 17005KT 10SM CLR 05/M05 A3025 1860 48 1100 170/05 RMK AO2 T00501050
03812KAVL AVL20161127111010511/27/16 11:10:31  5-MIN KAVL 271610Z 16005KT 10SM CLR 06/M05 A3025 1860 46 1200 160/05 RMK AO2 T00561050
03812KAVL AVL20161127111510511/27/16 11:15:31  5-MIN KAVL 271615Z 16005KT 10SM CLR 06/M05 A3025 1870 45 1300 160/05 RMK AO2 T00611050
03812KAVL AVL20161127112010511/27/16 11:20:31  5-MIN KAVL 271620Z 19005KT 10SM CLR 06/M05 A3024 1870 45 1300 190/05 RMK AO2 T00611050
03812KAVL AVL20161127112510511/27/16 11:25:31  5-MIN KAVL 271625Z VRB05KT 10SM CLR 07/M04 A3024 1870 45 1400 VRB/05 RMK AO2 T00671044
03812KAVL AVL20161127113010511/27/16 11:30:31  5-MIN KAVL 271630Z 19005KT 10SM CLR 07/M05 A3024 1870 43 1400 190/05 RMK AO2 T00671050
03812KAVL AVL20161127113510511/27/16 11:35:31  5-MIN KAVL 271635Z 19007KT 10SM CLR 08/M05 A3024 1880 40 1500 190/07 RMK AO2 T00781050
03812KAVL AVL20161127114010511/27/16 11:40:31  5-MIN KAVL 271640Z 17005KT 10SM CLR 08/M05 A3023 1880 40 1500 170/05 RMK AO2 T00781050
03812KAVL AVL20161127114510511/27/16 11:45:31  5-MIN KAVL 271645Z VRB05KT 10SM CLR 08/M05 A3023 1880 40 1500 VRB/05 RMK AO2 T00781050
03812KAVL AVL20161127115011211/27/16 11:50:31  5-MIN KAVL 271650Z 14005KT 10SM CLR 08/M05 A3023 1880 40 1500 150/05 RMK AO2 SLP242 T00781050
03812KAVL AVL20161127115510411/27/16 11:55:31  5-MIN KAVL 271655Z 15006KT 8SM CLR 08/M05 A3023 1880 38 1600 160/06 RMK AO2 T00831050
03812KAVL AVL20161127120010411/27/16 12:00:31  5-MIN KAVL 271700Z VRB03KT 7SM CLR 08/M05 A3023 1880 38 1600 VRB/03 RMK AO2 T00831050
03812KAVL AVL20161127120510411/27/16 12:05:31  5-MIN KAVL 271705Z 16005KT 7SM CLR 08/M05 A3023 1880 38 1600 170/05 RMK AO2 T00831050
03812KAVL AVL20161127121010711/27/16 12:10:31  5-MIN KAVL 271710Z 16004KT 6SM HZ CLR 09/M05 A3023 1880 37 1600 160/04 RMK AO2 T00891050
03812KAVL AVL20161127121510711/27/16 12:15:31  5-MIN KAVL 271715Z 15006KT 6SM HZ CLR 09/M05 A3023 1880 37 1600 160/06 RMK AO2 T00891050
03812KAVL AVL20161127122010711/27/16 12:20:31  5-MIN KAVL 271720Z VRB04KT 5SM HZ CLR 09/M05 A3023 1890 37 1600 VRB/04 RMK AO2 T00891050
03812KAVL AVL20161127122510711/27/16 12:25:31  5-MIN KAVL 271725Z 16005KT 5SM HZ CLR 09/M06 A3022 1890 35 1600 170/05 RMK AO2 T00891056
03812KAVL AVL20161127123010711/27/16 12:30:31  5-MIN KAVL 271730Z VRB03KT 5SM FU CLR 09/M06 A3022 1890 34 1700 VRB/03 RMK AO2 T00941056
03812KAVL AVL20161127123510711/27/16 12:35:31  5-MIN KAVL 271735Z 00000KT 3SM FU CLR 09/M06 A3021 1900 34 1700 000/00 RMK AO2 T00941056
03812KAVL AVL20161127124010711/27/16 12:40:31  5-MIN KAVL 271740Z VRB03KT 3SM FU CLR 10/M06 A3021 1900 33 1800 VRB/03 RMK AO2 T01001056
03812KAVL AVL20161127124510711/27/16 12:45:31  5-MIN KAVL 271745Z 15006KT 3SM FU CLR 11/M06 A3021 1900 31 1900 160/06 RMK AO2 T01061056
03812KAVL AVL20161127125013811/27/16 12:50:31  5-MIN KAVL 271750Z 19005KT 3SM FU CLR 10/M06 A3020 1910 33 1800 200/05 RMK AO2 SLP232 I6000 T01001056 10106 21061 58005
03812KAVL AVL20161127125510711/27/16 12:55:31  5-MIN KAVL 271755Z 20003KT 3SM FU CLR 10/M06 A3020 1910 33 1800 210/03 RMK AO2 T01001056
03812KAVL AVL20161127130010711/27/16 13:00:31  5-MIN KAVL 271800Z 17004KT 3SM FU CLR 10/M06 A3020 1910 33 1800 180/04 RMK AO2 T01001056
03812KAVL AVL20161127130510711/27/16 13:05:31  5-MIN KAVL 271805Z 19005KT 3SM FU CLR 11/M06 A3020 1910 31 1900 200/05 RMK AO2 T01061056
03812KAVL AVL20161127131010711/27/16 13:10:31  5-MIN KAVL 271810Z 17005KT 3SM FU CLR 11/M06 A3020 1910 31 1900 180/05 RMK AO2 T01061056
03812KAVL AVL20161127131510711/27/16 13:15:31  5-MIN KAVL 271815Z 19007KT 3SM FU CLR 11/M06 A3020 1910 31 1900 190/07 RMK AO2 T01061056
03812KAVL AVL20161127132011111/27/16 13:20:31  5-MIN KAVL 271820Z 20005KT 2 1/2SM FU CLR 11/M06 A3019 1920 30 1900 210/05 RMK AO2 T01111056
03812KAVL AVL20161127132511111/27/16 13:25:31  5-MIN KAVL 271825Z 19005KT 2 1/2SM FU CLR 11/M06 A3019 1920 30 1900 190/05 RMK AO2 T01111056
03812KAVL AVL20161127133010711/27/16 13:30:31  5-MIN KAVL 271830Z 14005KT 3SM FU CLR 11/M05 A3019 1920 33 1900 140/05 RMK AO2 T01061050
03812KAVL AVL20161127133510711/27/16 13:35:31  5-MIN KAVL 271835Z 14004KT 3SM FU CLR 11/M05 A3018 1930 32 2000 140/04 RMK AO2 T01111050
03812KAVL AVL20161127134010711/27/16 13:40:31  5-MIN KAVL 271840Z 16005KT 3SM FU CLR 11/M05 A3018 1930 32 2000 160/05 RMK AO2 T01111050
03812KAVL AVL20161127134511111/27/16 13:45:31  5-MIN KAVL 271845Z 17004KT 2 1/2SM FU CLR 11/M05 A3018 1930 32 2000 180/04 RMK AO2 T01111050
03812KAVL AVL20161127135011811/27/16 13:50:31  5-MIN KAVL 271850Z 20004KT 2 1/2SM FU CLR 11/M05 A3018 1930 32 2000 200/04 RMK AO2 SLP224 T01111050
03812KAVL AVL20161127135510711/27/16 13:55:31  5-MIN KAVL 271855Z 15003KT 3SM FU CLR 12/M05 A3018 1930 30 2000 150/03 RMK AO2 T01171050
03812KAVL AVL20161127140011111/27/16 14:00:31  5-MIN KAVL 271900Z 12004KT 2 1/2SM FU CLR 11/M05 A3018 1930 32 2000 130/04 RMK AO2 T01111050
03812KAVL AVL20161127140511111/27/16 14:05:31  5-MIN KAVL 271905Z 15004KT 2 1/2SM FU CLR 11/M06 A3017 1930 30 2000 160/04 RMK AO2 T01111056
03812KAVL AVL20161127141011111/27/16 14:10:31  5-MIN KAVL 271910Z VRB04KT 2 1/2SM FU CLR 12/M06 A3017 1940 29 2000 VRB/04 RMK AO2 T01171056
03812KAVL AVL20161127141511111/27/16 14:15:31  5-MIN KAVL 271915Z 18004KT 2 1/2SM FU CLR 12/M06 A3017 1940 29 2000 190/04 RMK AO2 T01171056
03812KAVL AVL20161127142011111/27/16 14:20:31  5-MIN KAVL 271920Z 18004KT 2 1/2SM FU CLR 12/M05 A3017 1940 30 2000 190/04 RMK AO2 T01171050
03812KAVL AVL20161127142511111/27/16 14:25:31  5-MIN KAVL 271925Z 15003KT 2 1/2SM FU CLR 12/M05 A3017 1940 30 2000 150/03 RMK AO2 T01171050
03812KAVL AVL20161127143011111/27/16 14:30:31  5-MIN KAVL 271930Z 15006KT 2 1/2SM FU CLR 12/M05 A3016 1940 30 2000 160/06 RMK AO2 T01171050
03812KAVL AVL20161127143511111/27/16 14:35:31  5-MIN KAVL 271935Z 15007KT 2 1/2SM FU CLR 12/M05 A3016 1950 30 2000 160/07 RMK AO2 T01171050
03812KAVL AVL20161127144011111/27/16 14:40:31  5-MIN KAVL 271940Z 16005KT 2 1/2SM FU CLR 12/M05 A3016 1950 30 2000 160/05 RMK AO2 T01171050
03812KAVL AVL20161127144511111/27/16 14:45:31  5-MIN KAVL 271945Z VRB04KT 2 1/2SM FU CLR 12/M05 A3016 1950 30 2000 VRB/04 RMK AO2 T01171050
03812KAVL AVL20161127145011811/27/16 14:50:31  5-MIN KAVL 271950Z VRB04KT 2 1/2SM FU CLR 12/M05 A3016 1950 30 2000 VRB/04 RMK AO2 SLP218 T01171050
03812KAVL AVL20161127145510711/27/16 14:55:31  5-MIN KAVL 271955Z 14005KT 4SM FU CLR 12/M06 A3016 1950 29 2000 150/05 RMK AO2 T01171056
03812KAVL AVL20161127150010711/27/16 15:00:31  5-MIN KAVL 272000Z 16005KT 4SM FU CLR 12/M05 A3016 1950 30 2000 170/05 RMK AO2 T01171050
03812KAVL AVL20161127150512111/27/16 15:05:31  5-MIN KAVL 272005Z 17006KT 2 1/2SM FU CLR 12/M06 A3016 1950 29 2100 170/06 RMK AO2 SFC VIS 4 T01171056
03812KAVL AVL20161127151011111/27/16 15:10:31  5-MIN KAVL 272010Z 14005KT 2 1/2SM FU CLR 12/M06 A3016 1950 29 2000 150/05 RMK AO2 T01171056
03812KAVL AVL20161127151511111/27/16 15:15:31  5-MIN KAVL 272015Z 16005KT 2 1/2SM FU CLR 12/M06 A3016 1950 29 2000 160/05 RMK AO2 T01171056
03812KAVL AVL20161127152011111/27/16 15:20:31  5-MIN KAVL 272020Z 17005KT 2 1/2SM FU CLR 12/M06 A3016 1950 29 2000 170/05 RMK AO2 T01171056
03812KAVL AVL20161127152511111/27/16 15:25:31  5-MIN KAVL 272025Z 15006KT 2 1/2SM FU CLR 11/M06 A3016 1950 30 2000 160/06 RMK AO2 T01111056
03812KAVL AVL20161127153011111/27/16 15:30:31  5-MIN KAVL 272030Z 16006KT 2 1/2SM FU CLR 11/M06 A3016 1950 30 2000 170/06 RMK AO2 T01111056
03812KAVL AVL20161127153511111/27/16 15:35:31  5-MIN KAVL 272035Z 13005KT 2 1/2SM FU CLR 11/M06 A3016 1950 30 2000 140/05 RMK AO2 T01111056
03812KAVL AVL20161127154011111/27/16 15:40:31  5-MIN KAVL 272040Z 13005KT 2 1/2SM FU CLR 12/M06 A3016 1950 29 2000 130/05 RMK AO2 T01171056
03812KAVL AVL20161127154511111/27/16 15:45:31  5-MIN KAVL 272045Z 12006KT 2 1/2SM FU CLR 11/M06 A3016 1950 30 2000 120/06 RMK AO2 T01111056
03812KAVL AVL20161127155012411/27/16 15:50:31  5-MIN KAVL 272050Z 13006KT 2 1/2SM FU CLR 11/M05 A3016 1950 32 2000 130/06 RMK AO2 SLP218 T01111050 58018
03812KAVL AVL20161127155510711/27/16 15:55:31  5-MIN KAVL 272055Z 14005KT 5SM FU CLR 11/M05 A3016 1950 32 2000 140/05 RMK AO2 T01111050
03812KAVL AVL20161127160011111/27/16 16:00:31  5-MIN KAVL 272100Z 13005KT 2 1/2SM FU CLR 11/M05 A3016 1950 32 2000 140/05 RMK AO2 T01111050
03812KAVL AVL20161127160511111/27/16 16:05:31  5-MIN KAVL 272105Z 13005KT 2 1/2SM FU CLR 11/M05 A3016 1950 33 1900 130/05 RMK AO2 T01061050
03812KAVL AVL20161127161011111/27/16 16:10:31  5-MIN KAVL 272110Z 15004KT 2 1/2SM FU CLR 11/M05 A3016 1950 33 1900 150/04 RMK AO2 T01061050
03812KAVL AVL20161127161511111/27/16 16:15:31  5-MIN KAVL 272115Z 13004KT 2 1/2SM FU CLR 11/M04 A3016 1950 34 1900 140/04 RMK AO2 T01061044
03812KAVL AVL20161127162011111/27/16 16:20:31  5-MIN KAVL 272120Z VRB05KT 2 1/2SM FU CLR 11/M04 A3016 1950 34 1900 VRB/05 RMK AO2 T01061044
03812KAVL AVL20161127162511111/27/16 16:25:31  5-MIN KAVL 272125Z 14007KT 2 1/2SM FU CLR 11/M04 A3016 1950 34 1900 150/07 RMK AO2 T01061044
03812KAVL AVL20161127163011111/27/16 16:30:31  5-MIN KAVL 272130Z 14007KT 2 1/2SM FU CLR 10/M04 A3016 1940 36 1800 150/07 RMK AO2 T01001044
03812KAVL AVL20161127163511111/27/16 16:35:31  5-MIN KAVL 272135Z 13005KT 2 1/2SM FU CLR 10/M04 A3016 1940 36 1800 140/05 RMK AO2 T01001044
03812KAVL AVL20161127164011111/27/16 16:40:31  5-MIN KAVL 272140Z 13004KT 2 1/2SM FU CLR 10/M04 A3016 1950 36 1800 140/04 RMK AO2 T01001044
03812KAVL AVL20161127164511111/27/16 16:45:31  5-MIN KAVL 272145Z 14003KT 2 1/2SM FU CLR 10/M04 A3016 1950 36 1900 150/03 RMK AO2 T01001044
03812KAVL AVL20161127165011811/27/16 16:50:31  5-MIN KAVL 272150Z 14003KT 2 1/2SM FU CLR 10/M04 A3016 1950 36 1900 150/03 RMK AO2 SLP219 T01001044
03812KAVL AVL20161127165510711/27/16 16:55:31  5-MIN KAVL 272155Z 14006KT 6SM FU CLR 09/M04 A3016 1950 37 1800 150/06 RMK AO2 T00941044
03812KAVL AVL20161127170011111/27/16 17:00:31  5-MIN KAVL 272200Z VRB04KT 2 1/2SM FU CLR 09/M04 A3016 1950 37 1800 VRB/04 RMK AO2 T00941044
03812KAVL AVL20161127170511111/27/16 17:05:31  5-MIN KAVL 272205Z 15005KT 2 1/2SM FU CLR 09/M05 A3016 1950 35 1800 150/05 RMK AO2 T00941050
03812KAVL AVL20161127171010711/27/16 17:10:31  5-MIN KAVL 272210Z 16006KT 4SM FU CLR 09/M04 A3016 1940 38 1700 170/06 RMK AO2 T00891044
03812KAVL AVL20161127171510711/27/16 17:15:31  5-MIN KAVL 272215Z 16005KT 4SM FU CLR 09/M04 A3016 1940 38 1700 170/05 RMK AO2 T00891044
03812KAVL AVL20161127172010711/27/16 17:20:31  5-MIN KAVL 272220Z 18005KT 4SM FU CLR 08/M04 A3017 1940 40 1600 180/05 RMK AO2 T00831044
03812KAVL AVL20161127172510711/27/16 17:25:31  5-MIN KAVL 272225Z 15006KT 4SM FU CLR 08/M04 A3017 1940 40 1600 160/06 RMK AO2 T00831044
03812KAVL AVL20161127173010711/27/16 17:30:31  5-MIN KAVL 272230Z 15006KT 4SM FU CLR 08/M04 A3017 1940 40 1600 150/06 RMK AO2 T00831044
03812KAVL AVL20161127173510711/27/16 17:35:31  5-MIN KAVL 272235Z 16005KT 4SM FU CLR 08/M04 A3016 1940 40 1600 160/05 RMK AO2 T00831044
03812KAVL AVL20161127174010711/27/16 17:40:31  5-MIN KAVL 272240Z 13005KT 4SM FU CLR 08/M04 A3016 1940 40 1600 140/05 RMK AO2 T00831044
03812KAVL AVL20161127174510711/27/16 17:45:31  5-MIN KAVL 272245Z 16005KT 4SM FU CLR 08/M04 A3017 1940 40 1600 170/05 RMK AO2 T00831044
03812KAVL AVL20161127175011411/27/16 17:50:31  5-MIN KAVL 272250Z 16006KT 4SM FU CLR 08/M04 A3016 1940 43 1600 170/06 RMK AO2 SLP223 T00781039
03812KAVL AVL20161127175510711/27/16 17:55:31  5-MIN KAVL 272255Z 15007KT 8SM FU CLR 08/M04 A3017 1940 43 1600 150/07 RMK AO2 T00781039
03812KAVL AVL20161127180010711/27/16 18:00:31  5-MIN KAVL 272300Z VRB06KT 8SM FU CLR 08/M04 A3017 1940 41 1600 VRB/06 RMK AO2 T00781044
03812KAVL AVL20161127180510711/27/16 18:05:31  5-MIN KAVL 272305Z 15006KT 9SM FU CLR 08/M04 A3016 1940 41 1600 150/06 RMK AO2 T00781044
03812KAVL AVL20161127181010711/27/16 18:10:31  5-MIN KAVL 272310Z 14004KT 9SM FU CLR 08/M04 A3016 1940 41 1600 140/04 RMK AO2 T00781044
03812KAVL AVL20161127181510811/27/16 18:15:31  5-MIN KAVL 272315Z 13005KT 10SM FU CLR 08/M04 A3016 1950 41 1600 130/05 RMK AO2 T00781044
03812KAVL AVL20161127182010811/27/16 18:20:31  5-MIN KAVL 272320Z 13004KT 10SM FU CLR 08/M04 A3016 1950 41 1600 140/04 RMK AO2 T00781044
03812KAVL AVL20161127182510811/27/16 18:25:31  5-MIN KAVL 272325Z 14004KT 10SM FU CLR 07/M04 A3017 1940 43 1500 150/04 RMK AO2 T00721044
03812KAVL AVL20161127183010811/27/16 18:30:31  5-MIN KAVL 272330Z 15005KT 10SM FU CLR 08/M04 A3016 1940 41 1600 160/05 RMK AO2 T00781044
03812KAVL AVL20161127183510811/27/16 18:35:31  5-MIN KAVL 272335Z 18006KT 10SM FU CLR 07/M04 A3016 1940 45 1500 180/06 RMK AO2 T00721039
03812KAVL AVL20161127184010811/27/16 18:40:31  5-MIN KAVL 272340Z 17005KT 10SM FU CLR 07/M04 A3017 1940 47 1400 170/05 RMK AO2 T00671039
03812KAVL AVL20161127184510811/27/16 18:45:31  5-MIN KAVL 272345Z 16004KT 10SM FU CLR 06/M04 A3017 1940 48 1400 160/04 RMK AO2 T00611039
03812KAVL AVL20161127185013311/27/16 18:50:31  5-MIN KAVL 272350Z 15004KT 10SM FU CLR 06/M04 A3017 1940 48 1400 150/04 RMK AO2 SLP225 T00611039 10117 20061 56006
03812KAVL AVL20161127185510811/27/16 18:55:31  5-MIN KAVL 272355Z 16004KT 10SM FU CLR 06/M04 A3017 1940 48 1400 160/04 RMK AO2 T00611039
03812KAVL AVL20161127190011011/27/16 19:00:31  5-MIN KAVL 280000Z 16004KT 5SM FU FEW022 06/M04 A3016 1940 48 1400 170/04 RMK AO2 T00611039
03812KAVL AVL20161127190511011/27/16 19:05:31  5-MIN KAVL 280005Z 16004KT 5SM FU FEW022 06/M04 A3016 1940 50 1300 170/04 RMK AO2 T00561039
03812KAVL AVL20161127191010711/27/16 19:10:31  5-MIN KAVL 280010Z 17004KT 5SM FU CLR 06/M04 A3017 1940 50 1300 170/04 RMK AO2 T00561039
03812KAVL AVL20161127191510711/27/16 19:15:31  5-MIN KAVL 280015Z 17003KT 5SM FU CLR 06/M04 A3016 1940 50 1300 170/03 RMK AO2 T00561039
03812KAVL AVL20161127192010711/27/16 19:20:31  5-MIN KAVL 280020Z 16003KT 5SM FU CLR 06/M04 A3017 1940 50 1300 160/03 RMK AO2 T00561039
03812KAVL AVL20161127192510711/27/16 19:25:31  5-MIN KAVL 280025Z 00000KT 5SM FU CLR 06/M04 A3017 1940 50 1300 000/00 RMK AO2 T00561039
03812KAVL AVL20161127193010711/27/16 19:30:31  5-MIN KAVL 280030Z 00000KT 5SM FU CLR 06/M04 A3017 1940 50 1300 000/00 RMK AO2 T00561039
03812KAVL AVL20161127193511011/27/16 19:35:31  5-MIN KAVL 280035Z 16003KT 5SM FU FEW018 06/M04 A3017 1940 50 1300 170/03 RMK AO2 T00561039
03812KAVL AVL20161127194011011/27/16 19:40:31  5-MIN KAVL 280040Z 16004KT 5SM FU SCT018 05/M04 A3017 1940 52 1200 160/04 RMK AO2 T00501039
03812KAVL AVL20161127194511011/27/16 19:45:31  5-MIN KAVL 280045Z 15003KT 5SM FU BKN018 04/M04 A3017 1940 55 1200 150/03 RMK AO2 T00441039
03812KAVL AVL20161127195010011/27/16 19:50:31  5-MIN KAVL 280050Z 14004KT 5SM FU BKN018 05/M04 A3017 1940 52 1200 150/04 RMK AO2
03812KAVL AVL20161127195511011/27/16 19:55:31  5-MIN KAVL 280055Z 14004KT 5SM FU SCT018 05/M04 A3016 1950 52 1200 150/04 RMK AO2 T00501039
03812KAVL AVL20161127200011011/27/16 20:00:31  5-MIN KAVL 280100Z 16003KT 5SM FU SCT018 05/M04 A3016 1950 52 1200 170/03 RMK AO2 T00501039
03812KAVL AVL20161127200511011/27/16 20:05:31  5-MIN KAVL 280105Z 17004KT 5SM FU FEW018 04/M04 A3016 1940 57 1100 170/04 RMK AO2 T00391039
03812KAVL AVL20161127201011011/27/16 20:10:31  5-MIN KAVL 280110Z 15003KT 5SM FU FEW018 04/M04 A3016 1940 57 1100 150/03 RMK AO2 T00391039
03812KAVL AVL20161127201510711/27/16 20:15:31  5-MIN KAVL 280115Z 00000KT 5SM FU CLR 04/M04 A3016 1940 57 1100 000/00 RMK AO2 T00391039
03812KAVL AVL20161127202010711/27/16 20:20:31  5-MIN KAVL 280120Z 00000KT 5SM FU CLR 04/M04 A3016 1950 57 1100 000/00 RMK AO2 T00391039
03812KAVL AVL20161127202510711/27/16 20:25:31  5-MIN KAVL 280125Z 17003KT 5SM FU CLR 04/M04 A3016 1950 57 1100 170/03 RMK AO2 T00391039
03812KAVL AVL20161127203010711/27/16 20:30:31  5-MIN KAVL 280130Z 17004KT 5SM FU CLR 03/M04 A3017 1940 59 1000 180/04 RMK AO2 T00331039
03812KAVL AVL20161127203510711/27/16 20:35:31  5-MIN KAVL 280135Z 00000KT 5SM FU CLR 03/M04 A3016 1950 59 1000 000/00 RMK AO2 T00331039
03812KAVL AVL20161127204010711/27/16 20:40:31  5-MIN KAVL 280140Z 00000KT 5SM FU CLR 03/M04 A3016 1940 59 1000 000/00 RMK AO2 T00331039
03812KAVL AVL20161127204510711/27/16 20:45:31  5-MIN KAVL 280145Z 16003KT 5SM FU CLR 03/M04 A3017 1940 59 1000 170/03 RMK AO2 T00331039
03812KAVL AVL20161127205011411/27/16 20:50:31  5-MIN KAVL 280150Z 00000KT 5SM FU CLR 03/M04 A3017 1940 59 1000 000/00 RMK AO2 SLP225 T00331039
03812KAVL AVL20161127205510811/27/16 20:55:31  5-MIN KAVL 280155Z 00000KT 10SM FU CLR 03/M04 A3016 1940 59 1000 000/00 RMK AO2 T00331039
03812KAVL AVL20161127210010711/27/16 21:00:31  5-MIN KAVL 280200Z 00000KT 5SM FU CLR 03/M04 A3017 1940 61 1000 000/00 RMK AO2 T00281039
03812KAVL AVL20161127210510711/27/16 21:05:31  5-MIN KAVL 280205Z 12003KT 5SM FU CLR 03/M04 A3016 1940 61 1000 130/03 RMK AO2 T00281039
03812KAVL AVL20161127211010711/27/16 21:10:31  5-MIN KAVL 280210Z 12003KT 5SM FU CLR 03/M04 A3016 1940 59 1000 120/03 RMK AO2 T00331039
03812KAVL AVL20161127211510711/27/16 21:15:31  5-MIN KAVL 280215Z 00000KT 5SM FU CLR 03/M04 A3016 1940 59 1000 000/00 RMK AO2 T00331039
03812KAVL AVL20161127212010711/27/16 21:20:31  5-MIN KAVL 280220Z 16003KT 5SM FU CLR 03/M04 A3017 1940 61 1000 160/03 RMK AO2 T00281039
03812KAVL AVL20161127212510611/27/16 21:25:31  5-MIN KAVL 280225Z 13003KT 5SM FU CLR 02/M04 A3017 1940 64 900 130/03 RMK AO2 T00221039
03812KAVL AVL20161127213010711/27/16 21:30:31  5-MIN KAVL 280230Z 14003KT 5SM FU CLR 03/M04 A3017 1940 61 1000 140/03 RMK AO2 T00281039
03812KAVL AVL20161127213510711/27/16 21:35:31  5-MIN KAVL 280235Z 14003KT 5SM FU CLR 03/M04 A3017 1940 61 1000 140/03 RMK AO2 T00281039
03812KAVL AVL20161127214010711/27/16 21:40:31  5-MIN KAVL 280240Z 13003KT 5SM FU CLR 03/M04 A3016 1940 61 1000 140/03 RMK AO2 T00281039
03812KAVL AVL20161127214510711/27/16 21:45:31  5-MIN KAVL 280245Z 16003KT 5SM FU CLR 03/M04 A3017 1940 61 1000 170/03 RMK AO2 T00281039
03812KAVL AVL20161127215011911/27/16 21:50:31  5-MIN KAVL 280250Z 13003KT 5SM FU CLR 02/M03 A3017 1940 67 900 130/03 RMK AO2 SLP224 T00221033 53001
03812KAVL AVL20161127215510611/27/16 21:55:31  5-MIN KAVL 280255Z 13003KT 7SM FU CLR 02/M03 A3017 1940 67 900 140/03 RMK AO2 T00221033
03812KAVL AVL20161127220010411/27/16 22:00:31  5-MIN KAVL 280300Z 13003KT 10SM CLR 02/M03 A3017 1940 67 900 130/03 RMK AO2 T00221033
03812KAVL AVL20161127220510411/27/16 22:05:31  5-MIN KAVL 280305Z 14004KT 10SM CLR 02/M03 A3017 1940 67 900 150/04 RMK AO2 T00221033
03812KAVL AVL20161127221010411/27/16 22:10:31  5-MIN KAVL 280310Z 16003KT 10SM CLR 02/M03 A3017 1940 67 900 160/03 RMK AO2 T00221033
03812KAVL AVL20161127221510411/27/16 22:15:31  5-MIN KAVL 280315Z 14003KT 10SM CLR 02/M03 A3017 1940 67 900 140/03 RMK AO2 T00221033
03812KAVL AVL20161127222010411/27/16 22:20:31  5-MIN KAVL 280320Z 00000KT 10SM CLR 02/M04 A3017 1930 64 900 000/00 RMK AO2 T00221039
03812KAVL AVL20161127222510411/27/16 22:25:31  5-MIN KAVL 280325Z 00000KT 10SM CLR 02/M04 A3017 1940 66 800 000/00 RMK AO2 T00171039
03812KAVL AVL20161127223010411/27/16 22:30:31  5-MIN KAVL 280330Z 00000KT 10SM CLR 02/M04 A3017 1940 66 800 000/00 RMK AO2 T00171039
03812KAVL AVL20161127223510411/27/16 22:35:31  5-MIN KAVL 280335Z 00000KT 10SM CLR 02/M04 A3017 1930 66 800 000/00 RMK AO2 T00171039
03812KAVL AVL20161127224010411/27/16 22:40:31  5-MIN KAVL 280340Z 00000KT 10SM CLR 01/M04 A3017 1930 69 800 000/00 RMK AO2 T00111039
03812KAVL AVL20161127224510911/27/16 22:45:31  5-MIN KAVL 280345Z AUTO 00000KT 10SM CLR 02/M04 A3018 1930 66 800 000/00 RMK AO2 T00171039
03812KAVL AVL20161127225011611/27/16 22:50:31  5-MIN KAVL 280350Z AUTO 00000KT 10SM CLR 02/M04 A3018 1930 66 800 000/00 RMK AO2 SLP226 T00171039
03812KAVL AVL20161127225510311/27/16 22:55:31  5-MIN KAVL 280355Z 00000KT 6SM CLR 02/M04 A3018 1930 66 800 000/00 RMK AO2 T00171039
03812KAVL AVL20161127230010811/27/16 23:00:31  5-MIN KAVL 280400Z AUTO 00000KT 6SM CLR 02/M04 A3018 1930 66 800 000/00 RMK AO2 T00171039
03812KAVL AVL20161127230510811/27/16 23:05:31  5-MIN KAVL 280405Z AUTO 12003KT 6SM CLR 02/M03 A3017 1930 69 800 130/03 RMK AO2 T00171033
03812KAVL AVL20161127231010811/27/16 23:10:31  5-MIN KAVL 280410Z AUTO 00000KT 6SM CLR 02/M03 A3018 1930 69 800 000/00 RMK AO2 T00171033
03812KAVL AVL20161127231510811/27/16 23:15:31  5-MIN KAVL 280415Z AUTO 00000KT 6SM CLR 02/M03 A3018 1930 69 800 000/00 RMK AO2 T00171033
03812KAVL AVL20161127232010811/27/16 23:20:31  5-MIN KAVL 280420Z AUTO 15003KT 7SM CLR 02/M03 A3018 1930 69 800 150/03 RMK AO2 T00171033
03812KAVL AVL20161127232510811/27/16 23:25:31  5-MIN KAVL 280425Z AUTO 13004KT 7SM CLR 02/M03 A3018 1930 69 800 140/04 RMK AO2 T00171033
03812KAVL AVL20161127233010811/27/16 23:30:31  5-MIN KAVL 280430Z AUTO 13003KT 7SM CLR 02/M03 A3018 1930 69 800 140/03 RMK AO2 T00171033
03812KAVL AVL20161127233510811/27/16 23:35:31  5-MIN KAVL 280435Z AUTO 13003KT 7SM CLR 02/M03 A3017 1930 69 800 130/03 RMK AO2 T00171033
03812KAVL AVL20161127234010811/27/16 23:40:31  5-MIN KAVL 280440Z AUTO 13003KT 7SM CLR 02/M03 A3017 1940 69 800 130/03 RMK AO2 T00171033
03812KAVL AVL20161127234510811/27/16 23:45:31  5-MIN KAVL 280445Z AUTO 14004KT 7SM CLR 02/M03 A3017 1940 69 800 150/04 RMK AO2 T00171033
03812KAVL AVL20161127235012511/27/16 23:50:31  5-MIN KAVL 280450Z AUTO 14004KT 7SM CLR 02/M03 A3016 1940 69 800 150/04 RMK AO2 SLP217 T00171033 401171061
03812KAVL AVL20161127235510811/27/16 23:55:31  5-MIN KAVL 280455Z AUTO 15005KT 7SM CLR 02/M03 A3016 1940 69 800 160/05 RMK AO2 T00171033
03812KAVL AVL20161128000010811/28/16 00:00:31  5-MIN KAVL 280500Z AUTO 16004KT 7SM CLR 01/M03 A3016 1940 72 800 160/04 RMK AO2 T00111033
03812KAVL AVL20161128000510811/28/16 00:05:31  5-MIN KAVL 280505Z AUTO 14003KT 7SM CLR 01/M03 A3016 1950 72 800 150/03 RMK AO2 T00111033
03812KAVL AVL20161128001010811/28/16 00:10:31  5-MIN KAVL 280510Z AUTO 14003KT 7SM CLR 01/M03 A3016 1950 72 800 150/03 RMK AO2 T00111033
03812KAVL AVL20161128001510811/28/16 00:15:31  5-MIN KAVL 280515Z AUTO 15003KT 7SM CLR 01/M03 A3016 1950 72 800 160/03 RMK AO2 T00111033
03812KAVL AVL20161128002010811/28/16 00:20:31  5-MIN KAVL 280520Z AUTO VRB03KT 7SM CLR 01/M03 A3016 1950 72 800 VRB/03 RMK AO2 T00111033
03812KAVL AVL20161128002510811/28/16 00:25:31  5-MIN KAVL 280525Z AUTO 14003KT 7SM CLR 02/M03 A3016 1950 69 800 150/03 RMK AO2 T00171033
03812KAVL AVL20161128003010811/28/16 00:30:31  5-MIN KAVL 280530Z AUTO 14003KT 7SM CLR 02/M03 A3016 1950 69 800 150/03 RMK AO2 T00171033
03812KAVL AVL20161128003510811/28/16 00:35:31  5-MIN KAVL 280535Z AUTO 15003KT 7SM CLR 02/M03 A3016 1950 69 800 150/03 RMK AO2 T00171033
03812KAVL AVL20161128004010811/28/16 00:40:31  5-MIN KAVL 280540Z AUTO 14003KT 7SM CLR 02/M03 A3016 1950 69 800 150/03 RMK AO2 T00171033
03812KAVL AVL20161128004510811/28/16 00:45:31  5-MIN KAVL 280545Z AUTO 14004KT 7SM CLR 02/M03 A3016 1950 69 800 150/04 RMK AO2 T00171033
03812KAVL AVL20161128005013311/28/16 00:50:31  5-MIN KAVL 280550Z AUTO 15004KT 7SM CLR 02/M03 A3016 1950 69 800 150/04 RMK AO2 SLP212 T00171033 10061 20011 53001
03812KAVL AVL20161128005510811/28/16 00:55:31  5-MIN KAVL 280555Z AUTO 15004KT 7SM CLR 02/M03 A3016 1950 69 800 160/04 RMK AO2 T00171033
03812KAVL AVL20161128010010811/28/16 01:00:31  5-MIN KAVL 280600Z AUTO 16004KT 7SM CLR 02/M03 A3015 1950 69 800 170/04 RMK AO2 T00171033
03812KAVL AVL20161128010510811/28/16 01:05:31  5-MIN KAVL 280605Z AUTO 15003KT 8SM CLR 02/M03 A3015 1950 69 800 160/03 RMK AO2 T00171033
03812KAVL AVL20161128011010811/28/16 01:10:31  5-MIN KAVL 280610Z AUTO 00000KT 8SM CLR 02/M03 A3015 1950 69 800 000/00 RMK AO2 T00171033
03812KAVL AVL20161128011510811/28/16 01:15:31  5-MIN KAVL 280615Z AUTO 16003KT 8SM CLR 02/M03 A3015 1950 69 800 160/03 RMK AO2 T00171033
03812KAVL AVL20161128012010811/28/16 01:20:31  5-MIN KAVL 280620Z AUTO 16003KT 8SM CLR 02/M03 A3015 1950 69 800 160/03 RMK AO2 T00171033
03812KAVL AVL20161128012510811/28/16 01:25:31  5-MIN KAVL 280625Z AUTO 15003KT 8SM CLR 02/M03 A3015 1960 69 800 160/03 RMK AO2 T00171033
03812KAVL AVL20161128013010811/28/16 01:30:31  5-MIN KAVL 280630Z AUTO 16003KT 8SM CLR 02/M03 A3015 1960 67 900 170/03 RMK AO2 T00221033
03812KAVL AVL20161128013510811/28/16 01:35:31  5-MIN KAVL 280635Z AUTO 16003KT 8SM CLR 02/M03 A3015 1960 67 900 170/03 RMK AO2 T00221033
03812KAVL AVL20161128014010811/28/16 01:40:31  5-MIN KAVL 280640Z AUTO 17003KT 8SM CLR 02/M03 A3015 1960 69 900 170/03 RMK AO2 T00171033
03812KAVL AVL20161128014510811/28/16 01:45:31  5-MIN KAVL 280645Z AUTO 00000KT 9SM CLR 02/M03 A3015 1960 67 900 000/00 RMK AO2 T00221033
03812KAVL AVL20161128015011511/28/16 01:50:31  5-MIN KAVL 280650Z AUTO 00000KT 9SM CLR 02/M03 A3015 1950 69 800 000/00 RMK AO2 SLP211 T00171033
03812KAVL AVL20161128015510911/28/16 01:55:31  5-MIN KAVL 280655Z AUTO 00000KT 10SM CLR 02/M03 A3015 1960 67 900 000/00 RMK AO2 T00221033
03812KAVL AVL20161128020010911/28/16 02:00:31  5-MIN KAVL 280700Z AUTO 00000KT 10SM CLR 02/M03 A3015 1960 67 900 000/00 RMK AO2 T00221033
03812KAVL AVL20161128020510911/28/16 02:05:31  5-MIN KAVL 280705Z AUTO VRB03KT 10SM CLR 02/M03 A3014 1960 67 900 VRB/03 RMK AO2 T00221033
03812KAVL AVL20161128021010911/28/16 02:10:31  5-MIN KAVL 280710Z AUTO 00000KT 10SM CLR 02/M03 A3014 1960 67 900 000/00 RMK AO2 T00221033
03812KAVL AVL20161128021510911/28/16 02:15:31  5-MIN KAVL 280715Z AUTO 26003KT 10SM CLR 02/M03 A3015 1960 67 900 270/03 RMK AO2 T00221033
03812KAVL AVL20161128022010911/28/16 02:20:31  5-MIN KAVL 280720Z AUTO 22003KT 10SM CLR 02/M03 A3015 1960 67 900 220/03 RMK AO2 T00221033
03812KAVL AVL20161128022510911/28/16 02:25:31  5-MIN KAVL 280725Z AUTO 20005KT 10SM CLR 02/M03 A3015 1960 67 900 200/05 RMK AO2 T00221033
03812KAVL AVL20161128023010811/28/16 02:30:31  5-MIN KAVL 280730Z AUTO 18004KT 9SM CLR 02/M03 A3015 1960 67 900 180/04 RMK AO2 T00221033
03812KAVL AVL20161128023510911/28/16 02:35:31  5-MIN KAVL 280735Z AUTO 14003KT 9SM CLR 03/M03 A3015 1960 64 1000 150/03 RMK AO2 T00281033
03812KAVL AVL20161128024010911/28/16 02:40:31  5-MIN KAVL 280740Z AUTO 00000KT 9SM CLR 03/M03 A3015 1960 64 1000 000/00 RMK AO2 T00281033
03812KAVL AVL20161128024510911/28/16 02:45:31  5-MIN KAVL 280745Z AUTO 00000KT 9SM CLR 03/M03 A3015 1950 64 1000 000/00 RMK AO2 T00281033
03812KAVL AVL20161128025011711/28/16 02:50:31  5-MIN KAVL 280750Z AUTO 00000KT 10SM CLR 03/M03 A3015 1950 64 1000 000/00 RMK AO2 SLP209 T00281033
03812KAVL AVL20161128025511011/28/16 02:55:31  5-MIN KAVL 280755Z AUTO 00000KT 10SM CLR 03/M03 A3015 1960 64 1000 000/00 RMK AO2 T00281033
03812KAVL AVL20161128030011011/28/16 03:00:31  5-MIN KAVL 280800Z AUTO 00000KT 10SM CLR 03/M03 A3015 1960 64 1000 000/00 RMK AO2 T00281033
03812KAVL AVL20161128030511011/28/16 03:05:31  5-MIN KAVL 280805Z AUTO 00000KT 10SM CLR 03/M03 A3015 1960 64 1000 000/00 RMK AO2 T00281033
03812KAVL AVL20161128031011011/28/16 03:10:31  5-MIN KAVL 280810Z AUTO 00000KT 10SM CLR 03/M03 A3014 1960 64 1000 000/00 RMK AO2 T00281033
03812KAVL AVL20161128031511011/28/16 03:15:31  5-MIN KAVL 280815Z AUTO 00000KT 10SM CLR 03/M03 A3014 1960 61 1100 000/00 RMK AO2 T00331033
03812KAVL AVL20161128032011011/28/16 03:20:31  5-MIN KAVL 280820Z AUTO 22003KT 10SM CLR 03/M03 A3014 1960 67 1000 220/03 RMK AO2 T00281028
03812KAVL AVL20161128032510911/28/16 03:25:31  5-MIN KAVL 280825Z AUTO 00000KT 9SM CLR 03/M03 A3014 1960 67 1000 000/00 RMK AO2 T00281028
03812KAVL AVL20161128033010911/28/16 03:30:31  5-MIN KAVL 280830Z AUTO 00000KT 8SM CLR 03/M03 A3014 1960 67 1000 000/00 RMK AO2 T00281028
03812KAVL AVL20161128033510911/28/16 03:35:31  5-MIN KAVL 280835Z AUTO 24003KT 7SM CLR 03/M03 A3014 1970 67 1000 240/03 RMK AO2 T00281028
03812KAVL AVL20161128034010911/28/16 03:40:31  5-MIN KAVL 280840Z AUTO 00000KT 7SM CLR 03/M03 A3014 1970 67 1000 000/00 RMK AO2 T00281028
03812KAVL AVL20161128034510911/28/16 03:45:31  5-MIN KAVL 280845Z AUTO 00000KT 7SM CLR 03/M03 A3013 1970 67 1000 000/00 RMK AO2 T00281028
03812KAVL AVL20161128035012211/28/16 03:50:31  5-MIN KAVL 280850Z AUTO 00000KT 7SM CLR 03/M03 A3013 1980 67 1000 000/00 RMK AO2 SLP201 T00281028 58004
03812KAVL AVL20161128035510911/28/16 03:55:31  5-MIN KAVL 280855Z AUTO 00000KT 7SM CLR 03/M03 A3013 1980 67 1000 000/00 RMK AO2 T00281028
03812KAVL AVL20161128040010911/28/16 04:00:31  5-MIN KAVL 280900Z AUTO 00000KT 8SM CLR 03/M03 A3013 1970 67 1000 000/00 RMK AO2 T00281028
03812KAVL AVL20161128040510911/28/16 04:05:31  5-MIN KAVL 280905Z AUTO 00000KT 8SM CLR 03/M03 A3013 1970 64 1100 000/00 RMK AO2 T00331028
03812KAVL AVL20161128041010911/28/16 04:10:31  5-MIN KAVL 280910Z AUTO 00000KT 8SM CLR 03/M03 A3014 1970 64 1100 000/00 RMK AO2 T00331028
03812KAVL AVL20161128041510911/28/16 04:15:31  5-MIN KAVL 280915Z AUTO 00000KT 8SM CLR 03/M03 A3014 1960 64 1100 000/00 RMK AO2 T00331028
03812KAVL AVL20161128042010911/28/16 04:20:31  5-MIN KAVL 280920Z AUTO 00000KT 8SM CLR 03/M03 A3014 1960 64 1100 000/00 RMK AO2 T00331028
03812KAVL AVL20161128042510911/28/16 04:25:31  5-MIN KAVL 280925Z AUTO 03003KT 8SM CLR 03/M03 A3014 1960 64 1100 030/03 RMK AO2 T00331028
03812KAVL AVL20161128043010911/28/16 04:30:31  5-MIN KAVL 280930Z AUTO 00000KT 8SM CLR 03/M03 A3014 1960 64 1100 000/00 RMK AO2 T00331028
03812KAVL AVL20161128043510911/28/16 04:35:31  5-MIN KAVL 280935Z AUTO 00000KT 8SM CLR 04/M03 A3014 1960 62 1100 000/00 RMK AO2 T00391028
03812KAVL AVL20161128044010911/28/16 04:40:31  5-MIN KAVL 280940Z AUTO 00000KT 9SM CLR 04/M03 A3014 1960 62 1100 000/00 RMK AO2 T00391028
03812KAVL AVL20161128044510911/28/16 04:45:31  5-MIN KAVL 280945Z AUTO 00000KT 9SM CLR 04/M03 A3014 1970 62 1100 000/00 RMK AO2 T00391028
03812KAVL AVL20161128045011611/28/16 04:50:31  5-MIN KAVL 280950Z AUTO 00000KT 9SM CLR 03/M03 A3013 1970 64 1100 000/00 RMK AO2 SLP204 T00331028
03812KAVL AVL20161128045510911/28/16 04:55:31  5-MIN KAVL 280955Z AUTO 00000KT 9SM CLR 04/M03 A3014 1970 62 1100 000/00 RMK AO2 T00391028
03812KAVL AVL20161128050010911/28/16 05:00:31  5-MIN KAVL 281000Z AUTO 00000KT 9SM CLR 04/M03 A3014 1970 62 1100 000/00 RMK AO2 T00391028
03812KAVL AVL20161128050510911/28/16 05:05:31  5-MIN KAVL 281005Z AUTO 00000KT 9SM CLR 04/M03 A3013 1970 59 1200 000/00 RMK AO2 T00441028
03812KAVL AVL20161128051010911/28/16 05:10:31  5-MIN KAVL 281010Z AUTO 00000KT 9SM CLR 04/M03 A3013 1970 62 1100 000/00 RMK AO2 T00391028
03812KAVL AVL20161128051510911/28/16 05:15:31  5-MIN KAVL 281015Z AUTO 00000KT 9SM CLR 04/M03 A3014 1970 62 1100 000/00 RMK AO2 T00391028
03812KAVL AVL20161128052010911/28/16 05:20:31  5-MIN KAVL 281020Z AUTO 00000KT 9SM CLR 04/M03 A3014 1970 59 1200 000/00 RMK AO2 T00441028
03812KAVL AVL20161128052510911/28/16 05:25:31  5-MIN KAVL 281025Z AUTO 00000KT 9SM CLR 04/M03 A3014 1970 62 1100 000/00 RMK AO2 T00391028
03812KAVL AVL20161128053010911/28/16 05:30:31  5-MIN KAVL 281030Z AUTO 00000KT 9SM CLR 04/M03 A3014 1970 62 1100 000/00 RMK AO2 T00391028
03812KAVL AVL20161128053511011/28/16 05:35:31  5-MIN KAVL 281035Z AUTO 00000KT 10SM CLR 04/M02 A3013 1970 64 1100 000/00 RMK AO2 T00391022
03812KAVL AVL20161128054011011/28/16 05:40:31  5-MIN KAVL 281040Z AUTO 00000KT 10SM CLR 04/M02 A3013 1970 64 1100 000/00 RMK AO2 T00391022
03812KAVL AVL20161128054511011/28/16 05:45:31  5-MIN KAVL 281045Z AUTO 10003KT 10SM CLR 04/M02 A3013 1970 62 1200 100/03 RMK AO2 T00441022
03812KAVL AVL20161128055011611/28/16 05:50:31  5-MIN KAVL 281050Z AUTO 10003KT 9SM CLR 05/M03 A3013 1970 57 1300 110/03 RMK AO2 SLP203 T00501028
03812KAVL AVL20161128055510911/28/16 05:55:31  5-MIN KAVL 281055Z AUTO 11003KT 9SM CLR 05/M03 A3013 1970 57 1300 110/03 RMK AO2 T00501028
03812KAVL AVL20161128060010911/28/16 06:00:31  5-MIN KAVL 281100Z AUTO 00000KT 9SM CLR 05/M03 A3013 1980 57 1300 000/00 RMK AO2 T00501028
03812KAVL AVL20161128060510911/28/16 06:05:31  5-MIN KAVL 281105Z AUTO 12003KT 8SM CLR 05/M03 A3013 1980 57 1300 130/03 RMK AO2 T00501028
03812KAVL AVL20161128061010911/28/16 06:10:31  5-MIN KAVL 281110Z AUTO 00000KT 8SM CLR 05/M03 A3013 1980 57 1300 000/00 RMK AO2 T00501028
03812KAVL AVL20161128061510411/28/16 06:15:31  5-MIN KAVL 281115Z 12003KT 8SM CLR 05/M03 A3012 1980 57 1300 130/03 RMK AO2 T00501028
03812KAVL AVL20161128062010411/28/16 06:20:31  5-MIN KAVL 281120Z 12003KT 8SM CLR 05/M02 A3012 1980 59 1300 120/03 RMK AO2 T00501022
03812KAVL AVL20161128062510411/28/16 06:25:31  5-MIN KAVL 281125Z 00000KT 9SM CLR 05/M02 A3012 1980 59 1300 000/00 RMK AO2 T00501022
03812KAVL AVL20161128063010411/28/16 06:30:31  5-MIN KAVL 281130Z 00000KT 9SM CLR 05/M02 A3012 1980 59 1300 000/00 RMK AO2 T00501022
03812KAVL AVL20161128063510411/28/16 06:35:31  5-MIN KAVL 281135Z 00000KT 9SM CLR 05/M03 A3012 1980 57 1300 000/00 RMK AO2 T00501028
03812KAVL AVL20161128064010411/28/16 06:40:31  5-MIN KAVL 281140Z 14003KT 9SM CLR 05/M02 A3012 1980 59 1300 140/03 RMK AO2 T00501022
03812KAVL AVL20161128064510511/28/16 06:45:31  5-MIN KAVL 281145Z 16003KT 10SM CLR 05/M02 A3012 1980 59 1300 160/03 RMK AO2 T00501022
03812KAVL AVL20161128065013011/28/16 06:50:31  5-MIN KAVL 281150Z 17004KT 10SM CLR 05/M02 A3013 1980 59 1300 170/04 RMK AO2 SLP203 T00501022 10050 20017 58009
03812KAVL AVL20161128065510811/28/16 06:55:31  5-MIN KAVL 281155Z 00000KT 10SM FEW026 04/M02 A3012 1980 62 1200 000/00 RMK AO2 T00441022
03812KAVL AVL20161128070010811/28/16 07:00:31  5-MIN KAVL 281200Z 00000KT 10SM SCT026 05/M02 A3012 1980 59 1300 000/00 RMK AO2 T00501022
03812KAVL AVL20161128070510811/28/16 07:05:31  5-MIN KAVL 281205Z 00000KT 10SM BKN024 05/M02 A3013 1980 59 1300 000/00 RMK AO2 T00501022
03812KAVL AVL20161128071010811/28/16 07:10:31  5-MIN KAVL 281210Z 00000KT 10SM BKN024 06/M02 A3012 1980 57 1400 000/00 RMK AO2 T00561022
03812KAVL AVL20161128071510711/28/16 07:15:31  5-MIN KAVL 281215Z 14005KT 9SM BKN024 06/M02 A3012 1980 55 1400 140/05 RMK AO2 T00611022
03812KAVL AVL20161128072010711/28/16 07:20:31  5-MIN KAVL 281220Z 15006KT 8SM OVC024 06/M02 A3012 1980 55 1400 150/06 RMK AO2 T00611022
03812KAVL AVL20161128072511011/28/16 07:25:31  5-MIN KAVL 281225Z 14004KT 6SM HZ OVC024 06/M03 A3012 1980 53 1400 140/04 RMK AO2 T00611028
03812KAVL AVL20161128073011011/28/16 07:30:31  5-MIN KAVL 281230Z 16005KT 6SM HZ OVC024 06/M03 A3013 1980 53 1400 160/05 RMK AO2 T00611028
03812KAVL AVL20161128073511011/28/16 07:35:31  5-MIN KAVL 281235Z 16005KT 5SM HZ OVC025 06/M03 A3013 1980 53 1400 160/05 RMK AO2 T00611028
03812KAVL AVL20161128074011011/28/16 07:40:31  5-MIN KAVL 281240Z 15005KT 5SM HZ OVC025 07/M03 A3013 1970 51 1500 160/05 RMK AO2 T00671028
03812KAVL AVL20161128074511011/28/16 07:45:31  5-MIN KAVL 281245Z 16006KT 4SM HZ OVC025 06/M03 A3013 1970 53 1400 170/06 RMK AO2 T00611028
03812KAVL AVL20161128075011711/28/16 07:50:31  5-MIN KAVL 281250Z 16003KT 5SM HZ OVC025 06/M03 A3013 1970 53 1400 170/03 RMK AO2 SLP204 T00611028
03812KAVL AVL20161128075511011/28/16 07:55:31  5-MIN KAVL 281255Z 15005KT 5SM HZ OVC024 07/M03 A3013 1980 51 1500 150/05 RMK AO2 T00671028
03812KAVL AVL20161128080011011/28/16 08:00:31  5-MIN KAVL 281300Z 14005KT 5SM HZ OVC024 07/M03 A3013 1970 51 1500 150/05 RMK AO2 T00671028
03812KAVL AVL20161128080511011/28/16 08:05:31  5-MIN KAVL 281305Z 16004KT 6SM HZ OVC024 07/M03 A3013 1980 51 1500 160/04 RMK AO2 T00671028
03812KAVL AVL20161128081011011/28/16 08:10:31  5-MIN KAVL 281310Z 15004KT 6SM HZ OVC024 07/M02 A3013 1980 53 1500 160/04 RMK AO2 T00671022
03812KAVL AVL20161128081511011/28/16 08:15:31  5-MIN KAVL 281315Z 17004KT 6SM HZ OVC024 07/M02 A3013 1980 53 1500 180/04 RMK AO2 T00671022
03812KAVL AVL20161128082011011/28/16 08:20:31  5-MIN KAVL 281320Z 15006KT 6SM HZ OVC022 07/M02 A3012 1980 53 1500 150/06 RMK AO2 T00671022
03812KAVL AVL20161128082511011/28/16 08:25:31  5-MIN KAVL 281325Z 14006KT 6SM HZ OVC022 07/M02 A3013 1980 53 1500 150/06 RMK AO2 T00671022
03812KAVL AVL20161128083011011/28/16 08:30:31  5-MIN KAVL 281330Z 14007KT 6SM FU OVC022 07/M02 A3012 1980 53 1500 150/07 RMK AO2 T00671022
03812KAVL AVL20161128083511011/28/16 08:35:31  5-MIN KAVL 281335Z 14006KT 5SM FU OVC022 07/M02 A3012 1980 53 1500 150/06 RMK AO2 T00671022
03812KAVL AVL20161128084011011/28/16 08:40:31  5-MIN KAVL 281340Z 14006KT 5SM FU OVC021 07/M02 A3012 1980 53 1500 150/06 RMK AO2 T00671022
03812KAVL AVL20161128084511011/28/16 08:45:31  5-MIN KAVL 281345Z 14007KT 5SM FU OVC021 07/M02 A3012 1980 51 1600 150/07 RMK AO2 T00721022
03812KAVL AVL20161128085011711/28/16 08:50:31  5-MIN KAVL 281350Z 17007KT 5SM FU OVC021 07/M02 A3012 1980 51 1600 170/07 RMK AO2 SLP202 T00721022
03812KAVL AVL20161128085511011/28/16 08:55:31  5-MIN KAVL 281355Z 16008KT 4SM FU OVC021 07/M02 A3012 1980 51 1600 160/08 RMK AO2 T00721022
03812KAVL AVL20161128090012611/28/16 09:00:31  5-MIN KAVL 281400Z 14007KT 110V170 4SM FU OVC021 07/M02 A3012 1990 51 1600 150/07 120V180 RMK AO2 T00721022
03812KAVL AVL20161128090511011/28/16 09:05:31  5-MIN KAVL 281405Z 14006KT 4SM FU OVC020 07/M02 A3011 1990 51 1600 140/06 RMK AO2 T00721022
03812KAVL AVL20161128091011011/28/16 09:10:31  5-MIN KAVL 281410Z 14006KT 3SM FU OVC020 07/M02 A3011 1990 51 1600 140/06 RMK AO2 T00721022
03812KAVL AVL20161128091511011/28/16 09:15:31  5-MIN KAVL 281415Z 15005KT 3SM FU OVC020 07/M02 A3011 1990 51 1600 150/05 RMK AO2 T00721022
03812KAVL AVL20161128092011411/28/16 09:20:31  5-MIN KAVL 281420Z 15006KT 2 1/2SM FU OVC020 07/M02 A3011 1990 53 1600 160/06 RMK AO2 T00721017
03812KAVL AVL20161128092511411/28/16 09:25:31  5-MIN KAVL 281425Z 14008KT 2 1/2SM FU OVC021 07/M02 A3011 2000 51 1600 150/08 RMK AO2 T00721022
03812KAVL AVL20161128093011411/28/16 09:30:31  5-MIN KAVL 281430Z 15008KT 2 1/2SM FU OVC021 07/M02 A3011 1990 53 1600 160/08 RMK AO2 T00721017
03812KAVL AVL20161128093511011/28/16 09:35:31  5-MIN KAVL 281435Z 14005KT 3SM FU OVC021 07/M02 A3011 1990 53 1600 140/05 RMK AO2 T00721017
03812KAVL AVL20161128094011011/28/16 09:40:31  5-MIN KAVL 281440Z 15006KT 3SM FU OVC022 08/M02 A3011 1990 49 1600 160/06 RMK AO2 T00781022
03812KAVL AVL20161128094511011/28/16 09:45:31  5-MIN KAVL 281445Z 15008KT 4SM FU OVC022 08/M02 A3012 1990 49 1600 150/08 RMK AO2 T00781022
03812KAVL AVL20161128095012311/28/16 09:50:31  5-MIN KAVL 281450Z 13006KT 7SM FU OVC022 08/M02 A3012 1980 49 1600 130/06 RMK AO2 SLP201 T00781022 58002
03812KAVL AVL20161128095511111/28/16 09:55:31  5-MIN KAVL 281455Z 14007KT 10SM FU OVC022 08/M02 A3012 1980 51 1600 140/07 RMK AO2 T00781017
03812KAVL AVL20161128100011111/28/16 10:00:31  5-MIN KAVL 281500Z 13007KT 10SM FU OVC022 08/M02 A3012 1990 51 1600 140/07 RMK AO2 T00781017
03812KAVL AVL20161128100511011/28/16 10:05:31  5-MIN KAVL 281505Z 13006KT 9SM FU OVC022 08/M02 A3012 1990 51 1600 130/06 RMK AO2 T00781017
03812KAVL AVL20161128101011011/28/16 10:10:31  5-MIN KAVL 281510Z 15007KT 9SM FU OVC023 08/M02 A3012 1980 51 1600 150/07 RMK AO2 T00781017
03812KAVL AVL20161128101511111/28/16 10:15:31  5-MIN KAVL 281515Z 13007KT 10SM FU OVC023 08/M02 A3012 1980 51 1600 140/07 RMK AO2 T00781017
03812KAVL AVL20161128102011111/28/16 10:20:31  5-MIN KAVL 281520Z 13008KT 10SM FU OVC025 08/M02 A3012 1980 51 1600 140/08 RMK AO2 T00781017
03812KAVL AVL20161128102511111/28/16 10:25:31  5-MIN KAVL 281525Z 13008KT 10SM FU OVC025 08/M02 A3012 1980 51 1600 140/08 RMK AO2 T00781017
03812KAVL AVL20161128103011111/28/16 10:30:31  5-MIN KAVL 281530Z 15006KT 10SM FU OVC025 08/M02 A3012 1980 51 1600 160/06 RMK AO2 T00781017
03812KAVL AVL20161128103511111/28/16 10:35:31  5-MIN KAVL 281535Z 16008KT 10SM FU OVC025 08/M02 A3012 1980 49 1700 160/08 RMK AO2 T00831017
03812KAVL AVL20161128104011111/28/16 10:40:31  5-MIN KAVL 281540Z 15008KT 10SM FU OVC025 08/M02 A3012 1980 51 1600 160/08 RMK AO2 T00781017
03812KAVL AVL20161128104511111/28/16 10:45:31  5-MIN KAVL 281545Z 15007KT 10SM FU OVC026 08/M02 A3011 1990 51 1600 160/07 RMK AO2 T00781017
03812KAVL AVL20161128105011811/28/16 10:50:31  5-MIN KAVL 281550Z 13006KT 10SM FU OVC026 08/M02 A3012 1990 49 1700 140/06 RMK AO2 SLP201 T00831017
03812KAVL AVL20161128105511111/28/16 10:55:31  5-MIN KAVL 281555Z 13006KT 10SM FU OVC027 08/M02 A3012 1990 49 1700 140/06 RMK AO2 T00831017
03812KAVL AVL20161128110011111/28/16 11:00:31  5-MIN KAVL 281600Z 14007KT 10SM FU OVC027 08/M01 A3011 1990 51 1700 150/07 RMK AO2 T00831011
03812KAVL AVL20161128110511111/28/16 11:05:31  5-MIN KAVL 281605Z 15007KT 10SM FU OVC027 08/M01 A3011 1990 51 1700 150/07 RMK AO2 T00831011
03812KAVL AVL20161128111011111/28/16 11:10:31  5-MIN KAVL 281610Z 15007KT 10SM FU OVC026 08/M01 A3011 2000 51 1700 160/07 RMK AO2 T00831011
03812KAVL AVL20161128111511111/28/16 11:15:31  5-MIN KAVL 281615Z 15005KT 10SM FU OVC026 08/M01 A3010 2000 51 1700 150/05 RMK AO2 T00831011
03812KAVL AVL20161128112011111/28/16 11:20:31  5-MIN KAVL 281620Z 17006KT 10SM FU OVC024 08/M01 A3011 2000 51 1700 170/06 RMK AO2 T00831011
03812KAVL AVL20161128112511111/28/16 11:25:31  5-MIN KAVL 281625Z 18005KT 10SM FU OVC024 08/M01 A3011 2000 51 1700 180/05 RMK AO2 T00831011
03812KAVL AVL20161128113011111/28/16 11:30:31  5-MIN KAVL 281630Z 14005KT 10SM FU OVC026 08/M01 A3009 2010 51 1700 150/05 RMK AO2 T00831011
03812KAVL AVL20161128113511111/28/16 11:35:31  5-MIN KAVL 281635Z 15006KT 10SM FU OVC026 08/M01 A3008 2020 51 1700 150/06 RMK AO2 T00831011
03812KAVL AVL20161128114011811/28/16 11:40:31  5-MIN KAVL 281640Z 14006KT 10SM FU OVC026 09/M01 A3008 2020 49 1800 150/06 RMK AO2 PRESFR T00891011
03812KAVL AVL20161128114511111/28/16 11:45:31  5-MIN KAVL 281645Z 15007KT 10SM FU OVC026 09/M02 A3007 2030 47 1800 150/07 RMK AO2 T00891017
03812KAVL AVL20161128115011811/28/16 11:50:31  5-MIN KAVL 281650Z 15008KT 10SM FU OVC026 09/M02 A3007 2030 47 1800 160/08 RMK AO2 SLP185 T00891017
03812KAVL AVL20161128115511111/28/16 11:55:31  5-MIN KAVL 281655Z 13010KT 10SM FU OVC026 08/M02 A3007 2030 49 1800 140/10 RMK AO2 T00831017
03812KAVL AVL20161128120011111/28/16 12:00:31  5-MIN KAVL 281700Z 16009KT 10SM FU OVC026 08/M02 A3007 2030 49 1800 170/09 RMK AO2 T00831017
03812KAVL AVL20161128120511111/28/16 12:05:31  5-MIN KAVL 281705Z 13007KT 10SM FU OVC026 08/M02 A3007 2030 47 1800 140/07 RMK AO2 T00831022
03812KAVL AVL20161128121011111/28/16 12:10:31  5-MIN KAVL 281710Z 13005KT 10SM FU OVC025 08/M02 A3007 2030 47 1800 140/05 RMK AO2 T00831022
03812KAVL AVL20161128121511111/28/16 12:15:31  5-MIN KAVL 281715Z VRB06KT 10SM FU OVC025 09/M02 A3006 2040 45 1800 VRB/06 RMK AO2 T00891022
03812KAVL AVL20161128122011111/28/16 12:20:31  5-MIN KAVL 281720Z 12007KT 10SM FU OVC025 09/M02 A3005 2040 45 1800 130/07 RMK AO2 T00891022
03812KAVL AVL20161128122511111/28/16 12:25:31  5-MIN KAVL 281725Z 14007KT 10SM FU OVC025 09/M02 A3005 2050 47 1800 150/07 RMK AO2 T00891017
03812KAVL AVL20161128123011111/28/16 12:30:31  5-MIN KAVL 281730Z 13006KT 10SM FU OVC025 09/M02 A3005 2050 47 1800 140/06 RMK AO2 T00891017
03812KAVL AVL20161128123511111/28/16 12:35:31  5-MIN KAVL 281735Z 12007KT 10SM FU OVC024 09/M02 A3005 2050 47 1800 130/07 RMK AO2 T00891017
03812KAVL AVL20161128124011111/28/16 12:40:31  5-MIN KAVL 281740Z 12007KT 10SM FU OVC024 09/M02 A3004 2050 47 1800 120/07 RMK AO2 T00891017
03812KAVL AVL20161128124511111/28/16 12:45:31  5-MIN KAVL 281745Z 12008KT 10SM FU OVC024 09/M02 A3004 2060 47 1900 130/08 RMK AO2 T00891017
03812KAVL AVL20161128125013611/28/16 12:50:31  5-MIN KAVL 281750Z 14008KT 10SM FU OVC024 09/M02 A3004 2050 47 1900 140/08 RMK AO2 SLP174 T00891017 10089 20044 50000
03812KAVL AVL20161128125511111/28/16 12:55:31  5-MIN KAVL 281755Z 14005KT 10SM FU OVC024 09/M02 A3004 2060 47 1900 140/05 RMK AO2 T00891017
03812KAVL AVL20161128130011111/28/16 13:00:31  5-MIN KAVL 281800Z 14006KT 10SM FU OVC024 09/M02 A3004 2060 47 1900 140/06 RMK AO2 T00891017
03812KAVL AVL20161128130511111/28/16 13:05:31  5-MIN KAVL 281805Z 15007KT 10SM FU OVC024 09/M02 A3003 2060 47 1900 160/07 RMK AO2 T00891017
03812KAVL AVL20161128131011811/28/16 13:10:31  5-MIN KAVL 281810Z 15006KT 10SM FU BKN024 OVC048 09/M02 A3002 2070 47 1900 160/06 RMK AO2 T00891017
03812KAVL AVL20161128131511811/28/16 13:15:31  5-MIN KAVL 281815Z VRB04KT 10SM FU BKN024 BKN048 09/M02 A3002 2070 47 1900 VRB/04 RMK AO2 T00891017
03812KAVL AVL20161128132011111/28/16 13:20:31  5-MIN KAVL 281820Z 15008KT 10SM FU BKN024 09/M01 A3002 2070 47 1900 160/08 RMK AO2 T00941011
03812KAVL AVL20161128132512511/28/16 13:25:31  5-MIN KAVL 281825Z 16008KT 10SM FU BKN024 BKN029 OVC046 09/M01 A3002 2070 47 1900 160/08 RMK AO2 T00941011
03812KAVL AVL20161128133012511/28/16 13:30:31  5-MIN KAVL 281830Z 16007KT 10SM FU BKN024 BKN033 OVC046 09/M01 A3002 2070 49 1900 170/07 RMK AO2 T00941006
03812KAVL AVL20161128133512511/28/16 13:35:31  5-MIN KAVL 281835Z 16008KT 10SM FU BKN024 BKN033 OVC046 09/M01 A3001 2080 49 1900 160/08 RMK AO2 T00941006
03812KAVL AVL20161128134012511/28/16 13:40:31  5-MIN KAVL 281840Z 15009KT 10SM FU BKN024 BKN033 OVC046 09/M01 A3001 2080 49 2000 160/09 RMK AO2 T00941006
03812KAVL AVL20161128134512411/28/16 13:45:31  5-MIN KAVL 281845Z 15008KT 10SM FU BKN024 BKN033 OVC046 09/00 A3001 2090 51 2000 160/08 RMK AO2 T00940000
03812KAVL AVL20161128135012411/28/16 13:50:31  5-MIN KAVL 281850Z 15011KT 10SM FU BKN024 OVC046 10/00 A3001 2090 49 2000 160/11 RMK AO2 SLP161 T01000000
03812KAVL AVL20161128135511011/28/16 13:55:31  5-MIN KAVL 281855Z 15009KT 10SM FU OVC022 10/01 A3000 2100 52 2000 150/09 RMK AO2 T01000006
03812KAVL AVL20161128140011011/28/16 14:00:31  5-MIN KAVL 281900Z 15011KT 10SM FU OVC022 10/01 A2999 2100 54 2000 160/11 RMK AO2 T01000011
03812KAVL AVL20161128140512311/28/16 14:05:31  5-MIN KAVL 281905Z 14009G16KT 10SM FU OVC022 10/01 A2999 2110 54 2000 150/09G16 RMK AO2 PRESFR T01000011
03812KAVL AVL20161128141011611/28/16 14:10:31  5-MIN KAVL 281910Z 13008G16KT 10SM FU OVC022 10/01 A2999 2110 54 2000 140/08G16 RMK AO2 T01000011
03812KAVL AVL20161128141511611/28/16 14:15:31  5-MIN KAVL 281915Z 14010G15KT 10SM FU OVC022 10/02 A2998 2110 56 2000 140/10G15 RMK AO2 T01000017
03812KAVL AVL20161128142011611/28/16 14:20:31  5-MIN KAVL 281920Z 14008G15KT 10SM FU OVC022 10/02 A2998 2110 56 2100 140/08G15 RMK AO2 T01000017
03812KAVL AVL20161128142511011/28/16 14:25:31  5-MIN KAVL 281925Z 15009KT 10SM FU OVC022 10/02 A2997 2120 58 2100 160/09 RMK AO2 T01000022
03812KAVL AVL20161128143011011/28/16 14:30:31  5-MIN KAVL 281930Z 14009KT 10SM FU OVC022 10/02 A2997 2120 58 2100 150/09 RMK AO2 T01000022
03812KAVL AVL20161128143511611/28/16 14:35:31  5-MIN KAVL 281935Z 15012G19KT 10SM FU OVC022 10/03 A2997 2120 60 2100 160/12G19 RMK AO2 T01000028
03812KAVL AVL20161128144011611/28/16 14:40:31  5-MIN KAVL 281940Z 14010G19KT 10SM FU OVC022 10/03 A2998 2120 60 2100 150/10G19 RMK AO2 T01000028
03812KAVL AVL20161128144511611/28/16 14:45:31  5-MIN KAVL 281945Z 14010G17KT 10SM FU OVC022 10/03 A2997 2120 60 2100 150/10G17 RMK AO2 T01000028
03812KAVL AVL20161128145011711/28/16 14:50:31  5-MIN KAVL 281950Z 15011KT 10SM FU OVC022 10/03 A2997 2120 60 2100 150/11 RMK AO2 SLP149 T01000028
03812KAVL AVL20161128145511611/28/16 14:55:31  5-MIN KAVL 281955Z 14008G14KT 10SM FU OVC022 10/03 A2998 2120 60 2100 150/08G14 RMK AO2 T01000028
03812KAVL AVL20161128150011011/28/16 15:00:31  5-MIN KAVL 282000Z 13008KT 10SM FU OVC022 10/03 A2997 2120 60 2100 140/08 RMK AO2 T01000028
03812KAVL AVL20161128150511011/28/16 15:05:31  5-MIN KAVL 282005Z 12008KT 10SM FU OVC022 10/03 A2997 2120 60 2100 130/08 RMK AO2 T01000028
03812KAVL AVL20161128151011011/28/16 15:10:31  5-MIN KAVL 282010Z 13009KT 10SM FU OVC022 10/03 A2997 2120 60 2100 130/09 RMK AO2 T01000028
03812KAVL AVL20161128151511511/28/16 15:15:31  5-MIN KAVL 282015Z AUTO 13010KT 10SM FU OVC022 09/03 A2997 2120 63 2000 130/10 RMK AO2 T00940028
03812KAVL AVL20161128152011511/28/16 15:20:31  5-MIN KAVL 282020Z AUTO 14010KT 10SM FU OVC022 09/03 A2996 2130 63 2000 150/10 RMK AO2 T00940028
03812KAVL AVL20161128152512111/28/16 15:25:31  5-MIN KAVL 282025Z AUTO 14009G19KT 10SM FU OVC022 09/03 A2996 2130 63 2000 150/09G19 RMK AO2 T00940028
03812KAVL AVL20161128153012111/28/16 15:30:31  5-MIN KAVL 282030Z AUTO 13009G19KT 10SM FU OVC022 09/02 A2996 2130 60 2000 130/09G19 RMK AO2 T00940022
03812KAVL AVL20161128153512111/28/16 15:35:31  5-MIN KAVL 282035Z AUTO 12010G17KT 10SM FU OVC022 09/02 A2995 2140 60 2000 130/10G17 RMK AO2 T00940022
03812KAVL AVL20161128154012111/28/16 15:40:31  5-MIN KAVL 282040Z AUTO 14008G17KT 10SM FU OVC022 09/02 A2996 2130 60 2000 140/08G17 RMK AO2 T00940022
03812KAVL AVL20161128154512111/28/16 15:45:31  5-MIN KAVL 282045Z AUTO 14010G17KT 10SM FU OVC022 09/02 A2996 2130 60 2000 140/10G17 RMK AO2 T00940022
03812KAVL AVL20161128155013411/28/16 15:50:31  5-MIN KAVL 282050Z AUTO 14009G17KT 10SM FU OVC023 09/02 A2996 2130 60 2000 140/09G17 RMK AO2 SLP144 T00940022 58026
03812KAVL AVL20161128155511011/28/16 15:55:31  5-MIN KAVL 282055Z 14008KT 10SM FU OVC023 09/02 A2995 2140 60 2000 140/08 RMK AO2 T00940022
03812KAVL AVL20161128160011711/28/16 16:00:31  5-MIN KAVL 282100Z 13008KT 10SM FU BKN023 OVC049 09/02 A2995 2140 60 2000 140/08 RMK AO2 T00940022
03812KAVL AVL20161128160513011/28/16 16:05:31  5-MIN KAVL 282105Z 14008G15KT 10SM FU BKN023 BKN047 OVC055 09/02 A2996 2130 60 2000 150/08G15 RMK AO2 T00940022
03812KAVL AVL20161128161013011/28/16 16:10:31  5-MIN KAVL 282110Z 14011G17KT 10SM FU BKN023 BKN047 OVC055 09/02 A2996 2130 60 2000 140/11G17 RMK AO2 T00940022
03812KAVL AVL20161128161512311/28/16 16:15:31  5-MIN KAVL 282115Z 14010G17KT 10SM FU BKN024 OVC047 09/02 A2996 2130 60 2000 150/10G17 RMK AO2 T00940022
03812KAVL AVL20161128162013011/28/16 16:20:31  5-MIN KAVL 282120Z 14006G16KT 10SM FU BKN024 BKN047 OVC055 09/02 A2996 2130 60 2000 150/06G16 RMK AO2 T00940022
03812KAVL AVL20161128162512411/28/16 16:25:31  5-MIN KAVL 282125Z 16008KT 10SM FU BKN024 BKN036 OVC047 09/02 A2997 2120 58 2000 170/08 RMK AO2 T00940017
03812KAVL AVL20161128163011011/28/16 16:30:31  5-MIN KAVL 282130Z 16009KT 10SM FU OVC024 09/02 A2997 2120 60 1900 170/09 RMK AO2 T00890017
03812KAVL AVL20161128163511011/28/16 16:35:31  5-MIN KAVL 282135Z 15007KT 10SM FU OVC024 09/02 A2997 2120 60 1900 160/07 RMK AO2 T00890017
03812KAVL AVL20161128164011011/28/16 16:40:31  5-MIN KAVL 282140Z 15009KT 10SM FU OVC024 09/02 A2997 2120 60 1900 160/09 RMK AO2 T00890017
03812KAVL AVL20161128164511711/28/16 16:45:31  5-MIN KAVL 282145Z 15011KT 10SM FU BKN026 OVC036 09/02 A2997 2120 60 1900 150/11 RMK AO2 T00890017
03812KAVL AVL20161128165012411/28/16 16:50:31  5-MIN KAVL 282150Z 13007KT 10SM FU BKN026 OVC036 09/02 A2997 2130 60 1900 130/07 RMK AO2 SLP147 T00890017
03812KAVL AVL20161128165511711/28/16 16:55:31  5-MIN KAVL 282155Z 14007KT 10SM FU BKN026 OVC034 09/02 A2997 2120 60 1900 150/07 RMK AO2 T00890017
03812KAVL AVL20161128170011011/28/16 17:00:31  5-MIN KAVL 282200Z 14007KT 10SM FU OVC026 09/02 A2997 2120 60 1900 150/07 RMK AO2 T00890017
03812KAVL AVL20161128170511711/28/16 17:05:31  5-MIN KAVL 282205Z 15007KT 10SM FU BKN026 OVC033 09/02 A2997 2120 60 1900 160/07 RMK AO2 T00890017
03812KAVL AVL20161128171011711/28/16 17:10:31  5-MIN KAVL 282210Z 14009KT 10SM FU BKN026 OVC033 09/02 A2997 2130 60 1900 150/09 RMK AO2 T00890017
03812KAVL AVL20161128171511711/28/16 17:15:31  5-MIN KAVL 282215Z 15009KT 10SM FU BKN026 OVC034 09/01 A2996 2130 58 1900 160/09 RMK AO2 T00890011
03812KAVL AVL20161128172011011/28/16 17:20:31  5-MIN KAVL 282220Z 16008KT 10SM FU OVC026 09/01 A2996 2130 58 1900 160/08 RMK AO2 T00890011
03812KAVL AVL20161128172511011/28/16 17:25:31  5-MIN KAVL 282225Z 15008KT 10SM FU OVC026 08/01 A2996 2130 60 1900 160/08 RMK AO2 T00830011
03812KAVL AVL20161128173011711/28/16 17:30:31  5-MIN KAVL 282230Z 16008KT 10SM FU BKN026 OVC055 08/01 A2996 2130 60 1900 170/08 RMK AO2 T00830011
03812KAVL AVL20161128173512411/28/16 17:35:31  5-MIN KAVL 282235Z 17010KT 10SM FU BKN025 BKN030 OVC060 08/01 A2996 2130 60 1900 170/10 RMK AO2 T00830011
03812KAVL AVL20161128174012411/28/16 17:40:31  5-MIN KAVL 282240Z 16008KT 10SM FU BKN025 BKN030 OVC060 08/01 A2996 2130 60 1900 170/08 RMK AO2 T00830011
03812KAVL AVL20161128174512411/28/16 17:45:31  5-MIN KAVL 282245Z 15010KT 10SM FU BKN027 BKN034 OVC055 08/01 A2995 2140 60 1900 160/10 RMK AO2 T00830011
03812KAVL AVL20161128175013111/28/16 17:50:31  5-MIN KAVL 282250Z 17011KT 10SM FU BKN027 BKN034 OVC055 08/01 A2995 2140 60 1900 170/11 RMK AO2 SLP142 T00830011
03812KAVL AVL20161128175512411/28/16 17:55:31  5-MIN KAVL 282255Z 17013KT 10SM FU BKN027 BKN036 OVC055 08/01 A2996 2130 60 1900 180/13 RMK AO2 T00830011
03812KAVL AVL20161128180012411/28/16 18:00:31  5-MIN KAVL 282300Z 16011KT 10SM FU SCT027 BKN031 OVC050 08/01 A2995 2140 60 1900 170/11 RMK AO2 T00830011
03812KAVL AVL20161128180512411/28/16 18:05:31  5-MIN KAVL 282305Z 17013KT 10SM FU SCT027 BKN035 OVC055 08/01 A2996 2140 60 1900 180/13 RMK AO2 T00830011
03812KAVL AVL20161128181012411/28/16 18:10:31  5-MIN KAVL 282310Z 17013KT 10SM FU BKN027 BKN037 OVC050 08/02 A2995 2140 63 1900 170/13 RMK AO2 T00830017
03812KAVL AVL20161128181512411/28/16 18:15:31  5-MIN KAVL 282315Z 17013KT 10SM FU SCT028 BKN036 OVC050 08/02 A2995 2140 63 1900 180/13 RMK AO2 T00830017
03812KAVL AVL20161128182012411/28/16 18:20:31  5-MIN KAVL 282320Z 17014KT 10SM FU SCT028 BKN036 OVC060 08/01 A2995 2140 60 1900 170/14 RMK AO2 T00830011
03812KAVL AVL20161128182512411/28/16 18:25:31  5-MIN KAVL 282325Z 18014KT 10SM FU SCT030 BKN039 OVC050 08/02 A2995 2140 63 1900 190/14 RMK AO2 T00830017
03812KAVL AVL20161128183012411/28/16 18:30:31  5-MIN KAVL 282330Z 17014KT 10SM FU FEW026 BKN034 OVC055 08/02 A2994 2150 63 1900 180/14 RMK AO2 T00830017
03812KAVL AVL20161128183512411/28/16 18:35:31  5-MIN KAVL 282335Z 16011KT 10SM FU BKN032 BKN040 OVC055 09/02 A2993 2160 60 2000 160/11 RMK AO2 T00890017
03812KAVL AVL20161128184012411/28/16 18:40:31  5-MIN KAVL 282340Z 16012KT 10SM FU FEW026 BKN040 OVC050 09/02 A2993 2160 60 2000 170/12 RMK AO2 T00890017
03812KAVL AVL20161128184513711/28/16 18:45:31  5-MIN KAVL 282345Z 15012G20KT 10SM FU FEW026 BKN038 OVC050 09/02 A2992 2170 60 2000 160/12G20 RMK AO2 PRESFR T00890017
03812KAVL AVL20161128185016211/28/16 18:50:31  5-MIN KAVL 282350Z 13012G20KT 10SM FU FEW026 BKN038 OVC070 09/02 A2990 2180 60 2100 130/12G20 RMK AO2 PRESFR SLP123 T00940022 10100 20083 56027
03812KAVL AVL20161128185513011/28/16 18:55:31  5-MIN KAVL 282355Z 14012G20KT 10SM FU FEW026 BKN038 OVC070 09/03 A2991 2180 63 2100 150/12G20 RMK AO2 T00940028
03812KAVL AVL20161128190013011/28/16 19:00:31  5-MIN KAVL 290000Z 15010G20KT 10SM FU FEW028 BKN038 BKN049 09/03 A2992 2170 63 2100 160/10G20 RMK AO2 T00940028
03812KAVL AVL20161128190512411/28/16 19:05:31  5-MIN KAVL 290005Z 16010KT 10SM FU FEW026 SCT031 BKN038 09/02 A2991 2180 60 2100 160/10 RMK AO2 T00940022
03812KAVL AVL20161128191012411/28/16 19:10:31  5-MIN KAVL 290010Z 18011KT 10SM FU SCT028 BKN036 OVC070 09/02 A2991 2180 63 2000 180/11 RMK AO2 T00890022
03812KAVL AVL20161128191512411/28/16 19:15:31  5-MIN KAVL 290015Z 18011KT 10SM FU SCT028 BKN036 OVC070 09/02 A2992 2170 63 2000 190/11 RMK AO2 T00890022
03812KAVL AVL20161128192012411/28/16 19:20:31  5-MIN KAVL 290020Z 18011KT 10SM FU BKN028 BKN034 OVC070 09/03 A2992 2170 63 2100 180/11 RMK AO2 T00940028
03812KAVL AVL20161128192512411/28/16 19:25:31  5-MIN KAVL 290025Z 20010KT 10SM FU BKN024 BKN030 OVC038 09/03 A2993 2160 63 2000 210/10 RMK AO2 T00940028
03812KAVL AVL20161128193012411/28/16 19:30:31  5-MIN KAVL 290030Z 20010KT 10SM FU BKN024 BKN030 OVC035 09/02 A2993 2160 60 2100 210/10 RMK AO2 T00940022
03812KAVL AVL20161128193511711/28/16 19:35:31  5-MIN KAVL 290035Z 20010KT 10SM FU BKN022 OVC029 09/02 A2992 2170 63 2000 210/10 RMK AO2 T00890022
03812KAVL AVL20161128194011711/28/16 19:40:31  5-MIN KAVL 290040Z 19010KT 10SM FU BKN022 OVC029 09/02 A2991 2170 63 2000 190/10 RMK AO2 T00890022
03812KAVL AVL20161128194511711/28/16 19:45:31  5-MIN KAVL 290045Z 18010KT 10SM FU OVC022 09/02 A2990 2180 63 2000 190/10 RMK AO2 PRESFR T00890022
03812KAVL AVL20161128195011711/28/16 19:50:31  5-MIN KAVL 290050Z 20011KT 10SM FU OVC022 09/03 A2992 2170 63 2100 200/11 RMK AO2 SLP127 T00940028
03812KAVL AVL20161128195511011/28/16 19:55:31  5-MIN KAVL 290055Z 19009KT 10SM FU OVC022 09/03 A2991 2170 63 2100 190/09 RMK AO2 T00940028
03812KAVL AVL20161128200011011/28/16 20:00:31  5-MIN KAVL 290100Z 18008KT 10SM FU OVC022 09/03 A2992 2170 65 2100 180/08 RMK AO2 T00940033
03812KAVL AVL20161128200511011/28/16 20:05:31  5-MIN KAVL 290105Z 21006KT 10SM FU OVC022 09/03 A2992 2170 65 2100 210/06 RMK AO2 T00940033
03812KAVL AVL20161128201011011/28/16 20:10:31  5-MIN KAVL 290110Z 19009KT 10SM FU OVC022 09/03 A2992 2170 63 2100 200/09 RMK AO2 T00940028
03812KAVL AVL20161128201511011/28/16 20:15:31  5-MIN KAVL 290115Z 17011KT 10SM FU OVC021 09/03 A2991 2170 65 2100 180/11 RMK AO2 T00940033
03812KAVL AVL20161128202011011/28/16 20:20:31  5-MIN KAVL 290120Z 18011KT 10SM FU OVC021 09/03 A2992 2170 65 2100 190/11 RMK AO2 T00940033
03812KAVL AVL20161128202511011/28/16 20:25:31  5-MIN KAVL 290125Z 18010KT 10SM FU OVC021 09/03 A2992 2170 63 2100 190/10 RMK AO2 T00940028
03812KAVL AVL20161128203011011/28/16 20:30:31  5-MIN KAVL 290130Z 17011KT 10SM FU OVC021 09/03 A2991 2180 63 2100 180/11 RMK AO2 T00940028
03812KAVL AVL20161128203511011/28/16 20:35:31  5-MIN KAVL 290135Z 14007KT 10SM FU OVC021 09/03 A2991 2180 63 2100 150/07 RMK AO2 T00940028
03812KAVL AVL20161128204011011/28/16 20:40:31  5-MIN KAVL 290140Z 15006KT 10SM FU OVC021 10/03 A2990 2190 63 2100 150/06 RMK AO2 T01000033
03812KAVL AVL20161128204511011/28/16 20:45:31  5-MIN KAVL 290145Z 14009KT 10SM FU OVC021 10/03 A2989 2190 63 2200 150/09 RMK AO2 T01000033
03812KAVL AVL20161128205012311/28/16 20:50:31  5-MIN KAVL 290150Z 15008G17KT 10SM FU OVC021 11/04 A2989 2200 66 2200 160/08G17 RMK AO2 SLP116 T01060044
03812KAVL AVL20161128205512611/28/16 20:55:31  5-MIN KAVL 290155Z 15010G17KT 10SM -RA FU OVC021 11/04 A2989 2200 66 2200 150/10G17 RMK AO2 P0000 T01060044
03812KAVL AVL20161128210012011/28/16 21:00:31  5-MIN KAVL 290200Z 13011KT 10SM -RA FU OVC021 10/05 A2989 2200 71 2200 140/11 RMK AO2 P0000 T01000050
03812KAVL AVL20161128210512611/28/16 21:05:31  5-MIN KAVL 290205Z 14009G16KT 10SM -RA FU OVC020 11/05 A2989 2200 68 2200 150/09G16 RMK AO2 P0000 T01060050
03812KAVL AVL20161128211012611/28/16 21:10:31  5-MIN KAVL 290210Z 15008G17KT 10SM -RA FU OVC020 11/05 A2989 2190 68 2200 160/08G17 RMK AO2 P0000 T01060050
03812KAVL AVL20161128211512811/28/16 21:15:31  5-MIN KAVL 290215Z 17008G17KT 10SM FU OVC020 11/05 A2989 2190 68 2200 170/08G17 RMK AO2 RAE13 P0000 T01060050
03812KAVL AVL20161128212012211/28/16 21:20:31  5-MIN KAVL 290220Z 19009KT 10SM FU OVC020 11/05 A2989 2190 68 2200 200/09 RMK AO2 RAE13 P0000 T01060050
03812KAVL AVL20161128212512011/28/16 21:25:31  5-MIN KAVL 290225Z 20009KT 10SM -RA FU OVC020 10/05 A2990 2190 71 2100 200/09 RMK AO2 P0000 T01000050
03812KAVL AVL20161128213012611/28/16 21:30:31  5-MIN KAVL 290230Z 15005G16KT 10SM -RA FU OVC019 11/05 A2989 2200 68 2200 160/05G16 RMK AO2 P0000 T01060050
03812KAVL AVL20161128213512611/28/16 21:35:31  5-MIN KAVL 290235Z 15008G16KT 10SM -RA FU OVC019 11/05 A2988 2210 68 2200 160/08G16 RMK AO2 P0000 T01060050
03812KAVL AVL20161128214013311/28/16 21:40:31  5-MIN KAVL 290240Z 13011G21KT 10SM -RA FU OVC019 11/05 A2987 2210 68 2200 130/11G21 RMK AO2 PRESFR P0000 T01060050
03812KAVL AVL20161128214512611/28/16 21:45:31  5-MIN KAVL 290245Z 13011G21KT 10SM -RA FU OVC018 11/06 A2987 2210 71 2200 140/11G21 RMK AO2 P0000 T01060056
03812KAVL AVL20161128215013911/28/16 21:50:31  5-MIN KAVL 290250Z 14012KT 10SM -RA FU OVC018 11/06 A2988 2210 68 2300 150/12 RMK AO2 SLP111 P0000 60000 T01110056 58014
03812KAVL AVL20161128215511611/28/16 21:55:31  5-MIN KAVL 290255Z 15011G19KT 10SM FU OVC018 11/06 A2988 2210 71 2300 160/11G19 RMK AO2 T01110061
03812KAVL AVL20161128220013411/28/16 22:00:31  5-MIN KAVL 290300Z 13011G20KT 10SM -RA FU OVC018 11/06 A2987 2210 71 2300 140/11G20 RMK AO2 RAB0257 P0000 T01110061
03812KAVL AVL20161128220513411/28/16 22:05:31  5-MIN KAVL 290305Z 13011G20KT 10SM -RA FU OVC018 11/07 A2987 2210 74 2300 140/11G20 RMK AO2 RAB0257 P0000 T01110067
03812KAVL AVL20161128221013411/28/16 22:10:31  5-MIN KAVL 290310Z 14012G20KT 10SM -RA FU OVC018 11/07 A2987 2210 74 2300 140/12G20 RMK AO2 RAB0257 P0000 T01110067
03812KAVL AVL20161128221513411/28/16 22:15:31  5-MIN KAVL 290315Z 15011G20KT 10SM -RA FU OVC017 11/07 A2987 2210 74 2300 150/11G20 RMK AO2 RAB0257 P0000 T01110067
03812KAVL AVL20161128222013311/28/16 22:20:31  5-MIN KAVL 290320Z 15013G21KT 10SM FU OVC017 11/07 A2987 2210 74 2300 150/13G21 RMK AO2 RAB0257E18 P0000 T01110067
03812KAVL AVL20161128222513411/28/16 22:25:31  5-MIN KAVL 290325Z 13011G21KT 10SM -RA FU OVC017 12/07 A2987 2210 74 2400 140/11G21 RMK AO2 RAB0257 P0000 T01170072
03812KAVL AVL20161128223013411/28/16 22:30:31  5-MIN KAVL 290330Z 14010G16KT 10SM -RA FU OVC017 12/07 A2987 2220 74 2400 140/10G16 RMK AO2 RAB0257 P0000 T01170072
03812KAVL AVL20161128223513311/28/16 22:35:31  5-MIN KAVL 290335Z 15010G20KT 9SM -RA FU OVC017 11/08 A2987 2220 80 2300 150/10G20 RMK AO2 RAB0257 P0000 T01110078
03812KAVL AVL20161128224013311/28/16 22:40:31  5-MIN KAVL 290340Z 14011G20KT 8SM -RA FU OVC017 11/08 A2987 2220 80 2300 150/11G20 RMK AO2 RAB0257 P0000 T01110078
03812KAVL AVL20161128224513311/28/16 22:45:31  5-MIN KAVL 290345Z 15012G17KT 8SM -RA FU OVC017 11/08 A2987 2220 83 2300 150/12G17 RMK AO2 RAB0257 P0000 T01110083
03812KAVL AVL20161128225013711/28/16 22:50:31  5-MIN KAVL 290350Z 12011G17KT 9SM -RA OVC017 12/09 A2987 2220 83 2400 130/11G17 RMK AO2 RAB0257 SLP106 P0000 T01170089
03812KAVL AVL20161128225512711/28/16 22:55:31  5-MIN KAVL 290355Z AUTO 13008G21KT 8SM -RA OVC017 11/09 A2987 2210 86 2300 140/08G21 RMK AO2 P0000 T01110089
03812KAVL AVL20161128230013011/28/16 23:00:31  5-MIN KAVL 290400Z AUTO 14008G21KT 6SM -RA BR OVC017 11/09 A2987 2220 86 2300 150/08G21 RMK AO2 P0000 T01110089
03812KAVL AVL20161128230513011/28/16 23:05:31  5-MIN KAVL 290405Z AUTO 14009G16KT 6SM -RA BR OVC015 11/09 A2986 2220 86 2300 150/09G16 RMK AO2 P0000 T01110089
03812KAVL AVL20161128231013011/28/16 23:10:31  5-MIN KAVL 290410Z AUTO 14011G19KT 6SM -RA BR OVC015 11/09 A2986 2220 89 2300 140/11G19 RMK AO2 P0000 T01110094
03812KAVL AVL20161128231513011/28/16 23:15:31  5-MIN KAVL 290415Z AUTO 13011G22KT 6SM -RA BR OVC015 12/09 A2986 2230 86 2400 140/11G22 RMK AO2 P0001 T01170094
03812KAVL AVL20161128232012711/28/16 23:20:31  5-MIN KAVL 290420Z AUTO 12011G22KT 7SM -RA OVC015 12/09 A2986 2230 86 2400 120/11G22 RMK AO2 P0001 T01170094
03812KAVL AVL20161128232512711/28/16 23:25:31  5-MIN KAVL 290425Z AUTO 13009G18KT 9SM -RA OVC015 12/09 A2986 2230 86 2400 140/09G18 RMK AO2 P0001 T01170094
03812KAVL AVL20161128233012711/28/16 23:30:31  5-MIN KAVL 290430Z AUTO 13011G17KT 9SM -RA OVC015 12/09 A2985 2230 86 2400 140/11G17 RMK AO2 P0001 T01170094
03812KAVL AVL20161128233512811/28/16 23:35:31  5-MIN KAVL 290435Z AUTO 13010G17KT 10SM -RA OVC015 12/09 A2985 2230 86 2400 140/10G17 RMK AO2 P0001 T01170094
03812KAVL AVL20161128234012711/28/16 23:40:31  5-MIN KAVL 290440Z AUTO 12009G16KT 9SM -RA OVC015 12/09 A2985 2230 86 2400 130/09G16 RMK AO2 P0001 T01170094
03812KAVL AVL20161128234512711/28/16 23:45:31  5-MIN KAVL 290445Z AUTO 13010G16KT 8SM -RA OVC015 12/09 A2985 2230 86 2400 130/10G16 RMK AO2 P0001 T01170094
03812KAVL AVL20161128235013611/28/16 23:50:31  5-MIN KAVL 290450Z AUTO 15009G16KT 110V170 6SM -RA BR OVC013 12/09 A2986 2230 86 2400 160/09G16 120V180 RMK AO2 P0001
03812KAVL AVL20161128235513711/28/16 23:55:31  5-MIN KAVL 290455Z AUTO 16007G15KT 4SM -RA BR BKN009 OVC015 12/09 A2986 2220 86 2400 160/07G15 RMK AO2 P0000 T01170094
03812KAVL AVL20161129000013011/29/16 00:00:31  5-MIN KAVL 290500Z AUTO 13005KT 4SM RA BR BKN009 OVC015 12/10 A2986 2220 89 2400 140/05 RMK AO2 P0001 T01170100
03812KAVL AVL20161129000513111/29/16 00:05:31  5-MIN KAVL 290505Z AUTO 13004KT 4SM -RA BR BKN009 OVC015 12/10 A2987 2220 89 2400 140/04 RMK AO2 P0002 T01170100
03812KAVL AVL20161129001013111/29/16 00:10:31  5-MIN KAVL 290510Z AUTO 13003KT 5SM -RA BR BKN009 OVC013 12/10 A2986 2220 89 2400 140/03 RMK AO2 P0002 T01170100
03812KAVL AVL20161129001512411/29/16 00:15:31  5-MIN KAVL 290515Z AUTO 11003KT 6SM -RA BR OVC009 12/10 A2986 2230 89 2400 110/03 RMK AO2 P0003 T01170100
03812KAVL AVL20161129002013111/29/16 00:20:31  5-MIN KAVL 290520Z AUTO 13004KT 6SM -RA BR BKN009 OVC012 12/10 A2986 2220 89 2400 130/04 RMK AO2 P0003 T01170100
03812KAVL AVL20161129002513311/29/16 00:25:31  5-MIN KAVL 290525Z AUTO 13003KT 7SM -RA BKN008 OVC012 12/10 A2986 2220 89 2400 140/03 RMK AO2 P0004 T01170100 TSNO
03812KAVL AVL20161129003012811/29/16 00:30:31  5-MIN KAVL 290530Z AUTO 00000KT 7SM -RA BKN008 OVC012 12/10 A2987 2220 89 2400 000/00 RMK AO2 P0004 T01170100
03812KAVL AVL20161129003512411/29/16 00:35:31  5-MIN KAVL 290535Z AUTO 00000KT 6SM -RA BR OVC010 12/10 A2986 2220 89 2400 000/00 RMK AO2 P0005 T01170100
03812KAVL AVL20161129004012411/29/16 00:40:31  5-MIN KAVL 290540Z AUTO 00000KT 4SM +RA BR OVC010 12/10 A2986 2220 89 2400 000/00 RMK AO2 P0006 T01170100
03812KAVL AVL20161129004512311/29/16 00:45:31  5-MIN KAVL 290545Z AUTO 11003KT 4SM RA BR OVC010 12/10 A2985 2240 89 2400 120/03 RMK AO2 P0008 T01170100
03812KAVL AVL20161129005016811/29/16 00:50:31  5-MIN KAVL 290550Z AUTO 12005KT 4SM RA BR BKN010 OVC015 12/10 A2984 2250 89 2400 120/05 RMK AO2 PRESFR SLP095 P0009 60012 T01170100 10117 20089 58010
03812KAVL AVL20161129005513011/29/16 00:55:31  5-MIN KAVL 290555Z AUTO 15005KT 5SM RA BR BKN008 OVC015 12/11 A2983 2250 93 2400 150/05 RMK AO2 P0000 T01170106
03812KAVL AVL20161129010013111/29/16 01:00:31  5-MIN KAVL 290600Z AUTO 14006KT 6SM -RA BR BKN008 OVC015 12/11 A2983 2250 93 2400 150/06 RMK AO2 P0001 T01170106
03812KAVL AVL20161129010512811/29/16 01:05:31  5-MIN KAVL 290605Z AUTO 16006KT 7SM -RA BKN008 OVC015 12/11 A2984 2250 89 2500 160/06 RMK AO2 P0001 T01220106
03812KAVL AVL20161129011012111/29/16 01:10:31  5-MIN KAVL 290610Z AUTO 15008KT 8SM -RA OVC010 12/11 A2983 2250 89 2500 150/08 RMK AO2 P0001 T01220106
03812KAVL AVL20161129011512111/29/16 01:15:31  5-MIN KAVL 290615Z AUTO 14007KT 9SM -RA OVC010 12/11 A2983 2250 89 2500 150/07 RMK AO2 P0002 T01220106
03812KAVL AVL20161129012012111/29/16 01:20:31  5-MIN KAVL 290620Z AUTO 15010KT 9SM -RA OVC010 12/11 A2982 2260 89 2500 160/10 RMK AO2 P0002 T01220106
03812KAVL AVL20161129012512111/29/16 01:25:31  5-MIN KAVL 290625Z AUTO 16009KT 8SM -RA OVC010 12/11 A2983 2250 89 2500 160/09 RMK AO2 P0002 T01220106
03812KAVL AVL20161129013012411/29/16 01:30:31  5-MIN KAVL 290630Z AUTO 15009KT 6SM -RA BR OVC010 12/11 A2983 2250 89 2500 160/09 RMK AO2 P0002 T01220106
03812KAVL AVL20161129013512411/29/16 01:35:31  5-MIN KAVL 290635Z AUTO 16009KT 5SM -RA BR OVC012 12/11 A2983 2250 89 2500 160/09 RMK AO2 P0003 T01220106
03812KAVL AVL20161129014013111/29/16 01:40:31  5-MIN KAVL 290640Z AUTO 14010KT 6SM -RA BR BKN012 OVC019 12/11 A2983 2250 89 2500 150/10 RMK AO2 P0003 T01220106
03812KAVL AVL20161129014513011/29/16 01:45:31  5-MIN KAVL 290645Z AUTO 15011KT 6SM RA BR BKN012 OVC020 12/11 A2983 2250 89 2500 150/11 RMK AO2 P0004 T01220106
03812KAVL AVL20161129015013011/29/16 01:50:31  5-MIN KAVL 290650Z AUTO 16010KT 5SM RA BR OVC012 12/11 A2983 2250 89 2500 160/10 RMK AO2 SLP093 P0006 T01220106
03812KAVL AVL20161129015512311/29/16 01:55:31  5-MIN KAVL 290655Z AUTO 16008KT 4SM RA BR OVC012 12/11 A2984 2250 89 2500 160/08 RMK AO2 P0000 T01220106
03812KAVL AVL20161129020013011/29/16 02:00:31  5-MIN KAVL 290700Z AUTO 16009KT 4SM RA BR BKN012 OVC017 12/11 A2983 2250 89 2500 160/09 RMK AO2 P0002 T01220106
03812KAVL AVL20161129020512411/29/16 02:05:31  5-MIN KAVL 290705Z AUTO 15009KT 4SM +RA BR OVC012 12/11 A2983 2250 93 2500 150/09 RMK AO2 P0005 T01220111
03812KAVL AVL20161129021013711/29/16 02:10:31  5-MIN KAVL 290710Z AUTO 15009KT 5SM RA BR BKN012 BKN016 OVC022 12/11 A2984 2250 93 2500 160/09 RMK AO2 P0006 T01220111
03812KAVL AVL20161129021513711/29/16 02:15:31  5-MIN KAVL 290715Z AUTO 15009KT 6SM RA BR SCT011 BKN016 OVC025 12/11 A2983 2250 93 2500 160/09 RMK AO2 P0008 T01220111
03812KAVL AVL20161129022014411/29/16 02:20:31  5-MIN KAVL 290720Z AUTO 13011KT 6SM RA BR BKN013 BKN023 OVC049 12/11 A2976 2310 93 2600 130/11 RMK AO2 PRESFR P0009 T01220111
03812KAVL AVL20161129022514311/29/16 02:25:31  5-MIN KAVL 290725Z AUTO 13010G17KT 6SM RA BR BKN015 BKN026 OVC049 13/11 A2976 2310 89 2600 140/10G17 RMK AO2 P0010 T01280111
03812KAVL AVL20161129023015611/29/16 02:30:31  5-MIN KAVL 290730Z AUTO 16008G17KT 120V190 7SM RA FEW013 BKN019 OVC049 13/12 A2981 2270 93 2600 160/08G17 130V200 RMK AO2 P0011 T01280117
03812KAVL AVL20161129023513511/29/16 02:35:31  5-MIN KAVL 290735Z AUTO 14007KT 9SM -RA BKN016 BKN023 OVC049 13/12 A2981 2270 89 2600 150/07 RMK AO2 P0012 T01330117
03812KAVL AVL20161129024015811/29/16 02:40:31  5-MIN KAVL 290740Z AUTO 14007G15KT 110V180 10SM -RA BKN016 BKN028 OVC055 13/12 A2980 2280 89 2700 140/07G15 120V190 RMK AO2 P0012 T01330117
03812KAVL AVL20161129024515811/29/16 02:45:31  5-MIN KAVL 290745Z AUTO 13007G15KT 100V170 10SM -RA SCT015 BKN020 OVC055 14/12 A2982 2260 86 2700 140/07G15 110V180 RMK AO2 P0012 T01390117
03812KAVL AVL20161129025014911/29/16 02:50:31  5-MIN KAVL 290750Z AUTO 12004G15KT 10SM -RA FEW015 BKN020 OVC028 13/12 A2981 2270 89 2600 120/04G15 RMK AO2 SLP085 P0012 T01330117
03812KAVL AVL20161129025511211/29/16 02:55:31  5-MIN KAVL 290755Z AUTO 13004KT 10SM OVC018 13/12 A2981 2270 89 2600 130/04 RMK AO2 T01330117
03812KAVL AVL20161129030011211/29/16 03:00:31  5-MIN KAVL 290800Z AUTO VRB05KT 10SM OVC018 13/12 A2981 2270 89 2600 VRB/05 RMK AO2 T01330117
03812KAVL AVL20161129030511911/29/16 03:05:31  5-MIN KAVL 290805Z AUTO 11007KT 10SM OVC018 14/12 A2979 2290 86 2700 120/07 RMK AO2 PRESFR T01390117
03812KAVL AVL20161129031012511/29/16 03:10:31  5-MIN KAVL 290810Z AUTO 12010G15KT 10SM OVC018 14/12 A2975 2320 86 2800 130/10G15 RMK AO2 PRESFR T01390117
03812KAVL AVL20161129031511811/29/16 03:15:31  5-MIN KAVL 290815Z AUTO 16009G15KT 10SM OVC018 14/12 A2981 2270 83 2800 170/09G15 RMK AO2 T01440117
03812KAVL AVL20161129032011811/29/16 03:20:31  5-MIN KAVL 290820Z AUTO 14011G18KT 10SM OVC018 14/12 A2978 2300 83 2800 150/11G18 RMK AO2 T01440117
03812KAVL AVL20161129032513411/29/16 03:25:31  5-MIN KAVL 290825Z AUTO 14007G18KT 110V180 10SM OVC018 14/12 A2980 2280 83 2800 150/07G18 120V190 RMK AO2 T01440117
03812KAVL AVL20161129033011811/29/16 03:30:31  5-MIN KAVL 290830Z AUTO 15007G15KT 10SM OVC018 14/12 A2979 2290 83 2800 150/07G15 RMK AO2 T01440117
03812KAVL AVL20161129033514111/29/16 03:35:31  5-MIN KAVL 290835Z AUTO 16014G21KT 10SM -RA BKN018 OVC022 15/12 A2979 2290 80 2900 160/14G21 RMK AO2 RAB33 P0000 T01500117
03812KAVL AVL20161129034013411/29/16 03:40:31  5-MIN KAVL 290840Z AUTO 15009G21KT 10SM -RA OVC016 14/12 A2979 2290 83 2800 150/09G21 RMK AO2 RAB33 P0000 T01440117
03812KAVL AVL20161129034513411/29/16 03:45:31  5-MIN KAVL 290845Z AUTO 16010G18KT 10SM -RA OVC016 14/12 A2979 2290 86 2800 170/10G18 RMK AO2 RAB33 P0000 T01440122
03812KAVL AVL20161129035015311/29/16 03:50:31  5-MIN KAVL 290850Z AUTO 16010G17KT 10SM -RA OVC016 15/12 A2978 2290 83 2900 170/10G17 RMK AO2 RAB33 SLP074 P0000 60019 T01500122 58010
03812KAVL AVL20161129035513411/29/16 03:55:31  5-MIN KAVL 290855Z AUTO 15010G17KT 9SM -RA OVC016 15/12 A2976 2320 83 2900 150/10G17 RMK AO2 PRESFR P0000 T01500122
03812KAVL AVL20161129040012011/29/16 04:00:31  5-MIN KAVL 290900Z AUTO 17011KT 8SM RA OVC016 15/12 A2978 2300 83 2900 170/11 RMK AO2 P0001 T01500122
03812KAVL AVL20161129040512611/29/16 04:05:31  5-MIN KAVL 290905Z AUTO 18014G20KT 7SM RA OVC016 15/12 A2979 2290 83 2900 180/14G20 RMK AO2 P0001 T01500122
03812KAVL AVL20161129041014511/29/16 04:10:31  5-MIN KAVL 290910Z AUTO 18022G26KT 7SM -RA OVC016 15/12 A2979 2290 83 2900 190/22G26 RMK AO2 PK WND 18026/0910 P0002 T01500122
03812KAVL AVL20161129041514511/29/16 04:15:31  5-MIN KAVL 290915Z AUTO 18013G26KT 6SM -RA OVC016 15/12 A2978 2290 83 2900 190/13G26 RMK AO2 PK WND 18026/0910 P0003 T01500122
03812KAVL AVL20161129042014411/29/16 04:20:31  5-MIN KAVL 290920Z AUTO 16012G18KT 6SM RA OVC016 15/12 A2978 2300 83 2900 170/12G18 RMK AO2 PK WND 18026/0910 P0004 T01500122
03812KAVL AVL20161129042514411/29/16 04:25:31  5-MIN KAVL 290925Z AUTO 17013G19KT 7SM RA OVC016 15/12 A2978 2300 83 2900 180/13G19 RMK AO2 PK WND 18026/0910 P0005 T01500122
03812KAVL AVL20161129043014511/29/16 04:30:31  5-MIN KAVL 290930Z AUTO 17009G19KT 8SM -RA OVC016 15/12 A2978 2300 83 2900 180/09G19 RMK AO2 PK WND 18026/0910 P0005 T01500122
03812KAVL AVL20161129043514711/29/16 04:35:31  5-MIN KAVL 290935Z AUTO 17006KT 10SM -RA BKN016 OVC021 15/12 A2978 2300 83 2900 180/06 RMK AO2 PK WND 18026/0910 P0005 T01500122
03812KAVL AVL20161129044014011/29/16 04:40:31  5-MIN KAVL 290940Z AUTO 20004KT 10SM -RA OVC016 15/12 A2978 2290 83 2900 210/04 RMK AO2 PK WND 18026/0910 P0005 T01500122
03812KAVL AVL20161129044514011/29/16 04:45:31  5-MIN KAVL 290945Z AUTO 00000KT 10SM -RA OVC016 15/12 A2978 2290 83 2900 000/00 RMK AO2 PK WND 18026/0910 P0006 T01500122
03812KAVL AVL20161129045014711/29/16 04:50:31  5-MIN KAVL 290950Z AUTO 18005KT 10SM -RA OVC016 14/12 A2979 2290 86 2800 180/05 RMK AO2 PK WND 18026/0910 SLP075 P0006 T01440122
03812KAVL AVL20161129045512211/29/16 04:55:31  5-MIN KAVL 290955Z AUTO 18008KT 10SM -RA OVC016 15/12 A2979 2290 83 2900 190/08 RMK AO2 P0000 T01500122
03812KAVL AVL20161129050012811/29/16 05:00:31  5-MIN KAVL 291000Z AUTO 19011G19KT 10SM -RA OVC016 15/12 A2979 2290 83 2900 190/11G19 RMK AO2 P0000 T01500122
03812KAVL AVL20161129050512711/29/16 05:05:31  5-MIN KAVL 291005Z AUTO 18012G19KT 7SM -RA OVC016 15/12 A2979 2290 83 2900 180/12G19 RMK AO2 P0000 T01500122
03812KAVL AVL20161129051012711/29/16 05:10:31  5-MIN KAVL 291010Z AUTO 18016G21KT 6SM -RA OVC016 15/12 A2978 2290 83 2900 190/16G21 RMK AO2 P0001 T01500122
03812KAVL AVL20161129051512611/29/16 05:15:31  5-MIN KAVL 291015Z AUTO 18013G21KT 7SM RA OVC017 15/13 A2978 2300 86 2900 190/13G21 RMK AO2 P0001 T01500128
03812KAVL AVL20161129052012911/29/16 05:20:31  5-MIN KAVL 291020Z AUTO 17013G18KT 5SM RA BR OVC017 15/13 A2978 2300 86 2900 180/13G18 RMK AO2 P0003 T01500128
03812KAVL AVL20161129052512911/29/16 05:25:31  5-MIN KAVL 291025Z AUTO 16010G18KT 4SM RA BR OVC017 15/13 A2978 2300 86 2900 170/10G18 RMK AO2 P0005 T01500128
03812KAVL AVL20161129053012411/29/16 05:30:31  5-MIN KAVL 291030Z AUTO 16008KT 6SM -RA BR OVC017 15/13 A2977 2300 86 2900 170/08 RMK AO2 P0005 T01500128
03812KAVL AVL20161129053512711/29/16 05:35:31  5-MIN KAVL 291035Z AUTO 17010G16KT 8SM -RA OVC017 15/13 A2978 2300 86 2900 170/10G16 RMK AO2 P0006 T01500128
03812KAVL AVL20161129054012711/29/16 05:40:31  5-MIN KAVL 291040Z AUTO 17016G25KT 9SM -RA OVC017 16/13 A2978 2290 83 2900 180/16G25 RMK AO2 P0006 T01560128
03812KAVL AVL20161129054514611/29/16 05:45:31  5-MIN KAVL 291045Z AUTO 18018G27KT 10SM -RA OVC017 16/13 A2978 2300 83 2900 180/18G27 RMK AO2 PK WND 18027/1041 P0006 T01560128
03812KAVL AVL20161129055016011/29/16 05:50:31  5-MIN KAVL 291050Z AUTO 18015G27KT 10SM -RA BKN017 OVC022 16/13 A2978 2290 83 2900 180/15G27 RMK AO2 PK WND 18027/1041 SLP074 P0006 T01560128
03812KAVL AVL20161129055512811/29/16 05:55:31  5-MIN KAVL 291055Z AUTO 19010G21KT 10SM -RA OVC017 16/13 A2979 2290 83 2900 200/10G21 RMK AO2 P0000 T01560128
03812KAVL AVL20161129060012611/29/16 06:00:31  5-MIN KAVL 291100Z AUTO 22005KT 10SM OVC017 16/13 A2979 2290 83 2900 220/05 RMK AO2 RAE1057 P0000 T01560128
03812KAVL AVL20161129060512111/29/16 06:05:31  5-MIN KAVL 291105Z AUTO 20005KT 8SM -RA OVC016 15/13 A2979 2290 86 2900 210/05 RMK AO2 P0000 T01500128
03812KAVL AVL20161129061012411/29/16 06:10:31  5-MIN KAVL 291110Z AUTO 18004KT 6SM -RA BR OVC016 15/13 A2978 2290 86 2900 190/04 RMK AO2 P0001 T01500128
03812KAVL AVL20161129061512811/29/16 06:15:31  5-MIN KAVL 291115Z AUTO 00000KT 7SM -RA BKN016 OVC021 15/13 A2979 2290 86 2900 000/00 RMK AO2 P0001 T01500128
03812KAVL AVL20161129062012111/29/16 06:20:31  5-MIN KAVL 291120Z AUTO 00000KT 8SM -RA OVC016 15/13 A2979 2290 86 2900 000/00 RMK AO2 P0001 T01500128
03812KAVL AVL20161129062512611/29/16 06:25:31  5-MIN KAVL 291125Z 00000KT 6SM -RA BR BKN014 OVC019 15/13 A2979 2290 86 2900 000/00 RMK AO2 P0002 T01500128
03812KAVL AVL20161129063012511/29/16 06:30:31  5-MIN KAVL 291130Z 00000KT 5SM RA BR BKN014 OVC020 15/13 A2980 2280 86 2800 000/00 RMK AO2 P0002 T01500128
03812KAVL AVL20161129063511811/29/16 06:35:31  5-MIN KAVL 291135Z 25003KT 4SM RA BR OVC014 15/13 A2981 2270 86 2800 250/03 RMK AO2 P0003 T01500128
03812KAVL AVL20161129064013011/29/16 06:40:31  5-MIN KAVL 291140Z 00000KT 2 1/2SM +RA BR BKN014 OVC020 15/13 A2980 2270 90 2800 000/00 RMK AO2 P0007 T01500133
03812KAVL AVL20161129064513711/29/16 06:45:31  5-MIN KAVL 291145Z 00000KT 2 1/2SM +RA BR SCT014 BKN019 OVC024 15/13 A2980 2280 90 2800 000/00 RMK AO2 P0009 T01500133
03812KAVL AVL20161129065012311/29/16 06:50:31  5-MIN KAVL 291150Z 19004KT 3SM +RA BR FEW010 BKN017 OVC023 15/13 A2981 2270 90 2800 200/04 RMK AO2 P0011
03812KAVL AVL20161129065512611/29/16 06:55:31  5-MIN KAVL 291155Z 18004KT 3SM +RA BR FEW013 OVC020 14/13 A2981 2270 93 2800 190/04 RMK AO2 P0001 T01440133
03812KAVL AVL20161129070013211/29/16 07:00:31  5-MIN KAVL 291200Z 17004KT 3SM RA BR FEW010 BKN022 OVC029 14/13 A2981 2270 93 2800 170/04 RMK AO2 P0003 T01440133
03812KAVL AVL20161129070513211/29/16 07:05:31  5-MIN KAVL 291205Z 18003KT 3SM RA BR FEW017 BKN022 OVC029 14/13 A2982 2260 93 2800 190/03 RMK AO2 P0003 T01440133
03812KAVL AVL20161129071013211/29/16 07:10:31  5-MIN KAVL 291210Z 18004KT 4SM RA BR FEW011 BKN022 OVC029 14/13 A2982 2260 93 2800 190/04 RMK AO2 P0005 T01440133
03812KAVL AVL20161129071513211/29/16 07:15:31  5-MIN KAVL 291215Z 18004KT 4SM RA BR FEW011 BKN022 OVC029 14/13 A2982 2260 93 2800 190/04 RMK AO2 P0005 T01440133
03812KAVL AVL20161129072012511/29/16 07:20:31  5-MIN KAVL 291220Z 19005KT 4SM RA BR FEW014 OVC022 14/13 A2982 2260 93 2800 200/05 RMK AO2 P0007 T01440133
03812KAVL AVL20161129072513211/29/16 07:25:31  5-MIN KAVL 291225Z 16004KT 4SM RA BR FEW014 BKN022 OVC031 14/13 A2982 2260 93 2800 170/04 RMK AO2 P0008 T01440133
03812KAVL AVL20161129073013211/29/16 07:30:31  5-MIN KAVL 291230Z 15004KT 4SM RA BR FEW014 BKN022 OVC031 14/13 A2983 2260 93 2800 160/04 RMK AO2 P0010 T01440133
03812KAVL AVL20161129073513211/29/16 07:35:31  5-MIN KAVL 291235Z 15003KT 4SM RA BR FEW017 BKN024 OVC033 14/13 A2983 2250 93 2800 160/03 RMK AO2 P0011 T01440133
03812KAVL AVL20161129074013211/29/16 07:40:31  5-MIN KAVL 291240Z 15004KT 4SM RA BR FEW014 BKN026 OVC033 14/13 A2983 2250 93 2800 150/04 RMK AO2 P0012 T01440133
03812KAVL AVL20161129074513311/29/16 07:45:31  5-MIN KAVL 291245Z 15004KT 5SM -RA BR FEW019 BKN026 OVC033 14/13 A2983 2250 93 2700 150/04 RMK AO2 P0013 T01440133
03812KAVL AVL20161129075014011/29/16 07:50:31  5-MIN KAVL 291250Z 16005KT 5SM -RA BR FEW016 BKN026 OVC035 14/13 A2983 2250 93 2700 160/05 RMK AO2 SLP092 P0013 T01440133
03812KAVL AVL20161129075514311/29/16 07:55:31  5-MIN KAVL 291255Z 16005KT 3SM -RA BR FEW008 SCT016 OVC026 14/13 A2984 2240 93 2700 170/05 RMK AO2 SFC VIS 4 P0000 T01440133
03812KAVL AVL20161129080014311/29/16 08:00:31  5-MIN KAVL 291300Z 16004KT 3SM -RA BR FEW008 SCT014 OVC026 14/13 A2984 2240 93 2700 170/04 RMK AO2 SFC VIS 4 P0001 T01440133
03812KAVL AVL20161129080514311/29/16 08:05:31  5-MIN KAVL 291305Z 18005KT 3SM -RA BR SCT008 SCT015 OVC023 14/13 A2985 2230 93 2700 180/05 RMK AO2 SFC VIS 5 P0001 T01440133
03812KAVL AVL20161129081014311/29/16 08:10:31  5-MIN KAVL 291310Z 19004KT 3SM -RA BR SCT008 BKN012 OVC022 14/13 A2985 2230 93 2700 200/04 RMK AO2 SFC VIS 6 P0001 T01440133
03812KAVL AVL20161129081514211/29/16 08:15:31  5-MIN KAVL 291315Z 18003KT 3SM RA BR FEW008 BKN012 OVC022 14/13 A2985 2230 93 2700 190/03 RMK AO2 SFC VIS 5 P0002 T01440133
03812KAVL AVL20161129082014211/29/16 08:20:31  5-MIN KAVL 291320Z 16004KT 3SM RA BR FEW008 BKN020 OVC025 14/13 A2985 2230 93 2700 170/04 RMK AO2 SFC VIS 4 P0003 T01440133
03812KAVL AVL20161129082514311/29/16 08:25:31  5-MIN KAVL 291325Z 13004KT 3SM -RA BR SCT010 BKN022 OVC029 14/13 A2984 2240 93 2700 140/04 RMK AO2 SFC VIS 6 P0003 T01440133
03812KAVL AVL20161129083013311/29/16 08:30:31  5-MIN KAVL 291330Z VRB03KT 3SM -RA SCT010 OVC022 15/13 A2984 2240 90 2800 VRB/03 RMK AO2 SFC VIS 9 P0004 T01500133
03812KAVL AVL20161129083514111/29/16 08:35:31  5-MIN KAVL 291335Z 14003KT 3SM -RA FEW010 SCT016 OVC022 15/13 A2985 2230 90 2800 140/03 RMK AO2 SFC VIS 10 P0004 T01500133
03812KAVL AVL20161129084014111/29/16 08:40:31  5-MIN KAVL 291340Z 11003KT 3SM -RA FEW010 BKN016 OVC022 15/13 A2984 2240 90 2800 120/03 RMK AO2 SFC VIS 10 P0004 T01500133
03812KAVL AVL20161129084514111/29/16 08:45:31  5-MIN KAVL 291345Z 12003KT 3SM -RA FEW010 BKN019 OVC024 15/13 A2985 2230 90 2800 130/03 RMK AO2 SFC VIS 10 P0004 T01500133
03812KAVL AVL20161129085014811/29/16 08:50:31  5-MIN KAVL 291350Z 16003KT 3SM -RA FEW012 BKN021 OVC035 15/14 A2986 2230 93 2800 170/03 RMK AO2 SFC VIS 10 SLP099 P0004 T01500139
03812KAVL AVL20161129085514111/29/16 08:55:31  5-MIN KAVL 291355Z 18004KT 3SM -RA FEW009 BKN022 OVC035 15/13 A2987 2220 90 2800 190/04 RMK AO2 SFC VIS 10 P0000 T01500133
03812KAVL AVL20161129090014811/29/16 09:00:31  5-MIN KAVL 291400Z 23004KT 3SM -RA FEW011 BKN022 OVC035 15/13 A2988 2210 90 2800 240/04 RMK AO2 SFC VIS 10 PRESRR P0000 T01500133
03812KAVL AVL20161129090514711/29/16 09:05:31  5-MIN KAVL 291405Z 24006KT 3SM -RA FEW009 BKN017 OVC037 15/13 A2989 2200 90 2700 250/06 RMK AO2 SFC VIS 8 PRESRR P0000 T01500133
03812KAVL AVL20161129091014211/29/16 09:10:31  5-MIN KAVL 291410Z 32007KT 3SM RA BR FEW007 BKN015 OVC037 16/13 A2989 2200 86 2800 330/07 RMK AO2 SFC VIS 4 P0001 T01560133
03812KAVL AVL20161129091513211/29/16 09:15:31  5-MIN KAVL 291415Z 36009KT 3SM RA BR SCT007 BKN014 OVC037 14/13 A2988 2200 93 2600 010/09 RMK AO2 P0003 T01390128
03812KAVL AVL20161129092013211/29/16 09:20:31  5-MIN KAVL 291420Z 36007KT 3SM RA BR FEW005 BKN014 OVC023 13/12 A2988 2200 89 2600 010/07 RMK AO2 P0005 T01330117
03812KAVL AVL20161129092512511/29/16 09:25:31  5-MIN KAVL 291425Z 36004KT 5SM RA BR FEW005 OVC013 13/12 A2989 2200 89 2600 010/04 RMK AO2 P0006 T01330117
03812KAVL AVL20161129093013011/29/16 09:30:31  5-MIN KAVL 291430Z 36006KT 7SM -RA FEW005 BKN011 OVC014 13/12 A2987 2210 89 2600 010/06 RMK AO2 P0006 T01330117
03812KAVL AVL20161129093513111/29/16 09:35:31  5-MIN KAVL 291435Z 35004KT 10SM -RA FEW005 BKN011 OVC014 13/12 A2988 2200 89 2600 360/04 RMK AO2 P0007 T01330117
03812KAVL AVL20161129094012411/29/16 09:40:31  5-MIN KAVL 291440Z 00000KT 10SM -RA FEW005 OVC010 13/12 A2988 2210 89 2600 000/00 RMK AO2 P0007 T01330117
03812KAVL AVL20161129094511711/29/16 09:45:31  5-MIN KAVL 291445Z 00000KT 10SM -RA OVC010 13/12 A2989 2200 93 2600 000/00 RMK AO2 P0007 T01330122
03812KAVL AVL20161129095013611/29/16 09:50:31  5-MIN KAVL 291450Z 00000KT 10SM -RA OVC010 14/12 A2990 2190 90 2600 000/00 RMK AO2 SLP111 P0007 60024 T01390122 51008
03812KAVL AVL20161129095511611/29/16 09:55:31  5-MIN KAVL 291455Z 00000KT 9SM -RA OVC011 14/12 A2990 2190 90 2600 000/00 RMK AO2 P0000 T01390122
03812KAVL AVL20161129100011811/29/16 10:00:31  5-MIN KAVL 291500Z 00000KT 5SM RA BR OVC011 14/12 A2990 2190 90 2600 000/00 RMK AO2 P0001 T01390122
03812KAVL AVL20161129100512511/29/16 10:05:31  5-MIN KAVL 291505Z 11004KT 4SM RA BR BKN011 OVC050 13/12 A2989 2190 93 2500 110/04 RMK AO2 P0002 T01330122
03812KAVL AVL20161129101013211/29/16 10:10:31  5-MIN KAVL 291510Z 00000KT 4SM RA BR BKN011 BKN050 OVC090 13/12 A2990 2190 93 2500 000/00 RMK AO2 P0004 T01330122
03812KAVL AVL20161129101513211/29/16 10:15:31  5-MIN KAVL 291515Z 12004KT 4SM RA BR BKN011 BKN055 OVC090 14/12 A2989 2200 90 2600 130/04 RMK AO2 P0006 T01390122
03812KAVL AVL20161129102013011/29/16 10:20:31  5-MIN KAVL 291520Z 11008KT 7SM -RA SCT009 BKN055 OVC090 14/12 A2988 2210 90 2600 120/08 RMK AO2 P0006 T01390122
03812KAVL AVL20161129102513711/29/16 10:25:31  5-MIN KAVL 291525Z 13007KT 8SM -RA FEW009 SCT055 OVC095 14/12 A2987 2220 90 2600 130/07 RMK AO2 PRESFR P0007 T01390122
03812KAVL AVL20161129103012211/29/16 10:30:31  5-MIN KAVL 291530Z 14008KT 7SM RA FEW009 OVC095 14/13 A2987 2210 90 2700 150/08 RMK AO2 P0008 T01440128
03812KAVL AVL20161129103512211/29/16 10:35:31  5-MIN KAVL 291535Z 15007KT 7SM RA FEW070 OVC095 14/13 A2988 2200 90 2700 160/07 RMK AO2 P0009 T01440128
03812KAVL AVL20161129104013611/29/16 10:40:31  5-MIN KAVL 291540Z 17006G14KT 9SM -RA FEW013 FEW025 OVC100 15/13 A2989 2190 90 2700 180/06G14 RMK AO2 P0009 T01500133
03812KAVL AVL20161129104513111/29/16 10:45:31  5-MIN KAVL 291545Z 18008KT 10SM -RA SCT016 BKN095 OVC110 15/13 A2989 2190 86 2700 190/08 RMK AO2 P0009 T01500128
03812KAVL AVL20161129105014011/29/16 10:50:31  5-MIN KAVL 291550Z 18008KT 10SM SCT016 BKN095 OVC110 15/13 A2989 2200 86 2700 190/08 RMK AO2 RAE50 SLP107 P0009 T01500128
03812KAVL AVL20161129105512111/29/16 10:55:31  5-MIN KAVL 291555Z 18007KT 10SM SCT018 SCT026 BKN100 15/13 A2988 2200 86 2800 180/07 RMK AO2 T01500128
03812KAVL AVL20161129110012111/29/16 11:00:31  5-MIN KAVL 291600Z 18006KT 10SM SCT018 SCT026 BKN100 16/13 A2988 2200 83 2800 190/06 RMK AO2 T01560128
03812KAVL AVL20161129110512111/29/16 11:05:31  5-MIN KAVL 291605Z 17006KT 10SM FEW014 SCT018 SCT110 16/13 A2988 2210 83 2800 180/06 RMK AO2 T01560128
03812KAVL AVL20161129111012111/29/16 11:10:31  5-MIN KAVL 291610Z 17006KT 10SM FEW016 SCT021 SCT110 16/12 A2988 2210 80 2800 180/06 RMK AO2 T01560122
03812KAVL AVL20161129111511411/29/16 11:15:31  5-MIN KAVL 291615Z 17007KT 10SM FEW018 FEW100 16/12 A2988 2210 80 2800 180/07 RMK AO2 T01560122
03812KAVL AVL20161129112010711/29/16 11:20:31  5-MIN KAVL 291620Z 18011KT 10SM FEW018 16/13 A2988 2210 80 2900 180/11 RMK AO2 T01610128
03812KAVL AVL20161129112511011/29/16 11:25:31  5-MIN KAVL 291625Z 17013G18KT 10SM CLR 17/13 A2988 2210 77 3000 180/13G18 RMK AO2 T01670128
03812KAVL AVL20161129113011011/29/16 11:30:31  5-MIN KAVL 291630Z 18011G18KT 10SM CLR 17/12 A2988 2200 75 2900 190/11G18 RMK AO2 T01670122
03812KAVL AVL20161129113511011/29/16 11:35:31  5-MIN KAVL 291635Z 18012G20KT 10SM CLR 17/12 A2988 2200 72 2900 190/12G20 RMK AO2 T01670117
03812KAVL AVL20161129114011011/29/16 11:40:31  5-MIN KAVL 291640Z 19010G20KT 10SM CLR 17/12 A2988 2200 72 2900 200/10G20 RMK AO2 T01670117
03812KAVL AVL20161129114511011/29/16 11:45:31  5-MIN KAVL 291645Z 18008G20KT 10SM CLR 17/12 A2988 2200 72 2900 180/08G20 RMK AO2 T01670117
03812KAVL AVL20161129115011711/29/16 11:50:31  5-MIN KAVL 291650Z VRB05G14KT 10SM CLR 17/11 A2988 2200 69 2900 VRB/05G14 RMK AO2 SLP104 T01670111
03812KAVL AVL20161129115510411/29/16 11:55:31  5-MIN KAVL 291655Z VRB06KT 10SM CLR 17/12 A2988 2210 72 3000 VRB/06 RMK AO2 T01670117
03812KAVL AVL20161129120010411/29/16 12:00:31  5-MIN KAVL 291700Z 19008KT 10SM CLR 17/11 A2988 2210 69 3000 200/08 RMK AO2 T01670111
03812KAVL AVL20161129120510411/29/16 12:05:31  5-MIN KAVL 291705Z 18008KT 10SM CLR 17/11 A2987 2210 67 3000 180/08 RMK AO2 T01720111
03812KAVL AVL20161129121011011/29/16 12:10:31  5-MIN KAVL 291710Z 19006G15KT 10SM CLR 17/12 A2988 2210 69 3000 190/06G15 RMK AO2 T01720117
03812KAVL AVL20161129121511011/29/16 12:15:31  5-MIN KAVL 291715Z VRB06G15KT 10SM CLR 18/12 A2988 2210 67 3100 VRB/06G15 RMK AO2 T01780117
03812KAVL AVL20161129122010411/29/16 12:20:31  5-MIN KAVL 291720Z 18007KT 10SM CLR 18/11 A2988 2210 64 3100 190/07 RMK AO2 T01780111
03812KAVL AVL20161129122510411/29/16 12:25:31  5-MIN KAVL 291725Z 18011KT 10SM CLR 18/12 A2988 2210 65 3100 190/11 RMK AO2 T01830117
03812KAVL AVL20161129123011011/29/16 12:30:31  5-MIN KAVL 291730Z 19013G20KT 10SM CLR 18/11 A2987 2210 64 3100 190/13G20 RMK AO2 T01780111
03812KAVL AVL20161129123511011/29/16 12:35:31  5-MIN KAVL 291735Z 19014G20KT 10SM CLR 18/12 A2987 2210 65 3100 200/14G20 RMK AO2 T01830117
03812KAVL AVL20161129124011011/29/16 12:40:31  5-MIN KAVL 291740Z 20010G18KT 10SM CLR 18/11 A2987 2210 62 3200 200/10G18 RMK AO2 T01830111
03812KAVL AVL20161129124511011/29/16 12:45:31  5-MIN KAVL 291745Z 18014G19KT 10SM CLR 18/12 A2987 2220 65 3200 190/14G19 RMK AO2 T01830117
03812KAVL AVL20161129125014111/29/16 12:50:31  5-MIN KAVL 291750Z 19011G19KT 10SM CLR 19/11 A2987 2210 60 3200 200/11G19 RMK AO2 SLP099 60033 T01890111 10189 20133 53027
03812KAVL AVL20161129125511011/29/16 12:55:31  5-MIN KAVL 291755Z 19012G21KT 10SM CLR 19/12 A2987 2210 62 3200 200/12G21 RMK AO2 T01890117
03812KAVL AVL20161129130011011/29/16 13:00:31  5-MIN KAVL 291800Z 20014G21KT 10SM CLR 19/11 A2987 2220 60 3200 210/14G21 RMK AO2 T01890111
03812KAVL AVL20161129130511011/29/16 13:05:31  5-MIN KAVL 291805Z 19013G21KT 10SM CLR 19/11 A2986 2220 58 3200 190/13G21 RMK AO2 T01890106
03812KAVL AVL20161129131011011/29/16 13:10:31  5-MIN KAVL 291810Z 19011G21KT 10SM CLR 19/11 A2987 2220 58 3200 200/11G21 RMK AO2 T01890106
03812KAVL AVL20161129131511011/29/16 13:15:31  5-MIN KAVL 291815Z 19015G23KT 10SM CLR 19/11 A2987 2220 56 3300 200/15G23 RMK AO2 T01940106
03812KAVL AVL20161129132011011/29/16 13:20:31  5-MIN KAVL 291820Z 19015G23KT 10SM CLR 19/11 A2987 2220 56 3300 200/15G23 RMK AO2 T01940106
03812KAVL AVL20161129132511011/29/16 13:25:31  5-MIN KAVL 291825Z 19015G22KT 10SM CLR 19/11 A2987 2220 56 3300 200/15G22 RMK AO2 T01940106
03812KAVL AVL20161129133011011/29/16 13:30:31  5-MIN KAVL 291830Z 20015G22KT 10SM CLR 19/11 A2987 2220 56 3300 210/15G22 RMK AO2 T01940106
03812KAVL AVL20161129133511011/29/16 13:35:31  5-MIN KAVL 291835Z 20012G20KT 10SM CLR 19/11 A2987 2220 56 3300 210/12G20 RMK AO2 T01940106
03812KAVL AVL20161129134011011/29/16 13:40:31  5-MIN KAVL 291840Z 20016G21KT 10SM CLR 19/11 A2987 2220 56 3300 210/16G21 RMK AO2 T01940106
03812KAVL AVL20161129134511011/29/16 13:45:31  5-MIN KAVL 291845Z 20016G22KT 10SM CLR 19/11 A2987 2220 56 3300 200/16G22 RMK AO2 T01940106
03812KAVL AVL20161129135011711/29/16 13:50:31  5-MIN KAVL 291850Z 20014G22KT 10SM CLR 19/11 A2987 2210 56 3300 200/14G22 RMK AO2 SLP098 T01940106
03812KAVL AVL20161129135511011/29/16 13:55:31  5-MIN KAVL 291855Z 20016G20KT 10SM CLR 19/11 A2987 2210 56 3300 210/16G20 RMK AO2 T01940106
03812KAVL AVL20161129140011011/29/16 14:00:31  5-MIN KAVL 291900Z 21017G22KT 10SM CLR 19/11 A2987 2210 56 3300 220/17G22 RMK AO2 T01940106
03812KAVL AVL20161129140511011/29/16 14:05:31  5-MIN KAVL 291905Z 21014G22KT 10SM CLR 19/11 A2988 2210 56 3300 220/14G22 RMK AO2 T01940106
03812KAVL AVL20161129141011011/29/16 14:10:31  5-MIN KAVL 291910Z 21015G22KT 10SM CLR 19/11 A2988 2210 56 3300 220/15G22 RMK AO2 T01940106
03812KAVL AVL20161129141510411/29/16 14:15:31  5-MIN KAVL 291915Z 19013KT 10SM CLR 19/11 A2988 2210 58 3300 200/13 RMK AO2 T01940111
03812KAVL AVL20161129142010411/29/16 14:20:31  5-MIN KAVL 291920Z 20012KT 10SM CLR 19/12 A2987 2210 60 3300 210/12 RMK AO2 T01940117
03812KAVL AVL20161129142511011/29/16 14:25:31  5-MIN KAVL 291925Z 21014G22KT 10SM CLR 19/11 A2988 2210 58 3300 210/14G22 RMK AO2 T01940111
03812KAVL AVL20161129143011011/29/16 14:30:31  5-MIN KAVL 291930Z 21012G22KT 10SM CLR 19/11 A2988 2210 58 3300 220/12G22 RMK AO2 T01940111
03812KAVL AVL20161129143511011/29/16 14:35:31  5-MIN KAVL 291935Z 20015G21KT 10SM CLR 19/11 A2988 2210 58 3300 210/15G21 RMK AO2 T01940111
03812KAVL AVL20161129144011011/29/16 14:40:31  5-MIN KAVL 291940Z 20017G21KT 10SM CLR 19/11 A2988 2210 58 3300 200/17G21 RMK AO2 T01940111
03812KAVL AVL20161129144511011/29/16 14:45:31  5-MIN KAVL 291945Z 21013G21KT 10SM CLR 19/11 A2988 2200 58 3300 210/13G21 RMK AO2 T01940111
03812KAVL AVL20161129145011711/29/16 14:50:31  5-MIN KAVL 291950Z 20015G23KT 10SM CLR 19/11 A2988 2210 58 3300 210/15G23 RMK AO2 SLP100 T01940111
03812KAVL AVL20161129145511011/29/16 14:55:31  5-MIN KAVL 291955Z 21014G23KT 10SM CLR 19/11 A2988 2210 58 3300 220/14G23 RMK AO2 T01940111
03812KAVL AVL20161129150011011/29/16 15:00:31  5-MIN KAVL 292000Z 21013G23KT 10SM CLR 19/11 A2988 2210 58 3300 220/13G23 RMK AO2 T01940111
03812KAVL AVL20161129150510411/29/16 15:05:31  5-MIN KAVL 292005Z 20013KT 10SM CLR 19/11 A2988 2210 56 3300 210/13 RMK AO2 T01940106
03812KAVL AVL20161129151010411/29/16 15:10:31  5-MIN KAVL 292010Z 20014KT 10SM CLR 19/11 A2988 2200 56 3300 210/14 RMK AO2 T01940106
03812KAVL AVL20161129151511011/29/16 15:15:31  5-MIN KAVL 292015Z 20011G20KT 10SM CLR 19/11 A2988 2200 58 3300 210/11G20 RMK AO2 T01940111
03812KAVL AVL20161129152011011/29/16 15:20:31  5-MIN KAVL 292020Z 21014G19KT 10SM CLR 19/11 A2988 2200 58 3300 210/14G19 RMK AO2 T01940111
03812KAVL AVL20161129152511511/29/16 15:25:31  5-MIN KAVL 292025Z AUTO 21014G19KT 10SM CLR 19/11 A2988 2200 56 3300 210/14G19 RMK AO2 T01940106
03812KAVL AVL20161129153010911/29/16 15:30:31  5-MIN KAVL 292030Z AUTO 19013KT 10SM CLR 19/11 A2988 2200 58 3300 200/13 RMK AO2 T01940111
03812KAVL AVL20161129153510911/29/16 15:35:31  5-MIN KAVL 292035Z AUTO 19015KT 10SM CLR 19/11 A2988 2200 60 3200 190/15 RMK AO2 T01890111
03812KAVL AVL20161129154011511/29/16 15:40:31  5-MIN KAVL 292040Z AUTO 19011G19KT 10SM CLR 19/11 A2989 2200 60 3200 200/11G19 RMK AO2 T01890111
03812KAVL AVL20161129154510911/29/16 15:45:31  5-MIN KAVL 292045Z AUTO 19012KT 10SM CLR 19/11 A2989 2200 60 3200 200/12 RMK AO2 T01890111
03812KAVL AVL20161129155012211/29/16 15:50:31  5-MIN KAVL 292050Z AUTO 20012KT 10SM CLR 19/11 A2989 2200 60 3200 210/12 RMK AO2 SLP102 T01890111 56008
03812KAVL AVL20161129155510911/29/16 15:55:31  5-MIN KAVL 292055Z AUTO 19015KT 10SM CLR 19/11 A2989 2200 60 3200 200/15 RMK AO2 T01890111
03812KAVL AVL20161129160010911/29/16 16:00:31  5-MIN KAVL 292100Z AUTO 20014KT 10SM CLR 19/11 A2989 2190 60 3200 200/14 RMK AO2 T01890111
03812KAVL AVL20161129160510911/29/16 16:05:31  5-MIN KAVL 292105Z AUTO 21013KT 10SM CLR 19/11 A2989 2190 60 3200 220/13 RMK AO2 T01890111
03812KAVL AVL20161129161010911/29/16 16:10:31  5-MIN KAVL 292110Z AUTO 20013KT 10SM CLR 19/11 A2990 2190 60 3200 210/13 RMK AO2 T01890111
03812KAVL AVL20161129161511511/29/16 16:15:31  5-MIN KAVL 292115Z AUTO 21014G20KT 10SM CLR 18/11 A2989 2190 62 3100 220/14G20 RMK AO2 T01830111
03812KAVL AVL20161129162010911/29/16 16:20:31  5-MIN KAVL 292120Z AUTO 21013KT 10SM CLR 18/11 A2990 2190 62 3100 210/13 RMK AO2 T01830111
03812KAVL AVL20161129162510911/29/16 16:25:31  5-MIN KAVL 292125Z AUTO 21012KT 10SM CLR 18/11 A2990 2180 62 3100 220/12 RMK AO2 T01830111
03812KAVL AVL20161129163010911/29/16 16:30:31  5-MIN KAVL 292130Z AUTO 20012KT 10SM CLR 18/11 A2990 2180 62 3100 210/12 RMK AO2 T01830111
03812KAVL AVL20161129163511511/29/16 16:35:31  5-MIN KAVL 292135Z AUTO 21013G18KT 10SM CLR 18/11 A2990 2180 62 3100 220/13G18 RMK AO2 T01830111
03812KAVL AVL20161129164010911/29/16 16:40:31  5-MIN KAVL 292140Z AUTO 20011KT 10SM CLR 18/11 A2991 2180 64 3000 210/11 RMK AO2 T01780111
03812KAVL AVL20161129164510911/29/16 16:45:31  5-MIN KAVL 292145Z AUTO 21012KT 10SM CLR 18/11 A2990 2180 64 3000 220/12 RMK AO2 T01780111
03812KAVL AVL20161129165011611/29/16 16:50:31  5-MIN KAVL 292150Z AUTO 21011KT 10SM CLR 18/11 A2991 2180 64 3000 210/11 RMK AO2 SLP110 T01780111
03812KAVL AVL20161129165510911/29/16 16:55:31  5-MIN KAVL 292155Z AUTO 21012KT 10SM CLR 18/11 A2991 2180 64 3000 220/12 RMK AO2 T01780111
03812KAVL AVL20161129170010911/29/16 17:00:31  5-MIN KAVL 292200Z AUTO 19010KT 10SM CLR 17/11 A2991 2180 67 3000 200/10 RMK AO2 T01720111
03812KAVL AVL20161129170510911/29/16 17:05:31  5-MIN KAVL 292205Z AUTO 19008KT 10SM CLR 17/11 A2991 2180 67 3000 190/08 RMK AO2 T01720111
03812KAVL AVL20161129171010911/29/16 17:10:31  5-MIN KAVL 292210Z AUTO 19009KT 10SM CLR 17/11 A2991 2180 69 2900 190/09 RMK AO2 T01670111
03812KAVL AVL20161129171510911/29/16 17:15:31  5-MIN KAVL 292215Z AUTO 17005KT 10SM CLR 17/11 A2991 2180 69 2900 180/05 RMK AO2 T01670111
03812KAVL AVL20161129172010911/29/16 17:20:31  5-MIN KAVL 292220Z AUTO 19007KT 10SM CLR 17/11 A2991 2170 69 2900 200/07 RMK AO2 T01670111
03812KAVL AVL20161129172510911/29/16 17:25:31  5-MIN KAVL 292225Z AUTO 17007KT 10SM CLR 16/11 A2992 2170 72 2800 180/07 RMK AO2 T01610111
03812KAVL AVL20161129173010911/29/16 17:30:31  5-MIN KAVL 292230Z AUTO 19009KT 10SM CLR 16/11 A2992 2170 72 2800 190/09 RMK AO2 T01610111
03812KAVL AVL20161129173510911/29/16 17:35:31  5-MIN KAVL 292235Z AUTO 19010KT 10SM CLR 16/11 A2992 2170 72 2800 200/10 RMK AO2 T01610111
03812KAVL AVL20161129174010911/29/16 17:40:31  5-MIN KAVL 292240Z AUTO 18007KT 10SM CLR 17/11 A2992 2170 69 2900 190/07 RMK AO2 T01670111
03812KAVL AVL20161129174510911/29/16 17:45:31  5-MIN KAVL 292245Z AUTO 18008KT 10SM CLR 16/11 A2992 2170 72 2800 190/08 RMK AO2 T01610111
03812KAVL AVL20161129175011611/29/16 17:50:31  5-MIN KAVL 292250Z AUTO 18007KT 10SM CLR 16/12 A2993 2160 75 2800 190/07 RMK AO2 SLP118 T01610117
03812KAVL AVL20161129175510911/29/16 17:55:31  5-MIN KAVL 292255Z AUTO 19006KT 10SM CLR 16/12 A2993 2160 75 2800 200/06 RMK AO2 T01610117
03812KAVL AVL20161129180010411/29/16 18:00:31  5-MIN KAVL 292300Z 19007KT 10SM CLR 16/12 A2993 2160 75 2800 200/07 RMK AO2 T01610117
03812KAVL AVL20161129180510411/29/16 18:05:31  5-MIN KAVL 292305Z 18008KT 10SM CLR 16/12 A2993 2160 77 2800 180/08 RMK AO2 T01560117
03812KAVL AVL20161129181010411/29/16 18:10:31  5-MIN KAVL 292310Z 18008KT 10SM CLR 16/12 A2993 2160 77 2800 190/08 RMK AO2 T01560117
03812KAVL AVL20161129181510411/29/16 18:15:31  5-MIN KAVL 292315Z 19009KT 10SM CLR 16/11 A2993 2160 74 2800 190/09 RMK AO2 T01560111
03812KAVL AVL20161129182010411/29/16 18:20:31  5-MIN KAVL 292320Z 19009KT 10SM CLR 16/11 A2993 2150 74 2800 190/09 RMK AO2 T01560111
03812KAVL AVL20161129182510411/29/16 18:25:31  5-MIN KAVL 292325Z 19009KT 10SM CLR 16/12 A2994 2150 77 2800 190/09 RMK AO2 T01560117
03812KAVL AVL20161129183010411/29/16 18:30:31  5-MIN KAVL 292330Z 18007KT 10SM CLR 16/12 A2994 2150 77 2800 190/07 RMK AO2 T01560117
03812KAVL AVL20161129183510411/29/16 18:35:31  5-MIN KAVL 292335Z 19007KT 10SM CLR 15/12 A2994 2150 80 2700 190/07 RMK AO2 T01500117
03812KAVL AVL20161129184010411/29/16 18:40:31  5-MIN KAVL 292340Z 19007KT 10SM CLR 16/12 A2995 2140 77 2700 200/07 RMK AO2 T01560117
03812KAVL AVL20161129184510411/29/16 18:45:31  5-MIN KAVL 292345Z 19008KT 10SM CLR 15/12 A2995 2140 80 2700 200/08 RMK AO2 T01500117
03812KAVL AVL20161129185012911/29/16 18:50:31  5-MIN KAVL 292350Z 20008KT 10SM CLR 15/12 A2995 2140 80 2700 200/08 RMK AO2 SLP129 T01500117 10194 20150 53006
03812KAVL AVL20161129185510411/29/16 18:55:31  5-MIN KAVL 292355Z 20006KT 10SM CLR 16/12 A2996 2130 77 2700 200/06 RMK AO2 T01560117
03812KAVL AVL20161129190010711/29/16 19:00:31  5-MIN KAVL 300000Z 20005KT 10SM FEW060 15/12 A2996 2130 80 2700 210/05 RMK AO2 T01500117
03812KAVL AVL20161129190510711/29/16 19:05:31  5-MIN KAVL 300005Z 19004KT 10SM SCT060 16/12 A2996 2130 77 2700 200/04 RMK AO2 T01560117
03812KAVL AVL20161129191010711/29/16 19:10:31  5-MIN KAVL 300010Z 18007KT 10SM FEW060 15/12 A2996 2130 80 2700 190/07 RMK AO2 T01500117
03812KAVL AVL20161129191510711/29/16 19:15:31  5-MIN KAVL 300015Z 18008KT 10SM FEW060 15/12 A2995 2140 80 2700 190/08 RMK AO2 T01500117
03812KAVL AVL20161129192010711/29/16 19:20:31  5-MIN KAVL 300020Z 17008KT 10SM FEW060 15/12 A2996 2130 80 2700 180/08 RMK AO2 T01500117
03812KAVL AVL20161129192510711/29/16 19:25:31  5-MIN KAVL 300025Z 16006KT 10SM FEW060 14/12 A2996 2130 83 2600 170/06 RMK AO2 T01440117
03812KAVL AVL20161129193010711/29/16 19:30:31  5-MIN KAVL 300030Z 17006KT 10SM FEW055 14/11 A2997 2120 80 2600 180/06 RMK AO2 T01440111
03812KAVL AVL20161129193510411/29/16 19:35:31  5-MIN KAVL 300035Z 17004KT 10SM CLR 14/11 A2997 2120 83 2500 180/04 RMK AO2 T01390111
03812KAVL AVL20161129194010711/29/16 19:40:31  5-MIN KAVL 300040Z 18004KT 10SM FEW065 14/11 A2997 2120 83 2500 180/04 RMK AO2 T01390111
03812KAVL AVL20161129194510711/29/16 19:45:31  5-MIN KAVL 300045Z 18006KT 10SM FEW065 13/11 A2997 2120 86 2500 190/06 RMK AO2 T01330111
03812KAVL AVL20161129195011411/29/16 19:50:31  5-MIN KAVL 300050Z 16004KT 10SM FEW060 13/11 A2997 2130 86 2500 160/04 RMK AO2 SLP134 T01330111
03812KAVL AVL20161129195510711/29/16 19:55:31  5-MIN KAVL 300055Z 15003KT 10SM FEW060 14/11 A2996 2130 83 2500 150/03 RMK AO2 T01390111
03812KAVL AVL20161129200010711/29/16 20:00:31  5-MIN KAVL 300100Z 14003KT 10SM FEW065 14/11 A2997 2130 83 2500 150/03 RMK AO2 T01390111
03812KAVL AVL20161129200510711/29/16 20:05:31  5-MIN KAVL 300105Z 00000KT 10SM FEW065 14/11 A2997 2120 83 2500 000/00 RMK AO2 T01390111
03812KAVL AVL20161129201010411/29/16 20:10:31  5-MIN KAVL 300110Z 00000KT 10SM CLR 14/11 A2997 2120 83 2500 000/00 RMK AO2 T01390111
03812KAVL AVL20161129201510711/29/16 20:15:31  5-MIN KAVL 300115Z VRB03KT 10SM FEW065 14/11 A2997 2120 83 2500 VRB/03 RMK AO2 T01390111
03812KAVL AVL20161129202010711/29/16 20:20:31  5-MIN KAVL 300120Z 00000KT 10SM FEW070 14/11 A2997 2120 83 2500 000/00 RMK AO2 T01390111
03812KAVL AVL20161129202510711/29/16 20:25:31  5-MIN KAVL 300125Z 00000KT 10SM SCT070 14/11 A2997 2120 80 2600 000/00 RMK AO2 T01440111
03812KAVL AVL20161129203010711/29/16 20:30:31  5-MIN KAVL 300130Z 00000KT 10SM BKN070 14/11 A2997 2120 80 2600 000/00 RMK AO2 T01440111
03812KAVL AVL20161129203510711/29/16 20:35:31  5-MIN KAVL 300135Z 00000KT 10SM SCT070 14/11 A2996 2130 83 2500 000/00 RMK AO2 T01390111
03812KAVL AVL20161129204010711/29/16 20:40:31  5-MIN KAVL 300140Z 00000KT 10SM SCT070 13/11 A2996 2130 86 2500 000/00 RMK AO2 T01330111
03812KAVL AVL20161129204510711/29/16 20:45:31  5-MIN KAVL 300145Z 00000KT 10SM BKN070 13/11 A2996 2130 86 2500 000/00 RMK AO2 T01330111
03812KAVL AVL20161129205011411/29/16 20:50:31  5-MIN KAVL 300150Z 16004KT 10SM BKN070 13/11 A2996 2130 86 2500 170/04 RMK AO2 SLP133 T01330111
03812KAVL AVL20161129205510711/29/16 20:55:31  5-MIN KAVL 300155Z 15003KT 10SM SCT070 13/11 A2996 2130 86 2500 150/03 RMK AO2 T01330111
03812KAVL AVL20161129210011411/29/16 21:00:31  5-MIN KAVL 300200Z 00000KT 10SM FEW014 SCT070 13/11 A2996 2130 86 2500 000/00 RMK AO2 T01330111
03812KAVL AVL20161129210511411/29/16 21:05:31  5-MIN KAVL 300205Z 13003KT 10SM FEW014 FEW070 13/11 A2996 2130 86 2500 140/03 RMK AO2 T01330111
03812KAVL AVL20161129211011411/29/16 21:10:31  5-MIN KAVL 300210Z 14005KT 10SM FEW014 SCT070 14/12 A2996 2130 83 2600 150/05 RMK AO2 T01440117
03812KAVL AVL20161129211510711/29/16 21:15:31  5-MIN KAVL 300215Z 13004KT 10SM SCT014 14/12 A2996 2130 83 2600 130/04 RMK AO2 T01440117
03812KAVL AVL20161129212010711/29/16 21:20:31  5-MIN KAVL 300220Z 13003KT 10SM BKN014 14/12 A2995 2140 83 2600 130/03 RMK AO2 T01440117
03812KAVL AVL20161129212510711/29/16 21:25:31  5-MIN KAVL 300225Z 13004KT 10SM BKN014 14/12 A2995 2140 83 2600 130/04 RMK AO2 T01440117
03812KAVL AVL20161129213010711/29/16 21:30:31  5-MIN KAVL 300230Z 15003KT 10SM BKN014 15/12 A2995 2140 83 2700 150/03 RMK AO2 T01500122
03812KAVL AVL20161129213510711/29/16 21:35:31  5-MIN KAVL 300235Z 18003KT 10SM OVC014 15/12 A2995 2140 80 2700 180/03 RMK AO2 T01500117
03812KAVL AVL20161129214010711/29/16 21:40:31  5-MIN KAVL 300240Z 17003KT 10SM OVC014 13/11 A2995 2140 86 2500 170/03 RMK AO2 T01330111
03812KAVL AVL20161129214510711/29/16 21:45:31  5-MIN KAVL 300245Z 22004KT 10SM OVC014 13/11 A2994 2150 86 2500 230/04 RMK AO2 T01330111
03812KAVL AVL20161129215012011/29/16 21:50:31  5-MIN KAVL 300250Z 17004KT 10SM OVC014 13/11 A2994 2150 86 2500 180/04 RMK AO2 SLP124 T01330111 53022
03812KAVL AVL20161129215510711/29/16 21:55:31  5-MIN KAVL 300255Z 18003KT 10SM OVC014 13/11 A2994 2150 86 2500 190/03 RMK AO2 T01330111
03812KAVL AVL20161129220011411/29/16 22:00:31  5-MIN KAVL 300300Z 18003KT 10SM BKN014 OVC033 13/11 A2994 2150 86 2500 180/03 RMK AO2 T01330111
03812KAVL AVL20161129220512111/29/16 22:05:31  5-MIN KAVL 300305Z 18003KT 10SM BKN015 BKN022 OVC035 13/11 A2994 2150 86 2500 180/03 RMK AO2 T01330111
03812KAVL AVL20161129221012111/29/16 22:10:31  5-MIN KAVL 300310Z 00000KT 10SM BKN015 BKN021 OVC035 13/11 A2994 2140 86 2500 000/00 RMK AO2 T01330111
03812KAVL AVL20161129221510711/29/16 22:15:31  5-MIN KAVL 300315Z 00000KT 10SM OVC017 13/11 A2994 2150 86 2500 000/00 RMK AO2 T01330111
03812KAVL AVL20161129222010711/29/16 22:20:31  5-MIN KAVL 300320Z 00000KT 10SM OVC017 13/11 A2994 2150 86 2500 000/00 RMK AO2 T01330111
03812KAVL AVL20161129222510711/29/16 22:25:31  5-MIN KAVL 300325Z 14003KT 10SM OVC017 14/11 A2994 2150 83 2600 150/03 RMK AO2 T01390111
03812KAVL AVL20161129223010711/29/16 22:30:31  5-MIN KAVL 300330Z 00000KT 10SM OVC017 14/12 A2994 2150 86 2600 000/00 RMK AO2 T01390117
03812KAVL AVL20161129223510711/29/16 22:35:31  5-MIN KAVL 300335Z 00000KT 10SM OVC018 14/12 A2994 2150 86 2600 000/00 RMK AO2 T01390117
03812KAVL AVL20161129224010711/29/16 22:40:31  5-MIN KAVL 300340Z 15003KT 10SM OVC018 14/12 A2994 2150 90 2600 150/03 RMK AO2 T01390122
03812KAVL AVL20161129224511211/29/16 22:45:31  5-MIN KAVL 300345Z AUTO VRB03KT 10SM OVC018 14/12 A2992 2160 86 2600 VRB/03 RMK AO2 T01440122
03812KAVL AVL20161129225012611/29/16 22:50:31  5-MIN KAVL 300350Z AUTO 17003KT 10SM OVC018 14/12 A2992 2170 86 2600 170/03 RMK AO2 PRESFR SLP116 T01440122
03812KAVL AVL20161129225511911/29/16 22:55:31  5-MIN KAVL 300355Z AUTO 16003KT 10SM BKN013 OVC020 14/12 A2991 2170 90 2600 160/03 RMK AO2 T01390122
03812KAVL AVL20161129230012611/29/16 23:00:31  5-MIN KAVL 300400Z AUTO 14003KT 10SM BKN015 BKN019 OVC026 14/12 A2991 2170 90 2600 140/03 RMK AO2 T01390122
03812KAVL AVL20161129230512611/29/16 23:05:31  5-MIN KAVL 300405Z AUTO 13004KT 10SM BKN013 BKN018 OVC025 14/13 A2991 2180 90 2700 140/04 RMK AO2 T01440128
03812KAVL AVL20161129231011911/29/16 23:10:31  5-MIN KAVL 300410Z AUTO VRB04KT 10SM BKN013 OVC026 15/13 A2991 2170 90 2700 VRB/04 RMK AO2 T01500133
03812KAVL AVL20161129231512711/29/16 23:15:31  5-MIN KAVL 300415Z AUTO 12004KT 7SM -RA OVC012 15/13 A2991 2170 90 2700 130/04 RMK AO2 RAB11 P0000 T01500133
03812KAVL AVL20161129232013011/29/16 23:20:31  5-MIN KAVL 300420Z AUTO 16004KT 4SM -RA BR OVC012 15/13 A2992 2170 90 2700 160/04 RMK AO2 RAB11 P0001 T01500133
03812KAVL AVL20161129232513011/29/16 23:25:31  5-MIN KAVL 300425Z AUTO 16006KT 3SM +RA BR OVC012 15/13 A2992 2170 90 2700 160/06 RMK AO2 RAB11 P0005 T01500133
03812KAVL AVL20161129233013611/29/16 23:30:31  5-MIN KAVL 300430Z AUTO 16003KT 3SM RA BR FEW006 OVC011 15/14 A2991 2170 93 2700 160/03 RMK AO2 RAB11 P0006 T01500139
03812KAVL AVL20161129233513711/29/16 23:35:31  5-MIN KAVL 300435Z AUTO 16004KT 4SM -RA BR FEW004 OVC011 15/14 A2992 2170 93 2700 170/04 RMK AO2 RAB11 P0007 T01500139
03812KAVL AVL20161129234013711/29/16 23:40:31  5-MIN KAVL 300440Z AUTO 15005KT 3SM +RA BR SCT004 OVC011 15/14 A2991 2180 93 2700 150/05 RMK AO2 RAB11 P0011 T01500139
03812KAVL AVL20161129234513711/29/16 23:45:31  5-MIN KAVL 300445Z AUTO 18006KT 3SM -RA BR BKN004 OVC011 15/14 A2992 2170 93 2700 190/06 RMK AO2 RAB11 P0012 T01500139
03812KAVL AVL20161129235017511/29/16 23:50:31  5-MIN KAVL 300450Z AUTO 25009KT 2 1/2SM R35/6000VP6000FT +RA BR BKN004 OVC011 14/13 A2993 2160 93 2600 260/09 RMK AO2 RAB11 SLP118 P0015 T01440133 401940117
03812KAVL AVL20161129235516711/29/16 23:55:31  5-MIN KAVL 300455Z AUTO 21009KT 170V240 2 1/2SM R35/6000VP6000FT RA BR BKN004 OVC009 14/13 A2992 2170 93 2600 210/09 180V250 RMK AO2 P0005 T01440133
03812KAVL AVL20161130000013111/30/16 00:00:31  5-MIN KAVL 300500Z AUTO 16008KT 5SM -RA BR BKN004 OVC011 15/14 A2991 2170 93 2700 170/08 RMK AO2 P0005 T01500139
03812KAVL AVL20161130000512011/30/16 00:05:31  5-MIN KAVL 300505Z AUTO 16009KT 7SM RA OVC006 15/13 A2991 2180 90 2700 170/09 RMK AO2 P0006 T01500133
03812KAVL AVL20161130001013011/30/16 00:10:31  5-MIN KAVL 300510Z AUTO 13007KT 6SM RA BR BKN006 OVC012 15/14 A2990 2180 93 2700 140/07 RMK AO2 P0007 T01500139
03812KAVL AVL20161130001513111/30/16 00:15:31  5-MIN KAVL 300515Z AUTO 13007KT 6SM -RA BR BKN005 OVC012 15/14 A2990 2180 93 2700 130/07 RMK AO2 P0007 T01500139
03812KAVL AVL20161130002012811/30/16 00:20:31  5-MIN KAVL 300520Z AUTO 16005KT 8SM -RA SCT005 OVC012 15/14 A2991 2180 93 2700 160/05 RMK AO2 P0007 T01500139
03812KAVL AVL20161130002512911/30/16 00:25:31  5-MIN KAVL 300525Z AUTO 15007KT 10SM -RA SCT005 OVC014 15/14 A2991 2180 93 2700 150/07 RMK AO2 P0007 T01500139
03812KAVL AVL20161130003013111/30/16 00:30:31  5-MIN KAVL 300530Z AUTO 16005KT 10SM FEW005 OVC014 16/14 A2991 2180 90 2800 160/05 RMK AO2 RAE29 P0007 T01560139
03812KAVL AVL20161130003513111/30/16 00:35:31  5-MIN KAVL 300535Z AUTO 15007KT 10SM BKN013 OVC019 16/14 A2991 2180 90 2800 160/07 RMK AO2 RAE29 P0007 T01560139
03812KAVL AVL20161130004013111/30/16 00:40:31  5-MIN KAVL 300540Z AUTO 17006KT 10SM BKN013 OVC019 16/14 A2990 2190 90 2800 170/06 RMK AO2 RAE29 P0007 T01560139
03812KAVL AVL20161130004513011/30/16 00:45:31  5-MIN KAVL 300545Z AUTO 17010G16KT 10SM OVC013 16/14 A2989 2190 90 2800 180/10G16 RMK AO2 RAE29 P0008 T01560139
03812KAVL AVL20161130005016811/30/16 00:50:31  5-MIN KAVL 300550Z AUTO 15010G19KT 10SM OVC013 16/14 A2988 2200 90 2900 160/10G19 RMK AO2 RAE29 PRESFR SLP099 P0008 60025 T01610144 10161 20133 58005
03812KAVL AVL20161130005512511/30/16 00:55:31  5-MIN KAVL 300555Z AUTO 18017G23KT 10SM BKN013 OVC018 17/15 A2988 2210 87 3000 180/17G23 RMK AO2 T01720150
03812KAVL AVL20161130010012511/30/16 01:00:31  5-MIN KAVL 300600Z AUTO 16013G23KT 10SM BKN013 OVC018 17/14 A2988 2210 83 3000 170/13G23 RMK AO2 T01720144
03812KAVL AVL20161130010512511/30/16 01:05:31  5-MIN KAVL 300605Z AUTO 16014G21KT 10SM BKN013 OVC019 17/15 A2987 2210 87 3000 170/14G21 RMK AO2 T01720150
03812KAVL AVL20161130011011811/30/16 01:10:31  5-MIN KAVL 300610Z AUTO 17013G23KT 10SM OVC015 17/15 A2987 2210 87 3000 170/13G23 RMK AO2 T01720150
03812KAVL AVL20161130011512511/30/16 01:15:31  5-MIN KAVL 300615Z AUTO 17015G23KT 10SM BKN013 OVC019 17/15 A2987 2210 87 3000 170/15G23 RMK AO2 T01720150
03812KAVL AVL20161130012012511/30/16 01:20:31  5-MIN KAVL 300620Z AUTO 17014G22KT 10SM BKN013 OVC019 17/15 A2988 2210 87 3000 180/14G22 RMK AO2 T01720150
03812KAVL AVL20161130012512511/30/16 01:25:31  5-MIN KAVL 300625Z AUTO 17013G22KT 10SM BKN013 OVC018 17/15 A2988 2210 87 3000 170/13G22 RMK AO2 T01720150
03812KAVL AVL20161130013011211/30/16 01:30:31  5-MIN KAVL 300630Z AUTO 16015KT 10SM OVC013 17/15 A2988 2210 87 3000 160/15 RMK AO2 T01720150
03812KAVL AVL20161130013511811/30/16 01:35:31  5-MIN KAVL 300635Z AUTO 17016G23KT 10SM OVC013 17/15 A2988 2200 87 3000 180/16G23 RMK AO2 T01720150
03812KAVL AVL20161130014012511/30/16 01:40:31  5-MIN KAVL 300640Z AUTO 17013G23KT 10SM BKN013 OVC022 17/15 A2988 2200 87 3000 170/13G23 RMK AO2 T01720150
03812KAVL AVL20161130014513511/30/16 01:45:31  5-MIN KAVL 300645Z AUTO 17013KT 10SM -RA BKN013 OVC021 17/15 A2988 2210 87 3000 180/13 RMK AO2 RAB45 P0000 T01720150
03812KAVL AVL20161130015014811/30/16 01:50:31  5-MIN KAVL 300650Z AUTO 17011G20KT 10SM -RA BKN013 OVC021 17/14 A2988 2210 83 3000 170/11G20 RMK AO2 RAB45 SLP098 P0000 T01720144
03812KAVL AVL20161130015513511/30/16 01:55:31  5-MIN KAVL 300655Z AUTO 17013G20KT 10SM -RA BKN015 OVC021 17/15 A2988 2200 87 3000 180/13G20 RMK AO2 P0000 T01720150
03812KAVL AVL20161130020013511/30/16 02:00:31  5-MIN KAVL 300700Z AUTO 17011G20KT 10SM -RA BKN015 OVC021 17/15 A2988 2210 87 3000 170/11G20 RMK AO2 P0000 T01720150
03812KAVL AVL20161130020513511/30/16 02:05:31  5-MIN KAVL 300705Z AUTO 17013G20KT 10SM -RA BKN015 OVC021 17/15 A2988 2200 87 3000 170/13G20 RMK AO2 P0000 T01720150
03812KAVL AVL20161130021012811/30/16 02:10:31  5-MIN KAVL 300710Z AUTO 18013G20KT 10SM -RA OVC016 18/15 A2988 2210 83 3100 190/13G20 RMK AO2 P0000 T01780150
03812KAVL AVL20161130021512911/30/16 02:15:31  5-MIN KAVL 300715Z AUTO 18010KT 10SM -RA BKN016 OVC022 17/15 A2989 2200 87 3000 190/10 RMK AO2 P0000 T01720150
03812KAVL AVL20161130022013711/30/16 02:20:31  5-MIN KAVL 300720Z AUTO 18013G20KT 10SM BKN016 OVC022 17/14 A2988 2200 83 3000 190/13G20 RMK AO2 RAE19 P0000 T01720144
03812KAVL AVL20161130022513011/30/16 02:25:31  5-MIN KAVL 300725Z AUTO 16011G20KT 10SM OVC018 18/14 A2987 2210 81 3100 170/11G20 RMK AO2 RAE19 P0000 T01780144
03812KAVL AVL20161130023013511/30/16 02:30:31  5-MIN KAVL 300730Z AUTO 16011G18KT 10SM -RA BKN016 OVC022 17/15 A2987 2210 87 3000 170/11G18 RMK AO2 P0000 T01720150
03812KAVL AVL20161130023514211/30/16 02:35:31  5-MIN KAVL 300735Z AUTO 18013G19KT 10SM -RA BKN016 BKN022 OVC029 18/15 A2988 2210 83 3100 180/13G19 RMK AO2 P0000 T01780150
03812KAVL AVL20161130024013511/30/16 02:40:31  5-MIN KAVL 300740Z AUTO 17011G19KT 10SM -RA BKN019 OVC027 17/15 A2987 2210 87 3000 180/11G19 RMK AO2 P0000 T01720150
03812KAVL AVL20161130024514411/30/16 02:45:31  5-MIN KAVL 300745Z AUTO 19013G20KT 10SM FEW016 BKN022 OVC036 18/15 A2988 2210 83 3100 190/13G20 RMK AO2 RAE42 P0000 T01780150
03812KAVL AVL20161130025014411/30/16 02:50:31  5-MIN KAVL 300750Z AUTO 19012G20KT 10SM BKN020 OVC027 18/14 A2988 2210 81 3100 190/12G20 RMK AO2 RAE42 SLP096 P0000 T01780144
03812KAVL AVL20161130025511911/30/16 02:55:31  5-MIN KAVL 300755Z AUTO 20012KT 10SM BKN020 OVC024 18/14 A2988 2210 81 3100 210/12 RMK AO2 T01780144
03812KAVL AVL20161130030011911/30/16 03:00:31  5-MIN KAVL 300800Z AUTO 20013KT 10SM BKN020 OVC024 18/14 A2988 2200 81 3100 200/13 RMK AO2 T01780144
03812KAVL AVL20161130030512511/30/16 03:05:31  5-MIN KAVL 300805Z AUTO 19016G20KT 10SM BKN022 OVC026 18/14 A2988 2200 81 3100 200/16G20 RMK AO2 T01780144
03812KAVL AVL20161130031012511/30/16 03:10:31  5-MIN KAVL 300810Z AUTO 19012G21KT 10SM BKN020 OVC026 18/14 A2988 2210 81 3100 200/12G21 RMK AO2 T01780144
03812KAVL AVL20161130031512511/30/16 03:15:31  5-MIN KAVL 300815Z AUTO 20012G20KT 10SM BKN020 OVC025 18/14 A2988 2200 81 3100 200/12G20 RMK AO2 T01780144
03812KAVL AVL20161130032012511/30/16 03:20:31  5-MIN KAVL 300820Z AUTO 19012G20KT 10SM BKN020 OVC025 18/14 A2988 2200 81 3100 190/12G20 RMK AO2 T01780144
03812KAVL AVL20161130032512511/30/16 03:25:31  5-MIN KAVL 300825Z AUTO 20013G22KT 10SM BKN020 OVC027 18/14 A2988 2210 81 3100 210/13G22 RMK AO2 T01780144
03812KAVL AVL20161130033012511/30/16 03:30:31  5-MIN KAVL 300830Z AUTO 18012G22KT 10SM BKN020 OVC027 18/14 A2988 2200 81 3100 190/12G22 RMK AO2 T01780144
03812KAVL AVL20161130033513211/30/16 03:35:31  5-MIN KAVL 300835Z AUTO 19013G18KT 10SM BKN020 BKN027 OVC034 18/14 A2988 2200 81 3100 200/13G18 RMK AO2 T01780144
03812KAVL AVL20161130034012511/30/16 03:40:31  5-MIN KAVL 300840Z AUTO 18015G22KT 10SM BKN020 OVC031 18/14 A2988 2210 81 3100 190/15G22 RMK AO2 T01780144
03812KAVL AVL20161130034513211/30/16 03:45:31  5-MIN KAVL 300845Z AUTO 19014G22KT 10SM BKN020 BKN026 OVC033 18/14 A2988 2210 81 3100 200/14G22 RMK AO2 T01780144
03812KAVL AVL20161130035015111/30/16 03:50:31  5-MIN KAVL 300850Z AUTO 20011G19KT 10SM BKN020 BKN026 OVC034 18/14 A2988 2210 81 3100 200/11G19 RMK AO2 SLP097 60000 T01780144 58019
03812KAVL AVL20161130035511911/30/16 03:55:31  5-MIN KAVL 300855Z AUTO 19012KT 10SM BKN020 OVC032 18/14 A2988 2210 81 3100 200/12 RMK AO2 T01780144
03812KAVL AVL20161130040013711/30/16 04:00:31  5-MIN KAVL 300900Z AUTO 19011KT 10SM -RA BKN020 OVC032 18/14 A2988 2210 81 3100 190/11 RMK AO2 RAB0857 P0000 T01780144
03812KAVL AVL20161130040514411/30/16 04:05:31  5-MIN KAVL 300905Z AUTO 19011KT 10SM -RA BKN019 BKN024 OVC030 18/14 A2987 2210 81 3100 200/11 RMK AO2 RAB0857 P0000 T01780144
03812KAVL AVL20161130041014311/30/16 04:10:31  5-MIN KAVL 300910Z AUTO 19013KT 10SM BKN019 BKN028 OVC050 18/14 A2988 2210 81 3100 200/13 RMK AO2 RAB0857E07 P0000 T01780144
03812KAVL AVL20161130041515011/30/16 04:15:31  5-MIN KAVL 300915Z AUTO 19014G18KT 10SM -RA BKN019 BKN028 OVC047 18/14 A2988 2210 81 3100 200/14G18 RMK AO2 RAB0857 P0000 T01780144
03812KAVL AVL20161130042015011/30/16 04:20:31  5-MIN KAVL 300920Z AUTO 19015G20KT 10SM -RA BKN019 BKN028 OVC047 18/14 A2987 2210 81 3100 190/15G20 RMK AO2 RAB0857 P0000 T01780144
03812KAVL AVL20161130042514911/30/16 04:25:31  5-MIN KAVL 300925Z AUTO 19009G24KT 10SM BKN019 BKN028 OVC050 18/14 A2987 2210 81 3100 200/09G24 RMK AO2 RAB0857E23 P0000 T01780144
03812KAVL AVL20161130043014211/30/16 04:30:31  5-MIN KAVL 300930Z AUTO 19012G24KT 10SM BKN019 OVC028 18/14 A2987 2220 81 3100 200/12G24 RMK AO2 RAB0857E23 P0000 T01780144
03812KAVL AVL20161130043514911/30/16 04:35:31  5-MIN KAVL 300935Z AUTO 19013G19KT 10SM BKN019 BKN026 OVC050 18/14 A2987 2220 81 3100 200/13G19 RMK AO2 RAB0857E23 P0000 T01780144
03812KAVL AVL20161130044014911/30/16 04:40:31  5-MIN KAVL 300940Z AUTO 19013G18KT 10SM BKN019 BKN024 OVC085 18/14 A2986 2220 81 3100 190/13G18 RMK AO2 RAB0857E23 P0000 T01780144
03812KAVL AVL20161130044514911/30/16 04:45:31  5-MIN KAVL 300945Z AUTO 19014G19KT 10SM BKN019 BKN024 OVC085 18/14 A2986 2220 81 3100 200/14G19 RMK AO2 RAB0857E23 P0000 T01780144
03812KAVL AVL20161130045015011/30/16 04:50:31  5-MIN KAVL 300950Z AUTO 19013KT 10SM BKN019 BKN024 BKN034 18/14 A2986 2220 81 3100 190/13 RMK AO2 RAB0857E23 SLP092 P0000 T01780144
03812KAVL AVL20161130045513211/30/16 04:55:31  5-MIN KAVL 300955Z AUTO 19014G27KT 10SM BKN021 BKN034 OVC085 18/14 A2986 2220 78 3100 200/14G27 RMK AO2 T01780139
03812KAVL AVL20161130050013211/30/16 05:00:31  5-MIN KAVL 301000Z AUTO 19012G27KT 10SM BKN021 BKN043 OVC085 18/14 A2986 2220 78 3100 200/12G27 RMK AO2 T01780139
03812KAVL AVL20161130050513211/30/16 05:05:31  5-MIN KAVL 301005Z AUTO 19014G22KT 10SM BKN021 BKN050 OVC085 18/14 A2986 2220 78 3100 190/14G22 RMK AO2 T01780139
03812KAVL AVL20161130051013211/30/16 05:10:31  5-MIN KAVL 301010Z AUTO 19011G21KT 10SM FEW019 BKN025 OVC085 18/14 A2986 2220 78 3100 200/11G21 RMK AO2 T01780139
03812KAVL AVL20161130051513211/30/16 05:15:31  5-MIN KAVL 301015Z AUTO 19013G20KT 10SM SCT022 BKN030 OVC085 18/14 A2986 2220 78 3100 200/13G20 RMK AO2 T01780139
03812KAVL AVL20161130052013211/30/16 05:20:31  5-MIN KAVL 301020Z AUTO 19009G20KT 10SM SCT021 BKN030 OVC085 18/14 A2986 2230 78 3100 190/09G20 RMK AO2 T01780139
03812KAVL AVL20161130052513211/30/16 05:25:31  5-MIN KAVL 301025Z AUTO 19013G20KT 10SM SCT019 BKN024 OVC085 18/14 A2985 2230 78 3100 190/13G20 RMK AO2 T01780139
03812KAVL AVL20161130053013211/30/16 05:30:31  5-MIN KAVL 301030Z AUTO 19018G23KT 10SM BKN021 BKN031 OVC060 18/14 A2985 2230 78 3100 200/18G23 RMK AO2 T01780139
03812KAVL AVL20161130053513211/30/16 05:35:31  5-MIN KAVL 301035Z AUTO 19014G23KT 10SM BKN021 BKN028 OVC045 18/14 A2985 2240 78 3100 200/14G23 RMK AO2 T01780139
03812KAVL AVL20161130054013211/30/16 05:40:31  5-MIN KAVL 301040Z AUTO 19013G21KT 10SM BKN021 BKN029 OVC036 18/14 A2985 2230 78 3100 200/13G21 RMK AO2 T01780139
03812KAVL AVL20161130054513211/30/16 05:45:31  5-MIN KAVL 301045Z AUTO 20019G25KT 10SM BKN021 BKN029 BKN036 18/14 A2984 2240 78 3100 210/19G25 RMK AO2 T01780139
03812KAVL AVL20161130055015711/30/16 05:50:31  5-MIN KAVL 301050Z AUTO 20019G27KT 10SM BKN021 BKN027 BKN036 18/14 A2985 2240 78 3100 200/19G27 RMK AO2 PK WND 21027/1050 SLP088 T01780139
03812KAVL AVL20161130055513211/30/16 05:55:31  5-MIN KAVL 301055Z AUTO 19015G27KT 10SM SCT021 SCT027 BKN036 18/14 A2985 2230 78 3100 200/15G27 RMK AO2 T01780139
03812KAVL AVL20161130060012511/30/16 06:00:31  5-MIN KAVL 301100Z AUTO 20013G22KT 10SM FEW021 BKN045 18/14 A2985 2230 78 3100 200/13G22 RMK AO2 T01780139
03812KAVL AVL20161130060513211/30/16 06:05:31  5-MIN KAVL 301105Z AUTO 20014G22KT 10SM FEW021 SCT039 BKN047 18/14 A2985 2230 78 3100 200/14G22 RMK AO2 T01780139
03812KAVL AVL20161130061013211/30/16 06:10:31  5-MIN KAVL 301110Z AUTO 20018G22KT 10SM FEW021 FEW041 SCT048 18/14 A2985 2230 78 3100 210/18G22 RMK AO2 T01780139
03812KAVL AVL20161130061512511/30/16 06:15:31  5-MIN KAVL 301115Z AUTO 19016G22KT 10SM FEW045 SCT060 18/14 A2986 2230 78 3100 200/16G22 RMK AO2 T01780139
03812KAVL AVL20161130062012711/30/16 06:20:31  5-MIN KAVL 301120Z 20014G25KT 10SM FEW045 SCT055 BKN080 18/14 A2986 2220 78 3100 200/14G25 RMK AO2 T01780139
03812KAVL AVL20161130062512711/30/16 06:25:31  5-MIN KAVL 301125Z 19013G25KT 10SM FEW045 SCT060 BKN080 18/14 A2987 2220 78 3100 200/13G25 RMK AO2 T01780139
03812KAVL AVL20161130063012711/30/16 06:30:31  5-MIN KAVL 301130Z 19012G22KT 10SM FEW021 SCT055 BKN080 18/14 A2987 2220 78 3100 200/12G22 RMK AO2 T01780139
03812KAVL AVL20161130063512711/30/16 06:35:31  5-MIN KAVL 301135Z 21015G21KT 10SM FEW021 SCT055 BKN080 18/14 A2987 2220 78 3100 210/15G21 RMK AO2 T01780139
03812KAVL AVL20161130064012711/30/16 06:40:31  5-MIN KAVL 301140Z 19012G21KT 10SM FEW021 SCT055 OVC080 18/14 A2987 2220 78 3100 200/12G21 RMK AO2 T01780139
03812KAVL AVL20161130064512711/30/16 06:45:31  5-MIN KAVL 301145Z 19016G22KT 10SM FEW021 SCT065 OVC080 18/14 A2987 2220 78 3100 200/16G22 RMK AO2 T01780139
03812KAVL AVL20161130065016411/30/16 06:50:31  5-MIN KAVL 301150Z 19017G22KT 10SM FEW021 SCT060 BKN080 18/14 A2987 2220 78 3100 200/17G22 RMK AO2 SLP096 60000 70058 T01780139 10178 20172 57001
03812KAVL AVL20161130065512711/30/16 06:55:31  5-MIN KAVL 301155Z 19011G21KT 10SM FEW020 BKN060 OVC080 18/14 A2987 2220 78 3100 200/11G21 RMK AO2 T01780139
03812KAVL AVL20161130070012111/30/16 07:00:31  5-MIN KAVL 301200Z 18013KT 10SM FEW020 SCT060 OVC085 18/14 A2987 2220 78 3100 190/13 RMK AO2 T01780139
03812KAVL AVL20161130070512111/30/16 07:05:31  5-MIN KAVL 301205Z 18012KT 10SM FEW020 SCT060 OVC085 18/14 A2987 2210 78 3100 190/12 RMK AO2 T01780139
03812KAVL AVL20161130071012111/30/16 07:10:31  5-MIN KAVL 301210Z 19014KT 10SM FEW020 SCT060 OVC090 18/14 A2987 2220 78 3100 190/14 RMK AO2 T01780139
03812KAVL AVL20161130071512111/30/16 07:15:31  5-MIN KAVL 301215Z 18012KT 10SM FEW020 SCT065 OVC090 18/14 A2987 2220 78 3100 190/12 RMK AO2 T01780139
03812KAVL AVL20161130072012111/30/16 07:20:31  5-MIN KAVL 301220Z 19014KT 10SM FEW024 SCT065 OVC090 18/14 A2987 2220 78 3100 190/14 RMK AO2 T01780139
03812KAVL AVL20161130072512111/30/16 07:25:31  5-MIN KAVL 301225Z 19013KT 10SM FEW023 SCT060 OVC090 18/14 A2987 2220 78 3100 200/13 RMK AO2 T01780139
03812KAVL AVL20161130073012711/30/16 07:30:31  5-MIN KAVL 301230Z 20013G20KT 10SM FEW023 SCT055 OVC090 18/14 A2987 2220 78 3100 200/13G20 RMK AO2 T01780139
03812KAVL AVL20161130073512711/30/16 07:35:31  5-MIN KAVL 301235Z 19014G20KT 10SM FEW023 SCT050 OVC090 18/14 A2986 2220 78 3100 190/14G20 RMK AO2 T01780139
03812KAVL AVL20161130074011411/30/16 07:40:31  5-MIN KAVL 301240Z 19012KT 10SM FEW023 BKN095 18/14 A2986 2220 78 3100 190/12 RMK AO2 T01780139
03812KAVL AVL20161130074512111/30/16 07:45:31  5-MIN KAVL 301245Z 18014KT 10SM FEW022 FEW050 BKN095 18/14 A2986 2220 78 3100 190/14 RMK AO2 T01780139
03812KAVL AVL20161130075012811/30/16 07:50:31  5-MIN KAVL 301250Z 19014KT 10SM FEW022 SCT047 BKN095 18/14 A2986 2220 78 3100 200/14 RMK AO2 SLP095 T01780139
03812KAVL AVL20161130075512111/30/16 07:55:31  5-MIN KAVL 301255Z 19016KT 10SM FEW020 SCT045 BKN095 18/14 A2986 2230 78 3100 190/16 RMK AO2 T01780139
03812KAVL AVL20161130080012711/30/16 08:00:31  5-MIN KAVL 301300Z 19011G20KT 10SM FEW019 FEW025 BKN095 18/14 A2986 2220 78 3100 190/11G20 RMK AO2 T01780139
03812KAVL AVL20161130080512711/30/16 08:05:31  5-MIN KAVL 301305Z 20013G20KT 10SM SCT021 SCT030 BKN095 18/14 A2986 2220 78 3100 200/13G20 RMK AO2 T01780139
03812KAVL AVL20161130081012711/30/16 08:10:31  5-MIN KAVL 301310Z 20013G20KT 10SM SCT023 BKN035 BKN095 18/14 A2986 2220 78 3100 200/13G20 RMK AO2 T01780139
03812KAVL AVL20161130081512711/30/16 08:15:31  5-MIN KAVL 301315Z 18016G19KT 10SM SCT020 SCT025 BKN035 18/14 A2986 2220 78 3100 190/16G19 RMK AO2 T01780139
03812KAVL AVL20161130082012711/30/16 08:20:31  5-MIN KAVL 301320Z 19013G19KT 10SM SCT022 BKN035 BKN070 18/14 A2986 2220 78 3100 200/13G19 RMK AO2 T01780139
03812KAVL AVL20161130082512111/30/16 08:25:31  5-MIN KAVL 301325Z 19011KT 10SM SCT022 BKN036 BKN070 18/14 A2987 2220 78 3100 200/11 RMK AO2 T01780139
03812KAVL AVL20161130083012111/30/16 08:30:31  5-MIN KAVL 301330Z 18012KT 10SM SCT022 BKN027 OVC070 18/14 A2986 2220 78 3100 190/12 RMK AO2 T01780139
03812KAVL AVL20161130083512711/30/16 08:35:31  5-MIN KAVL 301335Z 19014G21KT 10SM BKN022 BKN029 OVC070 18/14 A2987 2210 75 3200 200/14G21 RMK AO2 T01830139
03812KAVL AVL20161130084012711/30/16 08:40:31  5-MIN KAVL 301340Z 20013G21KT 10SM SCT020 BKN026 OVC070 18/14 A2987 2210 78 3100 210/13G21 RMK AO2 T01780139
03812KAVL AVL20161130084512711/30/16 08:45:31  5-MIN KAVL 301345Z 20014G20KT 10SM BKN020 BKN027 OVC070 18/14 A2987 2220 78 3100 210/14G20 RMK AO2 T01780139
03812KAVL AVL20161130085013411/30/16 08:50:31  5-MIN KAVL 301350Z 19013G20KT 10SM BKN020 BKN027 OVC035 18/14 A2986 2220 78 3100 190/13G20 RMK AO2 SLP097 T01780139
03812KAVL AVL20161130085512711/30/16 08:55:31  5-MIN KAVL 301355Z 19016G20KT 10SM BKN022 BKN028 OVC035 18/14 A2986 2220 78 3100 200/16G20 RMK AO2 T01780139
03812KAVL AVL20161130090014511/30/16 09:00:31  5-MIN KAVL 301400Z 18015G27KT 10SM BKN022 BKN028 OVC033 18/14 A2986 2220 78 3100 190/15G27 RMK AO2 PK WND 17027/1357 T01780139
03812KAVL AVL20161130090513811/30/16 09:05:31  5-MIN KAVL 301405Z 19012G27KT 10SM BKN022 OVC030 18/14 A2986 2220 78 3100 200/12G27 RMK AO2 PK WND 17027/1357 T01780139
03812KAVL AVL20161130091013211/30/16 09:10:31  5-MIN KAVL 301410Z 18013KT 10SM BKN021 OVC029 18/14 A2986 2220 78 3100 190/13 RMK AO2 PK WND 17027/1357 T01780139
03812KAVL AVL20161130091513811/30/16 09:15:31  5-MIN KAVL 301415Z 19017G22KT 10SM BKN021 OVC027 18/13 A2986 2220 75 3100 190/17G22 RMK AO2 PK WND 17027/1357 T01780133
03812KAVL AVL20161130092014811/30/16 09:20:31  5-MIN KAVL 301420Z 19014KT 10SM -RA BKN021 OVC030 18/14 A2987 2220 78 3100 200/14 RMK AO2 PK WND 17027/1357 RAB16 P0000 T01780139
03812KAVL AVL20161130092516111/30/16 09:25:31  5-MIN KAVL 301425Z 18011G21KT 10SM -RA BKN021 BKN027 OVC032 18/14 A2987 2220 78 3100 190/11G21 RMK AO2 PK WND 17027/1357 RAB16 P0000 T01780139
03812KAVL AVL20161130093016111/30/16 09:30:31  5-MIN KAVL 301430Z 19015G24KT 10SM -RA BKN021 BKN026 OVC042 18/13 A2986 2220 75 3100 190/15G24 RMK AO2 PK WND 17027/1357 RAB16 P0000 T01780133
03812KAVL AVL20161130093516111/30/16 09:35:31  5-MIN KAVL 301435Z 19013G24KT 10SM -RA BKN023 BKN036 OVC045 18/13 A2986 2220 75 3100 200/13G24 RMK AO2 PK WND 17027/1357 RAB16 P0000 T01780133
03812KAVL AVL20161130094016011/30/16 09:40:31  5-MIN KAVL 301440Z 19014G22KT 10SM SCT023 BKN036 OVC045 18/13 A2986 2220 72 3200 200/14G22 RMK AO2 PK WND 17027/1357 RAB16E36 P0000 T01830133
03812KAVL AVL20161130094516011/30/16 09:45:31  5-MIN KAVL 301445Z 20016G24KT 10SM FEW021 BKN031 OVC046 18/13 A2986 2220 72 3200 200/16G24 RMK AO2 PK WND 17027/1357 RAB16E36 P0000 T01830133
03812KAVL AVL20161130095017911/30/16 09:50:31  5-MIN KAVL 301450Z 19016G24KT 10SM SCT024 BKN031 OVC045 18/13 A2985 2230 72 3200 190/16G24 RMK AO2 PK WND 17027/1357 RAB16E36 SLP093 P0000 60000 T01830133 55003
03812KAVL AVL20161130095512711/30/16 09:55:31  5-MIN KAVL 301455Z 18017G24KT 10SM SCT024 BKN033 BKN044 18/13 A2986 2230 72 3200 190/17G24 RMK AO2 T01830133
03812KAVL AVL20161130100012711/30/16 10:00:31  5-MIN KAVL 301500Z 18015G24KT 10SM FEW024 SCT029 BKN036 18/13 A2986 2220 72 3200 190/15G24 RMK AO2 T01830133
03812KAVL AVL20161130100512711/30/16 10:05:31  5-MIN KAVL 301505Z 19011G20KT 10SM SCT024 SCT029 BKN038 18/13 A2986 2230 72 3200 190/11G20 RMK AO2 T01830133
03812KAVL AVL20161130101012711/30/16 10:10:31  5-MIN KAVL 301510Z 19012G18KT 10SM SCT024 BKN030 BKN037 18/13 A2985 2230 72 3200 200/12G18 RMK AO2 T01830133
03812KAVL AVL20161130101512711/30/16 10:15:31  5-MIN KAVL 301515Z 18015G19KT 10SM SCT027 BKN035 BKN043 18/13 A2985 2240 72 3200 190/15G19 RMK AO2 T01830133
03812KAVL AVL20161130102012711/30/16 10:20:31  5-MIN KAVL 301520Z 19016G22KT 10SM SCT027 BKN033 BKN045 18/13 A2985 2240 70 3200 190/16G22 RMK AO2 T01830128
03812KAVL AVL20161130102512011/30/16 10:25:31  5-MIN KAVL 301525Z 19015G24KT 10SM BKN027 BKN047 18/13 A2984 2240 70 3200 200/15G24 RMK AO2 T01830128
03812KAVL AVL20161130103012711/30/16 10:30:31  5-MIN KAVL 301530Z 18013G24KT 10SM BKN027 BKN036 BKN050 18/13 A2984 2240 70 3200 190/13G24 RMK AO2 T01830128
03812KAVL AVL20161130103512711/30/16 10:35:31  5-MIN KAVL 301535Z 19017G21KT 10SM FEW024 BKN029 BKN041 18/13 A2984 2240 70 3200 190/17G21 RMK AO2 T01830128
03812KAVL AVL20161130104012111/30/16 10:40:31  5-MIN KAVL 301540Z 19015KT 10SM BKN027 BKN034 BKN041 18/13 A2984 2250 70 3200 200/15 RMK AO2 T01830128
03812KAVL AVL20161130104512711/30/16 10:45:31  5-MIN KAVL 301545Z 19016G22KT 10SM BKN027 BKN038 OVC045 18/13 A2984 2250 70 3200 190/16G22 RMK AO2 T01830128
03812KAVL AVL20161130105013411/30/16 10:50:31  5-MIN KAVL 301550Z 19013G22KT 10SM FEW024 BKN029 OVC050 18/13 A2983 2250 70 3200 190/13G22 RMK AO2 SLP085 T01830128
03812KAVL AVL20161130105512711/30/16 10:55:31  5-MIN KAVL 301555Z 19018G23KT 10SM SCT027 BKN038 OVC048 18/13 A2983 2250 70 3200 190/18G23 RMK AO2 T01830128
03812KAVL AVL20161130110012711/30/16 11:00:31  5-MIN KAVL 301600Z 19013G23KT 10SM FEW024 BKN037 OVC046 18/13 A2983 2250 70 3200 200/13G23 RMK AO2 T01830128
03812KAVL AVL20161130110512111/30/16 11:05:31  5-MIN KAVL 301605Z 19012KT 10SM FEW028 BKN039 OVC050 19/13 A2983 2250 70 3300 190/12 RMK AO2 T01890133
03812KAVL AVL20161130111012711/30/16 11:10:31  5-MIN KAVL 301610Z 19012G20KT 10SM FEW025 BKN042 OVC050 18/13 A2983 2250 70 3200 200/12G20 RMK AO2 T01830128
03812KAVL AVL20161130111512711/30/16 11:15:31  5-MIN KAVL 301615Z 19011G20KT 10SM FEW027 BKN042 OVC060 19/13 A2983 2250 70 3300 200/11G20 RMK AO2 T01890133
03812KAVL AVL20161130112012711/30/16 11:20:31  5-MIN KAVL 301620Z 19010G18KT 10SM FEW027 BKN046 OVC055 19/13 A2983 2260 67 3300 200/10G18 RMK AO2 T01940133
03812KAVL AVL20161130112514311/30/16 11:25:31  5-MIN KAVL 301625Z 19012G18KT 160V220 10SM FEW027 SCT044 BKN055 19/13 A2982 2260 67 3300 190/12G18 170V230 RMK AO2 T01940133
03812KAVL AVL20161130113012711/30/16 11:30:31  5-MIN KAVL 301630Z 18014G18KT 10SM FEW029 SCT042 BKN050 19/13 A2982 2260 67 3300 190/14G18 RMK AO2 T01940133
03812KAVL AVL20161130113512711/30/16 11:35:31  5-MIN KAVL 301635Z 17013G19KT 10SM FEW026 SCT042 OVC055 19/13 A2981 2270 70 3300 180/13G19 RMK AO2 T01890133
03812KAVL AVL20161130114012011/30/16 11:40:31  5-MIN KAVL 301640Z 19012G20KT 10SM FEW029 OVC055 19/13 A2981 2270 67 3300 200/12G20 RMK AO2 T01890128
03812KAVL AVL20161130114512011/30/16 11:45:31  5-MIN KAVL 301645Z 20012G20KT 10SM SCT029 OVC055 19/13 A2981 2270 67 3300 200/12G20 RMK AO2 T01890128
03812KAVL AVL20161130115012711/30/16 11:50:31  5-MIN KAVL 301650Z 20017G23KT 10SM SCT029 OVC055 19/13 A2981 2270 67 3300 200/17G23 RMK AO2 SLP077 T01890128
03812KAVL AVL20161130115512711/30/16 11:55:31  5-MIN KAVL 301655Z 19011G23KT 10SM FEW029 BKN050 BKN060 19/13 A2981 2270 67 3300 200/11G23 RMK AO2 T01890128
03812KAVL AVL20161130120012711/30/16 12:00:31  5-MIN KAVL 301700Z 19018G24KT 10SM FEW029 SCT050 OVC060 19/13 A2981 2270 70 3300 200/18G24 RMK AO2 T01890133
03812KAVL AVL20161130120512711/30/16 12:05:31  5-MIN KAVL 301705Z 20015G25KT 10SM FEW028 SCT050 OVC060 19/13 A2980 2280 65 3400 210/15G25 RMK AO2 T01940128
03812KAVL AVL20161130121012011/30/16 12:10:31  5-MIN KAVL 301710Z 20013G25KT 10SM FEW028 BKN060 19/13 A2980 2280 67 3300 210/13G25 RMK AO2 T01890128
03812KAVL AVL20161130121512711/30/16 12:15:31  5-MIN KAVL 301715Z 18013G21KT 10SM FEW028 FEW038 OVC065 19/13 A2980 2280 70 3300 190/13G21 RMK AO2 T01890133
03812KAVL AVL20161130122013611/30/16 12:20:31  5-MIN KAVL 301720Z 18017G22KT 10SM -RA FEW038 OVC065 18/13 A2979 2290 72 3200 180/17G22 RMK AO2 RAB16 P0000 T01830133
03812KAVL AVL20161130122513511/30/16 12:25:31  5-MIN KAVL 301725Z 18013G22KT 8SM -RA FEW039 OVC060 18/14 A2979 2290 78 3200 190/13G22 RMK AO2 RAB16 P0000 T01780139
03812KAVL AVL20161130123013611/30/16 12:30:31  5-MIN KAVL 301730Z 20010KT 7SM -RA FEW030 SCT039 OVC060 18/14 A2979 2290 78 3200 200/10 RMK AO2 RAB16 P0000 T01780139
03812KAVL AVL20161130123513711/30/16 12:35:31  5-MIN KAVL 301735Z 18010KT 10SM -RA SCT030 BKN039 OVC065 18/14 A2979 2290 78 3200 180/10 RMK AO2 RAB16 P0000 T01780139
03812KAVL AVL20161130124013711/30/16 12:40:31  5-MIN KAVL 301740Z 19011KT 10SM -RA SCT026 BKN036 OVC065 18/14 A2979 2290 78 3200 200/11 RMK AO2 RAB16 P0000 T01780139
03812KAVL AVL20161130124513711/30/16 12:45:31  5-MIN KAVL 301745Z 19012KT 10SM -RA SCT023 BKN030 OVC055 18/14 A2979 2290 78 3200 190/12 RMK AO2 RAB16 P0000 T01780139
03812KAVL AVL20161130125013211/30/16 12:50:31  5-MIN KAVL 301750Z 17012G19KT 7SM -RA SCT022 BKN027 OVC039 17/14 A2978 2300 80 3100 180/12G19 RMK AO2 RAB16 P0000
03812KAVL AVL20161130125512911/30/16 12:55:31  5-MIN KAVL 301755Z 18011KT 5SM RA BKN022 BKN030 OVC037 17/14 A2977 2310 80 3100 180/11 RMK AO2 P0000 T01720139
03812KAVL AVL20161130130013311/30/16 13:00:31  5-MIN KAVL 301800Z 19009KT 6SM -RA BR BKN022 BKN026 OVC034 17/14 A2978 2300 86 3100 190/09 RMK AO2 P0000 T01670144
03812KAVL AVL20161130130512411/30/16 13:05:31  5-MIN KAVL 301805Z 18011KT 10SM -RA BKN022 OVC030 17/14 A2977 2300 83 3100 190/11 RMK AO2 P0000 T01720144
03812KAVL AVL20161130131012611/30/16 13:10:31  5-MIN KAVL 301810Z 18009KT 10SM BKN022 OVC030 17/14 A2977 2310 83 3100 190/09 RMK AO2 RAE07 P0000 T01720144
03812KAVL AVL20161130131512611/30/16 13:15:31  5-MIN KAVL 301815Z 19010KT 10SM BKN022 OVC030 17/14 A2977 2310 83 3100 190/10 RMK AO2 RAE07 P0000 T01720144
03812KAVL AVL20161130132013111/30/16 13:20:31  5-MIN KAVL 301820Z 17011KT 10SM -RA BKN020 OVC030 17/14 A2976 2320 80 3200 170/11 RMK AO2 PRESFR P0000 T01720139
03812KAVL AVL20161130132512411/30/16 13:25:31  5-MIN KAVL 301825Z 17011KT 10SM -RA BKN022 OVC030 17/14 A2976 2310 80 3100 170/11 RMK AO2 P0000 T01720139
03812KAVL AVL20161130133012311/30/16 13:30:31  5-MIN KAVL 301830Z 17012G22KT 10SM -RA OVC022 17/14 A2976 2310 80 3100 170/12G22 RMK AO2 P0000 T01720139
03812KAVL AVL20161130133513011/30/16 13:35:31  5-MIN KAVL 301835Z 18013G22KT 10SM -RA BKN020 OVC025 18/14 A2976 2320 78 3200 190/13G22 RMK AO2 P0000 T01780139
03812KAVL AVL20161130134012911/30/16 13:40:31  5-MIN KAVL 301840Z 18010G21KT 8SM -RA BKN020 OVC032 17/14 A2976 2320 83 3200 190/10G21 RMK AO2 P0001 T01720144
03812KAVL AVL20161130134513611/30/16 13:45:31  5-MIN KAVL 301845Z 17010G18KT 8SM -RA SCT020 BKN024 OVC036 18/14 A2975 2330 78 3200 180/10G18 RMK AO2 P0001 T01780139
03812KAVL AVL20161130135014511/30/16 13:50:31  5-MIN KAVL 301850Z 18009KT 10SM -RA SCT020 BKN025 OVC033 18/14 A2974 2340 78 3200 180/09 RMK AO2 PRESFR SLP050 P0001 T01780139
03812KAVL AVL20161130135513711/30/16 13:55:31  5-MIN KAVL 301855Z 18012G17KT 10SM -RA BKN021 BKN026 OVC033 18/14 A2974 2340 78 3200 190/12G17 RMK AO2 P0000 T01780139
03812KAVL AVL20161130140013711/30/16 14:00:31  5-MIN KAVL 301900Z 19014G24KT 10SM -RA BKN021 BKN027 OVC033 18/14 A2973 2340 78 3200 190/14G24 RMK AO2 P0000 T01780139
03812KAVL AVL20161130140513011/30/16 14:05:31  5-MIN KAVL 301905Z 18014G24KT 10SM -RA BKN024 OVC033 18/14 A2973 2340 78 3200 190/14G24 RMK AO2 P0000 T01780139
03812KAVL AVL20161130141013211/30/16 14:10:31  5-MIN KAVL 301910Z 17015G21KT 10SM BKN022 OVC028 18/14 A2973 2340 78 3200 180/15G21 RMK AO2 RAE06 P0000 T01780139
03812KAVL AVL20161130141512511/30/16 14:15:31  5-MIN KAVL 301915Z 18014G21KT 10SM OVC022 18/14 A2973 2350 78 3300 190/14G21 RMK AO2 RAE06 P0000 T01780139
03812KAVL AVL20161130142012511/30/16 14:20:31  5-MIN KAVL 301920Z 19013G24KT 10SM OVC022 18/14 A2973 2350 78 3300 190/13G24 RMK AO2 RAE06 P0000 T01780139
03812KAVL AVL20161130142513211/30/16 14:25:31  5-MIN KAVL 301925Z 18013G24KT 10SM -RA OVC022 18/14 A2973 2350 78 3200 190/13G24 RMK AO2 RAE06B24 P0000 T01780139
03812KAVL AVL20161130143012611/30/16 14:30:31  5-MIN KAVL 301930Z 18012KT 10SM -RA OVC022 18/14 A2973 2350 78 3200 190/12 RMK AO2 RAE06B24 P0000 T01780139
03812KAVL AVL20161130143513911/30/16 14:35:31  5-MIN KAVL 301935Z 18016G21KT 10SM -RA BKN022 OVC026 18/14 A2973 2350 78 3300 180/16G21 RMK AO2 RAE06B24 P0000 T01780139
03812KAVL AVL20161130144013911/30/16 14:40:31  5-MIN KAVL 301940Z 18013G21KT 10SM -RA BKN021 OVC026 18/14 A2973 2340 78 3200 190/13G21 RMK AO2 RAE06B24 P0000 T01780139
03812KAVL AVL20161130144512511/30/16 14:45:31  5-MIN KAVL 301945Z 18013KT 8SM -RA OVC021 18/14 A2974 2340 78 3200 190/13 RMK AO2 RAE06B24 P0000 T01780139
03812KAVL AVL20161130145013811/30/16 14:50:31  5-MIN KAVL 301950Z 18012G21KT 7SM -RA OVC021 17/14 A2974 2340 83 3200 190/12G21 RMK AO2 RAE06B24 SLP050 P0000 T01720144
03812KAVL AVL20161130145513511/30/16 14:55:31  5-MIN KAVL 301955Z 18010G21KT 5SM RA BKN022 BKN026 OVC039 17/14 A2974 2340 83 3200 190/10G21 RMK AO2 P0000 T01720144
03812KAVL AVL20161130150012311/30/16 15:00:31  5-MIN KAVL 302000Z 19010KT 4SM -RA BKN022 OVC028 17/14 A2974 2340 83 3200 190/10 RMK AO2 P0001 T01720144
03812KAVL AVL20161130150512211/30/16 15:05:31  5-MIN KAVL 302005Z 19009KT 5SM RA BKN019 OVC026 17/14 A2974 2340 83 3200 200/09 RMK AO2 P0003 T01720144
03812KAVL AVL20161130151012911/30/16 15:10:31  5-MIN KAVL 302010Z 21009KT 3SM RA FEW016 BKN021 OVC039 17/14 A2974 2340 83 3200 210/09 RMK AO2 P0004 T01720144
03812KAVL AVL20161130151513711/30/16 15:15:31  5-MIN KAVL 302015Z 20008KT 1 3/4SM +RA BR FEW013 BKN021 OVC035 17/14 A2974 2330 86 3100 200/08 RMK AO2 P0010 T01670144
03812KAVL AVL20161130152015711/30/16 15:20:31  5-MIN KAVL 302020Z AUTO 21014G20KT 1 3/4SM RA BR FEW013 BKN021 OVC070 17/14 A2975 2330 86 3100 210/14G20 RMK AO2 VIS 3/4V4 P0014 T01670144
03812KAVL AVL20161130152515711/30/16 15:25:31  5-MIN KAVL 302025Z AUTO 22012G25KT 2 1/2SM +RA FEW016 BKN027 OVC070 17/14 A2974 2330 83 3100 230/12G25 RMK AO2 VIS 1 3/4V4 P0017 T01670139
03812KAVL AVL20161130153014011/30/16 15:30:31  5-MIN KAVL 302030Z AUTO 21010G25KT 3SM RA FEW013 BKN050 OVC080 17/13 A2974 2330 80 3100 220/10G25 RMK AO2 P0020 T01670133
03812KAVL AVL20161130153513411/30/16 15:35:31  5-MIN KAVL 302035Z AUTO 20008KT 5SM RA FEW013 BKN060 OVC080 17/13 A2975 2330 80 3100 210/08 RMK AO2 P0021 T01670133
03812KAVL AVL20161130154013411/30/16 15:40:31  5-MIN KAVL 302040Z AUTO 19007KT 5SM RA FEW015 BKN060 OVC070 16/13 A2974 2330 83 3000 200/07 RMK AO2 P0023 T01610133
03812KAVL AVL20161130154513411/30/16 15:45:31  5-MIN KAVL 302045Z AUTO 18008KT 4SM RA SCT055 BKN070 OVC090 16/13 A2974 2330 83 3000 190/08 RMK AO2 P0025 T01610133
03812KAVL AVL20161130155015611/30/16 15:50:31  5-MIN KAVL 302050Z AUTO 18007KT 5SM RA BR BKN060 BKN075 OVC090 16/13 A2974 2330 86 3000 190/07 RMK AO2 SLP054 P0026 60028 T01560133 58026
03812KAVL AVL20161130155513511/30/16 15:55:31  5-MIN KAVL 302055Z AUTO 18006KT 7SM -RA BKN070 BKN080 OVC090 16/13 A2974 2340 86 3000 190/06 RMK AO2 P0001 T01560133
03812KAVL AVL20161130160012711/30/16 16:00:31  5-MIN KAVL 302100Z AUTO 14005KT 8SM RA BKN070 OVC090 16/13 A2974 2340 86 3000 150/05 RMK AO2 P0002 T01560133
03812KAVL AVL20161130160513711/30/16 16:05:31  5-MIN KAVL 302105Z AUTO 15004KT 6SM RA BR FEW060 BKN080 OVC095 16/13 A2975 2330 86 3000 150/04 RMK AO2 P0002 T01560133
03812KAVL AVL20161130161013411/30/16 16:10:31  5-MIN KAVL 302110Z AUTO 17007KT 7SM RA SCT060 BKN070 OVC090 16/13 A2976 2320 86 3000 170/07 RMK AO2 P0004 T01560133
03812KAVL AVL20161130161513511/30/16 16:15:31  5-MIN KAVL 302115Z AUTO 16006KT 8SM -RA SCT060 BKN070 OVC090 15/13 A2975 2320 90 2900 170/06 RMK AO2 P0004 T01500133
03812KAVL AVL20161130162012911/30/16 16:20:31  5-MIN KAVL 302120Z 15005KT 8SM RA SCT060 BKN075 OVC090 15/13 A2975 2320 90 2900 160/05 RMK AO2 P0005 T01500133
03812KAVL AVL20161130162512911/30/16 16:25:31  5-MIN KAVL 302125Z 13004KT 7SM RA FEW060 BKN080 OVC095 15/13 A2975 2320 90 2900 140/04 RMK AO2 P0006 T01500133
03812KAVL AVL20161130163012311/30/16 16:30:31  5-MIN KAVL 302130Z 12003KT 7SM -RA SCT060 OVC085 15/13 A2975 2330 90 2900 120/03 RMK AO2 P0007 T01500133
03812KAVL AVL20161130163512911/30/16 16:35:31  5-MIN KAVL 302135Z 12005KT 7SM RA FEW060 BKN080 OVC090 15/13 A2975 2330 90 2900 130/05 RMK AO2 P0008 T01500133
03812KAVL AVL20161130164013011/30/16 16:40:31  5-MIN KAVL 302140Z 13005KT 8SM -RA FEW060 BKN080 OVC095 15/13 A2974 2330 90 2900 130/05 RMK AO2 P0009 T01500133
03812KAVL AVL20161130164512411/30/16 16:45:31  5-MIN KAVL 302145Z 12005KT 10SM -RA SCT080 OVC100 15/13 A2974 2330 90 2900 130/05 RMK AO2 P0009 T01500133
03812KAVL AVL20161130165013111/30/16 16:50:31  5-MIN KAVL 302150Z 13004KT 10SM -RA BKN090 OVC110 15/13 A2974 2330 90 2900 140/04 RMK AO2 SLP053 P0009 T01500133
03812KAVL AVL20161130165511711/30/16 16:55:31  5-MIN KAVL 302155Z 11004KT 10SM -RA OVC100 15/13 A2973 2350 90 2900 120/04 RMK AO2 P0000 T01500133
03812KAVL AVL20161130170013111/30/16 17:00:31  5-MIN KAVL 302200Z 11005KT 10SM -RA BKN100 OVC110 15/13 A2972 2360 90 2900 120/05 RMK AO2 PRESFR P0001 T01500133
03812KAVL AVL20161130170512411/30/16 17:05:31  5-MIN KAVL 302205Z 12007KT 10SM -RA OVC100 15/13 A2970 2370 86 3000 120/07 RMK AO2 PRESFR P0001 T01500128
03812KAVL AVL20161130171011711/30/16 17:10:31  5-MIN KAVL 302210Z 14006KT 10SM -RA OVC100 15/13 A2970 2370 86 3000 140/06 RMK AO2 P0001 T01500128
03812KAVL AVL20161130171511711/30/16 17:15:31  5-MIN KAVL 302215Z 15005KT 10SM -RA OVC100 15/13 A2970 2370 86 3000 150/05 RMK AO2 P0001 T01500128
03812KAVL AVL20161130172011711/30/16 17:20:31  5-MIN KAVL 302220Z 14006KT 10SM -RA OVC110 15/13 A2970 2380 86 3000 150/06 RMK AO2 P0001 T01500128
03812KAVL AVL20161130172511911/30/16 17:25:31  5-MIN KAVL 302225Z 15006KT 10SM BKN110 16/13 A2971 2370 83 3000 160/06 RMK AO2 RAE23 P0001 T01560128
03812KAVL AVL20161130173011911/30/16 17:30:31  5-MIN KAVL 302230Z 14005KT 10SM BKN110 16/13 A2971 2360 83 3000 140/05 RMK AO2 RAE23 P0001 T01560128
03812KAVL AVL20161130173511911/30/16 17:35:31  5-MIN KAVL 302235Z 16003KT 10SM SCT110 16/13 A2971 2360 83 3000 160/03 RMK AO2 RAE23 P0001 T01560128
03812KAVL AVL20161130174011911/30/16 17:40:31  5-MIN KAVL 302240Z 00000KT 10SM SCT110 16/13 A2970 2370 83 3000 000/00 RMK AO2 RAE23 P0001 T01560128
03812KAVL AVL20161130174511911/30/16 17:45:31  5-MIN KAVL 302245Z 00000KT 10SM FEW120 15/13 A2971 2360 86 3000 000/00 RMK AO2 RAE23 P0001 T01500128
03812KAVL AVL20161130175012311/30/16 17:50:31  5-MIN KAVL 302250Z 28004KT 10SM CLR 15/13 A2971 2360 86 3000 290/04 RMK AO2 RAE23 SLP041 P0001 T01500128
03812KAVL AVL20161130175510411/30/16 17:55:31  5-MIN KAVL 302255Z 24003KT 10SM CLR 14/13 A2971 2370 90 2900 240/03 RMK AO2 T01440128
03812KAVL AVL20161130180010411/30/16 18:00:31  5-MIN KAVL 302300Z 20004KT 10SM CLR 14/13 A2971 2370 90 2900 210/04 RMK AO2 T01440128
03812KAVL AVL20161130180510411/30/16 18:05:31  5-MIN KAVL 302305Z 18004KT 10SM CLR 14/13 A2971 2370 90 2900 190/04 RMK AO2 T01440128
03812KAVL AVL20161130181010411/30/16 18:10:31  5-MIN KAVL 302310Z 16004KT 10SM CLR 14/13 A2971 2360 93 2800 170/04 RMK AO2 T01390128
03812KAVL AVL20161130181510411/30/16 18:15:31  5-MIN KAVL 302315Z 17004KT 10SM CLR 14/13 A2971 2360 93 2800 170/04 RMK AO2 T01390128
03812KAVL AVL20161130182010411/30/16 18:20:31  5-MIN KAVL 302320Z 19006KT 10SM CLR 14/12 A2972 2350 90 2800 190/06 RMK AO2 T01390122
03812KAVL AVL20161130182510411/30/16 18:25:31  5-MIN KAVL 302325Z 17004KT 10SM CLR 14/12 A2973 2350 90 2800 180/04 RMK AO2 T01390122
03812KAVL AVL20161130183010411/30/16 18:30:31  5-MIN KAVL 302330Z 19006KT 10SM CLR 14/13 A2973 2340 90 2900 200/06 RMK AO2 T01440128
03812KAVL AVL20161130183511111/30/16 18:35:31  5-MIN KAVL 302335Z 20004KT 10SM CLR 14/13 A2974 2330 90 2900 210/04 RMK AO2 PRESRR T01440128
03812KAVL AVL20161130184011111/30/16 18:40:31  5-MIN KAVL 302340Z 32007KT 10SM CLR 14/13 A2975 2330 90 2800 330/07 RMK AO2 PRESRR T01440128
03812KAVL AVL20161130184510711/30/16 18:45:31  5-MIN KAVL 302345Z 34004KT 10SM FEW015 14/13 A2975 2330 90 2800 350/04 RMK AO2 T01440128
03812KAVL AVL20161130185013811/30/16 18:50:31  5-MIN KAVL 302350Z 00000KT 10SM SCT013 14/13 A2975 2330 90 2800 000/00 RMK AO2 SLP057 60038 T01440128 10178 20139 56011
03812KAVL AVL20161130185510711/30/16 18:55:31  5-MIN KAVL 302355Z 00000KT 10SM BKN013 15/13 A2975 2330 86 2900 000/00 RMK AO2 T01500128
03812KAVL AVL20161130190010711/30/16 19:00:31  5-MIN KAVL 010000Z VRB03KT 10SM SCT013 15/13 A2974 2330 86 2900 VRB/03 RMK AO2 T01500128
03812KAVL AVL20161130190510711/30/16 19:05:31  5-MIN KAVL 010005Z 17003KT 10SM SCT012 15/13 A2974 2330 86 2900 180/03 RMK AO2 T01500128
03812KAVL AVL20161130191010711/30/16 19:10:31  5-MIN KAVL 010010Z 00000KT 10SM BKN012 15/13 A2974 2330 86 2900 000/00 RMK AO2 T01500128
03812KAVL AVL20161130191510711/30/16 19:15:31  5-MIN KAVL 010015Z VRB03KT 10SM BKN012 15/13 A2975 2330 86 2900 VRB/03 RMK AO2 T01500128
03812KAVL AVL20161130192010711/30/16 19:20:31  5-MIN KAVL 010020Z 18005KT 10SM SCT011 15/13 A2975 2330 86 2900 190/05 RMK AO2 T01500128
03812KAVL AVL20161130192510711/30/16 19:25:31  5-MIN KAVL 010025Z 19005KT 10SM SCT011 15/13 A2974 2330 86 2900 200/05 RMK AO2 T01500128
03812KAVL AVL20161130193010711/30/16 19:30:31  5-MIN KAVL 010030Z 20007KT 10SM FEW011 15/13 A2974 2330 86 2900 200/07 RMK AO2 T01500128
03812KAVL AVL20161130193512011/30/16 19:35:31  5-MIN KAVL 010035Z 19009G14KT 10SM FEW011 SCT065 15/13 A2974 2330 86 2900 200/09G14 RMK AO2 T01500128
03812KAVL AVL20161130194011411/30/16 19:40:31  5-MIN KAVL 010040Z 19009KT 10SM FEW011 SCT070 16/13 A2974 2340 83 3000 200/09 RMK AO2 T01560128
03812KAVL AVL20161130194510711/30/16 19:45:31  5-MIN KAVL 010045Z 20008KT 10SM SCT070 15/13 A2974 2340 86 2900 210/08 RMK AO2 T01500128
03812KAVL AVL20161130195011411/30/16 19:50:31  5-MIN KAVL 010050Z 22007KT 10SM SCT065 15/13 A2974 2330 86 2900 230/07 RMK AO2 SLP054 T01500128
03812KAVL AVL20161130195510711/30/16 19:55:31  5-MIN KAVL 010055Z 23005KT 10SM SCT065 16/13 A2975 2330 83 3000 230/05 RMK AO2 T01560128
03812KAVL AVL20161130200012111/30/16 20:00:31  5-MIN KAVL 010100Z 24004KT 10SM FEW010 BKN060 BKN075 15/13 A2975 2330 86 2900 240/04 RMK AO2 T01500128
03812KAVL AVL20161130200512111/30/16 20:05:31  5-MIN KAVL 010105Z VRB04KT 10SM SCT010 BKN060 BKN075 15/13 A2975 2320 86 2900 VRB/04 RMK AO2 T01500128
03812KAVL AVL20161130201011411/30/16 20:10:31  5-MIN KAVL 010110Z VRB03KT 10SM SCT010 BKN060 15/13 A2975 2330 86 2900 VRB/03 RMK AO2 T01500128
03812KAVL AVL20161130201511411/30/16 20:15:31  5-MIN KAVL 010115Z 24004KT 10SM SCT010 BKN060 15/13 A2975 2330 86 2900 240/04 RMK AO2 T01500128
03812KAVL AVL20161130202011411/30/16 20:20:31  5-MIN KAVL 010120Z 24004KT 10SM BKN010 BKN060 15/13 A2975 2330 86 2900 250/04 RMK AO2 T01500128
03812KAVL AVL20161130202511411/30/16 20:25:31  5-MIN KAVL 010125Z 23004KT 10SM SCT010 BKN060 15/13 A2975 2320 86 2900 240/04 RMK AO2 T01500128
03812KAVL AVL20161130203011411/30/16 20:30:31  5-MIN KAVL 010130Z 22005KT 10SM SCT010 BKN060 14/13 A2975 2320 90 2800 230/05 RMK AO2 T01440128
03812KAVL AVL20161130203511411/30/16 20:35:31  5-MIN KAVL 010135Z VRB05KT 10SM FEW010 SCT060 15/13 A2976 2320 86 2900 VRB/05 RMK AO2 T01500128
03812KAVL AVL20161130204011411/30/16 20:40:31  5-MIN KAVL 010140Z 31004KT 10SM FEW010 SCT060 14/13 A2976 2320 90 2800 310/04 RMK AO2 T01440128
03812KAVL AVL20161130204512111/30/16 20:45:31  5-MIN KAVL 010145Z 00000KT 10SM FEW010 FEW050 SCT060 14/13 A2976 2320 90 2800 000/00 RMK AO2 T01440128
03812KAVL AVL20161130205012811/30/16 20:50:31  5-MIN KAVL 010150Z 35005KT 10SM FEW010 FEW045 SCT060 14/13 A2976 2320 90 2800 350/05 RMK AO2 SLP059 T01440128
03812KAVL AVL20161130205511411/30/16 20:55:31  5-MIN KAVL 010155Z 28003KT 10SM FEW045 SCT060 14/12 A2976 2320 86 2800 280/03 RMK AO2 T01440122
03812KAVL AVL20161130210011411/30/16 21:00:31  5-MIN KAVL 010200Z 35005KT 10SM FEW045 SCT060 14/12 A2976 2320 90 2800 350/05 RMK AO2 T01390122
03812KAVL AVL20161130210511411/30/16 21:05:31  5-MIN KAVL 010205Z 33005KT 10SM FEW045 FEW060 13/12 A2976 2320 89 2700 330/05 RMK AO2 T01330117
03812KAVL AVL20161130211010711/30/16 21:10:31  5-MIN KAVL 010210Z 04003KT 10SM FEW060 14/12 A2976 2320 90 2800 040/03 RMK AO2 T01390122
03812KAVL AVL20161130211510711/30/16 21:15:31  5-MIN KAVL 010215Z 35003KT 10SM FEW060 13/12 A2976 2310 89 2700 360/03 RMK AO2 T01330117
03812KAVL AVL20161130212012111/30/16 21:20:31  5-MIN KAVL 010220Z 34005KT 10SM FEW013 FEW019 FEW060 13/12 A2976 2310 89 2700 350/05 RMK AO2 T01330117
03812KAVL AVL20161130212510711/30/16 21:25:31  5-MIN KAVL 010225Z 34005KT 10SM FEW015 13/12 A2977 2310 89 2700 350/05 RMK AO2 T01330117
03812KAVL AVL20161130213010711/30/16 21:30:31  5-MIN KAVL 010230Z 35007KT 10SM FEW015 13/11 A2976 2310 89 2600 360/07 RMK AO2 T01280111
03812KAVL AVL20161130213510711/30/16 21:35:31  5-MIN KAVL 010235Z 36009KT 10SM FEW015 14/10 A2977 2310 74 2800 360/09 RMK AO2 T01440100
03812KAVL AVL20161130214010711/30/16 21:40:31  5-MIN KAVL 010240Z 34009KT 10SM FEW015 14/09 A2977 2310 69 2800 350/09 RMK AO2 T01440089
03812KAVL AVL20161130214510711/30/16 21:45:31  5-MIN KAVL 010245Z 34011KT 10SM FEW015 14/08 A2977 2300 66 2800 350/11 RMK AO2 T01440083
03812KAVL AVL20161130215011711/30/16 21:50:31  5-MIN KAVL 010250Z 35010KT 10SM CLR 13/09 A2977 2300 74 2700 350/10 RMK AO2 SLP065 T01330089 53004
03812KAVL AVL20161130215510411/30/16 21:55:31  5-MIN KAVL 010255Z 33010KT 10SM CLR 13/08 A2978 2300 69 2700 340/10 RMK AO2 T01330078
03812KAVL AVL20161130220010411/30/16 22:00:31  5-MIN KAVL 010300Z 34009KT 10SM CLR 13/08 A2978 2300 74 2600 350/09 RMK AO2 T01280083
03812KAVL AVL20161130220510411/30/16 22:05:31  5-MIN KAVL 010305Z 34011KT 10SM CLR 14/07 A2978 2300 64 2700 350/11 RMK AO2 T01390072
03812KAVL AVL20161130221010411/30/16 22:10:31  5-MIN KAVL 010310Z 35008KT 10SM CLR 13/07 A2979 2290 66 2700 360/08 RMK AO2 T01330072
03812KAVL AVL20161130221510411/30/16 22:15:31  5-MIN KAVL 010315Z 34009KT 10SM CLR 13/06 A2979 2290 59 2700 340/09 RMK AO2 T01330056
03812KAVL AVL20161130222010411/30/16 22:20:31  5-MIN KAVL 010320Z 34008KT 10SM CLR 13/06 A2979 2290 59 2700 340/08 RMK AO2 T01330056
03812KAVL AVL20161130222510411/30/16 22:25:31  5-MIN KAVL 010325Z 34010KT 10SM CLR 12/06 A2978 2290 63 2500 340/10 RMK AO2 T01220056
03812KAVL AVL20161130223010411/30/16 22:30:31  5-MIN KAVL 010330Z 33011KT 10SM CLR 12/05 A2978 2300 61 2500 340/11 RMK AO2 T01220050
03812KAVL AVL20161130223510411/30/16 22:35:31  5-MIN KAVL 010335Z 32012KT 10SM CLR 12/05 A2978 2290 61 2500 330/12 RMK AO2 T01220050
03812KAVL AVL20161130224010411/30/16 22:40:31  5-MIN KAVL 010340Z 32013KT 10SM CLR 12/05 A2979 2290 61 2500 330/13 RMK AO2 T01220050
03812KAVL AVL20161130224511011/30/16 22:45:31  5-MIN KAVL 010345Z 33015G25KT 10SM CLR 12/04 A2979 2290 59 2500 330/15G25 RMK AO2 T01220044
03812KAVL AVL20161130225011711/30/16 22:50:31  5-MIN KAVL 010350Z 31012G25KT 10SM CLR 12/04 A2979 2290 59 2500 310/12G25 RMK AO2 SLP071 T01220044
03812KAVL AVL20161130225510411/30/16 22:55:31  5-MIN KAVL 010355Z 32011KT 10SM CLR 12/04 A2979 2290 59 2500 320/11 RMK AO2 T01220044
03812KAVL AVL20161130230010411/30/16 23:00:31  5-MIN KAVL 010400Z 33012KT 10SM CLR 12/04 A2979 2280 59 2500 330/12 RMK AO2 T01220044
03812KAVL AVL20161130230510411/30/16 23:05:31  5-MIN KAVL 010405Z 32011KT 10SM CLR 12/04 A2980 2280 59 2500 330/11 RMK AO2 T01220044
03812KAVL AVL20161130231010411/30/16 23:10:31  5-MIN KAVL 010410Z 32012KT 10SM CLR 12/04 A2980 2280 56 2500 330/12 RMK AO2 T01220039
03812KAVL AVL20161130231510411/30/16 23:15:31  5-MIN KAVL 010415Z 32008KT 10SM CLR 12/03 A2980 2280 54 2500 330/08 RMK AO2 T01220033
03812KAVL AVL20161130232010411/30/16 23:20:31  5-MIN KAVL 010420Z 31011KT 10SM CLR 12/03 A2980 2280 54 2500 310/11 RMK AO2 T01220033
03812KAVL AVL20161130232510411/30/16 23:25:31  5-MIN KAVL 010425Z 36005KT 10SM CLR 12/03 A2980 2280 52 2500 010/05 RMK AO2 T01220028
03812KAVL AVL20161130233010411/30/16 23:30:31  5-MIN KAVL 010430Z 01004KT 10SM CLR 12/04 A2980 2280 61 2500 020/04 RMK AO2 T01170044
03812KAVL AVL20161130233510411/30/16 23:35:31  5-MIN KAVL 010435Z 00000KT 10SM CLR 12/05 A2980 2280 63 2500 000/00 RMK AO2 T01170050
03812KAVL AVL20161130234010411/30/16 23:40:31  5-MIN KAVL 010440Z 00000KT 10SM CLR 12/06 A2980 2280 66 2500 000/00 RMK AO2 T01170056
03812KAVL AVL20161130234510411/30/16 23:45:31  5-MIN KAVL 010445Z 00000KT 10SM CLR 11/06 A2980 2280 68 2400 000/00 RMK AO2 T01110056
03812KAVL AVL20161130235012111/30/16 23:50:31  5-MIN KAVL 010450Z 00000KT 10SM CLR 11/06 A2980 2280 71 2300 000/00 RMK AO2 SLP076 T01060056 401940106
03812KAVL AVL20161130235510411/30/16 23:55:31  5-MIN KAVL 010455Z 00000KT 10SM CLR 10/06 A2980 2280 74 2300 000/00 RMK AO2 T01000056
