93073KASE ASE20160701000014607/01/16 00:00:31  5-MIN KASE 010700Z 01003KT 10SM BKN011 OVC017 13/11 A3035 7450 86 9000 360/03 RMK AO2 LTG DSNT N AND NE RAE0657 P0000 T01330111
93073KASE ASE20160701000515207/01/16 00:05:31  5-MIN KASE 010705Z 01003KT 10SM BKN011 OVC015 13/12 A3035 7450 89 9000 360/03 RMK AO2 LTG DSNT NE RAE0657 CIG 007V012 P0000 T01330117
93073KASE ASE20160701001014007/01/16 00:10:31  5-MIN KASE 010710Z 00000KT 10SM BKN012 OVC017 13/12 A3035 7450 89 9000 000/00 RMK AO2 LTG DSNT NE RAE0657 P0000 T01330117
93073KASE ASE20160701001514007/01/16 00:15:31  5-MIN KASE 010715Z 00000KT 10SM BKN012 OVC019 13/12 A3035 7450 89 9000 000/00 RMK AO2 LTG DSNT NE RAE0657 P0000 T01330117
93073KASE ASE20160701002014707/01/16 00:20:31  5-MIN KASE 010720Z 35003KT 10SM SCT010 BKN014 OVC037 13/12 A3035 7450 89 9000 350/03 RMK AO2 LTG DSNT NE RAE0657 P0000 T01330117
93073KASE ASE20160701002514707/01/16 00:25:31  5-MIN KASE 010725Z 00000KT 10SM FEW008 BKN014 OVC036 14/11 A3034 7450 83 9100 000/00 RMK AO2 LTG DSNT NE RAE0657 P0000 T01390111
93073KASE ASE20160701003014707/01/16 00:30:31  5-MIN KASE 010730Z 30005KT 10SM FEW008 BKN020 OVC036 13/11 A3035 7450 86 9000 290/05 RMK AO2 LTG DSNT NE RAE0657 P0000 T01330111
93073KASE ASE20160701003514707/01/16 00:35:31  5-MIN KASE 010735Z 00000KT 10SM SCT014 BKN019 OVC034 14/11 A3035 7450 83 9100 000/00 RMK AO2 LTG DSNT NE RAE0657 P0000 T01390111
93073KASE ASE20160701004014707/01/16 00:40:31  5-MIN KASE 010740Z 36005KT 10SM FEW012 BKN019 OVC030 14/12 A3034 7450 86 9100 350/05 RMK AO2 LTG DSNT NE RAE0657 P0000 T01390117
93073KASE ASE20160701004513507/01/16 00:45:31  5-MIN KASE 010745Z 01005KT 10SM SCT012 BKN019 OVC036 13/12 A3034 7460 89 9000 360/05 RMK AO2 RAE0657 P0000 T01330117
93073KASE ASE20160701005014207/01/16 00:50:31  5-MIN KASE 010750Z 35005KT 10SM SCT012 BKN019 OVC025 13/12 A3034 7460 89 9000 340/05 RMK AO2 RAE0657 SLP152 P0000 T01330117
93073KASE ASE20160701005513707/01/16 00:55:31  5-MIN KASE 010755Z 35004KT 10SM -RA SCT007 BKN012 OVC019 13/12 A3034 7460 89 9000 340/04 RMK AO2 RAB54 P0000 T01330117
93073KASE ASE20160701010015107/01/16 01:00:31  5-MIN KASE 010800Z 34003KT 10SM -RA BKN007 BKN012 OVC019 13/12 A3034 7460 89 9000 330/03 RMK AO2 RAB0754 CIG 005V009 P0000 T01330117
93073KASE ASE20160701010515107/01/16 01:05:31  5-MIN KASE 010805Z 35003KT 10SM -RA BKN007 BKN012 OVC019 13/12 A3034 7460 89 9000 340/03 RMK AO2 RAB0754 CIG 005V010 P0000 T01330117
93073KASE ASE20160701011014307/01/16 01:10:31  5-MIN KASE 010810Z 00000KT 10SM BKN007 OVC012 13/12 A3034 7460 89 9000 000/00 RMK AO2 RAB0754E06 CIG 005V009 P0000 T01330117
93073KASE ASE20160701011514307/01/16 01:15:31  5-MIN KASE 010815Z 00000KT 10SM BKN007 OVC012 13/12 A3033 7460 89 9000 000/00 RMK AO2 RAB0754E06 CIG 005V009 P0000 T01330117
93073KASE ASE20160701012013107/01/16 01:20:31  5-MIN KASE 010820Z 00000KT 10SM SCT007 OVC012 13/12 A3033 7460 89 9000 000/00 RMK AO2 RAB0754E06 P0000 T01330117
93073KASE ASE20160701012513107/01/16 01:25:31  5-MIN KASE 010825Z 00000KT 10SM SCT007 OVC012 13/12 A3033 7460 89 9000 000/00 RMK AO2 RAB0754E06 P0000 T01330117
93073KASE ASE20160701013013607/01/16 01:30:31  5-MIN KASE 010830Z 00000KT 10SM OVC010 13/12 A3033 7460 89 9000 000/00 RMK AO2 RAB0754E06 CIG 006V013 P0000 T01330117
93073KASE ASE20160701013512407/01/16 01:35:31  5-MIN KASE 010835Z 00000KT 10SM OVC012 13/12 A3033 7470 89 9000 000/00 RMK AO2 RAB0754E06 P0000 T01330117
93073KASE ASE20160701014013107/01/16 01:40:31  5-MIN KASE 010840Z 00000KT 10SM BKN012 OVC027 13/11 A3033 7470 86 9000 000/00 RMK AO2 RAB0754E06 P0000 T01330111
93073KASE ASE20160701014513107/01/16 01:45:31  5-MIN KASE 010845Z 00000KT 10SM BKN011 OVC027 13/11 A3033 7470 86 9000 000/00 RMK AO2 RAB0754E06 P0000 T01330111
93073KASE ASE20160701015014307/01/16 01:50:31  5-MIN KASE 010850Z 00000KT 10SM OVC011 13/11 A3033 7470 86 9000 000/00 RMK AO2 RAB0754E06 SLP140 P0000 60004 T01330111 51008
93073KASE ASE20160701015511407/01/16 01:55:31  5-MIN KASE 010855Z 00000KT 10SM BKN014 OVC060 13/12 A3032 7470 89 9000 000/00 RMK AO2 T01330117
93073KASE ASE20160701020012107/01/16 02:00:31  5-MIN KASE 010900Z 00000KT 10SM SCT014 SCT055 OVC070 13/12 A3032 7480 89 9000 000/00 RMK AO2 T01330117
93073KASE ASE20160701020512107/01/16 02:05:31  5-MIN KASE 010905Z 00000KT 10SM SCT013 BKN065 OVC080 13/11 A3032 7470 86 9000 000/00 RMK AO2 T01330111
93073KASE ASE20160701021012107/01/16 02:10:31  5-MIN KASE 010910Z 32003KT 10SM SCT013 BKN024 OVC060 13/11 A3032 7470 86 9000 310/03 RMK AO2 T01330111
93073KASE ASE20160701021512107/01/16 02:15:31  5-MIN KASE 010915Z 00000KT 10SM FEW015 BKN060 OVC080 13/11 A3032 7480 86 9000 000/00 RMK AO2 T01330111
93073KASE ASE20160701022012107/01/16 02:20:31  5-MIN KASE 010920Z 00000KT 10SM FEW023 BKN065 OVC080 13/12 A3031 7480 89 9000 000/00 RMK AO2 T01330117
93073KASE ASE20160701022512107/01/16 02:25:31  5-MIN KASE 010925Z 00000KT 10SM FEW014 FEW023 OVC070 13/11 A3031 7480 86 9000 000/00 RMK AO2 T01330111
93073KASE ASE20160701023012107/01/16 02:30:31  5-MIN KASE 010930Z 33003KT 10SM FEW014 BKN060 OVC075 13/11 A3031 7480 83 9000 320/03 RMK AO2 T01330106
93073KASE ASE20160701023512107/01/16 02:35:31  5-MIN KASE 010935Z 33003KT 10SM FEW014 BKN060 OVC075 13/11 A3031 7480 86 9000 330/03 RMK AO2 T01330111
93073KASE ASE20160701024012107/01/16 02:40:31  5-MIN KASE 010940Z 00000KT 10SM FEW016 BKN060 OVC070 13/12 A3031 7480 89 9000 000/00 RMK AO2 T01330117
93073KASE ASE20160701024512107/01/16 02:45:31  5-MIN KASE 010945Z 00000KT 10SM FEW016 BKN060 OVC075 13/12 A3031 7480 89 9000 000/00 RMK AO2 T01330117
93073KASE ASE20160701025012107/01/16 02:50:31  5-MIN KASE 010950Z 00000KT 10SM FEW015 OVC060 13/12 A3031 7480 89 9000 000/00 RMK AO2 SLP131 T01330117
93073KASE ASE20160701025511407/01/16 02:55:31  5-MIN KASE 010955Z 00000KT 10SM FEW015 OVC060 13/12 A3031 7480 89 9000 000/00 RMK AO2 T01330117
93073KASE ASE20160701030011407/01/16 03:00:31  5-MIN KASE 011000Z 00000KT 10SM SCT048 OVC065 13/12 A3031 7490 89 9000 000/00 RMK AO2 T01330117
93073KASE ASE20160701030511407/01/16 03:05:31  5-MIN KASE 011005Z 00000KT 10SM SCT048 OVC065 13/12 A3031 7490 89 9000 000/00 RMK AO2 T01330117
93073KASE ASE20160701031012107/01/16 03:10:31  5-MIN KASE 011010Z 00000KT 10SM FEW017 BKN048 OVC060 13/11 A3031 7490 89 9000 000/00 RMK AO2 T01280111
93073KASE ASE20160701031512107/01/16 03:15:31  5-MIN KASE 011015Z 00000KT 10SM BKN017 BKN046 OVC060 13/11 A3031 7490 89 9000 000/00 RMK AO2 T01280111
93073KASE ASE20160701032012107/01/16 03:20:31  5-MIN KASE 011020Z 00000KT 10SM BKN017 BKN046 OVC060 13/11 A3031 7490 86 9000 000/00 RMK AO2 T01330111
93073KASE ASE20160701032512107/01/16 03:25:31  5-MIN KASE 011025Z 00000KT 10SM BKN017 BKN046 OVC060 13/12 A3030 7490 89 9000 000/00 RMK AO2 T01330117
93073KASE ASE20160701033011407/01/16 03:30:31  5-MIN KASE 011030Z 00000KT 10SM BKN017 OVC060 13/12 A3030 7490 89 9000 000/00 RMK AO2 T01330117
93073KASE ASE20160701033510707/01/16 03:35:31  5-MIN KASE 011035Z 35003KT 10SM OVC017 13/12 A3031 7490 89 9000 340/03 RMK AO2 T01330117
93073KASE ASE20160701034010707/01/16 03:40:31  5-MIN KASE 011040Z 35003KT 10SM OVC017 13/12 A3031 7490 89 9000 340/03 RMK AO2 T01330117
93073KASE ASE20160701034510707/01/16 03:45:31  5-MIN KASE 011045Z 36003KT 10SM OVC017 13/12 A3031 7480 93 9000 350/03 RMK AO2 T01280117
93073KASE ASE20160701035011407/01/16 03:50:31  5-MIN KASE 011050Z 01003KT 10SM OVC017 13/12 A3031 7480 93 9000 010/03 RMK AO2 SLP131 T01280117
93073KASE ASE20160701035512307/01/16 03:55:31  5-MIN KASE 011055Z 02003KT 10SM -RA OVC019 13/12 A3031 7480 93 9000 010/03 RMK AO2 RAB55 P0000 T01280117
93073KASE ASE20160701040012407/01/16 04:00:31  5-MIN KASE 011100Z 02003KT 9SM -RA OVC019 13/12 A3031 7480 93 9000 020/03 RMK AO2 RAB1055 P0001 T01280117
93073KASE ASE20160701040513807/01/16 04:05:31  5-MIN KASE 011105Z 01003KT 8SM -RA BKN019 BKN048 OVC055 13/12 A3031 7480 93 9000 360/03 RMK AO2 RAB1055 P0002 T01280117
93073KASE ASE20160701041013807/01/16 04:10:31  5-MIN KASE 011110Z 02003KT 8SM -RA BKN019 BKN048 OVC055 13/12 A3031 7480 93 9000 010/03 RMK AO2 RAB1055 P0003 T01280117
93073KASE ASE20160701041513807/01/16 04:15:31  5-MIN KASE 011115Z 00000KT 8SM -RA SCT021 BKN050 OVC070 13/12 A3031 7480 93 9000 000/00 RMK AO2 RAB1055 P0003 T01280117
93073KASE ASE20160701042013807/01/16 04:20:31  5-MIN KASE 011120Z 00000KT 9SM -RA FEW021 SCT050 OVC070 13/12 A3031 7480 93 9000 000/00 RMK AO2 RAB1055 P0003 T01280117
93073KASE ASE20160701042513907/01/16 04:25:31  5-MIN KASE 011125Z 00000KT 10SM -RA FEW019 SCT050 OVC070 13/12 A3031 7480 93 9000 000/00 RMK AO2 RAB1055 P0004 T01280117
93073KASE ASE20160701043013207/01/16 04:30:31  5-MIN KASE 011130Z 00000KT 10SM -RA FEW050 OVC070 13/12 A3031 7480 93 9000 000/00 RMK AO2 RAB1055 P0004 T01280117
93073KASE ASE20160701043513207/01/16 04:35:31  5-MIN KASE 011135Z 00000KT 10SM -RA FEW050 OVC065 13/11 A3031 7480 89 9000 000/00 RMK AO2 RAB1055 P0004 T01280111
93073KASE ASE20160701044013207/01/16 04:40:31  5-MIN KASE 011140Z 24003KT 10SM -RA FEW048 OVC065 13/11 A3031 7480 89 9000 230/03 RMK AO2 RAB1055 P0004 T01280111
93073KASE ASE20160701044513207/01/16 04:45:31  5-MIN KASE 011145Z 24004KT 10SM -RA FEW048 OVC065 13/12 A3031 7490 93 9000 230/04 RMK AO2 RAB1055 P0004 T01280117
93073KASE ASE20160701045016807/01/16 04:50:31  5-MIN KASE 011150Z 25004KT 10SM FEW048 OVC060 13/11 A3030 7490 89 9000 240/04 RMK AO2 RAB1055E50 SLP138 P0004 60008 70008 T01280111 10161 20128 50003
93073KASE ASE20160701045511407/01/16 04:55:31  5-MIN KASE 011155Z 23003KT 10SM FEW048 OVC060 13/11 A3031 7480 89 9000 220/03 RMK AO2 T01280111
93073KASE ASE20160701050011407/01/16 05:00:31  5-MIN KASE 011200Z 20003KT 10SM FEW048 OVC060 13/11 A3031 7490 89 9000 190/03 RMK AO2 T01280111
93073KASE ASE20160701050513707/01/16 05:05:31  5-MIN KASE 011205Z 19003KT 10SM -RA FEW005 SCT048 OVC060 13/11 A3030 7490 89 9000 180/03 RMK AO2 RAB01 P0000 T01280111
93073KASE ASE20160701051013007/01/16 05:10:31  5-MIN KASE 011210Z 16004KT 10SM -RA SCT005 OVC060 13/12 A3031 7490 93 9000 150/04 RMK AO2 RAB01 P0000 T01280117
93073KASE ASE20160701051513707/01/16 05:15:31  5-MIN KASE 011215Z 16003KT 10SM -RA FEW005 BKN065 OVC085 13/12 A3030 7490 89 9000 150/03 RMK AO2 RAB01 P0000 T01330117
93073KASE ASE20160701052013707/01/16 05:20:31  5-MIN KASE 011220Z 16005KT 10SM -RA FEW005 BKN070 OVC085 13/12 A3030 7490 89 9000 150/05 RMK AO2 RAB01 P0001 T01330117
93073KASE ASE20160701052513007/01/16 05:25:31  5-MIN KASE 011225Z 16003KT 10SM -RA FEW005 OVC070 13/12 A3030 7490 89 9000 150/03 RMK AO2 RAB01 P0001 T01330117
93073KASE ASE20160701053013007/01/16 05:30:31  5-MIN KASE 011230Z 00000KT 10SM -RA FEW005 OVC070 13/12 A3031 7490 89 9000 000/00 RMK AO2 RAB01 P0001 T01330117
93073KASE ASE20160701053512907/01/16 05:35:31  5-MIN KASE 011235Z 15003KT 10SM BKN070 OVC085 13/12 A3030 7490 89 9000 140/03 RMK AO2 RAB01E32 P0001 T01330117
93073KASE ASE20160701054012207/01/16 05:40:31  5-MIN KASE 011240Z 00000KT 10SM OVC070 13/11 A3030 7490 86 9000 000/00 RMK AO2 RAB01E32 P0001 T01330111
93073KASE ASE20160701054512207/01/16 05:45:31  5-MIN KASE 011245Z 00000KT 10SM OVC070 13/12 A3030 7490 89 9000 000/00 RMK AO2 RAB01E32 P0001 T01330117
93073KASE ASE20160701055012907/01/16 05:50:31  5-MIN KASE 011250Z 00000KT 10SM OVC070 13/12 A3030 7490 89 9000 000/00 RMK AO2 RAB01E32 SLP137 P0001 T01330117
93073KASE ASE20160701055510707/01/16 05:55:31  5-MIN KASE 011255Z 00000KT 10SM OVC070 13/12 A3030 7490 89 9000 000/00 RMK AO2 T01330117
93073KASE ASE20160701060010707/01/16 06:00:31  5-MIN KASE 011300Z 00000KT 10SM OVC065 13/12 A3030 7490 89 9000 000/00 RMK AO2 T01330117
93073KASE ASE20160701060510707/01/16 06:05:31  5-MIN KASE 011305Z 00000KT 10SM OVC065 13/11 A3030 7490 86 9000 000/00 RMK AO2 T01330111
93073KASE ASE20160701061010707/01/16 06:10:31  5-MIN KASE 011310Z 34004KT 10SM OVC055 13/12 A3030 7490 89 9000 330/04 RMK AO2 T01330117
93073KASE ASE20160701061510707/01/16 06:15:31  5-MIN KASE 011315Z 00000KT 10SM OVC055 13/12 A3030 7490 89 9000 000/00 RMK AO2 T01330117
93073KASE ASE20160701062010707/01/16 06:20:31  5-MIN KASE 011320Z 00000KT 10SM OVC055 13/12 A3031 7490 89 9000 000/00 RMK AO2 T01330117
93073KASE ASE20160701062510707/01/16 06:25:31  5-MIN KASE 011325Z 36004KT 10SM OVC055 13/12 A3031 7480 89 9000 350/04 RMK AO2 T01330117
93073KASE ASE20160701063010707/01/16 06:30:31  5-MIN KASE 011330Z 34004KT 10SM OVC055 13/12 A3031 7480 89 9000 330/04 RMK AO2 T01330117
93073KASE ASE20160701063510707/01/16 06:35:31  5-MIN KASE 011335Z 35005KT 10SM OVC055 13/12 A3031 7480 89 9000 340/05 RMK AO2 T01330117
93073KASE ASE20160701064010707/01/16 06:40:31  5-MIN KASE 011340Z 01004KT 10SM OVC055 13/12 A3031 7480 89 9000 360/04 RMK AO2 T01330117
93073KASE ASE20160701064510707/01/16 06:45:31  5-MIN KASE 011345Z 00000KT 10SM OVC055 13/12 A3031 7480 89 9000 000/00 RMK AO2 T01330117
93073KASE ASE20160701065009707/01/16 06:50:31  5-MIN KASE 011350Z 00000KT 10SM OVC025 13/12 A3031 7480 89 9000 000/00 RMK AO2
93073KASE ASE20160701065510707/01/16 06:55:31  5-MIN KASE 011355Z 31003KT 10SM OVC025 13/12 A3031 7480 89 9000 300/03 RMK AO2 T01330117
93073KASE ASE20160701070010707/01/16 07:00:31  5-MIN KASE 011400Z 00000KT 10SM OVC025 13/12 A3031 7480 89 9000 000/00 RMK AO2 T01330117
93073KASE ASE20160701070510707/01/16 07:05:31  5-MIN KASE 011405Z 33004KT 10SM OVC040 13/12 A3031 7480 89 9000 320/04 RMK AO2 T01330117
93073KASE ASE20160701071010707/01/16 07:10:31  5-MIN KASE 011410Z 35003KT 10SM OVC040 13/12 A3031 7480 89 9000 340/03 RMK AO2 T01330117
93073KASE ASE20160701071510707/01/16 07:15:31  5-MIN KASE 011415Z 00000KT 10SM OVC040 14/12 A3032 7480 86 9100 000/00 RMK AO2 T01390117
93073KASE ASE20160701072010707/01/16 07:20:31  5-MIN KASE 011420Z 01003KT 10SM OVC040 14/12 A3032 7480 86 9100 360/03 RMK AO2 T01390117
93073KASE ASE20160701072510707/01/16 07:25:31  5-MIN KASE 011425Z 01003KT 10SM OVC040 14/12 A3032 7480 90 9100 360/03 RMK AO2 T01390122
93073KASE ASE20160701073010707/01/16 07:30:31  5-MIN KASE 011430Z 36003KT 10SM OVC040 14/12 A3032 7480 86 9100 350/03 RMK AO2 T01390117
93073KASE ASE20160701073510707/01/16 07:35:31  5-MIN KASE 011435Z 35003KT 10SM OVC040 14/12 A3032 7480 90 9100 340/03 RMK AO2 T01390122
93073KASE ASE20160701074012307/01/16 07:40:31  5-MIN KASE 011440Z 01003KT 10SM -RA OVC040 14/12 A3031 7480 86 9100 360/03 RMK AO2 RAB36 P0000 T01390117
93073KASE ASE20160701074512307/01/16 07:45:31  5-MIN KASE 011445Z 01003KT 10SM -RA OVC040 14/12 A3031 7480 86 9100 360/03 RMK AO2 RAB36 P0000 T01390117
93073KASE ASE20160701075015607/01/16 07:50:31  5-MIN KASE 011450Z 34003KT 10SM -RA SCT065 BKN080 BKN100 14/12 A3031 7480 90 9100 330/03 RMK AO2 RAB36 SLP151 P0000 60001 T01390122 56004
93073KASE ASE20160701075512107/01/16 07:55:31  5-MIN KASE 011455Z 31004KT 10SM FEW065 SCT080 BKN100 14/12 A3032 7480 90 9100 300/04 RMK AO2 T01390122
93073KASE ASE20160701080011407/01/16 08:00:31  5-MIN KASE 011500Z 33004KT 10SM FEW080 BKN100 14/12 A3032 7480 86 9100 320/04 RMK AO2 T01390117
93073KASE ASE20160701080511407/01/16 08:05:31  5-MIN KASE 011505Z 33004KT 10SM SCT080 OVC100 14/12 A3032 7470 90 9100 320/04 RMK AO2 T01390122
93073KASE ASE20160701081011407/01/16 08:10:31  5-MIN KASE 011510Z 35004KT 10SM BKN075 OVC110 14/12 A3032 7470 86 9100 350/04 RMK AO2 T01440122
93073KASE ASE20160701081512107/01/16 08:15:31  5-MIN KASE 011515Z 35005KT 10SM FEW060 BKN075 OVC110 14/12 A3032 7480 86 9100 340/05 RMK AO2 T01440122
93073KASE ASE20160701082012107/01/16 08:20:31  5-MIN KASE 011520Z 01003KT 10SM FEW014 BKN045 OVC110 14/12 A3032 7470 86 9100 010/03 RMK AO2 T01440122
93073KASE ASE20160701082512107/01/16 08:25:31  5-MIN KASE 011525Z 34003KT 10SM FEW014 BKN045 OVC110 14/12 A3032 7480 83 9100 340/03 RMK AO2 T01440117
93073KASE ASE20160701083012107/01/16 08:30:31  5-MIN KASE 011530Z 36004KT 10SM FEW014 BKN020 OVC110 14/12 A3032 7470 83 9100 350/04 RMK AO2 T01440117
93073KASE ASE20160701083512107/01/16 08:35:31  5-MIN KASE 011535Z 36004KT 10SM FEW014 BKN020 OVC110 14/12 A3032 7470 83 9100 350/04 RMK AO2 T01440117
93073KASE ASE20160701084012107/01/16 08:40:31  5-MIN KASE 011540Z 36004KT 10SM FEW014 BKN020 OVC110 14/12 A3032 7470 83 9100 360/04 RMK AO2 T01440117
93073KASE ASE20160701084512107/01/16 08:45:31  5-MIN KASE 011545Z 36004KT 10SM FEW014 BKN020 OVC110 15/12 A3032 7470 80 9200 350/04 RMK AO2 T01500117
93073KASE ASE20160701085014407/01/16 08:50:31  5-MIN KASE 011550Z 36005KT 10SM -RA FEW014 BKN020 OVC110 15/12 A3032 7470 83 9200 350/05 RMK AO2 RAB50 SLP151 P0000 T01500122
93073KASE ASE20160701085513107/01/16 08:55:31  5-MIN KASE 011555Z 01004KT 10SM -RA FEW014 BKN020 OVC110 15/12 A3032 7470 83 9200 360/04 RMK AO2 P0000 T01500122
93073KASE ASE20160701090013107/01/16 09:00:31  5-MIN KASE 011600Z 36004KT 10SM -RA FEW014 BKN020 OVC110 15/12 A3032 7470 83 9200 350/04 RMK AO2 P0000 T01500122
93073KASE ASE20160701090513307/01/16 09:05:31  5-MIN KASE 011605Z 36005KT 10SM FEW014 SCT020 OVC110 14/12 A3032 7470 86 9100 350/05 RMK AO2 RAE04 P0000 T01440122
93073KASE ASE20160701091013307/01/16 09:10:31  5-MIN KASE 011610Z 01004KT 10SM FEW014 SCT020 OVC110 15/12 A3032 7470 83 9200 360/04 RMK AO2 RAE04 P0000 T01500122
93073KASE ASE20160701091513307/01/16 09:15:31  5-MIN KASE 011615Z 01004KT 10SM FEW014 SCT020 OVC110 15/12 A3032 7470 83 9200 360/04 RMK AO2 RAE04 P0000 T01500122
93073KASE ASE20160701092013307/01/16 09:20:31  5-MIN KASE 011620Z 02003KT 10SM FEW014 SCT020 OVC110 15/12 A3032 7470 83 9200 020/03 RMK AO2 RAE04 P0000 T01500122
93073KASE ASE20160701092513307/01/16 09:25:31  5-MIN KASE 011625Z 35003KT 10SM FEW014 SCT020 OVC110 15/12 A3032 7470 83 9200 350/03 RMK AO2 RAE04 P0000 T01500122
93073KASE ASE20160701093013307/01/16 09:30:31  5-MIN KASE 011630Z 34004KT 10SM FEW014 SCT020 OVC110 15/12 A3032 7470 83 9200 330/04 RMK AO2 RAE04 P0000 T01500122
93073KASE ASE20160701093513307/01/16 09:35:31  5-MIN KASE 011635Z 34005KT 10SM FEW014 SCT020 OVC110 16/12 A3032 7470 80 9300 330/05 RMK AO2 RAE04 P0000 T01560122
93073KASE ASE20160701094013307/01/16 09:40:31  5-MIN KASE 011640Z 34005KT 10SM FEW014 SCT020 OVC110 16/12 A3032 7470 80 9300 330/05 RMK AO2 RAE04 P0000 T01560122
93073KASE ASE20160701094513307/01/16 09:45:31  5-MIN KASE 011645Z 34005KT 10SM FEW014 SCT020 OVC110 16/12 A3033 7470 80 9300 330/05 RMK AO2 RAE04 P0000 T01560122
93073KASE ASE20160701095014007/01/16 09:50:31  5-MIN KASE 011650Z 33005KT 10SM FEW014 SCT020 OVC110 15/12 A3033 7470 83 9200 320/05 RMK AO2 RAE04 SLP156 P0000 T01500122
93073KASE ASE20160701095510707/01/16 09:55:31  5-MIN KASE 011655Z 31004KT 10SM OVC060 15/12 A3033 7470 83 9200 300/04 RMK AO2 T01500122
93073KASE ASE20160701100012507/01/16 10:00:31  5-MIN KASE 011700Z 00000KT 10SM -RA OVC060 15/12 A3032 7470 83 9200 000/00 RMK AO2 RAB1656 P0000 T01500122
93073KASE ASE20160701100513207/01/16 10:05:31  5-MIN KASE 011705Z 00000KT 10SM -RA BKN060 OVC070 15/12 A3033 7470 83 9200 000/00 RMK AO2 RAB1656 P0000 T01500122
93073KASE ASE20160701101012507/01/16 10:10:31  5-MIN KASE 011710Z 00000KT 10SM -RA OVC060 15/12 A3033 7470 83 9200 000/00 RMK AO2 RAB1656 P0000 T01500122
93073KASE ASE20160701101512407/01/16 10:15:31  5-MIN KASE 011715Z 00000KT 10SM OVC065 15/12 A3033 7460 83 9200 000/00 RMK AO2 RAB1656E15 P0000 T01500122
93073KASE ASE20160701102012407/01/16 10:20:31  5-MIN KASE 011720Z 00000KT 10SM OVC065 16/12 A3033 7470 77 9300 000/00 RMK AO2 RAB1656E15 P0000 T01560117
93073KASE ASE20160701102512407/01/16 10:25:31  5-MIN KASE 011725Z 00000KT 10SM OVC065 16/12 A3033 7470 77 9300 000/00 RMK AO2 RAB1656E15 P0000 T01560117
93073KASE ASE20160701103012407/01/16 10:30:31  5-MIN KASE 011730Z 34003KT 10SM OVC065 16/12 A3033 7470 77 9300 330/03 RMK AO2 RAB1656E15 P0000 T01560117
93073KASE ASE20160701103512407/01/16 10:35:31  5-MIN KASE 011735Z 01003KT 10SM OVC060 16/12 A3033 7470 77 9300 360/03 RMK AO2 RAB1656E15 P0000 T01560117
93073KASE ASE20160701104012407/01/16 10:40:31  5-MIN KASE 011740Z 02003KT 10SM OVC060 16/12 A3032 7470 80 9300 010/03 RMK AO2 RAB1656E15 P0000 T01560122
93073KASE ASE20160701104513107/01/16 10:45:31  5-MIN KASE 011745Z 00000KT 10SM BKN065 OVC075 16/12 A3032 7480 80 9300 000/00 RMK AO2 RAB1656E15 P0000 T01560122
93073KASE ASE20160701105016207/01/16 10:50:31  5-MIN KASE 011750Z 00000KT 10SM SCT060 OVC070 16/12 A3031 7480 77 9300 000/00 RMK AO2 RAB1656E15 SLP152 P0000 60001 T01610122 10161 20128 53002
93073KASE ASE20160701105511407/01/16 10:55:31  5-MIN KASE 011755Z 00000KT 10SM SCT060 OVC070 16/12 A3032 7480 75 9300 000/00 RMK AO2 T01610117
93073KASE ASE20160701110011407/01/16 11:00:31  5-MIN KASE 011800Z 00000KT 10SM BKN070 OVC095 16/11 A3031 7480 72 9300 000/00 RMK AO2 T01610111
93073KASE ASE20160701110512107/01/16 11:05:31  5-MIN KASE 011805Z VRB03KT 10SM FEW060 BKN075 OVC095 16/11 A3031 7480 72 9300 VRB/03 RMK AO2 T01610111
93073KASE ASE20160701111011407/01/16 11:10:31  5-MIN KASE 011810Z 00000KT 10SM SCT070 OVC090 16/11 A3032 7480 74 9300 000/00 RMK AO2 T01560111
93073KASE ASE20160701111511407/01/16 11:15:31  5-MIN KASE 011815Z 00000KT 10SM SCT070 OVC090 16/11 A3032 7470 69 9300 000/00 RMK AO2 T01610106
93073KASE ASE20160701112012107/01/16 11:20:31  5-MIN KASE 011820Z 00000KT 10SM SCT060 BKN080 OVC090 17/11 A3032 7470 67 9400 000/00 RMK AO2 T01670106
93073KASE ASE20160701112511407/01/16 11:25:31  5-MIN KASE 011825Z 03003KT 10SM FEW060 OVC085 17/11 A3032 7480 69 9400 020/03 RMK AO2 T01670111
93073KASE ASE20160701113011407/01/16 11:30:31  5-MIN KASE 011830Z 01003KT 10SM FEW060 OVC085 17/11 A3032 7480 69 9400 360/03 RMK AO2 T01670111
93073KASE ASE20160701113511407/01/16 11:35:31  5-MIN KASE 011835Z 36003KT 10SM FEW060 OVC085 17/12 A3032 7470 72 9400 350/03 RMK AO2 T01670117
93073KASE ASE20160701114011407/01/16 11:40:31  5-MIN KASE 011840Z 01003KT 10SM FEW060 OVC080 16/11 A3032 7470 72 9300 360/03 RMK AO2 T01610111
93073KASE ASE20160701114511407/01/16 11:45:31  5-MIN KASE 011845Z 02003KT 10SM FEW060 OVC080 17/12 A3032 7470 72 9400 010/03 RMK AO2 T01670117
93073KASE ASE20160701115012107/01/16 11:50:31  5-MIN KASE 011850Z 02003KT 10SM BKN075 OVC085 17/12 A3032 7480 72 9400 010/03 RMK AO2 SLP155 T01670117
93073KASE ASE20160701115511407/01/16 11:55:31  5-MIN KASE 011855Z 00000KT 10SM BKN075 OVC085 17/11 A3032 7480 69 9400 000/00 RMK AO2 T01670111
93073KASE ASE20160701120010707/01/16 12:00:31  5-MIN KASE 011900Z 00000KT 10SM OVC075 17/12 A3032 7480 72 9400 000/00 RMK AO2 T01670117
93073KASE ASE20160701120510707/01/16 12:05:31  5-MIN KASE 011905Z 00000KT 10SM OVC075 17/12 A3031 7480 72 9400 000/00 RMK AO2 T01670117
93073KASE ASE20160701121010707/01/16 12:10:31  5-MIN KASE 011910Z 35004KT 10SM OVC075 17/12 A3031 7480 72 9400 340/04 RMK AO2 T01670117
93073KASE ASE20160701121511407/01/16 12:15:31  5-MIN KASE 011915Z 36003KT 10SM BKN075 OVC090 17/11 A3031 7480 69 9400 350/03 RMK AO2 T01670111
93073KASE ASE20160701122011407/01/16 12:20:31  5-MIN KASE 011920Z 34004KT 10SM BKN075 OVC095 17/12 A3031 7480 69 9500 330/04 RMK AO2 T01720117
93073KASE ASE20160701122511407/01/16 12:25:31  5-MIN KASE 011925Z 34005KT 10SM SCT075 BKN095 17/12 A3031 7490 72 9400 330/05 RMK AO2 T01670117
93073KASE ASE20160701123011407/01/16 12:30:31  5-MIN KASE 011930Z 36004KT 10SM FEW080 BKN095 17/12 A3030 7490 72 9400 350/04 RMK AO2 T01670117
93073KASE ASE20160701123511407/01/16 12:35:31  5-MIN KASE 011935Z 34005KT 10SM FEW080 SCT095 17/12 A3031 7490 72 9400 330/05 RMK AO2 T01670117
93073KASE ASE20160701124010707/01/16 12:40:31  5-MIN KASE 011940Z VRB03KT 10SM FEW095 17/12 A3030 7490 72 9500 VRB/03 RMK AO2 T01720122
93073KASE ASE20160701124510707/01/16 12:45:31  5-MIN KASE 011945Z 00000KT 10SM FEW095 17/12 A3030 7490 72 9500 000/00 RMK AO2 T01720122
93073KASE ASE20160701125011107/01/16 12:50:31  5-MIN KASE 011950Z 00000KT 10SM CLR 17/12 A3030 7490 72 9500 000/00 RMK AO2 SLP147 T01720122
93073KASE ASE20160701125510407/01/16 12:55:31  5-MIN KASE 011955Z 01003KT 10SM CLR 17/12 A3030 7490 72 9500 360/03 RMK AO2 T01720122
93073KASE ASE20160701130011407/01/16 13:00:31  5-MIN KASE 012000Z 03004KT 10SM SCT017 OVC110 17/12 A3030 7490 72 9500 030/04 RMK AO2 T01720122
93073KASE ASE20160701130511407/01/16 13:05:31  5-MIN KASE 012005Z 34004KT 10SM SCT017 OVC110 18/12 A3029 7500 69 9500 330/04 RMK AO2 T01780122
93073KASE ASE20160701131011407/01/16 13:10:31  5-MIN KASE 012010Z VRB04KT 10SM SCT017 OVC110 18/12 A3030 7500 67 9500 VRB/04 RMK AO2 T01780117
93073KASE ASE20160701131511407/01/16 13:15:31  5-MIN KASE 012015Z 35003KT 10SM SCT017 OVC110 18/12 A3029 7500 67 9500 340/03 RMK AO2 T01780117
93073KASE ASE20160701132011407/01/16 13:20:31  5-MIN KASE 012020Z 34004KT 10SM SCT017 OVC110 18/12 A3029 7500 67 9500 330/04 RMK AO2 T01780117
93073KASE ASE20160701132511407/01/16 13:25:31  5-MIN KASE 012025Z 01003KT 10SM SCT017 OVC110 18/12 A3029 7500 67 9600 360/03 RMK AO2 T01830122
93073KASE ASE20160701133011407/01/16 13:30:31  5-MIN KASE 012030Z 35003KT 10SM SCT017 OVC110 18/12 A3029 7500 67 9600 340/03 RMK AO2 T01830122
93073KASE ASE20160701133511407/01/16 13:35:31  5-MIN KASE 012035Z 35005KT 10SM SCT017 OVC110 18/12 A3029 7500 65 9600 350/05 RMK AO2 T01830117
93073KASE ASE20160701134011407/01/16 13:40:31  5-MIN KASE 012040Z 01006KT 10SM SCT017 OVC110 18/12 A3029 7510 65 9600 360/06 RMK AO2 T01830117
93073KASE ASE20160701134511407/01/16 13:45:31  5-MIN KASE 012045Z VRB03KT 10SM SCT017 OVC110 18/11 A3028 7510 62 9600 VRB/03 RMK AO2 T01830111
93073KASE ASE20160701135012707/01/16 13:50:31  5-MIN KASE 012050Z 31003KT 10SM SCT017 OVC110 18/11 A3028 7510 62 9600 300/03 RMK AO2 SLP138 T01830111 50000
93073KASE ASE20160701135510707/01/16 13:55:31  5-MIN KASE 012055Z 34005KT 10SM BKN075 18/11 A3028 7510 62 9600 330/05 RMK AO2 T01830111
93073KASE ASE20160701140010707/01/16 14:00:31  5-MIN KASE 012100Z 36005KT 10SM BKN075 18/12 A3028 7510 65 9600 350/05 RMK AO2 T01830117
93073KASE ASE20160701140510707/01/16 14:05:31  5-MIN KASE 012105Z 34004KT 10SM BKN075 18/11 A3028 7510 62 9600 330/04 RMK AO2 T01830111
93073KASE ASE20160701141010707/01/16 14:10:31  5-MIN KASE 012110Z 35006KT 10SM BKN075 18/11 A3028 7510 60 9600 340/06 RMK AO2 T01830106
93073KASE ASE20160701141510707/01/16 14:15:31  5-MIN KASE 012115Z 35003KT 10SM BKN075 18/11 A3028 7510 60 9600 350/03 RMK AO2 T01830106
93073KASE ASE20160701142010707/01/16 14:20:31  5-MIN KASE 012120Z 35004KT 10SM BKN070 18/11 A3028 7510 60 9600 340/04 RMK AO2 T01830106
93073KASE ASE20160701142512607/01/16 14:25:31  5-MIN KASE 012125Z 32003KT 10SM SCT060 BKN075 18/10 A3028 7510 60 9600 310/03 RMK AO2 LTG DSNT SW T01780100
93073KASE ASE20160701143012607/01/16 14:30:31  5-MIN KASE 012130Z 00000KT 10SM BKN060 OVC075 18/11 A3028 7510 60 9600 000/00 RMK AO2 LTG DSNT SW T01830106
93073KASE ASE20160701143512607/01/16 14:35:31  5-MIN KASE 012135Z 36004KT 10SM BKN060 OVC075 18/11 A3028 7510 60 9600 350/04 RMK AO2 LTG DSNT SW T01830106
93073KASE ASE20160701144012607/01/16 14:40:31  5-MIN KASE 012140Z 35004KT 10SM BKN060 OVC075 18/11 A3027 7510 60 9600 350/04 RMK AO2 LTG DSNT SW T01830106
93073KASE ASE20160701144512607/01/16 14:45:31  5-MIN KASE 012145Z 35004KT 10SM BKN060 OVC070 18/11 A3027 7520 60 9600 340/04 RMK AO2 LTG DSNT SW T01830106
93073KASE ASE20160701145011407/01/16 14:50:31  5-MIN KASE 012150Z 32004KT 10SM OVC065 18/11 A3027 7520 60 9600 310/04 RMK AO2 SLP133 T01830106
93073KASE ASE20160701145510707/01/16 14:55:31  5-MIN KASE 012155Z 36004KT 10SM OVC065 18/11 A3027 7510 60 9600 350/04 RMK AO2 T01830106
93073KASE ASE20160701150010707/01/16 15:00:31  5-MIN KASE 012200Z 35004KT 10SM OVC065 18/11 A3027 7520 60 9600 340/04 RMK AO2 T01830106
93073KASE ASE20160701150510707/01/16 15:05:31  5-MIN KASE 012205Z 01004KT 10SM OVC060 18/11 A3027 7520 64 9600 360/04 RMK AO2 T01780111
93073KASE ASE20160701151011407/01/16 15:10:31  5-MIN KASE 012210Z 35006KT 10SM BKN060 OVC075 18/12 A3027 7520 67 9600 340/06 RMK AO2 T01780117
93073KASE ASE20160701151511407/01/16 15:15:31  5-MIN KASE 012215Z 34007KT 10SM BKN065 OVC080 18/12 A3027 7520 67 9600 330/07 RMK AO2 T01780117
93073KASE ASE20160701152011407/01/16 15:20:31  5-MIN KASE 012220Z 34004KT 10SM BKN065 OVC080 18/12 A3027 7520 67 9600 330/04 RMK AO2 T01780117
93073KASE ASE20160701152511407/01/16 15:25:31  5-MIN KASE 012225Z 35005KT 10SM BKN065 OVC080 18/12 A3027 7520 67 9600 340/05 RMK AO2 T01780117
93073KASE ASE20160701153011407/01/16 15:30:31  5-MIN KASE 012230Z 35005KT 10SM BKN065 OVC080 18/12 A3027 7520 67 9600 340/05 RMK AO2 T01780117
93073KASE ASE20160701153511407/01/16 15:35:31  5-MIN KASE 012235Z 35006KT 10SM BKN065 OVC080 18/12 A3028 7510 67 9600 340/06 RMK AO2 T01780117
93073KASE ASE20160701154010707/01/16 15:40:31  5-MIN KASE 012240Z 34008KT 10SM OVC070 17/12 A3028 7510 69 9500 330/08 RMK AO2 T01720117
93073KASE ASE20160701154511407/01/16 15:45:31  5-MIN KASE 012245Z 33007KT 10SM BKN065 OVC080 17/12 A3028 7510 69 9500 320/07 RMK AO2 T01720117
93073KASE ASE20160701155013707/01/16 15:50:31  5-MIN KASE 012250Z 34004KT 10SM -RA SCT065 OVC080 17/12 A3028 7510 72 9400 330/04 RMK AO2 RAB49 SLP141 P0000 T01670117
93073KASE ASE20160701155512407/01/16 15:55:31  5-MIN KASE 012255Z 35005KT 10SM -RA SCT055 OVC075 17/12 A3028 7510 72 9400 340/05 RMK AO2 P0000 T01670117
93073KASE ASE20160701160012407/01/16 16:00:31  5-MIN KASE 012300Z 35006KT 10SM -RA SCT055 OVC075 17/12 A3028 7510 72 9400 340/06 RMK AO2 P0000 T01670117
93073KASE ASE20160701160512407/01/16 16:05:31  5-MIN KASE 012305Z 35008KT 10SM -RA FEW055 OVC075 17/11 A3028 7510 69 9400 340/08 RMK AO2 P0000 T01670111
93073KASE ASE20160701161012407/01/16 16:10:31  5-MIN KASE 012310Z 35008KT 10SM -RA FEW055 OVC070 16/11 A3027 7520 72 9400 340/08 RMK AO2 P0000 T01610111
93073KASE ASE20160701161512407/01/16 16:15:31  5-MIN KASE 012315Z 35007KT 10SM -RA BKN060 OVC075 16/11 A3027 7520 72 9400 340/07 RMK AO2 P0000 T01610111
93073KASE ASE20160701162012407/01/16 16:20:31  5-MIN KASE 012320Z 35008KT 10SM -RA SCT055 OVC075 16/11 A3027 7520 72 9400 340/08 RMK AO2 P0000 T01610111
93073KASE ASE20160701162513107/01/16 16:25:31  5-MIN KASE 012325Z 35009KT 10SM -RA FEW040 BKN070 OVC110 16/11 A3027 7520 69 9400 340/09 RMK AO2 P0000 T01610106
93073KASE ASE20160701163013307/01/16 16:30:31  5-MIN KASE 012330Z 34010KT 10SM SCT040 BKN070 OVC110 16/11 A3027 7520 69 9400 340/10 RMK AO2 RAE26 P0000 T01610106
93073KASE ASE20160701163513307/01/16 16:35:31  5-MIN KASE 012335Z 35008KT 10SM FEW028 BKN070 OVC110 16/11 A3027 7520 69 9400 340/08 RMK AO2 RAE26 P0000 T01610106
93073KASE ASE20160701164013307/01/16 16:40:31  5-MIN KASE 012340Z 35009KT 10SM SCT034 BKN065 OVC110 16/11 A3027 7520 69 9400 350/09 RMK AO2 RAE26 P0000 T01610106
93073KASE ASE20160701164513307/01/16 16:45:31  5-MIN KASE 012345Z 35009KT 10SM FEW027 BKN060 OVC110 16/11 A3027 7520 72 9300 340/09 RMK AO2 RAE26 P0000 T01560106
93073KASE ASE20160701165017107/01/16 16:50:31  5-MIN KASE 012350Z 35010KT 10SM -RA FEW027 BKN040 OVC110 16/11 A3027 7520 72 9300 340/10 RMK AO2 RAE26B49 SLP143 P0000 60000 T01560106 10183 20156 58009
93073KASE ASE20160701165513007/01/16 16:55:31  5-MIN KASE 012355Z 35008KT 8SM -RA FEW023 BKN060 OVC075 15/11 A3027 7510 74 9300 340/08 RMK AO2 P0001 T01500106
93073KASE ASE20160701170013607/01/16 17:00:31  5-MIN KASE 020000Z 34005G16KT 5SM -RA FEW023 BKN060 OVC075 14/11 A3028 7510 80 9200 330/05G16 RMK AO2 P0001 T01440111
93073KASE ASE20160701170513007/01/16 17:05:31  5-MIN KASE 020005Z 34004KT 4SM -RA FEW020 BKN060 OVC070 14/11 A3028 7510 80 9200 330/04 RMK AO2 P0002 T01440111
93073KASE ASE20160701171013007/01/16 17:10:31  5-MIN KASE 020010Z 34004KT 4SM -RA FEW020 BKN042 OVC075 14/12 A3028 7510 83 9200 330/04 RMK AO2 P0004 T01440117
93073KASE ASE20160701171513007/01/16 17:15:31  5-MIN KASE 020015Z 36005KT 4SM -RA FEW020 BKN050 OVC070 14/11 A3028 7510 83 9100 350/05 RMK AO2 P0004 T01390111
93073KASE ASE20160701172013307/01/16 17:20:31  5-MIN KASE 020020Z 01004KT 4SM -RA BR FEW020 BKN050 OVC070 14/12 A3027 7510 86 9100 360/04 RMK AO2 P0005 T01390117
93073KASE ASE20160701172513307/01/16 17:25:31  5-MIN KASE 020025Z 36003KT 6SM -RA BR FEW020 BKN046 OVC065 14/12 A3028 7510 86 9100 350/03 RMK AO2 P0005 T01390117
93073KASE ASE20160701173013107/01/16 17:30:31  5-MIN KASE 020030Z 02004KT 10SM -RA FEW019 SCT044 OVC055 14/12 A3027 7510 86 9100 010/04 RMK AO2 P0005 T01390117
93073KASE ASE20160701173513107/01/16 17:35:31  5-MIN KASE 020035Z 01003KT 10SM -RA FEW019 BKN050 OVC065 14/12 A3027 7520 86 9100 360/03 RMK AO2 P0006 T01390117
93073KASE ASE20160701174013107/01/16 17:40:31  5-MIN KASE 020040Z 33003KT 10SM -RA FEW019 FEW047 OVC060 14/12 A3027 7510 86 9100 320/03 RMK AO2 P0006 T01390117
93073KASE ASE20160701174512407/01/16 17:45:31  5-MIN KASE 020045Z 00000KT 10SM -RA SCT050 OVC065 14/12 A3028 7510 86 9100 000/00 RMK AO2 P0006 T01390117
93073KASE ASE20160701175012407/01/16 17:50:31  5-MIN KASE 020050Z 00000KT 10SM -RA OVC060 14/12 A3027 7520 86 9100 000/00 RMK AO2 SLP145 P0006 T01390117
93073KASE ASE20160701175511707/01/16 17:55:31  5-MIN KASE 020055Z 00000KT 10SM -RA OVC060 14/12 A3027 7520 86 9100 000/00 RMK AO2 P0000 T01390117
93073KASE ASE20160701180011707/01/16 18:00:31  5-MIN KASE 020100Z 00000KT 10SM -RA OVC060 14/11 A3028 7510 83 9100 000/00 RMK AO2 P0000 T01390111
93073KASE ASE20160701180512407/01/16 18:05:31  5-MIN KASE 020105Z 00000KT 10SM -RA FEW022 OVC060 14/12 A3028 7510 83 9200 000/00 RMK AO2 P0000 T01440117
93073KASE ASE20160701181013107/01/16 18:10:31  5-MIN KASE 020110Z 00000KT 10SM -RA FEW022 BKN060 OVC090 14/11 A3027 7520 80 9200 000/00 RMK AO2 P0000 T01440111
93073KASE ASE20160701181513107/01/16 18:15:31  5-MIN KASE 020115Z 00000KT 10SM -RA FEW022 BKN065 OVC085 14/12 A3027 7520 83 9200 000/00 RMK AO2 P0000 T01440117
93073KASE ASE20160701182013107/01/16 18:20:31  5-MIN KASE 020120Z 00000KT 10SM -RA FEW022 BKN075 OVC090 14/11 A3027 7520 80 9200 000/00 RMK AO2 P0000 T01440111
93073KASE ASE20160701182513107/01/16 18:25:31  5-MIN KASE 020125Z 22003KT 10SM -RA FEW022 BKN070 OVC085 14/11 A3027 7520 80 9200 210/03 RMK AO2 P0000 T01440111
93073KASE ASE20160701183012407/01/16 18:30:31  5-MIN KASE 020130Z 00000KT 10SM -RA FEW022 OVC080 14/12 A3027 7520 83 9200 000/00 RMK AO2 P0000 T01440117
93073KASE ASE20160701183511707/01/16 18:35:31  5-MIN KASE 020135Z 19003KT 10SM -RA OVC080 14/12 A3027 7520 83 9200 180/03 RMK AO2 P0000 T01440117
93073KASE ASE20160701184011707/01/16 18:40:31  5-MIN KASE 020140Z 14003KT 10SM -RA OVC080 14/12 A3027 7520 83 9200 130/03 RMK AO2 P0000 T01440117
93073KASE ASE20160701184511707/01/16 18:45:31  5-MIN KASE 020145Z 13003KT 10SM -RA OVC075 14/12 A3027 7520 83 9200 120/03 RMK AO2 P0000 T01440117
93073KASE ASE20160701185012407/01/16 18:50:31  5-MIN KASE 020150Z 13003KT 10SM -RA OVC075 14/12 A3027 7520 86 9100 120/03 RMK AO2 SLP145 P0000 T01390117
93073KASE ASE20160701185511707/01/16 18:55:31  5-MIN KASE 020155Z 13004KT 10SM -RA OVC075 14/12 A3027 7520 86 9100 120/04 RMK AO2 P0000 T01390117
93073KASE ASE20160701190011707/01/16 19:00:31  5-MIN KASE 020200Z 13003KT 10SM -RA OVC075 14/12 A3027 7520 83 9200 120/03 RMK AO2 P0001 T01440117
93073KASE ASE20160701190511707/01/16 19:05:31  5-MIN KASE 020205Z 15003KT 10SM -RA OVC075 14/12 A3027 7520 86 9100 140/03 RMK AO2 P0001 T01390117
93073KASE ASE20160701191011707/01/16 19:10:31  5-MIN KASE 020210Z 15004KT 10SM -RA OVC075 14/12 A3028 7510 83 9200 140/04 RMK AO2 P0001 T01440117
93073KASE ASE20160701191511707/01/16 19:15:31  5-MIN KASE 020215Z 14003KT 10SM -RA OVC075 14/12 A3027 7520 83 9200 130/03 RMK AO2 P0001 T01440117
93073KASE ASE20160701192011707/01/16 19:20:31  5-MIN KASE 020220Z 15003KT 10SM -RA OVC075 14/12 A3027 7520 83 9200 140/03 RMK AO2 P0001 T01440117
93073KASE ASE20160701192511707/01/16 19:25:31  5-MIN KASE 020225Z 15004KT 10SM -RA OVC075 14/12 A3027 7520 86 9100 140/04 RMK AO2 P0001 T01390117
93073KASE ASE20160701193011707/01/16 19:30:31  5-MIN KASE 020230Z 15004KT 10SM -RA OVC075 14/12 A3027 7520 83 9200 140/04 RMK AO2 P0001 T01440117
93073KASE ASE20160701193511707/01/16 19:35:31  5-MIN KASE 020235Z 15004KT 10SM -RA OVC070 14/12 A3027 7520 86 9100 140/04 RMK AO2 P0001 T01390117
93073KASE ASE20160701194011907/01/16 19:40:31  5-MIN KASE 020240Z 16003KT 10SM OVC070 14/12 A3027 7520 86 9100 150/03 RMK AO2 RAE39 P0001 T01390117
93073KASE ASE20160701194512607/01/16 19:45:31  5-MIN KASE 020245Z 18004KT 10SM FEW044 OVC070 14/12 A3027 7510 86 9200 170/04 RMK AO2 RAE39 P0001 T01440122
93073KASE ASE20160701195014307/01/16 19:50:31  5-MIN KASE 020250Z 15004KT 10SM -RA FEW044 OVC070 14/12 A3027 7520 86 9100 150/04 RMK AO2 SLP146 P0001 60007 T01390117 56002
93073KASE ASE20160701195513107/01/16 19:55:31  5-MIN KASE 020255Z 18004KT 10SM -RA FEW044 BKN070 OVC100 14/12 A3027 7520 86 9100 180/04 RMK AO2 P0000 T01390117
93073KASE ASE20160701200013107/01/16 20:00:31  5-MIN KASE 020300Z 00000KT 10SM -RA FEW034 BKN070 OVC095 14/12 A3027 7520 86 9100 000/00 RMK AO2 P0000 T01390117
93073KASE ASE20160701200513107/01/16 20:05:31  5-MIN KASE 020305Z 00000KT 10SM -RA FEW039 BKN065 OVC100 13/12 A3028 7510 89 9100 000/00 RMK AO2 P0000 T01330117
93073KASE ASE20160701201013307/01/16 20:10:31  5-MIN KASE 020310Z 21003KT 10SM SCT035 BKN065 OVC100 13/12 A3028 7510 89 9100 210/03 RMK AO2 RAE07 P0000 T01330117
93073KASE ASE20160701201513107/01/16 20:15:31  5-MIN KASE 020315Z 00000KT 10SM -RA BKN036 BKN065 OVC100 13/12 A3027 7520 89 9100 000/00 RMK AO2 P0000 T01330117
93073KASE ASE20160701202013107/01/16 20:20:31  5-MIN KASE 020320Z 00000KT 10SM -RA SCT036 BKN070 OVC095 14/12 A3027 7520 86 9100 000/00 RMK AO2 P0000 T01390117
93073KASE ASE20160701202513107/01/16 20:25:31  5-MIN KASE 020325Z 21003KT 10SM -RA SCT036 BKN070 OVC090 13/12 A3028 7510 89 9100 200/03 RMK AO2 P0000 T01330117
93073KASE ASE20160701203013107/01/16 20:30:31  5-MIN KASE 020330Z 22003KT 10SM -RA SCT038 BKN070 OVC090 13/12 A3028 7510 89 9100 210/03 RMK AO2 P0000 T01330117
93073KASE ASE20160701203513107/01/16 20:35:31  5-MIN KASE 020335Z 21003KT 10SM -RA BKN038 BKN070 OVC095 13/12 A3028 7510 89 9100 200/03 RMK AO2 P0000 T01330117
93073KASE ASE20160701204013307/01/16 20:40:31  5-MIN KASE 020340Z 00000KT 10SM BKN038 BKN070 OVC095 13/12 A3028 7510 89 9100 000/00 RMK AO2 RAE38 P0000 T01330117
93073KASE ASE20160701204513307/01/16 20:45:31  5-MIN KASE 020345Z 22003KT 10SM SCT043 BKN070 OVC095 13/12 A3028 7510 89 9100 210/03 RMK AO2 RAE38 P0000 T01330117
93073KASE ASE20160701205013307/01/16 20:50:31  5-MIN KASE 020350Z 22003KT 10SM BKN041 OVC095 13/12 A3028 7510 89 9100 220/03 RMK AO2 RAE38 SLP145 P0000 T01330117
93073KASE ASE20160701205512107/01/16 20:55:31  5-MIN KASE 020355Z 00000KT 10SM BKN039 BKN046 OVC095 13/12 A3028 7510 89 9100 000/00 RMK AO2 T01330117
93073KASE ASE20160701210012107/01/16 21:00:31  5-MIN KASE 020400Z 19003KT 10SM BKN039 BKN046 OVC095 13/12 A3028 7510 89 9100 180/03 RMK AO2 T01330117
93073KASE ASE20160701210511407/01/16 21:05:31  5-MIN KASE 020405Z 20004KT 10SM BKN039 OVC046 13/12 A3028 7510 89 9100 190/04 RMK AO2 T01330117
93073KASE ASE20160701211010707/01/16 21:10:31  5-MIN KASE 020410Z 20005KT 10SM OVC039 13/11 A3028 7510 86 9100 190/05 RMK AO2 T01330111
93073KASE ASE20160701211510707/01/16 21:15:31  5-MIN KASE 020415Z 20004KT 10SM OVC039 13/12 A3028 7510 89 9100 190/04 RMK AO2 T01330117
93073KASE ASE20160701212010707/01/16 21:20:31  5-MIN KASE 020420Z 21005KT 10SM OVC039 13/11 A3029 7510 89 9000 210/05 RMK AO2 T01280111
93073KASE ASE20160701212511407/01/16 21:25:31  5-MIN KASE 020425Z 22005KT 10SM BKN041 OVC049 13/11 A3029 7500 89 9000 210/05 RMK AO2 T01280111
93073KASE ASE20160701213011407/01/16 21:30:31  5-MIN KASE 020430Z 20004KT 10SM BKN041 OVC049 13/11 A3028 7510 89 9000 200/04 RMK AO2 T01280111
93073KASE ASE20160701213511407/01/16 21:35:31  5-MIN KASE 020435Z 21004KT 10SM BKN043 OVC049 13/11 A3028 7510 89 9000 200/04 RMK AO2 T01280111
93073KASE ASE20160701214011407/01/16 21:40:31  5-MIN KASE 020440Z 20003KT 10SM BKN043 OVC050 13/11 A3028 7510 89 9000 190/03 RMK AO2 T01280111
93073KASE ASE20160701214510707/01/16 21:45:31  5-MIN KASE 020445Z 21004KT 10SM OVC043 13/11 A3028 7510 89 9000 200/04 RMK AO2 T01280111
93073KASE ASE20160701215011407/01/16 21:50:31  5-MIN KASE 020450Z 21004KT 10SM OVC046 13/11 A3028 7510 89 9000 200/04 RMK AO2 SLP148 T01280111
93073KASE ASE20160701215510707/01/16 21:55:31  5-MIN KASE 020455Z 22004KT 10SM OVC046 13/11 A3028 7510 89 9000 210/04 RMK AO2 T01280111
93073KASE ASE20160701220010707/01/16 22:00:31  5-MIN KASE 020500Z 22004KT 10SM OVC048 13/11 A3028 7510 89 9000 210/04 RMK AO2 T01280111
93073KASE ASE20160701220510707/01/16 22:05:31  5-MIN KASE 020505Z 23003KT 10SM OVC048 13/11 A3028 7510 89 9000 220/03 RMK AO2 T01280111
93073KASE ASE20160701221011407/01/16 22:10:31  5-MIN KASE 020510Z 00000KT 10SM BKN046 OVC055 13/11 A3027 7520 89 9000 000/00 RMK AO2 T01280111
93073KASE ASE20160701221511407/01/16 22:15:31  5-MIN KASE 020515Z 00000KT 10SM BKN046 OVC055 13/11 A3027 7520 89 9000 000/00 RMK AO2 T01280111
93073KASE ASE20160701222011407/01/16 22:20:31  5-MIN KASE 020520Z 21003KT 10SM SCT042 OVC055 13/11 A3027 7520 89 9000 210/03 RMK AO2 T01280111
93073KASE ASE20160701222511407/01/16 22:25:31  5-MIN KASE 020525Z 00000KT 10SM SCT042 OVC055 13/11 A3027 7520 89 9000 000/00 RMK AO2 T01280111
93073KASE ASE20160701223011407/01/16 22:30:31  5-MIN KASE 020530Z 00000KT 10SM BKN042 OVC055 13/11 A3027 7520 89 9000 000/00 RMK AO2 T01280111
93073KASE ASE20160701223511407/01/16 22:35:31  5-MIN KASE 020535Z 22003KT 10SM BKN041 OVC055 13/11 A3027 7520 89 9000 210/03 RMK AO2 T01280111
93073KASE ASE20160701224011407/01/16 22:40:31  5-MIN KASE 020540Z 21003KT 10SM BKN041 OVC055 13/11 A3027 7520 89 9000 200/03 RMK AO2 T01280111
93073KASE ASE20160701224511407/01/16 22:45:31  5-MIN KASE 020545Z 21003KT 10SM BKN043 OVC055 13/11 A3027 7520 89 9000 200/03 RMK AO2 T01280111
93073KASE ASE20160701225016107/01/16 22:50:31  5-MIN KASE 020550Z 23003KT 10SM -RA BKN043 OVC055 13/11 A3027 7520 89 9000 220/03 RMK AO2 RAB48 SLP142 P0000 60007 T01280111 10150 20128 53000
93073KASE ASE20160701225512407/01/16 22:55:31  5-MIN KASE 020555Z 00000KT 10SM -RA BKN043 OVC055 13/11 A3027 7520 89 9000 000/00 RMK AO2 P0000 T01280111
93073KASE ASE20160701230012407/01/16 23:00:31  5-MIN KASE 020600Z 00000KT 10SM -RA BKN045 OVC055 13/11 A3027 7520 86 9100 000/00 RMK AO2 P0001 T01330111
93073KASE ASE20160701230512407/01/16 23:05:31  5-MIN KASE 020605Z 00000KT 10SM -RA BKN045 OVC055 13/11 A3027 7520 89 9000 000/00 RMK AO2 P0001 T01280111
93073KASE ASE20160701231011707/01/16 23:10:31  5-MIN KASE 020610Z 00000KT 10SM -RA OVC045 13/11 A3027 7520 89 9000 000/00 RMK AO2 P0001 T01280111
93073KASE ASE20160701231512407/01/16 23:15:31  5-MIN KASE 020615Z 00000KT 10SM -RA BKN045 OVC055 13/11 A3027 7520 89 9000 000/00 RMK AO2 P0001 T01280111
93073KASE ASE20160701232012407/01/16 23:20:31  5-MIN KASE 020620Z 00000KT 10SM -RA BKN045 OVC060 13/12 A3026 7520 89 9100 000/00 RMK AO2 P0001 T01330117
93073KASE ASE20160701232512407/01/16 23:25:31  5-MIN KASE 020625Z 00000KT 10SM -RA SCT045 OVC060 13/12 A3026 7530 89 9100 000/00 RMK AO2 P0001 T01330117
93073KASE ASE20160701233012407/01/16 23:30:31  5-MIN KASE 020630Z 00000KT 10SM -RA SCT045 OVC060 13/11 A3026 7530 89 9000 000/00 RMK AO2 P0001 T01280111
93073KASE ASE20160701233512407/01/16 23:35:31  5-MIN KASE 020635Z 21003KT 10SM -RA FEW045 OVC060 13/11 A3026 7530 89 9000 200/03 RMK AO2 P0001 T01280111
93073KASE ASE20160701234012407/01/16 23:40:31  5-MIN KASE 020640Z 21003KT 10SM -RA FEW047 OVC060 13/11 A3026 7530 89 9000 210/03 RMK AO2 P0001 T01280111
93073KASE ASE20160701234511707/01/16 23:45:31  5-MIN KASE 020645Z 23003KT 10SM -RA OVC060 13/11 A3026 7530 89 9000 220/03 RMK AO2 P0001 T01280111
93073KASE ASE20160701235013407/01/16 23:50:31  5-MIN KASE 020650Z 22003KT 10SM -RA OVC060 12/11 A3025 7530 93 9000 210/03 RMK AO2 SLP136 P0001 T01220111 401830122
93073KASE ASE20160701235512607/01/16 23:55:31  5-MIN KASE 020655Z 23005KT 10SM BKN060 OVC080 13/11 A3026 7530 89 9000 220/05 RMK AO2 RAE54 P0000 T01280111
93073KASE ASE20160702000012807/02/16 00:00:31  5-MIN KASE 020700Z 22004KT 10SM BKN060 OVC080 12/11 A3025 7530 93 9000 210/04 RMK AO2 RAE0654 P0000 T01220111
93073KASE ASE20160702000512807/02/16 00:05:31  5-MIN KASE 020705Z 22004KT 10SM BKN065 OVC075 12/11 A3025 7540 93 9000 210/04 RMK AO2 RAE0654 P0000 T01220111
93073KASE ASE20160702001012807/02/16 00:10:31  5-MIN KASE 020710Z 20004KT 10SM BKN065 OVC075 12/11 A3025 7540 89 9000 190/04 RMK AO2 RAE0654 P0000 T01220106
93073KASE ASE20160702001513507/02/16 00:15:31  5-MIN KASE 020715Z 21003KT 10SM FEW003 SCT060 OVC075 13/11 A3025 7540 89 9000 200/03 RMK AO2 RAE0654 P0000 T01280111
93073KASE ASE20160702002013507/02/16 00:20:31  5-MIN KASE 020720Z 21003KT 10SM FEW003 BKN075 OVC090 13/11 A3025 7540 89 9000 210/03 RMK AO2 RAE0654 P0000 T01280111
93073KASE ASE20160702002513507/02/16 00:25:31  5-MIN KASE 020725Z 21004KT 10SM FEW003 SCT075 OVC095 12/11 A3024 7540 89 9000 200/04 RMK AO2 RAE0654 P0000 T01220106
93073KASE ASE20160702003013507/02/16 00:30:31  5-MIN KASE 020730Z 22004KT 10SM FEW003 SCT075 OVC090 12/11 A3024 7540 89 9000 210/04 RMK AO2 RAE0654 P0000 T01220106
93073KASE ASE20160702003513507/02/16 00:35:31  5-MIN KASE 020735Z 22003KT 10SM FEW003 BKN080 OVC100 13/11 A3024 7550 89 9000 210/03 RMK AO2 RAE0654 P0000 T01280111
93073KASE ASE20160702004012807/02/16 00:40:31  5-MIN KASE 020740Z 21003KT 10SM FEW003 OVC085 12/11 A3024 7550 89 9000 200/03 RMK AO2 RAE0654 P0000 T01220106
93073KASE ASE20160702004512107/02/16 00:45:31  5-MIN KASE 020745Z 20003KT 10SM OVC090 13/11 A3024 7550 89 9000 190/03 RMK AO2 RAE0654 P0000 T01280111
93073KASE ASE20160702005012807/02/16 00:50:31  5-MIN KASE 020750Z 21003KT 10SM OVC085 12/11 A3024 7550 93 9000 200/03 RMK AO2 RAE0654 SLP128 P0000 T01220111
93073KASE ASE20160702005510707/02/16 00:55:31  5-MIN KASE 020755Z 20003KT 10SM OVC085 12/11 A3024 7550 89 9000 200/03 RMK AO2 T01220106
93073KASE ASE20160702010010707/02/16 01:00:31  5-MIN KASE 020800Z 19004KT 10SM OVC085 12/11 A3023 7550 89 9000 180/04 RMK AO2 T01220106
93073KASE ASE20160702010510707/02/16 01:05:31  5-MIN KASE 020805Z 21004KT 10SM OVC085 12/11 A3023 7550 89 9000 200/04 RMK AO2 T01220106
93073KASE ASE20160702011010707/02/16 01:10:31  5-MIN KASE 020810Z 23003KT 10SM OVC085 12/11 A3023 7560 89 9000 220/03 RMK AO2 T01220106
93073KASE ASE20160702011510707/02/16 01:15:31  5-MIN KASE 020815Z 00000KT 10SM OVC085 12/11 A3023 7560 93 8900 000/00 RMK AO2 T01170106
93073KASE ASE20160702012010707/02/16 01:20:31  5-MIN KASE 020820Z 00000KT 10SM BKN085 12/11 A3023 7560 89 9000 000/00 RMK AO2 T01220106
93073KASE ASE20160702012510707/02/16 01:25:31  5-MIN KASE 020825Z 00000KT 10SM BKN085 12/11 A3023 7560 89 9000 000/00 RMK AO2 T01220106
93073KASE ASE20160702013010707/02/16 01:30:31  5-MIN KASE 020830Z 00000KT 10SM OVC090 12/11 A3023 7560 89 9000 000/00 RMK AO2 T01220106
93073KASE ASE20160702013510707/02/16 01:35:31  5-MIN KASE 020835Z 00000KT 10SM OVC090 12/11 A3023 7560 93 9000 000/00 RMK AO2 T01220111
93073KASE ASE20160702014010707/02/16 01:40:31  5-MIN KASE 020840Z 00000KT 10SM OVC090 12/11 A3023 7550 93 8900 000/00 RMK AO2 T01170106
93073KASE ASE20160702014510707/02/16 01:45:31  5-MIN KASE 020845Z 00000KT 10SM OVC090 12/11 A3023 7550 93 8900 000/00 RMK AO2 T01170106
93073KASE ASE20160702015012607/02/16 01:50:31  5-MIN KASE 020850Z 00000KT 10SM OVC090 12/11 A3023 7550 93 8900 000/00 RMK AO2 SLP126 60001 T01170106 58001
93073KASE ASE20160702015510707/02/16 01:55:31  5-MIN KASE 020855Z 00000KT 10SM OVC090 12/11 A3023 7550 93 8900 000/00 RMK AO2 T01170106
93073KASE ASE20160702020010707/02/16 02:00:31  5-MIN KASE 020900Z 00000KT 10SM OVC090 12/11 A3023 7550 93 8900 000/00 RMK AO2 T01170106
93073KASE ASE20160702020510707/02/16 02:05:31  5-MIN KASE 020905Z 00000KT 10SM OVC090 12/11 A3023 7550 93 8900 000/00 RMK AO2 T01170106
93073KASE ASE20160702021010707/02/16 02:10:31  5-MIN KASE 020910Z 00000KT 10SM OVC090 12/11 A3023 7550 93 8900 000/00 RMK AO2 T01170106
93073KASE ASE20160702021510707/02/16 02:15:31  5-MIN KASE 020915Z 00000KT 10SM OVC085 12/11 A3023 7560 93 8900 000/00 RMK AO2 T01170106
93073KASE ASE20160702022010707/02/16 02:20:31  5-MIN KASE 020920Z 00000KT 10SM OVC090 12/11 A3023 7560 93 8900 000/00 RMK AO2 T01170106
93073KASE ASE20160702022510707/02/16 02:25:31  5-MIN KASE 020925Z 00000KT 10SM OVC090 12/11 A3023 7560 93 8900 000/00 RMK AO2 T01170106
93073KASE ASE20160702023011407/02/16 02:30:31  5-MIN KASE 020930Z 21003KT 10SM FEW075 OVC090 12/11 A3023 7560 93 8900 200/03 RMK AO2 T01170106
93073KASE ASE20160702023511407/02/16 02:35:31  5-MIN KASE 020935Z 22003KT 10SM SCT075 OVC090 12/11 A3023 7560 93 8900 210/03 RMK AO2 T01170106
93073KASE ASE20160702024011407/02/16 02:40:31  5-MIN KASE 020940Z 00000KT 10SM BKN075 OVC090 12/11 A3023 7560 93 8900 000/00 RMK AO2 T01170106
93073KASE ASE20160702024511407/02/16 02:45:31  5-MIN KASE 020945Z 18003KT 10SM BKN075 OVC090 12/11 A3023 7560 93 8900 170/03 RMK AO2 T01170106
93073KASE ASE20160702025012107/02/16 02:50:31  5-MIN KASE 020950Z 19004KT 10SM BKN070 OVC090 12/11 A3023 7560 93 8900 180/04 RMK AO2 SLP125 T01170106
93073KASE ASE20160702025510707/02/16 02:55:31  5-MIN KASE 020955Z 21005KT 10SM OVC070 12/10 A3023 7550 89 8900 200/05 RMK AO2 T01170100
93073KASE ASE20160702030010707/02/16 03:00:31  5-MIN KASE 021000Z 20003KT 10SM OVC070 12/10 A3023 7550 89 8900 190/03 RMK AO2 T01170100
93073KASE ASE20160702030512307/02/16 03:05:31  5-MIN KASE 021005Z 22004KT 10SM -RA OVC070 12/10 A3023 7550 89 8900 220/04 RMK AO2 RAB03 P0000 T01170100
93073KASE ASE20160702031012307/02/16 03:10:31  5-MIN KASE 021010Z 21003KT 10SM -RA OVC070 12/10 A3023 7550 89 8900 200/03 RMK AO2 RAB03 P0000 T01170100
93073KASE ASE20160702031512207/02/16 03:15:31  5-MIN KASE 021015Z 22004KT 10SM OVC070 12/10 A3023 7550 89 8900 210/04 RMK AO2 RAB03E14 P0000 T01170100
93073KASE ASE20160702032012307/02/16 03:20:31  5-MIN KASE 021020Z 21003KT 10SM -RA OVC070 12/10 A3023 7550 89 8900 200/03 RMK AO2 RAB03 P0000 T01170100
93073KASE ASE20160702032512307/02/16 03:25:31  5-MIN KASE 021025Z 00000KT 10SM -RA OVC070 12/10 A3023 7550 89 8900 000/00 RMK AO2 RAB03 P0000 T01170100
93073KASE ASE20160702033012307/02/16 03:30:31  5-MIN KASE 021030Z 21004KT 10SM -RA OVC070 12/10 A3023 7560 89 8900 200/04 RMK AO2 RAB03 P0000 T01170100
93073KASE ASE20160702033512207/02/16 03:35:31  5-MIN KASE 021035Z 21004KT 10SM OVC070 12/10 A3023 7560 89 8900 210/04 RMK AO2 RAB03E34 P0000 T01170100
93073KASE ASE20160702034012207/02/16 03:40:31  5-MIN KASE 021040Z 21004KT 10SM OVC070 12/10 A3023 7550 89 8900 200/04 RMK AO2 RAB03E34 P0000 T01170100
93073KASE ASE20160702034512207/02/16 03:45:31  5-MIN KASE 021045Z 21004KT 10SM OVC070 12/10 A3023 7560 89 8900 200/04 RMK AO2 RAB03E34 P0000 T01170100
93073KASE ASE20160702035012907/02/16 03:50:31  5-MIN KASE 021050Z 21003KT 10SM OVC070 12/10 A3023 7560 89 8900 200/03 RMK AO2 RAB03E34 SLP127 P0000 T01170100
93073KASE ASE20160702035511407/02/16 03:55:31  5-MIN KASE 021055Z 21003KT 10SM FEW050 OVC070 12/10 A3023 7560 89 8900 200/03 RMK AO2 T01170100
93073KASE ASE20160702040011407/02/16 04:00:31  5-MIN KASE 021100Z 22003KT 10SM FEW055 OVC070 12/10 A3023 7560 89 8900 210/03 RMK AO2 T01170100
93073KASE ASE20160702040511407/02/16 04:05:31  5-MIN KASE 021105Z 00000KT 10SM SCT055 OVC070 12/10 A3023 7560 89 8900 000/00 RMK AO2 T01170100
93073KASE ASE20160702041011407/02/16 04:10:31  5-MIN KASE 021110Z 00000KT 10SM BKN055 OVC070 12/10 A3023 7550 89 8900 000/00 RMK AO2 T01170100
93073KASE ASE20160702041511407/02/16 04:15:31  5-MIN KASE 021115Z 00000KT 10SM BKN055 OVC070 12/10 A3023 7550 89 8900 000/00 RMK AO2 T01170100
93073KASE ASE20160702042010707/02/16 04:20:31  5-MIN KASE 021120Z 00000KT 10SM OVC055 12/10 A3023 7550 89 8900 000/00 RMK AO2 T01170100
93073KASE ASE20160702042510707/02/16 04:25:31  5-MIN KASE 021125Z 00000KT 10SM OVC055 12/10 A3024 7550 89 8900 000/00 RMK AO2 T01170100
93073KASE ASE20160702043010707/02/16 04:30:31  5-MIN KASE 021130Z 00000KT 10SM OVC055 12/10 A3024 7550 89 8900 000/00 RMK AO2 T01170100
93073KASE ASE20160702043510707/02/16 04:35:31  5-MIN KASE 021135Z 00000KT 10SM OVC055 12/10 A3024 7550 89 8900 000/00 RMK AO2 T01170100
93073KASE ASE20160702044010707/02/16 04:40:31  5-MIN KASE 021140Z 00000KT 10SM OVC055 12/10 A3024 7550 89 8900 000/00 RMK AO2 T01170100
93073KASE ASE20160702044510707/02/16 04:45:31  5-MIN KASE 021145Z 00000KT 10SM OVC055 12/10 A3024 7540 89 8900 000/00 RMK AO2 T01170100
93073KASE ASE20160702045014407/02/16 04:50:31  5-MIN KASE 021150Z 00000KT 10SM OVC055 12/10 A3024 7540 89 8900 000/00 RMK AO2 SLP136 60001 70009 T01170100 10133 20117 56010
93073KASE ASE20160702045510707/02/16 04:55:31  5-MIN KASE 021155Z 00000KT 10SM OVC055 12/11 A3024 7540 89 9000 000/00 RMK AO2 T01220106
93073KASE ASE20160702050010707/02/16 05:00:31  5-MIN KASE 021200Z 00000KT 10SM OVC055 12/11 A3025 7540 93 8900 000/00 RMK AO2 T01170106
93073KASE ASE20160702050510707/02/16 05:05:31  5-MIN KASE 021205Z 00000KT 10SM OVC055 12/10 A3025 7540 89 8900 000/00 RMK AO2 T01170100
93073KASE ASE20160702051010707/02/16 05:10:31  5-MIN KASE 021210Z 00000KT 10SM OVC055 12/11 A3025 7540 93 8900 000/00 RMK AO2 T01170106
93073KASE ASE20160702051510707/02/16 05:15:31  5-MIN KASE 021215Z 00000KT 10SM OVC055 12/10 A3025 7540 89 8900 000/00 RMK AO2 T01170100
93073KASE ASE20160702052010707/02/16 05:20:31  5-MIN KASE 021220Z 00000KT 10SM OVC055 12/11 A3025 7540 93 8900 000/00 RMK AO2 T01170106
93073KASE ASE20160702052510707/02/16 05:25:31  5-MIN KASE 021225Z 00000KT 10SM OVC055 12/11 A3025 7540 89 9000 000/00 RMK AO2 T01220106
93073KASE ASE20160702053010707/02/16 05:30:31  5-MIN KASE 021230Z 00000KT 10SM OVC055 12/11 A3025 7540 89 9000 000/00 RMK AO2 T01220106
93073KASE ASE20160702053511407/02/16 05:35:31  5-MIN KASE 021235Z 00000KT 10SM FEW028 OVC055 12/11 A3025 7540 89 9000 000/00 RMK AO2 T01220106
93073KASE ASE20160702054011407/02/16 05:40:31  5-MIN KASE 021240Z 00000KT 10SM FEW028 OVC055 12/11 A3025 7540 89 9000 000/00 RMK AO2 T01220106
93073KASE ASE20160702054512107/02/16 05:45:31  5-MIN KASE 021245Z 00000KT 10SM FEW028 BKN050 OVC060 12/11 A3025 7540 89 9000 000/00 RMK AO2 T01220106
93073KASE ASE20160702055012807/02/16 05:50:31  5-MIN KASE 021250Z 00000KT 10SM FEW028 BKN050 OVC060 12/11 A3025 7540 89 9000 000/00 RMK AO2 SLP141 T01220106
93073KASE ASE20160702055512107/02/16 05:55:31  5-MIN KASE 021255Z 00000KT 10SM FEW028 BKN050 OVC055 12/11 A3025 7540 93 8900 000/00 RMK AO2 T01170106
93073KASE ASE20160702060011407/02/16 06:00:31  5-MIN KASE 021300Z 00000KT 10SM FEW028 OVC050 12/11 A3025 7530 89 9000 000/00 RMK AO2 T01220106
93073KASE ASE20160702060511407/02/16 06:05:31  5-MIN KASE 021305Z 22003KT 10SM FEW034 OVC050 12/11 A3025 7530 89 9000 210/03 RMK AO2 T01220106
93073KASE ASE20160702061011407/02/16 06:10:31  5-MIN KASE 021310Z 00000KT 10SM SCT034 OVC050 12/11 A3025 7530 89 9000 000/00 RMK AO2 T01220106
93073KASE ASE20160702061512107/02/16 06:15:31  5-MIN KASE 021315Z 00000KT 10SM FEW029 BKN034 OVC055 12/11 A3025 7530 89 9000 000/00 RMK AO2 T01220106
93073KASE ASE20160702062012107/02/16 06:20:31  5-MIN KASE 021320Z 00000KT 10SM FEW029 BKN034 OVC055 12/11 A3025 7530 89 9000 000/00 RMK AO2 T01220106
93073KASE ASE20160702062511407/02/16 06:25:31  5-MIN KASE 021325Z 00000KT 10SM BKN032 OVC055 12/11 A3025 7530 89 9000 000/00 RMK AO2 T01220106
93073KASE ASE20160702063011407/02/16 06:30:31  5-MIN KASE 021330Z 00000KT 10SM BKN030 OVC035 13/11 A3025 7540 86 9000 000/00 RMK AO2 T01280106
93073KASE ASE20160702063513007/02/16 06:35:31  5-MIN KASE 021335Z 00000KT 10SM -RA BKN028 OVC035 13/11 A3025 7530 86 9000 000/00 RMK AO2 RAB34 P0000 T01280106
93073KASE ASE20160702064013007/02/16 06:40:31  5-MIN KASE 021340Z 00000KT 10SM -RA SCT028 BKN033 13/11 A3026 7530 86 9000 000/00 RMK AO2 RAB34 P0000 T01280106
93073KASE ASE20160702064513007/02/16 06:45:31  5-MIN KASE 021345Z 00000KT 10SM -RA SCT028 BKN033 13/11 A3026 7530 86 9000 000/00 RMK AO2 RAB34 P0000 T01280106
93073KASE ASE20160702065014407/02/16 06:50:31  5-MIN KASE 021350Z 00000KT 10SM -RA SCT028 BKN033 BKN060 13/11 A3026 7530 86 9000 000/00 RMK AO2 RAB34 SLP144 P0000 T01280106
93073KASE ASE20160702065513307/02/16 06:55:31  5-MIN KASE 021355Z 00000KT 6SM -RA BR FEW028 BKN055 OVC065 13/11 A3026 7530 86 9000 000/00 RMK AO2 P0001 T01280106
93073KASE ASE20160702070013307/02/16 07:00:31  5-MIN KASE 021400Z 00000KT 4SM -RA BR FEW028 BKN055 OVC070 13/11 A3026 7530 86 9000 000/00 RMK AO2 P0002 T01280106
93073KASE ASE20160702070513307/02/16 07:05:31  5-MIN KASE 021405Z 00000KT 5SM -RA BR FEW028 FEW050 OVC065 13/11 A3026 7530 86 9000 000/00 RMK AO2 P0002 T01280106
93073KASE ASE20160702071013107/02/16 07:10:31  5-MIN KASE 021410Z 00000KT 10SM -RA FEW028 BKN065 OVC075 13/11 A3026 7530 86 9000 000/00 RMK AO2 P0002 T01280106
93073KASE ASE20160702071511707/02/16 07:15:31  5-MIN KASE 021415Z 00000KT 10SM -RA OVC065 13/11 A3026 7530 86 9100 000/00 RMK AO2 P0002 T01330111
93073KASE ASE20160702072011707/02/16 07:20:31  5-MIN KASE 021420Z 00000KT 10SM -RA OVC065 13/11 A3026 7530 83 9100 000/00 RMK AO2 P0002 T01330106
93073KASE ASE20160702072511707/02/16 07:25:31  5-MIN KASE 021425Z 00000KT 10SM -RA OVC065 13/11 A3026 7530 86 9100 000/00 RMK AO2 P0003 T01330111
93073KASE ASE20160702073012407/02/16 07:30:31  5-MIN KASE 021430Z 00000KT 10SM -RA SCT042 OVC065 13/11 A3026 7520 86 9100 000/00 RMK AO2 P0003 T01330111
93073KASE ASE20160702073512407/02/16 07:35:31  5-MIN KASE 021435Z 00000KT 10SM -RA BKN042 OVC065 13/11 A3027 7520 86 9100 000/00 RMK AO2 P0003 T01330111
93073KASE ASE20160702074012607/02/16 07:40:31  5-MIN KASE 021440Z 00000KT 10SM SCT043 OVC060 13/11 A3027 7520 86 9100 000/00 RMK AO2 RAE38 P0003 T01330111
93073KASE ASE20160702074512607/02/16 07:45:31  5-MIN KASE 021445Z 36003KT 10SM SCT043 OVC060 13/11 A3027 7520 86 9100 350/03 RMK AO2 RAE38 P0003 T01330111
93073KASE ASE20160702075015207/02/16 07:50:31  5-MIN KASE 021450Z VRB03KT 10SM FEW041 SCT048 OVC060 13/11 A3027 7520 86 9100 VRB/03 RMK AO2 RAE38 SLP145 P0003 60003 T01330111 53003
93073KASE ASE20160702075512107/02/16 07:55:31  5-MIN KASE 021455Z 01004KT 10SM FEW041 SCT048 OVC060 14/12 A3027 7520 86 9100 360/04 RMK AO2 T01390117
93073KASE ASE20160702080011407/02/16 08:00:31  5-MIN KASE 021500Z 35004KT 10SM FEW043 OVC055 14/11 A3027 7520 83 9100 340/04 RMK AO2 T01390111
93073KASE ASE20160702080511407/02/16 08:05:31  5-MIN KASE 021505Z 35004KT 10SM BKN050 OVC060 14/11 A3027 7510 83 9100 340/04 RMK AO2 T01390111
93073KASE ASE20160702081011407/02/16 08:10:31  5-MIN KASE 021510Z 34005KT 10SM BKN050 OVC060 14/12 A3028 7510 83 9200 330/05 RMK AO2 T01440117
93073KASE ASE20160702081513007/02/16 08:15:31  5-MIN KASE 021515Z 35006KT 10SM -RA BKN048 OVC060 14/12 A3028 7510 86 9100 340/06 RMK AO2 RAB13 P0000 T01390117
93073KASE ASE20160702082012907/02/16 08:20:31  5-MIN KASE 021520Z 35006KT 8SM -RA BKN048 OVC060 13/12 A3028 7510 89 9100 340/06 RMK AO2 RAB13 P0000 T01330117
93073KASE ASE20160702082512507/02/16 08:25:31  5-MIN KASE 021525Z 35005KT 6SM -RA BR OVC047 13/11 A3028 7510 86 9100 340/05 RMK AO2 RAB13 P0000 T01330111
93073KASE ASE20160702083013207/02/16 08:30:31  5-MIN KASE 021530Z 35005KT 4SM -RA BR SCT007 BKN047 13/12 A3028 7510 89 9100 340/05 RMK AO2 RAB13 P0001 T01330117
93073KASE ASE20160702083513207/02/16 08:35:31  5-MIN KASE 021535Z 35004KT 6SM -RA BR SCT007 BKN047 13/12 A3028 7510 89 9100 340/04 RMK AO2 RAB13 P0001 T01330117
93073KASE ASE20160702084013207/02/16 08:40:31  5-MIN KASE 021540Z 35004KT 6SM -RA BR SCT007 BKN047 13/12 A3028 7510 89 9100 340/04 RMK AO2 RAB13 P0001 T01330117
93073KASE ASE20160702084513207/02/16 08:45:31  5-MIN KASE 021545Z 36004KT 6SM -RA BR SCT007 BKN047 13/12 A3028 7510 89 9100 350/04 RMK AO2 RAB13 P0002 T01330117
93073KASE ASE20160702085013907/02/16 08:50:31  5-MIN KASE 021550Z 35004KT 6SM -RA BR SCT007 BKN047 13/12 A3029 7500 89 9100 340/04 RMK AO2 RAB13 SLP153 P0002 T01330117
93073KASE ASE20160702085512607/02/16 08:55:31  5-MIN KASE 021555Z 34004KT 6SM -RA BR FEW049 OVC060 13/12 A3028 7510 89 9100 330/04 RMK AO2 P0000 T01330117
93073KASE ASE20160702090012307/02/16 09:00:31  5-MIN KASE 021600Z 33004KT 9SM -RA FEW050 OVC060 13/12 A3028 7510 89 9100 320/04 RMK AO2 P0000 T01330117
93073KASE ASE20160702090512407/02/16 09:05:31  5-MIN KASE 021605Z 34004KT 10SM -RA FEW022 OVC060 13/11 A3028 7510 86 9100 330/04 RMK AO2 P0000 T01330111
93073KASE ASE20160702091012607/02/16 09:10:31  5-MIN KASE 021610Z 34003KT 10SM SCT020 OVC060 14/12 A3028 7510 86 9100 330/03 RMK AO2 RAE06 P0000 T01390117
93073KASE ASE20160702091512607/02/16 09:15:31  5-MIN KASE 021615Z 35004KT 10SM BKN020 OVC060 14/12 A3028 7510 86 9100 340/04 RMK AO2 RAE06 P0000 T01390117
93073KASE ASE20160702092013207/02/16 09:20:31  5-MIN KASE 021620Z 02006KT 8SM FEW003 BKN020 OVC060 14/12 A3028 7510 83 9200 010/06 RMK AO2 RAE06 P0000 T01440117
93073KASE ASE20160702092513207/02/16 09:25:31  5-MIN KASE 021625Z 00000KT 8SM FEW003 BKN020 OVC060 14/11 A3028 7510 80 9200 000/00 RMK AO2 RAE06 P0000 T01440111
93073KASE ASE20160702093013207/02/16 09:30:31  5-MIN KASE 021630Z VRB03KT 8SM FEW003 BKN020 OVC060 15/11 A3028 7510 77 9200 VRB/03 RMK AO2 RAE06 P0000 T01500111
93073KASE ASE20160702093513207/02/16 09:35:31  5-MIN KASE 021635Z 00000KT 8SM FEW003 BKN020 OVC060 16/11 A3028 7510 74 9300 000/00 RMK AO2 RAE06 P0000 T01560111
93073KASE ASE20160702094013207/02/16 09:40:31  5-MIN KASE 021640Z 00000KT 8SM FEW003 BKN020 OVC060 16/11 A3028 7510 74 9300 000/00 RMK AO2 RAE06 P0000 T01560111
93073KASE ASE20160702094513207/02/16 09:45:31  5-MIN KASE 021645Z 00000KT 8SM FEW003 BKN020 OVC060 16/11 A3028 7510 74 9300 000/00 RMK AO2 RAE06 P0000 T01560111
93073KASE ASE20160702095011507/02/16 09:50:31  5-MIN KASE 021650Z 00000KT 8SM FEW003 BKN050 16/12 A3028 7510 75 9400 000/00 RMK AO2 RAE06 P0000
93073KASE ASE20160702095511407/02/16 09:55:31  5-MIN KASE 021655Z 00000KT 10SM BKN014 OVC060 16/12 A3028 7510 75 9400 000/00 RMK AO2 T01610117
93073KASE ASE20160702100011407/02/16 10:00:31  5-MIN KASE 021700Z VRB03KT 10SM FEW007 BKN050 17/11 A3028 7510 69 9400 VRB/03 RMK AO2 T01670111
93073KASE ASE20160702100511407/02/16 10:05:31  5-MIN KASE 021705Z 36005KT 10SM FEW007 BKN050 17/11 A3028 7510 69 9400 350/05 RMK AO2 T01670111
93073KASE ASE20160702101011407/02/16 10:10:31  5-MIN KASE 021710Z VRB03KT 10SM FEW007 BKN050 17/11 A3027 7510 67 9400 VRB/03 RMK AO2 T01670106
93073KASE ASE20160702101511407/02/16 10:15:31  5-MIN KASE 021715Z 36005KT 10SM FEW007 BKN050 17/11 A3027 7520 67 9400 350/05 RMK AO2 T01670106
93073KASE ASE20160702102011407/02/16 10:20:31  5-MIN KASE 021720Z 34003KT 10SM FEW007 BKN050 17/11 A3027 7520 67 9400 330/03 RMK AO2 T01670106
93073KASE ASE20160702102511407/02/16 10:25:31  5-MIN KASE 021725Z 35006KT 10SM FEW007 BKN050 17/11 A3027 7520 64 9500 340/06 RMK AO2 T01720106
93073KASE ASE20160702103011407/02/16 10:30:31  5-MIN KASE 021730Z 00000KT 10SM FEW007 BKN050 17/11 A3027 7520 64 9500 000/00 RMK AO2 T01720106
93073KASE ASE20160702103511407/02/16 10:35:31  5-MIN KASE 021735Z 02005KT 10SM FEW007 BKN050 18/11 A3027 7520 64 9600 010/05 RMK AO2 T01780111
93073KASE ASE20160702104011407/02/16 10:40:31  5-MIN KASE 021740Z 35005KT 10SM FEW007 BKN050 18/11 A3027 7520 62 9600 340/05 RMK AO2 T01780106
93073KASE ASE20160702104513007/02/16 10:45:31  5-MIN KASE 021745Z 02007KT 350V060 10SM FEW007 BKN050 18/12 A3027 7520 65 9600 010/07 340V050 RMK AO2 T01830117
93073KASE ASE20160702105014507/02/16 10:50:31  5-MIN KASE 021750Z 35006KT 10SM SCT025 BKN120 18/11 A3027 7520 62 9600 340/06 RMK AO2 SLP135 60005 T01830111 10183 20117 53008
93073KASE ASE20160702105512507/02/16 10:55:31  5-MIN KASE 021755Z VRB06KT 10SM BKN055 BKN120 18/11 A3027 7520 62 9600 VRB/06 RMK AO2 LTG DSNT N T01780106
93073KASE ASE20160702110011807/02/16 11:00:31  5-MIN KASE 021800Z 36006KT 10SM BKN055 17/11 A3027 7520 64 9500 350/06 RMK AO2 LTG DSNT N T01720106
93073KASE ASE20160702110512507/02/16 11:05:31  5-MIN KASE 021805Z VRB05KT 10SM BKN055 BKN075 18/11 A3027 7520 64 9600 VRB/05 RMK AO2 LTG DSNT N T01780111
93073KASE ASE20160702111012107/02/16 11:10:31  5-MIN KASE 021810Z VRB06KT 10SM FEW050 SCT060 BKN075 18/11 A3027 7520 60 9600 VRB/06 RMK AO2 T01830106
93073KASE ASE20160702111511407/02/16 11:15:31  5-MIN KASE 021815Z 36006KT 10SM SCT060 BKN075 19/11 A3026 7530 58 9700 350/06 RMK AO2 T01890106
93073KASE ASE20160702112012107/02/16 11:20:31  5-MIN KASE 021820Z VRB04KT 10SM FEW026 SCT060 BKN075 19/10 A3026 7530 56 9700 VRB/04 RMK AO2 T01890100
93073KASE ASE20160702112512107/02/16 11:25:31  5-MIN KASE 021825Z 35006KT 10SM FEW026 SCT048 BKN060 18/11 A3026 7530 62 9600 340/06 RMK AO2 T01830111
93073KASE ASE20160702113012107/02/16 11:30:31  5-MIN KASE 021830Z 04006KT 10SM SCT028 SCT048 BKN060 18/11 A3026 7530 60 9600 030/06 RMK AO2 T01830106
93073KASE ASE20160702113512107/02/16 11:35:31  5-MIN KASE 021835Z 33005KT 10SM BKN030 BKN060 BKN080 19/11 A3026 7530 58 9700 320/05 RMK AO2 T01890106
93073KASE ASE20160702114012107/02/16 11:40:31  5-MIN KASE 021840Z 02006KT 10SM FEW028 BKN045 OVC090 18/09 A3026 7530 56 9600 010/06 RMK AO2 T01830094
93073KASE ASE20160702114512107/02/16 11:45:31  5-MIN KASE 021845Z 36006KT 10SM SCT031 BKN041 OVC090 18/09 A3026 7530 54 9600 360/06 RMK AO2 T01830089
93073KASE ASE20160702115012807/02/16 11:50:31  5-MIN KASE 021850Z 34006KT 10SM SCT031 BKN046 OVC090 18/09 A3026 7530 56 9600 330/06 RMK AO2 SLP132 T01830094
93073KASE ASE20160702115512107/02/16 11:55:31  5-MIN KASE 021855Z 35005KT 10SM FEW028 BKN037 OVC090 19/09 A3026 7530 54 9700 340/05 RMK AO2 T01890094
93073KASE ASE20160702120012107/02/16 12:00:31  5-MIN KASE 021900Z 33007KT 10SM SCT035 BKN045 OVC090 19/09 A3026 7530 54 9700 320/07 RMK AO2 T01890094
93073KASE ASE20160702120513707/02/16 12:05:31  5-MIN KASE 021905Z 33008KT 300V010 10SM FEW035 SCT045 OVC090 20/09 A3026 7530 50 9800 330/08 290V360 RMK AO2 T02000094
93073KASE ASE20160702121014307/02/16 12:10:31  5-MIN KASE 021910Z 36008G15KT 290V010 10SM FEW035 FEW046 BKN090 20/09 A3026 7530 48 9800 350/08G15 280V360 RMK AO2 T02000089
93073KASE ASE20160702121511407/02/16 12:15:31  5-MIN KASE 021915Z 34010KT 10SM FEW035 BKN090 20/09 A3026 7530 50 9800 330/10 RMK AO2 T02000094
93073KASE ASE20160702122011407/02/16 12:20:31  5-MIN KASE 021920Z 34007KT 10SM FEW035 BKN090 19/09 A3025 7530 50 9800 330/07 RMK AO2 T01940089
93073KASE ASE20160702122512007/02/16 12:25:31  5-MIN KASE 021925Z 34009G14KT 10SM FEW035 SCT090 20/09 A3025 7540 50 9800 330/09G14 RMK AO2 T02000094
93073KASE ASE20160702123011307/02/16 12:30:31  5-MIN KASE 021930Z 35008G17KT 10SM SCT090 21/10 A3025 7530 50 9900 340/08G17 RMK AO2 T02060100
93073KASE ASE20160702123512007/02/16 12:35:31  5-MIN KASE 021935Z 33011G17KT 10SM FEW038 FEW090 20/09 A3025 7530 50 9800 320/11G17 RMK AO2 T02000094
93073KASE ASE20160702124012007/02/16 12:40:31  5-MIN KASE 021940Z 31011G16KT 10SM FEW038 FEW090 19/09 A3026 7530 52 9700 300/11G16 RMK AO2 T01890089
93073KASE ASE20160702124511407/02/16 12:45:31  5-MIN KASE 021945Z 32007KT 10SM FEW046 FEW060 18/08 A3026 7530 52 9600 310/07 RMK AO2 T01830083
93073KASE ASE20160702125012107/02/16 12:50:31  5-MIN KASE 021950Z 33005KT 10SM FEW046 SCT060 18/09 A3025 7530 54 9600 320/05 RMK AO2 SLP130 T01830089
93073KASE ASE20160702125513007/02/16 12:55:31  5-MIN KASE 021955Z 36006KT 10SM -RA FEW045 BKN060 19/09 A3026 7530 54 9700 350/06 RMK AO2 RAB55 P0000 T01890094
93073KASE ASE20160702130013207/02/16 13:00:31  5-MIN KASE 022000Z 36006KT 10SM -RA FEW042 BKN060 19/09 A3026 7530 54 9700 350/06 RMK AO2 RAB1955 P0000 T01890094
93073KASE ASE20160702130513807/02/16 13:05:31  5-MIN KASE 022005Z 03008KT 10SM SCT034 SCT047 BKN060 18/09 A3026 7530 56 9600 020/08 RMK AO2 RAB1955E04 P0000 T01830094
93073KASE ASE20160702131013907/02/16 13:10:31  5-MIN KASE 022010Z 36011KT 10SM -RA FEW026 BKN035 OVC070 17/10 A3027 7520 62 9500 350/11 RMK AO2 RAB1955 P0001 T01720100
93073KASE ASE20160702131513807/02/16 13:15:31  5-MIN KASE 022015Z 34011KT 3SM +RA SCT026 BKN035 OVC060 15/11 A3027 7510 77 9300 330/11 RMK AO2 RAB1955 P0011 T01500111
93073KASE ASE20160702132013907/02/16 13:20:31  5-MIN KASE 022020Z 35005KT 10SM +RA FEW024 BKN037 OVC055 14/12 A3027 7520 83 9200 340/05 RMK AO2 RAB1955 P0015 T01440117
93073KASE ASE20160702132513907/02/16 13:25:31  5-MIN KASE 022025Z 00000KT 10SM -RA FEW024 BKN043 OVC060 15/12 A3028 7510 80 9300 000/00 RMK AO2 RAB1955 P0017 T01500117
93073KASE ASE20160702133013907/02/16 13:30:31  5-MIN KASE 022030Z VRB03KT 10SM -RA FEW025 BKN047 OVC060 15/12 A3028 7510 83 9300 VRB/03 RMK AO2 RAB1955 P0018 T01500122
93073KASE ASE20160702133513907/02/16 13:35:31  5-MIN KASE 022035Z 08004KT 10SM -RA FEW025 BKN045 OVC060 15/12 A3028 7510 83 9300 070/04 RMK AO2 RAB1955 P0019 T01500122
93073KASE ASE20160702134013907/02/16 13:40:31  5-MIN KASE 022040Z 08003KT 10SM -RA FEW043 BKN050 OVC060 15/12 A3028 7510 83 9300 070/03 RMK AO2 RAB1955 P0020 T01500122
93073KASE ASE20160702134513207/02/16 13:45:31  5-MIN KASE 022045Z 00000KT 10SM -RA BKN049 OVC065 16/12 A3028 7510 80 9300 000/00 RMK AO2 RAB1955 P0020 T01560122
93073KASE ASE20160702135015807/02/16 13:50:31  5-MIN KASE 022050Z 00000KT 10SM -RA FEW045 BKN055 OVC075 16/12 A3028 7510 77 9300 000/00 RMK AO2 RAB1955 SLP146 P0020 60020 T01560117 58002
93073KASE ASE20160702135513107/02/16 13:55:31  5-MIN KASE 022055Z 12003KT 10SM -RA FEW045 SCT060 OVC075 16/12 A3028 7510 77 9300 110/03 RMK AO2 P0000 T01560117
93073KASE ASE20160702140012407/02/16 14:00:31  5-MIN KASE 022100Z 00000KT 10SM -RA FEW047 OVC075 16/12 A3028 7510 75 9400 000/00 RMK AO2 P0000 T01610117
93073KASE ASE20160702140512407/02/16 14:05:31  5-MIN KASE 022105Z 00000KT 10SM -RA FEW035 OVC075 16/12 A3027 7520 77 9400 000/00 RMK AO2 P0000 T01610122
93073KASE ASE20160702141013307/02/16 14:10:31  5-MIN KASE 022110Z 23003KT 10SM FEW027 BKN075 OVC110 16/12 A3028 7510 77 9400 220/03 RMK AO2 RAE10 P0000 T01610122
93073KASE ASE20160702141513307/02/16 14:15:31  5-MIN KASE 022115Z VRB03KT 10SM FEW014 BKN075 OVC120 16/13 A3028 7510 80 9400 VRB/03 RMK AO2 RAE10 P0000 T01610128
93073KASE ASE20160702142013307/02/16 14:20:31  5-MIN KASE 022120Z 10004KT 10SM SCT014 BKN075 OVC120 17/12 A3028 7510 75 9400 100/04 RMK AO2 RAE10 P0000 T01670122
93073KASE ASE20160702142513307/02/16 14:25:31  5-MIN KASE 022125Z 18003KT 10SM BKN019 BKN065 OVC110 17/12 A3028 7510 75 9400 170/03 RMK AO2 RAE10 P0000 T01670122
93073KASE ASE20160702143012607/02/16 14:30:31  5-MIN KASE 022130Z VRB03KT 10SM BKN065 OVC110 16/12 A3028 7510 75 9400 VRB/03 RMK AO2 RAE10 P0000 T01610117
93073KASE ASE20160702143512607/02/16 14:35:31  5-MIN KASE 022135Z 12004KT 10SM BKN065 OVC110 16/12 A3028 7510 75 9400 110/04 RMK AO2 RAE10 P0000 T01610117
93073KASE ASE20160702144013307/02/16 14:40:31  5-MIN KASE 022140Z 12004KT 10SM -RA BKN065 OVC110 16/12 A3028 7510 75 9400 110/04 RMK AO2 RAE10B38 P0000 T01610117
93073KASE ASE20160702144513307/02/16 14:45:31  5-MIN KASE 022145Z 00000KT 10SM -RA BKN065 OVC110 16/12 A3028 7510 75 9400 000/00 RMK AO2 RAE10B38 P0000 T01610117
93073KASE ASE20160702145014707/02/16 14:50:31  5-MIN KASE 022150Z 00000KT 10SM -RA FEW025 SCT045 OVC080 16/12 A3028 7510 75 9400 000/00 RMK AO2 RAE10B38 SLP149 P0000 T01610117
93073KASE ASE20160702145513107/02/16 14:55:31  5-MIN KASE 022155Z 00000KT 10SM -RA FEW027 SCT060 OVC080 17/12 A3028 7510 72 9400 000/00 RMK AO2 P0000 T01670117
93073KASE ASE20160702150013107/02/16 15:00:31  5-MIN KASE 022200Z 00000KT 10SM -RA FEW027 SCT060 OVC080 17/12 A3028 7510 72 9400 000/00 RMK AO2 P0000 T01670117
93073KASE ASE20160702150513507/02/16 15:05:31  5-MIN KASE 022205Z VRB03KT 10SM -RA SCT023 OVC075 17/11 A3028 7510 69 9400 VRB/03 RMK AO2 LTG DSNT N P0000 T01670111
93073KASE ASE20160702151013207/02/16 15:10:31  5-MIN KASE 022210Z 10SM -RA FEW025 SCT045 OVC080 16/11 A3028 7510 72 9400 M /M RMK AO2 LTG DSNT N P0000 T01610111
93073KASE ASE20160702151514207/02/16 15:15:31  5-MIN KASE 022215Z 29004KT 10SM -RA FEW025 SCT045 OVC080 16/11 A3028 7510 69 9400 280/04 RMK AO2 LTG DSNT N P0000 T01610106
93073KASE ASE20160702152014207/02/16 15:20:31  5-MIN KASE 022220Z 26006KT 10SM -RA FEW025 SCT045 OVC080 16/11 A3028 7510 69 9400 250/06 RMK AO2 LTG DSNT N P0001 T01610106
93073KASE ASE20160702152513107/02/16 15:25:31  5-MIN KASE 022225Z VRB04KT 10SM -RA FEW025 SCT045 OVC080 16/11 A3028 7510 72 9400 VRB/04 RMK AO2 P0001 T01610111
93073KASE ASE20160702153013107/02/16 15:30:31  5-MIN KASE 022230Z VRB03KT 10SM -RA FEW025 SCT045 OVC080 16/11 A3028 7510 72 9300 VRB/03 RMK AO2 P0001 T01560106
93073KASE ASE20160702153513107/02/16 15:35:31  5-MIN KASE 022235Z 01003KT 10SM -RA FEW025 SCT045 OVC080 16/11 A3028 7510 69 9400 360/03 RMK AO2 P0001 T01610106
93073KASE ASE20160702154013107/02/16 15:40:31  5-MIN KASE 022240Z VRB05KT 10SM -RA FEW025 SCT045 OVC080 16/12 A3029 7500 77 9400 VRB/05 RMK AO2 P0001 T01610122
93073KASE ASE20160702154513107/02/16 15:45:31  5-MIN KASE 022245Z 03005KT 10SM -RA FEW025 SCT045 OVC080 16/12 A3029 7500 80 9300 020/05 RMK AO2 P0001 T01560122
93073KASE ASE20160702155013807/02/16 15:50:31  5-MIN KASE 022250Z 05004KT 10SM -RA FEW025 SCT045 OVC080 16/12 A3029 7510 80 9300 040/04 RMK AO2 SLP150 P0001 T01560122
93073KASE ASE20160702155511907/02/16 15:55:31  5-MIN KASE 022255Z 02004KT 10SM OVC080 16/12 A3029 7500 77 9300 010/04 RMK AO2 RAE55 P0000 T01560117
93073KASE ASE20160702160012107/02/16 16:00:31  5-MIN KASE 022300Z 01005KT 10SM OVC080 16/12 A3029 7500 77 9300 360/05 RMK AO2 RAE2255 P0000 T01560117
93073KASE ASE20160702160512807/02/16 16:05:31  5-MIN KASE 022305Z 36005KT 10SM SCT080 OVC095 16/12 A3029 7500 75 9400 360/05 RMK AO2 RAE2255 P0000 T01610117
93073KASE ASE20160702161012807/02/16 16:10:31  5-MIN KASE 022310Z 01004KT 10SM FEW044 OVC085 16/12 A3029 7500 75 9400 360/04 RMK AO2 RAE2255 P0000 T01610117
93073KASE ASE20160702161513507/02/16 16:15:31  5-MIN KASE 022315Z 00000KT 10SM FEW034 SCT080 OVC100 16/12 A3029 7500 75 9400 000/00 RMK AO2 RAE2255 P0000 T01610117
93073KASE ASE20160702162013507/02/16 16:20:31  5-MIN KASE 022320Z 00000KT 10SM FEW035 FEW080 BKN100 16/12 A3029 7500 75 9400 000/00 RMK AO2 RAE2255 P0000 T01610117
93073KASE ASE20160702162512807/02/16 16:25:31  5-MIN KASE 022325Z 00000KT 10SM SCT095 BKN120 16/12 A3029 7500 75 9400 000/00 RMK AO2 RAE2255 P0000 T01610117
93073KASE ASE20160702163012107/02/16 16:30:31  5-MIN KASE 022330Z 00000KT 10SM BKN110 16/12 A3029 7500 75 9400 000/00 RMK AO2 RAE2255 P0000 T01610117
93073KASE ASE20160702163512807/02/16 16:35:31  5-MIN KASE 022335Z 00000KT 10SM FEW090 BKN110 16/12 A3029 7500 75 9400 000/00 RMK AO2 RAE2255 P0000 T01610117
93073KASE ASE20160702164012107/02/16 16:40:31  5-MIN KASE 022340Z 00000KT 10SM BKN110 16/11 A3029 7510 72 9400 000/00 RMK AO2 RAE2255 P0000 T01610111
93073KASE ASE20160702164512107/02/16 16:45:31  5-MIN KASE 022345Z 00000KT 10SM BKN110 16/11 A3028 7510 72 9400 000/00 RMK AO2 RAE2255 P0000 T01610111
93073KASE ASE20160702165015207/02/16 16:50:31  5-MIN KASE 022350Z 00000KT 10SM OVC110 16/11 A3028 7510 72 9400 000/00 RMK AO2 RAE2255 SLP149 P0000 60021 T01610111 10206 20144 53002
93073KASE ASE20160702165511407/02/16 16:55:31  5-MIN KASE 022355Z 00000KT 10SM FEW090 OVC110 16/11 A3028 7510 72 9400 000/00 RMK AO2 T01610111
93073KASE ASE20160702170011407/02/16 17:00:31  5-MIN KASE 030000Z 00000KT 10SM SCT085 OVC110 16/11 A3028 7510 72 9400 000/00 RMK AO2 T01610111
93073KASE ASE20160702170511407/02/16 17:05:31  5-MIN KASE 030005Z 13005KT 10SM BKN080 OVC110 16/12 A3028 7510 77 9300 120/05 RMK AO2 T01560117
93073KASE ASE20160702171011407/02/16 17:10:31  5-MIN KASE 030010Z 14005KT 10SM BKN080 OVC110 16/12 A3027 7520 77 9300 130/05 RMK AO2 T01560117
93073KASE ASE20160702171512107/02/16 17:15:31  5-MIN KASE 030015Z 13004KT 10SM FEW043 BKN080 OVC095 16/12 A3028 7510 77 9300 120/04 RMK AO2 T01560117
93073KASE ASE20160702172012107/02/16 17:20:31  5-MIN KASE 030020Z 14004KT 10SM FEW043 BKN080 OVC110 16/12 A3027 7520 77 9300 130/04 RMK AO2 T01560117
93073KASE ASE20160702172511407/02/16 17:25:31  5-MIN KASE 030025Z 16004KT 10SM SCT080 OVC110 16/12 A3027 7520 77 9300 160/04 RMK AO2 T01560117
93073KASE ASE20160702173011407/02/16 17:30:31  5-MIN KASE 030030Z 16005KT 10SM SCT080 BKN110 16/11 A3027 7520 72 9400 150/05 RMK AO2 T01610111
93073KASE ASE20160702173511407/02/16 17:35:31  5-MIN KASE 030035Z 16006KT 10SM FEW080 BKN110 16/11 A3027 7520 69 9400 150/06 RMK AO2 T01610106
93073KASE ASE20160702174011407/02/16 17:40:31  5-MIN KASE 030040Z 14003KT 10SM FEW090 SCT110 16/11 A3027 7520 72 9400 130/03 RMK AO2 T01610111
93073KASE ASE20160702174510707/02/16 17:45:31  5-MIN KASE 030045Z 11003KT 10SM BKN110 16/12 A3027 7520 77 9300 100/03 RMK AO2 T01560117
93073KASE ASE20160702175011407/02/16 17:50:31  5-MIN KASE 030050Z 12005KT 10SM SCT110 16/12 A3027 7520 77 9300 120/05 RMK AO2 SLP145 T01560117
93073KASE ASE20160702175510707/02/16 17:55:31  5-MIN KASE 030055Z 14004KT 10SM FEW110 16/12 A3027 7520 77 9300 130/04 RMK AO2 T01560117
93073KASE ASE20160702180010707/02/16 18:00:31  5-MIN KASE 030100Z 11003KT 10SM FEW110 16/12 A3027 7520 75 9400 100/03 RMK AO2 T01610117
93073KASE ASE20160702180510707/02/16 18:05:31  5-MIN KASE 030105Z 13004KT 10SM FEW110 16/12 A3027 7520 77 9300 120/04 RMK AO2 T01560117
93073KASE ASE20160702181010707/02/16 18:10:31  5-MIN KASE 030110Z 16003KT 10SM FEW110 16/12 A3027 7520 75 9400 150/03 RMK AO2 T01610117
93073KASE ASE20160702181510407/02/16 18:15:31  5-MIN KASE 030115Z 12003KT 10SM CLR 16/11 A3027 7520 72 9400 110/03 RMK AO2 T01610111
93073KASE ASE20160702182010407/02/16 18:20:31  5-MIN KASE 030120Z 14003KT 10SM CLR 16/11 A3027 7520 72 9400 130/03 RMK AO2 T01610111
93073KASE ASE20160702182510407/02/16 18:25:31  5-MIN KASE 030125Z 13004KT 10SM CLR 16/11 A3026 7520 72 9400 120/04 RMK AO2 T01610111
93073KASE ASE20160702183010407/02/16 18:30:31  5-MIN KASE 030130Z 13003KT 10SM CLR 16/11 A3026 7530 72 9400 120/03 RMK AO2 T01610111
93073KASE ASE20160702183510407/02/16 18:35:31  5-MIN KASE 030135Z 13003KT 10SM CLR 16/12 A3026 7530 77 9300 120/03 RMK AO2 T01560117
93073KASE ASE20160702184010407/02/16 18:40:31  5-MIN KASE 030140Z 13003KT 10SM CLR 16/11 A3026 7530 74 9300 120/03 RMK AO2 T01560111
93073KASE ASE20160702184510407/02/16 18:45:31  5-MIN KASE 030145Z 15003KT 10SM CLR 16/11 A3026 7530 72 9400 140/03 RMK AO2 T01610111
93073KASE ASE20160702185011107/02/16 18:50:31  5-MIN KASE 030150Z 14004KT 10SM CLR 16/11 A3026 7530 72 9400 130/04 RMK AO2 SLP138 T01610111
93073KASE ASE20160702185510407/02/16 18:55:31  5-MIN KASE 030155Z VRB03KT 10SM CLR 16/11 A3026 7520 69 9400 VRB/03 RMK AO2 T01610106
93073KASE ASE20160702190010407/02/16 19:00:31  5-MIN KASE 030200Z 00000KT 10SM CLR 15/12 A3027 7520 80 9300 000/00 RMK AO2 T01500117
93073KASE ASE20160702190510407/02/16 19:05:31  5-MIN KASE 030205Z 00000KT 10SM CLR 15/12 A3027 7520 80 9300 000/00 RMK AO2 T01500117
93073KASE ASE20160702191010407/02/16 19:10:31  5-MIN KASE 030210Z 00000KT 10SM CLR 16/12 A3027 7520 77 9300 000/00 RMK AO2 T01560117
93073KASE ASE20160706213011407/06/16 21:30:31  5-MIN KASE 070430Z AUTO 20008KT 10SM CLR 12/00 A3019 7590 43 9000 190/08 RMK AO2 T01220000 TSNO
93073KASE ASE20160706213511407/06/16 21:35:31  5-MIN KASE 070435Z AUTO 22007KT 10SM CLR 12/00 A3019 7600 43 9000 210/07 RMK AO2 T01220000 TSNO
93073KASE ASE20160706214011507/06/16 21:40:31  5-MIN KASE 070440Z AUTO 21008KT 10SM CLR 14/M01 A3019 7590 35 9200 200/08 RMK AO2 T01391011 TSNO
93073KASE ASE20160706214511507/06/16 21:45:31  5-MIN KASE 070445Z AUTO 19007KT 10SM CLR 14/M01 A3019 7600 35 9200 180/07 RMK AO2 T01391011 TSNO
93073KASE ASE20160706215012207/06/16 21:50:31  5-MIN KASE 070450Z AUTO 20005KT 10SM CLR 13/M01 A3019 7600 38 9200 190/05 RMK AO2 SLP087 T01331006 TSNO
93073KASE ASE20160706215511007/06/16 21:55:31  5-MIN KASE 070455Z AUTO 21006KT 10SM CLR 13/M01 A3019 7600 38 9200 200/06 RMK AO2 T01331006
93073KASE ASE20160706220011007/06/16 22:00:31  5-MIN KASE 070500Z AUTO 22006KT 10SM CLR 14/M01 A3019 7590 34 9300 210/06 RMK AO2 T01441011
93073KASE ASE20160706220511007/06/16 22:05:31  5-MIN KASE 070505Z AUTO 20007KT 10SM CLR 14/M01 A3019 7600 34 9300 190/07 RMK AO2 T01441011
93073KASE ASE20160706221011007/06/16 22:10:31  5-MIN KASE 070510Z AUTO 21007KT 10SM CLR 13/M01 A3019 7590 38 9200 200/07 RMK AO2 T01331006
93073KASE ASE20160706221511007/06/16 22:15:31  5-MIN KASE 070515Z AUTO 19005KT 10SM CLR 13/M01 A3019 7600 36 9200 180/05 RMK AO2 T01331011
93073KASE ASE20160706222011007/06/16 22:20:31  5-MIN KASE 070520Z AUTO 21009KT 10SM CLR 12/M01 A3019 7590 41 9000 200/09 RMK AO2 T01221006
93073KASE ASE20160706222511007/06/16 22:25:31  5-MIN KASE 070525Z AUTO 18007KT 10SM CLR 13/M01 A3019 7590 36 9200 170/07 RMK AO2 T01331011
93073KASE ASE20160706223011007/06/16 22:30:31  5-MIN KASE 070530Z AUTO 21005KT 10SM CLR 13/M01 A3019 7590 36 9200 200/05 RMK AO2 T01331011
93073KASE ASE20160706223511007/06/16 22:35:31  5-MIN KASE 070535Z AUTO 20005KT 10SM CLR 13/M02 A3019 7600 35 9200 190/05 RMK AO2 T01331017
93073KASE ASE20160706224011007/06/16 22:40:31  5-MIN KASE 070540Z AUTO 20007KT 10SM CLR 12/M01 A3019 7600 41 9000 190/07 RMK AO2 T01221006
93073KASE ASE20160706224511007/06/16 22:45:31  5-MIN KASE 070545Z AUTO 21005KT 10SM CLR 12/M01 A3019 7590 42 9000 200/05 RMK AO2 T01171006
93073KASE ASE20160706225013507/06/16 22:50:31  5-MIN KASE 070550Z AUTO 21006KT 10SM CLR 12/M01 A3019 7590 42 9000 210/06 RMK AO2 SLP092 T01171006 10267 20117 53001
93073KASE ASE20160706225511007/06/16 22:55:31  5-MIN KASE 070555Z AUTO 00000KT 10SM CLR 12/M01 A3019 7590 39 9000 000/00 RMK AO2 T01221011
93073KASE ASE20160706230010907/06/16 23:00:31  5-MIN KASE 070600Z AUTO 00000KT 10SM CLR 11/00 A3019 7590 48 8900 000/00 RMK AO2 T01060000
93073KASE ASE20160706230510907/06/16 23:05:31  5-MIN KASE 070605Z AUTO 19006KT 10SM CLR 11/00 A3019 7600 48 8900 180/06 RMK AO2 T01060000
93073KASE ASE20160706231010907/06/16 23:10:31  5-MIN KASE 070610Z AUTO 22008KT 10SM CLR 11/00 A3019 7590 48 8900 210/08 RMK AO2 T01060000
93073KASE ASE20160706231511007/06/16 23:15:31  5-MIN KASE 070615Z AUTO 20006KT 10SM CLR 11/M01 A3019 7600 42 8900 190/06 RMK AO2 T01111011
93073KASE ASE20160706232011007/06/16 23:20:31  5-MIN KASE 070620Z AUTO 21006KT 10SM CLR 12/M01 A3019 7600 41 9000 200/06 RMK AO2 T01171011
93073KASE ASE20160706232511007/06/16 23:25:31  5-MIN KASE 070625Z AUTO 21003KT 10SM CLR 13/M02 A3018 7600 35 9100 200/03 RMK AO2 T01281022
93073KASE ASE20160706233011007/06/16 23:30:31  5-MIN KASE 070630Z AUTO 18006KT 10SM CLR 13/M02 A3018 7600 36 9100 170/06 RMK AO2 T01281017
93073KASE ASE20160706233511007/06/16 23:35:31  5-MIN KASE 070635Z AUTO 20006KT 10SM CLR 11/M01 A3018 7600 42 8900 190/06 RMK AO2 T01111011
93073KASE ASE20160706234011007/06/16 23:40:31  5-MIN KASE 070640Z AUTO 21005KT 10SM CLR 11/M01 A3018 7600 42 8900 200/05 RMK AO2 T01111011
93073KASE ASE20160706234511007/06/16 23:45:31  5-MIN KASE 070645Z AUTO 19006KT 10SM CLR 11/M01 A3018 7610 44 8900 180/06 RMK AO2 T01111006
93073KASE ASE20160706235012707/06/16 23:50:31  5-MIN KASE 070650Z AUTO 19007KT 10SM CLR 12/M02 A3018 7610 39 9000 180/07 RMK AO2 SLP087 T01171017 402720094
93073KASE ASE20160706235511007/06/16 23:55:31  5-MIN KASE 070655Z AUTO 20007KT 10SM CLR 12/M02 A3017 7610 36 9100 190/07 RMK AO2 T01221022
93073KASE ASE20160707000011007/07/16 00:00:31  5-MIN KASE 070700Z AUTO 20007KT 10SM CLR 12/M02 A3018 7610 36 9100 190/07 RMK AO2 T01221022
93073KASE ASE20160707000511007/07/16 00:05:31  5-MIN KASE 070705Z AUTO 20004KT 10SM CLR 12/M02 A3018 7600 36 9100 190/04 RMK AO2 T01221022
93073KASE ASE20160707001011007/07/16 00:10:31  5-MIN KASE 070710Z AUTO 20005KT 10SM CLR 12/M02 A3017 7610 39 9000 200/05 RMK AO2 T01171017
93073KASE ASE20160707001511007/07/16 00:15:31  5-MIN KASE 070715Z AUTO 20005KT 10SM CLR 11/M01 A3017 7610 46 8900 190/05 RMK AO2 T01061006
93073KASE ASE20160707002011007/07/16 00:20:31  5-MIN KASE 070720Z AUTO 21006KT 10SM CLR 11/M01 A3017 7610 44 8900 200/06 RMK AO2 T01061011
93073KASE ASE20160707002511007/07/16 00:25:31  5-MIN KASE 070725Z AUTO 21007KT 10SM CLR 11/M01 A3017 7610 42 8900 200/07 RMK AO2 T01111011
93073KASE ASE20160707003011007/07/16 00:30:31  5-MIN KASE 070730Z AUTO 18006KT 10SM CLR 12/M02 A3017 7610 36 9100 170/06 RMK AO2 T01221022
93073KASE ASE20160707003511007/07/16 00:35:31  5-MIN KASE 070735Z AUTO 19007KT 10SM CLR 12/M02 A3017 7610 39 9000 180/07 RMK AO2 T01171017
93073KASE ASE20160707004011007/07/16 00:40:31  5-MIN KASE 070740Z AUTO 21007KT 10SM CLR 11/M01 A3017 7610 42 8900 200/07 RMK AO2 T01111011
93073KASE ASE20160707004511007/07/16 00:45:31  5-MIN KASE 070745Z AUTO 22008KT 10SM CLR 12/M02 A3017 7610 38 9000 210/08 RMK AO2 T01171022
93073KASE ASE20160707005011707/07/16 00:50:31  5-MIN KASE 070750Z AUTO 19006KT 10SM CLR 12/M02 A3017 7610 39 9000 180/06 RMK AO2 SLP085 T01171017
93073KASE ASE20160707005511007/07/16 00:55:31  5-MIN KASE 070755Z AUTO 20006KT 10SM CLR 11/M01 A3016 7620 44 8900 200/06 RMK AO2 T01061011
93073KASE ASE20160707010011007/07/16 01:00:31  5-MIN KASE 070800Z AUTO 21006KT 10SM CLR 12/M02 A3016 7620 39 9000 210/06 RMK AO2 T01171017
93073KASE ASE20160707010511007/07/16 01:05:31  5-MIN KASE 070805Z AUTO 19006KT 10SM CLR 12/M02 A3016 7620 36 9100 180/06 RMK AO2 T01221022
93073KASE ASE20160707011011007/07/16 01:10:31  5-MIN KASE 070810Z AUTO 19006KT 10SM CLR 11/M02 A3016 7620 41 8900 180/06 RMK AO2 T01111017
93073KASE ASE20160707011511007/07/16 01:15:31  5-MIN KASE 070815Z AUTO 21007KT 10SM CLR 12/M02 A3016 7620 39 9000 200/07 RMK AO2 T01171017
93073KASE ASE20160707012011007/07/16 01:20:31  5-MIN KASE 070820Z AUTO 20006KT 10SM CLR 12/M02 A3016 7620 39 9000 200/06 RMK AO2 T01171017
93073KASE ASE20160707012511007/07/16 01:25:31  5-MIN KASE 070825Z AUTO 22005KT 10SM CLR 11/M02 A3016 7620 41 9000 210/05 RMK AO2 T01111017
93073KASE ASE20160707013011007/07/16 01:30:31  5-MIN KASE 070830Z AUTO 00000KT 10SM CLR 11/M01 A3016 7620 42 9000 000/00 RMK AO2 T01111011
93073KASE ASE20160707013511007/07/16 01:35:31  5-MIN KASE 070835Z AUTO 22004KT 10SM CLR 10/M01 A3015 7630 46 8800 210/04 RMK AO2 T01001011
93073KASE ASE20160707014011007/07/16 01:40:31  5-MIN KASE 070840Z AUTO 22007KT 10SM CLR 11/M01 A3015 7620 44 8900 210/07 RMK AO2 T01061011
93073KASE ASE20160707014511007/07/16 01:45:31  5-MIN KASE 070845Z AUTO VRB05KT 10SM CLR 11/M01 A3015 7630 42 9000 VRB/05 RMK AO2 T01111011
93073KASE ASE20160707015012307/07/16 01:50:31  5-MIN KASE 070850Z AUTO 20007KT 10SM CLR 12/M02 A3016 7620 36 9100 190/07 RMK AO2 SLP080 T01221022 51010
93073KASE ASE20160707015511007/07/16 01:55:31  5-MIN KASE 070855Z AUTO 21006KT 10SM CLR 11/M02 A3015 7630 41 9000 200/06 RMK AO2 T01111017
93073KASE ASE20160707020011007/07/16 02:00:31  5-MIN KASE 070900Z AUTO VRB03KT 10SM CLR 10/M01 A3015 7620 47 8800 VRB/03 RMK AO2 T01001006
93073KASE ASE20160707020511007/07/16 02:05:31  5-MIN KASE 070905Z AUTO 20005KT 10SM CLR 10/M01 A3015 7620 47 8800 190/05 RMK AO2 T01001006
93073KASE ASE20160707021011007/07/16 02:10:31  5-MIN KASE 070910Z AUTO 19006KT 10SM CLR 11/M01 A3015 7630 44 8900 180/06 RMK AO2 T01061011
93073KASE ASE20160707021511007/07/16 02:15:31  5-MIN KASE 070915Z AUTO 21007KT 10SM CLR 10/M01 A3015 7630 47 8800 200/07 RMK AO2 T01001006
93073KASE ASE20160707022011007/07/16 02:20:31  5-MIN KASE 070920Z AUTO 19009KT 10SM CLR 11/M01 A3016 7620 44 8900 180/09 RMK AO2 T01061011
93073KASE ASE20160707022511007/07/16 02:25:31  5-MIN KASE 070925Z AUTO 20006KT 10SM CLR 11/M01 A3015 7630 44 8900 200/06 RMK AO2 T01061011
93073KASE ASE20160707023011007/07/16 02:30:31  5-MIN KASE 070930Z AUTO 20007KT 10SM CLR 11/M02 A3016 7620 41 9000 190/07 RMK AO2 T01111017
93073KASE ASE20160707023511007/07/16 02:35:31  5-MIN KASE 070935Z AUTO 20007KT 10SM CLR 12/M02 A3016 7620 39 9000 190/07 RMK AO2 T01171017
93073KASE ASE20160707024011007/07/16 02:40:31  5-MIN KASE 070940Z AUTO 21007KT 10SM CLR 10/M01 A3016 7620 47 8800 200/07 RMK AO2 T01001006
93073KASE ASE20160707024511007/07/16 02:45:31  5-MIN KASE 070945Z AUTO 19007KT 10SM CLR 12/M02 A3016 7620 36 9100 180/07 RMK AO2 T01221022
93073KASE ASE20160707025011707/07/16 02:50:31  5-MIN KASE 070950Z AUTO 19009KT 10SM CLR 11/M01 A3016 7620 44 8900 180/09 RMK AO2 SLP086 T01061011
93073KASE ASE20160707025511007/07/16 02:55:31  5-MIN KASE 070955Z AUTO 20008KT 10SM CLR 10/M01 A3016 7620 46 8800 190/08 RMK AO2 T01001011
93073KASE ASE20160707030011007/07/16 03:00:31  5-MIN KASE 071000Z AUTO 20008KT 10SM CLR 11/M01 A3016 7620 44 8900 190/08 RMK AO2 T01061011
93073KASE ASE20160707030511007/07/16 03:05:31  5-MIN KASE 071005Z AUTO 21009KT 10SM CLR 11/M01 A3016 7620 42 8900 200/09 RMK AO2 T01111011
93073KASE ASE20160707031011007/07/16 03:10:31  5-MIN KASE 071010Z AUTO 20010KT 10SM CLR 11/M01 A3017 7610 44 8900 190/10 RMK AO2 T01061011
93073KASE ASE20160707031511007/07/16 03:15:31  5-MIN KASE 071015Z AUTO 17007KT 10SM CLR 12/M02 A3016 7620 38 9100 170/07 RMK AO2 T01221017
93073KASE ASE20160707032011007/07/16 03:20:31  5-MIN KASE 071020Z AUTO 20007KT 10SM CLR 11/M01 A3017 7610 44 8900 190/07 RMK AO2 T01061011
93073KASE ASE20160707032511007/07/16 03:25:31  5-MIN KASE 071025Z AUTO 20008KT 10SM CLR 11/M01 A3017 7610 42 8900 190/08 RMK AO2 T01111011
93073KASE ASE20160707033011007/07/16 03:30:31  5-MIN KASE 071030Z AUTO 20008KT 10SM CLR 11/M02 A3017 7610 41 8900 190/08 RMK AO2 T01111017
93073KASE ASE20160707033511007/07/16 03:35:31  5-MIN KASE 071035Z AUTO 20006KT 10SM CLR 11/M01 A3017 7610 44 8900 190/06 RMK AO2 T01061011
93073KASE ASE20160707034011007/07/16 03:40:31  5-MIN KASE 071040Z AUTO VRB06KT 10SM CLR 10/M01 A3018 7600 47 8800 VRB/06 RMK AO2 T01001006
93073KASE ASE20160707034511007/07/16 03:45:31  5-MIN KASE 071045Z AUTO 18007KT 10SM CLR 10/M01 A3018 7600 46 8800 180/07 RMK AO2 T01001011
93073KASE ASE20160707035011707/07/16 03:50:31  5-MIN KASE 071050Z AUTO 21008KT 10SM CLR 09/M01 A3018 7600 49 8700 200/08 RMK AO2 SLP094 T00941006
93073KASE ASE20160707035511007/07/16 03:55:31  5-MIN KASE 071055Z AUTO 20009KT 10SM CLR 11/M01 A3018 7600 44 8900 190/09 RMK AO2 T01061011
93073KASE ASE20160707040011007/07/16 04:00:31  5-MIN KASE 071100Z AUTO 20008KT 10SM CLR 10/M01 A3019 7600 46 8800 190/08 RMK AO2 T01001011
93073KASE ASE20160707040511007/07/16 04:05:31  5-MIN KASE 071105Z AUTO 18008KT 10SM CLR 10/M01 A3019 7590 46 8800 180/08 RMK AO2 T01001011
93073KASE ASE20160707041011007/07/16 04:10:31  5-MIN KASE 071110Z AUTO 20007KT 10SM CLR 09/M01 A3019 7590 49 8700 200/07 RMK AO2 T00941006
93073KASE ASE20160707041511007/07/16 04:15:31  5-MIN KASE 071115Z AUTO 21007KT 10SM CLR 10/M01 A3019 7600 46 8800 200/07 RMK AO2 T01001011
93073KASE ASE20160707042011007/07/16 04:20:31  5-MIN KASE 071120Z AUTO 18008KT 10SM CLR 11/M01 A3019 7590 44 8800 170/08 RMK AO2 T01061011
93073KASE ASE20160707042511007/07/16 04:25:31  5-MIN KASE 071125Z AUTO 21008KT 10SM CLR 11/M01 A3019 7590 44 8800 200/08 RMK AO2 T01061011
93073KASE ASE20160707043011007/07/16 04:30:31  5-MIN KASE 071130Z AUTO 20008KT 10SM CLR 10/M01 A3020 7590 46 8800 190/08 RMK AO2 T01001011
93073KASE ASE20160707043511007/07/16 04:35:31  5-MIN KASE 071135Z AUTO 21008KT 10SM CLR 09/M01 A3020 7590 51 8700 200/08 RMK AO2 T00891006
93073KASE ASE20160707044011007/07/16 04:40:31  5-MIN KASE 071140Z AUTO 20007KT 10SM CLR 10/M01 A3020 7580 46 8800 190/07 RMK AO2 T01001011
93073KASE ASE20160707044511007/07/16 04:45:31  5-MIN KASE 071145Z AUTO 19008KT 10SM CLR 10/M01 A3020 7580 46 8800 180/08 RMK AO2 T01001011
93073KASE ASE20160707045013507/07/16 04:50:31  5-MIN KASE 071150Z AUTO 19010KT 10SM CLR 09/M01 A3020 7580 47 8700 180/10 RMK AO2 SLP103 T00941011 10133 20089 56010
93073KASE ASE20160707045511007/07/16 04:55:31  5-MIN KASE 071155Z AUTO 19008KT 10SM CLR 09/M01 A3020 7580 49 8700 180/08 RMK AO2 T00941006
93073KASE ASE20160707050011007/07/16 05:00:31  5-MIN KASE 071200Z AUTO 21009KT 10SM CLR 09/M01 A3021 7570 51 8600 200/09 RMK AO2 T00891006
93073KASE ASE20160707050511007/07/16 05:05:31  5-MIN KASE 071205Z AUTO 21010KT 10SM CLR 09/M01 A3021 7570 47 8700 200/10 RMK AO2 T00941011
93073KASE ASE20160707051011007/07/16 05:10:31  5-MIN KASE 071210Z AUTO 20009KT 10SM CLR 11/M01 A3022 7570 44 8800 190/09 RMK AO2 T01061011
93073KASE ASE20160707051511007/07/16 05:15:31  5-MIN KASE 071215Z AUTO 21009KT 10SM CLR 11/M01 A3021 7570 44 8800 210/09 RMK AO2 T01061011
93073KASE ASE20160707052011007/07/16 05:20:31  5-MIN KASE 071220Z AUTO 21005KT 10SM CLR 10/M01 A3022 7560 46 8800 200/05 RMK AO2 T01001011
93073KASE ASE20160707052510907/07/16 05:25:31  5-MIN KASE 071225Z AUTO 19006KT 10SM CLR 09/00 A3022 7560 51 8700 180/06 RMK AO2 T00940000
93073KASE ASE20160707053011007/07/16 05:30:31  5-MIN KASE 071230Z AUTO VRB03KT 10SM CLR 10/M01 A3022 7560 47 8800 VRB/03 RMK AO2 T01001006
93073KASE ASE20160707053511007/07/16 05:35:31  5-MIN KASE 071235Z AUTO 18007KT 10SM CLR 11/M01 A3022 7560 46 8800 170/07 RMK AO2 T01061006
93073KASE ASE20160707054010407/07/16 05:40:31  5-MIN KASE 071240Z 20007KT 10SM CLR 09/00 A3022 7560 51 8700 190/07 RMK AO2 T00940000
93073KASE ASE20160707054510407/07/16 05:45:31  5-MIN KASE 071245Z 20007KT 10SM CLR 10/01 A3022 7560 52 8800 190/07 RMK AO2 T01000006
93073KASE ASE20160707055011107/07/16 05:50:31  5-MIN KASE 071250Z 19006KT 10SM CLR 11/00 A3022 7560 46 8900 180/06 RMK AO2 SLP105 T01110000
93073KASE ASE20160707055510407/07/16 05:55:31  5-MIN KASE 071255Z 18007KT 10SM CLR 12/01 A3023 7560 46 8900 170/07 RMK AO2 T01170006
93073KASE ASE20160707060010407/07/16 06:00:31  5-MIN KASE 071300Z 18009KT 10SM CLR 12/01 A3023 7560 44 9000 170/09 RMK AO2 T01220006
93073KASE ASE20160707060510507/07/16 06:05:31  5-MIN KASE 071305Z 18008KT 10SM CLR 13/M01 A3023 7560 38 9100 170/08 RMK AO2 T01281011
93073KASE ASE20160707061010407/07/16 06:10:31  5-MIN KASE 071310Z 18007KT 10SM CLR 13/01 A3023 7560 43 9100 170/07 RMK AO2 T01280006
93073KASE ASE20160707061510407/07/16 06:15:31  5-MIN KASE 071315Z 17007KT 10SM CLR 13/00 A3022 7560 40 9100 160/07 RMK AO2 T01330000
93073KASE ASE20160707062010507/07/16 06:20:31  5-MIN KASE 071320Z 16006KT 10SM CLR 14/M01 A3023 7560 35 9200 150/06 RMK AO2 T01391011
93073KASE ASE20160707062510507/07/16 06:25:31  5-MIN KASE 071325Z 16005KT 10SM CLR 14/M01 A3023 7550 37 9200 150/05 RMK AO2 T01391006
93073KASE ASE20160707063010507/07/16 06:30:31  5-MIN KASE 071330Z 15005KT 10SM CLR 14/M01 A3023 7550 37 9200 140/05 RMK AO2 T01391006
93073KASE ASE20160707063510407/07/16 06:35:31  5-MIN KASE 071335Z 15004KT 10SM CLR 14/00 A3024 7550 37 9200 140/04 RMK AO2 T01440000
93073KASE ASE20160707064010507/07/16 06:40:31  5-MIN KASE 071340Z 16006KT 10SM CLR 14/M01 A3024 7550 35 9200 160/06 RMK AO2 T01441006
93073KASE ASE20160707064510407/07/16 06:45:31  5-MIN KASE 071345Z 13004KT 10SM CLR 14/00 A3024 7550 37 9200 120/04 RMK AO2 T01440000
93073KASE ASE20160707065011107/07/16 06:50:31  5-MIN KASE 071350Z 17005KT 10SM CLR 14/00 A3024 7550 37 9200 170/05 RMK AO2 SLP117 T01440000
93073KASE ASE20160707065510407/07/16 06:55:31  5-MIN KASE 071355Z 17004KT 10SM CLR 15/01 A3024 7540 37 9300 160/04 RMK AO2 T01500006
93073KASE ASE20160707070010307/07/16 07:00:31  5-MIN KASE 071400Z 16006KT 9SM CLR 15/00 A3024 7540 35 9300 150/06 RMK AO2 T01500000
93073KASE ASE20160707070510307/07/16 07:05:31  5-MIN KASE 071405Z 15004KT 9SM CLR 15/01 A3024 7540 37 9300 140/04 RMK AO2 T01500006
93073KASE ASE20160707071010407/07/16 07:10:31  5-MIN KASE 071410Z 14006KT 10SM CLR 15/01 A3025 7540 37 9300 130/06 RMK AO2 T01500006
93073KASE ASE20160707071510407/07/16 07:15:31  5-MIN KASE 071415Z 15005KT 10SM CLR 16/01 A3025 7540 37 9300 140/05 RMK AO2 T01560011
93073KASE ASE20160707072010407/07/16 07:20:31  5-MIN KASE 071420Z 13005KT 10SM CLR 16/02 A3025 7540 37 9400 120/05 RMK AO2 T01610017
93073KASE ASE20160707072510407/07/16 07:25:31  5-MIN KASE 071425Z 16005KT 10SM CLR 16/02 A3025 7540 37 9400 150/05 RMK AO2 T01610017
93073KASE ASE20160707073010407/07/16 07:30:31  5-MIN KASE 071430Z 14006KT 10SM CLR 17/01 A3025 7540 34 9500 130/06 RMK AO2 T01670011
93073KASE ASE20160707073510407/07/16 07:35:31  5-MIN KASE 071435Z 15003KT 10SM CLR 17/02 A3025 7530 36 9500 150/03 RMK AO2 T01670017
93073KASE ASE20160707074010407/07/16 07:40:31  5-MIN KASE 071440Z 16005KT 10SM CLR 17/02 A3025 7540 35 9500 150/05 RMK AO2 T01720017
93073KASE ASE20160707074510407/07/16 07:45:31  5-MIN KASE 071445Z 13006KT 10SM CLR 18/02 A3025 7530 35 9600 120/06 RMK AO2 T01780022
93073KASE ASE20160707075011707/07/16 07:50:31  5-MIN KASE 071450Z 14004KT 10SM CLR 17/03 A3025 7530 37 9500 130/04 RMK AO2 SLP121 T01720028 53014
93073KASE ASE20160707075510407/07/16 07:55:31  5-MIN KASE 071455Z VRB03KT 10SM CLR 18/03 A3025 7530 36 9600 VRB/03 RMK AO2 T01780028
93073KASE ASE20160707080010407/07/16 08:00:31  5-MIN KASE 071500Z 13005KT 10SM CLR 18/03 A3025 7530 35 9600 120/05 RMK AO2 T01830028
93073KASE ASE20160707080510407/07/16 08:05:31  5-MIN KASE 071505Z 12005KT 10SM CLR 19/03 A3025 7530 33 9800 110/05 RMK AO2 T01940028
93073KASE ASE20160707081010407/07/16 08:10:31  5-MIN KASE 071510Z 15005KT 10SM CLR 19/01 A3025 7530 29 9800 140/05 RMK AO2 T01940011
93073KASE ASE20160707081510407/07/16 08:15:31  5-MIN KASE 071515Z VRB04KT 10SM CLR 20/01 A3025 7530 28 9800 VRB/04 RMK AO2 T02000011
93073KASE ASE20160707082010407/07/16 08:20:31  5-MIN KASE 071520Z 01003KT 10SM CLR 21/01 A3025 7540 26 9900 360/03 RMK AO2 T02060006
93073KASE ASE20160707082510507/07/16 08:25:31  5-MIN KASE 071525Z VRB03KT 10SM CLR 22/01 A3025 7530 24 10000 VRB/03 RMK AO2 T02170006
93073KASE ASE20160707083010507/07/16 08:30:31  5-MIN KASE 071530Z 34005KT 10SM CLR 22/00 A3025 7530 23 10000 330/05 RMK AO2 T02170000
93073KASE ASE20160707083510507/07/16 08:35:31  5-MIN KASE 071535Z 02005KT 10SM CLR 22/00 A3025 7540 22 10100 010/05 RMK AO2 T02220000
93073KASE ASE20160707084010607/07/16 08:40:31  5-MIN KASE 071540Z VRB03KT 10SM CLR 22/M01 A3025 7540 22 10000 VRB/03 RMK AO2 T02171006
93073KASE ASE20160707084510507/07/16 08:45:31  5-MIN KASE 071545Z 36006KT 10SM CLR 22/00 A3025 7540 22 10100 350/06 RMK AO2 T02220000
93073KASE ASE20160707085011207/07/16 08:50:31  5-MIN KASE 071550Z VRB05KT 10SM CLR 22/00 A3025 7540 22 10100 VRB/05 RMK AO2 SLP117 T02220000
93073KASE ASE20160707085510607/07/16 08:55:31  5-MIN KASE 071555Z 00000KT 10SM CLR 23/M01 A3025 7540 21 10100 000/00 RMK AO2 T02281006
93073KASE ASE20160707090010607/07/16 09:00:31  5-MIN KASE 071600Z VRB03KT 10SM CLR 23/M01 A3025 7540 20 10100 VRB/03 RMK AO2 T02281011
93073KASE ASE20160707090510607/07/16 09:05:31  5-MIN KASE 071605Z VRB04KT 10SM CLR 23/M02 A3025 7540 18 10100 VRB/04 RMK AO2 T02281022
93073KASE ASE20160707091010607/07/16 09:10:31  5-MIN KASE 071610Z VRB04KT 10SM CLR 23/M02 A3025 7540 19 10100 VRB/04 RMK AO2 T02281017
93073KASE ASE20160707091510607/07/16 09:15:31  5-MIN KASE 071615Z VRB04KT 10SM CLR 23/M01 A3025 7540 19 10200 VRB/04 RMK AO2 T02331011
93073KASE ASE20160707092010607/07/16 09:20:31  5-MIN KASE 071620Z VRB04KT 10SM CLR 23/M01 A3025 7540 20 10100 VRB/04 RMK AO2 T02281011
93073KASE ASE20160707092510607/07/16 09:25:31  5-MIN KASE 071625Z 02005KT 10SM CLR 23/M01 A3025 7540 20 10200 010/05 RMK AO2 T02331006
93073KASE ASE20160707093010607/07/16 09:30:31  5-MIN KASE 071630Z 03004KT 10SM CLR 24/M01 A3025 7540 19 10300 020/04 RMK AO2 T02391006
93073KASE ASE20160707093510607/07/16 09:35:31  5-MIN KASE 071635Z VRB03KT 10SM CLR 23/M02 A3025 7540 18 10200 VRB/03 RMK AO2 T02331017
93073KASE ASE20160707094009607/07/16 09:40:31  5-MIN KASE 071640Z 10SM CLR 24/M02 A3025 7540 18 10300 M /M RMK AO2 T02391017
93073KASE ASE20160707094510607/07/16 09:45:31  5-MIN KASE 071645Z VRB05KT 10SM CLR 24/M03 A3025 7540 16 10300 VRB/05 RMK AO2 T02391028
93073KASE ASE20160707095011307/07/16 09:50:31  5-MIN KASE 071650Z 24008KT 10SM CLR 24/M03 A3025 7540 16 10300 230/08 RMK AO2 SLP112 T02391033
93073KASE ASE20160707095511207/07/16 09:55:31  5-MIN KASE 071655Z 25009G15KT 10SM CLR 23/M04 A3025 7540 16 10200 240/09G15 RMK AO2 T02331039
93073KASE ASE20160707100011207/07/16 10:00:31  5-MIN KASE 071700Z 23007G15KT 10SM CLR 24/M03 A3025 7540 16 10300 220/07G15 RMK AO2 T02441028
93073KASE ASE20160707100511207/07/16 10:05:31  5-MIN KASE 071705Z 26010G16KT 10SM CLR 24/M03 A3025 7530 16 10200 250/10G16 RMK AO2 T02391033
93073KASE ASE20160707101011207/07/16 10:10:31  5-MIN KASE 071710Z VRB05G16KT 10SM CLR 24/M03 A3025 7530 16 10200 VRB/05G16 RMK AO2 T02391033
93073KASE ASE20160707101510607/07/16 10:15:31  5-MIN KASE 071715Z VRB04KT 10SM CLR 24/M03 A3025 7540 16 10200 VRB/04 RMK AO2 T02391033
93073KASE ASE20160707102010607/07/16 10:20:31  5-MIN KASE 071720Z 00000KT 10SM CLR 24/M03 A3025 7530 16 10200 000/00 RMK AO2 T02391033
93073KASE ASE20160707102510607/07/16 10:25:31  5-MIN KASE 071725Z 26010KT 10SM CLR 25/M02 A3025 7540 17 10400 250/10 RMK AO2 T02501017
93073KASE ASE20160707103011207/07/16 10:30:31  5-MIN KASE 071730Z 35010G17KT 10SM CLR 25/M02 A3025 7540 17 10400 340/10G17 RMK AO2 T02501017
93073KASE ASE20160707103511207/07/16 10:35:31  5-MIN KASE 071735Z 35012G17KT 10SM CLR 24/M01 A3025 7540 18 10300 340/12G17 RMK AO2 T02441011
93073KASE ASE20160707104012207/07/16 10:40:31  5-MIN KASE 071740Z 36008KT 310V050 10SM CLR 25/M01 A3025 7530 17 10400 350/08 300V040 RMK AO2 T02501011
93073KASE ASE20160707104510607/07/16 10:45:31  5-MIN KASE 071745Z 02009KT 10SM CLR 25/M01 A3025 7540 18 10400 010/09 RMK AO2 T02501006
93073KASE ASE20160707105015307/07/16 10:50:31  5-MIN KASE 071750Z 02010G16KT 350V060 10SM CLR 24/M01 A3025 7540 18 10300 010/10G16 340V050 RMK AO2 SLP113 T02441011 10250 20083 51012
93073KASE ASE20160707105511207/07/16 10:55:31  5-MIN KASE 071755Z 35007G16KT 10SM CLR 24/M01 A3025 7540 18 10300 340/07G16 RMK AO2 T02441011
93073KASE ASE20160707110010607/07/16 11:00:31  5-MIN KASE 071800Z 36006KT 10SM CLR 25/M02 A3025 7540 17 10400 350/06 RMK AO2 T02501017
93073KASE ASE20160707110510607/07/16 11:05:31  5-MIN KASE 071805Z 35008KT 10SM CLR 25/M01 A3025 7540 18 10400 340/08 RMK AO2 T02501006
93073KASE ASE20160707111010607/07/16 11:10:31  5-MIN KASE 071810Z 32008KT 10SM CLR 25/M02 A3025 7540 17 10400 310/08 RMK AO2 T02501017
93073KASE ASE20160707111510607/07/16 11:15:31  5-MIN KASE 071815Z 33008KT 10SM CLR 24/M02 A3025 7540 17 10300 320/08 RMK AO2 T02441017
93073KASE ASE20160707112011207/07/16 11:20:31  5-MIN KASE 071820Z 35009G18KT 10SM CLR 25/M01 A3025 7540 18 10400 340/09G18 RMK AO2 T02501006
93073KASE ASE20160707112511207/07/16 11:25:31  5-MIN KASE 071825Z 32012G18KT 10SM CLR 26/M01 A3025 7540 17 10400 310/12G18 RMK AO2 T02561006
93073KASE ASE20160707113012807/07/16 11:30:31  5-MIN KASE 071830Z 36008G18KT 320V030 10SM CLR 26/M01 A3025 7540 17 10400 350/08G18 310V020 RMK AO2 T02561011
93073KASE ASE20160707113511207/07/16 11:35:31  5-MIN KASE 071835Z 35011G15KT 10SM CLR 26/M01 A3025 7540 17 10500 340/11G15 RMK AO2 T02611006
93073KASE ASE20160707114011207/07/16 11:40:31  5-MIN KASE 071840Z 36013G19KT 10SM CLR 26/M01 A3025 7540 17 10500 350/13G19 RMK AO2 T02611006
93073KASE ASE20160707114511207/07/16 11:45:31  5-MIN KASE 071845Z 32013G21KT 10SM CLR 26/M02 A3025 7540 15 10400 310/13G21 RMK AO2 T02561022
93073KASE ASE20160707115011907/07/16 11:50:31  5-MIN KASE 071850Z 36012G21KT 10SM CLR 26/M01 A3025 7540 17 10400 350/12G21 RMK AO2 SLP112 T02561011
93073KASE ASE20160707115511207/07/16 11:55:31  5-MIN KASE 071855Z 33012G20KT 10SM CLR 26/M01 A3025 7540 17 10400 320/12G20 RMK AO2 T02561006
93073KASE ASE20160707120011207/07/16 12:00:31  5-MIN KASE 071900Z 36010G20KT 10SM CLR 24/M01 A3025 7540 19 10300 350/10G20 RMK AO2 T02441006
93073KASE ASE20160707120513007/07/16 12:05:31  5-MIN KASE 071905Z 34012G26KT 10SM CLR 26/M01 A3025 7540 17 10500 330/12G26 RMK AO2 PK WND 34026/1904 T02611006
93073KASE ASE20160707121013007/07/16 12:10:31  5-MIN KASE 071910Z 34011G26KT 10SM CLR 26/M01 A3025 7540 17 10400 330/11G26 RMK AO2 PK WND 34026/1904 T02561011
93073KASE ASE20160707121512907/07/16 12:15:31  5-MIN KASE 071915Z 35012G19KT 10SM CLR 26/00 A3025 7530 18 10500 340/12G19 RMK AO2 PK WND 34026/1904 T02610000
93073KASE ASE20160707122013007/07/16 12:20:31  5-MIN KASE 071920Z 35016G25KT 10SM CLR 26/M02 A3025 7540 16 10400 340/16G25 RMK AO2 PK WND 34026/1904 T02561017
93073KASE ASE20160707122513007/07/16 12:25:31  5-MIN KASE 071925Z 35013G25KT 10SM CLR 26/M02 A3025 7540 15 10400 340/13G25 RMK AO2 PK WND 34026/1904 T02561022
93073KASE ASE20160707123014607/07/16 12:30:31  5-MIN KASE 071930Z 33013G23KT 280V360 10SM CLR 26/M02 A3025 7540 15 10400 320/13G23 270V350 RMK AO2 PK WND 34026/1904 T02561022
93073KASE ASE20160707123513007/07/16 12:35:31  5-MIN KASE 071935Z 35011G21KT 10SM CLR 26/M02 A3025 7540 16 10400 340/11G21 RMK AO2 PK WND 34026/1904 T02561017
93073KASE ASE20160707124014607/07/16 12:40:31  5-MIN KASE 071940Z 32010G26KT 290V010 10SM CLR 26/M02 A3025 7530 15 10500 310/10G26 280V360 RMK AO2 PK WND 34026/1938 T02611022
93073KASE ASE20160707124513007/07/16 12:45:31  5-MIN KASE 071945Z 34013G26KT 10SM CLR 26/M01 A3025 7540 16 10500 330/13G26 RMK AO2 PK WND 34026/1938 T02611011
93073KASE ASE20160707125015307/07/16 12:50:31  5-MIN KASE 071950Z 34012G20KT 260V360 10SM CLR 27/M01 A3025 7540 16 10500 330/12G20 250V350 RMK AO2 PK WND 34026/1938 SLP108 T02671011
93073KASE ASE20160707125512807/07/16 12:55:31  5-MIN KASE 071955Z 31010G23KT 290V350 10SM CLR 26/M02 A3025 7530 16 10500 300/10G23 280V340 RMK AO2 T02611017
93073KASE ASE20160707130011207/07/16 13:00:31  5-MIN KASE 072000Z 35014G23KT 10SM CLR 26/M02 A3025 7540 16 10500 340/14G23 RMK AO2 T02611017
93073KASE ASE20160707130511207/07/16 13:05:31  5-MIN KASE 072005Z 35012G22KT 10SM CLR 26/M02 A3025 7540 16 10500 340/12G22 RMK AO2 T02611017
93073KASE ASE20160707131011207/07/16 13:10:31  5-MIN KASE 072010Z 34015G23KT 10SM CLR 26/M02 A3025 7540 16 10400 330/15G23 RMK AO2 T02561017
93073KASE ASE20160707131511207/07/16 13:15:31  5-MIN KASE 072015Z 35011G23KT 10SM CLR 26/M02 A3025 7540 16 10500 340/11G23 RMK AO2 T02611017
93073KASE ASE20160707132011207/07/16 13:20:31  5-MIN KASE 072020Z 33014G22KT 10SM CLR 27/M01 A3025 7540 16 10500 320/14G22 RMK AO2 T02671006
93073KASE ASE20160707132511207/07/16 13:25:31  5-MIN KASE 072025Z 36014G19KT 10SM CLR 27/M01 A3025 7540 16 10500 350/14G19 RMK AO2 T02671006
93073KASE ASE20160707133011207/07/16 13:30:31  5-MIN KASE 072030Z 34006G17KT 10SM CLR 26/M01 A3025 7540 17 10500 330/06G17 RMK AO2 T02611006
93073KASE ASE20160707133511107/07/16 13:35:31  5-MIN KASE 072035Z 34014G20KT 10SM CLR 27/00 A3025 7540 16 10600 330/14G20 RMK AO2 T02720000
93073KASE ASE20160707134011207/07/16 13:40:31  5-MIN KASE 072040Z 35012G20KT 10SM CLR 26/M01 A3025 7540 16 10500 350/12G20 RMK AO2 T02611011
93073KASE ASE20160707134511207/07/16 13:45:31  5-MIN KASE 072045Z 35009G17KT 10SM CLR 26/M01 A3025 7540 17 10500 340/09G17 RMK AO2 T02611006
93073KASE ASE20160707135012807/07/16 13:50:31  5-MIN KASE 072050Z 34010G17KT 10SM FEW120 26/M01 A3024 7540 17 10400 330/10G17 RMK AO2 SLP110 T02561006 57002
93073KASE ASE20160707135510807/07/16 13:55:31  5-MIN KASE 072055Z VRB06KT 10SM FEW120 26/00 A3025 7540 18 10400 VRB/06 RMK AO2 T02560000
93073KASE ASE20160707140012407/07/16 14:00:31  5-MIN KASE 072100Z 34008KT 300V020 10SM FEW120 26/00 A3025 7540 18 10500 330/08 290V010 RMK AO2 T02610000
93073KASE ASE20160707140513007/07/16 14:05:31  5-MIN KASE 072105Z 34009G16KT 300V360 10SM FEW120 27/00 A3025 7540 17 10600 330/09G16 290V350 RMK AO2 T02670000
93073KASE ASE20160707141013007/07/16 14:10:31  5-MIN KASE 072110Z 32011G17KT 280V340 10SM FEW120 27/00 A3025 7540 17 10500 310/11G17 270V330 RMK AO2 T02670000
93073KASE ASE20160707141511407/07/16 14:15:31  5-MIN KASE 072115Z 33009G17KT 10SM FEW120 27/01 A3025 7540 18 10500 320/09G17 RMK AO2 T02670006
93073KASE ASE20160707142011407/07/16 14:20:31  5-MIN KASE 072120Z 34012G18KT 10SM FEW110 27/00 A3024 7540 17 10600 330/12G18 RMK AO2 T02670000
93073KASE ASE20160707142511407/07/16 14:25:31  5-MIN KASE 072125Z 33008G18KT 10SM FEW100 27/01 A3025 7540 18 10600 320/08G18 RMK AO2 T02670006
93073KASE ASE20160707143011107/07/16 14:30:31  5-MIN KASE 072130Z 33010G18KT 10SM CLR 27/00 A3024 7540 17 10600 320/10G18 RMK AO2 T02670000
93073KASE ASE20160707143512707/07/16 14:35:31  5-MIN KASE 072135Z 30007G16KT 260V330 10SM CLR 27/00 A3024 7540 17 10600 290/07G16 250V320 RMK AO2 T02670000
93073KASE ASE20160707144011107/07/16 14:40:31  5-MIN KASE 072140Z 34009G16KT 10SM CLR 26/00 A3024 7550 18 10500 330/09G16 RMK AO2 T02610000
93073KASE ASE20160707144510507/07/16 14:45:31  5-MIN KASE 072145Z 35010KT 10SM CLR 27/00 A3024 7550 17 10600 340/10 RMK AO2 T02670000
93073KASE ASE20160707145011507/07/16 14:50:31  5-MIN KASE 072150Z 35011KT 10SM FEW120 26/01 A3024 7550 18 10500 340/11 RMK AO2 SLP110 T02610006
93073KASE ASE20160707145510507/07/16 14:55:31  5-MIN KASE 072155Z 34009KT 10SM CLR 27/01 A3024 7550 18 10600 330/09 RMK AO2 T02670006
93073KASE ASE20160707150010507/07/16 15:00:31  5-MIN KASE 072200Z 33011KT 10SM CLR 27/01 A3024 7550 18 10600 320/11 RMK AO2 T02670006
93073KASE ASE20160707150510507/07/16 15:05:31  5-MIN KASE 072205Z 33010KT 10SM CLR 27/00 A3024 7550 17 10600 320/10 RMK AO2 T02670000
93073KASE ASE20160707151012107/07/16 15:10:31  5-MIN KASE 072210Z 32008KT 270V340 10SM CLR 27/01 A3024 7550 18 10600 310/08 260V330 RMK AO2 T02670006
93073KASE ASE20160707151510507/07/16 15:15:31  5-MIN KASE 072215Z 33010KT 10SM CLR 26/01 A3024 7550 19 10400 320/10 RMK AO2 T02560006
93073KASE ASE20160707152011107/07/16 15:20:31  5-MIN KASE 072220Z 35007G15KT 10SM CLR 25/00 A3024 7540 19 10400 340/07G15 RMK AO2 T02500000
93073KASE ASE20160707152511107/07/16 15:25:31  5-MIN KASE 072225Z VRB06G15KT 10SM CLR 25/00 A3024 7550 19 10400 VRB/06G15 RMK AO2 T02500000
93073KASE ASE20160707153010507/07/16 15:30:31  5-MIN KASE 072230Z VRB04KT 10SM CLR 26/01 A3024 7550 18 10500 VRB/04 RMK AO2 T02610006
93073KASE ASE20160707153510807/07/16 15:35:31  5-MIN KASE 072235Z VRB06KT 10SM FEW110 27/01 A3024 7550 18 10600 VRB/06 RMK AO2 T02670006
93073KASE ASE20160707154011407/07/16 15:40:31  5-MIN KASE 072240Z 34009G14KT 10SM FEW110 27/01 A3024 7550 18 10600 330/09G14 RMK AO2 T02670006
93073KASE ASE20160707154511407/07/16 15:45:31  5-MIN KASE 072245Z 34008G14KT 10SM FEW110 27/01 A3023 7550 18 10600 330/08G14 RMK AO2 T02670006
93073KASE ASE20160707155012107/07/16 15:50:31  5-MIN KASE 072250Z 33007G16KT 10SM FEW110 27/01 A3023 7550 18 10600 320/07G16 RMK AO2 SLP108 T02670006
93073KASE ASE20160707155511407/07/16 15:55:31  5-MIN KASE 072255Z 34012G18KT 10SM FEW110 27/01 A3023 7550 18 10600 330/12G18 RMK AO2 T02670006
93073KASE ASE20160707160013007/07/16 16:00:31  5-MIN KASE 072300Z 31009G18KT 270V350 10SM FEW110 26/01 A3024 7550 19 10400 310/09G18 260V340 RMK AO2 T02560006
93073KASE ASE20160707160510507/07/16 16:05:31  5-MIN KASE 072305Z 33008KT 10SM CLR 26/00 A3024 7550 18 10400 320/08 RMK AO2 T02560000
93073KASE ASE20160707161011107/07/16 16:10:31  5-MIN KASE 072310Z 35011G15KT 10SM CLR 26/00 A3023 7550 18 10400 340/11G15 RMK AO2 T02560000
93073KASE ASE20160707161510507/07/16 16:15:31  5-MIN KASE 072315Z 34009KT 10SM CLR 26/00 A3023 7550 18 10500 330/09 RMK AO2 T02610000
93073KASE ASE20160707162010507/07/16 16:20:31  5-MIN KASE 072320Z 34007KT 10SM CLR 27/01 A3023 7550 18 10600 330/07 RMK AO2 T02670006
93073KASE ASE20160707162510507/07/16 16:25:31  5-MIN KASE 072325Z 33008KT 10SM CLR 27/01 A3023 7550 18 10600 320/08 RMK AO2 T02670006
93073KASE ASE20160707163012107/07/16 16:30:31  5-MIN KASE 072330Z 34009KT 310V010 10SM CLR 27/01 A3023 7560 18 10600 330/09 300V360 RMK AO2 T02670006
93073KASE ASE20160707163511107/07/16 16:35:31  5-MIN KASE 072335Z 33010G17KT 10SM CLR 26/01 A3023 7560 18 10500 320/10G17 RMK AO2 T02610006
93073KASE ASE20160707164011107/07/16 16:40:31  5-MIN KASE 072340Z 34010G17KT 10SM CLR 27/01 A3023 7560 18 10600 330/10G17 RMK AO2 T02670006
93073KASE ASE20160707164511107/07/16 16:45:31  5-MIN KASE 072345Z 33013G17KT 10SM CLR 26/01 A3023 7560 18 10500 320/13G17 RMK AO2 T02610006
93073KASE ASE20160707165013007/07/16 16:50:31  5-MIN KASE 072350Z 34010KT 10SM CLR 26/01 A3023 7550 19 10400 330/10 RMK AO2 SLP111 T02560006 10272 20244 58001
93073KASE ASE20160707165510507/07/16 16:55:31  5-MIN KASE 072355Z 35009KT 10SM CLR 25/01 A3023 7560 20 10400 340/09 RMK AO2 T02500006
93073KASE ASE20160707170010507/07/16 17:00:31  5-MIN KASE 080000Z 33007KT 10SM CLR 24/01 A3023 7560 20 10300 330/07 RMK AO2 T02440006
93073KASE ASE20160707170510507/07/16 17:05:31  5-MIN KASE 080005Z 35007KT 10SM CLR 26/01 A3023 7560 19 10500 340/07 RMK AO2 T02560006
93073KASE ASE20160707171010507/07/16 17:10:31  5-MIN KASE 080010Z 35009KT 10SM CLR 26/01 A3023 7560 18 10500 350/09 RMK AO2 T02610006
93073KASE ASE20160707171510507/07/16 17:15:31  5-MIN KASE 080015Z 34005KT 10SM CLR 26/01 A3023 7560 19 10500 330/05 RMK AO2 T02560006
93073KASE ASE20160707172011107/07/16 17:20:31  5-MIN KASE 080020Z 33010G14KT 10SM CLR 26/02 A3023 7560 20 10500 320/10G14 RMK AO2 T02610017
93073KASE ASE20160707172511107/07/16 17:25:31  5-MIN KASE 080025Z 33009G14KT 10SM CLR 26/00 A3023 7560 18 10400 330/09G14 RMK AO2 T02560000
93073KASE ASE20160707173010507/07/16 17:30:31  5-MIN KASE 080030Z 34010KT 10SM CLR 25/00 A3023 7560 19 10400 330/10 RMK AO2 T02500000
93073KASE ASE20160707173510607/07/16 17:35:31  5-MIN KASE 080035Z 34009KT 10SM CLR 25/M01 A3023 7560 18 10400 330/09 RMK AO2 T02501006
93073KASE ASE20160707174010507/07/16 17:40:31  5-MIN KASE 080040Z 35008KT 10SM CLR 26/00 A3023 7560 18 10400 340/08 RMK AO2 T02560000
93073KASE ASE20160707174510607/07/16 17:45:31  5-MIN KASE 080045Z 34009KT 10SM CLR 26/M01 A3023 7560 17 10500 330/09 RMK AO2 T02561006
93073KASE ASE20160707175011207/07/16 17:50:31  5-MIN KASE 080050Z 34009KT 10SM CLR 26/00 A3023 7550 18 10400 330/09 RMK AO2 SLP108 T02560000
93073KASE ASE20160707175510507/07/16 17:55:31  5-MIN KASE 080055Z 33009KT 10SM CLR 26/00 A3023 7550 18 10400 330/09 RMK AO2 T02560000
93073KASE ASE20160707180010507/07/16 18:00:31  5-MIN KASE 080100Z 35007KT 10SM CLR 25/00 A3023 7550 19 10400 340/07 RMK AO2 T02500000
93073KASE ASE20160707180510507/07/16 18:05:31  5-MIN KASE 080105Z 34008KT 10SM CLR 25/00 A3023 7550 19 10400 330/08 RMK AO2 T02500000
93073KASE ASE20160707181010507/07/16 18:10:31  5-MIN KASE 080110Z 33007KT 10SM CLR 25/01 A3024 7550 20 10400 320/07 RMK AO2 T02500006
93073KASE ASE20160707181510507/07/16 18:15:31  5-MIN KASE 080115Z 33006KT 10SM CLR 25/01 A3024 7550 20 10400 320/06 RMK AO2 T02500011
93073KASE ASE20160707182010507/07/16 18:20:31  5-MIN KASE 080120Z 34005KT 10SM CLR 24/01 A3024 7550 21 10300 330/05 RMK AO2 T02440011
93073KASE ASE20160707182510507/07/16 18:25:31  5-MIN KASE 080125Z 34005KT 10SM CLR 24/01 A3024 7550 20 10300 330/05 RMK AO2 T02440006
93073KASE ASE20160707183010507/07/16 18:30:31  5-MIN KASE 080130Z 32008KT 10SM CLR 24/01 A3024 7550 21 10300 310/08 RMK AO2 T02440011
93073KASE ASE20160707183510507/07/16 18:35:31  5-MIN KASE 080135Z 29004KT 10SM CLR 23/01 A3024 7550 22 10200 280/04 RMK AO2 T02330006
93073KASE ASE20160707184010507/07/16 18:40:31  5-MIN KASE 080140Z 27003KT 10SM CLR 21/03 A3024 7550 29 10000 260/03 RMK AO2 T02110028
93073KASE ASE20160707184510907/07/16 18:45:31  5-MIN KASE 080145Z AUTO 00000KT 10SM CLR 20/03 A3024 7540 31 9800 000/00 RMK AO2 T02000028
93073KASE ASE20160707185011907/07/16 18:50:31  5-MIN KASE 080150Z AUTO 24003KT 10SM FEW120 19/03 A3024 7540 34 9800 230/03 RMK AO2 SLP117 T01940033
93073KASE ASE20160707185511207/07/16 18:55:31  5-MIN KASE 080155Z AUTO 23004KT 10SM FEW120 19/04 A3024 7550 38 9700 220/04 RMK AO2 T01890044
93073KASE ASE20160707190011207/07/16 19:00:31  5-MIN KASE 080200Z AUTO 24004KT 10SM FEW110 19/05 A3024 7550 39 9700 230/04 RMK AO2 T01890050
93073KASE ASE20160707190511207/07/16 19:05:31  5-MIN KASE 080205Z AUTO 00000KT 10SM FEW110 19/04 A3024 7540 37 9800 000/00 RMK AO2 T01940044
93073KASE ASE20160707191011207/07/16 19:10:31  5-MIN KASE 080210Z AUTO 18006KT 10SM FEW110 19/06 A3025 7540 43 9700 170/06 RMK AO2 T01890061
93073KASE ASE20160707191511207/07/16 19:15:31  5-MIN KASE 080215Z AUTO 18007KT 10SM FEW110 19/06 A3025 7540 43 9700 170/07 RMK AO2 T01890061
93073KASE ASE20160707192011207/07/16 19:20:31  5-MIN KASE 080220Z AUTO 18005KT 10SM FEW110 19/06 A3025 7540 40 9800 170/05 RMK AO2 T01940056
93073KASE ASE20160707192511207/07/16 19:25:31  5-MIN KASE 080225Z AUTO 19007KT 10SM FEW110 19/05 A3025 7540 39 9700 180/07 RMK AO2 T01890050
93073KASE ASE20160707193010907/07/16 19:30:31  5-MIN KASE 080230Z AUTO 22007KT 10SM CLR 18/04 A3025 7530 39 9600 210/07 RMK AO2 T01830044
93073KASE ASE20160707193510907/07/16 19:35:31  5-MIN KASE 080235Z AUTO 19007KT 10SM CLR 18/04 A3026 7530 39 9600 180/07 RMK AO2 T01830044
93073KASE ASE20160707194010907/07/16 19:40:31  5-MIN KASE 080240Z AUTO 20007KT 10SM CLR 18/04 A3026 7530 41 9600 190/07 RMK AO2 T01780044
93073KASE ASE20160707194511207/07/16 19:45:31  5-MIN KASE 080245Z AUTO 20007KT 10SM FEW120 18/04 A3026 7530 38 9600 190/07 RMK AO2 T01830039
93073KASE ASE20160707195012507/07/16 19:50:31  5-MIN KASE 080250Z AUTO 20007KT 10SM FEW120 17/04 A3026 7530 42 9500 190/07 RMK AO2 SLP122 T01720044 56004
93073KASE ASE20160707195510907/07/16 19:55:31  5-MIN KASE 080255Z AUTO 21008KT 10SM CLR 17/04 A3026 7530 44 9500 200/08 RMK AO2 T01670044
93073KASE ASE20160707200011207/07/16 20:00:31  5-MIN KASE 080300Z AUTO 20009KT 10SM FEW120 17/04 A3026 7530 42 9500 190/09 RMK AO2 T01670039
93073KASE ASE20160707200511207/07/16 20:05:31  5-MIN KASE 080305Z AUTO 19009KT 10SM FEW120 17/04 A3026 7530 42 9500 180/09 RMK AO2 T01670039
93073KASE ASE20160707201011207/07/16 20:10:31  5-MIN KASE 080310Z AUTO 19009KT 10SM FEW120 16/04 A3026 7520 44 9400 190/09 RMK AO2 T01610039
93073KASE ASE20160707201511207/07/16 20:15:31  5-MIN KASE 080315Z AUTO 20008KT 10SM FEW120 16/04 A3027 7520 45 9300 190/08 RMK AO2 T01560039
93073KASE ASE20160707202011207/07/16 20:20:31  5-MIN KASE 080320Z AUTO 21009KT 10SM FEW120 15/04 A3027 7520 47 9300 200/09 RMK AO2 T01500039
93073KASE ASE20160707202511707/07/16 20:25:31  5-MIN KASE 080325Z AUTO 22010KT 10SM FEW120 15/03 A3027 7520 45 9300 210/10 RMK AO2 T01500033 TSNO
93073KASE ASE20160707203011407/07/16 20:30:31  5-MIN KASE 080330Z AUTO 22008KT 10SM CLR 15/03 A3027 7520 45 9300 210/08 RMK AO2 T01500033 TSNO
93073KASE ASE20160707203510907/07/16 20:35:31  5-MIN KASE 080335Z AUTO 21008KT 10SM CLR 15/03 A3027 7520 45 9300 200/08 RMK AO2 T01500033
93073KASE ASE20160707204010907/07/16 20:40:31  5-MIN KASE 080340Z AUTO 21008KT 10SM CLR 16/03 A3027 7520 42 9300 200/08 RMK AO2 T01560028
93073KASE ASE20160707204510907/07/16 20:45:31  5-MIN KASE 080345Z AUTO 20007KT 10SM CLR 16/02 A3028 7510 40 9300 190/07 RMK AO2 T01560022
93073KASE ASE20160707205011607/07/16 20:50:31  5-MIN KASE 080350Z AUTO 21008KT 10SM CLR 16/02 A3028 7510 40 9300 200/08 RMK AO2 SLP124 T01560022
93073KASE ASE20160707205510907/07/16 20:55:31  5-MIN KASE 080355Z AUTO 21008KT 10SM CLR 16/02 A3028 7510 39 9300 210/08 RMK AO2 T01560017
93073KASE ASE20160707210010907/07/16 21:00:31  5-MIN KASE 080400Z AUTO 21008KT 10SM CLR 16/02 A3028 7510 39 9300 210/08 RMK AO2 T01560017
93073KASE ASE20160707210510907/07/16 21:05:31  5-MIN KASE 080405Z AUTO 21008KT 10SM CLR 16/02 A3028 7510 39 9300 200/08 RMK AO2 T01560017
93073KASE ASE20160707211010907/07/16 21:10:31  5-MIN KASE 080410Z AUTO 21008KT 10SM CLR 15/02 A3028 7510 40 9200 200/08 RMK AO2 T01500017
93073KASE ASE20160707211510907/07/16 21:15:31  5-MIN KASE 080415Z AUTO 21008KT 10SM CLR 16/01 A3028 7510 37 9300 200/08 RMK AO2 T01560011
93073KASE ASE20160707212010907/07/16 21:20:31  5-MIN KASE 080420Z AUTO 21008KT 10SM CLR 15/02 A3028 7510 40 9200 200/08 RMK AO2 T01500017
93073KASE ASE20160707212510907/07/16 21:25:31  5-MIN KASE 080425Z AUTO 21008KT 10SM CLR 14/02 A3028 7510 41 9200 200/08 RMK AO2 T01440017
93073KASE ASE20160707213010907/07/16 21:30:31  5-MIN KASE 080430Z AUTO 21007KT 10SM CLR 15/01 A3029 7510 38 9200 200/07 RMK AO2 T01500011
93073KASE ASE20160707213510907/07/16 21:35:31  5-MIN KASE 080435Z AUTO 20007KT 10SM CLR 16/01 A3029 7510 37 9300 190/07 RMK AO2 T01560011
93073KASE ASE20160707214010907/07/16 21:40:31  5-MIN KASE 080440Z AUTO 22008KT 10SM CLR 16/01 A3029 7500 37 9300 210/08 RMK AO2 T01560011
93073KASE ASE20160707214511207/07/16 21:45:31  5-MIN KASE 080445Z AUTO 21007KT 10SM FEW110 15/01 A3029 7500 38 9200 200/07 RMK AO2 T01500011
93073KASE ASE20160707215011907/07/16 21:50:31  5-MIN KASE 080450Z AUTO 22009KT 10SM FEW110 14/02 A3028 7510 43 9100 210/09 RMK AO2 SLP125 T01390017
93073KASE ASE20160707215511207/07/16 21:55:31  5-MIN KASE 080455Z AUTO 21007KT 10SM FEW110 14/02 A3028 7510 43 9100 200/07 RMK AO2 T01390017
93073KASE ASE20160707220011207/07/16 22:00:31  5-MIN KASE 080500Z AUTO 21008KT 10SM FEW110 14/01 A3028 7510 40 9200 200/08 RMK AO2 T01440011
93073KASE ASE20160707220511207/07/16 22:05:31  5-MIN KASE 080505Z AUTO 22008KT 10SM FEW110 15/01 A3028 7510 37 9200 210/08 RMK AO2 T01500006
93073KASE ASE20160707221011207/07/16 22:10:31  5-MIN KASE 080510Z AUTO 20006KT 10SM FEW110 14/01 A3029 7500 40 9200 190/06 RMK AO2 T01440011
93073KASE ASE20160707221511207/07/16 22:15:31  5-MIN KASE 080515Z AUTO 20007KT 10SM FEW110 13/02 A3029 7500 45 9100 190/07 RMK AO2 T01330017
93073KASE ASE20160707222011207/07/16 22:20:31  5-MIN KASE 080520Z AUTO 21008KT 10SM FEW110 13/01 A3028 7510 44 9000 200/08 RMK AO2 T01280011
93073KASE ASE20160707222511207/07/16 22:25:31  5-MIN KASE 080525Z AUTO 21008KT 10SM FEW110 13/01 A3029 7500 43 9100 200/08 RMK AO2 T01330011
93073KASE ASE20160707223010907/07/16 22:30:31  5-MIN KASE 080530Z AUTO 21007KT 10SM CLR 13/01 A3029 7500 43 9100 200/07 RMK AO2 T01330011
93073KASE ASE20160707223510907/07/16 22:35:31  5-MIN KASE 080535Z AUTO 21009KT 10SM CLR 13/02 A3029 7500 45 9100 200/09 RMK AO2 T01330017
93073KASE ASE20160707224011207/07/16 22:40:31  5-MIN KASE 080540Z AUTO 21007KT 10SM FEW110 14/01 A3029 7500 41 9100 200/07 RMK AO2 T01390011
93073KASE ASE20160707224511207/07/16 22:45:31  5-MIN KASE 080545Z AUTO 21006KT 10SM FEW110 13/01 A3029 7500 43 9100 200/06 RMK AO2 T01330011
93073KASE ASE20160707225013707/07/16 22:50:31  5-MIN KASE 080550Z AUTO 20006KT 10SM FEW110 13/01 A3029 7500 43 9100 190/06 RMK AO2 SLP127 T01330011 10261 20128 53008
93073KASE ASE20160707225511207/07/16 22:55:31  5-MIN KASE 080555Z AUTO 21005KT 10SM SCT110 13/01 A3029 7500 43 9100 200/05 RMK AO2 T01330011
93073KASE ASE20160707230011207/07/16 23:00:31  5-MIN KASE 080600Z AUTO 20005KT 10SM BKN110 14/01 A3029 7500 41 9100 190/05 RMK AO2 T01390011
93073KASE ASE20160707230511207/07/16 23:05:31  5-MIN KASE 080605Z AUTO 18005KT 10SM SCT110 13/01 A3028 7510 43 9100 170/05 RMK AO2 T01330011
93073KASE ASE20160707231011207/07/16 23:10:31  5-MIN KASE 080610Z AUTO 22009KT 10SM SCT110 13/02 A3028 7510 46 9000 210/09 RMK AO2 T01280017
93073KASE ASE20160707231511207/07/16 23:15:31  5-MIN KASE 080615Z AUTO 20005KT 10SM SCT110 13/01 A3028 7510 43 9100 190/05 RMK AO2 T01330011
93073KASE ASE20160707232011207/07/16 23:20:31  5-MIN KASE 080620Z AUTO 20006KT 10SM SCT110 13/02 A3028 7510 45 9100 190/06 RMK AO2 T01330017
93073KASE ASE20160707232511207/07/16 23:25:31  5-MIN KASE 080625Z AUTO 20007KT 10SM SCT110 13/02 A3028 7510 45 9100 190/07 RMK AO2 T01330017
93073KASE ASE20160707233011207/07/16 23:30:31  5-MIN KASE 080630Z AUTO 20006KT 10SM SCT110 13/02 A3028 7510 45 9100 190/06 RMK AO2 T01330017
93073KASE ASE20160707233511207/07/16 23:35:31  5-MIN KASE 080635Z AUTO 22008KT 10SM BKN110 13/02 A3028 7510 46 9000 210/08 RMK AO2 T01280017
93073KASE ASE20160707234011207/07/16 23:40:31  5-MIN KASE 080640Z AUTO 21007KT 10SM BKN110 13/02 A3028 7510 46 9000 200/07 RMK AO2 T01280017
93073KASE ASE20160707234511207/07/16 23:45:31  5-MIN KASE 080645Z AUTO 20005KT 10SM BKN110 13/02 A3028 7510 45 9100 190/05 RMK AO2 T01330017
93073KASE ASE20160707235012907/07/16 23:50:31  5-MIN KASE 080650Z AUTO 19005KT 10SM BKN110 13/02 A3028 7510 45 9100 180/05 RMK AO2 SLP121 T01330017 402720083
93073KASE ASE20160707235511207/07/16 23:55:31  5-MIN KASE 080655Z AUTO 22008KT 10SM BKN110 13/02 A3028 7510 45 9100 210/08 RMK AO2 T01330017
93073KASE ASE20160708000011207/08/16 00:00:31  5-MIN KASE 080700Z AUTO 21007KT 10SM BKN110 13/02 A3028 7510 45 9100 200/07 RMK AO2 T01330017
93073KASE ASE20160708000511207/08/16 00:05:31  5-MIN KASE 080705Z AUTO 20007KT 10SM BKN110 13/02 A3028 7510 45 9100 190/07 RMK AO2 T01330017
93073KASE ASE20160708001011207/08/16 00:10:31  5-MIN KASE 080710Z AUTO 22008KT 10SM BKN110 13/02 A3028 7510 46 9000 210/08 RMK AO2 T01280017
93073KASE ASE20160708001511207/08/16 00:15:31  5-MIN KASE 080715Z AUTO 20005KT 10SM BKN110 13/02 A3028 7510 45 9100 190/05 RMK AO2 T01330017
93073KASE ASE20160708002011207/08/16 00:20:31  5-MIN KASE 080720Z AUTO 21009KT 10SM SCT110 12/02 A3028 7510 52 8900 200/09 RMK AO2 T01170022
93073KASE ASE20160708002511207/08/16 00:25:31  5-MIN KASE 080725Z AUTO 21007KT 10SM SCT110 12/02 A3028 7510 50 8900 200/07 RMK AO2 T01220022
93073KASE ASE20160708003011207/08/16 00:30:31  5-MIN KASE 080730Z AUTO 21007KT 10SM SCT110 12/02 A3028 7510 50 8900 200/07 RMK AO2 T01170017
93073KASE ASE20160708003511207/08/16 00:35:31  5-MIN KASE 080735Z AUTO 20006KT 10SM FEW110 13/02 A3027 7520 46 9000 190/06 RMK AO2 T01280017
93073KASE ASE20160708004011207/08/16 00:40:31  5-MIN KASE 080740Z AUTO 20005KT 10SM FEW110 12/02 A3027 7520 48 8900 190/05 RMK AO2 T01220017
93073KASE ASE20160708004511207/08/16 00:45:31  5-MIN KASE 080745Z AUTO 20005KT 10SM FEW110 12/02 A3027 7520 52 8900 190/05 RMK AO2 T01170022
93073KASE ASE20160708005011907/08/16 00:50:31  5-MIN KASE 080750Z AUTO 19006KT 10SM FEW110 12/02 A3027 7520 50 8900 180/06 RMK AO2 SLP118 T01170017
93073KASE ASE20160708005510907/08/16 00:55:31  5-MIN KASE 080755Z AUTO 21005KT 10SM CLR 12/02 A3027 7520 50 8900 200/05 RMK AO2 T01170017
93073KASE ASE20160708010010907/08/16 01:00:31  5-MIN KASE 080800Z AUTO 21005KT 10SM CLR 12/02 A3027 7520 50 8900 200/05 RMK AO2 T01170017
93073KASE ASE20160708010510907/08/16 01:05:31  5-MIN KASE 080805Z AUTO 21006KT 10SM CLR 11/02 A3027 7520 54 8800 200/06 RMK AO2 T01110022
93073KASE ASE20160708011010907/08/16 01:10:31  5-MIN KASE 080810Z AUTO 21006KT 10SM CLR 11/02 A3027 7520 52 8800 200/06 RMK AO2 T01110017
93073KASE ASE20160708011511207/08/16 01:15:31  5-MIN KASE 080815Z AUTO 21006KT 10SM FEW110 11/02 A3027 7520 56 8800 200/06 RMK AO2 T01060022
93073KASE ASE20160708012011207/08/16 01:20:31  5-MIN KASE 080820Z AUTO 21008KT 10SM FEW110 11/02 A3027 7520 56 8800 200/08 RMK AO2 T01060022
93073KASE ASE20160708012511207/08/16 01:25:31  5-MIN KASE 080825Z AUTO 20007KT 10SM FEW110 11/02 A3027 7520 52 8800 200/07 RMK AO2 T01110017
93073KASE ASE20160708013011207/08/16 01:30:31  5-MIN KASE 080830Z AUTO 20007KT 10SM SCT110 11/02 A3027 7520 54 8800 190/07 RMK AO2 T01110022
93073KASE ASE20160708013511207/08/16 01:35:31  5-MIN KASE 080835Z AUTO 21006KT 10SM SCT110 11/02 A3027 7520 56 8800 200/06 RMK AO2 T01060022
93073KASE ASE20160708014011207/08/16 01:40:31  5-MIN KASE 080840Z AUTO 21008KT 10SM BKN110 11/02 A3027 7520 54 8800 200/08 RMK AO2 T01110022
93073KASE ASE20160708014511207/08/16 01:45:31  5-MIN KASE 080845Z AUTO 20006KT 10SM BKN110 12/02 A3027 7520 50 8900 190/06 RMK AO2 T01170017
93073KASE ASE20160708015012507/08/16 01:50:31  5-MIN KASE 080850Z AUTO 20005KT 10SM BKN110 11/02 A3027 7520 54 8800 190/05 RMK AO2 SLP123 T01110022 51008
93073KASE ASE20160708015511207/08/16 01:55:31  5-MIN KASE 080855Z AUTO 21005KT 10SM BKN110 12/02 A3027 7510 52 8900 200/05 RMK AO2 T01170022
93073KASE ASE20160708020011207/08/16 02:00:31  5-MIN KASE 080900Z AUTO 21008KT 10SM OVC110 11/02 A3028 7510 54 8800 200/08 RMK AO2 T01110022
93073KASE ASE20160708020511207/08/16 02:05:31  5-MIN KASE 080905Z AUTO 22008KT 10SM OVC110 12/02 A3028 7510 52 8900 210/08 RMK AO2 T01170022
93073KASE ASE20160708021011207/08/16 02:10:31  5-MIN KASE 080910Z AUTO 22006KT 10SM OVC110 12/02 A3028 7510 52 8900 210/06 RMK AO2 T01170022
93073KASE ASE20160708021511207/08/16 02:15:31  5-MIN KASE 080915Z AUTO VRB04KT 10SM OVC110 12/03 A3027 7520 54 8900 VRB/04 RMK AO2 T01170028
93073KASE ASE20160708022011207/08/16 02:20:31  5-MIN KASE 080920Z AUTO 20004KT 10SM BKN110 12/02 A3027 7520 52 8900 200/04 RMK AO2 T01170022
93073KASE ASE20160708022511207/08/16 02:25:31  5-MIN KASE 080925Z AUTO 21003KT 10SM BKN110 11/03 A3027 7520 56 8800 200/03 RMK AO2 T01110028
93073KASE ASE20160708023011207/08/16 02:30:31  5-MIN KASE 080930Z AUTO 00000KT 10SM BKN110 11/03 A3027 7520 56 8800 000/00 RMK AO2 T01110028
93073KASE ASE20160708023511207/08/16 02:35:31  5-MIN KASE 080935Z AUTO 21006KT 10SM BKN110 11/03 A3027 7520 56 8800 200/06 RMK AO2 T01110028
93073KASE ASE20160708024011207/08/16 02:40:31  5-MIN KASE 080940Z AUTO 22005KT 10SM SCT110 11/02 A3027 7520 54 8800 220/05 RMK AO2 T01110022
93073KASE ASE20160708024511207/08/16 02:45:31  5-MIN KASE 080945Z AUTO 00000KT 10SM FEW110 11/03 A3028 7510 58 8800 000/00 RMK AO2 T01060028
93073KASE ASE20160708025011907/08/16 02:50:31  5-MIN KASE 080950Z AUTO 00000KT 10SM FEW110 10/03 A3028 7510 60 8700 000/00 RMK AO2 SLP126 T01000028
93073KASE ASE20160708025510907/08/16 02:55:31  5-MIN KASE 080955Z AUTO 21005KT 10SM CLR 10/03 A3028 7510 60 8700 200/05 RMK AO2 T01000028
93073KASE ASE20160708030010907/08/16 03:00:31  5-MIN KASE 081000Z AUTO 21005KT 10SM CLR 10/03 A3028 7510 60 8700 200/05 RMK AO2 T01000028
93073KASE ASE20160708030510907/08/16 03:05:31  5-MIN KASE 081005Z AUTO 21006KT 10SM CLR 10/03 A3028 7510 60 8700 200/06 RMK AO2 T01000028
93073KASE ASE20160708031010907/08/16 03:10:31  5-MIN KASE 081010Z AUTO 21007KT 10SM CLR 10/02 A3028 7510 58 8700 200/07 RMK AO2 T01000022
93073KASE ASE20160708031510907/08/16 03:15:31  5-MIN KASE 081015Z AUTO 20008KT 10SM CLR 10/02 A3028 7510 58 8700 190/08 RMK AO2 T01000022
93073KASE ASE20160708032010907/08/16 03:20:31  5-MIN KASE 081020Z AUTO 22008KT 10SM CLR 11/02 A3028 7510 56 8800 210/08 RMK AO2 T01060022
93073KASE ASE20160708032510907/08/16 03:25:31  5-MIN KASE 081025Z AUTO 21006KT 10SM CLR 11/02 A3028 7510 56 8800 200/06 RMK AO2 T01060022
93073KASE ASE20160708033010907/08/16 03:30:31  5-MIN KASE 081030Z AUTO 19005KT 10SM CLR 11/02 A3028 7510 56 8800 180/05 RMK AO2 T01060022
93073KASE ASE20160708033510907/08/16 03:35:31  5-MIN KASE 081035Z AUTO 21007KT 10SM CLR 09/02 A3028 7510 60 8600 200/07 RMK AO2 T00940022
93073KASE ASE20160708034010907/08/16 03:40:31  5-MIN KASE 081040Z AUTO 21004KT 10SM CLR 10/02 A3028 7510 56 8700 200/04 RMK AO2 T01000017
93073KASE ASE20160708034510907/08/16 03:45:31  5-MIN KASE 081045Z AUTO 20006KT 10SM CLR 10/02 A3029 7510 58 8700 190/06 RMK AO2 T01000022
93073KASE ASE20160708035011607/08/16 03:50:31  5-MIN KASE 081050Z AUTO 21007KT 10SM CLR 10/02 A3029 7500 56 8700 200/07 RMK AO2 SLP128 T01000017
93073KASE ASE20160708035510907/08/16 03:55:31  5-MIN KASE 081055Z AUTO 22008KT 10SM CLR 11/02 A3029 7500 54 8700 210/08 RMK AO2 T01060017
93073KASE ASE20160708040010907/08/16 04:00:31  5-MIN KASE 081100Z AUTO 21006KT 10SM CLR 11/02 A3029 7500 52 8800 200/06 RMK AO2 T01110017
93073KASE ASE20160708040510907/08/16 04:05:31  5-MIN KASE 081105Z AUTO 20006KT 10SM CLR 09/02 A3029 7500 60 8600 190/06 RMK AO2 T00940022
93073KASE ASE20160708041010907/08/16 04:10:31  5-MIN KASE 081110Z AUTO 22007KT 10SM CLR 09/02 A3029 7500 58 8600 210/07 RMK AO2 T00940017
93073KASE ASE20160708041510907/08/16 04:15:31  5-MIN KASE 081115Z AUTO 20007KT 10SM CLR 09/02 A3029 7500 58 8600 190/07 RMK AO2 T00940017
93073KASE ASE20160708042010907/08/16 04:20:31  5-MIN KASE 081120Z AUTO 21006KT 10SM CLR 10/02 A3029 7500 56 8700 200/06 RMK AO2 T01000017
93073KASE ASE20160708042510907/08/16 04:25:31  5-MIN KASE 081125Z AUTO 21009KT 10SM CLR 09/02 A3030 7490 58 8600 210/09 RMK AO2 T00940017
93073KASE ASE20160708043010907/08/16 04:30:31  5-MIN KASE 081130Z AUTO 19005KT 10SM CLR 10/02 A3030 7490 56 8700 180/05 RMK AO2 T01000017
93073KASE ASE20160708043510907/08/16 04:35:31  5-MIN KASE 081135Z AUTO 20008KT 10SM CLR 09/02 A3030 7490 58 8600 190/08 RMK AO2 T00940017
93073KASE ASE20160708044010907/08/16 04:40:31  5-MIN KASE 081140Z AUTO 20006KT 10SM CLR 09/02 A3030 7490 58 8600 190/06 RMK AO2 T00940017
93073KASE ASE20160708044510907/08/16 04:45:31  5-MIN KASE 081145Z AUTO 21009KT 10SM CLR 09/02 A3031 7490 58 8600 200/09 RMK AO2 T00940017
93073KASE ASE20160708045013407/08/16 04:50:31  5-MIN KASE 081150Z AUTO 20007KT 10SM CLR 09/02 A3031 7490 58 8600 200/07 RMK AO2 SLP139 T00940017 10139 20094 56004
93073KASE ASE20160708045510907/08/16 04:55:31  5-MIN KASE 081155Z AUTO 21006KT 10SM CLR 10/02 A3030 7490 56 8700 200/06 RMK AO2 T01000017
93073KASE ASE20160708050010907/08/16 05:00:31  5-MIN KASE 081200Z AUTO 19007KT 10SM CLR 10/02 A3031 7480 56 8700 190/07 RMK AO2 T01000017
93073KASE ASE20160708050510907/08/16 05:05:31  5-MIN KASE 081205Z AUTO 20006KT 10SM CLR 10/02 A3031 7480 56 8700 190/06 RMK AO2 T01000017
93073KASE ASE20160708051010907/08/16 05:10:31  5-MIN KASE 081210Z AUTO 22008KT 10SM CLR 09/02 A3031 7480 60 8500 210/08 RMK AO2 T00890017
93073KASE ASE20160708051510907/08/16 05:15:31  5-MIN KASE 081215Z AUTO 22007KT 10SM CLR 09/02 A3031 7480 60 8500 210/07 RMK AO2 T00890017
93073KASE ASE20160708052010907/08/16 05:20:31  5-MIN KASE 081220Z AUTO 22005KT 10SM CLR 10/01 A3032 7480 54 8600 210/05 RMK AO2 T01000011
93073KASE ASE20160708052510907/08/16 05:25:31  5-MIN KASE 081225Z AUTO 00000KT 10SM CLR 09/02 A3032 7480 58 8600 000/00 RMK AO2 T00940017
93073KASE ASE20160708053010907/08/16 05:30:31  5-MIN KASE 081230Z AUTO 00000KT 10SM CLR 09/02 A3032 7480 60 8500 000/00 RMK AO2 T00890017
93073KASE ASE20160708053510907/08/16 05:35:31  5-MIN KASE 081235Z AUTO 20006KT 10SM CLR 09/02 A3032 7470 63 8500 190/06 RMK AO2 T00890022
93073KASE ASE20160708054010907/08/16 05:40:31  5-MIN KASE 081240Z AUTO 21006KT 10SM CLR 10/02 A3032 7470 56 8600 200/06 RMK AO2 T01000017
93073KASE ASE20160708054510407/08/16 05:45:31  5-MIN KASE 081245Z 20005KT 10SM CLR 11/02 A3032 7480 56 8700 200/05 RMK AO2 T01060022
93073KASE ASE20160708055011107/08/16 05:50:31  5-MIN KASE 081250Z 20005KT 10SM CLR 12/02 A3032 7470 52 8800 190/05 RMK AO2 SLP138 T01170022
93073KASE ASE20160708055510407/08/16 05:55:31  5-MIN KASE 081255Z 20005KT 10SM CLR 12/03 A3032 7470 54 8800 190/05 RMK AO2 T01170028
93073KASE ASE20160708060010407/08/16 06:00:31  5-MIN KASE 081300Z 22006KT 10SM CLR 12/02 A3032 7470 50 8900 210/06 RMK AO2 T01220022
93073KASE ASE20160708060510407/08/16 06:05:31  5-MIN KASE 081305Z 21007KT 10SM CLR 13/02 A3032 7470 48 9000 200/07 RMK AO2 T01280022
93073KASE ASE20160708061010407/08/16 06:10:31  5-MIN KASE 081310Z 21007KT 10SM CLR 13/02 A3032 7470 46 9000 200/07 RMK AO2 T01330022
93073KASE ASE20160708061510407/08/16 06:15:31  5-MIN KASE 081315Z 19008KT 10SM CLR 14/02 A3032 7470 43 9100 190/08 RMK AO2 T01390017
93073KASE ASE20160708062010407/08/16 06:20:31  5-MIN KASE 081320Z 18008KT 10SM CLR 14/02 A3033 7470 41 9100 170/08 RMK AO2 T01440017
93073KASE ASE20160708062510407/08/16 06:25:31  5-MIN KASE 081325Z 18008KT 10SM CLR 14/01 A3033 7470 40 9100 170/08 RMK AO2 T01440011
93073KASE ASE20160708063010407/08/16 06:30:31  5-MIN KASE 081330Z 16008KT 10SM CLR 15/01 A3033 7470 38 9200 150/08 RMK AO2 T01500011
93073KASE ASE20160708063510407/08/16 06:35:31  5-MIN KASE 081335Z 16007KT 10SM CLR 15/01 A3033 7470 38 9200 160/07 RMK AO2 T01500011
93073KASE ASE20160708064010407/08/16 06:40:31  5-MIN KASE 081340Z 16006KT 10SM CLR 15/01 A3033 7470 38 9200 150/06 RMK AO2 T01500011
93073KASE ASE20160708064510407/08/16 06:45:31  5-MIN KASE 081345Z 17006KT 10SM CLR 16/02 A3032 7470 39 9300 160/06 RMK AO2 T01560017
93073KASE ASE20160708065011107/08/16 06:50:31  5-MIN KASE 081350Z 15004KT 10SM CLR 16/01 A3032 7470 37 9300 150/04 RMK AO2 SLP144 T01560011
93073KASE ASE20160708065510407/08/16 06:55:31  5-MIN KASE 081355Z 11004KT 10SM CLR 16/02 A3032 7470 37 9300 100/04 RMK AO2 T01610017
93073KASE ASE20160708070010407/08/16 07:00:31  5-MIN KASE 081400Z 11004KT 10SM CLR 16/03 A3032 7470 42 9300 100/04 RMK AO2 T01560028
93073KASE ASE20160708070510407/08/16 07:05:31  5-MIN KASE 081405Z 09003KT 10SM CLR 16/03 A3032 7470 42 9300 080/03 RMK AO2 T01560028
93073KASE ASE20160708071010407/08/16 07:10:31  5-MIN KASE 081410Z VRB03KT 10SM CLR 16/03 A3033 7470 40 9300 VRB/03 RMK AO2 T01610028
93073KASE ASE20160708071510407/08/16 07:15:31  5-MIN KASE 081415Z 00000KT 10SM CLR 16/03 A3033 7470 40 9300 000/00 RMK AO2 T01610028
93073KASE ASE20160708072010407/08/16 07:20:31  5-MIN KASE 081420Z 13003KT 10SM CLR 17/03 A3033 7470 39 9400 120/03 RMK AO2 T01670028
93073KASE ASE20160708072510407/08/16 07:25:31  5-MIN KASE 081425Z 10003KT 10SM CLR 17/03 A3033 7470 40 9400 090/03 RMK AO2 T01670033
93073KASE ASE20160708073010407/08/16 07:30:31  5-MIN KASE 081430Z 00000KT 10SM CLR 17/04 A3033 7470 42 9400 000/00 RMK AO2 T01670039
93073KASE ASE20160708073510407/08/16 07:35:31  5-MIN KASE 081435Z 00000KT 10SM CLR 18/03 A3033 7470 38 9500 000/00 RMK AO2 T01780033
93073KASE ASE20160708074010407/08/16 07:40:31  5-MIN KASE 081440Z 00000KT 10SM CLR 17/03 A3033 7460 37 9400 000/00 RMK AO2 T01720028
93073KASE ASE20160708074510407/08/16 07:45:31  5-MIN KASE 081445Z 00000KT 10SM CLR 17/03 A3033 7470 37 9400 000/00 RMK AO2 T01720028
93073KASE ASE20160708075011707/08/16 07:50:31  5-MIN KASE 081450Z 00000KT 10SM CLR 18/03 A3033 7470 35 9600 000/00 RMK AO2 SLP145 T01830028 53009
93073KASE ASE20160708075510407/08/16 07:55:31  5-MIN KASE 081455Z 25003KT 10SM CLR 18/03 A3033 7470 36 9600 250/03 RMK AO2 T01830033
93073KASE ASE20160708080010407/08/16 08:00:31  5-MIN KASE 081500Z 00000KT 10SM CLR 19/03 A3033 7470 35 9600 000/00 RMK AO2 T01890033
93073KASE ASE20160708080510407/08/16 08:05:31  5-MIN KASE 081505Z 00000KT 10SM CLR 19/03 A3033 7470 33 9700 000/00 RMK AO2 T01940028
93073KASE ASE20160708081010407/08/16 08:10:31  5-MIN KASE 081510Z 00000KT 10SM CLR 19/03 A3033 7470 34 9700 000/00 RMK AO2 T01940033
93073KASE ASE20160708081510407/08/16 08:15:31  5-MIN KASE 081515Z VRB03KT 10SM CLR 20/03 A3033 7470 33 9700 VRB/03 RMK AO2 T02000033
93073KASE ASE20160708082010407/08/16 08:20:31  5-MIN KASE 081520Z 00000KT 10SM CLR 21/04 A3032 7470 33 9800 000/00 RMK AO2 T02060039
93073KASE ASE20160708082510407/08/16 08:25:31  5-MIN KASE 081525Z 00000KT 10SM CLR 21/04 A3032 7470 33 9800 000/00 RMK AO2 T02060039
93073KASE ASE20160708083010407/08/16 08:30:31  5-MIN KASE 081530Z VRB03KT 10SM CLR 21/03 A3032 7470 30 9900 VRB/03 RMK AO2 T02110033
93073KASE ASE20160708083510407/08/16 08:35:31  5-MIN KASE 081535Z VRB04KT 10SM CLR 21/03 A3032 7470 29 9900 VRB/04 RMK AO2 T02110028
93073KASE ASE20160708084010407/08/16 08:40:31  5-MIN KASE 081540Z 36003KT 10SM CLR 21/02 A3032 7470 28 9900 350/03 RMK AO2 T02110022
93073KASE ASE20160708084510407/08/16 08:45:31  5-MIN KASE 081545Z VRB04KT 10SM CLR 22/03 A3032 7470 28 9900 VRB/04 RMK AO2 T02170028
93073KASE ASE20160708085011107/08/16 08:50:31  5-MIN KASE 081550Z 00000KT 10SM CLR 22/03 A3032 7470 28 9900 000/00 RMK AO2 SLP138 T02170028
93073KASE ASE20160708085510507/08/16 08:55:31  5-MIN KASE 081555Z 01005KT 10SM CLR 22/02 A3032 7470 26 10000 360/05 RMK AO2 T02220022
93073KASE ASE20160708090010507/08/16 09:00:31  5-MIN KASE 081600Z 35005KT 10SM CLR 22/03 A3032 7470 28 10000 340/05 RMK AO2 T02220033
93073KASE ASE20160708090510507/08/16 09:05:31  5-MIN KASE 081605Z 03004KT 10SM CLR 23/03 A3032 7470 27 10000 020/04 RMK AO2 T02280033
93073KASE ASE20160708091010507/08/16 09:10:31  5-MIN KASE 081610Z 01006KT 10SM CLR 23/03 A3032 7470 27 10000 360/06 RMK AO2 T02280033
93073KASE ASE20160708091510507/08/16 09:15:31  5-MIN KASE 081615Z 01006KT 10SM CLR 23/04 A3032 7470 29 10000 360/06 RMK AO2 T02280039
93073KASE ASE20160708092010507/08/16 09:20:31  5-MIN KASE 081620Z 36006KT 10SM CLR 23/03 A3032 7470 26 10100 350/06 RMK AO2 T02330033
93073KASE ASE20160708092510507/08/16 09:25:31  5-MIN KASE 081625Z 35006KT 10SM CLR 23/02 A3032 7470 24 10100 350/06 RMK AO2 T02330022
93073KASE ASE20160708093010507/08/16 09:30:31  5-MIN KASE 081630Z 34006KT 10SM CLR 24/03 A3032 7470 26 10200 330/06 RMK AO2 T02390033
93073KASE ASE20160708093510507/08/16 09:35:31  5-MIN KASE 081635Z 36005KT 10SM CLR 24/02 A3032 7470 24 10200 350/05 RMK AO2 T02390022
93073KASE ASE20160708094010507/08/16 09:40:31  5-MIN KASE 081640Z 01004KT 10SM CLR 24/02 A3032 7470 24 10200 360/04 RMK AO2 T02390022
93073KASE ASE20160708094510507/08/16 09:45:31  5-MIN KASE 081645Z 01005KT 10SM CLR 24/03 A3033 7470 24 10200 360/05 RMK AO2 T02440028
93073KASE ASE20160708095011207/08/16 09:50:31  5-MIN KASE 081650Z 35006KT 10SM CLR 24/03 A3033 7470 25 10200 340/06 RMK AO2 SLP136 T02440033
93073KASE ASE20160708095510507/08/16 09:55:31  5-MIN KASE 081655Z 02007KT 10SM CLR 25/03 A3033 7470 24 10300 010/07 RMK AO2 T02500033
93073KASE ASE20160708100010707/08/16 10:00:31  5-MIN KASE 081700Z 01006KT 10SM CLR 26/03 A3033 7470 22 10300 360/06 RMK AO2 T02560028 $
93073KASE ASE20160708100510707/08/16 10:05:31  5-MIN KASE 081705Z 34007KT 10SM CLR 27/03 A3033 7470 21 10500 340/07 RMK AO2 T02670028 $
93073KASE ASE20160708101010707/08/16 10:10:31  5-MIN KASE 081710Z 02006KT 10SM CLR 26/01 A3033 7470 19 10300 010/06 RMK AO2 T02560006 $
93073KASE ASE20160708101511207/08/16 10:15:31  5-MIN KASE 081715Z AUTO VRB06KT 10SM CLR 26/01 A3033 7470 19 10400 VRB/06 RMK AO2 T02610011 $
93073KASE ASE20160708102011007/08/16 10:20:31  5-MIN KASE 081720Z AUTO 02009KT 10SM CLR 26/01 A3033 7470 18 10400 010/09 RMK AO2 T02610006
93073KASE ASE20160708102510507/08/16 10:25:31  5-MIN KASE 081725Z VRB06KT 10SM CLR 26/00 A3033 7470 18 10400 VRB/06 RMK AO2 T02610000
93073KASE ASE20160708103010607/08/16 10:30:31  5-MIN KASE 081730Z 02006KT 10SM CLR 26/M01 A3033 7470 16 10400 010/06 RMK AO2 T02611011
93073KASE ASE20160708103510607/08/16 10:35:31  5-MIN KASE 081735Z 35009KT 10SM CLR 26/M01 A3033 7470 16 10400 340/09 RMK AO2 T02611011
93073KASE ASE20160708104010607/08/16 10:40:31  5-MIN KASE 081740Z 01009KT 10SM CLR 26/M01 A3033 7470 16 10400 360/09 RMK AO2 T02611011
93073KASE ASE20160708104510607/08/16 10:45:31  5-MIN KASE 081745Z 01008KT 10SM CLR 26/M02 A3032 7470 15 10400 360/08 RMK AO2 T02611022
93073KASE ASE20160708105013107/08/16 10:50:31  5-MIN KASE 081750Z 01008KT 10SM CLR 26/M01 A3032 7470 16 10400 360/08 RMK AO2 SLP131 T02611011 10267 20089 51006
93073KASE ASE20160708105509607/08/16 10:55:31  5-MIN KASE 081755Z 10SM CLR 26/M02 A3032 7470 16 10400 M /M RMK AO2 T02611017
93073KASE ASE20160708110010607/08/16 11:00:31  5-MIN KASE 081800Z 36008KT 10SM CLR 27/M02 A3032 7470 14 10500 350/08 RMK AO2 T02671022
93073KASE ASE20160708110510607/08/16 11:05:31  5-MIN KASE 081805Z VRB06KT 10SM CLR 27/M01 A3032 7470 16 10500 VRB/06 RMK AO2 T02671011
93073KASE ASE20160708111010607/08/16 11:10:31  5-MIN KASE 081810Z 06007KT 10SM CLR 27/M01 A3032 7470 16 10500 050/07 RMK AO2 T02671006
93073KASE ASE20160708111510607/08/16 11:15:31  5-MIN KASE 081815Z VRB05KT 10SM CLR 27/M01 A3032 7480 16 10500 VRB/05 RMK AO2 T02671011
93073KASE ASE20160708112010607/08/16 11:20:31  5-MIN KASE 081820Z VRB05KT 10SM CLR 27/M01 A3032 7470 16 10500 VRB/05 RMK AO2 T02721006
93073KASE ASE20160708112512207/08/16 11:25:31  5-MIN KASE 081825Z 06007KT 020V090 10SM CLR 27/M01 A3032 7480 15 10500 050/07 010V080 RMK AO2 T02721011
93073KASE ASE20160708113010607/08/16 11:30:31  5-MIN KASE 081830Z 03007KT 10SM CLR 28/M01 A3032 7470 15 10600 020/07 RMK AO2 T02781006
93073KASE ASE20160708113512207/08/16 11:35:31  5-MIN KASE 081835Z 04008KT 360V070 10SM CLR 27/M01 A3031 7480 15 10500 030/08 350V060 RMK AO2 T02721011
93073KASE ASE20160708114012407/08/16 11:40:31  5-MIN KASE 081840Z VRB05G14KT 10SM CLR 28/M01 A3031 7480 15 10600 VRB/05G14 RMK AO2 LTG DSNT SE T02781006
93073KASE ASE20160708114512407/08/16 11:45:31  5-MIN KASE 081845Z VRB05G14KT 10SM CLR 27/M01 A3032 7480 15 10500 VRB/05G14 RMK AO2 LTG DSNT SE T02721011
93073KASE ASE20160708115012807/08/16 11:50:31  5-MIN KASE 081850Z VRB03KT 10SM FEW100 27/M02 A3032 7480 15 10500 VRB/03 RMK AO2 LTG DSNT SE SLP130 T02671017
93073KASE ASE20160708115510907/08/16 11:55:31  5-MIN KASE 081855Z 34004KT 10SM FEW100 28/M02 A3031 7480 14 10600 330/04 RMK AO2 T02781017
93073KASE ASE20160708120010607/08/16 12:00:31  5-MIN KASE 081900Z VRB04KT 10SM CLR 27/M02 A3031 7480 15 10500 VRB/04 RMK AO2 T02721017
93073KASE ASE20160708120510607/08/16 12:05:31  5-MIN KASE 081905Z 27008KT 10SM CLR 28/M03 A3031 7480 13 10600 260/08 RMK AO2 T02781028
93073KASE ASE20160708121009607/08/16 12:10:31  5-MIN KASE 081910Z 10SM CLR 27/M05 A3031 7480 11 10500 M /M RMK AO2 T02721050
93073KASE ASE20160708121511207/08/16 12:15:31  5-MIN KASE 081915Z 28009G14KT 10SM CLR 28/M04 A3031 7490 11 10600 270/09G14 RMK AO2 T02781044
93073KASE ASE20160708122011207/08/16 12:20:31  5-MIN KASE 081920Z 26010G19KT 10SM CLR 28/M04 A3031 7480 11 10600 250/10G19 RMK AO2 T02781044
93073KASE ASE20160708122511207/08/16 12:25:31  5-MIN KASE 081925Z 25013G19KT 10SM CLR 28/M05 A3031 7490 11 10600 240/13G19 RMK AO2 T02781050
93073KASE ASE20160708123011207/08/16 12:30:31  5-MIN KASE 081930Z 24015G20KT 10SM CLR 28/M04 A3031 7480 11 10600 230/15G20 RMK AO2 T02781044
93073KASE ASE20160708123511207/08/16 12:35:31  5-MIN KASE 081935Z 23013G20KT 10SM CLR 28/M05 A3031 7490 11 10600 220/13G20 RMK AO2 T02781050
93073KASE ASE20160708124011207/08/16 12:40:31  5-MIN KASE 081940Z 24011G18KT 10SM CLR 27/M05 A3031 7490 11 10500 230/11G18 RMK AO2 T02721050
93073KASE ASE20160708124510607/08/16 12:45:31  5-MIN KASE 081945Z VRB06KT 10SM CLR 27/M06 A3030 7490 11 10500 VRB/06 RMK AO2 T02671056
93073KASE ASE20160708125011907/08/16 12:50:31  5-MIN KASE 081950Z 31007G16KT 10SM CLR 27/M05 A3030 7500 11 10600 300/07G16 RMK AO2 SLP124 T02721050
93073KASE ASE20160708125512807/08/16 12:55:31  5-MIN KASE 081955Z 27008G16KT 210V310 10SM CLR 28/M04 A3030 7490 11 10700 260/08G16 200V300 RMK AO2 T02831044
93073KASE ASE20160708130011207/08/16 13:00:31  5-MIN KASE 082000Z 21010G15KT 10SM CLR 28/M04 A3030 7490 11 10600 200/10G15 RMK AO2 T02781044
93073KASE ASE20160708130511207/08/16 13:05:31  5-MIN KASE 082005Z 20008G15KT 10SM CLR 28/M05 A3030 7490 11 10600 190/08G15 RMK AO2 T02781050
93073KASE ASE20160708131012807/08/16 13:10:31  5-MIN KASE 082010Z 21007G14KT 180V260 10SM CLR 28/M05 A3030 7490 11 10600 200/07G14 170V250 RMK AO2 T02781050
93073KASE ASE20160708131510607/08/16 13:15:31  5-MIN KASE 082015Z 23011KT 10SM CLR 28/M04 A3030 7500 11 10600 220/11 RMK AO2 T02781044
93073KASE ASE20160708132012207/08/16 13:20:31  5-MIN KASE 082020Z 27007KT 230V310 10SM CLR 28/M04 A3030 7490 12 10700 260/07 220V300 RMK AO2 T02831039
93073KASE ASE20160708132512807/08/16 13:25:31  5-MIN KASE 082025Z 25009G19KT 200V300 10SM CLR 28/M04 A3030 7500 11 10600 240/09G19 190V290 RMK AO2 T02781044
93073KASE ASE20160708133012807/08/16 13:30:31  5-MIN KASE 082030Z 27009G19KT 240V320 10SM CLR 28/M04 A3030 7500 11 10600 260/09G19 230V310 RMK AO2 T02781044
93073KASE ASE20160708133512807/08/16 13:35:31  5-MIN KASE 082035Z 30007G16KT 240V350 10SM CLR 28/M04 A3029 7500 12 10600 290/07G16 230V340 RMK AO2 T02781039
93073KASE ASE20160708134012207/08/16 13:40:31  5-MIN KASE 082040Z 24007KT 210V310 10SM CLR 28/M03 A3029 7500 12 10700 230/07 200V300 RMK AO2 T02831033
93073KASE ASE20160708134511207/08/16 13:45:31  5-MIN KASE 082045Z 34012G18KT 10SM CLR 29/M04 A3029 7500 11 10700 330/12G18 RMK AO2 T02891039
93073KASE ASE20160708135012507/08/16 13:50:31  5-MIN KASE 082050Z 26010G18KT 10SM CLR 28/M04 A3029 7500 12 10600 250/10G18 RMK AO2 SLP123 T02781039 56002
93073KASE ASE20160708135511207/08/16 13:55:31  5-MIN KASE 082055Z VRB06G16KT 10SM CLR 27/M05 A3029 7500 11 10600 VRB/06G16 RMK AO2 T02721050
93073KASE ASE20160708140012207/08/16 14:00:31  5-MIN KASE 082100Z 26007KT 220V300 10SM CLR 28/M04 A3029 7500 11 10600 260/07 210V290 RMK AO2 T02781044
93073KASE ASE20160708140512807/08/16 14:05:31  5-MIN KASE 082105Z 24008G18KT 210V310 10SM CLR 28/M03 A3029 7500 12 10600 230/08G18 200V300 RMK AO2 T02781033
93073KASE ASE20160708141011207/08/16 14:10:31  5-MIN KASE 082110Z 21010G20KT 10SM CLR 28/M03 A3029 7500 12 10600 200/10G20 RMK AO2 T02781033
93073KASE ASE20160708141512807/08/16 14:15:31  5-MIN KASE 082115Z 25008G20KT 230V290 10SM CLR 28/M03 A3029 7500 12 10600 240/08G20 220V280 RMK AO2 T02781033
93073KASE ASE20160708142011207/08/16 14:20:31  5-MIN KASE 082120Z 23008G18KT 10SM CLR 28/M03 A3029 7500 13 10600 220/08G18 RMK AO2 T02781028
93073KASE ASE20160708142511207/08/16 14:25:31  5-MIN KASE 082125Z 23011G18KT 10SM CLR 28/M04 A3028 7510 12 10600 220/11G18 RMK AO2 T02781039
93073KASE ASE20160708143011207/08/16 14:30:31  5-MIN KASE 082130Z 23006G18KT 10SM CLR 28/M04 A3028 7510 12 10600 220/06G18 RMK AO2 T02781039
93073KASE ASE20160708143510607/08/16 14:35:31  5-MIN KASE 082135Z 22007KT 10SM CLR 27/M04 A3028 7510 12 10600 210/07 RMK AO2 T02721039
93073KASE ASE20160708144011207/08/16 14:40:31  5-MIN KASE 082140Z VRB05G15KT 10SM CLR 27/M04 A3028 7510 12 10600 VRB/05G15 RMK AO2 T02721039
93073KASE ASE20160708144510607/08/16 14:45:31  5-MIN KASE 082145Z 00000KT 10SM CLR 28/M03 A3028 7510 12 10700 000/00 RMK AO2 T02831033
93073KASE ASE20160708145011307/08/16 14:50:31  5-MIN KASE 082150Z 00000KT 10SM CLR 28/M04 A3028 7510 12 10700 000/00 RMK AO2 SLP118 T02831039
93073KASE ASE20160708145509607/08/16 14:55:31  5-MIN KASE 082155Z 10SM CLR 28/M04 A3028 7510 11 10700 M /M RMK AO2 T02831044
93073KASE ASE20160708150012807/08/16 15:00:31  5-MIN KASE 082200Z 25010G17KT 200V290 10SM CLR 28/M04 A3028 7510 12 10600 240/10G17 190V280 RMK AO2 T02781039
93073KASE ASE20160708150512807/08/16 15:05:31  5-MIN KASE 082205Z 31007G17KT 270V340 10SM CLR 28/M04 A3027 7520 12 10700 300/07G17 260V330 RMK AO2 T02831039
93073KASE ASE20160708151011207/08/16 15:10:31  5-MIN KASE 082210Z 33008G16KT 10SM CLR 28/M04 A3027 7520 12 10700 320/08G16 RMK AO2 T02831039
93073KASE ASE20160708151512807/08/16 15:15:31  5-MIN KASE 082215Z 31009G16KT 250V340 10SM CLR 28/M03 A3027 7520 12 10700 300/09G16 240V330 RMK AO2 T02831033
93073KASE ASE20160708152010607/08/16 15:20:31  5-MIN KASE 082220Z VRB05KT 10SM CLR 28/M04 A3027 7520 12 10700 VRB/05 RMK AO2 T02831039
93073KASE ASE20160708152510607/08/16 15:25:31  5-MIN KASE 082225Z 00000KT 10SM CLR 28/M04 A3027 7520 11 10700 000/00 RMK AO2 T02831044
93073KASE ASE20160708153010607/08/16 15:30:31  5-MIN KASE 082230Z 33009KT 10SM CLR 29/M03 A3027 7520 12 10800 320/09 RMK AO2 T02941028
93073KASE ASE20160708153511207/08/16 15:35:31  5-MIN KASE 082235Z 32011G17KT 10SM CLR 28/M04 A3027 7520 12 10700 310/11G17 RMK AO2 T02831039
93073KASE ASE20160708154011207/08/16 15:40:31  5-MIN KASE 082240Z 33009G17KT 10SM CLR 28/M04 A3027 7520 12 10600 320/09G17 RMK AO2 T02781039
93073KASE ASE20160708154511207/08/16 15:45:31  5-MIN KASE 082245Z VRB04G16KT 10SM CLR 27/M04 A3027 7520 12 10600 VRB/04G16 RMK AO2 T02721039
93073KASE ASE20160708155011907/08/16 15:50:31  5-MIN KASE 082250Z 35010G15KT 10SM CLR 28/M03 A3026 7520 13 10700 340/10G15 RMK AO2 SLP113 T02831028
93073KASE ASE20160708155511207/08/16 15:55:31  5-MIN KASE 082255Z 34008G17KT 10SM CLR 28/M03 A3026 7530 13 10700 330/08G17 RMK AO2 T02831028
93073KASE ASE20160708160011507/08/16 16:00:31  5-MIN KASE 082300Z 36004G17KT 10SM FEW120 28/M03 A3026 7530 12 10700 360/04G17 RMK AO2 T02831033
93073KASE ASE20160708160510907/08/16 16:05:31  5-MIN KASE 082305Z 29007KT 10SM FEW120 28/M03 A3026 7530 13 10700 280/07 RMK AO2 T02831028
93073KASE ASE20160708161010907/08/16 16:10:31  5-MIN KASE 082310Z VRB04KT 10SM FEW120 27/M03 A3026 7520 14 10500 VRB/04 RMK AO2 T02671028
93073KASE ASE20160708161510907/08/16 16:15:31  5-MIN KASE 082315Z VRB03KT 10SM SCT120 27/M03 A3026 7530 13 10600 VRB/03 RMK AO2 T02721028
93073KASE ASE20160708162010907/08/16 16:20:31  5-MIN KASE 082320Z 23006KT 10SM SCT120 27/M02 A3026 7520 14 10600 220/06 RMK AO2 T02721022
93073KASE ASE20160708162510907/08/16 16:25:31  5-MIN KASE 082325Z 25004KT 10SM SCT120 27/M03 A3026 7530 13 10600 240/04 RMK AO2 T02721028
93073KASE ASE20160708163012507/08/16 16:30:31  5-MIN KASE 082330Z 27007KT 220V320 10SM SCT120 28/M03 A3026 7530 13 10600 260/07 210V310 RMK AO2 T02781028
93073KASE ASE20160708163511507/08/16 16:35:31  5-MIN KASE 082335Z 33011G16KT 10SM FEW120 28/M03 A3026 7530 13 10700 330/11G16 RMK AO2 T02781028
93073KASE ASE20160708164011507/08/16 16:40:31  5-MIN KASE 082340Z VRB06G16KT 10SM FEW120 28/M03 A3026 7530 12 10700 VRB/06G16 RMK AO2 T02781033
93073KASE ASE20160708164511507/08/16 16:45:31  5-MIN KASE 082345Z 35010G15KT 10SM FEW110 28/M02 A3026 7530 13 10700 340/10G15 RMK AO2 T02831022
93073KASE ASE20160708165013707/08/16 16:50:31  5-MIN KASE 082350Z 36005G15KT 10SM CLR 28/M03 A3026 7530 12 10700 350/05G15 RMK AO2 SLP113 T02781033 10294 20256 58009
93073KASE ASE20160708165511207/08/16 16:55:31  5-MIN KASE 082355Z 34011G17KT 10SM CLR 28/M02 A3026 7530 13 10700 340/11G17 RMK AO2 T02831022
93073KASE ASE20160708170011207/08/16 17:00:31  5-MIN KASE 090000Z 35007G17KT 10SM CLR 28/M03 A3026 7530 13 10700 340/07G17 RMK AO2 T02781028
93073KASE ASE20160708170511207/08/16 17:05:31  5-MIN KASE 090005Z VRB05G14KT 10SM CLR 28/M03 A3026 7530 13 10700 VRB/05G14 RMK AO2 T02781028
93073KASE ASE20160708171012807/08/16 17:10:31  5-MIN KASE 090010Z 32008G14KT 280V360 10SM CLR 28/M03 A3026 7530 13 10700 310/08G14 270V350 RMK AO2 T02781028
93073KASE ASE20160708171511207/08/16 17:15:31  5-MIN KASE 090015Z 27008G15KT 10SM CLR 28/M03 A3026 7530 12 10700 260/08G15 RMK AO2 T02781033
93073KASE ASE20160708172011207/08/16 17:20:31  5-MIN KASE 090020Z 35007G15KT 10SM CLR 28/M03 A3025 7540 12 10700 340/07G15 RMK AO2 T02781033
93073KASE ASE20160708172510607/08/16 17:25:31  5-MIN KASE 090025Z VRB06KT 10SM CLR 28/M03 A3025 7530 12 10700 VRB/06 RMK AO2 T02781033
93073KASE ASE20160708173011207/08/16 17:30:31  5-MIN KASE 090030Z 24010G19KT 10SM CLR 27/M03 A3026 7530 13 10500 230/10G19 RMK AO2 T02671033
93073KASE ASE20160708173512807/08/16 17:35:31  5-MIN KASE 090035Z 32008G19KT 280V350 10SM CLR 27/M03 A3025 7530 13 10600 310/08G19 270V340 RMK AO2 T02721028
93073KASE ASE20160708174012207/08/16 17:40:31  5-MIN KASE 090040Z 34008KT 290V020 10SM CLR 27/M02 A3026 7530 15 10500 330/08 280V010 RMK AO2 T02671017
93073KASE ASE20160708174510607/08/16 17:45:31  5-MIN KASE 090045Z 34005KT 10SM CLR 27/M01 A3026 7530 16 10500 330/05 RMK AO2 T02671011
93073KASE ASE20160708175011307/08/16 17:50:31  5-MIN KASE 090050Z 30008KT 10SM CLR 27/M02 A3026 7530 14 10500 290/08 RMK AO2 SLP112 T02671022
93073KASE ASE20160708175511207/08/16 17:55:31  5-MIN KASE 090055Z 27008G14KT 10SM CLR 27/M03 A3026 7530 14 10500 260/08G14 RMK AO2 T02671028
93073KASE ASE20160708180012807/08/16 18:00:31  5-MIN KASE 090100Z 28009G14KT 260V350 10SM CLR 27/M03 A3026 7530 14 10500 270/09G14 250V340 RMK AO2 T02671028
93073KASE ASE20160708180510607/08/16 18:05:31  5-MIN KASE 090105Z VRB05KT 10SM CLR 27/M03 A3026 7530 13 10500 VRB/05 RMK AO2 T02671033
93073KASE ASE20160708181010607/08/16 18:10:31  5-MIN KASE 090110Z 29006KT 10SM CLR 27/M03 A3026 7520 14 10500 280/06 RMK AO2 T02671028
93073KASE ASE20160708181510607/08/16 18:15:31  5-MIN KASE 090115Z VRB05KT 10SM CLR 27/M02 A3027 7520 14 10500 VRB/05 RMK AO2 T02671022
93073KASE ASE20160708182010607/08/16 18:20:31  5-MIN KASE 090120Z 31005KT 10SM CLR 27/M02 A3027 7520 15 10500 300/05 RMK AO2 T02671017
93073KASE ASE20160708182510607/08/16 18:25:31  5-MIN KASE 090125Z 00000KT 10SM CLR 26/M02 A3027 7520 16 10500 000/00 RMK AO2 T02611017
93073KASE ASE20160708183010607/08/16 18:30:31  5-MIN KASE 090130Z 31006KT 10SM CLR 26/M02 A3027 7520 16 10500 300/06 RMK AO2 T02611017
93073KASE ASE20160708183510607/08/16 18:35:31  5-MIN KASE 090135Z 34004KT 10SM CLR 26/M02 A3027 7520 16 10400 340/04 RMK AO2 T02561017
93073KASE ASE20160708184010507/08/16 18:40:31  5-MIN KASE 090140Z 29004KT 10SM CLR 24/00 A3027 7520 19 10300 280/04 RMK AO2 T02440000
93073KASE ASE20160708184510607/08/16 18:45:31  5-MIN KASE 090145Z 31004KT 10SM CLR 24/M01 A3027 7520 19 10300 300/04 RMK AO2 T02441006
93073KASE ASE20160708185011307/08/16 18:50:31  5-MIN KASE 090150Z 33004KT 10SM CLR 24/M01 A3027 7520 19 10200 320/04 RMK AO2 SLP112 T02391006
93073KASE ASE20160708185510607/08/16 18:55:31  5-MIN KASE 090155Z 00000KT 10SM CLR 24/M01 A3027 7520 19 10200 000/00 RMK AO2 T02391006
93073KASE ASE20160708190010607/08/16 19:00:31  5-MIN KASE 090200Z VRB03KT 10SM CLR 24/M01 A3027 7520 19 10200 VRB/03 RMK AO2 T02391006
93073KASE ASE20160708190510607/08/16 19:05:31  5-MIN KASE 090205Z 29003KT 10SM CLR 24/M01 A3027 7520 19 10200 290/03 RMK AO2 T02391011
93073KASE ASE20160708191010507/08/16 19:10:31  5-MIN KASE 090210Z 30003KT 10SM CLR 24/00 A3027 7520 20 10200 290/03 RMK AO2 T02390000
93073KASE ASE20160708191510607/08/16 19:15:31  5-MIN KASE 090215Z 29004KT 10SM CLR 23/M01 A3027 7520 20 10200 280/04 RMK AO2 T02331006
93073KASE ASE20160708192010507/08/16 19:20:31  5-MIN KASE 090220Z 00000KT 10SM CLR 23/00 A3027 7520 21 10200 000/00 RMK AO2 T02330000
93073KASE ASE20160708192510407/08/16 19:25:31  5-MIN KASE 090225Z 20004KT 10SM CLR 21/03 A3027 7520 30 9900 190/04 RMK AO2 T02060028
93073KASE ASE20160708193010407/08/16 19:30:31  5-MIN KASE 090230Z 20004KT 10SM CLR 19/03 A3027 7520 33 9700 190/04 RMK AO2 T01940028
93073KASE ASE20160708193510407/08/16 19:35:31  5-MIN KASE 090235Z 20006KT 10SM CLR 20/03 A3027 7520 31 9800 190/06 RMK AO2 T02000028
93073KASE ASE20160708194010407/08/16 19:40:31  5-MIN KASE 090240Z 20007KT 10SM CLR 19/04 A3027 7520 36 9700 190/07 RMK AO2 T01890039
93073KASE ASE20160708194510407/08/16 19:45:31  5-MIN KASE 090245Z 18009KT 10SM CLR 19/03 A3028 7510 34 9700 170/09 RMK AO2 T01940033
93073KASE ASE20160708195011707/08/16 19:50:31  5-MIN KASE 090250Z 20008KT 10SM CLR 19/03 A3028 7510 33 9700 190/08 RMK AO2 SLP122 T01940028 56009
93073KASE ASE20160708195510407/08/16 19:55:31  5-MIN KASE 090255Z 21006KT 10SM CLR 19/03 A3028 7510 34 9700 200/06 RMK AO2 T01890028
93073KASE ASE20160708200010407/08/16 20:00:31  5-MIN KASE 090300Z 20008KT 10SM CLR 18/03 A3028 7510 38 9600 190/08 RMK AO2 T01780033
93073KASE ASE20160708200510407/08/16 20:05:31  5-MIN KASE 090305Z 22009KT 10SM CLR 17/04 A3028 7510 41 9500 210/09 RMK AO2 T01720039
93073KASE ASE20160708201010407/08/16 20:10:31  5-MIN KASE 090310Z 19006KT 10SM CLR 19/03 A3029 7500 34 9700 180/06 RMK AO2 T01890028
93073KASE ASE20160708201510407/08/16 20:15:31  5-MIN KASE 090315Z 19005KT 10SM CLR 18/03 A3029 7500 38 9500 180/05 RMK AO2 T01780033
93073KASE ASE20160708202010407/08/16 20:20:31  5-MIN KASE 090320Z 19004KT 10SM CLR 18/03 A3029 7500 38 9500 180/04 RMK AO2 T01780033
93073KASE ASE20160708202510407/08/16 20:25:31  5-MIN KASE 090325Z 20004KT 10SM CLR 17/03 A3029 7500 40 9400 190/04 RMK AO2 T01670033
93073KASE ASE20160708203010407/08/16 20:30:31  5-MIN KASE 090330Z 19005KT 10SM CLR 17/03 A3030 7500 40 9400 180/05 RMK AO2 T01670033
93073KASE ASE20160708203510407/08/16 20:35:31  5-MIN KASE 090335Z 20005KT 10SM CLR 17/03 A3030 7490 40 9400 200/05 RMK AO2 T01670033
93073KASE ASE20160708204010407/08/16 20:40:31  5-MIN KASE 090340Z 19005KT 10SM CLR 16/03 A3030 7490 43 9300 180/05 RMK AO2 T01560033
93073KASE ASE20160708204510407/08/16 20:45:31  5-MIN KASE 090345Z 20006KT 10SM CLR 16/03 A3030 7490 42 9300 190/06 RMK AO2 T01610033
93073KASE ASE20160708205011107/08/16 20:50:31  5-MIN KASE 090350Z 22007KT 10SM CLR 16/03 A3031 7490 43 9300 210/07 RMK AO2 SLP132 T01560033
93073KASE ASE20160708205510407/08/16 20:55:31  5-MIN KASE 090355Z 20007KT 10SM CLR 16/03 A3031 7480 43 9300 200/07 RMK AO2 T01560033
93073KASE ASE20160708210010407/08/16 21:00:31  5-MIN KASE 090400Z 21008KT 10SM CLR 16/03 A3031 7480 42 9300 200/08 RMK AO2 T01560028
93073KASE ASE20160708210510407/08/16 21:05:31  5-MIN KASE 090405Z 20007KT 10SM CLR 16/03 A3031 7480 43 9300 190/07 RMK AO2 T01560033
93073KASE ASE20160708211010407/08/16 21:10:31  5-MIN KASE 090410Z 19007KT 10SM CLR 15/03 A3031 7480 43 9200 180/07 RMK AO2 T01500028
93073KASE ASE20160708211510407/08/16 21:15:31  5-MIN KASE 090415Z 21007KT 10SM CLR 16/03 A3031 7480 42 9300 200/07 RMK AO2 T01560028
93073KASE ASE20160708212010407/08/16 21:20:31  5-MIN KASE 090420Z 21006KT 10SM CLR 16/03 A3032 7480 42 9300 200/06 RMK AO2 T01560028
93073KASE ASE20160708212510407/08/16 21:25:31  5-MIN KASE 090425Z 21006KT 10SM CLR 16/03 A3032 7480 42 9300 200/06 RMK AO2 T01560028
93073KASE ASE20160708213010407/08/16 21:30:31  5-MIN KASE 090430Z 21006KT 10SM CLR 16/02 A3032 7470 40 9300 200/06 RMK AO2 T01560022
93073KASE ASE20160708213510407/08/16 21:35:31  5-MIN KASE 090435Z 20007KT 10SM CLR 15/03 A3032 7470 43 9200 190/07 RMK AO2 T01500028
93073KASE ASE20160708214010407/08/16 21:40:31  5-MIN KASE 090440Z 20007KT 10SM CLR 14/03 A3032 7470 47 9100 190/07 RMK AO2 T01440033
93073KASE ASE20160708214510407/08/16 21:45:31  5-MIN KASE 090445Z 19007KT 10SM CLR 15/03 A3032 7470 43 9200 180/07 RMK AO2 T01500028
93073KASE ASE20160708215011107/08/16 21:50:31  5-MIN KASE 090450Z 20007KT 10SM CLR 15/03 A3033 7470 43 9200 190/07 RMK AO2 SLP134 T01500028
93073KASE ASE20160708215510407/08/16 21:55:31  5-MIN KASE 090455Z 21008KT 10SM CLR 14/03 A3032 7470 45 9100 200/08 RMK AO2 T01440028
93073KASE ASE20160708220010407/08/16 22:00:31  5-MIN KASE 090500Z 21008KT 10SM CLR 15/02 A3033 7470 42 9200 200/08 RMK AO2 T01500022
93073KASE ASE20160708220510407/08/16 22:05:31  5-MIN KASE 090505Z 20008KT 10SM CLR 16/02 A3033 7470 40 9300 200/08 RMK AO2 T01560022
93073KASE ASE20160708221010407/08/16 22:10:31  5-MIN KASE 090510Z 19007KT 10SM CLR 16/02 A3033 7470 40 9300 180/07 RMK AO2 T01560022
93073KASE ASE20160708221510407/08/16 22:15:31  5-MIN KASE 090515Z 20007KT 10SM CLR 14/02 A3033 7460 43 9100 190/07 RMK AO2 T01440022
93073KASE ASE20160708222010407/08/16 22:20:31  5-MIN KASE 090520Z 20007KT 10SM CLR 14/03 A3033 7460 45 9100 190/07 RMK AO2 T01440028
93073KASE ASE20160708222510407/08/16 22:25:31  5-MIN KASE 090525Z 20008KT 10SM CLR 14/03 A3033 7460 47 9100 190/08 RMK AO2 T01390028
93073KASE ASE20160708223010407/08/16 22:30:31  5-MIN KASE 090530Z 21008KT 10SM CLR 14/02 A3033 7460 45 9100 200/08 RMK AO2 T01390022
93073KASE ASE20160708223510407/08/16 22:35:31  5-MIN KASE 090535Z 22007KT 10SM CLR 15/02 A3033 7460 42 9200 210/07 RMK AO2 T01500022
93073KASE ASE20160708224010407/08/16 22:40:31  5-MIN KASE 090540Z 20007KT 10SM CLR 16/02 A3033 7460 39 9200 190/07 RMK AO2 T01560017
93073KASE ASE20160708224510407/08/16 22:45:31  5-MIN KASE 090545Z 19008KT 10SM CLR 13/03 A3033 7460 48 9000 190/08 RMK AO2 T01330028
93073KASE ASE20160708225013207/08/16 22:50:31  5-MIN KASE 090550Z 20007KT 10SM FEW110 14/02 A3033 7460 45 9100 190/07 RMK AO2 SLP137 T01390022 10283 20133 53007
93073KASE ASE20160708225510707/08/16 22:55:31  5-MIN KASE 090555Z 20006KT 10SM SCT110 14/03 A3034 7460 47 9100 190/06 RMK AO2 T01390028
93073KASE ASE20160708230010707/08/16 23:00:31  5-MIN KASE 090600Z 21006KT 10SM FEW110 13/03 A3033 7460 48 9000 200/06 RMK AO2 T01330028
93073KASE ASE20160708230510707/08/16 23:05:31  5-MIN KASE 090605Z 21006KT 10SM FEW110 14/02 A3033 7460 45 9100 200/06 RMK AO2 T01390022
93073KASE ASE20160708231010707/08/16 23:10:31  5-MIN KASE 090610Z 21006KT 10SM FEW110 14/02 A3033 7460 45 9100 200/06 RMK AO2 T01390022
93073KASE ASE20160708231510707/08/16 23:15:31  5-MIN KASE 090615Z 20006KT 10SM FEW110 14/02 A3034 7460 43 9100 190/06 RMK AO2 T01440022
93073KASE ASE20160708232010707/08/16 23:20:31  5-MIN KASE 090620Z 20007KT 10SM FEW110 14/02 A3033 7460 45 9100 190/07 RMK AO2 T01390022
93073KASE ASE20160708232510407/08/16 23:25:31  5-MIN KASE 090625Z 20006KT 10SM CLR 14/02 A3033 7460 45 9100 190/06 RMK AO2 T01390022
93073KASE ASE20160708233010407/08/16 23:30:31  5-MIN KASE 090630Z 21010KT 10SM CLR 13/03 A3033 7460 48 9000 200/10 RMK AO2 T01330028
93073KASE ASE20160708233510407/08/16 23:35:31  5-MIN KASE 090635Z 21007KT 10SM CLR 14/02 A3033 7460 43 9100 200/07 RMK AO2 T01440022
93073KASE ASE20160708234010407/08/16 23:40:31  5-MIN KASE 090640Z 21008KT 10SM CLR 14/02 A3033 7460 43 9100 200/08 RMK AO2 T01440022
93073KASE ASE20160708234510407/08/16 23:45:31  5-MIN KASE 090645Z 21008KT 10SM CLR 14/02 A3033 7460 43 9100 200/08 RMK AO2 T01440022
93073KASE ASE20160708235012107/08/16 23:50:31  5-MIN KASE 090650Z 22008KT 10SM CLR 14/02 A3033 7460 45 9100 210/08 RMK AO2 SLP134 T01390022 402940089
93073KASE ASE20160708235510407/08/16 23:55:31  5-MIN KASE 090655Z 21008KT 10SM CLR 14/02 A3033 7460 45 9100 200/08 RMK AO2 T01390022
93073KASE ASE20160709000010407/09/16 00:00:31  5-MIN KASE 090700Z 21008KT 10SM CLR 14/02 A3033 7460 45 9100 200/08 RMK AO2 T01390022
93073KASE ASE20160709000510407/09/16 00:05:31  5-MIN KASE 090705Z 20007KT 10SM CLR 14/02 A3033 7460 43 9100 190/07 RMK AO2 T01440022
93073KASE ASE20160709001010407/09/16 00:10:31  5-MIN KASE 090710Z 21007KT 10SM CLR 14/02 A3033 7460 45 9100 200/07 RMK AO2 T01390022
93073KASE ASE20160709001510407/09/16 00:15:31  5-MIN KASE 090715Z 21008KT 10SM CLR 13/02 A3033 7460 46 9000 200/08 RMK AO2 T01330022
93073KASE ASE20160709002010407/09/16 00:20:31  5-MIN KASE 090720Z 22009KT 10SM CLR 13/02 A3033 7460 48 8900 210/09 RMK AO2 T01280022
93073KASE ASE20160709002510407/09/16 00:25:31  5-MIN KASE 090725Z 21007KT 10SM CLR 13/02 A3033 7460 46 9000 200/07 RMK AO2 T01330022
93073KASE ASE20160709003010407/09/16 00:30:31  5-MIN KASE 090730Z 20008KT 10SM CLR 13/02 A3033 7460 46 9000 190/08 RMK AO2 T01330022
93073KASE ASE20160709003510407/09/16 00:35:31  5-MIN KASE 090735Z 22010KT 10SM CLR 13/02 A3033 7470 48 8900 210/10 RMK AO2 T01280022
93073KASE ASE20160709004010407/09/16 00:40:31  5-MIN KASE 090740Z 22008KT 10SM CLR 13/02 A3033 7460 46 9000 210/08 RMK AO2 T01330022
93073KASE ASE20160709004510407/09/16 00:45:31  5-MIN KASE 090745Z 21007KT 10SM CLR 13/02 A3033 7470 48 8900 200/07 RMK AO2 T01280022
93073KASE ASE20160709005011107/09/16 00:50:31  5-MIN KASE 090750Z 21007KT 10SM CLR 13/02 A3033 7460 48 8900 210/07 RMK AO2 SLP136 T01280022
93073KASE ASE20160709005510407/09/16 00:55:31  5-MIN KASE 090755Z 22010KT 10SM CLR 12/02 A3033 7460 50 8900 210/10 RMK AO2 T01220022
93073KASE ASE20160709010010407/09/16 01:00:31  5-MIN KASE 090800Z 22008KT 10SM CLR 12/02 A3033 7460 50 8900 210/08 RMK AO2 T01220022
93073KASE ASE20160709010510407/09/16 01:05:31  5-MIN KASE 090805Z 21006KT 10SM CLR 13/02 A3033 7460 45 9000 200/06 RMK AO2 T01330017
93073KASE ASE20160709011010407/09/16 01:10:31  5-MIN KASE 090810Z 20006KT 10SM CLR 13/02 A3033 7460 46 9000 190/06 RMK AO2 T01330022
93073KASE ASE20160709011510407/09/16 01:15:31  5-MIN KASE 090815Z 21008KT 10SM CLR 13/02 A3033 7470 48 8900 200/08 RMK AO2 T01280022
93073KASE ASE20160709012010407/09/16 01:20:31  5-MIN KASE 090820Z 20007KT 10SM CLR 13/02 A3032 7470 48 9000 190/07 RMK AO2 T01280022
93073KASE ASE20160709012510407/09/16 01:25:31  5-MIN KASE 090825Z 20007KT 10SM CLR 13/02 A3032 7470 48 9000 190/07 RMK AO2 T01280022
93073KASE ASE20160709013010407/09/16 01:30:31  5-MIN KASE 090830Z 22008KT 10SM CLR 13/02 A3032 7470 48 9000 210/08 RMK AO2 T01280022
93073KASE ASE20160709013510407/09/16 01:35:31  5-MIN KASE 090835Z 19005KT 10SM CLR 14/02 A3032 7470 43 9100 180/05 RMK AO2 T01390017
93073KASE ASE20160709014010407/09/16 01:40:31  5-MIN KASE 090840Z 20007KT 10SM CLR 13/02 A3032 7470 48 9000 190/07 RMK AO2 T01280022
93073KASE ASE20160709014510407/09/16 01:45:31  5-MIN KASE 090845Z 20008KT 10SM CLR 13/02 A3032 7480 48 9000 200/08 RMK AO2 T01280022
93073KASE ASE20160709015011707/09/16 01:50:31  5-MIN KASE 090850Z 21007KT 10SM CLR 13/02 A3032 7480 45 9000 200/07 RMK AO2 SLP129 T01330017 51016
93073KASE ASE20160709015510407/09/16 01:55:31  5-MIN KASE 090855Z 21008KT 10SM CLR 13/02 A3032 7480 45 9000 210/08 RMK AO2 T01330017
93073KASE ASE20160709020010407/09/16 02:00:31  5-MIN KASE 090900Z 21007KT 10SM CLR 14/02 A3032 7480 43 9100 200/07 RMK AO2 T01390017
93073KASE ASE20160709020510407/09/16 02:05:31  5-MIN KASE 090905Z 19006KT 10SM CLR 14/02 A3032 7480 43 9100 180/06 RMK AO2 T01390017
93073KASE ASE20160709021010407/09/16 02:10:31  5-MIN KASE 090910Z 22007KT 10SM CLR 13/02 A3032 7480 46 9000 210/07 RMK AO2 T01280017
93073KASE ASE20160709021510407/09/16 02:15:31  5-MIN KASE 090915Z 21007KT 10SM CLR 13/02 A3032 7470 45 9000 200/07 RMK AO2 T01330017
93073KASE ASE20160709022010407/09/16 02:20:31  5-MIN KASE 090920Z 20005KT 10SM CLR 13/02 A3032 7480 46 9000 190/05 RMK AO2 T01280017
93073KASE ASE20160709022510407/09/16 02:25:31  5-MIN KASE 090925Z 21006KT 10SM CLR 12/02 A3032 7480 50 8900 200/06 RMK AO2 T01220022
93073KASE ASE20160709023010407/09/16 02:30:31  5-MIN KASE 090930Z 21006KT 10SM CLR 12/02 A3032 7470 50 8900 200/06 RMK AO2 T01220022
93073KASE ASE20160709023510407/09/16 02:35:31  5-MIN KASE 090935Z 21006KT 10SM CLR 13/02 A3032 7470 46 9000 200/06 RMK AO2 T01280017
93073KASE ASE20160709024010407/09/16 02:40:31  5-MIN KASE 090940Z 21007KT 10SM CLR 13/02 A3032 7470 46 9000 200/07 RMK AO2 T01280017
93073KASE ASE20160709024510407/09/16 02:45:31  5-MIN KASE 090945Z 19005KT 10SM CLR 12/02 A3032 7470 50 8900 180/05 RMK AO2 T01220022
93073KASE ASE20160709025011107/09/16 02:50:31  5-MIN KASE 090950Z 21008KT 10SM CLR 13/02 A3032 7470 46 9000 200/08 RMK AO2 SLP130 T01280017
93073KASE ASE20160709025510407/09/16 02:55:31  5-MIN KASE 090955Z 21006KT 10SM CLR 13/02 A3032 7470 45 9000 200/06 RMK AO2 T01330017
93073KASE ASE20160709030010407/09/16 03:00:31  5-MIN KASE 091000Z 21007KT 10SM CLR 12/02 A3032 7470 48 8900 200/07 RMK AO2 T01220017
93073KASE ASE20160709030510407/09/16 03:05:31  5-MIN KASE 091005Z 20007KT 10SM CLR 12/02 A3032 7470 48 8900 190/07 RMK AO2 T01220017
93073KASE ASE20160709031010407/09/16 03:10:31  5-MIN KASE 091010Z 21007KT 10SM CLR 12/02 A3032 7470 48 8900 200/07 RMK AO2 T01220017
93073KASE ASE20160709031510407/09/16 03:15:31  5-MIN KASE 091015Z 21007KT 10SM CLR 12/02 A3032 7470 48 8900 200/07 RMK AO2 T01220017
93073KASE ASE20160709032010407/09/16 03:20:31  5-MIN KASE 091020Z 20007KT 10SM CLR 13/02 A3032 7470 46 9000 190/07 RMK AO2 T01280017
93073KASE ASE20160709032510407/09/16 03:25:31  5-MIN KASE 091025Z 20005KT 10SM CLR 13/02 A3032 7470 46 9000 190/05 RMK AO2 T01280017
93073KASE ASE20160709033010407/09/16 03:30:31  5-MIN KASE 091030Z 21008KT 10SM CLR 11/02 A3032 7470 52 8800 200/08 RMK AO2 T01110017
93073KASE ASE20160709033510407/09/16 03:35:31  5-MIN KASE 091035Z 21006KT 10SM CLR 12/02 A3033 7470 50 8800 200/06 RMK AO2 T01170017
93073KASE ASE20160709034010407/09/16 03:40:31  5-MIN KASE 091040Z 20006KT 10SM CLR 12/02 A3033 7470 50 8800 190/06 RMK AO2 T01170017
93073KASE ASE20160709034510407/09/16 03:45:31  5-MIN KASE 091045Z 21006KT 10SM CLR 12/02 A3033 7470 50 8800 200/06 RMK AO2 T01170017
93073KASE ASE20160709035011107/09/16 03:50:31  5-MIN KASE 091050Z 22008KT 10SM CLR 11/02 A3033 7470 52 8800 210/08 RMK AO2 SLP136 T01110017
93073KASE ASE20160709035510407/09/16 03:55:31  5-MIN KASE 091055Z 22008KT 10SM CLR 12/02 A3033 7460 50 8800 210/08 RMK AO2 T01170017
93073KASE ASE20160709040010407/09/16 04:00:31  5-MIN KASE 091100Z 22007KT 10SM CLR 12/02 A3033 7460 50 8800 210/07 RMK AO2 T01170017
93073KASE ASE20160709040510407/09/16 04:05:31  5-MIN KASE 091105Z 22008KT 10SM CLR 12/02 A3033 7460 48 8900 210/08 RMK AO2 T01220017
93073KASE ASE20160709041010407/09/16 04:10:31  5-MIN KASE 091110Z 22007KT 10SM CLR 11/02 A3033 7460 54 8700 210/07 RMK AO2 T01060017
93073KASE ASE20160709041510407/09/16 04:15:31  5-MIN KASE 091115Z 22005KT 10SM CLR 11/02 A3033 7460 52 8800 210/05 RMK AO2 T01110017
93073KASE ASE20160709042010407/09/16 04:20:31  5-MIN KASE 091120Z 00000KT 10SM CLR 11/02 A3033 7460 52 8800 000/00 RMK AO2 T01110017
93073KASE ASE20160709042510407/09/16 04:25:31  5-MIN KASE 091125Z 23006KT 10SM CLR 10/02 A3034 7460 56 8600 220/06 RMK AO2 T01000017
93073KASE ASE20160709043010407/09/16 04:30:31  5-MIN KASE 091130Z VRB04KT 10SM CLR 10/02 A3034 7460 56 8600 VRB/04 RMK AO2 T01000017
93073KASE ASE20160709043510407/09/16 04:35:31  5-MIN KASE 091135Z 00000KT 10SM CLR 11/02 A3034 7450 54 8700 000/00 RMK AO2 T01060017
93073KASE ASE20160709044010407/09/16 04:40:31  5-MIN KASE 091140Z 00000KT 10SM CLR 11/02 A3035 7450 54 8700 000/00 RMK AO2 T01060017
93073KASE ASE20160709044510407/09/16 04:45:31  5-MIN KASE 091145Z 23003KT 10SM CLR 10/02 A3035 7450 56 8600 220/03 RMK AO2 T01000017
93073KASE ASE20160709045012907/09/16 04:50:31  5-MIN KASE 091150Z 00000KT 10SM CLR 09/02 A3035 7450 58 8500 000/00 RMK AO2 SLP149 T00940017 10144 20094 58005
93073KASE ASE20160709045510407/09/16 04:55:31  5-MIN KASE 091155Z 00000KT 10SM CLR 10/02 A3035 7450 56 8600 000/00 RMK AO2 T01000017
93073KASE ASE20160709050010407/09/16 05:00:31  5-MIN KASE 091200Z VRB03KT 10SM CLR 09/02 A3035 7440 60 8500 VRB/03 RMK AO2 T00940022
93073KASE ASE20160709050510407/09/16 05:05:31  5-MIN KASE 091205Z 17003KT 10SM CLR 11/02 A3035 7440 54 8700 170/03 RMK AO2 T01060017
93073KASE ASE20160709051010407/09/16 05:10:31  5-MIN KASE 091210Z 20004KT 10SM CLR 10/02 A3035 7440 56 8600 190/04 RMK AO2 T01000017
93073KASE ASE20160709051510407/09/16 05:15:31  5-MIN KASE 091215Z 20004KT 10SM CLR 10/02 A3036 7440 56 8600 190/04 RMK AO2 T01000017
93073KASE ASE20160709052010407/09/16 05:20:31  5-MIN KASE 091220Z 21005KT 10SM CLR 09/02 A3036 7440 60 8500 200/05 RMK AO2 T00940022
93073KASE ASE20160709052510407/09/16 05:25:31  5-MIN KASE 091225Z 19003KT 10SM CLR 09/02 A3036 7440 60 8500 180/03 RMK AO2 T00940022
93073KASE ASE20160709053010407/09/16 05:30:31  5-MIN KASE 091230Z 21005KT 10SM CLR 09/02 A3036 7430 60 8500 200/05 RMK AO2 T00940022
93073KASE ASE20160709053510407/09/16 05:35:31  5-MIN KASE 091235Z 19004KT 10SM CLR 09/02 A3036 7440 60 8500 180/04 RMK AO2 T00940022
93073KASE ASE20160709054010407/09/16 05:40:31  5-MIN KASE 091240Z 12004KT 10SM CLR 09/02 A3036 7430 60 8500 110/04 RMK AO2 T00940022
93073KASE ASE20160709054510407/09/16 05:45:31  5-MIN KASE 091245Z VRB03KT 10SM CLR 10/02 A3036 7430 58 8600 VRB/03 RMK AO2 T01000022
93073KASE ASE20160709055011107/09/16 05:50:31  5-MIN KASE 091250Z 19003KT 10SM CLR 12/03 A3036 7430 52 8800 190/03 RMK AO2 SLP151 T01220028
93073KASE ASE20160709055510407/09/16 05:55:31  5-MIN KASE 091255Z 16003KT 10SM CLR 12/03 A3036 7430 52 8800 150/03 RMK AO2 T01220028
93073KASE ASE20160709060010407/09/16 06:00:31  5-MIN KASE 091300Z 19004KT 10SM CLR 13/03 A3037 7430 50 8900 180/04 RMK AO2 T01280028
93073KASE ASE20160709060510407/09/16 06:05:31  5-MIN KASE 091305Z 18005KT 10SM CLR 14/03 A3037 7430 47 9000 170/05 RMK AO2 T01390028
93073KASE ASE20160709061010407/09/16 06:10:31  5-MIN KASE 091310Z 18004KT 10SM CLR 14/02 A3037 7430 41 9100 170/04 RMK AO2 T01440017
93073KASE ASE20160709061510407/09/16 06:15:31  5-MIN KASE 091315Z 15004KT 10SM CLR 14/02 A3037 7430 41 9100 140/04 RMK AO2 T01440017
93073KASE ASE20160709062010407/09/16 06:20:31  5-MIN KASE 091320Z 14003KT 10SM CLR 15/01 A3037 7430 38 9200 130/03 RMK AO2 T01500011
93073KASE ASE20160709062510407/09/16 06:25:31  5-MIN KASE 091325Z 11003KT 10SM CLR 15/02 A3037 7430 42 9100 100/03 RMK AO2 T01500022
93073KASE ASE20160709063010407/09/16 06:30:31  5-MIN KASE 091330Z 11003KT 10SM CLR 16/02 A3037 7430 40 9200 100/03 RMK AO2 T01560022
93073KASE ASE20160709063510407/09/16 06:35:31  5-MIN KASE 091335Z 00000KT 10SM CLR 16/03 A3037 7420 42 9200 000/00 RMK AO2 T01560028
93073KASE ASE20160709064010407/09/16 06:40:31  5-MIN KASE 091340Z 00000KT 10SM CLR 16/02 A3037 7420 40 9200 000/00 RMK AO2 T01560022
93073KASE ASE20160709064510407/09/16 06:45:31  5-MIN KASE 091345Z VRB03KT 10SM CLR 16/03 A3038 7420 40 9300 VRB/03 RMK AO2 T01610028
93073KASE ASE20160709065011107/09/16 06:50:31  5-MIN KASE 091350Z 00000KT 10SM CLR 17/02 A3038 7420 37 9300 000/00 RMK AO2 SLP149 T01670022
93073KASE ASE20160709065510407/09/16 06:55:31  5-MIN KASE 091355Z 00000KT 10SM CLR 17/03 A3038 7420 39 9300 000/00 RMK AO2 T01670028
93073KASE ASE20160709070010407/09/16 07:00:31  5-MIN KASE 091400Z 16004KT 10SM CLR 17/02 A3038 7420 35 9400 150/04 RMK AO2 T01720017
93073KASE ASE20160709070510407/09/16 07:05:31  5-MIN KASE 091405Z 12003KT 10SM CLR 17/02 A3038 7420 36 9300 110/03 RMK AO2 T01670017
93073KASE ASE20160709071010407/09/16 07:10:31  5-MIN KASE 091410Z 12004KT 10SM CLR 17/02 A3038 7420 36 9400 110/04 RMK AO2 T01720022
93073KASE ASE20160709071510407/09/16 07:15:31  5-MIN KASE 091415Z VRB03KT 10SM CLR 17/03 A3038 7420 37 9400 VRB/03 RMK AO2 T01720028
93073KASE ASE20160709072010407/09/16 07:20:31  5-MIN KASE 091420Z 10003KT 10SM CLR 18/03 A3038 7420 38 9400 090/03 RMK AO2 T01780033
93073KASE ASE20160709072510407/09/16 07:25:31  5-MIN KASE 091425Z 10003KT 10SM CLR 18/03 A3038 7420 38 9400 090/03 RMK AO2 T01780033
93073KASE ASE20160709073010407/09/16 07:30:31  5-MIN KASE 091430Z 00000KT 10SM CLR 18/03 A3038 7420 36 9500 000/00 RMK AO2 T01830033
93073KASE ASE20160709073510407/09/16 07:35:31  5-MIN KASE 091435Z 00000KT 10SM CLR 18/03 A3038 7420 36 9500 000/00 RMK AO2 T01830033
93073KASE ASE20160709074010407/09/16 07:40:31  5-MIN KASE 091440Z 00000KT 10SM CLR 19/04 A3038 7420 35 9600 000/00 RMK AO2 T01940039
93073KASE ASE20160709074510407/09/16 07:45:31  5-MIN KASE 091445Z 05003KT 10SM CLR 20/04 A3038 7420 34 9700 040/03 RMK AO2 T02000039
93073KASE ASE20160709075011707/09/16 07:50:31  5-MIN KASE 091450Z VRB03KT 10SM CLR 20/04 A3038 7420 34 9700 VRB/03 RMK AO2 SLP154 T02000039 53009
93073KASE ASE20160709075510407/09/16 07:55:31  5-MIN KASE 091455Z 00000KT 10SM CLR 20/03 A3039 7410 31 9700 000/00 RMK AO2 T02000028
93073KASE ASE20160709080010407/09/16 08:00:31  5-MIN KASE 091500Z VRB03KT 10SM CLR 21/03 A3038 7410 32 9700 VRB/03 RMK AO2 T02060033
93073KASE ASE20160709080510407/09/16 08:05:31  5-MIN KASE 091505Z 00000KT 10SM CLR 21/04 A3039 7410 33 9700 000/00 RMK AO2 T02060039
93073KASE ASE20160709081010407/09/16 08:10:31  5-MIN KASE 091510Z VRB03KT 10SM CLR 21/02 A3038 7420 29 9700 VRB/03 RMK AO2 T02060022
93073KASE ASE20160709081510407/09/16 08:15:31  5-MIN KASE 091515Z 07003KT 10SM CLR 21/03 A3038 7420 30 9700 060/03 RMK AO2 T02060028
93073KASE ASE20160709082010407/09/16 08:20:31  5-MIN KASE 091520Z VRB03KT 10SM CLR 21/03 A3038 7420 29 9800 VRB/03 RMK AO2 T02110028
93073KASE ASE20160709082510407/09/16 08:25:31  5-MIN KASE 091525Z 00000KT 10SM CLR 22/02 A3038 7420 27 9900 000/00 RMK AO2 T02170022
93073KASE ASE20160709083010407/09/16 08:30:31  5-MIN KASE 091530Z 00000KT 10SM CLR 22/02 A3038 7420 26 9900 000/00 RMK AO2 T02170017
93073KASE ASE20160709083510407/09/16 08:35:31  5-MIN KASE 091535Z 00000KT 10SM CLR 22/02 A3038 7420 25 9900 000/00 RMK AO2 T02220017
93073KASE ASE20160709084010407/09/16 08:40:31  5-MIN KASE 091540Z VRB03KT 10SM CLR 22/03 A3038 7420 28 9900 VRB/03 RMK AO2 T02220033
93073KASE ASE20160709084510507/09/16 08:45:31  5-MIN KASE 091545Z 00000KT 10SM CLR 23/02 A3038 7420 25 10000 000/00 RMK AO2 T02280022
93073KASE ASE20160709085011207/09/16 08:50:31  5-MIN KASE 091550Z VRB04KT 10SM CLR 23/02 A3037 7420 24 10100 VRB/04 RMK AO2 SLP153 T02330017
93073KASE ASE20160709085510507/09/16 08:55:31  5-MIN KASE 091555Z VRB04KT 10SM CLR 23/01 A3037 7420 23 10100 VRB/04 RMK AO2 T02330011
93073KASE ASE20160709090010507/09/16 09:00:31  5-MIN KASE 091600Z VRB04KT 10SM CLR 23/01 A3038 7420 23 10100 VRB/04 RMK AO2 T02330011
93073KASE ASE20160709090510507/09/16 09:05:31  5-MIN KASE 091605Z 35004KT 10SM CLR 23/02 A3037 7420 24 10100 340/04 RMK AO2 T02330017
93073KASE ASE20160709091010507/09/16 09:10:31  5-MIN KASE 091610Z 03005KT 10SM CLR 24/02 A3037 7420 23 10100 020/05 RMK AO2 T02390017
93073KASE ASE20160709091510507/09/16 09:15:31  5-MIN KASE 091615Z 36006KT 10SM CLR 24/02 A3037 7420 23 10200 350/06 RMK AO2 T02440022
93073KASE ASE20160709092010507/09/16 09:20:31  5-MIN KASE 091620Z VRB05KT 10SM CLR 24/02 A3037 7430 23 10200 VRB/05 RMK AO2 T02440022
93073KASE ASE20160709092510507/09/16 09:25:31  5-MIN KASE 091625Z 36005KT 10SM CLR 24/03 A3037 7430 25 10200 350/05 RMK AO2 T02440033
93073KASE ASE20160709093010507/09/16 09:30:31  5-MIN KASE 091630Z 02004KT 10SM CLR 24/04 A3037 7430 26 10200 010/04 RMK AO2 T02440039
93073KASE ASE20160709093510507/09/16 09:35:31  5-MIN KASE 091635Z 01006KT 10SM CLR 25/03 A3037 7430 24 10200 360/06 RMK AO2 T02500033
93073KASE ASE20160709094010507/09/16 09:40:31  5-MIN KASE 091640Z 02006KT 10SM CLR 25/02 A3037 7430 21 10200 020/06 RMK AO2 T02500017
93073KASE ASE20160709094510607/09/16 09:45:31  5-MIN KASE 091645Z VRB03KT 10SM CLR 26/M01 A3037 7430 17 10300 VRB/03 RMK AO2 T02561011
93073KASE ASE20160709095011307/09/16 09:50:31  5-MIN KASE 091650Z 06005KT 10SM CLR 26/M01 A3037 7430 17 10400 050/05 RMK AO2 SLP145 T02611006
93073KASE ASE20160709095510607/09/16 09:55:31  5-MIN KASE 091655Z 01007KT 10SM CLR 26/M01 A3037 7430 17 10400 360/07 RMK AO2 T02611006
93073KASE ASE20160709100010607/09/16 10:00:31  5-MIN KASE 091700Z VRB06KT 10SM CLR 26/M01 A3037 7430 17 10400 VRB/06 RMK AO2 T02611006
93073KASE ASE20160709100510507/09/16 10:05:31  5-MIN KASE 091705Z 04007KT 10SM CLR 26/00 A3036 7430 18 10400 030/07 RMK AO2 T02610000
93073KASE ASE20160709101010507/09/16 10:10:31  5-MIN KASE 091710Z 05009KT 10SM CLR 27/01 A3036 7440 18 10400 040/09 RMK AO2 T02670006
93073KASE ASE20160709101510507/09/16 10:15:31  5-MIN KASE 091715Z 03008KT 10SM CLR 27/01 A3036 7440 18 10400 020/08 RMK AO2 T02670006
93073KASE ASE20160709102010607/09/16 10:20:31  5-MIN KASE 091720Z 01007KT 10SM CLR 27/M01 A3036 7430 16 10500 360/07 RMK AO2 T02721006
93073KASE ASE20160709102510907/09/16 10:25:31  5-MIN KASE 091725Z VRB06KT 10SM FEW110 27/M01 A3036 7430 16 10400 VRB/06 RMK AO2 T02671011
93073KASE ASE20160709103010907/09/16 10:30:31  5-MIN KASE 091730Z VRB06KT 10SM FEW110 27/M01 A3037 7430 15 10500 VRB/06 RMK AO2 T02721011
93073KASE ASE20160709103510607/09/16 10:35:31  5-MIN KASE 091735Z VRB03KT 10SM CLR 27/M02 A3037 7430 15 10400 VRB/03 RMK AO2 T02671017
93073KASE ASE20160709104010607/09/16 10:40:31  5-MIN KASE 091740Z VRB05KT 10SM CLR 27/M01 A3037 7430 16 10400 VRB/05 RMK AO2 T02671011
93073KASE ASE20160709104510607/09/16 10:45:31  5-MIN KASE 091745Z VRB06KT 10SM CLR 27/M01 A3036 7440 16 10400 VRB/06 RMK AO2 T02671011
93073KASE ASE20160709105013407/09/16 10:50:31  5-MIN KASE 091750Z VRB06KT 10SM FEW110 27/M02 A3036 7440 15 10500 VRB/06 RMK AO2 SLP142 T02721017 10272 20094 51008
93073KASE ASE20160709105511207/09/16 10:55:31  5-MIN KASE 091755Z 20009G20KT 10SM CLR 28/M03 A3036 7440 12 10500 190/09G20 RMK AO2 T02781033
93073KASE ASE20160709110012807/09/16 11:00:31  5-MIN KASE 091800Z 33009G20KT 240V050 10SM CLR 28/M03 A3036 7440 13 10500 320/09G20 230V040 RMK AO2 T02781028
93073KASE ASE20160709110510607/09/16 11:05:31  5-MIN KASE 091805Z 00000KT 10SM CLR 28/M03 A3036 7440 13 10500 000/00 RMK AO2 T02781028
93073KASE ASE20160709111011207/09/16 11:10:31  5-MIN KASE 091810Z 22010G16KT 10SM CLR 28/M03 A3036 7440 13 10500 210/10G16 RMK AO2 T02781028
93073KASE ASE20160709111511507/09/16 11:15:31  5-MIN KASE 091815Z 22014G22KT 10SM FEW110 27/M03 A3036 7440 13 10500 210/14G22 RMK AO2 T02721028
93073KASE ASE20160709112011507/09/16 11:20:31  5-MIN KASE 091820Z 21017G22KT 10SM FEW120 28/M04 A3036 7440 12 10500 200/17G22 RMK AO2 T02781039
93073KASE ASE20160709112511207/09/16 11:25:31  5-MIN KASE 091825Z 21016G21KT 10SM CLR 28/M04 A3036 7440 12 10500 200/16G21 RMK AO2 T02781039
93073KASE ASE20160709113011207/09/16 11:30:31  5-MIN KASE 091830Z 22013G21KT 10SM CLR 28/M04 A3036 7440 12 10500 210/13G21 RMK AO2 T02781039
93073KASE ASE20160709113511207/09/16 11:35:31  5-MIN KASE 091835Z 18014G21KT 10SM CLR 28/M04 A3036 7440 12 10500 170/14G21 RMK AO2 T02781039
93073KASE ASE20160709114011207/09/16 11:40:31  5-MIN KASE 091840Z 19015G21KT 10SM CLR 28/M04 A3035 7440 12 10500 180/15G21 RMK AO2 T02781039
93073KASE ASE20160709114511207/09/16 11:45:31  5-MIN KASE 091845Z 20014G24KT 10SM CLR 28/M03 A3035 7450 12 10600 190/14G24 RMK AO2 T02781033
93073KASE ASE20160709115011907/09/16 11:50:31  5-MIN KASE 091850Z 21015G24KT 10SM CLR 28/M03 A3035 7440 13 10600 200/15G24 RMK AO2 SLP137 T02831028
93073KASE ASE20160709115511207/09/16 11:55:31  5-MIN KASE 091855Z 23012G23KT 10SM CLR 28/M04 A3035 7450 12 10600 220/12G23 RMK AO2 T02781039
93073KASE ASE20160709120011207/09/16 12:00:31  5-MIN KASE 091900Z 20015G21KT 10SM CLR 28/M03 A3035 7450 12 10600 190/15G21 RMK AO2 T02781033
93073KASE ASE20160709120512807/09/16 12:05:31  5-MIN KASE 091905Z 24012G21KT 210V280 10SM CLR 27/M04 A3035 7450 12 10500 230/12G21 200V270 RMK AO2 T02721039
93073KASE ASE20160709121011207/09/16 12:10:31  5-MIN KASE 091910Z 22014G21KT 10SM CLR 28/M04 A3035 7450 11 10600 210/14G21 RMK AO2 T02781044
93073KASE ASE20160709121511207/09/16 12:15:31  5-MIN KASE 091915Z 25008G21KT 10SM CLR 28/M04 A3035 7450 12 10600 240/08G21 RMK AO2 T02781039
93073KASE ASE20160709122011207/09/16 12:20:31  5-MIN KASE 091920Z 21011G20KT 10SM CLR 28/M03 A3035 7450 13 10600 200/11G20 RMK AO2 T02781028
93073KASE ASE20160709122511207/09/16 12:25:31  5-MIN KASE 091925Z VRB06G20KT 10SM CLR 27/M04 A3035 7450 12 10500 VRB/06G20 RMK AO2 T02721039
93073KASE ASE20160709123012807/09/16 12:30:31  5-MIN KASE 091930Z 24009G20KT 190V300 10SM CLR 28/M03 A3035 7450 12 10600 230/09G20 180V290 RMK AO2 T02781033
93073KASE ASE20160709123511207/09/16 12:35:31  5-MIN KASE 091935Z 25010G19KT 10SM CLR 28/M03 A3035 7450 13 10600 240/10G19 RMK AO2 T02781028
93073KASE ASE20160709124011207/09/16 12:40:31  5-MIN KASE 091940Z 24011G20KT 10SM CLR 28/M03 A3035 7450 13 10600 230/11G20 RMK AO2 T02781028
93073KASE ASE20160709124511207/09/16 12:45:31  5-MIN KASE 091945Z 22005G22KT 10SM CLR 27/M04 A3035 7450 12 10500 210/05G22 RMK AO2 T02721039
93073KASE ASE20160709125011907/09/16 12:50:31  5-MIN KASE 091950Z 21011G22KT 10SM CLR 28/M02 A3035 7450 13 10600 200/11G22 RMK AO2 SLP138 T02831022
93073KASE ASE20160709125511207/09/16 12:55:31  5-MIN KASE 091955Z 19013G18KT 10SM CLR 28/M02 A3035 7450 13 10600 180/13G18 RMK AO2 T02781022
93073KASE ASE20160709130011207/09/16 13:00:31  5-MIN KASE 092000Z 21010G18KT 10SM CLR 28/M03 A3034 7450 13 10600 200/10G18 RMK AO2 T02781028
93073KASE ASE20160710210012507/10/16 21:00:31  5-MIN KASE 110400Z AUTO 23008KT 200V260 10SM CLR 18/01 A3004 7730 30 9900 220/08 190V250 RMK AO2 T01830006
93073KASE ASE20160710210511107/10/16 21:05:31  5-MIN KASE 110405Z AUTO VRB04KT 10SM CLR 20/M02 A3004 7730 23 10100 VRB/04 RMK AO2 T02001017
93073KASE ASE20160710211010907/10/16 21:10:31  5-MIN KASE 110410Z AUTO 14006KT 10SM CLR 19/00 A3004 7730 28 9900 130/06 RMK AO2 T01890000
93073KASE ASE20160710211510907/10/16 21:15:31  5-MIN KASE 110415Z AUTO 18006KT 10SM CLR 18/00 A3004 7730 30 9800 170/06 RMK AO2 T01780000
93073KASE ASE20160710212011007/10/16 21:20:31  5-MIN KASE 110420Z AUTO 20006KT 10SM CLR 17/M01 A3004 7730 29 9800 190/06 RMK AO2 T01721006
93073KASE ASE20160710212511007/10/16 21:25:31  5-MIN KASE 110425Z AUTO 18005KT 10SM CLR 17/M01 A3005 7720 29 9800 170/05 RMK AO2 T01721006
93073KASE ASE20160710213010907/10/16 21:30:31  5-MIN KASE 110430Z AUTO 19004KT 10SM CLR 16/01 A3005 7720 36 9600 180/04 RMK AO2 T01560006
93073KASE ASE20160710213510907/10/16 21:35:31  5-MIN KASE 110435Z AUTO 15003KT 10SM CLR 16/00 A3004 7730 33 9600 140/03 RMK AO2 T01610000
93073KASE ASE20160710214010907/10/16 21:40:31  5-MIN KASE 110440Z AUTO 17010KT 10SM CLR 17/00 A3004 7730 32 9700 160/10 RMK AO2 T01670000
93073KASE ASE20160710214511007/10/16 21:45:31  5-MIN KASE 110445Z AUTO 17007KT 10SM CLR 17/M01 A3004 7730 31 9700 160/07 RMK AO2 T01671006
93073KASE ASE20160710215011707/10/16 21:50:31  5-MIN KASE 110450Z AUTO 19007KT 10SM CLR 17/M01 A3004 7730 31 9700 180/07 RMK AO2 SLP026 T01671006
93073KASE ASE20160710215511007/10/16 21:55:31  5-MIN KASE 110455Z AUTO 19010KT 10SM CLR 16/M01 A3004 7730 32 9600 180/10 RMK AO2 T01611006
93073KASE ASE20160710220011007/10/16 22:00:31  5-MIN KASE 110500Z AUTO VRB05KT 10SM CLR 16/M01 A3004 7730 30 9600 VRB/05 RMK AO2 T01611011
93073KASE ASE20160710220510907/10/16 22:05:31  5-MIN KASE 110505Z AUTO 15006KT 10SM CLR 17/00 A3005 7730 32 9700 140/06 RMK AO2 T01670000
93073KASE ASE20160710221011007/10/16 22:10:31  5-MIN KASE 110510Z AUTO 18006KT 10SM CLR 16/M01 A3004 7730 32 9600 170/06 RMK AO2 T01611006
93073KASE ASE20160710221511007/10/16 22:15:31  5-MIN KASE 110515Z AUTO 18005KT 10SM CLR 16/M01 A3004 7730 33 9600 170/05 RMK AO2 T01561006
93073KASE ASE20160710222011007/10/16 22:20:31  5-MIN KASE 110520Z AUTO 18007KT 10SM CLR 16/M01 A3004 7730 33 9600 170/07 RMK AO2 T01561006
93073KASE ASE20160710222511007/10/16 22:25:31  5-MIN KASE 110525Z AUTO 18006KT 10SM CLR 16/M02 A3004 7730 29 9600 170/06 RMK AO2 T01611017
93073KASE ASE20160710223012607/10/16 22:30:31  5-MIN KASE 110530Z AUTO 17007KT 120V200 10SM CLR 16/M02 A3004 7730 30 9600 160/07 110V190 RMK AO2 T01561017
93073KASE ASE20160710223512607/10/16 22:35:31  5-MIN KASE 110535Z AUTO 11008KT 080V170 10SM CLR 16/M01 A3004 7730 32 9600 100/08 070V160 RMK AO2 T01611006
93073KASE ASE20160710224011007/10/16 22:40:31  5-MIN KASE 110540Z AUTO 15009KT 10SM CLR 17/M01 A3004 7730 28 9800 140/09 RMK AO2 T01721011
93073KASE ASE20160710224510007/10/16 22:45:31  5-MIN KASE 110545Z AUTO 10SM CLR 17/M02 A3005 7720 26 9800 M /M RMK AO2 T01721022
93073KASE ASE20160710225013607/10/16 22:50:31  5-MIN KASE 110550Z AUTO 16009KT 10SM CLR 19/M04 A3004 7730 20 10000 150/09 RMK AO2 SLP018 T01941039 10278 20150 55002
93073KASE ASE20160710225511007/10/16 22:55:31  5-MIN KASE 110555Z AUTO 19004KT 10SM CLR 17/M03 A3004 7730 25 9800 180/04 RMK AO2 T01721028
93073KASE ASE20160710230011007/10/16 23:00:31  5-MIN KASE 110600Z AUTO 13005KT 10SM CLR 17/M02 A3004 7730 28 9700 120/05 RMK AO2 T01671017
93073KASE ASE20160710230511007/10/16 23:05:31  5-MIN KASE 110605Z AUTO 19007KT 10SM CLR 17/M02 A3004 7730 28 9700 180/07 RMK AO2 T01671017
93073KASE ASE20160710231011007/10/16 23:10:31  5-MIN KASE 110610Z AUTO 19006KT 10SM CLR 15/M01 A3004 7730 33 9500 180/06 RMK AO2 T01501011
93073KASE ASE20160710231511007/10/16 23:15:31  5-MIN KASE 110615Z AUTO VRB03KT 10SM CLR 14/M01 A3004 7730 34 9500 VRB/03 RMK AO2 T01441011
93073KASE ASE20160710232011007/10/16 23:20:31  5-MIN KASE 110620Z AUTO 15005KT 10SM CLR 15/M01 A3004 7730 33 9500 140/05 RMK AO2 T01501011
93073KASE ASE20160710232511007/10/16 23:25:31  5-MIN KASE 110625Z AUTO 23005KT 10SM CLR 13/M01 A3004 7730 36 9300 220/05 RMK AO2 T01331011
93073KASE ASE20160710233011007/10/16 23:30:31  5-MIN KASE 110630Z AUTO 23003KT 10SM CLR 14/M02 A3004 7730 34 9400 220/03 RMK AO2 T01391017
93073KASE ASE20160710233511007/10/16 23:35:31  5-MIN KASE 110635Z AUTO 21007KT 10SM CLR 14/M02 A3004 7730 31 9500 200/07 RMK AO2 T01441022
93073KASE ASE20160710234011007/10/16 23:40:31  5-MIN KASE 110640Z AUTO 17004KT 10SM CLR 14/M02 A3004 7730 34 9400 170/04 RMK AO2 T01391017
93073KASE ASE20160710234511007/10/16 23:45:31  5-MIN KASE 110645Z AUTO 11007KT 10SM CLR 14/M02 A3005 7730 33 9400 100/07 RMK AO2 T01441017
93073KASE ASE20160710235012707/10/16 23:50:31  5-MIN KASE 110650Z AUTO VRB06KT 10SM CLR 15/M02 A3005 7720 31 9500 VRB/06 RMK AO2 SLP027 T01501017 402890100
93073KASE ASE20160710235511007/10/16 23:55:31  5-MIN KASE 110655Z AUTO VRB05KT 10SM CLR 15/M02 A3005 7720 30 9500 VRB/05 RMK AO2 T01501022
93073KASE ASE20160711000011007/11/16 00:00:31  5-MIN KASE 110700Z AUTO VRB03KT 10SM CLR 16/M02 A3005 7720 29 9600 VRB/03 RMK AO2 T01561022
93073KASE ASE20160711000511007/11/16 00:05:31  5-MIN KASE 110705Z AUTO 22006KT 10SM CLR 12/M01 A3005 7720 39 9200 210/06 RMK AO2 T01221011
93073KASE ASE20160711001011007/11/16 00:10:31  5-MIN KASE 110710Z AUTO 17007KT 10SM CLR 14/M02 A3005 7720 34 9400 160/07 RMK AO2 T01391017
93073KASE ASE20160711001511007/11/16 00:15:31  5-MIN KASE 110715Z AUTO 17005KT 10SM CLR 16/M03 A3005 7720 28 9600 160/05 RMK AO2 T01561028
93073KASE ASE20160711002011007/11/16 00:20:31  5-MIN KASE 110720Z AUTO VRB05KT 10SM CLR 13/M02 A3005 7720 36 9300 VRB/05 RMK AO2 T01281017
93073KASE ASE20160711002511007/11/16 00:25:31  5-MIN KASE 110725Z AUTO 18006KT 10SM CLR 13/M02 A3005 7720 35 9300 170/06 RMK AO2 T01331017
93073KASE ASE20160711003011007/11/16 00:30:31  5-MIN KASE 110730Z AUTO 16003KT 10SM CLR 13/M01 A3005 7720 38 9300 160/03 RMK AO2 T01281011
93073KASE ASE20160711003511007/11/16 00:35:31  5-MIN KASE 110735Z AUTO 20006KT 10SM CLR 13/M02 A3006 7710 35 9300 190/06 RMK AO2 T01331017
93073KASE ASE20160711004011007/11/16 00:40:31  5-MIN KASE 110740Z AUTO 00000KT 10SM CLR 13/M02 A3006 7710 35 9300 000/00 RMK AO2 T01331017
93073KASE ASE20160711004511007/11/16 00:45:31  5-MIN KASE 110745Z AUTO 15004KT 10SM CLR 13/M02 A3006 7720 35 9300 140/04 RMK AO2 T01331017
93073KASE ASE20160711005011707/11/16 00:50:31  5-MIN KASE 110750Z AUTO VRB04KT 10SM CLR 12/M02 A3006 7720 38 9200 VRB/04 RMK AO2 SLP036 T01221017
93073KASE ASE20160711005511007/11/16 00:55:31  5-MIN KASE 110755Z AUTO 17007KT 10SM CLR 13/M01 A3005 7720 38 9300 160/07 RMK AO2 T01281011
93073KASE ASE20160711010011007/11/16 01:00:31  5-MIN KASE 110800Z AUTO 20007KT 10SM CLR 12/M01 A3006 7710 41 9100 190/07 RMK AO2 T01171011
93073KASE ASE20160711010511007/11/16 01:05:31  5-MIN KASE 110805Z AUTO VRB03KT 10SM CLR 12/M02 A3006 7710 38 9200 VRB/03 RMK AO2 T01221017
93073KASE ASE20160711011011007/11/16 01:10:31  5-MIN KASE 110810Z AUTO 18006KT 10SM CLR 13/M02 A3006 7710 36 9200 170/06 RMK AO2 T01281017
93073KASE ASE20160711011511007/11/16 01:15:31  5-MIN KASE 110815Z AUTO 18007KT 10SM CLR 13/M02 A3006 7710 34 9300 170/07 RMK AO2 T01331022
93073KASE ASE20160711012011007/11/16 01:20:31  5-MIN KASE 110820Z AUTO 19005KT 10SM CLR 12/M01 A3006 7720 41 9100 180/05 RMK AO2 T01171011
93073KASE ASE20160711012511007/11/16 01:25:31  5-MIN KASE 110825Z AUTO 21006KT 10SM CLR 12/M01 A3006 7720 41 9100 200/06 RMK AO2 T01171011
93073KASE ASE20160711013011007/11/16 01:30:31  5-MIN KASE 110830Z AUTO VRB05KT 10SM CLR 12/M01 A3005 7720 41 9100 VRB/05 RMK AO2 T01171011
93073KASE ASE20160711013511007/11/16 01:35:31  5-MIN KASE 110835Z AUTO 15007KT 10SM CLR 13/M02 A3005 7720 36 9300 140/07 RMK AO2 T01281017
93073KASE ASE20160711014011007/11/16 01:40:31  5-MIN KASE 110840Z AUTO 20006KT 10SM CLR 12/M02 A3006 7720 38 9200 190/06 RMK AO2 T01221017
93073KASE ASE20160711014511007/11/16 01:45:31  5-MIN KASE 110845Z AUTO 22005KT 10SM CLR 12/M02 A3006 7720 39 9100 210/05 RMK AO2 T01171017
93073KASE ASE20160711015012307/11/16 01:50:31  5-MIN KASE 110850Z AUTO 20004KT 10SM CLR 12/M02 A3006 7710 36 9200 190/04 RMK AO2 SLP041 T01221022 51003
93073KASE ASE20160711015511007/11/16 01:55:31  5-MIN KASE 110855Z AUTO 19007KT 10SM CLR 13/M02 A3006 7710 36 9200 180/07 RMK AO2 T01281017
93073KASE ASE20160711020011007/11/16 02:00:31  5-MIN KASE 110900Z AUTO 23008KT 10SM CLR 11/M01 A3006 7710 42 9100 220/08 RMK AO2 T01111011
93073KASE ASE20160711020511007/11/16 02:05:31  5-MIN KASE 110905Z AUTO 19008KT 10SM CLR 13/M02 A3006 7710 35 9200 180/08 RMK AO2 T01281022
93073KASE ASE20160711021011007/11/16 02:10:31  5-MIN KASE 110910Z AUTO 19005KT 10SM CLR 13/M02 A3006 7710 34 9300 180/05 RMK AO2 T01331022
93073KASE ASE20160711021511007/11/16 02:15:31  5-MIN KASE 110915Z AUTO VRB03KT 10SM CLR 13/M02 A3006 7710 36 9200 VRB/03 RMK AO2 T01281017
93073KASE ASE20160711022011007/11/16 02:20:31  5-MIN KASE 110920Z AUTO 11007KT 10SM CLR 12/M02 A3006 7710 38 9200 100/07 RMK AO2 T01221017
93073KASE ASE20160711022511007/11/16 02:25:31  5-MIN KASE 110925Z AUTO VRB04KT 10SM CLR 12/M02 A3007 7710 38 9200 VRB/04 RMK AO2 T01221017
93073KASE ASE20160711023011007/11/16 02:30:31  5-MIN KASE 110930Z AUTO VRB05KT 10SM CLR 13/M02 A3006 7710 35 9300 VRB/05 RMK AO2 T01331017
93073KASE ASE20160711023511007/11/16 02:35:31  5-MIN KASE 110935Z AUTO 19006KT 10SM CLR 11/M01 A3006 7710 42 9100 180/06 RMK AO2 T01111011
93073KASE ASE20160711024011007/11/16 02:40:31  5-MIN KASE 110940Z AUTO 19005KT 10SM CLR 09/M01 A3006 7710 49 8900 190/05 RMK AO2 T00941006
93073KASE ASE20160711024511007/11/16 02:45:31  5-MIN KASE 110945Z AUTO 19005KT 10SM CLR 11/M01 A3006 7710 44 9000 180/05 RMK AO2 T01061011
93073KASE ASE20160711025011707/11/16 02:50:31  5-MIN KASE 110950Z AUTO 19007KT 10SM CLR 11/M01 A3006 7710 42 9100 180/07 RMK AO2 SLP044 T01111011
93073KASE ASE20160711025511007/11/16 02:55:31  5-MIN KASE 110955Z AUTO 19006KT 10SM CLR 11/M01 A3006 7710 42 9100 180/06 RMK AO2 T01111011
93073KASE ASE20160711030011007/11/16 03:00:31  5-MIN KASE 111000Z AUTO 17007KT 10SM CLR 12/M02 A3006 7710 39 9100 160/07 RMK AO2 T01171017
93073KASE ASE20160711030511007/11/16 03:05:31  5-MIN KASE 111005Z AUTO 20007KT 10SM CLR 11/M01 A3007 7710 44 9000 190/07 RMK AO2 T01061011
93073KASE ASE20160711031011007/11/16 03:10:31  5-MIN KASE 111010Z AUTO 17006KT 10SM CLR 12/M02 A3006 7710 39 9100 160/06 RMK AO2 T01171017
93073KASE ASE20160711031511007/11/16 03:15:31  5-MIN KASE 111015Z AUTO 21007KT 10SM CLR 11/M01 A3006 7710 44 9000 200/07 RMK AO2 T01061011
93073KASE ASE20160711032011007/11/16 03:20:31  5-MIN KASE 111020Z AUTO 21007KT 10SM CLR 11/M01 A3007 7710 44 9000 200/07 RMK AO2 T01061011
93073KASE ASE20160711032511007/11/16 03:25:31  5-MIN KASE 111025Z AUTO 17008KT 10SM CLR 11/M02 A3007 7700 41 9100 170/08 RMK AO2 T01111017
93073KASE ASE20160711033011007/11/16 03:30:31  5-MIN KASE 111030Z AUTO 18008KT 10SM CLR 11/M01 A3006 7710 44 9000 170/08 RMK AO2 T01061011
93073KASE ASE20160711033511007/11/16 03:35:31  5-MIN KASE 111035Z AUTO 20007KT 10SM CLR 11/M01 A3007 7700 44 9000 190/07 RMK AO2 T01061011
93073KASE ASE20160711034011007/11/16 03:40:31  5-MIN KASE 111040Z AUTO 18008KT 10SM CLR 11/M02 A3007 7710 41 9100 180/08 RMK AO2 T01111017
93073KASE ASE20160711034511007/11/16 03:45:31  5-MIN KASE 111045Z AUTO 18006KT 10SM CLR 11/M02 A3007 7700 42 9000 180/06 RMK AO2 T01061017
93073KASE ASE20160711035011707/11/16 03:50:31  5-MIN KASE 111050Z AUTO 21007KT 10SM CLR 11/M02 A3007 7700 41 9000 200/07 RMK AO2 SLP048 T01111017
93073KASE ASE20160711035511007/11/16 03:55:31  5-MIN KASE 111055Z AUTO 21007KT 10SM CLR 11/M02 A3007 7700 41 9000 200/07 RMK AO2 T01111017
93073KASE ASE20160711040011007/11/16 04:00:31  5-MIN KASE 111100Z AUTO 19008KT 10SM CLR 11/M02 A3007 7700 42 9000 180/08 RMK AO2 T01061017
93073KASE ASE20160711040511007/11/16 04:05:31  5-MIN KASE 111105Z AUTO 20006KT 10SM CLR 10/M01 A3007 7700 46 8900 190/06 RMK AO2 T01001011
93073KASE ASE20160711041011007/11/16 04:10:31  5-MIN KASE 111110Z AUTO 13006KT 10SM CLR 10/M01 A3007 7700 46 8900 120/06 RMK AO2 T01001011
93073KASE ASE20160711041511007/11/16 04:15:31  5-MIN KASE 111115Z AUTO 21007KT 10SM CLR 10/M01 A3007 7700 46 8900 200/07 RMK AO2 T01001011
93073KASE ASE20160711042011007/11/16 04:20:31  5-MIN KASE 111120Z AUTO 19006KT 10SM CLR 11/M02 A3008 7700 41 9000 180/06 RMK AO2 T01111017
93073KASE ASE20160711042511007/11/16 04:25:31  5-MIN KASE 111125Z AUTO 19006KT 10SM CLR 10/M01 A3008 7700 46 8900 180/06 RMK AO2 T01001011
93073KASE ASE20160711043011007/11/16 04:30:31  5-MIN KASE 111130Z AUTO VRB05KT 10SM CLR 10/M01 A3008 7700 46 8900 VRB/05 RMK AO2 T01001011
93073KASE ASE20160711043511007/11/16 04:35:31  5-MIN KASE 111135Z AUTO 15004KT 10SM CLR 10/M01 A3008 7690 46 8900 140/04 RMK AO2 T01001011
93073KASE ASE20160711044011007/11/16 04:40:31  5-MIN KASE 111140Z AUTO 18004KT 10SM CLR 09/M01 A3008 7690 47 8800 170/04 RMK AO2 T00941011
93073KASE ASE20160711044511007/11/16 04:45:31  5-MIN KASE 111145Z AUTO 17005KT 10SM CLR 09/M01 A3008 7690 49 8800 160/05 RMK AO2 T00941006
93073KASE ASE20160711045013507/11/16 04:50:31  5-MIN KASE 111150Z AUTO 19004KT 10SM CLR 09/M01 A3009 7690 47 8800 180/04 RMK AO2 SLP058 T00941011 10178 20094 51004
93073KASE ASE20160711045511007/11/16 04:55:31  5-MIN KASE 111155Z AUTO 21003KT 10SM CLR 09/M01 A3009 7690 49 8800 200/03 RMK AO2 T00891011
93073KASE ASE20160711050011007/11/16 05:00:31  5-MIN KASE 111200Z AUTO 19006KT 10SM CLR 08/M01 A3009 7680 55 8600 180/06 RMK AO2 T00781006
93073KASE ASE20160711050511007/11/16 05:05:31  5-MIN KASE 111205Z AUTO 20006KT 10SM CLR 09/M01 A3009 7680 51 8800 190/06 RMK AO2 T00891006
93073KASE ASE20160711051011007/11/16 05:10:31  5-MIN KASE 111210Z AUTO 18006KT 10SM CLR 09/M01 A3009 7680 51 8800 170/06 RMK AO2 T00891006
93073KASE ASE20160711051511007/11/16 05:15:31  5-MIN KASE 111215Z AUTO 17005KT 10SM CLR 08/M01 A3009 7680 53 8700 160/05 RMK AO2 T00831006
93073KASE ASE20160711052011007/11/16 05:20:31  5-MIN KASE 111220Z AUTO 17007KT 10SM CLR 09/M01 A3010 7680 51 8800 160/07 RMK AO2 T00891006
93073KASE ASE20160711052511007/11/16 05:25:31  5-MIN KASE 111225Z AUTO 15006KT 10SM CLR 10/M01 A3010 7680 46 8900 140/06 RMK AO2 T01001011
93073KASE ASE20160711053011007/11/16 05:30:31  5-MIN KASE 111230Z AUTO 16007KT 10SM CLR 09/M01 A3010 7680 49 8800 150/07 RMK AO2 T00941006
93073KASE ASE20160711053511007/11/16 05:35:31  5-MIN KASE 111235Z AUTO 17005KT 10SM CLR 10/M01 A3010 7670 47 8900 160/05 RMK AO2 T01001006
93073KASE ASE20160711054010907/11/16 05:40:31  5-MIN KASE 111240Z AUTO 20005KT 10SM CLR 09/00 A3010 7670 53 8800 190/05 RMK AO2 T00890000
93073KASE ASE20160711054510907/11/16 05:45:31  5-MIN KASE 111245Z AUTO 14003KT 10SM CLR 09/00 A3011 7670 51 8800 130/03 RMK AO2 T00940000
93073KASE ASE20160711055011107/11/16 05:50:31  5-MIN KASE 111250Z 16006KT 10SM CLR 10/00 A3011 7670 49 8900 150/06 RMK AO2 SLP065 T01000000
93073KASE ASE20160711055510407/11/16 05:55:31  5-MIN KASE 111255Z 14004KT 10SM CLR 10/01 A3011 7670 52 8900 140/04 RMK AO2 T01000006
93073KASE ASE20160711060010407/11/16 06:00:31  5-MIN KASE 111300Z 17004KT 10SM CLR 11/01 A3011 7670 50 8900 160/04 RMK AO2 T01060006
93073KASE ASE20160711060510407/11/16 06:05:31  5-MIN KASE 111305Z 15004KT 10SM CLR 11/01 A3011 7670 50 8900 140/04 RMK AO2 T01060006
93073KASE ASE20160711061010407/11/16 06:10:31  5-MIN KASE 111310Z 14004KT 10SM CLR 11/01 A3011 7670 52 8900 140/04 RMK AO2 T01060011
93073KASE ASE20160711061510407/11/16 06:15:31  5-MIN KASE 111315Z 14005KT 10SM CLR 11/00 A3011 7660 46 9000 130/05 RMK AO2 T01110000
93073KASE ASE20160711062010407/11/16 06:20:31  5-MIN KASE 111320Z 14004KT 10SM CLR 11/01 A3012 7660 48 9000 130/04 RMK AO2 T01110006
93073KASE ASE20160711062510407/11/16 06:25:31  5-MIN KASE 111325Z 14005KT 10SM CLR 11/01 A3012 7660 50 9000 130/05 RMK AO2 T01110011
93073KASE ASE20160711063010407/11/16 06:30:31  5-MIN KASE 111330Z 00000KT 10SM CLR 12/01 A3012 7660 48 9100 000/00 RMK AO2 T01170011
93073KASE ASE20160711063510407/11/16 06:35:31  5-MIN KASE 111335Z 13005KT 10SM CLR 12/01 A3012 7660 46 9100 120/05 RMK AO2 T01220011
93073KASE ASE20160711064010407/11/16 06:40:31  5-MIN KASE 111340Z 12005KT 10SM CLR 12/01 A3012 7660 46 9100 110/05 RMK AO2 T01220011
93073KASE ASE20160711064510407/11/16 06:45:31  5-MIN KASE 111345Z 14003KT 10SM CLR 13/01 A3012 7650 44 9200 130/03 RMK AO2 T01280011
93073KASE ASE20160711065011107/11/16 06:50:31  5-MIN KASE 111350Z 13005KT 10SM CLR 13/02 A3013 7650 45 9200 120/05 RMK AO2 SLP074 T01330017
93073KASE ASE20160711065510407/11/16 06:55:31  5-MIN KASE 111355Z 12004KT 10SM CLR 13/02 A3012 7650 45 9200 110/04 RMK AO2 T01330017
93073KASE ASE20160711070010407/11/16 07:00:31  5-MIN KASE 111400Z 14004KT 10SM CLR 14/02 A3012 7650 43 9300 130/04 RMK AO2 T01390017
93073KASE ASE20160711070510407/11/16 07:05:31  5-MIN KASE 111405Z 15003KT 10SM CLR 14/02 A3012 7650 41 9400 140/03 RMK AO2 T01440017
93073KASE ASE20160711071010407/11/16 07:10:31  5-MIN KASE 111410Z 12003KT 10SM CLR 15/01 A3012 7660 38 9400 110/03 RMK AO2 T01500011
93073KASE ASE20160711071510407/11/16 07:15:31  5-MIN KASE 111415Z 12004KT 10SM CLR 15/01 A3012 7650 37 9400 120/04 RMK AO2 T01500006
93073KASE ASE20160711072010407/11/16 07:20:31  5-MIN KASE 111420Z 11004KT 10SM CLR 16/01 A3012 7660 37 9500 100/04 RMK AO2 T01560011
93073KASE ASE20160711072510507/11/16 07:25:31  5-MIN KASE 111425Z 15003KT 10SM CLR 16/M01 A3012 7650 33 9500 150/03 RMK AO2 T01561006
93073KASE ASE20160711073010507/11/16 07:30:31  5-MIN KASE 111430Z 00000KT 10SM CLR 16/M01 A3013 7650 30 9500 000/00 RMK AO2 T01611011
93073KASE ASE20160711073510507/11/16 07:35:31  5-MIN KASE 111435Z 00000KT 10SM CLR 17/M01 A3013 7650 31 9600 000/00 RMK AO2 T01671006
93073KASE ASE20160711074010407/11/16 07:40:31  5-MIN KASE 111440Z 00000KT 10SM CLR 17/00 A3013 7650 31 9700 000/00 RMK AO2 T01720000
93073KASE ASE20160711074510407/11/16 07:45:31  5-MIN KASE 111445Z 00000KT 10SM CLR 18/01 A3013 7650 32 9700 000/00 RMK AO2 T01780011
93073KASE ASE20160711075011707/11/16 07:50:31  5-MIN KASE 111450Z 00000KT 10SM CLR 18/01 A3012 7650 31 9700 000/00 RMK AO2 SLP068 T01780006 53008
93073KASE ASE20160711075510407/11/16 07:55:31  5-MIN KASE 111455Z 19003KT 10SM CLR 18/01 A3013 7650 31 9700 180/03 RMK AO2 T01780006
93073KASE ASE20160711080010407/11/16 08:00:31  5-MIN KASE 111500Z VRB03KT 10SM CLR 18/01 A3013 7650 31 9700 VRB/03 RMK AO2 T01780006
93073KASE ASE20160711080510407/11/16 08:05:31  5-MIN KASE 111505Z VRB03KT 10SM CLR 18/01 A3013 7650 32 9700 VRB/03 RMK AO2 T01780011
93073KASE ASE20160711081010407/11/16 08:10:31  5-MIN KASE 111510Z 00000KT 10SM CLR 18/01 A3013 7650 31 9800 000/00 RMK AO2 T01830011
93073KASE ASE20160711081510407/11/16 08:15:31  5-MIN KASE 111515Z 02006KT 10SM CLR 19/01 A3013 7650 30 9800 010/06 RMK AO2 T01890011
93073KASE ASE20160711082010407/11/16 08:20:31  5-MIN KASE 111520Z 36008KT 10SM CLR 19/01 A3012 7650 29 9900 350/08 RMK AO2 T01940011
93073KASE ASE20160711082510707/11/16 08:25:31  5-MIN KASE 111525Z 01008KT 10SM FEW100 19/02 A3013 7650 30 9900 360/08 RMK AO2 T01940017
93073KASE ASE20160711083010807/11/16 08:30:31  5-MIN KASE 111530Z 01008KT 10SM FEW100 20/02 A3013 7650 30 10000 360/08 RMK AO2 T02000022
93073KASE ASE20160711083510807/11/16 08:35:31  5-MIN KASE 111535Z 01009KT 10SM FEW100 20/02 A3012 7650 29 10000 360/09 RMK AO2 T02000017
93073KASE ASE20160711084010807/11/16 08:40:31  5-MIN KASE 111540Z 35007KT 10SM FEW100 20/02 A3013 7650 29 10000 340/07 RMK AO2 T02000017
93073KASE ASE20160711084510807/11/16 08:45:31  5-MIN KASE 111545Z 35008KT 10SM FEW100 20/01 A3013 7650 28 10000 340/08 RMK AO2 T02000011
93073KASE ASE20160711085011507/11/16 08:50:31  5-MIN KASE 111550Z 33009KT 10SM FEW100 20/02 A3012 7650 30 10000 320/09 RMK AO2 SLP065 T02000022
93073KASE ASE20160711085510807/11/16 08:55:31  5-MIN KASE 111555Z 36010KT 10SM FEW100 21/03 A3013 7650 30 10000 350/10 RMK AO2 T02060028
93073KASE ASE20160711090010807/11/16 09:00:31  5-MIN KASE 111600Z 34008KT 10SM FEW100 20/03 A3013 7650 31 10000 340/08 RMK AO2 T02000028
93073KASE ASE20160711090512407/11/16 09:05:31  5-MIN KASE 111605Z 35008KT 310V010 10SM FEW100 20/03 A3013 7650 31 10000 340/08 300V360 RMK AO2 T02000028
93073KASE ASE20160711091010507/11/16 09:10:31  5-MIN KASE 111610Z 33010KT 10SM CLR 20/03 A3013 7650 33 10000 320/10 RMK AO2 T02000033
93073KASE ASE20160711091510807/11/16 09:15:31  5-MIN KASE 111615Z 35009KT 10SM FEW100 21/03 A3012 7650 32 10000 340/09 RMK AO2 T02060033
93073KASE ASE20160711092010807/11/16 09:20:31  5-MIN KASE 111620Z 33012KT 10SM FEW100 20/03 A3013 7650 33 10000 330/12 RMK AO2 T02000033
93073KASE ASE20160711092510807/11/16 09:25:31  5-MIN KASE 111625Z 35008KT 10SM FEW100 20/03 A3013 7650 33 10000 340/08 RMK AO2 T02000033
93073KASE ASE20160711093010807/11/16 09:30:31  5-MIN KASE 111630Z 33010KT 10SM FEW100 21/03 A3013 7650 32 10000 320/10 RMK AO2 T02060033
93073KASE ASE20160711093510807/11/16 09:35:31  5-MIN KASE 111635Z 33012KT 10SM FEW100 21/03 A3013 7650 32 10000 320/12 RMK AO2 T02060033
93073KASE ASE20160711094011407/11/16 09:40:31  5-MIN KASE 111640Z 35011G16KT 10SM FEW100 21/03 A3013 7650 32 10000 340/11G16 RMK AO2 T02060033
93073KASE ASE20160711094510807/11/16 09:45:31  5-MIN KASE 111645Z 35009KT 10SM FEW100 21/03 A3012 7650 32 10000 340/09 RMK AO2 T02060033
93073KASE ASE20160711095011507/11/16 09:50:31  5-MIN KASE 111650Z 34010KT 10SM FEW100 21/03 A3013 7650 30 10100 340/10 RMK AO2 SLP070 T02110033
93073KASE ASE20160711095510807/11/16 09:55:31  5-MIN KASE 111655Z 36008KT 10SM FEW100 21/03 A3013 7650 29 10100 350/08 RMK AO2 T02110028
93073KASE ASE20160711100010807/11/16 10:00:31  5-MIN KASE 111700Z 36011KT 10SM FEW100 21/03 A3013 7650 30 10100 350/11 RMK AO2 T02110033
93073KASE ASE20160711100510807/11/16 10:05:31  5-MIN KASE 111705Z 35009KT 10SM FEW100 21/03 A3013 7650 30 10100 340/09 RMK AO2 T02110033
93073KASE ASE20160711101010807/11/16 10:10:31  5-MIN KASE 111710Z 36010KT 10SM FEW100 21/03 A3013 7650 29 10100 350/10 RMK AO2 T02110028
93073KASE ASE20160711101511407/11/16 10:15:31  5-MIN KASE 111715Z 01012G19KT 10SM FEW100 22/03 A3012 7660 29 10200 360/12G19 RMK AO2 T02170033
93073KASE ASE20160711102011107/11/16 10:20:31  5-MIN KASE 111720Z 34014G19KT 10SM CLR 22/03 A3012 7650 27 10200 330/14G19 RMK AO2 T02220028
93073KASE ASE20160711102510507/11/16 10:25:31  5-MIN KASE 111725Z 35010KT 10SM CLR 21/02 A3012 7650 28 10100 340/10 RMK AO2 T02110022
93073KASE ASE20160711103010507/11/16 10:30:31  5-MIN KASE 111730Z 34011KT 10SM CLR 22/03 A3012 7650 27 10200 330/11 RMK AO2 T02220028
93073KASE ASE20160711103510807/11/16 10:35:31  5-MIN KASE 111735Z 34010KT 10SM FEW100 22/02 A3013 7650 26 10200 330/10 RMK AO2 T02220022
93073KASE ASE20160711104011407/11/16 10:40:31  5-MIN KASE 111740Z 34009G16KT 10SM FEW100 21/02 A3013 7650 28 10100 330/09G16 RMK AO2 T02110022
93073KASE ASE20160711104511407/11/16 10:45:31  5-MIN KASE 111745Z 34011G17KT 10SM FEW100 22/02 A3013 7650 27 10100 330/11G17 RMK AO2 T02170022
93073KASE ASE20160711105013907/11/16 10:50:31  5-MIN KASE 111750Z 34010G21KT 10SM FEW100 22/02 A3013 7650 26 10100 330/10G21 RMK AO2 SLP062 T02170017 10222 20078 51010
93073KASE ASE20160711105513007/11/16 10:55:31  5-MIN KASE 111755Z 34009G21KT 310V010 10SM FEW100 22/02 A3013 7640 26 10100 330/09G21 300V360 RMK AO2 T02170017
93073KASE ASE20160711110011407/11/16 11:00:31  5-MIN KASE 111800Z 34013G17KT 10SM FEW100 22/02 A3013 7650 26 10200 330/13G17 RMK AO2 T02220022
93073KASE ASE20160711110511407/11/16 11:05:31  5-MIN KASE 111805Z 35010G17KT 10SM FEW100 22/01 A3013 7640 24 10200 340/10G17 RMK AO2 T02220011
93073KASE ASE20160711111011407/11/16 11:10:31  5-MIN KASE 111810Z 35011G14KT 10SM FEW100 22/01 A3013 7640 24 10200 340/11G14 RMK AO2 T02220011
93073KASE ASE20160711111510807/11/16 11:15:31  5-MIN KASE 111815Z 01009KT 10SM FEW100 23/02 A3013 7650 24 10300 360/09 RMK AO2 T02280017
93073KASE ASE20160711112010807/11/16 11:20:31  5-MIN KASE 111820Z 35008KT 10SM FEW100 22/01 A3013 7650 24 10200 340/08 RMK AO2 T02220011
93073KASE ASE20160711112512707/11/16 11:25:31  5-MIN KASE 111825Z 33011G16KT 300V010 10SM CLR 23/01 A3013 7650 23 10300 320/11G16 290V360 RMK AO2 T02280011
93073KASE ASE20160711113013007/11/16 11:30:31  5-MIN KASE 111830Z 34008G16KT 290V010 10SM FEW100 23/00 A3013 7650 22 10300 330/08G16 280V360 RMK AO2 T02280000
93073KASE ASE20160711113511407/11/16 11:35:31  5-MIN KASE 111835Z 35012G17KT 10SM FEW100 23/01 A3013 7640 23 10300 340/12G17 RMK AO2 T02330011
93073KASE ASE20160711114011107/11/16 11:40:31  5-MIN KASE 111840Z 36009G18KT 10SM CLR 23/01 A3013 7640 23 10300 350/09G18 RMK AO2 T02280011
93073KASE ASE20160711114513207/11/16 11:45:31  5-MIN KASE 111845Z 01008G26KT 10SM FEW110 23/00 A3013 7650 22 10300 360/08G26 RMK AO2 PK WND 34026/1841 T02280000
93073KASE ASE20160711115015507/11/16 11:50:31  5-MIN KASE 111850Z 35011G26KT 320V030 10SM FEW100 22/00 A3014 7640 22 10200 340/11G26 310V020 RMK AO2 PK WND 34026/1841 SLP072 T02220000
93073KASE ASE20160711115511407/11/16 11:55:31  5-MIN KASE 111855Z 35009G18KT 10SM FEW100 23/01 A3013 7650 22 10300 340/09G18 RMK AO2 T02280006
93073KASE ASE20160711120009807/11/16 12:00:31  5-MIN KASE 111900Z 10SM FEW110 23/00 A3013 7640 21 10300 M /M RMK AO2 T02330000
93073KASE ASE20160711120511407/11/16 12:05:31  5-MIN KASE 111905Z 34012G17KT 10SM SCT110 24/01 A3013 7640 22 10400 330/12G17 RMK AO2 T02390011
93073KASE ASE20160711121013107/11/16 12:10:31  5-MIN KASE 111910Z 31012G20KT 270V350 10SM SCT110 24/M01 A3013 7640 19 10400 300/12G20 260V340 RMK AO2 T02391006
93073KASE ASE20160711121511507/11/16 12:15:31  5-MIN KASE 111915Z 34010G20KT 10SM SCT110 24/M01 A3013 7640 19 10400 330/10G20 RMK AO2 T02391011
93073KASE ASE20160711122011407/11/16 12:20:31  5-MIN KASE 111920Z 35011G17KT 10SM SCT110 23/01 A3013 7650 23 10300 340/11G17 RMK AO2 T02330011
93073KASE ASE20160711122510807/11/16 12:25:31  5-MIN KASE 111925Z 33009KT 10SM BKN110 23/02 A3014 7640 24 10300 320/09 RMK AO2 T02280017
93073KASE ASE20160711123010807/11/16 12:30:31  5-MIN KASE 111930Z 35007KT 10SM BKN110 23/02 A3014 7640 24 10300 340/07 RMK AO2 T02280017
93073KASE ASE20160711123511407/11/16 12:35:31  5-MIN KASE 111935Z 35012G17KT 10SM BKN110 22/01 A3014 7640 25 10100 340/12G17 RMK AO2 T02170011
93073KASE ASE20160711124010807/11/16 12:40:31  5-MIN KASE 111940Z 32014KT 10SM OVC110 22/01 A3014 7640 25 10100 310/14 RMK AO2 T02170011
93073KASE ASE20160711124511407/11/16 12:45:31  5-MIN KASE 111945Z 33012G19KT 10SM BKN110 23/02 A3014 7640 24 10300 320/12G19 RMK AO2 T02280017
93073KASE ASE20160711125012107/11/16 12:50:31  5-MIN KASE 111950Z 34013G21KT 10SM BKN100 23/01 A3014 7640 23 10300 330/13G21 RMK AO2 SLP077 T02330011
93073KASE ASE20160711125511407/11/16 12:55:31  5-MIN KASE 111955Z 34011G21KT 10SM BKN100 22/01 A3014 7640 24 10200 330/11G21 RMK AO2 T02220011
93073KASE ASE20160711130011407/11/16 13:00:31  5-MIN KASE 112000Z 34012G17KT 10SM BKN100 23/01 A3014 7640 23 10300 330/12G17 RMK AO2 T02280011
93073KASE ASE20160711130510807/11/16 13:05:31  5-MIN KASE 112005Z 34015KT 10SM BKN110 23/01 A3014 7640 23 10300 340/15 RMK AO2 T02280011
93073KASE ASE20160711131011407/11/16 13:10:31  5-MIN KASE 112010Z 31012G17KT 10SM BKN110 23/01 A3014 7640 23 10300 300/12G17 RMK AO2 T02280011
93073KASE ASE20160711131511407/11/16 13:15:31  5-MIN KASE 112015Z 34012G18KT 10SM BKN110 23/01 A3014 7640 23 10300 330/12G18 RMK AO2 T02280011
93073KASE ASE20160711132013007/11/16 13:20:31  5-MIN KASE 112020Z 35008G18KT 310V010 10SM BKN110 22/01 A3014 7640 25 10100 340/08G18 300V360 RMK AO2 T02170011
93073KASE ASE20160711132511407/11/16 13:25:31  5-MIN KASE 112025Z VRB06G20KT 10SM BKN110 23/02 A3014 7640 24 10300 VRB/06G20 RMK AO2 T02280017
93073KASE ASE20160711133011407/11/16 13:30:31  5-MIN KASE 112030Z 34010G20KT 10SM BKN110 23/02 A3014 7640 24 10300 330/10G20 RMK AO2 T02280017
93073KASE ASE20160711133511407/11/16 13:35:31  5-MIN KASE 112035Z 35011G17KT 10SM BKN110 23/02 A3014 7640 24 10300 340/11G17 RMK AO2 T02280017
93073KASE ASE20160711134011407/11/16 13:40:31  5-MIN KASE 112040Z 34013G21KT 10SM BKN110 24/01 A3013 7650 22 10400 330/13G21 RMK AO2 T02390011
93073KASE ASE20160711134511407/11/16 13:45:31  5-MIN KASE 112045Z 34008G21KT 10SM SCT110 23/00 A3013 7640 21 10300 330/08G21 RMK AO2 T02330000
93073KASE ASE20160711135012707/11/16 13:50:31  5-MIN KASE 112050Z 35012G17KT 10SM SCT110 23/01 A3014 7640 23 10300 350/12G17 RMK AO2 SLP077 T02330011 53002
93073KASE ASE20160711135511407/11/16 13:55:31  5-MIN KASE 112055Z 34013G17KT 10SM BKN110 23/01 A3014 7640 23 10300 330/13G17 RMK AO2 T02280011
93073KASE ASE20160711140011407/11/16 14:00:31  5-MIN KASE 112100Z 35013G23KT 10SM BKN110 24/01 A3014 7640 21 10400 340/13G23 RMK AO2 T02390006
93073KASE ASE20160711140511507/11/16 14:05:31  5-MIN KASE 112105Z 34017G23KT 10SM SCT110 24/M01 A3014 7640 18 10400 330/17G23 RMK AO2 T02441011
93073KASE ASE20160711141011507/11/16 14:10:31  5-MIN KASE 112110Z 35015G24KT 10SM FEW110 24/M02 A3014 7640 17 10400 340/15G24 RMK AO2 T02441017
93073KASE ASE20160711141509907/11/16 14:15:31  5-MIN KASE 112115Z 10SM FEW110 24/M01 A3014 7640 18 10400 M /M RMK AO2 T02441011
93073KASE ASE20160711142010907/11/16 14:20:31  5-MIN KASE 112120Z 33013KT 10SM FEW110 24/M01 A3014 7640 18 10400 320/13 RMK AO2 T02441011
93073KASE ASE20160711142512507/11/16 14:25:31  5-MIN KASE 112125Z 35009KT 320V030 10SM FEW110 24/M01 A3014 7640 19 10400 340/09 310V020 RMK AO2 T02441006
93073KASE ASE20160711143011207/11/16 14:30:31  5-MIN KASE 112130Z 34012G18KT 10SM CLR 24/M01 A3013 7650 18 10400 330/12G18 RMK AO2 T02441011
93073KASE ASE20160711143511207/11/16 14:35:31  5-MIN KASE 112135Z 33010G18KT 10SM CLR 23/M01 A3014 7640 19 10300 320/10G18 RMK AO2 T02331011
93073KASE ASE20160711144011107/11/16 14:40:31  5-MIN KASE 112140Z 33012G20KT 10SM CLR 23/00 A3014 7640 22 10300 320/12G20 RMK AO2 T02280000
93073KASE ASE20160711144511507/11/16 14:45:31  5-MIN KASE 112145Z 33010G22KT 10SM FEW110 23/M01 A3014 7640 20 10300 320/10G22 RMK AO2 T02331006
93073KASE ASE20160711145013807/11/16 14:50:31  5-MIN KASE 112150Z 34013G24KT 310V010 10SM FEW110 23/M01 A3014 7640 20 10300 330/13G24 300V360 RMK AO2 SLP081 T02331006
93073KASE ASE20160711145513107/11/16 14:55:31  5-MIN KASE 112155Z 33012G24KT 280V010 10SM FEW110 23/M01 A3015 7630 19 10300 320/12G24 270V360 RMK AO2 T02331011
93073KASE ASE20160711150011507/11/16 15:00:31  5-MIN KASE 112200Z 35009G21KT 10SM FEW110 23/M01 A3015 7630 20 10200 340/09G21 RMK AO2 T02281011
93073KASE ASE20160711150511507/11/16 15:05:31  5-MIN KASE 112205Z 35013G22KT 10SM FEW110 23/M01 A3014 7640 19 10300 340/13G22 RMK AO2 T02331011
93073KASE ASE20160711151011207/11/16 15:10:31  5-MIN KASE 112210Z 34012G22KT 10SM CLR 23/M02 A3014 7640 19 10300 330/12G22 RMK AO2 T02281017
93073KASE ASE20160711151511207/11/16 15:15:31  5-MIN KASE 112215Z 35014G22KT 10SM CLR 23/M02 A3014 7640 18 10300 340/14G22 RMK AO2 T02331017
93073KASE ASE20160711152011207/11/16 15:20:31  5-MIN KASE 112220Z 34008G22KT 10SM CLR 24/M02 A3014 7640 18 10400 330/08G22 RMK AO2 T02391017
93073KASE ASE20160711152512807/11/16 15:25:31  5-MIN KASE 112225Z 01011G21KT 320V040 10SM CLR 23/M02 A3014 7640 18 10300 360/11G21 310V030 RMK AO2 T02331017
93073KASE ASE20160711153011507/11/16 15:30:31  5-MIN KASE 112230Z 34010G19KT 10SM FEW100 24/M02 A3014 7640 17 10400 330/10G19 RMK AO2 T02391022
93073KASE ASE20160711153511507/11/16 15:35:31  5-MIN KASE 112235Z 34013G19KT 10SM FEW100 24/M02 A3014 7640 17 10400 330/13G19 RMK AO2 T02391022
93073KASE ASE20160711154011507/11/16 15:40:31  5-MIN KASE 112240Z 34009G21KT 10SM SCT100 24/M03 A3014 7640 16 10400 330/09G21 RMK AO2 T02391028
93073KASE ASE20160711154511507/11/16 15:45:31  5-MIN KASE 112245Z 34011G21KT 10SM SCT100 23/M03 A3014 7640 18 10300 330/11G21 RMK AO2 T02281028
93073KASE ASE20160711155012207/11/16 15:50:31  5-MIN KASE 112250Z 34012G21KT 10SM SCT100 23/M03 A3015 7630 16 10300 330/12G21 RMK AO2 SLP082 T02331033
93073KASE ASE20160711155513107/11/16 15:55:31  5-MIN KASE 112255Z 32007G21KT 270V360 10SM SCT100 24/M03 A3014 7630 16 10400 310/07G21 260V350 RMK AO2 T02391028
93073KASE ASE20160711160013107/11/16 16:00:31  5-MIN KASE 112300Z 33007G17KT 290V360 10SM SCT100 24/M02 A3014 7630 17 10400 320/07G17 280V350 RMK AO2 T02391022
93073KASE ASE20160711160511507/11/16 16:05:31  5-MIN KASE 112305Z VRB03G16KT 10SM FEW100 24/M03 A3014 7630 16 10400 VRB/03G16 RMK AO2 T02441028
93073KASE ASE20160711161010907/11/16 16:10:31  5-MIN KASE 112310Z 00000KT 10SM FEW100 24/M02 A3014 7630 17 10400 000/00 RMK AO2 T02441022
93073KASE ASE20160711161509907/11/16 16:15:31  5-MIN KASE 112315Z 10SM FEW100 24/M03 A3014 7640 16 10400 M /M RMK AO2 T02441028
93073KASE ASE20160711162011207/11/16 16:20:31  5-MIN KASE 112320Z VRB04G16KT 10SM CLR 24/M04 A3014 7630 15 10400 VRB/04G16 RMK AO2 T02391039
93073KASE ASE20160711162509607/11/16 16:25:31  5-MIN KASE 112325Z 10SM CLR 24/M04 A3014 7640 15 10400 M /M RMK AO2 T02391039
93073KASE ASE20160711163011207/11/16 16:30:31  5-MIN KASE 112330Z 35010G16KT 10SM CLR 24/M04 A3014 7640 15 10400 340/10G16 RMK AO2 T02441039
93073KASE ASE20160711163511207/11/16 16:35:31  5-MIN KASE 112335Z 36011G19KT 10SM CLR 24/M04 A3014 7640 15 10400 350/11G19 RMK AO2 T02441039
93073KASE ASE20160711164011207/11/16 16:40:31  5-MIN KASE 112340Z 34011G20KT 10SM CLR 24/M04 A3014 7640 15 10400 330/11G20 RMK AO2 T02441039
93073KASE ASE20160711164512807/11/16 16:45:31  5-MIN KASE 112345Z 31007G20KT 270V040 10SM CLR 24/M04 A3014 7640 14 10400 300/07G20 260V030 RMK AO2 T02391044
93073KASE ASE20160711165013707/11/16 16:50:31  5-MIN KASE 112350Z 32009G19KT 10SM CLR 24/M04 A3014 7640 14 10400 310/09G19 RMK AO2 SLP081 T02441044 10244 20217 50001
93073KASE ASE20160711165512807/11/16 16:55:31  5-MIN KASE 112355Z 33010G15KT 290V350 10SM CLR 23/M04 A3014 7640 15 10300 320/10G15 280V340 RMK AO2 T02331044
93073KASE ASE20160711170012807/11/16 17:00:31  5-MIN KASE 120000Z 32011G20KT 280V340 10SM CLR 24/M04 A3014 7640 15 10400 310/11G20 270V330 RMK AO2 T02391039
93073KASE ASE20160711170511207/11/16 17:05:31  5-MIN KASE 120005Z 28004G20KT 10SM CLR 24/M03 A3014 7640 16 10400 270/04G20 RMK AO2 T02391033
93073KASE ASE20160711171010607/11/16 17:10:31  5-MIN KASE 120010Z VRB04KT 10SM CLR 24/M03 A3014 7640 16 10400 VRB/04 RMK AO2 T02391033
93073KASE ASE20160711171510907/11/16 17:15:31  5-MIN KASE 120015Z VRB03KT 10SM FEW110 24/M04 A3014 7640 15 10400 VRB/03 RMK AO2 T02391039
93073KASE ASE20160711172010907/11/16 17:20:31  5-MIN KASE 120020Z 22006KT 10SM FEW110 24/M04 A3015 7630 15 10400 210/06 RMK AO2 T02391039
93073KASE ASE20160711172511207/11/16 17:25:31  5-MIN KASE 120025Z 25007G16KT 10SM CLR 24/M04 A3014 7630 15 10400 240/07G16 RMK AO2 T02391039
93073KASE ASE20160711173011207/11/16 17:30:31  5-MIN KASE 120030Z 36005G16KT 10SM CLR 24/M04 A3014 7640 15 10400 350/05G16 RMK AO2 T02391039
93073KASE ASE20160711173510607/11/16 17:35:31  5-MIN KASE 120035Z 35008KT 10SM CLR 24/M04 A3015 7630 15 10400 340/08 RMK AO2 T02441039
93073KASE ASE20160711174011507/11/16 17:40:31  5-MIN KASE 120040Z 34009G17KT 10SM FEW110 24/M04 A3015 7630 14 10400 330/09G17 RMK AO2 T02391044
93073KASE ASE20160711174513107/11/16 17:45:31  5-MIN KASE 120045Z 32007G17KT 290V350 10SM FEW110 23/M04 A3015 7630 16 10300 310/07G17 280V340 RMK AO2 T02331039
93073KASE ASE20160711175012207/11/16 17:50:31  5-MIN KASE 120050Z 35010G17KT 10SM FEW110 23/M03 A3015 7630 16 10300 340/10G17 RMK AO2 SLP087 T02331033
93073KASE ASE20160711175512507/11/16 17:55:31  5-MIN KASE 120055Z 33007KT 270V360 10SM FEW110 23/M03 A3015 7630 17 10300 320/07 260V350 RMK AO2 T02331028
93073KASE ASE20160711180010907/11/16 18:00:31  5-MIN KASE 120100Z 34009KT 10SM SCT110 23/M02 A3015 7630 18 10300 330/09 RMK AO2 T02331022
93073KASE ASE20160711180510907/11/16 18:05:31  5-MIN KASE 120105Z 34008KT 10SM SCT110 23/M02 A3015 7630 18 10200 330/08 RMK AO2 T02281022
93073KASE ASE20160711181010907/11/16 18:10:31  5-MIN KASE 120110Z 35010KT 10SM FEW110 23/M03 A3015 7630 18 10200 340/10 RMK AO2 T02281028
93073KASE ASE20160711181510907/11/16 18:15:31  5-MIN KASE 120115Z 35010KT 10SM FEW110 22/M03 A3015 7630 18 10200 340/10 RMK AO2 T02221028
93073KASE ASE20160711182010907/11/16 18:20:31  5-MIN KASE 120120Z 35008KT 10SM FEW110 22/M03 A3016 7620 18 10200 340/08 RMK AO2 T02221028
93073KASE ASE20160711182510907/11/16 18:25:31  5-MIN KASE 120125Z 34005KT 10SM FEW110 22/M03 A3016 7620 18 10200 330/05 RMK AO2 T02221028
93073KASE ASE20160711183010907/11/16 18:30:31  5-MIN KASE 120130Z 35004KT 10SM FEW110 22/M03 A3016 7620 18 10200 340/04 RMK AO2 T02221028
93073KASE ASE20160711183510907/11/16 18:35:31  5-MIN KASE 120135Z VRB05KT 10SM FEW110 21/M02 A3016 7620 20 10100 VRB/05 RMK AO2 T02111022
93073KASE ASE20160711184010907/11/16 18:40:31  5-MIN KASE 120140Z 35006KT 10SM FEW110 21/M03 A3016 7620 20 10000 340/06 RMK AO2 T02061028
93073KASE ASE20160711184510907/11/16 18:45:31  5-MIN KASE 120145Z 35006KT 10SM FEW110 21/M03 A3016 7620 19 10000 340/06 RMK AO2 T02061033
93073KASE ASE20160711185011607/11/16 18:50:31  5-MIN KASE 120150Z 02003KT 10SM FEW120 21/M03 A3017 7610 20 10000 010/03 RMK AO2 SLP090 T02061028
93073KASE ASE20160711185510807/11/16 18:55:31  5-MIN KASE 120155Z 01004KT 10SM FEW120 20/M03 A3017 7610 21 9900 010/04 RMK AO2 T02001028
93073KASE ASE20160711190010807/11/16 19:00:31  5-MIN KASE 120200Z VRB03KT 10SM FEW110 18/M02 A3017 7610 24 9700 VRB/03 RMK AO2 T01831022
93073KASE ASE20160711190510807/11/16 19:05:31  5-MIN KASE 120205Z 23003KT 10SM FEW110 17/M01 A3017 7610 28 9600 220/03 RMK AO2 T01721011
93073KASE ASE20160711191010807/11/16 19:10:31  5-MIN KASE 120210Z 25003KT 10SM FEW110 17/M01 A3017 7610 31 9600 240/03 RMK AO2 T01671006
93073KASE ASE20160711191510707/11/16 19:15:31  5-MIN KASE 120215Z 25004KT 10SM FEW120 16/00 A3017 7610 34 9400 240/04 RMK AO2 T01560000
93073KASE ASE20160711192010807/11/16 19:20:31  5-MIN KASE 120220Z 22003KT 10SM FEW120 16/M01 A3017 7610 33 9400 210/03 RMK AO2 T01561006
93073KASE ASE20160711192510407/11/16 19:25:31  5-MIN KASE 120225Z 23003KT 10SM CLR 14/01 A3017 7610 38 9300 220/03 RMK AO2 T01440006
93073KASE ASE20160711193010507/11/16 19:30:31  5-MIN KASE 120230Z 00000KT 10SM CLR 15/M01 A3017 7610 34 9400 000/00 RMK AO2 T01501006
93073KASE ASE20160711193510507/11/16 19:35:31  5-MIN KASE 120235Z 00000KT 10SM CLR 16/M01 A3018 7600 30 9500 000/00 RMK AO2 T01611011
93073KASE ASE20160711194010507/11/16 19:40:31  5-MIN KASE 120240Z 00000KT 10SM CLR 15/M01 A3018 7600 34 9400 000/00 RMK AO2 T01501006
93073KASE ASE20160711194510507/11/16 19:45:31  5-MIN KASE 120245Z 20003KT 10SM CLR 14/M01 A3018 7600 35 9300 190/03 RMK AO2 T01441006
93073KASE ASE20160711195011707/11/16 19:50:31  5-MIN KASE 120250Z 21005KT 10SM CLR 14/01 A3018 7600 38 9300 200/05 RMK AO2 SLP102 T01440006 50002
93073KASE ASE20160711195510507/11/16 19:55:31  5-MIN KASE 120255Z 18004KT 10SM CLR 16/M01 A3019 7590 33 9400 180/04 RMK AO2 T01561006
93073KASE ASE20160712060010507/12/16 06:00:31  5-MIN KASE 121300Z 00000KT 10SM CLR 09/M01 A3022 7570 49 8700 000/00 RMK AO2 T00941006
93073KASE ASE20160712060510507/12/16 06:05:31  5-MIN KASE 121305Z 12003KT 10SM CLR 09/M01 A3022 7560 49 8700 120/03 RMK AO2 T00941006
93073KASE ASE20160712061010407/12/16 06:10:31  5-MIN KASE 121310Z 13003KT 10SM CLR 09/00 A3022 7560 53 8600 120/03 RMK AO2 T00890000
93073KASE ASE20160712061510407/12/16 06:15:31  5-MIN KASE 121315Z 10003KT 10SM CLR 09/00 A3022 7560 51 8700 090/03 RMK AO2 T00940000
93073KASE ASE20160712062010407/12/16 06:20:31  5-MIN KASE 121320Z 00000KT 10SM CLR 09/01 A3023 7560 53 8700 000/00 RMK AO2 T00940006
93073KASE ASE20160712062510407/12/16 06:25:31  5-MIN KASE 121325Z 00000KT 10SM CLR 10/00 A3023 7560 49 8700 000/00 RMK AO2 T01000000
93073KASE ASE20160712063010507/12/16 06:30:31  5-MIN KASE 121330Z 00000KT 10SM CLR 11/M01 A3023 7560 46 8800 000/00 RMK AO2 T01061006
93073KASE ASE20160712063510507/12/16 06:35:31  5-MIN KASE 121335Z 00000KT 10SM CLR 11/M01 A3023 7550 44 8900 000/00 RMK AO2 T01111006
93073KASE ASE20160712064010507/12/16 06:40:31  5-MIN KASE 121340Z 00000KT 10SM CLR 11/M01 A3023 7560 44 8900 000/00 RMK AO2 T01111006
93073KASE ASE20160712064510507/12/16 06:45:31  5-MIN KASE 121345Z 00000KT 10SM CLR 11/M01 A3023 7550 44 8900 000/00 RMK AO2 T01111006
93073KASE ASE20160712065011207/12/16 06:50:31  5-MIN KASE 121350Z 00000KT 10SM CLR 12/M01 A3023 7550 42 8900 000/00 RMK AO2 SLP120 T01171006
93073KASE ASE20160712065510507/12/16 06:55:31  5-MIN KASE 121355Z 00000KT 10SM CLR 12/M01 A3023 7550 39 9000 000/00 RMK AO2 T01221011
93073KASE ASE20160712070010507/12/16 07:00:31  5-MIN KASE 121400Z 00000KT 10SM CLR 12/M02 A3023 7550 38 9000 000/00 RMK AO2 T01221017
93073KASE ASE20160712070510507/12/16 07:05:31  5-MIN KASE 121405Z 00000KT 10SM CLR 13/M01 A3023 7550 38 9100 000/00 RMK AO2 T01281011
93073KASE ASE20160712071010507/12/16 07:10:31  5-MIN KASE 121410Z VRB03KT 10SM CLR 13/M01 A3023 7560 36 9100 VRB/03 RMK AO2 T01331011
93073KASE ASE20160712071510507/12/16 07:15:31  5-MIN KASE 121415Z 12003KT 10SM CLR 13/M01 A3023 7550 38 9100 110/03 RMK AO2 T01331006
93073KASE ASE20160712072010507/12/16 07:20:31  5-MIN KASE 121420Z 19004KT 10SM CLR 14/M01 A3023 7550 37 9200 180/04 RMK AO2 T01391006
93073KASE ASE20160712072510507/12/16 07:25:31  5-MIN KASE 121425Z 17003KT 10SM CLR 14/M01 A3024 7550 37 9200 160/03 RMK AO2 T01391006
93073KASE ASE20160712073010507/12/16 07:30:31  5-MIN KASE 121430Z 11004KT 10SM CLR 14/M01 A3024 7550 37 9200 100/04 RMK AO2 T01391006
93073KASE ASE20160712073510407/12/16 07:35:31  5-MIN KASE 121435Z VRB04KT 10SM CLR 14/01 A3023 7550 38 9200 VRB/04 RMK AO2 T01440006
93073KASE ASE20160712074010407/12/16 07:40:31  5-MIN KASE 121440Z 00000KT 10SM CLR 14/00 A3024 7550 37 9200 000/00 RMK AO2 T01440000
93073KASE ASE20160712074510407/12/16 07:45:31  5-MIN KASE 121445Z 16004KT 10SM CLR 14/01 A3024 7550 38 9200 150/04 RMK AO2 T01440006
93073KASE ASE20160712075011707/12/16 07:50:31  5-MIN KASE 121450Z 00000KT 10SM CLR 16/01 A3023 7550 36 9400 000/00 RMK AO2 SLP126 T01560006 53011
93073KASE ASE20160712075510407/12/16 07:55:31  5-MIN KASE 121455Z 00000KT 10SM CLR 16/01 A3023 7550 34 9400 000/00 RMK AO2 T01610006
93073KASE ASE20160712080010407/12/16 08:00:31  5-MIN KASE 121500Z VRB04KT 10SM CLR 17/01 A3023 7550 33 9500 VRB/04 RMK AO2 T01670006
93073KASE ASE20160712080510407/12/16 08:05:31  5-MIN KASE 121505Z 00000KT 10SM CLR 16/01 A3023 7550 34 9400 000/00 RMK AO2 T01610006
93073KASE ASE20160712081010407/12/16 08:10:31  5-MIN KASE 121510Z 00000KT 10SM CLR 17/01 A3023 7550 33 9500 000/00 RMK AO2 T01670006
93073KASE ASE20160712081510407/12/16 08:15:31  5-MIN KASE 121515Z 00000KT 10SM CLR 17/01 A3023 7560 33 9500 000/00 RMK AO2 T01670006
93073KASE ASE20160712082010407/12/16 08:20:31  5-MIN KASE 121520Z VRB03KT 10SM CLR 18/01 A3023 7560 31 9600 VRB/03 RMK AO2 T01780006
93073KASE ASE20160712082510507/12/16 08:25:31  5-MIN KASE 121525Z 10003KT 10SM CLR 18/M01 A3023 7560 28 9600 090/03 RMK AO2 T01781006
93073KASE ASE20160712083010407/12/16 08:30:31  5-MIN KASE 121530Z 00000KT 10SM CLR 17/00 A3023 7560 31 9600 000/00 RMK AO2 T01720000
93073KASE ASE20160712083510507/12/16 08:35:31  5-MIN KASE 121535Z 02004KT 10SM CLR 18/M01 A3023 7560 26 9700 010/04 RMK AO2 T01831011
93073KASE ASE20160712084010507/12/16 08:40:31  5-MIN KASE 121540Z 00000KT 10SM CLR 18/M01 A3022 7560 26 9700 000/00 RMK AO2 T01831011
93073KASE ASE20160712084510507/12/16 08:45:31  5-MIN KASE 121545Z VRB03KT 10SM CLR 19/M01 A3023 7560 26 9700 VRB/03 RMK AO2 T01891006
93073KASE ASE20160712085011207/12/16 08:50:31  5-MIN KASE 121550Z 06004KT 10SM CLR 19/M01 A3023 7560 25 9700 050/04 RMK AO2 SLP115 T01891011
93073KASE ASE20160712085510507/12/16 08:55:31  5-MIN KASE 121555Z VRB04KT 10SM CLR 19/M01 A3023 7560 26 9800 VRB/04 RMK AO2 T01941006
93073KASE ASE20160712090010407/12/16 09:00:31  5-MIN KASE 121600Z VRB04KT 10SM CLR 20/00 A3022 7560 26 9900 VRB/04 RMK AO2 T02000000
93073KASE ASE20160712090510507/12/16 09:05:31  5-MIN KASE 121605Z 35004KT 10SM CLR 20/M01 A3022 7560 25 9900 350/04 RMK AO2 T02001006
93073KASE ASE20160712091010407/12/16 09:10:31  5-MIN KASE 121610Z VRB03KT 10SM CLR 21/00 A3022 7570 25 9900 VRB/03 RMK AO2 T02060000
93073KASE ASE20160712091510507/12/16 09:15:31  5-MIN KASE 121615Z 34004KT 10SM CLR 21/00 A3022 7560 24 10000 340/04 RMK AO2 T02110000
93073KASE ASE20160712092010407/12/16 09:20:31  5-MIN KASE 121620Z 02004KT 10SM CLR 21/00 A3022 7570 25 9900 010/04 RMK AO2 T02060000
93073KASE ASE20160712092510507/12/16 09:25:31  5-MIN KASE 121625Z VRB03KT 9SM CLR 21/M01 A3022 7570 22 10000 VRB/03 RMK AO2 T02111011
93073KASE ASE20160712093010507/12/16 09:30:31  5-MIN KASE 121630Z 01004KT 8SM CLR 21/M02 A3022 7570 20 10000 360/04 RMK AO2 T02111022
93073KASE ASE20160712093510507/12/16 09:35:31  5-MIN KASE 121635Z VRB04KT 9SM CLR 21/M02 A3022 7570 20 10000 VRB/04 RMK AO2 T02111022
93073KASE ASE20160712094010607/12/16 09:40:31  5-MIN KASE 121640Z VRB05KT 10SM CLR 22/M02 A3022 7570 20 10100 VRB/05 RMK AO2 T02221017
93073KASE ASE20160712094510607/12/16 09:45:31  5-MIN KASE 121645Z 34008KT 10SM CLR 23/M04 A3022 7570 16 10200 330/08 RMK AO2 T02281044
93073KASE ASE20160712095011307/12/16 09:50:31  5-MIN KASE 121650Z 01010KT 10SM CLR 23/M05 A3021 7570 15 10200 360/10 RMK AO2 SLP104 T02281050
93073KASE ASE20160712095510607/12/16 09:55:31  5-MIN KASE 121655Z 36008KT 10SM CLR 23/M06 A3021 7570 14 10200 360/08 RMK AO2 T02281061
93073KASE ASE20160712100010607/12/16 10:00:31  5-MIN KASE 121700Z 36007KT 10SM CLR 23/M06 A3021 7570 14 10200 350/07 RMK AO2 T02281056
93073KASE ASE20160712100510607/12/16 10:05:31  5-MIN KASE 121705Z VRB05KT 10SM CLR 23/M06 A3021 7570 13 10200 VRB/05 RMK AO2 T02331061
93073KASE ASE20160712101010607/12/16 10:10:31  5-MIN KASE 121710Z 36009KT 10SM CLR 23/M05 A3021 7570 14 10200 350/09 RMK AO2 T02331050
93073KASE ASE20160712101510607/12/16 10:15:31  5-MIN KASE 121715Z 35007KT 10SM CLR 23/M06 A3021 7570 14 10200 340/07 RMK AO2 T02331056
93073KASE ASE20160712102010607/12/16 10:20:31  5-MIN KASE 121720Z 34008KT 10SM CLR 23/M05 A3021 7570 14 10200 330/08 RMK AO2 T02331050
93073KASE ASE20160712102512207/12/16 10:25:31  5-MIN KASE 121725Z 33007KT 300V360 10SM CLR 23/M05 A3021 7570 15 10200 320/07 290V350 RMK AO2 T02281050
93073KASE ASE20160712103010607/12/16 10:30:31  5-MIN KASE 121730Z 01007KT 10SM CLR 23/M06 A3021 7570 14 10200 360/07 RMK AO2 T02331056
93073KASE ASE20160712103510607/12/16 10:35:31  5-MIN KASE 121735Z 35007KT 10SM CLR 23/M06 A3021 7580 14 10200 340/07 RMK AO2 T02331056
93073KASE ASE20160712104010607/12/16 10:40:31  5-MIN KASE 121740Z 02007KT 10SM CLR 24/M06 A3021 7580 13 10300 010/07 RMK AO2 T02391056
93073KASE ASE20160712104510607/12/16 10:45:31  5-MIN KASE 121745Z 02009KT 10SM CLR 24/M06 A3021 7580 13 10300 010/09 RMK AO2 T02391056
93073KASE ASE20160712105013107/12/16 10:50:31  5-MIN KASE 121750Z 02008KT 10SM CLR 24/M06 A3020 7580 13 10300 010/08 RMK AO2 SLP100 T02391056 10244 20044 51006
93073KASE ASE20160712105510607/12/16 10:55:31  5-MIN KASE 121755Z 02008KT 10SM CLR 24/M05 A3021 7580 13 10400 010/08 RMK AO2 T02441050
93073KASE ASE20160712110010607/12/16 11:00:31  5-MIN KASE 121800Z 03009KT 10SM CLR 24/M05 A3020 7580 14 10300 020/09 RMK AO2 T02391050
93073KASE ASE20160712110510607/12/16 11:05:31  5-MIN KASE 121805Z 31006KT 10SM CLR 24/M04 A3020 7580 14 10300 300/06 RMK AO2 T02391044
93073KASE ASE20160712111011107/12/16 11:10:31  5-MIN KASE 121810Z 34009G15KT 9SM CLR 24/M04 A3020 7580 15 10400 330/09G15 RMK AO2 T02441039
93073KASE ASE20160712111511107/12/16 11:15:31  5-MIN KASE 121815Z 32008G17KT 9SM CLR 24/M04 A3020 7580 14 10300 310/08G17 RMK AO2 T02391044
93073KASE ASE20160712112012807/12/16 11:20:31  5-MIN KASE 121820Z 36007G17KT 330V030 10SM CLR 24/M04 A3020 7580 15 10400 350/07G17 320V020 RMK AO2 T02441039
93073KASE ASE20160712112510607/12/16 11:25:31  5-MIN KASE 121825Z 35008KT 10SM CLR 25/M04 A3020 7580 14 10400 340/08 RMK AO2 T02501044
93073KASE ASE20160712113011207/12/16 11:30:31  5-MIN KASE 121830Z 36006G16KT 10SM CLR 24/M05 A3019 7590 13 10400 350/06G16 RMK AO2 T02441050
93073KASE ASE20160712113512807/12/16 11:35:31  5-MIN KASE 121835Z 35007G16KT 310V020 10SM CLR 24/M04 A3019 7590 14 10400 340/07G16 300V010 RMK AO2 T02441044
93073KASE ASE20160712114012207/12/16 11:40:31  5-MIN KASE 121840Z 02007KT 340V060 10SM CLR 25/M04 A3019 7590 14 10400 010/07 330V050 RMK AO2 T02501039
93073KASE ASE20160712114511207/12/16 11:45:31  5-MIN KASE 121845Z 36007G15KT 10SM CLR 25/M04 A3019 7590 14 10400 360/07G15 RMK AO2 T02501044
93073KASE ASE20160712115013507/12/16 11:50:31  5-MIN KASE 121850Z 03008G15KT 360V060 10SM CLR 25/M04 A3019 7590 14 10400 020/08G15 350V050 RMK AO2 SLP098 T02501044
93073KASE ASE20160712115510607/12/16 11:55:31  5-MIN KASE 121855Z 03007KT 10SM CLR 26/M03 A3019 7590 14 10500 020/07 RMK AO2 T02561033
93073KASE ASE20160712120010607/12/16 12:00:31  5-MIN KASE 121900Z VRB04KT 10SM CLR 26/M04 A3019 7590 13 10500 VRB/04 RMK AO2 T02561044
93073KASE ASE20160712120510607/12/16 12:05:31  5-MIN KASE 121905Z VRB05KT 10SM CLR 26/M04 A3019 7600 13 10600 VRB/05 RMK AO2 T02611039
93073KASE ASE20160712121012207/12/16 12:10:31  5-MIN KASE 121910Z 01007KT 350V050 10SM CLR 26/M04 A3019 7600 14 10500 360/07 340V040 RMK AO2 T02561039
93073KASE ASE20160712121510607/12/16 12:15:31  5-MIN KASE 121915Z 00000KT 10SM CLR 26/M03 A3019 7600 14 10600 000/00 RMK AO2 T02611033
93073KASE ASE20160712122010607/12/16 12:20:31  5-MIN KASE 121920Z 00000KT 10SM CLR 26/M04 A3018 7600 13 10500 000/00 RMK AO2 T02561044
93073KASE ASE20160712122509607/12/16 12:25:31  5-MIN KASE 121925Z 10SM CLR 26/M06 A3019 7600 11 10600 M /M RMK AO2 T02611061
93073KASE ASE20160712123012807/12/16 12:30:31  5-MIN KASE 121930Z 31007G22KT 230V020 10SM CLR 26/M07 A3018 7600 11 10500 300/07G22 220V010 RMK AO2 T02561072
93073KASE ASE20160712123512807/12/16 12:35:31  5-MIN KASE 121935Z 34007G22KT 250V030 10SM CLR 26/M07 A3018 7600 10 10600 330/07G22 240V020 RMK AO2 T02611072
93073KASE ASE20160712124012807/12/16 12:40:31  5-MIN KASE 121940Z 31009G15KT 240V360 10SM CLR 26/M08 A3018 7600 10 10600 310/09G15 230V350 RMK AO2 T02611078
93073KASE ASE20160712124511207/12/16 12:45:31  5-MIN KASE 121945Z 30008G15KT 10SM CLR 26/M07 A3018 7600 11 10500 290/08G15 RMK AO2 T02561072
93073KASE ASE20160712125012207/12/16 12:50:31  5-MIN KASE 121950Z 18006G15KT 10SM FEW100 26/M07 A3018 7600 11 10500 170/06G15 RMK AO2 SLP095 T02561072
93073KASE ASE20160712125512807/12/16 12:55:31  5-MIN KASE 121955Z 25009G16KT 190V280 10SM CLR 26/M06 A3018 7600 12 10600 240/09G16 180V270 RMK AO2 T02611056
93073KASE ASE20160712130013107/12/16 13:00:31  5-MIN KASE 122000Z 22007G18KT 180V290 10SM FEW120 26/M06 A3019 7600 11 10600 210/07G18 170V280 RMK AO2 T02611061
93073KASE ASE20160712130511507/12/16 13:05:31  5-MIN KASE 122005Z VRB06G18KT 10SM FEW120 26/M07 A3019 7600 11 10500 VRB/06G18 RMK AO2 T02561067
93073KASE ASE20160712131011507/12/16 13:10:31  5-MIN KASE 122010Z 19011G16KT 10SM FEW120 26/M06 A3019 7600 11 10600 180/11G16 RMK AO2 T02611061
93073KASE ASE20160712131513107/12/16 13:15:31  5-MIN KASE 122015Z 21010G16KT 160V240 10SM FEW120 27/M06 A3018 7600 11 10700 200/10G16 150V230 RMK AO2 T02721056
93073KASE ASE20160712132011507/12/16 13:20:31  5-MIN KASE 122020Z 20011G14KT 10SM FEW120 26/M06 A3019 7600 12 10600 190/11G14 RMK AO2 T02611056
93073KASE ASE20160712132511507/12/16 13:25:31  5-MIN KASE 122025Z VRB04G14KT 10SM FEW120 26/M07 A3018 7600 11 10500 VRB/04G14 RMK AO2 T02561067
93073KASE ASE20160712133009607/12/16 13:30:31  5-MIN KASE 122030Z 10SM CLR 26/M06 A3018 7600 11 10600 M /M RMK AO2 T02611061
93073KASE ASE20160712133510607/12/16 13:35:31  5-MIN KASE 122035Z VRB05KT 10SM CLR 26/M06 A3019 7600 11 10600 VRB/05 RMK AO2 T02611061
93073KASE ASE20160712134009607/12/16 13:40:31  5-MIN KASE 122040Z 10SM CLR 26/M07 A3018 7600 11 10600 M /M RMK AO2 T02611067
93073KASE ASE20160712134510607/12/16 13:45:31  5-MIN KASE 122045Z 22006KT 10SM CLR 27/M07 A3018 7600 10 10600 210/06 RMK AO2 T02671067
93073KASE ASE20160712135011907/12/16 13:50:31  5-MIN KASE 122050Z VRB04KT 10SM CLR 26/M07 A3018 7600 11 10600 VRB/04 RMK AO2 SLP099 T02611067 58008
93073KASE ASE20160712135510607/12/16 13:55:31  5-MIN KASE 122055Z VRB06KT 10SM CLR 26/M06 A3018 7600 11 10600 VRB/06 RMK AO2 T02611061
93073KASE ASE20160712140012207/12/16 14:00:31  5-MIN KASE 122100Z 28007KT 240V320 10SM CLR 26/M06 A3018 7600 11 10600 270/07 230V310 RMK AO2 T02611061
93073KASE ASE20160712140511207/12/16 14:05:31  5-MIN KASE 122105Z 22010G16KT 10SM CLR 26/M06 A3018 7600 11 10600 210/10G16 RMK AO2 T02611061
93073KASE ASE20160712141012207/12/16 14:10:31  5-MIN KASE 122110Z 20011KT 170V230 10SM CLR 26/M06 A3018 7600 11 10600 190/11 160V220 RMK AO2 T02611061
93073KASE ASE20160712141510907/12/16 14:15:31  5-MIN KASE 122115Z 22010KT 10SM FEW120 26/M06 A3018 7600 12 10600 210/10 RMK AO2 T02611056
93073KASE ASE20160712142011507/12/16 14:20:31  5-MIN KASE 122120Z 20009G15KT 10SM FEW120 27/M05 A3018 7600 12 10600 190/09G15 RMK AO2 T02671050
93073KASE ASE20160712142510907/12/16 14:25:31  5-MIN KASE 122125Z 23006KT 10SM FEW120 26/M06 A3018 7600 11 10600 220/06 RMK AO2 T02611061
93073KASE ASE20160712143012507/12/16 14:30:31  5-MIN KASE 122130Z 24009KT 180V270 10SM FEW120 27/M06 A3018 7600 11 10600 230/09 170V260 RMK AO2 T02671061
93073KASE ASE20160712143510607/12/16 14:35:31  5-MIN KASE 122135Z VRB06KT 10SM CLR 26/M06 A3018 7600 11 10600 VRB/06 RMK AO2 T02611061
93073KASE ASE20160712144010607/12/16 14:40:31  5-MIN KASE 122140Z VRB06KT 10SM CLR 27/M06 A3018 7600 11 10600 VRB/06 RMK AO2 T02671061
93073KASE ASE20160712144511207/12/16 14:45:31  5-MIN KASE 122145Z 21010G14KT 10SM CLR 27/M06 A3018 7600 11 10600 200/10G14 RMK AO2 T02671061
93073KASE ASE20160712145012207/12/16 14:50:31  5-MIN KASE 122150Z 20011G17KT 10SM FEW100 26/M07 A3018 7600 11 10600 190/11G17 RMK AO2 SLP104 T02611067
93073KASE ASE20160712145511207/12/16 14:55:31  5-MIN KASE 122155Z 25006G17KT 10SM CLR 26/M06 A3019 7600 12 10600 240/06G17 RMK AO2 T02611056
93073KASE ASE20160712150010607/12/16 15:00:31  5-MIN KASE 122200Z VRB05KT 10SM CLR 26/M06 A3018 7600 11 10600 VRB/05 RMK AO2 T02611061
93073KASE ASE20160712150512207/12/16 15:05:31  5-MIN KASE 122205Z 22007KT 110V070 10SM CLR 27/M06 A3018 7600 11 10600 210/07 100V060 RMK AO2 T02671056
93073KASE ASE20160712151010607/12/16 15:10:31  5-MIN KASE 122210Z 24005KT 10SM CLR 27/M06 A3018 7600 11 10600 230/05 RMK AO2 T02671056
93073KASE ASE20160712151510607/12/16 15:15:31  5-MIN KASE 122215Z VRB03KT 10SM CLR 27/M06 A3019 7600 11 10600 VRB/03 RMK AO2 T02671061
93073KASE ASE20160712152012207/12/16 15:20:31  5-MIN KASE 122220Z 24007KT 190V290 10SM CLR 27/M06 A3019 7600 10 10700 230/07 180V280 RMK AO2 T02721061
93073KASE ASE20160712152510607/12/16 15:25:31  5-MIN KASE 122225Z 21009KT 10SM CLR 27/M07 A3019 7600 10 10600 210/09 RMK AO2 T02671067
93073KASE ASE20160712153010607/12/16 15:30:31  5-MIN KASE 122230Z VRB04KT 10SM CLR 26/M07 A3019 7600 10 10600 VRB/04 RMK AO2 T02611072
93073KASE ASE20160712153512207/12/16 15:35:31  5-MIN KASE 122235Z 24007KT 200V270 10SM CLR 26/M07 A3019 7600 10 10600 240/07 190V260 RMK AO2 T02611072
93073KASE ASE20160712154010607/12/16 15:40:31  5-MIN KASE 122240Z VRB06KT 10SM CLR 27/M07 A3018 7600 10 10600 VRB/06 RMK AO2 T02671072
93073KASE ASE20160712154512807/12/16 15:45:31  5-MIN KASE 122245Z 29008G17KT 280V340 10SM CLR 27/M08 A3018 7600 09 10600 280/08G17 270V330 RMK AO2 T02671078
93073KASE ASE20160712155011907/12/16 15:50:31  5-MIN KASE 122250Z VRB06G17KT 10SM CLR 26/M07 A3018 7600 10 10600 VRB/06G17 RMK AO2 SLP101 T02611072
93073KASE ASE20160712155510607/12/16 15:55:31  5-MIN KASE 122255Z VRB06KT 10SM CLR 27/M07 A3018 7600 10 10700 VRB/06 RMK AO2 T02721067
93073KASE ASE20160712160009607/12/16 16:00:31  5-MIN KASE 122300Z 10SM CLR 27/M07 A3018 7600 10 10600 M /M RMK AO2 T02671067
93073KASE ASE20160712160510607/12/16 16:05:31  5-MIN KASE 122305Z VRB06KT 10SM CLR 27/M06 A3018 7600 10 10700 VRB/06 RMK AO2 T02721061
93073KASE ASE20160712161010607/12/16 16:10:31  5-MIN KASE 122310Z VRB05KT 10SM CLR 27/M06 A3018 7600 10 10700 VRB/05 RMK AO2 T02721061
93073KASE ASE20160712161510607/12/16 16:15:31  5-MIN KASE 122315Z 00000KT 10SM CLR 27/M08 A3018 7600 09 10600 000/00 RMK AO2 T02671083
93073KASE ASE20160712162010607/12/16 16:20:31  5-MIN KASE 122320Z 25013KT 10SM CLR 27/M07 A3018 7600 10 10600 240/13 RMK AO2 T02671067
93073KASE ASE20160712162510607/12/16 16:25:31  5-MIN KASE 122325Z 27009KT 10SM CLR 26/M07 A3018 7600 10 10600 260/09 RMK AO2 T02611072
93073KASE ASE20160712163011207/12/16 16:30:31  5-MIN KASE 122330Z VRB03G14KT 10SM CLR 26/M08 A3018 7600 10 10600 VRB/03G14 RMK AO2 T02611078
93073KASE ASE20160712163510607/12/16 16:35:31  5-MIN KASE 122335Z 17005KT 10SM CLR 26/M08 A3018 7600 09 10600 160/05 RMK AO2 T02611083
93073KASE ASE20160712164010607/12/16 16:40:31  5-MIN KASE 122340Z 18005KT 10SM CLR 26/M08 A3018 7610 09 10600 180/05 RMK AO2 T02611083
93073KASE ASE20160712164510607/12/16 16:45:31  5-MIN KASE 122345Z 16005KT 10SM CLR 26/M08 A3017 7610 09 10600 160/05 RMK AO2 T02611083
93073KASE ASE20160712165013107/12/16 16:50:31  5-MIN KASE 122350Z VRB03KT 10SM CLR 26/M08 A3018 7610 10 10600 VRB/03 RMK AO2 SLP098 T02611078 10272 20239 56006
93073KASE ASE20160712165511207/12/16 16:55:31  5-MIN KASE 122355Z 20014G19KT 10SM CLR 26/M07 A3017 7610 10 10600 190/14G19 RMK AO2 T02611072
93073KASE ASE20160712170011207/12/16 17:00:31  5-MIN KASE 130000Z 23009G20KT 10SM CLR 26/M07 A3017 7610 11 10600 220/09G20 RMK AO2 T02611067
93073KASE ASE20160712170511207/12/16 17:05:31  5-MIN KASE 130005Z 20006G20KT 10SM CLR 26/M07 A3017 7610 11 10500 200/06G20 RMK AO2 T02561072
93073KASE ASE20160712171010607/12/16 17:10:31  5-MIN KASE 130010Z VRB03KT 10SM CLR 26/M07 A3017 7610 11 10500 VRB/03 RMK AO2 T02561072
93073KASE ASE20160712171510607/12/16 17:15:31  5-MIN KASE 130015Z 21005KT 10SM CLR 26/M07 A3017 7610 10 10600 200/05 RMK AO2 T02611072
93073KASE ASE20160712172010607/12/16 17:20:31  5-MIN KASE 130020Z 24007KT 10SM CLR 26/M06 A3016 7620 11 10600 230/07 RMK AO2 T02611061
93073KASE ASE20160712172512207/12/16 17:25:31  5-MIN KASE 130025Z 28008KT 240V340 10SM CLR 26/M07 A3016 7620 11 10600 280/08 230V330 RMK AO2 T02611067
93073KASE ASE20160712173010607/12/16 17:30:31  5-MIN KASE 130030Z 26008KT 10SM CLR 26/M06 A3017 7610 11 10600 260/08 RMK AO2 T02611061
93073KASE ASE20160712173512207/12/16 17:35:31  5-MIN KASE 130035Z 26007KT 220V290 10SM CLR 26/M06 A3016 7620 11 10600 250/07 210V280 RMK AO2 T02611061
93073KASE ASE20160712174010607/12/16 17:40:31  5-MIN KASE 130040Z 29004KT 10SM CLR 26/M06 A3017 7620 11 10600 290/04 RMK AO2 T02611061
93073KASE ASE20160712174510607/12/16 17:45:31  5-MIN KASE 130045Z 30003KT 10SM CLR 27/M06 A3017 7610 11 10600 290/03 RMK AO2 T02671061
93073KASE ASE20160712175011307/12/16 17:50:31  5-MIN KASE 130050Z 00000KT 10SM CLR 26/M05 A3017 7610 13 10500 000/00 RMK AO2 SLP093 T02561050
93073KASE ASE20160712175510607/12/16 17:55:31  5-MIN KASE 130055Z VRB03KT 10SM CLR 26/M06 A3017 7610 12 10600 VRB/03 RMK AO2 T02611056
93073KASE ASE20160712180010607/12/16 18:00:31  5-MIN KASE 130100Z 30004KT 10SM CLR 26/M04 A3017 7610 13 10600 290/04 RMK AO2 T02611044
93073KASE ASE20160712180509607/12/16 18:05:31  5-MIN KASE 130105Z 10SM CLR 26/M05 A3016 7620 13 10500 M /M RMK AO2 T02561050
93073KASE ASE20160712181010607/12/16 18:10:31  5-MIN KASE 130110Z 28005KT 10SM CLR 26/M04 A3016 7620 14 10500 270/05 RMK AO2 T02561039
93073KASE ASE20160712181510607/12/16 18:15:31  5-MIN KASE 130115Z 33005KT 10SM CLR 24/M03 A3016 7620 15 10400 320/05 RMK AO2 T02441033
93073KASE ASE20160712182010607/12/16 18:20:31  5-MIN KASE 130120Z 31004KT 10SM CLR 24/M03 A3017 7610 15 10400 300/04 RMK AO2 T02441033
93073KASE ASE20160712182510607/12/16 18:25:31  5-MIN KASE 130125Z 28003KT 10SM CLR 24/M04 A3017 7610 15 10300 270/03 RMK AO2 T02391039
93073KASE ASE20160712183010607/12/16 18:30:31  5-MIN KASE 130130Z 35003KT 10SM CLR 24/M05 A3017 7610 13 10400 340/03 RMK AO2 T02441050
93073KASE ASE20160712183510607/12/16 18:35:31  5-MIN KASE 130135Z 31003KT 10SM CLR 23/M03 A3017 7610 16 10300 300/03 RMK AO2 T02331033
93073KASE ASE20160712184010607/12/16 18:40:31  5-MIN KASE 130140Z 31004KT 10SM CLR 22/M03 A3018 7600 19 10100 300/04 RMK AO2 T02171028
93073KASE ASE20160712184510607/12/16 18:45:31  5-MIN KASE 130145Z 33004KT 10SM CLR 23/M04 A3018 7600 15 10300 320/04 RMK AO2 T02331044
93073KASE ASE20160712185011307/12/16 18:50:31  5-MIN KASE 130150Z 33007KT 10SM CLR 23/M04 A3018 7600 15 10300 320/07 RMK AO2 SLP092 T02331044
93073KASE ASE20160712185511107/12/16 18:55:31  5-MIN KASE 130155Z AUTO 34008KT 10SM CLR 23/M03 A3018 7600 17 10200 330/08 RMK AO2 T02281033
93073KASE ASE20160712190011107/12/16 19:00:31  5-MIN KASE 130200Z AUTO 32005KT 10SM CLR 22/M03 A3018 7600 17 10100 310/05 RMK AO2 T02221033
93073KASE ASE20160712190511107/12/16 19:05:31  5-MIN KASE 130205Z AUTO 33010KT 10SM CLR 21/M03 A3018 7600 20 10000 320/10 RMK AO2 T02111028
93073KASE ASE20160712191011107/12/16 19:10:31  5-MIN KASE 130210Z AUTO 33007KT 10SM CLR 22/M03 A3019 7600 17 10100 320/07 RMK AO2 T02221033
93073KASE ASE20160712191511107/12/16 19:15:31  5-MIN KASE 130215Z AUTO 33007KT 10SM CLR 22/M03 A3019 7600 19 10100 320/07 RMK AO2 T02171028
93073KASE ASE20160712192011107/12/16 19:20:31  5-MIN KASE 130220Z AUTO 33007KT 10SM CLR 22/M03 A3019 7590 18 10100 320/07 RMK AO2 T02171033
93073KASE ASE20160712192511107/12/16 19:25:31  5-MIN KASE 130225Z AUTO 33005KT 10SM CLR 22/M03 A3019 7590 18 10100 320/05 RMK AO2 T02171033
93073KASE ASE20160712193011107/12/16 19:30:31  5-MIN KASE 130230Z AUTO 32009KT 10SM CLR 21/M03 A3020 7590 19 10000 310/09 RMK AO2 T02111033
93073KASE ASE20160712193511107/12/16 19:35:31  5-MIN KASE 130235Z AUTO VRB05KT 10SM CLR 21/M04 A3020 7580 18 10000 VRB/05 RMK AO2 T02111039
93073KASE ASE20160712194011007/12/16 19:40:31  5-MIN KASE 130240Z AUTO 00000KT 10SM CLR 21/M03 A3020 7580 19 9900 000/00 RMK AO2 T02061033
93073KASE ASE20160712194511007/12/16 19:45:31  5-MIN KASE 130245Z AUTO 16004KT 10SM CLR 19/M02 A3020 7580 23 9800 150/04 RMK AO2 T01941022
93073KASE ASE20160712195012307/12/16 19:50:31  5-MIN KASE 130250Z AUTO 17006KT 10SM CLR 19/M02 A3021 7570 24 9800 160/06 RMK AO2 SLP104 T01941017 58002
93073KASE ASE20160712195511007/12/16 19:55:31  5-MIN KASE 130255Z AUTO 19007KT 10SM CLR 19/M01 A3021 7570 25 9800 180/07 RMK AO2 T01891011
93073KASE ASE20160712200011007/12/16 20:00:31  5-MIN KASE 130300Z AUTO 17007KT 10SM CLR 18/M01 A3022 7570 28 9600 160/07 RMK AO2 T01781006
93073KASE ASE20160712200511007/12/16 20:05:31  5-MIN KASE 130305Z AUTO 19008KT 10SM CLR 18/M01 A3022 7570 28 9600 180/08 RMK AO2 T01781006
93073KASE ASE20160712201011007/12/16 20:10:31  5-MIN KASE 130310Z AUTO 20007KT 10SM CLR 17/M01 A3022 7570 29 9600 190/07 RMK AO2 T01721006
93073KASE ASE20160712201511007/12/16 20:15:31  5-MIN KASE 130315Z AUTO 19006KT 10SM CLR 17/M01 A3022 7560 31 9500 190/06 RMK AO2 T01671006
93073KASE ASE20160712202011007/12/16 20:20:31  5-MIN KASE 130320Z AUTO VRB06KT 10SM CLR 17/M01 A3023 7560 31 9500 VRB/06 RMK AO2 T01671006
93073KASE ASE20160712202510907/12/16 20:25:31  5-MIN KASE 130325Z AUTO 19008KT 10SM CLR 16/00 A3023 7560 33 9400 180/08 RMK AO2 T01610000
93073KASE ASE20160712203010907/12/16 20:30:31  5-MIN KASE 130330Z AUTO 19006KT 10SM CLR 16/00 A3023 7560 34 9400 180/06 RMK AO2 T01560000
93073KASE ASE20160712203510907/12/16 20:35:31  5-MIN KASE 130335Z AUTO 19006KT 10SM CLR 15/00 A3023 7560 35 9300 180/06 RMK AO2 T01500000
93073KASE ASE20160712204010907/12/16 20:40:31  5-MIN KASE 130340Z AUTO 19007KT 10SM CLR 15/00 A3023 7550 35 9300 180/07 RMK AO2 T01500000
93073KASE ASE20160712204510907/12/16 20:45:31  5-MIN KASE 130345Z AUTO 19007KT 10SM CLR 15/00 A3024 7550 35 9300 180/07 RMK AO2 T01500000
93073KASE ASE20160712205011607/12/16 20:50:31  5-MIN KASE 130350Z AUTO 19006KT 10SM CLR 15/00 A3024 7550 35 9300 180/06 RMK AO2 SLP117 T01500000
93073KASE ASE20160712205510907/12/16 20:55:31  5-MIN KASE 130355Z AUTO 19007KT 10SM CLR 14/00 A3024 7550 37 9200 180/07 RMK AO2 T01440000
93073KASE ASE20160712210011007/12/16 21:00:31  5-MIN KASE 130400Z AUTO 20007KT 10SM CLR 15/M01 A3024 7540 34 9300 190/07 RMK AO2 T01501006
93073KASE ASE20160712210511007/12/16 21:05:31  5-MIN KASE 130405Z AUTO 19006KT 10SM CLR 15/M01 A3025 7540 34 9300 180/06 RMK AO2 T01501006
93073KASE ASE20160712211010907/12/16 21:10:31  5-MIN KASE 130410Z AUTO 20007KT 10SM CLR 14/00 A3025 7540 38 9200 190/07 RMK AO2 T01390000
93073KASE ASE20160712211511007/12/16 21:15:31  5-MIN KASE 130415Z AUTO 22005KT 10SM CLR 13/M01 A3025 7540 38 9100 210/05 RMK AO2 T01331006
93073KASE ASE20160712212010907/12/16 21:20:31  5-MIN KASE 130420Z AUTO 21008KT 10SM CLR 13/00 A3025 7540 41 9000 200/08 RMK AO2 T01280000
93073KASE ASE20160712212510907/12/16 21:25:31  5-MIN KASE 130425Z AUTO 20008KT 10SM CLR 13/00 A3025 7530 40 9100 200/08 RMK AO2 T01330000
93073KASE ASE20160712213010907/12/16 21:30:31  5-MIN KASE 130430Z AUTO 20008KT 10SM CLR 13/00 A3025 7530 41 9000 190/08 RMK AO2 T01280000
93073KASE ASE20160712213510907/12/16 21:35:31  5-MIN KASE 130435Z AUTO 21008KT 10SM CLR 13/00 A3025 7530 41 9000 200/08 RMK AO2 T01280000
93073KASE ASE20160712214011007/12/16 21:40:31  5-MIN KASE 130440Z AUTO 20006KT 10SM CLR 14/M01 A3025 7530 37 9200 190/06 RMK AO2 T01391006
93073KASE ASE20160712214510907/12/16 21:45:31  5-MIN KASE 130445Z AUTO 20009KT 10SM CLR 12/00 A3026 7530 43 9000 190/09 RMK AO2 T01220000
93073KASE ASE20160712215011707/12/16 21:50:31  5-MIN KASE 130450Z AUTO 21008KT 10SM CLR 13/M01 A3025 7530 39 9000 200/08 RMK AO2 SLP120 T01281006
93073KASE ASE20160712215511007/12/16 21:55:31  5-MIN KASE 130455Z AUTO 21009KT 10SM CLR 13/M01 A3026 7530 38 9000 210/09 RMK AO2 T01281011
93073KASE ASE20160712220011007/12/16 22:00:31  5-MIN KASE 130500Z AUTO 21008KT 10SM CLR 13/M01 A3025 7530 38 9000 200/08 RMK AO2 T01281011
93073KASE ASE20160712220511007/12/16 22:05:31  5-MIN KASE 130505Z AUTO 21008KT 10SM CLR 14/M01 A3025 7530 35 9200 200/08 RMK AO2 T01391011
93073KASE ASE20160712221011007/12/16 22:10:31  5-MIN KASE 130510Z AUTO 21008KT 10SM CLR 14/M02 A3026 7530 34 9200 200/08 RMK AO2 T01391017
93073KASE ASE20160712221511007/12/16 22:15:31  5-MIN KASE 130515Z AUTO 20008KT 10SM CLR 14/M02 A3026 7530 34 9200 190/08 RMK AO2 T01391017
93073KASE ASE20160712222011007/12/16 22:20:31  5-MIN KASE 130520Z AUTO 21008KT 10SM CLR 13/M02 A3026 7530 35 9100 200/08 RMK AO2 T01331017
93073KASE ASE20160712222511007/12/16 22:25:31  5-MIN KASE 130525Z AUTO 19008KT 10SM CLR 14/M02 A3026 7530 34 9200 180/08 RMK AO2 T01391017
93073KASE ASE20160712223011007/12/16 22:30:31  5-MIN KASE 130530Z AUTO 20008KT 10SM CLR 13/M02 A3026 7530 35 9100 190/08 RMK AO2 T01331017
93073KASE ASE20160712223511007/12/16 22:35:31  5-MIN KASE 130535Z AUTO 20007KT 10SM CLR 13/M02 A3026 7530 35 9100 190/07 RMK AO2 T01331017
93073KASE ASE20160712224011007/12/16 22:40:31  5-MIN KASE 130540Z AUTO 20007KT 10SM CLR 14/M02 A3026 7530 32 9200 190/07 RMK AO2 T01391022
93073KASE ASE20160712224511007/12/16 22:45:31  5-MIN KASE 130545Z AUTO 20008KT 10SM CLR 13/M02 A3026 7530 35 9100 190/08 RMK AO2 T01331017
93073KASE ASE20160712225013507/12/16 22:50:31  5-MIN KASE 130550Z AUTO 21009KT 10SM CLR 13/M02 A3025 7530 36 9000 200/09 RMK AO2 SLP117 T01281017 10267 20122 53010
93073KASE ASE20160712225511007/12/16 22:55:31  5-MIN KASE 130555Z AUTO 21008KT 10SM CLR 13/M02 A3025 7530 34 9100 200/08 RMK AO2 T01331022
93073KASE ASE20160712230011007/12/16 23:00:31  5-MIN KASE 130600Z AUTO 21006KT 10SM CLR 13/M02 A3026 7530 35 9000 200/06 RMK AO2 T01281022
93073KASE ASE20160712230511007/12/16 23:05:31  5-MIN KASE 130605Z AUTO 19005KT 10SM CLR 13/M02 A3025 7530 35 9000 190/05 RMK AO2 T01281022
93073KASE ASE20160712231011007/12/16 23:10:31  5-MIN KASE 130610Z AUTO 22007KT 10SM CLR 13/M02 A3026 7530 35 9000 210/07 RMK AO2 T01281022
93073KASE ASE20160712231511007/12/16 23:15:31  5-MIN KASE 130615Z AUTO 19008KT 10SM CLR 13/M02 A3026 7530 35 9000 180/08 RMK AO2 T01281022
93073KASE ASE20160712232011007/12/16 23:20:31  5-MIN KASE 130620Z AUTO 21008KT 10SM CLR 12/M02 A3026 7530 38 9000 200/08 RMK AO2 T01221017
93073KASE ASE20160712232511007/12/16 23:25:31  5-MIN KASE 130625Z AUTO 20007KT 10SM CLR 13/M03 A3025 7540 32 9100 190/07 RMK AO2 T01331028
93073KASE ASE20160712233011007/12/16 23:30:31  5-MIN KASE 130630Z AUTO 23008KT 10SM CLR 13/M02 A3025 7540 35 9000 220/08 RMK AO2 T01281022
93073KASE ASE20160712233511007/12/16 23:35:31  5-MIN KASE 130635Z AUTO 20007KT 10SM CLR 13/M03 A3025 7530 32 9100 190/07 RMK AO2 T01331028
93073KASE ASE20160712234011007/12/16 23:40:31  5-MIN KASE 130640Z AUTO 19007KT 10SM CLR 13/M03 A3025 7530 33 9000 180/07 RMK AO2 T01281028
93073KASE ASE20160712234511007/12/16 23:45:31  5-MIN KASE 130645Z AUTO 21008KT 10SM CLR 13/M03 A3025 7540 33 9000 200/08 RMK AO2 T01281028
93073KASE ASE20160712235012707/12/16 23:50:31  5-MIN KASE 130650Z AUTO 20007KT 10SM CLR 13/M03 A3025 7540 33 9000 190/07 RMK AO2 SLP113 T01281028 402720044
93073KASE ASE20160712235511007/12/16 23:55:31  5-MIN KASE 130655Z AUTO 21008KT 10SM CLR 12/M03 A3025 7540 35 9000 200/08 RMK AO2 T01221028
93073KASE ASE20160713000011007/13/16 00:00:31  5-MIN KASE 130700Z AUTO 21007KT 10SM CLR 12/M03 A3025 7540 35 9000 200/07 RMK AO2 T01221028
93073KASE ASE20160713000511007/13/16 00:05:31  5-MIN KASE 130705Z AUTO 20007KT 10SM CLR 12/M03 A3025 7540 35 9000 190/07 RMK AO2 T01221028
93073KASE ASE20160713001011007/13/16 00:10:31  5-MIN KASE 130710Z AUTO 20006KT 10SM CLR 11/M02 A3025 7540 39 8900 190/06 RMK AO2 T01111022
93073KASE ASE20160713001511007/13/16 00:15:31  5-MIN KASE 130715Z AUTO 22010KT 10SM CLR 11/M02 A3025 7540 40 8800 210/10 RMK AO2 T01061022
93073KASE ASE20160713002011007/13/16 00:20:31  5-MIN KASE 130720Z AUTO 22009KT 10SM CLR 11/M02 A3025 7540 40 8800 210/09 RMK AO2 T01061022
93073KASE ASE20160713002511007/13/16 00:25:31  5-MIN KASE 130725Z AUTO 22007KT 10SM CLR 12/M03 A3025 7540 33 9000 210/07 RMK AO2 T01221033
93073KASE ASE20160713003011007/13/16 00:30:31  5-MIN KASE 130730Z AUTO 19007KT 10SM CLR 12/M03 A3025 7540 36 8900 180/07 RMK AO2 T01171028
93073KASE ASE20160713003511007/13/16 00:35:31  5-MIN KASE 130735Z AUTO 20007KT 10SM CLR 11/M03 A3025 7540 39 8800 190/07 RMK AO2 T01061028
93073KASE ASE20160713004011007/13/16 00:40:31  5-MIN KASE 130740Z AUTO 20007KT 10SM CLR 11/M03 A3025 7540 37 8900 190/07 RMK AO2 T01111028
93073KASE ASE20160713004511007/13/16 00:45:31  5-MIN KASE 130745Z AUTO 22012KT 10SM CLR 10/M03 A3024 7540 40 8700 220/12 RMK AO2 T01001028
93073KASE ASE20160713005011707/13/16 00:50:31  5-MIN KASE 130750Z AUTO 21008KT 10SM CLR 10/M02 A3025 7540 42 8700 200/08 RMK AO2 SLP118 T01001022
93073KASE ASE20160713005511007/13/16 00:55:31  5-MIN KASE 130755Z AUTO 21009KT 10SM CLR 10/M03 A3025 7540 40 8700 200/09 RMK AO2 T01001028
93073KASE ASE20160713010011007/13/16 01:00:31  5-MIN KASE 130800Z AUTO 21009KT 10SM CLR 11/M03 A3024 7540 39 8800 200/09 RMK AO2 T01061028
93073KASE ASE20160713010511007/13/16 01:05:31  5-MIN KASE 130805Z AUTO 22008KT 10SM CLR 11/M03 A3024 7550 37 8900 210/08 RMK AO2 T01111028
93073KASE ASE20160713011011007/13/16 01:10:31  5-MIN KASE 130810Z AUTO 20006KT 10SM CLR 12/M03 A3024 7550 35 8900 190/06 RMK AO2 T01171033
93073KASE ASE20160713011511007/13/16 01:15:31  5-MIN KASE 130815Z AUTO 20006KT 10SM CLR 10/M03 A3024 7550 40 8700 200/06 RMK AO2 T01001028
93073KASE ASE20160713012011007/13/16 01:20:31  5-MIN KASE 130820Z AUTO 21009KT 10SM CLR 10/M03 A3024 7550 40 8700 210/09 RMK AO2 T01001028
93073KASE ASE20160713012511007/13/16 01:25:31  5-MIN KASE 130825Z AUTO 21008KT 10SM CLR 10/M03 A3024 7550 40 8700 200/08 RMK AO2 T01001028
93073KASE ASE20160713013011007/13/16 01:30:31  5-MIN KASE 130830Z AUTO 21007KT 10SM CLR 11/M03 A3024 7550 36 8900 200/07 RMK AO2 T01111033
93073KASE ASE20160713013511007/13/16 01:35:31  5-MIN KASE 130835Z AUTO 21006KT 10SM CLR 09/M02 A3024 7550 44 8700 200/06 RMK AO2 T00941022
93073KASE ASE20160713014011007/13/16 01:40:31  5-MIN KASE 130840Z AUTO 22008KT 10SM CLR 09/M02 A3024 7550 44 8700 210/08 RMK AO2 T00941022
93073KASE ASE20160713014511007/13/16 01:45:31  5-MIN KASE 130845Z AUTO 21007KT 10SM CLR 09/M03 A3023 7550 42 8700 200/07 RMK AO2 T00941028
93073KASE ASE20160713015012307/13/16 01:50:31  5-MIN KASE 130850Z AUTO 22007KT 10SM CLR 09/M03 A3024 7550 42 8700 210/07 RMK AO2 SLP114 T00941028 50012
93073KASE ASE20160713015511007/13/16 01:55:31  5-MIN KASE 130855Z AUTO 19006KT 10SM CLR 09/M03 A3024 7550 42 8700 180/06 RMK AO2 T00941028
93073KASE ASE20160713020011007/13/16 02:00:31  5-MIN KASE 130900Z AUTO 21007KT 10SM CLR 08/M02 A3023 7550 47 8500 200/07 RMK AO2 T00831022
93073KASE ASE20160713020511007/13/16 02:05:31  5-MIN KASE 130905Z AUTO 21010KT 10SM CLR 09/M02 A3023 7550 45 8600 200/10 RMK AO2 T00891022
93073KASE ASE20160713021011007/13/16 02:10:31  5-MIN KASE 130910Z AUTO 21008KT 10SM CLR 09/M03 A3024 7550 42 8700 200/08 RMK AO2 T00941028
93073KASE ASE20160713021511007/13/16 02:15:31  5-MIN KASE 130915Z AUTO 22009KT 10SM CLR 10/M03 A3024 7550 40 8700 210/09 RMK AO2 T01001028
93073KASE ASE20160713022011007/13/16 02:20:31  5-MIN KASE 130920Z AUTO 00000KT 10SM CLR 10/M03 A3024 7550 40 8700 000/00 RMK AO2 T01001028
93073KASE ASE20160713022511007/13/16 02:25:31  5-MIN KASE 130925Z AUTO 00000KT 10SM CLR 09/M02 A3024 7550 45 8600 000/00 RMK AO2 T00891022
93073KASE ASE20160713023011007/13/16 02:30:31  5-MIN KASE 130930Z AUTO 00000KT 10SM CLR 09/M02 A3024 7540 45 8600 000/00 RMK AO2 T00891022
93073KASE ASE20160713023511007/13/16 02:35:31  5-MIN KASE 130935Z AUTO 22007KT 10SM CLR 08/M02 A3024 7540 47 8500 210/07 RMK AO2 T00831022
93073KASE ASE20160713024011007/13/16 02:40:31  5-MIN KASE 130940Z AUTO 19006KT 10SM CLR 09/M02 A3024 7540 45 8600 180/06 RMK AO2 T00891022
93073KASE ASE20160713024511007/13/16 02:45:31  5-MIN KASE 130945Z AUTO 22006KT 10SM CLR 08/M02 A3024 7540 47 8500 210/06 RMK AO2 T00831022
93073KASE ASE20160713025011707/13/16 02:50:31  5-MIN KASE 130950Z AUTO 00000KT 10SM CLR 08/M02 A3024 7540 47 8500 000/00 RMK AO2 SLP119 T00831022
93073KASE ASE20160713025511007/13/16 02:55:31  5-MIN KASE 130955Z AUTO VRB03KT 10SM CLR 08/M02 A3024 7540 47 8500 VRB/03 RMK AO2 T00831022
93073KASE ASE20160713030011007/13/16 03:00:31  5-MIN KASE 131000Z AUTO 00000KT 10SM CLR 08/M02 A3024 7540 47 8500 000/00 RMK AO2 T00831022
93073KASE ASE20160713030511007/13/16 03:05:31  5-MIN KASE 131005Z AUTO 21006KT 10SM CLR 08/M02 A3025 7540 49 8500 200/06 RMK AO2 T00781022
93073KASE ASE20160713031011007/13/16 03:10:31  5-MIN KASE 131010Z AUTO 24004KT 10SM CLR 07/M02 A3025 7540 53 8400 230/04 RMK AO2 T00721017
93073KASE ASE20160713031511007/13/16 03:15:31  5-MIN KASE 131015Z AUTO 21004KT 10SM CLR 07/M02 A3025 7540 51 8400 200/04 RMK AO2 T00721022
93073KASE ASE20160713032011007/13/16 03:20:31  5-MIN KASE 131020Z AUTO 18003KT 10SM CLR 08/M02 A3025 7540 49 8500 170/03 RMK AO2 T00781022
93073KASE ASE20160713032511007/13/16 03:25:31  5-MIN KASE 131025Z AUTO 22005KT 10SM CLR 08/M02 A3025 7540 49 8500 210/05 RMK AO2 T00781022
93073KASE ASE20160713033011007/13/16 03:30:31  5-MIN KASE 131030Z AUTO VRB03KT 10SM CLR 08/M02 A3025 7540 49 8500 VRB/03 RMK AO2 T00781022
93073KASE ASE20160713033511007/13/16 03:35:31  5-MIN KASE 131035Z AUTO 22003KT 10SM CLR 08/M02 A3025 7540 49 8500 210/03 RMK AO2 T00781022
93073KASE ASE20160713034011007/13/16 03:40:31  5-MIN KASE 131040Z AUTO 00000KT 10SM CLR 08/M02 A3025 7530 49 8500 000/00 RMK AO2 T00781022
93073KASE ASE20160713034511007/13/16 03:45:31  5-MIN KASE 131045Z AUTO 00000KT 10SM CLR 07/M02 A3025 7530 51 8400 000/00 RMK AO2 T00721022
93073KASE ASE20160713035011707/13/16 03:50:31  5-MIN KASE 131050Z AUTO 20003KT 10SM CLR 07/M02 A3026 7530 51 8400 190/03 RMK AO2 SLP127 T00721022
93073KASE ASE20160713035511007/13/16 03:55:31  5-MIN KASE 131055Z AUTO 00000KT 10SM CLR 07/M02 A3026 7530 51 8400 000/00 RMK AO2 T00721022
93073KASE ASE20160713040011007/13/16 04:00:31  5-MIN KASE 131100Z AUTO 18003KT 10SM CLR 07/M02 A3026 7520 51 8400 180/03 RMK AO2 T00721022
93073KASE ASE20160713040511007/13/16 04:05:31  5-MIN KASE 131105Z AUTO 22005KT 10SM CLR 07/M02 A3027 7520 51 8400 210/05 RMK AO2 T00721022
93073KASE ASE20160713041011007/13/16 04:10:31  5-MIN KASE 131110Z AUTO 21007KT 10SM CLR 07/M02 A3026 7530 51 8400 200/07 RMK AO2 T00721022
93073KASE ASE20160713041511007/13/16 04:15:31  5-MIN KASE 131115Z AUTO 21006KT 10SM CLR 09/M03 A3026 7520 43 8600 200/06 RMK AO2 T00891028
93073KASE ASE20160713042011007/13/16 04:20:31  5-MIN KASE 131120Z AUTO 22007KT 10SM CLR 08/M03 A3027 7520 45 8500 210/07 RMK AO2 T00831028
93073KASE ASE20160713042511007/13/16 04:25:31  5-MIN KASE 131125Z AUTO VRB04KT 10SM CLR 08/M02 A3027 7520 47 8500 VRB/04 RMK AO2 T00831022
93073KASE ASE20160713043011007/13/16 04:30:31  5-MIN KASE 131130Z AUTO 14005KT 10SM CLR 08/M02 A3027 7520 47 8500 140/05 RMK AO2 T00831022
93073KASE ASE20160713043511007/13/16 04:35:31  5-MIN KASE 131135Z AUTO 17004KT 10SM CLR 08/M02 A3027 7520 49 8400 170/04 RMK AO2 T00781022
93073KASE ASE20160713044011007/13/16 04:40:31  5-MIN KASE 131140Z AUTO 15003KT 10SM CLR 08/M02 A3027 7520 49 8400 140/03 RMK AO2 T00781022
93073KASE ASE20160713044511007/13/16 04:45:31  5-MIN KASE 131145Z AUTO 00000KT 10SM CLR 07/M02 A3027 7520 51 8400 000/00 RMK AO2 T00721022
93073KASE ASE20160713045013507/13/16 04:50:31  5-MIN KASE 131150Z AUTO 18006KT 10SM CLR 07/M02 A3027 7520 55 8300 170/06 RMK AO2 SLP132 T00671017 10133 20067 57003
93073KASE ASE20160713045511007/13/16 04:55:31  5-MIN KASE 131155Z AUTO 00000KT 10SM CLR 06/M02 A3028 7510 57 8200 000/00 RMK AO2 T00611017
93073KASE ASE20160713050011007/13/16 05:00:31  5-MIN KASE 131200Z AUTO 00000KT 10SM CLR 07/M02 A3028 7510 51 8400 000/00 RMK AO2 T00721022
93073KASE ASE20160713150011207/13/16 15:00:31  5-MIN KASE 132200Z 33018G24KT 10SM CLR 28/M04 A3029 7500 12 10600 320/18G24 RMK AO2 T02781039
93073KASE ASE20160713150511207/13/16 15:05:31  5-MIN KASE 132205Z 33014G24KT 10SM CLR 28/M04 A3029 7500 12 10600 320/14G24 RMK AO2 T02781039
93073KASE ASE20160713151011207/13/16 15:10:31  5-MIN KASE 132210Z 34013G24KT 10SM CLR 28/M04 A3029 7500 12 10600 330/13G24 RMK AO2 T02781039
93073KASE ASE20160713151512807/13/16 15:15:31  5-MIN KASE 132215Z 34008G23KT 310V020 10SM CLR 28/M04 A3029 7500 12 10600 330/08G23 300V010 RMK AO2 T02781039
93073KASE ASE20160713152011207/13/16 15:20:31  5-MIN KASE 132220Z 35011G22KT 10SM CLR 28/M03 A3029 7500 12 10600 340/11G22 RMK AO2 T02781033
93073KASE ASE20160713152511207/13/16 15:25:31  5-MIN KASE 132225Z 33015G22KT 10SM CLR 28/M03 A3029 7500 13 10600 330/15G22 RMK AO2 T02781028
93073KASE ASE20160713153012807/13/16 15:30:31  5-MIN KASE 132230Z 33011G20KT 270V360 10SM CLR 28/M04 A3029 7500 12 10600 320/11G20 260V350 RMK AO2 T02781039
93073KASE ASE20160713153511207/13/16 15:35:31  5-MIN KASE 132235Z 35014G19KT 10SM CLR 28/M04 A3029 7500 11 10600 340/14G19 RMK AO2 T02781044
93073KASE ASE20160713154011207/13/16 15:40:31  5-MIN KASE 132240Z 34012G19KT 10SM CLR 28/M04 A3029 7500 11 10700 330/12G19 RMK AO2 T02831044
93073KASE ASE20160713154511207/13/16 15:45:31  5-MIN KASE 132245Z 34012G19KT 10SM CLR 28/M05 A3029 7500 11 10700 330/12G19 RMK AO2 T02831050
93073KASE ASE20160713155011907/13/16 15:50:31  5-MIN KASE 132250Z 33010G19KT 10SM CLR 28/M04 A3029 7500 11 10600 320/10G19 RMK AO2 SLP132 T02781044
93073KASE ASE20160713155511207/13/16 15:55:31  5-MIN KASE 132255Z 33013G20KT 10SM CLR 27/M04 A3030 7500 12 10600 320/13G20 RMK AO2 T02721044
93073KASE ASE20160713160011207/13/16 16:00:31  5-MIN KASE 132300Z 35015G23KT 10SM CLR 27/M05 A3029 7500 12 10500 340/15G23 RMK AO2 T02671050
93073KASE ASE20160713160511207/13/16 16:05:31  5-MIN KASE 132305Z 35012G23KT 10SM CLR 27/M05 A3030 7500 11 10600 340/12G23 RMK AO2 T02721050
93073KASE ASE20160713161011207/13/16 16:10:31  5-MIN KASE 132310Z 34013G21KT 10SM CLR 28/M05 A3030 7500 11 10600 330/13G21 RMK AO2 T02781050
93073KASE ASE20160713161511207/13/16 16:15:31  5-MIN KASE 132315Z 34012G21KT 10SM CLR 28/M05 A3030 7500 11 10600 330/12G21 RMK AO2 T02781050
93073KASE ASE20160713162011207/13/16 16:20:31  5-MIN KASE 132320Z 34011G20KT 10SM CLR 28/M04 A3030 7500 11 10600 330/11G20 RMK AO2 T02781044
93073KASE ASE20160713162511207/13/16 16:25:31  5-MIN KASE 132325Z 33013G20KT 10SM CLR 28/M05 A3030 7500 11 10600 320/13G20 RMK AO2 T02781050
93073KASE ASE20160713163011207/13/16 16:30:31  5-MIN KASE 132330Z 34010G20KT 10SM CLR 28/M05 A3030 7500 11 10600 330/10G20 RMK AO2 T02781050
93073KASE ASE20160713163511207/13/16 16:35:31  5-MIN KASE 132335Z 35012G19KT 10SM CLR 28/M06 A3030 7500 11 10600 340/12G19 RMK AO2 T02781056
93073KASE ASE20160713164011207/13/16 16:40:31  5-MIN KASE 132340Z 34013G19KT 10SM CLR 27/M06 A3029 7500 10 10600 330/13G19 RMK AO2 T02721061
93073KASE ASE20160713164510607/13/16 16:45:31  5-MIN KASE 132345Z 33013KT 10SM CLR 27/M06 A3029 7500 10 10600 320/13 RMK AO2 T02721061
93073KASE ASE20160713165013107/13/16 16:50:31  5-MIN KASE 132350Z 35013KT 10SM CLR 27/M06 A3029 7500 10 10600 340/13 RMK AO2 SLP134 T02721061 10283 20261 58005
93073KASE ASE20160713165511207/13/16 16:55:31  5-MIN KASE 132355Z 35010G19KT 10SM CLR 27/M06 A3029 7500 11 10600 340/10G19 RMK AO2 T02721056
93073KASE ASE20160713170011207/13/16 17:00:31  5-MIN KASE 140000Z 34010G19KT 10SM CLR 27/M06 A3029 7500 11 10600 330/10G19 RMK AO2 T02721056
93073KASE ASE20160713170511207/13/16 17:05:31  5-MIN KASE 140005Z 34010G17KT 10SM CLR 27/M06 A3029 7500 11 10600 340/10G17 RMK AO2 T02721056
93073KASE ASE20160713171010607/13/16 17:10:31  5-MIN KASE 140010Z 34010KT 10SM CLR 27/M06 A3029 7500 11 10600 330/10 RMK AO2 T02721056
93073KASE ASE20160713171510607/13/16 17:15:31  5-MIN KASE 140015Z 34011KT 10SM CLR 27/M06 A3029 7500 11 10500 330/11 RMK AO2 T02671061
93073KASE ASE20160713172010607/13/16 17:20:31  5-MIN KASE 140020Z 34010KT 10SM CLR 27/M06 A3029 7500 11 10600 330/10 RMK AO2 T02721056
93073KASE ASE20160713172510607/13/16 17:25:31  5-MIN KASE 140025Z 33010KT 10SM CLR 27/M05 A3029 7500 11 10600 320/10 RMK AO2 T02721050
93073KASE ASE20160713173010607/13/16 17:30:31  5-MIN KASE 140030Z 34011KT 10SM CLR 27/M06 A3029 7500 11 10500 330/11 RMK AO2 T02671056
93073KASE ASE20160713173511207/13/16 17:35:31  5-MIN KASE 140035Z 34012G19KT 10SM CLR 27/M06 A3029 7500 11 10500 330/12G19 RMK AO2 T02671056
93073KASE ASE20160713174011207/13/16 17:40:31  5-MIN KASE 140040Z 34012G19KT 10SM CLR 27/M06 A3030 7490 11 10500 330/12G19 RMK AO2 T02671056
93073KASE ASE20160713174511207/13/16 17:45:31  5-MIN KASE 140045Z 33011G19KT 10SM CLR 27/M06 A3030 7490 11 10500 330/11G19 RMK AO2 T02671056
93073KASE ASE20160713175011907/13/16 17:50:31  5-MIN KASE 140050Z 34012G19KT 10SM CLR 26/M06 A3030 7490 12 10400 330/12G19 RMK AO2 SLP134 T02611056
93073KASE ASE20160713175510607/13/16 17:55:31  5-MIN KASE 140055Z 34010KT 10SM CLR 26/M06 A3030 7490 12 10400 330/10 RMK AO2 T02611056
93073KASE ASE20160713180010607/13/16 18:00:31  5-MIN KASE 140100Z 34010KT 10SM CLR 26/M06 A3030 7490 12 10400 330/10 RMK AO2 T02611056
93073KASE ASE20160713180510607/13/16 18:05:31  5-MIN KASE 140105Z 34010KT 10SM CLR 26/M05 A3030 7490 12 10400 330/10 RMK AO2 T02611050
93073KASE ASE20160713181010607/13/16 18:10:31  5-MIN KASE 140110Z 33010KT 10SM CLR 26/M06 A3030 7490 12 10400 320/10 RMK AO2 T02561056
93073KASE ASE20160713181510607/13/16 18:15:31  5-MIN KASE 140115Z 34008KT 10SM CLR 26/M06 A3031 7490 12 10400 330/08 RMK AO2 T02561056
93073KASE ASE20160713182010607/13/16 18:20:31  5-MIN KASE 140120Z 34012KT 10SM CLR 26/M05 A3031 7490 13 10400 330/12 RMK AO2 T02561050
93073KASE ASE20160713182510607/13/16 18:25:31  5-MIN KASE 140125Z 34008KT 10SM CLR 26/M06 A3031 7480 12 10400 330/08 RMK AO2 T02561056
93073KASE ASE20160713183010607/13/16 18:30:31  5-MIN KASE 140130Z 33009KT 10SM CLR 25/M05 A3031 7490 13 10300 320/09 RMK AO2 T02501050
93073KASE ASE20160713183510607/13/16 18:35:31  5-MIN KASE 140135Z 33007KT 10SM CLR 24/M05 A3031 7480 13 10200 320/07 RMK AO2 T02441050
93073KASE ASE20160713184010607/13/16 18:40:31  5-MIN KASE 140140Z 33008KT 10SM CLR 24/M06 A3031 7480 13 10200 320/08 RMK AO2 T02391056
93073KASE ASE20160713184510607/13/16 18:45:31  5-MIN KASE 140145Z 33009KT 10SM CLR 24/M06 A3031 7480 13 10200 320/09 RMK AO2 T02391056
93073KASE ASE20160713185011807/13/16 18:50:31  5-MIN KASE 140150Z AUTO 33008KT 10SM CLR 24/M06 A3031 7480 13 10200 320/08 RMK AO2 SLP133 T02391061
93073KASE ASE20160713185511107/13/16 18:55:31  5-MIN KASE 140155Z AUTO 32009KT 10SM CLR 24/M07 A3031 7480 12 10200 310/09 RMK AO2 T02391072
93073KASE ASE20160713190011107/13/16 19:00:31  5-MIN KASE 140200Z AUTO 33008KT 10SM CLR 24/M07 A3031 7480 12 10200 320/08 RMK AO2 T02391072
93073KASE ASE20160713190511107/13/16 19:05:31  5-MIN KASE 140205Z AUTO 33008KT 10SM CLR 23/M07 A3031 7480 12 10100 320/08 RMK AO2 T02331072
93073KASE ASE20160713191011107/13/16 19:10:31  5-MIN KASE 140210Z AUTO 34009KT 10SM CLR 24/M08 A3032 7480 11 10200 330/09 RMK AO2 T02391078
93073KASE ASE20160713191511107/13/16 19:15:31  5-MIN KASE 140215Z AUTO 33008KT 10SM CLR 24/M08 A3032 7470 11 10200 320/08 RMK AO2 T02391078
93073KASE ASE20160713192011707/13/16 19:20:31  5-MIN KASE 140220Z AUTO VRB04G16KT 10SM CLR 23/M07 A3032 7470 13 10100 VRB/04G16 RMK AO2 T02281072
93073KASE ASE20160713192511107/13/16 19:25:31  5-MIN KASE 140225Z AUTO VRB04KT 10SM CLR 22/M07 A3032 7470 14 10000 VRB/04 RMK AO2 T02221067
93073KASE ASE20160713193011007/13/16 19:30:31  5-MIN KASE 140230Z AUTO VRB04KT 10SM CLR 22/M07 A3032 7470 14 9900 VRB/04 RMK AO2 T02171067
93073KASE ASE20160713193511007/13/16 19:35:31  5-MIN KASE 140235Z AUTO 26004KT 10SM CLR 22/M07 A3032 7470 14 9900 260/04 RMK AO2 T02171067
93073KASE ASE20160713194011007/13/16 19:40:31  5-MIN KASE 140240Z AUTO VRB03KT 10SM CLR 19/M05 A3033 7470 18 9700 VRB/03 RMK AO2 T01941050
93073KASE ASE20160713194511007/13/16 19:45:31  5-MIN KASE 140245Z AUTO 16003KT 10SM CLR 19/M03 A3033 7460 22 9600 150/03 RMK AO2 T01891033
93073KASE ASE20160713195012307/13/16 19:50:31  5-MIN KASE 140250Z AUTO 15006KT 10SM CLR 18/M02 A3033 7460 25 9600 150/06 RMK AO2 SLP147 T01831017 56003
93073KASE ASE20160713195511007/13/16 19:55:31  5-MIN KASE 140255Z AUTO 18011KT 10SM CLR 18/M01 A3034 7460 28 9500 170/11 RMK AO2 T01781006
93073KASE ASE20160713200011007/13/16 20:00:31  5-MIN KASE 140300Z AUTO 19006KT 10SM CLR 18/M01 A3034 7460 27 9500 180/06 RMK AO2 T01781011
93073KASE ASE20160713200511007/13/16 20:05:31  5-MIN KASE 140305Z AUTO 19006KT 10SM CLR 18/M01 A3034 7450 26 9500 180/06 RMK AO2 T01831011
93073KASE ASE20160713201011007/13/16 20:10:31  5-MIN KASE 140310Z AUTO 21007KT 10SM CLR 17/M01 A3034 7450 31 9400 200/07 RMK AO2 T01671006
93073KASE ASE20160713201511007/13/16 20:15:31  5-MIN KASE 140315Z AUTO 21007KT 10SM CLR 16/M01 A3035 7450 32 9300 210/07 RMK AO2 T01611006
93073KASE ASE20160713202011007/13/16 20:20:31  5-MIN KASE 140320Z AUTO 21006KT 10SM CLR 16/M01 A3035 7450 32 9300 200/06 RMK AO2 T01611006
93073KASE ASE20160713202510907/13/16 20:25:31  5-MIN KASE 140325Z AUTO 20007KT 10SM CLR 16/00 A3035 7450 33 9300 190/07 RMK AO2 T01610000
93073KASE ASE20160713203010907/13/16 20:30:31  5-MIN KASE 140330Z AUTO 19008KT 10SM CLR 16/00 A3035 7440 33 9300 180/08 RMK AO2 T01610000
93073KASE ASE20160713203510907/13/16 20:35:31  5-MIN KASE 140335Z AUTO 20008KT 10SM CLR 16/00 A3035 7440 34 9200 190/08 RMK AO2 T01560000
93073KASE ASE20160713204011007/13/16 20:40:31  5-MIN KASE 140340Z AUTO 21008KT 10SM CLR 14/M01 A3036 7440 35 9100 200/08 RMK AO2 T01441006
93073KASE ASE20160713204511007/13/16 20:45:31  5-MIN KASE 140345Z AUTO 21009KT 10SM CLR 16/M01 A3036 7440 33 9200 200/09 RMK AO2 T01561006
93073KASE ASE20160713205011707/13/16 20:50:31  5-MIN KASE 140350Z AUTO 21008KT 10SM CLR 15/M01 A3036 7440 34 9200 200/08 RMK AO2 SLP156 T01501006
93073KASE ASE20160713205511007/13/16 20:55:31  5-MIN KASE 140355Z AUTO 22009KT 10SM CLR 15/M01 A3036 7440 34 9200 210/09 RMK AO2 T01501006
93073KASE ASE20160713210011007/13/16 21:00:31  5-MIN KASE 140400Z AUTO 20007KT 10SM CLR 15/M01 A3036 7430 34 9200 190/07 RMK AO2 T01501006
93073KASE ASE20160713210511007/13/16 21:05:31  5-MIN KASE 140405Z AUTO 20008KT 10SM CLR 14/M01 A3036 7430 35 9100 190/08 RMK AO2 T01441006
93073KASE ASE20160713211011007/13/16 21:10:31  5-MIN KASE 140410Z AUTO 22009KT 10SM CLR 14/M01 A3037 7430 35 9000 210/09 RMK AO2 T01391011
93073KASE ASE20160713211511007/13/16 21:15:31  5-MIN KASE 140415Z AUTO 21008KT 10SM CLR 14/M01 A3037 7430 34 9100 200/08 RMK AO2 T01441011
93073KASE ASE20160713212011007/13/16 21:20:31  5-MIN KASE 140420Z AUTO 19007KT 10SM CLR 15/M01 A3037 7430 33 9100 180/07 RMK AO2 T01501011
93073KASE ASE20160713212511007/13/16 21:25:31  5-MIN KASE 140425Z AUTO 21008KT 10SM CLR 13/M01 A3037 7430 38 9000 200/08 RMK AO2 T01331006
93073KASE ASE20160713213011007/13/16 21:30:31  5-MIN KASE 140430Z AUTO 21009KT 10SM CLR 14/M01 A3037 7420 35 9000 200/09 RMK AO2 T01391011
93073KASE ASE20160713213511007/13/16 21:35:31  5-MIN KASE 140435Z AUTO 21009KT 10SM CLR 14/M01 A3038 7420 34 9100 200/09 RMK AO2 T01441011
93073KASE ASE20160713214011007/13/16 21:40:31  5-MIN KASE 140440Z AUTO 19009KT 10SM CLR 16/M02 A3038 7420 30 9200 180/09 RMK AO2 T01561017
93073KASE ASE20160713214511007/13/16 21:45:31  5-MIN KASE 140445Z AUTO 21009KT 10SM CLR 13/M01 A3038 7420 36 9000 200/09 RMK AO2 T01331011
93073KASE ASE20160713215011707/13/16 21:50:31  5-MIN KASE 140450Z AUTO 20007KT 10SM CLR 14/M02 A3038 7420 33 9100 190/07 RMK AO2 SLP156 T01441017
93073KASE ASE20160713215511007/13/16 21:55:31  5-MIN KASE 140455Z AUTO 18007KT 10SM CLR 14/M02 A3038 7420 33 9100 170/07 RMK AO2 T01441017
93073KASE ASE20160713220011007/13/16 22:00:31  5-MIN KASE 140500Z AUTO 22006KT 10SM CLR 14/M02 A3038 7420 34 9000 210/06 RMK AO2 T01391017
93073KASE ASE20160713220511007/13/16 22:05:31  5-MIN KASE 140505Z AUTO VRB04KT 10SM CLR 13/M02 A3038 7420 35 9000 VRB/04 RMK AO2 T01331017
93073KASE ASE20160713221011007/13/16 22:10:31  5-MIN KASE 140510Z AUTO 19006KT 10SM CLR 13/M01 A3038 7420 38 8900 180/06 RMK AO2 T01281011
93073KASE ASE20160713221511007/13/16 22:15:31  5-MIN KASE 140515Z AUTO 20006KT 10SM CLR 12/M01 A3038 7420 39 8800 190/06 RMK AO2 T01221011
93073KASE ASE20160713222011007/13/16 22:20:31  5-MIN KASE 140520Z AUTO 21007KT 10SM CLR 12/M01 A3038 7420 39 8800 200/07 RMK AO2 T01221011
93073KASE ASE20160713222511007/13/16 22:25:31  5-MIN KASE 140525Z AUTO 20006KT 10SM CLR 13/M02 A3038 7420 35 9000 190/06 RMK AO2 T01331017
93073KASE ASE20160713223011007/13/16 22:30:31  5-MIN KASE 140530Z AUTO 20006KT 10SM CLR 13/M01 A3038 7420 38 8900 190/06 RMK AO2 T01281011
93073KASE ASE20160713223511007/13/16 22:35:31  5-MIN KASE 140535Z AUTO 20005KT 10SM CLR 12/M01 A3038 7420 39 8800 190/05 RMK AO2 T01221011
93073KASE ASE20160713224011007/13/16 22:40:31  5-MIN KASE 140540Z AUTO 21007KT 10SM CLR 13/M02 A3038 7420 36 8900 200/07 RMK AO2 T01281017
93073KASE ASE20160713224511007/13/16 22:45:31  5-MIN KASE 140545Z AUTO 20006KT 10SM CLR 14/M02 A3038 7420 32 9000 200/06 RMK AO2 T01391022
93073KASE ASE20160713225013507/13/16 22:50:31  5-MIN KASE 140550Z AUTO 20006KT 10SM CLR 13/M02 A3038 7420 35 9000 190/06 RMK AO2 SLP152 T01331017 10272 20122 53012
93073KASE ASE20160713225511007/13/16 22:55:31  5-MIN KASE 140555Z AUTO 21007KT 10SM CLR 12/M02 A3038 7420 38 8800 200/07 RMK AO2 T01221017
93073KASE ASE20160713230011007/13/16 23:00:31  5-MIN KASE 140600Z AUTO 21007KT 10SM CLR 13/M02 A3038 7420 35 8900 200/07 RMK AO2 T01281022
93073KASE ASE20160713230511007/13/16 23:05:31  5-MIN KASE 140605Z AUTO 20007KT 10SM CLR 13/M02 A3038 7420 36 8900 190/07 RMK AO2 T01281017
93073KASE ASE20160713231011007/13/16 23:10:31  5-MIN KASE 140610Z AUTO 21009KT 10SM CLR 12/M02 A3038 7420 36 8800 200/09 RMK AO2 T01221022
93073KASE ASE20160713231511007/13/16 23:15:31  5-MIN KASE 140615Z AUTO 19006KT 10SM CLR 13/M02 A3038 7420 35 8900 180/06 RMK AO2 T01281022
93073KASE ASE20160713232011007/13/16 23:20:31  5-MIN KASE 140620Z AUTO 19005KT 10SM CLR 12/M02 A3038 7420 39 8800 180/05 RMK AO2 T01171017
93073KASE ASE20160713232511007/13/16 23:25:31  5-MIN KASE 140625Z AUTO 21005KT 10SM CLR 12/M02 A3038 7420 38 8800 200/05 RMK AO2 T01221017
93073KASE ASE20160713233011007/13/16 23:30:31  5-MIN KASE 140630Z AUTO 20005KT 10SM CLR 12/M02 A3038 7420 39 8800 190/05 RMK AO2 T01171017
93073KASE ASE20160713233511007/13/16 23:35:31  5-MIN KASE 140635Z AUTO 21006KT 10SM CLR 11/M02 A3038 7420 41 8700 200/06 RMK AO2 T01111017
93073KASE ASE20160713234011007/13/16 23:40:31  5-MIN KASE 140640Z AUTO 20006KT 10SM CLR 11/M02 A3038 7420 41 8700 200/06 RMK AO2 T01111017
93073KASE ASE20160713234511007/13/16 23:45:31  5-MIN KASE 140645Z AUTO 21006KT 10SM CLR 11/M02 A3038 7420 41 8700 200/06 RMK AO2 T01111017
93073KASE ASE20160713235012707/13/16 23:50:31  5-MIN KASE 140650Z AUTO 21008KT 10SM CLR 11/M02 A3038 7420 41 8700 200/08 RMK AO2 SLP159 T01111017 402830061
93073KASE ASE20160713235511007/13/16 23:55:31  5-MIN KASE 140655Z AUTO 21007KT 10SM CLR 12/M02 A3038 7420 38 8800 200/07 RMK AO2 T01171022
93073KASE ASE20160714000011007/14/16 00:00:31  5-MIN KASE 140700Z AUTO 19006KT 10SM CLR 12/M02 A3038 7420 36 8800 180/06 RMK AO2 T01221022
93073KASE ASE20160714000511007/14/16 00:05:31  5-MIN KASE 140705Z AUTO 19006KT 10SM CLR 11/M02 A3038 7420 42 8600 190/06 RMK AO2 T01061017
93073KASE ASE20160714001011007/14/16 00:10:31  5-MIN KASE 140710Z AUTO 22010KT 10SM CLR 11/M02 A3038 7420 42 8600 210/10 RMK AO2 T01061017
93073KASE ASE20160714001511007/14/16 00:15:31  5-MIN KASE 140715Z AUTO 21009KT 10SM CLR 11/M02 A3037 7420 42 8600 200/09 RMK AO2 T01061017
93073KASE ASE20160714002011007/14/16 00:20:31  5-MIN KASE 140720Z AUTO 20008KT 10SM CLR 12/M02 A3037 7420 38 8800 190/08 RMK AO2 T01171022
93073KASE ASE20160714002511007/14/16 00:25:31  5-MIN KASE 140725Z AUTO 20007KT 10SM CLR 12/M03 A3037 7430 35 8800 190/07 RMK AO2 T01221028
93073KASE ASE20160714003011007/14/16 00:30:31  5-MIN KASE 140730Z AUTO 19007KT 10SM CLR 12/M03 A3037 7430 36 8800 180/07 RMK AO2 T01171028
93073KASE ASE20160714003511007/14/16 00:35:31  5-MIN KASE 140735Z AUTO 20008KT 10SM CLR 11/M02 A3037 7430 40 8700 190/08 RMK AO2 T01061022
93073KASE ASE20160714004011007/14/16 00:40:31  5-MIN KASE 140740Z AUTO 22011KT 10SM CLR 11/M02 A3036 7430 40 8700 210/11 RMK AO2 T01061022
93073KASE ASE20160714004511007/14/16 00:45:31  5-MIN KASE 140745Z AUTO 21010KT 10SM CLR 10/M02 A3036 7430 44 8600 200/10 RMK AO2 T01001017
93073KASE ASE20160714005011707/14/16 00:50:31  5-MIN KASE 140750Z AUTO 21007KT 10SM CLR 11/M03 A3036 7430 37 8700 200/07 RMK AO2 SLP151 T01111028
93073KASE ASE20160714005511007/14/16 00:55:31  5-MIN KASE 140755Z AUTO 21006KT 10SM CLR 12/M03 A3037 7430 36 8800 200/06 RMK AO2 T01171028
93073KASE ASE20160714010011007/14/16 01:00:31  5-MIN KASE 140800Z AUTO 21006KT 10SM CLR 11/M02 A3037 7430 39 8700 200/06 RMK AO2 T01111022
93073KASE ASE20160714010511007/14/16 01:05:31  5-MIN KASE 140805Z AUTO 20005KT 10SM CLR 11/M02 A3036 7430 40 8700 190/05 RMK AO2 T01061022
93073KASE ASE20160714011011007/14/16 01:10:31  5-MIN KASE 140810Z AUTO 20005KT 10SM CLR 10/M02 A3037 7430 44 8600 190/05 RMK AO2 T01001017
93073KASE ASE20160714011511007/14/16 01:15:31  5-MIN KASE 140815Z AUTO 21007KT 10SM CLR 09/M02 A3037 7430 45 8500 200/07 RMK AO2 T00941017
93073KASE ASE20160714012011007/14/16 01:20:31  5-MIN KASE 140820Z AUTO 20006KT 10SM CLR 10/M02 A3037 7430 42 8600 200/06 RMK AO2 T01001022
93073KASE ASE20160714012511007/14/16 01:25:31  5-MIN KASE 140825Z AUTO 21006KT 10SM CLR 10/M02 A3036 7430 42 8600 200/06 RMK AO2 T01001022
93073KASE ASE20160714013011007/14/16 01:30:31  5-MIN KASE 140830Z AUTO 17004KT 10SM CLR 10/M02 A3036 7430 42 8600 160/04 RMK AO2 T01001022
93073KASE ASE20160714013511007/14/16 01:35:31  5-MIN KASE 140835Z AUTO 22010KT 10SM CLR 09/M02 A3036 7430 47 8500 210/10 RMK AO2 T00891017
93073KASE ASE20160714014011007/14/16 01:40:31  5-MIN KASE 140840Z AUTO 21007KT 10SM CLR 09/M02 A3036 7430 44 8500 200/07 RMK AO2 T00941022
93073KASE ASE20160714014511007/14/16 01:45:31  5-MIN KASE 140845Z AUTO 20006KT 10SM CLR 11/M02 A3036 7430 40 8700 190/06 RMK AO2 T01061022
93073KASE ASE20160714015012307/14/16 01:50:31  5-MIN KASE 140850Z AUTO 20006KT 10SM CLR 11/M03 A3036 7430 37 8700 190/06 RMK AO2 SLP150 T01111028 50012
93073KASE ASE20160714015511007/14/16 01:55:31  5-MIN KASE 140855Z AUTO 19007KT 10SM CLR 09/M02 A3036 7430 44 8500 180/07 RMK AO2 T00941022
93073KASE ASE20160714020011007/14/16 02:00:31  5-MIN KASE 140900Z AUTO 20007KT 10SM CLR 09/M02 A3036 7430 47 8500 190/07 RMK AO2 T00891017
93073KASE ASE20160714020511007/14/16 02:05:31  5-MIN KASE 140905Z AUTO 21008KT 10SM CLR 09/M02 A3036 7440 44 8500 200/08 RMK AO2 T00941022
93073KASE ASE20160714021011007/14/16 02:10:31  5-MIN KASE 140910Z AUTO 21007KT 10SM CLR 10/M02 A3036 7430 42 8600 200/07 RMK AO2 T01001022
93073KASE ASE20160714021511007/14/16 02:15:31  5-MIN KASE 140915Z AUTO 20005KT 10SM CLR 10/M02 A3036 7430 42 8600 190/05 RMK AO2 T01001022
93073KASE ASE20160714022011007/14/16 02:20:31  5-MIN KASE 140920Z AUTO 20004KT 10SM CLR 09/M02 A3036 7430 44 8500 190/04 RMK AO2 T00941022
93073KASE ASE20160714022511007/14/16 02:25:31  5-MIN KASE 140925Z AUTO 20005KT 10SM CLR 09/M02 A3036 7430 44 8500 190/05 RMK AO2 T00941022
93073KASE ASE20160714023011007/14/16 02:30:31  5-MIN KASE 140930Z AUTO 19004KT 10SM CLR 08/M02 A3036 7430 49 8400 180/04 RMK AO2 T00831017
93073KASE ASE20160714023511007/14/16 02:35:31  5-MIN KASE 140935Z AUTO 00000KT 10SM CLR 08/M02 A3037 7430 49 8400 000/00 RMK AO2 T00831017
93073KASE ASE20160714024011007/14/16 02:40:31  5-MIN KASE 140940Z AUTO 00000KT 10SM CLR 08/M02 A3036 7430 49 8400 000/00 RMK AO2 T00831017
93073KASE ASE20160714024511007/14/16 02:45:31  5-MIN KASE 140945Z AUTO 00000KT 10SM CLR 08/M02 A3037 7430 49 8400 000/00 RMK AO2 T00831017
93073KASE ASE20160714025011707/14/16 02:50:31  5-MIN KASE 140950Z AUTO 22006KT 10SM CLR 08/M02 A3037 7430 51 8300 210/06 RMK AO2 SLP161 T00781017
93073KASE ASE20160714025511007/14/16 02:55:31  5-MIN KASE 140955Z AUTO 21008KT 10SM CLR 09/M02 A3037 7430 45 8500 210/08 RMK AO2 T00891022
93073KASE ASE20160714030011007/14/16 03:00:31  5-MIN KASE 141000Z AUTO 22007KT 10SM CLR 09/M02 A3037 7430 45 8500 210/07 RMK AO2 T00891022
93073KASE ASE20160714030511007/14/16 03:05:31  5-MIN KASE 141005Z AUTO 21006KT 10SM CLR 09/M02 A3037 7420 44 8500 200/06 RMK AO2 T00941022
93073KASE ASE20160714031011007/14/16 03:10:31  5-MIN KASE 141010Z AUTO 00000KT 10SM CLR 09/M02 A3038 7420 45 8500 000/00 RMK AO2 T00891022
93073KASE ASE20160714031511007/14/16 03:15:31  5-MIN KASE 141015Z AUTO 00000KT 10SM CLR 08/M02 A3038 7420 51 8300 000/00 RMK AO2 T00781017
93073KASE ASE20160714032011007/14/16 03:20:31  5-MIN KASE 141020Z AUTO 21006KT 10SM CLR 08/M02 A3038 7420 51 8300 210/06 RMK AO2 T00781017
93073KASE ASE20160714032511007/14/16 03:25:31  5-MIN KASE 141025Z AUTO 21005KT 10SM CLR 08/M02 A3038 7420 51 8300 200/05 RMK AO2 T00781017
93073KASE ASE20160714033011007/14/16 03:30:31  5-MIN KASE 141030Z AUTO 19004KT 10SM CLR 08/M02 A3038 7420 47 8400 180/04 RMK AO2 T00831022
93073KASE ASE20160714033511007/14/16 03:35:31  5-MIN KASE 141035Z AUTO 18005KT 10SM CLR 09/M02 A3038 7420 45 8400 180/05 RMK AO2 T00891022
93073KASE ASE20160714034011007/14/16 03:40:31  5-MIN KASE 141040Z AUTO VRB04KT 10SM CLR 08/M02 A3039 7410 51 8300 VRB/04 RMK AO2 T00781017
93073KASE ASE20160714034511007/14/16 03:45:31  5-MIN KASE 141045Z AUTO 19006KT 10SM CLR 07/M02 A3039 7410 53 8300 180/06 RMK AO2 T00721017
93073KASE ASE20160714035011707/14/16 03:50:31  5-MIN KASE 141050Z AUTO 19006KT 10SM CLR 07/M02 A3039 7410 53 8300 180/06 RMK AO2 SLP167 T00721017
93073KASE ASE20160714035511007/14/16 03:55:31  5-MIN KASE 141055Z AUTO 20006KT 10SM CLR 07/M02 A3039 7410 55 8200 190/06 RMK AO2 T00671017
93073KASE ASE20160714040011007/14/16 04:00:31  5-MIN KASE 141100Z AUTO 21005KT 10SM CLR 07/M02 A3039 7410 53 8200 200/05 RMK AO2 T00721017
93073KASE ASE20160714040511007/14/16 04:05:31  5-MIN KASE 141105Z AUTO 20006KT 10SM CLR 08/M02 A3039 7410 49 8300 190/06 RMK AO2 T00781022
93073KASE ASE20160714041011007/14/16 04:10:31  5-MIN KASE 141110Z AUTO 19005KT 10SM CLR 09/M02 A3039 7410 45 8400 180/05 RMK AO2 T00891022
93073KASE ASE20160714041511007/14/16 04:15:31  5-MIN KASE 141115Z AUTO 20006KT 10SM CLR 07/M02 A3039 7410 55 8200 190/06 RMK AO2 T00671017
93073KASE ASE20160714042011007/14/16 04:20:31  5-MIN KASE 141120Z AUTO 19007KT 10SM CLR 07/M02 A3039 7410 53 8200 180/07 RMK AO2 T00721017
93073KASE ASE20160714042511007/14/16 04:25:31  5-MIN KASE 141125Z AUTO 20007KT 10SM CLR 07/M02 A3039 7410 55 8200 190/07 RMK AO2 T00671017
93073KASE ASE20160714043011007/14/16 04:30:31  5-MIN KASE 141130Z AUTO 19006KT 10SM CLR 08/M02 A3039 7410 47 8400 180/06 RMK AO2 T00831022
93073KASE ASE20160714043511007/14/16 04:35:31  5-MIN KASE 141135Z AUTO 19005KT 10SM CLR 07/M02 A3039 7410 53 8200 180/05 RMK AO2 T00721017
93073KASE ASE20160714044011007/14/16 04:40:31  5-MIN KASE 141140Z AUTO 20005KT 10SM CLR 07/M02 A3039 7410 55 8200 190/05 RMK AO2 T00671017
93073KASE ASE20160714044511007/14/16 04:45:31  5-MIN KASE 141145Z AUTO 20006KT 10SM CLR 07/M02 A3039 7410 53 8200 190/06 RMK AO2 T00721017
93073KASE ASE20160714045013507/14/16 04:50:31  5-MIN KASE 141150Z AUTO 20008KT 10SM CLR 07/M02 A3040 7400 53 8200 190/08 RMK AO2 SLP173 T00721017 10128 20067 58004
93073KASE ASE20160714045511007/14/16 04:55:31  5-MIN KASE 141155Z AUTO 21007KT 10SM CLR 08/M02 A3040 7400 47 8400 200/07 RMK AO2 T00831022
93073KASE ASE20160714050011007/14/16 05:00:31  5-MIN KASE 141200Z AUTO 20006KT 10SM CLR 08/M02 A3040 7400 47 8400 190/06 RMK AO2 T00831022
93073KASE ASE20160714050511007/14/16 05:05:31  5-MIN KASE 141205Z AUTO 19007KT 10SM CLR 08/M02 A3040 7400 47 8400 180/07 RMK AO2 T00831022
93073KASE ASE20160714051011007/14/16 05:10:31  5-MIN KASE 141210Z AUTO 21005KT 10SM CLR 08/M02 A3040 7400 51 8300 200/05 RMK AO2 T00781017
93073KASE ASE20160714051511007/14/16 05:15:31  5-MIN KASE 141215Z AUTO 20005KT 10SM CLR 08/M02 A3040 7400 47 8400 190/05 RMK AO2 T00831022
93073KASE ASE20160714052011007/14/16 05:20:31  5-MIN KASE 141220Z AUTO 21005KT 10SM CLR 08/M02 A3040 7400 51 8300 200/05 RMK AO2 T00781017
93073KASE ASE20160714052511007/14/16 05:25:31  5-MIN KASE 141225Z AUTO 20004KT 10SM CLR 07/M02 A3040 7400 53 8200 190/04 RMK AO2 T00721017
93073KASE ASE20160714053011007/14/16 05:30:31  5-MIN KASE 141230Z AUTO 21006KT 10SM CLR 07/M02 A3040 7400 53 8200 200/06 RMK AO2 T00721017
93073KASE ASE20160714053511007/14/16 05:35:31  5-MIN KASE 141235Z AUTO 20006KT 10SM CLR 07/M02 A3040 7400 53 8200 200/06 RMK AO2 T00721017
93073KASE ASE20160714054011007/14/16 05:40:31  5-MIN KASE 141240Z AUTO 21006KT 10SM CLR 07/M02 A3040 7400 53 8200 200/06 RMK AO2 T00721017
93073KASE ASE20160714054511007/14/16 05:45:31  5-MIN KASE 141245Z AUTO 19005KT 10SM CLR 08/M02 A3040 7400 49 8400 180/05 RMK AO2 T00831017
93073KASE ASE20160714055011207/14/16 05:50:31  5-MIN KASE 141250Z 20004KT 10SM CLR 09/M01 A3040 7400 49 8400 200/04 RMK AO2 SLP174 T00891011
93073KASE ASE20160714055510507/14/16 05:55:31  5-MIN KASE 141255Z 18004KT 10SM CLR 10/M01 A3040 7400 46 8600 170/04 RMK AO2 T01001011
93073KASE ASE20160714060010507/14/16 06:00:31  5-MIN KASE 141300Z 19005KT 10SM CLR 10/M01 A3040 7400 46 8600 180/05 RMK AO2 T01001011
93073KASE ASE20160714060510507/14/16 06:05:31  5-MIN KASE 141305Z 19004KT 10SM CLR 11/M01 A3040 7400 46 8600 180/04 RMK AO2 T01061006
93073KASE ASE20160714061010507/14/16 06:10:31  5-MIN KASE 141310Z 20003KT 10SM CLR 11/M01 A3040 7400 42 8700 190/03 RMK AO2 T01111011
93073KASE ASE20160714061510507/14/16 06:15:31  5-MIN KASE 141315Z 21003KT 10SM CLR 12/M01 A3040 7400 42 8700 200/03 RMK AO2 T01171006
93073KASE ASE20160714062010507/14/16 06:20:31  5-MIN KASE 141320Z 19003KT 10SM CLR 12/M02 A3040 7400 39 8700 180/03 RMK AO2 T01171017
93073KASE ASE20160714062510507/14/16 06:25:31  5-MIN KASE 141325Z 00000KT 10SM CLR 12/M02 A3040 7400 38 8800 000/00 RMK AO2 T01221017
93073KASE ASE20160714063010507/14/16 06:30:31  5-MIN KASE 141330Z 20004KT 10SM CLR 13/M02 A3041 7400 35 8900 190/04 RMK AO2 T01281022
93073KASE ASE20160714063510507/14/16 06:35:31  5-MIN KASE 141335Z 00000KT 10SM CLR 13/M02 A3041 7390 36 8900 000/00 RMK AO2 T01281017
93073KASE ASE20160714064010507/14/16 06:40:31  5-MIN KASE 141340Z 00000KT 10SM CLR 13/M02 A3041 7390 35 8900 000/00 RMK AO2 T01331017
93073KASE ASE20160714064510507/14/16 06:45:31  5-MIN KASE 141345Z 00000KT 10SM CLR 13/M01 A3041 7390 36 8900 000/00 RMK AO2 T01331011
93073KASE ASE20160714065011207/14/16 06:50:31  5-MIN KASE 141350Z 00000KT 10SM CLR 13/M01 A3041 7390 38 8900 000/00 RMK AO2 SLP170 T01331006
93073KASE ASE20160714065510507/14/16 06:55:31  5-MIN KASE 141355Z 00000KT 10SM CLR 14/M01 A3041 7390 37 9000 000/00 RMK AO2 T01391006
93073KASE ASE20160714070010507/14/16 07:00:31  5-MIN KASE 141400Z 00000KT 10SM CLR 14/M01 A3041 7390 37 9000 000/00 RMK AO2 T01391006
93073KASE ASE20160714070510507/14/16 07:05:31  5-MIN KASE 141405Z 07004KT 10SM CLR 14/M01 A3041 7390 34 9000 070/04 RMK AO2 T01441011
93073KASE ASE20160714071010507/14/16 07:10:31  5-MIN KASE 141410Z 08003KT 10SM CLR 14/M01 A3041 7390 35 9000 070/03 RMK AO2 T01391011
93073KASE ASE20160714071510507/14/16 07:15:31  5-MIN KASE 141415Z 00000KT 10SM CLR 15/M01 A3041 7390 34 9100 000/00 RMK AO2 T01501006
93073KASE ASE20160714072010507/14/16 07:20:31  5-MIN KASE 141420Z 01003KT 10SM CLR 15/M01 A3041 7390 33 9100 360/03 RMK AO2 T01501011
93073KASE ASE20160714072510507/14/16 07:25:31  5-MIN KASE 141425Z 36004KT 10SM CLR 15/M01 A3042 7390 33 9100 350/04 RMK AO2 T01501011
93073KASE ASE20160714073010507/14/16 07:30:31  5-MIN KASE 141430Z 35004KT 10SM CLR 16/M01 A3041 7390 31 9200 350/04 RMK AO2 T01561011
93073KASE ASE20160714073510507/14/16 07:35:31  5-MIN KASE 141435Z 33004KT 10SM CLR 16/M01 A3042 7390 32 9200 320/04 RMK AO2 T01611006
93073KASE ASE20160714074010507/14/16 07:40:31  5-MIN KASE 141440Z 36003KT 10SM CLR 16/M01 A3041 7390 32 9200 350/03 RMK AO2 T01611006
93073KASE ASE20160714074510507/14/16 07:45:31  5-MIN KASE 141445Z 00000KT 10SM CLR 16/M01 A3042 7390 32 9200 000/00 RMK AO2 T01611006
93073KASE ASE20160714075011807/14/16 07:50:31  5-MIN KASE 141450Z VRB03KT 10SM CLR 17/M01 A3042 7380 31 9300 VRB/03 RMK AO2 SLP177 T01671006 53009
93073KASE ASE20160714075510507/14/16 07:55:31  5-MIN KASE 141455Z 00000KT 10SM CLR 16/M01 A3042 7390 32 9200 000/00 RMK AO2 T01611006
93073KASE ASE20160714080010507/14/16 08:00:31  5-MIN KASE 141500Z 00000KT 10SM CLR 17/M01 A3042 7390 29 9300 000/00 RMK AO2 T01721006
93073KASE ASE20160714080510507/14/16 08:05:31  5-MIN KASE 141505Z 00000KT 10SM CLR 18/M01 A3042 7390 28 9400 000/00 RMK AO2 T01781006
93073KASE ASE20160714081010507/14/16 08:10:31  5-MIN KASE 141510Z 00000KT 10SM CLR 18/M01 A3042 7390 27 9500 000/00 RMK AO2 T01831006
93073KASE ASE20160714081510507/14/16 08:15:31  5-MIN KASE 141515Z 00000KT 10SM CLR 18/M01 A3041 7390 27 9400 000/00 RMK AO2 T01781011
93073KASE ASE20160714082010507/14/16 08:20:31  5-MIN KASE 141520Z 00000KT 10SM CLR 18/M01 A3042 7390 27 9500 000/00 RMK AO2 T01831006
93073KASE ASE20160714082510507/14/16 08:25:31  5-MIN KASE 141525Z 01003KT 10SM CLR 18/M01 A3041 7390 27 9500 360/03 RMK AO2 T01831006
93073KASE ASE20160714083010407/14/16 08:30:31  5-MIN KASE 141530Z VRB03KT 10SM CLR 19/00 A3041 7390 28 9500 VRB/03 RMK AO2 T01890000
93073KASE ASE20160714083510507/14/16 08:35:31  5-MIN KASE 141535Z 04003KT 10SM CLR 19/M01 A3041 7390 26 9500 030/03 RMK AO2 T01891006
93073KASE ASE20160714084010507/14/16 08:40:31  5-MIN KASE 141540Z 33004KT 10SM CLR 19/M01 A3041 7390 26 9600 320/04 RMK AO2 T01941006
93073KASE ASE20160714084510507/14/16 08:45:31  5-MIN KASE 141545Z 34004KT 10SM CLR 19/M01 A3041 7390 26 9600 340/04 RMK AO2 T01941006
93073KASE ASE20160714085011207/14/16 08:50:31  5-MIN KASE 141550Z 36005KT 10SM CLR 19/M01 A3041 7390 25 9600 350/05 RMK AO2 SLP177 T01941011
93073KASE ASE20160714085510507/14/16 08:55:31  5-MIN KASE 141555Z 36005KT 10SM CLR 21/M02 A3041 7390 22 9700 350/05 RMK AO2 T02061017
93073KASE ASE20160714090010507/14/16 09:00:31  5-MIN KASE 141600Z 01004KT 10SM CLR 21/M03 A3041 7390 19 9700 360/04 RMK AO2 T02061033
93073KASE ASE20160714090510507/14/16 09:05:31  5-MIN KASE 141605Z 36004KT 10SM CLR 21/M03 A3041 7390 19 9700 350/04 RMK AO2 T02061033
93073KASE ASE20160714091010507/14/16 09:10:31  5-MIN KASE 141610Z VRB05KT 10SM CLR 21/M03 A3041 7390 19 9800 VRB/05 RMK AO2 T02111033
93073KASE ASE20160714091510507/14/16 09:15:31  5-MIN KASE 141615Z 03004KT 10SM CLR 21/M03 A3041 7390 19 9800 020/04 RMK AO2 T02111033
93073KASE ASE20160714092010507/14/16 09:20:31  5-MIN KASE 141620Z 36004KT 10SM CLR 22/M02 A3041 7390 20 9800 350/04 RMK AO2 T02171017
93073KASE ASE20160714092510507/14/16 09:25:31  5-MIN KASE 141625Z VRB06KT 10SM CLR 22/M02 A3041 7390 20 9800 VRB/06 RMK AO2 T02171017
93073KASE ASE20160714093010507/14/16 09:30:31  5-MIN KASE 141630Z VRB04KT 10SM CLR 22/M01 A3041 7390 21 9900 VRB/04 RMK AO2 T02221011
93073KASE ASE20160714093510507/14/16 09:35:31  5-MIN KASE 141635Z VRB05KT 10SM CLR 22/M02 A3041 7390 20 9900 VRB/05 RMK AO2 T02221017
93073KASE ASE20160714094010507/14/16 09:40:31  5-MIN KASE 141640Z 00000KT 10SM CLR 22/M02 A3041 7390 20 9800 000/00 RMK AO2 T02171022
93073KASE ASE20160714094509607/14/16 09:45:31  5-MIN KASE 141645Z 10SM CLR 23/M02 A3041 7390 18 10000 M /M RMK AO2 T02281022
93073KASE ASE20160714095011307/14/16 09:50:31  5-MIN KASE 141650Z VRB03KT 10SM CLR 23/M03 A3041 7390 18 10000 VRB/03 RMK AO2 SLP169 T02281028
93073KASE ASE20160714095510607/14/16 09:55:31  5-MIN KASE 141655Z VRB04KT 10SM CLR 23/M03 A3041 7390 17 10000 VRB/04 RMK AO2 T02331028
93073KASE ASE20160714100010607/14/16 10:00:31  5-MIN KASE 141700Z 00000KT 10SM CLR 23/M03 A3041 7390 17 10000 000/00 RMK AO2 T02331028
93073KASE ASE20160714100510607/14/16 10:05:31  5-MIN KASE 141705Z VRB04KT 10SM CLR 24/M02 A3041 7390 18 10100 VRB/04 RMK AO2 T02391017
93073KASE ASE20160714101010607/14/16 10:10:31  5-MIN KASE 141710Z 05004KT 10SM CLR 24/M03 A3041 7390 16 10100 040/04 RMK AO2 T02391028
93073KASE ASE20160714101510607/14/16 10:15:31  5-MIN KASE 141715Z 06005KT 10SM CLR 24/M04 A3041 7390 15 10100 050/05 RMK AO2 T02441039
93073KASE ASE20160714102010607/14/16 10:20:31  5-MIN KASE 141720Z 02005KT 10SM CLR 24/M03 A3041 7390 15 10100 010/05 RMK AO2 T02441033
93073KASE ASE20160714102510607/14/16 10:25:31  5-MIN KASE 141725Z VRB04KT 10SM CLR 24/M04 A3041 7390 15 10100 VRB/04 RMK AO2 T02441039
93073KASE ASE20160714103010607/14/16 10:30:31  5-MIN KASE 141730Z VRB06KT 10SM CLR 25/M04 A3041 7390 14 10200 VRB/06 RMK AO2 T02501039
93073KASE ASE20160714103510607/14/16 10:35:31  5-MIN KASE 141735Z 02007KT 10SM CLR 25/M05 A3041 7390 13 10200 010/07 RMK AO2 T02501050
93073KASE ASE20160714104010607/14/16 10:40:31  5-MIN KASE 141740Z 01005KT 10SM CLR 25/M05 A3041 7390 13 10200 360/05 RMK AO2 T02501050
93073KASE ASE20160714104510607/14/16 10:45:31  5-MIN KASE 141745Z VRB03KT 10SM CLR 26/M06 A3041 7390 12 10300 VRB/03 RMK AO2 T02561056
93073KASE ASE20160714105013107/14/16 10:50:31  5-MIN KASE 141750Z VRB04KT 10SM CLR 26/M07 A3041 7390 11 10300 VRB/04 RMK AO2 SLP164 T02561067 10256 20072 52004
93073KASE ASE20160714105510607/14/16 10:55:31  5-MIN KASE 141755Z 02007KT 10SM CLR 26/M08 A3040 7400 10 10300 010/07 RMK AO2 T02561078
93073KASE ASE20160714110012207/14/16 11:00:31  5-MIN KASE 141800Z 03008KT 350V060 10SM CLR 27/M07 A3040 7400 10 10400 020/08 340V050 RMK AO2 T02671067
93073KASE ASE20160714110511207/14/16 11:05:31  5-MIN KASE 141805Z 35006G17KT 10SM CLR 26/M08 A3040 7400 09 10300 340/06G17 RMK AO2 T02611083
93073KASE ASE20160714111011207/14/16 11:10:31  5-MIN KASE 141810Z 36010G17KT 10SM CLR 26/M08 A3040 7400 10 10300 350/10G17 RMK AO2 T02611078
93073KASE ASE20160714111510607/14/16 11:15:31  5-MIN KASE 141815Z 36011KT 10SM CLR 26/M08 A3040 7400 09 10300 350/11 RMK AO2 T02611083
93073KASE ASE20160714112010607/14/16 11:20:31  5-MIN KASE 141820Z 01011KT 10SM CLR 27/M08 A3040 7400 09 10400 360/11 RMK AO2 T02671078
93073KASE ASE20160714112510607/14/16 11:25:31  5-MIN KASE 141825Z 01012KT 10SM CLR 27/M08 A3040 7400 09 10400 360/12 RMK AO2 T02671078
93073KASE ASE20160714113011207/14/16 11:30:31  5-MIN KASE 141830Z 01010G16KT 10SM CLR 27/M08 A3040 7400 09 10400 360/10G16 RMK AO2 T02671078
93073KASE ASE20160714113512807/14/16 11:35:31  5-MIN KASE 141835Z 02009G16KT 360V080 10SM CLR 27/M06 A3040 7400 10 10400 010/09G16 350V070 RMK AO2 T02721061
93073KASE ASE20160714114011207/14/16 11:40:31  5-MIN KASE 141840Z 02014G20KT 10SM CLR 27/M07 A3039 7410 10 10400 010/14G20 RMK AO2 T02671067
93073KASE ASE20160714114511207/14/16 11:45:31  5-MIN KASE 141845Z 01012G20KT 10SM CLR 27/M07 A3039 7410 10 10400 360/12G20 RMK AO2 T02671067
93073KASE ASE20160714115013507/14/16 11:50:31  5-MIN KASE 141850Z 35011G17KT 310V030 10SM CLR 27/M06 A3039 7410 11 10400 340/11G17 300V020 RMK AO2 SLP160 T02671061
93073KASE ASE20160714115511207/14/16 11:55:31  5-MIN KASE 141855Z 36010G19KT 10SM CLR 27/M06 A3039 7410 10 10500 350/10G19 RMK AO2 T02721061
93073KASE ASE20160714120011207/14/16 12:00:31  5-MIN KASE 141900Z 02011G19KT 10SM CLR 27/M07 A3038 7420 10 10400 010/11G19 RMK AO2 T02671067
93073KASE ASE20160714120511207/14/16 12:05:31  5-MIN KASE 141905Z 34011G16KT 10SM CLR 27/M06 A3038 7410 10 10500 330/11G16 RMK AO2 T02721061
93073KASE ASE20160714121011207/14/16 12:10:31  5-MIN KASE 141910Z 01007G16KT 10SM CLR 27/M06 A3038 7420 10 10500 360/07G16 RMK AO2 T02721061
93073KASE ASE20160714121512807/14/16 12:15:31  5-MIN KASE 141915Z 35008G15KT 320V020 10SM CLR 27/M06 A3038 7420 10 10500 340/08G15 310V010 RMK AO2 T02721061
93073KASE ASE20160714122011207/14/16 12:20:31  5-MIN KASE 141920Z 01013G18KT 10SM CLR 28/M06 A3038 7420 11 10500 360/13G18 RMK AO2 T02781056
93073KASE ASE20160714122511207/14/16 12:25:31  5-MIN KASE 141925Z 36011G18KT 10SM CLR 28/M05 A3038 7420 11 10500 350/11G18 RMK AO2 T02781050
93073KASE ASE20160714123011207/14/16 12:30:31  5-MIN KASE 141930Z 03010G18KT 10SM CLR 28/M04 A3037 7420 11 10500 020/10G18 RMK AO2 T02781044
93073KASE ASE20160714123511207/14/16 12:35:31  5-MIN KASE 141935Z 35011G19KT 10SM CLR 27/M05 A3037 7430 11 10500 340/11G19 RMK AO2 T02721050
93073KASE ASE20160714124012807/14/16 12:40:31  5-MIN KASE 141940Z 01010G19KT 330V060 10SM CLR 28/M04 A3037 7430 11 10500 360/10G19 320V050 RMK AO2 T02781044
93073KASE ASE20160714124511207/14/16 12:45:31  5-MIN KASE 141945Z 01015G22KT 10SM CLR 28/M06 A3037 7430 11 10500 360/15G22 RMK AO2 T02781056
93073KASE ASE20160714125011907/14/16 12:50:31  5-MIN KASE 141950Z 04008G22KT 10SM CLR 28/M06 A3037 7430 11 10500 030/08G22 RMK AO2 SLP151 T02781056
93073KASE ASE20160714125511207/14/16 12:55:31  5-MIN KASE 141955Z 36011G19KT 10SM CLR 28/M05 A3037 7430 11 10500 350/11G19 RMK AO2 T02781050
93073KASE ASE20160714130011207/14/16 13:00:31  5-MIN KASE 142000Z 35012G21KT 10SM CLR 28/M04 A3036 7430 11 10600 340/12G21 RMK AO2 T02831044
93073KASE ASE20160714130511207/14/16 13:05:31  5-MIN KASE 142005Z 34013G21KT 10SM CLR 28/M05 A3036 7440 11 10500 340/13G21 RMK AO2 T02781050
93073KASE ASE20160714131011207/14/16 13:10:31  5-MIN KASE 142010Z 36008G21KT 10SM CLR 28/M05 A3036 7430 11 10600 350/08G21 RMK AO2 T02831050
93073KASE ASE20160714131511207/14/16 13:15:31  5-MIN KASE 142015Z 02009G21KT 10SM CLR 28/M05 A3036 7440 11 10500 010/09G21 RMK AO2 T02781050
93073KASE ASE20160714132011207/14/16 13:20:31  5-MIN KASE 142020Z 35010G21KT 10SM CLR 28/M04 A3036 7440 11 10600 350/10G21 RMK AO2 T02831044
93073KASE ASE20160714132511207/14/16 13:25:31  5-MIN KASE 142025Z 34011G21KT 10SM CLR 27/M05 A3036 7440 11 10500 330/11G21 RMK AO2 T02721050
93073KASE ASE20160714133011207/14/16 13:30:31  5-MIN KASE 142030Z 33010G18KT 10SM CLR 28/M05 A3036 7440 11 10500 320/10G18 RMK AO2 T02781050
93073KASE ASE20160714133511207/14/16 13:35:31  5-MIN KASE 142035Z 34013G17KT 10SM CLR 28/M06 A3036 7440 10 10600 340/13G17 RMK AO2 T02831056
93073KASE ASE20160714134011207/14/16 13:40:31  5-MIN KASE 142040Z 35012G17KT 10SM CLR 28/M05 A3036 7440 11 10500 340/12G17 RMK AO2 T02781050
93073KASE ASE20160714134511207/14/16 13:45:31  5-MIN KASE 142045Z 34013G18KT 10SM CLR 28/M06 A3035 7440 10 10600 330/13G18 RMK AO2 T02831056
93073KASE ASE20160714135013607/14/16 13:50:31  5-MIN KASE 142050Z 35011G18KT 10SM SCT085 27/M05 A3035 7440 11 10500 340/11G18 RMK AO2 SLP145 VIRGA W T02721050 56004
93073KASE ASE20160714135511207/14/16 13:55:31  5-MIN KASE 142055Z 01010G19KT 10SM CLR 27/M05 A3035 7450 11 10500 360/10G19 RMK AO2 T02721050
93073KASE ASE20160714140011207/14/16 14:00:31  5-MIN KASE 142100Z 36014G22KT 10SM CLR 28/M04 A3035 7450 11 10600 350/14G22 RMK AO2 T02831044
93073KASE ASE20160714140512807/14/16 14:05:31  5-MIN KASE 142105Z 33009G22KT 280V010 10SM CLR 28/M06 A3035 7450 11 10600 330/09G22 270V360 RMK AO2 T02781056
93073KASE ASE20160714141011507/14/16 14:10:31  5-MIN KASE 142110Z 34013G22KT 10SM FEW120 28/M05 A3035 7450 11 10600 340/13G22 RMK AO2 T02781050
93073KASE ASE20160714141511507/14/16 14:15:31  5-MIN KASE 142115Z 30009G22KT 10SM FEW120 27/M06 A3035 7450 11 10500 300/09G22 RMK AO2 T02721056
93073KASE ASE20160714142009607/14/16 14:20:31  5-MIN KASE 142120Z 10SM CLR 27/M06 A3034 7450 10 10500 M /M RMK AO2 T02721061
93073KASE ASE20160714142512207/14/16 14:25:31  5-MIN KASE 142125Z 35009KT 310V030 10SM CLR 28/M06 A3034 7450 10 10600 340/09 300V020 RMK AO2 T02831056
93073KASE ASE20160714143012207/14/16 14:30:31  5-MIN KASE 142130Z 34008KT 310V080 10SM CLR 28/M06 A3034 7450 10 10600 330/08 300V070 RMK AO2 T02831056
93073KASE ASE20160714143509607/14/16 14:35:31  5-MIN KASE 142135Z 10SM CLR 29/M04 A3034 7450 11 10700 M /M RMK AO2 T02891044
93073KASE ASE20160714144012807/14/16 14:40:31  5-MIN KASE 142140Z 35008G19KT 310V020 10SM CLR 28/M06 A3035 7450 11 10600 340/08G19 300V010 RMK AO2 T02781056
93073KASE ASE20160714144511207/14/16 14:45:31  5-MIN KASE 142145Z 35010G19KT 10SM CLR 28/M06 A3034 7450 11 10600 340/10G19 RMK AO2 T02781056
93073KASE ASE20160714145011907/14/16 14:50:31  5-MIN KASE 142150Z 34009G16KT 10SM CLR 28/M06 A3034 7450 11 10600 330/09G16 RMK AO2 SLP150 T02781056
93073KASE ASE20160714145511207/14/16 14:55:31  5-MIN KASE 142155Z 28009G17KT 10SM CLR 28/M04 A3034 7450 11 10600 270/09G17 RMK AO2 T02781044
93073KASE ASE20160714150012807/14/16 15:00:31  5-MIN KASE 142200Z 26007G17KT 210V300 10SM CLR 28/M05 A3034 7450 11 10600 250/07G17 200V290 RMK AO2 T02781050
93073KASE ASE20160714150510607/14/16 15:05:31  5-MIN KASE 142205Z VRB03KT 10SM CLR 27/M05 A3034 7450 11 10500 VRB/03 RMK AO2 T02721050
93073KASE ASE20160714151009607/14/16 15:10:31  5-MIN KASE 142210Z 10SM CLR 27/M05 A3034 7450 11 10500 M /M RMK AO2 T02721050
93073KASE ASE20160714151512207/14/16 15:15:31  5-MIN KASE 142215Z 27007KT 230V320 10SM CLR 27/M06 A3034 7450 11 10400 260/07 220V310 RMK AO2 T02671056
93073KASE ASE20160714152011207/14/16 15:20:31  5-MIN KASE 142220Z 28010G15KT 10SM CLR 28/M05 A3034 7460 11 10600 270/10G15 RMK AO2 T02781050
93073KASE ASE20160714152509607/14/16 15:25:31  5-MIN KASE 142225Z 10SM CLR 28/M06 A3033 7460 10 10600 M /M RMK AO2 T02831056
93073KASE ASE20160714153012807/14/16 15:30:31  5-MIN KASE 142230Z 28011G20KT 250V330 10SM CLR 29/M05 A3033 7460 10 10700 280/11G20 240V320 RMK AO2 T02891050
93073KASE ASE20160714153511207/14/16 15:35:31  5-MIN KASE 142235Z 29011G20KT 10SM CLR 28/M06 A3033 7460 10 10600 280/11G20 RMK AO2 T02781061
93073KASE ASE20160714154010607/14/16 15:40:31  5-MIN KASE 142240Z 28010KT 10SM CLR 28/M06 A3033 7460 10 10600 270/10 RMK AO2 T02781061
93073KASE ASE20160714154510607/14/16 15:45:31  5-MIN KASE 142245Z 27007KT 10SM CLR 28/M06 A3033 7460 10 10600 260/07 RMK AO2 T02831061
93073KASE ASE20160714155011907/14/16 15:50:31  5-MIN KASE 142250Z VRB04G15KT 10SM CLR 28/M07 A3033 7470 10 10600 VRB/04G15 RMK AO2 SLP145 T02781067
93073KASE ASE20160714155511207/14/16 15:55:31  5-MIN KASE 142255Z 26010G15KT 10SM CLR 28/M06 A3033 7470 10 10600 250/10G15 RMK AO2 T02781061
93073KASE ASE20160714160011207/14/16 16:00:31  5-MIN KASE 142300Z 27006G15KT 10SM CLR 28/M07 A3033 7470 10 10600 260/06G15 RMK AO2 T02781067
93073KASE ASE20160714160510607/14/16 16:05:31  5-MIN KASE 142305Z 28008KT 10SM CLR 27/M07 A3033 7470 10 10500 270/08 RMK AO2 T02721072
93073KASE ASE20160714161010607/14/16 16:10:31  5-MIN KASE 142310Z 23006KT 10SM CLR 27/M07 A3033 7470 10 10500 220/06 RMK AO2 T02721067
93073KASE ASE20160714161511207/14/16 16:15:31  5-MIN KASE 142315Z VRB06G15KT 10SM CLR 28/M06 A3033 7470 10 10600 VRB/06G15 RMK AO2 T02781061
93073KASE ASE20160714162010607/14/16 16:20:31  5-MIN KASE 142320Z 26012KT 10SM CLR 28/M06 A3032 7470 10 10600 250/12 RMK AO2 T02781061
93073KASE ASE20160714162511207/14/16 16:25:31  5-MIN KASE 142325Z VRB05G14KT 10SM CLR 28/M06 A3032 7470 10 10600 VRB/05G14 RMK AO2 T02831061
93073KASE ASE20160714163010607/14/16 16:30:31  5-MIN KASE 142330Z 34007KT 10SM CLR 28/M06 A3032 7470 10 10600 330/07 RMK AO2 T02831061
93073KASE ASE20160714163511207/14/16 16:35:31  5-MIN KASE 142335Z 33014G22KT 10SM CLR 28/M07 A3031 7480 10 10600 320/14G22 RMK AO2 T02781067
93073KASE ASE20160714164012807/14/16 16:40:31  5-MIN KASE 142340Z 32008G22KT 290V350 10SM CLR 28/M05 A3032 7470 11 10600 310/08G22 280V340 RMK AO2 T02831050
93073KASE ASE20160714164510607/14/16 16:45:31  5-MIN KASE 142345Z 36010KT 10SM CLR 28/M06 A3032 7470 10 10600 350/10 RMK AO2 T02831061
93073KASE ASE20160714165013407/14/16 16:50:31  5-MIN KASE 142350Z 01006KT 10SM SCT080 28/M07 A3032 7470 09 10600 360/06 RMK AO2 SLP141 T02831067 10289 20256 57015
93073KASE ASE20160714165512207/14/16 16:55:31  5-MIN KASE 142355Z 33009KT 280V360 10SM CLR 28/M06 A3032 7470 10 10600 320/09 270V350 RMK AO2 T02831056
93073KASE ASE20160714170012807/14/16 17:00:31  5-MIN KASE 150000Z 33007G17KT 300V360 10SM CLR 28/M05 A3032 7480 11 10600 330/07G17 290V350 RMK AO2 T02781050
93073KASE ASE20160714170511207/14/16 17:05:31  5-MIN KASE 150005Z 34008G17KT 10SM CLR 28/M05 A3032 7480 11 10600 330/08G17 RMK AO2 T02781050
93073KASE ASE20160714171011207/14/16 17:10:31  5-MIN KASE 150010Z 33011G20KT 10SM CLR 28/M06 A3031 7480 11 10600 320/11G20 RMK AO2 T02781056
93073KASE ASE20160714171511207/14/16 17:15:31  5-MIN KASE 150015Z 34006G20KT 10SM CLR 27/M07 A3032 7480 10 10500 330/06G20 RMK AO2 T02721067
93073KASE ASE20160714172010607/14/16 17:20:31  5-MIN KASE 150020Z 35007KT 10SM CLR 27/M06 A3032 7480 11 10500 340/07 RMK AO2 T02721056
93073KASE ASE20160714172510607/14/16 17:25:31  5-MIN KASE 150025Z 34006KT 10SM CLR 27/M04 A3032 7480 12 10500 330/06 RMK AO2 T02671044
93073KASE ASE20160714173010607/14/16 17:30:31  5-MIN KASE 150030Z 35007KT 10SM CLR 27/M05 A3032 7480 11 10500 340/07 RMK AO2 T02721050
93073KASE ASE20160714173510607/14/16 17:35:31  5-MIN KASE 150035Z 34009KT 10SM CLR 27/M06 A3032 7480 11 10500 330/09 RMK AO2 T02721056
93073KASE ASE20160714174010607/14/16 17:40:31  5-MIN KASE 150040Z 35004KT 10SM CLR 27/M06 A3031 7480 10 10500 340/04 RMK AO2 T02721061
93073KASE ASE20160714174510607/14/16 17:45:31  5-MIN KASE 150045Z 35007KT 10SM CLR 27/M06 A3031 7480 11 10500 340/07 RMK AO2 T02721056
93073KASE ASE20160714175011307/14/16 17:50:31  5-MIN KASE 150050Z 33012KT 10SM CLR 27/M06 A3031 7480 11 10500 320/12 RMK AO2 SLP140 T02671061
93073KASE ASE20160714175510607/14/16 17:55:31  5-MIN KASE 150055Z 32012KT 10SM CLR 27/M05 A3031 7480 12 10500 310/12 RMK AO2 T02671050
93073KASE ASE20160714180010607/14/16 18:00:31  5-MIN KASE 150100Z 33008KT 10SM CLR 26/M04 A3031 7480 13 10400 330/08 RMK AO2 T02611044
93073KASE ASE20160714180510607/14/16 18:05:31  5-MIN KASE 150105Z 32010KT 10SM CLR 26/M05 A3032 7480 12 10400 310/10 RMK AO2 T02611050
93073KASE ASE20160714181010607/14/16 18:10:31  5-MIN KASE 150110Z 33007KT 10SM CLR 26/M05 A3032 7480 12 10400 330/07 RMK AO2 T02611050
93073KASE ASE20160714181510607/14/16 18:15:31  5-MIN KASE 150115Z 32006KT 10SM CLR 26/M04 A3031 7480 13 10400 310/06 RMK AO2 T02561044
93073KASE ASE20160714182010607/14/16 18:20:31  5-MIN KASE 150120Z 33005KT 10SM CLR 25/M03 A3031 7480 15 10300 320/05 RMK AO2 T02501028
93073KASE ASE20160714182510607/14/16 18:25:31  5-MIN KASE 150125Z 32006KT 10SM CLR 25/M04 A3031 7480 14 10300 310/06 RMK AO2 T02501039
93073KASE ASE20160714183010607/14/16 18:30:31  5-MIN KASE 150130Z 31005KT 10SM CLR 24/M04 A3031 7480 14 10200 310/05 RMK AO2 T02441044
93073KASE ASE20160714183510607/14/16 18:35:31  5-MIN KASE 150135Z 32007KT 10SM CLR 24/M04 A3031 7480 14 10200 310/07 RMK AO2 T02391044
93073KASE ASE20160714184010607/14/16 18:40:31  5-MIN KASE 150140Z 30005KT 10SM CLR 24/M04 A3031 7480 14 10200 290/05 RMK AO2 T02391044
93073KASE ASE20160714184510607/14/16 18:45:31  5-MIN KASE 150145Z 31005KT 10SM CLR 23/M04 A3031 7480 16 10100 310/05 RMK AO2 T02331039
93073KASE ASE20160714185011307/14/16 18:50:31  5-MIN KASE 150150Z 30006KT 10SM CLR 23/M04 A3031 7480 16 10100 290/06 RMK AO2 SLP136 T02281039
93073KASE ASE20160714185510607/14/16 18:55:31  5-MIN KASE 150155Z 29005KT 10SM CLR 23/M04 A3031 7480 16 10100 280/05 RMK AO2 T02281039
93073KASE ASE20160714190010607/14/16 19:00:31  5-MIN KASE 150200Z 30006KT 10SM CLR 22/M03 A3031 7480 17 10000 290/06 RMK AO2 T02221033
93073KASE ASE20160714190510607/14/16 19:05:31  5-MIN KASE 150205Z 29006KT 10SM CLR 22/M03 A3031 7480 17 10000 290/06 RMK AO2 T02221033
93073KASE ASE20160714191010607/14/16 19:10:31  5-MIN KASE 150210Z 28005KT 10SM CLR 23/M04 A3031 7480 16 10100 270/05 RMK AO2 T02281039
93073KASE ASE20160714191510607/14/16 19:15:31  5-MIN KASE 150215Z 27006KT 10SM CLR 23/M04 A3031 7480 16 10100 270/06 RMK AO2 T02281039
93073KASE ASE20160714192010607/14/16 19:20:31  5-MIN KASE 150220Z VRB04KT 10SM CLR 23/M04 A3032 7480 16 10100 VRB/04 RMK AO2 T02281044
93073KASE ASE20160714192510507/14/16 19:25:31  5-MIN KASE 150225Z VRB03KT 10SM CLR 19/M01 A3032 7480 25 9700 VRB/03 RMK AO2 T01941011
93073KASE ASE20160714193010507/14/16 19:30:31  5-MIN KASE 150230Z 00000KT 10SM CLR 19/M01 A3032 7470 25 9700 000/00 RMK AO2 T01941011
93073KASE ASE20160714193510507/14/16 19:35:31  5-MIN KASE 150235Z 16007KT 10SM CLR 21/M01 A3032 7470 24 9800 150/07 RMK AO2 T02061006
93073KASE ASE20160714194010407/14/16 19:40:31  5-MIN KASE 150240Z 19008KT 10SM CLR 19/01 A3032 7470 28 9700 180/08 RMK AO2 T01940006
93073KASE ASE20160714194510407/14/16 19:45:31  5-MIN KASE 150245Z 19007KT 10SM CLR 19/00 A3033 7470 27 9700 180/07 RMK AO2 T01940000
93073KASE ASE20160714195011707/14/16 19:50:31  5-MIN KASE 150250Z 21007KT 10SM CLR 18/00 A3032 7470 29 9600 200/07 RMK AO2 SLP144 T01830000 58008
93073KASE ASE20160714195510407/14/16 19:55:31  5-MIN KASE 150255Z 20006KT 10SM CLR 18/01 A3033 7470 31 9500 190/06 RMK AO2 T01780006
93073KASE ASE20160714200010407/14/16 20:00:31  5-MIN KASE 150300Z 19006KT 10SM CLR 17/01 A3033 7460 33 9400 180/06 RMK AO2 T01720011
93073KASE ASE20160714200510407/14/16 20:05:31  5-MIN KASE 150305Z 20007KT 10SM CLR 17/01 A3033 7460 34 9400 190/07 RMK AO2 T01670011
93073KASE ASE20160714201010407/14/16 20:10:31  5-MIN KASE 150310Z 20007KT 10SM CLR 17/01 A3033 7460 34 9400 190/07 RMK AO2 T01670011
93073KASE ASE20160714201510407/14/16 20:15:31  5-MIN KASE 150315Z 21007KT 10SM CLR 17/01 A3033 7460 33 9400 200/07 RMK AO2 T01720011
93073KASE ASE20160714202010407/14/16 20:20:31  5-MIN KASE 150320Z 19009KT 10SM CLR 17/01 A3033 7460 34 9400 180/09 RMK AO2 T01670011
93073KASE ASE20160714202510407/14/16 20:25:31  5-MIN KASE 150325Z 19009KT 10SM CLR 15/01 A3034 7460 38 9200 190/09 RMK AO2 T01500011
93073KASE ASE20160714203010407/14/16 20:30:31  5-MIN KASE 150330Z 19009KT 10SM CLR 14/01 A3034 7460 40 9100 180/09 RMK AO2 T01440011
93073KASE ASE20160714203510407/14/16 20:35:31  5-MIN KASE 150335Z 20009KT 10SM CLR 14/01 A3034 7460 40 9100 200/09 RMK AO2 T01440011
93073KASE ASE20160714204010407/14/16 20:40:31  5-MIN KASE 150340Z 21008KT 10SM CLR 15/01 A3034 7450 37 9200 200/08 RMK AO2 T01500006
93073KASE ASE20160714204510407/14/16 20:45:31  5-MIN KASE 150345Z 21008KT 10SM CLR 15/01 A3035 7450 37 9200 200/08 RMK AO2 T01500006
93073KASE ASE20160714205011107/14/16 20:50:31  5-MIN KASE 150350Z 21008KT 10SM CLR 14/01 A3035 7450 38 9100 200/08 RMK AO2 SLP155 T01440006
93073KASE ASE20160714205510407/14/16 20:55:31  5-MIN KASE 150355Z 21008KT 10SM CLR 15/00 A3035 7450 35 9200 200/08 RMK AO2 T01500000
93073KASE ASE20160714210010407/14/16 21:00:31  5-MIN KASE 150400Z 21007KT 10SM CLR 16/00 A3035 7450 34 9200 200/07 RMK AO2 T01560000
93073KASE ASE20160714210510407/14/16 21:05:31  5-MIN KASE 150405Z 22009KT 10SM CLR 16/00 A3035 7450 34 9200 210/09 RMK AO2 T01560000
93073KASE ASE20160714211010507/14/16 21:10:31  5-MIN KASE 150410Z 21009KT 10SM CLR 16/M01 A3035 7440 33 9200 200/09 RMK AO2 T01561006
93073KASE ASE20160714211510507/14/16 21:15:31  5-MIN KASE 150415Z 21009KT 10SM CLR 16/M01 A3035 7440 33 9200 200/09 RMK AO2 T01561006
93073KASE ASE20160714212010507/14/16 21:20:31  5-MIN KASE 150420Z 21010KT 10SM CLR 15/M01 A3035 7440 34 9200 210/10 RMK AO2 T01501006
93073KASE ASE20160714212510507/14/16 21:25:31  5-MIN KASE 150425Z 22008KT 10SM CLR 16/M01 A3035 7440 33 9200 210/08 RMK AO2 T01561006
93073KASE ASE20160714213010507/14/16 21:30:31  5-MIN KASE 150430Z 21008KT 10SM CLR 16/M01 A3035 7440 33 9200 200/08 RMK AO2 T01561006
93073KASE ASE20160714213510507/14/16 21:35:31  5-MIN KASE 150435Z 20007KT 10SM CLR 16/M01 A3035 7450 31 9200 190/07 RMK AO2 T01561011
93073KASE ASE20160714214010507/14/16 21:40:31  5-MIN KASE 150440Z 21008KT 10SM CLR 16/M01 A3035 7440 31 9200 200/08 RMK AO2 T01561011
93073KASE ASE20160714214510507/14/16 21:45:31  5-MIN KASE 150445Z 21009KT 10SM CLR 15/M01 A3035 7450 34 9200 200/09 RMK AO2 T01501006
93073KASE ASE20160714215011207/14/16 21:50:31  5-MIN KASE 150450Z 22009KT 10SM CLR 15/M01 A3035 7450 33 9200 210/09 RMK AO2 SLP148 T01501011
93073KASE ASE20160714215510507/14/16 21:55:31  5-MIN KASE 150455Z 21008KT 10SM CLR 15/M01 A3035 7450 33 9200 200/08 RMK AO2 T01501011
93073KASE ASE20160714220010507/14/16 22:00:31  5-MIN KASE 150500Z 22009KT 10SM CLR 15/M01 A3035 7450 33 9200 210/09 RMK AO2 T01501011
93073KASE ASE20160714220510507/14/16 22:05:31  5-MIN KASE 150505Z 21008KT 10SM CLR 15/M01 A3035 7450 33 9200 200/08 RMK AO2 T01501011
93073KASE ASE20160714221010507/14/16 22:10:31  5-MIN KASE 150510Z 21009KT 10SM CLR 14/M01 A3035 7450 34 9100 200/09 RMK AO2 T01441011
93073KASE ASE20160714221510507/14/16 22:15:31  5-MIN KASE 150515Z 21009KT 10SM CLR 14/M01 A3035 7450 35 9100 210/09 RMK AO2 T01391011
93073KASE ASE20160714222010507/14/16 22:20:31  5-MIN KASE 150520Z 22009KT 10SM CLR 14/M02 A3035 7450 33 9100 210/09 RMK AO2 T01441017
93073KASE ASE20160714222510507/14/16 22:25:31  5-MIN KASE 150525Z 22009KT 10SM CLR 14/M02 A3034 7450 33 9100 210/09 RMK AO2 T01441017
93073KASE ASE20160714223010507/14/16 22:30:31  5-MIN KASE 150530Z 21009KT 10SM CLR 14/M02 A3034 7450 34 9100 210/09 RMK AO2 T01391017
93073KASE ASE20160714223510507/14/16 22:35:31  5-MIN KASE 150535Z 22009KT 10SM CLR 14/M02 A3034 7450 33 9100 210/09 RMK AO2 T01441017
93073KASE ASE20160714224010507/14/16 22:40:31  5-MIN KASE 150540Z 21008KT 10SM CLR 14/M02 A3034 7450 34 9100 200/08 RMK AO2 T01391017
93073KASE ASE20160714224510507/14/16 22:45:31  5-MIN KASE 150545Z 21007KT 10SM CLR 14/M02 A3034 7450 33 9100 200/07 RMK AO2 T01441017
93073KASE ASE20160714225013007/14/16 22:50:31  5-MIN KASE 150550Z 21008KT 10SM CLR 13/M02 A3034 7450 35 9000 200/08 RMK AO2 SLP143 T01331017 10283 20133 53002
93073KASE ASE20160714225510507/14/16 22:55:31  5-MIN KASE 150555Z 22010KT 10SM CLR 12/M01 A3034 7450 39 8900 210/10 RMK AO2 T01221011
93073KASE ASE20160714230010507/14/16 23:00:31  5-MIN KASE 150600Z 21007KT 10SM CLR 13/M02 A3034 7450 35 9000 210/07 RMK AO2 T01331017
93073KASE ASE20160714230510507/14/16 23:05:31  5-MIN KASE 150605Z 21007KT 10SM CLR 13/M02 A3034 7450 35 9000 200/07 RMK AO2 T01331017
93073KASE ASE20160714231010507/14/16 23:10:31  5-MIN KASE 150610Z 19006KT 10SM CLR 13/M02 A3034 7450 35 9000 180/06 RMK AO2 T01331017
93073KASE ASE20160714231510507/14/16 23:15:31  5-MIN KASE 150615Z 21009KT 10SM CLR 13/M02 A3034 7450 35 9000 210/09 RMK AO2 T01331017
93073KASE ASE20160714232010507/14/16 23:20:31  5-MIN KASE 150620Z 21008KT 10SM CLR 14/M02 A3034 7450 32 9100 200/08 RMK AO2 T01391022
93073KASE ASE20160714232510507/14/16 23:25:31  5-MIN KASE 150625Z 21007KT 10SM CLR 13/M02 A3034 7450 35 9000 200/07 RMK AO2 T01331017
93073KASE ASE20160714233010507/14/16 23:30:31  5-MIN KASE 150630Z 22009KT 10SM CLR 13/M02 A3034 7460 36 8900 210/09 RMK AO2 T01281017
93073KASE ASE20160714233510507/14/16 23:35:31  5-MIN KASE 150635Z 21009KT 10SM CLR 13/M02 A3034 7450 36 8900 210/09 RMK AO2 T01281017
93073KASE ASE20160714234010507/14/16 23:40:31  5-MIN KASE 150640Z 21008KT 10SM CLR 13/M02 A3034 7450 36 8900 200/08 RMK AO2 T01281017
93073KASE ASE20160714234510507/14/16 23:45:31  5-MIN KASE 150645Z 20007KT 10SM CLR 12/M02 A3034 7450 38 8900 190/07 RMK AO2 T01221017
93073KASE ASE20160714235012207/14/16 23:50:31  5-MIN KASE 150650Z 20006KT 10SM CLR 13/M02 A3034 7450 36 8900 190/06 RMK AO2 SLP140 T01281017 402890067
93073KASE ASE20160714235510507/14/16 23:55:31  5-MIN KASE 150655Z 21009KT 10SM CLR 12/M02 A3034 7460 38 8900 200/09 RMK AO2 T01221017
93073KASE ASE20160715000010507/15/16 00:00:31  5-MIN KASE 150700Z 22010KT 10SM CLR 11/M01 A3034 7450 42 8700 210/10 RMK AO2 T01111011
93073KASE ASE20160715000510507/15/16 00:05:31  5-MIN KASE 150705Z 21007KT 10SM CLR 12/M02 A3034 7450 39 8800 200/07 RMK AO2 T01171017
93073KASE ASE20160715001010507/15/16 00:10:31  5-MIN KASE 150710Z 20006KT 10SM CLR 13/M02 A3034 7450 34 9000 200/06 RMK AO2 T01331022
93073KASE ASE20160715001510507/15/16 00:15:31  5-MIN KASE 150715Z 18006KT 10SM CLR 13/M02 A3034 7450 36 8900 170/06 RMK AO2 T01281017
93073KASE ASE20160715002010507/15/16 00:20:31  5-MIN KASE 150720Z 20006KT 10SM CLR 12/M02 A3034 7450 39 8800 190/06 RMK AO2 T01171017
93073KASE ASE20160715002510507/15/16 00:25:31  5-MIN KASE 150725Z 22009KT 10SM CLR 11/M02 A3034 7450 41 8700 210/09 RMK AO2 T01111017
93073KASE ASE20160715003010507/15/16 00:30:31  5-MIN KASE 150730Z 21008KT 10SM CLR 12/M02 A3034 7450 39 8800 210/08 RMK AO2 T01171017
93073KASE ASE20160715003510507/15/16 00:35:31  5-MIN KASE 150735Z 21008KT 10SM CLR 12/M02 A3034 7450 38 8900 200/08 RMK AO2 T01221017
93073KASE ASE20160715004010507/15/16 00:40:31  5-MIN KASE 150740Z 19006KT 10SM CLR 12/M02 A3034 7450 36 8900 180/06 RMK AO2 T01221022
93073KASE ASE20160715004510507/15/16 00:45:31  5-MIN KASE 150745Z 19007KT 10SM CLR 11/M01 A3034 7450 42 8700 180/07 RMK AO2 T01111011
93073KASE ASE20160715005011207/15/16 00:50:31  5-MIN KASE 150750Z 19006KT 10SM CLR 10/M01 A3034 7450 46 8600 190/06 RMK AO2 SLP147 T01001011
93073KASE ASE20160715005510507/15/16 00:55:31  5-MIN KASE 150755Z 22010KT 10SM CLR 11/M02 A3035 7450 41 8700 210/10 RMK AO2 T01111017
93073KASE ASE20160715010010507/15/16 01:00:31  5-MIN KASE 150800Z 21008KT 10SM CLR 11/M02 A3035 7450 41 8700 200/08 RMK AO2 T01111017
93073KASE ASE20160715010510507/15/16 01:05:31  5-MIN KASE 150805Z 20007KT 10SM CLR 11/M02 A3035 7450 41 8700 190/07 RMK AO2 T01111017
93073KASE ASE20160715011010507/15/16 01:10:31  5-MIN KASE 150810Z 20006KT 10SM CLR 11/M02 A3035 7440 41 8700 190/06 RMK AO2 T01111017
93073KASE ASE20160715011510507/15/16 01:15:31  5-MIN KASE 150815Z 21007KT 10SM CLR 11/M02 A3035 7450 41 8700 200/07 RMK AO2 T01111017
93073KASE ASE20160715012010507/15/16 01:20:31  5-MIN KASE 150820Z 20005KT 10SM CLR 11/M02 A3035 7450 42 8700 190/05 RMK AO2 T01061017
93073KASE ASE20160715012510507/15/16 01:25:31  5-MIN KASE 150825Z 20007KT 10SM CLR 10/M01 A3035 7450 46 8600 190/07 RMK AO2 T01001011
93073KASE ASE20160715013010507/15/16 01:30:31  5-MIN KASE 150830Z 21008KT 10SM CLR 11/M02 A3035 7450 41 8700 200/08 RMK AO2 T01111017
93073KASE ASE20160715013510507/15/16 01:35:31  5-MIN KASE 150835Z 21007KT 10SM CLR 11/M02 A3035 7450 42 8700 200/07 RMK AO2 T01061017
93073KASE ASE20160715014010507/15/16 01:40:31  5-MIN KASE 150840Z 18006KT 10SM CLR 10/M01 A3035 7450 46 8600 180/06 RMK AO2 T01001011
93073KASE ASE20160715014510507/15/16 01:45:31  5-MIN KASE 150845Z 20007KT 10SM CLR 11/M02 A3035 7450 42 8700 190/07 RMK AO2 T01061017
93073KASE ASE20160715015011807/15/16 01:50:31  5-MIN KASE 150850Z 21008KT 10SM CLR 12/M02 A3035 7450 38 8800 200/08 RMK AO2 SLP144 T01171022 50005
93073KASE ASE20160715015510507/15/16 01:55:31  5-MIN KASE 150855Z 20007KT 10SM CLR 11/M02 A3034 7450 41 8700 190/07 RMK AO2 T01111017
93073KASE ASE20160715020010507/15/16 02:00:31  5-MIN KASE 150900Z 20008KT 10SM CLR 11/M02 A3034 7450 41 8700 200/08 RMK AO2 T01111017
93073KASE ASE20160715020510507/15/16 02:05:31  5-MIN KASE 150905Z 21007KT 10SM CLR 12/M02 A3034 7450 39 8800 200/07 RMK AO2 T01171017
93073KASE ASE20160715021010507/15/16 02:10:31  5-MIN KASE 150910Z 21007KT 10SM CLR 12/M02 A3034 7450 39 8800 200/07 RMK AO2 T01171017
93073KASE ASE20160715021510507/15/16 02:15:31  5-MIN KASE 150915Z 20006KT 10SM CLR 12/M02 A3034 7450 38 8800 190/06 RMK AO2 T01171022
93073KASE ASE20160715022010507/15/16 02:20:31  5-MIN KASE 150920Z 20007KT 10SM CLR 11/M02 A3034 7460 41 8700 190/07 RMK AO2 T01111017
93073KASE ASE20160715022510507/15/16 02:25:31  5-MIN KASE 150925Z 22008KT 10SM CLR 11/M02 A3034 7460 42 8700 210/08 RMK AO2 T01061017
93073KASE ASE20160715023010507/15/16 02:30:31  5-MIN KASE 150930Z 20008KT 10SM CLR 11/M02 A3034 7460 39 8800 190/08 RMK AO2 T01111022
93073KASE ASE20160715023510507/15/16 02:35:31  5-MIN KASE 150935Z 21007KT 10SM CLR 12/M02 A3033 7460 38 8800 200/07 RMK AO2 T01171022
93073KASE ASE20160715024010507/15/16 02:40:31  5-MIN KASE 150940Z 20005KT 10SM CLR 11/M02 A3033 7460 41 8800 190/05 RMK AO2 T01111017
93073KASE ASE20160715024510507/15/16 02:45:31  5-MIN KASE 150945Z 21006KT 10SM CLR 11/M02 A3034 7460 42 8700 200/06 RMK AO2 T01061017
93073KASE ASE20160715025011207/15/16 02:50:31  5-MIN KASE 150950Z 20005KT 10SM CLR 10/M02 A3034 7460 44 8600 190/05 RMK AO2 SLP145 T01001017
93073KASE ASE20160715025510507/15/16 02:55:31  5-MIN KASE 150955Z 20003KT 10SM CLR 10/M01 A3034 7460 46 8600 190/03 RMK AO2 T01001011
93073KASE ASE20160715030010507/15/16 03:00:31  5-MIN KASE 151000Z 22006KT 10SM CLR 09/M01 A3034 7460 47 8600 210/06 RMK AO2 T00941011
93073KASE ASE20160715030510507/15/16 03:05:31  5-MIN KASE 151005Z 00000KT 10SM CLR 09/M01 A3034 7460 47 8600 000/00 RMK AO2 T00941011
93073KASE ASE20160715031010507/15/16 03:10:31  5-MIN KASE 151010Z 00000KT 10SM CLR 10/M01 A3034 7460 46 8600 000/00 RMK AO2 T01001011
93073KASE ASE20160715031510507/15/16 03:15:31  5-MIN KASE 151015Z 00000KT 10SM CLR 09/M01 A3034 7460 47 8600 000/00 RMK AO2 T00941011
93073KASE ASE20160715032010507/15/16 03:20:31  5-MIN KASE 151020Z 00000KT 10SM CLR 09/M01 A3035 7450 49 8500 000/00 RMK AO2 T00891011
93073KASE ASE20160715032510507/15/16 03:25:31  5-MIN KASE 151025Z 00000KT 10SM CLR 09/M01 A3035 7450 49 8500 000/00 RMK AO2 T00891011
93073KASE ASE20160715033010507/15/16 03:30:31  5-MIN KASE 151030Z 20003KT 10SM CLR 08/M01 A3035 7450 53 8400 190/03 RMK AO2 T00831006
93073KASE ASE20160715033510507/15/16 03:35:31  5-MIN KASE 151035Z 22007KT 10SM CLR 08/M01 A3035 7450 55 8400 210/07 RMK AO2 T00781006
93073KASE ASE20160715034010507/15/16 03:40:31  5-MIN KASE 151040Z 23008KT 10SM CLR 08/M01 A3035 7440 51 8400 230/08 RMK AO2 T00831011
93073KASE ASE20160715034510507/15/16 03:45:31  5-MIN KASE 151045Z 20005KT 10SM CLR 09/M01 A3035 7440 47 8500 190/05 RMK AO2 T00941011
93073KASE ASE20160715035011207/15/16 03:50:31  5-MIN KASE 151050Z VRB04KT 10SM CLR 09/M01 A3035 7450 49 8500 VRB/04 RMK AO2 SLP151 T00891011
93073KASE ASE20160715035510507/15/16 03:55:31  5-MIN KASE 151055Z 16005KT 10SM CLR 09/M01 A3035 7450 51 8500 150/05 RMK AO2 T00891006
93073KASE ASE20160715040010507/15/16 04:00:31  5-MIN KASE 151100Z 17005KT 10SM CLR 09/M01 A3035 7450 49 8500 160/05 RMK AO2 T00891011
93073KASE ASE20160715040510507/15/16 04:05:31  5-MIN KASE 151105Z 19006KT 10SM CLR 09/M01 A3035 7450 49 8500 180/06 RMK AO2 T00891011
93073KASE ASE20160715041010507/15/16 04:10:31  5-MIN KASE 151110Z 19004KT 10SM CLR 08/M01 A3036 7440 51 8400 190/04 RMK AO2 T00831011
93073KASE ASE20160715041510507/15/16 04:15:31  5-MIN KASE 151115Z 14004KT 10SM CLR 09/M01 A3036 7440 49 8500 130/04 RMK AO2 T00891011
93073KASE ASE20160715042010507/15/16 04:20:31  5-MIN KASE 151120Z 00000KT 10SM CLR 08/M01 A3036 7440 55 8400 000/00 RMK AO2 T00781006
93073KASE ASE20160715042510507/15/16 04:25:31  5-MIN KASE 151125Z 00000KT 10SM CLR 07/M01 A3036 7440 57 8300 000/00 RMK AO2 T00721006
93073KASE ASE20160715043010507/15/16 04:30:31  5-MIN KASE 151130Z 21004KT 10SM CLR 07/M01 A3036 7440 60 8200 200/04 RMK AO2 T00671006
93073KASE ASE20160715043510507/15/16 04:35:31  5-MIN KASE 151135Z 19006KT 10SM CLR 07/M01 A3036 7440 57 8300 180/06 RMK AO2 T00721006
93073KASE ASE20160715044010507/15/16 04:40:31  5-MIN KASE 151140Z 19007KT 10SM CLR 08/M01 A3036 7430 55 8300 180/07 RMK AO2 T00781006
93073KASE ASE20160715044510507/15/16 04:45:31  5-MIN KASE 151145Z 20009KT 10SM CLR 09/M01 A3036 7440 49 8500 190/09 RMK AO2 T00891011
93073KASE ASE20160715045013007/15/16 04:50:31  5-MIN KASE 151150Z 21008KT 10SM CLR 09/M01 A3036 7440 49 8500 200/08 RMK AO2 SLP151 T00891011 10139 20067 53000
93073KASE ASE20160715045510507/15/16 04:55:31  5-MIN KASE 151155Z 20007KT 10SM CLR 10/M01 A3036 7440 46 8600 190/07 RMK AO2 T01001011
93073KASE ASE20160715050010507/15/16 05:00:31  5-MIN KASE 151200Z 20006KT 10SM CLR 09/M02 A3036 7440 45 8500 190/06 RMK AO2 T00941017
93073KASE ASE20160715050510507/15/16 05:05:31  5-MIN KASE 151205Z 19007KT 10SM CLR 09/M01 A3036 7440 51 8500 180/07 RMK AO2 T00891006
93073KASE ASE20160715051010507/15/16 05:10:31  5-MIN KASE 151210Z 19007KT 10SM CLR 08/M01 A3035 7440 55 8400 180/07 RMK AO2 T00781006
93073KASE ASE20160715051510507/15/16 05:15:31  5-MIN KASE 151215Z 21007KT 10SM CLR 09/M01 A3035 7440 47 8500 200/07 RMK AO2 T00941011
93073KASE ASE20160715052010507/15/16 05:20:31  5-MIN KASE 151220Z 21008KT 10SM CLR 09/M01 A3035 7440 47 8500 200/08 RMK AO2 T00941011
93073KASE ASE20160715052510507/15/16 05:25:31  5-MIN KASE 151225Z 20006KT 10SM CLR 10/M01 A3035 7440 46 8600 200/06 RMK AO2 T01001011
93073KASE ASE20160715053010507/15/16 05:30:31  5-MIN KASE 151230Z 20004KT 10SM CLR 11/M01 A3036 7440 44 8700 190/04 RMK AO2 T01061011
93073KASE ASE20160715053510507/15/16 05:35:31  5-MIN KASE 151235Z 22005KT 10SM CLR 11/M01 A3036 7430 44 8700 210/05 RMK AO2 T01061011
93073KASE ASE20160715054010507/15/16 05:40:31  5-MIN KASE 151240Z 21005KT 10SM CLR 10/M01 A3036 7430 46 8600 200/05 RMK AO2 T01001011
93073KASE ASE20160715054510507/15/16 05:45:31  5-MIN KASE 151245Z 21006KT 10SM CLR 09/M01 A3036 7430 49 8500 200/06 RMK AO2 T00941006
93073KASE ASE20160715055011207/15/16 05:50:31  5-MIN KASE 151250Z 21006KT 10SM CLR 11/M01 A3036 7440 46 8700 200/06 RMK AO2 SLP153 T01061006
93073KASE ASE20160715055510407/15/16 05:55:31  5-MIN KASE 151255Z 20006KT 10SM CLR 11/00 A3036 7440 46 8700 200/06 RMK AO2 T01110000
93073KASE ASE20160715060010507/15/16 06:00:31  5-MIN KASE 151300Z 19005KT 10SM CLR 12/M01 A3036 7440 42 8800 180/05 RMK AO2 T01171006
93073KASE ASE20160715060510407/15/16 06:05:31  5-MIN KASE 151305Z 20005KT 10SM CLR 12/00 A3036 7440 44 8800 190/05 RMK AO2 T01170000
93073KASE ASE20160715061010507/15/16 06:10:31  5-MIN KASE 151310Z 15008KT 10SM CLR 13/M01 A3035 7440 39 8900 140/08 RMK AO2 T01281006
93073KASE ASE20160715061510507/15/16 06:15:31  5-MIN KASE 151315Z 15006KT 10SM CLR 13/M02 A3035 7440 35 9000 140/06 RMK AO2 T01331017
93073KASE ASE20160715062010507/15/16 06:20:31  5-MIN KASE 151320Z 16007KT 10SM CLR 13/M02 A3035 7440 35 9000 150/07 RMK AO2 T01331017
93073KASE ASE20160715062510507/15/16 06:25:31  5-MIN KASE 151325Z 17008KT 10SM CLR 13/M01 A3035 7450 36 9000 160/08 RMK AO2 T01331011
93073KASE ASE20160715063010507/15/16 06:30:31  5-MIN KASE 151330Z 17007KT 10SM CLR 14/M01 A3035 7450 35 9000 160/07 RMK AO2 T01391011
93073KASE ASE20160715063510507/15/16 06:35:31  5-MIN KASE 151335Z 19007KT 10SM CLR 15/M01 A3035 7440 34 9200 180/07 RMK AO2 T01501006
93073KASE ASE20160715064010507/15/16 06:40:31  5-MIN KASE 151340Z 18007KT 10SM CLR 15/M01 A3035 7440 33 9200 170/07 RMK AO2 T01501011
93073KASE ASE20160715064510507/15/16 06:45:31  5-MIN KASE 151345Z 17004KT 10SM CLR 14/M01 A3035 7450 34 9100 160/04 RMK AO2 T01441011
93073KASE ASE20160715065011507/15/16 06:50:31  5-MIN KASE 151350Z 20004KT 10SM FEW080 15/M01 A3035 7440 34 9200 190/04 RMK AO2 SLP149 T01501006
93073KASE ASE20160715065510507/15/16 06:55:31  5-MIN KASE 151355Z VRB04KT 10SM CLR 16/M01 A3035 7440 33 9200 VRB/04 RMK AO2 T01561006
93073KASE ASE20160715070010507/15/16 07:00:31  5-MIN KASE 151400Z 00000KT 10SM CLR 16/M01 A3035 7440 33 9200 000/00 RMK AO2 T01561006
93073KASE ASE20160715070510407/15/16 07:05:31  5-MIN KASE 151405Z 15005KT 10SM CLR 16/00 A3035 7440 34 9200 140/05 RMK AO2 T01560000
93073KASE ASE20160715071010407/15/16 07:10:31  5-MIN KASE 151410Z VRB03KT 10SM CLR 16/00 A3036 7440 33 9300 VRB/03 RMK AO2 T01610000
93073KASE ASE20160715071510407/15/16 07:15:31  5-MIN KASE 151415Z VRB03KT 10SM CLR 16/01 A3035 7440 34 9300 VRB/03 RMK AO2 T01610006
93073KASE ASE20160715072010407/15/16 07:20:31  5-MIN KASE 151420Z 00000KT 10SM CLR 17/01 A3035 7440 33 9400 000/00 RMK AO2 T01670006
93073KASE ASE20160715072510407/15/16 07:25:31  5-MIN KASE 151425Z 00000KT 10SM CLR 17/00 A3035 7440 32 9300 000/00 RMK AO2 T01670000
93073KASE ASE20160715073010407/15/16 07:30:31  5-MIN KASE 151430Z 00000KT 10SM CLR 16/01 A3035 7440 34 9300 000/00 RMK AO2 T01610006
93073KASE ASE20160715073510407/15/16 07:35:31  5-MIN KASE 151435Z 00000KT 10SM CLR 17/01 A3035 7440 33 9400 000/00 RMK AO2 T01670006
93073KASE ASE20160715074010407/15/16 07:40:31  5-MIN KASE 151440Z VRB03KT 10SM CLR 18/01 A3035 7440 32 9500 VRB/03 RMK AO2 T01780011
93073KASE ASE20160715074510407/15/16 07:45:31  5-MIN KASE 151445Z 00000KT 10SM CLR 18/01 A3035 7440 32 9500 000/00 RMK AO2 T01780011
93073KASE ASE20160715075011707/15/16 07:50:31  5-MIN KASE 151450Z 02004KT 10SM CLR 18/01 A3035 7440 32 9500 010/04 RMK AO2 SLP151 T01780011 53003
93073KASE ASE20160715075510407/15/16 07:55:31  5-MIN KASE 151455Z 00000KT 10SM CLR 18/01 A3035 7440 32 9500 000/00 RMK AO2 T01780011
93073KASE ASE20160715080010407/15/16 08:00:31  5-MIN KASE 151500Z 00000KT 10SM CLR 18/01 A3035 7440 30 9500 000/00 RMK AO2 T01830006
93073KASE ASE20160715080510407/15/16 08:05:31  5-MIN KASE 151505Z 03004KT 10SM CLR 19/01 A3035 7450 29 9600 020/04 RMK AO2 T01890006
93073KASE ASE20160715081010407/15/16 08:10:31  5-MIN KASE 151510Z 01005KT 10SM CLR 19/02 A3035 7440 31 9600 360/05 RMK AO2 T01890017
93073KASE ASE20160715081510407/15/16 08:15:31  5-MIN KASE 151515Z VRB04KT 10SM CLR 19/01 A3035 7450 29 9600 VRB/04 RMK AO2 T01890006
93073KASE ASE20160715082010407/15/16 08:20:31  5-MIN KASE 151520Z 34006KT 10SM CLR 19/02 A3035 7450 31 9700 330/06 RMK AO2 T01940022
93073KASE ASE20160715082510407/15/16 08:25:31  5-MIN KASE 151525Z 32007KT 10SM CLR 19/02 A3035 7450 31 9700 320/07 RMK AO2 T01940022
93073KASE ASE20160715083010407/15/16 08:30:31  5-MIN KASE 151530Z 34006KT 10SM CLR 19/02 A3035 7450 30 9700 330/06 RMK AO2 T01940017
93073KASE ASE20160715083510407/15/16 08:35:31  5-MIN KASE 151535Z 35005KT 10SM CLR 19/02 A3034 7450 30 9700 340/05 RMK AO2 T01940017
93073KASE ASE20160715084010407/15/16 08:40:31  5-MIN KASE 151540Z 35006KT 10SM CLR 19/02 A3034 7450 30 9700 340/06 RMK AO2 T01940017
93073KASE ASE20160715084510407/15/16 08:45:31  5-MIN KASE 151545Z 34007KT 10SM CLR 20/01 A3034 7450 28 9700 330/07 RMK AO2 T02000011
93073KASE ASE20160715085011407/15/16 08:50:31  5-MIN KASE 151550Z 36005KT 10SM FEW080 20/01 A3034 7450 27 9700 350/05 RMK AO2 SLP153 T02000006
93073KASE ASE20160715085510407/15/16 08:55:31  5-MIN KASE 151555Z 01006KT 10SM CLR 21/01 A3034 7450 26 9800 360/06 RMK AO2 T02060006
93073KASE ASE20160715090010407/15/16 09:00:31  5-MIN KASE 151600Z 36005KT 10SM CLR 20/01 A3034 7460 27 9700 350/05 RMK AO2 T02000006
93073KASE ASE20160715090510407/15/16 09:05:31  5-MIN KASE 151605Z 35005KT 10SM CLR 21/00 A3034 7460 25 9800 340/05 RMK AO2 T02060000
93073KASE ASE20160715091010407/15/16 09:10:31  5-MIN KASE 151610Z 02005KT 10SM CLR 21/00 A3034 7460 24 9900 010/05 RMK AO2 T02110000
93073KASE ASE20160715091510407/15/16 09:15:31  5-MIN KASE 151615Z 04004KT 10SM CLR 21/00 A3034 7460 24 9900 040/04 RMK AO2 T02110000
93073KASE ASE20160715092010407/15/16 09:20:31  5-MIN KASE 151620Z 36005KT 10SM CLR 22/01 A3033 7460 25 9900 350/05 RMK AO2 T02170011
93073KASE ASE20160715092510507/15/16 09:25:31  5-MIN KASE 151625Z 03004KT 10SM CLR 22/01 A3033 7460 24 10000 020/04 RMK AO2 T02220011
93073KASE ASE20160715093010507/15/16 09:30:31  5-MIN KASE 151630Z VRB04KT 10SM CLR 22/01 A3033 7460 24 10000 VRB/04 RMK AO2 T02220011
93073KASE ASE20160715093510507/15/16 09:35:31  5-MIN KASE 151635Z VRB03KT 10SM CLR 23/01 A3033 7460 23 10000 VRB/03 RMK AO2 T02280011
93073KASE ASE20160715094010507/15/16 09:40:31  5-MIN KASE 151640Z VRB04KT 10SM CLR 23/01 A3033 7460 23 10100 VRB/04 RMK AO2 T02330011
93073KASE ASE20160715094510507/15/16 09:45:31  5-MIN KASE 151645Z VRB04KT 10SM CLR 23/01 A3033 7470 23 10100 VRB/04 RMK AO2 T02330011
93073KASE ASE20160715095011207/15/16 09:50:31  5-MIN KASE 151650Z 06004KT 10SM CLR 24/01 A3033 7470 22 10200 050/04 RMK AO2 SLP136 T02390011
93073KASE ASE20160715095510507/15/16 09:55:31  5-MIN KASE 151655Z VRB04KT 10SM CLR 24/02 A3033 7470 23 10200 VRB/04 RMK AO2 T02390017
93073KASE ASE20160715100010507/15/16 10:00:31  5-MIN KASE 151700Z VRB03KT 10SM CLR 24/02 A3033 7470 22 10200 VRB/03 RMK AO2 T02440017
93073KASE ASE20160715100510507/15/16 10:05:31  5-MIN KASE 151705Z VRB03KT 10SM CLR 24/01 A3032 7470 22 10200 VRB/03 RMK AO2 T02390011
93073KASE ASE20160715101010507/15/16 10:10:31  5-MIN KASE 151710Z 04004KT 10SM CLR 25/01 A3032 7470 20 10300 030/04 RMK AO2 T02500006
93073KASE ASE20160715101510507/15/16 10:15:31  5-MIN KASE 151715Z VRB03KT 10SM CLR 26/00 A3033 7470 18 10300 VRB/03 RMK AO2 T02560000
93073KASE ASE20160715102010807/15/16 10:20:31  5-MIN KASE 151720Z VRB04KT 10SM FEW110 26/00 A3032 7470 18 10300 VRB/04 RMK AO2 T02560000
93073KASE ASE20160715102510807/15/16 10:25:31  5-MIN KASE 151725Z 36008KT 10SM FEW110 25/01 A3032 7470 20 10300 350/08 RMK AO2 T02500011
93073KASE ASE20160715103010507/15/16 10:30:31  5-MIN KASE 151730Z 35008KT 10SM CLR 26/01 A3032 7470 19 10300 340/08 RMK AO2 T02560006
93073KASE ASE20160715103510507/15/16 10:35:31  5-MIN KASE 151735Z 36009KT 10SM CLR 26/01 A3032 7470 18 10400 350/09 RMK AO2 T02610006
93073KASE ASE20160715104010607/15/16 10:40:31  5-MIN KASE 151740Z VRB06KT 10SM CLR 26/M01 A3032 7470 17 10400 VRB/06 RMK AO2 T02611006
93073KASE ASE20160715104510607/15/16 10:45:31  5-MIN KASE 151745Z 35010KT 10SM CLR 27/M02 A3032 7470 14 10500 340/10 RMK AO2 T02721022
93073KASE ASE20160715105013407/15/16 10:50:31  5-MIN KASE 151750Z 36007KT 10SM SCT080 27/M03 A3032 7480 13 10500 350/07 RMK AO2 SLP126 T02721033 10272 20078 58002
93073KASE ASE20160715105510607/15/16 10:55:31  5-MIN KASE 151755Z 02006KT 10SM CLR 27/M03 A3031 7480 13 10500 010/06 RMK AO2 T02721033
93073KASE ASE20160715110012207/15/16 11:00:31  5-MIN KASE 151800Z 03007KT 350V070 10SM CLR 28/M03 A3031 7480 13 10600 020/07 340V060 RMK AO2 T02781028
93073KASE ASE20160715110510607/15/16 11:05:31  5-MIN KASE 151805Z 04007KT 10SM CLR 27/M03 A3031 7480 13 10500 030/07 RMK AO2 T02671033
93073KASE ASE20160715111010607/15/16 11:10:31  5-MIN KASE 151810Z 35006KT 10SM CLR 26/M04 A3031 7480 13 10400 350/06 RMK AO2 T02611039
93073KASE ASE20160715111510607/15/16 11:15:31  5-MIN KASE 151815Z 36007KT 10SM CLR 26/M03 A3031 7480 14 10400 350/07 RMK AO2 T02611033
93073KASE ASE20160715112010607/15/16 11:20:31  5-MIN KASE 151820Z 01009KT 10SM CLR 26/M03 A3031 7490 14 10400 360/09 RMK AO2 T02611033
93073KASE ASE20160715112510607/15/16 11:25:31  5-MIN KASE 151825Z 35007KT 10SM CLR 26/M04 A3031 7480 13 10400 340/07 RMK AO2 T02611039
93073KASE ASE20160715113010607/15/16 11:30:31  5-MIN KASE 151830Z 36007KT 10SM CLR 26/M04 A3031 7480 13 10400 350/07 RMK AO2 T02611039
93073KASE ASE20160715113510607/15/16 11:35:31  5-MIN KASE 151835Z 34007KT 10SM CLR 26/M04 A3031 7480 13 10400 340/07 RMK AO2 T02611039
93073KASE ASE20160715114010907/15/16 11:40:31  5-MIN KASE 151840Z 35007KT 10SM FEW120 26/M03 A3031 7480 14 10400 340/07 RMK AO2 T02561033
93073KASE ASE20160715114510907/15/16 11:45:31  5-MIN KASE 151845Z 30007KT 10SM FEW120 26/M03 A3032 7470 14 10400 290/07 RMK AO2 T02561033
93073KASE ASE20160715115012207/15/16 11:50:31  5-MIN KASE 151850Z 22015G22KT 10SM FEW120 26/M03 A3033 7470 14 10300 210/15G22 RMK AO2 SLP135 T02561033
93073KASE ASE20160715115513107/15/16 11:55:31  5-MIN KASE 151855Z 19008G22KT 170V230 10SM FEW120 26/M04 A3032 7470 13 10400 190/08G22 160V220 RMK AO2 T02561044
93073KASE ASE20160715120011507/15/16 12:00:31  5-MIN KASE 151900Z 17006G15KT 10SM FEW120 26/M05 A3032 7480 12 10400 160/06G15 RMK AO2 T02611050
93073KASE ASE20160715220011007/15/16 22:00:31  5-MIN KASE 160500Z AUTO 21005KT 10SM CLR 16/M01 A3024 7550 32 9400 200/05 RMK AO2 T01611006
93073KASE ASE20160715220511007/15/16 22:05:31  5-MIN KASE 160505Z AUTO 21004KT 10SM CLR 16/M01 A3024 7550 32 9400 200/04 RMK AO2 T01611006
93073KASE ASE20160715221011007/15/16 22:10:31  5-MIN KASE 160510Z AUTO 19004KT 10SM CLR 16/M01 A3023 7550 32 9400 180/04 RMK AO2 T01611006
93073KASE ASE20160715221510907/15/16 22:15:31  5-MIN KASE 160515Z AUTO 21006KT 10SM CLR 15/01 A3023 7550 37 9300 200/06 RMK AO2 T01500006
93073KASE ASE20160715222011007/15/16 22:20:31  5-MIN KASE 160520Z AUTO 19005KT 10SM CLR 16/M01 A3024 7550 33 9400 180/05 RMK AO2 T01561006
93073KASE ASE20160715222510907/15/16 22:25:31  5-MIN KASE 160525Z AUTO 18006KT 10SM CLR 15/00 A3023 7550 35 9300 180/06 RMK AO2 T01500000
93073KASE ASE20160715223010907/15/16 22:30:31  5-MIN KASE 160530Z AUTO 21008KT 10SM CLR 14/00 A3023 7550 37 9200 200/08 RMK AO2 T01440000
93073KASE ASE20160715223511007/15/16 22:35:31  5-MIN KASE 160535Z AUTO 21010KT 10SM CLR 15/M01 A3023 7560 34 9300 200/10 RMK AO2 T01501006
93073KASE ASE20160715224011007/15/16 22:40:31  5-MIN KASE 160540Z AUTO 21009KT 10SM CLR 15/M01 A3023 7560 34 9300 200/09 RMK AO2 T01501006
93073KASE ASE20160715224511007/15/16 22:45:31  5-MIN KASE 160545Z AUTO 20008KT 10SM CLR 15/M01 A3023 7560 34 9300 190/08 RMK AO2 T01501006
93073KASE ASE20160715225013507/15/16 22:50:31  5-MIN KASE 160550Z AUTO 20009KT 10SM CLR 14/M01 A3023 7550 35 9200 190/09 RMK AO2 SLP095 T01441006 10289 20144 52007
93073KASE ASE20160715225511007/15/16 22:55:31  5-MIN KASE 160555Z AUTO 20010KT 10SM CLR 14/M01 A3023 7560 37 9200 190/10 RMK AO2 T01391006
93073KASE ASE20160715230011007/15/16 23:00:31  5-MIN KASE 160600Z AUTO 20007KT 10SM CLR 14/M01 A3023 7560 35 9200 190/07 RMK AO2 T01441006
93073KASE ASE20160715230511007/15/16 23:05:31  5-MIN KASE 160605Z AUTO 20008KT 10SM CLR 14/M01 A3023 7560 35 9200 190/08 RMK AO2 T01441006
93073KASE ASE20160715231011007/15/16 23:10:31  5-MIN KASE 160610Z AUTO 21009KT 10SM CLR 14/M01 A3023 7560 37 9200 200/09 RMK AO2 T01391006
93073KASE ASE20160715231511007/15/16 23:15:31  5-MIN KASE 160615Z AUTO 20006KT 10SM CLR 14/M01 A3023 7560 34 9200 190/06 RMK AO2 T01441011
93073KASE ASE20160715232011007/15/16 23:20:31  5-MIN KASE 160620Z AUTO 20008KT 10SM CLR 14/M01 A3023 7560 37 9200 190/08 RMK AO2 T01391006
93073KASE ASE20160715232511007/15/16 23:25:31  5-MIN KASE 160625Z AUTO 20007KT 10SM CLR 14/M01 A3022 7560 34 9200 190/07 RMK AO2 T01441011
93073KASE ASE20160715233011007/15/16 23:30:31  5-MIN KASE 160630Z AUTO 21008KT 10SM CLR 13/M01 A3022 7560 39 9100 200/08 RMK AO2 T01281006
93073KASE ASE20160715233511007/15/16 23:35:31  5-MIN KASE 160635Z AUTO 22010KT 10SM CLR 13/M01 A3022 7570 39 9100 210/10 RMK AO2 T01281006
93073KASE ASE20160715234011007/15/16 23:40:31  5-MIN KASE 160640Z AUTO 21008KT 10SM CLR 14/M01 A3022 7570 34 9300 200/08 RMK AO2 T01441011
93073KASE ASE20160715234511007/15/16 23:45:31  5-MIN KASE 160645Z AUTO 21009KT 10SM CLR 15/M02 A3022 7570 31 9300 200/09 RMK AO2 T01501017
93073KASE ASE20160715235012707/15/16 23:50:31  5-MIN KASE 160650Z AUTO 21008KT 10SM CLR 15/M02 A3022 7570 31 9300 200/08 RMK AO2 SLP093 T01501017 402940067
93073KASE ASE20160715235511007/15/16 23:55:31  5-MIN KASE 160655Z AUTO 21008KT 10SM CLR 14/M02 A3022 7570 33 9300 210/08 RMK AO2 T01441017
93073KASE ASE20160716000011007/16/16 00:00:31  5-MIN KASE 160700Z AUTO 21008KT 10SM CLR 14/M01 A3021 7570 35 9200 200/08 RMK AO2 T01391011
93073KASE ASE20160716000511007/16/16 00:05:31  5-MIN KASE 160705Z AUTO 21009KT 10SM CLR 13/M01 A3021 7570 36 9100 200/09 RMK AO2 T01331011
93073KASE ASE20160716001011007/16/16 00:10:31  5-MIN KASE 160710Z AUTO 21010KT 10SM CLR 13/M01 A3021 7570 36 9100 210/10 RMK AO2 T01331011
93073KASE ASE20160716001511007/16/16 00:15:31  5-MIN KASE 160715Z AUTO 22008KT 10SM CLR 12/M01 A3021 7570 41 9000 210/08 RMK AO2 T01221006
93073KASE ASE20160716002011007/16/16 00:20:31  5-MIN KASE 160720Z AUTO 20007KT 10SM CLR 14/M01 A3021 7570 35 9200 190/07 RMK AO2 T01391011
93073KASE ASE20160716002511007/16/16 00:25:31  5-MIN KASE 160725Z AUTO 21007KT 10SM CLR 14/M02 A3021 7580 33 9300 210/07 RMK AO2 T01441017
93073KASE ASE20160716003011007/16/16 00:30:31  5-MIN KASE 160730Z AUTO 20008KT 10SM CLR 14/M02 A3021 7580 34 9200 200/08 RMK AO2 T01391017
93073KASE ASE20160716003511007/16/16 00:35:31  5-MIN KASE 160735Z AUTO 22007KT 10SM CLR 16/M02 A3021 7580 29 9400 210/07 RMK AO2 T01561022
93073KASE ASE20160716004011007/16/16 00:40:31  5-MIN KASE 160740Z AUTO 21007KT 10SM CLR 15/M02 A3021 7580 30 9300 200/07 RMK AO2 T01501022
93073KASE ASE20160716004511007/16/16 00:45:31  5-MIN KASE 160745Z AUTO 21009KT 10SM CLR 15/M02 A3020 7580 30 9300 200/09 RMK AO2 T01501022
93073KASE ASE20160716005011707/16/16 00:50:31  5-MIN KASE 160750Z AUTO 20008KT 10SM CLR 14/M02 A3020 7580 33 9300 190/08 RMK AO2 SLP093 T01441017
93073KASE ASE20160716005511007/16/16 00:55:31  5-MIN KASE 160755Z AUTO 22008KT 10SM CLR 14/M02 A3020 7580 31 9300 210/08 RMK AO2 T01441022
93073KASE ASE20160716010011007/16/16 01:00:31  5-MIN KASE 160800Z AUTO 20008KT 10SM CLR 15/M02 A3020 7580 30 9300 200/08 RMK AO2 T01501022
93073KASE ASE20160716010511007/16/16 01:05:31  5-MIN KASE 160805Z AUTO 22007KT 10SM CLR 15/M02 A3020 7580 30 9300 210/07 RMK AO2 T01501022
93073KASE ASE20160716011011007/16/16 01:10:31  5-MIN KASE 160810Z AUTO 20007KT 10SM CLR 14/M02 A3020 7590 34 9200 190/07 RMK AO2 T01391017
93073KASE ASE20160716011511007/16/16 01:15:31  5-MIN KASE 160815Z AUTO 21008KT 10SM CLR 14/M02 A3019 7590 31 9300 210/08 RMK AO2 T01441022
93073KASE ASE20160716012011007/16/16 01:20:31  5-MIN KASE 160820Z AUTO 22007KT 10SM CLR 14/M02 A3019 7590 32 9200 210/07 RMK AO2 T01391022
93073KASE ASE20160716012511007/16/16 01:25:31  5-MIN KASE 160825Z AUTO 20007KT 10SM CLR 13/M02 A3019 7590 34 9200 200/07 RMK AO2 T01331022
93073KASE ASE20160716013011007/16/16 01:30:31  5-MIN KASE 160830Z AUTO 21007KT 10SM CLR 13/M02 A3019 7590 35 9200 200/07 RMK AO2 T01331017
93073KASE ASE20160716013511007/16/16 01:35:31  5-MIN KASE 160835Z AUTO 21009KT 10SM CLR 13/M02 A3019 7590 34 9200 200/09 RMK AO2 T01331022
93073KASE ASE20160716014011007/16/16 01:40:31  5-MIN KASE 160840Z AUTO 21007KT 10SM CLR 13/M02 A3019 7590 36 9100 200/07 RMK AO2 T01281017
93073KASE ASE20160716014511007/16/16 01:45:31  5-MIN KASE 160845Z AUTO 22010KT 10SM CLR 13/M02 A3019 7600 36 9100 210/10 RMK AO2 T01281017
93073KASE ASE20160716015012307/16/16 01:50:31  5-MIN KASE 160850Z AUTO 21007KT 10SM CLR 13/M02 A3019 7600 36 9100 200/07 RMK AO2 SLP088 T01281017 50001
93073KASE ASE20160716015511007/16/16 01:55:31  5-MIN KASE 160855Z AUTO 19007KT 10SM CLR 12/M02 A3019 7600 38 9000 180/07 RMK AO2 T01221017
93073KASE ASE20160716020011007/16/16 02:00:31  5-MIN KASE 160900Z AUTO 21008KT 10SM CLR 12/M02 A3019 7600 38 9000 200/08 RMK AO2 T01221017
93073KASE ASE20160716020511007/16/16 02:05:31  5-MIN KASE 160905Z AUTO 22006KT 10SM CLR 12/M02 A3019 7600 36 9000 210/06 RMK AO2 T01221022
93073KASE ASE20160716021011007/16/16 02:10:31  5-MIN KASE 160910Z AUTO 20007KT 10SM CLR 13/M02 A3018 7600 35 9100 190/07 RMK AO2 T01281022
93073KASE ASE20160716021511007/16/16 02:15:31  5-MIN KASE 160915Z AUTO 20007KT 10SM CLR 13/M02 A3018 7600 34 9200 200/07 RMK AO2 T01331022
93073KASE ASE20160716022011007/16/16 02:20:31  5-MIN KASE 160920Z AUTO 20007KT 10SM CLR 13/M02 A3018 7600 35 9100 190/07 RMK AO2 T01281022
93073KASE ASE20160716022511007/16/16 02:25:31  5-MIN KASE 160925Z AUTO 21005KT 10SM CLR 13/M03 A3018 7600 32 9200 200/05 RMK AO2 T01331028
93073KASE ASE20160716023011007/16/16 02:30:31  5-MIN KASE 160930Z AUTO 21006KT 10SM CLR 12/M02 A3018 7610 36 9100 210/06 RMK AO2 T01221022
93073KASE ASE20160716023511007/16/16 02:35:31  5-MIN KASE 160935Z AUTO 22007KT 10SM CLR 12/M02 A3018 7600 38 9100 210/07 RMK AO2 T01221017
93073KASE ASE20160716024011007/16/16 02:40:31  5-MIN KASE 160940Z AUTO 20005KT 10SM CLR 12/M02 A3018 7610 36 9100 190/05 RMK AO2 T01221022
93073KASE ASE20160716024511007/16/16 02:45:31  5-MIN KASE 160945Z AUTO 22006KT 10SM CLR 12/M02 A3018 7610 39 9000 210/06 RMK AO2 T01171017
93073KASE ASE20160716025011707/16/16 02:50:31  5-MIN KASE 160950Z AUTO 00000KT 10SM CLR 12/M02 A3018 7610 36 9100 000/00 RMK AO2 SLP082 T01221022
93073KASE ASE20160716025511007/16/16 02:55:31  5-MIN KASE 160955Z AUTO 20004KT 10SM CLR 11/M02 A3017 7610 41 8900 190/04 RMK AO2 T01111017
93073KASE ASE20160716030011007/16/16 03:00:31  5-MIN KASE 161000Z AUTO 22004KT 10SM CLR 11/M02 A3017 7610 41 8900 210/04 RMK AO2 T01111017
93073KASE ASE20160716030511007/16/16 03:05:31  5-MIN KASE 161005Z AUTO 22003KT 10SM CLR 11/M02 A3017 7610 42 8900 210/03 RMK AO2 T01061017
93073KASE ASE20160716031011007/16/16 03:10:31  5-MIN KASE 161010Z AUTO VRB04KT 10SM CLR 10/M01 A3017 7610 46 8800 VRB/04 RMK AO2 T01001011
93073KASE ASE20160716031511007/16/16 03:15:31  5-MIN KASE 161015Z AUTO 21005KT 10SM CLR 11/M02 A3017 7610 42 8900 200/05 RMK AO2 T01061017
93073KASE ASE20160716032011007/16/16 03:20:31  5-MIN KASE 161020Z AUTO 21006KT 10SM CLR 10/M02 A3017 7610 44 8800 210/06 RMK AO2 T01001017
93073KASE ASE20160716032511007/16/16 03:25:31  5-MIN KASE 161025Z AUTO 22008KT 10SM CLR 11/M02 A3017 7610 42 8900 210/08 RMK AO2 T01061017
93073KASE ASE20160716033011007/16/16 03:30:31  5-MIN KASE 161030Z AUTO 21008KT 10SM CLR 13/M03 A3017 7610 33 9100 210/08 RMK AO2 T01281028
93073KASE ASE20160716033511007/16/16 03:35:31  5-MIN KASE 161035Z AUTO 21007KT 10SM CLR 13/M03 A3017 7610 33 9100 210/07 RMK AO2 T01281028
93073KASE ASE20160716034011007/16/16 03:40:31  5-MIN KASE 161040Z AUTO 21007KT 10SM CLR 13/M03 A3017 7610 33 9100 200/07 RMK AO2 T01281028
93073KASE ASE20160716034511007/16/16 03:45:31  5-MIN KASE 161045Z AUTO 21007KT 10SM CLR 13/M03 A3017 7610 32 9100 200/07 RMK AO2 T01281033
93073KASE ASE20160716035011707/16/16 03:50:31  5-MIN KASE 161050Z AUTO 21006KT 10SM CLR 13/M03 A3017 7610 33 9100 210/06 RMK AO2 SLP075 T01281028
93073KASE ASE20160716035511007/16/16 03:55:31  5-MIN KASE 161055Z AUTO 21008KT 10SM CLR 12/M03 A3017 7610 35 9100 200/08 RMK AO2 T01221028
93073KASE ASE20160716040011007/16/16 04:00:31  5-MIN KASE 161100Z AUTO 21007KT 10SM CLR 13/M03 A3017 7610 32 9100 210/07 RMK AO2 T01281033
93073KASE ASE20160716040511007/16/16 04:05:31  5-MIN KASE 161105Z AUTO 20006KT 10SM CLR 13/M03 A3017 7610 32 9100 190/06 RMK AO2 T01281033
93073KASE ASE20160716041011007/16/16 04:10:31  5-MIN KASE 161110Z AUTO 20006KT 10SM CLR 12/M03 A3017 7610 33 9100 190/06 RMK AO2 T01221033
93073KASE ASE20160716041511007/16/16 04:15:31  5-MIN KASE 161115Z AUTO 20006KT 10SM CLR 11/M02 A3017 7610 40 8900 190/06 RMK AO2 T01061022
93073KASE ASE20160716042011007/16/16 04:20:31  5-MIN KASE 161120Z AUTO 21008KT 10SM CLR 11/M02 A3017 7610 39 8900 200/08 RMK AO2 T01111022
93073KASE ASE20160716042511007/16/16 04:25:31  5-MIN KASE 161125Z AUTO 22008KT 10SM CLR 12/M03 A3017 7610 36 9000 210/08 RMK AO2 T01171028
93073KASE ASE20160716043011007/16/16 04:30:31  5-MIN KASE 161130Z AUTO 21010KT 10SM CLR 12/M03 A3017 7610 36 9000 210/10 RMK AO2 T01171028
93073KASE ASE20160716043511007/16/16 04:35:31  5-MIN KASE 161135Z AUTO 22010KT 10SM CLR 12/M03 A3017 7610 36 9000 220/10 RMK AO2 T01171028
93073KASE ASE20160716044011007/16/16 04:40:31  5-MIN KASE 161140Z AUTO 22008KT 10SM CLR 13/M04 A3017 7610 30 9200 210/08 RMK AO2 T01331039
93073KASE ASE20160716044511007/16/16 04:45:31  5-MIN KASE 161145Z AUTO 22006KT 10SM CLR 12/M03 A3018 7600 33 9100 210/06 RMK AO2 T01221033
93073KASE ASE20160716045013507/16/16 04:50:31  5-MIN KASE 161150Z AUTO 00000KT 10SM CLR 11/M03 A3018 7600 37 8900 000/00 RMK AO2 SLP083 T01111028 10156 20094 58013
93073KASE ASE20160716045511007/16/16 04:55:31  5-MIN KASE 161155Z AUTO VRB03KT 10SM CLR 10/M02 A3018 7600 42 8800 VRB/03 RMK AO2 T01001022
93073KASE ASE20160716050011007/16/16 05:00:31  5-MIN KASE 161200Z AUTO 00000KT 10SM CLR 10/M02 A3018 7600 42 8800 000/00 RMK AO2 T01001022
93073KASE ASE20160716050511007/16/16 05:05:31  5-MIN KASE 161205Z AUTO 00000KT 10SM CLR 10/M02 A3018 7600 42 8800 000/00 RMK AO2 T01001022
93073KASE ASE20160716051011007/16/16 05:10:31  5-MIN KASE 161210Z AUTO 23003KT 10SM CLR 09/M02 A3018 7600 47 8700 220/03 RMK AO2 T00891017
93073KASE ASE20160716051511007/16/16 05:15:31  5-MIN KASE 161215Z AUTO 00000KT 10SM CLR 09/M01 A3018 7600 49 8700 000/00 RMK AO2 T00891011
93073KASE ASE20160716052011007/16/16 05:20:31  5-MIN KASE 161220Z AUTO 00000KT 10SM CLR 10/M01 A3018 7600 46 8800 000/00 RMK AO2 T01001011
93073KASE ASE20160716052511007/16/16 05:25:31  5-MIN KASE 161225Z AUTO 00000KT 10SM CLR 09/M01 A3018 7600 49 8700 000/00 RMK AO2 T00941006
93073KASE ASE20160716053011007/16/16 05:30:31  5-MIN KASE 161230Z AUTO 02003KT 10SM CLR 09/M01 A3019 7590 47 8700 010/03 RMK AO2 T00941011
93073KASE ASE20160716053511007/16/16 05:35:31  5-MIN KASE 161235Z AUTO 00000KT 10SM CLR 09/M02 A3019 7590 45 8700 000/00 RMK AO2 T00941017
93073KASE ASE20160716054011007/16/16 05:40:31  5-MIN KASE 161240Z AUTO 00000KT 10SM CLR 11/M02 A3019 7590 40 8900 000/00 RMK AO2 T01061022
93073KASE ASE20160716054510507/16/16 05:45:31  5-MIN KASE 161245Z 22003KT 10SM CLR 11/M01 A3019 7590 44 8900 210/03 RMK AO2 T01061011
93073KASE ASE20160716055011207/16/16 05:50:31  5-MIN KASE 161250Z 21003KT 10SM CLR 11/M01 A3019 7590 46 8800 210/03 RMK AO2 SLP093 T01061006
93073KASE ASE20160716055510507/16/16 05:55:31  5-MIN KASE 161255Z 13004KT 10SM CLR 13/M02 A3019 7590 36 9100 120/04 RMK AO2 T01281017
93073KASE ASE20160716060010507/16/16 06:00:31  5-MIN KASE 161300Z 00000KT 10SM CLR 13/M01 A3020 7590 38 9100 000/00 RMK AO2 T01281011
93073KASE ASE20160716060510507/16/16 06:05:31  5-MIN KASE 161305Z 11004KT 10SM CLR 14/M01 A3019 7590 37 9200 110/04 RMK AO2 T01391006
93073KASE ASE20160716061010507/16/16 06:10:31  5-MIN KASE 161310Z 13003KT 10SM CLR 14/M01 A3020 7590 35 9200 120/03 RMK AO2 T01391011
93073KASE ASE20160716061510507/16/16 06:15:31  5-MIN KASE 161315Z 00000KT 10SM CLR 15/M01 A3020 7590 34 9300 000/00 RMK AO2 T01501006
93073KASE ASE20160716062010507/16/16 06:20:31  5-MIN KASE 161320Z 00000KT 10SM CLR 16/M01 A3020 7580 31 9400 000/00 RMK AO2 T01561011
93073KASE ASE20160716062510407/16/16 06:25:31  5-MIN KASE 161325Z 00000KT 10SM CLR 16/00 A3020 7580 33 9500 000/00 RMK AO2 T01610000
93073KASE ASE20160716063010507/16/16 06:30:31  5-MIN KASE 161330Z 00000KT 10SM CLR 16/M01 A3020 7580 32 9500 000/00 RMK AO2 T01611006
93073KASE ASE20160716063510407/16/16 06:35:31  5-MIN KASE 161335Z 00000KT 10SM CLR 16/00 A3020 7580 33 9500 000/00 RMK AO2 T01610000
93073KASE ASE20160716064010507/16/16 06:40:31  5-MIN KASE 161340Z 00000KT 10SM CLR 16/M01 A3020 7580 32 9500 000/00 RMK AO2 T01611006
93073KASE ASE20160716064510407/16/16 06:45:31  5-MIN KASE 161345Z 00000KT 10SM CLR 16/00 A3020 7580 33 9500 000/00 RMK AO2 T01610000
93073KASE ASE20160716065011107/16/16 06:50:31  5-MIN KASE 161350Z 00000KT 10SM CLR 16/01 A3020 7580 34 9500 000/00 RMK AO2 SLP093 T01610006
93073KASE ASE20160716065510407/16/16 06:55:31  5-MIN KASE 161355Z 00000KT 10SM CLR 17/01 A3020 7580 34 9500 000/00 RMK AO2 T01670011
93073KASE ASE20160716070010407/16/16 07:00:31  5-MIN KASE 161400Z 35003KT 10SM CLR 17/00 A3020 7580 32 9500 340/03 RMK AO2 T01670000
93073KASE ASE20160716070510407/16/16 07:05:31  5-MIN KASE 161405Z 02004KT 10SM CLR 17/01 A3020 7580 33 9600 010/04 RMK AO2 T01720011
93073KASE ASE20160716071010407/16/16 07:10:31  5-MIN KASE 161410Z 00000KT 10SM CLR 17/02 A3020 7580 35 9600 000/00 RMK AO2 T01720017
93073KASE ASE20160716071510407/16/16 07:15:31  5-MIN KASE 161415Z 34003KT 10SM CLR 18/01 A3020 7580 31 9600 330/03 RMK AO2 T01780006
93073KASE ASE20160716072010407/16/16 07:20:31  5-MIN KASE 161420Z 35003KT 10SM CLR 18/01 A3020 7580 30 9700 340/03 RMK AO2 T01830006
93073KASE ASE20160716072510407/16/16 07:25:31  5-MIN KASE 161425Z 04004KT 10SM CLR 19/00 A3020 7580 28 9800 030/04 RMK AO2 T01890000
93073KASE ASE20160716073010407/16/16 07:30:31  5-MIN KASE 161430Z 33003KT 10SM CLR 19/00 A3020 7580 28 9800 320/03 RMK AO2 T01890000
93073KASE ASE20160716073510407/16/16 07:35:31  5-MIN KASE 161435Z 00000KT 10SM CLR 19/01 A3020 7580 28 9800 000/00 RMK AO2 T01940006
93073KASE ASE20160716074010407/16/16 07:40:31  5-MIN KASE 161440Z 00000KT 10SM CLR 20/01 A3020 7580 27 9900 000/00 RMK AO2 T02000006
93073KASE ASE20160716074510407/16/16 07:45:31  5-MIN KASE 161445Z 35004KT 10SM CLR 20/02 A3020 7590 29 9900 340/04 RMK AO2 T02000017
93073KASE ASE20160716075011707/16/16 07:50:31  5-MIN KASE 161450Z 34005KT 10SM CLR 20/01 A3020 7580 28 9900 330/05 RMK AO2 SLP089 T02000011 55001
93073KASE ASE20160716075510407/16/16 07:55:31  5-MIN KASE 161455Z 35003KT 10SM CLR 21/02 A3020 7580 29 9900 340/03 RMK AO2 T02060022
93073KASE ASE20160716080010507/16/16 08:00:31  5-MIN KASE 161500Z VRB03KT 10SM CLR 21/02 A3020 7580 27 10000 VRB/03 RMK AO2 T02110017
93073KASE ASE20160716080510507/16/16 08:05:31  5-MIN KASE 161505Z 34003KT 10SM CLR 21/01 A3020 7580 25 10000 330/03 RMK AO2 T02110006
93073KASE ASE20160716081010507/16/16 08:10:31  5-MIN KASE 161510Z VRB03KT 10SM CLR 22/01 A3020 7580 24 10100 VRB/03 RMK AO2 T02170006
93073KASE ASE20160716081510607/16/16 08:15:31  5-MIN KASE 161515Z 00000KT 10SM CLR 22/M01 A3020 7590 22 10100 000/00 RMK AO2 T02171006
93073KASE ASE20160716082010507/16/16 08:20:31  5-MIN KASE 161520Z 34005KT 10SM CLR 22/00 A3020 7580 22 10100 330/05 RMK AO2 T02220000
93073KASE ASE20160716082510507/16/16 08:25:31  5-MIN KASE 161525Z 36004KT 10SM CLR 22/00 A3020 7590 22 10100 350/04 RMK AO2 T02220000
93073KASE ASE20160716083010507/16/16 08:30:31  5-MIN KASE 161530Z VRB05KT 10SM CLR 23/02 A3019 7590 24 10200 VRB/05 RMK AO2 T02280017
93073KASE ASE20160716083510507/16/16 08:35:31  5-MIN KASE 161535Z 01005KT 10SM CLR 23/02 A3019 7590 25 10200 360/05 RMK AO2 T02280022
93073KASE ASE20160716084010507/16/16 08:40:31  5-MIN KASE 161540Z 35007KT 10SM CLR 23/02 A3019 7590 24 10300 340/07 RMK AO2 T02330022
93073KASE ASE20160716084510507/16/16 08:45:31  5-MIN KASE 161545Z 35007KT 10SM CLR 23/02 A3019 7590 24 10300 340/07 RMK AO2 T02330017
93073KASE ASE20160716085011207/16/16 08:50:31  5-MIN KASE 161550Z 34007KT 10SM CLR 23/02 A3019 7590 24 10300 330/07 RMK AO2 SLP084 T02330017
93073KASE ASE20160716085510507/16/16 08:55:31  5-MIN KASE 161555Z 35006KT 10SM CLR 24/01 A3019 7590 22 10300 340/06 RMK AO2 T02390011
93073KASE ASE20160716090010507/16/16 09:00:31  5-MIN KASE 161600Z 35006KT 10SM CLR 24/01 A3019 7590 21 10300 340/06 RMK AO2 T02390006
93073KASE ASE20160716090510507/16/16 09:05:31  5-MIN KASE 161605Z 36005KT 10SM CLR 24/01 A3019 7590 20 10400 350/05 RMK AO2 T02440006
93073KASE ASE20160716091010507/16/16 09:10:31  5-MIN KASE 161610Z 01005KT 10SM CLR 25/00 A3019 7590 19 10400 360/05 RMK AO2 T02500000
93073KASE ASE20160716091510507/16/16 09:15:31  5-MIN KASE 161615Z 35005KT 10SM CLR 26/00 A3019 7590 18 10500 350/05 RMK AO2 T02560000
93073KASE ASE20160716092010607/16/16 09:20:31  5-MIN KASE 161620Z 01005KT 10SM CLR 26/M01 A3020 7590 17 10500 360/05 RMK AO2 T02561011
93073KASE ASE20160716092510607/16/16 09:25:31  5-MIN KASE 161625Z 36004KT 10SM CLR 26/M03 A3020 7590 14 10500 350/04 RMK AO2 T02611033
93073KASE ASE20160716093010607/16/16 09:30:31  5-MIN KASE 161630Z 03004KT 10SM CLR 27/M04 A3019 7590 13 10600 020/04 RMK AO2 T02671039
93073KASE ASE20160716093510607/16/16 09:35:31  5-MIN KASE 161635Z VRB03KT 10SM CLR 27/M04 A3020 7590 12 10600 VRB/03 RMK AO2 T02671044
93073KASE ASE20160716094010607/16/16 09:40:31  5-MIN KASE 161640Z 05005KT 10SM CLR 27/M05 A3020 7590 12 10600 040/05 RMK AO2 T02671050
93073KASE ASE20160716094510607/16/16 09:45:31  5-MIN KASE 161645Z 04004KT 10SM CLR 27/M05 A3020 7590 12 10600 030/04 RMK AO2 T02671050
93073KASE ASE20160716095011307/16/16 09:50:31  5-MIN KASE 161650Z VRB03KT 10SM CLR 27/M05 A3019 7590 11 10700 VRB/03 RMK AO2 SLP073 T02721050
93073KASE ASE20160716095510607/16/16 09:55:31  5-MIN KASE 161655Z 02004KT 10SM CLR 27/M05 A3020 7590 11 10700 010/04 RMK AO2 T02721050
93073KASE ASE20160716100010607/16/16 10:00:31  5-MIN KASE 161700Z 33003KT 10SM CLR 27/M05 A3019 7590 11 10700 320/03 RMK AO2 T02721050
93073KASE ASE20160716100510607/16/16 10:05:31  5-MIN KASE 161705Z 00000KT 10SM CLR 27/M05 A3020 7590 12 10600 000/00 RMK AO2 T02671050
93073KASE ASE20160716101010607/16/16 10:10:31  5-MIN KASE 161710Z 00000KT 10SM CLR 27/M05 A3020 7580 11 10700 000/00 RMK AO2 T02721050
93073KASE ASE20160716101510607/16/16 10:15:31  5-MIN KASE 161715Z 00000KT 10SM CLR 27/M05 A3020 7580 11 10700 000/00 RMK AO2 T02721050
93073KASE ASE20160716102010607/16/16 10:20:31  5-MIN KASE 161720Z VRB04KT 10SM CLR 28/M04 A3020 7580 11 10700 VRB/04 RMK AO2 T02781044
93073KASE ASE20160716102510607/16/16 10:25:31  5-MIN KASE 161725Z 01006KT 10SM CLR 28/M03 A3019 7590 12 10800 010/06 RMK AO2 T02831033
93073KASE ASE20160716103010607/16/16 10:30:31  5-MIN KASE 161730Z 36006KT 10SM CLR 28/M04 A3020 7580 12 10700 350/06 RMK AO2 T02781039
93073KASE ASE20160716103510607/16/16 10:35:31  5-MIN KASE 161735Z VRB03KT 10SM CLR 28/M04 A3020 7580 11 10700 VRB/03 RMK AO2 T02781044
93073KASE ASE20160716104010607/16/16 10:40:31  5-MIN KASE 161740Z VRB05KT 10SM CLR 28/M04 A3020 7580 11 10700 VRB/05 RMK AO2 T02781044
93073KASE ASE20160716104511207/16/16 10:45:31  5-MIN KASE 161745Z VRB06G21KT 10SM CLR 28/M08 A3020 7580 09 10700 VRB/06G21 RMK AO2 T02781078
93073KASE ASE20160716105015307/16/16 10:50:31  5-MIN KASE 161750Z 28012G21KT 240V300 10SM CLR 28/M08 A3020 7580 09 10800 270/12G21 230V290 RMK AO2 SLP081 T02831078 10283 20089 50005
93073KASE ASE20160716105512807/16/16 10:55:31  5-MIN KASE 161755Z 25007G17KT 210V280 10SM CLR 28/M08 A3020 7580 08 10700 240/07G17 200V270 RMK AO2 T02781083
93073KASE ASE20160716110012807/16/16 11:00:31  5-MIN KASE 161800Z 25010G20KT 220V300 10SM CLR 28/M08 A3020 7580 08 10700 240/10G20 210V290 RMK AO2 T02781083
93073KASE ASE20160716110511207/16/16 11:05:31  5-MIN KASE 161805Z 24009G20KT 10SM CLR 28/M09 A3021 7580 08 10700 240/09G20 RMK AO2 T02781089
93073KASE ASE20160716111011207/16/16 11:10:31  5-MIN KASE 161810Z 27010G16KT 10SM CLR 28/M08 A3020 7580 08 10800 260/10G16 RMK AO2 T02831083
93073KASE ASE20160716111509607/16/16 11:15:31  5-MIN KASE 161815Z 10SM CLR 28/M09 A3020 7580 08 10700 M /M RMK AO2 T02781089
93073KASE ASE20160716112010607/16/16 11:20:31  5-MIN KASE 161820Z 30018KT 10SM CLR 28/M09 A3020 7590 08 10800 290/18 RMK AO2 T02831094
93073KASE ASE20160716112512207/16/16 11:25:31  5-MIN KASE 161825Z 27009KT 230V330 10SM CLR 28/M09 A3020 7580 08 10700 260/09 220V320 RMK AO2 T02781094
93073KASE ASE20160716113011207/16/16 11:30:31  5-MIN KASE 161830Z 24018G25KT 10SM CLR 28/M09 A3021 7580 08 10800 240/18G25 RMK AO2 T02831089
93073KASE ASE20160716113511207/16/16 11:35:31  5-MIN KASE 161835Z VRB05G25KT 10SM CLR 28/M09 A3021 7570 08 10700 VRB/05G25 RMK AO2 T02781094
93073KASE ASE20160716114012807/16/16 11:40:31  5-MIN KASE 161840Z 23010G20KT 190V290 10SM CLR 28/M09 A3021 7580 08 10800 220/10G20 180V280 RMK AO2 T02831089
93073KASE ASE20160716114513007/16/16 11:45:31  5-MIN KASE 161845Z 28013G26KT 10SM CLR 28/M09 A3020 7580 08 10700 270/13G26 RMK AO2 PK WND 26026/1844 T02781094
93073KASE ASE20160716115015307/16/16 11:50:31  5-MIN KASE 161850Z 36007G26KT 290V050 10SM CLR 28/M10 A3020 7580 07 10700 350/07G26 280V040 RMK AO2 PK WND 26026/1844 SLP080 T02781100
93073KASE ASE20160716115511207/16/16 11:55:31  5-MIN KASE 161855Z 29008G23KT 10SM CLR 28/M09 A3021 7580 08 10800 280/08G23 RMK AO2 T02831089
93073KASE ASE20160716120012807/16/16 12:00:31  5-MIN KASE 161900Z 25012G21KT 220V280 10SM CLR 28/M09 A3021 7570 08 10800 240/12G21 210V270 RMK AO2 T02831089
93073KASE ASE20160716120512807/16/16 12:05:31  5-MIN KASE 161905Z 26007G21KT 190V310 10SM CLR 28/M09 A3020 7580 08 10800 250/07G21 180V300 RMK AO2 T02831094
93073KASE ASE20160716121011207/16/16 12:10:31  5-MIN KASE 161910Z 24011G17KT 10SM CLR 28/M09 A3021 7580 08 10700 240/11G17 RMK AO2 T02781089
93073KASE ASE20160716121512807/16/16 12:15:31  5-MIN KASE 161915Z 25009G21KT 230V310 10SM CLR 28/M09 A3021 7580 08 10800 240/09G21 220V300 RMK AO2 T02831089
93073KASE ASE20160716122012807/16/16 12:20:31  5-MIN KASE 161920Z 32008G21KT 290V010 10SM CLR 28/M09 A3021 7580 08 10800 310/08G21 280V360 RMK AO2 T02831089
93073KASE ASE20160716122512807/16/16 12:25:31  5-MIN KASE 161925Z 20009G15KT 180V240 10SM CLR 29/M08 A3020 7580 08 10800 190/09G15 170V230 RMK AO2 T02891083
93073KASE ASE20160716123012207/16/16 12:30:31  5-MIN KASE 161930Z 29007KT 230V330 10SM CLR 28/M09 A3020 7580 08 10800 280/07 220V320 RMK AO2 T02831089
93073KASE ASE20160716123511207/16/16 12:35:31  5-MIN KASE 161935Z VRB06G17KT 10SM CLR 28/M09 A3020 7580 08 10800 VRB/06G17 RMK AO2 T02831089
93073KASE ASE20160716124012807/16/16 12:40:31  5-MIN KASE 161940Z 26013G20KT 240V300 10SM CLR 29/M09 A3020 7580 08 10800 250/13G20 230V290 RMK AO2 T02891089
93073KASE ASE20160716124511207/16/16 12:45:31  5-MIN KASE 161945Z 22011G20KT 10SM CLR 29/M09 A3020 7580 08 10800 210/11G20 RMK AO2 T02891089
93073KASE ASE20160716125013507/16/16 12:50:31  5-MIN KASE 161950Z 25007G19KT 190V280 10SM CLR 28/M09 A3020 7580 08 10800 240/07G19 180V270 RMK AO2 SLP079 T02831089
93073KASE ASE20160716125509607/16/16 12:55:31  5-MIN KASE 161955Z 10SM CLR 29/M08 A3020 7590 08 10800 M /M RMK AO2 T02891083
93073KASE ASE20160716130012807/16/16 13:00:31  5-MIN KASE 162000Z 23009G17KT 180V260 10SM CLR 29/M08 A3020 7580 08 10800 220/09G17 170V250 RMK AO2 T02891083
93073KASE ASE20160716130511207/16/16 13:05:31  5-MIN KASE 162005Z 22013G23KT 10SM CLR 28/M09 A3020 7580 08 10800 210/13G23 RMK AO2 T02831089
93073KASE ASE20160716131012807/16/16 13:10:31  5-MIN KASE 162010Z 20009G23KT 160V240 10SM CLR 28/M09 A3020 7580 08 10800 200/09G23 150V230 RMK AO2 T02831089
93073KASE ASE20160716131512807/16/16 13:15:31  5-MIN KASE 162015Z 23007G17KT 090V280 10SM CLR 29/M08 A3019 7590 08 10800 220/07G17 080V270 RMK AO2 T02891083
93073KASE ASE20160716132012807/16/16 13:20:31  5-MIN KASE 162020Z 28014G20KT 240V310 10SM CLR 29/M08 A3019 7590 08 10800 270/14G20 230V300 RMK AO2 T02891083
93073KASE ASE20160716132512807/16/16 13:25:31  5-MIN KASE 162025Z 26007G20KT 240V300 10SM CLR 29/M09 A3019 7590 07 10800 250/07G20 230V290 RMK AO2 T02891094
93073KASE ASE20160716133010607/16/16 13:30:31  5-MIN KASE 162030Z 00000KT 10SM CLR 28/M09 A3019 7590 08 10800 000/00 RMK AO2 T02831094
93073KASE ASE20160716133509607/16/16 13:35:31  5-MIN KASE 162035Z 10SM CLR 29/M08 A3019 7590 08 10900 M /M RMK AO2 T02941083
93073KASE ASE20160716134012207/16/16 13:40:31  5-MIN KASE 162040Z 22008KT 090V290 10SM CLR 29/M08 A3019 7590 08 10900 210/08 080V280 RMK AO2 T02941078
93073KASE ASE20160716134512807/16/16 13:45:31  5-MIN KASE 162045Z 19007G17KT 130V220 10SM CLR 29/M08 A3019 7590 08 10800 180/07G17 120V210 RMK AO2 T02891078
93073KASE ASE20160716135012507/16/16 13:50:31  5-MIN KASE 162050Z VRB03G17KT 10SM CLR 29/M08 A3019 7600 08 10900 VRB/03G17 RMK AO2 SLP078 T02891078 55000
93073KASE ASE20160716135510607/16/16 13:55:31  5-MIN KASE 162055Z VRB03KT 10SM CLR 29/M08 A3018 7600 08 10900 VRB/03 RMK AO2 T02891083
93073KASE ASE20160716140009607/16/16 14:00:31  5-MIN KASE 162100Z 10SM CLR 29/M08 A3018 7600 08 10900 M /M RMK AO2 T02891078
93073KASE ASE20160716140509607/16/16 14:05:31  5-MIN KASE 162105Z 10SM CLR 29/M08 A3018 7600 08 10900 M /M RMK AO2 T02941078
93073KASE ASE20160716141012207/16/16 14:10:31  5-MIN KASE 162110Z 18009KT 140V210 10SM CLR 29/M08 A3018 7600 08 10900 170/09 130V200 RMK AO2 T02941078
93073KASE ASE20160716141512207/16/16 14:15:31  5-MIN KASE 162115Z 20008KT 160V230 10SM CLR 29/M07 A3018 7600 08 10900 190/08 150V220 RMK AO2 T02941072
93073KASE ASE20160716142011207/16/16 14:20:31  5-MIN KASE 162120Z 22012G21KT 10SM CLR 29/M07 A3018 7600 08 10900 210/12G21 RMK AO2 T02941072
93073KASE ASE20160716142512807/16/16 14:25:31  5-MIN KASE 162125Z 20013G21KT 160V250 10SM CLR 29/M07 A3019 7600 08 10900 190/13G21 150V240 RMK AO2 T02941072
93073KASE ASE20160716143011207/16/16 14:30:31  5-MIN KASE 162130Z 22011G21KT 10SM CLR 29/M08 A3018 7600 08 10900 210/11G21 RMK AO2 T02891083
93073KASE ASE20160716143509607/16/16 14:35:31  5-MIN KASE 162135Z 10SM CLR 29/M09 A3018 7600 08 10900 M /M RMK AO2 T02891089
93073KASE ASE20160716144012807/16/16 14:40:31  5-MIN KASE 162140Z 20009G14KT 160V240 10SM CLR 29/M08 A3018 7610 08 10900 190/09G14 150V230 RMK AO2 T02891078
93073KASE ASE20160716144511207/16/16 14:45:31  5-MIN KASE 162145Z 22016G22KT 10SM CLR 29/M08 A3017 7610 08 10900 210/16G22 RMK AO2 T02891078
93073KASE ASE20160716145013507/16/16 14:50:31  5-MIN KASE 162150Z 22011G22KT 180V240 10SM CLR 28/M08 A3017 7610 09 10800 210/11G22 170V230 RMK AO2 SLP075 T02831078
93073KASE ASE20160716145511207/16/16 14:55:31  5-MIN KASE 162155Z 21008G21KT 10SM CLR 28/M07 A3017 7610 09 10800 200/08G21 RMK AO2 T02831067
93073KASE ASE20160716150010607/16/16 15:00:31  5-MIN KASE 162200Z 21009KT 10SM CLR 28/M07 A3017 7610 09 10800 200/09 RMK AO2 T02781072
93073KASE ASE20160716150510607/16/16 15:05:31  5-MIN KASE 162205Z 20011KT 10SM CLR 29/M06 A3017 7610 09 10900 190/11 RMK AO2 T02941061
93073KASE ASE20160716151011207/16/16 15:10:31  5-MIN KASE 162210Z 23011G19KT 10SM CLR 29/M07 A3017 7610 09 10900 230/11G19 RMK AO2 T02891072
93073KASE ASE20160716151511207/16/16 15:15:31  5-MIN KASE 162215Z 21012G19KT 10SM CLR 28/M07 A3017 7610 09 10800 200/12G19 RMK AO2 T02831067
93073KASE ASE20160716152011207/16/16 15:20:31  5-MIN KASE 162220Z 23005G17KT 10SM CLR 28/M07 A3017 7610 10 10800 220/05G17 RMK AO2 T02781067
93073KASE ASE20160716152510607/16/16 15:25:31  5-MIN KASE 162225Z VRB05KT 10SM CLR 28/M07 A3017 7610 09 10800 VRB/05 RMK AO2 T02831067
93073KASE ASE20160716153010607/16/16 15:30:31  5-MIN KASE 162230Z VRB06KT 10SM CLR 29/M07 A3017 7610 09 10900 VRB/06 RMK AO2 T02891072
93073KASE ASE20160716153510607/16/16 15:35:31  5-MIN KASE 162235Z VRB06KT 10SM CLR 28/M07 A3017 7610 10 10800 VRB/06 RMK AO2 T02781067
93073KASE ASE20160716154012207/16/16 15:40:31  5-MIN KASE 162240Z 21007KT 140V250 10SM CLR 28/M06 A3017 7610 10 10800 200/07 130V240 RMK AO2 T02781061
93073KASE ASE20160716154511207/16/16 15:45:31  5-MIN KASE 162245Z 22011G16KT 10SM CLR 28/M06 A3017 7610 10 10800 210/11G16 RMK AO2 T02831061
93073KASE ASE20160716155013507/16/16 15:50:31  5-MIN KASE 162250Z 26007G16KT 210V340 10SM CLR 28/M07 A3017 7610 09 10800 250/07G16 200V330 RMK AO2 SLP074 T02831067
93073KASE ASE20160716155509607/16/16 15:55:31  5-MIN KASE 162255Z 10SM CLR 29/M07 A3017 7610 09 10900 M /M RMK AO2 T02891067
93073KASE ASE20160716160011207/16/16 16:00:31  5-MIN KASE 162300Z 21012G18KT 10SM CLR 28/M07 A3017 7610 09 10800 200/12G18 RMK AO2 T02831067
93073KASE ASE20160716160511207/16/16 16:05:31  5-MIN KASE 162305Z 20009G18KT 10SM CLR 27/M07 A3017 7610 10 10700 190/09G18 RMK AO2 T02721067
93073KASE ASE20160716161010607/16/16 16:10:31  5-MIN KASE 162310Z 20008KT 10SM CLR 28/M06 A3017 7610 10 10800 190/08 RMK AO2 T02781061
93073KASE ASE20160716161510607/16/16 16:15:31  5-MIN KASE 162315Z 18013KT 10SM CLR 28/M06 A3017 7610 10 10800 170/13 RMK AO2 T02831061
93073KASE ASE20160716162010607/16/16 16:20:31  5-MIN KASE 162320Z 19009KT 10SM CLR 28/M07 A3017 7610 10 10800 180/09 RMK AO2 T02781067
93073KASE ASE20160716162510607/16/16 16:25:31  5-MIN KASE 162325Z 20007KT 10SM CLR 28/M07 A3017 7610 10 10800 200/07 RMK AO2 T02781067
93073KASE ASE20160716163010607/16/16 16:30:31  5-MIN KASE 162330Z VRB06KT 10SM CLR 27/M06 A3017 7610 11 10700 VRB/06 RMK AO2 T02721056
93073KASE ASE20160716163512807/16/16 16:35:31  5-MIN KASE 162335Z 21009G15KT 190V270 10SM CLR 27/M06 A3017 7610 11 10700 200/09G15 180V260 RMK AO2 T02721056
93073KASE ASE20160716164011207/16/16 16:40:31  5-MIN KASE 162340Z 20006G15KT 10SM CLR 27/M04 A3016 7620 12 10700 190/06G15 RMK AO2 T02721044
93073KASE ASE20160716164510607/16/16 16:45:31  5-MIN KASE 162345Z 23008KT 10SM CLR 28/M06 A3017 7610 10 10800 220/08 RMK AO2 T02781061
93073KASE ASE20160716165013107/16/16 16:50:31  5-MIN KASE 162350Z 22007KT 10SM CLR 27/M06 A3016 7620 11 10700 210/07 RMK AO2 SLP078 T02721056 10300 20272 58005
93073KASE ASE20160716165510607/16/16 16:55:31  5-MIN KASE 162355Z 20005KT 10SM CLR 27/M05 A3016 7620 12 10600 190/05 RMK AO2 T02671050
93073KASE ASE20160716170010607/16/16 17:00:31  5-MIN KASE 170000Z 21008KT 10SM CLR 27/M05 A3016 7620 12 10600 200/08 RMK AO2 T02671050
93073KASE ASE20160716170510607/16/16 17:05:31  5-MIN KASE 170005Z VRB04KT 10SM CLR 28/M05 A3016 7620 11 10800 VRB/04 RMK AO2 T02781050
93073KASE ASE20160716171010607/16/16 17:10:31  5-MIN KASE 170010Z VRB04KT 10SM CLR 28/M06 A3016 7620 10 10800 VRB/04 RMK AO2 T02781061
93073KASE ASE20160716171512207/16/16 17:15:31  5-MIN KASE 170015Z 19008KT 170V240 10SM CLR 28/M06 A3016 7620 10 10800 180/08 160V230 RMK AO2 T02831061
93073KASE ASE20160716172011207/16/16 17:20:31  5-MIN KASE 170020Z 20008G18KT 10SM CLR 28/M06 A3016 7620 10 10800 190/08G18 RMK AO2 T02831056
93073KASE ASE20160716172512807/16/16 17:25:31  5-MIN KASE 170025Z 20009G18KT 150V270 10SM CLR 28/M05 A3016 7620 11 10800 190/09G18 140V260 RMK AO2 T02831050
93073KASE ASE20160716173011207/16/16 17:30:31  5-MIN KASE 170030Z 20013G20KT 10SM CLR 28/M06 A3016 7620 11 10800 190/13G20 RMK AO2 T02781056
93073KASE ASE20160716173511207/16/16 17:35:31  5-MIN KASE 170035Z 20008G20KT 10SM CLR 28/M07 A3016 7620 09 10800 190/08G20 RMK AO2 T02831067
93073KASE ASE20160716174011207/16/16 17:40:31  5-MIN KASE 170040Z 21011G18KT 10SM CLR 28/M06 A3016 7620 10 10800 200/11G18 RMK AO2 T02781061
93073KASE ASE20160716174511207/16/16 17:45:31  5-MIN KASE 170045Z 20009G17KT 10SM CLR 28/M06 A3016 7620 10 10800 190/09G17 RMK AO2 T02781061
93073KASE ASE20160716175013507/16/16 17:50:31  5-MIN KASE 170050Z 22009G17KT 190V280 10SM CLR 28/M07 A3016 7620 09 10800 210/09G17 180V270 RMK AO2 SLP078 T02781072
93073KASE ASE20160716175511207/16/16 17:55:31  5-MIN KASE 170055Z 21007G16KT 10SM CLR 27/M07 A3016 7620 10 10700 200/07G16 RMK AO2 T02721067
93073KASE ASE20160716180011207/16/16 18:00:31  5-MIN KASE 170100Z 19010G18KT 10SM CLR 27/M06 A3016 7620 10 10700 190/10G18 RMK AO2 T02721061
93073KASE ASE20160716180511207/16/16 18:05:31  5-MIN KASE 170105Z 18008G18KT 10SM CLR 28/M08 A3016 7620 09 10800 170/08G18 RMK AO2 T02781078
93073KASE ASE20160716181010607/16/16 18:10:31  5-MIN KASE 170110Z 20006KT 10SM CLR 28/M06 A3016 7620 10 10800 190/06 RMK AO2 T02781061
93073KASE ASE20160716181510607/16/16 18:15:31  5-MIN KASE 170115Z 22006KT 10SM CLR 27/M07 A3016 7620 10 10700 210/06 RMK AO2 T02721067
93073KASE ASE20160716182010607/16/16 18:20:31  5-MIN KASE 170120Z 22007KT 10SM CLR 27/M06 A3016 7620 10 10700 210/07 RMK AO2 T02721061
93073KASE ASE20160716182510607/16/16 18:25:31  5-MIN KASE 170125Z 21008KT 10SM CLR 27/M06 A3016 7620 11 10600 200/08 RMK AO2 T02671061
93073KASE ASE20160716183010607/16/16 18:30:31  5-MIN KASE 170130Z 24007KT 10SM CLR 26/M05 A3017 7620 12 10600 230/07 RMK AO2 T02611050
93073KASE ASE20160716183510607/16/16 18:35:31  5-MIN KASE 170135Z 23003KT 10SM CLR 25/M04 A3017 7610 14 10500 220/03 RMK AO2 T02501044
93073KASE ASE20160716184010607/16/16 18:40:31  5-MIN KASE 170140Z VRB04KT 10SM CLR 26/M05 A3017 7610 12 10600 VRB/04 RMK AO2 T02611050
93073KASE ASE20160716184510607/16/16 18:45:31  5-MIN KASE 170145Z 02003KT 10SM CLR 26/M04 A3017 7610 14 10500 010/03 RMK AO2 T02561039
93073KASE ASE20160716185011307/16/16 18:50:31  5-MIN KASE 170150Z 00000KT 10SM CLR 25/M04 A3017 7610 14 10500 000/00 RMK AO2 SLP074 T02501039
93073KASE ASE20160716185511107/16/16 18:55:31  5-MIN KASE 170155Z AUTO 00000KT 10SM CLR 23/M02 A3017 7610 18 10300 000/00 RMK AO2 T02331017
93073KASE ASE20160716190011007/16/16 19:00:31  5-MIN KASE 170200Z AUTO 00000KT 10SM CLR 22/00 A3017 7610 23 10100 000/00 RMK AO2 T02170000
93073KASE ASE20160716190511007/16/16 19:05:31  5-MIN KASE 170205Z AUTO VRB03KT 10SM CLR 21/01 A3017 7610 25 10000 VRB/03 RMK AO2 T02110006
93073KASE ASE20160716191011007/16/16 19:10:31  5-MIN KASE 170210Z AUTO 23005KT 10SM CLR 21/01 A3017 7610 27 10000 220/05 RMK AO2 T02060011
93073KASE ASE20160716191511007/16/16 19:15:31  5-MIN KASE 170215Z AUTO 23006KT 10SM CLR 21/00 A3017 7610 24 10000 220/06 RMK AO2 T02110000
93073KASE ASE20160716192011107/16/16 19:20:31  5-MIN KASE 170220Z AUTO 22005KT 10SM CLR 22/M01 A3017 7610 22 10100 210/05 RMK AO2 T02171006
93073KASE ASE20160716192511007/16/16 19:25:31  5-MIN KASE 170225Z AUTO 22006KT 10SM CLR 21/00 A3018 7610 25 10000 210/06 RMK AO2 T02060000
93073KASE ASE20160716193011007/16/16 19:30:31  5-MIN KASE 170230Z AUTO 23005KT 10SM CLR 20/M01 A3018 7600 24 9900 220/05 RMK AO2 T02001011
93073KASE ASE20160716193511107/16/16 19:35:31  5-MIN KASE 170235Z AUTO 21004KT 10SM CLR 21/M01 A3018 7600 23 10000 210/04 RMK AO2 T02061011
93073KASE ASE20160716194011007/16/16 19:40:31  5-MIN KASE 170240Z AUTO 18006KT 10SM CLR 21/00 A3018 7600 25 10000 170/06 RMK AO2 T02060000
93073KASE ASE20160716194511007/16/16 19:45:31  5-MIN KASE 170245Z AUTO 19006KT 10SM CLR 21/00 A3018 7600 25 10000 180/06 RMK AO2 T02060000
93073KASE ASE20160716195012407/16/16 19:50:31  5-MIN KASE 170250Z AUTO 21004KT 10SM CLR 21/M01 A3018 7600 24 10000 200/04 RMK AO2 SLP081 T02061006 56006
93073KASE ASE20160716195510907/16/16 19:55:31  5-MIN KASE 170255Z AUTO 19007KT 10SM CLR 19/01 A3018 7600 28 9800 180/07 RMK AO2 T01940006
93073KASE ASE20160716200010907/16/16 20:00:31  5-MIN KASE 170300Z AUTO 20008KT 10SM CLR 20/00 A3019 7590 26 9900 190/08 RMK AO2 T02000000
93073KASE ASE20160716200511307/16/16 20:05:31  5-MIN KASE 170305Z AUTO VRB05KT 10SM FEW120 20/M01 A3019 7600 24 9900 VRB/05 RMK AO2 T02001011
93073KASE ASE20160716201011007/16/16 20:10:31  5-MIN KASE 170310Z AUTO 20005KT 10SM CLR 20/M01 A3019 7590 24 9900 200/05 RMK AO2 T02001011
93073KASE ASE20160716201511007/16/16 20:15:31  5-MIN KASE 170315Z AUTO 21005KT 10SM CLR 20/M01 A3019 7590 24 9900 200/05 RMK AO2 T02001011
93073KASE ASE20160716202011007/16/16 20:20:31  5-MIN KASE 170320Z AUTO 23007KT 10SM CLR 18/M01 A3019 7590 28 9700 220/07 RMK AO2 T01781006
93073KASE ASE20160716202511007/16/16 20:25:31  5-MIN KASE 170325Z AUTO 19008KT 10SM CLR 18/M01 A3019 7590 28 9700 180/08 RMK AO2 T01781006
93073KASE ASE20160716203011007/16/16 20:30:31  5-MIN KASE 170330Z AUTO 19008KT 10SM CLR 18/M01 A3019 7590 28 9700 180/08 RMK AO2 T01781006
93073KASE ASE20160716203511007/16/16 20:35:31  5-MIN KASE 170335Z AUTO 18007KT 10SM CLR 18/M01 A3019 7590 27 9700 180/07 RMK AO2 T01831006
93073KASE ASE20160716204011007/16/16 20:40:31  5-MIN KASE 170340Z AUTO 24008KT 10SM CLR 18/M01 A3019 7590 28 9700 230/08 RMK AO2 T01781006
93073KASE ASE20160716204511007/16/16 20:45:31  5-MIN KASE 170345Z AUTO 23008KT 10SM CLR 18/M02 A3020 7580 25 9700 220/08 RMK AO2 T01831017
93073KASE ASE20160716205011707/16/16 20:50:31  5-MIN KASE 170350Z AUTO VRB05KT 10SM CLR 19/M02 A3020 7580 24 9800 VRB/05 RMK AO2 SLP085 T01891017
93073KASE ASE20160716205511007/16/16 20:55:31  5-MIN KASE 170355Z AUTO 16006KT 10SM CLR 19/M01 A3021 7580 25 9800 150/06 RMK AO2 T01891011
93073KASE ASE20160716210011007/16/16 21:00:31  5-MIN KASE 170400Z AUTO 21006KT 10SM CLR 18/M01 A3021 7580 26 9700 200/06 RMK AO2 T01831011
93073KASE ASE20160717180510607/17/16 18:05:31  5-MIN KASE 180105Z 19005KT 10SM CLR 28/M04 A3028 7510 12 10600 180/05 RMK AO2 T02781039
93073KASE ASE20160717181010607/17/16 18:10:31  5-MIN KASE 180110Z 19008KT 10SM CLR 28/M03 A3028 7510 12 10600 180/08 RMK AO2 T02781033
93073KASE ASE20160717181510607/17/16 18:15:31  5-MIN KASE 180115Z 20006KT 10SM CLR 28/M03 A3028 7510 12 10600 190/06 RMK AO2 T02781033
93073KASE ASE20160717182010607/17/16 18:20:31  5-MIN KASE 180120Z 25005KT 10SM CLR 26/M02 A3028 7510 16 10500 240/05 RMK AO2 T02611017
93073KASE ASE20160717182510607/17/16 18:25:31  5-MIN KASE 180125Z 28004KT 10SM CLR 25/M02 A3028 7510 17 10300 270/04 RMK AO2 T02501017
93073KASE ASE20160717183010507/17/16 18:30:31  5-MIN KASE 180130Z 27003KT 10SM CLR 24/00 A3028 7510 20 10200 270/03 RMK AO2 T02390000
93073KASE ASE20160717183510507/17/16 18:35:31  5-MIN KASE 180135Z 25004KT 10SM CLR 23/00 A3028 7510 21 10200 240/04 RMK AO2 T02330000
93073KASE ASE20160717184010607/17/16 18:40:31  5-MIN KASE 180140Z 00000KT 10SM CLR 24/M02 A3028 7510 17 10300 000/00 RMK AO2 T02441017
93073KASE ASE20160717184510507/17/16 18:45:31  5-MIN KASE 180145Z 22003KT 10SM CLR 22/01 A3028 7510 23 10000 210/03 RMK AO2 T02220006
93073KASE ASE20160717185011707/17/16 18:50:31  5-MIN KASE 180150Z AUTO 22005KT 10SM CLR 22/02 A3028 7510 27 10000 210/05 RMK AO2 SLP120 T02170022
93073KASE ASE20160717185510907/17/16 18:55:31  5-MIN KASE 180155Z AUTO VRB04KT 10SM CLR 21/01 A3028 7510 26 9900 VRB/04 RMK AO2 T02110011
93073KASE ASE20160717190011007/17/16 19:00:31  5-MIN KASE 180200Z AUTO 00000KT 10SM CLR 22/00 A3029 7510 23 10000 000/00 RMK AO2 T02170000
93073KASE ASE20160717190511107/17/16 19:05:31  5-MIN KASE 180205Z AUTO 00000KT 10SM CLR 22/M01 A3029 7500 21 10000 000/00 RMK AO2 T02221006
93073KASE ASE20160717191010907/17/16 19:10:31  5-MIN KASE 180210Z AUTO 00000KT 10SM CLR 21/01 A3029 7500 26 9900 000/00 RMK AO2 T02110011
93073KASE ASE20160717191510907/17/16 19:15:31  5-MIN KASE 180215Z AUTO 00000KT 10SM CLR 19/02 A3029 7500 31 9700 000/00 RMK AO2 T01940022
93073KASE ASE20160717192010907/17/16 19:20:31  5-MIN KASE 180220Z AUTO 00000KT 10SM CLR 21/02 A3029 7500 28 9900 000/00 RMK AO2 T02060017
93073KASE ASE20160717192510907/17/16 19:25:31  5-MIN KASE 180225Z AUTO 22003KT 10SM CLR 19/02 A3029 7500 31 9700 210/03 RMK AO2 T01940022
93073KASE ASE20160717193010907/17/16 19:30:31  5-MIN KASE 180230Z AUTO 22004KT 10SM CLR 19/03 A3029 7500 34 9700 210/04 RMK AO2 T01890028
93073KASE ASE20160717193510907/17/16 19:35:31  5-MIN KASE 180235Z AUTO 18006KT 10SM CLR 21/01 A3029 7500 27 9800 170/06 RMK AO2 T02060011
93073KASE ASE20160717194010907/17/16 19:40:31  5-MIN KASE 180240Z AUTO 18007KT 10SM CLR 19/02 A3029 7500 30 9700 170/07 RMK AO2 T01940017
93073KASE ASE20160717194510907/17/16 19:45:31  5-MIN KASE 180245Z AUTO 18007KT 10SM CLR 20/01 A3029 7500 28 9800 170/07 RMK AO2 T02000011
93073KASE ASE20160717195012207/17/16 19:50:31  5-MIN KASE 180250Z AUTO 18008KT 10SM CLR 19/02 A3029 7500 31 9700 170/08 RMK AO2 SLP124 T01890017 56005
93073KASE ASE20160717195510907/17/16 19:55:31  5-MIN KASE 180255Z AUTO 20007KT 10SM CLR 19/02 A3030 7500 31 9700 190/07 RMK AO2 T01890017
93073KASE ASE20160717200010907/17/16 20:00:31  5-MIN KASE 180300Z AUTO 21008KT 10SM CLR 19/02 A3030 7490 30 9700 210/08 RMK AO2 T01940017
93073KASE ASE20160717200510907/17/16 20:05:31  5-MIN KASE 180305Z AUTO 20008KT 10SM CLR 19/02 A3030 7490 31 9600 200/08 RMK AO2 T01890017
93073KASE ASE20160717201010907/17/16 20:10:31  5-MIN KASE 180310Z AUTO 20007KT 10SM CLR 19/02 A3031 7490 31 9600 190/07 RMK AO2 T01890017
93073KASE ASE20160717201510907/17/16 20:15:31  5-MIN KASE 180315Z AUTO 21007KT 10SM CLR 18/02 A3031 7480 32 9600 200/07 RMK AO2 T01830017
93073KASE ASE20160717202010907/17/16 20:20:31  5-MIN KASE 180320Z AUTO 21009KT 10SM CLR 18/02 A3031 7480 33 9500 200/09 RMK AO2 T01780017
93073KASE ASE20160717202510907/17/16 20:25:31  5-MIN KASE 180325Z AUTO 20007KT 10SM CLR 18/02 A3031 7480 33 9500 190/07 RMK AO2 T01780017
93073KASE ASE20160717203010907/17/16 20:30:31  5-MIN KASE 180330Z AUTO 21009KT 10SM CLR 17/02 A3032 7470 35 9500 200/09 RMK AO2 T01720017
93073KASE ASE20160717203510907/17/16 20:35:31  5-MIN KASE 180335Z AUTO 19007KT 10SM CLR 17/02 A3032 7470 35 9400 180/07 RMK AO2 T01720017
93073KASE ASE20160717204010907/17/16 20:40:31  5-MIN KASE 180340Z AUTO 21008KT 10SM CLR 17/02 A3032 7470 36 9400 200/08 RMK AO2 T01670017
93073KASE ASE20160717204510907/17/16 20:45:31  5-MIN KASE 180345Z AUTO 21008KT 10SM CLR 18/01 A3033 7470 32 9500 200/08 RMK AO2 T01780011
93073KASE ASE20160717205011607/17/16 20:50:31  5-MIN KASE 180350Z AUTO 21008KT 10SM CLR 18/01 A3033 7470 32 9500 200/08 RMK AO2 SLP131 T01780011
93073KASE ASE20160717205510907/17/16 20:55:31  5-MIN KASE 180355Z AUTO 21008KT 10SM CLR 18/01 A3033 7470 32 9500 200/08 RMK AO2 T01780011
93073KASE ASE20160717210010907/17/16 21:00:31  5-MIN KASE 180400Z AUTO 21008KT 10SM CLR 17/01 A3033 7460 33 9400 200/08 RMK AO2 T01720011
93073KASE ASE20160717210510907/17/16 21:05:31  5-MIN KASE 180405Z AUTO 21007KT 10SM CLR 17/01 A3033 7460 33 9400 200/07 RMK AO2 T01720011
93073KASE ASE20160717211010907/17/16 21:10:31  5-MIN KASE 180410Z AUTO 21007KT 10SM CLR 17/01 A3034 7460 33 9400 200/07 RMK AO2 T01720011
93073KASE ASE20160717211510907/17/16 21:15:31  5-MIN KASE 180415Z AUTO 21008KT 10SM CLR 17/01 A3034 7460 33 9400 200/08 RMK AO2 T01720011
93073KASE ASE20160717212010907/17/16 21:20:31  5-MIN KASE 180420Z AUTO 21007KT 10SM CLR 17/01 A3034 7460 33 9400 200/07 RMK AO2 T01720011
93073KASE ASE20160717212510907/17/16 21:25:31  5-MIN KASE 180425Z AUTO 21007KT 10SM CLR 17/01 A3034 7450 33 9400 200/07 RMK AO2 T01720011
93073KASE ASE20160717213010907/17/16 21:30:31  5-MIN KASE 180430Z AUTO 22009KT 10SM CLR 16/01 A3034 7450 36 9300 210/09 RMK AO2 T01610011
93073KASE ASE20160717213510907/17/16 21:35:31  5-MIN KASE 180435Z AUTO 19007KT 10SM CLR 18/01 A3034 7450 31 9500 180/07 RMK AO2 T01780006
93073KASE ASE20160717214010907/17/16 21:40:31  5-MIN KASE 180440Z AUTO 20006KT 10SM CLR 18/01 A3034 7450 31 9500 190/06 RMK AO2 T01780006
93073KASE ASE20160717214510907/17/16 21:45:31  5-MIN KASE 180445Z AUTO 22008KT 10SM CLR 17/01 A3035 7450 32 9400 210/08 RMK AO2 T01720006
93073KASE ASE20160717215011607/17/16 21:50:31  5-MIN KASE 180450Z AUTO 22009KT 10SM CLR 17/01 A3035 7450 32 9400 210/09 RMK AO2 SLP133 T01720006
93073KASE ASE20160717215510907/17/16 21:55:31  5-MIN KASE 180455Z AUTO 21008KT 10SM CLR 18/01 A3035 7450 31 9500 200/08 RMK AO2 T01780006
93073KASE ASE20160717220010907/17/16 22:00:31  5-MIN KASE 180500Z AUTO 20006KT 10SM CLR 17/01 A3034 7450 32 9400 190/06 RMK AO2 T01720006
93073KASE ASE20160717220510907/17/16 22:05:31  5-MIN KASE 180505Z AUTO 23007KT 10SM CLR 17/01 A3035 7450 33 9400 220/07 RMK AO2 T01670006
93073KASE ASE20160717221010907/17/16 22:10:31  5-MIN KASE 180510Z AUTO 21008KT 10SM CLR 17/01 A3035 7450 32 9400 200/08 RMK AO2 T01720006
93073KASE ASE20160717221510907/17/16 22:15:31  5-MIN KASE 180515Z AUTO 22007KT 10SM CLR 17/01 A3035 7450 32 9400 210/07 RMK AO2 T01720006
93073KASE ASE20160717222010907/17/16 22:20:31  5-MIN KASE 180520Z AUTO 21007KT 10SM CLR 17/01 A3035 7450 33 9400 200/07 RMK AO2 T01670006
93073KASE ASE20160717222510907/17/16 22:25:31  5-MIN KASE 180525Z AUTO 21008KT 10SM CLR 16/01 A3035 7450 36 9300 200/08 RMK AO2 T01610011
93073KASE ASE20160717223010907/17/16 22:30:31  5-MIN KASE 180530Z AUTO 21007KT 10SM CLR 16/01 A3035 7450 36 9300 200/07 RMK AO2 T01610011
93073KASE ASE20160717223510907/17/16 22:35:31  5-MIN KASE 180535Z AUTO 21007KT 10SM CLR 16/01 A3035 7450 36 9300 200/07 RMK AO2 T01610011
93073KASE ASE20160717224010907/17/16 22:40:31  5-MIN KASE 180540Z AUTO 21008KT 10SM CLR 16/01 A3035 7450 37 9200 200/08 RMK AO2 T01560011
93073KASE ASE20160717224511207/17/16 22:45:31  5-MIN KASE 180545Z AUTO 21009KT 10SM FEW110 15/02 A3035 7450 40 9200 200/09 RMK AO2 T01500017
93073KASE ASE20160717225013707/17/16 22:50:31  5-MIN KASE 180550Z AUTO 22011KT 10SM SCT110 16/02 A3036 7440 39 9200 210/11 RMK AO2 SLP136 T01560017 10289 20150 53004
93073KASE ASE20160717225511207/17/16 22:55:31  5-MIN KASE 180555Z AUTO VRB05KT 10SM BKN110 16/01 A3036 7440 36 9300 VRB/05 RMK AO2 T01610011
93073KASE ASE20160717230011207/17/16 23:00:31  5-MIN KASE 180600Z AUTO 18006KT 10SM BKN110 16/02 A3035 7440 37 9300 170/06 RMK AO2 T01610017
93073KASE ASE20160717230512807/17/16 23:05:31  5-MIN KASE 180605Z AUTO 15007KT 130V230 10SM BKN110 18/01 A3034 7450 31 9500 140/07 120V220 RMK AO2 T01780006
93073KASE ASE20160717231011807/17/16 23:10:31  5-MIN KASE 180610Z AUTO 25009G14KT 10SM BKN110 19/00 A3034 7450 28 9600 240/09G14 RMK AO2 T01890000
93073KASE ASE20160717231511807/17/16 23:15:31  5-MIN KASE 180615Z AUTO 19011G14KT 10SM SCT110 19/00 A3035 7440 27 9700 180/11G14 RMK AO2 T01940000
93073KASE ASE20160717232011207/17/16 23:20:31  5-MIN KASE 180620Z AUTO VRB06KT 10SM FEW110 19/00 A3036 7440 27 9700 VRB/06 RMK AO2 T01940000
93073KASE ASE20160717232511207/17/16 23:25:31  5-MIN KASE 180625Z AUTO 32006KT 10SM FEW120 18/00 A3036 7430 29 9500 310/06 RMK AO2 T01830000
93073KASE ASE20160717233011207/17/16 23:30:31  5-MIN KASE 180630Z AUTO 00000KT 10SM FEW120 18/01 A3037 7430 31 9500 000/00 RMK AO2 T01780006
93073KASE ASE20160717233511207/17/16 23:35:31  5-MIN KASE 180635Z AUTO 13007KT 10SM FEW110 18/01 A3036 7440 30 9500 120/07 RMK AO2 T01830006
93073KASE ASE20160717234011207/17/16 23:40:31  5-MIN KASE 180640Z AUTO VRB06KT 10SM FEW110 19/00 A3035 7440 28 9600 VRB/06 RMK AO2 T01890000
93073KASE ASE20160717234512307/17/16 23:45:31  5-MIN KASE 180645Z AUTO 22010KT 10SM SCT110 18/01 A3036 7440 30 9500 210/10 RMK AO2 LTG DSNT W T01830006
93073KASE ASE20160717235014007/17/16 23:50:31  5-MIN KASE 180650Z AUTO 20008KT 10SM SCT110 18/01 A3036 7440 30 9500 200/08 RMK AO2 LTG DSNT W SLP131 T01830006 403000089
93073KASE ASE20160717235513907/17/16 23:55:31  5-MIN KASE 180655Z AUTO 17007KT 130V200 10SM BKN120 18/01 A3036 7440 30 9500 160/07 120V190 RMK AO2 LTG DSNT W T01830006
93073KASE ASE20160718000011207/18/16 00:00:31  5-MIN KASE 180700Z AUTO 18007KT 10SM BKN120 19/01 A3036 7440 28 9600 170/07 RMK AO2 T01940006
93073KASE ASE20160718000511207/18/16 00:05:31  5-MIN KASE 180705Z AUTO 22006KT 10SM BKN120 18/01 A3036 7440 31 9500 210/06 RMK AO2 T01830011
93073KASE ASE20160718001011207/18/16 00:10:31  5-MIN KASE 180710Z AUTO 21007KT 10SM BKN120 18/01 A3036 7440 32 9500 200/07 RMK AO2 T01780011
93073KASE ASE20160718001511207/18/16 00:15:31  5-MIN KASE 180715Z AUTO 20007KT 10SM SCT120 18/01 A3036 7440 31 9500 190/07 RMK AO2 T01830011
93073KASE ASE20160718002012307/18/16 00:20:31  5-MIN KASE 180720Z AUTO 21008KT 10SM SCT120 18/02 A3036 7440 33 9500 200/08 RMK AO2 LTG DSNT E T01780017
93073KASE ASE20160718002512307/18/16 00:25:31  5-MIN KASE 180725Z AUTO 21008KT 10SM FEW120 18/02 A3036 7440 33 9500 200/08 RMK AO2 LTG DSNT E T01780017
93073KASE ASE20160718003012307/18/16 00:30:31  5-MIN KASE 180730Z AUTO 20007KT 10SM FEW120 18/02 A3036 7440 33 9500 190/07 RMK AO2 LTG DSNT E T01780017
93073KASE ASE20160718003510907/18/16 00:35:31  5-MIN KASE 180735Z AUTO 20006KT 10SM CLR 17/02 A3036 7440 36 9300 190/06 RMK AO2 T01670017
93073KASE ASE20160718004010907/18/16 00:40:31  5-MIN KASE 180740Z AUTO 22005KT 10SM CLR 17/02 A3036 7430 37 9300 210/05 RMK AO2 T01670022
93073KASE ASE20160718004512107/18/16 00:45:31  5-MIN KASE 180745Z AUTO 21006KT 10SM CLR 17/02 A3036 7430 37 9300 200/06 RMK AO2 LTG DSNT NE T01670022
93073KASE ASE20160718005012807/18/16 00:50:31  5-MIN KASE 180750Z AUTO 19006KT 10SM CLR 17/02 A3036 7430 37 9300 180/06 RMK AO2 LTG DSNT NE SLP137 T01670022
93073KASE ASE20160718005512107/18/16 00:55:31  5-MIN KASE 180755Z AUTO 19005KT 10SM CLR 17/02 A3036 7430 37 9300 180/05 RMK AO2 LTG DSNT NE T01670022
93073KASE ASE20160718010012407/18/16 01:00:31  5-MIN KASE 180800Z AUTO 23006KT 10SM FEW110 16/03 A3037 7430 42 9200 230/06 RMK AO2 LTG DSNT NE T01560028
93073KASE ASE20160718010511207/18/16 01:05:31  5-MIN KASE 180805Z AUTO 20004KT 10SM FEW110 16/03 A3037 7430 42 9200 190/04 RMK AO2 T01560028
93073KASE ASE20160718011011207/18/16 01:10:31  5-MIN KASE 180810Z AUTO 23006KT 10SM FEW100 15/03 A3037 7430 43 9200 220/06 RMK AO2 T01500028
93073KASE ASE20160718011511207/18/16 01:15:31  5-MIN KASE 180815Z AUTO 00000KT 10SM FEW100 15/03 A3037 7430 43 9200 000/00 RMK AO2 T01500028
93073KASE ASE20160718012011207/18/16 01:20:31  5-MIN KASE 180820Z AUTO VRB03KT 10SM SCT110 15/03 A3037 7430 43 9200 VRB/03 RMK AO2 T01500028
93073KASE ASE20160718012511207/18/16 01:25:31  5-MIN KASE 180825Z AUTO 20004KT 10SM BKN110 14/03 A3037 7430 48 9000 190/04 RMK AO2 T01390033
93073KASE ASE20160718013011207/18/16 01:30:31  5-MIN KASE 180830Z AUTO 18007KT 10SM SCT100 14/03 A3037 7430 47 9100 170/07 RMK AO2 T01440033
93073KASE ASE20160718013511207/18/16 01:35:31  5-MIN KASE 180835Z AUTO 22007KT 10SM SCT110 14/03 A3037 7430 48 9000 210/07 RMK AO2 T01390033
93073KASE ASE20160718014011207/18/16 01:40:31  5-MIN KASE 180840Z AUTO 20007KT 10SM SCT110 14/03 A3037 7430 47 9100 190/07 RMK AO2 T01440033
93073KASE ASE20160718014512307/18/16 01:45:31  5-MIN KASE 180845Z AUTO 19008KT 10SM SCT100 14/03 A3036 7430 47 9100 190/08 RMK AO2 LTG DSNT N T01440033
93073KASE ASE20160718015013607/18/16 01:50:31  5-MIN KASE 180850Z AUTO 21008KT 10SM SCT100 14/03 A3037 7430 47 9100 200/08 RMK AO2 LTG DSNT N SLP140 T01440033 51019
93073KASE ASE20160718015512307/18/16 01:55:31  5-MIN KASE 180855Z AUTO 19006KT 10SM BKN100 15/03 A3037 7430 45 9200 180/06 RMK AO2 LTG DSNT N T01500033
93073KASE ASE20160718020011207/18/16 02:00:31  5-MIN KASE 180900Z AUTO 18006KT 10SM BKN100 14/04 A3036 7430 49 9100 170/06 RMK AO2 T01440039
93073KASE ASE20160718020511207/18/16 02:05:31  5-MIN KASE 180905Z AUTO 19007KT 10SM BKN100 14/03 A3036 7440 48 9000 180/07 RMK AO2 T01390033
93073KASE ASE20160718021011207/18/16 02:10:31  5-MIN KASE 180910Z AUTO 21007KT 10SM SCT100 14/03 A3036 7430 48 9000 200/07 RMK AO2 T01390033
93073KASE ASE20160718021511207/18/16 02:15:31  5-MIN KASE 180915Z AUTO 20006KT 10SM SCT100 14/03 A3037 7430 48 9000 190/06 RMK AO2 T01390033
93073KASE ASE20160718022011207/18/16 02:20:31  5-MIN KASE 180920Z AUTO 17006KT 10SM FEW100 15/03 A3037 7430 43 9100 160/06 RMK AO2 T01500028
93073KASE ASE20160718022511207/18/16 02:25:31  5-MIN KASE 180925Z AUTO 20007KT 10SM FEW100 14/03 A3037 7430 45 9100 200/07 RMK AO2 T01440028
93073KASE ASE20160718023010907/18/16 02:30:31  5-MIN KASE 180930Z AUTO 20007KT 10SM CLR 14/03 A3037 7430 47 9100 190/07 RMK AO2 T01440033
93073KASE ASE20160718023510907/18/16 02:35:31  5-MIN KASE 180935Z AUTO 21008KT 10SM CLR 14/03 A3037 7430 47 9000 200/08 RMK AO2 T01390028
93073KASE ASE20160718024010907/18/16 02:40:31  5-MIN KASE 180940Z AUTO 19005KT 10SM CLR 15/03 A3037 7420 43 9100 180/05 RMK AO2 T01500028
93073KASE ASE20160718024510907/18/16 02:45:31  5-MIN KASE 180945Z AUTO VRB05KT 10SM CLR 14/03 A3038 7420 48 9000 VRB/05 RMK AO2 T01390033
93073KASE ASE20160718025011607/18/16 02:50:31  5-MIN KASE 180950Z AUTO 21006KT 10SM CLR 14/03 A3038 7420 45 9100 200/06 RMK AO2 SLP142 T01440028
93073KASE ASE20160718025510907/18/16 02:55:31  5-MIN KASE 180955Z AUTO 19005KT 10SM CLR 15/03 A3038 7420 43 9100 180/05 RMK AO2 T01500028
93073KASE ASE20160718030011207/18/16 03:00:31  5-MIN KASE 181000Z AUTO 18004KT 10SM FEW100 14/03 A3038 7420 47 9000 170/04 RMK AO2 T01390028
93073KASE ASE20160718030511207/18/16 03:05:31  5-MIN KASE 181005Z AUTO 21005KT 10SM FEW100 13/03 A3038 7420 50 9000 200/05 RMK AO2 T01330033
93073KASE ASE20160718031011207/18/16 03:10:31  5-MIN KASE 181010Z AUTO 23004KT 10SM FEW100 13/03 A3038 7420 50 8900 220/04 RMK AO2 T01330033
93073KASE ASE20160718031511907/18/16 03:15:31  5-MIN KASE 181015Z AUTO 18004KT 10SM FEW100 SCT120 14/03 A3038 7410 47 9000 170/04 RMK AO2 T01390028
93073KASE ASE20160718032011907/18/16 03:20:31  5-MIN KASE 181020Z AUTO 20003KT 10SM FEW100 BKN120 14/03 A3039 7410 45 9100 190/03 RMK AO2 T01440028
93073KASE ASE20160718032511907/18/16 03:25:31  5-MIN KASE 181025Z AUTO 21005KT 10SM SCT100 BKN120 14/03 A3039 7410 45 9100 200/05 RMK AO2 T01440028
93073KASE ASE20160718033011207/18/16 03:30:31  5-MIN KASE 181030Z AUTO 17004KT 10SM BKN110 16/03 A3039 7410 42 9200 160/04 RMK AO2 T01560028
93073KASE ASE20160718033511207/18/16 03:35:31  5-MIN KASE 181035Z AUTO 17004KT 10SM BKN110 14/03 A3039 7410 48 9000 160/04 RMK AO2 T01390033
93073KASE ASE20160718034011207/18/16 03:40:31  5-MIN KASE 181040Z AUTO 19005KT 10SM OVC100 13/03 A3039 7410 50 8900 180/05 RMK AO2 T01330033
93073KASE ASE20160718034511207/18/16 03:45:31  5-MIN KASE 181045Z AUTO 20003KT 10SM OVC100 14/03 A3039 7410 48 9000 190/03 RMK AO2 T01390033
93073KASE ASE20160718035011907/18/16 03:50:31  5-MIN KASE 181050Z AUTO 20006KT 10SM OVC100 14/03 A3039 7410 47 9100 190/06 RMK AO2 SLP150 T01440033
93073KASE ASE20160718035511207/18/16 03:55:31  5-MIN KASE 181055Z AUTO 20007KT 10SM OVC110 14/04 A3039 7410 50 9000 190/07 RMK AO2 T01390039
93073KASE ASE20160718040011207/18/16 04:00:31  5-MIN KASE 181100Z AUTO 20004KT 10SM OVC110 14/03 A3039 7410 48 9000 190/04 RMK AO2 T01390033
93073KASE ASE20160718040511207/18/16 04:05:31  5-MIN KASE 181105Z AUTO 17006KT 10SM BKN110 14/03 A3039 7400 47 9100 170/06 RMK AO2 T01440033
93073KASE ASE20160718041011207/18/16 04:10:31  5-MIN KASE 181110Z AUTO 19005KT 10SM BKN110 14/03 A3040 7400 47 9100 180/05 RMK AO2 T01440033
93073KASE ASE20160718041511207/18/16 04:15:31  5-MIN KASE 181115Z AUTO 19005KT 10SM BKN110 14/04 A3040 7400 49 9100 180/05 RMK AO2 T01440039
93073KASE ASE20160718042011207/18/16 04:20:31  5-MIN KASE 181120Z AUTO 21006KT 10SM BKN110 14/04 A3040 7400 49 9100 200/06 RMK AO2 T01440039
93073KASE ASE20160718042511207/18/16 04:25:31  5-MIN KASE 181125Z AUTO 21006KT 10SM SCT120 15/03 A3040 7400 45 9100 200/06 RMK AO2 T01500033
93073KASE ASE20160718043011207/18/16 04:30:31  5-MIN KASE 181130Z AUTO 22007KT 10SM SCT120 14/04 A3040 7400 49 9100 210/07 RMK AO2 T01440039
93073KASE ASE20160718043511207/18/16 04:35:31  5-MIN KASE 181135Z AUTO 21006KT 10SM SCT110 14/04 A3040 7400 49 9100 200/06 RMK AO2 T01440039
93073KASE ASE20160718044011207/18/16 04:40:31  5-MIN KASE 181140Z AUTO 20006KT 10SM SCT110 16/03 A3040 7400 43 9200 190/06 RMK AO2 T01560033
93073KASE ASE20160718044511207/18/16 04:45:31  5-MIN KASE 181145Z AUTO 20007KT 10SM FEW110 15/04 A3040 7400 47 9100 190/07 RMK AO2 T01500039
93073KASE ASE20160718045013707/18/16 04:50:31  5-MIN KASE 181150Z AUTO 21006KT 10SM FEW120 15/04 A3041 7400 47 9100 200/06 RMK AO2 SLP154 T01500039 10194 20128 53001
93073KASE ASE20160718045511207/18/16 04:55:31  5-MIN KASE 181155Z AUTO 19005KT 10SM FEW120 15/04 A3041 7390 47 9100 180/05 RMK AO2 T01500039
93073KASE ASE20160718050010907/18/16 05:00:31  5-MIN KASE 181200Z AUTO 20005KT 10SM CLR 15/04 A3041 7390 47 9100 190/05 RMK AO2 T01500039
93073KASE ASE20160718050510907/18/16 05:05:31  5-MIN KASE 181205Z AUTO 22004KT 10SM CLR 14/04 A3041 7390 52 9000 210/04 RMK AO2 T01390044
93073KASE ASE20160718051011207/18/16 05:10:31  5-MIN KASE 181210Z AUTO 23003KT 10SM FEW120 14/04 A3041 7390 52 9000 220/03 RMK AO2 T01390044
93073KASE ASE20160718051511207/18/16 05:15:31  5-MIN KASE 181215Z AUTO 00000KT 10SM FEW120 14/05 A3041 7390 55 9000 000/00 RMK AO2 T01390050
93073KASE ASE20160718052011207/18/16 05:20:31  5-MIN KASE 181220Z AUTO 00000KT 10SM FEW120 14/04 A3041 7390 51 9000 000/00 RMK AO2 T01440044
93073KASE ASE20160718052511207/18/16 05:25:31  5-MIN KASE 181225Z AUTO 00000KT 10SM FEW120 14/04 A3041 7390 51 9000 000/00 RMK AO2 T01440044
93073KASE ASE20160718053011207/18/16 05:30:31  5-MIN KASE 181230Z AUTO 20003KT 10SM FEW120 14/05 A3041 7390 55 9000 200/03 RMK AO2 T01390050
93073KASE ASE20160718053511207/18/16 05:35:31  5-MIN KASE 181235Z AUTO 21004KT 10SM FEW120 14/05 A3041 7390 53 9000 200/04 RMK AO2 T01440050
93073KASE ASE20160718054011207/18/16 05:40:31  5-MIN KASE 181240Z AUTO 21003KT 10SM FEW120 14/06 A3042 7390 55 9000 200/03 RMK AO2 T01440056
93073KASE ASE20160718054510907/18/16 05:45:31  5-MIN KASE 181245Z AUTO 18004KT 10SM CLR 16/05 A3042 7380 49 9200 170/04 RMK AO2 T01560050
93073KASE ASE20160718055011607/18/16 05:50:31  5-MIN KASE 181250Z AUTO 00000KT 10SM CLR 15/06 A3042 7380 53 9100 000/00 RMK AO2 SLP159 T01500056
93073KASE ASE20160718055510407/18/16 05:55:31  5-MIN KASE 181255Z 00000KT 10SM CLR 16/06 A3042 7380 51 9200 000/00 RMK AO2 T01560056
93073KASE ASE20160718060010407/18/16 06:00:31  5-MIN KASE 181300Z 18004KT 10SM CLR 17/05 A3042 7380 45 9300 170/04 RMK AO2 T01670050
93073KASE ASE20160718060510407/18/16 06:05:31  5-MIN KASE 181305Z 17004KT 10SM CLR 17/05 A3042 7380 44 9300 160/04 RMK AO2 T01720050
93073KASE ASE20160718061010407/18/16 06:10:31  5-MIN KASE 181310Z 14003KT 10SM CLR 17/04 A3042 7380 42 9300 130/03 RMK AO2 T01720044
93073KASE ASE20160718061510407/18/16 06:15:31  5-MIN KASE 181315Z VRB03KT 10SM CLR 17/04 A3042 7380 42 9300 VRB/03 RMK AO2 T01720044
93073KASE ASE20160718062010407/18/16 06:20:31  5-MIN KASE 181320Z 15004KT 10SM CLR 18/04 A3043 7380 41 9400 140/04 RMK AO2 T01780044
93073KASE ASE20160718062510407/18/16 06:25:31  5-MIN KASE 181325Z 17004KT 10SM CLR 18/04 A3043 7380 41 9400 160/04 RMK AO2 T01780044
93073KASE ASE20160718063010407/18/16 06:30:31  5-MIN KASE 181330Z VRB03KT 10SM CLR 18/04 A3043 7370 39 9500 VRB/03 RMK AO2 T01830044
93073KASE ASE20160718063510407/18/16 06:35:31  5-MIN KASE 181335Z 14004KT 10SM CLR 18/04 A3043 7370 41 9400 140/04 RMK AO2 T01780044
93073KASE ASE20160718064010407/18/16 06:40:31  5-MIN KASE 181340Z 16005KT 10SM CLR 18/04 A3043 7370 39 9500 160/05 RMK AO2 T01830044
93073KASE ASE20160718064510407/18/16 06:45:31  5-MIN KASE 181345Z 14004KT 10SM CLR 18/04 A3043 7370 39 9500 140/04 RMK AO2 T01830044
93073KASE ASE20160718065011107/18/16 06:50:31  5-MIN KASE 181350Z 11003KT 10SM CLR 18/04 A3043 7370 39 9500 100/03 RMK AO2 SLP170 T01830044
93073KASE ASE20160718065510407/18/16 06:55:31  5-MIN KASE 181355Z 12003KT 10SM CLR 18/05 A3043 7370 42 9400 110/03 RMK AO2 T01780050
93073KASE ASE20160718070010407/18/16 07:00:31  5-MIN KASE 181400Z 00000KT 10SM CLR 18/06 A3043 7370 44 9400 000/00 RMK AO2 T01780056
93073KASE ASE20160718070510407/18/16 07:05:31  5-MIN KASE 181405Z 11003KT 10SM CLR 18/06 A3043 7370 44 9400 100/03 RMK AO2 T01780056
93073KASE ASE20160718071010407/18/16 07:10:31  5-MIN KASE 181410Z 00000KT 10SM CLR 18/06 A3043 7370 44 9400 000/00 RMK AO2 T01780056
93073KASE ASE20160718071510407/18/16 07:15:31  5-MIN KASE 181415Z 00000KT 10SM CLR 18/06 A3044 7370 42 9400 000/00 RMK AO2 T01830056
93073KASE ASE20160718072010407/18/16 07:20:31  5-MIN KASE 181420Z 10003KT 10SM CLR 19/06 A3044 7370 43 9500 100/03 RMK AO2 T01890061
93073KASE ASE20160718072510407/18/16 07:25:31  5-MIN KASE 181425Z 13004KT 10SM CLR 19/06 A3044 7360 41 9500 120/04 RMK AO2 T01890056
93073KASE ASE20160718073010407/18/16 07:30:31  5-MIN KASE 181430Z 13003KT 10SM CLR 19/06 A3044 7370 40 9600 120/03 RMK AO2 T01940056
93073KASE ASE20160718073510407/18/16 07:35:31  5-MIN KASE 181435Z 00000KT 10SM CLR 19/06 A3044 7360 40 9600 000/00 RMK AO2 T01940056
93073KASE ASE20160718074010407/18/16 07:40:31  5-MIN KASE 181440Z 00000KT 10SM CLR 19/05 A3044 7360 38 9600 000/00 RMK AO2 T01940050
93073KASE ASE20160718074510407/18/16 07:45:31  5-MIN KASE 181445Z 00000KT 10SM CLR 19/06 A3044 7360 40 9600 000/00 RMK AO2 T01940056
93073KASE ASE20160718075011707/18/16 07:50:31  5-MIN KASE 181450Z 00000KT 10SM CLR 20/06 A3044 7360 38 9600 000/00 RMK AO2 SLP178 T02000056 51010
93073KASE ASE20160718075510407/18/16 07:55:31  5-MIN KASE 181455Z 17003KT 10SM CLR 21/06 A3045 7360 38 9700 160/03 RMK AO2 T02060061
93073KASE ASE20160718080010707/18/16 08:00:31  5-MIN KASE 181500Z 00000KT 10SM FEW120 21/06 A3045 7360 37 9700 000/00 RMK AO2 T02060056
93073KASE ASE20160718080510707/18/16 08:05:31  5-MIN KASE 181505Z 00000KT 10SM FEW120 21/06 A3044 7360 37 9700 000/00 RMK AO2 T02060056
93073KASE ASE20160718081010707/18/16 08:10:31  5-MIN KASE 181510Z 00000KT 10SM FEW120 21/06 A3044 7360 36 9700 000/00 RMK AO2 T02110056
93073KASE ASE20160718081510707/18/16 08:15:31  5-MIN KASE 181515Z 18003KT 10SM FEW120 21/06 A3044 7360 36 9700 170/03 RMK AO2 T02110056
93073KASE ASE20160718082010707/18/16 08:20:31  5-MIN KASE 181520Z 00000KT 10SM FEW120 22/06 A3044 7360 34 9800 000/00 RMK AO2 T02170056
93073KASE ASE20160718082510707/18/16 08:25:31  5-MIN KASE 181525Z 00000KT 10SM FEW120 22/05 A3044 7360 32 9900 000/00 RMK AO2 T02220050
93073KASE ASE20160718083010707/18/16 08:30:31  5-MIN KASE 181530Z 00000KT 10SM FEW120 22/06 A3044 7360 33 9900 000/00 RMK AO2 T02220056
93073KASE ASE20160718083510407/18/16 08:35:31  5-MIN KASE 181535Z 00000KT 10SM CLR 23/05 A3044 7360 31 9900 000/00 RMK AO2 T02280050
93073KASE ASE20160718084010407/18/16 08:40:31  5-MIN KASE 181540Z 36003KT 9SM CLR 24/04 A3044 7360 28 10000 350/03 RMK AO2 T02390044
93073KASE ASE20160718084510407/18/16 08:45:31  5-MIN KASE 181545Z 06003KT 9SM CLR 24/04 A3044 7360 27 10000 050/03 RMK AO2 T02390039
93073KASE ASE20160718085011507/18/16 08:50:31  5-MIN KASE 181550Z VRB03KT 10SM FEW110 24/04 A3044 7360 27 10100 VRB/03 RMK AO2 SLP168 T02440044
93073KASE ASE20160718085510807/18/16 08:55:31  5-MIN KASE 181555Z 36006KT 10SM SCT110 25/06 A3044 7360 28 10200 350/06 RMK AO2 T02500056
93073KASE ASE20160718090010807/18/16 09:00:31  5-MIN KASE 181600Z VRB03KT 10SM BKN110 25/05 A3044 7360 27 10200 VRB/03 RMK AO2 T02500050
93073KASE ASE20160718090510807/18/16 09:05:31  5-MIN KASE 181605Z 30003KT 10SM BKN100 24/05 A3044 7360 28 10100 300/03 RMK AO2 T02440050
93073KASE ASE20160718091010807/18/16 09:10:31  5-MIN KASE 181610Z 33004KT 10SM BKN100 24/04 A3044 7360 26 10100 320/04 RMK AO2 T02440039
93073KASE ASE20160718091510807/18/16 09:15:31  5-MIN KASE 181615Z 34005KT 10SM OVC100 24/04 A3045 7360 26 10100 330/05 RMK AO2 T02440039
93073KASE ASE20160718092010807/18/16 09:20:31  5-MIN KASE 181620Z 34004KT 10SM OVC100 24/04 A3045 7360 26 10100 330/04 RMK AO2 T02440039
93073KASE ASE20160718092510807/18/16 09:25:31  5-MIN KASE 181625Z 34005KT 10SM OVC100 24/04 A3045 7360 27 10100 330/05 RMK AO2 T02440044
93073KASE ASE20160718093010807/18/16 09:30:31  5-MIN KASE 181630Z 35007KT 10SM OVC100 24/05 A3045 7360 28 10100 340/07 RMK AO2 T02440050
93073KASE ASE20160718093510807/18/16 09:35:31  5-MIN KASE 181635Z 34007KT 10SM OVC100 24/05 A3045 7360 28 10100 330/07 RMK AO2 T02440050
93073KASE ASE20160718094010807/18/16 09:40:31  5-MIN KASE 181640Z 34006KT 10SM OVC100 24/06 A3044 7360 29 10100 340/06 RMK AO2 T02440056
93073KASE ASE20160718094510807/18/16 09:45:31  5-MIN KASE 181645Z 33007KT 10SM OVC100 24/06 A3045 7360 29 10100 320/07 RMK AO2 T02440056
93073KASE ASE20160718095011507/18/16 09:50:31  5-MIN KASE 181650Z 33007KT 10SM OVC100 24/05 A3045 7360 28 10100 320/07 RMK AO2 SLP170 T02440050
93073KASE ASE20160718095510807/18/16 09:55:31  5-MIN KASE 181655Z 34007KT 10SM OVC100 24/04 A3045 7360 28 10000 330/07 RMK AO2 T02390044
93073KASE ASE20160718100010807/18/16 10:00:31  5-MIN KASE 181700Z 32007KT 10SM OVC100 24/04 A3045 7350 28 10000 310/07 RMK AO2 T02390044
93073KASE ASE20160718100510807/18/16 10:05:31  5-MIN KASE 181705Z VRB06KT 10SM OVC100 24/05 A3045 7350 29 10000 VRB/06 RMK AO2 T02390050
93073KASE ASE20160718101011507/18/16 10:10:31  5-MIN KASE 181710Z 34008KT 10SM BKN100 OVC120 24/05 A3045 7360 29 10000 330/08 RMK AO2 T02390050
93073KASE ASE20160718101511507/18/16 10:15:31  5-MIN KASE 181715Z 34007KT 10SM BKN100 OVC120 24/05 A3045 7350 29 10000 330/07 RMK AO2 T02390050
93073KASE ASE20160718102011507/18/16 10:20:31  5-MIN KASE 181720Z 31007KT 10SM BKN100 OVC120 24/06 A3045 7350 30 10000 300/07 RMK AO2 T02390056
93073KASE ASE20160718102511507/18/16 10:25:31  5-MIN KASE 181725Z 31005KT 10SM BKN100 OVC110 24/06 A3045 7350 30 10000 300/05 RMK AO2 T02390056
93073KASE ASE20160718103011507/18/16 10:30:31  5-MIN KASE 181730Z 31007KT 10SM BKN100 OVC120 23/06 A3045 7350 31 10000 300/07 RMK AO2 T02330056
93073KASE ASE20160718103511507/18/16 10:35:31  5-MIN KASE 181735Z 31007KT 10SM BKN100 OVC120 23/06 A3045 7350 31 10000 300/07 RMK AO2 T02330056
93073KASE ASE20160718104010707/18/16 10:40:31  5-MIN KASE 181740Z 31007KT 10SM OVC100 23/06 A3045 7350 32 9900 310/07 RMK AO2 T02280056
93073KASE ASE20160718104510707/18/16 10:45:31  5-MIN KASE 181745Z 32006KT 10SM OVC100 23/06 A3046 7350 32 9900 310/06 RMK AO2 T02280056
93073KASE ASE20160718105013207/18/16 10:50:31  5-MIN KASE 181750Z 29005KT 10SM OVC080 23/06 A3046 7350 33 9900 280/05 RMK AO2 SLP183 T02280061 10250 20139 52010
93073KASE ASE20160718105510707/18/16 10:55:31  5-MIN KASE 181755Z 29006KT 10SM OVC100 23/06 A3046 7350 33 9900 280/06 RMK AO2 T02280061
93073KASE ASE20160718110010707/18/16 11:00:31  5-MIN KASE 181800Z 31006KT 10SM OVC100 22/06 A3046 7350 35 9800 300/06 RMK AO2 T02220061
93073KASE ASE20160718110510707/18/16 11:05:31  5-MIN KASE 181805Z 29007KT 10SM OVC100 22/07 A3046 7350 36 9800 280/07 RMK AO2 T02220067
93073KASE ASE20160718111010707/18/16 11:10:31  5-MIN KASE 181810Z 29008KT 10SM OVC100 22/06 A3046 7340 35 9800 280/08 RMK AO2 T02220061
93073KASE ASE20160718111510707/18/16 11:15:31  5-MIN KASE 181815Z 29007KT 10SM OVC095 22/06 A3046 7340 35 9800 280/07 RMK AO2 T02220061
93073KASE ASE20160718112011407/18/16 11:20:31  5-MIN KASE 181820Z 30004KT 10SM FEW065 OVC100 23/06 A3046 7340 32 9900 290/04 RMK AO2 T02280056
93073KASE ASE20160718112511407/18/16 11:25:31  5-MIN KASE 181825Z 01004KT 10SM FEW065 OVC100 23/06 A3046 7340 33 9900 360/04 RMK AO2 T02280061
93073KASE ASE20160718113010807/18/16 11:30:31  5-MIN KASE 181830Z VRB04KT 10SM BKN100 24/07 A3046 7340 34 10000 VRB/04 RMK AO2 T02390072
93073KASE ASE20160718113511507/18/16 11:35:31  5-MIN KASE 181835Z 30004KT 10SM BKN100 BKN110 23/06 A3046 7350 32 10000 290/04 RMK AO2 T02330061
93073KASE ASE20160718114009807/18/16 11:40:31  5-MIN KASE 181840Z 10SM BKN100 24/06 A3046 7340 31 10000 M /M RMK AO2 T02390061
93073KASE ASE20160718114510807/18/16 11:45:31  5-MIN KASE 181845Z 35007KT 10SM BKN100 24/06 A3046 7350 31 10000 340/07 RMK AO2 T02390061
93073KASE ASE20160718115011507/18/16 11:50:31  5-MIN KASE 181850Z 01004KT 10SM BKN100 24/06 A3045 7350 30 10100 360/04 RMK AO2 SLP170 T02440061
93073KASE ASE20160718115512007/18/16 11:55:31  5-MIN KASE 181855Z VRB03KT 10SM BKN100 24/06 A3045 7350 31 10000 VRB/03 RMK AO2 LTG DSNT SE T02390061
93073KASE ASE20160718120012707/18/16 12:00:31  5-MIN KASE 181900Z 35007KT 10SM BKN100 BKN120 24/06 A3045 7350 30 10100 340/07 RMK AO2 LTG DSNT SE T02440061
93073KASE ASE20160718120513607/18/16 12:05:31  5-MIN KASE 181905Z 32007KT 290V360 10SM BKN100 24/06 A3045 7360 30 10100 310/07 280V350 RMK AO2 LTG DSNT SE T02440061
93073KASE ASE20160718121010807/18/16 12:10:31  5-MIN KASE 181910Z 31006KT 10SM BKN100 25/06 A3045 7360 29 10200 300/06 RMK AO2 T02500061
93073KASE ASE20160718121511507/18/16 12:15:31  5-MIN KASE 181915Z 30006KT 10SM SCT100 SCT120 25/06 A3044 7360 29 10200 300/06 RMK AO2 T02500061
93073KASE ASE20160718122010807/18/16 12:20:31  5-MIN KASE 181920Z 33008KT 10SM SCT110 26/06 A3044 7360 28 10200 330/08 RMK AO2 T02560061
93073KASE ASE20160718122510807/18/16 12:25:31  5-MIN KASE 181925Z 32009KT 10SM SCT110 24/06 A3045 7360 30 10100 310/09 RMK AO2 T02440061
93073KASE ASE20160718123011407/18/16 12:30:31  5-MIN KASE 181930Z 32007G16KT 10SM BKN110 24/06 A3045 7360 31 10000 310/07G16 RMK AO2 T02390061
93073KASE ASE20160718123511407/18/16 12:35:31  5-MIN KASE 181935Z 32009G16KT 10SM BKN100 23/06 A3044 7360 32 10000 320/09G16 RMK AO2 T02330061
93073KASE ASE20160718124010807/18/16 12:40:31  5-MIN KASE 181940Z 32005KT 10SM BKN100 23/06 A3044 7360 32 10000 310/05 RMK AO2 T02330061
93073KASE ASE20160718124511507/18/16 12:45:31  5-MIN KASE 181945Z 34005KT 10SM FEW039 BKN110 24/06 A3044 7370 30 10100 330/05 RMK AO2 T02440061
93073KASE ASE20160718125012207/18/16 12:50:31  5-MIN KASE 181950Z 33008KT 10SM FEW039 BKN100 26/06 A3043 7370 28 10200 320/08 RMK AO2 SLP165 T02560061
93073KASE ASE20160718125511507/18/16 12:55:31  5-MIN KASE 181955Z 33006KT 10SM FEW038 BKN100 26/06 A3043 7370 28 10200 320/06 RMK AO2 T02560061
93073KASE ASE20160718130011507/18/16 13:00:31  5-MIN KASE 182000Z VRB06KT 10SM FEW038 SCT100 26/06 A3043 7370 28 10200 VRB/06 RMK AO2 T02560061
93073KASE ASE20160718130513107/18/16 13:05:31  5-MIN KASE 182005Z 35007KT 310V010 10SM FEW038 SCT100 26/06 A3043 7370 28 10200 340/07 300V360 RMK AO2 T02560061
93073KASE ASE20160718131012207/18/16 13:10:31  5-MIN KASE 182010Z VRB04KT 10SM FEW038 FEW080 BKN100 25/06 A3044 7370 29 10200 VRB/04 RMK AO2 T02500061
93073KASE ASE20160718131511507/18/16 13:15:31  5-MIN KASE 182015Z 22008KT 10SM SCT085 BKN100 24/06 A3044 7360 30 10100 210/08 RMK AO2 T02440061
93073KASE ASE20160718132013407/18/16 13:20:31  5-MIN KASE 182020Z 23006KT 10SM FEW050 BKN090 BKN110 24/06 A3043 7370 30 10100 220/06 RMK AO2 LTG DSNT SW T02440061
93073KASE ASE20160718132513407/18/16 13:25:31  5-MIN KASE 182025Z VRB05KT 10SM FEW050 SCT070 BKN090 24/07 A3043 7370 31 10100 VRB/05 RMK AO2 LTG DSNT SW T02440067
93073KASE ASE20160718133015007/18/16 13:30:31  5-MIN KASE 182030Z 31007KT 270V340 10SM FEW055 SCT075 BKN100 26/07 A3043 7380 28 10300 300/07 260V330 RMK AO2 LTG DSNT SW T02610067
93073KASE ASE20160718133513407/18/16 13:35:31  5-MIN KASE 182035Z VRB03KT 10SM FEW049 SCT085 BKN100 26/07 A3042 7380 28 10300 VRB/03 RMK AO2 LTG DSNT SW T02610067
93073KASE ASE20160718134012307/18/16 13:40:31  5-MIN KASE 182040Z 10SM FEW055 SCT080 SCT100 26/07 A3042 7380 28 10300 M /M RMK AO2 LTG DSNT E T02610067
93073KASE ASE20160718134513207/18/16 13:45:31  5-MIN KASE 182045Z 00000KT 10SM FEW050 FEW075 27/06 A3042 7380 26 10400 000/00 RMK AO2 LTG DSNT E AND S T02670061
93073KASE ASE20160718135014307/18/16 13:50:31  5-MIN KASE 182050Z 35008KT 10SM FEW075 BKN100 26/06 A3042 7380 27 10300 340/08 RMK AO2 LTG DSNT ALQDS SLP163 T02610061 53004
93073KASE ASE20160718135512307/18/16 13:55:31  5-MIN KASE 182055Z 00000KT 10SM FEW110 26/06 A3042 7380 28 10200 000/00 RMK AO2 LTG DSNT ALQDS T02560061
93073KASE ASE20160718140011307/18/16 14:00:31  5-MIN KASE 182100Z 10SM FEW110 26/06 A3042 7380 28 10200 M /M RMK AO2 LTG DSNT ALQDS T02560061
93073KASE ASE20160718140512307/18/16 14:05:31  5-MIN KASE 182105Z VRB04KT 10SM SCT100 25/06 A3042 7380 29 10200 VRB/04 RMK AO2 LTG DSNT ALQDS T02500061
93073KASE ASE20160718141013807/18/16 14:10:31  5-MIN KASE 182110Z 00000KT 10SM VCTS BKN100 24/06 A3043 7380 29 10100 000/00 RMK AO2 LTG DSNT NE AND S AND SW T02440056
93073KASE ASE20160718141514907/18/16 14:15:31  5-MIN KASE 182115Z 00000KT 10SM TS FEW055 BKN095 24/06 A3043 7370 29 10100 000/00 RMK AO2 LTG DSNT NE AND S AND SW TSB12 T02440056
93073KASE ASE20160718142016207/18/16 14:20:31  5-MIN KASE 182120Z 22010G16KT 10SM TS FEW060 BKN090 OVC100 24/07 A3044 7360 31 10100 210/10G16 RMK AO2 LTG DSNT NE AND S AND SW TSB12 T02440067
93073KASE ASE20160718142516507/18/16 14:25:31  5-MIN KASE 182125Z 28016G19KT 10SM -TSRA FEW060 BKN090 OVC110 22/09 A3044 7360 42 9900 270/16G19 RMK AO2 LTG DSNT E-SW RAB22 TSB12 P0000 T02220089
93073KASE ASE20160718143015707/18/16 14:30:31  5-MIN KASE 182130Z 25011KT 9SM VCTS -RA FEW060 OVC095 21/09 A3045 7350 47 9700 240/11 RMK AO2 LTG DSNT E-SW RAB22 TSB12E27 P0000 T02110094
93073KASE ASE20160718143518207/18/16 14:35:31  5-MIN KASE 182135Z 22010KT 9SM VCTS -RA FEW060 BKN090 OVC110 19/12 A3046 7350 60 9500 210/10 RMK AO2 WSHFT 2120 LTG DSNT E-SW RAB22 TSB12E27 PRESRR P0001 T01940117
93073KASE ASE20160718144017607/18/16 14:40:31  5-MIN KASE 182140Z 24008KT 10SM VCTS -RA FEW060 BKN090 OVC110 18/13 A3046 7350 70 9400 230/08 RMK AO2 WSHFT 2120 LTG DSNT E-SW RAB22 TSB12E27 P0001 T01830128
93073KASE ASE20160718144516207/18/16 14:45:31  5-MIN KASE 182145Z 24006KT 10SM VCTS OVC090 18/13 A3046 7350 70 9400 230/06 RMK AO2 WSHFT 2120 LTG DSNT ALQDS RAB22E45 TSB12E27 P0001 T01830128
93073KASE ASE20160718145016907/18/16 14:50:31  5-MIN KASE 182150Z 22003KT 10SM VCTS OVC090 19/12 A3046 7340 62 9500 210/03 RMK AO2 WSHFT 2120 LTG DSNT ALQDS RAB22E45 TSB12E27 SLP199 P0001 T01890117
93073KASE ASE20160718145513607/18/16 14:55:31  5-MIN KASE 182155Z 00000KT 10SM VCTS OVC090 19/12 A3047 7340 62 9500 000/00 RMK AO2 LTG DSNT E AND S AND NW T01890117
93073KASE ASE20160718150015407/18/16 15:00:31  5-MIN KASE 182200Z 00000KT 10SM VCTS -RA OVC085 19/12 A3047 7340 62 9500 000/00 RMK AO2 LTG DSNT E AND S AND NW RAB2158 P0000 T01890117
93073KASE ASE20160718150513307/18/16 15:05:31  5-MIN KASE 182205Z 10SM VCTS -RA OVC085 19/12 A3047 7330 60 9500 M /M RMK AO2 LTG DSNT N-E RAB2158 P0000 T01940117
93073KASE ASE20160718151015007/18/16 15:10:31  5-MIN KASE 182210Z VRB04KT 10SM VCTS -RA BKN090 OVC110 19/12 A3047 7330 60 9500 VRB/04 RMK AO2 LTG DSNT N-E RAB2158 P0000 T01940117
93073KASE ASE20160718151515007/18/16 15:15:31  5-MIN KASE 182215Z 08005KT 10SM VCTS -RA BKN090 OVC110 19/12 A3047 7340 60 9500 070/05 RMK AO2 LTG DSNT N-E RAB2158 P0000 T01940117
93073KASE ASE20160718152015007/18/16 15:20:31  5-MIN KASE 182220Z VRB04KT 10SM VCTS SCT085 BKN100 20/11 A3046 7340 56 9600 VRB/04 RMK AO2 LTG DSNT NW-E RAB2158E16 P0000 T02000111
93073KASE ASE20160718152515007/18/16 15:25:31  5-MIN KASE 182225Z 01005KT 10SM VCTS SCT085 BKN100 21/11 A3046 7350 52 9700 360/05 RMK AO2 LTG DSNT NW-E RAB2158E16 P0000 T02060106
93073KASE ASE20160718153015107/18/16 15:30:31  5-MIN KASE 182230Z 35006KT 10SM VCTS FEW090 SCT110 19/13 A3045 7350 65 9500 340/06 RMK AO2 LTG DSNT NW-NE RAB2158E16 P0000 T01940128
93073KASE ASE20160718153514707/18/16 15:35:31  5-MIN KASE 182235Z 35004KT 10SM VCTS SCT100 19/12 A3045 7350 65 9500 340/04 RMK AO2 LTG DSNT N AND NE RAB2158E16 P0000 T01890122
93073KASE ASE20160718154014207/18/16 15:40:31  5-MIN KASE 182240Z 00000KT 10SM FEW100 19/12 A3045 7360 62 9600 000/00 RMK AO2 LTG DSNT N AND NE RAB2158E16 P0000 T01940122
93073KASE ASE20160718154514207/18/16 15:45:31  5-MIN KASE 182245Z VRB03KT 10SM FEW100 21/11 A3044 7370 54 9700 VRB/03 RMK AO2 LTG DSNT N AND NE RAB2158E16 P0000 T02060111
93073KASE ASE20160718155014607/18/16 15:50:31  5-MIN KASE 182250Z 08003KT 10SM CLR 21/11 A3043 7370 52 9700 070/03 RMK AO2 LTG DSNT N AND NE RAB2158E16 SLP182 P0000 T02060106
93073KASE ASE20160718155512207/18/16 15:55:31  5-MIN KASE 182255Z VRB03KT 10SM CLR 21/11 A3043 7370 52 9800 VRB/03 RMK AO2 LTG DSNT N AND NE T02110111
93073KASE ASE20160718160012207/18/16 16:00:31  5-MIN KASE 182300Z VRB03KT 10SM CLR 21/10 A3043 7370 48 9800 VRB/03 RMK AO2 LTG DSNT N AND NE T02110100
93073KASE ASE20160718160512207/18/16 16:05:31  5-MIN KASE 182305Z VRB05KT 10SM CLR 22/09 A3043 7370 43 9900 VRB/05 RMK AO2 LTG DSNT N AND NE T02220094
93073KASE ASE20160718161011607/18/16 16:10:31  5-MIN KASE 182310Z 13007KT 10SM CLR 22/09 A3043 7380 42 9900 120/07 RMK AO2 LTG DSNT NE T02220089
93073KASE ASE20160718161511607/18/16 16:15:31  5-MIN KASE 182315Z 12008KT 10SM CLR 23/09 A3042 7380 40 9900 110/08 RMK AO2 LTG DSNT NE T02280089
93073KASE ASE20160718162010407/18/16 16:20:31  5-MIN KASE 182320Z 14008KT 10SM CLR 22/08 A3042 7380 40 9900 130/08 RMK AO2 T02220083
93073KASE ASE20160718162510407/18/16 16:25:31  5-MIN KASE 182325Z 13007KT 10SM CLR 22/08 A3042 7380 39 9900 120/07 RMK AO2 T02220078
93073KASE ASE20160718163010407/18/16 16:30:31  5-MIN KASE 182330Z 16006KT 10SM CLR 22/08 A3042 7380 39 9900 150/06 RMK AO2 T02220078
93073KASE ASE20160718163510407/18/16 16:35:31  5-MIN KASE 182335Z VRB05KT 10SM CLR 22/08 A3042 7380 39 9900 VRB/05 RMK AO2 T02220078
93073KASE ASE20160718164010407/18/16 16:40:31  5-MIN KASE 182340Z 00000KT 10SM CLR 22/08 A3042 7380 39 9900 000/00 RMK AO2 T02220078
93073KASE ASE20160718164510407/18/16 16:45:31  5-MIN KASE 182345Z VRB04KT 10SM CLR 23/08 A3042 7380 37 9900 VRB/04 RMK AO2 T02280078
93073KASE ASE20160718165013807/18/16 16:50:31  5-MIN KASE 182350Z 23006KT 10SM SCT080 23/09 A3041 7390 40 9900 220/06 RMK AO2 SLP170 60001 T02280089 10272 20183 58010
93073KASE ASE20160718165510507/18/16 16:55:31  5-MIN KASE 182355Z 26008KT 10SM CLR 23/10 A3041 7390 44 10000 250/08 RMK AO2 T02280100
93073KASE ASE20160718170010507/18/16 17:00:31  5-MIN KASE 190000Z VRB04KT 10SM CLR 23/09 A3041 7390 42 10000 VRB/04 RMK AO2 T02280094
93073KASE ASE20160718170510407/18/16 17:05:31  5-MIN KASE 190005Z 24006KT 10SM CLR 22/09 A3041 7390 43 9900 230/06 RMK AO2 T02220094
93073KASE ASE20160718171010407/18/16 17:10:31  5-MIN KASE 190010Z 26004KT 10SM CLR 22/11 A3041 7390 49 9800 250/04 RMK AO2 T02170106
93073KASE ASE20160718171510407/18/16 17:15:31  5-MIN KASE 190015Z VRB03KT 10SM CLR 22/11 A3041 7390 49 9800 VRB/03 RMK AO2 T02170106
93073KASE ASE20160718172010707/18/16 17:20:31  5-MIN KASE 190020Z 31004KT 10SM FEW085 22/12 A3041 7390 51 9900 300/04 RMK AO2 T02220117
93073KASE ASE20160718172510707/18/16 17:25:31  5-MIN KASE 190025Z 36007KT 10SM SCT085 22/12 A3041 7390 52 9800 350/07 RMK AO2 T02170117
93073KASE ASE20160718173010707/18/16 17:30:31  5-MIN KASE 190030Z 01005KT 10SM SCT080 21/13 A3041 7390 58 9800 360/05 RMK AO2 T02110128
93073KASE ASE20160718173510707/18/16 17:35:31  5-MIN KASE 190035Z 35005KT 10SM SCT080 21/12 A3041 7390 56 9800 340/05 RMK AO2 T02110122
93073KASE ASE20160718174010707/18/16 17:40:31  5-MIN KASE 190040Z 34005KT 10SM FEW080 21/12 A3041 7390 56 9800 330/05 RMK AO2 T02110122
93073KASE ASE20160718174510707/18/16 17:45:31  5-MIN KASE 190045Z 36004KT 10SM FEW080 22/12 A3041 7390 54 9800 350/04 RMK AO2 T02170122
93073KASE ASE20160718175011407/18/16 17:50:31  5-MIN KASE 190050Z 34003KT 10SM FEW085 22/12 A3041 7390 51 9900 330/03 RMK AO2 SLP168 T02220117
93073KASE ASE20160718175511407/18/16 17:55:31  5-MIN KASE 190055Z 01005KT 10SM FEW080 FEW095 22/11 A3041 7390 50 9800 360/05 RMK AO2 T02170111
93073KASE ASE20160718180010707/18/16 18:00:31  5-MIN KASE 190100Z 35004KT 10SM SCT090 22/11 A3041 7390 49 9900 340/04 RMK AO2 T02220111
93073KASE ASE20160718180510707/18/16 18:05:31  5-MIN KASE 190105Z 03003KT 10SM SCT090 22/11 A3041 7390 50 9800 020/03 RMK AO2 T02170111
93073KASE ASE20160718181011407/18/16 18:10:31  5-MIN KASE 190110Z 01003KT 10SM SCT095 SCT110 22/11 A3041 7390 49 9800 360/03 RMK AO2 T02170106
93073KASE ASE20160718181512607/18/16 18:15:31  5-MIN KASE 190115Z 01003KT 10SM SCT090 BKN110 22/11 A3041 7390 49 9800 360/03 RMK AO2 LTG DSNT SW T02170106
93073KASE ASE20160718182011907/18/16 18:20:31  5-MIN KASE 190120Z 00000KT 10SM BKN100 22/11 A3040 7400 49 9800 000/00 RMK AO2 LTG DSNT SW T02170106
93073KASE ASE20160718182511907/18/16 18:25:31  5-MIN KASE 190125Z 01003KT 10SM BKN100 22/11 A3040 7400 49 9800 360/03 RMK AO2 LTG DSNT SW T02170106
93073KASE ASE20160718183011907/18/16 18:30:31  5-MIN KASE 190130Z 33003KT 10SM SCT100 21/11 A3040 7400 52 9800 320/03 RMK AO2 LTG DSNT SW T02110111
93073KASE ASE20160718183511907/18/16 18:35:31  5-MIN KASE 190135Z 00000KT 10SM BKN110 21/11 A3040 7400 52 9800 000/00 RMK AO2 LTG DSNT SW T02110111
93073KASE ASE20160718184011907/18/16 18:40:31  5-MIN KASE 190140Z 00000KT 10SM SCT110 21/11 A3040 7400 52 9800 000/00 RMK AO2 LTG DSNT SW T02110111
93073KASE ASE20160718184511907/18/16 18:45:31  5-MIN KASE 190145Z 00000KT 10SM SCT110 21/12 A3040 7400 56 9700 000/00 RMK AO2 LTG DSNT SW T02060117
93073KASE ASE20160718185012607/18/16 18:50:31  5-MIN KASE 190150Z 00000KT 10SM SCT110 20/12 A3040 7400 58 9700 000/00 RMK AO2 LTG DSNT SW SLP162 T02000117
93073KASE ASE20160718185513307/18/16 18:55:31  5-MIN KASE 190155Z 00000KT 10SM FEW050 SCT100 BKN120 21/12 A3040 7400 54 9800 000/00 RMK AO2 LTG DSNT SW T02110117
93073KASE ASE20160718190015707/18/16 19:00:31  5-MIN KASE 190200Z 00000KT 10SM -RA FEW048 SCT095 BKN110 21/12 A3040 7400 54 9800 000/00 RMK AO2 LTG DSNT S AND SW RAB0159 P0000 T02110117
93073KASE ASE20160718190515007/18/16 19:05:31  5-MIN KASE 190205Z 00000KT 10SM -RA FEW048 BKN090 BKN110 21/12 A3040 7400 58 9700 000/00 RMK AO2 LTG DSNT S RAB0159 P0000 T02060122
93073KASE ASE20160718191014907/18/16 19:10:31  5-MIN KASE 190210Z 00000KT 10SM FEW046 BKN090 BKN110 21/12 A3040 7400 58 9700 000/00 RMK AO2 LTG DSNT S RAB0159E08 P0000 T02060122
93073KASE ASE20160718191515407/18/16 19:15:31  5-MIN KASE 190215Z 00000KT 10SM VCTS FEW046 SCT085 BKN100 20/13 A3040 7400 63 9700 000/00 RMK AO2 LTG DSNT S RAB0159E08 P0000 T02000128
93073KASE ASE20160718192014307/18/16 19:20:31  5-MIN KASE 190220Z 19004KT 10SM VCTS FEW045 BKN090 BKN110 20/12 A3040 7400 60 9700 180/04 RMK AO2 RAB0159E08 P0000 T02000122
93073KASE ASE20160718192515507/18/16 19:25:31  5-MIN KASE 190225Z 19005KT 10SM VCTS FEW043 BKN090 BKN110 20/13 A3041 7390 63 9700 180/05 RMK AO2 LTG DSNT SW RAB0159E08 P0000 T02000128
93073KASE ASE20160718193015807/18/16 19:30:31  5-MIN KASE 190230Z 17013G18KT 10SM TS FEW065 BKN085 20/13 A3042 7390 63 9600 160/13G18 RMK AO2 LTG DSNT SW RAB0159E08 TSB27 P0000 T02000128
93073KASE ASE20160718193518907/18/16 19:35:31  5-MIN KASE 190235Z 20017G29KT 10SM -TSRA FEW065 BKN080 BKN095 21/11 A3043 7380 52 9700 190/17G29 RMK AO2 PK WND 17029/0233 LTG DSNT SW RAB0159E08B33 TSB27 P0000 T02060106
93073KASE ASE20160718194018907/18/16 19:40:31  5-MIN KASE 190240Z 17017G29KT 10SM -TSRA FEW065 BKN085 18/12 A3044 7370 65 9400 160/17G29 RMK AO2 PK WND 17029/0233 LTG DSNT SW RAB0159E08B33 TSB27 PRESRR P0001 T01830117
93073KASE ASE20160718194519307/18/16 19:45:31  5-MIN KASE 190245Z 15009G23KT 7SM TSRA FEW023 SCT070 OVC085 17/12 A3044 7360 69 9300 140/09G23 RMK AO2 PK WND 17029/0233 LTG DSNT SW AND W RAB0159E08B33 TSB27 P0002 T01720117
93073KASE ASE20160718195020707/18/16 19:50:31  5-MIN KASE 190250Z 12010KT 6SM -TSRA FEW020 BKN065 OVC085 16/12 A3044 7360 77 9200 110/10 RMK AO2 PK WND 17029/0233 LTG DSNT SW AND W RAB0159E08B33 TSB27 SLP183 P0003 60003 T01610122 58002
93073KASE ASE20160718195515807/18/16 19:55:31  5-MIN KASE 190255Z 15006KT 6SM VCTS RA FEW023 BKN050 OVC075 15/12 A3044 7360 83 9100 140/06 RMK AO2 LTG DSNT SW AND W TSE54 P0001 T01500122
93073KASE ASE20160718200016107/18/16 20:00:31  5-MIN KASE 190300Z 24009KT 6SM VCTS -RA FEW021 BKN048 OVC075 16/13 A3045 7360 83 9100 240/09 RMK AO2 LTG DSNT SW AND W TSE0254 P0001 T01560128
93073KASE ASE20160718200515607/18/16 20:05:31  5-MIN KASE 190305Z 00000KT 9SM -RA FEW024 BKN046 OVC110 15/13 A3045 7360 86 9100 000/00 RMK AO2 LTG DSNT SW AND W TSE0254 P0001 T01500128
93073KASE ASE20160718201015707/18/16 20:10:31  5-MIN KASE 190310Z 03004KT 10SM -RA FEW024 BKN090 OVC110 15/13 A3045 7360 86 9100 020/04 RMK AO2 LTG DSNT SW AND W TSE0254 P0001 T01500128
93073KASE ASE20160718201515907/18/16 20:15:31  5-MIN KASE 190315Z 00000KT 10SM FEW024 SCT047 OVC110 15/12 A3045 7360 83 9100 000/00 RMK AO2 LTG DSNT SW AND W RAE12 TSE0254 P0001 T01500122
93073KASE ASE20160718202015207/18/16 20:20:31  5-MIN KASE 190320Z 00000KT 10SM FEW044 BKN110 15/13 A3045 7360 86 9100 000/00 RMK AO2 LTG DSNT SW AND W RAE12 TSE0254 P0001 T01500128
93073KASE ASE20160718202515007/18/16 20:25:31  5-MIN KASE 190325Z 21003KT 10SM VCTS BKN110 14/13 A3045 7350 90 9000 200/03 RMK AO2 LTG DSNT SW AND W RAE12 TSE0254 P0001 T01440128
93073KASE ASE20160718203015707/18/16 20:30:31  5-MIN KASE 190330Z 20005KT 10SM VCTS BKN100 14/13 A3046 7340 90 9000 190/05 RMK AO2 LTG DSNT NE AND SW AND W RAE12 TSE0254 P0001 T01440128
93073KASE ASE20160718203516407/18/16 20:35:31  5-MIN KASE 190335Z 22008KT 10SM VCTS BKN100 14/13 A3048 7320 90 9000 210/08 RMK AO2 LTG DSNT NE AND SW AND W RAE12 TSE0254 PRESRR P0001 T01440128
93073KASE ASE20160718204017907/18/16 20:40:31  5-MIN KASE 190340Z 22005KT 10SM TS FEW070 BKN090 BKN110 14/13 A3050 7310 90 8900 220/05 RMK AO2 LTG DSNT NE AND SW AND W RAE12 TSE0254B40 PRESRR P0001 T01440128
93073KASE ASE20160718204517807/18/16 20:45:31  5-MIN KASE 190345Z VRB05KT 8SM TS SCT070 BKN085 BKN110 15/12 A3051 7300 83 9000 VRB/05 RMK AO2 LTG DSNT NE AND SW AND W RAE12 TSE0254B40 PRESRR P0003 T01500122
93073KASE ASE20160718205016507/18/16 20:50:31  5-MIN KASE 190350Z VRB05KT 8SM TSRA SCT070 BKN090 15/13 A3050 7310 86 9000 VRB/05 RMK AO2 LTG DSNT W-NE RAE12B46 TSE0254B40 SLP197 P0004 T01500128
93073KASE ASE20160718205516407/18/16 20:55:31  5-MIN KASE 190355Z 18009G16KT 140V220 6SM TSRA FEW070 BKN090 15/11 A3051 7300 77 9000 170/09G16 130V210 RMK AO2 LTG DSNT W AND NW P0002 T01500111
93073KASE ASE20160718210016107/18/16 21:00:31  5-MIN KASE 190400Z 23008G16KT 170V260 4SM +TSRA SCT070 OVC090 15/10 A3052 7290 72 9000 220/08G16 160V250 RMK AO2 LTG DSNT W-NE P0007 T01500100
93073KASE ASE20160718210515707/18/16 21:05:31  5-MIN KASE 190405Z VRB03G16KT 3SM +TSRA FEW050 SCT065 OVC085 15/09 A3052 7290 69 9000 VRB/03G16 RMK AO2 LTG DSNT NE AND NW P0010 T01500094
93073KASE ASE20160718211015007/18/16 21:10:31  5-MIN KASE 190410Z 05006KT 3SM TSRA SCT050 BKN070 OVC085 14/11 A3052 7290 80 8900 040/06 RMK AO2 LTG DSNT NE AND NW P0012 T01390106
93073KASE ASE20160718211516007/18/16 21:15:31  5-MIN KASE 190415Z 04007KT 350V070 5SM -TSRA BKN050 OVC090 13/11 A3050 7300 83 8800 030/07 340V060 RMK AO2 LTG DSNT NE AND NW P0012 T01330106
93073KASE ASE20160718212015707/18/16 21:20:31  5-MIN KASE 190420Z 04010G15KT 7SM -TSRA FEW023 BKN055 OVC090 14/11 A3048 7320 80 8900 030/10G15 RMK AO2 LTG DSNT NW PRESFR P0013 T01390106
93073KASE ASE20160718212519307/18/16 21:25:31  5-MIN KASE 190425Z 08007G26KT 270V180 7SM RA FEW027 BKN050 OVC090 14/10 A3049 7310 77 8900 070/07G26 260V170 RMK AO2 PK WND 03026/0423 LTG DSNT N AND NW TSE23 P0014 T01390100
93073KASE ASE20160718213016207/18/16 21:30:31  5-MIN KASE 190430Z 8SM -RA FEW027 BKN050 OVC095 14/11 A3050 7310 83 8900 M /M RMK AO2 PK WND 03026/0423 LTG DSNT N AND NW TSE23 P0014 T01390111
93073KASE ASE20160718213517307/18/16 21:35:31  5-MIN KASE 190435Z 11004KT 10SM -RA FEW027 SCT050 BKN085 14/11 A3050 7310 80 8900 100/04 RMK AO2 PK WND 03026/0423 LTG DSNT N AND NW TSE23 P0014 T01440111
93073KASE ASE20160718214017507/18/16 21:40:31  5-MIN KASE 190440Z 18005KT 10SM FEW027 SCT050 BKN095 14/12 A3049 7320 83 9000 170/05 RMK AO2 PK WND 03026/0423 LTG DSNT W AND NW RAE40 TSE23 P0014 T01440117
93073KASE ASE20160718214516807/18/16 21:45:31  5-MIN KASE 190445Z 15008KT 10SM FEW029 SCT095 14/12 A3049 7320 83 9000 140/08 RMK AO2 PK WND 03026/0423 LTG DSNT W AND NW RAE40 TSE23 P0014 T01440117
93073KASE ASE20160718215017507/18/16 21:50:31  5-MIN KASE 190450Z 14005KT 10SM FEW080 FEW100 14/12 A3048 7320 83 9000 130/05 RMK AO2 PK WND 03026/0423 LTG DSNT W AND NW RAE40 TSE23 SLP192 P0014 T01440117
93073KASE ASE20160718215512207/18/16 21:55:31  5-MIN KASE 190455Z 15007KT 10SM CLR 14/12 A3048 7320 86 8900 140/07 RMK AO2 LTG DSNT W AND NW T01390117
93073KASE ASE20160718220011707/18/16 22:00:31  5-MIN KASE 190500Z 16008KT 10SM CLR 14/12 A3048 7330 83 9000 150/08 RMK AO2 LTG DSNT W-N T01440117
93073KASE ASE20160718220511707/18/16 22:05:31  5-MIN KASE 190505Z 16010KT 10SM CLR 15/11 A3048 7330 77 9000 150/10 RMK AO2 LTG DSNT W-N T01500111
93073KASE ASE20160718221012207/18/16 22:10:31  5-MIN KASE 190510Z 16009KT 10SM CLR 16/11 A3048 7320 74 9100 150/09 RMK AO2 LTG DSNT N AND NW T01560111
93073KASE ASE20160718221512207/18/16 22:15:31  5-MIN KASE 190515Z 19009KT 10SM CLR 14/11 A3048 7320 80 9000 180/09 RMK AO2 LTG DSNT N AND NW T01440111
93073KASE ASE20160718222011607/18/16 22:20:31  5-MIN KASE 190520Z 20009KT 10SM CLR 13/11 A3049 7320 86 8800 190/09 RMK AO2 LTG DSNT NW T01330111
93073KASE ASE20160718222510407/18/16 22:25:31  5-MIN KASE 190525Z 18009KT 10SM CLR 13/11 A3048 7320 86 8800 180/09 RMK AO2 T01330111
93073KASE ASE20160718223011607/18/16 22:30:31  5-MIN KASE 190530Z 16006KT 10SM CLR 14/12 A3048 7320 86 8900 150/06 RMK AO2 LTG DSNT SW T01390117
93073KASE ASE20160718223511907/18/16 22:35:31  5-MIN KASE 190535Z 14007KT 10SM FEW095 14/11 A3048 7320 83 8900 130/07 RMK AO2 LTG DSNT SW T01390111
93073KASE ASE20160718224011907/18/16 22:40:31  5-MIN KASE 190540Z 14009KT 10SM SCT090 14/11 A3048 7330 83 8900 130/09 RMK AO2 LTG DSNT SW T01390111
93073KASE ASE20160718224512607/18/16 22:45:31  5-MIN KASE 190545Z 15008KT 10SM BKN090 BKN120 14/11 A3048 7330 83 8900 150/08 RMK AO2 LTG DSNT SW T01390111
93073KASE ASE20160718225014507/18/16 22:50:31  5-MIN KASE 190550Z 14007KT 10SM SCT090 BKN120 14/12 A3048 7320 86 8900 130/07 RMK AO2 SLP198 60023 T01390117 10228 20133 53008
93073KASE ASE20160718225511407/18/16 22:55:31  5-MIN KASE 190555Z VRB03KT 10SM SCT090 BKN120 13/11 A3049 7320 86 8800 VRB/03 RMK AO2 T01330111
93073KASE ASE20160718230011407/18/16 23:00:31  5-MIN KASE 190600Z VRB03KT 10SM BKN090 BKN120 13/11 A3049 7320 86 8800 VRB/03 RMK AO2 T01330111
93073KASE ASE20160718230512107/18/16 23:05:31  5-MIN KASE 190605Z 00000KT 10SM SCT080 BKN090 BKN120 14/11 A3050 7310 83 8900 000/00 RMK AO2 T01390111
93073KASE ASE20160718231012107/18/16 23:10:31  5-MIN KASE 190610Z 08003KT 10SM BKN075 BKN090 BKN120 14/11 A3049 7310 83 8900 070/03 RMK AO2 T01390111
93073KASE ASE20160718231513507/18/16 23:15:31  5-MIN KASE 190615Z AUTO 00000KT 10SM -RA BKN075 BKN090 14/11 A3049 7320 83 8900 000/00 RMK AO2 RAB15 P0000 T01390111
93073KASE ASE20160718232012807/18/16 23:20:31  5-MIN KASE 190620Z AUTO VRB04KT 10SM -RA BKN075 14/11 A3049 7320 83 8900 VRB/04 RMK AO2 RAB15 P0000 T01390111
93073KASE ASE20160718232512807/18/16 23:25:31  5-MIN KASE 190625Z AUTO 21003KT 10SM -RA BKN075 14/12 A3049 7320 83 9000 200/03 RMK AO2 RAB15 P0001 T01440117
93073KASE ASE20160718233014107/18/16 23:30:31  5-MIN KASE 190630Z AUTO 21007KT 9SM -RA FEW060 BKN075 OVC120 14/12 A3049 7320 86 8900 200/07 RMK AO2 RAB15 P0002 T01390117
93073KASE ASE20160718233514207/18/16 23:35:31  5-MIN KASE 190635Z AUTO 21007KT 10SM -RA FEW040 BKN070 OVC120 13/12 A3049 7320 89 8800 200/07 RMK AO2 RAB15 P0002 T01330117
93073KASE ASE20160718234014207/18/16 23:40:31  5-MIN KASE 190640Z AUTO 00000KT 10SM -RA FEW038 SCT075 BKN120 14/12 A3049 7320 86 8900 000/00 RMK AO2 RAB15 P0002 T01390117
93073KASE ASE20160718234514107/18/16 23:45:31  5-MIN KASE 190645Z AUTO 12003KT 10SM FEW040 SCT075 BKN120 13/12 A3048 7320 89 8800 110/03 RMK AO2 RAB15E45 P0002 T01330117
93073KASE ASE20160718235015807/18/16 23:50:31  5-MIN KASE 190650Z AUTO 12004KT 10SM FEW040 SCT080 BKN120 13/12 A3048 7330 89 8800 110/04 RMK AO2 RAB15E45 SLP194 P0002 T01330117 402720128
93073KASE ASE20160718235512607/18/16 23:55:31  5-MIN KASE 190655Z AUTO 00000KT 10SM FEW038 SCT085 BKN120 13/12 A3048 7330 89 8800 000/00 RMK AO2 T01330117
93073KASE ASE20160719000011907/19/16 00:00:31  5-MIN KASE 190700Z AUTO 20004KT 10SM SCT090 BKN120 13/12 A3048 7330 89 8800 190/04 RMK AO2 T01330117
93073KASE ASE20160719000513007/19/16 00:05:31  5-MIN KASE 190705Z AUTO 00000KT 10SM BKN090 BKN120 13/12 A3047 7330 89 8800 000/00 RMK AO2 LTG DSNT W T01330117
93073KASE ASE20160719001013007/19/16 00:10:31  5-MIN KASE 190710Z AUTO 21004KT 10SM SCT090 BKN110 13/12 A3047 7330 89 8800 200/04 RMK AO2 LTG DSNT W T01330117
93073KASE ASE20160719001513007/19/16 00:15:31  5-MIN KASE 190715Z AUTO 20004KT 10SM SCT090 BKN110 13/12 A3047 7340 89 8900 190/04 RMK AO2 LTG DSNT W T01330117
93073KASE ASE20160719002013007/19/16 00:20:31  5-MIN KASE 190720Z AUTO 20005KT 10SM SCT090 BKN110 13/12 A3047 7340 89 8900 190/05 RMK AO2 LTG DSNT W T01330117
93073KASE ASE20160719002513007/19/16 00:25:31  5-MIN KASE 190725Z AUTO 22007KT 10SM SCT090 BKN110 13/12 A3047 7340 89 8900 210/07 RMK AO2 LTG DSNT W T01330117
93073KASE ASE20160719003013007/19/16 00:30:31  5-MIN KASE 190730Z AUTO 22006KT 10SM SCT090 SCT110 13/12 A3047 7330 93 8800 210/06 RMK AO2 LTG DSNT W T01280117
93073KASE ASE20160719003513007/19/16 00:35:31  5-MIN KASE 190735Z AUTO 00000KT 10SM SCT090 BKN110 13/12 A3047 7330 89 8800 000/00 RMK AO2 LTG DSNT W T01330117
93073KASE ASE20160719004011907/19/16 00:40:31  5-MIN KASE 190740Z AUTO 00000KT 10SM SCT090 BKN110 13/12 A3048 7330 89 8800 000/00 RMK AO2 T01330117
93073KASE ASE20160719004511207/19/16 00:45:31  5-MIN KASE 190745Z AUTO 09004KT 10SM BKN090 13/12 A3048 7330 89 8800 080/04 RMK AO2 T01330117
93073KASE ASE20160719005011907/19/16 00:50:31  5-MIN KASE 190750Z AUTO 00000KT 10SM BKN090 13/12 A3048 7320 89 8800 000/00 RMK AO2 SLP192 T01330117
93073KASE ASE20160719005511207/19/16 00:55:31  5-MIN KASE 190755Z AUTO 35004KT 10SM BKN090 13/12 A3049 7320 89 8800 340/04 RMK AO2 T01330117
93073KASE ASE20160719010011207/19/16 01:00:31  5-MIN KASE 190800Z AUTO 36006KT 10SM OVC090 13/12 A3050 7310 89 8800 350/06 RMK AO2 T01330117
93073KASE ASE20160719010511207/19/16 01:05:31  5-MIN KASE 190805Z AUTO 34006KT 10SM OVC085 13/12 A3050 7310 93 8800 330/06 RMK AO2 T01280117
93073KASE ASE20160719011011207/19/16 01:10:31  5-MIN KASE 190810Z AUTO 34005KT 10SM OVC085 13/12 A3051 7300 93 8700 330/05 RMK AO2 T01280117
93073KASE ASE20160719011511207/19/16 01:15:31  5-MIN KASE 190815Z AUTO 34004KT 10SM OVC085 13/12 A3051 7300 93 8700 330/04 RMK AO2 T01280117
93073KASE ASE20160719012011207/19/16 01:20:31  5-MIN KASE 190820Z AUTO 34004KT 10SM OVC085 13/12 A3051 7300 89 8800 330/04 RMK AO2 T01330117
93073KASE ASE20160719012511207/19/16 01:25:31  5-MIN KASE 190825Z AUTO 32006KT 10SM OVC080 13/12 A3051 7300 93 8700 310/06 RMK AO2 T01280117
93073KASE ASE20160719013011207/19/16 01:30:31  5-MIN KASE 190830Z AUTO 34004KT 10SM OVC080 13/12 A3052 7290 93 8700 330/04 RMK AO2 T01280117
93073KASE ASE20160719013511907/19/16 01:35:31  5-MIN KASE 190835Z AUTO 00000KT 10SM BKN070 OVC085 13/12 A3052 7290 89 8800 000/00 RMK AO2 T01330117
93073KASE ASE20160719014011907/19/16 01:40:31  5-MIN KASE 190840Z AUTO 00000KT 10SM BKN070 OVC085 13/12 A3052 7290 89 8800 000/00 RMK AO2 T01330117
93073KASE ASE20160719014511907/19/16 01:45:31  5-MIN KASE 190845Z AUTO 28003KT 10SM BKN075 OVC090 13/11 A3052 7290 86 8800 270/03 RMK AO2 T01330111
93073KASE ASE20160719015013807/19/16 01:50:31  5-MIN KASE 190850Z AUTO 23005KT 10SM BKN075 OVC090 13/11 A3052 7290 86 8800 220/05 RMK AO2 SLP203 60002 T01330111 51012
93073KASE ASE20160719015511907/19/16 01:55:31  5-MIN KASE 190855Z AUTO 21004KT 10SM BKN070 OVC090 13/12 A3052 7290 89 8800 200/04 RMK AO2 T01330117
93073KASE ASE20160719020011907/19/16 02:00:31  5-MIN KASE 190900Z AUTO 19004KT 10SM BKN070 OVC090 13/12 A3052 7290 89 8800 180/04 RMK AO2 T01330117
93073KASE ASE20160719020513507/19/16 02:05:31  5-MIN KASE 190905Z AUTO 17004KT 10SM -RA BKN070 OVC090 13/12 A3051 7300 89 8800 160/04 RMK AO2 RAB05 P0000 T01330117
93073KASE ASE20160719021013507/19/16 02:10:31  5-MIN KASE 190910Z AUTO 14004KT 10SM -RA BKN075 OVC090 13/12 A3051 7300 93 8800 130/04 RMK AO2 RAB05 P0000 T01330122
93073KASE ASE20160719021513507/19/16 02:15:31  5-MIN KASE 190915Z AUTO 16006KT 10SM -RA BKN070 OVC090 13/12 A3052 7290 93 8800 150/06 RMK AO2 RAB05 P0000 T01330122
93073KASE ASE20160719022013507/19/16 02:20:31  5-MIN KASE 190920Z AUTO 17008KT 10SM -RA BKN070 OVC090 13/12 A3052 7290 93 8800 160/08 RMK AO2 RAB05 P0000 T01330122
93073KASE ASE20160719022512807/19/16 02:25:31  5-MIN KASE 190925Z AUTO 16006KT 10SM -RA OVC070 13/12 A3052 7290 89 8800 150/06 RMK AO2 RAB05 P0001 T01330117
93073KASE ASE20160719023012807/19/16 02:30:31  5-MIN KASE 190930Z AUTO 16005KT 10SM -RA OVC075 13/12 A3052 7300 93 8800 160/05 RMK AO2 RAB05 P0001 T01330122
93073KASE ASE20160719023512807/19/16 02:35:31  5-MIN KASE 190935Z AUTO 17006KT 10SM -RA OVC070 13/12 A3052 7290 93 8800 160/06 RMK AO2 RAB05 P0002 T01330122
93073KASE ASE20160719024012607/19/16 02:40:31  5-MIN KASE 190940Z AUTO 16006KT 7SM RA OVC070 13/12 A3051 7300 93 8800 150/06 RMK AO2 RAB05 P0003 T01330122
93073KASE ASE20160719024513407/19/16 02:45:31  5-MIN KASE 190945Z AUTO 18006KT 7SM -RA BKN065 OVC080 13/12 A3051 7300 93 8800 170/06 RMK AO2 RAB05 P0004 T01330122
93073KASE ASE20160719025014107/19/16 02:50:31  5-MIN KASE 190950Z AUTO 18004KT 9SM -RA BKN065 OVC080 13/12 A3051 7300 93 8800 170/04 RMK AO2 RAB05 SLP218 P0004 T01330122
93073KASE ASE20160719025512907/19/16 02:55:31  5-MIN KASE 190955Z AUTO 18006KT 10SM -RA BKN070 OVC080 13/12 A3051 7300 93 8800 170/06 RMK AO2 P0000 T01330122
93073KASE ASE20160719030012007/19/16 03:00:31  5-MIN KASE 191000Z AUTO 17005KT 9SM RA OVC070 13/12 A3051 7300 93 8800 160/05 RMK AO2 P0001 T01330122
93073KASE ASE20160719030512107/19/16 03:05:31  5-MIN KASE 191005Z AUTO 17006KT 9SM -RA OVC070 13/12 A3052 7290 93 8800 160/06 RMK AO2 P0002 T01330122
93073KASE ASE20160719031012707/19/16 03:10:31  5-MIN KASE 191010Z AUTO 14005KT 8SM RA SCT060 OVC075 13/12 A3052 7290 93 8800 130/05 RMK AO2 P0004 T01330122
93073KASE ASE20160719031513007/19/16 03:15:31  5-MIN KASE 191015Z AUTO 14008KT 6SM RA BR SCT060 OVC075 13/12 A3052 7290 89 8800 140/08 RMK AO2 P0005 T01330117
93073KASE ASE20160719032013007/19/16 03:20:31  5-MIN KASE 191020Z AUTO 14007KT 6SM RA BR BKN060 OVC070 13/12 A3052 7290 89 8800 130/07 RMK AO2 P0006 T01330117
93073KASE ASE20160719032513007/19/16 03:25:31  5-MIN KASE 191025Z AUTO 13006KT 6SM RA BR BKN055 OVC070 13/12 A3052 7290 89 8800 130/06 RMK AO2 P0007 T01330117
93073KASE ASE20160719033013107/19/16 03:30:31  5-MIN KASE 191030Z AUTO 14006KT 6SM -RA BR BKN055 OVC070 13/12 A3051 7300 93 8700 130/06 RMK AO2 P0008 T01280117
93073KASE ASE20160719033512107/19/16 03:35:31  5-MIN KASE 191035Z AUTO 13008KT 8SM -RA OVC060 13/12 A3051 7300 93 8800 120/08 RMK AO2 P0008 T01330122
93073KASE ASE20160719034012107/19/16 03:40:31  5-MIN KASE 191040Z AUTO 13007KT 8SM -RA OVC060 13/12 A3050 7310 89 8800 120/07 RMK AO2 P0009 T01330117
93073KASE ASE20160719034512107/19/16 03:45:31  5-MIN KASE 191045Z AUTO 14005KT 8SM -RA OVC065 13/12 A3050 7310 89 8800 130/05 RMK AO2 P0010 T01330117
93073KASE ASE20160719035012807/19/16 03:50:31  5-MIN KASE 191050Z AUTO 16006KT 9SM -RA OVC065 13/12 A3050 7310 93 8800 160/06 RMK AO2 SLP209 P0010 T01330122
93073KASE ASE20160719035512207/19/16 03:55:31  5-MIN KASE 191055Z AUTO 18006KT 10SM -RA OVC070 13/12 A3050 7310 93 8800 170/06 RMK AO2 P0000 T01330122
93073KASE ASE20160719040012207/19/16 04:00:31  5-MIN KASE 191100Z AUTO 22003KT 10SM -RA OVC070 13/12 A3051 7300 93 8800 210/03 RMK AO2 P0000 T01330122
93073KASE ASE20160719040512107/19/16 04:05:31  5-MIN KASE 191105Z AUTO 00000KT 9SM -RA OVC070 13/12 A3051 7300 93 8800 000/00 RMK AO2 P0001 T01330122
93073KASE ASE20160719041012207/19/16 04:10:31  5-MIN KASE 191110Z AUTO 08006KT 10SM -RA OVC070 13/12 A3051 7300 96 8700 070/06 RMK AO2 P0001 T01280122
93073KASE ASE20160719041512207/19/16 04:15:31  5-MIN KASE 191115Z AUTO 10003KT 10SM -RA OVC070 13/12 A3052 7300 96 8700 090/03 RMK AO2 P0001 T01280122
93073KASE ASE20160719042012207/19/16 04:20:31  5-MIN KASE 191120Z AUTO 00000KT 10SM -RA OVC070 13/12 A3051 7300 93 8800 000/00 RMK AO2 P0002 T01330122
93073KASE ASE20160719042512907/19/16 04:25:31  5-MIN KASE 191125Z AUTO 00000KT 10SM -RA BKN075 OVC100 13/12 A3051 7300 93 8800 000/00 RMK AO2 P0002 T01330122
93073KASE ASE20160719043012907/19/16 04:30:31  5-MIN KASE 191130Z AUTO 00000KT 10SM -RA BKN075 OVC100 13/12 A3051 7300 93 8800 000/00 RMK AO2 P0002 T01330122
93073KASE ASE20160719043512907/19/16 04:35:31  5-MIN KASE 191135Z AUTO 01003KT 10SM -RA BKN075 OVC100 13/12 A3051 7300 93 8800 360/03 RMK AO2 P0002 T01330122
93073KASE ASE20160719044012907/19/16 04:40:31  5-MIN KASE 191140Z AUTO 33003KT 10SM -RA SCT075 OVC100 13/12 A3050 7300 96 8800 320/03 RMK AO2 P0002 T01280122
93073KASE ASE20160719044513607/19/16 04:45:31  5-MIN KASE 191145Z AUTO 00000KT 10SM -RA FEW075 BKN090 OVC100 13/12 A3050 7310 96 8800 000/00 RMK AO2 P0002 T01280122
93073KASE ASE20160719045016607/19/16 04:50:31  5-MIN KASE 191150Z AUTO 30003KT 10SM -RA BKN085 OVC100 13/12 A3050 7310 96 8800 290/03 RMK AO2 SLP207 P0002 60019 70043 T01280122 10144 20128 53009
93073KASE ASE20160719045512907/19/16 04:55:31  5-MIN KASE 191155Z AUTO 22005KT 10SM -RA FEW075 OVC100 13/12 A3050 7310 96 8800 210/05 RMK AO2 P0000 T01280122
93073KASE ASE20160719050013607/19/16 05:00:31  5-MIN KASE 191200Z AUTO 20003KT 10SM -RA FEW075 SCT090 BKN110 13/12 A3050 7310 96 8800 190/03 RMK AO2 P0000 T01280122
93073KASE ASE20160719050513807/19/16 05:05:31  5-MIN KASE 191205Z AUTO 22003KT 10SM FEW075 SCT090 BKN110 13/12 A3050 7310 96 8800 210/03 RMK AO2 RAE05 P0000 T01280122
93073KASE ASE20160719051013107/19/16 05:10:31  5-MIN KASE 191210Z AUTO 20003KT 10SM BKN090 BKN110 13/12 A3049 7310 93 8800 200/03 RMK AO2 RAE05 P0000 T01280117
93073KASE ASE20160719051513807/19/16 05:15:31  5-MIN KASE 191215Z AUTO 17004KT 10SM FEW075 BKN090 BKN110 13/12 A3049 7320 93 8800 160/04 RMK AO2 RAE05 P0000 T01280117
93073KASE ASE20160719052013107/19/16 05:20:31  5-MIN KASE 191220Z AUTO 18005KT 10SM BKN100 BKN110 13/12 A3049 7310 96 8800 170/05 RMK AO2 RAE05 P0000 T01280122
93073KASE ASE20160719052512407/19/16 05:25:31  5-MIN KASE 191225Z AUTO 20005KT 10SM BKN100 13/12 A3049 7320 93 8800 190/05 RMK AO2 RAE05 P0000 T01280117
93073KASE ASE20160719053012407/19/16 05:30:31  5-MIN KASE 191230Z AUTO 21007KT 10SM BKN100 13/12 A3049 7320 93 8800 200/07 RMK AO2 RAE05 P0000 T01280117
93073KASE ASE20160719053513107/19/16 05:35:31  5-MIN KASE 191235Z AUTO 19003KT 10SM BKN100 BKN120 13/12 A3049 7320 93 8800 180/03 RMK AO2 RAE05 P0000 T01280117
93073KASE ASE20160719054012407/19/16 05:40:31  5-MIN KASE 191240Z AUTO 19004KT 10SM SCT100 13/12 A3049 7320 93 8800 190/04 RMK AO2 RAE05 P0000 T01280117
93073KASE ASE20160719054512407/19/16 05:45:31  5-MIN KASE 191245Z AUTO 17007KT 10SM SCT110 13/12 A3049 7320 93 8800 160/07 RMK AO2 RAE05 P0000 T01280117
93073KASE ASE20160719055013107/19/16 05:50:31  5-MIN KASE 191250Z AUTO 16006KT 10SM FEW110 13/12 A3049 7320 93 8800 150/06 RMK AO2 RAE05 SLP202 P0000 T01330122
93073KASE ASE20160719055510707/19/16 05:55:31  5-MIN KASE 191255Z 17006KT 10SM SCT110 13/12 A3049 7320 93 8800 160/06 RMK AO2 T01330122
93073KASE ASE20160719060010707/19/16 06:00:31  5-MIN KASE 191300Z 17007KT 10SM SCT110 13/12 A3049 7320 93 8800 160/07 RMK AO2 T01330122
93073KASE ASE20160719060510707/19/16 06:05:31  5-MIN KASE 191305Z 16006KT 10SM SCT110 13/12 A3049 7320 93 8800 150/06 RMK AO2 T01330122
93073KASE ASE20160719061010707/19/16 06:10:31  5-MIN KASE 191310Z 14007KT 10SM SCT110 14/12 A3049 7320 90 8900 130/07 RMK AO2 T01390122
93073KASE ASE20160719061510707/19/16 06:15:31  5-MIN KASE 191315Z 13008KT 10SM SCT110 14/12 A3048 7320 90 8900 120/08 RMK AO2 T01390122
93073KASE ASE20160719062010707/19/16 06:20:31  5-MIN KASE 191320Z 13008KT 10SM SCT110 14/12 A3048 7320 90 8900 130/08 RMK AO2 T01390122
93073KASE ASE20160719062510707/19/16 06:25:31  5-MIN KASE 191325Z 13007KT 10SM FEW110 14/12 A3048 7320 86 8900 120/07 RMK AO2 T01390117
93073KASE ASE20160719063010707/19/16 06:30:31  5-MIN KASE 191330Z 13009KT 10SM FEW110 14/12 A3049 7320 83 9000 120/09 RMK AO2 T01440117
93073KASE ASE20160719063510407/19/16 06:35:31  5-MIN KASE 191335Z 13006KT 10SM CLR 14/12 A3049 7320 83 9000 120/06 RMK AO2 T01440117
93073KASE ASE20160719064010707/19/16 06:40:31  5-MIN KASE 191340Z 12006KT 10SM FEW080 14/12 A3049 7320 83 9000 110/06 RMK AO2 T01440117
93073KASE ASE20160719064510707/19/16 06:45:31  5-MIN KASE 191345Z 12006KT 10SM SCT080 15/12 A3048 7320 80 9000 110/06 RMK AO2 T01500117
93073KASE ASE20160719065011407/19/16 06:50:31  5-MIN KASE 191350Z 12007KT 10SM BKN075 15/12 A3048 7320 80 9000 110/07 RMK AO2 SLP200 T01500117
93073KASE ASE20160719065510707/19/16 06:55:31  5-MIN KASE 191355Z 12005KT 10SM BKN080 15/12 A3048 7330 80 9000 110/05 RMK AO2 T01500117
93073KASE ASE20160719070010707/19/16 07:00:31  5-MIN KASE 191400Z 06003KT 10SM BKN080 16/12 A3048 7320 80 9100 050/03 RMK AO2 T01560122
93073KASE ASE20160719070510707/19/16 07:05:31  5-MIN KASE 191405Z VRB03KT 10SM BKN080 16/12 A3049 7320 77 9100 VRB/03 RMK AO2 T01560117
93073KASE ASE20160719071010707/19/16 07:10:31  5-MIN KASE 191410Z VRB03KT 10SM BKN080 16/12 A3049 7320 80 9100 VRB/03 RMK AO2 T01560122
93073KASE ASE20160719071510707/19/16 07:15:31  5-MIN KASE 191415Z 24003KT 10SM BKN080 16/12 A3049 7320 75 9100 230/03 RMK AO2 T01610117
93073KASE ASE20160719072010707/19/16 07:20:31  5-MIN KASE 191420Z 00000KT 10SM BKN080 16/12 A3049 7320 75 9100 000/00 RMK AO2 T01610117
93073KASE ASE20160719072510707/19/16 07:25:31  5-MIN KASE 191425Z 36006KT 10SM BKN080 17/13 A3049 7320 77 9200 350/06 RMK AO2 T01670128
93073KASE ASE20160719073010707/19/16 07:30:31  5-MIN KASE 191430Z 36006KT 10SM BKN080 17/12 A3049 7320 75 9200 350/06 RMK AO2 T01670122
93073KASE ASE20160719073510707/19/16 07:35:31  5-MIN KASE 191435Z 36005KT 10SM BKN080 17/12 A3049 7320 75 9200 350/05 RMK AO2 T01670122
93073KASE ASE20160719074010707/19/16 07:40:31  5-MIN KASE 191440Z 36005KT 10SM SCT080 17/12 A3049 7310 72 9300 360/05 RMK AO2 T01720122
93073KASE ASE20160719074510707/19/16 07:45:31  5-MIN KASE 191445Z 36005KT 10SM SCT080 17/12 A3050 7310 69 9300 350/05 RMK AO2 T01720117
93073KASE ASE20160719075012607/19/16 07:50:31  5-MIN KASE 191450Z 01005KT 10SM FEW080 17/12 A3050 7310 69 9300 360/05 RMK AO2 SLP210 60000 T01720117 55004
93073KASE ASE20160719075510707/19/16 07:55:31  5-MIN KASE 191455Z 35005KT 10SM FEW080 17/12 A3050 7310 69 9300 350/05 RMK AO2 T01720117
93073KASE ASE20160719080010407/19/16 08:00:31  5-MIN KASE 191500Z 01005KT 10SM CLR 17/12 A3050 7310 69 9300 360/05 RMK AO2 T01720117
93073KASE ASE20160719080510407/19/16 08:05:31  5-MIN KASE 191505Z 01005KT 10SM CLR 18/12 A3050 7310 67 9300 360/05 RMK AO2 T01780117
93073KASE ASE20160719081010407/19/16 08:10:31  5-MIN KASE 191510Z 36004KT 10SM CLR 18/12 A3050 7310 69 9300 350/04 RMK AO2 T01780122
93073KASE ASE20160719081510407/19/16 08:15:31  5-MIN KASE 191515Z VRB05KT 10SM CLR 18/12 A3050 7310 69 9300 VRB/05 RMK AO2 T01780122
93073KASE ASE20160719082010707/19/16 08:20:31  5-MIN KASE 191520Z 36007KT 10SM FEW075 17/12 A3050 7310 72 9300 350/07 RMK AO2 T01720122
93073KASE ASE20160719082510707/19/16 08:25:31  5-MIN KASE 191525Z 35005KT 10SM FEW075 18/12 A3050 7310 69 9300 350/05 RMK AO2 T01780122
93073KASE ASE20160719083010707/19/16 08:30:31  5-MIN KASE 191530Z 36005KT 10SM FEW075 18/12 A3050 7310 67 9300 350/05 RMK AO2 T01780117
93073KASE ASE20160719083510707/19/16 08:35:31  5-MIN KASE 191535Z 03004KT 10SM SCT070 18/12 A3050 7310 69 9300 020/04 RMK AO2 T01780122
93073KASE ASE20160719084010707/19/16 08:40:31  5-MIN KASE 191540Z 02006KT 10SM SCT075 18/13 A3050 7310 72 9400 010/06 RMK AO2 T01830133
93073KASE ASE20160719084510707/19/16 08:45:31  5-MIN KASE 191545Z 01006KT 10SM BKN080 18/13 A3050 7310 70 9400 010/06 RMK AO2 T01830128
93073KASE ASE20160719085012107/19/16 08:50:31  5-MIN KASE 191550Z 34005KT 10SM SCT060 BKN080 18/13 A3050 7310 72 9400 340/05 RMK AO2 SLP210 T01830133
93073KASE ASE20160719085513007/19/16 08:55:31  5-MIN KASE 191555Z 36007KT 320V030 10SM BKN080 BKN090 18/13 A3049 7320 70 9400 360/07 310V020 RMK AO2 T01830128
93073KASE ASE20160719090011407/19/16 09:00:31  5-MIN KASE 191600Z 34006KT 10SM SCT080 BKN090 18/12 A3049 7320 67 9400 330/06 RMK AO2 T01830122
93073KASE ASE20160719090511407/19/16 09:05:31  5-MIN KASE 191605Z 35006KT 10SM SCT080 OVC095 18/13 A3050 7310 70 9400 340/06 RMK AO2 T01830128
93073KASE ASE20160719091011407/19/16 09:10:31  5-MIN KASE 191610Z 36004KT 10SM FEW080 OVC095 19/13 A3049 7320 67 9400 350/04 RMK AO2 T01890128
93073KASE ASE20160719091510707/19/16 09:15:31  5-MIN KASE 191615Z 36006KT 10SM OVC090 18/13 A3049 7310 70 9400 350/06 RMK AO2 T01830128
93073KASE ASE20160719092010707/19/16 09:20:31  5-MIN KASE 191620Z 36004KT 10SM OVC090 18/13 A3049 7310 70 9400 350/04 RMK AO2 T01830128
93073KASE ASE20160719092511407/19/16 09:25:31  5-MIN KASE 191625Z VRB04KT 10SM FEW075 OVC095 19/13 A3049 7310 67 9400 VRB/04 RMK AO2 T01890128
93073KASE ASE20160719093011407/19/16 09:30:31  5-MIN KASE 191630Z 36005KT 10SM FEW075 OVC095 19/13 A3050 7310 67 9400 350/05 RMK AO2 T01890128
93073KASE ASE20160719093511407/19/16 09:35:31  5-MIN KASE 191635Z 35007KT 10SM SCT075 OVC095 19/13 A3050 7310 70 9400 340/07 RMK AO2 T01890133
93073KASE ASE20160719094011407/19/16 09:40:31  5-MIN KASE 191640Z 35005KT 10SM BKN075 OVC095 19/13 A3050 7310 70 9400 340/05 RMK AO2 T01890133
93073KASE ASE20160719094511407/19/16 09:45:31  5-MIN KASE 191645Z 01006KT 10SM BKN075 OVC095 19/13 A3050 7310 70 9400 360/06 RMK AO2 T01890133
93073KASE ASE20160719095012107/19/16 09:50:31  5-MIN KASE 191650Z 05006KT 10SM BKN075 OVC090 18/13 A3050 7310 72 9400 040/06 RMK AO2 SLP213 T01830133
93073KASE ASE20160719095511407/19/16 09:55:31  5-MIN KASE 191655Z 02008KT 10SM BKN075 OVC090 19/12 A3050 7310 65 9400 010/08 RMK AO2 T01890122
93073KASE ASE20160719100011407/19/16 10:00:31  5-MIN KASE 191700Z 01007KT 10SM BKN075 OVC095 19/12 A3050 7310 62 9400 360/07 RMK AO2 T01890117
93073KASE ASE20160719100511407/19/16 10:05:31  5-MIN KASE 191705Z 35008KT 10SM BKN075 OVC095 19/12 A3050 7310 62 9400 350/08 RMK AO2 T01890117
93073KASE ASE20160719101011407/19/16 10:10:31  5-MIN KASE 191710Z 35007KT 10SM BKN070 OVC095 19/12 A3050 7310 62 9400 340/07 RMK AO2 T01890117
93073KASE ASE20160719101511407/19/16 10:15:31  5-MIN KASE 191715Z 33006KT 10SM SCT070 OVC095 19/12 A3051 7300 62 9500 330/06 RMK AO2 T01940122
93073KASE ASE20160719102011407/19/16 10:20:31  5-MIN KASE 191720Z 33006KT 10SM SCT070 OVC090 19/12 A3051 7300 60 9500 320/06 RMK AO2 T01940117
93073KASE ASE20160719102511407/19/16 10:25:31  5-MIN KASE 191725Z 02006KT 10SM SCT075 OVC095 19/12 A3051 7300 62 9400 010/06 RMK AO2 T01890117
93073KASE ASE20160719103011407/19/16 10:30:31  5-MIN KASE 191730Z 36005KT 10SM SCT070 OVC095 19/12 A3051 7300 60 9500 350/05 RMK AO2 T01940117
93073KASE ASE20160719103511407/19/16 10:35:31  5-MIN KASE 191735Z 35004KT 10SM SCT070 OVC090 19/12 A3051 7300 65 9400 340/04 RMK AO2 T01890122
93073KASE ASE20160719104011407/19/16 10:40:31  5-MIN KASE 191740Z 32010KT 10SM BKN080 OVC095 19/12 A3051 7300 65 9400 310/10 RMK AO2 T01890122
93073KASE ASE20160719104511407/19/16 10:45:31  5-MIN KASE 191745Z 33007KT 10SM BKN080 OVC095 19/12 A3051 7300 65 9400 320/07 RMK AO2 T01890122
93073KASE ASE20160719105014507/19/16 10:50:31  5-MIN KASE 191750Z 33007KT 10SM SCT080 BKN095 19/12 A3051 7300 65 9400 320/07 RMK AO2 SLP216 60000 T01890122 10194 20128 55002
93073KASE ASE20160719105511407/19/16 10:55:31  5-MIN KASE 191755Z 34006KT 10SM FEW070 OVC090 19/12 A3051 7300 65 9400 330/06 RMK AO2 T01890122
93073KASE ASE20160719110011407/19/16 11:00:31  5-MIN KASE 191800Z 35005KT 10SM FEW070 OVC095 19/13 A3051 7300 67 9400 340/05 RMK AO2 T01890128
93073KASE ASE20160719110511407/19/16 11:05:31  5-MIN KASE 191805Z VRB04KT 10SM FEW070 OVC095 19/13 A3051 7300 65 9500 VRB/04 RMK AO2 T01940128
93073KASE ASE20160719111010707/19/16 11:10:31  5-MIN KASE 191810Z 34005KT 10SM OVC100 20/13 A3051 7300 63 9500 330/05 RMK AO2 T02000128
93073KASE ASE20160719111510707/19/16 11:15:31  5-MIN KASE 191815Z VRB03KT 10SM OVC100 19/12 A3050 7310 62 9500 VRB/03 RMK AO2 T01940122
93073KASE ASE20160719112010707/19/16 11:20:31  5-MIN KASE 191820Z VRB03KT 10SM OVC100 20/13 A3050 7310 63 9600 VRB/03 RMK AO2 T02000128
93073KASE ASE20160719112510707/19/16 11:25:31  5-MIN KASE 191825Z 00000KT 10SM BKN100 21/12 A3050 7310 58 9600 000/00 RMK AO2 T02060122
93073KASE ASE20160719113010707/19/16 11:30:31  5-MIN KASE 191830Z 00000KT 10SM BKN100 21/12 A3050 7310 58 9600 000/00 RMK AO2 T02060122
93073KASE ASE20160719113510707/19/16 11:35:31  5-MIN KASE 191835Z 30006KT 10SM OVC110 21/12 A3050 7310 58 9600 300/06 RMK AO2 T02060122
93073KASE ASE20160719114010707/19/16 11:40:31  5-MIN KASE 191840Z 00000KT 10SM BKN110 21/12 A3049 7320 58 9600 000/00 RMK AO2 T02060122
93073KASE ASE20160719114510707/19/16 11:45:31  5-MIN KASE 191845Z VRB03KT 10SM BKN110 20/12 A3049 7320 60 9600 VRB/03 RMK AO2 T02000122
93073KASE ASE20160719115011407/19/16 11:50:31  5-MIN KASE 191850Z 25004KT 10SM BKN110 20/12 A3049 7320 58 9600 240/04 RMK AO2 SLP207 T02000117
93073KASE ASE20160719115510707/19/16 11:55:31  5-MIN KASE 191855Z 00000KT 10SM BKN110 21/12 A3048 7330 56 9600 000/00 RMK AO2 T02060117
93073KASE ASE20160719120010807/19/16 12:00:31  5-MIN KASE 191900Z 10SM BKN110 22/12 A3048 7330 52 9800 M /M RMK AO2 LTG DSNT W T02170117
93073KASE ASE20160719120511807/19/16 12:05:31  5-MIN KASE 191905Z 34008KT 10SM BKN110 22/12 A3048 7330 51 9800 330/08 RMK AO2 LTG DSNT W T02220117
93073KASE ASE20160719121011807/19/16 12:10:31  5-MIN KASE 191910Z 35005KT 10SM SCT110 22/12 A3048 7330 52 9800 340/05 RMK AO2 LTG DSNT W T02170117
93073KASE ASE20160719121512507/19/16 12:15:31  5-MIN KASE 191915Z 35004KT 10SM FEW070 SCT110 22/12 A3047 7330 51 9800 340/04 RMK AO2 LTG DSNT W T02220117
93073KASE ASE20160719122012507/19/16 12:20:31  5-MIN KASE 191920Z 00000KT 10SM FEW070 SCT100 22/11 A3047 7340 49 9800 000/00 RMK AO2 LTG DSNT W T02220111
93073KASE ASE20160719122512507/19/16 12:25:31  5-MIN KASE 191925Z 31005KT 10SM FEW070 FEW110 22/11 A3046 7340 49 9800 300/05 RMK AO2 LTG DSNT W T02220111
93073KASE ASE20160719123011807/19/16 12:30:31  5-MIN KASE 191930Z VRB03KT 10SM FEW070 23/11 A3046 7340 47 9900 VRB/03 RMK AO2 LTG DSNT W T02280111
93073KASE ASE20160719123511907/19/16 12:35:31  5-MIN KASE 191935Z VRB04KT 10SM FEW070 23/11 A3046 7350 45 10000 VRB/04 RMK AO2 LTG DSNT W T02330111
93073KASE ASE20160719124011807/19/16 12:40:31  5-MIN KASE 191940Z 00000KT 10SM FEW070 23/11 A3045 7350 47 9900 000/00 RMK AO2 LTG DSNT W T02280111
93073KASE ASE20160719124511607/19/16 12:45:31  5-MIN KASE 191945Z VRB06KT 10SM CLR 23/12 A3045 7350 47 10000 VRB/06 RMK AO2 LTG DSNT W T02330117
93073KASE ASE20160719125012307/19/16 12:50:31  5-MIN KASE 191950Z 36007KT 10SM CLR 23/11 A3045 7350 45 10000 350/07 RMK AO2 LTG DSNT W SLP185 T02330111
93073KASE ASE20160719125511607/19/16 12:55:31  5-MIN KASE 191955Z VRB06KT 10SM CLR 23/11 A3045 7360 45 10000 VRB/06 RMK AO2 LTG DSNT W T02330111
93073KASE ASE20160719130011607/19/16 13:00:31  5-MIN KASE 192000Z 35007KT 10SM CLR 24/12 A3045 7360 46 10000 350/07 RMK AO2 LTG DSNT W T02390117
93073KASE ASE20160719130511607/19/16 13:05:31  5-MIN KASE 192005Z 36006KT 10SM CLR 24/12 A3045 7360 46 10000 350/06 RMK AO2 LTG DSNT W T02390117
93073KASE ASE20160719131011607/19/16 13:10:31  5-MIN KASE 192010Z 04006KT 10SM CLR 24/12 A3045 7360 44 10100 030/06 RMK AO2 LTG DSNT W T02440117
93073KASE ASE20160719131511607/19/16 13:15:31  5-MIN KASE 192015Z VRB05KT 10SM CLR 24/12 A3045 7360 44 10100 VRB/05 RMK AO2 LTG DSNT W T02440117
93073KASE ASE20160719132010507/19/16 13:20:31  5-MIN KASE 192020Z 32009KT 10SM CLR 25/12 A3045 7360 44 10200 310/09 RMK AO2 T02500122
93073KASE ASE20160719132510507/19/16 13:25:31  5-MIN KASE 192025Z VRB06KT 10SM CLR 24/12 A3045 7360 44 10100 VRB/06 RMK AO2 T02440117
93073KASE ASE20160719133011507/19/16 13:30:31  5-MIN KASE 192030Z 36005KT 10SM FEW080 FEW095 24/12 A3045 7360 46 10000 350/05 RMK AO2 T02390117
93073KASE ASE20160719133511507/19/16 13:35:31  5-MIN KASE 192035Z 36009KT 10SM FEW080 SCT100 24/12 A3045 7360 44 10100 350/09 RMK AO2 T02440117
93073KASE ASE20160719134011507/19/16 13:40:31  5-MIN KASE 192040Z 35009KT 10SM FEW080 SCT110 24/11 A3045 7360 44 10000 340/09 RMK AO2 T02390111
93073KASE ASE20160719134511507/19/16 13:45:31  5-MIN KASE 192045Z 36008KT 10SM FEW080 BKN110 23/12 A3045 7360 47 10000 350/08 RMK AO2 T02330117
93073KASE ASE20160719135013507/19/16 13:50:31  5-MIN KASE 192050Z 35012KT 10SM FEW080 BKN100 BKN120 23/12 A3045 7360 47 10000 340/12 RMK AO2 SLP184 T02330117 53004
93073KASE ASE20160719135512107/19/16 13:55:31  5-MIN KASE 192055Z 36011KT 10SM FEW080 BKN100 BKN120 23/11 A3045 7360 47 9900 350/11 RMK AO2 T02280111
93073KASE ASE20160719140012507/19/16 14:00:31  5-MIN KASE 192100Z 36009KT 10SM BKN100 BKN120 23/11 A3045 7360 47 9900 350/09 RMK AO2 LTG DSNT W T02280111
93073KASE ASE20160719140512507/19/16 14:05:31  5-MIN KASE 192105Z 35009KT 10SM BKN100 OVC120 23/12 A3045 7360 49 9900 340/09 RMK AO2 LTG DSNT W T02280117
93073KASE ASE20160719141013207/19/16 14:10:31  5-MIN KASE 192110Z 34007KT 10SM FEW080 BKN100 OVC120 23/11 A3045 7360 47 9900 340/07 RMK AO2 LTG DSNT W T02280111
93073KASE ASE20160719141512107/19/16 14:15:31  5-MIN KASE 192115Z 02007KT 10SM FEW080 BKN095 OVC110 23/11 A3044 7360 45 9900 010/07 RMK AO2 T02280106
93073KASE ASE20160719142012207/19/16 14:20:31  5-MIN KASE 192120Z 33010KT 10SM FEW080 BKN100 BKN120 24/11 A3044 7370 41 10100 320/10 RMK AO2 T02440106
93073KASE ASE20160719142512207/19/16 14:25:31  5-MIN KASE 192125Z 32010KT 10SM FEW080 SCT095 BKN120 24/12 A3044 7370 44 10100 310/10 RMK AO2 T02440117
93073KASE ASE20160719143013907/19/16 14:30:31  5-MIN KASE 192130Z 36006G18KT 10SM FEW080 SCT100 SCT120 24/11 A3044 7370 42 10100 350/06G18 RMK AO2 LTG DSNT S T02440111
93073KASE ASE20160719143513207/19/16 14:35:31  5-MIN KASE 192135Z 33008G18KT 10SM FEW080 SCT110 24/11 A3043 7370 42 10100 320/08G18 RMK AO2 LTG DSNT S T02440111
93073KASE ASE20160719144014207/19/16 14:40:31  5-MIN KASE 192140Z 31007KT 280V350 10SM FEW110 25/12 A3043 7370 43 10200 300/07 270V340 RMK AO2 LTG DSNT SE AND S T02500117
93073KASE ASE20160719144512307/19/16 14:45:31  5-MIN KASE 192145Z 34008KT 10SM CLR 24/11 A3043 7380 42 10100 330/08 RMK AO2 LTG DSNT SE AND S T02440111
93073KASE ASE20160719145013007/19/16 14:50:31  5-MIN KASE 192150Z 34009KT 10SM CLR 24/11 A3042 7380 44 10100 330/09 RMK AO2 LTG DSNT SE AND S SLP173 T02390111
93073KASE ASE20160719145512307/19/16 14:55:31  5-MIN KASE 192155Z 32009KT 10SM CLR 24/12 A3042 7380 46 10100 310/09 RMK AO2 LTG DSNT SE AND S T02390117
93073KASE ASE20160719150012307/19/16 15:00:31  5-MIN KASE 192200Z 32009KT 10SM CLR 24/12 A3043 7380 44 10100 320/09 RMK AO2 LTG DSNT SE AND S T02440117
93073KASE ASE20160719150512307/19/16 15:05:31  5-MIN KASE 192205Z 31006KT 10SM CLR 24/11 A3043 7370 42 10100 300/06 RMK AO2 LTG DSNT SE AND S T02440111
93073KASE ASE20160719151012307/19/16 15:10:31  5-MIN KASE 192210Z 33005KT 10SM CLR 24/11 A3043 7380 44 10100 320/05 RMK AO2 LTG DSNT SE AND S T02390111
93073KASE ASE20160719151512307/19/16 15:15:31  5-MIN KASE 192215Z 34005KT 10SM CLR 24/11 A3043 7370 42 10100 340/05 RMK AO2 LTG DSNT SE AND S T02390106
93073KASE ASE20160719152011607/19/16 15:20:31  5-MIN KASE 192220Z 00000KT 10SM CLR 24/10 A3043 7380 41 10100 000/00 RMK AO2 LTG DSNT S T02390100
93073KASE ASE20160719152511607/19/16 15:25:31  5-MIN KASE 192225Z 33005KT 10SM CLR 24/10 A3042 7380 41 10100 320/05 RMK AO2 LTG DSNT S T02390100
93073KASE ASE20160719153012307/19/16 15:30:31  5-MIN KASE 192230Z 32005KT 10SM CLR 24/11 A3042 7380 42 10100 310/05 RMK AO2 LTG DSNT SE AND S T02390106
93073KASE ASE20160719153511707/19/16 15:35:31  5-MIN KASE 192235Z 32004KT 10SM CLR 24/11 A3042 7380 42 10100 310/04 RMK AO2 LTG DSNT SE T02390106
93073KASE ASE20160719154012307/19/16 15:40:31  5-MIN KASE 192240Z 01004KT 10SM CLR 24/11 A3042 7380 42 10100 360/04 RMK AO2 LTG DSNT E AND SE T02390106
93073KASE ASE20160719154512307/19/16 15:45:31  5-MIN KASE 192245Z 34004KT 10SM CLR 23/10 A3042 7380 42 10000 330/04 RMK AO2 LTG DSNT E AND SE T02330100
93073KASE ASE20160719155013307/19/16 15:50:31  5-MIN KASE 192250Z 00000KT 10SM SCT080 24/10 A3042 7380 41 10100 000/00 RMK AO2 LTG DSNT E AND SE SLP171 T02390100
93073KASE ASE20160719155512307/19/16 15:55:31  5-MIN KASE 192255Z 35004KT 10SM CLR 24/11 A3042 7380 42 10100 340/04 RMK AO2 LTG DSNT E AND SE T02390106
93073KASE ASE20160719160012307/19/16 16:00:31  5-MIN KASE 192300Z 00000KT 10SM CLR 24/09 A3042 7380 39 10100 000/00 RMK AO2 LTG DSNT E AND SE T02390094
93073KASE ASE20160719160512607/19/16 16:05:31  5-MIN KASE 192305Z 00000KT 10SM FEW110 23/09 A3042 7380 41 10000 000/00 RMK AO2 LTG DSNT E AND SE T02330094
93073KASE ASE20160719161012607/19/16 16:10:31  5-MIN KASE 192310Z 34004KT 10SM FEW110 24/11 A3043 7380 42 10100 330/04 RMK AO2 LTG DSNT E AND SE T02390106
93073KASE ASE20160719161512607/19/16 16:15:31  5-MIN KASE 192315Z 00000KT 10SM FEW075 SCT110 24/11 A3042 7380 42 10100 000/00 RMK AO2 LTG DSNT E T02390106
93073KASE ASE20160719162012607/19/16 16:20:31  5-MIN KASE 192320Z 00000KT 10SM SCT075 BKN110 23/10 A3042 7380 42 10000 000/00 RMK AO2 LTG DSNT E T02330100
93073KASE ASE20160719162512607/19/16 16:25:31  5-MIN KASE 192325Z 00000KT 10SM BKN075 BKN110 23/10 A3042 7380 42 10000 000/00 RMK AO2 LTG DSNT E T02330100
93073KASE ASE20160719163012607/19/16 16:30:31  5-MIN KASE 192330Z 19003KT 10SM SCT075 BKN110 23/11 A3042 7380 44 10000 180/03 RMK AO2 LTG DSNT E T02330106
93073KASE ASE20160719163512607/19/16 16:35:31  5-MIN KASE 192335Z 00000KT 10SM SCT075 BKN110 23/10 A3042 7380 42 10000 000/00 RMK AO2 LTG DSNT E T02330100
93073KASE ASE20160719164012607/19/16 16:40:31  5-MIN KASE 192340Z 00000KT 10SM SCT075 BKN100 23/11 A3042 7380 44 10000 000/00 RMK AO2 LTG DSNT E T02330106
93073KASE ASE20160719164512607/19/16 16:45:31  5-MIN KASE 192345Z 00000KT 10SM FEW080 BKN110 23/10 A3042 7380 42 10000 000/00 RMK AO2 LTG DSNT E T02330100
93073KASE ASE20160719165015107/19/16 16:50:31  5-MIN KASE 192350Z 34003KT 10SM FEW080 SCT110 24/11 A3042 7380 42 10100 330/03 RMK AO2 LTG DSNT E SLP174 T02390106 10250 20189 56018
93073KASE ASE20160719165512607/19/16 16:55:31  5-MIN KASE 192355Z 32005KT 10SM SCT080 BKN100 23/11 A3042 7380 44 10000 310/05 RMK AO2 LTG DSNT E T02330106
93073KASE ASE20160719170012607/19/16 17:00:31  5-MIN KASE 200000Z 34003KT 10SM SCT080 BKN100 23/11 A3042 7380 44 10000 330/03 RMK AO2 LTG DSNT E T02330106
93073KASE ASE20160719170511907/19/16 17:05:31  5-MIN KASE 200005Z 00000KT 10SM BKN080 24/11 A3042 7380 42 10100 000/00 RMK AO2 LTG DSNT E T02390106
93073KASE ASE20160719171012507/19/16 17:10:31  5-MIN KASE 200010Z 00000KT 10SM SCT080 24/11 A3042 7380 41 10100 000/00 RMK AO2 LTG DSNT E AND W T02440106
93073KASE ASE20160719171513207/19/16 17:15:31  5-MIN KASE 200015Z 12008KT 10SM BKN080 24/11 A3041 7390 44 10100 110/08 RMK AO2 LTG DSNT E AND SW AND W T02390111
93073KASE ASE20160719172013207/19/16 17:20:31  5-MIN KASE 200020Z 12007KT 10SM BKN085 23/12 A3041 7390 49 10000 110/07 RMK AO2 LTG DSNT E AND SW AND W T02330122
93073KASE ASE20160719172513207/19/16 17:25:31  5-MIN KASE 200025Z 12004KT 10SM BKN085 23/12 A3041 7390 49 10000 110/04 RMK AO2 LTG DSNT E AND SW AND W T02280117
93073KASE ASE20160719173012607/19/16 17:30:31  5-MIN KASE 200030Z 14005KT 10SM SCT085 23/12 A3041 7390 49 10000 130/05 RMK AO2 LTG DSNT SW AND W T02280117
93073KASE ASE20160719173513207/19/16 17:35:31  5-MIN KASE 200035Z 13004KT 10SM FEW080 23/11 A3041 7390 47 10000 120/04 RMK AO2 LTG DSNT E AND SW AND W T02280111
93073KASE ASE20160719174012307/19/16 17:40:31  5-MIN KASE 200040Z 13003KT 10SM FEW080 23/11 A3040 7400 47 10000 120/03 RMK AO2 LTG DSNT ALQDS T02280111
93073KASE ASE20160719174512307/19/16 17:45:31  5-MIN KASE 200045Z 00000KT 10SM FEW085 23/11 A3040 7400 47 10000 000/00 RMK AO2 LTG DSNT ALQDS T02280111
93073KASE ASE20160719175012507/19/16 17:50:31  5-MIN KASE 200050Z 00000KT 10SM CLR 23/12 A3040 7400 49 10000 000/00 RMK AO2 LTG DSNT S-W SLP168 T02280117
93073KASE ASE20160719175511707/19/16 17:55:31  5-MIN KASE 200055Z 00000KT 10SM CLR 21/12 A3040 7400 56 9800 000/00 RMK AO2 LTG DSNT S-W T02110122
93073KASE ASE20160719180011907/19/16 18:00:31  5-MIN KASE 200100Z 00000KT 10SM CLR 21/13 A3040 7400 60 9700 000/00 RMK AO2 LTG DSNT ALQDS T02060128
93073KASE ASE20160719180511907/19/16 18:05:31  5-MIN KASE 200105Z 00000KT 10SM CLR 19/14 A3041 7390 70 9600 000/00 RMK AO2 LTG DSNT ALQDS T01940139
93073KASE ASE20160719181011907/19/16 18:10:31  5-MIN KASE 200110Z 20006KT 10SM CLR 20/13 A3041 7390 65 9700 190/06 RMK AO2 LTG DSNT ALQDS T02000133
93073KASE ASE20160719181512207/19/16 18:15:31  5-MIN KASE 200115Z 22007KT 10SM VCTS CLR 20/13 A3041 7390 63 9700 210/07 RMK AO2 LTG DSNT S-W T02000128
93073KASE ASE20160719182012407/19/16 18:20:31  5-MIN KASE 200120Z 21007KT 10SM VCTS SCT110 20/13 A3041 7390 65 9600 200/07 RMK AO2 LTG DSNT SW T02000133
93073KASE ASE20160719182512407/19/16 18:25:31  5-MIN KASE 200125Z 21008KT 10SM VCTS SCT110 20/13 A3042 7390 65 9600 200/08 RMK AO2 LTG DSNT SW T02000133
93073KASE ASE20160719183012707/19/16 18:30:31  5-MIN KASE 200130Z 22006KT 10SM VCTS CLR 20/14 A3042 7380 67 9600 210/06 RMK AO2 LTG DSNT NE AND S T02000139
93073KASE ASE20160719183513007/19/16 18:35:31  5-MIN KASE 200135Z 22004KT 10SM VCTS FEW120 19/14 A3042 7380 70 9600 220/04 RMK AO2 LTG DSNT NE AND S T01940139
93073KASE ASE20160719184013707/19/16 18:40:31  5-MIN KASE 200140Z 24005KT 10SM VCTS FEW085 SCT110 19/14 A3042 7380 70 9600 230/05 RMK AO2 LTG DSNT NE AND S T01940139
93073KASE ASE20160719184513807/19/16 18:45:31  5-MIN KASE 200145Z 21005KT 10SM VCTS FEW065 FEW085 BKN110 19/14 A3042 7380 70 9600 200/05 RMK AO2 LTG DSNT NE T01940139
93073KASE ASE20160719185011107/19/16 18:50:31  5-MIN KASE 200150Z 14007KT 10SM SCT060 SCT085 BKN110 20/13 A3042 7380 65 9600 130/07 RMK AO2
93073KASE ASE20160719185513707/19/16 18:55:31  5-MIN KASE 200155Z 13010KT 10SM -RA BKN060 BKN085 BKN110 19/14 A3043 7370 70 9600 120/10 RMK AO2 RAB54 P0000 T01940139
93073KASE ASE20160719190014307/19/16 19:00:31  5-MIN KASE 200200Z 16015G20KT 5SM RA BKN055 BKN065 OVC110 18/14 A3045 7360 81 9400 150/15G20 RMK AO2 RAB0154 P0005 T01780144
93073KASE ASE20160719190516407/19/16 19:05:31  5-MIN KASE 200205Z 08008G20KT 050V110 1 3/4SM +RA FEW023 BKN055 OVC100 17/11 A3044 7360 67 9300 070/08G20 040V100 RMK AO2 RAB0154 P0018 T01720111
93073KASE ASE20160719191014307/19/16 19:10:31  5-MIN KASE 200210Z 09005G20KT 2SM RA FEW033 BKN055 OVC075 16/10 A3044 7370 67 9200 080/05G20 RMK AO2 RAB0154 P0020 T01610100
93073KASE ASE20160719191515407/19/16 19:15:31  5-MIN KASE 200215Z 14009KT 110V190 7SM -RA FEW036 BKN055 OVC070 17/11 A3044 7360 64 9300 130/09 100V180 RMK AO2 RAB0154 P0020 T01720106
93073KASE ASE20160719192013807/19/16 19:20:31  5-MIN KASE 200220Z 14006KT 10SM FEW033 BKN055 BKN075 17/12 A3044 7370 69 9300 130/06 RMK AO2 RAB0154E19 P0020 T01720117
93073KASE ASE20160719192513807/19/16 19:25:31  5-MIN KASE 200225Z 17009KT 10SM FEW033 SCT060 BKN075 18/11 A3043 7370 60 9400 160/09 RMK AO2 RAB0154E19 P0020 T01830106
93073KASE ASE20160719193013807/19/16 19:30:31  5-MIN KASE 200230Z 18007KT 10SM FEW033 SCT060 SCT075 18/11 A3043 7370 60 9400 170/07 RMK AO2 RAB0154E19 P0020 T01830106
93073KASE ASE20160719193513807/19/16 19:35:31  5-MIN KASE 200235Z 13009KT 10SM FEW055 SCT070 BKN090 17/12 A3043 7370 69 9300 120/09 RMK AO2 RAB0154E19 P0020 T01720117
93073KASE ASE20160719194014407/19/16 19:40:31  5-MIN KASE 200240Z 13009G15KT 10SM -RA FEW065 BKN080 17/12 A3043 7370 69 9300 120/09G15 RMK AO2 RAB0154E19B37 P0020 T01720117
93073KASE ASE20160719194514507/19/16 19:45:31  5-MIN KASE 200245Z 13009KT 10SM -RA FEW065 BKN080 BKN120 17/12 A3042 7380 69 9300 120/09 RMK AO2 RAB0154E19B37 P0020 T01720117
93073KASE ASE20160719195016407/19/16 19:50:31  5-MIN KASE 200250Z 15009KT 10SM -RA SCT080 BKN095 BKN120 17/12 A3042 7380 69 9300 140/09 RMK AO2 RAB0154E19B37 SLP181 P0020 60020 T01720117 55007
93073KASE ASE20160719195511707/19/16 19:55:31  5-MIN KASE 200255Z 14008KT 10SM -RA BKN085 17/12 A3042 7390 72 9300 130/08 RMK AO2 P0000 T01720122
93073KASE ASE20160719200012407/19/16 20:00:31  5-MIN KASE 200300Z 14007KT 10SM -RA BKN085 OVC110 17/12 A3041 7390 75 9300 130/07 RMK AO2 P0000 T01670122
93073KASE ASE20160719200512407/19/16 20:05:31  5-MIN KASE 200305Z 16007KT 10SM -RA SCT085 OVC110 17/12 A3041 7390 72 9400 150/07 RMK AO2 P0000 T01720122
93073KASE ASE20160719201014507/19/16 20:10:31  5-MIN KASE 200310Z VRB03KT 10SM FEW065 SCT085 OVC110 17/12 A3041 7390 72 9400 VRB/03 RMK AO2 LTG DSNT NE RAE06 P0000 T01720122
93073KASE ASE20160719201514507/19/16 20:15:31  5-MIN KASE 200315Z VRB03KT 10SM FEW065 SCT090 BKN110 17/12 A3041 7390 72 9300 VRB/03 RMK AO2 LTG DSNT NE RAE06 P0000 T01670117
93073KASE ASE20160719202013807/19/16 20:20:31  5-MIN KASE 200320Z 36004KT 10SM FEW090 SCT110 17/12 A3041 7390 75 9300 350/04 RMK AO2 LTG DSNT NE RAE06 P0000 T01670122
93073KASE ASE20160719202511907/19/16 20:25:31  5-MIN KASE 200325Z VRB03KT 10SM SCT110 16/13 A3042 7390 83 9200 VRB/03 RMK AO2 RAE06 P0000 T01560128
93073KASE ASE20160719203011907/19/16 20:30:31  5-MIN KASE 200330Z VRB04KT 10SM FEW110 16/12 A3042 7380 77 9200 VRB/04 RMK AO2 RAE06 P0000 T01610122
93073KASE ASE20160719203513507/19/16 20:35:31  5-MIN KASE 200335Z 14008KT 120V190 10SM FEW110 17/12 A3042 7390 72 9300 130/08 110V180 RMK AO2 RAE06 P0000 T01670117
93073KASE ASE20160719204012207/19/16 20:40:31  5-MIN KASE 200340Z 13010G17KT 10SM CLR 17/11 A3042 7390 67 9300 120/10G17 RMK AO2 RAE06 P0000 T01670106
93073KASE ASE20160719204511607/19/16 20:45:31  5-MIN KASE 200345Z 14009KT 10SM CLR 17/11 A3042 7380 67 9300 130/09 RMK AO2 RAE06 P0000 T01670106
93073KASE ASE20160719205012907/19/16 20:50:31  5-MIN KASE 200350Z 14008G17KT 10SM CLR 17/11 A3042 7380 67 9300 130/08G17 RMK AO2 RAE06 SLP178 P0000 T01670106
93073KASE ASE20160719205510407/19/16 20:55:31  5-MIN KASE 200355Z 14011KT 10SM CLR 17/11 A3042 7380 67 9300 130/11 RMK AO2 T01670106
93073KASE ASE20160719210010407/19/16 21:00:31  5-MIN KASE 200400Z 14008KT 10SM CLR 17/11 A3043 7380 67 9300 130/08 RMK AO2 T01670106
93073KASE ASE20160719210510407/19/16 21:05:31  5-MIN KASE 200405Z 15008KT 10SM CLR 17/11 A3043 7370 67 9300 140/08 RMK AO2 T01670106
93073KASE ASE20160719211010407/19/16 21:10:31  5-MIN KASE 200410Z 17007KT 10SM CLR 17/11 A3043 7370 67 9300 160/07 RMK AO2 T01670106
93073KASE ASE20160719211510407/19/16 21:15:31  5-MIN KASE 200415Z 20006KT 10SM CLR 16/11 A3043 7370 69 9200 200/06 RMK AO2 T01610106
93073KASE ASE20160719212010407/19/16 21:20:31  5-MIN KASE 200420Z 21006KT 10SM CLR 16/11 A3044 7370 72 9100 200/06 RMK AO2 T01560106
93073KASE ASE20160719212510407/19/16 21:25:31  5-MIN KASE 200425Z 21007KT 10SM CLR 16/11 A3044 7360 72 9100 200/07 RMK AO2 T01560106
93073KASE ASE20160719213010407/19/16 21:30:31  5-MIN KASE 200430Z 20006KT 10SM CLR 16/11 A3044 7360 72 9100 190/06 RMK AO2 T01560106
93073KASE ASE20160719213510407/19/16 21:35:31  5-MIN KASE 200435Z 19004KT 10SM CLR 15/11 A3044 7360 74 9100 180/04 RMK AO2 T01500106
93073KASE ASE20160719214010407/19/16 21:40:31  5-MIN KASE 200440Z 19006KT 10SM CLR 14/11 A3044 7360 80 9000 180/06 RMK AO2 T01440111
93073KASE ASE20160719214510407/19/16 21:45:31  5-MIN KASE 200445Z 20008KT 10SM CLR 14/11 A3044 7360 77 9000 190/08 RMK AO2 T01440106
93073KASE ASE20160719215011107/19/16 21:50:31  5-MIN KASE 200450Z 21008KT 10SM CLR 14/11 A3044 7360 80 8900 200/08 RMK AO2 SLP195 T01390106
93073KASE ASE20160719215510407/19/16 21:55:31  5-MIN KASE 200455Z 21005KT 10SM CLR 14/11 A3045 7360 80 8900 200/05 RMK AO2 T01390106
93073KASE ASE20160719220010407/19/16 22:00:31  5-MIN KASE 200500Z 20004KT 10SM CLR 14/11 A3045 7360 80 8900 190/04 RMK AO2 T01390106
93073KASE ASE20160719220510407/19/16 22:05:31  5-MIN KASE 200505Z 21005KT 10SM CLR 15/10 A3045 7360 72 9100 210/05 RMK AO2 T01500100
93073KASE ASE20160719221010407/19/16 22:10:31  5-MIN KASE 200510Z 19005KT 10SM CLR 14/10 A3045 7360 74 9000 180/05 RMK AO2 T01440100
93073KASE ASE20160719221510407/19/16 22:15:31  5-MIN KASE 200515Z 22007KT 10SM CLR 13/11 A3044 7360 83 8900 210/07 RMK AO2 T01330106
93073KASE ASE20160719222010407/19/16 22:20:31  5-MIN KASE 200520Z 24005KT 10SM CLR 13/10 A3044 7360 83 8800 230/05 RMK AO2 T01280100
93073KASE ASE20160719222510407/19/16 22:25:31  5-MIN KASE 200525Z 23005KT 10SM CLR 13/10 A3045 7360 80 8900 220/05 RMK AO2 T01330100
93073KASE ASE20160719223010407/19/16 22:30:31  5-MIN KASE 200530Z 19005KT 10SM CLR 13/10 A3045 7350 80 8900 180/05 RMK AO2 T01330100
93073KASE ASE20160719223510407/19/16 22:35:31  5-MIN KASE 200535Z 19006KT 10SM CLR 13/10 A3045 7350 80 8900 180/06 RMK AO2 T01330100
93073KASE ASE20160719224010407/19/16 22:40:31  5-MIN KASE 200540Z 22007KT 10SM CLR 13/10 A3046 7350 83 8800 210/07 RMK AO2 T01280100
93073KASE ASE20160719224510407/19/16 22:45:31  5-MIN KASE 200545Z 21007KT 10SM CLR 13/10 A3045 7350 83 8800 200/07 RMK AO2 T01280100
93073KASE ASE20160719225013507/19/16 22:50:31  5-MIN KASE 200550Z 21007KT 10SM CLR 13/09 A3046 7350 77 8900 200/07 RMK AO2 SLP199 60020 T01330094 10244 20128 55000
93073KASE ASE20160719225510407/19/16 22:55:31  5-MIN KASE 200555Z 21008KT 10SM CLR 13/09 A3046 7350 80 8800 210/08 RMK AO2 T01280094
93073KASE ASE20160719230010407/19/16 23:00:31  5-MIN KASE 200600Z 19005KT 10SM CLR 13/09 A3046 7350 80 8800 180/05 RMK AO2 T01280094
93073KASE ASE20160719230510407/19/16 23:05:31  5-MIN KASE 200605Z 20006KT 10SM CLR 13/09 A3046 7350 80 8800 190/06 RMK AO2 T01280094
93073KASE ASE20160719231010407/19/16 23:10:31  5-MIN KASE 200610Z 20007KT 10SM CLR 13/09 A3046 7340 80 8800 190/07 RMK AO2 T01280094
93073KASE ASE20160719231510907/19/16 23:15:31  5-MIN KASE 200615Z AUTO 20006KT 10SM CLR 13/09 A3046 7340 74 8900 190/06 RMK AO2 T01330089
93073KASE ASE20160719232010907/19/16 23:20:31  5-MIN KASE 200620Z AUTO 21005KT 10SM CLR 13/09 A3046 7340 77 8800 200/05 RMK AO2 T01280089
93073KASE ASE20160719232510907/19/16 23:25:31  5-MIN KASE 200625Z AUTO 18004KT 10SM CLR 13/09 A3046 7340 77 8800 170/04 RMK AO2 T01280089
93073KASE ASE20160719233010907/19/16 23:30:31  5-MIN KASE 200630Z AUTO 20005KT 10SM CLR 13/09 A3047 7340 77 8800 200/05 RMK AO2 T01280089
93073KASE ASE20160719233510907/19/16 23:35:31  5-MIN KASE 200635Z AUTO 21005KT 10SM CLR 12/09 A3047 7340 80 8700 200/05 RMK AO2 T01220089
93073KASE ASE20160719234010907/19/16 23:40:31  5-MIN KASE 200640Z AUTO 21004KT 10SM CLR 12/09 A3047 7340 83 8700 200/04 RMK AO2 T01170089
93073KASE ASE20160719234510907/19/16 23:45:31  5-MIN KASE 200645Z AUTO 20005KT 10SM CLR 12/09 A3046 7340 80 8700 190/05 RMK AO2 T01220089
93073KASE ASE20160719235012607/19/16 23:50:31  5-MIN KASE 200650Z AUTO 20006KT 10SM CLR 12/09 A3046 7340 83 8700 190/06 RMK AO2 SLP202 T01170089 402500111
93073KASE ASE20160719235510907/19/16 23:55:31  5-MIN KASE 200655Z AUTO 20004KT 10SM CLR 13/08 A3047 7340 74 8800 190/04 RMK AO2 T01280083
93073KASE ASE20160720000010907/20/16 00:00:31  5-MIN KASE 200700Z AUTO 20004KT 10SM CLR 12/08 A3047 7340 77 8700 190/04 RMK AO2 T01220083
93073KASE ASE20160720000510907/20/16 00:05:31  5-MIN KASE 200705Z AUTO 20007KT 10SM CLR 13/08 A3047 7340 74 8800 190/07 RMK AO2 T01280083
93073KASE ASE20160720001010907/20/16 00:10:31  5-MIN KASE 200710Z AUTO 22008KT 10SM CLR 13/08 A3046 7340 74 8800 210/08 RMK AO2 T01280083
93073KASE ASE20160720001511207/20/16 00:15:31  5-MIN KASE 200715Z AUTO 21007KT 10SM FEW110 12/08 A3047 7340 77 8700 200/07 RMK AO2 T01220083
93073KASE ASE20160720002011207/20/16 00:20:31  5-MIN KASE 200720Z AUTO 20007KT 10SM FEW110 13/08 A3047 7340 74 8800 190/07 RMK AO2 T01280083
93073KASE ASE20160720002511207/20/16 00:25:31  5-MIN KASE 200725Z AUTO 20003KT 10SM FEW110 12/08 A3047 7340 77 8700 190/03 RMK AO2 T01220083
93073KASE ASE20160720003011207/20/16 00:30:31  5-MIN KASE 200730Z AUTO 21005KT 10SM FEW110 12/08 A3046 7340 80 8700 200/05 RMK AO2 T01170083
93073KASE ASE20160720003511207/20/16 00:35:31  5-MIN KASE 200735Z AUTO 23005KT 10SM FEW110 12/08 A3046 7340 80 8700 220/05 RMK AO2 T01170083
93073KASE ASE20160720004011207/20/16 00:40:31  5-MIN KASE 200740Z AUTO 22005KT 10SM FEW110 12/08 A3046 7340 80 8700 210/05 RMK AO2 T01170083
93073KASE ASE20160720004510907/20/16 00:45:31  5-MIN KASE 200745Z AUTO 20006KT 10SM CLR 12/08 A3046 7340 77 8700 200/06 RMK AO2 T01220083
93073KASE ASE20160720005011607/20/16 00:50:31  5-MIN KASE 200750Z AUTO 20003KT 10SM CLR 12/08 A3047 7340 74 8700 190/03 RMK AO2 SLP195 T01220078
93073KASE ASE20160720005510907/20/16 00:55:31  5-MIN KASE 200755Z AUTO 23004KT 10SM CLR 12/08 A3046 7340 74 8700 220/04 RMK AO2 T01220078
93073KASE ASE20160720010010907/20/16 01:00:31  5-MIN KASE 200800Z AUTO 22005KT 10SM CLR 12/08 A3047 7340 74 8700 210/05 RMK AO2 T01220078
93073KASE ASE20160720010510907/20/16 01:05:31  5-MIN KASE 200805Z AUTO 21007KT 10SM CLR 12/08 A3047 7340 77 8700 200/07 RMK AO2 T01220083
93073KASE ASE20160720011010907/20/16 01:10:31  5-MIN KASE 200810Z AUTO 20007KT 10SM CLR 12/08 A3046 7340 74 8700 190/07 RMK AO2 T01220078
93073KASE ASE20160720011510907/20/16 01:15:31  5-MIN KASE 200815Z AUTO 21007KT 10SM CLR 13/08 A3046 7340 71 8800 200/07 RMK AO2 T01280078
93073KASE ASE20160720012010907/20/16 01:20:31  5-MIN KASE 200820Z AUTO 22005KT 10SM CLR 13/08 A3046 7340 71 8800 210/05 RMK AO2 T01280078
93073KASE ASE20160720012510907/20/16 01:25:31  5-MIN KASE 200825Z AUTO 33003KT 10SM CLR 12/08 A3046 7340 77 8700 320/03 RMK AO2 T01220083
93073KASE ASE20160720013010907/20/16 01:30:31  5-MIN KASE 200830Z AUTO 00000KT 10SM CLR 12/08 A3046 7340 80 8700 000/00 RMK AO2 T01170083
93073KASE ASE20160720013510907/20/16 01:35:31  5-MIN KASE 200835Z AUTO 00000KT 10SM CLR 12/08 A3046 7350 80 8700 000/00 RMK AO2 T01170083
93073KASE ASE20160720014010907/20/16 01:40:31  5-MIN KASE 200840Z AUTO 18003KT 10SM CLR 12/08 A3046 7350 77 8700 170/03 RMK AO2 T01220083
93073KASE ASE20160720014510907/20/16 01:45:31  5-MIN KASE 200845Z AUTO 22007KT 10SM CLR 12/08 A3046 7350 80 8700 210/07 RMK AO2 T01170083
93073KASE ASE20160720015012207/20/16 01:50:31  5-MIN KASE 200850Z AUTO 21007KT 10SM CLR 12/08 A3046 7350 74 8700 200/07 RMK AO2 SLP193 T01220078 53011
93073KASE ASE20160720015510907/20/16 01:55:31  5-MIN KASE 200855Z AUTO 22007KT 10SM CLR 12/08 A3046 7350 74 8700 210/07 RMK AO2 T01220078
93073KASE ASE20160720020010907/20/16 02:00:31  5-MIN KASE 200900Z AUTO 00000KT 10SM CLR 13/08 A3046 7350 71 8800 000/00 RMK AO2 T01280078
93073KASE ASE20160720020510907/20/16 02:05:31  5-MIN KASE 200905Z AUTO 00000KT 10SM CLR 12/08 A3046 7350 80 8700 000/00 RMK AO2 T01170083
93073KASE ASE20160720021010907/20/16 02:10:31  5-MIN KASE 200910Z AUTO 00000KT 10SM CLR 12/08 A3046 7350 80 8700 000/00 RMK AO2 T01170083
93073KASE ASE20160720021510907/20/16 02:15:31  5-MIN KASE 200915Z AUTO 00000KT 10SM CLR 12/08 A3046 7350 80 8700 000/00 RMK AO2 T01170083
93073KASE ASE20160720022010907/20/16 02:20:31  5-MIN KASE 200920Z AUTO 00000KT 10SM CLR 11/08 A3046 7350 83 8600 000/00 RMK AO2 T01110083
93073KASE ASE20160720022510907/20/16 02:25:31  5-MIN KASE 200925Z AUTO 22003KT 10SM CLR 11/08 A3045 7350 83 8600 210/03 RMK AO2 T01110083
93073KASE ASE20160720023010907/20/16 02:30:31  5-MIN KASE 200930Z AUTO 22004KT 10SM CLR 11/08 A3045 7350 83 8600 210/04 RMK AO2 T01110083
93073KASE ASE20160720023510907/20/16 02:35:31  5-MIN KASE 200935Z AUTO 20005KT 10SM CLR 12/08 A3046 7350 80 8700 190/05 RMK AO2 T01170083
93073KASE ASE20160720024010907/20/16 02:40:31  5-MIN KASE 200940Z AUTO 20003KT 10SM CLR 12/08 A3046 7350 77 8700 190/03 RMK AO2 T01220083
93073KASE ASE20160720024510907/20/16 02:45:31  5-MIN KASE 200945Z AUTO 00000KT 10SM CLR 12/08 A3045 7350 80 8700 000/00 RMK AO2 T01170083
93073KASE ASE20160720025011607/20/16 02:50:31  5-MIN KASE 200950Z AUTO 02003KT 10SM CLR 11/08 A3045 7350 83 8600 010/03 RMK AO2 SLP191 T01110083
93073KASE ASE20160720025510907/20/16 02:55:31  5-MIN KASE 200955Z AUTO 00000KT 10SM CLR 11/08 A3045 7350 83 8600 000/00 RMK AO2 T01110083
93073KASE ASE20160720030010907/20/16 03:00:31  5-MIN KASE 201000Z AUTO 23003KT 10SM CLR 12/08 A3045 7350 80 8700 220/03 RMK AO2 T01170083
93073KASE ASE20160720030510907/20/16 03:05:31  5-MIN KASE 201005Z AUTO 00000KT 10SM CLR 12/08 A3045 7350 80 8700 000/00 RMK AO2 T01170083
93073KASE ASE20160720031010907/20/16 03:10:31  5-MIN KASE 201010Z AUTO 00000KT 10SM CLR 11/08 A3045 7350 86 8600 000/00 RMK AO2 T01060083
93073KASE ASE20160720031510907/20/16 03:15:31  5-MIN KASE 201015Z AUTO 00000KT 10SM CLR 11/09 A3045 7350 86 8600 000/00 RMK AO2 T01110089
93073KASE ASE20160720032010907/20/16 03:20:31  5-MIN KASE 201020Z AUTO 00000KT 10SM CLR 12/09 A3045 7350 83 8700 000/00 RMK AO2 T01170089
93073KASE ASE20160720032510907/20/16 03:25:31  5-MIN KASE 201025Z AUTO 00000KT 10SM CLR 11/08 A3045 7350 83 8600 000/00 RMK AO2 T01110083
93073KASE ASE20160720033010907/20/16 03:30:31  5-MIN KASE 201030Z AUTO 23003KT 10SM CLR 11/08 A3045 7350 86 8600 220/03 RMK AO2 T01060083
93073KASE ASE20160720033510907/20/16 03:35:31  5-MIN KASE 201035Z AUTO 00000KT 10SM CLR 11/08 A3045 7360 86 8600 000/00 RMK AO2 T01060083
93073KASE ASE20160720034010907/20/16 03:40:31  5-MIN KASE 201040Z AUTO 00000KT 10SM CLR 11/08 A3045 7350 83 8600 000/00 RMK AO2 T01110083
93073KASE ASE20160720034510907/20/16 03:45:31  5-MIN KASE 201045Z AUTO 00000KT 10SM CLR 11/08 A3045 7350 83 8600 000/00 RMK AO2 T01110083
93073KASE ASE20160720035011607/20/16 03:50:31  5-MIN KASE 201050Z AUTO 00000KT 10SM CLR 11/08 A3045 7360 86 8600 000/00 RMK AO2 SLP191 T01060083
93073KASE ASE20160720035511207/20/16 03:55:31  5-MIN KASE 201055Z AUTO 20003KT 10SM FEW110 10/08 A3044 7360 89 8500 190/03 RMK AO2 T01000083
93073KASE ASE20160720040011207/20/16 04:00:31  5-MIN KASE 201100Z AUTO 21004KT 10SM SCT110 10/08 A3044 7360 89 8500 200/04 RMK AO2 T01000083
93073KASE ASE20160720040511207/20/16 04:05:31  5-MIN KASE 201105Z AUTO 00000KT 10SM SCT110 11/09 A3044 7360 89 8600 000/00 RMK AO2 T01060089
93073KASE ASE20160720041011207/20/16 04:10:31  5-MIN KASE 201110Z AUTO 00000KT 10SM SCT110 12/08 A3044 7360 80 8700 000/00 RMK AO2 T01170083
93073KASE ASE20160720041511207/20/16 04:15:31  5-MIN KASE 201115Z AUTO 00000KT 10SM SCT110 11/08 A3044 7360 83 8600 000/00 RMK AO2 T01110083
93073KASE ASE20160720042011207/20/16 04:20:31  5-MIN KASE 201120Z AUTO 00000KT 10SM FEW110 11/08 A3044 7360 86 8600 000/00 RMK AO2 T01060083
93073KASE ASE20160720042511207/20/16 04:25:31  5-MIN KASE 201125Z AUTO 00000KT 10SM FEW110 11/08 A3044 7360 86 8600 000/00 RMK AO2 T01060083
93073KASE ASE20160720043010907/20/16 04:30:31  5-MIN KASE 201130Z AUTO 00000KT 10SM CLR 11/09 A3044 7360 86 8600 000/00 RMK AO2 T01110089
93073KASE ASE20160720043510907/20/16 04:35:31  5-MIN KASE 201135Z AUTO 20003KT 10SM CLR 11/09 A3044 7360 89 8600 190/03 RMK AO2 T01060089
93073KASE ASE20160720044010907/20/16 04:40:31  5-MIN KASE 201140Z AUTO 19006KT 10SM CLR 11/08 A3044 7360 83 8600 180/06 RMK AO2 T01110083
93073KASE ASE20160720044511207/20/16 04:45:31  5-MIN KASE 201145Z AUTO 18005KT 10SM FEW110 12/08 A3044 7360 80 8700 170/05 RMK AO2 T01170083
93073KASE ASE20160720045014307/20/16 04:50:31  5-MIN KASE 201150Z AUTO 19004KT 10SM SCT110 11/08 A3044 7360 83 8600 180/04 RMK AO2 SLP187 70020 T01110083 10133 20100 50000
93073KASE ASE20160720045511207/20/16 04:55:31  5-MIN KASE 201155Z AUTO 00000KT 10SM SCT110 11/09 A3044 7360 89 8600 000/00 RMK AO2 T01060089
93073KASE ASE20160720050011207/20/16 05:00:31  5-MIN KASE 201200Z AUTO 00000KT 10SM FEW110 11/08 A3044 7360 86 8600 000/00 RMK AO2 T01060083
93073KASE ASE20160720050511207/20/16 05:05:31  5-MIN KASE 201205Z AUTO 00000KT 10SM FEW110 11/08 A3045 7360 86 8600 000/00 RMK AO2 T01060083
93073KASE ASE20160720160014707/20/16 16:00:31  5-MIN KASE 202300Z 15006KT 10SM BKN065 BKN085 OVC100 23/11 A3039 7410 45 10000 140/06 RMK AO2 LTG DSNT NE AND S AND SW T02330111
93073KASE ASE20160720160513707/20/16 16:05:31  5-MIN KASE 202305Z VRB04KT 10SM BKN065 BKN090 OVC100 24/11 A3039 7410 44 10100 VRB/04 RMK AO2 LTG DSNT ALQDS T02390111
93073KASE ASE20160720161013007/20/16 16:10:31  5-MIN KASE 202310Z 23004KT 10SM SCT065 BKN100 23/11 A3039 7410 45 10000 220/04 RMK AO2 LTG DSNT ALQDS T02330111
93073KASE ASE20160720161513007/20/16 16:15:31  5-MIN KASE 202315Z VRB04KT 10SM FEW070 BKN100 23/12 A3039 7410 49 10000 VRB/04 RMK AO2 LTG DSNT ALQDS T02330122
93073KASE ASE20160720162012907/20/16 16:20:31  5-MIN KASE 202320Z 15005KT 10SM FEW070 SCT100 22/14 A3039 7410 61 9900 140/05 RMK AO2 LTG DSNT ALQDS T02170139
93073KASE ASE20160720162513407/20/16 16:25:31  5-MIN KASE 202325Z 12005KT 10SM VCTS FEW065 SCT095 22/14 A3039 7410 61 9900 110/05 RMK AO2 LTG DSNT ALQDS T02170139
93073KASE ASE20160720163013407/20/16 16:30:31  5-MIN KASE 202330Z 14006KT 10SM VCTS SCT090 SCT110 22/13 A3039 7410 58 9900 130/06 RMK AO2 LTG DSNT ALQDS T02170133
93073KASE ASE20160720163513107/20/16 16:35:31  5-MIN KASE 202335Z 14007KT 10SM TS SCT085 22/14 A3040 7400 61 9800 130/07 RMK AO2 LTG DSNT ALQDS TSB35 T02170139
93073KASE ASE20160720164013007/20/16 16:40:31  5-MIN KASE 202340Z 15012KT 10SM TS BKN080 22/14 A3041 7390 63 9800 140/12 RMK AO2 LTG DSNT NE-S TSB35 T02170144
93073KASE ASE20160720164514707/20/16 16:45:31  5-MIN KASE 202345Z 12016G22KT 10SM TS SCT065 BKN085 21/14 A3041 7390 63 9800 120/16G22 RMK AO2 LTG DSNT E AND SE TSB35 T02110139
93073KASE ASE20160720165018207/20/16 16:50:31  5-MIN KASE 202350Z 14014G24KT 10SM TS BKN065 BKN085 19/12 A3042 7380 65 9500 130/14G24 RMK AO2 LTG DSNT NE-SE TSB35 PRESRR SLP192 60000 T01890122 10272 20189 56015
93073KASE ASE20160720165513807/20/16 16:55:31  5-MIN KASE 202355Z 14014G24KT 10SM TS BKN065 OVC080 18/12 A3042 7380 65 9500 140/14G24 RMK AO2 LTG DSNT NE-SE T01830117
93073KASE ASE20160720170015607/20/16 17:00:31  5-MIN KASE 210000Z 16011G19KT 10SM -TSRA BKN065 OVC085 18/12 A3042 7380 67 9500 150/11G19 RMK AO2 LTG DSNT NE AND E RAB00 P0000 T01830122
93073KASE ASE20160720170515707/20/16 17:05:31  5-MIN KASE 210005Z 15011KT 10SM -TSRA BKN065 BKN080 OVC100 19/13 A3043 7380 67 9500 140/11 RMK AO2 LTG DSNT NE AND E RAB00 P0000 T01890128
93073KASE ASE20160720171015707/20/16 17:10:31  5-MIN KASE 210010Z 15012KT 10SM -TSRA BKN065 BKN080 OVC095 19/12 A3042 7380 62 9600 140/12 RMK AO2 LTG DSNT NE AND E RAB00 P0000 T01940122
93073KASE ASE20160720171515707/20/16 17:15:31  5-MIN KASE 210015Z 15011KT 10SM TS SCT065 BKN080 BKN100 19/12 A3042 7380 60 9600 140/11 RMK AO2 LTG DSNT NE AND E RAB00E11 P0000 T01940117
93073KASE ASE20160720172015707/20/16 17:20:31  5-MIN KASE 210020Z 16008KT 10SM TS FEW060 BKN080 BKN095 19/12 A3042 7380 62 9500 150/08 RMK AO2 LTG DSNT NE AND E RAB00E11 P0000 T01890117
93073KASE ASE20160720172515207/20/16 17:25:31  5-MIN KASE 210025Z 16010KT 10SM TS FEW060 SCT080 BKN095 19/11 A3042 7390 58 9600 150/10 RMK AO2 LTG DSNT N-E RAB00E11 P0000 T01940111
93073KASE ASE20160720173015307/20/16 17:30:31  5-MIN KASE 210030Z 18012KT 10SM VCTS FEW080 SCT090 19/11 A3042 7390 58 9600 170/12 RMK AO2 LTG DSNT N-E RAB00E11 TSE28 P0000 T01940111
93073KASE ASE20160720173515307/20/16 17:35:31  5-MIN KASE 210035Z 16009KT 10SM VCTS FEW080 FEW090 19/12 A3041 7390 65 9500 150/09 RMK AO2 LTG DSNT N-E RAB00E11 TSE28 P0000 T01890122
93073KASE ASE20160720174015107/20/16 17:40:31  5-MIN KASE 210040Z 13006KT 10SM VCTS FEW075 19/11 A3042 7390 58 9600 120/06 RMK AO2 LTG DSNT NE AND E RAB00E11 TSE28 P0000 T01940111
93073KASE ASE20160720174514607/20/16 17:45:31  5-MIN KASE 210045Z 17009KT 10SM FEW075 19/11 A3042 7380 58 9600 160/09 RMK AO2 LTG DSNT NE AND E RAB00E11 TSE28 P0000 T01940111
93073KASE ASE20160720175013307/20/16 17:50:31  5-MIN KASE 210050Z 15006KT 10SM CLR 20/11 A3042 7380 56 9600 140/06 RMK AO2 LTG DSNT NE AND E RAB00E11 TSE28 P0000
93073KASE ASE20160720175512207/20/16 17:55:31  5-MIN KASE 210055Z 15006KT 10SM CLR 20/11 A3042 7380 56 9600 140/06 RMK AO2 LTG DSNT NE AND E T02000111
93073KASE ASE20160720180012207/20/16 18:00:31  5-MIN KASE 210100Z 19009KT 10SM CLR 19/12 A3042 7390 60 9600 180/09 RMK AO2 LTG DSNT NE AND E T01940117
93073KASE ASE20160720180512207/20/16 18:05:31  5-MIN KASE 210105Z 18010KT 10SM CLR 19/12 A3042 7380 62 9500 170/10 RMK AO2 LTG DSNT NE AND E T01890117
93073KASE ASE20160720181012207/20/16 18:10:31  5-MIN KASE 210110Z 17012KT 10SM CLR 19/12 A3042 7380 62 9500 160/12 RMK AO2 LTG DSNT NE AND E T01890117
93073KASE ASE20160720181512207/20/16 18:15:31  5-MIN KASE 210115Z 16010KT 10SM CLR 19/12 A3042 7380 62 9500 150/10 RMK AO2 LTG DSNT NE AND E T01890117
93073KASE ASE20160720182011607/20/16 18:20:31  5-MIN KASE 210120Z 14007KT 10SM CLR 19/12 A3042 7380 62 9500 130/07 RMK AO2 LTG DSNT NE T01890117
93073KASE ASE20160720182511607/20/16 18:25:31  5-MIN KASE 210125Z 14007KT 10SM CLR 19/12 A3042 7380 62 9500 130/07 RMK AO2 LTG DSNT NE T01890117
93073KASE ASE20160720183011607/20/16 18:30:31  5-MIN KASE 210130Z 16008KT 10SM CLR 19/12 A3043 7380 62 9500 150/08 RMK AO2 LTG DSNT NE T01890117
93073KASE ASE20160720183511607/20/16 18:35:31  5-MIN KASE 210135Z 15008KT 10SM CLR 19/12 A3043 7380 62 9500 150/08 RMK AO2 LTG DSNT NE T01890117
93073KASE ASE20160720184011607/20/16 18:40:31  5-MIN KASE 210140Z 15009KT 10SM CLR 19/11 A3043 7380 58 9600 140/09 RMK AO2 LTG DSNT NE T01940111
93073KASE ASE20160720184511607/20/16 18:45:31  5-MIN KASE 210145Z 15007KT 10SM CLR 19/11 A3043 7380 60 9500 140/07 RMK AO2 LTG DSNT NE T01890111
93073KASE ASE20160720185012307/20/16 18:50:31  5-MIN KASE 210150Z 14005KT 10SM CLR 19/12 A3043 7380 62 9500 130/05 RMK AO2 LTG DSNT NE SLP188 T01890117
93073KASE ASE20160720185510407/20/16 18:55:31  5-MIN KASE 210155Z 15005KT 10SM CLR 19/12 A3043 7370 62 9500 140/05 RMK AO2 T01890117
93073KASE ASE20160720190010407/20/16 19:00:31  5-MIN KASE 210200Z 15003KT 10SM CLR 18/12 A3043 7370 65 9400 140/03 RMK AO2 T01830117
93073KASE ASE20160720190510707/20/16 19:05:31  5-MIN KASE 210205Z VRB03KT 10SM FEW070 19/12 A3044 7370 62 9500 VRB/03 RMK AO2 T01890117
93073KASE ASE20160720191010707/20/16 19:10:31  5-MIN KASE 210210Z 22005KT 10SM FEW070 18/12 A3044 7370 67 9400 210/05 RMK AO2 T01780117
93073KASE ASE20160720191510707/20/16 19:15:31  5-MIN KASE 210215Z 22005KT 10SM FEW070 18/12 A3044 7370 67 9400 210/05 RMK AO2 T01780117
93073KASE ASE20160720192010707/20/16 19:20:31  5-MIN KASE 210220Z 20006KT 10SM SCT070 18/11 A3044 7370 64 9400 190/06 RMK AO2 T01780111
93073KASE ASE20160720192510707/20/16 19:25:31  5-MIN KASE 210225Z 22006KT 10SM BKN070 18/11 A3044 7370 64 9400 210/06 RMK AO2 T01780111
93073KASE ASE20160720193010707/20/16 19:30:31  5-MIN KASE 210230Z 20005KT 10SM BKN070 18/11 A3044 7370 64 9400 190/05 RMK AO2 T01780111
93073KASE ASE20160720193511907/20/16 19:35:31  5-MIN KASE 210235Z 15006KT 10SM BKN070 18/11 A3044 7370 64 9400 140/06 RMK AO2 LTG DSNT NW T01780111
93073KASE ASE20160720194011907/20/16 19:40:31  5-MIN KASE 210240Z 16005KT 10SM BKN070 18/11 A3044 7370 62 9400 150/05 RMK AO2 LTG DSNT NW T01830111
93073KASE ASE20160720194512607/20/16 19:45:31  5-MIN KASE 210245Z 18005KT 10SM BKN070 BKN110 18/11 A3044 7360 62 9400 170/05 RMK AO2 LTG DSNT NW T01830111
93073KASE ASE20160720195013307/20/16 19:50:31  5-MIN KASE 210250Z VRB04KT 10SM SCT070 BKN110 18/11 A3044 7360 62 9400 VRB/04 RMK AO2 SLP187 60000 T01830111 53004
93073KASE ASE20160720195511407/20/16 19:55:31  5-MIN KASE 210255Z 11003KT 10SM BKN070 BKN110 18/12 A3044 7360 67 9400 100/03 RMK AO2 T01780117
93073KASE ASE20160720200011407/20/16 20:00:31  5-MIN KASE 210300Z 00000KT 10SM SCT070 BKN110 17/12 A3044 7360 69 9300 000/00 RMK AO2 T01720117
93073KASE ASE20160720200512607/20/16 20:05:31  5-MIN KASE 210305Z 00000KT 10SM SCT070 OVC100 17/12 A3044 7360 69 9300 000/00 RMK AO2 LTG DSNT NE T01720117
93073KASE ASE20160720201012607/20/16 20:10:31  5-MIN KASE 210310Z 16003KT 10SM BKN070 OVC100 18/12 A3045 7360 67 9400 150/03 RMK AO2 LTG DSNT NE T01780117
93073KASE ASE20160720201512607/20/16 20:15:31  5-MIN KASE 210315Z 16003KT 10SM BKN070 OVC100 18/12 A3045 7360 67 9400 150/03 RMK AO2 LTG DSNT NE T01780117
93073KASE ASE20160720202011407/20/16 20:20:31  5-MIN KASE 210320Z 23003KT 10SM BKN070 OVC100 18/12 A3045 7350 67 9400 220/03 RMK AO2 T01780117
93073KASE ASE20160720202512607/20/16 20:25:31  5-MIN KASE 210325Z 21003KT 10SM BKN070 OVC100 17/12 A3045 7350 69 9300 200/03 RMK AO2 LTG DSNT NW T01720117
93073KASE ASE20160720203012607/20/16 20:30:31  5-MIN KASE 210330Z 00000KT 10SM BKN070 OVC100 17/12 A3046 7350 69 9300 000/00 RMK AO2 LTG DSNT NW T01720117
93073KASE ASE20160720203513307/20/16 20:35:31  5-MIN KASE 210335Z 19003KT 10SM SCT070 BKN095 OVC120 18/12 A3046 7350 67 9400 180/03 RMK AO2 LTG DSNT NW T01780117
93073KASE ASE20160720204013307/20/16 20:40:31  5-MIN KASE 210340Z 21003KT 10SM SCT070 BKN100 OVC120 17/12 A3046 7350 75 9200 200/03 RMK AO2 LTG DSNT NW T01670122
93073KASE ASE20160720204512607/20/16 20:45:31  5-MIN KASE 210345Z 17003KT 10SM FEW070 OVC110 17/13 A3046 7350 77 9200 160/03 RMK AO2 LTG DSNT NW T01670128
93073KASE ASE20160720205013307/20/16 20:50:31  5-MIN KASE 210350Z 21003KT 10SM FEW070 BKN110 17/12 A3046 7340 75 9200 200/03 RMK AO2 LTG DSNT NW SLP187 T01670122
93073KASE ASE20160720205511907/20/16 20:55:31  5-MIN KASE 210355Z 00000KT 10SM BKN110 17/12 A3046 7340 75 9200 000/00 RMK AO2 LTG DSNT NW T01670122
93073KASE ASE20160720210011907/20/16 21:00:31  5-MIN KASE 210400Z 21003KT 10SM BKN100 17/12 A3046 7340 75 9200 200/03 RMK AO2 LTG DSNT NW T01670122
93073KASE ASE20160720210510707/20/16 21:05:31  5-MIN KASE 210405Z 17003KT 10SM BKN100 16/12 A3046 7340 77 9200 160/03 RMK AO2 T01610122
93073KASE ASE20160720211010707/20/16 21:10:31  5-MIN KASE 210410Z 22006KT 10SM SCT100 16/12 A3046 7340 77 9200 210/06 RMK AO2 T01610122
93073KASE ASE20160720211510707/20/16 21:15:31  5-MIN KASE 210415Z 21006KT 10SM FEW100 16/12 A3047 7340 75 9200 200/06 RMK AO2 T01610117
93073KASE ASE20160720212010707/20/16 21:20:31  5-MIN KASE 210420Z 21005KT 10SM FEW100 16/12 A3047 7340 75 9200 200/05 RMK AO2 T01610117
93073KASE ASE20160720212510707/20/16 21:25:31  5-MIN KASE 210425Z 21005KT 10SM FEW100 16/12 A3047 7330 75 9200 200/05 RMK AO2 T01610117
93073KASE ASE20160720213010707/20/16 21:30:31  5-MIN KASE 210430Z 21005KT 10SM FEW110 16/12 A3048 7330 75 9200 200/05 RMK AO2 T01610117
93073KASE ASE20160720213510407/20/16 21:35:31  5-MIN KASE 210435Z 17006KT 10SM CLR 16/11 A3048 7330 72 9200 160/06 RMK AO2 T01610111
93073KASE ASE20160720214010707/20/16 21:40:31  5-MIN KASE 210440Z 20007KT 10SM SCT085 15/12 A3048 7330 80 9000 190/07 RMK AO2 T01500117
93073KASE ASE20160720214511407/20/16 21:45:31  5-MIN KASE 210445Z 21005KT 10SM FEW070 BKN085 15/12 A3048 7330 80 9000 200/05 RMK AO2 T01500117
93073KASE ASE20160720215012107/20/16 21:50:31  5-MIN KASE 210450Z 21007KT 10SM BKN065 BKN085 15/12 A3048 7330 80 9000 210/07 RMK AO2 SLP190 T01500117
93073KASE ASE20160720215511407/20/16 21:55:31  5-MIN KASE 210455Z 22007KT 10SM BKN065 BKN085 14/12 A3048 7330 83 9000 210/07 RMK AO2 T01440117
93073KASE ASE20160720220011407/20/16 22:00:31  5-MIN KASE 210500Z 21006KT 10SM BKN070 OVC085 16/12 A3048 7330 77 9100 200/06 RMK AO2 T01560117
93073KASE ASE20160720220511407/20/16 22:05:31  5-MIN KASE 210505Z 20006KT 10SM BKN070 OVC090 16/11 A3047 7330 74 9100 190/06 RMK AO2 T01560111
93073KASE ASE20160720221011407/20/16 22:10:31  5-MIN KASE 210510Z 17004KT 10SM BKN070 BKN090 16/11 A3047 7330 69 9200 160/04 RMK AO2 T01610106
93073KASE ASE20160720221511407/20/16 22:15:31  5-MIN KASE 210515Z 16005KT 10SM SCT070 BKN090 16/11 A3048 7330 69 9200 150/05 RMK AO2 T01610106
93073KASE ASE20160720222012107/20/16 22:20:31  5-MIN KASE 210520Z 18004KT 10SM FEW070 BKN090 BKN120 16/11 A3047 7330 69 9200 170/04 RMK AO2 T01610106
93073KASE ASE20160720222512107/20/16 22:25:31  5-MIN KASE 210525Z 22004KT 10SM FEW070 SCT090 BKN120 16/11 A3047 7330 74 9100 210/04 RMK AO2 T01560111
93073KASE ASE20160720223012107/20/16 22:30:31  5-MIN KASE 210530Z 21005KT 10SM FEW075 FEW095 BKN120 16/11 A3048 7330 72 9100 200/05 RMK AO2 T01560106
93073KASE ASE20160720223511407/20/16 22:35:31  5-MIN KASE 210535Z 21006KT 10SM FEW095 FEW120 16/11 A3048 7330 72 9100 200/06 RMK AO2 T01560106
93073KASE ASE20160720224010707/20/16 22:40:31  5-MIN KASE 210540Z 18006KT 10SM FEW120 16/11 A3048 7330 72 9100 180/06 RMK AO2 T01560106
93073KASE ASE20160720224510707/20/16 22:45:31  5-MIN KASE 210545Z 20005KT 10SM FEW120 15/11 A3048 7330 74 9000 190/05 RMK AO2 T01500106
93073KASE ASE20160720225013807/20/16 22:50:31  5-MIN KASE 210550Z 20005KT 10SM FEW120 14/11 A3048 7330 77 9000 190/05 RMK AO2 SLP191 60000 T01440106 10200 20144 53006
93073KASE ASE20160720225510407/20/16 22:55:31  5-MIN KASE 210555Z 20007KT 10SM CLR 14/11 A3048 7330 80 9000 190/07 RMK AO2 T01440111
93073KASE ASE20160720230010407/20/16 23:00:31  5-MIN KASE 210600Z 21006KT 10SM CLR 14/11 A3048 7330 80 8900 200/06 RMK AO2 T01390106
93073KASE ASE20160720230510407/20/16 23:05:31  5-MIN KASE 210605Z 21007KT 10SM CLR 14/11 A3048 7330 80 8900 200/07 RMK AO2 T01390106
93073KASE ASE20160720231010407/20/16 23:10:31  5-MIN KASE 210610Z 22007KT 10SM CLR 14/11 A3048 7330 80 8900 210/07 RMK AO2 T01390106
93073KASE ASE20160720231510907/20/16 23:15:31  5-MIN KASE 210615Z AUTO 21006KT 10SM CLR 14/11 A3048 7330 77 9000 200/06 RMK AO2 T01440106
93073KASE ASE20160720232010907/20/16 23:20:31  5-MIN KASE 210620Z AUTO 21005KT 10SM CLR 14/10 A3048 7320 74 9000 200/05 RMK AO2 T01440100
93073KASE ASE20160720232510907/20/16 23:25:31  5-MIN KASE 210625Z AUTO 19003KT 10SM CLR 14/10 A3048 7330 74 9000 180/03 RMK AO2 T01440100
93073KASE ASE20160720233010907/20/16 23:30:31  5-MIN KASE 210630Z AUTO 19006KT 10SM CLR 14/10 A3048 7320 77 8900 180/06 RMK AO2 T01390100
93073KASE ASE20160720233510907/20/16 23:35:31  5-MIN KASE 210635Z AUTO 21006KT 10SM CLR 13/10 A3048 7320 80 8800 200/06 RMK AO2 T01330100
93073KASE ASE20160720234010907/20/16 23:40:31  5-MIN KASE 210640Z AUTO 21007KT 10SM CLR 13/10 A3048 7330 80 8800 200/07 RMK AO2 T01330100
93073KASE ASE20160720234510907/20/16 23:45:31  5-MIN KASE 210645Z AUTO 20007KT 10SM CLR 13/10 A3048 7330 80 8800 190/07 RMK AO2 T01330100
93073KASE ASE20160720235012607/20/16 23:50:31  5-MIN KASE 210650Z AUTO 19006KT 10SM CLR 13/10 A3048 7330 80 8800 180/06 RMK AO2 SLP190 T01330100 402720094
93073KASE ASE20160720235510907/20/16 23:55:31  5-MIN KASE 210655Z AUTO 20006KT 10SM CLR 13/10 A3048 7330 80 8800 200/06 RMK AO2 T01330100
93073KASE ASE20160721000010907/21/16 00:00:31  5-MIN KASE 210700Z AUTO 20005KT 10SM CLR 13/10 A3048 7330 80 8800 190/05 RMK AO2 T01330100
93073KASE ASE20160721000510907/21/16 00:05:31  5-MIN KASE 210705Z AUTO 21005KT 10SM CLR 13/10 A3048 7330 80 8800 200/05 RMK AO2 T01330100
93073KASE ASE20160721001010907/21/16 00:10:31  5-MIN KASE 210710Z AUTO 20005KT 10SM CLR 13/10 A3048 7330 80 8800 200/05 RMK AO2 T01330100
93073KASE ASE20160721001510907/21/16 00:15:31  5-MIN KASE 210715Z AUTO 20003KT 10SM CLR 13/09 A3048 7330 77 8800 190/03 RMK AO2 T01330094
93073KASE ASE20160721002010907/21/16 00:20:31  5-MIN KASE 210720Z AUTO 21005KT 10SM CLR 13/10 A3048 7330 80 8800 200/05 RMK AO2 T01330100
93073KASE ASE20160721002510907/21/16 00:25:31  5-MIN KASE 210725Z AUTO 20003KT 10SM CLR 13/09 A3048 7330 77 8800 200/03 RMK AO2 T01330094
93073KASE ASE20160721003010907/21/16 00:30:31  5-MIN KASE 210730Z AUTO 20003KT 10SM CLR 14/09 A3048 7330 74 8900 200/03 RMK AO2 T01390094
93073KASE ASE20160721003510907/21/16 00:35:31  5-MIN KASE 210735Z AUTO 18004KT 10SM CLR 13/09 A3048 7330 77 8800 180/04 RMK AO2 T01330094
93073KASE ASE20160721004010907/21/16 00:40:31  5-MIN KASE 210740Z AUTO 21003KT 10SM CLR 13/09 A3048 7330 80 8800 200/03 RMK AO2 T01280094
93073KASE ASE20160721004510907/21/16 00:45:31  5-MIN KASE 210745Z AUTO 21007KT 10SM CLR 13/09 A3048 7330 80 8800 200/07 RMK AO2 T01280094
93073KASE ASE20160721005011607/21/16 00:50:31  5-MIN KASE 210750Z AUTO 21007KT 10SM CLR 13/09 A3048 7330 80 8800 200/07 RMK AO2 SLP193 T01280094
93073KASE ASE20160721005510907/21/16 00:55:31  5-MIN KASE 210755Z AUTO 21007KT 10SM CLR 13/09 A3048 7330 80 8800 210/07 RMK AO2 T01280094
93073KASE ASE20160721010010907/21/16 01:00:31  5-MIN KASE 210800Z AUTO 21006KT 10SM CLR 13/09 A3048 7330 80 8800 200/06 RMK AO2 T01280094
93073KASE ASE20160721010510907/21/16 01:05:31  5-MIN KASE 210805Z AUTO 20005KT 10SM CLR 13/09 A3047 7330 80 8800 190/05 RMK AO2 T01280094
93073KASE ASE20160721011010907/21/16 01:10:31  5-MIN KASE 210810Z AUTO 21006KT 10SM CLR 13/09 A3048 7330 80 8800 200/06 RMK AO2 T01280094
93073KASE ASE20160721011510907/21/16 01:15:31  5-MIN KASE 210815Z AUTO VRB03KT 10SM CLR 14/09 A3047 7330 74 8900 VRB/03 RMK AO2 T01390094
93073KASE ASE20160721012011207/21/16 01:20:31  5-MIN KASE 210820Z AUTO 21003KT 10SM FEW075 13/09 A3048 7330 80 8800 200/03 RMK AO2 T01280094
93073KASE ASE20160721012511207/21/16 01:25:31  5-MIN KASE 210825Z AUTO 19003KT 10SM FEW075 13/09 A3047 7330 80 8800 180/03 RMK AO2 T01280094
93073KASE ASE20160721013011207/21/16 01:30:31  5-MIN KASE 210830Z AUTO 20004KT 10SM FEW075 13/09 A3047 7330 80 8800 190/04 RMK AO2 T01280094
93073KASE ASE20160721013511207/21/16 01:35:31  5-MIN KASE 210835Z AUTO 21005KT 10SM FEW075 13/09 A3047 7340 80 8800 200/05 RMK AO2 T01280094
93073KASE ASE20160721014011207/21/16 01:40:31  5-MIN KASE 210840Z AUTO 20003KT 10SM FEW075 13/09 A3047 7340 80 8800 200/03 RMK AO2 T01280094
93073KASE ASE20160721014511207/21/16 01:45:31  5-MIN KASE 210845Z AUTO 20004KT 10SM FEW075 13/09 A3047 7330 80 8800 190/04 RMK AO2 T01280094
93073KASE ASE20160721015012507/21/16 01:50:31  5-MIN KASE 210850Z AUTO 22007KT 10SM FEW075 13/09 A3047 7330 80 8800 210/07 RMK AO2 SLP192 T01280094 51011
93073KASE ASE20160721015510907/21/16 01:55:31  5-MIN KASE 210855Z AUTO 21005KT 10SM CLR 13/09 A3047 7330 80 8800 200/05 RMK AO2 T01280094
93073KASE ASE20160721020010907/21/16 02:00:31  5-MIN KASE 210900Z AUTO 20006KT 10SM CLR 13/09 A3047 7330 77 8800 190/06 RMK AO2 T01330094
93073KASE ASE20160721020510907/21/16 02:05:31  5-MIN KASE 210905Z AUTO 21006KT 10SM CLR 13/09 A3047 7330 80 8800 200/06 RMK AO2 T01280094
93073KASE ASE20160721021010907/21/16 02:10:31  5-MIN KASE 210910Z AUTO 22007KT 10SM CLR 13/09 A3047 7330 80 8800 210/07 RMK AO2 T01280094
93073KASE ASE20160721021510907/21/16 02:15:31  5-MIN KASE 210915Z AUTO 21004KT 10SM CLR 13/09 A3047 7330 80 8800 200/04 RMK AO2 T01280094
93073KASE ASE20160721022010907/21/16 02:20:31  5-MIN KASE 210920Z AUTO 19003KT 10SM CLR 13/09 A3047 7330 77 8800 180/03 RMK AO2 T01330094
93073KASE ASE20160721022510907/21/16 02:25:31  5-MIN KASE 210925Z AUTO 00000KT 10SM CLR 13/09 A3047 7330 77 8800 000/00 RMK AO2 T01330094
93073KASE ASE20160721023010907/21/16 02:30:31  5-MIN KASE 210930Z AUTO 00000KT 10SM CLR 13/09 A3047 7340 80 8800 000/00 RMK AO2 T01280094
93073KASE ASE20160721023510907/21/16 02:35:31  5-MIN KASE 210935Z AUTO 00000KT 10SM CLR 12/09 A3047 7340 83 8700 000/00 RMK AO2 T01220094
93073KASE ASE20160721024010907/21/16 02:40:31  5-MIN KASE 210940Z AUTO 21003KT 10SM CLR 12/09 A3047 7330 83 8700 200/03 RMK AO2 T01220094
93073KASE ASE20160721024510907/21/16 02:45:31  5-MIN KASE 210945Z AUTO 00000KT 10SM CLR 12/09 A3047 7340 83 8700 000/00 RMK AO2 T01220094
93073KASE ASE20160721025011607/21/16 02:50:31  5-MIN KASE 210950Z AUTO 00000KT 10SM CLR 12/09 A3047 7340 83 8700 000/00 RMK AO2 SLP190 T01220094
93073KASE ASE20160721025510907/21/16 02:55:31  5-MIN KASE 210955Z AUTO 00000KT 10SM CLR 12/09 A3047 7340 86 8700 000/00 RMK AO2 T01170094
93073KASE ASE20160721030010907/21/16 03:00:31  5-MIN KASE 211000Z AUTO 23005KT 10SM CLR 12/09 A3046 7340 86 8700 220/05 RMK AO2 T01170094
93073KASE ASE20160721030510907/21/16 03:05:31  5-MIN KASE 211005Z AUTO 22006KT 10SM CLR 12/09 A3046 7340 83 8700 210/06 RMK AO2 T01170089
93073KASE ASE20160721031010907/21/16 03:10:31  5-MIN KASE 211010Z AUTO 00000KT 10SM CLR 12/09 A3046 7340 86 8700 000/00 RMK AO2 T01170094
93073KASE ASE20160721031510907/21/16 03:15:31  5-MIN KASE 211015Z AUTO 12004KT 10SM CLR 12/09 A3046 7340 86 8700 110/04 RMK AO2 T01170094
93073KASE ASE20160721032010907/21/16 03:20:31  5-MIN KASE 211020Z AUTO 00000KT 10SM CLR 12/09 A3046 7340 86 8700 000/00 RMK AO2 T01170094
93073KASE ASE20160721032510907/21/16 03:25:31  5-MIN KASE 211025Z AUTO 26003KT 10SM CLR 11/09 A3046 7340 89 8600 250/03 RMK AO2 T01110094
93073KASE ASE20160721033010907/21/16 03:30:31  5-MIN KASE 211030Z AUTO 22003KT 10SM CLR 11/09 A3046 7350 89 8600 220/03 RMK AO2 T01110094
93073KASE ASE20160721033510907/21/16 03:35:31  5-MIN KASE 211035Z AUTO 00000KT 10SM CLR 12/09 A3046 7350 86 8700 000/00 RMK AO2 T01170094
93073KASE ASE20160721034010907/21/16 03:40:31  5-MIN KASE 211040Z AUTO 00000KT 10SM CLR 12/09 A3046 7350 83 8700 000/00 RMK AO2 T01220094
93073KASE ASE20160721034510907/21/16 03:45:31  5-MIN KASE 211045Z AUTO 15004KT 10SM CLR 12/09 A3046 7350 83 8700 140/04 RMK AO2 T01220094
93073KASE ASE20160721035011607/21/16 03:50:31  5-MIN KASE 211050Z AUTO 21006KT 10SM CLR 13/09 A3046 7350 80 8800 200/06 RMK AO2 SLP189 T01280094
93073KASE ASE20160721035510907/21/16 03:55:31  5-MIN KASE 211055Z AUTO 19004KT 10SM CLR 13/10 A3046 7350 83 8800 180/04 RMK AO2 T01280100
93073KASE ASE20160721040010907/21/16 04:00:31  5-MIN KASE 211100Z AUTO 20004KT 10SM CLR 12/10 A3046 7350 86 8700 190/04 RMK AO2 T01220100
93073KASE ASE20160721040510907/21/16 04:05:31  5-MIN KASE 211105Z AUTO 15003KT 10SM CLR 13/10 A3046 7350 83 8800 140/03 RMK AO2 T01280100
93073KASE ASE20160721041010907/21/16 04:10:31  5-MIN KASE 211110Z AUTO 18003KT 10SM CLR 13/10 A3045 7350 83 8800 170/03 RMK AO2 T01280100
93073KASE ASE20160721041510907/21/16 04:15:31  5-MIN KASE 211115Z AUTO 00000KT 10SM CLR 12/10 A3045 7350 86 8700 000/00 RMK AO2 T01220100
93073KASE ASE20160721042010907/21/16 04:20:31  5-MIN KASE 211120Z AUTO 00000KT 10SM CLR 12/10 A3046 7350 86 8700 000/00 RMK AO2 T01220100
93073KASE ASE20160721042511207/21/16 04:25:31  5-MIN KASE 211125Z AUTO 00000KT 10SM FEW120 12/10 A3046 7350 86 8700 000/00 RMK AO2 T01220100
93073KASE ASE20160721043011207/21/16 04:30:31  5-MIN KASE 211130Z AUTO 00000KT 10SM BKN110 12/10 A3046 7350 86 8700 000/00 RMK AO2 T01220100
93073KASE ASE20160721043511207/21/16 04:35:31  5-MIN KASE 211135Z AUTO 22003KT 10SM BKN110 12/10 A3046 7350 86 8700 210/03 RMK AO2 T01220100
93073KASE ASE20160721044011207/21/16 04:40:31  5-MIN KASE 211140Z AUTO 00000KT 10SM BKN110 12/10 A3046 7350 86 8700 000/00 RMK AO2 T01220100
93073KASE ASE20160721044511207/21/16 04:45:31  5-MIN KASE 211145Z AUTO 00000KT 10SM OVC110 12/10 A3046 7350 86 8700 000/00 RMK AO2 T01220100
93073KASE ASE20160721045013707/21/16 04:50:31  5-MIN KASE 211150Z AUTO 00000KT 10SM OVC110 12/09 A3046 7340 83 8700 000/00 RMK AO2 SLP204 T01220094 10144 20111 58001
93073KASE ASE20160721045511207/21/16 04:55:31  5-MIN KASE 211155Z AUTO 00000KT 10SM BKN110 12/10 A3046 7340 86 8700 000/00 RMK AO2 T01220100
93073KASE ASE20160721050011207/21/16 05:00:31  5-MIN KASE 211200Z AUTO 00000KT 10SM BKN110 12/11 A3047 7340 89 8700 000/00 RMK AO2 T01220106
93073KASE ASE20160721050511207/21/16 05:05:31  5-MIN KASE 211205Z AUTO 00000KT 10SM BKN110 13/10 A3047 7340 83 8800 000/00 RMK AO2 T01280100
93073KASE ASE20160721051011207/21/16 05:10:31  5-MIN KASE 211210Z AUTO 00000KT 10SM SCT110 12/10 A3047 7340 89 8700 000/00 RMK AO2 T01170100
93073KASE ASE20160721051511207/21/16 05:15:31  5-MIN KASE 211215Z AUTO 00000KT 10SM FEW110 12/10 A3047 7340 86 8700 000/00 RMK AO2 T01220100
93073KASE ASE20160721052011207/21/16 05:20:31  5-MIN KASE 211220Z AUTO 20004KT 10SM SCT110 13/10 A3047 7340 83 8800 190/04 RMK AO2 T01280100
93073KASE ASE20160721052511207/21/16 05:25:31  5-MIN KASE 211225Z AUTO 23003KT 10SM BKN120 12/10 A3047 7340 86 8700 220/03 RMK AO2 T01220100
93073KASE ASE20160721053011207/21/16 05:30:31  5-MIN KASE 211230Z AUTO 00000KT 10SM BKN120 12/10 A3047 7340 89 8700 000/00 RMK AO2 T01170100
93073KASE ASE20160721053511207/21/16 05:35:31  5-MIN KASE 211235Z AUTO 00000KT 10SM BKN110 12/10 A3047 7330 86 8700 000/00 RMK AO2 T01220100
93073KASE ASE20160721054011207/21/16 05:40:31  5-MIN KASE 211240Z AUTO 16003KT 10SM BKN110 12/10 A3048 7330 86 8700 150/03 RMK AO2 T01220100
93073KASE ASE20160721054511207/21/16 05:45:31  5-MIN KASE 211245Z AUTO 19004KT 10SM BKN110 12/10 A3048 7330 86 8700 180/04 RMK AO2 T01220100
93073KASE ASE20160721055011907/21/16 05:50:31  5-MIN KASE 211250Z AUTO 18003KT 10SM BKN110 12/10 A3048 7330 86 8700 170/03 RMK AO2 SLP207 T01220100
93073KASE ASE20160721055510707/21/16 05:55:31  5-MIN KASE 211255Z 00000KT 10SM FEW110 13/10 A3048 7330 83 8800 000/00 RMK AO2 T01280100
93073KASE ASE20160721060010707/21/16 06:00:31  5-MIN KASE 211300Z 14004KT 10SM FEW110 13/10 A3048 7330 80 8800 130/04 RMK AO2 T01330100
93073KASE ASE20160721060510707/21/16 06:05:31  5-MIN KASE 211305Z 16003KT 10SM FEW110 13/10 A3048 7330 80 8800 150/03 RMK AO2 T01330100
93073KASE ASE20160721061010707/21/16 06:10:31  5-MIN KASE 211310Z 18003KT 10SM FEW110 13/10 A3048 7320 80 8800 170/03 RMK AO2 T01330100
93073KASE ASE20160721061510707/21/16 06:15:31  5-MIN KASE 211315Z 13004KT 10SM FEW110 14/10 A3048 7320 77 8900 130/04 RMK AO2 T01390100
93073KASE ASE20160721062010707/21/16 06:20:31  5-MIN KASE 211320Z 12004KT 10SM FEW110 13/10 A3048 7320 80 8800 110/04 RMK AO2 T01330100
93073KASE ASE20160721062510707/21/16 06:25:31  5-MIN KASE 211325Z 14004KT 10SM FEW110 13/10 A3049 7320 80 8800 130/04 RMK AO2 T01330100
93073KASE ASE20160721063010707/21/16 06:30:31  5-MIN KASE 211330Z 00000KT 10SM FEW110 14/09 A3049 7320 74 8900 000/00 RMK AO2 T01390094
93073KASE ASE20160721063510707/21/16 06:35:31  5-MIN KASE 211335Z 00000KT 10SM FEW110 14/09 A3049 7320 72 9000 000/00 RMK AO2 T01440094
93073KASE ASE20160721064010707/21/16 06:40:31  5-MIN KASE 211340Z 00000KT 10SM FEW110 15/09 A3049 7310 66 9000 000/00 RMK AO2 T01500089
93073KASE ASE20160721064510707/21/16 06:45:31  5-MIN KASE 211345Z 00000KT 10SM FEW110 16/09 A3050 7310 67 9100 000/00 RMK AO2 T01560094
93073KASE ASE20160721065011407/21/16 06:50:31  5-MIN KASE 211350Z 00000KT 10SM FEW100 15/09 A3050 7310 69 9000 000/00 RMK AO2 SLP208 T01500094
93073KASE ASE20160721065510707/21/16 06:55:31  5-MIN KASE 211355Z 00000KT 10SM BKN100 15/09 A3050 7310 69 9000 000/00 RMK AO2 T01500094
93073KASE ASE20160721070010707/21/16 07:00:31  5-MIN KASE 211400Z VRB03KT 10SM BKN100 16/09 A3050 7310 64 9100 VRB/03 RMK AO2 T01560089
93073KASE ASE20160721070510707/21/16 07:05:31  5-MIN KASE 211405Z 13003KT 10SM BKN100 15/09 A3050 7310 69 9000 120/03 RMK AO2 T01500094
93073KASE ASE20160721071010707/21/16 07:10:31  5-MIN KASE 211410Z 14003KT 10SM OVC110 15/09 A3050 7310 69 9000 130/03 RMK AO2 T01500094
93073KASE ASE20160721071510707/21/16 07:15:31  5-MIN KASE 211415Z 15003KT 10SM OVC110 16/09 A3050 7310 67 9100 140/03 RMK AO2 T01560094
93073KASE ASE20160721072010707/21/16 07:20:31  5-MIN KASE 211420Z 15004KT 10SM OVC110 16/09 A3050 7310 64 9100 140/04 RMK AO2 T01560089
93073KASE ASE20160721072510707/21/16 07:25:31  5-MIN KASE 211425Z 00000KT 10SM OVC110 16/09 A3050 7310 67 9100 000/00 RMK AO2 T01560094
93073KASE ASE20160721073010707/21/16 07:30:31  5-MIN KASE 211430Z 13003KT 10SM OVC110 16/10 A3050 7310 69 9100 120/03 RMK AO2 T01560100
93073KASE ASE20160721073510707/21/16 07:35:31  5-MIN KASE 211435Z 12003KT 10SM OVC110 16/09 A3050 7300 64 9100 110/03 RMK AO2 T01610094
93073KASE ASE20160721074010707/21/16 07:40:31  5-MIN KASE 211440Z 11003KT 10SM OVC110 16/10 A3051 7300 67 9100 100/03 RMK AO2 T01610100
93073KASE ASE20160721074510707/21/16 07:45:31  5-MIN KASE 211445Z 12003KT 10SM OVC110 16/10 A3051 7300 67 9100 110/03 RMK AO2 T01610100
93073KASE ASE20160721075012007/21/16 07:50:31  5-MIN KASE 211450Z 14003KT 10SM BKN110 16/10 A3051 7300 67 9100 130/03 RMK AO2 SLP211 T01610100 55004
93073KASE ASE20160721075510707/21/16 07:55:31  5-MIN KASE 211455Z 00000KT 10SM OVC100 16/10 A3051 7300 67 9100 000/00 RMK AO2 T01610100
93073KASE ASE20160721080010707/21/16 08:00:31  5-MIN KASE 211500Z 00000KT 10SM OVC100 17/09 A3051 7300 62 9200 000/00 RMK AO2 T01670094
93073KASE ASE20160721080510707/21/16 08:05:31  5-MIN KASE 211505Z 00000KT 10SM OVC100 17/10 A3051 7300 64 9200 000/00 RMK AO2 T01670100
93073KASE ASE20160721081010707/21/16 08:10:31  5-MIN KASE 211510Z 00000KT 10SM OVC110 17/10 A3051 7300 64 9200 000/00 RMK AO2 T01670100
93073KASE ASE20160721081510707/21/16 08:15:31  5-MIN KASE 211515Z 00000KT 10SM OVC110 17/10 A3051 7300 64 9200 000/00 RMK AO2 T01670100
93073KASE ASE20160721082010707/21/16 08:20:31  5-MIN KASE 211520Z 11003KT 10SM OVC110 17/10 A3051 7300 64 9200 100/03 RMK AO2 T01670100
93073KASE ASE20160721082510707/21/16 08:25:31  5-MIN KASE 211525Z 12003KT 10SM OVC110 17/10 A3050 7300 64 9200 110/03 RMK AO2 T01670100
93073KASE ASE20160721083010707/21/16 08:30:31  5-MIN KASE 211530Z 00000KT 10SM OVC110 17/09 A3050 7300 62 9200 000/00 RMK AO2 T01670094
93073KASE ASE20160721083511407/21/16 08:35:31  5-MIN KASE 211535Z 00000KT 10SM FEW100 OVC110 17/09 A3050 7310 60 9200 000/00 RMK AO2 T01720094
93073KASE ASE20160721084011407/21/16 08:40:31  5-MIN KASE 211540Z 00000KT 10SM FEW095 OVC110 17/09 A3051 7300 60 9200 000/00 RMK AO2 T01720094
93073KASE ASE20160721084511407/21/16 08:45:31  5-MIN KASE 211545Z 00000KT 10SM FEW095 BKN110 18/09 A3050 7310 58 9300 000/00 RMK AO2 T01780094
93073KASE ASE20160721085012107/21/16 08:50:31  5-MIN KASE 211550Z 00000KT 10SM FEW095 BKN110 18/09 A3050 7310 56 9400 000/00 RMK AO2 SLP206 T01830094
93073KASE ASE20160721085511407/21/16 08:55:31  5-MIN KASE 211555Z 00000KT 10SM FEW095 SCT110 19/10 A3050 7310 56 9400 000/00 RMK AO2 T01890100
93073KASE ASE20160721090011407/21/16 09:00:31  5-MIN KASE 211600Z 00000KT 10SM FEW095 FEW120 19/09 A3049 7310 52 9500 000/00 RMK AO2 T01940094
93073KASE ASE20160721090510707/21/16 09:05:31  5-MIN KASE 211605Z 00000KT 10SM FEW120 19/09 A3049 7310 52 9500 000/00 RMK AO2 T01940094
93073KASE ASE20160721091011507/21/16 09:10:31  5-MIN KASE 211610Z 00000KT 10SM CLR 21/09 A3049 7320 48 9600 000/00 RMK AO2 LTG DSNT W T02060094
93073KASE ASE20160721091511507/21/16 09:15:31  5-MIN KASE 211615Z 00000KT 10SM CLR 21/09 A3049 7320 48 9600 000/00 RMK AO2 LTG DSNT W T02060094
93073KASE ASE20160721092011507/21/16 09:20:31  5-MIN KASE 211620Z 36006KT 10SM CLR 22/11 A3049 7320 49 9700 350/06 RMK AO2 LTG DSNT W T02170106
93073KASE ASE20160721092511507/21/16 09:25:31  5-MIN KASE 211625Z 35007KT 10SM CLR 22/11 A3049 7320 49 9700 350/07 RMK AO2 LTG DSNT W T02170106
93073KASE ASE20160721093011807/21/16 09:30:31  5-MIN KASE 211630Z 01007KT 10SM FEW120 21/10 A3049 7320 48 9700 360/07 RMK AO2 LTG DSNT W T02110100
93073KASE ASE20160721093511507/21/16 09:35:31  5-MIN KASE 211635Z 36007KT 10SM CLR 22/11 A3049 7320 49 9700 350/07 RMK AO2 LTG DSNT W T02170106
93073KASE ASE20160721094011507/21/16 09:40:31  5-MIN KASE 211640Z 36006KT 10SM CLR 21/11 A3049 7320 50 9700 350/06 RMK AO2 LTG DSNT W T02110106
93073KASE ASE20160721094511507/21/16 09:45:31  5-MIN KASE 211645Z 35006KT 10SM CLR 21/11 A3049 7320 52 9700 340/06 RMK AO2 LTG DSNT W T02110111
93073KASE ASE20160721095011107/21/16 09:50:31  5-MIN KASE 211650Z 36006KT 10SM CLR 22/11 A3048 7320 50 9800 350/06 RMK AO2 SLP197 T02170111
93073KASE ASE20160721095511507/21/16 09:55:31  5-MIN KASE 211655Z 36007KT 10SM CLR 21/11 A3048 7320 52 9700 350/07 RMK AO2 LTG DSNT W T02110111
93073KASE ASE20160721100011507/21/16 10:00:31  5-MIN KASE 211700Z 01007KT 10SM CLR 21/11 A3049 7320 52 9700 360/07 RMK AO2 LTG DSNT W T02110111
93073KASE ASE20160721100511507/21/16 10:05:31  5-MIN KASE 211705Z 01007KT 10SM CLR 21/11 A3049 7320 54 9600 360/07 RMK AO2 LTG DSNT W T02060111
93073KASE ASE20160721101011507/21/16 10:10:31  5-MIN KASE 211710Z 01007KT 10SM CLR 21/11 A3048 7320 54 9600 360/07 RMK AO2 LTG DSNT W T02060111
93073KASE ASE20160721101511507/21/16 10:15:31  5-MIN KASE 211715Z 36007KT 10SM CLR 21/11 A3049 7320 54 9600 350/07 RMK AO2 LTG DSNT W T02060111
93073KASE ASE20160721102011607/21/16 10:20:31  5-MIN KASE 211720Z 35007KT 10SM CLR 21/12 A3049 7320 56 9600 340/07 RMK AO2 LTG DSNT SW T02060117
93073KASE ASE20160721102511907/21/16 10:25:31  5-MIN KASE 211725Z 36007KT 10SM FEW120 21/11 A3048 7320 54 9600 350/07 RMK AO2 LTG DSNT SW T02060111
93073KASE ASE20160721103012507/21/16 10:30:31  5-MIN KASE 211730Z 36008KT 10SM FEW120 21/11 A3048 7330 54 9600 350/08 RMK AO2 LTG DSNT SW AND W T02060111
93073KASE ASE20160721103511807/21/16 10:35:31  5-MIN KASE 211735Z 36007KT 10SM FEW120 22/12 A3048 7320 52 9800 350/07 RMK AO2 LTG DSNT W T02170117
93073KASE ASE20160721104012507/21/16 10:40:31  5-MIN KASE 211740Z 36008KT 10SM FEW120 22/12 A3048 7320 52 9800 350/08 RMK AO2 LTG DSNT SW AND W T02220122
93073KASE ASE20160721104512607/21/16 10:45:31  5-MIN KASE 211745Z 36007KT 10SM FEW060 BKN120 23/12 A3048 7330 51 9900 360/07 RMK AO2 LTG DSNT SW T02280122
93073KASE ASE20160721105015107/21/16 10:50:31  5-MIN KASE 211750Z 36009KT 10SM FEW060 BKN120 23/12 A3048 7320 51 9900 350/09 RMK AO2 LTG DSNT SW SLP194 T02280122 10228 20117 51012
93073KASE ASE20160721105511407/21/16 10:55:31  5-MIN KASE 211755Z 02008KT 10SM FEW060 BKN120 23/12 A3048 7320 51 9900 010/08 RMK AO2 T02280122
93073KASE ASE20160721110011407/21/16 11:00:31  5-MIN KASE 211800Z 34008KT 10SM FEW060 BKN120 23/12 A3048 7320 51 9900 340/08 RMK AO2 T02280122
93073KASE ASE20160721110511407/21/16 11:05:31  5-MIN KASE 211805Z 35012KT 10SM FEW060 BKN120 23/13 A3048 7330 53 9900 350/12 RMK AO2 T02280128
93073KASE ASE20160721111013207/21/16 11:10:31  5-MIN KASE 211810Z 34012KT 10SM VCTS FEW060 BKN120 22/12 A3048 7320 52 9800 330/12 RMK AO2 LTG DST SW-W T02170117
93073KASE ASE20160721111514107/21/16 11:15:31  5-MIN KASE 211815Z 34011KT 10SM TS FEW060 BKN120 22/12 A3049 7320 52 9700 330/11 RMK AO2 TSB14 OCNL LTGICCG SW-W T02170117
93073KASE ASE20160721112014107/21/16 11:20:31  5-MIN KASE 211820Z 33009KT 10SM TS FEW060 BKN120 21/12 A3049 7320 54 9700 320/09 RMK AO2 TSB14 OCNL LTGICCG SW-W T02110117
93073KASE ASE20160721112514007/21/16 11:25:31  5-MIN KASE 211825Z 35008KT 10SM TS FEW060 BKN120 21/12 A3050 7310 56 9600 340/08 RMK AO2 TSB14 OCNL LTGICCG E-W T02060117
93073KASE ASE20160721113014007/21/16 11:30:31  5-MIN KASE 211830Z 03005KT 10SM TS FEW060 BKN120 21/12 A3050 7300 56 9600 020/05 RMK AO2 TSB14 OCNL LTGICCG E-W T02060117
93073KASE ASE20160721113514007/21/16 11:35:31  5-MIN KASE 211835Z VRB04KT 10SM TS FEW060 BKN120 21/12 A3051 7300 56 9600 VRB/04 RMK AO2 TSB14 OCNL LTGICCG E-W T02060117
93073KASE ASE20160721114014007/21/16 11:40:31  5-MIN KASE 211840Z 00000KT 10SM TS FEW060 BKN120 21/12 A3052 7290 56 9600 000/00 RMK AO2 LTG DSNT E AND S TSB14 T02060117
93073KASE ASE20160721114513907/21/16 11:45:31  5-MIN KASE 211845Z 10SM -TSRA FEW060 BKN120 19/12 A3052 7300 60 9500 M /M RMK AO2 LTG DSNT E RAB42 TSB14 P0000 T01940117
93073KASE ASE20160721115016807/21/16 11:50:31  5-MIN KASE 211850Z 26009G18KT 7SM -TSRA FEW060 BKN120 18/12 A3051 7300 67 9300 250/09G18 RMK AO2 LTG DSNT NE AND E RAB42 TSB14 SLP221 P0002 T01780117
93073KASE ASE20160721115515007/21/16 11:55:31  5-MIN KASE 211855Z 29009G18KT 4SM TSRA FEW050 BKN070 OVC085 17/13 A3051 7300 77 9200 280/09G18 RMK AO2 LTG DSNT N-E P0000 T01670128
93073KASE ASE20160721120014507/21/16 12:00:31  5-MIN KASE 211900Z VRB03KT 4SM -TSRA FEW055 BKN070 OVC085 17/13 A3051 7300 78 9200 VRB/03 RMK AO2 LTG DSNT N-E P0001 T01720133
93073KASE ASE20160721120514507/21/16 12:05:31  5-MIN KASE 211905Z 17006KT 8SM -TSRA FEW047 SCT065 OVC080 17/14 A3052 7290 80 9200 160/06 RMK AO2 LTG DSNT N-E P0001 T01720139
93073KASE ASE20160721121014807/21/16 12:10:31  5-MIN KASE 211910Z 22005KT 10SM -TSRA FEW047 SCT065 OVC080 17/13 A3052 7290 80 9200 210/05 RMK AO2 LTG DSNT ALQDS P0001 T01670133
93073KASE ASE20160721121514107/21/16 12:15:31  5-MIN KASE 211915Z VRB05KT 10SM -TSRA FEW047 OVC085 17/13 A3053 7280 77 9200 VRB/05 RMK AO2 LTG DSNT ALQDS P0001 T01670128
93073KASE ASE20160721122014807/21/16 12:20:31  5-MIN KASE 211920Z 15006KT 10SM -TSRA FEW033 FEW047 OVC085 17/13 A3053 7280 78 9200 140/06 RMK AO2 LTG DSNT ALQDS P0001 T01720133
93073KASE ASE20160721122515107/21/16 12:25:31  5-MIN KASE 211925Z VRB04KT 10SM -TSRA FEW033 SCT047 OVC085 17/14 A3053 7280 83 9200 VRB/04 RMK AO2 LTG DSNT NE AND E P0001 T01670139
93073KASE ASE20160721123015107/21/16 12:30:31  5-MIN KASE 211930Z 23004KT 10SM -TSRA FEW042 BKN080 OVC095 17/13 A3053 7280 80 9200 220/04 RMK AO2 LTG DSNT N AND NE P0001 T01670133
93073KASE ASE20160721123515107/21/16 12:35:31  5-MIN KASE 211935Z 20004KT 10SM -TSRA FEW040 BKN080 OVC090 17/14 A3054 7280 83 9100 190/04 RMK AO2 LTG DSNT N AND NE P0001 T01670139
93073KASE ASE20160721124015007/21/16 12:40:31  5-MIN KASE 211940Z 12004KT 9SM -TSRA FEW035 BKN080 BKN090 17/13 A3053 7280 80 9200 110/04 RMK AO2 LTG DSNT N AND NE P0002 T01670133
93073KASE ASE20160721124515007/21/16 12:45:31  5-MIN KASE 211945Z 00000KT 8SM -TSRA FEW035 BKN080 BKN090 16/13 A3053 7290 83 9100 000/00 RMK AO2 LTG DSNT N AND NE P0002 T01610133
93073KASE ASE20160721125014707/21/16 12:50:31  5-MIN KASE 211950Z 9SM -TSRA FEW035 SCT060 BKN080 17/14 A3053 7280 83 9200 M /M RMK AO2 LTG DSNT N AND NE SLP230 P0002 T01670139
93073KASE ASE20160721125514307/21/16 12:55:31  5-MIN KASE 211955Z 22006KT 9SM -TSRA FEW046 OVC080 17/14 A3053 7280 83 9200 220/06 RMK AO2 LTG DSNT N AND NE P0000 T01670139
93073KASE ASE20160721130015107/21/16 13:00:31  5-MIN KASE 212000Z 23004KT 10SM -TSRA FEW022 BKN080 OVC110 17/14 A3053 7280 86 9200 220/04 RMK AO2 LTG DSNT N AND NE P0001 T01670144
93073KASE ASE20160721130515107/21/16 13:05:31  5-MIN KASE 212005Z VRB03KT 10SM -TSRA FEW022 BKN080 BKN120 17/14 A3053 7290 83 9200 VRB/03 RMK AO2 LTG DSNT N AND NE P0001 T01720144
93073KASE ASE20160721131014907/21/16 13:10:31  5-MIN KASE 212010Z VRB06KT 10SM TS FEW045 SCT085 BKN120 18/14 A3052 7290 81 9300 VRB/06 RMK AO2 LTG DSNT N-E RAE10 P0001 T01780144
93073KASE ASE20160721131514907/21/16 13:15:31  5-MIN KASE 212015Z 12005KT 10SM TS FEW070 FEW085 BKN120 18/14 A3052 7290 78 9300 110/05 RMK AO2 LTG DSNT N-E RAE10 P0001 T01780139
93073KASE ASE20160721132014207/21/16 13:20:31  5-MIN KASE 212020Z 14005KT 10SM TS FEW085 BKN120 18/14 A3052 7290 78 9300 130/05 RMK AO2 LTG DSNT N-E RAE10 P0001 T01780139
93073KASE ASE20160721132514007/21/16 13:25:31  5-MIN KASE 212025Z 13005KT 10SM TS BKN120 18/14 A3052 7290 78 9300 120/05 RMK AO2 LTG DSNT N AND NE RAE10 P0001 T01780139
93073KASE ASE20160721133014007/21/16 13:30:31  5-MIN KASE 212030Z 15004KT 10SM TS OVC120 18/14 A3052 7290 75 9400 140/04 RMK AO2 LTG DSNT N AND NE RAE10 P0001 T01830139
93073KASE ASE20160721133514307/21/16 13:35:31  5-MIN KASE 212035Z 00000KT 10SM BKN120 18/13 A3051 7300 72 9400 000/00 RMK AO2 LTG DSNT N AND NE RAE10 TSE32 P0001 T01830133
93073KASE ASE20160721134013607/21/16 13:40:31  5-MIN KASE 212040Z VRB03KT 10SM BKN120 19/14 A3051 7300 70 9500 VRB/03 RMK AO2 LTG DSNT N RAE10 TSE32 P0001 T01940139
93073KASE ASE20160721134512507/21/16 13:45:31  5-MIN KASE 212045Z 00000KT 10SM SCT120 21/14 A3051 7300 65 9600 000/00 RMK AO2 RAE10 TSE32 P0001 T02060139
93073KASE ASE20160721135015607/21/16 13:50:31  5-MIN KASE 212050Z 00000KT 10SM SCT110 20/14 A3051 7300 67 9500 000/00 RMK AO2 LTG DSNT SE RAE10 TSE32 SLP214 P0001 60007 T02000139 56007
93073KASE ASE20160721135511907/21/16 13:55:31  5-MIN KASE 212055Z VRB03KT 10SM BKN110 21/13 A3050 7310 63 9600 VRB/03 RMK AO2 LTG DSNT SE T02060133
93073KASE ASE20160721140011907/21/16 14:00:31  5-MIN KASE 212100Z 31003KT 10SM BKN120 21/13 A3050 7310 60 9600 300/03 RMK AO2 LTG DSNT SE T02060128
93073KASE ASE20160721140511807/21/16 14:05:31  5-MIN KASE 212105Z 28004KT 10SM BKN120 20/13 A3050 7310 63 9600 270/04 RMK AO2 LTG DSNT S T02000128
93073KASE ASE20160721141011807/21/16 14:10:31  5-MIN KASE 212110Z 31004KT 10SM BKN120 21/13 A3050 7310 60 9600 300/04 RMK AO2 LTG DSNT S T02060128
93073KASE ASE20160721141511807/21/16 14:15:31  5-MIN KASE 212115Z 30003KT 10SM SCT120 21/13 A3049 7310 60 9600 290/03 RMK AO2 LTG DSNT S T02060128
93073KASE ASE20160721142011807/21/16 14:20:31  5-MIN KASE 212120Z 30003KT 10SM SCT120 21/13 A3049 7320 60 9600 290/03 RMK AO2 LTG DSNT S T02060128
93073KASE ASE20160721142510707/21/16 14:25:31  5-MIN KASE 212125Z 00000KT 10SM FEW120 22/13 A3049 7320 56 9700 000/00 RMK AO2 T02170128
93073KASE ASE20160721143010707/21/16 14:30:31  5-MIN KASE 212130Z VRB03KT 10SM FEW120 22/12 A3048 7320 54 9800 VRB/03 RMK AO2 T02170122
93073KASE ASE20160721143512207/21/16 14:35:31  5-MIN KASE 212135Z 00000KT 10SM CLR 21/12 A3048 7330 54 9700 000/00 RMK AO2 LTG DSNT SE AND S T02110117
93073KASE ASE20160721144012207/21/16 14:40:31  5-MIN KASE 212140Z 00000KT 10SM CLR 22/12 A3048 7330 51 9800 000/00 RMK AO2 LTG DSNT SE AND S T02220117
93073KASE ASE20160721144512207/21/16 14:45:31  5-MIN KASE 212145Z 00000KT 10SM CLR 22/11 A3047 7340 50 9800 000/00 RMK AO2 LTG DSNT SE AND S T02170111
93073KASE ASE20160721145013207/21/16 14:50:31  5-MIN KASE 212150Z VRB03KT 10SM SCT035 22/12 A3047 7340 52 9800 VRB/03 RMK AO2 LTG DSNT SE AND S SLP197 T02170117
93073KASE ASE20160721145512207/21/16 14:55:31  5-MIN KASE 212155Z 33004KT 10SM CLR 22/12 A3047 7340 51 9800 320/04 RMK AO2 LTG DSNT SE AND S T02220117
93073KASE ASE20160721150012507/21/16 15:00:31  5-MIN KASE 212200Z 00000KT 10SM FEW090 22/12 A3047 7340 51 9800 000/00 RMK AO2 LTG DSNT SE AND S T02220117
93073KASE ASE20160721150511807/21/16 15:05:31  5-MIN KASE 212205Z 00000KT 10SM SCT090 23/12 A3047 7340 49 9900 000/00 RMK AO2 LTG DSNT S T02280117
93073KASE ASE20160721151011807/21/16 15:10:31  5-MIN KASE 212210Z 00000KT 10SM SCT090 23/11 A3047 7340 45 9900 000/00 RMK AO2 LTG DSNT S T02280106
93073KASE ASE20160721151511807/21/16 15:15:31  5-MIN KASE 212215Z VRB04KT 10SM SCT090 23/11 A3046 7340 45 9900 VRB/04 RMK AO2 LTG DSNT S T02280106
93073KASE ASE20160721152011907/21/16 15:20:31  5-MIN KASE 212220Z 33006KT 10SM BKN090 24/10 A3046 7340 39 10100 320/06 RMK AO2 LTG DSNT S T02440100
93073KASE ASE20160721152510807/21/16 15:25:31  5-MIN KASE 212225Z 32006KT 10SM BKN085 24/09 A3046 7350 39 10000 310/06 RMK AO2 T02390094
93073KASE ASE20160721153011907/21/16 15:30:31  5-MIN KASE 212230Z VRB04KT 10SM VCTS BKN085 24/09 A3046 7350 38 10000 VRB/04 RMK AO2 TSE26 T02390089
93073KASE ASE20160721153511907/21/16 15:35:31  5-MIN KASE 212235Z 36006KT 10SM VCTS BKN085 24/09 A3046 7350 38 10000 350/06 RMK AO2 TSE26 T02390089
93073KASE ASE20160721154013007/21/16 15:40:31  5-MIN KASE 212240Z 30004KT 10SM VCTS BKN080 24/09 A3046 7340 38 10000 290/04 RMK AO2 LTG DSNT S TSE26 T02390089
93073KASE ASE20160721154513007/21/16 15:45:31  5-MIN KASE 212245Z 33004KT 10SM VCTS BKN080 24/10 A3046 7340 41 10000 320/04 RMK AO2 LTG DSNT S TSE26 T02390100
93073KASE ASE20160721155013707/21/16 15:50:31  5-MIN KASE 212250Z 32006KT 10SM VCTS BKN080 23/10 A3046 7340 42 10000 310/06 RMK AO2 LTG DSNT S TSE26 SLP189 T02330100
93073KASE ASE20160721155513007/21/16 15:55:31  5-MIN KASE 212255Z 30004KT 10SM VCTS BKN080 23/10 A3046 7340 42 10000 290/04 RMK AO2 LTG DSNT E AND S T02330100
93073KASE ASE20160721160013707/21/16 16:00:31  5-MIN KASE 212300Z 00000KT 10SM VCTS BKN080 BKN090 23/11 A3046 7350 44 10000 000/00 RMK AO2 LTG DSNT E AND S T02330106
93073KASE ASE20160721160512607/21/16 16:05:31  5-MIN KASE 212305Z 00000KT 10SM VCTS BKN080 23/10 A3046 7350 42 10000 000/00 RMK AO2 LTG DSNT E-S T02330100
93073KASE ASE20160721161012607/21/16 16:10:31  5-MIN KASE 212310Z 00000KT 10SM VCTS BKN080 23/10 A3046 7340 42 10000 000/00 RMK AO2 LTG DSNT E-S T02330100
93073KASE ASE20160721161513207/21/16 16:15:31  5-MIN KASE 212315Z 00000KT 10SM VCTS BKN075 BKN090 23/10 A3046 7340 44 9900 000/00 RMK AO2 LTG DSNT E-S T02280100
93073KASE ASE20160721162013307/21/16 16:20:31  5-MIN KASE 212320Z 13007KT 10SM VCTS SCT065 BKN080 23/11 A3046 7340 47 9900 120/07 RMK AO2 LTG DSNT NE-S T02280111
93073KASE ASE20160721162513307/21/16 16:25:31  5-MIN KASE 212325Z 14009KT 10SM VCTS BKN065 BKN080 22/11 A3046 7340 49 9800 130/09 RMK AO2 LTG DSNT NE-S T02220111
93073KASE ASE20160721163013307/21/16 16:30:31  5-MIN KASE 212330Z 16010KT 10SM VCTS BKN065 BKN080 22/11 A3047 7340 50 9800 150/10 RMK AO2 LTG DSNT NE-S T02170111
93073KASE ASE20160721163514007/21/16 16:35:31  5-MIN KASE 212335Z 14010KT 10SM VCTS BKN065 BKN080 BKN090 21/12 A3046 7340 58 9700 140/10 RMK AO2 LTG DSNT NE-S T02060122
93073KASE ASE20160721164013307/21/16 16:40:31  5-MIN KASE 212340Z 15010KT 10SM VCTS BKN065 BKN095 20/12 A3046 7340 60 9600 140/10 RMK AO2 LTG DSNT NE-S T02000122
93073KASE ASE20160721164513207/21/16 16:45:31  5-MIN KASE 212345Z 16011G16KT 10SM VCTS BKN065 19/13 A3046 7350 65 9500 150/11G16 RMK AO2 LTG DSNT NE-S T01940128
93073KASE ASE20160721165011807/21/16 16:50:31  5-MIN KASE 212350Z 15008KT 10SM BKN060 BKN075 20/13 A3046 7340 63 9600 140/08 RMK AO2 LTG DSNT NE-S
93073KASE ASE20160721165513907/21/16 16:55:31  5-MIN KASE 212355Z 16009KT 10SM SCT050 BKN060 BKN075 20/13 A3047 7340 63 9600 150/09 RMK AO2 LTG DSNT NE AND S T02000128
93073KASE ASE20160721170013707/21/16 17:00:31  5-MIN KASE 220000Z 12009KT 10SM TS BKN055 BKN065 19/13 A3046 7340 67 9500 110/09 RMK AO2 LTG DSNT NE-S TSB00 T01940133
93073KASE ASE20160721170513707/21/16 17:05:31  5-MIN KASE 220005Z 14007KT 10SM TS BKN055 BKN065 18/14 A3046 7340 75 9400 130/07 RMK AO2 LTG DSNT NE-S TSB00 T01830139
93073KASE ASE20160721171013007/21/16 17:10:31  5-MIN KASE 220010Z 14008KT 10SM TS BKN060 19/13 A3046 7340 70 9500 130/08 RMK AO2 LTG DSNT NE-S TSB00 T01890133
93073KASE ASE20160721171513407/21/16 17:15:31  5-MIN KASE 220015Z 13008KT 10SM VCTS BKN055 19/13 A3046 7350 70 9500 120/08 RMK AO2 LTG DSNT E-S TSB00E15 T01890133
93073KASE ASE20160721172015107/21/16 17:20:31  5-MIN KASE 220020Z 15009KT 10SM TS FEW050 SCT065 SCT110 19/13 A3046 7340 67 9500 140/09 RMK AO2 LTG DSNT ALQDS TSB00E15B18 T01890128
93073KASE ASE20160721172514407/21/16 17:25:31  5-MIN KASE 220025Z 16006KT 10SM TS FEW060 SCT110 19/13 A3046 7340 70 9500 150/06 RMK AO2 LTG DSNT ALQDS TSB00E15B18 T01890133
93073KASE ASE20160721173014407/21/16 17:30:31  5-MIN KASE 220030Z 14007KT 10SM TS SCT060 SCT110 19/13 A3046 7340 70 9500 130/07 RMK AO2 LTG DSNT ALQDS TSB00E15B18 T01890133
93073KASE ASE20160721173515107/21/16 17:35:31  5-MIN KASE 220035Z 14007KT 10SM TS SCT055 BKN065 BKN110 18/13 A3047 7340 72 9400 130/07 RMK AO2 LTG DSNT ALQDS TSB00E15B18 T01830133
93073KASE ASE20160721174015107/21/16 17:40:31  5-MIN KASE 220040Z 13007KT 10SM TS BKN055 BKN080 BKN110 18/13 A3047 7340 72 9400 130/07 RMK AO2 LTG DSNT ALQDS TSB00E15B18 T01830133
93073KASE ASE20160721174516407/21/16 17:45:31  5-MIN KASE 220045Z 13007KT 7SM -TSRA BKN055 BKN075 OVC110 18/14 A3047 7340 78 9300 120/07 RMK AO2 LTG DSNT N-SE RAB42 TSB00E15B18 P0002 T01780139
93073KASE ASE20160721175017107/21/16 17:50:31  5-MIN KASE 220050Z 14006KT 10SM TSRA SCT055 BKN070 OVC085 17/14 A3047 7330 83 9300 130/06 RMK AO2 LTG DSNT N-SE RAB42 TSB00E15B18 SLP211 P0003 T01720144
93073KASE ASE20160721175514607/21/16 17:55:31  5-MIN KASE 220055Z 13007KT 7SM -TSRA SCT055 BKN070 OVC085 18/14 A3047 7330 81 9300 120/07 RMK AO2 LTG DSNT N-SE P0000 T01780144
93073KASE ASE20160721180014707/21/16 18:00:31  5-MIN KASE 220100Z 15006KT 10SM -TSRA SCT055 BKN075 OVC085 18/14 A3048 7330 81 9300 140/06 RMK AO2 LTG DSNT N-SE P0000 T01780144
93073KASE ASE20160721180515007/21/16 18:05:31  5-MIN KASE 220105Z 14006KT 10SM TS BKN050 BKN075 OVC085 18/14 A3048 7330 81 9300 130/06 RMK AO2 LTG DSNT N-SE RAE01 P0000 T01780144
93073KASE ASE20160721181014007/21/16 18:10:31  5-MIN KASE 220110Z 10004KT 10SM -TSRA BKN050 OVC075 18/15 A3048 7330 83 9300 090/04 RMK AO2 LTG DSNT N-SE P0002 T01780150
93073KASE ASE20160721181515007/21/16 18:15:31  5-MIN KASE 220115Z 02005KT 5SM +TSRA BR BKN048 BKN060 OVC075 17/14 A3048 7320 86 9200 010/05 RMK AO2 LTG DSNT ALQDS P0007 T01670144
93073KASE ASE20160721182014907/21/16 18:20:31  5-MIN KASE 220120Z 36006KT 6SM -TSRA BR BKN050 BKN060 OVC075 17/14 A3049 7320 86 9200 350/06 RMK AO2 LTG DSNT NE-S P0008 T01670144
93073KASE ASE20160721182513307/21/16 18:25:31  5-MIN KASE 220125Z 32004KT 10SM -TSRA OVC050 17/14 A3049 7320 86 9200 310/04 RMK AO2 LTG DSNT NE-S P0008 T01670144
93073KASE ASE20160721183013707/21/16 18:30:31  5-MIN KASE 220130Z 00000KT 10SM TS OVC050 17/14 A3049 7320 83 9300 000/00 RMK AO2 LTG DSNT ALQDS RAE30 P0008 T01720144
93073KASE ASE20160721183514507/21/16 18:35:31  5-MIN KASE 220135Z 28003KT 10SM VCTS OVC050 18/13 A3049 7310 75 9300 270/03 RMK AO2 LTG DSNT ALQDS RAE30 TSE33 P0008 T01780133
93073KASE ASE20160721184014507/21/16 18:40:31  5-MIN KASE 220140Z 00000KT 10SM VCTS OVC050 18/14 A3050 7310 78 9300 000/00 RMK AO2 LTG DSNT ALQDS RAE30 TSE33 P0008 T01780139
93073KASE ASE20160721184515107/21/16 18:45:31  5-MIN KASE 220145Z 00000KT 9SM VCTS -RA OVC049 17/14 A3050 7310 80 9300 000/00 RMK AO2 LTG DSNT ALQDS RAE30B42 TSE33 P0008 T01720139
93073KASE ASE20160721185014307/21/16 18:50:31  5-MIN KASE 220150Z 00000KT 5SM TSRA BR OVC049 17/14 A3050 7310 86 9200 000/00 RMK AO2 LTG DSNT ALQDS RAE30B42 TSE33B48 P0012
93073KASE ASE20160721185514507/21/16 18:55:31  5-MIN KASE 220155Z 21003KT 5SM -TSRA BR OVC049 17/15 A3050 7310 90 9200 200/03 RMK AO2 LTG DSNT NE AND S AND W P0000 T01670150
93073KASE ASE20160721190014907/21/16 19:00:31  5-MIN KASE 220200Z 00000KT 9SM -TSRA BKN050 OVC060 17/14 A3050 7310 86 9200 000/00 RMK AO2 LTG DSNT NE AND S AND W P0000 T01670144
93073KASE ASE20160721190515407/21/16 19:05:31  5-MIN KASE 220205Z 00000KT 10SM VCTS BKN050 OVC060 17/14 A3050 7310 83 9300 000/00 RMK AO2 LTG DSNT S AND W RAE04 TSE03 P0000 T01720144
93073KASE ASE20160721191013007/21/16 19:10:31  5-MIN KASE 220210Z 00000KT 10SM VCTS OVC055 17/14 A3050 7310 83 9300 000/00 RMK AO2 RAE04 TSE03 P0000 T01720144
93073KASE ASE20160721191513707/21/16 19:15:31  5-MIN KASE 220215Z 00000KT 10SM VCTS BKN060 OVC110 17/15 A3050 7310 90 9200 000/00 RMK AO2 RAE04 TSE03 P0000 T01670150
93073KASE ASE20160721192013207/21/16 19:20:31  5-MIN KASE 220220Z 00000KT 10SM BKN060 OVC110 16/14 A3050 7310 90 9100 000/00 RMK AO2 RAE04 TSE03 P0000 T01610144
93073KASE ASE20160721192513907/21/16 19:25:31  5-MIN KASE 220225Z 00000KT 10SM SCT060 BKN100 OVC120 17/15 A3050 7310 90 9200 000/00 RMK AO2 RAE04 TSE03 P0000 T01670150
93073KASE ASE20160721193013207/21/16 19:30:31  5-MIN KASE 220230Z 00000KT 10SM FEW060 OVC110 17/15 A3050 7310 90 9200 000/00 RMK AO2 RAE04 TSE03 P0000 T01670150
93073KASE ASE20160721193513207/21/16 19:35:31  5-MIN KASE 220235Z 00000KT 10SM FEW060 BKN110 16/15 A3050 7310 93 9100 000/00 RMK AO2 RAE04 TSE03 P0000 T01610150
93073KASE ASE20160721194014307/21/16 19:40:31  5-MIN KASE 220240Z 00000KT 10SM BKN110 16/14 A3051 7300 90 9100 000/00 RMK AO2 LTG DSNT SW AND W RAE04 TSE03 P0000 T01610144
93073KASE ASE20160721194514307/21/16 19:45:31  5-MIN KASE 220245Z 00000KT 10SM BKN100 16/14 A3051 7300 93 9100 000/00 RMK AO2 LTG DSNT SW AND W RAE04 TSE03 P0000 T01560144
93073KASE ASE20160721195015807/21/16 19:50:31  5-MIN KASE 220250Z 00000KT 10SM SCT100 15/14 A3051 7300 96 9000 000/00 RMK AO2 LTG DSNT SE-W RAE04 TSE03 SLP220 P0000 60015 T01500144 55010
93073KASE ASE20160721195512107/21/16 19:55:31  5-MIN KASE 220255Z 15003KT 10SM FEW110 16/14 A3051 7300 93 9100 140/03 RMK AO2 LTG DSNT SE-W T01560144
93073KASE ASE20160721200012107/21/16 20:00:31  5-MIN KASE 220300Z 16003KT 10SM FEW110 16/14 A3051 7300 90 9100 150/03 RMK AO2 LTG DSNT SE-W T01610144
93073KASE ASE20160721200511507/21/16 20:05:31  5-MIN KASE 220305Z 16005KT 10SM CLR 16/14 A3051 7300 90 9100 150/05 RMK AO2 LTG DSNT W T01610144
93073KASE ASE20160721201011607/21/16 20:10:31  5-MIN KASE 220310Z 20004KT 10SM CLR 16/14 A3051 7300 93 9100 190/04 RMK AO2 LTG DSNT SW T01560144
93073KASE ASE20160721201511607/21/16 20:15:31  5-MIN KASE 220315Z 20004KT 10SM CLR 16/14 A3051 7300 93 9100 190/04 RMK AO2 LTG DSNT SW T01560144
93073KASE ASE20160721202012307/21/16 20:20:31  5-MIN KASE 220320Z 20006KT 10SM CLR 16/14 A3051 7300 90 9100 190/06 RMK AO2 LTG DSNT SE AND SW T01560139
93073KASE ASE20160721202511807/21/16 20:25:31  5-MIN KASE 220325Z 20006KT 10SM CLR 16/14 A3051 7300 90 9100 190/06 RMK AO2 LTG DSNT E-SW T01560139
93073KASE ASE20160721203011807/21/16 20:30:31  5-MIN KASE 220330Z 18005KT 10SM CLR 16/14 A3051 7300 90 9000 170/05 RMK AO2 LTG DSNT E-SW T01560139
93073KASE ASE20160721203511807/21/16 20:35:31  5-MIN KASE 220335Z 21004KT 10SM CLR 15/14 A3051 7300 93 9000 200/04 RMK AO2 LTG DSNT E-SW T01500139
93073KASE ASE20160721204012307/21/16 20:40:31  5-MIN KASE 220340Z 21005KT 10SM CLR 14/14 A3051 7300 96 8900 210/05 RMK AO2 LTG DSNT SE AND SW T01440139
93073KASE ASE20160721204510407/21/16 20:45:31  5-MIN KASE 220345Z 22005KT 10SM CLR 14/13 A3051 7300 93 8900 210/05 RMK AO2 T01440133
93073KASE ASE20160721205011107/21/16 20:50:31  5-MIN KASE 220350Z 20005KT 10SM CLR 14/13 A3051 7300 93 8900 190/05 RMK AO2 SLP216 T01440133
93073KASE ASE20160721205510407/21/16 20:55:31  5-MIN KASE 220355Z 20005KT 10SM CLR 15/13 A3051 7300 90 9000 200/05 RMK AO2 T01500133
93073KASE ASE20160721210010407/21/16 21:00:31  5-MIN KASE 220400Z 21004KT 10SM CLR 15/13 A3051 7300 90 9000 200/04 RMK AO2 T01500133
93073KASE ASE20160721210510407/21/16 21:05:31  5-MIN KASE 220405Z 22005KT 10SM CLR 15/13 A3052 7300 90 9000 210/05 RMK AO2 T01500133
93073KASE ASE20160721211010407/21/16 21:10:31  5-MIN KASE 220410Z 21004KT 10SM CLR 14/13 A3052 7290 93 8900 200/04 RMK AO2 T01440133
93073KASE ASE20160721211510407/21/16 21:15:31  5-MIN KASE 220415Z 18005KT 10SM CLR 14/13 A3051 7300 93 8900 170/05 RMK AO2 T01440133
93073KASE ASE20160721212010707/21/16 21:20:31  5-MIN KASE 220420Z 23005KT 10SM FEW120 14/13 A3051 7300 93 8900 220/05 RMK AO2 T01440133
93073KASE ASE20160721212510707/21/16 21:25:31  5-MIN KASE 220425Z 19004KT 10SM SCT120 15/13 A3051 7300 86 9000 180/04 RMK AO2 T01500128
93073KASE ASE20160721213010707/21/16 21:30:31  5-MIN KASE 220430Z 00000KT 10SM FEW120 14/13 A3051 7300 93 8900 000/00 RMK AO2 T01440133
93073KASE ASE20160721213510707/21/16 21:35:31  5-MIN KASE 220435Z 00000KT 10SM FEW120 14/13 A3051 7300 90 8900 000/00 RMK AO2 T01440128
93073KASE ASE20160721214010707/21/16 21:40:31  5-MIN KASE 220440Z 00000KT 10SM SCT110 14/13 A3051 7300 90 8900 000/00 RMK AO2 T01440128
93073KASE ASE20160721214510707/21/16 21:45:31  5-MIN KASE 220445Z 24003KT 10SM BKN110 14/13 A3051 7300 90 8900 230/03 RMK AO2 T01440128
93073KASE ASE20160721215012807/21/16 21:50:31  5-MIN KASE 220450Z 20005KT 10SM FEW070 SCT100 BKN120 14/13 A3050 7310 90 8900 190/05 RMK AO2 SLP204 T01440128
93073KASE ASE20160721215512107/21/16 21:55:31  5-MIN KASE 220455Z 18005KT 10SM FEW070 SCT090 SCT110 15/13 A3050 7310 86 9000 170/05 RMK AO2 T01500128
93073KASE ASE20160721220010707/21/16 22:00:31  5-MIN KASE 220500Z 18004KT 10SM FEW100 15/13 A3050 7310 86 9000 180/04 RMK AO2 T01500128
93073KASE ASE20160721220510707/21/16 22:05:31  5-MIN KASE 220505Z 17004KT 10SM FEW100 15/13 A3050 7310 86 9000 160/04 RMK AO2 T01500128
93073KASE ASE20160721221010707/21/16 22:10:31  5-MIN KASE 220510Z 19005KT 10SM FEW100 15/13 A3049 7310 86 9000 180/05 RMK AO2 T01500128
93073KASE ASE20160721221510407/21/16 22:15:31  5-MIN KASE 220515Z 21005KT 10SM CLR 14/13 A3049 7320 90 9000 200/05 RMK AO2 T01440128
93073KASE ASE20160721222010407/21/16 22:20:31  5-MIN KASE 220520Z 20005KT 10SM CLR 14/12 A3049 7320 86 9000 190/05 RMK AO2 T01440122
93073KASE ASE20160721222510407/21/16 22:25:31  5-MIN KASE 220525Z 20003KT 10SM CLR 14/12 A3049 7320 90 8900 190/03 RMK AO2 T01390122
93073KASE ASE20160721223010407/21/16 22:30:31  5-MIN KASE 220530Z 19004KT 10SM CLR 14/12 A3048 7320 86 9000 180/04 RMK AO2 T01440122
93073KASE ASE20160721223510407/21/16 22:35:31  5-MIN KASE 220535Z VRB05KT 10SM CLR 14/12 A3048 7320 86 9000 VRB/05 RMK AO2 T01440122
93073KASE ASE20160721224010707/21/16 22:40:31  5-MIN KASE 220540Z 23006KT 10SM FEW110 14/12 A3048 7320 86 9000 230/06 RMK AO2 T01440122
93073KASE ASE20160721224510707/21/16 22:45:31  5-MIN KASE 220545Z 20005KT 10SM FEW110 14/12 A3048 7320 86 9000 190/05 RMK AO2 T01440122
93073KASE ASE20160721225013807/21/16 22:50:31  5-MIN KASE 220550Z 19005KT 10SM FEW120 14/12 A3048 7330 86 9000 180/05 RMK AO2 SLP195 60015 T01440122 10200 20139 53012
93073KASE ASE20160721225510707/21/16 22:55:31  5-MIN KASE 220555Z 19007KT 10SM FEW110 14/12 A3048 7330 86 9000 180/07 RMK AO2 T01440122
93073KASE ASE20160721230010707/21/16 23:00:31  5-MIN KASE 220600Z 16007KT 10SM FEW110 14/12 A3048 7330 83 9000 150/07 RMK AO2 T01440117
93073KASE ASE20160721230510707/21/16 23:05:31  5-MIN KASE 220605Z 18006KT 10SM FEW110 14/12 A3048 7330 83 9000 180/06 RMK AO2 T01440117
93073KASE ASE20160721231010407/21/16 23:10:31  5-MIN KASE 220610Z 19007KT 10SM CLR 14/12 A3048 7330 83 9000 180/07 RMK AO2 T01440117
93073KASE ASE20160721231510407/21/16 23:15:31  5-MIN KASE 220615Z VRB05KT 10SM CLR 14/12 A3048 7330 83 9000 VRB/05 RMK AO2 T01440117
93073KASE ASE20160721232010407/21/16 23:20:31  5-MIN KASE 220620Z VRB04KT 10SM CLR 14/12 A3048 7330 83 9000 VRB/04 RMK AO2 T01440117
93073KASE ASE20160721232510407/21/16 23:25:31  5-MIN KASE 220625Z 22004KT 10SM CLR 14/12 A3048 7330 86 8900 210/04 RMK AO2 T01390117
93073KASE ASE20160721233010407/21/16 23:30:31  5-MIN KASE 220630Z 00000KT 10SM CLR 13/12 A3048 7330 93 8800 000/00 RMK AO2 T01280117
93073KASE ASE20160721233510407/21/16 23:35:31  5-MIN KASE 220635Z 17003KT 10SM CLR 14/12 A3048 7330 86 8900 160/03 RMK AO2 T01390117
93073KASE ASE20160721234010407/21/16 23:40:31  5-MIN KASE 220640Z 00000KT 10SM CLR 14/12 A3048 7330 86 8900 000/00 RMK AO2 T01390117
93073KASE ASE20160721234510407/21/16 23:45:31  5-MIN KASE 220645Z 00000KT 10SM CLR 13/12 A3048 7330 93 8800 000/00 RMK AO2 T01280117
93073KASE ASE20160721235012107/21/16 23:50:31  5-MIN KASE 220650Z 00000KT 10SM CLR 13/11 A3047 7330 89 8800 000/00 RMK AO2 SLP209 T01280111 402440111
93073KASE ASE20160721235510407/21/16 23:55:31  5-MIN KASE 220655Z 22004KT 10SM CLR 13/12 A3047 7330 89 8800 210/04 RMK AO2 T01330117
93073KASE ASE20160722000010407/22/16 00:00:31  5-MIN KASE 220700Z 21005KT 10SM CLR 12/11 A3047 7340 93 8700 200/05 RMK AO2 T01220111
93073KASE ASE20160722000510407/22/16 00:05:31  5-MIN KASE 220705Z 22006KT 10SM CLR 13/12 A3047 7330 89 8800 210/06 RMK AO2 T01330117
93073KASE ASE20160722001010407/22/16 00:10:31  5-MIN KASE 220710Z VRB03KT 10SM CLR 13/11 A3047 7340 86 8900 VRB/03 RMK AO2 T01330111
93073KASE ASE20160722001510407/22/16 00:15:31  5-MIN KASE 220715Z 35003KT 10SM CLR 13/11 A3047 7340 89 8800 340/03 RMK AO2 T01280111
93073KASE ASE20160722002010407/22/16 00:20:31  5-MIN KASE 220720Z 34004KT 10SM CLR 12/11 A3047 7340 93 8700 330/04 RMK AO2 T01220111
93073KASE ASE20160722002510407/22/16 00:25:31  5-MIN KASE 220725Z 00000KT 10SM CLR 12/12 A3047 7340 96 8700 000/00 RMK AO2 T01220117
93073KASE ASE20160722003010407/22/16 00:30:31  5-MIN KASE 220730Z 00000KT 10SM CLR 12/12 A3047 7340 96 8700 000/00 RMK AO2 T01220117
93073KASE ASE20160722003510407/22/16 00:35:31  5-MIN KASE 220735Z 00000KT 10SM CLR 12/12 A3047 7340 96 8700 000/00 RMK AO2 T01220117
93073KASE ASE20160722004010407/22/16 00:40:31  5-MIN KASE 220740Z 23004KT 10SM CLR 12/12 A3047 7330 96 8700 220/04 RMK AO2 T01220117
93073KASE ASE20160722004510407/22/16 00:45:31  5-MIN KASE 220745Z 00000KT 10SM CLR 13/12 A3047 7330 93 8800 000/00 RMK AO2 T01280117
93073KASE ASE20160722005011107/22/16 00:50:31  5-MIN KASE 220750Z 00000KT 10SM CLR 13/12 A3047 7330 93 8800 000/00 RMK AO2 SLP211 T01280117
93073KASE ASE20160722005510407/22/16 00:55:31  5-MIN KASE 220755Z 00000KT 10SM CLR 12/11 A3047 7330 93 8700 000/00 RMK AO2 T01220111
93073KASE ASE20160722010010407/22/16 01:00:31  5-MIN KASE 220800Z 00000KT 10SM CLR 12/11 A3047 7330 93 8700 000/00 RMK AO2 T01220111
93073KASE ASE20160722010510407/22/16 01:05:31  5-MIN KASE 220805Z 00000KT 10SM CLR 12/11 A3048 7330 93 8700 000/00 RMK AO2 T01220111
93073KASE ASE20160722011010407/22/16 01:10:31  5-MIN KASE 220810Z 00000KT 10SM CLR 12/11 A3047 7330 93 8700 000/00 RMK AO2 T01170106
93073KASE ASE20160722011510407/22/16 01:15:31  5-MIN KASE 220815Z 22003KT 10SM CLR 11/11 A3047 7330 96 8600 210/03 RMK AO2 T01110106
93073KASE ASE20160722012010407/22/16 01:20:31  5-MIN KASE 220820Z 22003KT 10SM CLR 11/10 A3047 7330 93 8600 220/03 RMK AO2 T01110100
93073KASE ASE20160722012510407/22/16 01:25:31  5-MIN KASE 220825Z 00000KT 10SM CLR 12/11 A3047 7330 93 8700 000/00 RMK AO2 T01170106
93073KASE ASE20160722013010407/22/16 01:30:31  5-MIN KASE 220830Z 00000KT 10SM CLR 11/10 A3047 7330 93 8600 000/00 RMK AO2 T01110100
93073KASE ASE20160722013510407/22/16 01:35:31  5-MIN KASE 220835Z 17004KT 10SM CLR 12/11 A3047 7340 93 8700 160/04 RMK AO2 T01170106
93073KASE ASE20160722014010407/22/16 01:40:31  5-MIN KASE 220840Z 18005KT 10SM CLR 11/11 A3047 7330 96 8600 170/05 RMK AO2 T01110106
93073KASE ASE20160722014510407/22/16 01:45:31  5-MIN KASE 220845Z 19005KT 10SM CLR 12/11 A3048 7330 93 8700 180/05 RMK AO2 T01170106
93073KASE ASE20160722015011707/22/16 01:50:31  5-MIN KASE 220850Z 20003KT 10SM CLR 12/11 A3047 7330 93 8700 190/03 RMK AO2 SLP206 T01170106 58007
93073KASE ASE20160722015510407/22/16 01:55:31  5-MIN KASE 220855Z 00000KT 10SM CLR 12/11 A3047 7330 89 8700 000/00 RMK AO2 T01220106
93073KASE ASE20160722020010407/22/16 02:00:31  5-MIN KASE 220900Z 19003KT 10SM CLR 12/11 A3047 7330 93 8700 180/03 RMK AO2 T01170106
93073KASE ASE20160722020510407/22/16 02:05:31  5-MIN KASE 220905Z 20004KT 10SM CLR 12/11 A3047 7330 93 8700 190/04 RMK AO2 T01170106
93073KASE ASE20160722021010407/22/16 02:10:31  5-MIN KASE 220910Z 20003KT 10SM CLR 11/10 A3047 7340 93 8600 190/03 RMK AO2 T01110100
93073KASE ASE20160722021510407/22/16 02:15:31  5-MIN KASE 220915Z 18004KT 10SM CLR 12/10 A3047 7340 89 8700 170/04 RMK AO2 T01170100
93073KASE ASE20160722022010407/22/16 02:20:31  5-MIN KASE 220920Z 22005KT 10SM CLR 11/10 A3047 7340 93 8600 210/05 RMK AO2 T01110100
93073KASE ASE20160722022510407/22/16 02:25:31  5-MIN KASE 220925Z 19005KT 10SM CLR 11/10 A3047 7340 93 8600 180/05 RMK AO2 T01110100
93073KASE ASE20160722023010407/22/16 02:30:31  5-MIN KASE 220930Z 17004KT 10SM CLR 11/10 A3047 7340 93 8600 160/04 RMK AO2 T01110100
93073KASE ASE20160722023510407/22/16 02:35:31  5-MIN KASE 220935Z 18004KT 10SM CLR 11/10 A3047 7340 93 8600 170/04 RMK AO2 T01110100
93073KASE ASE20160722024010407/22/16 02:40:31  5-MIN KASE 220940Z 14003KT 10SM CLR 12/10 A3047 7340 89 8700 130/03 RMK AO2 T01170100
93073KASE ASE20160722024510407/22/16 02:45:31  5-MIN KASE 220945Z 19005KT 10SM CLR 11/10 A3046 7340 93 8600 180/05 RMK AO2 T01110100
93073KASE ASE20160722025011107/22/16 02:50:31  5-MIN KASE 220950Z 19003KT 10SM CLR 11/10 A3047 7340 96 8500 180/03 RMK AO2 SLP203 T01060100
93073KASE ASE20160722025510407/22/16 02:55:31  5-MIN KASE 220955Z 20003KT 10SM CLR 11/09 A3046 7340 93 8500 190/03 RMK AO2 T01060094
93073KASE ASE20160722030010407/22/16 03:00:31  5-MIN KASE 221000Z 14004KT 10SM CLR 11/10 A3046 7340 93 8600 130/04 RMK AO2 T01110100
93073KASE ASE20160722030510407/22/16 03:05:31  5-MIN KASE 221005Z 00000KT 10SM CLR 11/09 A3046 7340 93 8500 000/00 RMK AO2 T01060094
93073KASE ASE20160722031010407/22/16 03:10:31  5-MIN KASE 221010Z 00000KT 10SM CLR 11/09 A3046 7340 93 8500 000/00 RMK AO2 T01060094
93073KASE ASE20160722031510407/22/16 03:15:31  5-MIN KASE 221015Z 00000KT 10SM CLR 11/09 A3046 7340 93 8500 000/00 RMK AO2 T01060094
93073KASE ASE20160722032010407/22/16 03:20:31  5-MIN KASE 221020Z 00000KT 10SM CLR 11/09 A3046 7340 93 8500 000/00 RMK AO2 T01060094
93073KASE ASE20160722032510407/22/16 03:25:31  5-MIN KASE 221025Z 18003KT 10SM CLR 11/09 A3046 7340 93 8500 170/03 RMK AO2 T01060094
93073KASE ASE20160722033010407/22/16 03:30:31  5-MIN KASE 221030Z 00000KT 10SM CLR 10/09 A3046 7340 93 8500 000/00 RMK AO2 T01000089
93073KASE ASE20160722033510407/22/16 03:35:31  5-MIN KASE 221035Z 00000KT 10SM CLR 09/09 A3046 7340 96 8400 000/00 RMK AO2 T00940089
93073KASE ASE20160722034010407/22/16 03:40:31  5-MIN KASE 221040Z 00000KT 10SM CLR 10/09 A3046 7340 93 8500 000/00 RMK AO2 T01000089
93073KASE ASE20160722034510407/22/16 03:45:31  5-MIN KASE 221045Z 00000KT 10SM CLR 10/09 A3046 7340 93 8500 000/00 RMK AO2 T01000089
93073KASE ASE20160722035011107/22/16 03:50:31  5-MIN KASE 221050Z 00000KT 10SM CLR 09/09 A3046 7340 96 8400 000/00 RMK AO2 SLP199 T00940089
93073KASE ASE20160722035510407/22/16 03:55:31  5-MIN KASE 221055Z 17003KT 10SM CLR 10/09 A3046 7340 93 8500 160/03 RMK AO2 T01000089
93073KASE ASE20160722040010407/22/16 04:00:31  5-MIN KASE 221100Z 22003KT 10SM CLR 09/09 A3047 7340 96 8400 210/03 RMK AO2 T00940089
93073KASE ASE20160722040510407/22/16 04:05:31  5-MIN KASE 221105Z 22004KT 10SM CLR 09/08 A3047 7340 96 8400 210/04 RMK AO2 T00890083
93073KASE ASE20160722041010407/22/16 04:10:31  5-MIN KASE 221110Z 19003KT 10SM CLR 09/08 A3047 7340 93 8400 180/03 RMK AO2 T00940083
93073KASE ASE20160722041510407/22/16 04:15:31  5-MIN KASE 221115Z 18004KT 10SM CLR 10/09 A3047 7340 93 8500 170/04 RMK AO2 T01000089
93073KASE ASE20160722042010407/22/16 04:20:31  5-MIN KASE 221120Z 18004KT 10SM CLR 10/09 A3047 7340 93 8500 170/04 RMK AO2 T01000089
93073KASE ASE20160722042510407/22/16 04:25:31  5-MIN KASE 221125Z 18004KT 10SM CLR 10/09 A3047 7330 93 8500 170/04 RMK AO2 T01000089
93073KASE ASE20160722043010407/22/16 04:30:31  5-MIN KASE 221130Z 19006KT 10SM CLR 10/09 A3047 7330 93 8500 180/06 RMK AO2 T01000089
93073KASE ASE20160722043510407/22/16 04:35:31  5-MIN KASE 221135Z 17005KT 10SM CLR 10/09 A3048 7330 93 8500 170/05 RMK AO2 T01000089
93073KASE ASE20160722044010407/22/16 04:40:31  5-MIN KASE 221140Z 18005KT 10SM CLR 10/09 A3048 7330 93 8500 170/05 RMK AO2 T01000089
93073KASE ASE20160722044510407/22/16 04:45:31  5-MIN KASE 221145Z 19005KT 10SM CLR 11/09 A3048 7330 89 8500 180/05 RMK AO2 T01060089
93073KASE ASE20160722045013507/22/16 04:50:31  5-MIN KASE 221150Z 20003KT 10SM CLR 11/09 A3048 7330 89 8500 190/03 RMK AO2 SLP212 70022 T01060089 10144 20089 56003
93073KASE ASE20160722045510407/22/16 04:55:31  5-MIN KASE 221155Z 11004KT 10SM CLR 10/09 A3048 7320 93 8500 100/04 RMK AO2 T01000089
93073KASE ASE20160722050010407/22/16 05:00:31  5-MIN KASE 221200Z 13005KT 10SM CLR 10/09 A3049 7320 93 8500 120/05 RMK AO2 T01000089
93073KASE ASE20160722050510407/22/16 05:05:31  5-MIN KASE 221205Z 17005KT 10SM CLR 10/09 A3048 7320 93 8500 160/05 RMK AO2 T01000089
93073KASE ASE20160722051010407/22/16 05:10:31  5-MIN KASE 221210Z 20004KT 10SM CLR 09/09 A3049 7320 96 8400 200/04 RMK AO2 T00940089
93073KASE ASE20160722051510407/22/16 05:15:31  5-MIN KASE 221215Z 18004KT 10SM CLR 09/09 A3049 7320 96 8400 170/04 RMK AO2 T00940089
93073KASE ASE20160722052010407/22/16 05:20:31  5-MIN KASE 221220Z 18004KT 10SM CLR 10/09 A3049 7320 93 8500 170/04 RMK AO2 T01000089
93073KASE ASE20160722052510407/22/16 05:25:31  5-MIN KASE 221225Z 16004KT 10SM CLR 10/09 A3049 7320 93 8500 150/04 RMK AO2 T01000089
93073KASE ASE20160722053010407/22/16 05:30:31  5-MIN KASE 221230Z 17004KT 10SM CLR 10/09 A3049 7320 93 8500 160/04 RMK AO2 T01000089
93073KASE ASE20160722053510407/22/16 05:35:31  5-MIN KASE 221235Z 18004KT 10SM CLR 10/09 A3049 7320 93 8500 170/04 RMK AO2 T01000089
93073KASE ASE20160722054010407/22/16 05:40:31  5-MIN KASE 221240Z 18005KT 10SM CLR 10/09 A3049 7320 93 8500 170/05 RMK AO2 T01000089
93073KASE ASE20160722054510407/22/16 05:45:31  5-MIN KASE 221245Z 17005KT 10SM CLR 10/09 A3050 7310 93 8400 160/05 RMK AO2 T01000089
93073KASE ASE20160722055011107/22/16 05:50:31  5-MIN KASE 221250Z 14004KT 10SM CLR 11/09 A3050 7310 89 8500 130/04 RMK AO2 SLP225 T01060089
93073KASE ASE20160722055510407/22/16 05:55:31  5-MIN KASE 221255Z 17005KT 10SM CLR 11/09 A3050 7310 89 8500 160/05 RMK AO2 T01060089
93073KASE ASE20160722060010407/22/16 06:00:31  5-MIN KASE 221300Z VRB03KT 10SM CLR 11/09 A3050 7310 89 8600 VRB/03 RMK AO2 T01110094
93073KASE ASE20160722060510407/22/16 06:05:31  5-MIN KASE 221305Z 14003KT 10SM CLR 11/09 A3050 7310 93 8500 130/03 RMK AO2 T01060094
93073KASE ASE20160722061010407/22/16 06:10:31  5-MIN KASE 221310Z 12005KT 10SM CLR 11/09 A3050 7310 89 8600 110/05 RMK AO2 T01110094
93073KASE ASE20160722061510407/22/16 06:15:31  5-MIN KASE 221315Z 12005KT 10SM CLR 11/09 A3050 7310 93 8500 110/05 RMK AO2 T01060094
93073KASE ASE20160722062010407/22/16 06:20:31  5-MIN KASE 221320Z 12005KT 10SM CLR 11/09 A3050 7310 89 8600 110/05 RMK AO2 T01110094
93073KASE ASE20160722062510407/22/16 06:25:31  5-MIN KASE 221325Z 00000KT 10SM CLR 11/09 A3050 7310 89 8600 000/00 RMK AO2 T01110094
93073KASE ASE20160722063010407/22/16 06:30:31  5-MIN KASE 221330Z 00000KT 10SM CLR 12/10 A3050 7310 86 8700 000/00 RMK AO2 T01220100
93073KASE ASE20160722063510407/22/16 06:35:31  5-MIN KASE 221335Z 15003KT 10SM CLR 12/10 A3050 7310 86 8700 140/03 RMK AO2 T01220100
93073KASE ASE20160722064010407/22/16 06:40:31  5-MIN KASE 221340Z 14003KT 10SM CLR 12/10 A3050 7310 86 8700 130/03 RMK AO2 T01220100
93073KASE ASE20160722064510407/22/16 06:45:31  5-MIN KASE 221345Z 14004KT 10SM CLR 13/10 A3050 7310 83 8800 130/04 RMK AO2 T01280100
93073KASE ASE20160722065011107/22/16 06:50:31  5-MIN KASE 221350Z 17004KT 10SM CLR 13/10 A3050 7310 83 8800 160/04 RMK AO2 SLP221 T01280100
93073KASE ASE20160722065510407/22/16 06:55:31  5-MIN KASE 221355Z 14004KT 10SM CLR 13/10 A3050 7310 80 8800 130/04 RMK AO2 T01330100
93073KASE ASE20160722070010407/22/16 07:00:31  5-MIN KASE 221400Z 14004KT 10SM CLR 14/10 A3050 7310 77 8900 130/04 RMK AO2 T01390100
93073KASE ASE20160722070510407/22/16 07:05:31  5-MIN KASE 221405Z 18004KT 10SM CLR 14/10 A3050 7310 77 8900 170/04 RMK AO2 T01390100
93073KASE ASE20160722071010407/22/16 07:10:31  5-MIN KASE 221410Z 17004KT 10SM CLR 14/10 A3050 7310 77 8900 160/04 RMK AO2 T01390100
93073KASE ASE20160722071510407/22/16 07:15:31  5-MIN KASE 221415Z 17003KT 10SM CLR 14/10 A3050 7310 74 8900 160/03 RMK AO2 T01440100
93073KASE ASE20160722072010407/22/16 07:20:31  5-MIN KASE 221420Z 19003KT 10SM CLR 14/11 A3050 7310 77 8900 180/03 RMK AO2 T01440106
93073KASE ASE20160722072510407/22/16 07:25:31  5-MIN KASE 221425Z 00000KT 10SM CLR 15/11 A3050 7310 74 9000 000/00 RMK AO2 T01500106
93073KASE ASE20160722073010407/22/16 07:30:31  5-MIN KASE 221430Z 00000KT 10SM CLR 15/11 A3050 7310 77 9000 000/00 RMK AO2 T01500111
93073KASE ASE20160722073510407/22/16 07:35:31  5-MIN KASE 221435Z 00000KT 10SM CLR 16/11 A3050 7310 74 9100 000/00 RMK AO2 T01560111
93073KASE ASE20160722074010407/22/16 07:40:31  5-MIN KASE 221440Z 13003KT 10SM CLR 16/11 A3050 7310 72 9100 120/03 RMK AO2 T01560106
93073KASE ASE20160722074510407/22/16 07:45:31  5-MIN KASE 221445Z 00000KT 10SM CLR 16/11 A3050 7310 69 9100 000/00 RMK AO2 T01610106
93073KASE ASE20160722075011707/22/16 07:50:31  5-MIN KASE 221450Z 00000KT 10SM CLR 16/10 A3050 7310 67 9100 000/00 RMK AO2 SLP217 T01610100 53003
93073KASE ASE20160722075510407/22/16 07:55:31  5-MIN KASE 221455Z 00000KT 10SM CLR 17/11 A3050 7310 67 9200 000/00 RMK AO2 T01670106
93073KASE ASE20160722080010407/22/16 08:00:31  5-MIN KASE 221500Z 00000KT 10SM CLR 17/11 A3050 7310 67 9200 000/00 RMK AO2 T01670106
93073KASE ASE20160722080510407/22/16 08:05:31  5-MIN KASE 221505Z 00000KT 10SM CLR 17/11 A3050 7310 64 9200 000/00 RMK AO2 T01720106
93073KASE ASE20160722081010407/22/16 08:10:31  5-MIN KASE 221510Z 00000KT 10SM CLR 18/11 A3050 7310 62 9300 000/00 RMK AO2 T01780106
93073KASE ASE20160722081510407/22/16 08:15:31  5-MIN KASE 221515Z 00000KT 10SM CLR 18/11 A3050 7310 62 9300 000/00 RMK AO2 T01780106
93073KASE ASE20160722082010407/22/16 08:20:31  5-MIN KASE 221520Z 23003KT 10SM CLR 18/11 A3050 7310 64 9300 220/03 RMK AO2 T01780111
93073KASE ASE20160722082510407/22/16 08:25:31  5-MIN KASE 221525Z 00000KT 10SM CLR 18/11 A3050 7310 60 9400 000/00 RMK AO2 T01830106
93073KASE ASE20160722083010407/22/16 08:30:31  5-MIN KASE 221530Z 00000KT 10SM CLR 19/11 A3050 7310 58 9400 000/00 RMK AO2 T01890106
93073KASE ASE20160722083510407/22/16 08:35:31  5-MIN KASE 221535Z 00000KT 10SM CLR 19/11 A3050 7310 58 9400 000/00 RMK AO2 T01890106
93073KASE ASE20160722084010407/22/16 08:40:31  5-MIN KASE 221540Z 00000KT 10SM CLR 19/11 A3050 7310 56 9500 000/00 RMK AO2 T01940106
93073KASE ASE20160722084510407/22/16 08:45:31  5-MIN KASE 221545Z 00000KT 10SM CLR 19/10 A3049 7320 54 9500 000/00 RMK AO2 T01940100
93073KASE ASE20160722085011107/22/16 08:50:31  5-MIN KASE 221550Z 01003KT 10SM CLR 20/11 A3049 7310 54 9600 360/03 RMK AO2 SLP206 T02000106
93073KASE ASE20160722085510407/22/16 08:55:31  5-MIN KASE 221555Z 30003KT 10SM CLR 20/11 A3049 7320 54 9600 290/03 RMK AO2 T02000106
93073KASE ASE20160722090010407/22/16 09:00:31  5-MIN KASE 221600Z 00000KT 10SM CLR 20/10 A3049 7320 52 9600 000/00 RMK AO2 T02000100
93073KASE ASE20160722090510407/22/16 09:05:31  5-MIN KASE 221605Z 00000KT 10SM CLR 21/11 A3049 7320 54 9600 000/00 RMK AO2 T02060111
93073KASE ASE20160722091010407/22/16 09:10:31  5-MIN KASE 221610Z 00000KT 10SM CLR 21/10 A3049 7320 50 9600 000/00 RMK AO2 T02060100
93073KASE ASE20160722091510407/22/16 09:15:31  5-MIN KASE 221615Z 01003KT 10SM CLR 21/11 A3049 7320 52 9700 360/03 RMK AO2 T02110111
93073KASE ASE20160722092010407/22/16 09:20:31  5-MIN KASE 221620Z 04003KT 10SM CLR 22/11 A3049 7320 50 9700 030/03 RMK AO2 T02170111
93073KASE ASE20160722092510407/22/16 09:25:31  5-MIN KASE 221625Z VRB03KT 10SM CLR 22/11 A3049 7320 50 9700 VRB/03 RMK AO2 T02170111
93073KASE ASE20160722093010407/22/16 09:30:31  5-MIN KASE 221630Z VRB04KT 10SM CLR 22/11 A3049 7320 50 9700 VRB/04 RMK AO2 T02170111
93073KASE ASE20160722093510407/22/16 09:35:31  5-MIN KASE 221635Z VRB03KT 10SM CLR 22/11 A3049 7320 50 9700 VRB/03 RMK AO2 T02170111
93073KASE ASE20160722094010407/22/16 09:40:31  5-MIN KASE 221640Z 01004KT 10SM CLR 22/12 A3049 7320 51 9800 010/04 RMK AO2 T02220117
93073KASE ASE20160722094510407/22/16 09:45:31  5-MIN KASE 221645Z 35004KT 10SM CLR 22/12 A3049 7320 51 9800 340/04 RMK AO2 T02220117
93073KASE ASE20160722095011107/22/16 09:50:31  5-MIN KASE 221650Z VRB04KT 10SM CLR 22/12 A3049 7320 51 9800 VRB/04 RMK AO2 SLP200 T02220117
93073KASE ASE20160722095510407/22/16 09:55:31  5-MIN KASE 221655Z 01004KT 10SM CLR 23/11 A3049 7320 47 9900 360/04 RMK AO2 T02280111
93073KASE ASE20160722100010407/22/16 10:00:31  5-MIN KASE 221700Z VRB04KT 10SM CLR 23/11 A3049 7320 44 9900 VRB/04 RMK AO2 T02330106
93073KASE ASE20160722100510507/22/16 10:05:31  5-MIN KASE 221705Z 35004KT 10SM CLR 24/11 A3049 7320 42 10000 340/04 RMK AO2 T02390106
93073KASE ASE20160722101010407/22/16 10:10:31  5-MIN KASE 221710Z 01005KT 10SM CLR 23/11 A3049 7320 44 9900 360/05 RMK AO2 T02330106
93073KASE ASE20160722101510507/22/16 10:15:31  5-MIN KASE 221715Z VRB03KT 10SM CLR 24/11 A3049 7320 42 10000 VRB/03 RMK AO2 T02390106
93073KASE ASE20160722102010507/22/16 10:20:31  5-MIN KASE 221720Z 36004KT 10SM CLR 24/11 A3049 7320 42 10000 350/04 RMK AO2 T02390106
93073KASE ASE20160722102510507/22/16 10:25:31  5-MIN KASE 221725Z 03005KT 10SM CLR 24/10 A3049 7320 41 10000 020/05 RMK AO2 T02390100
93073KASE ASE20160722103010507/22/16 10:30:31  5-MIN KASE 221730Z 02007KT 10SM CLR 24/09 A3049 7320 39 10000 010/07 RMK AO2 T02390094
93073KASE ASE20160722103510507/22/16 10:35:31  5-MIN KASE 221735Z VRB04KT 10SM CLR 24/09 A3049 7320 36 10000 VRB/04 RMK AO2 T02440089
93073KASE ASE20160722104010507/22/16 10:40:31  5-MIN KASE 221740Z 06005KT 10SM CLR 24/09 A3049 7320 36 10000 050/05 RMK AO2 T02440089
93073KASE ASE20160722104510507/22/16 10:45:31  5-MIN KASE 221745Z 05005KT 10SM CLR 24/08 A3049 7320 35 10000 040/05 RMK AO2 T02440083
93073KASE ASE20160722105013007/22/16 10:50:31  5-MIN KASE 221750Z VRB04KT 10SM CLR 25/09 A3049 7320 37 10100 VRB/04 RMK AO2 SLP191 T02500094 10250 20094 51004
93073KASE ASE20160722105510507/22/16 10:55:31  5-MIN KASE 221755Z VRB04KT 10SM CLR 25/09 A3049 7320 37 10100 VRB/04 RMK AO2 T02500094
93073KASE ASE20160722110010507/22/16 11:00:31  5-MIN KASE 221800Z 34008KT 10SM CLR 26/10 A3049 7320 37 10200 330/08 RMK AO2 T02560100
93073KASE ASE20160722110510507/22/16 11:05:31  5-MIN KASE 221805Z 02007KT 10SM CLR 25/09 A3048 7320 35 10100 010/07 RMK AO2 T02500089
93073KASE ASE20160722111010507/22/16 11:10:31  5-MIN KASE 221810Z VRB06KT 10SM CLR 26/09 A3048 7330 34 10200 VRB/06 RMK AO2 T02560089
93073KASE ASE20160722111512107/22/16 11:15:31  5-MIN KASE 221815Z 02007KT 340V070 10SM CLR 26/09 A3048 7330 33 10200 010/07 330V060 RMK AO2 T02610089
93073KASE ASE20160722112010507/22/16 11:20:31  5-MIN KASE 221820Z 36008KT 10SM CLR 26/09 A3047 7330 33 10200 360/08 RMK AO2 T02610089
93073KASE ASE20160722112510507/22/16 11:25:31  5-MIN KASE 221825Z 35009KT 10SM CLR 27/09 A3047 7330 32 10300 340/09 RMK AO2 T02670089
93073KASE ASE20160722113011107/22/16 11:30:31  5-MIN KASE 221830Z 02009G16KT 10SM CLR 26/09 A3047 7340 33 10200 010/09G16 RMK AO2 T02610089
93073KASE ASE20160722113511107/22/16 11:35:31  5-MIN KASE 221835Z 01010G16KT 10SM CLR 26/08 A3047 7340 32 10200 010/10G16 RMK AO2 T02610083
93073KASE ASE20160722114010507/22/16 11:40:31  5-MIN KASE 221840Z 35007KT 10SM CLR 26/08 A3047 7340 31 10200 340/07 RMK AO2 T02610078
93073KASE ASE20160722114511107/22/16 11:45:31  5-MIN KASE 221845Z 36010G16KT 10SM CLR 27/08 A3047 7340 31 10300 360/10G16 RMK AO2 T02670083
93073KASE ASE20160722115013707/22/16 11:50:31  5-MIN KASE 221850Z 01007G16KT 320V080 10SM FEW060 27/08 A3046 7340 29 10300 360/07G16 310V070 RMK AO2 SLP182 T02670078
93073KASE ASE20160722115510507/22/16 11:55:31  5-MIN KASE 221855Z 36007KT 10SM CLR 27/08 A3046 7340 29 10300 350/07 RMK AO2 T02670078
93073KASE ASE20160722120011107/22/16 12:00:31  5-MIN KASE 221900Z 01011G15KT 10SM CLR 27/08 A3046 7350 29 10400 360/11G15 RMK AO2 T02720078
93073KASE ASE20160722120511107/22/16 12:05:31  5-MIN KASE 221905Z 34005G15KT 10SM CLR 27/08 A3046 7350 29 10300 330/05G15 RMK AO2 T02670078
93073KASE ASE20160722121010507/22/16 12:10:31  5-MIN KASE 221910Z 01010KT 10SM CLR 27/07 A3046 7350 28 10300 360/10 RMK AO2 T02670072
93073KASE ASE20160722121510807/22/16 12:15:31  5-MIN KASE 221915Z 35007KT 10SM FEW080 27/07 A3045 7350 28 10300 340/07 RMK AO2 T02670072
93073KASE ASE20160722122011407/22/16 12:20:31  5-MIN KASE 221920Z VRB05G15KT 10SM FEW080 27/07 A3045 7360 28 10300 VRB/05G15 RMK AO2 T02670072
93073KASE ASE20160722122511407/22/16 12:25:31  5-MIN KASE 221925Z 34007G15KT 10SM FEW080 26/07 A3045 7360 29 10300 330/07G15 RMK AO2 T02610072
93073KASE ASE20160722123010807/22/16 12:30:31  5-MIN KASE 221930Z 03006KT 10SM FEW080 26/07 A3045 7360 30 10200 020/06 RMK AO2 T02560072
93073KASE ASE20160722123511407/22/16 12:35:31  5-MIN KASE 221935Z 01008G15KT 10SM FEW080 26/07 A3044 7360 29 10300 360/08G15 RMK AO2 T02610072
93073KASE ASE20160722124010507/22/16 12:40:31  5-MIN KASE 221940Z 35010KT 10SM CLR 27/07 A3044 7360 28 10300 340/10 RMK AO2 T02670072
93073KASE ASE20160722124510507/22/16 12:45:31  5-MIN KASE 221945Z 35005KT 10SM CLR 26/07 A3044 7360 29 10300 340/05 RMK AO2 T02610072
93073KASE ASE20160722125011207/22/16 12:50:31  5-MIN KASE 221950Z 01006KT 10SM CLR 27/08 A3044 7360 29 10400 360/06 RMK AO2 SLP173 T02720078
93073KASE ASE20160722125512107/22/16 12:55:31  5-MIN KASE 221955Z 36008KT 310V030 10SM CLR 28/07 A3044 7370 27 10500 350/08 300V020 RMK AO2 T02780072
93073KASE ASE20160722130010507/22/16 13:00:31  5-MIN KASE 222000Z 01007KT 10SM CLR 28/07 A3043 7370 27 10500 360/07 RMK AO2 T02780072
93073KASE ASE20160722130511907/22/16 13:05:31  5-MIN KASE 222005Z VRB05KT 10SM FEW075 28/07 A3044 7370 26 10500 VRB/05 RMK AO2 LTG DSNT W T02780067
93073KASE ASE20160722131011907/22/16 13:10:31  5-MIN KASE 222010Z 36007KT 10SM SCT080 28/07 A3043 7370 27 10500 350/07 RMK AO2 LTG DSNT W T02780072
93073KASE ASE20160722131512507/22/16 13:15:31  5-MIN KASE 222015Z 32009G15KT 10SM SCT080 28/08 A3043 7370 29 10500 310/09G15 RMK AO2 LTG DSNT W T02780083
93073KASE ASE20160722132011407/22/16 13:20:31  5-MIN KASE 222020Z 34007G15KT 10SM FEW080 26/08 A3044 7370 32 10300 330/07G15 RMK AO2 T02610083
93073KASE ASE20160722132510807/22/16 13:25:31  5-MIN KASE 222025Z VRB05KT 10SM FEW080 26/09 A3044 7370 34 10200 VRB/05 RMK AO2 T02560089
93073KASE ASE20160722133010807/22/16 13:30:31  5-MIN KASE 222030Z 25010KT 10SM FEW080 24/10 A3043 7370 39 10100 240/10 RMK AO2 T02440100
93073KASE ASE20160722133510807/22/16 13:35:31  5-MIN KASE 222035Z 24010KT 10SM FEW075 24/10 A3044 7370 41 10000 230/10 RMK AO2 T02390100
93073KASE ASE20160722134011507/22/16 13:40:31  5-MIN KASE 222040Z 25010KT 10SM FEW065 SCT085 23/09 A3043 7370 39 10000 240/10 RMK AO2 T02330089
93073KASE ASE20160722134512207/22/16 13:45:31  5-MIN KASE 222045Z 25010KT 10SM FEW055 SCT070 BKN120 23/09 A3043 7370 39 10000 240/10 RMK AO2 T02330089
93073KASE ASE20160722135014707/22/16 13:50:31  5-MIN KASE 222050Z 25008KT 10SM FEW055 SCT080 BKN120 23/08 A3044 7370 38 10000 240/08 RMK AO2 LTG DSNT SW SLP183 T02330083 56005
93073KASE ASE20160722135513907/22/16 13:55:31  5-MIN KASE 222055Z 25010KT 10SM VCTS FEW055 SCT070 BKN090 23/09 A3044 7360 39 10000 240/10 RMK AO2 LTG DSNT SW T02330089
93073KASE ASE20160722140014407/22/16 14:00:31  5-MIN KASE 222100Z 25009KT 10SM VCTS FEW055 BKN090 OVC110 23/09 A3044 7360 42 9900 240/09 RMK AO2 LTG DSNT S AND SW T02280094
93073KASE ASE20160722140514307/22/16 14:05:31  5-MIN KASE 222105Z 25007G14KT 10SM VCTS FEW055 BKN080 OVC120 23/09 A3044 7370 40 9900 240/07G14 RMK AO2 LTG DSNT S T02280089
93073KASE ASE20160722141013207/22/16 14:10:31  5-MIN KASE 222110Z 23007KT 10SM BKN060 BKN080 OVC100 23/08 A3043 7370 37 9900 220/07 RMK AO2 LTG DSNT S T02280078
93073KASE ASE20160722141514807/22/16 14:15:31  5-MIN KASE 222115Z 23007KT 210V270 10SM FEW055 BKN070 OVC110 23/07 A3043 7370 36 9900 220/07 200V260 RMK AO2 LTG DSNT S T02280072
93073KASE ASE20160722142014807/22/16 14:20:31  5-MIN KASE 222120Z 23013KT 10SM -RA FEW050 BKN075 OVC100 22/07 A3042 7380 36 9900 220/13 RMK AO2 LTG DSNT S RAB16 P0000 T02220067
93073KASE ASE20160722142515507/22/16 14:25:31  5-MIN KASE 222125Z VRB03G15KT 10SM -RA FEW055 BKN085 OVC100 23/07 A3042 7380 33 10000 VRB/03G15 RMK AO2 LTG DSNT S RAB16 P0000 T02330067
93073KASE ASE20160722143016407/22/16 14:30:31  5-MIN KASE 222130Z 13009KT 100V170 10SM -RA FEW055 SCT070 OVC095 23/07 A3042 7380 36 9900 120/09 090V160 RMK AO2 LTG DSNT S RAB16 P0000 T02280072
93073KASE ASE20160722143515307/22/16 14:35:31  5-MIN KASE 222135Z 13012G15KT 10SM FEW048 BKN080 OVC100 22/08 A3042 7380 39 9900 120/12G15 RMK AO2 LTG DSNT S RAB16E32 P0000 T02220078
93073KASE ASE20160722144014707/22/16 14:40:31  5-MIN KASE 222140Z 12010KT 10SM FEW046 SCT075 BKN100 22/08 A3043 7370 39 9900 110/10 RMK AO2 LTG DSNT S RAB16E32 P0000 T02220078
93073KASE ASE20160722144514707/22/16 14:45:31  5-MIN KASE 222145Z 12010KT 10SM FEW048 SCT095 22/08 A3043 7370 40 9900 110/10 RMK AO2 LTG DSNT SE AND S RAB16E32 P0000 T02220083
93073KASE ASE20160722145015407/22/16 14:50:31  5-MIN KASE 222150Z 14008KT 10SM FEW048 SCT090 23/08 A3043 7370 39 9900 130/08 RMK AO2 LTG DSNT SE AND S RAB16E32 SLP187 P0000 T02280083
93073KASE ASE20160722145513307/22/16 14:55:31  5-MIN KASE 222155Z 11010KT 10SM FEW047 FEW090 23/08 A3043 7370 38 10000 100/10 RMK AO2 LTG DSNT SE AND S T02330083
93073KASE ASE20160722150012807/22/16 15:00:31  5-MIN KASE 222200Z 12014G19KT 10SM CLR 23/08 A3043 7370 39 9900 110/14G19 RMK AO2 LTG DSNT SE AND S T02280083
93073KASE ASE20160722150512807/22/16 15:05:31  5-MIN KASE 222205Z 12013G19KT 10SM CLR 22/09 A3043 7370 42 9900 110/13G19 RMK AO2 LTG DSNT SE AND S T02220089
93073KASE ASE20160722151012807/22/16 15:10:31  5-MIN KASE 222210Z 13015G21KT 10SM CLR 22/09 A3044 7370 43 9800 120/15G21 RMK AO2 LTG DSNT SE AND S T02170089
93073KASE ASE20160722151512807/22/16 15:15:31  5-MIN KASE 222215Z 14013G22KT 10SM CLR 22/08 A3044 7360 42 9800 130/13G22 RMK AO2 LTG DSNT SE AND S T02170083
93073KASE ASE20160722152012807/22/16 15:20:31  5-MIN KASE 222220Z 14015G22KT 10SM CLR 22/08 A3044 7360 39 9900 130/15G22 RMK AO2 LTG DSNT SE AND S T02220078
93073KASE ASE20160722152512807/22/16 15:25:31  5-MIN KASE 222225Z 14015G22KT 10SM CLR 21/08 A3044 7370 42 9700 130/15G22 RMK AO2 LTG DSNT SE AND S T02110078
93073KASE ASE20160722153012807/22/16 15:30:31  5-MIN KASE 222230Z 13013G22KT 10SM CLR 22/08 A3044 7370 40 9800 120/13G22 RMK AO2 LTG DSNT SE AND S T02170078
93073KASE ASE20160722153512207/22/16 15:35:31  5-MIN KASE 222235Z 15015G23KT 10SM CLR 22/08 A3044 7360 40 9800 140/15G23 RMK AO2 LTG DSNT SE T02170078
93073KASE ASE20160722154012207/22/16 15:40:31  5-MIN KASE 222240Z 16016G23KT 10SM CLR 22/07 A3045 7360 39 9800 150/16G23 RMK AO2 LTG DSNT SE T02170072
93073KASE ASE20160722154512207/22/16 15:45:31  5-MIN KASE 222245Z 16017G25KT 10SM CLR 22/07 A3044 7360 37 9900 150/17G25 RMK AO2 LTG DSNT SE T02220072
93073KASE ASE20160722155011707/22/16 15:50:31  5-MIN KASE 222250Z 15016G25KT 10SM CLR 22/07 A3044 7370 37 9900 140/16G25 RMK AO2 SLP191 T02220072
93073KASE ASE20160722155511007/22/16 15:55:31  5-MIN KASE 222255Z 15013G22KT 10SM CLR 22/07 A3044 7370 37 9900 140/13G22 RMK AO2 T02220072
93073KASE ASE20160722160011007/22/16 16:00:31  5-MIN KASE 222300Z 15014G22KT 10SM CLR 22/07 A3043 7370 37 9900 140/14G22 RMK AO2 T02220072
93073KASE ASE20160722160511007/22/16 16:05:31  5-MIN KASE 222305Z 16014G22KT 10SM CLR 23/07 A3043 7370 36 9900 150/14G22 RMK AO2 T02280072
93073KASE ASE20160722161010407/22/16 16:10:31  5-MIN KASE 222310Z 15016KT 10SM CLR 22/07 A3043 7370 37 9900 140/16 RMK AO2 T02220072
93073KASE ASE20160722161511007/22/16 16:15:31  5-MIN KASE 222315Z 15014G20KT 10SM CLR 22/07 A3043 7380 37 9900 140/14G20 RMK AO2 T02220072
93073KASE ASE20160722162011007/22/16 16:20:31  5-MIN KASE 222320Z 15011G20KT 10SM CLR 22/07 A3042 7380 37 9900 140/11G20 RMK AO2 T02220072
93073KASE ASE20160722162511007/22/16 16:25:31  5-MIN KASE 222325Z 15014G20KT 10SM CLR 22/07 A3042 7380 37 9900 140/14G20 RMK AO2 T02220072
93073KASE ASE20160722163011007/22/16 16:30:31  5-MIN KASE 222330Z 15014G23KT 10SM CLR 22/08 A3042 7380 40 9800 140/14G23 RMK AO2 T02170078
93073KASE ASE20160722163511007/22/16 16:35:31  5-MIN KASE 222335Z 14011G23KT 10SM CLR 22/08 A3042 7390 40 9800 130/11G23 RMK AO2 T02170078
93073KASE ASE20160722164011007/22/16 16:40:31  5-MIN KASE 222340Z 14012G22KT 10SM CLR 22/08 A3042 7390 40 9800 130/12G22 RMK AO2 T02170078
93073KASE ASE20160722164511007/22/16 16:45:31  5-MIN KASE 222345Z 13012G20KT 10SM CLR 21/08 A3041 7390 42 9800 120/12G20 RMK AO2 T02110078
93073KASE ASE20160722165014107/22/16 16:50:31  5-MIN KASE 222350Z 14010G17KT 10SM CLR 21/08 A3041 7390 43 9800 130/10G17 RMK AO2 SLP183 60000 T02110083 10283 20211 55012
93073KASE ASE20160722165511007/22/16 16:55:31  5-MIN KASE 222355Z 14009G17KT 10SM CLR 21/09 A3041 7390 45 9800 130/09G17 RMK AO2 T02110089
93073KASE ASE20160722170010407/22/16 17:00:31  5-MIN KASE 230000Z 14008KT 10SM CLR 21/08 A3041 7390 43 9800 130/08 RMK AO2 T02110083
93073KASE ASE20160722170510407/22/16 17:05:31  5-MIN KASE 230005Z 13010KT 10SM CLR 21/08 A3041 7390 43 9800 120/10 RMK AO2 T02110083
93073KASE ASE20160722171010407/22/16 17:10:31  5-MIN KASE 230010Z 14008KT 10SM CLR 22/08 A3040 7400 42 9800 130/08 RMK AO2 T02170083
93073KASE ASE20160722171510407/22/16 17:15:31  5-MIN KASE 230015Z 14009KT 10SM CLR 22/08 A3040 7400 42 9800 130/09 RMK AO2 T02170083
93073KASE ASE20160722172010407/22/16 17:20:31  5-MIN KASE 230020Z 15011KT 10SM CLR 22/08 A3040 7400 40 9800 140/11 RMK AO2 T02170078
93073KASE ASE20160722172510407/22/16 17:25:31  5-MIN KASE 230025Z 14012KT 10SM CLR 22/08 A3040 7400 39 9900 140/12 RMK AO2 T02220078
93073KASE ASE20160722173011507/22/16 17:30:31  5-MIN KASE 230030Z 14010KT 10SM CLR 22/07 A3040 7400 37 9900 130/10 RMK AO2 LTG DSNT N T02220072
93073KASE ASE20160722173511507/22/16 17:35:31  5-MIN KASE 230035Z 14010KT 10SM CLR 22/07 A3040 7400 37 9900 130/10 RMK AO2 LTG DSNT N T02220072
93073KASE ASE20160722174011507/22/16 17:40:31  5-MIN KASE 230040Z 15009KT 10SM CLR 22/07 A3039 7410 37 9900 140/09 RMK AO2 LTG DSNT N T02220072
93073KASE ASE20160722174510407/22/16 17:45:31  5-MIN KASE 230045Z 14009KT 10SM CLR 22/07 A3039 7410 37 9900 130/09 RMK AO2 T02220072
93073KASE ASE20160722175011107/22/16 17:50:31  5-MIN KASE 230050Z 14008KT 10SM CLR 22/08 A3039 7410 39 9900 130/08 RMK AO2 SLP172 T02220078
93073KASE ASE20160722175510407/22/16 17:55:31  5-MIN KASE 230055Z 14008KT 10SM CLR 22/08 A3039 7410 39 9900 130/08 RMK AO2 T02220078
93073KASE ASE20160722180010407/22/16 18:00:31  5-MIN KASE 230100Z 15009KT 10SM CLR 22/07 A3039 7410 37 9900 140/09 RMK AO2 T02220072
93073KASE ASE20160722180510407/22/16 18:05:31  5-MIN KASE 230105Z 15008KT 10SM CLR 22/07 A3039 7410 37 9900 140/08 RMK AO2 T02220072
93073KASE ASE20160722181010407/22/16 18:10:31  5-MIN KASE 230110Z 15007KT 10SM CLR 22/07 A3039 7410 37 9900 140/07 RMK AO2 T02220072
93073KASE ASE20160722181510407/22/16 18:15:31  5-MIN KASE 230115Z 15007KT 10SM CLR 22/08 A3039 7410 40 9900 140/07 RMK AO2 T02170078
93073KASE ASE20160722182010407/22/16 18:20:31  5-MIN KASE 230120Z 14005KT 10SM CLR 22/08 A3039 7410 40 9900 130/05 RMK AO2 T02170078
93073KASE ASE20160722182511507/22/16 18:25:31  5-MIN KASE 230125Z 16003KT 10SM CLR 21/08 A3039 7410 43 9800 150/03 RMK AO2 LTG DSNT N T02110083
93073KASE ASE20160722183011507/22/16 18:30:31  5-MIN KASE 230130Z 25005KT 10SM CLR 21/09 A3039 7410 46 9700 240/05 RMK AO2 LTG DSNT N T02060089
93073KASE ASE20160722183511507/22/16 18:35:31  5-MIN KASE 230135Z 17003KT 10SM CLR 20/09 A3039 7410 48 9700 160/03 RMK AO2 LTG DSNT N T02000089
93073KASE ASE20160722184010407/22/16 18:40:31  5-MIN KASE 230140Z 14003KT 10SM CLR 21/09 A3039 7410 46 9700 130/03 RMK AO2 T02060089
93073KASE ASE20160722184510407/22/16 18:45:31  5-MIN KASE 230145Z 00000KT 10SM CLR 19/09 A3039 7410 54 9600 000/00 RMK AO2 T01890094
93073KASE ASE20160722185011107/22/16 18:50:31  5-MIN KASE 230150Z 00000KT 10SM CLR 19/09 A3039 7410 54 9600 000/00 RMK AO2 SLP176 T01890094
93073KASE ASE20160722185510907/22/16 18:55:31  5-MIN KASE 230155Z AUTO 08003KT 10SM CLR 19/10 A3039 7410 56 9600 070/03 RMK AO2 T01890100
93073KASE ASE20160722190010907/22/16 19:00:31  5-MIN KASE 230200Z AUTO 00000KT 10SM CLR 19/10 A3039 7410 56 9600 000/00 RMK AO2 T01890100
93073KASE ASE20160722190510907/22/16 19:05:31  5-MIN KASE 230205Z AUTO 00000KT 10SM CLR 18/10 A3039 7410 58 9500 000/00 RMK AO2 T01830100
93073KASE ASE20160722191010907/22/16 19:10:31  5-MIN KASE 230210Z AUTO 17004KT 10SM CLR 18/10 A3039 7410 58 9500 160/04 RMK AO2 T01830100
93073KASE ASE20160722191510907/22/16 19:15:31  5-MIN KASE 230215Z AUTO 20004KT 10SM CLR 17/11 A3039 7410 64 9400 190/04 RMK AO2 T01720106
93073KASE ASE20160722192010907/22/16 19:20:31  5-MIN KASE 230220Z AUTO 20005KT 10SM CLR 16/11 A3039 7410 69 9200 200/05 RMK AO2 T01610106
93073KASE ASE20160722192510907/22/16 19:25:31  5-MIN KASE 230225Z AUTO 20005KT 10SM CLR 17/11 A3039 7410 64 9400 190/05 RMK AO2 T01720106
93073KASE ASE20160722193010907/22/16 19:30:31  5-MIN KASE 230230Z AUTO 18006KT 10SM CLR 17/11 A3039 7410 64 9400 170/06 RMK AO2 T01720106
93073KASE ASE20160722193510907/22/16 19:35:31  5-MIN KASE 230235Z AUTO 19006KT 10SM CLR 17/11 A3040 7400 67 9300 180/06 RMK AO2 T01670106
93073KASE ASE20160722194011207/22/16 19:40:31  5-MIN KASE 230240Z AUTO 17006KT 10SM FEW100 18/10 A3040 7400 60 9400 160/06 RMK AO2 T01780100
93073KASE ASE20160722194511207/22/16 19:45:31  5-MIN KASE 230245Z AUTO 15006KT 10SM FEW100 18/10 A3040 7400 58 9500 140/06 RMK AO2 T01830100
93073KASE ASE20160722195012507/22/16 19:50:31  5-MIN KASE 230250Z AUTO 16006KT 10SM FEW100 18/10 A3040 7400 58 9500 150/06 RMK AO2 SLP173 T01830100 58007
93073KASE ASE20160722195511207/22/16 19:55:31  5-MIN KASE 230255Z AUTO VRB06KT 10SM FEW100 18/10 A3041 7400 60 9400 VRB/06 RMK AO2 T01780100
93073KASE ASE20160722200011207/22/16 20:00:31  5-MIN KASE 230300Z AUTO VRB06KT 10SM FEW100 18/11 A3040 7400 62 9400 VRB/06 RMK AO2 T01780106
93073KASE ASE20160722200511207/22/16 20:05:31  5-MIN KASE 230305Z AUTO 20004KT 10SM FEW100 17/11 A3041 7390 64 9400 190/04 RMK AO2 T01720106
93073KASE ASE20160722201010907/22/16 20:10:31  5-MIN KASE 230310Z AUTO 20005KT 10SM CLR 17/11 A3040 7400 67 9300 190/05 RMK AO2 T01670106
93073KASE ASE20160722201510907/22/16 20:15:31  5-MIN KASE 230315Z AUTO 19004KT 10SM CLR 17/11 A3040 7400 67 9300 190/04 RMK AO2 T01670106
93073KASE ASE20160722202010907/22/16 20:20:31  5-MIN KASE 230320Z AUTO 17005KT 10SM CLR 17/10 A3041 7390 64 9300 160/05 RMK AO2 T01670100
93073KASE ASE20160722202510907/22/16 20:25:31  5-MIN KASE 230325Z AUTO 22005KT 10SM CLR 17/10 A3041 7390 64 9300 210/05 RMK AO2 T01670100
93073KASE ASE20160722203010907/22/16 20:30:31  5-MIN KASE 230330Z AUTO 20007KT 10SM CLR 16/11 A3042 7390 72 9200 190/07 RMK AO2 T01560106
93073KASE ASE20160722203510907/22/16 20:35:31  5-MIN KASE 230335Z AUTO 22007KT 10SM CLR 16/10 A3042 7380 69 9200 220/07 RMK AO2 T01560100
93073KASE ASE20160722204010907/22/16 20:40:31  5-MIN KASE 230340Z AUTO 23008KT 10SM CLR 16/10 A3042 7380 69 9200 220/08 RMK AO2 T01560100
93073KASE ASE20160722204510907/22/16 20:45:31  5-MIN KASE 230345Z AUTO VRB06KT 10SM CLR 16/09 A3043 7370 64 9200 VRB/06 RMK AO2 T01610094
93073KASE ASE20160722205011607/22/16 20:50:31  5-MIN KASE 230350Z AUTO 17005KT 10SM CLR 16/09 A3043 7370 64 9200 170/05 RMK AO2 SLP179 T01610094
93073KASE ASE20160722205510907/22/16 20:55:31  5-MIN KASE 230355Z AUTO 20007KT 10SM CLR 15/09 A3043 7370 69 9100 190/07 RMK AO2 T01500094
93073KASE ASE20160722210010907/22/16 21:00:31  5-MIN KASE 230400Z AUTO 21006KT 10SM CLR 14/09 A3043 7370 72 9000 200/06 RMK AO2 T01440094
93073KASE ASE20160722210510907/22/16 21:05:31  5-MIN KASE 230405Z AUTO 23007KT 10SM CLR 14/09 A3043 7370 72 9000 220/07 RMK AO2 T01440094
93073KASE ASE20160722211010907/22/16 21:10:31  5-MIN KASE 230410Z AUTO 22007KT 10SM CLR 15/09 A3043 7370 69 9100 210/07 RMK AO2 T01500094
93073KASE ASE20160722211510907/22/16 21:15:31  5-MIN KASE 230415Z AUTO 22004KT 10SM CLR 15/09 A3044 7370 66 9100 210/04 RMK AO2 T01500089
93073KASE ASE20160722212010907/22/16 21:20:31  5-MIN KASE 230420Z AUTO 20003KT 10SM CLR 14/09 A3044 7370 69 9000 190/03 RMK AO2 T01440089
93073KASE ASE20160722212510907/22/16 21:25:31  5-MIN KASE 230425Z AUTO 19005KT 10SM CLR 14/09 A3043 7370 72 9000 180/05 RMK AO2 T01440094
93073KASE ASE20160722213010907/22/16 21:30:31  5-MIN KASE 230430Z AUTO 20007KT 10SM CLR 14/09 A3043 7370 71 9000 190/07 RMK AO2 T01390089
93073KASE ASE20160722213510907/22/16 21:35:31  5-MIN KASE 230435Z AUTO 23006KT 10SM CLR 14/09 A3043 7370 71 9000 220/06 RMK AO2 T01390089
93073KASE ASE20160722214010907/22/16 21:40:31  5-MIN KASE 230440Z AUTO 23004KT 10SM CLR 14/09 A3043 7370 71 9000 220/04 RMK AO2 T01390089
93073KASE ASE20160722214510907/22/16 21:45:31  5-MIN KASE 230445Z AUTO 20004KT 10SM CLR 15/08 A3043 7370 64 9100 190/04 RMK AO2 T01500083
93073KASE ASE20160722215011607/22/16 21:50:31  5-MIN KASE 230450Z AUTO 00000KT 10SM CLR 14/09 A3043 7370 69 9000 000/00 RMK AO2 SLP180 T01440089
93073KASE ASE20160722215510907/22/16 21:55:31  5-MIN KASE 230455Z AUTO 20004KT 10SM CLR 13/09 A3043 7370 74 8900 200/04 RMK AO2 T01330089
93073KASE ASE20160722220010907/22/16 22:00:31  5-MIN KASE 230500Z AUTO 21006KT 10SM CLR 13/09 A3043 7380 77 8800 200/06 RMK AO2 T01280089
93073KASE ASE20160722220510907/22/16 22:05:31  5-MIN KASE 230505Z AUTO 21006KT 10SM CLR 13/09 A3043 7380 74 8900 200/06 RMK AO2 T01330089
93073KASE ASE20160722221010907/22/16 22:10:31  5-MIN KASE 230510Z AUTO 22007KT 10SM CLR 13/09 A3042 7380 77 8800 210/07 RMK AO2 T01280089
93073KASE ASE20160722221510907/22/16 22:15:31  5-MIN KASE 230515Z AUTO 21007KT 10SM CLR 14/08 A3042 7380 69 9000 200/07 RMK AO2 T01390083
93073KASE ASE20160722222010907/22/16 22:20:31  5-MIN KASE 230520Z AUTO 21007KT 10SM CLR 14/08 A3042 7380 69 9000 200/07 RMK AO2 T01390083
93073KASE ASE20160722222510907/22/16 22:25:31  5-MIN KASE 230525Z AUTO 22007KT 10SM CLR 13/08 A3042 7380 71 8900 210/07 RMK AO2 T01330083
93073KASE ASE20160722223010907/22/16 22:30:31  5-MIN KASE 230530Z AUTO 21007KT 10SM CLR 14/08 A3042 7380 69 9000 200/07 RMK AO2 T01390083
93073KASE ASE20160722223510907/22/16 22:35:31  5-MIN KASE 230535Z AUTO 20007KT 10SM CLR 14/08 A3042 7390 69 9000 190/07 RMK AO2 T01390083
93073KASE ASE20160722224010907/22/16 22:40:31  5-MIN KASE 230540Z AUTO 20006KT 10SM CLR 14/08 A3042 7390 69 9000 190/06 RMK AO2 T01390083
93073KASE ASE20160722224510907/22/16 22:45:31  5-MIN KASE 230545Z AUTO 19006KT 10SM CLR 13/08 A3041 7390 71 8900 180/06 RMK AO2 T01330083
93073KASE ASE20160722225013407/22/16 22:50:31  5-MIN KASE 230550Z AUTO 21006KT 10SM CLR 14/08 A3042 7390 69 9000 200/06 RMK AO2 SLP168 T01390083 10228 20128 55002
93073KASE ASE20160722225510907/22/16 22:55:31  5-MIN KASE 230555Z AUTO 22007KT 10SM CLR 13/08 A3042 7390 71 8900 210/07 RMK AO2 T01330083
93073KASE ASE20160722230010907/22/16 23:00:31  5-MIN KASE 230600Z AUTO 22006KT 10SM CLR 13/08 A3041 7390 74 8900 210/06 RMK AO2 T01280083
93073KASE ASE20160722230510907/22/16 23:05:31  5-MIN KASE 230605Z AUTO 21006KT 10SM CLR 13/08 A3041 7390 71 8900 200/06 RMK AO2 T01330083
93073KASE ASE20160722231010907/22/16 23:10:31  5-MIN KASE 230610Z AUTO 21006KT 10SM CLR 14/08 A3041 7390 69 9000 200/06 RMK AO2 T01390083
93073KASE ASE20160722231510907/22/16 23:15:31  5-MIN KASE 230615Z AUTO 22006KT 10SM CLR 13/08 A3041 7390 71 8900 210/06 RMK AO2 T01330083
93073KASE ASE20160722232010907/22/16 23:20:31  5-MIN KASE 230620Z AUTO 22005KT 10SM CLR 14/08 A3041 7390 69 9000 210/05 RMK AO2 T01390083
93073KASE ASE20160722232510907/22/16 23:25:31  5-MIN KASE 230625Z AUTO 21005KT 10SM CLR 13/08 A3041 7390 71 8900 200/05 RMK AO2 T01330083
93073KASE ASE20160722233010907/22/16 23:30:31  5-MIN KASE 230630Z AUTO 21006KT 10SM CLR 13/08 A3041 7390 71 8900 210/06 RMK AO2 T01330083
93073KASE ASE20160722233510907/22/16 23:35:31  5-MIN KASE 230635Z AUTO 21005KT 10SM CLR 13/08 A3041 7390 74 8900 200/05 RMK AO2 T01280083
93073KASE ASE20160722234010907/22/16 23:40:31  5-MIN KASE 230640Z AUTO 20003KT 10SM CLR 13/08 A3041 7390 71 8900 190/03 RMK AO2 T01330083
93073KASE ASE20160722234510907/22/16 23:45:31  5-MIN KASE 230645Z AUTO 21006KT 10SM CLR 13/08 A3040 7400 74 8900 200/06 RMK AO2 T01280083
93073KASE ASE20160722235012607/22/16 23:50:31  5-MIN KASE 230650Z AUTO 21006KT 10SM CLR 12/08 A3041 7400 74 8800 200/06 RMK AO2 SLP165 T01220078 402830089
93073KASE ASE20160722235510907/22/16 23:55:31  5-MIN KASE 230655Z AUTO 21006KT 10SM CLR 12/08 A3040 7400 74 8800 200/06 RMK AO2 T01220078
93073KASE ASE20160723000010907/23/16 00:00:31  5-MIN KASE 230700Z AUTO 21007KT 10SM CLR 12/08 A3040 7400 77 8800 200/07 RMK AO2 T01220083
93073KASE ASE20160723000510907/23/16 00:05:31  5-MIN KASE 230705Z AUTO 21006KT 10SM CLR 13/08 A3040 7400 74 8900 200/06 RMK AO2 T01280083
93073KASE ASE20160723001010907/23/16 00:10:31  5-MIN KASE 230710Z AUTO 21007KT 10SM CLR 12/08 A3040 7400 77 8800 200/07 RMK AO2 T01220083
93073KASE ASE20160723001510907/23/16 00:15:31  5-MIN KASE 230715Z AUTO 19005KT 10SM CLR 13/08 A3041 7390 71 8900 180/05 RMK AO2 T01280078
93073KASE ASE20160723002010907/23/16 00:20:31  5-MIN KASE 230720Z AUTO 19005KT 10SM CLR 12/08 A3041 7390 74 8800 180/05 RMK AO2 T01220078
93073KASE ASE20160723002510907/23/16 00:25:31  5-MIN KASE 230725Z AUTO 19006KT 10SM CLR 12/08 A3041 7390 77 8700 180/06 RMK AO2 T01170078
93073KASE ASE20160723003010907/23/16 00:30:31  5-MIN KASE 230730Z AUTO 00000KT 10SM CLR 12/08 A3042 7390 77 8700 000/00 RMK AO2 T01170078
93073KASE ASE20160723003510907/23/16 00:35:31  5-MIN KASE 230735Z AUTO 00000KT 10SM CLR 12/08 A3041 7390 77 8700 000/00 RMK AO2 T01170078
93073KASE ASE20160723004010907/23/16 00:40:31  5-MIN KASE 230740Z AUTO 24004KT 10SM CLR 11/08 A3041 7390 80 8700 230/04 RMK AO2 T01110078
93073KASE ASE20160723004510907/23/16 00:45:31  5-MIN KASE 230745Z AUTO 25004KT 10SM CLR 11/08 A3042 7380 83 8600 240/04 RMK AO2 T01060078
93073KASE ASE20160723005011607/23/16 00:50:31  5-MIN KASE 230750Z AUTO 00000KT 10SM CLR 11/08 A3042 7390 80 8700 000/00 RMK AO2 SLP169 T01110078
93073KASE ASE20160723005510907/23/16 00:55:31  5-MIN KASE 230755Z AUTO 20003KT 10SM CLR 12/08 A3041 7390 77 8700 190/03 RMK AO2 T01170078
93073KASE ASE20160723010010907/23/16 01:00:31  5-MIN KASE 230800Z AUTO 20005KT 10SM CLR 11/08 A3041 7390 80 8700 190/05 RMK AO2 T01110078
93073KASE ASE20160723010510907/23/16 01:05:31  5-MIN KASE 230805Z AUTO 20004KT 10SM CLR 11/08 A3041 7390 86 8600 190/04 RMK AO2 T01060083
93073KASE ASE20160723011010907/23/16 01:10:31  5-MIN KASE 230810Z AUTO 20004KT 10SM CLR 11/08 A3041 7390 80 8700 190/04 RMK AO2 T01110078
93073KASE ASE20160723011510907/23/16 01:15:31  5-MIN KASE 230815Z AUTO 19006KT 10SM CLR 11/08 A3041 7390 80 8700 180/06 RMK AO2 T01110078
93073KASE ASE20160723012010907/23/16 01:20:31  5-MIN KASE 230820Z AUTO 19006KT 10SM CLR 12/08 A3041 7390 77 8700 180/06 RMK AO2 T01170078
93073KASE ASE20160723012510907/23/16 01:25:31  5-MIN KASE 230825Z AUTO 21006KT 10SM CLR 11/08 A3040 7400 80 8700 200/06 RMK AO2 T01110078
93073KASE ASE20160723013010907/23/16 01:30:31  5-MIN KASE 230830Z AUTO 22006KT 10SM CLR 12/08 A3040 7400 77 8700 210/06 RMK AO2 T01170078
93073KASE ASE20160723013510907/23/16 01:35:31  5-MIN KASE 230835Z AUTO 19005KT 10SM CLR 12/08 A3041 7390 74 8800 180/05 RMK AO2 T01220078
93073KASE ASE20160723014010907/23/16 01:40:31  5-MIN KASE 230840Z AUTO 19004KT 10SM CLR 11/08 A3041 7400 80 8700 180/04 RMK AO2 T01110078
93073KASE ASE20160723014510907/23/16 01:45:31  5-MIN KASE 230845Z AUTO 19007KT 10SM CLR 11/08 A3040 7400 80 8700 180/07 RMK AO2 T01110078
93073KASE ASE20160723015012207/23/16 01:50:31  5-MIN KASE 230850Z AUTO 21007KT 10SM CLR 11/08 A3040 7400 80 8700 200/07 RMK AO2 SLP174 T01110078 50003
93073KASE ASE20160723015510907/23/16 01:55:31  5-MIN KASE 230855Z AUTO 21008KT 10SM CLR 12/08 A3040 7400 77 8700 200/08 RMK AO2 T01170078
93073KASE ASE20160723020010907/23/16 02:00:31  5-MIN KASE 230900Z AUTO 20007KT 10SM CLR 12/08 A3040 7400 74 8800 190/07 RMK AO2 T01220078
93073KASE ASE20160723020510907/23/16 02:05:31  5-MIN KASE 230905Z AUTO 20006KT 10SM CLR 12/08 A3040 7400 77 8700 190/06 RMK AO2 T01170078
93073KASE ASE20160723021010907/23/16 02:10:31  5-MIN KASE 230910Z AUTO 22008KT 10SM CLR 12/08 A3040 7400 77 8700 210/08 RMK AO2 T01170078
93073KASE ASE20160723021510907/23/16 02:15:31  5-MIN KASE 230915Z AUTO 22008KT 10SM CLR 11/08 A3039 7410 80 8700 210/08 RMK AO2 T01110078
93073KASE ASE20160723022010907/23/16 02:20:31  5-MIN KASE 230920Z AUTO 22006KT 10SM CLR 12/08 A3039 7410 77 8800 210/06 RMK AO2 T01170078
93073KASE ASE20160723022510907/23/16 02:25:31  5-MIN KASE 230925Z AUTO 00000KT 10SM CLR 12/08 A3039 7410 77 8700 000/00 RMK AO2 T01170078
93073KASE ASE20160723023010907/23/16 02:30:31  5-MIN KASE 230930Z AUTO 19005KT 10SM CLR 12/08 A3039 7410 74 8800 180/05 RMK AO2 T01220078
93073KASE ASE20160723023510907/23/16 02:35:31  5-MIN KASE 230935Z AUTO 22008KT 10SM CLR 12/08 A3039 7410 77 8800 210/08 RMK AO2 T01170078
93073KASE ASE20160723024010907/23/16 02:40:31  5-MIN KASE 230940Z AUTO 21007KT 10SM CLR 12/08 A3039 7410 77 8800 200/07 RMK AO2 T01170078
93073KASE ASE20160723024510907/23/16 02:45:31  5-MIN KASE 230945Z AUTO 20006KT 10SM CLR 12/08 A3039 7410 77 8800 200/06 RMK AO2 T01170078
93073KASE ASE20160723025011607/23/16 02:50:31  5-MIN KASE 230950Z AUTO 21007KT 10SM CLR 12/08 A3038 7420 77 8800 200/07 RMK AO2 SLP168 T01170078
93073KASE ASE20160723025510907/23/16 02:55:31  5-MIN KASE 230955Z AUTO 22008KT 10SM CLR 11/08 A3038 7420 80 8700 210/08 RMK AO2 T01110078
93073KASE ASE20160723030010907/23/16 03:00:31  5-MIN KASE 231000Z AUTO 22006KT 10SM CLR 11/08 A3038 7410 80 8700 210/06 RMK AO2 T01110078
93073KASE ASE20160723030510907/23/16 03:05:31  5-MIN KASE 231005Z AUTO 21007KT 10SM CLR 11/07 A3039 7410 77 8700 200/07 RMK AO2 T01110072
93073KASE ASE20160723031010907/23/16 03:10:31  5-MIN KASE 231010Z AUTO 21009KT 10SM CLR 11/08 A3038 7410 80 8700 200/09 RMK AO2 T01110078
93073KASE ASE20160723031510907/23/16 03:15:31  5-MIN KASE 231015Z AUTO 21008KT 10SM CLR 11/07 A3038 7420 80 8600 210/08 RMK AO2 T01060072
93073KASE ASE20160723032010907/23/16 03:20:31  5-MIN KASE 231020Z AUTO 22008KT 10SM CLR 11/07 A3038 7420 77 8700 210/08 RMK AO2 T01110072
93073KASE ASE20160723032510907/23/16 03:25:31  5-MIN KASE 231025Z AUTO 20006KT 10SM CLR 11/07 A3038 7420 77 8700 190/06 RMK AO2 T01110072
93073KASE ASE20160723033010907/23/16 03:30:31  5-MIN KASE 231030Z AUTO 19005KT 10SM CLR 12/08 A3037 7420 77 8800 180/05 RMK AO2 T01170078
93073KASE ASE20160723033510907/23/16 03:35:31  5-MIN KASE 231035Z AUTO 20004KT 10SM CLR 12/08 A3037 7420 77 8800 190/04 RMK AO2 T01170078
93073KASE ASE20160723034010907/23/16 03:40:31  5-MIN KASE 231040Z AUTO 00000KT 10SM CLR 10/08 A3037 7430 86 8600 000/00 RMK AO2 T01000078
93073KASE ASE20160723034510907/23/16 03:45:31  5-MIN KASE 231045Z AUTO 00000KT 10SM CLR 11/08 A3037 7420 83 8600 000/00 RMK AO2 T01060078
93073KASE ASE20160723035011607/23/16 03:50:31  5-MIN KASE 231050Z AUTO 24003KT 10SM CLR 11/07 A3037 7420 80 8600 230/03 RMK AO2 SLP168 T01060072
93073KASE ASE20160723035510907/23/16 03:55:31  5-MIN KASE 231055Z AUTO 23005KT 10SM CLR 10/07 A3037 7420 83 8600 220/05 RMK AO2 T01000072
93073KASE ASE20160723040010907/23/16 04:00:31  5-MIN KASE 231100Z AUTO 00000KT 10SM CLR 11/07 A3037 7420 80 8600 000/00 RMK AO2 T01060072
93073KASE ASE20160723040510907/23/16 04:05:31  5-MIN KASE 231105Z AUTO 00000KT 10SM CLR 10/07 A3038 7420 83 8600 000/00 RMK AO2 T01000072
93073KASE ASE20160723041010907/23/16 04:10:31  5-MIN KASE 231110Z AUTO 00000KT 10SM CLR 11/07 A3038 7420 80 8600 000/00 RMK AO2 T01060072
93073KASE ASE20160723041510907/23/16 04:15:31  5-MIN KASE 231115Z AUTO 00000KT 10SM CLR 11/08 A3038 7420 83 8600 000/00 RMK AO2 T01060078
93073KASE ASE20160723042010907/23/16 04:20:31  5-MIN KASE 231120Z AUTO 22007KT 10SM CLR 10/07 A3038 7420 83 8600 210/07 RMK AO2 T01000072
93073KASE ASE20160723042510907/23/16 04:25:31  5-MIN KASE 231125Z AUTO 22004KT 10SM CLR 10/07 A3038 7420 83 8600 210/04 RMK AO2 T01000072
93073KASE ASE20160723043010907/23/16 04:30:31  5-MIN KASE 231130Z AUTO 00000KT 10SM CLR 10/07 A3038 7420 83 8600 000/00 RMK AO2 T01000072
93073KASE ASE20160723043510907/23/16 04:35:31  5-MIN KASE 231135Z AUTO 00000KT 10SM CLR 10/07 A3038 7420 83 8600 000/00 RMK AO2 T01000072
93073KASE ASE20160723044010907/23/16 04:40:31  5-MIN KASE 231140Z AUTO 21003KT 10SM CLR 09/07 A3038 7420 86 8500 210/03 RMK AO2 T00940072
93073KASE ASE20160723044510907/23/16 04:45:31  5-MIN KASE 231145Z AUTO 19003KT 10SM CLR 10/07 A3038 7420 83 8600 180/03 RMK AO2 T01000072
93073KASE ASE20160723045013407/23/16 04:50:31  5-MIN KASE 231150Z AUTO 21005KT 10SM CLR 11/07 A3038 7420 80 8600 200/05 RMK AO2 SLP172 T01060072 10139 20094 58003
93073KASE ASE20160723045510907/23/16 04:55:31  5-MIN KASE 231155Z AUTO 20007KT 10SM CLR 11/07 A3038 7420 80 8600 190/07 RMK AO2 T01060072
93073KASE ASE20160723050010907/23/16 05:00:31  5-MIN KASE 231200Z AUTO 20006KT 10SM CLR 11/07 A3038 7420 77 8700 200/06 RMK AO2 T01110072
93073KASE ASE20160723050510907/23/16 05:05:31  5-MIN KASE 231205Z AUTO 19004KT 10SM CLR 11/07 A3038 7420 80 8600 180/04 RMK AO2 T01060072
93073KASE ASE20160723051010907/23/16 05:10:31  5-MIN KASE 231210Z AUTO 20006KT 10SM CLR 10/07 A3038 7420 83 8600 190/06 RMK AO2 T01000072
93073KASE ASE20160723051510907/23/16 05:15:31  5-MIN KASE 231215Z AUTO 21007KT 10SM CLR 10/07 A3038 7420 83 8600 200/07 RMK AO2 T01000072
93073KASE ASE20160723052010907/23/16 05:20:31  5-MIN KASE 231220Z AUTO 22008KT 10SM CLR 11/07 A3038 7410 80 8600 210/08 RMK AO2 T01060072
93073KASE ASE20160723052510907/23/16 05:25:31  5-MIN KASE 231225Z AUTO 22007KT 10SM CLR 11/07 A3038 7420 80 8600 210/07 RMK AO2 T01060072
93073KASE ASE20160723053010907/23/16 05:30:31  5-MIN KASE 231230Z AUTO 20005KT 10SM CLR 11/07 A3038 7420 80 8600 190/05 RMK AO2 T01060072
93073KASE ASE20160723053510907/23/16 05:35:31  5-MIN KASE 231235Z AUTO 21006KT 10SM CLR 10/07 A3038 7420 83 8600 200/06 RMK AO2 T01000072
93073KASE ASE20160723054010907/23/16 05:40:31  5-MIN KASE 231240Z AUTO 21006KT 10SM CLR 11/07 A3039 7410 80 8600 200/06 RMK AO2 T01060072
93073KASE ASE20160723054510907/23/16 05:45:31  5-MIN KASE 231245Z AUTO 21007KT 10SM CLR 11/07 A3039 7410 80 8600 200/07 RMK AO2 T01060072
93073KASE ASE20160723055011607/23/16 05:50:31  5-MIN KASE 231250Z AUTO 21006KT 10SM CLR 11/07 A3039 7410 80 8600 200/06 RMK AO2 SLP172 T01060072
93073KASE ASE20160723055510407/23/16 05:55:31  5-MIN KASE 231255Z 21005KT 10SM CLR 12/08 A3039 7410 77 8800 200/05 RMK AO2 T01170078
93073KASE ASE20160723060010407/23/16 06:00:31  5-MIN KASE 231300Z 21004KT 10SM CLR 12/08 A3039 7410 74 8800 200/04 RMK AO2 T01220078
93073KASE ASE20160723060510407/23/16 06:05:31  5-MIN KASE 231305Z 20006KT 10SM CLR 13/08 A3039 7410 71 8900 190/06 RMK AO2 T01280078
93073KASE ASE20160723061010407/23/16 06:10:31  5-MIN KASE 231310Z 18005KT 10SM CLR 13/07 A3038 7410 66 8900 170/05 RMK AO2 T01330072
93073KASE ASE20160723061510407/23/16 06:15:31  5-MIN KASE 231315Z 00000KT 10SM CLR 13/08 A3039 7410 69 8900 000/00 RMK AO2 T01330078
93073KASE ASE20160723062010407/23/16 06:20:31  5-MIN KASE 231320Z 21003KT 10SM CLR 13/08 A3039 7410 69 8900 200/03 RMK AO2 T01330078
93073KASE ASE20160723062510407/23/16 06:25:31  5-MIN KASE 231325Z 20003KT 10SM CLR 14/07 A3039 7410 64 9000 190/03 RMK AO2 T01390072
93073KASE ASE20160723063010407/23/16 06:30:31  5-MIN KASE 231330Z 17005KT 10SM CLR 14/08 A3039 7410 66 9000 160/05 RMK AO2 T01390078
93073KASE ASE20160723063510407/23/16 06:35:31  5-MIN KASE 231335Z 18004KT 10SM CLR 14/07 A3039 7410 64 9000 170/04 RMK AO2 T01390072
93073KASE ASE20160723064010407/23/16 06:40:31  5-MIN KASE 231340Z 15006KT 10SM CLR 14/07 A3039 7410 61 9100 150/06 RMK AO2 T01440072
93073KASE ASE20160723064510407/23/16 06:45:31  5-MIN KASE 231345Z 14004KT 10SM CLR 14/07 A3039 7410 61 9100 140/04 RMK AO2 T01440072
93073KASE ASE20160723065011107/23/16 06:50:31  5-MIN KASE 231350Z VRB03KT 10SM CLR 15/07 A3039 7410 59 9100 VRB/03 RMK AO2 SLP170 T01500072
93073KASE ASE20160723065510407/23/16 06:55:31  5-MIN KASE 231355Z 16004KT 10SM CLR 15/07 A3039 7410 59 9100 150/04 RMK AO2 T01500072
93073KASE ASE20160723070010407/23/16 07:00:31  5-MIN KASE 231400Z 18003KT 10SM CLR 16/07 A3039 7410 57 9200 170/03 RMK AO2 T01560072
93073KASE ASE20160723070510407/23/16 07:05:31  5-MIN KASE 231405Z VRB03KT 10SM CLR 16/08 A3039 7410 59 9200 VRB/03 RMK AO2 T01560078
93073KASE ASE20160723071010407/23/16 07:10:31  5-MIN KASE 231410Z 00000KT 10SM CLR 16/07 A3039 7410 57 9200 000/00 RMK AO2 T01560072
93073KASE ASE20160723071510407/23/16 07:15:31  5-MIN KASE 231415Z VRB03KT 10SM CLR 16/08 A3039 7410 57 9300 VRB/03 RMK AO2 T01610078
93073KASE ASE20160723072010407/23/16 07:20:31  5-MIN KASE 231420Z 00000KT 10SM CLR 16/08 A3039 7410 57 9300 000/00 RMK AO2 T01610078
93073KASE ASE20160723072510407/23/16 07:25:31  5-MIN KASE 231425Z 00000KT 10SM CLR 17/08 A3039 7410 55 9300 000/00 RMK AO2 T01670078
93073KASE ASE20160723073010407/23/16 07:30:31  5-MIN KASE 231430Z 00000KT 10SM CLR 17/07 A3039 7410 51 9400 000/00 RMK AO2 T01720072
93073KASE ASE20160723073510407/23/16 07:35:31  5-MIN KASE 231435Z 00000KT 10SM CLR 18/08 A3039 7410 51 9400 000/00 RMK AO2 T01780078
93073KASE ASE20160723074010407/23/16 07:40:31  5-MIN KASE 231440Z 11003KT 10SM CLR 18/08 A3039 7410 53 9400 100/03 RMK AO2 T01780083
93073KASE ASE20160723074510407/23/16 07:45:31  5-MIN KASE 231445Z VRB03KT 10SM CLR 18/08 A3039 7410 51 9400 VRB/03 RMK AO2 T01780078
93073KASE ASE20160723075011707/23/16 07:50:31  5-MIN KASE 231450Z 10003KT 10SM CLR 18/08 A3039 7410 51 9400 090/03 RMK AO2 SLP164 T01780078 55006
93073KASE ASE20160723075510407/23/16 07:55:31  5-MIN KASE 231455Z 00000KT 10SM CLR 18/08 A3039 7410 51 9400 000/00 RMK AO2 T01780078
93073KASE ASE20160723080010407/23/16 08:00:31  5-MIN KASE 231500Z 00000KT 10SM CLR 18/08 A3039 7410 50 9500 000/00 RMK AO2 T01830078
93073KASE ASE20160723080510407/23/16 08:05:31  5-MIN KASE 231505Z 00000KT 10SM CLR 18/08 A3039 7410 52 9500 000/00 RMK AO2 T01830083
93073KASE ASE20160723081010407/23/16 08:10:31  5-MIN KASE 231510Z 00000KT 10SM CLR 19/08 A3039 7410 48 9600 000/00 RMK AO2 T01940083
93073KASE ASE20160723081510407/23/16 08:15:31  5-MIN KASE 231515Z VRB03KT 10SM CLR 19/08 A3039 7410 46 9600 VRB/03 RMK AO2 T01940078
93073KASE ASE20160723082010407/23/16 08:20:31  5-MIN KASE 231520Z VRB03KT 10SM CLR 20/08 A3039 7410 46 9700 VRB/03 RMK AO2 T02000083
93073KASE ASE20160723082510407/23/16 08:25:31  5-MIN KASE 231525Z VRB03KT 10SM CLR 20/09 A3039 7410 48 9700 VRB/03 RMK AO2 T02000089
93073KASE ASE20160723083010407/23/16 08:30:31  5-MIN KASE 231530Z 01005KT 10SM CLR 20/09 A3039 7410 48 9700 360/05 RMK AO2 T02000089
93073KASE ASE20160723083510407/23/16 08:35:31  5-MIN KASE 231535Z 35004KT 10SM CLR 20/09 A3039 7410 48 9700 340/04 RMK AO2 T02000089
93073KASE ASE20160723084010407/23/16 08:40:31  5-MIN KASE 231540Z 01003KT 10SM CLR 21/09 A3039 7410 46 9700 360/03 RMK AO2 T02060089
93073KASE ASE20160723084510407/23/16 08:45:31  5-MIN KASE 231545Z 34003KT 10SM CLR 21/09 A3038 7410 46 9700 330/03 RMK AO2 T02060089
93073KASE ASE20160723085011107/23/16 08:50:31  5-MIN KASE 231550Z VRB03KT 10SM CLR 21/08 A3038 7410 45 9700 VRB/03 RMK AO2 SLP162 T02060083
93073KASE ASE20160723085510407/23/16 08:55:31  5-MIN KASE 231555Z 35003KT 10SM CLR 21/08 A3038 7420 43 9800 340/03 RMK AO2 T02110083
93073KASE ASE20160723090010407/23/16 09:00:31  5-MIN KASE 231600Z 00000KT 10SM CLR 21/08 A3038 7420 43 9800 000/00 RMK AO2 T02110083
93073KASE ASE20160723090510407/23/16 09:05:31  5-MIN KASE 231605Z VRB03KT 10SM CLR 22/08 A3038 7420 42 9900 VRB/03 RMK AO2 T02170083
93073KASE ASE20160723091010407/23/16 09:10:31  5-MIN KASE 231610Z 00000KT 10SM CLR 22/08 A3038 7420 42 9900 000/00 RMK AO2 T02170083
93073KASE ASE20160723091510407/23/16 09:15:31  5-MIN KASE 231615Z 00000KT 10SM CLR 22/08 A3038 7420 40 9900 000/00 RMK AO2 T02220083
93073KASE ASE20160723092010507/23/16 09:20:31  5-MIN KASE 231620Z 00000KT 10SM CLR 23/08 A3038 7420 39 10000 000/00 RMK AO2 T02280083
93073KASE ASE20160723092510507/23/16 09:25:31  5-MIN KASE 231625Z 02003KT 10SM CLR 23/08 A3037 7420 37 10000 010/03 RMK AO2 T02280078
93073KASE ASE20160723093010507/23/16 09:30:31  5-MIN KASE 231630Z VRB03KT 10SM CLR 23/08 A3037 7420 36 10100 VRB/03 RMK AO2 T02330078
93073KASE ASE20160723093510507/23/16 09:35:31  5-MIN KASE 231635Z VRB03KT 10SM CLR 23/08 A3037 7430 36 10100 VRB/03 RMK AO2 T02330078
93073KASE ASE20160723094010507/23/16 09:40:31  5-MIN KASE 231640Z 00000KT 10SM CLR 24/08 A3037 7430 35 10100 000/00 RMK AO2 T02390078
93073KASE ASE20160723094510507/23/16 09:45:31  5-MIN KASE 231645Z 00000KT 10SM CLR 24/08 A3037 7430 36 10100 000/00 RMK AO2 T02390083
93073KASE ASE20160723095011207/23/16 09:50:31  5-MIN KASE 231650Z 00000KT 10SM CLR 24/08 A3037 7430 34 10200 000/00 RMK AO2 SLP151 T02440078
93073KASE ASE20160723095510507/23/16 09:55:31  5-MIN KASE 231655Z 00000KT 10SM CLR 24/07 A3037 7430 33 10200 000/00 RMK AO2 T02440072
93073KASE ASE20160723100010507/23/16 10:00:31  5-MIN KASE 231700Z 00000KT 10SM CLR 25/07 A3037 7430 30 10200 000/00 RMK AO2 T02500067
93073KASE ASE20160723100510507/23/16 10:05:31  5-MIN KASE 231705Z 01004KT 10SM CLR 26/07 A3037 7430 29 10300 360/04 RMK AO2 T02560067
93073KASE ASE20160723101010507/23/16 10:10:31  5-MIN KASE 231710Z VRB04KT 10SM CLR 26/07 A3037 7430 28 10400 VRB/04 RMK AO2 T02610067
93073KASE ASE20160723101510507/23/16 10:15:31  5-MIN KASE 231715Z 07003KT 10SM CLR 26/06 A3036 7430 28 10300 060/03 RMK AO2 T02560061
93073KASE ASE20160723102010507/23/16 10:20:31  5-MIN KASE 231720Z 05004KT 10SM CLR 26/07 A3037 7430 29 10300 040/04 RMK AO2 T02560067
93073KASE ASE20160723102510507/23/16 10:25:31  5-MIN KASE 231725Z 09004KT 10SM CLR 26/06 A3037 7430 28 10300 080/04 RMK AO2 T02560061
93073KASE ASE20160723103010507/23/16 10:30:31  5-MIN KASE 231730Z 08005KT 10SM CLR 26/07 A3037 7430 28 10400 070/05 RMK AO2 T02610067
93073KASE ASE20160723103510507/23/16 10:35:31  5-MIN KASE 231735Z VRB04KT 10SM CLR 27/06 A3036 7430 26 10400 VRB/04 RMK AO2 T02670061
93073KASE ASE20160723104010507/23/16 10:40:31  5-MIN KASE 231740Z 03006KT 10SM CLR 27/06 A3036 7430 26 10400 020/06 RMK AO2 T02670061
93073KASE ASE20160723104510507/23/16 10:45:31  5-MIN KASE 231745Z VRB06KT 10SM CLR 27/07 A3036 7430 27 10400 VRB/06 RMK AO2 T02670067
93073KASE ASE20160723105013007/23/16 10:50:31  5-MIN KASE 231750Z VRB06KT 10SM CLR 27/07 A3036 7440 27 10400 VRB/06 RMK AO2 SLP142 T02670067 10267 20100 50002
93073KASE ASE20160723105510507/23/16 10:55:31  5-MIN KASE 231755Z 03006KT 10SM CLR 27/07 A3036 7440 27 10400 020/06 RMK AO2 T02670067
93073KASE ASE20160723110010507/23/16 11:00:31  5-MIN KASE 231800Z 04007KT 10SM CLR 27/07 A3036 7440 26 10500 030/07 RMK AO2 T02720067
93073KASE ASE20160723110510507/23/16 11:05:31  5-MIN KASE 231805Z 06008KT 10SM CLR 27/06 A3036 7440 25 10400 050/08 RMK AO2 T02670056
93073KASE ASE20160723111010507/23/16 11:10:31  5-MIN KASE 231810Z 05007KT 10SM CLR 27/06 A3036 7440 24 10500 040/07 RMK AO2 T02720056
93073KASE ASE20160723111510507/23/16 11:15:31  5-MIN KASE 231815Z VRB04KT 10SM CLR 28/06 A3035 7440 25 10500 VRB/04 RMK AO2 T02780061
93073KASE ASE20160723112010507/23/16 11:20:31  5-MIN KASE 231820Z 35006KT 10SM CLR 28/07 A3035 7440 26 10500 340/06 RMK AO2 T02780067
93073KASE ASE20160723112510507/23/16 11:25:31  5-MIN KASE 231825Z 02006KT 10SM CLR 27/06 A3035 7440 24 10500 010/06 RMK AO2 T02720056
93073KASE ASE20160723113010507/23/16 11:30:31  5-MIN KASE 231830Z VRB03KT 10SM CLR 27/06 A3035 7440 24 10500 VRB/03 RMK AO2 T02720056
93073KASE ASE20160723113510507/23/16 11:35:31  5-MIN KASE 231835Z VRB06KT 10SM CLR 27/06 A3035 7450 25 10400 VRB/06 RMK AO2 T02670056
93073KASE ASE20160723114010507/23/16 11:40:31  5-MIN KASE 231840Z 33007KT 10SM CLR 28/06 A3035 7450 25 10600 320/07 RMK AO2 T02780061
93073KASE ASE20160723114510507/23/16 11:45:31  5-MIN KASE 231845Z VRB06KT 10SM CLR 27/06 A3035 7450 25 10500 VRB/06 RMK AO2 T02720061
93073KASE ASE20160723115011507/23/16 11:50:31  5-MIN KASE 231850Z 04008KT 10SM SCT080 28/07 A3035 7450 25 10600 040/08 RMK AO2 SLP136 T02830067
93073KASE ASE20160723115510507/23/16 11:55:31  5-MIN KASE 231855Z 05005KT 10SM CLR 28/07 A3035 7450 26 10600 040/05 RMK AO2 T02780067
93073KASE ASE20160723120010507/23/16 12:00:31  5-MIN KASE 231900Z 06004KT 10SM CLR 28/06 A3034 7450 24 10600 050/04 RMK AO2 T02830061
93073KASE ASE20160723120510507/23/16 12:05:31  5-MIN KASE 231905Z 05007KT 10SM CLR 28/06 A3034 7460 25 10600 040/07 RMK AO2 T02780061
93073KASE ASE20160723121012107/23/16 12:10:31  5-MIN KASE 231910Z 33009KT 290V010 10SM CLR 28/06 A3034 7460 24 10600 320/09 280V360 RMK AO2 T02830061
93073KASE ASE20160723121510507/23/16 12:15:31  5-MIN KASE 231915Z VRB06KT 10SM CLR 28/07 A3034 7460 25 10600 VRB/06 RMK AO2 T02830067
93073KASE ASE20160723122010507/23/16 12:20:31  5-MIN KASE 231920Z VRB03KT 10SM CLR 28/06 A3034 7460 25 10600 VRB/03 RMK AO2 T02780061
93073KASE ASE20160723122510507/23/16 12:25:31  5-MIN KASE 231925Z VRB05KT 10SM CLR 28/06 A3033 7460 25 10600 VRB/05 RMK AO2 T02780061
93073KASE ASE20160723123010507/23/16 12:30:31  5-MIN KASE 231930Z 02006KT 10SM CLR 28/06 A3033 7460 24 10600 010/06 RMK AO2 T02830061
93073KASE ASE20160723123510507/23/16 12:35:31  5-MIN KASE 231935Z 03004KT 10SM CLR 28/06 A3033 7460 24 10600 020/04 RMK AO2 T02830061
93073KASE ASE20160723124010507/23/16 12:40:31  5-MIN KASE 231940Z 00000KT 10SM CLR 28/06 A3033 7470 24 10600 000/00 RMK AO2 T02780056
93073KASE ASE20160723124510507/23/16 12:45:31  5-MIN KASE 231945Z 00000KT 10SM CLR 27/06 A3033 7470 25 10500 000/00 RMK AO2 T02720061
93073KASE ASE20160723125011507/23/16 12:50:31  5-MIN KASE 231950Z 35008KT 10SM SCT110 27/06 A3033 7470 25 10500 350/08 RMK AO2 SLP136 T02720061
93073KASE ASE20160723125512207/23/16 12:55:31  5-MIN KASE 231955Z 28007KT 10SM FEW065 FEW090 SCT110 27/07 A3033 7460 27 10500 270/07 RMK AO2 T02670067
93073KASE ASE20160723130012207/23/16 13:00:31  5-MIN KASE 232000Z 26007KT 10SM FEW049 SCT090 SCT110 26/07 A3033 7470 29 10400 260/07 RMK AO2 T02610072
93073KASE ASE20160723130512207/23/16 13:05:31  5-MIN KASE 232005Z 27009KT 10SM FEW049 FEW090 SCT110 26/07 A3033 7470 29 10400 260/09 RMK AO2 T02610072
93073KASE ASE20160723131012207/23/16 13:10:31  5-MIN KASE 232010Z 24009KT 10SM FEW049 FEW090 FEW110 26/07 A3033 7470 29 10400 230/09 RMK AO2 T02610072
93073KASE ASE20160723131512207/23/16 13:15:31  5-MIN KASE 232015Z VRB04KT 10SM FEW049 FEW090 FEW110 27/06 A3033 7470 26 10500 VRB/04 RMK AO2 T02670061
93073KASE ASE20160723132010807/23/16 13:20:31  5-MIN KASE 232020Z 23007KT 10SM FEW049 27/07 A3033 7470 27 10500 220/07 RMK AO2 T02670067
93073KASE ASE20160723132510507/23/16 13:25:31  5-MIN KASE 232025Z 23007KT 10SM CLR 26/06 A3033 7470 26 10400 220/07 RMK AO2 T02610056
93073KASE ASE20160723133010507/23/16 13:30:31  5-MIN KASE 232030Z 22008KT 10SM CLR 26/08 A3032 7470 32 10300 210/08 RMK AO2 T02560078
93073KASE ASE20160723133511707/23/16 13:35:31  5-MIN KASE 232035Z 23008KT 10SM CLR 26/10 A3033 7470 37 10300 220/08 RMK AO2 LTG DSNT SW T02560100
93073KASE ASE20160723134011707/23/16 13:40:31  5-MIN KASE 232040Z 22009KT 10SM CLR 27/08 A3032 7470 31 10500 210/09 RMK AO2 LTG DSNT SW T02670083
93073KASE ASE20160723134511707/23/16 13:45:31  5-MIN KASE 232045Z 21007KT 10SM CLR 27/09 A3032 7470 33 10500 200/07 RMK AO2 LTG DSNT SW T02670094
93073KASE ASE20160723135012107/23/16 13:50:31  5-MIN KASE 232050Z 20004KT 10SM SCT070 27/09 A3032 7470 31 10500 190/04 RMK AO2 SLP133 T02720089 58009
93073KASE ASE20160723135510807/23/16 13:55:31  5-MIN KASE 232055Z 19005KT 10SM SCT110 28/08 A3032 7480 29 10600 180/05 RMK AO2 T02780083
93073KASE ASE20160723140010807/23/16 14:00:31  5-MIN KASE 232100Z 19006KT 10SM FEW110 28/08 A3031 7480 27 10700 180/06 RMK AO2 T02830078
93073KASE ASE20160723140511507/23/16 14:05:31  5-MIN KASE 232105Z 22006KT 10SM FEW080 SCT110 28/08 A3031 7480 28 10600 210/06 RMK AO2 T02780078
93073KASE ASE20160723141012107/23/16 14:10:31  5-MIN KASE 232110Z 24009G14KT 10SM FEW085 SCT110 28/08 A3031 7480 27 10700 230/09G14 RMK AO2 T02830078
93073KASE ASE20160723141512107/23/16 14:15:31  5-MIN KASE 232115Z VRB05G14KT 10SM SCT085 BKN110 28/07 A3031 7490 25 10700 VRB/05G14 RMK AO2 T02830067
93073KASE ASE20160723142011507/23/16 14:20:31  5-MIN KASE 232120Z 34006KT 10SM FEW085 SCT110 29/07 A3031 7480 24 10700 330/06 RMK AO2 T02890067
93073KASE ASE20160723142511407/23/16 14:25:31  5-MIN KASE 232125Z 33012G17KT 10SM SCT085 28/07 A3031 7490 27 10600 320/12G17 RMK AO2 T02780072
93073KASE ASE20160723143011407/23/16 14:30:31  5-MIN KASE 232130Z 33013G19KT 10SM BKN085 28/08 A3031 7480 27 10700 320/13G19 RMK AO2 T02830078
93073KASE ASE20160723143511507/23/16 14:35:31  5-MIN KASE 232135Z 34011KT 10SM SCT085 BKN110 29/07 A3031 7480 25 10700 330/11 RMK AO2 T02890072
93073KASE ASE20160723144011507/23/16 14:40:31  5-MIN KASE 232140Z 35010KT 10SM FEW090 SCT110 29/07 A3031 7480 24 10700 340/10 RMK AO2 T02890067
93073KASE ASE20160723144511507/23/16 14:45:31  5-MIN KASE 232145Z 35011KT 10SM FEW085 FEW110 29/06 A3031 7480 22 10800 340/11 RMK AO2 T02940061
93073KASE ASE20160723145012207/23/16 14:50:31  5-MIN KASE 232150Z 35011KT 10SM FEW085 FEW110 29/05 A3031 7490 21 10700 340/11 RMK AO2 SLP122 T02890050
93073KASE ASE20160723145511507/23/16 14:55:31  5-MIN KASE 232155Z 35010KT 10SM FEW090 FEW110 29/04 A3030 7490 20 10700 340/10 RMK AO2 T02890044
93073KASE ASE20160723150011107/23/16 15:00:31  5-MIN KASE 232200Z 34013G17KT 10SM CLR 29/04 A3030 7490 20 10700 330/13G17 RMK AO2 T02890039
93073KASE ASE20160723150510507/23/16 15:05:31  5-MIN KASE 232205Z 35011KT 10SM CLR 28/03 A3030 7490 19 10600 340/11 RMK AO2 T02780028
93073KASE ASE20160723151010507/23/16 15:10:31  5-MIN KASE 232210Z 34010KT 10SM CLR 27/03 A3030 7490 20 10500 330/10 RMK AO2 T02720028
93073KASE ASE20160723151511107/23/16 15:15:31  5-MIN KASE 232215Z 34009G18KT 10SM CLR 27/03 A3031 7490 20 10500 330/09G18 RMK AO2 T02720028
93073KASE ASE20160723152010507/23/16 15:20:31  5-MIN KASE 232220Z 35006KT 10SM CLR 27/03 A3030 7490 21 10500 340/06 RMK AO2 T02670028
93073KASE ASE20160723152510507/23/16 15:25:31  5-MIN KASE 232225Z 35008KT 10SM CLR 27/03 A3030 7490 20 10500 340/08 RMK AO2 T02720028
93073KASE ASE20160723153010507/23/16 15:30:31  5-MIN KASE 232230Z 33008KT 10SM CLR 27/02 A3030 7490 19 10500 320/08 RMK AO2 T02720022
93073KASE ASE20160723153510507/23/16 15:35:31  5-MIN KASE 232235Z 35008KT 10SM CLR 28/02 A3030 7490 17 10700 340/08 RMK AO2 T02830017
93073KASE ASE20160723154011107/23/16 15:40:31  5-MIN KASE 232240Z 36010G16KT 10SM CLR 28/02 A3030 7490 18 10700 350/10G16 RMK AO2 T02830022
93073KASE ASE20160723154511107/23/16 15:45:31  5-MIN KASE 232245Z 33007G16KT 10SM CLR 29/02 A3030 7490 17 10700 320/07G16 RMK AO2 T02890017
93073KASE ASE20160723155012107/23/16 15:50:31  5-MIN KASE 232250Z 32009G22KT 10SM FEW080 29/03 A3030 7490 18 10700 310/09G22 RMK AO2 SLP123 T02890028
93073KASE ASE20160723155511107/23/16 15:55:31  5-MIN KASE 232255Z 32007G22KT 10SM CLR 28/02 A3030 7490 17 10700 310/07G22 RMK AO2 T02830017
93073KASE ASE20160723160012707/23/16 16:00:31  5-MIN KASE 232300Z 32009G15KT 270V340 10SM CLR 29/02 A3030 7490 17 10700 310/09G15 260V330 RMK AO2 T02890022
93073KASE ASE20160723160510507/23/16 16:05:31  5-MIN KASE 232305Z 34012KT 10SM CLR 29/01 A3030 7490 15 10700 330/12 RMK AO2 T02890006
93073KASE ASE20160723161011107/23/16 16:10:31  5-MIN KASE 232310Z 34009G16KT 10SM CLR 28/00 A3030 7490 15 10700 330/09G16 RMK AO2 T02830000
93073KASE ASE20160723161511207/23/16 16:15:31  5-MIN KASE 232315Z 35010G16KT 10SM CLR 28/M01 A3030 7490 15 10700 340/10G16 RMK AO2 T02831006
93073KASE ASE20160723162010507/23/16 16:20:31  5-MIN KASE 232320Z 35007KT 10SM CLR 29/00 A3030 7490 15 10700 340/07 RMK AO2 T02890000
93073KASE ASE20160723162510507/23/16 16:25:31  5-MIN KASE 232325Z 32006KT 10SM CLR 28/01 A3029 7500 17 10700 310/06 RMK AO2 T02830011
93073KASE ASE20160723163010507/23/16 16:30:31  5-MIN KASE 232330Z 32009KT 10SM CLR 28/00 A3029 7500 16 10600 310/09 RMK AO2 T02780000
93073KASE ASE20160723163510507/23/16 16:35:31  5-MIN KASE 232335Z 35006KT 10SM CLR 28/01 A3029 7500 17 10600 340/06 RMK AO2 T02780011
93073KASE ASE20160723164010507/23/16 16:40:31  5-MIN KASE 232340Z 35009KT 10SM CLR 28/02 A3029 7500 18 10600 340/09 RMK AO2 T02780017
93073KASE ASE20160723164510507/23/16 16:45:31  5-MIN KASE 232345Z 33007KT 10SM CLR 28/02 A3029 7500 18 10700 320/07 RMK AO2 T02830022
93073KASE ASE20160723165013007/23/16 16:50:31  5-MIN KASE 232350Z 34007KT 10SM CLR 28/03 A3028 7510 19 10700 330/07 RMK AO2 SLP120 T02830028 10294 20256 56010
93073KASE ASE20160723165510507/23/16 16:55:31  5-MIN KASE 232355Z 36008KT 10SM CLR 28/02 A3028 7510 19 10600 350/08 RMK AO2 T02780022
93073KASE ASE20160723170010507/23/16 17:00:31  5-MIN KASE 240000Z 34006KT 10SM CLR 27/03 A3028 7510 20 10600 330/06 RMK AO2 T02720028
93073KASE ASE20160723170510507/23/16 17:05:31  5-MIN KASE 240005Z 33004KT 10SM CLR 27/03 A3028 7510 21 10500 320/04 RMK AO2 T02670028
93073KASE ASE20160723171010507/23/16 17:10:31  5-MIN KASE 240010Z 36004KT 10SM CLR 27/04 A3028 7510 22 10600 350/04 RMK AO2 T02720039
93073KASE ASE20160723171510507/23/16 17:15:31  5-MIN KASE 240015Z 35004KT 10SM CLR 28/04 A3028 7510 20 10700 350/04 RMK AO2 T02830039
93073KASE ASE20160723172010507/23/16 17:20:31  5-MIN KASE 240020Z 00000KT 10SM CLR 28/03 A3028 7510 20 10700 000/00 RMK AO2 T02830033
93073KASE ASE20160723172510507/23/16 17:25:31  5-MIN KASE 240025Z 34005KT 10SM CLR 28/03 A3028 7510 19 10600 330/05 RMK AO2 T02780028
93073KASE ASE20160723173010507/23/16 17:30:31  5-MIN KASE 240030Z 36005KT 10SM CLR 28/03 A3028 7510 20 10600 350/05 RMK AO2 T02780033
93073KASE ASE20160723173510507/23/16 17:35:31  5-MIN KASE 240035Z 02004KT 10SM CLR 28/04 A3028 7510 21 10600 010/04 RMK AO2 T02780039
93073KASE ASE20160723174010507/23/16 17:40:31  5-MIN KASE 240040Z VRB03KT 10SM CLR 27/03 A3028 7510 21 10600 VRB/03 RMK AO2 T02720033
93073KASE ASE20160723174510507/23/16 17:45:31  5-MIN KASE 240045Z 29003KT 10SM CLR 27/04 A3028 7510 23 10500 280/03 RMK AO2 T02670044
93073KASE ASE20160723175011207/23/16 17:50:31  5-MIN KASE 240050Z 00000KT 10SM CLR 26/03 A3028 7510 22 10500 000/00 RMK AO2 SLP123 T02610033
93073KASE ASE20160723175510507/23/16 17:55:31  5-MIN KASE 240055Z 26003KT 10SM CLR 26/06 A3027 7510 28 10400 260/03 RMK AO2 T02560061
93073KASE ASE20160723180010507/23/16 18:00:31  5-MIN KASE 240100Z 30003KT 10SM CLR 24/09 A3027 7520 36 10300 290/03 RMK AO2 T02440089
93073KASE ASE20160723180510507/23/16 18:05:31  5-MIN KASE 240105Z 00000KT 10SM CLR 25/06 A3027 7510 29 10300 000/00 RMK AO2 T02500061
93073KASE ASE20160723181010507/23/16 18:10:31  5-MIN KASE 240110Z 00000KT 10SM CLR 23/09 A3027 7510 40 10100 000/00 RMK AO2 T02280089
93073KASE ASE20160723181510507/23/16 18:15:31  5-MIN KASE 240115Z 20003KT 10SM CLR 23/08 A3027 7510 39 10100 190/03 RMK AO2 T02280083
93073KASE ASE20160723182010507/23/16 18:20:31  5-MIN KASE 240120Z 21006KT 10SM CLR 23/10 A3027 7520 44 10100 210/06 RMK AO2 T02280100
93073KASE ASE20160723182510507/23/16 18:25:31  5-MIN KASE 240125Z 21005KT 10SM CLR 23/09 A3028 7510 40 10100 200/05 RMK AO2 T02280089
93073KASE ASE20160723183010507/23/16 18:30:31  5-MIN KASE 240130Z VRB04KT 10SM CLR 22/10 A3028 7510 45 10000 VRB/04 RMK AO2 T02220100
93073KASE ASE20160723183510507/23/16 18:35:31  5-MIN KASE 240135Z 00000KT 10SM CLR 23/09 A3028 7510 42 10100 000/00 RMK AO2 T02280094
93073KASE ASE20160723184010507/23/16 18:40:31  5-MIN KASE 240140Z 00000KT 10SM CLR 24/08 A3028 7510 36 10200 000/00 RMK AO2 T02390083
93073KASE ASE20160723184510507/23/16 18:45:31  5-MIN KASE 240145Z 00000KT 10SM CLR 24/07 A3028 7510 33 10300 000/00 RMK AO2 T02440072
93073KASE ASE20160723185011207/23/16 18:50:31  5-MIN KASE 240150Z 00000KT 10SM CLR 23/07 A3028 7510 35 10200 000/00 RMK AO2 SLP120 T02330072
93073KASE ASE20160723185511007/23/16 18:55:31  5-MIN KASE 240155Z AUTO 00000KT 10SM CLR 22/09 A3028 7510 43 10000 000/00 RMK AO2 T02170089
93073KASE ASE20160723190011007/23/16 19:00:31  5-MIN KASE 240200Z AUTO 20003KT 10SM CLR 22/09 A3028 7510 45 10000 190/03 RMK AO2 T02170094
93073KASE ASE20160723190510907/23/16 19:05:31  5-MIN KASE 240205Z AUTO 20003KT 10SM CLR 21/10 A3028 7510 50 9900 190/03 RMK AO2 T02060100
93073KASE ASE20160723191010907/23/16 19:10:31  5-MIN KASE 240210Z AUTO 19005KT 10SM CLR 21/10 A3028 7510 50 9900 180/05 RMK AO2 T02060100
93073KASE ASE20160723191510907/23/16 19:15:31  5-MIN KASE 240215Z AUTO 19006KT 10SM CLR 21/09 A3028 7510 47 9900 180/06 RMK AO2 T02110094
93073KASE ASE20160723192010907/23/16 19:20:31  5-MIN KASE 240220Z AUTO 21006KT 10SM CLR 21/08 A3028 7510 43 9900 200/06 RMK AO2 T02110083
93073KASE ASE20160723192510907/23/16 19:25:31  5-MIN KASE 240225Z AUTO 21007KT 10SM CLR 21/08 A3028 7510 45 9900 200/07 RMK AO2 T02060083
93073KASE ASE20160723193010907/23/16 19:30:31  5-MIN KASE 240230Z AUTO 21007KT 10SM CLR 20/08 A3029 7500 46 9800 200/07 RMK AO2 T02000083
93073KASE ASE20160723193510907/23/16 19:35:31  5-MIN KASE 240235Z AUTO 20005KT 10SM CLR 19/09 A3029 7500 50 9700 190/05 RMK AO2 T01940089
93073KASE ASE20160723194010907/23/16 19:40:31  5-MIN KASE 240240Z AUTO 20005KT 10SM CLR 19/08 A3028 7510 48 9700 190/05 RMK AO2 T01940083
93073KASE ASE20160723194510907/23/16 19:45:31  5-MIN KASE 240245Z AUTO 20006KT 10SM CLR 19/08 A3029 7500 48 9700 190/06 RMK AO2 T01940083
93073KASE ASE20160723195012207/23/16 19:50:31  5-MIN KASE 240250Z AUTO 20005KT 10SM CLR 19/08 A3029 7500 48 9700 190/05 RMK AO2 SLP128 T01890078 57009
93073KASE ASE20160723195510907/23/16 19:55:31  5-MIN KASE 240255Z AUTO 21007KT 10SM CLR 19/07 A3029 7500 44 9700 200/07 RMK AO2 T01940072
93073KASE ASE20160723200010907/23/16 20:00:31  5-MIN KASE 240300Z AUTO 21006KT 10SM CLR 19/07 A3029 7500 44 9700 200/06 RMK AO2 T01940072
93073KASE ASE20160723200510907/23/16 20:05:31  5-MIN KASE 240305Z AUTO 20005KT 10SM CLR 18/08 A3029 7500 50 9600 200/05 RMK AO2 T01830078
93073KASE ASE20160723201010907/23/16 20:10:31  5-MIN KASE 240310Z AUTO 19007KT 10SM CLR 18/08 A3029 7500 50 9600 180/07 RMK AO2 T01830078
93073KASE ASE20160723201510907/23/16 20:15:31  5-MIN KASE 240315Z AUTO 19007KT 10SM CLR 19/07 A3029 7500 46 9700 180/07 RMK AO2 T01890072
93073KASE ASE20160723202010907/23/16 20:20:31  5-MIN KASE 240320Z AUTO 20006KT 10SM CLR 18/07 A3030 7490 48 9600 190/06 RMK AO2 T01830072
93073KASE ASE20160723202510907/23/16 20:25:31  5-MIN KASE 240325Z AUTO 21006KT 10SM CLR 18/07 A3030 7490 49 9500 200/06 RMK AO2 T01780072
93073KASE ASE20160723203010907/23/16 20:30:31  5-MIN KASE 240330Z AUTO 22009KT 10SM CLR 18/07 A3030 7490 49 9500 210/09 RMK AO2 T01780072
93073KASE ASE20160723203510907/23/16 20:35:31  5-MIN KASE 240335Z AUTO 21008KT 10SM CLR 17/07 A3030 7490 51 9500 200/08 RMK AO2 T01720072
93073KASE ASE20160723204010907/23/16 20:40:31  5-MIN KASE 240340Z AUTO 21008KT 10SM CLR 18/07 A3030 7490 48 9500 200/08 RMK AO2 T01780067
93073KASE ASE20160723204510907/23/16 20:45:31  5-MIN KASE 240345Z AUTO 21007KT 10SM CLR 18/07 A3031 7490 48 9500 200/07 RMK AO2 T01780067
93073KASE ASE20160723205011607/23/16 20:50:31  5-MIN KASE 240350Z AUTO 22008KT 10SM CLR 17/07 A3031 7480 51 9400 210/08 RMK AO2 SLP133 T01670067
93073KASE ASE20160723205510907/23/16 20:55:31  5-MIN KASE 240355Z AUTO 21008KT 10SM CLR 17/07 A3031 7480 51 9400 200/08 RMK AO2 T01670067
93073KASE ASE20160723210010907/23/16 21:00:31  5-MIN KASE 240400Z AUTO 22008KT 10SM CLR 17/07 A3031 7480 51 9400 210/08 RMK AO2 T01670067
93073KASE ASE20160723210510907/23/16 21:05:31  5-MIN KASE 240405Z AUTO 21006KT 10SM CLR 17/06 A3032 7480 47 9500 200/06 RMK AO2 T01720061
93073KASE ASE20160723211010907/23/16 21:10:31  5-MIN KASE 240410Z AUTO 21006KT 10SM CLR 17/06 A3032 7480 47 9500 200/06 RMK AO2 T01720061
93073KASE ASE20160723211510907/23/16 21:15:31  5-MIN KASE 240415Z AUTO 21006KT 10SM CLR 17/06 A3032 7480 49 9400 200/06 RMK AO2 T01670061
93073KASE ASE20160723212010907/23/16 21:20:31  5-MIN KASE 240420Z AUTO 22007KT 10SM CLR 16/07 A3032 7470 53 9300 210/07 RMK AO2 T01610067
93073KASE ASE20160723212510907/23/16 21:25:31  5-MIN KASE 240425Z AUTO 20006KT 10SM CLR 16/07 A3032 7470 53 9300 190/06 RMK AO2 T01610067
93073KASE ASE20160723213010907/23/16 21:30:31  5-MIN KASE 240430Z AUTO 21007KT 10SM CLR 17/07 A3032 7470 51 9400 200/07 RMK AO2 T01670067
93073KASE ASE20160723213510907/23/16 21:35:31  5-MIN KASE 240435Z AUTO 20005KT 10SM CLR 16/06 A3032 7470 51 9300 190/05 RMK AO2 T01610061
93073KASE ASE20160723214010907/23/16 21:40:31  5-MIN KASE 240440Z AUTO 22007KT 10SM CLR 16/07 A3032 7470 53 9300 210/07 RMK AO2 T01610067
93073KASE ASE20160723214510907/23/16 21:45:31  5-MIN KASE 240445Z AUTO 19004KT 10SM CLR 16/07 A3032 7470 53 9300 180/04 RMK AO2 T01610067
93073KASE ASE20160723215011607/23/16 21:50:31  5-MIN KASE 240450Z AUTO 20005KT 10SM CLR 16/07 A3033 7470 55 9300 190/05 RMK AO2 SLP134 T01560067
93073KASE ASE20160723215510907/23/16 21:55:31  5-MIN KASE 240455Z AUTO 21007KT 10SM CLR 16/06 A3033 7470 51 9300 200/07 RMK AO2 T01610061
93073KASE ASE20160723220010907/23/16 22:00:31  5-MIN KASE 240500Z AUTO 20008KT 10SM CLR 16/06 A3033 7470 51 9300 190/08 RMK AO2 T01610061
93073KASE ASE20160723220510907/23/16 22:05:31  5-MIN KASE 240505Z AUTO 21009KT 10SM CLR 16/07 A3033 7470 55 9300 200/09 RMK AO2 T01560067
93073KASE ASE20160723221010907/23/16 22:10:31  5-MIN KASE 240510Z AUTO 22008KT 10SM CLR 16/06 A3033 7470 53 9300 210/08 RMK AO2 T01560061
93073KASE ASE20160723221510907/23/16 22:15:31  5-MIN KASE 240515Z AUTO 21009KT 10SM CLR 16/06 A3033 7470 49 9300 200/09 RMK AO2 T01610056
93073KASE ASE20160723222010907/23/16 22:20:31  5-MIN KASE 240520Z AUTO 21007KT 10SM CLR 17/06 A3033 7460 47 9400 200/07 RMK AO2 T01670056
93073KASE ASE20160723222510907/23/16 22:25:31  5-MIN KASE 240525Z AUTO 20006KT 10SM CLR 16/06 A3033 7470 49 9300 190/06 RMK AO2 T01610056
93073KASE ASE20160723223010907/23/16 22:30:31  5-MIN KASE 240530Z AUTO 22007KT 10SM CLR 16/06 A3033 7470 53 9300 210/07 RMK AO2 T01560061
93073KASE ASE20160723223510907/23/16 22:35:31  5-MIN KASE 240535Z AUTO 22007KT 10SM CLR 16/06 A3033 7470 53 9300 210/07 RMK AO2 T01560061
93073KASE ASE20160723224010907/23/16 22:40:31  5-MIN KASE 240540Z AUTO 19005KT 10SM CLR 16/06 A3033 7470 49 9300 180/05 RMK AO2 T01610056
93073KASE ASE20160723224510907/23/16 22:45:31  5-MIN KASE 240545Z AUTO 20007KT 10SM CLR 16/06 A3033 7470 49 9300 200/07 RMK AO2 T01610056
93073KASE ASE20160723225013407/23/16 22:50:31  5-MIN KASE 240550Z AUTO 20005KT 10SM CLR 16/06 A3033 7470 49 9300 190/05 RMK AO2 SLP125 T01610056 10283 20156 53002
93073KASE ASE20160723225510907/23/16 22:55:31  5-MIN KASE 240555Z AUTO 20008KT 10SM CLR 16/06 A3032 7470 49 9300 190/08 RMK AO2 T01610056
93073KASE ASE20160723230010907/23/16 23:00:31  5-MIN KASE 240600Z AUTO 21007KT 10SM CLR 15/06 A3032 7470 55 9200 200/07 RMK AO2 T01500061
93073KASE ASE20160723230510907/23/16 23:05:31  5-MIN KASE 240605Z AUTO 22006KT 10SM CLR 16/06 A3032 7470 51 9300 210/06 RMK AO2 T01560056
93073KASE ASE20160723231010907/23/16 23:10:31  5-MIN KASE 240610Z AUTO 20005KT 10SM CLR 16/06 A3033 7470 49 9300 190/05 RMK AO2 T01610056
93073KASE ASE20160723231510907/23/16 23:15:31  5-MIN KASE 240615Z AUTO 21005KT 10SM CLR 16/05 A3032 7470 47 9300 200/05 RMK AO2 T01610050
93073KASE ASE20160723232010907/23/16 23:20:31  5-MIN KASE 240620Z AUTO 22006KT 10SM CLR 16/06 A3032 7470 51 9300 210/06 RMK AO2 T01560056
93073KASE ASE20160723232510907/23/16 23:25:31  5-MIN KASE 240625Z AUTO 23004KT 10SM CLR 16/06 A3032 7470 49 9300 220/04 RMK AO2 T01610056
93073KASE ASE20160723233010907/23/16 23:30:31  5-MIN KASE 240630Z AUTO 21004KT 10SM CLR 14/06 A3033 7470 59 9100 200/04 RMK AO2 T01390061
93073KASE ASE20160723233510907/23/16 23:35:31  5-MIN KASE 240635Z AUTO 19003KT 10SM CLR 14/06 A3033 7470 57 9100 180/03 RMK AO2 T01440061
93073KASE ASE20160723234010907/23/16 23:40:31  5-MIN KASE 240640Z AUTO 20004KT 10SM CLR 14/07 A3033 7470 59 9100 190/04 RMK AO2 T01440067
93073KASE ASE20160723234512007/23/16 23:45:31  5-MIN KASE 240645Z AUTO 20005KT 10SM CLR 13/07 A3033 7470 64 9000 190/05 RMK AO2 LTG DSNT W T01330067
93073KASE ASE20160723235013707/23/16 23:50:31  5-MIN KASE 240650Z AUTO 21004KT 10SM CLR 13/07 A3033 7470 64 9000 200/04 RMK AO2 LTG DSNT W SLP129 T01330067 402940094
93073KASE ASE20160723235512007/23/16 23:55:31  5-MIN KASE 240655Z AUTO 22003KT 10SM CLR 13/07 A3033 7470 66 9000 220/03 RMK AO2 LTG DSNT W T01280067
93073KASE ASE20160724000012007/24/16 00:00:31  5-MIN KASE 240700Z AUTO 22005KT 10SM CLR 12/07 A3032 7470 68 8900 210/05 RMK AO2 LTG DSNT W T01220067
93073KASE ASE20160724000512007/24/16 00:05:31  5-MIN KASE 240705Z AUTO 23008KT 10SM CLR 13/07 A3033 7470 66 8900 220/08 RMK AO2 LTG DSNT W T01280067
93073KASE ASE20160724001012307/24/16 00:10:31  5-MIN KASE 240710Z AUTO 00000KT 10SM FEW110 13/07 A3033 7460 64 9000 000/00 RMK AO2 LTG DSNT W T01330067
93073KASE ASE20160724001512307/24/16 00:15:31  5-MIN KASE 240715Z AUTO 00000KT 10SM FEW110 13/06 A3034 7460 61 9000 000/00 RMK AO2 LTG DSNT W T01330061
93073KASE ASE20160724002012307/24/16 00:20:31  5-MIN KASE 240720Z AUTO 19003KT 10SM SCT110 13/06 A3034 7460 61 9000 180/03 RMK AO2 LTG DSNT W T01330061
93073KASE ASE20160724002512307/24/16 00:25:31  5-MIN KASE 240725Z AUTO 21005KT 10SM BKN110 12/07 A3034 7460 68 8900 200/05 RMK AO2 LTG DSNT W T01220067
93073KASE ASE20160724003012307/24/16 00:30:31  5-MIN KASE 240730Z AUTO 21007KT 10SM SCT110 13/07 A3034 7460 66 8900 200/07 RMK AO2 LTG DSNT W T01280067
93073KASE ASE20160724003511207/24/16 00:35:31  5-MIN KASE 240735Z AUTO 22008KT 10SM SCT110 13/07 A3034 7460 64 9000 210/08 RMK AO2 T01330067
93073KASE ASE20160724004011207/24/16 00:40:31  5-MIN KASE 240740Z AUTO 22010KT 10SM BKN100 14/06 A3034 7450 59 9100 210/10 RMK AO2 T01390061
93073KASE ASE20160724004511207/24/16 00:45:31  5-MIN KASE 240745Z AUTO 21009KT 10SM BKN100 14/06 A3035 7440 59 9000 200/09 RMK AO2 T01390061
93073KASE ASE20160724005016007/24/16 00:50:31  5-MIN KASE 240750Z AUTO 02009KT 290V030 10SM BKN100 14/06 A3036 7430 57 9100 010/09 280V020 RMK AO2 LTG DSNT SW AND W PRESRR SLP142 T01440061
93073KASE ASE20160724005513007/24/16 00:55:31  5-MIN KASE 240755Z AUTO 02006KT 10SM BKN100 14/07 A3037 7430 59 9100 010/06 RMK AO2 LTG DSNT SW AND W T01440067
93073KASE ASE20160724010013507/24/16 01:00:31  5-MIN KASE 240800Z AUTO 29003KT 10SM VCTS OVC100 15/06 A3037 7420 55 9100 280/03 RMK AO2 LTG DSNT SW AND W T01500061
93073KASE ASE20160724010512807/24/16 01:05:31  5-MIN KASE 240805Z AUTO 31008KT 10SM TS OVC100 14/07 A3039 7410 59 9100 300/08 RMK AO2 TSB04 PRESRR T01440067
93073KASE ASE20160724011015007/24/16 01:10:31  5-MIN KASE 240810Z AUTO 31008KT 10SM -TSRA FEW070 OVC095 15/06 A3040 7400 55 9100 300/08 RMK AO2 RAB06 TSB04 PRESRR P0000 T01500061
93073KASE ASE20160724011515707/24/16 01:15:31  5-MIN KASE 240815Z AUTO VRB05KT 10SM -TSRA FEW050 SCT070 OVC095 14/07 A3040 7400 61 9000 VRB/05 RMK AO2 RAB06 TSB04 PRESRR P0000 T01440072
93073KASE ASE20160724012015607/24/16 01:20:31  5-MIN KASE 240820Z AUTO 30004KT 10SM VCTS -RA FEW050 BKN070 OVC095 14/08 A3040 7400 66 9000 300/04 RMK AO2 RAB06 TSB04E19 P0000 T01390078
93073KASE ASE20160724012515607/24/16 01:25:31  5-MIN KASE 240825Z AUTO 28003KT 10SM VCTS -RA FEW050 BKN075 OVC090 14/08 A3040 7400 66 9000 270/03 RMK AO2 RAB06 TSB04E19 P0000 T01390078
93073KASE ASE20160724013017407/24/16 01:30:31  5-MIN KASE 240830Z AUTO 27005KT 10SM VCTS -RA FEW050 BKN075 OVC090 14/08 A3039 7410 69 9000 260/05 RMK AO2 LTG DSNT E AND SW RAB06 TSB04E19 P0000 T01390083
93073KASE ASE20160724013517407/24/16 01:35:31  5-MIN KASE 240835Z AUTO VRB03KT 10SM VCTS -RA FEW050 BKN075 OVC110 16/07 A3039 7410 57 9200 VRB/03 RMK AO2 LTG DSNT E AND SW RAB06 TSB04E19 P0000 T01560072
93073KASE ASE20160724014016907/24/16 01:40:31  5-MIN KASE 240840Z AUTO 15004KT 10SM -RA SCT050 BKN075 OVC110 14/08 A3039 7410 66 9100 140/04 RMK AO2 LTG DSNT E AND SW RAB06 TSB04E19 P0000 T01440083
93073KASE ASE20160724014515107/24/16 01:45:31  5-MIN KASE 240845Z AUTO 18007KT 10SM -RA FEW048 BKN075 BKN110 13/09 A3039 7410 74 8900 180/07 RMK AO2 RAB06 TSB04E19 P0000 T01330089
93073KASE ASE20160724015018007/24/16 01:50:31  5-MIN KASE 240850Z AUTO 20005KT 10SM FEW050 SCT075 SCT110 13/09 A3039 7410 77 8900 190/05 RMK AO2 LTG DSNT S RAB06E49 TSB04E19 SLP156 P0000 60000 T01280089 50010
93073KASE ASE20160724015513707/24/16 01:55:31  5-MIN KASE 240855Z AUTO 20007KT 10SM FEW050 FEW080 SCT110 13/09 A3039 7410 77 8900 190/07 RMK AO2 LTG DSNT S T01280089
93073KASE ASE20160724020013007/24/16 02:00:31  5-MIN KASE 240900Z AUTO 21007KT 10SM FEW048 FEW110 13/09 A3038 7420 74 8900 200/07 RMK AO2 LTG DSNT S T01330089
93073KASE ASE20160724020512607/24/16 02:05:31  5-MIN KASE 240905Z AUTO 19007KT 10SM CLR 13/09 A3038 7420 77 8900 180/07 RMK AO2 LTG DSNT E AND S T01280089
93073KASE ASE20160724021012307/24/16 02:10:31  5-MIN KASE 240910Z AUTO 19006KT 10SM CLR 12/09 A3038 7420 83 8800 180/06 RMK AO2 LTG DSNT NE-S T01220094
93073KASE ASE20160724021512307/24/16 02:15:31  5-MIN KASE 240915Z AUTO 15007KT 10SM CLR 13/09 A3038 7420 74 9000 140/07 RMK AO2 LTG DSNT NE-S T01330089
93073KASE ASE20160724022012707/24/16 02:20:31  5-MIN KASE 240920Z AUTO VRB06KT 10SM CLR 13/09 A3037 7430 74 9000 VRB/06 RMK AO2 LTG DSNT NE AND E T01330089
93073KASE ASE20160724022512007/24/16 02:25:31  5-MIN KASE 240925Z AUTO 17007KT 10SM CLR 13/09 A3037 7430 80 8900 160/07 RMK AO2 LTG DSNT E T01280094
93073KASE ASE20160724023012007/24/16 02:30:31  5-MIN KASE 240930Z AUTO 17006KT 10SM CLR 14/09 A3037 7430 74 9000 160/06 RMK AO2 LTG DSNT E T01390094
93073KASE ASE20160724023510907/24/16 02:35:31  5-MIN KASE 240935Z AUTO 15006KT 10SM CLR 14/09 A3037 7430 71 9000 140/06 RMK AO2 T01390089
93073KASE ASE20160724024010907/24/16 02:40:31  5-MIN KASE 240940Z AUTO 16005KT 10SM CLR 14/09 A3037 7430 71 9000 150/05 RMK AO2 T01390089
93073KASE ASE20160724024510907/24/16 02:45:31  5-MIN KASE 240945Z AUTO 13006KT 10SM CLR 14/09 A3037 7430 71 9000 130/06 RMK AO2 T01390089
93073KASE ASE20160724025011607/24/16 02:50:31  5-MIN KASE 240950Z AUTO 13007KT 10SM CLR 14/09 A3036 7440 71 9000 120/07 RMK AO2 SLP139 T01390089
93073KASE ASE20160724025510907/24/16 02:55:31  5-MIN KASE 240955Z AUTO 13007KT 10SM CLR 14/09 A3036 7440 71 9000 120/07 RMK AO2 T01390089
93073KASE ASE20160724030010907/24/16 03:00:31  5-MIN KASE 241000Z AUTO VRB05KT 10SM CLR 14/09 A3036 7440 71 9000 VRB/05 RMK AO2 T01390089
93073KASE ASE20160724030510907/24/16 03:05:31  5-MIN KASE 241005Z AUTO 00000KT 10SM CLR 13/09 A3036 7440 74 9000 000/00 RMK AO2 T01330089
93073KASE ASE20160724031010907/24/16 03:10:31  5-MIN KASE 241010Z AUTO 00000KT 10SM CLR 13/09 A3036 7440 77 8900 000/00 RMK AO2 T01280089
93073KASE ASE20160724031510907/24/16 03:15:31  5-MIN KASE 241015Z AUTO VRB04KT 10SM CLR 13/09 A3035 7440 74 9000 VRB/04 RMK AO2 T01330089
93073KASE ASE20160724032010907/24/16 03:20:31  5-MIN KASE 241020Z AUTO VRB05KT 10SM CLR 14/08 A3035 7440 69 9000 VRB/05 RMK AO2 T01390083
93073KASE ASE20160724032510907/24/16 03:25:31  5-MIN KASE 241025Z AUTO 22008KT 10SM CLR 12/08 A3035 7440 77 8900 210/08 RMK AO2 T01220083
93073KASE ASE20160724033010907/24/16 03:30:31  5-MIN KASE 241030Z AUTO 22008KT 10SM CLR 12/08 A3035 7440 80 8800 210/08 RMK AO2 T01170083
93073KASE ASE20160724033510907/24/16 03:35:31  5-MIN KASE 241035Z AUTO 21009KT 10SM CLR 12/08 A3035 7450 80 8800 200/09 RMK AO2 T01170083
93073KASE ASE20160724034010907/24/16 03:40:31  5-MIN KASE 241040Z AUTO 22009KT 10SM CLR 12/08 A3035 7450 80 8800 210/09 RMK AO2 T01170083
93073KASE ASE20160724034510907/24/16 03:45:31  5-MIN KASE 241045Z AUTO 21008KT 10SM CLR 11/08 A3035 7440 83 8700 210/08 RMK AO2 T01110083
93073KASE ASE20160724035011607/24/16 03:50:31  5-MIN KASE 241050Z AUTO 22008KT 10SM CLR 12/08 A3035 7440 80 8800 210/08 RMK AO2 SLP141 T01170083
93073KASE ASE20160724035510907/24/16 03:55:31  5-MIN KASE 241055Z AUTO 20006KT 10SM CLR 11/08 A3035 7450 83 8700 190/06 RMK AO2 T01110083
93073KASE ASE20160724040012507/24/16 04:00:31  5-MIN KASE 241100Z AUTO 19007KT 160V220 10SM CLR 12/08 A3035 7450 80 8800 180/07 150V210 RMK AO2 T01170083
93073KASE ASE20160724040510907/24/16 04:05:31  5-MIN KASE 241105Z AUTO 20005KT 10SM CLR 12/08 A3035 7450 77 8800 190/05 RMK AO2 T01170078
93073KASE ASE20160724041010907/24/16 04:10:31  5-MIN KASE 241110Z AUTO VRB04KT 10SM CLR 12/08 A3035 7450 77 8800 VRB/04 RMK AO2 T01170078
93073KASE ASE20160724041510907/24/16 04:15:31  5-MIN KASE 241115Z AUTO 20005KT 10SM CLR 11/08 A3036 7440 80 8700 190/05 RMK AO2 T01110078
93073KASE ASE20160724042010907/24/16 04:20:31  5-MIN KASE 241120Z AUTO 21007KT 10SM CLR 11/08 A3036 7440 80 8700 210/07 RMK AO2 T01110078
93073KASE ASE20160724042511207/24/16 04:25:31  5-MIN KASE 241125Z AUTO 22009KT 10SM SCT110 11/08 A3036 7440 80 8700 210/09 RMK AO2 T01110078
93073KASE ASE20160724043011207/24/16 04:30:31  5-MIN KASE 241130Z AUTO 22009KT 10SM SCT110 12/08 A3036 7440 77 8800 210/09 RMK AO2 T01170078
93073KASE ASE20160724043511207/24/16 04:35:31  5-MIN KASE 241135Z AUTO 24006KT 10SM BKN110 12/08 A3037 7430 77 8800 230/06 RMK AO2 T01170078
93073KASE ASE20160724044011207/24/16 04:40:31  5-MIN KASE 241140Z AUTO 31004KT 10SM BKN110 12/08 A3038 7420 74 8800 300/04 RMK AO2 T01220078
93073KASE ASE20160724044511907/24/16 04:45:31  5-MIN KASE 241145Z AUTO 34006KT 10SM BKN110 13/08 A3039 7410 71 8900 330/06 RMK AO2 PRESRR T01280078
93073KASE ASE20160724045014307/24/16 04:50:31  5-MIN KASE 241150Z AUTO 29005KT 10SM OVC100 13/08 A3040 7400 69 8900 290/05 RMK AO2 SLP154 60000 T01330078 10161 20111 53018
93073KASE ASE20160724045511907/24/16 04:55:31  5-MIN KASE 241155Z AUTO 00000KT 10SM OVC100 13/08 A3041 7390 71 8900 000/00 RMK AO2 PRESRR T01330083
93073KASE ASE20160724050011207/24/16 05:00:31  5-MIN KASE 241200Z AUTO 20005KT 10SM OVC100 13/08 A3041 7390 74 8900 190/05 RMK AO2 T01280083
93073KASE ASE20160724050511207/24/16 05:05:31  5-MIN KASE 241205Z AUTO 21005KT 10SM OVC100 13/08 A3041 7390 74 8900 200/05 RMK AO2 T01280083
93073KASE ASE20160724051011207/24/16 05:10:31  5-MIN KASE 241210Z AUTO 00000KT 10SM OVC100 13/09 A3042 7390 77 8800 000/00 RMK AO2 T01280089
93073KASE ASE20160724051511207/24/16 05:15:31  5-MIN KASE 241215Z AUTO 10004KT 10SM BKN100 13/08 A3041 7390 74 8900 090/04 RMK AO2 T01280083
93073KASE ASE20160724052011907/24/16 05:20:31  5-MIN KASE 241220Z AUTO VRB03KT 10SM FEW070 BKN100 13/08 A3042 7380 74 8800 VRB/03 RMK AO2 T01280083
93073KASE ASE20160724052514207/24/16 05:25:31  5-MIN KASE 241225Z AUTO 00000KT 10SM -RA FEW050 FEW070 OVC110 13/09 A3042 7380 77 8800 000/00 RMK AO2 RAB22 P0000 T01280089
93073KASE ASE20160724053014207/24/16 05:30:31  5-MIN KASE 241230Z AUTO 00000KT 10SM -RA FEW045 SCT080 OVC100 13/09 A3042 7380 77 8800 000/00 RMK AO2 RAB22 P0000 T01280089
93073KASE ASE20160724053514107/24/16 05:35:31  5-MIN KASE 241235Z AUTO 29003KT 10SM FEW040 FEW080 BKN100 12/09 A3043 7380 80 8800 280/03 RMK AO2 RAB22E35 P0000 T01220089
93073KASE ASE20160724054013407/24/16 05:40:31  5-MIN KASE 241240Z AUTO 33003KT 10SM FEW080 SCT100 12/09 A3043 7370 80 8800 320/03 RMK AO2 RAB22E35 P0000 T01220089
93073KASE ASE20160724054512907/24/16 05:45:31  5-MIN KASE 241245Z 35003KT 10SM FEW080 SCT100 12/09 A3044 7370 80 8800 340/03 RMK AO2 RAB22E35 P0000 T01220089
93073KASE ASE20160724055013607/24/16 05:50:31  5-MIN KASE 241250Z 17003KT 10SM FEW080 FEW100 12/09 A3043 7370 80 8800 160/03 RMK AO2 RAB22E35 SLP175 P0000 T01220089
93073KASE ASE20160724055510707/24/16 05:55:31  5-MIN KASE 241255Z 19005KT 10SM FEW085 12/08 A3044 7370 77 8800 180/05 RMK AO2 T01220083
93073KASE ASE20160724060010407/24/16 06:00:31  5-MIN KASE 241300Z 20007KT 10SM CLR 12/09 A3043 7370 83 8700 190/07 RMK AO2 T01170089
93073KASE ASE20160724060510407/24/16 06:05:31  5-MIN KASE 241305Z 21008KT 10SM CLR 12/09 A3043 7380 83 8700 200/08 RMK AO2 T01170089
93073KASE ASE20160724061010407/24/16 06:10:31  5-MIN KASE 241310Z 21008KT 10SM CLR 12/08 A3043 7380 80 8700 200/08 RMK AO2 T01170083
93073KASE ASE20160724061510407/24/16 06:15:31  5-MIN KASE 241315Z 15008KT 10SM CLR 13/09 A3042 7380 77 8800 140/08 RMK AO2 T01280089
93073KASE ASE20160724062010407/24/16 06:20:31  5-MIN KASE 241320Z 16010KT 10SM CLR 13/08 A3042 7390 71 8900 150/10 RMK AO2 T01330083
93073KASE ASE20160724062510407/24/16 06:25:31  5-MIN KASE 241325Z 16012KT 10SM CLR 14/08 A3042 7380 69 9000 150/12 RMK AO2 T01390083
93073KASE ASE20160724063010407/24/16 06:30:31  5-MIN KASE 241330Z 15011KT 10SM CLR 14/08 A3041 7390 69 9000 140/11 RMK AO2 T01390083
93073KASE ASE20160724063510407/24/16 06:35:31  5-MIN KASE 241335Z 15011KT 10SM CLR 14/08 A3041 7390 66 9000 140/11 RMK AO2 T01440083
93073KASE ASE20160724064010407/24/16 06:40:31  5-MIN KASE 241340Z 15013KT 10SM CLR 15/08 A3040 7400 64 9100 140/13 RMK AO2 T01500083
93073KASE ASE20160724064510407/24/16 06:45:31  5-MIN KASE 241345Z 15011KT 10SM CLR 15/08 A3040 7400 64 9100 140/11 RMK AO2 T01500083
93073KASE ASE20160724065011107/24/16 06:50:31  5-MIN KASE 241350Z 15011KT 10SM CLR 16/08 A3040 7400 59 9200 140/11 RMK AO2 SLP162 T01560078
93073KASE ASE20160724065511007/24/16 06:55:31  5-MIN KASE 241355Z 14009G16KT 10SM CLR 16/08 A3040 7400 59 9200 130/09G16 RMK AO2 T01560078
93073KASE ASE20160724070010407/24/16 07:00:31  5-MIN KASE 241400Z 13009KT 10SM CLR 16/08 A3040 7400 59 9200 120/09 RMK AO2 T01560078
93073KASE ASE20160724070510407/24/16 07:05:31  5-MIN KASE 241405Z 13012KT 10SM CLR 16/08 A3040 7400 57 9200 120/12 RMK AO2 T01610078
93073KASE ASE20160724170511907/24/16 17:05:31  5-MIN KASE 250005Z 00000KT 10SM FEW120 27/01 A3030 7490 17 10500 000/00 RMK AO2 LTG DSNT N T02720006
93073KASE ASE20160724171011607/24/16 17:10:31  5-MIN KASE 250010Z 00000KT 10SM CLR 28/01 A3030 7490 17 10600 000/00 RMK AO2 LTG DSNT N T02780006
93073KASE ASE20160724171510807/24/16 17:15:31  5-MIN KASE 250015Z VRB04KT 10SM FEW110 26/03 A3031 7480 21 10400 VRB/04 RMK AO2 T02610028
93073KASE ASE20160724172011407/24/16 17:20:31  5-MIN KASE 250020Z 33014G24KT 10SM SCT110 26/04 A3033 7470 24 10300 320/14G24 RMK AO2 T02560039
93073KASE ASE20160724172512107/24/16 17:25:31  5-MIN KASE 250025Z 35012G24KT 10SM SCT100 SCT120 24/04 A3033 7460 26 10200 340/12G24 RMK AO2 T02440039
93073KASE ASE20160724173011407/24/16 17:30:31  5-MIN KASE 250030Z 33012G19KT 10SM SCT100 24/04 A3033 7460 26 10200 320/12G19 RMK AO2 T02440039
93073KASE ASE20160724173512507/24/16 17:35:31  5-MIN KASE 250035Z 34012G19KT 10SM SCT100 24/04 A3033 7460 28 10200 330/12G19 RMK AO2 WSHFT 0019 T02390044
93073KASE ASE20160724174012507/24/16 17:40:31  5-MIN KASE 250040Z 02010G17KT 10SM SCT100 23/04 A3033 7460 29 10100 010/10G17 RMK AO2 WSHFT 0019 T02330044
93073KASE ASE20160724174512507/24/16 17:45:31  5-MIN KASE 250045Z 36006G17KT 10SM SCT100 23/04 A3033 7460 29 10100 350/06G17 RMK AO2 WSHFT 0019 T02330044
93073KASE ASE20160724175012607/24/16 17:50:31  5-MIN KASE 250050Z 36007KT 10SM FEW100 23/04 A3033 7460 29 10100 350/07 RMK AO2 WSHFT 0019 SLP147 T02330044
93073KASE ASE20160724175510807/24/16 17:55:31  5-MIN KASE 250055Z 32006KT 10SM FEW110 23/05 A3034 7460 31 10000 310/06 RMK AO2 T02280050
93073KASE ASE20160724180010807/24/16 18:00:31  5-MIN KASE 250100Z 31005KT 10SM FEW110 22/06 A3034 7460 33 10000 300/05 RMK AO2 T02220056
93073KASE ASE20160724180511007/24/16 18:05:31  5-MIN KASE 250105Z AUTO 00000KT 10SM CLR 22/05 A3033 7460 32 10000 000/00 RMK AO2 T02220050
93073KASE ASE20160724181011307/24/16 18:10:31  5-MIN KASE 250110Z AUTO 00000KT 10SM FEW120 23/06 A3033 7460 32 10000 000/00 RMK AO2 T02280056
93073KASE ASE20160724181511307/24/16 18:15:31  5-MIN KASE 250115Z AUTO VRB03KT 10SM SCT110 23/06 A3033 7460 31 10100 VRB/03 RMK AO2 T02330056
93073KASE ASE20160724182011207/24/16 18:20:31  5-MIN KASE 250120Z AUTO 22007KT 10SM SCT110 22/07 A3033 7460 39 9900 210/07 RMK AO2 T02170072
93073KASE ASE20160724182511207/24/16 18:25:31  5-MIN KASE 250125Z AUTO 20004KT 10SM FEW110 22/07 A3033 7470 39 9900 190/04 RMK AO2 T02170072
93073KASE ASE20160724183011207/24/16 18:30:31  5-MIN KASE 250130Z AUTO 24004KT 10SM FEW110 22/08 A3033 7460 40 9900 230/04 RMK AO2 T02170078
93073KASE ASE20160724183511207/24/16 18:35:31  5-MIN KASE 250135Z AUTO 24005KT 10SM FEW110 21/07 A3033 7460 41 9800 230/05 RMK AO2 T02060072
93073KASE ASE20160724184011207/24/16 18:40:31  5-MIN KASE 250140Z AUTO 22005KT 10SM FEW110 21/07 A3033 7460 38 9900 210/05 RMK AO2 T02110067
93073KASE ASE20160724184510907/24/16 18:45:31  5-MIN KASE 250145Z AUTO 21005KT 10SM CLR 21/07 A3033 7460 38 9900 200/05 RMK AO2 T02110067
93073KASE ASE20160724185011607/24/16 18:50:31  5-MIN KASE 250150Z AUTO 21005KT 10SM CLR 21/07 A3033 7460 38 9900 200/05 RMK AO2 SLP143 T02110067
93073KASE ASE20160724185510907/24/16 18:55:31  5-MIN KASE 250155Z AUTO 23005KT 10SM CLR 22/06 A3033 7460 36 9900 220/05 RMK AO2 T02170061
93073KASE ASE20160724190010907/24/16 19:00:31  5-MIN KASE 250200Z AUTO 21004KT 10SM CLR 20/07 A3033 7470 41 9700 210/04 RMK AO2 T02000067
93073KASE ASE20160724190510907/24/16 19:05:31  5-MIN KASE 250205Z AUTO 18003KT 10SM CLR 21/07 A3033 7460 40 9800 180/03 RMK AO2 T02060067
93073KASE ASE20160724191010907/24/16 19:10:31  5-MIN KASE 250210Z AUTO 19004KT 10SM CLR 21/06 A3033 7460 36 9900 180/04 RMK AO2 T02110056
93073KASE ASE20160724191510907/24/16 19:15:31  5-MIN KASE 250215Z AUTO 20004KT 10SM CLR 21/06 A3033 7460 37 9900 190/04 RMK AO2 T02110061
93073KASE ASE20160724192010907/24/16 19:20:31  5-MIN KASE 250220Z AUTO 19007KT 10SM CLR 20/07 A3034 7460 41 9700 180/07 RMK AO2 T02000067
93073KASE ASE20160724192510907/24/16 19:25:31  5-MIN KASE 250225Z AUTO 19006KT 10SM CLR 19/07 A3034 7460 43 9700 180/06 RMK AO2 T01940067
93073KASE ASE20160724193010907/24/16 19:30:31  5-MIN KASE 250230Z AUTO 21007KT 10SM CLR 19/07 A3034 7450 43 9700 200/07 RMK AO2 T01940067
93073KASE ASE20160724193510907/24/16 19:35:31  5-MIN KASE 250235Z AUTO 21007KT 10SM CLR 19/07 A3034 7460 44 9600 200/07 RMK AO2 T01890067
93073KASE ASE20160724194010907/24/16 19:40:31  5-MIN KASE 250240Z AUTO 21008KT 10SM CLR 19/07 A3034 7460 44 9600 200/08 RMK AO2 T01890067
93073KASE ASE20160724194510907/24/16 19:45:31  5-MIN KASE 250245Z AUTO 21008KT 10SM CLR 19/07 A3034 7450 44 9600 200/08 RMK AO2 T01890067
93073KASE ASE20160724195012207/24/16 19:50:31  5-MIN KASE 250250Z AUTO 22007KT 10SM CLR 19/06 A3034 7450 43 9600 210/07 RMK AO2 SLP146 T01890061 58003
93073KASE ASE20160724195512507/24/16 19:55:31  5-MIN KASE 250255Z AUTO 20007KT 160V230 10SM CLR 18/07 A3034 7450 46 9500 190/07 150V220 RMK AO2 T01830067
93073KASE ASE20160724200010907/24/16 20:00:31  5-MIN KASE 250300Z AUTO 20006KT 10SM CLR 18/06 A3035 7450 44 9500 190/06 RMK AO2 T01830061
93073KASE ASE20160724200510907/24/16 20:05:31  5-MIN KASE 250305Z AUTO 19005KT 10SM CLR 18/06 A3035 7450 44 9500 180/05 RMK AO2 T01830061
93073KASE ASE20160724201010907/24/16 20:10:31  5-MIN KASE 250310Z AUTO 18007KT 10SM CLR 18/07 A3035 7450 48 9500 170/07 RMK AO2 T01780067
93073KASE ASE20160724201510907/24/16 20:15:31  5-MIN KASE 250315Z AUTO 21008KT 10SM CLR 17/07 A3035 7450 49 9400 200/08 RMK AO2 T01720067
93073KASE ASE20160724202010907/24/16 20:20:31  5-MIN KASE 250320Z AUTO 20006KT 10SM CLR 17/06 A3035 7440 47 9400 200/06 RMK AO2 T01720061
93073KASE ASE20160724202510907/24/16 20:25:31  5-MIN KASE 250325Z AUTO 21007KT 10SM CLR 17/06 A3035 7450 47 9400 200/07 RMK AO2 T01720061
93073KASE ASE20160724203010907/24/16 20:30:31  5-MIN KASE 250330Z AUTO 16008KT 10SM CLR 17/06 A3036 7440 47 9400 150/08 RMK AO2 T01720061
93073KASE ASE20160724203510907/24/16 20:35:31  5-MIN KASE 250335Z AUTO 19006KT 10SM CLR 17/06 A3036 7440 49 9300 180/06 RMK AO2 T01670061
93073KASE ASE20160724204010907/24/16 20:40:31  5-MIN KASE 250340Z AUTO 19007KT 10SM CLR 17/06 A3036 7440 49 9300 180/07 RMK AO2 T01670061
93073KASE ASE20160724204510907/24/16 20:45:31  5-MIN KASE 250345Z AUTO 19006KT 10SM CLR 17/06 A3036 7430 49 9300 190/06 RMK AO2 T01670061
93073KASE ASE20160724205011607/24/16 20:50:31  5-MIN KASE 250350Z AUTO 20005KT 10SM CLR 16/06 A3036 7430 51 9300 190/05 RMK AO2 SLP149 T01610061
93073KASE ASE20160724205510907/24/16 20:55:31  5-MIN KASE 250355Z AUTO 20008KT 10SM CLR 15/07 A3036 7440 57 9200 190/08 RMK AO2 T01500067
93073KASE ASE20160724210010907/24/16 21:00:31  5-MIN KASE 250400Z AUTO 20007KT 10SM CLR 16/06 A3036 7430 53 9200 190/07 RMK AO2 T01560061
93073KASE ASE20160724210510907/24/16 21:05:31  5-MIN KASE 250405Z AUTO 20007KT 10SM CLR 16/06 A3036 7430 53 9200 190/07 RMK AO2 T01560061
93073KASE ASE20160724211010907/24/16 21:10:31  5-MIN KASE 250410Z AUTO 21007KT 10SM CLR 16/06 A3037 7430 49 9300 200/07 RMK AO2 T01610056
93073KASE ASE20160724211510907/24/16 21:15:31  5-MIN KASE 250415Z AUTO 21009KT 10SM CLR 16/06 A3037 7430 49 9300 200/09 RMK AO2 T01610056
93073KASE ASE20160724212010907/24/16 21:20:31  5-MIN KASE 250420Z AUTO 21008KT 10SM CLR 16/06 A3037 7430 49 9300 200/08 RMK AO2 T01610056
93073KASE ASE20160724212510907/24/16 21:25:31  5-MIN KASE 250425Z AUTO 22008KT 10SM CLR 16/06 A3037 7430 51 9200 210/08 RMK AO2 T01560056
93073KASE ASE20160724213010907/24/16 21:30:31  5-MIN KASE 250430Z AUTO 21008KT 10SM CLR 16/06 A3037 7430 51 9200 210/08 RMK AO2 T01560056
93073KASE ASE20160724213510907/24/16 21:35:31  5-MIN KASE 250435Z AUTO 21008KT 10SM CLR 16/06 A3037 7430 49 9300 200/08 RMK AO2 T01610056
93073KASE ASE20160724214010907/24/16 21:40:31  5-MIN KASE 250440Z AUTO 21007KT 10SM CLR 16/06 A3037 7430 51 9200 200/07 RMK AO2 T01560056
93073KASE ASE20160724214510907/24/16 21:45:31  5-MIN KASE 250445Z AUTO 22009KT 10SM CLR 16/06 A3037 7430 51 9200 210/09 RMK AO2 T01560056
93073KASE ASE20160724215011607/24/16 21:50:31  5-MIN KASE 250450Z AUTO 22009KT 10SM CLR 16/05 A3037 7430 49 9200 210/09 RMK AO2 SLP143 T01560050
93073KASE ASE20160724215510907/24/16 21:55:31  5-MIN KASE 250455Z AUTO 21008KT 10SM CLR 16/05 A3037 7430 49 9200 200/08 RMK AO2 T01560050
93073KASE ASE20160724220010907/24/16 22:00:31  5-MIN KASE 250500Z AUTO 21008KT 10SM CLR 16/05 A3037 7430 49 9200 200/08 RMK AO2 T01560050
93073KASE ASE20160724220510907/24/16 22:05:31  5-MIN KASE 250505Z AUTO 21008KT 10SM CLR 16/05 A3037 7430 49 9200 200/08 RMK AO2 T01560050
93073KASE ASE20160724221010907/24/16 22:10:31  5-MIN KASE 250510Z AUTO 20008KT 10SM CLR 15/05 A3037 7430 51 9200 190/08 RMK AO2 T01500050
93073KASE ASE20160724221511407/24/16 22:15:31  5-MIN KASE 250515Z AUTO 22009KT 10SM CLR 16/05 A3037 7430 49 9200 210/09 RMK AO2 T01560050 TSNO
93073KASE ASE20160724222010907/24/16 22:20:31  5-MIN KASE 250520Z AUTO 21007KT 10SM CLR 15/05 A3037 7430 51 9200 200/07 RMK AO2 T01500050
93073KASE ASE20160724222510907/24/16 22:25:31  5-MIN KASE 250525Z AUTO 21008KT 10SM CLR 15/05 A3036 7430 51 9200 200/08 RMK AO2 T01500050
93073KASE ASE20160724223010907/24/16 22:30:31  5-MIN KASE 250530Z AUTO 21007KT 10SM CLR 15/04 A3037 7430 49 9200 200/07 RMK AO2 T01500044
93073KASE ASE20160724223510907/24/16 22:35:31  5-MIN KASE 250535Z AUTO 22007KT 10SM CLR 15/04 A3037 7430 49 9200 210/07 RMK AO2 T01500044
93073KASE ASE20160724224010907/24/16 22:40:31  5-MIN KASE 250540Z AUTO 20007KT 10SM CLR 15/04 A3036 7430 49 9200 200/07 RMK AO2 T01500044
93073KASE ASE20160724224510907/24/16 22:45:31  5-MIN KASE 250545Z AUTO 20006KT 10SM CLR 15/04 A3036 7440 49 9200 190/06 RMK AO2 T01500044
93073KASE ASE20160724225013407/24/16 22:50:31  5-MIN KASE 250550Z AUTO 21007KT 10SM CLR 15/04 A3036 7430 49 9200 200/07 RMK AO2 SLP139 T01500044 10278 20150 51012
93073KASE ASE20160724225510907/24/16 22:55:31  5-MIN KASE 250555Z AUTO 21008KT 10SM CLR 16/04 A3036 7430 47 9200 200/08 RMK AO2 T01560044
93073KASE ASE20160724230010907/24/16 23:00:31  5-MIN KASE 250600Z AUTO 21008KT 10SM CLR 14/04 A3036 7430 51 9100 200/08 RMK AO2 T01440044
93073KASE ASE20160724230510907/24/16 23:05:31  5-MIN KASE 250605Z AUTO 22008KT 10SM CLR 14/04 A3036 7440 51 9100 210/08 RMK AO2 T01440044
93073KASE ASE20160724231010907/24/16 23:10:31  5-MIN KASE 250610Z AUTO 22007KT 10SM CLR 15/04 A3036 7440 47 9200 210/07 RMK AO2 T01500039
93073KASE ASE20160724231510907/24/16 23:15:31  5-MIN KASE 250615Z AUTO 21006KT 10SM CLR 15/04 A3036 7440 47 9200 200/06 RMK AO2 T01500039
93073KASE ASE20160724232010907/24/16 23:20:31  5-MIN KASE 250620Z AUTO 21007KT 10SM CLR 15/04 A3036 7440 47 9200 200/07 RMK AO2 T01500039
93073KASE ASE20160724232510907/24/16 23:25:31  5-MIN KASE 250625Z AUTO 22007KT 10SM CLR 14/04 A3036 7440 52 9000 210/07 RMK AO2 T01390044
93073KASE ASE20160724233010907/24/16 23:30:31  5-MIN KASE 250630Z AUTO 22008KT 10SM CLR 14/04 A3036 7440 52 9000 210/08 RMK AO2 T01390044
93073KASE ASE20160724233510907/24/16 23:35:31  5-MIN KASE 250635Z AUTO 21007KT 10SM CLR 14/04 A3036 7440 50 9000 200/07 RMK AO2 T01390039
93073KASE ASE20160724234010907/24/16 23:40:31  5-MIN KASE 250640Z AUTO 21007KT 10SM CLR 14/04 A3036 7440 49 9100 210/07 RMK AO2 T01440039
93073KASE ASE20160724234510907/24/16 23:45:31  5-MIN KASE 250645Z AUTO 22007KT 10SM CLR 15/04 A3036 7440 47 9200 210/07 RMK AO2 T01500039
93073KASE ASE20160724235012607/24/16 23:50:31  5-MIN KASE 250650Z AUTO 21007KT 10SM CLR 14/04 A3036 7440 49 9100 200/07 RMK AO2 SLP138 T01440039 403000111
93073KASE ASE20160724235511407/24/16 23:55:31  5-MIN KASE 250655Z AUTO 22008KT 10SM CLR 14/04 A3036 7440 49 9100 210/08 RMK AO2 T01440039 TSNO
93073KASE ASE20160725000010907/25/16 00:00:31  5-MIN KASE 250700Z AUTO 22009KT 10SM CLR 13/04 A3036 7440 52 9000 210/09 RMK AO2 T01330039
93073KASE ASE20160725000510907/25/16 00:05:31  5-MIN KASE 250705Z AUTO 21006KT 10SM CLR 14/04 A3036 7440 50 9000 200/06 RMK AO2 T01390039
93073KASE ASE20160725001010907/25/16 00:10:31  5-MIN KASE 250710Z AUTO 20004KT 10SM CLR 14/04 A3036 7440 49 9100 190/04 RMK AO2 T01440039
93073KASE ASE20160725001510907/25/16 00:15:31  5-MIN KASE 250715Z AUTO VRB03KT 10SM CLR 13/04 A3036 7440 52 9000 VRB/03 RMK AO2 T01330039
93073KASE ASE20160725002010907/25/16 00:20:31  5-MIN KASE 250720Z AUTO 00000KT 10SM CLR 12/04 A3036 7440 56 8900 000/00 RMK AO2 T01220039
93073KASE ASE20160725002510907/25/16 00:25:31  5-MIN KASE 250725Z AUTO 00000KT 10SM CLR 12/04 A3036 7440 59 8900 000/00 RMK AO2 T01220044
93073KASE ASE20160725003010907/25/16 00:30:31  5-MIN KASE 250730Z AUTO 00000KT 10SM CLR 11/04 A3036 7440 63 8700 000/00 RMK AO2 T01110044
93073KASE ASE20160725003510907/25/16 00:35:31  5-MIN KASE 250735Z AUTO 00000KT 10SM CLR 11/04 A3036 7440 63 8700 000/00 RMK AO2 T01110044
93073KASE ASE20160725004010907/25/16 00:40:31  5-MIN KASE 250740Z AUTO 20003KT 10SM CLR 11/04 A3036 7440 63 8700 190/03 RMK AO2 T01110044
93073KASE ASE20160725004510907/25/16 00:45:31  5-MIN KASE 250745Z AUTO 20003KT 10SM CLR 11/04 A3036 7440 63 8700 190/03 RMK AO2 T01110044
93073KASE ASE20160725005011607/25/16 00:50:31  5-MIN KASE 250750Z AUTO 19005KT 10SM CLR 12/04 A3036 7430 61 8800 180/05 RMK AO2 SLP143 T01170044
93073KASE ASE20160725005510907/25/16 00:55:31  5-MIN KASE 250755Z AUTO 21005KT 10SM CLR 12/04 A3037 7430 61 8800 200/05 RMK AO2 T01170044
93073KASE ASE20160725010010907/25/16 01:00:31  5-MIN KASE 250800Z AUTO 21008KT 10SM CLR 13/04 A3037 7430 54 8900 200/08 RMK AO2 T01280039
93073KASE ASE20160725010510907/25/16 01:05:31  5-MIN KASE 250805Z AUTO 21007KT 10SM CLR 12/04 A3037 7430 56 8800 200/07 RMK AO2 T01220039
93073KASE ASE20160725011010907/25/16 01:10:31  5-MIN KASE 250810Z AUTO 21007KT 10SM CLR 12/04 A3037 7430 56 8800 200/07 RMK AO2 T01220039
93073KASE ASE20160725011510907/25/16 01:15:31  5-MIN KASE 250815Z AUTO 19005KT 10SM CLR 12/04 A3037 7430 56 8800 180/05 RMK AO2 T01220039
93073KASE ASE20160725012010907/25/16 01:20:31  5-MIN KASE 250820Z AUTO 18004KT 10SM CLR 12/04 A3037 7430 56 8800 170/04 RMK AO2 T01220039
93073KASE ASE20160725012510907/25/16 01:25:31  5-MIN KASE 250825Z AUTO 00000KT 10SM CLR 12/04 A3037 7430 56 8800 000/00 RMK AO2 T01220039
93073KASE ASE20160725013010907/25/16 01:30:31  5-MIN KASE 250830Z AUTO 00000KT 10SM CLR 11/04 A3037 7430 61 8700 000/00 RMK AO2 T01110039
93073KASE ASE20160725013510907/25/16 01:35:31  5-MIN KASE 250835Z AUTO 00000KT 10SM CLR 11/04 A3037 7420 63 8600 000/00 RMK AO2 T01060039
93073KASE ASE20160725014010907/25/16 01:40:31  5-MIN KASE 250840Z AUTO 00000KT 10SM CLR 10/04 A3037 7420 68 8600 000/00 RMK AO2 T01000044
93073KASE ASE20160725014510907/25/16 01:45:31  5-MIN KASE 250845Z AUTO 00000KT 10SM CLR 10/04 A3037 7430 68 8600 000/00 RMK AO2 T01000044
93073KASE ASE20160725015012207/25/16 01:50:31  5-MIN KASE 250850Z AUTO 00000KT 10SM CLR 10/04 A3037 7420 65 8600 000/00 RMK AO2 SLP158 T01000039 50006
93073KASE ASE20160725015510907/25/16 01:55:31  5-MIN KASE 250855Z AUTO 00000KT 10SM CLR 09/04 A3038 7420 68 8500 000/00 RMK AO2 T00940039
93073KASE ASE20160725020010907/25/16 02:00:31  5-MIN KASE 250900Z AUTO 00000KT 10SM CLR 10/04 A3038 7420 65 8600 000/00 RMK AO2 T01000039
93073KASE ASE20160725020510907/25/16 02:05:31  5-MIN KASE 250905Z AUTO 00000KT 10SM CLR 11/04 A3038 7420 63 8600 000/00 RMK AO2 T01060039
93073KASE ASE20160725021010907/25/16 02:10:31  5-MIN KASE 250910Z AUTO 00000KT 10SM CLR 11/04 A3038 7420 61 8700 000/00 RMK AO2 T01110039
93073KASE ASE20160725021510907/25/16 02:15:31  5-MIN KASE 250915Z AUTO 00000KT 10SM CLR 10/04 A3038 7420 65 8600 000/00 RMK AO2 T01000039
93073KASE ASE20160725022010907/25/16 02:20:31  5-MIN KASE 250920Z AUTO 17003KT 10SM CLR 10/04 A3038 7420 65 8600 160/03 RMK AO2 T01000039
93073KASE ASE20160725022510907/25/16 02:25:31  5-MIN KASE 250925Z AUTO 00000KT 10SM CLR 09/04 A3037 7420 68 8500 000/00 RMK AO2 T00940039
93073KASE ASE20160725023010907/25/16 02:30:31  5-MIN KASE 250930Z AUTO 00000KT 10SM CLR 09/04 A3038 7420 68 8500 000/00 RMK AO2 T00940039
93073KASE ASE20160725023510907/25/16 02:35:31  5-MIN KASE 250935Z AUTO 23003KT 10SM CLR 09/04 A3038 7420 68 8500 220/03 RMK AO2 T00940039
93073KASE ASE20160725024010907/25/16 02:40:31  5-MIN KASE 250940Z AUTO 21003KT 10SM CLR 09/04 A3038 7420 71 8500 200/03 RMK AO2 T00890039
93073KASE ASE20160725024510907/25/16 02:45:31  5-MIN KASE 250945Z AUTO 00000KT 10SM CLR 10/04 A3038 7420 65 8600 000/00 RMK AO2 T01000039
93073KASE ASE20160725025011607/25/16 02:50:31  5-MIN KASE 250950Z AUTO 00000KT 10SM CLR 10/04 A3038 7420 65 8600 000/00 RMK AO2 SLP161 T01000039
93073KASE ASE20160725025510907/25/16 02:55:31  5-MIN KASE 250955Z AUTO 00000KT 10SM CLR 10/04 A3038 7420 65 8600 000/00 RMK AO2 T01000039
93073KASE ASE20160725030010907/25/16 03:00:31  5-MIN KASE 251000Z AUTO 00000KT 10SM CLR 09/04 A3038 7420 68 8500 000/00 RMK AO2 T00940039
93073KASE ASE20160725030510907/25/16 03:05:31  5-MIN KASE 251005Z AUTO 00000KT 10SM CLR 09/04 A3038 7420 68 8500 000/00 RMK AO2 T00940039
93073KASE ASE20160725031010907/25/16 03:10:31  5-MIN KASE 251010Z AUTO 22003KT 10SM CLR 10/04 A3038 7420 65 8600 210/03 RMK AO2 T01000039
93073KASE ASE20160725031510907/25/16 03:15:31  5-MIN KASE 251015Z AUTO 00000KT 10SM CLR 09/04 A3038 7420 68 8500 000/00 RMK AO2 T00940039
93073KASE ASE20160725032010907/25/16 03:20:31  5-MIN KASE 251020Z AUTO 00000KT 10SM CLR 09/04 A3038 7420 68 8500 000/00 RMK AO2 T00940039
93073KASE ASE20160725032510907/25/16 03:25:31  5-MIN KASE 251025Z AUTO 00000KT 10SM CLR 10/04 A3038 7410 65 8600 000/00 RMK AO2 T01000039
93073KASE ASE20160725033010907/25/16 03:30:31  5-MIN KASE 251030Z AUTO 20003KT 10SM CLR 10/04 A3038 7410 65 8600 190/03 RMK AO2 T01000039
93073KASE ASE20160725033510907/25/16 03:35:31  5-MIN KASE 251035Z AUTO 22006KT 10SM CLR 09/04 A3038 7420 68 8500 210/06 RMK AO2 T00940039
93073KASE ASE20160725034010907/25/16 03:40:31  5-MIN KASE 251040Z AUTO 00000KT 10SM CLR 10/03 A3038 7420 63 8600 000/00 RMK AO2 T01000033
93073KASE ASE20160725034510907/25/16 03:45:31  5-MIN KASE 251045Z AUTO 00000KT 10SM CLR 10/03 A3039 7410 63 8600 000/00 RMK AO2 T01000033
93073KASE ASE20160725035011607/25/16 03:50:31  5-MIN KASE 251050Z AUTO 20006KT 10SM CLR 11/03 A3039 7410 61 8600 190/06 RMK AO2 SLP164 T01060033
93073KASE ASE20160725035510907/25/16 03:55:31  5-MIN KASE 251055Z AUTO 19005KT 10SM CLR 11/03 A3038 7420 61 8600 180/05 RMK AO2 T01060033
93073KASE ASE20160725040010907/25/16 04:00:31  5-MIN KASE 251100Z AUTO 21008KT 10SM CLR 11/03 A3038 7410 61 8600 200/08 RMK AO2 T01060033
93073KASE ASE20160725040510907/25/16 04:05:31  5-MIN KASE 251105Z AUTO 21007KT 10SM CLR 11/03 A3039 7410 61 8600 200/07 RMK AO2 T01060033
93073KASE ASE20160725041010907/25/16 04:10:31  5-MIN KASE 251110Z AUTO 21006KT 10SM CLR 11/03 A3039 7410 61 8600 200/06 RMK AO2 T01060033
93073KASE ASE20160725041510907/25/16 04:15:31  5-MIN KASE 251115Z AUTO 21003KT 10SM CLR 11/03 A3039 7410 61 8600 200/03 RMK AO2 T01060033
93073KASE ASE20160725042010907/25/16 04:20:31  5-MIN KASE 251120Z AUTO 11003KT 10SM CLR 09/03 A3039 7410 65 8500 100/03 RMK AO2 T00940033
93073KASE ASE20160725042510907/25/16 04:25:31  5-MIN KASE 251125Z AUTO 14003KT 10SM CLR 09/03 A3039 7410 65 8500 130/03 RMK AO2 T00940033
93073KASE ASE20160725043010907/25/16 04:30:31  5-MIN KASE 251130Z AUTO 19004KT 10SM CLR 10/03 A3039 7410 63 8600 180/04 RMK AO2 T01000033
93073KASE ASE20160725043510907/25/16 04:35:31  5-MIN KASE 251135Z AUTO 00000KT 10SM CLR 09/03 A3039 7410 68 8400 000/00 RMK AO2 T00890033
93073KASE ASE20160725044010907/25/16 04:40:31  5-MIN KASE 251140Z AUTO 00000KT 10SM CLR 09/03 A3039 7400 68 8400 000/00 RMK AO2 T00890033
93073KASE ASE20160725044510907/25/16 04:45:31  5-MIN KASE 251145Z AUTO 21006KT 10SM CLR 10/03 A3040 7400 63 8600 200/06 RMK AO2 T01000033
93073KASE ASE20160725045013407/25/16 04:50:31  5-MIN KASE 251150Z AUTO 10003KT 10SM CLR 10/03 A3040 7400 63 8600 090/03 RMK AO2 SLP168 T01000033 10156 20089 53004
93073KASE ASE20160725045510907/25/16 04:55:31  5-MIN KASE 251155Z AUTO VRB03KT 10SM CLR 10/03 A3040 7400 63 8600 VRB/03 RMK AO2 T01000033
93073KASE ASE20160725050010907/25/16 05:00:31  5-MIN KASE 251200Z AUTO VRB03KT 10SM CLR 10/03 A3040 7400 63 8600 VRB/03 RMK AO2 T01000033
93073KASE ASE20160725050510907/25/16 05:05:31  5-MIN KASE 251205Z AUTO 00000KT 10SM CLR 09/03 A3040 7400 65 8500 000/00 RMK AO2 T00940033
93073KASE ASE20160725051010907/25/16 05:10:31  5-MIN KASE 251210Z AUTO 20006KT 10SM CLR 10/03 A3040 7400 63 8600 190/06 RMK AO2 T01000033
93073KASE ASE20160725051510907/25/16 05:15:31  5-MIN KASE 251215Z AUTO 21007KT 10SM CLR 11/03 A3040 7400 56 8700 200/07 RMK AO2 T01110028
93073KASE ASE20160725052010907/25/16 05:20:31  5-MIN KASE 251220Z AUTO 19005KT 10SM CLR 11/03 A3040 7400 61 8600 190/05 RMK AO2 T01060033
93073KASE ASE20160725052510907/25/16 05:25:31  5-MIN KASE 251225Z AUTO 20004KT 10SM CLR 11/03 A3040 7400 58 8600 190/04 RMK AO2 T01060028
93073KASE ASE20160725053010907/25/16 05:30:31  5-MIN KASE 251230Z AUTO 12003KT 10SM CLR 10/04 A3041 7390 65 8500 110/03 RMK AO2 T01000039
93073KASE ASE20160725053510907/25/16 05:35:31  5-MIN KASE 251235Z AUTO 00000KT 10SM CLR 10/03 A3041 7390 63 8500 000/00 RMK AO2 T01000033
93073KASE ASE20160725054010907/25/16 05:40:31  5-MIN KASE 251240Z AUTO 00000KT 10SM CLR 10/04 A3041 7390 65 8500 000/00 RMK AO2 T01000039
93073KASE ASE20160725054510907/25/16 05:45:31  5-MIN KASE 251245Z AUTO 00000KT 10SM CLR 08/04 A3041 7390 73 8400 000/00 RMK AO2 T00830039
93073KASE ASE20160725055011107/25/16 05:50:31  5-MIN KASE 251250Z 00000KT 10SM CLR 09/04 A3041 7390 73 8400 000/00 RMK AO2 SLP183 T00890044
93073KASE ASE20160725055510407/25/16 05:55:31  5-MIN KASE 251255Z 00000KT 10SM CLR 09/04 A3041 7390 68 8500 000/00 RMK AO2 T00940039
93073KASE ASE20160725060010407/25/16 06:00:31  5-MIN KASE 251300Z 00000KT 10SM CLR 10/04 A3041 7390 68 8500 000/00 RMK AO2 T01000044
93073KASE ASE20160725060510407/25/16 06:05:31  5-MIN KASE 251305Z 00000KT 10SM CLR 11/04 A3041 7390 66 8600 000/00 RMK AO2 T01060044
93073KASE ASE20160725061010407/25/16 06:10:31  5-MIN KASE 251310Z 00000KT 10SM CLR 12/04 A3041 7390 61 8700 000/00 RMK AO2 T01170044
93073KASE ASE20160725061510407/25/16 06:15:31  5-MIN KASE 251315Z 00000KT 10SM CLR 12/05 A3041 7390 61 8800 000/00 RMK AO2 T01220050
93073KASE ASE20160725062010407/25/16 06:20:31  5-MIN KASE 251320Z 00000KT 10SM CLR 13/05 A3041 7390 59 8900 000/00 RMK AO2 T01280050
93073KASE ASE20160725062510407/25/16 06:25:31  5-MIN KASE 251325Z 15005KT 10SM CLR 13/06 A3041 7390 61 8900 140/05 RMK AO2 T01280056
93073KASE ASE20160725063010407/25/16 06:30:31  5-MIN KASE 251330Z 17006KT 10SM CLR 14/06 A3041 7390 57 9000 160/06 RMK AO2 T01390056
93073KASE ASE20160725063510407/25/16 06:35:31  5-MIN KASE 251335Z 16004KT 10SM CLR 13/06 A3041 7390 59 8900 150/04 RMK AO2 T01330056
93073KASE ASE20160725064010407/25/16 06:40:31  5-MIN KASE 251340Z 14003KT 10SM CLR 14/04 A3041 7390 52 9000 130/03 RMK AO2 T01390044
93073KASE ASE20160725064510407/25/16 06:45:31  5-MIN KASE 251345Z 15003KT 10SM CLR 14/04 A3041 7390 49 9000 140/03 RMK AO2 T01440039
93073KASE ASE20160725065011107/25/16 06:50:31  5-MIN KASE 251350Z 00000KT 10SM CLR 15/03 A3041 7390 45 9100 000/00 RMK AO2 SLP171 T01500033
93073KASE ASE20160725065510407/25/16 06:55:31  5-MIN KASE 251355Z 00000KT 10SM CLR 15/06 A3041 7390 53 9100 000/00 RMK AO2 T01500056
93073KASE ASE20160725070010407/25/16 07:00:31  5-MIN KASE 251400Z 00000KT 10SM CLR 15/05 A3041 7390 51 9100 000/00 RMK AO2 T01500050
93073KASE ASE20160725070510407/25/16 07:05:31  5-MIN KASE 251405Z 00000KT 10SM CLR 16/06 A3041 7390 51 9200 000/00 RMK AO2 T01560056
93073KASE ASE20160725071010407/25/16 07:10:31  5-MIN KASE 251410Z 00000KT 10SM CLR 17/06 A3041 7390 47 9300 000/00 RMK AO2 T01670056
93073KASE ASE20160725071510407/25/16 07:15:31  5-MIN KASE 251415Z 03003KT 10SM CLR 16/06 A3041 7390 49 9200 030/03 RMK AO2 T01610056
93073KASE ASE20160725072010407/25/16 07:20:31  5-MIN KASE 251420Z 36003KT 10SM CLR 17/06 A3041 7390 47 9300 350/03 RMK AO2 T01670056
93073KASE ASE20160725072510407/25/16 07:25:31  5-MIN KASE 251425Z 36003KT 10SM CLR 17/06 A3041 7390 47 9300 350/03 RMK AO2 T01720061
93073KASE ASE20160725073010407/25/16 07:30:31  5-MIN KASE 251430Z 00000KT 10SM CLR 17/06 A3041 7390 46 9400 000/00 RMK AO2 T01720056
93073KASE ASE20160725073510407/25/16 07:35:31  5-MIN KASE 251435Z 35004KT 10SM CLR 18/06 A3041 7390 44 9400 350/04 RMK AO2 T01780056
93073KASE ASE20160725074010407/25/16 07:40:31  5-MIN KASE 251440Z 35005KT 10SM CLR 18/06 A3041 7390 46 9400 340/05 RMK AO2 T01780061
93073KASE ASE20160725074510407/25/16 07:45:31  5-MIN KASE 251445Z 36005KT 10SM CLR 18/06 A3041 7390 46 9400 350/05 RMK AO2 T01780061
93073KASE ASE20160725075011707/25/16 07:50:31  5-MIN KASE 251450Z 36006KT 10SM CLR 18/06 A3041 7390 46 9400 350/06 RMK AO2 SLP172 T01780061 53007
93073KASE ASE20160725075510407/25/16 07:55:31  5-MIN KASE 251455Z 35005KT 10SM CLR 18/06 A3041 7390 44 9500 350/05 RMK AO2 T01830061
93073KASE ASE20160725080010407/25/16 08:00:31  5-MIN KASE 251500Z 35007KT 10SM CLR 18/06 A3041 7390 44 9500 340/07 RMK AO2 T01830061
93073KASE ASE20160725080510407/25/16 08:05:31  5-MIN KASE 251505Z 35007KT 10SM CLR 18/07 A3041 7390 46 9500 340/07 RMK AO2 T01830067
93073KASE ASE20160725081010407/25/16 08:10:31  5-MIN KASE 251510Z 35007KT 10SM CLR 18/07 A3041 7390 46 9500 340/07 RMK AO2 T01830067
93073KASE ASE20160725081510407/25/16 08:15:31  5-MIN KASE 251515Z 01007KT 10SM CLR 19/06 A3041 7390 43 9500 360/07 RMK AO2 T01890061
93073KASE ASE20160725082010407/25/16 08:20:31  5-MIN KASE 251520Z 36007KT 10SM CLR 19/06 A3041 7390 43 9500 350/07 RMK AO2 T01890061
93073KASE ASE20160725082510407/25/16 08:25:31  5-MIN KASE 251525Z 36008KT 10SM CLR 19/06 A3041 7390 41 9600 350/08 RMK AO2 T01940061
93073KASE ASE20160725083010407/25/16 08:30:31  5-MIN KASE 251530Z 36008KT 10SM CLR 19/06 A3041 7390 41 9500 360/08 RMK AO2 T01890056
93073KASE ASE20160725083510407/25/16 08:35:31  5-MIN KASE 251535Z 35007KT 10SM CLR 19/06 A3041 7390 40 9600 340/07 RMK AO2 T01940056
93073KASE ASE20160725084010407/25/16 08:40:31  5-MIN KASE 251540Z 35007KT 10SM CLR 20/06 A3041 7390 40 9700 340/07 RMK AO2 T02000061
93073KASE ASE20160725084510407/25/16 08:45:31  5-MIN KASE 251545Z 35007KT 10SM CLR 20/06 A3041 7390 38 9700 340/07 RMK AO2 T02000056
93073KASE ASE20160725085011107/25/16 08:50:31  5-MIN KASE 251550Z 01007KT 10SM CLR 21/06 A3041 7390 37 9700 360/07 RMK AO2 SLP172 T02060056
93073KASE ASE20160725085510407/25/16 08:55:31  5-MIN KASE 251555Z 35007KT 10SM CLR 21/06 A3041 7390 38 9700 340/07 RMK AO2 T02060061
93073KASE ASE20160725090010407/25/16 09:00:31  5-MIN KASE 251600Z 01007KT 10SM CLR 21/06 A3041 7390 37 9700 360/07 RMK AO2 T02060056
93073KASE ASE20160725090510407/25/16 09:05:31  5-MIN KASE 251605Z 01007KT 10SM CLR 21/06 A3041 7390 36 9800 360/07 RMK AO2 T02110056
93073KASE ASE20160725091010407/25/16 09:10:31  5-MIN KASE 251610Z 01007KT 10SM CLR 22/06 A3041 7390 34 9800 360/07 RMK AO2 T02170056
93073KASE ASE20160725091510407/25/16 09:15:31  5-MIN KASE 251615Z 01007KT 10SM CLR 22/05 A3041 7390 33 9800 360/07 RMK AO2 T02170050
93073KASE ASE20160725092010407/25/16 09:20:31  5-MIN KASE 251620Z 02006KT 10SM CLR 22/06 A3041 7390 33 9900 010/06 RMK AO2 T02220056
93073KASE ASE20160725092510507/25/16 09:25:31  5-MIN KASE 251625Z 01007KT 10SM CLR 23/06 A3041 7390 32 10000 360/07 RMK AO2 T02280056
93073KASE ASE20160725093010507/25/16 09:30:31  5-MIN KASE 251630Z VRB05KT 10SM CLR 23/05 A3041 7390 31 10000 VRB/05 RMK AO2 T02280050
93073KASE ASE20160725093510507/25/16 09:35:31  5-MIN KASE 251635Z VRB04KT 10SM CLR 23/06 A3041 7390 31 10000 VRB/04 RMK AO2 T02330056
93073KASE ASE20160725094010507/25/16 09:40:31  5-MIN KASE 251640Z 34006KT 10SM CLR 23/06 A3040 7400 31 10000 330/06 RMK AO2 T02330056
93073KASE ASE20160725094510507/25/16 09:45:31  5-MIN KASE 251645Z 36005KT 10SM CLR 23/05 A3041 7400 30 10000 350/05 RMK AO2 T02330050
93073KASE ASE20160725095011507/25/16 09:50:31  5-MIN KASE 251650Z VRB04KT 10SM FEW080 23/06 A3040 7400 31 10000 VRB/04 RMK AO2 SLP163 T02330056
93073KASE ASE20160725095510507/25/16 09:55:31  5-MIN KASE 251655Z 34005KT 10SM CLR 24/06 A3040 7400 31 10100 330/05 RMK AO2 T02390061
93073KASE ASE20160725100010507/25/16 10:00:31  5-MIN KASE 251700Z 04005KT 10SM CLR 24/06 A3040 7400 29 10100 030/05 RMK AO2 T02440056
93073KASE ASE20160725100509507/25/16 10:05:31  5-MIN KASE 251705Z 10SM CLR 25/06 A3040 7400 28 10200 M /M RMK AO2 T02500056
93073KASE ASE20160725101010507/25/16 10:10:31  5-MIN KASE 251710Z VRB04KT 10SM CLR 25/06 A3040 7400 28 10200 VRB/04 RMK AO2 T02500056
93073KASE ASE20160725101510507/25/16 10:15:31  5-MIN KASE 251715Z 02004KT 10SM CLR 25/06 A3040 7400 28 10200 010/04 RMK AO2 T02500056
93073KASE ASE20160725102010507/25/16 10:20:31  5-MIN KASE 251720Z VRB05KT 10SM CLR 26/06 A3040 7400 28 10300 VRB/05 RMK AO2 T02560061
93073KASE ASE20160725102510507/25/16 10:25:31  5-MIN KASE 251725Z VRB03KT 10SM CLR 26/06 A3040 7400 28 10300 VRB/03 RMK AO2 T02560061
93073KASE ASE20160725103010507/25/16 10:30:31  5-MIN KASE 251730Z 02005KT 10SM CLR 27/06 A3040 7400 26 10400 010/05 RMK AO2 T02670061
93073KASE ASE20160725103510507/25/16 10:35:31  5-MIN KASE 251735Z VRB04KT 10SM CLR 27/06 A3040 7400 25 10400 VRB/04 RMK AO2 T02670056
93073KASE ASE20160725104010507/25/16 10:40:31  5-MIN KASE 251740Z 02006KT 10SM CLR 27/05 A3040 7400 24 10400 010/06 RMK AO2 T02720050
93073KASE ASE20160725104510507/25/16 10:45:31  5-MIN KASE 251745Z VRB04KT 10SM CLR 27/05 A3040 7400 24 10400 VRB/04 RMK AO2 T02720050
93073KASE ASE20160725105013307/25/16 10:50:31  5-MIN KASE 251750Z 06005KT 10SM SCT080 28/06 A3039 7400 24 10500 050/05 RMK AO2 SLP149 T02780056 10278 20083 51002
93073KASE ASE20160725105510507/25/16 10:55:31  5-MIN KASE 251755Z 32003KT 10SM CLR 26/04 A3039 7410 24 10300 310/03 RMK AO2 T02610044
93073KASE ASE20160725110010507/25/16 11:00:31  5-MIN KASE 251800Z 00000KT 10SM CLR 26/04 A3039 7410 24 10300 000/00 RMK AO2 T02560039
93073KASE ASE20160725110510507/25/16 11:05:31  5-MIN KASE 251805Z 00000KT 10SM CLR 26/04 A3039 7410 23 10300 000/00 RMK AO2 T02610039
93073KASE ASE20160725111010507/25/16 11:10:31  5-MIN KASE 251810Z 15005KT 10SM CLR 26/04 A3039 7410 23 10300 140/05 RMK AO2 T02610039
93073KASE ASE20160725111510507/25/16 11:15:31  5-MIN KASE 251815Z VRB05KT 10SM CLR 27/04 A3039 7410 22 10400 VRB/05 RMK AO2 T02670039
93073KASE ASE20160725112010507/25/16 11:20:31  5-MIN KASE 251820Z 17006KT 10SM CLR 27/06 A3039 7410 25 10400 160/06 RMK AO2 T02670056
93073KASE ASE20160725112510507/25/16 11:25:31  5-MIN KASE 251825Z 21007KT 10SM CLR 27/05 A3039 7410 24 10400 200/07 RMK AO2 T02670050
93073KASE ASE20160725113010507/25/16 11:30:31  5-MIN KASE 251830Z VRB04KT 10SM CLR 26/04 A3039 7410 25 10300 VRB/04 RMK AO2 T02560044
93073KASE ASE20160725113510507/25/16 11:35:31  5-MIN KASE 251835Z 15008KT 10SM CLR 26/06 A3039 7410 26 10300 140/08 RMK AO2 T02610056
93073KASE ASE20160725114010807/25/16 11:40:31  5-MIN KASE 251840Z 13009KT 10SM BKN100 26/05 A3039 7410 26 10300 120/09 RMK AO2 T02560050
93073KASE ASE20160725114510807/25/16 11:45:31  5-MIN KASE 251845Z 12008KT 10SM BKN100 25/06 A3039 7410 28 10200 110/08 RMK AO2 T02500056
93073KASE ASE20160725115012607/25/16 11:50:31  5-MIN KASE 251850Z 14008KT 10SM BKN100 25/07 A3039 7410 31 10200 130/08 RMK AO2 LTG DSNT W SLP156 T02500072
93073KASE ASE20160725115511607/25/16 11:55:31  5-MIN KASE 251855Z 14006KT 10SM CLR 25/07 A3039 7410 31 10200 130/06 RMK AO2 LTG DSNT W T02500072
93073KASE ASE20160725120011607/25/16 12:00:31  5-MIN KASE 251900Z 15009KT 10SM CLR 26/07 A3039 7410 29 10300 140/09 RMK AO2 LTG DSNT W T02610072
93073KASE ASE20160725120510507/25/16 12:05:31  5-MIN KASE 251905Z 14008KT 10SM CLR 26/06 A3038 7410 28 10300 130/08 RMK AO2 T02560061
93073KASE ASE20160725121011607/25/16 12:10:31  5-MIN KASE 251910Z 14009KT 10SM CLR 27/06 A3038 7410 26 10400 130/09 RMK AO2 LTG DSNT S T02670061
93073KASE ASE20160725121511607/25/16 12:15:31  5-MIN KASE 251915Z 14009KT 10SM CLR 27/06 A3038 7420 25 10400 140/09 RMK AO2 LTG DSNT S T02670056
93073KASE ASE20160725122011607/25/16 12:20:31  5-MIN KASE 251920Z 14010KT 10SM CLR 27/06 A3038 7420 25 10400 130/10 RMK AO2 LTG DSNT S T02670056
93073KASE ASE20160725122511607/25/16 12:25:31  5-MIN KASE 251925Z 13010KT 10SM CLR 27/06 A3038 7420 26 10400 120/10 RMK AO2 LTG DSNT S T02670061
93073KASE ASE20160725123011607/25/16 12:30:31  5-MIN KASE 251930Z 12012KT 10SM CLR 27/07 A3038 7420 27 10400 110/12 RMK AO2 LTG DSNT S T02670067
93073KASE ASE20160725123511107/25/16 12:35:31  5-MIN KASE 251935Z 13010G18KT 10SM CLR 25/07 A3038 7420 31 10200 120/10G18 RMK AO2 T02500072
93073KASE ASE20160725124011107/25/16 12:40:31  5-MIN KASE 251940Z 14011G18KT 10SM CLR 25/06 A3038 7420 28 10200 130/11G18 RMK AO2 T02500056
93073KASE ASE20160725124510507/25/16 12:45:31  5-MIN KASE 251945Z 14013KT 10SM CLR 26/04 A3038 7420 25 10300 130/13 RMK AO2 T02560044
93073KASE ASE20160725125011507/25/16 12:50:31  5-MIN KASE 251950Z 13010KT 10SM BKN100 25/04 A3038 7420 26 10200 120/10 RMK AO2 SLP159 T02500044
93073KASE ASE20160725125510507/25/16 12:55:31  5-MIN KASE 251955Z 12011KT 10SM CLR 24/06 A3038 7420 30 10200 110/11 RMK AO2 T02440061
93073KASE ASE20160725130010507/25/16 13:00:31  5-MIN KASE 252000Z 12011KT 10SM CLR 24/05 A3038 7420 28 10200 110/11 RMK AO2 T02440050
93073KASE ASE20160725130511107/25/16 13:05:31  5-MIN KASE 252005Z 14013G19KT 10SM CLR 24/05 A3038 7420 29 10100 130/13G19 RMK AO2 T02390050
93073KASE ASE20160725131011107/25/16 13:10:31  5-MIN KASE 252010Z 13013G19KT 10SM CLR 24/05 A3038 7420 29 10100 120/13G19 RMK AO2 T02390050
93073KASE ASE20160725131510507/25/16 13:15:31  5-MIN KASE 252015Z 13012KT 10SM CLR 24/04 A3038 7420 28 10100 120/12 RMK AO2 T02390044
93073KASE ASE20160725132010507/25/16 13:20:31  5-MIN KASE 252020Z 13014KT 10SM CLR 23/05 A3038 7420 30 10100 120/14 RMK AO2 T02330050
93073KASE ASE20160725132510507/25/16 13:25:31  5-MIN KASE 252025Z 13013KT 10SM CLR 24/05 A3037 7430 29 10100 120/13 RMK AO2 T02390050
93073KASE ASE20160725133011407/25/16 13:30:31  5-MIN KASE 252030Z 12011G20KT 10SM FEW120 24/05 A3037 7430 28 10200 110/11G20 RMK AO2 T02440050
93073KASE ASE20160725133511107/25/16 13:35:31  5-MIN KASE 252035Z 12013G18KT 10SM CLR 24/05 A3038 7420 28 10200 110/13G18 RMK AO2 T02440050
93073KASE ASE20160725134011107/25/16 13:40:31  5-MIN KASE 252040Z 12014G20KT 10SM CLR 24/06 A3037 7420 29 10200 110/14G20 RMK AO2 T02440056
93073KASE ASE20160725134511107/25/16 13:45:31  5-MIN KASE 252045Z 13013G20KT 10SM CLR 24/06 A3037 7430 30 10100 120/13G20 RMK AO2 T02390056
93073KASE ASE20160725135012107/25/16 13:50:31  5-MIN KASE 252050Z 13013KT 10SM BKN100 24/06 A3037 7430 30 10200 120/13 RMK AO2 SLP162 T02440061 58005
93073KASE ASE20160725135510507/25/16 13:55:31  5-MIN KASE 252055Z 14010KT 10SM CLR 26/06 A3037 7430 27 10300 130/10 RMK AO2 T02560056
93073KASE ASE20160725140010507/25/16 14:00:31  5-MIN KASE 252100Z 14010KT 10SM CLR 27/06 A3037 7430 25 10400 130/10 RMK AO2 T02670056
93073KASE ASE20160725140510507/25/16 14:05:31  5-MIN KASE 252105Z 12008KT 10SM CLR 26/06 A3037 7430 27 10400 110/08 RMK AO2 T02610061
93073KASE ASE20160725141010507/25/16 14:10:31  5-MIN KASE 252110Z 11009KT 10SM CLR 26/06 A3037 7420 26 10300 100/09 RMK AO2 T02610056
93073KASE ASE20160725141510507/25/16 14:15:31  5-MIN KASE 252115Z 11009KT 10SM CLR 27/06 A3037 7420 25 10400 100/09 RMK AO2 T02670056
93073KASE ASE20160725142011107/25/16 14:20:31  5-MIN KASE 252120Z 11012G18KT 10SM CLR 26/05 A3037 7430 25 10400 110/12G18 RMK AO2 T02610050
93073KASE ASE20160725142511107/25/16 14:25:31  5-MIN KASE 252125Z 13012G19KT 10SM CLR 26/04 A3037 7420 25 10300 120/12G19 RMK AO2 T02560044
93073KASE ASE20160725143011107/25/16 14:30:31  5-MIN KASE 252130Z 14013G20KT 10SM CLR 26/03 A3038 7420 23 10300 140/13G20 RMK AO2 T02560033
93073KASE ASE20160725143511407/25/16 14:35:31  5-MIN KASE 252135Z 14010G20KT 10SM BKN100 26/03 A3038 7420 23 10300 140/10G20 RMK AO2 T02560033
93073KASE ASE20160725144010807/25/16 14:40:31  5-MIN KASE 252140Z 15013KT 10SM BKN100 26/03 A3037 7430 22 10300 140/13 RMK AO2 T02560028
93073KASE ASE20160725144510807/25/16 14:45:31  5-MIN KASE 252145Z 13011KT 10SM BKN100 26/02 A3037 7430 21 10300 120/11 RMK AO2 T02560022
93073KASE ASE20160725145011507/25/16 14:50:31  5-MIN KASE 252150Z 14013KT 10SM BKN100 26/03 A3036 7430 23 10300 130/13 RMK AO2 SLP158 T02560033
93073KASE ASE20160725145510507/25/16 14:55:31  5-MIN KASE 252155Z 15013KT 10SM CLR 27/03 A3037 7430 21 10400 140/13 RMK AO2 T02670028
93073KASE ASE20160725150011107/25/16 15:00:31  5-MIN KASE 252200Z 16015G20KT 10SM CLR 27/02 A3037 7430 19 10400 150/15G20 RMK AO2 T02670017
93073KASE ASE20160725150511107/25/16 15:05:31  5-MIN KASE 252205Z 16015G20KT 10SM CLR 27/02 A3037 7430 19 10400 150/15G20 RMK AO2 T02670017
93073KASE ASE20160725151010507/25/16 15:10:31  5-MIN KASE 252210Z 17013KT 10SM CLR 27/02 A3036 7430 19 10500 160/13 RMK AO2 T02720017
93073KASE ASE20160725151510507/25/16 15:15:31  5-MIN KASE 252215Z 17013KT 10SM CLR 27/02 A3036 7430 19 10500 160/13 RMK AO2 T02720017
93073KASE ASE20160725152010507/25/16 15:20:31  5-MIN KASE 252220Z 15009KT 10SM CLR 27/01 A3036 7430 18 10500 140/09 RMK AO2 T02720011
93073KASE ASE20160725152510507/25/16 15:25:31  5-MIN KASE 252225Z 16012KT 10SM CLR 27/00 A3036 7430 16 10500 150/12 RMK AO2 T02720000
93073KASE ASE20160725153010507/25/16 15:30:31  5-MIN KASE 252230Z 16013KT 10SM CLR 27/00 A3036 7440 16 10500 160/13 RMK AO2 T02720000
93073KASE ASE20160725153510507/25/16 15:35:31  5-MIN KASE 252235Z 14011KT 10SM CLR 27/01 A3036 7440 17 10500 140/11 RMK AO2 T02720006
93073KASE ASE20160725154010507/25/16 15:40:31  5-MIN KASE 252240Z 16009KT 10SM CLR 27/01 A3035 7440 17 10500 150/09 RMK AO2 T02720006
93073KASE ASE20160725154510507/25/16 15:45:31  5-MIN KASE 252245Z 14011KT 10SM CLR 28/01 A3035 7440 17 10500 130/11 RMK AO2 T02780006
93073KASE ASE20160725155011207/25/16 15:50:31  5-MIN KASE 252250Z 13009KT 10SM CLR 27/01 A3035 7440 18 10500 120/09 RMK AO2 SLP147 T02720011
93073KASE ASE20160725155510507/25/16 15:55:31  5-MIN KASE 252255Z 13007KT 10SM CLR 27/01 A3035 7450 18 10400 130/07 RMK AO2 T02670011
93073KASE ASE20160725160010507/25/16 16:00:31  5-MIN KASE 252300Z 14008KT 10SM CLR 27/01 A3035 7450 18 10500 140/08 RMK AO2 T02720011
93073KASE ASE20160725160510507/25/16 16:05:31  5-MIN KASE 252305Z 13007KT 10SM CLR 27/00 A3035 7450 17 10400 120/07 RMK AO2 T02670000
93073KASE ASE20160725161010507/25/16 16:10:31  5-MIN KASE 252310Z 12006KT 10SM CLR 27/01 A3035 7450 18 10500 120/06 RMK AO2 T02720011
93073KASE ASE20160725161510507/25/16 16:15:31  5-MIN KASE 252315Z 11006KT 10SM CLR 27/01 A3034 7450 18 10400 100/06 RMK AO2 T02670011
93073KASE ASE20160725162010507/25/16 16:20:31  5-MIN KASE 252320Z 13005KT 10SM CLR 26/02 A3034 7450 21 10400 120/05 RMK AO2 T02610022
93073KASE ASE20160725162510507/25/16 16:25:31  5-MIN KASE 252325Z 13005KT 10SM CLR 26/01 A3034 7450 19 10400 120/05 RMK AO2 T02610011
93073KASE ASE20160725163010507/25/16 16:30:31  5-MIN KASE 252330Z 14006KT 10SM CLR 26/02 A3034 7450 20 10400 130/06 RMK AO2 T02610017
93073KASE ASE20160725163510507/25/16 16:35:31  5-MIN KASE 252335Z 13006KT 10SM CLR 26/02 A3034 7450 21 10400 120/06 RMK AO2 T02610022
93073KASE ASE20160725164010807/25/16 16:40:31  5-MIN KASE 252340Z 17005KT 10SM FEW120 27/02 A3034 7450 20 10400 160/05 RMK AO2 T02670022
93073KASE ASE20160725164510507/25/16 16:45:31  5-MIN KASE 252345Z 15004KT 10SM CLR 26/03 A3034 7450 21 10400 140/04 RMK AO2 T02610028
93073KASE ASE20160725165013007/25/16 16:50:31  5-MIN KASE 252350Z 11005KT 10SM CLR 26/03 A3034 7450 21 10400 100/05 RMK AO2 SLP147 T02610028 10278 20233 58006
93073KASE ASE20160725165510807/25/16 16:55:31  5-MIN KASE 252355Z 13006KT 10SM FEW120 26/02 A3034 7450 21 10300 120/06 RMK AO2 T02560022
93073KASE ASE20160725170010807/25/16 17:00:31  5-MIN KASE 260000Z 14005KT 10SM SCT120 26/02 A3034 7450 21 10300 130/05 RMK AO2 T02560022
93073KASE ASE20160725170510807/25/16 17:05:31  5-MIN KASE 260005Z 14004KT 10SM SCT120 26/02 A3034 7460 20 10400 130/04 RMK AO2 T02610017
93073KASE ASE20160725171010807/25/16 17:10:31  5-MIN KASE 260010Z 13006KT 10SM BKN110 26/02 A3034 7450 21 10400 120/06 RMK AO2 T02610022
93073KASE ASE20160725171510807/25/16 17:15:31  5-MIN KASE 260015Z 13007KT 10SM BKN110 26/02 A3034 7460 21 10300 120/07 RMK AO2 T02560022
93073KASE ASE20160725172010807/25/16 17:20:31  5-MIN KASE 260020Z 13006KT 10SM SCT110 26/03 A3034 7460 23 10300 120/06 RMK AO2 T02560033
93073KASE ASE20160725172510807/25/16 17:25:31  5-MIN KASE 260025Z 13006KT 10SM BKN110 26/03 A3034 7460 23 10300 120/06 RMK AO2 T02560033
93073KASE ASE20160725173010807/25/16 17:30:31  5-MIN KASE 260030Z 13006KT 10SM BKN120 26/03 A3034 7460 23 10300 120/06 RMK AO2 T02560033
93073KASE ASE20160725173510807/25/16 17:35:31  5-MIN KASE 260035Z 12004KT 10SM BKN110 26/04 A3034 7460 24 10300 110/04 RMK AO2 T02560039
93073KASE ASE20160725174010807/25/16 17:40:31  5-MIN KASE 260040Z 11006KT 10SM BKN110 25/04 A3034 7450 26 10300 100/06 RMK AO2 T02500044
93073KASE ASE20160725174510807/25/16 17:45:31  5-MIN KASE 260045Z 11005KT 10SM BKN110 26/04 A3034 7450 25 10300 100/05 RMK AO2 T02560044
93073KASE ASE20160725175011507/25/16 17:50:31  5-MIN KASE 260050Z 12005KT 10SM BKN110 25/04 A3034 7450 25 10300 110/05 RMK AO2 SLP152 T02500039
93073KASE ASE20160725175510807/25/16 17:55:31  5-MIN KASE 260055Z 13007KT 10SM BKN110 25/03 A3034 7450 23 10300 120/07 RMK AO2 T02500028
93073KASE ASE20160725180010807/25/16 18:00:31  5-MIN KASE 260100Z 13007KT 10SM SCT110 25/03 A3034 7450 23 10300 120/07 RMK AO2 T02500028
93073KASE ASE20160725180510807/25/16 18:05:31  5-MIN KASE 260105Z 13007KT 10SM FEW110 25/03 A3034 7450 23 10300 120/07 RMK AO2 T02500028
93073KASE ASE20160725181010807/25/16 18:10:31  5-MIN KASE 260110Z 14005KT 10SM FEW110 24/03 A3034 7450 25 10200 130/05 RMK AO2 T02440033
93073KASE ASE20160725181510507/25/16 18:15:31  5-MIN KASE 260115Z VRB06KT 10SM CLR 25/04 A3034 7450 25 10300 VRB/06 RMK AO2 T02500039
93073KASE ASE20160725182010507/25/16 18:20:31  5-MIN KASE 260120Z 20005KT 10SM CLR 23/07 A3034 7450 35 10000 190/05 RMK AO2 T02280067
93073KASE ASE20160725182510507/25/16 18:25:31  5-MIN KASE 260125Z 20008KT 10SM CLR 23/06 A3034 7450 32 10100 200/08 RMK AO2 T02330061
93073KASE ASE20160725183010507/25/16 18:30:31  5-MIN KASE 260130Z 22008KT 10SM CLR 22/08 A3034 7450 39 10000 210/08 RMK AO2 T02220078
93073KASE ASE20160725183510507/25/16 18:35:31  5-MIN KASE 260135Z 22007KT 10SM CLR 22/07 A3034 7450 37 10000 220/07 RMK AO2 T02220072
93073KASE ASE20160725184010507/25/16 18:40:31  5-MIN KASE 260140Z 19005KT 10SM CLR 22/08 A3034 7450 39 10000 190/05 RMK AO2 T02220078
93073KASE ASE20160725184510407/25/16 18:45:31  5-MIN KASE 260145Z 19006KT 10SM CLR 22/08 A3034 7450 40 9900 180/06 RMK AO2 T02170078
93073KASE ASE20160725185011107/25/16 18:50:31  5-MIN KASE 260150Z 17006KT 10SM CLR 22/07 A3034 7450 39 9900 160/06 RMK AO2 SLP147 T02170072
93073KASE ASE20160725185510507/25/16 18:55:31  5-MIN KASE 260155Z 17007KT 10SM CLR 22/06 A3035 7450 35 10000 160/07 RMK AO2 T02220061
93073KASE ASE20160725190010507/25/16 19:00:31  5-MIN KASE 260200Z 17008KT 10SM CLR 22/06 A3034 7450 35 10000 160/08 RMK AO2 T02220061
93073KASE ASE20160725190510407/25/16 19:05:31  5-MIN KASE 260205Z 20007KT 10SM CLR 21/08 A3034 7450 43 9800 190/07 RMK AO2 T02060078
93073KASE ASE20160725191010407/25/16 19:10:31  5-MIN KASE 260210Z 21008KT 10SM CLR 20/08 A3034 7460 45 9700 200/08 RMK AO2 T02000078
93073KASE ASE20160725191510407/25/16 19:15:31  5-MIN KASE 260215Z 20007KT 10SM CLR 20/08 A3034 7460 45 9700 190/07 RMK AO2 T02000078
93073KASE ASE20160725192010407/25/16 19:20:31  5-MIN KASE 260220Z 19008KT 10SM CLR 19/08 A3034 7460 46 9700 180/08 RMK AO2 T01940078
93073KASE ASE20160725192510407/25/16 19:25:31  5-MIN KASE 260225Z 20008KT 10SM CLR 18/08 A3034 7450 53 9500 190/08 RMK AO2 T01780083
93073KASE ASE20160725193010407/25/16 19:30:31  5-MIN KASE 260230Z 19009KT 10SM CLR 19/07 A3034 7450 46 9600 180/09 RMK AO2 T01890072
93073KASE ASE20160725193510407/25/16 19:35:31  5-MIN KASE 260235Z 19007KT 10SM CLR 20/07 A3034 7450 41 9700 180/07 RMK AO2 T02000067
93073KASE ASE20160725194010407/25/16 19:40:31  5-MIN KASE 260240Z 21008KT 10SM CLR 19/07 A3034 7450 43 9700 200/08 RMK AO2 T01940067
93073KASE ASE20160725194510407/25/16 19:45:31  5-MIN KASE 260245Z 19007KT 10SM CLR 19/07 A3034 7450 44 9600 180/07 RMK AO2 T01890067
93073KASE ASE20160725195011707/25/16 19:50:31  5-MIN KASE 260250Z 19008KT 10SM CLR 18/07 A3035 7450 46 9500 180/08 RMK AO2 SLP149 T01830067 58007
93073KASE ASE20160725195510407/25/16 19:55:31  5-MIN KASE 260255Z 20008KT 10SM CLR 18/07 A3035 7450 48 9500 190/08 RMK AO2 T01780067
93073KASE ASE20160725200010407/25/16 20:00:31  5-MIN KASE 260300Z 21009KT 10SM CLR 18/07 A3035 7440 48 9500 200/09 RMK AO2 T01780067
93073KASE ASE20160725200510407/25/16 20:05:31  5-MIN KASE 260305Z 22008KT 10SM CLR 18/06 A3035 7440 46 9500 210/08 RMK AO2 T01780061
93073KASE ASE20160725201010407/25/16 20:10:31  5-MIN KASE 260310Z 20006KT 10SM CLR 17/06 A3035 7440 47 9400 190/06 RMK AO2 T01720061
93073KASE ASE20160725201510407/25/16 20:15:31  5-MIN KASE 260315Z 21009KT 10SM CLR 18/06 A3035 7440 46 9500 200/09 RMK AO2 T01780061
93073KASE ASE20160725202010407/25/16 20:20:31  5-MIN KASE 260320Z 21009KT 10SM CLR 17/06 A3036 7440 47 9400 200/09 RMK AO2 T01720061
93073KASE ASE20160725202510407/25/16 20:25:31  5-MIN KASE 260325Z 21008KT 10SM CLR 16/06 A3036 7440 51 9300 200/08 RMK AO2 T01610061
93073KASE ASE20160725203010407/25/16 20:30:31  5-MIN KASE 260330Z 21009KT 10SM CLR 16/06 A3036 7430 53 9200 210/09 RMK AO2 T01560061
93073KASE ASE20160725203510407/25/16 20:35:31  5-MIN KASE 260335Z 22009KT 10SM CLR 16/06 A3037 7430 49 9300 210/09 RMK AO2 T01610056
93073KASE ASE20160725204010407/25/16 20:40:31  5-MIN KASE 260340Z 22009KT 10SM CLR 17/06 A3037 7430 47 9300 210/09 RMK AO2 T01670056
93073KASE ASE20160725204510407/25/16 20:45:31  5-MIN KASE 260345Z 22008KT 10SM CLR 17/05 A3037 7430 45 9300 210/08 RMK AO2 T01670050
93073KASE ASE20160725205011107/25/16 20:50:31  5-MIN KASE 260350Z 21008KT 10SM CLR 17/05 A3037 7420 45 9300 200/08 RMK AO2 SLP157 T01670050
93073KASE ASE20160725205510407/25/16 20:55:31  5-MIN KASE 260355Z 21007KT 10SM CLR 17/05 A3038 7420 44 9400 200/07 RMK AO2 T01720050
93073KASE ASE20160725210010407/25/16 21:00:31  5-MIN KASE 260400Z 22008KT 10SM CLR 17/05 A3038 7420 45 9300 210/08 RMK AO2 T01670050
93073KASE ASE20160725210510407/25/16 21:05:31  5-MIN KASE 260405Z 22009KT 10SM CLR 17/05 A3038 7420 45 9300 210/09 RMK AO2 T01670050
93073KASE ASE20160725211010407/25/16 21:10:31  5-MIN KASE 260410Z 22008KT 10SM CLR 16/05 A3038 7420 47 9300 210/08 RMK AO2 T01610050
93073KASE ASE20160725211510407/25/16 21:15:31  5-MIN KASE 260415Z 21006KT 10SM CLR 17/05 A3038 7420 44 9400 200/06 RMK AO2 T01720050
93073KASE ASE20160725212010407/25/16 21:20:31  5-MIN KASE 260420Z 22008KT 10SM CLR 17/05 A3038 7420 45 9300 210/08 RMK AO2 T01670050
93073KASE ASE20160725212510407/25/16 21:25:31  5-MIN KASE 260425Z 23007KT 10SM CLR 17/04 A3039 7410 42 9400 220/07 RMK AO2 T01720044
93073KASE ASE20160725213010407/25/16 21:30:31  5-MIN KASE 260430Z 21006KT 10SM CLR 17/04 A3038 7410 42 9400 200/06 RMK AO2 T01720044
93073KASE ASE20160725213510407/25/16 21:35:31  5-MIN KASE 260435Z 21007KT 10SM CLR 17/04 A3039 7410 42 9400 200/07 RMK AO2 T01720044
93073KASE ASE20160725214010407/25/16 21:40:31  5-MIN KASE 260440Z 21005KT 10SM CLR 17/04 A3039 7410 42 9400 200/05 RMK AO2 T01720044
93073KASE ASE20160725214510407/25/16 21:45:31  5-MIN KASE 260445Z 20007KT 10SM CLR 17/04 A3039 7410 42 9400 190/07 RMK AO2 T01720044
93073KASE ASE20160725215011107/25/16 21:50:31  5-MIN KASE 260450Z 20006KT 10SM CLR 17/04 A3039 7410 42 9400 190/06 RMK AO2 SLP153 T01720044
93073KASE ASE20160725215510407/25/16 21:55:31  5-MIN KASE 260455Z 21005KT 10SM CLR 17/04 A3039 7410 42 9400 200/05 RMK AO2 T01720044
93073KASE ASE20160725220010407/25/16 22:00:31  5-MIN KASE 260500Z 19005KT 10SM CLR 17/04 A3039 7410 44 9300 180/05 RMK AO2 T01670044
93073KASE ASE20160725220510407/25/16 22:05:31  5-MIN KASE 260505Z 20005KT 10SM CLR 17/04 A3039 7410 44 9300 190/05 RMK AO2 T01670044
93073KASE ASE20160725221010407/25/16 22:10:31  5-MIN KASE 260510Z 20006KT 10SM CLR 16/05 A3038 7410 47 9300 200/06 RMK AO2 T01610050
93073KASE ASE20160725221510407/25/16 22:15:31  5-MIN KASE 260515Z 20006KT 10SM CLR 16/05 A3038 7410 49 9200 200/06 RMK AO2 T01560050
93073KASE ASE20160725222010407/25/16 22:20:31  5-MIN KASE 260520Z 21007KT 10SM CLR 16/05 A3038 7410 49 9200 200/07 RMK AO2 T01560050
93073KASE ASE20160725222510407/25/16 22:25:31  5-MIN KASE 260525Z 21007KT 10SM CLR 16/04 A3039 7410 45 9300 200/07 RMK AO2 T01610044
93073KASE ASE20160725223010407/25/16 22:30:31  5-MIN KASE 260530Z 19005KT 10SM CLR 16/05 A3039 7410 49 9200 190/05 RMK AO2 T01560050
93073KASE ASE20160725223510407/25/16 22:35:31  5-MIN KASE 260535Z 18008KT 10SM CLR 15/05 A3039 7410 51 9100 170/08 RMK AO2 T01500050
93073KASE ASE20160725224010407/25/16 22:40:31  5-MIN KASE 260540Z VRB05KT 10SM CLR 15/05 A3039 7410 51 9100 VRB/05 RMK AO2 T01500050
93073KASE ASE20160725224510407/25/16 22:45:31  5-MIN KASE 260545Z VRB04KT 10SM CLR 14/05 A3040 7400 53 9100 VRB/04 RMK AO2 T01440050
93073KASE ASE20160725225012907/25/16 22:50:31  5-MIN KASE 260550Z VRB03KT 10SM CLR 16/04 A3040 7400 45 9200 VRB/03 RMK AO2 SLP150 T01610044 10261 20144 53002
93073KASE ASE20160725225510407/25/16 22:55:31  5-MIN KASE 260555Z 00000KT 10SM CLR 15/05 A3040 7400 51 9100 000/00 RMK AO2 T01500050
93073KASE ASE20160725230010407/25/16 23:00:31  5-MIN KASE 260600Z 00000KT 10SM CLR 16/05 A3040 7400 49 9200 000/00 RMK AO2 T01560050
93073KASE ASE20160725230510407/25/16 23:05:31  5-MIN KASE 260605Z 21003KT 10SM CLR 14/06 A3040 7400 55 9100 200/03 RMK AO2 T01440056
93073KASE ASE20160725231010407/25/16 23:10:31  5-MIN KASE 260610Z 21004KT 10SM CLR 14/06 A3040 7400 55 9100 200/04 RMK AO2 T01440056
93073KASE ASE20160725231510907/25/16 23:15:31  5-MIN KASE 260615Z AUTO 22005KT 10SM CLR 14/06 A3040 7400 55 9100 210/05 RMK AO2 T01440056
93073KASE ASE20160725232010907/25/16 23:20:31  5-MIN KASE 260620Z AUTO 21004KT 10SM CLR 14/06 A3040 7400 55 9100 200/04 RMK AO2 T01440056
93073KASE ASE20160725232510907/25/16 23:25:31  5-MIN KASE 260625Z AUTO 19004KT 10SM CLR 14/06 A3040 7400 55 9100 190/04 RMK AO2 T01440056
93073KASE ASE20160725233010907/25/16 23:30:31  5-MIN KASE 260630Z AUTO 20006KT 10SM CLR 14/06 A3040 7400 55 9100 190/06 RMK AO2 T01440056
93073KASE ASE20160725233510907/25/16 23:35:31  5-MIN KASE 260635Z AUTO 19004KT 10SM CLR 14/06 A3040 7400 57 9000 180/04 RMK AO2 T01390056
93073KASE ASE20160725234010907/25/16 23:40:31  5-MIN KASE 260640Z AUTO 20005KT 10SM CLR 13/06 A3040 7400 59 8900 190/05 RMK AO2 T01330056
93073KASE ASE20160725234510907/25/16 23:45:31  5-MIN KASE 260645Z AUTO 20006KT 10SM CLR 13/06 A3040 7400 59 8900 190/06 RMK AO2 T01330056
93073KASE ASE20160725235012607/25/16 23:50:31  5-MIN KASE 260650Z AUTO 20005KT 10SM CLR 14/06 A3040 7400 57 9000 190/05 RMK AO2 SLP163 T01390056 402780083
93073KASE ASE20160725235510907/25/16 23:55:31  5-MIN KASE 260655Z AUTO 17006KT 10SM CLR 14/05 A3040 7400 55 9000 160/06 RMK AO2 T01390050
93073KASE ASE20160726000010907/26/16 00:00:31  5-MIN KASE 260700Z AUTO 17006KT 10SM CLR 15/05 A3040 7400 51 9100 170/06 RMK AO2 T01500050
93073KASE ASE20160726000510907/26/16 00:05:31  5-MIN KASE 260705Z AUTO 18006KT 10SM CLR 15/04 A3040 7400 49 9100 170/06 RMK AO2 T01500044
93073KASE ASE20160726001010907/26/16 00:10:31  5-MIN KASE 260710Z AUTO 19006KT 10SM CLR 14/05 A3040 7400 53 9100 180/06 RMK AO2 T01440050
93073KASE ASE20160726001510907/26/16 00:15:31  5-MIN KASE 260715Z AUTO 21006KT 10SM CLR 14/06 A3040 7400 55 9100 200/06 RMK AO2 T01440056
93073KASE ASE20160726002010907/26/16 00:20:31  5-MIN KASE 260720Z AUTO 20007KT 10SM CLR 14/06 A3040 7400 57 9000 190/07 RMK AO2 T01390056
93073KASE ASE20160726002510907/26/16 00:25:31  5-MIN KASE 260725Z AUTO 20007KT 10SM CLR 15/05 A3040 7400 51 9100 190/07 RMK AO2 T01500050
93073KASE ASE20160726003010907/26/16 00:30:31  5-MIN KASE 260730Z AUTO 18006KT 10SM CLR 14/05 A3040 7400 55 9000 170/06 RMK AO2 T01390050
93073KASE ASE20160726003510907/26/16 00:35:31  5-MIN KASE 260735Z AUTO 18007KT 10SM CLR 14/05 A3040 7400 55 9000 180/07 RMK AO2 T01390050
93073KASE ASE20160726004010907/26/16 00:40:31  5-MIN KASE 260740Z AUTO 19007KT 10SM CLR 13/05 A3040 7400 57 8900 180/07 RMK AO2 T01330050
93073KASE ASE20160726004510907/26/16 00:45:31  5-MIN KASE 260745Z AUTO 18008KT 10SM CLR 13/06 A3040 7400 61 8900 170/08 RMK AO2 T01280056
93073KASE ASE20160726005011607/26/16 00:50:31  5-MIN KASE 260750Z AUTO 18008KT 10SM CLR 13/05 A3040 7400 57 8900 170/08 RMK AO2 SLP162 T01330050
93073KASE ASE20160726005510907/26/16 00:55:31  5-MIN KASE 260755Z AUTO 20008KT 10SM CLR 14/05 A3040 7400 55 9000 190/08 RMK AO2 T01390050
93073KASE ASE20160726010010907/26/16 01:00:31  5-MIN KASE 260800Z AUTO 20005KT 10SM CLR 14/04 A3040 7400 52 9000 190/05 RMK AO2 T01390044
93073KASE ASE20160726010510907/26/16 01:05:31  5-MIN KASE 260805Z AUTO 19006KT 10SM CLR 13/04 A3040 7400 54 8900 180/06 RMK AO2 T01330044
93073KASE ASE20160726011010907/26/16 01:10:31  5-MIN KASE 260810Z AUTO 19007KT 10SM CLR 12/05 A3040 7400 61 8800 180/07 RMK AO2 T01220050
93073KASE ASE20160726011510907/26/16 01:15:31  5-MIN KASE 260815Z AUTO 21006KT 10SM CLR 12/05 A3040 7400 63 8700 200/06 RMK AO2 T01170050
93073KASE ASE20160726012010907/26/16 01:20:31  5-MIN KASE 260820Z AUTO 20004KT 10SM CLR 12/05 A3040 7400 63 8700 190/04 RMK AO2 T01170050
93073KASE ASE20160726012510907/26/16 01:25:31  5-MIN KASE 260825Z AUTO 21006KT 10SM CLR 12/05 A3040 7400 61 8800 200/06 RMK AO2 T01220050
93073KASE ASE20160726013010907/26/16 01:30:31  5-MIN KASE 260830Z AUTO 20005KT 10SM CLR 12/05 A3040 7400 61 8800 200/05 RMK AO2 T01220050
93073KASE ASE20160726013510907/26/16 01:35:31  5-MIN KASE 260835Z AUTO 20005KT 10SM CLR 13/05 A3040 7400 59 8900 190/05 RMK AO2 T01280050
93073KASE ASE20160726014010907/26/16 01:40:31  5-MIN KASE 260840Z AUTO 00000KT 10SM CLR 13/04 A3040 7400 56 8900 000/00 RMK AO2 T01280044
93073KASE ASE20160726014510907/26/16 01:45:31  5-MIN KASE 260845Z AUTO 21004KT 10SM CLR 12/05 A3040 7400 61 8800 200/04 RMK AO2 T01220050
93073KASE ASE20160726015012207/26/16 01:50:31  5-MIN KASE 260850Z AUTO 21006KT 10SM CLR 12/05 A3040 7400 61 8800 200/06 RMK AO2 SLP167 T01220050 51015
93073KASE ASE20160726015510907/26/16 01:55:31  5-MIN KASE 260855Z AUTO 20006KT 10SM CLR 13/04 A3040 7400 54 8900 190/06 RMK AO2 T01330044
93073KASE ASE20160726020010907/26/16 02:00:31  5-MIN KASE 260900Z AUTO 21007KT 10SM CLR 13/04 A3040 7400 56 8900 200/07 RMK AO2 T01280044
93073KASE ASE20160726020510907/26/16 02:05:31  5-MIN KASE 260905Z AUTO 21007KT 10SM CLR 13/04 A3040 7400 54 8900 200/07 RMK AO2 T01330044
93073KASE ASE20160726021010907/26/16 02:10:31  5-MIN KASE 260910Z AUTO 20005KT 10SM CLR 13/04 A3040 7400 56 8900 190/05 RMK AO2 T01280044
93073KASE ASE20160726021510907/26/16 02:15:31  5-MIN KASE 260915Z AUTO 19005KT 10SM CLR 13/04 A3039 7410 56 8900 180/05 RMK AO2 T01280044
93073KASE ASE20160726022010907/26/16 02:20:31  5-MIN KASE 260920Z AUTO 21007KT 10SM CLR 13/05 A3040 7400 59 8900 200/07 RMK AO2 T01280050
93073KASE ASE20160726022510907/26/16 02:25:31  5-MIN KASE 260925Z AUTO 22007KT 10SM CLR 13/04 A3040 7400 56 8900 210/07 RMK AO2 T01280044
93073KASE ASE20160726023010907/26/16 02:30:31  5-MIN KASE 260930Z AUTO 21007KT 10SM CLR 13/04 A3040 7400 56 8900 200/07 RMK AO2 T01280044
93073KASE ASE20160726023510907/26/16 02:35:31  5-MIN KASE 260935Z AUTO 17005KT 10SM CLR 13/04 A3040 7400 54 8900 160/05 RMK AO2 T01330044
93073KASE ASE20160726024010907/26/16 02:40:31  5-MIN KASE 260940Z AUTO 19005KT 10SM CLR 13/04 A3039 7410 56 8900 190/05 RMK AO2 T01280044
93073KASE ASE20160726024510907/26/16 02:45:31  5-MIN KASE 260945Z AUTO 20005KT 10SM CLR 12/04 A3040 7400 59 8800 190/05 RMK AO2 T01220044
93073KASE ASE20160726025011607/26/16 02:50:31  5-MIN KASE 260950Z AUTO 20006KT 10SM CLR 12/04 A3040 7400 59 8800 190/06 RMK AO2 SLP165 T01220044
93073KASE ASE20160726025510907/26/16 02:55:31  5-MIN KASE 260955Z AUTO 20007KT 10SM CLR 12/04 A3040 7400 61 8700 190/07 RMK AO2 T01170044
93073KASE ASE20160726030010907/26/16 03:00:31  5-MIN KASE 261000Z AUTO 21008KT 10SM CLR 12/04 A3039 7410 61 8700 200/08 RMK AO2 T01170044
93073KASE ASE20160726030510907/26/16 03:05:31  5-MIN KASE 261005Z AUTO 22009KT 10SM CLR 12/04 A3040 7400 61 8700 210/09 RMK AO2 T01170044
93073KASE ASE20160726031010907/26/16 03:10:31  5-MIN KASE 261010Z AUTO 21009KT 10SM CLR 12/04 A3039 7410 61 8700 200/09 RMK AO2 T01170044
93073KASE ASE20160726031510907/26/16 03:15:31  5-MIN KASE 261015Z AUTO 20008KT 10SM CLR 13/04 A3039 7410 56 8900 190/08 RMK AO2 T01280044
93073KASE ASE20160726032010907/26/16 03:20:31  5-MIN KASE 261020Z AUTO 20009KT 10SM CLR 12/04 A3039 7410 56 8800 200/09 RMK AO2 T01220039
93073KASE ASE20160726032510907/26/16 03:25:31  5-MIN KASE 261025Z AUTO 21009KT 10SM CLR 13/04 A3039 7410 52 8900 210/09 RMK AO2 T01330039
93073KASE ASE20160726033010907/26/16 03:30:31  5-MIN KASE 261030Z AUTO 21009KT 10SM CLR 13/04 A3039 7410 52 8900 200/09 RMK AO2 T01330039
93073KASE ASE20160726033510907/26/16 03:35:31  5-MIN KASE 261035Z AUTO 22008KT 10SM CLR 14/04 A3039 7410 50 9000 210/08 RMK AO2 T01390039
93073KASE ASE20160726034010907/26/16 03:40:31  5-MIN KASE 261040Z AUTO 22006KT 10SM CLR 13/04 A3039 7410 52 8900 210/06 RMK AO2 T01330039
93073KASE ASE20160726034510907/26/16 03:45:31  5-MIN KASE 261045Z AUTO 20003KT 10SM CLR 14/04 A3039 7410 50 9000 190/03 RMK AO2 T01390039
93073KASE ASE20160726035011607/26/16 03:50:31  5-MIN KASE 261050Z AUTO 22005KT 10SM CLR 13/04 A3039 7410 54 8900 210/05 RMK AO2 SLP157 T01280039
93073KASE ASE20160726035510907/26/16 03:55:31  5-MIN KASE 261055Z AUTO 21004KT 10SM CLR 13/04 A3039 7410 54 8900 200/04 RMK AO2 T01280039
93073KASE ASE20160726040010907/26/16 04:00:31  5-MIN KASE 261100Z AUTO 19003KT 10SM CLR 12/04 A3039 7410 56 8800 180/03 RMK AO2 T01220039
93073KASE ASE20160726040510907/26/16 04:05:31  5-MIN KASE 261105Z AUTO 19004KT 10SM CLR 11/05 A3039 7410 68 8600 180/04 RMK AO2 T01060050
93073KASE ASE20160726041010907/26/16 04:10:31  5-MIN KASE 261110Z AUTO 19005KT 10SM CLR 11/04 A3039 7410 63 8700 180/05 RMK AO2 T01110044
93073KASE ASE20160726041510907/26/16 04:15:31  5-MIN KASE 261115Z AUTO 20006KT 10SM CLR 11/04 A3039 7410 63 8700 190/06 RMK AO2 T01110044
93073KASE ASE20160726042010907/26/16 04:20:31  5-MIN KASE 261120Z AUTO 22008KT 10SM CLR 12/04 A3039 7410 61 8800 210/08 RMK AO2 T01170044
93073KASE ASE20160726042510907/26/16 04:25:31  5-MIN KASE 261125Z AUTO 21008KT 10SM CLR 12/04 A3039 7410 61 8800 200/08 RMK AO2 T01170044
93073KASE ASE20160726043010907/26/16 04:30:31  5-MIN KASE 261130Z AUTO 19007KT 10SM CLR 12/04 A3039 7410 59 8800 180/07 RMK AO2 T01220044
93073KASE ASE20160726043510907/26/16 04:35:31  5-MIN KASE 261135Z AUTO 19008KT 10SM CLR 12/04 A3039 7410 59 8800 180/08 RMK AO2 T01220044
93073KASE ASE20160726044010907/26/16 04:40:31  5-MIN KASE 261140Z AUTO 21008KT 10SM CLR 12/04 A3039 7410 59 8800 210/08 RMK AO2 T01220044
93073KASE ASE20160726044510907/26/16 04:45:31  5-MIN KASE 261145Z AUTO 21008KT 10SM CLR 13/04 A3039 7410 56 8900 200/08 RMK AO2 T01280044
93073KASE ASE20160726045013407/26/16 04:50:31  5-MIN KASE 261150Z AUTO 21007KT 10SM CLR 13/04 A3039 7410 52 8900 200/07 RMK AO2 SLP159 T01330039 10156 20106 57001
93073KASE ASE20160726045510907/26/16 04:55:31  5-MIN KASE 261155Z AUTO 21006KT 10SM CLR 14/04 A3039 7410 50 9000 210/06 RMK AO2 T01390039
93073KASE ASE20160726050010907/26/16 05:00:31  5-MIN KASE 261200Z AUTO 19005KT 10SM CLR 14/04 A3039 7410 50 9000 190/05 RMK AO2 T01390039
93073KASE ASE20160726050510907/26/16 05:05:31  5-MIN KASE 261205Z AUTO 21006KT 10SM CLR 13/04 A3039 7410 54 8900 200/06 RMK AO2 T01330044
93073KASE ASE20160726051010907/26/16 05:10:31  5-MIN KASE 261210Z AUTO 20006KT 10SM CLR 13/04 A3039 7410 54 8900 190/06 RMK AO2 T01330044
93073KASE ASE20160726051510907/26/16 05:15:31  5-MIN KASE 261215Z AUTO 22006KT 10SM CLR 14/04 A3039 7410 52 9000 210/06 RMK AO2 T01390044
93073KASE ASE20160726052010907/26/16 05:20:31  5-MIN KASE 261220Z AUTO 21004KT 10SM CLR 15/04 A3040 7400 47 9100 210/04 RMK AO2 T01500039
93073KASE ASE20160726052510907/26/16 05:25:31  5-MIN KASE 261225Z AUTO 20006KT 10SM CLR 14/04 A3039 7410 49 9100 190/06 RMK AO2 T01440039
93073KASE ASE20160726053010907/26/16 05:30:31  5-MIN KASE 261230Z AUTO 20004KT 10SM CLR 14/04 A3040 7400 51 9100 190/04 RMK AO2 T01440044
93073KASE ASE20160726053510907/26/16 05:35:31  5-MIN KASE 261235Z AUTO 20005KT 10SM CLR 14/05 A3040 7400 55 9000 190/05 RMK AO2 T01390050
93073KASE ASE20160726054010907/26/16 05:40:31  5-MIN KASE 261240Z AUTO 22005KT 10SM CLR 14/04 A3040 7400 51 9100 210/05 RMK AO2 T01440044
93073KASE ASE20160726054510407/26/16 05:45:31  5-MIN KASE 261245Z 22005KT 10SM CLR 14/04 A3040 7400 51 9100 210/05 RMK AO2 T01440044
93073KASE ASE20160726055011107/26/16 05:50:31  5-MIN KASE 261250Z 22007KT 10SM CLR 14/04 A3040 7400 51 9100 210/07 RMK AO2 SLP160 T01440044
93073KASE ASE20160726055510407/26/16 05:55:31  5-MIN KASE 261255Z 21005KT 10SM CLR 15/04 A3040 7400 49 9100 200/05 RMK AO2 T01500044
93073KASE ASE20160726060010407/26/16 06:00:31  5-MIN KASE 261300Z 21004KT 10SM CLR 14/05 A3040 7400 53 9100 200/04 RMK AO2 T01440050
93073KASE ASE20160726060510407/26/16 06:05:31  5-MIN KASE 261305Z 21005KT 10SM CLR 14/05 A3040 7400 53 9100 200/05 RMK AO2 T01440050
93073KASE ASE20160726061010407/26/16 06:10:31  5-MIN KASE 261310Z 21006KT 10SM CLR 14/05 A3040 7400 53 9100 200/06 RMK AO2 T01440050
93073KASE ASE20160726061510407/26/16 06:15:31  5-MIN KASE 261315Z 22006KT 10SM CLR 14/06 A3040 7400 55 9100 210/06 RMK AO2 T01440056
93073KASE ASE20160726062010407/26/16 06:20:31  5-MIN KASE 261320Z 21004KT 10SM CLR 14/06 A3040 7400 55 9100 200/04 RMK AO2 T01440056
93073KASE ASE20160726062510407/26/16 06:25:31  5-MIN KASE 261325Z 22004KT 10SM CLR 14/06 A3040 7400 57 9100 210/04 RMK AO2 T01440061
93073KASE ASE20160726063010407/26/16 06:30:31  5-MIN KASE 261330Z 00000KT 10SM CLR 15/06 A3040 7400 55 9100 000/00 RMK AO2 T01500061
93073KASE ASE20160726063510407/26/16 06:35:31  5-MIN KASE 261335Z 21004KT 10SM CLR 16/06 A3040 7400 53 9200 200/04 RMK AO2 T01560061
93073KASE ASE20160726064010407/26/16 06:40:31  5-MIN KASE 261340Z 20003KT 10SM CLR 16/06 A3040 7400 53 9200 190/03 RMK AO2 T01560061
93073KASE ASE20160726064510407/26/16 06:45:31  5-MIN KASE 261345Z 17003KT 10SM CLR 16/07 A3040 7400 55 9200 160/03 RMK AO2 T01560067
93073KASE ASE20160726065011107/26/16 06:50:31  5-MIN KASE 261350Z 00000KT 10SM CLR 16/06 A3040 7400 51 9200 000/00 RMK AO2 SLP167 T01610061
93073KASE ASE20160726065510407/26/16 06:55:31  5-MIN KASE 261355Z 00000KT 10SM CLR 17/06 A3040 7400 47 9300 000/00 RMK AO2 T01670056
93073KASE ASE20160726070010407/26/16 07:00:31  5-MIN KASE 261400Z 00000KT 10SM CLR 17/05 A3040 7400 45 9300 000/00 RMK AO2 T01670050
93073KASE ASE20160726070510407/26/16 07:05:31  5-MIN KASE 261405Z 00000KT 10SM CLR 17/07 A3041 7390 51 9300 000/00 RMK AO2 T01670067
93073KASE ASE20160726071010407/26/16 07:10:31  5-MIN KASE 261410Z 00000KT 10SM CLR 17/07 A3041 7390 51 9300 000/00 RMK AO2 T01670067
93073KASE ASE20160726071510407/26/16 07:15:31  5-MIN KASE 261415Z 00000KT 10SM CLR 17/06 A3040 7400 47 9400 000/00 RMK AO2 T01720061
93073KASE ASE20160726072010407/26/16 07:20:31  5-MIN KASE 261420Z 00000KT 10SM CLR 17/06 A3040 7400 47 9400 000/00 RMK AO2 T01720061
93073KASE ASE20160726072510407/26/16 07:25:31  5-MIN KASE 261425Z 00000KT 10SM CLR 17/07 A3040 7400 49 9400 000/00 RMK AO2 T01720067
93073KASE ASE20160726073010407/26/16 07:30:31  5-MIN KASE 261430Z 00000KT 10SM CLR 18/07 A3041 7400 49 9400 000/00 RMK AO2 T01780072
93073KASE ASE20160726073510407/26/16 07:35:31  5-MIN KASE 261435Z 00000KT 10SM CLR 18/07 A3041 7400 48 9400 000/00 RMK AO2 T01780067
93073KASE ASE20160726074010407/26/16 07:40:31  5-MIN KASE 261440Z 00000KT 10SM CLR 18/07 A3040 7400 48 9500 000/00 RMK AO2 T01830072
93073KASE ASE20160726074510407/26/16 07:45:31  5-MIN KASE 261445Z 35003KT 10SM CLR 18/07 A3040 7400 48 9500 340/03 RMK AO2 T01830072
93073KASE ASE20160726075011707/26/16 07:50:31  5-MIN KASE 261450Z 00000KT 10SM CLR 18/07 A3040 7400 46 9500 000/00 RMK AO2 SLP168 T01830067 57002
93073KASE ASE20160726075510407/26/16 07:55:31  5-MIN KASE 261455Z 00000KT 10SM CLR 18/07 A3040 7400 48 9500 000/00 RMK AO2 T01830072
93073KASE ASE20160726080010407/26/16 08:00:31  5-MIN KASE 261500Z 00000KT 10SM CLR 19/07 A3040 7400 46 9500 000/00 RMK AO2 T01890072
93073KASE ASE20160726080510407/26/16 08:05:31  5-MIN KASE 261505Z 00000KT 10SM CLR 19/07 A3040 7400 46 9500 000/00 RMK AO2 T01890072
93073KASE ASE20160726081010407/26/16 08:10:31  5-MIN KASE 261510Z 00000KT 10SM CLR 19/07 A3041 7400 46 9500 000/00 RMK AO2 T01890072
93073KASE ASE20160726081510407/26/16 08:15:31  5-MIN KASE 261515Z 01003KT 10SM CLR 19/07 A3041 7390 46 9500 360/03 RMK AO2 T01890072
93073KASE ASE20160726082010407/26/16 08:20:31  5-MIN KASE 261520Z 36003KT 10SM CLR 19/07 A3041 7390 46 9500 360/03 RMK AO2 T01890072
93073KASE ASE20160726082510407/26/16 08:25:31  5-MIN KASE 261525Z 03003KT 10SM CLR 19/07 A3041 7390 46 9500 020/03 RMK AO2 T01890072
93073KASE ASE20160726083010407/26/16 08:30:31  5-MIN KASE 261530Z 02003KT 10SM CLR 19/08 A3041 7390 46 9600 010/03 RMK AO2 T01940078
93073KASE ASE20160726083510707/26/16 08:35:31  5-MIN KASE 261535Z 02004KT 10SM FEW120 19/07 A3041 7390 44 9600 010/04 RMK AO2 T01940072
93073KASE ASE20160726084010707/26/16 08:40:31  5-MIN KASE 261540Z 01004KT 10SM SCT120 19/07 A3041 7390 44 9600 360/04 RMK AO2 T01940072
93073KASE ASE20160726084510707/26/16 08:45:31  5-MIN KASE 261545Z 35006KT 10SM SCT120 19/08 A3041 7390 46 9600 340/06 RMK AO2 T01940078
93073KASE ASE20160726085011407/26/16 08:50:31  5-MIN KASE 261550Z 36005KT 10SM SCT120 19/08 A3041 7390 46 9600 350/05 RMK AO2 SLP171 T01940078
93073KASE ASE20160726085510707/26/16 08:55:31  5-MIN KASE 261555Z 35006KT 10SM BKN110 19/08 A3041 7390 48 9600 340/06 RMK AO2 T01940083
93073KASE ASE20160726090010707/26/16 09:00:31  5-MIN KASE 261600Z 35006KT 10SM BKN110 19/08 A3041 7390 48 9600 340/06 RMK AO2 T01940083
93073KASE ASE20160726090510707/26/16 09:05:31  5-MIN KASE 261605Z 35007KT 10SM BKN100 19/08 A3041 7390 48 9600 340/07 RMK AO2 T01940083
93073KASE ASE20160726091010707/26/16 09:10:31  5-MIN KASE 261610Z 35005KT 10SM BKN100 19/08 A3041 7390 46 9600 340/05 RMK AO2 T01940078
93073KASE ASE20160726091510707/26/16 09:15:31  5-MIN KASE 261615Z 35005KT 10SM BKN100 19/07 A3041 7390 44 9600 350/05 RMK AO2 T01940072
93073KASE ASE20160726092010707/26/16 09:20:31  5-MIN KASE 261620Z 32005KT 10SM SCT100 20/07 A3041 7390 43 9700 310/05 RMK AO2 T02000072
93073KASE ASE20160726092510707/26/16 09:25:31  5-MIN KASE 261625Z 33004KT 10SM FEW100 20/07 A3041 7390 43 9700 320/04 RMK AO2 T02000072
93073KASE ASE20160726093010707/26/16 09:30:31  5-MIN KASE 261630Z 34006KT 10SM FEW110 21/07 A3041 7390 41 9700 330/06 RMK AO2 T02060072
93073KASE ASE20160726093510707/26/16 09:35:31  5-MIN KASE 261635Z 34008KT 10SM FEW110 21/08 A3041 7390 43 9700 330/08 RMK AO2 T02060078
93073KASE ASE20160726094010407/26/16 09:40:31  5-MIN KASE 261640Z 35005KT 10SM CLR 21/07 A3041 7390 41 9700 340/05 RMK AO2 T02060072
93073KASE ASE20160726094510407/26/16 09:45:31  5-MIN KASE 261645Z 35004KT 10SM CLR 21/07 A3041 7390 40 9800 340/04 RMK AO2 T02110072
93073KASE ASE20160726095011407/26/16 09:50:31  5-MIN KASE 261650Z 36005KT 10SM BKN120 21/07 A3041 7390 40 9800 350/05 RMK AO2 SLP167 T02110072
93073KASE ASE20160726095510407/26/16 09:55:31  5-MIN KASE 261655Z 01004KT 10SM CLR 22/08 A3041 7390 40 9800 360/04 RMK AO2 T02170078
93073KASE ASE20160726100010407/26/16 10:00:31  5-MIN KASE 261700Z 02006KT 10SM CLR 21/07 A3041 7390 40 9800 010/06 RMK AO2 T02110072
93073KASE ASE20160726100510407/26/16 10:05:31  5-MIN KASE 261705Z 36007KT 10SM CLR 22/08 A3041 7390 39 9900 350/07 RMK AO2 T02220078
93073KASE ASE20160726101010407/26/16 10:10:31  5-MIN KASE 261710Z 35007KT 10SM CLR 22/08 A3041 7390 39 9900 340/07 RMK AO2 T02220078
93073KASE ASE20160726101510507/26/16 10:15:31  5-MIN KASE 261715Z 36006KT 10SM CLR 23/08 A3041 7390 37 10000 350/06 RMK AO2 T02280078
93073KASE ASE20160726102010407/26/16 10:20:31  5-MIN KASE 261720Z 36004KT 10SM CLR 23/07 A3041 7390 36 9900 350/04 RMK AO2 T02280072
93073KASE ASE20160726102510407/26/16 10:25:31  5-MIN KASE 261725Z VRB06KT 10SM CLR 22/07 A3041 7390 37 9900 VRB/06 RMK AO2 T02220072
93073KASE ASE20160726103010407/26/16 10:30:31  5-MIN KASE 261730Z 36005KT 10SM CLR 22/07 A3041 7390 37 9900 350/05 RMK AO2 T02220072
93073KASE ASE20160726103510507/26/16 10:35:31  5-MIN KASE 261735Z 35006KT 10SM CLR 23/07 A3041 7390 36 10000 340/06 RMK AO2 T02280072
93073KASE ASE20160726104010507/26/16 10:40:31  5-MIN KASE 261740Z 35004KT 10SM CLR 23/07 A3041 7390 36 10000 340/04 RMK AO2 T02280072
93073KASE ASE20160726104510507/26/16 10:45:31  5-MIN KASE 261745Z 36006KT 10SM CLR 23/07 A3041 7390 33 10000 350/06 RMK AO2 T02330067
93073KASE ASE20160726105013007/26/16 10:50:31  5-MIN KASE 261750Z 01006KT 10SM CLR 23/07 A3041 7390 35 10000 360/06 RMK AO2 SLP162 T02330072 10233 20133 51003
93073KASE ASE20160726105510507/26/16 10:55:31  5-MIN KASE 261755Z 01006KT 10SM CLR 24/07 A3041 7390 32 10100 360/06 RMK AO2 T02390067
93073KASE ASE20160726110010507/26/16 11:00:31  5-MIN KASE 261800Z 04005KT 10SM CLR 24/06 A3041 7390 31 10100 030/05 RMK AO2 T02390061
93073KASE ASE20160726110510507/26/16 11:05:31  5-MIN KASE 261805Z 01004KT 10SM CLR 24/06 A3041 7390 31 10100 010/04 RMK AO2 T02390061
93073KASE ASE20160726111010507/26/16 11:10:31  5-MIN KASE 261810Z VRB04KT 10SM CLR 24/06 A3041 7390 31 10100 VRB/04 RMK AO2 T02390061
93073KASE ASE20160726111510507/26/16 11:15:31  5-MIN KASE 261815Z VRB04KT 10SM CLR 24/06 A3041 7390 31 10100 VRB/04 RMK AO2 T02390061
93073KASE ASE20160726112010507/26/16 11:20:31  5-MIN KASE 261820Z VRB03KT 10SM CLR 24/06 A3041 7400 30 10100 VRB/03 RMK AO2 T02440061
93073KASE ASE20160726112510507/26/16 11:25:31  5-MIN KASE 261825Z 00000KT 10SM CLR 24/06 A3040 7400 30 10100 000/00 RMK AO2 T02440061
93073KASE ASE20160726113010807/26/16 11:30:31  5-MIN KASE 261830Z VRB04KT 10SM FEW110 24/06 A3040 7400 30 10100 VRB/04 RMK AO2 T02440061
93073KASE ASE20160726113510807/26/16 11:35:31  5-MIN KASE 261835Z 35004KT 10SM FEW110 24/05 A3040 7400 28 10100 340/04 RMK AO2 T02440050
93073KASE ASE20160726114010807/26/16 11:40:31  5-MIN KASE 261840Z 34005KT 10SM FEW110 24/06 A3040 7400 29 10100 330/05 RMK AO2 T02440056
93073KASE ASE20160726114510807/26/16 11:45:31  5-MIN KASE 261845Z 36006KT 10SM FEW110 25/05 A3040 7400 27 10200 350/06 RMK AO2 T02500050
93073KASE ASE20160726115011507/26/16 11:50:31  5-MIN KASE 261850Z 01005KT 10SM BKN110 25/04 A3040 7400 26 10200 360/05 RMK AO2 SLP161 T02500044
93073KASE ASE20160726115510807/26/16 11:55:31  5-MIN KASE 261855Z 36005KT 10SM SCT110 25/05 A3040 7400 27 10200 350/05 RMK AO2 T02500050
93073KASE ASE20160726120010807/26/16 12:00:31  5-MIN KASE 261900Z VRB06KT 10SM SCT110 25/06 A3040 7400 28 10200 VRB/06 RMK AO2 T02500056
93073KASE ASE20160726120510807/26/16 12:05:31  5-MIN KASE 261905Z 35003KT 10SM SCT110 25/04 A3040 7400 26 10200 340/03 RMK AO2 T02500044
93073KASE ASE20160726121010807/26/16 12:10:31  5-MIN KASE 261910Z 28006KT 10SM FEW110 24/04 A3040 7400 27 10100 270/06 RMK AO2 T02440044
93073KASE ASE20160726121510807/26/16 12:15:31  5-MIN KASE 261915Z 26007KT 10SM FEW110 24/05 A3039 7410 28 10100 250/07 RMK AO2 T02440050
93073KASE ASE20160726122010807/26/16 12:20:31  5-MIN KASE 261920Z 27004KT 10SM BKN110 24/05 A3039 7410 28 10200 260/04 RMK AO2 T02440050
93073KASE ASE20160726122510807/26/16 12:25:31  5-MIN KASE 261925Z 30004KT 10SM BKN110 24/04 A3039 7410 26 10200 290/04 RMK AO2 T02440039
93073KASE ASE20160726123010807/26/16 12:30:31  5-MIN KASE 261930Z 00000KT 10SM BKN110 24/04 A3039 7410 26 10200 000/00 RMK AO2 T02440039
93073KASE ASE20160726123510807/26/16 12:35:31  5-MIN KASE 261935Z 00000KT 10SM BKN110 25/04 A3039 7410 26 10200 000/00 RMK AO2 T02500044
93073KASE ASE20160726124010807/26/16 12:40:31  5-MIN KASE 261940Z 00000KT 10SM BKN110 25/05 A3038 7420 27 10200 000/00 RMK AO2 T02500050
93073KASE ASE20160726124510807/26/16 12:45:31  5-MIN KASE 261945Z VRB03KT 10SM BKN110 25/04 A3038 7420 26 10200 VRB/03 RMK AO2 T02500044
93073KASE ASE20160726125011507/26/16 12:50:31  5-MIN KASE 261950Z 02003KT 10SM BKN110 25/04 A3038 7420 26 10200 010/03 RMK AO2 SLP154 T02500044
93073KASE ASE20160726125512007/26/16 12:55:31  5-MIN KASE 261955Z VRB03KT 10SM FEW120 25/04 A3038 7420 26 10200 VRB/03 RMK AO2 LTG DSNT SW T02500044
93073KASE ASE20160726130012007/26/16 13:00:31  5-MIN KASE 262000Z 08004KT 10SM FEW110 25/04 A3037 7420 25 10200 070/04 RMK AO2 LTG DSNT SW T02500039
93073KASE ASE20160726130512007/26/16 13:05:31  5-MIN KASE 262005Z VRB03KT 10SM FEW110 25/04 A3037 7420 25 10200 VRB/03 RMK AO2 LTG DSNT SW T02500039
93073KASE ASE20160726131012007/26/16 13:10:31  5-MIN KASE 262010Z 07005KT 10SM FEW110 25/04 A3037 7430 26 10200 060/05 RMK AO2 LTG DSNT SW T02500044
93073KASE ASE20160726131510807/26/16 13:15:31  5-MIN KASE 262015Z 10004KT 10SM SCT110 25/05 A3037 7430 27 10200 100/04 RMK AO2 T02500050
93073KASE ASE20160726132010807/26/16 13:20:31  5-MIN KASE 262020Z VRB03KT 10SM SCT110 25/05 A3037 7430 27 10200 VRB/03 RMK AO2 T02500050
93073KASE ASE20160726132510807/26/16 13:25:31  5-MIN KASE 262025Z 07005KT 10SM FEW110 25/04 A3037 7430 26 10200 060/05 RMK AO2 T02500044
93073KASE ASE20160726133010807/26/16 13:30:31  5-MIN KASE 262030Z 12006KT 10SM FEW110 26/04 A3037 7430 25 10300 110/06 RMK AO2 T02560044
93073KASE ASE20160726133510807/26/16 13:35:31  5-MIN KASE 262035Z 13009KT 10SM FEW110 25/03 A3037 7430 24 10200 120/09 RMK AO2 T02500033
93073KASE ASE20160726134010807/26/16 13:40:31  5-MIN KASE 262040Z 15009KT 10SM FEW110 25/04 A3037 7430 25 10200 140/09 RMK AO2 T02500039
93073KASE ASE20160726134510807/26/16 13:45:31  5-MIN KASE 262045Z 15010KT 10SM SCT120 25/04 A3037 7430 25 10200 140/10 RMK AO2 T02500039
93073KASE ASE20160726135012107/26/16 13:50:31  5-MIN KASE 262050Z 12010KT 10SM BKN090 25/04 A3037 7430 25 10200 110/10 RMK AO2 SLP153 T02500039 50001
93073KASE ASE20160726135510807/26/16 13:55:31  5-MIN KASE 262055Z 13009KT 10SM FEW120 24/04 A3037 7430 26 10200 120/09 RMK AO2 T02440039
93073KASE ASE20160726140010807/26/16 14:00:31  5-MIN KASE 262100Z 11006KT 10SM FEW120 25/04 A3036 7430 26 10200 110/06 RMK AO2 T02500044
93073KASE ASE20160726140511407/26/16 14:05:31  5-MIN KASE 262105Z 12010G14KT 10SM SCT120 26/05 A3037 7430 26 10300 110/10G14 RMK AO2 T02560050
93073KASE ASE20160726141010807/26/16 14:10:31  5-MIN KASE 262110Z 12009KT 10SM BKN120 25/04 A3037 7430 25 10200 110/09 RMK AO2 T02500039
93073KASE ASE20160726141510807/26/16 14:15:31  5-MIN KASE 262115Z 13006KT 10SM SCT120 25/04 A3037 7430 25 10200 120/06 RMK AO2 T02500039
93073KASE ASE20160726142010807/26/16 14:20:31  5-MIN KASE 262120Z 12007KT 10SM FEW120 25/04 A3036 7430 26 10200 110/07 RMK AO2 T02500044
93073KASE ASE20160726142510807/26/16 14:25:31  5-MIN KASE 262125Z 12007KT 10SM FEW120 25/04 A3036 7430 26 10200 110/07 RMK AO2 T02500044
93073KASE ASE20160726143010807/26/16 14:30:31  5-MIN KASE 262130Z 12006KT 10SM FEW120 25/04 A3036 7440 26 10200 120/06 RMK AO2 T02500044
93073KASE ASE20160726143510507/26/16 14:35:31  5-MIN KASE 262135Z 14008KT 10SM CLR 25/04 A3036 7440 25 10300 130/08 RMK AO2 T02500039
93073KASE ASE20160726144011107/26/16 14:40:31  5-MIN KASE 262140Z 12006G15KT 10SM CLR 26/03 A3036 7440 23 10300 110/06G15 RMK AO2 T02560033
93073KASE ASE20160726144511107/26/16 14:45:31  5-MIN KASE 262145Z 12008G15KT 10SM CLR 25/02 A3035 7450 22 10300 110/08G15 RMK AO2 T02500022
93073KASE ASE20160726145011507/26/16 14:50:31  5-MIN KASE 262150Z 13007KT 10SM BKN090 26/03 A3035 7450 22 10300 120/07 RMK AO2 SLP147 T02560028
93073KASE ASE20160726145511707/26/16 14:55:31  5-MIN KASE 262155Z 14008KT 10SM CLR 26/02 A3035 7450 21 10300 130/08 RMK AO2 LTG DSNT NW T02560022
93073KASE ASE20160726150011707/26/16 15:00:31  5-MIN KASE 262200Z 13006KT 10SM CLR 26/02 A3035 7450 21 10400 120/06 RMK AO2 LTG DSNT NW T02610022
93073KASE ASE20160726150511707/26/16 15:05:31  5-MIN KASE 262205Z 00000KT 10SM CLR 26/02 A3035 7450 20 10400 000/00 RMK AO2 LTG DSNT NW T02610017
93073KASE ASE20160726151010507/26/16 15:10:31  5-MIN KASE 262210Z VRB03KT 10SM CLR 26/01 A3035 7450 20 10300 VRB/03 RMK AO2 T02560011
93073KASE ASE20160726151510507/26/16 15:15:31  5-MIN KASE 262215Z 00000KT 10SM CLR 25/02 A3034 7450 21 10300 000/00 RMK AO2 T02500017
93073KASE ASE20160726152011607/26/16 15:20:31  5-MIN KASE 262220Z 00000KT 10SM CLR 26/02 A3034 7450 21 10300 000/00 RMK AO2 LTG DSNT W T02560017
93073KASE ASE20160726152512307/26/16 15:25:31  5-MIN KASE 262225Z 27003KT 10SM CLR 27/01 A3034 7460 18 10400 260/03 RMK AO2 LTG DSNT NE AND W T02670011
93073KASE ASE20160726153012307/26/16 15:30:31  5-MIN KASE 262230Z 00000KT 10SM CLR 27/01 A3034 7460 17 10500 000/00 RMK AO2 LTG DSNT NE AND W T02720006
93073KASE ASE20160726153511707/26/16 15:35:31  5-MIN KASE 262235Z 34004KT 10SM CLR 27/00 A3034 7450 16 10500 330/04 RMK AO2 LTG DSNT NE T02720000
93073KASE ASE20160726154011107/26/16 15:40:31  5-MIN KASE 262240Z 35012G17KT 10SM CLR 26/02 A3034 7450 21 10400 340/12G17 RMK AO2 T02610022
93073KASE ASE20160726154511107/26/16 15:45:31  5-MIN KASE 262245Z 01015G21KT 10SM CLR 26/03 A3034 7450 23 10300 360/15G21 RMK AO2 T02560033
93073KASE ASE20160726155011807/26/16 15:50:31  5-MIN KASE 262250Z 35014G21KT 10SM CLR 26/03 A3034 7450 22 10400 340/14G21 RMK AO2 SLP142 T02610033
93073KASE ASE20160726155511107/26/16 15:55:31  5-MIN KASE 262255Z 36015G21KT 10SM CLR 26/03 A3035 7450 22 10400 350/15G21 RMK AO2 T02610033
93073KASE ASE20160726160011107/26/16 16:00:31  5-MIN KASE 262300Z 01012G23KT 10SM CLR 26/03 A3035 7450 23 10300 360/12G23 RMK AO2 T02560033
93073KASE ASE20160726160511107/26/16 16:05:31  5-MIN KASE 262305Z 36012G23KT 10SM CLR 26/04 A3035 7440 24 10300 350/12G23 RMK AO2 T02560039
93073KASE ASE20160726161011107/26/16 16:10:31  5-MIN KASE 262310Z 36013G20KT 10SM CLR 26/04 A3036 7440 24 10300 350/13G20 RMK AO2 T02560039
93073KASE ASE20160726161511107/26/16 16:15:31  5-MIN KASE 262315Z 01011G20KT 10SM CLR 24/03 A3036 7440 25 10200 360/11G20 RMK AO2 T02440033
93073KASE ASE20160726162011107/26/16 16:20:31  5-MIN KASE 262320Z 35011G20KT 10SM CLR 24/03 A3037 7430 25 10200 340/11G20 RMK AO2 T02440033
93073KASE ASE20160726162511107/26/16 16:25:31  5-MIN KASE 262325Z 33011G16KT 10SM CLR 24/04 A3037 7430 26 10200 320/11G16 RMK AO2 T02440039
93073KASE ASE20160726163010507/26/16 16:30:31  5-MIN KASE 262330Z 32011KT 10SM CLR 24/04 A3038 7420 27 10100 310/11 RMK AO2 T02390039
93073KASE ASE20160726163510807/26/16 16:35:31  5-MIN KASE 262335Z 33010KT 10SM FEW110 23/03 A3038 7420 26 10000 320/10 RMK AO2 T02330033
93073KASE ASE20160726164010807/26/16 16:40:31  5-MIN KASE 262340Z 32012KT 10SM FEW110 23/03 A3039 7410 26 10000 320/12 RMK AO2 T02330033
93073KASE ASE20160726164510807/26/16 16:45:31  5-MIN KASE 262345Z 33010KT 10SM FEW110 23/03 A3039 7410 25 10000 320/10 RMK AO2 T02330028
93073KASE ASE20160726165015507/26/16 16:50:31  5-MIN KASE 262350Z 31012G19KT 280V350 10SM BKN110 23/03 A3040 7400 26 10000 310/12G19 270V340 RMK AO2 SLP166 T02280028 10278 20228 57013
93073KASE ASE20160726165511407/26/16 16:55:31  5-MIN KASE 262355Z 35011G19KT 10SM FEW110 23/03 A3039 7410 27 10000 340/11G19 RMK AO2 T02280033
93073KASE ASE20160726170010707/26/16 17:00:31  5-MIN KASE 270000Z 35012KT 10SM FEW110 22/03 A3040 7400 28 9900 340/12 RMK AO2 T02220033
93073KASE ASE20160726170510407/26/16 17:05:31  5-MIN KASE 270005Z 34009KT 10SM CLR 22/03 A3040 7400 28 9900 330/09 RMK AO2 T02220033
93073KASE ASE20160726171010407/26/16 17:10:31  5-MIN KASE 270010Z 35009KT 10SM CLR 22/03 A3040 7400 28 9900 340/09 RMK AO2 T02220033
93073KASE ASE20160726171510407/26/16 17:15:31  5-MIN KASE 270015Z 36008KT 10SM CLR 22/03 A3039 7410 28 9900 350/08 RMK AO2 T02220033
93073KASE ASE20160726172010407/26/16 17:20:31  5-MIN KASE 270020Z 01005KT 10SM CLR 22/04 A3039 7410 30 9900 360/05 RMK AO2 T02220039
93073KASE ASE20160726172510407/26/16 17:25:31  5-MIN KASE 270025Z 04004KT 10SM CLR 22/04 A3039 7410 30 9900 030/04 RMK AO2 T02220039
93073KASE ASE20160726173010507/26/16 17:30:31  5-MIN KASE 270030Z 07003KT 10SM CLR 23/04 A3039 7410 29 10000 060/03 RMK AO2 T02280039
93073KASE ASE20160726173510507/26/16 17:35:31  5-MIN KASE 270035Z 00000KT 10SM CLR 23/03 A3038 7420 27 10000 000/00 RMK AO2 T02280033
93073KASE ASE20160726174010507/26/16 17:40:31  5-MIN KASE 270040Z 13003KT 10SM CLR 23/03 A3038 7420 27 10000 120/03 RMK AO2 T02280033
93073KASE ASE20160726174510507/26/16 17:45:31  5-MIN KASE 270045Z 00000KT 10SM CLR 23/03 A3038 7420 26 10000 000/00 RMK AO2 T02280028
93073KASE ASE20160726175011107/26/16 17:50:31  5-MIN KASE 270050Z 22005KT 10SM CLR 22/04 A3038 7420 31 9900 210/05 RMK AO2 SLP159 T02220044
93073KASE ASE20160726175510407/26/16 17:55:31  5-MIN KASE 270055Z 20005KT 10SM CLR 22/06 A3038 7420 34 9900 190/05 RMK AO2 T02170056
93073KASE ASE20160726180010407/26/16 18:00:31  5-MIN KASE 270100Z 21004KT 10SM CLR 22/06 A3038 7420 36 9900 200/04 RMK AO2 T02170061
93073KASE ASE20160726180510407/26/16 18:05:31  5-MIN KASE 270105Z 22004KT 10SM CLR 21/07 A3038 7420 38 9800 210/04 RMK AO2 T02110067
93073KASE ASE20160726181010407/26/16 18:10:31  5-MIN KASE 270110Z 22004KT 10SM CLR 21/07 A3038 7420 40 9800 210/04 RMK AO2 T02110072
93073KASE ASE20160726181510407/26/16 18:15:31  5-MIN KASE 270115Z 19004KT 10SM CLR 21/07 A3038 7420 40 9800 180/04 RMK AO2 T02110072
93073KASE ASE20160726182010407/26/16 18:20:31  5-MIN KASE 270120Z 21003KT 10SM CLR 21/06 A3038 7420 38 9800 200/03 RMK AO2 T02060061
93073KASE ASE20160726182510407/26/16 18:25:31  5-MIN KASE 270125Z 22003KT 10SM CLR 20/07 A3038 7420 41 9700 210/03 RMK AO2 T02000067
93073KASE ASE20160726183010407/26/16 18:30:31  5-MIN KASE 270130Z 23003KT 10SM CLR 19/07 A3038 7420 46 9600 220/03 RMK AO2 T01890072
93073KASE ASE20160726183510407/26/16 18:35:31  5-MIN KASE 270135Z 20004KT 10SM CLR 19/07 A3037 7420 44 9600 190/04 RMK AO2 T01940072
93073KASE ASE20160726184010407/26/16 18:40:31  5-MIN KASE 270140Z 20004KT 10SM CLR 20/07 A3037 7420 41 9700 190/04 RMK AO2 T02000067
93073KASE ASE20160726184510407/26/16 18:45:31  5-MIN KASE 270145Z 22004KT 10SM CLR 19/07 A3037 7420 43 9600 210/04 RMK AO2 T01940067
93073KASE ASE20160726185011107/26/16 18:50:31  5-MIN KASE 270150Z 21003KT 10SM CLR 19/06 A3038 7420 41 9600 200/03 RMK AO2 SLP164 T01940061
93073KASE ASE20160726185510907/26/16 18:55:31  5-MIN KASE 270155Z AUTO VRB03KT 10SM CLR 19/06 A3038 7420 41 9600 VRB/03 RMK AO2 T01940061
93073KASE ASE20160726190010907/26/16 19:00:31  5-MIN KASE 270200Z AUTO 00000KT 10SM CLR 19/07 A3038 7420 44 9600 000/00 RMK AO2 T01890067
93073KASE ASE20160726190510907/26/16 19:05:31  5-MIN KASE 270205Z AUTO 33003KT 10SM CLR 18/07 A3038 7420 46 9500 320/03 RMK AO2 T01830067
93073KASE ASE20160726191010907/26/16 19:10:31  5-MIN KASE 270210Z AUTO 00000KT 10SM CLR 18/07 A3038 7420 49 9400 000/00 RMK AO2 T01780072
93073KASE ASE20160726191510907/26/16 19:15:31  5-MIN KASE 270215Z AUTO 00000KT 10SM CLR 18/07 A3038 7420 48 9400 000/00 RMK AO2 T01780067
93073KASE ASE20160726192010907/26/16 19:20:31  5-MIN KASE 270220Z AUTO 22003KT 10SM CLR 16/07 A3038 7420 53 9300 210/03 RMK AO2 T01610067
93073KASE ASE20160726192510907/26/16 19:25:31  5-MIN KASE 270225Z AUTO 21003KT 10SM CLR 16/08 A3038 7410 59 9200 200/03 RMK AO2 T01560078
93073KASE ASE20160726193010907/26/16 19:30:31  5-MIN KASE 270230Z AUTO 22003KT 10SM CLR 15/08 A3038 7410 62 9100 210/03 RMK AO2 T01500078
93073KASE ASE20160726193510907/26/16 19:35:31  5-MIN KASE 270235Z AUTO 21006KT 10SM CLR 16/07 A3038 7410 57 9200 200/06 RMK AO2 T01560072
93073KASE ASE20160726194010907/26/16 19:40:31  5-MIN KASE 270240Z AUTO 22008KT 10SM CLR 17/07 A3039 7410 51 9300 210/08 RMK AO2 T01670067
93073KASE ASE20160726194510907/26/16 19:45:31  5-MIN KASE 270245Z AUTO 20008KT 10SM CLR 17/06 A3039 7410 49 9300 200/08 RMK AO2 T01670061
93073KASE ASE20160726195012207/26/16 19:50:31  5-MIN KASE 270250Z AUTO 21008KT 10SM CLR 16/06 A3039 7410 51 9300 200/08 RMK AO2 SLP169 T01610061 53008
93073KASE ASE20160726195510907/26/16 19:55:31  5-MIN KASE 270255Z AUTO 22007KT 10SM CLR 17/06 A3039 7410 49 9300 210/07 RMK AO2 T01670061
93073KASE ASE20160726200010907/26/16 20:00:31  5-MIN KASE 270300Z AUTO 22007KT 10SM CLR 16/06 A3039 7410 51 9300 210/07 RMK AO2 T01610061
93073KASE ASE20160726200510907/26/16 20:05:31  5-MIN KASE 270305Z AUTO 21007KT 10SM CLR 16/06 A3039 7410 53 9200 200/07 RMK AO2 T01560061
93073KASE ASE20160726201010907/26/16 20:10:31  5-MIN KASE 270310Z AUTO 20007KT 10SM CLR 16/06 A3039 7410 51 9300 190/07 RMK AO2 T01610061
93073KASE ASE20160726201510907/26/16 20:15:31  5-MIN KASE 270315Z AUTO 20006KT 10SM CLR 16/06 A3039 7410 51 9300 190/06 RMK AO2 T01610061
93073KASE ASE20160726202010907/26/16 20:20:31  5-MIN KASE 270320Z AUTO 19004KT 10SM CLR 16/06 A3039 7410 51 9200 180/04 RMK AO2 T01610061
93073KASE ASE20160726202510907/26/16 20:25:31  5-MIN KASE 270325Z AUTO 18005KT 10SM CLR 15/06 A3039 7410 55 9100 180/05 RMK AO2 T01500061
93073KASE ASE20160726203010907/26/16 20:30:31  5-MIN KASE 270330Z AUTO 19005KT 10SM CLR 16/06 A3039 7410 51 9200 180/05 RMK AO2 T01610061
93073KASE ASE20160726203510907/26/16 20:35:31  5-MIN KASE 270335Z AUTO 21005KT 10SM CLR 14/06 A3040 7400 57 9100 200/05 RMK AO2 T01440061
93073KASE ASE20160726204010907/26/16 20:40:31  5-MIN KASE 270340Z AUTO 21006KT 10SM CLR 14/06 A3040 7400 57 9100 200/06 RMK AO2 T01440061
93073KASE ASE20160726204510907/26/16 20:45:31  5-MIN KASE 270345Z AUTO 20006KT 10SM CLR 13/06 A3039 7410 61 8900 190/06 RMK AO2 T01330061
93073KASE ASE20160726205011607/26/16 20:50:31  5-MIN KASE 270350Z AUTO 20007KT 10SM CLR 13/06 A3039 7410 61 8900 200/07 RMK AO2 SLP175 T01330061
93073KASE ASE20160726205510907/26/16 20:55:31  5-MIN KASE 270355Z AUTO 22009KT 10SM CLR 14/06 A3040 7400 59 9000 210/09 RMK AO2 T01390061
93073KASE ASE20160726210010907/26/16 21:00:31  5-MIN KASE 270400Z AUTO 21007KT 10SM CLR 14/06 A3040 7400 57 9000 200/07 RMK AO2 T01390056
93073KASE ASE20160726210510907/26/16 21:05:31  5-MIN KASE 270405Z AUTO 20006KT 10SM CLR 14/06 A3040 7400 55 9100 190/06 RMK AO2 T01440056
93073KASE ASE20160726211010907/26/16 21:10:31  5-MIN KASE 270410Z AUTO 22007KT 10SM CLR 13/06 A3040 7400 59 8900 210/07 RMK AO2 T01330056
93073KASE ASE20160726211510907/26/16 21:15:31  5-MIN KASE 270415Z AUTO 22007KT 10SM CLR 13/06 A3040 7400 59 8900 210/07 RMK AO2 T01330056
93073KASE ASE20160726212010907/26/16 21:20:31  5-MIN KASE 270420Z AUTO 22006KT 10SM CLR 13/06 A3040 7400 59 8900 210/06 RMK AO2 T01330056
93073KASE ASE20160726212510907/26/16 21:25:31  5-MIN KASE 270425Z AUTO 21005KT 10SM CLR 14/06 A3040 7400 57 9000 200/05 RMK AO2 T01390056
93073KASE ASE20160726213010907/26/16 21:30:31  5-MIN KASE 270430Z AUTO 20005KT 10SM CLR 14/06 A3040 7400 57 9000 200/05 RMK AO2 T01390056
93073KASE ASE20160726213510907/26/16 21:35:31  5-MIN KASE 270435Z AUTO 21006KT 10SM CLR 14/06 A3040 7400 57 9000 200/06 RMK AO2 T01390056
93073KASE ASE20160726214010907/26/16 21:40:31  5-MIN KASE 270440Z AUTO 21006KT 10SM CLR 14/06 A3040 7400 57 9000 200/06 RMK AO2 T01390056
93073KASE ASE20160726214510907/26/16 21:45:31  5-MIN KASE 270445Z AUTO 20006KT 10SM CLR 14/05 A3040 7400 55 9000 190/06 RMK AO2 T01390050
93073KASE ASE20160726215011607/26/16 21:50:31  5-MIN KASE 270450Z AUTO 20008KT 10SM CLR 14/06 A3040 7400 57 9000 190/08 RMK AO2 SLP170 T01390056
93073KASE ASE20160726215510907/26/16 21:55:31  5-MIN KASE 270455Z AUTO 20008KT 10SM CLR 14/05 A3039 7410 55 9000 190/08 RMK AO2 T01390050
93073KASE ASE20160726220010907/26/16 22:00:31  5-MIN KASE 270500Z AUTO 21009KT 10SM CLR 13/05 A3039 7410 57 8900 210/09 RMK AO2 T01330050
93073KASE ASE20160726220510907/26/16 22:05:31  5-MIN KASE 270505Z AUTO 20006KT 10SM CLR 13/05 A3039 7410 57 8900 190/06 RMK AO2 T01330050
93073KASE ASE20160726221010907/26/16 22:10:31  5-MIN KASE 270510Z AUTO 21008KT 10SM CLR 13/05 A3039 7410 57 8900 200/08 RMK AO2 T01330050
93073KASE ASE20160726221510907/26/16 22:15:31  5-MIN KASE 270515Z AUTO 20005KT 10SM CLR 14/05 A3039 7410 55 9000 190/05 RMK AO2 T01390050
93073KASE ASE20160726222010907/26/16 22:20:31  5-MIN KASE 270520Z AUTO 21008KT 10SM CLR 13/05 A3039 7410 57 8900 200/08 RMK AO2 T01330050
93073KASE ASE20160726222510907/26/16 22:25:31  5-MIN KASE 270525Z AUTO 21009KT 10SM CLR 13/05 A3039 7410 57 8900 200/09 RMK AO2 T01330050
93073KASE ASE20160726223010907/26/16 22:30:31  5-MIN KASE 270530Z AUTO 21007KT 10SM CLR 14/04 A3039 7410 52 9000 200/07 RMK AO2 T01390044
93073KASE ASE20160726223510907/26/16 22:35:31  5-MIN KASE 270535Z AUTO 21006KT 10SM CLR 14/04 A3039 7410 52 9000 210/06 RMK AO2 T01390044
93073KASE ASE20160726224010907/26/16 22:40:31  5-MIN KASE 270540Z AUTO 22005KT 10SM CLR 14/04 A3040 7400 52 9000 210/05 RMK AO2 T01390044
93073KASE ASE20160726224510907/26/16 22:45:31  5-MIN KASE 270545Z AUTO 22005KT 10SM CLR 13/05 A3040 7400 59 8900 210/05 RMK AO2 T01280050
93073KASE ASE20160726225013407/26/16 22:50:31  5-MIN KASE 270550Z AUTO 21005KT 10SM CLR 12/05 A3039 7410 61 8800 200/05 RMK AO2 SLP169 T01220050 10228 20122 55001
93073KASE ASE20160726225510907/26/16 22:55:31  5-MIN KASE 270555Z AUTO 22005KT 10SM CLR 12/05 A3039 7410 61 8800 220/05 RMK AO2 T01220050
93073KASE ASE20160726230010907/26/16 23:00:31  5-MIN KASE 270600Z AUTO 21005KT 10SM CLR 13/05 A3039 7410 59 8900 200/05 RMK AO2 T01280050
93073KASE ASE20160726230510907/26/16 23:05:31  5-MIN KASE 270605Z AUTO 21005KT 10SM CLR 13/04 A3039 7410 56 8900 200/05 RMK AO2 T01280044
93073KASE ASE20160726231010907/26/16 23:10:31  5-MIN KASE 270610Z AUTO 20006KT 10SM CLR 12/05 A3039 7410 63 8800 190/06 RMK AO2 T01170050
93073KASE ASE20160726231510907/26/16 23:15:31  5-MIN KASE 270615Z AUTO 21008KT 10SM CLR 12/05 A3039 7410 63 8800 200/08 RMK AO2 T01170050
93073KASE ASE20160726232010907/26/16 23:20:31  5-MIN KASE 270620Z AUTO 21008KT 10SM CLR 12/04 A3039 7410 59 8800 200/08 RMK AO2 T01220044
93073KASE ASE20160726232510907/26/16 23:25:31  5-MIN KASE 270625Z AUTO 22007KT 10SM CLR 12/04 A3039 7410 59 8800 210/07 RMK AO2 T01220044
93073KASE ASE20160726233010907/26/16 23:30:31  5-MIN KASE 270630Z AUTO 21006KT 10SM CLR 12/04 A3039 7410 59 8800 210/06 RMK AO2 T01220044
93073KASE ASE20160726233510907/26/16 23:35:31  5-MIN KASE 270635Z AUTO 20007KT 10SM CLR 12/04 A3039 7410 59 8800 190/07 RMK AO2 T01220044
93073KASE ASE20160726234010907/26/16 23:40:31  5-MIN KASE 270640Z AUTO 20005KT 10SM CLR 12/04 A3038 7420 61 8800 190/05 RMK AO2 T01170044
93073KASE ASE20160726234510907/26/16 23:45:31  5-MIN KASE 270645Z AUTO 22006KT 10SM CLR 12/04 A3038 7420 59 8800 210/06 RMK AO2 T01220044
93073KASE ASE20160726235012607/26/16 23:50:31  5-MIN KASE 270650Z AUTO 21007KT 10SM CLR 13/04 A3038 7420 54 8900 210/07 RMK AO2 SLP160 T01280039 402780106
93073KASE ASE20160726235510907/26/16 23:55:31  5-MIN KASE 270655Z AUTO 22006KT 10SM CLR 13/04 A3038 7410 52 8900 210/06 RMK AO2 T01330039
93073KASE ASE20160727000010907/27/16 00:00:31  5-MIN KASE 270700Z AUTO 22005KT 10SM CLR 13/04 A3039 7410 54 8900 210/05 RMK AO2 T01280039
93073KASE ASE20160727000510907/27/16 00:05:31  5-MIN KASE 270705Z AUTO 21006KT 10SM CLR 12/04 A3039 7410 61 8800 200/06 RMK AO2 T01170044
93073KASE ASE20160727001010907/27/16 00:10:31  5-MIN KASE 270710Z AUTO 20006KT 10SM CLR 12/04 A3038 7420 61 8800 200/06 RMK AO2 T01170044
93073KASE ASE20160727001510907/27/16 00:15:31  5-MIN KASE 270715Z AUTO 22006KT 10SM CLR 11/04 A3038 7410 63 8700 210/06 RMK AO2 T01110044
93073KASE ASE20160727002010907/27/16 00:20:31  5-MIN KASE 270720Z AUTO 22005KT 10SM CLR 11/04 A3038 7420 63 8700 210/05 RMK AO2 T01110044
93073KASE ASE20160727002510907/27/16 00:25:31  5-MIN KASE 270725Z AUTO 21005KT 10SM CLR 11/04 A3038 7420 66 8600 200/05 RMK AO2 T01060044
93073KASE ASE20160727003010907/27/16 00:30:31  5-MIN KASE 270730Z AUTO 21004KT 10SM CLR 11/04 A3038 7420 66 8600 200/04 RMK AO2 T01060044
93073KASE ASE20160727003510907/27/16 00:35:31  5-MIN KASE 270735Z AUTO 00000KT 10SM CLR 11/04 A3038 7420 63 8700 000/00 RMK AO2 T01110044
93073KASE ASE20160727004010907/27/16 00:40:31  5-MIN KASE 270740Z AUTO 20004KT 10SM CLR 11/04 A3038 7420 63 8700 190/04 RMK AO2 T01110044
93073KASE ASE20160727004510907/27/16 00:45:31  5-MIN KASE 270745Z AUTO 21006KT 10SM CLR 11/04 A3038 7420 63 8700 200/06 RMK AO2 T01110044
93073KASE ASE20160727005011607/27/16 00:50:31  5-MIN KASE 270750Z AUTO 21005KT 10SM CLR 11/04 A3038 7420 63 8700 200/05 RMK AO2 SLP160 T01110044
93073KASE ASE20160727005510907/27/16 00:55:31  5-MIN KASE 270755Z AUTO 22006KT 10SM CLR 12/04 A3038 7420 58 8800 210/06 RMK AO2 T01170039
93073KASE ASE20160727010010907/27/16 01:00:31  5-MIN KASE 270800Z AUTO 21004KT 10SM CLR 11/04 A3038 7420 61 8700 200/04 RMK AO2 T01110039
93073KASE ASE20160727010510907/27/16 01:05:31  5-MIN KASE 270805Z AUTO 00000KT 10SM CLR 10/04 A3037 7420 65 8600 000/00 RMK AO2 T01000039
93073KASE ASE20160727011010907/27/16 01:10:31  5-MIN KASE 270810Z AUTO 00000KT 10SM CLR 10/04 A3038 7420 65 8600 000/00 RMK AO2 T01000039
93073KASE ASE20160727011510907/27/16 01:15:31  5-MIN KASE 270815Z AUTO 00000KT 10SM CLR 10/04 A3038 7420 65 8600 000/00 RMK AO2 T01000039
93073KASE ASE20160727012010907/27/16 01:20:31  5-MIN KASE 270820Z AUTO 00000KT 10SM CLR 10/04 A3038 7420 65 8600 000/00 RMK AO2 T01000039
93073KASE ASE20160727012510907/27/16 01:25:31  5-MIN KASE 270825Z AUTO 00000KT 10SM CLR 10/04 A3038 7420 65 8600 000/00 RMK AO2 T01000039
93073KASE ASE20160727013010907/27/16 01:30:31  5-MIN KASE 270830Z AUTO 21004KT 10SM CLR 09/04 A3038 7420 71 8500 200/04 RMK AO2 T00940044
93073KASE ASE20160727013510907/27/16 01:35:31  5-MIN KASE 270835Z AUTO 20004KT 10SM CLR 09/04 A3037 7420 71 8500 190/04 RMK AO2 T00940044
93073KASE ASE20160727014010907/27/16 01:40:31  5-MIN KASE 270840Z AUTO 21006KT 10SM CLR 10/04 A3037 7430 65 8600 200/06 RMK AO2 T01000039
93073KASE ASE20160727014510907/27/16 01:45:31  5-MIN KASE 270845Z AUTO 22006KT 10SM CLR 11/04 A3037 7420 63 8600 210/06 RMK AO2 T01060039
93073KASE ASE20160727015012207/27/16 01:50:31  5-MIN KASE 270850Z AUTO 20004KT 10SM CLR 11/04 A3038 7420 61 8700 200/04 RMK AO2 SLP160 T01110039 51001
93073KASE ASE20160727015510907/27/16 01:55:31  5-MIN KASE 270855Z AUTO 19003KT 10SM CLR 11/04 A3037 7420 63 8600 180/03 RMK AO2 T01060039
93073KASE ASE20160727020010907/27/16 02:00:31  5-MIN KASE 270900Z AUTO VRB03KT 10SM CLR 09/04 A3038 7420 68 8500 VRB/03 RMK AO2 T00940039
93073KASE ASE20160727020510907/27/16 02:05:31  5-MIN KASE 270905Z AUTO 20006KT 10SM CLR 10/04 A3037 7420 65 8600 190/06 RMK AO2 T01000039
93073KASE ASE20160727021010907/27/16 02:10:31  5-MIN KASE 270910Z AUTO 21005KT 10SM CLR 11/04 A3037 7420 63 8600 200/05 RMK AO2 T01060039
93073KASE ASE20160727021510907/27/16 02:15:31  5-MIN KASE 270915Z AUTO 18005KT 10SM CLR 11/04 A3038 7420 63 8600 170/05 RMK AO2 T01060039
93073KASE ASE20160727022010907/27/16 02:20:31  5-MIN KASE 270920Z AUTO 00000KT 10SM CLR 10/04 A3038 7420 65 8600 000/00 RMK AO2 T01000039
93073KASE ASE20160727022510907/27/16 02:25:31  5-MIN KASE 270925Z AUTO 00000KT 10SM CLR 09/04 A3037 7420 68 8500 000/00 RMK AO2 T00940039
93073KASE ASE20160727023010907/27/16 02:30:31  5-MIN KASE 270930Z AUTO 21004KT 10SM CLR 09/04 A3037 7430 68 8500 200/04 RMK AO2 T00940039
93073KASE ASE20160727023510907/27/16 02:35:31  5-MIN KASE 270935Z AUTO 19004KT 10SM CLR 09/04 A3037 7420 68 8500 190/04 RMK AO2 T00940039
93073KASE ASE20160727024010907/27/16 02:40:31  5-MIN KASE 270940Z AUTO 00000KT 10SM CLR 09/04 A3037 7420 68 8500 000/00 RMK AO2 T00940039
93073KASE ASE20160727024510907/27/16 02:45:31  5-MIN KASE 270945Z AUTO 00000KT 10SM CLR 08/04 A3037 7420 73 8400 000/00 RMK AO2 T00830039
93073KASE ASE20160727025011607/27/16 02:50:31  5-MIN KASE 270950Z AUTO 00000KT 10SM CLR 09/04 A3038 7420 71 8500 000/00 RMK AO2 SLP167 T00890039
93073KASE ASE20160727025510907/27/16 02:55:31  5-MIN KASE 270955Z AUTO 00000KT 10SM CLR 08/04 A3038 7420 73 8400 000/00 RMK AO2 T00830039
93073KASE ASE20160727030010907/27/16 03:00:31  5-MIN KASE 271000Z AUTO 23004KT 10SM CLR 08/04 A3038 7420 76 8300 220/04 RMK AO2 T00780039
93073KASE ASE20160727030510907/27/16 03:05:31  5-MIN KASE 271005Z AUTO 21004KT 10SM CLR 08/04 A3038 7420 76 8300 200/04 RMK AO2 T00780039
93073KASE ASE20160727031010907/27/16 03:10:31  5-MIN KASE 271010Z AUTO 22006KT 10SM CLR 09/04 A3038 7420 71 8500 210/06 RMK AO2 T00890039
93073KASE ASE20160727031510907/27/16 03:15:31  5-MIN KASE 271015Z AUTO 22007KT 10SM CLR 09/04 A3038 7420 68 8500 210/07 RMK AO2 T00940039
93073KASE ASE20160727032010907/27/16 03:20:31  5-MIN KASE 271020Z AUTO 20006KT 10SM CLR 10/04 A3038 7420 65 8600 200/06 RMK AO2 T01000039
93073KASE ASE20160727032510907/27/16 03:25:31  5-MIN KASE 271025Z AUTO 16004KT 10SM CLR 10/04 A3038 7420 65 8600 150/04 RMK AO2 T01000039
93073KASE ASE20160727033010907/27/16 03:30:31  5-MIN KASE 271030Z AUTO 17007KT 10SM CLR 09/04 A3038 7420 68 8500 160/07 RMK AO2 T00940039
93073KASE ASE20160727033510907/27/16 03:35:31  5-MIN KASE 271035Z AUTO 18008KT 10SM CLR 09/04 A3038 7420 71 8400 170/08 RMK AO2 T00890039
93073KASE ASE20160727034010907/27/16 03:40:31  5-MIN KASE 271040Z AUTO 18007KT 10SM CLR 09/04 A3038 7410 71 8400 170/07 RMK AO2 T00890039
93073KASE ASE20160727034510907/27/16 03:45:31  5-MIN KASE 271045Z AUTO 19007KT 10SM CLR 09/04 A3038 7420 68 8500 180/07 RMK AO2 T00940039
93073KASE ASE20160727035011607/27/16 03:50:31  5-MIN KASE 271050Z AUTO 19006KT 10SM CLR 09/03 A3038 7420 65 8500 180/06 RMK AO2 SLP165 T00940033
93073KASE ASE20160727035510907/27/16 03:55:31  5-MIN KASE 271055Z AUTO 19005KT 10SM CLR 09/03 A3038 7410 68 8400 180/05 RMK AO2 T00890033
93073KASE ASE20160727040010907/27/16 04:00:31  5-MIN KASE 271100Z AUTO 00000KT 10SM CLR 09/04 A3039 7410 71 8400 000/00 RMK AO2 T00890039
93073KASE ASE20160727040510907/27/16 04:05:31  5-MIN KASE 271105Z AUTO 11003KT 10SM CLR 09/03 A3039 7410 68 8400 100/03 RMK AO2 T00890033
93073KASE ASE20160727041010907/27/16 04:10:31  5-MIN KASE 271110Z AUTO 00000KT 10SM CLR 09/04 A3039 7410 71 8400 000/00 RMK AO2 T00890039
93073KASE ASE20160727041510907/27/16 04:15:31  5-MIN KASE 271115Z AUTO 00000KT 10SM CLR 09/03 A3039 7410 68 8400 000/00 RMK AO2 T00890033
93073KASE ASE20160727042010907/27/16 04:20:31  5-MIN KASE 271120Z AUTO 21004KT 10SM CLR 08/03 A3039 7410 70 8400 200/04 RMK AO2 T00830033
93073KASE ASE20160727042510907/27/16 04:25:31  5-MIN KASE 271125Z AUTO 21004KT 10SM CLR 08/03 A3039 7410 70 8400 200/04 RMK AO2 T00830033
93073KASE ASE20160727043010907/27/16 04:30:31  5-MIN KASE 271130Z AUTO 20005KT 10SM CLR 08/04 A3039 7410 73 8400 200/05 RMK AO2 T00830039
93073KASE ASE20160727043510907/27/16 04:35:31  5-MIN KASE 271135Z AUTO 20006KT 10SM CLR 08/04 A3039 7410 73 8400 200/06 RMK AO2 T00830039
93073KASE ASE20160727044010907/27/16 04:40:31  5-MIN KASE 271140Z AUTO 21006KT 10SM CLR 09/03 A3040 7400 68 8400 200/06 RMK AO2 T00890033
93073KASE ASE20160727044510907/27/16 04:45:31  5-MIN KASE 271145Z AUTO 21007KT 10SM CLR 09/03 A3040 7400 65 8500 200/07 RMK AO2 T00940033
93073KASE ASE20160727045013407/27/16 04:50:31  5-MIN KASE 271150Z AUTO 17003KT 10SM CLR 09/03 A3040 7400 65 8500 160/03 RMK AO2 SLP179 T00940033 10133 20078 56005
93073KASE ASE20160727045510907/27/16 04:55:31  5-MIN KASE 271155Z AUTO 00000KT 10SM CLR 09/03 A3040 7400 65 8500 000/00 RMK AO2 T00940033
93073KASE ASE20160727050010907/27/16 05:00:31  5-MIN KASE 271200Z AUTO 00000KT 10SM CLR 08/03 A3040 7400 70 8400 000/00 RMK AO2 T00830033
93073KASE ASE20160727050510907/27/16 05:05:31  5-MIN KASE 271205Z AUTO 21004KT 10SM CLR 08/03 A3040 7400 73 8300 200/04 RMK AO2 T00780033
93073KASE ASE20160727051010907/27/16 05:10:31  5-MIN KASE 271210Z AUTO 22004KT 10SM CLR 08/03 A3040 7400 73 8300 210/04 RMK AO2 T00780033
93073KASE ASE20160727051510907/27/16 05:15:31  5-MIN KASE 271215Z AUTO 00000KT 10SM CLR 08/03 A3040 7400 73 8300 000/00 RMK AO2 T00780033
93073KASE ASE20160727052010907/27/16 05:20:31  5-MIN KASE 271220Z AUTO 00000KT 10SM CLR 08/03 A3040 7400 70 8400 000/00 RMK AO2 T00830033
93073KASE ASE20160727052510907/27/16 05:25:31  5-MIN KASE 271225Z AUTO 20004KT 10SM CLR 08/03 A3040 7400 70 8400 190/04 RMK AO2 T00830033
93073KASE ASE20160727053010907/27/16 05:30:31  5-MIN KASE 271230Z AUTO 21005KT 10SM CLR 08/03 A3041 7390 70 8400 200/05 RMK AO2 T00830033
93073KASE ASE20160727053510907/27/16 05:35:31  5-MIN KASE 271235Z AUTO 20005KT 10SM CLR 08/03 A3041 7390 70 8400 190/05 RMK AO2 T00830033
93073KASE ASE20160727054010907/27/16 05:40:31  5-MIN KASE 271240Z AUTO 20004KT 10SM CLR 09/03 A3041 7390 68 8400 190/04 RMK AO2 T00890033
93073KASE ASE20160727054510907/27/16 05:45:31  5-MIN KASE 271245Z AUTO 19004KT 10SM CLR 09/04 A3041 7390 71 8400 180/04 RMK AO2 T00890039
93073KASE ASE20160727055011107/27/16 05:50:31  5-MIN KASE 271250Z 18004KT 10SM CLR 09/04 A3042 7390 71 8400 170/04 RMK AO2 SLP188 T00890039
93073KASE ASE20160727055510407/27/16 05:55:31  5-MIN KASE 271255Z 20005KT 10SM CLR 09/04 A3041 7390 68 8500 190/05 RMK AO2 T00940039
93073KASE ASE20160727060010407/27/16 06:00:31  5-MIN KASE 271300Z 20005KT 10SM CLR 09/04 A3041 7390 68 8500 190/05 RMK AO2 T00940039
93073KASE ASE20160727060510407/27/16 06:05:31  5-MIN KASE 271305Z 18005KT 10SM CLR 10/04 A3041 7390 68 8500 170/05 RMK AO2 T01000044
93073KASE ASE20160727061010407/27/16 06:10:31  5-MIN KASE 271310Z 19004KT 10SM CLR 11/04 A3041 7390 66 8600 190/04 RMK AO2 T01060044
93073KASE ASE20160727061510407/27/16 06:15:31  5-MIN KASE 271315Z 20003KT 10SM CLR 12/04 A3041 7390 61 8700 200/03 RMK AO2 T01170044
93073KASE ASE20160727062010407/27/16 06:20:31  5-MIN KASE 271320Z 00000KT 10SM CLR 12/04 A3041 7390 56 8800 000/00 RMK AO2 T01220039
93073KASE ASE20160727062510407/27/16 06:25:31  5-MIN KASE 271325Z 00000KT 10SM CLR 11/05 A3041 7390 66 8700 000/00 RMK AO2 T01110050
93073KASE ASE20160727063010407/27/16 06:30:31  5-MIN KASE 271330Z 00000KT 10SM CLR 12/04 A3041 7390 61 8700 000/00 RMK AO2 T01170044
93073KASE ASE20160727063510407/27/16 06:35:31  5-MIN KASE 271335Z 00000KT 10SM CLR 13/04 A3041 7390 54 8900 000/00 RMK AO2 T01280039
93073KASE ASE20160727064010407/27/16 06:40:31  5-MIN KASE 271340Z 00000KT 10SM CLR 13/04 A3041 7390 52 8900 000/00 RMK AO2 T01330039
93073KASE ASE20160727064510407/27/16 06:45:31  5-MIN KASE 271345Z 00000KT 10SM CLR 13/04 A3042 7380 54 8900 000/00 RMK AO2 T01330044
93073KASE ASE20160727065011107/27/16 06:50:31  5-MIN KASE 271350Z 00000KT 10SM CLR 14/04 A3042 7380 52 9000 000/00 RMK AO2 SLP183 T01390044
93073KASE ASE20160727065510407/27/16 06:55:31  5-MIN KASE 271355Z 00000KT 10SM CLR 14/04 A3042 7380 50 9000 000/00 RMK AO2 T01390039
93073KASE ASE20160727070010407/27/16 07:00:31  5-MIN KASE 271400Z 00000KT 10SM CLR 14/04 A3042 7380 49 9000 000/00 RMK AO2 T01440039
93073KASE ASE20160727070510407/27/16 07:05:31  5-MIN KASE 271405Z 00000KT 10SM CLR 15/04 A3042 7380 47 9100 000/00 RMK AO2 T01500039
93073KASE ASE20160727071010407/27/16 07:10:31  5-MIN KASE 271410Z 00000KT 10SM CLR 15/04 A3042 7380 47 9100 000/00 RMK AO2 T01500039
93073KASE ASE20160727071510407/27/16 07:15:31  5-MIN KASE 271415Z 00000KT 10SM CLR 16/03 A3042 7380 43 9200 000/00 RMK AO2 T01560033
93073KASE ASE20160727072010407/27/16 07:20:31  5-MIN KASE 271420Z 00000KT 10SM CLR 16/03 A3042 7380 43 9200 000/00 RMK AO2 T01560033
93073KASE ASE20160727072510407/27/16 07:25:31  5-MIN KASE 271425Z 00000KT 10SM CLR 16/03 A3042 7380 42 9200 000/00 RMK AO2 T01610033
93073KASE ASE20160727073010407/27/16 07:30:31  5-MIN KASE 271430Z 00000KT 10SM CLR 16/03 A3042 7380 42 9200 000/00 RMK AO2 T01610033
93073KASE ASE20160727073510407/27/16 07:35:31  5-MIN KASE 271435Z 00000KT 10SM CLR 17/04 A3042 7380 42 9300 000/00 RMK AO2 T01670039
93073KASE ASE20160727074010407/27/16 07:40:31  5-MIN KASE 271440Z 00000KT 10SM CLR 17/04 A3042 7380 42 9300 000/00 RMK AO2 T01670039
93073KASE ASE20160727074510407/27/16 07:45:31  5-MIN KASE 271445Z 00000KT 10SM CLR 17/04 A3042 7380 42 9300 000/00 RMK AO2 T01720044
93073KASE ASE20160727075011707/27/16 07:50:31  5-MIN KASE 271450Z 00000KT 10SM CLR 18/04 A3042 7380 39 9400 000/00 RMK AO2 SLP182 T01780039 53006
93073KASE ASE20160727075510407/27/16 07:55:31  5-MIN KASE 271455Z 00000KT 10SM CLR 18/04 A3042 7380 41 9400 000/00 RMK AO2 T01780044
93073KASE ASE20160727080010407/27/16 08:00:31  5-MIN KASE 271500Z 04003KT 10SM CLR 18/04 A3042 7380 41 9400 030/03 RMK AO2 T01780044
93073KASE ASE20160727080510407/27/16 08:05:31  5-MIN KASE 271505Z 00000KT 10SM CLR 18/04 A3042 7380 41 9400 000/00 RMK AO2 T01780044
93073KASE ASE20160727081010407/27/16 08:10:31  5-MIN KASE 271510Z 00000KT 10SM CLR 19/05 A3043 7380 39 9500 000/00 RMK AO2 T01890050
93073KASE ASE20160727081510407/27/16 08:15:31  5-MIN KASE 271515Z 00000KT 10SM CLR 19/04 A3042 7380 38 9500 000/00 RMK AO2 T01890044
93073KASE ASE20160727082010407/27/16 08:20:31  5-MIN KASE 271520Z 00000KT 10SM CLR 19/04 A3042 7380 37 9600 000/00 RMK AO2 T01940044
93073KASE ASE20160727082510407/27/16 08:25:31  5-MIN KASE 271525Z 00000KT 10SM CLR 19/04 A3042 7380 35 9600 000/00 RMK AO2 T01940039
93073KASE ASE20160727083010407/27/16 08:30:31  5-MIN KASE 271530Z 00000KT 10SM CLR 19/04 A3042 7380 35 9600 000/00 RMK AO2 T01940039
93073KASE ASE20160727083510407/27/16 08:35:31  5-MIN KASE 271535Z 00000KT 10SM CLR 19/04 A3042 7380 37 9600 000/00 RMK AO2 T01940044
93073KASE ASE20160727084010407/27/16 08:40:31  5-MIN KASE 271540Z 00000KT 10SM CLR 20/04 A3042 7380 35 9600 000/00 RMK AO2 T02000044
93073KASE ASE20160727084510407/27/16 08:45:31  5-MIN KASE 271545Z 00000KT 10SM CLR 21/05 A3042 7380 35 9700 000/00 RMK AO2 T02060050
93073KASE ASE20160727085011107/27/16 08:50:31  5-MIN KASE 271550Z VRB03KT 10SM CLR 21/05 A3042 7380 34 9800 VRB/03 RMK AO2 SLP179 T02110050
93073KASE ASE20160727085510407/27/16 08:55:31  5-MIN KASE 271555Z VRB03KT 10SM CLR 21/05 A3042 7380 34 9800 VRB/03 RMK AO2 T02110050
93073KASE ASE20160727090010407/27/16 09:00:31  5-MIN KASE 271600Z 00000KT 10SM CLR 22/05 A3042 7380 33 9800 000/00 RMK AO2 T02170050
93073KASE ASE20160727090510407/27/16 09:05:31  5-MIN KASE 271605Z VRB03KT 10SM CLR 21/05 A3042 7380 34 9800 VRB/03 RMK AO2 T02110050
93073KASE ASE20160727091010407/27/16 09:10:31  5-MIN KASE 271610Z VRB03KT 10SM CLR 22/06 A3042 7380 34 9800 VRB/03 RMK AO2 T02170056
93073KASE ASE20160727091510407/27/16 09:15:31  5-MIN KASE 271615Z VRB04KT 10SM CLR 22/05 A3042 7380 32 9900 VRB/04 RMK AO2 T02220050
93073KASE ASE20160727092010407/27/16 09:20:31  5-MIN KASE 271620Z VRB03KT 10SM CLR 22/05 A3042 7390 32 9900 VRB/03 RMK AO2 T02220050
93073KASE ASE20160727092510407/27/16 09:25:31  5-MIN KASE 271625Z 32003KT 10SM CLR 23/05 A3042 7390 31 9900 310/03 RMK AO2 T02280050
93073KASE ASE20160727093010507/27/16 09:30:31  5-MIN KASE 271630Z VRB04KT 10SM CLR 23/04 A3041 7390 29 10000 VRB/04 RMK AO2 T02330044
93073KASE ASE20160727093510507/27/16 09:35:31  5-MIN KASE 271635Z VRB05KT 10SM CLR 24/04 A3041 7390 27 10100 VRB/05 RMK AO2 T02390039
93073KASE ASE20160727094010507/27/16 09:40:31  5-MIN KASE 271640Z VRB04KT 10SM CLR 24/04 A3041 7390 28 10100 VRB/04 RMK AO2 T02390044
93073KASE ASE20160727094510507/27/16 09:45:31  5-MIN KASE 271645Z VRB04KT 10SM CLR 24/05 A3041 7390 28 10100 VRB/04 RMK AO2 T02440050
93073KASE ASE20160727095011207/27/16 09:50:31  5-MIN KASE 271650Z 04004KT 10SM CLR 24/05 A3041 7390 28 10100 030/04 RMK AO2 SLP167 T02440050
93073KASE ASE20160727095510507/27/16 09:55:31  5-MIN KASE 271655Z VRB05KT 10SM CLR 25/04 A3041 7390 26 10200 VRB/05 RMK AO2 T02500044
93073KASE ASE20160727100010507/27/16 10:00:31  5-MIN KASE 271700Z 03006KT 10SM CLR 25/03 A3041 7390 24 10200 030/06 RMK AO2 T02500033
93073KASE ASE20160727100510507/27/16 10:05:31  5-MIN KASE 271705Z VRB04KT 10SM CLR 26/03 A3041 7390 22 10200 VRB/04 RMK AO2 T02560028
93073KASE ASE20160727101010507/27/16 10:10:31  5-MIN KASE 271710Z VRB04KT 10SM CLR 26/03 A3041 7390 23 10200 VRB/04 RMK AO2 T02560033
93073KASE ASE20160727101510507/27/16 10:15:31  5-MIN KASE 271715Z VRB04KT 10SM CLR 26/04 A3041 7390 24 10200 VRB/04 RMK AO2 T02560039
93073KASE ASE20160727102010507/27/16 10:20:31  5-MIN KASE 271720Z 04004KT 10SM CLR 26/03 A3041 7390 22 10300 030/04 RMK AO2 T02610033
93073KASE ASE20160727102510507/27/16 10:25:31  5-MIN KASE 271725Z VRB04KT 10SM CLR 26/03 A3041 7390 21 10300 VRB/04 RMK AO2 T02610028
93073KASE ASE20160727103010507/27/16 10:30:31  5-MIN KASE 271730Z 01007KT 10SM CLR 27/03 A3041 7390 21 10400 360/07 RMK AO2 T02670028
93073KASE ASE20160727103510507/27/16 10:35:31  5-MIN KASE 271735Z VRB06KT 10SM CLR 27/02 A3041 7390 20 10400 VRB/06 RMK AO2 T02670022
93073KASE ASE20160727104010507/27/16 10:40:31  5-MIN KASE 271740Z 01007KT 10SM CLR 27/03 A3041 7390 21 10400 360/07 RMK AO2 T02720033
93073KASE ASE20160727104510507/27/16 10:45:31  5-MIN KASE 271745Z VRB06KT 10SM CLR 27/02 A3041 7390 20 10400 VRB/06 RMK AO2 T02670022
93073KASE ASE20160727105012007/27/16 10:50:31  5-MIN KASE 271750Z 10SM CLR 27/02 A3041 7390 19 10400 M /M RMK AO2 SLP162 T02720022 10272 20078 51006
93073KASE ASE20160727105512107/27/16 10:55:31  5-MIN KASE 271755Z 34008KT 310V010 10SM CLR 27/01 A3040 7400 18 10400 330/08 300V360 RMK AO2 T02670006
93073KASE ASE20160727110010507/27/16 11:00:31  5-MIN KASE 271800Z 33009KT 10SM CLR 27/00 A3041 7390 16 10400 320/09 RMK AO2 T02720000
93073KASE ASE20160727110510507/27/16 11:05:31  5-MIN KASE 271805Z 33008KT 10SM CLR 27/01 A3041 7400 17 10400 320/08 RMK AO2 T02720006
93073KASE ASE20160727111010707/27/16 11:10:31  5-MIN KASE 271810Z AUTO CLR 27/00 A3041 7390 16 10400 M /M RMK AO2 T02720000 PWINO PNO $
93073KASE ASE20160727111510807/27/16 11:15:31  5-MIN KASE 271815Z AUTO CLR 27/M02 A3041 7400 15 10400 M /M RMK AO2 T02721017 PWINO PNO $
93073KASE ASE20160727112010707/27/16 11:20:31  5-MIN KASE 271820Z AUTO CLR 28/00 A3040 7400 16 10500 M /M RMK AO2 T02780000 PWINO PNO $
93073KASE ASE20160727112511007/27/16 11:25:31  5-MIN KASE 271825Z AUTO FEW001 28/01 A3040 7400 16 10600 M /M RMK AO2 T02830006 PWINO PNO $
93073KASE ASE20160727113011007/27/16 11:30:31  5-MIN KASE 271830Z AUTO FEW001 28/00 A3040 7400 15 10600 M /M RMK AO2 T02830000 PWINO PNO $
93073KASE ASE20160727113510807/27/16 11:35:31  5-MIN KASE 271835Z AUTO CLR 28/M01 A3040 7400 14 10600 M /M RMK AO2 T02831011 PWINO PNO $
93073KASE ASE20160727114010807/27/16 11:40:31  5-MIN KASE 271840Z AUTO CLR 28/M06 A3040 7400 10 10600 M /M RMK AO2 T02831061 PWINO PNO $
93073KASE ASE20160727114510807/27/16 11:45:31  5-MIN KASE 271845Z AUTO CLR 28/M07 A3040 7400 09 10600 M /M RMK AO2 T02831072 PWINO PNO $
93073KASE ASE20160727115008907/27/16 11:50:31  5-MIN KASE 271850Z AUTO CLR A3038 M M M M /M RMK AO2 SLPNO PWINO PNO $
93073KASE ASE20160727115508307/27/16 11:55:31  5-MIN KASE 271855Z AUTO CLR A3038 M M M M /M RMK AO2 PWINO PNO $
93073KASE ASE20160727120008307/27/16 12:00:31  5-MIN KASE 271900Z AUTO CLR A3039 M M M M /M RMK AO2 PWINO PNO $
93073KASE ASE20160727233010407/27/16 23:30:31  5-MIN KASE 280630Z 21008KT 10SM CLR 16/01 A3037 7430 37 9200 200/08 RMK AO2 T01560011
93073KASE ASE20160727233510407/27/16 23:35:31  5-MIN KASE 280635Z 21009KT 10SM CLR 15/01 A3036 7430 38 9200 200/09 RMK AO2 T01500011
93073KASE ASE20160727234010407/27/16 23:40:31  5-MIN KASE 280640Z 22009KT 10SM CLR 14/01 A3036 7430 40 9100 210/09 RMK AO2 T01440011
93073KASE ASE20160727234510407/27/16 23:45:31  5-MIN KASE 280645Z 21007KT 10SM CLR 15/01 A3036 7430 38 9200 200/07 RMK AO2 T01500011
93073KASE ASE20160727235012007/27/16 23:50:31  5-MIN KASE 280650Z 21008KT 10SM CLR 14/01 A3036 7430 40 9100 210/08 RMK AO2 SLPNO T01440011 403060078
93073KASE ASE20160727235510407/27/16 23:55:31  5-MIN KASE 280655Z 22009KT 10SM CLR 15/01 A3036 7430 38 9200 210/09 RMK AO2 T01500011
93073KASE ASE20160728000010407/28/16 00:00:31  5-MIN KASE 280700Z 22009KT 10SM CLR 14/01 A3036 7430 40 9100 210/09 RMK AO2 T01440011
93073KASE ASE20160728000510407/28/16 00:05:31  5-MIN KASE 280705Z 22008KT 10SM CLR 15/01 A3036 7430 37 9200 210/08 RMK AO2 T01500006
93073KASE ASE20160728001010407/28/16 00:10:31  5-MIN KASE 280710Z 21009KT 10SM CLR 14/01 A3036 7440 40 9100 200/09 RMK AO2 T01440011
93073KASE ASE20160728001510407/28/16 00:15:31  5-MIN KASE 280715Z 21008KT 10SM CLR 14/01 A3036 7440 41 9000 200/08 RMK AO2 T01390011
93073KASE ASE20160728002010407/28/16 00:20:31  5-MIN KASE 280720Z 21008KT 10SM CLR 14/01 A3036 7440 40 9100 200/08 RMK AO2 T01440011
93073KASE ASE20160728002510407/28/16 00:25:31  5-MIN KASE 280725Z 22009KT 10SM CLR 14/01 A3036 7440 38 9100 210/09 RMK AO2 T01440006
93073KASE ASE20160728003010407/28/16 00:30:31  5-MIN KASE 280730Z 22008KT 10SM CLR 15/01 A3036 7440 37 9200 210/08 RMK AO2 T01500006
93073KASE ASE20160728003510407/28/16 00:35:31  5-MIN KASE 280735Z 21008KT 10SM CLR 16/00 A3036 7440 34 9200 200/08 RMK AO2 T01560000
93073KASE ASE20160728004010407/28/16 00:40:31  5-MIN KASE 280740Z 21009KT 10SM CLR 14/00 A3036 7440 37 9100 200/09 RMK AO2 T01440000
93073KASE ASE20160728004510407/28/16 00:45:31  5-MIN KASE 280745Z 22009KT 10SM CLR 14/01 A3036 7440 40 9000 210/09 RMK AO2 T01390006
93073KASE ASE20160728005011107/28/16 00:50:31  5-MIN KASE 280750Z 18007KT 10SM CLR 13/01 A3035 7440 44 8900 170/07 RMK AO2 SLP138 T01280011
93073KASE ASE20160728005510407/28/16 00:55:31  5-MIN KASE 280755Z 22009KT 10SM CLR 14/01 A3036 7440 40 9000 210/09 RMK AO2 T01390006
93073KASE ASE20160728010010407/28/16 01:00:31  5-MIN KASE 280800Z 22009KT 10SM CLR 14/00 A3036 7440 37 9100 210/09 RMK AO2 T01440000
93073KASE ASE20160728010510407/28/16 01:05:31  5-MIN KASE 280805Z 22007KT 10SM CLR 15/00 A3036 7440 35 9200 210/07 RMK AO2 T01500000
93073KASE ASE20160728011010507/28/16 01:10:31  5-MIN KASE 280810Z 22007KT 10SM CLR 16/M01 A3036 7440 33 9200 210/07 RMK AO2 T01561006
93073KASE ASE20160728011510407/28/16 01:15:31  5-MIN KASE 280815Z 20008KT 10SM CLR 15/00 A3035 7440 35 9200 190/08 RMK AO2 T01500000
93073KASE ASE20160728012010407/28/16 01:20:31  5-MIN KASE 280820Z 22011KT 10SM CLR 13/01 A3035 7440 41 9000 210/11 RMK AO2 T01330006
93073KASE ASE20160728012510407/28/16 01:25:31  5-MIN KASE 280825Z 22010KT 10SM CLR 13/01 A3035 7440 43 8900 210/10 RMK AO2 T01280006
93073KASE ASE20160728013010407/28/16 01:30:31  5-MIN KASE 280830Z 22009KT 10SM CLR 14/00 A3036 7440 38 9000 210/09 RMK AO2 T01390000
93073KASE ASE20160728013510507/28/16 01:35:31  5-MIN KASE 280835Z 22008KT 10SM CLR 14/M01 A3036 7440 35 9100 210/08 RMK AO2 T01441006
93073KASE ASE20160728014010407/28/16 01:40:31  5-MIN KASE 280840Z 21009KT 10SM CLR 14/00 A3035 7440 38 9000 200/09 RMK AO2 T01390000
93073KASE ASE20160728014510407/28/16 01:45:31  5-MIN KASE 280845Z 21008KT 10SM CLR 14/00 A3035 7440 38 9000 210/08 RMK AO2 T01390000
93073KASE ASE20160728015011707/28/16 01:50:31  5-MIN KASE 280850Z 21010KT 10SM CLR 13/00 A3035 7440 40 9000 210/10 RMK AO2 SLP136 T01330000 50007
93073KASE ASE20160728015510407/28/16 01:55:31  5-MIN KASE 280855Z 22010KT 10SM CLR 13/00 A3035 7440 40 9000 210/10 RMK AO2 T01330000
93073KASE ASE20160728020010507/28/16 02:00:31  5-MIN KASE 280900Z 21008KT 10SM CLR 14/M01 A3035 7450 37 9000 200/08 RMK AO2 T01391006
93073KASE ASE20160728020510507/28/16 02:05:31  5-MIN KASE 280905Z 22008KT 10SM CLR 14/M01 A3035 7440 37 9000 210/08 RMK AO2 T01391006
93073KASE ASE20160728021010507/28/16 02:10:31  5-MIN KASE 280910Z 20006KT 10SM CLR 14/M01 A3036 7440 37 9000 190/06 RMK AO2 T01391006
93073KASE ASE20160728021510407/28/16 02:15:31  5-MIN KASE 280915Z 21008KT 10SM CLR 13/00 A3035 7440 41 8900 200/08 RMK AO2 T01280000
93073KASE ASE20160728022010407/28/16 02:20:31  5-MIN KASE 280920Z 21007KT 10SM CLR 13/00 A3035 7440 41 8900 200/07 RMK AO2 T01280000
93073KASE ASE20160728022510407/28/16 02:25:31  5-MIN KASE 280925Z VRB06KT 10SM CLR 13/00 A3036 7440 41 8900 VRB/06 RMK AO2 T01280000
93073KASE ASE20160728023010507/28/16 02:30:31  5-MIN KASE 280930Z 19007KT 10SM CLR 14/M01 A3036 7440 35 9000 180/07 RMK AO2 T01391011
93073KASE ASE20160728023510407/28/16 02:35:31  5-MIN KASE 280935Z 20006KT 10SM CLR 11/01 A3036 7440 48 8700 200/06 RMK AO2 T01110006
93073KASE ASE20160728024010407/28/16 02:40:31  5-MIN KASE 280940Z 22008KT 10SM CLR 12/00 A3036 7440 44 8800 210/08 RMK AO2 T01170000
93073KASE ASE20160728024510407/28/16 02:45:31  5-MIN KASE 280945Z 21004KT 10SM CLR 12/00 A3036 7440 44 8800 200/04 RMK AO2 T01170000
93073KASE ASE20160728025011107/28/16 02:50:31  5-MIN KASE 280950Z VRB04KT 10SM CLR 12/00 A3036 7440 44 8800 VRB/04 RMK AO2 SLP143 T01170000
93073KASE ASE20160728025510407/28/16 02:55:31  5-MIN KASE 280955Z 00000KT 10SM CLR 11/01 A3036 7440 50 8700 000/00 RMK AO2 T01060006
93073KASE ASE20160728030010407/28/16 03:00:31  5-MIN KASE 281000Z 00000KT 10SM CLR 11/01 A3036 7430 50 8700 000/00 RMK AO2 T01060006
93073KASE ASE20160728030510407/28/16 03:05:31  5-MIN KASE 281005Z 00000KT 10SM CLR 10/01 A3036 7430 52 8600 000/00 RMK AO2 T01000006
93073KASE ASE20160728031010407/28/16 03:10:31  5-MIN KASE 281010Z 00000KT 10SM CLR 11/01 A3037 7430 50 8700 000/00 RMK AO2 T01060006
93073KASE ASE20160728031510407/28/16 03:15:31  5-MIN KASE 281015Z 19005KT 10SM CLR 11/01 A3036 7430 50 8700 180/05 RMK AO2 T01060006
93073KASE ASE20160728032010407/28/16 03:20:31  5-MIN KASE 281020Z 22006KT 10SM CLR 10/01 A3036 7430 52 8600 210/06 RMK AO2 T01000006
93073KASE ASE20160728032510407/28/16 03:25:31  5-MIN KASE 281025Z 22005KT 10SM CLR 10/01 A3036 7430 52 8600 220/05 RMK AO2 T01000006
93073KASE ASE20160728033010407/28/16 03:30:31  5-MIN KASE 281030Z 20006KT 10SM CLR 11/00 A3037 7430 46 8700 200/06 RMK AO2 T01110000
93073KASE ASE20160728033510407/28/16 03:35:31  5-MIN KASE 281035Z 19004KT 10SM CLR 11/00 A3036 7430 46 8700 180/04 RMK AO2 T01110000
93073KASE ASE20160728034010407/28/16 03:40:31  5-MIN KASE 281040Z 18006KT 10SM CLR 10/01 A3036 7440 52 8600 170/06 RMK AO2 T01000006
93073KASE ASE20160728034510407/28/16 03:45:31  5-MIN KASE 281045Z 19007KT 10SM CLR 09/01 A3036 7430 53 8500 180/07 RMK AO2 T00940006
93073KASE ASE20160728035011107/28/16 03:50:31  5-MIN KASE 281050Z 19007KT 10SM CLR 10/01 A3036 7440 52 8600 180/07 RMK AO2 SLP147 T01000006
93073KASE ASE20160728035510407/28/16 03:55:31  5-MIN KASE 281055Z 19006KT 10SM CLR 10/01 A3036 7440 52 8600 180/06 RMK AO2 T01000006
93073KASE ASE20160728040010407/28/16 04:00:31  5-MIN KASE 281100Z 18007KT 10SM CLR 11/00 A3036 7440 48 8700 170/07 RMK AO2 T01060000
93073KASE ASE20160728040510407/28/16 04:05:31  5-MIN KASE 281105Z 20006KT 10SM CLR 11/00 A3036 7440 48 8700 190/06 RMK AO2 T01060000
93073KASE ASE20160728041010407/28/16 04:10:31  5-MIN KASE 281110Z 20006KT 10SM CLR 11/00 A3036 7440 48 8700 190/06 RMK AO2 T01060000
93073KASE ASE20160728041510407/28/16 04:15:31  5-MIN KASE 281115Z 20006KT 10SM CLR 11/00 A3036 7440 48 8700 190/06 RMK AO2 T01060000
93073KASE ASE20160728042010507/28/16 04:20:31  5-MIN KASE 281120Z 21006KT 10SM CLR 11/M01 A3036 7430 44 8700 200/06 RMK AO2 T01111006
93073KASE ASE20160728042510407/28/16 04:25:31  5-MIN KASE 281125Z 19007KT 10SM CLR 11/00 A3036 7440 46 8700 190/07 RMK AO2 T01110000
93073KASE ASE20160728043010407/28/16 04:30:31  5-MIN KASE 281130Z 22007KT 10SM CLR 11/00 A3036 7440 48 8700 210/07 RMK AO2 T01060000
93073KASE ASE20160728043510407/28/16 04:35:31  5-MIN KASE 281135Z 21004KT 10SM CLR 11/00 A3036 7430 48 8700 200/04 RMK AO2 T01060000
93073KASE ASE20160728044010407/28/16 04:40:31  5-MIN KASE 281140Z 18004KT 10SM CLR 11/00 A3036 7430 48 8700 170/04 RMK AO2 T01060000
93073KASE ASE20160728044510407/28/16 04:45:31  5-MIN KASE 281145Z 21008KT 10SM CLR 10/00 A3036 7430 49 8600 200/08 RMK AO2 T01000000
93073KASE ASE20160728045013607/28/16 04:50:31  5-MIN KASE 281150Z 20005KT 10SM CLR 12/M01 A3036 7440 42 8800 200/05 RMK AO2 SLP141 7//// T01171006 10161 20094 56003
93073KASE ASE20160728045510407/28/16 04:55:31  5-MIN KASE 281155Z 21005KT 10SM CLR 11/00 A3036 7440 48 8700 200/05 RMK AO2 T01060000
93073KASE ASE20160728050010407/28/16 05:00:31  5-MIN KASE 281200Z 21007KT 10SM CLR 11/00 A3036 7440 48 8700 200/07 RMK AO2 T01060000
93073KASE ASE20160728050510407/28/16 05:05:31  5-MIN KASE 281205Z 20006KT 10SM CLR 11/00 A3036 7440 46 8700 190/06 RMK AO2 T01110000
93073KASE ASE20160728051010407/28/16 05:10:31  5-MIN KASE 281210Z 21005KT 10SM CLR 10/01 A3036 7430 52 8600 200/05 RMK AO2 T01000006
93073KASE ASE20160728051510407/28/16 05:15:31  5-MIN KASE 281215Z 00000KT 10SM CLR 10/00 A3037 7430 49 8600 000/00 RMK AO2 T01000000
93073KASE ASE20160728052010407/28/16 05:20:31  5-MIN KASE 281220Z 21007KT 10SM CLR 10/00 A3037 7430 49 8600 200/07 RMK AO2 T01000000
93073KASE ASE20160728052510407/28/16 05:25:31  5-MIN KASE 281225Z 20005KT 10SM CLR 11/00 A3037 7430 48 8700 190/05 RMK AO2 T01060000
93073KASE ASE20160728053010407/28/16 05:30:31  5-MIN KASE 281230Z 20006KT 10SM CLR 10/01 A3037 7430 52 8600 190/06 RMK AO2 T01000006
93073KASE ASE20160728053510407/28/16 05:35:31  5-MIN KASE 281235Z 20006KT 10SM CLR 11/00 A3038 7420 48 8600 190/06 RMK AO2 T01060000
93073KASE ASE20160728054010407/28/16 05:40:31  5-MIN KASE 281240Z 19007KT 10SM CLR 11/00 A3038 7420 48 8600 180/07 RMK AO2 T01060000
93073KASE ASE20160728054510407/28/16 05:45:31  5-MIN KASE 281245Z 21006KT 10SM CLR 10/01 A3037 7430 54 8600 200/06 RMK AO2 T01000011
93073KASE ASE20160728055011107/28/16 05:50:31  5-MIN KASE 281250Z 22004KT 10SM CLR 10/01 A3038 7420 52 8600 210/04 RMK AO2 SLP155 T01000006
93073KASE ASE20160728055510407/28/16 05:55:31  5-MIN KASE 281255Z 00000KT 10SM CLR 10/01 A3038 7420 54 8600 000/00 RMK AO2 T01000011
93073KASE ASE20160728060010407/28/16 06:00:31  5-MIN KASE 281300Z 18003KT 10SM CLR 11/01 A3037 7420 52 8600 170/03 RMK AO2 T01060011
93073KASE ASE20160728060510407/28/16 06:05:31  5-MIN KASE 281305Z 00000KT 10SM CLR 11/02 A3038 7420 52 8700 000/00 RMK AO2 T01110017
93073KASE ASE20160728061010407/28/16 06:10:31  5-MIN KASE 281310Z 00000KT 10SM CLR 12/02 A3038 7410 50 8800 000/00 RMK AO2 T01170017
93073KASE ASE20160728061510407/28/16 06:15:31  5-MIN KASE 281315Z 00000KT 10SM CLR 12/02 A3039 7410 50 8800 000/00 RMK AO2 T01170017
93073KASE ASE20160728062010407/28/16 06:20:31  5-MIN KASE 281320Z 00000KT 10SM CLR 12/02 A3039 7410 48 8800 000/00 RMK AO2 T01220017
93073KASE ASE20160728062510407/28/16 06:25:31  5-MIN KASE 281325Z 00000KT 10SM CLR 13/02 A3039 7410 46 8900 000/00 RMK AO2 T01280017
93073KASE ASE20160728063010407/28/16 06:30:31  5-MIN KASE 281330Z 00000KT 10SM CLR 13/02 A3039 7410 48 8900 000/00 RMK AO2 T01280022
93073KASE ASE20160728063510407/28/16 06:35:31  5-MIN KASE 281335Z 00000KT 10SM CLR 13/02 A3040 7400 45 8900 000/00 RMK AO2 T01330017
93073KASE ASE20160728064010407/28/16 06:40:31  5-MIN KASE 281340Z 00000KT 10SM CLR 14/02 A3040 7400 45 9000 000/00 RMK AO2 T01390022
93073KASE ASE20160728064510407/28/16 06:45:31  5-MIN KASE 281345Z 00000KT 10SM CLR 14/02 A3040 7400 45 9000 000/00 RMK AO2 T01390022
93073KASE ASE20160728065011107/28/16 06:50:31  5-MIN KASE 281350Z 00000KT 10SM CLR 14/02 A3040 7400 41 9100 000/00 RMK AO2 SLP158 T01440017
93073KASE ASE20160728065510407/28/16 06:55:31  5-MIN KASE 281355Z 00000KT 10SM CLR 15/02 A3040 7400 40 9100 000/00 RMK AO2 T01500017
93073KASE ASE20160728070010407/28/16 07:00:31  5-MIN KASE 281400Z 14003KT 10SM CLR 15/01 A3040 7400 38 9100 130/03 RMK AO2 T01500011
93073KASE ASE20160728070510407/28/16 07:05:31  5-MIN KASE 281405Z 15003KT 10SM CLR 16/01 A3040 7400 37 9200 140/03 RMK AO2 T01560011
93073KASE ASE20160728071010407/28/16 07:10:31  5-MIN KASE 281410Z 14004KT 10SM CLR 16/01 A3040 7400 36 9200 130/04 RMK AO2 T01560006
93073KASE ASE20160728071510407/28/16 07:15:31  5-MIN KASE 281415Z 13003KT 10SM CLR 16/01 A3040 7400 36 9200 120/03 RMK AO2 T01610011
93073KASE ASE20160728072010407/28/16 07:20:31  5-MIN KASE 281420Z 12003KT 10SM CLR 16/02 A3040 7400 39 9200 110/03 RMK AO2 T01610022
93073KASE ASE20160728072510407/28/16 07:25:31  5-MIN KASE 281425Z 14004KT 10SM CLR 16/02 A3040 7400 39 9200 130/04 RMK AO2 T01610022
93073KASE ASE20160728073010407/28/16 07:30:31  5-MIN KASE 281430Z 14003KT 10SM CLR 17/02 A3040 7400 37 9300 130/03 RMK AO2 T01670022
93073KASE ASE20160728073510407/28/16 07:35:31  5-MIN KASE 281435Z 15005KT 10SM CLR 17/03 A3040 7400 37 9400 140/05 RMK AO2 T01720028
93073KASE ASE20160728074010407/28/16 07:40:31  5-MIN KASE 281440Z 18004KT 10SM CLR 17/03 A3039 7410 37 9400 170/04 RMK AO2 T01720028
93073KASE ASE20160728074510407/28/16 07:45:31  5-MIN KASE 281445Z 00000KT 10SM CLR 17/03 A3039 7410 37 9400 000/00 RMK AO2 T01720028
93073KASE ASE20160728075011707/28/16 07:50:31  5-MIN KASE 281450Z 14003KT 10SM CLR 18/03 A3039 7410 36 9400 130/03 RMK AO2 SLP166 T01780028 50002
93073KASE ASE20160728075510407/28/16 07:55:31  5-MIN KASE 281455Z 00000KT 10SM CLR 18/02 A3039 7410 35 9400 000/00 RMK AO2 T01780022
93073KASE ASE20160728080010407/28/16 08:00:31  5-MIN KASE 281500Z 14003KT 10SM CLR 18/02 A3039 7410 34 9500 130/03 RMK AO2 T01830022
93073KASE ASE20160728080510407/28/16 08:05:31  5-MIN KASE 281505Z 10004KT 10SM CLR 19/02 A3039 7410 32 9600 090/04 RMK AO2 T01890022
93073KASE ASE20160728081010407/28/16 08:10:31  5-MIN KASE 281510Z 10003KT 10SM CLR 19/02 A3039 7410 31 9600 090/03 RMK AO2 T01940022
93073KASE ASE20160728081510407/28/16 08:15:31  5-MIN KASE 281515Z 00000KT 10SM CLR 19/02 A3039 7410 31 9600 000/00 RMK AO2 T01940022
93073KASE ASE20160728082010407/28/16 08:20:31  5-MIN KASE 281520Z VRB03KT 10SM CLR 20/02 A3039 7410 30 9700 VRB/03 RMK AO2 T02000022
93073KASE ASE20160728082510407/28/16 08:25:31  5-MIN KASE 281525Z VRB04KT 10SM CLR 20/02 A3038 7420 29 9700 VRB/04 RMK AO2 T02000017
93073KASE ASE20160728083010407/28/16 08:30:31  5-MIN KASE 281530Z 14004KT 10SM CLR 20/02 A3038 7420 29 9700 130/04 RMK AO2 T02000017
93073KASE ASE20160728083510407/28/16 08:35:31  5-MIN KASE 281535Z 00000KT 10SM CLR 21/01 A3038 7420 27 9700 000/00 RMK AO2 T02060011
93073KASE ASE20160728084010407/28/16 08:40:31  5-MIN KASE 281540Z 18003KT 10SM CLR 21/01 A3038 7420 26 9800 170/03 RMK AO2 T02110011
93073KASE ASE20160728084510407/28/16 08:45:31  5-MIN KASE 281545Z VRB03KT 10SM CLR 21/01 A3037 7420 25 9800 VRB/03 RMK AO2 T02110006
93073KASE ASE20160728085011107/28/16 08:50:31  5-MIN KASE 281550Z 00000KT 10SM CLR 22/01 A3037 7420 23 9900 000/00 RMK AO2 SLP153 T02220006
93073KASE ASE20160728085510407/28/16 08:55:31  5-MIN KASE 281555Z 00000KT 10SM CLR 22/01 A3037 7430 24 9900 000/00 RMK AO2 T02220011
93073KASE ASE20160728090010507/28/16 09:00:31  5-MIN KASE 281600Z VRB03KT 10SM CLR 23/02 A3037 7430 24 10000 VRB/03 RMK AO2 T02280017
93073KASE ASE20160728090510507/28/16 09:05:31  5-MIN KASE 281605Z 14003KT 10SM CLR 23/02 A3037 7430 24 10000 130/03 RMK AO2 T02280017
93073KASE ASE20160728091010507/28/16 09:10:31  5-MIN KASE 281610Z 00000KT 10SM CLR 23/01 A3037 7430 23 10000 000/00 RMK AO2 T02280011
93073KASE ASE20160728091510507/28/16 09:15:31  5-MIN KASE 281615Z 00000KT 10SM CLR 24/01 A3037 7430 22 10100 000/00 RMK AO2 T02390011
93073KASE ASE20160728092010507/28/16 09:20:31  5-MIN KASE 281620Z 09003KT 10SM CLR 24/01 A3037 7430 20 10200 080/03 RMK AO2 T02440006
93073KASE ASE20160728092510607/28/16 09:25:31  5-MIN KASE 281625Z VRB03KT 10SM CLR 24/M03 A3037 7430 16 10200 VRB/03 RMK AO2 T02441028
93073KASE ASE20160728093010607/28/16 09:30:31  5-MIN KASE 281630Z 00000KT 10SM CLR 25/M04 A3037 7430 14 10200 000/00 RMK AO2 T02501039
93073KASE ASE20160728093510607/28/16 09:35:31  5-MIN KASE 281635Z 01003KT 10SM CLR 26/M04 A3037 7430 13 10300 360/03 RMK AO2 T02561044
93073KASE ASE20160728094010607/28/16 09:40:31  5-MIN KASE 281640Z VRB03KT 10SM CLR 26/M02 A3037 7430 15 10400 VRB/03 RMK AO2 T02611022
93073KASE ASE20160728094510607/28/16 09:45:31  5-MIN KASE 281645Z VRB03KT 10SM CLR 26/M02 A3037 7430 16 10400 VRB/03 RMK AO2 T02611017
93073KASE ASE20160728095011307/28/16 09:50:31  5-MIN KASE 281650Z VRB04KT 10SM CLR 26/M02 A3037 7430 16 10400 VRB/04 RMK AO2 SLP140 T02611017
93073KASE ASE20160728095510607/28/16 09:55:31  5-MIN KASE 281655Z 05005KT 10SM CLR 27/M02 A3037 7430 14 10400 040/05 RMK AO2 T02671022
93073KASE ASE20160728100010607/28/16 10:00:31  5-MIN KASE 281700Z 06005KT 10SM CLR 27/M03 A3037 7430 14 10400 050/05 RMK AO2 T02671028
93073KASE ASE20160728100510607/28/16 10:05:31  5-MIN KASE 281705Z 06005KT 10SM CLR 27/M03 A3037 7430 13 10400 050/05 RMK AO2 T02671033
93073KASE ASE20160728101010607/28/16 10:10:31  5-MIN KASE 281710Z VRB05KT 10SM CLR 27/M04 A3037 7430 12 10500 VRB/05 RMK AO2 T02721039
93073KASE ASE20160728101510607/28/16 10:15:31  5-MIN KASE 281715Z VRB06KT 10SM CLR 27/M04 A3037 7430 12 10500 VRB/06 RMK AO2 T02721039
93073KASE ASE20160728102010607/28/16 10:20:31  5-MIN KASE 281720Z 03006KT 10SM CLR 28/M04 A3037 7430 11 10500 020/06 RMK AO2 T02781044
93073KASE ASE20160728102510607/28/16 10:25:31  5-MIN KASE 281725Z 05005KT 10SM CLR 28/M05 A3037 7430 11 10500 040/05 RMK AO2 T02781050
93073KASE ASE20160728103010607/28/16 10:30:31  5-MIN KASE 281730Z VRB05KT 10SM CLR 28/M04 A3037 7430 11 10600 VRB/05 RMK AO2 T02831044
93073KASE ASE20160728103510607/28/16 10:35:31  5-MIN KASE 281735Z 07003KT 10SM CLR 28/M05 A3036 7430 11 10600 060/03 RMK AO2 T02831050
93073KASE ASE20160728104010607/28/16 10:40:31  5-MIN KASE 281740Z VRB06KT 10SM CLR 29/M04 A3036 7430 11 10700 VRB/06 RMK AO2 T02891044
93073KASE ASE20160728104512207/28/16 10:45:31  5-MIN KASE 281745Z 01009KT 340V040 10SM CLR 29/M04 A3036 7430 11 10700 360/09 330V030 RMK AO2 T02891044
93073KASE ASE20160728105012107/28/16 10:50:31  5-MIN KASE 281750Z 10SM CLR 29/M05 A3036 7430 10 10700 M /M RMK AO2 SLP135 T02891050 10294 20100 50008
93073KASE ASE20160728105510607/28/16 10:55:31  5-MIN KASE 281755Z 35009KT 10SM CLR 29/M05 A3036 7440 10 10700 340/09 RMK AO2 T02891050
93073KASE ASE20160728110011207/28/16 11:00:31  5-MIN KASE 281800Z 34013G21KT 10SM CLR 28/M05 A3036 7440 11 10600 330/13G21 RMK AO2 T02831050
93073KASE ASE20160728110511207/28/16 11:05:31  5-MIN KASE 281805Z 35008G21KT 10SM CLR 28/M05 A3036 7440 11 10600 340/08G21 RMK AO2 T02831050
93073KASE ASE20160728111011207/28/16 11:10:31  5-MIN KASE 281810Z 34013G19KT 10SM CLR 29/M05 A3036 7440 10 10700 330/13G19 RMK AO2 T02891050
93073KASE ASE20160728111511207/28/16 11:15:31  5-MIN KASE 281815Z 34012G19KT 10SM CLR 29/M05 A3036 7440 10 10700 330/12G19 RMK AO2 T02891050
93073KASE ASE20160728112011207/28/16 11:20:31  5-MIN KASE 281820Z 34012G17KT 10SM CLR 29/M04 A3036 7440 11 10700 330/12G17 RMK AO2 T02891044
93073KASE ASE20160728112511207/28/16 11:25:31  5-MIN KASE 281825Z 34010G17KT 10SM CLR 29/M05 A3036 7440 10 10700 330/10G17 RMK AO2 T02891050
93073KASE ASE20160728113012207/28/16 11:30:31  5-MIN KASE 281830Z 32008KT 280V340 10SM CLR 29/M04 A3035 7440 11 10700 310/08 270V330 RMK AO2 T02941039
93073KASE ASE20160728113510607/28/16 11:35:31  5-MIN KASE 281835Z 35010KT 10SM CLR 30/M04 A3035 7440 10 10800 340/10 RMK AO2 T03001044
93073KASE ASE20160728114010607/28/16 11:40:31  5-MIN KASE 281840Z 35011KT 10SM CLR 30/M04 A3035 7450 10 10800 340/11 RMK AO2 T03001039
93073KASE ASE20160728114511207/28/16 11:45:31  5-MIN KASE 281845Z 01012G17KT 10SM CLR 31/M04 A3035 7450 10 10800 360/12G17 RMK AO2 T03061039
93073KASE ASE20160728115012207/28/16 11:50:31  5-MIN KASE 281850Z 34010G18KT 10SM FEW100 30/M04 A3035 7450 10 10800 330/10G18 RMK AO2 SLP131 T03001044
93073KASE ASE20160728115511207/28/16 11:55:31  5-MIN KASE 281855Z 34010G18KT 10SM CLR 30/M04 A3035 7450 10 10800 340/10G18 RMK AO2 T03001039
93073KASE ASE20160728120012807/28/16 12:00:31  5-MIN KASE 281900Z 33007G18KT 280V350 10SM CLR 29/M04 A3035 7450 10 10700 320/07G18 270V340 RMK AO2 T02941044
93073KASE ASE20160728120511207/28/16 12:05:31  5-MIN KASE 281905Z 32011G17KT 10SM CLR 30/M04 A3035 7450 10 10800 320/11G17 RMK AO2 T03001039
93073KASE ASE20160728121012707/28/16 12:10:31  5-MIN KASE 281910Z 36011G18KT 330V040 9SM CLR 30/M05 A3035 7450 10 10800 350/11G18 320V030 RMK AO2 T03001050
93073KASE ASE20160728121511107/28/16 12:15:31  5-MIN KASE 281915Z 34012G18KT 9SM CLR 30/M05 A3035 7450 10 10800 330/12G18 RMK AO2 T03001050
93073KASE ASE20160728122011207/28/16 12:20:31  5-MIN KASE 281920Z 35012G23KT 10SM CLR 30/M06 A3035 7450 09 10800 340/12G23 RMK AO2 T03001061
93073KASE ASE20160728122511207/28/16 12:25:31  5-MIN KASE 281925Z 34011G23KT 10SM CLR 31/M06 A3034 7450 09 10800 330/11G23 RMK AO2 T03061056
93073KASE ASE20160728123011207/28/16 12:30:31  5-MIN KASE 281930Z 33011G24KT 10SM CLR 30/M06 A3034 7460 09 10800 330/11G24 RMK AO2 T03001061
93073KASE ASE20160728123511207/28/16 12:35:31  5-MIN KASE 281935Z 34012G24KT 10SM CLR 30/M05 A3034 7460 10 10800 330/12G24 RMK AO2 T03001050
93073KASE ASE20160728124011207/28/16 12:40:31  5-MIN KASE 281940Z 34013G22KT 10SM CLR 31/M05 A3034 7460 09 10900 330/13G22 RMK AO2 T03061050
93073KASE ASE20160728124511207/28/16 12:45:31  5-MIN KASE 281945Z 33013G22KT 10SM CLR 31/M05 A3033 7460 09 10900 320/13G22 RMK AO2 T03061050
93073KASE ASE20160728125011907/28/16 12:50:31  5-MIN KASE 281950Z 35015G24KT 10SM CLR 31/M05 A3033 7460 09 10900 350/15G24 RMK AO2 SLP126 T03061050
93073KASE ASE20160728125513007/28/16 12:55:31  5-MIN KASE 281955Z 35018G28KT 10SM CLR 30/M06 A3033 7460 09 10800 340/18G28 RMK AO2 PK WND 35028/1955 T03001056
93073KASE ASE20160728130013007/28/16 13:00:31  5-MIN KASE 282000Z 34011G28KT 10SM CLR 30/M05 A3033 7460 10 10800 330/11G28 RMK AO2 PK WND 35028/1955 T03001050
93073KASE ASE20160728130513007/28/16 13:05:31  5-MIN KASE 282005Z 34015G20KT 10SM CLR 30/M05 A3033 7470 10 10800 330/15G20 RMK AO2 PK WND 35028/1955 T03001050
93073KASE ASE20160728131013007/28/16 13:10:31  5-MIN KASE 282010Z 34015G20KT 10SM CLR 31/M05 A3033 7470 09 10900 340/15G20 RMK AO2 PK WND 35028/1955 T03061050
93073KASE ASE20160728131513007/28/16 13:15:31  5-MIN KASE 282015Z 34013G22KT 10SM CLR 29/M05 A3033 7470 10 10800 330/13G22 RMK AO2 PK WND 35028/1955 T02941050
93073KASE ASE20160728132013007/28/16 13:20:31  5-MIN KASE 282020Z 33009G22KT 10SM CLR 29/M04 A3033 7460 11 10700 320/09G22 RMK AO2 PK WND 35028/1955 T02891044
93073KASE ASE20160728132513007/28/16 13:25:31  5-MIN KASE 282025Z 35012G20KT 10SM CLR 29/M04 A3033 7470 11 10700 340/12G20 RMK AO2 PK WND 35028/1955 T02891039
93073KASE ASE20160728133013007/28/16 13:30:31  5-MIN KASE 282030Z 31015G20KT 10SM CLR 29/M04 A3033 7470 10 10800 300/15G20 RMK AO2 PK WND 35028/1955 T02941044
93073KASE ASE20160728133513007/28/16 13:35:31  5-MIN KASE 282035Z 36007G19KT 10SM CLR 29/M05 A3032 7470 10 10700 350/07G19 RMK AO2 PK WND 35028/1955 T02891050
93073KASE ASE20160728134012407/28/16 13:40:31  5-MIN KASE 282040Z VRB05KT 10SM CLR 29/M05 A3032 7470 10 10700 VRB/05 RMK AO2 PK WND 35028/1955 T02891050
93073KASE ASE20160728134514607/28/16 13:45:31  5-MIN KASE 282045Z 33009G18KT 290V030 10SM CLR 29/M04 A3032 7470 10 10800 320/09G18 280V020 RMK AO2 PK WND 35028/1955 T02941044
93073KASE ASE20160728135014607/28/16 13:50:31  5-MIN KASE 282050Z 34012G22KT 10SM SCT080 29/M04 A3032 7470 10 10800 330/12G22 RMK AO2 PK WND 35028/1955 SLP123 T02941044 56010
93073KASE ASE20160728135511207/28/16 13:55:31  5-MIN KASE 282055Z 35009G22KT 10SM CLR 29/M04 A3032 7470 11 10800 340/09G22 RMK AO2 T02941039
93073KASE ASE20160728140011207/28/16 14:00:31  5-MIN KASE 282100Z 34013G20KT 10SM CLR 29/M04 A3032 7470 10 10800 330/13G20 RMK AO2 T02941044
93073KASE ASE20160728140511207/28/16 14:05:31  5-MIN KASE 282105Z 33008G20KT 10SM CLR 29/M04 A3032 7470 11 10700 330/08G20 RMK AO2 T02891044
93073KASE ASE20160728141009607/28/16 14:10:31  5-MIN KASE 282110Z 10SM CLR 29/M03 A3032 7480 11 10800 M /M RMK AO2 T02941033
93073KASE ASE20160728141511207/28/16 14:15:31  5-MIN KASE 282115Z 34011G19KT 10SM CLR 29/M04 A3031 7480 11 10800 330/11G19 RMK AO2 T02941039
93073KASE ASE20160728142011207/28/16 14:20:31  5-MIN KASE 282120Z 33011G19KT 10SM CLR 29/M04 A3031 7480 11 10700 320/11G19 RMK AO2 T02891044
93073KASE ASE20160728142511207/28/16 14:25:31  5-MIN KASE 282125Z 34010G20KT 10SM CLR 29/M04 A3031 7480 11 10700 330/10G20 RMK AO2 T02891039
93073KASE ASE20160728143011207/28/16 14:30:31  5-MIN KASE 282130Z 32008G20KT 10SM CLR 29/M03 A3031 7480 12 10700 310/08G20 RMK AO2 T02891033
93073KASE ASE20160728143511207/28/16 14:35:31  5-MIN KASE 282135Z 33010G16KT 10SM CLR 29/M04 A3031 7480 11 10700 320/10G16 RMK AO2 T02891039
93073KASE ASE20160728144011507/28/16 14:40:31  5-MIN KASE 282140Z 33009G17KT 10SM FEW110 29/M04 A3031 7490 11 10800 320/09G17 RMK AO2 T02941039
93073KASE ASE20160728144513107/28/16 14:45:31  5-MIN KASE 282145Z 33007G17KT 290V360 10SM FEW110 30/M04 A3030 7490 10 10800 320/07G17 280V350 RMK AO2 T03001044
93073KASE ASE20160728145011907/28/16 14:50:31  5-MIN KASE 282150Z 33012G20KT 10SM CLR 30/M04 A3030 7500 10 10800 320/12G20 RMK AO2 SLP116 T03001044
93073KASE ASE20160728145511207/28/16 14:55:31  5-MIN KASE 282155Z 35014G20KT 10SM CLR 30/M04 A3029 7500 10 10800 340/14G20 RMK AO2 T03001044
93073KASE ASE20160728150011207/28/16 15:00:31  5-MIN KASE 282200Z 35014G22KT 10SM CLR 31/M04 A3030 7490 10 10900 340/14G22 RMK AO2 T03061044
93073KASE ASE20160728150511207/28/16 15:05:31  5-MIN KASE 282205Z 33010G22KT 10SM CLR 31/M04 A3030 7490 09 11000 320/10G22 RMK AO2 T03111044
93073KASE ASE20160728151011207/28/16 15:10:31  5-MIN KASE 282210Z 35014G19KT 10SM CLR 32/M04 A3029 7500 09 11000 340/14G19 RMK AO2 T03171039
93073KASE ASE20160728151513007/28/16 15:15:31  5-MIN KASE 282215Z 34014G29KT 10SM CLR 30/M04 A3029 7500 10 10800 330/14G29 RMK AO2 PK WND 33029/2212 T03001044
93073KASE ASE20160728152013007/28/16 15:20:31  5-MIN KASE 282220Z 35013G29KT 10SM CLR 29/M04 A3029 7500 11 10700 340/13G29 RMK AO2 PK WND 33029/2212 T02891044
93073KASE ASE20160728152513007/28/16 15:25:31  5-MIN KASE 282225Z 35009G20KT 10SM CLR 29/M04 A3029 7500 11 10700 340/09G20 RMK AO2 PK WND 33029/2212 T02891044
93073KASE ASE20160728153012407/28/16 15:30:31  5-MIN KASE 282230Z 33011KT 10SM CLR 29/M04 A3029 7500 11 10700 330/11 RMK AO2 PK WND 33029/2212 T02891039
93073KASE ASE20160728153512407/28/16 15:35:31  5-MIN KASE 282235Z 35010KT 10SM CLR 29/M03 A3029 7500 11 10800 340/10 RMK AO2 PK WND 33029/2212 T02941033
93073KASE ASE20160728154012407/28/16 15:40:31  5-MIN KASE 282240Z 32008KT 10SM CLR 29/M03 A3029 7500 12 10700 310/08 RMK AO2 PK WND 33029/2212 T02891033
93073KASE ASE20160728154513007/28/16 15:45:31  5-MIN KASE 282245Z 31016G19KT 10SM CLR 28/M04 A3029 7500 12 10700 310/16G19 RMK AO2 PK WND 33029/2212 T02831039
93073KASE ASE20160728155013707/28/16 15:50:31  5-MIN KASE 282250Z 33011G19KT 10SM CLR 28/M04 A3029 7500 12 10700 320/11G19 RMK AO2 PK WND 33029/2212 SLP123 T02831039
93073KASE ASE20160728155510607/28/16 15:55:31  5-MIN KASE 282255Z 33009KT 10SM CLR 28/M03 A3029 7500 13 10600 320/09 RMK AO2 T02781028
93073KASE ASE20160728160011507/28/16 16:00:31  5-MIN KASE 282300Z 33018G25KT 10SM FEW100 28/M03 A3030 7490 12 10600 320/18G25 RMK AO2 T02781033
93073KASE ASE20160728160513107/28/16 16:05:31  5-MIN KASE 282305Z 32011G25KT 280V340 10SM FEW100 28/M04 A3030 7490 12 10600 310/11G25 270V330 RMK AO2 T02781039
93073KASE ASE20160728161011507/28/16 16:10:31  5-MIN KASE 282310Z VRB06G21KT 10SM FEW100 28/M03 A3031 7490 12 10700 VRB/06G21 RMK AO2 T02831033
93073KASE ASE20160728161511507/28/16 16:15:31  5-MIN KASE 282315Z 24015G22KT 10SM FEW100 28/M03 A3030 7490 13 10700 230/15G22 RMK AO2 T02831028
93073KASE ASE20160728162013107/28/16 16:20:31  5-MIN KASE 282320Z 24009G22KT 210V290 10SM FEW100 29/M02 A3030 7490 13 10700 240/09G22 200V280 RMK AO2 T02891022
93073KASE ASE20160728162511507/28/16 16:25:31  5-MIN KASE 282325Z 25010G19KT 10SM FEW100 29/M02 A3030 7490 13 10700 240/10G19 RMK AO2 T02891017
93073KASE ASE20160728163011207/28/16 16:30:31  5-MIN KASE 282330Z 23007G15KT 10SM CLR 29/M02 A3030 7490 13 10700 220/07G15 RMK AO2 T02891017
93073KASE ASE20160728163510607/28/16 16:35:31  5-MIN KASE 282335Z VRB06KT 10SM CLR 28/M02 A3030 7490 13 10700 VRB/06 RMK AO2 T02831022
93073KASE ASE20160728164010607/28/16 16:40:31  5-MIN KASE 282340Z VRB05KT 10SM CLR 28/M02 A3030 7490 14 10700 VRB/05 RMK AO2 T02831017
93073KASE ASE20160728164510607/28/16 16:45:31  5-MIN KASE 282345Z 24008KT 10SM CLR 28/M02 A3030 7490 13 10700 230/08 RMK AO2 T02831022
93073KASE ASE20160728165013107/28/16 16:50:31  5-MIN KASE 282350Z 26004KT 10SM CLR 29/M03 A3030 7490 12 10700 250/04 RMK AO2 SLP121 T02891028 10317 20278 57010
93073KASE ASE20160728165510607/28/16 16:55:31  5-MIN KASE 282355Z VRB05KT 10SM CLR 29/M02 A3030 7490 13 10700 VRB/05 RMK AO2 T02891022
93073KASE ASE20160728170010607/28/16 17:00:31  5-MIN KASE 290000Z 00000KT 10SM CLR 29/M03 A3030 7500 12 10700 000/00 RMK AO2 T02891028
93073KASE ASE20160728170510607/28/16 17:05:31  5-MIN KASE 290005Z VRB03KT 10SM CLR 29/M03 A3029 7500 12 10700 VRB/03 RMK AO2 T02891028
93073KASE ASE20160728171010607/28/16 17:10:31  5-MIN KASE 290010Z 32004KT 10SM CLR 29/M03 A3029 7500 12 10800 310/04 RMK AO2 T02941028
93073KASE ASE20160728171510607/28/16 17:15:31  5-MIN KASE 290015Z 00000KT 10SM CLR 29/M04 A3029 7500 11 10800 000/00 RMK AO2 T02941039
93073KASE ASE20160728172010607/28/16 17:20:31  5-MIN KASE 290020Z 34005KT 10SM CLR 29/M03 A3029 7500 12 10800 330/05 RMK AO2 T02941028
93073KASE ASE20160728172510607/28/16 17:25:31  5-MIN KASE 290025Z VRB05KT 10SM CLR 29/M03 A3029 7500 11 10800 VRB/05 RMK AO2 T02941033
93073KASE ASE20160728173010607/28/16 17:30:31  5-MIN KASE 290030Z VRB06KT 10SM CLR 29/M03 A3028 7510 12 10700 VRB/06 RMK AO2 T02891033
93073KASE ASE20160728173510607/28/16 17:35:31  5-MIN KASE 290035Z VRB03KT 10SM CLR 29/M03 A3028 7510 11 10800 VRB/03 RMK AO2 T02941033
93073KASE ASE20160728174010607/28/16 17:40:31  5-MIN KASE 290040Z 33006KT 10SM CLR 29/M03 A3028 7510 12 10800 320/06 RMK AO2 T02941028
93073KASE ASE20160728174510607/28/16 17:45:31  5-MIN KASE 290045Z 30005KT 10SM CLR 29/M02 A3028 7510 13 10700 290/05 RMK AO2 T02891022
93073KASE ASE20160728175011307/28/16 17:50:31  5-MIN KASE 290050Z VRB04KT 10SM CLR 29/M03 A3028 7510 12 10700 VRB/04 RMK AO2 SLP118 T02891028
93073KASE ASE20160728175510607/28/16 17:55:31  5-MIN KASE 290055Z 00000KT 10SM CLR 28/M01 A3028 7510 15 10600 000/00 RMK AO2 T02781011
93073KASE ASE20160728180010607/28/16 18:00:31  5-MIN KASE 290100Z 21003KT 10SM CLR 27/M01 A3028 7510 16 10600 200/03 RMK AO2 T02721006
93073KASE ASE20160728180510507/28/16 18:05:31  5-MIN KASE 290105Z 00000KT 10SM CLR 24/02 A3027 7520 23 10300 000/00 RMK AO2 T02440022
93073KASE ASE20160728181010507/28/16 18:10:31  5-MIN KASE 290110Z 26003KT 10SM CLR 23/02 A3027 7520 24 10200 250/03 RMK AO2 T02330022
93073KASE ASE20160728181510507/28/16 18:15:31  5-MIN KASE 290115Z 24004KT 10SM CLR 23/02 A3027 7520 24 10100 230/04 RMK AO2 T02280017
93073KASE ASE20160728182010507/28/16 18:20:31  5-MIN KASE 290120Z VRB05KT 10SM CLR 23/01 A3027 7520 23 10100 VRB/05 RMK AO2 T02280011
93073KASE ASE20160728182510507/28/16 18:25:31  5-MIN KASE 290125Z 22004KT 10SM CLR 22/03 A3027 7520 27 10000 210/04 RMK AO2 T02220028
93073KASE ASE20160728183010507/28/16 18:30:31  5-MIN KASE 290130Z VRB03KT 10SM CLR 22/04 A3027 7510 31 10000 VRB/03 RMK AO2 T02170039
93073KASE ASE20160728183510507/28/16 18:35:31  5-MIN KASE 290135Z 17006KT 10SM CLR 23/04 A3028 7510 29 10100 160/06 RMK AO2 T02280039
93073KASE ASE20160728184011007/28/16 18:40:31  5-MIN KASE 290140Z AUTO 20008KT 10SM CLR 22/06 A3028 7510 33 10000 190/08 RMK AO2 T02220056
93073KASE ASE20160728184511007/28/16 18:45:31  5-MIN KASE 290145Z AUTO 19009KT 10SM CLR 22/04 A3028 7510 31 10000 180/09 RMK AO2 T02220044
93073KASE ASE20160728185011707/28/16 18:50:31  5-MIN KASE 290150Z AUTO 20006KT 10SM CLR 22/04 A3028 7510 30 10000 190/06 RMK AO2 SLP124 T02220039
93073KASE ASE20160728185510907/28/16 18:55:31  5-MIN KASE 290155Z AUTO 20007KT 10SM CLR 21/05 A3028 7510 34 9900 190/07 RMK AO2 T02110050
93073KASE ASE20160728190010907/28/16 19:00:31  5-MIN KASE 290200Z AUTO 19007KT 10SM CLR 21/04 A3028 7510 33 9900 180/07 RMK AO2 T02110044
93073KASE ASE20160728190510907/28/16 19:05:31  5-MIN KASE 290205Z AUTO 21007KT 10SM CLR 20/05 A3028 7510 37 9800 210/07 RMK AO2 T02000050
93073KASE ASE20160728191010907/28/16 19:10:31  5-MIN KASE 290210Z AUTO 21007KT 10SM CLR 21/04 A3028 7510 34 9900 200/07 RMK AO2 T02060044
93073KASE ASE20160728191510907/28/16 19:15:31  5-MIN KASE 290215Z AUTO 20004KT 10SM CLR 21/04 A3028 7510 33 9900 190/04 RMK AO2 T02060039
93073KASE ASE20160728192010907/28/16 19:20:31  5-MIN KASE 290220Z AUTO 21006KT 10SM CLR 20/04 A3028 7510 34 9800 200/06 RMK AO2 T02000039
93073KASE ASE20160728192510907/28/16 19:25:31  5-MIN KASE 290225Z AUTO 20006KT 10SM CLR 19/04 A3028 7510 35 9700 190/06 RMK AO2 T01940039
93073KASE ASE20160728193010907/28/16 19:30:31  5-MIN KASE 290230Z AUTO 19008KT 10SM CLR 19/04 A3028 7510 35 9700 180/08 RMK AO2 T01940039
93073KASE ASE20160728193510907/28/16 19:35:31  5-MIN KASE 290235Z AUTO 20007KT 10SM CLR 19/03 A3028 7510 34 9700 200/07 RMK AO2 T01940033
93073KASE ASE20160728194010907/28/16 19:40:31  5-MIN KASE 290240Z AUTO 21007KT 10SM CLR 18/03 A3028 7510 36 9600 200/07 RMK AO2 T01830033
93073KASE ASE20160728194510907/28/16 19:45:31  5-MIN KASE 290245Z AUTO 20007KT 10SM CLR 18/04 A3028 7510 38 9600 190/07 RMK AO2 T01830039
93073KASE ASE20160728195012207/28/16 19:50:31  5-MIN KASE 290250Z AUTO 18007KT 10SM CLR 17/04 A3028 7510 41 9500 180/07 RMK AO2 SLP130 T01720039 55006
93073KASE ASE20160728195510907/28/16 19:55:31  5-MIN KASE 290255Z AUTO 19009KT 10SM CLR 18/04 A3028 7510 39 9500 180/09 RMK AO2 T01780039
93073KASE ASE20160728200010907/28/16 20:00:31  5-MIN KASE 290300Z AUTO 21008KT 10SM CLR 17/03 A3029 7500 39 9500 200/08 RMK AO2 T01720033
93073KASE ASE20160728200510907/28/16 20:05:31  5-MIN KASE 290305Z AUTO 21008KT 10SM CLR 17/03 A3029 7500 40 9400 200/08 RMK AO2 T01670033
93073KASE ASE20160728201010907/28/16 20:10:31  5-MIN KASE 290310Z AUTO 21008KT 10SM CLR 17/03 A3029 7500 40 9400 200/08 RMK AO2 T01670033
93073KASE ASE20160728201510907/28/16 20:15:31  5-MIN KASE 290315Z AUTO 22008KT 10SM CLR 16/03 A3030 7500 40 9400 210/08 RMK AO2 T01610028
93073KASE ASE20160728202010907/28/16 20:20:31  5-MIN KASE 290320Z AUTO 20006KT 10SM CLR 17/03 A3030 7490 37 9500 190/06 RMK AO2 T01720028
93073KASE ASE20160728202510907/28/16 20:25:31  5-MIN KASE 290325Z AUTO 18005KT 10SM CLR 17/03 A3030 7490 39 9400 170/05 RMK AO2 T01670028
93073KASE ASE20160728203010907/28/16 20:30:31  5-MIN KASE 290330Z AUTO 21006KT 10SM CLR 17/03 A3030 7490 39 9400 200/06 RMK AO2 T01670028
93073KASE ASE20160728203510907/28/16 20:35:31  5-MIN KASE 290335Z AUTO 21008KT 10SM CLR 17/03 A3030 7490 39 9400 200/08 RMK AO2 T01670028
93073KASE ASE20160728204010907/28/16 20:40:31  5-MIN KASE 290340Z AUTO 20007KT 10SM CLR 17/02 A3031 7490 35 9500 190/07 RMK AO2 T01720017
93073KASE ASE20160728204510907/28/16 20:45:31  5-MIN KASE 290345Z AUTO 20007KT 10SM CLR 18/02 A3031 7480 33 9500 190/07 RMK AO2 T01780017
93073KASE ASE20160728205011607/28/16 20:50:31  5-MIN KASE 290350Z AUTO 21009KT 10SM CLR 16/02 A3031 7480 39 9300 200/09 RMK AO2 SLP131 T01610022
93073KASE ASE20160728205510907/28/16 20:55:31  5-MIN KASE 290355Z AUTO 22009KT 10SM CLR 16/02 A3031 7480 39 9300 210/09 RMK AO2 T01610022
93073KASE ASE20160728210010907/28/16 21:00:31  5-MIN KASE 290400Z AUTO 21009KT 10SM CLR 16/02 A3031 7480 37 9300 200/09 RMK AO2 T01610017
93073KASE ASE20160728210510907/28/16 21:05:31  5-MIN KASE 290405Z AUTO 22008KT 10SM CLR 17/02 A3031 7480 35 9500 210/08 RMK AO2 T01720017
93073KASE ASE20160728211010907/28/16 21:10:31  5-MIN KASE 290410Z AUTO 21008KT 10SM CLR 17/01 A3031 7480 33 9500 200/08 RMK AO2 T01720011
93073KASE ASE20160728211510907/28/16 21:15:31  5-MIN KASE 290415Z AUTO 20007KT 10SM CLR 18/01 A3032 7470 30 9600 190/07 RMK AO2 T01830006
93073KASE ASE20160728212010907/28/16 21:20:31  5-MIN KASE 290420Z AUTO 19007KT 10SM CLR 16/02 A3032 7480 37 9300 180/07 RMK AO2 T01610017
93073KASE ASE20160728212510907/28/16 21:25:31  5-MIN KASE 290425Z AUTO 20006KT 10SM CLR 15/02 A3032 7480 42 9200 190/06 RMK AO2 T01500022
93073KASE ASE20160728213010907/28/16 21:30:31  5-MIN KASE 290430Z AUTO 20005KT 10SM CLR 16/02 A3032 7480 37 9300 190/05 RMK AO2 T01610017
93073KASE ASE20160728213510907/28/16 21:35:31  5-MIN KASE 290435Z AUTO 21009KT 10SM CLR 16/02 A3032 7480 39 9300 200/09 RMK AO2 T01560017
93073KASE ASE20160728214010907/28/16 21:40:31  5-MIN KASE 290440Z AUTO 21009KT 10SM CLR 16/01 A3032 7480 36 9300 200/09 RMK AO2 T01610011
93073KASE ASE20160728214510907/28/16 21:45:31  5-MIN KASE 290445Z AUTO 20008KT 10SM CLR 17/01 A3032 7470 33 9400 190/08 RMK AO2 T01670006
93073KASE ASE20160728215011607/28/16 21:50:31  5-MIN KASE 290450Z AUTO 21008KT 10SM CLR 17/01 A3032 7480 32 9500 200/08 RMK AO2 SLP123 T01720006
93073KASE ASE20160728215510907/28/16 21:55:31  5-MIN KASE 290455Z AUTO 19007KT 10SM CLR 17/01 A3032 7480 33 9400 180/07 RMK AO2 T01670006
93073KASE ASE20160728220010907/28/16 22:00:31  5-MIN KASE 290500Z AUTO 20006KT 10SM CLR 16/01 A3032 7480 36 9300 190/06 RMK AO2 T01610011
93073KASE ASE20160728220510907/28/16 22:05:31  5-MIN KASE 290505Z AUTO 22011KT 10SM CLR 15/02 A3032 7480 40 9200 210/11 RMK AO2 T01500017
93073KASE ASE20160728221010907/28/16 22:10:31  5-MIN KASE 290510Z AUTO 21008KT 10SM CLR 15/01 A3031 7480 38 9200 200/08 RMK AO2 T01500011
93073KASE ASE20160728221510907/28/16 22:15:31  5-MIN KASE 290515Z AUTO 20007KT 10SM CLR 17/01 A3032 7480 33 9400 200/07 RMK AO2 T01670006
93073KASE ASE20160728222010907/28/16 22:20:31  5-MIN KASE 290520Z AUTO 20007KT 10SM CLR 17/00 A3031 7480 32 9400 190/07 RMK AO2 T01670000
93073KASE ASE20160728222510907/28/16 22:25:31  5-MIN KASE 290525Z AUTO 21008KT 10SM CLR 16/01 A3031 7480 34 9300 200/08 RMK AO2 T01610006
93073KASE ASE20160728223010907/28/16 22:30:31  5-MIN KASE 290530Z AUTO 21007KT 10SM CLR 16/01 A3031 7480 36 9300 200/07 RMK AO2 T01560006
93073KASE ASE20160728223510907/28/16 22:35:31  5-MIN KASE 290535Z AUTO 20006KT 10SM CLR 16/01 A3032 7480 36 9300 190/06 RMK AO2 T01560006
93073KASE ASE20160728224010907/28/16 22:40:31  5-MIN KASE 290540Z AUTO 20006KT 10SM CLR 14/01 A3031 7480 40 9100 190/06 RMK AO2 T01440011
93073KASE ASE20160728224510907/28/16 22:45:31  5-MIN KASE 290545Z AUTO 20007KT 10SM CLR 15/01 A3031 7480 37 9200 200/07 RMK AO2 T01500006
93073KASE ASE20160728225013407/28/16 22:50:31  5-MIN KASE 290550Z AUTO 21007KT 10SM CLR 15/01 A3031 7480 37 9200 200/07 RMK AO2 SLP120 T01500006 10294 20144 55003
93073KASE ASE20160728225510907/28/16 22:55:31  5-MIN KASE 290555Z AUTO 21008KT 10SM CLR 15/01 A3031 7480 37 9200 200/08 RMK AO2 T01500006
93073KASE ASE20160728230010907/28/16 23:00:31  5-MIN KASE 290600Z AUTO 21006KT 10SM CLR 15/01 A3031 7480 37 9200 200/06 RMK AO2 T01500006
93073KASE ASE20160728230510907/28/16 23:05:31  5-MIN KASE 290605Z AUTO 20005KT 10SM CLR 14/01 A3031 7480 40 9100 190/05 RMK AO2 T01440011
93073KASE ASE20160728231010907/28/16 23:10:31  5-MIN KASE 290610Z AUTO 20006KT 10SM CLR 14/01 A3032 7480 40 9100 190/06 RMK AO2 T01440011
93073KASE ASE20160728231510907/28/16 23:15:31  5-MIN KASE 290615Z AUTO 20007KT 10SM CLR 14/01 A3032 7480 38 9100 190/07 RMK AO2 T01440006
93073KASE ASE20160728232010907/28/16 23:20:31  5-MIN KASE 290620Z AUTO 20007KT 10SM CLR 14/01 A3032 7480 38 9100 200/07 RMK AO2 T01440006
93073KASE ASE20160728232510907/28/16 23:25:31  5-MIN KASE 290625Z AUTO 21008KT 10SM CLR 14/01 A3031 7480 38 9100 200/08 RMK AO2 T01440006
93073KASE ASE20160728233010907/28/16 23:30:31  5-MIN KASE 290630Z AUTO 21007KT 10SM CLR 14/01 A3031 7480 41 9100 200/07 RMK AO2 T01390011
93073KASE ASE20160728233510907/28/16 23:35:31  5-MIN KASE 290635Z AUTO 19006KT 10SM CLR 14/01 A3031 7480 40 9200 180/06 RMK AO2 T01440011
93073KASE ASE20160728234010907/28/16 23:40:31  5-MIN KASE 290640Z AUTO 21009KT 10SM CLR 13/01 A3031 7480 43 9000 200/09 RMK AO2 T01330011
93073KASE ASE20160728234510907/28/16 23:45:31  5-MIN KASE 290645Z AUTO 20007KT 10SM CLR 14/01 A3031 7480 41 9100 190/07 RMK AO2 T01390011
93073KASE ASE20160728235012607/28/16 23:50:31  5-MIN KASE 290650Z AUTO 21007KT 10SM CLR 14/01 A3031 7480 41 9100 200/07 RMK AO2 SLP119 T01390011 403170094
93073KASE ASE20160728235510907/28/16 23:55:31  5-MIN KASE 290655Z AUTO 19006KT 10SM CLR 14/01 A3031 7480 38 9100 180/06 RMK AO2 T01440006
93073KASE ASE20160729000010907/29/16 00:00:31  5-MIN KASE 290700Z AUTO 19005KT 10SM CLR 14/01 A3031 7480 41 9100 180/05 RMK AO2 T01390011
93073KASE ASE20160729000510907/29/16 00:05:31  5-MIN KASE 290705Z AUTO 21008KT 10SM CLR 13/01 A3031 7480 43 9000 200/08 RMK AO2 T01330011
93073KASE ASE20160729001010907/29/16 00:10:31  5-MIN KASE 290710Z AUTO 21007KT 10SM CLR 13/01 A3031 7480 43 9000 200/07 RMK AO2 T01330011
93073KASE ASE20160729001510907/29/16 00:15:31  5-MIN KASE 290715Z AUTO 21005KT 10SM CLR 14/01 A3032 7480 41 9100 200/05 RMK AO2 T01390011
93073KASE ASE20160729002010907/29/16 00:20:31  5-MIN KASE 290720Z AUTO 18003KT 10SM CLR 14/01 A3032 7480 38 9100 170/03 RMK AO2 T01440006
93073KASE ASE20160729002510907/29/16 00:25:31  5-MIN KASE 290725Z AUTO 19005KT 10SM CLR 14/01 A3031 7480 40 9100 180/05 RMK AO2 T01440011
93073KASE ASE20160729003010907/29/16 00:30:31  5-MIN KASE 290730Z AUTO 19005KT 10SM CLR 13/01 A3031 7480 44 9000 180/05 RMK AO2 T01280011
93073KASE ASE20160729003510907/29/16 00:35:31  5-MIN KASE 290735Z AUTO 19003KT 10SM CLR 13/01 A3031 7480 44 9000 180/03 RMK AO2 T01280011
93073KASE ASE20160729004010907/29/16 00:40:31  5-MIN KASE 290740Z AUTO 00000KT 10SM CLR 12/01 A3031 7480 46 8900 000/00 RMK AO2 T01220011
93073KASE ASE20160729004510907/29/16 00:45:31  5-MIN KASE 290745Z AUTO 21004KT 10SM CLR 12/02 A3031 7480 48 8900 200/04 RMK AO2 T01220017
93073KASE ASE20160729005011607/29/16 00:50:31  5-MIN KASE 290750Z AUTO 21007KT 10SM CLR 12/01 A3031 7480 46 8900 200/07 RMK AO2 SLP121 T01220011
93073KASE ASE20160729005510907/29/16 00:55:31  5-MIN KASE 290755Z AUTO 21009KT 10SM CLR 13/01 A3031 7480 43 9000 210/09 RMK AO2 T01330011
93073KASE ASE20160729010010907/29/16 01:00:31  5-MIN KASE 290800Z AUTO 22008KT 10SM CLR 13/01 A3031 7480 44 9000 210/08 RMK AO2 T01280011
93073KASE ASE20160729010510907/29/16 01:05:31  5-MIN KASE 290805Z AUTO 21007KT 10SM CLR 13/01 A3031 7490 41 9000 200/07 RMK AO2 T01330006
93073KASE ASE20160729011010907/29/16 01:10:31  5-MIN KASE 290810Z AUTO 20005KT 10SM CLR 13/01 A3030 7490 43 9000 190/05 RMK AO2 T01280006
93073KASE ASE20160729011510907/29/16 01:15:31  5-MIN KASE 290815Z AUTO 20005KT 10SM CLR 12/01 A3030 7490 46 8900 190/05 RMK AO2 T01220011
93073KASE ASE20160729012010907/29/16 01:20:31  5-MIN KASE 290820Z AUTO 00000KT 10SM CLR 12/01 A3030 7490 48 8800 000/00 RMK AO2 T01170011
93073KASE ASE20160729012510907/29/16 01:25:31  5-MIN KASE 290825Z AUTO 00000KT 10SM CLR 12/02 A3031 7490 50 8800 000/00 RMK AO2 T01170017
93073KASE ASE20160729013010907/29/16 01:30:31  5-MIN KASE 290830Z AUTO 00000KT 10SM CLR 11/02 A3030 7490 52 8800 000/00 RMK AO2 T01110017
93073KASE ASE20160729013510907/29/16 01:35:31  5-MIN KASE 290835Z AUTO 20003KT 10SM CLR 11/02 A3031 7490 54 8700 190/03 RMK AO2 T01060017
93073KASE ASE20160729014010907/29/16 01:40:31  5-MIN KASE 290840Z AUTO 20003KT 10SM CLR 10/02 A3031 7490 56 8700 200/03 RMK AO2 T01000017
93073KASE ASE20160729014510907/29/16 01:45:31  5-MIN KASE 290845Z AUTO 00000KT 10SM CLR 10/02 A3030 7490 56 8700 000/00 RMK AO2 T01000017
93073KASE ASE20160729015012207/29/16 01:50:31  5-MIN KASE 290850Z AUTO 00000KT 10SM CLR 11/02 A3031 7490 54 8700 000/00 RMK AO2 SLP128 T01060017 50008
93073KASE ASE20160729015510907/29/16 01:55:31  5-MIN KASE 290855Z AUTO 00000KT 10SM CLR 11/02 A3031 7480 54 8700 000/00 RMK AO2 T01060017
93073KASE ASE20160729020010907/29/16 02:00:31  5-MIN KASE 290900Z AUTO 21007KT 10SM CLR 11/02 A3031 7480 54 8700 200/07 RMK AO2 T01060017
93073KASE ASE20160729020510907/29/16 02:05:31  5-MIN KASE 290905Z AUTO 19005KT 10SM CLR 11/02 A3031 7480 54 8700 180/05 RMK AO2 T01060017
93073KASE ASE20160729021010907/29/16 02:10:31  5-MIN KASE 290910Z AUTO 17005KT 10SM CLR 12/01 A3031 7480 48 8800 160/05 RMK AO2 T01170011
93073KASE ASE20160729021510907/29/16 02:15:31  5-MIN KASE 290915Z AUTO 17005KT 10SM CLR 12/01 A3031 7480 46 8900 160/05 RMK AO2 T01220011
93073KASE ASE20160729022010907/29/16 02:20:31  5-MIN KASE 290920Z AUTO 16005KT 10SM CLR 12/01 A3031 7480 48 8800 150/05 RMK AO2 T01170011
93073KASE ASE20160729022510907/29/16 02:25:31  5-MIN KASE 290925Z AUTO 18004KT 10SM CLR 12/01 A3031 7480 48 8800 170/04 RMK AO2 T01170011
93073KASE ASE20160729023010907/29/16 02:30:31  5-MIN KASE 290930Z AUTO 19005KT 10SM CLR 12/01 A3031 7480 46 8900 180/05 RMK AO2 T01220011
93073KASE ASE20160729023510907/29/16 02:35:31  5-MIN KASE 290935Z AUTO 18005KT 10SM CLR 11/01 A3031 7480 50 8800 170/05 RMK AO2 T01110011
93073KASE ASE20160729024010907/29/16 02:40:31  5-MIN KASE 290940Z AUTO 16005KT 10SM CLR 12/01 A3031 7480 48 8800 150/05 RMK AO2 T01170011
93073KASE ASE20160729024510907/29/16 02:45:31  5-MIN KASE 290945Z AUTO 18005KT 10SM CLR 11/01 A3031 7480 52 8700 170/05 RMK AO2 T01060011
93073KASE ASE20160729025011607/29/16 02:50:31  5-MIN KASE 290950Z AUTO 19006KT 10SM CLR 10/01 A3031 7480 54 8700 180/06 RMK AO2 SLP129 T01000011
93073KASE ASE20160729025510907/29/16 02:55:31  5-MIN KASE 290955Z AUTO 19006KT 10SM CLR 10/02 A3031 7480 56 8700 180/06 RMK AO2 T01000017
93073KASE ASE20160729030010907/29/16 03:00:31  5-MIN KASE 291000Z AUTO 19006KT 10SM CLR 10/01 A3031 7480 54 8700 180/06 RMK AO2 T01000011
93073KASE ASE20160729030510907/29/16 03:05:31  5-MIN KASE 291005Z AUTO 19006KT 10SM CLR 11/01 A3031 7480 52 8700 180/06 RMK AO2 T01060011
93073KASE ASE20160729031010907/29/16 03:10:31  5-MIN KASE 291010Z AUTO 19006KT 10SM CLR 10/02 A3031 7480 56 8700 180/06 RMK AO2 T01000017
93073KASE ASE20160729031510907/29/16 03:15:31  5-MIN KASE 291015Z AUTO 19007KT 10SM CLR 09/02 A3031 7480 58 8600 180/07 RMK AO2 T00940017
93073KASE ASE20160729032010907/29/16 03:20:31  5-MIN KASE 291020Z AUTO 20007KT 10SM CLR 10/02 A3031 7480 56 8700 190/07 RMK AO2 T01000017
93073KASE ASE20160729032510907/29/16 03:25:31  5-MIN KASE 291025Z AUTO 19007KT 10SM CLR 11/01 A3031 7480 52 8700 180/07 RMK AO2 T01060011
93073KASE ASE20160729033010907/29/16 03:30:31  5-MIN KASE 291030Z AUTO 20005KT 10SM CLR 11/01 A3031 7480 50 8800 190/05 RMK AO2 T01110011
93073KASE ASE20160729033510907/29/16 03:35:31  5-MIN KASE 291035Z AUTO 20007KT 10SM CLR 11/01 A3031 7480 52 8700 190/07 RMK AO2 T01060011
93073KASE ASE20160729034010907/29/16 03:40:31  5-MIN KASE 291040Z AUTO 20007KT 10SM CLR 11/01 A3031 7480 52 8700 190/07 RMK AO2 T01060011
93073KASE ASE20160729034510907/29/16 03:45:31  5-MIN KASE 291045Z AUTO 20007KT 10SM CLR 10/01 A3031 7480 54 8700 200/07 RMK AO2 T01000011
93073KASE ASE20160729035011607/29/16 03:50:31  5-MIN KASE 291050Z AUTO 21008KT 10SM CLR 11/01 A3031 7480 52 8700 200/08 RMK AO2 SLP132 T01060011
93073KASE ASE20160729035510907/29/16 03:55:31  5-MIN KASE 291055Z AUTO 20007KT 10SM CLR 11/01 A3031 7480 52 8700 190/07 RMK AO2 T01060011
93073KASE ASE20160729040010907/29/16 04:00:31  5-MIN KASE 291100Z AUTO 19008KT 10SM CLR 10/02 A3031 7490 56 8700 180/08 RMK AO2 T01000017
93073KASE ASE20160729040510907/29/16 04:05:31  5-MIN KASE 291105Z AUTO 21007KT 10SM CLR 10/01 A3031 7480 54 8700 200/07 RMK AO2 T01000011
93073KASE ASE20160729041010907/29/16 04:10:31  5-MIN KASE 291110Z AUTO 20005KT 10SM CLR 11/01 A3031 7480 52 8700 190/05 RMK AO2 T01060011
93073KASE ASE20160729041510907/29/16 04:15:31  5-MIN KASE 291115Z AUTO 20005KT 10SM CLR 09/02 A3031 7480 58 8600 190/05 RMK AO2 T00940017
93073KASE ASE20160729042010907/29/16 04:20:31  5-MIN KASE 291120Z AUTO 21007KT 10SM CLR 10/01 A3031 7480 54 8700 200/07 RMK AO2 T01000011
93073KASE ASE20160729042510907/29/16 04:25:31  5-MIN KASE 291125Z AUTO 20005KT 10SM CLR 11/01 A3031 7480 52 8700 190/05 RMK AO2 T01060011
93073KASE ASE20160729043010907/29/16 04:30:31  5-MIN KASE 291130Z AUTO 21006KT 10SM CLR 10/01 A3031 7480 54 8700 210/06 RMK AO2 T01000011
93073KASE ASE20160729043510907/29/16 04:35:31  5-MIN KASE 291135Z AUTO VRB03KT 10SM CLR 10/01 A3031 7480 54 8600 VRB/03 RMK AO2 T01000011
93073KASE ASE20160729044010907/29/16 04:40:31  5-MIN KASE 291140Z AUTO 00000KT 10SM CLR 10/01 A3032 7470 54 8600 000/00 RMK AO2 T01000011
93073KASE ASE20160729044510907/29/16 04:45:31  5-MIN KASE 291145Z AUTO 00000KT 10SM CLR 10/01 A3032 7470 54 8600 000/00 RMK AO2 T01000011
93073KASE ASE20160729045013407/29/16 04:50:31  5-MIN KASE 291150Z AUTO 21004KT 10SM CLR 09/01 A3032 7470 58 8500 200/04 RMK AO2 SLP140 T00890011 10150 20089 57002
93073KASE ASE20160729045510907/29/16 04:55:31  5-MIN KASE 291155Z AUTO 22007KT 10SM CLR 08/02 A3032 7470 65 8400 210/07 RMK AO2 T00780017
93073KASE ASE20160729050010907/29/16 05:00:31  5-MIN KASE 291200Z AUTO 19004KT 10SM CLR 09/01 A3033 7470 58 8500 180/04 RMK AO2 T00890011
93073KASE ASE20160729050510907/29/16 05:05:31  5-MIN KASE 291205Z AUTO 18003KT 10SM CLR 09/02 A3033 7460 58 8600 170/03 RMK AO2 T00940017
93073KASE ASE20160729051010907/29/16 05:10:31  5-MIN KASE 291210Z AUTO 20003KT 10SM CLR 10/01 A3033 7460 54 8600 190/03 RMK AO2 T01000011
93073KASE ASE20160729051510907/29/16 05:15:31  5-MIN KASE 291215Z AUTO 19003KT 10SM CLR 09/02 A3033 7460 58 8600 180/03 RMK AO2 T00940017
93073KASE ASE20160729052010907/29/16 05:20:31  5-MIN KASE 291220Z AUTO 20004KT 10SM CLR 09/02 A3034 7460 60 8500 190/04 RMK AO2 T00890017
93073KASE ASE20160729052510907/29/16 05:25:31  5-MIN KASE 291225Z AUTO 21005KT 10SM CLR 09/02 A3034 7460 60 8500 200/05 RMK AO2 T00890017
93073KASE ASE20160729053010907/29/16 05:30:31  5-MIN KASE 291230Z AUTO 21007KT 10SM CLR 10/01 A3034 7460 54 8600 200/07 RMK AO2 T01000011
93073KASE ASE20160729053510907/29/16 05:35:31  5-MIN KASE 291235Z AUTO 21007KT 10SM CLR 10/01 A3034 7450 54 8600 200/07 RMK AO2 T01000011
93073KASE ASE20160729054010907/29/16 05:40:31  5-MIN KASE 291240Z AUTO 19007KT 10SM CLR 10/01 A3034 7450 54 8600 180/07 RMK AO2 T01000011
93073KASE ASE20160729054510907/29/16 05:45:31  5-MIN KASE 291245Z AUTO 19007KT 10SM CLR 09/02 A3034 7450 58 8600 180/07 RMK AO2 T00940017
93073KASE ASE20160729055011107/29/16 05:50:31  5-MIN KASE 291250Z 17007KT 10SM CLR 10/01 A3035 7450 54 8600 160/07 RMK AO2 SLP145 T01000011
93073KASE ASE20160729055510407/29/16 05:55:31  5-MIN KASE 291255Z 19007KT 10SM CLR 10/02 A3035 7450 56 8600 180/07 RMK AO2 T01000017
93073KASE ASE20160729060010407/29/16 06:00:31  5-MIN KASE 291300Z 18007KT 10SM CLR 10/02 A3035 7450 58 8600 170/07 RMK AO2 T01000022
93073KASE ASE20160729060510407/29/16 06:05:31  5-MIN KASE 291305Z 19007KT 10SM CLR 11/03 A3035 7450 58 8700 180/07 RMK AO2 T01060028
93073KASE ASE20160729061010407/29/16 06:10:31  5-MIN KASE 291310Z 18005KT 10SM CLR 12/02 A3035 7450 52 8800 170/05 RMK AO2 T01170022
93073KASE ASE20160729061510407/29/16 06:15:31  5-MIN KASE 291315Z 16004KT 10SM CLR 13/02 A3035 7450 48 8900 160/04 RMK AO2 T01280022
93073KASE ASE20160729062010407/29/16 06:20:31  5-MIN KASE 291320Z 15003KT 10SM CLR 12/03 A3035 7450 52 8900 140/03 RMK AO2 T01220028
93073KASE ASE20160729062510407/29/16 06:25:31  5-MIN KASE 291325Z 18004KT 10SM CLR 13/03 A3035 7450 50 8900 170/04 RMK AO2 T01280028
93073KASE ASE20160729063010407/29/16 06:30:31  5-MIN KASE 291330Z 18004KT 10SM CLR 13/02 A3035 7450 46 9000 180/04 RMK AO2 T01330022
93073KASE ASE20160729063510407/29/16 06:35:31  5-MIN KASE 291335Z 19004KT 10SM CLR 14/02 A3035 7450 45 9000 180/04 RMK AO2 T01390022
93073KASE ASE20160729064010407/29/16 06:40:31  5-MIN KASE 291340Z 13004KT 10SM CLR 14/02 A3035 7450 41 9100 120/04 RMK AO2 T01440017
93073KASE ASE20160729064510407/29/16 06:45:31  5-MIN KASE 291345Z 13004KT 10SM CLR 14/02 A3035 7450 41 9100 120/04 RMK AO2 T01440017
93073KASE ASE20160729065011107/29/16 06:50:31  5-MIN KASE 291350Z 15004KT 10SM CLR 14/02 A3035 7450 41 9100 140/04 RMK AO2 SLP150 T01440017
93073KASE ASE20160729065510407/29/16 06:55:31  5-MIN KASE 291355Z 15004KT 10SM CLR 15/01 A3035 7450 38 9200 140/04 RMK AO2 T01500011
93073KASE ASE20160729070010407/29/16 07:00:31  5-MIN KASE 291400Z 15005KT 10SM CLR 15/02 A3035 7450 40 9200 140/05 RMK AO2 T01500017
93073KASE ASE20160729070510407/29/16 07:05:31  5-MIN KASE 291405Z 17004KT 10SM CLR 16/01 A3035 7450 37 9200 160/04 RMK AO2 T01560011
93073KASE ASE20160729071010407/29/16 07:10:31  5-MIN KASE 291410Z 17003KT 10SM CLR 16/02 A3035 7450 39 9200 160/03 RMK AO2 T01560017
93073KASE ASE20160729071510407/29/16 07:15:31  5-MIN KASE 291415Z 15004KT 10SM CLR 16/02 A3035 7450 37 9300 140/04 RMK AO2 T01610017
93073KASE ASE20160729072010407/29/16 07:20:31  5-MIN KASE 291420Z 00000KT 10SM CLR 16/02 A3035 7450 37 9300 000/00 RMK AO2 T01610017
93073KASE ASE20160729072510407/29/16 07:25:31  5-MIN KASE 291425Z 16004KT 10SM CLR 17/02 A3034 7450 36 9400 150/04 RMK AO2 T01670017
93073KASE ASE20160729073010407/29/16 07:30:31  5-MIN KASE 291430Z 10004KT 10SM CLR 17/02 A3034 7450 36 9400 090/04 RMK AO2 T01670017
93073KASE ASE20160729073510407/29/16 07:35:31  5-MIN KASE 291435Z 11004KT 10SM CLR 17/02 A3035 7450 36 9400 100/04 RMK AO2 T01720022
93073KASE ASE20160729074010407/29/16 07:40:31  5-MIN KASE 291440Z 11004KT 10SM CLR 18/02 A3034 7450 35 9500 100/04 RMK AO2 T01780022
93073KASE ASE20160729074510407/29/16 07:45:31  5-MIN KASE 291445Z 12005KT 10SM CLR 18/02 A3035 7450 35 9500 110/05 RMK AO2 T01780022
93073KASE ASE20160729075011707/29/16 07:50:31  5-MIN KASE 291450Z 14004KT 10SM CLR 18/02 A3034 7450 32 9500 130/04 RMK AO2 SLP151 T01830017 53004
93073KASE ASE20160729075510407/29/16 07:55:31  5-MIN KASE 291455Z VRB03KT 10SM CLR 18/02 A3034 7450 34 9500 VRB/03 RMK AO2 T01830022
93073KASE ASE20160729080010407/29/16 08:00:31  5-MIN KASE 291500Z 00000KT 10SM CLR 19/02 A3034 7450 32 9600 000/00 RMK AO2 T01890022
93073KASE ASE20160729080510407/29/16 08:05:31  5-MIN KASE 291505Z 00000KT 10SM CLR 19/02 A3034 7450 32 9600 000/00 RMK AO2 T01890022
93073KASE ASE20160729081010407/29/16 08:10:31  5-MIN KASE 291510Z 18003KT 10SM CLR 19/02 A3034 7450 32 9600 170/03 RMK AO2 T01890022
93073KASE ASE20160729081510407/29/16 08:15:31  5-MIN KASE 291515Z 00000KT 10SM CLR 19/03 A3034 7450 33 9700 000/00 RMK AO2 T01940028
93073KASE ASE20160729082010407/29/16 08:20:31  5-MIN KASE 291520Z 00000KT 10SM CLR 19/02 A3034 7450 31 9700 000/00 RMK AO2 T01940022
93073KASE ASE20160729082510407/29/16 08:25:31  5-MIN KASE 291525Z 00000KT 10SM CLR 21/03 A3034 7450 30 9800 000/00 RMK AO2 T02060028
93073KASE ASE20160729083010407/29/16 08:30:31  5-MIN KASE 291530Z VRB03KT 10SM CLR 21/04 A3034 7450 32 9900 VRB/03 RMK AO2 T02110039
93073KASE ASE20160729083510407/29/16 08:35:31  5-MIN KASE 291535Z VRB03KT 10SM CLR 21/03 A3034 7460 30 9900 VRB/03 RMK AO2 T02110033
93073KASE ASE20160729084010407/29/16 08:40:31  5-MIN KASE 291540Z 01003KT 10SM CLR 22/03 A3034 7460 28 9900 360/03 RMK AO2 T02170028
93073KASE ASE20160729084510407/29/16 08:45:31  5-MIN KASE 291545Z 00000KT 10SM CLR 22/02 A3034 7460 27 9900 000/00 RMK AO2 T02170022
93073KASE ASE20160729085011207/29/16 08:50:31  5-MIN KASE 291550Z VRB03KT 10SM CLR 22/03 A3034 7460 27 10000 VRB/03 RMK AO2 SLP139 T02220028
93073KASE ASE20160729085510507/29/16 08:55:31  5-MIN KASE 291555Z 00000KT 10SM CLR 22/01 A3034 7460 24 10000 000/00 RMK AO2 T02220011
93073KASE ASE20160729090010507/29/16 09:00:31  5-MIN KASE 291600Z 05003KT 10SM CLR 23/00 A3033 7460 21 10100 040/03 RMK AO2 T02330000
93073KASE ASE20160729090510507/29/16 09:05:31  5-MIN KASE 291605Z 36004KT 10SM CLR 23/01 A3033 7460 22 10100 350/04 RMK AO2 T02330006
93073KASE ASE20160729091010607/29/16 09:10:31  5-MIN KASE 291610Z 01004KT 10SM CLR 24/M01 A3033 7460 19 10200 360/04 RMK AO2 T02391011
93073KASE ASE20160729091510607/29/16 09:15:31  5-MIN KASE 291615Z 05004KT 10SM CLR 24/M02 A3033 7460 17 10200 040/04 RMK AO2 T02441017
93073KASE ASE20160729092010607/29/16 09:20:31  5-MIN KASE 291620Z 05004KT 10SM CLR 24/M01 A3034 7460 18 10200 040/04 RMK AO2 T02441011
93073KASE ASE20160729092510607/29/16 09:25:31  5-MIN KASE 291625Z 04006KT 10SM CLR 25/M01 A3033 7460 18 10300 030/06 RMK AO2 T02501006
93073KASE ASE20160729093010507/29/16 09:30:31  5-MIN KASE 291630Z VRB04KT 10SM CLR 25/00 A3034 7460 19 10300 VRB/04 RMK AO2 T02500000
93073KASE ASE20160729093510507/29/16 09:35:31  5-MIN KASE 291635Z 36007KT 10SM CLR 26/00 A3033 7460 18 10300 350/07 RMK AO2 T02560000
93073KASE ASE20160729094010507/29/16 09:40:31  5-MIN KASE 291640Z VRB06KT 10SM CLR 26/00 A3033 7460 18 10300 VRB/06 RMK AO2 T02560000
93073KASE ASE20160729094510507/29/16 09:45:31  5-MIN KASE 291645Z 34006KT 10SM CLR 26/01 A3033 7460 18 10400 330/06 RMK AO2 T02610006
93073KASE ASE20160729095011207/29/16 09:50:31  5-MIN KASE 291650Z 04007KT 10SM CLR 26/00 A3034 7460 18 10400 030/07 RMK AO2 SLP128 T02610000
93073KASE ASE20160729095510507/29/16 09:55:31  5-MIN KASE 291655Z 36008KT 10SM CLR 26/00 A3033 7460 18 10400 350/08 RMK AO2 T02610000
93073KASE ASE20160729100010607/29/16 10:00:31  5-MIN KASE 291700Z VRB03KT 10SM CLR 26/M01 A3033 7460 17 10400 VRB/03 RMK AO2 T02611006
93073KASE ASE20160729100512207/29/16 10:05:31  5-MIN KASE 291705Z 33009KT 290V360 10SM CLR 27/M01 A3033 7460 16 10500 320/09 280V350 RMK AO2 T02671011
93073KASE ASE20160729101010607/29/16 10:10:31  5-MIN KASE 291710Z 36009KT 10SM CLR 26/M02 A3033 7460 16 10300 350/09 RMK AO2 T02561017
93073KASE ASE20160729101511207/29/16 10:15:31  5-MIN KASE 291715Z 01008G15KT 10SM CLR 27/M02 A3033 7460 14 10500 360/08G15 RMK AO2 T02671022
93073KASE ASE20160729102011207/29/16 10:20:31  5-MIN KASE 291720Z 36006G15KT 10SM CLR 27/M03 A3033 7460 14 10500 350/06G15 RMK AO2 T02671028
93073KASE ASE20160729102511207/29/16 10:25:31  5-MIN KASE 291725Z 32014G21KT 10SM CLR 27/M03 A3033 7460 14 10500 310/14G21 RMK AO2 T02671028
93073KASE ASE20160729103009607/29/16 10:30:31  5-MIN KASE 291730Z 10SM CLR 27/M03 A3033 7460 13 10500 M /M RMK AO2 T02671033
93073KASE ASE20160729103512207/29/16 10:35:31  5-MIN KASE 291735Z 31008KT 250V350 10SM CLR 27/M03 A3033 7460 13 10500 300/08 240V340 RMK AO2 T02671033
93073KASE ASE20160729104012207/29/16 10:40:31  5-MIN KASE 291740Z 36007KT 320V030 10SM CLR 27/M03 A3033 7460 14 10500 350/07 310V020 RMK AO2 T02671028
93073KASE ASE20160729104511207/29/16 10:45:31  5-MIN KASE 291745Z 33011G14KT 10SM CLR 27/M02 A3033 7460 14 10500 320/11G14 RMK AO2 T02721022
93073KASE ASE20160729105013707/29/16 10:50:31  5-MIN KASE 291750Z VRB04G16KT 10SM CLR 27/M03 A3033 7460 13 10500 VRB/04G16 RMK AO2 SLP129 T02671033 10272 20078 50005
93073KASE ASE20160729105511207/29/16 10:55:31  5-MIN KASE 291755Z 34011G16KT 10SM CLR 27/M02 A3033 7470 14 10500 330/11G16 RMK AO2 T02721022
93073KASE ASE20160729110011207/29/16 11:00:31  5-MIN KASE 291800Z VRB05G15KT 10SM CLR 27/M03 A3032 7470 13 10500 VRB/05G15 RMK AO2 T02721028
93073KASE ASE20160729110511207/29/16 11:05:31  5-MIN KASE 291805Z 34013G18KT 10SM CLR 27/M03 A3032 7470 13 10500 330/13G18 RMK AO2 T02721028
93073KASE ASE20160729111011207/29/16 11:10:31  5-MIN KASE 291810Z 36006G18KT 10SM CLR 27/M02 A3032 7470 14 10500 350/06G18 RMK AO2 T02721022
93073KASE ASE20160729111511207/29/16 11:15:31  5-MIN KASE 291815Z 34011G16KT 10SM CLR 28/M02 A3032 7470 13 10600 330/11G16 RMK AO2 T02781022
93073KASE ASE20160729112011207/29/16 11:20:31  5-MIN KASE 291820Z VRB06G16KT 10SM CLR 27/M03 A3032 7470 13 10500 VRB/06G16 RMK AO2 T02721028
93073KASE ASE20160729112511207/29/16 11:25:31  5-MIN KASE 291825Z 34007G15KT 10SM CLR 27/M02 A3032 7470 14 10500 330/07G15 RMK AO2 T02721022
93073KASE ASE20160729113012807/29/16 11:30:31  5-MIN KASE 291830Z 31007G16KT 230V010 10SM CLR 28/M03 A3032 7470 13 10600 300/07G16 220V360 RMK AO2 T02781028
93073KASE ASE20160729113512807/29/16 11:35:31  5-MIN KASE 291835Z 29009G16KT 250V360 10SM CLR 27/M03 A3032 7470 13 10500 280/09G16 240V350 RMK AO2 T02721033
93073KASE ASE20160729114012807/29/16 11:40:31  5-MIN KASE 291840Z 27008G15KT 240V310 10SM CLR 28/M03 A3032 7470 13 10600 260/08G15 230V300 RMK AO2 T02781028
93073KASE ASE20160729114512807/29/16 11:45:31  5-MIN KASE 291845Z 25011G15KT 240V300 10SM CLR 28/M03 A3032 7470 13 10600 240/11G15 230V290 RMK AO2 T02781028
93073KASE ASE20160729115011907/29/16 11:50:31  5-MIN KASE 291850Z 33010G18KT 10SM CLR 28/M03 A3032 7480 13 10600 320/10G18 RMK AO2 SLP125 T02831028
93073KASE ASE20160729115511207/29/16 11:55:31  5-MIN KASE 291855Z 34011G18KT 10SM CLR 28/M03 A3031 7480 12 10600 330/11G18 RMK AO2 T02781033
93073KASE ASE20160729120011207/29/16 12:00:31  5-MIN KASE 291900Z 31009G15KT 10SM CLR 28/M03 A3032 7480 13 10600 300/09G15 RMK AO2 T02831028
93073KASE ASE20160729120512807/29/16 12:05:31  5-MIN KASE 291905Z 28010G19KT 250V310 10SM CLR 28/M03 A3032 7480 13 10600 270/10G19 240V300 RMK AO2 T02781028
93073KASE ASE20160729121009607/29/16 12:10:31  5-MIN KASE 291910Z 10SM CLR 28/M03 A3032 7480 13 10600 M /M RMK AO2 T02781028
93073KASE ASE20160729121512807/29/16 12:15:31  5-MIN KASE 291915Z 30008G19KT 270V020 10SM CLR 28/M03 A3032 7480 13 10600 290/08G19 260V010 RMK AO2 T02831028
93073KASE ASE20160729122011207/29/16 12:20:31  5-MIN KASE 291920Z 31011G19KT 10SM CLR 28/M02 A3031 7480 13 10600 300/11G19 RMK AO2 T02781022
93073KASE ASE20160729122512807/29/16 12:25:31  5-MIN KASE 291925Z 31007G18KT 200V050 10SM CLR 28/M03 A3031 7480 13 10600 300/07G18 190V040 RMK AO2 T02781028
93073KASE ASE20160729123011207/29/16 12:30:31  5-MIN KASE 291930Z VRB05G18KT 10SM CLR 28/M02 A3031 7480 13 10700 VRB/05G18 RMK AO2 T02831022
93073KASE ASE20160729123511207/29/16 12:35:31  5-MIN KASE 291935Z VRB06G16KT 10SM CLR 28/M02 A3031 7480 13 10700 VRB/06G16 RMK AO2 T02831022
93073KASE ASE20160729124011207/29/16 12:40:31  5-MIN KASE 291940Z VRB05G16KT 10SM CLR 28/M02 A3031 7490 13 10700 VRB/05G16 RMK AO2 T02831022
93073KASE ASE20160729124510607/29/16 12:45:31  5-MIN KASE 291945Z VRB06KT 10SM CLR 29/M02 A3031 7480 13 10700 VRB/06 RMK AO2 T02891017
93073KASE ASE20160729125011907/29/16 12:50:31  5-MIN KASE 291950Z 31008G18KT 10SM CLR 29/M02 A3031 7490 13 10700 300/08G18 RMK AO2 SLP123 T02891022
93073KASE ASE20160729125509607/29/16 12:55:31  5-MIN KASE 291955Z 10SM CLR 29/M02 A3030 7490 13 10700 M /M RMK AO2 T02891022
93073KASE ASE20160729130010607/29/16 13:00:31  5-MIN KASE 292000Z 33007KT 10SM CLR 28/M02 A3030 7490 13 10700 320/07 RMK AO2 T02831022
93073KASE ASE20160729130509607/29/16 13:05:31  5-MIN KASE 292005Z 10SM CLR 29/M02 A3030 7490 13 10700 M /M RMK AO2 T02891017
93073KASE ASE20160729131011207/29/16 13:10:31  5-MIN KASE 292010Z 01011G18KT 10SM CLR 29/M02 A3030 7500 13 10700 360/11G18 RMK AO2 T02891017
93073KASE ASE20160729131511207/29/16 13:15:31  5-MIN KASE 292015Z VRB06G18KT 10SM CLR 29/M02 A3030 7500 13 10700 VRB/06G18 RMK AO2 T02891017
93073KASE ASE20160729132011207/29/16 13:20:31  5-MIN KASE 292020Z 36012G19KT 10SM CLR 29/M02 A3029 7500 13 10800 350/12G19 RMK AO2 T02941017
93073KASE ASE20160729132511207/29/16 13:25:31  5-MIN KASE 292025Z 32008G19KT 10SM CLR 29/M02 A3029 7500 13 10800 310/08G19 RMK AO2 T02941017
93073KASE ASE20160729133011207/29/16 13:30:31  5-MIN KASE 292030Z 31006G16KT 10SM CLR 29/M01 A3029 7500 14 10700 300/06G16 RMK AO2 T02891011
93073KASE ASE20160729133510607/29/16 13:35:31  5-MIN KASE 292035Z 01011KT 10SM CLR 29/M02 A3028 7510 13 10800 360/11 RMK AO2 T02941017
93073KASE ASE20160729134010607/29/16 13:40:31  5-MIN KASE 292040Z 34010KT 10SM CLR 30/M01 A3028 7510 13 10900 330/10 RMK AO2 T03001011
93073KASE ASE20160729134512807/29/16 13:45:31  5-MIN KASE 292045Z 31007G17KT 250V350 10SM CLR 29/M01 A3028 7510 13 10800 310/07G17 240V340 RMK AO2 T02941011
93073KASE ASE20160729135012507/29/16 13:50:31  5-MIN KASE 292050Z 27009G17KT 10SM CLR 29/M01 A3028 7510 14 10700 260/09G17 RMK AO2 SLP116 T02891011 56005
93073KASE ASE20160729135509907/29/16 13:55:31  5-MIN KASE 292055Z 10SM FEW120 28/M01 A3028 7510 14 10700 M /M RMK AO2 T02831011
93073KASE ASE20160729140009907/29/16 14:00:31  5-MIN KASE 292100Z 10SM FEW120 28/M01 A3028 7510 15 10600 M /M RMK AO2 T02781011
93073KASE ASE20160729140510907/29/16 14:05:31  5-MIN KASE 292105Z 36005KT 10SM SCT110 29/M02 A3027 7520 13 10800 350/05 RMK AO2 T02891017
93073KASE ASE20160729141010907/29/16 14:10:31  5-MIN KASE 292110Z 33007KT 10SM SCT110 29/M01 A3027 7520 14 10800 320/07 RMK AO2 T02891011
93073KASE ASE20160729141510907/29/16 14:15:31  5-MIN KASE 292115Z 34005KT 10SM BKN110 28/M01 A3027 7520 14 10700 330/05 RMK AO2 T02831011
93073KASE ASE20160729142013107/29/16 14:20:31  5-MIN KASE 292120Z 30009G15KT 260V340 10SM BKN110 29/M01 A3027 7520 14 10800 290/09G15 250V330 RMK AO2 T02891011
93073KASE ASE20160729142511507/29/16 14:25:31  5-MIN KASE 292125Z 35012G19KT 10SM BKN110 29/M01 A3026 7520 14 10800 340/12G19 RMK AO2 T02941006
93073KASE ASE20160729143011507/29/16 14:30:31  5-MIN KASE 292130Z 33014G21KT 10SM BKN110 29/M01 A3027 7520 14 10800 320/14G21 RMK AO2 T02891011
93073KASE ASE20160729143511507/29/16 14:35:31  5-MIN KASE 292135Z 34012G21KT 10SM SCT110 30/M01 A3026 7520 13 10900 330/12G21 RMK AO2 T03001006
93073KASE ASE20160729144011507/29/16 14:40:31  5-MIN KASE 292140Z 35010G20KT 10SM SCT110 29/M01 A3026 7520 13 10800 340/10G20 RMK AO2 T02941011
93073KASE ASE20160729144511507/29/16 14:45:31  5-MIN KASE 292145Z 34017G24KT 10SM FEW110 30/M01 A3026 7530 13 10900 330/17G24 RMK AO2 T03001011
93073KASE ASE20160729145012207/29/16 14:50:31  5-MIN KASE 292150Z 32014G24KT 10SM FEW120 28/M03 A3026 7530 12 10700 310/14G24 RMK AO2 SLP113 T02831033
93073KASE ASE20160729145511507/29/16 14:55:31  5-MIN KASE 292155Z 32013G23KT 10SM FEW110 28/M02 A3026 7530 13 10600 310/13G23 RMK AO2 T02781022
93073KASE ASE20160729150011507/29/16 15:00:31  5-MIN KASE 292200Z 33008G22KT 10SM FEW110 28/M01 A3026 7530 15 10600 320/08G22 RMK AO2 T02781011
93073KASE ASE20160729150510907/29/16 15:05:31  5-MIN KASE 292205Z 36010KT 10SM FEW110 28/M01 A3026 7530 14 10700 350/10 RMK AO2 T02831011
93073KASE ASE20160729151011507/29/16 15:10:31  5-MIN KASE 292210Z VRB05G14KT 10SM FEW110 28/M02 A3025 7530 14 10700 VRB/05G14 RMK AO2 T02831017
93073KASE ASE20160729151510907/29/16 15:15:31  5-MIN KASE 292215Z 34008KT 10SM FEW120 29/M01 A3025 7540 14 10800 340/08 RMK AO2 T02891011
93073KASE ASE20160729152010907/29/16 15:20:31  5-MIN KASE 292220Z VRB05KT 10SM FEW120 28/M02 A3025 7540 14 10700 VRB/05 RMK AO2 T02831017
93073KASE ASE20160729152511407/29/16 15:25:31  5-MIN KASE 292225Z 34011G17KT 10SM FEW110 29/00 A3025 7540 14 10800 330/11G17 RMK AO2 T02940000
93073KASE ASE20160729153011507/29/16 15:30:31  5-MIN KASE 292230Z 34013G19KT 10SM FEW120 29/M01 A3025 7540 14 10800 330/13G19 RMK AO2 T02941006
93073KASE ASE20160729153511507/29/16 15:35:31  5-MIN KASE 292235Z 03014G19KT 10SM FEW120 28/M01 A3024 7550 15 10700 030/14G19 RMK AO2 T02831006
93073KASE ASE20160729154011407/29/16 15:40:31  5-MIN KASE 292240Z 02012G19KT 10SM FEW120 28/00 A3024 7550 15 10700 010/12G19 RMK AO2 T02830000
93073KASE ASE20160729154512607/29/16 15:45:31  5-MIN KASE 292245Z 02006G19KT 10SM FEW120 28/M01 A3024 7550 15 10700 010/06G19 RMK AO2 WSHFT 2227 T02831006
93073KASE ASE20160729155012607/29/16 15:50:31  5-MIN KASE 292250Z 02005KT 10SM FEW120 29/00 A3024 7550 14 10900 010/05 RMK AO2 WSHFT 2227 SLP101 T02940000
93073KASE ASE20160729155510507/29/16 15:55:31  5-MIN KASE 292255Z VRB05KT 10SM CLR 29/00 A3023 7550 14 10900 VRB/05 RMK AO2 T02940000
93073KASE ASE20160729160010607/29/16 16:00:31  5-MIN KASE 292300Z 35008KT 10SM CLR 30/M01 A3023 7550 13 10900 340/08 RMK AO2 T03001006
93073KASE ASE20160729160511507/29/16 16:05:31  5-MIN KASE 292305Z 34012G20KT 10SM FEW120 30/M02 A3023 7560 12 10900 340/12G20 RMK AO2 T03001017
93073KASE ASE20160729161011507/29/16 16:10:31  5-MIN KASE 292310Z VRB06G20KT 10SM FEW120 29/M02 A3023 7560 13 10900 VRB/06G20 RMK AO2 T02941017
93073KASE ASE20160729161513107/29/16 16:15:31  5-MIN KASE 292315Z 25010G19KT 230V300 10SM FEW120 29/M03 A3023 7560 12 10800 240/10G19 220V290 RMK AO2 T02891028
93073KASE ASE20160729162013107/29/16 16:20:31  5-MIN KASE 292320Z 27009G20KT 240V320 10SM FEW120 29/M02 A3022 7560 13 10900 260/09G20 230V310 RMK AO2 T02941017
93073KASE ASE20160729162513107/29/16 16:25:31  5-MIN KASE 292325Z 30010G20KT 260V340 10SM FEW120 29/M02 A3023 7560 13 10900 290/10G20 250V330 RMK AO2 T02941017
93073KASE ASE20160729163011507/29/16 16:30:31  5-MIN KASE 292330Z VRB06G19KT 10SM FEW120 29/M02 A3023 7560 12 10900 VRB/06G19 RMK AO2 T02941022
93073KASE ASE20160729163513107/29/16 16:35:31  5-MIN KASE 292335Z 29008G19KT 250V360 10SM FEW120 29/M02 A3023 7560 13 10900 280/08G19 240V350 RMK AO2 T02941017
93073KASE ASE20160729164009607/29/16 16:40:31  5-MIN KASE 292340Z 10SM CLR 29/M02 A3023 7560 13 10800 M /M RMK AO2 T02891017
93073KASE ASE20160729164512807/29/16 16:45:31  5-MIN KASE 292345Z 27009G16KT 220V310 10SM CLR 29/M02 A3023 7560 13 10800 260/09G16 210V300 RMK AO2 T02891017
93073KASE ASE20160729165013707/29/16 16:50:31  5-MIN KASE 292350Z 26005G16KT 10SM CLR 29/M02 A3023 7560 13 10800 250/05G16 RMK AO2 SLP104 T02891017 10300 20267 58013
93073KASE ASE20160729165511207/29/16 16:55:31  5-MIN KASE 292355Z 26010G15KT 10SM CLR 29/M02 A3023 7560 13 10800 250/10G15 RMK AO2 T02891017
93073KASE ASE20160729170010607/29/16 17:00:31  5-MIN KASE 300000Z VRB05KT 10SM CLR 29/M01 A3022 7560 14 10800 VRB/05 RMK AO2 T02891011
93073KASE ASE20160729170512807/29/16 17:05:31  5-MIN KASE 300005Z 26009G17KT 240V310 10SM CLR 29/M01 A3022 7570 14 10800 260/09G17 230V300 RMK AO2 T02891011
93073KASE ASE20160729171011207/29/16 17:10:31  5-MIN KASE 300010Z VRB04G17KT 10SM CLR 29/M01 A3022 7560 14 10800 VRB/04G17 RMK AO2 T02891011
93073KASE ASE20160729171512807/29/16 17:15:31  5-MIN KASE 300015Z 30009G16KT 270V330 10SM CLR 28/M01 A3022 7560 14 10800 290/09G16 260V320 RMK AO2 T02831011
93073KASE ASE20160729172011207/29/16 17:20:31  5-MIN KASE 300020Z 29007G16KT 10SM CLR 29/M02 A3022 7570 13 10800 290/07G16 RMK AO2 T02891017
93073KASE ASE20160729172512207/29/16 17:25:31  5-MIN KASE 300025Z 29009KT 240V310 10SM CLR 28/M01 A3022 7570 14 10800 280/09 230V300 RMK AO2 T02831011
93073KASE ASE20160729173010607/29/16 17:30:31  5-MIN KASE 300030Z 28009KT 10SM CLR 28/M01 A3022 7570 15 10700 270/09 RMK AO2 T02781006
93073KASE ASE20160729173510607/29/16 17:35:31  5-MIN KASE 300035Z 29009KT 10SM CLR 27/M01 A3022 7570 16 10600 280/09 RMK AO2 T02721006
93073KASE ASE20160729174010607/29/16 17:40:31  5-MIN KASE 300040Z VRB05KT 10SM CLR 27/M01 A3021 7570 16 10600 VRB/05 RMK AO2 T02721006
93073KASE ASE20160729174510607/29/16 17:45:31  5-MIN KASE 300045Z 29005KT 10SM CLR 28/M01 A3021 7570 15 10700 280/05 RMK AO2 T02781006
93073KASE ASE20160729175011507/29/16 17:50:31  5-MIN KASE 300050Z 28004KT 10SM FEW110 28/00 A3021 7570 16 10700 270/04 RMK AO2 SLP098 T02780000
93073KASE ASE20160729175510807/29/16 17:55:31  5-MIN KASE 300055Z 25006KT 10SM FEW110 28/00 A3021 7570 16 10700 250/06 RMK AO2 T02780000
93073KASE ASE20160729180010507/29/16 18:00:31  5-MIN KASE 300100Z 27005KT 10SM CLR 27/00 A3021 7570 16 10600 260/05 RMK AO2 T02720000
93073KASE ASE20160729180510507/29/16 18:05:31  5-MIN KASE 300105Z 25004KT 10SM CLR 27/00 A3022 7570 17 10600 240/04 RMK AO2 T02670000
93073KASE ASE20160729181012107/29/16 18:10:31  5-MIN KASE 300110Z 27007KT 240V300 10SM CLR 26/01 A3022 7570 18 10500 260/07 230V290 RMK AO2 T02610006
93073KASE ASE20160729181510607/29/16 18:15:31  5-MIN KASE 300115Z 26005KT 10SM CLR 27/M01 A3021 7570 16 10600 250/05 RMK AO2 T02671006
93073KASE ASE20160729182010607/29/16 18:20:31  5-MIN KASE 300120Z 27006KT 10SM CLR 27/M01 A3022 7570 16 10600 260/06 RMK AO2 T02671006
93073KASE ASE20160729182510607/29/16 18:25:31  5-MIN KASE 300125Z VRB03KT 10SM CLR 27/M01 A3022 7570 16 10600 VRB/03 RMK AO2 T02671006
93073KASE ASE20160729183010507/29/16 18:30:31  5-MIN KASE 300130Z 28005KT 10SM CLR 26/00 A3021 7570 18 10500 270/05 RMK AO2 T02610000
93073KASE ASE20160729183510607/29/16 18:35:31  5-MIN KASE 300135Z VRB06KT 10SM CLR 26/M01 A3022 7570 17 10500 VRB/06 RMK AO2 T02611006
93073KASE ASE20160729184010507/29/16 18:40:31  5-MIN KASE 300140Z 27004KT 10SM CLR 26/00 A3021 7570 18 10500 260/04 RMK AO2 T02610000
93073KASE ASE20160729184510507/29/16 18:45:31  5-MIN KASE 300145Z 27005KT 10SM CLR 26/01 A3022 7570 19 10500 260/05 RMK AO2 T02560006
93073KASE ASE20160729185011207/29/16 18:50:31  5-MIN KASE 300150Z 27005KT 10SM CLR 26/00 A3022 7570 18 10500 260/05 RMK AO2 SLP094 T02560000
93073KASE ASE20160729185510507/29/16 18:55:31  5-MIN KASE 300155Z 27004KT 10SM CLR 26/00 A3022 7570 18 10500 260/04 RMK AO2 T02560000
93073KASE ASE20160729190010507/29/16 19:00:31  5-MIN KASE 300200Z 27006KT 10SM CLR 24/01 A3022 7570 21 10300 260/06 RMK AO2 T02390006
93073KASE ASE20160729192510507/29/16 19:25:31  5-MIN KASE 300225Z 13003KT 10SM CLR 22/03 A3022 7560 28 10000 120/03 RMK AO2 T02170028
93073KASE ASE20160729193010407/29/16 19:30:31  5-MIN KASE 300230Z 14003KT 10SM CLR 21/03 A3023 7560 32 9900 130/03 RMK AO2 T02060033
93073KASE ASE20160729193510707/29/16 19:35:31  5-MIN KASE 300235Z 19006KT 10SM FEW120 19/04 A3023 7560 35 9800 180/06 RMK AO2 T01940039
93073KASE ASE20160729194010707/29/16 19:40:31  5-MIN KASE 300240Z 21006KT 10SM FEW120 19/04 A3023 7550 36 9700 200/06 RMK AO2 T01890039
93073KASE ASE20160729194510707/29/16 19:45:31  5-MIN KASE 300245Z 21005KT 10SM FEW120 19/03 A3023 7560 34 9800 200/05 RMK AO2 T01940033
93073KASE ASE20160729195012007/29/16 19:50:31  5-MIN KASE 300250Z 19005KT 10SM FEW120 19/04 A3023 7560 36 9700 180/05 RMK AO2 SLP105 T01890039 56014
93073KASE ASE20160729195510707/29/16 19:55:31  5-MIN KASE 300255Z 20006KT 10SM SCT120 18/04 A3023 7560 39 9700 190/06 RMK AO2 T01830044
93073KASE ASE20160729200010707/29/16 20:00:31  5-MIN KASE 300300Z 20006KT 10SM SCT120 19/04 A3023 7550 36 9700 190/06 RMK AO2 T01890039
93073KASE ASE20160729200510707/29/16 20:05:31  5-MIN KASE 300305Z 20006KT 10SM SCT120 19/04 A3023 7550 36 9700 190/06 RMK AO2 T01890039
93073KASE ASE20160729201010707/29/16 20:10:31  5-MIN KASE 300310Z 20006KT 10SM FEW120 17/04 A3024 7550 41 9500 190/06 RMK AO2 T01720039
93073KASE ASE20160729201510707/29/16 20:15:31  5-MIN KASE 300315Z 19007KT 10SM FEW120 17/04 A3024 7550 44 9500 190/07 RMK AO2 T01670044
93073KASE ASE20160729202010707/29/16 20:20:31  5-MIN KASE 300320Z 19009KT 10SM FEW120 17/04 A3024 7540 42 9500 180/09 RMK AO2 T01670039
93073KASE ASE20160729202510707/29/16 20:25:31  5-MIN KASE 300325Z 21007KT 10SM FEW120 17/04 A3025 7540 42 9500 200/07 RMK AO2 T01670039
93073KASE ASE20160729203010407/29/16 20:30:31  5-MIN KASE 300330Z 20007KT 10SM CLR 17/03 A3025 7540 39 9500 190/07 RMK AO2 T01720033
93073KASE ASE20160729203510407/29/16 20:35:31  5-MIN KASE 300335Z 21008KT 10SM CLR 17/03 A3025 7540 40 9500 200/08 RMK AO2 T01670033
93073KASE ASE20160729204010407/29/16 20:40:31  5-MIN KASE 300340Z 21007KT 10SM CLR 17/03 A3025 7540 40 9500 200/07 RMK AO2 T01670033
93073KASE ASE20160729204510407/29/16 20:45:31  5-MIN KASE 300345Z 20005KT 10SM CLR 17/03 A3025 7540 40 9500 190/05 RMK AO2 T01670033
93073KASE ASE20160729205011107/29/16 20:50:31  5-MIN KASE 300350Z 22007KT 10SM CLR 16/04 A3025 7540 45 9300 210/07 RMK AO2 SLP112 T01560039
93073KASE ASE20160729205510407/29/16 20:55:31  5-MIN KASE 300355Z 20006KT 10SM CLR 17/03 A3025 7540 40 9500 190/06 RMK AO2 T01670033
93073KASE ASE20160729210010407/29/16 21:00:31  5-MIN KASE 300400Z 21007KT 10SM CLR 17/03 A3025 7530 40 9500 200/07 RMK AO2 T01670033
93073KASE ASE20160729210510407/29/16 21:05:31  5-MIN KASE 300405Z 20005KT 10SM CLR 17/03 A3026 7530 40 9500 190/05 RMK AO2 T01670033
93073KASE ASE20160729211010407/29/16 21:10:31  5-MIN KASE 300410Z 18005KT 10SM CLR 17/03 A3026 7530 40 9500 180/05 RMK AO2 T01670033
93073KASE ASE20160729211510407/29/16 21:15:31  5-MIN KASE 300415Z 20006KT 10SM CLR 16/03 A3026 7530 43 9300 190/06 RMK AO2 T01560033
93073KASE ASE20160729212010407/29/16 21:20:31  5-MIN KASE 300420Z 21006KT 10SM CLR 17/03 A3026 7530 39 9500 200/06 RMK AO2 T01670028
93073KASE ASE20160729212510407/29/16 21:25:31  5-MIN KASE 300425Z 20006KT 10SM CLR 17/03 A3026 7530 40 9500 190/06 RMK AO2 T01670033
93073KASE ASE20160729213010407/29/16 21:30:31  5-MIN KASE 300430Z 21007KT 10SM CLR 16/03 A3026 7530 43 9300 200/07 RMK AO2 T01560033
93073KASE ASE20160729213510407/29/16 21:35:31  5-MIN KASE 300435Z 21007KT 10SM CLR 17/03 A3026 7530 39 9500 200/07 RMK AO2 T01670028
93073KASE ASE20160729214010407/29/16 21:40:31  5-MIN KASE 300440Z 20007KT 10SM CLR 16/03 A3026 7520 40 9400 190/07 RMK AO2 T01610028
93073KASE ASE20160729214510407/29/16 21:45:31  5-MIN KASE 300445Z 20007KT 10SM CLR 16/03 A3026 7520 40 9400 200/07 RMK AO2 T01610028
93073KASE ASE20160729215011107/29/16 21:50:31  5-MIN KASE 300450Z 20008KT 10SM CLR 16/03 A3026 7520 40 9400 190/08 RMK AO2 SLP107 T01610028
93073KASE ASE20160729215510407/29/16 21:55:31  5-MIN KASE 300455Z 21008KT 10SM CLR 16/03 A3026 7530 40 9400 200/08 RMK AO2 T01610028
93073KASE ASE20160729220010407/29/16 22:00:31  5-MIN KASE 300500Z 21008KT 10SM CLR 17/02 A3027 7520 37 9400 200/08 RMK AO2 T01670022
93073KASE ASE20160729220510407/29/16 22:05:31  5-MIN KASE 300505Z 19006KT 10SM CLR 17/02 A3027 7520 37 9400 180/06 RMK AO2 T01670022
93073KASE ASE20160729221010407/29/16 22:10:31  5-MIN KASE 300510Z 19008KT 10SM CLR 16/03 A3026 7520 42 9300 180/08 RMK AO2 T01560028
93073KASE ASE20160729221510407/29/16 22:15:31  5-MIN KASE 300515Z 19007KT 10SM CLR 14/03 A3026 7530 47 9200 180/07 RMK AO2 T01440033
93073KASE ASE20160729222010407/29/16 22:20:31  5-MIN KASE 300520Z 21009KT 10SM CLR 14/03 A3027 7520 45 9200 200/09 RMK AO2 T01440028
93073KASE ASE20160729222510407/29/16 22:25:31  5-MIN KASE 300525Z 21008KT 10SM CLR 15/03 A3027 7520 43 9300 200/08 RMK AO2 T01500028
93073KASE ASE20160729223010407/29/16 22:30:31  5-MIN KASE 300530Z 21007KT 10SM CLR 17/02 A3027 7520 37 9400 200/07 RMK AO2 T01670022
93073KASE ASE20160729223510407/29/16 22:35:31  5-MIN KASE 300535Z 20007KT 10SM CLR 16/02 A3027 7520 39 9400 190/07 RMK AO2 T01610022
93073KASE ASE20160729224010407/29/16 22:40:31  5-MIN KASE 300540Z 20007KT 10SM CLR 16/02 A3027 7520 40 9300 190/07 RMK AO2 T01560022
93073KASE ASE20160729224510407/29/16 22:45:31  5-MIN KASE 300545Z 21008KT 10SM CLR 15/03 A3027 7520 43 9300 200/08 RMK AO2 T01500028
93073KASE ASE20160729225012907/29/16 22:50:31  5-MIN KASE 300550Z 19006KT 10SM CLR 16/02 A3027 7520 39 9400 180/06 RMK AO2 SLP105 T01610022 10289 20144 53001
93073KASE ASE20160729225510407/29/16 22:55:31  5-MIN KASE 300555Z 21009KT 10SM CLR 14/03 A3027 7520 45 9200 200/09 RMK AO2 T01440028
93073KASE ASE20160729230010407/29/16 23:00:31  5-MIN KASE 300600Z 21008KT 10SM CLR 15/02 A3026 7520 42 9300 200/08 RMK AO2 T01500022
93073KASE ASE20160729230510407/29/16 23:05:31  5-MIN KASE 300605Z 21008KT 10SM CLR 16/02 A3027 7520 40 9300 200/08 RMK AO2 T01560022
93073KASE ASE20160729231010407/29/16 23:10:31  5-MIN KASE 300610Z 20007KT 10SM CLR 16/02 A3026 7520 40 9300 190/07 RMK AO2 T01560022
93073KASE ASE20160729231510407/29/16 23:15:31  5-MIN KASE 300615Z 21009KT 10SM CLR 15/03 A3026 7530 43 9300 200/09 RMK AO2 T01500028
93073KASE ASE20160729232010407/29/16 23:20:31  5-MIN KASE 300620Z 21007KT 10SM CLR 15/02 A3026 7530 42 9300 200/07 RMK AO2 T01500022
93073KASE ASE20160729232510407/29/16 23:25:31  5-MIN KASE 300625Z 20007KT 10SM CLR 16/02 A3026 7530 40 9300 190/07 RMK AO2 T01560022
93073KASE ASE20160729233010407/29/16 23:30:31  5-MIN KASE 300630Z 21009KT 10SM CLR 14/03 A3026 7530 45 9200 210/09 RMK AO2 T01440028
93073KASE ASE20160729233510407/29/16 23:35:31  5-MIN KASE 300635Z 21007KT 10SM CLR 14/02 A3026 7530 43 9200 200/07 RMK AO2 T01440022
93073KASE ASE20160729234010407/29/16 23:40:31  5-MIN KASE 300640Z 20006KT 10SM CLR 16/02 A3026 7530 40 9300 190/06 RMK AO2 T01560022
93073KASE ASE20160729234510407/29/16 23:45:31  5-MIN KASE 300645Z 20006KT 10SM CLR 16/02 A3026 7530 40 9300 190/06 RMK AO2 T01560022
93073KASE ASE20160729235012107/29/16 23:50:31  5-MIN KASE 300650Z 20006KT 10SM CLR 15/02 A3026 7530 42 9300 190/06 RMK AO2 SLP102 T01500022 403000078
93073KASE ASE20160729235510407/29/16 23:55:31  5-MIN KASE 300655Z 22007KT 10SM CLR 14/03 A3026 7530 47 9200 210/07 RMK AO2 T01390028
93073KASE ASE20160730000010407/30/16 00:00:31  5-MIN KASE 300700Z 21007KT 10SM CLR 14/03 A3026 7530 47 9200 210/07 RMK AO2 T01390028
93073KASE ASE20160730000510407/30/16 00:05:31  5-MIN KASE 300705Z 21006KT 10SM CLR 14/02 A3026 7530 43 9200 210/06 RMK AO2 T01440022
93073KASE ASE20160730001010407/30/16 00:10:31  5-MIN KASE 300710Z 21006KT 10SM CLR 14/02 A3026 7530 43 9200 200/06 RMK AO2 T01440022
93073KASE ASE20160730001510407/30/16 00:15:31  5-MIN KASE 300715Z 21004KT 10SM CLR 14/03 A3026 7530 45 9200 200/04 RMK AO2 T01440028
93073KASE ASE20160730002010407/30/16 00:20:31  5-MIN KASE 300720Z 20006KT 10SM CLR 13/03 A3026 7530 48 9100 190/06 RMK AO2 T01330028
93073KASE ASE20160730002510407/30/16 00:25:31  5-MIN KASE 300725Z 22008KT 10SM CLR 13/03 A3026 7530 48 9100 210/08 RMK AO2 T01330028
93073KASE ASE20160730003010407/30/16 00:30:31  5-MIN KASE 300730Z 21005KT 10SM CLR 14/02 A3026 7530 45 9200 200/05 RMK AO2 T01390022
93073KASE ASE20160730003510407/30/16 00:35:31  5-MIN KASE 300735Z 20003KT 10SM CLR 13/03 A3025 7530 48 9100 190/03 RMK AO2 T01330028
93073KASE ASE20160730004010407/30/16 00:40:31  5-MIN KASE 300740Z 20003KT 10SM CLR 13/03 A3026 7530 48 9100 200/03 RMK AO2 T01330028
93073KASE ASE20160730004510407/30/16 00:45:31  5-MIN KASE 300745Z 20005KT 10SM CLR 13/03 A3025 7530 50 9000 190/05 RMK AO2 T01280028
93073KASE ASE20160730005011107/30/16 00:50:31  5-MIN KASE 300750Z 21007KT 10SM CLR 13/02 A3025 7530 46 9100 210/07 RMK AO2 SLP104 T01330022
93073KASE ASE20160730005510407/30/16 00:55:31  5-MIN KASE 300755Z 21006KT 10SM CLR 13/02 A3026 7530 46 9100 200/06 RMK AO2 T01330022
93073KASE ASE20160730010010407/30/16 01:00:31  5-MIN KASE 300800Z 20007KT 10SM CLR 14/02 A3026 7530 45 9200 200/07 RMK AO2 T01390022
93073KASE ASE20160730010510407/30/16 01:05:31  5-MIN KASE 300805Z 18006KT 10SM CLR 14/02 A3026 7530 43 9200 170/06 RMK AO2 T01440022
93073KASE ASE20160730011010407/30/16 01:10:31  5-MIN KASE 300810Z 20006KT 10SM CLR 14/02 A3026 7530 45 9200 190/06 RMK AO2 T01390022
93073KASE ASE20160730011510407/30/16 01:15:31  5-MIN KASE 300815Z 20007KT 10SM CLR 13/03 A3025 7530 50 9000 200/07 RMK AO2 T01280028
93073KASE ASE20160730012010407/30/16 01:20:31  5-MIN KASE 300820Z 20008KT 10SM CLR 12/03 A3025 7530 52 9000 190/08 RMK AO2 T01220028
93073KASE ASE20160730012510407/30/16 01:25:31  5-MIN KASE 300825Z 21008KT 10SM CLR 13/02 A3025 7530 46 9100 200/08 RMK AO2 T01330022
93073KASE ASE20160730013010407/30/16 01:30:31  5-MIN KASE 300830Z 21007KT 10SM CLR 13/02 A3025 7530 46 9100 200/07 RMK AO2 T01330022
93073KASE ASE20160730013510407/30/16 01:35:31  5-MIN KASE 300835Z 20007KT 10SM CLR 13/02 A3025 7540 48 9000 190/07 RMK AO2 T01280022
93073KASE ASE20160730014010407/30/16 01:40:31  5-MIN KASE 300840Z 20005KT 10SM CLR 13/02 A3025 7540 46 9100 190/05 RMK AO2 T01330022
93073KASE ASE20160730014510407/30/16 01:45:31  5-MIN KASE 300845Z 20005KT 10SM CLR 13/02 A3025 7540 48 9000 190/05 RMK AO2 T01280022
93073KASE ASE20160730015011707/30/16 01:50:31  5-MIN KASE 300850Z 20006KT 10SM CLR 12/03 A3025 7540 52 9000 190/06 RMK AO2 SLP105 T01220028 51010
93073KASE ASE20160730015510407/30/16 01:55:31  5-MIN KASE 300855Z 19006KT 10SM CLR 12/03 A3025 7540 52 9000 190/06 RMK AO2 T01220028
93073KASE ASE20160730020010407/30/16 02:00:31  5-MIN KASE 300900Z 20006KT 10SM CLR 12/03 A3025 7540 52 9000 190/06 RMK AO2 T01220028
93073KASE ASE20160730020510407/30/16 02:05:31  5-MIN KASE 300905Z 20004KT 10SM CLR 12/03 A3025 7540 54 8900 200/04 RMK AO2 T01170028
93073KASE ASE20160730021010407/30/16 02:10:31  5-MIN KASE 300910Z 20005KT 10SM CLR 12/03 A3025 7540 52 9000 190/05 RMK AO2 T01220028
93073KASE ASE20160730021510407/30/16 02:15:31  5-MIN KASE 300915Z 20004KT 10SM CLR 12/03 A3025 7540 52 9000 200/04 RMK AO2 T01220028
93073KASE ASE20160730022010407/30/16 02:20:31  5-MIN KASE 300920Z 21006KT 10SM CLR 13/02 A3025 7540 48 9000 200/06 RMK AO2 T01280022
93073KASE ASE20160730022510407/30/16 02:25:31  5-MIN KASE 300925Z 19005KT 10SM CLR 13/02 A3025 7540 48 9000 190/05 RMK AO2 T01280022
93073KASE ASE20160730023010407/30/16 02:30:31  5-MIN KASE 300930Z 22007KT 10SM CLR 12/03 A3025 7540 54 8900 210/07 RMK AO2 T01170028
93073KASE ASE20160730023510407/30/16 02:35:31  5-MIN KASE 300935Z 20005KT 10SM CLR 13/02 A3025 7540 48 9000 190/05 RMK AO2 T01280022
93073KASE ASE20160730024010407/30/16 02:40:31  5-MIN KASE 300940Z 22005KT 10SM CLR 13/02 A3025 7540 48 9000 210/05 RMK AO2 T01280022
93073KASE ASE20160730024510407/30/16 02:45:31  5-MIN KASE 300945Z 19004KT 10SM CLR 13/02 A3025 7540 48 9000 180/04 RMK AO2 T01280022
93073KASE ASE20160730025011107/30/16 02:50:31  5-MIN KASE 300950Z 21005KT 10SM CLR 12/03 A3025 7540 52 9000 200/05 RMK AO2 SLP104 T01220028
93073KASE ASE20160730025510407/30/16 02:55:31  5-MIN KASE 300955Z 20004KT 10SM CLR 12/03 A3024 7540 54 8900 190/04 RMK AO2 T01170028
93073KASE ASE20160730030010407/30/16 03:00:31  5-MIN KASE 301000Z 22008KT 10SM CLR 11/03 A3025 7540 56 8900 210/08 RMK AO2 T01110028
93073KASE ASE20160730030510407/30/16 03:05:31  5-MIN KASE 301005Z 20004KT 10SM CLR 12/03 A3024 7540 54 8900 190/04 RMK AO2 T01170028
93073KASE ASE20160730031010407/30/16 03:10:31  5-MIN KASE 301010Z 21004KT 10SM CLR 12/02 A3025 7540 50 9000 200/04 RMK AO2 T01220022
93073KASE ASE20160730031510407/30/16 03:15:31  5-MIN KASE 301015Z 21005KT 10SM CLR 12/02 A3025 7540 50 9000 200/05 RMK AO2 T01220022
93073KASE ASE20160730032010407/30/16 03:20:31  5-MIN KASE 301020Z 21006KT 10SM CLR 12/02 A3025 7540 50 9000 200/06 RMK AO2 T01220022
93073KASE ASE20160730032510407/30/16 03:25:31  5-MIN KASE 301025Z 18004KT 10SM CLR 12/02 A3025 7540 50 9000 170/04 RMK AO2 T01220022
93073KASE ASE20160730033010407/30/16 03:30:31  5-MIN KASE 301030Z 20007KT 10SM CLR 12/03 A3025 7540 54 8900 190/07 RMK AO2 T01170028
93073KASE ASE20160730033510407/30/16 03:35:31  5-MIN KASE 301035Z 20006KT 10SM CLR 12/03 A3025 7540 54 8900 190/06 RMK AO2 T01170028
93073KASE ASE20160730034010407/30/16 03:40:31  5-MIN KASE 301040Z 22008KT 10SM CLR 12/02 A3024 7540 50 9000 210/08 RMK AO2 T01220022
93073KASE ASE20160730034510407/30/16 03:45:31  5-MIN KASE 301045Z 21006KT 10SM CLR 13/02 A3024 7540 48 9000 200/06 RMK AO2 T01280022
93073KASE ASE20160730035011107/30/16 03:50:31  5-MIN KASE 301050Z 20006KT 10SM CLR 11/03 A3024 7540 56 8900 190/06 RMK AO2 SLP103 T01110028
93073KASE ASE20160730035510407/30/16 03:55:31  5-MIN KASE 301055Z 21009KT 10SM CLR 11/03 A3024 7540 56 8900 210/09 RMK AO2 T01110028
93073KASE ASE20160730040010407/30/16 04:00:31  5-MIN KASE 301100Z 20006KT 10SM CLR 12/02 A3024 7540 50 9000 190/06 RMK AO2 T01220022
93073KASE ASE20160730040510407/30/16 04:05:31  5-MIN KASE 301105Z 21004KT 10SM CLR 13/02 A3025 7540 48 9000 200/04 RMK AO2 T01280022
93073KASE ASE20160730041010407/30/16 04:10:31  5-MIN KASE 301110Z 20004KT 10SM CLR 11/02 A3025 7540 54 8800 190/04 RMK AO2 T01110022
93073KASE ASE20160730041510407/30/16 04:15:31  5-MIN KASE 301115Z 21007KT 10SM CLR 11/03 A3025 7540 56 8800 200/07 RMK AO2 T01110028
93073KASE ASE20160730042010407/30/16 04:20:31  5-MIN KASE 301120Z 21006KT 10SM CLR 11/02 A3025 7540 54 8800 210/06 RMK AO2 T01110022
93073KASE ASE20160730042510407/30/16 04:25:31  5-MIN KASE 301125Z 21005KT 10SM CLR 12/02 A3025 7540 52 8900 200/05 RMK AO2 T01170022
93073KASE ASE20160730043010407/30/16 04:30:31  5-MIN KASE 301130Z VRB03KT 10SM CLR 11/02 A3025 7540 54 8800 VRB/03 RMK AO2 T01110022
93073KASE ASE20160730043510407/30/16 04:35:31  5-MIN KASE 301135Z 00000KT 10SM CLR 11/03 A3025 7540 58 8800 000/00 RMK AO2 T01060028
93073KASE ASE20160730044010407/30/16 04:40:31  5-MIN KASE 301140Z 00000KT 10SM CLR 11/02 A3025 7540 54 8800 000/00 RMK AO2 T01110022
93073KASE ASE20160730044510407/30/16 04:45:31  5-MIN KASE 301145Z 00000KT 10SM CLR 11/03 A3025 7540 58 8800 000/00 RMK AO2 T01060028
93073KASE ASE20160730045012907/30/16 04:50:31  5-MIN KASE 301150Z 00000KT 10SM CLR 11/03 A3025 7540 58 8800 000/00 RMK AO2 SLP109 T01060028 10156 20106 56004
93073KASE ASE20160730045510407/30/16 04:55:31  5-MIN KASE 301155Z 21003KT 10SM CLR 11/03 A3025 7530 58 8800 200/03 RMK AO2 T01060028
93073KASE ASE20160730050010407/30/16 05:00:31  5-MIN KASE 301200Z 22007KT 10SM CLR 10/03 A3025 7530 60 8700 210/07 RMK AO2 T01000028
93073KASE ASE20160730050510407/30/16 05:05:31  5-MIN KASE 301205Z 20006KT 10SM CLR 11/03 A3026 7530 56 8800 190/06 RMK AO2 T01110028
93073KASE ASE20160730051010407/30/16 05:10:31  5-MIN KASE 301210Z 20005KT 10SM CLR 11/03 A3026 7530 56 8800 200/05 RMK AO2 T01110028
93073KASE ASE20160730051510407/30/16 05:15:31  5-MIN KASE 301215Z 22008KT 10SM CLR 11/03 A3026 7530 56 8800 210/08 RMK AO2 T01110028
93073KASE ASE20160730052010407/30/16 05:20:31  5-MIN KASE 301220Z 21007KT 10SM CLR 12/02 A3026 7530 50 9000 200/07 RMK AO2 T01220022
93073KASE ASE20160730052510407/30/16 05:25:31  5-MIN KASE 301225Z 20005KT 10SM CLR 12/02 A3026 7530 52 8900 190/05 RMK AO2 T01170022
93073KASE ASE20160730053010407/30/16 05:30:31  5-MIN KASE 301230Z 20005KT 10SM CLR 12/03 A3026 7530 54 8900 190/05 RMK AO2 T01170028
93073KASE ASE20160730053510407/30/16 05:35:31  5-MIN KASE 301235Z 18004KT 10SM CLR 11/03 A3026 7530 56 8800 170/04 RMK AO2 T01110028
93073KASE ASE20160730054010407/30/16 05:40:31  5-MIN KASE 301240Z 22003KT 10SM CLR 10/03 A3026 7530 63 8700 210/03 RMK AO2 T01000033
93073KASE ASE20160730054510407/30/16 05:45:31  5-MIN KASE 301245Z 19004KT 10SM CLR 11/03 A3027 7520 61 8800 180/04 RMK AO2 T01060033
93073KASE ASE20160730055011107/30/16 05:50:31  5-MIN KASE 301250Z 18003KT 10SM CLR 11/03 A3026 7520 61 8800 170/03 RMK AO2 SLP115 T01060033
93073KASE ASE20160730055510407/30/16 05:55:31  5-MIN KASE 301255Z 22003KT 10SM CLR 11/03 A3027 7520 61 8800 210/03 RMK AO2 T01060033
93073KASE ASE20160730060010407/30/16 06:00:31  5-MIN KASE 301300Z 21006KT 10SM CLR 11/03 A3027 7520 58 8800 200/06 RMK AO2 T01110033
93073KASE ASE20160730060510407/30/16 06:05:31  5-MIN KASE 301305Z 21005KT 10SM CLR 12/03 A3027 7520 54 9000 200/05 RMK AO2 T01220033
93073KASE ASE20160730061010407/30/16 06:10:31  5-MIN KASE 301310Z 19003KT 10SM CLR 14/03 A3027 7520 47 9100 180/03 RMK AO2 T01390028
93073KASE ASE20160730061510407/30/16 06:15:31  5-MIN KASE 301315Z 00000KT 10SM CLR 13/04 A3027 7520 52 9100 000/00 RMK AO2 T01330039
93073KASE ASE20160730062010407/30/16 06:20:31  5-MIN KASE 301320Z 00000KT 10SM CLR 13/04 A3027 7520 54 9000 000/00 RMK AO2 T01280039
93073KASE ASE20160730062510407/30/16 06:25:31  5-MIN KASE 301325Z 00000KT 10SM CLR 14/04 A3028 7510 50 9100 000/00 RMK AO2 T01390039
93073KASE ASE20160730063010407/30/16 06:30:31  5-MIN KASE 301330Z 00000KT 10SM CLR 14/03 A3028 7510 47 9200 000/00 RMK AO2 T01440033
93073KASE ASE20160730063510407/30/16 06:35:31  5-MIN KASE 301335Z 00000KT 10SM CLR 15/03 A3028 7510 43 9300 000/00 RMK AO2 T01500028
93073KASE ASE20160730064010407/30/16 06:40:31  5-MIN KASE 301340Z 00000KT 10SM CLR 15/03 A3028 7510 43 9300 000/00 RMK AO2 T01500028
93073KASE ASE20160730064510407/30/16 06:45:31  5-MIN KASE 301345Z 14003KT 10SM CLR 16/02 A3028 7510 40 9300 130/03 RMK AO2 T01560022
93073KASE ASE20160730065011107/30/16 06:50:31  5-MIN KASE 301350Z 12003KT 10SM CLR 16/03 A3028 7510 42 9300 120/03 RMK AO2 SLP115 T01560028
93073KASE ASE20160730065510407/30/16 06:55:31  5-MIN KASE 301355Z 12003KT 10SM CLR 16/03 A3028 7510 42 9400 110/03 RMK AO2 T01610033
93073KASE ASE20160730070010407/30/16 07:00:31  5-MIN KASE 301400Z 00000KT 10SM CLR 16/03 A3028 7510 40 9400 000/00 RMK AO2 T01610028
93073KASE ASE20160730070510707/30/16 07:05:31  5-MIN KASE 301405Z 12003KT 10SM FEW120 17/03 A3028 7510 40 9400 110/03 RMK AO2 T01670033
93073KASE ASE20160730071010607/30/16 07:10:31  5-MIN KASE 301410Z VRB03KT 9SM FEW120 17/03 A3028 7510 40 9400 VRB/03 RMK AO2 T01670033
93073KASE ASE20160730071510307/30/16 07:15:31  5-MIN KASE 301415Z 13003KT 9SM CLR 17/03 A3028 7510 40 9400 120/03 RMK AO2 T01670033
93073KASE ASE20160730072010407/30/16 07:20:31  5-MIN KASE 301420Z 15004KT 10SM CLR 17/04 A3028 7510 42 9400 140/04 RMK AO2 T01670039
93073KASE ASE20160730072510407/30/16 07:25:31  5-MIN KASE 301425Z 15003KT 10SM CLR 17/04 A3028 7510 41 9500 140/03 RMK AO2 T01720039
93073KASE ASE20160730073010407/30/16 07:30:31  5-MIN KASE 301430Z 00000KT 10SM CLR 18/03 A3029 7510 38 9500 000/00 RMK AO2 T01780033
93073KASE ASE20160730073510407/30/16 07:35:31  5-MIN KASE 301435Z 12003KT 10SM CLR 18/04 A3029 7500 39 9500 110/03 RMK AO2 T01780039
93073KASE ASE20160730074010407/30/16 07:40:31  5-MIN KASE 301440Z 00000KT 10SM CLR 18/04 A3028 7510 38 9600 000/00 RMK AO2 T01830039
93073KASE ASE20160730074510407/30/16 07:45:31  5-MIN KASE 301445Z 13003KT 10SM CLR 19/04 A3029 7500 36 9700 120/03 RMK AO2 T01890039
93073KASE ASE20160730075011707/30/16 07:50:31  5-MIN KASE 301450Z 00000KT 10SM CLR 19/03 A3029 7500 35 9700 000/00 RMK AO2 SLP125 T01890033 53001
93073KASE ASE20160730075510407/30/16 07:55:31  5-MIN KASE 301455Z 11003KT 10SM CLR 19/03 A3028 7510 35 9700 100/03 RMK AO2 T01890033
93073KASE ASE20160730080010407/30/16 08:00:31  5-MIN KASE 301500Z 12003KT 10SM CLR 19/03 A3028 7510 34 9700 110/03 RMK AO2 T01940033
93073KASE ASE20160730080510407/30/16 08:05:31  5-MIN KASE 301505Z 00000KT 10SM CLR 19/03 A3028 7510 35 9700 000/00 RMK AO2 T01890033
93073KASE ASE20160730081010407/30/16 08:10:31  5-MIN KASE 301510Z 00000KT 10SM CLR 19/03 A3028 7510 34 9700 000/00 RMK AO2 T01940033
93073KASE ASE20160730081510407/30/16 08:15:31  5-MIN KASE 301515Z 03004KT 10SM CLR 21/04 A3028 7510 34 9900 020/04 RMK AO2 T02060044
93073KASE ASE20160730082010407/30/16 08:20:31  5-MIN KASE 301520Z 00000KT 10SM CLR 21/04 A3028 7510 34 9900 000/00 RMK AO2 T02060044
93073KASE ASE20160730082510407/30/16 08:25:31  5-MIN KASE 301525Z 00000KT 10SM CLR 21/04 A3028 7510 32 9900 000/00 RMK AO2 T02110039
93073KASE ASE20160730083010407/30/16 08:30:31  5-MIN KASE 301530Z 00000KT 10SM CLR 21/03 A3028 7510 30 9900 000/00 RMK AO2 T02110033
93073KASE ASE20160730083510507/30/16 08:35:31  5-MIN KASE 301535Z 03003KT 10SM CLR 22/03 A3028 7510 29 10000 020/03 RMK AO2 T02170033
93073KASE ASE20160730084010507/30/16 08:40:31  5-MIN KASE 301540Z 05003KT 10SM CLR 22/03 A3028 7510 28 10000 040/03 RMK AO2 T02220033
93073KASE ASE20160730084510507/30/16 08:45:31  5-MIN KASE 301545Z 04004KT 10SM CLR 22/04 A3028 7510 30 10000 030/04 RMK AO2 T02220039
93073KASE ASE20160730085011207/30/16 08:50:31  5-MIN KASE 301550Z 02004KT 10SM CLR 23/04 A3028 7510 30 10100 010/04 RMK AO2 SLP119 T02280044
93073KASE ASE20160730085510507/30/16 08:55:31  5-MIN KASE 301555Z 02004KT 10SM CLR 23/03 A3028 7510 27 10100 010/04 RMK AO2 T02280033
93073KASE ASE20160730090010807/30/16 09:00:31  5-MIN KASE 301600Z 01005KT 10SM FEW110 23/04 A3028 7510 28 10200 360/05 RMK AO2 T02330039
93073KASE ASE20160730090510807/30/16 09:05:31  5-MIN KASE 301605Z 04006KT 10SM FEW110 23/04 A3028 7510 28 10200 040/06 RMK AO2 T02330039
93073KASE ASE20160730091010807/30/16 09:10:31  5-MIN KASE 301610Z VRB06KT 10SM FEW110 24/04 A3028 7510 27 10300 VRB/06 RMK AO2 T02440044
93073KASE ASE20160730091510807/30/16 09:15:31  5-MIN KASE 301615Z 01005KT 10SM SCT110 24/04 A3028 7510 27 10300 360/05 RMK AO2 T02440044
93073KASE ASE20160730092010807/30/16 09:20:31  5-MIN KASE 301620Z VRB05KT 10SM SCT110 24/04 A3028 7510 28 10200 VRB/05 RMK AO2 T02390044
93073KASE ASE20160730092510807/30/16 09:25:31  5-MIN KASE 301625Z 35004KT 10SM SCT110 24/04 A3028 7510 28 10200 340/04 RMK AO2 T02390044
93073KASE ASE20160730093010807/30/16 09:30:31  5-MIN KASE 301630Z VRB03KT 10SM FEW110 24/04 A3028 7510 27 10300 VRB/03 RMK AO2 T02440044
93073KASE ASE20160730093510807/30/16 09:35:31  5-MIN KASE 301635Z VRB05KT 10SM FEW110 25/03 A3028 7510 24 10300 VRB/05 RMK AO2 T02500033
93073KASE ASE20160730094010807/30/16 09:40:31  5-MIN KASE 301640Z 06006KT 10SM FEW110 26/02 A3028 7510 21 10400 050/06 RMK AO2 T02560022
93073KASE ASE20160730094510807/30/16 09:45:31  5-MIN KASE 301645Z VRB05KT 10SM FEW110 25/03 A3028 7510 23 10300 VRB/05 RMK AO2 T02500028
93073KASE ASE20160730095011507/30/16 09:50:31  5-MIN KASE 301650Z 03006KT 10SM FEW110 26/03 A3028 7510 22 10500 030/06 RMK AO2 SLP111 T02610033
93073KASE ASE20160730095510807/30/16 09:55:31  5-MIN KASE 301655Z 04006KT 10SM FEW110 27/03 A3028 7510 22 10500 030/06 RMK AO2 T02670033
93073KASE ASE20160730100010807/30/16 10:00:31  5-MIN KASE 301700Z 02009KT 10SM FEW110 27/03 A3027 7510 20 10600 010/09 RMK AO2 T02720028
93073KASE ASE20160730100512407/30/16 10:05:31  5-MIN KASE 301705Z 36007KT 330V040 10SM FEW110 27/03 A3028 7510 20 10600 350/07 320V030 RMK AO2 T02720028
93073KASE ASE20160730101010807/30/16 10:10:31  5-MIN KASE 301710Z 36009KT 10SM FEW110 27/02 A3028 7510 19 10600 350/09 RMK AO2 T02720017
93073KASE ASE20160730101510507/30/16 10:15:31  5-MIN KASE 301715Z 02009KT 10SM CLR 27/02 A3028 7510 19 10600 010/09 RMK AO2 T02720017
93073KASE ASE20160730102010507/30/16 10:20:31  5-MIN KASE 301720Z 36011KT 10SM CLR 27/01 A3028 7510 18 10600 350/11 RMK AO2 T02720011
93073KASE ASE20160730102511107/30/16 10:25:31  5-MIN KASE 301725Z 36010G18KT 10SM CLR 28/02 A3027 7520 18 10600 350/10G18 RMK AO2 T02780017
93073KASE ASE20160730103011107/30/16 10:30:31  5-MIN KASE 301730Z 36008G18KT 10SM CLR 27/01 A3027 7520 18 10600 350/08G18 RMK AO2 T02720011
93073KASE ASE20160730103511107/30/16 10:35:31  5-MIN KASE 301735Z 34011G16KT 10SM CLR 28/01 A3027 7520 17 10600 330/11G16 RMK AO2 T02780006
93073KASE ASE20160730104011107/30/16 10:40:31  5-MIN KASE 301740Z 36010G15KT 10SM CLR 28/00 A3027 7520 16 10600 350/10G15 RMK AO2 T02780000
93073KASE ASE20160730104511107/30/16 10:45:31  5-MIN KASE 301745Z 02010G16KT 10SM CLR 28/00 A3027 7520 16 10600 010/10G16 RMK AO2 T02780000
93073KASE ASE20160730105013007/30/16 10:50:31  5-MIN KASE 301750Z 01010KT 10SM CLR 28/00 A3027 7520 16 10600 360/10 RMK AO2 SLP103 T02780000 10283 20100 51008
93073KASE ASE20160730105510507/30/16 10:55:31  5-MIN KASE 301755Z 34011KT 10SM CLR 28/01 A3027 7520 17 10600 330/11 RMK AO2 T02780006
93073KASE ASE20160730110011407/30/16 11:00:31  5-MIN KASE 301800Z 35011G18KT 10SM SCT060 28/01 A3027 7520 16 10700 340/11G18 RMK AO2 T02830006
93073KASE ASE20160730110511407/30/16 11:05:31  5-MIN KASE 301805Z 32010G18KT 10SM SCT060 28/01 A3027 7520 17 10700 320/10G18 RMK AO2 T02830011
93073KASE ASE20160730111011407/30/16 11:10:31  5-MIN KASE 301810Z 35010G22KT 10SM SCT060 28/01 A3027 7520 16 10700 340/10G22 RMK AO2 T02830006
93073KASE ASE20160730111511407/30/16 11:15:31  5-MIN KASE 301815Z 35008G22KT 10SM SCT060 29/01 A3027 7520 15 10800 340/08G22 RMK AO2 T02890006
93073KASE ASE20160730112011407/30/16 11:20:31  5-MIN KASE 301820Z 36010G19KT 10SM SCT060 29/01 A3027 7520 15 10800 350/10G19 RMK AO2 T02890006
93073KASE ASE20160730112510807/30/16 11:25:31  5-MIN KASE 301825Z 35011KT 10SM SCT060 29/01 A3027 7520 15 10800 340/11 RMK AO2 T02890006
93073KASE ASE20160730113011507/30/16 11:30:31  5-MIN KASE 301830Z 01009G18KT 10SM SCT060 28/M02 A3026 7530 14 10700 360/09G18 RMK AO2 T02831017
93073KASE ASE20160730113511407/30/16 11:35:31  5-MIN KASE 301835Z 36013G20KT 10SM SCT060 29/00 A3026 7530 15 10800 350/13G20 RMK AO2 T02890000
93073KASE ASE20160730114011507/30/16 11:40:31  5-MIN KASE 301840Z 01011G20KT 10SM SCT060 28/M01 A3026 7530 15 10700 360/11G20 RMK AO2 T02831006
93073KASE ASE20160730114513007/30/16 11:45:31  5-MIN KASE 301845Z 02010G16KT 340V060 10SM SCT060 29/00 A3026 7530 14 10800 020/10G16 330V050 RMK AO2 T02940000
93073KASE ASE20160730115011607/30/16 11:50:31  5-MIN KASE 301850Z 01009KT 10SM SCT060 29/M01 A3026 7530 14 10800 360/09 RMK AO2 SLP099 T02891006
93073KASE ASE20160730115512807/30/16 11:55:31  5-MIN KASE 301855Z 36007G14KT 320V030 10SM CLR 29/M01 A3026 7530 14 10800 350/07G14 310V020 RMK AO2 T02891011
93073KASE ASE20160730120011207/30/16 12:00:31  5-MIN KASE 301900Z VRB06G14KT 10SM CLR 28/M01 A3026 7530 15 10700 VRB/06G14 RMK AO2 T02831006
93073KASE ASE20160730120510607/30/16 12:05:31  5-MIN KASE 301905Z 34010KT 10SM CLR 29/M01 A3025 7530 14 10800 330/10 RMK AO2 T02941006
93073KASE ASE20160730121011207/30/16 12:10:31  5-MIN KASE 301910Z 34012G24KT 10SM CLR 29/M02 A3025 7540 13 10800 330/12G24 RMK AO2 T02941017
93073KASE ASE20160730121511207/30/16 12:15:31  5-MIN KASE 301915Z 32014G24KT 10SM CLR 29/M02 A3025 7540 12 10800 310/14G24 RMK AO2 T02941022
93073KASE ASE20160730122011207/30/16 12:20:31  5-MIN KASE 301920Z VRB05G20KT 10SM CLR 29/M03 A3025 7540 12 10800 VRB/05G20 RMK AO2 T02941028
93073KASE ASE20160730122511207/30/16 12:25:31  5-MIN KASE 301925Z VRB05G15KT 10SM CLR 29/M02 A3025 7540 13 10800 VRB/05G15 RMK AO2 T02941017
93073KASE ASE20160730123011207/30/16 12:30:31  5-MIN KASE 301930Z 34013G19KT 10SM CLR 30/M02 A3024 7540 12 10900 330/13G19 RMK AO2 T03001017
93073KASE ASE20160730123511207/30/16 12:35:31  5-MIN KASE 301935Z 34010G19KT 10SM CLR 29/M01 A3025 7540 13 10800 330/10G19 RMK AO2 T02941011
93073KASE ASE20160730124011207/30/16 12:40:31  5-MIN KASE 301940Z VRB03G19KT 10SM CLR 28/M02 A3024 7550 13 10700 VRB/03G19 RMK AO2 T02831022
93073KASE ASE20160730124510907/30/16 12:45:31  5-MIN KASE 301945Z 01011KT 10SM FEW110 29/M02 A3024 7550 13 10800 360/11 RMK AO2 T02891017
93073KASE ASE20160730125012207/30/16 12:50:31  5-MIN KASE 301950Z 34013G17KT 10SM SCT110 28/M02 A3024 7550 13 10700 330/13G17 RMK AO2 SLP096 T02831022
93073KASE ASE20160730125510907/30/16 12:55:31  5-MIN KASE 301955Z 34009KT 10SM SCT110 28/M02 A3024 7550 13 10700 330/09 RMK AO2 T02831022
93073KASE ASE20160730130010907/30/16 13:00:31  5-MIN KASE 302000Z 00000KT 10SM SCT110 29/M02 A3024 7550 13 10800 000/00 RMK AO2 T02891022
93073KASE ASE20160730130509907/30/16 13:05:31  5-MIN KASE 302005Z 10SM SCT110 30/M01 A3024 7550 13 10900 M /M RMK AO2 T03001006
93073KASE ASE20160730131010807/30/16 13:10:31  5-MIN KASE 302010Z 24009KT 10SM SCT110 29/00 A3024 7550 15 10800 230/09 RMK AO2 T02890000
93073KASE ASE20160730131511407/30/16 13:15:31  5-MIN KASE 302015Z 24014G22KT 10SM FEW110 29/01 A3024 7550 15 10800 240/14G22 RMK AO2 T02940006
93073KASE ASE20160730132011407/30/16 13:20:31  5-MIN KASE 302020Z 24011G22KT 10SM FEW110 29/01 A3024 7550 15 10800 230/11G22 RMK AO2 T02940006
93073KASE ASE20160730132512407/30/16 13:25:31  5-MIN KASE 302025Z 25008G19KT 10SM CLR 28/M01 A3024 7550 15 10700 240/08G19 RMK AO2 LTG DSNT SE T02831006
93073KASE ASE20160730133011807/30/16 13:30:31  5-MIN KASE 302030Z VRB05KT 10SM CLR 27/M01 A3024 7550 16 10600 VRB/05 RMK AO2 LTG DSNT SE T02721006
93073KASE ASE20160730133511807/30/16 13:35:31  5-MIN KASE 302035Z 24008KT 10SM CLR 27/M01 A3023 7550 16 10600 230/08 RMK AO2 LTG DSNT SE T02721006
93073KASE ASE20160730134010607/30/16 13:40:31  5-MIN KASE 302040Z 23005KT 10SM CLR 27/M01 A3023 7550 15 10600 220/05 RMK AO2 T02721011
93073KASE ASE20160730134510607/30/16 13:45:31  5-MIN KASE 302045Z 22003KT 10SM CLR 28/M01 A3023 7560 15 10700 220/03 RMK AO2 T02781006
93073KASE ASE20160730135011907/30/16 13:50:31  5-MIN KASE 302050Z 20004KT 10SM CLR 28/M01 A3023 7560 14 10700 190/04 RMK AO2 SLP096 T02831011 56004
93073KASE ASE20160730135510807/30/16 13:55:31  5-MIN KASE 302055Z VRB05KT 10SM SCT110 28/00 A3023 7560 16 10700 VRB/05 RMK AO2 T02780000
93073KASE ASE20160730140010807/30/16 14:00:31  5-MIN KASE 302100Z 28012KT 10SM SCT110 28/01 A3023 7560 17 10700 280/12 RMK AO2 T02830011
93073KASE ASE20160730140510807/30/16 14:05:31  5-MIN KASE 302105Z 24012KT 10SM SCT110 29/01 A3023 7560 15 10900 230/12 RMK AO2 T02940006
93073KASE ASE20160730141012607/30/16 14:10:31  5-MIN KASE 302110Z 25014G18KT 10SM SCT110 29/M01 A3022 7560 14 10900 250/14G18 RMK AO2 LTG DSNT W T02941006
93073KASE ASE20160730141514107/30/16 14:15:31  5-MIN KASE 302115Z 26008G18KT 230V320 10SM SCT110 29/00 A3022 7560 14 10900 250/08G18 220V310 RMK AO2 LTG DSNT W T02940000
93073KASE ASE20160730142013207/30/16 14:20:31  5-MIN KASE 302120Z 23010G17KT 10SM SCT110 29/01 A3022 7560 15 10900 230/10G17 RMK AO2 LTG DSNT SE AND W T02940006
93073KASE ASE20160730142514207/30/16 14:25:31  5-MIN KASE 302125Z 23009G15KT 200V270 10SM SCT110 29/01 A3022 7570 15 10800 230/09G15 190V260 RMK AO2 LTG DSNT SE T02890006
93073KASE ASE20160730143011107/30/16 14:30:31  5-MIN KASE 302130Z 10SM SCT110 28/M01 A3022 7570 15 10800 M /M RMK AO2 LTG DSNT SE T02831006
93073KASE ASE20160730143512007/30/16 14:35:31  5-MIN KASE 302135Z 22008KT 10SM SCT110 28/00 A3021 7570 15 10800 210/08 RMK AO2 LTG DSNT SE T02830000
93073KASE ASE20160730144010807/30/16 14:40:31  5-MIN KASE 302140Z 32009KT 10SM SCT110 28/00 A3021 7580 15 10800 310/09 RMK AO2 T02830000
93073KASE ASE20160730144510807/30/16 14:45:31  5-MIN KASE 302145Z 24008KT 10SM SCT110 28/00 A3021 7580 15 10800 230/08 RMK AO2 T02830000
93073KASE ASE20160730145012707/30/16 14:50:31  5-MIN KASE 302150Z 23008KT 10SM SCT110 28/00 A3021 7580 16 10700 220/08 RMK AO2 LTG DSNT SE SLP091 T02780000
93073KASE ASE20160730145511707/30/16 14:55:31  5-MIN KASE 302155Z 21008KT 10SM CLR 28/00 A3020 7580 16 10700 200/08 RMK AO2 LTG DSNT SE T02780000
93073KASE ASE20160730150011807/30/16 15:00:31  5-MIN KASE 302200Z 24005KT 10SM CLR 28/M01 A3021 7580 15 10700 230/05 RMK AO2 LTG DSNT SE T02781006
93073KASE ASE20160730150510507/30/16 15:05:31  5-MIN KASE 302205Z 25006KT 10SM CLR 27/00 A3021 7580 16 10700 240/06 RMK AO2 T02720000
93073KASE ASE20160730151010507/30/16 15:10:31  5-MIN KASE 302210Z VRB05KT 10SM CLR 27/01 A3021 7580 17 10700 VRB/05 RMK AO2 T02720006
93073KASE ASE20160730151510507/30/16 15:15:31  5-MIN KASE 302215Z 24007KT 10SM CLR 27/02 A3021 7580 19 10700 230/07 RMK AO2 T02720017
93073KASE ASE20160730152012107/30/16 15:20:31  5-MIN KASE 302220Z 26008KT 230V320 10SM CLR 28/03 A3020 7580 19 10700 250/08 220V310 RMK AO2 T02780028
93073KASE ASE20160730152510507/30/16 15:25:31  5-MIN KASE 302225Z 25008KT 10SM CLR 28/02 A3021 7580 19 10700 240/08 RMK AO2 T02780022
93073KASE ASE20160730153011107/30/16 15:30:31  5-MIN KASE 302230Z VRB05G14KT 10SM CLR 27/02 A3020 7580 19 10700 VRB/05G14 RMK AO2 T02720022
93073KASE ASE20160730153510507/30/16 15:35:31  5-MIN KASE 302235Z VRB05KT 10SM CLR 28/02 A3020 7580 19 10700 VRB/05 RMK AO2 T02780022
93073KASE ASE20160730154010507/30/16 15:40:31  5-MIN KASE 302240Z 00000KT 10SM CLR 28/02 A3020 7580 18 10800 000/00 RMK AO2 T02830022
93073KASE ASE20160730154510507/30/16 15:45:31  5-MIN KASE 302245Z 00000KT 10SM CLR 28/02 A3020 7580 18 10800 000/00 RMK AO2 T02830022
93073KASE ASE20160730155010207/30/16 15:50:31  5-MIN KASE 302250Z 10SM CLR 28/02 A3020 7580 18 10800 M /M RMK AO2 SLP088 T02830022
93073KASE ASE20160730155511107/30/16 15:55:31  5-MIN KASE 302255Z 35008G16KT 10SM CLR 29/02 A3020 7580 17 10800 340/08G16 RMK AO2 T02890022
93073KASE ASE20160730160011107/30/16 16:00:31  5-MIN KASE 302300Z VRB04G16KT 10SM CLR 28/02 A3020 7590 17 10800 VRB/04G16 RMK AO2 T02830017
93073KASE ASE20160730160510507/30/16 16:05:31  5-MIN KASE 302305Z VRB03KT 10SM CLR 28/01 A3020 7590 17 10800 VRB/03 RMK AO2 T02830011
93073KASE ASE20160730161010507/30/16 16:10:31  5-MIN KASE 302310Z 33006KT 10SM CLR 29/01 A3019 7590 15 10800 320/06 RMK AO2 T02890006
93073KASE ASE20160730161510507/30/16 16:15:31  5-MIN KASE 302315Z VRB04KT 10SM CLR 29/00 A3020 7590 15 10800 VRB/04 RMK AO2 T02890000
93073KASE ASE20160730162010507/30/16 16:20:31  5-MIN KASE 302320Z VRB03KT 10SM CLR 29/01 A3019 7590 15 10900 VRB/03 RMK AO2 T02940006
93073KASE ASE20160730162510507/30/16 16:25:31  5-MIN KASE 302325Z 00000KT 10SM CLR 28/00 A3019 7590 15 10800 000/00 RMK AO2 T02830000
93073KASE ASE20160730163010507/30/16 16:30:31  5-MIN KASE 302330Z VRB04KT 10SM CLR 28/01 A3019 7590 16 10800 VRB/04 RMK AO2 T02830006
93073KASE ASE20160730163510507/30/16 16:35:31  5-MIN KASE 302335Z 35007KT 10SM CLR 29/01 A3019 7600 16 10800 340/07 RMK AO2 T02890011
93073KASE ASE20160730164010507/30/16 16:40:31  5-MIN KASE 302340Z VRB05KT 10SM CLR 28/01 A3019 7600 16 10800 VRB/05 RMK AO2 T02830006
93073KASE ASE20160730164510507/30/16 16:45:31  5-MIN KASE 302345Z VRB03KT 10SM CLR 29/01 A3018 7600 15 10900 VRB/03 RMK AO2 T02890006
93073KASE ASE20160730165013007/30/16 16:50:31  5-MIN KASE 302350Z 31005KT 10SM CLR 29/01 A3018 7600 15 10900 300/05 RMK AO2 SLP082 T02890006 10300 20272 58012
93073KASE ASE20160730165510507/30/16 16:55:31  5-MIN KASE 302355Z VRB06KT 10SM CLR 28/01 A3018 7600 16 10800 VRB/06 RMK AO2 T02830006
93073KASE ASE20160730170010507/30/16 17:00:31  5-MIN KASE 310000Z VRB03KT 10SM CLR 28/01 A3018 7600 17 10800 VRB/03 RMK AO2 T02830011
93073KASE ASE20160730170510507/30/16 17:05:31  5-MIN KASE 310005Z 30003KT 10SM CLR 28/01 A3018 7600 16 10800 290/03 RMK AO2 T02830006
93073KASE ASE20160730171010507/30/16 17:10:31  5-MIN KASE 310010Z VRB04KT 10SM CLR 28/01 A3018 7600 16 10800 VRB/04 RMK AO2 T02830006
93073KASE ASE20160730171510507/30/16 17:15:31  5-MIN KASE 310015Z 00000KT 10SM CLR 28/01 A3018 7600 16 10800 000/00 RMK AO2 T02830006
93073KASE ASE20160730172010507/30/16 17:20:31  5-MIN KASE 310020Z 26004KT 10SM CLR 28/01 A3017 7610 17 10700 250/04 RMK AO2 T02780006
93073KASE ASE20160730172510507/30/16 17:25:31  5-MIN KASE 310025Z VRB06KT 10SM CLR 28/01 A3017 7610 17 10700 VRB/06 RMK AO2 T02780011
93073KASE ASE20160730173010507/30/16 17:30:31  5-MIN KASE 310030Z 32005KT 10SM CLR 28/01 A3017 7610 17 10800 310/05 RMK AO2 T02830011
93073KASE ASE20160730173510507/30/16 17:35:31  5-MIN KASE 310035Z 34006KT 10SM CLR 28/02 A3017 7610 19 10700 330/06 RMK AO2 T02780022
93073KASE ASE20160730174010507/30/16 17:40:31  5-MIN KASE 310040Z 33004KT 10SM CLR 28/01 A3017 7610 17 10800 320/04 RMK AO2 T02830011
93073KASE ASE20160730174510507/30/16 17:45:31  5-MIN KASE 310045Z 32007KT 10SM CLR 28/02 A3017 7610 18 10800 310/07 RMK AO2 T02780017
93073KASE ASE20160730175011207/30/16 17:50:31  5-MIN KASE 310050Z 33008KT 10SM CLR 28/02 A3017 7610 18 10700 330/08 RMK AO2 SLP081 T02780017
93073KASE ASE20160730175510507/30/16 17:55:31  5-MIN KASE 310055Z 33007KT 10SM CLR 27/02 A3017 7610 19 10700 320/07 RMK AO2 T02720017
93073KASE ASE20160730180010507/30/16 18:00:31  5-MIN KASE 310100Z 32008KT 10SM CLR 27/02 A3017 7610 19 10700 310/08 RMK AO2 T02720017
93073KASE ASE20160730180510507/30/16 18:05:31  5-MIN KASE 310105Z 32008KT 10SM CLR 27/02 A3017 7610 19 10600 320/08 RMK AO2 T02670017
93073KASE ASE20160730181011007/30/16 18:10:31  5-MIN KASE 310110Z AUTO 33006KT 10SM CLR 26/02 A3017 7610 20 10600 320/06 RMK AO2 T02610017
93073KASE ASE20160730181511007/30/16 18:15:31  5-MIN KASE 310115Z AUTO 32008KT 10SM CLR 26/02 A3018 7600 21 10500 310/08 RMK AO2 T02560022
93073KASE ASE20160730182011007/30/16 18:20:31  5-MIN KASE 310120Z AUTO 31006KT 10SM CLR 26/02 A3018 7600 21 10500 300/06 RMK AO2 T02560017
93073KASE ASE20160730182511007/30/16 18:25:31  5-MIN KASE 310125Z AUTO 30004KT 10SM CLR 25/02 A3018 7610 21 10500 300/04 RMK AO2 T02500017
93073KASE ASE20160730183011007/30/16 18:30:31  5-MIN KASE 310130Z AUTO 31004KT 10SM CLR 24/03 A3018 7610 25 10300 310/04 RMK AO2 T02390028
93073KASE ASE20160730183511007/30/16 18:35:31  5-MIN KASE 310135Z AUTO 32003KT 10SM CLR 25/02 A3018 7600 21 10500 310/03 RMK AO2 T02500017
93073KASE ASE20160730184011007/30/16 18:40:31  5-MIN KASE 310140Z AUTO 30003KT 10SM CLR 24/02 A3018 7610 23 10400 300/03 RMK AO2 T02440022
93073KASE ASE20160730184511007/30/16 18:45:31  5-MIN KASE 310145Z AUTO 00000KT 10SM CLR 23/03 A3018 7610 25 10300 000/00 RMK AO2 T02330028
93073KASE ASE20160730185011707/30/16 18:50:31  5-MIN KASE 310150Z AUTO 22004KT 10SM CLR 22/04 A3017 7610 31 10200 210/04 RMK AO2 SLP085 T02220044
93073KASE ASE20160730185511007/30/16 18:55:31  5-MIN KASE 310155Z AUTO 22004KT 10SM CLR 21/04 A3018 7600 32 10000 210/04 RMK AO2 T02110039
93073KASE ASE20160730190011007/30/16 19:00:31  5-MIN KASE 310200Z AUTO 20003KT 10SM CLR 21/04 A3018 7600 33 10000 190/03 RMK AO2 T02110044
93073KASE ASE20160730190511007/30/16 19:05:31  5-MIN KASE 310205Z AUTO 00000KT 10SM CLR 21/04 A3018 7600 34 10000 000/00 RMK AO2 T02060044
93073KASE ASE20160730191011007/30/16 19:10:31  5-MIN KASE 310210Z AUTO VRB04KT 10SM CLR 21/04 A3018 7600 33 10000 VRB/04 RMK AO2 T02110044
93073KASE ASE20160730191511007/30/16 19:15:31  5-MIN KASE 310215Z AUTO 18008KT 10SM CLR 21/05 A3018 7600 34 10000 170/08 RMK AO2 T02110050
93073KASE ASE20160730192011007/30/16 19:20:31  5-MIN KASE 310220Z AUTO 18006KT 10SM CLR 21/05 A3018 7600 35 10000 170/06 RMK AO2 T02060050
93073KASE ASE20160730192510907/30/16 19:25:31  5-MIN KASE 310225Z AUTO 21005KT 10SM CLR 20/05 A3019 7600 37 9900 200/05 RMK AO2 T02000050
93073KASE ASE20160730193010907/30/16 19:30:31  5-MIN KASE 310230Z AUTO 17004KT 10SM CLR 19/06 A3019 7600 40 9800 160/04 RMK AO2 T01940056
93073KASE ASE20160730193510907/30/16 19:35:31  5-MIN KASE 310235Z AUTO 21004KT 10SM CLR 19/06 A3019 7590 41 9800 200/04 RMK AO2 T01890056
93073KASE ASE20160730194010907/30/16 19:40:31  5-MIN KASE 310240Z AUTO 21004KT 10SM CLR 18/06 A3019 7590 42 9700 210/04 RMK AO2 T01830056
93073KASE ASE20160730194510907/30/16 19:45:31  5-MIN KASE 310245Z AUTO 20004KT 10SM CLR 17/06 A3019 7590 49 9500 190/04 RMK AO2 T01670061
93073KASE ASE20160730195012207/30/16 19:50:31  5-MIN KASE 310250Z AUTO 20004KT 10SM CLR 17/06 A3020 7590 47 9600 190/04 RMK AO2 SLP096 T01720061 56012
93073KASE ASE20160730195510907/30/16 19:55:31  5-MIN KASE 310255Z AUTO 19007KT 10SM CLR 17/06 A3020 7580 46 9600 180/07 RMK AO2 T01720056
93073KASE ASE20160730200010907/30/16 20:00:31  5-MIN KASE 310300Z AUTO 21008KT 10SM CLR 17/05 A3020 7580 44 9600 200/08 RMK AO2 T01720050
93073KASE ASE20160730200510907/30/16 20:05:31  5-MIN KASE 310305Z AUTO 20008KT 10SM CLR 17/05 A3020 7580 44 9600 190/08 RMK AO2 T01720050
93073KASE ASE20160730201010907/30/16 20:10:31  5-MIN KASE 310310Z AUTO 20008KT 10SM CLR 18/05 A3021 7580 42 9600 190/08 RMK AO2 T01780050
93073KASE ASE20160730201510907/30/16 20:15:31  5-MIN KASE 310315Z AUTO 20007KT 10SM CLR 18/04 A3021 7570 39 9700 190/07 RMK AO2 T01830044
93073KASE ASE20160730202010907/30/16 20:20:31  5-MIN KASE 310320Z AUTO 19008KT 10SM CLR 19/04 A3021 7570 38 9800 180/08 RMK AO2 T01890044
93073KASE ASE20160730202510907/30/16 20:25:31  5-MIN KASE 310325Z AUTO 21008KT 10SM CLR 18/05 A3022 7570 42 9600 200/08 RMK AO2 T01780050
93073KASE ASE20160730203010907/30/16 20:30:31  5-MIN KASE 310330Z AUTO 19007KT 10SM CLR 18/04 A3022 7570 41 9600 180/07 RMK AO2 T01780044
93073KASE ASE20160730203510907/30/16 20:35:31  5-MIN KASE 310335Z AUTO 19007KT 10SM CLR 17/05 A3022 7570 44 9600 180/07 RMK AO2 T01720050
93073KASE ASE20160730204010907/30/16 20:40:31  5-MIN KASE 310340Z AUTO 20008KT 10SM CLR 18/05 A3022 7560 42 9600 190/08 RMK AO2 T01780050
93073KASE ASE20160730204510907/30/16 20:45:31  5-MIN KASE 310345Z AUTO 20006KT 10SM CLR 18/05 A3022 7560 42 9600 190/06 RMK AO2 T01780050
93073KASE ASE20160730205011907/30/16 20:50:31  5-MIN KASE 310350Z AUTO 20007KT 10SM FEW110 18/05 A3022 7560 41 9700 200/07 RMK AO2 SLP095 T01830050
93073KASE ASE20160730205511207/30/16 20:55:31  5-MIN KASE 310355Z AUTO 22007KT 10SM FEW110 18/05 A3023 7560 42 9600 210/07 RMK AO2 T01780050
93073KASE ASE20160730210011207/30/16 21:00:31  5-MIN KASE 310400Z AUTO 21007KT 10SM SCT110 18/04 A3023 7560 39 9700 200/07 RMK AO2 T01830044
93073KASE ASE20160730210511207/30/16 21:05:31  5-MIN KASE 310405Z AUTO 20008KT 10SM BKN100 18/04 A3023 7560 39 9700 190/08 RMK AO2 T01830044
93073KASE ASE20160730211011907/30/16 21:10:31  5-MIN KASE 310410Z AUTO 21008KT 10SM FEW085 BKN110 18/04 A3023 7560 39 9700 200/08 RMK AO2 T01830044
93073KASE ASE20160730211512607/30/16 21:15:31  5-MIN KASE 310415Z AUTO 21008KT 10SM FEW060 SCT090 BKN110 18/04 A3023 7560 39 9700 200/08 RMK AO2 T01830044
93073KASE ASE20160730212012607/30/16 21:20:31  5-MIN KASE 310420Z AUTO 21007KT 10SM FEW060 BKN100 OVC120 18/04 A3023 7560 39 9700 210/07 RMK AO2 T01830044
93073KASE ASE20160730212512607/30/16 21:25:31  5-MIN KASE 310425Z AUTO 18009KT 10SM FEW060 SCT090 OVC110 19/04 A3023 7560 38 9700 170/09 RMK AO2 T01890044
93073KASE ASE20160730213012607/30/16 21:30:31  5-MIN KASE 310430Z AUTO 16010KT 10SM FEW060 SCT095 OVC120 19/04 A3022 7560 35 9800 150/10 RMK AO2 T01940039
93073KASE ASE20160730213512607/30/16 21:35:31  5-MIN KASE 310435Z AUTO 18009KT 10SM FEW060 SCT090 BKN120 19/04 A3022 7560 37 9800 170/09 RMK AO2 T01940044
93073KASE ASE20160730214012607/30/16 21:40:31  5-MIN KASE 310440Z AUTO 12004KT 10SM FEW060 FEW095 BKN120 19/06 A3022 7560 41 9700 110/04 RMK AO2 T01890056
93073KASE ASE20160730214511907/30/16 21:45:31  5-MIN KASE 310445Z AUTO 16005KT 10SM FEW100 BKN110 18/06 A3022 7560 46 9600 150/05 RMK AO2 T01780061
93073KASE ASE20160730215011907/30/16 21:50:31  5-MIN KASE 310450Z AUTO VRB06KT 10SM BKN110 18/06 A3022 7560 44 9700 VRB/06 RMK AO2 SLP087 T01830061
93073KASE ASE20160730215511207/30/16 21:55:31  5-MIN KASE 310455Z AUTO 21005KT 10SM BKN110 17/06 A3022 7560 47 9600 210/05 RMK AO2 T01720061
93073KASE ASE20160730220011207/30/16 22:00:31  5-MIN KASE 310500Z AUTO 21005KT 10SM BKN110 18/06 A3022 7560 44 9600 200/05 RMK AO2 T01780056
93073KASE ASE20160730220511207/30/16 22:05:31  5-MIN KASE 310505Z AUTO 21008KT 10SM BKN110 17/06 A3022 7560 46 9600 200/08 RMK AO2 T01720056
93073KASE ASE20160730221011207/30/16 22:10:31  5-MIN KASE 310510Z AUTO 20006KT 10SM SCT110 17/06 A3022 7560 46 9600 190/06 RMK AO2 T01720056
93073KASE ASE20160730221511207/30/16 22:15:31  5-MIN KASE 310515Z AUTO VRB04KT 10SM SCT110 17/06 A3022 7560 46 9600 VRB/04 RMK AO2 T01720056
93073KASE ASE20160730222011207/30/16 22:20:31  5-MIN KASE 310520Z AUTO VRB03KT 10SM FEW110 17/06 A3023 7560 49 9500 VRB/03 RMK AO2 T01670061
93073KASE ASE20160730222510907/30/16 22:25:31  5-MIN KASE 310525Z AUTO 23004KT 10SM CLR 16/06 A3023 7550 49 9400 220/04 RMK AO2 T01610056
93073KASE ASE20160730223010907/30/16 22:30:31  5-MIN KASE 310530Z AUTO 19004KT 10SM CLR 15/06 A3023 7560 53 9300 180/04 RMK AO2 T01500056
93073KASE ASE20160730223510907/30/16 22:35:31  5-MIN KASE 310535Z AUTO 21006KT 10SM CLR 14/06 A3023 7560 59 9200 200/06 RMK AO2 T01390061
93073KASE ASE20160730224010907/30/16 22:40:31  5-MIN KASE 310540Z AUTO 22008KT 10SM CLR 14/06 A3023 7560 55 9200 210/08 RMK AO2 T01440056
93073KASE ASE20160730224510907/30/16 22:45:31  5-MIN KASE 310545Z AUTO 22008KT 10SM CLR 16/06 A3023 7550 51 9400 210/08 RMK AO2 T01560056
93073KASE ASE20160730225013407/30/16 22:50:31  5-MIN KASE 310550Z AUTO 20006KT 10SM CLR 16/05 A3023 7550 49 9400 190/06 RMK AO2 SLP093 T01560050 10283 20139 53005
93073KASE ASE20160730225510907/30/16 22:55:31  5-MIN KASE 310555Z AUTO 16008KT 10SM CLR 16/05 A3024 7550 47 9400 150/08 RMK AO2 T01610050
93073KASE ASE20160730230010907/30/16 23:00:31  5-MIN KASE 310600Z AUTO 18009KT 10SM CLR 17/05 A3024 7550 45 9500 170/09 RMK AO2 T01670050
93073KASE ASE20160730230510907/30/16 23:05:31  5-MIN KASE 310605Z AUTO 19008KT 10SM CLR 15/05 A3024 7550 51 9300 180/08 RMK AO2 T01500050
93073KASE ASE20160730231010907/30/16 23:10:31  5-MIN KASE 310610Z AUTO 21008KT 10SM CLR 14/05 A3024 7550 53 9200 200/08 RMK AO2 T01440050
93073KASE ASE20160730231510907/30/16 23:15:31  5-MIN KASE 310615Z AUTO 22009KT 10SM CLR 14/05 A3024 7550 53 9200 210/09 RMK AO2 T01440050
93073KASE ASE20160730232010907/30/16 23:20:31  5-MIN KASE 310620Z AUTO 21006KT 10SM CLR 14/05 A3024 7550 55 9200 210/06 RMK AO2 T01390050
93073KASE ASE20160730232510907/30/16 23:25:31  5-MIN KASE 310625Z AUTO 20005KT 10SM CLR 14/05 A3023 7550 53 9200 190/05 RMK AO2 T01440050
93073KASE ASE20160730233010907/30/16 23:30:31  5-MIN KASE 310630Z AUTO 20006KT 10SM CLR 13/05 A3024 7550 57 9100 190/06 RMK AO2 T01330050
93073KASE ASE20160730233510907/30/16 23:35:31  5-MIN KASE 310635Z AUTO 21005KT 10SM CLR 13/05 A3024 7550 57 9100 210/05 RMK AO2 T01330050
93073KASE ASE20160730234010907/30/16 23:40:31  5-MIN KASE 310640Z AUTO 19004KT 10SM CLR 13/05 A3024 7550 57 9100 190/04 RMK AO2 T01330050
93073KASE ASE20160730234510907/30/16 23:45:31  5-MIN KASE 310645Z AUTO 19005KT 10SM CLR 14/05 A3024 7550 55 9200 180/05 RMK AO2 T01390050
93073KASE ASE20160730235012607/30/16 23:50:31  5-MIN KASE 310650Z AUTO 20006KT 10SM CLR 13/05 A3024 7550 57 9100 190/06 RMK AO2 SLP098 T01330050 403000100
93073KASE ASE20160730235510907/30/16 23:55:31  5-MIN KASE 310655Z AUTO 20003KT 10SM CLR 13/04 A3024 7550 54 9100 190/03 RMK AO2 T01330044
93073KASE ASE20160731000010907/31/16 00:00:31  5-MIN KASE 310700Z AUTO 20005KT 10SM CLR 13/04 A3024 7550 54 9100 190/05 RMK AO2 T01330044
93073KASE ASE20160731000510907/31/16 00:05:31  5-MIN KASE 310705Z AUTO 19005KT 10SM CLR 14/04 A3024 7550 52 9200 180/05 RMK AO2 T01390044
93073KASE ASE20160731001010907/31/16 00:10:31  5-MIN KASE 310710Z AUTO 21006KT 10SM CLR 14/04 A3024 7550 52 9200 200/06 RMK AO2 T01390044
93073KASE ASE20160731001510907/31/16 00:15:31  5-MIN KASE 310715Z AUTO 21007KT 10SM CLR 13/04 A3024 7550 54 9100 200/07 RMK AO2 T01330044
93073KASE ASE20160731002010907/31/16 00:20:31  5-MIN KASE 310720Z AUTO 21009KT 10SM CLR 14/04 A3024 7550 52 9200 200/09 RMK AO2 T01390044
93073KASE ASE20160731002510907/31/16 00:25:31  5-MIN KASE 310725Z AUTO 21009KT 10SM CLR 14/04 A3023 7550 52 9200 200/09 RMK AO2 T01390044
93073KASE ASE20160731003010907/31/16 00:30:31  5-MIN KASE 310730Z AUTO 21010KT 10SM CLR 14/04 A3023 7550 50 9200 210/10 RMK AO2 T01390039
93073KASE ASE20160731003510907/31/16 00:35:31  5-MIN KASE 310735Z AUTO 21007KT 10SM CLR 14/04 A3023 7550 50 9200 200/07 RMK AO2 T01390039
93073KASE ASE20160731004010907/31/16 00:40:31  5-MIN KASE 310740Z AUTO 21006KT 10SM CLR 14/04 A3023 7550 49 9200 200/06 RMK AO2 T01440039
93073KASE ASE20160731004510907/31/16 00:45:31  5-MIN KASE 310745Z AUTO 20006KT 10SM CLR 15/03 A3024 7550 45 9300 190/06 RMK AO2 T01500033
93073KASE ASE20160731005011607/31/16 00:50:31  5-MIN KASE 310750Z AUTO 19005KT 10SM CLR 15/04 A3023 7550 47 9300 180/05 RMK AO2 SLP093 T01500039
93073KASE ASE20160731005511207/31/16 00:55:31  5-MIN KASE 310755Z AUTO 21008KT 10SM FEW110 13/04 A3023 7560 52 9100 200/08 RMK AO2 T01330039
93073KASE ASE20160731010011207/31/16 01:00:31  5-MIN KASE 310800Z AUTO 21008KT 10SM SCT110 14/04 A3023 7560 50 9200 200/08 RMK AO2 T01390039
93073KASE ASE20160731010511207/31/16 01:05:31  5-MIN KASE 310805Z AUTO 21006KT 10SM SCT110 15/03 A3023 7560 45 9300 200/06 RMK AO2 T01500033
93073KASE ASE20160731011011207/31/16 01:10:31  5-MIN KASE 310810Z AUTO 22008KT 10SM BKN110 14/04 A3023 7560 50 9200 210/08 RMK AO2 T01390039
93073KASE ASE20160731011511207/31/16 01:15:31  5-MIN KASE 310815Z AUTO 21007KT 10SM BKN110 14/04 A3023 7560 50 9200 210/07 RMK AO2 T01390039
93073KASE ASE20160731012011207/31/16 01:20:31  5-MIN KASE 310820Z AUTO 22006KT 10SM BKN110 15/04 A3023 7560 47 9300 210/06 RMK AO2 T01500039
93073KASE ASE20160731012511207/31/16 01:25:31  5-MIN KASE 310825Z AUTO 18005KT 10SM BKN110 16/03 A3023 7560 43 9400 170/05 RMK AO2 T01560033
93073KASE ASE20160731013011207/31/16 01:30:31  5-MIN KASE 310830Z AUTO 19006KT 10SM OVC110 14/04 A3023 7560 49 9200 190/06 RMK AO2 T01440039
93073KASE ASE20160731013511207/31/16 01:35:31  5-MIN KASE 310835Z AUTO 21004KT 10SM OVC120 15/04 A3022 7560 47 9300 200/04 RMK AO2 T01500039
93073KASE ASE20160731014011207/31/16 01:40:31  5-MIN KASE 310840Z AUTO 22006KT 10SM OVC120 15/04 A3022 7560 47 9300 210/06 RMK AO2 T01500039
93073KASE ASE20160731014511207/31/16 01:45:31  5-MIN KASE 310845Z AUTO 22008KT 10SM BKN120 14/04 A3022 7560 49 9300 210/08 RMK AO2 T01440039
93073KASE ASE20160731015012507/31/16 01:50:31  5-MIN KASE 310850Z AUTO 21007KT 10SM BKN110 15/04 A3022 7560 47 9300 200/07 RMK AO2 SLP089 T01500039 51010
93073KASE ASE20160731015511207/31/16 01:55:31  5-MIN KASE 310855Z AUTO 20005KT 10SM BKN110 16/04 A3022 7560 45 9400 190/05 RMK AO2 T01560039
93073KASE ASE20160731020011207/31/16 02:00:31  5-MIN KASE 310900Z AUTO 20006KT 10SM BKN110 16/04 A3022 7560 44 9400 190/06 RMK AO2 T01610039
93073KASE ASE20160731020511207/31/16 02:05:31  5-MIN KASE 310905Z AUTO 20004KT 10SM BKN110 16/04 A3022 7560 44 9400 190/04 RMK AO2 T01610039
93073KASE ASE20160731021011207/31/16 02:10:31  5-MIN KASE 310910Z AUTO 19004KT 10SM BKN100 15/04 A3023 7560 47 9300 180/04 RMK AO2 T01500039
93073KASE ASE20160731021511207/31/16 02:15:31  5-MIN KASE 310915Z AUTO 00000KT 10SM OVC100 16/04 A3023 7560 47 9400 000/00 RMK AO2 T01560044
93073KASE ASE20160731022011207/31/16 02:20:31  5-MIN KASE 310920Z AUTO 00000KT 10SM OVC100 14/04 A3023 7560 52 9200 000/00 RMK AO2 T01390044
93073KASE ASE20160731022511207/31/16 02:25:31  5-MIN KASE 310925Z AUTO 11003KT 10SM OVC110 14/04 A3023 7560 51 9200 100/03 RMK AO2 T01440044
93073KASE ASE20160731023011207/31/16 02:30:31  5-MIN KASE 310930Z AUTO 24004KT 10SM OVC110 14/04 A3023 7560 52 9200 230/04 RMK AO2 T01390044
93073KASE ASE20160731023511207/31/16 02:35:31  5-MIN KASE 310935Z AUTO 22004KT 10SM OVC110 13/04 A3023 7560 54 9100 210/04 RMK AO2 T01330044
93073KASE ASE20160731024011207/31/16 02:40:31  5-MIN KASE 310940Z AUTO 22004KT 10SM OVC110 14/04 A3023 7560 51 9200 210/04 RMK AO2 T01440044
93073KASE ASE20160731024511207/31/16 02:45:31  5-MIN KASE 310945Z AUTO 00000KT 10SM OVC100 14/04 A3023 7560 51 9200 000/00 RMK AO2 T01440044
93073KASE ASE20160731025011907/31/16 02:50:31  5-MIN KASE 310950Z AUTO 00000KT 10SM OVC100 14/04 A3023 7560 51 9200 000/00 RMK AO2 SLP094 T01440044
93073KASE ASE20160731025511207/31/16 02:55:31  5-MIN KASE 310955Z AUTO 00000KT 10SM OVC100 14/05 A3023 7560 55 9200 000/00 RMK AO2 T01390050
93073KASE ASE20160731030011207/31/16 03:00:31  5-MIN KASE 311000Z AUTO 00000KT 10SM OVC100 14/04 A3023 7560 51 9200 000/00 RMK AO2 T01440044
93073KASE ASE20160731030511207/31/16 03:05:31  5-MIN KASE 311005Z AUTO 00000KT 10SM OVC100 15/04 A3023 7560 49 9300 000/00 RMK AO2 T01500044
93073KASE ASE20160731031011207/31/16 03:10:31  5-MIN KASE 311010Z AUTO 00000KT 10SM OVC100 14/04 A3023 7560 51 9200 000/00 RMK AO2 T01440044
93073KASE ASE20160731031511207/31/16 03:15:31  5-MIN KASE 311015Z AUTO 20005KT 10SM BKN100 14/05 A3023 7560 55 9200 190/05 RMK AO2 T01390050
93073KASE ASE20160731032011207/31/16 03:20:31  5-MIN KASE 311020Z AUTO 21007KT 10SM BKN100 14/05 A3023 7550 53 9200 200/07 RMK AO2 T01440050
93073KASE ASE20160731032511207/31/16 03:25:31  5-MIN KASE 311025Z AUTO 20008KT 10SM BKN100 14/04 A3023 7550 51 9200 190/08 RMK AO2 T01440044
93073KASE ASE20160731033011207/31/16 03:30:31  5-MIN KASE 311030Z AUTO 21003KT 10SM BKN100 14/04 A3024 7550 51 9200 200/03 RMK AO2 T01440044
93073KASE ASE20160731033511207/31/16 03:35:31  5-MIN KASE 311035Z AUTO 00000KT 10SM SCT100 13/05 A3024 7550 57 9100 000/00 RMK AO2 T01330050
93073KASE ASE20160731034011207/31/16 03:40:31  5-MIN KASE 311040Z AUTO 00000KT 10SM FEW100 13/04 A3024 7550 54 9100 000/00 RMK AO2 T01330044
93073KASE ASE20160731034511207/31/16 03:45:31  5-MIN KASE 311045Z AUTO 00000KT 10SM FEW100 13/04 A3024 7550 54 9100 000/00 RMK AO2 T01330044
93073KASE ASE20160731035011607/31/16 03:50:31  5-MIN KASE 311050Z AUTO 21004KT 10SM CLR 12/05 A3024 7540 61 9000 200/04 RMK AO2 SLP103 T01220050
93073KASE ASE20160731035510907/31/16 03:55:31  5-MIN KASE 311055Z AUTO 24003KT 10SM CLR 11/05 A3025 7540 68 8800 230/03 RMK AO2 T01060050
93073KASE ASE20160731040010907/31/16 04:00:31  5-MIN KASE 311100Z AUTO 00000KT 10SM CLR 11/04 A3025 7540 63 8900 000/00 RMK AO2 T01110044
93073KASE ASE20160731040510907/31/16 04:05:31  5-MIN KASE 311105Z AUTO 00000KT 10SM CLR 12/05 A3025 7540 61 9000 000/00 RMK AO2 T01220050
93073KASE ASE20160731041010907/31/16 04:10:31  5-MIN KASE 311110Z AUTO 32003KT 10SM CLR 12/04 A3025 7540 61 8900 310/03 RMK AO2 T01170044
93073KASE ASE20160731041510907/31/16 04:15:31  5-MIN KASE 311115Z AUTO 00000KT 10SM CLR 12/04 A3025 7530 61 8900 000/00 RMK AO2 T01170044
93073KASE ASE20160731042010907/31/16 04:20:31  5-MIN KASE 311120Z AUTO 00000KT 10SM CLR 11/05 A3025 7530 66 8800 000/00 RMK AO2 T01110050
93073KASE ASE20160731042510907/31/16 04:25:31  5-MIN KASE 311125Z AUTO 19003KT 10SM CLR 11/04 A3025 7530 66 8800 180/03 RMK AO2 T01060044
93073KASE ASE20160731043010907/31/16 04:30:31  5-MIN KASE 311130Z AUTO 19007KT 10SM CLR 11/04 A3026 7530 66 8800 180/07 RMK AO2 T01060044
93073KASE ASE20160731043510907/31/16 04:35:31  5-MIN KASE 311135Z AUTO 18007KT 10SM CLR 12/04 A3026 7530 59 9000 170/07 RMK AO2 T01220044
93073KASE ASE20160731044010907/31/16 04:40:31  5-MIN KASE 311140Z AUTO 18006KT 10SM CLR 13/04 A3026 7530 56 9000 170/06 RMK AO2 T01280044
93073KASE ASE20160731044510907/31/16 04:45:31  5-MIN KASE 311145Z AUTO 19007KT 10SM CLR 12/04 A3026 7530 59 9000 180/07 RMK AO2 T01220044
93073KASE ASE20160731045013407/31/16 04:50:31  5-MIN KASE 311150Z AUTO 19007KT 10SM CLR 12/04 A3026 7530 61 8900 180/07 RMK AO2 SLP108 T01170044 10167 20106 58003
93073KASE ASE20160731045510907/31/16 04:55:31  5-MIN KASE 311155Z AUTO 19005KT 10SM CLR 12/04 A3026 7530 61 8900 180/05 RMK AO2 T01170044
93073KASE ASE20160731050010907/31/16 05:00:31  5-MIN KASE 311200Z AUTO 19007KT 10SM CLR 12/04 A3026 7530 56 9000 180/07 RMK AO2 T01220039
93073KASE ASE20160731050510907/31/16 05:05:31  5-MIN KASE 311205Z AUTO 20006KT 10SM CLR 12/04 A3026 7530 56 9000 190/06 RMK AO2 T01220039
93073KASE ASE20160731051010907/31/16 05:10:31  5-MIN KASE 311210Z AUTO 17003KT 10SM CLR 12/04 A3026 7530 61 8900 170/03 RMK AO2 T01170044
93073KASE ASE20160731051510907/31/16 05:15:31  5-MIN KASE 311215Z AUTO 19004KT 10SM CLR 12/04 A3026 7530 61 8900 180/04 RMK AO2 T01170044
93073KASE ASE20160731052010907/31/16 05:20:31  5-MIN KASE 311220Z AUTO 18006KT 10SM CLR 11/04 A3027 7520 63 8800 170/06 RMK AO2 T01110044
93073KASE ASE20160731052510907/31/16 05:25:31  5-MIN KASE 311225Z AUTO 17007KT 10SM CLR 11/04 A3027 7520 63 8800 170/07 RMK AO2 T01110044
93073KASE ASE20160731053010907/31/16 05:30:31  5-MIN KASE 311230Z AUTO 19008KT 10SM CLR 11/04 A3027 7520 63 8800 180/08 RMK AO2 T01110044
93073KASE ASE20160731053510907/31/16 05:35:31  5-MIN KASE 311235Z AUTO 20008KT 10SM CLR 11/04 A3028 7510 63 8800 190/08 RMK AO2 T01110044
93073KASE ASE20160731054010907/31/16 05:40:31  5-MIN KASE 311240Z AUTO 19007KT 10SM CLR 11/04 A3028 7510 63 8800 190/07 RMK AO2 T01110044
93073KASE ASE20160731054510907/31/16 05:45:31  5-MIN KASE 311245Z AUTO 17007KT 10SM CLR 12/04 A3028 7510 61 8900 160/07 RMK AO2 T01170044
93073KASE ASE20160731055011107/31/16 05:50:31  5-MIN KASE 311250Z 18006KT 10SM CLR 12/04 A3028 7510 61 8900 170/06 RMK AO2 SLP119 T01170044
93073KASE ASE20160731055510407/31/16 05:55:31  5-MIN KASE 311255Z 16005KT 10SM CLR 12/04 A3028 7510 59 8900 160/05 RMK AO2 T01220044
93073KASE ASE20160731060010407/31/16 06:00:31  5-MIN KASE 311300Z 14005KT 10SM CLR 12/04 A3028 7510 59 8900 140/05 RMK AO2 T01220044
93073KASE ASE20160731060510407/31/16 06:05:31  5-MIN KASE 311305Z 17004KT 10SM CLR 12/05 A3029 7500 61 8900 160/04 RMK AO2 T01220050
93073KASE ASE20160731061010407/31/16 06:10:31  5-MIN KASE 311310Z 20006KT 10SM CLR 13/05 A3029 7500 57 9100 190/06 RMK AO2 T01330050
93073KASE ASE20160731061510407/31/16 06:15:31  5-MIN KASE 311315Z 17003KT 10SM CLR 14/05 A3029 7500 55 9100 160/03 RMK AO2 T01390050
93073KASE ASE20160731062010407/31/16 06:20:31  5-MIN KASE 311320Z VRB04KT 10SM CLR 14/06 A3029 7500 57 9100 VRB/04 RMK AO2 T01390056
93073KASE ASE20160731062510407/31/16 06:25:31  5-MIN KASE 311325Z 16005KT 10SM CLR 14/05 A3029 7500 53 9200 150/05 RMK AO2 T01440050
93073KASE ASE20160731063010407/31/16 06:30:31  5-MIN KASE 311330Z 14003KT 10SM CLR 14/05 A3029 7500 53 9200 130/03 RMK AO2 T01440050
93073KASE ASE20160731063510407/31/16 06:35:31  5-MIN KASE 311335Z 11003KT 10SM CLR 14/06 A3029 7500 55 9200 100/03 RMK AO2 T01440056
93073KASE ASE20160731064010407/31/16 06:40:31  5-MIN KASE 311340Z 10003KT 10SM CLR 14/06 A3029 7500 55 9200 100/03 RMK AO2 T01440056
93073KASE ASE20160731064510407/31/16 06:45:31  5-MIN KASE 311345Z 11003KT 10SM CLR 15/06 A3029 7500 53 9200 100/03 RMK AO2 T01500056
93073KASE ASE20160731065011107/31/16 06:50:31  5-MIN KASE 311350Z 00000KT 10SM CLR 16/05 A3029 7500 49 9300 000/00 RMK AO2 SLP128 T01560050
93073KASE ASE20160731065510407/31/16 06:55:31  5-MIN KASE 311355Z 00000KT 10SM CLR 16/05 A3029 7500 49 9300 000/00 RMK AO2 T01560050
93073KASE ASE20160731070010407/31/16 07:00:31  5-MIN KASE 311400Z 00000KT 10SM CLR 16/05 A3030 7500 47 9400 000/00 RMK AO2 T01610050
93073KASE ASE20160731070510407/31/16 07:05:31  5-MIN KASE 311405Z 00000KT 10SM CLR 17/05 A3029 7500 45 9400 000/00 RMK AO2 T01670050
93073KASE ASE20160731071010407/31/16 07:10:31  5-MIN KASE 311410Z 00000KT 10SM CLR 17/05 A3029 7500 45 9400 000/00 RMK AO2 T01670050
93073KASE ASE20160731071510407/31/16 07:15:31  5-MIN KASE 311415Z 15003KT 10SM CLR 17/05 A3029 7500 44 9500 140/03 RMK AO2 T01720050
93073KASE ASE20160731072010407/31/16 07:20:31  5-MIN KASE 311420Z 16003KT 10SM CLR 17/05 A3029 7500 44 9500 150/03 RMK AO2 T01720050
93073KASE ASE20160731072510407/31/16 07:25:31  5-MIN KASE 311425Z 16004KT 10SM CLR 18/05 A3029 7500 42 9500 150/04 RMK AO2 T01780050
93073KASE ASE20160731073010407/31/16 07:30:31  5-MIN KASE 311430Z VRB04KT 10SM CLR 18/06 A3029 7500 42 9600 VRB/04 RMK AO2 T01830056
93073KASE ASE20160731073510407/31/16 07:35:31  5-MIN KASE 311435Z VRB03KT 10SM CLR 18/06 A3030 7500 42 9600 VRB/03 RMK AO2 T01830056
93073KASE ASE20160731074010407/31/16 07:40:31  5-MIN KASE 311440Z 15003KT 10SM CLR 18/06 A3030 7490 44 9500 150/03 RMK AO2 T01780056
93073KASE ASE20160731074510407/31/16 07:45:31  5-MIN KASE 311445Z 00000KT 10SM CLR 18/06 A3030 7490 42 9600 000/00 RMK AO2 T01830056
93073KASE ASE20160731075011707/31/16 07:50:31  5-MIN KASE 311450Z 00000KT 10SM CLR 19/06 A3030 7500 43 9700 000/00 RMK AO2 SLP131 T01890061 53010
93073KASE ASE20160731075510407/31/16 07:55:31  5-MIN KASE 311455Z 00000KT 10SM CLR 19/06 A3029 7500 41 9700 000/00 RMK AO2 T01890056
93073KASE ASE20160731080010407/31/16 08:00:31  5-MIN KASE 311500Z 00000KT 10SM CLR 19/06 A3029 7500 41 9700 000/00 RMK AO2 T01890056
93073KASE ASE20160731080510407/31/16 08:05:31  5-MIN KASE 311505Z 00000KT 10SM CLR 19/06 A3029 7500 41 9700 000/00 RMK AO2 T01890056
93073KASE ASE20160731081010407/31/16 08:10:31  5-MIN KASE 311510Z 00000KT 10SM CLR 19/06 A3029 7500 40 9700 000/00 RMK AO2 T01940056
93073KASE ASE20160731081510407/31/16 08:15:31  5-MIN KASE 311515Z 00000KT 10SM CLR 20/06 A3029 7500 38 9800 000/00 RMK AO2 T02000056
93073KASE ASE20160731082010407/31/16 08:20:31  5-MIN KASE 311520Z 35003KT 10SM CLR 21/06 A3029 7500 37 9800 340/03 RMK AO2 T02060056
93073KASE ASE20160731082510407/31/16 08:25:31  5-MIN KASE 311525Z 34004KT 10SM CLR 21/06 A3029 7500 36 9900 340/04 RMK AO2 T02110056
93073KASE ASE20160731083010507/31/16 08:30:31  5-MIN KASE 311530Z VRB04KT 10SM CLR 22/06 A3029 7500 34 10000 VRB/04 RMK AO2 T02170056
93073KASE ASE20160731083510507/31/16 08:35:31  5-MIN KASE 311535Z 35005KT 10SM CLR 22/06 A3029 7500 34 10000 340/05 RMK AO2 T02170056
93073KASE ASE20160731084010507/31/16 08:40:31  5-MIN KASE 311540Z VRB05KT 10SM CLR 22/04 A3029 7500 31 10000 VRB/05 RMK AO2 T02220044
93073KASE ASE20160731084510507/31/16 08:45:31  5-MIN KASE 311545Z VRB05KT 10SM CLR 23/05 A3029 7500 31 10100 VRB/05 RMK AO2 T02280050
93073KASE ASE20160731085010207/31/16 08:50:31  5-MIN KASE 311550Z 10SM CLR 23/05 A3029 7500 31 10100 M /M RMK AO2 SLP119 T02280050
93073KASE ASE20160731085510507/31/16 08:55:31  5-MIN KASE 311555Z VRB04KT 10SM CLR 23/06 A3029 7500 31 10100 VRB/04 RMK AO2 T02330056
93073KASE ASE20160731090010507/31/16 09:00:31  5-MIN KASE 311600Z VRB05KT 10SM CLR 23/06 A3029 7500 32 10100 VRB/05 RMK AO2 T02330061
93073KASE ASE20160731090510507/31/16 09:05:31  5-MIN KASE 311605Z 02006KT 10SM CLR 23/06 A3029 7500 32 10100 010/06 RMK AO2 T02330061
93073KASE ASE20160731091010507/31/16 09:10:31  5-MIN KASE 311610Z 01007KT 10SM CLR 24/07 A3029 7500 32 10200 360/07 RMK AO2 T02390067
93073KASE ASE20160731091510507/31/16 09:15:31  5-MIN KASE 311615Z 34008KT 10SM CLR 24/06 A3029 7500 31 10200 330/08 RMK AO2 T02390061
93073KASE ASE20160731092010507/31/16 09:20:31  5-MIN KASE 311620Z 35006KT 10SM CLR 24/07 A3029 7500 31 10300 340/06 RMK AO2 T02440067
93073KASE ASE20160731092510507/31/16 09:25:31  5-MIN KASE 311625Z 33005KT 10SM CLR 24/06 A3029 7500 30 10300 320/05 RMK AO2 T02440061
93073KASE ASE20160731093010507/31/16 09:30:31  5-MIN KASE 311630Z 01009KT 10SM CLR 24/06 A3029 7500 30 10300 360/09 RMK AO2 T02440061
93073KASE ASE20160731093510507/31/16 09:35:31  5-MIN KASE 311635Z 33009KT 10SM CLR 25/07 A3029 7500 30 10300 320/09 RMK AO2 T02500067
93073KASE ASE20160731094010507/31/16 09:40:31  5-MIN KASE 311640Z 01010KT 10SM CLR 24/06 A3029 7500 30 10300 360/10 RMK AO2 T02440061
93073KASE ASE20160731094510507/31/16 09:45:31  5-MIN KASE 311645Z 33009KT 10SM CLR 24/06 A3029 7500 31 10200 320/09 RMK AO2 T02390061
93073KASE ASE20160731095011507/31/16 09:50:31  5-MIN KASE 311650Z 33011KT 10SM FEW120 24/07 A3029 7500 32 10200 320/11 RMK AO2 SLP117 T02390067
93073KASE ASE20160731095511407/31/16 09:55:31  5-MIN KASE 311655Z 31009G20KT 10SM FEW120 24/07 A3029 7500 31 10300 300/09G20 RMK AO2 T02440067
93073KASE ASE20160731100011407/31/16 10:00:31  5-MIN KASE 311700Z 32009G20KT 10SM FEW120 23/07 A3030 7490 33 10100 310/09G20 RMK AO2 T02330067
93073KASE ASE20160731100510807/31/16 10:05:31  5-MIN KASE 311705Z 34011KT 10SM FEW120 23/07 A3030 7490 35 10100 330/11 RMK AO2 T02280067
93073KASE ASE20160731101011407/31/16 10:10:31  5-MIN KASE 311710Z 34012G16KT 10SM FEW120 23/07 A3030 7490 35 10100 330/12G16 RMK AO2 T02330072
93073KASE ASE20160731101510807/31/16 10:15:31  5-MIN KASE 311715Z 35011KT 10SM FEW120 23/07 A3030 7490 35 10100 340/11 RMK AO2 T02330072
93073KASE ASE20160731102010807/31/16 10:20:31  5-MIN KASE 311720Z 35011KT 10SM BKN120 24/07 A3030 7490 34 10200 340/11 RMK AO2 T02390072
93073KASE ASE20160731102510807/31/16 10:25:31  5-MIN KASE 311725Z 35008KT 10SM BKN120 23/07 A3030 7490 35 10100 340/08 RMK AO2 T02330072
93073KASE ASE20160731103012007/31/16 10:30:31  5-MIN KASE 311730Z 35009KT 10SM BKN120 23/07 A3030 7490 35 10100 340/09 RMK AO2 LTG DSNT SW T02330072
93073KASE ASE20160731103512007/31/16 10:35:31  5-MIN KASE 311735Z 35009KT 10SM BKN120 24/07 A3030 7500 34 10200 340/09 RMK AO2 LTG DSNT SW T02390072
93073KASE ASE20160731104012607/31/16 10:40:31  5-MIN KASE 311740Z 33013G17KT 10SM BKN120 24/07 A3029 7500 34 10200 320/13G17 RMK AO2 LTG DSNT SW T02390072
93073KASE ASE20160731104513007/31/16 10:45:31  5-MIN KASE 311745Z 32007G17KT 290V010 10SM BKN120 23/07 A3030 7490 35 10100 310/07G17 280V360 RMK AO2 T02330072
93073KASE ASE20160731105014007/31/16 10:50:31  5-MIN KASE 311750Z 33008KT 10SM SCT100 BKN120 23/07 A3030 7490 36 10100 320/08 RMK AO2 SLP126 T02280072 10250 20111 51009
93073KASE ASE20160731105512407/31/16 10:55:31  5-MIN KASE 311755Z 33007KT 300V010 10SM BKN110 23/07 A3029 7500 36 10100 320/07 290V360 RMK AO2 T02280072
93073KASE ASE20160731110009807/31/16 11:00:31  5-MIN KASE 311800Z 10SM BKN110 22/07 A3029 7500 37 10000 M /M RMK AO2 T02220072
93073KASE ASE20160731110513107/31/16 11:05:31  5-MIN KASE 311805Z 32010KT 280V010 10SM FEW060 BKN110 23/07 A3029 7500 36 10100 310/10 270V360 RMK AO2 T02280072
93073KASE ASE20160731111012807/31/16 11:10:31  5-MIN KASE 311810Z 34008G17KT 10SM FEW037 FEW055 BKN110 23/08 A3029 7500 37 10100 330/08G17 RMK AO2 T02280078
93073KASE ASE20160731111512007/31/16 11:15:31  5-MIN KASE 311815Z 33006G17KT 9SM FEW040 BKN110 23/08 A3029 7500 36 10100 320/06G17 RMK AO2 T02330078
93073KASE ASE20160731112014307/31/16 11:20:31  5-MIN KASE 311820Z 33007G15KT 300V360 9SM FEW039 FEW060 BKN110 23/08 A3029 7500 36 10100 330/07G15 290V350 RMK AO2 T02330078
93073KASE ASE20160731112511507/31/16 11:25:31  5-MIN KASE 311825Z 34007KT 10SM FEW060 SCT110 23/08 A3029 7500 37 10100 330/07 RMK AO2 T02280078
93073KASE ASE20160731113011507/31/16 11:30:31  5-MIN KASE 311830Z 33008KT 10SM FEW060 BKN110 23/08 A3029 7500 37 10100 320/08 RMK AO2 T02280078
93073KASE ASE20160731113511507/31/16 11:35:31  5-MIN KASE 311835Z 35007KT 10SM FEW042 BKN110 23/08 A3028 7510 36 10200 340/07 RMK AO2 T02330078
93073KASE ASE20160731114010807/31/16 11:40:31  5-MIN KASE 311840Z 36005KT 10SM BKN110 23/07 A3028 7510 35 10200 350/05 RMK AO2 T02330072
93073KASE ASE20160731114511907/31/16 11:45:31  5-MIN KASE 311845Z 35009KT 10SM BKN110 24/08 A3028 7510 35 10200 340/09 RMK AO2 LTG DSNT E T02390078
93073KASE ASE20160731115013307/31/16 11:50:31  5-MIN KASE 311850Z 34007KT 10SM FEW060 BKN110 24/08 A3028 7510 34 10300 330/07 RMK AO2 LTG DSNT E SLP123 T02440078
93073KASE ASE20160731115513107/31/16 11:55:31  5-MIN KASE 311855Z 32010KT 10SM VCTS SCT060 OVC110 24/08 A3028 7510 35 10200 310/10 RMK AO2 LTG DSNT E T02390078
93073KASE ASE20160731120013807/31/16 12:00:31  5-MIN KASE 311900Z 33009KT 10SM VCTS BKN060 OVC110 23/08 A3028 7510 37 10100 320/09 RMK AO2 LTG DSNT E AND SW T02280078
93073KASE ASE20160731120514507/31/16 12:05:31  5-MIN KASE 311905Z 34005KT 10SM VCTS SCT060 BKN090 OVC110 23/08 A3028 7510 36 10200 330/05 RMK AO2 LTG DSNT E AND SW T02330078
93073KASE ASE20160731121016207/31/16 12:10:31  5-MIN KASE 311910Z 34008G16KT 310V020 10SM FEW046 BKN060 OVC110 24/08 A3028 7510 36 10200 330/08G16 300V010 RMK AO2 LTG DSNT E AND SW T02390083
93073KASE ASE20160731121513907/31/16 12:15:31  5-MIN KASE 311915Z VRB06G16KT 10SM FEW046 BKN060 BKN075 23/08 A3028 7510 36 10200 VRB/06G16 RMK AO2 LTG DSNT E T02330078
93073KASE ASE20160731122013307/31/16 12:20:31  5-MIN KASE 311920Z 33009G18KT 10SM VCTS FEW046 SCT060 BKN100 23/08 A3028 7510 37 10100 320/09G18 RMK AO2 T02280078
93073KASE ASE20160731122513307/31/16 12:25:31  5-MIN KASE 311925Z VRB04G18KT 10SM VCTS FEW060 SCT070 BKN080 22/08 A3028 7510 39 10000 VRB/04G18 RMK AO2 T02220078
93073KASE ASE20160731123012707/31/16 12:30:31  5-MIN KASE 311930Z 24007KT 10SM VCTS FEW055 BKN070 BKN090 22/08 A3028 7510 40 10000 230/07 RMK AO2 T02220083
93073KASE ASE20160731123514307/31/16 12:35:31  5-MIN KASE 311935Z 30008KT 10SM VCTS -RA FEW050 SCT080 BKN100 22/08 A3028 7510 42 10000 290/08 RMK AO2 RAB35 P0000 T02170083
93073KASE ASE20160731124015407/31/16 12:40:31  5-MIN KASE 311940Z VRB05KT 10SM VCTS -RA FEW065 FEW080 BKN095 22/08 A3028 7510 42 10000 VRB/05 RMK AO2 LTG DSNT E RAB35 P0000 T02170083
93073KASE ASE20160731124514607/31/16 12:45:31  5-MIN KASE 311945Z 30008KT 10SM VCTS FEW065 BKN095 22/08 A3027 7520 42 10000 290/08 RMK AO2 LTG DSNT E RAB35E44 P0000 T02170083
93073KASE ASE20160731125017607/31/16 12:50:31  5-MIN KASE 311950Z 27008KT 250V310 10SM VCTS FEW065 SCT080 OVC100 22/08 A3028 7510 42 10000 260/08 240V300 RMK AO2 LTG DSNT E RAB35E44 SLP124 P0000 T02170083
93073KASE ASE20160731125511907/31/16 12:55:31  5-MIN KASE 311955Z 25008KT 10SM VCTS FEW060 OVC100 21/08 A3027 7520 43 9900 240/08 RMK AO2 T02110083
93073KASE ASE20160731130012607/31/16 13:00:31  5-MIN KASE 312000Z 24009KT 10SM VCTS FEW060 BKN100 OVC120 21/09 A3027 7510 48 9900 230/09 RMK AO2 T02060094
93073KASE ASE20160731130512607/31/16 13:05:31  5-MIN KASE 312005Z 24006KT 10SM VCTS FEW060 SCT080 OVC100 20/10 A3027 7520 52 9800 240/06 RMK AO2 T02000100
93073KASE ASE20160731131014207/31/16 13:10:31  5-MIN KASE 312010Z 26008KT 10SM VCTS -RA SCT060 SCT080 OVC100 21/10 A3027 7520 50 9900 250/08 RMK AO2 RAB10 P0000 T02060100
93073KASE ASE20160731131514207/31/16 13:15:31  5-MIN KASE 312015Z 27008KT 10SM VCTS -RA FEW036 SCT060 OVC110 21/10 A3027 7520 50 9900 270/08 RMK AO2 RAB10 P0000 T02060100
93073KASE ASE20160731132014107/31/16 13:20:31  5-MIN KASE 312020Z 27010KT 10SM VCTS FEW036 FEW060 BKN110 21/11 A3026 7530 52 9900 260/10 RMK AO2 RAB10E20 P0000 T02060106
93073KASE ASE20160731132512307/31/16 13:25:31  5-MIN KASE 312025Z 29011KT 10SM BKN060 22/10 A3027 7520 47 10000 280/11 RMK AO2 RAB10E20 P0000 T02170100
93073KASE ASE20160731133012207/31/16 13:30:31  5-MIN KASE 312030Z 29010KT 10SM BKN060 21/10 A3027 7520 48 9900 280/10 RMK AO2 RAB10E20 P0000 T02110100
93073KASE ASE20160731133513907/31/16 13:35:31  5-MIN KASE 312035Z 31007KT 270V360 10SM BKN060 22/10 A3026 7520 47 10000 300/07 260V350 RMK AO2 RAB10E20 P0000 T02170100
93073KASE ASE20160731134012307/31/16 13:40:31  5-MIN KASE 312040Z 27006KT 10SM BKN060 22/09 A3026 7530 43 10100 260/06 RMK AO2 RAB10E20 P0000 T02220094
93073KASE ASE20160731134512307/31/16 13:45:31  5-MIN KASE 312045Z 00000KT 10SM BKN060 22/09 A3026 7530 43 10100 000/00 RMK AO2 RAB10E20 P0000 T02220094
93073KASE ASE20160731135014207/31/16 13:50:31  5-MIN KASE 312050Z VRB04KT 10SM BKN070 23/09 A3026 7530 41 10200 VRB/04 RMK AO2 RAB10E20 SLP112 P0000 60000 T02330094 55000
93073KASE ASE20160731135512007/31/16 13:55:31  5-MIN KASE 312055Z VRB03KT 10SM BKN100 24/09 A3026 7530 39 10200 VRB/03 RMK AO2 LTG DSNT SE T02390094
93073KASE ASE20160731140011007/31/16 14:00:31  5-MIN KASE 312100Z 10SM SCT100 23/09 A3026 7530 39 10200 M /M RMK AO2 LTG DSNT SE T02330089
93073KASE ASE20160731140512607/31/16 14:05:31  5-MIN KASE 312105Z 35010KT 10SM SCT095 24/09 A3025 7530 36 10300 350/10 RMK AO2 LTG DSNT SE AND W T02440089
93073KASE ASE20160731141012607/31/16 14:10:31  5-MIN KASE 312110Z 01006KT 10SM FEW095 24/08 A3025 7530 36 10200 360/06 RMK AO2 LTG DSNT W AND NW T02390083
93073KASE ASE20160731141512607/31/16 14:15:31  5-MIN KASE 312115Z 34007KT 10SM FEW095 23/08 A3025 7540 36 10200 330/07 RMK AO2 LTG DSNT W AND NW T02330078
93073KASE ASE20160731142012607/31/16 14:20:31  5-MIN KASE 312120Z VRB03KT 10SM SCT100 23/08 A3025 7540 37 10100 VRB/03 RMK AO2 LTG DSNT W AND NW T02280078
93073KASE ASE20160731142512607/31/16 14:25:31  5-MIN KASE 312125Z 35006KT 10SM SCT100 24/08 A3024 7540 35 10300 340/06 RMK AO2 LTG DSNT W AND NW T02390078
93073KASE ASE20160731143012107/31/16 14:30:31  5-MIN KASE 312130Z VRB03KT 10SM SCT100 23/08 A3024 7550 36 10200 VRB/03 RMK AO2 LTG DSNT W-N T02330078
93073KASE ASE20160731143512607/31/16 14:35:31  5-MIN KASE 312135Z VRB04KT 10SM BKN100 23/07 A3024 7550 35 10200 VRB/04 RMK AO2 LTG DSNT N AND NW T02330072
93073KASE ASE20160731144012607/31/16 14:40:31  5-MIN KASE 312140Z 33007KT 10SM BKN080 23/08 A3024 7550 36 10200 320/07 RMK AO2 LTG DSNT N AND NW T02330078
93073KASE ASE20160731144512607/31/16 14:45:31  5-MIN KASE 312145Z 32005KT 10SM BKN080 23/08 A3024 7550 36 10200 310/05 RMK AO2 LTG DSNT N AND NW T02330078
93073KASE ASE20160731145013407/31/16 14:50:31  5-MIN KASE 312150Z 35005KT 10SM BKN090 BKN100 24/08 A3024 7550 35 10300 340/05 RMK AO2 LTG DSNT NW SLP104 T02390078
93073KASE ASE20160731145511507/31/16 14:55:31  5-MIN KASE 312155Z 34005KT 10SM SCT080 BKN100 24/07 A3023 7550 33 10300 330/05 RMK AO2 T02440072
93073KASE ASE20160731150011507/31/16 15:00:31  5-MIN KASE 312200Z 33007KT 10SM SCT085 BKN100 24/07 A3023 7550 33 10300 320/07 RMK AO2 T02440072
93073KASE ASE20160731150511507/31/16 15:05:31  5-MIN KASE 312205Z 35005KT 10SM SCT085 BKN110 24/08 A3023 7550 35 10300 340/05 RMK AO2 T02390078
93073KASE ASE20160731151012607/31/16 15:10:31  5-MIN KASE 312210Z 34006KT 10SM SCT085 BKN110 24/08 A3023 7550 35 10300 330/06 RMK AO2 LTG DSNT S T02390078
93073KASE ASE20160731151512607/31/16 15:15:31  5-MIN KASE 312215Z 35007KT 10SM SCT080 BKN110 24/07 A3023 7550 34 10300 350/07 RMK AO2 LTG DSNT S T02390072
93073KASE ASE20160731152013307/31/16 15:20:31  5-MIN KASE 312220Z 34011KT 10SM FEW080 BKN110 24/08 A3023 7550 35 10300 330/11 RMK AO2 LTG DSNT SE AND S T02390078
93073KASE ASE20160731152513307/31/16 15:25:31  5-MIN KASE 312225Z 34009KT 10SM FEW080 BKN110 23/08 A3023 7550 36 10200 330/09 RMK AO2 LTG DSNT SE AND S T02330078
93073KASE ASE20160731153013307/31/16 15:30:31  5-MIN KASE 312230Z 33007KT 10SM FEW080 BKN110 23/08 A3023 7550 36 10200 320/07 RMK AO2 LTG DSNT SE AND S T02330078
93073KASE ASE20160731153513207/31/16 15:35:31  5-MIN KASE 312235Z 33009KT 10SM FEW080 BKN110 23/08 A3023 7550 36 10200 320/09 RMK AO2 LTG DSNT E AND S T02330078
93073KASE ASE20160731154012507/31/16 15:40:31  5-MIN KASE 312240Z 31009KT 10SM BKN110 23/07 A3023 7560 35 10200 310/09 RMK AO2 LTG DSNT E AND S T02330072
93073KASE ASE20160731154512507/31/16 15:45:31  5-MIN KASE 312245Z 32010KT 10SM BKN110 23/08 A3023 7560 37 10200 310/10 RMK AO2 LTG DSNT E AND S T02280078
93073KASE ASE20160731155012007/31/16 15:50:31  5-MIN KASE 312250Z 33010KT 10SM VCTS BKN110 23/08 A3023 7560 39 10200 320/10 RMK AO2 LTG DSNT E AND S
93073KASE ASE20160731155513207/31/16 15:55:31  5-MIN KASE 312255Z 33007G15KT 10SM VCTS BKN110 23/09 A3022 7560 40 10200 320/07G15 RMK AO2 LTG DSNT E-S T02280089
93073KASE ASE20160731160012607/31/16 16:00:31  5-MIN KASE 312300Z 34009KT 10SM VCTS BKN110 23/09 A3022 7560 41 10200 330/09 RMK AO2 LTG DSNT E-S T02330094
93073KASE ASE20160731160512607/31/16 16:05:31  5-MIN KASE 312305Z 35006KT 10SM VCTS BKN110 23/09 A3023 7560 41 10200 340/06 RMK AO2 LTG DSNT E-S T02330094
93073KASE ASE20160731161012107/31/16 16:10:31  5-MIN KASE 312310Z 34006KT 10SM BKN110 24/09 A3022 7560 38 10300 330/06 RMK AO2 LTG DSNT E-S T02390089
93073KASE ASE20160731161512107/31/16 16:15:31  5-MIN KASE 312315Z 35005KT 10SM BKN110 23/08 A3022 7560 38 10200 340/05 RMK AO2 LTG DSNT E-S T02330083
93073KASE ASE20160731162012007/31/16 16:20:31  5-MIN KASE 312320Z 32006KT 9SM BKN120 23/08 A3022 7560 38 10200 310/06 RMK AO2 LTG DSNT E-S T02330083
93073KASE ASE20160731162512507/31/16 16:25:31  5-MIN KASE 312325Z 33007KT 9SM SCT110 23/08 A3022 7560 39 10200 320/07 RMK AO2 LTG DSNT E AND SE T02280083
93073KASE ASE20160731163012607/31/16 16:30:31  5-MIN KASE 312330Z 34003KT 10SM SCT110 23/08 A3022 7560 37 10200 330/03 RMK AO2 LTG DSNT E AND SE T02280078
93073KASE ASE20160731163512507/31/16 16:35:31  5-MIN KASE 312335Z VRB04KT 10SM FEW120 23/08 A3022 7560 36 10200 VRB/04 RMK AO2 LTG DSNT E AND S T02330078
93073KASE ASE20160731164011907/31/16 16:40:31  5-MIN KASE 312340Z 35005KT 10SM FEW120 23/08 A3022 7570 36 10200 350/05 RMK AO2 LTG DSNT S T02330078
93073KASE ASE20160731164511907/31/16 16:45:31  5-MIN KASE 312345Z 35006KT 10SM SCT120 23/08 A3022 7570 36 10200 340/06 RMK AO2 LTG DSNT S T02330078
93073KASE ASE20160731165016207/31/16 16:50:31  5-MIN KASE 312350Z 33010G16KT 10SM SCT120 23/08 A3022 7570 36 10200 320/10G16 RMK AO2 LTG DSNT E AND S SLP106 60000 T02330078 10244 20200 58010
93073KASE ASE20160731165513107/31/16 16:55:31  5-MIN KASE 312355Z 35006G16KT 10SM FEW120 23/08 A3022 7560 36 10200 340/06G16 RMK AO2 LTG DSNT E AND S T02330078
93073KASE ASE20160731170012507/31/16 17:00:31  5-MIN KASE 010000Z 34006KT 10SM FEW120 23/08 A3022 7560 37 10200 330/06 RMK AO2 LTG DSNT E AND S T02280078
93073KASE ASE20160731170512107/31/16 17:05:31  5-MIN KASE 010005Z 33006KT 10SM FEW120 23/07 A3022 7560 36 10200 320/06 RMK AO2 LTG DSNT E-S T02280072
93073KASE ASE20160731171013107/31/16 17:10:31  5-MIN KASE 010010Z 33006KT 10SM VCTS FEW120 23/08 A3023 7560 37 10200 320/06 RMK AO2 LTG DSNT SE AND S T02280078
93073KASE ASE20160731171512607/31/16 17:15:31  5-MIN KASE 010015Z 35004KT 10SM VCTS BKN120 23/08 A3022 7560 37 10200 340/04 RMK AO2 LTG DSNT E-S T02280078
93073KASE ASE20160731172012607/31/16 17:20:31  5-MIN KASE 010020Z 34005KT 10SM VCTS BKN120 23/08 A3023 7560 37 10200 330/05 RMK AO2 LTG DSNT E-S T02280078
93073KASE ASE20160731172512607/31/16 17:25:31  5-MIN KASE 010025Z 33004KT 10SM VCTS BKN120 23/08 A3023 7560 37 10200 320/04 RMK AO2 LTG DSNT E-S T02280078
93073KASE ASE20160731173013107/31/16 17:30:31  5-MIN KASE 010030Z 00000KT 10SM VCTS BKN120 23/07 A3023 7550 36 10200 000/00 RMK AO2 LTG DSNT SE AND S T02280072
93073KASE ASE20160731173512707/31/16 17:35:31  5-MIN KASE 010035Z 10006KT 10SM VCTS BKN120 22/08 A3023 7560 42 10000 090/06 RMK AO2 LTG DSNT E-SW T02170083
93073KASE ASE20160731174013207/31/16 17:40:31  5-MIN KASE 010040Z 13014G18KT 10SM VCTS BKN120 21/08 A3023 7550 45 9900 120/14G18 RMK AO2 LTG DSNT E-SW T02060083
93073KASE ASE20160731174516507/31/16 17:45:31  5-MIN KASE 010045Z 12018G28KT 10SM TS SCT070 BKN095 20/09 A3024 7550 48 9800 110/18G28 RMK AO2 PK WND 12028/0044 LTG DSNT E AND SW TSB41 T02000089
93073KASE ASE20160731175017207/31/16 17:50:31  5-MIN KASE 010050Z 12016G28KT 10SM TS BKN070 OVC090 19/09 A3024 7550 50 9800 110/16G28 RMK AO2 PK WND 12028/0044 LTG DSNT E AND SE TSB41 SLP125 T01940089
93073KASE ASE20160731175513407/31/16 17:55:31  5-MIN KASE 010055Z 12014G24KT 10SM TS OVC075 19/09 A3024 7540 50 9800 110/14G24 RMK AO2 LTG DSNT E AND SE T01940089
93073KASE ASE20160731180014907/31/16 18:00:31  5-MIN KASE 010100Z 15017G22KT 10SM -TSRA OVC075 19/10 A3026 7530 56 9700 140/17G22 RMK AO2 LTG DSNT E AND SE RAB00 P0000 T01890100
93073KASE ASE20160731180514907/31/16 18:05:31  5-MIN KASE 010105Z 13013G22KT 10SM -TSRA SCT075 BKN090 18/12 A3026 7530 67 9600 120/13G22 RMK AO2 LTG DSNT E RAB00 P0007 T01780117
93073KASE ASE20160731181014907/31/16 18:10:31  5-MIN KASE 010110Z 13016G22KT 10SM +TSRA SCT075 BKN090 17/12 A3026 7530 72 9500 120/16G22 RMK AO2 LTG DSNT E RAB00 P0011 T01670117
93073KASE ASE20160731181514907/31/16 18:15:31  5-MIN KASE 010115Z 15013G21KT 10SM -TSRA SCT075 BKN090 16/12 A3027 7520 77 9400 140/13G21 RMK AO2 LTG DSNT E RAB00 P0011 T01610122
93073KASE ASE20160731182015807/31/16 18:20:31  5-MIN KASE 010120Z 13015G22KT 10SM TS SCT075 BKN090 16/12 A3027 7520 80 9300 120/15G22 RMK AO2 LTG DSNT E RAB00E18 TSE17B18 P0011 T01560122
93073KASE ASE20160731182515807/31/16 18:25:31  5-MIN KASE 010125Z 14012G22KT 10SM TS SCT075 BKN090 16/12 A3027 7520 77 9400 130/12G22 RMK AO2 LTG DSNT E RAB00E18 TSE17B18 P0011 T01610122
93073KASE ASE20160731183014107/31/16 18:30:31  5-MIN KASE 010130Z 15012KT 10SM TS SCT075 BKN090 16/13 A3027 7520 80 9400 140/12 RMK AO2 RAB00E18 TSE17B18 P0011 T01610128
93073KASE ASE20160731183515207/31/16 18:35:31  5-MIN KASE 010135Z 14011KT 10SM TS SCT075 BKN090 16/12 A3027 7520 77 9400 130/11 RMK AO2 LTG DSNT E RAB00E18 TSE17B18 P0011 T01610122
93073KASE ASE20160731184015907/31/16 18:40:31  5-MIN KASE 010140Z 15010KT 10SM TS SCT075 BKN090 16/13 A3027 7520 80 9400 140/10 RMK AO2 LTG DSNT E AND SW RAB00E18 TSE17B18 P0011 T01610128
93073KASE ASE20160731184515907/31/16 18:45:31  5-MIN KASE 010145Z 15010KT 10SM TS SCT075 BKN090 17/12 A3026 7520 75 9500 140/10 RMK AO2 LTG DSNT E AND SW RAB00E18 TSE17B18 P0011 T01670122
93073KASE ASE20160731185016007/31/16 18:50:31  5-MIN KASE 010150Z 14009KT 10SM TS SCT075 BKN090 17/12 A3026 7530 75 9500 130/09 RMK AO2 LTG DSNT SW RAB00E18 TSE17B18 SLP130 P0011 T01670122
93073KASE ASE20160731185512907/31/16 18:55:31  5-MIN KASE 010155Z 15011KT 10SM TS BKN075 OVC090 17/12 A3026 7530 72 9500 140/11 RMK AO2 LTG DSNT SW T01670117
93073KASE ASE20160731190013507/31/16 19:00:31  5-MIN KASE 010200Z 14009G18KT 10SM TS BKN075 OVC090 17/12 A3026 7530 72 9500 140/09G18 RMK AO2 LTG DSNT SW T01670117
93073KASE ASE20160731190512807/31/16 19:05:31  5-MIN KASE 010205Z 14013G18KT 10SM TS OVC075 17/12 A3026 7520 72 9500 130/13G18 RMK AO2 LTG DSNT SW T01670117
93073KASE ASE20160731191012807/31/16 19:10:31  5-MIN KASE 010210Z 14013G18KT 10SM TS OVC075 17/12 A3026 7520 72 9500 140/13G18 RMK AO2 LTG DSNT SW T01670117
93073KASE ASE20160731191512107/31/16 19:15:31  5-MIN KASE 010215Z 14012KT 10SM TS OVC075 17/12 A3027 7520 72 9400 130/12 RMK AO2 LTG DSNT W T01670117
93073KASE ASE20160731192013407/31/16 19:20:31  5-MIN KASE 010220Z 15012G18KT 10SM TS OVC075 17/12 A3027 7520 72 9400 150/12G18 RMK AO2 LTG DSNT SW AND W T01670117
93073KASE ASE20160731192513407/31/16 19:25:31  5-MIN KASE 010225Z 14011G18KT 10SM TS OVC070 17/12 A3027 7520 72 9400 130/11G18 RMK AO2 LTG DSNT SW AND W T01670117
93073KASE ASE20160731193012807/31/16 19:30:31  5-MIN KASE 010230Z 13011KT 10SM TS OVC070 17/12 A3027 7520 72 9400 120/11 RMK AO2 LTG DSNT SW AND W T01670117
93073KASE ASE20160731193512807/31/16 19:35:31  5-MIN KASE 010235Z 13011KT 10SM TS OVC070 16/12 A3028 7510 75 9400 120/11 RMK AO2 LTG DSNT SW AND W T01610117
93073KASE ASE20160731194012907/31/16 19:40:31  5-MIN KASE 010240Z 14011KT 10SM TS SCT060 OVC075 16/12 A3028 7510 75 9400 130/11 RMK AO2 LTG DSNT SW T01610117
93073KASE ASE20160731194514707/31/16 19:45:31  5-MIN KASE 010245Z 17009KT 7SM TS FEW018 SCT060 OVC075 16/12 A3028 7510 77 9400 160/09 RMK AO2 LTG DSNT N AND SW P0001 T01610122
93073KASE ASE20160731195016107/31/16 19:50:31  5-MIN KASE 010250Z 19009KT 7SM TS FEW018 BKN065 OVC080 16/13 A3029 7500 83 9300 180/09 RMK AO2 LTG DSNT W-N SLP134 P0002 60013 T01560128 56011
93073KASE ASE20160731195513607/31/16 19:55:31  5-MIN KASE 010255Z 21008KT 9SM TS FEW019 BKN065 OVC080 16/13 A3029 7500 83 9300 200/08 RMK AO2 LTG DSNT W-N T01560128
93073KASE ASE20160731200014207/31/16 20:00:31  5-MIN KASE 010300Z 14007KT 10SM TS FEW019 BKN065 OVC080 16/13 A3030 7490 83 9300 130/07 RMK AO2 LTG DSNT W AND NW T01560128
93073KASE ASE20160731200514107/31/16 20:05:31  5-MIN KASE 010305Z 15005KT 9SM TS FEW019 BKN065 OVC080 16/13 A3030 7490 83 9300 140/05 RMK AO2 LTG DSNT NW P0001 T01560128
93073KASE ASE20160731201012907/31/16 20:10:31  5-MIN KASE 010310Z 13006KT 8SM TS FEW019 BKN050 OVC070 16/13 A3030 7490 83 9300 130/06 RMK AO2 P0001 T01560128
93073KASE ASE20160731201513607/31/16 20:15:31  5-MIN KASE 010315Z 14006KT 6SM TS HZ SCT050 OVC065 16/13 A3031 7480 83 9300 130/06 RMK AO2 LTG DSNT W P0002 T01560128
93073KASE ASE20160731202013607/31/16 20:20:31  5-MIN KASE 010320Z 20004KT 6SM TS HZ FEW050 OVC070 16/13 A3032 7480 83 9300 190/04 RMK AO2 LTG DSNT W P0003 T01560128
93073KASE ASE20160731202513607/31/16 20:25:31  5-MIN KASE 010325Z VRB03KT 6SM TS HZ FEW050 OVC065 16/13 A3032 7470 83 9300 VRB/03 RMK AO2 LTG DSNT W P0004 T01560128
93073KASE ASE20160731203014307/31/16 20:30:31  5-MIN KASE 010330Z 14006KT 6SM TS HZ FEW028 SCT050 OVC065 16/13 A3032 7470 83 9300 130/06 RMK AO2 LTG DSNT W P0005 T01560128
93073KASE ASE20160731203514307/31/16 20:35:31  5-MIN KASE 010335Z 16007KT 5SM TS BR FEW023 SCT050 OVC065 15/13 A3032 7470 90 9200 150/07 RMK AO2 LTG DSNT W P0006 T01500133
93073KASE ASE20160731204014307/31/16 20:40:31  5-MIN KASE 010340Z 18007KT 3SM TS BR FEW023 SCT042 OVC065 15/14 A3033 7470 93 9200 170/07 RMK AO2 LTG DSNT W P0010 T01500139
93073KASE ASE20160731204512507/31/16 20:45:31  5-MIN KASE 010345Z VRB05KT 3SM TS BR SCT043 OVC070 15/13 A3033 7460 90 9200 VRB/05 RMK AO2 P0011 T01500133
93073KASE ASE20160731205013907/31/16 20:50:31  5-MIN KASE 010350Z 11004KT 5SM TS BR FEW045 BKN070 OVC080 14/13 A3033 7470 93 9100 100/04 RMK AO2 SLP141 P0012 T01440133
93073KASE ASE20160731205511607/31/16 20:55:31  5-MIN KASE 010355Z 14005KT 7SM TS FEW043 OVC075 14/13 A3033 7470 93 9100 140/05 RMK AO2 T01440133
93073KASE ASE20160731210012207/31/16 21:00:31  5-MIN KASE 010400Z 15006KT 8SM TS SCT046 OVC075 14/13 A3033 7460 93 9100 150/06 RMK AO2 P0001 T01440133
93073KASE ASE20160731210513007/31/16 21:05:31  5-MIN KASE 010405Z 00000KT 10SM TS FEW042 FEW050 OVC075 15/13 A3034 7450 86 9200 000/00 RMK AO2 P0001 T01500128
93073KASE ASE20160731211013007/31/16 21:10:31  5-MIN KASE 010410Z VRB03KT 10SM TS FEW050 OVC075 14/13 A3035 7440 90 9100 VRB/03 RMK AO2 PRESRR P0001 T01440128
93073KASE ASE20160731211513007/31/16 21:15:31  5-MIN KASE 010415Z 36005KT 10SM TS FEW050 OVC075 14/13 A3036 7440 93 9100 360/05 RMK AO2 PRESRR P0001 T01440133
93073KASE ASE20160731212012307/31/16 21:20:31  5-MIN KASE 010420Z 00000KT 10SM TS SCT050 OVC075 14/13 A3036 7440 93 9100 000/00 RMK AO2 P0001 T01440133
93073KASE ASE20160731212513007/31/16 21:25:31  5-MIN KASE 010425Z 00000KT 10SM TS FEW028 BKN050 OVC075 14/13 A3036 7440 93 9100 000/00 RMK AO2 P0001 T01440133
93073KASE ASE20160731213012907/31/16 21:30:31  5-MIN KASE 010430Z 00000KT 7SM TS FEW017 BKN055 OVC075 14/14 A3036 7440 96 9100 000/00 RMK AO2 P0003 T01440139
93073KASE ASE20160731213513207/31/16 21:35:31  5-MIN KASE 010435Z 20007KT 4SM TS BR FEW015 BKN050 OVC070 14/14 A3036 7440 96 9100 200/07 RMK AO2 P0004 T01440139
93073KASE ASE20160731214013207/31/16 21:40:31  5-MIN KASE 010440Z 17008KT 4SM TS BR FEW015 BKN050 OVC075 14/13 A3036 7440 93 9100 160/08 RMK AO2 P0005 T01440133
93073KASE ASE20160731214512907/31/16 21:45:31  5-MIN KASE 010445Z 13006KT 7SM TS FEW015 BKN055 OVC085 14/13 A3035 7440 93 9100 130/06 RMK AO2 P0005 T01440133
93073KASE ASE20160731215013707/31/16 21:50:31  5-MIN KASE 010450Z 14008KT 10SM TS FEW016 BKN080 OVC090 14/13 A3035 7450 93 9100 140/08 RMK AO2 SLP144 P0005 T01440133
93073KASE ASE20160731215513707/31/16 21:55:31  5-MIN KASE 010455Z 14011G16KT 10SM TS FEW015 SCT050 OVC080 14/13 A3033 7460 93 9100 130/11G16 RMK AO2 PRESFR T01440133
93073KASE ASE20160731220012407/31/16 22:00:31  5-MIN KASE 010500Z 15010KT 10SM TS FEW015 BKN055 OVC085 14/13 A3034 7460 93 9100 140/10 RMK AO2 T01440133
93073KASE ASE20160731220513007/31/16 22:05:31  5-MIN KASE 010505Z 14012KT 10SM TS FEW015 BKN080 OVC100 14/13 A3034 7460 93 9100 130/12 RMK AO2 P0001 T01440133
93073KASE ASE20160731221013007/31/16 22:10:31  5-MIN KASE 010510Z 14013KT 10SM TS FEW036 SCT085 BKN110 14/13 A3032 7470 90 9100 130/13 RMK AO2 P0001 T01440128
93073KASE ASE20160731221513607/31/16 22:15:31  5-MIN KASE 010515Z 14013G20KT 10SM TS FEW015 SCT080 BKN110 14/13 A3032 7470 90 9100 130/13G20 RMK AO2 P0001 T01440128
93073KASE ASE20160731222013607/31/16 22:20:31  5-MIN KASE 010520Z 13014G24KT 10SM TS FEW017 SCT036 BKN110 14/12 A3032 7470 86 9100 130/14G24 RMK AO2 P0001 T01440122
93073KASE ASE20160731222512907/31/16 22:25:31  5-MIN KASE 010525Z 14012G24KT 10SM TS FEW017 SCT110 14/12 A3032 7470 86 9100 130/12G24 RMK AO2 P0001 T01440122
93073KASE ASE20160731223012907/31/16 22:30:31  5-MIN KASE 010530Z 14014G21KT 10SM TS FEW017 SCT110 14/12 A3031 7480 86 9100 130/14G21 RMK AO2 P0001 T01440122
93073KASE ASE20160731223512207/31/16 22:35:31  5-MIN KASE 010535Z 14009G18KT 10SM TS FEW017 14/12 A3031 7480 86 9200 130/09G18 RMK AO2 P0001 T01440122
93073KASE ASE20160731224011607/31/16 22:40:31  5-MIN KASE 010540Z 14011KT 10SM TS FEW018 14/12 A3031 7480 86 9100 130/11 RMK AO2 P0001 T01440122
93073KASE ASE20160731224511307/31/16 22:45:31  5-MIN KASE 010545Z 14011KT 10SM TS CLR 15/12 A3031 7490 80 9200 130/11 RMK AO2 P0001 T01500117
93073KASE ASE20160731225015007/31/16 22:50:31  5-MIN KASE 010550Z 14011G18KT 10SM TS CLR 15/12 A3031 7490 80 9200 130/11G18 RMK AO2 SLP133 P0001 60031 T01500117 10233 20144 53021
93073KASE ASE20160731225511307/31/16 22:55:31  5-MIN KASE 010555Z 14012G19KT 10SM TS CLR 15/11 A3031 7490 74 9200 130/12G19 RMK AO2 T01500106
93073KASE ASE20160731230011307/31/16 23:00:31  5-MIN KASE 010600Z 14012G20KT 10SM TS CLR 16/11 A3031 7490 72 9300 130/12G20 RMK AO2 T01560106
93073KASE ASE20160731230511307/31/16 23:05:31  5-MIN KASE 010605Z 14008G20KT 10SM TS CLR 15/11 A3031 7480 74 9200 130/08G20 RMK AO2 T01500106
93073KASE ASE20160731231010707/31/16 23:10:31  5-MIN KASE 010610Z 14008KT 10SM TS CLR 14/11 A3031 7490 80 9200 130/08 RMK AO2 T01440111
93073KASE ASE20160731231511207/31/16 23:15:31  5-MIN KASE 010615Z AUTO 15008KT 10SM TS CLR 14/11 A3031 7480 80 9200 150/08 RMK AO2 T01440111
93073KASE ASE20160731232010907/31/16 23:20:31  5-MIN KASE 010620Z AUTO 16006KT 10SM CLR 15/11 A3031 7490 77 9200 150/06 RMK AO2 T01500111
93073KASE ASE20160731232510907/31/16 23:25:31  5-MIN KASE 010625Z AUTO 16009KT 10SM CLR 15/11 A3031 7490 77 9200 150/09 RMK AO2 T01500111
93073KASE ASE20160731233010907/31/16 23:30:31  5-MIN KASE 010630Z AUTO 15010KT 10SM CLR 15/11 A3030 7490 74 9200 140/10 RMK AO2 T01500106
93073KASE ASE20160731233510907/31/16 23:35:31  5-MIN KASE 010635Z AUTO 15011KT 10SM CLR 14/11 A3030 7490 77 9200 140/11 RMK AO2 T01440106
93073KASE ASE20160731234010907/31/16 23:40:31  5-MIN KASE 010640Z AUTO 15011KT 10SM CLR 15/10 A3030 7490 72 9200 140/11 RMK AO2 T01500100
93073KASE ASE20160731234510907/31/16 23:45:31  5-MIN KASE 010645Z AUTO 15012KT 10SM CLR 15/10 A3030 7490 72 9200 140/12 RMK AO2 T01500100
93073KASE ASE20160731235012607/31/16 23:50:31  5-MIN KASE 010650Z AUTO 14007KT 10SM CLR 14/10 A3030 7490 77 9100 130/07 RMK AO2 SLP128 T01390100 402500106
93073KASE ASE20160731235510907/31/16 23:55:31  5-MIN KASE 010655Z AUTO 14006KT 10SM CLR 13/11 A3030 7490 83 9000 130/06 RMK AO2 T01330106
