04850KAOH AOH20160401000011404/01/16 00:00:31  5-MIN KAOH 010500Z AUTO 24007KT 10SM SCT110 11/07 A2958 1290 77 1100 250/07 RMK AO2 T01060067 $
04850KAOH AOH20160401000511404/01/16 00:05:31  5-MIN KAOH 010505Z AUTO 25006KT 10SM SCT110 11/07 A2958 1300 77 1100 250/06 RMK AO2 T01060067 $
04850KAOH AOH20160401001011404/01/16 00:10:31  5-MIN KAOH 010510Z AUTO 26007KT 10SM SCT110 11/07 A2958 1300 77 1100 260/07 RMK AO2 T01060067 $
04850KAOH AOH20160401001511404/01/16 00:15:31  5-MIN KAOH 010515Z AUTO 25009KT 10SM SCT110 10/07 A2959 1290 80 1000 250/09 RMK AO2 T01000067 $
04850KAOH AOH20160401002011404/01/16 00:20:31  5-MIN KAOH 010520Z AUTO 24007KT 10SM SCT110 11/07 A2959 1290 77 1100 250/07 RMK AO2 T01060067 $
04850KAOH AOH20160401010012104/01/16 01:00:31  5-MIN KAOH 010600Z AUTO 25010KT 10SM FEW048 FEW120 11/07 A2960 1270 77 1100 260/10 RMK AO2 T01060067 $
04850KAOH AOH20160401010511404/01/16 01:05:31  5-MIN KAOH 010605Z AUTO 27010KT 10SM FEW120 11/07 A2960 1280 77 1100 270/10 RMK AO2 T01060067 $
04850KAOH AOH20160401011011104/01/16 01:10:31  5-MIN KAOH 010610Z AUTO 26008KT 10SM CLR 10/07 A2959 1280 80 1000 260/08 RMK AO2 T01000067 $
04850KAOH AOH20160401011511104/01/16 01:15:31  5-MIN KAOH 010615Z AUTO 24007KT 10SM CLR 09/07 A2960 1280 83 1000 240/07 RMK AO2 T00940067 $
04850KAOH AOH20160401012011104/01/16 01:20:31  5-MIN KAOH 010620Z AUTO 24007KT 10SM CLR 10/07 A2959 1280 80 1000 240/07 RMK AO2 T01000067 $
04850KAOH AOH20160401012511104/01/16 01:25:31  5-MIN KAOH 010625Z AUTO 24009KT 10SM CLR 10/07 A2960 1280 80 1000 240/09 RMK AO2 T01000067 $
04850KAOH AOH20160401013011104/01/16 01:30:31  5-MIN KAOH 010630Z AUTO 25009KT 10SM CLR 10/07 A2960 1280 80 1000 250/09 RMK AO2 T01000067 $
04850KAOH AOH20160401013511104/01/16 01:35:31  5-MIN KAOH 010635Z AUTO 24009KT 10SM CLR 10/07 A2960 1270 80 1000 250/09 RMK AO2 T01000067 $
04850KAOH AOH20160401014011104/01/16 01:40:31  5-MIN KAOH 010640Z AUTO 23013KT 10SM CLR 10/07 A2961 1270 80 1000 240/13 RMK AO2 T01000067 $
04850KAOH AOH20160401014511104/01/16 01:45:31  5-MIN KAOH 010645Z AUTO 25013KT 10SM CLR 10/07 A2960 1270 80 1000 250/13 RMK AO2 T01000067 $
04850KAOH AOH20160401015011804/01/16 01:50:31  5-MIN KAOH 010650Z AUTO 26015KT 10SM CLR 10/07 A2960 1280 80 1000 260/15 RMK AO2 SLP022 T01000067 $
04850KAOH AOH20160401015511404/01/16 01:55:31  5-MIN KAOH 010655Z AUTO 26015KT 10SM FEW021 10/07 A2960 1270 80 1000 270/15 RMK AO2 T01000067 $
04850KAOH AOH20160401020012004/01/16 02:00:31  5-MIN KAOH 010700Z AUTO 26011G20KT 10SM SCT021 10/07 A2961 1270 80 1000 260/11G20 RMK AO2 T01000067 $
04850KAOH AOH20160401020511404/01/16 02:05:31  5-MIN KAOH 010705Z AUTO 25013KT 10SM BKN021 10/07 A2961 1270 80 1000 260/13 RMK AO2 T01000067 $
04850KAOH AOH20160401021011304/01/16 02:10:31  5-MIN KAOH 010710Z AUTO 25010KT 10SM BKN021 09/07 A2961 1270 83 900 250/10 RMK AO2 T00940067 $
04850KAOH AOH20160401021511304/01/16 02:15:31  5-MIN KAOH 010715Z AUTO 25011KT 10SM BKN021 09/07 A2961 1270 83 900 250/11 RMK AO2 T00940067 $
04850KAOH AOH20160401022011304/01/16 02:20:31  5-MIN KAOH 010720Z AUTO 24011KT 10SM BKN020 09/07 A2961 1260 83 900 250/11 RMK AO2 T00940067 $
04850KAOH AOH20160401022511304/01/16 02:25:31  5-MIN KAOH 010725Z AUTO 25011KT 10SM BKN020 09/07 A2961 1260 83 900 250/11 RMK AO2 T00940067 $
04850KAOH AOH20160401023011304/01/16 02:30:31  5-MIN KAOH 010730Z AUTO 25011KT 10SM SCT020 09/07 A2961 1260 83 900 250/11 RMK AO2 T00940067 $
04850KAOH AOH20160401023511304/01/16 02:35:31  5-MIN KAOH 010735Z AUTO 25010KT 10SM SCT018 09/07 A2961 1270 86 900 260/10 RMK AO2 T00890067 $
04850KAOH AOH20160401024011304/01/16 02:40:31  5-MIN KAOH 010740Z AUTO 26013KT 10SM SCT018 09/06 A2961 1270 83 900 260/13 RMK AO2 T00890061 $
04850KAOH AOH20160401024511304/01/16 02:45:31  5-MIN KAOH 010745Z AUTO 25010KT 10SM FEW018 09/06 A2961 1270 83 900 260/10 RMK AO2 T00890061 $
04850KAOH AOH20160401025012004/01/16 02:50:31  5-MIN KAOH 010750Z AUTO 25012KT 10SM FEW018 09/06 A2960 1270 79 900 260/12 RMK AO2 SLP024 T00890056 $
04850KAOH AOH20160401025511304/01/16 02:55:31  5-MIN KAOH 010755Z AUTO 26012KT 10SM FEW018 08/06 A2961 1270 82 800 260/12 RMK AO2 T00830056 $
04850KAOH AOH20160401030011304/01/16 03:00:31  5-MIN KAOH 010800Z AUTO 26011KT 10SM FEW017 08/06 A2961 1270 82 800 260/11 RMK AO2 T00830056 $
04850KAOH AOH20160401030511004/01/16 03:05:31  5-MIN KAOH 010805Z AUTO 25011KT 10SM CLR 08/06 A2961 1270 82 800 260/11 RMK AO2 T00830056 $
04850KAOH AOH20160401031011004/01/16 03:10:31  5-MIN KAOH 010810Z AUTO 25010KT 10SM CLR 08/06 A2961 1270 82 800 260/10 RMK AO2 T00830056 $
04850KAOH AOH20160401031511004/01/16 03:15:31  5-MIN KAOH 010815Z AUTO 25009KT 10SM CLR 08/06 A2961 1270 82 800 260/09 RMK AO2 T00830056 $
04850KAOH AOH20160401032011004/01/16 03:20:31  5-MIN KAOH 010820Z AUTO 25010KT 10SM CLR 08/06 A2961 1270 86 700 260/10 RMK AO2 T00780056 $
04850KAOH AOH20160401032511004/01/16 03:25:31  5-MIN KAOH 010825Z AUTO 26012KT 10SM CLR 08/05 A2961 1270 79 800 260/12 RMK AO2 T00830050 $
04850KAOH AOH20160401033011004/01/16 03:30:31  5-MIN KAOH 010830Z AUTO 25012KT 10SM CLR 08/05 A2961 1270 79 800 260/12 RMK AO2 T00830050 $
04850KAOH AOH20160401033511004/01/16 03:35:31  5-MIN KAOH 010835Z AUTO 25011KT 10SM CLR 08/05 A2961 1270 82 700 260/11 RMK AO2 T00780050 $
04850KAOH AOH20160401034011004/01/16 03:40:31  5-MIN KAOH 010840Z AUTO 25009KT 10SM CLR 08/05 A2960 1270 82 700 260/09 RMK AO2 T00780050 $
04850KAOH AOH20160401034511004/01/16 03:45:31  5-MIN KAOH 010845Z AUTO 25010KT 10SM CLR 08/04 A2961 1270 79 700 260/10 RMK AO2 T00780044 $
04850KAOH AOH20160401035012304/01/16 03:50:31  5-MIN KAOH 010850Z AUTO 25012KT 10SM CLR 08/04 A2960 1270 79 700 260/12 RMK AO2 SLP024 T00780044 53022 $
04850KAOH AOH20160401035511004/01/16 03:55:31  5-MIN KAOH 010855Z AUTO 26012KT 10SM CLR 08/04 A2960 1270 79 700 260/12 RMK AO2 T00780044 $
04850KAOH AOH20160401040011004/01/16 04:00:31  5-MIN KAOH 010900Z AUTO 26011KT 10SM CLR 07/04 A2961 1270 82 700 270/11 RMK AO2 T00720044 $
04850KAOH AOH20160401040511004/01/16 04:05:31  5-MIN KAOH 010905Z AUTO 26012KT 10SM CLR 08/04 A2961 1260 79 700 270/12 RMK AO2 T00780044 $
04850KAOH AOH20160401041011004/01/16 04:10:31  5-MIN KAOH 010910Z AUTO 26012KT 10SM CLR 07/04 A2961 1260 82 700 260/12 RMK AO2 T00720044 $
04850KAOH AOH20160401041511004/01/16 04:15:31  5-MIN KAOH 010915Z AUTO 25012KT 10SM CLR 07/04 A2962 1260 79 700 260/12 RMK AO2 T00720039 $
04850KAOH AOH20160401042011004/01/16 04:20:31  5-MIN KAOH 010920Z AUTO 25012KT 10SM CLR 07/04 A2962 1260 79 700 250/12 RMK AO2 T00720039 $
04850KAOH AOH20160401042511004/01/16 04:25:31  5-MIN KAOH 010925Z AUTO 25012KT 10SM CLR 07/04 A2962 1260 79 700 260/12 RMK AO2 T00720039 $
04850KAOH AOH20160401043011004/01/16 04:30:31  5-MIN KAOH 010930Z AUTO 25010KT 10SM CLR 07/04 A2962 1250 79 700 250/10 RMK AO2 T00720039 $
04850KAOH AOH20160401043511004/01/16 04:35:31  5-MIN KAOH 010935Z AUTO 24010KT 10SM CLR 07/04 A2962 1250 79 700 250/10 RMK AO2 T00720039 $
04850KAOH AOH20160401044011004/01/16 04:40:31  5-MIN KAOH 010940Z AUTO 25009KT 10SM CLR 07/04 A2963 1250 82 600 250/09 RMK AO2 T00670039 $
04850KAOH AOH20160401044511004/01/16 04:45:31  5-MIN KAOH 010945Z AUTO 25010KT 10SM CLR 07/04 A2963 1250 82 600 250/10 RMK AO2 T00670039 $
04850KAOH AOH20160401045011704/01/16 04:50:31  5-MIN KAOH 010950Z AUTO 25010KT 10SM CLR 07/04 A2963 1250 82 600 250/10 RMK AO2 SLP031 T00670039 $
04850KAOH AOH20160401045511004/01/16 04:55:31  5-MIN KAOH 010955Z AUTO 24009KT 10SM CLR 07/04 A2963 1250 82 600 250/09 RMK AO2 T00670039 $
04850KAOH AOH20160401050011004/01/16 05:00:31  5-MIN KAOH 011000Z AUTO 24010KT 10SM CLR 07/04 A2963 1250 79 700 250/10 RMK AO2 T00720039 $
04850KAOH AOH20160401050511004/01/16 05:05:31  5-MIN KAOH 011005Z AUTO 24010KT 10SM CLR 07/04 A2963 1250 79 700 240/10 RMK AO2 T00720039 $
04850KAOH AOH20160401051011004/01/16 05:10:31  5-MIN KAOH 011010Z AUTO 24010KT 10SM CLR 07/04 A2963 1250 79 700 250/10 RMK AO2 T00720039 $
04850KAOH AOH20160401051511004/01/16 05:15:31  5-MIN KAOH 011015Z AUTO 25010KT 10SM CLR 07/04 A2963 1250 79 600 250/10 RMK AO2 T00720039 $
04850KAOH AOH20160401052011004/01/16 05:20:31  5-MIN KAOH 011020Z AUTO 25009KT 10SM CLR 07/04 A2963 1240 79 600 250/09 RMK AO2 T00720039 $
04850KAOH AOH20160401052511004/01/16 05:25:31  5-MIN KAOH 011025Z AUTO 25010KT 10SM CLR 07/04 A2964 1240 82 600 250/10 RMK AO2 T00670039 $
04850KAOH AOH20160401053011004/01/16 05:30:31  5-MIN KAOH 011030Z AUTO 25010KT 10SM CLR 07/04 A2964 1240 82 600 260/10 RMK AO2 T00670039 $
04850KAOH AOH20160401053511004/01/16 05:35:31  5-MIN KAOH 011035Z AUTO 25010KT 10SM CLR 07/04 A2964 1240 82 600 260/10 RMK AO2 T00670039 $
04850KAOH AOH20160401054010804/01/16 05:40:31  5-MIN KAOH 011040Z AUTO 25011KT 10SM CLR 07/04 A2964 1240 82 600 250/11 RMK AO2 T00670039
04850KAOH AOH20160401054510804/01/16 05:45:31  5-MIN KAOH 011045Z AUTO 25012KT 10SM CLR 07/04 A2964 1240 82 600 250/12 RMK AO2 T00670039
04850KAOH AOH20160401055011504/01/16 05:50:31  5-MIN KAOH 011050Z AUTO 25010KT 10SM CLR 07/04 A2964 1240 82 600 260/10 RMK AO2 SLP036 T00670039
04850KAOH AOH20160401055510804/01/16 05:55:31  5-MIN KAOH 011055Z AUTO 25011KT 10SM CLR 07/04 A2964 1240 82 600 260/11 RMK AO2 T00670039
04850KAOH AOH20160401060010804/01/16 06:00:31  5-MIN KAOH 011100Z AUTO 25011KT 10SM CLR 07/04 A2964 1240 82 600 260/11 RMK AO2 T00670039
04850KAOH AOH20160401060511104/01/16 06:05:31  5-MIN KAOH 011105Z AUTO 26010KT 10SM FEW039 07/04 A2964 1230 86 600 260/10 RMK AO2 T00670044
04850KAOH AOH20160401061011104/01/16 06:10:31  5-MIN KAOH 011110Z AUTO 25010KT 10SM SCT039 07/04 A2965 1230 86 600 260/10 RMK AO2 T00670044
04850KAOH AOH20160401061511104/01/16 06:15:31  5-MIN KAOH 011115Z AUTO 25009KT 10SM BKN039 07/04 A2964 1230 86 600 260/09 RMK AO2 T00670044
04850KAOH AOH20160401062011104/01/16 06:20:31  5-MIN KAOH 011120Z AUTO 25010KT 10SM BKN039 07/04 A2964 1230 86 600 260/10 RMK AO2 T00670044
04850KAOH AOH20160401062511104/01/16 06:25:31  5-MIN KAOH 011125Z AUTO 25010KT 10SM BKN040 07/04 A2964 1230 86 600 260/10 RMK AO2 T00670044
04850KAOH AOH20160401063011104/01/16 06:30:31  5-MIN KAOH 011130Z AUTO 25011KT 10SM OVC040 07/04 A2964 1240 86 600 260/11 RMK AO2 T00670044
04850KAOH AOH20160401063511104/01/16 06:35:31  5-MIN KAOH 011135Z AUTO 25012KT 10SM OVC040 07/04 A2964 1240 86 600 260/12 RMK AO2 T00670044
04850KAOH AOH20160401064011104/01/16 06:40:31  5-MIN KAOH 011140Z AUTO 25012KT 10SM OVC040 07/04 A2964 1230 82 600 260/12 RMK AO2 T00720044
04850KAOH AOH20160401064511104/01/16 06:45:31  5-MIN KAOH 011145Z AUTO 25011KT 10SM OVC040 07/04 A2964 1230 82 600 260/11 RMK AO2 T00720044
04850KAOH AOH20160401065014204/01/16 06:50:31  5-MIN KAOH 011150Z AUTO 25011KT 10SM OVC040 07/04 A2965 1230 82 600 260/11 RMK AO2 SLP038 70033 T00720044 10106 20067 55000
04850KAOH AOH20160401065511104/01/16 06:55:31  5-MIN KAOH 011155Z AUTO 25010KT 10SM OVC040 07/04 A2965 1230 82 600 260/10 RMK AO2 T00720044
04850KAOH AOH20160401070011104/01/16 07:00:31  5-MIN KAOH 011200Z AUTO 25010KT 10SM OVC040 07/04 A2965 1230 82 600 260/10 RMK AO2 T00720044
04850KAOH AOH20160401070511104/01/16 07:05:31  5-MIN KAOH 011205Z AUTO 25010KT 10SM BKN040 07/04 A2966 1220 86 600 260/10 RMK AO2 T00670044
04850KAOH AOH20160401071011104/01/16 07:10:31  5-MIN KAOH 011210Z AUTO 25009KT 10SM BKN040 07/04 A2966 1220 86 500 260/09 RMK AO2 T00670044
04850KAOH AOH20160401071511104/01/16 07:15:31  5-MIN KAOH 011215Z AUTO 25012KT 10SM BKN040 07/05 A2967 1210 86 600 260/12 RMK AO2 T00720050
04850KAOH AOH20160401072011104/01/16 07:20:31  5-MIN KAOH 011220Z AUTO 25010KT 10SM BKN038 07/05 A2967 1210 86 600 260/10 RMK AO2 T00720050
04850KAOH AOH20160401072511104/01/16 07:25:31  5-MIN KAOH 011225Z AUTO 25011KT 10SM BKN038 07/05 A2967 1210 86 600 260/11 RMK AO2 T00720050
04850KAOH AOH20160401073011104/01/16 07:30:31  5-MIN KAOH 011230Z AUTO 25011KT 10SM OVC038 07/05 A2968 1200 86 600 260/11 RMK AO2 T00720050
04850KAOH AOH20160401073511104/01/16 07:35:31  5-MIN KAOH 011235Z AUTO 25010KT 10SM OVC038 07/05 A2967 1210 86 600 250/10 RMK AO2 T00720050
04850KAOH AOH20160401074011104/01/16 07:40:31  5-MIN KAOH 011240Z AUTO 24011KT 10SM OVC038 07/05 A2967 1210 86 600 250/11 RMK AO2 T00720050
04850KAOH AOH20160401074511104/01/16 07:45:31  5-MIN KAOH 011245Z AUTO 24011KT 10SM OVC038 07/05 A2968 1200 86 600 250/11 RMK AO2 T00720050
04850KAOH AOH20160401075011804/01/16 07:50:31  5-MIN KAOH 011250Z AUTO 25010KT 10SM OVC037 07/05 A2967 1210 86 600 250/10 RMK AO2 SLP048 T00720050
04850KAOH AOH20160401075511104/01/16 07:55:31  5-MIN KAOH 011255Z AUTO 25011KT 10SM OVC037 08/05 A2967 1210 82 700 250/11 RMK AO2 T00780050
04850KAOH AOH20160401080011104/01/16 08:00:31  5-MIN KAOH 011300Z AUTO 25012KT 10SM BKN037 08/05 A2967 1210 82 700 250/12 RMK AO2 T00780050
04850KAOH AOH20160401080511104/01/16 08:05:31  5-MIN KAOH 011305Z AUTO 24014KT 10SM BKN037 08/05 A2967 1210 82 700 250/14 RMK AO2 T00780050
04850KAOH AOH20160401081011104/01/16 08:10:31  5-MIN KAOH 011310Z AUTO 25013KT 10SM SCT037 08/05 A2967 1210 82 700 250/13 RMK AO2 T00780050
04850KAOH AOH20160401081511104/01/16 08:15:31  5-MIN KAOH 011315Z AUTO 26013KT 10SM SCT037 08/05 A2967 1210 82 700 260/13 RMK AO2 T00780050
04850KAOH AOH20160401082011804/01/16 08:20:31  5-MIN KAOH 011320Z AUTO 25015KT 10SM FEW015 FEW038 08/05 A2967 1210 82 700 260/15 RMK AO2 T00780050
04850KAOH AOH20160401082511104/01/16 08:25:31  5-MIN KAOH 011325Z AUTO 25014KT 10SM FEW015 08/05 A2967 1210 79 700 250/14 RMK AO2 T00830050
04850KAOH AOH20160401083011104/01/16 08:30:31  5-MIN KAOH 011330Z AUTO 26013KT 10SM FEW015 08/05 A2968 1200 79 700 270/13 RMK AO2 T00830050
04850KAOH AOH20160401083511104/01/16 08:35:31  5-MIN KAOH 011335Z AUTO 25013KT 10SM FEW015 08/05 A2968 1200 79 700 260/13 RMK AO2 T00830050
04850KAOH AOH20160401084011104/01/16 08:40:31  5-MIN KAOH 011340Z AUTO 26015KT 10SM FEW015 09/05 A2968 1200 76 800 260/15 RMK AO2 T00890050
04850KAOH AOH20160401084511104/01/16 08:45:31  5-MIN KAOH 011345Z AUTO 25015KT 10SM FEW015 09/04 A2968 1200 73 800 260/15 RMK AO2 T00890044
04850KAOH AOH20160401085011504/01/16 08:50:31  5-MIN KAOH 011350Z AUTO 25017KT 10SM CLR 09/04 A2968 1200 73 800 260/17 RMK AO2 SLP051 T00890044
04850KAOH AOH20160401085510804/01/16 08:55:31  5-MIN KAOH 011355Z AUTO 27016KT 10SM CLR 09/04 A2968 1200 73 800 270/16 RMK AO2 T00890044
04850KAOH AOH20160401090010804/01/16 09:00:31  5-MIN KAOH 011400Z AUTO 25014KT 10SM CLR 09/04 A2968 1200 73 800 260/14 RMK AO2 T00890044
04850KAOH AOH20160401090510804/01/16 09:05:31  5-MIN KAOH 011405Z AUTO 26015KT 10SM CLR 09/04 A2968 1200 73 800 260/15 RMK AO2 T00890044
04850KAOH AOH20160401091011104/01/16 09:10:31  5-MIN KAOH 011410Z AUTO 25016KT 10SM FEW025 09/04 A2968 1200 73 800 260/16 RMK AO2 T00890044
04850KAOH AOH20160401091511104/01/16 09:15:31  5-MIN KAOH 011415Z AUTO 26013KT 10SM FEW025 09/04 A2968 1200 73 800 270/13 RMK AO2 T00890044
04850KAOH AOH20160401092011704/01/16 09:20:31  5-MIN KAOH 011420Z AUTO 25014G19KT 10SM SCT025 09/05 A2968 1200 74 900 260/14G19 RMK AO2 T00940050
04850KAOH AOH20160401092511704/01/16 09:25:31  5-MIN KAOH 011425Z AUTO 25014G19KT 10SM SCT025 09/05 A2968 1200 74 900 260/14G19 RMK AO2 T00940050
04850KAOH AOH20160401093011104/01/16 09:30:31  5-MIN KAOH 011430Z AUTO 26015KT 10SM SCT025 09/05 A2969 1190 74 900 260/15 RMK AO2 T00940050
04850KAOH AOH20160401093511704/01/16 09:35:31  5-MIN KAOH 011435Z AUTO 26012G20KT 10SM SCT025 09/05 A2969 1200 74 900 260/12G20 RMK AO2 T00940050
04850KAOH AOH20160401094011104/01/16 09:40:31  5-MIN KAOH 011440Z AUTO 24015KT 10SM SCT025 09/05 A2969 1200 74 900 250/15 RMK AO2 T00940050
04850KAOH AOH20160401094511104/01/16 09:45:31  5-MIN KAOH 011445Z AUTO 25014KT 10SM BKN025 10/05 A2969 1190 71 900 260/14 RMK AO2 T01000050
04850KAOH AOH20160401095012404/01/16 09:50:31  5-MIN KAOH 011450Z AUTO 24015KT 10SM SCT025 09/05 A2969 1190 74 800 240/15 RMK AO2 SLP054 T00940050 51015
04850KAOH AOH20160401095511804/01/16 09:55:31  5-MIN KAOH 011455Z AUTO 25016KT 10SM SCT025 BKN035 10/05 A2969 1190 71 900 250/16 RMK AO2 T01000050
04850KAOH AOH20160401100012504/01/16 10:00:31  5-MIN KAOH 011500Z AUTO 24013KT 10SM SCT023 BKN029 BKN036 09/05 A2969 1190 74 800 250/13 RMK AO2 T00940050
04850KAOH AOH20160401100512504/01/16 10:05:31  5-MIN KAOH 011505Z AUTO 23014KT 10SM SCT024 BKN029 BKN035 10/04 A2969 1190 68 900 240/14 RMK AO2 T01000044
04850KAOH AOH20160401101011804/01/16 10:10:31  5-MIN KAOH 011510Z AUTO 23014KT 10SM BKN024 BKN032 10/05 A2969 1190 71 900 240/14 RMK AO2 T01000050
04850KAOH AOH20160401101511804/01/16 10:15:31  5-MIN KAOH 011515Z AUTO 24015KT 10SM BKN025 BKN032 09/04 A2969 1190 71 800 250/15 RMK AO2 T00940044
04850KAOH AOH20160401102011804/01/16 10:20:31  5-MIN KAOH 011520Z AUTO 25015KT 10SM SCT024 BKN030 10/05 A2970 1180 71 900 250/15 RMK AO2 T01000050
04850KAOH AOH20160401102511804/01/16 10:25:31  5-MIN KAOH 011525Z AUTO 25016KT 10SM SCT024 BKN032 10/04 A2970 1180 68 900 250/16 RMK AO2 T01000044
04850KAOH AOH20160401103011804/01/16 10:30:31  5-MIN KAOH 011530Z AUTO 25014KT 10SM SCT024 BKN031 10/05 A2970 1180 71 900 260/14 RMK AO2 T01000050
04850KAOH AOH20160401103511804/01/16 10:35:31  5-MIN KAOH 011535Z AUTO 26013KT 10SM BKN028 OVC035 10/05 A2970 1180 71 900 270/13 RMK AO2 T01000050
04850KAOH AOH20160401104011804/01/16 10:40:31  5-MIN KAOH 011540Z AUTO 26017KT 10SM BKN028 BKN035 09/04 A2971 1170 71 800 270/17 RMK AO2 T00940044
04850KAOH AOH20160401104511904/01/16 10:45:31  5-MIN KAOH 011545Z AUTO 24013KT 10SM SCT028 BKN035 11/05 A2971 1180 68 1000 250/13 RMK AO2 T01060050
04850KAOH AOH20160401105012604/01/16 10:50:31  5-MIN KAOH 011550Z AUTO 24014KT 10SM SCT028 BKN035 11/05 A2971 1170 68 1000 250/14 RMK AO2 SLP061 T01060050
04850KAOH AOH20160401105511904/01/16 10:55:31  5-MIN KAOH 011555Z AUTO 25014KT 10SM FEW028 SCT035 11/05 A2971 1180 68 1000 250/14 RMK AO2 T01060050
04850KAOH AOH20160401110011104/01/16 11:00:31  5-MIN KAOH 011600Z AUTO 26013KT 10SM SCT032 10/04 A2970 1180 68 900 260/13 RMK AO2 T01000044
04850KAOH AOH20160401110511804/01/16 11:05:31  5-MIN KAOH 011605Z AUTO 25012KT 10SM SCT029 BKN035 10/04 A2970 1180 68 900 260/12 RMK AO2 T01000044
04850KAOH AOH20160401111011904/01/16 11:10:31  5-MIN KAOH 011610Z AUTO 25011KT 10SM SCT028 BKN034 11/05 A2970 1180 68 1000 250/11 RMK AO2 T01060050
04850KAOH AOH20160401111511804/01/16 11:15:31  5-MIN KAOH 011615Z AUTO 26012KT 10SM SCT028 BKN034 10/05 A2971 1180 71 900 260/12 RMK AO2 T01000050
04850KAOH AOH20160401112011904/01/16 11:20:31  5-MIN KAOH 011620Z AUTO 23014KT 10SM SCT028 BKN034 11/04 A2971 1170 66 1000 240/14 RMK AO2 T01060044
04850KAOH AOH20160401112511904/01/16 11:25:31  5-MIN KAOH 011625Z AUTO 25015KT 10SM BKN028 BKN038 11/05 A2971 1170 68 1000 250/15 RMK AO2 T01060050
04850KAOH AOH20160401113012604/01/16 11:30:31  5-MIN KAOH 011630Z AUTO 25015KT 10SM SCT028 BKN032 BKN038 11/05 A2971 1170 66 1000 260/15 RMK AO2 T01110050
04850KAOH AOH20160401113513204/01/16 11:35:31  5-MIN KAOH 011635Z AUTO 25010G19KT 10SM SCT028 BKN039 BKN090 11/04 A2971 1170 66 1000 260/10G19 RMK AO2 T01060044
04850KAOH AOH20160401114012604/01/16 11:40:31  5-MIN KAOH 011640Z AUTO 24012KT 10SM FEW026 BKN032 BKN040 11/04 A2971 1180 66 1000 250/12 RMK AO2 T01060044
04850KAOH AOH20160401114512604/01/16 11:45:31  5-MIN KAOH 011645Z AUTO 25013KT 10SM SCT030 BKN038 BKN090 11/04 A2970 1180 63 1000 250/13 RMK AO2 T01110044
04850KAOH AOH20160401115013304/01/16 11:50:31  5-MIN KAOH 011650Z AUTO 23016KT 10SM SCT032 BKN042 BKN090 11/04 A2970 1180 66 1000 240/16 RMK AO2 SLP058 T01060044
04850KAOH AOH20160401115512604/01/16 11:55:31  5-MIN KAOH 011655Z AUTO 22014KT 10SM SCT032 BKN045 BKN095 11/04 A2970 1180 63 1000 230/14 RMK AO2 T01110044
04850KAOH AOH20160401120012604/01/16 12:00:31  5-MIN KAOH 011700Z AUTO 24014KT 10SM SCT032 BKN042 BKN095 11/05 A2970 1180 66 1000 250/14 RMK AO2 T01110050
04850KAOH AOH20160401120511904/01/16 12:05:31  5-MIN KAOH 011705Z AUTO 24014KT 10SM BKN032 BKN044 12/06 A2970 1180 63 1200 250/14 RMK AO2 T01220056
04850KAOH AOH20160401121011904/01/16 12:10:31  5-MIN KAOH 011710Z AUTO 23014KT 10SM SCT034 BKN044 12/05 A2969 1190 61 1200 240/14 RMK AO2 T01220050
04850KAOH AOH20160401121512604/01/16 12:15:31  5-MIN KAOH 011715Z AUTO 24011KT 10SM FEW034 BKN044 BKN100 12/05 A2969 1190 63 1100 250/11 RMK AO2 T01170050
04850KAOH AOH20160401122012604/01/16 12:20:31  5-MIN KAOH 011720Z AUTO 26013KT 10SM FEW030 SCT035 BKN048 11/06 A2970 1190 68 1000 260/13 RMK AO2 T01110056
04850KAOH AOH20160401122512604/01/16 12:25:31  5-MIN KAOH 011725Z AUTO 25015KT 10SM SCT034 BKN042 BKN048 11/05 A2970 1180 66 1000 250/15 RMK AO2 T01110050
04850KAOH AOH20160401123012604/01/16 12:30:31  5-MIN KAOH 011730Z AUTO 24014KT 10SM SCT034 BKN042 BKN050 11/05 A2970 1180 66 1000 250/14 RMK AO2 T01110050
04850KAOH AOH20160401123511904/01/16 12:35:31  5-MIN KAOH 011735Z AUTO 25015KT 10SM BKN034 BKN047 11/05 A2970 1180 68 1000 260/15 RMK AO2 T01060050
04850KAOH AOH20160401124012604/01/16 12:40:31  5-MIN KAOH 011740Z AUTO 26013KT 10SM FEW032 BKN039 OVC055 11/05 A2970 1180 66 1000 260/13 RMK AO2 T01110050
04850KAOH AOH20160401124512604/01/16 12:45:31  5-MIN KAOH 011745Z AUTO 24015KT 10SM SCT036 BKN042 OVC049 11/05 A2970 1180 66 1000 250/15 RMK AO2 T01110050
04850KAOH AOH20160401125015704/01/16 12:50:31  5-MIN KAOH 011750Z AUTO 25014G21KT 10SM SCT036 BKN045 OVC050 11/05 A2970 1180 68 1000 250/14G21 RMK AO2 SLP058 T01060050 10122 20067 51015
04850KAOH AOH20160401125512604/01/16 12:55:31  5-MIN KAOH 011755Z AUTO 25014KT 10SM FEW036 BKN045 OVC055 11/05 A2969 1190 66 1000 260/14 RMK AO2 T01110050
04850KAOH AOH20160401130012604/01/16 13:00:31  5-MIN KAOH 011800Z AUTO 25014KT 10SM FEW039 BKN047 OVC055 11/05 A2969 1190 66 1000 260/14 RMK AO2 T01110050
04850KAOH AOH20160401130514204/01/16 13:05:31  5-MIN KAOH 011805Z AUTO 25016KT 10SM -RA FEW032 BKN043 OVC050 11/06 A2969 1190 71 1000 260/16 RMK AO2 RAB03 P0000 T01060056
04850KAOH AOH20160401131014004/01/16 13:10:31  5-MIN KAOH 011810Z AUTO 29016KT 8SM -RA FEW027 BKN043 OVC050 10/06 A2971 1170 77 900 290/16 RMK AO2 RAB03 P0001 T01000061
04850KAOH AOH20160401131517104/01/16 13:15:31  5-MIN KAOH 011815Z AUTO 28018G27KT 3SM +RA SCT025 BKN032 OVC055 09/06 A2972 1170 83 800 290/18G27 RMK AO2 PK WND 30027/1812 RAB03 PRESRR P0006 T00890061
04850KAOH AOH20160401132018404/01/16 13:20:31  5-MIN KAOH 011820Z AUTO 30016G27KT 1 3/4SM +RA FEW014 BKN032 OVC046 09/06 A2972 1170 83 800 300/16G27 RMK AO2 PK WND 30027/1812 VIS 1 1/2V2 1/2 RAB03 P0009 T00890061
04850KAOH AOH20160401132516004/01/16 13:25:31  5-MIN KAOH 011825Z AUTO 29015KT 2SM RA BR FEW014 BKN025 OVC040 08/06 A2972 1160 89 600 300/15 RMK AO2 PK WND 30027/1812 RAB03 P0010 T00780061
04850KAOH AOH20160401133016404/01/16 13:30:31  5-MIN KAOH 011830Z AUTO 29014KT 2 1/2SM RA BR FEW014 BKN025 OVC033 08/07 A2972 1160 93 600 300/14 RMK AO2 PK WND 30027/1812 RAB03 P0012 T00780067
04850KAOH AOH20160401133516404/01/16 13:35:31  5-MIN KAOH 011835Z AUTO 30014KT 2 1/2SM RA BR FEW014 BKN025 OVC033 08/07 A2972 1160 93 600 300/14 RMK AO2 PK WND 30027/1812 RAB03 P0014 T00780067
04850KAOH AOH20160401134017004/01/16 13:40:31  5-MIN KAOH 011840Z AUTO 29012G19KT 2 1/2SM RA BR FEW014 BKN022 OVC035 08/07 A2973 1150 93 600 290/12G19 RMK AO2 PK WND 30027/1812 RAB03 P0015 T00780067
04850KAOH AOH20160401134517004/01/16 13:45:31  5-MIN KAOH 011845Z AUTO 28012G19KT 2 1/2SM RA BR FEW009 BKN024 OVC033 08/07 A2972 1160 93 600 290/12G19 RMK AO2 PK WND 30027/1812 RAB03 P0017 T00780067
04850KAOH AOH20160401135015704/01/16 13:50:31  5-MIN KAOH 011850Z AUTO 29013G19KT 3SM -RA BR FEW008 BKN024 OVC035 08/07 A2972 1160 93 600 300/13G19 RMK AO2 PK WND 30027/1812 RAB03 P0017
04850KAOH AOH20160401135514004/01/16 13:55:31  5-MIN KAOH 011855Z AUTO 30011G19KT 7SM -RA FEW011 BKN024 OVC033 08/07 A2972 1170 89 700 300/11G19 RMK AO2 P0000 T00830067
04850KAOH AOH20160401140013504/01/16 14:00:31  5-MIN KAOH 011900Z AUTO 30011KT 10SM -RA SCT011 BKN018 OVC023 08/07 A2972 1160 89 700 300/11 RMK AO2 P0000 T00830067
04850KAOH AOH20160401140513704/01/16 14:05:31  5-MIN KAOH 011905Z AUTO 29012KT 10SM SCT011 BKN018 OVC044 08/07 A2972 1160 93 700 300/12 RMK AO2 RAE01 P0000 T00830072
04850KAOH AOH20160401141013704/01/16 14:10:31  5-MIN KAOH 011910Z AUTO 29011KT 10SM FEW011 BKN026 OVC046 09/07 A2972 1160 89 700 290/11 RMK AO2 RAE01 P0000 T00890072
04850KAOH AOH20160401141513704/01/16 14:15:31  5-MIN KAOH 011915Z AUTO 30011KT 10SM SCT013 BKN022 OVC043 09/07 A2972 1160 89 700 300/11 RMK AO2 RAE01 P0000 T00890072
04850KAOH AOH20160401142013704/01/16 14:20:31  5-MIN KAOH 011920Z AUTO 29011KT 10SM SCT013 BKN022 OVC047 09/07 A2972 1160 89 700 300/11 RMK AO2 RAE01 P0000 T00890072
04850KAOH AOH20160401142513704/01/16 14:25:31  5-MIN KAOH 011925Z AUTO 30013KT 10SM SCT014 BKN026 OVC047 09/07 A2972 1160 86 700 300/13 RMK AO2 RAE01 P0000 T00890067
04850KAOH AOH20160401143013704/01/16 14:30:31  5-MIN KAOH 011930Z AUTO 30011KT 10SM SCT015 BKN026 OVC045 09/07 A2971 1170 86 800 310/11 RMK AO2 RAE01 P0000 T00890067
04850KAOH AOH20160401143513704/01/16 14:35:31  5-MIN KAOH 011935Z AUTO 31014KT 10SM FEW015 BKN021 OVC049 09/07 A2971 1170 83 800 320/14 RMK AO2 RAE01 P0000 T00940067
04850KAOH AOH20160401144013704/01/16 14:40:31  5-MIN KAOH 011940Z AUTO 30012KT 10SM FEW013 BKN030 OVC040 09/06 A2971 1170 79 800 310/12 RMK AO2 RAE01 P0000 T00940061
04850KAOH AOH20160401144513704/01/16 14:45:31  5-MIN KAOH 011945Z AUTO 30014KT 10SM FEW015 BKN030 OVC038 09/06 A2971 1170 79 800 310/14 RMK AO2 RAE01 P0000 T00940061
04850KAOH AOH20160401145013304/01/16 14:50:31  5-MIN KAOH 011950Z AUTO 28015G20KT 10SM FEW015 BKN022 OVC039 09/07 A2971 1170 83 800 290/15G20 RMK AO2 RAE01 P0000
04850KAOH AOH20160401145513104/01/16 14:55:31  5-MIN KAOH 011955Z AUTO 28011G20KT 10SM SCT022 BKN030 OVC039 10/07 A2971 1170 80 900 290/11G20 RMK AO2 T01000067
04850KAOH AOH20160401150012504/01/16 15:00:31  5-MIN KAOH 012000Z AUTO 29010KT 10SM SCT022 BKN030 OVC090 10/07 A2971 1180 80 900 290/10 RMK AO2 T01000067
04850KAOH AOH20160401150513104/01/16 15:05:31  5-MIN KAOH 012005Z AUTO 30015G19KT 10SM SCT024 BKN030 OVC090 10/06 A2971 1180 77 900 310/15G19 RMK AO2 T01000061
04850KAOH AOH20160401151014704/01/16 15:10:31  5-MIN KAOH 012010Z AUTO 30015G20KT 10SM -RA SCT023 BKN036 OVC090 09/06 A2972 1170 76 800 310/15G20 RMK AO2 RAB10 P0000 T00940056
04850KAOH AOH20160401151516504/01/16 15:15:31  5-MIN KAOH 012015Z AUTO 28018G31KT 10SM -RA SCT022 BKN028 OVC080 09/05 A2972 1170 74 800 290/18G31 RMK AO2 PK WND 27031/2013 RAB10 P0001 T00940050
04850KAOH AOH20160401152016504/01/16 15:20:31  5-MIN KAOH 012020Z AUTO 30019G31KT 10SM -RA SCT022 BKN029 OVC080 09/05 A2972 1160 76 700 300/19G31 RMK AO2 PK WND 27031/2013 RAB10 P0001 T00890050
04850KAOH AOH20160401152515904/01/16 15:25:31  5-MIN KAOH 012025Z AUTO 28019KT 10SM -RA SCT023 BKN035 OVC070 09/05 A2973 1160 76 700 290/19 RMK AO2 PK WND 27031/2013 RAB10 P0001 T00890050
04850KAOH AOH20160401153015904/01/16 15:30:31  5-MIN KAOH 012030Z AUTO 28018KT 10SM -RA SCT023 BKN035 OVC070 09/05 A2973 1160 74 800 280/18 RMK AO2 PK WND 27031/2013 RAB10 P0001 T00940050
04850KAOH AOH20160401153515904/01/16 15:35:31  5-MIN KAOH 012035Z AUTO 28015KT 10SM -RA SCT019 BKN030 OVC055 09/06 A2973 1150 76 800 290/15 RMK AO2 PK WND 27031/2013 RAB10 P0001 T00940056
04850KAOH AOH20160401154015904/01/16 15:40:31  5-MIN KAOH 012040Z AUTO 29016KT 10SM -RA SCT019 BKN023 OVC070 09/06 A2973 1150 76 800 300/16 RMK AO2 PK WND 27031/2013 RAB10 P0001 T00940056
04850KAOH AOH20160401154515804/01/16 15:45:31  5-MIN KAOH 012045Z AUTO 28014KT 10SM SCT020 SCT030 BKN049 09/06 A2973 1160 79 800 290/14 RMK AO2 PK WND 27031/2013 RAB10E44 P0001 T00940061
04850KAOH AOH20160401155017704/01/16 15:50:31  5-MIN KAOH 012050Z AUTO 27014KT 10SM FEW020 SCT049 SCT070 09/06 A2973 1150 79 800 280/14 RMK AO2 PK WND 27031/2013 RAB10E44 SLP069 P0001 60018 T00940061 58006
04850KAOH AOH20160401155511804/01/16 15:55:31  5-MIN KAOH 012055Z AUTO 27013KT 10SM FEW020 SCT049 10/06 A2973 1150 77 900 280/13 RMK AO2 T01000061
04850KAOH AOH20160401160011104/01/16 16:00:31  5-MIN KAOH 012100Z AUTO 28015KT 10SM FEW019 10/06 A2973 1150 74 900 280/15 RMK AO2 T01000056
04850KAOH AOH20160401160511804/01/16 16:05:31  5-MIN KAOH 012105Z AUTO 28013KT 10SM FEW019 FEW085 09/05 A2973 1150 74 800 280/13 RMK AO2 T00940050
04850KAOH AOH20160401161011804/01/16 16:10:31  5-MIN KAOH 012110Z AUTO 28010KT 10SM FEW037 SCT080 09/05 A2973 1150 74 800 290/10 RMK AO2 T00940050
04850KAOH AOH20160401161512504/01/16 16:15:31  5-MIN KAOH 012115Z AUTO 28012KT 10SM FEW035 SCT070 BKN085 09/05 A2974 1150 76 700 280/12 RMK AO2 T00890050
04850KAOH AOH20160401162014704/01/16 16:20:31  5-MIN KAOH 012120Z AUTO 27015KT 6SM -RA FEW024 SCT035 BKN070 09/06 A2975 1130 79 700 270/15 RMK AO2 RAB20 PRESRR P0002 T00890056
04850KAOH AOH20160401162514804/01/16 16:25:31  5-MIN KAOH 012125Z AUTO 28021G25KT 4SM RA BR SCT021 BKN033 BKN070 08/06 A2976 1130 86 600 280/21G25 RMK AO2 RAB20 P0004 T00780056
04850KAOH AOH20160401163016404/01/16 16:30:31  5-MIN KAOH 012130Z AUTO 28016G26KT 5SM -RA FEW019 BKN044 OVC080 08/05 A2976 1130 82 600 280/16G26 RMK AO2 PK WND 28026/2126 RAB20 P0004 T00780050
04850KAOH AOH20160401163516404/01/16 16:35:31  5-MIN KAOH 012135Z AUTO 28015G26KT 10SM FEW021 BKN070 OVC080 08/05 A2976 1120 82 600 290/15G26 RMK AO2 PK WND 28026/2126 RAB20E35 P0004 T00780050
04850KAOH AOH20160401164015804/01/16 16:40:31  5-MIN KAOH 012140Z AUTO 29013KT 10SM FEW021 SCT033 BKN080 08/05 A2976 1130 82 600 290/13 RMK AO2 PK WND 28026/2126 RAB20E35 P0004 T00780050
04850KAOH AOH20160401164516404/01/16 16:45:31  5-MIN KAOH 012145Z AUTO 28017G24KT 10SM FEW019 FEW029 BKN080 08/05 A2976 1130 82 600 290/17G24 RMK AO2 PK WND 28026/2126 RAB20E35 P0004 T00780050
04850KAOH AOH20160401165016404/01/16 16:50:31  5-MIN KAOH 012150Z AUTO 28018G24KT 10SM FEW045 SCT080 08/04 A2975 1130 79 600 290/18G24 RMK AO2 PK WND 28026/2126 RAB20E35 SLP079 P0004 T00780044
04850KAOH AOH20160401165512504/01/16 16:55:31  5-MIN KAOH 012155Z AUTO 28014KT 10SM FEW045 FEW065 SCT080 08/04 A2975 1130 79 600 290/14 RMK AO2 T00780044
04850KAOH AOH20160401170012504/01/16 17:00:31  5-MIN KAOH 012200Z AUTO 29014KT 10SM FEW045 SCT065 BKN080 08/05 A2976 1130 82 600 290/14 RMK AO2 T00780050
04850KAOH AOH20160401170511704/01/16 17:05:31  5-MIN KAOH 012205Z AUTO 28013G21KT 10SM BKN060 08/05 A2975 1130 82 600 290/13G21 RMK AO2 T00780050
04850KAOH AOH20160401171011804/01/16 17:10:31  5-MIN KAOH 012210Z AUTO 28012KT 10SM FEW048 BKN060 08/04 A2975 1130 79 600 290/12 RMK AO2 T00780044
04850KAOH AOH20160401171511804/01/16 17:15:31  5-MIN KAOH 012215Z AUTO 28013KT 10SM FEW048 BKN065 08/04 A2975 1140 79 600 290/13 RMK AO2 T00780044
04850KAOH AOH20160401172011104/01/16 17:20:31  5-MIN KAOH 012220Z AUTO 28012KT 10SM BKN065 08/04 A2975 1140 76 600 280/12 RMK AO2 T00780039
04850KAOH AOH20160401172511804/01/16 17:25:31  5-MIN KAOH 012225Z AUTO 27013KT 10SM SCT060 BKN070 08/04 A2975 1130 76 600 270/13 RMK AO2 T00830044
04850KAOH AOH20160401173011804/01/16 17:30:31  5-MIN KAOH 012230Z AUTO 26014KT 10SM SCT060 BKN070 08/04 A2975 1130 76 600 270/14 RMK AO2 T00780039
04850KAOH AOH20160401173511104/01/16 17:35:31  5-MIN KAOH 012235Z AUTO 27013KT 10SM SCT070 08/04 A2975 1130 79 600 270/13 RMK AO2 T00780044
04850KAOH AOH20160401174011804/01/16 17:40:31  5-MIN KAOH 012240Z AUTO 26014KT 10SM FEW047 SCT070 08/04 A2976 1130 76 600 270/14 RMK AO2 T00830044
04850KAOH AOH20160401174512404/01/16 17:45:31  5-MIN KAOH 012245Z AUTO 26017G22KT 10SM FEW047 FEW070 08/04 A2976 1130 76 600 270/17G22 RMK AO2 T00830044
04850KAOH AOH20160401175013104/01/16 17:50:31  5-MIN KAOH 012250Z AUTO 27017G22KT 10SM FEW025 FEW047 08/04 A2976 1130 76 600 270/17G22 RMK AO2 SLP081 T00780039
04850KAOH AOH20160401175512504/01/16 17:55:31  5-MIN KAOH 012255Z AUTO 26018KT 10SM FEW025 SCT036 SCT047 08/04 A2976 1120 76 600 270/18 RMK AO2 T00780039
04850KAOH AOH20160401180013104/01/16 18:00:31  5-MIN KAOH 012300Z AUTO 26014G22KT 10SM SCT025 BKN033 BKN047 08/04 A2976 1120 79 600 270/14G22 RMK AO2 T00780044
04850KAOH AOH20160401180512504/01/16 18:05:31  5-MIN KAOH 012305Z AUTO 26013KT 10SM SCT025 BKN033 BKN043 08/04 A2977 1120 79 600 270/13 RMK AO2 T00780044
04850KAOH AOH20160401181012504/01/16 18:10:31  5-MIN KAOH 012310Z AUTO 27013KT 10SM SCT025 BKN033 BKN043 08/04 A2977 1120 79 600 270/13 RMK AO2 T00780044
04850KAOH AOH20160401181512504/01/16 18:15:31  5-MIN KAOH 012315Z AUTO 27011KT 10SM BKN023 BKN033 OVC043 08/04 A2977 1120 79 600 280/11 RMK AO2 T00780044
04850KAOH AOH20160401182012504/01/16 18:20:31  5-MIN KAOH 012320Z AUTO 27012KT 10SM BKN023 BKN033 OVC050 08/04 A2977 1120 79 600 270/12 RMK AO2 T00780044
04850KAOH AOH20160401182512504/01/16 18:25:31  5-MIN KAOH 012325Z AUTO 27012KT 10SM SCT024 SCT042 BKN055 08/04 A2976 1120 79 600 280/12 RMK AO2 T00780044
04850KAOH AOH20160401183012504/01/16 18:30:31  5-MIN KAOH 012330Z AUTO 27012KT 10SM FEW024 SCT045 BKN055 08/04 A2976 1120 79 600 280/12 RMK AO2 T00780044
04850KAOH AOH20160401183512504/01/16 18:35:31  5-MIN KAOH 012335Z AUTO 27009KT 10SM FEW024 SCT048 BKN055 08/04 A2976 1120 79 600 280/09 RMK AO2 T00780044
04850KAOH AOH20160401184011804/01/16 18:40:31  5-MIN KAOH 012340Z AUTO 27011KT 10SM FEW023 SCT055 08/04 A2977 1120 79 600 270/11 RMK AO2 T00780044
04850KAOH AOH20160401184511804/01/16 18:45:31  5-MIN KAOH 012345Z AUTO 27009KT 10SM FEW023 SCT055 08/04 A2977 1120 79 600 270/09 RMK AO2 T00780044
04850KAOH AOH20160401185014904/01/16 18:50:31  5-MIN KAOH 012350Z AUTO 27010KT 10SM SCT023 SCT055 08/04 A2976 1120 79 600 280/10 RMK AO2 SLP081 60022 T00780044 10111 20078 51013
04850KAOH AOH20160401185511804/01/16 18:55:31  5-MIN KAOH 012355Z AUTO 28009KT 10SM SCT023 BKN028 08/04 A2977 1120 79 600 290/09 RMK AO2 T00780044
04850KAOH AOH20160401190011804/01/16 19:00:31  5-MIN KAOH 020000Z AUTO 28008KT 10SM SCT023 BKN028 08/04 A2976 1120 79 600 280/08 RMK AO2 T00780044
04850KAOH AOH20160401190511104/01/16 19:05:31  5-MIN KAOH 020005Z AUTO 28008KT 10SM BKN025 08/04 A2976 1120 79 600 290/08 RMK AO2 T00780044
04850KAOH AOH20160401191011804/01/16 19:10:31  5-MIN KAOH 020010Z AUTO 28008KT 10SM SCT023 BKN028 08/04 A2976 1120 76 600 290/08 RMK AO2 T00780039
04850KAOH AOH20160401191512504/01/16 19:15:31  5-MIN KAOH 020015Z AUTO 28008KT 10SM BKN025 BKN031 BKN065 08/04 A2977 1120 79 600 280/08 RMK AO2 T00780044
04850KAOH AOH20160401192012504/01/16 19:20:31  5-MIN KAOH 020020Z AUTO 27006KT 10SM SCT025 BKN033 BKN065 08/04 A2977 1120 79 600 280/06 RMK AO2 T00780044
04850KAOH AOH20160401192512504/01/16 19:25:31  5-MIN KAOH 020025Z AUTO 27011KT 10SM FEW025 BKN031 BKN065 08/04 A2978 1110 79 500 280/11 RMK AO2 T00780044
04850KAOH AOH20160401193012504/01/16 19:30:31  5-MIN KAOH 020030Z AUTO 27008KT 10SM FEW025 BKN034 OVC065 08/04 A2978 1110 76 500 270/08 RMK AO2 T00780039
04850KAOH AOH20160401193511804/01/16 19:35:31  5-MIN KAOH 020035Z AUTO 28008KT 10SM BKN033 BKN065 08/04 A2978 1110 79 500 280/08 RMK AO2 T00780044
04850KAOH AOH20160401194011804/01/16 19:40:31  5-MIN KAOH 020040Z AUTO 28010KT 10SM SCT033 OVC060 08/04 A2977 1110 76 600 280/10 RMK AO2 T00780039
04850KAOH AOH20160401194511804/01/16 19:45:31  5-MIN KAOH 020045Z AUTO 27007KT 10SM SCT033 OVC055 08/04 A2978 1110 76 500 280/07 RMK AO2 T00780039
04850KAOH AOH20160401195012504/01/16 19:50:31  5-MIN KAOH 020050Z AUTO 28009KT 10SM SCT033 OVC050 08/04 A2978 1110 76 500 280/09 RMK AO2 SLP087 T00780039
04850KAOH AOH20160401195512504/01/16 19:55:31  5-MIN KAOH 020055Z AUTO 27010KT 10SM FEW028 BKN055 OVC065 08/04 A2978 1110 76 500 280/10 RMK AO2 T00780039
04850KAOH AOH20160401200012504/01/16 20:00:31  5-MIN KAOH 020100Z AUTO 27010KT 10SM FEW028 BKN050 OVC070 08/03 A2979 1100 73 500 270/10 RMK AO2 T00780033
04850KAOH AOH20160401200512504/01/16 20:05:31  5-MIN KAOH 020105Z AUTO 27009KT 10SM FEW028 BKN050 OVC070 07/04 A2979 1100 79 500 280/09 RMK AO2 T00720039
04850KAOH AOH20160401201012504/01/16 20:10:31  5-MIN KAOH 020110Z AUTO 28009KT 10SM FEW028 SCT050 BKN070 07/04 A2978 1110 79 500 280/09 RMK AO2 T00720039
04850KAOH AOH20160401201512504/01/16 20:15:31  5-MIN KAOH 020115Z AUTO 27007KT 10SM FEW028 FEW050 BKN070 07/04 A2978 1100 79 500 280/07 RMK AO2 T00720039
04850KAOH AOH20160401202011104/01/16 20:20:31  5-MIN KAOH 020120Z AUTO 26007KT 10SM SCT070 07/04 A2979 1100 82 400 270/07 RMK AO2 T00670039
04850KAOH AOH20160401202511104/01/16 20:25:31  5-MIN KAOH 020125Z AUTO 25008KT 10SM FEW070 07/04 A2979 1100 82 400 250/08 RMK AO2 T00670039
04850KAOH AOH20160401203011104/01/16 20:30:31  5-MIN KAOH 020130Z AUTO 24008KT 10SM FEW070 07/04 A2978 1100 82 400 250/08 RMK AO2 T00670039
04850KAOH AOH20160401203510804/01/16 20:35:31  5-MIN KAOH 020135Z AUTO 22008KT 10SM CLR 07/04 A2979 1100 82 400 230/08 RMK AO2 T00670039
04850KAOH AOH20160401204011104/01/16 20:40:31  5-MIN KAOH 020140Z AUTO 23010KT 10SM SCT055 07/04 A2979 1100 82 400 230/10 RMK AO2 T00670039
04850KAOH AOH20160401204511104/01/16 20:45:31  5-MIN KAOH 020145Z AUTO 22010KT 10SM BKN055 07/04 A2979 1100 82 400 230/10 RMK AO2 T00670039
04850KAOH AOH20160401205011804/01/16 20:50:31  5-MIN KAOH 020150Z AUTO 22008KT 10SM BKN060 07/04 A2979 1100 82 400 230/08 RMK AO2 SLP091 T00670039
04850KAOH AOH20160401205511104/01/16 20:55:31  5-MIN KAOH 020155Z AUTO 22008KT 10SM BKN055 07/04 A2979 1090 82 400 230/08 RMK AO2 T00670039
04850KAOH AOH20160401210011104/01/16 21:00:31  5-MIN KAOH 020200Z AUTO 22008KT 10SM OVC055 07/04 A2979 1100 82 400 220/08 RMK AO2 T00670039
04850KAOH AOH20160401210511104/01/16 21:05:31  5-MIN KAOH 020205Z AUTO 23009KT 10SM OVC055 07/04 A2979 1100 82 400 230/09 RMK AO2 T00670039
04850KAOH AOH20160401211011804/01/16 21:10:31  5-MIN KAOH 020210Z AUTO 22008KT 10SM FEW048 OVC060 07/04 A2979 1100 82 400 230/08 RMK AO2 T00670039
04850KAOH AOH20160401211512504/01/16 21:15:31  5-MIN KAOH 020215Z AUTO 23009KT 10SM FEW034 SCT047 OVC060 07/04 A2980 1090 82 400 240/09 RMK AO2 T00670039
04850KAOH AOH20160401212014004/01/16 21:20:31  5-MIN KAOH 020220Z AUTO 21009KT 8SM -RA FEW026 BKN046 OVC060 07/04 A2979 1100 82 400 220/09 RMK AO2 RAB17 P0000 T00670039
04850KAOH AOH20160401212514004/01/16 21:25:31  5-MIN KAOH 020225Z AUTO 22008KT 8SM -RA SCT026 BKN044 OVC060 07/04 A2980 1090 86 400 220/08 RMK AO2 RAB17 P0001 T00670044
04850KAOH AOH20160401213014104/01/16 21:30:31  5-MIN KAOH 020230Z AUTO 22008KT 10SM -RA FEW028 BKN039 OVC060 07/04 A2979 1090 86 400 230/08 RMK AO2 RAB17 P0001 T00670044
04850KAOH AOH20160401213514004/01/16 21:35:31  5-MIN KAOH 020235Z AUTO 22010KT 10SM FEW025 BKN039 OVC065 07/04 A2980 1090 86 400 230/10 RMK AO2 RAB17E33 P0001 T00670044
04850KAOH AOH20160401214014004/01/16 21:40:31  5-MIN KAOH 020240Z AUTO 22008KT 10SM FEW025 BKN039 OVC070 07/04 A2979 1100 86 400 230/08 RMK AO2 RAB17E33 P0001 T00670044
04850KAOH AOH20160401214514004/01/16 21:45:31  5-MIN KAOH 020245Z AUTO 23010KT 10SM FEW026 BKN037 OVC070 07/04 A2979 1100 86 400 240/10 RMK AO2 RAB17E33 P0001 T00670044
04850KAOH AOH20160401215015204/01/16 21:50:31  5-MIN KAOH 020250Z AUTO 23010KT 10SM SCT039 OVC070 07/04 A2979 1100 86 400 230/10 RMK AO2 RAB17E33 SLP091 P0001 60001 T00670044 51013
04850KAOH AOH20160401215511804/01/16 21:55:31  5-MIN KAOH 020255Z AUTO 23011KT 10SM FEW039 OVC070 07/04 A2979 1100 86 400 230/11 RMK AO2 T00670044
04850KAOH AOH20160401220011804/01/16 22:00:31  5-MIN KAOH 020300Z AUTO 23011KT 10SM FEW037 OVC070 07/04 A2978 1100 82 400 240/11 RMK AO2 T00670039
04850KAOH AOH20160401220511804/01/16 22:05:31  5-MIN KAOH 020305Z AUTO 23010KT 10SM FEW037 OVC070 07/04 A2978 1110 86 400 240/10 RMK AO2 T00670044
04850KAOH AOH20160401221011104/01/16 22:10:31  5-MIN KAOH 020310Z AUTO 24011KT 10SM BKN070 07/04 A2978 1110 86 400 240/11 RMK AO2 T00670044
04850KAOH AOH20160401221511104/01/16 22:15:31  5-MIN KAOH 020315Z AUTO 24011KT 10SM BKN070 07/04 A2978 1110 82 400 250/11 RMK AO2 T00670039
04850KAOH AOH20160401222011104/01/16 22:20:31  5-MIN KAOH 020320Z AUTO 25012KT 10SM BKN075 07/04 A2978 1110 82 400 260/12 RMK AO2 T00670039
04850KAOH AOH20160401222511104/01/16 22:25:31  5-MIN KAOH 020325Z AUTO 25012KT 10SM BKN070 07/04 A2978 1110 82 400 260/12 RMK AO2 T00670039
04850KAOH AOH20160401223011104/01/16 22:30:31  5-MIN KAOH 020330Z AUTO 25012KT 10SM BKN070 07/04 A2978 1110 82 400 260/12 RMK AO2 T00670039
04850KAOH AOH20160401223511104/01/16 22:35:31  5-MIN KAOH 020335Z AUTO 25011KT 10SM BKN070 07/04 A2978 1110 82 400 260/11 RMK AO2 T00670039
04850KAOH AOH20160401224011104/01/16 22:40:31  5-MIN KAOH 020340Z AUTO 25011KT 10SM BKN070 07/04 A2977 1110 82 400 260/11 RMK AO2 T00670039
04850KAOH AOH20160401224511104/01/16 22:45:31  5-MIN KAOH 020345Z AUTO 25012KT 10SM OVC070 07/04 A2977 1110 82 400 260/12 RMK AO2 T00670039
04850KAOH AOH20160401225011804/01/16 22:50:31  5-MIN KAOH 020350Z AUTO 25010KT 10SM OVC075 07/04 A2977 1120 82 400 260/10 RMK AO2 SLP083 T00670039
04850KAOH AOH20160401225511104/01/16 22:55:31  5-MIN KAOH 020355Z AUTO 25011KT 10SM OVC075 07/04 A2977 1120 82 400 250/11 RMK AO2 T00670039
04850KAOH AOH20160401230011104/01/16 23:00:31  5-MIN KAOH 020400Z AUTO 24010KT 10SM BKN075 07/04 A2977 1120 82 400 250/10 RMK AO2 T00670039
04850KAOH AOH20160401230511804/01/16 23:05:31  5-MIN KAOH 020405Z AUTO 24010KT 10SM FEW036 BKN075 07/04 A2977 1120 82 400 250/10 RMK AO2 T00670039
04850KAOH AOH20160401231011804/01/16 23:10:31  5-MIN KAOH 020410Z AUTO 24009KT 10SM FEW036 BKN075 07/04 A2976 1120 82 400 250/09 RMK AO2 T00670039
04850KAOH AOH20160401231511804/01/16 23:15:31  5-MIN KAOH 020415Z AUTO 24010KT 10SM FEW036 BKN075 07/04 A2976 1130 82 400 240/10 RMK AO2 T00670039
04850KAOH AOH20160401232011804/01/16 23:20:31  5-MIN KAOH 020420Z AUTO 24012KT 10SM FEW036 BKN075 07/04 A2975 1130 82 400 240/12 RMK AO2 T00670039
04850KAOH AOH20160401232511804/01/16 23:25:31  5-MIN KAOH 020425Z AUTO 23012KT 10SM FEW036 OVC070 07/03 A2975 1130 76 500 240/12 RMK AO2 T00720033
04850KAOH AOH20160401233011104/01/16 23:30:31  5-MIN KAOH 020430Z AUTO 24014KT 10SM OVC070 07/03 A2976 1130 76 500 240/14 RMK AO2 T00720033
04850KAOH AOH20160401233511804/01/16 23:35:31  5-MIN KAOH 020435Z AUTO 24014KT 10SM SCT050 OVC070 07/04 A2975 1130 79 500 240/14 RMK AO2 T00720039
04850KAOH AOH20160401234011804/01/16 23:40:31  5-MIN KAOH 020440Z AUTO 24013KT 10SM SCT050 OVC070 07/04 A2975 1130 82 400 250/13 RMK AO2 T00670039
04850KAOH AOH20160401234511804/01/16 23:45:31  5-MIN KAOH 020445Z AUTO 24015KT 10SM BKN055 OVC070 07/04 A2975 1140 82 400 250/15 RMK AO2 T00670039
04850KAOH AOH20160401235013504/01/16 23:50:31  5-MIN KAOH 020450Z AUTO 24013KT 10SM BKN050 OVC065 07/04 A2974 1140 82 500 240/13 RMK AO2 SLP074 T00670039 401220067
04850KAOH AOH20160401235512504/01/16 23:55:31  5-MIN KAOH 020455Z AUTO 25014KT 10SM FEW031 BKN050 OVC065 07/03 A2975 1130 79 400 260/14 RMK AO2 T00670033
04850KAOH AOH20160402000014804/02/16 00:00:31  5-MIN KAOH 020500Z AUTO 26019G32KT 7SM -RA FEW025 SCT032 OVC050 06/03 A2975 1130 82 400 270/19G32 RMK AO2 RAB0456 P0001 T00610033
04850KAOH AOH20160402000516604/02/16 00:05:31  5-MIN KAOH 020505Z AUTO 27020G32KT 7SM -RA FEW018 BKN028 OVC055 06/03 A2976 1130 85 300 270/20G32 RMK AO2 PK WND 26026/0503 RAB0456 P0001 T00560033
04850KAOH AOH20160402001016704/02/16 00:10:31  5-MIN KAOH 020510Z AUTO 26013G26KT 10SM -RA FEW015 BKN041 OVC050 06/03 A2975 1130 85 300 270/13G26 RMK AO2 PK WND 26026/0503 RAB0456 P0001 T00560033
04850KAOH AOH20160402001516104/02/16 00:15:31  5-MIN KAOH 020515Z AUTO 26014KT 10SM -RA FEW017 BKN035 OVC055 06/04 A2976 1130 89 300 270/14 RMK AO2 PK WND 26026/0503 RAB0456 P0001 T00560039
04850KAOH AOH20160402002016704/02/16 00:20:31  5-MIN KAOH 020520Z AUTO 27018G22KT 10SM -RA FEW017 BKN033 OVC042 06/03 A2976 1130 85 300 270/18G22 RMK AO2 PK WND 26026/0503 RAB0456 P0001 T00560033
04850KAOH AOH20160402002516104/02/16 00:25:31  5-MIN KAOH 020525Z AUTO 27019KT 10SM -RA FEW017 BKN022 OVC047 06/03 A2976 1120 85 300 270/19 RMK AO2 PK WND 26026/0503 RAB0456 P0002 T00560033
04850KAOH AOH20160402003016604/02/16 00:30:31  5-MIN KAOH 020530Z AUTO 29022G27KT 9SM -RA SCT015 BKN024 OVC044 05/03 A2977 1120 89 200 290/22G27 RMK AO2 PK WND 28027/0526 RAB0456 P0003 T00500033
04850KAOH AOH20160402003516604/02/16 00:35:31  5-MIN KAOH 020535Z AUTO 29015G27KT 9SM -RA FEW013 BKN025 OVC047 04/02 A2977 1120 89 100 300/15G27 RMK AO2 PK WND 28027/0526 RAB0456 P0003 T00390022
04850KAOH AOH20160402004016104/02/16 00:40:31  5-MIN KAOH 020540Z AUTO 29013KT 10SM -RA FEW015 BKN023 OVC034 04/02 A2977 1120 89 100 300/13 RMK AO2 PK WND 28027/0526 RAB0456 P0003 T00390022
04850KAOH AOH20160402004516704/02/16 00:45:31  5-MIN KAOH 020545Z AUTO 29010G19KT 10SM -RA FEW013 SCT023 OVC031 04/02 A2976 1120 85 100 290/10G19 RMK AO2 PK WND 28027/0526 RAB0456 P0003 T00390017
04850KAOH AOH20160402005015104/02/16 00:50:31  5-MIN KAOH 020550Z AUTO 29011KT 10SM -RA FEW015 BKN031 OVC060 04/02 A2976 1120 82 200 290/11 RMK AO2 PK WND 28027/0526 RAB0456 P0003
04850KAOH AOH20160402005513704/02/16 00:55:31  5-MIN KAOH 020555Z AUTO 28010KT 10SM FEW012 BKN046 OVC060 04/02 A2977 1120 85 200 290/10 RMK AO2 RAE54 P0000 T00440022
04850KAOH AOH20160402010013904/02/16 01:00:31  5-MIN KAOH 020600Z AUTO 28012KT 10SM FEW023 BKN046 OVC060 04/02 A2977 1120 85 200 280/12 RMK AO2 RAE0554 P0000 T00440022
04850KAOH AOH20160402010513904/02/16 01:05:31  5-MIN KAOH 020605Z AUTO 28013KT 10SM FEW031 SCT046 OVC060 04/02 A2977 1120 85 200 280/13 RMK AO2 RAE0554 P0000 T00440022
04850KAOH AOH20160402011013904/02/16 01:10:31  5-MIN KAOH 020610Z AUTO 28013KT 10SM FEW035 FEW046 OVC060 04/02 A2976 1120 85 200 290/13 RMK AO2 RAE0554 P0000 T00440022
04850KAOH AOH20160402011513204/02/16 01:15:31  5-MIN KAOH 020615Z AUTO 28013KT 10SM FEW046 OVC065 04/02 A2976 1130 82 200 280/13 RMK AO2 RAE0554 P0000 T00440017
04850KAOH AOH20160402012013804/02/16 01:20:31  5-MIN KAOH 020620Z AUTO 27012G20KT 10SM FEW048 OVC070 04/02 A2976 1120 82 200 280/12G20 RMK AO2 RAE0554 P0000 T00440017
04850KAOH AOH20160402012513204/02/16 01:25:31  5-MIN KAOH 020625Z AUTO 28013KT 10SM BKN070 OVC080 04/02 A2976 1120 82 200 290/13 RMK AO2 RAE0554 P0000 T00440017
04850KAOH AOH20160402013013204/02/16 01:30:31  5-MIN KAOH 020630Z AUTO 28011KT 10SM BKN070 OVC080 04/02 A2976 1130 82 200 290/11 RMK AO2 RAE0554 P0000 T00440017
04850KAOH AOH20160402013512504/02/16 01:35:31  5-MIN KAOH 020635Z AUTO 28011KT 10SM OVC070 04/02 A2976 1130 82 200 280/11 RMK AO2 RAE0554 P0000 T00440017
04850KAOH AOH20160402014012504/02/16 01:40:31  5-MIN KAOH 020640Z AUTO 27013KT 10SM OVC075 04/02 A2976 1130 82 200 280/13 RMK AO2 RAE0554 P0000 T00440017
04850KAOH AOH20160402014512504/02/16 01:45:31  5-MIN KAOH 020645Z AUTO 28013KT 10SM OVC075 04/02 A2976 1130 82 200 290/13 RMK AO2 RAE0554 P0000 T00440017
04850KAOH AOH20160402015013904/02/16 01:50:31  5-MIN KAOH 020650Z AUTO 28011KT 10SM BKN075 OVC095 04/02 A2976 1130 82 200 280/11 RMK AO2 RAE0554 SLP080 P0000 T00440017
04850KAOH AOH20160402015511804/02/16 01:55:31  5-MIN KAOH 020655Z AUTO 28014KT 10SM SCT070 OVC095 04/02 A2975 1130 82 200 290/14 RMK AO2 T00440017
04850KAOH AOH20160402020011804/02/16 02:00:31  5-MIN KAOH 020700Z AUTO 28013KT 10SM SCT070 OVC100 04/02 A2975 1140 82 200 280/13 RMK AO2 T00440017
04850KAOH AOH20160402020511804/02/16 02:05:31  5-MIN KAOH 020705Z AUTO 28013KT 10SM SCT080 OVC100 04/01 A2975 1140 79 200 290/13 RMK AO2 T00440011
04850KAOH AOH20160402021011104/02/16 02:10:31  5-MIN KAOH 020710Z AUTO 28010KT 10SM OVC100 04/01 A2975 1140 79 200 280/10 RMK AO2 T00440011
04850KAOH AOH20160402021511104/02/16 02:15:31  5-MIN KAOH 020715Z AUTO 28012KT 10SM OVC100 04/02 A2974 1140 85 100 290/12 RMK AO2 T00390017
04850KAOH AOH20160402022011804/02/16 02:20:31  5-MIN KAOH 020720Z AUTO 28014KT 10SM FEW085 OVC110 04/01 A2974 1140 82 100 280/14 RMK AO2 T00390011
04850KAOH AOH20160402022511104/02/16 02:25:31  5-MIN KAOH 020725Z AUTO 27012KT 10SM OVC110 04/01 A2975 1140 82 100 280/12 RMK AO2 T00390011
04850KAOH AOH20160402023011104/02/16 02:30:31  5-MIN KAOH 020730Z AUTO 27014KT 10SM OVC110 04/01 A2974 1140 82 100 280/14 RMK AO2 T00390011
04850KAOH AOH20160402023511104/02/16 02:35:31  5-MIN KAOH 020735Z AUTO 27014KT 10SM OVC110 04/01 A2974 1140 76 200 280/14 RMK AO2 T00440006
04850KAOH AOH20160402024011104/02/16 02:40:31  5-MIN KAOH 020740Z AUTO 27013KT 10SM OVC110 04/01 A2974 1140 79 100 280/13 RMK AO2 T00390006
04850KAOH AOH20160402024511104/02/16 02:45:31  5-MIN KAOH 020745Z AUTO 27014KT 10SM OVC110 04/01 A2974 1150 79 100 280/14 RMK AO2 T00390006
04850KAOH AOH20160402025011804/02/16 02:50:31  5-MIN KAOH 020750Z AUTO 27013KT 10SM BKN110 04/01 A2974 1150 79 100 280/13 RMK AO2 SLP074 T00390006
04850KAOH AOH20160402025511704/02/16 02:55:31  5-MIN KAOH 020755Z AUTO 27013G21KT 10SM BKN110 04/01 A2974 1150 79 100 280/13G21 RMK AO2 T00390006
04850KAOH AOH20160402030011704/02/16 03:00:31  5-MIN KAOH 020800Z AUTO 27012G21KT 10SM BKN110 04/01 A2973 1150 79 100 280/12G21 RMK AO2 T00390006
04850KAOH AOH20160402030511104/02/16 03:05:31  5-MIN KAOH 020805Z AUTO 27012KT 10SM BKN110 04/01 A2973 1150 79 100 280/12 RMK AO2 T00390006
04850KAOH AOH20160402031011104/02/16 03:10:31  5-MIN KAOH 020810Z AUTO 27013KT 10SM SCT110 03/01 A2973 1150 82 100 270/13 RMK AO2 T00330006
04850KAOH AOH20160402031511104/02/16 03:15:31  5-MIN KAOH 020815Z AUTO 27015KT 10SM FEW110 03/01 A2973 1160 82 100 280/15 RMK AO2 T00330006
04850KAOH AOH20160402032011104/02/16 03:20:31  5-MIN KAOH 020820Z AUTO 27015KT 10SM SCT110 04/00 A2973 1150 76 100 280/15 RMK AO2 T00390000
04850KAOH AOH20160402032511104/02/16 03:25:31  5-MIN KAOH 020825Z AUTO 26014KT 10SM SCT110 03/00 A2973 1160 79 100 270/14 RMK AO2 T00330000
04850KAOH AOH20160402033011104/02/16 03:30:31  5-MIN KAOH 020830Z AUTO 26016KT 10SM FEW100 03/01 A2973 1160 82 100 270/16 RMK AO2 T00330006
04850KAOH AOH20160402033511204/02/16 03:35:31  5-MIN KAOH 020835Z AUTO 27017KT 10SM FEW100 03/M01 A2973 1160 76 100 280/17 RMK AO2 T00331006
04850KAOH AOH20160402034011804/02/16 03:40:31  5-MIN KAOH 020840Z AUTO 27019G24KT 10SM FEW100 03/M01 A2973 1160 72 100 280/19G24 RMK AO2 T00331011
04850KAOH AOH20160402034511804/02/16 03:45:31  5-MIN KAOH 020845Z AUTO 27016G24KT 10SM FEW100 03/M02 A2973 1160 70 100 280/16G24 RMK AO2 T00331017
04850KAOH AOH20160402035013404/02/16 03:50:31  5-MIN KAOH 020850Z AUTO 27016G25KT 10SM CLR 03/M02 A2972 1160 67 100 270/16G25 RMK AO2 SLP069 60000 T00331022 55002
04850KAOH AOH20160402035511304/02/16 03:55:31  5-MIN KAOH 020855Z AUTO 27016G25KT 10SM CLR 03/M02 A2972 1160 69 0 270/16G25 RMK AO2 T00281022
04850KAOH AOH20160402040011304/02/16 04:00:31  5-MIN KAOH 020900Z AUTO 27015G22KT 10SM CLR 03/M02 A2972 1160 69 0 270/15G22 RMK AO2 T00281022
04850KAOH AOH20160402040510704/02/16 04:05:31  5-MIN KAOH 020905Z AUTO 27017KT 10SM CLR 03/M02 A2972 1160 69 0 270/17 RMK AO2 T00281022
04850KAOH AOH20160402041010704/02/16 04:10:31  5-MIN KAOH 020910Z AUTO 27016KT 10SM CLR 03/M02 A2972 1160 69 0 270/16 RMK AO2 T00281022
04850KAOH AOH20160402041511304/02/16 04:15:31  5-MIN KAOH 020915Z AUTO 27016G23KT 10SM CLR 03/M02 A2972 1160 69 0 270/16G23 RMK AO2 T00281022
04850KAOH AOH20160402042011304/02/16 04:20:31  5-MIN KAOH 020920Z AUTO 27018G23KT 10SM CLR 03/M03 A2972 1160 67 0 270/18G23 RMK AO2 T00281028
04850KAOH AOH20160402042510704/02/16 04:25:31  5-MIN KAOH 020925Z AUTO 27015KT 10SM CLR 03/M03 A2972 1160 67 0 270/15 RMK AO2 T00281028
04850KAOH AOH20160402043010704/02/16 04:30:31  5-MIN KAOH 020930Z AUTO 26013KT 10SM CLR 02/M02 A2972 1160 72 0 270/13 RMK AO2 T00221022
04850KAOH AOH20160402043510704/02/16 04:35:31  5-MIN KAOH 020935Z AUTO 26013KT 10SM CLR 02/M02 A2972 1160 72 0 260/13 RMK AO2 T00221022
04850KAOH AOH20160402044010704/02/16 04:40:31  5-MIN KAOH 020940Z AUTO 26015KT 10SM CLR 02/M03 A2972 1160 69 0 270/15 RMK AO2 T00221028
04850KAOH AOH20160402044510704/02/16 04:45:31  5-MIN KAOH 020945Z AUTO 26014KT 10SM CLR 02/M03 A2972 1160 69 0 270/14 RMK AO2 T00221028
04850KAOH AOH20160402045011404/02/16 04:50:31  5-MIN KAOH 020950Z AUTO 25014KT 10SM CLR 02/M03 A2972 1170 69 0 260/14 RMK AO2 SLP068 T00221028
04850KAOH AOH20160402045510704/02/16 04:55:31  5-MIN KAOH 020955Z AUTO 26014KT 10SM CLR 02/M03 A2972 1170 69 0 260/14 RMK AO2 T00221028
04850KAOH AOH20160402050010704/02/16 05:00:31  5-MIN KAOH 021000Z AUTO 26013KT 10SM CLR 02/M03 A2971 1170 67 0 270/13 RMK AO2 T00221033
04850KAOH AOH20160402050511004/02/16 05:05:31  5-MIN KAOH 021005Z AUTO 26014KT 10SM CLR 02/M03 A2972 1170 69 -100 270/14 RMK AO2 T00171033
04850KAOH AOH20160402051011004/02/16 05:10:31  5-MIN KAOH 021010Z AUTO 26013KT 10SM CLR 02/M03 A2972 1170 69 -100 260/13 RMK AO2 T00171033
04850KAOH AOH20160402051511004/02/16 05:15:31  5-MIN KAOH 021015Z AUTO 26014KT 10SM CLR 02/M03 A2972 1170 69 -100 260/14 RMK AO2 T00171033
04850KAOH AOH20160402052011004/02/16 05:20:31  5-MIN KAOH 021020Z AUTO 26013KT 10SM CLR 02/M03 A2972 1170 69 -100 260/13 RMK AO2 T00171033
04850KAOH AOH20160402052511004/02/16 05:25:31  5-MIN KAOH 021025Z AUTO 25011KT 10SM CLR 02/M03 A2972 1170 69 -100 260/11 RMK AO2 T00171033
04850KAOH AOH20160402053011304/02/16 05:30:31  5-MIN KAOH 021030Z AUTO 25010KT 10SM FEW030 02/M03 A2972 1170 69 -100 250/10 RMK AO2 T00171033
04850KAOH AOH20160402053511304/02/16 05:35:31  5-MIN KAOH 021035Z AUTO 25010KT 10SM SCT030 02/M03 A2971 1170 69 -100 250/10 RMK AO2 T00171033
04850KAOH AOH20160402054011304/02/16 05:40:31  5-MIN KAOH 021040Z AUTO 24010KT 10SM SCT030 02/M03 A2971 1170 72 -100 250/10 RMK AO2 T00171028
04850KAOH AOH20160402054511304/02/16 05:45:31  5-MIN KAOH 021045Z AUTO 25010KT 10SM SCT029 01/M03 A2971 1170 75 -100 250/10 RMK AO2 T00111028
04850KAOH AOH20160402055012004/02/16 05:50:31  5-MIN KAOH 021050Z AUTO 25012KT 10SM FEW029 02/M03 A2971 1170 72 -100 250/12 RMK AO2 SLP066 T00171028
04850KAOH AOH20160402055511304/02/16 05:55:31  5-MIN KAOH 021055Z AUTO 24011KT 10SM FEW029 01/M03 A2971 1170 75 -100 250/11 RMK AO2 T00111028
04850KAOH AOH20160402060011304/02/16 06:00:31  5-MIN KAOH 021100Z AUTO 24012KT 10SM FEW029 01/M03 A2971 1170 75 -100 240/12 RMK AO2 T00111028
04850KAOH AOH20160402060511004/02/16 06:05:31  5-MIN KAOH 021105Z AUTO 24014KT 10SM CLR 01/M03 A2971 1170 75 -100 250/14 RMK AO2 T00111028
04850KAOH AOH20160402061011004/02/16 06:10:31  5-MIN KAOH 021110Z AUTO 25013KT 10SM CLR 01/M03 A2971 1170 75 -100 260/13 RMK AO2 T00111028
04850KAOH AOH20160402061511004/02/16 06:15:31  5-MIN KAOH 021115Z AUTO 26016KT 10SM CLR 01/M03 A2971 1170 72 -100 260/16 RMK AO2 T00111033
04850KAOH AOH20160402062011004/02/16 06:20:31  5-MIN KAOH 021120Z AUTO 26014KT 10SM CLR 01/M04 A2971 1170 69 -100 260/14 RMK AO2 T00111039
04850KAOH AOH20160402062511004/02/16 06:25:31  5-MIN KAOH 021125Z AUTO 26013KT 10SM CLR 01/M04 A2971 1170 69 -100 260/13 RMK AO2 T00111039
04850KAOH AOH20160402063011004/02/16 06:30:31  5-MIN KAOH 021130Z AUTO 25015KT 10SM CLR 01/M04 A2971 1170 69 -100 260/15 RMK AO2 T00111039
04850KAOH AOH20160402063511004/02/16 06:35:31  5-MIN KAOH 021135Z AUTO 25013KT 10SM CLR 01/M04 A2971 1170 69 -100 260/13 RMK AO2 T00111039
04850KAOH AOH20160402064011004/02/16 06:40:31  5-MIN KAOH 021140Z AUTO 25012KT 10SM CLR 01/M04 A2971 1170 69 -100 260/12 RMK AO2 T00111039
04850KAOH AOH20160402064511004/02/16 06:45:31  5-MIN KAOH 021145Z AUTO 25011KT 10SM CLR 01/M04 A2971 1170 69 -100 260/11 RMK AO2 T00111039
04850KAOH AOH20160402065014704/02/16 06:50:31  5-MIN KAOH 021150Z AUTO 24011KT 10SM CLR 01/M04 A2971 1180 69 -100 250/11 RMK AO2 SLP065 60000 70026 T00111039 10044 20011 58014
04850KAOH AOH20160402065511004/02/16 06:55:31  5-MIN KAOH 021155Z AUTO 24012KT 10SM CLR 01/M04 A2970 1180 69 -100 250/12 RMK AO2 T00111039
04850KAOH AOH20160402070011004/02/16 07:00:31  5-MIN KAOH 021200Z AUTO 25012KT 10SM CLR 01/M04 A2970 1180 69 -100 250/12 RMK AO2 T00111039
04850KAOH AOH20160402070511004/02/16 07:05:31  5-MIN KAOH 021205Z AUTO 25012KT 10SM CLR 01/M03 A2970 1180 72 -100 250/12 RMK AO2 T00111033
04850KAOH AOH20160402071011004/02/16 07:10:31  5-MIN KAOH 021210Z AUTO 25013KT 10SM CLR 01/M03 A2970 1180 72 -100 250/13 RMK AO2 T00111033
04850KAOH AOH20160402071511004/02/16 07:15:31  5-MIN KAOH 021215Z AUTO 25015KT 10SM CLR 01/M03 A2970 1180 72 -100 250/15 RMK AO2 T00111033
04850KAOH AOH20160402072013404/02/16 07:20:31  5-MIN KAOH 021220Z AUTO 24017G26KT 10SM CLR 02/M04 A2970 1180 66 -100 250/17G26 RMK AO2 PK WND 25026/1216 T00171039
04850KAOH AOH20160402072513404/02/16 07:25:31  5-MIN KAOH 021225Z AUTO 24019G26KT 10SM CLR 02/M04 A2970 1180 66 -100 250/19G26 RMK AO2 PK WND 25026/1216 T00171039
04850KAOH AOH20160402073013404/02/16 07:30:31  5-MIN KAOH 021230Z AUTO 26021G24KT 10SM CLR 02/M04 A2970 1180 66 -100 260/21G24 RMK AO2 PK WND 25026/1216 T00171039
04850KAOH AOH20160402073512804/02/16 07:35:31  5-MIN KAOH 021235Z AUTO 25020KT 10SM CLR 02/M04 A2970 1180 66 -100 250/20 RMK AO2 PK WND 25026/1216 T00171039
04850KAOH AOH20160402074012804/02/16 07:40:31  5-MIN KAOH 021240Z AUTO 25017KT 10SM CLR 02/M04 A2970 1180 66 -100 260/17 RMK AO2 PK WND 25026/1216 T00171039
04850KAOH AOH20160402074513404/02/16 07:45:31  5-MIN KAOH 021245Z AUTO 26019G26KT 10SM CLR 02/M04 A2970 1180 66 -100 260/19G26 RMK AO2 PK WND 26026/1242 T00171039
04850KAOH AOH20160402075014104/02/16 07:50:31  5-MIN KAOH 021250Z AUTO 26016G26KT 10SM CLR 02/M03 A2970 1180 69 -100 260/16G26 RMK AO2 PK WND 26026/1242 SLP063 T00171033
04850KAOH AOH20160402075511604/02/16 07:55:31  5-MIN KAOH 021255Z AUTO 25016G24KT 10SM CLR 02/M04 A2970 1180 66 -100 260/16G24 RMK AO2 T00171039
04850KAOH AOH20160402080013404/02/16 08:00:31  5-MIN KAOH 021300Z AUTO 26023G28KT 10SM CLR 02/M04 A2970 1180 66 -100 260/23G28 RMK AO2 PK WND 26028/1259 T00171039
04850KAOH AOH20160402080513404/02/16 08:05:31  5-MIN KAOH 021305Z AUTO 27022G28KT 10SM CLR 02/M05 A2970 1180 61 -100 270/22G28 RMK AO2 PK WND 26028/1259 T00171050
04850KAOH AOH20160402081013404/02/16 08:10:31  5-MIN KAOH 021310Z AUTO 24025G29KT 10SM CLR 02/M05 A2970 1190 61 -100 250/25G29 RMK AO2 PK WND 24030/1310 T00171050
04850KAOH AOH20160402081513404/02/16 08:15:31  5-MIN KAOH 021315Z AUTO 25021G31KT 10SM CLR 02/M06 A2969 1190 59 -100 260/21G31 RMK AO2 PK WND 25031/1311 T00171056
04850KAOH AOH20160402082013104/02/16 08:20:31  5-MIN KAOH 021320Z AUTO 26021G31KT 10SM CLR 02/M05 A2969 1190 61 0 260/21G31 RMK AO2 PK WND 25031/1311 T00171050
04850KAOH AOH20160402082512504/02/16 08:25:31  5-MIN KAOH 021325Z AUTO 25018KT 10SM CLR 02/M05 A2969 1190 61 0 250/18 RMK AO2 PK WND 25031/1311 T00171050
04850KAOH AOH20160402083013104/02/16 08:30:31  5-MIN KAOH 021330Z AUTO 25022G28KT 10SM CLR 02/M05 A2969 1190 61 0 260/22G28 RMK AO2 PK WND 25031/1311 T00171050
04850KAOH AOH20160402083513404/02/16 08:35:31  5-MIN KAOH 021335Z AUTO 25025G32KT 10SM FEW095 02/M05 A2969 1190 59 0 250/25G32 RMK AO2 PK WND 24032/1335 T00221050
04850KAOH AOH20160402084013404/02/16 08:40:31  5-MIN KAOH 021340Z AUTO 25017G32KT 10SM SCT095 02/M06 A2968 1200 56 0 250/17G32 RMK AO2 PK WND 24032/1335 T00221056
04850KAOH AOH20160402084513404/02/16 08:45:31  5-MIN KAOH 021345Z AUTO 25022G29KT 10SM BKN095 02/M06 A2968 1200 56 0 250/22G29 RMK AO2 PK WND 24032/1335 T00221056
04850KAOH AOH20160402085014104/02/16 08:50:31  5-MIN KAOH 021350Z AUTO 25020G29KT 10SM BKN095 02/M06 A2968 1200 56 0 260/20G29 RMK AO2 PK WND 24032/1335 SLP057 T00221056
04850KAOH AOH20160402085513404/02/16 08:55:31  5-MIN KAOH 021355Z AUTO 26020G29KT 10SM BKN095 02/M06 A2968 1200 59 0 270/20G29 RMK AO2 PK WND 27026/1355 T00171056
04850KAOH AOH20160402090013404/02/16 09:00:31  5-MIN KAOH 021400Z AUTO 26021G28KT 10SM BKN095 02/M04 A2968 1200 61 0 260/21G28 RMK AO2 PK WND 26028/1400 T00221044
04850KAOH AOH20160402090513604/02/16 09:05:31  5-MIN KAOH 021405Z AUTO 25022G29KT 10SM BKN095 03/M04 A2968 1200 59 100 250/22G29 RMK AO2 PK WND 23029/1405 T00281044
04850KAOH AOH20160402091013604/02/16 09:10:31  5-MIN KAOH 021410Z AUTO 25022G29KT 10SM SCT095 03/M04 A2968 1200 59 100 260/22G29 RMK AO2 PK WND 23029/1405 T00281044
04850KAOH AOH20160402091513604/02/16 09:15:31  5-MIN KAOH 021415Z AUTO 25020G28KT 10SM FEW090 03/M04 A2968 1200 59 100 260/20G28 RMK AO2 PK WND 23029/1405 T00281044
04850KAOH AOH20160402092013604/02/16 09:20:31  5-MIN KAOH 021420Z AUTO 25024G28KT 10SM FEW090 03/M05 A2967 1210 56 100 260/24G28 RMK AO2 PK WND 23029/1405 T00281050
04850KAOH AOH20160402092513304/02/16 09:25:31  5-MIN KAOH 021425Z AUTO 26023G31KT 10SM CLR 03/M05 A2967 1210 56 100 270/23G31 RMK AO2 PK WND 26031/1421 T00281050
04850KAOH AOH20160402093013604/02/16 09:30:31  5-MIN KAOH 021430Z AUTO 26025G32KT 10SM FEW120 03/M04 A2967 1210 59 100 260/25G32 RMK AO2 PK WND 27032/1427 T00281044
04850KAOH AOH20160402093513604/02/16 09:35:31  5-MIN KAOH 021435Z AUTO 25021G32KT 10SM SCT120 03/M04 A2967 1210 59 100 260/21G32 RMK AO2 PK WND 27032/1427 T00281044
04850KAOH AOH20160402094014304/02/16 09:40:31  5-MIN KAOH 021440Z AUTO 25023G33KT 10SM FEW040 BKN120 03/M04 A2967 1210 57 100 260/23G33 RMK AO2 PK WND 23033/1436 T00331044
04850KAOH AOH20160402094514304/02/16 09:45:31  5-MIN KAOH 021445Z AUTO 24024G33KT 10SM FEW042 BKN120 03/M04 A2966 1220 59 100 250/24G33 RMK AO2 PK WND 23033/1436 T00281044
04850KAOH AOH20160402095015604/02/16 09:50:31  5-MIN KAOH 021450Z AUTO 24025G31KT 10SM SCT042 BKN120 03/M04 A2966 1220 57 100 250/25G31 RMK AO2 PK WND 23033/1436 SLP048 T00331044 56006
04850KAOH AOH20160402095512504/02/16 09:55:31  5-MIN KAOH 021455Z AUTO 24019G30KT 10SM SCT042 BKN120 03/M04 A2965 1230 59 200 250/19G30 RMK AO2 T00331039
04850KAOH AOH20160402100014304/02/16 10:00:31  5-MIN KAOH 021500Z AUTO 26023G33KT 10SM SCT043 BKN120 03/M04 A2965 1220 57 100 260/23G33 RMK AO2 PK WND 25033/1458 T00331044
04850KAOH AOH20160402100514304/02/16 10:05:31  5-MIN KAOH 021505Z AUTO 24022G33KT 10SM SCT043 BKN120 03/M03 A2965 1230 61 100 250/22G33 RMK AO2 PK WND 25033/1458 T00331033
04850KAOH AOH20160402101014304/02/16 10:10:31  5-MIN KAOH 021510Z AUTO 25020G29KT 10SM SCT042 BKN065 04/M03 A2965 1230 62 200 260/20G29 RMK AO2 PK WND 25033/1458 T00391028
04850KAOH AOH20160402101514304/02/16 10:15:31  5-MIN KAOH 021515Z AUTO 24023G29KT 10SM SCT042 BKN065 04/M03 A2965 1230 59 200 250/23G29 RMK AO2 PK WND 25033/1458 T00391033
04850KAOH AOH20160402102014304/02/16 10:20:31  5-MIN KAOH 021520Z AUTO 24024G30KT 10SM SCT040 BKN065 04/M04 A2964 1230 57 200 240/24G30 RMK AO2 PK WND 25033/1458 T00391039
04850KAOH AOH20160402102514304/02/16 10:25:31  5-MIN KAOH 021525Z AUTO 26024G30KT 10SM SCT040 BKN065 04/M03 A2964 1240 59 200 260/24G30 RMK AO2 PK WND 25033/1458 T00391033
04850KAOH AOH20160402103014404/02/16 10:30:31  5-MIN KAOH 021530Z AUTO 24023KT 10SM BKN040 BKN065 04/M03 A2963 1250 59 200 240/23 RMK AO2 PK WND 25033/1458 PRESFR T00391033
04850KAOH AOH20160402103515704/02/16 10:35:31  5-MIN KAOH 021535Z AUTO 24020G29KT 10SM BKN040 BKN065 BKN100 04/M04 A2961 1260 57 300 250/20G29 RMK AO2 PK WND 25033/1458 PRESFR T00391039
04850KAOH AOH20160402104015004/02/16 10:40:31  5-MIN KAOH 021540Z AUTO 24020G29KT 10SM SCT040 BKN065 BKN100 04/M03 A2961 1260 62 300 250/20G29 RMK AO2 PK WND 25033/1458 T00391028
04850KAOH AOH20160402104515004/02/16 10:45:31  5-MIN KAOH 021545Z AUTO 24017G26KT 10SM SCT040 SCT065 BKN095 04/M03 A2961 1260 57 300 240/17G26 RMK AO2 PK WND 25033/1458 T00441033
04850KAOH AOH20160402105015704/02/16 10:50:31  5-MIN KAOH 021550Z AUTO 24021G28KT 10SM FEW040 SCT065 BKN095 05/M03 A2961 1270 57 400 250/21G28 RMK AO2 PK WND 25033/1458 SLP031 T00501028
04850KAOH AOH20160402105514304/02/16 10:55:31  5-MIN KAOH 021555Z AUTO 25022G29KT 10SM FEW040 SCT095 04/M03 A2961 1270 59 300 250/22G29 RMK AO2 PK WND 24026/1554 T00441028
04850KAOH AOH20160402110015004/02/16 11:00:31  5-MIN KAOH 021600Z AUTO 23023G31KT 10SM FEW040 FEW075 BKN090 04/M03 A2960 1280 59 300 240/23G31 RMK AO2 PK WND 22031/1600 T00441028
04850KAOH AOH20160402110515004/02/16 11:05:31  5-MIN KAOH 021605Z AUTO 24022G31KT 10SM FEW040 SCT070 BKN090 04/M04 A2960 1280 55 400 240/22G31 RMK AO2 PK WND 22031/1600 T00441039
04850KAOH AOH20160402111014304/02/16 11:10:31  5-MIN KAOH 021610Z AUTO 24022G29KT 10SM BKN070 BKN090 04/M04 A2959 1280 55 400 250/22G29 RMK AO2 PK WND 22031/1600 T00441039
04850KAOH AOH20160402111515004/02/16 11:15:31  5-MIN KAOH 021615Z AUTO 24020G29KT 10SM FEW046 BKN065 BKN075 04/M03 A2959 1280 57 400 250/20G29 RMK AO2 PK WND 22031/1600 T00441033
04850KAOH AOH20160402112015004/02/16 11:20:31  5-MIN KAOH 021620Z AUTO 23020G27KT 10SM FEW046 BKN055 OVC090 05/M03 A2958 1290 55 400 240/20G27 RMK AO2 PK WND 22031/1600 T00501033
04850KAOH AOH20160402112515004/02/16 11:25:31  5-MIN KAOH 021625Z AUTO 24023G29KT 10SM FEW040 BKN055 OVC070 06/M03 A2958 1300 55 500 250/23G29 RMK AO2 PK WND 22031/1600 T00561028
04850KAOH AOH20160402113015004/02/16 11:30:31  5-MIN KAOH 021630Z AUTO 24019G29KT 10SM SCT044 BKN055 OVC070 06/M02 A2958 1300 57 500 250/19G29 RMK AO2 PK WND 22031/1600 T00561022
04850KAOH AOH20160402113515004/02/16 11:35:31  5-MIN KAOH 021635Z AUTO 22021G28KT 10SM BKN041 BKN055 OVC070 05/M03 A2957 1300 55 400 230/21G28 RMK AO2 PK WND 22031/1600 T00501033
04850KAOH AOH20160402114015004/02/16 11:40:31  5-MIN KAOH 021640Z AUTO 22022G30KT 10SM BKN043 BKN050 OVC060 05/M03 A2957 1300 55 400 230/22G30 RMK AO2 PK WND 22031/1600 T00501033
04850KAOH AOH20160402114514304/02/16 11:45:31  5-MIN KAOH 021645Z AUTO 22023G33KT 10SM BKN043 OVC050 04/M04 A2957 1310 55 400 230/23G33 RMK AO2 PK WND 23033/1643 T00441039
04850KAOH AOH20160402115015004/02/16 11:50:31  5-MIN KAOH 021650Z AUTO 24018G33KT 10SM BKN041 OVC050 04/M03 A2956 1310 57 400 250/18G33 RMK AO2 PK WND 23033/1643 SLP015 T00441033
04850KAOH AOH20160402115514304/02/16 11:55:31  5-MIN KAOH 021655Z AUTO 24024G31KT 10SM BKN041 OVC050 05/M02 A2956 1310 59 500 250/24G31 RMK AO2 PK WND 24029/1655 T00501022
04850KAOH AOH20160402120014304/02/16 12:00:31  5-MIN KAOH 021700Z AUTO 24024G34KT 10SM BKN039 OVC049 04/M03 A2956 1320 59 400 240/24G34 RMK AO2 PK WND 24034/1656 T00441028
04850KAOH AOH20160402120514304/02/16 12:05:31  5-MIN KAOH 021705Z AUTO 23019G34KT 10SM BKN039 OVC049 04/M02 A2955 1330 64 400 230/19G34 RMK AO2 PK WND 24034/1656 T00441017
04850KAOH AOH20160402121015704/02/16 12:10:31  5-MIN KAOH 021710Z AUTO 23017G29KT 10SM FEW034 BKN041 OVC049 04/M02 A2954 1330 62 400 240/17G29 RMK AO2 PK WND 24034/1656 PRESFR T00441022
04850KAOH AOH20160402121514304/02/16 12:15:31  5-MIN KAOH 021715Z AUTO 22021G29KT 10SM SCT036 OVC044 05/M02 A2953 1340 62 500 230/21G29 RMK AO2 PK WND 24034/1656 T00501017
04850KAOH AOH20160402122015004/02/16 12:20:31  5-MIN KAOH 021720Z AUTO 22015G29KT 10SM SCT034 OVC044 05/M02 A2953 1340 62 500 230/15G29 RMK AO2 PK WND 24034/1656 PRESFR T00501017
04850KAOH AOH20160402122514304/02/16 12:25:31  5-MIN KAOH 021725Z AUTO 23016G24KT 10SM BKN036 OVC044 05/M02 A2952 1350 62 500 240/16G24 RMK AO2 PK WND 24034/1656 T00501017
04850KAOH AOH20160402123014304/02/16 12:30:31  5-MIN KAOH 021730Z AUTO 23017G28KT 10SM BKN034 OVC047 05/M02 A2952 1350 62 500 230/17G28 RMK AO2 PK WND 24034/1656 T00501017
04850KAOH AOH20160402123514304/02/16 12:35:31  5-MIN KAOH 021735Z AUTO 22021G29KT 10SM BKN036 OVC047 05/M02 A2951 1360 62 500 230/21G29 RMK AO2 PK WND 24034/1656 T00501017
04850KAOH AOH20160402124014304/02/16 12:40:31  5-MIN KAOH 021740Z AUTO 24020G29KT 10SM BKN036 OVC043 05/M02 A2952 1350 59 500 240/20G29 RMK AO2 PK WND 24034/1656 T00501022
04850KAOH AOH20160402124514304/02/16 12:45:31  5-MIN KAOH 021745Z AUTO 23022G27KT 10SM BKN036 OVC046 05/M02 A2951 1360 62 500 240/22G27 RMK AO2 PK WND 24034/1656 T00501017
04850KAOH AOH20160402125016804/02/16 12:50:31  5-MIN KAOH 021750Z AUTO 22017G27KT 10SM BKN038 OVC048 05/M02 A2951 1360 62 500 230/17G27 RMK AO2 PK WND 24034/1656 SLP997 T00501017 10056 20011 58017
04850KAOH AOH20160402125512504/02/16 12:55:31  5-MIN KAOH 021755Z AUTO 24017G25KT 10SM BKN041 OVC050 05/M02 A2951 1360 62 500 250/17G25 RMK AO2 T00501017
04850KAOH AOH20160402130013604/02/16 13:00:31  5-MIN KAOH 021800Z AUTO 23023G31KT 10SM OVC041 05/M02 A2951 1360 62 500 240/23G31 RMK AO2 PK WND 23031/1800 T00501017
04850KAOH AOH20160402130513604/02/16 13:05:31  5-MIN KAOH 021805Z AUTO 24018G31KT 10SM OVC041 06/M02 A2951 1360 59 600 240/18G31 RMK AO2 PK WND 23031/1800 T00561017
04850KAOH AOH20160402131013704/02/16 13:10:31  5-MIN KAOH 021810Z AUTO 24019KT 10SM BKN041 OVC048 06/M02 A2951 1360 59 600 250/19 RMK AO2 PK WND 23031/1800 T00561017
04850KAOH AOH20160402131515904/02/16 13:15:31  5-MIN KAOH 021815Z AUTO 25027G37KT 10SM -RA BKN039 OVC047 06/M01 A2952 1350 62 600 260/27G37 RMK AO2 PK WND 25037/1814 RAB12 P0000 T00561011
04850KAOH AOH20160402132015704/02/16 13:20:31  5-MIN KAOH 021820Z AUTO 24025G37KT 9SM -RA BKN039 OVC048 04/00 A2952 1350 73 400 250/25G37 RMK AO2 PK WND 25037/1814 RAB12 P0000 T00440000
04850KAOH AOH20160402132515104/02/16 13:25:31  5-MIN KAOH 021825Z AUTO 25023G33KT 10SM -RA OVC037 05/00 A2952 1350 70 500 250/23G33 RMK AO2 PK WND 25037/1814 RAB12 P0000 T00500000
04850KAOH AOH20160402133015804/02/16 13:30:31  5-MIN KAOH 021830Z AUTO 25024G33KT 10SM -RA BKN029 OVC039 05/01 A2951 1360 73 500 260/24G33 RMK AO2 PK WND 25037/1814 RAB12 P0000 T00500006
04850KAOH AOH20160402133516504/02/16 13:35:31  5-MIN KAOH 021835Z AUTO 24026G36KT 10SM -RA BKN027 BKN038 OVC080 05/01 A2951 1360 76 500 240/26G36 RMK AO2 PK WND 25037/1814 RAB12 P0000 T00500011
04850KAOH AOH20160402134016504/02/16 13:40:31  5-MIN KAOH 021840Z AUTO 25028G41KT 10SM -RA SCT030 BKN040 OVC080 06/00 A2950 1370 67 600 250/28G41 RMK AO2 PK WND 25041/1838 RAB12 P0002 T00560000
04850KAOH AOH20160402134516404/02/16 13:45:31  5-MIN KAOH 021845Z AUTO 24029G41KT 10SM BKN032 BKN042 OVC075 06/00 A2950 1370 67 600 250/29G41 RMK AO2 PK WND 25041/1838 RAB12E41 P0002 T00560000
04850KAOH AOH20160402135017104/02/16 13:50:31  5-MIN KAOH 021850Z AUTO 24029G40KT 10SM BKN032 BKN045 OVC090 06/00 A2949 1370 65 700 250/29G40 RMK AO2 PK WND 25041/1838 RAB12E41 SLP992 P0002 T00610000
04850KAOH AOH20160402135515604/02/16 13:55:31  5-MIN KAOH 021855Z AUTO 24025G40KT 10SM SCT032 BKN045 OVC090 07/00 A2948 1390 62 800 240/25G40 RMK AO2 PK WND 24032/1855 PRESFR T00670000
04850KAOH AOH20160402140016104/02/16 14:00:31  5-MIN KAOH 021900Z AUTO 24034G42KT 10SM SCT032 SCT045 BKN060 07/00 A2948 1390 62 800 240/34G42 RMK AO2 PK WND 23042/1900 LTG DSNT NW T00670000
04850KAOH AOH20160402140515404/02/16 14:05:31  5-MIN KAOH 021905Z AUTO 24029G42KT 10SM SCT037 SCT055 07/00 A2947 1390 62 800 250/29G42 RMK AO2 PK WND 23042/1900 LTG DSNT NW T00670000
04850KAOH AOH20160402141016104/02/16 14:10:31  5-MIN KAOH 021910Z AUTO 25024G37KT 10SM SCT035 SCT043 SCT050 07/01 A2947 1400 65 800 250/24G37 RMK AO2 PK WND 23042/1900 LTG DSNT NW T00670006
04850KAOH AOH20160402141514904/02/16 14:15:31  5-MIN KAOH 021915Z AUTO 23033G41KT 10SM FEW033 SCT041 BKN050 06/00 A2947 1390 67 600 240/33G41 RMK AO2 PK WND 23042/1900 T00560000
04850KAOH AOH20160402142014904/02/16 14:20:31  5-MIN KAOH 021920Z AUTO 24026G41KT 10SM FEW033 BKN040 BKN055 06/00 A2947 1400 67 600 240/26G41 RMK AO2 PK WND 23042/1900 T00560000
04850KAOH AOH20160402142516104/02/16 14:25:31  5-MIN KAOH 021925Z AUTO 24024G40KT 10SM FEW034 SCT046 BKN060 06/01 A2947 1400 70 700 240/24G40 RMK AO2 PK WND 23042/1900 LTG DSNT NW T00610011
04850KAOH AOH20160402143016104/02/16 14:30:31  5-MIN KAOH 021930Z AUTO 25023G31KT 10SM FEW026 SCT032 BKN044 06/01 A2947 1400 70 600 260/23G31 RMK AO2 PK WND 23042/1900 LTG DSNT NW T00560006
04850KAOH AOH20160402143516904/02/16 14:35:31  5-MIN KAOH 021935Z AUTO 26034G44KT 4SM HZ FEW013 BKN032 OVC060 04/01 A2948 1390 79 500 260/34G44 RMK AO2 PK WND 25044/1935 LTG DSNT N AND NW T00440011
04850KAOH AOH20160402144018604/02/16 14:40:31  5-MIN KAOH 021940Z AUTO 26030G44KT 1SM -SN BR FEW008 BKN026 OVC065 02/00 A2948 1390 89 100 270/30G44 RMK AO2 PK WND 25044/1935 LTG DSNT N RAB36E39SNB39 P0002 T00170000
04850KAOH AOH20160402144518804/02/16 14:45:31  5-MIN KAOH 021945Z AUTO 26022G36KT 3/4SM -SN BR FEW008 BKN021 OVC050 02/01 A2948 1390 92 100 260/22G36 RMK AO2 PK WND 25044/1935 LTG DSNT N RAB36E39SNB39 P0004 T00170006
04850KAOH AOH20160402145018504/02/16 14:50:31  5-MIN KAOH 021950Z AUTO 25021G34KT 2 1/2SM VCTS -SN BR FEW006 BKN033 OVC060 03/02 A2948 1390 92 300 260/21G34 RMK AO2 PK WND 25044/1935 LTG DSNT N RAB36E39SNB39 P0004
04850KAOH AOH20160402145519004/02/16 14:55:31  5-MIN KAOH 021955Z AUTO 26031G44KT 6SM VCTS -RA BR SCT013 BKN024 OVC046 03/02 A2948 1390 89 300 270/31G44 RMK AO2 PK WND 26044/1955 LTG DSNT N AND NE RAB54 P0000 T00330017
04850KAOH AOH20160402150020004/02/16 15:00:31  5-MIN KAOH 022000Z AUTO 28037G45KT 2 1/2SM VCTS -RA BR BKN010 BKN024 OVC046 02/01 A2949 1380 92 200 280/37G45 RMK AO2 PK WND 28045/1959 VIS 3/4V5 LTG DSNT NE RAB1954 P0002 T00220011
04850KAOH AOH20160402150520304/02/16 15:05:31  5-MIN KAOH 022005Z AUTO 28022G45KT 1 1/2SM -SN BR SCT010 BKN015 OVC046 02/01 A2947 1390 92 200 280/22G45 RMK AO2 PK WND 28045/1959 VIS 3/4V5 LTG DSNT NE RAB1954E01SNB01 P0002 T00170006
04850KAOH AOH20160402151017704/02/16 15:10:31  5-MIN KAOH 022010Z AUTO 28025G40KT 3SM -SN BR FEW010 BKN023 OVC070 03/01 A2947 1400 85 300 280/25G40 RMK AO2 PK WND 28045/1959 RAB1954E01SNB01 P0002 T00280006
04850KAOH AOH20160402151519904/02/16 15:15:31  5-MIN KAOH 022015Z AUTO 27022G33KT 9SM FEW013 BKN060 OVC070 03/01 A2947 1390 89 300 280/22G33 RMK AO2 PK WND 28045/1959 LTG DSNT N AND NE RAB1954E01UPB13E15SNB01E13 P0002 T00280011
04850KAOH AOH20160402152020004/02/16 15:20:31  5-MIN KAOH 022020Z AUTO 27021G28KT 10SM FEW011 SCT028 OVC065 03/01 A2948 1390 82 300 270/21G28 RMK AO2 PK WND 28045/1959 LTG DSNT N AND NE RAB1954E01UPB13E15SNB01E13 P0002 T00330006
04850KAOH AOH20160402152520004/02/16 15:25:31  5-MIN KAOH 022025Z AUTO 27021G28KT 10SM FEW014 BKN050 OVC070 03/01 A2948 1390 82 300 270/21G28 RMK AO2 PK WND 28045/1959 LTG DSNT N AND NE RAB1954E01UPB13E15SNB01E13 P0002 T00330006
04850KAOH AOH20160402153019304/02/16 15:30:31  5-MIN KAOH 022030Z AUTO 27025G32KT 8SM SCT025 BKN050 OVC070 03/00 A2949 1380 79 300 280/25G32 RMK AO2 PK WND 28045/1959 LTG DSNT NE RAB1954E01UPB13E15SNB01E13 P0002 T00330000
04850KAOH AOH20160402153519604/02/16 15:35:31  5-MIN KAOH 022035Z AUTO 27031G46KT 2SM -SN SCT025 BKN037 OVC070 02/M01 A2950 1370 82 200 280/31G46 RMK AO2 PK WND 27046/2032 RAB1954E01UPB13E15SNB01E13B31 PRESRR P0002 T00221006
04850KAOH AOH20160402154020504/02/16 15:40:31  5-MIN KAOH 022040Z AUTO 28027G46KT 1 3/4SM -SN SCT025 BKN033 OVC070 02/M01 A2950 1370 78 200 280/27G46 RMK AO2 PK WND 27046/2032 LTG DSNT SE RAB1954E01UPB13E15SNB01E13B31 P0002 T00221011
04850KAOH AOH20160402154520104/02/16 15:45:31  5-MIN KAOH 022045Z AUTO 28025G38KT 5SM -SN FEW022 BKN033 OVC070 02/M02 A2950 1370 75 200 280/25G38 RMK AO2 PK WND 27046/2032 LTG DSNT SE RAB1954E01UPB13E15SNB01E13B31 P0002 T00221017
04850KAOH AOH20160402155022004/02/16 15:50:31  5-MIN KAOH 022050Z AUTO 28029G38KT 9SM -SN FEW022 BKN035 OVC070 03/M01 A2950 1370 72 300 280/29G38 RMK AO2 PK WND 27046/2032 LTG DSNT SE RAB1954E01UPB13E15SNB01E13B31 SLP996 P0002 60008 T00331011 57047
04850KAOH AOH20160402155515504/02/16 15:55:31  5-MIN KAOH 022055Z AUTO 28031G45KT 9SM FEW023 SCT031 BKN060 03/M02 A2951 1360 67 300 280/31G45 RMK AO2 PK WND 28045/2055 P0001 T00331022
04850KAOH AOH20160402160015604/02/16 16:00:31  5-MIN KAOH 022100Z AUTO 28029G46KT 10SM FEW018 SCT031 BKN075 03/M03 A2951 1360 64 300 290/29G46 RMK AO2 PK WND 29046/2057 P0001 T00331028
04850KAOH AOH20160402160515604/02/16 16:05:31  5-MIN KAOH 022105Z AUTO 28022G46KT 10SM FEW031 SCT060 BKN070 04/M02 A2951 1360 67 400 290/22G46 RMK AO2 PK WND 29046/2057 P0001 T00391017
04850KAOH AOH20160402161015604/02/16 16:10:31  5-MIN KAOH 022110Z AUTO 28024G34KT 10SM FEW055 SCT070 BKN095 04/M01 A2951 1360 70 400 280/24G34 RMK AO2 PK WND 29046/2057 P0001 T00391011
04850KAOH AOH20160402161514904/02/16 16:15:31  5-MIN KAOH 022115Z AUTO 27027G39KT 10SM FEW065 SCT095 04/M02 A2951 1360 67 400 280/27G39 RMK AO2 PK WND 29046/2057 P0001 T00391017
04850KAOH AOH20160402162015604/02/16 16:20:31  5-MIN KAOH 022120Z AUTO 27026G39KT 10SM FEW036 FEW070 SCT095 04/M02 A2951 1360 67 400 270/26G39 RMK AO2 PK WND 29046/2057 P0001 T00391017
04850KAOH AOH20160402162515604/02/16 16:25:31  5-MIN KAOH 022125Z AUTO 27025G37KT 10SM FEW034 SCT047 BKN095 03/M02 A2952 1350 70 300 270/25G37 RMK AO2 PK WND 29046/2057 P0001 T00331017
04850KAOH AOH20160402163017604/02/16 16:30:31  5-MIN KAOH 022130Z AUTO 28031G42KT 2 1/2SM -SN FEW019 SCT032 BKN046 02/M01 A2953 1340 78 200 280/31G42 RMK AO2 PK WND 29046/2057 SNB28 PRESRR P0001 T00221011
04850KAOH AOH20160402163517104/02/16 16:35:31  5-MIN KAOH 022135Z AUTO 27027G42KT 2 1/2SM -SN BR FEW020 SCT026 BKN045 02/00 A2953 1340 85 200 280/27G42 RMK AO2 PK WND 29046/2057 SNB28 P0001 T00220000
04850KAOH AOH20160402164016404/02/16 16:40:31  5-MIN KAOH 022140Z AUTO 26025G34KT 6SM -SN FEW016 BKN032 BKN045 03/00 A2953 1340 82 200 270/25G34 RMK AO2 PK WND 29046/2057 SNB28 P0001 T00280000
04850KAOH AOH20160402164516304/02/16 16:45:31  5-MIN KAOH 022145Z AUTO 26028G34KT 9SM FEW024 SCT030 BKN035 03/00 A2953 1340 82 200 270/28G34 RMK AO2 PK WND 29046/2057 SNB28E41 P0001 T00280000
04850KAOH AOH20160402165017204/02/16 16:50:31  5-MIN KAOH 022150Z AUTO 26025G34KT 10SM SCT024 SCT030 BKN035 03/M01 A2953 1340 79 200 270/25G34 RMK AO2 PK WND 29046/2057 SNB28E41 SLP006 P0001 T00281006
04850KAOH AOH20160402165516604/02/16 16:55:31  5-MIN KAOH 022155Z AUTO 26025G35KT 10SM -SN SCT021 BKN027 BKN033 02/M01 A2953 1340 82 100 270/25G35 RMK AO2 PK WND 26035/2155 SNB54 P0000 T00221006
04850KAOH AOH20160402170016704/02/16 17:00:31  5-MIN KAOH 022200Z AUTO 28032G44KT 9SM -SN FEW019 SCT025 BKN033 02/M01 A2954 1330 78 100 280/32G44 RMK AO2 PK WND 28044/2157 SNB2154 P0000 T00221011
04850KAOH AOH20160402170516604/02/16 17:05:31  5-MIN KAOH 022205Z AUTO 27028G44KT 9SM FEW020 SCT024 BKN031 03/M02 A2954 1330 72 200 280/28G44 RMK AO2 PK WND 28044/2157 SNB2154E05 P0000 T00281017
04850KAOH AOH20160402171016604/02/16 17:10:31  5-MIN KAOH 022210Z AUTO 27025G41KT 9SM FEW021 BKN027 OVC041 02/M02 A2954 1330 75 100 280/25G41 RMK AO2 PK WND 28044/2157 SNB2154E05 P0000 T00221017
04850KAOH AOH20160402171516704/02/16 17:15:31  5-MIN KAOH 022215Z AUTO 27032G41KT 10SM SCT021 BKN026 OVC034 02/M02 A2955 1320 75 100 270/32G41 RMK AO2 PK WND 28044/2157 SNB2154E05 P0000 T00221017
04850KAOH AOH20160402172017504/02/16 17:20:31  5-MIN KAOH 022220Z AUTO 27028G42KT 10SM UP BKN022 BKN027 OVC032 02/M01 A2955 1320 78 100 280/28G42 RMK AO2 PK WND 28044/2157 UPB18SNB2154E05 P0000 T00221011
04850KAOH AOH20160402172517504/02/16 17:25:31  5-MIN KAOH 022225Z AUTO 28028G42KT 10SM UP BKN024 BKN030 OVC036 02/M01 A2956 1320 78 100 290/28G42 RMK AO2 PK WND 28044/2157 UPB18SNB2154E05 P0000 T00221011
04850KAOH AOH20160402173017504/02/16 17:30:31  5-MIN KAOH 022230Z AUTO 27036G43KT 10SM BKN024 BKN031 OVC038 02/M02 A2956 1310 75 100 280/36G43 RMK AO2 PK WND 28044/2157 UPB18E29SNB2154E05 P0000 T00221017
04850KAOH AOH20160402173518204/02/16 17:35:31  5-MIN KAOH 022235Z AUTO 28032G47KT 10SM UP BKN024 BKN031 OVC038 02/M02 A2957 1300 75 100 290/32G47 RMK AO2 PK WND 29047/2233 UPB18SNB2154E05 PRESRR P0000 T00221017
04850KAOH AOH20160402174018204/02/16 17:40:31  5-MIN KAOH 022240Z AUTO 29032G47KT 10SM UP SCT021 BKN026 BKN033 02/M02 A2958 1290 72 100 290/32G47 RMK AO2 PK WND 29047/2233 UPB18SNB2154E05 PRESRR P0000 T00221022
04850KAOH AOH20160402174518204/02/16 17:45:31  5-MIN KAOH 022245Z AUTO 29028G45KT 10SM SCT024 BKN031 BKN038 02/M03 A2959 1280 69 100 300/28G45 RMK AO2 PK WND 29047/2233 UPB18E42SNB2154E05 PRESRR P0000 T00221028
04850KAOH AOH20160402175018204/02/16 17:50:31  5-MIN KAOH 022250Z AUTO 30037G45KT 10SM SCT025 BKN034 02/M03 A2960 1280 69 100 300/37G45 RMK AO2 PK WND 29047/2233 UPB18E42SNB2154E05 PRESRR SLP030 P0000 T00221028
04850KAOH AOH20160402175515704/02/16 17:55:31  5-MIN KAOH 022255Z AUTO 29027G45KT 10SM FEW021 FEW026 BKN034 02/M03 A2961 1270 67 100 300/27G45 RMK AO2 PK WND 28037/2254 PRESRR T00221033
04850KAOH AOH20160402180014804/02/16 18:00:31  5-MIN KAOH 022300Z AUTO 30029G42KT 10SM FEW028 BKN035 02/M03 A2961 1260 69 0 310/29G42 RMK AO2 PK WND 30040/2256 PRESRR T00171033
04850KAOH AOH20160402180514104/02/16 18:05:31  5-MIN KAOH 022305Z AUTO 29030G41KT 10SM BKN032 02/M03 A2962 1250 69 0 300/30G41 RMK AO2 PK WND 30041/2301 PRESRR T00171033
04850KAOH AOH20160402181014104/02/16 18:10:31  5-MIN KAOH 022310Z AUTO 29028G45KT 10SM BKN033 02/M03 A2963 1250 69 0 290/28G45 RMK AO2 PK WND 29045/2307 PRESRR T00171033
04850KAOH AOH20160402181514104/02/16 18:15:31  5-MIN KAOH 022315Z AUTO 29032G45KT 10SM BKN033 02/M04 A2964 1240 66 0 300/32G45 RMK AO2 PK WND 29045/2307 PRESRR T00171039
04850KAOH AOH20160402182015104/02/16 18:20:31  5-MIN KAOH 022320Z AUTO 30037G47KT 10SM SCT030 BKN037 01/M04 A2965 1230 69 -100 300/37G47 RMK AO2 PK WND 31047/2320 PRESRR T00111039
04850KAOH AOH20160402182514404/02/16 18:25:31  5-MIN KAOH 022325Z AUTO 30029G47KT 10SM SCT031 BKN039 01/M04 A2966 1220 66 -100 300/29G47 RMK AO2 PK WND 31047/2320 T00111044
04850KAOH AOH20160402183014404/02/16 18:30:31  5-MIN KAOH 022330Z AUTO 30024G38KT 10SM SCT033 BKN042 01/M04 A2966 1220 69 -100 310/24G38 RMK AO2 PK WND 31047/2320 T00111039
04850KAOH AOH20160402183514404/02/16 18:35:31  5-MIN KAOH 022335Z AUTO 30021G35KT 10SM SCT033 BKN042 01/M04 A2967 1210 69 -100 310/21G35 RMK AO2 PK WND 31047/2320 T00111039
04850KAOH AOH20160402184013704/02/16 18:40:31  5-MIN KAOH 022340Z AUTO 31027G35KT 10SM SCT038 01/M04 A2967 1210 69 -100 310/27G35 RMK AO2 PK WND 31047/2320 T00111039
04850KAOH AOH20160402184514404/02/16 18:45:31  5-MIN KAOH 022345Z AUTO 30024G35KT 10SM SCT036 BKN044 01/M04 A2967 1210 69 -100 300/24G35 RMK AO2 PK WND 31047/2320 T00111039
04850KAOH AOH20160402185018204/02/16 18:50:31  5-MIN KAOH 022350Z AUTO 30025G32KT 10SM SCT036 BKN044 01/M04 A2968 1200 66 -100 310/25G32 RMK AO2 PK WND 31047/2320 PRESRR SLP059 60009 T00111044 10067 20011 55002
04850KAOH AOH20160402185514404/02/16 18:55:31  5-MIN KAOH 022355Z AUTO 30026G35KT 10SM BKN040 01/M04 A2969 1190 66 -100 310/26G35 RMK AO2 PK WND 29032/2355 PRESRR T00111044
04850KAOH AOH20160402190013704/02/16 19:00:31  5-MIN KAOH 030000Z AUTO 29024G35KT 10SM BKN040 01/M05 A2969 1190 64 -100 300/24G35 RMK AO2 PK WND 29032/2355 T00111050
04850KAOH AOH20160402190514404/02/16 19:05:31  5-MIN KAOH 030005Z AUTO 30027G39KT 10SM SCT038 BKN045 01/M05 A2970 1180 64 -100 310/27G39 RMK AO2 PK WND 30039/0003 T00111050
04850KAOH AOH20160402191013704/02/16 19:10:31  5-MIN KAOH 030010Z AUTO 31019G39KT 10SM SCT039 01/M05 A2970 1180 64 -100 310/19G39 RMK AO2 PK WND 30039/0003 T00111050
04850KAOH AOH20160402191513704/02/16 19:15:31  5-MIN KAOH 030015Z AUTO 30021G33KT 10SM SCT039 01/M04 A2971 1170 66 -100 310/21G33 RMK AO2 PK WND 30039/0003 T00111044
04850KAOH AOH20160402192014404/02/16 19:20:31  5-MIN KAOH 030020Z AUTO 30024G34KT 10SM SCT039 01/M04 A2972 1170 69 -200 300/24G34 RMK AO2 PK WND 30039/0003 PRESRR T00061044
04850KAOH AOH20160402192514404/02/16 19:25:31  5-MIN KAOH 030025Z AUTO 30020G34KT 10SM FEW037 01/M04 A2972 1160 69 -200 310/20G34 RMK AO2 PK WND 30039/0003 PRESRR T00061044
04850KAOH AOH20160402193014404/02/16 19:30:31  5-MIN KAOH 030030Z AUTO 29021G32KT 10SM FEW037 01/M04 A2973 1160 69 -200 300/21G32 RMK AO2 PK WND 30039/0003 PRESRR T00061044
04850KAOH AOH20160402193514404/02/16 19:35:31  5-MIN KAOH 030035Z AUTO 30028G35KT 10SM FEW037 01/M05 A2974 1150 66 -200 300/28G35 RMK AO2 PK WND 30039/0003 PRESRR T00061050
04850KAOH AOH20160402194014404/02/16 19:40:31  5-MIN KAOH 030040Z AUTO 30023G35KT 10SM FEW037 01/M05 A2974 1140 66 -300 310/23G35 RMK AO2 PK WND 30039/0003 PRESRR T00061050
04850KAOH AOH20160402194514104/02/16 19:45:31  5-MIN KAOH 030045Z AUTO 30022G37KT 10SM CLR 01/M06 A2975 1130 63 -300 310/22G37 RMK AO2 PK WND 30039/0003 PRESRR T00061056
04850KAOH AOH20160402195014804/02/16 19:50:31  5-MIN KAOH 030050Z AUTO 30023G37KT 10SM CLR 01/M06 A2976 1130 61 -300 300/23G37 RMK AO2 PK WND 30039/0003 PRESRR SLP085 T00061061
04850KAOH AOH20160402195512304/02/16 19:55:31  5-MIN KAOH 030055Z AUTO 30020G31KT 10SM CLR 01/M06 A2976 1120 63 -300 310/20G31 RMK AO2 PRESRR T00061056
04850KAOH AOH20160402200014104/02/16 20:00:31  5-MIN KAOH 030100Z AUTO 29023G30KT 10SM CLR 01/M06 A2977 1120 63 -300 300/23G30 RMK AO2 PK WND 30029/0100 PRESRR T00061056
04850KAOH AOH20160402200513404/02/16 20:05:31  5-MIN KAOH 030105Z AUTO 30020G29KT 10SM CLR 01/M06 A2977 1110 63 -300 300/20G29 RMK AO2 PK WND 29029/0102 T00061056
04850KAOH AOH20160402201014104/02/16 20:10:31  5-MIN KAOH 030110Z AUTO 29019G29KT 10SM CLR 01/M05 A2978 1100 66 -300 300/19G29 RMK AO2 PK WND 29029/0102 PRESRR T00061050
04850KAOH AOH20160402201514104/02/16 20:15:31  5-MIN KAOH 030115Z AUTO 29023G31KT 10SM CLR 01/M06 A2979 1100 63 -300 300/23G31 RMK AO2 PK WND 30031/0115 PRESRR T00061056
04850KAOH AOH20160402202013404/02/16 20:20:31  5-MIN KAOH 030120Z AUTO 29017G31KT 10SM CLR 01/M05 A2979 1090 66 -300 300/17G31 RMK AO2 PK WND 30031/0115 T00061050
04850KAOH AOH20160402202514104/02/16 20:25:31  5-MIN KAOH 030125Z AUTO 29017G29KT 10SM CLR 01/M05 A2980 1090 66 -300 290/17G29 RMK AO2 PK WND 30031/0115 PRESRR T00061050
04850KAOH AOH20160402203014104/02/16 20:30:31  5-MIN KAOH 030130Z AUTO 29021G27KT 10SM CLR 00/M05 A2981 1080 69 -400 300/21G27 RMK AO2 PK WND 30031/0115 PRESRR T00001050
04850KAOH AOH20160402203514104/02/16 20:35:31  5-MIN KAOH 030135Z AUTO 29019G27KT 10SM CLR 00/M05 A2981 1080 69 -400 300/19G27 RMK AO2 PK WND 30031/0115 PRESRR T00001050
04850KAOH AOH20160402204013404/02/16 20:40:31  5-MIN KAOH 030140Z AUTO 29019G25KT 10SM CLR 00/M05 A2982 1070 69 -400 290/19G25 RMK AO2 PK WND 30031/0115 T00001050
04850KAOH AOH20160402204513404/02/16 20:45:31  5-MIN KAOH 030145Z AUTO 29019G25KT 10SM CLR 00/M05 A2982 1070 69 -400 300/19G25 RMK AO2 PK WND 30031/0115 T00001050
04850KAOH AOH20160402205014104/02/16 20:50:31  5-MIN KAOH 030150Z AUTO 29016G25KT 10SM CLR 00/M05 A2983 1070 69 -400 300/16G25 RMK AO2 PK WND 30031/0115 SLP108 T00001050
04850KAOH AOH20160402205511604/02/16 20:55:31  5-MIN KAOH 030155Z AUTO 29015G22KT 10SM CLR 00/M05 A2983 1060 69 -400 290/15G22 RMK AO2 T00001050
04850KAOH AOH20160402210011904/02/16 21:00:31  5-MIN KAOH 030200Z AUTO 29016G22KT 10SM FEW100 00/M05 A2983 1060 69 -400 300/16G22 RMK AO2 T00001050
04850KAOH AOH20160402210511904/02/16 21:05:31  5-MIN KAOH 030205Z AUTO 29017G24KT 10SM FEW100 00/M04 A2984 1050 72 -400 290/17G24 RMK AO2 T00001044
04850KAOH AOH20160402211013704/02/16 21:10:31  5-MIN KAOH 030210Z AUTO 30020G29KT 10SM FEW100 00/M04 A2984 1050 72 -400 300/20G29 RMK AO2 PK WND 30029/0208 T00001044
04850KAOH AOH20160402211513804/02/16 21:15:31  5-MIN KAOH 030215Z AUTO 29017G29KT 10SM FEW100 M01/M04 A2985 1050 75 -500 290/17G29 RMK AO2 PK WND 30029/0208 T10061044
04850KAOH AOH20160402212013804/02/16 21:20:31  5-MIN KAOH 030220Z AUTO 30015G22KT 10SM FEW100 M01/M04 A2985 1040 75 -500 300/15G22 RMK AO2 PK WND 30029/0208 T10061044
04850KAOH AOH20160402212514504/02/16 21:25:31  5-MIN KAOH 030225Z AUTO 29023G33KT 10SM FEW029 FEW100 M01/M05 A2986 1040 72 -500 300/23G33 RMK AO2 PK WND 29033/0223 T10061050
04850KAOH AOH20160402213013804/02/16 21:30:31  5-MIN KAOH 030230Z AUTO 30018G33KT 10SM FEW029 M01/M05 A2986 1030 72 -500 310/18G33 RMK AO2 PK WND 29033/0223 T10061050
04850KAOH AOH20160402213513804/02/16 21:35:31  5-MIN KAOH 030235Z AUTO 30020G29KT 10SM FEW027 M01/M05 A2986 1030 72 -500 310/20G29 RMK AO2 PK WND 29033/0223 T10061050
04850KAOH AOH20160402214013504/02/16 21:40:31  5-MIN KAOH 030240Z AUTO 31019G27KT 10SM CLR M01/M05 A2986 1030 72 -500 310/19G27 RMK AO2 PK WND 29033/0223 T10061050
04850KAOH AOH20160402214513504/02/16 21:45:31  5-MIN KAOH 030245Z AUTO 30022G28KT 10SM CLR M01/M06 A2986 1030 69 -500 310/22G28 RMK AO2 PK WND 29033/0223 T10061056
04850KAOH AOH20160402215014804/02/16 21:50:31  5-MIN KAOH 030250Z AUTO 31018G28KT 10SM CLR M01/M06 A2987 1030 69 -500 310/18G28 RMK AO2 PK WND 29033/0223 SLP122 T10061056 53051
04850KAOH AOH20160402215512004/02/16 21:55:31  5-MIN KAOH 030255Z AUTO 30017G24KT 10SM FEW036 M01/M05 A2987 1020 72 -500 310/17G24 RMK AO2 T10061050
04850KAOH AOH20160402220012004/02/16 22:00:31  5-MIN KAOH 030300Z AUTO 30018G24KT 10SM FEW036 M01/M05 A2987 1020 72 -500 300/18G24 RMK AO2 T10061050
04850KAOH AOH20160402220512004/02/16 22:05:31  5-MIN KAOH 030305Z AUTO 29014G24KT 10SM FEW036 M01/M05 A2988 1020 72 -500 300/14G24 RMK AO2 T10061050
04850KAOH AOH20160402221012104/02/16 22:10:31  5-MIN KAOH 030310Z AUTO 29015KT 10SM FEW027 SCT036 M01/M05 A2988 1010 72 -500 300/15 RMK AO2 T10061050
04850KAOH AOH20160402221512104/02/16 22:15:31  5-MIN KAOH 030315Z AUTO 30020KT 10SM FEW027 BKN036 M01/M05 A2988 1010 72 -600 300/20 RMK AO2 T10061050
04850KAOH AOH20160402222012704/02/16 22:20:31  5-MIN KAOH 030320Z AUTO 30018G25KT 10SM FEW028 BKN034 M01/M05 A2988 1010 72 -600 310/18G25 RMK AO2 T10061050
04850KAOH AOH20160402222512004/02/16 22:25:31  5-MIN KAOH 030325Z AUTO 29018G25KT 10SM BKN032 M01/M05 A2989 1010 72 -600 300/18G25 RMK AO2 T10061050
04850KAOH AOH20160402223012704/02/16 22:30:31  5-MIN KAOH 030330Z AUTO 29020G25KT 10SM BKN030 BKN036 M01/M05 A2989 1010 75 -600 300/20G25 RMK AO2 T10111050
04850KAOH AOH20160402223512704/02/16 22:35:31  5-MIN KAOH 030335Z AUTO 29019G25KT 10SM SCT027 BKN034 M01/M04 A2990 1000 78 -600 300/19G25 RMK AO2 T10111044
04850KAOH AOH20160402224014504/02/16 22:40:31  5-MIN KAOH 030340Z AUTO 30021G27KT 10SM SCT024 BKN032 M01/M04 A2990 1000 78 -600 300/21G27 RMK AO2 PK WND 30027/0339 T10111044
04850KAOH AOH20160402224514504/02/16 22:45:31  5-MIN KAOH 030345Z AUTO 30019G27KT 10SM SCT024 BKN032 M01/M04 A2990 1000 78 -600 300/19G27 RMK AO2 PK WND 30027/0339 T10111044
04850KAOH AOH20160402225015104/02/16 22:50:31  5-MIN KAOH 030350Z AUTO 30016G25KT 10SM FEW024 SCT030 M01/M04 A2990 990 78 -600 300/16G25 RMK AO2 PK WND 30027/0339 SLP133 T10111044
04850KAOH AOH20160402225511304/02/16 22:55:31  5-MIN KAOH 030355Z AUTO 30015KT 10SM FEW023 M01/M04 A2990 990 78 -600 310/15 RMK AO2 T10111044
04850KAOH AOH20160402230011904/02/16 23:00:31  5-MIN KAOH 030400Z AUTO 30016G21KT 10SM FEW023 M01/M04 A2991 990 78 -700 310/16G21 RMK AO2 T10111044
04850KAOH AOH20160402230511904/02/16 23:05:31  5-MIN KAOH 030405Z AUTO 30015G21KT 10SM FEW023 M01/M04 A2991 990 78 -700 300/15G21 RMK AO2 T10111044
04850KAOH AOH20160402231011604/02/16 23:10:31  5-MIN KAOH 030410Z AUTO 30013G22KT 10SM CLR M01/M04 A2991 990 78 -700 300/13G22 RMK AO2 T10111044
04850KAOH AOH20160402231511604/02/16 23:15:31  5-MIN KAOH 030415Z AUTO 30016G22KT 10SM CLR M01/M04 A2991 980 78 -700 310/16G22 RMK AO2 T10111044
04850KAOH AOH20160402232011004/02/16 23:20:31  5-MIN KAOH 030420Z AUTO 30015KT 10SM CLR M01/M04 A2992 980 78 -700 310/15 RMK AO2 T10111044
04850KAOH AOH20160402232511004/02/16 23:25:31  5-MIN KAOH 030425Z AUTO 29014KT 10SM CLR M01/M04 A2992 980 78 -700 300/14 RMK AO2 T10111044
04850KAOH AOH20160402233011004/02/16 23:30:31  5-MIN KAOH 030430Z AUTO 29013KT 10SM CLR M01/M04 A2992 980 78 -700 300/13 RMK AO2 T10111044
04850KAOH AOH20160402233511004/02/16 23:35:31  5-MIN KAOH 030435Z AUTO 29012KT 10SM CLR M01/M04 A2993 970 78 -700 290/12 RMK AO2 T10111044
04850KAOH AOH20160402234011004/02/16 23:40:31  5-MIN KAOH 030440Z AUTO 29012KT 10SM CLR M01/M05 A2993 970 75 -700 300/12 RMK AO2 T10111050
04850KAOH AOH20160402234511004/02/16 23:45:31  5-MIN KAOH 030445Z AUTO 28012KT 10SM CLR M01/M05 A2993 960 75 -700 290/12 RMK AO2 T10111050
04850KAOH AOH20160402235012704/02/16 23:50:31  5-MIN KAOH 030450Z AUTO 29012KT 10SM CLR M01/M05 A2994 960 75 -700 300/12 RMK AO2 SLP146 T10111050 400671011
04850KAOH AOH20160402235511004/02/16 23:55:31  5-MIN KAOH 030455Z AUTO 29012KT 10SM CLR M02/M05 A2994 960 78 -800 290/12 RMK AO2 T10171050
04850KAOH AOH20160403000011004/03/16 00:00:31  5-MIN KAOH 030500Z AUTO 29013KT 10SM CLR M02/M05 A2994 960 78 -800 290/13 RMK AO2 T10171050
04850KAOH AOH20160403000511004/03/16 00:05:31  5-MIN KAOH 030505Z AUTO 28012KT 10SM CLR M02/M05 A2994 960 78 -800 290/12 RMK AO2 T10171050
04850KAOH AOH20160403001011604/03/16 00:10:31  5-MIN KAOH 030510Z AUTO 29015G21KT 10SM CLR M02/M06 A2995 950 75 -800 300/15G21 RMK AO2 T10171056
04850KAOH AOH20160403001511004/03/16 00:15:31  5-MIN KAOH 030515Z AUTO 29013KT 10SM CLR M02/M06 A2995 950 75 -800 300/13 RMK AO2 T10171056
04850KAOH AOH20160403002011604/03/16 00:20:31  5-MIN KAOH 030520Z AUTO 29014G20KT 10SM CLR M02/M06 A2995 950 75 -800 300/14G20 RMK AO2 T10171056
04850KAOH AOH20160403002511904/03/16 00:25:31  5-MIN KAOH 030525Z AUTO 29014G20KT 10SM FEW045 M02/M06 A2995 950 75 -800 300/14G20 RMK AO2 T10171056
04850KAOH AOH20160403003011304/03/16 00:30:31  5-MIN KAOH 030530Z AUTO 29014KT 10SM SCT043 M02/M06 A2996 940 75 -800 300/14 RMK AO2 T10171056
04850KAOH AOH20160403003512004/03/16 00:35:31  5-MIN KAOH 030535Z AUTO 30015KT 10SM FEW027 BKN043 M02/M06 A2996 940 75 -800 310/15 RMK AO2 T10171056
04850KAOH AOH20160403004012004/03/16 00:40:31  5-MIN KAOH 030540Z AUTO 30013KT 10SM SCT027 BKN043 M02/M06 A2996 940 75 -800 310/13 RMK AO2 T10171056
04850KAOH AOH20160403004512604/03/16 00:45:31  5-MIN KAOH 030545Z AUTO 31015G22KT 10SM SCT025 BKN043 M02/M06 A2996 940 75 -800 320/15G22 RMK AO2 T10171056
04850KAOH AOH20160403005013204/03/16 00:50:31  5-MIN KAOH 030550Z AUTO 34015KT 6SM -SN FEW016 BKN028 OVC044 M02/M05 A2997 940 81 -900 350/15 RMK AO2 SNB49 P0000
04850KAOH AOH20160403005514504/03/16 00:55:31  5-MIN KAOH 030555Z AUTO 33010G20KT 5SM -SN BR FEW016 BKN022 OVC042 M03/M05 A2996 940 85 -900 340/10G20 RMK AO2 P0000 T10281050
04850KAOH AOH20160403010013604/03/16 01:00:31  5-MIN KAOH 030600Z AUTO 33011KT 8SM -SN FEW016 BKN028 OVC044 M03/M05 A2997 930 85 -900 340/11 RMK AO2 P0000 T10281050
04850KAOH AOH20160403010513804/03/16 01:05:31  5-MIN KAOH 030605Z AUTO 32010KT 9SM FEW018 SCT024 OVC039 M03/M05 A2997 930 85 -900 330/10 RMK AO2 SNE04 P0000 T10281050
04850KAOH AOH20160403011013204/03/16 01:10:31  5-MIN KAOH 030610Z AUTO 32010KT 10SM SCT021 OVC038 M03/M04 A2997 930 88 -900 320/10 RMK AO2 SNE04 P0000 T10281044
04850KAOH AOH20160403011513204/03/16 01:15:31  5-MIN KAOH 030615Z AUTO 31007KT 10SM FEW021 OVC038 M03/M04 A2997 930 88 -900 320/07 RMK AO2 SNE04 P0000 T10281044
04850KAOH AOH20160403012013204/03/16 01:20:31  5-MIN KAOH 030620Z AUTO 31011KT 10SM FEW021 OVC038 M03/M04 A2997 930 88 -900 310/11 RMK AO2 SNE04 P0000 T10281044
04850KAOH AOH20160403012513904/03/16 01:25:31  5-MIN KAOH 030625Z AUTO 32009KT 10SM FEW021 FEW028 BKN038 M03/M04 A2998 930 88 -900 320/09 RMK AO2 SNE04 P0000 T10281044
04850KAOH AOH20160403013013904/03/16 01:30:31  5-MIN KAOH 030630Z AUTO 31009KT 10SM FEW021 BKN038 OVC046 M03/M04 A2998 930 88 -900 310/09 RMK AO2 SNE04 P0000 T10281044
04850KAOH AOH20160403013513904/03/16 01:35:31  5-MIN KAOH 030635Z AUTO 30010KT 10SM FEW021 SCT028 OVC037 M02/M04 A2997 930 85 -900 300/10 RMK AO2 SNE04 P0000 T10221044
04850KAOH AOH20160403014014504/03/16 01:40:31  5-MIN KAOH 030640Z AUTO 30009KT 9SM -SN SCT021 SCT028 BKN034 M02/M04 A2998 930 85 -900 310/09 RMK AO2 SNE04B37 P0000 T10221044
04850KAOH AOH20160403014514504/03/16 01:45:31  5-MIN KAOH 030645Z AUTO 30008KT 9SM -SN SCT022 SCT031 BKN037 M02/M04 A2998 920 85 -900 300/08 RMK AO2 SNE04B37 P0000 T10221044
04850KAOH AOH20160403015015104/03/16 01:50:31  5-MIN KAOH 030650Z AUTO 29008KT 9SM FEW022 SCT028 SCT033 M03/M04 A2998 920 88 -900 290/08 RMK AO2 SNE04B37E49 SLP161 P0000 T10281044
04850KAOH AOH20160403015512004/03/16 01:55:31  5-MIN KAOH 030655Z AUTO 29007KT 10SM FEW023 FEW030 M03/M04 A2998 920 88 -900 300/07 RMK AO2 T10281044
04850KAOH AOH20160403020012004/03/16 02:00:31  5-MIN KAOH 030700Z AUTO 29008KT 10SM FEW019 FEW030 M02/M04 A2998 920 85 -900 290/08 RMK AO2 T10221044
04850KAOH AOH20160403020511304/03/16 02:05:31  5-MIN KAOH 030705Z AUTO 28009KT 10SM FEW017 M02/M04 A2998 920 85 -900 290/09 RMK AO2 T10221044
04850KAOH AOH20160403021011004/03/16 02:10:31  5-MIN KAOH 030710Z AUTO 29008KT 10SM CLR M02/M05 A2998 920 81 -900 300/08 RMK AO2 T10221050
04850KAOH AOH20160403021511004/03/16 02:15:31  5-MIN KAOH 030715Z AUTO 29009KT 10SM CLR M02/M05 A2998 920 81 -900 290/09 RMK AO2 T10221050
04850KAOH AOH20160403022011004/03/16 02:20:31  5-MIN KAOH 030720Z AUTO 28009KT 10SM CLR M02/M05 A2998 920 81 -900 290/09 RMK AO2 T10221050
04850KAOH AOH20160403022511004/03/16 02:25:31  5-MIN KAOH 030725Z AUTO 28010KT 10SM CLR M02/M06 A2999 920 78 -900 290/10 RMK AO2 T10221056
04850KAOH AOH20160403023011004/03/16 02:30:31  5-MIN KAOH 030730Z AUTO 28010KT 10SM CLR M02/M06 A2999 910 78 -900 290/10 RMK AO2 T10221056
04850KAOH AOH20160403023511004/03/16 02:35:31  5-MIN KAOH 030735Z AUTO 29010KT 10SM CLR M02/M06 A2999 910 78 -900 290/10 RMK AO2 T10221056
04850KAOH AOH20160403024011004/03/16 02:40:31  5-MIN KAOH 030740Z AUTO 29009KT 10SM CLR M02/M06 A2999 910 78 -900 290/09 RMK AO2 T10221056
04850KAOH AOH20160403024511104/03/16 02:45:31  5-MIN KAOH 030745Z AUTO 30010KT 10SM CLR M03/M06 A2999 910 81 -1000 300/10 RMK AO2 T10281056
04850KAOH AOH20160403025011804/03/16 02:50:31  5-MIN KAOH 030750Z AUTO 29008KT 10SM CLR M03/M06 A2999 910 81 -1000 300/08 RMK AO2 SLP166 T10281056
04850KAOH AOH20160403025511104/03/16 02:55:31  5-MIN KAOH 030755Z AUTO 29011KT 10SM CLR M03/M06 A2999 910 78 -1000 300/11 RMK AO2 T10281061
04850KAOH AOH20160403030011104/03/16 03:00:31  5-MIN KAOH 030800Z AUTO 29009KT 10SM CLR M03/M06 A2999 910 78 -1000 300/09 RMK AO2 T10281061
04850KAOH AOH20160403030511104/03/16 03:05:31  5-MIN KAOH 030805Z AUTO 30008KT 10SM CLR M03/M06 A3000 910 81 -1000 300/08 RMK AO2 T10281056
04850KAOH AOH20160403031011104/03/16 03:10:31  5-MIN KAOH 030810Z AUTO 30010KT 10SM CLR M03/M06 A3000 910 78 -1000 300/10 RMK AO2 T10281061
04850KAOH AOH20160403031511104/03/16 03:15:31  5-MIN KAOH 030815Z AUTO 29010KT 10SM CLR M03/M06 A3000 910 78 -1000 300/10 RMK AO2 T10281061
04850KAOH AOH20160403032011104/03/16 03:20:31  5-MIN KAOH 030820Z AUTO 30009KT 10SM CLR M03/M06 A3000 910 78 -1000 300/09 RMK AO2 T10281061
04850KAOH AOH20160403032511104/03/16 03:25:31  5-MIN KAOH 030825Z AUTO 30009KT 10SM CLR M03/M06 A2999 910 78 -1000 310/09 RMK AO2 T10281061
04850KAOH AOH20160403033011104/03/16 03:30:31  5-MIN KAOH 030830Z AUTO 30009KT 10SM CLR M03/M06 A3000 910 78 -1000 310/09 RMK AO2 T10281061
04850KAOH AOH20160403033511104/03/16 03:35:31  5-MIN KAOH 030835Z AUTO 30009KT 10SM CLR M03/M07 A3000 910 75 -1000 300/09 RMK AO2 T10281067
04850KAOH AOH20160403034011104/03/16 03:40:31  5-MIN KAOH 030840Z AUTO 29008KT 10SM CLR M03/M06 A3000 900 78 -1000 290/08 RMK AO2 T10281061
04850KAOH AOH20160403034511104/03/16 03:45:31  5-MIN KAOH 030845Z AUTO 29007KT 10SM CLR M03/M06 A3000 900 78 -1000 290/07 RMK AO2 T10281061
04850KAOH AOH20160403035013004/03/16 03:50:31  5-MIN KAOH 030850Z AUTO 29008KT 10SM CLR M03/M06 A3001 900 78 -1000 290/08 RMK AO2 SLP170 60000 T10281061 51032
04850KAOH AOH20160403035511104/03/16 03:55:31  5-MIN KAOH 030855Z AUTO 29007KT 10SM CLR M03/M07 A3001 900 75 -1000 300/07 RMK AO2 T10281067
04850KAOH AOH20160403040011104/03/16 04:00:31  5-MIN KAOH 030900Z AUTO 28008KT 10SM CLR M03/M06 A3001 900 78 -1000 290/08 RMK AO2 T10281061
04850KAOH AOH20160403040511104/03/16 04:05:31  5-MIN KAOH 030905Z AUTO 28008KT 10SM CLR M03/M06 A3001 900 78 -1000 280/08 RMK AO2 T10281061
04850KAOH AOH20160403041011104/03/16 04:10:31  5-MIN KAOH 030910Z AUTO 28008KT 10SM CLR M03/M06 A3001 890 78 -1000 290/08 RMK AO2 T10281061
04850KAOH AOH20160403041511104/03/16 04:15:31  5-MIN KAOH 030915Z AUTO 29007KT 10SM CLR M03/M06 A3001 890 78 -1000 290/07 RMK AO2 T10281061
04850KAOH AOH20160403042011104/03/16 04:20:31  5-MIN KAOH 030920Z AUTO 29009KT 10SM CLR M03/M06 A3002 890 78 -1000 290/09 RMK AO2 T10281061
04850KAOH AOH20160403042511104/03/16 04:25:31  5-MIN KAOH 030925Z AUTO 29009KT 10SM CLR M03/M06 A3002 880 78 -1000 290/09 RMK AO2 T10281061
04850KAOH AOH20160403043011104/03/16 04:30:31  5-MIN KAOH 030930Z AUTO 29008KT 10SM CLR M03/M06 A3002 880 81 -1100 290/08 RMK AO2 T10331061
04850KAOH AOH20160403043511104/03/16 04:35:31  5-MIN KAOH 030935Z AUTO 29007KT 10SM CLR M03/M06 A3002 880 81 -1100 300/07 RMK AO2 T10331061
04850KAOH AOH20160403044011104/03/16 04:40:31  5-MIN KAOH 030940Z AUTO 28008KT 10SM CLR M03/M06 A3003 880 81 -1100 280/08 RMK AO2 T10331061
04850KAOH AOH20160403044511104/03/16 04:45:31  5-MIN KAOH 030945Z AUTO 27008KT 10SM CLR M03/M06 A3003 870 81 -1100 280/08 RMK AO2 T10331061
04850KAOH AOH20160403045011804/03/16 04:50:31  5-MIN KAOH 030950Z AUTO 27008KT 10SM CLR M03/M06 A3003 870 81 -1100 280/08 RMK AO2 SLP179 T10331061
04850KAOH AOH20160403045511104/03/16 04:55:31  5-MIN KAOH 030955Z AUTO 27007KT 10SM CLR M03/M06 A3003 870 85 -1100 280/07 RMK AO2 T10331056
04850KAOH AOH20160403050011104/03/16 05:00:31  5-MIN KAOH 031000Z AUTO 27006KT 10SM CLR M03/M06 A3003 870 85 -1100 280/06 RMK AO2 T10331056
04850KAOH AOH20160403050511104/03/16 05:05:31  5-MIN KAOH 031005Z AUTO 26008KT 10SM CLR M03/M06 A3004 870 85 -1100 270/08 RMK AO2 T10331056
04850KAOH AOH20160403051011104/03/16 05:10:31  5-MIN KAOH 031010Z AUTO 26007KT 10SM CLR M03/M06 A3004 860 81 -1100 260/07 RMK AO2 T10331061
04850KAOH AOH20160403051511104/03/16 05:15:31  5-MIN KAOH 031015Z AUTO 25007KT 10SM CLR M04/M06 A3004 860 85 -1200 260/07 RMK AO2 T10391061
04850KAOH AOH20160403052011104/03/16 05:20:31  5-MIN KAOH 031020Z AUTO 25006KT 10SM CLR M04/M06 A3005 860 88 -1200 260/06 RMK AO2 T10391056
04850KAOH AOH20160403052511104/03/16 05:25:31  5-MIN KAOH 031025Z AUTO 26007KT 10SM CLR M04/M06 A3005 860 88 -1200 260/07 RMK AO2 T10391056
04850KAOH AOH20160403053011104/03/16 05:30:31  5-MIN KAOH 031030Z AUTO 26007KT 10SM CLR M04/M06 A3005 860 88 -1200 260/07 RMK AO2 T10391056
04850KAOH AOH20160403053511104/03/16 05:35:31  5-MIN KAOH 031035Z AUTO 25006KT 10SM CLR M04/M06 A3004 860 88 -1200 260/06 RMK AO2 T10391056
04850KAOH AOH20160403054011104/03/16 05:40:31  5-MIN KAOH 031040Z AUTO 25006KT 10SM CLR M04/M06 A3005 860 88 -1200 260/06 RMK AO2 T10391056
04850KAOH AOH20160403054511104/03/16 05:45:31  5-MIN KAOH 031045Z AUTO 25007KT 10SM CLR M04/M06 A3005 860 88 -1200 260/07 RMK AO2 T10391056
04850KAOH AOH20160403055011804/03/16 05:50:31  5-MIN KAOH 031050Z AUTO 25006KT 10SM CLR M04/M06 A3005 860 85 -1200 250/06 RMK AO2 SLP186 T10391061
04850KAOH AOH20160403055511104/03/16 05:55:31  5-MIN KAOH 031055Z AUTO 24006KT 10SM CLR M04/M06 A3005 860 85 -1200 250/06 RMK AO2 T10391061
04850KAOH AOH20160403060011104/03/16 06:00:31  5-MIN KAOH 031100Z AUTO 24006KT 10SM CLR M04/M06 A3004 860 85 -1200 250/06 RMK AO2 T10391061
04850KAOH AOH20160403060511104/03/16 06:05:31  5-MIN KAOH 031105Z AUTO 24006KT 10SM CLR M04/M06 A3005 860 85 -1200 250/06 RMK AO2 T10391061
04850KAOH AOH20160403061011104/03/16 06:10:31  5-MIN KAOH 031110Z AUTO 24007KT 10SM CLR M04/M06 A3005 860 85 -1200 240/07 RMK AO2 T10391061
04850KAOH AOH20160403061511104/03/16 06:15:31  5-MIN KAOH 031115Z AUTO 24006KT 10SM CLR M04/M06 A3005 860 85 -1200 240/06 RMK AO2 T10391061
04850KAOH AOH20160403062011104/03/16 06:20:31  5-MIN KAOH 031120Z AUTO 24006KT 10SM CLR M04/M06 A3005 850 85 -1200 240/06 RMK AO2 T10391061
04850KAOH AOH20160403062511104/03/16 06:25:31  5-MIN KAOH 031125Z AUTO 23006KT 10SM CLR M04/M06 A3005 850 85 -1200 240/06 RMK AO2 T10391061
04850KAOH AOH20160403063011104/03/16 06:30:31  5-MIN KAOH 031130Z AUTO 23005KT 10SM CLR M04/M06 A3005 850 88 -1200 240/05 RMK AO2 T10391056
04850KAOH AOH20160403063511104/03/16 06:35:31  5-MIN KAOH 031135Z AUTO 22005KT 10SM CLR M04/M06 A3005 850 85 -1200 230/05 RMK AO2 T10391061
04850KAOH AOH20160403064011404/03/16 06:40:31  5-MIN KAOH 031140Z AUTO 22005KT 10SM FEW100 M04/M06 A3005 850 88 -1200 220/05 RMK AO2 T10391056
04850KAOH AOH20160403064511404/03/16 06:45:31  5-MIN KAOH 031145Z AUTO 22005KT 10SM SCT100 M03/M06 A3006 850 85 -1100 230/05 RMK AO2 T10331056
04850KAOH AOH20160403065015104/03/16 06:50:31  5-MIN KAOH 031150Z AUTO 22005KT 10SM BKN100 M03/M06 A3005 850 85 -1100 230/05 RMK AO2 SLP188 60000 70009 T10331056 11022 21039 51013
04850KAOH AOH20160403065511404/03/16 06:55:31  5-MIN KAOH 031155Z AUTO 22006KT 10SM BKN100 M03/M06 A3005 850 81 -1000 220/06 RMK AO2 T10281056
04850KAOH AOH20160403070011404/03/16 07:00:31  5-MIN KAOH 031200Z AUTO 22004KT 10SM BKN100 M03/M06 A3005 850 81 -1000 230/04 RMK AO2 T10281056
04850KAOH AOH20160403070511404/03/16 07:05:31  5-MIN KAOH 031205Z AUTO 22005KT 10SM OVC100 M03/M05 A3005 860 85 -1000 230/05 RMK AO2 T10281050
04850KAOH AOH20160403071011404/03/16 07:10:31  5-MIN KAOH 031210Z AUTO 21004KT 10SM OVC100 M03/M06 A3005 860 81 -1000 220/04 RMK AO2 T10281056
04850KAOH AOH20160403071512104/03/16 07:15:31  5-MIN KAOH 031215Z AUTO 23004KT 10SM FEW070 OVC100 M03/M06 A3006 850 81 -1000 240/04 RMK AO2 T10281056
04850KAOH AOH20160403072012104/03/16 07:20:31  5-MIN KAOH 031220Z AUTO 22003KT 10SM SCT070 OVC100 M02/M06 A3007 840 78 -1000 230/03 RMK AO2 T10221056
04850KAOH AOH20160403072512804/03/16 07:25:31  5-MIN KAOH 031225Z AUTO 23004KT 10SM SCT070 OVC100 M03/M06 A3007 840 81 -1100 240/04 RMK AO2 PRESRR T10281056
04850KAOH AOH20160403073012104/03/16 07:30:31  5-MIN KAOH 031230Z AUTO 21005KT 10SM BKN070 OVC100 M03/M06 A3007 840 81 -1100 210/05 RMK AO2 T10281056
04850KAOH AOH20160403073512104/03/16 07:35:31  5-MIN KAOH 031235Z AUTO 21005KT 10SM BKN070 OVC100 M02/M06 A3008 830 78 -1000 210/05 RMK AO2 T10221056
04850KAOH AOH20160403074012104/03/16 07:40:31  5-MIN KAOH 031240Z AUTO 20004KT 10SM BKN070 OVC100 M02/M05 A3008 830 81 -1000 200/04 RMK AO2 T10221050
04850KAOH AOH20160403074511404/03/16 07:45:31  5-MIN KAOH 031245Z AUTO 21007KT 10SM OVC070 M02/M06 A3009 820 78 -1000 210/07 RMK AO2 T10221056
04850KAOH AOH20160403075012104/03/16 07:50:31  5-MIN KAOH 031250Z AUTO 22006KT 10SM OVC070 M02/M06 A3009 820 78 -1000 220/06 RMK AO2 SLP199 T10221056
04850KAOH AOH20160403075511404/03/16 07:55:31  5-MIN KAOH 031255Z AUTO 22006KT 10SM OVC070 M02/M05 A3008 830 81 -1000 220/06 RMK AO2 T10221050
04850KAOH AOH20160403080011404/03/16 08:00:31  5-MIN KAOH 031300Z AUTO 21003KT 10SM OVC070 M02/M05 A3008 830 81 -1000 210/03 RMK AO2 T10221050
04850KAOH AOH20160403080511404/03/16 08:05:31  5-MIN KAOH 031305Z AUTO 21005KT 10SM OVC070 M02/M05 A3007 840 81 -1000 210/05 RMK AO2 T10221050
04850KAOH AOH20160403081011404/03/16 08:10:31  5-MIN KAOH 031310Z AUTO 21005KT 10SM OVC070 M02/M05 A3007 840 81 -1000 210/05 RMK AO2 T10221050
04850KAOH AOH20160403081512004/03/16 08:15:31  5-MIN KAOH 031315Z AUTO 22006KT 10SM BKN070 OVC100 M02/M05 A3007 840 78 -900 220/06 RMK AO2 T10171050
04850KAOH AOH20160403082012004/03/16 08:20:31  5-MIN KAOH 031320Z AUTO 22007KT 10SM BKN070 OVC100 M02/M05 A3007 840 78 -900 230/07 RMK AO2 T10171050
04850KAOH AOH20160403082512004/03/16 08:25:31  5-MIN KAOH 031325Z AUTO 22007KT 10SM BKN075 OVC100 M02/M04 A3007 840 81 -900 220/07 RMK AO2 T10171044
04850KAOH AOH20160403083012004/03/16 08:30:31  5-MIN KAOH 031330Z AUTO 22009KT 10SM BKN085 OVC110 M01/M04 A3007 840 78 -800 220/09 RMK AO2 T10111044
04850KAOH AOH20160403083512004/03/16 08:35:31  5-MIN KAOH 031335Z AUTO 23008KT 10SM BKN090 OVC110 M01/M05 A3008 830 75 -800 230/08 RMK AO2 T10111050
04850KAOH AOH20160403084012004/03/16 08:40:31  5-MIN KAOH 031340Z AUTO 24008KT 10SM BKN090 OVC110 M01/M04 A3008 830 78 -800 240/08 RMK AO2 T10111044
04850KAOH AOH20160403084512004/03/16 08:45:31  5-MIN KAOH 031345Z AUTO 22010KT 10SM SCT085 OVC110 M01/M05 A3008 830 75 -800 230/10 RMK AO2 T10111050
04850KAOH AOH20160403085012704/03/16 08:50:31  5-MIN KAOH 031350Z AUTO 24009KT 10SM SCT085 OVC110 M01/M05 A3008 830 75 -800 240/09 RMK AO2 SLP196 T10111050
04850KAOH AOH20160403085512004/03/16 08:55:31  5-MIN KAOH 031355Z AUTO 24009KT 10SM FEW085 OVC110 M01/M05 A3008 830 72 -800 250/09 RMK AO2 T10061050
04850KAOH AOH20160403090012004/03/16 09:00:31  5-MIN KAOH 031400Z AUTO 23009KT 10SM FEW085 OVC110 M01/M05 A3008 830 72 -800 230/09 RMK AO2 T10061050
04850KAOH AOH20160403090511304/03/16 09:05:31  5-MIN KAOH 031405Z AUTO 24009KT 10SM OVC110 M01/M06 A3008 830 69 -800 240/09 RMK AO2 T10061056
04850KAOH AOH20160403091011204/03/16 09:10:31  5-MIN KAOH 031410Z AUTO 22010KT 10SM OVC110 00/M06 A3008 830 66 -700 230/10 RMK AO2 T00001056
04850KAOH AOH20160403091511904/03/16 09:15:31  5-MIN KAOH 031415Z AUTO 23010KT 10SM FEW060 BKN110 00/M06 A3008 830 66 -700 230/10 RMK AO2 T00001056
04850KAOH AOH20160403092011904/03/16 09:20:31  5-MIN KAOH 031420Z AUTO 25012KT 10SM FEW060 BKN110 00/M06 A3008 830 66 -700 260/12 RMK AO2 T00001056
04850KAOH AOH20160403092511904/03/16 09:25:31  5-MIN KAOH 031425Z AUTO 24012KT 10SM SCT060 BKN110 00/M07 A3008 830 61 -700 250/12 RMK AO2 T00001067
04850KAOH AOH20160403093011904/03/16 09:30:31  5-MIN KAOH 031430Z AUTO 22010KT 10SM BKN060 BKN110 00/M06 A3008 830 63 -700 230/10 RMK AO2 T00001061
04850KAOH AOH20160403093512604/03/16 09:35:31  5-MIN KAOH 031435Z AUTO 22011KT 10SM FEW028 BKN060 BKN110 01/M06 A3008 830 61 -600 230/11 RMK AO2 T00061061
04850KAOH AOH20160403094011904/03/16 09:40:31  5-MIN KAOH 031440Z AUTO 23010KT 10SM FEW028 BKN060 01/M07 A3007 840 58 -600 230/10 RMK AO2 T00061067
04850KAOH AOH20160403094511904/03/16 09:45:31  5-MIN KAOH 031445Z AUTO 22006KT 10SM FEW028 BKN060 01/M06 A3008 830 63 -600 220/06 RMK AO2 T00061056
04850KAOH AOH20160403095013804/03/16 09:50:31  5-MIN KAOH 031450Z AUTO 22012G15KT 10SM FEW028 SCT060 01/M06 A3008 830 61 -600 230/12G15 RMK AO2 SLP197 T00061061 51017
04850KAOH AOH20160403095511904/03/16 09:55:31  5-MIN KAOH 031455Z AUTO 23011KT 10SM FEW028 SCT060 01/M06 A3008 830 61 -600 240/11 RMK AO2 T00061061
04850KAOH AOH20160403100011904/03/16 10:00:31  5-MIN KAOH 031500Z AUTO 22009KT 10SM FEW029 FEW060 01/M06 A3008 830 61 -600 230/09 RMK AO2 T00061061
04850KAOH AOH20160403100511204/03/16 10:05:31  5-MIN KAOH 031505Z AUTO 22011KT 10SM FEW060 01/M07 A3008 830 58 -600 220/11 RMK AO2 T00061067
04850KAOH AOH20160403101010904/03/16 10:10:31  5-MIN KAOH 031510Z AUTO 24008KT 10SM CLR 01/M06 A3008 830 58 -600 250/08 RMK AO2 T00111061
04850KAOH AOH20160403101510904/03/16 10:15:31  5-MIN KAOH 031515Z AUTO 22009KT 10SM CLR 01/M06 A3007 840 61 -600 220/09 RMK AO2 T00111056
04850KAOH AOH20160403102010904/03/16 10:20:31  5-MIN KAOH 031520Z AUTO 21012KT 10SM CLR 01/M06 A3007 840 58 -600 210/12 RMK AO2 T00111061
04850KAOH AOH20160403102510904/03/16 10:25:31  5-MIN KAOH 031525Z AUTO 21009KT 10SM CLR 02/M06 A3007 840 56 -500 220/09 RMK AO2 T00171061
04850KAOH AOH20160403103011504/03/16 10:30:31  5-MIN KAOH 031530Z AUTO 25009G16KT 10SM CLR 01/M07 A3007 840 56 -600 250/09G16 RMK AO2 T00111067
04850KAOH AOH20160403103511504/03/16 10:35:31  5-MIN KAOH 031535Z AUTO 21012G16KT 10SM CLR 02/M06 A3007 840 56 -500 210/12G16 RMK AO2 T00171061
04850KAOH AOH20160403104010904/03/16 10:40:31  5-MIN KAOH 031540Z AUTO 22012KT 10SM CLR 02/M06 A3007 840 56 -500 220/12 RMK AO2 T00171061
04850KAOH AOH20160403104510904/03/16 10:45:31  5-MIN KAOH 031545Z AUTO 24012KT 10SM CLR 02/M07 A3007 840 52 -400 250/12 RMK AO2 T00221067
04850KAOH AOH20160403105011604/03/16 10:50:31  5-MIN KAOH 031550Z AUTO 24011KT 10SM CLR 02/M07 A3006 850 52 -400 250/11 RMK AO2 SLP190 T00221067
04850KAOH AOH20160403105510904/03/16 10:55:31  5-MIN KAOH 031555Z AUTO 23011KT 10SM CLR 02/M07 A3007 840 52 -400 230/11 RMK AO2 T00221067
04850KAOH AOH20160403110011504/03/16 11:00:31  5-MIN KAOH 031600Z AUTO 23013G18KT 10SM CLR 02/M07 A3006 840 52 -400 230/13G18 RMK AO2 T00221067
04850KAOH AOH20160403110511504/03/16 11:05:31  5-MIN KAOH 031605Z AUTO 20011G18KT 10SM CLR 02/M07 A3006 850 52 -400 210/11G18 RMK AO2 T00221067
04850KAOH AOH20160403111011504/03/16 11:10:31  5-MIN KAOH 031610Z AUTO 22012G18KT 10SM CLR 03/M06 A3006 840 52 -300 220/12G18 RMK AO2 T00281061
04850KAOH AOH20160403111511504/03/16 11:15:31  5-MIN KAOH 031615Z AUTO 23012G18KT 10SM CLR 03/M07 A3006 840 50 -300 240/12G18 RMK AO2 T00281067
04850KAOH AOH20160403112011504/03/16 11:20:31  5-MIN KAOH 031620Z AUTO 24014G21KT 10SM CLR 03/M07 A3006 850 50 -300 240/14G21 RMK AO2 T00281067
04850KAOH AOH20160403112511504/03/16 11:25:31  5-MIN KAOH 031625Z AUTO 22014G21KT 10SM CLR 03/M07 A3005 860 50 -300 230/14G21 RMK AO2 T00281067
04850KAOH AOH20160403113011504/03/16 11:30:31  5-MIN KAOH 031630Z AUTO 23015G21KT 10SM CLR 03/M07 A3005 860 50 -300 240/15G21 RMK AO2 T00281067
04850KAOH AOH20160403113511204/03/16 11:35:31  5-MIN KAOH 031635Z AUTO 23015KT 10SM FEW095 03/M06 A3005 860 52 -300 230/15 RMK AO2 T00281061
04850KAOH AOH20160403114011204/03/16 11:40:31  5-MIN KAOH 031640Z AUTO 20014KT 10SM FEW095 03/M06 A3004 870 54 -300 210/14 RMK AO2 T00281056
04850KAOH AOH20160403114510904/03/16 11:45:31  5-MIN KAOH 031645Z AUTO 23014KT 10SM CLR 03/M06 A3004 870 52 -300 230/14 RMK AO2 T00281061
04850KAOH AOH20160403115012204/03/16 11:50:31  5-MIN KAOH 031650Z AUTO 23015G24KT 10SM CLR 03/M06 A3004 870 50 -200 230/15G24 RMK AO2 SLP180 T00331061
04850KAOH AOH20160403115511504/03/16 11:55:31  5-MIN KAOH 031655Z AUTO 22015G24KT 10SM CLR 03/M06 A3004 870 50 -200 230/15G24 RMK AO2 T00331061
04850KAOH AOH20160403120011504/03/16 12:00:31  5-MIN KAOH 031700Z AUTO 22011G21KT 10SM CLR 03/M06 A3003 870 52 -200 230/11G21 RMK AO2 T00331056
04850KAOH AOH20160403120511504/03/16 12:05:31  5-MIN KAOH 031705Z AUTO 20012G19KT 10SM CLR 04/M06 A3003 880 50 -200 210/12G19 RMK AO2 T00391056
04850KAOH AOH20160403121011504/03/16 12:10:31  5-MIN KAOH 031710Z AUTO 20016G21KT 10SM CLR 04/M05 A3002 880 52 -200 210/16G21 RMK AO2 T00391050
04850KAOH AOH20160403121511504/03/16 12:15:31  5-MIN KAOH 031715Z AUTO 19010G21KT 10SM CLR 04/M06 A3002 880 50 -200 200/10G21 RMK AO2 T00391056
04850KAOH AOH20160403122011504/03/16 12:20:31  5-MIN KAOH 031720Z AUTO 21015G20KT 10SM CLR 04/M05 A3002 890 50 -100 210/15G20 RMK AO2 T00441050
04850KAOH AOH20160403122511904/03/16 12:25:31  5-MIN KAOH 031725Z AUTO 23017G22KT 10SM CLR 05/M05 A3001 900 48 0 230/17G22 RMK AO2 PRESFR T00501050
04850KAOH AOH20160403123011904/03/16 12:30:31  5-MIN KAOH 031730Z AUTO 20015G22KT 10SM CLR 05/M04 A3000 910 50 0 200/15G22 RMK AO2 PRESFR T00501044
04850KAOH AOH20160403123511504/03/16 12:35:31  5-MIN KAOH 031735Z AUTO 20014G20KT 10SM CLR 04/M05 A3000 910 50 -100 200/14G20 RMK AO2 T00441050
04850KAOH AOH20160403124010604/03/16 12:40:31  5-MIN KAOH 031740Z AUTO 22014KT 10SM CLR 05/M05 A3000 910 48 0 230/14 RMK AO2 T00501050
04850KAOH AOH20160403124510604/03/16 12:45:31  5-MIN KAOH 031745Z AUTO 21013KT 10SM CLR 05/M04 A3000 910 50 0 220/13 RMK AO2 T00501044
04850KAOH AOH20160403125013104/03/16 12:50:31  5-MIN KAOH 031750Z AUTO 21014KT 10SM CLR 05/M05 A2999 910 48 0 210/14 RMK AO2 SLP165 T00501050 10056 21028 51008
04850KAOH AOH20160403125510604/03/16 12:55:31  5-MIN KAOH 031755Z AUTO 21013KT 10SM CLR 06/M04 A2999 920 48 0 220/13 RMK AO2 T00561044
04850KAOH AOH20160403130011204/03/16 13:00:31  5-MIN KAOH 031800Z AUTO 20014G23KT 10SM CLR 06/M05 A2998 920 46 0 210/14G23 RMK AO2 T00561050
04850KAOH AOH20160403130511404/03/16 13:05:31  5-MIN KAOH 031805Z AUTO 22017G25KT 10SM CLR 06/M04 A2998 920 46 100 220/17G25 RMK AO2 T00611044
04850KAOH AOH20160403131011404/03/16 13:10:31  5-MIN KAOH 031810Z AUTO 21014G25KT 10SM CLR 06/M04 A2998 930 46 100 220/14G25 RMK AO2 T00611044
04850KAOH AOH20160403131511404/03/16 13:15:31  5-MIN KAOH 031815Z AUTO 22016G23KT 10SM CLR 07/M04 A2997 930 47 200 220/16G23 RMK AO2 T00671039
04850KAOH AOH20160403132011404/03/16 13:20:31  5-MIN KAOH 031820Z AUTO 19012G23KT 10SM CLR 06/M04 A2996 940 46 100 200/12G23 RMK AO2 T00611044
04850KAOH AOH20160403132511404/03/16 13:25:31  5-MIN KAOH 031825Z AUTO 21015G21KT 10SM CLR 07/M04 A2996 940 47 200 210/15G21 RMK AO2 T00671039
04850KAOH AOH20160403133010804/03/16 13:30:31  5-MIN KAOH 031830Z AUTO 21014KT 10SM CLR 07/M04 A2995 950 47 200 220/14 RMK AO2 T00671039
04850KAOH AOH20160403133512104/03/16 13:35:31  5-MIN KAOH 031835Z AUTO 21015G23KT 10SM CLR 07/M03 A2995 950 47 300 220/15G23 RMK AO2 PRESFR T00721033
04850KAOH AOH20160403134011404/03/16 13:40:31  5-MIN KAOH 031840Z AUTO 22016G24KT 10SM CLR 07/M03 A2994 960 47 300 230/16G24 RMK AO2 T00721033
04850KAOH AOH20160403134511404/03/16 13:45:31  5-MIN KAOH 031845Z AUTO 22017G24KT 10SM CLR 07/M03 A2994 960 47 300 220/17G24 RMK AO2 T00721033
04850KAOH AOH20160403135013904/03/16 13:50:31  5-MIN KAOH 031850Z AUTO 21018G27KT 10SM CLR 07/M03 A2993 970 47 300 210/18G27 RMK AO2 PK WND 20027/1850 SLP143 T00721033
04850KAOH AOH20160403135511404/03/16 13:55:31  5-MIN KAOH 031855Z AUTO 19016G27KT 10SM CLR 07/M03 A2993 970 47 300 200/16G27 RMK AO2 T00721033
04850KAOH AOH20160403140011404/03/16 14:00:31  5-MIN KAOH 031900Z AUTO 20013G22KT 10SM CLR 08/M02 A2992 970 49 400 200/13G22 RMK AO2 T00781022
04850KAOH AOH20160403140511404/03/16 14:05:31  5-MIN KAOH 031905Z AUTO 20016G24KT 10SM CLR 08/M02 A2992 980 49 400 210/16G24 RMK AO2 T00781022
04850KAOH AOH20160403141011404/03/16 14:10:31  5-MIN KAOH 031910Z AUTO 21013G24KT 10SM CLR 08/M02 A2991 980 49 500 220/13G24 RMK AO2 T00831017
04850KAOH AOH20160403141511404/03/16 14:15:31  5-MIN KAOH 031915Z AUTO 22019G23KT 10SM CLR 08/M02 A2991 990 47 500 220/19G23 RMK AO2 T00831022
04850KAOH AOH20160403142011404/03/16 14:20:31  5-MIN KAOH 031920Z AUTO 21017G24KT 10SM CLR 09/M02 A2990 990 47 500 210/17G24 RMK AO2 T00891017
04850KAOH AOH20160403142511504/03/16 14:25:31  5-MIN KAOH 031925Z AUTO 21016G24KT 10SM CLR 09/M02 A2990 1000 47 500 210/16G24 RMK AO2 T00891017
04850KAOH AOH20160403143011504/03/16 14:30:31  5-MIN KAOH 031930Z AUTO 21017G24KT 10SM CLR 09/M02 A2989 1000 47 500 210/17G24 RMK AO2 T00891017
04850KAOH AOH20160403143513304/03/16 14:35:31  5-MIN KAOH 031935Z AUTO 20018G26KT 10SM CLR 09/M01 A2989 1010 47 600 210/18G26 RMK AO2 PK WND 20026/1934 T00941011
04850KAOH AOH20160403144013304/03/16 14:40:31  5-MIN KAOH 031940Z AUTO 21016G26KT 10SM CLR 09/M02 A2988 1010 45 600 210/16G26 RMK AO2 PK WND 20026/1934 T00941017
04850KAOH AOH20160403144513304/03/16 14:45:31  5-MIN KAOH 031945Z AUTO 20018G25KT 10SM CLR 10/M01 A2988 1010 46 700 210/18G25 RMK AO2 PK WND 20026/1934 T01001011
04850KAOH AOH20160403145014004/03/16 14:50:31  5-MIN KAOH 031950Z AUTO 20019G25KT 10SM CLR 09/M01 A2988 1020 47 600 210/19G25 RMK AO2 PK WND 20026/1934 SLP124 T00941011
04850KAOH AOH20160403145511504/03/16 14:55:31  5-MIN KAOH 031955Z AUTO 20019G27KT 10SM CLR 09/M02 A2987 1020 45 600 210/19G27 RMK AO2 T00941017
04850KAOH AOH20160403150013304/03/16 15:00:31  5-MIN KAOH 032000Z AUTO 21020G28KT 10SM CLR 10/M01 A2987 1020 46 700 210/20G28 RMK AO2 PK WND 21028/2000 T01001011
04850KAOH AOH20160403150513304/03/16 15:05:31  5-MIN KAOH 032005Z AUTO 21022G28KT 10SM CLR 10/M01 A2987 1020 46 700 220/22G28 RMK AO2 PK WND 21028/2000 T01001011
04850KAOH AOH20160403151013304/03/16 15:10:31  5-MIN KAOH 032010Z AUTO 20016G27KT 10SM CLR 10/M01 A2986 1030 46 700 210/16G27 RMK AO2 PK WND 21028/2000 T01001011
04850KAOH AOH20160403151513304/03/16 15:15:31  5-MIN KAOH 032015Z AUTO 20022G28KT 10SM CLR 11/M01 A2986 1030 44 800 210/22G28 RMK AO2 PK WND 20028/2014 T01061011
04850KAOH AOH20160403152013304/03/16 15:20:31  5-MIN KAOH 032020Z AUTO 21019G28KT 10SM CLR 11/M01 A2985 1040 44 800 220/19G28 RMK AO2 PK WND 20028/2014 T01061011
04850KAOH AOH20160403152514004/03/16 15:25:31  5-MIN KAOH 032025Z AUTO 21018G26KT 10SM CLR 11/M01 A2985 1050 44 800 220/18G26 RMK AO2 PK WND 20028/2014 PRESFR T01061011
04850KAOH AOH20160403153013904/03/16 15:30:31  5-MIN KAOH 032030Z AUTO 21014G26KT 10SM CLR 11/00 A2984 1050 46 900 220/14G26 RMK AO2 PK WND 20028/2014 PRESFR T01110000
04850KAOH AOH20160403153513304/03/16 15:35:31  5-MIN KAOH 032035Z AUTO 22020G26KT 10SM CLR 11/M01 A2984 1050 44 900 220/20G26 RMK AO2 PK WND 20028/2014 T01111006
04850KAOH AOH20160403154013304/03/16 15:40:31  5-MIN KAOH 032040Z AUTO 21014G26KT 10SM CLR 11/M01 A2984 1050 44 900 210/14G26 RMK AO2 PK WND 20028/2014 T01111006
04850KAOH AOH20160403154513304/03/16 15:45:31  5-MIN KAOH 032045Z AUTO 21018G29KT 10SM CLR 11/M01 A2983 1060 44 900 210/18G29 RMK AO2 PK WND 20029/2044 T01111006
04850KAOH AOH20160403155014604/03/16 15:50:31  5-MIN KAOH 032050Z AUTO 21018G29KT 10SM CLR 11/M01 A2983 1070 44 900 220/18G29 RMK AO2 PK WND 20029/2044 SLP106 T01111006 58029
04850KAOH AOH20160403155513404/03/16 15:55:31  5-MIN KAOH 032055Z AUTO 21017G28KT 10SM CLR 12/M01 A2983 1060 42 1000 210/17G28 RMK AO2 PK WND 20026/2055 T01171006
04850KAOH AOH20160403160013404/03/16 16:00:31  5-MIN KAOH 032100Z AUTO 20018G26KT 10SM CLR 12/M01 A2982 1070 42 1000 210/18G26 RMK AO2 PK WND 20026/2057 T01171006
04850KAOH AOH20160403160513404/03/16 16:05:31  5-MIN KAOH 032105Z AUTO 20019G26KT 10SM CLR 12/M01 A2982 1070 42 1000 210/19G26 RMK AO2 PK WND 20026/2057 T01171006
04850KAOH AOH20160403161013404/03/16 16:10:31  5-MIN KAOH 032110Z AUTO 21016G24KT 10SM CLR 12/M01 A2982 1070 42 1000 210/16G24 RMK AO2 PK WND 20026/2057 T01171006
04850KAOH AOH20160403161513404/03/16 16:15:31  5-MIN KAOH 032115Z AUTO 20018G25KT 10SM CLR 12/M01 A2981 1080 42 1000 210/18G25 RMK AO2 PK WND 20026/2057 T01171006
04850KAOH AOH20160403162013404/03/16 16:20:31  5-MIN KAOH 032120Z AUTO 20017G26KT 10SM CLR 12/M01 A2981 1080 41 1000 210/17G26 RMK AO2 PK WND 20026/2057 T01221006
04850KAOH AOH20160403162513304/03/16 16:25:31  5-MIN KAOH 032125Z AUTO 21017G26KT 10SM CLR 12/00 A2980 1090 43 1100 210/17G26 RMK AO2 PK WND 20026/2057 T01220000
04850KAOH AOH20160403163013404/03/16 16:30:31  5-MIN KAOH 032130Z AUTO 21017G25KT 10SM CLR 12/M01 A2980 1090 41 1100 210/17G25 RMK AO2 PK WND 20026/2057 T01221006
04850KAOH AOH20160403163513304/03/16 16:35:31  5-MIN KAOH 032135Z AUTO 21017G24KT 10SM CLR 12/00 A2980 1090 43 1100 220/17G24 RMK AO2 PK WND 20026/2057 T01220000
04850KAOH AOH20160403164013604/03/16 16:40:31  5-MIN KAOH 032140Z AUTO 21017G28KT 10SM FEW120 13/00 A2980 1090 41 1100 210/17G28 RMK AO2 PK WND 22028/2137 T01280000
04850KAOH AOH20160403164513604/03/16 16:45:31  5-MIN KAOH 032145Z AUTO 20019G28KT 10SM SCT120 13/00 A2979 1100 41 1100 210/19G28 RMK AO2 PK WND 22028/2137 T01280000
04850KAOH AOH20160403165014304/03/16 16:50:31  5-MIN KAOH 032150Z AUTO 20020G28KT 10SM BKN120 12/00 A2979 1100 43 1100 210/20G28 RMK AO2 PK WND 20028/2149 SLP093 T01220000
04850KAOH AOH20160403165511804/03/16 16:55:31  5-MIN KAOH 032155Z AUTO 21019G28KT 10SM BKN120 12/00 A2978 1110 43 1100 220/19G28 RMK AO2 T01220000
04850KAOH AOH20160403170014304/03/16 17:00:31  5-MIN KAOH 032200Z AUTO 21022G30KT 10SM BKN110 13/00 A2978 1110 41 1100 220/22G30 RMK AO2 PK WND 22030/2200 PRESFR T01280000
04850KAOH AOH20160403170513604/03/16 17:05:31  5-MIN KAOH 032205Z AUTO 21016G30KT 10SM BKN110 13/01 A2978 1110 41 1200 220/16G30 RMK AO2 PK WND 22030/2200 T01330006
04850KAOH AOH20160403171013604/03/16 17:10:31  5-MIN KAOH 032210Z AUTO 21020G27KT 10SM BKN110 13/01 A2977 1110 41 1200 210/20G27 RMK AO2 PK WND 22030/2200 T01330006
04850KAOH AOH20160403171513604/03/16 17:15:31  5-MIN KAOH 032215Z AUTO 21021G29KT 10SM BKN110 13/01 A2977 1120 41 1200 210/21G29 RMK AO2 PK WND 22030/2200 T01330006
04850KAOH AOH20160403172013604/03/16 17:20:31  5-MIN KAOH 032220Z AUTO 21021G29KT 10SM BKN110 13/00 A2977 1120 40 1200 220/21G29 RMK AO2 PK WND 22030/2200 T01330000
04850KAOH AOH20160403172513604/03/16 17:25:31  5-MIN KAOH 032225Z AUTO 20018G28KT 10SM BKN120 13/01 A2977 1120 41 1200 210/18G28 RMK AO2 PK WND 22030/2200 T01330006
04850KAOH AOH20160403173013604/03/16 17:30:31  5-MIN KAOH 032230Z AUTO 21018G28KT 10SM BKN120 13/01 A2976 1120 43 1200 220/18G28 RMK AO2 PK WND 22030/2200 T01280006
04850KAOH AOH20160403173513604/03/16 17:35:31  5-MIN KAOH 032235Z AUTO 20013G26KT 10SM BKN120 13/01 A2976 1120 41 1200 210/13G26 RMK AO2 PK WND 22030/2200 T01330006
04850KAOH AOH20160403174013604/03/16 17:40:31  5-MIN KAOH 032240Z AUTO 20019G24KT 10SM BKN120 13/01 A2976 1130 43 1200 210/19G24 RMK AO2 PK WND 22030/2200 T01330011
04850KAOH AOH20160403174513604/03/16 17:45:31  5-MIN KAOH 032245Z AUTO 21020G26KT 10SM BKN120 13/01 A2976 1130 41 1200 210/20G26 RMK AO2 PK WND 22030/2200 T01330006
04850KAOH AOH20160403175014304/03/16 17:50:31  5-MIN KAOH 032250Z AUTO 21018G26KT 10SM BKN120 13/01 A2975 1130 41 1200 220/18G26 RMK AO2 PK WND 22030/2200 SLP080 T01330006
04850KAOH AOH20160403175513604/03/16 17:55:31  5-MIN KAOH 032255Z AUTO 21019G28KT 10SM SCT120 13/01 A2975 1130 41 1200 210/19G28 RMK AO2 PK WND 21028/2254 T01330006
04850KAOH AOH20160403180013604/03/16 18:00:31  5-MIN KAOH 032300Z AUTO 21017G28KT 10SM FEW110 13/01 A2975 1140 41 1200 220/17G28 RMK AO2 PK WND 21028/2254 T01330006
04850KAOH AOH20160403180513604/03/16 18:05:31  5-MIN KAOH 032305Z AUTO 21016G24KT 10SM FEW110 13/01 A2975 1140 41 1200 220/16G24 RMK AO2 PK WND 21028/2254 T01330006
04850KAOH AOH20160403181013304/03/16 18:10:31  5-MIN KAOH 032310Z AUTO 21018G27KT 10SM CLR 13/01 A2975 1140 41 1200 220/18G27 RMK AO2 PK WND 21028/2254 T01330006
04850KAOH AOH20160403181513304/03/16 18:15:31  5-MIN KAOH 032315Z AUTO 20015G27KT 10SM CLR 13/01 A2974 1140 43 1200 210/15G27 RMK AO2 PK WND 21028/2254 T01280006
04850KAOH AOH20160403182013304/03/16 18:20:31  5-MIN KAOH 032320Z AUTO 20018G27KT 10SM CLR 13/01 A2974 1140 43 1200 210/18G27 RMK AO2 PK WND 21028/2254 T01280006
04850KAOH AOH20160403182513304/03/16 18:25:31  5-MIN KAOH 032325Z AUTO 21018G27KT 10SM CLR 13/01 A2974 1150 43 1200 210/18G27 RMK AO2 PK WND 21028/2254 T01280006
04850KAOH AOH20160403183013304/03/16 18:30:31  5-MIN KAOH 032330Z AUTO 21016G28KT 10SM CLR 13/01 A2973 1150 43 1200 210/16G28 RMK AO2 PK WND 20028/2328 T01280006
04850KAOH AOH20160403183513304/03/16 18:35:31  5-MIN KAOH 032335Z AUTO 21018G28KT 10SM CLR 13/01 A2973 1150 43 1200 210/18G28 RMK AO2 PK WND 20028/2328 T01280006
04850KAOH AOH20160403184013304/03/16 18:40:31  5-MIN KAOH 032340Z AUTO 20017G23KT 10SM CLR 12/01 A2973 1150 44 1100 210/17G23 RMK AO2 PK WND 20028/2328 T01220006
04850KAOH AOH20160403184513304/03/16 18:45:31  5-MIN KAOH 032345Z AUTO 21015G25KT 10SM CLR 12/01 A2973 1160 44 1100 210/15G25 RMK AO2 PK WND 20028/2328 T01220006
04850KAOH AOH20160403185015804/03/16 18:50:31  5-MIN KAOH 032350Z AUTO 20015G25KT 10SM CLR 12/01 A2973 1160 44 1100 210/15G25 RMK AO2 PK WND 20028/2328 SLP072 T01220006 10133 20056 56056
04850KAOH AOH20160403185511504/03/16 18:55:31  5-MIN KAOH 032355Z AUTO 20016G24KT 10SM CLR 12/01 A2972 1160 44 1100 210/16G24 RMK AO2 T01220006
04850KAOH AOH20160403190013304/03/16 19:00:31  5-MIN KAOH 040000Z AUTO 21019G28KT 10SM CLR 12/01 A2972 1160 44 1100 210/19G28 RMK AO2 PK WND 20028/2357 T01220006
04850KAOH AOH20160403190513304/03/16 19:05:31  5-MIN KAOH 040005Z AUTO 21017G28KT 10SM CLR 12/01 A2972 1160 44 1100 210/17G28 RMK AO2 PK WND 20028/2357 T01220006
04850KAOH AOH20160403191013304/03/16 19:10:31  5-MIN KAOH 040010Z AUTO 20015G25KT 10SM CLR 12/01 A2972 1160 46 1100 210/15G25 RMK AO2 PK WND 20028/2357 T01170006
04850KAOH AOH20160403191513604/03/16 19:15:31  5-MIN KAOH 040015Z AUTO 21018G24KT 10SM FEW120 12/01 A2972 1160 44 1100 210/18G24 RMK AO2 PK WND 20028/2357 T01220006
04850KAOH AOH20160403192013604/03/16 19:20:31  5-MIN KAOH 040020Z AUTO 21019G27KT 10SM FEW120 12/01 A2972 1160 44 1100 210/19G27 RMK AO2 PK WND 20028/2357 T01220006
04850KAOH AOH20160403192513604/03/16 19:25:31  5-MIN KAOH 040025Z AUTO 20015G27KT 10SM FEW120 12/01 A2972 1160 44 1100 210/15G27 RMK AO2 PK WND 20028/2357 T01220006
04850KAOH AOH20160403193013604/03/16 19:30:31  5-MIN KAOH 040030Z AUTO 20015G24KT 10SM FEW120 12/01 A2972 1160 44 1100 210/15G24 RMK AO2 PK WND 20028/2357 T01220006
04850KAOH AOH20160403193513604/03/16 19:35:31  5-MIN KAOH 040035Z AUTO 21016G24KT 10SM SCT120 12/01 A2972 1160 46 1100 210/16G24 RMK AO2 PK WND 20028/2357 T01170006
04850KAOH AOH20160403194013604/03/16 19:40:31  5-MIN KAOH 040040Z AUTO 21014G23KT 10SM SCT120 12/01 A2974 1150 44 1100 220/14G23 RMK AO2 PK WND 20028/2357 T01220006
04850KAOH AOH20160403194514304/03/16 19:45:31  5-MIN KAOH 040045Z AUTO 21015G23KT 10SM SCT120 12/01 A2974 1140 46 1100 220/15G23 RMK AO2 PK WND 20028/2357 PRESRR T01170006
04850KAOH AOH20160403195014304/03/16 19:50:31  5-MIN KAOH 040050Z AUTO 21014G23KT 10SM BKN120 12/01 A2974 1140 46 1100 220/14G23 RMK AO2 PK WND 20028/2357 SLP077 T01170006
04850KAOH AOH20160404055512604/04/16 05:55:31  5-MIN KAOH 041055Z AUTO 29013KT 10SM SCT075 BKN095 OVC110 11/06 A2976 1130 71 1000 300/13 RMK AO2 T01110061
04850KAOH AOH20160404060014804/04/16 06:00:31  5-MIN KAOH 041100Z AUTO 30018G21KT 10SM -RA FEW050 SCT075 OVC090 11/06 A2976 1130 71 1000 310/18G21 RMK AO2 RAB00 P0000 T01110061
04850KAOH AOH20160404060514704/04/16 06:05:31  5-MIN KAOH 041105Z AUTO 32015G21KT 10SM -RA FEW050 BKN075 OVC090 10/06 A2977 1120 77 800 330/15G21 RMK AO2 RAB00 P0000 T01000061
04850KAOH AOH20160404061014104/04/16 06:10:31  5-MIN KAOH 041110Z AUTO 32015KT 10SM -RA SCT050 BKN075 OVC090 09/06 A2977 1120 79 800 320/15 RMK AO2 RAB00 P0000 T00940061
04850KAOH AOH20160404061514704/04/16 06:15:31  5-MIN KAOH 041115Z AUTO 35015G24KT 10SM -RA FEW018 BKN048 OVC090 07/04 A2977 1110 82 500 350/15G24 RMK AO2 RAB00 P0000 T00720044
04850KAOH AOH20160404062015304/04/16 06:20:31  5-MIN KAOH 041120Z AUTO 36015G24KT 10SM FEW018 BKN048 OVC090 06/03 A2978 1110 82 300 360/15G24 RMK AO2 RAB00E19 PRESRR P0000 T00610033
04850KAOH AOH20160404062514604/04/16 06:25:31  5-MIN KAOH 041125Z AUTO 35014G20KT 10SM FEW018 BKN046 OVC075 06/03 A2979 1100 85 300 350/14G20 RMK AO2 RAB00E19 P0000 T00560033
04850KAOH AOH20160404063014704/04/16 06:30:31  5-MIN KAOH 041130Z AUTO 34012KT 10SM FEW018 BKN036 OVC046 05/03 A2979 1090 85 200 350/12 RMK AO2 RAB00E19 PRESRR P0000 T00500028
04850KAOH AOH20160404063514004/04/16 06:35:31  5-MIN KAOH 041135Z AUTO 34012KT 10SM FEW019 SCT033 OVC044 05/03 A2980 1090 85 200 350/12 RMK AO2 RAB00E19 P0000 T00500028
04850KAOH AOH20160404064014004/04/16 06:40:31  5-MIN KAOH 041140Z AUTO 35014KT 10SM FEW010 SCT019 OVC042 05/03 A2980 1090 85 200 360/14 RMK AO2 RAB00E19 P0000 T00500028
04850KAOH AOH20160404064514604/04/16 06:45:31  5-MIN KAOH 041145Z AUTO 35012KT 9SM SCT010 BKN033 OVC042 04/03 A2981 1080 89 100 350/12 RMK AO2 RAB00E19 PRESRR P0000 T00440028
04850KAOH AOH20160404065013604/04/16 06:50:31  5-MIN KAOH 041150Z AUTO 35014KT 9SM BKN009 BKN033 OVC042 04/03 A2981 1080 89 100 350/14 RMK AO2 RAB00E19 PRESRR P0000
04850KAOH AOH20160404065513104/04/16 06:55:31  5-MIN KAOH 041155Z AUTO 36014KT 8SM BKN009 BKN033 OVC042 04/03 A2982 1070 89 100 360/14 RMK AO2 PRESRR T00440028
04850KAOH AOH20160404070011504/04/16 07:00:31  5-MIN KAOH 041200Z AUTO 35013KT 8SM BKN009 OVC041 04/02 A2982 1070 89 0 360/13 RMK AO2 T00390022
04850KAOH AOH20160404070511504/04/16 07:05:31  5-MIN KAOH 041205Z AUTO 35014KT 8SM OVC009 04/02 A2983 1060 89 0 360/14 RMK AO2 PRESRR T00390022
04850KAOH AOH20160404071010804/04/16 07:10:31  5-MIN KAOH 041210Z AUTO 36013KT 8SM OVC008 04/02 A2984 1050 89 0 360/13 RMK AO2 T00390022
04850KAOH AOH20160404071511504/04/16 07:15:31  5-MIN KAOH 041215Z AUTO 35014KT 8SM OVC008 03/02 A2984 1050 89 0 350/14 RMK AO2 PRESRR T00330017
04850KAOH AOH20160404072010804/04/16 07:20:31  5-MIN KAOH 041220Z AUTO 35012KT 8SM OVC008 03/02 A2984 1050 89 0 360/12 RMK AO2 T00330017
04850KAOH AOH20160404072512704/04/16 07:25:31  5-MIN KAOH 041225Z AUTO 34015G22KT 10SM OVC008 03/01 A2985 1040 85 0 350/15G22 RMK AO2 CIG 007V012 T00330011
04850KAOH AOH20160404073013404/04/16 07:30:31  5-MIN KAOH 041230Z AUTO 35013G22KT 10SM BKN010 OVC015 03/01 A2986 1030 85 0 360/13G22 RMK AO2 CIG 007V013 T00330011
04850KAOH AOH20160404073513404/04/16 07:35:31  5-MIN KAOH 041235Z AUTO 35014G21KT 10SM BKN010 OVC015 03/01 A2986 1030 85 0 360/14G21 RMK AO2 CIG 007V011 T00330011
04850KAOH AOH20160404074013104/04/16 07:40:31  5-MIN KAOH 041240Z AUTO 34014KT 10SM OVC010 03/01 A2987 1020 85 -100 340/14 RMK AO2 CIG 008V013 PRESRR T00280006
04850KAOH AOH20160404074511204/04/16 07:45:31  5-MIN KAOH 041245Z AUTO 35014KT 10SM OVC010 03/01 A2987 1020 89 -100 350/14 RMK AO2 T00280011
04850KAOH AOH20160404075013004/04/16 07:50:31  5-MIN KAOH 041250Z AUTO 35014KT 9SM OVC010 03/01 A2987 1020 85 -100 360/14 RMK AO2 CIG 008V013 SLP119 T00280006
04850KAOH AOH20160404075511104/04/16 07:55:31  5-MIN KAOH 041255Z AUTO 35012KT 9SM OVC010 03/01 A2988 1020 89 -100 350/12 RMK AO2 T00280011
04850KAOH AOH20160404080011704/04/16 08:00:31  5-MIN KAOH 041300Z AUTO 34014G20KT 9SM OVC009 02/01 A2988 1020 89 -200 350/14G20 RMK AO2 T00220006
04850KAOH AOH20160404080511704/04/16 08:05:31  5-MIN KAOH 041305Z AUTO 34013G20KT 8SM OVC009 03/01 A2988 1020 85 -100 350/13G20 RMK AO2 T00280006
04850KAOH AOH20160404081011704/04/16 08:10:31  5-MIN KAOH 041310Z AUTO 35015G20KT 8SM OVC008 02/01 A2989 1010 89 -200 360/15G20 RMK AO2 T00220006
04850KAOH AOH20160404081511704/04/16 08:15:31  5-MIN KAOH 041315Z AUTO 34013G20KT 7SM OVC008 02/01 A2989 1010 89 -200 350/13G20 RMK AO2 T00220006
04850KAOH AOH20160404082011704/04/16 08:20:31  5-MIN KAOH 041320Z AUTO 34013G20KT 7SM OVC008 02/01 A2990 1000 89 -200 340/13G20 RMK AO2 T00220006
04850KAOH AOH20160404082511704/04/16 08:25:31  5-MIN KAOH 041325Z AUTO 36015G21KT 7SM OVC008 02/00 A2990 1000 89 -300 360/15G21 RMK AO2 T00170000
04850KAOH AOH20160404083011604/04/16 08:30:31  5-MIN KAOH 041330Z AUTO 35015G21KT 8SM OVC008 02/00 A2990 990 89 -300 350/15G21 RMK AO2 T00170000
04850KAOH AOH20160404083511104/04/16 08:35:31  5-MIN KAOH 041335Z AUTO 35014KT 9SM OVC008 02/M01 A2991 990 85 -300 360/14 RMK AO2 T00171006
04850KAOH AOH20160404084011204/04/16 08:40:31  5-MIN KAOH 041340Z AUTO 34014KT 10SM OVC008 02/M01 A2991 980 85 -300 350/14 RMK AO2 T00171006
04850KAOH AOH20160404084511204/04/16 08:45:31  5-MIN KAOH 041345Z AUTO 36013KT 10SM OVC008 02/M01 A2992 980 85 -300 360/13 RMK AO2 T00171006
04850KAOH AOH20160404085011804/04/16 08:50:31  5-MIN KAOH 041350Z AUTO 01015KT 9SM OVC008 01/M01 A2992 980 89 -400 010/15 RMK AO2 SLP137 T00111006
04850KAOH AOH20160404085511104/04/16 08:55:31  5-MIN KAOH 041355Z AUTO 36013KT 9SM OVC008 02/M01 A2992 980 85 -300 360/13 RMK AO2 T00171006
04850KAOH AOH20160404090011804/04/16 09:00:31  5-MIN KAOH 041400Z AUTO 35013G20KT 10SM OVC008 01/M01 A2992 970 89 -400 350/13G20 RMK AO2 T00111006
04850KAOH AOH20160404090511804/04/16 09:05:31  5-MIN KAOH 041405Z AUTO 35014G20KT 10SM OVC009 02/M01 A2993 970 85 -300 350/14G20 RMK AO2 T00171006
04850KAOH AOH20160404091013004/04/16 09:10:31  5-MIN KAOH 041410Z AUTO 35016G22KT 10SM OVC009 02/M01 A2993 970 85 -300 360/16G22 RMK AO2 CIG 008V013 T00171006
04850KAOH AOH20160404091513004/04/16 09:15:31  5-MIN KAOH 041415Z AUTO 35013G22KT 10SM OVC009 01/M01 A2993 970 89 -400 360/13G22 RMK AO2 CIG 008V013 T00111006
04850KAOH AOH20160404092012404/04/16 09:20:31  5-MIN KAOH 041420Z AUTO 34015KT 10SM OVC009 01/M01 A2994 960 85 -400 350/15 RMK AO2 CIG 008V014 T00111011
04850KAOH AOH20160404092511204/04/16 09:25:31  5-MIN KAOH 041425Z AUTO 35012KT 10SM OVC011 02/M01 A2994 960 82 -300 350/12 RMK AO2 T00171011
04850KAOH AOH20160404093011204/04/16 09:30:31  5-MIN KAOH 041430Z AUTO 35012KT 10SM OVC011 02/M01 A2994 960 85 -300 360/12 RMK AO2 T00171006
04850KAOH AOH20160404093511804/04/16 09:35:31  5-MIN KAOH 041435Z AUTO 35012G19KT 10SM OVC011 02/M01 A2995 950 82 -400 350/12G19 RMK AO2 T00171011
04850KAOH AOH20160404094011204/04/16 09:40:31  5-MIN KAOH 041440Z AUTO 34013KT 10SM OVC011 01/M01 A2995 950 85 -400 350/13 RMK AO2 T00111011
04850KAOH AOH20160404094511204/04/16 09:45:31  5-MIN KAOH 041445Z AUTO 35010KT 10SM OVC011 01/M01 A2995 950 85 -400 360/10 RMK AO2 T00111011
04850KAOH AOH20160404095012504/04/16 09:50:31  5-MIN KAOH 041450Z AUTO 34012KT 10SM OVC011 02/M01 A2995 950 85 -400 350/12 RMK AO2 SLP147 T00171006 53038
04850KAOH AOH20160404095511804/04/16 09:55:31  5-MIN KAOH 041455Z AUTO 34011G18KT 10SM OVC011 02/M01 A2995 950 85 -400 350/11G18 RMK AO2 T00171006
04850KAOH AOH20160404100011804/04/16 10:00:31  5-MIN KAOH 041500Z AUTO 35010G18KT 10SM OVC011 01/M01 A2995 950 85 -400 350/10G18 RMK AO2 T00111011
04850KAOH AOH20160404100511204/04/16 10:05:31  5-MIN KAOH 041505Z AUTO 34011KT 10SM OVC011 02/M01 A2996 940 85 -400 350/11 RMK AO2 T00171006
04850KAOH AOH20160404101011904/04/16 10:10:31  5-MIN KAOH 041510Z AUTO 35010KT 10SM BKN011 OVC014 02/M01 A2996 940 85 -400 360/10 RMK AO2 T00171006
04850KAOH AOH20160404101511204/04/16 10:15:31  5-MIN KAOH 041515Z AUTO 35011KT 10SM OVC011 02/M01 A2997 940 82 -300 360/11 RMK AO2 T00221006
04850KAOH AOH20160404102011204/04/16 10:20:31  5-MIN KAOH 041520Z AUTO 35014KT 10SM OVC012 02/M01 A2997 930 82 -300 360/14 RMK AO2 T00221006
04850KAOH AOH20160404102511204/04/16 10:25:31  5-MIN KAOH 041525Z AUTO 35010KT 10SM OVC012 02/M01 A2997 930 82 -400 360/10 RMK AO2 T00171011
04850KAOH AOH20160404103011204/04/16 10:30:31  5-MIN KAOH 041530Z AUTO 36014KT 10SM OVC012 02/M01 A2998 930 82 -400 010/14 RMK AO2 T00171011
04850KAOH AOH20160404103511204/04/16 10:35:31  5-MIN KAOH 041535Z AUTO 35011KT 10SM OVC012 02/M01 A2998 920 85 -400 360/11 RMK AO2 T00171006
04850KAOH AOH20160404104011404/04/16 10:40:31  5-MIN KAOH 041540Z AUTO 36012KT 10SM OVC012 02/M01 A2998 920 85 -400 360/12 RMK AO2 T00171006 $
04850KAOH AOH20160404104511404/04/16 10:45:31  5-MIN KAOH 041545Z AUTO 35011KT 10SM OVC012 02/M01 A2999 910 85 -400 360/11 RMK AO2 T00171006 $
04850KAOH AOH20160404105012104/04/16 10:50:31  5-MIN KAOH 041550Z AUTO 36010KT 10SM OVC011 02/M01 A2999 910 85 -400 360/10 RMK AO2 SLP161 T00171006 $
04850KAOH AOH20160404105512604/04/16 10:55:31  5-MIN KAOH 041555Z AUTO 35011KT 10SM OVC011 01/M01 A3000 910 89 -500 360/11 RMK AO2 CIG 008V013 T00111006 $
04850KAOH AOH20160404110011404/04/16 11:00:31  5-MIN KAOH 041600Z AUTO 36011KT 10SM OVC009 01/M01 A3000 900 85 -500 360/11 RMK AO2 T00111011 $
04850KAOH AOH20160404110511404/04/16 11:05:31  5-MIN KAOH 041605Z AUTO 34013KT 10SM OVC009 01/M01 A3000 900 85 -500 350/13 RMK AO2 T00111011 $
04850KAOH AOH20160404111011404/04/16 11:10:31  5-MIN KAOH 041610Z AUTO 36010KT 10SM OVC009 01/M01 A3000 900 85 -500 010/10 RMK AO2 T00111011 $
04850KAOH AOH20160404111511404/04/16 11:15:31  5-MIN KAOH 041615Z AUTO 36012KT 10SM OVC009 01/M01 A3001 900 85 -500 360/12 RMK AO2 T00111011 $
04850KAOH AOH20160404112011404/04/16 11:20:31  5-MIN KAOH 041620Z AUTO 36011KT 10SM OVC009 01/M01 A3001 890 85 -500 360/11 RMK AO2 T00111011 $
04850KAOH AOH20160404112511404/04/16 11:25:31  5-MIN KAOH 041625Z AUTO 36011KT 10SM OVC009 01/M01 A3001 890 85 -500 010/11 RMK AO2 T00111011 $
04850KAOH AOH20160404113011404/04/16 11:30:31  5-MIN KAOH 041630Z AUTO 36011KT 10SM OVC009 01/M01 A3002 890 85 -500 360/11 RMK AO2 T00111011 $
04850KAOH AOH20160404113511404/04/16 11:35:31  5-MIN KAOH 041635Z AUTO 35011KT 10SM OVC009 01/M01 A3002 890 85 -500 350/11 RMK AO2 T00111011 $
04850KAOH AOH20160404114011404/04/16 11:40:31  5-MIN KAOH 041640Z AUTO 35012KT 10SM OVC009 01/M01 A3002 890 85 -500 360/12 RMK AO2 T00111011 $
04850KAOH AOH20160404114511404/04/16 11:45:31  5-MIN KAOH 041645Z AUTO 36012KT 10SM OVC009 01/M01 A3002 880 85 -500 010/12 RMK AO2 T00111011 $
04850KAOH AOH20160404115010404/04/16 11:50:31  5-MIN KAOH 041650Z AUTO 01012KT 10SM OVC010 01/M01 A3002 880 85 -500 020/12 RMK AO2 $
04850KAOH AOH20160404115511404/04/16 11:55:31  5-MIN KAOH 041655Z AUTO 36009KT 10SM OVC010 01/M01 A3002 880 85 -500 010/09 RMK AO2 T00111011 $
04850KAOH AOH20160404120011404/04/16 12:00:31  5-MIN KAOH 041700Z AUTO 01011KT 10SM OVC010 01/M01 A3003 880 85 -500 020/11 RMK AO2 T00111011 $
04850KAOH AOH20160404120511404/04/16 12:05:31  5-MIN KAOH 041705Z AUTO 01011KT 10SM OVC011 01/M01 A3003 880 85 -500 010/11 RMK AO2 T00111011 $
04850KAOH AOH20160404121011404/04/16 12:10:31  5-MIN KAOH 041710Z AUTO 01010KT 10SM OVC011 01/M01 A3003 880 85 -500 010/10 RMK AO2 T00111011 $
04850KAOH AOH20160404121511404/04/16 12:15:31  5-MIN KAOH 041715Z AUTO 36012KT 10SM OVC011 01/M01 A3004 870 85 -500 010/12 RMK AO2 T00111011 $
04850KAOH AOH20160404122011404/04/16 12:20:31  5-MIN KAOH 041720Z AUTO 36012KT 10SM OVC011 01/M01 A3004 870 85 -500 010/12 RMK AO2 T00111011 $
04850KAOH AOH20160404122511404/04/16 12:25:31  5-MIN KAOH 041725Z AUTO 36012KT 10SM OVC011 01/M02 A3004 870 82 -500 010/12 RMK AO2 T00111017 $
04850KAOH AOH20160404123011404/04/16 12:30:31  5-MIN KAOH 041730Z AUTO 35011KT 10SM OVC011 01/M02 A3004 870 82 -500 350/11 RMK AO2 T00111017 $
04850KAOH AOH20160404123511404/04/16 12:35:31  5-MIN KAOH 041735Z AUTO 34011KT 10SM OVC011 01/M02 A3004 870 82 -500 350/11 RMK AO2 T00111017 $
04850KAOH AOH20160404124011404/04/16 12:40:31  5-MIN KAOH 041740Z AUTO 35010KT 10SM OVC011 01/M02 A3004 860 82 -500 350/10 RMK AO2 T00111017 $
04850KAOH AOH20160404124511404/04/16 12:45:31  5-MIN KAOH 041745Z AUTO 36010KT 10SM OVC012 01/M01 A3005 860 85 -500 010/10 RMK AO2 T00111011 $
04850KAOH AOH20160404125013904/04/16 12:50:31  5-MIN KAOH 041750Z AUTO 36013KT 10SM OVC012 01/M02 A3005 860 82 -500 010/13 RMK AO2 SLP180 T00111017 10044 20006 51044 $
04850KAOH AOH20160404125511404/04/16 12:55:31  5-MIN KAOH 041755Z AUTO 36010KT 10SM OVC012 01/M02 A3005 860 82 -500 010/10 RMK AO2 T00111017 $
04850KAOH AOH20160404130011404/04/16 13:00:31  5-MIN KAOH 041800Z AUTO 01011KT 10SM OVC012 01/M02 A3005 860 82 -500 020/11 RMK AO2 T00111017 $
04850KAOH AOH20160404130511404/04/16 13:05:31  5-MIN KAOH 041805Z AUTO 35011KT 10SM OVC012 01/M02 A3006 850 82 -500 350/11 RMK AO2 T00111017 $
04850KAOH AOH20160404131011404/04/16 13:10:31  5-MIN KAOH 041810Z AUTO 36009KT 10SM OVC012 01/M02 A3006 850 82 -500 010/09 RMK AO2 T00111017 $
04850KAOH AOH20160404131511404/04/16 13:15:31  5-MIN KAOH 041815Z AUTO 36011KT 10SM OVC012 01/M02 A3006 850 82 -500 010/11 RMK AO2 T00111017 $
04850KAOH AOH20160404132011404/04/16 13:20:31  5-MIN KAOH 041820Z AUTO 01010KT 10SM OVC012 01/M02 A3006 840 82 -600 010/10 RMK AO2 T00111017 $
04850KAOH AOH20160404132511404/04/16 13:25:31  5-MIN KAOH 041825Z AUTO 36010KT 10SM OVC012 01/M02 A3007 840 82 -600 360/10 RMK AO2 T00111017 $
04850KAOH AOH20160404133011404/04/16 13:30:31  5-MIN KAOH 041830Z AUTO 01010KT 10SM OVC013 01/M02 A3007 840 85 -600 010/10 RMK AO2 T00061017 $
04850KAOH AOH20160404133511404/04/16 13:35:31  5-MIN KAOH 041835Z AUTO 35011KT 10SM OVC013 01/M02 A3007 840 85 -600 350/11 RMK AO2 T00061017 $
04850KAOH AOH20160404134011404/04/16 13:40:31  5-MIN KAOH 041840Z AUTO 36011KT 10SM OVC013 01/M02 A3007 840 85 -600 010/11 RMK AO2 T00061017 $
04850KAOH AOH20160404134511404/04/16 13:45:31  5-MIN KAOH 041845Z AUTO 36009KT 10SM OVC013 01/M02 A3007 840 82 -600 360/09 RMK AO2 T00111017 $
04850KAOH AOH20160404135012104/04/16 13:50:31  5-MIN KAOH 041850Z AUTO 01011KT 10SM OVC013 01/M02 A3007 840 82 -600 010/11 RMK AO2 SLP189 T00111017 $
04850KAOH AOH20160404135511404/04/16 13:55:31  5-MIN KAOH 041855Z AUTO 36009KT 10SM OVC013 01/M02 A3008 830 85 -600 360/09 RMK AO2 T00061017 $
04850KAOH AOH20160404140011404/04/16 14:00:31  5-MIN KAOH 041900Z AUTO 01012KT 10SM OVC013 01/M02 A3008 830 85 -600 020/12 RMK AO2 T00061017 $
04850KAOH AOH20160404140511404/04/16 14:05:31  5-MIN KAOH 041905Z AUTO 02012KT 10SM OVC013 01/M02 A3008 830 85 -600 020/12 RMK AO2 T00061017 $
04850KAOH AOH20160404141011404/04/16 14:10:31  5-MIN KAOH 041910Z AUTO 02011KT 10SM OVC013 01/M02 A3008 830 85 -600 030/11 RMK AO2 T00061017 $
04850KAOH AOH20160404141511404/04/16 14:15:31  5-MIN KAOH 041915Z AUTO 03011KT 10SM OVC013 01/M02 A3008 830 85 -600 030/11 RMK AO2 T00061017 $
04850KAOH AOH20160404142011404/04/16 14:20:31  5-MIN KAOH 041920Z AUTO 01011KT 10SM OVC013 01/M02 A3008 830 82 -600 020/11 RMK AO2 T00061022 $
04850KAOH AOH20160404142511404/04/16 14:25:31  5-MIN KAOH 041925Z AUTO 02008KT 10SM OVC013 01/M02 A3008 830 85 -600 030/08 RMK AO2 T00061017 $
04850KAOH AOH20160404143011404/04/16 14:30:31  5-MIN KAOH 041930Z AUTO 03011KT 10SM OVC013 01/M02 A3009 820 85 -600 040/11 RMK AO2 T00061017 $
04850KAOH AOH20160404143511404/04/16 14:35:31  5-MIN KAOH 041935Z AUTO 04012KT 10SM OVC013 01/M02 A3009 820 82 -600 050/12 RMK AO2 T00061022 $
04850KAOH AOH20160404144011404/04/16 14:40:31  5-MIN KAOH 041940Z AUTO 03009KT 10SM OVC013 01/M02 A3009 820 82 -600 040/09 RMK AO2 T00061022 $
04850KAOH AOH20160404144511404/04/16 14:45:31  5-MIN KAOH 041945Z AUTO 01011KT 10SM OVC013 01/M02 A3009 820 82 -700 020/11 RMK AO2 T00061022 $
04850KAOH AOH20160404145012104/04/16 14:50:31  5-MIN KAOH 041950Z AUTO 02013KT 10SM OVC013 01/M02 A3009 820 82 -700 030/13 RMK AO2 SLP195 T00061022 $
04850KAOH AOH20160404145511404/04/16 14:55:31  5-MIN KAOH 041955Z AUTO 02010KT 10SM OVC013 00/M02 A3009 820 85 -700 030/10 RMK AO2 T00001022 $
04850KAOH AOH20160404150011404/04/16 15:00:31  5-MIN KAOH 042000Z AUTO 03009KT 10SM OVC013 00/M02 A3010 810 85 -700 030/09 RMK AO2 T00001022 $
04850KAOH AOH20160404150511404/04/16 15:05:31  5-MIN KAOH 042005Z AUTO 02010KT 10SM OVC013 00/M02 A3010 820 85 -700 030/10 RMK AO2 T00001022 $
04850KAOH AOH20160404151011404/04/16 15:10:31  5-MIN KAOH 042010Z AUTO 03009KT 10SM OVC013 01/M02 A3010 810 82 -700 030/09 RMK AO2 T00061022 $
04850KAOH AOH20160404151511404/04/16 15:15:31  5-MIN KAOH 042015Z AUTO 01010KT 10SM OVC014 00/M02 A3010 810 85 -700 020/10 RMK AO2 T00001022 $
04850KAOH AOH20160404152011404/04/16 15:20:31  5-MIN KAOH 042020Z AUTO 02010KT 10SM OVC014 00/M03 A3010 810 81 -700 030/10 RMK AO2 T00001028 $
04850KAOH AOH20160404152511404/04/16 15:25:31  5-MIN KAOH 042025Z AUTO 02009KT 10SM OVC015 01/M02 A3010 810 82 -700 030/09 RMK AO2 T00061022 $
04850KAOH AOH20160404153011404/04/16 15:30:31  5-MIN KAOH 042030Z AUTO 02009KT 10SM OVC015 01/M02 A3010 810 82 -700 020/09 RMK AO2 T00061022 $
04850KAOH AOH20160404153511404/04/16 15:35:31  5-MIN KAOH 042035Z AUTO 03011KT 10SM OVC015 00/M03 A3011 810 81 -700 040/11 RMK AO2 T00001028 $
04850KAOH AOH20160404154011404/04/16 15:40:31  5-MIN KAOH 042040Z AUTO 02008KT 10SM OVC015 00/M03 A3011 800 81 -700 030/08 RMK AO2 T00001028 $
04850KAOH AOH20160404154511404/04/16 15:45:31  5-MIN KAOH 042045Z AUTO 03010KT 10SM OVC015 01/M03 A3011 800 78 -700 030/10 RMK AO2 T00061028 $
04850KAOH AOH20160404155012704/04/16 15:50:31  5-MIN KAOH 042050Z AUTO 04009KT 10SM OVC015 00/M03 A3011 800 81 -700 040/09 RMK AO2 SLP202 T00001028 51033 $
04850KAOH AOH20160404155511404/04/16 15:55:31  5-MIN KAOH 042055Z AUTO 04009KT 10SM OVC015 00/M03 A3011 800 81 -700 040/09 RMK AO2 T00001028 $
04850KAOH AOH20160404160011404/04/16 16:00:31  5-MIN KAOH 042100Z AUTO 02011KT 10SM OVC016 00/M03 A3011 800 81 -700 030/11 RMK AO2 T00001028 $
04850KAOH AOH20160404160511404/04/16 16:05:31  5-MIN KAOH 042105Z AUTO 03011KT 10SM OVC016 00/M03 A3012 800 81 -800 030/11 RMK AO2 T00001028 $
04850KAOH AOH20160404161011404/04/16 16:10:31  5-MIN KAOH 042110Z AUTO 03011KT 10SM OVC016 00/M03 A3012 790 81 -800 040/11 RMK AO2 T00001028 $
04850KAOH AOH20160404161511404/04/16 16:15:31  5-MIN KAOH 042115Z AUTO 02012KT 10SM OVC016 00/M03 A3012 790 78 -800 030/12 RMK AO2 T00001033 $
04850KAOH AOH20160404162012004/04/16 16:20:31  5-MIN KAOH 042120Z AUTO 03009G18KT 10SM OVC016 00/M03 A3012 790 81 -800 040/09G18 RMK AO2 T00001028 $
04850KAOH AOH20160404162511404/04/16 16:25:31  5-MIN KAOH 042125Z AUTO 03009KT 10SM OVC016 00/M03 A3012 790 81 -800 040/09 RMK AO2 T00001028 $
04850KAOH AOH20160404163011404/04/16 16:30:31  5-MIN KAOH 042130Z AUTO 04009KT 10SM OVC016 00/M03 A3013 790 78 -800 050/09 RMK AO2 T00001033 $
04850KAOH AOH20160404163511404/04/16 16:35:31  5-MIN KAOH 042135Z AUTO 03010KT 10SM OVC016 00/M03 A3013 780 78 -800 030/10 RMK AO2 T00001033 $
04850KAOH AOH20160404164011404/04/16 16:40:31  5-MIN KAOH 042140Z AUTO 04010KT 10SM OVC016 00/M03 A3013 780 78 -800 040/10 RMK AO2 T00001033 $
04850KAOH AOH20160404164511404/04/16 16:45:31  5-MIN KAOH 042145Z AUTO 02010KT 10SM OVC016 00/M03 A3014 780 78 -800 030/10 RMK AO2 T00001033 $
04850KAOH AOH20160404165012104/04/16 16:50:31  5-MIN KAOH 042150Z AUTO 03009KT 10SM OVC018 00/M03 A3014 770 78 -800 040/09 RMK AO2 SLP212 T00001033 $
04850KAOH AOH20160404165511404/04/16 16:55:31  5-MIN KAOH 042155Z AUTO 02009KT 10SM OVC018 00/M03 A3014 770 78 -800 030/09 RMK AO2 T00001033 $
04850KAOH AOH20160404170011404/04/16 17:00:31  5-MIN KAOH 042200Z AUTO 03010KT 10SM OVC018 00/M03 A3014 770 78 -800 030/10 RMK AO2 T00001033 $
04850KAOH AOH20160404170511404/04/16 17:05:31  5-MIN KAOH 042205Z AUTO 03008KT 10SM OVC018 00/M03 A3015 770 78 -800 040/08 RMK AO2 T00001033 $
04850KAOH AOH20160404171011404/04/16 17:10:31  5-MIN KAOH 042210Z AUTO 04011KT 10SM OVC018 00/M03 A3015 770 78 -800 050/11 RMK AO2 T00001033 $
04850KAOH AOH20160404171511404/04/16 17:15:31  5-MIN KAOH 042215Z AUTO 04009KT 10SM OVC018 00/M03 A3015 760 78 -800 040/09 RMK AO2 T00001033 $
04850KAOH AOH20160404172011404/04/16 17:20:31  5-MIN KAOH 042220Z AUTO 04009KT 10SM OVC018 00/M03 A3016 760 78 -800 050/09 RMK AO2 T00001033 $
04850KAOH AOH20160404172511504/04/16 17:25:31  5-MIN KAOH 042225Z AUTO 03010KT 10SM OVC018 M01/M04 A3016 760 78 -900 030/10 RMK AO2 T10061039 $
04850KAOH AOH20160404173011504/04/16 17:30:31  5-MIN KAOH 042230Z AUTO 03009KT 10SM OVC020 M01/M04 A3016 760 78 -900 030/09 RMK AO2 T10061039 $
04850KAOH AOH20160404173511504/04/16 17:35:31  5-MIN KAOH 042235Z AUTO 03011KT 10SM OVC020 M01/M04 A3016 750 75 -900 030/11 RMK AO2 T10061044 $
04850KAOH AOH20160404174011504/04/16 17:40:31  5-MIN KAOH 042240Z AUTO 03009KT 10SM OVC021 M01/M04 A3017 750 75 -900 030/09 RMK AO2 T10061044 $
04850KAOH AOH20160404174511504/04/16 17:45:31  5-MIN KAOH 042245Z AUTO 02008KT 10SM OVC021 M01/M04 A3017 750 78 -900 020/08 RMK AO2 T10061039 $
04850KAOH AOH20160404175012104/04/16 17:50:31  5-MIN KAOH 042250Z AUTO 02010KT 10SM OVC021 00/M04 A3017 750 72 -800 020/10 RMK AO2 SLP223 T00001044 $
04850KAOH AOH20160404175511504/04/16 17:55:31  5-MIN KAOH 042255Z AUTO 03009KT 10SM OVC023 M01/M04 A3017 740 75 -900 030/09 RMK AO2 T10061044 $
04850KAOH AOH20160404180013304/04/16 18:00:31  5-MIN KAOH 042300Z AUTO 02010KT 10SM -SN OVC023 M01/M04 A3018 740 75 -900 030/10 RMK AO2 SNB2259 P0000 T10061044 $
04850KAOH AOH20160404180513204/04/16 18:05:31  5-MIN KAOH 042305Z AUTO 02010KT 9SM -SN OVC024 M01/M04 A3018 740 75 -900 020/10 RMK AO2 SNB2259 P0000 T10061044 $
04850KAOH AOH20160404181013204/04/16 18:10:31  5-MIN KAOH 042310Z AUTO 02008KT 9SM -SN OVC024 M01/M04 A3018 740 75 -900 030/08 RMK AO2 SNB2259 P0000 T10061044 $
04850KAOH AOH20160404181513204/04/16 18:15:31  5-MIN KAOH 042315Z AUTO 02009KT 9SM -SN OVC026 M01/M04 A3018 740 75 -900 020/09 RMK AO2 SNB2259 P0000 T10061044 $
04850KAOH AOH20160404182013204/04/16 18:20:31  5-MIN KAOH 042320Z AUTO 02008KT 9SM -SN OVC026 M01/M04 A3018 740 75 -900 030/08 RMK AO2 SNB2259 P0000 T10061044 $
04850KAOH AOH20160404182513204/04/16 18:25:31  5-MIN KAOH 042325Z AUTO 02009KT 9SM -SN OVC026 M01/M04 A3018 730 75 -900 030/09 RMK AO2 SNB2259 P0000 T10061044 $
04850KAOH AOH20160404183014604/04/16 18:30:31  5-MIN KAOH 042330Z AUTO 02009KT 9SM -SN BKN026 BKN031 OVC041 M01/M04 A3018 730 78 -900 030/09 RMK AO2 SNB2259 P0000 T10061039 $
04850KAOH AOH20160404183514604/04/16 18:35:31  5-MIN KAOH 042335Z AUTO 03009KT 9SM -SN BKN026 BKN031 OVC047 M01/M04 A3019 730 78 -900 040/09 RMK AO2 SNB2259 P0000 T10061039 $
04850KAOH AOH20160404184014604/04/16 18:40:31  5-MIN KAOH 042340Z AUTO 04009KT 9SM -SN SCT026 SCT031 OVC049 M01/M04 A3019 730 75 -900 040/09 RMK AO2 SNB2259 P0000 T10061044 $
04850KAOH AOH20160404184514504/04/16 18:45:31  5-MIN KAOH 042345Z AUTO 04007KT 9SM SCT028 SCT041 OVC049 M01/M04 A3019 730 75 -900 050/07 RMK AO2 SNB2259E45 P0000 T10061044 $
04850KAOH AOH20160404185017604/04/16 18:50:31  5-MIN KAOH 042350Z AUTO 04009KT 9SM FEW028 FEW041 OVC049 M01/M04 A3020 720 75 -900 050/09 RMK AO2 SNB2259E45 SLP234 P0000 60000 T10061044 10011 21006 51020 $
04850KAOH AOH20160404185511504/04/16 18:55:31  5-MIN KAOH 042355Z AUTO 03007KT 10SM OVC049 M01/M04 A3020 720 75 -900 040/07 RMK AO2 T10061044 $
04850KAOH AOH20160404190011504/04/16 19:00:31  5-MIN KAOH 050000Z AUTO 04008KT 10SM OVC048 M01/M04 A3020 720 75 -900 040/08 RMK AO2 T10061044 $
04850KAOH AOH20160404190511504/04/16 19:05:31  5-MIN KAOH 050005Z AUTO 04007KT 10SM OVC048 M01/M04 A3020 720 78 -900 040/07 RMK AO2 T10061039 $
04850KAOH AOH20160404191011504/04/16 19:10:31  5-MIN KAOH 050010Z AUTO 04008KT 10SM OVC048 M01/M04 A3021 720 78 -900 040/08 RMK AO2 T10061039 $
04850KAOH AOH20160404191511504/04/16 19:15:31  5-MIN KAOH 050015Z AUTO 03007KT 10SM OVC048 M01/M04 A3021 710 78 -900 040/07 RMK AO2 T10061039 $
04850KAOH AOH20160404192011504/04/16 19:20:31  5-MIN KAOH 050020Z AUTO 03006KT 10SM OVC048 M01/M04 A3021 710 75 -900 040/06 RMK AO2 T10061044 $
04850KAOH AOH20160404192511604/04/16 19:25:31  5-MIN KAOH 050025Z AUTO 04005KT 10SM OVC047 M01/M04 A3021 710 81 -1000 050/05 RMK AO2 T10111039 $
04850KAOH AOH20160404193011604/04/16 19:30:31  5-MIN KAOH 050030Z AUTO 03006KT 10SM OVC049 M01/M04 A3021 710 81 -1000 040/06 RMK AO2 T10111039 $
04850KAOH AOH20160404193511604/04/16 19:35:31  5-MIN KAOH 050035Z AUTO 04006KT 10SM OVC049 M01/M04 A3021 710 78 -1000 040/06 RMK AO2 T10111044 $
04850KAOH AOH20160404194011604/04/16 19:40:31  5-MIN KAOH 050040Z AUTO 03007KT 10SM OVC049 M01/M04 A3021 710 78 -1000 040/07 RMK AO2 T10111044 $
04850KAOH AOH20160404194511604/04/16 19:45:31  5-MIN KAOH 050045Z AUTO 03006KT 10SM OVC050 M01/M04 A3021 710 78 -1000 030/06 RMK AO2 T10111044 $
04850KAOH AOH20160404195012304/04/16 19:50:31  5-MIN KAOH 050050Z AUTO 03006KT 10SM OVC050 M01/M04 A3022 700 78 -1000 040/06 RMK AO2 SLP242 T10111044 $
04850KAOH AOH20160404195511604/04/16 19:55:31  5-MIN KAOH 050055Z AUTO 04006KT 10SM OVC050 M01/M04 A3022 700 78 -1000 040/06 RMK AO2 T10111044 $
04850KAOH AOH20160404200011604/04/16 20:00:31  5-MIN KAOH 050100Z AUTO 03007KT 10SM OVC050 M01/M04 A3022 700 78 -1000 040/07 RMK AO2 T10111044 $
04850KAOH AOH20160404200511604/04/16 20:05:31  5-MIN KAOH 050105Z AUTO 05006KT 10SM OVC050 M01/M04 A3022 700 78 -1000 050/06 RMK AO2 T10111044 $
04850KAOH AOH20160404201013204/04/16 20:10:31  5-MIN KAOH 050110Z AUTO 05007KT 10SM -SN OVC050 M01/M04 A3022 700 78 -1000 050/07 RMK AO2 SNB08 P0000 T10111044 $
04850KAOH AOH20160404201513104/04/16 20:15:31  5-MIN KAOH 050115Z AUTO 03007KT 9SM -SN OVC050 M01/M04 A3022 700 78 -1000 040/07 RMK AO2 SNB08 P0000 T10111044 $
04850KAOH AOH20160404202013004/04/16 20:20:31  5-MIN KAOH 050120Z AUTO 03006KT 9SM OVC050 M01/M04 A3023 690 81 -1000 040/06 RMK AO2 SNB08E17 P0000 T10111039 $
04850KAOH AOH20160404202513104/04/16 20:25:31  5-MIN KAOH 050125Z AUTO 02009KT 10SM OVC048 M01/M04 A3023 690 81 -1000 030/09 RMK AO2 SNB08E17 P0000 T10111039 $
04850KAOH AOH20160404203013104/04/16 20:30:31  5-MIN KAOH 050130Z AUTO 03007KT 10SM OVC046 M01/M04 A3024 690 78 -1000 030/07 RMK AO2 SNB08E17 P0000 T10111044 $
04850KAOH AOH20160404203514404/04/16 20:35:31  5-MIN KAOH 050135Z AUTO 04007KT 9SM -SN BKN042 OVC049 M01/M04 A3024 690 81 -1000 050/07 RMK AO2 SNB08E17B34 P0000 T10111039 $
04850KAOH AOH20160404204013704/04/16 20:40:31  5-MIN KAOH 050140Z AUTO 04007KT 8SM -SN OVC045 M01/M04 A3024 680 81 -1000 040/07 RMK AO2 SNB08E17B34 P0000 T10111039 $
04850KAOH AOH20160404204513704/04/16 20:45:31  5-MIN KAOH 050145Z AUTO 03007KT 8SM -SN OVC045 M01/M04 A3024 680 81 -1000 040/07 RMK AO2 SNB08E17B34 P0000 T10111039 $
04850KAOH AOH20160404205014404/04/16 20:50:31  5-MIN KAOH 050150Z AUTO 03008KT 9SM -SN OVC045 M01/M04 A3024 680 81 -1000 040/08 RMK AO2 SNB08E17B34 SLP252 P0000 T10111039 $
04850KAOH AOH20160404205513204/04/16 20:55:31  5-MIN KAOH 050155Z AUTO 03007KT 8SM -SN BKN044 OVC055 M01/M04 A3025 680 81 -1000 040/07 RMK AO2 P0000 T10111039 $
04850KAOH AOH20160404210013204/04/16 21:00:31  5-MIN KAOH 050200Z AUTO 02007KT 7SM -SN BKN044 OVC055 M01/M04 A3025 670 81 -1000 020/07 RMK AO2 P0000 T10111039 $
04850KAOH AOH20160404210513904/04/16 21:05:31  5-MIN KAOH 050205Z AUTO 04006KT 6SM -SN FEW027 BKN044 OVC055 M01/M04 A3025 670 81 -1000 040/06 RMK AO2 P0000 T10111039 $
04850KAOH AOH20160404211013904/04/16 21:10:31  5-MIN KAOH 050210Z AUTO 03007KT 6SM -SN SCT027 BKN046 OVC055 M01/M04 A3025 670 81 -1100 040/07 RMK AO2 P0000 T10111039 $
04850KAOH AOH20160404211513904/04/16 21:15:31  5-MIN KAOH 050215Z AUTO 03007KT 7SM -SN SCT026 BKN046 OVC060 M01/M04 A3026 670 81 -1100 040/07 RMK AO2 P0000 T10111039 $
04850KAOH AOH20160404212013904/04/16 21:20:31  5-MIN KAOH 050220Z AUTO 04006KT 8SM -SN SCT026 SCT046 OVC060 M01/M04 A3026 670 81 -1100 050/06 RMK AO2 P0000 T10111039 $
04850KAOH AOH20160404212514104/04/16 21:25:31  5-MIN KAOH 050225Z AUTO 03006KT 9SM SCT026 SCT046 OVC060 M01/M04 A3026 670 81 -1100 030/06 RMK AO2 SNE22 P0000 T10111039 $
04850KAOH AOH20160404213013504/04/16 21:30:31  5-MIN KAOH 050230Z AUTO 03007KT 10SM FEW026 OVC060 M02/M04 A3026 660 85 -1100 040/07 RMK AO2 SNE22 P0000 T10171039 $
04850KAOH AOH20160404213514204/04/16 21:35:31  5-MIN KAOH 050235Z AUTO 03007KT 10SM FEW026 SCT040 OVC060 M02/M04 A3026 660 85 -1100 040/07 RMK AO2 SNE22 P0000 T10171039 $
04850KAOH AOH20160404214014204/04/16 21:40:31  5-MIN KAOH 050240Z AUTO 02006KT 10SM FEW026 SCT040 OVC060 M02/M04 A3027 660 85 -1100 030/06 RMK AO2 SNE22 P0000 T10171039 $
04850KAOH AOH20160404214513504/04/16 21:45:31  5-MIN KAOH 050245Z AUTO 02006KT 10SM SCT042 OVC060 M01/M04 A3027 660 81 -1100 020/06 RMK AO2 SNE22 P0000 T10111039 $
04850KAOH AOH20160404215015404/04/16 21:50:31  5-MIN KAOH 050250Z AUTO 02007KT 10SM BKN042 OVC060 M01/M04 A3027 650 81 -1100 030/07 RMK AO2 SNE22 SLP261 P0000 60000 T10111039 51028 $
04850KAOH AOH20160404215513004/04/16 21:55:31  5-MIN KAOH 050255Z AUTO 03005KT 10SM FEW023 BKN042 OVC060 M01/M04 A3028 650 81 -1100 040/05 RMK AO2 T10111039 $
04850KAOH AOH20160404220013004/04/16 22:00:31  5-MIN KAOH 050300Z AUTO 04006KT 10SM SCT023 BKN042 OVC060 M01/M04 A3028 650 81 -1100 040/06 RMK AO2 T10111039 $
04850KAOH AOH20160404220513004/04/16 22:05:31  5-MIN KAOH 050305Z AUTO 04005KT 10SM SCT025 BKN044 OVC060 M01/M04 A3028 650 81 -1100 050/05 RMK AO2 T10111039 $
04850KAOH AOH20160404221013004/04/16 22:10:31  5-MIN KAOH 050310Z AUTO 03006KT 10SM SCT025 BKN044 OVC060 M02/M04 A3028 640 85 -1200 040/06 RMK AO2 T10171039 $
04850KAOH AOH20160404221512904/04/16 22:15:31  5-MIN KAOH 050315Z AUTO 03007KT 9SM BKN025 BKN044 OVC060 M02/M04 A3028 640 85 -1200 040/07 RMK AO2 T10171039 $
04850KAOH AOH20160404222014504/04/16 22:20:31  5-MIN KAOH 050320Z AUTO 04007KT 8SM -SN BKN025 BKN046 OVC060 M02/M04 A3028 640 85 -1200 040/07 RMK AO2 SNB20 P0000 T10171039 $
04850KAOH AOH20160404222514504/04/16 22:25:31  5-MIN KAOH 050325Z AUTO 04006KT 7SM -SN SCT025 BKN046 OVC060 M02/M04 A3029 640 85 -1200 050/06 RMK AO2 SNB20 P0000 T10171039 $
04850KAOH AOH20160404223014504/04/16 22:30:31  5-MIN KAOH 050330Z AUTO 03007KT 7SM -SN SCT027 BKN046 OVC060 M02/M04 A3029 640 85 -1200 040/07 RMK AO2 SNB20 P0000 T10171039 $
04850KAOH AOH20160404223513804/04/16 22:35:31  5-MIN KAOH 050335Z AUTO 05007KT 8SM -SN BKN027 OVC060 M02/M04 A3029 640 85 -1200 050/07 RMK AO2 SNB20 P0000 T10171039 $
04850KAOH AOH20160404224013704/04/16 22:40:31  5-MIN KAOH 050340Z AUTO 05007KT 9SM BKN029 OVC060 M02/M04 A3029 640 85 -1200 060/07 RMK AO2 SNB20E39 P0000 T10171039 $
04850KAOH AOH20160404224514404/04/16 22:45:31  5-MIN KAOH 050345Z AUTO 05006KT 9SM FEW012 SCT029 OVC060 M02/M04 A3029 640 85 -1200 060/06 RMK AO2 SNB20E39 P0000 T10171039 $
04850KAOH AOH20160404225014104/04/16 22:50:31  5-MIN KAOH 050350Z AUTO 04007KT 9SM -SN FEW012 SCT029 OVC060 M02/M04 A3029 640 81 -1200 050/07 RMK AO2 SNB20E39B46 P0000 $
04850KAOH AOH20160404225513404/04/16 22:55:31  5-MIN KAOH 050355Z AUTO 05005KT 9SM SCT031 OVC060 M02/M04 A3029 640 81 -1200 060/05 RMK AO2 SNE55 P0000 T10171044 $
04850KAOH AOH20160404230013604/04/16 23:00:31  5-MIN KAOH 050400Z AUTO 05006KT 9SM FEW031 OVC060 M02/M04 A3029 630 85 -1200 050/06 RMK AO2 SNE0355 P0000 T10171039 $
04850KAOH AOH20160404230513704/04/16 23:05:31  5-MIN KAOH 050405Z AUTO 05006KT 10SM FEW031 OVC060 M02/M04 A3029 630 85 -1200 050/06 RMK AO2 SNE0355 P0000 T10171039 $
04850KAOH AOH20160404231013004/04/16 23:10:31  5-MIN KAOH 050410Z AUTO 05006KT 10SM OVC060 M02/M04 A3029 630 81 -1200 060/06 RMK AO2 SNE0355 P0000 T10171044 $
04850KAOH AOH20160404231513004/04/16 23:15:31  5-MIN KAOH 050415Z AUTO 06006KT 10SM OVC060 M02/M04 A3030 630 81 -1200 070/06 RMK AO2 SNE0355 P0000 T10171044 $
04850KAOH AOH20160404232013004/04/16 23:20:31  5-MIN KAOH 050420Z AUTO 06005KT 10SM OVC060 M02/M04 A3030 630 85 -1200 060/05 RMK AO2 SNE0355 P0000 T10171039 $
04850KAOH AOH20160404232513004/04/16 23:25:31  5-MIN KAOH 050425Z AUTO 05005KT 10SM OVC060 M02/M04 A3030 630 85 -1200 060/05 RMK AO2 SNE0355 P0000 T10171039 $
04850KAOH AOH20160404233013004/04/16 23:30:31  5-MIN KAOH 050430Z AUTO 05007KT 10SM OVC060 M02/M04 A3030 630 85 -1200 060/07 RMK AO2 SNE0355 P0000 T10171039 $
04850KAOH AOH20160404233513004/04/16 23:35:31  5-MIN KAOH 050435Z AUTO 05007KT 10SM OVC060 M02/M04 A3030 630 85 -1200 060/07 RMK AO2 SNE0355 P0000 T10171039 $
04850KAOH AOH20160404234013004/04/16 23:40:31  5-MIN KAOH 050440Z AUTO 05006KT 10SM OVC060 M02/M04 A3030 630 85 -1200 060/06 RMK AO2 SNE0355 P0000 T10171039 $
04850KAOH AOH20160404234513004/04/16 23:45:31  5-MIN KAOH 050445Z AUTO 05006KT 10SM OVC060 M02/M04 A3030 630 85 -1200 060/06 RMK AO2 SNE0355 P0000 T10171039 $
04850KAOH AOH20160404235016104/04/16 23:50:31  5-MIN KAOH 050450Z AUTO 05005KT 10SM FEW013 FEW034 OVC060 M02/M04 A3030 630 85 -1200 060/05 RMK AO2 SNE0355 SLP271 P0000 T10171039 401331017 $
04850KAOH AOH20160404235513004/04/16 23:55:31  5-MIN KAOH 050455Z AUTO 06007KT 10SM FEW013 FEW034 OVC060 M02/M04 A3030 630 85 -1200 070/07 RMK AO2 T10171039 $
04850KAOH AOH20160405000012304/05/16 00:00:31  5-MIN KAOH 050500Z AUTO 06007KT 10SM FEW034 OVC060 M02/M04 A3031 620 81 -1200 070/07 RMK AO2 T10171044 $
04850KAOH AOH20160405000512304/05/16 00:05:31  5-MIN KAOH 050505Z AUTO 06007KT 10SM SCT034 OVC060 M02/M04 A3031 620 81 -1200 070/07 RMK AO2 T10171044 $
04850KAOH AOH20160405001012304/05/16 00:10:31  5-MIN KAOH 050510Z AUTO 07009KT 10SM SCT035 OVC060 M02/M05 A3031 620 78 -1200 080/09 RMK AO2 T10171050 $
04850KAOH AOH20160405001512304/05/16 00:15:31  5-MIN KAOH 050515Z AUTO 07009KT 10SM FEW035 OVC060 M02/M05 A3031 620 78 -1200 080/09 RMK AO2 T10171050 $
04850KAOH AOH20160405002012304/05/16 00:20:31  5-MIN KAOH 050520Z AUTO 05006KT 10SM FEW037 OVC060 M02/M04 A3031 620 85 -1300 060/06 RMK AO2 T10221044 $
04850KAOH AOH20160405002512304/05/16 00:25:31  5-MIN KAOH 050525Z AUTO 07007KT 10SM FEW037 OVC060 M02/M04 A3031 620 85 -1300 070/07 RMK AO2 T10221044 $
04850KAOH AOH20160405003012304/05/16 00:30:31  5-MIN KAOH 050530Z AUTO 07006KT 10SM FEW037 OVC060 M02/M04 A3031 620 85 -1300 070/06 RMK AO2 T10221044 $
04850KAOH AOH20160405003511604/05/16 00:35:31  5-MIN KAOH 050535Z AUTO 06007KT 10SM OVC060 M02/M04 A3031 620 85 -1300 060/07 RMK AO2 T10221044 $
04850KAOH AOH20160405004011604/05/16 00:40:31  5-MIN KAOH 050540Z AUTO 07008KT 10SM OVC060 M02/M04 A3032 610 85 -1300 080/08 RMK AO2 T10221044 $
04850KAOH AOH20160405004512304/05/16 00:45:31  5-MIN KAOH 050545Z AUTO 06007KT 10SM FEW030 OVC060 M02/M04 A3032 610 85 -1300 070/07 RMK AO2 T10221044 $
04850KAOH AOH20160405005015404/05/16 00:50:31  5-MIN KAOH 050550Z AUTO 06007KT 10SM SCT030 OVC060 M02/M04 A3032 610 85 -1300 070/07 RMK AO2 SLP279 60000 T10221044 11006 21022 53025 $
04850KAOH AOH20160405005512304/05/16 00:55:31  5-MIN KAOH 050555Z AUTO 06005KT 10SM FEW030 OVC060 M02/M04 A3032 610 85 -1300 070/05 RMK AO2 T10221044 $
04850KAOH AOH20160405010012304/05/16 01:00:31  5-MIN KAOH 050600Z AUTO 05007KT 10SM FEW030 OVC060 M02/M05 A3033 600 81 -1300 060/07 RMK AO2 T10221050 $
04850KAOH AOH20160405010512304/05/16 01:05:31  5-MIN KAOH 050605Z AUTO 05006KT 10SM FEW030 OVC060 M02/M05 A3033 600 81 -1300 060/06 RMK AO2 T10221050 $
04850KAOH AOH20160405011013004/05/16 01:10:31  5-MIN KAOH 050610Z AUTO 06007KT 10SM FEW017 FEW030 OVC060 M02/M04 A3033 600 85 -1300 060/07 RMK AO2 T10221044 $
04850KAOH AOH20160405011514504/05/16 01:15:31  5-MIN KAOH 050615Z AUTO 06006KT 9SM -SN FEW017 FEW033 OVC055 M02/M04 A3033 600 85 -1300 070/06 RMK AO2 SNB15 P0000 T10221044 $
04850KAOH AOH20160405012014504/05/16 01:20:31  5-MIN KAOH 050620Z AUTO 06006KT 8SM -SN FEW015 SCT033 OVC055 M02/M04 A3033 600 85 -1300 070/06 RMK AO2 SNB15 P0000 T10221044 $
04850KAOH AOH20160405012514504/05/16 01:25:31  5-MIN KAOH 050625Z AUTO 05005KT 7SM -SN FEW015 BKN033 OVC055 M02/M04 A3033 600 85 -1300 060/05 RMK AO2 SNB15 P0000 T10221044 $
04850KAOH AOH20160405013014804/05/16 01:30:31  5-MIN KAOH 050630Z AUTO 05006KT 6SM -SN BR SCT015 BKN022 OVC055 M02/M04 A3033 600 85 -1300 060/06 RMK AO2 SNB15 P0000 T10221044 $
04850KAOH AOH20160405013514804/05/16 01:35:31  5-MIN KAOH 050635Z AUTO 05006KT 5SM -SN BR BKN017 BKN033 OVC055 M02/M04 A3034 590 85 -1300 050/06 RMK AO2 SNB15 P0000 T10221044 $
04850KAOH AOH20160405014014804/05/16 01:40:31  5-MIN KAOH 050640Z AUTO 05006KT 5SM -SN BR BKN017 BKN022 OVC055 M02/M04 A3034 590 85 -1300 050/06 RMK AO2 SNB15 P0000 T10221044 $
04850KAOH AOH20160405014513804/05/16 01:45:31  5-MIN KAOH 050645Z AUTO 06008KT 7SM -SN BKN017 OVC022 M02/M05 A3034 590 81 -1300 060/08 RMK AO2 SNB15 P0000 T10221050 $
04850KAOH AOH20160405015014504/05/16 01:50:31  5-MIN KAOH 050650Z AUTO 05008KT 8SM -SN SCT016 OVC023 M02/M05 A3034 590 81 -1300 050/08 RMK AO2 SNB15 SLP286 P0000 T10221050 $
04850KAOH AOH20160405015513204/05/16 01:55:31  5-MIN KAOH 050655Z AUTO 05008KT 8SM -SN SCT016 OVC023 M02/M06 A3034 590 78 -1300 050/08 RMK AO2 P0000 T10221056 $
04850KAOH AOH20160405020013604/05/16 02:00:31  5-MIN KAOH 050700Z AUTO 05007KT 8SM FEW016 OVC023 M02/M06 A3034 590 78 -1300 060/07 RMK AO2 SNE0659 P0000 T10221056 $
04850KAOH AOH20160405020513904/05/16 02:05:31  5-MIN KAOH 050705Z AUTO 05007KT 9SM -SN FEW014 BKN023 OVC050 M02/M06 A3034 590 78 -1300 050/07 RMK AO2 P0000 T10221056 $
04850KAOH AOH20160405021013204/05/16 02:10:31  5-MIN KAOH 050710Z AUTO 05008KT 9SM -SN BKN023 OVC055 M02/M06 A3034 590 75 -1300 060/08 RMK AO2 P0000 T10221061 $
04850KAOH AOH20160405021513904/05/16 02:15:31  5-MIN KAOH 050715Z AUTO 05007KT 9SM -SN FEW020 SCT025 OVC055 M02/M06 A3034 590 75 -1300 060/07 RMK AO2 P0000 T10221061 $
04850KAOH AOH20160405022013904/05/16 02:20:31  5-MIN KAOH 050720Z AUTO 05008KT 9SM -SN FEW020 FEW025 OVC055 M02/M06 A3034 590 75 -1300 060/08 RMK AO2 P0000 T10221061 $
04850KAOH AOH20160405022513204/05/16 02:25:31  5-MIN KAOH 050725Z AUTO 06008KT 9SM -SN FEW020 OVC055 M02/M06 A3034 590 78 -1300 060/08 RMK AO2 P0000 T10221056 $
04850KAOH AOH20160405023012504/05/16 02:30:31  5-MIN KAOH 050730Z AUTO 05008KT 8SM -SN OVC055 M03/M06 A3034 590 81 -1400 060/08 RMK AO2 P0000 T10281056 $
04850KAOH AOH20160405023512504/05/16 02:35:31  5-MIN KAOH 050735Z AUTO 05007KT 9SM -SN OVC055 M03/M06 A3035 580 81 -1400 060/07 RMK AO2 P0000 T10281056 $
04850KAOH AOH20160405024012704/05/16 02:40:31  5-MIN KAOH 050740Z AUTO 05006KT 9SM OVC055 M03/M06 A3035 580 81 -1400 050/06 RMK AO2 SNE37 P0000 T10281056 $
04850KAOH AOH20160405024512804/05/16 02:45:31  5-MIN KAOH 050745Z AUTO 05006KT 10SM OVC055 M03/M06 A3035 580 81 -1400 060/06 RMK AO2 SNE37 P0000 T10281056 $
04850KAOH AOH20160405025013304/05/16 02:50:31  5-MIN KAOH 050750Z AUTO 06009KT 10SM -SN OVC055 M03/M06 A3035 580 81 -1400 060/09 RMK AO2 SLP290 P0000 T10281056 $
04850KAOH AOH20160405025512504/05/16 02:55:31  5-MIN KAOH 050755Z AUTO 06008KT 9SM -SN OVC055 M03/M06 A3036 580 81 -1400 070/08 RMK AO2 P0000 T10281056 $
04850KAOH AOH20160405030012504/05/16 03:00:31  5-MIN KAOH 050800Z AUTO 06007KT 9SM -SN OVC055 M03/M06 A3036 580 81 -1400 060/07 RMK AO2 P0000 T10281056 $
04850KAOH AOH20160405030512704/05/16 03:05:31  5-MIN KAOH 050805Z AUTO 07006KT 9SM OVC060 M03/M06 A3036 570 81 -1400 070/06 RMK AO2 SNE01 P0000 T10281056 $
04850KAOH AOH20160405031013504/05/16 03:10:31  5-MIN KAOH 050810Z AUTO 06008KT 10SM FEW036 OVC060 M03/M06 A3036 570 78 -1400 070/08 RMK AO2 SNE01 P0000 T10281061 $
04850KAOH AOH20160405031513504/05/16 03:15:31  5-MIN KAOH 050815Z AUTO 06009KT 10SM SCT036 OVC060 M03/M07 A3036 570 75 -1400 070/09 RMK AO2 SNE01 P0000 T10281067 $
04850KAOH AOH20160405032013504/05/16 03:20:31  5-MIN KAOH 050820Z AUTO 06010KT 10SM SCT038 OVC060 M03/M07 A3036 570 75 -1400 070/10 RMK AO2 SNE01 P0000 T10281067 $
04850KAOH AOH20160405032513504/05/16 03:25:31  5-MIN KAOH 050825Z AUTO 06010KT 10SM FEW038 OVC060 M03/M07 A3036 570 75 -1400 060/10 RMK AO2 SNE01 P0000 T10281067 $
04850KAOH AOH20160405033013504/05/16 03:30:31  5-MIN KAOH 050830Z AUTO 06009KT 10SM FEW038 OVC060 M03/M07 A3036 570 75 -1400 070/09 RMK AO2 SNE01 P0000 T10281067 $
04850KAOH AOH20160405033513504/05/16 03:35:31  5-MIN KAOH 050835Z AUTO 06009KT 10SM SCT038 OVC060 M03/M07 A3037 560 75 -1400 070/09 RMK AO2 SNE01 P0000 T10281067 $
04850KAOH AOH20160405034013504/05/16 03:40:31  5-MIN KAOH 050840Z AUTO 06009KT 10SM FEW038 OVC060 M03/M07 A3037 560 75 -1400 070/09 RMK AO2 SNE01 P0000 T10281067 $
04850KAOH AOH20160405034512804/05/16 03:45:31  5-MIN KAOH 050845Z AUTO 06008KT 10SM OVC055 M03/M07 A3037 560 75 -1400 060/08 RMK AO2 SNE01 P0000 T10281067 $
04850KAOH AOH20160405035014704/05/16 03:50:31  5-MIN KAOH 050850Z AUTO 06006KT 10SM OVC055 M03/M07 A3037 560 75 -1400 060/06 RMK AO2 SNE01 SLP296 P0000 60000 T10281067 53010 $
04850KAOH AOH20160405035511604/05/16 03:55:31  5-MIN KAOH 050855Z AUTO 06008KT 10SM OVC055 M03/M07 A3037 560 75 -1400 070/08 RMK AO2 T10281067 $
04850KAOH AOH20160405040011604/05/16 04:00:31  5-MIN KAOH 050900Z AUTO 07008KT 10SM OVC055 M03/M07 A3037 560 75 -1400 080/08 RMK AO2 T10281067 $
04850KAOH AOH20160405040512304/05/16 04:05:31  5-MIN KAOH 050905Z AUTO 07009KT 10SM FEW020 OVC055 M03/M07 A3038 560 75 -1400 080/09 RMK AO2 T10281067 $
04850KAOH AOH20160405041012304/05/16 04:10:31  5-MIN KAOH 050910Z AUTO 07008KT 10SM FEW020 OVC055 M03/M07 A3038 560 78 -1500 070/08 RMK AO2 T10331067 $
04850KAOH AOH20160405041512304/05/16 04:15:31  5-MIN KAOH 050915Z AUTO 08010KT 10SM FEW020 OVC055 M03/M07 A3038 560 74 -1500 080/10 RMK AO2 T10331072 $
04850KAOH AOH20160405042013004/05/16 04:20:31  5-MIN KAOH 050920Z AUTO 07009KT 10SM FEW020 FEW045 OVC055 M03/M07 A3038 550 74 -1500 080/09 RMK AO2 T10331072 $
04850KAOH AOH20160405042513004/05/16 04:25:31  5-MIN KAOH 050925Z AUTO 07008KT 10SM FEW020 SCT047 OVC055 M03/M07 A3038 550 74 -1500 070/08 RMK AO2 T10331072 $
04850KAOH AOH20160405043011604/05/16 04:30:31  5-MIN KAOH 050930Z AUTO 06006KT 10SM OVC050 M03/M07 A3039 550 74 -1500 060/06 RMK AO2 T10331072 $
04850KAOH AOH20160405043512304/05/16 04:35:31  5-MIN KAOH 050935Z AUTO 06006KT 10SM FEW040 OVC050 M03/M07 A3039 550 74 -1500 060/06 RMK AO2 T10331072 $
04850KAOH AOH20160405044012304/05/16 04:40:31  5-MIN KAOH 050940Z AUTO 06007KT 10SM BKN043 OVC055 M03/M07 A3039 550 74 -1500 070/07 RMK AO2 T10331072 $
04850KAOH AOH20160405044512304/05/16 04:45:31  5-MIN KAOH 050945Z AUTO 06008KT 10SM BKN043 OVC055 M03/M08 A3039 540 71 -1500 070/08 RMK AO2 T10331078 $
04850KAOH AOH20160405045013004/05/16 04:50:31  5-MIN KAOH 050950Z AUTO 06006KT 10SM BKN041 OVC050 M03/M08 A3039 540 71 -1500 070/06 RMK AO2 SLP303 T10331078 $
04850KAOH AOH20160405145510904/05/16 14:55:31  5-MIN KAOH 051955Z AUTO 11004KT 10SM CLR 04/M07 A3040 530 42 -500 110/04 RMK AO2 T00441072
04850KAOH AOH20160405150010904/05/16 15:00:31  5-MIN KAOH 052000Z AUTO VRB03KT 10SM CLR 04/M08 A3040 540 40 -600 VRB/03 RMK AO2 T00391083
04850KAOH AOH20160405150510904/05/16 15:05:31  5-MIN KAOH 052005Z AUTO 12006KT 10SM CLR 04/M07 A3040 540 42 -500 130/06 RMK AO2 T00441072
04850KAOH AOH20160405151010904/05/16 15:10:31  5-MIN KAOH 052010Z AUTO 14007KT 10SM CLR 04/M08 A3040 540 41 -500 150/07 RMK AO2 T00441078
04850KAOH AOH20160405151510904/05/16 15:15:31  5-MIN KAOH 052015Z AUTO VRB04KT 10SM CLR 04/M08 A3039 540 42 -600 VRB/04 RMK AO2 T00391078
04850KAOH AOH20160405152010904/05/16 15:20:31  5-MIN KAOH 052020Z AUTO 10006KT 10SM CLR 05/M07 A3039 550 42 -400 110/06 RMK AO2 T00501067
04850KAOH AOH20160405152510904/05/16 15:25:31  5-MIN KAOH 052025Z AUTO 09004KT 10SM CLR 04/M07 A3039 550 42 -500 090/04 RMK AO2 T00441072
04850KAOH AOH20160405153010904/05/16 15:30:31  5-MIN KAOH 052030Z AUTO 00000KT 10SM CLR 04/M07 A3039 550 42 -500 000/00 RMK AO2 T00441072
04850KAOH AOH20160405153510904/05/16 15:35:31  5-MIN KAOH 052035Z AUTO 00000KT 10SM CLR 04/M07 A3038 550 42 -500 000/00 RMK AO2 T00441072
04850KAOH AOH20160405154010904/05/16 15:40:31  5-MIN KAOH 052040Z AUTO 21004KT 10SM CLR 04/M07 A3038 560 42 -500 210/04 RMK AO2 T00441072
04850KAOH AOH20160405154510904/05/16 15:45:31  5-MIN KAOH 052045Z AUTO 00000KT 10SM CLR 04/M08 A3037 560 42 -600 000/00 RMK AO2 T00391078
04850KAOH AOH20160405155012204/05/16 15:50:31  5-MIN KAOH 052050Z AUTO 14009KT 10SM CLR 05/M07 A3037 560 41 -400 150/09 RMK AO2 SLP295 T00501072 58007
04850KAOH AOH20160405155510904/05/16 15:55:31  5-MIN KAOH 052055Z AUTO 14004KT 10SM CLR 04/M08 A3037 560 41 -500 150/04 RMK AO2 T00441078
04850KAOH AOH20160405160010904/05/16 16:00:31  5-MIN KAOH 052100Z AUTO 15003KT 10SM CLR 05/M08 A3037 560 39 -400 150/03 RMK AO2 T00501078
04850KAOH AOH20160405160509904/05/16 16:05:31  5-MIN KAOH 052105Z AUTO 10SM CLR 04/M08 A3037 560 41 -500 M /M RMK AO2 T00441078
04850KAOH AOH20160405161010904/05/16 16:10:31  5-MIN KAOH 052110Z AUTO 09005KT 10SM CLR 05/M07 A3037 570 41 -400 090/05 RMK AO2 T00501072
04850KAOH AOH20160405161510904/05/16 16:15:31  5-MIN KAOH 052115Z AUTO VRB04KT 10SM CLR 04/M07 A3037 570 42 -500 VRB/04 RMK AO2 T00441072
04850KAOH AOH20160405162010904/05/16 16:20:31  5-MIN KAOH 052120Z AUTO 12006KT 10SM CLR 05/M07 A3037 570 41 -400 120/06 RMK AO2 T00501072
04850KAOH AOH20160405162510904/05/16 16:25:31  5-MIN KAOH 052125Z AUTO 11006KT 10SM CLR 06/M06 A3037 570 43 -300 120/06 RMK AO2 T00561061
04850KAOH AOH20160405163010904/05/16 16:30:31  5-MIN KAOH 052130Z AUTO 09006KT 10SM CLR 06/M07 A3037 570 41 -300 100/06 RMK AO2 T00561067
04850KAOH AOH20160405163510904/05/16 16:35:31  5-MIN KAOH 052135Z AUTO VRB04KT 10SM CLR 05/M07 A3036 570 41 -400 VRB/04 RMK AO2 T00501072
04850KAOH AOH20160405164010904/05/16 16:40:31  5-MIN KAOH 052140Z AUTO VRB06KT 10SM CLR 05/M07 A3037 570 42 -400 VRB/06 RMK AO2 T00501067
04850KAOH AOH20160405164510904/05/16 16:45:31  5-MIN KAOH 052145Z AUTO 11004KT 10SM CLR 05/M07 A3036 570 41 -400 120/04 RMK AO2 T00501072
04850KAOH AOH20160405165011604/05/16 16:50:31  5-MIN KAOH 052150Z AUTO 11004KT 10SM CLR 05/M07 A3036 570 41 -400 110/04 RMK AO2 SLP290 T00501072
04850KAOH AOH20160405165509904/05/16 16:55:31  5-MIN KAOH 052155Z AUTO 10SM CLR 06/M08 A3036 570 37 -300 M /M RMK AO2 T00561078
04850KAOH AOH20160405170010904/05/16 17:00:31  5-MIN KAOH 052200Z AUTO 15005KT 10SM CLR 05/M08 A3036 580 37 -400 160/05 RMK AO2 T00501083
04850KAOH AOH20160405170510904/05/16 17:05:31  5-MIN KAOH 052205Z AUTO 10005KT 10SM CLR 06/M08 A3035 580 37 -300 110/05 RMK AO2 T00561078
04850KAOH AOH20160405171010904/05/16 17:10:31  5-MIN KAOH 052210Z AUTO 15006KT 10SM CLR 06/M08 A3035 590 37 -300 160/06 RMK AO2 T00561078
04850KAOH AOH20160405171510904/05/16 17:15:31  5-MIN KAOH 052215Z AUTO 16006KT 10SM CLR 06/M08 A3034 590 37 -300 170/06 RMK AO2 T00561078
04850KAOH AOH20160405172010904/05/16 17:20:31  5-MIN KAOH 052220Z AUTO 13009KT 10SM CLR 06/M08 A3034 600 37 -300 130/09 RMK AO2 T00561078
04850KAOH AOH20160405172510904/05/16 17:25:31  5-MIN KAOH 052225Z AUTO 14009KT 10SM CLR 05/M08 A3033 600 37 -400 140/09 RMK AO2 T00501083
04850KAOH AOH20160405173010904/05/16 17:30:31  5-MIN KAOH 052230Z AUTO 14009KT 10SM CLR 06/M08 A3033 600 37 -300 150/09 RMK AO2 T00561078
04850KAOH AOH20160405173510904/05/16 17:35:31  5-MIN KAOH 052235Z AUTO 15010KT 10SM CLR 05/M08 A3033 600 37 -400 160/10 RMK AO2 T00501083
04850KAOH AOH20160405174010904/05/16 17:40:31  5-MIN KAOH 052240Z AUTO 15009KT 10SM CLR 05/M08 A3033 600 37 -400 160/09 RMK AO2 T00501083
04850KAOH AOH20160405174510904/05/16 17:45:31  5-MIN KAOH 052245Z AUTO 15007KT 10SM CLR 05/M09 A3032 610 34 -400 160/07 RMK AO2 T00501094
04850KAOH AOH20160405175011604/05/16 17:50:31  5-MIN KAOH 052250Z AUTO 15007KT 10SM CLR 05/M08 A3032 610 37 -400 150/07 RMK AO2 SLP279 T00501083
04850KAOH AOH20160405175510904/05/16 17:55:31  5-MIN KAOH 052255Z AUTO 14008KT 10SM CLR 05/M08 A3032 610 39 -400 150/08 RMK AO2 T00501078
04850KAOH AOH20160405180010904/05/16 18:00:31  5-MIN KAOH 052300Z AUTO 14010KT 10SM CLR 05/M08 A3032 610 39 -400 150/10 RMK AO2 T00501078
04850KAOH AOH20160405180510904/05/16 18:05:31  5-MIN KAOH 052305Z AUTO 14006KT 10SM CLR 05/M08 A3032 610 39 -400 140/06 RMK AO2 T00501078
04850KAOH AOH20160405181010904/05/16 18:10:31  5-MIN KAOH 052310Z AUTO 14009KT 10SM CLR 05/M08 A3032 610 39 -400 140/09 RMK AO2 T00501078
04850KAOH AOH20160405181510904/05/16 18:15:31  5-MIN KAOH 052315Z AUTO 14008KT 10SM CLR 04/M08 A3032 610 41 -400 150/08 RMK AO2 T00441078
04850KAOH AOH20160405182010904/05/16 18:20:31  5-MIN KAOH 052320Z AUTO 14006KT 10SM CLR 04/M07 A3032 610 42 -400 140/06 RMK AO2 T00441072
04850KAOH AOH20160405182510904/05/16 18:25:31  5-MIN KAOH 052325Z AUTO 14007KT 10SM CLR 04/M08 A3031 620 41 -400 150/07 RMK AO2 T00441078
04850KAOH AOH20160405183010904/05/16 18:30:31  5-MIN KAOH 052330Z AUTO 14009KT 10SM CLR 04/M07 A3031 620 42 -400 140/09 RMK AO2 T00441072
04850KAOH AOH20160405183510904/05/16 18:35:31  5-MIN KAOH 052335Z AUTO 13009KT 10SM CLR 04/M08 A3031 620 41 -400 130/09 RMK AO2 T00441078
04850KAOH AOH20160405184010904/05/16 18:40:31  5-MIN KAOH 052340Z AUTO 13007KT 10SM CLR 04/M07 A3031 620 44 -500 130/07 RMK AO2 T00391072
04850KAOH AOH20160405184510904/05/16 18:45:31  5-MIN KAOH 052345Z AUTO 13007KT 10SM CLR 04/M07 A3031 620 46 -500 130/07 RMK AO2 T00391067
04850KAOH AOH20160405185013404/05/16 18:50:31  5-MIN KAOH 052350Z AUTO 12007KT 10SM CLR 04/M07 A3030 620 44 -500 130/07 RMK AO2 SLP272 T00391072 10056 20017 58026
04850KAOH AOH20160405185510904/05/16 18:55:31  5-MIN KAOH 052355Z AUTO 12006KT 10SM CLR 04/M07 A3030 630 44 -500 130/06 RMK AO2 T00391072
04850KAOH AOH20160405190010904/05/16 19:00:31  5-MIN KAOH 060000Z AUTO 12007KT 10SM CLR 03/M07 A3030 630 48 -500 130/07 RMK AO2 T00331067
04850KAOH AOH20160405190510904/05/16 19:05:31  5-MIN KAOH 060005Z AUTO 12006KT 10SM CLR 03/M07 A3030 630 48 -500 120/06 RMK AO2 T00331067
04850KAOH AOH20160405191010904/05/16 19:10:31  5-MIN KAOH 060010Z AUTO 13006KT 10SM CLR 03/M06 A3030 630 52 -600 130/06 RMK AO2 T00281061
04850KAOH AOH20160405191510904/05/16 19:15:31  5-MIN KAOH 060015Z AUTO 13006KT 10SM CLR 03/M06 A3030 630 52 -600 130/06 RMK AO2 T00281061
04850KAOH AOH20160405192010904/05/16 19:20:31  5-MIN KAOH 060020Z AUTO 13006KT 10SM CLR 03/M07 A3030 630 50 -600 140/06 RMK AO2 T00281067
04850KAOH AOH20160405192510904/05/16 19:25:31  5-MIN KAOH 060025Z AUTO 13007KT 10SM CLR 02/M07 A3029 630 52 -700 140/07 RMK AO2 T00221067
04850KAOH AOH20160405193010904/05/16 19:30:31  5-MIN KAOH 060030Z AUTO 12006KT 10SM CLR 02/M06 A3029 640 54 -700 130/06 RMK AO2 T00221061
04850KAOH AOH20160405193510904/05/16 19:35:31  5-MIN KAOH 060035Z AUTO 13007KT 10SM CLR 02/M07 A3029 640 52 -700 130/07 RMK AO2 T00221067
04850KAOH AOH20160405194010904/05/16 19:40:31  5-MIN KAOH 060040Z AUTO 13008KT 10SM CLR 02/M07 A3029 640 52 -700 130/08 RMK AO2 T00221067
04850KAOH AOH20160405194510904/05/16 19:45:31  5-MIN KAOH 060045Z AUTO 13007KT 10SM CLR 02/M07 A3029 640 52 -700 130/07 RMK AO2 T00221067
04850KAOH AOH20160405195011604/05/16 19:50:31  5-MIN KAOH 060050Z AUTO 13007KT 10SM CLR 02/M06 A3029 640 54 -700 140/07 RMK AO2 SLP266 T00221061
04850KAOH AOH20160405195510904/05/16 19:55:31  5-MIN KAOH 060055Z AUTO 13006KT 10SM CLR 02/M06 A3029 640 56 -700 140/06 RMK AO2 T00171061
04850KAOH AOH20160405200010904/05/16 20:00:31  5-MIN KAOH 060100Z AUTO 13006KT 10SM CLR 02/M07 A3029 640 52 -700 140/06 RMK AO2 T00221067
04850KAOH AOH20160405200510904/05/16 20:05:31  5-MIN KAOH 060105Z AUTO 13007KT 10SM CLR 02/M07 A3029 640 54 -700 140/07 RMK AO2 T00171067
04850KAOH AOH20160405201010904/05/16 20:10:31  5-MIN KAOH 060110Z AUTO 13007KT 10SM CLR 02/M06 A3028 640 56 -700 140/07 RMK AO2 T00171061
04850KAOH AOH20160405201510904/05/16 20:15:31  5-MIN KAOH 060115Z AUTO 13007KT 10SM CLR 02/M06 A3028 640 56 -700 140/07 RMK AO2 T00171061
04850KAOH AOH20160405202010904/05/16 20:20:31  5-MIN KAOH 060120Z AUTO 14007KT 10SM CLR 02/M06 A3028 650 56 -700 150/07 RMK AO2 T00171061
04850KAOH AOH20160405202510904/05/16 20:25:31  5-MIN KAOH 060125Z AUTO 14007KT 10SM CLR 02/M06 A3028 650 56 -700 140/07 RMK AO2 T00171061
04850KAOH AOH20160405203010904/05/16 20:30:31  5-MIN KAOH 060130Z AUTO 14007KT 10SM CLR 02/M07 A3028 650 54 -700 140/07 RMK AO2 T00171067
04850KAOH AOH20160405203510904/05/16 20:35:31  5-MIN KAOH 060135Z AUTO 14006KT 10SM CLR 02/M07 A3028 650 54 -700 150/06 RMK AO2 T00171067
04850KAOH AOH20160405204010904/05/16 20:40:31  5-MIN KAOH 060140Z AUTO 14007KT 10SM CLR 01/M07 A3028 650 56 -800 150/07 RMK AO2 T00111067
04850KAOH AOH20160405204510904/05/16 20:45:31  5-MIN KAOH 060145Z AUTO 14007KT 10SM CLR 01/M07 A3028 650 56 -800 140/07 RMK AO2 T00111067
04850KAOH AOH20160405205011604/05/16 20:50:31  5-MIN KAOH 060150Z AUTO 14006KT 10SM CLR 01/M07 A3027 650 56 -800 150/06 RMK AO2 SLP262 T00111067
04850KAOH AOH20160405205510904/05/16 20:55:31  5-MIN KAOH 060155Z AUTO 14006KT 10SM CLR 01/M07 A3027 650 56 -800 150/06 RMK AO2 T00111067
04850KAOH AOH20160405210010904/05/16 21:00:31  5-MIN KAOH 060200Z AUTO 14006KT 10SM CLR 01/M07 A3027 650 56 -800 140/06 RMK AO2 T00111067
04850KAOH AOH20160405210510904/05/16 21:05:31  5-MIN KAOH 060205Z AUTO 14006KT 10SM CLR 01/M07 A3027 650 56 -800 150/06 RMK AO2 T00111067
04850KAOH AOH20160405211010904/05/16 21:10:31  5-MIN KAOH 060210Z AUTO 15005KT 10SM CLR 01/M07 A3027 650 56 -800 150/05 RMK AO2 T00111067
04850KAOH AOH20160405211510904/05/16 21:15:31  5-MIN KAOH 060215Z AUTO 14007KT 10SM CLR 01/M07 A3027 660 56 -800 140/07 RMK AO2 T00111067
04850KAOH AOH20160405212010904/05/16 21:20:31  5-MIN KAOH 060220Z AUTO 14006KT 10SM CLR 01/M07 A3027 660 56 -800 140/06 RMK AO2 T00111067
04850KAOH AOH20160405212510904/05/16 21:25:31  5-MIN KAOH 060225Z AUTO 14007KT 10SM CLR 01/M07 A3026 660 56 -800 150/07 RMK AO2 T00111067
04850KAOH AOH20160405213010904/05/16 21:30:31  5-MIN KAOH 060230Z AUTO 14008KT 10SM CLR 01/M07 A3025 670 56 -800 150/08 RMK AO2 T00111067
04850KAOH AOH20160405213510904/05/16 21:35:31  5-MIN KAOH 060235Z AUTO 14008KT 10SM CLR 01/M07 A3025 680 54 -800 150/08 RMK AO2 T00111072
04850KAOH AOH20160405214010904/05/16 21:40:31  5-MIN KAOH 060240Z AUTO 14008KT 10SM CLR 01/M07 A3025 680 54 -800 150/08 RMK AO2 T00111072
04850KAOH AOH20160405214510904/05/16 21:45:31  5-MIN KAOH 060245Z AUTO 15008KT 10SM CLR 01/M07 A3025 670 56 -800 160/08 RMK AO2 T00111067
04850KAOH AOH20160405215012204/05/16 21:50:31  5-MIN KAOH 060250Z AUTO 15008KT 10SM CLR 01/M07 A3024 680 56 -800 160/08 RMK AO2 SLP251 T00111067 58023
04850KAOH AOH20160405215510904/05/16 21:55:31  5-MIN KAOH 060255Z AUTO 15008KT 10SM CLR 01/M07 A3024 680 56 -800 150/08 RMK AO2 T00111067
04850KAOH AOH20160405220010904/05/16 22:00:31  5-MIN KAOH 060300Z AUTO 15008KT 10SM CLR 01/M07 A3024 690 56 -800 150/08 RMK AO2 T00111067
04850KAOH AOH20160405220510904/05/16 22:05:31  5-MIN KAOH 060305Z AUTO 15008KT 10SM CLR 01/M07 A3024 690 56 -700 160/08 RMK AO2 T00111067
04850KAOH AOH20160405221011404/05/16 22:10:31  5-MIN KAOH 060310Z AUTO 15008KT 10SM CLR 01/M07 A3023 690 56 -700 160/08 RMK AO2 T00111067 TSNO
04850KAOH AOH20160405221510904/05/16 22:15:31  5-MIN KAOH 060315Z AUTO 16008KT 10SM CLR 01/M07 A3023 690 56 -700 160/08 RMK AO2 T00111067
04850KAOH AOH20160405222010904/05/16 22:20:31  5-MIN KAOH 060320Z AUTO 16006KT 10SM CLR 01/M07 A3023 690 56 -700 170/06 RMK AO2 T00111067
04850KAOH AOH20160405222511404/05/16 22:25:31  5-MIN KAOH 060325Z AUTO 16006KT 10SM CLR 01/M06 A3023 690 58 -700 160/06 RMK AO2 T00111061 TSNO
04850KAOH AOH20160405223010904/05/16 22:30:31  5-MIN KAOH 060330Z AUTO 16007KT 10SM CLR 01/M06 A3022 700 61 -800 160/07 RMK AO2 T00061061
04850KAOH AOH20160405223510904/05/16 22:35:31  5-MIN KAOH 060335Z AUTO 16007KT 10SM CLR 01/M07 A3021 710 58 -800 170/07 RMK AO2 T00061067
04850KAOH AOH20160405224010904/05/16 22:40:31  5-MIN KAOH 060340Z AUTO 16008KT 10SM CLR 01/M06 A3021 710 61 -800 170/08 RMK AO2 T00061061
04850KAOH AOH20160405224510904/05/16 22:45:31  5-MIN KAOH 060345Z AUTO 17007KT 10SM CLR 01/M07 A3021 710 56 -700 170/07 RMK AO2 T00111067
04850KAOH AOH20160405225011604/05/16 22:50:31  5-MIN KAOH 060350Z AUTO 17006KT 10SM CLR 01/M07 A3021 710 56 -700 170/06 RMK AO2 SLP241 T00111067
04850KAOH AOH20160405225510904/05/16 22:55:31  5-MIN KAOH 060355Z AUTO 16006KT 10SM CLR 01/M07 A3021 710 58 -800 170/06 RMK AO2 T00061067
04850KAOH AOH20160405230010904/05/16 23:00:31  5-MIN KAOH 060400Z AUTO 16007KT 10SM CLR 01/M06 A3021 710 61 -800 170/07 RMK AO2 T00061061
04850KAOH AOH20160405230510904/05/16 23:05:31  5-MIN KAOH 060405Z AUTO 16007KT 10SM CLR 01/M07 A3021 710 58 -800 170/07 RMK AO2 T00061067
04850KAOH AOH20160405231010904/05/16 23:10:31  5-MIN KAOH 060410Z AUTO 17007KT 10SM CLR 01/M07 A3021 710 56 -700 170/07 RMK AO2 T00111067
04850KAOH AOH20160405231510904/05/16 23:15:31  5-MIN KAOH 060415Z AUTO 16007KT 10SM CLR 01/M07 A3020 720 56 -700 170/07 RMK AO2 T00111067
04850KAOH AOH20160405232010904/05/16 23:20:31  5-MIN KAOH 060420Z AUTO 16007KT 10SM CLR 01/M07 A3020 720 56 -700 170/07 RMK AO2 T00111067
04850KAOH AOH20160405232511204/05/16 23:25:31  5-MIN KAOH 060425Z AUTO 16006KT 10SM FEW120 01/M06 A3020 720 58 -700 170/06 RMK AO2 T00111061
04850KAOH AOH20160405233011204/05/16 23:30:31  5-MIN KAOH 060430Z AUTO 16007KT 10SM FEW120 01/M06 A3019 730 58 -700 170/07 RMK AO2 T00111061
04850KAOH AOH20160405233511204/05/16 23:35:31  5-MIN KAOH 060435Z AUTO 16008KT 10SM SCT120 01/M06 A3019 730 58 -700 160/08 RMK AO2 T00111061
04850KAOH AOH20160405234011204/05/16 23:40:31  5-MIN KAOH 060440Z AUTO 16006KT 10SM SCT120 02/M07 A3018 730 54 -600 160/06 RMK AO2 T00171067
04850KAOH AOH20160405234511204/05/16 23:45:31  5-MIN KAOH 060445Z AUTO 15008KT 10SM BKN120 02/M07 A3018 740 54 -600 160/08 RMK AO2 T00171067
04850KAOH AOH20160405235012904/05/16 23:50:31  5-MIN KAOH 060450Z AUTO 15010KT 10SM BKN120 02/M07 A3017 740 52 -600 160/10 RMK AO2 SLP227 T00171072 400561044
04850KAOH AOH20160405235511204/05/16 23:55:31  5-MIN KAOH 060455Z AUTO 15009KT 10SM BKN120 02/M07 A3017 750 52 -600 150/09 RMK AO2 T00171072
04850KAOH AOH20160406000011904/06/16 00:00:31  5-MIN KAOH 060500Z AUTO 14010KT 10SM SCT120 02/M07 A3016 760 52 -600 150/10 RMK AO2 PRESFR T00171072
04850KAOH AOH20160406000511904/06/16 00:05:31  5-MIN KAOH 060505Z AUTO 14010KT 10SM BKN120 02/M08 A3015 760 49 -600 150/10 RMK AO2 PRESFR T00171078
04850KAOH AOH20160406001011204/06/16 00:10:31  5-MIN KAOH 060510Z AUTO 14010KT 10SM BKN110 02/M08 A3015 770 49 -600 150/10 RMK AO2 T00171078
04850KAOH AOH20160406001511904/06/16 00:15:31  5-MIN KAOH 060515Z AUTO 14009KT 10SM SCT100 BKN120 02/M08 A3015 770 47 -500 150/09 RMK AO2 T00221078
04850KAOH AOH20160406002011904/06/16 00:20:31  5-MIN KAOH 060520Z AUTO 14010KT 10SM BKN090 BKN110 02/M07 A3014 780 50 -500 140/10 RMK AO2 T00221072
04850KAOH AOH20160406002512604/06/16 00:25:31  5-MIN KAOH 060525Z AUTO 13011KT 10SM BKN090 BKN110 02/M07 A3013 780 50 -500 140/11 RMK AO2 PRESFR T00221072
04850KAOH AOH20160406003012604/06/16 00:30:31  5-MIN KAOH 060530Z AUTO 13013KT 10SM BKN090 OVC110 02/M07 A3012 790 50 -500 140/13 RMK AO2 PRESFR T00221072
04850KAOH AOH20160406003512604/06/16 00:35:31  5-MIN KAOH 060535Z AUTO 13015KT 10SM BKN090 OVC110 02/M07 A3010 810 50 -500 140/15 RMK AO2 PRESFR T00221072
04850KAOH AOH20160406004011904/06/16 00:40:31  5-MIN KAOH 060540Z AUTO 13017KT 10SM OVC085 02/M08 A3008 830 47 -400 140/17 RMK AO2 PRESFR T00221078
04850KAOH AOH20160406004511904/06/16 00:45:31  5-MIN KAOH 060545Z AUTO 14016KT 10SM SCT080 BKN095 02/M08 A3008 830 47 -400 150/16 RMK AO2 T00221078
04850KAOH AOH20160406005014404/06/16 00:50:31  5-MIN KAOH 060550Z AUTO 14014KT 10SM SCT090 BKN110 02/M08 A3008 830 47 -400 150/14 RMK AO2 SLP194 T00221078 10039 20006 58021
04850KAOH AOH20160406005512604/06/16 00:55:31  5-MIN KAOH 060555Z AUTO 14013KT 10SM FEW080 SCT095 SCT120 02/M08 A3009 820 45 -400 150/13 RMK AO2 T00221083
04850KAOH AOH20160406010013204/06/16 01:00:31  5-MIN KAOH 060600Z AUTO 15010G20KT 10SM SCT085 BKN120 02/M08 A3010 810 45 -500 160/10G20 RMK AO2 PRESRR T00221083
04850KAOH AOH20160406010512504/06/16 01:05:31  5-MIN KAOH 060605Z AUTO 15010G20KT 10SM FEW085 BKN120 02/M08 A3010 810 49 -500 160/10G20 RMK AO2 T00171078
04850KAOH AOH20160406011011204/06/16 01:10:31  5-MIN KAOH 060610Z AUTO 15011KT 10SM BKN120 02/M08 A3010 810 47 -500 150/11 RMK AO2 T00221078
04850KAOH AOH20160406011511204/06/16 01:15:31  5-MIN KAOH 060615Z AUTO 15010KT 10SM BKN110 02/M07 A3010 810 52 -500 160/10 RMK AO2 T00171072
04850KAOH AOH20160406012011204/06/16 01:20:31  5-MIN KAOH 060620Z AUTO 15010KT 10SM BKN110 02/M07 A3010 810 52 -500 160/10 RMK AO2 T00171072
04850KAOH AOH20160406012511204/06/16 01:25:31  5-MIN KAOH 060625Z AUTO 16008KT 10SM BKN110 02/M07 A3010 820 52 -500 170/08 RMK AO2 T00171072
04850KAOH AOH20160406013011204/06/16 01:30:31  5-MIN KAOH 060630Z AUTO 16009KT 10SM SCT110 02/M07 A3010 810 52 -500 170/09 RMK AO2 T00171072
04850KAOH AOH20160406013511204/06/16 01:35:31  5-MIN KAOH 060635Z AUTO 17011KT 10SM SCT110 02/M08 A3010 810 47 -500 170/11 RMK AO2 T00221078
04850KAOH AOH20160406014011204/06/16 01:40:31  5-MIN KAOH 060640Z AUTO 17012KT 10SM FEW100 02/M08 A3009 820 47 -400 170/12 RMK AO2 T00221078
04850KAOH AOH20160406014511204/06/16 01:45:31  5-MIN KAOH 060645Z AUTO 17011KT 10SM FEW100 02/M08 A3009 820 45 -400 170/11 RMK AO2 T00221083
04850KAOH AOH20160406015011604/06/16 01:50:31  5-MIN KAOH 060650Z AUTO 17011KT 10SM CLR 02/M08 A3009 820 45 -400 180/11 RMK AO2 SLP197 T00221083
04850KAOH AOH20160406015510904/06/16 01:55:31  5-MIN KAOH 060655Z AUTO 17011KT 10SM CLR 02/M08 A3009 820 45 -400 180/11 RMK AO2 T00221083
04850KAOH AOH20160406020010904/06/16 02:00:31  5-MIN KAOH 060700Z AUTO 17011KT 10SM CLR 02/M08 A3009 820 45 -400 170/11 RMK AO2 T00221083
04850KAOH AOH20160406020511204/06/16 02:05:31  5-MIN KAOH 060705Z AUTO 16012KT 10SM FEW120 02/M08 A3008 830 45 -400 170/12 RMK AO2 T00221083
04850KAOH AOH20160406021011204/06/16 02:10:31  5-MIN KAOH 060710Z AUTO 16012KT 10SM FEW120 02/M08 A3008 830 47 -400 160/12 RMK AO2 T00221078
04850KAOH AOH20160406021511204/06/16 02:15:31  5-MIN KAOH 060715Z AUTO 16012KT 10SM FEW120 02/M08 A3008 830 47 -400 170/12 RMK AO2 T00221078
04850KAOH AOH20160406022011204/06/16 02:20:31  5-MIN KAOH 060720Z AUTO 16014KT 10SM FEW120 03/M08 A3007 840 44 -400 170/14 RMK AO2 T00281083
04850KAOH AOH20160406022511204/06/16 02:25:31  5-MIN KAOH 060725Z AUTO 16012KT 10SM FEW120 02/M08 A3007 840 47 -400 170/12 RMK AO2 T00221078
04850KAOH AOH20160406023011204/06/16 02:30:31  5-MIN KAOH 060730Z AUTO 16011KT 10SM FEW120 02/M08 A3007 840 47 -400 170/11 RMK AO2 T00221078
04850KAOH AOH20160406023511204/06/16 02:35:31  5-MIN KAOH 060735Z AUTO 16014KT 10SM SCT120 03/M08 A3007 830 46 -400 170/14 RMK AO2 T00281078
04850KAOH AOH20160406024011204/06/16 02:40:31  5-MIN KAOH 060740Z AUTO 16011KT 10SM FEW120 03/M08 A3008 830 46 -400 170/11 RMK AO2 T00281078
04850KAOH AOH20160406024511904/06/16 02:45:31  5-MIN KAOH 060745Z AUTO 16013KT 10SM FEW090 SCT120 03/M08 A3007 840 46 -400 170/13 RMK AO2 T00281078
04850KAOH AOH20160406025012604/06/16 02:50:31  5-MIN KAOH 060750Z AUTO 17012KT 10SM SCT090 BKN120 03/M08 A3007 840 46 -400 170/12 RMK AO2 SLP191 T00281078
04850KAOH AOH20160406025511904/06/16 02:55:31  5-MIN KAOH 060755Z AUTO 16011KT 10SM BKN090 BKN120 03/M08 A3007 840 46 -400 170/11 RMK AO2 T00281078
04850KAOH AOH20160406030011204/06/16 03:00:31  5-MIN KAOH 060800Z AUTO 16012KT 10SM BKN090 03/M08 A3007 840 46 -300 170/12 RMK AO2 T00281078
04850KAOH AOH20160406030511204/06/16 03:05:31  5-MIN KAOH 060805Z AUTO 16013KT 10SM BKN090 03/M08 A3007 840 46 -300 170/13 RMK AO2 T00281078
04850KAOH AOH20160406031011204/06/16 03:10:31  5-MIN KAOH 060810Z AUTO 16014KT 10SM OVC090 03/M08 A3006 850 46 -300 170/14 RMK AO2 T00281078
04850KAOH AOH20160406031511204/06/16 03:15:31  5-MIN KAOH 060815Z AUTO 16012KT 10SM OVC090 03/M07 A3006 850 48 -300 170/12 RMK AO2 T00281072
04850KAOH AOH20160406032011204/06/16 03:20:31  5-MIN KAOH 060820Z AUTO 16013KT 10SM OVC090 03/M08 A3006 850 46 -300 170/13 RMK AO2 T00281078
04850KAOH AOH20160406032511204/06/16 03:25:31  5-MIN KAOH 060825Z AUTO 16012KT 10SM OVC090 03/M07 A3006 850 48 -300 170/12 RMK AO2 T00281072
04850KAOH AOH20160406033011204/06/16 03:30:31  5-MIN KAOH 060830Z AUTO 16013KT 10SM OVC090 03/M08 A3006 850 46 -300 170/13 RMK AO2 T00281078
04850KAOH AOH20160406033511904/06/16 03:35:31  5-MIN KAOH 060835Z AUTO 16014KT 10SM BKN090 BKN120 03/M07 A3005 850 48 -300 170/14 RMK AO2 T00281072
04850KAOH AOH20160406034011904/06/16 03:40:31  5-MIN KAOH 060840Z AUTO 16012KT 10SM BKN090 OVC110 03/M08 A3005 850 46 -300 170/12 RMK AO2 T00281078
04850KAOH AOH20160406034511904/06/16 03:45:31  5-MIN KAOH 060845Z AUTO 16014KT 10SM SCT090 BKN110 03/M07 A3005 860 48 -300 170/14 RMK AO2 T00281072
04850KAOH AOH20160406035013204/06/16 03:50:31  5-MIN KAOH 060850Z AUTO 16014KT 10SM FEW090 BKN110 03/M07 A3004 860 48 -300 160/14 RMK AO2 SLP180 T00281072 58051
04850KAOH AOH20160406035511904/06/16 03:55:31  5-MIN KAOH 060855Z AUTO 16012KT 10SM FEW100 SCT110 03/M07 A3004 870 48 -300 160/12 RMK AO2 T00281072
04850KAOH AOH20160406040011904/06/16 04:00:31  5-MIN KAOH 060900Z AUTO 16013KT 10SM SCT110 03/M07 A3003 880 48 -300 160/13 RMK AO2 PRESFR T00281072
04850KAOH AOH20160406040511904/06/16 04:05:31  5-MIN KAOH 060905Z AUTO 16015KT 10SM FEW110 03/M08 A3002 880 46 -300 160/15 RMK AO2 PRESFR T00281078
04850KAOH AOH20160406041011204/06/16 04:10:31  5-MIN KAOH 060910Z AUTO 16018KT 10SM FEW110 03/M08 A3002 890 46 -300 160/18 RMK AO2 T00281078
04850KAOH AOH20160406041511604/06/16 04:15:31  5-MIN KAOH 060915Z AUTO 16014KT 10SM CLR 03/M08 A3001 890 46 -300 160/14 RMK AO2 PRESFR T00281078
04850KAOH AOH20160406042011604/06/16 04:20:31  5-MIN KAOH 060920Z AUTO 16016KT 10SM CLR 03/M08 A3001 900 46 -300 160/16 RMK AO2 PRESFR T00281078
04850KAOH AOH20160406042511604/06/16 04:25:31  5-MIN KAOH 060925Z AUTO 16017KT 10SM CLR 03/M08 A3000 900 44 -300 160/17 RMK AO2 PRESFR T00281083
04850KAOH AOH20160406043011204/06/16 04:30:31  5-MIN KAOH 060930Z AUTO 16016KT 10SM FEW120 03/M08 A3000 910 46 -300 160/16 RMK AO2 T00281078
04850KAOH AOH20160406043511204/06/16 04:35:31  5-MIN KAOH 060935Z AUTO 16017KT 10SM FEW120 03/M08 A2999 910 46 -300 160/17 RMK AO2 T00281078
04850KAOH AOH20160406044011504/06/16 04:40:31  5-MIN KAOH 060940Z AUTO 16015G24KT 10SM CLR 03/M08 A2999 910 46 -300 160/15G24 RMK AO2 T00281078
04850KAOH AOH20160406044511804/06/16 04:45:31  5-MIN KAOH 060945Z AUTO 16015G24KT 10SM FEW120 03/M08 A2998 920 46 -300 160/15G24 RMK AO2 T00281078
04850KAOH AOH20160406045011904/06/16 04:50:31  5-MIN KAOH 060950Z AUTO 16015KT 10SM SCT110 03/M08 A2998 920 46 -300 160/15 RMK AO2 SLP159 T00281078
04850KAOH AOH20160406045511204/06/16 04:55:31  5-MIN KAOH 060955Z AUTO 15015KT 10SM FEW110 03/M08 A2998 920 46 -200 160/15 RMK AO2 T00281078
04850KAOH AOH20160406050011204/06/16 05:00:31  5-MIN KAOH 061000Z AUTO 15016KT 10SM FEW120 03/M08 A2998 920 42 -200 160/16 RMK AO2 T00331083
04850KAOH AOH20160406050511204/06/16 05:05:31  5-MIN KAOH 061005Z AUTO 15015KT 10SM FEW110 03/M08 A2998 920 44 -200 160/15 RMK AO2 T00331078
04850KAOH AOH20160406051011204/06/16 05:10:31  5-MIN KAOH 061010Z AUTO 15014KT 10SM SCT120 03/M08 A2998 920 44 -200 160/14 RMK AO2 T00331078
04850KAOH AOH20160406051511204/06/16 05:15:31  5-MIN KAOH 061015Z AUTO 15014KT 10SM BKN110 03/M08 A2997 930 44 -200 160/14 RMK AO2 T00331078
04850KAOH AOH20160406052011204/06/16 05:20:31  5-MIN KAOH 061020Z AUTO 16013KT 10SM BKN110 03/M08 A2997 930 44 -200 160/13 RMK AO2 T00331078
04850KAOH AOH20160406052511804/06/16 05:25:31  5-MIN KAOH 061025Z AUTO 15016G23KT 10SM BKN110 03/M08 A2996 940 44 -200 160/16G23 RMK AO2 T00331078
04850KAOH AOH20160406053011804/06/16 05:30:31  5-MIN KAOH 061030Z AUTO 16017G23KT 10SM BKN110 03/M08 A2996 940 44 -200 160/17G23 RMK AO2 T00331078
04850KAOH AOH20160406053511204/06/16 05:35:31  5-MIN KAOH 061035Z AUTO 16016KT 10SM OVC110 03/M07 A2996 950 46 -200 160/16 RMK AO2 T00331072
04850KAOH AOH20160406054011204/06/16 05:40:31  5-MIN KAOH 061040Z AUTO 17011KT 10SM OVC110 03/M08 A2997 930 44 -200 170/11 RMK AO2 T00331078
04850KAOH AOH20160406054511204/06/16 05:45:31  5-MIN KAOH 061045Z AUTO 16013KT 10SM OVC110 03/M08 A2996 940 44 -200 170/13 RMK AO2 T00331078
04850KAOH AOH20160406055011904/06/16 05:50:31  5-MIN KAOH 061050Z AUTO 16014KT 10SM BKN110 03/M07 A2996 940 46 -200 170/14 RMK AO2 SLP151 T00331072
04850KAOH AOH20160406055511204/06/16 05:55:31  5-MIN KAOH 061055Z AUTO 16017KT 10SM BKN110 03/M08 A2995 950 44 -100 170/17 RMK AO2 T00331078
04850KAOH AOH20160406060011204/06/16 06:00:31  5-MIN KAOH 061100Z AUTO 16016KT 10SM BKN110 03/M07 A2995 950 46 -100 170/16 RMK AO2 T00331072
04850KAOH AOH20160406060511204/06/16 06:05:31  5-MIN KAOH 061105Z AUTO 16013KT 10SM BKN110 03/M08 A2994 950 44 -100 170/13 RMK AO2 T00331078
04850KAOH AOH20160406061011204/06/16 06:10:31  5-MIN KAOH 061110Z AUTO 16016KT 10SM BKN110 03/M07 A2994 960 46 -100 170/16 RMK AO2 T00331072
04850KAOH AOH20160406061511204/06/16 06:15:31  5-MIN KAOH 061115Z AUTO 16017KT 10SM BKN110 03/M07 A2994 960 46 -100 170/17 RMK AO2 T00331072
04850KAOH AOH20160406062011204/06/16 06:20:31  5-MIN KAOH 061120Z AUTO 16015KT 10SM BKN120 03/M07 A2993 970 46 -100 170/15 RMK AO2 T00331072
04850KAOH AOH20160406062511204/06/16 06:25:31  5-MIN KAOH 061125Z AUTO 16017KT 10SM BKN120 03/M07 A2993 970 46 -100 170/17 RMK AO2 T00331072
04850KAOH AOH20160406063011804/06/16 06:30:31  5-MIN KAOH 061130Z AUTO 16018G24KT 10SM BKN120 03/M07 A2992 980 46 -100 170/18G24 RMK AO2 T00331072
04850KAOH AOH20160406063512504/06/16 06:35:31  5-MIN KAOH 061135Z AUTO 16018G24KT 10SM BKN120 03/M07 A2991 980 46 -100 170/18G24 RMK AO2 PRESFR T00331072
04850KAOH AOH20160406064011904/06/16 06:40:31  5-MIN KAOH 061140Z AUTO 16018KT 10SM SCT120 03/M07 A2990 990 48 -100 170/18 RMK AO2 PRESFR T00331067
04850KAOH AOH20160406064511304/06/16 06:45:31  5-MIN KAOH 061145Z AUTO 16020KT 10SM SCT110 03/M07 A2990 1000 48 -100 170/20 RMK AO2 T00331067
04850KAOH AOH20160406065013504/06/16 06:50:31  5-MIN KAOH 061150Z AUTO 17017KT 10SM BKN110 04/M07 A2990 1000 46 0 170/17 RMK AO2 SLP132 T00391067 10039 20017 58015
04850KAOH AOH20160406065510904/06/16 06:55:31  5-MIN KAOH 061155Z AUTO 16016KT 10SM BKN110 04/M07 A2990 990 46 0 170/16 RMK AO2 T00391067
04850KAOH AOH20160406070011004/06/16 07:00:31  5-MIN KAOH 061200Z AUTO 17017KT 10SM BKN110 04/M07 A2989 1000 44 0 170/17 RMK AO2 T00391072
04850KAOH AOH20160406070511604/06/16 07:05:31  5-MIN KAOH 061205Z AUTO 16018G25KT 10SM BKN100 04/M07 A2990 1000 46 0 170/18G25 RMK AO2 T00391067
04850KAOH AOH20160406071011604/06/16 07:10:31  5-MIN KAOH 061210Z AUTO 17016G25KT 10SM BKN110 04/M07 A2989 1000 42 0 180/16G25 RMK AO2 T00441072
04850KAOH AOH20160406071511604/06/16 07:15:31  5-MIN KAOH 061215Z AUTO 17014G22KT 10SM BKN110 04/M07 A2988 1010 44 0 170/14G22 RMK AO2 T00441067
04850KAOH AOH20160406072012304/06/16 07:20:31  5-MIN KAOH 061220Z AUTO 20008G20KT 10SM FEW095 BKN110 04/M07 A2990 1000 44 0 210/08G20 RMK AO2 T00441067
04850KAOH AOH20160406072512504/06/16 07:25:31  5-MIN KAOH 061225Z AUTO 17012G17KT 10SM FEW090 BKN120 05/M07 A2988 1020 42 100 170/12G17 RMK AO2 T00501067
04850KAOH AOH20160406073011804/06/16 07:30:31  5-MIN KAOH 061230Z AUTO 17012G20KT 10SM BKN120 05/M06 A2987 1030 44 100 180/12G20 RMK AO2 T00501061
04850KAOH AOH20160406073512504/06/16 07:35:31  5-MIN KAOH 061235Z AUTO 17014G20KT 10SM BKN120 06/M06 A2986 1030 43 200 180/14G20 RMK AO2 PRESFR T00561061
04850KAOH AOH20160406074013704/06/16 07:40:31  5-MIN KAOH 061240Z AUTO 17015G22KT 10SM SCT120 06/M06 A2985 1040 44 200 170/15G22 RMK AO2 LTG DSNT NW PRESFR T00561056
04850KAOH AOH20160406074513604/06/16 07:45:31  5-MIN KAOH 061245Z AUTO 17015G22KT 10SM BKN110 06/M06 A2985 1040 44 200 180/15G22 RMK AO2 LTG DSNT W AND NW T00561056
04850KAOH AOH20160406075014304/06/16 07:50:31  5-MIN KAOH 061250Z AUTO 17018G23KT 10SM BKN110 06/M05 A2984 1050 45 300 180/18G23 RMK AO2 LTG DSNT W AND NW SLP112 T00611050
04850KAOH AOH20160406075513604/06/16 07:55:31  5-MIN KAOH 061255Z AUTO 18016G24KT 10SM BKN120 07/M05 A2984 1050 43 300 180/16G24 RMK AO2 LTG DSNT W AND NW T00671050
04850KAOH AOH20160406080013804/06/16 08:00:31  5-MIN KAOH 061300Z AUTO 17017G25KT 10SM SCT110 07/M05 A2983 1060 41 400 180/17G25 RMK AO2 LTG DSNT W-N PRESFR T00721050
04850KAOH AOH20160406080515604/06/16 08:05:31  5-MIN KAOH 061305Z AUTO 17022G30KT 10SM SCT110 07/M05 A2982 1070 41 400 180/22G30 RMK AO2 PK WND 17030/1305 LTG DSNT W-N PRESFR T00721050
04850KAOH AOH20160406081014904/06/16 08:10:31  5-MIN KAOH 061310Z AUTO 17019G30KT 10SM FEW110 07/M05 A2982 1070 41 400 180/19G30 RMK AO2 PK WND 17030/1305 LTG DSNT W-N T00721050
04850KAOH AOH20160406081514904/06/16 08:15:31  5-MIN KAOH 061315Z AUTO 18019G28KT 10SM FEW110 08/M05 A2981 1080 40 500 190/19G28 RMK AO2 PK WND 17030/1305 LTG DSNT W-N T00781050
04850KAOH AOH20160406082014604/06/16 08:20:31  5-MIN KAOH 061320Z AUTO 18021G27KT 10SM CLR 08/M05 A2981 1080 40 500 190/21G27 RMK AO2 PK WND 17030/1305 LTG DSNT W-N T00781050
04850KAOH AOH20160406082514704/06/16 08:25:31  5-MIN KAOH 061325Z AUTO 18019G27KT 10SM FEW110 08/M04 A2980 1080 41 500 190/19G27 RMK AO2 PK WND 17030/1305 LTG DSNT W T00781044
04850KAOH AOH20160406083014704/06/16 08:30:31  5-MIN KAOH 061330Z AUTO 18018G25KT 10SM SCT100 08/M05 A2981 1080 38 600 190/18G25 RMK AO2 PK WND 17030/1305 LTG DSNT W T00831050
04850KAOH AOH20160406083515904/06/16 08:35:31  5-MIN KAOH 061335Z AUTO 19015G23KT 10SM VCTS FEW075 BKN100 08/M04 A2981 1080 40 600 200/15G23 RMK AO2 PK WND 17030/1305 LTG DSNT W T00831044
04850KAOH AOH20160406084016304/06/16 08:40:31  5-MIN KAOH 061340Z AUTO 19015G23KT 10SM TS FEW075 BKN100 08/M04 A2981 1080 40 600 200/15G23 RMK AO2 PK WND 17030/1305 LTG DSNT N TSB38 T00831044
04850KAOH AOH20160406084517704/06/16 08:45:31  5-MIN KAOH 061345Z AUTO 22015G21KT 10SM TS SCT070 BKN100 08/M04 A2983 1060 40 600 230/15G21 RMK AO2 PK WND 17030/1305 LTG DSNT N AND NE TSB38 PRESRR T00831044
04850KAOH AOH20160406085018404/06/16 08:50:31  5-MIN KAOH 061350Z AUTO 19015G21KT 10SM TS SCT070 BKN100 OVC110 08/M04 A2981 1080 40 600 200/15G21 RMK AO2 PK WND 17030/1305 LTG DSNT N AND NE TSB38 SLP099 T00831044
04850KAOH AOH20160406085516304/06/16 08:55:31  5-MIN KAOH 061355Z AUTO 18020G26KT 10SM VCTS FEW065 BKN080 OVC100 08/M04 A2978 1110 40 600 180/20G26 RMK AO2 LTG DSNT NE AND NW PRESFR T00831044
04850KAOH AOH20160406090018604/06/16 09:00:31  5-MIN KAOH 061400Z AUTO 18020G28KT 10SM -RA FEW065 BKN095 OVC110 08/M04 A2979 1100 42 600 190/20G28 RMK AO2 PK WND 18028/1356 LTG DSNT W AND NW RAB1358 P0000 T00831039
04850KAOH AOH20160406090518304/06/16 09:05:31  5-MIN KAOH 061405Z AUTO 18020G28KT 10SM -RA FEW065 BKN095 OVC110 09/M04 A2977 1110 38 700 180/20G28 RMK AO2 PK WND 18028/1356 LTG DSNT SW-NW RAB1358 P0000 T00891044
04850KAOH AOH20160406091018304/06/16 09:10:31  5-MIN KAOH 061410Z AUTO 18022G27KT 10SM -RA FEW065 BKN090 OVC110 08/M03 A2978 1110 45 600 180/22G27 RMK AO2 PK WND 18028/1356 LTG DSNT SW-NW RAB1358 P0000 T00831028
04850KAOH AOH20160406091518204/06/16 09:15:31  5-MIN KAOH 061415Z AUTO 18021G32KT 10SM -RA FEW047 BKN080 OVC100 08/M02 A2977 1120 49 600 180/21G32 RMK AO2 PK WND 17032/1411 LTG DSNT SW-N RAB1358 P0000 T00781022
04850KAOH AOH20160406092018104/06/16 09:20:31  5-MIN KAOH 061420Z AUTO 18019G32KT 10SM FEW047 FEW065 BKN090 08/M02 A2977 1120 47 600 180/19G32 RMK AO2 PK WND 17032/1411 LTG DSNT SW-N RAB1358E20 P0000 T00831022
04850KAOH AOH20160406092518104/06/16 09:25:31  5-MIN KAOH 061425Z AUTO 18019G28KT 10SM FEW065 FEW080 BKN100 09/M02 A2977 1120 47 700 180/19G28 RMK AO2 PK WND 17032/1411 LTG DSNT SW-N RAB1358E20 P0000 T00891017
04850KAOH AOH20160406093018104/06/16 09:30:31  5-MIN KAOH 061430Z AUTO 19020G26KT 10SM FEW065 FEW080 SCT100 10/M02 A2977 1110 42 800 190/20G26 RMK AO2 PK WND 17032/1411 LTG DSNT SW-N RAB1358E20 P0000 T01001022
04850KAOH AOH20160406093517304/06/16 09:35:31  5-MIN KAOH 061435Z AUTO 18021KT 10SM VCTS FEW070 SCT090 10/M03 A2977 1120 40 800 190/21 RMK AO2 PK WND 17032/1411 LTG DSNT SW-N RAB1358E20 P0000 T01001028
04850KAOH AOH20160406094018704/06/16 09:40:31  5-MIN KAOH 061440Z AUTO 19020G30KT 10SM VCTS FEW075 SCT090 BKN110 11/M03 A2976 1120 39 900 190/20G30 RMK AO2 PK WND 17032/1411 LTG DSNT ALQDS RAB1358E20 P0000 T01061028
04850KAOH AOH20160406094520004/06/16 09:45:31  5-MIN KAOH 061445Z AUTO 18023G30KT 8SM VCTS -RA FEW065 SCT080 BKN090 10/M01 A2974 1140 46 900 180/23G30 RMK AO2 PK WND 17032/1411 LTG DSNT ALQDS RAB1358E20B43 PRESFR P0001 T01001011
04850KAOH AOH20160406095021904/06/16 09:50:31  5-MIN KAOH 061450Z AUTO 18022G31KT 8SM VCTS -RA FEW070 SCT090 BKN110 10/M01 A2974 1150 46 900 190/22G31 RMK AO2 PK WND 17032/1411 LTG DSNT NW-NE RAB1358E20B43 PRESFR SLP074 P0001 60001 T01001011 56045
04850KAOH AOH20160406095516404/06/16 09:55:31  5-MIN KAOH 061455Z AUTO 18020G31KT 10SM VCTS FEW055 SCT070 BKN110 11/M01 A2974 1150 44 900 190/20G31 RMK AO2 LTG DSNT NW-NE RAE54 P0000 T01061011
04850KAOH AOH20160406100018404/06/16 10:00:31  5-MIN KAOH 061500Z AUTO 18023G32KT 10SM -TSRA SCT055 SCT070 BKN090 11/M02 A2973 1150 41 1000 190/23G32 RMK AO2 PK WND 19032/1459 LTG DSNT NW-NE TSB00 P0000 T01111017
04850KAOH AOH20160406100518304/06/16 10:05:31  5-MIN KAOH 061505Z AUTO 18024G32KT 10SM -TSRA SCT055 BKN070 BKN085 11/M01 A2973 1150 44 900 180/24G32 RMK AO2 PK WND 19032/1459 LTG DSNT NW-NE TSB00 P0000 T01061011
04850KAOH AOH20160406101018804/06/16 10:10:31  5-MIN KAOH 061510Z AUTO 19021G29KT 10SM -TSRA SCT055 BKN075 BKN100 12/M01 A2973 1150 41 1100 200/21G29 RMK AO2 PK WND 19032/1459 LTG DSNT NE AND NW TSB00 P0000 T01171011
04850KAOH AOH20160406101519104/06/16 10:15:31  5-MIN KAOH 061515Z AUTO 19022G30KT 10SM TS SCT050 SCT060 BKN070 12/M01 A2973 1150 39 1100 190/22G30 RMK AO2 PK WND 19032/1459 LTG DSNT NE AND NW RAE12 TSB00 P0000 T01221011
04850KAOH AOH20160406102019104/06/16 10:20:31  5-MIN KAOH 061520Z AUTO 19021G31KT 10SM SCT050 BKN075 BKN110 13/M02 A2973 1160 36 1200 200/21G31 RMK AO2 PK WND 19032/1459 LTG DSNT NE AND NW RAE12 TSB00E18 P0000 T01281017
04850KAOH AOH20160406102518704/06/16 10:25:31  5-MIN KAOH 061525Z AUTO 19020G33KT 10SM FEW050 SCT075 BKN110 13/M02 A2973 1160 36 1200 190/20G33 RMK AO2 PK WND 20033/1523 LTG DSNT NW-NE RAE12 TSB00E18 P0000 T01281017
04850KAOH AOH20160406103018704/06/16 10:30:31  5-MIN KAOH 061530Z AUTO 20020G33KT 10SM FEW050 SCT075 BKN110 13/M02 A2973 1150 36 1200 200/20G33 RMK AO2 PK WND 20033/1523 LTG DSNT NW-NE RAE12 TSB00E18 P0000 T01281017
04850KAOH AOH20160406103518704/06/16 10:35:31  5-MIN KAOH 061535Z AUTO 19019G30KT 10SM FEW050 SCT075 SCT100 13/M02 A2973 1160 35 1200 200/19G30 RMK AO2 PK WND 20033/1523 LTG DSNT NW-NE RAE12 TSB00E18 P0000 T01281022
04850KAOH AOH20160406104018304/06/16 10:40:31  5-MIN KAOH 061540Z AUTO 19024G32KT 10SM FEW050 SCT075 13/M03 A2972 1160 33 1200 190/24G32 RMK AO2 PK WND 20033/1523 LTG DSNT N AND NE RAE12 TSB00E18 P0000 T01281028
04850KAOH AOH20160406104518304/06/16 10:45:31  5-MIN KAOH 061545Z AUTO 19020G32KT 10SM FEW070 SCT120 13/M03 A2972 1160 33 1200 200/20G32 RMK AO2 PK WND 20033/1523 LTG DSNT N AND NE RAE12 TSB00E18 P0000 T01281028
04850KAOH AOH20160406105019004/06/16 10:50:31  5-MIN KAOH 061550Z AUTO 19023G31KT 10SM SCT070 BKN120 13/M03 A2972 1170 33 1200 200/23G31 RMK AO2 PK WND 20033/1523 LTG DSNT N AND NE RAE12 TSB00E18 SLP065 P0000 T01281028
04850KAOH AOH20160406105515604/06/16 10:55:31  5-MIN KAOH 061555Z AUTO 19020G31KT 10SM SCT070 BKN120 13/M03 A2971 1170 33 1200 200/20G31 RMK AO2 PK WND 19028/1555 LTG DSNT NE T01281028
04850KAOH AOH20160406110015604/06/16 11:00:31  5-MIN KAOH 061600Z AUTO 19017G28KT 10SM BKN075 BKN120 13/M03 A2971 1170 33 1200 200/17G28 RMK AO2 PK WND 19028/1555 LTG DSNT NE T01281028
04850KAOH AOH20160406110514404/06/16 11:05:31  5-MIN KAOH 061605Z AUTO 20018G29KT 10SM BKN070 BKN120 13/M03 A2971 1170 33 1200 200/18G29 RMK AO2 PK WND 18029/1602 T01281028
04850KAOH AOH20160406111014404/06/16 11:10:31  5-MIN KAOH 061610Z AUTO 19021G31KT 10SM BKN070 OVC120 13/M03 A2970 1180 32 1200 200/21G31 RMK AO2 PK WND 20031/1607 T01281033
04850KAOH AOH20160406111513704/06/16 11:15:31  5-MIN KAOH 061615Z AUTO 19019G31KT 10SM BKN070 13/M03 A2970 1180 32 1300 200/19G31 RMK AO2 PK WND 20031/1607 T01331028
04850KAOH AOH20160406112013704/06/16 11:20:31  5-MIN KAOH 061620Z AUTO 20022G28KT 10SM BKN070 13/M03 A2970 1180 32 1300 200/22G28 RMK AO2 PK WND 20031/1607 T01331028
04850KAOH AOH20160406112514404/06/16 11:25:31  5-MIN KAOH 061625Z AUTO 19020G28KT 10SM BKN070 OVC090 14/M03 A2969 1190 31 1400 200/20G28 RMK AO2 PK WND 20031/1607 T01391028
04850KAOH AOH20160406113014404/06/16 11:30:31  5-MIN KAOH 061630Z AUTO 19021G29KT 10SM BKN070 OVC085 14/M02 A2969 1190 32 1400 200/21G29 RMK AO2 PK WND 20031/1607 T01391022
04850KAOH AOH20160406113514404/06/16 11:35:31  5-MIN KAOH 061635Z AUTO 19022G32KT 10SM BKN070 OVC090 14/M03 A2968 1200 31 1400 200/22G32 RMK AO2 PK WND 21032/1631 T01391028
04850KAOH AOH20160406114015604/06/16 11:40:31  5-MIN KAOH 061640Z AUTO 19022G32KT 10SM BKN075 BKN085 14/M03 A2968 1200 31 1400 200/22G32 RMK AO2 PK WND 21032/1631 LTG DSNT NW T01391028
04850KAOH AOH20160406114515604/06/16 11:45:31  5-MIN KAOH 061645Z AUTO 20021G30KT 10SM BKN075 BKN085 14/M02 A2968 1200 33 1500 210/21G30 RMK AO2 PK WND 21032/1631 LTG DSNT NW T01441017
04850KAOH AOH20160406115016304/06/16 11:50:31  5-MIN KAOH 061650Z AUTO 20018G29KT 10SM SCT075 BKN085 15/M02 A2968 1200 31 1500 210/18G29 RMK AO2 PK WND 21032/1631 LTG DSNT NW SLP053 T01501017
04850KAOH AOH20160406115513104/06/16 11:55:31  5-MIN KAOH 061655Z AUTO 20017G27KT 10SM VCTS SCT075 SCT090 15/M01 A2967 1210 33 1500 210/17G27 RMK AO2 T01501011
04850KAOH AOH20160406120016004/06/16 12:00:31  5-MIN KAOH 061700Z AUTO 19020G29KT 10SM VCTS SCT070 SCT085 16/M01 A2967 1210 33 1600 190/20G29 RMK AO2 PK WND 17029/1659 LTG DSNT N T01561006
04850KAOH AOH20160406120516004/06/16 12:05:31  5-MIN KAOH 061705Z AUTO 19023G31KT 10SM VCTS SCT075 SCT110 16/M01 A2966 1210 31 1600 200/23G31 RMK AO2 PK WND 20031/1705 LTG DSNT N T01561011
04850KAOH AOH20160406121016204/06/16 12:10:31  5-MIN KAOH 061710Z AUTO 20018G31KT 10SM FEW070 SCT110 16/M01 A2965 1220 32 1700 200/18G31 RMK AO2 PK WND 20031/1705 LTG DSNT N PRESFR T01611006
04850KAOH AOH20160406121516104/06/16 12:15:31  5-MIN KAOH 061715Z AUTO 20020G31KT 10SM FEW070 FEW110 16/00 A2965 1220 33 1700 200/20G31 RMK AO2 PK WND 20031/1705 LTG DSNT N AND NE T01610000
04850KAOH AOH20160406122016104/06/16 12:20:31  5-MIN KAOH 061720Z AUTO 20019G30KT 10SM FEW070 FEW110 17/01 A2965 1230 32 1800 200/19G30 RMK AO2 PK WND 20031/1705 LTG DSNT N AND NE T01720006
04850KAOH AOH20160406122515504/06/16 12:25:31  5-MIN KAOH 061725Z AUTO 20020G30KT 10SM FEW070 SCT110 17/01 A2965 1230 33 1800 210/20G30 RMK AO2 PK WND 20031/1705 LTG DSNT NE T01720011
04850KAOH AOH20160406123015504/06/16 12:30:31  5-MIN KAOH 061730Z AUTO 20023G32KT 10SM SCT110 17/01 A2964 1240 33 1800 200/23G32 RMK AO2 PK WND 22032/1727 LTG DSNT NE AND SW T01720011
04850KAOH AOH20160406123516004/06/16 12:35:31  5-MIN KAOH 061735Z AUTO 19020G33KT 10SM VCTS SCT110 17/01 A2964 1240 34 1800 200/20G33 RMK AO2 PK WND 21033/1732 LTG DSNT NE AND SW T01670011
04850KAOH AOH20160406124016004/06/16 12:40:31  5-MIN KAOH 061740Z AUTO 19020G33KT 10SM VCTS FEW110 17/01 A2964 1240 34 1800 200/20G33 RMK AO2 PK WND 21033/1732 LTG DSNT NE AND SW T01670011
04850KAOH AOH20160406124516604/06/16 12:45:31  5-MIN KAOH 061745Z AUTO 20020G34KT 10SM VCTS FEW110 16/01 A2964 1240 36 1700 200/20G34 RMK AO2 PK WND 20034/1743 LTG DSNT NE AND SW AND W T01610011
04850KAOH AOH20160406125015104/06/16 12:50:31  5-MIN KAOH 061750Z AUTO 21022G34KT 10SM FEW065 SCT110 16/01 A2965 1230 36 1700 220/22G34 RMK AO2 PK WND 20034/1743 LTG DSNT NE AND W
04850KAOH AOH20160406125515704/06/16 12:55:31  5-MIN KAOH 061755Z AUTO 21022G30KT 10SM SCT065 BKN110 16/01 A2966 1220 36 1700 220/22G30 RMK AO2 PK WND 20028/1755 LTG DSNT W-NE T01610011
04850KAOH AOH20160406130016604/06/16 13:00:31  5-MIN KAOH 061800Z AUTO 22018G30KT 10SM TS BKN070 16/02 A2966 1220 37 1700 220/18G30 RMK AO2 PK WND 22030/1756 LTG DSNT NE AND NW TSB1758 T01610017
04850KAOH AOH20160406130517304/06/16 13:05:31  5-MIN KAOH 061805Z AUTO 22023G33KT 10SM TS BKN070 BKN090 16/02 A2965 1230 37 1700 220/23G33 RMK AO2 PK WND 21033/1802 LTG DSNT NE AND NW TSB1758 T01610017
04850KAOH AOH20160406131015404/06/16 13:10:31  5-MIN KAOH 061810Z AUTO 21017G33KT 10SM TS BKN070 BKN090 16/02 A2964 1230 37 1700 210/17G33 RMK AO2 PK WND 21033/1802 TSB1758 T01610017
04850KAOH AOH20160406131517004/06/16 13:15:31  5-MIN KAOH 061815Z AUTO 21014G24KT 10SM -RA BKN070 OVC090 16/02 A2964 1240 39 1700 210/14G24 RMK AO2 PK WND 21033/1802 RAB12 TSB1758E13 P0000 T01610022
04850KAOH AOH20160406132018404/06/16 13:20:31  5-MIN KAOH 061820Z AUTO 20015G28KT 10SM -RA SCT065 BKN075 OVC110 16/03 A2962 1250 42 1600 200/15G28 RMK AO2 PK WND 21033/1802 RAB12 TSB1758E13 PRESFR P0000 T01560028
04850KAOH AOH20160406132518904/06/16 13:25:31  5-MIN KAOH 061825Z AUTO 20018G28KT 10SM -RA FEW060 BKN075 OVC110 16/03 A2962 1260 40 1700 200/18G28 RMK AO2 PK WND 21033/1802 LTG DSNT NE RAB12 TSB1758E13 P0000 T01610028
04850KAOH AOH20160406133018104/06/16 13:30:31  5-MIN KAOH 061830Z AUTO 20015G26KT 10SM BKN070 OVC090 16/03 A2962 1260 40 1700 200/15G26 RMK AO2 PK WND 21033/1802 LTG DSNT NE RAB12E27 TSB1758E13 P0000 T01610028
04850KAOH AOH20160406133518804/06/16 13:35:31  5-MIN KAOH 061835Z AUTO 20015G22KT 10SM FEW055 BKN075 OVC090 16/03 A2962 1260 42 1700 210/15G22 RMK AO2 PK WND 21033/1802 LTG DSNT NE RAB12E27 TSB1758E13 P0000 T01610033
04850KAOH AOH20160406134017604/06/16 13:40:31  5-MIN KAOH 061840Z AUTO 19019G25KT 10SM FEW055 BKN075 OVC090 16/04 A2961 1260 44 1700 200/19G25 RMK AO2 PK WND 21033/1802 RAB12E27 TSB1758E13 P0000 T01610039
04850KAOH AOH20160406134518304/06/16 13:45:31  5-MIN KAOH 061845Z AUTO 20016G25KT 10SM -RA FEW050 BKN090 OVC110 16/03 A2961 1270 42 1700 200/16G25 RMK AO2 PK WND 21033/1802 RAB12E27B45 TSB1758E13 P0000 T01610033
04850KAOH AOH20160406135019004/06/16 13:50:31  5-MIN KAOH 061850Z AUTO 20016G24KT 10SM -RA FEW050 SCT070 OVC085 16/04 A2962 1260 44 1700 210/16G24 RMK AO2 PK WND 21033/1802 RAB12E27B45 TSB1758E13 SLP031 P0000 T01610039
04850KAOH AOH20160406135514204/06/16 13:55:31  5-MIN KAOH 061855Z AUTO 20016G23KT 10SM -RA FEW031 SCT075 OVC090 16/04 A2961 1260 47 1700 200/16G23 RMK AO2 P0000 T01560044
04850KAOH AOH20160406140016004/06/16 14:00:31  5-MIN KAOH 061900Z AUTO 20018G27KT 10SM -RA FEW031 BKN090 OVC110 16/05 A2961 1270 49 1700 200/18G27 RMK AO2 PK WND 19027/1857 P0000 T01560050
04850KAOH AOH20160406140515304/06/16 14:05:31  5-MIN KAOH 061905Z AUTO 20017G27KT 10SM -RA FEW032 OVC090 16/04 A2961 1270 45 1700 200/17G27 RMK AO2 PK WND 20027/1903 P0000 T01610044
04850KAOH AOH20160406141016004/06/16 14:10:31  5-MIN KAOH 061910Z AUTO 20019G28KT 10SM -RA FEW028 BKN090 OVC110 16/04 A2961 1270 45 1700 200/19G28 RMK AO2 PK WND 19028/1910 P0000 T01610044
04850KAOH AOH20160406141515504/06/16 14:15:31  5-MIN KAOH 061915Z AUTO 20017G28KT 10SM BKN085 OVC100 16/04 A2961 1270 44 1700 210/17G28 RMK AO2 PK WND 19028/1912 RAE14 P0000 T01610039
04850KAOH AOH20160406142015904/06/16 14:20:31  5-MIN KAOH 061920Z AUTO 19017G28KT 8SM -RA FEW039 BKN085 OVC100 16/04 A2960 1280 47 1700 200/17G28 RMK AO2 PK WND 19028/1912 P0001 T01560044
04850KAOH AOH20160406142515204/06/16 14:25:31  5-MIN KAOH 061925Z AUTO 20018G27KT 8SM -RA SCT075 OVC090 15/06 A2959 1280 53 1600 200/18G27 RMK AO2 PK WND 19028/1912 P0001 T01500056
04850KAOH AOH20160406143016004/06/16 14:30:31  5-MIN KAOH 061930Z AUTO 20019G31KT 10SM -RA SCT080 BKN095 BKN110 15/06 A2959 1280 53 1600 210/19G31 RMK AO2 PK WND 20031/1930 P0001 T01500056
04850KAOH AOH20160406143516204/06/16 14:35:31  5-MIN KAOH 061935Z AUTO 19020G31KT 10SM FEW075 SCT090 BKN110 15/06 A2959 1290 55 1600 200/20G31 RMK AO2 PK WND 20031/1930 RAE34 P0001 T01500061
04850KAOH AOH20160406144015504/06/16 14:40:31  5-MIN KAOH 061940Z AUTO 20018G31KT 10SM FEW075 SCT095 15/06 A2959 1290 55 1600 200/18G31 RMK AO2 PK WND 20031/1930 RAE34 P0001 T01500061
04850KAOH AOH20160406144515504/06/16 14:45:31  5-MIN KAOH 061945Z AUTO 20018G31KT 10SM FEW075 SCT090 15/06 A2958 1290 55 1600 210/18G31 RMK AO2 PK WND 20031/1930 RAE34 P0001 T01500061
04850KAOH AOH20160406145016204/06/16 14:50:31  5-MIN KAOH 061950Z AUTO 20016G26KT 10SM FEW090 SCT110 15/06 A2958 1290 53 1600 200/16G26 RMK AO2 PK WND 20031/1930 RAE34 SLP018 P0001 T01500056
04850KAOH AOH20160406145511804/06/16 14:55:31  5-MIN KAOH 061955Z AUTO 20019G23KT 10SM FEW100 16/06 A2958 1290 51 1700 210/19G23 RMK AO2 T01560056
04850KAOH AOH20160406150013604/06/16 15:00:31  5-MIN KAOH 062000Z AUTO 19017G28KT 10SM FEW090 16/05 A2957 1300 47 1800 200/17G28 RMK AO2 PK WND 20028/1956 T01610050
04850KAOH AOH20160406150513604/06/16 15:05:31  5-MIN KAOH 062005Z AUTO 20020G31KT 10SM SCT090 16/04 A2957 1300 45 1800 200/20G31 RMK AO2 PK WND 19031/2003 T01610044
04850KAOH AOH20160406151013604/06/16 15:10:31  5-MIN KAOH 062010Z AUTO 20023G31KT 10SM BKN090 16/04 A2957 1300 44 1800 200/23G31 RMK AO2 PK WND 19031/2007 T01610039
04850KAOH AOH20160406151513604/06/16 15:15:31  5-MIN KAOH 062015Z AUTO 19024G31KT 10SM BKN095 16/03 A2957 1300 42 1800 200/24G31 RMK AO2 PK WND 19031/2012 T01610033
04850KAOH AOH20160406152014104/06/16 15:20:31  5-MIN KAOH 062020Z AUTO 19020G31KT 10SM SCT090 16/03 A2957 1300 42 1800 200/20G31 RMK AO2 PK WND 19031/2012 T01610033 TSNO
04850KAOH AOH20160406152513604/06/16 15:25:31  5-MIN KAOH 062025Z AUTO 19023G35KT 10SM BKN090 16/03 A2957 1310 42 1800 200/23G35 RMK AO2 PK WND 20035/2024 T01610033
04850KAOH AOH20160406153014304/06/16 15:30:31  5-MIN KAOH 062030Z AUTO 20018G35KT 10SM BKN090 BKN110 16/03 A2957 1310 42 1800 200/18G35 RMK AO2 PK WND 20035/2024 T01610033
04850KAOH AOH20160406153514304/06/16 15:35:31  5-MIN KAOH 062035Z AUTO 19023G33KT 10SM BKN085 BKN110 16/03 A2957 1310 42 1800 200/23G33 RMK AO2 PK WND 20035/2024 T01610033
04850KAOH AOH20160406154014304/06/16 15:40:31  5-MIN KAOH 062040Z AUTO 20020G32KT 10SM SCT085 BKN110 16/03 A2956 1310 42 1800 200/20G32 RMK AO2 PK WND 20035/2024 T01610033
04850KAOH AOH20160406154515904/06/16 15:45:31  5-MIN KAOH 062045Z AUTO 20020G30KT 10SM -RA BKN080 BKN110 16/04 A2956 1310 45 1700 210/20G30 RMK AO2 PK WND 20035/2024 RAB41 P0000 T01560039
04850KAOH AOH20160406155017804/06/16 15:50:31  5-MIN KAOH 062050Z AUTO 20019G29KT 10SM -RA BKN080 BKN110 15/04 A2956 1310 47 1700 210/19G29 RMK AO2 PK WND 20035/2024 RAB41 SLP012 P0000 60001 T01500039 57026
04850KAOH AOH20160406155515304/06/16 15:55:31  5-MIN KAOH 062055Z AUTO 20018G29KT 10SM -RA BKN085 OVC110 16/04 A2956 1310 45 1700 210/18G29 RMK AO2 PK WND 20028/2055 P0000 T01560039
04850KAOH AOH20160406160015304/06/16 16:00:31  5-MIN KAOH 062100Z AUTO 20019G28KT 10SM -RA FEW060 OVC085 16/04 A2956 1320 45 1700 200/19G28 RMK AO2 PK WND 19028/2058 P0000 T01560039
04850KAOH AOH20160406160515504/06/16 16:05:31  5-MIN KAOH 062105Z AUTO 20020G28KT 10SM FEW060 OVC085 16/04 A2955 1320 45 1700 210/20G28 RMK AO2 PK WND 19028/2058 RAE03 P0000 T01560039
04850KAOH AOH20160406161016204/06/16 16:10:31  5-MIN KAOH 062110Z AUTO 20017G26KT 10SM SCT080 BKN095 OVC110 16/04 A2955 1320 47 1700 200/17G26 RMK AO2 PK WND 19028/2058 RAE03 P0000 T01560044
04850KAOH AOH20160406161515504/06/16 16:15:31  5-MIN KAOH 062115Z AUTO 20016G26KT 10SM BKN085 OVC110 15/04 A2955 1320 49 1700 200/16G26 RMK AO2 PK WND 19028/2058 RAE03 P0000 T01500044
04850KAOH AOH20160406162015504/06/16 16:20:31  5-MIN KAOH 062120Z AUTO 20016G29KT 10SM SCT090 OVC110 15/04 A2955 1320 49 1700 210/16G29 RMK AO2 PK WND 20029/2116 RAE03 P0000 T01500044
04850KAOH AOH20160406162514804/06/16 16:25:31  5-MIN KAOH 062125Z AUTO 20019G29KT 10SM OVC100 15/05 A2954 1330 51 1700 210/19G29 RMK AO2 PK WND 20029/2116 RAE03 P0000 T01500050
04850KAOH AOH20160406163014804/06/16 16:30:31  5-MIN KAOH 062130Z AUTO 20020G29KT 10SM OVC100 15/05 A2954 1330 51 1700 200/20G29 RMK AO2 PK WND 20029/2116 RAE03 P0000 T01500050
04850KAOH AOH20160406163514804/06/16 16:35:31  5-MIN KAOH 062135Z AUTO 20018G29KT 10SM OVC110 15/05 A2954 1330 51 1700 210/18G29 RMK AO2 PK WND 20029/2116 RAE03 P0000 T01500050
04850KAOH AOH20160406164014804/06/16 16:40:31  5-MIN KAOH 062140Z AUTO 20021G31KT 10SM OVC110 15/05 A2954 1330 51 1700 210/21G31 RMK AO2 PK WND 21031/2137 RAE03 P0000 T01500050
04850KAOH AOH20160406164515504/06/16 16:45:31  5-MIN KAOH 062145Z AUTO 20021G33KT 10SM FEW090 BKN110 15/05 A2954 1330 51 1700 210/21G33 RMK AO2 PK WND 20033/2145 RAE03 P0000 T01500050
04850KAOH AOH20160406165016204/06/16 16:50:31  5-MIN KAOH 062150Z AUTO 20021G33KT 10SM FEW090 BKN110 15/06 A2954 1330 53 1700 210/21G33 RMK AO2 PK WND 20033/2145 RAE03 SLP005 P0000 T01500056
04850KAOH AOH20160406165512504/06/16 16:55:31  5-MIN KAOH 062155Z AUTO 20017G31KT 10SM SCT075 OVC110 15/06 A2954 1330 53 1700 210/17G31 RMK AO2 T01500056
04850KAOH AOH20160406170013204/06/16 17:00:31  5-MIN KAOH 062200Z AUTO 20017G27KT 10SM BKN070 BKN080 OVC110 15/06 A2954 1330 53 1700 210/17G27 RMK AO2 T01500056
04850KAOH AOH20160406170513204/06/16 17:05:31  5-MIN KAOH 062205Z AUTO 21017G25KT 10SM BKN070 BKN080 OVC110 15/06 A2954 1330 53 1700 210/17G25 RMK AO2 T01500056
04850KAOH AOH20160406171015004/06/16 17:10:31  5-MIN KAOH 062210Z AUTO 21018G27KT 10SM BKN070 BKN080 OVC110 15/06 A2953 1340 53 1700 210/18G27 RMK AO2 PK WND 21027/2208 T01500056
04850KAOH AOH20160406171514304/06/16 17:15:31  5-MIN KAOH 062215Z AUTO 21016G27KT 10SM BKN070 OVC085 15/06 A2953 1340 53 1700 210/16G27 RMK AO2 PK WND 21027/2208 T01500056
04850KAOH AOH20160406172014304/06/16 17:20:31  5-MIN KAOH 062220Z AUTO 20017G24KT 10SM BKN070 OVC085 15/06 A2953 1340 53 1700 210/17G24 RMK AO2 PK WND 21027/2208 T01500056
04850KAOH AOH20160406172513604/06/16 17:25:31  5-MIN KAOH 062225Z AUTO 20015G24KT 10SM OVC070 15/06 A2952 1350 53 1700 200/15G24 RMK AO2 PK WND 21027/2208 T01500056
04850KAOH AOH20160406173013604/06/16 17:30:31  5-MIN KAOH 062230Z AUTO 19014G22KT 10SM OVC070 15/06 A2952 1350 53 1700 200/14G22 RMK AO2 PK WND 21027/2208 T01500056
04850KAOH AOH20160406173513604/06/16 17:35:31  5-MIN KAOH 062235Z AUTO 19015G22KT 10SM OVC070 15/06 A2952 1350 53 1700 190/15G22 RMK AO2 PK WND 21027/2208 T01500056
04850KAOH AOH20160406174013604/06/16 17:40:31  5-MIN KAOH 062240Z AUTO 19014G22KT 10SM OVC070 15/06 A2951 1350 53 1700 200/14G22 RMK AO2 PK WND 21027/2208 T01500056
04850KAOH AOH20160406174513604/06/16 17:45:31  5-MIN KAOH 062245Z AUTO 19015G24KT 10SM OVC065 15/06 A2952 1350 53 1700 200/15G24 RMK AO2 PK WND 21027/2208 T01500056
04850KAOH AOH20160406175015904/06/16 17:50:31  5-MIN KAOH 062250Z AUTO 20015G24KT 10SM -RA OVC065 14/06 A2951 1360 57 1600 200/15G24 RMK AO2 PK WND 21027/2208 RAB50 SLP995 P0000 T01440061
04850KAOH AOH20160406175512804/06/16 17:55:31  5-MIN KAOH 062255Z AUTO 20015G23KT 10SM -RA OVC065 14/06 A2951 1360 57 1700 200/15G23 RMK AO2 P0000 T01440061
04850KAOH AOH20160406180013204/06/16 18:00:31  5-MIN KAOH 062300Z AUTO 20013G22KT 10SM OVC065 14/06 A2951 1360 57 1600 200/13G22 RMK AO2 RAE2259 P0000 T01440061
04850KAOH AOH20160406180512804/06/16 18:05:31  5-MIN KAOH 062305Z AUTO 20012G23KT 10SM -RA OVC060 14/06 A2951 1360 57 1600 210/12G23 RMK AO2 P0000 T01440061
04850KAOH AOH20160406181012804/06/16 18:10:31  5-MIN KAOH 062310Z AUTO 20014G23KT 10SM -RA OVC060 14/07 A2951 1360 61 1600 200/14G23 RMK AO2 P0000 T01390067
04850KAOH AOH20160406181512804/06/16 18:15:31  5-MIN KAOH 062315Z AUTO 20015G22KT 10SM -RA OVC060 14/07 A2951 1360 61 1600 210/15G22 RMK AO2 P0000 T01390067
04850KAOH AOH20160406182012804/06/16 18:20:31  5-MIN KAOH 062320Z AUTO 19012G22KT 10SM -RA OVC060 14/07 A2950 1370 59 1700 200/12G22 RMK AO2 P0000 T01440067
04850KAOH AOH20160406182512804/06/16 18:25:31  5-MIN KAOH 062325Z AUTO 19013G21KT 10SM -RA OVC060 14/07 A2950 1370 59 1700 200/13G21 RMK AO2 P0000 T01440067
04850KAOH AOH20160406183013004/06/16 18:30:31  5-MIN KAOH 062330Z AUTO 19017G21KT 10SM OVC060 14/07 A2949 1380 59 1700 190/17G21 RMK AO2 RAE28 P0000 T01440067
04850KAOH AOH20160406183513504/06/16 18:35:31  5-MIN KAOH 062335Z AUTO 19017G25KT 10SM -RA FEW050 OVC060 14/07 A2949 1380 59 1700 200/17G25 RMK AO2 P0000 T01440067
04850KAOH AOH20160406184016004/06/16 18:40:31  5-MIN KAOH 062340Z AUTO 24027G39KT 10SM -RA SCT048 OVC060 14/07 A2954 1330 59 1600 250/27G39 RMK AO2 PK WND 25039/2340 PRESRR P0000 T01440067
04850KAOH AOH20160406184518004/06/16 18:45:31  5-MIN KAOH 062345Z AUTO 25025G44KT 3SM +RA BR FEW030 BKN046 OVC060 11/08 A2955 1320 86 1100 250/25G44 RMK AO2 PK WND 27044/2342 WSHFT 2331 PRESRR P0009 T01060083
04850KAOH AOH20160406185020804/06/16 18:50:31  5-MIN KAOH 062350Z AUTO 24021G44KT 2 1/2SM +RA BR SCT032 BKN042 OVC060 10/08 A2955 1320 89 1100 240/21G44 RMK AO2 PK WND 27044/2342 WSHFT 2331 SLP009 P0011 60012 T01000083 10161 20100 56031
04850KAOH AOH20160406185516104/06/16 18:55:31  5-MIN KAOH 062355Z AUTO 24019G30KT 6SM RA BR SCT039 BKN048 OVC060 10/09 A2955 1320 93 1100 240/19G30 RMK AO2 PK WND 24026/2355 P0001 T01000089
04850KAOH AOH20160406190015204/06/16 19:00:31  5-MIN KAOH 070000Z AUTO 24016G26KT 7SM -RA BKN046 OVC060 11/09 A2954 1330 89 1200 250/16G26 RMK AO2 PK WND 24026/2355 P0002 T01060089
04850KAOH AOH20160406190515204/06/16 19:05:31  5-MIN KAOH 070005Z AUTO 24018G24KT 8SM -RA BKN046 OVC060 10/09 A2953 1340 93 1100 240/18G24 RMK AO2 PK WND 24026/2355 P0002 T01000089
04850KAOH AOH20160406191015204/06/16 19:10:31  5-MIN KAOH 070010Z AUTO 23017G24KT 9SM -RA BKN046 OVC055 11/09 A2953 1340 89 1200 240/17G24 RMK AO2 PK WND 24026/2355 P0003 T01060089
04850KAOH AOH20160406191515304/06/16 19:15:31  5-MIN KAOH 070015Z AUTO 23018G23KT 10SM -RA FEW043 OVC049 11/08 A2952 1350 86 1200 240/18G23 RMK AO2 PK WND 24026/2355 P0003 T01060083
04850KAOH AOH20160406192014604/06/16 19:20:31  5-MIN KAOH 070020Z AUTO 22019G25KT 10SM -RA OVC049 11/08 A2952 1350 86 1200 230/19G25 RMK AO2 PK WND 24026/2355 P0004 T01060083
04850KAOH AOH20160406192514604/06/16 19:25:31  5-MIN KAOH 070025Z AUTO 23015G25KT 10SM -RA OVC050 11/08 A2952 1350 86 1200 240/15G25 RMK AO2 PK WND 24026/2355 P0005 T01060083
04850KAOH AOH20160406193013904/06/16 19:30:31  5-MIN KAOH 070030Z AUTO 23019KT 8SM -RA OVC050 11/08 A2952 1350 86 1200 240/19 RMK AO2 PK WND 24026/2355 P0005 T01060083
04850KAOH AOH20160406193515204/06/16 19:35:31  5-MIN KAOH 070035Z AUTO 23015G25KT 8SM -RA BKN050 OVC060 10/08 A2951 1360 89 1100 230/15G25 RMK AO2 PK WND 24026/2355 P0005 T01000083
04850KAOH AOH20160406194015204/06/16 19:40:31  5-MIN KAOH 070040Z AUTO 22016G25KT 8SM -RA FEW034 OVC050 10/08 A2951 1360 89 1100 220/16G25 RMK AO2 PK WND 24026/2355 P0006 T01000083
04850KAOH AOH20160406194514504/06/16 19:45:31  5-MIN KAOH 070045Z AUTO 22019G25KT 9SM -RA OVC055 10/08 A2950 1370 89 1100 230/19G25 RMK AO2 PK WND 24026/2355 P0006 T01000083
04850KAOH AOH20160406195015204/06/16 19:50:31  5-MIN KAOH 070050Z AUTO 23018G24KT 8SM -RA OVC055 10/08 A2950 1370 89 1100 230/18G24 RMK AO2 PK WND 24026/2355 SLP992 P0007 T01000083
04850KAOH AOH20160406195512704/06/16 19:55:31  5-MIN KAOH 070055Z AUTO 23015G24KT 9SM -RA OVC055 10/08 A2950 1370 89 1100 240/15G24 RMK AO2 P0000 T01000083
04850KAOH AOH20160406200013504/06/16 20:00:31  5-MIN KAOH 070100Z AUTO 22013G22KT 10SM -RA FEW045 OVC055 10/08 A2950 1370 89 1100 230/13G22 RMK AO2 P0000 T01000083
04850KAOH AOH20160406200512904/06/16 20:05:31  5-MIN KAOH 070105Z AUTO 22013KT 10SM -RA FEW040 OVC050 10/08 A2949 1370 89 1100 230/13 RMK AO2 P0000 T01000083
04850KAOH AOH20160406201012904/06/16 20:10:31  5-MIN KAOH 070110Z AUTO 22011KT 10SM -RA SCT044 OVC055 10/08 A2949 1380 89 1100 230/11 RMK AO2 P0001 T01000083
04850KAOH AOH20160406201512904/06/16 20:15:31  5-MIN KAOH 070115Z AUTO 21012KT 10SM -RA FEW041 OVC050 10/08 A2949 1380 89 1100 220/12 RMK AO2 P0001 T01000083
04850KAOH AOH20160406202013504/06/16 20:20:31  5-MIN KAOH 070120Z AUTO 21010KT 8SM -RA FEW030 SCT043 OVC050 10/08 A2948 1380 89 1200 220/10 RMK AO2 P0002 T01000083
04850KAOH AOH20160406202513504/06/16 20:25:31  5-MIN KAOH 070125Z AUTO 22010KT 7SM -RA FEW030 SCT038 OVC050 10/08 A2948 1390 89 1200 220/10 RMK AO2 P0003 T01000083
04850KAOH AOH20160406203013504/06/16 20:30:31  5-MIN KAOH 070130Z AUTO 21011KT 8SM -RA SCT028 BKN035 OVC050 10/08 A2948 1390 89 1200 220/11 RMK AO2 P0003 T01000083
04850KAOH AOH20160406203513604/06/16 20:35:31  5-MIN KAOH 070135Z AUTO 20010KT 10SM -RA SCT028 BKN037 OVC055 10/08 A2947 1390 89 1200 210/10 RMK AO2 P0003 T01000083
04850KAOH AOH20160406204013604/06/16 20:40:31  5-MIN KAOH 070140Z AUTO 20010KT 10SM -RA FEW019 BKN035 OVC050 10/08 A2948 1390 89 1200 200/10 RMK AO2 P0003 T01000083
04850KAOH AOH20160406204513604/06/16 20:45:31  5-MIN KAOH 070145Z AUTO 20009KT 10SM -RA FEW017 BKN028 OVC050 09/08 A2947 1390 93 1100 210/09 RMK AO2 P0004 T00940083
04850KAOH AOH20160406205012604/06/16 20:50:31  5-MIN KAOH 070150Z AUTO 20009KT 10SM -RA SCT017 BKN026 OVC050 09/08 A2947 1390 93 1100 200/09 RMK AO2 P0004
04850KAOH AOH20160406205513504/06/16 20:55:31  5-MIN KAOH 070155Z AUTO 20007KT 9SM -RA BKN014 BKN024 OVC047 09/08 A2947 1400 93 1100 200/07 RMK AO2 P0001 T00940083
04850KAOH AOH20160406210013504/06/16 21:00:31  5-MIN KAOH 070200Z AUTO 21007KT 7SM -RA BKN013 BKN021 OVC050 09/09 A2947 1390 96 1100 210/07 RMK AO2 P0001 T00940089
04850KAOH AOH20160406210515004/06/16 21:05:31  5-MIN KAOH 070205Z AUTO 22007KT 6SM -RA BR BKN010 BKN017 OVC050 09/09 A2947 1400 96 1100 220/07 RMK AO2 CIG 009V014 P0002 T00940089
04850KAOH AOH20160406211015004/06/16 21:10:31  5-MIN KAOH 070210Z AUTO 21006KT 6SM -RA BR BKN010 BKN017 OVC024 09/09 A2947 1400 96 1100 220/06 RMK AO2 CIG 008V014 P0003 T00940089
04850KAOH AOH20160406211514004/06/16 21:15:31  5-MIN KAOH 070215Z AUTO 23007KT 7SM -RA BKN010 OVC017 09/09 A2946 1400 96 1100 240/07 RMK AO2 CIG 007V014 P0003 T00940089
04850KAOH AOH20160406212014004/06/16 21:20:31  5-MIN KAOH 070220Z AUTO 22008KT 7SM -RA BKN007 OVC013 10/09 A2946 1410 93 1200 230/08 RMK AO2 CIG 006V010 P0004 T01000089
04850KAOH AOH20160406212515304/06/16 21:25:31  5-MIN KAOH 070225Z AUTO 21010G16KT 9SM -RA BKN007 BKN013 OVC024 10/09 A2946 1410 93 1200 220/10G16 RMK AO2 CIG 006V010 P0004 T01000089
04850KAOH AOH20160406213015404/06/16 21:30:31  5-MIN KAOH 070230Z AUTO 22014G19KT 10SM -RA BKN009 BKN017 OVC024 10/08 A2946 1400 89 1200 220/14G19 RMK AO2 CIG 006V012 P0004 T01000083
04850KAOH AOH20160406213515404/06/16 21:35:31  5-MIN KAOH 070235Z AUTO 26014G21KT 10SM -RA BKN009 BKN017 OVC024 10/09 A2947 1400 93 1200 260/14G21 RMK AO2 CIG 006V013 P0005 T01000089
04850KAOH AOH20160406214014204/06/16 21:40:31  5-MIN KAOH 070240Z AUTO 28011G21KT 10SM -RA BKN009 BKN017 OVC045 09/08 A2947 1400 93 1100 280/11G21 RMK AO2 P0005 T00940083
04850KAOH AOH20160406214515304/06/16 21:45:31  5-MIN KAOH 070245Z AUTO 28013G21KT 10SM -RA BKN009 BKN024 OVC048 09/08 A2947 1400 93 1000 280/13G21 RMK AO2 WSHFT 0228 P0005 T00890078
04850KAOH AOH20160406215013704/06/16 21:50:31  5-MIN KAOH 070250Z AUTO 29012KT 10SM -RA SCT009 BKN022 OVC050 09/08 A2947 1400 93 1000 290/12 RMK AO2 WSHFT 0228 P0006
04850KAOH AOH20160406215513604/06/16 21:55:31  5-MIN KAOH 070255Z AUTO 28011KT 10SM -RA SCT011 BKN025 OVC050 09/08 A2946 1400 93 1000 290/11 RMK AO2 P0000 T00890078
04850KAOH AOH20160406220013604/06/16 22:00:31  5-MIN KAOH 070300Z AUTO 28008KT 10SM -RA FEW011 BKN027 OVC055 09/08 A2946 1400 93 1000 290/08 RMK AO2 P0000 T00890078
04850KAOH AOH20160406220513604/06/16 22:05:31  5-MIN KAOH 070305Z AUTO 28008KT 10SM -RA FEW009 BKN025 OVC055 09/08 A2946 1410 93 1000 280/08 RMK AO2 P0000 T00890078
04850KAOH AOH20160406221013604/06/16 22:10:31  5-MIN KAOH 070310Z AUTO 29008KT 10SM -RA SCT025 BKN036 OVC050 09/08 A2946 1410 93 1100 290/08 RMK AO2 P0001 T00890078
04850KAOH AOH20160406221513604/06/16 22:15:31  5-MIN KAOH 070315Z AUTO 28008KT 10SM -RA SCT025 BKN036 OVC046 08/07 A2946 1410 93 1000 290/08 RMK AO2 P0001 T00830072
04850KAOH AOH20160406222013604/06/16 22:20:31  5-MIN KAOH 070320Z AUTO 27009KT 10SM -RA SCT024 BKN036 OVC048 08/07 A2946 1410 93 1000 280/09 RMK AO2 P0001 T00830072
04850KAOH AOH20160406222513604/06/16 22:25:31  5-MIN KAOH 070325Z AUTO 27008KT 10SM -RA FEW024 SCT035 OVC046 08/07 A2946 1410 93 1000 270/08 RMK AO2 P0002 T00830072
04850KAOH AOH20160406223013504/06/16 22:30:31  5-MIN KAOH 070330Z AUTO 26008KT 9SM -RA FEW021 SCT037 OVC046 08/07 A2946 1410 93 1000 270/08 RMK AO2 P0003 T00830072
04850KAOH AOH20160406223513604/06/16 22:35:31  5-MIN KAOH 070335Z AUTO 26009KT 10SM -RA FEW010 SCT017 OVC046 08/07 A2946 1410 93 1000 270/09 RMK AO2 P0003 T00830072
04850KAOH AOH20160406224013604/06/16 22:40:31  5-MIN KAOH 070340Z AUTO 25008KT 10SM -RA SCT010 BKN017 OVC046 08/07 A2946 1410 93 1000 260/08 RMK AO2 P0003 T00830072
04850KAOH AOH20160406224513504/06/16 22:45:31  5-MIN KAOH 070345Z AUTO 24008KT 9SM -RA BKN010 BKN017 OVC046 08/07 A2946 1410 93 1000 250/08 RMK AO2 P0004 T00830072
04850KAOH AOH20160406225012504/06/16 22:50:31  5-MIN KAOH 070350Z AUTO 24010KT 9SM -RA BKN008 BKN012 OVC046 08/07 A2945 1410 93 1000 250/10 RMK AO2 P0004
04850KAOH AOH20160406225513504/06/16 22:55:31  5-MIN KAOH 070355Z AUTO 24012KT 9SM -RA BKN008 BKN017 OVC046 08/07 A2945 1410 93 1000 250/12 RMK AO2 P0000 T00830072
04850KAOH AOH20160406230013404/06/16 23:00:31  5-MIN KAOH 070400Z AUTO 25016G21KT 9SM -RA BKN008 OVC015 08/07 A2946 1410 93 1000 260/16G21 RMK AO2 P0001 T00830072
04850KAOH AOH20160406230514504/06/16 23:05:31  5-MIN KAOH 070405Z AUTO 27014G21KT 8SM RA BKN008 OVC017 08/07 A2946 1410 93 1000 280/14G21 RMK AO2 CIG 005V012 P0002 T00830072
04850KAOH AOH20160406231016304/06/16 23:10:31  5-MIN KAOH 070410Z AUTO 28020G26KT 8SM -RA BKN008 OVC017 08/07 A2946 1400 93 900 280/20G26 RMK AO2 PK WND 27026/0409 CIG 005V010 P0003 T00780067
04850KAOH AOH20160406231515904/06/16 23:15:31  5-MIN KAOH 070415Z AUTO 28020G26KT 10SM -RA SCT008 BKN011 OVC027 08/06 A2947 1400 89 900 280/20G26 RMK AO2 PK WND 28026/0414 P0003 T00780061
04850KAOH AOH20160406232015904/06/16 23:20:31  5-MIN KAOH 070420Z AUTO 27015G26KT 10SM -RA SCT008 BKN011 OVC027 08/06 A2947 1400 89 900 280/15G26 RMK AO2 PK WND 28026/0414 P0004 T00780061
04850KAOH AOH20160406232515304/06/16 23:25:31  5-MIN KAOH 070425Z AUTO 27019KT 10SM -RA SCT008 BKN015 OVC022 08/06 A2947 1400 89 900 280/19 RMK AO2 PK WND 28026/0414 P0004 T00780061
04850KAOH AOH20160406233015304/06/16 23:30:31  5-MIN KAOH 070430Z AUTO 27017KT 10SM -RA SCT008 BKN015 OVC033 08/06 A2947 1400 89 900 280/17 RMK AO2 PK WND 28026/0414 P0004 T00780061
04850KAOH AOH20160406233515904/06/16 23:35:31  5-MIN KAOH 070435Z AUTO 27014G23KT 10SM -RA SCT010 BKN020 OVC047 08/06 A2947 1400 89 900 270/14G23 RMK AO2 PK WND 28026/0414 P0004 T00780061
04850KAOH AOH20160406234015304/06/16 23:40:31  5-MIN KAOH 070440Z AUTO 26014KT 10SM -RA FEW010 BKN035 OVC047 07/06 A2947 1400 93 800 270/14 RMK AO2 PK WND 28026/0414 P0004 T00720061
04850KAOH AOH20160406234515904/06/16 23:45:31  5-MIN KAOH 070445Z AUTO 26012G21KT 10SM -RA FEW009 SCT035 OVC047 07/06 A2947 1400 93 800 270/12G21 RMK AO2 PK WND 28026/0414 P0005 T00720061
04850KAOH AOH20160406235017004/06/16 23:50:31  5-MIN KAOH 070450Z AUTO 27013KT 10SM -RA FEW014 FEW035 OVC045 07/06 A2947 1400 93 800 270/13 RMK AO2 PK WND 28026/0414 SLP979 P0005 T00720061 401720017
04850KAOH AOH20160406235512804/06/16 23:55:31  5-MIN KAOH 070455Z AUTO 27014KT 10SM -RA FEW035 OVC045 07/06 A2947 1400 93 800 280/14 RMK AO2 P0001 T00720061
04850KAOH AOH20160407000012004/07/16 00:00:31  5-MIN KAOH 070500Z AUTO 27011KT 9SM -RA OVC043 07/06 A2946 1400 93 800 280/11 RMK AO2 P0001 T00720061
04850KAOH AOH20160407000513404/07/16 00:05:31  5-MIN KAOH 070505Z AUTO 26013KT 9SM -RA FEW015 SCT036 OVC043 07/06 A2947 1400 93 800 270/13 RMK AO2 P0002 T00720061
04850KAOH AOH20160407001013504/07/16 00:10:31  5-MIN KAOH 070510Z AUTO 25014KT 10SM -RA FEW011 BKN035 OVC041 07/06 A2947 1390 93 800 260/14 RMK AO2 P0002 T00720061
04850KAOH AOH20160407001513504/07/16 00:15:31  5-MIN KAOH 070515Z AUTO 24016KT 10SM -RA SCT009 BKN013 OVC041 07/06 A2947 1390 93 800 250/16 RMK AO2 P0003 T00720061
04850KAOH AOH20160407002014104/07/16 00:20:31  5-MIN KAOH 070520Z AUTO 25017G23KT 10SM -RA BKN009 BKN017 OVC041 07/06 A2948 1390 93 800 260/17G23 RMK AO2 P0003 T00720061
04850KAOH AOH20160407002515804/07/16 00:25:31  5-MIN KAOH 070525Z AUTO 25017G26KT 10SM RA SCT009 BKN015 OVC038 07/06 A2948 1390 89 800 260/17G26 RMK AO2 PK WND 24026/0521 P0004 T00720056
04850KAOH AOH20160407003015904/07/16 00:30:31  5-MIN KAOH 070530Z AUTO 24017G26KT 10SM -RA SCT011 BKN015 OVC033 07/06 A2948 1390 89 800 250/17G26 RMK AO2 PK WND 24026/0521 P0005 T00720056
04850KAOH AOH20160407003515304/07/16 00:35:31  5-MIN KAOH 070535Z AUTO 24016KT 10SM -RA SCT009 BKN019 OVC037 07/06 A2948 1390 93 800 250/16 RMK AO2 PK WND 24026/0521 P0005 T00670056
04850KAOH AOH20160407004015904/07/16 00:40:31  5-MIN KAOH 070540Z AUTO 25019G23KT 10SM -RA FEW009 SCT014 OVC035 07/06 A2948 1390 93 800 250/19G23 RMK AO2 PK WND 24026/0521 P0006 T00670056
04850KAOH AOH20160407004515704/07/16 00:45:31  5-MIN KAOH 070545Z AUTO 25015G23KT 9SM RA FEW009 SCT019 OVC035 07/06 A2948 1380 93 800 250/15G23 RMK AO2 PK WND 24026/0521 P0007 T00670056
04850KAOH AOH20160407005018304/07/16 00:50:31  5-MIN KAOH 070550Z AUTO 25016KT 8SM -RA FEW012 SCT025 OVC034 07/06 A2948 1390 93 800 250/16 RMK AO2 PK WND 24026/0521 SLP983 P0008 60035 T00670056 10106 20067 58002
04850KAOH AOH20160407005513404/07/16 00:55:31  5-MIN KAOH 070555Z AUTO 24014KT 9SM -RA FEW012 SCT027 OVC034 07/06 A2948 1390 93 800 250/14 RMK AO2 P0000 T00670056
04850KAOH AOH20160407010013504/07/16 01:00:31  5-MIN KAOH 070600Z AUTO 24013KT 10SM -RA FEW009 SCT026 OVC034 07/06 A2948 1390 93 800 250/13 RMK AO2 P0001 T00670056
04850KAOH AOH20160407010513504/07/16 01:05:31  5-MIN KAOH 070605Z AUTO 24013KT 10SM -RA FEW009 BKN026 OVC034 07/06 A2948 1390 93 800 250/13 RMK AO2 P0001 T00670056
04850KAOH AOH20160407011014004/07/16 01:10:31  5-MIN KAOH 070610Z AUTO 25015KT 10SM -RA FEW011 BKN028 OVC034 07/06 A2948 1390 93 800 260/15 RMK AO2 P0001 T00670056 TSNO
04850KAOH AOH20160407011513504/07/16 01:15:31  5-MIN KAOH 070615Z AUTO 25014KT 10SM -RA FEW011 BKN030 OVC036 07/06 A2948 1390 93 800 260/14 RMK AO2 P0002 T00670056
04850KAOH AOH20160407012013504/07/16 01:20:31  5-MIN KAOH 070620Z AUTO 25014KT 10SM -RA FEW011 BKN028 OVC036 07/06 A2948 1390 93 800 250/14 RMK AO2 P0002 T00670056
04850KAOH AOH20160407012513504/07/16 01:25:31  5-MIN KAOH 070625Z AUTO 25014KT 10SM -RA SCT011 BKN026 OVC032 07/06 A2948 1390 93 800 260/14 RMK AO2 P0003 T00670056
04850KAOH AOH20160407013013504/07/16 01:30:31  5-MIN KAOH 070630Z AUTO 25012KT 10SM -RA SCT011 BKN020 OVC032 07/06 A2948 1390 93 800 250/12 RMK AO2 P0003 T00670056
04850KAOH AOH20160407013513504/07/16 01:35:31  5-MIN KAOH 070635Z AUTO 24014KT 10SM -RA SCT011 BKN023 OVC032 07/06 A2947 1390 93 800 250/14 RMK AO2 P0003 T00670056
04850KAOH AOH20160407014013504/07/16 01:40:31  5-MIN KAOH 070640Z AUTO 25013KT 10SM -RA SCT009 BKN018 OVC035 07/06 A2947 1390 93 800 260/13 RMK AO2 P0004 T00670056
04850KAOH AOH20160407014514004/07/16 01:45:31  5-MIN KAOH 070645Z AUTO 25014G21KT 8SM -RA SCT009 BKN013 OVC033 07/06 A2948 1390 93 800 250/14G21 RMK AO2 P0005 T00670056
04850KAOH AOH20160407015016504/07/16 01:50:31  5-MIN KAOH 070650Z AUTO 26018G26KT 9SM -RA BKN009 BKN013 OVC021 07/06 A2948 1390 93 800 270/18G26 RMK AO2 PK WND 25026/0647 SLP982 P0005 T00670056
04850KAOH AOH20160407015514104/07/16 01:55:31  5-MIN KAOH 070655Z AUTO 27019G26KT 10SM -RA SCT009 BKN014 OVC022 07/06 A2948 1390 93 800 280/19G26 RMK AO2 P0000 T00670056
04850KAOH AOH20160407020014104/07/16 02:00:31  5-MIN KAOH 070700Z AUTO 27017G23KT 10SM -RA FEW009 BKN014 OVC024 07/05 A2948 1390 89 800 280/17G23 RMK AO2 P0001 T00670050
04850KAOH AOH20160407020513504/07/16 02:05:31  5-MIN KAOH 070705Z AUTO 27014KT 10SM -RA FEW009 BKN012 OVC022 07/06 A2948 1390 93 800 280/14 RMK AO2 P0001 T00670056
04850KAOH AOH20160407021014104/07/16 02:10:31  5-MIN KAOH 070710Z AUTO 28016G23KT 10SM -RA SCT009 BKN014 OVC022 07/05 A2948 1380 89 800 280/16G23 RMK AO2 P0001 T00670050
04850KAOH AOH20160407021514104/07/16 02:15:31  5-MIN KAOH 070715Z AUTO 30015G23KT 10SM -RA SCT009 BKN014 OVC022 07/05 A2949 1380 89 700 300/15G23 RMK AO2 P0002 T00670050
04850KAOH AOH20160407022013504/07/16 02:20:31  5-MIN KAOH 070720Z AUTO 29014KT 10SM -RA SCT012 BKN022 OVC035 07/05 A2949 1380 89 700 300/14 RMK AO2 P0002 T00670050
04850KAOH AOH20160407022513404/07/16 02:25:31  5-MIN KAOH 070725Z AUTO 29013KT 9SM -RA SCT012 BKN022 OVC035 06/04 A2949 1380 89 700 300/13 RMK AO2 P0003 T00610044
04850KAOH AOH20160407023014104/07/16 02:30:31  5-MIN KAOH 070730Z AUTO 30012G19KT 10SM -RA SCT012 BKN022 OVC037 06/05 A2949 1380 93 700 310/12G19 RMK AO2 P0003 T00610050
04850KAOH AOH20160407023513504/07/16 02:35:31  5-MIN KAOH 070735Z AUTO 30013KT 10SM -RA SCT012 BKN022 OVC037 06/04 A2949 1380 89 700 310/13 RMK AO2 P0003 T00610044
04850KAOH AOH20160407024013404/07/16 02:40:31  5-MIN KAOH 070740Z AUTO 30013KT 9SM -RA FEW012 BKN022 OVC035 06/04 A2949 1380 89 700 310/13 RMK AO2 P0004 T00610044
04850KAOH AOH20160407024513304/07/16 02:45:31  5-MIN KAOH 070745Z AUTO 30012KT 8SM RA FEW012 SCT022 OVC033 06/04 A2949 1370 89 600 310/12 RMK AO2 P0005 T00560039
04850KAOH AOH20160407025014104/07/16 02:50:31  5-MIN KAOH 070750Z AUTO 28009KT 7SM -RA FEW012 BKN022 OVC033 06/04 A2949 1370 92 600 290/09 RMK AO2 SLP988 P0005 T00560044
04850KAOH AOH20160407025513404/07/16 02:55:31  5-MIN KAOH 070755Z AUTO 28011KT 8SM -RA SCT012 BKN017 OVC034 06/04 A2949 1370 92 600 280/11 RMK AO2 P0000 T00560044
04850KAOH AOH20160407030013404/07/16 03:00:31  5-MIN KAOH 070800Z AUTO 28011KT 8SM -RA SCT012 BKN019 OVC035 06/04 A2949 1370 92 600 290/11 RMK AO2 P0000 T00560044
04850KAOH AOH20160407030513504/07/16 03:05:31  5-MIN KAOH 070805Z AUTO 28009KT 10SM -RA FEW012 SCT017 OVC037 06/04 A2949 1380 92 600 280/09 RMK AO2 P0000 T00560044
04850KAOH AOH20160407031013504/07/16 03:10:31  5-MIN KAOH 070810Z AUTO 27011KT 10SM -RA FEW010 BKN016 OVC037 06/04 A2949 1380 92 600 280/11 RMK AO2 P0000 T00560044
04850KAOH AOH20160407031513504/07/16 03:15:31  5-MIN KAOH 070815Z AUTO 27010KT 10SM -RA FEW010 BKN016 OVC050 06/04 A2949 1380 92 600 270/10 RMK AO2 P0000 T00560044
04850KAOH AOH20160407032013504/07/16 03:20:31  5-MIN KAOH 070820Z AUTO 26009KT 10SM -RA FEW012 BKN039 OVC050 06/04 A2949 1380 89 600 270/09 RMK AO2 P0000 T00560039
04850KAOH AOH20160407032513504/07/16 03:25:31  5-MIN KAOH 070825Z AUTO 26009KT 10SM -RA FEW015 BKN046 OVC055 06/04 A2949 1380 89 600 270/09 RMK AO2 P0000 T00560039
04850KAOH AOH20160407033013704/07/16 03:30:31  5-MIN KAOH 070830Z AUTO 25009KT 10SM FEW015 BKN043 OVC055 06/04 A2949 1380 89 600 250/09 RMK AO2 RAE28 P0000 T00560039
04850KAOH AOH20160407033513704/07/16 03:35:31  5-MIN KAOH 070835Z AUTO 25008KT 10SM FEW015 BKN047 OVC055 06/04 A2949 1380 89 600 260/08 RMK AO2 RAE28 P0000 T00560039
04850KAOH AOH20160407034013004/07/16 03:40:31  5-MIN KAOH 070840Z AUTO 25007KT 10SM BKN035 OVC047 06/04 A2949 1380 89 600 260/07 RMK AO2 RAE28 P0000 T00560039
04850KAOH AOH20160407034513004/07/16 03:45:31  5-MIN KAOH 070845Z AUTO 25007KT 10SM BKN033 OVC045 06/04 A2949 1380 89 600 260/07 RMK AO2 RAE28 P0000 T00560039
04850KAOH AOH20160407035014904/07/16 03:50:31  5-MIN KAOH 070850Z AUTO 25007KT 10SM BKN033 OVC043 06/04 A2949 1380 89 600 260/07 RMK AO2 RAE28 SLP986 P0000 60011 T00560039 53009
04850KAOH AOH20160407035511804/07/16 03:55:31  5-MIN KAOH 070855Z AUTO 25006KT 10SM BKN033 OVC042 06/04 A2949 1380 92 600 260/06 RMK AO2 T00560044
04850KAOH AOH20160407040011804/07/16 04:00:31  5-MIN KAOH 070900Z AUTO 24006KT 10SM BKN030 OVC036 06/04 A2949 1380 92 600 250/06 RMK AO2 T00560044
04850KAOH AOH20160407040511104/07/16 04:05:31  5-MIN KAOH 070905Z AUTO 22006KT 10SM OVC030 06/04 A2949 1380 92 600 230/06 RMK AO2 T00560044
04850KAOH AOH20160407041012704/07/16 04:10:31  5-MIN KAOH 070910Z AUTO 22006KT 10SM -RA OVC030 06/04 A2949 1380 92 600 220/06 RMK AO2 RAB07 P0000 T00560044
04850KAOH AOH20160407041512704/07/16 04:15:31  5-MIN KAOH 070915Z AUTO 23006KT 10SM -RA OVC030 06/04 A2949 1380 89 600 230/06 RMK AO2 RAB07 P0000 T00560039
04850KAOH AOH20160407042012604/07/16 04:20:31  5-MIN KAOH 070920Z AUTO 22005KT 10SM OVC028 06/04 A2949 1380 92 600 230/05 RMK AO2 RAB07E18 P0000 T00560044
04850KAOH AOH20160407042513304/07/16 04:25:31  5-MIN KAOH 070925Z AUTO 21006KT 10SM BKN025 OVC030 06/04 A2949 1380 92 600 220/06 RMK AO2 RAB07E18 P0000 T00560044
04850KAOH AOH20160407043013304/07/16 04:30:31  5-MIN KAOH 070930Z AUTO 20005KT 8SM -RA BKN025 OVC032 06/04 A2949 1380 92 600 200/05 RMK AO2 RAB07 P0001 T00560044
04850KAOH AOH20160407043513304/07/16 04:35:31  5-MIN KAOH 070935Z AUTO 20005KT 8SM -RA BKN025 OVC032 06/04 A2948 1380 92 600 200/05 RMK AO2 RAB07 P0001 T00560044
04850KAOH AOH20160407044012704/07/16 04:40:31  5-MIN KAOH 070940Z AUTO 20004KT 10SM -RA OVC027 05/04 A2948 1380 96 600 200/04 RMK AO2 RAB07 P0001 T00500044
04850KAOH AOH20160407044512704/07/16 04:45:31  5-MIN KAOH 070945Z AUTO 20005KT 10SM -RA OVC025 06/04 A2948 1380 92 600 210/05 RMK AO2 RAB07 P0001 T00560044
04850KAOH AOH20160407045013304/07/16 04:50:31  5-MIN KAOH 070950Z AUTO 21005KT 8SM -RA OVC025 06/04 A2948 1390 92 600 210/05 RMK AO2 RAB07 SLP984 P0001 T00560044
04850KAOH AOH20160407045512704/07/16 04:55:31  5-MIN KAOH 070955Z AUTO 20004KT 7SM -RA BKN023 OVC032 05/04 A2948 1390 96 600 200/04 RMK AO2 P0000 T00500044
04850KAOH AOH20160407050013004/07/16 05:00:31  5-MIN KAOH 071000Z AUTO 20003KT 6SM -RA BR BKN023 OVC030 05/04 A2948 1390 96 600 200/03 RMK AO2 P0001 T00500044
04850KAOH AOH20160407050513704/07/16 05:05:31  5-MIN KAOH 071005Z AUTO 20005KT 5SM -RA BR FEW008 BKN021 OVC028 05/04 A2948 1390 96 600 200/05 RMK AO2 P0001 T00500044
04850KAOH AOH20160407051013704/07/16 05:10:31  5-MIN KAOH 071010Z AUTO 19006KT 5SM -RA BR SCT008 BKN021 OVC028 05/04 A2948 1390 96 600 200/06 RMK AO2 P0002 T00500044
04850KAOH AOH20160407051513704/07/16 05:15:31  5-MIN KAOH 071015Z AUTO 20004KT 6SM -RA BR SCT008 BKN017 OVC028 06/04 A2948 1390 92 600 210/04 RMK AO2 P0002 T00560044
04850KAOH AOH20160407052013704/07/16 05:20:31  5-MIN KAOH 071020Z AUTO 19005KT 6SM -RA BR BKN008 BKN017 OVC029 05/04 A2948 1390 96 600 200/05 RMK AO2 P0003 T00500044
04850KAOH AOH20160407052513704/07/16 05:25:31  5-MIN KAOH 071025Z AUTO 21005KT 5SM -RA BR BKN009 BKN015 OVC027 05/04 A2948 1390 96 600 220/05 RMK AO2 P0003 T00500044
04850KAOH AOH20160407053014204/07/16 05:30:31  5-MIN KAOH 071030Z AUTO 22004KT 5SM -RA BR BKN009 OVC015 06/05 A2948 1380 96 600 220/04 RMK AO2 CIG 006V012 P0003 T00560050
04850KAOH AOH20160407053514204/07/16 05:35:31  5-MIN KAOH 071035Z AUTO 23006KT 6SM -RA BR BKN008 OVC015 06/05 A2948 1380 96 600 240/06 RMK AO2 CIG 006V012 P0003 T00560050
04850KAOH AOH20160407054013004/07/16 05:40:31  5-MIN KAOH 071040Z AUTO 24006KT 6SM -RA BR SCT008 OVC015 06/05 A2948 1390 96 600 250/06 RMK AO2 P0004 T00560050
04850KAOH AOH20160407054513004/07/16 05:45:31  5-MIN KAOH 071045Z AUTO 23006KT 6SM -RA BR FEW008 OVC015 06/05 A2948 1390 96 600 240/06 RMK AO2 P0004 T00560050
04850KAOH AOH20160407055014404/07/16 05:50:31  5-MIN KAOH 071050Z AUTO 23005KT 6SM -RA BR FEW008 BKN015 OVC024 06/05 A2948 1390 96 600 230/05 RMK AO2 SLP982 P0005 T00560050
04850KAOH AOH20160407055513404/07/16 05:55:31  5-MIN KAOH 071055Z AUTO 24006KT 9SM -RA FEW007 BKN015 OVC027 06/05 A2948 1390 96 600 250/06 RMK AO2 P0000 T00560050
04850KAOH AOH20160407060013504/07/16 06:00:31  5-MIN KAOH 071100Z AUTO 25005KT 10SM -RA SCT015 BKN025 OVC030 06/05 A2948 1390 96 600 250/05 RMK AO2 P0000 T00560050
04850KAOH AOH20160407060512804/07/16 06:05:31  5-MIN KAOH 071105Z AUTO 25005KT 10SM -RA FEW015 OVC025 06/05 A2948 1390 96 600 250/05 RMK AO2 P0000 T00560050
04850KAOH AOH20160407061012804/07/16 06:10:31  5-MIN KAOH 071110Z AUTO 24006KT 10SM -RA FEW015 OVC025 06/05 A2948 1390 96 600 250/06 RMK AO2 P0000 T00560050
04850KAOH AOH20160407061512104/07/16 06:15:31  5-MIN KAOH 071115Z AUTO 24005KT 10SM -RA OVC025 06/05 A2948 1390 96 600 250/05 RMK AO2 P0000 T00560050
04850KAOH AOH20160407062012104/07/16 06:20:31  5-MIN KAOH 071120Z AUTO 24006KT 10SM -RA OVC023 06/05 A2948 1390 96 600 250/06 RMK AO2 P0000 T00560050
04850KAOH AOH20160407062512104/07/16 06:25:31  5-MIN KAOH 071125Z AUTO 24007KT 10SM -RA OVC023 06/05 A2947 1390 96 600 250/07 RMK AO2 P0000 T00560050
04850KAOH AOH20160407063012104/07/16 06:30:31  5-MIN KAOH 071130Z AUTO 24007KT 10SM -RA OVC021 06/05 A2947 1390 96 600 250/07 RMK AO2 P0000 T00560050
04850KAOH AOH20160407063512104/07/16 06:35:31  5-MIN KAOH 071135Z AUTO 24007KT 10SM -RA OVC021 06/05 A2947 1390 96 600 250/07 RMK AO2 P0000 T00560050
04850KAOH AOH20160407064012104/07/16 06:40:31  5-MIN KAOH 071140Z AUTO 24007KT 10SM -RA OVC021 06/05 A2947 1400 96 600 250/07 RMK AO2 P0000 T00560050
04850KAOH AOH20160407064512104/07/16 06:45:31  5-MIN KAOH 071145Z AUTO 24008KT 10SM -RA OVC019 06/05 A2947 1400 96 600 240/08 RMK AO2 P0000 T00560050
04850KAOH AOH20160407065016004/07/16 06:50:31  5-MIN KAOH 071150Z AUTO 25006KT 10SM OVC019 06/05 A2947 1400 96 600 250/06 RMK AO2 RAE50 SLP982 P0000 60017 70065 T00560050 10067 20050 50004
04850KAOH AOH20160407065511104/07/16 06:55:31  5-MIN KAOH 071155Z AUTO 25006KT 10SM OVC019 06/05 A2947 1400 96 600 250/06 RMK AO2 T00560050
04850KAOH AOH20160407070012704/07/16 07:00:31  5-MIN KAOH 071200Z AUTO 24006KT 10SM -RA OVC018 06/05 A2947 1400 93 700 250/06 RMK AO2 RAB00 P0000 T00610050
04850KAOH AOH20160407070512604/07/16 07:05:31  5-MIN KAOH 071205Z AUTO 25006KT 9SM -RA OVC018 06/05 A2947 1400 93 700 260/06 RMK AO2 RAB00 P0000 T00610050
04850KAOH AOH20160407071012604/07/16 07:10:31  5-MIN KAOH 071210Z AUTO 25009KT 9SM -RA OVC018 06/05 A2947 1400 93 700 250/09 RMK AO2 RAB00 P0000 T00610050
04850KAOH AOH20160407071513304/07/16 07:15:31  5-MIN KAOH 071215Z AUTO 26013KT 7SM -RA FEW010 OVC017 06/05 A2947 1400 93 700 260/13 RMK AO2 RAB00 P0001 T00610050
04850KAOH AOH20160407072013604/07/16 07:20:31  5-MIN KAOH 071220Z AUTO 26015KT 6SM -RA BR SCT010 OVC017 06/05 A2947 1400 93 700 270/15 RMK AO2 RAB00 P0001 T00610050
04850KAOH AOH20160407072514304/07/16 07:25:31  5-MIN KAOH 071225Z AUTO 26013KT 5SM -RA BR SCT010 BKN017 OVC022 06/05 A2947 1390 93 700 270/13 RMK AO2 RAB00 P0001 T00610050
04850KAOH AOH20160407073014204/07/16 07:30:31  5-MIN KAOH 071230Z AUTO 26015KT 4SM RA BR SCT010 BKN016 OVC024 06/05 A2947 1390 93 700 260/15 RMK AO2 RAB00 P0002 T00610050
04850KAOH AOH20160407073514304/07/16 07:35:31  5-MIN KAOH 071235Z AUTO 27016KT 5SM -RA BR BKN010 BKN017 OVC028 06/04 A2947 1390 92 600 270/16 RMK AO2 RAB00 P0002 T00560044
04850KAOH AOH20160407074014304/07/16 07:40:31  5-MIN KAOH 071240Z AUTO 27015KT 5SM -RA BR SCT010 BKN017 OVC030 06/04 A2947 1390 92 600 280/15 RMK AO2 RAB00 P0003 T00560044
04850KAOH AOH20160407074514304/07/16 07:45:31  5-MIN KAOH 071245Z AUTO 27014KT 5SM -RA BR FEW009 BKN023 OVC030 06/04 A2947 1400 92 600 280/14 RMK AO2 RAB00 P0004 T00560044
04850KAOH AOH20160407075013904/07/16 07:50:31  5-MIN KAOH 071250Z AUTO 27017G22KT 6SM -RA BR SCT009 BKN021 OVC029 06/04 A2947 1390 92 600 280/17G22 RMK AO2 RAB00 P0004
04850KAOH AOH20160407075516104/07/16 07:55:31  5-MIN KAOH 071255Z AUTO 28021G27KT 6SM -RA BR SCT009 BKN014 OVC029 06/04 A2948 1390 92 600 290/21G27 RMK AO2 PK WND 28026/1255 P0000 T00560044
04850KAOH AOH20160407080016104/07/16 08:00:31  5-MIN KAOH 071300Z AUTO 30017G27KT 6SM -RA BR BKN009 BKN017 OVC029 05/04 A2948 1390 92 600 310/17G27 RMK AO2 PK WND 28026/1255 P0001 T00500039
04850KAOH AOH20160407080515204/07/16 08:05:31  5-MIN KAOH 071305Z AUTO 31016KT 8SM -RA BKN009 BKN016 OVC029 05/03 A2948 1380 89 600 310/16 RMK AO2 PK WND 28026/1255 P0001 T00500033
04850KAOH AOH20160407081015204/07/16 08:10:31  5-MIN KAOH 071310Z AUTO 30014KT 9SM -RA BKN009 BKN013 OVC020 05/03 A2948 1390 89 600 310/14 RMK AO2 PK WND 28026/1255 P0001 T00500033
04850KAOH AOH20160407081514604/07/16 08:15:31  5-MIN KAOH 071315Z AUTO 30014KT 10SM -RA BKN009 OVC013 05/04 A2948 1390 92 600 310/14 RMK AO2 PK WND 28026/1255 P0001 T00500039
04850KAOH AOH20160407082015304/07/16 08:20:31  5-MIN KAOH 071320Z AUTO 30014KT 10SM -RA SCT009 BKN013 OVC027 05/03 A2948 1380 89 500 310/14 RMK AO2 PK WND 28026/1255 P0001 T00500033
04850KAOH AOH20160407082515304/07/16 08:25:31  5-MIN KAOH 071325Z AUTO 29013KT 10SM -RA BKN009 BKN013 OVC023 05/03 A2949 1380 89 500 300/13 RMK AO2 PK WND 28026/1255 P0001 T00500033
04850KAOH AOH20160407083014604/07/16 08:30:31  5-MIN KAOH 071330Z AUTO 30014KT 10SM -RA BKN010 OVC013 05/03 A2948 1380 89 500 300/14 RMK AO2 PK WND 28026/1255 P0001 T00500033
04850KAOH AOH20160407083514604/07/16 08:35:31  5-MIN KAOH 071335Z AUTO 30015KT 10SM -RA BKN010 OVC014 05/03 A2948 1380 89 500 300/15 RMK AO2 PK WND 28026/1255 P0001 T00500033
04850KAOH AOH20160407084013904/07/16 08:40:31  5-MIN KAOH 071340Z AUTO 29012KT 10SM -RA OVC012 05/03 A2949 1380 89 500 300/12 RMK AO2 PK WND 28026/1255 P0001 T00500033
04850KAOH AOH20160407084513904/07/16 08:45:31  5-MIN KAOH 071345Z AUTO 30015KT 10SM -RA OVC012 05/03 A2949 1380 89 500 300/15 RMK AO2 PK WND 28026/1255 P0001 T00500033
04850KAOH AOH20160407085014604/07/16 08:50:31  5-MIN KAOH 071350Z AUTO 28012KT 10SM -RA OVC012 05/03 A2949 1380 89 500 290/12 RMK AO2 PK WND 28026/1255 SLP988 P0002 T00500033
04850KAOH AOH20160407085515304/07/16 08:55:31  5-MIN KAOH 071355Z AUTO 28014G21KT 10SM -RA BKN010 BKN014 OVC033 05/03 A2949 1380 89 500 290/14G21 RMK AO2 CIG 008V012 P0000 T00500033
04850KAOH AOH20160407090014504/07/16 09:00:31  5-MIN KAOH 071400Z AUTO 28014G21KT 10SM BKN010 BKN016 OVC026 05/03 A2949 1370 89 500 280/14G21 RMK AO2 RAE1358 P0000 T00500033
04850KAOH AOH20160407090513904/07/16 09:05:31  5-MIN KAOH 071405Z AUTO 28012KT 10SM SCT010 BKN016 OVC034 05/03 A2950 1370 89 500 290/12 RMK AO2 RAE1358 P0000 T00500033
04850KAOH AOH20160407091013904/07/16 09:10:31  5-MIN KAOH 071410Z AUTO 28012KT 10SM SCT011 BKN016 OVC034 05/03 A2950 1370 89 500 290/12 RMK AO2 RAE1358 P0000 T00500033
04850KAOH AOH20160407091514504/07/16 09:15:31  5-MIN KAOH 071415Z AUTO 29015G19KT 10SM SCT011 BKN017 OVC025 05/03 A2950 1370 85 500 290/15G19 RMK AO2 RAE1358 P0000 T00500028
04850KAOH AOH20160407092014504/07/16 09:20:31  5-MIN KAOH 071420Z AUTO 29012G19KT 10SM SCT013 BKN019 OVC025 05/03 A2950 1370 85 500 290/12G19 RMK AO2 RAE1358 P0000 T00500028
04850KAOH AOH20160407092514504/07/16 09:25:31  5-MIN KAOH 071425Z AUTO 28013KT 7SM -RA BKN013 BKN019 OVC025 05/03 A2950 1370 89 500 290/13 RMK AO2 RAE1358B23 P0000 T00500033
04850KAOH AOH20160407093014804/07/16 09:30:31  5-MIN KAOH 071430Z AUTO 29010KT 5SM -RA BR SCT010 BKN013 OVC027 04/03 A2950 1370 92 500 290/10 RMK AO2 RAE1358B23 P0000 T00440033
04850KAOH AOH20160407093515404/07/16 09:35:31  5-MIN KAOH 071435Z AUTO 29014G19KT 4SM -RA BR BKN010 BKN013 OVC019 04/03 A2950 1370 92 500 290/14G19 RMK AO2 RAE1358B23 P0000 T00440033
04850KAOH AOH20160407094014704/07/16 09:40:31  5-MIN KAOH 071440Z AUTO 29012G19KT 6SM -RA BR BKN010 OVC018 04/03 A2950 1370 89 500 300/12G19 RMK AO2 RAE1358B23 P0000 T00440028
04850KAOH AOH20160407094514604/07/16 09:45:31  5-MIN KAOH 071445Z AUTO 29012KT 10SM -RA SCT010 BKN014 OVC020 04/03 A2950 1370 89 500 290/12 RMK AO2 RAE1358B23 P0000 T00440028
04850KAOH AOH20160407095016404/07/16 09:50:31  5-MIN KAOH 071450Z AUTO 28014KT 10SM SCT010 BKN014 OVC023 04/03 A2950 1370 89 500 280/14 RMK AO2 RAE1358B23E46 SLP994 P0000 60006 T00440028 56007
04850KAOH AOH20160407095513104/07/16 09:55:31  5-MIN KAOH 071455Z AUTO 28013G19KT 10SM FEW010 BKN014 OVC040 04/03 A2950 1360 89 500 290/13G19 RMK AO2 T00440028
04850KAOH AOH20160407100013104/07/16 10:00:31  5-MIN KAOH 071500Z AUTO 28015G20KT 10SM BKN014 BKN022 OVC040 04/03 A2951 1360 89 500 290/15G20 RMK AO2 T00440028
04850KAOH AOH20160407100511804/07/16 10:05:31  5-MIN KAOH 071505Z AUTO 28012KT 10SM BKN014 OVC022 04/02 A2951 1360 85 500 290/12 RMK AO2 T00440022
04850KAOH AOH20160407101012404/07/16 10:10:31  5-MIN KAOH 071510Z AUTO 29016G21KT 10SM BKN014 OVC022 04/02 A2951 1360 85 500 290/16G21 RMK AO2 T00440022
04850KAOH AOH20160407101512404/07/16 10:15:31  5-MIN KAOH 071515Z AUTO 28016G23KT 10SM BKN014 OVC024 04/02 A2951 1360 85 400 290/16G23 RMK AO2 T00440022
04850KAOH AOH20160407102013304/07/16 10:20:31  5-MIN KAOH 071520Z AUTO 31019G24KT 10SM -RA OVC012 03/02 A2952 1350 89 300 320/19G24 RMK AO2 RAB19 P0000 T00330017
04850KAOH AOH20160407102513304/07/16 10:25:31  5-MIN KAOH 071525Z AUTO 31014G24KT 10SM -RA OVC012 03/02 A2952 1350 89 300 320/14G24 RMK AO2 RAB19 P0000 T00330017
04850KAOH AOH20160407103012704/07/16 10:30:31  5-MIN KAOH 071530Z AUTO 31013KT 10SM -RA OVC014 03/02 A2952 1350 89 300 320/13 RMK AO2 RAB19 P0000 T00330017
04850KAOH AOH20160407103512604/07/16 10:35:31  5-MIN KAOH 071535Z AUTO 30015KT 10SM OVC014 03/01 A2952 1350 85 300 310/15 RMK AO2 RAB19E33 P0000 T00330011
04850KAOH AOH20160407104012604/07/16 10:40:31  5-MIN KAOH 071540Z AUTO 30016KT 10SM OVC014 03/01 A2952 1350 85 300 310/16 RMK AO2 RAB19E33 P0000 T00330011
04850KAOH AOH20160407104513204/07/16 10:45:31  5-MIN KAOH 071545Z AUTO 30012G19KT 10SM OVC014 03/02 A2953 1340 89 300 310/12G19 RMK AO2 RAB19E33 P0000 T00330017
04850KAOH AOH20160407105012204/07/16 10:50:31  5-MIN KAOH 071550Z AUTO 30014G20KT 10SM OVC015 03/02 A2953 1340 89 300 310/14G20 RMK AO2 RAB19E33 P0000
04850KAOH AOH20160407105512104/07/16 10:55:31  5-MIN KAOH 071555Z AUTO 30016KT 10SM -RA OVC015 03/02 A2953 1340 89 300 310/16 RMK AO2 P0000 T00330017
04850KAOH AOH20160407110012004/07/16 11:00:31  5-MIN KAOH 071600Z AUTO 30011KT 8SM -RA OVC015 03/02 A2953 1340 89 300 310/11 RMK AO2 P0000 T00330017
04850KAOH AOH20160407110512904/07/16 11:05:31  5-MIN KAOH 071605Z AUTO 29014G19KT 6SM -RA BR OVC013 03/02 A2953 1340 92 200 300/14G19 RMK AO2 P0001 T00280017
04850KAOH AOH20160407111012704/07/16 11:10:31  5-MIN KAOH 071610Z AUTO 29014KT 7SM -RA BKN013 OVC026 03/02 A2953 1340 92 200 290/14 RMK AO2 P0001 T00280017
04850KAOH AOH20160407111513504/07/16 11:15:31  5-MIN KAOH 071615Z AUTO 29011KT 10SM -RA BKN013 BKN017 OVC033 03/02 A2953 1340 89 300 300/11 RMK AO2 P0001 T00330017
04850KAOH AOH20160407112013704/07/16 11:20:31  5-MIN KAOH 071620Z AUTO 29013KT 10SM SCT011 BKN028 OVC035 03/02 A2953 1340 89 300 300/13 RMK AO2 RAE18 P0001 T00330017
04850KAOH AOH20160407112513704/07/16 11:25:31  5-MIN KAOH 071625Z AUTO 28012KT 10SM SCT011 BKN030 OVC039 03/02 A2953 1340 89 300 290/12 RMK AO2 RAE18 P0001 T00330017
04850KAOH AOH20160407113013704/07/16 11:30:31  5-MIN KAOH 071630Z AUTO 28011KT 10SM FEW011 BKN037 OVC046 03/02 A2953 1340 89 300 290/11 RMK AO2 RAE18 P0001 T00330017
04850KAOH AOH20160407113513704/07/16 11:35:31  5-MIN KAOH 071635Z AUTO 28011KT 10SM FEW013 BKN037 OVC046 04/02 A2953 1340 89 400 290/11 RMK AO2 RAE18 P0001 T00390022
04850KAOH AOH20160407114013704/07/16 11:40:31  5-MIN KAOH 071640Z AUTO 28010KT 10SM SCT013 BKN038 OVC046 04/02 A2953 1340 89 400 290/10 RMK AO2 RAE18 P0001 T00390022
04850KAOH AOH20160407114514304/07/16 11:45:31  5-MIN KAOH 071645Z AUTO 29015G19KT 10SM SCT015 BKN025 OVC046 04/02 A2953 1340 89 400 290/15G19 RMK AO2 RAE18 P0001 T00390022
04850KAOH AOH20160407115015004/07/16 11:50:31  5-MIN KAOH 071650Z AUTO 29016G19KT 10SM FEW015 BKN027 OVC046 04/01 A2953 1340 79 400 300/16G19 RMK AO2 RAE18 SLP004 P0001 T00440011
04850KAOH AOH20160407115512504/07/16 11:55:31  5-MIN KAOH 071655Z AUTO 28013KT 10SM FEW013 BKN025 OVC046 04/02 A2953 1340 82 400 290/13 RMK AO2 T00440017
04850KAOH AOH20160407120012504/07/16 12:00:31  5-MIN KAOH 071700Z AUTO 29011KT 10SM SCT015 BKN019 OVC046 04/02 A2953 1340 82 400 290/11 RMK AO2 T00440017
04850KAOH AOH20160407120513104/07/16 12:05:31  5-MIN KAOH 071705Z AUTO 29016G21KT 10SM SCT015 BKN022 OVC033 04/02 A2954 1330 82 400 300/16G21 RMK AO2 T00440017
04850KAOH AOH20160407121013104/07/16 12:10:31  5-MIN KAOH 071710Z AUTO 28014G21KT 10SM SCT019 BKN025 OVC033 04/01 A2954 1330 79 400 290/14G21 RMK AO2 T00440011
04850KAOH AOH20160407121512504/07/16 12:15:31  5-MIN KAOH 071715Z AUTO 29015KT 10SM SCT017 BKN024 OVC033 04/01 A2954 1330 79 400 300/15 RMK AO2 T00440011
04850KAOH AOH20160407122013104/07/16 12:20:31  5-MIN KAOH 071720Z AUTO 30014G23KT 10SM SCT019 BKN024 OVC033 04/01 A2954 1330 79 400 300/14G23 RMK AO2 T00440011
04850KAOH AOH20160407122513104/07/16 12:25:31  5-MIN KAOH 071725Z AUTO 29013G23KT 10SM SCT019 BKN024 OVC031 04/01 A2954 1330 79 300 300/13G23 RMK AO2 T00390006
04850KAOH AOH20160407123013104/07/16 12:30:31  5-MIN KAOH 071730Z AUTO 29015G21KT 10SM SCT019 BKN024 OVC031 04/01 A2954 1330 79 300 290/15G21 RMK AO2 T00390006
04850KAOH AOH20160407123513104/07/16 12:35:31  5-MIN KAOH 071735Z AUTO 28016G21KT 10SM BKN021 BKN026 OVC033 04/01 A2954 1330 79 300 280/16G21 RMK AO2 T00390006
04850KAOH AOH20160407124013104/07/16 12:40:31  5-MIN KAOH 071740Z AUTO 29014G23KT 10SM SCT019 BKN026 OVC033 04/01 A2954 1330 79 300 290/14G23 RMK AO2 T00390006
04850KAOH AOH20160407124513104/07/16 12:45:31  5-MIN KAOH 071745Z AUTO 29018G24KT 10SM FEW021 BKN031 OVC050 04/01 A2955 1330 76 400 300/18G24 RMK AO2 T00440006
04850KAOH AOH20160407125016204/07/16 12:50:31  5-MIN KAOH 071750Z AUTO 29014G24KT 10SM SCT019 BKN026 OVC050 04/01 A2955 1320 76 400 290/14G24 RMK AO2 SLP010 60007 T00440006 10061 20028 53012
04850KAOH AOH20160407125514704/07/16 12:55:31  5-MIN KAOH 071755Z AUTO 28018G25KT 10SM -RA BKN023 BKN029 OVC036 04/01 A2955 1330 79 300 290/18G25 RMK AO2 RAB54 P0000 T00390006
04850KAOH AOH20160407130014904/07/16 13:00:31  5-MIN KAOH 071800Z AUTO 28013G25KT 10SM -RA SCT020 BKN027 OVC036 04/01 A2955 1320 79 300 290/13G25 RMK AO2 RAB1754 P0000 T00390006
04850KAOH AOH20160407130514304/07/16 13:05:31  5-MIN KAOH 071805Z AUTO 28014KT 10SM -RA SCT020 BKN027 OVC034 04/01 A2955 1320 82 300 280/14 RMK AO2 RAB1754 P0000 T00390011
04850KAOH AOH20160407131014804/07/16 13:10:31  5-MIN KAOH 071810Z AUTO 29016G22KT 10SM SCT022 BKN031 OVC038 04/01 A2955 1320 79 300 290/16G22 RMK AO2 RAB1754E09 P0000 T00390006
04850KAOH AOH20160407131514204/07/16 13:15:31  5-MIN KAOH 071815Z AUTO 29015G22KT 10SM -RA BKN021 OVC031 04/01 A2955 1320 79 300 290/15G22 RMK AO2 RAB1754 P0000 T00390006
04850KAOH AOH20160407132014304/07/16 13:20:31  5-MIN KAOH 071820Z AUTO 27017KT 10SM -RA SCT019 BKN024 OVC045 04/01 A2955 1320 82 300 280/17 RMK AO2 RAB1754 P0000 T00390011
04850KAOH AOH20160407132514204/07/16 13:25:31  5-MIN KAOH 071825Z AUTO 29016KT 10SM SCT021 BKN029 OVC080 04/01 A2955 1320 79 400 290/16 RMK AO2 RAB1754E24 P0000 T00440011
04850KAOH AOH20160407133014804/07/16 13:30:31  5-MIN KAOH 071830Z AUTO 29018G22KT 10SM SCT021 BKN030 OVC080 04/01 A2955 1320 79 400 290/18G22 RMK AO2 RAB1754E24 P0000 T00440011
04850KAOH AOH20160407133514204/07/16 13:35:31  5-MIN KAOH 071835Z AUTO 28015KT 10SM SCT021 BKN030 OVC080 04/01 A2955 1320 76 400 290/15 RMK AO2 RAB1754E24 P0000 T00440006
04850KAOH AOH20160407134014204/07/16 13:40:31  5-MIN KAOH 071840Z AUTO 29015KT 10SM BKN023 BKN036 OVC080 04/01 A2955 1320 76 400 290/15 RMK AO2 RAB1754E24 P0000 T00440006
04850KAOH AOH20160407134514804/07/16 13:45:31  5-MIN KAOH 071845Z AUTO 27019G25KT 10SM BKN023 BKN034 OVC080 04/01 A2955 1320 76 400 280/19G25 RMK AO2 RAB1754E24 P0000 T00440006
04850KAOH AOH20160407135015504/07/16 13:50:31  5-MIN KAOH 071850Z AUTO 28015G25KT 10SM BKN023 BKN034 OVC085 05/01 A2955 1320 76 500 290/15G25 RMK AO2 RAB1754E24 SLP010 P0000 T00500011
04850KAOH AOH20160407135513104/07/16 13:55:31  5-MIN KAOH 071855Z AUTO 28014G24KT 10SM SCT023 BKN033 OVC085 05/01 A2955 1320 76 500 290/14G24 RMK AO2 T00500011
04850KAOH AOH20160407140012504/07/16 14:00:31  5-MIN KAOH 071900Z AUTO 28013KT 10SM BKN025 BKN037 OVC085 05/01 A2955 1320 76 500 280/13 RMK AO2 T00500011
04850KAOH AOH20160407140512504/07/16 14:05:31  5-MIN KAOH 071905Z AUTO 27020KT 10SM BKN023 BKN033 OVC085 05/01 A2955 1320 76 500 280/20 RMK AO2 T00500011
04850KAOH AOH20160407141014904/07/16 14:10:31  5-MIN KAOH 071910Z AUTO 27023G27KT 10SM BKN023 BKN030 OVC085 05/00 A2955 1320 70 500 280/23G27 RMK AO2 PK WND 26028/1908 T00500000
04850KAOH AOH20160407141514904/07/16 14:15:31  5-MIN KAOH 071915Z AUTO 28017G27KT 10SM SCT025 BKN030 OVC085 04/00 A2955 1320 73 400 290/17G27 RMK AO2 PK WND 26028/1908 T00440000
04850KAOH AOH20160407142014904/07/16 14:20:31  5-MIN KAOH 071920Z AUTO 31014G27KT 10SM FEW022 BKN027 OVC039 04/01 A2955 1320 76 400 310/14G27 RMK AO2 PK WND 26028/1908 T00440006
04850KAOH AOH20160407142515204/07/16 14:25:31  5-MIN KAOH 071925Z AUTO 31014KT 10SM -RA SCT022 OVC027 04/01 A2955 1320 82 300 310/14 RMK AO2 PK WND 26028/1908 RAB23 P0000 T00390011
04850KAOH AOH20160407143015904/07/16 14:30:31  5-MIN KAOH 071930Z AUTO 29013KT 10SM -RA FEW022 BKN028 OVC035 04/01 A2956 1310 82 300 300/13 RMK AO2 PK WND 26028/1908 RAB23 P0000 T00390011
04850KAOH AOH20160407143516304/07/16 14:35:31  5-MIN KAOH 071935Z AUTO 28019G27KT 5SM RA FEW016 BKN027 OVC038 03/01 A2956 1310 82 200 290/19G27 RMK AO2 PK WND 26028/1908 RAB23 P0001 T00330006
04850KAOH AOH20160407144016704/07/16 14:40:31  5-MIN KAOH 071940Z AUTO 27018G27KT 4SM -RA BR FEW016 BKN027 OVC047 03/01 A2957 1310 85 200 280/18G27 RMK AO2 PK WND 26028/1908 RAB23 P0001 T00280006
04850KAOH AOH20160407144516504/07/16 14:45:31  5-MIN KAOH 071945Z AUTO 28017G25KT 10SM -RA FEW016 BKN036 OVC049 03/01 A2957 1310 89 200 280/17G25 RMK AO2 PK WND 26028/1908 RAB23 P0001 T00280011
04850KAOH AOH20160407145014904/07/16 14:50:31  5-MIN KAOH 071950Z AUTO 27015KT 10SM -RA FEW020 BKN042 OVC050 03/01 A2957 1310 89 200 280/15 RMK AO2 PK WND 26028/1908 RAB23 P0001
04850KAOH AOH20160407145513704/07/16 14:55:31  5-MIN KAOH 071955Z AUTO 27016KT 10SM FEW020 BKN042 OVC060 03/01 A2957 1310 85 200 280/16 RMK AO2 RAE55 P0000 T00330011
04850KAOH AOH20160407150013904/07/16 15:00:31  5-MIN KAOH 072000Z AUTO 27014KT 10SM FEW022 BKN046 OVC065 03/01 A2956 1310 85 300 280/14 RMK AO2 RAE1955 P0000 T00330011
04850KAOH AOH20160407150513904/07/16 15:05:31  5-MIN KAOH 072005Z AUTO 26013KT 10SM FEW041 BKN065 OVC080 04/02 A2957 1310 85 300 270/13 RMK AO2 RAE1955 P0000 T00390017
04850KAOH AOH20160407151013904/07/16 15:10:31  5-MIN KAOH 072010Z AUTO 28015KT 10SM FEW032 BKN065 OVC080 04/02 A2957 1300 85 300 280/15 RMK AO2 RAE1955 P0000 T00390017
04850KAOH AOH20160407151516904/07/16 15:15:31  5-MIN KAOH 072015Z AUTO 27021G26KT 8SM -RA FEW016 BKN046 OVC070 04/01 A2957 1300 82 300 280/21G26 RMK AO2 PK WND 27026/2014 RAE1955B14 P0001 T00390011
04850KAOH AOH20160407152018004/07/16 15:20:31  5-MIN KAOH 072020Z AUTO 30018G27KT 3SM -SN BR SCT009 BKN022 OVC080 03/01 A2957 1300 89 200 310/18G27 RMK AO2 PK WND 29027/2018 RAE1955B14E20SNB20 P0001 T00280011
04850KAOH AOH20160407152518004/07/16 15:25:31  5-MIN KAOH 072025Z AUTO 29012G27KT 3SM -SN BR SCT019 BKN034 OVC080 03/01 A2957 1300 89 200 300/12G27 RMK AO2 PK WND 29027/2018 RAE1955B14E20SNB20 P0001 T00280011
04850KAOH AOH20160407153017104/07/16 15:30:31  5-MIN KAOH 072030Z AUTO 29011KT 8SM -RA FEW015 BKN029 OVC080 03/01 A2957 1300 85 200 300/11 RMK AO2 PK WND 29027/2018 RAE1955B14SNB20E30 P0001 T00330011
04850KAOH AOH20160407153517804/07/16 15:35:31  5-MIN KAOH 072035Z AUTO 31015G21KT 10SM -RA FEW011 BKN029 OVC041 03/01 A2958 1300 85 200 320/15G21 RMK AO2 PK WND 29027/2018 RAE1955B14SNB20E30 P0002 T00330011
04850KAOH AOH20160407154017804/07/16 15:40:31  5-MIN KAOH 072040Z AUTO 30012G21KT 10SM -RA FEW011 BKN024 OVC048 03/02 A2958 1290 89 200 310/12G21 RMK AO2 PK WND 29027/2018 RAE1955B14SNB20E30 P0002 T00330017
04850KAOH AOH20160407154517104/07/16 15:45:31  5-MIN KAOH 072045Z AUTO 30013KT 10SM FEW013 BKN028 OVC060 04/02 A2958 1290 85 300 300/13 RMK AO2 PK WND 29027/2018 RAE1955B14E43SNB20E30 P0002 T00390017
04850KAOH AOH20160407155016804/07/16 15:50:31  5-MIN KAOH 072050Z AUTO 30016G23KT 10SM -RA FEW017 BKN038 OVC055 04/01 A2959 1290 82 300 300/16G23 RMK AO2 PK WND 29027/2018 RAE1955B14SNB20E30 P0002
04850KAOH AOH20160407155515804/07/16 15:55:31  5-MIN KAOH 072055Z AUTO 28019G28KT 7SM -SN FEW017 BKN031 OVC047 03/01 A2959 1290 85 200 290/19G28 RMK AO2 PK WND 28027/2054 P0000 T00280006
04850KAOH AOH20160407160015804/07/16 16:00:31  5-MIN KAOH 072100Z AUTO 29016G28KT 7SM -SN FEW017 BKN032 OVC048 03/01 A2959 1290 85 200 290/16G28 RMK AO2 PK WND 28027/2054 P0000 T00280006
04850KAOH AOH20160407160516804/07/16 16:05:31  5-MIN KAOH 072105Z AUTO 28016G26KT 9SM UP FEW018 BKN043 OVC055 03/01 A2959 1290 82 200 280/16G26 RMK AO2 PK WND 28027/2054 UPB04SNE04 P0000 T00330006
04850KAOH AOH20160407161016304/07/16 16:10:31  5-MIN KAOH 072110Z AUTO 28015KT 10SM FEW021 BKN039 OVC090 04/01 A2959 1290 82 300 290/15 RMK AO2 PK WND 28027/2054 UPB04E07SNE04 P0000 T00390011
04850KAOH AOH20160407161516304/07/16 16:15:31  5-MIN KAOH 072115Z AUTO 28014KT 10SM FEW021 BKN055 OVC085 04/01 A2959 1280 82 300 280/14 RMK AO2 PK WND 28027/2054 UPB04E07SNE04 P0000 T00390011
04850KAOH AOH20160407162016904/07/16 16:20:31  5-MIN KAOH 072120Z AUTO 27018G26KT 10SM FEW031 BKN060 OVC080 04/01 A2959 1280 79 300 270/18G26 RMK AO2 PK WND 28027/2054 UPB04E07SNE04 P0000 T00390006
04850KAOH AOH20160407162517804/07/16 16:25:31  5-MIN KAOH 072125Z AUTO 27016G26KT 10SM -RA FEW029 BKN046 OVC080 03/01 A2960 1280 82 200 280/16G26 RMK AO2 PK WND 28027/2054 UPB04E07RAB23SNE04 P0000 T00330006
04850KAOH AOH20160407163017804/07/16 16:30:31  5-MIN KAOH 072130Z AUTO 28014G26KT 10SM -RA SCT026 BKN046 OVC080 03/01 A2960 1270 82 200 290/14G26 RMK AO2 PK WND 28027/2054 UPB04E07RAB23SNE04 P0000 T00330006
04850KAOH AOH20160407163517804/07/16 16:35:31  5-MIN KAOH 072135Z AUTO 29016G21KT 10SM -RA SCT024 BKN049 OVC085 04/01 A2960 1270 79 300 300/16G21 RMK AO2 PK WND 28027/2054 UPB04E07RAB23SNE04 P0000 T00390006
04850KAOH AOH20160407164017704/07/16 16:40:31  5-MIN KAOH 072140Z AUTO 30017G24KT 10SM SCT024 BKN047 OVC085 04/01 A2961 1270 79 300 300/17G24 RMK AO2 PK WND 28027/2054 UPB04E07RAB23E38SNE04 P0000 T00390006
04850KAOH AOH20160407164517704/07/16 16:45:31  5-MIN KAOH 072145Z AUTO 29019G25KT 10SM FEW024 BKN047 OVC090 04/01 A2961 1270 79 300 290/19G25 RMK AO2 PK WND 28027/2054 UPB04E07RAB23E38SNE04 P0000 T00390006
04850KAOH AOH20160407165018404/07/16 16:50:31  5-MIN KAOH 072150Z AUTO 29015G28KT 10SM SCT024 BKN032 OVC090 04/01 A2961 1260 79 300 300/15G28 RMK AO2 PK WND 30028/2148 UPB04E07RAB23E38SNE04 SLP033 P0000 T00390006
04850KAOH AOH20160407165514904/07/16 16:55:31  5-MIN KAOH 072155Z AUTO 29023G30KT 10SM SCT022 BKN030 OVC090 04/00 A2962 1250 76 300 300/23G30 RMK AO2 PK WND 28030/2154 T00390000
04850KAOH AOH20160407170016704/07/16 17:00:31  5-MIN KAOH 072200Z AUTO 28017G30KT 10SM -RA SCT024 BKN038 OVC090 03/00 A2962 1260 82 100 280/17G30 RMK AO2 PK WND 27030/2157 RAB2156 P0000 T00280000
04850KAOH AOH20160407170516704/07/16 17:05:31  5-MIN KAOH 072205Z AUTO 28014G30KT 10SM -RA FEW022 BKN055 OVC090 03/01 A2962 1260 82 200 290/14G30 RMK AO2 PK WND 27030/2157 RAB2156 P0000 T00330006
04850KAOH AOH20160407171016604/07/16 17:10:31  5-MIN KAOH 072210Z AUTO 29020G27KT 10SM FEW022 BKN060 OVC090 03/00 A2962 1260 79 200 300/20G27 RMK AO2 PK WND 27030/2157 RAB2156E06 P0000 T00330000
04850KAOH AOH20160407171516604/07/16 17:15:31  5-MIN KAOH 072215Z AUTO 28017G27KT 10SM SCT024 BKN060 OVC090 04/00 A2962 1250 76 300 290/17G27 RMK AO2 PK WND 27030/2157 RAB2156E06 P0000 T00390000
04850KAOH AOH20160407172016504/07/16 17:20:31  5-MIN KAOH 072220Z AUTO 29029G36KT 9SM SCT025 BKN034 OVC090 04/00 A2963 1250 76 200 300/29G36 RMK AO2 PK WND 29036/2219 RAB2156E06 P0000 T00390000
04850KAOH AOH20160407172517404/07/16 17:25:31  5-MIN KAOH 072225Z AUTO 31024G36KT 7SM -SN SCT023 BKN037 OVC090 03/00 A2964 1240 82 100 310/24G36 RMK AO2 PK WND 29036/2219 RAB2156E06SNB22 P0000 T00280000
04850KAOH AOH20160407173017304/07/16 17:30:31  5-MIN KAOH 072230Z AUTO 30018G31KT 7SM -SN FEW015 BKN044 OVC090 02/M01 A2964 1240 82 0 310/18G31 RMK AO2 PK WND 29036/2219 RAB2156E06SNB22 P0000 T00221006
04850KAOH AOH20160407173517204/07/16 17:35:31  5-MIN KAOH 072235Z AUTO 31016G27KT 9SM -SN SCT030 BKN050 OVC070 02/00 A2964 1240 85 0 310/16G27 RMK AO2 PK WND 29036/2219 RAB2156E06SNB22 P0000 T00220000
04850KAOH AOH20160407174016504/07/16 17:40:31  5-MIN KAOH 072240Z AUTO 30016KT 9SM SCT030 SCT044 OVC070 02/00 A2965 1230 85 0 310/16 RMK AO2 PK WND 29036/2219 RAB2156E06SNB22E37 P0000 T00220000
04850KAOH AOH20160407174516804/07/16 17:45:31  5-MIN KAOH 072245Z AUTO 29013KT 10SM FEW018 SCT044 OVC070 03/00 A2965 1230 82 100 300/13 RMK AO2 PK WND 29036/2219 RAB2156E06SNB22E37 P0000 T00280000
04850KAOH AOH20160407175018204/07/16 17:50:31  5-MIN KAOH 072250Z AUTO 29014G21KT 10SM FEW030 BKN055 OVC070 03/M01 A2965 1230 79 100 300/14G21 RMK AO2 PK WND 29036/2219 RAB2156E06SNB22E37 SLP047 P0000 T00281006
04850KAOH AOH20160407175513304/07/16 17:55:31  5-MIN KAOH 072255Z AUTO 28019G24KT 4SM HZ FEW018 BKN050 OVC070 03/00 A2966 1220 82 100 290/19G24 RMK AO2 T00280000
04850KAOH AOH20160407180016804/07/16 18:00:31  5-MIN KAOH 072300Z AUTO 29018G30KT 2SM -SN BR SCT015 BKN033 OVC070 02/M01 A2966 1220 85 0 290/18G30 RMK AO2 PK WND 29030/2256 SNB2256 P0001 T00171006
04850KAOH AOH20160407180516904/07/16 18:05:31  5-MIN KAOH 072305Z AUTO 29018G30KT 2 1/2SM -SN FEW015 BKN037 OVC070 02/M01 A2966 1220 82 0 300/18G30 RMK AO2 PK WND 29030/2256 SNB2256 P0001 T00171011
04850KAOH AOH20160407181016404/07/16 18:10:31  5-MIN KAOH 072310Z AUTO 29016G25KT 9SM FEW015 BKN042 OVC070 02/M02 A2966 1210 75 0 290/16G25 RMK AO2 PK WND 29030/2256 SNB2256E10 P0001 T00221017
04850KAOH AOH20160407181515804/07/16 18:15:31  5-MIN KAOH 072315Z AUTO 29016KT 9SM FEW016 BKN046 OVC060 02/M02 A2967 1210 75 0 290/16 RMK AO2 PK WND 29030/2256 SNB2256E10 P0001 T00221017
04850KAOH AOH20160407182015904/07/16 18:20:31  5-MIN KAOH 072320Z AUTO 29017KT 10SM FEW016 BKN046 OVC060 02/M02 A2967 1210 75 0 290/17 RMK AO2 PK WND 29030/2256 SNB2256E10 P0001 T00221017
04850KAOH AOH20160407182515204/07/16 18:25:31  5-MIN KAOH 072325Z AUTO 28016KT 10SM SCT046 OVC060 02/M02 A2967 1210 75 0 280/16 RMK AO2 PK WND 29030/2256 SNB2256E10 P0001 T00221017
04850KAOH AOH20160407183015804/07/16 18:30:31  5-MIN KAOH 072330Z AUTO 28014G22KT 10SM BKN055 OVC070 02/M01 A2967 1210 78 0 290/14G22 RMK AO2 PK WND 29030/2256 SNB2256E10 P0001 T00221011
04850KAOH AOH20160407183515804/07/16 18:35:31  5-MIN KAOH 072335Z AUTO 29016G22KT 10SM BKN065 OVC075 02/M01 A2967 1210 78 0 290/16G22 RMK AO2 PK WND 29030/2256 SNB2256E10 P0001 T00221011
04850KAOH AOH20160407184015104/07/16 18:40:31  5-MIN KAOH 072340Z AUTO 28014G22KT 10SM OVC060 02/M01 A2968 1200 78 0 290/14G22 RMK AO2 PK WND 29030/2256 SNB2256E10 P0001 T00221011
04850KAOH AOH20160407184515804/07/16 18:45:31  5-MIN KAOH 072345Z AUTO 29020G23KT 10SM BKN055 OVC070 02/M01 A2968 1200 78 0 300/20G23 RMK AO2 PK WND 29030/2256 SNB2256E10 P0001 T00221011
04850KAOH AOH20160407185020204/07/16 18:50:31  5-MIN KAOH 072350Z AUTO 29019G31KT 6SM -SN FEW017 BKN048 OVC070 02/M01 A2968 1200 78 0 300/19G31 RMK AO2 PK WND 30031/2348 SNB2256E10B49 SLP057 P0001 60004 T00221011 10050 20017 53008
04850KAOH AOH20160407185514204/07/16 18:55:31  5-MIN KAOH 072355Z AUTO 29015G31KT 4SM -SN BR FEW017 BKN046 OVC070 02/M01 A2968 1200 85 0 300/15G31 RMK AO2 P0000 T00171006
04850KAOH AOH20160407190013904/07/16 19:00:31  5-MIN KAOH 080000Z AUTO 29018G24KT 5SM -SN SCT019 BKN055 OVC070 02/M01 A2969 1200 82 0 300/18G24 RMK AO2 P0000 T00171011
04850KAOH AOH20160407190514104/07/16 19:05:31  5-MIN KAOH 080005Z AUTO 28019G24KT 9SM SCT018 BKN025 OVC065 02/M01 A2969 1190 85 0 290/19G24 RMK AO2 SNE03 P0000 T00171006
04850KAOH AOH20160407191014504/07/16 19:10:31  5-MIN KAOH 080010Z AUTO 29018G24KT 10SM FEW015 BKN021 OVC050 02/M01 A2969 1190 85 -100 290/18G24 RMK AO2 SNE03 P0000 T00171006
04850KAOH AOH20160407191514504/07/16 19:15:31  5-MIN KAOH 080015Z AUTO 29017G24KT 10SM SCT016 BKN021 OVC050 02/M01 A2969 1190 85 -100 300/17G24 RMK AO2 SNE03 P0000 T00171006
04850KAOH AOH20160407192013904/07/16 19:20:31  5-MIN KAOH 080020Z AUTO 29017KT 10SM SCT016 BKN021 OVC060 02/M01 A2970 1190 85 -100 300/17 RMK AO2 SNE03 P0000 T00171006
04850KAOH AOH20160407192514504/07/16 19:25:31  5-MIN KAOH 080025Z AUTO 29013G25KT 10SM BKN018 BKN041 OVC060 02/M01 A2970 1180 82 -100 290/13G25 RMK AO2 SNE03 P0000 T00171011
04850KAOH AOH20160407193014504/07/16 19:30:31  5-MIN KAOH 080030Z AUTO 29017G25KT 10SM BKN018 BKN039 OVC065 02/M01 A2970 1180 82 -100 300/17G25 RMK AO2 SNE03 P0000 T00171011
04850KAOH AOH20160407193514504/07/16 19:35:31  5-MIN KAOH 080035Z AUTO 29014G22KT 10SM SCT018 BKN041 OVC065 02/M01 A2970 1180 82 -100 300/14G22 RMK AO2 SNE03 P0000 T00171011
04850KAOH AOH20160407194013804/07/16 19:40:31  5-MIN KAOH 080040Z AUTO 29013G22KT 10SM SCT018 OVC065 02/M02 A2970 1180 78 -100 290/13G22 RMK AO2 SNE03 P0000 T00171017
04850KAOH AOH20160407194513804/07/16 19:45:31  5-MIN KAOH 080045Z AUTO 29014G22KT 10SM FEW018 OVC065 02/M02 A2970 1180 78 -100 290/14G22 RMK AO2 SNE03 P0000 T00171017
04850KAOH AOH20160407195013904/07/16 19:50:31  5-MIN KAOH 080050Z AUTO 28014KT 10SM FEW018 OVC065 02/M02 A2971 1170 78 -100 290/14 RMK AO2 SNE03 SLP066 P0000 T00171017
04850KAOH AOH20160407195511904/07/16 19:55:31  5-MIN KAOH 080055Z AUTO 28013G21KT 10SM OVC065 02/M02 A2971 1170 78 -100 290/13G21 RMK AO2 T00171017
04850KAOH AOH20160407200012604/07/16 20:00:31  5-MIN KAOH 080100Z AUTO 29015G23KT 10SM BKN055 OVC065 02/M02 A2971 1170 78 -100 290/15G23 RMK AO2 T00171017
04850KAOH AOH20160407200514104/07/16 20:05:31  5-MIN KAOH 080105Z AUTO 29017G23KT 6SM -SN BKN045 OVC065 01/M02 A2971 1170 82 -100 290/17G23 RMK AO2 SNB02 P0000 T00111017
04850KAOH AOH20160407201014404/07/16 20:10:31  5-MIN KAOH 080110Z AUTO 29013G23KT 5SM -SN BR BKN045 OVC065 01/M01 A2971 1170 85 -100 290/13G23 RMK AO2 SNB02 P0000 T00111011
04850KAOH AOH20160407201514404/07/16 20:15:31  5-MIN KAOH 080115Z AUTO 28014G21KT 6SM -SN BR BKN047 OVC055 01/M01 A2972 1170 85 -200 290/14G21 RMK AO2 SNB02 P0000 T00111011
04850KAOH AOH20160407202012804/07/16 20:20:31  5-MIN KAOH 080120Z AUTO 29014KT 7SM -SN OVC043 01/M01 A2972 1160 85 -200 290/14 RMK AO2 SNB02 P0000 T00111011
04850KAOH AOH20160407202513504/07/16 20:25:31  5-MIN KAOH 080125Z AUTO 29014KT 9SM -SN FEW019 OVC041 02/M02 A2972 1160 78 -100 290/14 RMK AO2 SNB02 P0000 T00171017
04850KAOH AOH20160407203013504/07/16 20:30:31  5-MIN KAOH 080130Z AUTO 28014KT 9SM -SN BKN038 OVC045 02/M02 A2972 1160 78 -100 290/14 RMK AO2 SNB02 P0000 T00171017
04850KAOH AOH20160407203513404/07/16 20:35:31  5-MIN KAOH 080135Z AUTO 28014KT 9SM SCT038 OVC045 02/M02 A2973 1160 78 -100 290/14 RMK AO2 SNB02E32 P0000 T00171017
04850KAOH AOH20160407204012804/07/16 20:40:31  5-MIN KAOH 080140Z AUTO 28015KT 10SM OVC042 02/M02 A2973 1160 78 -100 290/15 RMK AO2 SNB02E32 P0000 T00171017
04850KAOH AOH20160407204513404/07/16 20:45:31  5-MIN KAOH 080145Z AUTO 29015G22KT 10SM OVC042 02/M02 A2973 1150 78 -100 290/15G22 RMK AO2 SNB02E32 P0000 T00171017
04850KAOH AOH20160407205014804/07/16 20:50:31  5-MIN KAOH 080150Z AUTO 28017G22KT 10SM BKN036 OVC045 02/M02 A2973 1150 78 -100 290/17G22 RMK AO2 SNB02E32 SLP074 P0000 T00171017
04850KAOH AOH20160407205512604/07/16 20:55:31  5-MIN KAOH 080155Z AUTO 29016G22KT 10SM BKN036 OVC045 02/M02 A2973 1150 78 -100 290/16G22 RMK AO2 T00171017
04850KAOH AOH20160407210012604/07/16 21:00:31  5-MIN KAOH 080200Z AUTO 29017G23KT 10SM BKN034 OVC045 01/M02 A2974 1150 82 -200 300/17G23 RMK AO2 T00111017
04850KAOH AOH20160407210512604/07/16 21:05:31  5-MIN KAOH 080205Z AUTO 29016G23KT 10SM BKN034 OVC043 02/M02 A2974 1150 78 -100 290/16G23 RMK AO2 T00171017
04850KAOH AOH20160407211011904/07/16 21:10:31  5-MIN KAOH 080210Z AUTO 29016G25KT 10SM OVC034 02/M02 A2974 1150 78 -100 300/16G25 RMK AO2 T00171017
04850KAOH AOH20160407211511904/07/16 21:15:31  5-MIN KAOH 080215Z AUTO 29014G25KT 10SM OVC034 02/M02 A2974 1150 78 -100 290/14G25 RMK AO2 T00171017
04850KAOH AOH20160407212011904/07/16 21:20:31  5-MIN KAOH 080220Z AUTO 29018G23KT 10SM OVC034 02/M02 A2974 1140 78 -100 300/18G23 RMK AO2 T00171017
04850KAOH AOH20160407212511904/07/16 21:25:31  5-MIN KAOH 080225Z AUTO 29015G23KT 10SM OVC036 01/M02 A2974 1140 82 -200 290/15G23 RMK AO2 T00111017
04850KAOH AOH20160407213011304/07/16 21:30:31  5-MIN KAOH 080230Z AUTO 29014KT 10SM OVC036 02/M02 A2974 1140 78 -100 300/14 RMK AO2 T00171017
04850KAOH AOH20160407213511904/07/16 21:35:31  5-MIN KAOH 080235Z AUTO 29017G23KT 10SM OVC036 02/M02 A2974 1140 75 -100 300/17G23 RMK AO2 T00171022
04850KAOH AOH20160407214011904/07/16 21:40:31  5-MIN KAOH 080240Z AUTO 29013G23KT 10SM OVC038 01/M02 A2974 1140 78 -200 300/13G23 RMK AO2 T00111022
04850KAOH AOH20160407214511904/07/16 21:45:31  5-MIN KAOH 080245Z AUTO 30015G23KT 10SM OVC040 01/M02 A2975 1140 78 -200 300/15G23 RMK AO2 T00111022
04850KAOH AOH20160407215013804/07/16 21:50:31  5-MIN KAOH 080250Z AUTO 29014G23KT 10SM OVC042 01/M02 A2975 1140 78 -200 300/14G23 RMK AO2 SLP081 60000 T00111022 51031
04850KAOH AOH20160407215511304/07/16 21:55:31  5-MIN KAOH 080255Z AUTO 29013KT 10SM OVC043 01/M02 A2975 1140 78 -200 300/13 RMK AO2 T00111022
04850KAOH AOH20160407220011904/07/16 22:00:31  5-MIN KAOH 080300Z AUTO 29017G23KT 10SM OVC042 01/M02 A2975 1140 78 -200 300/17G23 RMK AO2 T00111022
04850KAOH AOH20160407220513704/07/16 22:05:31  5-MIN KAOH 080305Z AUTO 30018G26KT 10SM OVC042 01/M02 A2975 1130 82 -200 300/18G26 RMK AO2 PK WND 29026/0305 T00111017
04850KAOH AOH20160407221013704/07/16 22:10:31  5-MIN KAOH 080310Z AUTO 31016G26KT 10SM OVC042 01/M02 A2975 1130 78 -200 310/16G26 RMK AO2 PK WND 29026/0305 T00111022
04850KAOH AOH20160407221513104/07/16 22:15:31  5-MIN KAOH 080315Z AUTO 30015KT 10SM OVC042 01/M02 A2975 1130 78 -200 300/15 RMK AO2 PK WND 29026/0305 T00111022
04850KAOH AOH20160407222013704/07/16 22:20:31  5-MIN KAOH 080320Z AUTO 30015G22KT 10SM OVC042 01/M02 A2975 1130 78 -200 310/15G22 RMK AO2 PK WND 29026/0305 T00111022
04850KAOH AOH20160407222513704/07/16 22:25:31  5-MIN KAOH 080325Z AUTO 31014G22KT 10SM OVC043 01/M02 A2975 1130 78 -200 310/14G22 RMK AO2 PK WND 29026/0305 T00111022
04850KAOH AOH20160407223013704/07/16 22:30:31  5-MIN KAOH 080330Z AUTO 30018G24KT 10SM OVC043 01/M02 A2976 1130 78 -200 310/18G24 RMK AO2 PK WND 29026/0305 T00111022
04850KAOH AOH20160407223514404/07/16 22:35:31  5-MIN KAOH 080335Z AUTO 30018G24KT 10SM FEW032 OVC045 01/M02 A2976 1130 78 -200 310/18G24 RMK AO2 PK WND 29026/0305 T00111022
04850KAOH AOH20160407224013804/07/16 22:40:31  5-MIN KAOH 080340Z AUTO 30015KT 10SM SCT032 OVC045 01/M03 A2976 1130 75 -200 310/15 RMK AO2 PK WND 29026/0305 T00111028
04850KAOH AOH20160407224513804/07/16 22:45:31  5-MIN KAOH 080345Z AUTO 31017KT 10SM BKN034 OVC044 01/M03 A2976 1130 75 -200 310/17 RMK AO2 PK WND 29026/0305 T00111028
04850KAOH AOH20160407225014504/07/16 22:50:31  5-MIN KAOH 080350Z AUTO 31014KT 10SM BKN036 OVC044 01/M03 A2976 1130 75 -200 310/14 RMK AO2 PK WND 29026/0305 SLP084 T00111028
04850KAOH AOH20160407225511904/07/16 22:55:31  5-MIN KAOH 080355Z AUTO 31015G24KT 10SM OVC038 01/M03 A2976 1130 75 -200 310/15G24 RMK AO2 T00111028
04850KAOH AOH20160407230011904/07/16 23:00:31  5-MIN KAOH 080400Z AUTO 31015G24KT 10SM OVC038 01/M03 A2976 1130 75 -200 320/15G24 RMK AO2 T00111028
04850KAOH AOH20160407230511304/07/16 23:05:31  5-MIN KAOH 080405Z AUTO 31014KT 10SM OVC036 01/M03 A2976 1130 75 -200 320/14 RMK AO2 T00111028
04850KAOH AOH20160407231011304/07/16 23:10:31  5-MIN KAOH 080410Z AUTO 30016KT 10SM OVC038 01/M03 A2976 1120 72 -200 310/16 RMK AO2 T00111033
04850KAOH AOH20160407231511304/07/16 23:15:31  5-MIN KAOH 080415Z AUTO 31013KT 10SM OVC038 01/M03 A2976 1120 72 -200 310/13 RMK AO2 T00111033
04850KAOH AOH20160407232011304/07/16 23:20:31  5-MIN KAOH 080420Z AUTO 30014KT 10SM OVC037 01/M03 A2977 1120 75 -200 300/14 RMK AO2 T00111028
04850KAOH AOH20160407232511304/07/16 23:25:31  5-MIN KAOH 080425Z AUTO 30016KT 10SM OVC037 01/M03 A2977 1120 72 -200 310/16 RMK AO2 T00111033
04850KAOH AOH20160407233011304/07/16 23:30:31  5-MIN KAOH 080430Z AUTO 30013KT 10SM OVC037 01/M03 A2977 1120 72 -200 310/13 RMK AO2 T00111033
04850KAOH AOH20160407233511304/07/16 23:35:31  5-MIN KAOH 080435Z AUTO 30015KT 10SM OVC037 01/M03 A2977 1120 72 -200 300/15 RMK AO2 T00111033
04850KAOH AOH20160407234011904/07/16 23:40:31  5-MIN KAOH 080440Z AUTO 30011G18KT 10SM OVC036 01/M03 A2977 1120 75 -200 300/11G18 RMK AO2 T00111028
04850KAOH AOH20160407234511304/07/16 23:45:31  5-MIN KAOH 080445Z AUTO 29010KT 10SM OVC036 01/M02 A2977 1120 78 -200 300/10 RMK AO2 T00111022
04850KAOH AOH20160407235013004/07/16 23:50:31  5-MIN KAOH 080450Z AUTO 29011KT 10SM OVC038 01/M03 A2977 1120 75 -200 300/11 RMK AO2 SLP088 T00111028 400720011
04850KAOH AOH20160407235511304/07/16 23:55:31  5-MIN KAOH 080455Z AUTO 30015KT 10SM OVC038 01/M03 A2977 1120 75 -200 300/15 RMK AO2 T00111028
04850KAOH AOH20160408000011304/08/16 00:00:31  5-MIN KAOH 080500Z AUTO 29012KT 10SM OVC041 01/M03 A2977 1120 75 -200 300/12 RMK AO2 T00111028
04850KAOH AOH20160408000511304/08/16 00:05:31  5-MIN KAOH 080505Z AUTO 31014KT 10SM OVC041 01/M03 A2977 1120 75 -200 310/14 RMK AO2 T00111028
04850KAOH AOH20160408001011804/08/16 00:10:31  5-MIN KAOH 080510Z AUTO 31013KT 10SM OVC041 01/M03 A2977 1120 75 -200 310/13 RMK AO2 T00111028 TSNO
04850KAOH AOH20160408001511304/08/16 00:15:31  5-MIN KAOH 080515Z AUTO 30013KT 10SM OVC041 01/M03 A2977 1120 75 -200 310/13 RMK AO2 T00111028
04850KAOH AOH20160408002011304/08/16 00:20:31  5-MIN KAOH 080520Z AUTO 30015KT 10SM OVC039 01/M03 A2977 1120 75 -200 310/15 RMK AO2 T00111028
04850KAOH AOH20160408002511304/08/16 00:25:31  5-MIN KAOH 080525Z AUTO 30012KT 10SM OVC039 01/M03 A2977 1120 75 -200 300/12 RMK AO2 T00111028
04850KAOH AOH20160408003011904/08/16 00:30:31  5-MIN KAOH 080530Z AUTO 30014G20KT 10SM OVC039 01/M03 A2977 1120 75 -200 300/14G20 RMK AO2 T00111028
04850KAOH AOH20160408003511304/08/16 00:35:31  5-MIN KAOH 080535Z AUTO 31014KT 10SM OVC040 01/M03 A2977 1120 75 -200 310/14 RMK AO2 T00111028
04850KAOH AOH20160408004011304/08/16 00:40:31  5-MIN KAOH 080540Z AUTO 30013KT 10SM OVC040 01/M03 A2977 1120 75 -200 310/13 RMK AO2 T00111028
04850KAOH AOH20160408004511304/08/16 00:45:31  5-MIN KAOH 080545Z AUTO 30015KT 10SM OVC038 01/M03 A2977 1110 72 -200 310/15 RMK AO2 T00111033
04850KAOH AOH20160408005015004/08/16 00:50:31  5-MIN KAOH 080550Z AUTO 30014G23KT 10SM OVC038 01/M03 A2977 1110 72 -200 300/14G23 RMK AO2 SLP089 60000 T00111033 10017 20011 51022
04850KAOH AOH20160408005511904/08/16 00:55:31  5-MIN KAOH 080555Z AUTO 30015G23KT 10SM OVC038 01/M03 A2977 1110 72 -200 310/15G23 RMK AO2 T00111033
04850KAOH AOH20160408010011304/08/16 01:00:31  5-MIN KAOH 080600Z AUTO 31013KT 10SM OVC038 01/M03 A2977 1110 72 -200 310/13 RMK AO2 T00111033
04850KAOH AOH20160408010511304/08/16 01:05:31  5-MIN KAOH 080605Z AUTO 30012KT 10SM OVC036 01/M03 A2977 1110 72 -200 310/12 RMK AO2 T00111033
04850KAOH AOH20160408011011304/08/16 01:10:31  5-MIN KAOH 080610Z AUTO 30014KT 10SM OVC034 01/M03 A2977 1110 72 -200 310/14 RMK AO2 T00111033
04850KAOH AOH20160408011511304/08/16 01:15:31  5-MIN KAOH 080615Z AUTO 30015KT 10SM OVC034 01/M03 A2977 1110 72 -200 300/15 RMK AO2 T00111033
04850KAOH AOH20160408012011304/08/16 01:20:31  5-MIN KAOH 080620Z AUTO 29012KT 10SM OVC034 01/M03 A2977 1110 72 -200 300/12 RMK AO2 T00111033
04850KAOH AOH20160408012511304/08/16 01:25:31  5-MIN KAOH 080625Z AUTO 30012KT 10SM OVC033 01/M03 A2978 1110 72 -200 310/12 RMK AO2 T00111033
04850KAOH AOH20160408013011304/08/16 01:30:31  5-MIN KAOH 080630Z AUTO 30013KT 10SM OVC033 01/M03 A2978 1110 72 -200 310/13 RMK AO2 T00111033
04850KAOH AOH20160408013511304/08/16 01:35:31  5-MIN KAOH 080635Z AUTO 29012KT 10SM OVC033 01/M03 A2978 1110 72 -200 300/12 RMK AO2 T00111033
04850KAOH AOH20160408014011304/08/16 01:40:31  5-MIN KAOH 080640Z AUTO 29009KT 10SM OVC033 01/M03 A2978 1110 75 -200 300/09 RMK AO2 T00111028
04850KAOH AOH20160408014512704/08/16 01:45:31  5-MIN KAOH 080645Z AUTO 28009KT 10SM FEW019 SCT028 OVC033 01/M03 A2978 1110 75 -200 290/09 RMK AO2 T00111028
04850KAOH AOH20160408015011704/08/16 01:50:31  5-MIN KAOH 080650Z AUTO 28012KT 10SM SCT019 BKN028 OVC033 01/M03 A2978 1110 75 -200 290/12 RMK AO2
04850KAOH AOH20160408015512704/08/16 01:55:31  5-MIN KAOH 080655Z AUTO 29013KT 10SM BKN021 BKN028 OVC033 01/M03 A2978 1110 78 -300 300/13 RMK AO2 T00061028
04850KAOH AOH20160408020013304/08/16 02:00:31  5-MIN KAOH 080700Z AUTO 29011G20KT 10SM FEW020 BKN026 OVC033 01/M03 A2978 1110 78 -300 290/11G20 RMK AO2 T00061028
04850KAOH AOH20160408020513304/08/16 02:05:31  5-MIN KAOH 080705Z AUTO 28012G20KT 10SM FEW020 BKN026 OVC031 01/M03 A2978 1110 78 -300 290/12G20 RMK AO2 T00061028
04850KAOH AOH20160408021012704/08/16 02:10:31  5-MIN KAOH 080710Z AUTO 29013KT 10SM FEW020 BKN026 OVC033 01/M03 A2978 1110 78 -300 290/13 RMK AO2 T00061028
04850KAOH AOH20160408021512704/08/16 02:15:31  5-MIN KAOH 080715Z AUTO 29013KT 10SM FEW020 SCT026 BKN033 01/M03 A2978 1110 75 -300 290/13 RMK AO2 T00061033
04850KAOH AOH20160408022012004/08/16 02:20:31  5-MIN KAOH 080720Z AUTO 29011KT 10SM FEW026 BKN033 01/M03 A2978 1110 75 -300 290/11 RMK AO2 T00061033
04850KAOH AOH20160408022511304/08/16 02:25:31  5-MIN KAOH 080725Z AUTO 29010KT 10SM SCT031 00/M03 A2978 1110 78 -400 290/10 RMK AO2 T00001033
04850KAOH AOH20160408023011304/08/16 02:30:31  5-MIN KAOH 080730Z AUTO 28011KT 10SM FEW031 00/M03 A2978 1110 78 -400 290/11 RMK AO2 T00001033
04850KAOH AOH20160408023511304/08/16 02:35:31  5-MIN KAOH 080735Z AUTO 29012KT 10SM FEW033 00/M03 A2978 1110 78 -400 300/12 RMK AO2 T00001033
04850KAOH AOH20160408024011004/08/16 02:40:31  5-MIN KAOH 080740Z AUTO 29010KT 10SM CLR 00/M03 A2978 1110 78 -400 290/10 RMK AO2 T00001033
04850KAOH AOH20160408024511004/08/16 02:45:31  5-MIN KAOH 080745Z AUTO 29011KT 10SM CLR 00/M04 A2978 1110 75 -400 290/11 RMK AO2 T00001039
04850KAOH AOH20160408025011704/08/16 02:50:31  5-MIN KAOH 080750Z AUTO 29011KT 10SM CLR 00/M04 A2978 1110 75 -400 290/11 RMK AO2 SLP091 T00001039
04850KAOH AOH20160408025511004/08/16 02:55:31  5-MIN KAOH 080755Z AUTO 28011KT 10SM CLR 00/M04 A2978 1110 75 -400 290/11 RMK AO2 T00001039
04850KAOH AOH20160408030011004/08/16 03:00:31  5-MIN KAOH 080800Z AUTO 28011KT 10SM CLR 00/M04 A2978 1110 75 -400 290/11 RMK AO2 T00001039
04850KAOH AOH20160408030511004/08/16 03:05:31  5-MIN KAOH 080805Z AUTO 28010KT 10SM CLR 00/M04 A2978 1110 75 -400 290/10 RMK AO2 T00001039
04850KAOH AOH20160408031011004/08/16 03:10:31  5-MIN KAOH 080810Z AUTO 29011KT 10SM CLR 00/M04 A2978 1110 75 -400 290/11 RMK AO2 T00001039
04850KAOH AOH20160408031511004/08/16 03:15:31  5-MIN KAOH 080815Z AUTO 29011KT 10SM CLR 00/M04 A2978 1110 75 -400 290/11 RMK AO2 T00001039
04850KAOH AOH20160408032011004/08/16 03:20:31  5-MIN KAOH 080820Z AUTO 28012KT 10SM CLR 00/M04 A2978 1110 75 -400 290/12 RMK AO2 T00001039
04850KAOH AOH20160408032511004/08/16 03:25:31  5-MIN KAOH 080825Z AUTO 28012KT 10SM CLR 00/M04 A2978 1110 72 -400 290/12 RMK AO2 T00001044
04850KAOH AOH20160408033011004/08/16 03:30:31  5-MIN KAOH 080830Z AUTO 28011KT 10SM CLR 00/M04 A2978 1110 72 -400 290/11 RMK AO2 T00001044
04850KAOH AOH20160408033511104/08/16 03:35:31  5-MIN KAOH 080835Z AUTO 28012KT 10SM CLR M01/M04 A2978 1110 75 -400 290/12 RMK AO2 T10061044
04850KAOH AOH20160408034011104/08/16 03:40:31  5-MIN KAOH 080840Z AUTO 28013KT 10SM CLR M01/M04 A2978 1100 75 -400 290/13 RMK AO2 T10061044
04850KAOH AOH20160408034511004/08/16 03:45:31  5-MIN KAOH 080845Z AUTO 28012KT 10SM CLR 00/M04 A2978 1100 72 -400 290/12 RMK AO2 T00001044
04850KAOH AOH20160408035012404/08/16 03:50:31  5-MIN KAOH 080850Z AUTO 28012KT 10SM CLR M01/M04 A2978 1100 75 -400 290/12 RMK AO2 SLP094 T10061044 51007
04850KAOH AOH20160408035511104/08/16 03:55:31  5-MIN KAOH 080855Z AUTO 29012KT 10SM CLR M01/M04 A2978 1100 75 -400 290/12 RMK AO2 T10061044
04850KAOH AOH20160408040011104/08/16 04:00:31  5-MIN KAOH 080900Z AUTO 28012KT 10SM CLR M01/M04 A2978 1100 75 -400 290/12 RMK AO2 T10061044
04850KAOH AOH20160408040511104/08/16 04:05:31  5-MIN KAOH 080905Z AUTO 28011KT 10SM CLR M01/M04 A2978 1100 75 -400 290/11 RMK AO2 T10061044
04850KAOH AOH20160408041011104/08/16 04:10:31  5-MIN KAOH 080910Z AUTO 29011KT 10SM CLR M01/M04 A2978 1100 75 -400 300/11 RMK AO2 T10061044
04850KAOH AOH20160408041511104/08/16 04:15:31  5-MIN KAOH 080915Z AUTO 29011KT 10SM CLR M01/M04 A2978 1100 75 -400 290/11 RMK AO2 T10061044
04850KAOH AOH20160408042011104/08/16 04:20:31  5-MIN KAOH 080920Z AUTO 29011KT 10SM CLR M01/M04 A2978 1100 75 -400 290/11 RMK AO2 T10061044
04850KAOH AOH20160408042511104/08/16 04:25:31  5-MIN KAOH 080925Z AUTO 28009KT 10SM CLR M01/M04 A2978 1100 75 -400 290/09 RMK AO2 T10061044
04850KAOH AOH20160408043011104/08/16 04:30:31  5-MIN KAOH 080930Z AUTO 29011KT 10SM CLR M01/M04 A2978 1110 75 -400 290/11 RMK AO2 T10061044
04850KAOH AOH20160408043511104/08/16 04:35:31  5-MIN KAOH 080935Z AUTO 29011KT 10SM CLR M01/M04 A2978 1100 75 -400 290/11 RMK AO2 T10061044
04850KAOH AOH20160408044011104/08/16 04:40:31  5-MIN KAOH 080940Z AUTO 29010KT 10SM CLR M01/M04 A2978 1100 75 -400 290/10 RMK AO2 T10061044
04850KAOH AOH20160408044511104/08/16 04:45:31  5-MIN KAOH 080945Z AUTO 28010KT 10SM CLR M01/M04 A2978 1100 75 -400 280/10 RMK AO2 T10061044
04850KAOH AOH20160408045011804/08/16 04:50:31  5-MIN KAOH 080950Z AUTO 28011KT 10SM CLR M01/M04 A2979 1100 75 -400 290/11 RMK AO2 SLP094 T10061044
04850KAOH AOH20160408045511104/08/16 04:55:31  5-MIN KAOH 080955Z AUTO 28010KT 10SM CLR M01/M04 A2978 1100 75 -400 290/10 RMK AO2 T10061044
04850KAOH AOH20160408050011104/08/16 05:00:31  5-MIN KAOH 081000Z AUTO 28010KT 10SM CLR M01/M04 A2978 1100 75 -400 290/10 RMK AO2 T10061044
04850KAOH AOH20160408050511104/08/16 05:05:31  5-MIN KAOH 081005Z AUTO 28011KT 10SM CLR M01/M04 A2978 1100 75 -400 290/11 RMK AO2 T10061044
04850KAOH AOH20160408051011104/08/16 05:10:31  5-MIN KAOH 081010Z AUTO 28011KT 10SM CLR M01/M04 A2979 1100 78 -400 290/11 RMK AO2 T10061039
04850KAOH AOH20160408051511104/08/16 05:15:31  5-MIN KAOH 081015Z AUTO 28011KT 10SM CLR M01/M04 A2979 1100 78 -400 280/11 RMK AO2 T10061039
04850KAOH AOH20160408052011104/08/16 05:20:31  5-MIN KAOH 081020Z AUTO 27010KT 10SM CLR M01/M04 A2979 1100 78 -400 280/10 RMK AO2 T10061039
04850KAOH AOH20160408052511104/08/16 05:25:31  5-MIN KAOH 081025Z AUTO 27010KT 10SM CLR M01/M04 A2979 1100 78 -400 280/10 RMK AO2 T10061039
04850KAOH AOH20160408053011104/08/16 05:30:31  5-MIN KAOH 081030Z AUTO 28010KT 10SM CLR M01/M03 A2979 1100 81 -400 280/10 RMK AO2 T10061033
04850KAOH AOH20160408053511104/08/16 05:35:31  5-MIN KAOH 081035Z AUTO 27011KT 10SM CLR M01/M03 A2979 1100 81 -400 280/11 RMK AO2 T10061033
04850KAOH AOH20160408054011104/08/16 05:40:31  5-MIN KAOH 081040Z AUTO 27010KT 10SM CLR M01/M04 A2979 1100 78 -400 280/10 RMK AO2 T10061039
04850KAOH AOH20160408054511104/08/16 05:45:31  5-MIN KAOH 081045Z AUTO 27010KT 10SM CLR M01/M03 A2979 1100 81 -400 280/10 RMK AO2 T10061033
04850KAOH AOH20160408055011804/08/16 05:50:31  5-MIN KAOH 081050Z AUTO 27011KT 10SM CLR M01/M03 A2979 1100 81 -400 280/11 RMK AO2 SLP096 T10061033
04850KAOH AOH20160408055511104/08/16 05:55:31  5-MIN KAOH 081055Z AUTO 27010KT 10SM CLR M01/M03 A2979 1100 81 -400 280/10 RMK AO2 T10061033
04850KAOH AOH20160408060011104/08/16 06:00:31  5-MIN KAOH 081100Z AUTO 27010KT 10SM CLR M01/M03 A2979 1100 81 -400 280/10 RMK AO2 T10061033
04850KAOH AOH20160408060511104/08/16 06:05:31  5-MIN KAOH 081105Z AUTO 27009KT 10SM CLR M01/M03 A2979 1100 85 -500 280/09 RMK AO2 T10111033
04850KAOH AOH20160408061011104/08/16 06:10:31  5-MIN KAOH 081110Z AUTO 27009KT 10SM CLR M01/M03 A2979 1090 85 -500 270/09 RMK AO2 T10111033
04850KAOH AOH20160408061511104/08/16 06:15:31  5-MIN KAOH 081115Z AUTO 27008KT 10SM CLR M01/M03 A2979 1100 85 -500 280/08 RMK AO2 T10111033
04850KAOH AOH20160408062011104/08/16 06:20:31  5-MIN KAOH 081120Z AUTO 26008KT 10SM CLR M01/M03 A2979 1100 85 -500 270/08 RMK AO2 T10111033
04850KAOH AOH20160408062511104/08/16 06:25:31  5-MIN KAOH 081125Z AUTO 26008KT 10SM CLR M01/M03 A2979 1090 85 -500 270/08 RMK AO2 T10111033
04850KAOH AOH20160408063011104/08/16 06:30:31  5-MIN KAOH 081130Z AUTO 27009KT 10SM CLR M01/M03 A2979 1090 88 -500 270/09 RMK AO2 T10111028
04850KAOH AOH20160408063511104/08/16 06:35:31  5-MIN KAOH 081135Z AUTO 27007KT 10SM CLR M01/M03 A2980 1090 85 -500 270/07 RMK AO2 T10061028
04850KAOH AOH20160408064011104/08/16 06:40:31  5-MIN KAOH 081140Z AUTO 27007KT 10SM CLR M01/M03 A2980 1090 85 -500 280/07 RMK AO2 T10061028
04850KAOH AOH20160408064511104/08/16 06:45:31  5-MIN KAOH 081145Z AUTO 27007KT 10SM CLR M01/M03 A2980 1090 85 -500 280/07 RMK AO2 T10061028
04850KAOH AOH20160408065014204/08/16 06:50:31  5-MIN KAOH 081150Z AUTO 28008KT 10SM CLR M01/M03 A2980 1090 85 -500 280/08 RMK AO2 SLP098 70011 T10061028 10011 21011 53004
04850KAOH AOH20160408065511004/08/16 06:55:31  5-MIN KAOH 081155Z AUTO 28006KT 10SM CLR 00/M03 A2980 1090 81 -400 280/06 RMK AO2 T00001028
04850KAOH AOH20160408070011004/08/16 07:00:31  5-MIN KAOH 081200Z AUTO 28008KT 10SM CLR 00/M02 A2980 1090 85 -400 290/08 RMK AO2 T00001022
04850KAOH AOH20160408070511004/08/16 07:05:31  5-MIN KAOH 081205Z AUTO 27007KT 10SM CLR 00/M02 A2980 1090 85 -400 280/07 RMK AO2 T00001022
04850KAOH AOH20160408071011304/08/16 07:10:31  5-MIN KAOH 081210Z AUTO 27007KT 10SM FEW042 00/M02 A2980 1090 85 -400 280/07 RMK AO2 T00001022
04850KAOH AOH20160408071511304/08/16 07:15:31  5-MIN KAOH 081215Z AUTO 28007KT 10SM SCT042 00/M02 A2980 1090 85 -400 280/07 RMK AO2 T00001022
04850KAOH AOH20160408072011304/08/16 07:20:31  5-MIN KAOH 081220Z AUTO 27007KT 10SM BKN042 01/M02 A2980 1090 82 -300 280/07 RMK AO2 T00061022
04850KAOH AOH20160408072511304/08/16 07:25:31  5-MIN KAOH 081225Z AUTO 26008KT 10SM BKN042 01/M02 A2980 1090 85 -300 270/08 RMK AO2 T00061017
04850KAOH AOH20160408073011304/08/16 07:30:31  5-MIN KAOH 081230Z AUTO 26008KT 10SM BKN042 01/M02 A2980 1090 85 -300 260/08 RMK AO2 T00061017
04850KAOH AOH20160408073511304/08/16 07:35:31  5-MIN KAOH 081235Z AUTO 26007KT 10SM OVC042 01/M02 A2980 1090 82 -300 270/07 RMK AO2 T00061022
04850KAOH AOH20160408074011304/08/16 07:40:31  5-MIN KAOH 081240Z AUTO 26007KT 10SM OVC042 01/M02 A2980 1090 82 -300 270/07 RMK AO2 T00061022
04850KAOH AOH20160408074511304/08/16 07:45:31  5-MIN KAOH 081245Z AUTO 26007KT 10SM OVC043 01/M02 A2980 1090 85 -300 260/07 RMK AO2 T00061017
04850KAOH AOH20160408075012004/08/16 07:50:31  5-MIN KAOH 081250Z AUTO 25007KT 10SM OVC043 01/M02 A2980 1090 85 -300 250/07 RMK AO2 SLP100 T00061017
04850KAOH AOH20160408075511304/08/16 07:55:31  5-MIN KAOH 081255Z AUTO 25008KT 10SM OVC043 01/M02 A2980 1090 85 -300 260/08 RMK AO2 T00061017
04850KAOH AOH20160408080011304/08/16 08:00:31  5-MIN KAOH 081300Z AUTO 25006KT 10SM OVC043 01/M02 A2980 1090 85 -300 250/06 RMK AO2 T00061017
04850KAOH AOH20160408080511304/08/16 08:05:31  5-MIN KAOH 081305Z AUTO 25005KT 10SM OVC042 01/M02 A2980 1090 85 -300 250/05 RMK AO2 T00061017
04850KAOH AOH20160408081011304/08/16 08:10:31  5-MIN KAOH 081310Z AUTO 26005KT 10SM OVC042 01/M02 A2980 1090 85 -300 270/05 RMK AO2 T00061017
04850KAOH AOH20160408081511304/08/16 08:15:31  5-MIN KAOH 081315Z AUTO 26005KT 10SM OVC042 01/M02 A2980 1090 85 -300 270/05 RMK AO2 T00061017
04850KAOH AOH20160408082011304/08/16 08:20:31  5-MIN KAOH 081320Z AUTO 28005KT 10SM OVC042 01/M02 A2980 1090 82 -200 280/05 RMK AO2 T00111017
04850KAOH AOH20160408082511304/08/16 08:25:31  5-MIN KAOH 081325Z AUTO 28004KT 10SM OVC042 01/M01 A2980 1090 85 -200 290/04 RMK AO2 T00111011
04850KAOH AOH20160408083011304/08/16 08:30:31  5-MIN KAOH 081330Z AUTO 29004KT 10SM OVC042 01/M02 A2980 1090 82 -200 300/04 RMK AO2 T00111017
04850KAOH AOH20160408083511304/08/16 08:35:31  5-MIN KAOH 081335Z AUTO 26004KT 10SM OVC042 01/M02 A2980 1090 82 -200 270/04 RMK AO2 T00111017
04850KAOH AOH20160408084011304/08/16 08:40:31  5-MIN KAOH 081340Z AUTO 26006KT 10SM OVC042 01/M01 A2980 1090 85 -200 270/06 RMK AO2 T00111011
04850KAOH AOH20160408084511304/08/16 08:45:31  5-MIN KAOH 081345Z AUTO 25008KT 10SM OVC042 01/M02 A2980 1090 82 -300 260/08 RMK AO2 T00111017
04850KAOH AOH20160408085012004/08/16 08:50:31  5-MIN KAOH 081350Z AUTO 24009KT 10SM OVC042 01/M02 A2980 1080 82 -300 250/09 RMK AO2 SLP101 T00111017
04850KAOH AOH20160408085511304/08/16 08:55:31  5-MIN KAOH 081355Z AUTO 24008KT 10SM OVC042 01/M02 A2981 1080 82 -300 250/08 RMK AO2 T00111017
04850KAOH AOH20160408090011304/08/16 09:00:31  5-MIN KAOH 081400Z AUTO 24010KT 10SM OVC042 02/M01 A2981 1080 82 -200 250/10 RMK AO2 T00171011
04850KAOH AOH20160408090511304/08/16 09:05:31  5-MIN KAOH 081405Z AUTO 25008KT 10SM OVC042 01/M01 A2981 1080 85 -300 250/08 RMK AO2 T00111011
04850KAOH AOH20160408091011304/08/16 09:10:31  5-MIN KAOH 081410Z AUTO 24008KT 10SM OVC044 02/M01 A2981 1080 82 -200 240/08 RMK AO2 T00171011
04850KAOH AOH20160408091512004/08/16 09:15:31  5-MIN KAOH 081415Z AUTO 24009KT 10SM FEW014 OVC044 02/M01 A2981 1080 82 -200 240/09 RMK AO2 T00171011
04850KAOH AOH20160408092012004/08/16 09:20:31  5-MIN KAOH 081420Z AUTO 24008KT 10SM FEW014 OVC046 02/M01 A2981 1080 82 -200 250/08 RMK AO2 T00171011
04850KAOH AOH20160408092512004/08/16 09:25:31  5-MIN KAOH 081425Z AUTO 23008KT 10SM FEW014 OVC046 02/M01 A2981 1080 82 -100 240/08 RMK AO2 T00221006
04850KAOH AOH20160408093012004/08/16 09:30:31  5-MIN KAOH 081430Z AUTO 25009KT 10SM FEW014 OVC046 02/M01 A2981 1080 82 -100 250/09 RMK AO2 T00221006
04850KAOH AOH20160408093512004/08/16 09:35:31  5-MIN KAOH 081435Z AUTO 23009KT 10SM FEW014 OVC046 02/M01 A2981 1080 82 -100 240/09 RMK AO2 T00221006
04850KAOH AOH20160408094012004/08/16 09:40:31  5-MIN KAOH 081440Z AUTO 24010KT 10SM FEW014 OVC046 02/M01 A2981 1080 82 -100 240/10 RMK AO2 T00221006
04850KAOH AOH20160408094512004/08/16 09:45:31  5-MIN KAOH 081445Z AUTO 24008KT 10SM FEW014 OVC047 02/M01 A2981 1080 82 -100 240/08 RMK AO2 T00221006
04850KAOH AOH20160408095013304/08/16 09:50:31  5-MIN KAOH 081450Z AUTO 25008KT 10SM FEW014 OVC047 02/M01 A2981 1080 82 -100 250/08 RMK AO2 SLP103 T00221006 53004
04850KAOH AOH20160408095512704/08/16 09:55:31  5-MIN KAOH 081455Z AUTO 25009KT 10SM FEW014 BKN041 OVC048 02/M01 A2981 1080 82 -100 250/09 RMK AO2 T00221006
04850KAOH AOH20160408100012704/08/16 10:00:31  5-MIN KAOH 081500Z AUTO 24010KT 10SM FEW029 SCT040 OVC046 03/M01 A2981 1080 79 -100 250/10 RMK AO2 T00281006
04850KAOH AOH20160408100512704/08/16 10:05:31  5-MIN KAOH 081505Z AUTO 24010KT 10SM FEW017 SCT028 OVC046 03/M01 A2981 1080 79 -100 250/10 RMK AO2 T00281006
04850KAOH AOH20160408101012704/08/16 10:10:31  5-MIN KAOH 081510Z AUTO 25009KT 10SM FEW015 SCT032 OVC046 03/M01 A2981 1080 79 -100 260/09 RMK AO2 T00281006
04850KAOH AOH20160408101512704/08/16 10:15:31  5-MIN KAOH 081515Z AUTO 24011KT 10SM FEW015 BKN041 OVC048 03/M01 A2981 1080 79 -100 240/11 RMK AO2 T00281006
04850KAOH AOH20160408102012704/08/16 10:20:31  5-MIN KAOH 081520Z AUTO 24011KT 10SM FEW015 BKN031 OVC048 03/M01 A2981 1080 79 -100 250/11 RMK AO2 T00281006
04850KAOH AOH20160408102512704/08/16 10:25:31  5-MIN KAOH 081525Z AUTO 23012KT 10SM SCT018 BKN033 OVC048 03/M01 A2981 1080 79 -100 240/12 RMK AO2 T00281006
04850KAOH AOH20160408103012704/08/16 10:30:31  5-MIN KAOH 081530Z AUTO 25011KT 10SM FEW018 BKN033 OVC044 03/M01 A2981 1080 79 -100 250/11 RMK AO2 T00281006
04850KAOH AOH20160408103512704/08/16 10:35:31  5-MIN KAOH 081535Z AUTO 25012KT 10SM FEW018 BKN039 OVC049 03/M01 A2981 1080 79 -100 250/12 RMK AO2 T00281006
04850KAOH AOH20160408104012704/08/16 10:40:31  5-MIN KAOH 081540Z AUTO 24013KT 10SM FEW018 BKN035 OVC049 03/M01 A2981 1080 79 -100 250/13 RMK AO2 T00281006
04850KAOH AOH20160408104512704/08/16 10:45:31  5-MIN KAOH 081545Z AUTO 25011KT 10SM FEW021 BKN032 OVC048 03/M01 A2981 1080 75 -100 260/11 RMK AO2 T00281011
04850KAOH AOH20160408105013104/08/16 10:50:31  5-MIN KAOH 081550Z AUTO 26012KT 10SM FEW018 BKN036 OVC046 03/M01 A2981 1080 72 0 270/12 RMK AO2 SLP101 T00331011
04850KAOH AOH20160408105512404/08/16 10:55:31  5-MIN KAOH 081555Z AUTO 25011KT 10SM FEW020 BKN036 OVC046 04/M01 A2981 1080 73 0 260/11 RMK AO2 T00391006
04850KAOH AOH20160408110012404/08/16 11:00:31  5-MIN KAOH 081600Z AUTO 26012KT 10SM FEW020 BKN035 OVC045 03/M01 A2981 1080 72 0 270/12 RMK AO2 T00331011
04850KAOH AOH20160408110512404/08/16 11:05:31  5-MIN KAOH 081605Z AUTO 26012KT 10SM SCT022 BKN035 OVC045 03/M01 A2981 1080 76 0 270/12 RMK AO2 T00331006
04850KAOH AOH20160408111012404/08/16 11:10:31  5-MIN KAOH 081610Z AUTO 26015KT 10SM FEW022 SCT028 OVC045 03/M01 A2981 1080 76 0 260/15 RMK AO2 T00331006
04850KAOH AOH20160408111512204/08/16 11:15:31  5-MIN KAOH 081615Z AUTO 26015KT 8SM FEW022 SCT031 OVC042 03/00 A2981 1080 79 0 270/15 RMK AO2 T00330000
04850KAOH AOH20160408112014104/08/16 11:20:31  5-MIN KAOH 081620Z AUTO 26013KT 6SM -SN FEW022 BKN033 OVC042 03/00 A2981 1080 82 -100 270/13 RMK AO2 SNB16 P0000 T00280000
04850KAOH AOH20160408112513804/08/16 11:25:31  5-MIN KAOH 081625Z AUTO 25012KT 6SM -SN FEW022 BKN033 OVC042 03/00 A2981 1080 79 0 250/12 RMK AO2 SNB16 P0000 T00330000
04850KAOH AOH20160408113013704/08/16 11:30:31  5-MIN KAOH 081630Z AUTO 25009KT 9SM FEW022 SCT032 BKN038 04/01 A2980 1090 79 0 260/09 RMK AO2 SNB16E27 P0000 T00390006
04850KAOH AOH20160408113513804/08/16 11:35:31  5-MIN KAOH 081635Z AUTO 26009KT 10SM FEW016 SCT031 BKN042 04/01 A2980 1090 79 0 260/09 RMK AO2 SNB16E27 P0000 T00390006
04850KAOH AOH20160408114014004/08/16 11:40:31  5-MIN KAOH 081640Z AUTO 24009KT 10SM FEW018 SCT030 BKN035 04/01 A2980 1090 76 100 250/09 RMK AO2 SNB16E27 P0000 T00440006
04850KAOH AOH20160408114513904/08/16 11:45:31  5-MIN KAOH 081645Z AUTO 25011KT 10SM FEW018 SCT031 BKN038 04/M01 A2980 1090 73 0 250/11 RMK AO2 SNB16E27 P0000 T00391006
04850KAOH AOH20160408115014604/08/16 11:50:31  5-MIN KAOH 081650Z AUTO 25009KT 10SM FEW018 SCT031 BKN038 04/M01 A2980 1090 70 0 260/09 RMK AO2 SNB16E27 SLP097 P0000 T00391011
04850KAOH AOH20160408115513404/08/16 11:55:31  5-MIN KAOH 081655Z AUTO 25013KT 10SM -RA FEW018 BKN031 BKN040 03/M01 A2980 1090 72 0 250/13 RMK AO2 P0000 T00331011
04850KAOH AOH20160408120013404/08/16 12:00:31  5-MIN KAOH 081700Z AUTO 23011KT 10SM -RA FEW018 BKN031 OVC049 03/M01 A2980 1090 72 0 240/11 RMK AO2 P0000 T00331011
04850KAOH AOH20160408120513804/08/16 12:05:31  5-MIN KAOH 081705Z AUTO 24013KT 10SM FEW025 BKN034 OVC046 04/M01 A2980 1090 73 100 250/13 RMK AO2 RAE02 P0000 T00391006
04850KAOH AOH20160408121013404/08/16 12:10:31  5-MIN KAOH 081710Z AUTO 25012KT 10SM -RA FEW025 BKN034 OVC043 03/M01 A2979 1090 72 0 260/12 RMK AO2 P0000 T00331011
04850KAOH AOH20160408121513604/08/16 12:15:31  5-MIN KAOH 081715Z AUTO 24014KT 10SM -RA FEW025 BKN034 OVC045 04/M01 A2979 1100 70 100 240/14 RMK AO2 P0000 T00391011
04850KAOH AOH20160408122013804/08/16 12:20:31  5-MIN KAOH 081720Z AUTO 25011KT 10SM FEW025 BKN034 OVC047 04/M01 A2979 1100 70 100 260/11 RMK AO2 RAE17 P0000 T00391011
04850KAOH AOH20160408122513804/08/16 12:25:31  5-MIN KAOH 081725Z AUTO 26012KT 10SM FEW025 BKN040 OVC050 04/M01 A2979 1100 73 100 260/12 RMK AO2 RAE17 P0000 T00391006
04850KAOH AOH20160408123013804/08/16 12:30:31  5-MIN KAOH 081730Z AUTO 24013KT 10SM FEW026 BKN035 OVC043 04/M01 A2979 1100 70 100 250/13 RMK AO2 RAE17 P0000 T00391011
04850KAOH AOH20160408123513804/08/16 12:35:31  5-MIN KAOH 081735Z AUTO 26013KT 10SM FEW026 SCT031 OVC040 04/M01 A2979 1100 67 100 260/13 RMK AO2 RAE17 P0000 T00441011
04850KAOH AOH20160408124013804/08/16 12:40:31  5-MIN KAOH 081740Z AUTO 26014KT 10SM FEW031 BKN040 OVC050 04/M01 A2978 1100 67 100 260/14 RMK AO2 RAE17 P0000 T00441011
04850KAOH AOH20160408124513104/08/16 12:45:31  5-MIN KAOH 081745Z AUTO 25014KT 10SM FEW031 OVC042 05/M01 A2978 1100 67 200 250/14 RMK AO2 RAE17 P0000 T00501006
04850KAOH AOH20160408125016904/08/16 12:50:31  5-MIN KAOH 081750Z AUTO 26013KT 10SM FEW030 BKN042 OVC049 05/M01 A2978 1100 64 200 270/13 RMK AO2 RAE17 SLP092 P0000 60000 T00501011 10050 20000 51004
04850KAOH AOH20160408125512604/08/16 12:55:31  5-MIN KAOH 081755Z AUTO 25014KT 10SM FEW030 BKN041 OVC049 05/M01 A2978 1100 67 200 260/14 RMK AO2 T00501006
04850KAOH AOH20160408130011904/08/16 13:00:31  5-MIN KAOH 081800Z AUTO 25014KT 10SM BKN037 OVC049 04/M01 A2978 1110 67 100 260/14 RMK AO2 T00441011
04850KAOH AOH20160408130512604/08/16 13:05:31  5-MIN KAOH 081805Z AUTO 24013KT 10SM BKN034 BKN043 OVC049 04/M01 A2978 1110 67 100 250/13 RMK AO2 T00441011
04850KAOH AOH20160408131012604/08/16 13:10:31  5-MIN KAOH 081810Z AUTO 24014KT 10SM FEW030 BKN037 OVC049 05/M01 A2978 1110 64 200 250/14 RMK AO2 T00501011
04850KAOH AOH20160408131512604/08/16 13:15:31  5-MIN KAOH 081815Z AUTO 23014KT 10SM FEW030 BKN038 OVC050 05/M01 A2978 1110 64 200 240/14 RMK AO2 T00501011
04850KAOH AOH20160408132011904/08/16 13:20:31  5-MIN KAOH 081820Z AUTO 23012KT 10SM SCT030 OVC038 05/M01 A2978 1110 64 200 240/12 RMK AO2 T00501011
04850KAOH AOH20160408132511904/08/16 13:25:31  5-MIN KAOH 081825Z AUTO 23013KT 10SM SCT028 OVC038 05/M01 A2978 1110 67 200 240/13 RMK AO2 T00501006
04850KAOH AOH20160408133011904/08/16 13:30:31  5-MIN KAOH 081830Z AUTO 23012KT 10SM SCT028 OVC038 04/M01 A2977 1110 70 100 240/12 RMK AO2 T00441006
04850KAOH AOH20160408133511904/08/16 13:35:31  5-MIN KAOH 081835Z AUTO 24012KT 10SM FEW029 OVC039 04/M01 A2977 1120 70 100 250/12 RMK AO2 T00441006
04850KAOH AOH20160408134012604/08/16 13:40:31  5-MIN KAOH 081840Z AUTO 24014KT 10SM FEW029 SCT036 OVC043 05/M01 A2977 1120 67 200 240/14 RMK AO2 T00501006
04850KAOH AOH20160408134512604/08/16 13:45:31  5-MIN KAOH 081845Z AUTO 24014KT 10SM FEW027 BKN039 OVC050 05/M01 A2977 1120 67 200 250/14 RMK AO2 T00501006
04850KAOH AOH20160408135013204/08/16 13:50:31  5-MIN KAOH 081850Z AUTO 24012KT 10SM FEW027 BKN045 OVC050 05/00 A2977 1120 70 200 250/12 RMK AO2 SLP086 T00500000
04850KAOH AOH20160408135512504/08/16 13:55:31  5-MIN KAOH 081855Z AUTO 25014KT 10SM FEW027 BKN043 OVC050 06/01 A2977 1120 70 300 250/14 RMK AO2 T00560006
04850KAOH AOH20160408140012504/08/16 14:00:31  5-MIN KAOH 081900Z AUTO 23014KT 10SM SCT027 BKN043 OVC055 06/00 A2976 1120 67 300 230/14 RMK AO2 T00560000
04850KAOH AOH20160408140512504/08/16 14:05:31  5-MIN KAOH 081905Z AUTO 22015KT 10SM SCT025 BKN036 OVC055 05/01 A2976 1120 73 200 230/15 RMK AO2 T00500006
04850KAOH AOH20160408141012504/08/16 14:10:31  5-MIN KAOH 081910Z AUTO 22016KT 10SM FEW022 BKN036 OVC047 05/01 A2976 1120 76 200 230/16 RMK AO2 T00500011
04850KAOH AOH20160408141514104/08/16 14:15:31  5-MIN KAOH 081915Z AUTO 22014KT 10SM -RA SCT022 BKN027 OVC050 04/02 A2976 1120 82 200 230/14 RMK AO2 RAB12 P0000 T00440017
04850KAOH AOH20160408142014104/08/16 14:20:31  5-MIN KAOH 081920Z AUTO 23010KT 10SM -RA SCT020 BKN027 OVC042 04/02 A2976 1120 82 200 230/10 RMK AO2 RAB12 P0000 T00440017
04850KAOH AOH20160408142514104/08/16 14:25:31  5-MIN KAOH 081925Z AUTO 23014KT 10SM -RA SCT017 BKN025 OVC037 04/02 A2976 1120 82 200 240/14 RMK AO2 RAB12 P0000 T00440017
04850KAOH AOH20160408143014104/08/16 14:30:31  5-MIN KAOH 081930Z AUTO 23012KT 10SM -RA SCT015 BKN025 OVC037 04/02 A2976 1130 82 200 240/12 RMK AO2 RAB12 P0000 T00440017
04850KAOH AOH20160408143514104/08/16 14:35:31  5-MIN KAOH 081935Z AUTO 22012KT 10SM -RA FEW017 SCT025 OVC035 04/02 A2976 1130 82 200 230/12 RMK AO2 RAB12 P0000 T00440017
04850KAOH AOH20160408144014104/08/16 14:40:31  5-MIN KAOH 081940Z AUTO 22011KT 10SM -RA FEW015 SCT020 OVC035 04/02 A2975 1130 82 200 230/11 RMK AO2 RAB12 P0000 T00440017
04850KAOH AOH20160408144514104/08/16 14:45:31  5-MIN KAOH 081945Z AUTO 23013KT 10SM -RA SCT015 BKN024 OVC035 04/02 A2975 1130 82 200 230/13 RMK AO2 RAB12 P0000 T00440017
04850KAOH AOH20160408145014804/08/16 14:50:31  5-MIN KAOH 081950Z AUTO 23012KT 10SM -RA SCT017 BKN021 OVC035 04/02 A2975 1130 82 200 230/12 RMK AO2 RAB12 SLP082 P0000 T00440017
04850KAOH AOH20160408145514104/08/16 14:55:31  5-MIN KAOH 081955Z AUTO 22013G20KT 10SM -RA BKN019 BKN028 OVC035 04/01 A2975 1130 79 200 230/13G20 RMK AO2 P0000 T00440011
04850KAOH AOH20160408150014104/08/16 15:00:31  5-MIN KAOH 082000Z AUTO 22013G20KT 10SM -RA SCT017 BKN022 OVC032 04/02 A2975 1130 82 200 230/13G20 RMK AO2 P0000 T00440017
04850KAOH AOH20160408150513504/08/16 15:05:31  5-MIN KAOH 082005Z AUTO 22014KT 10SM -RA SCT017 BKN024 OVC030 04/02 A2975 1130 85 100 230/14 RMK AO2 P0000 T00390017
04850KAOH AOH20160408151013504/08/16 15:10:31  5-MIN KAOH 082010Z AUTO 22013KT 10SM -RA FEW014 BKN021 OVC030 04/02 A2975 1140 85 100 230/13 RMK AO2 P0000 T00390017
04850KAOH AOH20160408151513504/08/16 15:15:31  5-MIN KAOH 082015Z AUTO 22012KT 10SM -RA SCT014 BKN020 OVC032 04/02 A2975 1140 85 100 230/12 RMK AO2 P0000 T00390017
04850KAOH AOH20160408152013504/08/16 15:20:31  5-MIN KAOH 082020Z AUTO 22011KT 10SM -RA BKN014 BKN024 OVC032 04/02 A2974 1140 85 100 230/11 RMK AO2 P0001 T00390017
04850KAOH AOH20160408152513504/08/16 15:25:31  5-MIN KAOH 082025Z AUTO 20011KT 10SM -RA SCT012 BKN018 OVC032 04/02 A2974 1140 89 100 210/11 RMK AO2 P0001 T00390022
04850KAOH AOH20160408153013504/08/16 15:30:31  5-MIN KAOH 082030Z AUTO 21008KT 10SM -RA SCT012 BKN018 OVC036 04/02 A2974 1140 85 100 210/08 RMK AO2 P0001 T00390017
04850KAOH AOH20160408153513504/08/16 15:35:31  5-MIN KAOH 082035Z AUTO 21010KT 10SM -RA SCT012 BKN018 OVC030 04/02 A2974 1140 89 100 210/10 RMK AO2 P0001 T00390022
04850KAOH AOH20160408154013504/08/16 15:40:31  5-MIN KAOH 082040Z AUTO 21010KT 10SM -RA BKN012 BKN018 OVC026 03/02 A2974 1150 89 100 210/10 RMK AO2 P0001 T00330017
04850KAOH AOH20160408154513504/08/16 15:45:31  5-MIN KAOH 082045Z AUTO 21011KT 10SM -RA BKN012 BKN020 OVC037 03/02 A2973 1150 89 100 210/11 RMK AO2 P0001 T00330017
04850KAOH AOH20160408155015304/08/16 15:50:31  5-MIN KAOH 082050Z AUTO 21009KT 9SM -RA BKN014 BKN020 OVC026 03/02 A2973 1150 89 100 210/09 RMK AO2 SLP076 P0001 60001 T00330017 58008
04850KAOH AOH20160408155513504/08/16 15:55:31  5-MIN KAOH 082055Z AUTO 21009KT 10SM -RA SCT011 BKN016 OVC026 03/02 A2973 1150 92 100 210/09 RMK AO2 P0000 T00330022
04850KAOH AOH20160408160015104/08/16 16:00:31  5-MIN KAOH 082100Z AUTO 20011KT 10SM BKN011 BKN016 OVC023 03/02 A2973 1160 89 100 210/11 RMK AO2 RAE2057 CIG 008V012 P0000 T00330017
04850KAOH AOH20160408160513904/08/16 16:05:31  5-MIN KAOH 082105Z AUTO 19009KT 10SM SCT009 BKN014 OVC022 03/02 A2972 1160 92 100 190/09 RMK AO2 RAE2057 P0000 T00330022
04850KAOH AOH20160408161012504/08/16 16:10:31  5-MIN KAOH 082110Z AUTO 19011KT 10SM OVC012 04/02 A2972 1160 89 100 190/11 RMK AO2 RAE2057 P0000 T00390022
04850KAOH AOH20160408161513204/08/16 16:15:31  5-MIN KAOH 082115Z AUTO 18011KT 10SM BKN010 OVC016 04/02 A2972 1170 89 100 190/11 RMK AO2 RAE2057 P0000 T00390022
04850KAOH AOH20160408162013204/08/16 16:20:31  5-MIN KAOH 082120Z AUTO 19013KT 10SM BKN012 OVC050 04/02 A2971 1170 89 200 190/13 RMK AO2 RAE2057 P0000 T00390022
04850KAOH AOH20160408162513204/08/16 16:25:31  5-MIN KAOH 082125Z AUTO 19009KT 10SM BKN012 OVC050 04/02 A2971 1170 89 200 200/09 RMK AO2 RAE2057 P0000 T00390022
04850KAOH AOH20160408163013204/08/16 16:30:31  5-MIN KAOH 082130Z AUTO 20009KT 10SM BKN010 OVC055 04/02 A2971 1170 89 200 200/09 RMK AO2 RAE2057 P0000 T00390022
04850KAOH AOH20160408163513804/08/16 16:35:31  5-MIN KAOH 082135Z AUTO 21011G16KT 10SM SCT010 OVC055 04/02 A2971 1180 89 200 220/11G16 RMK AO2 RAE2057 P0000 T00390022
04850KAOH AOH20160408164014604/08/16 16:40:31  5-MIN KAOH 082140Z AUTO 21010KT 10SM -RA SCT012 BKN032 OVC050 04/02 A2971 1170 89 200 210/10 RMK AO2 RAE2057B40 P0000 T00390022
04850KAOH AOH20160408164514604/08/16 16:45:31  5-MIN KAOH 082145Z AUTO 21009KT 10SM -RA BKN012 BKN038 OVC055 04/02 A2971 1180 89 200 210/09 RMK AO2 RAE2057B40 P0000 T00390022
04850KAOH AOH20160408165013504/08/16 16:50:31  5-MIN KAOH 082150Z AUTO 21008KT 7SM -RA BKN014 BKN018 OVC055 04/02 A2971 1180 89 200 220/08 RMK AO2 RAE2057B40 P0001
04850KAOH AOH20160408165513604/08/16 16:55:31  5-MIN KAOH 082155Z AUTO 21009KT 5SM RA BR BKN012 BKN018 OVC055 04/02 A2971 1180 89 200 210/09 RMK AO2 P0001 T00390022
04850KAOH AOH20160408170014304/08/16 17:00:31  5-MIN KAOH 082200Z AUTO 22012G19KT 4SM -RA BR SCT010 BKN014 OVC025 03/02 A2971 1170 89 100 230/12G19 RMK AO2 P0002 T00330017
04850KAOH AOH20160408170513004/08/16 17:05:31  5-MIN KAOH 082205Z AUTO 23016KT 5SM -RA BR BKN012 OVC020 03/02 A2971 1170 89 100 230/16 RMK AO2 P0002 T00330017
04850KAOH AOH20160408171013304/08/16 17:10:31  5-MIN KAOH 082210Z AUTO 25010G18KT 8SM -RA BKN010 OVC014 03/02 A2971 1170 92 100 250/10G18 RMK AO2 P0002 T00330022
04850KAOH AOH20160408171514104/08/16 17:15:31  5-MIN KAOH 082215Z AUTO 25014G18KT 10SM -RA SCT010 BKN013 OVC025 04/02 A2971 1170 89 200 250/14G18 RMK AO2 P0002 T00390022
04850KAOH AOH20160408172013504/08/16 17:20:31  5-MIN KAOH 082220Z AUTO 25012KT 10SM -RA SCT010 BKN013 OVC028 04/02 A2971 1180 89 200 260/12 RMK AO2 P0002 T00390022
04850KAOH AOH20160408172514304/08/16 17:25:31  5-MIN KAOH 082225Z AUTO 24017G23KT 10SM SCT010 BKN017 OVC025 04/02 A2971 1180 89 200 250/17G23 RMK AO2 RAE22 P0003 T00390022
04850KAOH AOH20160408173014304/08/16 17:30:31  5-MIN KAOH 082230Z AUTO 26019G23KT 10SM SCT010 BKN017 OVC025 04/02 A2971 1180 85 200 260/19G23 RMK AO2 RAE22 P0003 T00390017
04850KAOH AOH20160408173513704/08/16 17:35:31  5-MIN KAOH 082235Z AUTO 26018KT 10SM SCT010 BKN020 OVC070 04/02 A2971 1170 85 200 260/18 RMK AO2 RAE22 P0003 T00390017
04850KAOH AOH20160408174013704/08/16 17:40:31  5-MIN KAOH 082240Z AUTO 26016KT 10SM FEW012 BKN020 OVC070 04/02 A2971 1170 85 200 270/16 RMK AO2 RAE22 P0003 T00390017
04850KAOH AOH20160408174515004/08/16 17:45:31  5-MIN KAOH 082245Z AUTO 26016G24KT 10SM -RA SCT016 BKN020 OVC026 04/02 A2971 1180 85 200 260/16G24 RMK AO2 RAE22B41 P0003 T00390017
04850KAOH AOH20160408175015004/08/16 17:50:31  5-MIN KAOH 082250Z AUTO 26018G25KT 10SM -RA BKN016 OVC025 04/02 A2971 1180 85 200 260/18G25 RMK AO2 RAE22B41 SLP067 P0003 T00390017
04850KAOH AOH20160408175514704/08/16 17:55:31  5-MIN KAOH 082255Z AUTO 26019G25KT 10SM -RA BKN014 BKN019 OVC025 03/02 A2971 1180 89 100 260/19G25 RMK AO2 RAB55 P0000 T00330017
04850KAOH AOH20160408180014204/08/16 18:00:31  5-MIN KAOH 082300Z AUTO 26015G22KT 10SM -RA BKN014 OVC019 03/02 A2971 1170 89 100 270/15G22 RMK AO2 RAB2255 P0000 T00330017
04850KAOH AOH20160408180513504/08/16 18:05:31  5-MIN KAOH 082305Z AUTO 27015KT 10SM BKN014 OVC020 03/02 A2971 1170 89 100 270/15 RMK AO2 RAB2255E04 P0000 T00330017
04850KAOH AOH20160408181015204/08/16 18:10:31  5-MIN KAOH 082310Z AUTO 27019G26KT 10SM OVC014 03/02 A2971 1170 89 100 280/19G26 RMK AO2 PK WND 26026/2307 RAB2255E04 P0000 T00330017
04850KAOH AOH20160408181515204/08/16 18:15:31  5-MIN KAOH 082315Z AUTO 28016G26KT 10SM OVC014 03/02 A2972 1170 89 100 280/16G26 RMK AO2 PK WND 26026/2307 RAB2255E04 P0000 T00330017
04850KAOH AOH20160408182015904/08/16 18:20:31  5-MIN KAOH 082320Z AUTO 29015G22KT 10SM BKN013 OVC018 03/02 A2972 1160 89 100 290/15G22 RMK AO2 PK WND 26026/2307 RAB2255E04 P0000 T00330017
04850KAOH AOH20160408182516604/08/16 18:25:31  5-MIN KAOH 082325Z AUTO 29015G22KT 10SM BKN013 BKN023 OVC027 03/02 A2972 1160 89 100 290/15G22 RMK AO2 PK WND 26026/2307 RAB2255E04 P0000 T00330017
04850KAOH AOH20160408183016604/08/16 18:30:31  5-MIN KAOH 082330Z AUTO 29016G22KT 10SM BKN015 BKN022 OVC029 03/02 A2972 1160 89 100 290/16G22 RMK AO2 PK WND 26026/2307 RAB2255E04 P0000 T00330017
04850KAOH AOH20160408183515904/08/16 18:35:31  5-MIN KAOH 082335Z AUTO 28015G22KT 10SM BKN013 OVC020 03/01 A2972 1160 85 100 290/15G22 RMK AO2 PK WND 26026/2307 RAB2255E04 P0000 T00330011
04850KAOH AOH20160408184015304/08/16 18:40:31  5-MIN KAOH 082340Z AUTO 29014KT 10SM BKN015 OVC025 03/01 A2973 1160 85 100 290/14 RMK AO2 PK WND 26026/2307 RAB2255E04 P0000 T00330011
04850KAOH AOH20160408184516004/08/16 18:45:31  5-MIN KAOH 082345Z AUTO 28012KT 10SM SCT015 BKN022 OVC060 03/01 A2972 1160 85 100 290/12 RMK AO2 PK WND 26026/2307 RAB2255E04 P0000 T00330011
04850KAOH AOH20160408185019104/08/16 18:50:31  5-MIN KAOH 082350Z AUTO 28011KT 10SM SCT015 BKN024 OVC050 03/01 A2972 1160 85 100 280/11 RMK AO2 PK WND 26026/2307 RAB2255E04 SLP073 P0000 60005 T00330011 10056 20033 58012
04850KAOH AOH20160408185513104/08/16 18:55:31  5-MIN KAOH 082355Z AUTO 28011G19KT 10SM SCT017 BKN026 OVC050 03/01 A2972 1160 85 100 290/11G19 RMK AO2 T00330011
04850KAOH AOH20160408190013104/08/16 19:00:31  5-MIN KAOH 090000Z AUTO 28011G19KT 10SM SCT021 BKN036 OVC055 03/01 A2972 1160 85 100 280/11G19 RMK AO2 T00330011
04850KAOH AOH20160408190512504/08/16 19:05:31  5-MIN KAOH 090005Z AUTO 27014KT 10SM FEW021 BKN041 OVC050 03/01 A2972 1160 85 100 280/14 RMK AO2 T00330011
04850KAOH AOH20160408191016504/08/16 19:10:31  5-MIN KAOH 090010Z AUTO 25021G26KT 6SM -RA BR FEW010 BKN037 OVC046 03/01 A2973 1150 89 0 260/21G26 RMK AO2 PK WND 25026/0010 RAB09 P0000 T00280011
04850KAOH AOH20160408191516804/08/16 19:15:31  5-MIN KAOH 090015Z AUTO 26016G26KT 3SM +RA BR FEW008 BKN029 OVC039 01/00 A2973 1150 92 -200 270/16G26 RMK AO2 PK WND 25026/0010 RAB09 P0002 T00110000
04850KAOH AOH20160408192017004/08/16 19:20:31  5-MIN KAOH 090020Z AUTO 27015KT 4SM -SN BR SCT006 BKN015 OVC032 01/01 A2973 1150 96 -200 270/15 RMK AO2 PK WND 25026/0010 RAB09E17SNB17 P0003 T00110006
04850KAOH AOH20160408192516704/08/16 19:25:31  5-MIN KAOH 090025Z AUTO 27014KT 7SM -SN SCT006 BKN017 OVC032 01/01 A2974 1150 96 -200 280/14 RMK AO2 PK WND 25026/0010 RAB09E17SNB17 P0003 T00110006
04850KAOH AOH20160408193016604/08/16 19:30:31  5-MIN KAOH 090030Z AUTO 26013KT 9SM SCT006 BKN017 OVC031 01/01 A2973 1150 96 -200 270/13 RMK AO2 PK WND 25026/0010 RAB09E17SNB17E30 P0003 T00110006
04850KAOH AOH20160408193516604/08/16 19:35:31  5-MIN KAOH 090035Z AUTO 26014KT 9SM BKN006 BKN013 OVC032 01/01 A2974 1150 96 -200 270/14 RMK AO2 PK WND 25026/0010 RAB09E17SNB17E30 P0003 T00110006
04850KAOH AOH20160408194016704/08/16 19:40:31  5-MIN KAOH 090040Z AUTO 26015KT 10SM BKN007 BKN013 OVC023 02/01 A2974 1140 92 -100 260/15 RMK AO2 PK WND 25026/0010 RAB09E17SNB17E30 P0003 T00170006
04850KAOH AOH20160408194517304/08/16 19:45:31  5-MIN KAOH 090045Z AUTO 26019G24KT 10SM BKN009 BKN014 OVC025 02/01 A2974 1140 92 -100 270/19G24 RMK AO2 PK WND 25026/0010 RAB09E17SNB17E30 P0003 T00170006
04850KAOH AOH20160408195018004/08/16 19:50:31  5-MIN KAOH 090050Z AUTO 27017G26KT 10SM BKN009 BKN012 OVC025 02/01 A2974 1140 92 -100 270/17G26 RMK AO2 PK WND 25026/0010 RAB09E17SNB17E30 SLP080 P0003 T00170006
04850KAOH AOH20160408195513704/08/16 19:55:31  5-MIN KAOH 090055Z AUTO 27019G26KT 10SM BKN009 OVC027 02/01 A2975 1140 92 -100 280/19G26 RMK AO2 CIG 006V015 T00170006
04850KAOH AOH20160408200014804/08/16 20:00:31  5-MIN KAOH 090100Z AUTO 27018G25KT 10SM OVC009 02/01 A2975 1140 92 -100 280/18G25 RMK AO2 PK WND 27026/0057 CIG 007V015 T00170006
04850KAOH AOH20160408200513704/08/16 20:05:31  5-MIN KAOH 090105Z AUTO 28014KT 10SM BKN009 OVC025 02/01 A2975 1140 92 -100 280/14 RMK AO2 PK WND 27026/0057 T00170006
04850KAOH AOH20160408201015804/08/16 20:10:31  5-MIN KAOH 090110Z AUTO 27017G24KT 10SM UP BKN009 OVC025 02/01 A2975 1140 92 -100 280/17G24 RMK AO2 PK WND 27026/0057 UPB08 P0000 T00170006
04850KAOH AOH20160408201515804/08/16 20:15:31  5-MIN KAOH 090115Z AUTO 28017G24KT 10SM UP BKN009 OVC025 02/00 A2975 1140 89 -100 290/17G24 RMK AO2 PK WND 27026/0057 UPB08 P0000 T00170000
04850KAOH AOH20160408202016504/08/16 20:20:31  5-MIN KAOH 090120Z AUTO 28017G23KT 10SM BKN011 BKN025 OVC035 02/00 A2975 1130 89 -100 280/17G23 RMK AO2 PK WND 27026/0057 UPB08E18 P0000 T00170000
04850KAOH AOH20160408202516504/08/16 20:25:31  5-MIN KAOH 090125Z AUTO 28019G25KT 10SM BKN011 BKN025 OVC036 02/00 A2975 1130 89 -100 290/19G25 RMK AO2 PK WND 27026/0057 UPB08E18 P0000 T00170000
04850KAOH AOH20160408203015804/08/16 20:30:31  5-MIN KAOH 090130Z AUTO 28016G25KT 10SM BKN011 OVC025 02/00 A2975 1130 89 -100 280/16G25 RMK AO2 PK WND 27026/0057 UPB08E18 P0000 T00170000
04850KAOH AOH20160408203515804/08/16 20:35:31  5-MIN KAOH 090135Z AUTO 28018G26KT 10SM BKN011 OVC027 02/00 A2976 1130 89 -100 280/18G26 RMK AO2 PK WND 27026/0057 UPB08E18 P0000 T00170000
04850KAOH AOH20160408204015104/08/16 20:40:31  5-MIN KAOH 090140Z AUTO 27017G26KT 10SM OVC012 02/00 A2976 1130 89 -100 280/17G26 RMK AO2 PK WND 27026/0057 UPB08E18 P0000 T00170000
04850KAOH AOH20160408204515104/08/16 20:45:31  5-MIN KAOH 090145Z AUTO 28015G23KT 10SM OVC012 02/00 A2976 1130 89 -100 280/15G23 RMK AO2 PK WND 27026/0057 UPB08E18 P0000 T00170000
04850KAOH AOH20160408205016604/08/16 20:50:31  5-MIN KAOH 090150Z AUTO 28019G25KT 10SM BKN012 OVC065 02/M01 A2976 1130 85 -100 290/19G25 RMK AO2 PK WND 27026/0057 UPB08E18 SLP086 P0000 T00171006
04850KAOH AOH20160408205513604/08/16 20:55:31  5-MIN KAOH 090155Z AUTO 28018G25KT 10SM -SN BKN012 OVC060 01/M01 A2976 1120 89 -200 290/18G25 RMK AO2 P0000 T00111006
04850KAOH AOH20160408210014204/08/16 21:00:31  5-MIN KAOH 090200Z AUTO 29020G24KT 9SM -SN BKN013 BKN035 OVC050 01/M01 A2976 1120 89 -200 300/20G24 RMK AO2 P0000 T00111006
04850KAOH AOH20160408210514204/08/16 21:05:31  5-MIN KAOH 090205Z AUTO 29016G24KT 9SM -SN BKN013 BKN037 OVC050 01/M01 A2976 1130 85 -200 300/16G24 RMK AO2 P0000 T00111011
04850KAOH AOH20160408211013804/08/16 21:10:31  5-MIN KAOH 090210Z AUTO 30016KT 9SM SCT013 BKN040 OVC055 01/M02 A2976 1130 82 -200 300/16 RMK AO2 SNE09 P0000 T00111017
04850KAOH AOH20160408211513904/08/16 21:15:31  5-MIN KAOH 090215Z AUTO 30012KT 10SM FEW013 BKN044 OVC060 01/M02 A2976 1130 82 -200 300/12 RMK AO2 SNE09 P0000 T00111017
04850KAOH AOH20160408212013904/08/16 21:20:31  5-MIN KAOH 090220Z AUTO 30015KT 10SM FEW013 BKN042 OVC070 01/M02 A2976 1130 82 -200 300/15 RMK AO2 SNE09 P0000 T00111017
04850KAOH AOH20160408212514504/08/16 21:25:31  5-MIN KAOH 090225Z AUTO 30015G20KT 10SM BKN042 BKN055 OVC100 01/M02 A2976 1130 82 -200 300/15G20 RMK AO2 SNE09 P0000 T00111017
04850KAOH AOH20160409073012804/09/16 07:30:31  5-MIN KAOH 091230Z AUTO 32016KT 10SM FEW021 BKN033 BKN060 M04/M07 A3002 890 78 -1100 330/16 RMK AO2 T10391072
04850KAOH AOH20160409073512804/09/16 07:35:31  5-MIN KAOH 091235Z AUTO 31015KT 10SM FEW021 SCT033 BKN060 M03/M07 A3002 890 74 -1100 320/15 RMK AO2 T10331072
04850KAOH AOH20160409074013404/09/16 07:40:31  5-MIN KAOH 091240Z AUTO 32018G25KT 10SM FEW021 SCT034 BKN060 M04/M07 A3002 880 78 -1100 320/18G25 RMK AO2 T10391072
04850KAOH AOH20160409074512704/09/16 07:45:31  5-MIN KAOH 091245Z AUTO 32017G25KT 10SM SCT020 SCT060 M03/M07 A3003 880 74 -1100 330/17G25 RMK AO2 T10331072
04850KAOH AOH20160409075012104/09/16 07:50:31  5-MIN KAOH 091250Z AUTO 33015KT 10SM SCT020 M03/M07 A3003 880 74 -1100 330/15 RMK AO2 SLP180 T10331072
04850KAOH AOH20160409075512004/09/16 07:55:31  5-MIN KAOH 091255Z AUTO 32013G20KT 10SM SCT020 M03/M07 A3003 870 74 -1100 330/13G20 RMK AO2 T10331072
04850KAOH AOH20160409080012004/09/16 08:00:31  5-MIN KAOH 091300Z AUTO 32016G23KT 10SM SCT020 M03/M07 A3004 870 74 -1100 330/16G23 RMK AO2 T10331072
04850KAOH AOH20160409080511404/09/16 08:05:31  5-MIN KAOH 091305Z AUTO 31016KT 10SM SCT020 M03/M07 A3004 870 74 -1100 320/16 RMK AO2 T10331072
04850KAOH AOH20160409081012004/09/16 08:10:31  5-MIN KAOH 091310Z AUTO 32013G22KT 10SM SCT020 M03/M07 A3004 860 74 -1100 320/13G22 RMK AO2 T10331072
04850KAOH AOH20160409081512004/09/16 08:15:31  5-MIN KAOH 091315Z AUTO 32018G24KT 10SM SCT021 M03/M07 A3005 860 74 -1100 330/18G24 RMK AO2 T10331072
04850KAOH AOH20160409082012004/09/16 08:20:31  5-MIN KAOH 091320Z AUTO 32013G24KT 10SM SCT021 M03/M07 A3005 860 74 -1100 330/13G24 RMK AO2 T10331072
04850KAOH AOH20160409082512004/09/16 08:25:31  5-MIN KAOH 091325Z AUTO 33016G21KT 10SM BKN021 M03/M07 A3005 860 71 -1000 340/16G21 RMK AO2 T10281072
04850KAOH AOH20160409083012004/09/16 08:30:31  5-MIN KAOH 091330Z AUTO 33018G22KT 10SM BKN021 M03/M07 A3005 850 71 -1000 340/18G22 RMK AO2 T10281072
04850KAOH AOH20160409083512004/09/16 08:35:31  5-MIN KAOH 091335Z AUTO 31016G23KT 10SM BKN021 M03/M07 A3006 850 71 -1000 320/16G23 RMK AO2 T10281072
04850KAOH AOH20160409084012004/09/16 08:40:31  5-MIN KAOH 091340Z AUTO 33017G23KT 10SM BKN021 M03/M07 A3006 850 75 -1000 340/17G23 RMK AO2 T10281067
04850KAOH AOH20160409084512004/09/16 08:45:31  5-MIN KAOH 091345Z AUTO 32017G23KT 10SM BKN021 M03/M07 A3006 850 75 -1000 320/17G23 RMK AO2 T10281067
04850KAOH AOH20160409085012704/09/16 08:50:31  5-MIN KAOH 091350Z AUTO 32016G23KT 10SM BKN023 M03/M07 A3006 840 75 -1000 320/16G23 RMK AO2 SLP191 T10281067
04850KAOH AOH20160409085512004/09/16 08:55:31  5-MIN KAOH 091355Z AUTO 33013G23KT 10SM BKN023 M03/M07 A3007 840 75 -1000 330/13G23 RMK AO2 T10281067
04850KAOH AOH20160409090012004/09/16 09:00:31  5-MIN KAOH 091400Z AUTO 31016G23KT 10SM OVC023 M02/M06 A3007 840 75 -1000 320/16G23 RMK AO2 T10221061
04850KAOH AOH20160409090512004/09/16 09:05:31  5-MIN KAOH 091405Z AUTO 32015G21KT 10SM OVC023 M02/M07 A3008 830 69 -1000 320/15G21 RMK AO2 T10221072
04850KAOH AOH20160409091011404/09/16 09:10:31  5-MIN KAOH 091410Z AUTO 33013KT 10SM OVC023 M02/M07 A3008 830 72 -1000 340/13 RMK AO2 T10221067
04850KAOH AOH20160409091512104/09/16 09:15:31  5-MIN KAOH 091415Z AUTO 33016KT 10SM BKN025 OVC029 M02/M07 A3008 830 69 -1000 330/16 RMK AO2 T10221072
04850KAOH AOH20160409092011404/09/16 09:20:31  5-MIN KAOH 091420Z AUTO 33017KT 10SM OVC025 M02/M07 A3009 830 69 -1000 340/17 RMK AO2 T10221072
04850KAOH AOH20160409092512004/09/16 09:25:31  5-MIN KAOH 091425Z AUTO 31018G22KT 10SM OVC025 M02/M07 A3009 820 69 -1000 320/18G22 RMK AO2 T10221072
04850KAOH AOH20160409093012004/09/16 09:30:31  5-MIN KAOH 091430Z AUTO 33015G22KT 10SM OVC026 M02/M07 A3009 820 72 -1000 330/15G22 RMK AO2 T10221067
04850KAOH AOH20160409093512004/09/16 09:35:31  5-MIN KAOH 091435Z AUTO 33017G21KT 10SM OVC026 M02/M07 A3010 810 69 -1000 340/17G21 RMK AO2 T10221072
04850KAOH AOH20160409094011404/09/16 09:40:31  5-MIN KAOH 091440Z AUTO 33013KT 10SM OVC026 M02/M08 A3010 810 66 -1000 340/13 RMK AO2 T10221078
04850KAOH AOH20160409094511404/09/16 09:45:31  5-MIN KAOH 091445Z AUTO 33014KT 10SM OVC026 M02/M07 A3010 810 69 -1000 330/14 RMK AO2 T10221072
04850KAOH AOH20160409095012704/09/16 09:50:31  5-MIN KAOH 091450Z AUTO 32014KT 10SM OVC026 M02/M07 A3011 800 69 -1000 320/14 RMK AO2 SLP206 T10221072 51040
04850KAOH AOH20160409095512704/09/16 09:55:31  5-MIN KAOH 091455Z AUTO 31013G19KT 10SM BKN026 OVC031 M02/M07 A3011 800 72 -1000 320/13G19 RMK AO2 T10221067
04850KAOH AOH20160409100012104/09/16 10:00:31  5-MIN KAOH 091500Z AUTO 30015KT 10SM BKN025 OVC031 M02/M07 A3012 800 72 -1000 310/15 RMK AO2 T10221067
04850KAOH AOH20160409100511404/09/16 10:05:31  5-MIN KAOH 091505Z AUTO 30017KT 10SM OVC025 M02/M07 A3012 790 72 -1000 300/17 RMK AO2 T10221067
04850KAOH AOH20160409101011404/09/16 10:10:31  5-MIN KAOH 091510Z AUTO 32014KT 10SM OVC025 M02/M07 A3012 790 69 -1000 330/14 RMK AO2 T10221072
04850KAOH AOH20160409101512804/09/16 10:15:31  5-MIN KAOH 091515Z AUTO 31012KT 10SM BKN025 BKN031 OVC055 M02/M07 A3012 790 72 -1000 320/12 RMK AO2 T10221067
04850KAOH AOH20160409102012104/09/16 10:20:31  5-MIN KAOH 091520Z AUTO 31015KT 10SM BKN026 OVC031 M02/M06 A3013 790 75 -1000 320/15 RMK AO2 T10221061
04850KAOH AOH20160409102512104/09/16 10:25:31  5-MIN KAOH 091525Z AUTO 30013KT 10SM BKN026 OVC050 M02/M07 A3013 780 72 -1000 310/13 RMK AO2 T10221067
04850KAOH AOH20160409103012804/09/16 10:30:31  5-MIN KAOH 091530Z AUTO 32014KT 10SM BKN026 BKN030 OVC050 M02/M06 A3013 780 72 -1000 320/14 RMK AO2 T10171061
04850KAOH AOH20160409103513404/09/16 10:35:31  5-MIN KAOH 091535Z AUTO 31016G19KT 10SM BKN026 BKN034 OVC050 M02/M07 A3013 780 69 -1000 320/16G19 RMK AO2 T10171067
04850KAOH AOH20160409104013404/09/16 10:40:31  5-MIN KAOH 091540Z AUTO 31014G19KT 10SM BKN026 BKN032 OVC050 M02/M07 A3014 780 69 -1000 310/14G19 RMK AO2 T10171067
04850KAOH AOH20160409104512804/09/16 10:45:31  5-MIN KAOH 091545Z AUTO 30016KT 10SM BKN024 BKN029 OVC050 M02/M06 A3014 770 72 -1000 310/16 RMK AO2 T10171061
04850KAOH AOH20160409105013504/09/16 10:50:31  5-MIN KAOH 091550Z AUTO 30015KT 10SM BKN026 BKN031 OVC050 M02/M06 A3014 770 75 -1100 310/15 RMK AO2 SLP217 T10221061
04850KAOH AOH20160409105512104/09/16 10:55:31  5-MIN KAOH 091555Z AUTO 33014KT 10SM BKN026 OVC031 M02/M06 A3014 770 72 -1000 330/14 RMK AO2 T10171061
04850KAOH AOH20160409110012004/09/16 11:00:31  5-MIN KAOH 091600Z AUTO 32012G19KT 10SM OVC026 M02/M06 A3015 770 72 -1000 320/12G19 RMK AO2 T10171061
04850KAOH AOH20160409110512004/09/16 11:05:31  5-MIN KAOH 091605Z AUTO 32014G20KT 10SM OVC026 M02/M07 A3014 770 69 -1000 330/14G20 RMK AO2 T10171067
04850KAOH AOH20160409111012704/09/16 11:10:31  5-MIN KAOH 091610Z AUTO 32014G20KT 10SM BKN027 OVC035 M02/M06 A3014 770 72 -1000 330/14G20 RMK AO2 T10171061
04850KAOH AOH20160409111512704/09/16 11:15:31  5-MIN KAOH 091615Z AUTO 32013G20KT 10SM BKN027 OVC032 M02/M06 A3015 770 72 -1000 330/13G20 RMK AO2 T10171061
04850KAOH AOH20160409112012604/09/16 11:20:31  5-MIN KAOH 091620Z AUTO 32015G20KT 10SM BKN027 OVC034 M01/M06 A3015 770 69 -900 330/15G20 RMK AO2 T10111061
04850KAOH AOH20160409112512704/09/16 11:25:31  5-MIN KAOH 091625Z AUTO 32014G19KT 10SM BKN027 OVC034 M02/M07 A3015 770 69 -1000 320/14G19 RMK AO2 T10171067
04850KAOH AOH20160409113012004/09/16 11:30:31  5-MIN KAOH 091630Z AUTO 34014KT 10SM BKN027 OVC034 M01/M07 A3015 770 66 -900 350/14 RMK AO2 T10111067
04850KAOH AOH20160409113512004/09/16 11:35:31  5-MIN KAOH 091635Z AUTO 34012KT 10SM BKN029 OVC036 M01/M07 A3015 770 66 -900 350/12 RMK AO2 T10111067
04850KAOH AOH20160409114012704/09/16 11:40:31  5-MIN KAOH 091640Z AUTO 32012KT 10SM SCT027 BKN034 OVC042 M01/M06 A3015 760 69 -900 330/12 RMK AO2 T10111061
04850KAOH AOH20160409114512004/09/16 11:45:31  5-MIN KAOH 091645Z AUTO 34009KT 10SM SCT027 OVC036 M01/M06 A3015 760 72 -900 350/09 RMK AO2 T10111056
04850KAOH AOH20160409115014004/09/16 11:50:31  5-MIN KAOH 091650Z AUTO 34013G19KT 10SM SCT027 BKN036 OVC042 M01/M06 A3015 760 69 -900 340/13G19 RMK AO2 SLP222 T10111061
04850KAOH AOH20160409115513304/09/16 11:55:31  5-MIN KAOH 091655Z AUTO 31014G19KT 10SM SCT027 BKN034 OVC042 M01/M06 A3015 760 69 -900 310/14G19 RMK AO2 T10061056
04850KAOH AOH20160409120012804/09/16 12:00:31  5-MIN KAOH 091700Z AUTO 30013KT 10SM SCT027 BKN035 OVC042 M02/M06 A3015 760 72 -1000 310/13 RMK AO2 T10171061
04850KAOH AOH20160409120512004/09/16 12:05:31  5-MIN KAOH 091705Z AUTO 32012KT 10SM SCT027 OVC039 M01/M06 A3016 760 72 -900 320/12 RMK AO2 T10111056
04850KAOH AOH20160409121012704/09/16 12:10:31  5-MIN KAOH 091710Z AUTO 30013KT 10SM SCT027 BKN035 OVC042 M01/M06 A3016 760 69 -900 310/13 RMK AO2 T10061056
04850KAOH AOH20160409121512704/09/16 12:15:31  5-MIN KAOH 091715Z AUTO 33011KT 10SM SCT027 BKN031 OVC042 M01/M06 A3016 760 72 -900 330/11 RMK AO2 T10111056
04850KAOH AOH20160409122012704/09/16 12:20:31  5-MIN KAOH 091720Z AUTO 31012KT 10SM BKN027 BKN035 OVC042 M01/M06 A3016 760 72 -900 310/12 RMK AO2 T10111056
04850KAOH AOH20160409122512704/09/16 12:25:31  5-MIN KAOH 091725Z AUTO 33011KT 10SM BKN027 BKN040 OVC047 M01/M06 A3016 760 72 -900 330/11 RMK AO2 T10111056
04850KAOH AOH20160409123012604/09/16 12:30:31  5-MIN KAOH 091730Z AUTO 32014KT 9SM SCT027 BKN031 OVC047 M01/M06 A3016 750 72 -900 320/14 RMK AO2 T10111056
04850KAOH AOH20160409123514304/09/16 12:35:31  5-MIN KAOH 091735Z AUTO 33010KT 4SM -SN FEW017 BKN031 OVC040 M02/M06 A3016 750 75 -1000 330/10 RMK AO2 SNB31 P0000 T10171056
04850KAOH AOH20160409124014704/09/16 12:40:31  5-MIN KAOH 091740Z AUTO 36010KT 2 1/2SM -SN FEW017 BKN028 OVC037 M02/M05 A3016 750 78 -1000 360/10 RMK AO2 SNB31 P0000 T10171050
04850KAOH AOH20160409124514204/09/16 12:45:31  5-MIN KAOH 091745Z AUTO 36012KT 3SM -SN SCT023 BKN033 OVC045 M01/M04 A3016 750 78 -900 010/12 RMK AO2 SNB31 P0000 T10111044
04850KAOH AOH20160409125017204/09/16 12:50:31  5-MIN KAOH 091750Z AUTO 35010KT 8SM FEW019 BKN028 OVC047 M01/M05 A3017 750 75 -900 360/10 RMK AO2 SNB31E50 SLP226 P0000 60000 T10111050 11006 21044 53039
04850KAOH AOH20160409125514304/09/16 12:55:31  5-MIN KAOH 091755Z AUTO 34012KT 8SM -SN FEW019 BKN038 OVC045 M01/M05 A3017 750 75 -1000 340/12 RMK AO2 SNB55 P0000 T10111050
04850KAOH AOH20160409130014504/09/16 13:00:31  5-MIN KAOH 091800Z AUTO 34011KT 3SM -SN FEW019 BKN036 OVC047 M02/M06 A3017 740 75 -1000 340/11 RMK AO2 SNB1755 P0000 T10171056
04850KAOH AOH20160409130515704/09/16 13:05:31  5-MIN KAOH 091805Z AUTO 31009KT 2SM -SN BKN025 BKN029 OVC047 M02/M05 A3017 740 78 -1000 320/09 RMK AO2 VIS 1 1/4V5 SNB1755 P0000 T10171050
04850KAOH AOH20160409131015704/09/16 13:10:31  5-MIN KAOH 091810Z AUTO 33010KT 1 3/4SM -SN BKN025 BKN029 OVC046 M02/M05 A3017 740 78 -1000 330/10 RMK AO2 VIS 1V3 SNB1755 P0000 T10171050
04850KAOH AOH20160409131514904/09/16 13:15:31  5-MIN KAOH 091815Z AUTO 34012KT 2 1/2SM -SN FEW022 BKN027 OVC046 M01/M05 A3017 740 75 -1000 350/12 RMK AO2 SNB1755 P0000 T10111050
04850KAOH AOH20160409132014504/09/16 13:20:31  5-MIN KAOH 091820Z AUTO 35012KT 7SM -SN FEW024 BKN035 OVC048 M01/M05 A3017 740 75 -1000 360/12 RMK AO2 SNB1755 P0000 T10111050
04850KAOH AOH20160409132514304/09/16 13:25:31  5-MIN KAOH 091825Z AUTO 33007KT 9SM FEW024 BKN037 OVC060 M01/M05 A3017 750 72 -900 330/07 RMK AO2 SNB1755E25 P0000 T10061050
04850KAOH AOH20160409133014404/09/16 13:30:31  5-MIN KAOH 091830Z AUTO 33010KT 8SM -SN FEW024 BKN037 OVC060 M01/M05 A3017 750 72 -900 330/10 RMK AO2 SNB1755 P0000 T10061050
04850KAOH AOH20160409133514504/09/16 13:35:31  5-MIN KAOH 091835Z AUTO 33011KT 3SM -SN FEW024 BKN037 OVC060 M01/M04 A3017 740 78 -1000 340/11 RMK AO2 SNB1755 P0000 T10111044
04850KAOH AOH20160409134014504/09/16 13:40:31  5-MIN KAOH 091840Z AUTO 32007KT 3SM -SN FEW026 BKN043 OVC060 M01/M04 A3017 750 78 -1000 330/07 RMK AO2 SNB1755 P0000 T10111044
04850KAOH AOH20160409134514404/09/16 13:45:31  5-MIN KAOH 091845Z AUTO 33009KT 7SM -SN FEW020 BKN037 OVC060 M01/M05 A3017 740 72 -900 340/09 RMK AO2 SNB1755 P0000 T10061050
04850KAOH AOH20160409135015804/09/16 13:50:31  5-MIN KAOH 091850Z AUTO 34015G20KT 5SM -SN SCT023 BKN034 OVC042 M01/M05 A3017 740 75 -1000 350/15G20 RMK AO2 SNB1755 SLP229 P0000 T10111050
04850KAOH AOH20160409135514804/09/16 13:55:31  5-MIN KAOH 091855Z AUTO 32009G20KT 3/4SM -SN BR SCT015 BKN023 OVC042 M02/M04 A3018 740 85 -1100 320/09G20 RMK AO2 P0000 T10221044
04850KAOH AOH20160409140014204/09/16 14:00:31  5-MIN KAOH 091900Z AUTO 31009KT 3/4SM -SN BR SCT015 BKN023 OVC033 M02/M04 A3018 740 85 -1000 320/09 RMK AO2 P0000 T10171039
04850KAOH AOH20160409140514404/09/16 14:05:31  5-MIN KAOH 091905Z AUTO 30012KT 1 1/4SM -SN BR SCT017 BKN023 OVC033 M01/M03 A3018 740 85 -1000 310/12 RMK AO2 P0000 T10111033
04850KAOH AOH20160409141013504/09/16 14:10:31  5-MIN KAOH 091910Z AUTO 30012KT 3/4SM -SN BR BKN015 OVC023 M02/M03 A3018 740 88 -1000 310/12 RMK AO2 P0001 T10171033
04850KAOH AOH20160409141514304/09/16 14:15:31  5-MIN KAOH 091915Z AUTO 29008KT 1/2SM SN FZFG BKN013 BKN023 OVC032 M02/M03 A3018 740 92 -1100 300/08 RMK AO2 P0001 T10221033
04850KAOH AOH20160409142014404/09/16 14:20:31  5-MIN KAOH 091920Z AUTO 30008KT 1 1/4SM -SN BR BKN017 BKN023 OVC040 M02/M03 A3018 740 88 -1000 310/08 RMK AO2 P0001 T10171033
04850KAOH AOH20160409142514004/09/16 14:25:31  5-MIN KAOH 091925Z AUTO 31012KT 3SM -SN BR BKN021 BKN026 OVC042 M02/M04 A3018 740 85 -1000 310/12 RMK AO2 P0001 T10171039
04850KAOH AOH20160409143014904/09/16 14:30:31  5-MIN KAOH 091930Z AUTO 29009KT 2SM -SN BKN019 BKN028 OVC034 M01/M04 A3018 740 81 -1000 300/09 RMK AO2 VIS 1 1/2V3 P0001 T10111039
04850KAOH AOH20160409143514004/09/16 14:35:31  5-MIN KAOH 091935Z AUTO 29007KT 3SM -SN BR BKN019 BKN026 OVC031 M01/M03 A3018 740 85 -1000 290/07 RMK AO2 P0001 T10111033
04850KAOH AOH20160409144013704/09/16 14:40:31  5-MIN KAOH 091940Z AUTO 29008KT 4SM -SN BKN023 BKN033 OVC045 M01/M04 A3018 740 81 -1000 300/08 RMK AO2 P0001 T10111039
04850KAOH AOH20160409144514404/09/16 14:45:31  5-MIN KAOH 091945Z AUTO 29010KT 1 1/4SM -SN BR FEW008 BKN025 OVC033 M01/M03 A3018 740 85 -1000 300/10 RMK AO2 P0001 T10111033
04850KAOH AOH20160409145015004/09/16 14:50:31  5-MIN KAOH 091950Z AUTO 29005KT 1/2SM SN FZFG BKN014 BKN026 OVC031 M02/M03 A3018 740 92 -1000 300/05 RMK AO2 SLP230 P0001 T10171028
04850KAOH AOH20160409145514204/09/16 14:55:31  5-MIN KAOH 091955Z AUTO 31005KT 3/4SM -SN BR FEW008 BKN014 BKN030 M01/M03 A3018 740 88 -1000 310/05 RMK AO2 P0000 T10111028
04850KAOH AOH20160409150013604/09/16 15:00:31  5-MIN KAOH 092000Z AUTO 31012KT 5SM -SN BKN016 BKN030 BKN048 M01/M04 A3018 740 78 -900 320/12 RMK AO2 P0000 T10061039
04850KAOH AOH20160409150513504/09/16 15:05:31  5-MIN KAOH 092005Z AUTO 32010KT 5SM -SN FEW011 BKN023 BKN041 00/M04 A3018 740 75 -800 330/10 RMK AO2 P0000 T00001039
04850KAOH AOH20160409151013704/09/16 15:10:31  5-MIN KAOH 092010Z AUTO 30010KT 9SM FEW011 SCT023 BKN060 00/M04 A3018 740 72 -800 310/10 RMK AO2 SNE10 P0000 T00001044
04850KAOH AOH20160409151513704/09/16 15:15:31  5-MIN KAOH 092015Z AUTO 32008KT 9SM FEW020 SCT045 BKN060 01/M04 A3018 740 69 -800 330/08 RMK AO2 SNE10 P0000 T00061044
04850KAOH AOH20160409152013804/09/16 15:20:31  5-MIN KAOH 092020Z AUTO 31010KT 10SM FEW026 SCT060 BKN080 00/M05 A3018 740 69 -800 310/10 RMK AO2 SNE10 P0000 T00001050
04850KAOH AOH20160409152513804/09/16 15:25:31  5-MIN KAOH 092025Z AUTO 30009KT 10SM FEW026 SCT060 BKN080 00/M04 A3018 740 72 -800 310/09 RMK AO2 SNE10 P0000 T00001044
04850KAOH AOH20160409153013804/09/16 15:30:31  5-MIN KAOH 092030Z AUTO 31009KT 10SM FEW031 SCT060 SCT080 01/M04 A3018 740 72 -800 320/09 RMK AO2 SNE10 P0000 T00061039
04850KAOH AOH20160409153516004/09/16 15:35:31  5-MIN KAOH 092035Z AUTO 33013G18KT 290V040 10SM FEW031 SCT037 SCT060 01/M04 A3018 740 69 -700 340/13G18 300V050 RMK AO2 SNE10 P0000 T00111039
04850KAOH AOH20160409154014404/09/16 15:40:31  5-MIN KAOH 092040Z AUTO 01009G19KT 10SM FEW029 SCT037 SCT055 00/M04 A3018 740 75 -800 020/09G19 RMK AO2 SNE10 P0000 T00001039
04850KAOH AOH20160409154514504/09/16 15:45:31  5-MIN KAOH 092045Z AUTO 01010G19KT 10SM FEW029 SCT037 BKN050 M01/M04 A3018 740 78 -900 020/10G19 RMK AO2 SNE10 P0000 T10061039
04850KAOH AOH20160409155015804/09/16 15:50:31  5-MIN KAOH 092050Z AUTO 36009KT 10SM FEW027 SCT039 BKN049 M01/M04 A3018 730 78 -900 010/09 RMK AO2 SNE10 SLP232 P0000 60001 T10061039 51018
04850KAOH AOH20160409155512604/09/16 15:55:31  5-MIN KAOH 092055Z AUTO 01012KT 8SM FEW029 BKN040 BKN049 M01/M04 A3018 740 75 -900 010/12 RMK AO2 T10061044
04850KAOH AOH20160409160013704/09/16 16:00:31  5-MIN KAOH 092100Z AUTO 34009KT 5SM -SN BKN040 OVC049 M01/M05 A3018 740 72 -900 350/09 RMK AO2 SNB2056 P0000 T10061050
04850KAOH AOH20160409160514404/09/16 16:05:31  5-MIN KAOH 092105Z AUTO 35005KT 5SM -SN BKN040 BKN048 OVC055 M01/M05 A3018 740 72 -900 360/05 RMK AO2 SNB2056 P0000 T10061050
04850KAOH AOH20160409161014204/09/16 16:10:31  5-MIN KAOH 092110Z AUTO 36008KT 9SM SCT042 BKN048 OVC060 01/M04 A3018 730 72 -800 010/08 RMK AO2 SNB2056E10 P0000 T00061039
04850KAOH AOH20160409161514204/09/16 16:15:31  5-MIN KAOH 092115Z AUTO 02010KT 9SM FEW026 BKN045 OVC060 01/M04 A3019 730 69 -700 020/10 RMK AO2 SNB2056E10 P0000 T00111039
04850KAOH AOH20160409162014904/09/16 16:20:31  5-MIN KAOH 092120Z AUTO 36012G16KT 10SM FEW026 BKN041 OVC060 01/M04 A3019 730 69 -800 360/12G16 RMK AO2 SNB2056E10 P0000 T00061044
04850KAOH AOH20160409162514304/09/16 16:25:31  5-MIN KAOH 092125Z AUTO 35012KT 10SM FEW027 BKN043 OVC060 00/M05 A3019 730 69 -800 350/12 RMK AO2 SNB2056E10 P0000 T00001050
04850KAOH AOH20160409163014304/09/16 16:30:31  5-MIN KAOH 092130Z AUTO 34012KT 10SM FEW026 BKN044 OVC060 00/M05 A3020 720 69 -800 340/12 RMK AO2 SNB2056E10 P0000 T00001050
04850KAOH AOH20160409163514904/09/16 16:35:31  5-MIN KAOH 092135Z AUTO 34010G20KT 10SM FEW026 SCT043 OVC060 00/M06 A3020 720 66 -800 340/10G20 RMK AO2 SNB2056E10 P0000 T00001056
04850KAOH AOH20160409164014304/09/16 16:40:31  5-MIN KAOH 092140Z AUTO 35008KT 10SM FEW026 BKN050 OVC060 00/M06 A3019 720 63 -800 360/08 RMK AO2 SNB2056E10 P0000 T00001061
04850KAOH AOH20160409164514304/09/16 16:45:31  5-MIN KAOH 092145Z AUTO 35010KT 10SM FEW034 SCT043 OVC060 01/M06 A3020 720 63 -800 360/10 RMK AO2 SNB2056E10 P0000 T00061056
04850KAOH AOH20160409165015904/09/16 16:50:31  5-MIN KAOH 092150Z AUTO 34007KT 300V010 10SM FEW043 BKN060 01/M04 A3020 720 69 -800 340/07 310V020 RMK AO2 SNB2056E10 SLP237 P0000 T00061044
04850KAOH AOH20160409165511204/09/16 16:55:31  5-MIN KAOH 092155Z AUTO 31008KT 10SM BKN060 00/M06 A3020 720 63 -800 320/08 RMK AO2 T00001061
04850KAOH AOH20160409170011204/09/16 17:00:31  5-MIN KAOH 092200Z AUTO 31010KT 10SM SCT060 01/M07 A3020 720 56 -800 310/10 RMK AO2 T00061072
04850KAOH AOH20160409170511204/09/16 17:05:31  5-MIN KAOH 092205Z AUTO 32008KT 10SM SCT060 01/M08 A3020 720 54 -800 330/08 RMK AO2 T00061078
04850KAOH AOH20160409171011904/09/16 17:10:31  5-MIN KAOH 092210Z AUTO 34007KT 10SM FEW043 SCT060 01/M07 A3020 720 56 -800 340/07 RMK AO2 T00061072
04850KAOH AOH20160409171511204/09/16 17:15:31  5-MIN KAOH 092215Z AUTO 33011KT 10SM FEW043 00/M07 A3020 720 61 -900 340/11 RMK AO2 T00001067
04850KAOH AOH20160409172011904/09/16 17:20:31  5-MIN KAOH 092220Z AUTO 32010KT 10SM FEW043 SCT075 00/M07 A3021 710 61 -900 320/10 RMK AO2 T00001067
04850KAOH AOH20160409172511904/09/16 17:25:31  5-MIN KAOH 092225Z AUTO 34008KT 10SM SCT041 BKN070 00/M07 A3021 710 58 -900 340/08 RMK AO2 T00001072
04850KAOH AOH20160409173011904/09/16 17:30:31  5-MIN KAOH 092230Z AUTO 35011KT 10SM SCT041 BKN070 00/M06 A3021 710 66 -900 360/11 RMK AO2 T00001056
04850KAOH AOH20160409173512604/09/16 17:35:31  5-MIN KAOH 092235Z AUTO 01010KT 10SM SCT041 SCT050 BKN070 00/M05 A3021 710 69 -900 010/10 RMK AO2 T00001050
04850KAOH AOH20160409174012604/09/16 17:40:31  5-MIN KAOH 092240Z AUTO 34008KT 10SM SCT039 BKN050 BKN070 00/M06 A3021 710 66 -900 350/08 RMK AO2 T00001056
04850KAOH AOH20160409174512604/09/16 17:45:31  5-MIN KAOH 092245Z AUTO 36005KT 10SM SCT039 SCT050 OVC070 00/M06 A3021 710 63 -900 360/05 RMK AO2 T00001061
04850KAOH AOH20160409175013304/09/16 17:50:31  5-MIN KAOH 092250Z AUTO 35007KT 10SM FEW041 SCT050 BKN070 00/M07 A3021 710 61 -900 360/07 RMK AO2 SLP241 T00001067
04850KAOH AOH20160409175512604/09/16 17:55:31  5-MIN KAOH 092255Z AUTO 36005KT 10SM FEW039 FEW050 BKN070 00/M07 A3021 710 61 -900 010/05 RMK AO2 T00001067
04850KAOH AOH20160409180012604/09/16 18:00:31  5-MIN KAOH 092300Z AUTO 36006KT 10SM FEW039 FEW050 SCT070 00/M07 A3021 710 61 -900 360/06 RMK AO2 T00001067
04850KAOH AOH20160409180511904/09/16 18:05:31  5-MIN KAOH 092305Z AUTO 01003KT 10SM FEW042 FEW070 00/M07 A3021 710 58 -900 010/03 RMK AO2 T00001072
04850KAOH AOH20160409181011204/09/16 18:10:31  5-MIN KAOH 092310Z AUTO 00000KT 10SM FEW070 00/M07 A3021 710 58 -900 000/00 RMK AO2 T00001072
04850KAOH AOH20160409181510904/09/16 18:15:31  5-MIN KAOH 092315Z AUTO 35006KT 10SM CLR 00/M06 A3021 710 63 -900 360/06 RMK AO2 T00001061
04850KAOH AOH20160409182010904/09/16 18:20:31  5-MIN KAOH 092320Z AUTO 02007KT 10SM CLR 00/M06 A3021 710 63 -900 030/07 RMK AO2 T00001061
04850KAOH AOH20160409182511204/09/16 18:25:31  5-MIN KAOH 092325Z AUTO 01010KT 10SM FEW033 00/M06 A3021 710 66 -900 020/10 RMK AO2 T00001056
04850KAOH AOH20160409183011304/09/16 18:30:31  5-MIN KAOH 092330Z AUTO 02011KT 10SM SCT036 M01/M06 A3021 710 66 -900 030/11 RMK AO2 T10061061
04850KAOH AOH20160409183512004/09/16 18:35:31  5-MIN KAOH 092335Z AUTO 01008KT 10SM SCT040 BKN065 M01/M07 A3022 700 63 -900 020/08 RMK AO2 T10061067
04850KAOH AOH20160409184012704/09/16 18:40:31  5-MIN KAOH 092340Z AUTO 01008KT 10SM FEW033 BKN043 BKN050 M01/M06 A3022 700 66 -900 020/08 RMK AO2 T10061061
04850KAOH AOH20160409184512704/09/16 18:45:31  5-MIN KAOH 092345Z AUTO 36007KT 10SM FEW033 BKN043 BKN050 M01/M06 A3022 700 66 -900 010/07 RMK AO2 T10061061
04850KAOH AOH20160409185015804/09/16 18:50:31  5-MIN KAOH 092350Z AUTO 36007KT 10SM FEW033 BKN043 OVC050 M01/M06 A3022 700 66 -900 010/07 RMK AO2 SLP246 60001 T10061061 10011 21022 51005
04850KAOH AOH20160409185512004/09/16 18:55:31  5-MIN KAOH 092355Z AUTO 01007KT 10SM BKN038 OVC050 M01/M07 A3022 700 63 -900 020/07 RMK AO2 T10061067
04850KAOH AOH20160409190012804/09/16 19:00:31  5-MIN KAOH 100000Z AUTO 02006KT 10SM SCT030 BKN043 BKN050 M01/M07 A3022 700 66 -1000 020/06 RMK AO2 T10111067
04850KAOH AOH20160409190512804/09/16 19:05:31  5-MIN KAOH 100005Z AUTO 02005KT 10SM SCT030 BKN045 BKN050 M01/M07 A3022 700 66 -1000 030/05 RMK AO2 T10111067
04850KAOH AOH20160409191012804/09/16 19:10:31  5-MIN KAOH 100010Z AUTO 02004KT 10SM FEW032 SCT045 BKN050 M01/M07 A3022 700 66 -1000 030/04 RMK AO2 T10111067
04850KAOH AOH20160409191512104/09/16 19:15:31  5-MIN KAOH 100015Z AUTO 05003KT 10SM FEW032 SCT045 M01/M06 A3022 700 69 -1000 060/03 RMK AO2 T10111061
04850KAOH AOH20160409192011404/09/16 19:20:31  5-MIN KAOH 100020Z AUTO 04004KT 10SM FEW027 M01/M06 A3023 700 69 -1000 050/04 RMK AO2 T10111061
04850KAOH AOH20160409192511404/09/16 19:25:31  5-MIN KAOH 100025Z AUTO 03003KT 10SM FEW023 M01/M06 A3023 690 69 -1000 040/03 RMK AO2 T10111061
04850KAOH AOH20160409193011104/09/16 19:30:31  5-MIN KAOH 100030Z AUTO 00000KT 10SM CLR M01/M06 A3023 690 69 -1000 000/00 RMK AO2 T10111061
04850KAOH AOH20160409193511104/09/16 19:35:31  5-MIN KAOH 100035Z AUTO 04003KT 10SM CLR M01/M06 A3023 690 69 -1000 050/03 RMK AO2 T10111061
04850KAOH AOH20160409194011404/09/16 19:40:31  5-MIN KAOH 100040Z AUTO 04004KT 10SM FEW060 M01/M07 A3023 690 66 -1000 050/04 RMK AO2 T10111067
04850KAOH AOH20160409194511404/09/16 19:45:31  5-MIN KAOH 100045Z AUTO 06007KT 10SM FEW060 M02/M06 A3024 690 75 -1100 070/07 RMK AO2 T10171056
04850KAOH AOH20160409195012104/09/16 19:50:31  5-MIN KAOH 100050Z AUTO 07006KT 10SM FEW060 M02/M05 A3024 680 78 -1100 080/06 RMK AO2 SLP252 T10171050
04850KAOH AOH20160409195511404/09/16 19:55:31  5-MIN KAOH 100055Z AUTO 08006KT 10SM FEW060 M02/M05 A3024 680 78 -1100 090/06 RMK AO2 T10171050
04850KAOH AOH20160409200011404/09/16 20:00:31  5-MIN KAOH 100100Z AUTO 08006KT 10SM FEW060 M02/M05 A3024 680 81 -1200 090/06 RMK AO2 T10221050
04850KAOH AOH20160409200511404/09/16 20:05:31  5-MIN KAOH 100105Z AUTO 08005KT 10SM FEW060 M02/M05 A3024 680 81 -1200 090/05 RMK AO2 T10221050
04850KAOH AOH20160409201011104/09/16 20:10:31  5-MIN KAOH 100110Z AUTO 08005KT 10SM CLR M02/M05 A3025 680 81 -1200 090/05 RMK AO2 T10221050
04850KAOH AOH20160409201511104/09/16 20:15:31  5-MIN KAOH 100115Z AUTO 09006KT 10SM CLR M02/M05 A3025 680 81 -1200 100/06 RMK AO2 T10221050
04850KAOH AOH20160409202011104/09/16 20:20:31  5-MIN KAOH 100120Z AUTO 11004KT 10SM CLR M02/M05 A3024 680 81 -1200 110/04 RMK AO2 T10221050
04850KAOH AOH20160409202511104/09/16 20:25:31  5-MIN KAOH 100125Z AUTO 10005KT 10SM CLR M03/M05 A3024 680 85 -1300 100/05 RMK AO2 T10281050
04850KAOH AOH20160409203011104/09/16 20:30:31  5-MIN KAOH 100130Z AUTO 10005KT 10SM CLR M02/M06 A3024 680 78 -1200 100/05 RMK AO2 T10221056
04850KAOH AOH20160409203511104/09/16 20:35:31  5-MIN KAOH 100135Z AUTO 09005KT 10SM CLR M03/M06 A3024 680 81 -1200 100/05 RMK AO2 T10281056
04850KAOH AOH20160409204011104/09/16 20:40:31  5-MIN KAOH 100140Z AUTO 09005KT 10SM CLR M03/M05 A3025 680 85 -1300 100/05 RMK AO2 T10281050
04850KAOH AOH20160409204511104/09/16 20:45:31  5-MIN KAOH 100145Z AUTO 09004KT 10SM CLR M03/M05 A3025 680 85 -1300 100/04 RMK AO2 T10281050
04850KAOH AOH20160409205011804/09/16 20:50:31  5-MIN KAOH 100150Z AUTO 09004KT 10SM CLR M03/M05 A3025 670 85 -1300 100/04 RMK AO2 SLP256 T10281050
04850KAOH AOH20160409205511104/09/16 20:55:31  5-MIN KAOH 100155Z AUTO 10004KT 10SM CLR M03/M06 A3025 670 81 -1300 110/04 RMK AO2 T10281056
04850KAOH AOH20160409210011104/09/16 21:00:31  5-MIN KAOH 100200Z AUTO 11004KT 10SM CLR M03/M06 A3025 670 81 -1300 120/04 RMK AO2 T10281056
04850KAOH AOH20160409210511104/09/16 21:05:31  5-MIN KAOH 100205Z AUTO 11003KT 10SM CLR M03/M05 A3025 670 85 -1300 110/03 RMK AO2 T10281050
04850KAOH AOH20160409211011104/09/16 21:10:31  5-MIN KAOH 100210Z AUTO 11004KT 10SM CLR M03/M06 A3025 670 81 -1300 120/04 RMK AO2 T10281056
04850KAOH AOH20160409211511104/09/16 21:15:31  5-MIN KAOH 100215Z AUTO 11005KT 10SM CLR M03/M06 A3026 670 81 -1300 120/05 RMK AO2 T10281056
04850KAOH AOH20160409212011104/09/16 21:20:31  5-MIN KAOH 100220Z AUTO 11005KT 10SM CLR M03/M06 A3026 670 81 -1300 120/05 RMK AO2 T10281056
04850KAOH AOH20160409212511104/09/16 21:25:31  5-MIN KAOH 100225Z AUTO 12006KT 10SM CLR M03/M06 A3026 670 81 -1300 130/06 RMK AO2 T10281056
04850KAOH AOH20160409213011104/09/16 21:30:31  5-MIN KAOH 100230Z AUTO 12005KT 10SM CLR M03/M06 A3026 670 81 -1300 130/05 RMK AO2 T10281056
04850KAOH AOH20160409213511104/09/16 21:35:31  5-MIN KAOH 100235Z AUTO 13005KT 10SM CLR M03/M06 A3026 670 81 -1300 130/05 RMK AO2 T10281056
04850KAOH AOH20160409214011104/09/16 21:40:31  5-MIN KAOH 100240Z AUTO 13005KT 10SM CLR M03/M06 A3026 670 81 -1300 130/05 RMK AO2 T10281056
04850KAOH AOH20160409214511104/09/16 21:45:31  5-MIN KAOH 100245Z AUTO 12006KT 10SM CLR M03/M06 A3026 670 81 -1300 120/06 RMK AO2 T10281056
04850KAOH AOH20160409215012404/09/16 21:50:31  5-MIN KAOH 100250Z AUTO 12006KT 10SM CLR M03/M06 A3026 670 81 -1300 130/06 RMK AO2 SLP258 T10281056 51012
04850KAOH AOH20160409215511104/09/16 21:55:31  5-MIN KAOH 100255Z AUTO 12006KT 10SM CLR M03/M06 A3026 670 81 -1300 130/06 RMK AO2 T10281056
04850KAOH AOH20160409220011104/09/16 22:00:31  5-MIN KAOH 100300Z AUTO 12005KT 10SM CLR M03/M06 A3026 660 81 -1300 130/05 RMK AO2 T10281056
04850KAOH AOH20160409220511104/09/16 22:05:31  5-MIN KAOH 100305Z AUTO 12005KT 10SM CLR M03/M06 A3026 670 81 -1300 130/05 RMK AO2 T10281056
04850KAOH AOH20160409221011104/09/16 22:10:31  5-MIN KAOH 100310Z AUTO 12006KT 10SM CLR M03/M06 A3026 670 81 -1300 130/06 RMK AO2 T10281056
04850KAOH AOH20160409221511104/09/16 22:15:31  5-MIN KAOH 100315Z AUTO 12005KT 10SM CLR M03/M06 A3026 670 81 -1300 130/05 RMK AO2 T10281056
04850KAOH AOH20160409222011104/09/16 22:20:31  5-MIN KAOH 100320Z AUTO 12006KT 10SM CLR M03/M06 A3026 670 81 -1300 130/06 RMK AO2 T10281056
04850KAOH AOH20160409222511104/09/16 22:25:31  5-MIN KAOH 100325Z AUTO 13006KT 10SM CLR M03/M06 A3026 670 81 -1300 140/06 RMK AO2 T10281056
04850KAOH AOH20160409223011104/09/16 22:30:31  5-MIN KAOH 100330Z AUTO 13007KT 10SM CLR M03/M06 A3025 670 81 -1300 140/07 RMK AO2 T10281056
04850KAOH AOH20160409223511104/09/16 22:35:31  5-MIN KAOH 100335Z AUTO 14007KT 10SM CLR M03/M06 A3025 670 81 -1300 140/07 RMK AO2 T10281056
04850KAOH AOH20160409224011104/09/16 22:40:31  5-MIN KAOH 100340Z AUTO 13007KT 10SM CLR M03/M06 A3025 670 81 -1300 140/07 RMK AO2 T10281056
04850KAOH AOH20160409224511104/09/16 22:45:31  5-MIN KAOH 100345Z AUTO 13007KT 10SM CLR M03/M06 A3025 670 81 -1300 140/07 RMK AO2 T10281056
04850KAOH AOH20160409225011804/09/16 22:50:31  5-MIN KAOH 100350Z AUTO 13007KT 10SM CLR M03/M06 A3025 670 81 -1300 140/07 RMK AO2 SLP256 T10281056
04850KAOH AOH20160409225511104/09/16 22:55:31  5-MIN KAOH 100355Z AUTO 13006KT 10SM CLR M03/M06 A3025 670 81 -1300 140/06 RMK AO2 T10281056
04850KAOH AOH20160409230011104/09/16 23:00:31  5-MIN KAOH 100400Z AUTO 13006KT 10SM CLR M03/M06 A3025 670 81 -1300 140/06 RMK AO2 T10281056
04850KAOH AOH20160409230511104/09/16 23:05:31  5-MIN KAOH 100405Z AUTO 13007KT 10SM CLR M03/M06 A3025 670 81 -1300 130/07 RMK AO2 T10281056
04850KAOH AOH20160409231011104/09/16 23:10:31  5-MIN KAOH 100410Z AUTO 13006KT 10SM CLR M03/M06 A3025 670 81 -1300 130/06 RMK AO2 T10281056
04850KAOH AOH20160409231511104/09/16 23:15:31  5-MIN KAOH 100415Z AUTO 13007KT 10SM CLR M03/M06 A3025 680 81 -1300 130/07 RMK AO2 T10281056
04850KAOH AOH20160409232011104/09/16 23:20:31  5-MIN KAOH 100420Z AUTO 13008KT 10SM CLR M03/M06 A3025 680 81 -1300 130/08 RMK AO2 T10281056
04850KAOH AOH20160409232511104/09/16 23:25:31  5-MIN KAOH 100425Z AUTO 13008KT 10SM CLR M03/M06 A3025 680 81 -1300 130/08 RMK AO2 T10281056
04850KAOH AOH20160409233011104/09/16 23:30:31  5-MIN KAOH 100430Z AUTO 13008KT 10SM CLR M03/M06 A3025 680 81 -1300 140/08 RMK AO2 T10281056
04850KAOH AOH20160409233511104/09/16 23:35:31  5-MIN KAOH 100435Z AUTO 13009KT 10SM CLR M03/M06 A3024 680 81 -1200 140/09 RMK AO2 T10281056
04850KAOH AOH20160409234011104/09/16 23:40:31  5-MIN KAOH 100440Z AUTO 13009KT 10SM CLR M03/M06 A3024 680 81 -1200 140/09 RMK AO2 T10281056
04850KAOH AOH20160409234511104/09/16 23:45:31  5-MIN KAOH 100445Z AUTO 13009KT 10SM CLR M03/M06 A3024 680 81 -1200 140/09 RMK AO2 T10281056
04850KAOH AOH20160409235012804/09/16 23:50:31  5-MIN KAOH 100450Z AUTO 14008KT 10SM CLR M03/M06 A3023 690 81 -1200 140/08 RMK AO2 SLP249 T10281056 400111044
04850KAOH AOH20160409235511104/09/16 23:55:31  5-MIN KAOH 100455Z AUTO 13009KT 10SM CLR M03/M06 A3023 690 81 -1200 140/09 RMK AO2 T10281056
04850KAOH AOH20160410000011404/10/16 00:00:31  5-MIN KAOH 100500Z AUTO 13009KT 10SM FEW110 M03/M06 A3023 700 81 -1200 140/09 RMK AO2 T10281056
04850KAOH AOH20160410000511404/10/16 00:05:31  5-MIN KAOH 100505Z AUTO 13009KT 10SM SCT120 M03/M06 A3022 700 81 -1200 140/09 RMK AO2 T10281056
04850KAOH AOH20160410001011404/10/16 00:10:31  5-MIN KAOH 100510Z AUTO 13008KT 10SM FEW120 M03/M06 A3023 700 81 -1200 140/08 RMK AO2 T10281056
04850KAOH AOH20160410001511404/10/16 00:15:31  5-MIN KAOH 100515Z AUTO 14008KT 10SM FEW120 M03/M06 A3023 690 81 -1200 150/08 RMK AO2 T10281056
04850KAOH AOH20160410002011404/10/16 00:20:31  5-MIN KAOH 100520Z AUTO 14007KT 10SM FEW120 M02/M06 A3023 690 78 -1200 140/07 RMK AO2 T10221056
04850KAOH AOH20160410002511404/10/16 00:25:31  5-MIN KAOH 100525Z AUTO 14009KT 10SM FEW120 M02/M06 A3023 690 78 -1200 140/09 RMK AO2 T10221056
04850KAOH AOH20160410003011104/10/16 00:30:31  5-MIN KAOH 100530Z AUTO 13009KT 10SM CLR M02/M06 A3023 690 78 -1200 140/09 RMK AO2 T10221056
04850KAOH AOH20160410003511104/10/16 00:35:31  5-MIN KAOH 100535Z AUTO 14008KT 10SM CLR M02/M06 A3023 690 78 -1200 140/08 RMK AO2 T10221056
04850KAOH AOH20160410004011104/10/16 00:40:31  5-MIN KAOH 100540Z AUTO 14008KT 10SM CLR M02/M06 A3023 690 75 -1200 150/08 RMK AO2 T10221061
04850KAOH AOH20160410004511104/10/16 00:45:31  5-MIN KAOH 100545Z AUTO 14008KT 10SM CLR M02/M06 A3024 690 75 -1200 150/08 RMK AO2 T10221061
04850KAOH AOH20160410005013604/10/16 00:50:31  5-MIN KAOH 100550Z AUTO 14008KT 10SM CLR M02/M06 A3023 690 75 -1200 150/08 RMK AO2 SLP249 T10221061 11006 21028 51012
04850KAOH AOH20160410005511104/10/16 00:55:31  5-MIN KAOH 100555Z AUTO 14008KT 10SM CLR M02/M06 A3023 690 78 -1200 140/08 RMK AO2 T10221056
04850KAOH AOH20160410010011104/10/16 01:00:31  5-MIN KAOH 100600Z AUTO 14009KT 10SM CLR M02/M06 A3023 700 78 -1200 140/09 RMK AO2 T10221056
04850KAOH AOH20160410010511104/10/16 01:05:31  5-MIN KAOH 100605Z AUTO 14008KT 10SM CLR M02/M06 A3023 700 78 -1200 140/08 RMK AO2 T10221056
04850KAOH AOH20160410011011104/10/16 01:10:31  5-MIN KAOH 100610Z AUTO 14009KT 10SM CLR M02/M06 A3022 700 78 -1200 150/09 RMK AO2 T10221056
04850KAOH AOH20160410011511104/10/16 01:15:31  5-MIN KAOH 100615Z AUTO 14009KT 10SM CLR M03/M06 A3022 700 81 -1200 150/09 RMK AO2 T10281056
04850KAOH AOH20160410012011104/10/16 01:20:31  5-MIN KAOH 100620Z AUTO 14007KT 10SM CLR M03/M06 A3022 700 81 -1200 150/07 RMK AO2 T10281056
04850KAOH AOH20160410012511104/10/16 01:25:31  5-MIN KAOH 100625Z AUTO 14006KT 10SM CLR M03/M06 A3023 700 81 -1200 150/06 RMK AO2 T10281056
04850KAOH AOH20160410013011104/10/16 01:30:31  5-MIN KAOH 100630Z AUTO 14008KT 10SM CLR M03/M06 A3022 700 81 -1200 140/08 RMK AO2 T10281056
04850KAOH AOH20160410013511104/10/16 01:35:31  5-MIN KAOH 100635Z AUTO 14007KT 10SM CLR M03/M06 A3022 700 81 -1200 140/07 RMK AO2 T10281056
04850KAOH AOH20160410014011104/10/16 01:40:31  5-MIN KAOH 100640Z AUTO 13007KT 10SM CLR M03/M06 A3022 700 81 -1200 140/07 RMK AO2 T10281056
04850KAOH AOH20160410014511104/10/16 01:45:31  5-MIN KAOH 100645Z AUTO 13008KT 10SM CLR M03/M06 A3022 700 81 -1200 140/08 RMK AO2 T10281056
04850KAOH AOH20160410015011804/10/16 01:50:31  5-MIN KAOH 100650Z AUTO 13007KT 10SM CLR M03/M05 A3022 700 85 -1200 140/07 RMK AO2 SLP244 T10281050
04850KAOH AOH20160410015511104/10/16 01:55:31  5-MIN KAOH 100655Z AUTO 14008KT 10SM CLR M03/M05 A3022 700 85 -1200 140/08 RMK AO2 T10281050
04850KAOH AOH20160410020011104/10/16 02:00:31  5-MIN KAOH 100700Z AUTO 13007KT 10SM CLR M03/M05 A3022 700 85 -1200 140/07 RMK AO2 T10281050
04850KAOH AOH20160410020511104/10/16 02:05:31  5-MIN KAOH 100705Z AUTO 14008KT 10SM CLR M03/M05 A3022 700 85 -1200 140/08 RMK AO2 T10281050
04850KAOH AOH20160410021011104/10/16 02:10:31  5-MIN KAOH 100710Z AUTO 14009KT 10SM CLR M03/M05 A3022 700 85 -1200 140/09 RMK AO2 T10281050
04850KAOH AOH20160410021511104/10/16 02:15:31  5-MIN KAOH 100715Z AUTO 14007KT 10SM CLR M03/M05 A3022 700 85 -1200 140/07 RMK AO2 T10281050
04850KAOH AOH20160410022011104/10/16 02:20:31  5-MIN KAOH 100720Z AUTO 13007KT 10SM CLR M03/M05 A3022 700 85 -1200 140/07 RMK AO2 T10281050
04850KAOH AOH20160410022511104/10/16 02:25:31  5-MIN KAOH 100725Z AUTO 14008KT 10SM CLR M03/M05 A3022 700 85 -1200 150/08 RMK AO2 T10281050
04850KAOH AOH20160410023011104/10/16 02:30:31  5-MIN KAOH 100730Z AUTO 14007KT 10SM CLR M03/M05 A3022 700 85 -1200 140/07 RMK AO2 T10281050
04850KAOH AOH20160410023511104/10/16 02:35:31  5-MIN KAOH 100735Z AUTO 14007KT 10SM CLR M03/M05 A3022 700 85 -1200 150/07 RMK AO2 T10281050
04850KAOH AOH20160410024011104/10/16 02:40:31  5-MIN KAOH 100740Z AUTO 15008KT 10SM CLR M03/M05 A3022 700 85 -1200 150/08 RMK AO2 T10281050
04850KAOH AOH20160410024511104/10/16 02:45:31  5-MIN KAOH 100745Z AUTO 14008KT 10SM CLR M03/M05 A3023 700 85 -1200 150/08 RMK AO2 T10281050
04850KAOH AOH20160410025011804/10/16 02:50:31  5-MIN KAOH 100750Z AUTO 14007KT 10SM CLR M03/M05 A3022 700 85 -1200 150/07 RMK AO2 SLP247 T10281050
04850KAOH AOH20160410025511104/10/16 02:55:31  5-MIN KAOH 100755Z AUTO 14008KT 10SM CLR M03/M05 A3022 700 85 -1200 150/08 RMK AO2 T10281050
04850KAOH AOH20160410030011104/10/16 03:00:31  5-MIN KAOH 100800Z AUTO 14007KT 10SM CLR M03/M05 A3022 700 85 -1200 150/07 RMK AO2 T10281050
04850KAOH AOH20160410030511104/10/16 03:05:31  5-MIN KAOH 100805Z AUTO 15007KT 10SM CLR M03/M06 A3022 700 81 -1200 150/07 RMK AO2 T10281056
04850KAOH AOH20160410031011404/10/16 03:10:31  5-MIN KAOH 100810Z AUTO 14008KT 10SM FEW110 M03/M05 A3022 700 85 -1200 150/08 RMK AO2 T10281050
04850KAOH AOH20160410031511404/10/16 03:15:31  5-MIN KAOH 100815Z AUTO 14007KT 10SM BKN110 M03/M05 A3022 700 85 -1200 150/07 RMK AO2 T10281050
04850KAOH AOH20160410032011404/10/16 03:20:31  5-MIN KAOH 100820Z AUTO 14007KT 10SM BKN110 M02/M05 A3021 710 81 -1100 140/07 RMK AO2 T10221050
04850KAOH AOH20160410032511404/10/16 03:25:31  5-MIN KAOH 100825Z AUTO 14007KT 10SM BKN110 M02/M05 A3021 710 81 -1100 150/07 RMK AO2 T10221050
04850KAOH AOH20160410033011404/10/16 03:30:31  5-MIN KAOH 100830Z AUTO 15007KT 10SM OVC110 M02/M05 A3021 710 81 -1100 150/07 RMK AO2 T10221050
04850KAOH AOH20160410033511404/10/16 03:35:31  5-MIN KAOH 100835Z AUTO 14007KT 10SM OVC110 M02/M05 A3021 710 81 -1100 150/07 RMK AO2 T10221050
04850KAOH AOH20160410034011404/10/16 03:40:31  5-MIN KAOH 100840Z AUTO 15007KT 10SM OVC110 M02/M05 A3021 710 81 -1100 160/07 RMK AO2 T10221050
04850KAOH AOH20160410034511404/10/16 03:45:31  5-MIN KAOH 100845Z AUTO 15008KT 10SM OVC110 M02/M05 A3021 710 81 -1100 160/08 RMK AO2 T10221050
04850KAOH AOH20160410035012704/10/16 03:50:31  5-MIN KAOH 100850Z AUTO 15008KT 10SM OVC110 M02/M05 A3021 710 81 -1100 160/08 RMK AO2 SLP241 T10221050 55007
04850KAOH AOH20160410035511404/10/16 03:55:31  5-MIN KAOH 100855Z AUTO 15008KT 10SM OVC110 M02/M05 A3021 710 81 -1100 160/08 RMK AO2 T10221050
04850KAOH AOH20160410040011404/10/16 04:00:31  5-MIN KAOH 100900Z AUTO 16010KT 10SM OVC110 M02/M05 A3020 720 81 -1100 160/10 RMK AO2 T10221050
04850KAOH AOH20160410040511404/10/16 04:05:31  5-MIN KAOH 100905Z AUTO 15010KT 10SM OVC100 M02/M05 A3020 720 81 -1100 160/10 RMK AO2 T10221050
04850KAOH AOH20160410041011404/10/16 04:10:31  5-MIN KAOH 100910Z AUTO 15010KT 10SM OVC100 M02/M05 A3019 730 81 -1100 150/10 RMK AO2 T10221050
04850KAOH AOH20160410041512104/10/16 04:15:31  5-MIN KAOH 100915Z AUTO 15008KT 10SM BKN100 OVC110 M02/M05 A3020 720 81 -1100 150/08 RMK AO2 T10221050
04850KAOH AOH20160410042012104/10/16 04:20:31  5-MIN KAOH 100920Z AUTO 15009KT 10SM BKN100 OVC110 M02/M05 A3020 720 78 -1100 150/09 RMK AO2 T10171050
04850KAOH AOH20160410042511404/10/16 04:25:31  5-MIN KAOH 100925Z AUTO 16010KT 10SM OVC100 M02/M06 A3021 710 75 -1100 160/10 RMK AO2 T10171056
04850KAOH AOH20160410043011404/10/16 04:30:31  5-MIN KAOH 100930Z AUTO 15011KT 10SM OVC095 M02/M05 A3021 710 78 -1100 160/11 RMK AO2 T10171050
04850KAOH AOH20160410043511404/10/16 04:35:31  5-MIN KAOH 100935Z AUTO 15009KT 10SM OVC100 M02/M05 A3020 720 78 -1100 160/09 RMK AO2 T10171050
04850KAOH AOH20160410044011404/10/16 04:40:31  5-MIN KAOH 100940Z AUTO 15011KT 10SM OVC100 M02/M05 A3020 720 78 -1100 160/11 RMK AO2 T10171050
04850KAOH AOH20160410044511404/10/16 04:45:31  5-MIN KAOH 100945Z AUTO 15011KT 10SM OVC100 M02/M05 A3020 720 78 -1100 160/11 RMK AO2 T10171050
04850KAOH AOH20160410045012104/10/16 04:50:31  5-MIN KAOH 100950Z AUTO 16012KT 10SM OVC100 M02/M05 A3021 710 78 -1100 160/12 RMK AO2 SLP239 T10171050
04850KAOH AOH20160410045512104/10/16 04:55:31  5-MIN KAOH 100955Z AUTO 15011KT 10SM FEW075 OVC100 M02/M05 A3020 720 78 -1100 160/11 RMK AO2 T10171050
04850KAOH AOH20160410050012104/10/16 05:00:31  5-MIN KAOH 101000Z AUTO 16012KT 10SM SCT070 OVC100 M02/M05 A3021 710 78 -1100 170/12 RMK AO2 T10171050
04850KAOH AOH20160410050512104/10/16 05:05:31  5-MIN KAOH 101005Z AUTO 16013KT 10SM BKN070 OVC100 M02/M05 A3021 710 78 -1100 170/13 RMK AO2 T10171050
04850KAOH AOH20160410051012804/10/16 05:10:31  5-MIN KAOH 101010Z AUTO 16012KT 10SM BKN055 BKN070 OVC100 M02/M05 A3021 710 78 -1100 170/12 RMK AO2 T10171050
04850KAOH AOH20160410051512804/10/16 05:15:31  5-MIN KAOH 101015Z AUTO 17013KT 10SM BKN050 BKN070 OVC100 M02/M05 A3021 710 78 -1100 170/13 RMK AO2 T10171050
04850KAOH AOH20160410052012104/10/16 05:20:31  5-MIN KAOH 101020Z AUTO 17012KT 10SM BKN046 OVC070 M02/M05 A3021 710 78 -1100 170/12 RMK AO2 T10171050
04850KAOH AOH20160410052511404/10/16 05:25:31  5-MIN KAOH 101025Z AUTO 17012KT 10SM OVC041 M02/M05 A3021 710 78 -1100 180/12 RMK AO2 T10171050
04850KAOH AOH20160410053012904/10/16 05:30:31  5-MIN KAOH 101030Z AUTO 17012KT 5SM -SN OVC037 M02/M05 A3021 710 78 -1100 170/12 RMK AO2 SNB29 P0000 T10171050
04850KAOH AOH20160410053512904/10/16 05:35:31  5-MIN KAOH 101035Z AUTO 16013KT 3SM -SN OVC033 M02/M05 A3021 710 78 -1100 170/13 RMK AO2 SNB29 P0000 T10171050
04850KAOH AOH20160410054014304/10/16 05:40:31  5-MIN KAOH 101040Z AUTO 17012KT 4SM -SN BKN031 BKN060 OVC075 M02/M05 A3021 710 78 -1100 170/12 RMK AO2 SNB29 P0000 T10171050
04850KAOH AOH20160410054514304/10/16 05:45:31  5-MIN KAOH 101045Z AUTO 16013KT 7SM -SN BKN035 BKN060 OVC075 M02/M05 A3021 710 78 -1100 170/13 RMK AO2 SNB29 P0000 T10171050
04850KAOH AOH20160410055015004/10/16 05:50:31  5-MIN KAOH 101050Z AUTO 16012KT 7SM -SN BKN035 BKN060 OVC075 M02/M04 A3021 710 81 -1100 170/12 RMK AO2 SNB29 SLP240 P0000 T10171044
04850KAOH AOH20160410055513704/10/16 05:55:31  5-MIN KAOH 101055Z AUTO 16012KT 7SM -SN BKN035 BKN044 OVC060 M02/M04 A3021 710 85 -1100 170/12 RMK AO2 P0000 T10221044
04850KAOH AOH20160410060013004/10/16 06:00:31  5-MIN KAOH 101100Z AUTO 16014KT 8SM -SN BKN041 OVC065 M02/M04 A3021 710 81 -1100 160/14 RMK AO2 P0000 T10171044
04850KAOH AOH20160410060513004/10/16 06:05:31  5-MIN KAOH 101105Z AUTO 16014KT 6SM -SN SCT044 OVC060 M02/M04 A3021 710 81 -1100 160/14 RMK AO2 P0000 T10171044
04850KAOH AOH20160410061013304/10/16 06:10:31  5-MIN KAOH 101110Z AUTO 16012KT 4SM -SN BR SCT046 OVC060 M02/M04 A3020 720 85 -1100 170/12 RMK AO2 P0000 T10221044
04850KAOH AOH20160410061513304/10/16 06:15:31  5-MIN KAOH 101115Z AUTO 16012KT 5SM -SN BR SCT046 OVC055 M02/M04 A3021 710 85 -1100 170/12 RMK AO2 P0000 T10221044
04850KAOH AOH20160410062013004/10/16 06:20:31  5-MIN KAOH 101120Z AUTO 16010KT 6SM -SN SCT046 OVC055 M02/M04 A3021 710 81 -1100 160/10 RMK AO2 P0000 T10171044
04850KAOH AOH20160410062513204/10/16 06:25:31  5-MIN KAOH 101125Z AUTO 16011KT 9SM SCT047 OVC055 M02/M04 A3021 710 81 -1100 170/11 RMK AO2 SNE24 P0000 T10171044
04850KAOH AOH20160410063013304/10/16 06:30:31  5-MIN KAOH 101130Z AUTO 16012KT 10SM BKN050 OVC055 M02/M04 A3020 720 81 -1100 160/12 RMK AO2 SNE24 P0000 T10171044
04850KAOH AOH20160410063512604/10/16 06:35:31  5-MIN KAOH 101135Z AUTO 15012KT 10SM OVC050 M02/M04 A3020 720 81 -1100 150/12 RMK AO2 SNE24 P0000 T10171044
04850KAOH AOH20160410064013304/10/16 06:40:31  5-MIN KAOH 101140Z AUTO 16011KT 10SM BKN050 OVC055 M02/M04 A3020 720 81 -1100 160/11 RMK AO2 SNE24 P0000 T10171044
04850KAOH AOH20160410064512604/10/16 06:45:31  5-MIN KAOH 101145Z AUTO 15013KT 10SM OVC050 M02/M04 A3020 720 81 -1100 160/13 RMK AO2 SNE24 P0000 T10171044
04850KAOH AOH20160410065017004/10/16 06:50:31  5-MIN KAOH 101150Z AUTO 15012KT 10SM BKN050 OVC055 M02/M04 A3020 720 81 -1100 160/12 RMK AO2 SNE24 SLP238 P0000 60000 70001 T10171044 11017 21028 58008
04850KAOH AOH20160410065511404/10/16 06:55:31  5-MIN KAOH 101155Z AUTO 17012KT 10SM OVC050 M02/M04 A3020 720 81 -1100 170/12 RMK AO2 T10171044
04850KAOH AOH20160410070011404/10/16 07:00:31  5-MIN KAOH 101200Z AUTO 17012KT 10SM OVC055 M02/M04 A3020 720 81 -1100 170/12 RMK AO2 T10171044
04850KAOH AOH20160410070512104/10/16 07:05:31  5-MIN KAOH 101205Z AUTO 17013KT 10SM BKN050 OVC075 M02/M04 A3020 720 81 -1100 170/13 RMK AO2 T10171044
04850KAOH AOH20160410071012104/10/16 07:10:31  5-MIN KAOH 101210Z AUTO 16014KT 10SM BKN055 OVC075 M02/M04 A3020 720 81 -1100 160/14 RMK AO2 T10171044
04850KAOH AOH20160410071512104/10/16 07:15:31  5-MIN KAOH 101215Z AUTO 16014KT 10SM BKN055 OVC075 M02/M04 A3020 720 81 -1100 170/14 RMK AO2 T10171044
04850KAOH AOH20160410072012104/10/16 07:20:31  5-MIN KAOH 101220Z AUTO 16014KT 10SM BKN055 OVC070 M02/M04 A3020 720 85 -1100 170/14 RMK AO2 T10171039
04850KAOH AOH20160410072512104/10/16 07:25:31  5-MIN KAOH 101225Z AUTO 15014KT 10SM SCT050 OVC070 M02/M04 A3020 720 85 -1100 160/14 RMK AO2 T10171039
04850KAOH AOH20160410073013704/10/16 07:30:31  5-MIN KAOH 101230Z AUTO 16015KT 10SM -SN SCT055 OVC070 M02/M04 A3019 720 85 -1100 160/15 RMK AO2 SNB29 P0000 T10171039
04850KAOH AOH20160410073513604/10/16 07:35:31  5-MIN KAOH 101235Z AUTO 15012KT 9SM -SN SCT055 OVC070 M02/M04 A3020 720 85 -1100 160/12 RMK AO2 SNB29 P0000 T10171039
04850KAOH AOH20160410074013504/10/16 07:40:31  5-MIN KAOH 101240Z AUTO 16012KT 9SM SCT055 OVC070 M02/M04 A3020 720 85 -1100 160/12 RMK AO2 SNB29E39 P0000 T10171039
04850KAOH AOH20160410074513604/10/16 07:45:31  5-MIN KAOH 101245Z AUTO 16012KT 10SM SCT050 OVC070 M01/M04 A3019 730 81 -1000 160/12 RMK AO2 SNB29E39 P0000 T10111039
04850KAOH AOH20160410075014304/10/16 07:50:31  5-MIN KAOH 101250Z AUTO 16015KT 10SM FEW055 OVC070 M01/M04 A3019 730 81 -1000 160/15 RMK AO2 SNB29E39 SLP235 P0000 T10111039
04850KAOH AOH20160410075512104/10/16 07:55:31  5-MIN KAOH 101255Z AUTO 15014KT 10SM FEW055 OVC070 M01/M04 A3018 730 81 -1000 150/14 RMK AO2 T10111039
04850KAOH AOH20160410080012104/10/16 08:00:31  5-MIN KAOH 101300Z AUTO 15015KT 10SM FEW055 OVC070 M01/M04 A3018 740 81 -1000 150/15 RMK AO2 T10111039
04850KAOH AOH20160410080512104/10/16 08:05:31  5-MIN KAOH 101305Z AUTO 15014KT 10SM FEW055 OVC070 M01/M04 A3018 740 78 -1000 150/14 RMK AO2 T10111044
04850KAOH AOH20160410081011304/10/16 08:10:31  5-MIN KAOH 101310Z AUTO 15014KT 10SM OVC065 M01/M04 A3017 740 75 -900 150/14 RMK AO2 T10061044
04850KAOH AOH20160410081511904/10/16 08:15:31  5-MIN KAOH 101315Z AUTO 14015G20KT 10SM OVC065 M01/M04 A3017 750 75 -900 150/15G20 RMK AO2 T10061044
04850KAOH AOH20160410082011904/10/16 08:20:31  5-MIN KAOH 101320Z AUTO 15014G20KT 10SM OVC070 M01/M04 A3017 750 75 -900 150/14G20 RMK AO2 T10061044
04850KAOH AOH20160410082511304/10/16 08:25:31  5-MIN KAOH 101325Z AUTO 15016KT 10SM OVC070 M01/M04 A3017 750 75 -900 150/16 RMK AO2 T10061044
04850KAOH AOH20160410083011304/10/16 08:30:31  5-MIN KAOH 101330Z AUTO 15015KT 10SM OVC070 M01/M05 A3016 750 72 -900 160/15 RMK AO2 T10061050
04850KAOH AOH20160410083512004/10/16 08:35:31  5-MIN KAOH 101335Z AUTO 15016KT 10SM BKN070 OVC085 M01/M05 A3016 760 72 -900 160/16 RMK AO2 T10061050
04850KAOH AOH20160410084012004/10/16 08:40:31  5-MIN KAOH 101340Z AUTO 15016KT 10SM BKN070 OVC085 M01/M05 A3016 760 72 -900 150/16 RMK AO2 T10061050
04850KAOH AOH20160410084511904/10/16 08:45:31  5-MIN KAOH 101345Z AUTO 14015KT 10SM BKN070 OVC090 00/M05 A3015 770 69 -800 150/15 RMK AO2 T00001050
04850KAOH AOH20160410085013904/10/16 08:50:31  5-MIN KAOH 101350Z AUTO 15017G24KT 10SM SCT070 OVC090 00/M05 A3014 770 69 -800 160/17G24 RMK AO2 PRESFR SLP218 T00001050
04850KAOH AOH20160410085512504/10/16 08:55:31  5-MIN KAOH 101355Z AUTO 15015G24KT 10SM SCT070 OVC090 00/M04 A3014 780 72 -800 150/15G24 RMK AO2 T00001044
04850KAOH AOH20160410090012504/10/16 09:00:31  5-MIN KAOH 101400Z AUTO 15016G25KT 10SM BKN070 OVC090 00/M05 A3013 780 69 -800 160/16G25 RMK AO2 T00001050
04850KAOH AOH20160410090512504/10/16 09:05:31  5-MIN KAOH 101405Z AUTO 15017G25KT 10SM BKN065 OVC090 00/M05 A3014 780 69 -800 160/17G25 RMK AO2 T00001050
04850KAOH AOH20160410091012504/10/16 09:10:31  5-MIN KAOH 101410Z AUTO 15018G24KT 10SM BKN065 OVC095 00/M05 A3014 780 69 -800 160/18G24 RMK AO2 T00001050
04850KAOH AOH20160410091511204/10/16 09:15:31  5-MIN KAOH 101415Z AUTO 15017KT 10SM OVC065 00/M04 A3013 780 72 -800 160/17 RMK AO2 T00001044
04850KAOH AOH20160410092011804/10/16 09:20:31  5-MIN KAOH 101420Z AUTO 16017G23KT 10SM OVC065 01/M04 A3014 780 69 -700 160/17G23 RMK AO2 T00061044
04850KAOH AOH20160410092511804/10/16 09:25:31  5-MIN KAOH 101425Z AUTO 16018G24KT 10SM OVC070 01/M04 A3013 780 69 -700 160/18G24 RMK AO2 T00061044
04850KAOH AOH20160410093011804/10/16 09:30:31  5-MIN KAOH 101430Z AUTO 16017G24KT 10SM OVC070 01/M04 A3013 790 72 -700 170/17G24 RMK AO2 T00061039
04850KAOH AOH20160410093513604/10/16 09:35:31  5-MIN KAOH 101435Z AUTO 16020G27KT 10SM OVC070 01/M04 A3012 790 69 -600 170/20G27 RMK AO2 PK WND 16027/1432 T00111039
04850KAOH AOH20160410094013604/10/16 09:40:31  5-MIN KAOH 101440Z AUTO 16021G27KT 10SM OVC070 02/M04 A3013 790 66 -600 170/21G27 RMK AO2 PK WND 16027/1432 T00171039
04850KAOH AOH20160410094513604/10/16 09:45:31  5-MIN KAOH 101445Z AUTO 15021G27KT 10SM OVC070 02/M04 A3013 790 66 -600 160/21G27 RMK AO2 PK WND 15027/1445 T00171039
04850KAOH AOH20160410095015504/10/16 09:50:31  5-MIN KAOH 101450Z AUTO 16020G28KT 10SM BKN070 02/M04 A3012 790 66 -600 170/20G28 RMK AO2 PK WND 16028/1446 SLP212 60000 T00171039 57002
04850KAOH AOH20160410095513604/10/16 09:55:31  5-MIN KAOH 101455Z AUTO 16022G28KT 10SM BKN070 02/M04 A3012 790 66 -500 170/22G28 RMK AO2 PK WND 16028/1455 T00171039
04850KAOH AOH20160410100013604/10/16 10:00:31  5-MIN KAOH 101500Z AUTO 16021G29KT 10SM SCT070 02/M04 A3012 790 66 -500 170/21G29 RMK AO2 PK WND 16029/1457 T00171039
04850KAOH AOH20160410100513604/10/16 10:05:31  5-MIN KAOH 101505Z AUTO 16020G29KT 10SM SCT070 02/M04 A3012 800 66 -500 170/20G29 RMK AO2 PK WND 16029/1457 T00171039
04850KAOH AOH20160410101014304/10/16 10:10:31  5-MIN KAOH 101510Z AUTO 16020G29KT 10SM SCT070 SCT110 02/M04 A3011 800 66 -500 160/20G29 RMK AO2 PK WND 16029/1510 T00171039
04850KAOH AOH20160410101514304/10/16 10:15:31  5-MIN KAOH 101515Z AUTO 16019G29KT 10SM SCT065 BKN110 02/M04 A3011 800 66 -500 170/19G29 RMK AO2 PK WND 16029/1510 T00171039
04850KAOH AOH20160410102013704/10/16 10:20:31  5-MIN KAOH 101520Z AUTO 16018KT 10SM BKN065 BKN110 02/M03 A3010 810 69 -500 170/18 RMK AO2 PK WND 16029/1510 T00171033
04850KAOH AOH20160410102514304/10/16 10:25:31  5-MIN KAOH 101525Z AUTO 16020G25KT 10SM BKN065 BKN100 02/M03 A3010 810 69 -500 170/20G25 RMK AO2 PK WND 16029/1510 T00171033
04850KAOH AOH20160410103014304/10/16 10:30:31  5-MIN KAOH 101530Z AUTO 16023G26KT 10SM BKN065 BKN095 02/M04 A3010 810 66 -500 160/23G26 RMK AO2 PK WND 16029/1510 T00171039
04850KAOH AOH20160410103515004/10/16 10:35:31  5-MIN KAOH 101535Z AUTO 16023G28KT 10SM SCT065 BKN085 OVC100 02/M04 A3009 820 64 -400 160/23G28 RMK AO2 PK WND 16029/1510 T00221039
04850KAOH AOH20160410104014304/10/16 10:40:31  5-MIN KAOH 101540Z AUTO 16022G28KT 10SM SCT070 OVC085 02/M04 A3009 820 64 -400 170/22G28 RMK AO2 PK WND 16029/1510 T00221039
04850KAOH AOH20160410104514304/10/16 10:45:31  5-MIN KAOH 101545Z AUTO 16018G27KT 10SM SCT070 OVC080 02/M03 A3009 820 67 -400 170/18G27 RMK AO2 PK WND 16029/1510 T00221033
04850KAOH AOH20160410105014404/10/16 10:50:31  5-MIN KAOH 101550Z AUTO 16019KT 10SM BKN075 OVC090 02/M03 A3009 830 67 -400 170/19 RMK AO2 PK WND 16029/1510 SLP197 T00221033
04850KAOH AOH20160410105511904/10/16 10:55:31  5-MIN KAOH 101555Z AUTO 16021KT 10SM FEW070 OVC080 02/M03 A3008 830 67 -400 170/21 RMK AO2 T00221033
04850KAOH AOH20160410110013604/10/16 11:00:31  5-MIN KAOH 101600Z AUTO 16022G27KT 10SM OVC080 03/M03 A3008 830 64 -400 170/22G27 RMK AO2 PK WND 15027/1559 T00281033
04850KAOH AOH20160410110513604/10/16 11:05:31  5-MIN KAOH 101605Z AUTO 17021G28KT 10SM OVC080 03/M03 A3008 830 64 -400 170/21G28 RMK AO2 PK WND 16028/1603 T00281033
04850KAOH AOH20160410111013604/10/16 11:10:31  5-MIN KAOH 101610Z AUTO 17023G28KT 10SM OVC080 03/M03 A3007 840 64 -400 170/23G28 RMK AO2 PK WND 17028/1609 T00281033
04850KAOH AOH20160410111513604/10/16 11:15:31  5-MIN KAOH 101615Z AUTO 17021G28KT 10SM OVC085 03/M03 A3007 840 64 -400 170/21G28 RMK AO2 PK WND 16028/1613 T00281033
04850KAOH AOH20160410112013604/10/16 11:20:31  5-MIN KAOH 101620Z AUTO 16022G28KT 10SM OVC085 03/M03 A3006 840 64 -300 160/22G28 RMK AO2 PK WND 16028/1613 T00331028
04850KAOH AOH20160410112513604/10/16 11:25:31  5-MIN KAOH 101625Z AUTO 16024G29KT 10SM OVC090 03/M03 A3006 850 61 -300 170/24G29 RMK AO2 PK WND 16029/1622 T00331033
04850KAOH AOH20160410113013604/10/16 11:30:31  5-MIN KAOH 101630Z AUTO 17020G29KT 10SM OVC085 03/M03 A3006 850 61 -300 170/20G29 RMK AO2 PK WND 16029/1622 T00331033
04850KAOH AOH20160410113514304/10/16 11:35:31  5-MIN KAOH 101635Z AUTO 15023G28KT 10SM FEW060 OVC090 03/M03 A3006 850 64 -300 160/23G28 RMK AO2 PK WND 16029/1622 T00331028
04850KAOH AOH20160410114014304/10/16 11:40:31  5-MIN KAOH 101640Z AUTO 16019G27KT 10SM SCT060 OVC090 03/M02 A3005 850 67 -300 160/19G27 RMK AO2 PK WND 16029/1622 T00331022
04850KAOH AOH20160410114514304/10/16 11:45:31  5-MIN KAOH 101645Z AUTO 16020G28KT 10SM BKN060 OVC090 03/M02 A3005 860 67 -300 160/20G28 RMK AO2 PK WND 16029/1622 T00331022
04850KAOH AOH20160410115015004/10/16 11:50:31  5-MIN KAOH 101650Z AUTO 17022G31KT 10SM BKN060 OVC090 03/M03 A3005 860 64 -300 170/22G31 RMK AO2 PK WND 17031/1646 SLP184 T00331028
04850KAOH AOH20160410115514304/10/16 11:55:31  5-MIN KAOH 101655Z AUTO 16021G31KT 10SM BKN055 OVC090 03/M02 A3004 870 67 -200 170/21G31 RMK AO2 PK WND 16026/1654 T00331022
04850KAOH AOH20160410120013604/10/16 12:00:31  5-MIN KAOH 101700Z AUTO 17020G32KT 10SM OVC055 04/M03 A3004 870 62 -200 170/20G32 RMK AO2 PK WND 17032/1656 T00391028
04850KAOH AOH20160410120513604/10/16 12:05:31  5-MIN KAOH 101705Z AUTO 16024G32KT 10SM OVC055 04/M02 A3003 870 64 -200 170/24G32 RMK AO2 PK WND 17032/1656 T00391022
04850KAOH AOH20160410121013604/10/16 12:10:31  5-MIN KAOH 101710Z AUTO 16022G29KT 10SM OVC055 04/M02 A3003 880 64 -200 170/22G29 RMK AO2 PK WND 17032/1656 T00391022
04850KAOH AOH20160410121513604/10/16 12:15:31  5-MIN KAOH 101715Z AUTO 16019G28KT 10SM OVC055 04/M02 A3003 880 64 -100 170/19G28 RMK AO2 PK WND 17032/1656 T00441017
04850KAOH AOH20160410122013004/10/16 12:20:31  5-MIN KAOH 101720Z AUTO 16019KT 10SM OVC055 04/M02 A3003 880 67 -200 170/19 RMK AO2 PK WND 17032/1656 T00391017
04850KAOH AOH20160410122513604/10/16 12:25:31  5-MIN KAOH 101725Z AUTO 16018G26KT 10SM OVC050 04/M02 A3003 880 64 -100 170/18G26 RMK AO2 PK WND 17032/1656 T00441017
04850KAOH AOH20160410123013604/10/16 12:30:31  5-MIN KAOH 101730Z AUTO 16017G26KT 10SM OVC050 04/M02 A3003 880 64 -100 170/17G26 RMK AO2 PK WND 17032/1656 T00441017
04850KAOH AOH20160410123513004/10/16 12:35:31  5-MIN KAOH 101735Z AUTO 16018KT 10SM OVC050 04/M02 A3002 880 64 -100 170/18 RMK AO2 PK WND 17032/1656 T00441017
04850KAOH AOH20160410124013004/10/16 12:40:31  5-MIN KAOH 101740Z AUTO 16016KT 10SM OVC048 04/M02 A3002 890 64 -100 170/16 RMK AO2 PK WND 17032/1656 T00441017
04850KAOH AOH20160410124513004/10/16 12:45:31  5-MIN KAOH 101745Z AUTO 17015KT 10SM OVC046 04/M02 A3002 890 64 -100 170/15 RMK AO2 PK WND 17032/1656 T00441017
04850KAOH AOH20160410125016104/10/16 12:50:31  5-MIN KAOH 101750Z AUTO 17015KT 10SM OVC044 04/M02 A3001 890 64 -100 170/15 RMK AO2 PK WND 17032/1656 SLP172 60000 T00441017 10044 21017 58027
04850KAOH AOH20160410125511604/10/16 12:55:31  5-MIN KAOH 101755Z AUTO 17016KT 10SM BKN040 OVC047 05/M02 A3002 890 62 0 170/16 RMK AO2 T00501017
04850KAOH AOH20160410130012204/10/16 13:00:31  5-MIN KAOH 101800Z AUTO 17016G22KT 10SM BKN040 OVC047 05/M02 A3002 890 59 0 180/16G22 RMK AO2 T00501022
04850KAOH AOH20160410130511504/10/16 13:05:31  5-MIN KAOH 101805Z AUTO 17016G22KT 10SM OVC040 05/M02 A3001 890 59 0 180/16G22 RMK AO2 T00501022
04850KAOH AOH20160410131010904/10/16 13:10:31  5-MIN KAOH 101810Z AUTO 17015KT 10SM OVC040 06/M02 A3001 890 57 0 170/15 RMK AO2 T00561022
04850KAOH AOH20160410131510904/10/16 13:15:31  5-MIN KAOH 101815Z AUTO 17013KT 10SM OVC040 06/M02 A3001 890 59 0 170/13 RMK AO2 T00561017
04850KAOH AOH20160410132010904/10/16 13:20:31  5-MIN KAOH 101820Z AUTO 17014KT 10SM OVC042 06/M01 A3001 900 62 0 170/14 RMK AO2 T00561011
04850KAOH AOH20160410132510904/10/16 13:25:31  5-MIN KAOH 101825Z AUTO 17013KT 10SM OVC040 06/M01 A3001 900 62 0 180/13 RMK AO2 T00561011
04850KAOH AOH20160410133011104/10/16 13:30:31  5-MIN KAOH 101830Z AUTO 17015KT 10SM OVC040 06/M01 A3001 900 60 100 170/15 RMK AO2 T00611011
04850KAOH AOH20160410133511104/10/16 13:35:31  5-MIN KAOH 101835Z AUTO 17013KT 10SM OVC040 06/M01 A3000 900 60 100 170/13 RMK AO2 T00611011
04850KAOH AOH20160410134011104/10/16 13:40:31  5-MIN KAOH 101840Z AUTO 17013KT 10SM OVC042 06/M01 A3000 910 60 100 180/13 RMK AO2 T00611011
04850KAOH AOH20160410134511104/10/16 13:45:31  5-MIN KAOH 101845Z AUTO 17011KT 10SM OVC042 06/M01 A3000 910 60 100 180/11 RMK AO2 T00611011
04850KAOH AOH20160410135012404/10/16 13:50:31  5-MIN KAOH 101850Z AUTO 17015G22KT 10SM OVC042 06/M01 A2999 910 62 100 180/15G22 RMK AO2 SLP165 T00611006
04850KAOH AOH20160410135511704/10/16 13:55:31  5-MIN KAOH 101855Z AUTO 17014G22KT 10SM OVC042 07/M01 A2999 910 57 200 180/14G22 RMK AO2 T00671011
04850KAOH AOH20160410140011804/10/16 14:00:31  5-MIN KAOH 101900Z AUTO 17012KT 10SM BKN042 OVC050 07/M01 A2999 910 57 200 170/12 RMK AO2 T00671011
04850KAOH AOH20160410140511804/10/16 14:05:31  5-MIN KAOH 101905Z AUTO 17014KT 10SM FEW036 OVC045 07/M01 A2999 920 60 200 180/14 RMK AO2 T00671006
04850KAOH AOH20160410141011104/10/16 14:10:31  5-MIN KAOH 101910Z AUTO 17015KT 10SM OVC045 07/M01 A2998 920 60 200 180/15 RMK AO2 T00671006
04850KAOH AOH20160410141511104/10/16 14:15:31  5-MIN KAOH 101915Z AUTO 17015KT 10SM OVC045 07/M01 A2998 920 57 200 180/15 RMK AO2 T00721006
04850KAOH AOH20160410142011104/10/16 14:20:31  5-MIN KAOH 101920Z AUTO 17013KT 10SM OVC047 07/M01 A2997 930 57 300 180/13 RMK AO2 T00721006
04850KAOH AOH20160410142511004/10/16 14:25:31  5-MIN KAOH 101925Z AUTO 17015KT 10SM OVC047 07/00 A2997 930 60 300 170/15 RMK AO2 T00720000
04850KAOH AOH20160410143011604/10/16 14:30:31  5-MIN KAOH 101930Z AUTO 17015G22KT 10SM OVC049 08/00 A2997 930 58 300 180/15G22 RMK AO2 T00780000
04850KAOH AOH20160410143511604/10/16 14:35:31  5-MIN KAOH 101935Z AUTO 17015G22KT 10SM OVC049 08/00 A2996 940 58 300 180/15G22 RMK AO2 T00780000
04850KAOH AOH20160410144011604/10/16 14:40:31  5-MIN KAOH 101940Z AUTO 17017G22KT 10SM OVC055 08/00 A2996 940 58 300 180/17G22 RMK AO2 T00780000
04850KAOH AOH20160410144511604/10/16 14:45:31  5-MIN KAOH 101945Z AUTO 17016G22KT 10SM OVC055 08/01 A2995 950 58 400 180/16G22 RMK AO2 T00830006
04850KAOH AOH20160410145011704/10/16 14:50:31  5-MIN KAOH 101950Z AUTO 17017KT 10SM OVC055 08/00 A2995 950 55 400 180/17 RMK AO2 SLP150 T00830000
04850KAOH AOH20160410145511004/10/16 14:55:31  5-MIN KAOH 101955Z AUTO 17017KT 10SM OVC060 08/00 A2995 950 55 400 180/17 RMK AO2 T00830000
04850KAOH AOH20160410150011004/10/16 15:00:31  5-MIN KAOH 102000Z AUTO 16016KT 10SM OVC060 08/01 A2994 960 58 400 170/16 RMK AO2 T00830006
04850KAOH AOH20160410150511604/10/16 15:05:31  5-MIN KAOH 102005Z AUTO 17016G23KT 10SM OVC060 08/01 A2994 960 58 400 180/16G23 RMK AO2 T00830006
04850KAOH AOH20160410151011604/10/16 15:10:31  5-MIN KAOH 102010Z AUTO 16016G23KT 10SM OVC060 08/01 A2993 970 58 400 170/16G23 RMK AO2 T00830006
04850KAOH AOH20160410151511004/10/16 15:15:31  5-MIN KAOH 102015Z AUTO 16018KT 10SM OVC060 09/01 A2992 970 56 500 170/18 RMK AO2 T00890006
04850KAOH AOH20160410152011004/10/16 15:20:31  5-MIN KAOH 102020Z AUTO 17015KT 10SM OVC060 09/01 A2992 980 56 500 170/15 RMK AO2 T00890006
04850KAOH AOH20160410152511604/10/16 15:25:31  5-MIN KAOH 102025Z AUTO 17015G23KT 10SM OVC065 09/01 A2992 980 56 500 170/15G23 RMK AO2 T00890006
04850KAOH AOH20160410153011604/10/16 15:30:31  5-MIN KAOH 102030Z AUTO 16015G23KT 10SM OVC065 09/01 A2991 990 58 500 170/15G23 RMK AO2 T00890011
04850KAOH AOH20160410153511004/10/16 15:35:31  5-MIN KAOH 102035Z AUTO 16016KT 10SM OVC065 09/01 A2991 990 56 600 170/16 RMK AO2 T00940011
04850KAOH AOH20160410154011004/10/16 15:40:31  5-MIN KAOH 102040Z AUTO 16017KT 10SM OVC070 09/02 A2990 990 58 600 160/17 RMK AO2 T00940017
04850KAOH AOH20160410154511104/10/16 15:45:31  5-MIN KAOH 102045Z AUTO 17016KT 10SM OVC070 10/02 A2990 1000 58 700 170/16 RMK AO2 T01000022
04850KAOH AOH20160410155012404/10/16 15:50:31  5-MIN KAOH 102050Z AUTO 16014KT 10SM OVC070 10/02 A2989 1000 56 700 170/14 RMK AO2 SLP130 T01000017 56036
04850KAOH AOH20160410155511104/10/16 15:55:31  5-MIN KAOH 102055Z AUTO 16017KT 10SM OVC070 10/02 A2989 1000 58 700 170/17 RMK AO2 T01000022
04850KAOH AOH20160410160011104/10/16 16:00:31  5-MIN KAOH 102100Z AUTO 16015KT 10SM OVC070 10/02 A2989 1010 58 700 170/15 RMK AO2 T01000022
04850KAOH AOH20160410160511104/10/16 16:05:31  5-MIN KAOH 102105Z AUTO 16017KT 10SM OVC070 10/02 A2989 1010 58 700 170/17 RMK AO2 T01000022
04850KAOH AOH20160410161011104/10/16 16:10:31  5-MIN KAOH 102110Z AUTO 16013KT 10SM OVC070 11/02 A2988 1010 56 800 170/13 RMK AO2 T01060022
04850KAOH AOH20160410161511104/10/16 16:15:31  5-MIN KAOH 102115Z AUTO 16015KT 10SM OVC070 11/03 A2988 1010 58 800 170/15 RMK AO2 T01060028
04850KAOH AOH20160410162011104/10/16 16:20:31  5-MIN KAOH 102120Z AUTO 16012KT 10SM OVC070 11/03 A2988 1020 58 800 170/12 RMK AO2 T01060028
04850KAOH AOH20160410162511104/10/16 16:25:31  5-MIN KAOH 102125Z AUTO 16013KT 10SM OVC070 11/03 A2988 1020 58 800 170/13 RMK AO2 T01110033
04850KAOH AOH20160410163011104/10/16 16:30:31  5-MIN KAOH 102130Z AUTO 17013KT 10SM OVC070 11/03 A2988 1020 58 800 170/13 RMK AO2 T01110033
04850KAOH AOH20160410163511104/10/16 16:35:31  5-MIN KAOH 102135Z AUTO 17013KT 10SM OVC070 12/03 A2988 1020 56 900 180/13 RMK AO2 T01170033
04850KAOH AOH20160410164011104/10/16 16:40:31  5-MIN KAOH 102140Z AUTO 17014KT 10SM OVC070 12/04 A2987 1020 58 900 180/14 RMK AO2 T01170039
04850KAOH AOH20160410164511204/10/16 16:45:31  5-MIN KAOH 102145Z AUTO 18016KT 10SM OVC075 12/04 A2987 1020 56 1000 190/16 RMK AO2 T01220039
04850KAOH AOH20160410165011904/10/16 16:50:31  5-MIN KAOH 102150Z AUTO 18013KT 10SM OVC075 12/04 A2987 1020 56 1000 190/13 RMK AO2 SLP121 T01220039
04850KAOH AOH20160410165511204/10/16 16:55:31  5-MIN KAOH 102155Z AUTO 18012KT 10SM OVC080 12/04 A2987 1020 56 1000 190/12 RMK AO2 T01220039
04850KAOH AOH20160410170011204/10/16 17:00:31  5-MIN KAOH 102200Z AUTO 18014KT 10SM OVC075 12/04 A2987 1020 56 1000 190/14 RMK AO2 T01220039
04850KAOH AOH20160410170511204/10/16 17:05:31  5-MIN KAOH 102205Z AUTO 18016KT 10SM OVC075 12/04 A2987 1020 56 1000 180/16 RMK AO2 T01220039
04850KAOH AOH20160410171011204/10/16 17:10:31  5-MIN KAOH 102210Z AUTO 18013KT 10SM OVC075 12/04 A2987 1020 56 1000 190/13 RMK AO2 T01220039
04850KAOH AOH20160410171512504/10/16 17:15:31  5-MIN KAOH 102215Z AUTO 18015G24KT 10SM BKN080 OVC090 12/04 A2987 1020 56 1000 190/15G24 RMK AO2 T01220039
04850KAOH AOH20160410172012504/10/16 17:20:31  5-MIN KAOH 102220Z AUTO 18013G24KT 10SM BKN075 OVC090 12/04 A2987 1020 56 1000 190/13G24 RMK AO2 T01220039
04850KAOH AOH20160410172512504/10/16 17:25:31  5-MIN KAOH 102225Z AUTO 18017G23KT 10SM BKN075 OVC090 12/04 A2987 1020 56 1000 190/17G23 RMK AO2 T01220039
04850KAOH AOH20160410173012504/10/16 17:30:31  5-MIN KAOH 102230Z AUTO 18016G23KT 10SM SCT075 OVC090 12/04 A2987 1020 56 1000 190/16G23 RMK AO2 T01220039
04850KAOH AOH20160410173513204/10/16 17:35:31  5-MIN KAOH 102235Z AUTO 18014G22KT 10SM FEW065 BKN080 OVC090 12/04 A2987 1020 56 1000 190/14G22 RMK AO2 T01220039
04850KAOH AOH20160410174012504/10/16 17:40:31  5-MIN KAOH 102240Z AUTO 18013G22KT 10SM BKN075 OVC090 12/04 A2987 1020 56 1000 190/13G22 RMK AO2 T01220039
04850KAOH AOH20160410174512504/10/16 17:45:31  5-MIN KAOH 102245Z AUTO 18014KT 10SM SCT065 BKN080 OVC090 12/04 A2987 1020 58 900 190/14 RMK AO2 T01170039
04850KAOH AOH20160410175013204/10/16 17:50:31  5-MIN KAOH 102250Z AUTO 18013KT 10SM BKN065 BKN080 OVC090 12/04 A2987 1020 58 900 190/13 RMK AO2 SLP121 T01170039
04850KAOH AOH20160410175511804/10/16 17:55:31  5-MIN KAOH 102255Z AUTO 18012KT 10SM BKN065 OVC080 12/04 A2987 1020 58 900 190/12 RMK AO2 T01170039
04850KAOH AOH20160410180011804/10/16 18:00:31  5-MIN KAOH 102300Z AUTO 18012KT 10SM BKN065 OVC080 12/04 A2987 1020 58 900 190/12 RMK AO2 T01170039
04850KAOH AOH20160410180511804/10/16 18:05:31  5-MIN KAOH 102305Z AUTO 18012KT 10SM SCT055 OVC070 12/04 A2987 1020 58 900 190/12 RMK AO2 T01170039
04850KAOH AOH20160410181011804/10/16 18:10:31  5-MIN KAOH 102310Z AUTO 18011KT 10SM BKN055 OVC070 12/04 A2987 1030 58 900 190/11 RMK AO2 T01170039
04850KAOH AOH20160410181511804/10/16 18:15:31  5-MIN KAOH 102315Z AUTO 18012KT 10SM BKN055 OVC075 12/04 A2987 1030 58 900 190/12 RMK AO2 T01170039
04850KAOH AOH20160410182013404/10/16 18:20:31  5-MIN KAOH 102320Z AUTO 18011KT 10SM -RA BKN055 OVC075 12/04 A2987 1030 61 900 190/11 RMK AO2 RAB19 P0000 T01170044
04850KAOH AOH20160410182514104/10/16 18:25:31  5-MIN KAOH 102325Z AUTO 18010KT 10SM -RA BKN055 BKN070 OVC080 11/05 A2987 1030 66 800 190/10 RMK AO2 RAB19 P0000 T01110050
04850KAOH AOH20160410183014104/10/16 18:30:31  5-MIN KAOH 102330Z AUTO 18012KT 10SM -RA FEW049 BKN055 OVC075 11/05 A2986 1030 66 900 190/12 RMK AO2 RAB19 P0000 T01110050
04850KAOH AOH20160410183513404/10/16 18:35:31  5-MIN KAOH 102335Z AUTO 18010KT 10SM -RA BKN055 OVC070 11/05 A2986 1030 66 900 180/10 RMK AO2 RAB19 P0001 T01110050
04850KAOH AOH20160410184014104/10/16 18:40:31  5-MIN KAOH 102340Z AUTO 17010KT 10SM -RA FEW049 BKN060 OVC080 11/05 A2986 1030 68 800 180/10 RMK AO2 RAB19 P0001 T01060050
04850KAOH AOH20160410184513404/10/16 18:45:31  5-MIN KAOH 102345Z AUTO 18011KT 10SM -RA BKN055 OVC070 11/06 A2986 1030 71 800 180/11 RMK AO2 RAB19 P0001 T01060056
04850KAOH AOH20160410185016504/10/16 18:50:31  5-MIN KAOH 102350Z AUTO 18010KT 10SM -RA SCT050 OVC060 11/06 A2986 1030 71 800 180/10 RMK AO2 RAB19 SLP118 P0002 60002 T01060056 10122 20050 58040
04850KAOH AOH20160410185512704/10/16 18:55:31  5-MIN KAOH 102355Z AUTO 17010KT 9SM -RA BKN048 OVC060 10/06 A2986 1030 74 700 180/10 RMK AO2 P0000 T01000056
04850KAOH AOH20160410190012704/10/16 19:00:31  5-MIN KAOH 110000Z AUTO 18009KT 9SM -RA BKN046 OVC055 10/06 A2986 1030 77 700 190/09 RMK AO2 P0001 T01000061
04850KAOH AOH20160410190512704/10/16 19:05:31  5-MIN KAOH 110005Z AUTO 18010KT 9SM -RA BKN046 OVC055 10/06 A2986 1030 77 700 180/10 RMK AO2 P0001 T01000061
04850KAOH AOH20160410191012704/10/16 19:10:31  5-MIN KAOH 110010Z AUTO 18011KT 9SM -RA BKN042 OVC050 10/06 A2986 1030 77 700 180/11 RMK AO2 P0002 T01000061
04850KAOH AOH20160410191512804/10/16 19:15:31  5-MIN KAOH 110015Z AUTO 18010KT 10SM -RA BKN040 OVC049 10/07 A2986 1030 80 700 190/10 RMK AO2 P0002 T01000067
04850KAOH AOH20160410192012804/10/16 19:20:31  5-MIN KAOH 110020Z AUTO 18012KT 10SM -RA BKN040 OVC047 10/07 A2986 1030 80 700 190/12 RMK AO2 P0002 T01000067
04850KAOH AOH20160410192512104/10/16 19:25:31  5-MIN KAOH 110025Z AUTO 18012KT 10SM -RA OVC039 10/07 A2986 1030 80 700 180/12 RMK AO2 P0003 T01000067
04850KAOH AOH20160410193012104/10/16 19:30:31  5-MIN KAOH 110030Z AUTO 18012KT 10SM -RA OVC039 10/07 A2986 1030 80 700 180/12 RMK AO2 P0003 T01000067
04850KAOH AOH20160410193512104/10/16 19:35:31  5-MIN KAOH 110035Z AUTO 18013KT 10SM -RA OVC039 10/07 A2986 1030 80 700 190/13 RMK AO2 P0003 T01000067
04850KAOH AOH20160410194012104/10/16 19:40:31  5-MIN KAOH 110040Z AUTO 18013KT 10SM -RA OVC040 09/07 A2986 1030 83 700 190/13 RMK AO2 P0003 T00940067
04850KAOH AOH20160410194512104/10/16 19:45:31  5-MIN KAOH 110045Z AUTO 18014KT 10SM -RA OVC040 09/07 A2986 1040 86 700 190/14 RMK AO2 P0003 T00940072
04850KAOH AOH20160410195012804/10/16 19:50:31  5-MIN KAOH 110050Z AUTO 18012KT 10SM -RA OVC040 09/07 A2986 1030 86 700 190/12 RMK AO2 SLP117 P0004 T00940072
04850KAOH AOH20160410195512104/10/16 19:55:31  5-MIN KAOH 110055Z AUTO 18012KT 10SM -RA OVC042 09/07 A2986 1030 86 700 190/12 RMK AO2 P0000 T00940072
04850KAOH AOH20160410200012104/10/16 20:00:31  5-MIN KAOH 110100Z AUTO 18012KT 10SM -RA OVC042 09/07 A2986 1030 86 700 190/12 RMK AO2 P0000 T00940072
04850KAOH AOH20160410200512104/10/16 20:05:31  5-MIN KAOH 110105Z AUTO 18013KT 10SM -RA OVC040 09/07 A2986 1030 86 700 190/13 RMK AO2 P0000 T00940072
04850KAOH AOH20160410201012104/10/16 20:10:31  5-MIN KAOH 110110Z AUTO 18012KT 10SM -RA OVC040 09/08 A2986 1030 89 700 190/12 RMK AO2 P0000 T00940078
04850KAOH AOH20160410201512804/10/16 20:15:31  5-MIN KAOH 110115Z AUTO 18012KT 10SM -RA BKN037 OVC044 09/08 A2986 1030 89 700 190/12 RMK AO2 P0000 T00940078
04850KAOH AOH20160410202012704/10/16 20:20:31  5-MIN KAOH 110120Z AUTO 18012G18KT 10SM -RA OVC037 09/08 A2986 1030 89 600 190/12G18 RMK AO2 P0000 T00940078
04850KAOH AOH20160410202512104/10/16 20:25:31  5-MIN KAOH 110125Z AUTO 18013KT 10SM -RA OVC035 09/08 A2986 1030 89 600 190/13 RMK AO2 P0000 T00940078
04850KAOH AOH20160410203012104/10/16 20:30:31  5-MIN KAOH 110130Z AUTO 18013KT 10SM -RA OVC035 09/08 A2987 1030 89 600 190/13 RMK AO2 P0000 T00940078
04850KAOH AOH20160410203512104/10/16 20:35:31  5-MIN KAOH 110135Z AUTO 18012KT 10SM -RA OVC033 10/08 A2987 1030 86 700 190/12 RMK AO2 P0000 T01000078
04850KAOH AOH20160410204012804/10/16 20:40:31  5-MIN KAOH 110140Z AUTO 19010KT 10SM -RA BKN030 OVC035 10/08 A2987 1030 86 700 190/10 RMK AO2 P0000 T01000078
04850KAOH AOH20160410204512804/10/16 20:45:31  5-MIN KAOH 110145Z AUTO 19014KT 10SM -RA BKN027 OVC034 10/08 A2987 1020 86 700 200/14 RMK AO2 P0000 T01000078
04850KAOH AOH20160410205013504/10/16 20:50:31  5-MIN KAOH 110150Z AUTO 19012KT 10SM -RA BKN025 OVC032 10/08 A2987 1020 86 700 200/12 RMK AO2 SLP121 P0000 T01000078
04850KAOH AOH20160410205512804/10/16 20:55:31  5-MIN KAOH 110155Z AUTO 19013KT 10SM -RA SCT022 OVC030 10/08 A2987 1020 86 700 200/13 RMK AO2 P0000 T01000078
04850KAOH AOH20160410210012804/10/16 21:00:31  5-MIN KAOH 110200Z AUTO 19013KT 10SM -RA FEW020 OVC026 10/08 A2987 1020 86 700 200/13 RMK AO2 P0000 T01000078
04850KAOH AOH20160410210513004/10/16 21:05:31  5-MIN KAOH 110205Z AUTO 19014KT 10SM SCT020 OVC026 10/08 A2987 1020 86 700 200/14 RMK AO2 RAE02 P0000 T01000078
04850KAOH AOH20160410211014204/10/16 21:10:31  5-MIN KAOH 110210Z AUTO 19012G19KT 9SM -RA SCT019 OVC026 10/08 A2987 1020 86 700 200/12G19 RMK AO2 RAE02B07 P0000 T01000078
04850KAOH AOH20160410211514204/10/16 21:15:31  5-MIN KAOH 110215Z AUTO 19011G19KT 7SM -RA SCT019 OVC026 10/08 A2987 1020 89 700 200/11G19 RMK AO2 RAE02B07 P0000 T01000083
04850KAOH AOH20160410212014904/10/16 21:20:31  5-MIN KAOH 110220Z AUTO 20010G19KT 7SM -RA SCT015 SCT020 OVC026 10/08 A2987 1020 89 700 200/10G19 RMK AO2 RAE02B07 P0000 T01000083
04850KAOH AOH20160410212514104/10/16 21:25:31  5-MIN KAOH 110225Z AUTO 20010G19KT 9SM BKN017 OVC026 10/08 A2987 1020 89 700 210/10G19 RMK AO2 RAE02B07E25 P0000 T01000083
04850KAOH AOH20160410213014304/10/16 21:30:31  5-MIN KAOH 110230Z AUTO 20014KT 10SM SCT014 BKN019 OVC028 10/08 A2987 1020 89 700 200/14 RMK AO2 RAE02B07E25 P0000 T01000083
04850KAOH AOH20160410213514904/10/16 21:35:31  5-MIN KAOH 110235Z AUTO 20015G20KT 8SM -RA SCT014 BKN019 OVC034 10/08 A2987 1020 89 700 210/15G20 RMK AO2 RAE02B07 P0000 T01000083
04850KAOH AOH20160410214014904/10/16 21:40:31  5-MIN KAOH 110240Z AUTO 20013G20KT 8SM -RA SCT014 BKN019 OVC035 10/09 A2987 1020 93 700 210/13G20 RMK AO2 RAE02B07 P0001 T01000089
04850KAOH AOH20160410214514304/10/16 21:45:31  5-MIN KAOH 110245Z AUTO 20012KT 7SM -RA BKN014 BKN019 OVC030 10/09 A2987 1020 93 700 210/12 RMK AO2 RAE02B07 P0001 T01000089
04850KAOH AOH20160410215016804/10/16 21:50:31  5-MIN KAOH 110250Z AUTO 20015G20KT 8SM -RA BKN014 BKN019 OVC037 10/09 A2987 1020 93 700 200/15G20 RMK AO2 RAE02B07 SLP119 P0001 60005 T01000089 50003
04850KAOH AOH20160410215514304/10/16 21:55:31  5-MIN KAOH 110255Z AUTO 20013G20KT 10SM SCT014 BKN019 OVC033 10/09 A2987 1030 93 700 210/13G20 RMK AO2 RAE55 P0000 T01000089
04850KAOH AOH20160410220014504/10/16 22:00:31  5-MIN KAOH 110300Z AUTO 21015G19KT 10SM SCT014 BKN019 OVC033 11/09 A2987 1030 89 800 210/15G19 RMK AO2 RAE0255 P0000 T01060089
04850KAOH AOH20160410220514504/10/16 22:05:31  5-MIN KAOH 110305Z AUTO 21012G19KT 10SM SCT014 BKN019 OVC031 11/09 A2987 1030 89 800 220/12G19 RMK AO2 RAE0255 P0000 T01060089
04850KAOH AOH20160410221013904/10/16 22:10:31  5-MIN KAOH 110310Z AUTO 21014KT 10SM SCT014 SCT019 OVC029 11/09 A2986 1030 89 800 210/14 RMK AO2 RAE0255 P0000 T01060089
04850KAOH AOH20160410221514504/10/16 22:15:31  5-MIN KAOH 110315Z AUTO 21012G20KT 10SM FEW014 SCT019 OVC029 11/09 A2986 1040 89 800 210/12G20 RMK AO2 RAE0255 P0000 T01060089
04850KAOH AOH20160410222013804/10/16 22:20:31  5-MIN KAOH 110320Z AUTO 20014G21KT 10SM FEW014 OVC030 11/09 A2985 1040 89 800 210/14G21 RMK AO2 RAE0255 P0000 T01060089
04850KAOH AOH20160410222514504/10/16 22:25:31  5-MIN KAOH 110325Z AUTO 20014G22KT 10SM FEW014 BKN030 OVC035 11/09 A2985 1040 89 800 210/14G22 RMK AO2 RAE0255 P0000 T01060089
04850KAOH AOH20160410223013804/10/16 22:30:31  5-MIN KAOH 110330Z AUTO 20012G22KT 10SM FEW014 OVC030 11/09 A2985 1040 89 800 210/12G22 RMK AO2 RAE0255 P0000 T01060089
04850KAOH AOH20160410223514504/10/16 22:35:31  5-MIN KAOH 110335Z AUTO 20015G21KT 10SM FEW016 BKN030 OVC035 11/09 A2985 1040 89 800 200/15G21 RMK AO2 RAE0255 P0000 T01060089
04850KAOH AOH20160410224014504/10/16 22:40:31  5-MIN KAOH 110340Z AUTO 21014G21KT 10SM FEW018 BKN030 OVC035 11/09 A2986 1040 89 800 220/14G21 RMK AO2 RAE0255 P0000 T01060089
04850KAOH AOH20160410224513804/10/16 22:45:31  5-MIN KAOH 110345Z AUTO 21014G23KT 10SM FEW020 OVC030 11/09 A2986 1040 89 800 210/14G23 RMK AO2 RAE0255 P0000 T01060089
04850KAOH AOH20160410225014504/10/16 22:50:31  5-MIN KAOH 110350Z AUTO 20016G23KT 10SM FEW020 OVC030 11/09 A2985 1040 89 800 210/16G23 RMK AO2 RAE0255 SLP113 P0000 T01060089
04850KAOH AOH20160410225512404/10/16 22:55:31  5-MIN KAOH 110355Z AUTO 20015G21KT 10SM FEW019 OVC030 11/09 A2985 1040 89 800 210/15G21 RMK AO2 T01060089
04850KAOH AOH20160410230013104/10/16 23:00:31  5-MIN KAOH 110400Z AUTO 20017G25KT 10SM FEW019 FEW025 OVC030 11/08 A2985 1040 83 900 210/17G25 RMK AO2 T01110083
04850KAOH AOH20160410230514204/10/16 23:05:31  5-MIN KAOH 110405Z AUTO 21017G27KT 10SM FEW019 OVC028 11/08 A2985 1040 83 900 210/17G27 RMK AO2 PK WND 20027/0402 T01110083
04850KAOH AOH20160410231015704/10/16 23:10:31  5-MIN KAOH 110410Z AUTO 20018G27KT 9SM -RA FEW021 OVC028 11/08 A2985 1040 83 900 210/18G27 RMK AO2 PK WND 20027/0402 RAB09 P0000 T01110083
04850KAOH AOH20160410231515004/10/16 23:15:31  5-MIN KAOH 110415Z AUTO 20017G25KT 8SM -RA OVC029 11/09 A2985 1040 89 800 210/17G25 RMK AO2 PK WND 20027/0402 RAB09 P0000 T01060089
04850KAOH AOH20160410232015304/10/16 23:20:31  5-MIN KAOH 110420Z AUTO 21018G26KT 6SM -RA BR OVC029 11/09 A2985 1040 89 800 210/18G26 RMK AO2 PK WND 20027/0402 RAB09 P0000 T01060089
04850KAOH AOH20160410232515304/10/16 23:25:31  5-MIN KAOH 110425Z AUTO 21018G26KT 5SM -RA BR OVC028 11/09 A2985 1040 89 800 210/18G26 RMK AO2 PK WND 20027/0402 RAB09 P0001 T01060089
04850KAOH AOH20160410233015304/10/16 23:30:31  5-MIN KAOH 110430Z AUTO 21013G24KT 6SM -RA BR OVC028 11/09 A2985 1040 89 800 210/13G24 RMK AO2 PK WND 20027/0402 RAB09 P0001 T01060089
04850KAOH AOH20160410233515104/10/16 23:35:31  5-MIN KAOH 110435Z AUTO 21015G21KT 10SM -RA OVC028 11/08 A2985 1040 86 800 210/15G21 RMK AO2 PK WND 20027/0402 RAB09 P0001 T01060083
04850KAOH AOH20160410234015004/10/16 23:40:31  5-MIN KAOH 110440Z AUTO 20015G24KT 10SM OVC028 11/08 A2985 1040 83 900 210/15G24 RMK AO2 PK WND 20027/0402 RAB09E36 P0001 T01110083
04850KAOH AOH20160410234515004/10/16 23:45:31  5-MIN KAOH 110445Z AUTO 20015G24KT 10SM OVC028 11/08 A2985 1040 83 900 210/15G24 RMK AO2 PK WND 20027/0402 RAB09E36 P0001 T01110083
04850KAOH AOH20160410235016704/10/16 23:50:31  5-MIN KAOH 110450Z AUTO 21014G22KT 10SM OVC029 11/08 A2985 1040 83 900 210/14G22 RMK AO2 PK WND 20027/0402 RAB09E36 SLP111 P0001 T01110083 401221028
04850KAOH AOH20160410235511704/10/16 23:55:31  5-MIN KAOH 110455Z AUTO 20015G24KT 10SM OVC029 11/08 A2985 1040 83 900 210/15G24 RMK AO2 T01110083
04850KAOH AOH20160411000011704/11/16 00:00:31  5-MIN KAOH 110500Z AUTO 20016G24KT 10SM OVC029 11/08 A2985 1040 83 900 210/16G24 RMK AO2 T01110083
04850KAOH AOH20160411000512404/11/16 00:05:31  5-MIN KAOH 110505Z AUTO 20015G24KT 10SM BKN029 OVC038 11/08 A2984 1050 83 900 200/15G24 RMK AO2 T01110083
04850KAOH AOH20160411001012404/11/16 00:10:31  5-MIN KAOH 110510Z AUTO 20014G23KT 10SM BKN030 OVC038 11/08 A2984 1050 83 900 210/14G23 RMK AO2 T01110083
04850KAOH AOH20160411001514204/11/16 00:15:31  5-MIN KAOH 110515Z AUTO 20015G26KT 10SM BKN030 OVC038 11/08 A2984 1050 80 900 210/15G26 RMK AO2 PK WND 18026/0513 T01110078
04850KAOH AOH20160411002014904/11/16 00:20:31  5-MIN KAOH 110520Z AUTO 20013G26KT 10SM SCT030 BKN036 OVC047 11/08 A2984 1050 83 900 210/13G26 RMK AO2 PK WND 18026/0513 T01110083
04850KAOH AOH20160411002514904/11/16 00:25:31  5-MIN KAOH 110525Z AUTO 20014G25KT 10SM FEW028 BKN036 OVC047 11/08 A2984 1050 80 900 200/14G25 RMK AO2 PK WND 18026/0513 T01110078
04850KAOH AOH20160411003014904/11/16 00:30:31  5-MIN KAOH 110530Z AUTO 20018G27KT 10SM FEW029 BKN038 OVC045 11/08 A2984 1050 80 900 200/18G27 RMK AO2 PK WND 20027/0529 T01110078
04850KAOH AOH20160411003516504/11/16 00:35:31  5-MIN KAOH 110535Z AUTO 20014G27KT 10SM -RA FEW029 BKN041 OVC049 11/08 A2984 1060 80 900 210/14G27 RMK AO2 PK WND 20027/0529 RAB35 P0000 T01110078
04850KAOH AOH20160411004016504/11/16 00:40:31  5-MIN KAOH 110540Z AUTO 20014G23KT 10SM -RA FEW031 BKN043 OVC055 11/08 A2984 1060 80 900 200/14G23 RMK AO2 PK WND 20027/0529 RAB35 P0000 T01110078
04850KAOH AOH20160411004515204/11/16 00:45:31  5-MIN KAOH 110545Z AUTO 20013KT 10SM -RA BKN043 OVC050 11/08 A2983 1060 80 900 200/13 RMK AO2 PK WND 20027/0529 RAB35 P0000 T01110078
04850KAOH AOH20160411005018204/11/16 00:50:31  5-MIN KAOH 110550Z AUTO 20015KT 10SM BKN045 OVC055 11/08 A2983 1060 83 800 200/15 RMK AO2 PK WND 20027/0529 RAB35E46 SLP106 P0000 60006 T01060078 10111 20094 55001
04850KAOH AOH20160411005512704/11/16 00:55:31  5-MIN KAOH 110555Z AUTO 20013KT 10SM -RA OVC045 11/08 A2983 1060 83 800 210/13 RMK AO2 RAB55 P0000 T01060078
04850KAOH AOH20160411010013604/11/16 01:00:31  5-MIN KAOH 110600Z AUTO 20013KT 10SM -RA BKN042 OVC049 11/08 A2983 1060 83 800 200/13 RMK AO2 RAB0555 P0000 T01060078
04850KAOH AOH20160411010513604/11/16 01:05:31  5-MIN KAOH 110605Z AUTO 19014KT 10SM -RA BKN040 OVC049 11/08 A2983 1060 83 800 200/14 RMK AO2 RAB0555 P0000 T01060078
04850KAOH AOH20160411011012804/11/16 01:10:31  5-MIN KAOH 110610Z AUTO 19013KT 10SM OVC040 11/08 A2982 1070 83 800 200/13 RMK AO2 RAB0555E07 P0000 T01060078
04850KAOH AOH20160411011513404/11/16 01:15:31  5-MIN KAOH 110615Z AUTO 20013G20KT 10SM OVC040 11/08 A2982 1070 83 800 200/13G20 RMK AO2 RAB0555E07 P0000 T01060078
04850KAOH AOH20160411012012804/11/16 01:20:31  5-MIN KAOH 110620Z AUTO 20013KT 10SM OVC040 11/08 A2982 1070 83 800 210/13 RMK AO2 RAB0555E07 P0000 T01060078
04850KAOH AOH20160411012512804/11/16 01:25:31  5-MIN KAOH 110625Z AUTO 20014KT 10SM OVC040 11/08 A2982 1070 83 800 210/14 RMK AO2 RAB0555E07 P0000 T01060078
04850KAOH AOH20160411013012804/11/16 01:30:31  5-MIN KAOH 110630Z AUTO 20012KT 10SM OVC040 11/07 A2982 1070 80 800 210/12 RMK AO2 RAB0555E07 P0000 T01060072
04850KAOH AOH20160411013513404/11/16 01:35:31  5-MIN KAOH 110635Z AUTO 20013G23KT 10SM OVC040 11/07 A2981 1080 77 900 210/13G23 RMK AO2 RAB0555E07 P0000 T01110072
04850KAOH AOH20160411014013404/11/16 01:40:31  5-MIN KAOH 110640Z AUTO 20014G23KT 10SM OVC040 11/07 A2981 1080 77 900 200/14G23 RMK AO2 RAB0555E07 P0000 T01110072
04850KAOH AOH20160411014514104/11/16 01:45:31  5-MIN KAOH 110645Z AUTO 20015G22KT 10SM -RA OVC040 11/07 A2981 1080 77 900 210/15G22 RMK AO2 RAB0555E07B42 P0000 T01110072
04850KAOH AOH20160411015014804/11/16 01:50:31  5-MIN KAOH 110650Z AUTO 20012G21KT 10SM -RA OVC040 11/07 A2981 1080 80 800 210/12G21 RMK AO2 RAB0555E07B42 SLP098 P0000 T01060072
04850KAOH AOH20160411015511104/11/16 01:55:31  5-MIN KAOH 110655Z AUTO 21012KT 10SM OVC040 11/07 A2982 1070 77 800 220/12 RMK AO2 T01060067
04850KAOH AOH20160411020013304/11/16 02:00:31  5-MIN KAOH 110700Z AUTO 21012G21KT 10SM -RA OVC040 11/07 A2982 1070 77 800 210/12G21 RMK AO2 RAB00 P0000 T01060067
04850KAOH AOH20160411020513304/11/16 02:05:31  5-MIN KAOH 110705Z AUTO 20015G22KT 10SM -RA OVC039 11/07 A2982 1070 77 800 210/15G22 RMK AO2 RAB00 P0000 T01060067
04850KAOH AOH20160411021013304/11/16 02:10:31  5-MIN KAOH 110710Z AUTO 21014G22KT 10SM -RA OVC037 11/07 A2982 1070 77 800 210/14G22 RMK AO2 RAB00 P0000 T01060067
04850KAOH AOH20160411021512704/11/16 02:15:31  5-MIN KAOH 110715Z AUTO 21013KT 10SM -RA OVC037 11/07 A2982 1070 77 800 210/13 RMK AO2 RAB00 P0000 T01060067
04850KAOH AOH20160411022013304/11/16 02:20:31  5-MIN KAOH 110720Z AUTO 20015G21KT 10SM -RA OVC035 11/07 A2981 1080 77 800 210/15G21 RMK AO2 RAB00 P0000 T01060067
04850KAOH AOH20160411022513204/11/16 02:25:31  5-MIN KAOH 110725Z AUTO 21014G22KT 10SM OVC035 11/07 A2981 1080 77 800 210/14G22 RMK AO2 RAB00E24 P0000 T01060067
04850KAOH AOH20160411023015004/11/16 02:30:31  5-MIN KAOH 110730Z AUTO 21020G29KT 10SM OVC033 11/07 A2981 1080 74 900 210/20G29 RMK AO2 PK WND 21029/0729 RAB00E24 P0000 T01110067
04850KAOH AOH20160411023515104/11/16 02:35:31  5-MIN KAOH 110735Z AUTO 21012G29KT 10SM -RA OVC033 11/06 A2981 1080 71 900 220/12G29 RMK AO2 PK WND 21029/0729 RAB00 P0000 T01110061
04850KAOH AOH20160411024015104/11/16 02:40:31  5-MIN KAOH 110740Z AUTO 21014G20KT 10SM -RA OVC033 11/06 A2981 1080 71 900 210/14G20 RMK AO2 PK WND 21029/0729 RAB00 P0000 T01110061
04850KAOH AOH20160411024515004/11/16 02:45:31  5-MIN KAOH 110745Z AUTO 20015G23KT 10SM OVC033 11/06 A2981 1080 71 900 210/15G23 RMK AO2 PK WND 21029/0729 RAB00E44 P0000 T01110061
04850KAOH AOH20160411025015704/11/16 02:50:31  5-MIN KAOH 110750Z AUTO 21012G23KT 10SM OVC033 11/06 A2981 1080 71 900 210/12G23 RMK AO2 PK WND 21029/0729 RAB00E44 SLP095 P0000 T01110061
04850KAOH AOH20160411025511704/11/16 02:55:31  5-MIN KAOH 110755Z AUTO 20013G22KT 10SM OVC032 11/06 A2981 1080 71 900 210/13G22 RMK AO2 T01110061
04850KAOH AOH20160411030011704/11/16 03:00:31  5-MIN KAOH 110800Z AUTO 21015G22KT 10SM OVC032 11/06 A2981 1080 71 900 210/15G22 RMK AO2 T01110061
04850KAOH AOH20160411030511704/11/16 03:05:31  5-MIN KAOH 110805Z AUTO 21015G22KT 10SM OVC032 11/06 A2981 1080 71 900 210/15G22 RMK AO2 T01110061
04850KAOH AOH20160411031011704/11/16 03:10:31  5-MIN KAOH 110810Z AUTO 21013G21KT 10SM OVC031 11/06 A2981 1080 71 900 210/13G21 RMK AO2 T01110061
04850KAOH AOH20160411031511704/11/16 03:15:31  5-MIN KAOH 110815Z AUTO 21015G25KT 10SM OVC031 11/06 A2981 1080 71 900 220/15G25 RMK AO2 T01110061
04850KAOH AOH20160411032013204/11/16 03:20:31  5-MIN KAOH 110820Z AUTO 20015G25KT 9SM -RA OVC031 11/06 A2981 1080 71 900 210/15G25 RMK AO2 RAB18 P0000 T01110061
04850KAOH AOH20160411032515704/11/16 03:25:31  5-MIN KAOH 110825Z AUTO 20015G27KT 9SM -RA BKN031 OVC038 11/07 A2981 1080 77 800 210/15G27 RMK AO2 PK WND 22027/0822 RAB18 P0001 T01060067
04850KAOH AOH20160411033015804/11/16 03:30:31  5-MIN KAOH 110830Z AUTO 21015G27KT 10SM -RA BKN031 OVC038 11/07 A2981 1080 74 900 210/15G27 RMK AO2 PK WND 22027/0822 RAB18 P0001 T01110067
04850KAOH AOH20160411033515804/11/16 03:35:31  5-MIN KAOH 110835Z AUTO 21018G24KT 10SM -RA BKN030 OVC036 11/07 A2981 1080 74 900 210/18G24 RMK AO2 PK WND 22027/0822 RAB18 P0001 T01110067
04850KAOH AOH20160411034015004/11/16 03:40:31  5-MIN KAOH 110840Z AUTO 21014G24KT 10SM OVC030 11/07 A2981 1080 74 900 210/14G24 RMK AO2 PK WND 22027/0822 RAB18E36 P0001 T01110067
04850KAOH AOH20160411034515004/11/16 03:45:31  5-MIN KAOH 110845Z AUTO 21014G22KT 10SM OVC030 11/07 A2981 1080 77 800 210/14G22 RMK AO2 PK WND 22027/0822 RAB18E36 P0001 T01060067
04850KAOH AOH20160411035016304/11/16 03:50:31  5-MIN KAOH 110850Z AUTO 21013KT 10SM OVC030 11/07 A2981 1080 77 800 210/13 RMK AO2 PK WND 22027/0822 RAB18E36 SLP095 P0001 60001 T01060067 56012
04850KAOH AOH20160411035511104/11/16 03:55:31  5-MIN KAOH 110855Z AUTO 21013KT 10SM OVC028 11/07 A2981 1080 74 900 210/13 RMK AO2 T01110067
04850KAOH AOH20160411040013504/11/16 04:00:31  5-MIN KAOH 110900Z AUTO 21013G20KT 10SM -RA OVC028 11/07 A2980 1090 77 900 210/13G20 RMK AO2 RAB0859 P0000 T01060067
04850KAOH AOH20160411040514204/11/16 04:05:31  5-MIN KAOH 110905Z AUTO 20016G20KT 10SM -RA FEW023 OVC030 11/07 A2980 1090 77 900 210/16G20 RMK AO2 RAB0859 P0000 T01060067
04850KAOH AOH20160411041016004/11/16 04:10:31  5-MIN KAOH 110910Z AUTO 21019G27KT 10SM -RA BKN026 OVC034 11/07 A2981 1080 77 800 220/19G27 RMK AO2 PK WND 21027/0909 RAB0859 P0000 T01060067
04850KAOH AOH20160411041515904/11/16 04:15:31  5-MIN KAOH 110915Z AUTO 21013G27KT 9SM -RA BKN024 OVC034 10/07 A2981 1080 83 800 220/13G27 RMK AO2 PK WND 21027/0909 RAB0859 P0000 T01000072
04850KAOH AOH20160411042015304/11/16 04:20:31  5-MIN KAOH 110920Z AUTO 21011KT 9SM -RA BKN024 OVC033 10/08 A2981 1080 86 800 220/11 RMK AO2 PK WND 21027/0909 RAB0859 P0000 T01000078
04850KAOH AOH20160411042515404/11/16 04:25:31  5-MIN KAOH 110925Z AUTO 21010KT 10SM -RA BKN024 OVC033 10/08 A2981 1080 86 800 210/10 RMK AO2 PK WND 21027/0909 RAB0859 P0000 T01000078
04850KAOH AOH20160411143013404/11/16 14:30:31  5-MIN KAOH 111930Z AUTO 25016KT 9SM -RA FEW050 BKN070 OVC080 11/07 A2987 1020 80 800 250/16 RMK AO2 P0004 T01060072
04850KAOH AOH20160411143512704/11/16 14:35:31  5-MIN KAOH 111935Z AUTO 25016KT 9SM -RA FEW065 OVC080 10/07 A2987 1020 80 700 260/16 RMK AO2 P0005 T01000067
04850KAOH AOH20160411144012704/11/16 14:40:31  5-MIN KAOH 111940Z AUTO 24014KT 8SM -RA FEW060 OVC075 10/07 A2987 1020 80 700 250/14 RMK AO2 P0005 T01000067
04850KAOH AOH20160411144512004/11/16 14:45:31  5-MIN KAOH 111945Z AUTO 24014KT 9SM -RA OVC070 10/07 A2987 1020 80 700 240/14 RMK AO2 P0006 T01000067
04850KAOH AOH20160411145012704/11/16 14:50:31  5-MIN KAOH 111950Z AUTO 24013KT 9SM -RA OVC070 10/07 A2987 1020 80 700 240/13 RMK AO2 SLP117 P0007 T01000067
04850KAOH AOH20160411145511904/11/16 14:55:31  5-MIN KAOH 111955Z AUTO 24011KT 7SM RA OVC070 10/07 A2987 1020 83 700 240/11 RMK AO2 P0000 T01000072
04850KAOH AOH20160411150012204/11/16 15:00:31  5-MIN KAOH 112000Z AUTO 22011KT 5SM RA BR OVC070 10/08 A2987 1020 86 700 230/11 RMK AO2 P0001 T01000078
04850KAOH AOH20160411150512304/11/16 15:05:31  5-MIN KAOH 112005Z AUTO 24014KT 6SM -RA BR OVC070 10/08 A2987 1020 86 700 240/14 RMK AO2 P0002 T01000078
04850KAOH AOH20160411151012004/11/16 15:10:31  5-MIN KAOH 112010Z AUTO 23011KT 8SM -RA OVC070 09/07 A2987 1030 86 600 240/11 RMK AO2 P0003 T00940072
04850KAOH AOH20160411151512104/11/16 15:15:31  5-MIN KAOH 112015Z AUTO 22011KT 10SM -RA OVC070 09/08 A2986 1030 89 700 230/11 RMK AO2 P0003 T00940078
04850KAOH AOH20160411152012104/11/16 15:20:31  5-MIN KAOH 112020Z AUTO 22010KT 10SM -RA OVC075 09/08 A2986 1030 89 600 230/10 RMK AO2 P0003 T00940078
04850KAOH AOH20160411152512804/11/16 15:25:31  5-MIN KAOH 112025Z AUTO 22010KT 10SM -RA BKN075 OVC090 10/08 A2986 1030 86 700 220/10 RMK AO2 P0004 T01000078
04850KAOH AOH20160411153012104/11/16 15:30:31  5-MIN KAOH 112030Z AUTO 22010KT 10SM -RA OVC080 10/08 A2987 1030 86 700 230/10 RMK AO2 P0004 T01000078
04850KAOH AOH20160411153512104/11/16 15:35:31  5-MIN KAOH 112035Z AUTO 23011KT 10SM -RA OVC080 10/08 A2987 1020 86 700 230/11 RMK AO2 P0004 T01000078
04850KAOH AOH20160411154012104/11/16 15:40:31  5-MIN KAOH 112040Z AUTO 23010KT 10SM -RA OVC080 09/08 A2988 1020 89 600 230/10 RMK AO2 P0004 T00940078
04850KAOH AOH20160411154512704/11/16 15:45:31  5-MIN KAOH 112045Z AUTO 22011KT 9SM -RA BKN075 OVC090 09/08 A2987 1020 89 600 230/11 RMK AO2 P0005 T00940078
04850KAOH AOH20160411155014604/11/16 15:50:31  5-MIN KAOH 112050Z AUTO 22011KT 9SM -RA BKN075 OVC085 09/08 A2988 1020 89 600 230/11 RMK AO2 SLP119 P0005 60019 T00940078 53008
04850KAOH AOH20160411155512804/11/16 15:55:31  5-MIN KAOH 112055Z AUTO 22013KT 10SM -RA BKN070 OVC085 09/08 A2988 1020 89 600 230/13 RMK AO2 P0000 T00940078
04850KAOH AOH20160411160012804/11/16 16:00:31  5-MIN KAOH 112100Z AUTO 22012KT 10SM -RA BKN075 OVC090 09/08 A2988 1010 89 600 230/12 RMK AO2 P0000 T00940078
04850KAOH AOH20160411160512804/11/16 16:05:31  5-MIN KAOH 112105Z AUTO 23010KT 10SM -RA BKN075 OVC090 09/08 A2988 1010 89 600 230/10 RMK AO2 P0000 T00940078
04850KAOH AOH20160411161013004/11/16 16:10:31  5-MIN KAOH 112110Z AUTO 23012KT 10SM SCT075 OVC095 10/08 A2988 1020 86 700 240/12 RMK AO2 RAE07 P0000 T01000078
04850KAOH AOH20160411161513004/11/16 16:15:31  5-MIN KAOH 112115Z AUTO 23011KT 10SM SCT070 BKN095 10/08 A2988 1020 89 700 240/11 RMK AO2 RAE07 P0000 T01000083
04850KAOH AOH20160411162013004/11/16 16:20:31  5-MIN KAOH 112120Z AUTO 24012KT 10SM FEW075 BKN100 10/08 A2988 1020 89 700 240/12 RMK AO2 RAE07 P0000 T01000083
04850KAOH AOH20160411162512304/11/16 16:25:31  5-MIN KAOH 112125Z AUTO 23011KT 10SM BKN100 10/08 A2987 1020 89 700 240/11 RMK AO2 RAE07 P0000 T01000083
04850KAOH AOH20160411163013704/11/16 16:30:31  5-MIN KAOH 112130Z AUTO 24012KT 10SM FEW011 SCT090 BKN110 10/08 A2988 1020 89 700 240/12 RMK AO2 RAE07 P0000 T01000083
04850KAOH AOH20160411163513004/11/16 16:35:31  5-MIN KAOH 112135Z AUTO 23012KT 10SM SCT011 BKN100 10/08 A2987 1020 89 700 230/12 RMK AO2 RAE07 P0000 T01000083
04850KAOH AOH20160411164013004/11/16 16:40:31  5-MIN KAOH 112140Z AUTO 24010KT 10SM SCT011 BKN110 10/09 A2987 1020 93 700 250/10 RMK AO2 RAE07 P0000 T01000089
04850KAOH AOH20160411164513004/11/16 16:45:31  5-MIN KAOH 112145Z AUTO 24011KT 10SM BKN011 BKN110 10/08 A2987 1020 89 700 240/11 RMK AO2 RAE07 P0000 T01000083
04850KAOH AOH20160411165013704/11/16 16:50:31  5-MIN KAOH 112150Z AUTO 24011KT 10SM BKN011 BKN110 10/09 A2988 1020 93 700 240/11 RMK AO2 RAE07 SLP118 P0000 T01000089
04850KAOH AOH20160411165511104/11/16 16:55:31  5-MIN KAOH 112155Z AUTO 25009KT 10SM BKN011 10/09 A2988 1020 93 700 250/09 RMK AO2 T01000089
04850KAOH AOH20160411170011104/11/16 17:00:31  5-MIN KAOH 112200Z AUTO 25010KT 10SM BKN011 10/09 A2988 1020 93 700 250/10 RMK AO2 T01000089
04850KAOH AOH20160411170511104/11/16 17:05:31  5-MIN KAOH 112205Z AUTO 24011KT 10SM BKN011 10/09 A2988 1020 93 700 250/11 RMK AO2 T01000089
04850KAOH AOH20160411171011104/11/16 17:10:31  5-MIN KAOH 112210Z AUTO 24012KT 10SM BKN012 10/08 A2988 1020 89 700 250/12 RMK AO2 T01000083
04850KAOH AOH20160411171511804/11/16 17:15:31  5-MIN KAOH 112215Z AUTO 24011KT 10SM BKN012 BKN023 10/08 A2988 1020 89 700 240/11 RMK AO2 T01000083
04850KAOH AOH20160411172011804/11/16 17:20:31  5-MIN KAOH 112220Z AUTO 24009KT 10SM BKN012 BKN023 10/08 A2988 1020 89 700 240/09 RMK AO2 T01000083
04850KAOH AOH20160411172512504/11/16 17:25:31  5-MIN KAOH 112225Z AUTO 24010KT 10SM BKN012 BKN018 BKN023 10/08 A2988 1020 89 700 240/10 RMK AO2 T01000083
04850KAOH AOH20160411173011804/11/16 17:30:31  5-MIN KAOH 112230Z AUTO 24009KT 10SM BKN014 OVC023 10/08 A2988 1010 89 700 240/09 RMK AO2 T01000083
04850KAOH AOH20160411173511804/11/16 17:35:31  5-MIN KAOH 112235Z AUTO 24010KT 10SM BKN014 BKN022 10/08 A2988 1020 89 700 250/10 RMK AO2 T01000083
04850KAOH AOH20160411174011804/11/16 17:40:31  5-MIN KAOH 112240Z AUTO 24011KT 10SM SCT012 BKN023 10/09 A2988 1020 93 700 250/11 RMK AO2 T01000089
04850KAOH AOH20160411174511804/11/16 17:45:31  5-MIN KAOH 112245Z AUTO 24010KT 10SM SCT012 SCT017 10/08 A2988 1020 89 700 250/10 RMK AO2 T01000083
04850KAOH AOH20160411175011804/11/16 17:50:31  5-MIN KAOH 112250Z AUTO 25008KT 10SM SCT014 10/08 A2988 1010 89 700 250/08 RMK AO2 SLP120 T01000083
04850KAOH AOH20160411175511104/11/16 17:55:31  5-MIN KAOH 112255Z AUTO 26009KT 10SM SCT012 10/09 A2989 1010 93 700 260/09 RMK AO2 T01000089
04850KAOH AOH20160411180011804/11/16 18:00:31  5-MIN KAOH 112300Z AUTO 25009KT 10SM SCT012 SCT021 10/09 A2988 1010 93 700 260/09 RMK AO2 T01000089
04850KAOH AOH20160411180511804/11/16 18:05:31  5-MIN KAOH 112305Z AUTO 26008KT 10SM FEW012 FEW018 10/09 A2988 1010 93 700 260/08 RMK AO2 T01000089
04850KAOH AOH20160411181011804/11/16 18:10:31  5-MIN KAOH 112310Z AUTO 26008KT 10SM FEW011 SCT020 10/09 A2989 1010 93 700 270/08 RMK AO2 T01000089
04850KAOH AOH20160411181511804/11/16 18:15:31  5-MIN KAOH 112315Z AUTO 27007KT 10SM FEW011 FEW020 10/09 A2989 1010 93 700 270/07 RMK AO2 T01000089
04850KAOH AOH20160411182012504/11/16 18:20:31  5-MIN KAOH 112320Z AUTO 27009KT 10SM FEW011 FEW018 SCT032 10/09 A2989 1000 93 700 280/09 RMK AO2 T01000089
04850KAOH AOH20160411182511804/11/16 18:25:31  5-MIN KAOH 112325Z AUTO 27011KT 10SM FEW018 SCT030 11/08 A2990 1000 83 700 280/11 RMK AO2 T01060078
04850KAOH AOH20160411183011104/11/16 18:30:31  5-MIN KAOH 112330Z AUTO 29009KT 10SM BKN029 11/08 A2990 1000 83 700 290/09 RMK AO2 T01060078
04850KAOH AOH20160411183511704/11/16 18:35:31  5-MIN KAOH 112335Z AUTO 28011KT 10SM BKN027 BKN032 11/06 A2990 990 74 700 290/11 RMK AO2 T01060061
04850KAOH AOH20160411184011704/11/16 18:40:31  5-MIN KAOH 112340Z AUTO 28012KT 10SM BKN027 BKN032 11/06 A2991 990 71 700 280/12 RMK AO2 T01060056
04850KAOH AOH20160411184511704/11/16 18:45:31  5-MIN KAOH 112345Z AUTO 29011KT 10SM BKN027 OVC034 10/06 A2991 980 74 700 290/11 RMK AO2 T01000056
04850KAOH AOH20160411185015504/11/16 18:50:31  5-MIN KAOH 112350Z AUTO 28011KT 10SM BKN027 OVC034 10/06 A2992 980 74 600 280/11 RMK AO2 PRESRR SLP134 60019 T01000056 10128 20094 51005
04850KAOH AOH20160411185511704/11/16 18:55:31  5-MIN KAOH 112355Z AUTO 28010KT 10SM SCT027 BKN034 10/06 A2993 970 74 600 280/10 RMK AO2 T01000056
04850KAOH AOH20160411190011704/11/16 19:00:31  5-MIN KAOH 120000Z AUTO 28008KT 10SM SCT027 BKN034 10/06 A2993 970 74 600 290/08 RMK AO2 T01000056
04850KAOH AOH20160411190511704/11/16 19:05:31  5-MIN KAOH 120005Z AUTO 29009KT 10SM BKN027 BKN034 10/06 A2993 970 74 600 300/09 RMK AO2 T01000056
04850KAOH AOH20160411191011704/11/16 19:10:31  5-MIN KAOH 120010Z AUTO 29009KT 10SM BKN027 BKN034 10/06 A2993 970 74 600 300/09 RMK AO2 T01000056
04850KAOH AOH20160411191511704/11/16 19:15:31  5-MIN KAOH 120015Z AUTO 30008KT 10SM BKN027 BKN034 10/06 A2993 970 74 600 310/08 RMK AO2 T01000056
04850KAOH AOH20160411192011704/11/16 19:20:31  5-MIN KAOH 120020Z AUTO 31010KT 10SM BKN028 BKN034 10/06 A2993 970 74 600 310/10 RMK AO2 T01000056
04850KAOH AOH20160411192511704/11/16 19:25:31  5-MIN KAOH 120025Z AUTO 32008KT 10SM SCT028 OVC034 10/06 A2993 970 74 600 320/08 RMK AO2 T01000056
04850KAOH AOH20160411193011704/11/16 19:30:31  5-MIN KAOH 120030Z AUTO 31009KT 10SM SCT028 OVC035 10/06 A2993 970 74 600 310/09 RMK AO2 T01000056
04850KAOH AOH20160411193512404/11/16 19:35:31  5-MIN KAOH 120035Z AUTO 31008KT 10SM FEW028 BKN035 OVC043 09/06 A2993 960 76 600 310/08 RMK AO2 T00940056
04850KAOH AOH20160411194011704/11/16 19:40:31  5-MIN KAOH 120040Z AUTO 31009KT 10SM SCT030 OVC035 09/06 A2994 960 76 600 320/09 RMK AO2 T00940056
04850KAOH AOH20160411194511004/11/16 19:45:31  5-MIN KAOH 120045Z AUTO 32011KT 10SM OVC033 09/06 A2994 960 76 600 330/11 RMK AO2 T00940056
04850KAOH AOH20160411195012404/11/16 19:50:31  5-MIN KAOH 120050Z AUTO 33013KT 10SM FEW030 OVC035 09/04 A2995 950 71 600 330/13 RMK AO2 SLP142 T00940044
04850KAOH AOH20160411195511704/11/16 19:55:31  5-MIN KAOH 120055Z AUTO 34010KT 10SM FEW030 OVC037 09/04 A2995 950 71 500 350/10 RMK AO2 T00890039
04850KAOH AOH20160411200012304/11/16 20:00:31  5-MIN KAOH 120100Z AUTO 34013G18KT 10SM FEW030 OVC037 09/04 A2996 940 71 500 340/13G18 RMK AO2 T00890039
04850KAOH AOH20160411200512304/11/16 20:05:31  5-MIN KAOH 120105Z AUTO 34015G21KT 10SM FEW030 OVC037 08/03 A2996 940 68 400 350/15G21 RMK AO2 T00830028
04850KAOH AOH20160411201011604/11/16 20:10:31  5-MIN KAOH 120110Z AUTO 34010G21KT 10SM OVC037 08/03 A2997 930 70 300 350/10G21 RMK AO2 T00780028
04850KAOH AOH20160411201511704/11/16 20:15:31  5-MIN KAOH 120115Z AUTO 34013KT 10SM OVC038 08/03 A2997 930 70 300 340/13 RMK AO2 PRESRR T00780028
04850KAOH AOH20160411202011004/11/16 20:20:31  5-MIN KAOH 120120Z AUTO 32012KT 10SM OVC038 08/03 A2998 920 70 300 330/12 RMK AO2 T00780028
04850KAOH AOH20160411202511604/11/16 20:25:31  5-MIN KAOH 120125Z AUTO 34015G22KT 10SM OVC038 07/02 A2998 920 70 200 340/15G22 RMK AO2 T00720022
04850KAOH AOH20160411203011604/11/16 20:30:31  5-MIN KAOH 120130Z AUTO 34012G22KT 10SM OVC038 07/02 A2999 910 68 200 350/12G22 RMK AO2 T00720017
04850KAOH AOH20160411203511004/11/16 20:35:31  5-MIN KAOH 120135Z AUTO 34011KT 10SM OVC038 07/02 A2999 910 68 200 340/11 RMK AO2 T00720017
04850KAOH AOH20160411204011604/11/16 20:40:31  5-MIN KAOH 120140Z AUTO 33012G17KT 10SM OVC036 07/02 A2999 910 70 200 340/12G17 RMK AO2 T00670017
04850KAOH AOH20160411204511604/11/16 20:45:31  5-MIN KAOH 120145Z AUTO 33010G17KT 10SM OVC036 07/02 A2999 910 70 200 330/10G17 RMK AO2 T00670017
04850KAOH AOH20160411205011704/11/16 20:50:31  5-MIN KAOH 120150Z AUTO 33012KT 10SM OVC036 07/01 A3000 910 67 200 340/12 RMK AO2 SLP162 T00670011
04850KAOH AOH20160411205511004/11/16 20:55:31  5-MIN KAOH 120155Z AUTO 33013KT 10SM OVC036 07/01 A3000 900 67 200 330/13 RMK AO2 T00670011
04850KAOH AOH20160411210011004/11/16 21:00:31  5-MIN KAOH 120200Z AUTO 33010KT 10SM OVC036 07/01 A3001 900 67 200 340/10 RMK AO2 T00670011
04850KAOH AOH20160411210512304/11/16 21:05:31  5-MIN KAOH 120205Z AUTO 34012G18KT 10SM BKN036 OVC047 07/01 A3001 900 67 100 340/12G18 RMK AO2 T00670011
04850KAOH AOH20160411211012304/11/16 21:10:31  5-MIN KAOH 120210Z AUTO 34017G22KT 10SM BKN036 OVC047 06/01 A3001 890 67 100 340/17G22 RMK AO2 T00610006
04850KAOH AOH20160411211512304/11/16 21:15:31  5-MIN KAOH 120215Z AUTO 33015G22KT 10SM BKN036 OVC045 06/01 A3002 890 67 100 340/15G22 RMK AO2 T00610006
04850KAOH AOH20160411212011704/11/16 21:20:31  5-MIN KAOH 120220Z AUTO 33012KT 10SM BKN036 OVC047 06/00 A3002 890 65 100 330/12 RMK AO2 T00610000
04850KAOH AOH20160411212511704/11/16 21:25:31  5-MIN KAOH 120225Z AUTO 33013KT 10SM SCT036 OVC047 06/00 A3002 890 65 100 340/13 RMK AO2 T00610000
04850KAOH AOH20160411213011604/11/16 21:30:31  5-MIN KAOH 120230Z AUTO 33013KT 10SM SCT036 BKN047 06/M01 A3002 880 65 0 330/13 RMK AO2 T00561006
04850KAOH AOH20160411213511504/11/16 21:35:31  5-MIN KAOH 120235Z AUTO 33010KT 10SM SCT037 BKN047 06/00 A3003 880 67 0 330/10 RMK AO2 T00560000
04850KAOH AOH20160411214011604/11/16 21:40:31  5-MIN KAOH 120240Z AUTO 33011KT 10SM FEW037 BKN047 06/M01 A3003 870 65 0 340/11 RMK AO2 T00561006
04850KAOH AOH20160411214510904/11/16 21:45:31  5-MIN KAOH 120245Z AUTO 33011KT 10SM BKN047 06/M01 A3003 870 65 0 340/11 RMK AO2 T00561006
04850KAOH AOH20160411215012204/11/16 21:50:31  5-MIN KAOH 120250Z AUTO 34009KT 10SM OVC047 06/M01 A3003 870 65 0 340/09 RMK AO2 SLP174 T00561006 53017
04850KAOH AOH20160411215510904/11/16 21:55:31  5-MIN KAOH 120255Z AUTO 33013KT 10SM BKN047 05/M01 A3004 870 67 0 340/13 RMK AO2 T00501006
04850KAOH AOH20160411220010904/11/16 22:00:31  5-MIN KAOH 120300Z AUTO 33011KT 10SM BKN047 05/M01 A3004 870 67 0 330/11 RMK AO2 T00501006
04850KAOH AOH20160411220510904/11/16 22:05:31  5-MIN KAOH 120305Z AUTO 33008KT 10SM BKN047 05/M01 A3004 860 64 0 340/08 RMK AO2 T00501011
04850KAOH AOH20160411221010904/11/16 22:10:31  5-MIN KAOH 120310Z AUTO 34008KT 10SM BKN047 05/M01 A3004 860 64 0 340/08 RMK AO2 T00501011
04850KAOH AOH20160411221511204/11/16 22:15:31  5-MIN KAOH 120315Z AUTO 34009KT 10SM SCT047 04/M01 A3004 860 67 -100 340/09 RMK AO2 T00441011
04850KAOH AOH20160411222011204/11/16 22:20:31  5-MIN KAOH 120320Z AUTO 34009KT 10SM FEW047 04/M01 A3004 860 67 -100 350/09 RMK AO2 T00441011
04850KAOH AOH20160411222511204/11/16 22:25:31  5-MIN KAOH 120325Z AUTO 34009KT 10SM FEW047 04/M01 A3005 860 67 -100 340/09 RMK AO2 T00441011
04850KAOH AOH20160411223011204/11/16 22:30:31  5-MIN KAOH 120330Z AUTO 33007KT 10SM FEW047 04/M01 A3005 860 67 -100 340/07 RMK AO2 T00441011
04850KAOH AOH20160411223510904/11/16 22:35:31  5-MIN KAOH 120335Z AUTO 33006KT 10SM CLR 04/M01 A3005 860 70 -200 340/06 RMK AO2 T00391011
04850KAOH AOH20160411224010904/11/16 22:40:31  5-MIN KAOH 120340Z AUTO 34006KT 10SM CLR 04/M01 A3005 860 70 -200 350/06 RMK AO2 T00391011
04850KAOH AOH20160411224510904/11/16 22:45:31  5-MIN KAOH 120345Z AUTO 34005KT 10SM CLR 04/M01 A3005 860 70 -200 350/05 RMK AO2 T00391011
04850KAOH AOH20160411225011604/11/16 22:50:31  5-MIN KAOH 120350Z AUTO 34005KT 10SM CLR 04/M02 A3005 860 67 -200 340/05 RMK AO2 SLP180 T00391017
04850KAOH AOH20160411225510904/11/16 22:55:31  5-MIN KAOH 120355Z AUTO 34004KT 10SM CLR 04/M02 A3006 850 67 -200 350/04 RMK AO2 T00391017
04850KAOH AOH20160411230010904/11/16 23:00:31  5-MIN KAOH 120400Z AUTO 34004KT 10SM CLR 04/M02 A3006 850 67 -200 350/04 RMK AO2 T00391017
04850KAOH AOH20160411230510904/11/16 23:05:31  5-MIN KAOH 120405Z AUTO 33004KT 10SM CLR 03/M02 A3006 850 70 -300 340/04 RMK AO2 T00331017
04850KAOH AOH20160411231010904/11/16 23:10:31  5-MIN KAOH 120410Z AUTO 34006KT 10SM CLR 03/M02 A3006 850 70 -300 340/06 RMK AO2 T00331017
04850KAOH AOH20160411231510904/11/16 23:15:31  5-MIN KAOH 120415Z AUTO 33005KT 10SM CLR 03/M02 A3006 850 70 -300 340/05 RMK AO2 T00331017
04850KAOH AOH20160411232010904/11/16 23:20:31  5-MIN KAOH 120420Z AUTO 34004KT 10SM CLR 03/M02 A3006 850 70 -300 350/04 RMK AO2 T00331017
04850KAOH AOH20160411232510904/11/16 23:25:31  5-MIN KAOH 120425Z AUTO 34004KT 10SM CLR 03/M02 A3006 850 70 -300 350/04 RMK AO2 T00331017
04850KAOH AOH20160411233010904/11/16 23:30:31  5-MIN KAOH 120430Z AUTO 35004KT 10SM CLR 03/M02 A3006 850 70 -300 350/04 RMK AO2 T00331017
04850KAOH AOH20160411233510904/11/16 23:35:31  5-MIN KAOH 120435Z AUTO 34003KT 10SM CLR 03/M02 A3007 840 70 -300 350/03 RMK AO2 T00331017
04850KAOH AOH20160411234010904/11/16 23:40:31  5-MIN KAOH 120440Z AUTO 35003KT 10SM CLR 03/M02 A3007 840 70 -300 350/03 RMK AO2 T00331017
04850KAOH AOH20160411234510904/11/16 23:45:31  5-MIN KAOH 120445Z AUTO 34003KT 10SM CLR 03/M02 A3007 840 67 -300 350/03 RMK AO2 T00331022
04850KAOH AOH20160411235012604/11/16 23:50:31  5-MIN KAOH 120450Z AUTO 34003KT 10SM CLR 03/M02 A3007 840 67 -300 340/03 RMK AO2 SLP188 T00331022 401330033
04850KAOH AOH20160411235510904/11/16 23:55:31  5-MIN KAOH 120455Z AUTO 00000KT 10SM CLR 03/M02 A3007 840 67 -300 000/00 RMK AO2 T00331022
04850KAOH AOH20160412000010904/12/16 00:00:31  5-MIN KAOH 120500Z AUTO 00000KT 10SM CLR 03/M02 A3008 830 67 -300 000/00 RMK AO2 T00331022
04850KAOH AOH20160412000510904/12/16 00:05:31  5-MIN KAOH 120505Z AUTO 00000KT 10SM CLR 03/M02 A3008 830 72 -400 000/00 RMK AO2 T00281017
04850KAOH AOH20160412001010904/12/16 00:10:31  5-MIN KAOH 120510Z AUTO 00000KT 10SM CLR 03/M02 A3008 830 67 -300 000/00 RMK AO2 T00331022
04850KAOH AOH20160412001510904/12/16 00:15:31  5-MIN KAOH 120515Z AUTO 00000KT 10SM CLR 03/M02 A3008 830 72 -400 000/00 RMK AO2 T00281017
04850KAOH AOH20160412002010904/12/16 00:20:31  5-MIN KAOH 120520Z AUTO 00000KT 10SM CLR 03/M02 A3008 830 72 -400 000/00 RMK AO2 T00281017
04850KAOH AOH20160412002510904/12/16 00:25:31  5-MIN KAOH 120525Z AUTO 00000KT 10SM CLR 03/M02 A3008 830 72 -400 000/00 RMK AO2 T00281017
04850KAOH AOH20160412003010904/12/16 00:30:31  5-MIN KAOH 120530Z AUTO 00000KT 10SM CLR 03/M02 A3009 820 69 -400 000/00 RMK AO2 T00281022
04850KAOH AOH20160412003510904/12/16 00:35:31  5-MIN KAOH 120535Z AUTO 00000KT 10SM CLR 03/M02 A3009 820 69 -400 000/00 RMK AO2 T00281022
04850KAOH AOH20160412004010904/12/16 00:40:31  5-MIN KAOH 120540Z AUTO 00000KT 10SM CLR 02/M02 A3009 820 78 -500 000/00 RMK AO2 T00171017
04850KAOH AOH20160412004510904/12/16 00:45:31  5-MIN KAOH 120545Z AUTO 00000KT 10SM CLR 02/M02 A3009 820 78 -500 000/00 RMK AO2 T00171017
04850KAOH AOH20160412005013404/12/16 00:50:31  5-MIN KAOH 120550Z AUTO 00000KT 10SM CLR 02/M02 A3009 820 78 -500 000/00 RMK AO2 SLP195 T00171017 10100 20017 53036
04850KAOH AOH20160412005510904/12/16 00:55:31  5-MIN KAOH 120555Z AUTO 26003KT 10SM CLR 02/M02 A3010 810 78 -500 270/03 RMK AO2 T00171017
04850KAOH AOH20160412010010904/12/16 01:00:31  5-MIN KAOH 120600Z AUTO 25003KT 10SM CLR 02/M02 A3010 810 75 -500 250/03 RMK AO2 T00171022
04850KAOH AOH20160412010510904/12/16 01:05:31  5-MIN KAOH 120605Z AUTO 25003KT 10SM CLR 02/M02 A3011 810 75 -500 260/03 RMK AO2 T00171022
04850KAOH AOH20160412011010904/12/16 01:10:31  5-MIN KAOH 120610Z AUTO 28003KT 10SM CLR 02/M02 A3011 800 75 -500 290/03 RMK AO2 T00171022
04850KAOH AOH20160412011510904/12/16 01:15:31  5-MIN KAOH 120615Z AUTO 28004KT 10SM CLR 02/M02 A3011 800 72 -500 290/04 RMK AO2 T00221022
04850KAOH AOH20160412012010904/12/16 01:20:31  5-MIN KAOH 120620Z AUTO 28004KT 10SM CLR 01/M02 A3011 800 82 -600 290/04 RMK AO2 T00111017
04850KAOH AOH20160412012510904/12/16 01:25:31  5-MIN KAOH 120625Z AUTO 29005KT 10SM CLR 02/M02 A3012 800 78 -500 290/05 RMK AO2 T00171017
04850KAOH AOH20160412013010904/12/16 01:30:31  5-MIN KAOH 120630Z AUTO 30005KT 10SM CLR 01/M02 A3012 790 85 -700 300/05 RMK AO2 T00061017
04850KAOH AOH20160412013510904/12/16 01:35:31  5-MIN KAOH 120635Z AUTO 31005KT 10SM CLR 01/M02 A3012 800 85 -700 320/05 RMK AO2 T00061017
04850KAOH AOH20160412014010904/12/16 01:40:31  5-MIN KAOH 120640Z AUTO 32006KT 10SM CLR 01/M02 A3012 790 82 -600 330/06 RMK AO2 T00111017
04850KAOH AOH20160412014510904/12/16 01:45:31  5-MIN KAOH 120645Z AUTO 32007KT 10SM CLR 02/M02 A3012 790 72 -500 330/07 RMK AO2 T00221022
04850KAOH AOH20160412015011604/12/16 01:50:31  5-MIN KAOH 120650Z AUTO 33006KT 10SM CLR 02/M02 A3012 790 75 -500 340/06 RMK AO2 SLP205 T00171022
04850KAOH AOH20160412015510904/12/16 01:55:31  5-MIN KAOH 120655Z AUTO 32005KT 10SM CLR 02/M02 A3013 790 75 -600 330/05 RMK AO2 T00171022
04850KAOH AOH20160412020010904/12/16 02:00:31  5-MIN KAOH 120700Z AUTO 31005KT 10SM CLR 02/M02 A3013 790 75 -600 320/05 RMK AO2 T00171022
04850KAOH AOH20160412020510904/12/16 02:05:31  5-MIN KAOH 120705Z AUTO 32005KT 10SM CLR 02/M02 A3013 790 75 -600 330/05 RMK AO2 T00171022
04850KAOH AOH20160412021010904/12/16 02:10:31  5-MIN KAOH 120710Z AUTO 32005KT 10SM CLR 02/M02 A3013 780 75 -600 320/05 RMK AO2 T00171022
04850KAOH AOH20160412021510904/12/16 02:15:31  5-MIN KAOH 120715Z AUTO 32005KT 10SM CLR 02/M02 A3013 780 75 -600 320/05 RMK AO2 T00171022
04850KAOH AOH20160412022010904/12/16 02:20:31  5-MIN KAOH 120720Z AUTO 32005KT 10SM CLR 02/M02 A3013 780 75 -600 320/05 RMK AO2 T00171022
04850KAOH AOH20160412022510904/12/16 02:25:31  5-MIN KAOH 120725Z AUTO 31006KT 10SM CLR 01/M02 A3013 780 78 -600 320/06 RMK AO2 T00111022
04850KAOH AOH20160412023010904/12/16 02:30:31  5-MIN KAOH 120730Z AUTO 32006KT 10SM CLR 01/M02 A3014 780 78 -600 320/06 RMK AO2 T00111022
04850KAOH AOH20160412023510904/12/16 02:35:31  5-MIN KAOH 120735Z AUTO 32005KT 10SM CLR 01/M03 A3014 780 75 -600 330/05 RMK AO2 T00111028
04850KAOH AOH20160412024010904/12/16 02:40:31  5-MIN KAOH 120740Z AUTO 32006KT 10SM CLR 01/M03 A3014 780 75 -600 330/06 RMK AO2 T00111028
04850KAOH AOH20160412024510904/12/16 02:45:31  5-MIN KAOH 120745Z AUTO 32006KT 10SM CLR 01/M03 A3014 780 75 -600 330/06 RMK AO2 T00111028
04850KAOH AOH20160412025011604/12/16 02:50:31  5-MIN KAOH 120750Z AUTO 32006KT 10SM CLR 01/M03 A3014 770 75 -600 330/06 RMK AO2 SLP213 T00111028
04850KAOH AOH20160412025510904/12/16 02:55:31  5-MIN KAOH 120755Z AUTO 32007KT 10SM CLR 01/M03 A3014 770 75 -600 330/07 RMK AO2 T00111028
04850KAOH AOH20160412030010904/12/16 03:00:31  5-MIN KAOH 120800Z AUTO 32006KT 10SM CLR 01/M03 A3014 770 75 -600 330/06 RMK AO2 T00111028
04850KAOH AOH20160412030510904/12/16 03:05:31  5-MIN KAOH 120805Z AUTO 32006KT 10SM CLR 01/M03 A3014 770 75 -600 330/06 RMK AO2 T00111028
04850KAOH AOH20160412031010904/12/16 03:10:31  5-MIN KAOH 120810Z AUTO 32007KT 10SM CLR 01/M03 A3014 770 75 -600 320/07 RMK AO2 T00111028
04850KAOH AOH20160412031510904/12/16 03:15:31  5-MIN KAOH 120815Z AUTO 32007KT 10SM CLR 01/M03 A3014 770 75 -600 330/07 RMK AO2 T00111028
04850KAOH AOH20160412032010904/12/16 03:20:31  5-MIN KAOH 120820Z AUTO 32006KT 10SM CLR 01/M03 A3015 770 75 -600 330/06 RMK AO2 T00111028
04850KAOH AOH20160412032510904/12/16 03:25:31  5-MIN KAOH 120825Z AUTO 33008KT 10SM CLR 01/M03 A3015 770 72 -700 340/08 RMK AO2 T00111033
04850KAOH AOH20160412033010904/12/16 03:30:31  5-MIN KAOH 120830Z AUTO 33007KT 10SM CLR 01/M03 A3015 760 72 -700 340/07 RMK AO2 T00111033
04850KAOH AOH20160412033510904/12/16 03:35:31  5-MIN KAOH 120835Z AUTO 32007KT 10SM CLR 01/M03 A3016 760 72 -700 330/07 RMK AO2 T00111033
04850KAOH AOH20160412034010904/12/16 03:40:31  5-MIN KAOH 120840Z AUTO 32006KT 10SM CLR 01/M03 A3016 760 72 -700 330/06 RMK AO2 T00111033
04850KAOH AOH20160412034510904/12/16 03:45:31  5-MIN KAOH 120845Z AUTO 32007KT 10SM CLR 01/M03 A3016 760 75 -700 330/07 RMK AO2 T00111028
04850KAOH AOH20160412035012204/12/16 03:50:31  5-MIN KAOH 120850Z AUTO 32006KT 10SM CLR 01/M03 A3016 750 72 -700 330/06 RMK AO2 SLP220 T00111033 53020
04850KAOH AOH20160412035510904/12/16 03:55:31  5-MIN KAOH 120855Z AUTO 31006KT 10SM CLR 01/M03 A3016 750 75 -700 320/06 RMK AO2 T00061033
04850KAOH AOH20160412040010904/12/16 04:00:31  5-MIN KAOH 120900Z AUTO 32007KT 10SM CLR 01/M03 A3016 750 75 -700 320/07 RMK AO2 T00061033
04850KAOH AOH20160412040510904/12/16 04:05:31  5-MIN KAOH 120905Z AUTO 32007KT 10SM CLR 01/M03 A3016 750 75 -700 320/07 RMK AO2 T00061033
04850KAOH AOH20160412041010904/12/16 04:10:31  5-MIN KAOH 120910Z AUTO 32007KT 10SM CLR 01/M03 A3016 750 72 -700 320/07 RMK AO2 T00111033
04850KAOH AOH20160412041510904/12/16 04:15:31  5-MIN KAOH 120915Z AUTO 32007KT 10SM CLR 01/M03 A3017 750 72 -700 330/07 RMK AO2 T00111033
04850KAOH AOH20160412042010904/12/16 04:20:31  5-MIN KAOH 120920Z AUTO 32007KT 10SM CLR 01/M03 A3017 750 75 -700 330/07 RMK AO2 T00061033
04850KAOH AOH20160412042510904/12/16 04:25:31  5-MIN KAOH 120925Z AUTO 32007KT 10SM CLR 01/M04 A3017 750 72 -700 330/07 RMK AO2 T00061039
04850KAOH AOH20160412043010904/12/16 04:30:31  5-MIN KAOH 120930Z AUTO 32007KT 10SM CLR 01/M04 A3017 750 72 -700 320/07 RMK AO2 T00061039
04850KAOH AOH20160412043510904/12/16 04:35:31  5-MIN KAOH 120935Z AUTO 31006KT 10SM CLR 01/M04 A3017 750 72 -700 320/06 RMK AO2 T00061039
04850KAOH AOH20160412044010904/12/16 04:40:31  5-MIN KAOH 120940Z AUTO 31007KT 10SM CLR 01/M03 A3017 750 75 -700 320/07 RMK AO2 T00061033
04850KAOH AOH20160412044510904/12/16 04:45:31  5-MIN KAOH 120945Z AUTO 31006KT 10SM CLR 01/M03 A3017 750 75 -700 320/06 RMK AO2 T00061033
04850KAOH AOH20160412045011604/12/16 04:50:31  5-MIN KAOH 120950Z AUTO 30005KT 10SM CLR 01/M03 A3017 740 75 -700 310/05 RMK AO2 SLP224 T00061033
04850KAOH AOH20160412045510904/12/16 04:55:31  5-MIN KAOH 120955Z AUTO 32006KT 10SM CLR 01/M03 A3018 740 75 -700 320/06 RMK AO2 T00061033
04850KAOH AOH20160412050010904/12/16 05:00:31  5-MIN KAOH 121000Z AUTO 32007KT 10SM CLR 01/M03 A3018 740 75 -800 330/07 RMK AO2 T00061033
04850KAOH AOH20160412050510904/12/16 05:05:31  5-MIN KAOH 121005Z AUTO 33007KT 10SM CLR 01/M04 A3018 740 72 -800 330/07 RMK AO2 T00061039
04850KAOH AOH20160412051010904/12/16 05:10:31  5-MIN KAOH 121010Z AUTO 33009KT 10SM CLR 01/M04 A3018 740 72 -800 330/09 RMK AO2 T00061039
04850KAOH AOH20160412051510904/12/16 05:15:31  5-MIN KAOH 121015Z AUTO 33010KT 10SM CLR 01/M04 A3018 740 69 -700 330/10 RMK AO2 T00111039
04850KAOH AOH20160412052010904/12/16 05:20:31  5-MIN KAOH 121020Z AUTO 33010KT 10SM CLR 01/M04 A3018 730 72 -800 340/10 RMK AO2 T00061039
04850KAOH AOH20160412052510904/12/16 05:25:31  5-MIN KAOH 121025Z AUTO 33010KT 10SM CLR 01/M04 A3019 730 72 -800 340/10 RMK AO2 T00061039
04850KAOH AOH20160412053010904/12/16 05:30:31  5-MIN KAOH 121030Z AUTO 33009KT 10SM CLR 01/M04 A3019 730 72 -800 340/09 RMK AO2 T00061039
04850KAOH AOH20160412053510904/12/16 05:35:31  5-MIN KAOH 121035Z AUTO 33010KT 10SM CLR 01/M04 A3019 730 72 -800 340/10 RMK AO2 T00061039
04850KAOH AOH20160412054010904/12/16 05:40:31  5-MIN KAOH 121040Z AUTO 33009KT 10SM CLR 01/M04 A3020 720 72 -800 330/09 RMK AO2 T00061039
04850KAOH AOH20160412054510904/12/16 05:45:31  5-MIN KAOH 121045Z AUTO 33009KT 10SM CLR 01/M04 A3020 720 72 -800 330/09 RMK AO2 T00061039
04850KAOH AOH20160412055011604/12/16 05:50:31  5-MIN KAOH 121050Z AUTO 33008KT 10SM CLR 01/M04 A3020 720 72 -800 330/08 RMK AO2 SLP233 T00061039
04850KAOH AOH20160412055510904/12/16 05:55:31  5-MIN KAOH 121055Z AUTO 32007KT 10SM CLR 01/M04 A3021 710 72 -800 330/07 RMK AO2 T00061039
04850KAOH AOH20160412060010904/12/16 06:00:31  5-MIN KAOH 121100Z AUTO 32007KT 10SM CLR 01/M04 A3021 710 72 -800 320/07 RMK AO2 T00061039
04850KAOH AOH20160412060510904/12/16 06:05:31  5-MIN KAOH 121105Z AUTO 32007KT 10SM CLR 01/M04 A3021 710 72 -800 330/07 RMK AO2 T00061039
04850KAOH AOH20160412061010904/12/16 06:10:31  5-MIN KAOH 121110Z AUTO 31006KT 10SM CLR 01/M04 A3021 710 72 -800 320/06 RMK AO2 T00061039
04850KAOH AOH20160412061510904/12/16 06:15:31  5-MIN KAOH 121115Z AUTO 32008KT 10SM CLR 01/M04 A3021 710 72 -800 320/08 RMK AO2 T00061039
04850KAOH AOH20160412062010904/12/16 06:20:31  5-MIN KAOH 121120Z AUTO 32007KT 10SM CLR 01/M04 A3022 700 72 -800 320/07 RMK AO2 T00061039
04850KAOH AOH20160412062510904/12/16 06:25:31  5-MIN KAOH 121125Z AUTO 32007KT 10SM CLR 01/M04 A3022 700 72 -800 320/07 RMK AO2 T00061039
04850KAOH AOH20160412063010904/12/16 06:30:31  5-MIN KAOH 121130Z AUTO 31007KT 10SM CLR 01/M04 A3023 700 72 -800 320/07 RMK AO2 T00061039
04850KAOH AOH20160412063510904/12/16 06:35:31  5-MIN KAOH 121135Z AUTO 31007KT 10SM CLR 01/M04 A3023 690 72 -800 320/07 RMK AO2 T00061039
04850KAOH AOH20160412064010904/12/16 06:40:31  5-MIN KAOH 121140Z AUTO 32008KT 10SM CLR 01/M04 A3023 690 72 -800 320/08 RMK AO2 T00061039
04850KAOH AOH20160412064510904/12/16 06:45:31  5-MIN KAOH 121145Z AUTO 31007KT 10SM CLR 01/M04 A3023 690 72 -800 320/07 RMK AO2 T00061039
04850KAOH AOH20160412065014004/12/16 06:50:31  5-MIN KAOH 121150Z AUTO 31007KT 10SM CLR 01/M04 A3024 690 72 -800 320/07 RMK AO2 SLP245 70025 T00061039 10022 20006 51022
04850KAOH AOH20160412065510904/12/16 06:55:31  5-MIN KAOH 121155Z AUTO 31008KT 10SM CLR 01/M04 A3024 690 72 -800 320/08 RMK AO2 T00061039
04850KAOH AOH20160412070010904/12/16 07:00:31  5-MIN KAOH 121200Z AUTO 32008KT 10SM CLR 01/M04 A3024 680 72 -800 320/08 RMK AO2 T00061039
04850KAOH AOH20160412070510904/12/16 07:05:31  5-MIN KAOH 121205Z AUTO 32007KT 10SM CLR 01/M03 A3024 680 75 -800 330/07 RMK AO2 T00061033
04850KAOH AOH20160412071010904/12/16 07:10:31  5-MIN KAOH 121210Z AUTO 32010KT 10SM CLR 01/M03 A3025 680 72 -800 330/10 RMK AO2 T00111033
04850KAOH AOH20160412071510904/12/16 07:15:31  5-MIN KAOH 121215Z AUTO 32009KT 10SM CLR 01/M03 A3025 670 72 -800 330/09 RMK AO2 T00111033
04850KAOH AOH20160412072010904/12/16 07:20:31  5-MIN KAOH 121220Z AUTO 33009KT 10SM CLR 01/M03 A3025 670 72 -800 330/09 RMK AO2 T00111033
04850KAOH AOH20160412072510904/12/16 07:25:31  5-MIN KAOH 121225Z AUTO 33008KT 10SM CLR 01/M03 A3025 670 72 -800 330/08 RMK AO2 T00111033
04850KAOH AOH20160412073010904/12/16 07:30:31  5-MIN KAOH 121230Z AUTO 32007KT 10SM CLR 01/M03 A3026 670 72 -800 330/07 RMK AO2 T00111033
04850KAOH AOH20160412073510904/12/16 07:35:31  5-MIN KAOH 121235Z AUTO 32007KT 10SM CLR 02/M03 A3026 660 69 -700 330/07 RMK AO2 T00171033
04850KAOH AOH20160412074010904/12/16 07:40:31  5-MIN KAOH 121240Z AUTO 32008KT 10SM CLR 02/M03 A3026 660 69 -700 330/08 RMK AO2 T00171033
04850KAOH AOH20160412074510904/12/16 07:45:31  5-MIN KAOH 121245Z AUTO 32009KT 10SM CLR 02/M03 A3027 660 69 -700 330/09 RMK AO2 T00171033
04850KAOH AOH20160412075011604/12/16 07:50:31  5-MIN KAOH 121250Z AUTO 31009KT 10SM CLR 02/M03 A3027 660 69 -700 320/09 RMK AO2 SLP257 T00171033
04850KAOH AOH20160412075510904/12/16 07:55:31  5-MIN KAOH 121255Z AUTO 31009KT 10SM CLR 02/M03 A3027 650 72 -700 320/09 RMK AO2 T00171028
04850KAOH AOH20160412080010904/12/16 08:00:31  5-MIN KAOH 121300Z AUTO 32009KT 10SM CLR 02/M03 A3027 650 67 -700 330/09 RMK AO2 T00221033
04850KAOH AOH20160412080510904/12/16 08:05:31  5-MIN KAOH 121305Z AUTO 31010KT 10SM CLR 02/M03 A3027 650 69 -700 320/10 RMK AO2 T00221028
04850KAOH AOH20160412081010904/12/16 08:10:31  5-MIN KAOH 121310Z AUTO 32010KT 10SM CLR 02/M03 A3027 650 67 -700 330/10 RMK AO2 T00221033
04850KAOH AOH20160412081510904/12/16 08:15:31  5-MIN KAOH 121315Z AUTO 32011KT 10SM CLR 02/M03 A3027 650 67 -700 320/11 RMK AO2 T00221033
04850KAOH AOH20160412082010904/12/16 08:20:31  5-MIN KAOH 121320Z AUTO 33007KT 10SM CLR 03/M03 A3027 650 67 -600 340/07 RMK AO2 T00281028
04850KAOH AOH20160412082511504/12/16 08:25:31  5-MIN KAOH 121325Z AUTO 32010G15KT 10SM CLR 03/M03 A3028 650 64 -600 330/10G15 RMK AO2 T00281033
04850KAOH AOH20160412083011504/12/16 08:30:31  5-MIN KAOH 121330Z AUTO 33010G16KT 10SM CLR 03/M03 A3028 650 64 -600 340/10G16 RMK AO2 T00281033
04850KAOH AOH20160412083510904/12/16 08:35:31  5-MIN KAOH 121335Z AUTO 33011KT 10SM CLR 03/M03 A3028 650 64 -600 330/11 RMK AO2 T00281033
04850KAOH AOH20160412084010904/12/16 08:40:31  5-MIN KAOH 121340Z AUTO 33011KT 10SM CLR 03/M03 A3028 650 64 -600 330/11 RMK AO2 T00281033
04850KAOH AOH20160412084510904/12/16 08:45:31  5-MIN KAOH 121345Z AUTO 34010KT 10SM CLR 03/M03 A3028 640 64 -500 340/10 RMK AO2 T00331028
04850KAOH AOH20160412085011604/12/16 08:50:31  5-MIN KAOH 121350Z AUTO 34011KT 10SM CLR 03/M03 A3029 640 61 -500 350/11 RMK AO2 SLP262 T00331033
04850KAOH AOH20160412085510904/12/16 08:55:31  5-MIN KAOH 121355Z AUTO 34011KT 10SM CLR 03/M03 A3029 640 61 -500 350/11 RMK AO2 T00331033
04850KAOH AOH20160412090010904/12/16 09:00:31  5-MIN KAOH 121400Z AUTO 34009KT 10SM CLR 03/M03 A3029 640 64 -500 340/09 RMK AO2 T00331028
04850KAOH AOH20160412090510904/12/16 09:05:31  5-MIN KAOH 121405Z AUTO 34010KT 10SM CLR 03/M03 A3029 640 61 -500 350/10 RMK AO2 T00331033
04850KAOH AOH20160412091010904/12/16 09:10:31  5-MIN KAOH 121410Z AUTO 36010KT 10SM CLR 03/M03 A3029 630 61 -500 360/10 RMK AO2 T00331033
04850KAOH AOH20160412091510904/12/16 09:15:31  5-MIN KAOH 121415Z AUTO 35011KT 10SM CLR 04/M02 A3030 630 64 -500 360/11 RMK AO2 T00391022
04850KAOH AOH20160412092010904/12/16 09:20:31  5-MIN KAOH 121420Z AUTO 35009KT 10SM CLR 04/M02 A3030 630 64 -500 360/09 RMK AO2 T00391022
04850KAOH AOH20160412092510904/12/16 09:25:31  5-MIN KAOH 121425Z AUTO 34010KT 10SM CLR 04/M03 A3030 630 62 -500 340/10 RMK AO2 T00391028
04850KAOH AOH20160412093010904/12/16 09:30:31  5-MIN KAOH 121430Z AUTO 33010KT 10SM CLR 04/M03 A3030 630 59 -400 330/10 RMK AO2 T00441028
04850KAOH AOH20160412093510904/12/16 09:35:31  5-MIN KAOH 121435Z AUTO 34011KT 10SM CLR 04/M04 A3030 630 55 -400 350/11 RMK AO2 T00441039
04850KAOH AOH20160412094010904/12/16 09:40:31  5-MIN KAOH 121440Z AUTO 35011KT 10SM CLR 04/M04 A3030 630 55 -400 360/11 RMK AO2 T00441039
04850KAOH AOH20160412094510904/12/16 09:45:31  5-MIN KAOH 121445Z AUTO 32012KT 10SM CLR 04/M03 A3030 630 57 -400 330/12 RMK AO2 T00441033
04850KAOH AOH20160412095012204/12/16 09:50:31  5-MIN KAOH 121450Z AUTO 34010KT 10SM CLR 04/M04 A3030 630 57 -500 350/10 RMK AO2 SLP267 T00391039 53025
04850KAOH AOH20160412095511204/12/16 09:55:31  5-MIN KAOH 121455Z AUTO 34008KT 10SM FEW041 04/M04 A3031 620 55 -400 340/08 RMK AO2 T00441039
04850KAOH AOH20160412100011804/12/16 10:00:31  5-MIN KAOH 121500Z AUTO 36009G15KT 10SM FEW041 05/M02 A3031 620 59 -300 360/09G15 RMK AO2 T00501022
04850KAOH AOH20160412100511804/12/16 10:05:31  5-MIN KAOH 121505Z AUTO 31007G15KT 10SM FEW040 05/M02 A3031 620 59 -400 310/07G15 RMK AO2 T00501022
04850KAOH AOH20160412101011804/12/16 10:10:31  5-MIN KAOH 121510Z AUTO 35011G16KT 10SM FEW040 05/M03 A3031 620 57 -400 350/11G16 RMK AO2 T00501028
04850KAOH AOH20160412101511204/12/16 10:15:31  5-MIN KAOH 121515Z AUTO 31012KT 10SM FEW040 06/M02 A3031 620 57 -300 320/12 RMK AO2 T00561022
04850KAOH AOH20160412102010904/12/16 10:20:31  5-MIN KAOH 121520Z AUTO 34009KT 10SM CLR 05/M04 A3031 620 52 -400 340/09 RMK AO2 T00501039
04850KAOH AOH20160412102510904/12/16 10:25:31  5-MIN KAOH 121525Z AUTO 32010KT 10SM CLR 05/M03 A3031 620 57 -400 330/10 RMK AO2 T00501028
04850KAOH AOH20160412103010904/12/16 10:30:31  5-MIN KAOH 121530Z AUTO 31008KT 10SM CLR 05/M03 A3031 620 55 -400 320/08 RMK AO2 T00501033
04850KAOH AOH20160412103510904/12/16 10:35:31  5-MIN KAOH 121535Z AUTO 35015KT 10SM CLR 05/M03 A3031 620 55 -400 360/15 RMK AO2 T00501033
04850KAOH AOH20160412104010904/12/16 10:40:31  5-MIN KAOH 121540Z AUTO 35010KT 10SM CLR 05/M03 A3032 610 55 -400 350/10 RMK AO2 T00501033
04850KAOH AOH20160412104511504/12/16 10:45:31  5-MIN KAOH 121545Z AUTO 32015G20KT 10SM CLR 06/M02 A3032 610 57 -300 330/15G20 RMK AO2 T00561022
04850KAOH AOH20160412105012204/12/16 10:50:31  5-MIN KAOH 121550Z AUTO 31012G20KT 10SM CLR 05/M03 A3032 610 57 -400 320/12G20 RMK AO2 SLP274 T00501028
04850KAOH AOH20160412105510904/12/16 10:55:31  5-MIN KAOH 121555Z AUTO 33012KT 10SM CLR 06/M03 A3032 610 55 -300 340/12 RMK AO2 T00561028
04850KAOH AOH20160412110010904/12/16 11:00:31  5-MIN KAOH 121600Z AUTO 36010KT 10SM CLR 06/M03 A3032 610 55 -300 010/10 RMK AO2 T00561028
04850KAOH AOH20160412110510904/12/16 11:05:31  5-MIN KAOH 121605Z AUTO 32012KT 10SM CLR 06/M02 A3032 610 57 -300 330/12 RMK AO2 T00561022
04850KAOH AOH20160412111010904/12/16 11:10:31  5-MIN KAOH 121610Z AUTO 31011KT 10SM CLR 06/M03 A3032 610 55 -300 320/11 RMK AO2 T00561028
04850KAOH AOH20160412111510904/12/16 11:15:31  5-MIN KAOH 121615Z AUTO 31011KT 10SM CLR 06/M02 A3032 610 59 -300 320/11 RMK AO2 T00561017
04850KAOH AOH20160412112010904/12/16 11:20:31  5-MIN KAOH 121620Z AUTO 34010KT 10SM CLR 06/M03 A3032 610 55 -300 350/10 RMK AO2 T00561028
04850KAOH AOH20160412112510904/12/16 11:25:31  5-MIN KAOH 121625Z AUTO 32008KT 10SM CLR 06/M03 A3032 610 55 -300 320/08 RMK AO2 T00561028
04850KAOH AOH20160412113010904/12/16 11:30:31  5-MIN KAOH 121630Z AUTO 30010KT 10SM CLR 06/M02 A3032 610 57 -200 310/10 RMK AO2 T00611017
04850KAOH AOH20160412113511204/12/16 11:35:31  5-MIN KAOH 121635Z AUTO 30011KT 10SM FEW043 06/M02 A3032 610 57 -200 310/11 RMK AO2 T00611017
04850KAOH AOH20160412114011804/12/16 11:40:31  5-MIN KAOH 121640Z AUTO 34013G18KT 10SM FEW043 07/M01 A3032 610 57 -200 350/13G18 RMK AO2 T00671011
04850KAOH AOH20160412114511804/12/16 11:45:31  5-MIN KAOH 121645Z AUTO 34009G18KT 10SM FEW043 06/M02 A3032 610 55 -200 340/09G18 RMK AO2 T00611022
04850KAOH AOH20160412115012204/12/16 11:50:31  5-MIN KAOH 121650Z AUTO 33008G15KT 10SM CLR 06/M03 A3032 610 55 -300 340/08G15 RMK AO2 SLP274 T00561028
04850KAOH AOH20160412115511504/12/16 11:55:31  5-MIN KAOH 121655Z AUTO 32010G15KT 10SM CLR 06/M02 A3032 610 55 -200 320/10G15 RMK AO2 T00611022
04850KAOH AOH20160412120010904/12/16 12:00:31  5-MIN KAOH 121700Z AUTO 36010KT 10SM CLR 07/M01 A3032 610 57 -200 010/10 RMK AO2 T00671011
04850KAOH AOH20160412120510904/12/16 12:05:31  5-MIN KAOH 121705Z AUTO 33012KT 10SM CLR 07/M02 A3032 610 55 -200 330/12 RMK AO2 T00671017
04850KAOH AOH20160412121010904/12/16 12:10:31  5-MIN KAOH 121710Z AUTO 33012KT 10SM CLR 07/M02 A3032 610 53 -200 330/12 RMK AO2 T00671022
04850KAOH AOH20160412121513104/12/16 12:15:31  5-MIN KAOH 121715Z AUTO 31012G17KT 280V350 10SM CLR 07/M02 A3032 610 55 -200 320/12G17 290V360 RMK AO2 T00671017
04850KAOH AOH20160412122010904/12/16 12:20:31  5-MIN KAOH 121720Z AUTO 35011KT 10SM CLR 07/M01 A3032 610 57 -200 350/11 RMK AO2 T00671011
04850KAOH AOH20160412122510904/12/16 12:25:31  5-MIN KAOH 121725Z AUTO 35009KT 10SM CLR 07/M01 A3032 610 55 -100 350/09 RMK AO2 T00721011
04850KAOH AOH20160412123011504/12/16 12:30:31  5-MIN KAOH 121730Z AUTO 33012G18KT 10SM CLR 07/M01 A3032 610 57 -200 330/12G18 RMK AO2 T00671011
04850KAOH AOH20160412123511504/12/16 12:35:31  5-MIN KAOH 121735Z AUTO 31010G18KT 10SM CLR 07/M02 A3032 610 55 -200 320/10G18 RMK AO2 T00671017
04850KAOH AOH20160412124011204/12/16 12:40:31  5-MIN KAOH 121740Z AUTO 31008KT 10SM FEW041 07/M02 A3031 610 55 -200 310/08 RMK AO2 T00671017
04850KAOH AOH20160412124511804/12/16 12:45:31  5-MIN KAOH 121745Z AUTO 33011G15KT 10SM FEW041 07/M01 A3031 610 57 -100 340/11G15 RMK AO2 T00721006
04850KAOH AOH20160412125014304/12/16 12:50:31  5-MIN KAOH 121750Z AUTO 34011G15KT 10SM FEW041 07/M01 A3031 610 57 -200 340/11G15 RMK AO2 SLP273 T00671011 10072 20006 51022
04850KAOH AOH20160412125511804/12/16 12:55:31  5-MIN KAOH 121755Z AUTO 34007G15KT 10SM FEW041 07/M02 A3031 620 55 -200 350/07G15 RMK AO2 T00671017
04850KAOH AOH20160412130011804/12/16 13:00:31  5-MIN KAOH 121800Z AUTO 35012G16KT 10SM FEW041 07/M01 A3031 620 55 -100 360/12G16 RMK AO2 T00721011
04850KAOH AOH20160412130511804/12/16 13:05:31  5-MIN KAOH 121805Z AUTO VRB06G16KT 10SM FEW041 07/M01 A3031 610 55 -100 VRB/06G16 RMK AO2 T00721011
04850KAOH AOH20160412131011804/12/16 13:10:31  5-MIN KAOH 121810Z AUTO 34010G15KT 10SM FEW041 07/M01 A3031 610 55 -100 340/10G15 RMK AO2 T00721011
04850KAOH AOH20160412131511504/12/16 13:15:31  5-MIN KAOH 121815Z AUTO 32007G15KT 10SM CLR 07/M02 A3032 610 53 -100 320/07G15 RMK AO2 T00721017
04850KAOH AOH20160412132011204/12/16 13:20:31  5-MIN KAOH 121820Z AUTO 32010G18KT 10SM CLR 08/M01 A3032 610 53 0 320/10G18 RMK AO2 T00781011
04850KAOH AOH20160412132511504/12/16 13:25:31  5-MIN KAOH 121825Z AUTO 32009G18KT 10SM CLR 07/M02 A3032 610 53 -100 330/09G18 RMK AO2 T00721017
04850KAOH AOH20160412133011204/12/16 13:30:31  5-MIN KAOH 121830Z AUTO 33009G18KT 10SM CLR 08/M01 A3031 610 55 0 340/09G18 RMK AO2 T00781006
04850KAOH AOH20160412133511204/12/16 13:35:31  5-MIN KAOH 121835Z AUTO 33010G14KT 10SM CLR 08/M01 A3031 620 53 0 340/10G14 RMK AO2 T00781011
04850KAOH AOH20160412134010604/12/16 13:40:31  5-MIN KAOH 121840Z AUTO 33008KT 10SM CLR 08/M01 A3031 620 53 0 340/08 RMK AO2 T00781011
04850KAOH AOH20160412134510604/12/16 13:45:31  5-MIN KAOH 121845Z AUTO VRB06KT 10SM CLR 08/M01 A3032 610 53 0 VRB/06 RMK AO2 T00781011
04850KAOH AOH20160412135011304/12/16 13:50:31  5-MIN KAOH 121850Z AUTO 35010KT 10SM CLR 08/M01 A3031 610 53 0 360/10 RMK AO2 SLP272 T00831006
04850KAOH AOH20160412135510904/12/16 13:55:31  5-MIN KAOH 121855Z AUTO 33006KT 10SM FEW046 08/M02 A3031 610 49 0 340/06 RMK AO2 T00781022
04850KAOH AOH20160412140011604/12/16 14:00:31  5-MIN KAOH 121900Z AUTO 34010G18KT 10SM SCT046 09/00 A3031 610 53 100 350/10G18 RMK AO2 T00890000
04850KAOH AOH20160412140511504/12/16 14:05:31  5-MIN KAOH 121905Z AUTO 35008G18KT 10SM FEW046 08/M01 A3031 610 53 0 350/08G18 RMK AO2 T00831006
04850KAOH AOH20160412141011204/12/16 14:10:31  5-MIN KAOH 121910Z AUTO 36004KT 10SM SCT046 07/M02 A3032 610 51 -100 360/04 RMK AO2 T00721022
04850KAOH AOH20160412141510904/12/16 14:15:31  5-MIN KAOH 121915Z AUTO 36009KT 10SM SCT046 08/M02 A3031 610 49 0 360/09 RMK AO2 T00831017
04850KAOH AOH20160412142010904/12/16 14:20:31  5-MIN KAOH 121920Z AUTO 36006KT 10SM SCT046 08/M01 A3031 620 51 0 010/06 RMK AO2 T00831011
04850KAOH AOH20160412142510904/12/16 14:25:31  5-MIN KAOH 121925Z AUTO 30004KT 10SM SCT046 08/M02 A3031 620 49 0 300/04 RMK AO2 T00831017
04850KAOH AOH20160412143010904/12/16 14:30:31  5-MIN KAOH 121930Z AUTO 33009KT 10SM SCT046 08/M01 A3031 620 51 0 340/09 RMK AO2 T00831011
04850KAOH AOH20160412143511104/12/16 14:35:31  5-MIN KAOH 121935Z AUTO 35009KT 10SM SCT046 09/M01 A3031 620 51 100 350/09 RMK AO2 T00891006
04850KAOH AOH20160412144011104/12/16 14:40:31  5-MIN KAOH 121940Z AUTO 32007KT 10SM SCT046 09/M01 A3031 620 51 100 330/07 RMK AO2 T00891006
04850KAOH AOH20160412144510904/12/16 14:45:31  5-MIN KAOH 121945Z AUTO 33004KT 10SM SCT046 08/M02 A3031 620 49 0 340/04 RMK AO2 T00831017
04850KAOH AOH20160412145010604/12/16 14:50:31  5-MIN KAOH 121950Z AUTO 10SM SCT047 08/M02 A3031 620 47 0 M /M RMK AO2 SLP270 T00831022
04850KAOH AOH20160412145512704/12/16 14:55:31  5-MIN KAOH 121955Z AUTO 36009KT 320V040 10SM BKN047 09/M01 A3031 620 51 100 360/09 330V050 RMK AO2 T00891006
04850KAOH AOH20160412150012504/12/16 15:00:31  5-MIN KAOH 122000Z AUTO 35008KT 320V030 10SM SCT047 08/M02 A3031 620 49 0 360/08 330V040 RMK AO2 T00831017
04850KAOH AOH20160412150511104/12/16 15:05:31  5-MIN KAOH 122005Z AUTO VRB04KT 10SM BKN047 09/M02 A3031 620 47 100 VRB/04 RMK AO2 T00891017
04850KAOH AOH20160412151011104/12/16 15:10:31  5-MIN KAOH 122010Z AUTO 34008KT 10SM BKN047 09/M01 A3030 630 49 100 340/08 RMK AO2 T00891011
04850KAOH AOH20160412151512504/12/16 15:15:31  5-MIN KAOH 122015Z AUTO 31007KT 290V010 10SM BKN047 08/M02 A3031 620 49 0 320/07 300V020 RMK AO2 T00831017
04850KAOH AOH20160412152010904/12/16 15:20:31  5-MIN KAOH 122020Z AUTO 30007KT 10SM BKN047 08/M01 A3030 620 51 0 310/07 RMK AO2 T00831011
04850KAOH AOH20160412152510904/12/16 15:25:31  5-MIN KAOH 122025Z AUTO 01008KT 10SM SCT047 08/M01 A3031 620 51 0 010/08 RMK AO2 T00831011
04850KAOH AOH20160412153011104/12/16 15:30:31  5-MIN KAOH 122030Z AUTO 03007KT 10SM SCT047 09/M02 A3031 620 47 100 040/07 RMK AO2 T00891017
04850KAOH AOH20160412153511104/12/16 15:35:31  5-MIN KAOH 122035Z AUTO 02006KT 10SM SCT047 09/M01 A3030 620 49 100 030/06 RMK AO2 T00941006
04850KAOH AOH20160412154011104/12/16 15:40:31  5-MIN KAOH 122040Z AUTO 04009KT 10SM SCT049 09/M02 A3030 620 47 100 050/09 RMK AO2 T00891017
04850KAOH AOH20160412154511104/12/16 15:45:31  5-MIN KAOH 122045Z AUTO 36008KT 10SM SCT049 09/M02 A3030 630 47 100 010/08 RMK AO2 T00891017
04850KAOH AOH20160412155012404/12/16 15:50:31  5-MIN KAOH 122050Z AUTO VRB04KT 10SM FEW049 09/M02 A3030 630 47 100 VRB/04 RMK AO2 SLP268 T00891017 50003
04850KAOH AOH20160412155511104/12/16 15:55:31  5-MIN KAOH 122055Z AUTO VRB05KT 10SM FEW050 09/M02 A3030 620 47 100 VRB/05 RMK AO2 T00891017
04850KAOH AOH20160412160011104/12/16 16:00:31  5-MIN KAOH 122100Z AUTO 36007KT 10SM FEW050 09/M01 A3030 620 49 100 010/07 RMK AO2 T00891011
04850KAOH AOH20160412160511104/12/16 16:05:31  5-MIN KAOH 122105Z AUTO 33009KT 10SM FEW050 09/M02 A3030 620 47 100 330/09 RMK AO2 T00891017
04850KAOH AOH20160412161011104/12/16 16:10:31  5-MIN KAOH 122110Z AUTO 30008KT 10SM FEW050 09/M02 A3031 620 47 100 310/08 RMK AO2 T00891017
04850KAOH AOH20160412161511104/12/16 16:15:31  5-MIN KAOH 122115Z AUTO 35009KT 10SM FEW050 09/M02 A3031 620 45 100 360/09 RMK AO2 T00891022
04850KAOH AOH20160412162011104/12/16 16:20:31  5-MIN KAOH 122120Z AUTO 35007KT 10SM FEW050 09/M02 A3030 620 45 100 360/07 RMK AO2 T00891022
04850KAOH AOH20160412162510604/12/16 16:25:31  5-MIN KAOH 122125Z AUTO 33007KT 10SM CLR 08/M02 A3030 620 47 0 340/07 RMK AO2 T00831022
04850KAOH AOH20160412163011204/12/16 16:30:31  5-MIN KAOH 122130Z AUTO VRB06G14KT 10SM CLR 08/M02 A3030 620 49 0 VRB/06G14 RMK AO2 T00831017
04850KAOH AOH20160412163510804/12/16 16:35:31  5-MIN KAOH 122135Z AUTO 36007KT 10SM CLR 09/M02 A3031 620 47 100 360/07 RMK AO2 T00891017
04850KAOH AOH20160412164010804/12/16 16:40:31  5-MIN KAOH 122140Z AUTO 33007KT 10SM CLR 09/M02 A3031 620 45 100 340/07 RMK AO2 T00891022
04850KAOH AOH20160412164510804/12/16 16:45:31  5-MIN KAOH 122145Z AUTO 01010KT 10SM CLR 09/M02 A3031 620 47 100 010/10 RMK AO2 T00891017
04850KAOH AOH20160412165011504/12/16 16:50:31  5-MIN KAOH 122150Z AUTO 01004KT 10SM CLR 09/M03 A3031 620 43 100 010/04 RMK AO2 SLP270 T00891028
04850KAOH AOH20160412165510904/12/16 16:55:31  5-MIN KAOH 122155Z AUTO 00000KT 10SM FEW049 08/M03 A3031 620 45 0 000/00 RMK AO2 T00831028
04850KAOH AOH20160412170011104/12/16 17:00:31  5-MIN KAOH 122200Z AUTO 05006KT 10SM SCT049 09/M02 A3031 620 45 100 050/06 RMK AO2 T00891022
04850KAOH AOH20160412170511704/12/16 17:05:31  5-MIN KAOH 122205Z AUTO 03010G15KT 10SM SCT050 09/M01 A3031 620 49 100 030/10G15 RMK AO2 T00941006
04850KAOH AOH20160412171013304/12/16 17:10:31  5-MIN KAOH 122210Z AUTO 02007G15KT 340V040 10SM BKN050 09/M02 A3031 620 47 100 020/07G15 350V050 RMK AO2 T00891017
04850KAOH AOH20160412171511104/12/16 17:15:31  5-MIN KAOH 122215Z AUTO 03008KT 10SM BKN050 09/M02 A3031 620 47 100 030/08 RMK AO2 T00891017
04850KAOH AOH20160412172010904/12/16 17:20:31  5-MIN KAOH 122220Z AUTO 03008KT 10SM SCT050 08/M02 A3031 620 49 0 030/08 RMK AO2 T00831017
04850KAOH AOH20160412172510904/12/16 17:25:31  5-MIN KAOH 122225Z AUTO 02009KT 10SM FEW050 08/M02 A3031 620 49 0 030/09 RMK AO2 T00831017
04850KAOH AOH20160412173010904/12/16 17:30:31  5-MIN KAOH 122230Z AUTO 35007KT 10SM FEW050 08/M02 A3031 620 49 0 360/07 RMK AO2 T00831017
04850KAOH AOH20160412173510904/12/16 17:35:31  5-MIN KAOH 122235Z AUTO 33006KT 10SM FEW050 08/M03 A3031 620 45 0 330/06 RMK AO2 T00831028
04850KAOH AOH20160412174010604/12/16 17:40:31  5-MIN KAOH 122240Z AUTO 35007KT 10SM CLR 08/M02 A3031 620 47 0 360/07 RMK AO2 T00831022
04850KAOH AOH20160412174510604/12/16 17:45:31  5-MIN KAOH 122245Z AUTO VRB03KT 10SM CLR 08/M02 A3031 620 47 0 VRB/03 RMK AO2 T00831022
04850KAOH AOH20160412175011304/12/16 17:50:31  5-MIN KAOH 122250Z AUTO 02008KT 10SM CLR 08/M02 A3031 620 49 0 030/08 RMK AO2 SLP271 T00831017
04850KAOH AOH20160412175510604/12/16 17:55:31  5-MIN KAOH 122255Z AUTO 03006KT 10SM CLR 08/M02 A3031 620 49 0 040/06 RMK AO2 T00831017
04850KAOH AOH20160412180010604/12/16 18:00:31  5-MIN KAOH 122300Z AUTO 03006KT 10SM CLR 08/M02 A3031 620 47 0 040/06 RMK AO2 T00831022
04850KAOH AOH20160412180510604/12/16 18:05:31  5-MIN KAOH 122305Z AUTO 03004KT 10SM CLR 08/M02 A3031 620 47 0 030/04 RMK AO2 T00831022
04850KAOH AOH20160412181010604/12/16 18:10:31  5-MIN KAOH 122310Z AUTO 36007KT 10SM CLR 08/M02 A3031 620 49 0 010/07 RMK AO2 T00831017
04850KAOH AOH20160412181510604/12/16 18:15:31  5-MIN KAOH 122315Z AUTO 01006KT 10SM CLR 08/M02 A3031 610 49 0 020/06 RMK AO2 T00831017
04850KAOH AOH20160412182010604/12/16 18:20:31  5-MIN KAOH 122320Z AUTO 02005KT 10SM CLR 08/M02 A3032 610 49 0 020/05 RMK AO2 T00781022
04850KAOH AOH20160412182510604/12/16 18:25:31  5-MIN KAOH 122325Z AUTO 02003KT 10SM CLR 08/M03 A3032 610 47 0 020/03 RMK AO2 T00781028
04850KAOH AOH20160413003010904/13/16 00:30:31  5-MIN KAOH 130530Z AUTO 13008KT 10SM CLR 02/M02 A3035 580 72 -700 130/08 RMK AO2 T00221022
04850KAOH AOH20160413003510904/13/16 00:35:31  5-MIN KAOH 130535Z AUTO 13008KT 10SM CLR 02/M02 A3035 580 72 -700 130/08 RMK AO2 T00221022
04850KAOH AOH20160413004010904/13/16 00:40:31  5-MIN KAOH 130540Z AUTO 13008KT 10SM CLR 02/M02 A3035 580 72 -700 130/08 RMK AO2 T00221022
04850KAOH AOH20160413004510904/13/16 00:45:31  5-MIN KAOH 130545Z AUTO 13008KT 10SM CLR 02/M02 A3036 580 75 -800 130/08 RMK AO2 T00171022
04850KAOH AOH20160413005013404/13/16 00:50:31  5-MIN KAOH 130550Z AUTO 13008KT 10SM CLR 02/M02 A3036 580 72 -700 130/08 RMK AO2 SLP287 T00221022 10072 20017 53006
04850KAOH AOH20160413005510904/13/16 00:55:31  5-MIN KAOH 130555Z AUTO 13008KT 10SM CLR 02/M03 A3036 580 72 -800 140/08 RMK AO2 T00171028
04850KAOH AOH20160413010010904/13/16 01:00:31  5-MIN KAOH 130600Z AUTO 13008KT 10SM CLR 02/M03 A3035 580 72 -800 140/08 RMK AO2 T00171028
04850KAOH AOH20160413010510904/13/16 01:05:31  5-MIN KAOH 130605Z AUTO 13008KT 10SM CLR 02/M03 A3035 580 72 -800 140/08 RMK AO2 T00171028
04850KAOH AOH20160413011010904/13/16 01:10:31  5-MIN KAOH 130610Z AUTO 13008KT 10SM CLR 02/M03 A3036 580 72 -800 130/08 RMK AO2 T00171028
04850KAOH AOH20160413011510904/13/16 01:15:31  5-MIN KAOH 130615Z AUTO 13008KT 10SM CLR 02/M03 A3036 570 72 -800 140/08 RMK AO2 T00171028
04850KAOH AOH20160413012010904/13/16 01:20:31  5-MIN KAOH 130620Z AUTO 13008KT 10SM CLR 02/M03 A3036 570 72 -800 140/08 RMK AO2 T00171028
04850KAOH AOH20160413012510904/13/16 01:25:31  5-MIN KAOH 130625Z AUTO 13008KT 10SM CLR 02/M03 A3036 570 72 -800 140/08 RMK AO2 T00171028
04850KAOH AOH20160413013010904/13/16 01:30:31  5-MIN KAOH 130630Z AUTO 14008KT 10SM CLR 02/M03 A3036 570 72 -800 140/08 RMK AO2 T00171028
04850KAOH AOH20160413013510904/13/16 01:35:31  5-MIN KAOH 130635Z AUTO 14007KT 10SM CLR 02/M03 A3036 570 72 -800 140/07 RMK AO2 T00171028
04850KAOH AOH20160413014010904/13/16 01:40:31  5-MIN KAOH 130640Z AUTO 14007KT 10SM CLR 02/M03 A3036 570 72 -800 150/07 RMK AO2 T00171028
04850KAOH AOH20160413014510904/13/16 01:45:31  5-MIN KAOH 130645Z AUTO 14007KT 10SM CLR 01/M03 A3036 570 75 -900 140/07 RMK AO2 T00111028
04850KAOH AOH20160413015011604/13/16 01:50:31  5-MIN KAOH 130650Z AUTO 13008KT 10SM CLR 01/M03 A3036 570 75 -900 140/08 RMK AO2 SLP287 T00111028
04850KAOH AOH20160413015510904/13/16 01:55:31  5-MIN KAOH 130655Z AUTO 13007KT 10SM CLR 01/M03 A3036 570 75 -900 130/07 RMK AO2 T00111028
04850KAOH AOH20160413020010904/13/16 02:00:31  5-MIN KAOH 130700Z AUTO 13008KT 10SM CLR 01/M03 A3036 580 75 -900 140/08 RMK AO2 T00111028
04850KAOH AOH20160413020510904/13/16 02:05:31  5-MIN KAOH 130705Z AUTO 13008KT 10SM CLR 01/M03 A3036 570 75 -900 140/08 RMK AO2 T00111028
04850KAOH AOH20160413021010904/13/16 02:10:31  5-MIN KAOH 130710Z AUTO 14008KT 10SM CLR 01/M03 A3036 570 75 -900 140/08 RMK AO2 T00111028
04850KAOH AOH20160413021510904/13/16 02:15:31  5-MIN KAOH 130715Z AUTO 13007KT 10SM CLR 01/M03 A3036 570 75 -900 140/07 RMK AO2 T00111028
04850KAOH AOH20160413022010904/13/16 02:20:31  5-MIN KAOH 130720Z AUTO 13007KT 10SM CLR 01/M03 A3036 570 75 -900 140/07 RMK AO2 T00111028
04850KAOH AOH20160413022510904/13/16 02:25:31  5-MIN KAOH 130725Z AUTO 13007KT 10SM CLR 01/M03 A3036 570 75 -900 140/07 RMK AO2 T00111028
04850KAOH AOH20160413023010904/13/16 02:30:31  5-MIN KAOH 130730Z AUTO 13007KT 10SM CLR 01/M03 A3036 570 75 -900 140/07 RMK AO2 T00111028
04850KAOH AOH20160413023510904/13/16 02:35:31  5-MIN KAOH 130735Z AUTO 13008KT 10SM CLR 01/M03 A3036 570 75 -900 140/08 RMK AO2 T00111028
04850KAOH AOH20160413024010904/13/16 02:40:31  5-MIN KAOH 130740Z AUTO 13008KT 10SM CLR 01/M03 A3036 570 72 -900 140/08 RMK AO2 T00111033
04850KAOH AOH20160413024510904/13/16 02:45:31  5-MIN KAOH 130745Z AUTO 13008KT 10SM CLR 01/M03 A3036 570 72 -900 140/08 RMK AO2 T00111033
04850KAOH AOH20160413025011604/13/16 02:50:31  5-MIN KAOH 130750Z AUTO 13008KT 10SM CLR 01/M03 A3036 570 72 -900 140/08 RMK AO2 SLP287 T00111033
04850KAOH AOH20160413025510904/13/16 02:55:31  5-MIN KAOH 130755Z AUTO 13008KT 10SM CLR 01/M03 A3036 570 72 -900 130/08 RMK AO2 T00111033
04850KAOH AOH20160413030010904/13/16 03:00:31  5-MIN KAOH 130800Z AUTO 12007KT 10SM CLR 01/M03 A3036 580 72 -900 130/07 RMK AO2 T00111033
04850KAOH AOH20160413030510904/13/16 03:05:31  5-MIN KAOH 130805Z AUTO 13008KT 10SM CLR 01/M03 A3036 570 72 -900 130/08 RMK AO2 T00111033
04850KAOH AOH20160413031010904/13/16 03:10:31  5-MIN KAOH 130810Z AUTO 13008KT 10SM CLR 01/M03 A3036 570 72 -900 140/08 RMK AO2 T00111033
04850KAOH AOH20160413031510904/13/16 03:15:31  5-MIN KAOH 130815Z AUTO 13007KT 10SM CLR 01/M03 A3036 570 72 -900 140/07 RMK AO2 T00111033
04850KAOH AOH20160413032010904/13/16 03:20:31  5-MIN KAOH 130820Z AUTO 14007KT 10SM CLR 01/M03 A3036 570 72 -900 140/07 RMK AO2 T00111033
04850KAOH AOH20160413032511004/13/16 03:25:31  5-MIN KAOH 130825Z AUTO 13007KT 10SM CLR 01/M03 A3036 570 75 -1000 140/07 RMK AO2 T00061033
04850KAOH AOH20160413033011004/13/16 03:30:31  5-MIN KAOH 130830Z AUTO 13007KT 10SM CLR 01/M03 A3036 570 75 -1000 140/07 RMK AO2 T00061033
04850KAOH AOH20160413033511004/13/16 03:35:31  5-MIN KAOH 130835Z AUTO 14007KT 10SM CLR 01/M03 A3036 570 75 -1000 140/07 RMK AO2 T00061033
04850KAOH AOH20160413034011004/13/16 03:40:31  5-MIN KAOH 130840Z AUTO 13007KT 10SM CLR 01/M03 A3037 570 75 -1000 140/07 RMK AO2 T00061033
04850KAOH AOH20160413034511004/13/16 03:45:31  5-MIN KAOH 130845Z AUTO 14006KT 10SM CLR 01/M03 A3037 570 75 -1000 140/06 RMK AO2 T00061033
04850KAOH AOH20160413035012304/13/16 03:50:31  5-MIN KAOH 130850Z AUTO 14006KT 10SM CLR 01/M03 A3036 570 75 -1000 150/06 RMK AO2 SLP289 T00061033 53006
04850KAOH AOH20160413035511004/13/16 03:55:31  5-MIN KAOH 130855Z AUTO 14006KT 10SM CLR 01/M03 A3037 570 75 -1000 150/06 RMK AO2 T00061033
04850KAOH AOH20160413040011004/13/16 04:00:31  5-MIN KAOH 130900Z AUTO 14006KT 10SM CLR 01/M03 A3036 570 75 -1000 150/06 RMK AO2 T00061033
04850KAOH AOH20160413040511004/13/16 04:05:31  5-MIN KAOH 130905Z AUTO 13005KT 10SM CLR 01/M03 A3036 570 75 -1000 130/05 RMK AO2 T00061033
04850KAOH AOH20160413041011004/13/16 04:10:31  5-MIN KAOH 130910Z AUTO 13006KT 10SM CLR 01/M03 A3036 570 75 -1000 130/06 RMK AO2 T00061033
04850KAOH AOH20160413041511004/13/16 04:15:31  5-MIN KAOH 130915Z AUTO 13005KT 10SM CLR 00/M03 A3036 580 78 -1000 130/05 RMK AO2 T00001033
04850KAOH AOH20160413042011004/13/16 04:20:31  5-MIN KAOH 130920Z AUTO 13005KT 10SM CLR 00/M03 A3036 580 78 -1000 130/05 RMK AO2 T00001033
04850KAOH AOH20160413042511004/13/16 04:25:31  5-MIN KAOH 130925Z AUTO 13006KT 10SM CLR 00/M03 A3036 580 78 -1000 130/06 RMK AO2 T00001033
04850KAOH AOH20160413043011004/13/16 04:30:31  5-MIN KAOH 130930Z AUTO 12005KT 10SM CLR 00/M03 A3036 580 78 -1000 130/05 RMK AO2 T00001033
04850KAOH AOH20160413043511004/13/16 04:35:31  5-MIN KAOH 130935Z AUTO 12005KT 10SM CLR 00/M03 A3036 580 78 -1000 130/05 RMK AO2 T00001033
04850KAOH AOH20160413044011004/13/16 04:40:31  5-MIN KAOH 130940Z AUTO 13004KT 10SM CLR 00/M03 A3036 570 78 -1000 130/04 RMK AO2 T00001033
04850KAOH AOH20160413044511104/13/16 04:45:31  5-MIN KAOH 130945Z AUTO 13005KT 10SM CLR M01/M03 A3036 570 81 -1100 130/05 RMK AO2 T10061033
04850KAOH AOH20160413045011804/13/16 04:50:31  5-MIN KAOH 130950Z AUTO 13005KT 10SM CLR M01/M03 A3036 570 81 -1100 130/05 RMK AO2 SLP289 T10061033
04850KAOH AOH20160413045511004/13/16 04:55:31  5-MIN KAOH 130955Z AUTO 11004KT 10SM CLR 00/M03 A3036 570 78 -1000 120/04 RMK AO2 T00001033
04850KAOH AOH20160413050011104/13/16 05:00:31  5-MIN KAOH 131000Z AUTO 11005KT 10SM CLR M01/M03 A3036 570 81 -1100 120/05 RMK AO2 T10061033
04850KAOH AOH20160413050511104/13/16 05:05:31  5-MIN KAOH 131005Z AUTO 11004KT 10SM CLR M01/M03 A3036 570 81 -1100 120/04 RMK AO2 T10061033
04850KAOH AOH20160413051011104/13/16 05:10:31  5-MIN KAOH 131010Z AUTO 11004KT 10SM CLR M01/M03 A3036 570 81 -1100 120/04 RMK AO2 T10061033
04850KAOH AOH20160413051511104/13/16 05:15:31  5-MIN KAOH 131015Z AUTO 10004KT 10SM CLR M01/M03 A3036 570 81 -1100 110/04 RMK AO2 T10061033
04850KAOH AOH20160413052011104/13/16 05:20:31  5-MIN KAOH 131020Z AUTO 11004KT 10SM CLR M01/M03 A3036 570 81 -1100 110/04 RMK AO2 T10061033
04850KAOH AOH20160413052511104/13/16 05:25:31  5-MIN KAOH 131025Z AUTO 12005KT 10SM CLR M01/M03 A3037 570 81 -1100 130/05 RMK AO2 T10061033
04850KAOH AOH20160413053011004/13/16 05:30:31  5-MIN KAOH 131030Z AUTO 13007KT 10SM CLR 00/M03 A3037 570 78 -1000 130/07 RMK AO2 T00001033
04850KAOH AOH20160413053511004/13/16 05:35:31  5-MIN KAOH 131035Z AUTO 13007KT 10SM CLR 01/M03 A3037 570 75 -1000 140/07 RMK AO2 T00061033
04850KAOH AOH20160413054011004/13/16 05:40:31  5-MIN KAOH 131040Z AUTO 13007KT 10SM CLR 00/M03 A3037 570 78 -1000 140/07 RMK AO2 T00001033
04850KAOH AOH20160413054511004/13/16 05:45:31  5-MIN KAOH 131045Z AUTO 13008KT 10SM CLR 00/M03 A3037 570 78 -1000 130/08 RMK AO2 T00001033
04850KAOH AOH20160413055011704/13/16 05:50:31  5-MIN KAOH 131050Z AUTO 13008KT 10SM CLR 00/M03 A3037 560 78 -1000 140/08 RMK AO2 SLP292 T00001033
04850KAOH AOH20160413055511004/13/16 05:55:31  5-MIN KAOH 131055Z AUTO 13008KT 10SM CLR 00/M03 A3037 560 78 -1000 130/08 RMK AO2 T00001033
04850KAOH AOH20160413060011004/13/16 06:00:31  5-MIN KAOH 131100Z AUTO 12008KT 10SM CLR 00/M03 A3037 560 78 -1000 130/08 RMK AO2 T00001033
04850KAOH AOH20160413060511004/13/16 06:05:31  5-MIN KAOH 131105Z AUTO 12008KT 10SM CLR 01/M03 A3037 560 75 -1000 130/08 RMK AO2 T00061033
04850KAOH AOH20160413061011004/13/16 06:10:31  5-MIN KAOH 131110Z AUTO 12008KT 10SM CLR 01/M03 A3037 560 75 -1000 120/08 RMK AO2 T00061033
04850KAOH AOH20160413061511004/13/16 06:15:31  5-MIN KAOH 131115Z AUTO 12007KT 10SM CLR 01/M03 A3037 560 75 -1000 120/07 RMK AO2 T00061033
04850KAOH AOH20160413062011004/13/16 06:20:31  5-MIN KAOH 131120Z AUTO 11006KT 10SM CLR 01/M03 A3037 560 75 -1000 120/06 RMK AO2 T00061033
04850KAOH AOH20160413062511004/13/16 06:25:31  5-MIN KAOH 131125Z AUTO 11006KT 10SM CLR 00/M03 A3037 560 81 -1000 120/06 RMK AO2 T00001028
04850KAOH AOH20160413063011004/13/16 06:30:31  5-MIN KAOH 131130Z AUTO 11007KT 10SM CLR 00/M03 A3037 560 81 -1000 120/07 RMK AO2 T00001028
04850KAOH AOH20160413063511004/13/16 06:35:31  5-MIN KAOH 131135Z AUTO 10006KT 10SM CLR 01/M03 A3037 570 78 -1000 110/06 RMK AO2 T00061028
04850KAOH AOH20160413064011004/13/16 06:40:31  5-MIN KAOH 131140Z AUTO 11006KT 10SM CLR 01/M03 A3037 560 78 -1000 110/06 RMK AO2 T00061028
04850KAOH AOH20160413064511004/13/16 06:45:31  5-MIN KAOH 131145Z AUTO 11007KT 10SM CLR 01/M03 A3037 570 78 -1000 110/07 RMK AO2 T00061028
04850KAOH AOH20160413065013504/13/16 06:50:31  5-MIN KAOH 131150Z AUTO 10006KT 10SM CLR 01/M03 A3037 570 78 -1000 110/06 RMK AO2 SLP290 T00061028 10022 21006 53003
04850KAOH AOH20160413065511004/13/16 06:55:31  5-MIN KAOH 131155Z AUTO 11006KT 10SM CLR 01/M03 A3037 570 78 -1000 110/06 RMK AO2 T00061028
04850KAOH AOH20160413070010904/13/16 07:00:31  5-MIN KAOH 131200Z AUTO 11007KT 10SM CLR 01/M03 A3037 560 75 -900 120/07 RMK AO2 T00111028
04850KAOH AOH20160413070510904/13/16 07:05:31  5-MIN KAOH 131205Z AUTO 11007KT 10SM CLR 01/M03 A3037 560 75 -900 120/07 RMK AO2 T00111028
04850KAOH AOH20160413071010904/13/16 07:10:31  5-MIN KAOH 131210Z AUTO 12008KT 10SM CLR 02/M03 A3038 560 72 -800 120/08 RMK AO2 T00171028
04850KAOH AOH20160413071510904/13/16 07:15:31  5-MIN KAOH 131215Z AUTO 12009KT 10SM CLR 02/M03 A3038 560 72 -800 130/09 RMK AO2 T00171028
04850KAOH AOH20160413072010904/13/16 07:20:31  5-MIN KAOH 131220Z AUTO 13009KT 10SM CLR 02/M03 A3038 560 69 -800 130/09 RMK AO2 T00221028
04850KAOH AOH20160413072510904/13/16 07:25:31  5-MIN KAOH 131225Z AUTO 13009KT 10SM CLR 02/M03 A3038 550 69 -800 130/09 RMK AO2 T00221028
04850KAOH AOH20160413073010904/13/16 07:30:31  5-MIN KAOH 131230Z AUTO 13009KT 10SM CLR 02/M03 A3038 550 69 -800 130/09 RMK AO2 T00221028
04850KAOH AOH20160413073510904/13/16 07:35:31  5-MIN KAOH 131235Z AUTO 13008KT 10SM CLR 03/M02 A3038 550 69 -700 130/08 RMK AO2 T00281022
04850KAOH AOH20160413074010904/13/16 07:40:31  5-MIN KAOH 131240Z AUTO 13009KT 10SM CLR 03/M03 A3039 550 67 -700 130/09 RMK AO2 T00281028
04850KAOH AOH20160413074510904/13/16 07:45:31  5-MIN KAOH 131245Z AUTO 13008KT 10SM CLR 03/M02 A3039 550 69 -700 130/08 RMK AO2 T00281022
04850KAOH AOH20160413075011604/13/16 07:50:31  5-MIN KAOH 131250Z AUTO 12008KT 10SM CLR 03/M02 A3039 550 67 -600 130/08 RMK AO2 SLP297 T00331022
04850KAOH AOH20160413075510904/13/16 07:55:31  5-MIN KAOH 131255Z AUTO 13010KT 10SM CLR 03/M02 A3039 550 67 -600 140/10 RMK AO2 T00331022
04850KAOH AOH20160413080010904/13/16 08:00:31  5-MIN KAOH 131300Z AUTO 13010KT 10SM CLR 04/M02 A3038 550 64 -600 130/10 RMK AO2 T00391022
04850KAOH AOH20160413080510904/13/16 08:05:31  5-MIN KAOH 131305Z AUTO 13011KT 10SM CLR 04/M02 A3038 550 64 -600 140/11 RMK AO2 T00391022
04850KAOH AOH20160413081010904/13/16 08:10:31  5-MIN KAOH 131310Z AUTO 14011KT 10SM CLR 04/M02 A3038 550 64 -600 140/11 RMK AO2 T00391022
04850KAOH AOH20160413081510904/13/16 08:15:31  5-MIN KAOH 131315Z AUTO 14013KT 10SM CLR 04/M03 A3038 550 59 -500 140/13 RMK AO2 T00441028
04850KAOH AOH20160413082010904/13/16 08:20:31  5-MIN KAOH 131320Z AUTO 13012KT 10SM CLR 04/M02 A3039 550 62 -500 140/12 RMK AO2 T00441022
04850KAOH AOH20160413082510904/13/16 08:25:31  5-MIN KAOH 131325Z AUTO 13012KT 10SM CLR 04/M02 A3038 550 62 -500 130/12 RMK AO2 T00441022
04850KAOH AOH20160413083010904/13/16 08:30:31  5-MIN KAOH 131330Z AUTO 13013KT 10SM CLR 04/M02 A3038 560 62 -500 140/13 RMK AO2 T00441022
04850KAOH AOH20160413083511504/13/16 08:35:31  5-MIN KAOH 131335Z AUTO 12011G17KT 10SM CLR 05/M02 A3038 550 59 -400 120/11G17 RMK AO2 T00501022
04850KAOH AOH20160413084010904/13/16 08:40:31  5-MIN KAOH 131340Z AUTO 12012KT 10SM CLR 05/M02 A3038 560 59 -400 120/12 RMK AO2 T00501022
04850KAOH AOH20160413084510904/13/16 08:45:31  5-MIN KAOH 131345Z AUTO 12012KT 10SM CLR 05/M03 A3037 560 57 -400 130/12 RMK AO2 T00501028
04850KAOH AOH20160413085011604/13/16 08:50:31  5-MIN KAOH 131350Z AUTO 11013KT 10SM CLR 05/M03 A3037 560 57 -400 120/13 RMK AO2 SLP291 T00501028
04850KAOH AOH20160413085510904/13/16 08:55:31  5-MIN KAOH 131355Z AUTO 12015KT 10SM CLR 05/M03 A3037 560 57 -400 130/15 RMK AO2 T00501028
04850KAOH AOH20160413090010904/13/16 09:00:31  5-MIN KAOH 131400Z AUTO 13013KT 10SM CLR 06/M03 A3037 560 55 -400 130/13 RMK AO2 T00561028
04850KAOH AOH20160413090510904/13/16 09:05:31  5-MIN KAOH 131405Z AUTO 13013KT 10SM CLR 06/M02 A3037 570 59 -300 130/13 RMK AO2 T00561017
04850KAOH AOH20160413091010904/13/16 09:10:31  5-MIN KAOH 131410Z AUTO 14012KT 10SM CLR 06/M02 A3037 560 57 -400 150/12 RMK AO2 T00561022
04850KAOH AOH20160413091510904/13/16 09:15:31  5-MIN KAOH 131415Z AUTO 12010KT 10SM CLR 06/M02 A3037 560 57 -300 130/10 RMK AO2 T00611017
04850KAOH AOH20160413092010904/13/16 09:20:31  5-MIN KAOH 131420Z AUTO 12011KT 10SM CLR 07/M01 A3037 560 57 -200 130/11 RMK AO2 T00671011
04850KAOH AOH20160413092510904/13/16 09:25:31  5-MIN KAOH 131425Z AUTO 11010KT 10SM CLR 06/M02 A3037 560 55 -300 120/10 RMK AO2 T00611022
04850KAOH AOH20160413093010904/13/16 09:30:31  5-MIN KAOH 131430Z AUTO 13009KT 10SM CLR 07/M02 A3037 560 55 -200 130/09 RMK AO2 T00671017
04850KAOH AOH20160413093512504/13/16 09:35:31  5-MIN KAOH 131435Z AUTO 12009KT 090V150 10SM CLR 07/M01 A3037 560 57 -200 120/09 100V160 RMK AO2 T00671011
04850KAOH AOH20160413094010904/13/16 09:40:31  5-MIN KAOH 131440Z AUTO 13010KT 10SM CLR 07/M02 A3037 560 55 -200 130/10 RMK AO2 T00671017
04850KAOH AOH20160413094510904/13/16 09:45:31  5-MIN KAOH 131445Z AUTO 11009KT 10SM CLR 07/M01 A3037 570 55 -100 110/09 RMK AO2 T00721011
04850KAOH AOH20160413095012204/13/16 09:50:31  5-MIN KAOH 131450Z AUTO 13010KT 10SM CLR 07/M02 A3037 560 55 -200 130/10 RMK AO2 SLP292 T00671017 50001
04850KAOH AOH20160413095510904/13/16 09:55:31  5-MIN KAOH 131455Z AUTO 11009KT 10SM CLR 07/M02 A3037 570 53 -100 110/09 RMK AO2 T00721017
04850KAOH AOH20160413100010904/13/16 10:00:31  5-MIN KAOH 131500Z AUTO 12010KT 10SM CLR 07/M01 A3036 570 55 -100 120/10 RMK AO2 T00721011
04850KAOH AOH20160413100510904/13/16 10:05:31  5-MIN KAOH 131505Z AUTO 12010KT 10SM CLR 07/M02 A3035 580 53 -100 120/10 RMK AO2 T00721017
04850KAOH AOH20160413101010904/13/16 10:10:31  5-MIN KAOH 131510Z AUTO 09012KT 10SM CLR 08/M01 A3035 580 53 -100 090/12 RMK AO2 T00781011
04850KAOH AOH20160413101510904/13/16 10:15:31  5-MIN KAOH 131515Z AUTO 10011KT 10SM CLR 08/M01 A3035 580 53 -100 100/11 RMK AO2 T00781011
04850KAOH AOH20160413102010904/13/16 10:20:31  5-MIN KAOH 131520Z AUTO 10012KT 10SM CLR 07/M01 A3035 580 55 -100 100/12 RMK AO2 T00721011
04850KAOH AOH20160413102510904/13/16 10:25:31  5-MIN KAOH 131525Z AUTO 09012KT 10SM CLR 07/M01 A3035 580 55 -100 100/12 RMK AO2 T00721011
04850KAOH AOH20160413103010904/13/16 10:30:31  5-MIN KAOH 131530Z AUTO 10011KT 10SM CLR 08/M01 A3035 580 53 -100 110/11 RMK AO2 T00781011
04850KAOH AOH20160413103510904/13/16 10:35:31  5-MIN KAOH 131535Z AUTO 09010KT 10SM CLR 08/M01 A3036 580 53 -100 100/10 RMK AO2 T00781011
04850KAOH AOH20160413104010904/13/16 10:40:31  5-MIN KAOH 131540Z AUTO 07009KT 10SM CLR 08/M01 A3035 580 55 -100 070/09 RMK AO2 T00781006
04850KAOH AOH20160413104510504/13/16 10:45:31  5-MIN KAOH 131545Z AUTO 10010KT 10SM CLR 08/00 A3035 580 55 0 110/10 RMK AO2 T00830000
04850KAOH AOH20160413105011304/13/16 10:50:31  5-MIN KAOH 131550Z AUTO 10010KT 10SM CLR 08/M01 A3035 590 53 0 110/10 RMK AO2 SLP282 T00831006
04850KAOH AOH20160413105510504/13/16 10:55:31  5-MIN KAOH 131555Z AUTO 08010KT 10SM CLR 08/00 A3034 590 55 0 090/10 RMK AO2 T00830000
04850KAOH AOH20160413110011104/13/16 11:00:31  5-MIN KAOH 131600Z AUTO 08008G17KT 10SM CLR 09/00 A3034 590 53 0 080/08G17 RMK AO2 T00890000
04850KAOH AOH20160413110511204/13/16 11:05:31  5-MIN KAOH 131605Z AUTO 08013G17KT 10SM CLR 09/M01 A3034 590 51 0 090/13G17 RMK AO2 T00891006
04850KAOH AOH20160413111010504/13/16 11:10:31  5-MIN KAOH 131610Z AUTO 08012KT 10SM CLR 09/00 A3034 590 53 0 080/12 RMK AO2 T00890000
04850KAOH AOH20160413111510604/13/16 11:15:31  5-MIN KAOH 131615Z AUTO 09013KT 10SM CLR 09/M01 A3034 590 51 0 100/13 RMK AO2 T00891006
04850KAOH AOH20160413112010604/13/16 11:20:31  5-MIN KAOH 131620Z AUTO 08012KT 10SM CLR 09/M01 A3034 590 49 0 080/12 RMK AO2 T00891011
04850KAOH AOH20160413112510504/13/16 11:25:31  5-MIN KAOH 131625Z AUTO 06012KT 10SM CLR 09/00 A3034 600 53 0 060/12 RMK AO2 T00890000
04850KAOH AOH20160413113010604/13/16 11:30:31  5-MIN KAOH 131630Z AUTO 10010KT 10SM CLR 09/M01 A3033 600 51 0 100/10 RMK AO2 T00891006
04850KAOH AOH20160413113511404/13/16 11:35:31  5-MIN KAOH 131635Z AUTO 10013G17KT 10SM CLR 09/M01 A3033 600 49 100 100/13G17 RMK AO2 T00941006
04850KAOH AOH20160413114010804/13/16 11:40:31  5-MIN KAOH 131640Z AUTO 07012KT 10SM CLR 09/M01 A3033 600 49 100 080/12 RMK AO2 T00941006
04850KAOH AOH20160413114510804/13/16 11:45:31  5-MIN KAOH 131645Z AUTO 08012KT 10SM CLR 09/M01 A3033 600 47 100 080/12 RMK AO2 T00941011
04850KAOH AOH20160413115011504/13/16 11:50:31  5-MIN KAOH 131650Z AUTO 09013KT 10SM CLR 09/M01 A3033 600 47 100 100/13 RMK AO2 SLP275 T00941011
04850KAOH AOH20160413115510804/13/16 11:55:31  5-MIN KAOH 131655Z AUTO 08012KT 10SM CLR 09/M01 A3033 600 49 100 080/12 RMK AO2 T00941006
04850KAOH AOH20160413120010704/13/16 12:00:31  5-MIN KAOH 131700Z AUTO 08010KT 10SM CLR 09/00 A3033 600 51 100 080/10 RMK AO2 T00940000
04850KAOH AOH20160413120511404/13/16 12:05:31  5-MIN KAOH 131705Z AUTO 10009G17KT 10SM CLR 09/M01 A3033 600 49 100 100/09G17 RMK AO2 T00941006
04850KAOH AOH20160413121011304/13/16 12:10:31  5-MIN KAOH 131710Z AUTO 07013G18KT 10SM CLR 10/00 A3033 600 49 200 080/13G18 RMK AO2 T01000000
04850KAOH AOH20160413121511404/13/16 12:15:31  5-MIN KAOH 131715Z AUTO 09010G18KT 10SM CLR 09/M01 A3032 610 49 100 090/10G18 RMK AO2 T00941006
04850KAOH AOH20160413122011304/13/16 12:20:31  5-MIN KAOH 131720Z AUTO 08012G18KT 10SM CLR 10/00 A3032 610 49 200 090/12G18 RMK AO2 T01000000
04850KAOH AOH20160413122511404/13/16 12:25:31  5-MIN KAOH 131725Z AUTO 09008G18KT 10SM CLR 10/M01 A3033 600 47 200 100/08G18 RMK AO2 T01001006
04850KAOH AOH20160413123010804/13/16 12:30:31  5-MIN KAOH 131730Z AUTO 07012KT 10SM CLR 10/M01 A3032 610 47 200 080/12 RMK AO2 T01001006
04850KAOH AOH20160413123510804/13/16 12:35:31  5-MIN KAOH 131735Z AUTO 10011KT 10SM CLR 10/M01 A3032 610 47 200 100/11 RMK AO2 T01001006
04850KAOH AOH20160413124010804/13/16 12:40:31  5-MIN KAOH 131740Z AUTO 11009KT 10SM CLR 10/M01 A3032 610 46 200 110/09 RMK AO2 T01001011
04850KAOH AOH20160413124510804/13/16 12:45:31  5-MIN KAOH 131745Z AUTO 06010KT 10SM CLR 11/M01 A3032 610 44 300 070/10 RMK AO2 T01061011
04850KAOH AOH20160413125013904/13/16 12:50:31  5-MIN KAOH 131750Z AUTO 09012G16KT 10SM CLR 11/M01 A3032 610 46 300 090/12G16 RMK AO2 SLP272 T01061006 10106 20006 50001
04850KAOH AOH20160413125510704/13/16 12:55:31  5-MIN KAOH 131755Z AUTO 08008KT 10SM CLR 11/00 A3032 610 48 300 090/08 RMK AO2 T01060000
04850KAOH AOH20160413130010804/13/16 13:00:31  5-MIN KAOH 131800Z AUTO 08010KT 10SM CLR 11/M01 A3032 610 46 300 080/10 RMK AO2 T01061006
04850KAOH AOH20160413130511404/13/16 13:05:31  5-MIN KAOH 131805Z AUTO 09007G15KT 10SM CLR 11/M01 A3032 610 46 300 090/07G15 RMK AO2 T01061006
04850KAOH AOH20160413131010804/13/16 13:10:31  5-MIN KAOH 131810Z AUTO 10005KT 10SM CLR 11/M01 A3032 610 46 300 110/05 RMK AO2 T01061006
04850KAOH AOH20160413131510804/13/16 13:15:31  5-MIN KAOH 131815Z AUTO 10007KT 10SM CLR 11/M01 A3032 610 44 300 110/07 RMK AO2 T01061011
04850KAOH AOH20160413132010804/13/16 13:20:31  5-MIN KAOH 131820Z AUTO 07008KT 10SM CLR 11/M01 A3032 610 42 300 070/08 RMK AO2 T01111011
04850KAOH AOH20160413132510704/13/16 13:25:31  5-MIN KAOH 131825Z AUTO 07006KT 10SM CLR 11/00 A3032 610 46 300 070/06 RMK AO2 T01110000
04850KAOH AOH20160413133010804/13/16 13:30:31  5-MIN KAOH 131830Z AUTO 13006KT 10SM CLR 11/M01 A3032 610 42 300 140/06 RMK AO2 T01111011
04850KAOH AOH20160413133510804/13/16 13:35:31  5-MIN KAOH 131835Z AUTO 09007KT 10SM CLR 11/M01 A3032 610 44 300 090/07 RMK AO2 T01111006
04850KAOH AOH20160413134010804/13/16 13:40:31  5-MIN KAOH 131840Z AUTO 12005KT 10SM CLR 11/M01 A3032 610 42 300 120/05 RMK AO2 T01111011
04850KAOH AOH20160413134510804/13/16 13:45:31  5-MIN KAOH 131845Z AUTO 08007KT 10SM CLR 11/M01 A3032 610 44 300 080/07 RMK AO2 T01061011
04850KAOH AOH20160413135011404/13/16 13:50:31  5-MIN KAOH 131850Z AUTO 05006KT 10SM CLR 11/00 A3032 610 46 300 060/06 RMK AO2 SLP273 T01110000
04850KAOH AOH20160413135510704/13/16 13:55:31  5-MIN KAOH 131855Z AUTO 05005KT 10SM CLR 11/00 A3032 610 46 300 060/05 RMK AO2 T01110000
04850KAOH AOH20160413140010804/13/16 14:00:31  5-MIN KAOH 131900Z AUTO 08009KT 10SM CLR 11/M01 A3032 610 44 300 090/09 RMK AO2 T01111006
04850KAOH AOH20160413140510804/13/16 14:05:31  5-MIN KAOH 131905Z AUTO 08010KT 10SM CLR 11/M01 A3032 610 44 300 090/10 RMK AO2 T01061011
04850KAOH AOH20160413141010804/13/16 14:10:31  5-MIN KAOH 131910Z AUTO 07008KT 10SM CLR 11/M01 A3032 610 44 300 070/08 RMK AO2 T01111006
04850KAOH AOH20160413141510804/13/16 14:15:31  5-MIN KAOH 131915Z AUTO VRB05KT 10SM CLR 11/M01 A3032 610 42 300 VRB/05 RMK AO2 T01111011
04850KAOH AOH20160413142010804/13/16 14:20:31  5-MIN KAOH 131920Z AUTO 07005KT 10SM CLR 11/M01 A3031 620 44 300 080/05 RMK AO2 T01111006
04850KAOH AOH20160413142510804/13/16 14:25:31  5-MIN KAOH 131925Z AUTO 06003KT 10SM CLR 11/M02 A3031 620 41 300 070/03 RMK AO2 T01111017
04850KAOH AOH20160413143010704/13/16 14:30:31  5-MIN KAOH 131930Z AUTO 09009KT 10SM CLR 11/00 A3031 620 46 300 100/09 RMK AO2 T01110000
04850KAOH AOH20160413143512304/13/16 14:35:31  5-MIN KAOH 131935Z AUTO 06008KT 030V100 10SM CLR 12/00 A3031 620 44 400 070/08 040V110 RMK AO2 T01170000
04850KAOH AOH20160413144010704/13/16 14:40:31  5-MIN KAOH 131940Z AUTO 04007KT 10SM CLR 11/00 A3031 620 46 300 040/07 RMK AO2 T01110000
04850KAOH AOH20160413144510704/13/16 14:45:31  5-MIN KAOH 131945Z AUTO 08007KT 10SM CLR 12/00 A3030 620 44 400 090/07 RMK AO2 T01170000
04850KAOH AOH20160413145011404/13/16 14:50:31  5-MIN KAOH 131950Z AUTO 08010KT 10SM CLR 12/00 A3030 630 44 400 090/10 RMK AO2 SLP264 T01170000
04850KAOH AOH20160413145510704/13/16 14:55:31  5-MIN KAOH 131955Z AUTO 08010KT 10SM CLR 12/00 A3030 630 44 400 080/10 RMK AO2 T01170000
04850KAOH AOH20160413150010704/13/16 15:00:31  5-MIN KAOH 132000Z AUTO 05009KT 10SM CLR 12/00 A3030 630 44 400 060/09 RMK AO2 T01170000
04850KAOH AOH20160413150510804/13/16 15:05:31  5-MIN KAOH 132005Z AUTO 08009KT 10SM CLR 12/M01 A3029 640 42 400 090/09 RMK AO2 T01171006
04850KAOH AOH20160413151010704/13/16 15:10:31  5-MIN KAOH 132010Z AUTO 07008KT 10SM CLR 12/00 A3029 640 44 400 080/08 RMK AO2 T01170000
04850KAOH AOH20160413151510804/13/16 15:15:31  5-MIN KAOH 132015Z AUTO 08009KT 10SM CLR 12/M01 A3029 640 41 400 080/09 RMK AO2 T01171011
04850KAOH AOH20160413152010804/13/16 15:20:31  5-MIN KAOH 132020Z AUTO 06006KT 10SM CLR 12/M01 A3028 640 41 400 060/06 RMK AO2 T01171011
04850KAOH AOH20160413152510804/13/16 15:25:31  5-MIN KAOH 132025Z AUTO 11008KT 10SM CLR 12/M01 A3029 640 41 500 110/08 RMK AO2 T01221006
04850KAOH AOH20160413153010804/13/16 15:30:31  5-MIN KAOH 132030Z AUTO 06008KT 10SM CLR 12/M01 A3029 640 42 400 060/08 RMK AO2 T01171006
04850KAOH AOH20160413153510704/13/16 15:35:31  5-MIN KAOH 132035Z AUTO 07007KT 10SM CLR 12/01 A3028 640 44 500 070/07 RMK AO2 T01220006
04850KAOH AOH20160413154010704/13/16 15:40:31  5-MIN KAOH 132040Z AUTO 07011KT 10SM CLR 12/00 A3028 640 44 400 070/11 RMK AO2 T01170000
04850KAOH AOH20160413154510804/13/16 15:45:31  5-MIN KAOH 132045Z AUTO 05008KT 10SM CLR 11/M01 A3029 640 44 400 060/08 RMK AO2 T01111006
04850KAOH AOH20160413155012404/13/16 15:50:31  5-MIN KAOH 132050Z AUTO 04008KT 10SM FEW120 11/M01 A3028 640 44 300 050/08 RMK AO2 SLP261 T01061011 56016
04850KAOH AOH20160413155511104/13/16 15:55:31  5-MIN KAOH 132055Z AUTO 04007KT 10SM FEW120 11/M01 A3028 640 42 400 040/07 RMK AO2 T01111011
04850KAOH AOH20160413160011104/13/16 16:00:31  5-MIN KAOH 132100Z AUTO 05009KT 10SM SCT120 11/M01 A3028 640 42 400 060/09 RMK AO2 T01111011
04850KAOH AOH20160413160511104/13/16 16:05:31  5-MIN KAOH 132105Z AUTO 05010KT 10SM FEW120 12/M01 A3028 640 42 400 060/10 RMK AO2 T01171006
04850KAOH AOH20160413161011104/13/16 16:10:31  5-MIN KAOH 132110Z AUTO 02008KT 10SM FEW120 12/M01 A3028 650 41 400 030/08 RMK AO2 T01171011
04850KAOH AOH20160413161511104/13/16 16:15:31  5-MIN KAOH 132115Z AUTO 06008KT 10SM FEW120 12/M01 A3028 650 42 400 070/08 RMK AO2 T01171006
04850KAOH AOH20160413162011104/13/16 16:20:31  5-MIN KAOH 132120Z AUTO 05007KT 10SM FEW120 12/M01 A3028 650 42 400 050/07 RMK AO2 T01171006
04850KAOH AOH20160413162511004/13/16 16:25:31  5-MIN KAOH 132125Z AUTO 06009KT 10SM FEW120 12/00 A3028 650 44 400 070/09 RMK AO2 T01170000
04850KAOH AOH20160413163010804/13/16 16:30:31  5-MIN KAOH 132130Z AUTO 07008KT 10SM CLR 12/M01 A3027 650 42 400 080/08 RMK AO2 T01171006
04850KAOH AOH20160413163510804/13/16 16:35:31  5-MIN KAOH 132135Z AUTO 04012KT 10SM CLR 12/M01 A3028 650 42 400 050/12 RMK AO2 T01171006
04850KAOH AOH20160413164010804/13/16 16:40:31  5-MIN KAOH 132140Z AUTO 06010KT 10SM CLR 11/M01 A3027 650 44 400 060/10 RMK AO2 T01111006
04850KAOH AOH20160413164510804/13/16 16:45:31  5-MIN KAOH 132145Z AUTO 07011KT 10SM CLR 11/M01 A3027 650 44 400 070/11 RMK AO2 T01111006
04850KAOH AOH20160413165011504/13/16 16:50:31  5-MIN KAOH 132150Z AUTO 06008KT 10SM CLR 11/M01 A3027 660 44 400 060/08 RMK AO2 SLP256 T01111006
04850KAOH AOH20160413165510804/13/16 16:55:31  5-MIN KAOH 132155Z AUTO 04009KT 10SM CLR 11/M01 A3027 660 46 300 050/09 RMK AO2 T01061006
04850KAOH AOH20160413170010704/13/16 17:00:31  5-MIN KAOH 132200Z AUTO 05011KT 10SM CLR 11/00 A3027 660 46 400 060/11 RMK AO2 T01110000
04850KAOH AOH20160413170510704/13/16 17:05:31  5-MIN KAOH 132205Z AUTO 06010KT 10SM CLR 11/00 A3027 660 46 400 070/10 RMK AO2 T01110000
04850KAOH AOH20160413171010704/13/16 17:10:31  5-MIN KAOH 132210Z AUTO 06010KT 10SM CLR 11/00 A3027 660 48 300 070/10 RMK AO2 T01060000
04850KAOH AOH20160413171510804/13/16 17:15:31  5-MIN KAOH 132215Z AUTO 06010KT 10SM CLR 11/M01 A3027 660 46 300 060/10 RMK AO2 T01061006
04850KAOH AOH20160413172010704/13/16 17:20:31  5-MIN KAOH 132220Z AUTO 06011KT 10SM CLR 11/00 A3027 660 48 300 070/11 RMK AO2 T01060000
04850KAOH AOH20160413172510804/13/16 17:25:31  5-MIN KAOH 132225Z AUTO 05009KT 10SM CLR 11/M01 A3027 660 44 400 050/09 RMK AO2 T01111006
04850KAOH AOH20160413173010804/13/16 17:30:31  5-MIN KAOH 132230Z AUTO 05012KT 10SM CLR 11/M01 A3027 660 46 300 060/12 RMK AO2 T01061006
04850KAOH AOH20160413173510804/13/16 17:35:31  5-MIN KAOH 132235Z AUTO 05007KT 10SM CLR 11/M01 A3027 660 46 300 050/07 RMK AO2 T01061006
04850KAOH AOH20160413174010704/13/16 17:40:31  5-MIN KAOH 132240Z AUTO 04010KT 10SM CLR 11/00 A3027 660 48 300 050/10 RMK AO2 T01060000
04850KAOH AOH20160413174510804/13/16 17:45:31  5-MIN KAOH 132245Z AUTO 06009KT 10SM CLR 11/M01 A3027 660 46 300 070/09 RMK AO2 T01061006
04850KAOH AOH20160413175011404/13/16 17:50:31  5-MIN KAOH 132250Z AUTO 07010KT 10SM CLR 11/00 A3027 660 48 300 070/10 RMK AO2 SLP255 T01060000
04850KAOH AOH20160413175510804/13/16 17:55:31  5-MIN KAOH 132255Z AUTO 05011KT 10SM CLR 10/M01 A3027 660 47 300 060/11 RMK AO2 T01001006
04850KAOH AOH20160413180010704/13/16 18:00:31  5-MIN KAOH 132300Z AUTO 04012KT 10SM CLR 10/00 A3027 660 49 300 040/12 RMK AO2 T01000000
04850KAOH AOH20160413180510704/13/16 18:05:31  5-MIN KAOH 132305Z AUTO 05010KT 10SM CLR 10/01 A3027 660 52 300 050/10 RMK AO2 T01000006
04850KAOH AOH20160413181010704/13/16 18:10:31  5-MIN KAOH 132310Z AUTO 05010KT 10SM CLR 10/01 A3027 660 52 300 060/10 RMK AO2 T01000006
04850KAOH AOH20160413181510704/13/16 18:15:31  5-MIN KAOH 132315Z AUTO 05008KT 10SM CLR 10/01 A3027 660 52 300 050/08 RMK AO2 T01000006
04850KAOH AOH20160413182010704/13/16 18:20:31  5-MIN KAOH 132320Z AUTO 05012KT 10SM CLR 09/01 A3027 660 53 200 060/12 RMK AO2 T00940006
04850KAOH AOH20160413182510704/13/16 18:25:31  5-MIN KAOH 132325Z AUTO 04012KT 10SM CLR 09/01 A3027 660 56 100 050/12 RMK AO2 T00890006
04850KAOH AOH20160413183010704/13/16 18:30:31  5-MIN KAOH 132330Z AUTO 04011KT 10SM CLR 09/01 A3027 650 56 100 050/11 RMK AO2 T00890006
04850KAOH AOH20160413183510704/13/16 18:35:31  5-MIN KAOH 132335Z AUTO 04011KT 10SM CLR 09/01 A3027 650 56 100 050/11 RMK AO2 T00890006
04850KAOH AOH20160413184010504/13/16 18:40:31  5-MIN KAOH 132340Z AUTO 05008KT 10SM CLR 08/01 A3027 650 58 0 060/08 RMK AO2 T00830006
04850KAOH AOH20160413184510704/13/16 18:45:31  5-MIN KAOH 132345Z AUTO 05007KT 10SM CLR 08/01 A3027 650 58 100 060/07 RMK AO2 T00830006
04850KAOH AOH20160413185013204/13/16 18:50:31  5-MIN KAOH 132350Z AUTO 05009KT 10SM CLR 08/01 A3027 660 58 100 060/09 RMK AO2 SLP258 T00830006 10122 20083 58012
04850KAOH AOH20160413185510704/13/16 18:55:31  5-MIN KAOH 132355Z AUTO 04009KT 10SM CLR 08/01 A3027 650 58 100 050/09 RMK AO2 T00830006
04850KAOH AOH20160413190010504/13/16 19:00:31  5-MIN KAOH 140000Z AUTO 05009KT 10SM CLR 08/01 A3027 650 60 0 060/09 RMK AO2 T00780006
04850KAOH AOH20160413190510504/13/16 19:05:31  5-MIN KAOH 140005Z AUTO 05008KT 10SM CLR 08/01 A3027 660 62 0 050/08 RMK AO2 T00780011
04850KAOH AOH20160413191010504/13/16 19:10:31  5-MIN KAOH 140010Z AUTO 05008KT 10SM CLR 08/01 A3027 660 60 0 060/08 RMK AO2 T00780006
04850KAOH AOH20160413191510504/13/16 19:15:31  5-MIN KAOH 140015Z AUTO 05008KT 10SM CLR 08/01 A3027 660 60 0 060/08 RMK AO2 T00780006
04850KAOH AOH20160413192010504/13/16 19:20:31  5-MIN KAOH 140020Z AUTO 05008KT 10SM CLR 07/01 A3027 660 62 0 060/08 RMK AO2 T00720006
04850KAOH AOH20160413192510504/13/16 19:25:31  5-MIN KAOH 140025Z AUTO 05009KT 10SM CLR 07/01 A3027 660 62 0 050/09 RMK AO2 T00720006
04850KAOH AOH20160413193010504/13/16 19:30:31  5-MIN KAOH 140030Z AUTO 04009KT 10SM CLR 07/01 A3027 650 62 0 050/09 RMK AO2 T00720006
04850KAOH AOH20160413193510504/13/16 19:35:31  5-MIN KAOH 140035Z AUTO 05011KT 10SM CLR 07/01 A3027 650 62 0 050/11 RMK AO2 T00720006
04850KAOH AOH20160413194010804/13/16 19:40:31  5-MIN KAOH 140040Z AUTO 05009KT 10SM CLR 07/00 A3028 650 62 -100 060/09 RMK AO2 T00670000
04850KAOH AOH20160413194510804/13/16 19:45:31  5-MIN KAOH 140045Z AUTO 05008KT 10SM CLR 07/01 A3028 650 65 -100 050/08 RMK AO2 T00670006
04850KAOH AOH20160413195011504/13/16 19:50:31  5-MIN KAOH 140050Z AUTO 05009KT 10SM CLR 06/00 A3028 650 65 -200 050/09 RMK AO2 SLP258 T00610000
04850KAOH AOH20160413195510804/13/16 19:55:31  5-MIN KAOH 140055Z AUTO 04009KT 10SM CLR 06/00 A3028 650 65 -200 050/09 RMK AO2 T00610000
04850KAOH AOH20160413200010804/13/16 20:00:31  5-MIN KAOH 140100Z AUTO 04008KT 10SM CLR 06/00 A3028 650 65 -200 050/08 RMK AO2 T00610000
04850KAOH AOH20160413200510804/13/16 20:05:31  5-MIN KAOH 140105Z AUTO 05008KT 10SM CLR 06/00 A3028 650 65 -200 050/08 RMK AO2 T00610000
04850KAOH AOH20160413201010804/13/16 20:10:31  5-MIN KAOH 140110Z AUTO 05008KT 10SM CLR 06/00 A3028 650 67 -200 060/08 RMK AO2 T00560000
04850KAOH AOH20160413201510804/13/16 20:15:31  5-MIN KAOH 140115Z AUTO 05008KT 10SM CLR 06/00 A3029 640 67 -300 060/08 RMK AO2 T00560000
04850KAOH AOH20160413202010804/13/16 20:20:31  5-MIN KAOH 140120Z AUTO 05008KT 10SM CLR 06/00 A3029 640 67 -300 060/08 RMK AO2 T00560000
04850KAOH AOH20160413202510904/13/16 20:25:31  5-MIN KAOH 140125Z AUTO 05009KT 10SM CLR 06/M01 A3029 640 65 -300 060/09 RMK AO2 T00561006
04850KAOH AOH20160413203010904/13/16 20:30:31  5-MIN KAOH 140130Z AUTO 05009KT 10SM CLR 06/M01 A3029 630 65 -300 050/09 RMK AO2 T00561006
04850KAOH AOH20160413203510904/13/16 20:35:31  5-MIN KAOH 140135Z AUTO 06009KT 10SM CLR 05/M01 A3029 630 67 -300 060/09 RMK AO2 T00501006
04850KAOH AOH20160413204010904/13/16 20:40:31  5-MIN KAOH 140140Z AUTO 05007KT 10SM CLR 05/M01 A3029 640 67 -300 060/07 RMK AO2 T00501006
04850KAOH AOH20160413204510904/13/16 20:45:31  5-MIN KAOH 140145Z AUTO 05008KT 10SM CLR 04/M01 A3029 640 70 -400 050/08 RMK AO2 T00441006
04850KAOH AOH20160413205011604/13/16 20:50:31  5-MIN KAOH 140150Z AUTO 05008KT 10SM CLR 05/M01 A3029 640 67 -300 060/08 RMK AO2 SLP264 T00501006
04850KAOH AOH20160413205510904/13/16 20:55:31  5-MIN KAOH 140155Z AUTO 05008KT 10SM CLR 04/M01 A3029 640 70 -400 050/08 RMK AO2 T00441006
04850KAOH AOH20160413210010904/13/16 21:00:31  5-MIN KAOH 140200Z AUTO 05008KT 10SM CLR 04/M01 A3029 640 70 -400 050/08 RMK AO2 T00441006
04850KAOH AOH20160413210510904/13/16 21:05:31  5-MIN KAOH 140205Z AUTO 05007KT 10SM CLR 04/M01 A3029 640 70 -400 050/07 RMK AO2 T00441006
04850KAOH AOH20160413211010904/13/16 21:10:31  5-MIN KAOH 140210Z AUTO 05008KT 10SM CLR 04/M01 A3029 640 73 -500 060/08 RMK AO2 T00391006
04850KAOH AOH20160413211510904/13/16 21:15:31  5-MIN KAOH 140215Z AUTO 05006KT 10SM CLR 04/M01 A3029 640 73 -500 060/06 RMK AO2 T00391006
04850KAOH AOH20160413212010904/13/16 21:20:31  5-MIN KAOH 140220Z AUTO 05007KT 10SM CLR 04/M01 A3029 640 70 -500 060/07 RMK AO2 T00391011
04850KAOH AOH20160413212510904/13/16 21:25:31  5-MIN KAOH 140225Z AUTO 05008KT 10SM CLR 04/M01 A3029 640 70 -500 060/08 RMK AO2 T00391011
04850KAOH AOH20160413213010904/13/16 21:30:31  5-MIN KAOH 140230Z AUTO 05008KT 10SM CLR 04/M02 A3029 640 67 -500 050/08 RMK AO2 T00391017
04850KAOH AOH20160413213510904/13/16 21:35:31  5-MIN KAOH 140235Z AUTO 05008KT 10SM CLR 04/M02 A3029 640 64 -500 060/08 RMK AO2 T00391022
04850KAOH AOH20160413214010904/13/16 21:40:31  5-MIN KAOH 140240Z AUTO 05009KT 10SM CLR 03/M02 A3029 640 70 -500 060/09 RMK AO2 T00331017
04850KAOH AOH20160413214510904/13/16 21:45:31  5-MIN KAOH 140245Z AUTO 05008KT 10SM CLR 03/M02 A3029 640 67 -500 060/08 RMK AO2 T00331022
04850KAOH AOH20160413215012204/13/16 21:50:31  5-MIN KAOH 140250Z AUTO 06007KT 10SM CLR 03/M02 A3029 640 67 -500 060/07 RMK AO2 SLP264 T00331022 55005
04850KAOH AOH20160413215510904/13/16 21:55:31  5-MIN KAOH 140255Z AUTO 06007KT 10SM CLR 03/M02 A3029 640 67 -500 060/07 RMK AO2 T00331022
04850KAOH AOH20160413220010904/13/16 22:00:31  5-MIN KAOH 140300Z AUTO 05007KT 10SM CLR 03/M02 A3029 640 67 -500 060/07 RMK AO2 T00331022
04850KAOH AOH20160413220510904/13/16 22:05:31  5-MIN KAOH 140305Z AUTO 05007KT 10SM CLR 03/M02 A3029 630 69 -600 050/07 RMK AO2 T00281022
04850KAOH AOH20160413221010904/13/16 22:10:31  5-MIN KAOH 140310Z AUTO 05007KT 10SM CLR 03/M02 A3029 630 69 -600 060/07 RMK AO2 T00281022
04850KAOH AOH20160413221510904/13/16 22:15:31  5-MIN KAOH 140315Z AUTO 05008KT 10SM CLR 03/M03 A3029 640 67 -600 050/08 RMK AO2 T00281028
04850KAOH AOH20160413222010904/13/16 22:20:31  5-MIN KAOH 140320Z AUTO 04007KT 10SM CLR 03/M03 A3029 640 67 -600 050/07 RMK AO2 T00281028
04850KAOH AOH20160413222510904/13/16 22:25:31  5-MIN KAOH 140325Z AUTO 04008KT 10SM CLR 03/M03 A3029 640 67 -600 050/08 RMK AO2 T00281028
04850KAOH AOH20160413223010904/13/16 22:30:31  5-MIN KAOH 140330Z AUTO 05008KT 10SM CLR 03/M03 A3029 640 67 -600 060/08 RMK AO2 T00281028
04850KAOH AOH20160413223510904/13/16 22:35:31  5-MIN KAOH 140335Z AUTO 05009KT 10SM CLR 03/M03 A3029 640 67 -600 050/09 RMK AO2 T00281028
04850KAOH AOH20160413224010904/13/16 22:40:31  5-MIN KAOH 140340Z AUTO 05007KT 10SM CLR 02/M03 A3028 640 69 -700 060/07 RMK AO2 T00221028
04850KAOH AOH20160413224510904/13/16 22:45:31  5-MIN KAOH 140345Z AUTO 05009KT 10SM CLR 02/M03 A3028 640 69 -700 060/09 RMK AO2 T00221028
04850KAOH AOH20160413225011604/13/16 22:50:31  5-MIN KAOH 140350Z AUTO 05008KT 10SM CLR 02/M03 A3028 640 69 -700 060/08 RMK AO2 SLP261 T00221028
04850KAOH AOH20160413225510904/13/16 22:55:31  5-MIN KAOH 140355Z AUTO 06007KT 10SM CLR 02/M03 A3028 640 69 -700 060/07 RMK AO2 T00221028
04850KAOH AOH20160413230010904/13/16 23:00:31  5-MIN KAOH 140400Z AUTO 06008KT 10SM CLR 02/M03 A3028 650 69 -700 070/08 RMK AO2 T00221028
04850KAOH AOH20160413230510904/13/16 23:05:31  5-MIN KAOH 140405Z AUTO 06008KT 10SM CLR 02/M03 A3028 640 72 -700 070/08 RMK AO2 T00171028
04850KAOH AOH20160413231010904/13/16 23:10:31  5-MIN KAOH 140410Z AUTO 07007KT 10SM CLR 02/M02 A3028 640 75 -700 070/07 RMK AO2 T00171022
04850KAOH AOH20160413231510904/13/16 23:15:31  5-MIN KAOH 140415Z AUTO 07007KT 10SM CLR 02/M02 A3028 640 75 -700 070/07 RMK AO2 T00171022
04850KAOH AOH20160413232010904/13/16 23:20:31  5-MIN KAOH 140420Z AUTO 06007KT 10SM CLR 02/M02 A3028 640 75 -700 070/07 RMK AO2 T00171022
04850KAOH AOH20160413232510904/13/16 23:25:31  5-MIN KAOH 140425Z AUTO 06007KT 10SM CLR 01/M02 A3028 650 78 -800 070/07 RMK AO2 T00111022
04850KAOH AOH20160413233010904/13/16 23:30:31  5-MIN KAOH 140430Z AUTO 06007KT 10SM CLR 01/M02 A3028 650 78 -800 070/07 RMK AO2 T00111022
04850KAOH AOH20160413233510904/13/16 23:35:31  5-MIN KAOH 140435Z AUTO 06006KT 10SM CLR 01/M02 A3028 650 78 -800 070/06 RMK AO2 T00111022
04850KAOH AOH20160413234010904/13/16 23:40:31  5-MIN KAOH 140440Z AUTO 06007KT 10SM CLR 01/M02 A3028 650 78 -800 070/07 RMK AO2 T00111022
04850KAOH AOH20160413234510904/13/16 23:45:31  5-MIN KAOH 140445Z AUTO 06006KT 10SM CLR 01/M02 A3028 650 78 -800 070/06 RMK AO2 T00111022
04850KAOH AOH20160413235012604/13/16 23:50:31  5-MIN KAOH 140450Z AUTO 07007KT 10SM CLR 01/M02 A3028 650 78 -800 070/07 RMK AO2 SLP259 T00111022 401221006
04850KAOH AOH20160413235510904/13/16 23:55:31  5-MIN KAOH 140455Z AUTO 06006KT 10SM CLR 01/M02 A3028 650 78 -800 060/06 RMK AO2 T00111022
04850KAOH AOH20160414000010904/14/16 00:00:31  5-MIN KAOH 140500Z AUTO 06006KT 10SM CLR 01/M02 A3028 650 78 -800 070/06 RMK AO2 T00111022
04850KAOH AOH20160414000510904/14/16 00:05:31  5-MIN KAOH 140505Z AUTO 06007KT 10SM CLR 01/M03 A3028 650 75 -800 070/07 RMK AO2 T00111028
04850KAOH AOH20160414001010904/14/16 00:10:31  5-MIN KAOH 140510Z AUTO 05006KT 10SM CLR 01/M03 A3028 650 75 -800 060/06 RMK AO2 T00111028
04850KAOH AOH20160414001510904/14/16 00:15:31  5-MIN KAOH 140515Z AUTO 06006KT 10SM CLR 01/M03 A3028 650 75 -800 060/06 RMK AO2 T00111028
04850KAOH AOH20160414002010904/14/16 00:20:31  5-MIN KAOH 140520Z AUTO 05006KT 10SM CLR 01/M03 A3028 650 75 -800 060/06 RMK AO2 T00111028
04850KAOH AOH20160414002510904/14/16 00:25:31  5-MIN KAOH 140525Z AUTO 06007KT 10SM CLR 01/M03 A3028 650 75 -800 070/07 RMK AO2 T00111028
04850KAOH AOH20160414003010904/14/16 00:30:31  5-MIN KAOH 140530Z AUTO 06006KT 10SM CLR 01/M03 A3028 650 78 -900 070/06 RMK AO2 T00061028
04850KAOH AOH20160414003510904/14/16 00:35:31  5-MIN KAOH 140535Z AUTO 07006KT 10SM CLR 01/M03 A3027 650 78 -900 070/06 RMK AO2 T00061028
04850KAOH AOH20160414004010904/14/16 00:40:31  5-MIN KAOH 140540Z AUTO 07006KT 10SM CLR 01/M03 A3027 650 78 -900 080/06 RMK AO2 T00061028
04850KAOH AOH20160414004510904/14/16 00:45:31  5-MIN KAOH 140545Z AUTO 06006KT 10SM CLR 01/M03 A3027 660 78 -900 070/06 RMK AO2 T00061028
04850KAOH AOH20160414005013404/14/16 00:50:31  5-MIN KAOH 140550Z AUTO 06007KT 10SM CLR 01/M03 A3027 660 78 -900 070/07 RMK AO2 SLP256 T00061028 10083 20006 51007
04850KAOH AOH20160414005510904/14/16 00:55:31  5-MIN KAOH 140555Z AUTO 07007KT 10SM CLR 01/M03 A3027 660 75 -900 070/07 RMK AO2 T00061033
04850KAOH AOH20160414010010904/14/16 01:00:31  5-MIN KAOH 140600Z AUTO 07007KT 10SM CLR 01/M03 A3027 660 75 -900 080/07 RMK AO2 T00061033
04850KAOH AOH20160414010510904/14/16 01:05:31  5-MIN KAOH 140605Z AUTO 07009KT 10SM CLR 01/M03 A3026 660 75 -800 080/09 RMK AO2 T00061033
04850KAOH AOH20160414011010904/14/16 01:10:31  5-MIN KAOH 140610Z AUTO 07009KT 10SM CLR 01/M03 A3026 660 75 -800 080/09 RMK AO2 T00061033
04850KAOH AOH20160414011510904/14/16 01:15:31  5-MIN KAOH 140615Z AUTO 07008KT 10SM CLR 01/M03 A3026 670 75 -800 080/08 RMK AO2 T00061033
04850KAOH AOH20160414012010904/14/16 01:20:31  5-MIN KAOH 140620Z AUTO 07010KT 10SM CLR 01/M03 A3026 670 75 -800 080/10 RMK AO2 T00061033
04850KAOH AOH20160414012510904/14/16 01:25:31  5-MIN KAOH 140625Z AUTO 07008KT 10SM CLR 01/M03 A3026 670 75 -800 070/08 RMK AO2 T00061033
04850KAOH AOH20160414013010904/14/16 01:30:31  5-MIN KAOH 140630Z AUTO 06007KT 10SM CLR 01/M03 A3026 670 75 -800 060/07 RMK AO2 T00061033
04850KAOH AOH20160414013510904/14/16 01:35:31  5-MIN KAOH 140635Z AUTO 06006KT 10SM CLR 01/M03 A3026 670 75 -800 070/06 RMK AO2 T00061033
04850KAOH AOH20160414014010904/14/16 01:40:31  5-MIN KAOH 140640Z AUTO 06007KT 10SM CLR 01/M03 A3026 670 75 -800 070/07 RMK AO2 T00061033
04850KAOH AOH20160414014510904/14/16 01:45:31  5-MIN KAOH 140645Z AUTO 06007KT 10SM CLR 01/M03 A3026 670 75 -800 070/07 RMK AO2 T00061033
04850KAOH AOH20160414015011604/14/16 01:50:31  5-MIN KAOH 140650Z AUTO 06009KT 10SM CLR 01/M03 A3026 670 75 -800 070/09 RMK AO2 SLP252 T00061033
04850KAOH AOH20160414015510904/14/16 01:55:31  5-MIN KAOH 140655Z AUTO 07008KT 10SM CLR 01/M03 A3026 670 75 -800 070/08 RMK AO2 T00061033
04850KAOH AOH20160414020010904/14/16 02:00:31  5-MIN KAOH 140700Z AUTO 07008KT 10SM CLR 01/M03 A3026 670 75 -800 070/08 RMK AO2 T00061033
04850KAOH AOH20160414020510904/14/16 02:05:31  5-MIN KAOH 140705Z AUTO 07008KT 10SM CLR 01/M03 A3026 670 75 -800 070/08 RMK AO2 T00061033
04850KAOH AOH20160414021010904/14/16 02:10:31  5-MIN KAOH 140710Z AUTO 06008KT 10SM CLR 01/M03 A3026 670 75 -800 070/08 RMK AO2 T00061033
04850KAOH AOH20160414021510904/14/16 02:15:31  5-MIN KAOH 140715Z AUTO 07008KT 10SM CLR 01/M03 A3026 670 75 -800 070/08 RMK AO2 T00061033
04850KAOH AOH20160414022010904/14/16 02:20:31  5-MIN KAOH 140720Z AUTO 06007KT 10SM CLR 01/M03 A3026 670 75 -800 070/07 RMK AO2 T00061033
04850KAOH AOH20160414022510904/14/16 02:25:31  5-MIN KAOH 140725Z AUTO 06007KT 10SM CLR 01/M03 A3026 670 75 -800 070/07 RMK AO2 T00061033
04850KAOH AOH20160414023010904/14/16 02:30:31  5-MIN KAOH 140730Z AUTO 06007KT 10SM CLR 01/M03 A3026 670 75 -800 070/07 RMK AO2 T00061033
04850KAOH AOH20160414023510904/14/16 02:35:31  5-MIN KAOH 140735Z AUTO 06007KT 10SM CLR 01/M03 A3026 670 75 -800 070/07 RMK AO2 T00061033
04850KAOH AOH20160414024010904/14/16 02:40:31  5-MIN KAOH 140740Z AUTO 06006KT 10SM CLR 01/M03 A3026 670 75 -800 060/06 RMK AO2 T00061033
04850KAOH AOH20160414024510904/14/16 02:45:31  5-MIN KAOH 140745Z AUTO 05006KT 10SM CLR 01/M03 A3026 670 75 -800 060/06 RMK AO2 T00061033
04850KAOH AOH20160414025011604/14/16 02:50:31  5-MIN KAOH 140750Z AUTO 06006KT 10SM CLR 01/M03 A3026 670 75 -800 060/06 RMK AO2 SLP252 T00061033
04850KAOH AOH20160414025510904/14/16 02:55:31  5-MIN KAOH 140755Z AUTO 05006KT 10SM CLR 01/M03 A3026 670 75 -800 050/06 RMK AO2 T00061033
04850KAOH AOH20160414030010904/14/16 03:00:31  5-MIN KAOH 140800Z AUTO 05005KT 10SM CLR 00/M03 A3026 670 78 -900 050/05 RMK AO2 T00001033
04850KAOH AOH20160414030510904/14/16 03:05:31  5-MIN KAOH 140805Z AUTO 04005KT 10SM CLR 01/M03 A3026 660 75 -800 050/05 RMK AO2 T00061033
04850KAOH AOH20160414031010904/14/16 03:10:31  5-MIN KAOH 140810Z AUTO 05006KT 10SM CLR 00/M03 A3026 660 78 -900 050/06 RMK AO2 T00001033
04850KAOH AOH20160414031510904/14/16 03:15:31  5-MIN KAOH 140815Z AUTO 06007KT 10SM CLR 00/M03 A3026 660 78 -900 060/07 RMK AO2 T00001033
04850KAOH AOH20160414032010904/14/16 03:20:31  5-MIN KAOH 140820Z AUTO 05006KT 10SM CLR 00/M03 A3026 660 78 -900 060/06 RMK AO2 T00001033
04850KAOH AOH20160414032510904/14/16 03:25:31  5-MIN KAOH 140825Z AUTO 05006KT 10SM CLR 00/M03 A3026 660 78 -900 050/06 RMK AO2 T00001033
04850KAOH AOH20160414033010904/14/16 03:30:31  5-MIN KAOH 140830Z AUTO 06006KT 10SM CLR 00/M03 A3026 660 78 -900 070/06 RMK AO2 T00001033
04850KAOH AOH20160414033510904/14/16 03:35:31  5-MIN KAOH 140835Z AUTO 06006KT 10SM CLR 00/M03 A3026 660 78 -900 060/06 RMK AO2 T00001033
04850KAOH AOH20160414034010904/14/16 03:40:31  5-MIN KAOH 140840Z AUTO 05005KT 10SM CLR 00/M03 A3026 660 78 -900 060/05 RMK AO2 T00001033
04850KAOH AOH20160414034510904/14/16 03:45:31  5-MIN KAOH 140845Z AUTO 06006KT 10SM CLR 00/M03 A3026 660 78 -900 060/06 RMK AO2 T00001033
04850KAOH AOH20160414035012204/14/16 03:50:31  5-MIN KAOH 140850Z AUTO 05006KT 10SM CLR 00/M03 A3026 660 78 -900 050/06 RMK AO2 SLP255 T00001033 58007
04850KAOH AOH20160414035510904/14/16 03:55:31  5-MIN KAOH 140855Z AUTO 05006KT 10SM CLR 00/M03 A3026 660 78 -900 060/06 RMK AO2 T00001033
04850KAOH AOH20160414040010904/14/16 04:00:31  5-MIN KAOH 140900Z AUTO 06007KT 10SM CLR 00/M03 A3026 660 81 -900 060/07 RMK AO2 T00001028
04850KAOH AOH20160414040510904/14/16 04:05:31  5-MIN KAOH 140905Z AUTO 05007KT 10SM CLR 00/M03 A3027 660 81 -900 060/07 RMK AO2 T00001028
04850KAOH AOH20160414041010904/14/16 04:10:31  5-MIN KAOH 140910Z AUTO 06007KT 10SM CLR 00/M03 A3026 660 81 -900 070/07 RMK AO2 T00001028
04850KAOH AOH20160414041510904/14/16 04:15:31  5-MIN KAOH 140915Z AUTO 06006KT 10SM CLR 00/M03 A3026 660 81 -900 070/06 RMK AO2 T00001028
04850KAOH AOH20160414042010904/14/16 04:20:31  5-MIN KAOH 140920Z AUTO 07006KT 10SM CLR 00/M03 A3026 660 81 -900 070/06 RMK AO2 T00001028
04850KAOH AOH20160414042511104/14/16 04:25:31  5-MIN KAOH 140925Z AUTO 07006KT 10SM CLR M01/M03 A3026 660 85 -1000 080/06 RMK AO2 T10061028
04850KAOH AOH20160414043011104/14/16 04:30:31  5-MIN KAOH 140930Z AUTO 07006KT 10SM CLR M01/M03 A3026 660 85 -1000 070/06 RMK AO2 T10061028
04850KAOH AOH20160414043511104/14/16 04:35:31  5-MIN KAOH 140935Z AUTO 07007KT 10SM CLR M01/M03 A3026 670 85 -1000 080/07 RMK AO2 T10061028
04850KAOH AOH20160414044011104/14/16 04:40:31  5-MIN KAOH 140940Z AUTO 07006KT 10SM CLR M01/M03 A3026 670 85 -1000 070/06 RMK AO2 T10061028
04850KAOH AOH20160414044510904/14/16 04:45:31  5-MIN KAOH 140945Z AUTO 07007KT 10SM CLR 00/M03 A3026 670 81 -900 080/07 RMK AO2 T00001028
04850KAOH AOH20160414045011604/14/16 04:50:31  5-MIN KAOH 140950Z AUTO 08007KT 10SM CLR 00/M03 A3026 670 81 -900 080/07 RMK AO2 SLP252 T00001028
04850KAOH AOH20160414045511104/14/16 04:55:31  5-MIN KAOH 140955Z AUTO 08005KT 10SM CLR M01/M03 A3026 670 85 -1000 090/05 RMK AO2 T10061028
04850KAOH AOH20160414050011104/14/16 05:00:31  5-MIN KAOH 141000Z AUTO 08004KT 10SM CLR M01/M03 A3026 670 85 -1000 080/04 RMK AO2 T10061028
04850KAOH AOH20160414050511104/14/16 05:05:31  5-MIN KAOH 141005Z AUTO 07004KT 10SM CLR M01/M03 A3026 660 85 -1000 070/04 RMK AO2 T10061028
04850KAOH AOH20160414051011104/14/16 05:10:31  5-MIN KAOH 141010Z AUTO 08003KT 10SM CLR M01/M03 A3026 660 85 -1000 090/03 RMK AO2 T10061028
04850KAOH AOH20160414051510904/14/16 05:15:31  5-MIN KAOH 141015Z AUTO 08003KT 10SM CLR 00/M03 A3026 660 81 -900 090/03 RMK AO2 T00001028
04850KAOH AOH20160414052011104/14/16 05:20:31  5-MIN KAOH 141020Z AUTO 00000KT 10SM CLR M01/M03 A3027 660 85 -1000 000/00 RMK AO2 T10061028
04850KAOH AOH20160414052511104/14/16 05:25:31  5-MIN KAOH 141025Z AUTO 00000KT 10SM CLR M01/M03 A3027 650 85 -1000 000/00 RMK AO2 T10061028
04850KAOH AOH20160414053010904/14/16 05:30:31  5-MIN KAOH 141030Z AUTO 04003KT 10SM CLR 00/M03 A3027 650 81 -900 050/03 RMK AO2 T00001028
04850KAOH AOH20160414053510904/14/16 05:35:31  5-MIN KAOH 141035Z AUTO 05003KT 10SM CLR 00/M03 A3027 650 81 -900 060/03 RMK AO2 T00001028
04850KAOH AOH20160414054011104/14/16 05:40:31  5-MIN KAOH 141040Z AUTO 05004KT 10SM CLR M01/M03 A3027 650 85 -1000 060/04 RMK AO2 T10061028
04850KAOH AOH20160414054511104/14/16 05:45:31  5-MIN KAOH 141045Z AUTO 06004KT 10SM CLR M01/M03 A3028 650 85 -1000 070/04 RMK AO2 T10061028
04850KAOH AOH20160414055011804/14/16 05:50:31  5-MIN KAOH 141050Z AUTO 05003KT 10SM CLR M01/M03 A3028 650 85 -1000 060/03 RMK AO2 SLP259 T10061028
04850KAOH AOH20160414055510904/14/16 05:55:31  5-MIN KAOH 141055Z AUTO 06003KT 10SM CLR 00/M03 A3028 650 81 -900 070/03 RMK AO2 T00001028
04850KAOH AOH20160414060011104/14/16 06:00:31  5-MIN KAOH 141100Z AUTO 06004KT 10SM CLR M01/M03 A3028 650 85 -1000 070/04 RMK AO2 T10061028
04850KAOH AOH20160414060511104/14/16 06:05:31  5-MIN KAOH 141105Z AUTO 07003KT 10SM CLR M01/M03 A3028 650 85 -1000 070/03 RMK AO2 T10061028
04850KAOH AOH20160414061010904/14/16 06:10:31  5-MIN KAOH 141110Z AUTO 07003KT 10SM CLR 00/M03 A3028 640 81 -900 070/03 RMK AO2 T00001028
04850KAOH AOH20160414061511104/14/16 06:15:31  5-MIN KAOH 141115Z AUTO 05003KT 10SM CLR M01/M03 A3028 640 85 -1000 050/03 RMK AO2 T10061028
04850KAOH AOH20160414062010904/14/16 06:20:31  5-MIN KAOH 141120Z AUTO 04004KT 10SM CLR 00/M03 A3028 640 81 -900 050/04 RMK AO2 T00001028
04850KAOH AOH20160414062510904/14/16 06:25:31  5-MIN KAOH 141125Z AUTO 03005KT 10SM CLR 00/M03 A3029 640 81 -900 040/05 RMK AO2 T00001028
04850KAOH AOH20160414063010904/14/16 06:30:31  5-MIN KAOH 141130Z AUTO 03005KT 10SM CLR 00/M03 A3029 640 81 -900 040/05 RMK AO2 T00001028
04850KAOH AOH20160414063511004/14/16 06:35:31  5-MIN KAOH 141135Z AUTO 03007KT 10SM CLR 00/M03 A3029 630 81 -1000 040/07 RMK AO2 T00001028
04850KAOH AOH20160414064011004/14/16 06:40:31  5-MIN KAOH 141140Z AUTO 04006KT 10SM CLR 00/M03 A3030 630 81 -1000 050/06 RMK AO2 T00001028
04850KAOH AOH20160414064510904/14/16 06:45:31  5-MIN KAOH 141145Z AUTO 03007KT 10SM CLR 01/M03 A3030 630 78 -900 040/07 RMK AO2 T00061028
04850KAOH AOH20160414065013404/14/16 06:50:31  5-MIN KAOH 141150Z AUTO 04007KT 10SM CLR 01/M02 A3030 630 82 -900 040/07 RMK AO2 SLP267 T00061022 10011 21006 55001
04850KAOH AOH20160414065510904/14/16 06:55:31  5-MIN KAOH 141155Z AUTO 04009KT 10SM CLR 01/M02 A3030 630 82 -900 040/09 RMK AO2 T00061022
04850KAOH AOH20160414070010904/14/16 07:00:31  5-MIN KAOH 141200Z AUTO 04008KT 10SM CLR 01/M02 A3030 630 78 -800 040/08 RMK AO2 T00111022
04850KAOH AOH20160414070510904/14/16 07:05:31  5-MIN KAOH 141205Z AUTO 04008KT 10SM CLR 01/M02 A3030 630 78 -800 050/08 RMK AO2 T00111022
04850KAOH AOH20160414071010904/14/16 07:10:31  5-MIN KAOH 141210Z AUTO 05008KT 10SM CLR 01/M02 A3030 630 78 -800 050/08 RMK AO2 T00111022
04850KAOH AOH20160414071510904/14/16 07:15:31  5-MIN KAOH 141215Z AUTO 05008KT 10SM CLR 02/M02 A3030 630 75 -800 060/08 RMK AO2 T00171022
04850KAOH AOH20160414072010904/14/16 07:20:31  5-MIN KAOH 141220Z AUTO 05008KT 10SM CLR 02/M02 A3030 630 75 -800 060/08 RMK AO2 T00171022
04850KAOH AOH20160414072510904/14/16 07:25:31  5-MIN KAOH 141225Z AUTO 06007KT 10SM CLR 02/M02 A3030 630 72 -700 060/07 RMK AO2 T00221022
04850KAOH AOH20160414073010904/14/16 07:30:31  5-MIN KAOH 141230Z AUTO 06009KT 10SM CLR 02/M02 A3030 630 75 -700 070/09 RMK AO2 T00221017
04850KAOH AOH20160414073510904/14/16 07:35:31  5-MIN KAOH 141235Z AUTO 06008KT 10SM CLR 02/M02 A3030 630 75 -700 070/08 RMK AO2 T00221017
04850KAOH AOH20160414074010904/14/16 07:40:31  5-MIN KAOH 141240Z AUTO 06007KT 10SM CLR 03/M01 A3030 630 75 -600 070/07 RMK AO2 T00281011
04850KAOH AOH20160414074510904/14/16 07:45:31  5-MIN KAOH 141245Z AUTO 07007KT 10SM CLR 03/M01 A3030 630 72 -500 070/07 RMK AO2 T00331011
04850KAOH AOH20160414075011604/14/16 07:50:31  5-MIN KAOH 141250Z AUTO 06007KT 10SM CLR 03/M01 A3030 620 72 -500 070/07 RMK AO2 SLP268 T00331011
04850KAOH AOH20160414075510904/14/16 07:55:31  5-MIN KAOH 141255Z AUTO 06009KT 10SM CLR 04/M01 A3031 620 73 -500 070/09 RMK AO2 T00391006
04850KAOH AOH20160414080010904/14/16 08:00:31  5-MIN KAOH 141300Z AUTO 07008KT 10SM CLR 04/M01 A3031 620 73 -500 070/08 RMK AO2 T00391006
04850KAOH AOH20160414080510904/14/16 08:05:31  5-MIN KAOH 141305Z AUTO 07009KT 10SM CLR 04/M01 A3031 620 73 -500 080/09 RMK AO2 T00391006
04850KAOH AOH20160414081010904/14/16 08:10:31  5-MIN KAOH 141310Z AUTO 07009KT 10SM CLR 04/M01 A3031 620 70 -400 070/09 RMK AO2 T00441006
04850KAOH AOH20160414081510904/14/16 08:15:31  5-MIN KAOH 141315Z AUTO 06009KT 10SM CLR 04/M01 A3031 620 70 -400 070/09 RMK AO2 T00441006
04850KAOH AOH20160414082010804/14/16 08:20:31  5-MIN KAOH 141320Z AUTO 06009KT 10SM CLR 05/00 A3031 620 70 -300 070/09 RMK AO2 T00500000
04850KAOH AOH20160414082510804/14/16 08:25:31  5-MIN KAOH 141325Z AUTO 08009KT 10SM CLR 05/00 A3031 620 70 -300 090/09 RMK AO2 T00500000
04850KAOH AOH20160414083010804/14/16 08:30:31  5-MIN KAOH 141330Z AUTO 08010KT 10SM CLR 06/00 A3031 620 67 -300 090/10 RMK AO2 T00560000
04850KAOH AOH20160414083510804/14/16 08:35:31  5-MIN KAOH 141335Z AUTO 07009KT 10SM CLR 06/00 A3030 620 67 -300 080/09 RMK AO2 T00560000
04850KAOH AOH20160414084010804/14/16 08:40:31  5-MIN KAOH 141340Z AUTO 07009KT 10SM CLR 06/00 A3030 620 67 -300 070/09 RMK AO2 T00560000
04850KAOH AOH20160414084510804/14/16 08:45:31  5-MIN KAOH 141345Z AUTO 07007KT 10SM CLR 06/00 A3031 620 65 -200 080/07 RMK AO2 T00610000
04850KAOH AOH20160414085011504/14/16 08:50:31  5-MIN KAOH 141350Z AUTO 08007KT 10SM CLR 07/01 A3031 620 65 -100 080/07 RMK AO2 SLP268 T00670006
04850KAOH AOH20160414085510804/14/16 08:55:31  5-MIN KAOH 141355Z AUTO 08007KT 10SM CLR 07/00 A3031 620 60 -100 080/07 RMK AO2 T00720000
04850KAOH AOH20160414090010504/14/16 09:00:31  5-MIN KAOH 141400Z AUTO 09008KT 10SM CLR 08/01 A3031 620 60 0 100/08 RMK AO2 T00780006
04850KAOH AOH20160414090510504/14/16 09:05:31  5-MIN KAOH 141405Z AUTO 09008KT 10SM CLR 08/00 A3030 620 58 0 090/08 RMK AO2 T00780000
04850KAOH AOH20160414091010604/14/16 09:10:31  5-MIN KAOH 141410Z AUTO 10008KT 10SM CLR 08/M01 A3031 620 55 0 100/08 RMK AO2 T00781006
04850KAOH AOH20160414091510504/14/16 09:15:31  5-MIN KAOH 141415Z AUTO 10007KT 10SM CLR 08/00 A3031 620 55 0 100/07 RMK AO2 T00830000
04850KAOH AOH20160414092010504/14/16 09:20:31  5-MIN KAOH 141420Z AUTO 10006KT 10SM CLR 08/00 A3031 620 55 0 110/06 RMK AO2 T00830000
04850KAOH AOH20160414092510704/14/16 09:25:31  5-MIN KAOH 141425Z AUTO 07007KT 10SM CLR 09/00 A3031 620 53 100 080/07 RMK AO2 T00890000
04850KAOH AOH20160414093010704/14/16 09:30:31  5-MIN KAOH 141430Z AUTO 07008KT 10SM CLR 09/00 A3031 620 53 100 080/08 RMK AO2 T00890000
04850KAOH AOH20160414093510704/14/16 09:35:31  5-MIN KAOH 141435Z AUTO 07007KT 10SM CLR 09/00 A3031 620 51 100 080/07 RMK AO2 T00940000
04850KAOH AOH20160414094010704/14/16 09:40:31  5-MIN KAOH 141440Z AUTO 06007KT 10SM CLR 09/00 A3031 620 51 100 070/07 RMK AO2 T00940000
04850KAOH AOH20160414094510704/14/16 09:45:31  5-MIN KAOH 141445Z AUTO 07007KT 10SM CLR 10/00 A3031 620 49 200 070/07 RMK AO2 T01000000
04850KAOH AOH20160414095012004/14/16 09:50:31  5-MIN KAOH 141450Z AUTO 06007KT 10SM CLR 10/00 A3031 620 49 200 070/07 RMK AO2 SLP270 T01000000 53011
04850KAOH AOH20160414095510704/14/16 09:55:31  5-MIN KAOH 141455Z AUTO 07009KT 10SM CLR 10/01 A3031 620 52 200 070/09 RMK AO2 T01000006
04850KAOH AOH20160414100010804/14/16 10:00:31  5-MIN KAOH 141500Z AUTO 06009KT 10SM CLR 10/M01 A3031 620 47 200 070/09 RMK AO2 T01001006
04850KAOH AOH20160414100510804/14/16 10:05:31  5-MIN KAOH 141505Z AUTO 07008KT 10SM CLR 11/M01 A3031 620 46 300 080/08 RMK AO2 T01061006
04850KAOH AOH20160414101010704/14/16 10:10:31  5-MIN KAOH 141510Z AUTO 07008KT 10SM CLR 11/01 A3031 620 50 300 080/08 RMK AO2 T01060006
04850KAOH AOH20160414101510804/14/16 10:15:31  5-MIN KAOH 141515Z AUTO 04010KT 10SM CLR 11/M01 A3031 620 46 300 050/10 RMK AO2 T01061006
04850KAOH AOH20160414102010804/14/16 10:20:31  5-MIN KAOH 141520Z AUTO 05012KT 10SM CLR 11/M01 A3031 620 44 300 050/12 RMK AO2 T01061011
04850KAOH AOH20160414102510804/14/16 10:25:31  5-MIN KAOH 141525Z AUTO 07010KT 10SM CLR 11/M01 A3032 610 46 300 070/10 RMK AO2 T01061006
04850KAOH AOH20160414203010604/14/16 20:30:31  5-MIN KAOH 150130Z AUTO 05009KT 10SM CLR 07/M01 A3024 680 55 0 060/09 RMK AO2 T00721011
04850KAOH AOH20160414203510604/14/16 20:35:31  5-MIN KAOH 150135Z AUTO 05007KT 10SM CLR 07/M01 A3024 680 57 0 050/07 RMK AO2 T00721006
04850KAOH AOH20160414204010604/14/16 20:40:31  5-MIN KAOH 150140Z AUTO 05007KT 10SM CLR 07/M01 A3024 680 55 0 060/07 RMK AO2 T00721011
04850KAOH AOH20160414204510904/14/16 20:45:31  5-MIN KAOH 150145Z AUTO 05008KT 10SM CLR 07/M01 A3024 680 60 -100 060/08 RMK AO2 T00671006
04850KAOH AOH20160414205011604/14/16 20:50:31  5-MIN KAOH 150150Z AUTO 05007KT 10SM CLR 07/M01 A3024 680 60 -100 060/07 RMK AO2 SLP246 T00671006
04850KAOH AOH20160414205510904/14/16 20:55:31  5-MIN KAOH 150155Z AUTO 05007KT 10SM CLR 07/M01 A3024 680 60 -100 060/07 RMK AO2 T00671006
04850KAOH AOH20160414210010904/14/16 21:00:31  5-MIN KAOH 150200Z AUTO 05006KT 10SM CLR 06/M01 A3024 680 62 -100 050/06 RMK AO2 T00611006
04850KAOH AOH20160414210510904/14/16 21:05:31  5-MIN KAOH 150205Z AUTO 05006KT 10SM CLR 06/M01 A3024 680 62 -100 060/06 RMK AO2 T00611006
04850KAOH AOH20160414211010904/14/16 21:10:31  5-MIN KAOH 150210Z AUTO 05006KT 10SM CLR 06/M01 A3024 680 62 -100 060/06 RMK AO2 T00611006
04850KAOH AOH20160414211510904/14/16 21:15:31  5-MIN KAOH 150215Z AUTO 05006KT 10SM CLR 06/M01 A3024 680 62 -100 060/06 RMK AO2 T00611006
04850KAOH AOH20160414212010904/14/16 21:20:31  5-MIN KAOH 150220Z AUTO 05006KT 10SM CLR 06/M01 A3024 680 62 -100 050/06 RMK AO2 T00611006
04850KAOH AOH20160414212510904/14/16 21:25:31  5-MIN KAOH 150225Z AUTO 05006KT 10SM CLR 06/M01 A3024 680 62 -100 060/06 RMK AO2 T00611006
04850KAOH AOH20160414213010904/14/16 21:30:31  5-MIN KAOH 150230Z AUTO 05006KT 10SM CLR 06/M01 A3024 680 62 -100 060/06 RMK AO2 T00611006
04850KAOH AOH20160414213510904/14/16 21:35:31  5-MIN KAOH 150235Z AUTO 05006KT 10SM CLR 06/M01 A3024 680 65 -200 060/06 RMK AO2 T00561006
04850KAOH AOH20160414214010904/14/16 21:40:31  5-MIN KAOH 150240Z AUTO 05006KT 10SM CLR 06/M01 A3024 680 65 -200 060/06 RMK AO2 T00561006
04850KAOH AOH20160414214510904/14/16 21:45:31  5-MIN KAOH 150245Z AUTO 05005KT 10SM CLR 06/M01 A3024 680 65 -200 060/05 RMK AO2 T00561006
04850KAOH AOH20160414215012204/14/16 21:50:31  5-MIN KAOH 150250Z AUTO 05005KT 10SM CLR 06/M01 A3024 680 65 -200 060/05 RMK AO2 SLP245 T00561006 57004
04850KAOH AOH20160414215510904/14/16 21:55:31  5-MIN KAOH 150255Z AUTO 06006KT 10SM CLR 06/M01 A3024 680 62 -200 060/06 RMK AO2 T00561011
04850KAOH AOH20160414220010904/14/16 22:00:31  5-MIN KAOH 150300Z AUTO 05005KT 10SM CLR 05/M01 A3024 680 64 -300 060/05 RMK AO2 T00501011
04850KAOH AOH20160414220510904/14/16 22:05:31  5-MIN KAOH 150305Z AUTO 05006KT 10SM CLR 05/M01 A3024 680 64 -300 050/06 RMK AO2 T00501011
04850KAOH AOH20160414221010904/14/16 22:10:31  5-MIN KAOH 150310Z AUTO 05005KT 10SM CLR 05/M01 A3024 680 64 -300 050/05 RMK AO2 T00501011
04850KAOH AOH20160414221510904/14/16 22:15:31  5-MIN KAOH 150315Z AUTO 05006KT 10SM CLR 05/M01 A3024 680 64 -300 060/06 RMK AO2 T00501011
04850KAOH AOH20160414222010904/14/16 22:20:31  5-MIN KAOH 150320Z AUTO 05005KT 10SM CLR 05/M01 A3024 680 64 -300 060/05 RMK AO2 T00501011
04850KAOH AOH20160414222510904/14/16 22:25:31  5-MIN KAOH 150325Z AUTO 05006KT 10SM CLR 04/M01 A3024 680 67 -300 050/06 RMK AO2 T00441011
04850KAOH AOH20160414223010904/14/16 22:30:31  5-MIN KAOH 150330Z AUTO 04005KT 10SM CLR 05/M01 A3024 680 64 -300 050/05 RMK AO2 T00501011
04850KAOH AOH20160414223510904/14/16 22:35:31  5-MIN KAOH 150335Z AUTO 04005KT 10SM CLR 04/M01 A3024 680 67 -300 050/05 RMK AO2 T00441011
04850KAOH AOH20160414224010904/14/16 22:40:31  5-MIN KAOH 150340Z AUTO 04006KT 10SM CLR 04/M01 A3024 680 67 -300 050/06 RMK AO2 T00441011
04850KAOH AOH20160414224510904/14/16 22:45:31  5-MIN KAOH 150345Z AUTO 05005KT 10SM CLR 04/M01 A3024 680 67 -300 050/05 RMK AO2 T00441011
04850KAOH AOH20160414225011604/14/16 22:50:31  5-MIN KAOH 150350Z AUTO 05006KT 10SM CLR 04/M01 A3024 690 67 -300 050/06 RMK AO2 SLP243 T00441011
04850KAOH AOH20160414225510904/14/16 22:55:31  5-MIN KAOH 150355Z AUTO 05006KT 10SM CLR 04/M01 A3024 690 67 -300 050/06 RMK AO2 T00441011
04850KAOH AOH20160414230010904/14/16 23:00:31  5-MIN KAOH 150400Z AUTO 04006KT 10SM CLR 04/M01 A3024 690 67 -300 050/06 RMK AO2 T00441011
04850KAOH AOH20160414230510904/14/16 23:05:31  5-MIN KAOH 150405Z AUTO 04006KT 10SM CLR 04/M01 A3023 690 67 -300 050/06 RMK AO2 T00441011
04850KAOH AOH20160414231010904/14/16 23:10:31  5-MIN KAOH 150410Z AUTO 04006KT 10SM CLR 04/M01 A3023 690 67 -300 050/06 RMK AO2 T00441011
04850KAOH AOH20160414231510904/14/16 23:15:31  5-MIN KAOH 150415Z AUTO 04006KT 10SM CLR 04/M01 A3023 690 67 -300 050/06 RMK AO2 T00441011
04850KAOH AOH20160414232010904/14/16 23:20:31  5-MIN KAOH 150420Z AUTO 04005KT 10SM CLR 04/M01 A3023 690 67 -300 050/05 RMK AO2 T00441011
04850KAOH AOH20160414232510904/14/16 23:25:31  5-MIN KAOH 150425Z AUTO 04005KT 10SM CLR 04/M02 A3023 690 64 -300 050/05 RMK AO2 T00441017
04850KAOH AOH20160414233010904/14/16 23:30:31  5-MIN KAOH 150430Z AUTO 04005KT 10SM CLR 04/M01 A3023 690 70 -400 050/05 RMK AO2 T00391011
04850KAOH AOH20160414233510904/14/16 23:35:31  5-MIN KAOH 150435Z AUTO 04005KT 10SM CLR 04/M02 A3023 690 64 -300 050/05 RMK AO2 T00441017
04850KAOH AOH20160414234010904/14/16 23:40:31  5-MIN KAOH 150440Z AUTO 04005KT 10SM CLR 04/M02 A3023 690 67 -400 050/05 RMK AO2 T00391017
04850KAOH AOH20160414234510904/14/16 23:45:31  5-MIN KAOH 150445Z AUTO 04005KT 10SM CLR 04/M02 A3023 690 67 -400 050/05 RMK AO2 T00391017
04850KAOH AOH20160414235012604/14/16 23:50:31  5-MIN KAOH 150450Z AUTO 04006KT 10SM CLR 04/M02 A3023 690 67 -400 050/06 RMK AO2 SLP242 T00391017 401501006
04850KAOH AOH20160414235510904/14/16 23:55:31  5-MIN KAOH 150455Z AUTO 04005KT 10SM CLR 04/M02 A3023 690 67 -400 050/05 RMK AO2 T00391017
04850KAOH AOH20160415000010904/15/16 00:00:31  5-MIN KAOH 150500Z AUTO 04005KT 10SM CLR 04/M02 A3023 690 67 -400 050/05 RMK AO2 T00391017
04850KAOH AOH20160415000510904/15/16 00:05:31  5-MIN KAOH 150505Z AUTO 04005KT 10SM CLR 04/M02 A3023 690 67 -400 050/05 RMK AO2 T00391017
04850KAOH AOH20160415001010904/15/16 00:10:31  5-MIN KAOH 150510Z AUTO 04005KT 10SM CLR 04/M02 A3023 690 67 -400 040/05 RMK AO2 T00391017
04850KAOH AOH20160415001510904/15/16 00:15:31  5-MIN KAOH 150515Z AUTO 05004KT 10SM CLR 04/M02 A3023 690 67 -400 060/04 RMK AO2 T00391017
04850KAOH AOH20160415002010904/15/16 00:20:31  5-MIN KAOH 150520Z AUTO 05004KT 10SM CLR 04/M02 A3023 690 67 -400 050/04 RMK AO2 T00391017
04850KAOH AOH20160415002510904/15/16 00:25:31  5-MIN KAOH 150525Z AUTO 05005KT 10SM CLR 04/M02 A3023 690 67 -400 050/05 RMK AO2 T00391017
04850KAOH AOH20160415003010904/15/16 00:30:31  5-MIN KAOH 150530Z AUTO 05005KT 10SM CLR 04/M02 A3023 690 67 -400 050/05 RMK AO2 T00391017
04850KAOH AOH20160415003510904/15/16 00:35:31  5-MIN KAOH 150535Z AUTO 05005KT 10SM CLR 04/M02 A3023 690 67 -400 050/05 RMK AO2 T00391017
04850KAOH AOH20160415004010904/15/16 00:40:31  5-MIN KAOH 150540Z AUTO 04004KT 10SM CLR 03/M02 A3023 690 70 -500 050/04 RMK AO2 T00331017
04850KAOH AOH20160415004510904/15/16 00:45:31  5-MIN KAOH 150545Z AUTO 04005KT 10SM CLR 03/M02 A3023 700 70 -500 050/05 RMK AO2 T00331017
04850KAOH AOH20160415005013404/15/16 00:50:31  5-MIN KAOH 150550Z AUTO 04006KT 10SM CLR 03/M02 A3022 700 70 -500 050/06 RMK AO2 SLP239 T00331017 10106 20033 50008
04850KAOH AOH20160415005510904/15/16 00:55:31  5-MIN KAOH 150555Z AUTO 04006KT 10SM CLR 03/M02 A3022 700 70 -500 050/06 RMK AO2 T00331017
04850KAOH AOH20160415010010904/15/16 01:00:31  5-MIN KAOH 150600Z AUTO 05006KT 10SM CLR 03/M02 A3022 700 70 -500 050/06 RMK AO2 T00331017
04850KAOH AOH20160415010510904/15/16 01:05:31  5-MIN KAOH 150605Z AUTO 05006KT 10SM CLR 03/M02 A3022 700 70 -500 050/06 RMK AO2 T00331017
04850KAOH AOH20160415011010904/15/16 01:10:31  5-MIN KAOH 150610Z AUTO 05006KT 10SM CLR 03/M02 A3022 700 70 -500 050/06 RMK AO2 T00331017
04850KAOH AOH20160415011510904/15/16 01:15:31  5-MIN KAOH 150615Z AUTO 04005KT 10SM CLR 03/M02 A3022 700 70 -500 050/05 RMK AO2 T00331017
04850KAOH AOH20160415012010904/15/16 01:20:31  5-MIN KAOH 150620Z AUTO 05005KT 10SM CLR 03/M02 A3022 700 70 -500 060/05 RMK AO2 T00331017
04850KAOH AOH20160415012510904/15/16 01:25:31  5-MIN KAOH 150625Z AUTO 05005KT 10SM CLR 03/M02 A3022 700 70 -400 050/05 RMK AO2 T00331017
04850KAOH AOH20160415013010904/15/16 01:30:31  5-MIN KAOH 150630Z AUTO 05006KT 10SM CLR 03/M02 A3021 710 70 -400 060/06 RMK AO2 T00331017
04850KAOH AOH20160415013510904/15/16 01:35:31  5-MIN KAOH 150635Z AUTO 05006KT 10SM CLR 03/M02 A3021 710 70 -400 060/06 RMK AO2 T00331017
04850KAOH AOH20160415014010904/15/16 01:40:31  5-MIN KAOH 150640Z AUTO 05006KT 10SM CLR 03/M01 A3021 710 75 -500 060/06 RMK AO2 T00281011
04850KAOH AOH20160415014510904/15/16 01:45:31  5-MIN KAOH 150645Z AUTO 05006KT 10SM CLR 03/M01 A3021 710 72 -400 060/06 RMK AO2 T00331011
04850KAOH AOH20160415015011604/15/16 01:50:31  5-MIN KAOH 150650Z AUTO 05006KT 10SM CLR 03/M01 A3021 710 72 -400 060/06 RMK AO2 SLP232 T00331011
04850KAOH AOH20160415015510904/15/16 01:55:31  5-MIN KAOH 150655Z AUTO 05006KT 10SM CLR 03/M01 A3021 710 75 -500 060/06 RMK AO2 T00281011
04850KAOH AOH20160415020010904/15/16 02:00:31  5-MIN KAOH 150700Z AUTO 05008KT 10SM CLR 03/M01 A3021 710 72 -400 060/08 RMK AO2 T00331011
04850KAOH AOH20160415020510904/15/16 02:05:31  5-MIN KAOH 150705Z AUTO 05008KT 10SM CLR 03/M01 A3020 720 72 -400 060/08 RMK AO2 T00331011
04850KAOH AOH20160415021010904/15/16 02:10:31  5-MIN KAOH 150710Z AUTO 05009KT 10SM CLR 03/M01 A3020 720 72 -400 060/09 RMK AO2 T00331011
04850KAOH AOH20160415021510904/15/16 02:15:31  5-MIN KAOH 150715Z AUTO 05008KT 10SM CLR 03/M01 A3020 720 72 -400 060/08 RMK AO2 T00331011
04850KAOH AOH20160415022010904/15/16 02:20:31  5-MIN KAOH 150720Z AUTO 05008KT 10SM CLR 03/M01 A3020 720 72 -400 060/08 RMK AO2 T00331011
04850KAOH AOH20160415022510904/15/16 02:25:31  5-MIN KAOH 150725Z AUTO 05008KT 10SM CLR 03/M01 A3020 720 76 -400 060/08 RMK AO2 T00331006
04850KAOH AOH20160415023010904/15/16 02:30:31  5-MIN KAOH 150730Z AUTO 05008KT 10SM CLR 03/M01 A3020 720 76 -400 060/08 RMK AO2 T00331006
04850KAOH AOH20160415023510904/15/16 02:35:31  5-MIN KAOH 150735Z AUTO 06008KT 10SM CLR 03/M01 A3020 720 79 -500 060/08 RMK AO2 T00281006
04850KAOH AOH20160415024010904/15/16 02:40:31  5-MIN KAOH 150740Z AUTO 06009KT 10SM CLR 03/M01 A3020 720 79 -500 060/09 RMK AO2 T00281006
04850KAOH AOH20160415024510904/15/16 02:45:31  5-MIN KAOH 150745Z AUTO 06008KT 10SM CLR 03/M01 A3020 720 79 -500 060/08 RMK AO2 T00281006
04850KAOH AOH20160415025011604/15/16 02:50:31  5-MIN KAOH 150750Z AUTO 06008KT 10SM CLR 03/M01 A3019 720 79 -500 060/08 RMK AO2 SLP228 T00281006
04850KAOH AOH20160415025510904/15/16 02:55:31  5-MIN KAOH 150755Z AUTO 05008KT 10SM CLR 03/M01 A3019 720 79 -500 060/08 RMK AO2 T00281006
04850KAOH AOH20160415030010904/15/16 03:00:31  5-MIN KAOH 150800Z AUTO 05007KT 10SM CLR 03/M01 A3020 720 79 -500 060/07 RMK AO2 T00281006
04850KAOH AOH20160415030510904/15/16 03:05:31  5-MIN KAOH 150805Z AUTO 05007KT 10SM CLR 03/M01 A3020 720 79 -500 060/07 RMK AO2 T00281006
04850KAOH AOH20160415031010904/15/16 03:10:31  5-MIN KAOH 150810Z AUTO 05007KT 10SM CLR 03/M01 A3020 720 79 -500 060/07 RMK AO2 T00281006
04850KAOH AOH20160415031510904/15/16 03:15:31  5-MIN KAOH 150815Z AUTO 05007KT 10SM CLR 03/M01 A3020 720 79 -500 060/07 RMK AO2 T00281006
04850KAOH AOH20160415032010904/15/16 03:20:31  5-MIN KAOH 150820Z AUTO 04006KT 10SM CLR 03/M01 A3020 720 79 -500 050/06 RMK AO2 T00281006
04850KAOH AOH20160415032510904/15/16 03:25:31  5-MIN KAOH 150825Z AUTO 05007KT 10SM CLR 03/M01 A3020 720 79 -500 060/07 RMK AO2 T00281006
04850KAOH AOH20160415033010904/15/16 03:30:31  5-MIN KAOH 150830Z AUTO 05006KT 10SM CLR 03/M01 A3020 720 79 -500 060/06 RMK AO2 T00281006
04850KAOH AOH20160415033510904/15/16 03:35:31  5-MIN KAOH 150835Z AUTO 05006KT 10SM CLR 03/M01 A3020 720 79 -500 060/06 RMK AO2 T00281006
04850KAOH AOH20160415034010904/15/16 03:40:31  5-MIN KAOH 150840Z AUTO 05006KT 10SM CLR 03/M01 A3020 720 79 -500 060/06 RMK AO2 T00281006
04850KAOH AOH20160415034510904/15/16 03:45:31  5-MIN KAOH 150845Z AUTO 05006KT 10SM CLR 03/M01 A3020 720 79 -500 060/06 RMK AO2 T00281006
04850KAOH AOH20160415035012204/15/16 03:50:31  5-MIN KAOH 150850Z AUTO 05007KT 10SM CLR 03/M01 A3020 720 79 -500 060/07 RMK AO2 SLP231 T00281006 58006
04850KAOH AOH20160415035510904/15/16 03:55:31  5-MIN KAOH 150855Z AUTO 05007KT 10SM CLR 03/M01 A3020 720 79 -500 060/07 RMK AO2 T00281006
04850KAOH AOH20160415040010904/15/16 04:00:31  5-MIN KAOH 150900Z AUTO 06006KT 10SM CLR 03/M01 A3021 710 79 -500 060/06 RMK AO2 T00281006
04850KAOH AOH20160415040510904/15/16 04:05:31  5-MIN KAOH 150905Z AUTO 05007KT 10SM CLR 03/M01 A3021 710 79 -500 060/07 RMK AO2 T00281006
04850KAOH AOH20160415041010904/15/16 04:10:31  5-MIN KAOH 150910Z AUTO 05007KT 10SM CLR 03/M01 A3021 710 79 -500 060/07 RMK AO2 T00281006
04850KAOH AOH20160415041510904/15/16 04:15:31  5-MIN KAOH 150915Z AUTO 05006KT 10SM CLR 03/M01 A3021 710 79 -500 060/06 RMK AO2 T00281006
04850KAOH AOH20160415042010904/15/16 04:20:31  5-MIN KAOH 150920Z AUTO 05006KT 10SM CLR 02/M01 A3021 710 82 -600 060/06 RMK AO2 T00221006
04850KAOH AOH20160415042510904/15/16 04:25:31  5-MIN KAOH 150925Z AUTO 05006KT 10SM CLR 02/M01 A3021 710 82 -600 050/06 RMK AO2 T00221006
04850KAOH AOH20160415043010904/15/16 04:30:31  5-MIN KAOH 150930Z AUTO 05005KT 10SM CLR 02/M01 A3021 710 82 -600 060/05 RMK AO2 T00221006
04850KAOH AOH20160415043510904/15/16 04:35:31  5-MIN KAOH 150935Z AUTO 05005KT 10SM CLR 02/M01 A3021 710 82 -600 060/05 RMK AO2 T00221006
04850KAOH AOH20160415044010904/15/16 04:40:31  5-MIN KAOH 150940Z AUTO 05006KT 10SM CLR 02/M01 A3021 710 82 -600 050/06 RMK AO2 T00221006
04850KAOH AOH20160415044510904/15/16 04:45:31  5-MIN KAOH 150945Z AUTO 05005KT 10SM CLR 02/M01 A3021 710 82 -600 060/05 RMK AO2 T00221006
04850KAOH AOH20160415045011604/15/16 04:50:31  5-MIN KAOH 150950Z AUTO 05005KT 10SM CLR 02/M01 A3021 710 82 -600 060/05 RMK AO2 SLP233 T00221006
04850KAOH AOH20160415045510904/15/16 04:55:31  5-MIN KAOH 150955Z AUTO 06005KT 10SM CLR 02/M01 A3021 710 82 -600 060/05 RMK AO2 T00221006
04850KAOH AOH20160415050010904/15/16 05:00:31  5-MIN KAOH 151000Z AUTO 06005KT 10SM CLR 02/M01 A3021 710 82 -600 060/05 RMK AO2 T00221006
04850KAOH AOH20160415050510904/15/16 05:05:31  5-MIN KAOH 151005Z AUTO 05005KT 10SM CLR 02/M01 A3021 710 82 -600 060/05 RMK AO2 T00221006
04850KAOH AOH20160415051010904/15/16 05:10:31  5-MIN KAOH 151010Z AUTO 05004KT 10SM CLR 02/M01 A3021 710 82 -600 050/04 RMK AO2 T00221006
04850KAOH AOH20160415051510904/15/16 05:15:31  5-MIN KAOH 151015Z AUTO 05004KT 10SM CLR 02/M01 A3021 710 82 -600 060/04 RMK AO2 T00221006
04850KAOH AOH20160415052010904/15/16 05:20:31  5-MIN KAOH 151020Z AUTO 05005KT 10SM CLR 02/M01 A3021 710 82 -600 060/05 RMK AO2 T00221006
04850KAOH AOH20160415052510904/15/16 05:25:31  5-MIN KAOH 151025Z AUTO 05005KT 10SM CLR 02/M01 A3021 710 82 -600 050/05 RMK AO2 T00221006
04850KAOH AOH20160415053010904/15/16 05:30:31  5-MIN KAOH 151030Z AUTO 05005KT 10SM CLR 02/M01 A3021 710 82 -600 060/05 RMK AO2 T00221006
04850KAOH AOH20160415053510904/15/16 05:35:31  5-MIN KAOH 151035Z AUTO 06006KT 10SM CLR 02/M01 A3021 710 82 -600 060/06 RMK AO2 T00221006
04850KAOH AOH20160415054010904/15/16 05:40:31  5-MIN KAOH 151040Z AUTO 05006KT 10SM CLR 02/M01 A3022 700 82 -600 060/06 RMK AO2 T00221006
04850KAOH AOH20160415054510904/15/16 05:45:31  5-MIN KAOH 151045Z AUTO 06006KT 10SM CLR 02/M01 A3022 700 82 -600 060/06 RMK AO2 T00221006
04850KAOH AOH20160415055011604/15/16 05:50:31  5-MIN KAOH 151050Z AUTO 05006KT 10SM CLR 02/M01 A3022 700 82 -600 060/06 RMK AO2 SLP238 T00221006
04850KAOH AOH20160415055510904/15/16 05:55:31  5-MIN KAOH 151055Z AUTO 05006KT 10SM CLR 02/M01 A3022 700 82 -600 060/06 RMK AO2 T00221006
04850KAOH AOH20160415060010904/15/16 06:00:31  5-MIN KAOH 151100Z AUTO 05006KT 10SM CLR 02/M01 A3022 700 82 -600 060/06 RMK AO2 T00221006
04850KAOH AOH20160415060510904/15/16 06:05:31  5-MIN KAOH 151105Z AUTO 05005KT 10SM CLR 02/M01 A3022 700 82 -600 060/05 RMK AO2 T00221006
04850KAOH AOH20160415061010904/15/16 06:10:31  5-MIN KAOH 151110Z AUTO 05005KT 10SM CLR 02/M01 A3023 690 82 -600 060/05 RMK AO2 T00221006
04850KAOH AOH20160415061510904/15/16 06:15:31  5-MIN KAOH 151115Z AUTO 05006KT 10SM CLR 02/M01 A3023 690 82 -600 060/06 RMK AO2 T00221006
04850KAOH AOH20160415062010904/15/16 06:20:31  5-MIN KAOH 151120Z AUTO 05005KT 10SM CLR 02/M01 A3023 690 82 -600 060/05 RMK AO2 T00221006
04850KAOH AOH20160415062510804/15/16 06:25:31  5-MIN KAOH 151125Z AUTO 05006KT 10SM CLR 02/00 A3023 690 85 -600 060/06 RMK AO2 T00220000
04850KAOH AOH20160415063010804/15/16 06:30:31  5-MIN KAOH 151130Z AUTO 05006KT 10SM CLR 02/00 A3024 690 85 -600 060/06 RMK AO2 T00220000
04850KAOH AOH20160415063510804/15/16 06:35:31  5-MIN KAOH 151135Z AUTO 06005KT 10SM CLR 03/00 A3024 690 82 -500 060/05 RMK AO2 T00280000
04850KAOH AOH20160415064010804/15/16 06:40:31  5-MIN KAOH 151140Z AUTO 06005KT 10SM CLR 03/00 A3024 680 82 -500 060/05 RMK AO2 T00280000
04850KAOH AOH20160415064510804/15/16 06:45:31  5-MIN KAOH 151145Z AUTO 06006KT 10SM CLR 03/00 A3024 680 82 -500 060/06 RMK AO2 T00280000
04850KAOH AOH20160415065013304/15/16 06:50:31  5-MIN KAOH 151150Z AUTO 05006KT 10SM CLR 03/00 A3024 680 82 -500 060/06 RMK AO2 SLP245 T00280000 10033 20022 55006
04850KAOH AOH20160415065510804/15/16 06:55:31  5-MIN KAOH 151155Z AUTO 05005KT 10SM CLR 03/01 A3024 680 82 -500 060/05 RMK AO2 T00330006
04850KAOH AOH20160415070010804/15/16 07:00:31  5-MIN KAOH 151200Z AUTO 06007KT 10SM CLR 03/01 A3024 680 82 -500 070/07 RMK AO2 T00330006
04850KAOH AOH20160415070510804/15/16 07:05:31  5-MIN KAOH 151205Z AUTO 06005KT 10SM CLR 04/01 A3024 680 79 -400 070/05 RMK AO2 T00390006
04850KAOH AOH20160415071010804/15/16 07:10:31  5-MIN KAOH 151210Z AUTO 06006KT 10SM CLR 04/01 A3025 680 79 -400 070/06 RMK AO2 T00390006
04850KAOH AOH20160415071510804/15/16 07:15:31  5-MIN KAOH 151215Z AUTO 06006KT 10SM CLR 04/01 A3025 680 82 -400 070/06 RMK AO2 T00390011
04850KAOH AOH20160415072010804/15/16 07:20:31  5-MIN KAOH 151220Z AUTO 07007KT 10SM CLR 04/01 A3025 680 79 -300 070/07 RMK AO2 T00440011
04850KAOH AOH20160415072510804/15/16 07:25:31  5-MIN KAOH 151225Z AUTO 06006KT 10SM CLR 04/01 A3025 680 79 -300 070/06 RMK AO2 T00440011
04850KAOH AOH20160415073010804/15/16 07:30:31  5-MIN KAOH 151230Z AUTO 07007KT 10SM CLR 05/01 A3025 680 76 -300 070/07 RMK AO2 T00500011
04850KAOH AOH20160415073510804/15/16 07:35:31  5-MIN KAOH 151235Z AUTO 06007KT 10SM CLR 05/01 A3025 670 76 -300 070/07 RMK AO2 T00500011
04850KAOH AOH20160415074010804/15/16 07:40:31  5-MIN KAOH 151240Z AUTO 07008KT 10SM CLR 06/02 A3025 670 76 -200 080/08 RMK AO2 T00560017
04850KAOH AOH20160415074510804/15/16 07:45:31  5-MIN KAOH 151245Z AUTO 07007KT 10SM CLR 06/02 A3025 670 73 -100 080/07 RMK AO2 T00610017
04850KAOH AOH20160415075011504/15/16 07:50:31  5-MIN KAOH 151250Z AUTO 07007KT 10SM CLR 06/02 A3025 670 73 -100 070/07 RMK AO2 SLP248 T00610017
04850KAOH AOH20160415075510804/15/16 07:55:31  5-MIN KAOH 151255Z AUTO 06006KT 10SM CLR 07/02 A3025 670 70 -100 070/06 RMK AO2 T00670017
04850KAOH AOH20160415080010804/15/16 08:00:31  5-MIN KAOH 151300Z AUTO 06005KT 10SM CLR 07/02 A3025 670 73 -100 060/05 RMK AO2 T00670022
04850KAOH AOH20160415080510804/15/16 08:05:31  5-MIN KAOH 151305Z AUTO 06007KT 10SM CLR 07/02 A3025 670 73 -100 070/07 RMK AO2 T00670022
04850KAOH AOH20160415081010504/15/16 08:10:31  5-MIN KAOH 151310Z AUTO 05006KT 10SM CLR 07/02 A3025 670 70 0 060/06 RMK AO2 T00720022
04850KAOH AOH20160415081510504/15/16 08:15:31  5-MIN KAOH 151315Z AUTO 07005KT 10SM CLR 08/03 A3025 670 70 0 070/05 RMK AO2 T00780028
04850KAOH AOH20160415082010704/15/16 08:20:31  5-MIN KAOH 151320Z AUTO 06005KT 10SM CLR 08/03 A3025 670 68 100 070/05 RMK AO2 T00830028
04850KAOH AOH20160415082510704/15/16 08:25:31  5-MIN KAOH 151325Z AUTO 08006KT 10SM CLR 08/03 A3025 670 68 100 080/06 RMK AO2 T00830028
04850KAOH AOH20160415083010704/15/16 08:30:31  5-MIN KAOH 151330Z AUTO 05005KT 10SM CLR 09/03 A3025 670 65 100 060/05 RMK AO2 T00890028
04850KAOH AOH20160415083510704/15/16 08:35:31  5-MIN KAOH 151335Z AUTO 06005KT 10SM CLR 09/03 A3025 670 65 100 060/05 RMK AO2 T00890028
04850KAOH AOH20160415084010704/15/16 08:40:31  5-MIN KAOH 151340Z AUTO 06005KT 10SM CLR 09/03 A3025 670 65 100 070/05 RMK AO2 T00890028
04850KAOH AOH20160415084510704/15/16 08:45:31  5-MIN KAOH 151345Z AUTO 07006KT 10SM CLR 09/03 A3025 680 63 200 080/06 RMK AO2 T00940028
04850KAOH AOH20160415085011404/15/16 08:50:31  5-MIN KAOH 151350Z AUTO 07005KT 10SM CLR 10/03 A3025 680 63 300 080/05 RMK AO2 SLP247 T01000033
04850KAOH AOH20160415085510704/15/16 08:55:31  5-MIN KAOH 151355Z AUTO 07006KT 10SM CLR 11/03 A3025 680 61 300 080/06 RMK AO2 T01060033
04850KAOH AOH20160415090010704/15/16 09:00:31  5-MIN KAOH 151400Z AUTO 09006KT 10SM CLR 11/03 A3025 680 58 400 090/06 RMK AO2 T01110033
04850KAOH AOH20160415090510704/15/16 09:05:31  5-MIN KAOH 151405Z AUTO 09008KT 10SM CLR 11/03 A3025 680 58 400 100/08 RMK AO2 T01110033
04850KAOH AOH20160415091010704/15/16 09:10:31  5-MIN KAOH 151410Z AUTO 08006KT 10SM CLR 11/03 A3025 680 56 400 090/06 RMK AO2 T01110028
04850KAOH AOH20160415091510704/15/16 09:15:31  5-MIN KAOH 151415Z AUTO 07006KT 10SM CLR 12/03 A3025 670 56 500 080/06 RMK AO2 T01170033
04850KAOH AOH20160415092010704/15/16 09:20:31  5-MIN KAOH 151420Z AUTO 06006KT 10SM CLR 12/04 A3025 670 58 500 070/06 RMK AO2 T01170039
04850KAOH AOH20160415092510704/15/16 09:25:31  5-MIN KAOH 151425Z AUTO 07007KT 10SM CLR 12/04 A3025 670 56 500 080/07 RMK AO2 T01220039
04850KAOH AOH20160415093010704/15/16 09:30:31  5-MIN KAOH 151430Z AUTO 07006KT 10SM CLR 12/04 A3025 670 56 500 080/06 RMK AO2 T01220039
04850KAOH AOH20160415093510704/15/16 09:35:31  5-MIN KAOH 151435Z AUTO 06006KT 10SM CLR 13/04 A3025 670 56 600 070/06 RMK AO2 T01280044
04850KAOH AOH20160415094010704/15/16 09:40:31  5-MIN KAOH 151440Z AUTO 06005KT 10SM CLR 13/04 A3025 670 56 600 060/05 RMK AO2 T01280044
04850KAOH AOH20160415094510704/15/16 09:45:31  5-MIN KAOH 151445Z AUTO 07005KT 10SM CLR 13/04 A3025 670 56 600 080/05 RMK AO2 T01280044
04850KAOH AOH20160415095012004/15/16 09:50:31  5-MIN KAOH 151450Z AUTO 07005KT 10SM CLR 13/04 A3025 670 56 600 070/05 RMK AO2 SLP247 T01280044 53013
04850KAOH AOH20160415095510704/15/16 09:55:31  5-MIN KAOH 151455Z AUTO 06005KT 10SM CLR 13/05 A3025 670 57 700 070/05 RMK AO2 T01330050
04850KAOH AOH20160415100010704/15/16 10:00:31  5-MIN KAOH 151500Z AUTO 06005KT 10SM CLR 13/04 A3025 670 54 700 060/05 RMK AO2 T01330044
04850KAOH AOH20160415100510704/15/16 10:05:31  5-MIN KAOH 151505Z AUTO 08005KT 10SM CLR 14/04 A3025 670 52 700 090/05 RMK AO2 T01390044
04850KAOH AOH20160415101010704/15/16 10:10:31  5-MIN KAOH 151510Z AUTO 08006KT 10SM CLR 14/06 A3025 670 55 800 080/06 RMK AO2 T01440056
04850KAOH AOH20160415101510704/15/16 10:15:31  5-MIN KAOH 151515Z AUTO 07005KT 10SM CLR 14/05 A3025 670 53 800 080/05 RMK AO2 T01440050
04850KAOH AOH20160415102010704/15/16 10:20:31  5-MIN KAOH 151520Z AUTO 05004KT 10SM CLR 14/05 A3025 670 53 800 050/04 RMK AO2 T01440050
04850KAOH AOH20160415102510704/15/16 10:25:31  5-MIN KAOH 151525Z AUTO 07004KT 10SM CLR 15/05 A3025 670 51 900 080/04 RMK AO2 T01500050
04850KAOH AOH20160415103010704/15/16 10:30:31  5-MIN KAOH 151530Z AUTO VRB04KT 10SM CLR 15/06 A3026 670 53 900 VRB/04 RMK AO2 T01500056
04850KAOH AOH20160415103510704/15/16 10:35:31  5-MIN KAOH 151535Z AUTO VRB04KT 10SM CLR 15/05 A3026 670 51 900 VRB/04 RMK AO2 T01500050
04850KAOH AOH20160415104010704/15/16 10:40:31  5-MIN KAOH 151540Z AUTO VRB03KT 10SM CLR 15/05 A3026 670 51 900 VRB/03 RMK AO2 T01500050
04850KAOH AOH20160415104510704/15/16 10:45:31  5-MIN KAOH 151545Z AUTO 05004KT 10SM CLR 16/06 A3026 670 51 900 050/04 RMK AO2 T01560056
04850KAOH AOH20160415105011404/15/16 10:50:31  5-MIN KAOH 151550Z AUTO 06004KT 10SM CLR 16/06 A3026 670 51 900 060/04 RMK AO2 SLP248 T01560056
04850KAOH AOH20160415105510704/15/16 10:55:31  5-MIN KAOH 151555Z AUTO 06006KT 10SM CLR 16/06 A3026 670 51 900 070/06 RMK AO2 T01560056
04850KAOH AOH20160415110010804/15/16 11:00:31  5-MIN KAOH 151600Z AUTO 00000KT 10SM CLR 16/06 A3026 670 49 1000 000/00 RMK AO2 T01610056
04850KAOH AOH20160415110510804/15/16 11:05:31  5-MIN KAOH 151605Z AUTO 06005KT 10SM CLR 16/06 A3026 670 49 1000 060/05 RMK AO2 T01610056
04850KAOH AOH20160415111010804/15/16 11:10:31  5-MIN KAOH 151610Z AUTO 06005KT 10SM CLR 17/06 A3025 670 49 1100 070/05 RMK AO2 T01670061
04850KAOH AOH20160415111510804/15/16 11:15:31  5-MIN KAOH 151615Z AUTO 07005KT 10SM CLR 17/06 A3025 670 49 1100 080/05 RMK AO2 T01670061
04850KAOH AOH20160415112010804/15/16 11:20:31  5-MIN KAOH 151620Z AUTO 06007KT 10SM CLR 17/06 A3025 670 47 1100 060/07 RMK AO2 T01720061
04850KAOH AOH20160415112510804/15/16 11:25:31  5-MIN KAOH 151625Z AUTO 07005KT 10SM CLR 17/06 A3025 670 49 1100 080/05 RMK AO2 T01670061
04850KAOH AOH20160415113010804/15/16 11:30:31  5-MIN KAOH 151630Z AUTO 08004KT 10SM CLR 17/06 A3025 670 46 1100 090/04 RMK AO2 T01720056
04850KAOH AOH20160415113510804/15/16 11:35:31  5-MIN KAOH 151635Z AUTO 06008KT 10SM CLR 17/06 A3025 670 47 1100 060/08 RMK AO2 T01720061
04850KAOH AOH20160415114010804/15/16 11:40:31  5-MIN KAOH 151640Z AUTO 06007KT 10SM CLR 17/06 A3025 670 46 1100 060/07 RMK AO2 T01720056
04850KAOH AOH20160415114510804/15/16 11:45:31  5-MIN KAOH 151645Z AUTO 07006KT 10SM CLR 18/06 A3025 670 44 1200 080/06 RMK AO2 T01780056
04850KAOH AOH20160415115011504/15/16 11:50:31  5-MIN KAOH 151650Z AUTO 08006KT 10SM CLR 18/06 A3025 670 46 1200 080/06 RMK AO2 SLP246 T01780061
04850KAOH AOH20160415115510804/15/16 11:55:31  5-MIN KAOH 151655Z AUTO 06007KT 10SM CLR 18/06 A3025 680 44 1300 070/07 RMK AO2 T01830061
04850KAOH AOH20160415120010804/15/16 12:00:31  5-MIN KAOH 151700Z AUTO 05006KT 10SM CLR 18/07 A3025 680 46 1300 060/06 RMK AO2 T01830067
04850KAOH AOH20160415120510804/15/16 12:05:31  5-MIN KAOH 151705Z AUTO 07007KT 10SM CLR 18/06 A3025 680 44 1300 080/07 RMK AO2 T01830061
04850KAOH AOH20160415121010804/15/16 12:10:31  5-MIN KAOH 151710Z AUTO 06008KT 10SM CLR 18/07 A3025 680 46 1300 070/08 RMK AO2 T01830067
04850KAOH AOH20160415121510804/15/16 12:15:31  5-MIN KAOH 151715Z AUTO 07006KT 10SM CLR 19/06 A3024 680 43 1300 070/06 RMK AO2 T01890061
04850KAOH AOH20160415122010804/15/16 12:20:31  5-MIN KAOH 151720Z AUTO 07006KT 10SM CLR 19/07 A3024 680 44 1300 080/06 RMK AO2 T01890067
04850KAOH AOH20160415122510804/15/16 12:25:31  5-MIN KAOH 151725Z AUTO 06007KT 10SM CLR 19/07 A3024 680 46 1300 070/07 RMK AO2 T01890072
04850KAOH AOH20160415123011404/15/16 12:30:31  5-MIN KAOH 151730Z AUTO 07008G16KT 10SM CLR 19/07 A3024 680 44 1300 070/08G16 RMK AO2 T01890067
04850KAOH AOH20160415123511404/15/16 12:35:31  5-MIN KAOH 151735Z AUTO 08009G16KT 10SM CLR 19/07 A3024 680 43 1400 080/09G16 RMK AO2 T01940067
04850KAOH AOH20160415124010804/15/16 12:40:31  5-MIN KAOH 151740Z AUTO 07006KT 10SM CLR 19/06 A3024 680 41 1400 070/06 RMK AO2 T01940061
04850KAOH AOH20160415124510804/15/16 12:45:31  5-MIN KAOH 151745Z AUTO 06008KT 10SM CLR 19/06 A3024 680 41 1400 070/08 RMK AO2 T01940061
04850KAOH AOH20160415125013304/15/16 12:50:31  5-MIN KAOH 151750Z AUTO 07006KT 10SM CLR 19/07 A3024 680 43 1400 080/06 RMK AO2 SLP241 T01940067 10194 20033 51003
04850KAOH AOH20160415125510804/15/16 12:55:31  5-MIN KAOH 151755Z AUTO 06009KT 10SM CLR 20/07 A3024 680 43 1500 060/09 RMK AO2 T02000072
04850KAOH AOH20160415130010804/15/16 13:00:31  5-MIN KAOH 151800Z AUTO 06009KT 10SM CLR 19/07 A3024 680 43 1400 060/09 RMK AO2 T01940067
04850KAOH AOH20160415130510804/15/16 13:05:31  5-MIN KAOH 151805Z AUTO 10007KT 10SM CLR 20/07 A3024 680 41 1500 100/07 RMK AO2 T02000067
04850KAOH AOH20160415131010804/15/16 13:10:31  5-MIN KAOH 151810Z AUTO 07010KT 10SM CLR 20/07 A3024 690 41 1500 070/10 RMK AO2 T02000067
04850KAOH AOH20160415131510804/15/16 13:15:31  5-MIN KAOH 151815Z AUTO 07008KT 10SM CLR 20/06 A3024 690 40 1500 070/08 RMK AO2 T02000061
04850KAOH AOH20160415132010804/15/16 13:20:31  5-MIN KAOH 151820Z AUTO 07009KT 10SM CLR 20/07 A3023 690 41 1500 070/09 RMK AO2 T02000067
04850KAOH AOH20160415132510804/15/16 13:25:31  5-MIN KAOH 151825Z AUTO 06010KT 10SM CLR 20/06 A3023 690 40 1500 060/10 RMK AO2 T02000061
04850KAOH AOH20160415133010804/15/16 13:30:31  5-MIN KAOH 151830Z AUTO 06008KT 10SM CLR 20/07 A3023 690 41 1500 070/08 RMK AO2 T02000067
04850KAOH AOH20160415133510804/15/16 13:35:31  5-MIN KAOH 151835Z AUTO 11006KT 10SM CLR 21/07 A3023 690 40 1500 120/06 RMK AO2 T02060067
04850KAOH AOH20160415134010804/15/16 13:40:31  5-MIN KAOH 151840Z AUTO 06010KT 10SM CLR 21/07 A3023 690 40 1500 060/10 RMK AO2 T02060067
04850KAOH AOH20160415134510804/15/16 13:45:31  5-MIN KAOH 151845Z AUTO 08008KT 10SM CLR 21/06 A3023 690 38 1500 090/08 RMK AO2 T02060061
04850KAOH AOH20160415135012104/15/16 13:50:31  5-MIN KAOH 151850Z AUTO 07009G14KT 10SM CLR 21/06 A3023 690 38 1500 070/09G14 RMK AO2 SLP237 T02060061
04850KAOH AOH20160415135511404/15/16 13:55:31  5-MIN KAOH 151855Z AUTO 07007G14KT 10SM CLR 21/08 A3023 690 42 1600 080/07G14 RMK AO2 T02110078
04850KAOH AOH20160415140010804/15/16 14:00:31  5-MIN KAOH 151900Z AUTO 06008KT 10SM CLR 21/07 A3023 700 40 1500 070/08 RMK AO2 T02060067
04850KAOH AOH20160415140510804/15/16 14:05:31  5-MIN KAOH 151905Z AUTO 07008KT 10SM CLR 21/07 A3022 700 40 1500 080/08 RMK AO2 T02060067
04850KAOH AOH20160415141010804/15/16 14:10:31  5-MIN KAOH 151910Z AUTO 05010KT 10SM CLR 21/07 A3022 700 40 1600 060/10 RMK AO2 T02110072
04850KAOH AOH20160415141510804/15/16 14:15:31  5-MIN KAOH 151915Z AUTO 08010KT 10SM CLR 21/07 A3022 700 40 1600 090/10 RMK AO2 T02110072
04850KAOH AOH20160415142010804/15/16 14:20:31  5-MIN KAOH 151920Z AUTO 08006KT 10SM CLR 21/07 A3022 700 38 1600 090/06 RMK AO2 T02110067
04850KAOH AOH20160415142510804/15/16 14:25:31  5-MIN KAOH 151925Z AUTO 06008KT 10SM CLR 22/07 A3022 700 39 1700 070/08 RMK AO2 T02170072
04850KAOH AOH20160415143010804/15/16 14:30:31  5-MIN KAOH 151930Z AUTO 06006KT 10SM CLR 22/07 A3022 700 39 1700 070/06 RMK AO2 T02170072
04850KAOH AOH20160415143510804/15/16 14:35:31  5-MIN KAOH 151935Z AUTO 13009KT 10SM CLR 22/07 A3022 700 36 1700 140/09 RMK AO2 T02220067
04850KAOH AOH20160415144010804/15/16 14:40:31  5-MIN KAOH 151940Z AUTO 11006KT 10SM CLR 22/03 A3022 710 28 1700 120/06 RMK AO2 T02220033
04850KAOH AOH20160415144510804/15/16 14:45:31  5-MIN KAOH 151945Z AUTO 11006KT 10SM CLR 22/03 A3021 710 28 1700 110/06 RMK AO2 T02220033
04850KAOH AOH20160415145011504/15/16 14:50:31  5-MIN KAOH 151950Z AUTO 10007KT 10SM CLR 22/04 A3021 710 31 1700 100/07 RMK AO2 SLP232 T02170039
04850KAOH AOH20160415145510804/15/16 14:55:31  5-MIN KAOH 151955Z AUTO 09005KT 10SM CLR 22/04 A3021 710 30 1800 100/05 RMK AO2 T02220039
04850KAOH AOH20160415150010804/15/16 15:00:31  5-MIN KAOH 152000Z AUTO 09007KT 10SM CLR 22/04 A3021 710 31 1800 100/07 RMK AO2 T02220044
04850KAOH AOH20160415150510804/15/16 15:05:31  5-MIN KAOH 152005Z AUTO 09008KT 10SM CLR 22/05 A3021 710 32 1800 100/08 RMK AO2 T02220050
04850KAOH AOH20160415151010804/15/16 15:10:31  5-MIN KAOH 152010Z AUTO VRB05KT 10SM CLR 22/05 A3021 710 33 1700 VRB/05 RMK AO2 T02170050
04850KAOH AOH20160415151510804/15/16 15:15:31  5-MIN KAOH 152015Z AUTO VRB04KT 10SM CLR 22/05 A3021 710 33 1700 VRB/04 RMK AO2 T02170050
04850KAOH AOH20160415152012404/15/16 15:20:31  5-MIN KAOH 152020Z AUTO 10007KT 070V150 10SM CLR 23/05 A3021 710 31 1800 110/07 080V160 RMK AO2 T02280050
04850KAOH AOH20160415152511404/15/16 15:25:31  5-MIN KAOH 152025Z AUTO 10009G16KT 10SM CLR 22/04 A3021 710 31 1800 110/09G16 RMK AO2 T02220044
04850KAOH AOH20160415153011404/15/16 15:30:31  5-MIN KAOH 152030Z AUTO 08006G16KT 10SM CLR 22/04 A3021 710 31 1800 090/06G16 RMK AO2 T02220044
04850KAOH AOH20160415153510804/15/16 15:35:31  5-MIN KAOH 152035Z AUTO 10007KT 10SM CLR 23/04 A3021 710 30 1800 110/07 RMK AO2 T02280044
04850KAOH AOH20160415154010804/15/16 15:40:31  5-MIN KAOH 152040Z AUTO 13006KT 10SM CLR 22/04 A3021 710 30 1800 140/06 RMK AO2 T02220039
04850KAOH AOH20160415154510804/15/16 15:45:31  5-MIN KAOH 152045Z AUTO VRB04KT 10SM CLR 22/04 A3021 710 30 1800 VRB/04 RMK AO2 T02220039
04850KAOH AOH20160415155012104/15/16 15:50:31  5-MIN KAOH 152050Z AUTO VRB05KT 10SM CLR 22/04 A3021 710 31 1800 VRB/05 RMK AO2 SLP229 T02220044 58004
04850KAOH AOH20160415155510804/15/16 15:55:31  5-MIN KAOH 152055Z AUTO 10007KT 10SM CLR 22/04 A3020 720 31 1800 110/07 RMK AO2 T02220044
04850KAOH AOH20160415160010804/15/16 16:00:31  5-MIN KAOH 152100Z AUTO 10006KT 10SM CLR 22/05 A3021 710 32 1800 110/06 RMK AO2 T02220050
04850KAOH AOH20160415160510804/15/16 16:05:31  5-MIN KAOH 152105Z AUTO VRB04KT 10SM CLR 23/04 A3021 710 29 1800 VRB/04 RMK AO2 T02280039
04850KAOH AOH20160415161009804/15/16 16:10:31  5-MIN KAOH 152110Z AUTO 10SM CLR 23/03 A3021 710 27 1800 M /M RMK AO2 T02280033
04850KAOH AOH20160415161510804/15/16 16:15:31  5-MIN KAOH 152115Z AUTO 12006KT 10SM CLR 23/04 A3021 710 29 1800 130/06 RMK AO2 T02280039
04850KAOH AOH20160415162010804/15/16 16:20:31  5-MIN KAOH 152120Z AUTO VRB05KT 10SM CLR 23/03 A3021 710 26 1800 VRB/05 RMK AO2 T02280028
04850KAOH AOH20160415162510804/15/16 16:25:31  5-MIN KAOH 152125Z AUTO 13005KT 10SM CLR 23/03 A3021 710 26 1800 130/05 RMK AO2 T02280028
04850KAOH AOH20160415163010804/15/16 16:30:31  5-MIN KAOH 152130Z AUTO 15008KT 10SM CLR 23/03 A3021 710 26 1800 160/08 RMK AO2 T02280028
04850KAOH AOH20160415163510804/15/16 16:35:31  5-MIN KAOH 152135Z AUTO 12006KT 10SM CLR 22/02 A3021 710 25 1800 120/06 RMK AO2 T02220017
04850KAOH AOH20160415164010804/15/16 16:40:31  5-MIN KAOH 152140Z AUTO 12008KT 10SM CLR 23/03 A3021 710 27 1800 130/08 RMK AO2 T02280033
04850KAOH AOH20160415164510804/15/16 16:45:31  5-MIN KAOH 152145Z AUTO 12007KT 10SM CLR 23/03 A3021 710 27 1800 120/07 RMK AO2 T02280033
04850KAOH AOH20160415165011504/15/16 16:50:31  5-MIN KAOH 152150Z AUTO 08007KT 10SM CLR 22/04 A3021 710 30 1800 090/07 RMK AO2 SLP231 T02220039
04850KAOH AOH20160415165510804/15/16 16:55:31  5-MIN KAOH 152155Z AUTO 12007KT 10SM CLR 22/03 A3021 710 28 1800 120/07 RMK AO2 T02220033
04850KAOH AOH20160415170010804/15/16 17:00:31  5-MIN KAOH 152200Z AUTO 11005KT 10SM CLR 22/03 A3021 710 28 1800 110/05 RMK AO2 T02220033
04850KAOH AOH20160415170510804/15/16 17:05:31  5-MIN KAOH 152205Z AUTO 12004KT 10SM CLR 22/03 A3021 710 28 1800 120/04 RMK AO2 T02220033
04850KAOH AOH20160415171010804/15/16 17:10:31  5-MIN KAOH 152210Z AUTO 11003KT 10SM CLR 23/03 A3021 710 27 1800 120/03 RMK AO2 T02280033
04850KAOH AOH20160415171510804/15/16 17:15:31  5-MIN KAOH 152215Z AUTO 09005KT 10SM CLR 22/04 A3021 710 31 1800 100/05 RMK AO2 T02220044
04850KAOH AOH20160415172010804/15/16 17:20:31  5-MIN KAOH 152220Z AUTO 07007KT 10SM CLR 22/04 A3021 710 32 1700 080/07 RMK AO2 T02170044
04850KAOH AOH20160415172510804/15/16 17:25:31  5-MIN KAOH 152225Z AUTO 09006KT 10SM CLR 22/05 A3021 710 33 1700 100/06 RMK AO2 T02170050
04850KAOH AOH20160415173010804/15/16 17:30:31  5-MIN KAOH 152230Z AUTO 10006KT 10SM CLR 22/05 A3021 710 33 1700 110/06 RMK AO2 T02170050
04850KAOH AOH20160415173510804/15/16 17:35:31  5-MIN KAOH 152235Z AUTO 11006KT 10SM CLR 22/05 A3021 710 33 1700 110/06 RMK AO2 T02170050
04850KAOH AOH20160415174010804/15/16 17:40:31  5-MIN KAOH 152240Z AUTO 11006KT 10SM CLR 22/05 A3021 710 33 1700 120/06 RMK AO2 T02170050
04850KAOH AOH20160415174510804/15/16 17:45:31  5-MIN KAOH 152245Z AUTO 11004KT 10SM CLR 22/05 A3021 710 33 1700 110/04 RMK AO2 T02170050
04850KAOH AOH20160415175011504/15/16 17:50:31  5-MIN KAOH 152250Z AUTO 09006KT 10SM CLR 22/06 A3021 710 36 1700 090/06 RMK AO2 SLP231 T02170061
04850KAOH AOH20160415175510804/15/16 17:55:31  5-MIN KAOH 152255Z AUTO 10007KT 10SM CLR 21/04 A3021 710 33 1600 100/07 RMK AO2 T02110044
04850KAOH AOH20160415180010804/15/16 18:00:31  5-MIN KAOH 152300Z AUTO 10006KT 10SM CLR 21/05 A3021 710 34 1600 110/06 RMK AO2 T02110050
04850KAOH AOH20160415180510804/15/16 18:05:31  5-MIN KAOH 152305Z AUTO 12005KT 10SM CLR 21/05 A3021 710 34 1600 120/05 RMK AO2 T02110050
04850KAOH AOH20160415181010804/15/16 18:10:31  5-MIN KAOH 152310Z AUTO 11004KT 10SM CLR 21/06 A3021 710 36 1600 110/04 RMK AO2 T02110056
04850KAOH AOH20160415181510804/15/16 18:15:31  5-MIN KAOH 152315Z AUTO 10006KT 10SM CLR 21/06 A3021 710 37 1600 110/06 RMK AO2 T02060056
04850KAOH AOH20160415182010804/15/16 18:20:31  5-MIN KAOH 152320Z AUTO 10005KT 10SM CLR 21/04 A3021 710 34 1600 110/05 RMK AO2 T02060044
04850KAOH AOH20160415182510804/15/16 18:25:31  5-MIN KAOH 152325Z AUTO 10006KT 10SM CLR 20/06 A3021 710 38 1500 100/06 RMK AO2 T02000056
04850KAOH AOH20160415183010804/15/16 18:30:31  5-MIN KAOH 152330Z AUTO 06007KT 10SM CLR 19/07 A3021 710 44 1400 070/07 RMK AO2 T01890067
04850KAOH AOH20160415183510804/15/16 18:35:31  5-MIN KAOH 152335Z AUTO 06009KT 10SM CLR 19/07 A3021 710 46 1400 060/09 RMK AO2 T01890072
04850KAOH AOH20160415184010804/15/16 18:40:31  5-MIN KAOH 152340Z AUTO 05009KT 10SM CLR 19/08 A3021 710 48 1400 050/09 RMK AO2 T01890078
04850KAOH AOH20160415184510804/15/16 18:45:31  5-MIN KAOH 152345Z AUTO 04009KT 10SM CLR 18/08 A3021 710 50 1300 050/09 RMK AO2 T01830078
04850KAOH AOH20160415185013304/15/16 18:50:31  5-MIN KAOH 152350Z AUTO 05008KT 10SM CLR 18/08 A3021 710 50 1300 050/08 RMK AO2 SLP233 T01830078 10228 20183 56011
04850KAOH AOH20160415185510804/15/16 18:55:31  5-MIN KAOH 152355Z AUTO 05008KT 10SM CLR 18/08 A3021 710 51 1200 060/08 RMK AO2 T01780078
04850KAOH AOH20160415190010804/15/16 19:00:31  5-MIN KAOH 160000Z AUTO 04008KT 10SM CLR 18/08 A3021 710 51 1200 050/08 RMK AO2 T01780078
04850KAOH AOH20160415190510804/15/16 19:05:31  5-MIN KAOH 160005Z AUTO 05008KT 10SM CLR 17/07 A3022 710 51 1200 060/08 RMK AO2 T01720072
04850KAOH AOH20160415191010804/15/16 19:10:31  5-MIN KAOH 160010Z AUTO 05007KT 10SM CLR 17/07 A3022 710 51 1200 050/07 RMK AO2 T01720072
04850KAOH AOH20160415191510804/15/16 19:15:31  5-MIN KAOH 160015Z AUTO 05007KT 10SM CLR 17/07 A3022 700 51 1200 050/07 RMK AO2 T01720072
04850KAOH AOH20160415192010804/15/16 19:20:31  5-MIN KAOH 160020Z AUTO 04008KT 10SM CLR 17/07 A3022 700 53 1100 050/08 RMK AO2 T01670072
04850KAOH AOH20160415192510804/15/16 19:25:31  5-MIN KAOH 160025Z AUTO 04007KT 10SM CLR 16/07 A3022 700 55 1000 050/07 RMK AO2 T01610072
04850KAOH AOH20160415193010804/15/16 19:30:31  5-MIN KAOH 160030Z AUTO 04007KT 10SM CLR 16/07 A3022 700 55 1000 050/07 RMK AO2 T01610072
04850KAOH AOH20160415193510804/15/16 19:35:31  5-MIN KAOH 160035Z AUTO 05008KT 10SM CLR 16/07 A3022 700 53 1000 060/08 RMK AO2 T01610067
04850KAOH AOH20160415194010804/15/16 19:40:31  5-MIN KAOH 160040Z AUTO 05008KT 10SM CLR 16/07 A3023 700 55 1000 060/08 RMK AO2 T01560067
04850KAOH AOH20160415194510804/15/16 19:45:31  5-MIN KAOH 160045Z AUTO 05007KT 10SM CLR 16/07 A3023 690 55 1000 060/07 RMK AO2 T01560067
04850KAOH AOH20160415195011504/15/16 19:50:31  5-MIN KAOH 160050Z AUTO 04006KT 10SM CLR 16/07 A3023 690 55 1000 050/06 RMK AO2 SLP239 T01560067
04850KAOH AOH20160415195510704/15/16 19:55:31  5-MIN KAOH 160055Z AUTO 04008KT 10SM CLR 15/07 A3023 690 57 900 050/08 RMK AO2 T01500067
04850KAOH AOH20160415200010704/15/16 20:00:31  5-MIN KAOH 160100Z AUTO 05007KT 10SM CLR 15/06 A3023 690 55 900 050/07 RMK AO2 T01500061
04850KAOH AOH20160415200510704/15/16 20:05:31  5-MIN KAOH 160105Z AUTO 05008KT 10SM CLR 15/06 A3023 690 55 900 050/08 RMK AO2 T01500061
04850KAOH AOH20160415201010704/15/16 20:10:31  5-MIN KAOH 160110Z AUTO 05007KT 10SM CLR 15/06 A3024 690 55 900 050/07 RMK AO2 T01500061
04850KAOH AOH20160415201510704/15/16 20:15:31  5-MIN KAOH 160115Z AUTO 05008KT 10SM CLR 15/06 A3024 690 53 900 060/08 RMK AO2 T01500056
04850KAOH AOH20160415202010704/15/16 20:20:31  5-MIN KAOH 160120Z AUTO 05008KT 10SM CLR 14/06 A3024 690 55 800 060/08 RMK AO2 T01440056
04850KAOH AOH20160415202510704/15/16 20:25:31  5-MIN KAOH 160125Z AUTO 05008KT 10SM CLR 14/06 A3024 680 55 800 060/08 RMK AO2 T01440056
04850KAOH AOH20160415203010704/15/16 20:30:31  5-MIN KAOH 160130Z AUTO 05006KT 10SM CLR 14/06 A3024 680 55 800 060/06 RMK AO2 T01440056
04850KAOH AOH20160415203510704/15/16 20:35:31  5-MIN KAOH 160135Z AUTO 05006KT 10SM CLR 14/06 A3024 680 57 700 060/06 RMK AO2 T01390056
04850KAOH AOH20160415204010704/15/16 20:40:31  5-MIN KAOH 160140Z AUTO 05007KT 10SM CLR 14/06 A3024 680 57 700 050/07 RMK AO2 T01390056
04850KAOH AOH20160415204510704/15/16 20:45:31  5-MIN KAOH 160145Z AUTO 05008KT 10SM CLR 14/06 A3025 680 57 700 060/08 RMK AO2 T01390056
04850KAOH AOH20160415205011404/15/16 20:50:31  5-MIN KAOH 160150Z AUTO 06008KT 10SM CLR 14/05 A3025 680 55 700 060/08 RMK AO2 SLP244 T01390050
04850KAOH AOH20160415205510704/15/16 20:55:31  5-MIN KAOH 160155Z AUTO 06008KT 10SM CLR 13/05 A3025 680 57 700 070/08 RMK AO2 T01330050
04850KAOH AOH20160415210010704/15/16 21:00:31  5-MIN KAOH 160200Z AUTO 06006KT 10SM CLR 13/06 A3025 670 61 600 070/06 RMK AO2 T01280056
04850KAOH AOH20160415210510704/15/16 21:05:31  5-MIN KAOH 160205Z AUTO 07006KT 10SM CLR 13/06 A3025 670 61 600 070/06 RMK AO2 T01280056
04850KAOH AOH20160415211010704/15/16 21:10:31  5-MIN KAOH 160210Z AUTO 06006KT 10SM CLR 12/06 A3025 670 63 500 070/06 RMK AO2 T01220056
04850KAOH AOH20160415211510704/15/16 21:15:31  5-MIN KAOH 160215Z AUTO 06007KT 10SM CLR 12/06 A3025 670 63 500 070/07 RMK AO2 T01220056
04850KAOH AOH20160415212010704/15/16 21:20:31  5-MIN KAOH 160220Z AUTO 06006KT 10SM CLR 12/05 A3025 670 63 500 070/06 RMK AO2 T01170050
04850KAOH AOH20160415212510704/15/16 21:25:31  5-MIN KAOH 160225Z AUTO 06006KT 10SM CLR 12/05 A3025 670 63 500 070/06 RMK AO2 T01170050
04850KAOH AOH20160415213010704/15/16 21:30:31  5-MIN KAOH 160230Z AUTO 07007KT 10SM CLR 12/05 A3025 670 63 500 070/07 RMK AO2 T01170050
04850KAOH AOH20160415213510704/15/16 21:35:31  5-MIN KAOH 160235Z AUTO 06007KT 10SM CLR 12/05 A3025 670 63 500 070/07 RMK AO2 T01170050
04850KAOH AOH20160415214010704/15/16 21:40:31  5-MIN KAOH 160240Z AUTO 07006KT 10SM CLR 12/05 A3026 670 63 500 070/06 RMK AO2 T01170050
04850KAOH AOH20160415214510704/15/16 21:45:31  5-MIN KAOH 160245Z AUTO 07007KT 10SM CLR 11/05 A3026 670 66 400 070/07 RMK AO2 T01110050
04850KAOH AOH20160415215012004/15/16 21:50:31  5-MIN KAOH 160250Z AUTO 07007KT 10SM CLR 11/05 A3026 670 68 300 080/07 RMK AO2 SLP247 T01060050 53002
04850KAOH AOH20160415215510704/15/16 21:55:31  5-MIN KAOH 160255Z AUTO 07008KT 10SM CLR 11/05 A3025 670 68 300 080/08 RMK AO2 T01060050
04850KAOH AOH20160415220010704/15/16 22:00:31  5-MIN KAOH 160300Z AUTO 07008KT 10SM CLR 11/05 A3026 670 68 300 080/08 RMK AO2 T01060050
04850KAOH AOH20160415220510704/15/16 22:05:31  5-MIN KAOH 160305Z AUTO 07008KT 10SM CLR 11/05 A3026 670 68 300 080/08 RMK AO2 T01060050
04850KAOH AOH20160415221010704/15/16 22:10:31  5-MIN KAOH 160310Z AUTO 07008KT 10SM CLR 11/05 A3025 670 68 300 080/08 RMK AO2 T01060050
04850KAOH AOH20160415221510704/15/16 22:15:31  5-MIN KAOH 160315Z AUTO 07008KT 10SM CLR 11/05 A3025 670 68 300 070/08 RMK AO2 T01060050
04850KAOH AOH20160415222010704/15/16 22:20:31  5-MIN KAOH 160320Z AUTO 07007KT 10SM CLR 11/04 A3026 670 66 300 070/07 RMK AO2 T01060044
04850KAOH AOH20160415222510704/15/16 22:25:31  5-MIN KAOH 160325Z AUTO 07007KT 10SM CLR 11/04 A3026 670 66 300 070/07 RMK AO2 T01060044
04850KAOH AOH20160415223010704/15/16 22:30:31  5-MIN KAOH 160330Z AUTO 07007KT 10SM CLR 11/04 A3026 670 66 300 080/07 RMK AO2 T01060044
04850KAOH AOH20160415223510704/15/16 22:35:31  5-MIN KAOH 160335Z AUTO 08008KT 10SM CLR 11/05 A3026 670 68 300 080/08 RMK AO2 T01060050
04850KAOH AOH20160415224010704/15/16 22:40:31  5-MIN KAOH 160340Z AUTO 08008KT 10SM CLR 10/05 A3026 670 71 300 080/08 RMK AO2 T01000050
04850KAOH AOH20160415224510704/15/16 22:45:31  5-MIN KAOH 160345Z AUTO 08008KT 10SM CLR 10/05 A3026 670 71 300 080/08 RMK AO2 T01000050
04850KAOH AOH20160415225011404/15/16 22:50:31  5-MIN KAOH 160350Z AUTO 08007KT 10SM CLR 10/05 A3026 670 71 300 090/07 RMK AO2 SLP246 T01000050
04850KAOH AOH20160415225510704/15/16 22:55:31  5-MIN KAOH 160355Z AUTO 09008KT 10SM CLR 10/05 A3026 670 71 300 090/08 RMK AO2 T01000050
04850KAOH AOH20160415230010704/15/16 23:00:31  5-MIN KAOH 160400Z AUTO 09009KT 10SM CLR 11/05 A3026 670 68 300 100/09 RMK AO2 T01060050
04850KAOH AOH20160415230510704/15/16 23:05:31  5-MIN KAOH 160405Z AUTO 09010KT 10SM CLR 11/05 A3026 670 68 300 100/10 RMK AO2 T01060050
04850KAOH AOH20160415231010704/15/16 23:10:31  5-MIN KAOH 160410Z AUTO 09010KT 10SM CLR 11/05 A3025 670 68 300 100/10 RMK AO2 T01060050
04850KAOH AOH20160415231510704/15/16 23:15:31  5-MIN KAOH 160415Z AUTO 09009KT 10SM CLR 11/05 A3025 670 68 300 100/09 RMK AO2 T01060050
04850KAOH AOH20160415232010704/15/16 23:20:31  5-MIN KAOH 160420Z AUTO 09008KT 10SM CLR 11/05 A3025 670 68 300 090/08 RMK AO2 T01060050
04850KAOH AOH20160415232510704/15/16 23:25:31  5-MIN KAOH 160425Z AUTO 08008KT 10SM CLR 10/05 A3025 670 71 300 090/08 RMK AO2 T01000050
04850KAOH AOH20160415233010704/15/16 23:30:31  5-MIN KAOH 160430Z AUTO 08008KT 10SM CLR 10/05 A3025 670 71 300 090/08 RMK AO2 T01000050
04850KAOH AOH20160415233510704/15/16 23:35:31  5-MIN KAOH 160435Z AUTO 09008KT 10SM CLR 10/05 A3025 670 71 300 090/08 RMK AO2 T01000050
04850KAOH AOH20160415234010704/15/16 23:40:31  5-MIN KAOH 160440Z AUTO 09009KT 10SM CLR 10/05 A3025 670 71 300 090/09 RMK AO2 T01000050
04850KAOH AOH20160415234510704/15/16 23:45:31  5-MIN KAOH 160445Z AUTO 09009KT 10SM CLR 10/05 A3025 670 71 300 100/09 RMK AO2 T01000050
04850KAOH AOH20160415235012404/15/16 23:50:31  5-MIN KAOH 160450Z AUTO 09009KT 10SM CLR 10/05 A3025 670 71 300 100/09 RMK AO2 SLP245 T01000050 402280022
04850KAOH AOH20160415235510704/15/16 23:55:31  5-MIN KAOH 160455Z AUTO 10008KT 10SM CLR 10/05 A3025 670 71 300 100/08 RMK AO2 T01000050
04850KAOH AOH20160416000010704/16/16 00:00:31  5-MIN KAOH 160500Z AUTO 09008KT 10SM CLR 10/05 A3026 670 71 300 100/08 RMK AO2 T01000050
04850KAOH AOH20160416000510704/16/16 00:05:31  5-MIN KAOH 160505Z AUTO 09008KT 10SM CLR 10/05 A3026 670 71 300 100/08 RMK AO2 T01000050
04850KAOH AOH20160416001010704/16/16 00:10:31  5-MIN KAOH 160510Z AUTO 09009KT 10SM CLR 09/05 A3026 670 74 200 100/09 RMK AO2 T00940050
04850KAOH AOH20160416001510704/16/16 00:15:31  5-MIN KAOH 160515Z AUTO 09009KT 10SM CLR 10/05 A3026 670 71 300 100/09 RMK AO2 T01000050
04850KAOH AOH20160416002010704/16/16 00:20:31  5-MIN KAOH 160520Z AUTO 09009KT 10SM CLR 10/05 A3026 670 71 300 100/09 RMK AO2 T01000050
04850KAOH AOH20160416002510704/16/16 00:25:31  5-MIN KAOH 160525Z AUTO 09009KT 10SM CLR 10/05 A3026 670 71 300 100/09 RMK AO2 T01000050
04850KAOH AOH20160416003010704/16/16 00:30:31  5-MIN KAOH 160530Z AUTO 10009KT 10SM CLR 10/05 A3026 670 71 300 100/09 RMK AO2 T01000050
04850KAOH AOH20160416003510704/16/16 00:35:31  5-MIN KAOH 160535Z AUTO 10008KT 10SM CLR 10/05 A3026 670 71 300 100/08 RMK AO2 T01000050
04850KAOH AOH20160416004010704/16/16 00:40:31  5-MIN KAOH 160540Z AUTO 10007KT 10SM CLR 10/05 A3026 670 71 300 110/07 RMK AO2 T01000050
04850KAOH AOH20160416004510704/16/16 00:45:31  5-MIN KAOH 160545Z AUTO 10006KT 10SM CLR 10/05 A3026 670 71 300 110/06 RMK AO2 T01000050
04850KAOH AOH20160416005013204/16/16 00:50:31  5-MIN KAOH 160550Z AUTO 10006KT 10SM CLR 11/04 A3026 670 66 300 110/06 RMK AO2 SLP246 T01060044 10178 20094 51014
04850KAOH AOH20160416005510704/16/16 00:55:31  5-MIN KAOH 160555Z AUTO 11006KT 10SM CLR 10/05 A3026 670 71 300 110/06 RMK AO2 T01000050
04850KAOH AOH20160416010010704/16/16 01:00:31  5-MIN KAOH 160600Z AUTO 11006KT 10SM CLR 10/05 A3026 670 71 300 110/06 RMK AO2 T01000050
04850KAOH AOH20160416010510704/16/16 01:05:31  5-MIN KAOH 160605Z AUTO 11006KT 10SM CLR 10/05 A3026 670 71 300 110/06 RMK AO2 T01000050
04850KAOH AOH20160416011010704/16/16 01:10:31  5-MIN KAOH 160610Z AUTO 11007KT 10SM CLR 10/04 A3026 670 68 300 110/07 RMK AO2 T01000044
04850KAOH AOH20160416011510704/16/16 01:15:31  5-MIN KAOH 160615Z AUTO 11007KT 10SM CLR 10/04 A3025 670 68 300 120/07 RMK AO2 T01000044
04850KAOH AOH20160416012010704/16/16 01:20:31  5-MIN KAOH 160620Z AUTO 11007KT 10SM CLR 10/04 A3025 670 68 300 110/07 RMK AO2 T01000044
04850KAOH AOH20160416012510704/16/16 01:25:31  5-MIN KAOH 160625Z AUTO 11007KT 10SM CLR 10/04 A3025 670 68 300 110/07 RMK AO2 T01000044
04850KAOH AOH20160416013010704/16/16 01:30:31  5-MIN KAOH 160630Z AUTO 11007KT 10SM CLR 10/04 A3025 670 68 300 110/07 RMK AO2 T01000044
04850KAOH AOH20160416013510704/16/16 01:35:31  5-MIN KAOH 160635Z AUTO 11007KT 10SM CLR 10/04 A3025 670 68 300 110/07 RMK AO2 T01000044
04850KAOH AOH20160416014010704/16/16 01:40:31  5-MIN KAOH 160640Z AUTO 11007KT 10SM CLR 10/04 A3025 670 68 300 110/07 RMK AO2 T01000044
04850KAOH AOH20160416014510704/16/16 01:45:31  5-MIN KAOH 160645Z AUTO 11007KT 10SM CLR 10/04 A3025 670 68 300 110/07 RMK AO2 T01000044
04850KAOH AOH20160416015011404/16/16 01:50:31  5-MIN KAOH 160650Z AUTO 11007KT 10SM CLR 10/04 A3025 670 68 300 110/07 RMK AO2 SLP243 T01000044
04850KAOH AOH20160416015510704/16/16 01:55:31  5-MIN KAOH 160655Z AUTO 11006KT 10SM CLR 10/04 A3025 670 68 300 110/06 RMK AO2 T01000044
04850KAOH AOH20160416020010704/16/16 02:00:31  5-MIN KAOH 160700Z AUTO 11007KT 10SM CLR 10/04 A3025 670 68 300 110/07 RMK AO2 T01000044
04850KAOH AOH20160416020510704/16/16 02:05:31  5-MIN KAOH 160705Z AUTO 11007KT 10SM CLR 10/04 A3025 670 68 300 110/07 RMK AO2 T01000044
04850KAOH AOH20160416021010704/16/16 02:10:31  5-MIN KAOH 160710Z AUTO 11007KT 10SM CLR 10/04 A3025 670 68 300 110/07 RMK AO2 T01000044
04850KAOH AOH20160416021510704/16/16 02:15:31  5-MIN KAOH 160715Z AUTO 11006KT 10SM CLR 10/04 A3025 670 68 300 110/06 RMK AO2 T01000044
04850KAOH AOH20160416022010704/16/16 02:20:31  5-MIN KAOH 160720Z AUTO 10007KT 10SM CLR 09/04 A3025 670 71 200 110/07 RMK AO2 T00940044
04850KAOH AOH20160416022510704/16/16 02:25:31  5-MIN KAOH 160725Z AUTO 11006KT 10SM CLR 09/04 A3025 670 71 200 110/06 RMK AO2 T00940044
04850KAOH AOH20160416023010704/16/16 02:30:31  5-MIN KAOH 160730Z AUTO 11006KT 10SM CLR 09/04 A3026 670 71 200 110/06 RMK AO2 T00940044
04850KAOH AOH20160416023510704/16/16 02:35:31  5-MIN KAOH 160735Z AUTO 11006KT 10SM CLR 09/04 A3026 670 71 200 110/06 RMK AO2 T00940044
04850KAOH AOH20160416024010704/16/16 02:40:31  5-MIN KAOH 160740Z AUTO 11007KT 10SM CLR 09/04 A3026 670 71 200 120/07 RMK AO2 T00940044
04850KAOH AOH20160416024510704/16/16 02:45:31  5-MIN KAOH 160745Z AUTO 11007KT 10SM CLR 09/04 A3026 670 68 200 120/07 RMK AO2 T00940039
04850KAOH AOH20160416025011404/16/16 02:50:31  5-MIN KAOH 160750Z AUTO 11007KT 10SM CLR 09/04 A3026 670 68 200 110/07 RMK AO2 SLP244 T00940039
04850KAOH AOH20160416025510704/16/16 02:55:31  5-MIN KAOH 160755Z AUTO 11007KT 10SM CLR 09/04 A3026 670 68 200 110/07 RMK AO2 T00940039
04850KAOH AOH20160416030010704/16/16 03:00:31  5-MIN KAOH 160800Z AUTO 11008KT 10SM CLR 09/04 A3026 670 68 200 120/08 RMK AO2 T00940039
04850KAOH AOH20160416030510704/16/16 03:05:31  5-MIN KAOH 160805Z AUTO 11008KT 10SM CLR 10/04 A3026 670 65 300 120/08 RMK AO2 T01000039
04850KAOH AOH20160416031010704/16/16 03:10:31  5-MIN KAOH 160810Z AUTO 12008KT 10SM CLR 09/04 A3026 670 68 200 120/08 RMK AO2 T00940039
04850KAOH AOH20160416031510704/16/16 03:15:31  5-MIN KAOH 160815Z AUTO 12008KT 10SM CLR 09/04 A3026 660 68 200 120/08 RMK AO2 T00940039
04850KAOH AOH20160416032010704/16/16 03:20:31  5-MIN KAOH 160820Z AUTO 11008KT 10SM CLR 09/04 A3026 660 68 200 120/08 RMK AO2 T00940039
04850KAOH AOH20160416032510704/16/16 03:25:31  5-MIN KAOH 160825Z AUTO 11008KT 10SM CLR 10/04 A3026 660 65 300 120/08 RMK AO2 T01000039
04850KAOH AOH20160416033010704/16/16 03:30:31  5-MIN KAOH 160830Z AUTO 11008KT 10SM CLR 09/04 A3026 660 68 200 120/08 RMK AO2 T00940039
04850KAOH AOH20160416033510704/16/16 03:35:31  5-MIN KAOH 160835Z AUTO 12009KT 10SM CLR 10/04 A3026 660 65 300 120/09 RMK AO2 T01000039
04850KAOH AOH20160416034010704/16/16 03:40:31  5-MIN KAOH 160840Z AUTO 11009KT 10SM CLR 10/04 A3026 660 65 300 120/09 RMK AO2 T01000039
04850KAOH AOH20160416034510704/16/16 03:45:31  5-MIN KAOH 160845Z AUTO 12009KT 10SM CLR 10/04 A3026 660 65 300 120/09 RMK AO2 T01000039
04850KAOH AOH20160416035012004/16/16 03:50:31  5-MIN KAOH 160850Z AUTO 11008KT 10SM CLR 10/04 A3026 660 65 300 120/08 RMK AO2 SLP247 T01000039 53001
04850KAOH AOH20160416035510704/16/16 03:55:31  5-MIN KAOH 160855Z AUTO 11008KT 10SM CLR 10/04 A3027 660 65 300 120/08 RMK AO2 T01000039
04850KAOH AOH20160416040010704/16/16 04:00:31  5-MIN KAOH 160900Z AUTO 11007KT 10SM CLR 10/04 A3027 660 65 300 110/07 RMK AO2 T01000039
04850KAOH AOH20160416040510704/16/16 04:05:31  5-MIN KAOH 160905Z AUTO 11008KT 10SM CLR 10/03 A3027 660 63 300 120/08 RMK AO2 T01000033
04850KAOH AOH20160416041010704/16/16 04:10:31  5-MIN KAOH 160910Z AUTO 11009KT 10SM CLR 10/03 A3027 650 63 300 120/09 RMK AO2 T01000033
04850KAOH AOH20160416041510704/16/16 04:15:31  5-MIN KAOH 160915Z AUTO 11008KT 10SM CLR 10/03 A3027 650 63 300 120/08 RMK AO2 T01000033
04850KAOH AOH20160416042010704/16/16 04:20:31  5-MIN KAOH 160920Z AUTO 11008KT 10SM CLR 10/03 A3027 650 63 300 120/08 RMK AO2 T01000033
04850KAOH AOH20160416042510704/16/16 04:25:31  5-MIN KAOH 160925Z AUTO 12009KT 10SM CLR 10/03 A3027 650 63 200 120/09 RMK AO2 T01000033
04850KAOH AOH20160416043010704/16/16 04:30:31  5-MIN KAOH 160930Z AUTO 12008KT 10SM CLR 09/03 A3027 650 65 200 130/08 RMK AO2 T00940033
04850KAOH AOH20160416043510704/16/16 04:35:31  5-MIN KAOH 160935Z AUTO 13008KT 10SM CLR 09/03 A3027 650 65 200 130/08 RMK AO2 T00940033
04850KAOH AOH20160416044010704/16/16 04:40:31  5-MIN KAOH 160940Z AUTO 13009KT 10SM CLR 09/03 A3028 650 65 200 140/09 RMK AO2 T00940033
04850KAOH AOH20160416044510704/16/16 04:45:31  5-MIN KAOH 160945Z AUTO 13009KT 10SM CLR 10/03 A3028 650 63 200 140/09 RMK AO2 T01000033
04850KAOH AOH20160416045011404/16/16 04:50:31  5-MIN KAOH 160950Z AUTO 13009KT 10SM CLR 10/03 A3028 650 63 200 130/09 RMK AO2 SLP252 T01000033
04850KAOH AOH20160416045510704/16/16 04:55:31  5-MIN KAOH 160955Z AUTO 12008KT 10SM CLR 09/03 A3028 650 65 200 130/08 RMK AO2 T00940033
04850KAOH AOH20160416050010704/16/16 05:00:31  5-MIN KAOH 161000Z AUTO 13008KT 10SM CLR 09/03 A3028 640 68 100 130/08 RMK AO2 T00890033
04850KAOH AOH20160416050510704/16/16 05:05:31  5-MIN KAOH 161005Z AUTO 13008KT 10SM CLR 09/03 A3028 640 68 100 130/08 RMK AO2 T00890033
04850KAOH AOH20160416051010704/16/16 05:10:31  5-MIN KAOH 161010Z AUTO 13010KT 10SM CLR 09/03 A3029 640 68 100 130/10 RMK AO2 T00890033
04850KAOH AOH20160416051510704/16/16 05:15:31  5-MIN KAOH 161015Z AUTO 12009KT 10SM CLR 10/03 A3029 640 63 200 120/09 RMK AO2 T01000033
04850KAOH AOH20160416052010704/16/16 05:20:31  5-MIN KAOH 161020Z AUTO 12008KT 10SM CLR 09/03 A3029 640 65 200 130/08 RMK AO2 T00940033
04850KAOH AOH20160416052510704/16/16 05:25:31  5-MIN KAOH 161025Z AUTO 12008KT 10SM CLR 09/03 A3029 640 65 200 130/08 RMK AO2 T00940033
04850KAOH AOH20160416053010704/16/16 05:30:31  5-MIN KAOH 161030Z AUTO 12008KT 10SM CLR 09/03 A3029 630 68 100 130/08 RMK AO2 T00890033
04850KAOH AOH20160416053510704/16/16 05:35:31  5-MIN KAOH 161035Z AUTO 13009KT 10SM CLR 09/03 A3030 630 68 100 130/09 RMK AO2 T00890033
04850KAOH AOH20160416054010704/16/16 05:40:31  5-MIN KAOH 161040Z AUTO 13009KT 10SM CLR 09/03 A3030 630 63 200 130/09 RMK AO2 T00940028
04850KAOH AOH20160416054510704/16/16 05:45:31  5-MIN KAOH 161045Z AUTO 12009KT 10SM CLR 10/03 A3030 630 60 200 130/09 RMK AO2 T01000028
04850KAOH AOH20160416055011404/16/16 05:50:31  5-MIN KAOH 161050Z AUTO 12009KT 10SM CLR 10/03 A3030 630 60 200 120/09 RMK AO2 SLP259 T01000028
04850KAOH AOH20160416055510704/16/16 05:55:31  5-MIN KAOH 161055Z AUTO 11008KT 10SM CLR 09/03 A3030 630 65 100 120/08 RMK AO2 T00940033
04850KAOH AOH20160416060010704/16/16 06:00:31  5-MIN KAOH 161100Z AUTO 11007KT 10SM CLR 09/03 A3030 620 65 100 120/07 RMK AO2 T00940033
04850KAOH AOH20160416060510704/16/16 06:05:31  5-MIN KAOH 161105Z AUTO 11007KT 10SM CLR 09/03 A3031 620 68 100 110/07 RMK AO2 T00890033
04850KAOH AOH20160416061010704/16/16 06:10:31  5-MIN KAOH 161110Z AUTO 11007KT 10SM CLR 09/03 A3031 620 65 100 110/07 RMK AO2 T00940033
04850KAOH AOH20160416061510704/16/16 06:15:31  5-MIN KAOH 161115Z AUTO 11008KT 10SM CLR 09/03 A3031 620 65 100 120/08 RMK AO2 T00940033
04850KAOH AOH20160416062010704/16/16 06:20:31  5-MIN KAOH 161120Z AUTO 12009KT 10SM CLR 10/03 A3031 620 63 200 120/09 RMK AO2 T01000033
04850KAOH AOH20160416062510704/16/16 06:25:31  5-MIN KAOH 161125Z AUTO 12010KT 10SM CLR 11/03 A3031 620 56 300 120/10 RMK AO2 T01110028
04850KAOH AOH20160417143011004/17/16 14:30:31  5-MIN KAOH 171930Z AUTO 09006KT 10SM CLR 25/06 A3037 570 29 1900 100/06 RMK AO2 T02500061 $
04850KAOH AOH20160417143511004/17/16 14:35:31  5-MIN KAOH 171935Z AUTO 09007KT 10SM CLR 25/06 A3037 570 28 1900 100/07 RMK AO2 T02500056 $
04850KAOH AOH20160417144011004/17/16 14:40:31  5-MIN KAOH 171940Z AUTO VRB04KT 10SM CLR 25/07 A3037 570 30 1900 VRB/04 RMK AO2 T02500067 $
04850KAOH AOH20160417144511004/17/16 14:45:31  5-MIN KAOH 171945Z AUTO 07004KT 10SM CLR 26/04 A3036 570 24 2000 080/04 RMK AO2 T02560039 $
04850KAOH AOH20160417145011704/17/16 14:50:31  5-MIN KAOH 171950Z AUTO 06005KT 10SM CLR 25/07 A3036 570 30 1900 070/05 RMK AO2 SLP279 T02500067 $
04850KAOH AOH20160417145511004/17/16 14:55:31  5-MIN KAOH 171955Z AUTO 01004KT 10SM CLR 24/03 A3036 570 25 1800 020/04 RMK AO2 T02440033 $
04850KAOH AOH20160417150011004/17/16 15:00:31  5-MIN KAOH 172000Z AUTO VRB04KT 10SM CLR 25/03 A3036 570 23 1900 VRB/04 RMK AO2 T02500028 $
04850KAOH AOH20160417150511004/17/16 15:05:31  5-MIN KAOH 172005Z AUTO 08007KT 10SM CLR 25/04 A3036 580 25 1900 080/07 RMK AO2 T02500039 $
04850KAOH AOH20160417151011004/17/16 15:10:31  5-MIN KAOH 172010Z AUTO 09006KT 10SM CLR 25/06 A3036 580 29 1900 100/06 RMK AO2 T02500061 $
04850KAOH AOH20160417151511004/17/16 15:15:31  5-MIN KAOH 172015Z AUTO 08004KT 10SM CLR 25/06 A3036 580 28 1900 080/04 RMK AO2 T02500056 $
04850KAOH AOH20160417152011004/17/16 15:20:31  5-MIN KAOH 172020Z AUTO 00000KT 10SM CLR 26/04 A3036 580 25 2000 000/00 RMK AO2 T02560044 $
04850KAOH AOH20160417152511004/17/16 15:25:31  5-MIN KAOH 172025Z AUTO 04006KT 10SM CLR 26/04 A3035 580 25 2000 050/06 RMK AO2 T02560044 $
04850KAOH AOH20160417153011004/17/16 15:30:31  5-MIN KAOH 172030Z AUTO VRB03KT 10SM CLR 25/05 A3035 580 27 1900 VRB/03 RMK AO2 T02500050 $
04850KAOH AOH20160417153511004/17/16 15:35:31  5-MIN KAOH 172035Z AUTO 05008KT 10SM CLR 25/06 A3035 580 28 1900 060/08 RMK AO2 T02500056 $
04850KAOH AOH20160417154011004/17/16 15:40:31  5-MIN KAOH 172040Z AUTO 00000KT 10SM CLR 25/05 A3035 580 27 1900 000/00 RMK AO2 T02500050 $
04850KAOH AOH20160417154511004/17/16 15:45:31  5-MIN KAOH 172045Z AUTO 00000KT 10SM CLR 25/04 A3035 580 25 1900 000/00 RMK AO2 T02500039 $
04850KAOH AOH20160417155012304/17/16 15:50:31  5-MIN KAOH 172050Z AUTO VRB03KT 10SM CLR 25/02 A3035 590 22 1900 VRB/03 RMK AO2 SLP274 T02500022 58014 $
04850KAOH AOH20160417155511004/17/16 15:55:31  5-MIN KAOH 172055Z AUTO 00000KT 10SM CLR 25/03 A3034 590 23 1900 000/00 RMK AO2 T02500028 $
04850KAOH AOH20160417160012604/17/16 16:00:31  5-MIN KAOH 172100Z AUTO 07008KT 030V100 10SM CLR 25/05 A3034 590 27 1900 080/08 040V110 RMK AO2 T02500050 $
04850KAOH AOH20160417160511004/17/16 16:05:31  5-MIN KAOH 172105Z AUTO 13004KT 10SM CLR 25/04 A3034 590 26 1900 140/04 RMK AO2 T02500044 $
04850KAOH AOH20160417161011004/17/16 16:10:31  5-MIN KAOH 172110Z AUTO 06007KT 10SM CLR 26/05 A3034 590 26 2000 060/07 RMK AO2 T02560050 $
04850KAOH AOH20160417161511004/17/16 16:15:31  5-MIN KAOH 172115Z AUTO 10005KT 10SM CLR 25/06 A3034 590 29 1900 110/05 RMK AO2 T02500061 $
04850KAOH AOH20160417162011004/17/16 16:20:31  5-MIN KAOH 172120Z AUTO 04007KT 10SM CLR 25/06 A3034 590 29 1900 040/07 RMK AO2 T02500061 $
04850KAOH AOH20160417162511004/17/16 16:25:31  5-MIN KAOH 172125Z AUTO 08006KT 10SM CLR 25/06 A3034 590 28 1900 090/06 RMK AO2 T02500056 $
04850KAOH AOH20160417163011004/17/16 16:30:31  5-MIN KAOH 172130Z AUTO 01006KT 10SM CLR 25/05 A3034 590 27 1900 010/06 RMK AO2 T02500050 $
04850KAOH AOH20160417163511004/17/16 16:35:31  5-MIN KAOH 172135Z AUTO 01006KT 10SM CLR 25/05 A3034 590 27 1900 020/06 RMK AO2 T02500050 $
04850KAOH AOH20160417164011004/17/16 16:40:31  5-MIN KAOH 172140Z AUTO 08007KT 10SM CLR 25/06 A3034 590 29 1900 080/07 RMK AO2 T02500061 $
04850KAOH AOH20160417164511004/17/16 16:45:31  5-MIN KAOH 172145Z AUTO 06005KT 10SM CLR 25/04 A3034 600 26 1900 060/05 RMK AO2 T02500044 $
04850KAOH AOH20160417165011704/17/16 16:50:31  5-MIN KAOH 172150Z AUTO 06008KT 10SM CLR 25/05 A3033 600 27 1900 060/08 RMK AO2 SLP269 T02500050 $
04850KAOH AOH20160417165511004/17/16 16:55:31  5-MIN KAOH 172155Z AUTO 07007KT 10SM CLR 24/06 A3033 600 29 1900 070/07 RMK AO2 T02440056 $
04850KAOH AOH20160417170011004/17/16 17:00:31  5-MIN KAOH 172200Z AUTO 04007KT 10SM CLR 24/06 A3033 600 29 1900 040/07 RMK AO2 T02440056 $
04850KAOH AOH20160417170511004/17/16 17:05:31  5-MIN KAOH 172205Z AUTO 03006KT 10SM CLR 25/04 A3033 600 25 1900 040/06 RMK AO2 T02500039 $
04850KAOH AOH20160417171011004/17/16 17:10:31  5-MIN KAOH 172210Z AUTO 05007KT 10SM CLR 25/06 A3033 600 28 1900 060/07 RMK AO2 T02500056 $
04850KAOH AOH20160417171511004/17/16 17:15:31  5-MIN KAOH 172215Z AUTO 04006KT 10SM CLR 24/04 A3033 600 27 1900 050/06 RMK AO2 T02440044 $
04850KAOH AOH20160417172011004/17/16 17:20:31  5-MIN KAOH 172220Z AUTO 03004KT 10SM CLR 24/06 A3033 600 29 1900 030/04 RMK AO2 T02440056 $
04850KAOH AOH20160417172511004/17/16 17:25:31  5-MIN KAOH 172225Z AUTO 02003KT 10SM CLR 24/04 A3033 600 27 1900 030/03 RMK AO2 T02440044 $
04850KAOH AOH20160417173011004/17/16 17:30:31  5-MIN KAOH 172230Z AUTO 06007KT 10SM CLR 25/05 A3033 600 27 1900 060/07 RMK AO2 T02500050 $
04850KAOH AOH20160417173511004/17/16 17:35:31  5-MIN KAOH 172235Z AUTO 04006KT 10SM CLR 24/04 A3033 600 27 1900 040/06 RMK AO2 T02440044 $
04850KAOH AOH20160417174011004/17/16 17:40:31  5-MIN KAOH 172240Z AUTO 04006KT 10SM CLR 24/05 A3033 600 28 1900 040/06 RMK AO2 T02440050 $
04850KAOH AOH20160417174511004/17/16 17:45:31  5-MIN KAOH 172245Z AUTO 06008KT 10SM CLR 24/06 A3033 600 29 1900 060/08 RMK AO2 T02440056 $
04850KAOH AOH20160417175011704/17/16 17:50:31  5-MIN KAOH 172250Z AUTO 05005KT 10SM CLR 24/05 A3033 600 29 1800 060/05 RMK AO2 SLP269 T02390050 $
04850KAOH AOH20160417175511004/17/16 17:55:31  5-MIN KAOH 172255Z AUTO 08005KT 10SM CLR 24/07 A3033 600 32 1800 090/05 RMK AO2 T02390067 $
04850KAOH AOH20160417180011004/17/16 18:00:31  5-MIN KAOH 172300Z AUTO 04007KT 10SM CLR 24/07 A3033 600 32 1800 040/07 RMK AO2 T02390067 $
04850KAOH AOH20160417180511004/17/16 18:05:31  5-MIN KAOH 172305Z AUTO 06006KT 10SM CLR 24/06 A3033 600 30 1800 060/06 RMK AO2 T02390056 $
04850KAOH AOH20160417181011004/17/16 18:10:31  5-MIN KAOH 172310Z AUTO 05006KT 10SM CLR 24/06 A3033 600 30 1800 060/06 RMK AO2 T02390056 $
04850KAOH AOH20160417181511004/17/16 18:15:31  5-MIN KAOH 172315Z AUTO 05006KT 10SM CLR 24/05 A3033 600 29 1800 060/06 RMK AO2 T02390050 $
04850KAOH AOH20160417182011004/17/16 18:20:31  5-MIN KAOH 172320Z AUTO 04006KT 10SM CLR 23/06 A3033 600 31 1700 040/06 RMK AO2 T02330056 $
04850KAOH AOH20160417182511004/17/16 18:25:31  5-MIN KAOH 172325Z AUTO 05006KT 10SM CLR 23/06 A3033 600 31 1700 050/06 RMK AO2 T02330056 $
04850KAOH AOH20160417183011004/17/16 18:30:31  5-MIN KAOH 172330Z AUTO 05005KT 10SM CLR 23/05 A3033 600 31 1700 050/05 RMK AO2 T02280050 $
04850KAOH AOH20160417183511004/17/16 18:35:31  5-MIN KAOH 172335Z AUTO 05006KT 10SM CLR 23/05 A3033 600 30 1700 060/06 RMK AO2 T02330050 $
04850KAOH AOH20160417184011004/17/16 18:40:31  5-MIN KAOH 172340Z AUTO 04005KT 10SM CLR 23/05 A3033 600 30 1700 050/05 RMK AO2 T02330050 $
04850KAOH AOH20160417184511004/17/16 18:45:31  5-MIN KAOH 172345Z AUTO 04005KT 10SM CLR 23/06 A3033 600 32 1700 050/05 RMK AO2 T02280056 $
04850KAOH AOH20160417185013504/17/16 18:50:31  5-MIN KAOH 172350Z AUTO 04005KT 10SM CLR 23/05 A3033 600 31 1700 050/05 RMK AO2 SLP268 T02280050 10256 20228 58017 $
04850KAOH AOH20160417185511004/17/16 18:55:31  5-MIN KAOH 172355Z AUTO 04005KT 10SM CLR 23/05 A3033 600 31 1700 040/05 RMK AO2 T02280050 $
04850KAOH AOH20160417190011004/17/16 19:00:31  5-MIN KAOH 180000Z AUTO 04004KT 10SM CLR 22/05 A3033 600 32 1600 040/04 RMK AO2 T02220050 $
04850KAOH AOH20160417190511004/17/16 19:05:31  5-MIN KAOH 180005Z AUTO 04003KT 10SM CLR 22/05 A3033 600 32 1600 040/03 RMK AO2 T02220050 $
04850KAOH AOH20160417191011004/17/16 19:10:31  5-MIN KAOH 180010Z AUTO 04003KT 10SM CLR 22/06 A3033 600 34 1600 050/03 RMK AO2 T02170056 $
04850KAOH AOH20160417191511004/17/16 19:15:31  5-MIN KAOH 180015Z AUTO 04004KT 10SM CLR 22/05 A3033 600 32 1600 040/04 RMK AO2 T02220050 $
04850KAOH AOH20160417192011004/17/16 19:20:31  5-MIN KAOH 180020Z AUTO 05004KT 10SM CLR 22/05 A3033 600 33 1600 050/04 RMK AO2 T02170050 $
04850KAOH AOH20160417192511004/17/16 19:25:31  5-MIN KAOH 180025Z AUTO 05004KT 10SM CLR 21/06 A3033 600 36 1500 050/04 RMK AO2 T02110056 $
04850KAOH AOH20160417193011004/17/16 19:30:31  5-MIN KAOH 180030Z AUTO 05004KT 10SM CLR 21/06 A3033 600 37 1400 060/04 RMK AO2 T02060056 $
04850KAOH AOH20160417193511004/17/16 19:35:31  5-MIN KAOH 180035Z AUTO 05006KT 10SM CLR 21/06 A3033 600 37 1400 060/06 RMK AO2 T02060056 $
04850KAOH AOH20160417194011004/17/16 19:40:31  5-MIN KAOH 180040Z AUTO 06009KT 10SM CLR 19/07 A3033 600 44 1200 060/09 RMK AO2 T01890067 $
04850KAOH AOH20160417194511004/17/16 19:45:31  5-MIN KAOH 180045Z AUTO 06008KT 10SM CLR 19/07 A3034 600 44 1200 070/08 RMK AO2 T01890067 $
04850KAOH AOH20160417195011704/17/16 19:50:31  5-MIN KAOH 180050Z AUTO 06007KT 10SM CLR 19/07 A3034 600 43 1300 070/07 RMK AO2 SLP270 T01940067 $
04850KAOH AOH20160417195511004/17/16 19:55:31  5-MIN KAOH 180055Z AUTO 06007KT 10SM CLR 19/07 A3034 590 46 1200 070/07 RMK AO2 T01890072 $
04850KAOH AOH20160417200011004/17/16 20:00:31  5-MIN KAOH 180100Z AUTO 07007KT 10SM CLR 18/07 A3034 590 48 1200 070/07 RMK AO2 T01830072 $
04850KAOH AOH20160417200511004/17/16 20:05:31  5-MIN KAOH 180105Z AUTO 07006KT 10SM CLR 17/08 A3034 590 53 1000 070/06 RMK AO2 T01720078 $
04850KAOH AOH20160417201011004/17/16 20:10:31  5-MIN KAOH 180110Z AUTO 07006KT 10SM CLR 17/08 A3034 590 57 1000 080/06 RMK AO2 T01670083 $
04850KAOH AOH20160417201511004/17/16 20:15:31  5-MIN KAOH 180115Z AUTO 07007KT 10SM CLR 18/08 A3034 590 53 1100 070/07 RMK AO2 T01780083 $
04850KAOH AOH20160417202010904/17/16 20:20:31  5-MIN KAOH 180120Z AUTO 06006KT 10SM CLR 16/08 A3034 590 57 900 070/06 RMK AO2 T01610078 $
04850KAOH AOH20160417202511004/17/16 20:25:31  5-MIN KAOH 180125Z AUTO 06005KT 10SM CLR 17/07 A3035 590 53 1000 070/05 RMK AO2 T01670072 $
04850KAOH AOH20160417203010904/17/16 20:30:31  5-MIN KAOH 180130Z AUTO 06005KT 10SM CLR 16/08 A3035 590 57 900 070/05 RMK AO2 T01610078 $
04850KAOH AOH20160417203510904/17/16 20:35:31  5-MIN KAOH 180135Z AUTO 06005KT 10SM CLR 16/08 A3035 590 62 800 070/05 RMK AO2 T01560083 $
04850KAOH AOH20160417204010904/17/16 20:40:31  5-MIN KAOH 180140Z AUTO 06005KT 10SM CLR 15/08 A3035 580 64 800 060/05 RMK AO2 T01500083 $
04850KAOH AOH20160417204510904/17/16 20:45:31  5-MIN KAOH 180145Z AUTO 06005KT 10SM CLR 16/07 A3035 580 55 900 070/05 RMK AO2 T01610072 $
04850KAOH AOH20160417205011604/17/16 20:50:31  5-MIN KAOH 180150Z AUTO 06006KT 10SM CLR 16/07 A3035 580 55 900 070/06 RMK AO2 SLP275 T01610072 $
04850KAOH AOH20160417205510904/17/16 20:55:31  5-MIN KAOH 180155Z AUTO 06006KT 10SM CLR 16/07 A3035 580 57 800 070/06 RMK AO2 T01560072 $
04850KAOH AOH20160417210010904/17/16 21:00:31  5-MIN KAOH 180200Z AUTO 06005KT 10SM CLR 16/08 A3035 580 59 800 070/05 RMK AO2 T01560078 $
04850KAOH AOH20160417210510904/17/16 21:05:31  5-MIN KAOH 180205Z AUTO 07006KT 10SM CLR 15/07 A3035 580 59 800 070/06 RMK AO2 T01500072 $
04850KAOH AOH20160417211010904/17/16 21:10:31  5-MIN KAOH 180210Z AUTO 07006KT 10SM CLR 15/07 A3035 580 59 800 070/06 RMK AO2 T01500072 $
04850KAOH AOH20160417211510904/17/16 21:15:31  5-MIN KAOH 180215Z AUTO 07006KT 10SM CLR 15/07 A3035 580 59 800 080/06 RMK AO2 T01500072 $
04850KAOH AOH20160417212010904/17/16 21:20:31  5-MIN KAOH 180220Z AUTO 07006KT 10SM CLR 14/08 A3035 580 64 700 080/06 RMK AO2 T01440078 $
04850KAOH AOH20160417212510904/17/16 21:25:31  5-MIN KAOH 180225Z AUTO 07006KT 10SM CLR 14/07 A3035 580 64 600 070/06 RMK AO2 T01390072 $
04850KAOH AOH20160417213010904/17/16 21:30:31  5-MIN KAOH 180230Z AUTO 07006KT 10SM CLR 14/07 A3036 580 64 600 080/06 RMK AO2 T01390072 $
04850KAOH AOH20160417213510904/17/16 21:35:31  5-MIN KAOH 180235Z AUTO 08007KT 10SM CLR 14/07 A3036 580 64 600 080/07 RMK AO2 T01390072 $
04850KAOH AOH20160417214010904/17/16 21:40:31  5-MIN KAOH 180240Z AUTO 07007KT 10SM CLR 13/07 A3035 580 66 600 080/07 RMK AO2 T01330072 $
04850KAOH AOH20160417214510904/17/16 21:45:31  5-MIN KAOH 180245Z AUTO 07006KT 10SM CLR 14/07 A3035 580 61 600 070/06 RMK AO2 T01390067 $
04850KAOH AOH20160417215012204/17/16 21:50:31  5-MIN KAOH 180250Z AUTO 08007KT 10SM CLR 14/07 A3035 580 61 600 080/07 RMK AO2 SLP276 T01390067 56006 $
04850KAOH AOH20160417215510904/17/16 21:55:31  5-MIN KAOH 180255Z AUTO 08008KT 10SM CLR 13/07 A3035 580 66 600 090/08 RMK AO2 T01330072 $
04850KAOH AOH20160417220010904/17/16 22:00:31  5-MIN KAOH 180300Z AUTO 08008KT 10SM CLR 13/07 A3035 580 66 600 090/08 RMK AO2 T01330072 $
04850KAOH AOH20160417220510904/17/16 22:05:31  5-MIN KAOH 180305Z AUTO 07007KT 10SM CLR 13/07 A3035 580 66 500 080/07 RMK AO2 T01280067 $
04850KAOH AOH20160417221010904/17/16 22:10:31  5-MIN KAOH 180310Z AUTO 07007KT 10SM CLR 13/07 A3035 580 64 600 070/07 RMK AO2 T01330067 $
04850KAOH AOH20160417221510904/17/16 22:15:31  5-MIN KAOH 180315Z AUTO 07007KT 10SM CLR 13/07 A3035 580 64 600 070/07 RMK AO2 T01330067 $
04850KAOH AOH20160417222010904/17/16 22:20:31  5-MIN KAOH 180320Z AUTO 07006KT 10SM CLR 13/06 A3035 580 61 600 070/06 RMK AO2 T01330061 $
04850KAOH AOH20160417222510904/17/16 22:25:31  5-MIN KAOH 180325Z AUTO 06006KT 10SM CLR 14/06 A3035 580 57 600 070/06 RMK AO2 T01390056 $
04850KAOH AOH20160417223010904/17/16 22:30:31  5-MIN KAOH 180330Z AUTO 06006KT 10SM CLR 14/06 A3035 580 57 600 060/06 RMK AO2 T01390056 $
04850KAOH AOH20160417223510904/17/16 22:35:31  5-MIN KAOH 180335Z AUTO 06007KT 10SM CLR 14/06 A3036 580 57 600 060/07 RMK AO2 T01390056 $
04850KAOH AOH20160417224010904/17/16 22:40:31  5-MIN KAOH 180340Z AUTO 05005KT 10SM CLR 14/06 A3036 580 55 700 060/05 RMK AO2 T01440056 $
04850KAOH AOH20160417224510904/17/16 22:45:31  5-MIN KAOH 180345Z AUTO 06006KT 10SM CLR 14/05 A3036 580 53 700 070/06 RMK AO2 T01440050 $
04850KAOH AOH20160417225011604/17/16 22:50:31  5-MIN KAOH 180350Z AUTO 07006KT 10SM CLR 14/06 A3036 580 57 600 080/06 RMK AO2 SLP277 T01390056 $
04850KAOH AOH20160417225510904/17/16 22:55:31  5-MIN KAOH 180355Z AUTO 07006KT 10SM CLR 13/06 A3036 580 61 600 080/06 RMK AO2 T01330061 $
04850KAOH AOH20160417230010904/17/16 23:00:31  5-MIN KAOH 180400Z AUTO 08006KT 10SM CLR 13/06 A3036 580 61 600 080/06 RMK AO2 T01330061 $
04850KAOH AOH20160417230510904/17/16 23:05:31  5-MIN KAOH 180405Z AUTO 07006KT 10SM CLR 13/06 A3036 580 59 600 080/06 RMK AO2 T01330056 $
04850KAOH AOH20160417231010904/17/16 23:10:31  5-MIN KAOH 180410Z AUTO 07006KT 10SM CLR 13/06 A3036 580 63 500 080/06 RMK AO2 T01280061 $
04850KAOH AOH20160417231510904/17/16 23:15:31  5-MIN KAOH 180415Z AUTO 07006KT 10SM CLR 13/06 A3036 580 61 500 070/06 RMK AO2 T01280056 $
04850KAOH AOH20160417232010904/17/16 23:20:31  5-MIN KAOH 180420Z AUTO 07006KT 10SM CLR 13/06 A3036 580 61 500 080/06 RMK AO2 T01280056 $
04850KAOH AOH20160417232510904/17/16 23:25:31  5-MIN KAOH 180425Z AUTO 07005KT 10SM CLR 12/06 A3036 580 63 400 080/05 RMK AO2 T01220056 $
04850KAOH AOH20160417233010904/17/16 23:30:31  5-MIN KAOH 180430Z AUTO 08005KT 10SM CLR 13/06 A3036 580 61 500 080/05 RMK AO2 T01280056 $
04850KAOH AOH20160417233510904/17/16 23:35:31  5-MIN KAOH 180435Z AUTO 08004KT 10SM CLR 12/06 A3036 570 63 400 090/04 RMK AO2 T01220056 $
04850KAOH AOH20160417234010904/17/16 23:40:31  5-MIN KAOH 180440Z AUTO 08004KT 10SM CLR 13/06 A3036 570 61 500 080/04 RMK AO2 T01280056 $
04850KAOH AOH20160417234510904/17/16 23:45:31  5-MIN KAOH 180445Z AUTO 07004KT 10SM CLR 13/05 A3036 570 57 500 080/04 RMK AO2 T01330050 $
04850KAOH AOH20160417235012604/17/16 23:50:31  5-MIN KAOH 180450Z AUTO 07003KT 10SM CLR 13/05 A3036 570 57 500 070/03 RMK AO2 SLP277 T01330050 402560072 $
04850KAOH AOH20160417235510904/17/16 23:55:31  5-MIN KAOH 180455Z AUTO 07004KT 10SM CLR 13/05 A3036 570 57 600 070/04 RMK AO2 T01330050 $
04850KAOH AOH20160418000010904/18/16 00:00:31  5-MIN KAOH 180500Z AUTO 07004KT 10SM CLR 13/05 A3036 570 59 500 070/04 RMK AO2 T01280050 $
04850KAOH AOH20160418000510904/18/16 00:05:31  5-MIN KAOH 180505Z AUTO 07004KT 10SM CLR 13/05 A3036 570 57 600 080/04 RMK AO2 T01330050 $
04850KAOH AOH20160418001010904/18/16 00:10:31  5-MIN KAOH 180510Z AUTO 07005KT 10SM CLR 13/05 A3036 570 59 500 080/05 RMK AO2 T01280050 $
04850KAOH AOH20160418001510904/18/16 00:15:31  5-MIN KAOH 180515Z AUTO 08005KT 10SM CLR 13/05 A3036 580 59 500 090/05 RMK AO2 T01280050 $
04850KAOH AOH20160418002010904/18/16 00:20:31  5-MIN KAOH 180520Z AUTO 09004KT 10SM CLR 13/05 A3036 580 59 500 090/04 RMK AO2 T01280050 $
04850KAOH AOH20160418002510904/18/16 00:25:31  5-MIN KAOH 180525Z AUTO 09004KT 10SM CLR 12/05 A3036 580 61 400 100/04 RMK AO2 T01220050 $
04850KAOH AOH20160418003010904/18/16 00:30:31  5-MIN KAOH 180530Z AUTO 10006KT 10SM CLR 12/05 A3036 580 63 400 110/06 RMK AO2 T01170050 $
04850KAOH AOH20160418003510904/18/16 00:35:31  5-MIN KAOH 180535Z AUTO 10006KT 10SM CLR 12/05 A3035 580 61 400 110/06 RMK AO2 T01220050 $
04850KAOH AOH20160418004010904/18/16 00:40:31  5-MIN KAOH 180540Z AUTO 10004KT 10SM CLR 12/05 A3035 580 61 400 110/04 RMK AO2 T01220050 $
04850KAOH AOH20160418004510904/18/16 00:45:31  5-MIN KAOH 180545Z AUTO 11005KT 10SM CLR 13/05 A3035 580 59 500 110/05 RMK AO2 T01280050 $
04850KAOH AOH20160418005013404/18/16 00:50:31  5-MIN KAOH 180550Z AUTO 10006KT 10SM CLR 12/05 A3035 580 61 400 100/06 RMK AO2 SLP275 T01220050 10228 20117 51008 $
04850KAOH AOH20160418005510904/18/16 00:55:31  5-MIN KAOH 180555Z AUTO 09005KT 10SM CLR 12/05 A3035 580 61 400 100/05 RMK AO2 T01220050 $
04850KAOH AOH20160418010010904/18/16 01:00:31  5-MIN KAOH 180600Z AUTO 09005KT 10SM CLR 12/05 A3035 580 61 400 100/05 RMK AO2 T01220050 $
04850KAOH AOH20160418010510904/18/16 01:05:31  5-MIN KAOH 180605Z AUTO 09005KT 10SM CLR 12/05 A3035 580 61 400 090/05 RMK AO2 T01220050 $
04850KAOH AOH20160418011010904/18/16 01:10:31  5-MIN KAOH 180610Z AUTO 09005KT 10SM CLR 12/05 A3035 580 61 400 100/05 RMK AO2 T01220050 $
04850KAOH AOH20160418011510904/18/16 01:15:31  5-MIN KAOH 180615Z AUTO 09005KT 10SM CLR 12/04 A3035 580 59 400 100/05 RMK AO2 T01220044 $
04850KAOH AOH20160418012010904/18/16 01:20:31  5-MIN KAOH 180620Z AUTO 09005KT 10SM CLR 12/04 A3035 580 59 400 100/05 RMK AO2 T01220044 $
04850KAOH AOH20160418012510904/18/16 01:25:31  5-MIN KAOH 180625Z AUTO 10004KT 10SM CLR 13/04 A3035 580 56 500 110/04 RMK AO2 T01280044 $
04850KAOH AOH20160418013010904/18/16 01:30:31  5-MIN KAOH 180630Z AUTO 11005KT 10SM CLR 13/04 A3035 580 56 500 120/05 RMK AO2 T01280044 $
04850KAOH AOH20160418013510904/18/16 01:35:31  5-MIN KAOH 180635Z AUTO 11005KT 10SM CLR 12/04 A3035 580 56 400 120/05 RMK AO2 T01220039 $
04850KAOH AOH20160418014010904/18/16 01:40:31  5-MIN KAOH 180640Z AUTO 11006KT 10SM CLR 12/04 A3035 580 59 400 120/06 RMK AO2 T01220044 $
04850KAOH AOH20160418014510904/18/16 01:45:31  5-MIN KAOH 180645Z AUTO 12007KT 10SM CLR 12/04 A3035 580 61 400 120/07 RMK AO2 T01170044 $
04850KAOH AOH20160418015011604/18/16 01:50:31  5-MIN KAOH 180650Z AUTO 12006KT 10SM CLR 12/04 A3035 580 61 400 120/06 RMK AO2 SLP273 T01170044 $
04850KAOH AOH20160418015510904/18/16 01:55:31  5-MIN KAOH 180655Z AUTO 12005KT 10SM CLR 12/04 A3035 580 61 400 130/05 RMK AO2 T01170044 $
04850KAOH AOH20160418020010904/18/16 02:00:31  5-MIN KAOH 180700Z AUTO 12006KT 10SM CLR 12/04 A3035 590 59 400 120/06 RMK AO2 T01220044 $
04850KAOH AOH20160418020510904/18/16 02:05:31  5-MIN KAOH 180705Z AUTO 11005KT 10SM CLR 12/04 A3034 590 59 400 120/05 RMK AO2 T01220044 $
04850KAOH AOH20160418021010904/18/16 02:10:31  5-MIN KAOH 180710Z AUTO 11005KT 10SM CLR 12/04 A3034 590 61 400 120/05 RMK AO2 T01170044 $
04850KAOH AOH20160418021510904/18/16 02:15:31  5-MIN KAOH 180715Z AUTO 12005KT 10SM CLR 12/04 A3034 590 59 400 130/05 RMK AO2 T01220044 $
04850KAOH AOH20160418022010904/18/16 02:20:31  5-MIN KAOH 180720Z AUTO 13006KT 10SM CLR 13/04 A3034 590 56 500 130/06 RMK AO2 T01280044 $
04850KAOH AOH20160418022510904/18/16 02:25:31  5-MIN KAOH 180725Z AUTO 12006KT 10SM CLR 12/04 A3034 590 59 400 130/06 RMK AO2 T01220044 $
04850KAOH AOH20160418123510804/18/16 12:35:31  5-MIN KAOH 181735Z AUTO 23005KT 10SM CLR 25/06 A3031 620 29 2000 240/05 RMK AO2 T02500061
04850KAOH AOH20160418124009804/18/16 12:40:31  5-MIN KAOH 181740Z AUTO 10SM CLR 26/06 A3031 620 27 2000 M /M RMK AO2 T02560056
04850KAOH AOH20160418124510804/18/16 12:45:31  5-MIN KAOH 181745Z AUTO 25006KT 10SM CLR 26/06 A3030 620 28 2000 250/06 RMK AO2 T02560061
04850KAOH AOH20160418125013304/18/16 12:50:31  5-MIN KAOH 181750Z AUTO 29005KT 10SM CLR 26/05 A3030 630 26 2000 300/05 RMK AO2 SLP257 T02560050 10261 20139 50003
04850KAOH AOH20160418125510804/18/16 12:55:31  5-MIN KAOH 181755Z AUTO VRB03KT 10SM CLR 26/06 A3030 630 28 2000 VRB/03 RMK AO2 T02560061
04850KAOH AOH20160418130010804/18/16 13:00:31  5-MIN KAOH 181800Z AUTO VRB05KT 10SM CLR 26/06 A3030 630 27 2000 VRB/05 RMK AO2 T02560056
04850KAOH AOH20160418130510804/18/16 13:05:31  5-MIN KAOH 181805Z AUTO 00000KT 10SM CLR 26/04 A3029 630 25 2000 000/00 RMK AO2 T02560044
04850KAOH AOH20160418131010804/18/16 13:10:31  5-MIN KAOH 181810Z AUTO 01005KT 10SM CLR 25/06 A3029 640 28 2000 020/05 RMK AO2 T02500056
04850KAOH AOH20160418131510804/18/16 13:15:31  5-MIN KAOH 181815Z AUTO 08004KT 10SM CLR 26/04 A3029 640 25 2000 080/04 RMK AO2 T02560044
04850KAOH AOH20160418132010804/18/16 13:20:31  5-MIN KAOH 181820Z AUTO 00000KT 10SM CLR 26/06 A3029 640 27 2000 000/00 RMK AO2 T02560056
04850KAOH AOH20160418132509804/18/16 13:25:31  5-MIN KAOH 181825Z AUTO 10SM CLR 26/07 A3029 640 28 2100 M /M RMK AO2 T02610067
04850KAOH AOH20160418133010804/18/16 13:30:31  5-MIN KAOH 181830Z AUTO 24004KT 10SM CLR 26/05 A3028 640 26 2000 240/04 RMK AO2 T02560050
04850KAOH AOH20160418133510804/18/16 13:35:31  5-MIN KAOH 181835Z AUTO 00000KT 10SM CLR 26/06 A3028 640 27 2000 000/00 RMK AO2 T02560056
04850KAOH AOH20160418134010804/18/16 13:40:31  5-MIN KAOH 181840Z AUTO 00000KT 10SM CLR 27/05 A3028 650 24 2200 000/00 RMK AO2 T02670050
04850KAOH AOH20160418134510804/18/16 13:45:31  5-MIN KAOH 181845Z AUTO 22005KT 10SM CLR 26/06 A3028 650 27 2100 230/05 RMK AO2 T02610061
04850KAOH AOH20160418135011504/18/16 13:50:31  5-MIN KAOH 181850Z AUTO 23005KT 10SM CLR 26/06 A3028 650 27 2100 240/05 RMK AO2 SLP250 T02610061
04850KAOH AOH20160418135510804/18/16 13:55:31  5-MIN KAOH 181855Z AUTO 00000KT 10SM CLR 26/04 A3028 650 24 2100 000/00 RMK AO2 T02610044
04850KAOH AOH20160418140010804/18/16 14:00:31  5-MIN KAOH 181900Z AUTO VRB03KT 10SM CLR 27/07 A3028 650 27 2200 VRB/03 RMK AO2 T02670067
04850KAOH AOH20160418140510804/18/16 14:05:31  5-MIN KAOH 181905Z AUTO VRB03KT 10SM CLR 26/07 A3027 650 28 2100 VRB/03 RMK AO2 T02610067
04850KAOH AOH20160418141010804/18/16 14:10:31  5-MIN KAOH 181910Z AUTO 19004KT 10SM CLR 26/05 A3027 650 25 2100 200/04 RMK AO2 T02610050
04850KAOH AOH20160418141510804/18/16 14:15:31  5-MIN KAOH 181915Z AUTO VRB04KT 10SM CLR 27/06 A3027 650 25 2200 VRB/04 RMK AO2 T02670056
04850KAOH AOH20160418142010804/18/16 14:20:31  5-MIN KAOH 181920Z AUTO 14004KT 10SM CLR 27/06 A3027 650 25 2200 140/04 RMK AO2 T02670056
04850KAOH AOH20160418142510804/18/16 14:25:31  5-MIN KAOH 181925Z AUTO VRB03KT 10SM CLR 27/06 A3027 660 26 2200 VRB/03 RMK AO2 T02670061
04850KAOH AOH20160418143010804/18/16 14:30:31  5-MIN KAOH 181930Z AUTO VRB03KT 10SM CLR 26/06 A3027 660 27 2100 VRB/03 RMK AO2 T02610061
04850KAOH AOH20160418143509804/18/16 14:35:31  5-MIN KAOH 181935Z AUTO 10SM CLR 26/04 A3026 660 24 2100 M /M RMK AO2 T02610044
04850KAOH AOH20160418144010804/18/16 14:40:31  5-MIN KAOH 181940Z AUTO 29008KT 10SM CLR 26/05 A3026 660 25 2100 290/08 RMK AO2 T02610050
04850KAOH AOH20160418144510804/18/16 14:45:31  5-MIN KAOH 181945Z AUTO 27004KT 10SM CLR 26/04 A3026 660 24 2100 280/04 RMK AO2 T02610044
04850KAOH AOH20160418145011504/18/16 14:50:31  5-MIN KAOH 181950Z AUTO VRB04KT 10SM CLR 26/06 A3026 670 26 2100 VRB/04 RMK AO2 SLP243 T02610056
04850KAOH AOH20160418145510804/18/16 14:55:31  5-MIN KAOH 181955Z AUTO VRB05KT 10SM CLR 26/05 A3025 670 25 2100 VRB/05 RMK AO2 T02610050
04850KAOH AOH20160418150010804/18/16 15:00:31  5-MIN KAOH 182000Z AUTO 20003KT 10SM CLR 26/05 A3025 670 25 2100 210/03 RMK AO2 T02610050
04850KAOH AOH20160418150510804/18/16 15:05:31  5-MIN KAOH 182005Z AUTO 25008KT 10SM CLR 27/06 A3025 670 25 2200 260/08 RMK AO2 T02670056
04850KAOH AOH20160418151010804/18/16 15:10:31  5-MIN KAOH 182010Z AUTO 25008KT 10SM CLR 27/05 A3025 670 24 2200 250/08 RMK AO2 T02670050
04850KAOH AOH20160418151510804/18/16 15:15:31  5-MIN KAOH 182015Z AUTO 23008KT 10SM CLR 26/05 A3025 680 25 2200 240/08 RMK AO2 T02610050
04850KAOH AOH20160418152010804/18/16 15:20:31  5-MIN KAOH 182020Z AUTO 27006KT 10SM CLR 26/04 A3025 680 24 2200 280/06 RMK AO2 T02610044
04850KAOH AOH20160418152510804/18/16 15:25:31  5-MIN KAOH 182025Z AUTO 34005KT 10SM CLR 26/04 A3024 680 24 2200 350/05 RMK AO2 T02610044
04850KAOH AOH20160418153010804/18/16 15:30:31  5-MIN KAOH 182030Z AUTO 31006KT 10SM CLR 26/06 A3024 680 26 2200 310/06 RMK AO2 T02610056
04850KAOH AOH20160418153510804/18/16 15:35:31  5-MIN KAOH 182035Z AUTO 22009KT 10SM CLR 27/06 A3024 680 25 2200 230/09 RMK AO2 T02670056
04850KAOH AOH20160418154010804/18/16 15:40:31  5-MIN KAOH 182040Z AUTO 22008KT 10SM CLR 26/06 A3024 690 27 2200 220/08 RMK AO2 T02610061
04850KAOH AOH20160418154510804/18/16 15:45:31  5-MIN KAOH 182045Z AUTO 21008KT 10SM CLR 27/07 A3024 690 27 2200 220/08 RMK AO2 T02670067
04850KAOH AOH20160418155012104/18/16 15:50:31  5-MIN KAOH 182050Z AUTO VRB06KT 10SM CLR 26/05 A3023 690 25 2200 VRB/06 RMK AO2 SLP235 T02610050 58016
04850KAOH AOH20160418155510804/18/16 15:55:31  5-MIN KAOH 182055Z AUTO VRB04KT 10SM CLR 26/04 A3023 690 23 2200 VRB/04 RMK AO2 T02610039
04850KAOH AOH20160418160010804/18/16 16:00:31  5-MIN KAOH 182100Z AUTO 28006KT 10SM CLR 27/04 A3023 690 23 2200 280/06 RMK AO2 T02670044
04850KAOH AOH20160418160510804/18/16 16:05:31  5-MIN KAOH 182105Z AUTO 28006KT 10SM CLR 27/04 A3023 690 22 2200 290/06 RMK AO2 T02670039
04850KAOH AOH20160418161010804/18/16 16:10:31  5-MIN KAOH 182110Z AUTO VRB04KT 10SM CLR 26/04 A3023 690 23 2200 VRB/04 RMK AO2 T02610039
04850KAOH AOH20160418161510804/18/16 16:15:31  5-MIN KAOH 182115Z AUTO 24008KT 10SM CLR 27/06 A3023 690 25 2200 250/08 RMK AO2 T02670056
04850KAOH AOH20160418162010804/18/16 16:20:31  5-MIN KAOH 182120Z AUTO 24008KT 10SM CLR 27/06 A3023 690 25 2200 240/08 RMK AO2 T02670056
04850KAOH AOH20160418162510804/18/16 16:25:31  5-MIN KAOH 182125Z AUTO 24007KT 10SM CLR 27/05 A3023 690 24 2200 240/07 RMK AO2 T02670050
04850KAOH AOH20160418163010804/18/16 16:30:31  5-MIN KAOH 182130Z AUTO 25008KT 10SM CLR 26/05 A3023 690 25 2200 250/08 RMK AO2 T02610050
04850KAOH AOH20160418163510804/18/16 16:35:31  5-MIN KAOH 182135Z AUTO 27006KT 10SM CLR 26/04 A3023 690 24 2200 270/06 RMK AO2 T02610044
04850KAOH AOH20160418164010804/18/16 16:40:31  5-MIN KAOH 182140Z AUTO 22007KT 10SM CLR 26/04 A3023 690 24 2200 230/07 RMK AO2 T02610044
04850KAOH AOH20160418164510804/18/16 16:45:31  5-MIN KAOH 182145Z AUTO 23008KT 10SM CLR 26/04 A3023 690 24 2200 240/08 RMK AO2 T02610044
04850KAOH AOH20160418165011504/18/16 16:50:31  5-MIN KAOH 182150Z AUTO 24008KT 10SM CLR 26/05 A3023 690 26 2100 250/08 RMK AO2 SLP232 T02560050
04850KAOH AOH20160418165510804/18/16 16:55:31  5-MIN KAOH 182155Z AUTO 23005KT 10SM CLR 26/05 A3023 700 26 2100 240/05 RMK AO2 T02560050
04850KAOH AOH20160418170010804/18/16 17:00:31  5-MIN KAOH 182200Z AUTO VRB04KT 10SM CLR 26/05 A3022 700 26 2100 VRB/04 RMK AO2 T02560050
04850KAOH AOH20160418170510804/18/16 17:05:31  5-MIN KAOH 182205Z AUTO 19007KT 10SM CLR 26/05 A3022 700 25 2200 190/07 RMK AO2 T02610050
04850KAOH AOH20160418171010804/18/16 17:10:31  5-MIN KAOH 182210Z AUTO 24005KT 10SM CLR 26/05 A3022 700 26 2100 250/05 RMK AO2 T02560050
04850KAOH AOH20160418171510804/18/16 17:15:31  5-MIN KAOH 182215Z AUTO 22005KT 10SM CLR 26/06 A3022 700 27 2100 220/05 RMK AO2 T02560056
04850KAOH AOH20160418172010804/18/16 17:20:31  5-MIN KAOH 182220Z AUTO 23006KT 10SM CLR 26/04 A3022 700 25 2100 230/06 RMK AO2 T02560044
04850KAOH AOH20160418172510804/18/16 17:25:31  5-MIN KAOH 182225Z AUTO 23007KT 10SM CLR 26/05 A3022 700 26 2100 240/07 RMK AO2 T02560050
04850KAOH AOH20160418173010804/18/16 17:30:31  5-MIN KAOH 182230Z AUTO 23007KT 10SM CLR 26/06 A3022 700 27 2100 240/07 RMK AO2 T02560056
04850KAOH AOH20160418173510804/18/16 17:35:31  5-MIN KAOH 182235Z AUTO 27008KT 10SM CLR 26/06 A3022 700 27 2100 270/08 RMK AO2 T02560056
04850KAOH AOH20160418174010804/18/16 17:40:31  5-MIN KAOH 182240Z AUTO 25006KT 10SM CLR 25/06 A3022 700 29 2100 250/06 RMK AO2 T02500061
04850KAOH AOH20160418174510804/18/16 17:45:31  5-MIN KAOH 182245Z AUTO 24006KT 10SM CLR 25/06 A3022 700 29 2100 250/06 RMK AO2 T02500061
04850KAOH AOH20160418175011504/18/16 17:50:31  5-MIN KAOH 182250Z AUTO 25005KT 10SM CLR 25/06 A3022 700 29 2100 250/05 RMK AO2 SLP230 T02500061
04850KAOH AOH20160418175510804/18/16 17:55:31  5-MIN KAOH 182255Z AUTO 25004KT 10SM CLR 25/06 A3022 700 28 2100 260/04 RMK AO2 T02500056
04850KAOH AOH20160418180010804/18/16 18:00:31  5-MIN KAOH 182300Z AUTO 25004KT 10SM CLR 25/06 A3022 700 29 2100 250/04 RMK AO2 T02500061
04850KAOH AOH20160418180510804/18/16 18:05:31  5-MIN KAOH 182305Z AUTO 23003KT 10SM CLR 25/06 A3022 710 29 2100 230/03 RMK AO2 T02500061
04850KAOH AOH20160418181010804/18/16 18:10:31  5-MIN KAOH 182310Z AUTO 22004KT 10SM CLR 25/06 A3021 710 29 2100 220/04 RMK AO2 T02500061
04850KAOH AOH20160418181510804/18/16 18:15:31  5-MIN KAOH 182315Z AUTO 21004KT 10SM CLR 25/05 A3021 710 27 2100 220/04 RMK AO2 T02500050
04850KAOH AOH20160418182010804/18/16 18:20:31  5-MIN KAOH 182320Z AUTO 21003KT 10SM CLR 25/05 A3021 710 27 2100 210/03 RMK AO2 T02500050
04850KAOH AOH20160418182510804/18/16 18:25:31  5-MIN KAOH 182325Z AUTO 20003KT 10SM CLR 25/04 A3021 710 26 2100 210/03 RMK AO2 T02500044
04850KAOH AOH20160418183010804/18/16 18:30:31  5-MIN KAOH 182330Z AUTO 21003KT 10SM CLR 25/04 A3021 710 26 2100 210/03 RMK AO2 T02500044
04850KAOH AOH20160418183510804/18/16 18:35:31  5-MIN KAOH 182335Z AUTO 20004KT 10SM CLR 25/04 A3021 710 26 2100 210/04 RMK AO2 T02500044
04850KAOH AOH20160418184010804/18/16 18:40:31  5-MIN KAOH 182340Z AUTO 21004KT 10SM CLR 24/06 A3021 710 30 1900 220/04 RMK AO2 T02390056
04850KAOH AOH20160418184510804/18/16 18:45:31  5-MIN KAOH 182345Z AUTO 21003KT 10SM CLR 24/06 A3021 710 29 2000 220/03 RMK AO2 T02440056
04850KAOH AOH20160418185013304/18/16 18:50:31  5-MIN KAOH 182350Z AUTO 22004KT 10SM CLR 24/05 A3021 710 28 2000 220/04 RMK AO2 SLP227 T02440050 10267 20239 56021
04850KAOH AOH20160418185510804/18/16 18:55:31  5-MIN KAOH 182355Z AUTO 22004KT 10SM CLR 24/05 A3021 710 28 2000 230/04 RMK AO2 T02440050
04850KAOH AOH20160418190010804/18/16 19:00:31  5-MIN KAOH 190000Z AUTO 22004KT 10SM CLR 24/06 A3021 710 30 1900 230/04 RMK AO2 T02390056
04850KAOH AOH20160418190510804/18/16 19:05:31  5-MIN KAOH 190005Z AUTO 21004KT 10SM CLR 24/06 A3021 710 30 1900 220/04 RMK AO2 T02390056
04850KAOH AOH20160418191010804/18/16 19:10:31  5-MIN KAOH 190010Z AUTO 21004KT 10SM CLR 24/06 A3021 710 30 1900 220/04 RMK AO2 T02390056
04850KAOH AOH20160418191510804/18/16 19:15:31  5-MIN KAOH 190015Z AUTO 22004KT 10SM CLR 24/05 A3021 710 29 1900 220/04 RMK AO2 T02390050
04850KAOH AOH20160418192010804/18/16 19:20:31  5-MIN KAOH 190020Z AUTO 22004KT 10SM CLR 23/05 A3021 710 30 1900 220/04 RMK AO2 T02330050
04850KAOH AOH20160418192510804/18/16 19:25:31  5-MIN KAOH 190025Z AUTO 22004KT 10SM CLR 23/05 A3021 710 30 1900 220/04 RMK AO2 T02330050
04850KAOH AOH20160418193010804/18/16 19:30:31  5-MIN KAOH 190030Z AUTO 22004KT 10SM CLR 23/05 A3021 710 30 1900 220/04 RMK AO2 T02330050
04850KAOH AOH20160418193510804/18/16 19:35:31  5-MIN KAOH 190035Z AUTO 22004KT 10SM CLR 23/05 A3021 710 30 1900 230/04 RMK AO2 T02330050
04850KAOH AOH20160418194010804/18/16 19:40:31  5-MIN KAOH 190040Z AUTO 22004KT 10SM CLR 23/05 A3021 710 31 1800 230/04 RMK AO2 T02280050
04850KAOH AOH20160418194510804/18/16 19:45:31  5-MIN KAOH 190045Z AUTO 23003KT 10SM CLR 23/06 A3021 710 32 1800 230/03 RMK AO2 T02280056
04850KAOH AOH20160418195011504/18/16 19:50:31  5-MIN KAOH 190050Z AUTO 00000KT 10SM CLR 22/06 A3021 710 33 1800 000/00 RMK AO2 SLP226 T02220056
04850KAOH AOH20160418195510804/18/16 19:55:31  5-MIN KAOH 190055Z AUTO 00000KT 10SM CLR 21/07 A3021 710 41 1600 000/00 RMK AO2 T02060072
04850KAOH AOH20160418200010804/18/16 20:00:31  5-MIN KAOH 190100Z AUTO 00000KT 10SM CLR 20/07 A3021 710 43 1500 000/00 RMK AO2 T02000072
04850KAOH AOH20160418200510804/18/16 20:05:31  5-MIN KAOH 190105Z AUTO 00000KT 10SM CLR 19/08 A3021 710 48 1400 000/00 RMK AO2 T01940083
04850KAOH AOH20160418201010804/18/16 20:10:31  5-MIN KAOH 190110Z AUTO 00000KT 10SM CLR 21/07 A3021 710 41 1600 000/00 RMK AO2 T02060072
04850KAOH AOH20160418201510804/18/16 20:15:31  5-MIN KAOH 190115Z AUTO 00000KT 10SM CLR 21/08 A3021 710 43 1600 000/00 RMK AO2 T02060078
04850KAOH AOH20160418202010804/18/16 20:20:31  5-MIN KAOH 190120Z AUTO 00000KT 10SM CLR 19/08 A3021 710 50 1400 000/00 RMK AO2 T01890083
04850KAOH AOH20160418202510804/18/16 20:25:31  5-MIN KAOH 190125Z AUTO 00000KT 10SM CLR 18/08 A3021 710 52 1300 000/00 RMK AO2 T01830083
04850KAOH AOH20160418203010804/18/16 20:30:31  5-MIN KAOH 190130Z AUTO 00000KT 10SM CLR 18/08 A3021 710 52 1300 000/00 RMK AO2 T01830083
04850KAOH AOH20160418203510804/18/16 20:35:31  5-MIN KAOH 190135Z AUTO 00000KT 10SM CLR 18/08 A3021 710 51 1200 000/00 RMK AO2 T01780078
04850KAOH AOH20160418204010804/18/16 20:40:31  5-MIN KAOH 190140Z AUTO 00000KT 10SM CLR 18/08 A3021 710 50 1300 000/00 RMK AO2 T01830078
04850KAOH AOH20160418204510804/18/16 20:45:31  5-MIN KAOH 190145Z AUTO 22003KT 10SM CLR 19/08 A3021 710 48 1400 220/03 RMK AO2 T01890078
04850KAOH AOH20160418205011504/18/16 20:50:31  5-MIN KAOH 190150Z AUTO 22003KT 10SM CLR 18/08 A3021 710 52 1300 230/03 RMK AO2 SLP226 T01830083
04850KAOH AOH20160418205510804/18/16 20:55:31  5-MIN KAOH 190155Z AUTO 00000KT 10SM CLR 18/08 A3021 710 50 1300 000/00 RMK AO2 T01830078
04850KAOH AOH20160418210010804/18/16 21:00:31  5-MIN KAOH 190200Z AUTO 00000KT 10SM CLR 18/08 A3021 710 51 1200 000/00 RMK AO2 T01780078
04850KAOH AOH20160418210510804/18/16 21:05:31  5-MIN KAOH 190205Z AUTO 00000KT 10SM CLR 18/08 A3021 710 50 1300 000/00 RMK AO2 T01830078
04850KAOH AOH20160418211010804/18/16 21:10:31  5-MIN KAOH 190210Z AUTO 00000KT 10SM CLR 18/08 A3021 710 51 1200 000/00 RMK AO2 T01780078
04850KAOH AOH20160418211510804/18/16 21:15:31  5-MIN KAOH 190215Z AUTO 00000KT 10SM CLR 19/07 A3021 710 44 1400 000/00 RMK AO2 T01940072
04850KAOH AOH20160418212010804/18/16 21:20:31  5-MIN KAOH 190220Z AUTO 00000KT 10SM CLR 19/08 A3021 710 48 1400 000/00 RMK AO2 T01890078
04850KAOH AOH20160418212510804/18/16 21:25:31  5-MIN KAOH 190225Z AUTO 00000KT 10SM CLR 19/08 A3021 710 48 1400 000/00 RMK AO2 T01890078
04850KAOH AOH20160418213010804/18/16 21:30:31  5-MIN KAOH 190230Z AUTO 22003KT 10SM CLR 19/08 A3021 710 48 1400 230/03 RMK AO2 T01890078
04850KAOH AOH20160418213510804/18/16 21:35:31  5-MIN KAOH 190235Z AUTO 21003KT 10SM CLR 18/08 A3021 710 53 1200 220/03 RMK AO2 T01780083
04850KAOH AOH20160418214010804/18/16 21:40:31  5-MIN KAOH 190240Z AUTO 00000KT 10SM CLR 18/08 A3021 710 53 1200 000/00 RMK AO2 T01780083
04850KAOH AOH20160418214510804/18/16 21:45:31  5-MIN KAOH 190245Z AUTO 00000KT 10SM CLR 17/08 A3021 710 57 1100 000/00 RMK AO2 T01670083
04850KAOH AOH20160418215012104/18/16 21:50:31  5-MIN KAOH 190250Z AUTO 00000KT 10SM CLR 17/08 A3021 710 57 1100 000/00 RMK AO2 SLP226 T01670083 56007
04850KAOH AOH20160418215510804/18/16 21:55:31  5-MIN KAOH 190255Z AUTO 22003KT 10SM CLR 17/08 A3021 710 57 1100 220/03 RMK AO2 T01670083
04850KAOH AOH20160418220010804/18/16 22:00:31  5-MIN KAOH 190300Z AUTO 22003KT 10SM CLR 17/08 A3021 710 55 1200 230/03 RMK AO2 T01720083
04850KAOH AOH20160418220510804/18/16 22:05:31  5-MIN KAOH 190305Z AUTO 22003KT 10SM CLR 17/08 A3021 710 55 1200 220/03 RMK AO2 T01720083
04850KAOH AOH20160418221010804/18/16 22:10:31  5-MIN KAOH 190310Z AUTO 21003KT 10SM CLR 17/08 A3021 710 55 1100 220/03 RMK AO2 T01670078
04850KAOH AOH20160418221510804/18/16 22:15:31  5-MIN KAOH 190315Z AUTO 21004KT 10SM CLR 17/08 A3021 710 53 1200 220/04 RMK AO2 T01720078
04850KAOH AOH20160418222010804/18/16 22:20:31  5-MIN KAOH 190320Z AUTO 20003KT 10SM CLR 17/08 A3021 710 55 1100 210/03 RMK AO2 T01670078
04850KAOH AOH20160418222510804/18/16 22:25:31  5-MIN KAOH 190325Z AUTO 20003KT 10SM CLR 16/08 A3021 710 59 1100 210/03 RMK AO2 T01610083
04850KAOH AOH20160418223010704/18/16 22:30:31  5-MIN KAOH 190330Z AUTO 00000KT 10SM CLR 15/09 A3020 720 66 900 000/00 RMK AO2 T01500089
04850KAOH AOH20160418223510704/18/16 22:35:31  5-MIN KAOH 190335Z AUTO 00000KT 10SM CLR 14/09 A3020 720 69 900 000/00 RMK AO2 T01440089
04850KAOH AOH20160418224010704/18/16 22:40:31  5-MIN KAOH 190340Z AUTO 00000KT 10SM CLR 15/08 A3020 720 64 900 000/00 RMK AO2 T01500083
04850KAOH AOH20160418224510704/18/16 22:45:31  5-MIN KAOH 190345Z AUTO 00000KT 10SM CLR 15/08 A3020 720 64 900 000/00 RMK AO2 T01500083
04850KAOH AOH20160418225011504/18/16 22:50:31  5-MIN KAOH 190350Z AUTO 00000KT 10SM CLR 16/08 A3020 720 57 1100 000/00 RMK AO2 SLP223 T01610078
04850KAOH AOH20160418225510704/18/16 22:55:31  5-MIN KAOH 190355Z AUTO 00000KT 10SM CLR 15/09 A3020 720 66 900 000/00 RMK AO2 T01500089
04850KAOH AOH20160418230010704/18/16 23:00:31  5-MIN KAOH 190400Z AUTO 00000KT 10SM CLR 14/09 A3020 720 69 900 000/00 RMK AO2 T01440089
04850KAOH AOH20160418230510704/18/16 23:05:31  5-MIN KAOH 190405Z AUTO 00000KT 10SM CLR 14/09 A3020 720 69 900 000/00 RMK AO2 T01440089
04850KAOH AOH20160418231010804/18/16 23:10:31  5-MIN KAOH 190410Z AUTO 21003KT 10SM CLR 16/08 A3020 720 59 1100 210/03 RMK AO2 T01610083
04850KAOH AOH20160418231510804/18/16 23:15:31  5-MIN KAOH 190415Z AUTO 20004KT 10SM CLR 16/08 A3020 720 59 1100 210/04 RMK AO2 T01610083
04850KAOH AOH20160418232010804/18/16 23:20:31  5-MIN KAOH 190420Z AUTO 21003KT 10SM CLR 16/08 A3020 720 59 1100 220/03 RMK AO2 T01610083
04850KAOH AOH20160418232510804/18/16 23:25:31  5-MIN KAOH 190425Z AUTO 22004KT 10SM CLR 16/08 A3020 720 57 1100 220/04 RMK AO2 T01610078
04850KAOH AOH20160418233010804/18/16 23:30:31  5-MIN KAOH 190430Z AUTO 22003KT 10SM CLR 16/08 A3020 720 62 1000 220/03 RMK AO2 T01560083
04850KAOH AOH20160418233510704/18/16 23:35:31  5-MIN KAOH 190435Z AUTO 22003KT 10SM CLR 15/08 A3020 720 64 900 230/03 RMK AO2 T01500083
04850KAOH AOH20160418234010704/18/16 23:40:31  5-MIN KAOH 190440Z AUTO 00000KT 10SM CLR 15/08 A3020 720 64 900 000/00 RMK AO2 T01500083
04850KAOH AOH20160418234510804/18/16 23:45:31  5-MIN KAOH 190445Z AUTO 22003KT 10SM CLR 16/08 A3019 730 62 1000 220/03 RMK AO2 T01560083
04850KAOH AOH20160418235012504/18/16 23:50:31  5-MIN KAOH 190450Z AUTO 21003KT 10SM CLR 16/08 A3020 720 59 1000 220/03 RMK AO2 SLP220 T01560078 402670094
04850KAOH AOH20160418235510804/18/16 23:55:31  5-MIN KAOH 190455Z AUTO 20003KT 10SM CLR 16/08 A3019 720 62 1000 210/03 RMK AO2 T01560083
04850KAOH AOH20160419000010804/19/16 00:00:31  5-MIN KAOH 190500Z AUTO 20003KT 10SM CLR 16/08 A3020 720 62 1000 210/03 RMK AO2 T01560083
04850KAOH AOH20160419000510704/19/16 00:05:31  5-MIN KAOH 190505Z AUTO 20003KT 10SM CLR 15/08 A3020 720 62 900 210/03 RMK AO2 T01500078
04850KAOH AOH20160419001010704/19/16 00:10:31  5-MIN KAOH 190510Z AUTO 21003KT 10SM CLR 14/08 A3020 720 64 900 210/03 RMK AO2 T01440078
04850KAOH AOH20160419001510704/19/16 00:15:31  5-MIN KAOH 190515Z AUTO 20003KT 10SM CLR 15/08 A3020 720 62 900 210/03 RMK AO2 T01500078
04850KAOH AOH20160419002010704/19/16 00:20:31  5-MIN KAOH 190520Z AUTO 00000KT 10SM CLR 15/08 A3020 720 62 900 000/00 RMK AO2 T01500078
04850KAOH AOH20160419002510704/19/16 00:25:31  5-MIN KAOH 190525Z AUTO 00000KT 10SM CLR 15/08 A3019 720 62 900 000/00 RMK AO2 T01500078
04850KAOH AOH20160419003010704/19/16 00:30:31  5-MIN KAOH 190530Z AUTO 19003KT 10SM CLR 15/08 A3019 730 62 900 200/03 RMK AO2 T01500078
04850KAOH AOH20160419003510704/19/16 00:35:31  5-MIN KAOH 190535Z AUTO 00000KT 10SM CLR 15/08 A3019 730 62 900 000/00 RMK AO2 T01500078
04850KAOH AOH20160419004010704/19/16 00:40:31  5-MIN KAOH 190540Z AUTO 00000KT 10SM CLR 14/08 A3019 730 64 900 000/00 RMK AO2 T01440078
04850KAOH AOH20160419004510704/19/16 00:45:31  5-MIN KAOH 190545Z AUTO 00000KT 10SM CLR 14/08 A3019 730 64 900 000/00 RMK AO2 T01440078
04850KAOH AOH20160419005013204/19/16 00:50:31  5-MIN KAOH 190550Z AUTO 00000KT 10SM CLR 14/08 A3019 730 64 900 000/00 RMK AO2 SLP218 T01440078 10244 20144 55000
04850KAOH AOH20160419005510704/19/16 00:55:31  5-MIN KAOH 190555Z AUTO 00000KT 10SM CLR 15/07 A3019 730 59 900 000/00 RMK AO2 T01500072
04850KAOH AOH20160419010010704/19/16 01:00:31  5-MIN KAOH 190600Z AUTO 34003KT 10SM CLR 13/08 A3019 730 69 700 350/03 RMK AO2 T01330078
04850KAOH AOH20160419010510704/19/16 01:05:31  5-MIN KAOH 190605Z AUTO 00000KT 10SM CLR 13/08 A3019 730 69 700 000/00 RMK AO2 T01330078
04850KAOH AOH20160419011010704/19/16 01:10:31  5-MIN KAOH 190610Z AUTO 00000KT 10SM CLR 14/07 A3019 730 64 800 000/00 RMK AO2 T01390072
04850KAOH AOH20160419011510704/19/16 01:15:31  5-MIN KAOH 190615Z AUTO 00000KT 10SM CLR 13/08 A3019 730 69 700 000/00 RMK AO2 T01330078
04850KAOH AOH20160419012010704/19/16 01:20:31  5-MIN KAOH 190620Z AUTO 00000KT 10SM CLR 14/07 A3019 730 64 800 000/00 RMK AO2 T01390072
04850KAOH AOH20160419012510704/19/16 01:25:31  5-MIN KAOH 190625Z AUTO 00000KT 10SM CLR 14/07 A3019 730 64 800 000/00 RMK AO2 T01390072
04850KAOH AOH20160419013010704/19/16 01:30:31  5-MIN KAOH 190630Z AUTO 00000KT 10SM CLR 14/07 A3018 730 61 900 000/00 RMK AO2 T01440072
04850KAOH AOH20160419013510704/19/16 01:35:31  5-MIN KAOH 190635Z AUTO 00000KT 10SM CLR 14/08 A3018 740 69 800 000/00 RMK AO2 T01390083
04850KAOH AOH20160419014010704/19/16 01:40:31  5-MIN KAOH 190640Z AUTO 00000KT 10SM CLR 14/08 A3018 740 64 900 000/00 RMK AO2 T01440078
04850KAOH AOH20160419014510704/19/16 01:45:31  5-MIN KAOH 190645Z AUTO 00000KT 10SM CLR 14/07 A3018 740 61 900 000/00 RMK AO2 T01440072
04850KAOH AOH20160419015011504/19/16 01:50:31  5-MIN KAOH 190650Z AUTO 00000KT 10SM CLR 15/07 A3018 740 59 1000 000/00 RMK AO2 SLP215 T01500072
04850KAOH AOH20160419015510804/19/16 01:55:31  5-MIN KAOH 190655Z AUTO 25003KT 10SM CLR 15/07 A3018 740 59 1000 260/03 RMK AO2 T01500072
04850KAOH AOH20160419020010804/19/16 02:00:31  5-MIN KAOH 190700Z AUTO 24003KT 10SM CLR 16/07 A3018 740 55 1000 250/03 RMK AO2 T01560067
04850KAOH AOH20160419020510804/19/16 02:05:31  5-MIN KAOH 190705Z AUTO 24003KT 10SM CLR 16/06 A3018 740 51 1100 250/03 RMK AO2 T01610061
04850KAOH AOH20160419021010804/19/16 02:10:31  5-MIN KAOH 190710Z AUTO 24003KT 10SM CLR 16/07 A3018 740 53 1100 240/03 RMK AO2 T01610067
04850KAOH AOH20160419021510804/19/16 02:15:31  5-MIN KAOH 190715Z AUTO 23004KT 10SM CLR 16/07 A3018 740 55 1000 240/04 RMK AO2 T01560067
04850KAOH AOH20160419022010804/19/16 02:20:31  5-MIN KAOH 190720Z AUTO 23003KT 10SM CLR 15/07 A3017 740 59 1000 240/03 RMK AO2 T01500072
04850KAOH AOH20160419022510704/19/16 02:25:31  5-MIN KAOH 190725Z AUTO 23003KT 10SM CLR 14/08 A3017 740 66 800 230/03 RMK AO2 T01390078
04850KAOH AOH20160419023010704/19/16 02:30:31  5-MIN KAOH 190730Z AUTO 23003KT 10SM CLR 13/08 A3017 740 71 800 230/03 RMK AO2 T01330083
04850KAOH AOH20160419023510704/19/16 02:35:31  5-MIN KAOH 190735Z AUTO 22003KT 10SM CLR 13/08 A3017 740 71 800 230/03 RMK AO2 T01330083
04850KAOH AOH20160419024010704/19/16 02:40:31  5-MIN KAOH 190740Z AUTO 22003KT 10SM CLR 13/08 A3017 740 71 800 230/03 RMK AO2 T01330083
04850KAOH AOH20160419024510704/19/16 02:45:31  5-MIN KAOH 190745Z AUTO 22003KT 10SM CLR 13/08 A3017 740 71 800 230/03 RMK AO2 T01330083
04850KAOH AOH20160419025011404/19/16 02:50:31  5-MIN KAOH 190750Z AUTO 21003KT 10SM CLR 13/08 A3017 740 71 800 220/03 RMK AO2 SLP213 T01330083
04850KAOH AOH20160419025510704/19/16 02:55:31  5-MIN KAOH 190755Z AUTO 20003KT 10SM CLR 13/08 A3017 740 71 800 210/03 RMK AO2 T01330083
04850KAOH AOH20160419030010704/19/16 03:00:31  5-MIN KAOH 190800Z AUTO 20003KT 10SM CLR 13/08 A3017 750 71 800 210/03 RMK AO2 T01330083
04850KAOH AOH20160419030510704/19/16 03:05:31  5-MIN KAOH 190805Z AUTO 19003KT 10SM CLR 13/08 A3017 750 71 800 200/03 RMK AO2 T01330083
04850KAOH AOH20160419031010704/19/16 03:10:31  5-MIN KAOH 190810Z AUTO 00000KT 10SM CLR 13/08 A3017 740 69 800 000/00 RMK AO2 T01330078
04850KAOH AOH20160419031510704/19/16 03:15:31  5-MIN KAOH 190815Z AUTO 00000KT 10SM CLR 13/09 A3018 740 77 700 000/00 RMK AO2 T01280089
04850KAOH AOH20160419032010704/19/16 03:20:31  5-MIN KAOH 190820Z AUTO 00000KT 10SM CLR 13/08 A3018 740 74 700 000/00 RMK AO2 T01280083
04850KAOH AOH20160419032510704/19/16 03:25:31  5-MIN KAOH 190825Z AUTO 00000KT 10SM CLR 14/08 A3018 740 66 800 000/00 RMK AO2 T01390078
04850KAOH AOH20160419033010704/19/16 03:30:31  5-MIN KAOH 190830Z AUTO 00000KT 10SM CLR 14/08 A3018 740 66 800 000/00 RMK AO2 T01390078
04850KAOH AOH20160419033510704/19/16 03:35:31  5-MIN KAOH 190835Z AUTO 00000KT 10SM CLR 13/08 A3018 740 71 800 000/00 RMK AO2 T01330083
04850KAOH AOH20160419034010704/19/16 03:40:31  5-MIN KAOH 190840Z AUTO 00000KT 10SM CLR 12/09 A3018 740 80 600 000/00 RMK AO2 T01220089
04850KAOH AOH20160419034510704/19/16 03:45:31  5-MIN KAOH 190845Z AUTO 00000KT 10SM CLR 13/08 A3018 740 74 700 000/00 RMK AO2 T01280083
04850KAOH AOH20160419035012004/19/16 03:50:31  5-MIN KAOH 190850Z AUTO 00000KT 10SM CLR 13/08 A3018 740 69 800 000/00 RMK AO2 SLP214 T01330078 56007
04850KAOH AOH20160419035510704/19/16 03:55:31  5-MIN KAOH 190855Z AUTO 00000KT 10SM CLR 13/08 A3018 740 71 800 000/00 RMK AO2 T01330083
04850KAOH AOH20160419040010704/19/16 04:00:31  5-MIN KAOH 190900Z AUTO 00000KT 10SM CLR 13/08 A3018 740 71 800 000/00 RMK AO2 T01330083
04850KAOH AOH20160419040510704/19/16 04:05:31  5-MIN KAOH 190905Z AUTO 00000KT 10SM CLR 14/08 A3018 740 66 800 000/00 RMK AO2 T01390078
04850KAOH AOH20160419041010704/19/16 04:10:31  5-MIN KAOH 190910Z AUTO 00000KT 10SM CLR 14/07 A3018 740 64 800 000/00 RMK AO2 T01390072
04850KAOH AOH20160419041510704/19/16 04:15:31  5-MIN KAOH 190915Z AUTO 03004KT 10SM CLR 13/08 A3018 740 71 700 030/04 RMK AO2 T01280078
04850KAOH AOH20160419042010704/19/16 04:20:31  5-MIN KAOH 190920Z AUTO 03006KT 10SM CLR 13/07 A3018 740 66 800 030/06 RMK AO2 T01330072
04850KAOH AOH20160419042510704/19/16 04:25:31  5-MIN KAOH 190925Z AUTO 02006KT 10SM CLR 14/07 A3018 730 64 800 030/06 RMK AO2 T01390072
04850KAOH AOH20160419043010704/19/16 04:30:31  5-MIN KAOH 190930Z AUTO 01006KT 10SM CLR 14/07 A3019 730 64 800 020/06 RMK AO2 T01390072
04850KAOH AOH20160419043510704/19/16 04:35:31  5-MIN KAOH 190935Z AUTO 01005KT 10SM CLR 14/07 A3019 730 64 800 020/05 RMK AO2 T01390072
04850KAOH AOH20160419044010704/19/16 04:40:31  5-MIN KAOH 190940Z AUTO 03006KT 10SM CLR 14/07 A3019 730 59 900 040/06 RMK AO2 T01440067
04850KAOH AOH20160419044510704/19/16 04:45:31  5-MIN KAOH 190945Z AUTO 04006KT 10SM CLR 14/07 A3019 730 64 800 050/06 RMK AO2 T01390072
04850KAOH AOH20160419045011404/19/16 04:50:31  5-MIN KAOH 190950Z AUTO 05006KT 10SM CLR 14/07 A3019 730 64 800 050/06 RMK AO2 SLP218 T01390072
04850KAOH AOH20160419045510704/19/16 04:55:31  5-MIN KAOH 190955Z AUTO 06010KT 10SM CLR 14/07 A3019 730 64 800 070/10 RMK AO2 T01390072
04850KAOH AOH20160419050010704/19/16 05:00:31  5-MIN KAOH 191000Z AUTO 06009KT 10SM CLR 14/08 A3019 730 66 800 070/09 RMK AO2 T01390078
04850KAOH AOH20160419050510704/19/16 05:05:31  5-MIN KAOH 191005Z AUTO 06008KT 10SM CLR 13/08 A3019 720 69 700 070/08 RMK AO2 T01330078
04850KAOH AOH20160419051010704/19/16 05:10:31  5-MIN KAOH 191010Z AUTO 05009KT 10SM CLR 13/08 A3020 720 69 700 050/09 RMK AO2 T01330078
04850KAOH AOH20160419051510704/19/16 05:15:31  5-MIN KAOH 191015Z AUTO 05007KT 10SM CLR 13/08 A3020 720 71 700 060/07 RMK AO2 T01280078
04850KAOH AOH20160419052010704/19/16 05:20:31  5-MIN KAOH 191020Z AUTO 05009KT 10SM CLR 13/08 A3020 720 71 700 060/09 RMK AO2 T01280078
04850KAOH AOH20160419052510704/19/16 05:25:31  5-MIN KAOH 191025Z AUTO 05008KT 10SM CLR 13/07 A3020 720 69 700 060/08 RMK AO2 T01280072
04850KAOH AOH20160419053010704/19/16 05:30:31  5-MIN KAOH 191030Z AUTO 05008KT 10SM CLR 13/07 A3020 720 69 700 050/08 RMK AO2 T01280072
04850KAOH AOH20160419053510704/19/16 05:35:31  5-MIN KAOH 191035Z AUTO 05009KT 10SM CLR 12/07 A3020 720 71 600 060/09 RMK AO2 T01220072
04850KAOH AOH20160419054010704/19/16 05:40:31  5-MIN KAOH 191040Z AUTO 05006KT 10SM CLR 12/07 A3020 720 71 600 060/06 RMK AO2 T01220072
04850KAOH AOH20160419054510704/19/16 05:45:31  5-MIN KAOH 191045Z AUTO 04006KT 10SM CLR 12/08 A3021 720 77 500 050/06 RMK AO2 T01170078
04850KAOH AOH20160419055011404/19/16 05:50:31  5-MIN KAOH 191050Z AUTO 06007KT 10SM CLR 12/07 A3020 720 74 500 070/07 RMK AO2 SLP224 T01170072
04850KAOH AOH20160419055510704/19/16 05:55:31  5-MIN KAOH 191055Z AUTO 06007KT 10SM CLR 12/08 A3020 720 77 500 060/07 RMK AO2 T01170078
04850KAOH AOH20160419060010704/19/16 06:00:31  5-MIN KAOH 191100Z AUTO 05006KT 10SM CLR 12/08 A3020 720 77 500 060/06 RMK AO2 T01170078
04850KAOH AOH20160419060510704/19/16 06:05:31  5-MIN KAOH 191105Z AUTO 05006KT 10SM CLR 12/07 A3020 720 74 500 060/06 RMK AO2 T01170072
04850KAOH AOH20160419061010704/19/16 06:10:31  5-MIN KAOH 191110Z AUTO 05006KT 10SM CLR 12/08 A3021 710 77 500 060/06 RMK AO2 T01170078
04850KAOH AOH20160419061510704/19/16 06:15:31  5-MIN KAOH 191115Z AUTO 04006KT 10SM CLR 12/08 A3021 710 77 500 050/06 RMK AO2 T01170078
04850KAOH AOH20160419062010704/19/16 06:20:31  5-MIN KAOH 191120Z AUTO 04007KT 10SM CLR 12/08 A3021 710 77 500 040/07 RMK AO2 T01170078
04850KAOH AOH20160419062510704/19/16 06:25:31  5-MIN KAOH 191125Z AUTO 04007KT 10SM CLR 11/08 A3021 710 80 500 050/07 RMK AO2 T01110078
04850KAOH AOH20160419063010704/19/16 06:30:31  5-MIN KAOH 191130Z AUTO 04007KT 10SM CLR 12/07 A3022 700 74 500 050/07 RMK AO2 T01170072
04850KAOH AOH20160419063510704/19/16 06:35:31  5-MIN KAOH 191135Z AUTO 05008KT 10SM CLR 12/07 A3022 700 74 500 060/08 RMK AO2 T01170072
04850KAOH AOH20160419064010704/19/16 06:40:31  5-MIN KAOH 191140Z AUTO 05007KT 10SM CLR 12/07 A3022 700 74 500 050/07 RMK AO2 T01170072
04850KAOH AOH20160419064510704/19/16 06:45:31  5-MIN KAOH 191145Z AUTO 04006KT 10SM CLR 12/07 A3022 700 74 500 050/06 RMK AO2 T01170072
04850KAOH AOH20160419065013204/19/16 06:50:31  5-MIN KAOH 191150Z AUTO 04008KT 10SM CLR 11/07 A3022 700 77 400 050/08 RMK AO2 SLP232 T01110072 10161 20111 55004
04850KAOH AOH20160419065510704/19/16 06:55:31  5-MIN KAOH 191155Z AUTO 04008KT 10SM CLR 11/07 A3022 700 77 400 050/08 RMK AO2 T01110072
04850KAOH AOH20160419070010704/19/16 07:00:31  5-MIN KAOH 191200Z AUTO 05008KT 10SM CLR 11/07 A3022 700 77 400 050/08 RMK AO2 T01110072
04850KAOH AOH20160419070510704/19/16 07:05:31  5-MIN KAOH 191205Z AUTO 05011KT 10SM CLR 11/07 A3023 700 77 400 050/11 RMK AO2 T01110072
04850KAOH AOH20160419071010704/19/16 07:10:31  5-MIN KAOH 191210Z AUTO 05008KT 10SM CLR 11/07 A3023 690 77 400 050/08 RMK AO2 T01110072
04850KAOH AOH20160419071510704/19/16 07:15:31  5-MIN KAOH 191215Z AUTO 05009KT 10SM CLR 11/07 A3023 690 77 400 050/09 RMK AO2 T01110072
04850KAOH AOH20160419072010704/19/16 07:20:31  5-MIN KAOH 191220Z AUTO 05009KT 10SM CLR 11/07 A3023 690 77 400 050/09 RMK AO2 T01110072
04850KAOH AOH20160419072510704/19/16 07:25:31  5-MIN KAOH 191225Z AUTO 05009KT 10SM CLR 11/07 A3023 690 77 400 050/09 RMK AO2 T01110072
04850KAOH AOH20160419073010704/19/16 07:30:31  5-MIN KAOH 191230Z AUTO 05011KT 10SM CLR 11/07 A3023 700 77 400 050/11 RMK AO2 T01110072
04850KAOH AOH20160419073510704/19/16 07:35:31  5-MIN KAOH 191235Z AUTO 05010KT 10SM CLR 11/07 A3023 690 77 400 050/10 RMK AO2 T01110072
04850KAOH AOH20160419074010704/19/16 07:40:31  5-MIN KAOH 191240Z AUTO 05008KT 10SM CLR 12/07 A3023 690 74 500 060/08 RMK AO2 T01170072
04850KAOH AOH20160419074510704/19/16 07:45:31  5-MIN KAOH 191245Z AUTO 05008KT 10SM CLR 12/07 A3023 690 74 500 060/08 RMK AO2 T01170072
04850KAOH AOH20160419075011404/19/16 07:50:31  5-MIN KAOH 191250Z AUTO 06009KT 10SM CLR 12/07 A3023 690 74 500 060/09 RMK AO2 SLP235 T01170072
04850KAOH AOH20160419075510704/19/16 07:55:31  5-MIN KAOH 191255Z AUTO 06011KT 10SM CLR 12/07 A3023 690 74 500 060/11 RMK AO2 T01170072
04850KAOH AOH20160419080011304/19/16 08:00:31  5-MIN KAOH 191300Z AUTO 06010G17KT 10SM CLR 12/07 A3023 690 74 500 060/10G17 RMK AO2 T01170072
04850KAOH AOH20160419080510704/19/16 08:05:31  5-MIN KAOH 191305Z AUTO 05010KT 10SM CLR 12/07 A3024 690 74 500 060/10 RMK AO2 T01170072
04850KAOH AOH20160419081010704/19/16 08:10:31  5-MIN KAOH 191310Z AUTO 06012KT 10SM CLR 12/07 A3024 690 74 500 070/12 RMK AO2 T01170072
04850KAOH AOH20160419081510704/19/16 08:15:31  5-MIN KAOH 191315Z AUTO 06008KT 10SM CLR 12/07 A3024 690 74 500 060/08 RMK AO2 T01170072
04850KAOH AOH20160419082010704/19/16 08:20:31  5-MIN KAOH 191320Z AUTO 05008KT 10SM CLR 12/07 A3024 680 71 600 060/08 RMK AO2 T01220072
04850KAOH AOH20160419082510704/19/16 08:25:31  5-MIN KAOH 191325Z AUTO 05007KT 10SM CLR 12/08 A3024 690 74 600 060/07 RMK AO2 T01220078
04850KAOH AOH20160419083010704/19/16 08:30:31  5-MIN KAOH 191330Z AUTO 05011KT 10SM CLR 12/08 A3024 690 74 600 060/11 RMK AO2 T01220078
04850KAOH AOH20160419083510704/19/16 08:35:31  5-MIN KAOH 191335Z AUTO 06011KT 10SM CLR 12/08 A3024 680 74 600 060/11 RMK AO2 T01220078
04850KAOH AOH20160419084010704/19/16 08:40:31  5-MIN KAOH 191340Z AUTO 05010KT 10SM CLR 12/08 A3024 690 74 600 050/10 RMK AO2 T01220078
04850KAOH AOH20160419084510704/19/16 08:45:31  5-MIN KAOH 191345Z AUTO 05012KT 10SM CLR 12/08 A3024 680 74 600 060/12 RMK AO2 T01220078
04850KAOH AOH20160419085011404/19/16 08:50:31  5-MIN KAOH 191350Z AUTO 05010KT 10SM CLR 12/08 A3024 680 74 600 060/10 RMK AO2 SLP238 T01220078
04850KAOH AOH20160419085510704/19/16 08:55:31  5-MIN KAOH 191355Z AUTO 05011KT 10SM CLR 13/08 A3024 680 71 600 060/11 RMK AO2 T01280078
04850KAOH AOH20160419090010704/19/16 09:00:31  5-MIN KAOH 191400Z AUTO 05007KT 10SM CLR 13/08 A3024 690 71 600 060/07 RMK AO2 T01280078
04850KAOH AOH20160419090510704/19/16 09:05:31  5-MIN KAOH 191405Z AUTO 05013KT 10SM CLR 13/08 A3024 680 71 600 060/13 RMK AO2 T01280078
04850KAOH AOH20160419091010704/19/16 09:10:31  5-MIN KAOH 191410Z AUTO 06010KT 10SM CLR 13/08 A3024 680 71 600 070/10 RMK AO2 T01280078
04850KAOH AOH20160419091510704/19/16 09:15:31  5-MIN KAOH 191415Z AUTO 06011KT 10SM CLR 13/08 A3024 680 74 600 070/11 RMK AO2 T01280083
04850KAOH AOH20160419092010704/19/16 09:20:31  5-MIN KAOH 191420Z AUTO 05011KT 10SM CLR 13/08 A3024 680 74 600 060/11 RMK AO2 T01280083
04850KAOH AOH20160419092510704/19/16 09:25:31  5-MIN KAOH 191425Z AUTO 06011KT 10SM CLR 13/08 A3024 680 74 600 060/11 RMK AO2 T01280083
04850KAOH AOH20160419093010704/19/16 09:30:31  5-MIN KAOH 191430Z AUTO 05010KT 10SM CLR 13/08 A3024 680 71 700 050/10 RMK AO2 T01330083
04850KAOH AOH20160419093510704/19/16 09:35:31  5-MIN KAOH 191435Z AUTO 06010KT 10SM CLR 13/08 A3024 680 71 700 060/10 RMK AO2 T01330083
04850KAOH AOH20160419094010704/19/16 09:40:31  5-MIN KAOH 191440Z AUTO 06009KT 10SM CLR 13/08 A3024 680 71 700 070/09 RMK AO2 T01330083
04850KAOH AOH20160419094510704/19/16 09:45:31  5-MIN KAOH 191445Z AUTO 05011KT 10SM CLR 13/08 A3024 680 71 700 060/11 RMK AO2 T01330083
04850KAOH AOH20160419095012004/19/16 09:50:31  5-MIN KAOH 191450Z AUTO 06010KT 10SM CLR 13/08 A3024 680 71 700 060/10 RMK AO2 SLP240 T01330083 53015
04850KAOH AOH20160419095510704/19/16 09:55:31  5-MIN KAOH 191455Z AUTO 06008KT 10SM CLR 14/09 A3024 680 71 700 070/08 RMK AO2 T01390089
04850KAOH AOH20160419100010704/19/16 10:00:31  5-MIN KAOH 191500Z AUTO 05011KT 10SM CLR 14/09 A3024 680 74 700 060/11 RMK AO2 T01390094
04850KAOH AOH20160419100510704/19/16 10:05:31  5-MIN KAOH 191505Z AUTO 05011KT 10SM CLR 14/09 A3024 680 71 700 060/11 RMK AO2 T01390089
04850KAOH AOH20160419101010704/19/16 10:10:31  5-MIN KAOH 191510Z AUTO 06010KT 10SM CLR 14/09 A3024 680 71 700 060/10 RMK AO2 T01390089
04850KAOH AOH20160419101510704/19/16 10:15:31  5-MIN KAOH 191515Z AUTO 06011KT 10SM CLR 14/09 A3025 680 71 700 070/11 RMK AO2 T01390089
04850KAOH AOH20160419102010704/19/16 10:20:31  5-MIN KAOH 191520Z AUTO 06011KT 10SM CLR 14/09 A3025 680 71 700 070/11 RMK AO2 T01390089
04850KAOH AOH20160419102510704/19/16 10:25:31  5-MIN KAOH 191525Z AUTO 04010KT 10SM CLR 14/09 A3025 680 71 700 050/10 RMK AO2 T01390089
04850KAOH AOH20160419103010704/19/16 10:30:31  5-MIN KAOH 191530Z AUTO 05010KT 10SM CLR 14/09 A3025 680 69 800 050/10 RMK AO2 T01440089
04850KAOH AOH20160419103510704/19/16 10:35:31  5-MIN KAOH 191535Z AUTO 04011KT 10SM CLR 14/09 A3025 680 69 800 050/11 RMK AO2 T01440089
04850KAOH AOH20160419104010704/19/16 10:40:31  5-MIN KAOH 191540Z AUTO 05009KT 10SM CLR 14/09 A3025 670 69 800 050/09 RMK AO2 T01440089
04850KAOH AOH20160419104510704/19/16 10:45:31  5-MIN KAOH 191545Z AUTO 05011KT 10SM CLR 14/09 A3025 670 69 800 060/11 RMK AO2 T01440089
04850KAOH AOH20160419105011404/19/16 10:50:31  5-MIN KAOH 191550Z AUTO 06010KT 10SM CLR 15/09 A3025 670 69 900 070/10 RMK AO2 SLP243 T01500094
04850KAOH AOH20160419105510704/19/16 10:55:31  5-MIN KAOH 191555Z AUTO 07009KT 10SM CLR 15/09 A3025 670 69 900 070/09 RMK AO2 T01500094
04850KAOH AOH20160419110010704/19/16 11:00:31  5-MIN KAOH 191600Z AUTO 05010KT 10SM CLR 15/09 A3025 670 69 900 060/10 RMK AO2 T01500094
04850KAOH AOH20160419110510704/19/16 11:05:31  5-MIN KAOH 191605Z AUTO 07009KT 10SM CLR 16/10 A3025 670 69 900 070/09 RMK AO2 T01560100
04850KAOH AOH20160419111010704/19/16 11:10:31  5-MIN KAOH 191610Z AUTO 04009KT 10SM CLR 16/10 A3026 670 69 900 040/09 RMK AO2 T01560100
04850KAOH AOH20160419111510704/19/16 11:15:31  5-MIN KAOH 191615Z AUTO 07009KT 10SM CLR 15/09 A3026 670 69 900 080/09 RMK AO2 T01500094
04850KAOH AOH20160419112010704/19/16 11:20:31  5-MIN KAOH 191620Z AUTO 05009KT 10SM CLR 16/09 A3026 670 67 900 060/09 RMK AO2 T01560094
04850KAOH AOH20160419112510704/19/16 11:25:31  5-MIN KAOH 191625Z AUTO 06011KT 10SM CLR 16/10 A3025 670 69 900 070/11 RMK AO2 T01560100
04850KAOH AOH20160419113010704/19/16 11:30:31  5-MIN KAOH 191630Z AUTO 03011KT 10SM CLR 15/09 A3025 670 69 900 040/11 RMK AO2 T01500094
04850KAOH AOH20160419113510704/19/16 11:35:31  5-MIN KAOH 191635Z AUTO 03009KT 10SM CLR 15/09 A3025 670 69 900 040/09 RMK AO2 T01500094
04850KAOH AOH20160419114010704/19/16 11:40:31  5-MIN KAOH 191640Z AUTO 02010KT 10SM CLR 16/09 A3025 670 67 900 030/10 RMK AO2 T01560094
04850KAOH AOH20160419114510704/19/16 11:45:31  5-MIN KAOH 191645Z AUTO 05007KT 10SM CLR 16/10 A3026 670 69 900 060/07 RMK AO2 T01560100
04850KAOH AOH20160419115011404/19/16 11:50:31  5-MIN KAOH 191650Z AUTO 04009KT 10SM CLR 16/09 A3026 670 67 900 050/09 RMK AO2 SLP244 T01560094
04850KAOH AOH20160419115510804/19/16 11:55:31  5-MIN KAOH 191655Z AUTO 03010KT 10SM CLR 16/09 A3026 670 64 1000 040/10 RMK AO2 T01610094
04850KAOH AOH20160419120010704/19/16 12:00:31  5-MIN KAOH 191700Z AUTO 04011KT 10SM CLR 16/09 A3026 660 67 900 040/11 RMK AO2 T01560094
04850KAOH AOH20160419120510804/19/16 12:05:31  5-MIN KAOH 191705Z AUTO 07010KT 10SM CLR 16/10 A3026 670 67 1000 080/10 RMK AO2 T01610100
04850KAOH AOH20160419121010804/19/16 12:10:31  5-MIN KAOH 191710Z AUTO 04008KT 10SM CLR 16/10 A3026 670 67 1000 050/08 RMK AO2 T01610100
04850KAOH AOH20160419121510804/19/16 12:15:31  5-MIN KAOH 191715Z AUTO 04009KT 10SM CLR 16/10 A3025 670 67 1000 050/09 RMK AO2 T01610100
04850KAOH AOH20160419122010804/19/16 12:20:31  5-MIN KAOH 191720Z AUTO 05009KT 10SM CLR 16/10 A3025 670 67 1000 050/09 RMK AO2 T01610100
04850KAOH AOH20160419122510804/19/16 12:25:31  5-MIN KAOH 191725Z AUTO 03011KT 10SM CLR 16/10 A3025 670 67 1000 040/11 RMK AO2 T01610100
04850KAOH AOH20160419123010804/19/16 12:30:31  5-MIN KAOH 191730Z AUTO 06011KT 10SM CLR 16/09 A3025 670 64 1000 060/11 RMK AO2 T01610094
04850KAOH AOH20160419123510804/19/16 12:35:31  5-MIN KAOH 191735Z AUTO 05009KT 10SM CLR 16/09 A3025 680 64 1000 050/09 RMK AO2 T01610094
04850KAOH AOH20160419124010804/19/16 12:40:31  5-MIN KAOH 191740Z AUTO 06011KT 10SM CLR 16/09 A3025 680 64 1000 070/11 RMK AO2 T01610094
04850KAOH AOH20160419124510804/19/16 12:45:31  5-MIN KAOH 191745Z AUTO 05011KT 10SM CLR 16/09 A3025 680 64 1000 050/11 RMK AO2 T01610094
04850KAOH AOH20160419125013304/19/16 12:50:31  5-MIN KAOH 191750Z AUTO 06014KT 10SM CLR 16/09 A3025 680 64 1000 070/14 RMK AO2 SLP241 T01610094 10167 20111 51006
04850KAOH AOH20160419125510804/19/16 12:55:31  5-MIN KAOH 191755Z AUTO 06012KT 10SM CLR 16/09 A3025 680 64 1000 060/12 RMK AO2 T01610094
04850KAOH AOH20160419130010804/19/16 13:00:31  5-MIN KAOH 191800Z AUTO 06012KT 10SM CLR 16/09 A3025 680 64 1000 060/12 RMK AO2 T01610094
04850KAOH AOH20160419130510804/19/16 13:05:31  5-MIN KAOH 191805Z AUTO 07012KT 10SM CLR 16/09 A3024 680 64 1000 070/12 RMK AO2 T01610094
04850KAOH AOH20160419131010804/19/16 13:10:31  5-MIN KAOH 191810Z AUTO 04011KT 10SM CLR 17/10 A3024 680 64 1100 050/11 RMK AO2 T01670100
04850KAOH AOH20160419131510804/19/16 13:15:31  5-MIN KAOH 191815Z AUTO 05013KT 10SM CLR 16/09 A3024 680 64 1000 050/13 RMK AO2 T01610094
04850KAOH AOH20160419132010704/19/16 13:20:31  5-MIN KAOH 191820Z AUTO 06013KT 10SM CLR 16/09 A3024 680 64 900 070/13 RMK AO2 T01560089
04850KAOH AOH20160419132510704/19/16 13:25:31  5-MIN KAOH 191825Z AUTO 05007KT 10SM CLR 16/09 A3024 680 67 900 060/07 RMK AO2 T01560094
04850KAOH AOH20160419133011304/19/16 13:30:31  5-MIN KAOH 191830Z AUTO 06011G16KT 10SM CLR 16/09 A3024 680 67 900 070/11G16 RMK AO2 T01560094
04850KAOH AOH20160419133510704/19/16 13:35:31  5-MIN KAOH 191835Z AUTO 04012KT 10SM CLR 16/09 A3024 680 67 900 040/12 RMK AO2 T01560094
04850KAOH AOH20160419134011304/19/16 13:40:31  5-MIN KAOH 191840Z AUTO 05011G18KT 10SM CLR 16/09 A3024 680 64 900 060/11G18 RMK AO2 T01560089
04850KAOH AOH20160419134510704/19/16 13:45:31  5-MIN KAOH 191845Z AUTO 04012KT 10SM CLR 16/09 A3024 680 64 900 040/12 RMK AO2 T01560089
04850KAOH AOH20160419135011404/19/16 13:50:31  5-MIN KAOH 191850Z AUTO 04010KT 10SM CLR 15/09 A3024 680 66 900 040/10 RMK AO2 SLP241 T01500089
04850KAOH AOH20160419135510704/19/16 13:55:31  5-MIN KAOH 191855Z AUTO 04010KT 10SM CLR 16/09 A3025 680 64 900 050/10 RMK AO2 T01560089
04850KAOH AOH20160419140010704/19/16 14:00:31  5-MIN KAOH 191900Z AUTO 06010KT 10SM CLR 16/09 A3025 680 64 900 070/10 RMK AO2 T01560089
04850KAOH AOH20160419140510704/19/16 14:05:31  5-MIN KAOH 191905Z AUTO 05011KT 10SM CLR 15/09 A3025 680 66 900 060/11 RMK AO2 T01500089
04850KAOH AOH20160419141010704/19/16 14:10:31  5-MIN KAOH 191910Z AUTO 05012KT 10SM CLR 15/09 A3025 680 66 900 050/12 RMK AO2 T01500089
04850KAOH AOH20160419141510704/19/16 14:15:31  5-MIN KAOH 191915Z AUTO 05012KT 10SM CLR 16/09 A3025 680 64 900 050/12 RMK AO2 T01560089
04850KAOH AOH20160419142010704/19/16 14:20:31  5-MIN KAOH 191920Z AUTO 06010KT 10SM CLR 16/09 A3024 680 64 900 060/10 RMK AO2 T01560089
04850KAOH AOH20160419142510704/19/16 14:25:31  5-MIN KAOH 191925Z AUTO 04012KT 10SM CLR 16/09 A3024 680 64 900 050/12 RMK AO2 T01560089
04850KAOH AOH20160419143010704/19/16 14:30:31  5-MIN KAOH 191930Z AUTO 06011KT 10SM CLR 16/09 A3024 680 67 900 070/11 RMK AO2 T01560094
04850KAOH AOH20160419143510804/19/16 14:35:31  5-MIN KAOH 191935Z AUTO 07012KT 10SM CLR 17/09 A3024 690 62 1100 070/12 RMK AO2 T01670094
04850KAOH AOH20160419144010804/19/16 14:40:31  5-MIN KAOH 191940Z AUTO 06011KT 10SM CLR 17/09 A3023 690 62 1100 060/11 RMK AO2 T01670094
04850KAOH AOH20160419144510804/19/16 14:45:31  5-MIN KAOH 191945Z AUTO 05011KT 10SM CLR 17/09 A3023 690 62 1100 060/11 RMK AO2 T01670094
04850KAOH AOH20160419145011504/19/16 14:50:31  5-MIN KAOH 191950Z AUTO 06012KT 10SM CLR 17/09 A3023 690 62 1100 070/12 RMK AO2 SLP236 T01670094
04850KAOH AOH20160419145510804/19/16 14:55:31  5-MIN KAOH 191955Z AUTO 06013KT 10SM CLR 17/09 A3023 690 60 1100 060/13 RMK AO2 T01670089
04850KAOH AOH20160419150010804/19/16 15:00:31  5-MIN KAOH 192000Z AUTO 07015KT 10SM CLR 16/08 A3023 690 59 1000 070/15 RMK AO2 T01610083
04850KAOH AOH20160419150510804/19/16 15:05:31  5-MIN KAOH 192005Z AUTO 06013KT 10SM CLR 16/09 A3023 690 62 1000 070/13 RMK AO2 T01610089
04850KAOH AOH20160419151010804/19/16 15:10:31  5-MIN KAOH 192010Z AUTO 06010KT 10SM CLR 17/09 A3023 700 60 1100 060/10 RMK AO2 T01670089
04850KAOH AOH20160419151510804/19/16 15:15:31  5-MIN KAOH 192015Z AUTO 05015KT 10SM CLR 17/09 A3023 700 60 1100 050/15 RMK AO2 T01670089
04850KAOH AOH20160419152010804/19/16 15:20:31  5-MIN KAOH 192020Z AUTO 06013KT 10SM CLR 17/09 A3023 700 60 1100 060/13 RMK AO2 T01670089
04850KAOH AOH20160419152510804/19/16 15:25:31  5-MIN KAOH 192025Z AUTO 07013KT 10SM CLR 16/09 A3022 700 62 1000 070/13 RMK AO2 T01610089
04850KAOH AOH20160419153010804/19/16 15:30:31  5-MIN KAOH 192030Z AUTO 07013KT 10SM CLR 16/09 A3022 700 62 1000 070/13 RMK AO2 T01610089
04850KAOH AOH20160419153510804/19/16 15:35:31  5-MIN KAOH 192035Z AUTO 05011KT 10SM CLR 16/09 A3022 700 62 1000 050/11 RMK AO2 T01610089
04850KAOH AOH20160419154010804/19/16 15:40:31  5-MIN KAOH 192040Z AUTO 06013KT 10SM CLR 17/09 A3022 700 60 1100 070/13 RMK AO2 T01670089
04850KAOH AOH20160419154510804/19/16 15:45:31  5-MIN KAOH 192045Z AUTO 05013KT 10SM CLR 16/09 A3022 700 62 1000 050/13 RMK AO2 T01610089
04850KAOH AOH20160419155012104/19/16 15:50:31  5-MIN KAOH 192050Z AUTO 07013KT 10SM CLR 16/09 A3022 700 62 1000 080/13 RMK AO2 SLP233 T01610089 50001
04850KAOH AOH20160419155511404/19/16 15:55:31  5-MIN KAOH 192055Z AUTO 06012G18KT 10SM CLR 17/09 A3022 700 60 1100 070/12G18 RMK AO2 T01670089
04850KAOH AOH20160419160011404/19/16 16:00:31  5-MIN KAOH 192100Z AUTO 06013G18KT 10SM CLR 16/08 A3022 700 59 1000 070/13G18 RMK AO2 T01610083
04850KAOH AOH20160419160510804/19/16 16:05:31  5-MIN KAOH 192105Z AUTO 05014KT 10SM CLR 16/08 A3023 700 62 1000 060/14 RMK AO2 T01560083
04850KAOH AOH20160419161010804/19/16 16:10:31  5-MIN KAOH 192110Z AUTO 06013KT 10SM CLR 16/08 A3023 700 62 1000 060/13 RMK AO2 T01560083
04850KAOH AOH20160419161510704/19/16 16:15:31  5-MIN KAOH 192115Z AUTO 06012KT 10SM CLR 15/08 A3022 700 64 900 060/12 RMK AO2 T01500083
04850KAOH AOH20160419162010704/19/16 16:20:31  5-MIN KAOH 192120Z AUTO 07013KT 10SM CLR 15/08 A3022 700 64 900 080/13 RMK AO2 T01500083
04850KAOH AOH20160419162510704/19/16 16:25:31  5-MIN KAOH 192125Z AUTO 05012KT 10SM CLR 15/08 A3022 700 64 900 050/12 RMK AO2 T01500083
04850KAOH AOH20160419163010704/19/16 16:30:31  5-MIN KAOH 192130Z AUTO 05012KT 10SM CLR 15/08 A3022 700 62 900 060/12 RMK AO2 T01500078
04850KAOH AOH20160419163510704/19/16 16:35:31  5-MIN KAOH 192135Z AUTO 05012KT 10SM CLR 15/08 A3022 700 62 900 050/12 RMK AO2 T01500078
04850KAOH AOH20160419164010704/19/16 16:40:31  5-MIN KAOH 192140Z AUTO 05011KT 10SM CLR 15/08 A3022 700 62 900 060/11 RMK AO2 T01500078
04850KAOH AOH20160419164510704/19/16 16:45:31  5-MIN KAOH 192145Z AUTO 06013KT 10SM CLR 15/08 A3022 700 62 900 060/13 RMK AO2 T01500078
04850KAOH AOH20160419165011504/19/16 16:50:31  5-MIN KAOH 192150Z AUTO 06011KT 10SM CLR 16/08 A3022 700 62 1000 070/11 RMK AO2 SLP232 T01560083
04850KAOH AOH20160419165510804/19/16 16:55:31  5-MIN KAOH 192155Z AUTO 04013KT 10SM CLR 16/08 A3021 710 62 1000 050/13 RMK AO2 T01560083
04850KAOH AOH20160419170010804/19/16 17:00:31  5-MIN KAOH 192200Z AUTO 07011KT 10SM CLR 16/08 A3021 710 62 1000 070/11 RMK AO2 T01560083
04850KAOH AOH20160419170510804/19/16 17:05:31  5-MIN KAOH 192205Z AUTO 07014KT 10SM CLR 16/08 A3021 710 62 1000 070/14 RMK AO2 T01560083
04850KAOH AOH20160419171010804/19/16 17:10:31  5-MIN KAOH 192210Z AUTO 06012KT 10SM CLR 16/08 A3021 710 62 1000 060/12 RMK AO2 T01560083
04850KAOH AOH20160419171510704/19/16 17:15:31  5-MIN KAOH 192215Z AUTO 05012KT 10SM CLR 15/08 A3021 710 62 900 060/12 RMK AO2 T01500078
04850KAOH AOH20160419172010704/19/16 17:20:31  5-MIN KAOH 192220Z AUTO 05010KT 10SM CLR 15/08 A3021 710 62 900 060/10 RMK AO2 T01500078
04850KAOH AOH20160419172510704/19/16 17:25:31  5-MIN KAOH 192225Z AUTO 05009KT 10SM CLR 14/08 A3021 710 64 800 060/09 RMK AO2 T01440078
04850KAOH AOH20160419173010704/19/16 17:30:31  5-MIN KAOH 192230Z AUTO 05012KT 10SM CLR 14/07 A3021 710 61 800 060/12 RMK AO2 T01440072
04850KAOH AOH20160419173510704/19/16 17:35:31  5-MIN KAOH 192235Z AUTO 06012KT 10SM CLR 14/07 A3021 710 61 800 060/12 RMK AO2 T01440072
04850KAOH AOH20160419174010704/19/16 17:40:31  5-MIN KAOH 192240Z AUTO 05012KT 10SM CLR 15/07 A3021 710 59 900 060/12 RMK AO2 T01500072
04850KAOH AOH20160419174511304/19/16 17:45:31  5-MIN KAOH 192245Z AUTO 06012G18KT 10SM CLR 15/07 A3021 710 59 900 070/12G18 RMK AO2 T01500072
04850KAOH AOH20160419175011404/19/16 17:50:31  5-MIN KAOH 192250Z AUTO 06013KT 10SM CLR 15/07 A3021 710 57 900 060/13 RMK AO2 SLP232 T01500067
04850KAOH AOH20160419175510704/19/16 17:55:31  5-MIN KAOH 192255Z AUTO 06011KT 10SM CLR 15/07 A3021 710 59 900 070/11 RMK AO2 T01500072
04850KAOH AOH20160419180010704/19/16 18:00:31  5-MIN KAOH 192300Z AUTO 06012KT 10SM CLR 14/07 A3021 710 59 800 070/12 RMK AO2 T01440067
04850KAOH AOH20160419180510704/19/16 18:05:31  5-MIN KAOH 192305Z AUTO 06010KT 10SM CLR 14/07 A3021 710 59 800 070/10 RMK AO2 T01440067
04850KAOH AOH20160419181010704/19/16 18:10:31  5-MIN KAOH 192310Z AUTO 06012KT 10SM CLR 14/07 A3021 710 59 800 060/12 RMK AO2 T01440067
04850KAOH AOH20160419181510704/19/16 18:15:31  5-MIN KAOH 192315Z AUTO 06013KT 10SM CLR 14/07 A3021 710 59 800 060/13 RMK AO2 T01440067
04850KAOH AOH20160419182010704/19/16 18:20:31  5-MIN KAOH 192320Z AUTO 06011KT 10SM CLR 14/07 A3021 710 61 800 070/11 RMK AO2 T01390067
04850KAOH AOH20160419182510704/19/16 18:25:31  5-MIN KAOH 192325Z AUTO 06011KT 10SM CLR 14/07 A3021 710 61 800 070/11 RMK AO2 T01390067
04850KAOH AOH20160419183010704/19/16 18:30:31  5-MIN KAOH 192330Z AUTO 06011KT 10SM CLR 14/06 A3021 710 59 800 060/11 RMK AO2 T01390061
04850KAOH AOH20160419183510704/19/16 18:35:31  5-MIN KAOH 192335Z AUTO 06011KT 10SM CLR 13/06 A3021 710 61 700 060/11 RMK AO2 T01330061
04850KAOH AOH20160419184010704/19/16 18:40:31  5-MIN KAOH 192340Z AUTO 06010KT 10SM CLR 13/06 A3021 710 61 700 060/10 RMK AO2 T01330061
04850KAOH AOH20160419184510704/19/16 18:45:31  5-MIN KAOH 192345Z AUTO 06011KT 10SM CLR 13/06 A3022 710 63 600 060/11 RMK AO2 T01280061
04850KAOH AOH20160419185013204/19/16 18:50:31  5-MIN KAOH 192350Z AUTO 05008KT 10SM CLR 13/06 A3022 700 63 600 060/08 RMK AO2 SLP233 T01280061 10167 20128 58009
04850KAOH AOH20160419185510704/19/16 18:55:31  5-MIN KAOH 192355Z AUTO 06010KT 10SM CLR 12/06 A3022 710 63 600 060/10 RMK AO2 T01220056
04850KAOH AOH20160419190010704/19/16 19:00:31  5-MIN KAOH 200000Z AUTO 06010KT 10SM CLR 12/05 A3021 710 61 600 070/10 RMK AO2 T01220050
04850KAOH AOH20160419190510704/19/16 19:05:31  5-MIN KAOH 200005Z AUTO 06009KT 10SM CLR 12/05 A3021 710 61 600 060/09 RMK AO2 T01220050
04850KAOH AOH20160419191010704/19/16 19:10:31  5-MIN KAOH 200010Z AUTO 06009KT 10SM CLR 12/06 A3021 710 63 600 060/09 RMK AO2 T01220056
04850KAOH AOH20160419191510704/19/16 19:15:31  5-MIN KAOH 200015Z AUTO 05008KT 10SM CLR 12/06 A3021 710 63 600 060/08 RMK AO2 T01220056
04850KAOH AOH20160419192010704/19/16 19:20:31  5-MIN KAOH 200020Z AUTO 06009KT 10SM CLR 12/06 A3021 710 66 500 060/09 RMK AO2 T01170056
04850KAOH AOH20160419192510704/19/16 19:25:31  5-MIN KAOH 200025Z AUTO 06008KT 10SM CLR 12/05 A3021 710 61 600 060/08 RMK AO2 T01220050
04850KAOH AOH20160419193010704/19/16 19:30:31  5-MIN KAOH 200030Z AUTO 06008KT 10SM CLR 12/06 A3021 710 63 600 070/08 RMK AO2 T01220056
04850KAOH AOH20160420013510704/20/16 01:35:31  5-MIN KAOH 200635Z AUTO 07008KT 10SM CLR 09/02 A3021 710 60 200 080/08 RMK AO2 T00890017
04850KAOH AOH20160420014010704/20/16 01:40:31  5-MIN KAOH 200640Z AUTO 06007KT 10SM CLR 09/02 A3021 710 58 300 070/07 RMK AO2 T00940017
04850KAOH AOH20160420014510704/20/16 01:45:31  5-MIN KAOH 200645Z AUTO 06007KT 10SM CLR 09/02 A3021 710 60 200 070/07 RMK AO2 T00890017
04850KAOH AOH20160420015011404/20/16 01:50:31  5-MIN KAOH 200650Z AUTO 06008KT 10SM CLR 09/02 A3021 710 60 200 070/08 RMK AO2 SLP230 T00890017
04850KAOH AOH20160420015510704/20/16 01:55:31  5-MIN KAOH 200655Z AUTO 07009KT 10SM CLR 09/02 A3021 710 60 200 070/09 RMK AO2 T00890017
04850KAOH AOH20160420020010704/20/16 02:00:31  5-MIN KAOH 200700Z AUTO 07007KT 10SM CLR 09/02 A3020 720 63 200 070/07 RMK AO2 T00890022
04850KAOH AOH20160420020510704/20/16 02:05:31  5-MIN KAOH 200705Z AUTO 07008KT 10SM CLR 08/02 A3020 720 65 100 070/08 RMK AO2 T00830022
04850KAOH AOH20160420021010704/20/16 02:10:31  5-MIN KAOH 200710Z AUTO 07008KT 10SM CLR 08/02 A3020 720 65 100 070/08 RMK AO2 T00830022
04850KAOH AOH20160420021510704/20/16 02:15:31  5-MIN KAOH 200715Z AUTO 07007KT 10SM CLR 08/02 A3020 720 65 100 070/07 RMK AO2 T00830022
04850KAOH AOH20160420022010704/20/16 02:20:31  5-MIN KAOH 200720Z AUTO 07006KT 10SM CLR 08/02 A3020 720 65 100 070/06 RMK AO2 T00830022
04850KAOH AOH20160420022510704/20/16 02:25:31  5-MIN KAOH 200725Z AUTO 06006KT 10SM CLR 08/02 A3020 720 65 100 070/06 RMK AO2 T00830022
04850KAOH AOH20160420023010704/20/16 02:30:31  5-MIN KAOH 200730Z AUTO 07007KT 10SM CLR 08/02 A3020 720 65 100 070/07 RMK AO2 T00830022
04850KAOH AOH20160420023510704/20/16 02:35:31  5-MIN KAOH 200735Z AUTO 08006KT 10SM CLR 08/02 A3020 720 65 100 080/06 RMK AO2 T00830022
04850KAOH AOH20160420024010704/20/16 02:40:31  5-MIN KAOH 200740Z AUTO 08006KT 10SM CLR 08/03 A3020 720 68 100 080/06 RMK AO2 T00830028
04850KAOH AOH20160420024510704/20/16 02:45:31  5-MIN KAOH 200745Z AUTO 08008KT 10SM CLR 08/02 A3019 720 65 100 080/08 RMK AO2 T00830022
04850KAOH AOH20160420025011404/20/16 02:50:31  5-MIN KAOH 200750Z AUTO 08007KT 10SM CLR 09/02 A3020 720 63 200 080/07 RMK AO2 SLP225 T00890022
04850KAOH AOH20160420025510704/20/16 02:55:31  5-MIN KAOH 200755Z AUTO 08008KT 10SM CLR 09/02 A3019 720 63 200 080/08 RMK AO2 T00890022
04850KAOH AOH20160420030010704/20/16 03:00:31  5-MIN KAOH 200800Z AUTO 08008KT 10SM CLR 09/03 A3019 730 65 200 080/08 RMK AO2 T00890028
04850KAOH AOH20160420030510704/20/16 03:05:31  5-MIN KAOH 200805Z AUTO 08008KT 10SM CLR 09/02 A3019 730 63 200 080/08 RMK AO2 T00890022
04850KAOH AOH20160420031010704/20/16 03:10:31  5-MIN KAOH 200810Z AUTO 08009KT 10SM CLR 09/02 A3019 730 63 200 080/09 RMK AO2 T00890022
04850KAOH AOH20160420031510704/20/16 03:15:31  5-MIN KAOH 200815Z AUTO 08008KT 10SM CLR 09/02 A3019 730 63 200 080/08 RMK AO2 T00890022
04850KAOH AOH20160420032010704/20/16 03:20:31  5-MIN KAOH 200820Z AUTO 08010KT 10SM CLR 09/02 A3019 730 63 200 080/10 RMK AO2 T00890022
04850KAOH AOH20160420032510704/20/16 03:25:31  5-MIN KAOH 200825Z AUTO 08009KT 10SM CLR 09/02 A3019 730 58 300 090/09 RMK AO2 T00940017
04850KAOH AOH20160420033010704/20/16 03:30:31  5-MIN KAOH 200830Z AUTO 09009KT 10SM CLR 09/02 A3019 730 58 300 090/09 RMK AO2 T00940017
04850KAOH AOH20160420033510704/20/16 03:35:31  5-MIN KAOH 200835Z AUTO 09009KT 10SM CLR 09/02 A3019 720 58 300 090/09 RMK AO2 T00940017
04850KAOH AOH20160420034010704/20/16 03:40:31  5-MIN KAOH 200840Z AUTO 09007KT 10SM CLR 09/02 A3019 730 63 200 090/07 RMK AO2 T00890022
04850KAOH AOH20160420034510704/20/16 03:45:31  5-MIN KAOH 200845Z AUTO 08008KT 10SM CLR 09/02 A3019 730 60 200 090/08 RMK AO2 T00890017
04850KAOH AOH20160420035012004/20/16 03:50:31  5-MIN KAOH 200850Z AUTO 08007KT 10SM CLR 09/02 A3019 730 63 200 080/07 RMK AO2 SLP224 T00890022 58003
04850KAOH AOH20160420035510704/20/16 03:55:31  5-MIN KAOH 200855Z AUTO 07007KT 10SM CLR 09/02 A3019 730 63 200 080/07 RMK AO2 T00890022
04850KAOH AOH20160420040010704/20/16 04:00:31  5-MIN KAOH 200900Z AUTO 07006KT 10SM CLR 08/02 A3019 730 65 100 080/06 RMK AO2 T00830022
04850KAOH AOH20160420040510704/20/16 04:05:31  5-MIN KAOH 200905Z AUTO 07007KT 10SM CLR 08/02 A3019 730 65 100 080/07 RMK AO2 T00830022
04850KAOH AOH20160420041010704/20/16 04:10:31  5-MIN KAOH 200910Z AUTO 07007KT 10SM CLR 08/02 A3019 730 65 100 070/07 RMK AO2 T00830022
04850KAOH AOH20160420041510704/20/16 04:15:31  5-MIN KAOH 200915Z AUTO 07008KT 10SM CLR 09/02 A3019 730 63 200 070/08 RMK AO2 T00890022
04850KAOH AOH20160420042010704/20/16 04:20:31  5-MIN KAOH 200920Z AUTO 07009KT 10SM CLR 08/02 A3019 730 65 100 080/09 RMK AO2 T00830022
04850KAOH AOH20160420042510704/20/16 04:25:31  5-MIN KAOH 200925Z AUTO 07007KT 10SM CLR 08/02 A3019 730 65 100 080/07 RMK AO2 T00830022
04850KAOH AOH20160420043010704/20/16 04:30:31  5-MIN KAOH 200930Z AUTO 08008KT 10SM CLR 08/02 A3019 730 65 100 080/08 RMK AO2 T00830022
04850KAOH AOH20160420043510704/20/16 04:35:31  5-MIN KAOH 200935Z AUTO 07007KT 10SM CLR 08/02 A3019 730 65 100 080/07 RMK AO2 T00830022
04850KAOH AOH20160420044010704/20/16 04:40:31  5-MIN KAOH 200940Z AUTO 07006KT 10SM CLR 08/02 A3019 730 68 100 080/06 RMK AO2 T00780022
04850KAOH AOH20160420044510704/20/16 04:45:31  5-MIN KAOH 200945Z AUTO 08006KT 10SM CLR 08/03 A3019 730 70 100 080/06 RMK AO2 T00780028
04850KAOH AOH20160420045011204/20/16 04:50:31  5-MIN KAOH 200950Z AUTO 07006KT 10SM CLR 07/03 A3019 730 73 0 080/06 RMK AO2 SLP224 T00720028
04850KAOH AOH20160420045510704/20/16 04:55:31  5-MIN KAOH 200955Z AUTO 07006KT 10SM CLR 08/02 A3019 730 68 100 070/06 RMK AO2 T00780022
04850KAOH AOH20160420050010704/20/16 05:00:31  5-MIN KAOH 201000Z AUTO 05005KT 10SM CLR 08/02 A3019 730 68 100 060/05 RMK AO2 T00780022
04850KAOH AOH20160420050510704/20/16 05:05:31  5-MIN KAOH 201005Z AUTO 06005KT 10SM CLR 08/02 A3019 730 68 100 070/05 RMK AO2 T00780022
04850KAOH AOH20160420051010504/20/16 05:10:31  5-MIN KAOH 201010Z AUTO 07005KT 10SM CLR 07/02 A3019 720 70 0 080/05 RMK AO2 T00720022
04850KAOH AOH20160420051510504/20/16 05:15:31  5-MIN KAOH 201015Z AUTO 07005KT 10SM CLR 07/02 A3020 720 70 0 080/05 RMK AO2 T00720022
04850KAOH AOH20160420052010504/20/16 05:20:31  5-MIN KAOH 201020Z AUTO 06004KT 10SM CLR 07/02 A3020 720 73 0 060/04 RMK AO2 T00670022
04850KAOH AOH20160420052510504/20/16 05:25:31  5-MIN KAOH 201025Z AUTO 06005KT 10SM CLR 07/02 A3020 720 70 0 070/05 RMK AO2 T00720022
04850KAOH AOH20160420053010504/20/16 05:30:31  5-MIN KAOH 201030Z AUTO 07005KT 10SM CLR 07/02 A3020 720 73 0 070/05 RMK AO2 T00670022
04850KAOH AOH20160420053510504/20/16 05:35:31  5-MIN KAOH 201035Z AUTO 07005KT 10SM CLR 07/02 A3020 720 73 0 070/05 RMK AO2 T00670022
04850KAOH AOH20160420054010804/20/16 05:40:31  5-MIN KAOH 201040Z AUTO 06005KT 10SM CLR 06/02 A3020 720 76 -100 070/05 RMK AO2 T00610022
04850KAOH AOH20160420054510504/20/16 05:45:31  5-MIN KAOH 201045Z AUTO 06003KT 10SM CLR 07/02 A3020 720 73 0 060/03 RMK AO2 T00670022
04850KAOH AOH20160420055011204/20/16 05:50:31  5-MIN KAOH 201050Z AUTO 05004KT 10SM CLR 07/02 A3020 720 73 0 060/04 RMK AO2 SLP229 T00670022
04850KAOH AOH20160420055510504/20/16 05:55:31  5-MIN KAOH 201055Z AUTO 06006KT 10SM CLR 07/02 A3020 720 70 0 070/06 RMK AO2 T00670017
04850KAOH AOH20160420060010804/20/16 06:00:31  5-MIN KAOH 201100Z AUTO 07005KT 10SM FEW090 07/02 A3020 720 73 0 070/05 RMK AO2 T00670022
04850KAOH AOH20160420060511104/20/16 06:05:31  5-MIN KAOH 201105Z AUTO 06004KT 10SM SCT090 06/02 A3020 720 76 -100 070/04 RMK AO2 T00610022
04850KAOH AOH20160420061010804/20/16 06:10:31  5-MIN KAOH 201110Z AUTO 06004KT 10SM BKN090 07/02 A3021 710 73 0 070/04 RMK AO2 T00670022
04850KAOH AOH20160420061510804/20/16 06:15:31  5-MIN KAOH 201115Z AUTO 05004KT 10SM BKN090 07/02 A3021 710 73 0 060/04 RMK AO2 T00670022
04850KAOH AOH20160420062010804/20/16 06:20:31  5-MIN KAOH 201120Z AUTO 05005KT 10SM SCT090 07/02 A3021 710 70 0 060/05 RMK AO2 T00720022
04850KAOH AOH20160420062510804/20/16 06:25:31  5-MIN KAOH 201125Z AUTO 06006KT 10SM SCT090 07/02 A3021 710 70 0 060/06 RMK AO2 T00720022
04850KAOH AOH20160420063010804/20/16 06:30:31  5-MIN KAOH 201130Z AUTO 06006KT 10SM FEW090 07/02 A3021 710 70 0 060/06 RMK AO2 T00720022
04850KAOH AOH20160420063510804/20/16 06:35:31  5-MIN KAOH 201135Z AUTO 05005KT 10SM FEW095 07/02 A3021 710 70 0 050/05 RMK AO2 T00720022
04850KAOH AOH20160420064010804/20/16 06:40:31  5-MIN KAOH 201140Z AUTO 04005KT 10SM FEW100 08/02 A3021 710 68 0 050/05 RMK AO2 T00780022
04850KAOH AOH20160420064510504/20/16 06:45:31  5-MIN KAOH 201145Z AUTO 06006KT 10SM CLR 08/02 A3021 710 68 0 060/06 RMK AO2 T00780022
04850KAOH AOH20160420065013204/20/16 06:50:31  5-MIN KAOH 201150Z AUTO 06009KT 10SM CLR 08/02 A3021 710 68 100 070/09 RMK AO2 SLP232 T00780022 10100 20061 56008
04850KAOH AOH20160420065510704/20/16 06:55:31  5-MIN KAOH 201155Z AUTO 06007KT 10SM CLR 08/02 A3021 710 65 100 070/07 RMK AO2 T00830022
04850KAOH AOH20160420070010704/20/16 07:00:31  5-MIN KAOH 201200Z AUTO 07007KT 10SM CLR 08/02 A3021 710 65 100 070/07 RMK AO2 T00830022
04850KAOH AOH20160420070510704/20/16 07:05:31  5-MIN KAOH 201205Z AUTO 07008KT 10SM CLR 08/02 A3021 710 65 100 070/08 RMK AO2 T00830022
04850KAOH AOH20160420071010704/20/16 07:10:31  5-MIN KAOH 201210Z AUTO 07010KT 10SM CLR 09/02 A3021 710 63 200 080/10 RMK AO2 T00890022
04850KAOH AOH20160420071510704/20/16 07:15:31  5-MIN KAOH 201215Z AUTO 07009KT 10SM CLR 09/02 A3021 710 63 200 080/09 RMK AO2 T00890022
04850KAOH AOH20160420072010704/20/16 07:20:31  5-MIN KAOH 201220Z AUTO 07010KT 10SM CLR 09/02 A3021 710 60 200 080/10 RMK AO2 T00890017
04850KAOH AOH20160420072510704/20/16 07:25:31  5-MIN KAOH 201225Z AUTO 07010KT 10SM CLR 09/02 A3021 710 58 300 070/10 RMK AO2 T00940017
04850KAOH AOH20160420073010704/20/16 07:30:31  5-MIN KAOH 201230Z AUTO 07009KT 10SM CLR 09/02 A3021 710 58 300 080/09 RMK AO2 T00940017
04850KAOH AOH20160420073510704/20/16 07:35:31  5-MIN KAOH 201235Z AUTO 07009KT 10SM CLR 10/02 A3021 710 56 300 080/09 RMK AO2 T01000017
04850KAOH AOH20160420074010704/20/16 07:40:31  5-MIN KAOH 201240Z AUTO 08010KT 10SM CLR 10/02 A3021 710 56 300 080/10 RMK AO2 T01000017
04850KAOH AOH20160420074510704/20/16 07:45:31  5-MIN KAOH 201245Z AUTO 08008KT 10SM CLR 10/01 A3022 710 54 300 090/08 RMK AO2 T01000011
04850KAOH AOH20160420075011404/20/16 07:50:31  5-MIN KAOH 201250Z AUTO 09008KT 10SM CLR 11/01 A3022 700 52 400 090/08 RMK AO2 SLP234 T01060011
04850KAOH AOH20160420075510704/20/16 07:55:31  5-MIN KAOH 201255Z AUTO 09011KT 10SM CLR 11/01 A3021 710 52 400 090/11 RMK AO2 T01060011
04850KAOH AOH20160420080010704/20/16 08:00:31  5-MIN KAOH 201300Z AUTO 09011KT 10SM CLR 11/01 A3021 710 52 400 090/11 RMK AO2 T01060011
04850KAOH AOH20160420080510704/20/16 08:05:31  5-MIN KAOH 201305Z AUTO 09010KT 10SM CLR 11/01 A3021 710 52 400 100/10 RMK AO2 T01060011
04850KAOH AOH20160420081010704/20/16 08:10:31  5-MIN KAOH 201310Z AUTO 08012KT 10SM CLR 11/01 A3020 720 50 500 090/12 RMK AO2 T01110011
04850KAOH AOH20160420081510704/20/16 08:15:31  5-MIN KAOH 201315Z AUTO 09012KT 10SM CLR 11/02 A3020 720 52 500 090/12 RMK AO2 T01110017
04850KAOH AOH20160420082010704/20/16 08:20:31  5-MIN KAOH 201320Z AUTO 09014KT 10SM CLR 12/01 A3020 720 48 500 090/14 RMK AO2 T01170011
04850KAOH AOH20160420082510704/20/16 08:25:31  5-MIN KAOH 201325Z AUTO 09015KT 10SM CLR 12/01 A3019 730 48 500 090/15 RMK AO2 T01170011
04850KAOH AOH20160420083010704/20/16 08:30:31  5-MIN KAOH 201330Z AUTO 09014KT 10SM CLR 12/01 A3019 720 44 600 100/14 RMK AO2 T01220006
04850KAOH AOH20160420083510704/20/16 08:35:31  5-MIN KAOH 201335Z AUTO 10013KT 10SM CLR 12/01 A3019 720 46 600 100/13 RMK AO2 T01220011
04850KAOH AOH20160420084010704/20/16 08:40:31  5-MIN KAOH 201340Z AUTO 10012KT 10SM CLR 12/01 A3020 720 46 600 110/12 RMK AO2 T01220011
04850KAOH AOH20160420084510704/20/16 08:45:31  5-MIN KAOH 201345Z AUTO 11011KT 10SM CLR 13/01 A3019 730 43 700 110/11 RMK AO2 T01280006
04850KAOH AOH20160420085011404/20/16 08:50:31  5-MIN KAOH 201350Z AUTO 11010KT 10SM CLR 13/02 A3019 730 46 700 110/10 RMK AO2 SLP225 T01280017
04850KAOH AOH20160420085510704/20/16 08:55:31  5-MIN KAOH 201355Z AUTO 10012KT 10SM CLR 13/02 A3019 730 45 700 110/12 RMK AO2 T01330017
04850KAOH AOH20160420090010704/20/16 09:00:31  5-MIN KAOH 201400Z AUTO 10012KT 10SM CLR 13/02 A3019 730 45 700 100/12 RMK AO2 T01330017
04850KAOH AOH20160420090510704/20/16 09:05:31  5-MIN KAOH 201405Z AUTO 10012KT 10SM CLR 13/02 A3019 730 45 700 100/12 RMK AO2 T01330017
04850KAOH AOH20160420091010704/20/16 09:10:31  5-MIN KAOH 201410Z AUTO 09013KT 10SM CLR 14/02 A3019 730 45 800 090/13 RMK AO2 T01390022
04850KAOH AOH20160420091510704/20/16 09:15:31  5-MIN KAOH 201415Z AUTO 10011KT 10SM CLR 14/02 A3019 730 43 800 110/11 RMK AO2 T01390017
04850KAOH AOH20160420092010704/20/16 09:20:31  5-MIN KAOH 201420Z AUTO 10010KT 10SM CLR 14/02 A3019 730 45 800 110/10 RMK AO2 T01390022
04850KAOH AOH20160420092510704/20/16 09:25:31  5-MIN KAOH 201425Z AUTO 10011KT 10SM CLR 14/02 A3019 730 43 900 110/11 RMK AO2 T01440022
04850KAOH AOH20160420093010704/20/16 09:30:31  5-MIN KAOH 201430Z AUTO 11008KT 10SM CLR 14/02 A3019 730 43 900 110/08 RMK AO2 T01440022
04850KAOH AOH20160420093510704/20/16 09:35:31  5-MIN KAOH 201435Z AUTO 11009KT 10SM CLR 15/02 A3019 730 42 900 110/09 RMK AO2 T01500022
04850KAOH AOH20160420094010704/20/16 09:40:31  5-MIN KAOH 201440Z AUTO 10009KT 10SM CLR 15/03 A3019 730 43 900 100/09 RMK AO2 T01500028
04850KAOH AOH20160420094510804/20/16 09:45:31  5-MIN KAOH 201445Z AUTO 09010KT 10SM CLR 16/03 A3019 730 42 1000 100/10 RMK AO2 T01560028
04850KAOH AOH20160420095012104/20/16 09:50:31  5-MIN KAOH 201450Z AUTO 11009KT 10SM CLR 16/02 A3018 740 40 1000 110/09 RMK AO2 SLP221 T01560022 53006
04850KAOH AOH20160420095510804/20/16 09:55:31  5-MIN KAOH 201455Z AUTO 11011KT 10SM CLR 16/02 A3018 740 40 1000 110/11 RMK AO2 T01560022
04850KAOH AOH20160420100010804/20/16 10:00:31  5-MIN KAOH 201500Z AUTO 10013KT 10SM CLR 16/02 A3018 740 40 1000 110/13 RMK AO2 T01560022
04850KAOH AOH20160420100510804/20/16 10:05:31  5-MIN KAOH 201505Z AUTO 11010KT 10SM CLR 16/02 A3018 740 39 1100 110/10 RMK AO2 T01610022
04850KAOH AOH20160420101010804/20/16 10:10:31  5-MIN KAOH 201510Z AUTO 10011KT 10SM CLR 16/03 A3018 740 40 1100 110/11 RMK AO2 T01610028
04850KAOH AOH20160420101510804/20/16 10:15:31  5-MIN KAOH 201515Z AUTO 11010KT 10SM CLR 17/03 A3018 740 39 1100 120/10 RMK AO2 T01670028
04850KAOH AOH20160420102010804/20/16 10:20:31  5-MIN KAOH 201520Z AUTO 11010KT 10SM CLR 17/03 A3017 740 37 1200 110/10 RMK AO2 T01720028
04850KAOH AOH20160420102510804/20/16 10:25:31  5-MIN KAOH 201525Z AUTO 10011KT 10SM CLR 17/03 A3017 750 37 1200 110/11 RMK AO2 T01720028
04850KAOH AOH20160420103010804/20/16 10:30:31  5-MIN KAOH 201530Z AUTO 11010KT 10SM CLR 17/03 A3017 750 37 1200 110/10 RMK AO2 T01720028
04850KAOH AOH20160420103510804/20/16 10:35:31  5-MIN KAOH 201535Z AUTO 09012KT 10SM CLR 18/03 A3017 750 38 1300 100/12 RMK AO2 T01780033
04850KAOH AOH20160420104010804/20/16 10:40:31  5-MIN KAOH 201540Z AUTO 11010KT 10SM CLR 18/04 A3017 750 39 1300 120/10 RMK AO2 T01780039
04850KAOH AOH20160420104510804/20/16 10:45:31  5-MIN KAOH 201545Z AUTO 11010KT 10SM CLR 18/03 A3017 750 35 1300 110/10 RMK AO2 T01830028
04850KAOH AOH20160420105011504/20/16 10:50:31  5-MIN KAOH 201550Z AUTO 10011KT 10SM CLR 18/03 A3017 750 36 1400 100/11 RMK AO2 SLP216 T01830033
04850KAOH AOH20160420105510804/20/16 10:55:31  5-MIN KAOH 201555Z AUTO 10011KT 10SM CLR 18/03 A3017 750 36 1400 100/11 RMK AO2 T01830033
04850KAOH AOH20160420110010804/20/16 11:00:31  5-MIN KAOH 201600Z AUTO 12010KT 10SM CLR 18/03 A3017 750 35 1400 130/10 RMK AO2 T01830028
04850KAOH AOH20160420110510804/20/16 11:05:31  5-MIN KAOH 201605Z AUTO 13010KT 10SM CLR 19/03 A3017 750 34 1400 130/10 RMK AO2 T01890028
04850KAOH AOH20160420111010804/20/16 11:10:31  5-MIN KAOH 201610Z AUTO 08011KT 10SM CLR 19/03 A3017 750 35 1400 090/11 RMK AO2 T01890033
04850KAOH AOH20160420111510804/20/16 11:15:31  5-MIN KAOH 201615Z AUTO 10009KT 10SM CLR 19/04 A3017 750 36 1400 100/09 RMK AO2 T01890039
04850KAOH AOH20160420112010804/20/16 11:20:31  5-MIN KAOH 201620Z AUTO 09010KT 10SM CLR 19/04 A3017 750 35 1500 090/10 RMK AO2 T01940039
04850KAOH AOH20160420112510804/20/16 11:25:31  5-MIN KAOH 201625Z AUTO 10008KT 10SM CLR 19/04 A3017 750 37 1500 100/08 RMK AO2 T01940044
04850KAOH AOH20160420113010804/20/16 11:30:31  5-MIN KAOH 201630Z AUTO 09008KT 10SM CLR 20/04 A3017 750 34 1500 100/08 RMK AO2 T02000039
04850KAOH AOH20160420113510804/20/16 11:35:31  5-MIN KAOH 201635Z AUTO 09011KT 10SM CLR 20/05 A3016 760 37 1600 090/11 RMK AO2 T02000050
04850KAOH AOH20160420114010804/20/16 11:40:31  5-MIN KAOH 201640Z AUTO 11009KT 10SM CLR 20/04 A3016 760 34 1600 110/09 RMK AO2 T02000039
04850KAOH AOH20160420114510804/20/16 11:45:31  5-MIN KAOH 201645Z AUTO 09009KT 10SM CLR 20/03 A3016 760 33 1600 090/09 RMK AO2 T02000033
04850KAOH AOH20160420115011504/20/16 11:50:31  5-MIN KAOH 201650Z AUTO 09011KT 10SM CLR 21/04 A3016 760 34 1600 100/11 RMK AO2 SLP211 T02060044
04850KAOH AOH20160420115510804/20/16 11:55:31  5-MIN KAOH 201655Z AUTO 10007KT 10SM CLR 21/03 A3016 760 32 1600 100/07 RMK AO2 T02060033
04850KAOH AOH20160420120010804/20/16 12:00:31  5-MIN KAOH 201700Z AUTO 10007KT 10SM CLR 21/04 A3016 760 33 1700 100/07 RMK AO2 T02110044
04850KAOH AOH20160420120510804/20/16 12:05:31  5-MIN KAOH 201705Z AUTO 10010KT 10SM CLR 21/04 A3015 760 32 1700 100/10 RMK AO2 T02110039
04850KAOH AOH20160420121010804/20/16 12:10:31  5-MIN KAOH 201710Z AUTO 10006KT 10SM CLR 21/03 A3015 760 32 1600 100/06 RMK AO2 T02060033
04850KAOH AOH20160420121510804/20/16 12:15:31  5-MIN KAOH 201715Z AUTO 09008KT 10SM CLR 21/04 A3015 760 32 1700 100/08 RMK AO2 T02110039
04850KAOH AOH20160420122010804/20/16 12:20:31  5-MIN KAOH 201720Z AUTO 10008KT 10SM CLR 22/03 A3015 770 29 1800 110/08 RMK AO2 T02170033
04850KAOH AOH20160420122510804/20/16 12:25:31  5-MIN KAOH 201725Z AUTO 10009KT 10SM CLR 21/03 A3015 770 30 1700 100/09 RMK AO2 T02110033
04850KAOH AOH20160420123010804/20/16 12:30:31  5-MIN KAOH 201730Z AUTO 10009KT 10SM CLR 22/03 A3014 770 29 1800 110/09 RMK AO2 T02170033
04850KAOH AOH20160420123510804/20/16 12:35:31  5-MIN KAOH 201735Z AUTO 11008KT 10SM CLR 22/03 A3014 770 28 1800 110/08 RMK AO2 T02170028
04850KAOH AOH20160420124010804/20/16 12:40:31  5-MIN KAOH 201740Z AUTO 09011KT 10SM CLR 22/03 A3014 770 28 1800 100/11 RMK AO2 T02220033
04850KAOH AOH20160420124510804/20/16 12:45:31  5-MIN KAOH 201745Z AUTO 10008KT 10SM CLR 22/03 A3014 770 29 1800 100/08 RMK AO2 T02170033
04850KAOH AOH20160420125013304/20/16 12:50:31  5-MIN KAOH 201750Z AUTO 09010KT 10SM CLR 22/03 A3014 780 27 1800 100/10 RMK AO2 SLP204 T02220028 10222 20083 58009
04850KAOH AOH20160420125510804/20/16 12:55:31  5-MIN KAOH 201755Z AUTO 09009KT 10SM CLR 22/03 A3014 780 28 1800 100/09 RMK AO2 T02220033
04850KAOH AOH20160420130010804/20/16 13:00:31  5-MIN KAOH 201800Z AUTO 11006KT 10SM CLR 22/03 A3013 780 27 1800 110/06 RMK AO2 T02220028
04850KAOH AOH20160420130510804/20/16 13:05:31  5-MIN KAOH 201805Z AUTO 09009KT 10SM CLR 23/03 A3013 780 27 1900 090/09 RMK AO2 T02280033
04850KAOH AOH20160420131010804/20/16 13:10:31  5-MIN KAOH 201810Z AUTO 11010KT 10SM CLR 23/03 A3013 790 27 1900 110/10 RMK AO2 T02280033
04850KAOH AOH20160420131510804/20/16 13:15:31  5-MIN KAOH 201815Z AUTO 09009KT 10SM CLR 23/03 A3013 790 26 1900 100/09 RMK AO2 T02280028
04850KAOH AOH20160420132010804/20/16 13:20:31  5-MIN KAOH 201820Z AUTO 09010KT 10SM CLR 23/04 A3012 790 30 1900 100/10 RMK AO2 T02280044
04850KAOH AOH20160420132510804/20/16 13:25:31  5-MIN KAOH 201825Z AUTO 11008KT 10SM CLR 23/04 A3012 790 29 1900 110/08 RMK AO2 T02280039
04850KAOH AOH20160420133010804/20/16 13:30:31  5-MIN KAOH 201830Z AUTO 10010KT 10SM CLR 23/03 A3012 790 26 2000 110/10 RMK AO2 T02330033
04850KAOH AOH20160420133510804/20/16 13:35:31  5-MIN KAOH 201835Z AUTO 10008KT 10SM CLR 23/03 A3012 790 25 2000 100/08 RMK AO2 T02330028
04850KAOH AOH20160420134010804/20/16 13:40:31  5-MIN KAOH 201840Z AUTO 10008KT 10SM CLR 23/03 A3012 800 26 1900 100/08 RMK AO2 T02280028
04850KAOH AOH20160420134510804/20/16 13:45:31  5-MIN KAOH 201845Z AUTO 13006KT 10SM CLR 23/03 A3012 800 25 2000 130/06 RMK AO2 T02330028
04850KAOH AOH20160420135011504/20/16 13:50:31  5-MIN KAOH 201850Z AUTO 09009KT 10SM CLR 23/03 A3011 800 26 2000 090/09 RMK AO2 SLP195 T02330033
04850KAOH AOH20160420135510804/20/16 13:55:31  5-MIN KAOH 201855Z AUTO 10008KT 10SM CLR 23/04 A3011 800 29 2000 100/08 RMK AO2 T02330044
04850KAOH AOH20160420140010804/20/16 14:00:31  5-MIN KAOH 201900Z AUTO 12011KT 10SM CLR 24/03 A3011 800 26 2100 120/11 RMK AO2 T02390033
04850KAOH AOH20160420140510804/20/16 14:05:31  5-MIN KAOH 201905Z AUTO 14009KT 10SM CLR 23/03 A3011 810 25 2000 150/09 RMK AO2 T02330028
04850KAOH AOH20160420141010804/20/16 14:10:31  5-MIN KAOH 201910Z AUTO 09009KT 10SM CLR 24/02 A3010 810 24 2100 100/09 RMK AO2 T02390022
04850KAOH AOH20160420141510804/20/16 14:15:31  5-MIN KAOH 201915Z AUTO 10008KT 10SM CLR 24/03 A3010 810 26 2100 100/08 RMK AO2 T02390033
04850KAOH AOH20160420142010804/20/16 14:20:31  5-MIN KAOH 201920Z AUTO 12008KT 10SM CLR 24/04 A3010 810 28 2100 130/08 RMK AO2 T02390044
04850KAOH AOH20160420142510804/20/16 14:25:31  5-MIN KAOH 201925Z AUTO 10007KT 10SM CLR 24/03 A3010 810 26 2100 110/07 RMK AO2 T02390033
04850KAOH AOH20160420143010804/20/16 14:30:31  5-MIN KAOH 201930Z AUTO 12011KT 10SM CLR 24/03 A3010 810 26 2100 130/11 RMK AO2 T02390033
04850KAOH AOH20160420143510804/20/16 14:35:31  5-MIN KAOH 201935Z AUTO 12009KT 10SM CLR 24/03 A3009 820 25 2100 130/09 RMK AO2 T02390028
04850KAOH AOH20160420144010804/20/16 14:40:31  5-MIN KAOH 201940Z AUTO 10009KT 10SM CLR 24/03 A3009 820 25 2100 110/09 RMK AO2 T02390028
04850KAOH AOH20160420144510804/20/16 14:45:31  5-MIN KAOH 201945Z AUTO 10009KT 10SM CLR 24/04 A3009 830 27 2100 110/09 RMK AO2 T02390039
04850KAOH AOH20160420145011504/20/16 14:50:31  5-MIN KAOH 201950Z AUTO 09010KT 10SM CLR 24/05 A3008 830 29 2100 100/10 RMK AO2 SLP184 T02390050
04850KAOH AOH20160420145511404/20/16 14:55:31  5-MIN KAOH 201955Z AUTO 10007G17KT 10SM CLR 24/04 A3008 830 27 2100 110/07G17 RMK AO2 T02390039
04850KAOH AOH20160420150011404/20/16 15:00:31  5-MIN KAOH 202000Z AUTO 09010G17KT 10SM CLR 24/04 A3008 830 28 2100 100/10G17 RMK AO2 T02390044
04850KAOH AOH20160420150511404/20/16 15:05:31  5-MIN KAOH 202005Z AUTO 11009G17KT 10SM CLR 24/03 A3007 840 26 2100 120/09G17 RMK AO2 T02390033
04850KAOH AOH20160420151011404/20/16 15:10:31  5-MIN KAOH 202010Z AUTO 09010G15KT 10SM CLR 24/04 A3007 840 27 2200 100/10G15 RMK AO2 T02440044
04850KAOH AOH20160420151511404/20/16 15:15:31  5-MIN KAOH 202015Z AUTO 10009G15KT 10SM CLR 24/04 A3007 840 28 2100 100/09G15 RMK AO2 T02390044
04850KAOH AOH20160420152010804/20/16 15:20:31  5-MIN KAOH 202020Z AUTO 09011KT 10SM CLR 24/05 A3006 840 29 2100 100/11 RMK AO2 T02390050
04850KAOH AOH20160420152510804/20/16 15:25:31  5-MIN KAOH 202025Z AUTO 09011KT 10SM CLR 24/05 A3006 850 29 2100 100/11 RMK AO2 T02390050
04850KAOH AOH20160420153010804/20/16 15:30:31  5-MIN KAOH 202030Z AUTO 10010KT 10SM CLR 24/04 A3006 850 27 2100 100/10 RMK AO2 T02390039
04850KAOH AOH20160420153510804/20/16 15:35:31  5-MIN KAOH 202035Z AUTO 10010KT 10SM CLR 24/04 A3006 850 28 2100 110/10 RMK AO2 T02390044
04850KAOH AOH20160420154011404/20/16 15:40:31  5-MIN KAOH 202040Z AUTO 12008G15KT 10SM CLR 24/04 A3006 850 27 2100 130/08G15 RMK AO2 T02390039
04850KAOH AOH20160420154512404/20/16 15:45:31  5-MIN KAOH 202045Z AUTO 10008KT 080V140 10SM CLR 24/04 A3006 850 26 2200 110/08 090V150 RMK AO2 T02440039
04850KAOH AOH20160420155012704/20/16 15:50:31  5-MIN KAOH 202050Z AUTO 10009G18KT 10SM CLR 24/03 A3005 850 25 2200 110/09G18 RMK AO2 SLP175 T02440033 58015
04850KAOH AOH20160420155511404/20/16 15:55:31  5-MIN KAOH 202055Z AUTO 10008G18KT 10SM CLR 24/05 A3005 860 29 2100 110/08G18 RMK AO2 T02390050
04850KAOH AOH20160420160010804/20/16 16:00:31  5-MIN KAOH 202100Z AUTO 11009KT 10SM CLR 24/04 A3005 860 27 2200 120/09 RMK AO2 T02440044
04850KAOH AOH20160420160511404/20/16 16:05:31  5-MIN KAOH 202105Z AUTO 10009G18KT 10SM CLR 23/03 A3005 860 26 2100 110/09G18 RMK AO2 T02330033
04850KAOH AOH20160420161011404/20/16 16:10:31  5-MIN KAOH 202110Z AUTO 11008G18KT 10SM CLR 23/04 A3004 860 30 2000 110/08G18 RMK AO2 T02280044
04850KAOH AOH20160420161510804/20/16 16:15:31  5-MIN KAOH 202115Z AUTO 12007KT 10SM CLR 23/04 A3004 860 28 2100 120/07 RMK AO2 T02330039
04850KAOH AOH20160420162010804/20/16 16:20:31  5-MIN KAOH 202120Z AUTO 12010KT 10SM CLR 23/03 A3004 860 26 2100 130/10 RMK AO2 T02330033
04850KAOH AOH20160420162510804/20/16 16:25:31  5-MIN KAOH 202125Z AUTO 12009KT 10SM CLR 23/04 A3004 860 28 2100 120/09 RMK AO2 T02330039
04850KAOH AOH20160420163010804/20/16 16:30:31  5-MIN KAOH 202130Z AUTO 12009KT 10SM CLR 23/04 A3004 870 29 2100 120/09 RMK AO2 T02330044
04850KAOH AOH20160420163510804/20/16 16:35:31  5-MIN KAOH 202135Z AUTO 11008KT 10SM CLR 23/05 A3004 870 30 2100 120/08 RMK AO2 T02330050
04850KAOH AOH20160420164010804/20/16 16:40:31  5-MIN KAOH 202140Z AUTO 12009KT 10SM CLR 24/04 A3004 870 28 2100 130/09 RMK AO2 T02390044
04850KAOH AOH20160420164510804/20/16 16:45:31  5-MIN KAOH 202145Z AUTO 10008KT 10SM CLR 24/04 A3004 870 27 2100 110/08 RMK AO2 T02390039
04850KAOH AOH20160420165011504/20/16 16:50:31  5-MIN KAOH 202150Z AUTO 10007KT 10SM CLR 23/04 A3004 870 28 2100 110/07 RMK AO2 SLP169 T02330039
04850KAOH AOH20160420165510804/20/16 16:55:31  5-MIN KAOH 202155Z AUTO 11010KT 10SM CLR 24/03 A3003 870 26 2100 120/10 RMK AO2 T02390033
04850KAOH AOH20160420170010804/20/16 17:00:31  5-MIN KAOH 202200Z AUTO 11007KT 10SM CLR 24/04 A3003 870 27 2100 110/07 RMK AO2 T02390039
04850KAOH AOH20160420170510804/20/16 17:05:31  5-MIN KAOH 202205Z AUTO 09009KT 10SM CLR 24/05 A3003 870 29 2100 100/09 RMK AO2 T02390050
04850KAOH AOH20160420171010804/20/16 17:10:31  5-MIN KAOH 202210Z AUTO 09010KT 10SM CLR 23/04 A3003 880 29 2100 100/10 RMK AO2 T02330044
04850KAOH AOH20160420171510804/20/16 17:15:31  5-MIN KAOH 202215Z AUTO 10009KT 10SM CLR 23/04 A3003 870 30 2000 100/09 RMK AO2 T02280044
04850KAOH AOH20160420172010804/20/16 17:20:31  5-MIN KAOH 202220Z AUTO 10009KT 10SM CLR 23/04 A3003 880 29 2000 100/09 RMK AO2 T02280039
04850KAOH AOH20160420172510804/20/16 17:25:31  5-MIN KAOH 202225Z AUTO 10009KT 10SM CLR 23/04 A3003 880 29 2100 100/09 RMK AO2 T02330044
04850KAOH AOH20160420173010804/20/16 17:30:31  5-MIN KAOH 202230Z AUTO 10011KT 10SM CLR 23/04 A3003 880 29 2000 100/11 RMK AO2 T02280039
04850KAOH AOH20160420173510804/20/16 17:35:31  5-MIN KAOH 202235Z AUTO 09010KT 10SM CLR 22/04 A3003 880 31 2000 100/10 RMK AO2 T02220044
04850KAOH AOH20160420174011104/20/16 17:40:31  5-MIN KAOH 202240Z AUTO 10008KT 10SM FEW120 22/06 A3003 880 33 2000 100/08 RMK AO2 T02220056
04850KAOH AOH20160420174511104/20/16 17:45:31  5-MIN KAOH 202245Z AUTO 09011KT 10SM SCT120 22/04 A3003 880 31 2000 100/11 RMK AO2 T02220044
04850KAOH AOH20160420175011804/20/16 17:50:31  5-MIN KAOH 202250Z AUTO 09009KT 10SM SCT120 22/05 A3002 880 32 2000 100/09 RMK AO2 SLP166 T02220050
04850KAOH AOH20160420175511104/20/16 17:55:31  5-MIN KAOH 202255Z AUTO 09009KT 10SM SCT120 22/04 A3002 880 31 2000 100/09 RMK AO2 T02220044
04850KAOH AOH20160420180011104/20/16 18:00:31  5-MIN KAOH 202300Z AUTO 09009KT 10SM BKN120 22/04 A3002 880 31 2000 100/09 RMK AO2 T02220044
04850KAOH AOH20160420180511104/20/16 18:05:31  5-MIN KAOH 202305Z AUTO 09008KT 10SM SCT120 22/06 A3002 890 34 1900 100/08 RMK AO2 T02170056
04850KAOH AOH20160420181011104/20/16 18:10:31  5-MIN KAOH 202310Z AUTO 10008KT 10SM SCT110 22/05 A3002 890 33 1900 110/08 RMK AO2 T02170050
04850KAOH AOH20160420181511104/20/16 18:15:31  5-MIN KAOH 202315Z AUTO 10008KT 10SM BKN110 22/04 A3002 890 32 1900 110/08 RMK AO2 T02170044
04850KAOH AOH20160420182011104/20/16 18:20:31  5-MIN KAOH 202320Z AUTO 11007KT 10SM SCT110 22/04 A3002 890 32 1900 110/07 RMK AO2 T02170044
04850KAOH AOH20160420182511104/20/16 18:25:31  5-MIN KAOH 202325Z AUTO 10008KT 10SM FEW110 22/04 A3002 890 32 1900 110/08 RMK AO2 T02170044
04850KAOH AOH20160420183011104/20/16 18:30:31  5-MIN KAOH 202330Z AUTO 10008KT 10SM FEW110 21/04 A3002 890 33 1800 110/08 RMK AO2 T02110044
04850KAOH AOH20160420183511104/20/16 18:35:31  5-MIN KAOH 202335Z AUTO 10007KT 10SM FEW110 22/04 A3002 890 31 1900 110/07 RMK AO2 T02170039
04850KAOH AOH20160420184011104/20/16 18:40:31  5-MIN KAOH 202340Z AUTO 10007KT 10SM SCT120 21/04 A3002 890 33 1800 110/07 RMK AO2 T02110044
04850KAOH AOH20160420184511104/20/16 18:45:31  5-MIN KAOH 202345Z AUTO 10007KT 10SM FEW120 21/04 A3001 890 33 1800 110/07 RMK AO2 T02110044
04850KAOH AOH20160420185013604/20/16 18:50:31  5-MIN KAOH 202350Z AUTO 09008KT 10SM FEW120 21/04 A3001 890 33 1800 100/08 RMK AO2 SLP162 T02110044 10244 20211 58027
04850KAOH AOH20160420185511104/20/16 18:55:31  5-MIN KAOH 202355Z AUTO 09007KT 10SM FEW120 20/06 A3001 890 38 1700 100/07 RMK AO2 T02000056
04850KAOH AOH20160420190011104/20/16 19:00:31  5-MIN KAOH 210000Z AUTO 09007KT 10SM FEW120 20/06 A3001 890 38 1700 100/07 RMK AO2 T02000056
04850KAOH AOH20160420190511104/20/16 19:05:31  5-MIN KAOH 210005Z AUTO 10007KT 10SM FEW120 20/05 A3001 900 37 1700 110/07 RMK AO2 T02000050
04850KAOH AOH20160420191010804/20/16 19:10:31  5-MIN KAOH 210010Z AUTO 10006KT 10SM CLR 20/05 A3000 900 37 1700 110/06 RMK AO2 T02000050
04850KAOH AOH20160420191510804/20/16 19:15:31  5-MIN KAOH 210015Z AUTO 10007KT 10SM CLR 19/06 A3000 900 40 1700 110/07 RMK AO2 T01940056
04850KAOH AOH20160420192010804/20/16 19:20:31  5-MIN KAOH 210020Z AUTO 10008KT 10SM CLR 19/05 A3000 900 38 1700 100/08 RMK AO2 T01940050
04850KAOH AOH20160420192510804/20/16 19:25:31  5-MIN KAOH 210025Z AUTO 10007KT 10SM CLR 19/05 A3000 900 38 1700 100/07 RMK AO2 T01940050
04850KAOH AOH20160420193010804/20/16 19:30:31  5-MIN KAOH 210030Z AUTO 10008KT 10SM CLR 19/05 A3000 900 39 1600 100/08 RMK AO2 T01890050
04850KAOH AOH20160420193511104/20/16 19:35:31  5-MIN KAOH 210035Z AUTO 09007KT 10SM FEW120 19/06 A3000 900 41 1600 100/07 RMK AO2 T01890056
04850KAOH AOH20160420194011104/20/16 19:40:31  5-MIN KAOH 210040Z AUTO 09008KT 10SM FEW120 19/06 A3000 910 41 1600 100/08 RMK AO2 T01890056
04850KAOH AOH20160420194511104/20/16 19:45:31  5-MIN KAOH 210045Z AUTO 09008KT 10SM SCT120 19/06 A3000 910 41 1600 100/08 RMK AO2 T01890056
04850KAOH AOH20160420195011804/20/16 19:50:31  5-MIN KAOH 210050Z AUTO 09008KT 10SM BKN120 18/06 A3000 910 42 1500 100/08 RMK AO2 SLP156 T01830056
04850KAOH AOH20160420195511104/20/16 19:55:31  5-MIN KAOH 210055Z AUTO 09008KT 10SM BKN120 18/06 A3000 910 42 1500 100/08 RMK AO2 T01830056
04850KAOH AOH20160420200011104/20/16 20:00:31  5-MIN KAOH 210100Z AUTO 09008KT 10SM BKN110 18/06 A3000 910 42 1500 100/08 RMK AO2 T01830056
04850KAOH AOH20160420200511104/20/16 20:05:31  5-MIN KAOH 210105Z AUTO 09008KT 10SM BKN110 18/06 A3000 910 42 1500 100/08 RMK AO2 T01830056
04850KAOH AOH20160420201011104/20/16 20:10:31  5-MIN KAOH 210110Z AUTO 09007KT 10SM BKN110 18/06 A3000 910 42 1500 100/07 RMK AO2 T01830056
04850KAOH AOH20160420201511104/20/16 20:15:31  5-MIN KAOH 210115Z AUTO 09008KT 10SM BKN110 18/06 A3000 910 44 1500 100/08 RMK AO2 T01830061
04850KAOH AOH20160420202011104/20/16 20:20:31  5-MIN KAOH 210120Z AUTO 09009KT 10SM BKN110 18/06 A3000 910 42 1500 100/09 RMK AO2 T01830056
04850KAOH AOH20160420202511104/20/16 20:25:31  5-MIN KAOH 210125Z AUTO 09009KT 10SM OVC110 18/06 A3000 910 42 1500 100/09 RMK AO2 T01830056
04850KAOH AOH20160420203011104/20/16 20:30:31  5-MIN KAOH 210130Z AUTO 09009KT 10SM BKN110 18/06 A3000 910 42 1500 100/09 RMK AO2 T01830056
04850KAOH AOH20160420203511104/20/16 20:35:31  5-MIN KAOH 210135Z AUTO 09009KT 10SM BKN110 18/06 A3000 910 42 1500 100/09 RMK AO2 T01830056
04850KAOH AOH20160420204011104/20/16 20:40:31  5-MIN KAOH 210140Z AUTO 09009KT 10SM SCT110 18/05 A3000 910 41 1500 100/09 RMK AO2 T01830050
04850KAOH AOH20160420204511104/20/16 20:45:31  5-MIN KAOH 210145Z AUTO 09009KT 10SM SCT110 18/05 A2999 910 41 1500 100/09 RMK AO2 T01830050
04850KAOH AOH20160420205011804/20/16 20:50:31  5-MIN KAOH 210150Z AUTO 09009KT 10SM FEW120 18/05 A2999 910 41 1600 100/09 RMK AO2 SLP154 T01830050
04850KAOH AOH20160420205511104/20/16 20:55:31  5-MIN KAOH 210155Z AUTO 09009KT 10SM FEW120 18/05 A2999 910 41 1600 100/09 RMK AO2 T01830050
04850KAOH AOH20160420210010804/20/16 21:00:31  5-MIN KAOH 210200Z AUTO 09009KT 10SM CLR 18/05 A2999 910 41 1600 100/09 RMK AO2 T01830050
04850KAOH AOH20160420210510804/20/16 21:05:31  5-MIN KAOH 210205Z AUTO 09009KT 10SM CLR 18/05 A2999 910 41 1600 100/09 RMK AO2 T01830050
04850KAOH AOH20160420211010804/20/16 21:10:31  5-MIN KAOH 210210Z AUTO 10009KT 10SM CLR 18/05 A2999 910 41 1600 100/09 RMK AO2 T01830050
04850KAOH AOH20160420211510804/20/16 21:15:31  5-MIN KAOH 210215Z AUTO 10009KT 10SM CLR 18/04 A2999 910 39 1600 100/09 RMK AO2 T01830044
04850KAOH AOH20160420212010804/20/16 21:20:31  5-MIN KAOH 210220Z AUTO 10010KT 10SM CLR 18/04 A2999 910 39 1600 100/10 RMK AO2 T01830044
04850KAOH AOH20160420212510804/20/16 21:25:31  5-MIN KAOH 210225Z AUTO 10009KT 10SM CLR 18/04 A2999 910 39 1600 100/09 RMK AO2 T01830044
04850KAOH AOH20160420213010804/20/16 21:30:31  5-MIN KAOH 210230Z AUTO 10008KT 10SM CLR 19/04 A2999 920 36 1600 110/08 RMK AO2 T01890039
04850KAOH AOH20160420213510804/20/16 21:35:31  5-MIN KAOH 210235Z AUTO 10008KT 10SM CLR 18/04 A2998 920 39 1600 100/08 RMK AO2 T01830044
04850KAOH AOH20160420214010804/20/16 21:40:31  5-MIN KAOH 210240Z AUTO 10008KT 10SM CLR 18/05 A2998 920 42 1500 100/08 RMK AO2 T01780050
04850KAOH AOH20160420214510804/20/16 21:45:31  5-MIN KAOH 210245Z AUTO 10009KT 10SM CLR 18/04 A2998 920 39 1600 100/09 RMK AO2 T01830044
04850KAOH AOH20160420215012104/20/16 21:50:31  5-MIN KAOH 210250Z AUTO 10010KT 10SM CLR 18/04 A2998 920 39 1600 100/10 RMK AO2 SLP149 T01830044 56014
04850KAOH AOH20160420215510804/20/16 21:55:31  5-MIN KAOH 210255Z AUTO 10009KT 10SM CLR 18/04 A2998 920 41 1500 110/09 RMK AO2 T01780044
04850KAOH AOH20160420220010804/20/16 22:00:31  5-MIN KAOH 210300Z AUTO 10008KT 10SM CLR 18/04 A2998 920 41 1500 110/08 RMK AO2 T01780044
04850KAOH AOH20160420220511104/20/16 22:05:31  5-MIN KAOH 210305Z AUTO 10009KT 10SM FEW110 18/05 A2998 930 42 1500 100/09 RMK AO2 T01780050
04850KAOH AOH20160420221011104/20/16 22:10:31  5-MIN KAOH 210310Z AUTO 10008KT 10SM SCT110 17/05 A2998 930 44 1400 110/08 RMK AO2 T01720050
04850KAOH AOH20160420221511104/20/16 22:15:31  5-MIN KAOH 210315Z AUTO 10008KT 10SM BKN110 18/04 A2997 930 41 1500 110/08 RMK AO2 T01780044
04850KAOH AOH20160420222011104/20/16 22:20:31  5-MIN KAOH 210320Z AUTO 10008KT 10SM BKN110 18/05 A2997 930 42 1500 100/08 RMK AO2 T01780050
04850KAOH AOH20160420222511104/20/16 22:25:31  5-MIN KAOH 210325Z AUTO 10008KT 10SM BKN110 17/05 A2997 930 44 1400 110/08 RMK AO2 T01720050
04850KAOH AOH20160420223011104/20/16 22:30:31  5-MIN KAOH 210330Z AUTO 10009KT 10SM BKN120 17/05 A2997 930 44 1400 100/09 RMK AO2 T01720050
04850KAOH AOH20160420223511104/20/16 22:35:31  5-MIN KAOH 210335Z AUTO 10008KT 10SM BKN120 17/05 A2997 930 44 1500 100/08 RMK AO2 T01720050
04850KAOH AOH20160420224011104/20/16 22:40:31  5-MIN KAOH 210340Z AUTO 10008KT 10SM BKN120 17/05 A2997 930 44 1500 110/08 RMK AO2 T01720050
04850KAOH AOH20160420224511104/20/16 22:45:31  5-MIN KAOH 210345Z AUTO 10008KT 10SM BKN120 17/05 A2997 940 45 1400 100/08 RMK AO2 T01670050
04850KAOH AOH20160420225011804/20/16 22:50:31  5-MIN KAOH 210350Z AUTO 10008KT 10SM SCT120 17/05 A2996 940 45 1400 100/08 RMK AO2 SLP144 T01670050
04850KAOH AOH20160420225511104/20/16 22:55:31  5-MIN KAOH 210355Z AUTO 10008KT 10SM FEW120 17/05 A2996 940 45 1400 100/08 RMK AO2 T01670050
04850KAOH AOH20160420230011104/20/16 23:00:31  5-MIN KAOH 210400Z AUTO 10008KT 10SM SCT120 17/05 A2996 940 45 1400 100/08 RMK AO2 T01670050
04850KAOH AOH20160420230511104/20/16 23:05:31  5-MIN KAOH 210405Z AUTO 10008KT 10SM BKN120 17/05 A2996 940 44 1500 100/08 RMK AO2 T01720050
04850KAOH AOH20160420231011104/20/16 23:10:31  5-MIN KAOH 210410Z AUTO 10008KT 10SM BKN120 17/05 A2996 940 44 1500 110/08 RMK AO2 T01720050
04850KAOH AOH20160420231511104/20/16 23:15:31  5-MIN KAOH 210415Z AUTO 10007KT 10SM BKN120 17/05 A2996 940 44 1500 110/07 RMK AO2 T01720050
04850KAOH AOH20160420232011104/20/16 23:20:31  5-MIN KAOH 210420Z AUTO 10007KT 10SM BKN120 17/04 A2996 940 42 1500 110/07 RMK AO2 T01720044
04850KAOH AOH20160420232511104/20/16 23:25:31  5-MIN KAOH 210425Z AUTO 11007KT 10SM BKN120 17/04 A2996 940 42 1500 110/07 RMK AO2 T01720044
04850KAOH AOH20160420233011104/20/16 23:30:31  5-MIN KAOH 210430Z AUTO 11007KT 10SM BKN120 17/04 A2995 950 42 1500 120/07 RMK AO2 T01720044
04850KAOH AOH20160420233511104/20/16 23:35:31  5-MIN KAOH 210435Z AUTO 11008KT 10SM SCT120 18/04 A2995 950 39 1500 120/08 RMK AO2 T01780039
04850KAOH AOH20160420234011104/20/16 23:40:31  5-MIN KAOH 210440Z AUTO 11009KT 10SM FEW120 18/03 A2995 950 38 1500 120/09 RMK AO2 T01780033
04850KAOH AOH20160420234511104/20/16 23:45:31  5-MIN KAOH 210445Z AUTO 11010KT 10SM FEW120 18/03 A2995 950 36 1600 120/10 RMK AO2 T01830033
04850KAOH AOH20160420235012504/20/16 23:50:31  5-MIN KAOH 210450Z AUTO 12010KT 10SM CLR 18/03 A2995 950 35 1600 120/10 RMK AO2 SLP137 T01830028 402440061
04850KAOH AOH20160420235511104/20/16 23:55:31  5-MIN KAOH 210455Z AUTO 11010KT 10SM FEW120 18/03 A2995 950 35 1600 120/10 RMK AO2 T01830028
04850KAOH AOH20160421000011104/21/16 00:00:31  5-MIN KAOH 210500Z AUTO 11008KT 10SM FEW120 18/03 A2995 950 35 1600 120/08 RMK AO2 T01830028
04850KAOH AOH20160421000511104/21/16 00:05:31  5-MIN KAOH 210505Z AUTO 12009KT 10SM FEW120 18/02 A2995 950 34 1600 120/09 RMK AO2 T01830022
04850KAOH AOH20160421001011104/21/16 00:10:31  5-MIN KAOH 210510Z AUTO 12010KT 10SM FEW120 18/02 A2994 950 34 1600 130/10 RMK AO2 T01830022
04850KAOH AOH20160421001511104/21/16 00:15:31  5-MIN KAOH 210515Z AUTO 12010KT 10SM FEW120 18/02 A2994 960 34 1600 130/10 RMK AO2 T01830022
04850KAOH AOH20160421002011104/21/16 00:20:31  5-MIN KAOH 210520Z AUTO 12010KT 10SM FEW120 18/03 A2994 960 35 1600 130/10 RMK AO2 T01830028
04850KAOH AOH20160421002510804/21/16 00:25:31  5-MIN KAOH 210525Z AUTO 12008KT 10SM CLR 18/03 A2994 960 35 1600 130/08 RMK AO2 T01830028
04850KAOH AOH20160421003010804/21/16 00:30:31  5-MIN KAOH 210530Z AUTO 12010KT 10SM CLR 18/03 A2994 960 35 1600 130/10 RMK AO2 T01830028
04850KAOH AOH20160421003510804/21/16 00:35:31  5-MIN KAOH 210535Z AUTO 12010KT 10SM CLR 18/03 A2994 960 35 1600 130/10 RMK AO2 T01830028
04850KAOH AOH20160421004010804/21/16 00:40:31  5-MIN KAOH 210540Z AUTO 12010KT 10SM CLR 18/02 A2993 960 34 1600 130/10 RMK AO2 T01830022
04850KAOH AOH20160421004511104/21/16 00:45:31  5-MIN KAOH 210545Z AUTO 12010KT 10SM FEW090 18/03 A2993 970 35 1600 130/10 RMK AO2 T01830028
04850KAOH AOH20160421005013604/21/16 00:50:31  5-MIN KAOH 210550Z AUTO 13009KT 10SM SCT095 18/03 A2993 970 35 1600 130/09 RMK AO2 SLP131 T01830028 10206 20167 56010
04850KAOH AOH20160421005511104/21/16 00:55:31  5-MIN KAOH 210555Z AUTO 13010KT 10SM BKN090 18/02 A2993 970 34 1600 130/10 RMK AO2 T01830022
04850KAOH AOH20160421010011104/21/16 01:00:31  5-MIN KAOH 210600Z AUTO 13010KT 10SM BKN085 18/03 A2993 970 35 1600 140/10 RMK AO2 T01830028
04850KAOH AOH20160421010513404/21/16 01:05:31  5-MIN KAOH 210605Z AUTO 13009KT 10SM -RA BKN090 BKN100 18/04 A2993 970 39 1600 140/09 RMK AO2 RAB02 P0000 T01780039
04850KAOH AOH20160421011013404/21/16 01:10:31  5-MIN KAOH 210610Z AUTO 14006KT 10SM -RA BKN090 OVC100 18/03 A2993 970 38 1600 140/06 RMK AO2 RAB02 P0000 T01780033
04850KAOH AOH20160421011513304/21/16 01:15:31  5-MIN KAOH 210615Z AUTO 14009KT 10SM BKN090 OVC100 18/03 A2993 970 36 1600 150/09 RMK AO2 RAB02E13 P0000 T01780028
04850KAOH AOH20160421012012604/21/16 01:20:31  5-MIN KAOH 210620Z AUTO 15006KT 10SM OVC095 18/03 A2994 960 35 1600 160/06 RMK AO2 RAB02E13 P0000 T01830028
04850KAOH AOH20160421012512604/21/16 01:25:31  5-MIN KAOH 210625Z AUTO 18005KT 10SM OVC095 18/03 A2994 960 36 1600 180/05 RMK AO2 RAB02E13 P0000 T01780028
04850KAOH AOH20160421013012604/21/16 01:30:31  5-MIN KAOH 210630Z AUTO 16006KT 10SM OVC100 18/03 A2994 960 38 1600 170/06 RMK AO2 RAB02E13 P0000 T01780033
04850KAOH AOH20160421013512604/21/16 01:35:31  5-MIN KAOH 210635Z AUTO 16006KT 10SM OVC100 18/03 A2994 960 38 1600 170/06 RMK AO2 RAB02E13 P0000 T01780033
04850KAOH AOH20160421014012604/21/16 01:40:31  5-MIN KAOH 210640Z AUTO 18005KT 10SM OVC100 17/04 A2994 960 41 1500 190/05 RMK AO2 RAB02E13 P0000 T01720039
04850KAOH AOH20160421014512604/21/16 01:45:31  5-MIN KAOH 210645Z AUTO 18006KT 10SM OVC100 18/03 A2994 960 38 1500 190/06 RMK AO2 RAB02E13 P0000 T01780033
04850KAOH AOH20160421015013304/21/16 01:50:31  5-MIN KAOH 210650Z AUTO 20006KT 10SM OVC100 18/03 A2994 960 35 1600 210/06 RMK AO2 RAB02E13 SLP132 P0000 T01830028
04850KAOH AOH20160421015511104/21/16 01:55:31  5-MIN KAOH 210655Z AUTO 21006KT 10SM OVC100 18/03 A2994 960 38 1600 220/06 RMK AO2 T01780033
04850KAOH AOH20160421020011104/21/16 02:00:31  5-MIN KAOH 210700Z AUTO 17006KT 10SM OVC100 18/03 A2993 960 35 1600 180/06 RMK AO2 T01830028
04850KAOH AOH20160421020511104/21/16 02:05:31  5-MIN KAOH 210705Z AUTO 19006KT 10SM OVC095 18/03 A2993 960 35 1600 200/06 RMK AO2 T01830028
04850KAOH AOH20160421021011104/21/16 02:10:31  5-MIN KAOH 210710Z AUTO 19007KT 10SM OVC090 18/03 A2993 960 35 1600 200/07 RMK AO2 T01830028
04850KAOH AOH20160421021511804/21/16 02:15:31  5-MIN KAOH 210715Z AUTO 18006KT 10SM FEW065 OVC090 18/03 A2994 960 35 1600 190/06 RMK AO2 T01830028
04850KAOH AOH20160421022012504/21/16 02:20:31  5-MIN KAOH 210720Z AUTO 19006KT 10SM FEW060 SCT070 OVC090 18/03 A2994 960 35 1600 200/06 RMK AO2 T01830028
04850KAOH AOH20160421022512504/21/16 02:25:31  5-MIN KAOH 210725Z AUTO 26010KT 10SM FEW060 SCT070 OVC090 18/03 A2995 950 38 1500 270/10 RMK AO2 T01780033
04850KAOH AOH20160421023011804/21/16 02:30:31  5-MIN KAOH 210730Z AUTO 24005KT 10SM FEW065 OVC090 17/04 A2995 950 42 1500 240/05 RMK AO2 T01720044
04850KAOH AOH20160421023511804/21/16 02:35:31  5-MIN KAOH 210735Z AUTO 28009KT 10SM FEW065 OVC090 17/04 A2995 950 44 1400 280/09 RMK AO2 T01670044
04850KAOH AOH20160421024012504/21/16 02:40:31  5-MIN KAOH 210740Z AUTO 24007KT 10SM FEW060 BKN090 OVC110 17/04 A2995 950 44 1400 240/07 RMK AO2 T01670044
04850KAOH AOH20160421024511804/21/16 02:45:31  5-MIN KAOH 210745Z AUTO 24005KT 10SM FEW065 OVC095 17/04 A2995 950 42 1500 240/05 RMK AO2 T01720044
04850KAOH AOH20160421025012504/21/16 02:50:31  5-MIN KAOH 210750Z AUTO 27007KT 10SM FEW070 OVC095 17/05 A2995 950 45 1400 270/07 RMK AO2 SLP138 T01670050
04850KAOH AOH20160421025511804/21/16 02:55:31  5-MIN KAOH 210755Z AUTO 26007KT 10SM FEW075 OVC095 16/06 A2995 950 49 1300 270/07 RMK AO2 T01610056
04850KAOH AOH20160421030013604/21/16 03:00:31  5-MIN KAOH 210800Z AUTO 26008KT 10SM -RA FEW070 OVC095 16/06 A2995 950 49 1300 270/08 RMK AO2 RAB0759 P0000 T01610056
04850KAOH AOH20160421030513604/21/16 03:05:31  5-MIN KAOH 210805Z AUTO 26010KT 10SM -RA FEW075 OVC095 16/07 A2996 940 53 1300 260/10 RMK AO2 RAB0759 P0000 T01610067
04850KAOH AOH20160421031012904/21/16 03:10:31  5-MIN KAOH 210810Z AUTO 26010KT 10SM -RA OVC095 16/08 A2996 940 59 1300 260/10 RMK AO2 RAB0759 P0000 T01560078
04850KAOH AOH20160421031512904/21/16 03:15:31  5-MIN KAOH 210815Z AUTO 26008KT 10SM -RA OVC090 16/08 A2996 940 62 1300 260/08 RMK AO2 RAB0759 P0000 T01560083
04850KAOH AOH20160421032012904/21/16 03:20:31  5-MIN KAOH 210820Z AUTO 25006KT 10SM -RA OVC090 15/09 A2996 940 66 1200 250/06 RMK AO2 RAB0759 P0000 T01500089
04850KAOH AOH20160421032512904/21/16 03:25:31  5-MIN KAOH 210825Z AUTO 24005KT 10SM -RA OVC090 15/09 A2996 940 69 1200 240/05 RMK AO2 RAB0759 P0000 T01500094
04850KAOH AOH20160421033014304/21/16 03:30:31  5-MIN KAOH 210830Z AUTO 24004KT 10SM -RA FEW075 BKN090 OVC110 16/09 A2996 940 67 1300 250/04 RMK AO2 RAB0759 P0000 T01560094
04850KAOH AOH20160421033513504/21/16 03:35:31  5-MIN KAOH 210835Z AUTO 24003KT 10SM SCT070 OVC090 16/09 A2995 950 64 1300 240/03 RMK AO2 RAB0759E31 P0000 T01560089
04850KAOH AOH20160421034013504/21/16 03:40:31  5-MIN KAOH 210840Z AUTO 23003KT 10SM SCT065 OVC090 16/09 A2995 950 64 1300 240/03 RMK AO2 RAB0759E31 P0000 T01560089
04850KAOH AOH20160421034514204/21/16 03:45:31  5-MIN KAOH 210845Z AUTO 22003KT 10SM FEW060 BKN090 OVC100 16/09 A2995 950 64 1300 230/03 RMK AO2 RAB0759E31 P0000 T01560089
04850KAOH AOH20160421035016104/21/16 03:50:31  5-MIN KAOH 210850Z AUTO 23004KT 10SM SCT070 BKN085 OVC100 16/09 A2995 950 67 1300 240/04 RMK AO2 RAB0759E31 SLP137 P0000 60000 T01560094 58016
04850KAOH AOH20160421035511804/21/16 03:55:31  5-MIN KAOH 210855Z AUTO 22003KT 10SM FEW060 OVC080 16/09 A2995 950 67 1300 230/03 RMK AO2 T01560094
04850KAOH AOH20160421040012504/21/16 04:00:31  5-MIN KAOH 210900Z AUTO 00000KT 10SM FEW060 SCT075 OVC090 16/08 A2995 950 62 1300 000/00 RMK AO2 T01560083
04850KAOH AOH20160421040511804/21/16 04:05:31  5-MIN KAOH 210905Z AUTO 00000KT 10SM BKN085 OVC100 16/09 A2995 950 64 1300 000/00 RMK AO2 T01560089
04850KAOH AOH20160421041012704/21/16 04:10:31  5-MIN KAOH 210910Z AUTO 00000KT 10SM -RA OVC085 14/11 A2995 950 77 1100 000/00 RMK AO2 RAB10 P0000 T01440106
04850KAOH AOH20160421041512704/21/16 04:15:31  5-MIN KAOH 210915Z AUTO 00000KT 10SM -RA OVC080 14/10 A2994 960 74 1200 000/00 RMK AO2 RAB10 P0000 T01440100
04850KAOH AOH20160421042012704/21/16 04:20:31  5-MIN KAOH 210920Z AUTO 00000KT 10SM -RA OVC085 14/10 A2993 970 77 1100 000/00 RMK AO2 RAB10 P0000 T01390100
04850KAOH AOH20160421042513404/21/16 04:25:31  5-MIN KAOH 210925Z AUTO 06005KT 10SM -RA OVC085 14/10 A2992 980 77 1100 070/05 RMK AO2 RAB10 PRESFR P0000 T01390100
04850KAOH AOH20160421043012604/21/16 04:30:31  5-MIN KAOH 210930Z AUTO 07006KT 10SM OVC090 14/10 A2992 980 77 1100 080/06 RMK AO2 RAB10E30 P0000 T01390100
04850KAOH AOH20160421043512604/21/16 04:35:31  5-MIN KAOH 210935Z AUTO 07006KT 10SM OVC090 14/10 A2992 980 77 1100 070/06 RMK AO2 RAB10E30 P0000 T01390100
04850KAOH AOH20160421044012604/21/16 04:40:31  5-MIN KAOH 210940Z AUTO 07007KT 10SM OVC095 14/10 A2991 990 77 1100 080/07 RMK AO2 RAB10E30 P0000 T01390100
04850KAOH AOH20160421044512604/21/16 04:45:31  5-MIN KAOH 210945Z AUTO 07007KT 10SM OVC100 13/10 A2991 990 80 1100 080/07 RMK AO2 RAB10E30 P0000 T01330100
04850KAOH AOH20160421045013304/21/16 04:50:31  5-MIN KAOH 210950Z AUTO 06006KT 10SM OVC100 14/10 A2990 990 77 1100 070/06 RMK AO2 RAB10E30 SLP122 P0000 T01390100
04850KAOH AOH20160421045511804/21/16 04:55:31  5-MIN KAOH 210955Z AUTO 05004KT 10SM FEW070 OVC100 14/09 A2990 990 74 1100 050/04 RMK AO2 T01390094
04850KAOH AOH20160421050012504/21/16 05:00:31  5-MIN KAOH 211000Z AUTO 07003KT 10SM FEW070 SCT080 OVC100 14/09 A2990 990 74 1100 070/03 RMK AO2 T01390094
04850KAOH AOH20160421050512604/21/16 05:05:31  5-MIN KAOH 211005Z AUTO 03005KT 10SM FEW070 SCT080 OVC100 14/09 A2990 1000 74 1100 040/05 RMK AO2 T01390094
04850KAOH AOH20160421051011804/21/16 05:10:31  5-MIN KAOH 211010Z AUTO 36003KT 10SM FEW070 OVC100 14/09 A2990 990 74 1100 010/03 RMK AO2 T01390094
04850KAOH AOH20160421051512504/21/16 05:15:31  5-MIN KAOH 211015Z AUTO 00000KT 10SM FEW070 BKN090 OVC110 14/09 A2991 990 74 1100 000/00 RMK AO2 T01390094
04850KAOH AOH20160421052011804/21/16 05:20:31  5-MIN KAOH 211020Z AUTO 00000KT 10SM FEW070 OVC090 14/09 A2991 990 74 1100 000/00 RMK AO2 T01390094
04850KAOH AOH20160421052511804/21/16 05:25:31  5-MIN KAOH 211025Z AUTO 07003KT 10SM BKN090 OVC110 14/09 A2991 990 74 1100 080/03 RMK AO2 T01390094
04850KAOH AOH20160421053011104/21/16 05:30:31  5-MIN KAOH 211030Z AUTO 05003KT 10SM OVC090 14/09 A2991 990 74 1100 050/03 RMK AO2 T01390094
04850KAOH AOH20160421053511104/21/16 05:35:31  5-MIN KAOH 211035Z AUTO 00000KT 10SM OVC085 14/09 A2991 980 69 1200 000/00 RMK AO2 T01440089
04850KAOH AOH20160421054011104/21/16 05:40:31  5-MIN KAOH 211040Z AUTO 00000KT 10SM OVC085 14/09 A2992 980 74 1100 000/00 RMK AO2 T01390094
04850KAOH AOH20160421054511104/21/16 05:45:31  5-MIN KAOH 211045Z AUTO 00000KT 10SM OVC085 14/10 A2992 980 77 1100 000/00 RMK AO2 T01390100
04850KAOH AOH20160421055012504/21/16 05:50:31  5-MIN KAOH 211050Z AUTO 10004KT 10SM BKN075 OVC090 14/11 A2992 980 80 1100 110/04 RMK AO2 SLP126 T01390106
04850KAOH AOH20160421055511804/21/16 05:55:31  5-MIN KAOH 211055Z AUTO 11005KT 10SM BKN075 OVC095 14/11 A2991 980 80 1100 120/05 RMK AO2 T01390106
04850KAOH AOH20160421060011804/21/16 06:00:31  5-MIN KAOH 211100Z AUTO 13004KT 10SM BKN070 OVC095 14/10 A2992 980 77 1100 130/04 RMK AO2 T01390100
04850KAOH AOH20160421060512504/21/16 06:05:31  5-MIN KAOH 211105Z AUTO 13005KT 10SM BKN075 BKN090 OVC110 14/09 A2992 980 74 1100 130/05 RMK AO2 T01390094
04850KAOH AOH20160421061011804/21/16 06:10:31  5-MIN KAOH 211110Z AUTO 13005KT 10SM BKN070 OVC090 14/10 A2992 980 77 1100 140/05 RMK AO2 T01390100
04850KAOH AOH20160421061511804/21/16 06:15:31  5-MIN KAOH 211115Z AUTO 14006KT 10SM BKN075 OVC100 14/10 A2992 980 77 1100 150/06 RMK AO2 T01390100
04850KAOH AOH20160421062011804/21/16 06:20:31  5-MIN KAOH 211120Z AUTO 14006KT 10SM BKN075 OVC100 14/10 A2992 980 74 1200 150/06 RMK AO2 T01440100
04850KAOH AOH20160421062512504/21/16 06:25:31  5-MIN KAOH 211125Z AUTO 14005KT 10SM FEW070 BKN080 OVC110 14/10 A2992 970 74 1200 150/05 RMK AO2 T01440100
04850KAOH AOH20160421063012504/21/16 06:30:31  5-MIN KAOH 211130Z AUTO 15005KT 10SM BKN080 BKN090 OVC110 14/10 A2993 970 74 1200 150/05 RMK AO2 T01440100
04850KAOH AOH20160421063512504/21/16 06:35:31  5-MIN KAOH 211135Z AUTO 15005KT 10SM SCT075 BKN090 OVC110 14/10 A2993 970 74 1200 160/05 RMK AO2 T01440100
04850KAOH AOH20160421064012504/21/16 06:40:31  5-MIN KAOH 211140Z AUTO 15004KT 10SM SCT075 BKN090 OVC110 14/10 A2993 970 74 1200 160/04 RMK AO2 T01440100
04850KAOH AOH20160421064512504/21/16 06:45:31  5-MIN KAOH 211145Z AUTO 16003KT 10SM SCT075 BKN095 OVC120 14/10 A2993 970 74 1200 170/03 RMK AO2 T01440100
04850KAOH AOH20160421065014904/21/16 06:50:31  5-MIN KAOH 211150Z AUTO 00000KT 10SM SCT070 OVC095 14/10 A2993 960 74 1200 000/00 RMK AO2 SLP133 60000 T01440100 10183 20133 51007
04850KAOH AOH20160421065512504/21/16 06:55:31  5-MIN KAOH 211155Z AUTO 00000KT 10SM BKN070 BKN090 OVC110 14/10 A2994 960 74 1200 000/00 RMK AO2 T01440100
04850KAOH AOH20160421070014304/21/16 07:00:31  5-MIN KAOH 211200Z AUTO 18005KT 10SM -RA FEW060 BKN075 OVC110 14/11 A2995 950 77 1100 180/05 RMK AO2 RAB1157 P0000 T01440106
04850KAOH AOH20160421070514304/21/16 07:05:31  5-MIN KAOH 211205Z AUTO 15006KT 10SM -RA FEW060 BKN070 OVC090 14/11 A2994 960 77 1200 150/06 RMK AO2 RAB1157 P0001 T01440106
04850KAOH AOH20160421071014204/21/16 07:10:31  5-MIN KAOH 211210Z AUTO 14005KT 9SM -RA SCT065 BKN080 OVC090 14/11 A2994 960 80 1100 140/05 RMK AO2 RAB1157 P0001 T01390106
04850KAOH AOH20160421071513604/21/16 07:15:31  5-MIN KAOH 211215Z AUTO 15006KT 10SM -RA FEW065 OVC090 14/11 A2994 960 80 1100 160/06 RMK AO2 RAB1157 P0001 T01390106
04850KAOH AOH20160421072014304/21/16 07:20:31  5-MIN KAOH 211220Z AUTO 15005KT 10SM -RA FEW065 BKN090 OVC100 14/11 A2994 960 80 1100 150/05 RMK AO2 RAB1157 P0001 T01390106
04850KAOH AOH20160421072513504/21/16 07:25:31  5-MIN KAOH 211225Z AUTO 14003KT 10SM FEW065 OVC095 14/11 A2994 960 77 1200 150/03 RMK AO2 RAB1157E21 P0001 T01440106
04850KAOH AOH20160421073014204/21/16 07:30:31  5-MIN KAOH 211230Z AUTO 00000KT 10SM FEW070 BKN090 OVC110 14/11 A2994 960 80 1200 000/00 RMK AO2 RAB1157E21 P0001 T01440111
04850KAOH AOH20160421073514204/21/16 07:35:31  5-MIN KAOH 211235Z AUTO 00000KT 10SM FEW070 BKN090 OVC110 14/11 A2994 960 83 1100 000/00 RMK AO2 RAB1157E21 P0001 T01390111
04850KAOH AOH20160421074014204/21/16 07:40:31  5-MIN KAOH 211240Z AUTO 11003KT 10SM FEW070 BKN090 OVC110 14/11 A2994 960 77 1200 120/03 RMK AO2 RAB1157E21 P0001 T01440106
04850KAOH AOH20160421074514904/21/16 07:45:31  5-MIN KAOH 211245Z AUTO 07004KT 10SM -RA FEW070 BKN090 OVC110 14/11 A2993 970 80 1200 070/04 RMK AO2 RAB1157E21B42 P0001 T01440111
04850KAOH AOH20160421075015604/21/16 07:50:31  5-MIN KAOH 211250Z AUTO 08005KT 10SM -RA FEW070 BKN090 OVC110 14/12 A2993 970 83 1200 080/05 RMK AO2 RAB1157E21B42 SLP134 P0001 T01440117
04850KAOH AOH20160421075512804/21/16 07:55:31  5-MIN KAOH 211255Z AUTO 09005KT 10SM -RA BKN090 OVC110 14/11 A2993 970 80 1200 090/05 RMK AO2 P0000 T01440111
04850KAOH AOH20160421080012104/21/16 08:00:31  5-MIN KAOH 211300Z AUTO 11004KT 10SM -RA OVC090 14/11 A2994 960 80 1200 110/04 RMK AO2 P0000 T01440111
04850KAOH AOH20160421080512104/21/16 08:05:31  5-MIN KAOH 211305Z AUTO 16003KT 10SM -RA OVC090 14/11 A2994 960 80 1200 160/03 RMK AO2 P0000 T01440111
04850KAOH AOH20160421081012804/21/16 08:10:31  5-MIN KAOH 211310Z AUTO 16005KT 10SM -RA BKN080 OVC095 15/11 A2994 960 77 1200 160/05 RMK AO2 P0000 T01500111
04850KAOH AOH20160421081512704/21/16 08:15:31  5-MIN KAOH 211315Z AUTO 17006KT 9SM -RA BKN080 OVC090 14/11 A2995 950 80 1100 170/06 RMK AO2 P0000 T01440111
04850KAOH AOH20160421082012704/21/16 08:20:31  5-MIN KAOH 211320Z AUTO 16008KT 7SM -RA BKN080 OVC095 14/12 A2995 950 83 1100 160/08 RMK AO2 P0001 T01440117
04850KAOH AOH20160421082512704/21/16 08:25:31  5-MIN KAOH 211325Z AUTO 15008KT 6SM -RA FEW065 OVC080 14/12 A2995 950 83 1100 150/08 RMK AO2 P0001 T01440117
04850KAOH AOH20160421083013404/21/16 08:30:31  5-MIN KAOH 211330Z AUTO 15007KT 8SM -RA FEW065 BKN080 OVC095 14/12 A2995 950 83 1100 150/07 RMK AO2 P0001 T01440117
04850KAOH AOH20160421083512804/21/16 08:35:31  5-MIN KAOH 211335Z AUTO 15006KT 10SM -RA FEW070 OVC090 14/12 A2995 950 86 1100 150/06 RMK AO2 P0001 T01440122
04850KAOH AOH20160421084013504/21/16 08:40:31  5-MIN KAOH 211340Z AUTO 15005KT 10SM -RA FEW050 BKN080 OVC100 14/12 A2996 950 86 1100 160/05 RMK AO2 P0001 T01440122
04850KAOH AOH20160421084512104/21/16 08:45:31  5-MIN KAOH 211345Z AUTO 14005KT 10SM -RA OVC085 14/12 A2995 950 86 1100 150/05 RMK AO2 P0001 T01440122
04850KAOH AOH20160421085012804/21/16 08:50:31  5-MIN KAOH 211350Z AUTO 14004KT 10SM -RA OVC085 15/13 A2995 950 86 1200 140/04 RMK AO2 SLP140 P0001 T01500128
04850KAOH AOH20160421085512104/21/16 08:55:31  5-MIN KAOH 211355Z AUTO 13005KT 10SM -RA OVC085 15/13 A2994 950 86 1200 130/05 RMK AO2 P0000 T01500128
04850KAOH AOH20160421090012104/21/16 09:00:31  5-MIN KAOH 211400Z AUTO 13005KT 10SM -RA OVC085 15/13 A2994 960 86 1200 130/05 RMK AO2 P0000 T01500128
04850KAOH AOH20160421090512804/21/16 09:05:31  5-MIN KAOH 211405Z AUTO 12005KT 10SM -RA FEW070 OVC080 15/13 A2994 960 86 1200 120/05 RMK AO2 P0000 T01500128
04850KAOH AOH20160421091013504/21/16 09:10:31  5-MIN KAOH 211410Z AUTO 12008KT 10SM -RA BKN080 OVC095 15/13 A2993 970 86 1200 120/08 RMK AO2 PRESFR P0001 T01500128
04850KAOH AOH20160421091512804/21/16 09:15:31  5-MIN KAOH 211415Z AUTO 12007KT 10SM -RA FEW070 OVC085 15/13 A2993 970 86 1200 120/07 RMK AO2 P0001 T01500128
04850KAOH AOH20160421092013004/21/16 09:20:31  5-MIN KAOH 211420Z AUTO 13007KT 10SM BKN075 OVC090 15/13 A2993 960 86 1200 130/07 RMK AO2 RAE18 P0001 T01500128
04850KAOH AOH20160421092512704/21/16 09:25:31  5-MIN KAOH 211425Z AUTO 12007KT 8SM -RA BKN075 OVC090 15/13 A2993 970 86 1200 130/07 RMK AO2 P0001 T01500128
04850KAOH AOH20160421093012704/21/16 09:30:31  5-MIN KAOH 211430Z AUTO 15007KT 8SM -RA BKN075 OVC090 15/13 A2994 960 86 1200 150/07 RMK AO2 P0001 T01500128
04850KAOH AOH20160421093513704/21/16 09:35:31  5-MIN KAOH 211435Z AUTO 16007KT 6SM -RA BR SCT038 BKN075 OVC090 15/13 A2994 950 86 1200 160/07 RMK AO2 P0002 T01500128
04850KAOH AOH20160421094013704/21/16 09:40:31  5-MIN KAOH 211440Z AUTO 15005KT 5SM -RA BR SCT036 BKN075 OVC090 15/13 A2994 960 90 1200 160/05 RMK AO2 P0003 T01500133
04850KAOH AOH20160421094513704/21/16 09:45:31  5-MIN KAOH 211445Z AUTO 17004KT 5SM -RA BR FEW036 BKN075 OVC090 16/13 A2994 960 86 1300 180/04 RMK AO2 P0003 T01560133
04850KAOH AOH20160421095015604/21/16 09:50:31  5-MIN KAOH 211450Z AUTO 17007KT 6SM -RA BR SCT038 BKN080 OVC090 15/13 A2995 950 90 1200 180/07 RMK AO2 SLP139 P0004 60006 T01500133 55006
04850KAOH AOH20160421095513604/21/16 09:55:31  5-MIN KAOH 211455Z AUTO 18008KT 3SM RA BR SCT029 BKN037 OVC090 15/13 A2995 950 90 1200 190/08 RMK AO2 P0003 T01500133
04850KAOH AOH20160421100014004/21/16 10:00:31  5-MIN KAOH 211500Z AUTO 18008KT 2 1/2SM RA BR SCT029 BKN037 OVC080 15/13 A2995 950 90 1200 190/08 RMK AO2 P0004 T01500133
04850KAOH AOH20160421100513704/21/16 10:05:31  5-MIN KAOH 211505Z AUTO 18007KT 4SM -RA BR FEW028 SCT036 OVC080 15/13 A2995 950 90 1200 180/07 RMK AO2 P0004 T01500133
04850KAOH AOH20160421101013404/21/16 10:10:31  5-MIN KAOH 211510Z AUTO 18009KT 7SM -RA FEW028 BKN075 OVC090 16/13 A2994 960 86 1300 190/09 RMK AO2 P0004 T01560133
04850KAOH AOH20160421101513404/21/16 10:15:31  5-MIN KAOH 211515Z AUTO 19009KT 9SM -RA FEW028 BKN065 OVC085 16/13 A2994 960 86 1300 200/09 RMK AO2 P0004 T01560133
04850KAOH AOH20160421102013504/21/16 10:20:31  5-MIN KAOH 211520Z AUTO 20007KT 10SM -RA FEW029 SCT065 OVC085 16/13 A2994 960 86 1300 210/07 RMK AO2 P0004 T01560133
04850KAOH AOH20160421102512804/21/16 10:25:31  5-MIN KAOH 211525Z AUTO 19007KT 10SM -RA FEW065 OVC085 16/13 A2994 960 86 1300 200/07 RMK AO2 P0004 T01560133
04850KAOH AOH20160421103012804/21/16 10:30:31  5-MIN KAOH 211530Z AUTO 17006KT 10SM -RA FEW065 OVC085 16/13 A2994 960 86 1300 180/06 RMK AO2 P0004 T01560133
04850KAOH AOH20160421103512804/21/16 10:35:31  5-MIN KAOH 211535Z AUTO 17007KT 10SM -RA FEW070 OVC090 16/14 A2994 960 90 1300 170/07 RMK AO2 P0005 T01560139
04850KAOH AOH20160421104012104/21/16 10:40:31  5-MIN KAOH 211540Z AUTO 16006KT 10SM -RA OVC085 16/14 A2994 960 90 1300 160/06 RMK AO2 P0005 T01560139
04850KAOH AOH20160421104512104/21/16 10:45:31  5-MIN KAOH 211545Z AUTO 16007KT 10SM -RA OVC085 16/14 A2994 960 86 1400 170/07 RMK AO2 P0005 T01610139
04850KAOH AOH20160421105012804/21/16 10:50:31  5-MIN KAOH 211550Z AUTO 16005KT 10SM -RA OVC085 16/14 A2994 960 86 1400 160/05 RMK AO2 SLP135 P0005 T01610139
04850KAOH AOH20160421105512104/21/16 10:55:31  5-MIN KAOH 211555Z AUTO 16008KT 10SM -RA OVC085 16/14 A2994 960 90 1400 160/08 RMK AO2 P0000 T01610144
04850KAOH AOH20160421110012104/21/16 11:00:31  5-MIN KAOH 211600Z AUTO 17008KT 10SM -RA OVC080 16/14 A2994 960 86 1400 170/08 RMK AO2 P0000 T01610139
04850KAOH AOH20160421110512104/21/16 11:05:31  5-MIN KAOH 211605Z AUTO 17009KT 10SM -RA OVC080 16/14 A2994 960 86 1400 170/09 RMK AO2 P0000 T01610139
04850KAOH AOH20160421111012104/21/16 11:10:31  5-MIN KAOH 211610Z AUTO 17010KT 10SM -RA OVC085 16/14 A2994 960 86 1400 170/10 RMK AO2 P0000 T01610139
04850KAOH AOH20160421111512704/21/16 11:15:31  5-MIN KAOH 211615Z AUTO 17009KT 9SM -RA FEW043 OVC085 16/13 A2993 960 83 1400 180/09 RMK AO2 P0001 T01610133
04850KAOH AOH20160421112012704/21/16 11:20:31  5-MIN KAOH 211620Z AUTO 18012KT 7SM -RA FEW043 OVC080 16/13 A2993 960 83 1400 190/12 RMK AO2 P0001 T01610133
04850KAOH AOH20160421112512704/21/16 11:25:31  5-MIN KAOH 211625Z AUTO 19011KT 7SM -RA SCT080 OVC090 16/13 A2994 960 83 1400 190/11 RMK AO2 P0001 T01610133
04850KAOH AOH20160421113013404/21/16 11:30:31  5-MIN KAOH 211630Z AUTO 18012KT 7SM -RA FEW060 BKN075 OVC090 16/13 A2993 970 83 1300 190/12 RMK AO2 P0002 T01560128
04850KAOH AOH20160421113513404/21/16 11:35:31  5-MIN KAOH 211635Z AUTO 17009KT 7SM -RA SCT060 BKN070 OVC085 16/13 A2993 970 83 1300 180/09 RMK AO2 P0002 T01560128
04850KAOH AOH20160421114012704/21/16 11:40:31  5-MIN KAOH 211640Z AUTO 17008KT 8SM -RA BKN070 OVC085 16/13 A2992 980 86 1300 180/08 RMK AO2 P0002 T01560133
04850KAOH AOH20160421114512804/21/16 11:45:31  5-MIN KAOH 211645Z AUTO 17009KT 10SM -RA FEW060 OVC075 16/13 A2992 980 83 1400 180/09 RMK AO2 P0003 T01610133
04850KAOH AOH20160421115013504/21/16 11:50:31  5-MIN KAOH 211650Z AUTO 17010KT 10SM -RA FEW060 OVC075 16/13 A2991 980 83 1400 180/10 RMK AO2 SLP127 P0003 T01610133
04850KAOH AOH20160421115512804/21/16 11:55:31  5-MIN KAOH 211655Z AUTO 18009KT 10SM -RA BKN070 OVC085 16/13 A2991 980 83 1400 180/09 RMK AO2 P0000 T01610133
04850KAOH AOH20160421120012804/21/16 12:00:31  5-MIN KAOH 211700Z AUTO 18008KT 10SM -RA BKN070 OVC085 16/13 A2991 990 83 1400 180/08 RMK AO2 P0000 T01610133
04850KAOH AOH20160421120512804/21/16 12:05:31  5-MIN KAOH 211705Z AUTO 17011KT 10SM -RA FEW060 OVC080 16/13 A2991 990 83 1400 180/11 RMK AO2 P0000 T01610133
04850KAOH AOH20160421121012804/21/16 12:10:31  5-MIN KAOH 211710Z AUTO 17011KT 10SM -RA FEW060 OVC080 16/13 A2991 990 83 1400 180/11 RMK AO2 P0000 T01610133
04850KAOH AOH20160421121513704/21/16 12:15:31  5-MIN KAOH 211715Z AUTO 18009KT 10SM FEW060 BKN075 OVC090 16/13 A2990 990 83 1400 180/09 RMK AO2 RAE14 P0000 T01610133
04850KAOH AOH20160421122013004/21/16 12:20:31  5-MIN KAOH 211720Z AUTO 18011KT 10SM BKN070 OVC085 16/13 A2991 990 83 1400 180/11 RMK AO2 RAE14 P0000 T01610133
04850KAOH AOH20160421122513004/21/16 12:25:31  5-MIN KAOH 211725Z AUTO 18010KT 10SM BKN070 OVC085 16/13 A2991 990 83 1400 190/10 RMK AO2 RAE14 P0000 T01610133
04850KAOH AOH20160421123012304/21/16 12:30:31  5-MIN KAOH 211730Z AUTO 18011KT 10SM OVC070 16/13 A2991 990 83 1400 190/11 RMK AO2 RAE14 P0000 T01610133
04850KAOH AOH20160421123513004/21/16 12:35:31  5-MIN KAOH 211735Z AUTO 19010KT 10SM FEW025 OVC070 17/13 A2990 990 80 1500 190/10 RMK AO2 RAE14 P0000 T01670133
04850KAOH AOH20160421124013104/21/16 12:40:31  5-MIN KAOH 211740Z AUTO 20011KT 10SM FEW025 OVC070 17/13 A2990 1000 80 1500 200/11 RMK AO2 RAE14 P0000 T01670133
04850KAOH AOH20160421124513704/21/16 12:45:31  5-MIN KAOH 211745Z AUTO 19011G18KT 10SM FEW025 OVC070 17/13 A2990 1000 78 1500 200/11G18 RMK AO2 RAE14 P0000 T01720133
04850KAOH AOH20160421125016204/21/16 12:50:31  5-MIN KAOH 211750Z AUTO 19011KT 10SM FEW025 OVC070 17/13 A2989 1000 78 1500 200/11 RMK AO2 RAE14 SLP119 P0000 60016 T01720133 10172 20139 53005
04850KAOH AOH20160421125511904/21/16 12:55:31  5-MIN KAOH 211755Z AUTO 20012KT 10SM FEW024 OVC070 17/13 A2989 1000 78 1500 210/12 RMK AO2 T01720133
04850KAOH AOH20160421130011904/21/16 13:00:31  5-MIN KAOH 211800Z AUTO 20010KT 10SM FEW029 OVC070 17/14 A2989 1000 80 1500 200/10 RMK AO2 T01720139
04850KAOH AOH20160421130512604/21/16 13:05:31  5-MIN KAOH 211805Z AUTO 20012KT 10SM FEW026 SCT031 OVC070 18/14 A2989 1010 78 1600 210/12 RMK AO2 T01780139
04850KAOH AOH20160421131012604/21/16 13:10:31  5-MIN KAOH 211810Z AUTO 19013KT 10SM SCT026 BKN031 OVC065 18/14 A2989 1010 81 1600 200/13 RMK AO2 T01780144
04850KAOH AOH20160421131513204/21/16 13:15:31  5-MIN KAOH 211815Z AUTO 20013G19KT 10SM SCT025 BKN031 OVC065 18/14 A2989 1010 78 1700 210/13G19 RMK AO2 T01830144
04850KAOH AOH20160421132013204/21/16 13:20:31  5-MIN KAOH 211820Z AUTO 20014G25KT 10SM BKN025 BKN031 OVC065 18/14 A2989 1010 78 1700 210/14G25 RMK AO2 T01830144
04850KAOH AOH20160421132512504/21/16 13:25:31  5-MIN KAOH 211825Z AUTO 20014G25KT 10SM BKN025 OVC032 18/14 A2989 1010 78 1700 200/14G25 RMK AO2 T01830144
04850KAOH AOH20160421133012504/21/16 13:30:31  5-MIN KAOH 211830Z AUTO 20013G21KT 10SM BKN025 OVC033 18/14 A2989 1010 78 1600 210/13G21 RMK AO2 T01780139
04850KAOH AOH20160421133513204/21/16 13:35:31  5-MIN KAOH 211835Z AUTO 20011G19KT 10SM FEW020 BKN025 OVC036 18/14 A2989 1010 81 1600 210/11G19 RMK AO2 T01780144
04850KAOH AOH20160421134012504/21/16 13:40:31  5-MIN KAOH 211840Z AUTO 20012G19KT 10SM BKN023 OVC032 18/14 A2989 1010 81 1600 210/12G19 RMK AO2 T01780144
04850KAOH AOH20160421134512504/21/16 13:45:31  5-MIN KAOH 211845Z AUTO 20013G18KT 10SM BKN023 OVC032 18/14 A2989 1010 81 1600 210/13G18 RMK AO2 T01780144
04850KAOH AOH20160421135013904/21/16 13:50:31  5-MIN KAOH 211850Z AUTO 21013G18KT 10SM BKN023 BKN030 OVC039 18/14 A2989 1010 78 1700 210/13G18 RMK AO2 SLP116 T01830144
04850KAOH AOH20160421135513204/21/16 13:55:31  5-MIN KAOH 211855Z AUTO 19012G18KT 10SM SCT023 BKN032 OVC041 18/14 A2989 1010 78 1700 200/12G18 RMK AO2 T01830144
04850KAOH AOH20160421140012504/21/16 14:00:31  5-MIN KAOH 211900Z AUTO 20012G17KT 10SM BKN023 OVC033 18/14 A2988 1010 78 1700 210/12G17 RMK AO2 T01830144
04850KAOH AOH20160421140514204/21/16 14:05:31  5-MIN KAOH 211905Z AUTO 20012KT 10SM -RA SCT023 BKN028 OVC075 18/14 A2988 1010 78 1700 200/12 RMK AO2 RAB04 P0000 T01830144
04850KAOH AOH20160421141014204/21/16 14:10:31  5-MIN KAOH 211910Z AUTO 20009KT 10SM -RA FEW022 BKN028 OVC075 18/14 A2988 1010 78 1700 210/09 RMK AO2 RAB04 P0000 T01830144
04850KAOH AOH20160421141514204/21/16 14:15:31  5-MIN KAOH 211915Z AUTO 22010KT 10SM -RA SCT026 BKN035 OVC075 18/14 A2988 1020 78 1700 220/10 RMK AO2 RAB04 P0000 T01830144
04850KAOH AOH20160421142014804/21/16 14:20:31  5-MIN KAOH 211920Z AUTO 21014G20KT 10SM -RA SCT026 BKN035 OVC090 18/14 A2988 1010 78 1700 220/14G20 RMK AO2 RAB04 P0000 T01830144
04850KAOH AOH20160421142514704/21/16 14:25:31  5-MIN KAOH 211925Z AUTO 22013G20KT 10SM SCT026 BKN033 OVC080 18/14 A2988 1010 75 1700 220/13G20 RMK AO2 RAB04E22 P0000 T01830139
04850KAOH AOH20160421143014104/21/16 14:30:31  5-MIN KAOH 211930Z AUTO 21009KT 10SM SCT026 BKN036 OVC080 18/14 A2988 1020 75 1700 210/09 RMK AO2 RAB04E22 P0000 T01830139
04850KAOH AOH20160421143514704/21/16 14:35:31  5-MIN KAOH 211935Z AUTO 22011G16KT 10SM SCT027 BKN033 OVC080 18/14 A2988 1020 75 1700 220/11G16 RMK AO2 RAB04E22 P0000 T01830139
04850KAOH AOH20160421144014704/21/16 14:40:31  5-MIN KAOH 211940Z AUTO 23015G24KT 10SM SCT028 BKN037 OVC080 18/13 A2988 1020 72 1700 240/15G24 RMK AO2 RAB04E22 P0000 T01830133
04850KAOH AOH20160421144514704/21/16 14:45:31  5-MIN KAOH 211945Z AUTO 23012G24KT 10SM FEW025 BKN031 OVC080 18/13 A2988 1020 72 1700 230/12G24 RMK AO2 RAB04E22 P0000 T01830133
04850KAOH AOH20160421145014404/21/16 14:50:31  5-MIN KAOH 211950Z AUTO 22008G21KT 10SM -RA FEW023 BKN029 OVC080 18/13 A2987 1020 75 1600 220/08G21 RMK AO2 RAB04E22B48 P0000
04850KAOH AOH20160421145513604/21/16 14:55:31  5-MIN KAOH 211955Z AUTO 22009KT 10SM -RA FEW021 BKN029 OVC080 18/14 A2987 1020 78 1600 220/09 RMK AO2 P0001 T01780139
04850KAOH AOH20160421150013604/21/16 15:00:31  5-MIN KAOH 212000Z AUTO 21007KT 10SM -RA FEW021 BKN060 OVC080 17/14 A2987 1030 83 1600 220/07 RMK AO2 P0001 T01720144
04850KAOH AOH20160421150514204/21/16 15:05:31  5-MIN KAOH 212005Z AUTO 22010G15KT 10SM -RA FEW021 BKN060 OVC080 17/14 A2987 1030 80 1600 230/10G15 RMK AO2 P0001 T01720139
04850KAOH AOH20160421151013604/21/16 15:10:31  5-MIN KAOH 212010Z AUTO 22009KT 10SM -RA FEW024 BKN060 OVC080 17/14 A2987 1030 80 1600 230/09 RMK AO2 P0001 T01720139
04850KAOH AOH20160421151513604/21/16 15:15:31  5-MIN KAOH 212015Z AUTO 23009KT 10SM -RA FEW024 BKN055 OVC075 17/14 A2986 1030 80 1600 240/09 RMK AO2 P0001 T01720139
04850KAOH AOH20160421152013604/21/16 15:20:31  5-MIN KAOH 212020Z AUTO 23009KT 10SM -RA FEW026 BKN065 OVC080 17/14 A2986 1030 83 1500 230/09 RMK AO2 P0002 T01670139
04850KAOH AOH20160421152513604/21/16 15:25:31  5-MIN KAOH 212025Z AUTO 22008KT 10SM -RA FEW041 SCT055 OVC075 17/14 A2986 1030 86 1500 230/08 RMK AO2 P0002 T01670144
04850KAOH AOH20160421153013604/21/16 15:30:31  5-MIN KAOH 212030Z AUTO 22008KT 10SM -RA FEW041 BKN070 OVC085 17/14 A2986 1040 86 1500 230/08 RMK AO2 P0002 T01670144
04850KAOH AOH20160421153513504/21/16 15:35:31  5-MIN KAOH 212035Z AUTO 22006KT 9SM -RA FEW037 FEW055 OVC075 17/14 A2985 1040 86 1500 230/06 RMK AO2 P0003 T01670144
04850KAOH AOH20160421154013504/21/16 15:40:31  5-MIN KAOH 212040Z AUTO 23006KT 9SM -RA FEW029 FEW055 OVC075 17/14 A2985 1040 86 1500 230/06 RMK AO2 P0003 T01670144
04850KAOH AOH20160421154512904/21/16 15:45:31  5-MIN KAOH 212045Z AUTO 22005KT 10SM -RA FEW029 OVC075 17/14 A2985 1040 86 1500 220/05 RMK AO2 P0003 T01670144
04850KAOH AOH20160421155014804/21/16 15:50:31  5-MIN KAOH 212050Z AUTO 21004KT 10SM -RA FEW029 OVC075 17/14 A2985 1040 86 1500 220/04 RMK AO2 SLP105 P0003 60003 T01670144 58020
04850KAOH AOH20160421155512604/21/16 15:55:31  5-MIN KAOH 212055Z AUTO 21005KT 10SM FEW032 SCT049 OVC075 17/14 A2985 1040 86 1500 220/05 RMK AO2 T01670144
04850KAOH AOH20160421160012604/21/16 16:00:31  5-MIN KAOH 212100Z AUTO 20005KT 10SM FEW016 BKN030 OVC075 17/15 A2985 1040 90 1500 210/05 RMK AO2 T01670150
04850KAOH AOH20160421160512604/21/16 16:05:31  5-MIN KAOH 212105Z AUTO 22005KT 10SM FEW014 BKN030 OVC080 17/14 A2985 1040 86 1500 220/05 RMK AO2 T01670144
04850KAOH AOH20160421161014204/21/16 16:10:31  5-MIN KAOH 212110Z AUTO 24004KT 10SM -RA FEW014 BKN030 OVC080 17/15 A2985 1040 90 1500 240/04 RMK AO2 RAB09 P0000 T01670150
04850KAOH AOH20160421161514104/21/16 16:15:31  5-MIN KAOH 212115Z AUTO 24005KT 9SM -RA FEW014 BKN030 OVC043 17/15 A2985 1040 90 1500 250/05 RMK AO2 RAB09 P0000 T01670150
04850KAOH AOH20160421162014104/21/16 16:20:31  5-MIN KAOH 212120Z AUTO 22004KT 9SM -RA SCT014 BKN024 OVC033 16/15 A2985 1040 93 1500 220/04 RMK AO2 RAB09 P0000 T01610150
04850KAOH AOH20160421162514104/21/16 16:25:31  5-MIN KAOH 212125Z AUTO 00000KT 9SM -RA SCT014 BKN020 OVC033 16/15 A2985 1040 93 1500 000/00 RMK AO2 RAB09 P0000 T01610150
04850KAOH AOH20160421163014204/21/16 16:30:31  5-MIN KAOH 212130Z AUTO 21003KT 10SM -RA SCT014 BKN020 OVC028 16/15 A2985 1040 93 1500 220/03 RMK AO2 RAB09 P0000 T01610150
04850KAOH AOH20160421163514404/21/16 16:35:31  5-MIN KAOH 212135Z AUTO 27003KT 2SM +RA BR BKN014 BKN018 OVC022 16/15 A2985 1040 93 1500 270/03 RMK AO2 RAB09 P0004 T01610150
04850KAOH AOH20160421164016104/21/16 16:40:31  5-MIN KAOH 212140Z AUTO 25003KT 1 1/4SM RA BR SCT010 BKN016 OVC022 16/15 A2985 1040 93 1500 260/03 RMK AO2 VIS 3/4V2 1/2 RAB09 P0007 T01610150
04850KAOH AOH20160421164514904/21/16 16:45:31  5-MIN KAOH 212145Z AUTO VRB04KT 2SM -RA BR BKN010 OVC016 16/15 A2984 1050 93 1500 VRB/04 RMK AO2 RAB09 CIG 008V013 P0008 T01610150
04850KAOH AOH20160421165014604/21/16 16:50:31  5-MIN KAOH 212150Z AUTO 18008KT 6SM -RA BR BKN010 BKN016 OVC024 16/15 A2984 1050 93 1500 180/08 RMK AO2 RAB09 CIG 008V013 P0008
04850KAOH AOH20160421165513804/21/16 16:55:31  5-MIN KAOH 212155Z AUTO 19008KT 10SM SCT010 BKN018 OVC110 17/15 A2985 1040 90 1500 200/08 RMK AO2 RAE55 P0000 T01670150
04850KAOH AOH20160421170014004/21/16 17:00:31  5-MIN KAOH 212200Z AUTO 21009KT 10SM SCT010 BKN016 OVC110 17/15 A2985 1040 90 1500 210/09 RMK AO2 RAE2155 P0000 T01670150
04850KAOH AOH20160421170514004/21/16 17:05:31  5-MIN KAOH 212205Z AUTO 20008KT 10SM FEW010 BKN019 OVC110 17/15 A2985 1040 90 1500 210/08 RMK AO2 RAE2155 P0000 T01670150
04850KAOH AOH20160421171014004/21/16 17:10:31  5-MIN KAOH 212210Z AUTO 20007KT 10SM FEW010 BKN027 OVC110 16/15 A2984 1050 93 1500 210/07 RMK AO2 RAE2155 P0000 T01610150
04850KAOH AOH20160421171514004/21/16 17:15:31  5-MIN KAOH 212215Z AUTO 20007KT 10SM SCT017 BKN027 OVC110 16/15 A2985 1050 93 1500 210/07 RMK AO2 RAE2155 P0000 T01610150
04850KAOH AOH20160421172014004/21/16 17:20:31  5-MIN KAOH 212220Z AUTO 20009KT 10SM FEW017 SCT027 OVC100 16/15 A2985 1040 93 1500 210/09 RMK AO2 RAE2155 P0000 T01610150
04850KAOH AOH20160421172514004/21/16 17:25:31  5-MIN KAOH 212225Z AUTO 22010KT 10SM FEW017 SCT027 OVC100 17/15 A2985 1040 90 1500 220/10 RMK AO2 RAE2155 P0000 T01670150
04850KAOH AOH20160421173013304/21/16 17:30:31  5-MIN KAOH 212230Z AUTO 22009KT 10SM FEW016 OVC110 17/14 A2985 1040 86 1500 230/09 RMK AO2 RAE2155 P0000 T01670144
04850KAOH AOH20160421173513304/21/16 17:35:31  5-MIN KAOH 212235Z AUTO 22010KT 10SM FEW016 BKN110 17/14 A2985 1040 86 1500 220/10 RMK AO2 RAE2155 P0000 T01670144
04850KAOH AOH20160421174012604/21/16 17:40:31  5-MIN KAOH 212240Z AUTO 22009KT 10SM BKN110 16/14 A2985 1040 90 1500 230/09 RMK AO2 RAE2155 P0000 T01610144
04850KAOH AOH20160421174512604/21/16 17:45:31  5-MIN KAOH 212245Z AUTO 22010KT 10SM BKN110 16/14 A2986 1040 90 1400 220/10 RMK AO2 RAE2155 P0000 T01610144
04850KAOH AOH20160421175013304/21/16 17:50:31  5-MIN KAOH 212250Z AUTO 22010KT 10SM OVC110 17/14 A2985 1040 86 1500 230/10 RMK AO2 RAE2155 SLP105 P0000 T01670144
04850KAOH AOH20160421175511204/21/16 17:55:31  5-MIN KAOH 212255Z AUTO 22011KT 10SM BKN110 17/14 A2984 1050 86 1500 220/11 RMK AO2 T01670144
04850KAOH AOH20160421180011204/21/16 18:00:31  5-MIN KAOH 212300Z AUTO 22012KT 10SM BKN110 17/14 A2985 1040 83 1500 230/12 RMK AO2 T01670139
04850KAOH AOH20160421180511204/21/16 18:05:31  5-MIN KAOH 212305Z AUTO 22010KT 10SM SCT110 16/14 A2985 1040 90 1500 230/10 RMK AO2 T01610144
04850KAOH AOH20160421181011204/21/16 18:10:31  5-MIN KAOH 212310Z AUTO 22010KT 10SM SCT110 16/14 A2985 1040 90 1500 230/10 RMK AO2 T01610144
04850KAOH AOH20160421181511204/21/16 18:15:31  5-MIN KAOH 212315Z AUTO 22010KT 10SM FEW110 16/14 A2985 1040 86 1500 230/10 RMK AO2 T01610139
04850KAOH AOH20160421182011204/21/16 18:20:31  5-MIN KAOH 212320Z AUTO 22009KT 10SM FEW120 16/14 A2985 1040 86 1500 230/09 RMK AO2 T01610139
04850KAOH AOH20160421182510904/21/16 18:25:31  5-MIN KAOH 212325Z AUTO 22009KT 10SM CLR 16/14 A2985 1040 86 1500 230/09 RMK AO2 T01610139
04850KAOH AOH20160421183010904/21/16 18:30:31  5-MIN KAOH 212330Z AUTO 22009KT 10SM CLR 16/14 A2985 1040 86 1500 230/09 RMK AO2 T01610139
04850KAOH AOH20160421183510904/21/16 18:35:31  5-MIN KAOH 212335Z AUTO 23010KT 10SM CLR 16/14 A2985 1040 86 1500 230/10 RMK AO2 T01610139
04850KAOH AOH20160421184010904/21/16 18:40:31  5-MIN KAOH 212340Z AUTO 22009KT 10SM CLR 16/14 A2986 1040 86 1400 230/09 RMK AO2 T01610139
04850KAOH AOH20160421184510904/21/16 18:45:31  5-MIN KAOH 212345Z AUTO 23008KT 10SM CLR 16/14 A2986 1030 86 1400 230/08 RMK AO2 T01610139
04850KAOH AOH20160421185014304/21/16 18:50:31  5-MIN KAOH 212350Z AUTO 22008KT 10SM FEW110 16/14 A2986 1030 86 1400 230/08 RMK AO2 SLP110 60011 T01610139 10183 20161 58015
04850KAOH AOH20160421185511204/21/16 18:55:31  5-MIN KAOH 212355Z AUTO 22007KT 10SM FEW110 16/14 A2986 1030 86 1400 230/07 RMK AO2 T01610139
04850KAOH AOH20160421190011204/21/16 19:00:31  5-MIN KAOH 220000Z AUTO 22007KT 10SM FEW120 16/14 A2986 1030 86 1400 220/07 RMK AO2 T01610139
04850KAOH AOH20160421190511204/21/16 19:05:31  5-MIN KAOH 220005Z AUTO 21007KT 10SM SCT120 16/14 A2986 1030 86 1400 220/07 RMK AO2 T01610139
04850KAOH AOH20160421191011204/21/16 19:10:31  5-MIN KAOH 220010Z AUTO 22009KT 10SM FEW120 16/14 A2986 1030 86 1400 220/09 RMK AO2 T01610139
04850KAOH AOH20160421191511204/21/16 19:15:31  5-MIN KAOH 220015Z AUTO 22008KT 10SM FEW120 16/14 A2986 1030 86 1400 220/08 RMK AO2 T01610139
04850KAOH AOH20160421192011204/21/16 19:20:31  5-MIN KAOH 220020Z AUTO 22008KT 10SM FEW120 16/14 A2987 1030 90 1400 220/08 RMK AO2 T01560139
04850KAOH AOH20160421192511204/21/16 19:25:31  5-MIN KAOH 220025Z AUTO 22007KT 10SM FEW120 16/14 A2987 1030 90 1400 220/07 RMK AO2 T01560139
04850KAOH AOH20160421193010904/21/16 19:30:31  5-MIN KAOH 220030Z AUTO 22008KT 10SM CLR 16/14 A2987 1030 90 1400 220/08 RMK AO2 T01560139
04850KAOH AOH20160421193510904/21/16 19:35:31  5-MIN KAOH 220035Z AUTO 21007KT 10SM CLR 16/14 A2987 1020 90 1400 220/07 RMK AO2 T01560139
04850KAOH AOH20160421194010904/21/16 19:40:31  5-MIN KAOH 220040Z AUTO 21006KT 10SM CLR 16/14 A2988 1020 90 1400 210/06 RMK AO2 T01560139
04850KAOH AOH20160421194510904/21/16 19:45:31  5-MIN KAOH 220045Z AUTO 20006KT 10SM CLR 16/14 A2988 1020 90 1400 200/06 RMK AO2 T01560139
04850KAOH AOH20160421195011604/21/16 19:50:31  5-MIN KAOH 220050Z AUTO 20005KT 10SM CLR 16/14 A2988 1020 90 1400 200/05 RMK AO2 SLP116 T01560139
04850KAOH AOH20160421195511204/21/16 19:55:31  5-MIN KAOH 220055Z AUTO 18005KT 10SM FEW095 16/14 A2988 1020 90 1400 190/05 RMK AO2 T01560139
04850KAOH AOH20160421200011204/21/16 20:00:31  5-MIN KAOH 220100Z AUTO 19005KT 10SM SCT095 16/14 A2988 1020 90 1400 200/05 RMK AO2 T01560139
04850KAOH AOH20160421200511204/21/16 20:05:31  5-MIN KAOH 220105Z AUTO 19004KT 10SM SCT090 16/14 A2988 1020 90 1400 200/04 RMK AO2 T01560139
04850KAOH AOH20160421201011904/21/16 20:10:31  5-MIN KAOH 220110Z AUTO 20004KT 10SM SCT090 SCT110 16/14 A2988 1020 90 1400 210/04 RMK AO2 T01560139
04850KAOH AOH20160421201511904/21/16 20:15:31  5-MIN KAOH 220115Z AUTO 20003KT 10SM FEW090 SCT110 16/14 A2988 1020 90 1400 200/03 RMK AO2 T01560139
04850KAOH AOH20160421202011904/21/16 20:20:31  5-MIN KAOH 220120Z AUTO 00000KT 10SM SCT090 SCT110 16/14 A2988 1020 90 1400 000/00 RMK AO2 T01560139
04850KAOH AOH20160421202513504/21/16 20:25:31  5-MIN KAOH 220125Z AUTO 00000KT 10SM -RA SCT090 BKN110 16/14 A2988 1020 90 1400 000/00 RMK AO2 RAB21 P0000 T01560139
04850KAOH AOH20160421203013404/21/16 20:30:31  5-MIN KAOH 220130Z AUTO 00000KT 10SM FEW090 BKN110 16/14 A2987 1020 90 1400 000/00 RMK AO2 RAB21E30 P0000 T01560139
04850KAOH AOH20160421203512704/21/16 20:35:31  5-MIN KAOH 220135Z AUTO 00000KT 10SM BKN110 15/14 A2988 1020 93 1300 000/00 RMK AO2 RAB21E30 P0000 T01500139
04850KAOH AOH20160421204012704/21/16 20:40:31  5-MIN KAOH 220140Z AUTO 00000KT 10SM SCT110 15/14 A2987 1020 93 1300 000/00 RMK AO2 RAB21E30 P0000 T01500139
04850KAOH AOH20160421204512704/21/16 20:45:31  5-MIN KAOH 220145Z AUTO 21003KT 10SM SCT110 15/14 A2987 1020 93 1300 210/03 RMK AO2 RAB21E30 P0000 T01500139
04850KAOH AOH20160421205013404/21/16 20:50:31  5-MIN KAOH 220150Z AUTO 19003KT 10SM FEW110 15/14 A2987 1020 93 1300 200/03 RMK AO2 RAB21E30 SLP114 P0000 T01500139
04850KAOH AOH20160421205511204/21/16 20:55:31  5-MIN KAOH 220155Z AUTO 19003KT 10SM FEW110 14/14 A2987 1020 96 1200 190/03 RMK AO2 T01440139
04850KAOH AOH20160421210011204/21/16 21:00:31  5-MIN KAOH 220200Z AUTO 00000KT 10SM FEW100 14/13 A2987 1020 93 1200 000/00 RMK AO2 T01440133
04850KAOH AOH20160421210511204/21/16 21:05:31  5-MIN KAOH 220205Z AUTO 00000KT 10SM SCT100 14/13 A2987 1020 93 1200 000/00 RMK AO2 T01440133
04850KAOH AOH20160421211011204/21/16 21:10:31  5-MIN KAOH 220210Z AUTO 16003KT 10SM BKN100 14/13 A2987 1030 96 1200 170/03 RMK AO2 T01390133
04850KAOH AOH20160421211511204/21/16 21:15:31  5-MIN KAOH 220215Z AUTO 15003KT 10SM BKN110 14/13 A2987 1030 96 1200 160/03 RMK AO2 T01390133
04850KAOH AOH20160421212011204/21/16 21:20:31  5-MIN KAOH 220220Z AUTO 15004KT 10SM BKN110 14/13 A2986 1030 96 1200 150/04 RMK AO2 T01390133
04850KAOH AOH20160421212511204/21/16 21:25:31  5-MIN KAOH 220225Z AUTO 15005KT 10SM OVC110 14/13 A2987 1030 93 1200 150/05 RMK AO2 T01440133
04850KAOH AOH20160421213011204/21/16 21:30:31  5-MIN KAOH 220230Z AUTO 15007KT 10SM OVC110 14/13 A2987 1020 93 1200 150/07 RMK AO2 T01440133
04850KAOH AOH20160421213511204/21/16 21:35:31  5-MIN KAOH 220235Z AUTO 14009KT 10SM OVC110 14/13 A2987 1020 93 1200 150/09 RMK AO2 T01440133
04850KAOH AOH20160421214011204/21/16 21:40:31  5-MIN KAOH 220240Z AUTO 14007KT 10SM OVC110 15/14 A2987 1020 93 1300 150/07 RMK AO2 T01500139
04850KAOH AOH20160421214511204/21/16 21:45:31  5-MIN KAOH 220245Z AUTO 15006KT 10SM OVC110 15/14 A2987 1020 93 1300 150/06 RMK AO2 T01500139
04850KAOH AOH20160421215013104/21/16 21:50:31  5-MIN KAOH 220250Z AUTO 16007KT 10SM OVC110 14/13 A2988 1020 93 1200 170/07 RMK AO2 SLP116 60000 T01440133 53004
04850KAOH AOH20160421215511204/21/16 21:55:31  5-MIN KAOH 220255Z AUTO 17006KT 10SM OVC110 14/13 A2988 1020 93 1200 180/06 RMK AO2 T01440133
04850KAOH AOH20160421220011204/21/16 22:00:31  5-MIN KAOH 220300Z AUTO 17005KT 10SM OVC110 14/13 A2988 1010 93 1200 180/05 RMK AO2 T01440133
04850KAOH AOH20160421220511204/21/16 22:05:31  5-MIN KAOH 220305Z AUTO 17007KT 10SM OVC110 14/13 A2988 1010 93 1200 170/07 RMK AO2 T01440133
04850KAOH AOH20160421221011204/21/16 22:10:31  5-MIN KAOH 220310Z AUTO 17007KT 10SM OVC110 14/13 A2988 1010 93 1200 170/07 RMK AO2 T01440133
04850KAOH AOH20160421221511204/21/16 22:15:31  5-MIN KAOH 220315Z AUTO 17008KT 10SM OVC110 14/13 A2988 1010 93 1200 170/08 RMK AO2 T01440133
04850KAOH AOH20160421222011204/21/16 22:20:31  5-MIN KAOH 220320Z AUTO 17008KT 10SM OVC110 14/13 A2988 1010 93 1200 180/08 RMK AO2 T01440133
04850KAOH AOH20160421222511204/21/16 22:25:31  5-MIN KAOH 220325Z AUTO 18007KT 10SM OVC110 14/13 A2988 1010 90 1200 180/07 RMK AO2 T01440128
04850KAOH AOH20160421223011204/21/16 22:30:31  5-MIN KAOH 220330Z AUTO 18009KT 10SM OVC110 14/13 A2988 1020 90 1200 180/09 RMK AO2 T01440128
04850KAOH AOH20160421223511204/21/16 22:35:31  5-MIN KAOH 220335Z AUTO 17009KT 10SM OVC110 14/13 A2988 1020 90 1200 180/09 RMK AO2 T01440128
04850KAOH AOH20160421224011204/21/16 22:40:31  5-MIN KAOH 220340Z AUTO 18010KT 10SM OVC110 14/12 A2988 1020 86 1200 190/10 RMK AO2 T01440122
04850KAOH AOH20160421224511204/21/16 22:45:31  5-MIN KAOH 220345Z AUTO 18009KT 10SM OVC110 14/12 A2987 1020 86 1200 190/09 RMK AO2 T01440122
04850KAOH AOH20160421225011904/21/16 22:50:31  5-MIN KAOH 220350Z AUTO 19008KT 10SM OVC110 14/12 A2988 1020 86 1200 190/08 RMK AO2 SLP114 T01440122
04850KAOH AOH20160421225511204/21/16 22:55:31  5-MIN KAOH 220355Z AUTO 18007KT 10SM OVC110 14/12 A2988 1020 86 1200 190/07 RMK AO2 T01440122
04850KAOH AOH20160421230011204/21/16 23:00:31  5-MIN KAOH 220400Z AUTO 19008KT 10SM BKN110 14/12 A2988 1020 86 1200 190/08 RMK AO2 T01440122
04850KAOH AOH20160421230511204/21/16 23:05:31  5-MIN KAOH 220405Z AUTO 19008KT 10SM BKN110 14/12 A2988 1020 83 1200 190/08 RMK AO2 T01440117
04850KAOH AOH20160421231011204/21/16 23:10:31  5-MIN KAOH 220410Z AUTO 19008KT 10SM SCT110 14/12 A2988 1020 83 1200 190/08 RMK AO2 T01440117
04850KAOH AOH20160421231511204/21/16 23:15:31  5-MIN KAOH 220415Z AUTO 19008KT 10SM FEW110 14/12 A2988 1020 83 1200 190/08 RMK AO2 T01440117
04850KAOH AOH20160421232011204/21/16 23:20:31  5-MIN KAOH 220420Z AUTO 19009KT 10SM FEW110 14/12 A2988 1020 86 1200 190/09 RMK AO2 T01390117
04850KAOH AOH20160421232510904/21/16 23:25:31  5-MIN KAOH 220425Z AUTO 19009KT 10SM CLR 14/12 A2988 1020 86 1200 190/09 RMK AO2 T01390117
04850KAOH AOH20160421233010904/21/16 23:30:31  5-MIN KAOH 220430Z AUTO 19009KT 10SM CLR 14/12 A2987 1020 86 1200 190/09 RMK AO2 T01390117
04850KAOH AOH20160421233510904/21/16 23:35:31  5-MIN KAOH 220435Z AUTO 19008KT 10SM CLR 14/12 A2987 1020 86 1200 190/08 RMK AO2 T01390117
04850KAOH AOH20160421234010904/21/16 23:40:31  5-MIN KAOH 220440Z AUTO 19009KT 10SM CLR 14/12 A2987 1020 86 1200 200/09 RMK AO2 T01390117
04850KAOH AOH20160421234510904/21/16 23:45:31  5-MIN KAOH 220445Z AUTO 19008KT 10SM CLR 14/12 A2987 1020 86 1200 190/08 RMK AO2 T01390117
04850KAOH AOH20160421235012604/21/16 23:50:31  5-MIN KAOH 220450Z AUTO 18007KT 10SM CLR 14/12 A2987 1020 86 1200 190/07 RMK AO2 SLP114 T01390117 401830133
04850KAOH AOH20160421235510904/21/16 23:55:31  5-MIN KAOH 220455Z AUTO 19006KT 10SM CLR 14/12 A2987 1020 86 1200 190/06 RMK AO2 T01390117
04850KAOH AOH20160422000010904/22/16 00:00:31  5-MIN KAOH 220500Z AUTO 19007KT 10SM CLR 13/12 A2987 1020 89 1100 190/07 RMK AO2 T01330117
04850KAOH AOH20160422000510904/22/16 00:05:31  5-MIN KAOH 220505Z AUTO 18006KT 10SM CLR 13/12 A2987 1020 89 1100 190/06 RMK AO2 T01330117
04850KAOH AOH20160422001010904/22/16 00:10:31  5-MIN KAOH 220510Z AUTO 18007KT 10SM CLR 13/12 A2987 1030 89 1100 190/07 RMK AO2 T01330117
04850KAOH AOH20160422001510904/22/16 00:15:31  5-MIN KAOH 220515Z AUTO 18007KT 10SM CLR 13/12 A2987 1030 89 1100 190/07 RMK AO2 T01330117
04850KAOH AOH20160422002010904/22/16 00:20:31  5-MIN KAOH 220520Z AUTO 18006KT 10SM CLR 13/12 A2986 1030 89 1100 180/06 RMK AO2 T01330117
04850KAOH AOH20160422002510904/22/16 00:25:31  5-MIN KAOH 220525Z AUTO 18007KT 10SM CLR 13/12 A2986 1030 89 1100 190/07 RMK AO2 T01330117
04850KAOH AOH20160422003010904/22/16 00:30:31  5-MIN KAOH 220530Z AUTO 19007KT 10SM CLR 13/12 A2986 1030 89 1100 200/07 RMK AO2 T01330117
04850KAOH AOH20160422003510904/22/16 00:35:31  5-MIN KAOH 220535Z AUTO 19006KT 10SM CLR 13/12 A2986 1030 89 1100 200/06 RMK AO2 T01330117
04850KAOH AOH20160422004010904/22/16 00:40:31  5-MIN KAOH 220540Z AUTO 19006KT 10SM CLR 13/12 A2986 1030 89 1100 200/06 RMK AO2 T01330117
04850KAOH AOH20160422004510904/22/16 00:45:31  5-MIN KAOH 220545Z AUTO 19006KT 10SM CLR 13/12 A2986 1030 89 1100 200/06 RMK AO2 T01330117
04850KAOH AOH20160422005014004/22/16 00:50:31  5-MIN KAOH 220550Z AUTO 20006KT 10SM CLR 13/11 A2986 1030 86 1100 200/06 RMK AO2 SLP109 60000 T01330111 10161 20133 51005
04850KAOH AOH20160422005510904/22/16 00:55:31  5-MIN KAOH 220555Z AUTO 20007KT 10SM CLR 13/11 A2986 1030 86 1100 200/07 RMK AO2 T01330111
04850KAOH AOH20160422010010904/22/16 01:00:31  5-MIN KAOH 220600Z AUTO 19006KT 10SM CLR 13/11 A2986 1030 86 1100 190/06 RMK AO2 T01330111
04850KAOH AOH20160422010510904/22/16 01:05:31  5-MIN KAOH 220605Z AUTO 19007KT 10SM CLR 13/11 A2986 1030 86 1100 200/07 RMK AO2 T01330111
04850KAOH AOH20160422011011204/22/16 01:10:31  5-MIN KAOH 220610Z AUTO 19008KT 10SM FEW055 13/11 A2986 1030 86 1100 190/08 RMK AO2 T01330111
04850KAOH AOH20160422011511904/22/16 01:15:31  5-MIN KAOH 220615Z AUTO 19007KT 10SM FEW030 SCT055 13/11 A2986 1030 86 1100 190/07 RMK AO2 T01330111
04850KAOH AOH20160422012011904/22/16 01:20:31  5-MIN KAOH 220620Z AUTO 19007KT 10SM SCT030 BKN055 13/11 A2986 1040 86 1100 190/07 RMK AO2 T01330111
04850KAOH AOH20160422012511904/22/16 01:25:31  5-MIN KAOH 220625Z AUTO 19008KT 10SM BKN030 BKN055 13/11 A2986 1040 86 1100 200/08 RMK AO2 T01330111
04850KAOH AOH20160422013011904/22/16 01:30:31  5-MIN KAOH 220630Z AUTO 19007KT 10SM BKN030 BKN055 13/11 A2986 1040 86 1100 200/07 RMK AO2 T01330111
04850KAOH AOH20160422013511904/22/16 01:35:31  5-MIN KAOH 220635Z AUTO 19008KT 10SM BKN030 BKN055 13/11 A2985 1040 86 1100 190/08 RMK AO2 T01330111
04850KAOH AOH20160422014011904/22/16 01:40:31  5-MIN KAOH 220640Z AUTO 19007KT 10SM BKN030 BKN055 13/11 A2985 1040 86 1100 190/07 RMK AO2 T01330111
04850KAOH AOH20160422014511204/22/16 01:45:31  5-MIN KAOH 220645Z AUTO 19006KT 10SM BKN029 13/11 A2985 1040 86 1100 200/06 RMK AO2 T01330111
04850KAOH AOH20160422015010904/22/16 01:50:31  5-MIN KAOH 220650Z AUTO 19007KT 10SM BKN029 BKN033 13/11 A2985 1040 86 1100 200/07 RMK AO2
04850KAOH AOH20160422015511904/22/16 01:55:31  5-MIN KAOH 220655Z AUTO 27006KT 10SM BKN029 BKN033 13/11 A2985 1040 86 1100 270/06 RMK AO2 T01330111
04850KAOH AOH20160422020011904/22/16 02:00:31  5-MIN KAOH 220700Z AUTO 26005KT 10SM SCT028 BKN033 13/12 A2985 1040 93 1100 260/05 RMK AO2 T01280117
04850KAOH AOH20160422020511904/22/16 02:05:31  5-MIN KAOH 220705Z AUTO 25006KT 10SM SCT028 BKN035 13/11 A2985 1040 86 1100 250/06 RMK AO2 T01330111
04850KAOH AOH20160422021011904/22/16 02:10:31  5-MIN KAOH 220710Z AUTO 27005KT 10SM SCT028 BKN035 13/11 A2985 1040 89 1100 270/05 RMK AO2 T01280111
04850KAOH AOH20160422021511904/22/16 02:15:31  5-MIN KAOH 220715Z AUTO 28005KT 10SM BKN030 BKN035 13/11 A2985 1040 89 1100 290/05 RMK AO2 T01280111
04850KAOH AOH20160422022011904/22/16 02:20:31  5-MIN KAOH 220720Z AUTO 25003KT 10SM BKN030 BKN035 13/11 A2985 1040 89 1100 260/03 RMK AO2 T01280111
04850KAOH AOH20160422022511904/22/16 02:25:31  5-MIN KAOH 220725Z AUTO 23004KT 10SM SCT030 SCT036 13/11 A2985 1050 89 1100 240/04 RMK AO2 T01280111
04850KAOH AOH20160422023011904/22/16 02:30:31  5-MIN KAOH 220730Z AUTO 23003KT 10SM FEW029 SCT036 13/11 A2985 1050 89 1100 240/03 RMK AO2 T01280111
04850KAOH AOH20160422023511904/22/16 02:35:31  5-MIN KAOH 220735Z AUTO 00000KT 10SM FEW029 SCT037 13/11 A2985 1050 89 1100 000/00 RMK AO2 T01280111
04850KAOH AOH20160422024011204/22/16 02:40:31  5-MIN KAOH 220740Z AUTO 00000KT 10SM SCT029 13/11 A2985 1050 89 1100 000/00 RMK AO2 T01280111
04850KAOH AOH20160422024511204/22/16 02:45:31  5-MIN KAOH 220745Z AUTO 19003KT 10SM FEW027 13/11 A2985 1050 89 1100 200/03 RMK AO2 T01280111
04850KAOH AOH20160422025011904/22/16 02:50:31  5-MIN KAOH 220750Z AUTO 19003KT 10SM FEW027 13/11 A2985 1050 89 1100 200/03 RMK AO2 SLP104 T01280111
04850KAOH AOH20160422025511204/22/16 02:55:31  5-MIN KAOH 220755Z AUTO 20003KT 10SM SCT023 13/11 A2984 1050 89 1100 210/03 RMK AO2 T01280111
04850KAOH AOH20160422030011204/22/16 03:00:31  5-MIN KAOH 220800Z AUTO 18003KT 10SM BKN023 13/11 A2984 1050 89 1100 190/03 RMK AO2 T01280111
04850KAOH AOH20160422030511204/22/16 03:05:31  5-MIN KAOH 220805Z AUTO 00000KT 10SM BKN023 13/11 A2984 1050 89 1100 000/00 RMK AO2 T01280111
04850KAOH AOH20160422031011204/22/16 03:10:31  5-MIN KAOH 220810Z AUTO 00000KT 10SM BKN023 12/11 A2984 1050 93 1000 000/00 RMK AO2 T01220111
04850KAOH AOH20160422031511204/22/16 03:15:31  5-MIN KAOH 220815Z AUTO 15004KT 10SM OVC023 12/11 A2984 1050 93 1000 160/04 RMK AO2 T01220111
04850KAOH AOH20160422032011204/22/16 03:20:31  5-MIN KAOH 220820Z AUTO 15004KT 10SM OVC023 12/11 A2984 1050 93 1000 150/04 RMK AO2 T01220111
04850KAOH AOH20160422032511204/22/16 03:25:31  5-MIN KAOH 220825Z AUTO 16005KT 10SM OVC023 12/11 A2984 1060 93 1000 160/05 RMK AO2 T01220111
04850KAOH AOH20160422033011204/22/16 03:30:31  5-MIN KAOH 220830Z AUTO 16005KT 10SM OVC022 13/12 A2983 1060 93 1100 170/05 RMK AO2 T01280117
04850KAOH AOH20160422033511204/22/16 03:35:31  5-MIN KAOH 220835Z AUTO 15005KT 10SM OVC022 13/12 A2983 1060 93 1100 160/05 RMK AO2 T01280117
04850KAOH AOH20160422034011204/22/16 03:40:31  5-MIN KAOH 220840Z AUTO 15005KT 10SM BKN021 13/12 A2984 1060 93 1100 160/05 RMK AO2 T01280117
04850KAOH AOH20160422034511204/22/16 03:45:31  5-MIN KAOH 220845Z AUTO 15004KT 10SM BKN021 13/11 A2983 1060 89 1100 150/04 RMK AO2 T01280111
04850KAOH AOH20160422035010204/22/16 03:50:31  5-MIN KAOH 220850Z AUTO 15004KT 10SM SCT021 13/11 A2983 1060 89 1100 150/04 RMK AO2
04850KAOH AOH20160422035511204/22/16 03:55:31  5-MIN KAOH 220855Z AUTO 15004KT 10SM FEW021 13/11 A2983 1060 89 1100 150/04 RMK AO2 T01280111
04850KAOH AOH20160422040011904/22/16 04:00:31  5-MIN KAOH 220900Z AUTO 15005KT 10SM FEW021 SCT110 13/12 A2983 1060 93 1100 160/05 RMK AO2 T01280117
04850KAOH AOH20160422040511204/22/16 04:05:31  5-MIN KAOH 220905Z AUTO 16005KT 10SM SCT110 13/12 A2984 1060 93 1100 160/05 RMK AO2 T01280117
04850KAOH AOH20160422041011204/22/16 04:10:31  5-MIN KAOH 220910Z AUTO 16004KT 10SM BKN110 13/12 A2984 1060 93 1100 170/04 RMK AO2 T01280117
04850KAOH AOH20160422041511204/22/16 04:15:31  5-MIN KAOH 220915Z AUTO 18003KT 10SM BKN110 13/12 A2984 1050 93 1100 190/03 RMK AO2 T01280117
04850KAOH AOH20160422042011204/22/16 04:20:31  5-MIN KAOH 220920Z AUTO 17003KT 10SM BKN110 13/12 A2984 1060 93 1100 180/03 RMK AO2 T01280117
04850KAOH AOH20160422042511204/22/16 04:25:31  5-MIN KAOH 220925Z AUTO 16003KT 10SM BKN110 13/12 A2983 1060 93 1100 160/03 RMK AO2 T01280117
04850KAOH AOH20160422043011204/22/16 04:30:31  5-MIN KAOH 220930Z AUTO 15003KT 10SM BKN120 13/12 A2983 1060 93 1100 160/03 RMK AO2 T01280117
04850KAOH AOH20160422043511204/22/16 04:35:31  5-MIN KAOH 220935Z AUTO 17004KT 10SM BKN120 12/11 A2983 1060 93 1000 180/04 RMK AO2 T01220111
04850KAOH AOH20160422044011204/22/16 04:40:31  5-MIN KAOH 220940Z AUTO 18003KT 10SM BKN110 13/12 A2983 1060 93 1100 190/03 RMK AO2 T01280117
04850KAOH AOH20160422044511204/22/16 04:45:31  5-MIN KAOH 220945Z AUTO 00000KT 10SM BKN110 13/12 A2983 1060 93 1100 000/00 RMK AO2 T01280117
04850KAOH AOH20160422045012604/22/16 04:50:31  5-MIN KAOH 220950Z AUTO 00000KT 10SM BKN100 BKN120 12/11 A2983 1060 93 1000 000/00 RMK AO2 SLP099 T01220111
04850KAOH AOH20160422045511904/22/16 04:55:31  5-MIN KAOH 220955Z AUTO 00000KT 10SM BKN100 BKN120 12/11 A2983 1060 96 1000 000/00 RMK AO2 T01170111
04850KAOH AOH20160422050011904/22/16 05:00:31  5-MIN KAOH 221000Z AUTO 13004KT 10SM BKN100 OVC120 12/11 A2983 1060 93 1000 140/04 RMK AO2 T01220111
04850KAOH AOH20160422050511204/22/16 05:05:31  5-MIN KAOH 221005Z AUTO 14004KT 10SM OVC100 12/11 A2983 1060 93 1000 150/04 RMK AO2 T01220111
04850KAOH AOH20160422051011204/22/16 05:10:31  5-MIN KAOH 221010Z AUTO 18005KT 10SM OVC100 12/11 A2983 1060 93 1000 180/05 RMK AO2 T01220111
04850KAOH AOH20160422051511204/22/16 05:15:31  5-MIN KAOH 221015Z AUTO 17005KT 10SM OVC100 13/12 A2984 1060 93 1100 180/05 RMK AO2 T01280117
04850KAOH AOH20160422052011204/22/16 05:20:31  5-MIN KAOH 221020Z AUTO 19004KT 10SM OVC100 13/12 A2984 1050 93 1100 200/04 RMK AO2 T01280117
04850KAOH AOH20160422052511904/22/16 05:25:31  5-MIN KAOH 221025Z AUTO 19004KT 10SM FEW017 OVC100 13/12 A2984 1050 93 1100 190/04 RMK AO2 T01280117
04850KAOH AOH20160422053011904/22/16 05:30:31  5-MIN KAOH 221030Z AUTO 15004KT 10SM FEW017 OVC100 13/12 A2984 1060 93 1100 160/04 RMK AO2 T01280117
04850KAOH AOH20160422053511904/22/16 05:35:31  5-MIN KAOH 221035Z AUTO 15005KT 10SM FEW017 OVC100 12/12 A2984 1050 96 1000 160/05 RMK AO2 T01220117
04850KAOH AOH20160422054011904/22/16 05:40:31  5-MIN KAOH 221040Z AUTO 16005KT 10SM FEW017 OVC095 13/12 A2984 1050 93 1100 170/05 RMK AO2 T01280117
04850KAOH AOH20160422054511904/22/16 05:45:31  5-MIN KAOH 221045Z AUTO 17005KT 10SM FEW017 OVC095 13/12 A2984 1050 93 1100 180/05 RMK AO2 T01280117
04850KAOH AOH20160422055012604/22/16 05:50:31  5-MIN KAOH 221050Z AUTO 19005KT 10SM FEW017 OVC090 13/12 A2985 1050 93 1100 200/05 RMK AO2 SLP105 T01280117
04850KAOH AOH20160422055511204/22/16 05:55:31  5-MIN KAOH 221055Z AUTO 19004KT 10SM OVC090 13/12 A2985 1040 93 1100 190/04 RMK AO2 T01280117
04850KAOH AOH20160422060011204/22/16 06:00:31  5-MIN KAOH 221100Z AUTO 19004KT 10SM OVC090 13/12 A2985 1040 93 1100 190/04 RMK AO2 T01280117
04850KAOH AOH20160422060511204/22/16 06:05:31  5-MIN KAOH 221105Z AUTO 17004KT 10SM OVC090 13/12 A2985 1040 93 1100 180/04 RMK AO2 T01280117
04850KAOH AOH20160422061011204/22/16 06:10:31  5-MIN KAOH 221110Z AUTO 18005KT 10SM OVC090 13/12 A2985 1040 93 1100 180/05 RMK AO2 T01280117
04850KAOH AOH20160422061511904/22/16 06:15:31  5-MIN KAOH 221115Z AUTO 18004KT 10SM FEW070 OVC090 13/12 A2985 1040 93 1100 180/04 RMK AO2 T01280117
04850KAOH AOH20160422062011904/22/16 06:20:31  5-MIN KAOH 221120Z AUTO 17005KT 10SM SCT070 OVC090 13/12 A2985 1040 93 1100 170/05 RMK AO2 T01280117
04850KAOH AOH20160422062513404/22/16 06:25:31  5-MIN KAOH 221125Z AUTO 16005KT 8SM -RA BKN070 OVC085 13/12 A2986 1040 93 1100 170/05 RMK AO2 RAB23 P0000 T01280117
04850KAOH AOH20160422063013404/22/16 06:30:31  5-MIN KAOH 221130Z AUTO 16005KT 7SM -RA BKN070 OVC085 13/12 A2986 1040 93 1100 170/05 RMK AO2 RAB23 P0000 T01280117
04850KAOH AOH20160422063513404/22/16 06:35:31  5-MIN KAOH 221135Z AUTO 17005KT 7SM -RA BKN065 OVC085 13/12 A2986 1030 93 1100 170/05 RMK AO2 RAB23 P0000 T01280117
04850KAOH AOH20160422064013404/22/16 06:40:31  5-MIN KAOH 221140Z AUTO 20004KT 8SM -RA FEW048 OVC065 13/12 A2986 1030 93 1000 210/04 RMK AO2 RAB23 P0000 T01280117
04850KAOH AOH20160422064513404/22/16 06:45:31  5-MIN KAOH 221145Z AUTO 22004KT 9SM -RA SCT048 OVC065 13/12 A2987 1030 93 1000 230/04 RMK AO2 RAB23 P0000 T01280117
04850KAOH AOH20160422065017804/22/16 06:50:31  5-MIN KAOH 221150Z AUTO 23004KT 8SM -RA FEW013 BKN047 OVC065 13/12 A2987 1020 96 1000 240/04 RMK AO2 RAB23 SLP114 P0000 60000 70027 T01280122 10133 20117 56006
04850KAOH AOH20160422065513504/22/16 06:55:31  5-MIN KAOH 221155Z AUTO 23004KT 8SM -RA SCT013 BKN047 OVC060 13/12 A2987 1020 93 1100 230/04 RMK AO2 P0000 T01330122
04850KAOH AOH20160422070013504/22/16 07:00:31  5-MIN KAOH 221200Z AUTO 24005KT 8SM -RA BKN011 BKN047 OVC060 13/12 A2988 1020 93 1100 250/05 RMK AO2 P0000 T01330122
04850KAOH AOH20160422070512804/22/16 07:05:31  5-MIN KAOH 221205Z AUTO 23004KT 8SM -RA BKN011 OVC047 13/12 A2988 1020 96 1000 230/04 RMK AO2 P0000 T01280122
04850KAOH AOH20160422071012804/22/16 07:10:31  5-MIN KAOH 221210Z AUTO 23005KT 7SM -RA BKN011 OVC047 13/12 A2988 1020 96 1000 230/05 RMK AO2 P0000 T01280122
04850KAOH AOH20160422071513604/22/16 07:15:31  5-MIN KAOH 221215Z AUTO 21004KT 6SM -RA BR OVC009 13/12 A2988 1010 96 1000 210/04 RMK AO2 CIG 008V013 P0001 T01280122
04850KAOH AOH20160422072013604/22/16 07:20:31  5-MIN KAOH 221220Z AUTO 25003KT 5SM -RA BR OVC009 13/12 A2988 1010 96 1000 250/03 RMK AO2 CIG 008V012 P0001 T01280122
04850KAOH AOH20160422072512404/22/16 07:25:31  5-MIN KAOH 221225Z AUTO 25006KT 6SM -RA BR OVC009 13/12 A2988 1010 96 1000 260/06 RMK AO2 P0001 T01280122
04850KAOH AOH20160422073012104/22/16 07:30:31  5-MIN KAOH 221230Z AUTO 25005KT 7SM -RA OVC009 13/12 A2988 1010 96 1000 260/05 RMK AO2 P0001 T01280122
04850KAOH AOH20160422073512104/22/16 07:35:31  5-MIN KAOH 221235Z AUTO 25005KT 7SM -RA OVC008 13/12 A2988 1010 96 1000 260/05 RMK AO2 P0001 T01280122
04850KAOH AOH20160422074012104/22/16 07:40:31  5-MIN KAOH 221240Z AUTO 26006KT 7SM -RA OVC008 13/12 A2988 1010 96 1000 270/06 RMK AO2 P0001 T01280122
04850KAOH AOH20160422074512404/22/16 07:45:31  5-MIN KAOH 221245Z AUTO 28004KT 6SM -RA BR OVC007 13/12 A2988 1010 96 1000 280/04 RMK AO2 P0001 T01280122
04850KAOH AOH20160422075013304/22/16 07:50:31  5-MIN KAOH 221250Z AUTO 27004KT 6SM BR OVC007 13/12 A2988 1010 96 1000 280/04 RMK AO2 RAE49 SLP118 P0001 T01280122
04850KAOH AOH20160422075511404/22/16 07:55:31  5-MIN KAOH 221255Z AUTO 27006KT 5SM BR OVC007 13/12 A2988 1010 96 1000 280/06 RMK AO2 T01280122
04850KAOH AOH20160422080012104/22/16 08:00:31  5-MIN KAOH 221300Z AUTO 28006KT 6SM BR BKN007 OVC035 13/12 A2989 1010 93 1000 290/06 RMK AO2 T01280117
04850KAOH AOH20160422080511804/22/16 08:05:31  5-MIN KAOH 221305Z AUTO 28005KT 7SM BKN007 OVC035 13/12 A2989 1010 93 1000 280/05 RMK AO2 T01280117
04850KAOH AOH20160422081011804/22/16 08:10:31  5-MIN KAOH 221310Z AUTO 29005KT 7SM BKN007 OVC035 13/12 A2989 1010 93 1000 290/05 RMK AO2 T01280117
04850KAOH AOH20160422081511804/22/16 08:15:31  5-MIN KAOH 221315Z AUTO 27006KT 7SM SCT007 OVC035 13/12 A2989 1010 93 1000 280/06 RMK AO2 T01280117
04850KAOH AOH20160422082013404/22/16 08:20:31  5-MIN KAOH 221320Z AUTO 27005KT 7SM -RA FEW007 OVC036 13/12 A2989 1010 93 1000 270/05 RMK AO2 RAB17 P0000 T01280117
04850KAOH AOH20160422082513704/22/16 08:25:31  5-MIN KAOH 221325Z AUTO 27005KT 6SM -RA BR FEW007 OVC036 13/12 A2989 1010 93 1000 270/05 RMK AO2 RAB17 P0001 T01280117
04850KAOH AOH20160422083013704/22/16 08:30:31  5-MIN KAOH 221330Z AUTO 27005KT 6SM -RA BR BKN036 OVC055 13/12 A2989 1010 93 1000 280/05 RMK AO2 RAB17 P0001 T01280117
04850KAOH AOH20160422083513704/22/16 08:35:31  5-MIN KAOH 221335Z AUTO 28006KT 6SM -RA BR SCT037 OVC055 13/12 A2989 1010 93 1000 280/06 RMK AO2 RAB17 P0001 T01280117
04850KAOH AOH20160422084013404/22/16 08:40:31  5-MIN KAOH 221340Z AUTO 27005KT 8SM -RA SCT037 OVC055 13/12 A2989 1000 93 1000 280/05 RMK AO2 RAB17 P0001 T01280117
04850KAOH AOH20160422084513404/22/16 08:45:31  5-MIN KAOH 221345Z AUTO 26006KT 10SM SCT039 OVC055 13/12 A2989 1000 93 1000 270/06 RMK AO2 RAB17E45 P0001 T01280117
04850KAOH AOH20160422085014104/22/16 08:50:31  5-MIN KAOH 221350Z AUTO 25004KT 10SM SCT041 OVC055 13/12 A2990 1000 96 1000 260/04 RMK AO2 RAB17E45 SLP123 P0001 T01280122
04850KAOH AOH20160422085511804/22/16 08:55:31  5-MIN KAOH 221355Z AUTO 23004KT 9SM SCT041 OVC050 13/12 A2990 1000 93 1100 230/04 RMK AO2 T01330122
04850KAOH AOH20160422090011804/22/16 09:00:31  5-MIN KAOH 221400Z AUTO 25004KT 9SM BKN041 OVC050 13/12 A2990 1000 93 1100 260/04 RMK AO2 T01330122
04850KAOH AOH20160422090511904/22/16 09:05:31  5-MIN KAOH 221405Z AUTO 28005KT 10SM BKN043 OVC050 13/12 A2990 1000 89 1100 290/05 RMK AO2 T01330117
04850KAOH AOH20160422091011204/22/16 09:10:31  5-MIN KAOH 221410Z AUTO 30007KT 10SM OVC043 13/12 A2990 1000 89 1100 300/07 RMK AO2 T01330117
04850KAOH AOH20160422091511104/22/16 09:15:31  5-MIN KAOH 221415Z AUTO 29008KT 10SM OVC043 13/12 A2990 990 89 1100 290/08 RMK AO2 T01330117
04850KAOH AOH20160422092011804/22/16 09:20:31  5-MIN KAOH 221420Z AUTO 29010KT 10SM FEW011 OVC043 13/12 A2990 990 89 1100 290/10 RMK AO2 T01330117
04850KAOH AOH20160422092511104/22/16 09:25:31  5-MIN KAOH 221425Z AUTO 30009KT 10SM OVC043 13/12 A2990 990 89 1100 300/09 RMK AO2 T01330117
04850KAOH AOH20160422093011104/22/16 09:30:31  5-MIN KAOH 221430Z AUTO 30010KT 10SM OVC045 13/12 A2990 990 89 1100 300/10 RMK AO2 T01330117
04850KAOH AOH20160422093511104/22/16 09:35:31  5-MIN KAOH 221435Z AUTO 30008KT 10SM OVC047 13/12 A2990 990 89 1100 310/08 RMK AO2 T01330117
04850KAOH AOH20160422094011104/22/16 09:40:31  5-MIN KAOH 221440Z AUTO 31009KT 10SM OVC047 14/12 A2991 990 86 1100 320/09 RMK AO2 T01390117
04850KAOH AOH20160422094512504/22/16 09:45:31  5-MIN KAOH 221445Z AUTO 29010KT 10SM FEW011 BKN047 OVC060 14/12 A2991 990 90 1100 300/10 RMK AO2 T01390122
04850KAOH AOH20160422095014404/22/16 09:50:31  5-MIN KAOH 221450Z AUTO 31012KT 10SM FEW011 BKN047 OVC060 14/12 A2991 990 86 1100 310/12 RMK AO2 SLP126 60002 T01390117 53013
04850KAOH AOH20160422095512504/22/16 09:55:31  5-MIN KAOH 221455Z AUTO 31012KT 10SM FEW011 BKN049 OVC060 14/12 A2991 990 86 1100 320/12 RMK AO2 T01390117
04850KAOH AOH20160422100012504/22/16 10:00:31  5-MIN KAOH 221500Z AUTO 32012KT 10SM SCT011 BKN049 OVC060 14/12 A2991 980 86 1100 320/12 RMK AO2 T01390117
04850KAOH AOH20160422100512504/22/16 10:05:31  5-MIN KAOH 221505Z AUTO 31011KT 10SM SCT011 BKN049 OVC060 14/12 A2991 980 86 1100 320/11 RMK AO2 T01390117
04850KAOH AOH20160422101012504/22/16 10:10:31  5-MIN KAOH 221510Z AUTO 32009KT 10SM BKN013 BKN049 OVC060 14/12 A2991 990 86 1100 320/09 RMK AO2 T01390117
04850KAOH AOH20160422101512504/22/16 10:15:31  5-MIN KAOH 221515Z AUTO 32009KT 10SM BKN013 BKN049 OVC060 14/12 A2991 980 86 1100 330/09 RMK AO2 T01390117
04850KAOH AOH20160422102011804/22/16 10:20:31  5-MIN KAOH 221520Z AUTO 33008KT 10SM BKN013 OVC050 14/12 A2992 980 90 1100 330/08 RMK AO2 T01390122
04850KAOH AOH20160422102511104/22/16 10:25:31  5-MIN KAOH 221525Z AUTO 33009KT 10SM OVC013 14/12 A2991 980 86 1100 340/09 RMK AO2 T01390117
04850KAOH AOH20160422103011104/22/16 10:30:31  5-MIN KAOH 221530Z AUTO 34008KT 10SM OVC013 14/12 A2991 980 86 1100 340/08 RMK AO2 T01390117
04850KAOH AOH20160422103511104/22/16 10:35:31  5-MIN KAOH 221535Z AUTO 32008KT 10SM OVC013 14/12 A2992 980 90 1100 330/08 RMK AO2 T01390122
04850KAOH AOH20160422104011104/22/16 10:40:31  5-MIN KAOH 221540Z AUTO 32009KT 10SM OVC013 14/12 A2992 980 86 1200 330/09 RMK AO2 T01440122
04850KAOH AOH20160422104512504/22/16 10:45:31  5-MIN KAOH 221545Z AUTO 30009KT 10SM BKN013 BKN017 OVC080 14/12 A2992 980 83 1200 310/09 RMK AO2 T01440117
04850KAOH AOH20160422105012504/22/16 10:50:31  5-MIN KAOH 221550Z AUTO 30011KT 10SM BKN013 OVC080 14/12 A2992 980 86 1200 310/11 RMK AO2 SLP130 T01440122
04850KAOH AOH20160422105512504/22/16 10:55:31  5-MIN KAOH 221555Z AUTO 30008KT 10SM SCT013 BKN050 OVC080 15/12 A2992 980 83 1200 310/08 RMK AO2 T01500122
04850KAOH AOH20160422110012504/22/16 11:00:31  5-MIN KAOH 221600Z AUTO 30008KT 10SM SCT015 BKN055 OVC080 16/13 A2992 980 83 1300 310/08 RMK AO2 T01560128
04850KAOH AOH20160422110512504/22/16 11:05:31  5-MIN KAOH 221605Z AUTO 30009KT 10SM SCT015 BKN055 OVC080 15/12 A2992 980 83 1200 300/09 RMK AO2 T01500122
04850KAOH AOH20160422111012504/22/16 11:10:31  5-MIN KAOH 221610Z AUTO 30010KT 10SM FEW015 BKN055 OVC080 16/12 A2992 980 80 1300 310/10 RMK AO2 T01560122
04850KAOH AOH20160422111512504/22/16 11:15:31  5-MIN KAOH 221615Z AUTO 31010KT 10SM FEW015 BKN055 OVC080 16/12 A2992 980 80 1300 320/10 RMK AO2 T01560122
04850KAOH AOH20160422112012504/22/16 11:20:31  5-MIN KAOH 221620Z AUTO 31010KT 10SM FEW014 SCT020 OVC060 16/12 A2992 980 77 1400 310/10 RMK AO2 T01610122
04850KAOH AOH20160422112512504/22/16 11:25:31  5-MIN KAOH 221625Z AUTO 30010KT 10SM FEW014 SCT020 OVC060 16/12 A2992 980 77 1300 310/10 RMK AO2 T01560117
04850KAOH AOH20160422113011804/22/16 11:30:31  5-MIN KAOH 221630Z AUTO 32009KT 10SM SCT018 OVC060 16/12 A2992 980 80 1300 330/09 RMK AO2 T01560122
04850KAOH AOH20160422113512504/22/16 11:35:31  5-MIN KAOH 221635Z AUTO 33011KT 10SM SCT018 SCT026 OVC060 16/12 A2992 980 77 1400 330/11 RMK AO2 T01610122
04850KAOH AOH20160422114012504/22/16 11:40:31  5-MIN KAOH 221640Z AUTO 33009KT 10SM SCT020 SCT026 OVC060 16/12 A2992 980 80 1300 330/09 RMK AO2 T01560122
04850KAOH AOH20160422114512504/22/16 11:45:31  5-MIN KAOH 221645Z AUTO 32009KT 10SM SCT020 BKN028 OVC060 16/12 A2992 980 80 1300 320/09 RMK AO2 T01560122
04850KAOH AOH20160422115011504/22/16 11:50:31  5-MIN KAOH 221650Z AUTO 32008KT 10SM SCT020 BKN028 OVC060 16/12 A2992 980 80 1300 320/08 RMK AO2
04850KAOH AOH20160422115512504/22/16 11:55:31  5-MIN KAOH 221655Z AUTO 32009KT 10SM SCT018 BKN026 OVC060 15/13 A2992 980 86 1200 330/09 RMK AO2 T01500128
04850KAOH AOH20160422120012504/22/16 12:00:31  5-MIN KAOH 221700Z AUTO 32008KT 10SM SCT015 BKN023 OVC028 15/12 A2992 980 83 1200 330/08 RMK AO2 T01500122
04850KAOH AOH20160422120512504/22/16 12:05:31  5-MIN KAOH 221705Z AUTO 31008KT 10SM FEW015 BKN021 OVC046 15/12 A2992 980 83 1200 320/08 RMK AO2 T01500122
04850KAOH AOH20160422121012504/22/16 12:10:31  5-MIN KAOH 221710Z AUTO 33008KT 10SM SCT020 BKN027 OVC044 15/12 A2992 980 83 1200 340/08 RMK AO2 T01500122
04850KAOH AOH20160422121512504/22/16 12:15:31  5-MIN KAOH 221715Z AUTO 32009KT 10SM SCT017 BKN024 OVC046 15/12 A2992 980 83 1200 330/09 RMK AO2 T01500122
04850KAOH AOH20160422122012504/22/16 12:20:31  5-MIN KAOH 221720Z AUTO 32010KT 10SM SCT017 BKN022 OVC046 15/12 A2992 980 83 1200 330/10 RMK AO2 T01500122
04850KAOH AOH20160422122512504/22/16 12:25:31  5-MIN KAOH 221725Z AUTO 31010KT 10SM SCT017 BKN024 OVC044 15/12 A2992 980 83 1200 320/10 RMK AO2 T01500122
04850KAOH AOH20160422123012504/22/16 12:30:31  5-MIN KAOH 221730Z AUTO 32011KT 10SM SCT017 BKN024 OVC044 15/12 A2992 970 83 1200 320/11 RMK AO2 T01500122
04850KAOH AOH20160422123512504/22/16 12:35:31  5-MIN KAOH 221735Z AUTO 32008KT 10SM FEW017 BKN024 OVC045 15/12 A2992 970 83 1200 330/08 RMK AO2 T01500122
04850KAOH AOH20160422124012504/22/16 12:40:31  5-MIN KAOH 221740Z AUTO 32008KT 10SM SCT017 BKN024 OVC040 15/12 A2992 970 83 1200 320/08 RMK AO2 T01500122
04850KAOH AOH20160422124512504/22/16 12:45:31  5-MIN KAOH 221745Z AUTO 34009KT 10SM SCT017 BKN024 OVC034 15/12 A2992 970 83 1200 340/09 RMK AO2 T01500122
04850KAOH AOH20160422125015604/22/16 12:50:31  5-MIN KAOH 221750Z AUTO 33009KT 10SM FEW017 BKN025 OVC034 15/12 A2993 970 80 1200 340/09 RMK AO2 SLP132 60002 T01500117 10161 20128 53012
04850KAOH AOH20160422125512504/22/16 12:55:31  5-MIN KAOH 221755Z AUTO 32010KT 10SM FEW017 BKN025 OVC041 15/12 A2993 970 80 1200 330/10 RMK AO2 T01500117
04850KAOH AOH20160422130012504/22/16 13:00:31  5-MIN KAOH 221800Z AUTO 33009KT 10SM FEW017 SCT026 OVC038 15/12 A2993 970 80 1200 340/09 RMK AO2 T01500117
04850KAOH AOH20160422130512504/22/16 13:05:31  5-MIN KAOH 221805Z AUTO 33010KT 10SM FEW017 SCT024 OVC040 15/12 A2993 970 83 1200 340/10 RMK AO2 T01500122
04850KAOH AOH20160422131012504/22/16 13:10:31  5-MIN KAOH 221810Z AUTO 33008KT 10SM FEW017 BKN030 OVC041 15/12 A2993 970 80 1200 340/08 RMK AO2 T01500117
04850KAOH AOH20160422131512504/22/16 13:15:31  5-MIN KAOH 221815Z AUTO 34008KT 10SM FEW017 BKN027 OVC041 15/12 A2993 970 80 1200 350/08 RMK AO2 T01500117
04850KAOH AOH20160422132011804/22/16 13:20:31  5-MIN KAOH 221820Z AUTO 33008KT 10SM BKN027 OVC041 15/12 A2993 970 80 1200 340/08 RMK AO2 T01500117
04850KAOH AOH20160422132512504/22/16 13:25:31  5-MIN KAOH 221825Z AUTO 33009KT 10SM FEW019 BKN027 OVC041 14/12 A2993 970 83 1200 330/09 RMK AO2 T01440117
04850KAOH AOH20160422133011804/22/16 13:30:31  5-MIN KAOH 221830Z AUTO 33008KT 10SM FEW019 OVC027 14/12 A2993 970 83 1200 330/08 RMK AO2 T01440117
04850KAOH AOH20160422133511804/22/16 13:35:31  5-MIN KAOH 221835Z AUTO 33008KT 10SM FEW019 OVC027 14/12 A2993 970 83 1200 330/08 RMK AO2 T01440117
04850KAOH AOH20160422134011804/22/16 13:40:31  5-MIN KAOH 221840Z AUTO 35010KT 10SM SCT018 OVC027 14/12 A2993 970 83 1200 350/10 RMK AO2 T01440117
04850KAOH AOH20160422134513304/22/16 13:45:31  5-MIN KAOH 221845Z AUTO 33009KT 9SM -RA SCT018 OVC027 14/12 A2993 970 83 1200 340/09 RMK AO2 RAB41 P0000 T01440117
04850KAOH AOH20160422135014004/22/16 13:50:31  5-MIN KAOH 221850Z AUTO 34007KT 7SM -RA SCT018 OVC027 14/12 A2993 970 86 1100 350/07 RMK AO2 RAB41 SLP135 P0000 T01390117
04850KAOH AOH20160422135513704/22/16 13:55:31  5-MIN KAOH 221855Z AUTO 34007KT 4SM -RA BR FEW018 BKN027 OVC032 14/12 A2993 970 90 1100 350/07 RMK AO2 P0000 T01390122
04850KAOH AOH20160422140013004/22/16 14:00:31  5-MIN KAOH 221900Z AUTO 34007KT 4SM -RA BR FEW018 OVC029 14/12 A2993 970 90 1100 340/07 RMK AO2 P0000 T01390122
04850KAOH AOH20160422140513004/22/16 14:05:31  5-MIN KAOH 221905Z AUTO 33008KT 6SM -RA BR FEW018 OVC031 14/12 A2993 960 90 1100 330/08 RMK AO2 P0000 T01390122
04850KAOH AOH20160422141012004/22/16 14:10:31  5-MIN KAOH 221910Z AUTO 33007KT 8SM -RA OVC031 14/12 A2993 960 90 1100 330/07 RMK AO2 P0000 T01390122
04850KAOH AOH20160422141512104/22/16 14:15:31  5-MIN KAOH 221915Z AUTO 32007KT 10SM -RA OVC031 14/12 A2993 960 90 1100 330/07 RMK AO2 P0000 T01390122
04850KAOH AOH20160422142012804/22/16 14:20:31  5-MIN KAOH 221920Z AUTO 33008KT 10SM -RA FEW016 OVC031 14/13 A2994 960 93 1100 340/08 RMK AO2 P0000 T01390128
04850KAOH AOH20160422142513504/22/16 14:25:31  5-MIN KAOH 221925Z AUTO 33008KT 10SM -RA FEW011 SCT016 OVC031 14/13 A2994 960 93 1100 340/08 RMK AO2 P0000 T01390128
04850KAOH AOH20160422143013504/22/16 14:30:31  5-MIN KAOH 221930Z AUTO 33008KT 10SM -RA SCT011 SCT016 OVC031 14/13 A2994 960 93 1100 330/08 RMK AO2 P0000 T01390128
04850KAOH AOH20160422143513704/22/16 14:35:31  5-MIN KAOH 221935Z AUTO 33008KT 10SM FEW008 BKN013 OVC031 14/13 A2993 960 93 1100 340/08 RMK AO2 RAE32 P0000 T01390128
04850KAOH AOH20160422144014404/22/16 14:40:31  5-MIN KAOH 221940Z AUTO 32007KT 10SM -RA FEW008 BKN024 OVC030 14/13 A2993 970 90 1200 320/07 RMK AO2 RAE32B40 P0000 T01440128
04850KAOH AOH20160422144514604/22/16 14:45:31  5-MIN KAOH 221945Z AUTO 32007KT 5SM -RA BR SCT011 BKN024 OVC030 14/13 A2993 970 93 1100 330/07 RMK AO2 RAE32B40 P0001 T01390128
04850KAOH AOH20160422145015304/22/16 14:50:31  5-MIN KAOH 221950Z AUTO 33007KT 3SM -RA BR SCT011 BKN017 OVC024 14/13 A2993 970 93 1100 330/07 RMK AO2 RAE32B40 SLP135 P0002 T01390128
04850KAOH AOH20160422145513704/22/16 14:55:31  5-MIN KAOH 221955Z AUTO 34009KT 4SM -RA BR SCT008 BKN013 OVC024 14/13 A2993 970 93 1100 340/09 RMK AO2 P0000 T01390128
04850KAOH AOH20160422150013704/22/16 15:00:31  5-MIN KAOH 222000Z AUTO 34009KT 5SM -RA BR SCT008 BKN013 OVC026 14/13 A2993 970 93 1100 350/09 RMK AO2 P0000 T01390128
04850KAOH AOH20160422150513404/22/16 15:05:31  5-MIN KAOH 222005Z AUTO 34012KT 8SM -RA SCT010 BKN018 OVC060 14/13 A2993 970 90 1200 350/12 RMK AO2 P0000 T01440128
04850KAOH AOH20160422151013704/22/16 15:10:31  5-MIN KAOH 222010Z AUTO 33010KT 10SM SCT010 BKN017 OVC023 14/12 A2993 960 86 1200 340/10 RMK AO2 RAE09 P0000 T01440122
04850KAOH AOH20160422151513704/22/16 15:15:31  5-MIN KAOH 222015Z AUTO 34013KT 10SM SCT010 BKN017 OVC022 14/12 A2993 960 86 1200 350/13 RMK AO2 RAE09 P0000 T01440122
04850KAOH AOH20160422152013004/22/16 15:20:31  5-MIN KAOH 222020Z AUTO 33010KT 10SM SCT010 OVC020 14/12 A2994 960 86 1200 340/10 RMK AO2 RAE09 P0000 T01440122
04850KAOH AOH20160422152513704/22/16 15:25:31  5-MIN KAOH 222025Z AUTO 33011KT 10SM BKN012 BKN018 OVC023 14/13 A2994 960 90 1200 340/11 RMK AO2 RAE09 P0000 T01440128
04850KAOH AOH20160422153013704/22/16 15:30:31  5-MIN KAOH 222030Z AUTO 34010KT 10SM FEW010 BKN020 OVC060 14/13 A2993 960 90 1200 340/10 RMK AO2 RAE09 P0000 T01440128
04850KAOH AOH20160422153513704/22/16 15:35:31  5-MIN KAOH 222035Z AUTO 34011KT 10SM FEW010 BKN020 OVC065 14/12 A2993 960 86 1200 340/11 RMK AO2 RAE09 P0000 T01440122
04850KAOH AOH20160422154013704/22/16 15:40:31  5-MIN KAOH 222040Z AUTO 34011KT 10SM BKN012 BKN020 OVC065 14/12 A2994 960 86 1200 340/11 RMK AO2 RAE09 P0000 T01440122
04850KAOH AOH20160422154513704/22/16 15:45:31  5-MIN KAOH 222045Z AUTO 33009KT 10SM FEW010 BKN021 OVC043 14/12 A2994 960 86 1200 340/09 RMK AO2 RAE09 P0000 T01440122
04850KAOH AOH20160422155015604/22/16 15:50:31  5-MIN KAOH 222050Z AUTO 34010KT 10SM SCT014 BKN020 OVC065 14/13 A2994 960 90 1200 340/10 RMK AO2 RAE09 SLP137 P0000 60003 T01440128 52005
04850KAOH AOH20160422155512504/22/16 15:55:31  5-MIN KAOH 222055Z AUTO 33010KT 10SM SCT014 BKN020 OVC070 14/12 A2994 960 86 1200 340/10 RMK AO2 T01440122
04850KAOH AOH20160422160012504/22/16 16:00:31  5-MIN KAOH 222100Z AUTO 34009KT 10SM BKN014 BKN020 OVC044 14/12 A2994 960 86 1200 340/09 RMK AO2 T01440122
04850KAOH AOH20160422160512504/22/16 16:05:31  5-MIN KAOH 222105Z AUTO 33010KT 10SM BKN014 BKN022 OVC044 14/12 A2994 960 86 1200 340/10 RMK AO2 T01440122
04850KAOH AOH20160422161012504/22/16 16:10:31  5-MIN KAOH 222110Z AUTO 34009KT 10SM SCT014 BKN018 OVC039 14/12 A2993 960 86 1200 340/09 RMK AO2 T01440122
04850KAOH AOH20160422161512504/22/16 16:15:31  5-MIN KAOH 222115Z AUTO 33010KT 10SM SCT013 BKN018 OVC090 14/12 A2993 960 86 1200 330/10 RMK AO2 T01440122
04850KAOH AOH20160422162012504/22/16 16:20:31  5-MIN KAOH 222120Z AUTO 33010KT 10SM SCT013 BKN018 OVC090 14/13 A2993 960 90 1200 330/10 RMK AO2 T01440128
04850KAOH AOH20160422162512504/22/16 16:25:31  5-MIN KAOH 222125Z AUTO 33011KT 10SM SCT013 BKN018 OVC090 15/13 A2994 960 86 1200 330/11 RMK AO2 T01500128
04850KAOH AOH20160422163012504/22/16 16:30:31  5-MIN KAOH 222130Z AUTO 32012KT 10SM BKN015 BKN039 OVC090 15/13 A2994 960 86 1200 330/12 RMK AO2 T01500128
04850KAOH AOH20160422163512504/22/16 16:35:31  5-MIN KAOH 222135Z AUTO 32010KT 10SM BKN015 BKN038 OVC090 16/13 A2994 960 86 1300 330/10 RMK AO2 T01560133
04850KAOH AOH20160422164012504/22/16 16:40:31  5-MIN KAOH 222140Z AUTO 33011KT 10SM BKN013 BKN035 OVC110 15/13 A2994 960 86 1200 340/11 RMK AO2 T01500128
04850KAOH AOH20160422164512504/22/16 16:45:31  5-MIN KAOH 222145Z AUTO 33012KT 10SM SCT013 BKN017 OVC110 15/13 A2994 960 86 1200 340/12 RMK AO2 T01500128
04850KAOH AOH20160422165013204/22/16 16:50:31  5-MIN KAOH 222150Z AUTO 34011KT 10SM BKN013 BKN019 BKN033 15/13 A2994 960 86 1200 340/11 RMK AO2 SLP138 T01500128
04850KAOH AOH20160422165512904/22/16 16:55:31  5-MIN KAOH 222155Z AUTO 35013KT 9SM BKN015 BKN070 15/13 A2994 960 86 1200 360/13 RMK AO2 CIG 010V024 T01500128
04850KAOH AOH20160422170015704/22/16 17:00:31  5-MIN KAOH 222200Z AUTO 34011KT 5SM -RA BR BKN015 BKN036 OVC075 14/13 A2994 960 90 1200 350/11 RMK AO2 RAB2156 CIG 009V024 P0001 T01440128
04850KAOH AOH20160422170514404/22/16 17:05:31  5-MIN KAOH 222205Z AUTO 36012KT 3SM RA BR BKN013 BKN036 OVC050 14/13 A2994 960 93 1200 010/12 RMK AO2 RAB2156 P0002 T01440133
04850KAOH AOH20160422171014504/22/16 17:10:31  5-MIN KAOH 222210Z AUTO 02013KT 3SM -RA BR BKN010 BKN019 OVC045 14/13 A2995 950 93 1100 030/13 RMK AO2 RAB2156 P0002 T01390128
04850KAOH AOH20160422171514504/22/16 17:15:31  5-MIN KAOH 222215Z AUTO 02011KT 4SM -RA BR SCT007 BKN012 OVC050 13/13 A2995 950 96 1000 020/11 RMK AO2 RAB2156 P0002 T01330128
04850KAOH AOH20160422172014504/22/16 17:20:31  5-MIN KAOH 222220Z AUTO 01013KT 5SM -RA BR BKN007 BKN010 OVC070 13/13 A2995 950 96 1000 010/13 RMK AO2 RAB2156 P0002 T01330128
04850KAOH AOH20160422172513804/22/16 17:25:31  5-MIN KAOH 222225Z AUTO 02010KT 5SM -RA BR BKN007 OVC047 13/12 A2995 950 93 1000 020/10 RMK AO2 RAB2156 P0002 T01330122
04850KAOH AOH20160422173013704/22/16 17:30:31  5-MIN KAOH 222230Z AUTO 01009KT 5SM BR BKN007 OVC010 13/13 A2995 950 96 1000 020/09 RMK AO2 RAB2156E26 P0002 T01330128
04850KAOH AOH20160422173513704/22/16 17:35:31  5-MIN KAOH 222235Z AUTO 01010KT 4SM BR BKN006 OVC010 13/13 A2995 950 96 1000 020/10 RMK AO2 RAB2156E26 P0002 T01330128
04850KAOH AOH20160422174013004/22/16 17:40:31  5-MIN KAOH 222240Z AUTO 01012KT 5SM BR OVC008 13/12 A2996 940 93 1000 020/12 RMK AO2 RAB2156E26 P0002 T01330122
04850KAOH AOH20160422174514204/22/16 17:45:31  5-MIN KAOH 222245Z AUTO 01011KT 5SM BR OVC008 13/12 A2996 940 93 1000 020/11 RMK AO2 RAB2156E26 CIG 005V013 P0002 T01330122
04850KAOH AOH20160422175014904/22/16 17:50:31  5-MIN KAOH 222250Z AUTO 02010KT 5SM BR OVC008 13/12 A2996 940 93 1000 030/10 RMK AO2 RAB2156E26 CIG 005V011 SLP144 P0002 T01330122
04850KAOH AOH20160422175512504/22/16 17:55:31  5-MIN KAOH 222255Z AUTO 03010KT 4SM BR OVC008 13/13 A2996 940 96 1000 030/10 RMK AO2 CIG 005V011 T01330128
04850KAOH AOH20160422180012504/22/16 18:00:31  5-MIN KAOH 222300Z AUTO 02013KT 5SM BR OVC008 13/12 A2996 940 93 1000 020/13 RMK AO2 CIG 006V011 T01330122
04850KAOH AOH20160422180511304/22/16 18:05:31  5-MIN KAOH 222305Z AUTO 02014KT 5SM BR OVC008 13/12 A2996 940 93 1000 030/14 RMK AO2 T01330122
04850KAOH AOH20160422181012504/22/16 18:10:31  5-MIN KAOH 222310Z AUTO 03012KT 6SM BR OVC008 13/12 A2996 940 93 1000 040/12 RMK AO2 CIG 006V009 T01330122
04850KAOH AOH20160422181512404/22/16 18:15:31  5-MIN KAOH 222315Z AUTO 02012KT 6SM BR OVC006 13/12 A2996 940 96 900 020/12 RMK AO2 CIG 006V009 T01280122
04850KAOH AOH20160422182011204/22/16 18:20:31  5-MIN KAOH 222320Z AUTO 02013KT 6SM BR OVC006 13/12 A2997 930 96 900 030/13 RMK AO2 T01280122
04850KAOH AOH20160422182512104/22/16 18:25:31  5-MIN KAOH 222325Z AUTO 03011KT 7SM OVC006 13/12 A2997 930 93 900 040/11 RMK AO2 CIG 006V010 T01280117
04850KAOH AOH20160422183013104/22/16 18:30:31  5-MIN KAOH 222330Z AUTO 04007KT 6SM BR BKN006 OVC020 13/12 A2997 930 93 900 050/07 RMK AO2 CIG 006V011 T01280117
04850KAOH AOH20160422183513804/22/16 18:35:31  5-MIN KAOH 222335Z AUTO 04009KT 5SM BR BKN006 BKN022 OVC080 13/12 A2997 930 93 900 050/09 RMK AO2 CIG 006V011 T01280117
04850KAOH AOH20160422184012604/22/16 18:40:31  5-MIN KAOH 222340Z AUTO 04008KT 5SM BR SCT006 BKN022 OVC080 13/12 A2997 930 93 900 040/08 RMK AO2 T01280117
04850KAOH AOH20160422184512604/22/16 18:45:31  5-MIN KAOH 222345Z AUTO 03007KT 6SM BR FEW006 SCT022 OVC075 13/11 A2997 930 89 900 040/07 RMK AO2 T01280111
04850KAOH AOH20160422185015704/22/16 18:50:31  5-MIN KAOH 222350Z AUTO 03008KT 6SM BR FEW008 SCT024 OVC075 13/11 A2997 930 89 900 030/08 RMK AO2 SLP150 60005 T01280111 10156 20128 51003
04850KAOH AOH20160422185511604/22/16 18:55:31  5-MIN KAOH 222355Z AUTO 02008KT 7SM SCT024 OVC075 13/11 A2997 930 89 900 030/08 RMK AO2 T01280111
04850KAOH AOH20160422190011604/22/16 19:00:31  5-MIN KAOH 230000Z AUTO 02008KT 7SM BKN024 OVC075 13/11 A2997 930 89 900 030/08 RMK AO2 T01280111
04850KAOH AOH20160422190511604/22/16 19:05:31  5-MIN KAOH 230005Z AUTO 03006KT 7SM BKN026 OVC075 13/11 A2997 930 89 900 040/06 RMK AO2 T01280111
04850KAOH AOH20160422191011604/22/16 19:10:31  5-MIN KAOH 230010Z AUTO 03006KT 7SM BKN026 OVC075 13/11 A2998 930 89 900 030/06 RMK AO2 T01280111
04850KAOH AOH20160422191512604/22/16 19:15:31  5-MIN KAOH 230015Z AUTO 02006KT 6SM BR FEW010 BKN026 OVC075 13/11 A2998 920 89 900 030/06 RMK AO2 T01280111
04850KAOH AOH20160422192012304/22/16 19:20:31  5-MIN KAOH 230020Z AUTO 02007KT 7SM FEW010 BKN026 OVC075 12/11 A2998 920 93 800 020/07 RMK AO2 T01220111
04850KAOH AOH20160422192512304/22/16 19:25:31  5-MIN KAOH 230025Z AUTO 02007KT 7SM FEW010 SCT026 OVC075 12/11 A2998 920 93 800 030/07 RMK AO2 T01220111
04850KAOH AOH20160422193012304/22/16 19:30:31  5-MIN KAOH 230030Z AUTO 02006KT 8SM FEW010 SCT026 OVC075 12/11 A2998 920 93 800 030/06 RMK AO2 T01220111
04850KAOH AOH20160422193512304/22/16 19:35:31  5-MIN KAOH 230035Z AUTO 02007KT 7SM SCT012 BKN026 OVC075 12/11 A2999 920 93 800 020/07 RMK AO2 T01220111
04850KAOH AOH20160422194012304/22/16 19:40:31  5-MIN KAOH 230040Z AUTO 02006KT 7SM SCT012 BKN024 OVC075 12/11 A2999 910 93 800 030/06 RMK AO2 T01220111
04850KAOH AOH20160422194512304/22/16 19:45:31  5-MIN KAOH 230045Z AUTO 02006KT 7SM SCT010 BKN014 OVC075 12/11 A2999 910 93 800 030/06 RMK AO2 T01220111
04850KAOH AOH20160422195013004/22/16 19:50:31  5-MIN KAOH 230050Z AUTO 03005KT 7SM BKN012 BKN019 OVC075 12/12 A2999 910 96 800 030/05 RMK AO2 SLP156 T01220117
04850KAOH AOH20160422195511904/22/16 19:55:31  5-MIN KAOH 230055Z AUTO 03005KT 6SM BR BKN012 OVC026 12/11 A2999 910 93 800 040/05 RMK AO2 T01220111
04850KAOH AOH20160422200013104/22/16 20:00:31  5-MIN KAOH 230100Z AUTO 04007KT 6SM BR BKN010 OVC015 12/11 A3000 910 93 800 050/07 RMK AO2 CIG 009V013 T01220111
04850KAOH AOH20160422200511204/22/16 20:05:31  5-MIN KAOH 230105Z AUTO 03008KT 6SM BR OVC010 12/11 A3000 910 93 800 040/08 RMK AO2 T01220111
04850KAOH AOH20160422201011204/22/16 20:10:31  5-MIN KAOH 230110Z AUTO 04008KT 6SM BR OVC010 12/11 A3000 900 93 800 050/08 RMK AO2 T01220111
04850KAOH AOH20160422201511904/22/16 20:15:31  5-MIN KAOH 230115Z AUTO 05008KT 6SM BR BKN012 OVC035 12/11 A3000 900 93 800 050/08 RMK AO2 T01220111
04850KAOH AOH20160422202013104/22/16 20:20:31  5-MIN KAOH 230120Z AUTO 05008KT 5SM BR BKN010 OVC015 12/11 A3000 900 93 800 060/08 RMK AO2 CIG 009V013 T01220111
04850KAOH AOH20160422202512604/22/16 20:25:31  5-MIN KAOH 230125Z AUTO 04007KT 5SM BR BKN013 BKN020 OVC036 12/11 A3000 900 93 800 040/07 RMK AO2 T01220111
04850KAOH AOH20160423063510804/23/16 06:35:31  5-MIN KAOH 231135Z AUTO 36008KT 10SM CLR 05/03 A3013 790 85 -100 010/08 RMK AO2 T00500028
04850KAOH AOH20160423064010804/23/16 06:40:31  5-MIN KAOH 231140Z AUTO 36008KT 10SM CLR 05/03 A3013 780 89 -100 010/08 RMK AO2 T00500033
04850KAOH AOH20160423064510804/23/16 06:45:31  5-MIN KAOH 231145Z AUTO 01009KT 10SM CLR 05/03 A3013 780 89 -200 020/09 RMK AO2 T00500033
04850KAOH AOH20160423065013904/23/16 06:50:31  5-MIN KAOH 231150Z AUTO 01007KT 10SM CLR 05/03 A3013 780 89 -100 020/07 RMK AO2 SLP207 70007 T00500033 10089 20044 53005
04850KAOH AOH20160423065510804/23/16 06:55:31  5-MIN KAOH 231155Z AUTO 02010KT 10SM CLR 05/03 A3014 780 85 -200 020/10 RMK AO2 T00500028
04850KAOH AOH20160423070010804/23/16 07:00:31  5-MIN KAOH 231200Z AUTO 01010KT 10SM CLR 05/03 A3014 780 85 -200 020/10 RMK AO2 T00500028
04850KAOH AOH20160423070510804/23/16 07:05:31  5-MIN KAOH 231205Z AUTO 02013KT 10SM CLR 05/03 A3014 780 85 -200 030/13 RMK AO2 T00500028
04850KAOH AOH20160423071010804/23/16 07:10:31  5-MIN KAOH 231210Z AUTO 02009KT 10SM CLR 05/03 A3014 770 85 -200 030/09 RMK AO2 T00500028
04850KAOH AOH20160423071510804/23/16 07:15:31  5-MIN KAOH 231215Z AUTO 03013KT 10SM CLR 06/02 A3014 770 79 -100 030/13 RMK AO2 T00560022
04850KAOH AOH20160423072010804/23/16 07:20:31  5-MIN KAOH 231220Z AUTO 03010KT 10SM CLR 06/03 A3014 770 82 -100 030/10 RMK AO2 T00560028
04850KAOH AOH20160423072510804/23/16 07:25:31  5-MIN KAOH 231225Z AUTO 01010KT 10SM CLR 06/03 A3015 770 82 -100 010/10 RMK AO2 T00560028
04850KAOH AOH20160423073010804/23/16 07:30:31  5-MIN KAOH 231230Z AUTO 01010KT 10SM CLR 06/03 A3015 770 85 -100 020/10 RMK AO2 T00560033
04850KAOH AOH20160423073510804/23/16 07:35:31  5-MIN KAOH 231235Z AUTO 03010KT 10SM CLR 06/03 A3015 770 82 -100 040/10 RMK AO2 T00560028
04850KAOH AOH20160423074011104/23/16 07:40:31  5-MIN KAOH 231240Z AUTO 03010KT 10SM FEW013 06/03 A3015 770 82 -100 040/10 RMK AO2 T00560028
04850KAOH AOH20160423074510804/23/16 07:45:31  5-MIN KAOH 231245Z AUTO 01009KT 10SM CLR 06/03 A3015 770 82 -100 020/09 RMK AO2 T00560028
04850KAOH AOH20160423075011504/23/16 07:50:31  5-MIN KAOH 231250Z AUTO 01011KT 10SM CLR 06/03 A3015 760 82 -100 020/11 RMK AO2 SLP214 T00560028
04850KAOH AOH20160423075510804/23/16 07:55:31  5-MIN KAOH 231255Z AUTO 03010KT 10SM CLR 06/03 A3016 760 82 -100 040/10 RMK AO2 T00560028
04850KAOH AOH20160423080010804/23/16 08:00:31  5-MIN KAOH 231300Z AUTO 03008KT 10SM FEW013 06/03 A3016 760 79 0 030/08 RMK AO2 T00610028
04850KAOH AOH20160423080511104/23/16 08:05:31  5-MIN KAOH 231305Z AUTO 05009KT 10SM SCT013 06/03 A3016 760 82 -100 050/09 RMK AO2 T00560028
04850KAOH AOH20160423081011104/23/16 08:10:31  5-MIN KAOH 231310Z AUTO 03007KT 10SM SCT013 06/03 A3016 760 82 -100 040/07 RMK AO2 T00560028
04850KAOH AOH20160423081510804/23/16 08:15:31  5-MIN KAOH 231315Z AUTO 36008KT 10SM BKN014 06/03 A3016 760 82 0 010/08 RMK AO2 T00610033
04850KAOH AOH20160423082010804/23/16 08:20:31  5-MIN KAOH 231320Z AUTO 04008KT 10SM BKN014 06/03 A3015 760 82 0 050/08 RMK AO2 T00610033
04850KAOH AOH20160423082510804/23/16 08:25:31  5-MIN KAOH 231325Z AUTO 05009KT 10SM BKN014 06/03 A3016 760 79 0 050/09 RMK AO2 T00610028
04850KAOH AOH20160423083010804/23/16 08:30:31  5-MIN KAOH 231330Z AUTO 03008KT 10SM BKN014 06/03 A3016 760 82 0 040/08 RMK AO2 T00610033
04850KAOH AOH20160423083510804/23/16 08:35:31  5-MIN KAOH 231335Z AUTO 03008KT 10SM BKN014 07/03 A3016 760 79 0 040/08 RMK AO2 T00670033
04850KAOH AOH20160423084010804/23/16 08:40:31  5-MIN KAOH 231340Z AUTO 02008KT 10SM BKN014 07/03 A3016 760 79 0 030/08 RMK AO2 T00670033
04850KAOH AOH20160423084510804/23/16 08:45:31  5-MIN KAOH 231345Z AUTO 05009KT 10SM SCT014 07/04 A3016 760 79 0 050/09 RMK AO2 T00720039
04850KAOH AOH20160423085009804/23/16 08:50:31  5-MIN KAOH 231350Z AUTO 05008KT 10SM SCT014 07/03 A3016 760 79 0 060/08 RMK AO2
04850KAOH AOH20160423085510804/23/16 08:55:31  5-MIN KAOH 231355Z AUTO 03006KT 10SM SCT014 07/04 A3016 760 79 0 040/06 RMK AO2 T00720039
04850KAOH AOH20160423090011004/23/16 09:00:31  5-MIN KAOH 231400Z AUTO 02009KT 10SM BKN014 08/04 A3016 750 79 100 020/09 RMK AO2 T00780044
04850KAOH AOH20160423090510804/23/16 09:05:31  5-MIN KAOH 231405Z AUTO 03008KT 10SM BKN015 07/04 A3017 750 82 0 030/08 RMK AO2 T00720044
04850KAOH AOH20160423091010804/23/16 09:10:31  5-MIN KAOH 231410Z AUTO 04008KT 10SM BKN015 07/04 A3017 750 82 0 040/08 RMK AO2 T00670039
04850KAOH AOH20160423091510804/23/16 09:15:31  5-MIN KAOH 231415Z AUTO 04008KT 10SM SCT015 07/04 A3017 750 79 0 040/08 RMK AO2 T00720039
04850KAOH AOH20160423092010804/23/16 09:20:31  5-MIN KAOH 231420Z AUTO VRB05KT 10SM BKN015 07/04 A3017 750 79 0 VRB/05 RMK AO2 T00720039
04850KAOH AOH20160423092510804/23/16 09:25:31  5-MIN KAOH 231425Z AUTO 02008KT 10SM BKN015 07/04 A3017 750 79 0 030/08 RMK AO2 T00720039
04850KAOH AOH20160423093010804/23/16 09:30:31  5-MIN KAOH 231430Z AUTO 03006KT 10SM SCT015 07/04 A3017 750 79 0 040/06 RMK AO2 T00720039
04850KAOH AOH20160423093510804/23/16 09:35:31  5-MIN KAOH 231435Z AUTO 04007KT 10SM SCT015 07/04 A3017 750 79 0 040/07 RMK AO2 T00720039
04850KAOH AOH20160423094010804/23/16 09:40:31  5-MIN KAOH 231440Z AUTO 02006KT 10SM BKN016 07/04 A3017 750 79 0 020/06 RMK AO2 T00720039
04850KAOH AOH20160423094510804/23/16 09:45:31  5-MIN KAOH 231445Z AUTO 02007KT 10SM BKN016 07/04 A3017 750 79 0 030/07 RMK AO2 T00720039
04850KAOH AOH20160423095012104/23/16 09:50:31  5-MIN KAOH 231450Z AUTO 01007KT 10SM BKN016 07/04 A3017 750 79 0 010/07 RMK AO2 SLP220 T00720039 53015
04850KAOH AOH20160423095510804/23/16 09:55:31  5-MIN KAOH 231455Z AUTO 01009KT 10SM BKN016 07/04 A3017 740 79 0 020/09 RMK AO2 T00720039
04850KAOH AOH20160423100011004/23/16 10:00:31  5-MIN KAOH 231500Z AUTO 03007KT 10SM BKN016 08/04 A3018 740 76 100 030/07 RMK AO2 T00780039
04850KAOH AOH20160423100511004/23/16 10:05:31  5-MIN KAOH 231505Z AUTO 04009KT 10SM BKN016 08/04 A3017 740 76 200 040/09 RMK AO2 T00830044
04850KAOH AOH20160423101011004/23/16 10:10:31  5-MIN KAOH 231510Z AUTO 05007KT 10SM BKN018 08/04 A3018 740 76 200 060/07 RMK AO2 T00830044
04850KAOH AOH20160423101511004/23/16 10:15:31  5-MIN KAOH 231515Z AUTO 02007KT 10SM BKN018 09/05 A3018 740 76 200 020/07 RMK AO2 T00890050
04850KAOH AOH20160423102011004/23/16 10:20:31  5-MIN KAOH 231520Z AUTO 04011KT 10SM BKN018 09/05 A3018 740 76 200 050/11 RMK AO2 T00890050
04850KAOH AOH20160423102512604/23/16 10:25:31  5-MIN KAOH 231525Z AUTO 03008KT 360V070 10SM BKN018 09/05 A3018 740 76 200 040/08 010V080 RMK AO2 T00890050
04850KAOH AOH20160423103011004/23/16 10:30:31  5-MIN KAOH 231530Z AUTO 04010KT 10SM BKN018 09/05 A3018 740 76 200 040/10 RMK AO2 T00890050
04850KAOH AOH20160423103511004/23/16 10:35:31  5-MIN KAOH 231535Z AUTO 01009KT 10SM BKN020 09/05 A3018 730 76 200 020/09 RMK AO2 T00890050
04850KAOH AOH20160423104011004/23/16 10:40:31  5-MIN KAOH 231540Z AUTO 04009KT 10SM BKN020 09/05 A3019 730 76 200 040/09 RMK AO2 T00890050
04850KAOH AOH20160423104511004/23/16 10:45:31  5-MIN KAOH 231545Z AUTO 02009KT 10SM OVC020 09/05 A3018 730 76 200 020/09 RMK AO2 T00890050
04850KAOH AOH20160423105011704/23/16 10:50:31  5-MIN KAOH 231550Z AUTO 03007KT 10SM OVC020 08/04 A3019 730 76 100 040/07 RMK AO2 SLP225 T00830044
04850KAOH AOH20160423105511004/23/16 10:55:31  5-MIN KAOH 231555Z AUTO 02009KT 10SM OVC020 08/04 A3019 730 76 100 020/09 RMK AO2 T00830044
04850KAOH AOH20160423110011004/23/16 11:00:31  5-MIN KAOH 231600Z AUTO 03008KT 10SM OVC020 09/04 A3019 730 73 200 040/08 RMK AO2 T00890044
04850KAOH AOH20160423110511004/23/16 11:05:31  5-MIN KAOH 231605Z AUTO 03006KT 10SM OVC020 09/05 A3019 730 76 200 040/06 RMK AO2 T00890050
04850KAOH AOH20160423111011004/23/16 11:10:31  5-MIN KAOH 231610Z AUTO 02007KT 10SM OVC021 09/05 A3019 730 74 300 030/07 RMK AO2 T00940050
04850KAOH AOH20160423111511004/23/16 11:15:31  5-MIN KAOH 231615Z AUTO 04005KT 10SM OVC021 09/05 A3018 730 74 300 050/05 RMK AO2 T00940050
04850KAOH AOH20160423112011004/23/16 11:20:31  5-MIN KAOH 231620Z AUTO 02008KT 10SM BKN021 09/05 A3018 730 74 300 030/08 RMK AO2 T00940050
04850KAOH AOH20160423112511004/23/16 11:25:31  5-MIN KAOH 231625Z AUTO 06006KT 10SM BKN021 09/05 A3018 740 74 300 070/06 RMK AO2 T00940050
04850KAOH AOH20160423113011004/23/16 11:30:31  5-MIN KAOH 231630Z AUTO VRB06KT 10SM SCT021 10/06 A3018 740 74 400 VRB/06 RMK AO2 T01000056
04850KAOH AOH20160423113511004/23/16 11:35:31  5-MIN KAOH 231635Z AUTO 02006KT 10SM SCT022 10/06 A3018 740 77 400 020/06 RMK AO2 T01000061
04850KAOH AOH20160423114011004/23/16 11:40:31  5-MIN KAOH 231640Z AUTO 03006KT 10SM BKN022 09/06 A3018 740 76 300 030/06 RMK AO2 T00940056
04850KAOH AOH20160423114511004/23/16 11:45:31  5-MIN KAOH 231645Z AUTO 36006KT 10SM BKN022 10/06 A3018 740 74 400 010/06 RMK AO2 T01000056
04850KAOH AOH20160423115011704/23/16 11:50:31  5-MIN KAOH 231650Z AUTO 02010KT 10SM SCT022 11/06 A3018 740 74 400 020/10 RMK AO2 SLP221 T01060061
04850KAOH AOH20160423115512604/23/16 11:55:31  5-MIN KAOH 231655Z AUTO 04008KT 360V070 10SM BKN022 10/05 A3018 740 71 400 040/08 010V080 RMK AO2 T01000050
04850KAOH AOH20160423120011004/23/16 12:00:31  5-MIN KAOH 231700Z AUTO 35007KT 10SM BKN022 10/05 A3018 740 71 400 360/07 RMK AO2 T01000050
04850KAOH AOH20160423120511004/23/16 12:05:31  5-MIN KAOH 231705Z AUTO 36008KT 10SM BKN022 10/06 A3018 740 74 400 010/08 RMK AO2 T01000056
04850KAOH AOH20160423121011004/23/16 12:10:31  5-MIN KAOH 231710Z AUTO 02006KT 10SM BKN023 11/06 A3018 740 71 400 020/06 RMK AO2 T01060056
04850KAOH AOH20160423121511004/23/16 12:15:31  5-MIN KAOH 231715Z AUTO 34009KT 10SM BKN023 11/06 A3017 740 71 400 350/09 RMK AO2 T01060056
04850KAOH AOH20160423122012604/23/16 12:20:31  5-MIN KAOH 231720Z AUTO 02009KT 350V050 10SM BKN023 10/06 A3017 740 74 400 020/09 360V060 RMK AO2 T01000056
04850KAOH AOH20160423122511004/23/16 12:25:31  5-MIN KAOH 231725Z AUTO VRB06KT 10SM SCT023 11/06 A3017 740 71 400 VRB/06 RMK AO2 T01060056
04850KAOH AOH20160423123011004/23/16 12:30:31  5-MIN KAOH 231730Z AUTO VRB06KT 10SM SCT023 11/06 A3017 740 68 500 VRB/06 RMK AO2 T01110056
04850KAOH AOH20160423123511004/23/16 12:35:31  5-MIN KAOH 231735Z AUTO VRB05KT 10SM FEW023 12/06 A3017 750 68 600 VRB/05 RMK AO2 T01170061
04850KAOH AOH20160423124011004/23/16 12:40:31  5-MIN KAOH 231740Z AUTO 01009KT 10SM FEW024 12/06 A3017 750 68 600 020/09 RMK AO2 T01170061
04850KAOH AOH20160423124511004/23/16 12:45:31  5-MIN KAOH 231745Z AUTO 02009KT 10SM FEW026 12/06 A3017 750 68 600 030/09 RMK AO2 T01170061
04850KAOH AOH20160423125013504/23/16 12:50:31  5-MIN KAOH 231750Z AUTO 03008KT 10SM SCT026 12/06 A3017 750 68 600 040/08 RMK AO2 SLP218 T01170061 10117 20050 53006
04850KAOH AOH20160423125511004/23/16 12:55:31  5-MIN KAOH 231755Z AUTO VRB06KT 10SM SCT027 12/06 A3017 750 68 600 VRB/06 RMK AO2 T01170061
04850KAOH AOH20160423130011004/23/16 13:00:31  5-MIN KAOH 231800Z AUTO 02008KT 10SM SCT027 12/07 A3017 750 68 600 030/08 RMK AO2 T01220067
04850KAOH AOH20160423130511004/23/16 13:05:31  5-MIN KAOH 231805Z AUTO 03010KT 10SM SCT028 12/06 A3016 750 66 600 040/10 RMK AO2 T01220061
04850KAOH AOH20160423131011004/23/16 13:10:31  5-MIN KAOH 231810Z AUTO 01009KT 10SM SCT028 13/07 A3016 760 66 700 010/09 RMK AO2 T01280067
04850KAOH AOH20160423131511004/23/16 13:15:31  5-MIN KAOH 231815Z AUTO 04007KT 10SM BKN030 12/06 A3016 750 66 600 050/07 RMK AO2 T01220061
04850KAOH AOH20160423132011004/23/16 13:20:31  5-MIN KAOH 231820Z AUTO 05009KT 10SM SCT030 13/07 A3016 750 66 700 060/09 RMK AO2 T01280067
04850KAOH AOH20160423132511604/23/16 13:25:31  5-MIN KAOH 231825Z AUTO 02009G16KT 10SM SCT030 12/06 A3016 760 66 600 020/09G16 RMK AO2 T01220061
04850KAOH AOH20160423133011004/23/16 13:30:31  5-MIN KAOH 231830Z AUTO 01008KT 10SM SCT030 13/06 A3016 760 63 700 020/08 RMK AO2 T01280061
04850KAOH AOH20160423133511604/23/16 13:35:31  5-MIN KAOH 231835Z AUTO 03013G17KT 10SM SCT031 13/06 A3016 760 63 700 030/13G17 RMK AO2 T01280061
04850KAOH AOH20160423134011604/23/16 13:40:31  5-MIN KAOH 231840Z AUTO 02007G17KT 10SM FEW031 13/06 A3016 760 61 700 030/07G17 RMK AO2 T01280056
04850KAOH AOH20160423134511004/23/16 13:45:31  5-MIN KAOH 231845Z AUTO VRB05KT 10SM FEW031 13/05 A3015 770 59 700 VRB/05 RMK AO2 T01280050
04850KAOH AOH20160423135011704/23/16 13:50:31  5-MIN KAOH 231850Z AUTO 07007KT 10SM FEW031 13/06 A3015 770 61 700 070/07 RMK AO2 SLP211 T01280056
04850KAOH AOH20160423135511604/23/16 13:55:31  5-MIN KAOH 231855Z AUTO 08009G15KT 10SM FEW033 13/06 A3015 770 59 800 080/09G15 RMK AO2 T01330056
04850KAOH AOH20160423140011304/23/16 14:00:31  5-MIN KAOH 231900Z AUTO 03007G15KT 10SM CLR 13/06 A3015 770 61 800 040/07G15 RMK AO2 T01330061
04850KAOH AOH20160423140512304/23/16 14:05:31  5-MIN KAOH 231905Z AUTO 03008KT 010V070 10SM CLR 14/07 A3015 770 61 900 040/08 020V080 RMK AO2 T01390067
04850KAOH AOH20160423141010704/23/16 14:10:31  5-MIN KAOH 231910Z AUTO 06007KT 10SM CLR 14/07 A3014 770 61 900 070/07 RMK AO2 T01390067
04850KAOH AOH20160423141510704/23/16 14:15:31  5-MIN KAOH 231915Z AUTO 06009KT 10SM CLR 14/07 A3014 770 61 900 070/09 RMK AO2 T01390067
04850KAOH AOH20160423142010704/23/16 14:20:31  5-MIN KAOH 231920Z AUTO 09005KT 10SM CLR 14/06 A3014 770 57 900 100/05 RMK AO2 T01390056
04850KAOH AOH20160423142510704/23/16 14:25:31  5-MIN KAOH 231925Z AUTO 06011KT 10SM CLR 14/06 A3014 770 59 900 060/11 RMK AO2 T01390061
04850KAOH AOH20160423143010704/23/16 14:30:31  5-MIN KAOH 231930Z AUTO 07009KT 10SM CLR 14/06 A3014 770 57 900 070/09 RMK AO2 T01390056
04850KAOH AOH20160423143510704/23/16 14:35:31  5-MIN KAOH 231935Z AUTO VRB04KT 10SM CLR 13/06 A3014 780 59 800 VRB/04 RMK AO2 T01330056
04850KAOH AOH20160423144009704/23/16 14:40:31  5-MIN KAOH 231940Z AUTO 10SM CLR 14/06 A3014 780 57 900 M /M RMK AO2 T01390056
04850KAOH AOH20160423144510704/23/16 14:45:31  5-MIN KAOH 231945Z AUTO 08008KT 10SM CLR 14/06 A3014 780 57 900 080/08 RMK AO2 T01390056
04850KAOH AOH20160423145011404/23/16 14:50:31  5-MIN KAOH 231950Z AUTO 07009KT 10SM CLR 14/06 A3014 780 57 900 070/09 RMK AO2 SLP208 T01390056
04850KAOH AOH20160423145510704/23/16 14:55:31  5-MIN KAOH 231955Z AUTO 07008KT 10SM CLR 14/05 A3014 780 55 900 080/08 RMK AO2 T01390050
04850KAOH AOH20160423150011304/23/16 15:00:31  5-MIN KAOH 232000Z AUTO 04007G15KT 10SM CLR 14/06 A3014 780 57 900 050/07G15 RMK AO2 T01390056
04850KAOH AOH20160423150511304/23/16 15:05:31  5-MIN KAOH 232005Z AUTO VRB04G15KT 10SM CLR 13/05 A3014 780 57 800 VRB/04G15 RMK AO2 T01330050
04850KAOH AOH20160423151010704/23/16 15:10:31  5-MIN KAOH 232010Z AUTO 02010KT 10SM CLR 14/06 A3014 780 57 900 030/10 RMK AO2 T01440061
04850KAOH AOH20160423151510704/23/16 15:15:31  5-MIN KAOH 232015Z AUTO 03008KT 10SM CLR 14/05 A3014 780 55 900 040/08 RMK AO2 T01390050
04850KAOH AOH20160423152010704/23/16 15:20:31  5-MIN KAOH 232020Z AUTO 36005KT 10SM CLR 14/05 A3014 780 55 900 010/05 RMK AO2 T01390050
04850KAOH AOH20160423152510704/23/16 15:25:31  5-MIN KAOH 232025Z AUTO 07008KT 10SM CLR 14/05 A3013 780 55 900 080/08 RMK AO2 T01390050
04850KAOH AOH20160423153010704/23/16 15:30:31  5-MIN KAOH 232030Z AUTO 04009KT 10SM CLR 14/04 A3013 780 51 900 040/09 RMK AO2 T01440044
04850KAOH AOH20160423153510704/23/16 15:35:31  5-MIN KAOH 232035Z AUTO 03006KT 10SM CLR 14/05 A3013 780 55 900 040/06 RMK AO2 T01390050
04850KAOH AOH20160423154010704/23/16 15:40:31  5-MIN KAOH 232040Z AUTO 06011KT 10SM CLR 14/04 A3013 780 51 900 070/11 RMK AO2 T01440044
04850KAOH AOH20160423154510704/23/16 15:45:31  5-MIN KAOH 232045Z AUTO 05007KT 10SM CLR 14/04 A3013 780 52 900 060/07 RMK AO2 T01390044
04850KAOH AOH20160423155012004/23/16 15:50:31  5-MIN KAOH 232050Z AUTO 03007KT 10SM CLR 14/05 A3013 790 55 900 040/07 RMK AO2 SLP204 T01390050 58002
04850KAOH AOH20160423155510704/23/16 15:55:31  5-MIN KAOH 232055Z AUTO 07011KT 10SM CLR 14/04 A3013 790 52 900 070/11 RMK AO2 T01390044
04850KAOH AOH20160423160010704/23/16 16:00:31  5-MIN KAOH 232100Z AUTO 05009KT 10SM CLR 14/04 A3013 790 52 900 060/09 RMK AO2 T01390044
04850KAOH AOH20160423160510704/23/16 16:05:31  5-MIN KAOH 232105Z AUTO 06009KT 10SM CLR 14/04 A3013 780 50 900 070/09 RMK AO2 T01390039
04850KAOH AOH20160423161010704/23/16 16:10:31  5-MIN KAOH 232110Z AUTO 06006KT 10SM CLR 14/04 A3013 780 50 900 070/06 RMK AO2 T01390039
04850KAOH AOH20160423161510704/23/16 16:15:31  5-MIN KAOH 232115Z AUTO 07009KT 10SM CLR 14/04 A3013 790 49 900 080/09 RMK AO2 T01440039
04850KAOH AOH20160423162010704/23/16 16:20:31  5-MIN KAOH 232120Z AUTO 06008KT 10SM CLR 14/03 A3013 790 48 900 070/08 RMK AO2 T01390033
04850KAOH AOH20160423162510704/23/16 16:25:31  5-MIN KAOH 232125Z AUTO 06008KT 10SM CLR 14/04 A3013 790 50 900 070/08 RMK AO2 T01390039
04850KAOH AOH20160423163010704/23/16 16:30:31  5-MIN KAOH 232130Z AUTO 08007KT 10SM CLR 14/05 A3013 780 53 900 090/07 RMK AO2 T01440050
04850KAOH AOH20160423163510704/23/16 16:35:31  5-MIN KAOH 232135Z AUTO 06010KT 10SM CLR 14/04 A3013 780 50 900 060/10 RMK AO2 T01390039
04850KAOH AOH20160423164010704/23/16 16:40:31  5-MIN KAOH 232140Z AUTO 07008KT 10SM CLR 14/03 A3012 790 48 900 080/08 RMK AO2 T01390033
04850KAOH AOH20160423164510704/23/16 16:45:31  5-MIN KAOH 232145Z AUTO 09008KT 10SM CLR 14/03 A3012 790 48 900 090/08 RMK AO2 T01390033
04850KAOH AOH20160423165011404/23/16 16:50:31  5-MIN KAOH 232150Z AUTO 07008KT 10SM CLR 14/03 A3013 790 48 900 080/08 RMK AO2 SLP203 T01390033
04850KAOH AOH20160423165510704/23/16 16:55:31  5-MIN KAOH 232155Z AUTO 05008KT 10SM CLR 14/03 A3013 780 47 900 050/08 RMK AO2 T01390028
04850KAOH AOH20160423170010704/23/16 17:00:31  5-MIN KAOH 232200Z AUTO 05006KT 10SM CLR 14/03 A3013 780 48 900 050/06 RMK AO2 T01390033
04850KAOH AOH20160423170510704/23/16 17:05:31  5-MIN KAOH 232205Z AUTO 06011KT 10SM CLR 14/03 A3013 790 48 900 070/11 RMK AO2 T01390033
04850KAOH AOH20160423171010704/23/16 17:10:31  5-MIN KAOH 232210Z AUTO 03009KT 10SM CLR 14/03 A3013 790 48 900 040/09 RMK AO2 T01390033
04850KAOH AOH20160423171510704/23/16 17:15:31  5-MIN KAOH 232215Z AUTO 04008KT 10SM CLR 13/03 A3013 790 48 800 050/08 RMK AO2 T01330028
04850KAOH AOH20160423172010704/23/16 17:20:31  5-MIN KAOH 232220Z AUTO 06009KT 10SM CLR 13/03 A3012 790 50 800 070/09 RMK AO2 T01330033
04850KAOH AOH20160423172510704/23/16 17:25:31  5-MIN KAOH 232225Z AUTO 07010KT 10SM CLR 13/03 A3013 790 48 800 070/10 RMK AO2 T01330028
04850KAOH AOH20160423173010704/23/16 17:30:31  5-MIN KAOH 232230Z AUTO 05006KT 10SM CLR 13/03 A3012 790 48 800 050/06 RMK AO2 T01330028
04850KAOH AOH20160423173510704/23/16 17:35:31  5-MIN KAOH 232235Z AUTO 07011KT 10SM CLR 13/03 A3012 790 48 800 080/11 RMK AO2 T01330028
04850KAOH AOH20160423174010704/23/16 17:40:31  5-MIN KAOH 232240Z AUTO 07008KT 10SM CLR 13/03 A3012 790 48 800 080/08 RMK AO2 T01330028
04850KAOH AOH20160423174510704/23/16 17:45:31  5-MIN KAOH 232245Z AUTO 06009KT 10SM CLR 13/03 A3012 790 48 800 070/09 RMK AO2 T01330028
04850KAOH AOH20160423175011404/23/16 17:50:31  5-MIN KAOH 232250Z AUTO 04009KT 10SM CLR 13/02 A3012 790 46 800 050/09 RMK AO2 SLP202 T01330022
04850KAOH AOH20160423175510704/23/16 17:55:31  5-MIN KAOH 232255Z AUTO 06008KT 10SM CLR 13/02 A3012 790 46 800 060/08 RMK AO2 T01280017
04850KAOH AOH20160423180010704/23/16 18:00:31  5-MIN KAOH 232300Z AUTO 06008KT 10SM CLR 13/02 A3012 800 48 800 070/08 RMK AO2 T01280022
04850KAOH AOH20160423180510704/23/16 18:05:31  5-MIN KAOH 232305Z AUTO 07008KT 10SM CLR 13/03 A3012 790 50 800 080/08 RMK AO2 T01280028
04850KAOH AOH20160423181010704/23/16 18:10:31  5-MIN KAOH 232310Z AUTO 06006KT 10SM CLR 13/02 A3012 790 48 800 060/06 RMK AO2 T01280022
04850KAOH AOH20160423181510704/23/16 18:15:31  5-MIN KAOH 232315Z AUTO 06006KT 10SM CLR 12/02 A3012 800 50 700 070/06 RMK AO2 T01220022
04850KAOH AOH20160423182010704/23/16 18:20:31  5-MIN KAOH 232320Z AUTO 06008KT 10SM CLR 12/02 A3012 800 52 600 060/08 RMK AO2 T01170022
04850KAOH AOH20160423182510704/23/16 18:25:31  5-MIN KAOH 232325Z AUTO 06007KT 10SM CLR 12/02 A3011 800 52 600 070/07 RMK AO2 T01170022
04850KAOH AOH20160423183010704/23/16 18:30:31  5-MIN KAOH 232330Z AUTO 06008KT 10SM CLR 12/02 A3011 800 52 600 070/08 RMK AO2 T01170022
04850KAOH AOH20160423183510704/23/16 18:35:31  5-MIN KAOH 232335Z AUTO 07006KT 10SM CLR 11/03 A3011 810 56 600 070/06 RMK AO2 T01110028
04850KAOH AOH20160423184010704/23/16 18:40:31  5-MIN KAOH 232340Z AUTO 07008KT 10SM CLR 12/02 A3011 810 52 600 070/08 RMK AO2 T01170022
04850KAOH AOH20160423184510704/23/16 18:45:31  5-MIN KAOH 232345Z AUTO 06006KT 10SM CLR 12/02 A3011 800 52 600 070/06 RMK AO2 T01170022
04850KAOH AOH20160423185013204/23/16 18:50:31  5-MIN KAOH 232350Z AUTO 06006KT 10SM CLR 11/02 A3011 800 54 600 070/06 RMK AO2 SLP200 T01110022 10144 20111 56013
04850KAOH AOH20160423185510704/23/16 18:55:31  5-MIN KAOH 232355Z AUTO 06005KT 10SM CLR 11/02 A3011 800 54 600 070/05 RMK AO2 T01110022
04850KAOH AOH20160423190010704/23/16 19:00:31  5-MIN KAOH 240000Z AUTO 06005KT 10SM CLR 11/02 A3011 800 56 500 070/05 RMK AO2 T01060022
04850KAOH AOH20160423190510704/23/16 19:05:31  5-MIN KAOH 240005Z AUTO 06005KT 10SM CLR 11/02 A3011 800 56 500 070/05 RMK AO2 T01060022
04850KAOH AOH20160423191010704/23/16 19:10:31  5-MIN KAOH 240010Z AUTO 06004KT 10SM CLR 11/02 A3011 800 56 500 070/04 RMK AO2 T01060022
04850KAOH AOH20160423191510704/23/16 19:15:31  5-MIN KAOH 240015Z AUTO 07004KT 10SM CLR 10/03 A3011 800 60 400 070/04 RMK AO2 T01000028
04850KAOH AOH20160423192010704/23/16 19:20:31  5-MIN KAOH 240020Z AUTO 07004KT 10SM CLR 10/04 A3011 800 65 400 080/04 RMK AO2 T01000039
04850KAOH AOH20160423192510704/23/16 19:25:31  5-MIN KAOH 240025Z AUTO 07005KT 10SM CLR 09/04 A3011 800 68 400 080/05 RMK AO2 T00940039
04850KAOH AOH20160423193010704/23/16 19:30:31  5-MIN KAOH 240030Z AUTO 07005KT 10SM CLR 09/04 A3011 800 68 400 080/05 RMK AO2 T00940039
04850KAOH AOH20160423193510704/23/16 19:35:31  5-MIN KAOH 240035Z AUTO 07005KT 10SM CLR 09/03 A3011 800 68 300 070/05 RMK AO2 T00890033
04850KAOH AOH20160423194010704/23/16 19:40:31  5-MIN KAOH 240040Z AUTO 07005KT 10SM CLR 09/03 A3011 800 68 300 080/05 RMK AO2 T00890033
04850KAOH AOH20160423194510704/23/16 19:45:31  5-MIN KAOH 240045Z AUTO 07005KT 10SM CLR 09/03 A3011 800 68 300 080/05 RMK AO2 T00890033
04850KAOH AOH20160423195011404/23/16 19:50:31  5-MIN KAOH 240050Z AUTO 07005KT 10SM CLR 09/03 A3011 800 68 300 080/05 RMK AO2 SLP201 T00890033
04850KAOH AOH20160423195510704/23/16 19:55:31  5-MIN KAOH 240055Z AUTO 07005KT 10SM CLR 08/03 A3011 800 68 200 080/05 RMK AO2 T00830028
04850KAOH AOH20160423200010704/23/16 20:00:31  5-MIN KAOH 240100Z AUTO 08005KT 10SM CLR 08/03 A3011 800 68 200 080/05 RMK AO2 T00830028
04850KAOH AOH20160423200510704/23/16 20:05:31  5-MIN KAOH 240105Z AUTO 07004KT 10SM CLR 08/03 A3012 800 68 200 080/04 RMK AO2 T00830028
04850KAOH AOH20160423201010704/23/16 20:10:31  5-MIN KAOH 240110Z AUTO 07004KT 10SM CLR 09/02 A3012 800 63 300 080/04 RMK AO2 T00890022
04850KAOH AOH20160423201510704/23/16 20:15:31  5-MIN KAOH 240115Z AUTO 07004KT 10SM CLR 09/02 A3012 800 63 300 080/04 RMK AO2 T00890022
04850KAOH AOH20160423202010704/23/16 20:20:31  5-MIN KAOH 240120Z AUTO 07004KT 10SM CLR 08/03 A3012 800 68 200 070/04 RMK AO2 T00830028
04850KAOH AOH20160423202510704/23/16 20:25:31  5-MIN KAOH 240125Z AUTO 07004KT 10SM CLR 08/02 A3012 790 65 200 080/04 RMK AO2 T00830022
04850KAOH AOH20160423203010704/23/16 20:30:31  5-MIN KAOH 240130Z AUTO 08004KT 10SM CLR 09/02 A3012 790 63 300 080/04 RMK AO2 T00890022
04850KAOH AOH20160423203510704/23/16 20:35:31  5-MIN KAOH 240135Z AUTO 09004KT 10SM CLR 08/03 A3012 790 68 200 090/04 RMK AO2 T00830028
04850KAOH AOH20160423204010704/23/16 20:40:31  5-MIN KAOH 240140Z AUTO 08003KT 10SM CLR 08/03 A3012 790 68 200 090/03 RMK AO2 T00830028
04850KAOH AOH20160423204510704/23/16 20:45:31  5-MIN KAOH 240145Z AUTO 08004KT 10SM CLR 08/03 A3012 790 68 200 090/04 RMK AO2 T00830028
04850KAOH AOH20160423205011404/23/16 20:50:31  5-MIN KAOH 240150Z AUTO 08004KT 10SM CLR 08/03 A3012 790 68 200 090/04 RMK AO2 SLP203 T00830028
04850KAOH AOH20160423205510704/23/16 20:55:31  5-MIN KAOH 240155Z AUTO 08005KT 10SM CLR 08/03 A3012 800 68 200 090/05 RMK AO2 T00830028
04850KAOH AOH20160423210010704/23/16 21:00:31  5-MIN KAOH 240200Z AUTO 07006KT 10SM CLR 07/03 A3012 800 76 100 080/06 RMK AO2 T00720033
04850KAOH AOH20160423210510504/23/16 21:05:31  5-MIN KAOH 240205Z AUTO 07006KT 10SM CLR 07/03 A3012 800 76 0 080/06 RMK AO2 T00670028
04850KAOH AOH20160423211010704/23/16 21:10:31  5-MIN KAOH 240210Z AUTO 07006KT 10SM CLR 07/03 A3012 800 73 100 080/06 RMK AO2 T00720028
04850KAOH AOH20160423211510504/23/16 21:15:31  5-MIN KAOH 240215Z AUTO 07005KT 10SM CLR 07/03 A3012 800 76 0 080/05 RMK AO2 T00670028
04850KAOH AOH20160423212010704/23/16 21:20:31  5-MIN KAOH 240220Z AUTO 08005KT 10SM CLR 07/03 A3012 790 73 100 080/05 RMK AO2 T00720028
04850KAOH AOH20160423212510704/23/16 21:25:31  5-MIN KAOH 240225Z AUTO 08005KT 10SM CLR 07/03 A3012 790 73 100 090/05 RMK AO2 T00720028
04850KAOH AOH20160423213010704/23/16 21:30:31  5-MIN KAOH 240230Z AUTO 08005KT 10SM CLR 07/03 A3012 800 73 100 090/05 RMK AO2 T00720028
04850KAOH AOH20160423213510704/23/16 21:35:31  5-MIN KAOH 240235Z AUTO 08005KT 10SM CLR 07/03 A3012 800 73 100 080/05 RMK AO2 T00720028
04850KAOH AOH20160423214010704/23/16 21:40:31  5-MIN KAOH 240240Z AUTO 07005KT 10SM CLR 07/02 A3012 800 70 100 080/05 RMK AO2 T00720022
04850KAOH AOH20160423214510504/23/16 21:45:31  5-MIN KAOH 240245Z AUTO 09004KT 10SM CLR 07/02 A3012 790 73 0 090/04 RMK AO2 T00670022
04850KAOH AOH20160423215011804/23/16 21:50:31  5-MIN KAOH 240250Z AUTO 08005KT 10SM CLR 07/02 A3012 800 70 0 090/05 RMK AO2 SLP203 T00670017 58006
04850KAOH AOH20160423215510504/23/16 21:55:31  5-MIN KAOH 240255Z AUTO 09005KT 10SM CLR 07/02 A3012 800 73 0 090/05 RMK AO2 T00670022
04850KAOH AOH20160423220010504/23/16 22:00:31  5-MIN KAOH 240300Z AUTO 09006KT 10SM CLR 07/02 A3011 800 70 0 100/06 RMK AO2 T00670017
04850KAOH AOH20160423220510504/23/16 22:05:31  5-MIN KAOH 240305Z AUTO 09006KT 10SM CLR 06/02 A3011 800 73 0 100/06 RMK AO2 T00610017
04850KAOH AOH20160423221010804/23/16 22:10:31  5-MIN KAOH 240310Z AUTO 09006KT 10SM CLR 06/02 A3011 800 76 -100 100/06 RMK AO2 T00560017
04850KAOH AOH20160423221510804/23/16 22:15:31  5-MIN KAOH 240315Z AUTO 09006KT 10SM CLR 06/02 A3011 800 76 -100 090/06 RMK AO2 T00560017
04850KAOH AOH20160423222010804/23/16 22:20:31  5-MIN KAOH 240320Z AUTO 09005KT 10SM CLR 06/02 A3011 800 76 -100 090/05 RMK AO2 T00560017
04850KAOH AOH20160423222510504/23/16 22:25:31  5-MIN KAOH 240325Z AUTO 09005KT 10SM CLR 06/02 A3011 800 73 0 100/05 RMK AO2 T00610017
04850KAOH AOH20160423223010504/23/16 22:30:31  5-MIN KAOH 240330Z AUTO 09006KT 10SM CLR 06/02 A3011 800 73 0 100/06 RMK AO2 T00610017
04850KAOH AOH20160423223510804/23/16 22:35:31  5-MIN KAOH 240335Z AUTO 08006KT 10SM CLR 06/02 A3011 800 76 -100 090/06 RMK AO2 T00560017
04850KAOH AOH20160423224010804/23/16 22:40:31  5-MIN KAOH 240340Z AUTO 09006KT 10SM CLR 06/02 A3011 800 76 -100 090/06 RMK AO2 T00560017
04850KAOH AOH20160423224510804/23/16 22:45:31  5-MIN KAOH 240345Z AUTO 08006KT 10SM CLR 06/02 A3011 800 76 -100 090/06 RMK AO2 T00560017
04850KAOH AOH20160423225011504/23/16 22:50:31  5-MIN KAOH 240350Z AUTO 09006KT 10SM CLR 06/02 A3011 800 76 -100 090/06 RMK AO2 SLP200 T00560017
04850KAOH AOH20160423225510804/23/16 22:55:31  5-MIN KAOH 240355Z AUTO 09006KT 10SM CLR 06/02 A3011 800 76 -100 090/06 RMK AO2 T00560017
04850KAOH AOH20160423230010804/23/16 23:00:31  5-MIN KAOH 240400Z AUTO 09006KT 10SM CLR 05/02 A3011 800 79 -100 100/06 RMK AO2 T00500017
04850KAOH AOH20160423230510804/23/16 23:05:31  5-MIN KAOH 240405Z AUTO 09006KT 10SM CLR 05/02 A3011 800 79 -100 090/06 RMK AO2 T00500017
04850KAOH AOH20160423231010804/23/16 23:10:31  5-MIN KAOH 240410Z AUTO 09006KT 10SM CLR 05/02 A3011 800 79 -100 090/06 RMK AO2 T00500017
04850KAOH AOH20160423231510804/23/16 23:15:31  5-MIN KAOH 240415Z AUTO 09006KT 10SM CLR 05/02 A3011 800 79 -100 100/06 RMK AO2 T00500017
04850KAOH AOH20160423232010804/23/16 23:20:31  5-MIN KAOH 240420Z AUTO 08006KT 10SM CLR 05/02 A3011 800 79 -100 090/06 RMK AO2 T00500017
04850KAOH AOH20160423232510804/23/16 23:25:31  5-MIN KAOH 240425Z AUTO 08006KT 10SM CLR 05/02 A3011 800 79 -100 090/06 RMK AO2 T00500017
04850KAOH AOH20160423233010804/23/16 23:30:31  5-MIN KAOH 240430Z AUTO 09006KT 10SM CLR 05/02 A3011 800 79 -100 090/06 RMK AO2 T00500017
04850KAOH AOH20160423233510804/23/16 23:35:31  5-MIN KAOH 240435Z AUTO 08006KT 10SM CLR 04/02 A3011 800 82 -200 090/06 RMK AO2 T00440017
04850KAOH AOH20160423234010804/23/16 23:40:31  5-MIN KAOH 240440Z AUTO 08005KT 10SM CLR 04/02 A3011 800 82 -200 090/05 RMK AO2 T00440017
04850KAOH AOH20160423234510804/23/16 23:45:31  5-MIN KAOH 240445Z AUTO 08006KT 10SM CLR 05/02 A3011 800 79 -100 090/06 RMK AO2 T00500017
04850KAOH AOH20160423235012504/23/16 23:50:31  5-MIN KAOH 240450Z AUTO 08005KT 10SM CLR 04/01 A3011 800 79 -200 080/05 RMK AO2 SLP200 T00440011 401440039
04850KAOH AOH20160423235510804/23/16 23:55:31  5-MIN KAOH 240455Z AUTO 07006KT 10SM CLR 04/01 A3011 800 79 -200 080/06 RMK AO2 T00440011
04850KAOH AOH20160424000010804/24/16 00:00:31  5-MIN KAOH 240500Z AUTO 07007KT 10SM CLR 05/01 A3011 800 76 -100 080/07 RMK AO2 T00500011
04850KAOH AOH20160424000510804/24/16 00:05:31  5-MIN KAOH 240505Z AUTO 08006KT 10SM CLR 04/01 A3011 800 79 -200 080/06 RMK AO2 T00440011
04850KAOH AOH20160424001010804/24/16 00:10:31  5-MIN KAOH 240510Z AUTO 08006KT 10SM CLR 05/01 A3011 800 76 -100 090/06 RMK AO2 T00500011
04850KAOH AOH20160424001510804/24/16 00:15:31  5-MIN KAOH 240515Z AUTO 09005KT 10SM CLR 06/01 A3011 800 73 -100 090/05 RMK AO2 T00560011
04850KAOH AOH20160424002010804/24/16 00:20:31  5-MIN KAOH 240520Z AUTO 09006KT 10SM CLR 05/01 A3011 800 73 -100 090/06 RMK AO2 T00500006
04850KAOH AOH20160424002510804/24/16 00:25:31  5-MIN KAOH 240525Z AUTO 09004KT 10SM CLR 04/01 A3011 800 76 -200 100/04 RMK AO2 T00440006
04850KAOH AOH20160424003010804/24/16 00:30:31  5-MIN KAOH 240530Z AUTO 09005KT 10SM CLR 04/01 A3011 800 76 -200 100/05 RMK AO2 T00440006
04850KAOH AOH20160424003510804/24/16 00:35:31  5-MIN KAOH 240535Z AUTO 09005KT 10SM CLR 04/01 A3011 800 76 -200 100/05 RMK AO2 T00440006
04850KAOH AOH20160424004010804/24/16 00:40:31  5-MIN KAOH 240540Z AUTO 09006KT 10SM CLR 05/01 A3011 800 73 -100 100/06 RMK AO2 T00500006
04850KAOH AOH20160424004510804/24/16 00:45:31  5-MIN KAOH 240545Z AUTO 11005KT 10SM CLR 05/01 A3011 800 73 -100 110/05 RMK AO2 T00500006
04850KAOH AOH20160424005013304/24/16 00:50:31  5-MIN KAOH 240550Z AUTO 11005KT 10SM CLR 06/01 A3011 800 70 -100 120/05 RMK AO2 SLP199 T00560006 10111 20039 50003
04850KAOH AOH20160424005510804/24/16 00:55:31  5-MIN KAOH 240555Z AUTO 13005KT 10SM CLR 05/01 A3011 800 76 -100 140/05 RMK AO2 T00500011
04850KAOH AOH20160424010010804/24/16 01:00:31  5-MIN KAOH 240600Z AUTO 13006KT 10SM CLR 05/01 A3011 800 73 -100 140/06 RMK AO2 T00500006
04850KAOH AOH20160424010510804/24/16 01:05:31  5-MIN KAOH 240605Z AUTO 13005KT 10SM CLR 05/01 A3011 810 73 -100 140/05 RMK AO2 T00500006
04850KAOH AOH20160424011010804/24/16 01:10:31  5-MIN KAOH 240610Z AUTO 13006KT 10SM CLR 05/01 A3010 810 73 -100 130/06 RMK AO2 T00500006
04850KAOH AOH20160424011510804/24/16 01:15:31  5-MIN KAOH 240615Z AUTO 12005KT 10SM CLR 05/01 A3010 810 73 -100 130/05 RMK AO2 T00500006
04850KAOH AOH20160424012010804/24/16 01:20:31  5-MIN KAOH 240620Z AUTO 12005KT 10SM CLR 05/01 A3010 810 73 -100 120/05 RMK AO2 T00500006
04850KAOH AOH20160424012510804/24/16 01:25:31  5-MIN KAOH 240625Z AUTO 11005KT 10SM CLR 05/01 A3010 810 73 -100 120/05 RMK AO2 T00500006
04850KAOH AOH20160424013010804/24/16 01:30:31  5-MIN KAOH 240630Z AUTO 10006KT 10SM CLR 04/01 A3010 810 76 -200 110/06 RMK AO2 T00440006
04850KAOH AOH20160424013510804/24/16 01:35:31  5-MIN KAOH 240635Z AUTO 10006KT 10SM CLR 04/01 A3010 810 76 -200 110/06 RMK AO2 T00440006
04850KAOH AOH20160424014010804/24/16 01:40:31  5-MIN KAOH 240640Z AUTO 10007KT 10SM CLR 04/01 A3010 810 76 -200 100/07 RMK AO2 T00440006
04850KAOH AOH20160424014510804/24/16 01:45:31  5-MIN KAOH 240645Z AUTO 10005KT 10SM CLR 04/01 A3010 810 76 -200 110/05 RMK AO2 T00440006
04850KAOH AOH20160424015011504/24/16 01:50:31  5-MIN KAOH 240650Z AUTO 10005KT 10SM CLR 04/01 A3010 810 76 -200 110/05 RMK AO2 SLP195 T00440006
04850KAOH AOH20160424015510804/24/16 01:55:31  5-MIN KAOH 240655Z AUTO 10006KT 10SM CLR 04/01 A3010 810 76 -200 110/06 RMK AO2 T00440006
04850KAOH AOH20160424020010804/24/16 02:00:31  5-MIN KAOH 240700Z AUTO 10007KT 10SM CLR 04/01 A3010 810 76 -200 100/07 RMK AO2 T00440006
04850KAOH AOH20160424020510804/24/16 02:05:31  5-MIN KAOH 240705Z AUTO 10006KT 10SM CLR 04/01 A3010 810 79 -200 100/06 RMK AO2 T00390006
04850KAOH AOH20160424021010804/24/16 02:10:31  5-MIN KAOH 240710Z AUTO 09005KT 10SM CLR 04/01 A3010 810 79 -200 100/05 RMK AO2 T00390006
04850KAOH AOH20160424021510804/24/16 02:15:31  5-MIN KAOH 240715Z AUTO 09005KT 10SM CLR 04/01 A3010 810 79 -200 090/05 RMK AO2 T00390006
04850KAOH AOH20160424022010804/24/16 02:20:31  5-MIN KAOH 240720Z AUTO 09005KT 10SM CLR 04/01 A3010 810 76 -200 090/05 RMK AO2 T00440006
04850KAOH AOH20160424022510804/24/16 02:25:31  5-MIN KAOH 240725Z AUTO 09005KT 10SM CLR 04/01 A3010 810 79 -200 090/05 RMK AO2 T00390006
04850KAOH AOH20160424023010804/24/16 02:30:31  5-MIN KAOH 240730Z AUTO 10005KT 10SM CLR 04/00 A3010 810 76 -200 100/05 RMK AO2 T00390000
04850KAOH AOH20160424023510804/24/16 02:35:31  5-MIN KAOH 240735Z AUTO 10006KT 10SM CLR 04/00 A3010 810 76 -200 110/06 RMK AO2 T00390000
04850KAOH AOH20160424024010804/24/16 02:40:31  5-MIN KAOH 240740Z AUTO 10006KT 10SM CLR 04/00 A3010 820 73 -200 110/06 RMK AO2 T00440000
04850KAOH AOH20160424024510804/24/16 02:45:31  5-MIN KAOH 240745Z AUTO 09007KT 10SM CLR 04/00 A3010 810 76 -200 100/07 RMK AO2 T00390000
04850KAOH AOH20160424025011504/24/16 02:50:31  5-MIN KAOH 240750Z AUTO 09005KT 10SM CLR 04/01 A3010 810 79 -200 100/05 RMK AO2 SLP196 T00390006
04850KAOH AOH20160424025510804/24/16 02:55:31  5-MIN KAOH 240755Z AUTO 10005KT 10SM CLR 04/01 A3010 810 79 -200 110/05 RMK AO2 T00390006
04850KAOH AOH20160424030010804/24/16 03:00:31  5-MIN KAOH 240800Z AUTO 10005KT 10SM CLR 04/00 A3010 810 76 -300 110/05 RMK AO2 T00390000
04850KAOH AOH20160424030510804/24/16 03:05:31  5-MIN KAOH 240805Z AUTO 09005KT 10SM CLR 04/01 A3011 810 79 -300 100/05 RMK AO2 T00390006
04850KAOH AOH20160424031010804/24/16 03:10:31  5-MIN KAOH 240810Z AUTO 11005KT 10SM CLR 04/00 A3011 810 73 -200 110/05 RMK AO2 T00440000
04850KAOH AOH20160424031510804/24/16 03:15:31  5-MIN KAOH 240815Z AUTO 11005KT 10SM CLR 04/00 A3011 810 73 -200 120/05 RMK AO2 T00440000
04850KAOH AOH20160424032010804/24/16 03:20:31  5-MIN KAOH 240820Z AUTO 12005KT 10SM CLR 04/00 A3010 810 76 -300 130/05 RMK AO2 T00390000
04850KAOH AOH20160424032510804/24/16 03:25:31  5-MIN KAOH 240825Z AUTO 12006KT 10SM CLR 04/01 A3010 810 79 -300 130/06 RMK AO2 T00390006
04850KAOH AOH20160424033010804/24/16 03:30:31  5-MIN KAOH 240830Z AUTO 12007KT 10SM CLR 04/00 A3010 810 73 -200 120/07 RMK AO2 T00440000
04850KAOH AOH20160424033510804/24/16 03:35:31  5-MIN KAOH 240835Z AUTO 11005KT 10SM CLR 04/01 A3010 810 79 -200 110/05 RMK AO2 T00390006
04850KAOH AOH20160424034010804/24/16 03:40:31  5-MIN KAOH 240840Z AUTO 11005KT 10SM CLR 04/01 A3010 810 79 -200 120/05 RMK AO2 T00390006
04850KAOH AOH20160424034510804/24/16 03:45:31  5-MIN KAOH 240845Z AUTO 11006KT 10SM CLR 04/01 A3010 810 79 -200 120/06 RMK AO2 T00390006
04850KAOH AOH20160424035012104/24/16 03:50:31  5-MIN KAOH 240850Z AUTO 12007KT 10SM CLR 04/01 A3010 810 79 -200 120/07 RMK AO2 SLP195 T00390006 55003
04850KAOH AOH20160424035510804/24/16 03:55:31  5-MIN KAOH 240855Z AUTO 12008KT 10SM CLR 05/01 A3010 810 73 -100 130/08 RMK AO2 T00500006
04850KAOH AOH20160424040010804/24/16 04:00:31  5-MIN KAOH 240900Z AUTO 13008KT 10SM CLR 05/01 A3010 810 73 -100 130/08 RMK AO2 T00500006
04850KAOH AOH20160424040510804/24/16 04:05:31  5-MIN KAOH 240905Z AUTO 13008KT 10SM CLR 05/01 A3010 820 73 -100 140/08 RMK AO2 T00500006
04850KAOH AOH20160424041010804/24/16 04:10:31  5-MIN KAOH 240910Z AUTO 13008KT 10SM CLR 04/01 A3010 810 76 -200 140/08 RMK AO2 T00440006
04850KAOH AOH20160424041510804/24/16 04:15:31  5-MIN KAOH 240915Z AUTO 12007KT 10SM CLR 04/01 A3010 810 76 -200 130/07 RMK AO2 T00440006
04850KAOH AOH20160424042010804/24/16 04:20:31  5-MIN KAOH 240920Z AUTO 12007KT 10SM CLR 04/01 A3010 810 76 -200 130/07 RMK AO2 T00440006
04850KAOH AOH20160424042510804/24/16 04:25:31  5-MIN KAOH 240925Z AUTO 13007KT 10SM CLR 04/01 A3010 810 76 -200 130/07 RMK AO2 T00440006
04850KAOH AOH20160424043010804/24/16 04:30:31  5-MIN KAOH 240930Z AUTO 12007KT 10SM CLR 04/00 A3010 810 73 -200 130/07 RMK AO2 T00440000
04850KAOH AOH20160424043510804/24/16 04:35:31  5-MIN KAOH 240935Z AUTO 12007KT 10SM CLR 04/01 A3010 810 76 -200 130/07 RMK AO2 T00440006
04850KAOH AOH20160424044010804/24/16 04:40:31  5-MIN KAOH 240940Z AUTO 12007KT 10SM CLR 04/01 A3010 810 76 -200 120/07 RMK AO2 T00440006
04850KAOH AOH20160424044510804/24/16 04:45:31  5-MIN KAOH 240945Z AUTO 12007KT 10SM CLR 04/01 A3010 810 76 -200 130/07 RMK AO2 T00440006
04850KAOH AOH20160424045011504/24/16 04:50:31  5-MIN KAOH 240950Z AUTO 12008KT 10SM CLR 04/01 A3010 810 76 -200 120/08 RMK AO2 SLP196 T00440006
04850KAOH AOH20160424045510804/24/16 04:55:31  5-MIN KAOH 240955Z AUTO 12007KT 10SM CLR 04/01 A3010 810 76 -200 130/07 RMK AO2 T00440006
04850KAOH AOH20160424050010804/24/16 05:00:31  5-MIN KAOH 241000Z AUTO 13007KT 10SM CLR 04/01 A3010 810 76 -200 140/07 RMK AO2 T00440006
04850KAOH AOH20160424050510804/24/16 05:05:31  5-MIN KAOH 241005Z AUTO 13007KT 10SM CLR 04/00 A3010 810 73 -200 140/07 RMK AO2 T00440000
04850KAOH AOH20160424051010804/24/16 05:10:31  5-MIN KAOH 241010Z AUTO 13007KT 10SM CLR 04/00 A3010 810 73 -200 140/07 RMK AO2 T00440000
04850KAOH AOH20160424051510804/24/16 05:15:31  5-MIN KAOH 241015Z AUTO 13006KT 10SM CLR 04/00 A3010 810 73 -200 140/06 RMK AO2 T00440000
04850KAOH AOH20160424052010804/24/16 05:20:31  5-MIN KAOH 241020Z AUTO 14006KT 10SM CLR 04/00 A3010 810 76 -200 150/06 RMK AO2 T00390000
04850KAOH AOH20160424052510804/24/16 05:25:31  5-MIN KAOH 241025Z AUTO 15005KT 10SM CLR 04/00 A3010 810 76 -200 150/05 RMK AO2 T00390000
04850KAOH AOH20160424053010804/24/16 05:30:31  5-MIN KAOH 241030Z AUTO 14004KT 10SM CLR 03/00 A3010 810 79 -300 150/04 RMK AO2 T00330000
04850KAOH AOH20160424053510804/24/16 05:35:31  5-MIN KAOH 241035Z AUTO 13003KT 10SM CLR 03/00 A3010 810 79 -300 140/03 RMK AO2 T00330000
04850KAOH AOH20160424054010804/24/16 05:40:31  5-MIN KAOH 241040Z AUTO 13003KT 10SM CLR 04/00 A3011 810 76 -300 140/03 RMK AO2 T00390000
04850KAOH AOH20160424054510804/24/16 05:45:31  5-MIN KAOH 241045Z AUTO 00000KT 10SM CLR 03/00 A3011 800 79 -300 000/00 RMK AO2 T00330000
04850KAOH AOH20160424055011504/24/16 05:50:31  5-MIN KAOH 241050Z AUTO 00000KT 10SM CLR 03/00 A3011 800 79 -300 000/00 RMK AO2 SLP201 T00330000
04850KAOH AOH20160424055510804/24/16 05:55:31  5-MIN KAOH 241055Z AUTO 00000KT 10SM CLR 04/00 A3012 800 76 -300 000/00 RMK AO2 T00390000
04850KAOH AOH20160424060010804/24/16 06:00:31  5-MIN KAOH 241100Z AUTO 12003KT 10SM CLR 04/00 A3011 800 76 -300 120/03 RMK AO2 T00390000
04850KAOH AOH20160424060510804/24/16 06:05:31  5-MIN KAOH 241105Z AUTO 12003KT 10SM CLR 04/00 A3012 800 76 -300 130/03 RMK AO2 T00390000
04850KAOH AOH20160424061010804/24/16 06:10:31  5-MIN KAOH 241110Z AUTO 14003KT 10SM CLR 03/00 A3012 790 79 -300 140/03 RMK AO2 T00330000
04850KAOH AOH20160424061510804/24/16 06:15:31  5-MIN KAOH 241115Z AUTO 13003KT 10SM CLR 04/00 A3012 790 76 -300 140/03 RMK AO2 T00390000
04850KAOH AOH20160424062010804/24/16 06:20:31  5-MIN KAOH 241120Z AUTO 00000KT 10SM CLR 04/01 A3012 790 76 -200 000/00 RMK AO2 T00440006
04850KAOH AOH20160424062510804/24/16 06:25:31  5-MIN KAOH 241125Z AUTO 00000KT 10SM CLR 04/01 A3012 790 76 -200 000/00 RMK AO2 T00440006
04850KAOH AOH20160424063010804/24/16 06:30:31  5-MIN KAOH 241130Z AUTO 10003KT 10SM CLR 04/01 A3012 790 76 -200 110/03 RMK AO2 T00440006
04850KAOH AOH20160424063510804/24/16 06:35:31  5-MIN KAOH 241135Z AUTO 00000KT 10SM CLR 04/01 A3012 790 79 -200 000/00 RMK AO2 T00440011
04850KAOH AOH20160424064010804/24/16 06:40:31  5-MIN KAOH 241140Z AUTO 13005KT 10SM CLR 05/02 A3012 790 79 -100 140/05 RMK AO2 T00500017
04850KAOH AOH20160424064510804/24/16 06:45:31  5-MIN KAOH 241145Z AUTO 13005KT 10SM CLR 06/01 A3013 790 73 -100 140/05 RMK AO2 T00560011
04850KAOH AOH20160424065013004/24/16 06:50:31  5-MIN KAOH 241150Z AUTO 14005KT 10SM CLR 06/01 A3012 790 70 0 140/05 RMK AO2 SLP204 T00610011 10061 20033 56004
04850KAOH AOH20160424065510504/24/16 06:55:31  5-MIN KAOH 241155Z AUTO 13004KT 10SM CLR 06/01 A3013 790 70 0 140/04 RMK AO2 T00610011
04850KAOH AOH20160424070010504/24/16 07:00:31  5-MIN KAOH 241200Z AUTO 13004KT 10SM CLR 07/01 A3013 790 67 0 140/04 RMK AO2 T00670011
04850KAOH AOH20160424070510504/24/16 07:05:31  5-MIN KAOH 241205Z AUTO 15004KT 10SM CLR 07/02 A3012 790 70 0 150/04 RMK AO2 T00670017
04850KAOH AOH20160424071010704/24/16 07:10:31  5-MIN KAOH 241210Z AUTO 15004KT 10SM CLR 07/01 A3012 790 65 100 160/04 RMK AO2 T00720011
04850KAOH AOH20160424071510704/24/16 07:15:31  5-MIN KAOH 241215Z AUTO 15004KT 10SM CLR 07/01 A3012 790 65 100 150/04 RMK AO2 T00720011
04850KAOH AOH20160424072010704/24/16 07:20:31  5-MIN KAOH 241220Z AUTO 14004KT 10SM CLR 07/01 A3012 790 65 100 150/04 RMK AO2 T00720011
04850KAOH AOH20160424072510704/24/16 07:25:31  5-MIN KAOH 241225Z AUTO 15005KT 10SM CLR 08/02 A3012 790 65 200 150/05 RMK AO2 T00780017
04850KAOH AOH20160424073010704/24/16 07:30:31  5-MIN KAOH 241230Z AUTO 16004KT 10SM CLR 08/02 A3012 790 65 100 160/04 RMK AO2 T00780017
04850KAOH AOH20160424073510704/24/16 07:35:31  5-MIN KAOH 241235Z AUTO 16005KT 10SM CLR 08/02 A3013 790 65 200 170/05 RMK AO2 T00830022
04850KAOH AOH20160424074010704/24/16 07:40:31  5-MIN KAOH 241240Z AUTO 16005KT 10SM CLR 08/02 A3013 790 63 200 160/05 RMK AO2 T00830017
04850KAOH AOH20160424074510704/24/16 07:45:31  5-MIN KAOH 241245Z AUTO 16006KT 10SM CLR 08/03 A3013 780 68 200 160/06 RMK AO2 T00830028
04850KAOH AOH20160424075011404/24/16 07:50:31  5-MIN KAOH 241250Z AUTO 16006KT 10SM CLR 08/02 A3013 780 65 200 170/06 RMK AO2 SLP206 T00830022
04850KAOH AOH20160424075510704/24/16 07:55:31  5-MIN KAOH 241255Z AUTO 16006KT 10SM CLR 09/03 A3013 780 65 300 170/06 RMK AO2 T00890028
04850KAOH AOH20160424080010704/24/16 08:00:31  5-MIN KAOH 241300Z AUTO 16009KT 10SM CLR 10/03 A3013 780 60 400 170/09 RMK AO2 T01000028
04850KAOH AOH20160424080510704/24/16 08:05:31  5-MIN KAOH 241305Z AUTO 16009KT 10SM CLR 10/02 A3013 780 58 400 170/09 RMK AO2 T01000022
04850KAOH AOH20160424081010704/24/16 08:10:31  5-MIN KAOH 241310Z AUTO 15009KT 10SM CLR 10/03 A3013 780 60 400 160/09 RMK AO2 T01000028
04850KAOH AOH20160424081510704/24/16 08:15:31  5-MIN KAOH 241315Z AUTO 16008KT 10SM CLR 10/03 A3013 780 60 400 170/08 RMK AO2 T01000028
04850KAOH AOH20160424082010704/24/16 08:20:31  5-MIN KAOH 241320Z AUTO 16008KT 10SM CLR 10/03 A3013 780 60 400 170/08 RMK AO2 T01000028
04850KAOH AOH20160424082510704/24/16 08:25:31  5-MIN KAOH 241325Z AUTO 16008KT 10SM CLR 11/03 A3013 780 58 500 160/08 RMK AO2 T01060028
04850KAOH AOH20160424083010704/24/16 08:30:31  5-MIN KAOH 241330Z AUTO 17009KT 10SM CLR 11/03 A3013 780 61 500 170/09 RMK AO2 T01060033
04850KAOH AOH20160424083510704/24/16 08:35:31  5-MIN KAOH 241335Z AUTO 16008KT 10SM CLR 11/03 A3013 780 58 500 170/08 RMK AO2 T01110033
04850KAOH AOH20160424084010704/24/16 08:40:31  5-MIN KAOH 241340Z AUTO 17010KT 10SM CLR 11/03 A3013 780 56 500 180/10 RMK AO2 T01110028
04850KAOH AOH20160424084510704/24/16 08:45:31  5-MIN KAOH 241345Z AUTO 16008KT 10SM CLR 11/03 A3013 790 56 500 170/08 RMK AO2 T01110028
04850KAOH AOH20160424085011404/24/16 08:50:31  5-MIN KAOH 241350Z AUTO 16008KT 10SM CLR 12/03 A3012 790 54 600 160/08 RMK AO2 SLP203 T01170028
04850KAOH AOH20160424085510704/24/16 08:55:31  5-MIN KAOH 241355Z AUTO 17009KT 10SM CLR 12/03 A3012 800 56 600 170/09 RMK AO2 T01170033
04850KAOH AOH20160424090010704/24/16 09:00:31  5-MIN KAOH 241400Z AUTO 16009KT 10SM CLR 12/03 A3011 800 56 600 160/09 RMK AO2 T01170033
04850KAOH AOH20160424090510704/24/16 09:05:31  5-MIN KAOH 241405Z AUTO 16009KT 10SM CLR 12/03 A3011 810 54 700 160/09 RMK AO2 T01220033
04850KAOH AOH20160424091010704/24/16 09:10:31  5-MIN KAOH 241410Z AUTO 17008KT 10SM CLR 12/04 A3011 800 56 700 170/08 RMK AO2 T01220039
04850KAOH AOH20160424091510704/24/16 09:15:31  5-MIN KAOH 241415Z AUTO 17009KT 10SM CLR 13/04 A3011 810 54 800 180/09 RMK AO2 T01280039
04850KAOH AOH20160424092010704/24/16 09:20:31  5-MIN KAOH 241420Z AUTO 16007KT 10SM CLR 13/04 A3011 810 54 800 170/07 RMK AO2 T01280039
04850KAOH AOH20160424092510704/24/16 09:25:31  5-MIN KAOH 241425Z AUTO 16007KT 10SM CLR 13/04 A3011 810 54 800 170/07 RMK AO2 T01330044
04850KAOH AOH20160424093010704/24/16 09:30:31  5-MIN KAOH 241430Z AUTO 18007KT 10SM CLR 13/04 A3011 800 54 800 180/07 RMK AO2 T01330044
04850KAOH AOH20160424093510704/24/16 09:35:31  5-MIN KAOH 241435Z AUTO 18007KT 10SM CLR 13/04 A3010 810 52 800 190/07 RMK AO2 T01330039
04850KAOH AOH20160424094010704/24/16 09:40:31  5-MIN KAOH 241440Z AUTO 17006KT 10SM CLR 14/04 A3010 810 50 900 170/06 RMK AO2 T01390039
04850KAOH AOH20160424094510704/24/16 09:45:31  5-MIN KAOH 241445Z AUTO 18007KT 10SM CLR 14/04 A3010 810 50 900 180/07 RMK AO2 T01390039
04850KAOH AOH20160424095012004/24/16 09:50:31  5-MIN KAOH 241450Z AUTO 17005KT 10SM CLR 14/04 A3010 810 52 900 180/05 RMK AO2 SLP196 T01390044 53009
04850KAOH AOH20160424095510704/24/16 09:55:31  5-MIN KAOH 241455Z AUTO 19008KT 10SM CLR 14/04 A3010 810 52 900 190/08 RMK AO2 T01390044
04850KAOH AOH20160424100010804/24/16 10:00:31  5-MIN KAOH 241500Z AUTO 18007KT 10SM CLR 14/04 A3010 810 51 1000 190/07 RMK AO2 T01440044
04850KAOH AOH20160424100510804/24/16 10:05:31  5-MIN KAOH 241505Z AUTO 17006KT 10SM CLR 14/04 A3010 810 51 1000 180/06 RMK AO2 T01440044
04850KAOH AOH20160424101010804/24/16 10:10:31  5-MIN KAOH 241510Z AUTO 18007KT 10SM CLR 15/04 A3010 820 49 1000 190/07 RMK AO2 T01500044
04850KAOH AOH20160424101510804/24/16 10:15:31  5-MIN KAOH 241515Z AUTO 16007KT 10SM CLR 15/04 A3009 820 49 1000 160/07 RMK AO2 T01500044
04850KAOH AOH20160424102010804/24/16 10:20:31  5-MIN KAOH 241520Z AUTO 19006KT 10SM CLR 15/04 A3009 820 49 1100 190/06 RMK AO2 T01500044
04850KAOH AOH20160424102510804/24/16 10:25:31  5-MIN KAOH 241525Z AUTO 18006KT 10SM CLR 15/04 A3009 820 49 1100 180/06 RMK AO2 T01500044
04850KAOH AOH20160424103010804/24/16 10:30:31  5-MIN KAOH 241530Z AUTO 15005KT 10SM CLR 15/04 A3009 820 49 1100 150/05 RMK AO2 T01500044
04850KAOH AOH20160424103510804/24/16 10:35:31  5-MIN KAOH 241535Z AUTO 18009KT 10SM CLR 16/04 A3009 830 47 1100 180/09 RMK AO2 T01560044
04850KAOH AOH20160424104010804/24/16 10:40:31  5-MIN KAOH 241540Z AUTO 17005KT 10SM CLR 16/04 A3009 820 47 1100 180/05 RMK AO2 T01560044
04850KAOH AOH20160424104510804/24/16 10:45:31  5-MIN KAOH 241545Z AUTO 22005KT 10SM CLR 16/04 A3008 830 47 1100 220/05 RMK AO2 T01560044
04850KAOH AOH20160424105011504/24/16 10:50:31  5-MIN KAOH 241550Z AUTO VRB04KT 10SM CLR 16/05 A3008 830 47 1200 VRB/04 RMK AO2 SLP189 T01610050
04850KAOH AOH20160424105510804/24/16 10:55:31  5-MIN KAOH 241555Z AUTO 18006KT 10SM CLR 16/05 A3009 820 47 1200 190/06 RMK AO2 T01610050
04850KAOH AOH20160424110010804/24/16 11:00:31  5-MIN KAOH 241600Z AUTO 21003KT 10SM CLR 16/05 A3008 830 47 1200 210/03 RMK AO2 T01610050
04850KAOH AOH20160424110510804/24/16 11:05:31  5-MIN KAOH 241605Z AUTO 19006KT 10SM CLR 17/05 A3008 830 45 1300 190/06 RMK AO2 T01670050
04850KAOH AOH20160424111010804/24/16 11:10:31  5-MIN KAOH 241610Z AUTO 23006KT 10SM CLR 16/04 A3008 830 45 1200 240/06 RMK AO2 T01610044
04850KAOH AOH20160424111510804/24/16 11:15:31  5-MIN KAOH 241615Z AUTO 21006KT 10SM CLR 16/04 A3008 830 45 1200 220/06 RMK AO2 T01610044
04850KAOH AOH20160424112009804/24/16 11:20:31  5-MIN KAOH 241620Z AUTO 10SM CLR 16/05 A3007 840 47 1200 M /M RMK AO2 T01610050
04850KAOH AOH20160424112510804/24/16 11:25:31  5-MIN KAOH 241625Z AUTO 16006KT 10SM CLR 17/05 A3007 840 45 1300 170/06 RMK AO2 T01670050
04850KAOH AOH20160424113010804/24/16 11:30:31  5-MIN KAOH 241630Z AUTO 16005KT 10SM CLR 17/04 A3007 840 44 1300 170/05 RMK AO2 T01670044
04850KAOH AOH20160424113510804/24/16 11:35:31  5-MIN KAOH 241635Z AUTO 17007KT 10SM CLR 17/05 A3007 840 44 1300 180/07 RMK AO2 T01720050
04850KAOH AOH20160424114010804/24/16 11:40:31  5-MIN KAOH 241640Z AUTO 21005KT 10SM CLR 17/05 A3007 840 45 1300 220/05 RMK AO2 T01670050
04850KAOH AOH20160424114510804/24/16 11:45:31  5-MIN KAOH 241645Z AUTO 23007KT 10SM CLR 17/05 A3006 840 45 1300 240/07 RMK AO2 T01670050
04850KAOH AOH20160424115011504/24/16 11:50:31  5-MIN KAOH 241650Z AUTO 25003KT 10SM CLR 17/05 A3006 850 45 1300 260/03 RMK AO2 SLP181 T01670050
04850KAOH AOH20160424115510804/24/16 11:55:31  5-MIN KAOH 241655Z AUTO VRB04KT 10SM CLR 17/05 A3006 850 44 1400 VRB/04 RMK AO2 T01720050
04850KAOH AOH20160424120010804/24/16 12:00:31  5-MIN KAOH 241700Z AUTO 14005KT 10SM CLR 18/06 A3006 850 46 1400 150/05 RMK AO2 T01780061
04850KAOH AOH20160424120510804/24/16 12:05:31  5-MIN KAOH 241705Z AUTO 24007KT 10SM CLR 18/06 A3005 850 44 1400 240/07 RMK AO2 T01780056
04850KAOH AOH20160424121010804/24/16 12:10:31  5-MIN KAOH 241710Z AUTO 23007KT 10SM CLR 17/05 A3005 860 44 1400 240/07 RMK AO2 T01720050
04850KAOH AOH20160424121510804/24/16 12:15:31  5-MIN KAOH 241715Z AUTO 20006KT 10SM CLR 18/05 A3005 860 42 1400 210/06 RMK AO2 T01780050
04850KAOH AOH20160424122010804/24/16 12:20:31  5-MIN KAOH 241720Z AUTO 22004KT 10SM CLR 18/06 A3005 860 44 1400 230/04 RMK AO2 T01780056
04850KAOH AOH20160424122510804/24/16 12:25:31  5-MIN KAOH 241725Z AUTO VRB03KT 10SM CLR 18/05 A3005 860 42 1400 VRB/03 RMK AO2 T01780050
04850KAOH AOH20160424123010804/24/16 12:30:31  5-MIN KAOH 241730Z AUTO VRB03KT 10SM CLR 18/06 A3004 860 44 1500 VRB/03 RMK AO2 T01830061
04850KAOH AOH20160424123510804/24/16 12:35:31  5-MIN KAOH 241735Z AUTO 19006KT 10SM CLR 18/06 A3004 860 44 1500 190/06 RMK AO2 T01830061
04850KAOH AOH20160424124010804/24/16 12:40:31  5-MIN KAOH 241740Z AUTO 20005KT 10SM CLR 18/06 A3004 870 42 1500 200/05 RMK AO2 T01830056
04850KAOH AOH20160424124510804/24/16 12:45:31  5-MIN KAOH 241745Z AUTO VRB03KT 10SM CLR 18/06 A3004 870 42 1500 VRB/03 RMK AO2 T01830056
04850KAOH AOH20160424125013304/24/16 12:50:31  5-MIN KAOH 241750Z AUTO VRB04KT 10SM CLR 18/06 A3004 870 42 1500 VRB/04 RMK AO2 SLP172 T01830056 10183 20061 58007
04850KAOH AOH20160424125510804/24/16 12:55:31  5-MIN KAOH 241755Z AUTO 15008KT 10SM CLR 19/07 A3004 870 44 1600 150/08 RMK AO2 T01890067
04850KAOH AOH20160424130010804/24/16 13:00:31  5-MIN KAOH 241800Z AUTO VRB03KT 10SM CLR 18/06 A3004 870 44 1500 VRB/03 RMK AO2 T01830061
04850KAOH AOH20160424130510804/24/16 13:05:31  5-MIN KAOH 241805Z AUTO 24003KT 10SM CLR 18/06 A3004 870 42 1500 240/03 RMK AO2 T01830056
04850KAOH AOH20160424131010804/24/16 13:10:31  5-MIN KAOH 241810Z AUTO 19007KT 10SM CLR 19/06 A3004 870 43 1600 190/07 RMK AO2 T01890061
04850KAOH AOH20160424131510804/24/16 13:15:31  5-MIN KAOH 241815Z AUTO VRB05KT 10SM CLR 19/06 A3004 870 43 1600 VRB/05 RMK AO2 T01890061
04850KAOH AOH20160424132009804/24/16 13:20:31  5-MIN KAOH 241820Z AUTO 10SM CLR 19/06 A3003 870 41 1600 M /M RMK AO2 T01890056
04850KAOH AOH20160424132510804/24/16 13:25:31  5-MIN KAOH 241825Z AUTO VRB06KT 10SM CLR 19/05 A3003 880 38 1600 VRB/06 RMK AO2 T01940050
04850KAOH AOH20160424133010804/24/16 13:30:31  5-MIN KAOH 241830Z AUTO 18006KT 10SM CLR 19/06 A3003 880 41 1600 180/06 RMK AO2 T01890056
04850KAOH AOH20160424133510804/24/16 13:35:31  5-MIN KAOH 241835Z AUTO VRB06KT 10SM CLR 19/06 A3003 880 40 1600 VRB/06 RMK AO2 T01940056
04850KAOH AOH20160424134010804/24/16 13:40:31  5-MIN KAOH 241840Z AUTO VRB06KT 10SM CLR 19/06 A3002 880 41 1600 VRB/06 RMK AO2 T01940061
04850KAOH AOH20160424134510804/24/16 13:45:31  5-MIN KAOH 241845Z AUTO 18009KT 10SM CLR 20/07 A3002 880 41 1700 190/09 RMK AO2 T02000067
04850KAOH AOH20160424135011504/24/16 13:50:31  5-MIN KAOH 241850Z AUTO VRB05KT 10SM CLR 19/06 A3002 880 41 1600 VRB/05 RMK AO2 SLP167 T01940061
04850KAOH AOH20160424135510804/24/16 13:55:31  5-MIN KAOH 241855Z AUTO 22006KT 10SM CLR 19/06 A3002 890 41 1700 230/06 RMK AO2 T01940061
04850KAOH AOH20160424140010804/24/16 14:00:31  5-MIN KAOH 241900Z AUTO VRB05KT 10SM CLR 19/06 A3002 890 40 1700 VRB/05 RMK AO2 T01940056
04850KAOH AOH20160424140510804/24/16 14:05:31  5-MIN KAOH 241905Z AUTO 19010KT 10SM CLR 20/07 A3002 890 41 1700 200/10 RMK AO2 T02000067
04850KAOH AOH20160424141010804/24/16 14:10:31  5-MIN KAOH 241910Z AUTO VRB06KT 10SM CLR 20/06 A3001 890 40 1700 VRB/06 RMK AO2 T02000061
04850KAOH AOH20160424141510804/24/16 14:15:31  5-MIN KAOH 241915Z AUTO 18005KT 10SM CLR 19/06 A3001 890 40 1700 190/05 RMK AO2 T01940056
04850KAOH AOH20160424142010804/24/16 14:20:31  5-MIN KAOH 241920Z AUTO 23009KT 10SM CLR 20/06 A3001 900 40 1700 240/09 RMK AO2 T02000061
04850KAOH AOH20160424142510804/24/16 14:25:31  5-MIN KAOH 241925Z AUTO 22009KT 10SM CLR 20/06 A3001 900 40 1700 220/09 RMK AO2 T02000061
04850KAOH AOH20160424143011404/24/16 14:30:31  5-MIN KAOH 241930Z AUTO 21005G14KT 10SM CLR 20/06 A3001 900 38 1700 220/05G14 RMK AO2 T02000056
04850KAOH AOH20160424143512404/24/16 14:35:31  5-MIN KAOH 241935Z AUTO 17007KT 130V190 10SM CLR 20/06 A3001 900 38 1700 180/07 140V200 RMK AO2 T02000056
04850KAOH AOH20160424144010804/24/16 14:40:31  5-MIN KAOH 241940Z AUTO 22008KT 10SM CLR 20/06 A3001 900 38 1700 230/08 RMK AO2 T02000056
04850KAOH AOH20160424144510804/24/16 14:45:31  5-MIN KAOH 241945Z AUTO 25007KT 10SM CLR 20/06 A3001 900 40 1700 260/07 RMK AO2 T02000061
04850KAOH AOH20160424145010504/24/16 14:50:31  5-MIN KAOH 241950Z AUTO 10SM CLR 20/06 A3001 900 40 1700 M /M RMK AO2 SLP162 T02000061
04850KAOH AOH20160424145510804/24/16 14:55:31  5-MIN KAOH 241955Z AUTO 21009KT 10SM CLR 21/06 A3000 900 38 1800 220/09 RMK AO2 T02060061
04850KAOH AOH20160424150010804/24/16 15:00:31  5-MIN KAOH 242000Z AUTO 20007KT 10SM CLR 20/06 A3000 900 38 1700 200/07 RMK AO2 T02000056
04850KAOH AOH20160424150510804/24/16 15:05:31  5-MIN KAOH 242005Z AUTO 23005KT 10SM CLR 20/06 A2999 910 38 1700 240/05 RMK AO2 T02000056
04850KAOH AOH20160424151010804/24/16 15:10:31  5-MIN KAOH 242010Z AUTO VRB03KT 10SM CLR 21/06 A2999 910 37 1800 VRB/03 RMK AO2 T02060056
04850KAOH AOH20160424151512404/24/16 15:15:31  5-MIN KAOH 242015Z AUTO 20008KT 160V260 10SM CLR 21/06 A2999 910 38 1800 210/08 170V270 RMK AO2 T02060061
04850KAOH AOH20160424152010804/24/16 15:20:31  5-MIN KAOH 242020Z AUTO 16006KT 10SM CLR 21/06 A2999 910 37 1800 170/06 RMK AO2 T02060056
04850KAOH AOH20160424152510804/24/16 15:25:31  5-MIN KAOH 242025Z AUTO VRB06KT 10SM CLR 21/07 A2999 920 38 1900 VRB/06 RMK AO2 T02110067
04850KAOH AOH20160424153010804/24/16 15:30:31  5-MIN KAOH 242030Z AUTO 23010KT 10SM CLR 21/06 A2999 920 37 1900 230/10 RMK AO2 T02110061
04850KAOH AOH20160424153510804/24/16 15:35:31  5-MIN KAOH 242035Z AUTO 24004KT 10SM CLR 21/06 A2999 920 38 1800 250/04 RMK AO2 T02060061
04850KAOH AOH20160424154010804/24/16 15:40:31  5-MIN KAOH 242040Z AUTO 25010KT 10SM CLR 21/06 A2998 920 37 1900 260/10 RMK AO2 T02110061
04850KAOH AOH20160424154510804/24/16 15:45:31  5-MIN KAOH 242045Z AUTO 22009KT 10SM CLR 21/06 A2998 920 37 1900 230/09 RMK AO2 T02110061
04850KAOH AOH20160424155012104/24/16 15:50:31  5-MIN KAOH 242050Z AUTO 24007KT 10SM CLR 21/06 A2998 920 38 1800 240/07 RMK AO2 SLP153 T02060061 58022
04850KAOH AOH20160424155510804/24/16 15:55:31  5-MIN KAOH 242055Z AUTO 25007KT 10SM CLR 21/06 A2998 920 37 1900 260/07 RMK AO2 T02110061
04850KAOH AOH20160424160010804/24/16 16:00:31  5-MIN KAOH 242100Z AUTO 19008KT 10SM CLR 22/07 A2998 930 37 2000 190/08 RMK AO2 T02170067
04850KAOH AOH20160424160510804/24/16 16:05:31  5-MIN KAOH 242105Z AUTO 18008KT 10SM CLR 21/06 A2997 930 37 1900 190/08 RMK AO2 T02110061
04850KAOH AOH20160424161010804/24/16 16:10:31  5-MIN KAOH 242110Z AUTO 21007KT 10SM CLR 21/06 A2997 930 36 1900 210/07 RMK AO2 T02110056
04850KAOH AOH20160424161510804/24/16 16:15:31  5-MIN KAOH 242115Z AUTO 20005KT 10SM CLR 21/06 A2997 930 37 1900 210/05 RMK AO2 T02110061
04850KAOH AOH20160424162010804/24/16 16:20:31  5-MIN KAOH 242120Z AUTO 25006KT 10SM CLR 21/06 A2997 930 37 1900 250/06 RMK AO2 T02110061
04850KAOH AOH20160424162510804/24/16 16:25:31  5-MIN KAOH 242125Z AUTO 24009KT 10SM CLR 21/06 A2997 940 37 1900 250/09 RMK AO2 T02110061
04850KAOH AOH20160424163010804/24/16 16:30:31  5-MIN KAOH 242130Z AUTO 23006KT 10SM CLR 21/06 A2997 940 37 1900 230/06 RMK AO2 T02110061
04850KAOH AOH20160424163510804/24/16 16:35:31  5-MIN KAOH 242135Z AUTO 20007KT 10SM CLR 21/06 A2996 940 37 1900 200/07 RMK AO2 T02110061
04850KAOH AOH20160424164010804/24/16 16:40:31  5-MIN KAOH 242140Z AUTO 19007KT 10SM CLR 21/07 A2996 940 38 1900 200/07 RMK AO2 T02110067
04850KAOH AOH20160424164510804/24/16 16:45:31  5-MIN KAOH 242145Z AUTO 21005KT 10SM CLR 21/06 A2996 940 36 1900 220/05 RMK AO2 T02110056
04850KAOH AOH20160424165011504/24/16 16:50:31  5-MIN KAOH 242150Z AUTO 21005KT 10SM CLR 21/06 A2996 940 37 1900 210/05 RMK AO2 SLP146 T02110061
04850KAOH AOH20160424165510804/24/16 16:55:31  5-MIN KAOH 242155Z AUTO 22009KT 10SM CLR 22/06 A2996 940 36 2000 220/09 RMK AO2 T02170061
04850KAOH AOH20160424170010804/24/16 17:00:31  5-MIN KAOH 242200Z AUTO 21007KT 10SM CLR 21/07 A2996 940 38 1900 220/07 RMK AO2 T02110067
04850KAOH AOH20160424170510804/24/16 17:05:31  5-MIN KAOH 242205Z AUTO VRB05KT 10SM CLR 21/06 A2996 940 37 1900 VRB/05 RMK AO2 T02110061
04850KAOH AOH20160424171010804/24/16 17:10:31  5-MIN KAOH 242210Z AUTO 21007KT 10SM CLR 21/07 A2996 940 38 1900 220/07 RMK AO2 T02110067
04850KAOH AOH20160424171510804/24/16 17:15:31  5-MIN KAOH 242215Z AUTO 22007KT 10SM CLR 21/06 A2996 940 37 1900 230/07 RMK AO2 T02110061
04850KAOH AOH20160424172010804/24/16 17:20:31  5-MIN KAOH 242220Z AUTO 23005KT 10SM CLR 21/06 A2996 940 37 1900 240/05 RMK AO2 T02110061
04850KAOH AOH20160424172510804/24/16 17:25:31  5-MIN KAOH 242225Z AUTO 20005KT 10SM CLR 21/06 A2996 940 37 1900 200/05 RMK AO2 T02110061
04850KAOH AOH20160424173010804/24/16 17:30:31  5-MIN KAOH 242230Z AUTO VRB04KT 10SM CLR 21/06 A2996 940 36 1900 VRB/04 RMK AO2 T02110056
04850KAOH AOH20160424173510804/24/16 17:35:31  5-MIN KAOH 242235Z AUTO 23008KT 10SM CLR 22/06 A2996 940 36 2000 240/08 RMK AO2 T02170061
04850KAOH AOH20160424174010804/24/16 17:40:31  5-MIN KAOH 242240Z AUTO 22005KT 10SM CLR 21/06 A2996 940 37 1900 230/05 RMK AO2 T02110061
04850KAOH AOH20160424174510804/24/16 17:45:31  5-MIN KAOH 242245Z AUTO 25004KT 10SM CLR 21/07 A2996 940 38 1900 250/04 RMK AO2 T02110067
04850KAOH AOH20160424175011504/24/16 17:50:31  5-MIN KAOH 242250Z AUTO 27003KT 10SM CLR 22/06 A2996 940 36 2000 280/03 RMK AO2 SLP146 T02170061
04850KAOH AOH20160424175510804/24/16 17:55:31  5-MIN KAOH 242255Z AUTO 26003KT 10SM CLR 22/07 A2996 940 37 2000 260/03 RMK AO2 T02170067
04850KAOH AOH20160424180010804/24/16 18:00:31  5-MIN KAOH 242300Z AUTO 00000KT 10SM CLR 22/06 A2996 940 36 2000 000/00 RMK AO2 T02170061
04850KAOH AOH20160424180510804/24/16 18:05:31  5-MIN KAOH 242305Z AUTO VRB04KT 10SM CLR 22/06 A2996 940 36 2000 VRB/04 RMK AO2 T02170061
04850KAOH AOH20160424181010804/24/16 18:10:31  5-MIN KAOH 242310Z AUTO 23005KT 10SM CLR 21/06 A2996 940 37 1900 240/05 RMK AO2 T02110061
04850KAOH AOH20160424181510804/24/16 18:15:31  5-MIN KAOH 242315Z AUTO 19005KT 10SM CLR 21/06 A2996 940 37 1900 200/05 RMK AO2 T02110061
04850KAOH AOH20160424182010804/24/16 18:20:31  5-MIN KAOH 242320Z AUTO 19005KT 10SM CLR 21/06 A2996 940 37 1900 200/05 RMK AO2 T02110061
04850KAOH AOH20160424182510804/24/16 18:25:31  5-MIN KAOH 242325Z AUTO 19003KT 10SM CLR 21/06 A2996 940 36 1900 190/03 RMK AO2 T02110056
04850KAOH AOH20160424183010804/24/16 18:30:31  5-MIN KAOH 242330Z AUTO VRB03KT 10SM CLR 21/06 A2996 940 36 1900 VRB/03 RMK AO2 T02110056
04850KAOH AOH20160424183510804/24/16 18:35:31  5-MIN KAOH 242335Z AUTO 18004KT 10SM CLR 21/06 A2996 940 37 1900 180/04 RMK AO2 T02110061
04850KAOH AOH20160424184010804/24/16 18:40:31  5-MIN KAOH 242340Z AUTO 21003KT 10SM CLR 21/06 A2996 940 36 1900 220/03 RMK AO2 T02110056
04850KAOH AOH20160424184510804/24/16 18:45:31  5-MIN KAOH 242345Z AUTO 22003KT 10SM CLR 21/06 A2996 940 37 1800 220/03 RMK AO2 T02060056
04850KAOH AOH20160424185013304/24/16 18:50:31  5-MIN KAOH 242350Z AUTO 00000KT 10SM CLR 21/05 A2996 940 35 1800 000/00 RMK AO2 SLP144 T02060050 10217 20183 58019
04850KAOH AOH20160424185510804/24/16 18:55:31  5-MIN KAOH 242355Z AUTO 00000KT 10SM CLR 21/05 A2996 940 34 1900 000/00 RMK AO2 T02110050
04850KAOH AOH20160424190010804/24/16 19:00:31  5-MIN KAOH 250000Z AUTO 00000KT 10SM CLR 21/06 A2996 940 38 1800 000/00 RMK AO2 T02060061
04850KAOH AOH20160424190510804/24/16 19:05:31  5-MIN KAOH 250005Z AUTO 00000KT 10SM CLR 20/06 A2996 940 40 1800 000/00 RMK AO2 T02000061
04850KAOH AOH20160424191010804/24/16 19:10:31  5-MIN KAOH 250010Z AUTO 00000KT 10SM CLR 20/06 A2996 940 40 1800 000/00 RMK AO2 T02000061
04850KAOH AOH20160424191510804/24/16 19:15:31  5-MIN KAOH 250015Z AUTO 14003KT 10SM CLR 20/06 A2996 940 40 1800 150/03 RMK AO2 T02000061
04850KAOH AOH20160424192010804/24/16 19:20:31  5-MIN KAOH 250020Z AUTO 15003KT 10SM CLR 18/07 A2996 940 48 1600 150/03 RMK AO2 T01830072
04850KAOH AOH20160424192510804/24/16 19:25:31  5-MIN KAOH 250025Z AUTO 13003KT 10SM CLR 18/07 A2996 940 49 1500 130/03 RMK AO2 T01780072
04850KAOH AOH20160424193010804/24/16 19:30:31  5-MIN KAOH 250030Z AUTO 12003KT 10SM CLR 18/08 A2996 940 51 1500 130/03 RMK AO2 T01780078
04850KAOH AOH20160424193510804/24/16 19:35:31  5-MIN KAOH 250035Z AUTO 12004KT 10SM CLR 17/08 A2996 940 53 1500 130/04 RMK AO2 T01720078
04850KAOH AOH20160424194010804/24/16 19:40:31  5-MIN KAOH 250040Z AUTO 12004KT 10SM CLR 17/08 A2996 940 57 1400 120/04 RMK AO2 T01670083
04850KAOH AOH20160424194510804/24/16 19:45:31  5-MIN KAOH 250045Z AUTO 11003KT 10SM CLR 17/07 A2996 940 51 1400 110/03 RMK AO2 T01670067
04850KAOH AOH20160424195011504/24/16 19:50:31  5-MIN KAOH 250050Z AUTO 10003KT 10SM CLR 17/07 A2996 940 51 1400 110/03 RMK AO2 SLP144 T01670067
04850KAOH AOH20160424195510804/24/16 19:55:31  5-MIN KAOH 250055Z AUTO 10005KT 10SM CLR 16/07 A2996 940 53 1300 100/05 RMK AO2 T01610067
04850KAOH AOH20160424200010804/24/16 20:00:31  5-MIN KAOH 250100Z AUTO 11004KT 10SM CLR 16/07 A2996 940 53 1300 110/04 RMK AO2 T01610067
04850KAOH AOH20160424200510804/24/16 20:05:31  5-MIN KAOH 250105Z AUTO 11004KT 10SM CLR 16/07 A2996 940 53 1300 110/04 RMK AO2 T01610067
04850KAOH AOH20160424201010804/24/16 20:10:31  5-MIN KAOH 250110Z AUTO 11004KT 10SM CLR 16/07 A2996 940 55 1300 120/04 RMK AO2 T01610072
04850KAOH AOH20160424201510804/24/16 20:15:31  5-MIN KAOH 250115Z AUTO 11005KT 10SM CLR 17/07 A2996 940 51 1400 120/05 RMK AO2 T01670067
04850KAOH AOH20160424202010804/24/16 20:20:31  5-MIN KAOH 250120Z AUTO 12005KT 10SM CLR 17/07 A2996 940 51 1400 130/05 RMK AO2 T01670067
04850KAOH AOH20160424202510804/24/16 20:25:31  5-MIN KAOH 250125Z AUTO 12005KT 10SM CLR 17/07 A2996 940 51 1400 130/05 RMK AO2 T01670067
04850KAOH AOH20160424203010804/24/16 20:30:31  5-MIN KAOH 250130Z AUTO 11005KT 10SM CLR 16/07 A2996 940 53 1300 120/05 RMK AO2 T01610067
04850KAOH AOH20160424203510804/24/16 20:35:31  5-MIN KAOH 250135Z AUTO 12006KT 10SM CLR 15/07 A2995 950 59 1200 130/06 RMK AO2 T01500072
04850KAOH AOH20160424204010804/24/16 20:40:31  5-MIN KAOH 250140Z AUTO 12006KT 10SM CLR 16/07 A2996 940 57 1300 130/06 RMK AO2 T01560072
04850KAOH AOH20160424204510804/24/16 20:45:31  5-MIN KAOH 250145Z AUTO 13006KT 10SM CLR 16/07 A2996 940 55 1300 130/06 RMK AO2 T01610072
04850KAOH AOH20160424205011504/24/16 20:50:31  5-MIN KAOH 250150Z AUTO 13006KT 10SM CLR 16/07 A2996 940 57 1300 130/06 RMK AO2 SLP144 T01560072
04850KAOH AOH20160424205510804/24/16 20:55:31  5-MIN KAOH 250155Z AUTO 12005KT 10SM CLR 15/07 A2996 940 59 1200 120/05 RMK AO2 T01500072
04850KAOH AOH20160424210010804/24/16 21:00:31  5-MIN KAOH 250200Z AUTO 12006KT 10SM CLR 15/08 A2996 940 62 1200 130/06 RMK AO2 T01500078
04850KAOH AOH20160424210510804/24/16 21:05:31  5-MIN KAOH 250205Z AUTO 12005KT 10SM CLR 15/07 A2996 940 59 1200 130/05 RMK AO2 T01500072
04850KAOH AOH20160424211010804/24/16 21:10:31  5-MIN KAOH 250210Z AUTO 11005KT 10SM CLR 14/08 A2996 940 64 1100 120/05 RMK AO2 T01440078
04850KAOH AOH20160424211510804/24/16 21:15:31  5-MIN KAOH 250215Z AUTO 09008KT 10SM CLR 14/08 A2996 940 66 1100 100/08 RMK AO2 T01390078
04850KAOH AOH20160424212010804/24/16 21:20:31  5-MIN KAOH 250220Z AUTO 11006KT 10SM CLR 14/08 A2996 940 66 1100 110/06 RMK AO2 T01390078
04850KAOH AOH20160424212510804/24/16 21:25:31  5-MIN KAOH 250225Z AUTO 10006KT 10SM CLR 14/08 A2996 940 66 1100 110/06 RMK AO2 T01390078
04850KAOH AOH20160424213010804/24/16 21:30:31  5-MIN KAOH 250230Z AUTO 11007KT 10SM CLR 14/07 A2996 940 61 1100 110/07 RMK AO2 T01440072
04850KAOH AOH20160424213510804/24/16 21:35:31  5-MIN KAOH 250235Z AUTO 11006KT 10SM CLR 14/07 A2996 940 61 1100 110/06 RMK AO2 T01440072
04850KAOH AOH20160424214010804/24/16 21:40:31  5-MIN KAOH 250240Z AUTO 10007KT 10SM CLR 14/07 A2996 940 61 1100 110/07 RMK AO2 T01440072
04850KAOH AOH20160424214510804/24/16 21:45:31  5-MIN KAOH 250245Z AUTO 11006KT 10SM CLR 14/07 A2996 940 64 1100 110/06 RMK AO2 T01390072
04850KAOH AOH20160424215012104/24/16 21:50:31  5-MIN KAOH 250250Z AUTO 11007KT 10SM CLR 14/07 A2996 940 61 1100 120/07 RMK AO2 SLP143 T01440072 56006
04850KAOH AOH20160424215510804/24/16 21:55:31  5-MIN KAOH 250255Z AUTO 11008KT 10SM CLR 14/07 A2996 940 61 1100 120/08 RMK AO2 T01440072
04850KAOH AOH20160424220010804/24/16 22:00:31  5-MIN KAOH 250300Z AUTO 11006KT 10SM CLR 14/07 A2995 950 61 1100 110/06 RMK AO2 T01440072
04850KAOH AOH20160424220510804/24/16 22:05:31  5-MIN KAOH 250305Z AUTO 09008KT 10SM CLR 13/07 A2995 950 66 1000 100/08 RMK AO2 T01330072
04850KAOH AOH20160424221010804/24/16 22:10:31  5-MIN KAOH 250310Z AUTO 11007KT 10SM CLR 13/07 A2995 950 64 1000 110/07 RMK AO2 T01330067
04850KAOH AOH20160424221510804/24/16 22:15:31  5-MIN KAOH 250315Z AUTO 11007KT 10SM CLR 14/07 A2995 950 61 1100 120/07 RMK AO2 T01390067
04850KAOH AOH20160424222010804/24/16 22:20:31  5-MIN KAOH 250320Z AUTO 11007KT 10SM CLR 14/07 A2995 950 61 1100 110/07 RMK AO2 T01390067
04850KAOH AOH20160424222510804/24/16 22:25:31  5-MIN KAOH 250325Z AUTO 11007KT 10SM CLR 14/07 A2995 950 61 1100 110/07 RMK AO2 T01390067
04850KAOH AOH20160424223010804/24/16 22:30:31  5-MIN KAOH 250330Z AUTO 11007KT 10SM CLR 13/07 A2995 950 64 1000 120/07 RMK AO2 T01330067
04850KAOH AOH20160424223510804/24/16 22:35:31  5-MIN KAOH 250335Z AUTO 11006KT 10SM CLR 13/07 A2995 950 64 1000 110/06 RMK AO2 T01330067
04850KAOH AOH20160424224010804/24/16 22:40:31  5-MIN KAOH 250340Z AUTO 11007KT 10SM CLR 13/07 A2995 950 64 1000 120/07 RMK AO2 T01330067
04850KAOH AOH20160424224510804/24/16 22:45:31  5-MIN KAOH 250345Z AUTO 11008KT 10SM CLR 13/07 A2995 950 64 1000 120/08 RMK AO2 T01330067
04850KAOH AOH20160424225011504/24/16 22:50:31  5-MIN KAOH 250350Z AUTO 11008KT 10SM CLR 13/07 A2995 950 64 1000 120/08 RMK AO2 SLP140 T01330067
04850KAOH AOH20160424225510804/24/16 22:55:31  5-MIN KAOH 250355Z AUTO 11008KT 10SM CLR 13/07 A2995 950 64 1000 120/08 RMK AO2 T01330067
04850KAOH AOH20160424230010804/24/16 23:00:31  5-MIN KAOH 250400Z AUTO 11007KT 10SM CLR 13/07 A2995 950 64 1000 120/07 RMK AO2 T01330067
04850KAOH AOH20160424230510804/24/16 23:05:31  5-MIN KAOH 250405Z AUTO 11008KT 10SM CLR 13/07 A2994 960 66 1000 120/08 RMK AO2 T01280067
04850KAOH AOH20160424231010804/24/16 23:10:31  5-MIN KAOH 250410Z AUTO 11007KT 10SM CLR 13/07 A2994 960 69 1000 120/07 RMK AO2 T01280072
04850KAOH AOH20160424231510704/24/16 23:15:31  5-MIN KAOH 250415Z AUTO 11008KT 10SM CLR 12/07 A2994 960 71 900 120/08 RMK AO2 T01220072
04850KAOH AOH20160424232010704/24/16 23:20:31  5-MIN KAOH 250420Z AUTO 12009KT 10SM CLR 12/07 A2994 960 71 900 120/09 RMK AO2 T01220072
04850KAOH AOH20160424232510704/24/16 23:25:31  5-MIN KAOH 250425Z AUTO 12008KT 10SM CLR 12/07 A2994 960 71 900 120/08 RMK AO2 T01220072
04850KAOH AOH20160424233010704/24/16 23:30:31  5-MIN KAOH 250430Z AUTO 11007KT 10SM CLR 12/07 A2994 960 68 900 120/07 RMK AO2 T01220067
04850KAOH AOH20160424233510704/24/16 23:35:31  5-MIN KAOH 250435Z AUTO 11006KT 10SM CLR 12/07 A2994 960 68 900 120/06 RMK AO2 T01220067
04850KAOH AOH20160424234010704/24/16 23:40:31  5-MIN KAOH 250440Z AUTO 11007KT 10SM CLR 12/07 A2994 960 68 900 120/07 RMK AO2 T01220067
04850KAOH AOH20160424234510704/24/16 23:45:31  5-MIN KAOH 250445Z AUTO 11008KT 10SM CLR 12/07 A2994 960 68 900 120/08 RMK AO2 T01220067
04850KAOH AOH20160424235012404/24/16 23:50:31  5-MIN KAOH 250450Z AUTO 12007KT 10SM CLR 12/07 A2995 950 68 900 120/07 RMK AO2 SLP139 T01220067 402170033
04850KAOH AOH20160424235510704/24/16 23:55:31  5-MIN KAOH 250455Z AUTO 12007KT 10SM CLR 12/07 A2995 950 68 900 120/07 RMK AO2 T01220067
04850KAOH AOH20160425000010704/25/16 00:00:31  5-MIN KAOH 250500Z AUTO 11008KT 10SM CLR 12/07 A2995 950 74 800 120/08 RMK AO2 T01170072
04850KAOH AOH20160425000510704/25/16 00:05:31  5-MIN KAOH 250505Z AUTO 12007KT 10SM CLR 12/07 A2995 950 74 800 130/07 RMK AO2 T01170072
04850KAOH AOH20160425001010704/25/16 00:10:31  5-MIN KAOH 250510Z AUTO 12006KT 10SM CLR 12/07 A2995 950 74 800 130/06 RMK AO2 T01170072
04850KAOH AOH20160425001510704/25/16 00:15:31  5-MIN KAOH 250515Z AUTO 11006KT 10SM CLR 12/07 A2995 950 74 800 120/06 RMK AO2 T01170072
04850KAOH AOH20160425002010704/25/16 00:20:31  5-MIN KAOH 250520Z AUTO 11007KT 10SM CLR 12/07 A2995 950 74 800 120/07 RMK AO2 T01170072
04850KAOH AOH20160425002510704/25/16 00:25:31  5-MIN KAOH 250525Z AUTO 11007KT 10SM CLR 12/07 A2995 950 68 900 120/07 RMK AO2 T01220067
04850KAOH AOH20160425003010704/25/16 00:30:31  5-MIN KAOH 250530Z AUTO 12007KT 10SM CLR 12/07 A2994 960 68 900 120/07 RMK AO2 T01220067
04850KAOH AOH20160425003510704/25/16 00:35:31  5-MIN KAOH 250535Z AUTO 11007KT 10SM CLR 12/07 A2994 960 71 800 120/07 RMK AO2 T01170067
04850KAOH AOH20160425004010704/25/16 00:40:31  5-MIN KAOH 250540Z AUTO 12007KT 10SM CLR 12/07 A2994 960 71 800 120/07 RMK AO2 T01170067
04850KAOH AOH20160425004510704/25/16 00:45:31  5-MIN KAOH 250545Z AUTO 12007KT 10SM CLR 12/07 A2994 960 71 800 120/07 RMK AO2 T01170067
04850KAOH AOH20160425005013204/25/16 00:50:31  5-MIN KAOH 250550Z AUTO 12007KT 10SM CLR 12/07 A2994 960 71 800 120/07 RMK AO2 SLP138 T01170067 10211 20117 56001
04850KAOH AOH20160425005510704/25/16 00:55:31  5-MIN KAOH 250555Z AUTO 14006KT 10SM CLR 12/07 A2994 960 71 800 140/06 RMK AO2 T01170067
04850KAOH AOH20160425010010704/25/16 01:00:31  5-MIN KAOH 250600Z AUTO 13007KT 10SM CLR 12/07 A2994 960 71 800 140/07 RMK AO2 T01170067
04850KAOH AOH20160425010510704/25/16 01:05:31  5-MIN KAOH 250605Z AUTO 12007KT 10SM CLR 12/07 A2994 960 68 900 130/07 RMK AO2 T01220067
04850KAOH AOH20160425011010704/25/16 01:10:31  5-MIN KAOH 250610Z AUTO 13007KT 10SM CLR 12/07 A2994 960 71 800 130/07 RMK AO2 T01170067
04850KAOH AOH20160425011510704/25/16 01:15:31  5-MIN KAOH 250615Z AUTO 13007KT 10SM CLR 11/07 A2994 960 74 800 140/07 RMK AO2 T01110067
04850KAOH AOH20160425012010704/25/16 01:20:31  5-MIN KAOH 250620Z AUTO 13007KT 10SM CLR 11/07 A2993 960 74 800 140/07 RMK AO2 T01110067
04850KAOH AOH20160425012510704/25/16 01:25:31  5-MIN KAOH 250625Z AUTO 14007KT 10SM CLR 12/07 A2993 970 71 800 140/07 RMK AO2 T01170067
04850KAOH AOH20160425013010704/25/16 01:30:31  5-MIN KAOH 250630Z AUTO 14007KT 10SM CLR 12/07 A2993 960 71 800 150/07 RMK AO2 T01170067
04850KAOH AOH20160425013510804/25/16 01:35:31  5-MIN KAOH 250635Z AUTO 14007KT 10SM CLR 13/06 A2993 970 63 1000 150/07 RMK AO2 T01280061
04850KAOH AOH20160425014010704/25/16 01:40:31  5-MIN KAOH 250640Z AUTO 14007KT 10SM CLR 12/06 A2993 970 66 900 150/07 RMK AO2 T01220061
04850KAOH AOH20160425014510804/25/16 01:45:31  5-MIN KAOH 250645Z AUTO 15007KT 10SM CLR 13/06 A2993 970 63 1000 150/07 RMK AO2 T01280061
04850KAOH AOH20160425015011404/25/16 01:50:31  5-MIN KAOH 250650Z AUTO 14007KT 10SM CLR 12/06 A2993 970 66 900 150/07 RMK AO2 SLP132 T01220061
04850KAOH AOH20160425015510704/25/16 01:55:31  5-MIN KAOH 250655Z AUTO 14007KT 10SM CLR 12/06 A2993 970 66 900 150/07 RMK AO2 T01220061
04850KAOH AOH20160425020010704/25/16 02:00:31  5-MIN KAOH 250700Z AUTO 14007KT 10SM CLR 12/07 A2993 970 68 900 150/07 RMK AO2 T01220067
04850KAOH AOH20160425020510704/25/16 02:05:31  5-MIN KAOH 250705Z AUTO 14007KT 10SM CLR 12/07 A2993 970 68 900 150/07 RMK AO2 T01220067
04850KAOH AOH20160425021010704/25/16 02:10:31  5-MIN KAOH 250710Z AUTO 14007KT 10SM CLR 12/07 A2993 970 68 900 150/07 RMK AO2 T01220067
04850KAOH AOH20160425021510704/25/16 02:15:31  5-MIN KAOH 250715Z AUTO 15007KT 10SM CLR 12/07 A2992 970 68 900 150/07 RMK AO2 T01220067
04850KAOH AOH20160425022010704/25/16 02:20:31  5-MIN KAOH 250720Z AUTO 15007KT 10SM CLR 12/06 A2992 980 66 900 150/07 RMK AO2 T01220061
04850KAOH AOH20160425022510704/25/16 02:25:31  5-MIN KAOH 250725Z AUTO 15008KT 10SM CLR 12/07 A2992 980 68 900 150/08 RMK AO2 T01220067
04850KAOH AOH20160425023010804/25/16 02:30:31  5-MIN KAOH 250730Z AUTO 15008KT 10SM CLR 13/06 A2992 980 63 1000 160/08 RMK AO2 T01280061
04850KAOH AOH20160425023510804/25/16 02:35:31  5-MIN KAOH 250735Z AUTO 15008KT 10SM CLR 13/07 A2992 980 66 1000 160/08 RMK AO2 T01280067
04850KAOH AOH20160425024010804/25/16 02:40:31  5-MIN KAOH 250740Z AUTO 15008KT 10SM CLR 13/07 A2992 980 66 1000 160/08 RMK AO2 T01280067
04850KAOH AOH20160425024510804/25/16 02:45:31  5-MIN KAOH 250745Z AUTO 15008KT 10SM CLR 13/07 A2992 980 66 1000 150/08 RMK AO2 T01280067
04850KAOH AOH20160425025011504/25/16 02:50:31  5-MIN KAOH 250750Z AUTO 15008KT 10SM CLR 13/07 A2992 980 64 1000 150/08 RMK AO2 SLP130 T01330067
04850KAOH AOH20160425025510804/25/16 02:55:31  5-MIN KAOH 250755Z AUTO 15007KT 10SM CLR 13/07 A2992 980 66 1000 150/07 RMK AO2 T01280067
04850KAOH AOH20160425030010804/25/16 03:00:31  5-MIN KAOH 250800Z AUTO 15007KT 10SM CLR 13/07 A2993 970 66 1000 160/07 RMK AO2 T01280067
04850KAOH AOH20160425030510704/25/16 03:05:31  5-MIN KAOH 250805Z AUTO 16007KT 10SM CLR 12/07 A2993 970 68 900 160/07 RMK AO2 T01220067
04850KAOH AOH20160425031010704/25/16 03:10:31  5-MIN KAOH 250810Z AUTO 16007KT 10SM CLR 12/07 A2993 970 68 900 160/07 RMK AO2 T01220067
04850KAOH AOH20160425031510704/25/16 03:15:31  5-MIN KAOH 250815Z AUTO 15007KT 10SM CLR 12/07 A2993 970 68 900 160/07 RMK AO2 T01220067
04850KAOH AOH20160425032010704/25/16 03:20:31  5-MIN KAOH 250820Z AUTO 16008KT 10SM CLR 12/07 A2993 970 68 900 160/08 RMK AO2 T01220067
04850KAOH AOH20160425032510704/25/16 03:25:31  5-MIN KAOH 250825Z AUTO 16008KT 10SM CLR 12/07 A2993 970 68 900 160/08 RMK AO2 T01220067
04850KAOH AOH20160425033010704/25/16 03:30:31  5-MIN KAOH 250830Z AUTO 16008KT 10SM CLR 12/07 A2993 970 68 900 160/08 RMK AO2 T01220067
04850KAOH AOH20160425033510704/25/16 03:35:31  5-MIN KAOH 250835Z AUTO 16008KT 10SM CLR 12/07 A2993 970 68 900 170/08 RMK AO2 T01220067
04850KAOH AOH20160425034010704/25/16 03:40:31  5-MIN KAOH 250840Z AUTO 16008KT 10SM CLR 12/07 A2993 970 68 900 170/08 RMK AO2 T01220067
04850KAOH AOH20160425034510704/25/16 03:45:31  5-MIN KAOH 250845Z AUTO 16008KT 10SM CLR 12/07 A2993 970 68 900 170/08 RMK AO2 T01220067
04850KAOH AOH20160425035012004/25/16 03:50:31  5-MIN KAOH 250850Z AUTO 16009KT 10SM CLR 12/07 A2993 970 71 800 160/09 RMK AO2 SLP131 T01170067 56004
04850KAOH AOH20160425035510704/25/16 03:55:31  5-MIN KAOH 250855Z AUTO 16008KT 10SM CLR 12/07 A2993 970 71 800 160/08 RMK AO2 T01170067
04850KAOH AOH20160425040010704/25/16 04:00:31  5-MIN KAOH 250900Z AUTO 16009KT 10SM CLR 12/07 A2993 970 71 800 160/09 RMK AO2 T01170067
04850KAOH AOH20160425040510704/25/16 04:05:31  5-MIN KAOH 250905Z AUTO 16009KT 10SM CLR 12/06 A2993 970 66 900 160/09 RMK AO2 T01220061
04850KAOH AOH20160425041010704/25/16 04:10:31  5-MIN KAOH 250910Z AUTO 15009KT 10SM CLR 12/06 A2992 980 66 900 160/09 RMK AO2 T01220061
04850KAOH AOH20160425041510704/25/16 04:15:31  5-MIN KAOH 250915Z AUTO 15009KT 10SM CLR 12/06 A2992 980 66 900 160/09 RMK AO2 T01220061
04850KAOH AOH20160425042010704/25/16 04:20:31  5-MIN KAOH 250920Z AUTO 15010KT 10SM CLR 12/06 A2992 980 66 900 160/10 RMK AO2 T01220061
04850KAOH AOH20160425042510804/25/16 04:25:31  5-MIN KAOH 250925Z AUTO 16010KT 10SM CLR 13/06 A2992 980 63 1000 170/10 RMK AO2 T01280061
04850KAOH AOH20160425043010804/25/16 04:30:31  5-MIN KAOH 250930Z AUTO 16010KT 10SM CLR 13/06 A2992 980 63 1000 170/10 RMK AO2 T01280061
04850KAOH AOH20160425043510804/25/16 04:35:31  5-MIN KAOH 250935Z AUTO 17009KT 10SM CLR 13/06 A2992 980 61 1000 170/09 RMK AO2 T01280056
04850KAOH AOH20160425044010804/25/16 04:40:31  5-MIN KAOH 250940Z AUTO 16009KT 10SM CLR 13/06 A2992 980 61 1000 170/09 RMK AO2 T01280056
04850KAOH AOH20160425044510804/25/16 04:45:31  5-MIN KAOH 250945Z AUTO 17009KT 10SM CLR 13/06 A2992 980 59 1000 170/09 RMK AO2 T01330056
04850KAOH AOH20160425045011504/25/16 04:50:31  5-MIN KAOH 250950Z AUTO 16009KT 10SM CLR 13/06 A2992 980 59 1100 170/09 RMK AO2 SLP128 T01330056
04850KAOH AOH20160425045510704/25/16 04:55:31  5-MIN KAOH 250955Z AUTO 16009KT 10SM CLR 12/06 A2992 980 63 900 170/09 RMK AO2 T01220056
04850KAOH AOH20160425050010704/25/16 05:00:31  5-MIN KAOH 251000Z AUTO 16009KT 10SM CLR 12/06 A2992 980 63 900 170/09 RMK AO2 T01220056
04850KAOH AOH20160425050510704/25/16 05:05:31  5-MIN KAOH 251005Z AUTO 16009KT 10SM CLR 12/06 A2992 980 63 900 170/09 RMK AO2 T01220056
04850KAOH AOH20160425051010704/25/16 05:10:31  5-MIN KAOH 251010Z AUTO 16010KT 10SM CLR 12/06 A2992 980 63 900 160/10 RMK AO2 T01220056
04850KAOH AOH20160425051510704/25/16 05:15:31  5-MIN KAOH 251015Z AUTO 16010KT 10SM CLR 12/06 A2992 980 63 900 160/10 RMK AO2 T01220056
04850KAOH AOH20160425052010804/25/16 05:20:31  5-MIN KAOH 251020Z AUTO 16010KT 10SM CLR 13/06 A2991 980 61 1000 170/10 RMK AO2 T01280056
04850KAOH AOH20160425052510704/25/16 05:25:31  5-MIN KAOH 251025Z AUTO 16010KT 10SM CLR 12/06 A2991 980 63 900 170/10 RMK AO2 T01220056
04850KAOH AOH20160425053010704/25/16 05:30:31  5-MIN KAOH 251030Z AUTO 16009KT 10SM CLR 12/06 A2991 980 63 900 170/09 RMK AO2 T01220056
04850KAOH AOH20160425053510704/25/16 05:35:31  5-MIN KAOH 251035Z AUTO 16009KT 10SM CLR 12/06 A2991 990 63 900 170/09 RMK AO2 T01220056
04850KAOH AOH20160425054010704/25/16 05:40:31  5-MIN KAOH 251040Z AUTO 16009KT 10SM CLR 12/06 A2991 990 66 900 170/09 RMK AO2 T01170056
04850KAOH AOH20160425054511004/25/16 05:45:31  5-MIN KAOH 251045Z AUTO 16009KT 10SM FEW070 12/06 A2991 990 63 900 170/09 RMK AO2 T01220056
04850KAOH AOH20160425055011704/25/16 05:50:31  5-MIN KAOH 251050Z AUTO 17008KT 10SM SCT070 12/06 A2991 990 63 900 170/08 RMK AO2 SLP126 T01220056
04850KAOH AOH20160425055511004/25/16 05:55:31  5-MIN KAOH 251055Z AUTO 16008KT 10SM BKN070 12/06 A2991 990 63 900 170/08 RMK AO2 T01220056
04850KAOH AOH20160425060011004/25/16 06:00:31  5-MIN KAOH 251100Z AUTO 16009KT 10SM BKN070 12/06 A2991 980 63 900 170/09 RMK AO2 T01220056
04850KAOH AOH20160425060511104/25/16 06:05:31  5-MIN KAOH 251105Z AUTO 16009KT 10SM BKN070 13/06 A2991 980 61 1000 170/09 RMK AO2 T01280056
04850KAOH AOH20160425061011104/25/16 06:10:31  5-MIN KAOH 251110Z AUTO 16009KT 10SM OVC070 13/06 A2992 980 59 1100 170/09 RMK AO2 T01330056
04850KAOH AOH20160425061511104/25/16 06:15:31  5-MIN KAOH 251115Z AUTO 17009KT 10SM OVC070 13/06 A2992 980 59 1100 170/09 RMK AO2 T01330056
04850KAOH AOH20160425062011104/25/16 06:20:31  5-MIN KAOH 251120Z AUTO 17009KT 10SM OVC070 14/05 A2992 980 55 1100 170/09 RMK AO2 T01390050
04850KAOH AOH20160425062511104/25/16 06:25:31  5-MIN KAOH 251125Z AUTO 16009KT 10SM OVC070 14/06 A2992 980 57 1100 170/09 RMK AO2 T01390056
04850KAOH AOH20160425063011104/25/16 06:30:31  5-MIN KAOH 251130Z AUTO 16009KT 10SM OVC070 14/06 A2992 980 59 1100 170/09 RMK AO2 T01390061
04850KAOH AOH20160425063511104/25/16 06:35:31  5-MIN KAOH 251135Z AUTO 16010KT 10SM OVC070 14/06 A2992 980 59 1100 170/10 RMK AO2 T01390061
04850KAOH AOH20160425064011104/25/16 06:40:31  5-MIN KAOH 251140Z AUTO 17009KT 10SM OVC070 14/06 A2992 980 57 1100 170/09 RMK AO2 T01390056
04850KAOH AOH20160425064511104/25/16 06:45:31  5-MIN KAOH 251145Z AUTO 17009KT 10SM OVC075 14/06 A2992 980 55 1200 170/09 RMK AO2 T01440056
04850KAOH AOH20160425065013604/25/16 06:50:31  5-MIN KAOH 251150Z AUTO 17009KT 10SM OVC075 14/06 A2992 980 55 1200 170/09 RMK AO2 SLP129 T01440056 10144 20111 55006
04850KAOH AOH20160425065511104/25/16 06:55:31  5-MIN KAOH 251155Z AUTO 16009KT 10SM BKN075 14/06 A2992 980 57 1200 170/09 RMK AO2 T01440061
04850KAOH AOH20160425070011104/25/16 07:00:31  5-MIN KAOH 251200Z AUTO 16009KT 10SM OVC075 14/06 A2992 980 57 1200 170/09 RMK AO2 T01440061
04850KAOH AOH20160425070511104/25/16 07:05:31  5-MIN KAOH 251205Z AUTO 16009KT 10SM BKN075 14/07 A2992 980 59 1200 170/09 RMK AO2 T01440067
04850KAOH AOH20160425071011104/25/16 07:10:31  5-MIN KAOH 251210Z AUTO 16009KT 10SM BKN075 14/07 A2992 980 59 1200 170/09 RMK AO2 T01440067
04850KAOH AOH20160425071511104/25/16 07:15:31  5-MIN KAOH 251215Z AUTO 16008KT 10SM BKN075 14/07 A2992 980 59 1200 170/08 RMK AO2 T01440067
04850KAOH AOH20160425072011104/25/16 07:20:31  5-MIN KAOH 251220Z AUTO 16008KT 10SM BKN075 15/07 A2992 980 57 1300 160/08 RMK AO2 T01500067
04850KAOH AOH20160425072511104/25/16 07:25:31  5-MIN KAOH 251225Z AUTO 17009KT 10SM BKN075 15/07 A2991 980 57 1300 170/09 RMK AO2 T01500067
04850KAOH AOH20160425073011104/25/16 07:30:31  5-MIN KAOH 251230Z AUTO 17008KT 10SM BKN075 15/07 A2991 980 59 1300 170/08 RMK AO2 T01500072
04850KAOH AOH20160425073511104/25/16 07:35:31  5-MIN KAOH 251235Z AUTO 17009KT 10SM BKN075 15/07 A2991 980 59 1300 180/09 RMK AO2 T01500072
04850KAOH AOH20160425074011104/25/16 07:40:31  5-MIN KAOH 251240Z AUTO 17009KT 10SM BKN075 16/07 A2991 980 55 1300 180/09 RMK AO2 T01560067
04850KAOH AOH20160425074511104/25/16 07:45:31  5-MIN KAOH 251245Z AUTO 17009KT 10SM BKN075 16/07 A2991 980 53 1400 180/09 RMK AO2 T01610067
04850KAOH AOH20160425075011804/25/16 07:50:31  5-MIN KAOH 251250Z AUTO 17009KT 10SM BKN070 17/07 A2991 990 51 1500 180/09 RMK AO2 SLP126 T01670067
04850KAOH AOH20160425075511104/25/16 07:55:31  5-MIN KAOH 251255Z AUTO 18009KT 10SM BKN070 17/07 A2991 980 51 1400 180/09 RMK AO2 T01670067
04850KAOH AOH20160425080011104/25/16 08:00:31  5-MIN KAOH 251300Z AUTO 18009KT 10SM BKN075 17/07 A2991 990 51 1400 180/09 RMK AO2 T01670067
04850KAOH AOH20160425080511804/25/16 08:05:31  5-MIN KAOH 251305Z AUTO 18010KT 10SM FEW065 BKN080 16/07 A2991 990 53 1400 190/10 RMK AO2 T01610067
04850KAOH AOH20160425081011804/25/16 08:10:31  5-MIN KAOH 251310Z AUTO 18010KT 10SM FEW065 BKN080 17/07 A2991 990 51 1500 180/10 RMK AO2 T01670067
04850KAOH AOH20160425081511804/25/16 08:15:31  5-MIN KAOH 251315Z AUTO 17009KT 10SM FEW065 BKN080 17/07 A2991 990 49 1500 180/09 RMK AO2 T01720067
04850KAOH AOH20160425082011104/25/16 08:20:31  5-MIN KAOH 251320Z AUTO 17009KT 10SM BKN080 17/08 A2991 990 53 1500 180/09 RMK AO2 T01720078
04850KAOH AOH20160425082511204/25/16 08:25:31  5-MIN KAOH 251325Z AUTO 17010KT 10SM SCT080 18/08 A2990 1000 51 1600 180/10 RMK AO2 T01780078
04850KAOH AOH20160425083011204/25/16 08:30:31  5-MIN KAOH 251330Z AUTO 17009KT 10SM FEW080 18/08 A2990 1000 51 1600 170/09 RMK AO2 T01780078
04850KAOH AOH20160425083511204/25/16 08:35:31  5-MIN KAOH 251335Z AUTO 17011KT 10SM FEW080 18/08 A2989 1010 52 1700 180/11 RMK AO2 T01830083
04850KAOH AOH20160425084011204/25/16 08:40:31  5-MIN KAOH 251340Z AUTO 17010KT 10SM FEW080 18/08 A2989 1000 52 1700 180/10 RMK AO2 T01830083
04850KAOH AOH20160425084510904/25/16 08:45:31  5-MIN KAOH 251345Z AUTO 18010KT 10SM CLR 19/09 A2989 1010 52 1700 180/10 RMK AO2 T01890089
04850KAOH AOH20160425085011604/25/16 08:50:31  5-MIN KAOH 251350Z AUTO 17012KT 10SM CLR 19/09 A2988 1010 50 1800 170/12 RMK AO2 SLP116 T01940089
04850KAOH AOH20160425085510904/25/16 08:55:31  5-MIN KAOH 251355Z AUTO 18010KT 10SM CLR 19/09 A2988 1010 52 1800 190/10 RMK AO2 T01940094
04850KAOH AOH20160425090010904/25/16 09:00:31  5-MIN KAOH 251400Z AUTO 19012KT 10SM CLR 20/09 A2988 1010 50 1900 190/12 RMK AO2 T02000094
04850KAOH AOH20160425090510904/25/16 09:05:31  5-MIN KAOH 251405Z AUTO 19012KT 10SM CLR 21/09 A2988 1010 48 1900 190/12 RMK AO2 T02060094
04850KAOH AOH20160425091011504/25/16 09:10:31  5-MIN KAOH 251410Z AUTO 19013G18KT 10SM CLR 20/09 A2988 1020 48 1900 200/13G18 RMK AO2 T02000089
04850KAOH AOH20160425091510904/25/16 09:15:31  5-MIN KAOH 251415Z AUTO 19012KT 10SM CLR 20/09 A2988 1020 48 1900 190/12 RMK AO2 T02000089
04850KAOH AOH20160425092010904/25/16 09:20:31  5-MIN KAOH 251420Z AUTO 19013KT 10SM CLR 20/09 A2988 1020 48 1900 190/13 RMK AO2 T02000089
04850KAOH AOH20160425092510904/25/16 09:25:31  5-MIN KAOH 251425Z AUTO 19011KT 10SM CLR 20/09 A2988 1020 48 1900 190/11 RMK AO2 T02000089
04850KAOH AOH20160425093011204/25/16 09:30:31  5-MIN KAOH 251430Z AUTO 19010KT 10SM FEW060 21/09 A2988 1020 48 1900 190/10 RMK AO2 T02060094
04850KAOH AOH20160425093511204/25/16 09:35:31  5-MIN KAOH 251435Z AUTO 21011KT 10SM SCT060 21/10 A2988 1020 48 2000 220/11 RMK AO2 T02110100
04850KAOH AOH20160425094011204/25/16 09:40:31  5-MIN KAOH 251440Z AUTO 19009KT 10SM FEW060 21/10 A2988 1020 48 2000 190/09 RMK AO2 T02110100
04850KAOH AOH20160425094511204/25/16 09:45:31  5-MIN KAOH 251445Z AUTO 19013KT 10SM FEW060 22/10 A2988 1020 47 2100 200/13 RMK AO2 T02170100
04850KAOH AOH20160425095012504/25/16 09:50:31  5-MIN KAOH 251450Z AUTO 19009KT 10SM FEW060 21/10 A2988 1020 48 2000 200/09 RMK AO2 SLP114 T02110100 55002
04850KAOH AOH20160425095511204/25/16 09:55:31  5-MIN KAOH 251455Z AUTO 20009KT 10SM FEW060 22/10 A2988 1020 47 2100 210/09 RMK AO2 T02170100
04850KAOH AOH20160425100011204/25/16 10:00:31  5-MIN KAOH 251500Z AUTO 21010KT 10SM FEW060 22/11 A2988 1010 49 2100 220/10 RMK AO2 T02170106
04850KAOH AOH20160425100510904/25/16 10:05:31  5-MIN KAOH 251505Z AUTO 22010KT 10SM CLR 22/11 A2988 1010 47 2100 220/10 RMK AO2 T02220106
04850KAOH AOH20160425101011204/25/16 10:10:31  5-MIN KAOH 251510Z AUTO 21008KT 10SM FEW080 22/11 A2988 1020 49 2100 210/08 RMK AO2 T02220111
04850KAOH AOH20160425101511204/25/16 10:15:31  5-MIN KAOH 251515Z AUTO 20009KT 10SM SCT080 22/11 A2988 1020 47 2100 200/09 RMK AO2 T02220106
04850KAOH AOH20160425102011204/25/16 10:20:31  5-MIN KAOH 251520Z AUTO 22011KT 10SM BKN075 22/11 A2988 1020 47 2100 230/11 RMK AO2 T02220106
04850KAOH AOH20160425102511204/25/16 10:25:31  5-MIN KAOH 251525Z AUTO 21011KT 10SM BKN075 22/11 A2987 1020 47 2100 210/11 RMK AO2 T02220106
04850KAOH AOH20160425103011904/25/16 10:30:31  5-MIN KAOH 251530Z AUTO 23011KT 10SM BKN075 BKN090 23/11 A2987 1020 47 2200 230/11 RMK AO2 T02280111
04850KAOH AOH20160425103511904/25/16 10:35:31  5-MIN KAOH 251535Z AUTO 21009KT 10SM BKN075 BKN090 23/11 A2987 1020 47 2200 220/09 RMK AO2 T02280111
04850KAOH AOH20160425104011204/25/16 10:40:31  5-MIN KAOH 251540Z AUTO 22009KT 10SM BKN070 23/11 A2987 1020 47 2200 220/09 RMK AO2 T02280111
04850KAOH AOH20160425104511904/25/16 10:45:31  5-MIN KAOH 251545Z AUTO 22011KT 10SM SCT070 SCT085 23/12 A2987 1030 47 2300 230/11 RMK AO2 T02330117
04850KAOH AOH20160425105012604/25/16 10:50:31  5-MIN KAOH 251550Z AUTO 21013KT 10SM FEW070 FEW085 23/12 A2987 1030 47 2300 210/13 RMK AO2 SLP109 T02330117
04850KAOH AOH20160425105511904/25/16 10:55:31  5-MIN KAOH 251555Z AUTO 21011KT 10SM FEW065 FEW085 23/12 A2986 1030 47 2300 220/11 RMK AO2 T02330117
04850KAOH AOH20160425110011904/25/16 11:00:31  5-MIN KAOH 251600Z AUTO 24012KT 10SM FEW065 FEW080 24/12 A2987 1030 46 2300 240/12 RMK AO2 T02390117
04850KAOH AOH20160425110511204/25/16 11:05:31  5-MIN KAOH 251605Z AUTO 24014KT 10SM FEW080 24/12 A2987 1030 46 2300 250/14 RMK AO2 T02390117
04850KAOH AOH20160425111010904/25/16 11:10:31  5-MIN KAOH 251610Z AUTO 23016KT 10SM CLR 24/12 A2987 1030 46 2300 240/16 RMK AO2 T02390117
04850KAOH AOH20160425111510904/25/16 11:15:31  5-MIN KAOH 251615Z AUTO 24012KT 10SM CLR 24/12 A2986 1030 46 2300 250/12 RMK AO2 T02390117
04850KAOH AOH20160425112010904/25/16 11:20:31  5-MIN KAOH 251620Z AUTO 22012KT 10SM CLR 24/12 A2986 1030 46 2400 220/12 RMK AO2 T02440122
04850KAOH AOH20160425112510904/25/16 11:25:31  5-MIN KAOH 251625Z AUTO 22013KT 10SM CLR 24/12 A2986 1030 46 2300 230/13 RMK AO2 T02390117
04850KAOH AOH20160425113011804/25/16 11:30:31  5-MIN KAOH 251630Z AUTO 23011G17KT 10SM FEW065 24/12 A2986 1040 46 2400 240/11G17 RMK AO2 T02440122
04850KAOH AOH20160425113511204/25/16 11:35:31  5-MIN KAOH 251635Z AUTO 22016KT 10SM FEW065 24/12 A2986 1040 44 2400 230/16 RMK AO2 T02440117
04850KAOH AOH20160425114011204/25/16 11:40:31  5-MIN KAOH 251640Z AUTO 23016KT 10SM FEW065 24/12 A2986 1040 44 2400 230/16 RMK AO2 T02440117
04850KAOH AOH20160425114511804/25/16 11:45:31  5-MIN KAOH 251645Z AUTO 24015G23KT 10SM FEW065 24/11 A2985 1040 44 2300 250/15G23 RMK AO2 T02390111
04850KAOH AOH20160425115012504/25/16 11:50:31  5-MIN KAOH 251650Z AUTO 24012G23KT 10SM SCT060 25/12 A2985 1040 43 2500 250/12G23 RMK AO2 SLP105 T02500117
04850KAOH AOH20160425115511804/25/16 11:55:31  5-MIN KAOH 251655Z AUTO 22014G22KT 10SM SCT060 25/12 A2985 1040 43 2500 220/14G22 RMK AO2 T02500117
04850KAOH AOH20160425120012504/25/16 12:00:31  5-MIN KAOH 251700Z AUTO 23013G22KT 10SM FEW060 SCT075 24/11 A2985 1040 42 2400 240/13G22 RMK AO2 T02440111
04850KAOH AOH20160425120512504/25/16 12:05:31  5-MIN KAOH 251705Z AUTO 23017G22KT 10SM FEW060 SCT080 24/11 A2985 1040 41 2400 230/17G22 RMK AO2 T02440106
04850KAOH AOH20160425121012504/25/16 12:10:31  5-MIN KAOH 251710Z AUTO 22017G25KT 10SM FEW065 SCT080 24/10 A2985 1040 39 2400 220/17G25 RMK AO2 T02440100
04850KAOH AOH20160425121512504/25/16 12:15:31  5-MIN KAOH 251715Z AUTO 22015G25KT 10SM FEW065 SCT080 24/10 A2985 1040 41 2400 220/15G25 RMK AO2 T02390100
04850KAOH AOH20160425122011904/25/16 12:20:31  5-MIN KAOH 251720Z AUTO 23016KT 10SM SCT070 SCT080 24/10 A2985 1040 41 2400 240/16 RMK AO2 T02390100
04850KAOH AOH20160425122511804/25/16 12:25:31  5-MIN KAOH 251725Z AUTO 23015G23KT 10SM SCT075 25/10 A2985 1050 38 2500 230/15G23 RMK AO2 T02500100
04850KAOH AOH20160425123011804/25/16 12:30:31  5-MIN KAOH 251730Z AUTO 22012G23KT 10SM SCT075 25/10 A2984 1050 38 2500 230/12G23 RMK AO2 T02500100
04850KAOH AOH20160425123511804/25/16 12:35:31  5-MIN KAOH 251735Z AUTO 23016G21KT 10SM SCT075 24/09 A2984 1050 38 2400 240/16G21 RMK AO2 T02440094
04850KAOH AOH20160425124013604/25/16 12:40:31  5-MIN KAOH 251740Z AUTO 24019G26KT 10SM SCT075 25/10 A2984 1050 38 2500 250/19G26 RMK AO2 PK WND 25026/1740 T02500100
04850KAOH AOH20160425124513604/25/16 12:45:31  5-MIN KAOH 251745Z AUTO 24016G26KT 10SM FEW075 26/10 A2983 1060 37 2600 250/16G26 RMK AO2 PK WND 25026/1740 T02560100
04850KAOH AOH20160425125016104/25/16 12:50:31  5-MIN KAOH 251750Z AUTO 24019G25KT 10SM FEW075 26/10 A2983 1060 36 2600 250/19G25 RMK AO2 PK WND 25026/1740 SLP096 T02610100 10261 20144 56014
04850KAOH AOH20160425125511804/25/16 12:55:31  5-MIN KAOH 251755Z AUTO 23020G25KT 10SM FEW075 25/09 A2983 1060 37 2500 230/20G25 RMK AO2 T02500094
04850KAOH AOH20160425130011804/25/16 13:00:31  5-MIN KAOH 251800Z AUTO 22017G25KT 10SM FEW075 26/11 A2983 1060 37 2600 230/17G25 RMK AO2 T02610106
04850KAOH AOH20160425130513604/25/16 13:05:31  5-MIN KAOH 251805Z AUTO 24020G26KT 10SM FEW075 26/10 A2982 1070 37 2600 240/20G26 RMK AO2 PK WND 24026/1804 T02560100
04850KAOH AOH20160425131013604/25/16 13:10:31  5-MIN KAOH 251810Z AUTO 21016G26KT 10SM FEW070 25/10 A2982 1070 38 2500 220/16G26 RMK AO2 PK WND 24026/1804 T02500100
04850KAOH AOH20160425131513604/25/16 13:15:31  5-MIN KAOH 251815Z AUTO 23016G28KT 10SM FEW070 24/10 A2982 1070 39 2400 230/16G28 RMK AO2 PK WND 22028/1811 T02440100
04850KAOH AOH20160425132013304/25/16 13:20:31  5-MIN KAOH 251820Z AUTO 23015G28KT 10SM CLR 24/11 A2982 1070 41 2400 230/15G28 RMK AO2 PK WND 22028/1811 T02440106
04850KAOH AOH20160425132513604/25/16 13:25:31  5-MIN KAOH 251825Z AUTO 22016G22KT 10SM FEW070 26/11 A2982 1070 40 2600 230/16G22 RMK AO2 PK WND 22028/1811 T02560111
04850KAOH AOH20160425133013604/25/16 13:30:31  5-MIN KAOH 251830Z AUTO 22016G22KT 10SM SCT070 25/11 A2982 1070 39 2500 230/16G22 RMK AO2 PK WND 22028/1811 T02500106
04850KAOH AOH20160425133513604/25/16 13:35:31  5-MIN KAOH 251835Z AUTO 24016G24KT 10SM SCT070 25/10 A2982 1070 38 2500 240/16G24 RMK AO2 PK WND 22028/1811 T02500100
04850KAOH AOH20160425134013604/25/16 13:40:31  5-MIN KAOH 251840Z AUTO 22018G24KT 10SM SCT070 26/10 A2982 1070 37 2600 230/18G24 RMK AO2 PK WND 22028/1811 T02560100
04850KAOH AOH20160425134513604/25/16 13:45:31  5-MIN KAOH 251845Z AUTO 24017G24KT 10SM SCT070 25/10 A2981 1080 38 2500 240/17G24 RMK AO2 PK WND 22028/1811 T02500100
04850KAOH AOH20160425135014304/25/16 13:50:31  5-MIN KAOH 251850Z AUTO 22021G27KT 10SM SCT070 26/10 A2981 1080 37 2600 230/21G27 RMK AO2 PK WND 22028/1811 SLP091 T02560100
04850KAOH AOH20160425135511804/25/16 13:55:31  5-MIN KAOH 251855Z AUTO 24018G27KT 10SM SCT070 26/10 A2981 1080 37 2600 240/18G27 RMK AO2 T02560100
04850KAOH AOH20160425140013604/25/16 14:00:31  5-MIN KAOH 251900Z AUTO 22016G26KT 10SM FEW070 26/09 A2981 1080 35 2600 230/16G26 RMK AO2 PK WND 23026/1857 T02560094
04850KAOH AOH20160425140513604/25/16 14:05:31  5-MIN KAOH 251905Z AUTO 24020G26KT 10SM FEW070 26/10 A2980 1090 37 2600 240/20G26 RMK AO2 PK WND 23026/1857 T02560100
04850KAOH AOH20160425141013604/25/16 14:10:31  5-MIN KAOH 251910Z AUTO 21016G28KT 10SM SCT070 26/10 A2980 1090 36 2700 210/16G28 RMK AO2 PK WND 23028/1907 T02610100
04850KAOH AOH20160425141513604/25/16 14:15:31  5-MIN KAOH 251915Z AUTO 22020G28KT 10SM SCT075 25/10 A2980 1090 38 2500 220/20G28 RMK AO2 PK WND 23028/1907 T02500100
04850KAOH AOH20160425142013604/25/16 14:20:31  5-MIN KAOH 251920Z AUTO 21016G26KT 10SM SCT075 26/10 A2980 1090 37 2600 220/16G26 RMK AO2 PK WND 23028/1907 T02560100
04850KAOH AOH20160425142513604/25/16 14:25:31  5-MIN KAOH 251925Z AUTO 22016G26KT 10SM SCT075 26/09 A2980 1090 35 2600 220/16G26 RMK AO2 PK WND 23028/1907 T02560094
04850KAOH AOH20160425143013604/25/16 14:30:31  5-MIN KAOH 251930Z AUTO 20017G25KT 10SM SCT075 25/10 A2980 1090 38 2500 210/17G25 RMK AO2 PK WND 23028/1907 T02500100
04850KAOH AOH20160426173011404/26/16 17:30:31  5-MIN KAOH 262230Z AUTO 06011KT 6SM HZ OVC012 13/11 A2983 1070 83 1200 060/11 RMK AO2 T01330106
04850KAOH AOH20160426173511404/26/16 17:35:31  5-MIN KAOH 262235Z AUTO 06012KT 6SM HZ OVC012 13/11 A2982 1070 83 1200 070/12 RMK AO2 T01330106
04850KAOH AOH20160426174011404/26/16 17:40:31  5-MIN KAOH 262240Z AUTO 06012KT 6SM BR OVC012 13/11 A2982 1070 86 1100 060/12 RMK AO2 T01280106
04850KAOH AOH20160426174512004/26/16 17:45:31  5-MIN KAOH 262245Z AUTO 05013G17KT 6SM BR OVC012 13/11 A2982 1070 86 1100 060/13G17 RMK AO2 T01280106
04850KAOH AOH20160426175012704/26/16 17:50:31  5-MIN KAOH 262250Z AUTO 06012G17KT 6SM HZ OVC012 13/10 A2982 1070 83 1100 060/12G17 RMK AO2 SLP095 T01280100
04850KAOH AOH20160426175512004/26/16 17:55:31  5-MIN KAOH 262255Z AUTO 05012G19KT 6SM BR OVC012 12/10 A2982 1070 86 1000 060/12G19 RMK AO2 T01220100
04850KAOH AOH20160426180011704/26/16 18:00:31  5-MIN KAOH 262300Z AUTO 06015G19KT 7SM OVC011 12/09 A2982 1070 86 1000 070/15G19 RMK AO2 T01170094
04850KAOH AOH20160426180511104/26/16 18:05:31  5-MIN KAOH 262305Z AUTO 06012KT 7SM OVC011 12/09 A2983 1060 86 1000 070/12 RMK AO2 T01170094
04850KAOH AOH20160426181011704/26/16 18:10:31  5-MIN KAOH 262310Z AUTO 05012G18KT 7SM OVC011 12/09 A2983 1060 83 1000 060/12G18 RMK AO2 T01170089
04850KAOH AOH20160426181511004/26/16 18:15:31  5-MIN KAOH 262315Z AUTO 06009KT 7SM OVC010 12/09 A2984 1060 83 900 060/09 RMK AO2 T01170089
04850KAOH AOH20160426182011604/26/16 18:20:31  5-MIN KAOH 262320Z AUTO 06015G19KT 7SM OVC010 12/09 A2984 1050 83 900 070/15G19 RMK AO2 T01170089
04850KAOH AOH20160426182511604/26/16 18:25:31  5-MIN KAOH 262325Z AUTO 05013G19KT 7SM OVC012 11/09 A2984 1050 86 900 050/13G19 RMK AO2 T01110089
04850KAOH AOH20160426183011004/26/16 18:30:31  5-MIN KAOH 262330Z AUTO 05014KT 7SM OVC012 11/09 A2984 1050 86 900 060/14 RMK AO2 T01110089
04850KAOH AOH20160426183511004/26/16 18:35:31  5-MIN KAOH 262335Z AUTO 06012KT 7SM OVC012 11/08 A2984 1050 83 900 070/12 RMK AO2 T01110083
04850KAOH AOH20160426184011004/26/16 18:40:31  5-MIN KAOH 262340Z AUTO 05014KT 7SM OVC012 11/08 A2984 1050 83 900 060/14 RMK AO2 T01110083
04850KAOH AOH20160426184511004/26/16 18:45:31  5-MIN KAOH 262345Z AUTO 05013KT 7SM OVC012 11/08 A2984 1050 83 900 050/13 RMK AO2 T01110083
04850KAOH AOH20160426185013504/26/16 18:50:31  5-MIN KAOH 262350Z AUTO 05012KT 7SM OVC012 11/08 A2984 1050 86 800 060/12 RMK AO2 SLP103 T01060083 10256 20106 53004
04850KAOH AOH20160426185511004/26/16 18:55:31  5-MIN KAOH 262355Z AUTO 05013KT 7SM OVC012 11/08 A2984 1050 86 800 050/13 RMK AO2 T01060083
04850KAOH AOH20160426190011604/26/16 19:00:31  5-MIN KAOH 270000Z AUTO 06013G17KT 7SM OVC012 11/08 A2984 1050 86 800 060/13G17 RMK AO2 T01060083
04850KAOH AOH20160426190511604/26/16 19:05:31  5-MIN KAOH 270005Z AUTO 06010G17KT 7SM OVC012 11/08 A2984 1050 83 800 060/10G17 RMK AO2 T01060078
04850KAOH AOH20160426191011604/26/16 19:10:31  5-MIN KAOH 270010Z AUTO 07013G17KT 8SM OVC012 11/08 A2984 1050 83 800 070/13G17 RMK AO2 T01060078
04850KAOH AOH20160426191511604/26/16 19:15:31  5-MIN KAOH 270015Z AUTO 06011G17KT 7SM OVC012 11/08 A2985 1050 83 800 070/11G17 RMK AO2 T01060078
04850KAOH AOH20160426192011004/26/16 19:20:31  5-MIN KAOH 270020Z AUTO 06012KT 7SM OVC012 11/08 A2985 1040 83 800 060/12 RMK AO2 T01060078
04850KAOH AOH20160426192511604/26/16 19:25:31  5-MIN KAOH 270025Z AUTO 07013G19KT 8SM OVC012 10/08 A2985 1040 86 700 070/13G19 RMK AO2 T01000078
04850KAOH AOH20160426193011004/26/16 19:30:31  5-MIN KAOH 270030Z AUTO 06010KT 8SM OVC012 10/08 A2985 1040 86 700 070/10 RMK AO2 T01000078
04850KAOH AOH20160426193511604/26/16 19:35:31  5-MIN KAOH 270035Z AUTO 05010G18KT 9SM OVC012 10/08 A2985 1040 86 700 060/10G18 RMK AO2 T01000078
04850KAOH AOH20160426194011604/26/16 19:40:31  5-MIN KAOH 270040Z AUTO 06015G19KT 9SM OVC012 10/07 A2985 1040 83 700 060/15G19 RMK AO2 T01000072
04850KAOH AOH20160426194511604/26/16 19:45:31  5-MIN KAOH 270045Z AUTO 06012G19KT 9SM OVC012 10/07 A2985 1040 83 700 060/12G19 RMK AO2 T01000072
04850KAOH AOH20160426195012304/26/16 19:50:31  5-MIN KAOH 270050Z AUTO 05014G19KT 9SM OVC012 10/07 A2986 1040 83 700 060/14G19 RMK AO2 SLP108 T01000072
04850KAOH AOH20160426195511604/26/16 19:55:31  5-MIN KAOH 270055Z AUTO 06012G19KT 9SM OVC012 10/07 A2985 1040 83 700 060/12G19 RMK AO2 T01000072
04850KAOH AOH20160426200011004/26/16 20:00:31  5-MIN KAOH 270100Z AUTO 06012KT 8SM OVC012 10/07 A2986 1030 83 700 070/12 RMK AO2 T01000072
04850KAOH AOH20160426200511004/26/16 20:05:31  5-MIN KAOH 270105Z AUTO 06013KT 8SM OVC012 09/07 A2986 1030 86 700 060/13 RMK AO2 T00940072
04850KAOH AOH20160426201011004/26/16 20:10:31  5-MIN KAOH 270110Z AUTO 06010KT 8SM OVC012 09/07 A2986 1030 86 600 060/10 RMK AO2 T00940072
04850KAOH AOH20160426201511004/26/16 20:15:31  5-MIN KAOH 270115Z AUTO 06012KT 8SM OVC012 09/07 A2987 1030 86 600 070/12 RMK AO2 T00940072
04850KAOH AOH20160426202011004/26/16 20:20:31  5-MIN KAOH 270120Z AUTO 07015KT 8SM OVC012 09/07 A2987 1020 86 600 070/15 RMK AO2 T00940072
04850KAOH AOH20160426202511004/26/16 20:25:31  5-MIN KAOH 270125Z AUTO 06014KT 7SM OVC011 09/07 A2987 1020 86 600 070/14 RMK AO2 T00940072
04850KAOH AOH20160426203011004/26/16 20:30:31  5-MIN KAOH 270130Z AUTO 06012KT 7SM OVC011 09/07 A2987 1020 89 600 070/12 RMK AO2 T00890072
04850KAOH AOH20160426203511304/26/16 20:35:31  5-MIN KAOH 270135Z AUTO 06013KT 6SM BR OVC011 09/07 A2987 1030 89 600 060/13 RMK AO2 T00890072
04850KAOH AOH20160426204011304/26/16 20:40:31  5-MIN KAOH 270140Z AUTO 06010KT 6SM BR OVC010 09/07 A2987 1030 89 600 070/10 RMK AO2 T00890072
04850KAOH AOH20160426204511904/26/16 20:45:31  5-MIN KAOH 270145Z AUTO 06011G20KT 6SM BR OVC010 09/07 A2986 1030 89 600 070/11G20 RMK AO2 T00890072
04850KAOH AOH20160426205010604/26/16 20:50:31  5-MIN KAOH 270150Z AUTO 07014G20KT 7SM OVC009 09/07 A2986 1030 86 600 080/14G20 RMK AO2
04850KAOH AOH20160426205511604/26/16 20:55:31  5-MIN KAOH 270155Z AUTO 06011G19KT 7SM OVC009 09/07 A2987 1030 86 600 060/11G19 RMK AO2 T00890067
04850KAOH AOH20160426210011604/26/16 21:00:31  5-MIN KAOH 270200Z AUTO 06011G17KT 7SM OVC009 09/07 A2987 1030 86 600 060/11G17 RMK AO2 T00890067
04850KAOH AOH20160426210511004/26/16 21:05:31  5-MIN KAOH 270205Z AUTO 06012KT 8SM OVC009 08/07 A2987 1020 89 500 070/12 RMK AO2 T00830067
04850KAOH AOH20160426211011004/26/16 21:10:31  5-MIN KAOH 270210Z AUTO 05012KT 8SM OVC009 08/07 A2987 1020 89 500 060/12 RMK AO2 T00830067
04850KAOH AOH20160426211512204/26/16 21:15:31  5-MIN KAOH 270215Z AUTO 06012KT 8SM OVC009 08/06 A2987 1020 86 500 070/12 RMK AO2 CIG 009V013 T00830061
04850KAOH AOH20160426212012804/26/16 21:20:31  5-MIN KAOH 270220Z AUTO 06013G19KT 9SM OVC009 08/06 A2987 1020 86 500 060/13G19 RMK AO2 CIG 009V014 T00830061
04850KAOH AOH20160426212512804/26/16 21:25:31  5-MIN KAOH 270225Z AUTO 06010G19KT 9SM OVC010 08/06 A2987 1020 86 500 070/10G19 RMK AO2 CIG 009V014 T00830061
04850KAOH AOH20160426213012204/26/16 21:30:31  5-MIN KAOH 270230Z AUTO 07013KT 9SM OVC010 08/06 A2987 1020 86 500 080/13 RMK AO2 CIG 008V014 T00830061
04850KAOH AOH20160426213512804/26/16 21:35:31  5-MIN KAOH 270235Z AUTO 07013G19KT 8SM OVC010 08/06 A2987 1020 86 500 080/13G19 RMK AO2 CIG 008V014 T00830061
04850KAOH AOH20160426214012204/26/16 21:40:31  5-MIN KAOH 270240Z AUTO 07013KT 8SM OVC010 08/06 A2987 1020 86 500 080/13 RMK AO2 CIG 008V011 T00830061
04850KAOH AOH20160426214511004/26/16 21:45:31  5-MIN KAOH 270245Z AUTO 06014KT 8SM OVC008 08/06 A2987 1030 89 400 060/14 RMK AO2 T00780061
04850KAOH AOH20160426215012304/26/16 21:50:31  5-MIN KAOH 270250Z AUTO 06013KT 7SM OVC008 08/06 A2987 1020 89 400 070/13 RMK AO2 SLP113 T00780061 51009
04850KAOH AOH20160426215511604/26/16 21:55:31  5-MIN KAOH 270255Z AUTO 06010G18KT 8SM OVC008 08/06 A2987 1020 89 400 070/10G18 RMK AO2 T00780061
04850KAOH AOH20160426220011004/26/16 22:00:31  5-MIN KAOH 270300Z AUTO 07013KT 8SM OVC008 08/06 A2988 1020 89 400 070/13 RMK AO2 T00780061
04850KAOH AOH20160426220511004/26/16 22:05:31  5-MIN KAOH 270305Z AUTO 06011KT 9SM OVC008 08/06 A2989 1010 86 400 070/11 RMK AO2 T00780056
04850KAOH AOH20160426221011004/26/16 22:10:31  5-MIN KAOH 270310Z AUTO 06012KT 9SM OVC008 08/06 A2988 1010 86 400 070/12 RMK AO2 T00780056
04850KAOH AOH20160426221511104/26/16 22:15:31  5-MIN KAOH 270315Z AUTO 06011KT 10SM OVC008 08/06 A2989 1010 86 400 070/11 RMK AO2 T00780056
04850KAOH AOH20160426222011104/26/16 22:20:31  5-MIN KAOH 270320Z AUTO 06013KT 10SM OVC008 08/06 A2989 1010 86 400 070/13 RMK AO2 T00780056
04850KAOH AOH20160426222511104/26/16 22:25:31  5-MIN KAOH 270325Z AUTO 06012KT 10SM OVC008 08/06 A2989 1000 86 400 070/12 RMK AO2 T00780056
04850KAOH AOH20160426223011004/26/16 22:30:31  5-MIN KAOH 270330Z AUTO 06011KT 9SM OVC008 07/06 A2990 1000 89 300 060/11 RMK AO2 T00720056
04850KAOH AOH20160426223510904/26/16 22:35:31  5-MIN KAOH 270335Z AUTO 05011KT 9SM OVC008 07/06 A2990 990 89 300 050/11 RMK AO2 T00720056
04850KAOH AOH20160426224011004/26/16 22:40:31  5-MIN KAOH 270340Z AUTO 06010KT 9SM OVC008 07/06 A2990 1000 89 300 060/10 RMK AO2 T00720056
04850KAOH AOH20160426224511004/26/16 22:45:31  5-MIN KAOH 270345Z AUTO 07009KT 9SM OVC008 07/06 A2990 1000 89 300 080/09 RMK AO2 T00720056
04850KAOH AOH20160426225011704/26/16 22:50:31  5-MIN KAOH 270350Z AUTO 06009KT 9SM OVC008 07/06 A2990 1000 89 300 060/09 RMK AO2 SLP124 T00720056
04850KAOH AOH20160426225511004/26/16 22:55:31  5-MIN KAOH 270355Z AUTO 07011KT 9SM OVC008 07/06 A2990 1000 89 300 070/11 RMK AO2 T00720056
04850KAOH AOH20160426230010904/26/16 23:00:31  5-MIN KAOH 270400Z AUTO 07010KT 9SM OVC008 07/06 A2990 990 89 300 070/10 RMK AO2 T00720056
04850KAOH AOH20160426230511104/26/16 23:05:31  5-MIN KAOH 270405Z AUTO 07011KT 10SM OVC008 07/06 A2990 1000 89 300 070/11 RMK AO2 T00720056
04850KAOH AOH20160426231011004/26/16 23:10:31  5-MIN KAOH 270410Z AUTO 05012KT 10SM OVC008 07/06 A2991 990 89 300 050/12 RMK AO2 T00720056
04850KAOH AOH20160426231511004/26/16 23:15:31  5-MIN KAOH 270415Z AUTO 04012KT 10SM OVC008 07/06 A2991 990 89 300 050/12 RMK AO2 T00720056
04850KAOH AOH20160426232011004/26/16 23:20:31  5-MIN KAOH 270420Z AUTO 06011KT 10SM OVC008 07/06 A2990 990 89 300 060/11 RMK AO2 T00720056
04850KAOH AOH20160426232511104/26/16 23:25:31  5-MIN KAOH 270425Z AUTO 04009KT 10SM OVC008 07/06 A2990 1000 89 300 050/09 RMK AO2 T00720056
04850KAOH AOH20160426233011004/26/16 23:30:31  5-MIN KAOH 270430Z AUTO 04013KT 10SM OVC009 07/05 A2990 990 86 300 050/13 RMK AO2 T00720050
04850KAOH AOH20160426233511604/26/16 23:35:31  5-MIN KAOH 270435Z AUTO 06009G16KT 10SM OVC009 07/05 A2991 990 86 300 070/09G16 RMK AO2 T00720050
04850KAOH AOH20160426234011004/26/16 23:40:31  5-MIN KAOH 270440Z AUTO 04010KT 10SM OVC009 07/05 A2990 990 86 300 040/10 RMK AO2 T00720050
04850KAOH AOH20160426234511604/26/16 23:45:31  5-MIN KAOH 270445Z AUTO 05012G18KT 10SM OVC009 07/05 A2990 990 86 300 060/12G18 RMK AO2 T00720050
04850KAOH AOH20160426235010604/26/16 23:50:31  5-MIN KAOH 270450Z AUTO 07012G18KT 10SM OVC010 07/05 A2991 990 86 300 070/12G18 RMK AO2
04850KAOH AOH20160426235511604/26/16 23:55:31  5-MIN KAOH 270455Z AUTO 06013G18KT 10SM OVC010 07/05 A2990 990 86 300 060/13G18 RMK AO2 T00720050
04850KAOH AOH20160427000011604/27/16 00:00:31  5-MIN KAOH 270500Z AUTO 06012G18KT 10SM OVC009 07/05 A2990 990 89 300 060/12G18 RMK AO2 T00670050
04850KAOH AOH20160427000511004/27/16 00:05:31  5-MIN KAOH 270505Z AUTO 06012KT 10SM OVC009 07/05 A2990 990 89 300 060/12 RMK AO2 T00670050
04850KAOH AOH20160427001011604/27/16 00:10:31  5-MIN KAOH 270510Z AUTO 04008G18KT 10SM OVC009 07/05 A2991 990 86 300 050/08G18 RMK AO2 T00720050
04850KAOH AOH20160427001511004/27/16 00:15:31  5-MIN KAOH 270515Z AUTO 05009KT 10SM OVC009 07/05 A2991 990 89 300 060/09 RMK AO2 T00670050
04850KAOH AOH20160427002011004/27/16 00:20:31  5-MIN KAOH 270520Z AUTO 06010KT 10SM OVC009 07/05 A2991 990 89 300 060/10 RMK AO2 T00670050
04850KAOH AOH20160427002511004/27/16 00:25:31  5-MIN KAOH 270525Z AUTO 07010KT 10SM OVC009 07/05 A2991 990 89 300 080/10 RMK AO2 T00670050
04850KAOH AOH20160427003011004/27/16 00:30:31  5-MIN KAOH 270530Z AUTO 06008KT 10SM OVC009 07/05 A2991 990 89 300 070/08 RMK AO2 T00670050
04850KAOH AOH20160427003511004/27/16 00:35:31  5-MIN KAOH 270535Z AUTO 05010KT 10SM OVC009 07/05 A2991 990 89 300 060/10 RMK AO2 T00670050
04850KAOH AOH20160427004011004/27/16 00:40:31  5-MIN KAOH 270540Z AUTO 06010KT 10SM OVC009 07/05 A2991 990 89 300 070/10 RMK AO2 T00670050
04850KAOH AOH20160427004511004/27/16 00:45:31  5-MIN KAOH 270545Z AUTO 06009KT 10SM OVC009 07/05 A2991 990 89 300 070/09 RMK AO2 T00670050
04850KAOH AOH20160427005013504/27/16 00:50:31  5-MIN KAOH 270550Z AUTO 08009KT 10SM OVC009 07/05 A2991 990 89 300 090/09 RMK AO2 SLP126 T00670050 10106 20067 51006
04850KAOH AOH20160427005511004/27/16 00:55:31  5-MIN KAOH 270555Z AUTO 08011KT 10SM OVC009 07/05 A2991 980 89 300 090/11 RMK AO2 T00670050
04850KAOH AOH20160427010011004/27/16 01:00:31  5-MIN KAOH 270600Z AUTO 08009KT 10SM OVC008 07/05 A2991 980 89 300 080/09 RMK AO2 T00670050
04850KAOH AOH20160427010510904/27/16 01:05:31  5-MIN KAOH 270605Z AUTO 05010KT 9SM OVC008 07/05 A2991 980 89 300 060/10 RMK AO2 T00670050
04850KAOH AOH20160427011011504/27/16 01:10:31  5-MIN KAOH 270610Z AUTO 05011G17KT 9SM OVC008 07/05 A2992 980 89 300 060/11G17 RMK AO2 T00670050
04850KAOH AOH20160427011510904/27/16 01:15:31  5-MIN KAOH 270615Z AUTO 06012KT 9SM OVC008 07/05 A2992 980 89 200 070/12 RMK AO2 T00670050
04850KAOH AOH20160427012010904/27/16 01:20:31  5-MIN KAOH 270620Z AUTO 05009KT 9SM OVC007 06/05 A2992 980 93 200 060/09 RMK AO2 T00610050
04850KAOH AOH20160427012510904/27/16 01:25:31  5-MIN KAOH 270625Z AUTO 05010KT 8SM OVC007 06/05 A2991 980 93 200 060/10 RMK AO2 T00610050
04850KAOH AOH20160427013010904/27/16 01:30:31  5-MIN KAOH 270630Z AUTO 06012KT 8SM OVC007 06/04 A2991 990 89 200 070/12 RMK AO2 T00610044
04850KAOH AOH20160427013510904/27/16 01:35:31  5-MIN KAOH 270635Z AUTO 05011KT 8SM OVC007 06/04 A2991 990 89 200 060/11 RMK AO2 T00610044
04850KAOH AOH20160427014010904/27/16 01:40:31  5-MIN KAOH 270640Z AUTO 05010KT 8SM OVC007 06/04 A2991 990 89 200 060/10 RMK AO2 T00610044
04850KAOH AOH20160427014510904/27/16 01:45:31  5-MIN KAOH 270645Z AUTO 06010KT 8SM OVC008 06/04 A2991 990 89 200 070/10 RMK AO2 T00610044
04850KAOH AOH20160427015011604/27/16 01:50:31  5-MIN KAOH 270650Z AUTO 07013KT 8SM OVC008 06/04 A2990 990 89 200 080/13 RMK AO2 SLP125 T00610044
04850KAOH AOH20160427015511004/27/16 01:55:31  5-MIN KAOH 270655Z AUTO 07010KT 8SM OVC008 06/04 A2990 1000 89 200 080/10 RMK AO2 T00610044
04850KAOH AOH20160427020011004/27/16 02:00:31  5-MIN KAOH 270700Z AUTO 06010KT 8SM OVC008 06/04 A2989 1010 89 200 060/10 RMK AO2 T00610044
04850KAOH AOH20160427020511004/27/16 02:05:31  5-MIN KAOH 270705Z AUTO 07013KT 7SM OVC008 06/04 A2989 1010 89 200 070/13 RMK AO2 T00610044
04850KAOH AOH20160427021011004/27/16 02:10:31  5-MIN KAOH 270710Z AUTO 06012KT 7SM OVC008 06/04 A2989 1010 89 200 060/12 RMK AO2 T00610044
04850KAOH AOH20160427021511004/27/16 02:15:31  5-MIN KAOH 270715Z AUTO 07013KT 7SM OVC008 06/04 A2989 1000 89 200 070/13 RMK AO2 T00610044
04850KAOH AOH20160427022011004/27/16 02:20:31  5-MIN KAOH 270720Z AUTO 06012KT 7SM OVC008 06/04 A2990 1000 89 200 060/12 RMK AO2 T00610044
04850KAOH AOH20160427022511004/27/16 02:25:31  5-MIN KAOH 270725Z AUTO 06010KT 7SM OVC008 06/04 A2990 1000 89 200 070/10 RMK AO2 T00610044
04850KAOH AOH20160427023011004/27/16 02:30:31  5-MIN KAOH 270730Z AUTO 07011KT 7SM OVC008 06/04 A2989 1000 89 200 070/11 RMK AO2 T00610044
04850KAOH AOH20160427023511004/27/16 02:35:31  5-MIN KAOH 270735Z AUTO 05011KT 7SM OVC008 06/04 A2989 1000 89 200 060/11 RMK AO2 T00610044
04850KAOH AOH20160427024011004/27/16 02:40:31  5-MIN KAOH 270740Z AUTO 06012KT 8SM OVC008 06/04 A2989 1000 89 200 070/12 RMK AO2 T00610044
04850KAOH AOH20160427024511004/27/16 02:45:31  5-MIN KAOH 270745Z AUTO 05011KT 8SM OVC008 06/04 A2989 1000 89 200 050/11 RMK AO2 T00610044
04850KAOH AOH20160427025011704/27/16 02:50:31  5-MIN KAOH 270750Z AUTO 05009KT 8SM OVC008 06/04 A2989 1010 89 200 060/09 RMK AO2 SLP122 T00610044
04850KAOH AOH20160427025511004/27/16 02:55:31  5-MIN KAOH 270755Z AUTO 05013KT 8SM OVC008 06/04 A2989 1010 89 200 060/13 RMK AO2 T00610044
04850KAOH AOH20160427030011604/27/16 03:00:31  5-MIN KAOH 270800Z AUTO 04013G18KT 8SM OVC008 06/04 A2989 1010 89 200 050/13G18 RMK AO2 T00610044
04850KAOH AOH20160427030511604/27/16 03:05:31  5-MIN KAOH 270805Z AUTO 04013G21KT 8SM OVC008 06/04 A2989 1000 89 100 050/13G21 RMK AO2 T00560039
04850KAOH AOH20160427031011604/27/16 03:10:31  5-MIN KAOH 270810Z AUTO 05012G21KT 8SM OVC008 06/04 A2989 1000 89 100 050/12G21 RMK AO2 T00560039
04850KAOH AOH20160427031511004/27/16 03:15:31  5-MIN KAOH 270815Z AUTO 04012KT 8SM OVC008 06/04 A2990 1000 89 100 050/12 RMK AO2 T00560039
04850KAOH AOH20160427032011604/27/16 03:20:31  5-MIN KAOH 270820Z AUTO 04011G19KT 9SM OVC008 06/04 A2990 1000 86 200 050/11G19 RMK AO2 T00610039
04850KAOH AOH20160427032511604/27/16 03:25:31  5-MIN KAOH 270825Z AUTO 05011G19KT 9SM OVC008 06/04 A2990 1000 89 100 050/11G19 RMK AO2 T00560039
04850KAOH AOH20160427033011004/27/16 03:30:31  5-MIN KAOH 270830Z AUTO 03013KT 9SM OVC009 06/04 A2990 1000 89 100 040/13 RMK AO2 T00560039
04850KAOH AOH20160427033511704/27/16 03:35:31  5-MIN KAOH 270835Z AUTO 04016G21KT 10SM OVC009 06/04 A2990 1000 86 200 040/16G21 RMK AO2 T00610039
04850KAOH AOH20160427034011704/27/16 03:40:31  5-MIN KAOH 270840Z AUTO 04017G24KT 10SM OVC009 06/04 A2989 1010 86 200 050/17G24 RMK AO2 T00610039
04850KAOH AOH20160427034511704/27/16 03:45:31  5-MIN KAOH 270845Z AUTO 04014G24KT 10SM OVC009 06/04 A2988 1010 89 200 040/14G24 RMK AO2 T00560039
04850KAOH AOH20160427035010704/27/16 03:50:31  5-MIN KAOH 270850Z AUTO 03014G22KT 10SM OVC010 06/04 A2989 1010 89 200 040/14G22 RMK AO2
04850KAOH AOH20160427035511704/27/16 03:55:31  5-MIN KAOH 270855Z AUTO 04016G23KT 10SM OVC010 06/03 A2989 1000 85 100 040/16G23 RMK AO2 T00560033
04850KAOH AOH20160427040011704/27/16 04:00:31  5-MIN KAOH 270900Z AUTO 03017G23KT 10SM OVC010 06/03 A2990 1000 85 100 040/17G23 RMK AO2 T00560033
04850KAOH AOH20160427040511704/27/16 04:05:31  5-MIN KAOH 270905Z AUTO 04013G22KT 10SM OVC010 06/03 A2989 1000 85 100 050/13G22 RMK AO2 T00560033
04850KAOH AOH20160427041011704/27/16 04:10:31  5-MIN KAOH 270910Z AUTO 04016G23KT 10SM OVC010 06/03 A2990 1000 85 100 040/16G23 RMK AO2 T00560033
04850KAOH AOH20160427041511704/27/16 04:15:31  5-MIN KAOH 270915Z AUTO 04014G23KT 10SM OVC010 06/03 A2990 1000 85 100 040/14G23 RMK AO2 T00560033
04850KAOH AOH20160427042011104/27/16 04:20:31  5-MIN KAOH 270920Z AUTO 04016KT 10SM OVC010 06/03 A2990 1000 85 100 050/16 RMK AO2 T00560033
04850KAOH AOH20160427042511004/27/16 04:25:31  5-MIN KAOH 270925Z AUTO 03012KT 9SM OVC010 06/03 A2990 1000 85 100 040/12 RMK AO2 T00560033
04850KAOH AOH20160427043010904/27/16 04:30:31  5-MIN KAOH 270930Z AUTO 04011KT 8SM OVC010 06/03 A2991 990 85 100 040/11 RMK AO2 T00560033
04850KAOH AOH20160427043511504/27/16 04:35:31  5-MIN KAOH 270935Z AUTO 04008G18KT 8SM OVC010 06/04 A2991 990 89 100 040/08G18 RMK AO2 T00560039
04850KAOH AOH20160427044010904/27/16 04:40:31  5-MIN KAOH 270940Z AUTO 04007KT 8SM OVC010 06/04 A2991 990 89 100 040/07 RMK AO2 T00560039
04850KAOH AOH20160427044511504/27/16 04:45:31  5-MIN KAOH 270945Z AUTO 05012G16KT 8SM OVC010 06/04 A2991 980 89 100 060/12G16 RMK AO2 T00560039
04850KAOH AOH20160427045012204/27/16 04:50:31  5-MIN KAOH 270950Z AUTO 05012G16KT 8SM OVC010 06/03 A2992 980 85 100 060/12G16 RMK AO2 SLP132 T00560033
04850KAOH AOH20160427045510904/27/16 04:55:31  5-MIN KAOH 270955Z AUTO 04010KT 8SM OVC010 06/03 A2992 980 85 100 040/10 RMK AO2 T00560033
04850KAOH AOH20160427050010904/27/16 05:00:31  5-MIN KAOH 271000Z AUTO 07009KT 8SM OVC010 06/03 A2992 980 85 100 070/09 RMK AO2 T00560033
04850KAOH AOH20160427050510904/27/16 05:05:31  5-MIN KAOH 271005Z AUTO 07009KT 8SM OVC010 06/03 A2992 980 85 100 080/09 RMK AO2 T00560033
04850KAOH AOH20160427051010904/27/16 05:10:31  5-MIN KAOH 271010Z AUTO 06010KT 9SM OVC010 06/03 A2992 980 85 100 060/10 RMK AO2 T00560033
04850KAOH AOH20160427051510904/27/16 05:15:31  5-MIN KAOH 271015Z AUTO 05013KT 9SM OVC010 06/03 A2992 980 85 100 060/13 RMK AO2 T00560033
04850KAOH AOH20160427052010804/27/16 05:20:31  5-MIN KAOH 271020Z AUTO 06011KT 10SM OVC010 05/03 A2993 970 89 0 070/11 RMK AO2 T00500033
04850KAOH AOH20160427052510804/27/16 05:25:31  5-MIN KAOH 271025Z AUTO 06009KT 10SM OVC010 05/03 A2993 970 85 0 060/09 RMK AO2 T00500028
04850KAOH AOH20160427053010804/27/16 05:30:31  5-MIN KAOH 271030Z AUTO 06010KT 10SM OVC010 05/03 A2993 970 89 0 060/10 RMK AO2 T00500033
04850KAOH AOH20160427053510804/27/16 05:35:31  5-MIN KAOH 271035Z AUTO 06011KT 10SM OVC010 05/03 A2993 970 89 0 070/11 RMK AO2 T00500033
04850KAOH AOH20160427054010804/27/16 05:40:31  5-MIN KAOH 271040Z AUTO 06010KT 10SM OVC010 05/03 A2993 970 89 0 070/10 RMK AO2 T00500033
04850KAOH AOH20160427054510804/27/16 05:45:31  5-MIN KAOH 271045Z AUTO 07012KT 10SM OVC010 05/03 A2993 970 89 0 080/12 RMK AO2 T00500033
04850KAOH AOH20160427055009804/27/16 05:50:31  5-MIN KAOH 271050Z AUTO 05011KT 10SM OVC009 05/03 A2993 970 89 0 060/11 RMK AO2
04850KAOH AOH20160427055510804/27/16 05:55:31  5-MIN KAOH 271055Z AUTO 05010KT 10SM OVC009 05/03 A2993 970 89 0 060/10 RMK AO2 T00500033
04850KAOH AOH20160427060010804/27/16 06:00:31  5-MIN KAOH 271100Z AUTO 06009KT 10SM OVC009 05/03 A2993 970 89 0 070/09 RMK AO2 T00500033
04850KAOH AOH20160427060510804/27/16 06:05:31  5-MIN KAOH 271105Z AUTO 06009KT 10SM OVC009 05/03 A2993 970 89 0 070/09 RMK AO2 T00500033
04850KAOH AOH20160427061010804/27/16 06:10:31  5-MIN KAOH 271110Z AUTO 06010KT 10SM OVC009 05/03 A2993 970 89 0 060/10 RMK AO2 T00500033
04850KAOH AOH20160427061510804/27/16 06:15:31  5-MIN KAOH 271115Z AUTO 06008KT 10SM OVC009 05/03 A2993 970 89 0 060/08 RMK AO2 T00500033
04850KAOH AOH20160427062010804/27/16 06:20:31  5-MIN KAOH 271120Z AUTO 06012KT 10SM OVC009 05/03 A2993 970 89 0 070/12 RMK AO2 T00500033
04850KAOH AOH20160427062510804/27/16 06:25:31  5-MIN KAOH 271125Z AUTO 06012KT 10SM OVC009 05/03 A2993 970 89 0 070/12 RMK AO2 T00500033
04850KAOH AOH20160427063010804/27/16 06:30:31  5-MIN KAOH 271130Z AUTO 05011KT 10SM OVC009 05/03 A2994 960 89 0 060/11 RMK AO2 T00500033
04850KAOH AOH20160427063510804/27/16 06:35:31  5-MIN KAOH 271135Z AUTO 06009KT 10SM OVC010 05/03 A2994 960 89 0 060/09 RMK AO2 T00500033
04850KAOH AOH20160427064010804/27/16 06:40:31  5-MIN KAOH 271140Z AUTO 05010KT 10SM OVC010 05/03 A2994 960 89 0 060/10 RMK AO2 T00500033
04850KAOH AOH20160427064510804/27/16 06:45:31  5-MIN KAOH 271145Z AUTO 04009KT 10SM OVC010 05/03 A2994 960 89 0 050/09 RMK AO2 T00500033
04850KAOH AOH20160427065013304/27/16 06:50:31  5-MIN KAOH 271150Z AUTO 04011KT 10SM OVC010 05/03 A2994 960 89 0 050/11 RMK AO2 SLP143 T00500033 10067 20050 55004
04850KAOH AOH20160427065510804/27/16 06:55:31  5-MIN KAOH 271155Z AUTO 04011KT 10SM OVC010 05/03 A2994 960 89 0 050/11 RMK AO2 T00500033
04850KAOH AOH20160427070010804/27/16 07:00:31  5-MIN KAOH 271200Z AUTO 05007KT 10SM OVC010 05/03 A2995 950 89 0 050/07 RMK AO2 T00500033
04850KAOH AOH20160427070511004/27/16 07:05:31  5-MIN KAOH 271205Z AUTO 04009KT 10SM OVC010 06/03 A2995 950 85 100 040/09 RMK AO2 T00560033
04850KAOH AOH20160427071010804/27/16 07:10:31  5-MIN KAOH 271210Z AUTO 04011KT 10SM OVC010 05/03 A2995 950 89 0 040/11 RMK AO2 T00500033
04850KAOH AOH20160427071510804/27/16 07:15:31  5-MIN KAOH 271215Z AUTO 05009KT 10SM OVC010 05/03 A2995 950 89 0 060/09 RMK AO2 T00500033
04850KAOH AOH20160427072010804/27/16 07:20:31  5-MIN KAOH 271220Z AUTO 06011KT 10SM OVC010 05/03 A2994 960 89 0 070/11 RMK AO2 T00500033
04850KAOH AOH20160427072511004/27/16 07:25:31  5-MIN KAOH 271225Z AUTO 07010KT 10SM OVC010 06/03 A2994 960 85 100 070/10 RMK AO2 T00560033
04850KAOH AOH20160427073011004/27/16 07:30:31  5-MIN KAOH 271230Z AUTO 06010KT 10SM OVC010 06/03 A2994 960 85 100 070/10 RMK AO2 T00560033
04850KAOH AOH20160427073511004/27/16 07:35:31  5-MIN KAOH 271235Z AUTO 06009KT 10SM OVC010 06/03 A2994 960 85 100 070/09 RMK AO2 T00560033
04850KAOH AOH20160427074011004/27/16 07:40:31  5-MIN KAOH 271240Z AUTO 06011KT 10SM OVC010 06/03 A2994 960 85 100 070/11 RMK AO2 T00560033
04850KAOH AOH20160427074511004/27/16 07:45:31  5-MIN KAOH 271245Z AUTO 05009KT 10SM OVC010 06/03 A2994 960 85 100 060/09 RMK AO2 T00560033
04850KAOH AOH20160427075011704/27/16 07:50:31  5-MIN KAOH 271250Z AUTO 03009KT 10SM OVC010 06/03 A2994 960 85 100 040/09 RMK AO2 SLP141 T00560033
04850KAOH AOH20160427075511004/27/16 07:55:31  5-MIN KAOH 271255Z AUTO 05007KT 10SM OVC010 06/03 A2993 970 85 100 060/07 RMK AO2 T00560033
04850KAOH AOH20160427080011004/27/16 08:00:31  5-MIN KAOH 271300Z AUTO 05008KT 10SM OVC010 06/03 A2993 970 85 100 060/08 RMK AO2 T00560033
04850KAOH AOH20160427080511004/27/16 08:05:31  5-MIN KAOH 271305Z AUTO 05009KT 10SM OVC010 06/03 A2993 970 85 100 060/09 RMK AO2 T00560033
04850KAOH AOH20160427081011004/27/16 08:10:31  5-MIN KAOH 271310Z AUTO 06009KT 10SM OVC010 06/03 A2993 960 85 100 060/09 RMK AO2 T00560033
04850KAOH AOH20160427081511004/27/16 08:15:31  5-MIN KAOH 271315Z AUTO 05010KT 10SM OVC010 06/03 A2994 960 82 200 060/10 RMK AO2 T00610033
04850KAOH AOH20160427082011004/27/16 08:20:31  5-MIN KAOH 271320Z AUTO 06010KT 10SM OVC010 06/04 A2994 960 86 200 070/10 RMK AO2 T00610039
04850KAOH AOH20160427082511004/27/16 08:25:31  5-MIN KAOH 271325Z AUTO 08011KT 10SM OVC011 06/04 A2994 960 86 200 080/11 RMK AO2 T00610039
04850KAOH AOH20160427083011604/27/16 08:30:31  5-MIN KAOH 271330Z AUTO 07011G16KT 10SM OVC011 07/04 A2993 960 82 200 080/11G16 RMK AO2 T00670039
04850KAOH AOH20160427083511604/27/16 08:35:31  5-MIN KAOH 271335Z AUTO 06010G16KT 10SM OVC013 06/04 A2993 970 86 200 070/10G16 RMK AO2 T00610039
04850KAOH AOH20160427084011004/27/16 08:40:31  5-MIN KAOH 271340Z AUTO 06010KT 10SM OVC013 06/04 A2993 960 86 200 070/10 RMK AO2 T00610039
04850KAOH AOH20160427084511004/27/16 08:45:31  5-MIN KAOH 271345Z AUTO 05009KT 10SM OVC012 06/03 A2993 970 82 200 060/09 RMK AO2 T00610033
04850KAOH AOH20160427085011704/27/16 08:50:31  5-MIN KAOH 271350Z AUTO 06008KT 10SM OVC012 07/04 A2993 970 82 200 060/08 RMK AO2 SLP139 T00670039
04850KAOH AOH20160427085511004/27/16 08:55:31  5-MIN KAOH 271355Z AUTO 05010KT 10SM OVC012 07/04 A2992 970 82 200 060/10 RMK AO2 T00670039
04850KAOH AOH20160427090011004/27/16 09:00:31  5-MIN KAOH 271400Z AUTO 05009KT 10SM OVC012 07/04 A2992 980 82 300 060/09 RMK AO2 T00670039
04850KAOH AOH20160427090511004/27/16 09:05:31  5-MIN KAOH 271405Z AUTO 06010KT 10SM OVC012 07/04 A2992 980 82 300 070/10 RMK AO2 T00720044
04850KAOH AOH20160427091011004/27/16 09:10:31  5-MIN KAOH 271410Z AUTO 06013KT 10SM OVC012 07/04 A2991 980 79 300 070/13 RMK AO2 T00720039
04850KAOH AOH20160427091511004/27/16 09:15:31  5-MIN KAOH 271415Z AUTO 07010KT 10SM OVC012 07/04 A2991 990 79 300 070/10 RMK AO2 T00720039
04850KAOH AOH20160427092011704/27/16 09:20:31  5-MIN KAOH 271420Z AUTO 06012KT 10SM BKN012 OVC033 07/04 A2992 980 79 300 070/12 RMK AO2 T00720039
04850KAOH AOH20160427092511704/27/16 09:25:31  5-MIN KAOH 271425Z AUTO 06010KT 10SM BKN013 OVC033 07/04 A2991 980 79 300 070/10 RMK AO2 T00720039
04850KAOH AOH20160427093011704/27/16 09:30:31  5-MIN KAOH 271430Z AUTO 05012KT 10SM BKN013 OVC033 08/04 A2991 990 79 400 060/12 RMK AO2 T00780044
04850KAOH AOH20160427093511704/27/16 09:35:31  5-MIN KAOH 271435Z AUTO 06009KT 10SM BKN013 OVC033 07/04 A2991 990 82 300 060/09 RMK AO2 T00720044
04850KAOH AOH20160427094011804/27/16 09:40:31  5-MIN KAOH 271440Z AUTO 06011KT 10SM BKN013 OVC033 08/04 A2990 1000 79 400 060/11 RMK AO2 T00780044
04850KAOH AOH20160427094511804/27/16 09:45:31  5-MIN KAOH 271445Z AUTO 05011KT 10SM BKN013 OVC033 08/04 A2990 1000 79 400 050/11 RMK AO2 T00780044
04850KAOH AOH20160427095013104/27/16 09:50:31  5-MIN KAOH 271450Z AUTO 05012KT 10SM BKN013 OVC033 08/04 A2989 1010 79 400 050/12 RMK AO2 SLP125 T00780044 51017
04850KAOH AOH20160427095511804/27/16 09:55:31  5-MIN KAOH 271455Z AUTO 05012KT 10SM BKN013 OVC033 08/04 A2989 1010 79 400 050/12 RMK AO2 T00780044
04850KAOH AOH20160427100011804/27/16 10:00:31  5-MIN KAOH 271500Z AUTO 07012KT 10SM BKN013 OVC033 08/04 A2989 1010 76 500 080/12 RMK AO2 T00830044
04850KAOH AOH20160427100512404/27/16 10:05:31  5-MIN KAOH 271505Z AUTO 06011G17KT 10SM BKN013 OVC033 08/05 A2990 1000 79 500 070/11G17 RMK AO2 T00830050
04850KAOH AOH20160427101012404/27/16 10:10:31  5-MIN KAOH 271510Z AUTO 06013G17KT 10SM BKN013 OVC033 08/04 A2989 1000 76 500 070/13G17 RMK AO2 T00830044
04850KAOH AOH20160427101511804/27/16 10:15:31  5-MIN KAOH 271515Z AUTO 07013KT 10SM SCT013 OVC033 08/04 A2989 1000 76 500 080/13 RMK AO2 T00830044
04850KAOH AOH20160427102011804/27/16 10:20:31  5-MIN KAOH 271520Z AUTO 07010KT 10SM SCT014 OVC033 08/05 A2990 1000 79 500 080/10 RMK AO2 T00830050
04850KAOH AOH20160427102511704/27/16 10:25:31  5-MIN KAOH 271525Z AUTO 06009KT 10SM SCT014 OVC033 09/05 A2990 990 76 500 070/09 RMK AO2 T00890050
04850KAOH AOH20160427103011704/27/16 10:30:31  5-MIN KAOH 271530Z AUTO 06010KT 10SM SCT014 OVC033 09/05 A2991 990 76 500 060/10 RMK AO2 T00890050
04850KAOH AOH20160427103512304/27/16 10:35:31  5-MIN KAOH 271535Z AUTO 06013G19KT 10SM SCT015 OVC033 09/05 A2991 990 76 500 070/13G19 RMK AO2 T00890050
04850KAOH AOH20160427104012304/27/16 10:40:31  5-MIN KAOH 271540Z AUTO 06011G19KT 10SM SCT015 OVC034 09/05 A2991 990 76 500 070/11G19 RMK AO2 T00890050
04850KAOH AOH20160427104511704/27/16 10:45:31  5-MIN KAOH 271545Z AUTO 07011KT 10SM SCT015 OVC034 09/05 A2991 990 76 500 080/11 RMK AO2 T00890050
04850KAOH AOH20160427105012404/27/16 10:50:31  5-MIN KAOH 271550Z AUTO 07010KT 10SM FEW015 OVC034 09/05 A2991 990 76 500 080/10 RMK AO2 SLP133 T00890050
04850KAOH AOH20160427105511704/27/16 10:55:31  5-MIN KAOH 271555Z AUTO 08010KT 10SM FEW015 OVC034 09/05 A2992 980 76 500 090/10 RMK AO2 T00890050
04850KAOH AOH20160427110011704/27/16 11:00:31  5-MIN KAOH 271600Z AUTO 09009KT 10SM FEW015 OVC034 09/05 A2992 970 74 600 100/09 RMK AO2 T00940050
04850KAOH AOH20160427110511704/27/16 11:05:31  5-MIN KAOH 271605Z AUTO 09009KT 10SM FEW017 OVC034 09/05 A2992 980 74 600 100/09 RMK AO2 T00940050
04850KAOH AOH20160427111011704/27/16 11:10:31  5-MIN KAOH 271610Z AUTO 06010KT 10SM FEW017 OVC034 09/06 A2992 980 76 600 070/10 RMK AO2 T00940056
04850KAOH AOH20160427111511704/27/16 11:15:31  5-MIN KAOH 271615Z AUTO 09010KT 10SM FEW017 OVC034 09/05 A2992 980 74 600 090/10 RMK AO2 T00940050
04850KAOH AOH20160427112011704/27/16 11:20:31  5-MIN KAOH 271620Z AUTO 07012KT 10SM FEW018 OVC036 10/06 A2992 980 74 700 070/12 RMK AO2 T01000056
04850KAOH AOH20160427112511704/27/16 11:25:31  5-MIN KAOH 271625Z AUTO 07009KT 10SM FEW018 OVC036 10/06 A2992 970 74 600 080/09 RMK AO2 T01000056
04850KAOH AOH20160427113011004/27/16 11:30:31  5-MIN KAOH 271630Z AUTO 08009KT 10SM OVC038 11/06 A2993 970 74 700 080/09 RMK AO2 T01060061
04850KAOH AOH20160427113511704/27/16 11:35:31  5-MIN KAOH 271635Z AUTO VRB06KT 10SM FEW018 OVC038 10/06 A2993 970 74 600 VRB/06 RMK AO2 T01000056
04850KAOH AOH20160427114012404/27/16 11:40:31  5-MIN KAOH 271640Z AUTO 06007KT 10SM FEW018 BKN035 OVC042 10/06 A2993 970 74 600 070/07 RMK AO2 T01000056
04850KAOH AOH20160427114511704/27/16 11:45:31  5-MIN KAOH 271645Z AUTO 08006KT 10SM SCT034 OVC043 11/06 A2993 970 74 700 090/06 RMK AO2 T01060061
04850KAOH AOH20160427115012404/27/16 11:50:31  5-MIN KAOH 271650Z AUTO 05006KT 10SM SCT034 OVC043 10/06 A2993 970 77 600 060/06 RMK AO2 SLP137 T01000061
04850KAOH AOH20160427115511704/27/16 11:55:31  5-MIN KAOH 271655Z AUTO 05007KT 10SM SCT034 OVC043 11/06 A2992 980 74 700 060/07 RMK AO2 T01060061
04850KAOH AOH20160427120012304/27/16 12:00:31  5-MIN KAOH 271700Z AUTO 06010G15KT 10SM SCT034 OVC043 11/07 A2992 980 74 800 070/10G15 RMK AO2 T01110067
04850KAOH AOH20160427120511704/27/16 12:05:31  5-MIN KAOH 271705Z AUTO 05009KT 10SM FEW034 BKN043 11/07 A2991 980 74 800 050/09 RMK AO2 T01110067
04850KAOH AOH20160427121011704/27/16 12:10:31  5-MIN KAOH 271710Z AUTO 08010KT 10SM FEW034 BKN043 12/07 A2991 990 71 900 090/10 RMK AO2 T01170067
04850KAOH AOH20160427121511704/27/16 12:15:31  5-MIN KAOH 271715Z AUTO 06008KT 10SM FEW034 BKN044 11/07 A2990 990 74 800 060/08 RMK AO2 T01110067
04850KAOH AOH20160427122012504/27/16 12:20:31  5-MIN KAOH 271720Z AUTO 05012KT 10SM SCT034 BKN044 12/07 A2989 1000 74 900 050/12 RMK AO2 PRESFR T01170072
04850KAOH AOH20160427122511804/27/16 12:25:31  5-MIN KAOH 271725Z AUTO 05011KT 10SM FEW034 SCT044 12/07 A2990 1000 74 900 060/11 RMK AO2 T01170072
04850KAOH AOH20160427123011704/27/16 12:30:31  5-MIN KAOH 271730Z AUTO 04010G18KT 10SM FEW034 12/07 A2990 1000 74 900 040/10G18 RMK AO2 T01170072
04850KAOH AOH20160427123511704/27/16 12:35:31  5-MIN KAOH 271735Z AUTO 06010G18KT 10SM FEW034 12/07 A2990 1000 71 900 060/10G18 RMK AO2 T01170067
04850KAOH AOH20160427124011104/27/16 12:40:31  5-MIN KAOH 271740Z AUTO 07011KT 10SM FEW034 12/07 A2990 1000 71 900 080/11 RMK AO2 T01220072
04850KAOH AOH20160427124510904/27/16 12:45:31  5-MIN KAOH 271745Z AUTO 05009KT 10SM CLR 13/08 A2990 1000 71 1000 060/09 RMK AO2 T01280078
04850KAOH AOH20160427125013404/27/16 12:50:31  5-MIN KAOH 271750Z AUTO 05010KT 10SM CLR 13/07 A2990 1000 69 1000 060/10 RMK AO2 SLP125 T01280072 10128 20050 58018
04850KAOH AOH20160427125511804/27/16 12:55:31  5-MIN KAOH 271755Z AUTO 06010G18KT 10SM FEW032 13/07 A2990 1000 69 1000 060/10G18 RMK AO2 T01280072
04850KAOH AOH20160427130011804/27/16 13:00:31  5-MIN KAOH 271800Z AUTO 06010G18KT 10SM SCT032 13/07 A2989 1000 66 1100 070/10G18 RMK AO2 T01330072
04850KAOH AOH20160427130511204/27/16 13:05:31  5-MIN KAOH 271805Z AUTO 06009KT 10SM SCT032 13/07 A2989 1000 66 1100 060/09 RMK AO2 T01330072
04850KAOH AOH20160427131011204/27/16 13:10:31  5-MIN KAOH 271810Z AUTO 04010KT 10SM FEW032 13/07 A2990 1000 66 1100 050/10 RMK AO2 T01330072
04850KAOH AOH20160427131511804/27/16 13:15:31  5-MIN KAOH 271815Z AUTO 05012G17KT 10SM FEW032 14/08 A2989 1000 66 1100 060/12G17 RMK AO2 T01390078
04850KAOH AOH20160427132011204/27/16 13:20:31  5-MIN KAOH 271820Z AUTO 04010KT 10SM FEW032 14/08 A2989 1010 66 1200 040/10 RMK AO2 T01390078
04850KAOH AOH20160427132511204/27/16 13:25:31  5-MIN KAOH 271825Z AUTO 07012KT 10SM FEW032 14/08 A2988 1010 66 1200 080/12 RMK AO2 T01440083
04850KAOH AOH20160427133010904/27/16 13:30:31  5-MIN KAOH 271830Z AUTO 06011KT 10SM CLR 14/08 A2988 1010 64 1200 060/11 RMK AO2 T01440078
04850KAOH AOH20160427133510904/27/16 13:35:31  5-MIN KAOH 271835Z AUTO 06013KT 10SM CLR 14/08 A2988 1010 66 1200 070/13 RMK AO2 T01440083
04850KAOH AOH20160427134010904/27/16 13:40:31  5-MIN KAOH 271840Z AUTO 07011KT 10SM CLR 15/09 A2989 1010 66 1300 080/11 RMK AO2 T01500089
04850KAOH AOH20160427134511204/27/16 13:45:31  5-MIN KAOH 271845Z AUTO 07012KT 10SM FEW034 15/08 A2989 1010 64 1300 080/12 RMK AO2 T01500083
04850KAOH AOH20160427135011904/27/16 13:50:31  5-MIN KAOH 271850Z AUTO 06007KT 10SM BKN034 15/08 A2989 1000 64 1300 060/07 RMK AO2 SLP125 T01500083
04850KAOH AOH20160427135511804/27/16 13:55:31  5-MIN KAOH 271855Z AUTO 07011G15KT 10SM BKN033 14/08 A2990 1000 66 1200 080/11G15 RMK AO2 T01440083
04850KAOH AOH20160427140011804/27/16 14:00:31  5-MIN KAOH 271900Z AUTO 06008G15KT 10SM BKN033 14/08 A2990 1000 64 1200 060/08G15 RMK AO2 T01440078
04850KAOH AOH20160427140511204/27/16 14:05:31  5-MIN KAOH 271905Z AUTO 05009KT 10SM OVC033 14/08 A2990 1000 64 1200 050/09 RMK AO2 T01440078
04850KAOH AOH20160427141011204/27/16 14:10:31  5-MIN KAOH 271910Z AUTO 05009KT 10SM OVC033 14/08 A2990 1000 66 1200 060/09 RMK AO2 T01440083
04850KAOH AOH20160427141511204/27/16 14:15:31  5-MIN KAOH 271915Z AUTO 06010KT 10SM OVC033 14/08 A2990 1000 64 1200 070/10 RMK AO2 T01440078
04850KAOH AOH20160427142011204/27/16 14:20:31  5-MIN KAOH 271920Z AUTO 06011KT 10SM OVC033 14/08 A2989 1010 64 1200 060/11 RMK AO2 T01440078
04850KAOH AOH20160427142511204/27/16 14:25:31  5-MIN KAOH 271925Z AUTO 07011KT 10SM OVC035 14/08 A2989 1010 64 1200 070/11 RMK AO2 T01440078
04850KAOH AOH20160427143011204/27/16 14:30:31  5-MIN KAOH 271930Z AUTO 04012KT 10SM OVC035 14/08 A2989 1010 64 1200 050/12 RMK AO2 T01440078
04850KAOH AOH20160427143511204/27/16 14:35:31  5-MIN KAOH 271935Z AUTO 05012KT 10SM OVC037 14/08 A2989 1010 64 1200 060/12 RMK AO2 T01440078
04850KAOH AOH20160427144011204/27/16 14:40:31  5-MIN KAOH 271940Z AUTO 05011KT 10SM OVC037 14/08 A2988 1010 64 1200 060/11 RMK AO2 T01440078
04850KAOH AOH20160427144511204/27/16 14:45:31  5-MIN KAOH 271945Z AUTO 07013KT 10SM OVC037 15/08 A2988 1010 62 1300 080/13 RMK AO2 T01500078
04850KAOH AOH20160427145011904/27/16 14:50:31  5-MIN KAOH 271950Z AUTO 06011KT 10SM OVC039 15/08 A2988 1010 64 1300 070/11 RMK AO2 SLP120 T01500083
04850KAOH AOH20160427145511204/27/16 14:55:31  5-MIN KAOH 271955Z AUTO 05012KT 10SM OVC039 15/08 A2988 1010 62 1300 050/12 RMK AO2 T01500078
04850KAOH AOH20160427150011804/27/16 15:00:31  5-MIN KAOH 272000Z AUTO 05014G18KT 10SM OVC039 15/08 A2988 1010 62 1300 060/14G18 RMK AO2 T01500078
04850KAOH AOH20160427150511204/27/16 15:05:31  5-MIN KAOH 272005Z AUTO 06012KT 10SM OVC039 15/08 A2989 1010 62 1300 070/12 RMK AO2 T01500078
04850KAOH AOH20160427151011204/27/16 15:10:31  5-MIN KAOH 272010Z AUTO 06011KT 10SM OVC039 14/08 A2989 1010 64 1200 060/11 RMK AO2 T01440078
04850KAOH AOH20160427151511204/27/16 15:15:31  5-MIN KAOH 272015Z AUTO 04015KT 10SM OVC039 14/07 A2989 1010 59 1200 050/15 RMK AO2 T01440067
04850KAOH AOH20160427152011804/27/16 15:20:31  5-MIN KAOH 272020Z AUTO 04008G17KT 10SM OVC039 14/07 A2989 1010 59 1200 050/08G17 RMK AO2 T01440067
04850KAOH AOH20160427152511204/27/16 15:25:31  5-MIN KAOH 272025Z AUTO 07011KT 10SM OVC039 14/07 A2989 1000 64 1100 080/11 RMK AO2 T01390072
04850KAOH AOH20160427153011204/27/16 15:30:31  5-MIN KAOH 272030Z AUTO 05010KT 10SM OVC039 14/06 A2990 1000 59 1100 050/10 RMK AO2 T01390061
04850KAOH AOH20160427153511104/27/16 15:35:31  5-MIN KAOH 272035Z AUTO 04009KT 10SM OVC037 14/06 A2990 990 59 1100 050/09 RMK AO2 T01390061
04850KAOH AOH20160427154011104/27/16 15:40:31  5-MIN KAOH 272040Z AUTO 05011KT 10SM OVC039 14/06 A2990 990 57 1100 060/11 RMK AO2 T01390056
04850KAOH AOH20160427154511104/27/16 15:45:31  5-MIN KAOH 272045Z AUTO 05009KT 10SM OVC039 14/06 A2990 990 57 1100 050/09 RMK AO2 T01390056
04850KAOH AOH20160427155013104/27/16 15:50:31  5-MIN KAOH 272050Z AUTO 06011KT 10SM FEW033 OVC041 14/06 A2990 990 57 1100 060/11 RMK AO2 SLP128 T01390056 50003
04850KAOH AOH20160427155511104/27/16 15:55:31  5-MIN KAOH 272055Z AUTO 06011KT 10SM OVC041 14/05 A2990 990 55 1100 070/11 RMK AO2 T01390050
04850KAOH AOH20160427160011104/27/16 16:00:31  5-MIN KAOH 272100Z AUTO 06008KT 10SM OVC041 14/06 A2991 990 57 1100 070/08 RMK AO2 T01390056
04850KAOH AOH20160427160511104/27/16 16:05:31  5-MIN KAOH 272105Z AUTO 07010KT 10SM OVC040 14/06 A2991 990 57 1100 070/10 RMK AO2 T01390056
04850KAOH AOH20160427161011104/27/16 16:10:31  5-MIN KAOH 272110Z AUTO 07010KT 10SM OVC040 14/06 A2991 990 57 1100 080/10 RMK AO2 T01390056
04850KAOH AOH20160427161511104/27/16 16:15:31  5-MIN KAOH 272115Z AUTO 06009KT 10SM OVC040 14/05 A2991 980 55 1100 070/09 RMK AO2 T01390050
04850KAOH AOH20160427162011104/27/16 16:20:31  5-MIN KAOH 272120Z AUTO 04010KT 10SM OVC040 14/04 A2991 980 52 1100 040/10 RMK AO2 T01390044
04850KAOH AOH20160427162511104/27/16 16:25:31  5-MIN KAOH 272125Z AUTO 05011KT 10SM OVC039 14/04 A2991 990 50 1100 050/11 RMK AO2 T01390039
04850KAOH AOH20160427163011104/27/16 16:30:31  5-MIN KAOH 272130Z AUTO 06008KT 10SM OVC039 14/04 A2992 980 50 1100 060/08 RMK AO2 T01390039
04850KAOH AOH20160427163511104/27/16 16:35:31  5-MIN KAOH 272135Z AUTO 04010KT 10SM OVC039 13/04 A2992 980 52 1100 040/10 RMK AO2 T01330039
04850KAOH AOH20160427164011104/27/16 16:40:31  5-MIN KAOH 272140Z AUTO 04009KT 10SM OVC039 13/03 A2992 980 50 1100 050/09 RMK AO2 T01330033
04850KAOH AOH20160427164511104/27/16 16:45:31  5-MIN KAOH 272145Z AUTO 05007KT 10SM OVC039 13/03 A2992 980 50 1100 060/07 RMK AO2 T01330033
04850KAOH AOH20160427165011804/27/16 16:50:31  5-MIN KAOH 272150Z AUTO 05008KT 10SM OVC038 13/03 A2992 980 50 1100 050/08 RMK AO2 SLP133 T01330033
04850KAOH AOH20160427165511104/27/16 16:55:31  5-MIN KAOH 272155Z AUTO 05009KT 10SM OVC038 13/03 A2991 980 50 1100 060/09 RMK AO2 T01330033
04850KAOH AOH20160427170011104/27/16 17:00:31  5-MIN KAOH 272200Z AUTO 04011KT 10SM OVC036 13/03 A2991 990 48 1100 050/11 RMK AO2 T01330028
04850KAOH AOH20160427170511104/27/16 17:05:31  5-MIN KAOH 272205Z AUTO 04010KT 10SM OVC036 13/02 A2991 990 46 1100 050/10 RMK AO2 T01330022
04850KAOH AOH20160427171011204/27/16 17:10:31  5-MIN KAOH 272210Z AUTO 04010KT 10SM OVC036 13/03 A2990 1000 48 1100 050/10 RMK AO2 T01330028
04850KAOH AOH20160427171511104/27/16 17:15:31  5-MIN KAOH 272215Z AUTO 04012KT 10SM OVC036 13/02 A2990 990 46 1100 040/12 RMK AO2 T01330022
04850KAOH AOH20160427172011204/27/16 17:20:31  5-MIN KAOH 272220Z AUTO 04010KT 10SM OVC036 13/03 A2990 1000 48 1100 050/10 RMK AO2 T01330028
04850KAOH AOH20160427172511204/27/16 17:25:31  5-MIN KAOH 272225Z AUTO 04010KT 10SM OVC036 13/03 A2990 1000 48 1100 050/10 RMK AO2 T01330028
04850KAOH AOH20160427173011204/27/16 17:30:31  5-MIN KAOH 272230Z AUTO 04011KT 10SM OVC036 13/02 A2990 1000 46 1100 050/11 RMK AO2 T01330022
04850KAOH AOH20160427173512504/27/16 17:35:31  5-MIN KAOH 272235Z AUTO 05012G18KT 10SM FEW030 OVC038 13/02 A2990 1000 46 1000 060/12G18 RMK AO2 T01280017
04850KAOH AOH20160427174012504/27/16 17:40:31  5-MIN KAOH 272240Z AUTO 05010G18KT 10SM FEW030 OVC038 13/01 A2989 1000 44 1000 060/10G18 RMK AO2 T01280011
04850KAOH AOH20160427174511904/27/16 17:45:31  5-MIN KAOH 272245Z AUTO 04012KT 10SM FEW030 OVC038 13/01 A2989 1000 44 1000 050/12 RMK AO2 T01280011
04850KAOH AOH20160427175012604/27/16 17:50:31  5-MIN KAOH 272250Z AUTO 05012KT 10SM FEW030 OVC040 13/01 A2989 1010 44 1000 060/12 RMK AO2 SLP123 T01280011
04850KAOH AOH20160427175511904/27/16 17:55:31  5-MIN KAOH 272255Z AUTO 05012KT 10SM SCT028 OVC040 13/01 A2988 1010 44 1000 050/12 RMK AO2 T01280011
04850KAOH AOH20160427180012504/27/16 18:00:31  5-MIN KAOH 272300Z AUTO 05015G19KT 10SM SCT028 OVC040 12/01 A2988 1010 44 1000 060/15G19 RMK AO2 T01220006
04850KAOH AOH20160427180512504/27/16 18:05:31  5-MIN KAOH 272305Z AUTO 05009G19KT 10SM SCT028 OVC040 12/01 A2988 1010 44 1000 060/09G19 RMK AO2 T01220006
04850KAOH AOH20160427181012504/27/16 18:10:31  5-MIN KAOH 272310Z AUTO 04013G17KT 10SM SCT028 OVC040 12/01 A2988 1010 44 1000 050/13G17 RMK AO2 T01220006
04850KAOH AOH20160427181512504/27/16 18:15:31  5-MIN KAOH 272315Z AUTO 04011G17KT 10SM FEW028 OVC040 12/00 A2988 1020 43 1000 050/11G17 RMK AO2 T01220000
04850KAOH AOH20160427182012504/27/16 18:20:31  5-MIN KAOH 272320Z AUTO 06015G19KT 10SM FEW028 OVC039 12/00 A2987 1020 43 1000 060/15G19 RMK AO2 T01220000
04850KAOH AOH20160427182511804/27/16 18:25:31  5-MIN KAOH 272325Z AUTO 05014G21KT 10SM BKN039 12/00 A2987 1020 43 1000 060/14G21 RMK AO2 T01220000
04850KAOH AOH20160427183011804/27/16 18:30:31  5-MIN KAOH 272330Z AUTO 06015G21KT 10SM BKN039 12/M01 A2988 1020 42 900 060/15G21 RMK AO2 T01171006
04850KAOH AOH20160427183511804/27/16 18:35:31  5-MIN KAOH 272335Z AUTO 05013G21KT 10SM BKN039 12/M01 A2987 1020 42 900 060/13G21 RMK AO2 T01171006
04850KAOH AOH20160427184011204/27/16 18:40:31  5-MIN KAOH 272340Z AUTO 05014KT 10SM SCT039 12/M01 A2986 1030 41 900 060/14 RMK AO2 T01171011
04850KAOH AOH20160427184511204/27/16 18:45:31  5-MIN KAOH 272345Z AUTO 05013KT 10SM FEW039 12/M01 A2986 1030 41 900 060/13 RMK AO2 T01171011
04850KAOH AOH20160427185015004/27/16 18:50:31  5-MIN KAOH 272350Z AUTO 06016G22KT 10SM FEW038 11/M01 A2985 1040 42 900 060/16G22 RMK AO2 PRESFR SLP112 T01111011 10150 20111 53002
04850KAOH AOH20160427185512204/27/16 18:55:31  5-MIN KAOH 272355Z AUTO 05014G22KT 10SM CLR 11/M01 A2984 1050 44 900 060/14G22 RMK AO2 PRESFR T01111006
04850KAOH AOH20160427190011504/27/16 19:00:31  5-MIN KAOH 280000Z AUTO 05010G19KT 10SM CLR 11/M01 A2984 1050 44 900 050/10G19 RMK AO2 T01111006
04850KAOH AOH20160427190511504/27/16 19:05:31  5-MIN KAOH 280005Z AUTO 05013G19KT 10SM CLR 11/M01 A2985 1050 44 900 060/13G19 RMK AO2 T01111006
04850KAOH AOH20160427191011504/27/16 19:10:31  5-MIN KAOH 280010Z AUTO 05012G19KT 10SM CLR 11/M01 A2985 1040 46 800 060/12G19 RMK AO2 T01061006
04850KAOH AOH20160427191511504/27/16 19:15:31  5-MIN KAOH 280015Z AUTO 05010G20KT 10SM CLR 11/M01 A2985 1040 44 800 060/10G20 RMK AO2 T01061011
04850KAOH AOH20160427192011504/27/16 19:20:31  5-MIN KAOH 280020Z AUTO 05010G20KT 10SM CLR 11/M01 A2986 1040 46 800 060/10G20 RMK AO2 T01061006
04850KAOH AOH20160427192511504/27/16 19:25:31  5-MIN KAOH 280025Z AUTO 06015G21KT 10SM CLR 11/M01 A2985 1040 44 800 060/15G21 RMK AO2 T01061011
04850KAOH AOH20160427193011504/27/16 19:30:31  5-MIN KAOH 280030Z AUTO 06012G21KT 10SM CLR 11/M01 A2985 1040 44 800 060/12G21 RMK AO2 T01061011
04850KAOH AOH20160427193510904/27/16 19:35:31  5-MIN KAOH 280035Z AUTO 05011KT 10SM CLR 11/M02 A2985 1040 42 800 060/11 RMK AO2 T01061017
04850KAOH AOH20160427194010904/27/16 19:40:31  5-MIN KAOH 280040Z AUTO 06014KT 10SM CLR 11/M02 A2985 1040 42 800 070/14 RMK AO2 T01061017
04850KAOH AOH20160427194511604/27/16 19:45:31  5-MIN KAOH 280045Z AUTO 06016KT 10SM CLR 10/M02 A2983 1060 42 800 060/16 RMK AO2 PRESFR T01001022
04850KAOH AOH20160427195012204/27/16 19:50:31  5-MIN KAOH 280050Z AUTO 06016G23KT 10SM CLR 10/M02 A2983 1060 42 800 060/16G23 RMK AO2 SLP104 T01001022
04850KAOH AOH20160427195511504/27/16 19:55:31  5-MIN KAOH 280055Z AUTO 06015G24KT 10SM CLR 10/M02 A2983 1060 42 800 070/15G24 RMK AO2 T01001022
04850KAOH AOH20160427200011504/27/16 20:00:31  5-MIN KAOH 280100Z AUTO 06014G24KT 10SM CLR 10/M02 A2984 1050 42 700 070/14G24 RMK AO2 T01001022
04850KAOH AOH20160427200511504/27/16 20:05:31  5-MIN KAOH 280105Z AUTO 07014G22KT 10SM CLR 10/M02 A2984 1050 42 700 070/14G22 RMK AO2 T01001022
04850KAOH AOH20160427201010904/27/16 20:10:31  5-MIN KAOH 280110Z AUTO 07013KT 10SM CLR 10/M03 A2984 1050 40 700 070/13 RMK AO2 T01001028
04850KAOH AOH20160427201511204/27/16 20:15:31  5-MIN KAOH 280115Z AUTO 07012KT 10SM FEW120 10/M03 A2985 1040 40 700 080/12 RMK AO2 T01001028
04850KAOH AOH20160427202011904/27/16 20:20:31  5-MIN KAOH 280120Z AUTO 08012KT 10SM SCT110 10/M03 A2986 1030 40 700 080/12 RMK AO2 PRESRR T01001028
04850KAOH AOH20160427202511204/27/16 20:25:31  5-MIN KAOH 280125Z AUTO 08011KT 10SM BKN110 10/M03 A2986 1030 40 700 080/11 RMK AO2 T01001028
04850KAOH AOH20160427203011904/27/16 20:30:31  5-MIN KAOH 280130Z AUTO 07012KT 10SM BKN100 BKN120 10/M03 A2986 1030 40 700 080/12 RMK AO2 T01001028
04850KAOH AOH20160427203512604/27/16 20:35:31  5-MIN KAOH 280135Z AUTO 07013KT 10SM FEW080 BKN100 BKN120 10/M03 A2986 1030 39 700 080/13 RMK AO2 T01001033
04850KAOH AOH20160427204012804/27/16 20:40:31  5-MIN KAOH 280140Z AUTO 07012KT 10SM -RA OVC110 10/M03 A2987 1030 39 700 080/12 RMK AO2 RAB37 P0000 T01001033
04850KAOH AOH20160427204512804/27/16 20:45:31  5-MIN KAOH 280145Z AUTO 07011KT 10SM -RA OVC110 10/M04 A2987 1020 37 700 080/11 RMK AO2 RAB37 P0000 T01001039
04850KAOH AOH20160427205013504/27/16 20:50:31  5-MIN KAOH 280150Z AUTO 07012KT 10SM -RA OVC110 10/M03 A2988 1020 39 700 080/12 RMK AO2 RAB37 SLP120 P0000 T01001033
04850KAOH AOH20160427205511904/27/16 20:55:31  5-MIN KAOH 280155Z AUTO 07013KT 10SM SCT090 OVC110 10/M04 A2988 1020 37 700 080/13 RMK AO2 T01001039
04850KAOH AOH20160427210011204/27/16 21:00:31  5-MIN KAOH 280200Z AUTO 06009KT 10SM OVC110 10/M04 A2988 1020 36 700 070/09 RMK AO2 T01001044
04850KAOH AOH20160427210511204/27/16 21:05:31  5-MIN KAOH 280205Z AUTO 07011KT 10SM OVC110 10/M04 A2988 1010 37 700 070/11 RMK AO2 T01001039
04850KAOH AOH20160427211011204/27/16 21:10:31  5-MIN KAOH 280210Z AUTO 07009KT 10SM OVC110 10/M04 A2988 1010 37 700 070/09 RMK AO2 T01001039
04850KAOH AOH20160427211511904/27/16 21:15:31  5-MIN KAOH 280215Z AUTO 07010KT 10SM FEW037 OVC110 10/M03 A2989 1010 39 700 080/10 RMK AO2 T01001033
04850KAOH AOH20160427212011904/27/16 21:20:31  5-MIN KAOH 280220Z AUTO 07010KT 10SM SCT037 OVC100 10/M04 A2989 1010 37 700 070/10 RMK AO2 T01001039
04850KAOH AOH20160427212511904/27/16 21:25:31  5-MIN KAOH 280225Z AUTO 07011KT 10SM BKN037 OVC100 10/M04 A2990 1000 37 700 070/11 RMK AO2 T01001039
04850KAOH AOH20160427213011904/27/16 21:30:31  5-MIN KAOH 280230Z AUTO 07009KT 10SM BKN037 OVC100 10/M03 A2990 1000 39 700 080/09 RMK AO2 T01001033
04850KAOH AOH20160427213513504/27/16 21:35:31  5-MIN KAOH 280235Z AUTO 07009KT 10SM -RA BKN037 OVC110 10/M03 A2990 1000 40 700 070/09 RMK AO2 RAB32 P0000 T01001028
04850KAOH AOH20160427214012804/27/16 21:40:31  5-MIN KAOH 280240Z AUTO 07008KT 10SM -RA OVC037 10/M03 A2990 1000 40 700 070/08 RMK AO2 RAB32 P0000 T01001028
04850KAOH AOH20160427214512804/27/16 21:45:31  5-MIN KAOH 280245Z AUTO 06009KT 10SM -RA OVC037 10/M02 A2990 1000 42 700 070/09 RMK AO2 RAB32 P0000 T01001022
04850KAOH AOH20160427215014704/27/16 21:50:31  5-MIN KAOH 280250Z AUTO 06009KT 10SM -RA OVC036 09/M02 A2989 1000 45 600 070/09 RMK AO2 RAB32 SLP126 P0000 60000 T00941017 58019
04850KAOH AOH20160427215512204/27/16 21:55:31  5-MIN KAOH 280255Z AUTO 07011KT 10SM -RA OVC036 09/M02 A2989 1000 45 600 070/11 RMK AO2 P0000 T00941017
04850KAOH AOH20160427220012204/27/16 22:00:31  5-MIN KAOH 280300Z AUTO 07010KT 10SM -RA OVC036 09/M02 A2989 1000 45 600 070/10 RMK AO2 P0000 T00941017
04850KAOH AOH20160427220512204/27/16 22:05:31  5-MIN KAOH 280305Z AUTO 07008KT 10SM -RA OVC037 09/M01 A2990 1000 47 600 070/08 RMK AO2 P0000 T00941011
04850KAOH AOH20160427221012204/27/16 22:10:31  5-MIN KAOH 280310Z AUTO 07008KT 10SM -RA OVC037 09/M01 A2989 1000 49 500 070/08 RMK AO2 P0000 T00891011
04850KAOH AOH20160427221513604/27/16 22:15:31  5-MIN KAOH 280315Z AUTO 06009KT 10SM -RA BKN037 BKN070 OVC095 09/M01 A2989 1000 51 500 070/09 RMK AO2 P0000 T00891006
04850KAOH AOH20160427222013604/27/16 22:20:31  5-MIN KAOH 280320Z AUTO 06009KT 10SM -RA BKN037 BKN070 OVC110 09/M01 A2989 1010 51 600 070/09 RMK AO2 P0000 T00891006
04850KAOH AOH20160427222513604/27/16 22:25:31  5-MIN KAOH 280325Z AUTO 06009KT 10SM -RA SCT037 BKN075 OVC100 09/M01 A2988 1010 51 600 070/09 RMK AO2 P0000 T00891006
04850KAOH AOH20160427223013604/27/16 22:30:31  5-MIN KAOH 280330Z AUTO 07010KT 10SM -RA SCT037 SCT080 OVC100 09/M01 A2989 1010 51 600 070/10 RMK AO2 P0000 T00891006
04850KAOH AOH20160427223513604/27/16 22:35:31  5-MIN KAOH 280335Z AUTO 07010KT 10SM -RA FEW037 SCT075 OVC110 09/M01 A2989 1010 51 600 070/10 RMK AO2 P0000 T00891006
04850KAOH AOH20160427224013504/27/16 22:40:31  5-MIN KAOH 280340Z AUTO 07010KT 10SM -RA SCT039 BKN100 OVC110 09/00 A2989 1010 53 600 070/10 RMK AO2 P0000 T00890000
04850KAOH AOH20160427224513704/27/16 22:45:31  5-MIN KAOH 280345Z AUTO 07010KT 10SM BKN039 BKN080 OVC110 09/00 A2988 1010 53 600 070/10 RMK AO2 RAE43 P0000 T00890000
04850KAOH AOH20160427225013804/27/16 22:50:31  5-MIN KAOH 280350Z AUTO 07010KT 10SM BKN039 OVC110 09/M01 A2989 1010 51 600 070/10 RMK AO2 RAE43 SLP122 P0000 T00891006
04850KAOH AOH20160427225511904/27/16 22:55:31  5-MIN KAOH 280355Z AUTO 07011KT 10SM BKN039 OVC110 09/M01 A2988 1010 51 600 080/11 RMK AO2 T00891006
04850KAOH AOH20160427230011204/27/16 23:00:31  5-MIN KAOH 280400Z AUTO 07010KT 10SM OVC039 09/M01 A2989 1010 51 600 080/10 RMK AO2 T00891006
04850KAOH AOH20160427230511804/27/16 23:05:31  5-MIN KAOH 280405Z AUTO 08008KT 10SM FEW030 OVC039 09/00 A2989 1010 53 600 090/08 RMK AO2 T00890000
04850KAOH AOH20160427231011204/27/16 23:10:31  5-MIN KAOH 280410Z AUTO 08009KT 10SM OVC036 09/M01 A2989 1000 49 600 090/09 RMK AO2 T00941006
04850KAOH AOH20160427231511904/27/16 23:15:31  5-MIN KAOH 280415Z AUTO 08011KT 10SM BKN031 OVC038 09/M01 A2989 1010 47 600 090/11 RMK AO2 T00941011
04850KAOH AOH20160427232011204/27/16 23:20:31  5-MIN KAOH 280420Z AUTO 07010KT 10SM OVC034 09/M01 A2988 1010 49 600 080/10 RMK AO2 T00941006
04850KAOH AOH20160427232511204/27/16 23:25:31  5-MIN KAOH 280425Z AUTO 08011KT 10SM OVC034 09/M01 A2988 1010 47 600 080/11 RMK AO2 T00941011
04850KAOH AOH20160427233011204/27/16 23:30:31  5-MIN KAOH 280430Z AUTO 08012KT 10SM OVC034 09/M01 A2988 1010 47 600 080/12 RMK AO2 T00941011
04850KAOH AOH20160427233511204/27/16 23:35:31  5-MIN KAOH 280435Z AUTO 08011KT 10SM OVC034 09/M01 A2988 1010 47 600 080/11 RMK AO2 T00941011
04850KAOH AOH20160427234011204/27/16 23:40:31  5-MIN KAOH 280440Z AUTO 08012KT 10SM OVC035 09/M02 A2988 1010 44 600 080/12 RMK AO2 T00941022
04850KAOH AOH20160427234511204/27/16 23:45:31  5-MIN KAOH 280445Z AUTO 08012KT 10SM OVC035 09/M02 A2988 1010 44 600 080/12 RMK AO2 T00941022
04850KAOH AOH20160427235012904/27/16 23:50:31  5-MIN KAOH 280450Z AUTO 07011KT 10SM OVC036 09/M02 A2988 1010 44 600 080/11 RMK AO2 SLP120 T00941022 401500050
04850KAOH AOH20160427235511204/27/16 23:55:31  5-MIN KAOH 280455Z AUTO 07012KT 10SM OVC036 09/M02 A2988 1020 44 600 080/12 RMK AO2 T00941022
04850KAOH AOH20160428000011204/28/16 00:00:31  5-MIN KAOH 280500Z AUTO 07010KT 10SM OVC036 10/M03 A2988 1020 40 700 080/10 RMK AO2 T01001028
04850KAOH AOH20160428000511204/28/16 00:05:31  5-MIN KAOH 280505Z AUTO 07010KT 10SM OVC036 10/M02 A2988 1020 42 700 070/10 RMK AO2 T01001022
04850KAOH AOH20160428001011204/28/16 00:10:31  5-MIN KAOH 280510Z AUTO 07011KT 10SM OVC036 09/M02 A2988 1020 44 600 070/11 RMK AO2 T00941022
04850KAOH AOH20160428001511204/28/16 00:15:31  5-MIN KAOH 280515Z AUTO 07010KT 10SM OVC036 10/M03 A2988 1010 40 700 070/10 RMK AO2 T01001028
04850KAOH AOH20160428002011204/28/16 00:20:31  5-MIN KAOH 280520Z AUTO 07011KT 10SM OVC035 10/M02 A2988 1020 42 700 080/11 RMK AO2 T01001022
04850KAOH AOH20160428002511204/28/16 00:25:31  5-MIN KAOH 280525Z AUTO 07011KT 10SM OVC035 09/M02 A2988 1020 44 600 070/11 RMK AO2 T00941022
04850KAOH AOH20160428003011204/28/16 00:30:31  5-MIN KAOH 280530Z AUTO 07011KT 10SM OVC035 10/M02 A2988 1020 42 700 070/11 RMK AO2 T01001022
04850KAOH AOH20160428003511204/28/16 00:35:31  5-MIN KAOH 280535Z AUTO 07012KT 10SM OVC035 09/M02 A2987 1020 45 600 070/12 RMK AO2 T00941017
04850KAOH AOH20160428004011204/28/16 00:40:31  5-MIN KAOH 280540Z AUTO 07012KT 10SM OVC033 09/M02 A2987 1030 45 600 070/12 RMK AO2 T00941017
04850KAOH AOH20160428004511204/28/16 00:45:31  5-MIN KAOH 280545Z AUTO 07013KT 10SM OVC033 10/M02 A2987 1030 42 700 070/13 RMK AO2 T01001022
04850KAOH AOH20160428005014304/28/16 00:50:31  5-MIN KAOH 280550Z AUTO 07012KT 10SM OVC030 09/M02 A2987 1030 45 600 070/12 RMK AO2 SLP115 60000 T00941017 10111 20089 53016
04850KAOH AOH20160428005512904/28/16 00:55:31  5-MIN KAOH 280555Z AUTO 07012KT 10SM -RA BKN030 OVC034 09/M02 A2986 1030 45 600 080/12 RMK AO2 P0000 T00941017
04850KAOH AOH20160428010012204/28/16 01:00:31  5-MIN KAOH 280600Z AUTO 07013KT 10SM -RA OVC030 09/M01 A2986 1030 49 600 070/13 RMK AO2 P0000 T00941006
04850KAOH AOH20160428010512004/28/16 01:05:31  5-MIN KAOH 280605Z AUTO 07011KT 9SM -RA OVC030 09/01 A2986 1030 56 600 070/11 RMK AO2 P0000 T00890006
04850KAOH AOH20160428011012004/28/16 01:10:31  5-MIN KAOH 280610Z AUTO 07011KT 9SM -RA OVC028 08/01 A2986 1030 60 500 070/11 RMK AO2 P0000 T00830011
04850KAOH AOH20160428011512004/28/16 01:15:31  5-MIN KAOH 280615Z AUTO 06011KT 9SM -RA OVC028 08/02 A2986 1030 63 500 070/11 RMK AO2 P0000 T00830017
04850KAOH AOH20160428012012104/28/16 01:20:31  5-MIN KAOH 280620Z AUTO 06011KT 10SM -RA OVC028 08/02 A2986 1030 65 500 070/11 RMK AO2 P0001 T00780017
04850KAOH AOH20160428012512104/28/16 01:25:31  5-MIN KAOH 280625Z AUTO 06012KT 10SM -RA OVC028 08/02 A2986 1030 65 500 070/12 RMK AO2 P0001 T00780017
04850KAOH AOH20160428013012104/28/16 01:30:31  5-MIN KAOH 280630Z AUTO 06011KT 10SM -RA OVC027 08/02 A2986 1040 65 500 060/11 RMK AO2 P0001 T00780017
04850KAOH AOH20160428013512104/28/16 01:35:31  5-MIN KAOH 280635Z AUTO 06011KT 10SM -RA OVC027 08/02 A2986 1040 68 500 060/11 RMK AO2 P0001 T00780022
04850KAOH AOH20160428014012104/28/16 01:40:31  5-MIN KAOH 280640Z AUTO 06009KT 10SM -RA OVC026 08/02 A2986 1040 68 500 060/09 RMK AO2 P0001 T00780022
04850KAOH AOH20160428014512104/28/16 01:45:31  5-MIN KAOH 280645Z AUTO 06009KT 10SM -RA OVC024 08/02 A2986 1030 68 500 060/09 RMK AO2 P0001 T00780022
04850KAOH AOH20160428015012604/28/16 01:50:31  5-MIN KAOH 280650Z AUTO 05006KT 8SM RA OVC024 08/02 A2986 1030 68 400 060/06 RMK AO2 SLP113 P0004 T00780022
04850KAOH AOH20160428015511904/28/16 01:55:31  5-MIN KAOH 280655Z AUTO 04005KT 5SM RA OVC024 07/03 A2986 1030 73 400 050/05 RMK AO2 P0002 T00720028
04850KAOH AOH20160428020012004/28/16 02:00:31  5-MIN KAOH 280700Z AUTO 05005KT 4SM +RA OVC022 07/03 A2986 1030 73 400 060/05 RMK AO2 P0006 T00720028
04850KAOH AOH20160428020512004/28/16 02:05:31  5-MIN KAOH 280705Z AUTO 06006KT 4SM +RA OVC022 07/03 A2986 1030 76 400 060/06 RMK AO2 P0010 T00720033
04850KAOH AOH20160428021012004/28/16 02:10:31  5-MIN KAOH 280710Z AUTO 06007KT 4SM +RA OVC022 07/03 A2986 1030 79 300 070/07 RMK AO2 P0012 T00670033
04850KAOH AOH20160428021513404/28/16 02:15:31  5-MIN KAOH 280715Z AUTO 06009KT 4SM +RA BKN020 BKN029 OVC035 07/04 A2986 1040 82 300 070/09 RMK AO2 P0016 T00670039
04850KAOH AOH20160428022013304/28/16 02:20:31  5-MIN KAOH 280720Z AUTO 06011KT 4SM RA BKN020 BKN029 OVC035 07/03 A2986 1040 79 300 070/11 RMK AO2 P0017 T00670033
04850KAOH AOH20160428022512604/28/16 02:25:31  5-MIN KAOH 280725Z AUTO 05010KT 5SM RA BKN020 OVC029 07/03 A2985 1040 79 300 060/10 RMK AO2 P0018 T00670033
04850KAOH AOH20160428023012604/28/16 02:30:31  5-MIN KAOH 280730Z AUTO 05010KT 6SM RA BKN020 OVC027 07/04 A2986 1040 82 300 060/10 RMK AO2 P0020 T00670039
04850KAOH AOH20160428023512604/28/16 02:35:31  5-MIN KAOH 280735Z AUTO 05009KT 5SM RA BKN020 OVC027 07/04 A2986 1040 82 300 050/09 RMK AO2 P0021 T00670039
04850KAOH AOH20160428024012604/28/16 02:40:31  5-MIN KAOH 280740Z AUTO 05008KT 5SM RA BKN022 OVC029 07/04 A2986 1040 82 300 050/08 RMK AO2 P0023 T00670039
04850KAOH AOH20160428024511904/28/16 02:45:31  5-MIN KAOH 280745Z AUTO 04008KT 6SM RA OVC022 07/04 A2986 1030 82 300 050/08 RMK AO2 P0024 T00670039
04850KAOH AOH20160428025012704/28/16 02:50:31  5-MIN KAOH 280750Z AUTO 03007KT 6SM -RA OVC022 07/04 A2986 1030 82 300 040/07 RMK AO2 SLP113 P0024 T00670039
04850KAOH AOH20160428025512204/28/16 02:55:31  5-MIN KAOH 280755Z AUTO 04007KT 5SM RA BR OVC021 07/04 A2986 1040 86 300 040/07 RMK AO2 P0000 T00670044
04850KAOH AOH20160428030012304/28/16 03:00:31  5-MIN KAOH 280800Z AUTO 04008KT 4SM +RA BR OVC021 06/04 A2986 1040 89 300 050/08 RMK AO2 P0004 T00610044
04850KAOH AOH20160428030512204/28/16 03:05:31  5-MIN KAOH 280805Z AUTO 05008KT 4SM RA BR OVC021 06/04 A2986 1030 89 300 060/08 RMK AO2 P0006 T00610044
04850KAOH AOH20160428031012204/28/16 03:10:31  5-MIN KAOH 280810Z AUTO 05008KT 5SM RA BR OVC021 06/04 A2986 1030 89 300 050/08 RMK AO2 P0007 T00610044
04850KAOH AOH20160428031512304/28/16 03:15:31  5-MIN KAOH 280815Z AUTO 05010KT 6SM -RA BR OVC021 06/04 A2986 1040 89 300 060/10 RMK AO2 P0008 T00610044
04850KAOH AOH20160428032012604/28/16 03:20:31  5-MIN KAOH 280820Z AUTO 06010G16KT 8SM -RA OVC021 06/04 A2985 1040 89 300 060/10G16 RMK AO2 P0008 T00610044
04850KAOH AOH20160428032512004/28/16 03:25:31  5-MIN KAOH 280825Z AUTO 06013KT 8SM -RA OVC023 06/04 A2985 1040 89 300 070/13 RMK AO2 P0009 T00610044
04850KAOH AOH20160428033012004/28/16 03:30:31  5-MIN KAOH 280830Z AUTO 06012KT 8SM -RA OVC023 06/04 A2985 1040 89 300 060/12 RMK AO2 P0009 T00610044
04850KAOH AOH20160428033512604/28/16 03:35:31  5-MIN KAOH 280835Z AUTO 05008G17KT 9SM -RA OVC024 06/04 A2986 1040 89 300 060/08G17 RMK AO2 P0009 T00610044
04850KAOH AOH20160428133511104/28/16 13:35:31  5-MIN KAOH 281835Z AUTO 05007KT 10SM OVC007 10/08 A2989 1010 89 700 060/07 RMK AO2 T01000083
04850KAOH AOH20160428134011104/28/16 13:40:31  5-MIN KAOH 281840Z AUTO 04008KT 10SM OVC007 10/08 A2989 1010 89 700 050/08 RMK AO2 T01000083
04850KAOH AOH20160428134511104/28/16 13:45:31  5-MIN KAOH 281845Z AUTO 06009KT 10SM OVC007 10/08 A2989 1010 89 700 060/09 RMK AO2 T01000083
04850KAOH AOH20160428135011804/28/16 13:50:31  5-MIN KAOH 281850Z AUTO 04008KT 10SM OVC007 10/08 A2989 1010 89 700 050/08 RMK AO2 SLP123 T01000083
04850KAOH AOH20160428135511104/28/16 13:55:31  5-MIN KAOH 281855Z AUTO 06008KT 10SM OVC007 10/08 A2989 1000 89 700 060/08 RMK AO2 T01000083
04850KAOH AOH20160428140011104/28/16 14:00:31  5-MIN KAOH 281900Z AUTO 08009KT 10SM OVC007 10/08 A2989 1010 89 700 080/09 RMK AO2 T01000083
04850KAOH AOH20160428140511104/28/16 14:05:31  5-MIN KAOH 281905Z AUTO 07008KT 10SM OVC007 10/08 A2989 1010 89 700 070/08 RMK AO2 T01000083
04850KAOH AOH20160428141011104/28/16 14:10:31  5-MIN KAOH 281910Z AUTO 06009KT 10SM OVC007 10/08 A2989 1010 89 700 070/09 RMK AO2 T01000083
04850KAOH AOH20160428141511104/28/16 14:15:31  5-MIN KAOH 281915Z AUTO 06009KT 10SM OVC007 10/08 A2989 1010 89 700 060/09 RMK AO2 T01000083
04850KAOH AOH20160428142011104/28/16 14:20:31  5-MIN KAOH 281920Z AUTO 07009KT 10SM OVC007 11/09 A2989 1010 89 800 070/09 RMK AO2 T01060089
04850KAOH AOH20160428142511104/28/16 14:25:31  5-MIN KAOH 281925Z AUTO 08011KT 10SM OVC007 11/09 A2989 1010 89 800 090/11 RMK AO2 T01060089
04850KAOH AOH20160428143011104/28/16 14:30:31  5-MIN KAOH 281930Z AUTO 07010KT 10SM OVC007 11/09 A2989 1010 89 800 080/10 RMK AO2 T01060089
04850KAOH AOH20160428143511104/28/16 14:35:31  5-MIN KAOH 281935Z AUTO 07008KT 10SM OVC007 11/09 A2989 1010 89 800 080/08 RMK AO2 T01060089
04850KAOH AOH20160428144011104/28/16 14:40:31  5-MIN KAOH 281940Z AUTO 06008KT 10SM OVC007 11/09 A2989 1010 89 800 070/08 RMK AO2 T01060089
04850KAOH AOH20160428144511104/28/16 14:45:31  5-MIN KAOH 281945Z AUTO 06008KT 10SM OVC007 11/09 A2989 1010 89 800 060/08 RMK AO2 T01060089
04850KAOH AOH20160428145011804/28/16 14:50:31  5-MIN KAOH 281950Z AUTO 07007KT 10SM OVC007 11/09 A2989 1010 89 800 070/07 RMK AO2 SLP123 T01060089
04850KAOH AOH20160428145511104/28/16 14:55:31  5-MIN KAOH 281955Z AUTO 05007KT 10SM OVC007 11/09 A2988 1010 89 800 060/07 RMK AO2 T01060089
04850KAOH AOH20160428150011104/28/16 15:00:31  5-MIN KAOH 282000Z AUTO 07009KT 10SM OVC007 11/09 A2988 1010 89 800 080/09 RMK AO2 T01060089
04850KAOH AOH20160428150511104/28/16 15:05:31  5-MIN KAOH 282005Z AUTO 07009KT 10SM OVC007 11/09 A2988 1010 89 800 080/09 RMK AO2 T01060089
04850KAOH AOH20160428151011104/28/16 15:10:31  5-MIN KAOH 282010Z AUTO 07009KT 10SM OVC007 11/09 A2988 1010 89 800 070/09 RMK AO2 T01060089
04850KAOH AOH20160428151511104/28/16 15:15:31  5-MIN KAOH 282015Z AUTO 06008KT 10SM OVC008 11/09 A2988 1010 89 800 060/08 RMK AO2 T01060089
04850KAOH AOH20160428152011104/28/16 15:20:31  5-MIN KAOH 282020Z AUTO 07008KT 10SM OVC008 11/09 A2989 1010 89 800 080/08 RMK AO2 T01060089
04850KAOH AOH20160428152511104/28/16 15:25:31  5-MIN KAOH 282025Z AUTO 08009KT 10SM OVC008 11/09 A2989 1010 89 800 090/09 RMK AO2 T01060089
04850KAOH AOH20160428153011104/28/16 15:30:31  5-MIN KAOH 282030Z AUTO 07007KT 10SM OVC008 11/09 A2989 1000 89 800 080/07 RMK AO2 T01060089
04850KAOH AOH20160428153511104/28/16 15:35:31  5-MIN KAOH 282035Z AUTO 04005KT 10SM OVC008 11/09 A2989 1000 89 700 050/05 RMK AO2 T01060089
04850KAOH AOH20160428154011004/28/16 15:40:31  5-MIN KAOH 282040Z AUTO 03007KT 9SM OVC008 11/09 A2989 1000 89 700 040/07 RMK AO2 T01060089
04850KAOH AOH20160428154511004/28/16 15:45:31  5-MIN KAOH 282045Z AUTO 03007KT 8SM OVC007 11/09 A2989 1000 89 800 040/07 RMK AO2 T01060089
04850KAOH AOH20160428155012604/28/16 15:50:31  5-MIN KAOH 282050Z AUTO 03006KT 5SM BR OVC007 11/09 A2989 1000 89 700 040/06 RMK AO2 SLP126 T01060089 51011
04850KAOH AOH20160428155511304/28/16 15:55:31  5-MIN KAOH 282055Z AUTO 05007KT 4SM BR OVC007 10/09 A2989 1000 93 700 060/07 RMK AO2 T01000089
04850KAOH AOH20160428160011304/28/16 16:00:31  5-MIN KAOH 282100Z AUTO 04007KT 4SM BR OVC007 11/09 A2989 1000 89 800 050/07 RMK AO2 T01060089
04850KAOH AOH20160428160511304/28/16 16:05:31  5-MIN KAOH 282105Z AUTO 03008KT 4SM BR OVC007 10/09 A2989 1000 96 700 040/08 RMK AO2 T01000094
04850KAOH AOH20160428161011304/28/16 16:10:31  5-MIN KAOH 282110Z AUTO 03007KT 4SM BR OVC007 10/09 A2989 1010 93 700 040/07 RMK AO2 T01000089
04850KAOH AOH20160428161511304/28/16 16:15:31  5-MIN KAOH 282115Z AUTO 03008KT 4SM BR OVC007 10/09 A2989 1000 93 700 030/08 RMK AO2 T01000089
04850KAOH AOH20160428162011304/28/16 16:20:31  5-MIN KAOH 282120Z AUTO 03006KT 4SM BR OVC007 10/09 A2990 1000 93 700 030/06 RMK AO2 T01000089
04850KAOH AOH20160428162511304/28/16 16:25:31  5-MIN KAOH 282125Z AUTO 01007KT 5SM BR OVC007 10/09 A2990 1000 93 700 010/07 RMK AO2 T01000089
04850KAOH AOH20160428163011304/28/16 16:30:31  5-MIN KAOH 282130Z AUTO 03008KT 5SM BR OVC007 10/09 A2990 1000 93 700 030/08 RMK AO2 T01000089
04850KAOH AOH20160428163511304/28/16 16:35:31  5-MIN KAOH 282135Z AUTO 04007KT 5SM BR OVC006 10/09 A2989 1000 93 700 040/07 RMK AO2 T01000089
04850KAOH AOH20160428164011304/28/16 16:40:31  5-MIN KAOH 282140Z AUTO 04008KT 5SM BR OVC006 10/09 A2990 1000 93 700 050/08 RMK AO2 T01000089
04850KAOH AOH20160428164511004/28/16 16:45:31  5-MIN KAOH 282145Z AUTO 04008KT 7SM OVC006 10/09 A2989 1000 93 700 040/08 RMK AO2 T01000089
04850KAOH AOH20160428165011704/28/16 16:50:31  5-MIN KAOH 282150Z AUTO 03008KT 8SM OVC006 10/09 A2990 1000 93 700 030/08 RMK AO2 SLP127 T01000089
04850KAOH AOH20160428165511004/28/16 16:55:31  5-MIN KAOH 282155Z AUTO 03007KT 8SM OVC006 10/09 A2990 1000 93 700 030/07 RMK AO2 T01000089
04850KAOH AOH20160428170011004/28/16 17:00:31  5-MIN KAOH 282200Z AUTO 02007KT 8SM OVC006 10/09 A2990 1000 93 700 020/07 RMK AO2 T01000089
04850KAOH AOH20160428170511004/28/16 17:05:31  5-MIN KAOH 282205Z AUTO 04007KT 9SM OVC006 10/09 A2990 1000 93 700 050/07 RMK AO2 T01000089
04850KAOH AOH20160428171011004/28/16 17:10:31  5-MIN KAOH 282210Z AUTO 03008KT 9SM OVC007 10/09 A2989 1000 93 700 040/08 RMK AO2 T01000089
04850KAOH AOH20160428171511004/28/16 17:15:31  5-MIN KAOH 282215Z AUTO 03010KT 9SM OVC007 10/09 A2988 1010 93 700 040/10 RMK AO2 T01000089
04850KAOH AOH20160428172011004/28/16 17:20:31  5-MIN KAOH 282220Z AUTO 03010KT 9SM OVC007 10/09 A2988 1010 93 700 040/10 RMK AO2 T01000089
04850KAOH AOH20160428172511104/28/16 17:25:31  5-MIN KAOH 282225Z AUTO 03009KT 10SM OVC007 10/09 A2989 1000 93 700 040/09 RMK AO2 T01000089
04850KAOH AOH20160428173011004/28/16 17:30:31  5-MIN KAOH 282230Z AUTO 03006KT 10SM OVC007 10/09 A2990 990 93 700 040/06 RMK AO2 T01000089
04850KAOH AOH20160428173511704/28/16 17:35:31  5-MIN KAOH 282235Z AUTO 05007KT 10SM OVC007 10/08 A2991 990 89 700 060/07 RMK AO2 PRESRR T01000083
04850KAOH AOH20160428174012204/28/16 17:40:31  5-MIN KAOH 282240Z AUTO 05009KT 10SM OVC007 10/08 A2991 990 89 700 060/09 RMK AO2 CIG 006V012 T01000083
04850KAOH AOH20160428174512204/28/16 17:45:31  5-MIN KAOH 282245Z AUTO 05008KT 10SM OVC007 10/08 A2991 990 89 700 060/08 RMK AO2 CIG 007V012 T01000083
04850KAOH AOH20160428175011704/28/16 17:50:31  5-MIN KAOH 282250Z AUTO 04009KT 10SM OVC008 10/08 A2990 990 89 700 050/09 RMK AO2 SLP130 T01000083
04850KAOH AOH20160428175511004/28/16 17:55:31  5-MIN KAOH 282255Z AUTO 04008KT 10SM OVC008 10/08 A2991 990 89 700 050/08 RMK AO2 T01000083
04850KAOH AOH20160428180011004/28/16 18:00:31  5-MIN KAOH 282300Z AUTO 04007KT 10SM OVC008 10/08 A2991 990 89 700 040/07 RMK AO2 T01000083
04850KAOH AOH20160428180511004/28/16 18:05:31  5-MIN KAOH 282305Z AUTO 03010KT 10SM OVC008 10/08 A2991 990 89 700 040/10 RMK AO2 T01000083
04850KAOH AOH20160428181011004/28/16 18:10:31  5-MIN KAOH 282310Z AUTO 05006KT 10SM OVC009 10/08 A2991 990 89 700 050/06 RMK AO2 T01000083
04850KAOH AOH20160428181512604/28/16 18:15:31  5-MIN KAOH 282315Z AUTO 04008KT 10SM -RA OVC009 10/08 A2991 990 89 700 050/08 RMK AO2 RAB11 P0000 T01000083
04850KAOH AOH20160428182012504/28/16 18:20:31  5-MIN KAOH 282320Z AUTO 04006KT 9SM -RA OVC009 10/08 A2991 990 89 700 040/06 RMK AO2 RAB11 P0001 T01000083
04850KAOH AOH20160428182512504/28/16 18:25:31  5-MIN KAOH 282325Z AUTO 03009KT 7SM -RA OVC009 10/08 A2991 990 89 700 030/09 RMK AO2 RAB11 P0001 T01000083
04850KAOH AOH20160428183012504/28/16 18:30:31  5-MIN KAOH 282330Z AUTO 04007KT 7SM -RA OVC009 10/08 A2991 990 89 700 040/07 RMK AO2 RAB11 P0001 T01000083
04850KAOH AOH20160428183512504/28/16 18:35:31  5-MIN KAOH 282335Z AUTO 04008KT 7SM -RA OVC009 10/08 A2991 990 89 700 040/08 RMK AO2 RAB11 P0001 T01000083
04850KAOH AOH20160428184012504/28/16 18:40:31  5-MIN KAOH 282340Z AUTO 04008KT 8SM -RA OVC009 10/08 A2991 990 89 700 040/08 RMK AO2 RAB11 P0001 T01000083
04850KAOH AOH20160428184512504/28/16 18:45:31  5-MIN KAOH 282345Z AUTO 04006KT 7SM -RA OVC010 10/08 A2991 990 89 700 050/06 RMK AO2 RAB11 P0002 T01000083
04850KAOH AOH20160428185011504/28/16 18:50:31  5-MIN KAOH 282350Z AUTO 04009KT 7SM -RA OVC010 10/08 A2991 990 89 700 050/09 RMK AO2 RAB11 P0002
04850KAOH AOH20160428185511904/28/16 18:55:31  5-MIN KAOH 282355Z AUTO 03009KT 9SM -RA OVC010 09/08 A2991 990 89 600 040/09 RMK AO2 P0000 T00940078
04850KAOH AOH20160428190012204/28/16 19:00:31  5-MIN KAOH 290000Z AUTO 03009KT 10SM OVC010 09/08 A2991 990 89 600 040/09 RMK AO2 RAE00 P0000 T00940078
04850KAOH AOH20160428190512704/28/16 19:05:31  5-MIN KAOH 290005Z AUTO 03008KT 10SM -RA BKN011 OVC080 09/08 A2991 990 89 600 040/08 RMK AO2 P0000 T00940078
04850KAOH AOH20160428191012704/28/16 19:10:31  5-MIN KAOH 290010Z AUTO 04010KT 10SM -RA BKN011 OVC075 09/08 A2991 990 89 600 050/10 RMK AO2 P0000 T00940078
04850KAOH AOH20160428191512704/28/16 19:15:31  5-MIN KAOH 290015Z AUTO 03010KT 10SM -RA SCT011 OVC075 09/08 A2991 990 93 500 040/10 RMK AO2 P0000 T00890078
04850KAOH AOH20160428192012704/28/16 19:20:31  5-MIN KAOH 290020Z AUTO 03011KT 10SM -RA SCT011 OVC070 09/07 A2991 990 89 500 040/11 RMK AO2 P0000 T00890072
04850KAOH AOH20160428192512704/28/16 19:25:31  5-MIN KAOH 290025Z AUTO 02010KT 10SM -RA FEW011 OVC075 09/07 A2991 980 89 500 030/10 RMK AO2 P0000 T00890072
04850KAOH AOH20160428193011904/28/16 19:30:31  5-MIN KAOH 290030Z AUTO 02008KT 9SM -RA OVC070 09/07 A2992 970 89 500 020/08 RMK AO2 P0000 T00890072
04850KAOH AOH20160428193513404/28/16 19:35:31  5-MIN KAOH 290035Z AUTO 02005KT 10SM -RA FEW055 OVC070 09/07 A2993 970 89 500 030/05 RMK AO2 PRESRR P0000 T00890072
04850KAOH AOH20160428194014004/28/16 19:40:31  5-MIN KAOH 290040Z AUTO 36005KT 9SM -RA SCT014 SCT055 OVC070 09/07 A2994 960 89 500 360/05 RMK AO2 PRESRR P0001 T00890072
04850KAOH AOH20160428194512604/28/16 19:45:31  5-MIN KAOH 290045Z AUTO 35004KT 8SM -RA BKN014 OVC070 09/07 A2994 960 89 500 360/04 RMK AO2 P0001 T00890072
04850KAOH AOH20160428195011604/28/16 19:50:31  5-MIN KAOH 290050Z AUTO 35005KT 8SM -RA BKN014 OVC070 09/07 A2995 950 89 500 350/05 RMK AO2 P0002
04850KAOH AOH20160428195512604/28/16 19:55:31  5-MIN KAOH 290055Z AUTO 01003KT 8SM -RA BKN013 OVC070 09/07 A2995 950 89 500 010/03 RMK AO2 P0000 T00890072
04850KAOH AOH20160428200012604/28/16 20:00:31  5-MIN KAOH 290100Z AUTO 05006KT 8SM -RA BKN013 OVC060 09/08 A2994 960 93 500 050/06 RMK AO2 P0001 T00890078
04850KAOH AOH20160428200513304/28/16 20:05:31  5-MIN KAOH 290105Z AUTO 04008KT 7SM -RA BKN013 BKN060 OVC075 09/07 A2994 960 89 500 040/08 RMK AO2 P0001 T00890072
04850KAOH AOH20160428201013304/28/16 20:10:31  5-MIN KAOH 290110Z AUTO 06006KT 7SM -RA SCT013 BKN055 OVC070 09/07 A2994 960 89 500 070/06 RMK AO2 P0001 T00890072
04850KAOH AOH20160428201513304/28/16 20:15:31  5-MIN KAOH 290115Z AUTO 03004KT 8SM -RA SCT013 SCT055 OVC070 09/07 A2995 950 89 500 040/04 RMK AO2 P0001 T00890072
04850KAOH AOH20160428202013304/28/16 20:20:31  5-MIN KAOH 290120Z AUTO 02005KT 9SM -RA FEW007 BKN055 OVC070 09/08 A2995 950 93 500 030/05 RMK AO2 P0001 T00890078
04850KAOH AOH20160428202514604/28/16 20:25:31  5-MIN KAOH 290125Z AUTO 03005KT 10SM -RA BKN009 BKN055 OVC070 08/08 A2994 950 96 400 040/05 RMK AO2 CIG 006V014 P0001 T00830078
04850KAOH AOH20160428203014104/28/16 20:30:31  5-MIN KAOH 290130Z AUTO 05007KT 10SM BKN007 OVC070 08/08 A2994 960 96 400 060/07 RMK AO2 RAE29 CIG 005V013 P0001 T00830078
04850KAOH AOH20160428203514104/28/16 20:35:31  5-MIN KAOH 290135Z AUTO 03006KT 10SM BKN007 OVC070 08/07 A2995 950 93 400 040/06 RMK AO2 RAE29 CIG 005V013 P0001 T00830072
04850KAOH AOH20160428204014804/28/16 20:40:31  5-MIN KAOH 290140Z AUTO 04005KT 10SM BKN008 BKN080 OVC095 08/07 A2995 950 93 400 050/05 RMK AO2 RAE29 CIG 005V013 P0001 T00830072
04850KAOH AOH20160428204514804/28/16 20:45:31  5-MIN KAOH 290145Z AUTO 04006KT 10SM BKN008 BKN043 OVC090 08/07 A2996 940 93 400 040/06 RMK AO2 RAE29 CIG 005V011 P0001 T00830072
04850KAOH AOH20160428205013804/28/16 20:50:31  5-MIN KAOH 290150Z AUTO 02004KT 10SM FEW006 BKN010 OVC090 08/07 A2996 940 93 400 020/04 RMK AO2 RAE29 CIG 009V012 P0001
04850KAOH AOH20160428205512404/28/16 20:55:31  5-MIN KAOH 290155Z AUTO 01005KT 10SM FEW006 BKN010 OVC090 08/07 A2997 940 93 400 020/05 RMK AO2 T00830072
04850KAOH AOH20160428210012404/28/16 21:00:31  5-MIN KAOH 290200Z AUTO 01005KT 10SM BKN010 BKN042 OVC090 08/07 A2997 930 93 400 010/05 RMK AO2 T00830072
04850KAOH AOH20160428210513004/28/16 21:05:31  5-MIN KAOH 290205Z AUTO 01005KT 10SM BKN011 BKN017 OVC042 08/07 A2997 930 96 300 020/05 RMK AO2 P0001 T00780072
04850KAOH AOH20160428211012304/28/16 21:10:31  5-MIN KAOH 290210Z AUTO 36006KT 10SM BKN011 OVC017 08/07 A2997 930 96 300 010/06 RMK AO2 P0001 T00780072
04850KAOH AOH20160428211511604/28/16 21:15:31  5-MIN KAOH 290215Z AUTO 36005KT 10SM OVC011 08/07 A2997 930 93 300 010/05 RMK AO2 P0001 T00780067
04850KAOH AOH20160428212011604/28/16 21:20:31  5-MIN KAOH 290220Z AUTO 01006KT 10SM OVC011 08/07 A2997 930 93 300 020/06 RMK AO2 P0001 T00780067
04850KAOH AOH20160428212511604/28/16 21:25:31  5-MIN KAOH 290225Z AUTO 01006KT 10SM OVC011 08/07 A2997 930 93 300 010/06 RMK AO2 P0001 T00780067
04850KAOH AOH20160428213011604/28/16 21:30:31  5-MIN KAOH 290230Z AUTO 01007KT 10SM OVC011 08/07 A2997 930 93 300 010/07 RMK AO2 P0001 T00780067
04850KAOH AOH20160428213511604/28/16 21:35:31  5-MIN KAOH 290235Z AUTO 01005KT 10SM OVC011 08/07 A2997 930 93 300 020/05 RMK AO2 P0001 T00780067
04850KAOH AOH20160428214011604/28/16 21:40:31  5-MIN KAOH 290240Z AUTO 36004KT 10SM OVC010 08/07 A2998 930 93 300 010/04 RMK AO2 P0001 T00780067
04850KAOH AOH20160428214512804/28/16 21:45:31  5-MIN KAOH 290245Z AUTO 34003KT 10SM OVC010 08/07 A2998 920 93 300 350/03 RMK AO2 CIG 007V012 P0001 T00780067
04850KAOH AOH20160428215014704/28/16 21:50:31  5-MIN KAOH 290250Z AUTO 34003KT 10SM OVC010 08/07 A2998 920 96 300 350/03 RMK AO2 CIG 006V011 SLP155 P0001 60004 T00780072 52005
04850KAOH AOH20160428215512204/28/16 21:55:31  5-MIN KAOH 290255Z AUTO 35005KT 10SM OVC010 08/07 A2998 920 93 300 350/05 RMK AO2 CIG 006V011 T00780067
04850KAOH AOH20160428220012204/28/16 22:00:31  5-MIN KAOH 290300Z AUTO 35005KT 10SM OVC008 08/07 A2998 920 96 300 360/05 RMK AO2 CIG 006V011 T00780072
04850KAOH AOH20160428220512204/28/16 22:05:31  5-MIN KAOH 290305Z AUTO 36004KT 10SM OVC008 08/07 A2998 920 96 300 010/04 RMK AO2 CIG 006V011 T00780072
04850KAOH AOH20160428221012204/28/16 22:10:31  5-MIN KAOH 290310Z AUTO 35005KT 10SM OVC008 08/07 A2997 930 93 300 360/05 RMK AO2 CIG 005V011 T00780067
04850KAOH AOH20160428221512204/28/16 22:15:31  5-MIN KAOH 290315Z AUTO 02006KT 10SM OVC006 08/07 A2997 930 93 300 030/06 RMK AO2 CIG 005V011 T00780067
04850KAOH AOH20160428222012204/28/16 22:20:31  5-MIN KAOH 290320Z AUTO 01006KT 10SM OVC006 08/07 A2997 930 93 300 020/06 RMK AO2 CIG 005V010 T00780067
04850KAOH AOH20160428222512204/28/16 22:25:31  5-MIN KAOH 290325Z AUTO 02006KT 10SM OVC006 08/07 A2997 930 93 300 020/06 RMK AO2 CIG 005V010 T00780067
04850KAOH AOH20160428223012204/28/16 22:30:31  5-MIN KAOH 290330Z AUTO 01006KT 10SM OVC006 08/07 A2997 930 93 300 020/06 RMK AO2 CIG 005V010 T00780067
04850KAOH AOH20160428223511004/28/16 22:35:31  5-MIN KAOH 290335Z AUTO 01005KT 10SM OVC006 08/07 A2997 930 93 300 020/05 RMK AO2 T00780067
04850KAOH AOH20160428224011004/28/16 22:40:31  5-MIN KAOH 290340Z AUTO 36005KT 10SM OVC006 07/07 A2997 930 96 300 010/05 RMK AO2 T00720067
04850KAOH AOH20160428224511004/28/16 22:45:31  5-MIN KAOH 290345Z AUTO 01005KT 10SM OVC006 07/07 A2997 930 96 300 010/05 RMK AO2 T00720067
04850KAOH AOH20160428225012904/28/16 22:50:31  5-MIN KAOH 290350Z AUTO 01005KT 10SM OVC006 07/07 A2997 930 96 300 020/05 RMK AO2 CIG 005V010 SLP152 T00720067
04850KAOH AOH20160428225512904/28/16 22:55:31  5-MIN KAOH 290355Z AUTO 01007KT 10SM BKN006 OVC010 07/07 A2997 940 96 300 020/07 RMK AO2 CIG 005V009 T00720067
04850KAOH AOH20160428230012904/28/16 23:00:31  5-MIN KAOH 290400Z AUTO 02007KT 10SM BKN006 OVC011 07/07 A2996 940 96 300 020/07 RMK AO2 CIG 005V009 T00720067
04850KAOH AOH20160428230512204/28/16 23:05:31  5-MIN KAOH 290405Z AUTO 01006KT 10SM OVC009 07/07 A2996 940 96 300 020/06 RMK AO2 CIG 006V011 T00720067
04850KAOH AOH20160428231011704/28/16 23:10:31  5-MIN KAOH 290410Z AUTO 36006KT 10SM BKN006 OVC011 07/06 A2996 940 93 300 010/06 RMK AO2 T00720061
04850KAOH AOH20160428231511704/28/16 23:15:31  5-MIN KAOH 290415Z AUTO 01005KT 10SM BKN006 OVC011 07/06 A2996 940 93 300 010/05 RMK AO2 T00720061
04850KAOH AOH20160428232011704/28/16 23:20:31  5-MIN KAOH 290420Z AUTO 36004KT 10SM BKN006 OVC011 07/07 A2997 940 96 300 010/04 RMK AO2 T00720067
04850KAOH AOH20160428232511604/28/16 23:25:31  5-MIN KAOH 290425Z AUTO 02006KT 9SM BKN006 OVC011 07/07 A2996 940 96 300 020/06 RMK AO2 T00720067
04850KAOH AOH20160428233010904/28/16 23:30:31  5-MIN KAOH 290430Z AUTO 02005KT 9SM OVC006 07/07 A2997 940 96 300 020/05 RMK AO2 T00720067
04850KAOH AOH20160428233510904/28/16 23:35:31  5-MIN KAOH 290435Z AUTO 02005KT 9SM OVC006 07/06 A2997 940 93 300 030/05 RMK AO2 T00720061
04850KAOH AOH20160428234010904/28/16 23:40:31  5-MIN KAOH 290440Z AUTO 03004KT 9SM OVC006 07/06 A2996 940 93 300 040/04 RMK AO2 T00720061
04850KAOH AOH20160428234510904/28/16 23:45:31  5-MIN KAOH 290445Z AUTO 02005KT 7SM OVC006 07/07 A2996 940 96 300 020/05 RMK AO2 T00720067
04850KAOH AOH20160428235012904/28/16 23:50:31  5-MIN KAOH 290450Z AUTO 02005KT 6SM BR OVC006 07/07 A2996 940 96 300 020/05 RMK AO2 SLP150 T00720067 401060061
04850KAOH AOH20160428235511204/28/16 23:55:31  5-MIN KAOH 290455Z AUTO 36004KT 5SM BR OVC006 07/07 A2997 940 96 300 010/04 RMK AO2 T00720067
04850KAOH AOH20160429000011204/29/16 00:00:31  5-MIN KAOH 290500Z AUTO 36005KT 4SM BR OVC005 07/07 A2996 940 96 300 360/05 RMK AO2 T00720067
04850KAOH AOH20160429000511204/29/16 00:05:31  5-MIN KAOH 290505Z AUTO 36005KT 4SM BR OVC005 07/07 A2997 930 96 300 360/05 RMK AO2 T00720067
04850KAOH AOH20160429001011904/29/16 00:10:31  5-MIN KAOH 290510Z AUTO 32006KT 4SM BR OVC004 07/07 A2998 920 96 200 330/06 RMK AO2 PRESRR T00720067
04850KAOH AOH20160429001511204/29/16 00:15:31  5-MIN KAOH 290515Z AUTO 31006KT 5SM BR OVC004 07/06 A2998 920 93 200 310/06 RMK AO2 T00720061
04850KAOH AOH20160429002012804/29/16 00:20:31  5-MIN KAOH 290520Z AUTO 34004KT 5SM -RA BR OVC004 07/07 A2998 930 96 300 350/04 RMK AO2 RAB18 P0000 T00720067
04850KAOH AOH20160429002512804/29/16 00:25:31  5-MIN KAOH 290525Z AUTO 36004KT 6SM -RA BR OVC004 07/07 A2998 930 96 300 360/04 RMK AO2 RAB18 P0000 T00720067
04850KAOH AOH20160429003012804/29/16 00:30:31  5-MIN KAOH 290530Z AUTO 36004KT 5SM -RA BR OVC004 07/07 A2997 930 96 300 010/04 RMK AO2 RAB18 P0000 T00720067
04850KAOH AOH20160429003512804/29/16 00:35:31  5-MIN KAOH 290535Z AUTO 02004KT 5SM -RA BR OVC004 07/07 A2997 930 96 300 030/04 RMK AO2 RAB18 P0000 T00720067
04850KAOH AOH20160429004012804/29/16 00:40:31  5-MIN KAOH 290540Z AUTO 36004KT 5SM -RA BR OVC004 07/07 A2997 930 96 300 360/04 RMK AO2 RAB18 P0000 T00720067
04850KAOH AOH20160429004512704/29/16 00:45:31  5-MIN KAOH 290545Z AUTO 36004KT 5SM BR OVC004 07/07 A2997 930 96 300 360/04 RMK AO2 RAB18E45 P0000 T00720067
04850KAOH AOH20160429005015804/29/16 00:50:31  5-MIN KAOH 290550Z AUTO 35004KT 5SM BR OVC004 07/07 A2997 930 96 300 350/04 RMK AO2 RAB18E45 SLP151 P0000 60004 T00720067 10094 20072 53009
04850KAOH AOH20160429005511304/29/16 00:55:31  5-MIN KAOH 290555Z AUTO 35004KT 4SM BR OVC004 07/07 A2997 930 100 200 350/04 RMK AO2 T00670067
04850KAOH AOH20160429010011304/29/16 01:00:31  5-MIN KAOH 290600Z AUTO 36005KT 4SM BR OVC004 07/07 A2997 930 100 200 010/05 RMK AO2 T00670067
04850KAOH AOH20160429010511204/29/16 01:05:31  5-MIN KAOH 290605Z AUTO 01004KT 5SM BR OVC004 07/06 A2997 930 96 200 020/04 RMK AO2 T00670061
04850KAOH AOH20160429011011204/29/16 01:10:31  5-MIN KAOH 290610Z AUTO 36004KT 5SM BR OVC004 07/07 A2997 930 96 300 010/04 RMK AO2 T00720067
04850KAOH AOH20160429011511304/29/16 01:15:31  5-MIN KAOH 290615Z AUTO 35003KT 5SM BR OVC004 07/07 A2997 930 100 200 350/03 RMK AO2 T00670067
04850KAOH AOH20160429012011304/29/16 01:20:31  5-MIN KAOH 290620Z AUTO 34003KT 6SM BR OVC004 07/07 A2997 930 100 200 350/03 RMK AO2 T00670067
04850KAOH AOH20160429012511304/29/16 01:25:31  5-MIN KAOH 290625Z AUTO 32003KT 6SM BR OVC004 07/07 A2997 930 100 200 330/03 RMK AO2 T00670067
04850KAOH AOH20160429013011304/29/16 01:30:31  5-MIN KAOH 290630Z AUTO 33003KT 6SM BR OVC004 07/07 A2997 930 100 200 340/03 RMK AO2 T00670067
04850KAOH AOH20160429123012904/29/16 12:30:31  5-MIN KAOH 291730Z AUTO 33005KT 10SM BKN011 OVC029 09/07 A3005 850 89 400 330/05 RMK AO2 RAE01 P0000 T00890072
04850KAOH AOH20160429123512904/29/16 12:35:31  5-MIN KAOH 291735Z AUTO 32005KT 10SM BKN011 OVC029 09/07 A3006 850 86 400 320/05 RMK AO2 RAE01 P0000 T00940072
04850KAOH AOH20160429124012904/29/16 12:40:31  5-MIN KAOH 291740Z AUTO 32005KT 10SM BKN011 OVC029 09/07 A3006 850 83 400 320/05 RMK AO2 RAE01 P0000 T00940067
04850KAOH AOH20160429124512904/29/16 12:45:31  5-MIN KAOH 291745Z AUTO 32004KT 10SM BKN011 OVC029 09/07 A3006 850 86 400 320/04 RMK AO2 RAE01 P0000 T00940072
04850KAOH AOH20160429125016704/29/16 12:50:31  5-MIN KAOH 291750Z AUTO 31004KT 10SM BKN012 BKN029 OVC033 09/07 A3006 850 86 400 320/04 RMK AO2 RAE01 SLP183 P0000 60000 T00940072 10100 20067 52001
04850KAOH AOH20160429125512404/29/16 12:55:31  5-MIN KAOH 291755Z AUTO 36006KT 10SM SCT012 BKN029 OVC035 10/07 A3006 850 83 500 360/06 RMK AO2 T01000072
04850KAOH AOH20160429130012404/29/16 13:00:31  5-MIN KAOH 291800Z AUTO 32004KT 10SM SCT012 SCT029 OVC035 10/07 A3006 850 83 500 330/04 RMK AO2 T01000072
04850KAOH AOH20160429130511704/29/16 13:05:31  5-MIN KAOH 291805Z AUTO 33004KT 10SM SCT012 OVC035 10/07 A3006 850 83 500 330/04 RMK AO2 T01000072
04850KAOH AOH20160429131011704/29/16 13:10:31  5-MIN KAOH 291810Z AUTO 34003KT 10SM SCT013 OVC035 10/07 A3006 850 83 500 350/03 RMK AO2 T01000072
04850KAOH AOH20160429131511704/29/16 13:15:31  5-MIN KAOH 291815Z AUTO 35004KT 10SM SCT013 OVC035 10/07 A3006 850 83 500 350/04 RMK AO2 T01000072
04850KAOH AOH20160429132012404/29/16 13:20:31  5-MIN KAOH 291820Z AUTO 30004KT 10SM SCT013 BKN035 OVC043 10/07 A3006 850 80 500 300/04 RMK AO2 T01000067
04850KAOH AOH20160429132512404/29/16 13:25:31  5-MIN KAOH 291825Z AUTO 30004KT 10SM FEW012 BKN035 OVC043 09/07 A3006 850 86 400 310/04 RMK AO2 T00940072
04850KAOH AOH20160429133012304/29/16 13:30:31  5-MIN KAOH 291830Z AUTO 31005KT 9SM SCT012 BKN023 OVC043 10/07 A3007 840 83 500 320/05 RMK AO2 T01000072
04850KAOH AOH20160429133512304/29/16 13:35:31  5-MIN KAOH 291835Z AUTO 32004KT 7SM SCT012 BKN023 OVC044 09/07 A3007 840 86 400 320/04 RMK AO2 T00940072
04850KAOH AOH20160429134012304/29/16 13:40:31  5-MIN KAOH 291840Z AUTO 31005KT 8SM SCT013 BKN023 OVC044 10/07 A3006 840 83 500 320/05 RMK AO2 T01000072
04850KAOH AOH20160429134512304/29/16 13:45:31  5-MIN KAOH 291845Z AUTO 34006KT 8SM BKN015 BKN023 OVC044 10/07 A3006 850 83 500 340/06 RMK AO2 T01000072
04850KAOH AOH20160429135013304/29/16 13:50:31  5-MIN KAOH 291850Z AUTO 34007KT 6SM BR BKN015 BKN023 OVC044 10/08 A3006 850 86 500 350/07 RMK AO2 SLP182 T01000078
04850KAOH AOH20160429135512604/29/16 13:55:31  5-MIN KAOH 291855Z AUTO 35006KT 5SM BR BKN015 BKN023 OVC037 10/08 A3006 850 86 500 350/06 RMK AO2 T01000078
04850KAOH AOH20160429140012304/29/16 14:00:31  5-MIN KAOH 291900Z AUTO 35006KT 7SM BKN015 BKN023 OVC037 11/08 A3006 850 86 600 360/06 RMK AO2 T01060083
04850KAOH AOH20160429140511604/29/16 14:05:31  5-MIN KAOH 291905Z AUTO 34007KT 9SM BKN015 OVC037 11/08 A3005 850 86 600 350/07 RMK AO2 T01060083
04850KAOH AOH20160429141011704/29/16 14:10:31  5-MIN KAOH 291910Z AUTO 34007KT 10SM BKN015 OVC037 11/08 A3005 850 86 600 340/07 RMK AO2 T01060083
04850KAOH AOH20160429141511704/29/16 14:15:31  5-MIN KAOH 291915Z AUTO VRB05KT 10SM BKN014 OVC037 11/08 A3005 850 83 600 VRB/05 RMK AO2 T01060078
04850KAOH AOH20160429142011704/29/16 14:20:31  5-MIN KAOH 291920Z AUTO 01005KT 10SM BKN014 OVC037 11/08 A3006 850 80 600 010/05 RMK AO2 T01110078
04850KAOH AOH20160429142511704/29/16 14:25:31  5-MIN KAOH 291925Z AUTO 36008KT 10SM BKN014 OVC037 11/08 A3005 850 80 600 360/08 RMK AO2 T01110078
04850KAOH AOH20160429143011704/29/16 14:30:31  5-MIN KAOH 291930Z AUTO 34006KT 10SM BKN014 OVC037 11/08 A3005 850 83 600 340/06 RMK AO2 T01110083
04850KAOH AOH20160429143511704/29/16 14:35:31  5-MIN KAOH 291935Z AUTO 35005KT 10SM BKN014 OVC037 11/08 A3005 850 80 600 360/05 RMK AO2 T01110078
04850KAOH AOH20160429144011704/29/16 14:40:31  5-MIN KAOH 291940Z AUTO VRB03KT 10SM SCT014 OVC037 12/08 A3006 850 77 700 VRB/03 RMK AO2 T01170078
04850KAOH AOH20160429144511704/29/16 14:45:31  5-MIN KAOH 291945Z AUTO VRB03KT 10SM SCT016 OVC037 12/08 A3006 850 80 700 VRB/03 RMK AO2 T01170083
04850KAOH AOH20160429145010704/29/16 14:50:31  5-MIN KAOH 291950Z AUTO 34004KT 10SM BKN016 OVC037 12/08 A3005 850 77 700 350/04 RMK AO2
04850KAOH AOH20160429145511704/29/16 14:55:31  5-MIN KAOH 291955Z AUTO VRB04KT 10SM BKN016 OVC037 11/07 A3005 860 77 600 VRB/04 RMK AO2 T01110072
04850KAOH AOH20160429150011704/29/16 15:00:31  5-MIN KAOH 292000Z AUTO 33004KT 10SM BKN017 OVC037 12/08 A3006 850 77 700 340/04 RMK AO2 T01170078
04850KAOH AOH20160429150511704/29/16 15:05:31  5-MIN KAOH 292005Z AUTO VRB03KT 10SM BKN017 OVC038 11/08 A3006 850 80 600 VRB/03 RMK AO2 T01110078
04850KAOH AOH20160429151011704/29/16 15:10:31  5-MIN KAOH 292010Z AUTO 34003KT 10SM BKN018 OVC038 12/08 A3006 850 80 700 350/03 RMK AO2 T01170083
04850KAOH AOH20160429151511004/29/16 15:15:31  5-MIN KAOH 292015Z AUTO 00000KT 10SM OVC018 12/07 A3006 850 74 700 000/00 RMK AO2 T01170072
04850KAOH AOH20160429152011004/29/16 15:20:31  5-MIN KAOH 292020Z AUTO 00000KT 10SM OVC018 11/07 A3006 850 77 600 000/00 RMK AO2 T01110072
04850KAOH AOH20160429152511004/29/16 15:25:31  5-MIN KAOH 292025Z AUTO 00000KT 10SM OVC019 12/08 A3006 850 77 700 000/00 RMK AO2 T01170078
04850KAOH AOH20160429153011004/29/16 15:30:31  5-MIN KAOH 292030Z AUTO 00000KT 10SM OVC019 12/07 A3006 850 74 700 000/00 RMK AO2 T01170072
04850KAOH AOH20160429153511004/29/16 15:35:31  5-MIN KAOH 292035Z AUTO 01003KT 10SM OVC019 11/08 A3006 850 80 600 020/03 RMK AO2 T01110078
04850KAOH AOH20160429154011004/29/16 15:40:31  5-MIN KAOH 292040Z AUTO 31005KT 10SM OVC018 12/08 A3006 850 77 700 320/05 RMK AO2 T01170078
04850KAOH AOH20160429154511004/29/16 15:45:31  5-MIN KAOH 292045Z AUTO 33005KT 10SM OVC018 12/08 A3006 850 77 700 340/05 RMK AO2 T01170078
04850KAOH AOH20160429155012304/29/16 15:50:31  5-MIN KAOH 292050Z AUTO 33005KT 10SM OVC018 12/08 A3006 850 77 700 340/05 RMK AO2 SLP182 T01170078 53003
04850KAOH AOH20160429155511004/29/16 15:55:31  5-MIN KAOH 292055Z AUTO 33005KT 10SM OVC018 11/08 A3006 850 80 600 330/05 RMK AO2 T01110078
04850KAOH AOH20160429160011004/29/16 16:00:31  5-MIN KAOH 292100Z AUTO 34005KT 10SM OVC018 11/08 A3006 850 80 600 340/05 RMK AO2 T01110078
04850KAOH AOH20160429160511004/29/16 16:05:31  5-MIN KAOH 292105Z AUTO 34004KT 10SM OVC018 11/08 A3006 850 80 600 340/04 RMK AO2 T01110078
04850KAOH AOH20160429161011004/29/16 16:10:31  5-MIN KAOH 292110Z AUTO 33006KT 10SM OVC018 11/08 A3007 840 80 600 340/06 RMK AO2 T01110078
04850KAOH AOH20160429161511004/29/16 16:15:31  5-MIN KAOH 292115Z AUTO 33004KT 10SM OVC019 11/08 A3007 840 80 600 340/04 RMK AO2 T01110078
04850KAOH AOH20160429162011004/29/16 16:20:31  5-MIN KAOH 292120Z AUTO 33005KT 10SM OVC019 11/08 A3007 840 80 600 340/05 RMK AO2 T01110078
04850KAOH AOH20160429162511004/29/16 16:25:31  5-MIN KAOH 292125Z AUTO 36006KT 10SM OVC019 11/08 A3007 840 80 600 360/06 RMK AO2 T01110078
04850KAOH AOH20160429163011004/29/16 16:30:31  5-MIN KAOH 292130Z AUTO 35005KT 10SM OVC019 11/08 A3007 840 80 600 360/05 RMK AO2 T01110078
04850KAOH AOH20160429163511004/29/16 16:35:31  5-MIN KAOH 292135Z AUTO 35005KT 10SM OVC019 11/08 A3007 840 80 600 360/05 RMK AO2 T01110078
04850KAOH AOH20160429164011004/29/16 16:40:31  5-MIN KAOH 292140Z AUTO 34006KT 10SM OVC019 11/08 A3007 840 80 600 340/06 RMK AO2 T01110078
04850KAOH AOH20160429164511004/29/16 16:45:31  5-MIN KAOH 292145Z AUTO 35006KT 10SM OVC020 11/08 A3007 840 80 600 350/06 RMK AO2 T01110078
04850KAOH AOH20160429165011704/29/16 16:50:31  5-MIN KAOH 292150Z AUTO 33005KT 10SM OVC020 11/08 A3008 830 80 600 340/05 RMK AO2 SLP187 T01110078
04850KAOH AOH20160429165511004/29/16 16:55:31  5-MIN KAOH 292155Z AUTO 35007KT 10SM OVC020 11/08 A3008 830 80 600 360/07 RMK AO2 T01110078
04850KAOH AOH20160429170011004/29/16 17:00:31  5-MIN KAOH 292200Z AUTO 35007KT 10SM OVC020 11/08 A3008 830 80 600 350/07 RMK AO2 T01110078
04850KAOH AOH20160429170511004/29/16 17:05:31  5-MIN KAOH 292205Z AUTO 35006KT 10SM OVC020 11/08 A3008 830 80 600 350/06 RMK AO2 T01110078
04850KAOH AOH20160429171011004/29/16 17:10:31  5-MIN KAOH 292210Z AUTO 35006KT 10SM OVC020 11/08 A3008 830 80 600 350/06 RMK AO2 T01110078
04850KAOH AOH20160429171511004/29/16 17:15:31  5-MIN KAOH 292215Z AUTO 35005KT 10SM OVC020 11/08 A3008 830 80 600 360/05 RMK AO2 T01110078
04850KAOH AOH20160429172011004/29/16 17:20:31  5-MIN KAOH 292220Z AUTO 35005KT 10SM OVC020 11/08 A3009 820 80 600 360/05 RMK AO2 T01110078
04850KAOH AOH20160429172511004/29/16 17:25:31  5-MIN KAOH 292225Z AUTO 36004KT 10SM OVC020 11/08 A3009 830 80 600 010/04 RMK AO2 T01110078
04850KAOH AOH20160429173011004/29/16 17:30:31  5-MIN KAOH 292230Z AUTO 35004KT 10SM OVC020 11/08 A3009 820 80 600 350/04 RMK AO2 T01110078
04850KAOH AOH20160429173511004/29/16 17:35:31  5-MIN KAOH 292235Z AUTO 35004KT 10SM OVC020 11/08 A3009 820 83 600 350/04 RMK AO2 T01110083
04850KAOH AOH20160429174011004/29/16 17:40:31  5-MIN KAOH 292240Z AUTO 35005KT 10SM OVC020 11/08 A3008 830 83 600 350/05 RMK AO2 T01110083
04850KAOH AOH20160429174511004/29/16 17:45:31  5-MIN KAOH 292245Z AUTO 36005KT 10SM OVC020 11/08 A3008 830 80 600 010/05 RMK AO2 T01110078
04850KAOH AOH20160429175011704/29/16 17:50:31  5-MIN KAOH 292250Z AUTO 34005KT 10SM OVC021 11/08 A3008 830 80 600 350/05 RMK AO2 SLP190 T01110078
04850KAOH AOH20160429175511004/29/16 17:55:31  5-MIN KAOH 292255Z AUTO 34004KT 10SM OVC021 11/08 A3008 830 80 600 350/04 RMK AO2 T01110078
04850KAOH AOH20160429180011004/29/16 18:00:31  5-MIN KAOH 292300Z AUTO 36005KT 10SM OVC021 11/08 A3008 830 80 600 360/05 RMK AO2 T01110078
04850KAOH AOH20160429180511004/29/16 18:05:31  5-MIN KAOH 292305Z AUTO 01006KT 10SM OVC023 11/08 A3008 830 80 600 010/06 RMK AO2 T01110078
04850KAOH AOH20160429181011004/29/16 18:10:31  5-MIN KAOH 292310Z AUTO 36004KT 10SM OVC023 11/08 A3009 820 80 600 360/04 RMK AO2 T01110078
04850KAOH AOH20160429181511004/29/16 18:15:31  5-MIN KAOH 292315Z AUTO 34004KT 10SM OVC023 11/08 A3008 830 80 600 340/04 RMK AO2 T01110078
04850KAOH AOH20160429182011004/29/16 18:20:31  5-MIN KAOH 292320Z AUTO 35004KT 10SM OVC023 11/08 A3008 830 80 600 360/04 RMK AO2 T01110078
04850KAOH AOH20160429182511704/29/16 18:25:31  5-MIN KAOH 292325Z AUTO 34004KT 10SM BKN023 OVC032 11/08 A3008 830 80 600 340/04 RMK AO2 T01110078
04850KAOH AOH20160429183011704/29/16 18:30:31  5-MIN KAOH 292330Z AUTO 35004KT 10SM BKN023 OVC032 11/08 A3008 830 80 600 350/04 RMK AO2 T01110078
04850KAOH AOH20160429183511704/29/16 18:35:31  5-MIN KAOH 292335Z AUTO 35003KT 10SM BKN023 OVC032 11/08 A3008 830 80 600 350/03 RMK AO2 T01110078
04850KAOH AOH20160429184011704/29/16 18:40:31  5-MIN KAOH 292340Z AUTO 32004KT 10SM BKN023 OVC032 11/08 A3008 830 80 600 320/04 RMK AO2 T01110078
04850KAOH AOH20160429184511704/29/16 18:45:31  5-MIN KAOH 292345Z AUTO 36004KT 10SM SCT023 OVC032 11/08 A3008 830 80 600 360/04 RMK AO2 T01110078
04850KAOH AOH20160429185014204/29/16 18:50:31  5-MIN KAOH 292350Z AUTO 35003KT 10SM FEW023 OVC032 11/08 A3008 830 80 600 350/03 RMK AO2 SLP190 T01110078 10117 20094 50006
04850KAOH AOH20160429185511704/29/16 18:55:31  5-MIN KAOH 292355Z AUTO 36004KT 10SM FEW023 OVC032 11/08 A3008 830 80 600 010/04 RMK AO2 T01110078
04850KAOH AOH20160429190011704/29/16 19:00:31  5-MIN KAOH 300000Z AUTO 02005KT 10SM FEW023 OVC032 11/08 A3008 830 80 600 030/05 RMK AO2 T01110078
04850KAOH AOH20160429190511004/29/16 19:05:31  5-MIN KAOH 300005Z AUTO 01004KT 10SM OVC032 11/08 A3008 830 80 600 010/04 RMK AO2 T01110078
04850KAOH AOH20160429191011004/29/16 19:10:31  5-MIN KAOH 300010Z AUTO 36003KT 10SM OVC031 11/08 A3008 830 80 600 360/03 RMK AO2 T01110078
04850KAOH AOH20160429191511004/29/16 19:15:31  5-MIN KAOH 300015Z AUTO 02003KT 10SM OVC031 11/08 A3009 820 83 600 020/03 RMK AO2 T01110083
04850KAOH AOH20160429192011004/29/16 19:20:31  5-MIN KAOH 300020Z AUTO 00000KT 10SM OVC031 11/08 A3009 820 80 600 000/00 RMK AO2 T01110078
04850KAOH AOH20160429192511004/29/16 19:25:31  5-MIN KAOH 300025Z AUTO 04003KT 10SM OVC031 11/08 A3009 820 80 600 040/03 RMK AO2 T01110078
04850KAOH AOH20160429193011004/29/16 19:30:31  5-MIN KAOH 300030Z AUTO 03004KT 10SM OVC031 11/08 A3009 820 80 600 030/04 RMK AO2 T01110078
04850KAOH AOH20160429193511704/29/16 19:35:31  5-MIN KAOH 300035Z AUTO 04012KT 10SM SCT018 OVC031 11/07 A3010 810 80 500 050/12 RMK AO2 T01060072
04850KAOH AOH20160429194011704/29/16 19:40:31  5-MIN KAOH 300040Z AUTO 05011KT 10SM BKN018 OVC031 10/07 A3010 810 80 400 060/11 RMK AO2 T01000067
04850KAOH AOH20160429194511704/29/16 19:45:31  5-MIN KAOH 300045Z AUTO 06009KT 10SM BKN018 OVC031 09/07 A3010 810 83 400 070/09 RMK AO2 T00940067
04850KAOH AOH20160429195012404/29/16 19:50:31  5-MIN KAOH 300050Z AUTO 06010KT 10SM BKN018 OVC031 09/07 A3011 800 83 400 070/10 RMK AO2 SLP199 T00940067
04850KAOH AOH20160429195511004/29/16 19:55:31  5-MIN KAOH 300055Z AUTO 06009KT 10SM OVC018 09/06 A3011 800 79 400 070/09 RMK AO2 T00940061
04850KAOH AOH20160429200011004/29/16 20:00:31  5-MIN KAOH 300100Z AUTO 07008KT 10SM OVC019 09/06 A3012 800 79 400 070/08 RMK AO2 T00940061
04850KAOH AOH20160429200511004/29/16 20:05:31  5-MIN KAOH 300105Z AUTO 07011KT 10SM OVC019 09/06 A3012 790 79 400 080/11 RMK AO2 T00940061
04850KAOH AOH20160429201011004/29/16 20:10:31  5-MIN KAOH 300110Z AUTO 07008KT 10SM OVC021 09/06 A3012 790 79 400 080/08 RMK AO2 T00940061
04850KAOH AOH20160429201511004/29/16 20:15:31  5-MIN KAOH 300115Z AUTO 07008KT 10SM OVC021 09/06 A3013 790 79 300 080/08 RMK AO2 T00940061
04850KAOH AOH20160429202011004/29/16 20:20:31  5-MIN KAOH 300120Z AUTO 07009KT 10SM OVC023 09/06 A3013 790 79 300 070/09 RMK AO2 T00940061
04850KAOH AOH20160429202511004/29/16 20:25:31  5-MIN KAOH 300125Z AUTO 07009KT 10SM OVC023 09/06 A3013 780 79 300 080/09 RMK AO2 T00940061
04850KAOH AOH20160429203011004/29/16 20:30:31  5-MIN KAOH 300130Z AUTO 07009KT 10SM OVC025 09/06 A3013 780 79 300 070/09 RMK AO2 T00940061
04850KAOH AOH20160429203511004/29/16 20:35:31  5-MIN KAOH 300135Z AUTO 07007KT 10SM OVC025 09/06 A3013 780 79 300 070/07 RMK AO2 T00940061
04850KAOH AOH20160429204011004/29/16 20:40:31  5-MIN KAOH 300140Z AUTO 07009KT 10SM OVC025 09/06 A3014 780 79 300 080/09 RMK AO2 T00940061
04850KAOH AOH20160429204511004/29/16 20:45:31  5-MIN KAOH 300145Z AUTO 07008KT 10SM OVC025 09/06 A3014 780 79 300 080/08 RMK AO2 T00940061
04850KAOH AOH20160429205011704/29/16 20:50:31  5-MIN KAOH 300150Z AUTO 07007KT 10SM OVC025 09/06 A3014 770 79 300 080/07 RMK AO2 SLP209 T00940061
04850KAOH AOH20160429205511004/29/16 20:55:31  5-MIN KAOH 300155Z AUTO 07008KT 10SM OVC025 09/06 A3014 780 83 300 070/08 RMK AO2 T00890061
04850KAOH AOH20160429210011004/29/16 21:00:31  5-MIN KAOH 300200Z AUTO 07007KT 10SM OVC027 09/06 A3014 780 79 300 080/07 RMK AO2 T00940061
04850KAOH AOH20160429210511004/29/16 21:05:31  5-MIN KAOH 300205Z AUTO 07008KT 10SM OVC027 09/06 A3014 780 79 300 080/08 RMK AO2 T00890056
04850KAOH AOH20160429211011004/29/16 21:10:31  5-MIN KAOH 300210Z AUTO 08008KT 10SM OVC027 09/06 A3014 780 83 300 080/08 RMK AO2 T00890061
04850KAOH AOH20160429211511004/29/16 21:15:31  5-MIN KAOH 300215Z AUTO 07009KT 10SM OVC027 09/06 A3014 780 79 300 080/09 RMK AO2 T00890056
04850KAOH AOH20160429212011004/29/16 21:20:31  5-MIN KAOH 300220Z AUTO 07007KT 10SM OVC027 09/06 A3014 780 83 300 080/07 RMK AO2 T00890061
04850KAOH AOH20160429212511004/29/16 21:25:31  5-MIN KAOH 300225Z AUTO 07008KT 10SM OVC027 09/06 A3014 780 83 300 080/08 RMK AO2 T00890061
04850KAOH AOH20160429213011004/29/16 21:30:31  5-MIN KAOH 300230Z AUTO 08007KT 10SM OVC028 09/06 A3014 780 83 300 080/07 RMK AO2 T00890061
04850KAOH AOH20160429213511004/29/16 21:35:31  5-MIN KAOH 300235Z AUTO 07005KT 10SM OVC028 09/06 A3014 780 83 300 070/05 RMK AO2 T00890061
04850KAOH AOH20160429214011004/29/16 21:40:31  5-MIN KAOH 300240Z AUTO 08004KT 10SM OVC028 09/06 A3014 780 83 300 080/04 RMK AO2 T00890061
04850KAOH AOH20160429214511004/29/16 21:45:31  5-MIN KAOH 300245Z AUTO 09004KT 10SM OVC028 09/06 A3014 770 83 300 090/04 RMK AO2 T00890061
04850KAOH AOH20160429215012304/29/16 21:50:31  5-MIN KAOH 300250Z AUTO 10004KT 10SM OVC028 09/06 A3014 770 83 300 110/04 RMK AO2 SLP210 T00890061 51002
04850KAOH AOH20160429215511004/29/16 21:55:31  5-MIN KAOH 300255Z AUTO 11004KT 10SM OVC028 09/06 A3014 770 83 300 120/04 RMK AO2 T00890061
04850KAOH AOH20160429220011004/29/16 22:00:31  5-MIN KAOH 300300Z AUTO 09005KT 10SM OVC028 09/06 A3014 770 83 300 100/05 RMK AO2 T00890061
04850KAOH AOH20160429220511004/29/16 22:05:31  5-MIN KAOH 300305Z AUTO 09004KT 10SM OVC028 09/06 A3014 770 83 300 100/04 RMK AO2 T00890061
04850KAOH AOH20160429221011004/29/16 22:10:31  5-MIN KAOH 300310Z AUTO 09005KT 10SM OVC028 09/06 A3014 780 83 300 100/05 RMK AO2 T00890061
04850KAOH AOH20160429221511004/29/16 22:15:31  5-MIN KAOH 300315Z AUTO 09005KT 10SM OVC029 09/06 A3014 770 83 300 100/05 RMK AO2 T00890061
04850KAOH AOH20160429222011004/29/16 22:20:31  5-MIN KAOH 300320Z AUTO 09005KT 10SM OVC029 09/06 A3014 770 83 300 100/05 RMK AO2 T00890061
04850KAOH AOH20160429222511004/29/16 22:25:31  5-MIN KAOH 300325Z AUTO 09005KT 10SM OVC029 09/06 A3014 770 83 300 100/05 RMK AO2 T00890061
04850KAOH AOH20160429223011004/29/16 22:30:31  5-MIN KAOH 300330Z AUTO 09005KT 10SM OVC030 09/06 A3014 770 83 300 100/05 RMK AO2 T00890061
04850KAOH AOH20160429223511004/29/16 22:35:31  5-MIN KAOH 300335Z AUTO 09005KT 10SM OVC030 09/06 A3014 780 83 300 100/05 RMK AO2 T00890061
04850KAOH AOH20160429224011004/29/16 22:40:31  5-MIN KAOH 300340Z AUTO 09005KT 10SM OVC032 09/06 A3014 770 83 300 090/05 RMK AO2 T00890061
04850KAOH AOH20160429224511004/29/16 22:45:31  5-MIN KAOH 300345Z AUTO 08004KT 10SM OVC032 09/07 A3014 770 86 300 090/04 RMK AO2 T00890067
04850KAOH AOH20160429225011704/29/16 22:50:31  5-MIN KAOH 300350Z AUTO 08005KT 10SM OVC032 09/07 A3014 780 86 300 080/05 RMK AO2 SLP209 T00890067
04850KAOH AOH20160429225511004/29/16 22:55:31  5-MIN KAOH 300355Z AUTO 07005KT 10SM OVC032 09/07 A3014 770 86 300 070/05 RMK AO2 T00890067
04850KAOH AOH20160429230011004/29/16 23:00:31  5-MIN KAOH 300400Z AUTO 05005KT 10SM OVC032 08/07 A3014 780 89 200 060/05 RMK AO2 T00830067
04850KAOH AOH20160429230511004/29/16 23:05:31  5-MIN KAOH 300405Z AUTO 06005KT 10SM OVC032 08/07 A3014 780 89 200 060/05 RMK AO2 T00830067
04850KAOH AOH20160429231011004/29/16 23:10:31  5-MIN KAOH 300410Z AUTO 06005KT 10SM OVC032 08/07 A3014 780 89 200 060/05 RMK AO2 T00830067
04850KAOH AOH20160429231511004/29/16 23:15:31  5-MIN KAOH 300415Z AUTO 06006KT 10SM OVC032 08/07 A3014 780 89 200 060/06 RMK AO2 T00830067
04850KAOH AOH20160429232011004/29/16 23:20:31  5-MIN KAOH 300420Z AUTO 06006KT 10SM BKN032 08/06 A3013 780 86 200 070/06 RMK AO2 T00830061
04850KAOH AOH20160429232511004/29/16 23:25:31  5-MIN KAOH 300425Z AUTO 07007KT 10SM BKN032 08/06 A3013 780 89 100 080/07 RMK AO2 T00780061
04850KAOH AOH20160429233011004/29/16 23:30:31  5-MIN KAOH 300430Z AUTO 06006KT 10SM SCT032 08/06 A3012 790 89 100 070/06 RMK AO2 T00780061
04850KAOH AOH20160429233511004/29/16 23:35:31  5-MIN KAOH 300435Z AUTO 06006KT 10SM SCT032 08/06 A3012 790 89 100 070/06 RMK AO2 T00780061
04850KAOH AOH20160429234010904/29/16 23:40:31  5-MIN KAOH 300440Z AUTO 07007KT 9SM FEW032 08/06 A3012 790 89 200 070/07 RMK AO2 T00780061
04850KAOH AOH20160429234510604/29/16 23:45:31  5-MIN KAOH 300445Z AUTO 06007KT 9SM CLR 07/06 A3012 790 93 100 070/07 RMK AO2 T00720061
04850KAOH AOH20160429235012304/29/16 23:50:31  5-MIN KAOH 300450Z AUTO 07009KT 9SM CLR 07/06 A3013 790 93 100 070/09 RMK AO2 SLP205 T00720061 401170067
04850KAOH AOH20160429235510604/29/16 23:55:31  5-MIN KAOH 300455Z AUTO 06007KT 9SM CLR 07/06 A3012 790 93 100 070/07 RMK AO2 T00720061
04850KAOH AOH20160430000010604/30/16 00:00:31  5-MIN KAOH 300500Z AUTO 06008KT 9SM CLR 07/06 A3013 790 93 100 070/08 RMK AO2 T00720061
04850KAOH AOH20160430000510604/30/16 00:05:31  5-MIN KAOH 300505Z AUTO 06008KT 9SM CLR 07/06 A3013 780 89 100 070/08 RMK AO2 T00720056
04850KAOH AOH20160430001010604/30/16 00:10:31  5-MIN KAOH 300510Z AUTO 07008KT 9SM CLR 07/06 A3013 780 89 100 080/08 RMK AO2 T00720056
04850KAOH AOH20160430001510604/30/16 00:15:31  5-MIN KAOH 300515Z AUTO 07007KT 9SM CLR 07/06 A3013 780 89 100 080/07 RMK AO2 T00720056
04850KAOH AOH20160430002010604/30/16 00:20:31  5-MIN KAOH 300520Z AUTO 08008KT 9SM CLR 07/06 A3013 780 89 100 090/08 RMK AO2 T00720056
04850KAOH AOH20160430002510604/30/16 00:25:31  5-MIN KAOH 300525Z AUTO 07008KT 9SM CLR 07/06 A3013 790 89 100 080/08 RMK AO2 T00720056
04850KAOH AOH20160430003010604/30/16 00:30:31  5-MIN KAOH 300530Z AUTO 08007KT 9SM CLR 07/06 A3013 790 89 100 090/07 RMK AO2 T00720056
04850KAOH AOH20160430003510604/30/16 00:35:31  5-MIN KAOH 300535Z AUTO 08009KT 9SM CLR 07/06 A3012 790 89 100 090/09 RMK AO2 T00720056
04850KAOH AOH20160430004010504/30/16 00:40:31  5-MIN KAOH 300540Z AUTO 08008KT 10SM CLR 07/05 A3012 800 89 0 090/08 RMK AO2 T00670050
04850KAOH AOH20160430004510504/30/16 00:45:31  5-MIN KAOH 300545Z AUTO 08009KT 10SM CLR 07/05 A3011 800 89 0 080/09 RMK AO2 T00670050
04850KAOH AOH20160430005013004/30/16 00:50:31  5-MIN KAOH 300550Z AUTO 07008KT 10SM CLR 07/05 A3011 800 89 0 080/08 RMK AO2 SLP201 T00670050 10111 20067 51020
04850KAOH AOH20160430005510504/30/16 00:55:31  5-MIN KAOH 300555Z AUTO 08010KT 10SM CLR 07/05 A3011 800 89 0 080/10 RMK AO2 T00670050
04850KAOH AOH20160430010010504/30/16 01:00:31  5-MIN KAOH 300600Z AUTO 08009KT 10SM CLR 07/05 A3011 800 89 0 090/09 RMK AO2 T00670050
04850KAOH AOH20160430010510504/30/16 01:05:31  5-MIN KAOH 300605Z AUTO 09007KT 10SM CLR 07/05 A3011 800 89 0 090/07 RMK AO2 T00670050
04850KAOH AOH20160430011010504/30/16 01:10:31  5-MIN KAOH 300610Z AUTO 10006KT 10SM CLR 07/05 A3011 800 89 0 100/06 RMK AO2 T00670050
04850KAOH AOH20160430011510504/30/16 01:15:31  5-MIN KAOH 300615Z AUTO 09007KT 10SM CLR 07/05 A3011 800 89 0 100/07 RMK AO2 T00670050
04850KAOH AOH20160430012010504/30/16 01:20:31  5-MIN KAOH 300620Z AUTO 09007KT 10SM CLR 07/05 A3011 800 89 0 100/07 RMK AO2 T00670050
04850KAOH AOH20160430012510504/30/16 01:25:31  5-MIN KAOH 300625Z AUTO 09007KT 10SM CLR 07/04 A3011 800 86 0 100/07 RMK AO2 T00670044
04850KAOH AOH20160430013010504/30/16 01:30:31  5-MIN KAOH 300630Z AUTO 09006KT 10SM CLR 07/04 A3011 800 86 0 090/06 RMK AO2 T00670044
04850KAOH AOH20160430013510504/30/16 01:35:31  5-MIN KAOH 300635Z AUTO 08006KT 10SM CLR 06/04 A3011 810 89 0 090/06 RMK AO2 T00610044
04850KAOH AOH20160430014010504/30/16 01:40:31  5-MIN KAOH 300640Z AUTO 09007KT 10SM CLR 06/04 A3010 810 89 0 090/07 RMK AO2 T00610044
04850KAOH AOH20160430014510504/30/16 01:45:31  5-MIN KAOH 300645Z AUTO 09006KT 10SM CLR 06/04 A3010 810 89 0 090/06 RMK AO2 T00610044
04850KAOH AOH20160430015011204/30/16 01:50:31  5-MIN KAOH 300650Z AUTO 09007KT 10SM CLR 06/04 A3010 820 89 0 090/07 RMK AO2 SLP195 T00610044
04850KAOH AOH20160430015510504/30/16 01:55:31  5-MIN KAOH 300655Z AUTO 09006KT 10SM CLR 06/04 A3009 820 89 0 100/06 RMK AO2 T00610044
04850KAOH AOH20160430020010504/30/16 02:00:31  5-MIN KAOH 300700Z AUTO 10006KT 10SM CLR 06/04 A3009 820 89 0 100/06 RMK AO2 T00610044
04850KAOH AOH20160430020510504/30/16 02:05:31  5-MIN KAOH 300705Z AUTO 09006KT 10SM CLR 06/04 A3009 820 92 0 090/06 RMK AO2 T00560044
04850KAOH AOH20160430021010504/30/16 02:10:31  5-MIN KAOH 300710Z AUTO 08006KT 10SM CLR 06/04 A3009 820 92 0 090/06 RMK AO2 T00560044
04850KAOH AOH20160430021510504/30/16 02:15:31  5-MIN KAOH 300715Z AUTO 08006KT 10SM CLR 06/04 A3008 830 92 0 080/06 RMK AO2 T00560044
04850KAOH AOH20160430022010504/30/16 02:20:31  5-MIN KAOH 300720Z AUTO 07007KT 10SM CLR 06/04 A3008 830 92 0 080/07 RMK AO2 T00560044
04850KAOH AOH20160430022510504/30/16 02:25:31  5-MIN KAOH 300725Z AUTO 07007KT 10SM CLR 06/04 A3008 830 89 0 080/07 RMK AO2 T00560039
04850KAOH AOH20160430023010504/30/16 02:30:31  5-MIN KAOH 300730Z AUTO 08007KT 10SM CLR 06/04 A3008 830 89 0 080/07 RMK AO2 T00560039
04850KAOH AOH20160430023510504/30/16 02:35:31  5-MIN KAOH 300735Z AUTO 08007KT 10SM CLR 06/04 A3007 830 89 0 090/07 RMK AO2 T00560039
04850KAOH AOH20160430024010804/30/16 02:40:31  5-MIN KAOH 300740Z AUTO 09007KT 10SM CLR 05/04 A3008 830 92 -100 100/07 RMK AO2 T00500039
04850KAOH AOH20160430024510504/30/16 02:45:31  5-MIN KAOH 300745Z AUTO 10005KT 10SM CLR 06/04 A3008 830 89 0 110/05 RMK AO2 T00560039
04850KAOH AOH20160430025011504/30/16 02:50:31  5-MIN KAOH 300750Z AUTO 09006KT 10SM CLR 05/04 A3008 830 92 -100 100/06 RMK AO2 SLP190 T00500039
04850KAOH AOH20160430025510804/30/16 02:55:31  5-MIN KAOH 300755Z AUTO 10005KT 10SM CLR 05/04 A3009 830 92 -100 100/05 RMK AO2 T00500039
04850KAOH AOH20160430030010804/30/16 03:00:31  5-MIN KAOH 300800Z AUTO 09005KT 10SM CLR 05/04 A3008 830 92 -100 100/05 RMK AO2 T00500039
04850KAOH AOH20160430030510804/30/16 03:05:31  5-MIN KAOH 300805Z AUTO 09006KT 10SM CLR 05/04 A3008 830 92 -100 090/06 RMK AO2 T00500039
04850KAOH AOH20160430031010804/30/16 03:10:31  5-MIN KAOH 300810Z AUTO 08006KT 10SM CLR 05/04 A3008 830 92 -100 090/06 RMK AO2 T00500039
04850KAOH AOH20160430031510804/30/16 03:15:31  5-MIN KAOH 300815Z AUTO 07006KT 10SM CLR 05/04 A3008 830 92 -100 080/06 RMK AO2 T00500039
04850KAOH AOH20160430032010804/30/16 03:20:31  5-MIN KAOH 300820Z AUTO 07006KT 10SM CLR 05/04 A3008 830 92 -100 070/06 RMK AO2 T00500039
04850KAOH AOH20160430032510804/30/16 03:25:31  5-MIN KAOH 300825Z AUTO 07008KT 10SM CLR 05/04 A3007 840 92 -100 070/08 RMK AO2 T00500039
04850KAOH AOH20160430033010804/30/16 03:30:31  5-MIN KAOH 300830Z AUTO 07007KT 10SM CLR 05/04 A3007 840 92 -100 080/07 RMK AO2 T00500039
04850KAOH AOH20160430033510804/30/16 03:35:31  5-MIN KAOH 300835Z AUTO 07007KT 10SM CLR 05/04 A3007 840 92 -100 080/07 RMK AO2 T00500039
04850KAOH AOH20160430034010804/30/16 03:40:31  5-MIN KAOH 300840Z AUTO 07008KT 10SM CLR 05/04 A3007 840 92 -100 080/08 RMK AO2 T00500039
04850KAOH AOH20160430034510804/30/16 03:45:31  5-MIN KAOH 300845Z AUTO 07008KT 10SM CLR 05/04 A3007 840 92 -100 080/08 RMK AO2 T00500039
04850KAOH AOH20160430035012104/30/16 03:50:31  5-MIN KAOH 300850Z AUTO 07008KT 10SM CLR 05/04 A3007 840 92 -100 080/08 RMK AO2 SLP186 T00500039 58010
04850KAOH AOH20160430035510804/30/16 03:55:31  5-MIN KAOH 300855Z AUTO 07007KT 10SM CLR 05/04 A3007 840 92 -100 070/07 RMK AO2 T00500039
04850KAOH AOH20160430040010804/30/16 04:00:31  5-MIN KAOH 300900Z AUTO 07007KT 10SM CLR 05/04 A3008 830 92 -100 080/07 RMK AO2 T00500039
04850KAOH AOH20160430040510804/30/16 04:05:31  5-MIN KAOH 300905Z AUTO 08006KT 10SM CLR 05/04 A3008 830 92 -100 090/06 RMK AO2 T00500039
04850KAOH AOH20160430041010804/30/16 04:10:31  5-MIN KAOH 300910Z AUTO 08005KT 10SM CLR 04/04 A3008 830 96 -200 080/05 RMK AO2 T00440039
04850KAOH AOH20160430041510804/30/16 04:15:31  5-MIN KAOH 300915Z AUTO 08006KT 10SM CLR 04/03 A3008 830 92 -200 080/06 RMK AO2 T00440033
04850KAOH AOH20160430042010804/30/16 04:20:31  5-MIN KAOH 300920Z AUTO 07008KT 10SM CLR 04/04 A3008 830 96 -200 080/08 RMK AO2 T00440039
04850KAOH AOH20160430042510804/30/16 04:25:31  5-MIN KAOH 300925Z AUTO 07010KT 10SM CLR 04/04 A3008 830 96 -200 080/10 RMK AO2 T00440039
04850KAOH AOH20160430043010804/30/16 04:30:31  5-MIN KAOH 300930Z AUTO 07008KT 10SM CLR 05/04 A3008 830 92 -100 070/08 RMK AO2 T00500039
04850KAOH AOH20160430043510804/30/16 04:35:31  5-MIN KAOH 300935Z AUTO 07009KT 10SM CLR 05/04 A3008 830 92 -100 070/09 RMK AO2 T00500039
04850KAOH AOH20160430044010804/30/16 04:40:31  5-MIN KAOH 300940Z AUTO 06009KT 10SM CLR 05/03 A3007 840 89 -100 070/09 RMK AO2 T00500033
04850KAOH AOH20160430044510804/30/16 04:45:31  5-MIN KAOH 300945Z AUTO 06009KT 10SM CLR 05/03 A3007 840 89 -100 070/09 RMK AO2 T00500033
04850KAOH AOH20160430045011504/30/16 04:50:31  5-MIN KAOH 300950Z AUTO 06009KT 10SM CLR 05/03 A3007 840 89 -100 060/09 RMK AO2 SLP187 T00500033
04850KAOH AOH20160430045510804/30/16 04:55:31  5-MIN KAOH 300955Z AUTO 06010KT 10SM CLR 05/03 A3007 840 89 -100 070/10 RMK AO2 T00500033
04850KAOH AOH20160430050010804/30/16 05:00:31  5-MIN KAOH 301000Z AUTO 07011KT 10SM CLR 05/03 A3007 840 89 -100 070/11 RMK AO2 T00500033
04850KAOH AOH20160430050510804/30/16 05:05:31  5-MIN KAOH 301005Z AUTO 06010KT 10SM CLR 05/03 A3007 840 89 -100 070/10 RMK AO2 T00500033
04850KAOH AOH20160430051010804/30/16 05:10:31  5-MIN KAOH 301010Z AUTO 07012KT 10SM CLR 05/03 A3007 840 89 -100 080/12 RMK AO2 T00500033
04850KAOH AOH20160430051510804/30/16 05:15:31  5-MIN KAOH 301015Z AUTO 08009KT 10SM CLR 05/03 A3008 830 89 -100 090/09 RMK AO2 T00500033
04850KAOH AOH20160430052010804/30/16 05:20:31  5-MIN KAOH 301020Z AUTO 09008KT 10SM CLR 05/03 A3008 830 89 -100 090/08 RMK AO2 T00500033
04850KAOH AOH20160430052510804/30/16 05:25:31  5-MIN KAOH 301025Z AUTO 09010KT 10SM CLR 05/03 A3008 830 89 -100 090/10 RMK AO2 T00500033
04850KAOH AOH20160430053010804/30/16 05:30:31  5-MIN KAOH 301030Z AUTO 10009KT 10SM CLR 05/03 A3009 820 89 -100 100/09 RMK AO2 T00500033
04850KAOH AOH20160430053510804/30/16 05:35:31  5-MIN KAOH 301035Z AUTO 10008KT 10SM CLR 05/03 A3009 820 89 -100 110/08 RMK AO2 T00500033
04850KAOH AOH20160430054010804/30/16 05:40:31  5-MIN KAOH 301040Z AUTO 10008KT 10SM CLR 05/03 A3009 820 89 -100 110/08 RMK AO2 T00500033
04850KAOH AOH20160430054510804/30/16 05:45:31  5-MIN KAOH 301045Z AUTO 10010KT 10SM CLR 05/03 A3009 820 89 -100 110/10 RMK AO2 T00500033
04850KAOH AOH20160430055011504/30/16 05:50:31  5-MIN KAOH 301050Z AUTO 10010KT 10SM CLR 05/03 A3008 830 89 -100 100/10 RMK AO2 SLP191 T00500033
04850KAOH AOH20160430055510804/30/16 05:55:31  5-MIN KAOH 301055Z AUTO 09008KT 10SM CLR 05/03 A3009 820 89 -100 090/08 RMK AO2 T00500033
04850KAOH AOH20160430060010804/30/16 06:00:31  5-MIN KAOH 301100Z AUTO 09008KT 10SM CLR 05/03 A3010 820 89 -100 090/08 RMK AO2 T00500033
04850KAOH AOH20160430060510804/30/16 06:05:31  5-MIN KAOH 301105Z AUTO 08008KT 10SM CLR 05/03 A3009 820 89 -100 090/08 RMK AO2 T00500033
04850KAOH AOH20160430061010804/30/16 06:10:31  5-MIN KAOH 301110Z AUTO 08010KT 10SM CLR 05/03 A3009 820 89 -100 090/10 RMK AO2 T00500033
04850KAOH AOH20160430061510804/30/16 06:15:31  5-MIN KAOH 301115Z AUTO 08010KT 10SM CLR 05/03 A3009 820 89 -100 090/10 RMK AO2 T00500033
04850KAOH AOH20160430062010804/30/16 06:20:31  5-MIN KAOH 301120Z AUTO 08010KT 10SM CLR 05/03 A3008 830 89 -100 090/10 RMK AO2 T00500033
04850KAOH AOH20160430062510804/30/16 06:25:31  5-MIN KAOH 301125Z AUTO 08008KT 10SM CLR 05/04 A3008 830 92 -100 090/08 RMK AO2 T00500039
04850KAOH AOH20160430063010804/30/16 06:30:31  5-MIN KAOH 301130Z AUTO 08010KT 10SM CLR 05/04 A3009 820 92 -100 090/10 RMK AO2 T00500039
04850KAOH AOH20160430063510504/30/16 06:35:31  5-MIN KAOH 301135Z AUTO 07008KT 10SM CLR 06/04 A3010 820 89 0 080/08 RMK AO2 T00560039
04850KAOH AOH20160430064010504/30/16 06:40:31  5-MIN KAOH 301140Z AUTO 08008KT 10SM CLR 06/04 A3010 810 89 0 080/08 RMK AO2 T00560039
04850KAOH AOH20160430064510804/30/16 06:45:31  5-MIN KAOH 301145Z AUTO 09009KT 10SM CLR 06/04 A3011 800 89 -100 100/09 RMK AO2 T00560039
04850KAOH AOH20160430065013304/30/16 06:50:31  5-MIN KAOH 301150Z AUTO 09008KT 10SM CLR 06/04 A3011 810 89 -100 100/08 RMK AO2 SLP199 T00560039 10067 20044 56014
04850KAOH AOH20160430065510504/30/16 06:55:31  5-MIN KAOH 301155Z AUTO 09007KT 10SM CLR 06/04 A3011 800 86 0 090/07 RMK AO2 T00610039
04850KAOH AOH20160430070010504/30/16 07:00:31  5-MIN KAOH 301200Z AUTO 09009KT 10SM CLR 06/04 A3011 800 86 0 090/09 RMK AO2 T00610039
04850KAOH AOH20160430070510504/30/16 07:05:31  5-MIN KAOH 301205Z AUTO 09009KT 10SM CLR 06/04 A3011 800 86 0 100/09 RMK AO2 T00610039
04850KAOH AOH20160430071010504/30/16 07:10:31  5-MIN KAOH 301210Z AUTO 08009KT 10SM CLR 06/04 A3011 800 86 0 090/09 RMK AO2 T00610039
04850KAOH AOH20160430071510504/30/16 07:15:31  5-MIN KAOH 301215Z AUTO 08010KT 10SM CLR 06/04 A3011 810 86 0 080/10 RMK AO2 T00610039
04850KAOH AOH20160430072010504/30/16 07:20:31  5-MIN KAOH 301220Z AUTO 09008KT 10SM CLR 06/04 A3011 810 89 0 100/08 RMK AO2 T00610044
04850KAOH AOH20160430072510504/30/16 07:25:31  5-MIN KAOH 301225Z AUTO 09007KT 10SM CLR 07/04 A3011 810 86 0 100/07 RMK AO2 T00670044
04850KAOH AOH20160430073010504/30/16 07:30:31  5-MIN KAOH 301230Z AUTO 10010KT 10SM CLR 07/04 A3010 810 86 0 100/10 RMK AO2 T00670044
04850KAOH AOH20160430073510804/30/16 07:35:31  5-MIN KAOH 301235Z AUTO 09010KT 10SM FEW010 07/04 A3009 820 86 0 100/10 RMK AO2 T00670044
04850KAOH AOH20160430074011004/30/16 07:40:31  5-MIN KAOH 301240Z AUTO 10011KT 10SM FEW010 07/04 A3009 820 86 100 100/11 RMK AO2 T00670044
04850KAOH AOH20160430074511004/30/16 07:45:31  5-MIN KAOH 301245Z AUTO 08012KT 10SM FEW010 07/04 A3008 830 86 100 090/12 RMK AO2 T00670044
04850KAOH AOH20160430075011704/30/16 07:50:31  5-MIN KAOH 301250Z AUTO 09010KT 10SM SCT010 07/04 A3008 830 86 100 100/10 RMK AO2 SLP190 T00670044
04850KAOH AOH20160430075511004/30/16 07:55:31  5-MIN KAOH 301255Z AUTO 09013KT 10SM SCT010 07/04 A3008 830 86 100 090/13 RMK AO2 T00670044
04850KAOH AOH20160430080011004/30/16 08:00:31  5-MIN KAOH 301300Z AUTO 09012KT 10SM SCT010 07/04 A3008 830 86 100 100/12 RMK AO2 T00670044
04850KAOH AOH20160430080511004/30/16 08:05:31  5-MIN KAOH 301305Z AUTO 10012KT 10SM SCT010 07/04 A3008 830 86 100 100/12 RMK AO2 T00670044
04850KAOH AOH20160430081011004/30/16 08:10:31  5-MIN KAOH 301310Z AUTO 11010KT 10SM SCT010 07/04 A3009 820 86 100 120/10 RMK AO2 T00670044
04850KAOH AOH20160430081511004/30/16 08:15:31  5-MIN KAOH 301315Z AUTO 10010KT 10SM FEW009 07/05 A3008 830 86 100 110/10 RMK AO2 T00720050
04850KAOH AOH20160430082010904/30/16 08:20:31  5-MIN KAOH 301320Z AUTO 10011KT 9SM FEW009 07/05 A3008 830 86 100 100/11 RMK AO2 T00720050
04850KAOH AOH20160430082510904/30/16 08:25:31  5-MIN KAOH 301325Z AUTO 11011KT 9SM FEW009 07/05 A3008 830 86 100 120/11 RMK AO2 T00720050
04850KAOH AOH20160430083010904/30/16 08:30:31  5-MIN KAOH 301330Z AUTO 11010KT 9SM FEW009 07/05 A3008 830 86 100 110/10 RMK AO2 T00720050
04850KAOH AOH20160430083510904/30/16 08:35:31  5-MIN KAOH 301335Z AUTO 10011KT 9SM SCT009 07/05 A3008 830 86 100 110/11 RMK AO2 T00720050
04850KAOH AOH20160430084010904/30/16 08:40:31  5-MIN KAOH 301340Z AUTO 10008KT 9SM BKN009 07/05 A3008 830 86 100 100/08 RMK AO2 T00720050
04850KAOH AOH20160430084510904/30/16 08:45:31  5-MIN KAOH 301345Z AUTO 10010KT 8SM BKN009 07/05 A3008 830 86 100 110/10 RMK AO2 T00720050
04850KAOH AOH20160430085011604/30/16 08:50:31  5-MIN KAOH 301350Z AUTO 10009KT 9SM BKN009 07/05 A3008 830 86 100 110/09 RMK AO2 SLP189 T00720050
04850KAOH AOH20160430085510904/30/16 08:55:31  5-MIN KAOH 301355Z AUTO 11006KT 8SM BKN009 08/06 A3008 830 86 200 110/06 RMK AO2 T00780056
04850KAOH AOH20160430090010904/30/16 09:00:31  5-MIN KAOH 301400Z AUTO 10008KT 9SM OVC009 08/06 A3008 830 86 200 110/08 RMK AO2 T00780056
04850KAOH AOH20160430090510904/30/16 09:05:31  5-MIN KAOH 301405Z AUTO 10008KT 9SM OVC009 08/06 A3008 830 86 200 110/08 RMK AO2 T00780056
04850KAOH AOH20160430091010904/30/16 09:10:31  5-MIN KAOH 301410Z AUTO 10008KT 9SM OVC009 07/05 A3008 830 86 100 110/08 RMK AO2 T00720050
04850KAOH AOH20160430091510904/30/16 09:15:31  5-MIN KAOH 301415Z AUTO 10010KT 9SM OVC009 07/06 A3007 840 89 100 100/10 RMK AO2 T00720056
04850KAOH AOH20160430092010904/30/16 09:20:31  5-MIN KAOH 301420Z AUTO 10009KT 9SM OVC009 08/06 A3007 840 86 200 110/09 RMK AO2 T00780056
04850KAOH AOH20160430092510904/30/16 09:25:31  5-MIN KAOH 301425Z AUTO 09010KT 8SM OVC009 08/06 A3007 840 86 200 100/10 RMK AO2 T00780056
04850KAOH AOH20160430093010904/30/16 09:30:31  5-MIN KAOH 301430Z AUTO 09009KT 8SM OVC009 08/06 A3007 840 86 200 100/09 RMK AO2 T00780056
04850KAOH AOH20160430093510904/30/16 09:35:31  5-MIN KAOH 301435Z AUTO 09009KT 8SM OVC009 08/06 A3007 840 86 200 100/09 RMK AO2 T00780056
04850KAOH AOH20160430094010904/30/16 09:40:31  5-MIN KAOH 301440Z AUTO 09008KT 8SM OVC009 08/06 A3007 830 86 200 100/08 RMK AO2 T00780056
04850KAOH AOH20160430094510904/30/16 09:45:31  5-MIN KAOH 301445Z AUTO 09009KT 8SM OVC009 08/06 A3007 840 86 300 090/09 RMK AO2 T00830061
04850KAOH AOH20160430095012204/30/16 09:50:31  5-MIN KAOH 301450Z AUTO 10008KT 9SM OVC009 08/06 A3007 840 86 300 100/08 RMK AO2 SLP185 T00830061 53013
04850KAOH AOH20160430095510904/30/16 09:55:31  5-MIN KAOH 301455Z AUTO 08009KT 9SM OVC009 08/06 A3007 840 86 300 090/09 RMK AO2 T00830061
04850KAOH AOH20160430100010904/30/16 10:00:31  5-MIN KAOH 301500Z AUTO 09009KT 9SM OVC009 08/06 A3007 840 86 300 090/09 RMK AO2 T00830061
04850KAOH AOH20160430100510904/30/16 10:05:31  5-MIN KAOH 301505Z AUTO 08010KT 9SM OVC009 08/06 A3007 840 86 300 090/10 RMK AO2 T00830061
04850KAOH AOH20160430101010904/30/16 10:10:31  5-MIN KAOH 301510Z AUTO 09009KT 9SM OVC009 08/06 A3007 840 86 300 100/09 RMK AO2 T00830061
04850KAOH AOH20160430101511604/30/16 10:15:31  5-MIN KAOH 301515Z AUTO 09009KT 9SM BKN009 OVC090 08/06 A3006 850 86 300 090/09 RMK AO2 T00830061
04850KAOH AOH20160430102011604/30/16 10:20:31  5-MIN KAOH 301520Z AUTO 09011KT 9SM BKN009 OVC090 08/06 A3006 850 86 300 090/11 RMK AO2 T00830061
04850KAOH AOH20160430102511604/30/16 10:25:31  5-MIN KAOH 301525Z AUTO 08012KT 8SM BKN009 OVC090 08/06 A3006 850 86 300 080/12 RMK AO2 T00830061
04850KAOH AOH20160430103013204/30/16 10:30:31  5-MIN KAOH 301530Z AUTO 08009KT 8SM -RA SCT009 OVC085 08/06 A3006 850 86 300 090/09 RMK AO2 RAB30 P0000 T00830061
04850KAOH AOH20160430103513204/30/16 10:35:31  5-MIN KAOH 301535Z AUTO 06010KT 8SM -RA FEW009 OVC090 08/06 A3005 850 86 300 070/10 RMK AO2 RAB30 P0000 T00830061
04850KAOH AOH20160430104013204/30/16 10:40:31  5-MIN KAOH 301540Z AUTO 07010KT 8SM -RA FEW009 OVC090 08/07 A3006 850 89 300 070/10 RMK AO2 RAB30 P0000 T00830067
04850KAOH AOH20160430104512504/30/16 10:45:31  5-MIN KAOH 301545Z AUTO 07010KT 7SM -RA OVC085 08/06 A3006 850 86 300 080/10 RMK AO2 RAB30 P0000 T00830061
04850KAOH AOH20160430105013204/30/16 10:50:31  5-MIN KAOH 301550Z AUTO 07007KT 7SM -RA OVC085 08/07 A3006 850 89 300 070/07 RMK AO2 RAB30 SLP183 P0000 T00830067
04850KAOH AOH20160430105512904/30/16 10:55:31  5-MIN KAOH 301555Z AUTO 07007KT 6SM -RA BR BKN080 OVC095 08/07 A3007 840 89 300 080/07 RMK AO2 P0000 T00830067
04850KAOH AOH20160430110012904/30/16 11:00:31  5-MIN KAOH 301600Z AUTO 07005KT 6SM -RA BR FEW010 OVC080 08/07 A3007 840 89 300 080/05 RMK AO2 P0000 T00830067
04850KAOH AOH20160430110512904/30/16 11:05:31  5-MIN KAOH 301605Z AUTO 06006KT 6SM -RA BR FEW010 OVC080 08/07 A3007 830 89 300 070/06 RMK AO2 P0001 T00830067
04850KAOH AOH20160430111012904/30/16 11:10:31  5-MIN KAOH 301610Z AUTO 06005KT 6SM -RA BR FEW010 OVC080 08/07 A3008 830 89 300 060/05 RMK AO2 P0001 T00830067
04850KAOH AOH20160430111512904/30/16 11:15:31  5-MIN KAOH 301615Z AUTO 07006KT 6SM -RA BR SCT010 OVC080 08/07 A3008 830 89 300 080/06 RMK AO2 P0001 T00830067
04850KAOH AOH20160430112012604/30/16 11:20:31  5-MIN KAOH 301620Z AUTO 08005KT 7SM -RA SCT010 OVC075 08/07 A3008 830 89 300 090/05 RMK AO2 P0001 T00830067
04850KAOH AOH20160430112512904/30/16 11:25:31  5-MIN KAOH 301625Z AUTO 07006KT 6SM -RA BR SCT010 OVC075 08/07 A3008 830 89 300 080/06 RMK AO2 P0001 T00830067
04850KAOH AOH20160430113012904/30/16 11:30:31  5-MIN KAOH 301630Z AUTO 07006KT 6SM -RA BR SCT009 OVC075 08/07 A3007 840 89 300 080/06 RMK AO2 P0001 T00830067
04850KAOH AOH20160430213013504/30/16 21:30:31  5-MIN KAOH 010230Z AUTO 13010KT 8SM OVC010 12/11 A2989 1010 93 1000 140/10 RMK AO2 RAE22 CIG 005V012 P0000 T01220111
04850KAOH AOH20160430213512304/30/16 21:35:31  5-MIN KAOH 010235Z AUTO 13009KT 8SM OVC010 12/12 A2988 1010 96 1000 140/09 RMK AO2 RAE22 P0000 T01220117
04850KAOH AOH20160430214012104/30/16 21:40:31  5-MIN KAOH 010240Z AUTO 13009KT 8SM -RA OVC010 12/12 A2988 1010 96 1000 140/09 RMK AO2 P0000 T01220117
04850KAOH AOH20160430214512104/30/16 21:45:31  5-MIN KAOH 010245Z AUTO 13009KT 9SM -RA OVC010 12/12 A2989 1010 96 1000 140/09 RMK AO2 P0000 T01220117
04850KAOH AOH20160430215014204/30/16 21:50:31  5-MIN KAOH 010250Z AUTO 14008KT 9SM OVC010 12/12 A2989 1010 96 1000 150/08 RMK AO2 RAE47 SLP123 P0000 60001 T01220117 58020
04850KAOH AOH20160430215511104/30/16 21:55:31  5-MIN KAOH 010255Z AUTO 15007KT 9SM OVC010 12/12 A2989 1010 96 1000 150/07 RMK AO2 T01220117
04850KAOH AOH20160430220011104/30/16 22:00:31  5-MIN KAOH 010300Z AUTO 14007KT 9SM OVC010 12/12 A2989 1010 96 1000 150/07 RMK AO2 T01220117
04850KAOH AOH20160430220511004/30/16 22:05:31  5-MIN KAOH 010305Z AUTO 15007KT 9SM OVC010 12/12 A2989 1000 96 900 160/07 RMK AO2 T01220117
04850KAOH AOH20160430221012204/30/16 22:10:31  5-MIN KAOH 010310Z AUTO 16006KT 9SM OVC009 12/12 A2990 1000 96 900 170/06 RMK AO2 CIG 007V012 T01220117
04850KAOH AOH20160430221511004/30/16 22:15:31  5-MIN KAOH 010315Z AUTO 16006KT 9SM OVC009 12/12 A2990 1000 96 900 170/06 RMK AO2 T01220117
04850KAOH AOH20160430222011004/30/16 22:20:31  5-MIN KAOH 010320Z AUTO 16006KT 8SM OVC008 12/12 A2989 1000 96 900 160/06 RMK AO2 T01220117
04850KAOH AOH20160430222511104/30/16 22:25:31  5-MIN KAOH 010325Z AUTO 16007KT 8SM OVC008 13/12 A2989 1010 93 1000 160/07 RMK AO2 T01280117
04850KAOH AOH20160430223011104/30/16 22:30:31  5-MIN KAOH 010330Z AUTO 15007KT 9SM OVC008 13/12 A2989 1010 93 1000 150/07 RMK AO2 T01280117
04850KAOH AOH20160430223511104/30/16 22:35:31  5-MIN KAOH 010335Z AUTO 16007KT 9SM OVC008 13/12 A2988 1010 96 1000 170/07 RMK AO2 T01280122
04850KAOH AOH20160430224011104/30/16 22:40:31  5-MIN KAOH 010340Z AUTO 16007KT 8SM OVC008 13/12 A2988 1010 96 1000 160/07 RMK AO2 T01280122
04850KAOH AOH20160430224511104/30/16 22:45:31  5-MIN KAOH 010345Z AUTO 16008KT 8SM OVC007 13/12 A2988 1020 96 1000 160/08 RMK AO2 T01280122
04850KAOH AOH20160430225011804/30/16 22:50:31  5-MIN KAOH 010350Z AUTO 16008KT 8SM OVC007 13/12 A2988 1020 96 1000 170/08 RMK AO2 SLP119 T01280122
04850KAOH AOH20160430225511104/30/16 22:55:31  5-MIN KAOH 010355Z AUTO 16008KT 7SM OVC007 13/12 A2988 1020 93 1100 160/08 RMK AO2 T01330122
04850KAOH AOH20160430230011104/30/16 23:00:31  5-MIN KAOH 010400Z AUTO 16007KT 7SM OVC007 13/12 A2987 1020 93 1100 170/07 RMK AO2 T01330122
04850KAOH AOH20160430230511104/30/16 23:05:31  5-MIN KAOH 010405Z AUTO 16007KT 7SM OVC007 13/12 A2988 1020 93 1100 170/07 RMK AO2 T01330122
04850KAOH AOH20160430231011104/30/16 23:10:31  5-MIN KAOH 010410Z AUTO 17006KT 7SM OVC007 13/12 A2988 1020 93 1100 180/06 RMK AO2 T01330122
04850KAOH AOH20160430231511104/30/16 23:15:31  5-MIN KAOH 010415Z AUTO 18006KT 7SM OVC007 13/12 A2988 1020 93 1100 180/06 RMK AO2 T01330122
04850KAOH AOH20160430232011104/30/16 23:20:31  5-MIN KAOH 010420Z AUTO 18006KT 7SM OVC007 13/12 A2988 1020 93 1100 180/06 RMK AO2 T01330122
04850KAOH AOH20160430232512704/30/16 23:25:31  5-MIN KAOH 010425Z AUTO 20005KT 7SM -RA OVC007 13/12 A2988 1010 93 1100 210/05 RMK AO2 RAB24 P0000 T01330122
04850KAOH AOH20160430233013004/30/16 23:30:31  5-MIN KAOH 010430Z AUTO VRB03KT 6SM -RA BR OVC007 13/13 A2989 1010 96 1100 VRB/03 RMK AO2 RAB24 P0001 T01330128
04850KAOH AOH20160430233513004/30/16 23:35:31  5-MIN KAOH 010435Z AUTO 31005KT 4SM -RA BR OVC007 13/13 A2989 1000 96 1100 320/05 RMK AO2 RAB24 P0003 T01330128
04850KAOH AOH20160430234013004/30/16 23:40:31  5-MIN KAOH 010440Z AUTO 00000KT 2SM +RA BR OVC007 13/12 A2989 1010 96 1000 000/00 RMK AO2 RAB24 P0008 T01280122
04850KAOH AOH20160430234514804/30/16 23:45:31  5-MIN KAOH 010445Z AUTO 18003KT 1 1/4SM +RA BR BKN007 BKN016 OVC033 13/12 A2988 1010 96 1000 180/03 RMK AO2 RAB24 P0014 T01280122
04850KAOH AOH20160430235016404/30/16 23:50:31  5-MIN KAOH 010450Z AUTO 17005KT 1 1/2SM RA BR BKN007 BKN011 OVC033 13/12 A2988 1010 96 1000 170/05 RMK AO2 RAB24 SLP120 P0017 T01280122 401330044
04850KAOH AOH20160430235515304/30/16 23:55:31  5-MIN KAOH 010455Z AUTO 16008KT 2 1/2SM RA BR BKN006 BKN022 OVC035 13/12 A2988 1020 96 1000 170/08 RMK AO2 VIS 1 1/2V3 P0000 T01280122
