53915KARA ARA20160801000010808/01/16 00:00:31  5-MIN KARA 010600Z AUTO 00000KT 10SM CLR 25/24 A3005 -90 97 1100 000/00 RMK AO2 T02500244
53915KARA ARA20160801000510808/01/16 00:05:31  5-MIN KARA 010605Z AUTO 00000KT 10SM CLR 25/24 A3005 -90 97 1100 000/00 RMK AO2 T02500244
53915KARA ARA20160801001010808/01/16 00:10:31  5-MIN KARA 010610Z AUTO 00000KT 10SM CLR 25/24 A3005 -90 97 1100 000/00 RMK AO2 T02500244
53915KARA ARA20160801001510808/01/16 00:15:31  5-MIN KARA 010615Z AUTO 00000KT 10SM CLR 25/24 A3005 -90 97 1100 000/00 RMK AO2 T02500244
53915KARA ARA20160801002010808/01/16 00:20:31  5-MIN KARA 010620Z AUTO 06003KT 10SM CLR 25/24 A3005 -90 97 1100 060/03 RMK AO2 T02500244
53915KARA ARA20160801002510808/01/16 00:25:31  5-MIN KARA 010625Z AUTO 00000KT 10SM CLR 26/24 A3005 -90 93 1100 000/00 RMK AO2 T02560244
53915KARA ARA20160801003010808/01/16 00:30:31  5-MIN KARA 010630Z AUTO 00000KT 10SM CLR 26/24 A3005 -90 93 1100 000/00 RMK AO2 T02560244
53915KARA ARA20160801003510808/01/16 00:35:31  5-MIN KARA 010635Z AUTO 00000KT 10SM CLR 26/24 A3005 -90 93 1100 000/00 RMK AO2 T02560244
53915KARA ARA20160801004010808/01/16 00:40:31  5-MIN KARA 010640Z AUTO 00000KT 10SM CLR 26/24 A3005 -90 93 1100 000/00 RMK AO2 T02560244
53915KARA ARA20160801004510808/01/16 00:45:31  5-MIN KARA 010645Z AUTO 00000KT 10SM CLR 26/24 A3005 -90 93 1100 000/00 RMK AO2 T02560244
53915KARA ARA20160801005011508/01/16 00:50:31  5-MIN KARA 010650Z AUTO 00000KT 10SM CLR 25/24 A3005 -90 93 1100 000/00 RMK AO2 SLP175 T02500239
53915KARA ARA20160801005510808/01/16 00:55:31  5-MIN KARA 010655Z AUTO 10003KT 10SM CLR 25/24 A3005 -90 93 1100 100/03 RMK AO2 T02500239
53915KARA ARA20160801010010808/01/16 01:00:31  5-MIN KARA 010700Z AUTO 00000KT 10SM CLR 25/24 A3005 -90 93 1100 000/00 RMK AO2 T02500239
53915KARA ARA20160801010510808/01/16 01:05:31  5-MIN KARA 010705Z AUTO 00000KT 10SM CLR 25/24 A3005 -90 93 1100 000/00 RMK AO2 T02500239
53915KARA ARA20160801011010808/01/16 01:10:31  5-MIN KARA 010710Z AUTO 00000KT 10SM CLR 25/24 A3005 -90 97 1100 000/00 RMK AO2 T02500244
53915KARA ARA20160801011510808/01/16 01:15:31  5-MIN KARA 010715Z AUTO 07003KT 10SM CLR 25/24 A3005 -90 97 1100 070/03 RMK AO2 T02500244
53915KARA ARA20160801012010808/01/16 01:20:31  5-MIN KARA 010720Z AUTO 00000KT 10SM CLR 26/24 A3005 -90 93 1100 000/00 RMK AO2 T02560244
53915KARA ARA20160801012510808/01/16 01:25:31  5-MIN KARA 010725Z AUTO 00000KT 10SM CLR 26/24 A3005 -90 93 1100 000/00 RMK AO2 T02560244
53915KARA ARA20160801013010808/01/16 01:30:31  5-MIN KARA 010730Z AUTO 00000KT 10SM CLR 26/24 A3005 -90 93 1100 000/00 RMK AO2 T02560244
53915KARA ARA20160801013510808/01/16 01:35:31  5-MIN KARA 010735Z AUTO 00000KT 10SM CLR 26/24 A3005 -90 93 1100 000/00 RMK AO2 T02560244
53915KARA ARA20160801014010808/01/16 01:40:31  5-MIN KARA 010740Z AUTO 00000KT 10SM CLR 25/24 A3005 -90 97 1100 000/00 RMK AO2 T02500244
53915KARA ARA20160801014510808/01/16 01:45:31  5-MIN KARA 010745Z AUTO 00000KT 10SM CLR 25/24 A3005 -90 93 1100 000/00 RMK AO2 T02500239
53915KARA ARA20160801015011508/01/16 01:50:31  5-MIN KARA 010750Z AUTO 00000KT 10SM CLR 25/24 A3005 -90 93 1100 000/00 RMK AO2 SLP174 T02500239
53915KARA ARA20160801015510808/01/16 01:55:31  5-MIN KARA 010755Z AUTO 00000KT 10SM CLR 25/24 A3005 -80 93 1100 000/00 RMK AO2 T02500239
53915KARA ARA20160801020010808/01/16 02:00:31  5-MIN KARA 010800Z AUTO 00000KT 10SM CLR 24/24 A3004 -80 97 1000 000/00 RMK AO2 T02440239
53915KARA ARA20160801020510808/01/16 02:05:31  5-MIN KARA 010805Z AUTO 00000KT 10SM CLR 24/24 A3004 -80 97 1000 000/00 RMK AO2 T02440239
53915KARA ARA20160801021010808/01/16 02:10:31  5-MIN KARA 010810Z AUTO 00000KT 10SM CLR 25/24 A3004 -80 93 1100 000/00 RMK AO2 T02500239
53915KARA ARA20160801021510808/01/16 02:15:31  5-MIN KARA 010815Z AUTO 00000KT 10SM CLR 25/24 A3004 -80 93 1100 000/00 RMK AO2 T02500239
53915KARA ARA20160801022010808/01/16 02:20:31  5-MIN KARA 010820Z AUTO 00000KT 10SM CLR 25/24 A3004 -80 93 1100 000/00 RMK AO2 T02500239
53915KARA ARA20160801022510808/01/16 02:25:31  5-MIN KARA 010825Z AUTO 00000KT 10SM CLR 25/24 A3004 -80 93 1100 000/00 RMK AO2 T02500239
53915KARA ARA20160801023010808/01/16 02:30:31  5-MIN KARA 010830Z AUTO 00000KT 10SM CLR 25/24 A3004 -80 93 1100 000/00 RMK AO2 T02500239
53915KARA ARA20160801023511908/01/16 02:35:31  5-MIN KARA 010835Z AUTO 00000KT 10SM CLR 25/24 A3004 -80 93 1100 000/00 RMK AO2 LTG DSNT S T02500239
53915KARA ARA20160801024011908/01/16 02:40:31  5-MIN KARA 010840Z AUTO 00000KT 10SM CLR 25/24 A3004 -80 93 1100 000/00 RMK AO2 LTG DSNT S T02500239
53915KARA ARA20160801024512608/01/16 02:45:31  5-MIN KARA 010845Z AUTO 00000KT 10SM CLR 25/24 A3004 -80 93 1100 000/00 RMK AO2 LTG DSNT S AND SW T02500239
53915KARA ARA20160801025013908/01/16 02:50:31  5-MIN KARA 010850Z AUTO 00000KT 10SM CLR 25/24 A3004 -80 93 1100 000/00 RMK AO2 LTG DSNT S AND SW SLP173 T02500239 50007
53915KARA ARA20160801025512608/01/16 02:55:31  5-MIN KARA 010855Z AUTO 00000KT 10SM CLR 24/24 A3004 -80 97 1000 000/00 RMK AO2 LTG DSNT S AND SW T02440239
53915KARA ARA20160801030012608/01/16 03:00:31  5-MIN KARA 010900Z AUTO 00000KT 10SM CLR 24/24 A3004 -80 97 1000 000/00 RMK AO2 LTG DSNT S AND SW T02440239
53915KARA ARA20160801030512608/01/16 03:05:31  5-MIN KARA 010905Z AUTO 13003KT 10SM CLR 24/24 A3004 -80 97 1000 130/03 RMK AO2 LTG DSNT S AND SW T02440239
53915KARA ARA20160801031011908/01/16 03:10:31  5-MIN KARA 010910Z AUTO 12003KT 10SM CLR 24/23 A3004 -80 93 1000 120/03 RMK AO2 LTG DSNT S T02440233
53915KARA ARA20160801031511808/01/16 03:15:31  5-MIN KARA 010915Z AUTO 00000KT 9SM CLR 24/23 A3004 -80 93 1000 000/00 RMK AO2 LTG DSNT S T02440233
53915KARA ARA20160801032011808/01/16 03:20:31  5-MIN KARA 010920Z AUTO 00000KT 9SM CLR 24/24 A3004 -80 97 1000 000/00 RMK AO2 LTG DSNT S T02440239
53915KARA ARA20160801032512508/01/16 03:25:31  5-MIN KARA 010925Z AUTO 00000KT 9SM CLR 24/24 A3004 -70 97 1000 000/00 RMK AO2 LTG DSNT S AND SW T02440239
53915KARA ARA20160801033012508/01/16 03:30:31  5-MIN KARA 010930Z AUTO 00000KT 8SM CLR 24/23 A3003 -70 97 1000 000/00 RMK AO2 LTG DSNT S AND SW T02390233
53915KARA ARA20160801033512508/01/16 03:35:31  5-MIN KARA 010935Z AUTO 00000KT 9SM CLR 24/23 A3003 -70 97 1000 000/00 RMK AO2 LTG DSNT S AND SW T02390233
53915KARA ARA20160801034011808/01/16 03:40:31  5-MIN KARA 010940Z AUTO 19004KT 9SM CLR 24/23 A3004 -80 97 1000 190/04 RMK AO2 LTG DSNT S T02390233
53915KARA ARA20160801034510708/01/16 03:45:31  5-MIN KARA 010945Z AUTO 00000KT 8SM CLR 24/23 A3004 -70 93 1000 000/00 RMK AO2 T02440233
53915KARA ARA20160801035012508/01/16 03:50:31  5-MIN KARA 010950Z AUTO 00000KT 8SM CLR 24/24 A3004 -70 97 1000 000/00 RMK AO2 LTG DSNT S SLP170 T02440239
53915KARA ARA20160801035511808/01/16 03:55:31  5-MIN KARA 010955Z AUTO 00000KT 7SM CLR 24/23 A3004 -80 97 1000 000/00 RMK AO2 LTG DSNT S T02390233
53915KARA ARA20160801040011808/01/16 04:00:31  5-MIN KARA 011000Z AUTO 00000KT 7SM CLR 24/24 A3004 -80 97 1000 000/00 RMK AO2 LTG DSNT S T02440239
53915KARA ARA20160801040510708/01/16 04:05:31  5-MIN KARA 011005Z AUTO 00000KT 8SM CLR 24/24 A3004 -80 97 1000 000/00 RMK AO2 T02440239
53915KARA ARA20160801041011908/01/16 04:10:31  5-MIN KARA 011010Z AUTO 00000KT 10SM CLR 24/24 A3004 -80 97 1000 000/00 RMK AO2 LTG DSNT S T02440239
53915KARA ARA20160801041511908/01/16 04:15:31  5-MIN KARA 011015Z AUTO 00000KT 10SM CLR 25/24 A3005 -80 93 1100 000/00 RMK AO2 LTG DSNT S T02500239
53915KARA ARA20160801042011808/01/16 04:20:31  5-MIN KARA 011020Z AUTO 00000KT 9SM CLR 25/24 A3005 -90 93 1100 000/00 RMK AO2 LTG DSNT S T02500239
53915KARA ARA20160801042511808/01/16 04:25:31  5-MIN KARA 011025Z AUTO 00000KT 9SM CLR 25/24 A3005 -90 93 1100 000/00 RMK AO2 LTG DSNT S T02500239
53915KARA ARA20160801043011808/01/16 04:30:31  5-MIN KARA 011030Z AUTO 00000KT 9SM CLR 24/24 A3005 -90 97 1000 000/00 RMK AO2 LTG DSNT S T02440239
53915KARA ARA20160801043511808/01/16 04:35:31  5-MIN KARA 011035Z AUTO 00000KT 9SM CLR 24/24 A3005 -90 97 1000 000/00 RMK AO2 LTG DSNT S T02440239
53915KARA ARA20160801044011308/01/16 04:40:31  5-MIN KARA 011040Z 00000KT 8SM CLR 24/24 A3005 -90 97 1000 000/00 RMK AO2 LTG DSNT S T02440239
53915KARA ARA20160801044511708/01/16 04:45:31  5-MIN KARA 011045Z 00000KT 5SM BR CLR 24/24 A3005 -90 97 1000 000/00 RMK AO2 LTG DSNT SE T02440239
53915KARA ARA20160801045013008/01/16 04:50:31  5-MIN KARA 011050Z 00000KT 6SM BR CLR 24/24 A3005 -90 97 1000 000/00 RMK AO2 LTG DSNT SE AND S SLP175 T02440239
53915KARA ARA20160801045512008/01/16 04:55:31  5-MIN KARA 011055Z 00000KT 8SM CLR 24/24 A3005 -90 97 1000 000/00 RMK AO2 LTG DSNT SE AND S T02440239
53915KARA ARA20160801050011308/01/16 05:00:31  5-MIN KARA 011100Z 13004KT 8SM CLR 24/24 A3006 -90 97 1000 130/04 RMK AO2 LTG DSNT S T02440239
53915KARA ARA20160801050510208/01/16 05:05:31  5-MIN KARA 011105Z 12004KT 7SM CLR 24/23 A3006 -90 93 1000 120/04 RMK AO2 T02440233
53915KARA ARA20160801051010208/01/16 05:10:31  5-MIN KARA 011110Z 14003KT 8SM CLR 24/24 A3006 -90 97 1000 140/03 RMK AO2 T02440239
53915KARA ARA20160801051510208/01/16 05:15:31  5-MIN KARA 011115Z 00000KT 9SM CLR 24/24 A3006 -90 97 1000 000/00 RMK AO2 T02440239
53915KARA ARA20160801052011508/01/16 05:20:31  5-MIN KARA 011120Z 00000KT 8SM CLR 25/24 A3006 -100 93 1100 000/00 RMK AO2 LTG DSNT SE T02500239
53915KARA ARA20160801052511508/01/16 05:25:31  5-MIN KARA 011125Z 12003KT 8SM CLR 24/24 A3006 -100 97 1000 120/03 RMK AO2 LTG DSNT SE T02440239
53915KARA ARA20160801053011508/01/16 05:30:31  5-MIN KARA 011130Z 13003KT 8SM CLR 24/24 A3006 -100 97 1000 130/03 RMK AO2 LTG DSNT SE T02440239
53915KARA ARA20160801053510308/01/16 05:35:31  5-MIN KARA 011135Z 13003KT 7SM CLR 24/24 A3006 -100 97 1000 130/03 RMK AO2 T02440239
53915KARA ARA20160801054010308/01/16 05:40:31  5-MIN KARA 011140Z 00000KT 7SM CLR 24/24 A3006 -100 97 1000 000/00 RMK AO2 T02440239
53915KARA ARA20160801054510308/01/16 05:45:31  5-MIN KARA 011145Z 00000KT 7SM CLR 25/24 A3006 -100 93 1100 000/00 RMK AO2 T02500239
53915KARA ARA20160801055013408/01/16 05:50:31  5-MIN KARA 011150Z 00000KT 7SM CLR 25/24 A3006 -100 93 1100 000/00 RMK AO2 SLP179 70070 T02500239 10256 20239 58002
53915KARA ARA20160801055510308/01/16 05:55:31  5-MIN KARA 011155Z 00000KT 8SM CLR 25/24 A3006 -100 93 1100 000/00 RMK AO2 T02500239
53915KARA ARA20160801060011408/01/16 06:00:31  5-MIN KARA 011200Z 00000KT 8SM CLR 25/24 A3006 -100 97 1100 000/00 RMK AO2 LTG DSNT S T02500244
53915KARA ARA20160801060511308/01/16 06:05:31  5-MIN KARA 011205Z 00000KT 9SM CLR 26/24 A3006 -90 93 1100 000/00 RMK AO2 LTG DSNT S T02560244
53915KARA ARA20160801061011408/01/16 06:10:31  5-MIN KARA 011210Z 00000KT 9SM CLR 26/25 A3006 -100 97 1100 000/00 RMK AO2 LTG DSNT S T02560250
53915KARA ARA20160801061510908/01/16 06:15:31  5-MIN KARA 011215Z 00000KT 10SM VCTS CLR 26/25 A3006 -100 97 1100 000/00 RMK AO2 T02560250
53915KARA ARA20160801062010908/01/16 06:20:31  5-MIN KARA 011220Z 15003KT 10SM VCTS CLR 26/25 A3006 -100 93 1200 150/03 RMK AO2 T02610250
53915KARA ARA20160801062510908/01/16 06:25:31  5-MIN KARA 011225Z 00000KT 10SM VCTS CLR 26/25 A3007 -110 93 1200 000/00 RMK AO2 T02610250
53915KARA ARA20160801063010408/01/16 06:30:31  5-MIN KARA 011230Z 00000KT 10SM CLR 26/25 A3007 -110 93 1200 000/00 RMK AO2 T02610250
53915KARA ARA20160801063510408/01/16 06:35:31  5-MIN KARA 011235Z 00000KT 10SM CLR 27/25 A3007 -110 90 1200 000/00 RMK AO2 T02670250
53915KARA ARA20160801064010408/01/16 06:40:31  5-MIN KARA 011240Z 00000KT 10SM CLR 27/25 A3007 -110 90 1200 000/00 RMK AO2 T02670250
53915KARA ARA20160801064510408/01/16 06:45:31  5-MIN KARA 011245Z 00000KT 10SM CLR 27/25 A3008 -110 90 1200 000/00 RMK AO2 T02670250
53915KARA ARA20160801065011108/01/16 06:50:31  5-MIN KARA 011250Z 00000KT 10SM CLR 27/26 A3008 -110 93 1200 000/00 RMK AO2 SLP183 T02670256
53915KARA ARA20160801065510408/01/16 06:55:31  5-MIN KARA 011255Z 00000KT 10SM CLR 27/25 A3008 -110 87 1300 000/00 RMK AO2 T02720250
53915KARA ARA20160801070010408/01/16 07:00:31  5-MIN KARA 011300Z 00000KT 10SM CLR 27/25 A3008 -110 87 1300 000/00 RMK AO2 T02720250
53915KARA ARA20160801070510408/01/16 07:05:31  5-MIN KARA 011305Z 00000KT 10SM CLR 28/26 A3008 -120 87 1400 000/00 RMK AO2 T02780256
53915KARA ARA20160801071010408/01/16 07:10:31  5-MIN KARA 011310Z 00000KT 10SM CLR 28/25 A3008 -120 84 1400 000/00 RMK AO2 T02780250
53915KARA ARA20160801071510408/01/16 07:15:31  5-MIN KARA 011315Z 00000KT 10SM CLR 28/25 A3009 -120 82 1400 000/00 RMK AO2 T02830250
53915KARA ARA20160801072010408/01/16 07:20:31  5-MIN KARA 011320Z 00000KT 10SM CLR 28/26 A3009 -120 85 1400 000/00 RMK AO2 T02830256
53915KARA ARA20160801072510408/01/16 07:25:31  5-MIN KARA 011325Z 12003KT 10SM CLR 28/26 A3009 -130 85 1400 120/03 RMK AO2 T02830256
53915KARA ARA20160801073010408/01/16 07:30:31  5-MIN KARA 011330Z 14003KT 10SM CLR 28/26 A3009 -130 85 1400 140/03 RMK AO2 T02830256
53915KARA ARA20160801073510408/01/16 07:35:31  5-MIN KARA 011335Z 00000KT 10SM CLR 28/26 A3010 -130 85 1400 000/00 RMK AO2 T02830256
53915KARA ARA20160801074010408/01/16 07:40:31  5-MIN KARA 011340Z 00000KT 10SM CLR 29/26 A3010 -130 82 1500 000/00 RMK AO2 T02890256
53915KARA ARA20160801074510408/01/16 07:45:31  5-MIN KARA 011345Z 00000KT 10SM CLR 29/26 A3010 -130 79 1500 000/00 RMK AO2 T02940256
53915KARA ARA20160801075011108/01/16 07:50:31  5-MIN KARA 011350Z 00000KT 10SM CLR 29/25 A3010 -130 76 1500 000/00 RMK AO2 SLP190 T02940250
53915KARA ARA20160801075510408/01/16 07:55:31  5-MIN KARA 011355Z 00000KT 10SM CLR 29/25 A3010 -130 76 1500 000/00 RMK AO2 T02940250
53915KARA ARA20160801080010408/01/16 08:00:31  5-MIN KARA 011400Z 00000KT 10SM CLR 30/25 A3009 -130 74 1600 000/00 RMK AO2 T03000250
53915KARA ARA20160801080510408/01/16 08:05:31  5-MIN KARA 011405Z 00000KT 10SM CLR 30/25 A3010 -130 74 1600 000/00 RMK AO2 T03000250
53915KARA ARA20160801081010408/01/16 08:10:31  5-MIN KARA 011410Z 31003KT 10SM CLR 30/25 A3010 -130 74 1600 310/03 RMK AO2 T03000250
53915KARA ARA20160801081510708/01/16 08:15:31  5-MIN KARA 011415Z VRB03KT 10SM FEW023 30/25 A3010 -130 74 1600 VRB/03 RMK AO2 T03000250
53915KARA ARA20160801082010708/01/16 08:20:31  5-MIN KARA 011420Z 34003KT 10SM SCT025 31/25 A3009 -130 72 1700 340/03 RMK AO2 T03060250
53915KARA ARA20160801082510708/01/16 08:25:31  5-MIN KARA 011425Z 33003KT 10SM BKN025 30/25 A3010 -130 74 1600 330/03 RMK AO2 T03000250
53915KARA ARA20160801083011408/01/16 08:30:31  5-MIN KARA 011430Z VRB03KT 10SM SCT025 BKN060 30/26 A3010 -130 77 1600 VRB/03 RMK AO2 T03000256
53915KARA ARA20160801083512108/01/16 08:35:31  5-MIN KARA 011435Z 35005KT 10SM SCT025 SCT030 BKN060 31/26 A3010 -130 74 1700 350/05 RMK AO2 T03060256
53915KARA ARA20160801084011408/01/16 08:40:31  5-MIN KARA 011440Z 36004KT 10SM SCT025 SCT065 31/25 A3010 -130 72 1700 350/04 RMK AO2 T03060250
53915KARA ARA20160801084512108/01/16 08:45:31  5-MIN KARA 011445Z 33003KT 10SM SCT025 SCT036 BKN060 31/26 A3010 -130 74 1700 330/03 RMK AO2 T03060256
53915KARA ARA20160801085013408/01/16 08:50:31  5-MIN KARA 011450Z 00000KT 10SM FEW018 SCT027 BKN043 31/26 A3010 -130 74 1700 000/00 RMK AO2 SLP190 T03060256 53006
53915KARA ARA20160801085512108/01/16 08:55:31  5-MIN KARA 011455Z 32004KT 10SM FEW018 SCT027 BKN035 31/26 A3009 -130 72 1700 320/04 RMK AO2 T03110256
53915KARA ARA20160801090013308/01/16 09:00:31  5-MIN KARA 011500Z 36005KT 10SM SCT018 SCT028 BKN038 31/26 A3009 -130 74 1700 360/05 RMK AO2 LTG DSNT SE T03060256
53915KARA ARA20160801090513308/01/16 09:05:31  5-MIN KARA 011505Z 33005KT 10SM SCT018 BKN028 BKN036 31/26 A3009 -130 74 1700 320/05 RMK AO2 LTG DSNT SE T03060256
53915KARA ARA20160801091013308/01/16 09:10:31  5-MIN KARA 011510Z 34005KT 10SM FEW018 BKN027 OVC055 31/26 A3009 -130 74 1700 340/05 RMK AO2 LTG DSNT SE T03060256
53915KARA ARA20160801091513308/01/16 09:15:31  5-MIN KARA 011515Z 35006KT 10SM SCT020 BKN027 OVC055 31/26 A3009 -130 74 1700 350/06 RMK AO2 LTG DSNT SE T03060256
53915KARA ARA20160801092013308/01/16 09:20:31  5-MIN KARA 011520Z 32005KT 10SM BKN020 BKN027 OVC035 30/25 A3009 -130 74 1600 320/05 RMK AO2 LTG DSNT SE T03000250
53915KARA ARA20160801092513308/01/16 09:25:31  5-MIN KARA 011525Z 32006KT 10SM BKN020 BKN027 OVC070 30/25 A3010 -130 74 1600 310/06 RMK AO2 LTG DSNT SE T03000250
53915KARA ARA20160801093013908/01/16 09:30:31  5-MIN KARA 011530Z 31005KT 10SM SCT020 BKN030 OVC100 30/25 A3009 -130 74 1600 310/05 RMK AO2 LTG DSNT E AND SE T03000250
53915KARA ARA20160801093513808/01/16 09:35:31  5-MIN KARA 011535Z 30005KT 10SM FEW020 SCT033 BKN100 30/25 A3010 -130 74 1600 300/05 RMK AO2 LTG DSNT E AND S T03000250
53915KARA ARA20160801094013408/01/16 09:40:31  5-MIN KARA 011540Z 32004KT 10SM FEW021 SCT031 SCT100 30/25 A3010 -130 74 1600 320/04 RMK AO2 LTG DSNT E-S T03000250
53915KARA ARA20160801094513708/01/16 09:45:31  5-MIN KARA 011545Z 33004KT 10SM VCTS FEW021 FEW100 31/25 A3010 -130 69 1700 320/04 RMK AO2 LTG DSNT SE AND S T03110250
53915KARA ARA20160801095013708/01/16 09:50:31  5-MIN KARA 011550Z 31003KT 10SM VCTS FEW100 31/24 A3010 -140 69 1700 310/03 RMK AO2 LTG DSNT SE AND S SLP192 T03060244
53915KARA ARA20160801095512708/01/16 09:55:31  5-MIN KARA 011555Z 00000KT 10SM VCTS FEW100 31/24 A3010 -130 69 1700 000/00 RMK AO2 LTG DSNT SE-SW T03060244
53915KARA ARA20160801100012408/01/16 10:00:31  5-MIN KARA 011600Z 00000KT 10SM VCTS CLR 31/24 A3010 -130 67 1700 000/00 RMK AO2 LTG DSNT SE-SW T03110244
53915KARA ARA20160801100512808/01/16 10:05:31  5-MIN KARA 011605Z 36003KT 10SM TS CLR 31/25 A3010 -130 69 1700 360/03 RMK AO2 LTG DSNT SE-SW TSB05 T03110250
53915KARA ARA20160801101012708/01/16 10:10:31  5-MIN KARA 011610Z 35003KT 10SM TS CLR 32/25 A3010 -140 67 1800 350/03 RMK AO2 LTG DSNT E-SW TSB05 T03170250
53915KARA ARA20160801101512808/01/16 10:15:31  5-MIN KARA 011615Z 32003KT 10SM TS CLR 32/24 A3010 -140 65 1800 320/03 RMK AO2 LTG DSNT ALQDS TSB05 T03170244
53915KARA ARA20160801102013308/01/16 10:20:31  5-MIN KARA 011620Z 28003KT 10SM VCTS CLR 31/24 A3010 -140 65 1700 270/03 RMK AO2 LTG DSNT ALQDS TSB05E20 T03110239
53915KARA ARA20160801102513308/01/16 10:25:31  5-MIN KARA 011625Z 00000KT 10SM VCTS CLR 31/24 A3011 -140 67 1600 000/00 RMK AO2 LTG DSNT ALQDS TSB05E20 T03060239
53915KARA ARA20160801103013808/01/16 10:30:31  5-MIN KARA 011630Z 00000KT 10SM FEW026 FEW037 31/24 A3011 -140 67 1600 000/00 RMK AO2 LTG DSNT ALQDS TSB05E20 T03060239
53915KARA ARA20160801103513808/01/16 10:35:31  5-MIN KARA 011635Z 35006KT 10SM SCT026 SCT037 31/24 A3011 -140 69 1600 350/06 RMK AO2 LTG DSNT ALQDS TSB05E20 T03060244
53915KARA ARA20160801104013708/01/16 10:40:31  5-MIN KARA 011640Z 33005KT 10SM SCT026 BKN037 30/24 A3011 -150 72 1600 330/05 RMK AO2 LTG DSNT E-SW TSB05E20 T03000244
53915KARA ARA20160801104514408/01/16 10:45:31  5-MIN KARA 011645Z 35006KT 10SM BKN026 BKN037 BKN070 29/24 A3011 -150 74 1500 350/06 RMK AO2 LTG DSNT E-SW TSB05E20 T02940244
53915KARA ARA20160801105014008/01/16 10:50:31  5-MIN KARA 011650Z 36007KT 10SM VCTS SCT026 BKN039 OVC070 29/23 A3011 -140 71 1500 360/07 RMK AO2 LTG DSNT ALQDS TSB05E20
53915KARA ARA20160801105514108/01/16 10:55:31  5-MIN KARA 011655Z 36006KT 10SM VCTS SCT026 BKN038 OVC065 28/23 A3011 -150 74 1400 360/06 RMK AO2 LTG DSNT ALQDS T02830233
53915KARA ARA20160801110014008/01/16 11:00:31  5-MIN KARA 011700Z 01008KT 9SM VCTS SCT028 BKN046 OVC070 28/24 A3011 -150 76 1400 010/08 RMK AO2 LTG DSNT ALQDS T02830239
53915KARA ARA20160801110515608/01/16 11:05:31  5-MIN KARA 011705Z 01006KT 9SM VCTS -RA SCT028 BKN050 OVC070 28/24 A3011 -140 79 1400 010/06 RMK AO2 LTG DSNT ALQDS RAB01 P0000 T02830244
53915KARA ARA20160801111015708/01/16 11:10:31  5-MIN KARA 011710Z 01004KT 10SM VCTS -RA FEW028 BKN070 OVC085 28/24 A3011 -140 79 1400 010/04 RMK AO2 LTG DSNT ALQDS RAB01 P0000 T02830244
53915KARA ARA20160801111515708/01/16 11:15:31  5-MIN KARA 011715Z 00000KT 10SM VCTS -RA FEW035 BKN070 OVC090 29/24 A3011 -140 76 1500 000/00 RMK AO2 LTG DSNT ALQDS RAB01 P0001 T02890244
53915KARA ARA20160801112014608/01/16 11:20:31  5-MIN KARA 011720Z 10SM VCTS FEW028 SCT041 BKN065 28/24 A3011 -140 79 1400 M /M RMK AO2 LTG DSNT ALQDS RAB01E17 P0001 T02830244
53915KARA ARA20160801112515608/01/16 11:25:31  5-MIN KARA 011725Z 15005KT 10SM VCTS FEW028 SCT070 BKN090 28/24 A3011 -140 79 1400 150/05 RMK AO2 LTG DSNT ALQDS RAB01E17 P0001 T02830244
53915KARA ARA20160801113016108/01/16 11:30:31  5-MIN KARA 011730Z 15005KT 10SM -RA FEW039 FEW070 SCT085 28/24 A3011 -140 79 1400 150/05 RMK AO2 LTG DSNT E AND W AND NW RAB01 P0001 T02830244
53915KARA ARA20160801113515908/01/16 11:35:31  5-MIN KARA 011735Z 12005KT 10SM VCTS -RA FEW039 SCT085 28/24 A3011 -150 79 1400 120/05 RMK AO2 LTG DSNT E AND W AND NW RAB01 P0001 T02830244
53915KARA ARA20160801114014608/01/16 11:40:31  5-MIN KARA 011740Z 14004KT 10SM VCTS -RA FEW039 FEW080 28/25 A3011 -140 82 1400 140/04 RMK AO2 LTG DSNT W RAB01 P0001 T02830250
53915KARA ARA20160801114513608/01/16 11:45:31  5-MIN KARA 011745Z 12007KT 10SM VCTS -RA CLR 28/25 A3011 -140 82 1400 120/07 RMK AO2 LTG DSNT W RAB01 P0001 T02830250
53915KARA ARA20160801115016708/01/16 11:50:31  5-MIN KARA 011750Z 12007KT 10SM VCTS -RA CLR 28/26 A3011 -140 85 1400 120/07 RMK AO2 LTG DSNT W RAB01 SLP194 P0001 60001 T02830256 10317 20267 50012
53915KARA ARA20160801115513008/01/16 11:55:31  5-MIN KARA 011755Z 13005KT 10SM VCTS -RA CLR 28/26 A3011 -140 85 1400 130/05 RMK AO2 LTG DSNT W P0000 T02830256
53915KARA ARA20160801120013408/01/16 12:00:31  5-MIN KARA 011800Z 15003KT 10SM VCTS CLR 28/26 A3010 -140 87 1400 140/03 RMK AO2 LTG DSNT W RAE1757 P0000 T02830261
53915KARA ARA20160801120512908/01/16 12:05:31  5-MIN KARA 011805Z 15003KT 10SM CLR 29/26 A3010 -140 82 1500 150/03 RMK AO2 LTG DSNT W RAE1757 P0000 T02890256
53915KARA ARA20160801121012908/01/16 12:10:31  5-MIN KARA 011810Z 00000KT 10SM CLR 29/26 A3010 -140 82 1500 000/00 RMK AO2 LTG DSNT W RAE1757 P0000 T02890256
53915KARA ARA20160801121511808/01/16 12:15:31  5-MIN KARA 011815Z 10004KT 10SM CLR 29/26 A3010 -130 82 1500 100/04 RMK AO2 RAE1757 P0000 T02890256
53915KARA ARA20160801122011808/01/16 12:20:31  5-MIN KARA 011820Z 12003KT 10SM CLR 28/26 A3010 -130 85 1400 120/03 RMK AO2 RAE1757 P0000 T02830256
53915KARA ARA20160801122513008/01/16 12:25:31  5-MIN KARA 011825Z 13004KT 10SM CLR 28/25 A3009 -130 82 1400 130/04 RMK AO2 LTG DSNT SW RAE1757 P0000 T02830250
53915KARA ARA20160801123013508/01/16 12:30:31  5-MIN KARA 011830Z 15004KT 10SM VCTS CLR 29/25 A3010 -130 79 1500 150/04 RMK AO2 LTG DSNT SW RAE1757 P0000 T02890250
53915KARA ARA20160801123513508/01/16 12:35:31  5-MIN KARA 011835Z 16004KT 10SM VCTS CLR 28/25 A3009 -130 82 1400 160/04 RMK AO2 LTG DSNT SW RAE1757 P0000 T02830250
53915KARA ARA20160801124012308/01/16 12:40:31  5-MIN KARA 011840Z 15004KT 10SM VCTS CLR 28/25 A3009 -130 82 1400 150/04 RMK AO2 RAE1757 P0000 T02830250
53915KARA ARA20160801124512308/01/16 12:45:31  5-MIN KARA 011845Z 15005KT 10SM VCTS CLR 29/25 A3009 -120 79 1500 150/05 RMK AO2 RAE1757 P0000 T02890250
53915KARA ARA20160801125010808/01/16 12:50:31  5-MIN KARA 011850Z 14004KT 10SM CLR 28/26 A3008 -120 85 1400 140/04 RMK AO2 RAE1757 P0000
53915KARA ARA20160801125510408/01/16 12:55:31  5-MIN KARA 011855Z 17004KT 10SM CLR 28/26 A3008 -120 85 1400 170/04 RMK AO2 T02830256
53915KARA ARA20160801130010408/01/16 13:00:31  5-MIN KARA 011900Z 20004KT 10SM CLR 28/26 A3008 -120 85 1400 200/04 RMK AO2 T02830256
53915KARA ARA20160801130510408/01/16 13:05:31  5-MIN KARA 011905Z 20004KT 10SM CLR 28/26 A3008 -120 85 1400 200/04 RMK AO2 T02830256
53915KARA ARA20160801131010408/01/16 13:10:31  5-MIN KARA 011910Z 19003KT 10SM CLR 28/26 A3008 -120 85 1400 190/03 RMK AO2 T02830256
53915KARA ARA20160801131510408/01/16 13:15:31  5-MIN KARA 011915Z 16004KT 10SM CLR 29/26 A3008 -120 82 1500 160/04 RMK AO2 T02890256
53915KARA ARA20160801132010408/01/16 13:20:31  5-MIN KARA 011920Z 15003KT 10SM CLR 29/26 A3008 -120 82 1500 150/03 RMK AO2 T02890256
53915KARA ARA20160801132510408/01/16 13:25:31  5-MIN KARA 011925Z 16004KT 10SM CLR 29/26 A3008 -110 85 1500 160/04 RMK AO2 T02890261
53915KARA ARA20160801133010408/01/16 13:30:31  5-MIN KARA 011930Z 17005KT 10SM CLR 29/26 A3008 -110 85 1500 170/05 RMK AO2 T02890261
53915KARA ARA20160801133510408/01/16 13:35:31  5-MIN KARA 011935Z 19004KT 10SM CLR 29/26 A3008 -110 85 1500 190/04 RMK AO2 T02890261
53915KARA ARA20160801134010408/01/16 13:40:31  5-MIN KARA 011940Z 21005KT 10SM CLR 29/26 A3007 -110 82 1600 210/05 RMK AO2 T02940261
53915KARA ARA20160801134510408/01/16 13:45:31  5-MIN KARA 011945Z 21005KT 10SM CLR 29/26 A3007 -110 82 1600 210/05 RMK AO2 T02940261
53915KARA ARA20160801135011108/01/16 13:50:31  5-MIN KARA 011950Z 22006KT 10SM CLR 30/26 A3007 -100 79 1600 220/06 RMK AO2 SLP181 T03000261
53915KARA ARA20160801135510408/01/16 13:55:31  5-MIN KARA 011955Z 25006KT 10SM CLR 30/26 A3006 -100 77 1600 250/06 RMK AO2 T03000256
53915KARA ARA20160801140010408/01/16 14:00:31  5-MIN KARA 012000Z 22005KT 10SM CLR 31/25 A3006 -100 72 1700 220/05 RMK AO2 T03060250
53915KARA ARA20160801140510408/01/16 14:05:31  5-MIN KARA 012005Z VRB06KT 10SM CLR 31/26 A3006 -100 72 1800 VRB/06 RMK AO2 T03110256
53915KARA ARA20160801141010408/01/16 14:10:31  5-MIN KARA 012010Z VRB05KT 10SM CLR 31/25 A3006 -100 69 1800 VRB/05 RMK AO2 T03110250
53915KARA ARA20160801141510408/01/16 14:15:31  5-MIN KARA 012015Z 23005KT 10SM CLR 32/25 A3006 -100 67 1800 230/05 RMK AO2 T03170250
53915KARA ARA20160801142010408/01/16 14:20:31  5-MIN KARA 012020Z 24006KT 10SM CLR 32/24 A3006 -100 65 1800 240/06 RMK AO2 T03170244
53915KARA ARA20160801142510408/01/16 14:25:31  5-MIN KARA 012025Z 24005KT 10SM CLR 31/24 A3006 -100 67 1800 240/05 RMK AO2 T03110244
53915KARA ARA20160801143010408/01/16 14:30:31  5-MIN KARA 012030Z 26005KT 10SM CLR 32/24 A3006 -100 65 1800 260/05 RMK AO2 T03170244
53915KARA ARA20160801143510408/01/16 14:35:31  5-MIN KARA 012035Z 25004KT 10SM CLR 32/24 A3006 -100 63 1800 250/04 RMK AO2 T03170239
53915KARA ARA20160801144010408/01/16 14:40:31  5-MIN KARA 012040Z 24005KT 10SM CLR 32/24 A3006 -100 65 1800 240/05 RMK AO2 T03170244
53915KARA ARA20160801144510308/01/16 14:45:31  5-MIN KARA 012045Z 25004KT 10SM CLR 32/24 A3006 -90 65 1800 250/04 RMK AO2 T03170244
53915KARA ARA20160801145012208/01/16 14:50:31  5-MIN KARA 012050Z 00000KT 10SM CLR 32/24 A3005 -90 63 1800 000/00 RMK AO2 SLP176 60000 T03170239 50002
53915KARA ARA20160801145510308/01/16 14:55:31  5-MIN KARA 012055Z 00000KT 10SM CLR 32/24 A3005 -90 63 1900 000/00 RMK AO2 T03220244
53915KARA ARA20160801150010308/01/16 15:00:31  5-MIN KARA 012100Z VRB03KT 10SM CLR 32/24 A3005 -90 63 1800 VRB/03 RMK AO2 T03170239
53915KARA ARA20160801150510308/01/16 15:05:31  5-MIN KARA 012105Z 34003KT 10SM CLR 32/24 A3005 -90 61 1900 330/03 RMK AO2 T03220239
53915KARA ARA20160801151010308/01/16 15:10:31  5-MIN KARA 012110Z 28003KT 10SM CLR 32/24 A3005 -90 61 1900 280/03 RMK AO2 T03220239
53915KARA ARA20160801151510308/01/16 15:15:31  5-MIN KARA 012115Z 00000KT 10SM CLR 33/23 A3005 -90 57 2000 000/00 RMK AO2 T03280233
53915KARA ARA20160801152010308/01/16 15:20:31  5-MIN KARA 012120Z 00000KT 10SM CLR 33/23 A3005 -80 57 2000 000/00 RMK AO2 T03280233
53915KARA ARA20160801152510308/01/16 15:25:31  5-MIN KARA 012125Z 00000KT 10SM CLR 33/23 A3005 -90 57 2000 000/00 RMK AO2 T03280233
53915KARA ARA20160801153010308/01/16 15:30:31  5-MIN KARA 012130Z 12004KT 10SM CLR 33/24 A3005 -80 57 2000 110/04 RMK AO2 T03330239
53915KARA ARA20160801153510308/01/16 15:35:31  5-MIN KARA 012135Z 00000KT 10SM CLR 33/24 A3004 -80 61 2000 000/00 RMK AO2 T03280244
53915KARA ARA20160801154010308/01/16 15:40:31  5-MIN KARA 012140Z 18003KT 10SM CLR 32/24 A3004 -80 63 1900 180/03 RMK AO2 T03220244
53915KARA ARA20160801154510308/01/16 15:45:31  5-MIN KARA 012145Z 00000KT 10SM CLR 32/24 A3003 -70 61 1900 000/00 RMK AO2 T03220239
53915KARA ARA20160801155011008/01/16 15:50:31  5-MIN KARA 012150Z 19003KT 10SM CLR 32/24 A3003 -70 63 1900 190/03 RMK AO2 SLP169 T03220244
53915KARA ARA20160801155510308/01/16 15:55:31  5-MIN KARA 012155Z 00000KT 10SM CLR 32/24 A3003 -70 61 1900 000/00 RMK AO2 T03220239
53915KARA ARA20160801160010308/01/16 16:00:31  5-MIN KARA 012200Z 00000KT 10SM CLR 32/24 A3003 -70 61 1900 000/00 RMK AO2 T03220239
53915KARA ARA20160801160510308/01/16 16:05:31  5-MIN KARA 012205Z 13003KT 10SM CLR 32/24 A3003 -70 61 1900 130/03 RMK AO2 T03220239
53915KARA ARA20160801161010308/01/16 16:10:31  5-MIN KARA 012210Z 14003KT 10SM CLR 32/24 A3003 -70 61 1900 140/03 RMK AO2 T03220239
53915KARA ARA20160801161510308/01/16 16:15:31  5-MIN KARA 012215Z 12004KT 10SM CLR 32/23 A3003 -70 61 1900 120/04 RMK AO2 T03170233
53915KARA ARA20160801162010308/01/16 16:20:31  5-MIN KARA 012220Z 13003KT 10SM CLR 32/23 A3003 -70 61 1900 130/03 RMK AO2 T03170233
53915KARA ARA20160801162510308/01/16 16:25:31  5-MIN KARA 012225Z 16003KT 10SM CLR 32/24 A3003 -70 63 1900 150/03 RMK AO2 T03170239
53915KARA ARA20160801163010308/01/16 16:30:31  5-MIN KARA 012230Z 14003KT 10SM CLR 32/23 A3003 -70 61 1900 140/03 RMK AO2 T03170233
53915KARA ARA20160801163510308/01/16 16:35:31  5-MIN KARA 012235Z 00000KT 10SM CLR 32/24 A3003 -70 63 1900 000/00 RMK AO2 T03170239
53915KARA ARA20160801164010308/01/16 16:40:31  5-MIN KARA 012240Z 15003KT 10SM CLR 32/24 A3003 -70 63 1900 150/03 RMK AO2 T03170239
53915KARA ARA20160801164510308/01/16 16:45:31  5-MIN KARA 012245Z 15003KT 10SM CLR 32/24 A3003 -70 61 1900 150/03 RMK AO2 T03220239
53915KARA ARA20160801165011008/01/16 16:50:31  5-MIN KARA 012250Z 14004KT 10SM CLR 32/24 A3003 -70 63 1900 140/04 RMK AO2 SLP168 T03170239
53915KARA ARA20160801165510308/01/16 16:55:31  5-MIN KARA 012255Z 18005KT 10SM CLR 32/25 A3003 -70 67 1900 180/05 RMK AO2 T03170250
53915KARA ARA20160801170010308/01/16 17:00:31  5-MIN KARA 012300Z 15004KT 10SM CLR 32/25 A3002 -70 67 1900 150/04 RMK AO2 T03170250
53915KARA ARA20160801170510308/01/16 17:05:31  5-MIN KARA 012305Z 15005KT 10SM CLR 32/26 A3002 -70 69 1900 150/05 RMK AO2 T03170256
53915KARA ARA20160801171010308/01/16 17:10:31  5-MIN KARA 012310Z 17003KT 10SM CLR 32/25 A3002 -70 67 1900 170/03 RMK AO2 T03170250
53915KARA ARA20160801171510308/01/16 17:15:31  5-MIN KARA 012315Z 18004KT 10SM CLR 32/25 A3002 -70 67 1900 180/04 RMK AO2 T03170250
53915KARA ARA20160801172010308/01/16 17:20:31  5-MIN KARA 012320Z 19005KT 10SM CLR 32/25 A3002 -60 67 1900 190/05 RMK AO2 T03170250
53915KARA ARA20160801172510308/01/16 17:25:31  5-MIN KARA 012325Z 18005KT 10SM CLR 32/26 A3002 -60 69 1900 180/05 RMK AO2 T03170256
53915KARA ARA20160801173010308/01/16 17:30:31  5-MIN KARA 012330Z 20005KT 10SM CLR 31/26 A3002 -60 72 1800 200/05 RMK AO2 T03110256
53915KARA ARA20160801173510308/01/16 17:35:31  5-MIN KARA 012335Z 20005KT 10SM CLR 31/26 A3002 -60 72 1800 190/05 RMK AO2 T03110256
53915KARA ARA20160801174010308/01/16 17:40:31  5-MIN KARA 012340Z 21005KT 10SM CLR 31/26 A3002 -60 72 1800 210/05 RMK AO2 T03110256
53915KARA ARA20160801174510308/01/16 17:45:31  5-MIN KARA 012345Z 21005KT 10SM CLR 31/26 A3002 -70 74 1700 210/05 RMK AO2 T03060256
53915KARA ARA20160801175014608/01/16 17:50:31  5-MIN KARA 012350Z 20004KT 10SM CLR 31/26 A3003 -70 74 1700 200/04 RMK AO2 LTG DSNT NE SLP167 60000 T03060256 10333 20283 56019
53915KARA ARA20160801175511508/01/16 17:55:31  5-MIN KARA 012355Z 20006KT 10SM CLR 31/26 A3002 -60 72 1800 200/06 RMK AO2 LTG DSNT NE T03110256
53915KARA ARA20160801180011508/01/16 18:00:31  5-MIN KARA 020000Z 19004KT 10SM CLR 31/26 A3002 -60 74 1700 190/04 RMK AO2 LTG DSNT NE T03060256
53915KARA ARA20160801180510308/01/16 18:05:31  5-MIN KARA 020005Z 19004KT 10SM CLR 31/26 A3002 -60 74 1700 190/04 RMK AO2 T03060256
53915KARA ARA20160801181010308/01/16 18:10:31  5-MIN KARA 020010Z 18003KT 10SM CLR 31/26 A3003 -70 74 1700 180/03 RMK AO2 T03060256
53915KARA ARA20160801181510308/01/16 18:15:31  5-MIN KARA 020015Z 18003KT 10SM CLR 31/26 A3003 -70 74 1700 180/03 RMK AO2 T03060256
53915KARA ARA20160801182010308/01/16 18:20:31  5-MIN KARA 020020Z 00000KT 10SM CLR 31/26 A3003 -70 74 1700 000/00 RMK AO2 T03060256
53915KARA ARA20160801182510308/01/16 18:25:31  5-MIN KARA 020025Z 19003KT 10SM CLR 31/26 A3003 -70 74 1700 190/03 RMK AO2 T03060256
53915KARA ARA20160801183010308/01/16 18:30:31  5-MIN KARA 020030Z 18003KT 10SM CLR 30/26 A3003 -70 77 1700 180/03 RMK AO2 T03000256
53915KARA ARA20160801183510308/01/16 18:35:31  5-MIN KARA 020035Z 18003KT 10SM CLR 30/26 A3004 -80 77 1700 180/03 RMK AO2 T03000256
53915KARA ARA20160801184010308/01/16 18:40:31  5-MIN KARA 020040Z 18003KT 10SM CLR 30/26 A3004 -80 77 1700 180/03 RMK AO2 T03000256
53915KARA ARA20160801184510808/01/16 18:45:31  5-MIN KARA 020045Z AUTO 18003KT 10SM CLR 29/26 A3004 -80 79 1600 180/03 RMK AO2 T02940256
53915KARA ARA20160801185011508/01/16 18:50:31  5-MIN KARA 020050Z AUTO 18003KT 10SM CLR 29/26 A3004 -80 79 1600 170/03 RMK AO2 SLP172 T02940256
53915KARA ARA20160801185512008/01/16 18:55:31  5-MIN KARA 020055Z AUTO 17004KT 10SM CLR 29/26 A3004 -80 79 1600 170/04 RMK AO2 LTG DSNT NE T02940256
53915KARA ARA20160801190012008/01/16 19:00:31  5-MIN KARA 020100Z AUTO 19003KT 10SM CLR 29/26 A3004 -80 79 1600 190/03 RMK AO2 LTG DSNT NE T02940256
53915KARA ARA20160801190512008/01/16 19:05:31  5-MIN KARA 020105Z AUTO 19003KT 10SM CLR 29/26 A3004 -80 82 1500 190/03 RMK AO2 LTG DSNT NE T02890256
53915KARA ARA20160801191012008/01/16 19:10:31  5-MIN KARA 020110Z AUTO 18003KT 10SM CLR 29/26 A3004 -80 85 1500 180/03 RMK AO2 LTG DSNT NE T02890261
53915KARA ARA20160801191512008/01/16 19:15:31  5-MIN KARA 020115Z AUTO 16003KT 10SM CLR 29/26 A3005 -80 82 1500 160/03 RMK AO2 LTG DSNT NE T02890256
53915KARA ARA20160801192012008/01/16 19:20:31  5-MIN KARA 020120Z AUTO 16003KT 10SM CLR 29/26 A3004 -80 82 1500 160/03 RMK AO2 LTG DSNT NE T02890256
53915KARA ARA20160801192510808/01/16 19:25:31  5-MIN KARA 020125Z AUTO 16004KT 10SM CLR 29/26 A3004 -80 85 1500 160/04 RMK AO2 T02890261
53915KARA ARA20160801193010808/01/16 19:30:31  5-MIN KARA 020130Z AUTO 16004KT 10SM CLR 28/26 A3004 -80 87 1500 160/04 RMK AO2 T02830261
53915KARA ARA20160801193510808/01/16 19:35:31  5-MIN KARA 020135Z AUTO 17004KT 10SM CLR 28/26 A3004 -80 87 1500 170/04 RMK AO2 T02830261
53915KARA ARA20160801194010808/01/16 19:40:31  5-MIN KARA 020140Z AUTO 16004KT 10SM CLR 28/26 A3004 -80 85 1500 160/04 RMK AO2 T02830256
53915KARA ARA20160801194510808/01/16 19:45:31  5-MIN KARA 020145Z AUTO 17004KT 10SM CLR 28/26 A3004 -80 85 1500 170/04 RMK AO2 T02830256
53915KARA ARA20160801195011508/01/16 19:50:31  5-MIN KARA 020150Z AUTO 18003KT 10SM CLR 28/26 A3004 -80 85 1500 180/03 RMK AO2 SLP172 T02830256
53915KARA ARA20160801195510808/01/16 19:55:31  5-MIN KARA 020155Z AUTO 00000KT 10SM CLR 28/26 A3004 -80 85 1500 000/00 RMK AO2 T02830256
53915KARA ARA20160801200010808/01/16 20:00:31  5-MIN KARA 020200Z AUTO 00000KT 10SM CLR 28/26 A3005 -80 87 1400 000/00 RMK AO2 T02780256
53915KARA ARA20160801200510808/01/16 20:05:31  5-MIN KARA 020205Z AUTO 00000KT 10SM CLR 28/26 A3005 -90 87 1400 000/00 RMK AO2 T02780256
53915KARA ARA20160801201010808/01/16 20:10:31  5-MIN KARA 020210Z AUTO 00000KT 10SM CLR 28/26 A3005 -90 87 1400 000/00 RMK AO2 T02780256
53915KARA ARA20160801201510808/01/16 20:15:31  5-MIN KARA 020215Z AUTO 19003KT 10SM CLR 28/26 A3005 -90 87 1400 190/03 RMK AO2 T02780256
53915KARA ARA20160801202010808/01/16 20:20:31  5-MIN KARA 020220Z AUTO 00000KT 10SM CLR 27/26 A3006 -90 90 1300 000/00 RMK AO2 T02720256
53915KARA ARA20160801202510908/01/16 20:25:31  5-MIN KARA 020225Z AUTO 00000KT 10SM CLR 28/26 A3006 -100 87 1400 000/00 RMK AO2 T02780256
53915KARA ARA20160801203010908/01/16 20:30:31  5-MIN KARA 020230Z AUTO 00000KT 10SM CLR 28/26 A3006 -100 87 1400 000/00 RMK AO2 T02780256
53915KARA ARA20160801203510808/01/16 20:35:31  5-MIN KARA 020235Z AUTO 00000KT 10SM CLR 28/26 A3006 -90 87 1400 000/00 RMK AO2 T02780256
53915KARA ARA20160801204010908/01/16 20:40:31  5-MIN KARA 020240Z AUTO 00000KT 10SM CLR 27/26 A3006 -100 90 1300 000/00 RMK AO2 T02720256
53915KARA ARA20160801204510908/01/16 20:45:31  5-MIN KARA 020245Z AUTO 00000KT 10SM CLR 28/26 A3006 -100 87 1400 000/00 RMK AO2 T02780256
53915KARA ARA20160801205012208/01/16 20:50:31  5-MIN KARA 020250Z AUTO 15003KT 10SM CLR 27/26 A3006 -100 90 1300 150/03 RMK AO2 SLP178 T02720256 56009
53915KARA ARA20160801205510908/01/16 20:55:31  5-MIN KARA 020255Z AUTO 15003KT 10SM CLR 27/26 A3006 -100 90 1300 150/03 RMK AO2 T02720256
53915KARA ARA20160801210010908/01/16 21:00:31  5-MIN KARA 020300Z AUTO 14003KT 10SM CLR 27/26 A3006 -100 90 1300 140/03 RMK AO2 T02720256
53915KARA ARA20160801210510908/01/16 21:05:31  5-MIN KARA 020305Z AUTO 14003KT 10SM CLR 27/26 A3007 -100 90 1300 140/03 RMK AO2 T02720256
53915KARA ARA20160801211010908/01/16 21:10:31  5-MIN KARA 020310Z AUTO 13003KT 10SM CLR 27/26 A3007 -100 90 1300 130/03 RMK AO2 T02720256
53915KARA ARA20160801211510908/01/16 21:15:31  5-MIN KARA 020315Z AUTO 00000KT 10SM CLR 27/26 A3007 -110 90 1300 000/00 RMK AO2 T02720256
53915KARA ARA20160801212010908/01/16 21:20:31  5-MIN KARA 020320Z AUTO 00000KT 10SM CLR 28/26 A3008 -110 87 1400 000/00 RMK AO2 T02780256
53915KARA ARA20160801212510908/01/16 21:25:31  5-MIN KARA 020325Z AUTO 00000KT 10SM CLR 27/26 A3008 -110 90 1300 000/00 RMK AO2 T02720256
53915KARA ARA20160801213010908/01/16 21:30:31  5-MIN KARA 020330Z AUTO 00000KT 10SM CLR 28/26 A3008 -120 87 1400 000/00 RMK AO2 T02780256
53915KARA ARA20160801213510908/01/16 21:35:31  5-MIN KARA 020335Z AUTO 11003KT 10SM CLR 27/26 A3008 -120 90 1300 100/03 RMK AO2 T02720256
53915KARA ARA20160801214010908/01/16 21:40:31  5-MIN KARA 020340Z AUTO 14003KT 10SM CLR 27/25 A3008 -120 87 1300 140/03 RMK AO2 T02720250
53915KARA ARA20160801214510908/01/16 21:45:31  5-MIN KARA 020345Z AUTO 14003KT 10SM CLR 27/25 A3008 -120 87 1300 140/03 RMK AO2 T02720250
53915KARA ARA20160801215011608/01/16 21:50:31  5-MIN KARA 020350Z AUTO 14004KT 10SM CLR 27/25 A3008 -120 90 1200 130/04 RMK AO2 SLP186 T02670250
53915KARA ARA20160801215510908/01/16 21:55:31  5-MIN KARA 020355Z AUTO 13003KT 10SM CLR 27/25 A3008 -120 90 1200 130/03 RMK AO2 T02670250
53915KARA ARA20160801220010908/01/16 22:00:31  5-MIN KARA 020400Z AUTO 13004KT 10SM CLR 27/25 A3008 -120 90 1200 130/04 RMK AO2 T02670250
53915KARA ARA20160801220510908/01/16 22:05:31  5-MIN KARA 020405Z AUTO 14003KT 10SM CLR 27/25 A3008 -120 90 1200 140/03 RMK AO2 T02670250
53915KARA ARA20160801221010908/01/16 22:10:31  5-MIN KARA 020410Z AUTO 16003KT 10SM CLR 27/25 A3009 -120 90 1200 160/03 RMK AO2 T02670250
53915KARA ARA20160801221510908/01/16 22:15:31  5-MIN KARA 020415Z AUTO 17003KT 10SM CLR 27/25 A3009 -120 90 1200 160/03 RMK AO2 T02670250
53915KARA ARA20160801222010908/01/16 22:20:31  5-MIN KARA 020420Z AUTO 19003KT 10SM CLR 26/25 A3009 -120 93 1200 190/03 RMK AO2 T02610250
53915KARA ARA20160801222510908/01/16 22:25:31  5-MIN KARA 020425Z AUTO 18003KT 10SM CLR 26/25 A3008 -120 93 1200 180/03 RMK AO2 T02610250
53915KARA ARA20160801223010908/01/16 22:30:31  5-MIN KARA 020430Z AUTO 19003KT 10SM CLR 26/25 A3009 -120 93 1200 190/03 RMK AO2 T02610250
53915KARA ARA20160801223510908/01/16 22:35:31  5-MIN KARA 020435Z AUTO 00000KT 10SM CLR 27/25 A3009 -130 90 1200 000/00 RMK AO2 T02670250
53915KARA ARA20160801224010908/01/16 22:40:31  5-MIN KARA 020440Z AUTO 18003KT 10SM CLR 27/25 A3009 -120 90 1200 180/03 RMK AO2 T02670250
53915KARA ARA20160801224510908/01/16 22:45:31  5-MIN KARA 020445Z AUTO 17004KT 10SM CLR 26/25 A3008 -120 93 1200 170/04 RMK AO2 T02610250
53915KARA ARA20160801225011608/01/16 22:50:31  5-MIN KARA 020450Z AUTO 17003KT 10SM CLR 26/25 A3009 -120 93 1200 170/03 RMK AO2 SLP188 T02610250
53915KARA ARA20160801225510908/01/16 22:55:31  5-MIN KARA 020455Z AUTO 00000KT 10SM CLR 26/25 A3009 -130 93 1200 000/00 RMK AO2 T02610250
53915KARA ARA20160801230010908/01/16 23:00:31  5-MIN KARA 020500Z AUTO 13003KT 10SM CLR 26/25 A3009 -130 93 1200 130/03 RMK AO2 T02610250
53915KARA ARA20160801230510908/01/16 23:05:31  5-MIN KARA 020505Z AUTO 00000KT 10SM CLR 27/24 A3009 -120 87 1200 000/00 RMK AO2 T02670244
53915KARA ARA20160801231011208/01/16 23:10:31  5-MIN KARA 020510Z AUTO 00000KT 10SM FEW024 27/25 A3009 -120 90 1200 000/00 RMK AO2 T02670250
53915KARA ARA20160801231511208/01/16 23:15:31  5-MIN KARA 020515Z AUTO 00000KT 10SM FEW024 26/25 A3008 -120 93 1200 000/00 RMK AO2 T02610250
53915KARA ARA20160801232011208/01/16 23:20:31  5-MIN KARA 020520Z AUTO 00000KT 10SM FEW024 26/25 A3008 -120 93 1200 000/00 RMK AO2 T02610250
53915KARA ARA20160801232511208/01/16 23:25:31  5-MIN KARA 020525Z AUTO 22003KT 10SM FEW024 26/24 A3008 -110 90 1200 220/03 RMK AO2 T02610244
53915KARA ARA20160801233011208/01/16 23:30:31  5-MIN KARA 020530Z AUTO 20003KT 10SM FEW024 26/24 A3008 -120 93 1100 200/03 RMK AO2 T02560244
53915KARA ARA20160801233511208/01/16 23:35:31  5-MIN KARA 020535Z AUTO 00000KT 10SM FEW024 26/25 A3008 -110 93 1200 000/00 RMK AO2 T02610250
53915KARA ARA20160801234010908/01/16 23:40:31  5-MIN KARA 020540Z AUTO 00000KT 10SM CLR 26/25 A3008 -110 93 1200 000/00 RMK AO2 T02610250
53915KARA ARA20160801234510908/01/16 23:45:31  5-MIN KARA 020545Z AUTO 00000KT 10SM CLR 26/25 A3008 -110 93 1200 000/00 RMK AO2 T02610250
53915KARA ARA20160801235014408/01/16 23:50:31  5-MIN KARA 020550Z AUTO 00000KT 10SM CLR 26/25 A3008 -110 93 1200 000/00 RMK AO2 SLP183 T02610250 10311 20256 403330239 51012
53915KARA ARA20160801235510908/01/16 23:55:31  5-MIN KARA 020555Z AUTO 00000KT 10SM CLR 26/25 A3007 -110 93 1200 000/00 RMK AO2 T02610250
53915KARA ARA20160802000010908/02/16 00:00:31  5-MIN KARA 020600Z AUTO 00000KT 10SM CLR 26/25 A3007 -110 93 1200 000/00 RMK AO2 T02610250
53915KARA ARA20160802000510908/02/16 00:05:31  5-MIN KARA 020605Z AUTO 00000KT 10SM CLR 27/25 A3007 -110 90 1200 000/00 RMK AO2 T02670250
53915KARA ARA20160802001010908/02/16 00:10:31  5-MIN KARA 020610Z AUTO 00000KT 10SM CLR 27/25 A3007 -110 90 1200 000/00 RMK AO2 T02670250
53915KARA ARA20160802001510908/02/16 00:15:31  5-MIN KARA 020615Z AUTO 00000KT 10SM CLR 27/24 A3007 -110 87 1300 000/00 RMK AO2 T02670244
53915KARA ARA20160802002010908/02/16 00:20:31  5-MIN KARA 020620Z AUTO 19003KT 10SM CLR 26/24 A3006 -100 90 1200 190/03 RMK AO2 T02610244
53915KARA ARA20160802002510908/02/16 00:25:31  5-MIN KARA 020625Z AUTO 19003KT 10SM CLR 26/24 A3006 -100 90 1200 190/03 RMK AO2 T02610244
53915KARA ARA20160802003010908/02/16 00:30:31  5-MIN KARA 020630Z AUTO 18004KT 10SM CLR 26/24 A3006 -100 90 1200 180/04 RMK AO2 T02610244
53915KARA ARA20160802003510908/02/16 00:35:31  5-MIN KARA 020635Z AUTO 19003KT 10SM CLR 26/24 A3006 -100 90 1200 190/03 RMK AO2 T02610244
53915KARA ARA20160802004010908/02/16 00:40:31  5-MIN KARA 020640Z AUTO 20003KT 10SM CLR 26/24 A3006 -100 93 1100 200/03 RMK AO2 T02560244
53915KARA ARA20160802004510908/02/16 00:45:31  5-MIN KARA 020645Z AUTO 00000KT 10SM CLR 26/24 A3006 -100 93 1100 000/00 RMK AO2 T02560244
53915KARA ARA20160802005011608/02/16 00:50:31  5-MIN KARA 020650Z AUTO 00000KT 10SM CLR 26/24 A3006 -100 90 1200 000/00 RMK AO2 SLP178 T02610244
53915KARA ARA20160802005510908/02/16 00:55:31  5-MIN KARA 020655Z AUTO 00000KT 10SM CLR 26/24 A3006 -100 93 1100 000/00 RMK AO2 T02560244
53915KARA ARA20160802010010908/02/16 01:00:31  5-MIN KARA 020700Z AUTO 00000KT 10SM CLR 26/24 A3006 -100 93 1100 000/00 RMK AO2 T02560244
53915KARA ARA20160802010510908/02/16 01:05:31  5-MIN KARA 020705Z AUTO 00000KT 10SM CLR 26/24 A3006 -100 93 1100 000/00 RMK AO2 T02560244
53915KARA ARA20160802011010908/02/16 01:10:31  5-MIN KARA 020710Z AUTO 00000KT 10SM CLR 26/24 A3006 -100 90 1200 000/00 RMK AO2 T02610244
53915KARA ARA20160802011510908/02/16 01:15:31  5-MIN KARA 020715Z AUTO 00000KT 10SM CLR 26/24 A3006 -100 90 1200 000/00 RMK AO2 T02610244
53915KARA ARA20160802012010908/02/16 01:20:31  5-MIN KARA 020720Z AUTO 00000KT 10SM CLR 26/24 A3006 -100 90 1200 000/00 RMK AO2 T02610244
53915KARA ARA20160802012510908/02/16 01:25:31  5-MIN KARA 020725Z AUTO 00000KT 10SM CLR 26/24 A3007 -100 90 1200 000/00 RMK AO2 T02610244
53915KARA ARA20160802013010908/02/16 01:30:31  5-MIN KARA 020730Z AUTO 00000KT 10SM CLR 26/24 A3007 -100 93 1100 000/00 RMK AO2 T02560244
53915KARA ARA20160802013510908/02/16 01:35:31  5-MIN KARA 020735Z AUTO 00000KT 10SM CLR 26/24 A3007 -110 90 1200 000/00 RMK AO2 T02610244
53915KARA ARA20160802014010908/02/16 01:40:31  5-MIN KARA 020740Z AUTO 00000KT 10SM CLR 26/25 A3007 -100 93 1200 000/00 RMK AO2 T02610250
53915KARA ARA20160802014510908/02/16 01:45:31  5-MIN KARA 020745Z AUTO 00000KT 10SM CLR 26/24 A3007 -110 90 1200 000/00 RMK AO2 T02610244
53915KARA ARA20160802015011608/02/16 01:50:31  5-MIN KARA 020750Z AUTO 00000KT 10SM CLR 26/24 A3007 -110 90 1200 000/00 RMK AO2 SLP181 T02610244
53915KARA ARA20160802015510908/02/16 01:55:31  5-MIN KARA 020755Z AUTO 00000KT 10SM CLR 26/24 A3007 -110 90 1200 000/00 RMK AO2 T02610244
53915KARA ARA20160802020010908/02/16 02:00:31  5-MIN KARA 020800Z AUTO 00000KT 10SM CLR 26/24 A3007 -110 90 1200 000/00 RMK AO2 T02610244
53915KARA ARA20160802020510908/02/16 02:05:31  5-MIN KARA 020805Z AUTO 00000KT 10SM CLR 26/24 A3007 -110 90 1200 000/00 RMK AO2 T02610244
53915KARA ARA20160802021010908/02/16 02:10:31  5-MIN KARA 020810Z AUTO 00000KT 10SM CLR 26/24 A3007 -110 90 1200 000/00 RMK AO2 T02610244
53915KARA ARA20160802021510908/02/16 02:15:31  5-MIN KARA 020815Z AUTO 00000KT 10SM CLR 26/24 A3007 -110 90 1200 000/00 RMK AO2 T02610244
53915KARA ARA20160802022010908/02/16 02:20:31  5-MIN KARA 020820Z AUTO 00000KT 10SM CLR 26/24 A3007 -100 90 1200 000/00 RMK AO2 T02610244
53915KARA ARA20160802022510808/02/16 02:25:31  5-MIN KARA 020825Z AUTO 00000KT 9SM CLR 26/24 A3007 -110 93 1100 000/00 RMK AO2 T02560244
53915KARA ARA20160802023010808/02/16 02:30:31  5-MIN KARA 020830Z AUTO 00000KT 9SM CLR 26/24 A3007 -110 93 1100 000/00 RMK AO2 T02560244
53915KARA ARA20160802023512008/02/16 02:35:31  5-MIN KARA 020835Z AUTO 00000KT 10SM CLR 26/24 A3007 -100 93 1100 000/00 RMK AO2 LTG DSNT S T02560244
53915KARA ARA20160802024012008/02/16 02:40:31  5-MIN KARA 020840Z AUTO 00000KT 10SM CLR 26/24 A3007 -110 93 1100 000/00 RMK AO2 LTG DSNT S T02560244
53915KARA ARA20160802024512008/02/16 02:45:31  5-MIN KARA 020845Z AUTO 00000KT 10SM CLR 26/24 A3007 -110 93 1100 000/00 RMK AO2 LTG DSNT S T02560244
53915KARA ARA20160802025013308/02/16 02:50:31  5-MIN KARA 020850Z AUTO 00000KT 10SM CLR 26/24 A3007 -110 93 1100 000/00 RMK AO2 LTG DSNT S SLP182 T02560244 50005
53915KARA ARA20160802025510908/02/16 02:55:31  5-MIN KARA 020855Z AUTO 00000KT 10SM CLR 26/24 A3007 -110 93 1100 000/00 RMK AO2 T02560244
53915KARA ARA20160802030010908/02/16 03:00:31  5-MIN KARA 020900Z AUTO 00000KT 10SM CLR 26/24 A3007 -110 93 1100 000/00 RMK AO2 T02560244
53915KARA ARA20160802030510908/02/16 03:05:31  5-MIN KARA 020905Z AUTO 00000KT 10SM CLR 26/24 A3007 -110 93 1100 000/00 RMK AO2 T02560244
53915KARA ARA20160802031010908/02/16 03:10:31  5-MIN KARA 020910Z AUTO 00000KT 10SM CLR 25/24 A3007 -110 93 1100 000/00 RMK AO2 T02500239
53915KARA ARA20160802031510808/02/16 03:15:31  5-MIN KARA 020915Z AUTO 00000KT 9SM CLR 25/24 A3007 -100 93 1100 000/00 RMK AO2 T02500239
53915KARA ARA20160802032010808/02/16 03:20:31  5-MIN KARA 020920Z AUTO 00000KT 9SM CLR 25/24 A3007 -110 93 1100 000/00 RMK AO2 T02500239
53915KARA ARA20160802032510808/02/16 03:25:31  5-MIN KARA 020925Z AUTO 00000KT 9SM CLR 25/24 A3007 -110 97 1100 000/00 RMK AO2 T02500244
53915KARA ARA20160802033010808/02/16 03:30:31  5-MIN KARA 020930Z AUTO 00000KT 9SM CLR 25/24 A3007 -110 97 1100 000/00 RMK AO2 T02500244
53915KARA ARA20160802033510808/02/16 03:35:31  5-MIN KARA 020935Z AUTO 00000KT 9SM CLR 25/24 A3007 -110 93 1100 000/00 RMK AO2 T02500239
53915KARA ARA20160802034010808/02/16 03:40:31  5-MIN KARA 020940Z AUTO 00000KT 9SM CLR 25/24 A3007 -110 93 1100 000/00 RMK AO2 T02500239
53915KARA ARA20160802034510808/02/16 03:45:31  5-MIN KARA 020945Z AUTO 00000KT 8SM CLR 25/24 A3007 -110 93 1100 000/00 RMK AO2 T02500239
53915KARA ARA20160802035011508/02/16 03:50:31  5-MIN KARA 020950Z AUTO 00000KT 7SM CLR 25/24 A3007 -110 97 1100 000/00 RMK AO2 SLP182 T02500244
53915KARA ARA20160802035510808/02/16 03:55:31  5-MIN KARA 020955Z AUTO 00000KT 7SM CLR 25/24 A3007 -110 93 1100 000/00 RMK AO2 T02500239
53915KARA ARA20160802040011108/02/16 04:00:31  5-MIN KARA 021000Z AUTO 00000KT 6SM BR CLR 24/24 A3007 -110 97 1000 000/00 RMK AO2 T02440239
53915KARA ARA20160802040511108/02/16 04:05:31  5-MIN KARA 021005Z AUTO 00000KT 6SM BR CLR 24/24 A3007 -110 97 1000 000/00 RMK AO2 T02440239
53915KARA ARA20160802041011108/02/16 04:10:31  5-MIN KARA 021010Z AUTO 00000KT 6SM BR CLR 25/24 A3007 -110 93 1100 000/00 RMK AO2 T02500239
53915KARA ARA20160802041510808/02/16 04:15:31  5-MIN KARA 021015Z AUTO 00000KT 7SM CLR 25/24 A3007 -110 97 1100 000/00 RMK AO2 T02500244
53915KARA ARA20160802042010808/02/16 04:20:31  5-MIN KARA 021020Z AUTO 00000KT 7SM CLR 26/24 A3008 -110 93 1100 000/00 RMK AO2 T02560244
53915KARA ARA20160802042510808/02/16 04:25:31  5-MIN KARA 021025Z AUTO 00000KT 7SM CLR 26/24 A3008 -110 93 1100 000/00 RMK AO2 T02560244
53915KARA ARA20160802043011108/02/16 04:30:31  5-MIN KARA 021030Z AUTO 00000KT 8SM FEW030 25/24 A3007 -110 97 1100 000/00 RMK AO2 T02500244
53915KARA ARA20160802043510608/02/16 04:35:31  5-MIN KARA 021035Z 00000KT 9SM FEW030 26/24 A3007 -110 93 1100 000/00 RMK AO2 T02560244
53915KARA ARA20160802044010608/02/16 04:40:31  5-MIN KARA 021040Z 00000KT 9SM SCT030 25/24 A3007 -110 97 1100 000/00 RMK AO2 T02500244
53915KARA ARA20160802044512208/02/16 04:45:31  5-MIN KARA 021045Z 00000KT 8SM -RA BKN030 25/24 A3007 -110 97 1100 000/00 RMK AO2 RAB44 P0000 T02500244
53915KARA ARA20160802045012908/02/16 04:50:31  5-MIN KARA 021050Z 00000KT 8SM -RA BKN030 25/24 A3008 -110 97 1100 000/00 RMK AO2 RAB44 SLP184 P0000 T02500244
53915KARA ARA20160802045511708/02/16 04:55:31  5-MIN KARA 021055Z 00000KT 10SM -RA BKN030 25/24 A3008 -110 97 1100 000/00 RMK AO2 P0000 T02500244
53915KARA ARA20160802050011708/02/16 05:00:31  5-MIN KARA 021100Z 00000KT 10SM -RA BKN030 25/24 A3008 -110 93 1100 000/00 RMK AO2 P0000 T02500239
53915KARA ARA20160802050511908/02/16 05:05:31  5-MIN KARA 021105Z 00000KT 10SM BKN030 25/24 A3008 -110 97 1100 000/00 RMK AO2 RAE03 P0000 T02500244
53915KARA ARA20160802051011908/02/16 05:10:31  5-MIN KARA 021110Z 00000KT 10SM SCT029 26/24 A3008 -120 93 1100 000/00 RMK AO2 RAE03 P0000 T02560244
53915KARA ARA20160802051511908/02/16 05:15:31  5-MIN KARA 021115Z 10003KT 10SM SCT029 25/24 A3008 -120 97 1000 100/03 RMK AO2 RAE03 P0000 T02500244
53915KARA ARA20160802052011908/02/16 05:20:31  5-MIN KARA 021120Z 00000KT 10SM FEW029 26/24 A3009 -120 93 1100 000/00 RMK AO2 RAE03 P0000 T02560244
53915KARA ARA20160802052511908/02/16 05:25:31  5-MIN KARA 021125Z 00000KT 10SM SCT029 26/24 A3009 -120 93 1100 000/00 RMK AO2 RAE03 P0000 T02560244
53915KARA ARA20160802053011908/02/16 05:30:31  5-MIN KARA 021130Z 00000KT 10SM FEW029 25/24 A3009 -120 97 1000 000/00 RMK AO2 RAE03 P0000 T02500244
53915KARA ARA20160802053511808/02/16 05:35:31  5-MIN KARA 021135Z 00000KT 9SM FEW028 26/24 A3009 -130 93 1100 000/00 RMK AO2 RAE03 P0000 T02560244
53915KARA ARA20160802054011908/02/16 05:40:31  5-MIN KARA 021140Z 00000KT 10SM FEW028 26/24 A3009 -130 93 1100 000/00 RMK AO2 RAE03 P0000 T02560244
53915KARA ARA20160802054511908/02/16 05:45:31  5-MIN KARA 021145Z 00000KT 10SM FEW028 26/24 A3009 -130 93 1100 000/00 RMK AO2 RAE03 P0000 T02560244
53915KARA ARA20160802055015608/02/16 05:50:31  5-MIN KARA 021150Z 00000KT 10SM FEW028 26/24 A3010 -130 93 1100 000/00 RMK AO2 RAE03 SLP190 P0000 60000 70001 T02560244 10267 20244 55001
53915KARA ARA20160802055510408/02/16 05:55:31  5-MIN KARA 021155Z 00000KT 10SM CLR 26/24 A3010 -130 93 1100 000/00 RMK AO2 T02560244
53915KARA ARA20160802060010408/02/16 06:00:31  5-MIN KARA 021200Z 00000KT 10SM CLR 26/24 A3010 -130 93 1100 000/00 RMK AO2 T02560244
53915KARA ARA20160802060510408/02/16 06:05:31  5-MIN KARA 021205Z 02003KT 10SM CLR 26/24 A3010 -130 90 1200 020/03 RMK AO2 T02610244
53915KARA ARA20160802061010708/02/16 06:10:31  5-MIN KARA 021210Z 03003KT 10SM FEW050 26/24 A3010 -130 90 1200 030/03 RMK AO2 T02610244
53915KARA ARA20160802061510708/02/16 06:15:31  5-MIN KARA 021215Z 00000KT 10SM FEW050 26/25 A3010 -140 93 1200 000/00 RMK AO2 T02610250
53915KARA ARA20160802062010408/02/16 06:20:31  5-MIN KARA 021220Z 00000KT 10SM CLR 27/25 A3010 -130 90 1200 000/00 RMK AO2 T02670250
53915KARA ARA20160802062510408/02/16 06:25:31  5-MIN KARA 021225Z 00000KT 10SM CLR 27/26 A3010 -130 93 1200 000/00 RMK AO2 T02670256
53915KARA ARA20160802063010408/02/16 06:30:31  5-MIN KARA 021230Z 00000KT 10SM CLR 27/26 A3010 -130 93 1200 000/00 RMK AO2 T02670256
53915KARA ARA20160802063510408/02/16 06:35:31  5-MIN KARA 021235Z 00000KT 10SM CLR 27/26 A3010 -130 90 1300 000/00 RMK AO2 T02720256
53915KARA ARA20160802064011508/02/16 06:40:31  5-MIN KARA 021240Z 00000KT 10SM CLR 28/26 A3010 -130 90 1300 000/00 RMK AO2 LTG DSNT S T02780261
53915KARA ARA20160802064511508/02/16 06:45:31  5-MIN KARA 021245Z 03003KT 10SM CLR 28/26 A3010 -130 85 1400 030/03 RMK AO2 LTG DSNT S T02830256
53915KARA ARA20160802065012208/02/16 06:50:31  5-MIN KARA 021250Z 02003KT 10SM CLR 28/26 A3010 -130 85 1400 020/03 RMK AO2 LTG DSNT S SLP192 T02830256
53915KARA ARA20160802065510408/02/16 06:55:31  5-MIN KARA 021255Z 02003KT 10SM CLR 29/26 A3010 -130 82 1500 020/03 RMK AO2 T02890256
53915KARA ARA20160802070010408/02/16 07:00:31  5-MIN KARA 021300Z 02003KT 10SM CLR 29/26 A3010 -130 82 1500 020/03 RMK AO2 T02890256
53915KARA ARA20160802070510408/02/16 07:05:31  5-MIN KARA 021305Z 00000KT 10SM CLR 29/26 A3010 -130 82 1500 000/00 RMK AO2 T02890256
53915KARA ARA20160802071010408/02/16 07:10:31  5-MIN KARA 021310Z 01004KT 10SM CLR 29/26 A3010 -130 82 1500 010/04 RMK AO2 T02890256
53915KARA ARA20160802071510408/02/16 07:15:31  5-MIN KARA 021315Z 02004KT 10SM CLR 29/26 A3010 -140 82 1500 020/04 RMK AO2 T02890256
53915KARA ARA20160802072010408/02/16 07:20:31  5-MIN KARA 021320Z 36004KT 10SM CLR 29/26 A3010 -140 79 1500 360/04 RMK AO2 T02940256
53915KARA ARA20160802072510408/02/16 07:25:31  5-MIN KARA 021325Z 02003KT 10SM CLR 29/26 A3011 -140 79 1500 020/03 RMK AO2 T02940256
53915KARA ARA20160802073010408/02/16 07:30:31  5-MIN KARA 021330Z 36004KT 10SM CLR 29/26 A3011 -140 79 1500 360/04 RMK AO2 T02940256
53915KARA ARA20160802073510408/02/16 07:35:31  5-MIN KARA 021335Z 02004KT 10SM CLR 29/26 A3011 -140 79 1500 010/04 RMK AO2 T02940256
53915KARA ARA20160802074010408/02/16 07:40:31  5-MIN KARA 021340Z 01004KT 10SM CLR 30/26 A3011 -140 77 1600 010/04 RMK AO2 T03000256
53915KARA ARA20160802074510408/02/16 07:45:31  5-MIN KARA 021345Z 34004KT 10SM CLR 30/26 A3011 -140 77 1600 340/04 RMK AO2 T03000256
53915KARA ARA20160802075011108/02/16 07:50:31  5-MIN KARA 021350Z 35004KT 10SM CLR 30/26 A3011 -140 77 1600 350/04 RMK AO2 SLP195 T03000256
53915KARA ARA20160802075510408/02/16 07:55:31  5-MIN KARA 021355Z 34003KT 10SM CLR 31/26 A3011 -140 74 1600 340/03 RMK AO2 T03060256
53915KARA ARA20160802080010408/02/16 08:00:31  5-MIN KARA 021400Z 34004KT 10SM CLR 31/26 A3011 -140 74 1600 340/04 RMK AO2 T03060256
53915KARA ARA20160802080510408/02/16 08:05:31  5-MIN KARA 021405Z 34003KT 10SM CLR 31/26 A3011 -140 74 1600 340/03 RMK AO2 T03060256
53915KARA ARA20160802081010408/02/16 08:10:31  5-MIN KARA 021410Z 34004KT 10SM CLR 31/26 A3011 -140 74 1600 340/04 RMK AO2 T03060256
53915KARA ARA20160802081510408/02/16 08:15:31  5-MIN KARA 021415Z 34004KT 10SM CLR 31/26 A3011 -140 72 1700 340/04 RMK AO2 T03110256
53915KARA ARA20160802082010408/02/16 08:20:31  5-MIN KARA 021420Z 34004KT 10SM CLR 31/26 A3011 -140 72 1700 340/04 RMK AO2 T03110256
53915KARA ARA20160802082510408/02/16 08:25:31  5-MIN KARA 021425Z 32005KT 10SM CLR 31/26 A3011 -150 72 1700 320/05 RMK AO2 T03110256
53915KARA ARA20160802083010408/02/16 08:30:31  5-MIN KARA 021430Z 32004KT 10SM CLR 31/26 A3011 -150 74 1600 320/04 RMK AO2 T03060256
53915KARA ARA20160802083510408/02/16 08:35:31  5-MIN KARA 021435Z 34005KT 10SM CLR 31/25 A3012 -150 69 1700 340/05 RMK AO2 T03110250
53915KARA ARA20160802084010408/02/16 08:40:31  5-MIN KARA 021440Z 35005KT 10SM CLR 31/25 A3011 -150 69 1700 350/05 RMK AO2 T03110250
53915KARA ARA20160802084510708/02/16 08:45:31  5-MIN KARA 021445Z 33005KT 10SM FEW021 31/26 A3012 -150 72 1700 330/05 RMK AO2 T03110256
53915KARA ARA20160802085012008/02/16 08:50:31  5-MIN KARA 021450Z VRB05KT 10SM FEW021 32/25 A3012 -150 67 1800 VRB/05 RMK AO2 SLP197 T03170250 53009
53915KARA ARA20160802085510708/02/16 08:55:31  5-MIN KARA 021455Z VRB05KT 10SM FEW020 31/25 A3011 -150 69 1700 VRB/05 RMK AO2 T03110250
53915KARA ARA20160802090010708/02/16 09:00:31  5-MIN KARA 021500Z 32005KT 10SM FEW020 31/25 A3011 -150 69 1700 320/05 RMK AO2 T03110250
53915KARA ARA20160802090510708/02/16 09:05:31  5-MIN KARA 021505Z 31004KT 10SM FEW020 31/25 A3011 -150 69 1700 310/04 RMK AO2 T03110250
53915KARA ARA20160802091010708/02/16 09:10:31  5-MIN KARA 021510Z 03005KT 10SM FEW022 31/25 A3011 -150 69 1700 030/05 RMK AO2 T03110250
53915KARA ARA20160802091510708/02/16 09:15:31  5-MIN KARA 021515Z 01005KT 10SM FEW025 32/24 A3011 -140 65 1800 010/05 RMK AO2 T03170244
53915KARA ARA20160802092010708/02/16 09:20:31  5-MIN KARA 021520Z 01005KT 10SM SCT027 32/24 A3011 -150 65 1800 010/05 RMK AO2 T03170244
53915KARA ARA20160802092510708/02/16 09:25:31  5-MIN KARA 021525Z 02005KT 10SM FEW027 32/24 A3011 -150 63 1800 020/05 RMK AO2 T03220244
53915KARA ARA20160802093010708/02/16 09:30:31  5-MIN KARA 021530Z 36003KT 10SM FEW027 32/24 A3011 -140 63 1800 360/03 RMK AO2 T03220244
53915KARA ARA20160802093510708/02/16 09:35:31  5-MIN KARA 021535Z 36005KT 10SM FEW027 32/24 A3011 -140 61 1800 360/05 RMK AO2 T03220239
53915KARA ARA20160802094010708/02/16 09:40:31  5-MIN KARA 021540Z 35005KT 10SM FEW027 32/24 A3011 -150 61 1800 350/05 RMK AO2 T03220239
53915KARA ARA20160802094510408/02/16 09:45:31  5-MIN KARA 021545Z 33004KT 10SM CLR 32/24 A3011 -150 61 1800 330/04 RMK AO2 T03220239
53915KARA ARA20160802095011408/02/16 09:50:31  5-MIN KARA 021550Z VRB03KT 10SM FEW029 32/24 A3011 -150 63 1800 VRB/03 RMK AO2 SLP197 T03220244
53915KARA ARA20160802095510708/02/16 09:55:31  5-MIN KARA 021555Z VRB03KT 10SM FEW029 33/24 A3011 -150 61 1900 VRB/03 RMK AO2 T03280244
53915KARA ARA20160802100010708/02/16 10:00:31  5-MIN KARA 021600Z 36005KT 10SM FEW030 32/24 A3011 -150 63 1800 360/05 RMK AO2 T03220244
53915KARA ARA20160802100510708/02/16 10:05:31  5-MIN KARA 021605Z 35003KT 10SM FEW030 32/24 A3011 -150 63 1800 340/03 RMK AO2 T03220244
53915KARA ARA20160802101010708/02/16 10:10:31  5-MIN KARA 021610Z 02004KT 10SM FEW030 33/24 A3011 -150 59 1900 020/04 RMK AO2 T03330244
53915KARA ARA20160802101510708/02/16 10:15:31  5-MIN KARA 021615Z VRB06KT 10SM FEW030 33/25 A3011 -150 61 1900 VRB/06 RMK AO2 T03330250
53915KARA ARA20160802102011408/02/16 10:20:31  5-MIN KARA 021620Z VRB05KT 10SM FEW033 SCT041 33/24 A3011 -150 59 1900 VRB/05 RMK AO2 T03330244
53915KARA ARA20160802102511408/02/16 10:25:31  5-MIN KARA 021625Z 34003KT 10SM SCT033 BKN041 33/24 A3012 -150 61 1900 340/03 RMK AO2 T03280244
53915KARA ARA20160802103011408/02/16 10:30:31  5-MIN KARA 021630Z VRB05KT 10SM BKN033 BKN041 32/24 A3012 -150 61 1800 VRB/05 RMK AO2 T03220239
53915KARA ARA20160802103511408/02/16 10:35:31  5-MIN KARA 021635Z 33005KT 10SM BKN035 BKN041 33/24 A3012 -150 61 1900 330/05 RMK AO2 T03280244
53915KARA ARA20160802104011408/02/16 10:40:31  5-MIN KARA 021640Z 36004KT 10SM BKN035 BKN042 32/24 A3012 -150 63 1800 360/04 RMK AO2 T03220244
53915KARA ARA20160802104511408/02/16 10:45:31  5-MIN KARA 021645Z 33007KT 10SM BKN033 BKN041 32/24 A3012 -150 63 1800 330/07 RMK AO2 T03220244
53915KARA ARA20160802105011408/02/16 10:50:31  5-MIN KARA 021650Z 33004KT 10SM BKN033 33/24 A3012 -150 61 1900 330/04 RMK AO2 SLP198 T03280244
53915KARA ARA20160802105510708/02/16 10:55:31  5-MIN KARA 021655Z 01006KT 10SM SCT033 33/25 A3012 -150 61 1900 010/06 RMK AO2 T03330250
53915KARA ARA20160802110010708/02/16 11:00:31  5-MIN KARA 021700Z 00000KT 10SM SCT035 34/24 A3012 -150 57 2000 000/00 RMK AO2 T03390244
53915KARA ARA20160802110510708/02/16 11:05:31  5-MIN KARA 021705Z 35006KT 10SM SCT035 34/25 A3011 -150 59 2000 350/06 RMK AO2 T03390250
53915KARA ARA20160802111010708/02/16 11:10:31  5-MIN KARA 021710Z VRB05KT 10SM SCT034 33/25 A3011 -150 63 1900 VRB/05 RMK AO2 T03280250
53915KARA ARA20160802111510708/02/16 11:15:31  5-MIN KARA 021715Z VRB04KT 10SM FEW032 33/25 A3011 -150 61 1900 VRB/04 RMK AO2 T03330250
53915KARA ARA20160802112010708/02/16 11:20:31  5-MIN KARA 021720Z 35003KT 10SM FEW032 34/25 A3011 -150 59 2000 350/03 RMK AO2 T03390250
53915KARA ARA20160802112510708/02/16 11:25:31  5-MIN KARA 021725Z VRB05KT 10SM FEW032 34/25 A3011 -150 59 2000 VRB/05 RMK AO2 T03390250
53915KARA ARA20160802113010708/02/16 11:30:31  5-MIN KARA 021730Z 01005KT 10SM FEW032 34/25 A3011 -140 59 2000 010/05 RMK AO2 T03390250
53915KARA ARA20160802113510408/02/16 11:35:31  5-MIN KARA 021735Z 02003KT 10SM CLR 34/24 A3011 -140 57 2000 020/03 RMK AO2 T03390244
53915KARA ARA20160802114011608/02/16 11:40:31  5-MIN KARA 021740Z 35007KT 10SM CLR 34/24 A3011 -140 57 2000 350/07 RMK AO2 LTG DSNT SE T03390244
53915KARA ARA20160802114511608/02/16 11:45:31  5-MIN KARA 021745Z 00000KT 10SM CLR 33/24 A3010 -140 59 2000 000/00 RMK AO2 LTG DSNT SE T03330244
53915KARA ARA20160802115014408/02/16 11:50:31  5-MIN KARA 021750Z 03008KT 10SM FEW033 34/24 A3010 -140 57 2000 030/08 RMK AO2 LTG DSNT SE SLP192 T03390244 10339 20256 53006
53915KARA ARA20160802115511908/02/16 11:55:31  5-MIN KARA 021755Z 01007KT 10SM FEW033 34/24 A3010 -130 57 2000 010/07 RMK AO2 LTG DSNT SE T03390244
53915KARA ARA20160802120011908/02/16 12:00:31  5-MIN KARA 021800Z 05006KT 10SM FEW033 34/24 A3010 -130 57 2000 050/06 RMK AO2 LTG DSNT SE T03390244
53915KARA ARA20160802120511908/02/16 12:05:31  5-MIN KARA 021805Z 01006KT 10SM FEW034 34/25 A3010 -130 59 2000 010/06 RMK AO2 LTG DSNT SE T03390250
53915KARA ARA20160802121011908/02/16 12:10:31  5-MIN KARA 021810Z VRB05KT 10SM FEW034 33/24 A3010 -130 59 2000 VRB/05 RMK AO2 LTG DSNT SE T03330244
53915KARA ARA20160802121511908/02/16 12:15:31  5-MIN KARA 021815Z VRB04KT 10SM FEW034 34/25 A3009 -130 57 2100 VRB/04 RMK AO2 LTG DSNT SE T03440250
53915KARA ARA20160802122010708/02/16 12:20:31  5-MIN KARA 021820Z 00000KT 10SM FEW034 34/24 A3009 -130 55 2100 000/00 RMK AO2 T03440244
53915KARA ARA20160802122510408/02/16 12:25:31  5-MIN KARA 021825Z VRB03KT 10SM CLR 34/24 A3009 -130 55 2100 VRB/03 RMK AO2 T03440244
53915KARA ARA20160802123010708/02/16 12:30:31  5-MIN KARA 021830Z 35004KT 10SM FEW034 34/24 A3009 -130 57 2000 350/04 RMK AO2 T03390244
53915KARA ARA20160802123510708/02/16 12:35:31  5-MIN KARA 021835Z 00000KT 10SM SCT034 34/24 A3009 -130 55 2100 000/00 RMK AO2 T03440244
53915KARA ARA20160802124010708/02/16 12:40:31  5-MIN KARA 021840Z 36003KT 10SM BKN035 33/24 A3009 -120 57 2000 350/03 RMK AO2 T03330239
53915KARA ARA20160802124511408/02/16 12:45:31  5-MIN KARA 021845Z 02004KT 10SM BKN035 BKN055 33/24 A3008 -120 59 2000 020/04 RMK AO2 T03330244
53915KARA ARA20160802125012108/02/16 12:50:31  5-MIN KARA 021850Z 33005KT 10SM SCT035 BKN055 33/24 A3008 -120 59 2000 330/05 RMK AO2 SLP186 T03330244
53915KARA ARA20160802125511408/02/16 12:55:31  5-MIN KARA 021855Z 02005KT 10SM SCT035 BKN055 34/24 A3008 -110 55 2100 020/05 RMK AO2 T03440244
53915KARA ARA20160802130011408/02/16 13:00:31  5-MIN KARA 021900Z VRB03KT 10SM SCT035 SCT055 34/23 A3008 -110 52 2100 VRB/03 RMK AO2 T03440233
53915KARA ARA20160802130510408/02/16 13:05:31  5-MIN KARA 021905Z 10SM FEW035 SCT055 35/24 A3008 -110 52 2200 M /M RMK AO2 T03500239
53915KARA ARA20160802131010708/02/16 13:10:31  5-MIN KARA 021910Z 00000KT 10SM FEW055 35/24 A3007 -110 52 2200 000/00 RMK AO2 T03500239
53915KARA ARA20160802131510708/02/16 13:15:31  5-MIN KARA 021915Z 00000KT 10SM FEW040 34/24 A3007 -110 53 2100 000/00 RMK AO2 T03440239
53915KARA ARA20160802132011408/02/16 13:20:31  5-MIN KARA 021920Z 03006KT 10SM SCT040 SCT050 34/24 A3007 -110 53 2100 030/06 RMK AO2 T03440239
53915KARA ARA20160802132512108/02/16 13:25:31  5-MIN KARA 021925Z 02004KT 10SM FEW040 SCT050 BKN060 34/24 A3007 -100 57 2100 020/04 RMK AO2 T03390244
53915KARA ARA20160802133012108/02/16 13:30:31  5-MIN KARA 021930Z 03004KT 10SM FEW041 FEW050 BKN060 34/24 A3006 -100 57 2100 030/04 RMK AO2 T03390244
53915KARA ARA20160802133512608/02/16 13:35:31  5-MIN KARA 021935Z AUTO 04003KT 10SM FEW041 FEW050 SCT060 34/24 A3006 -100 55 2100 040/03 RMK AO2 T03440244
53915KARA ARA20160802134012608/02/16 13:40:31  5-MIN KARA 021940Z AUTO 05003KT 10SM FEW041 FEW050 SCT060 35/24 A3006 -100 52 2200 040/03 RMK AO2 T03500239
53915KARA ARA20160802134512608/02/16 13:45:31  5-MIN KARA 021945Z AUTO 00000KT 10SM FEW041 SCT050 SCT060 34/23 A3006 -100 52 2100 000/00 RMK AO2 T03440233
53915KARA ARA20160802135012608/02/16 13:50:31  5-MIN KARA 021950Z AUTO 02005KT 10SM SCT039 SCT060 34/24 A3006 -100 55 2100 020/05 RMK AO2 SLP177 T03440244
53915KARA ARA20160802135511108/02/16 13:55:31  5-MIN KARA 021955Z AUTO 02004KT 10SM FEW039 34/24 A3005 -90 55 2100 020/04 RMK AO2 T03440244
53915KARA ARA20160802140011108/02/16 14:00:31  5-MIN KARA 022000Z AUTO 04004KT 10SM FEW039 34/24 A3006 -90 55 2100 040/04 RMK AO2 T03440244
53915KARA ARA20160802140511108/02/16 14:05:31  5-MIN KARA 022005Z AUTO VRB03KT 10SM FEW039 34/24 A3006 -90 55 2100 VRB/03 RMK AO2 T03440244
53915KARA ARA20160802141011108/02/16 14:10:31  5-MIN KARA 022010Z AUTO VRB03KT 10SM FEW039 34/24 A3005 -90 53 2100 VRB/03 RMK AO2 T03440239
53915KARA ARA20160802141511108/02/16 14:15:31  5-MIN KARA 022015Z AUTO 00000KT 10SM FEW039 34/24 A3005 -90 53 2100 000/00 RMK AO2 T03440239
53915KARA ARA20160802142010808/02/16 14:20:31  5-MIN KARA 022020Z AUTO 07005KT 10SM CLR 34/24 A3005 -90 55 2100 070/05 RMK AO2 T03390239
53915KARA ARA20160802142510808/02/16 14:25:31  5-MIN KARA 022025Z AUTO 04003KT 10SM CLR 34/24 A3005 -90 55 2100 040/03 RMK AO2 T03390239
53915KARA ARA20160802143011108/02/16 14:30:31  5-MIN KARA 022030Z AUTO VRB04KT 10SM FEW044 34/24 A3005 -90 53 2100 VRB/04 RMK AO2 T03440239
53915KARA ARA20160802143512308/02/16 14:35:31  5-MIN KARA 022035Z AUTO 09005KT 10SM SCT040 34/24 A3005 -80 55 2100 090/05 RMK AO2 LTG DSNT SE T03440244
53915KARA ARA20160802144012308/02/16 14:40:31  5-MIN KARA 022040Z AUTO 11003KT 10SM SCT040 34/24 A3004 -80 55 2100 110/03 RMK AO2 LTG DSNT SE T03390239
53915KARA ARA20160802144513008/02/16 14:45:31  5-MIN KARA 022045Z AUTO VRB04KT 10SM SCT040 SCT060 34/24 A3004 -80 55 2100 VRB/04 RMK AO2 LTG DSNT SE T03390239
53915KARA ARA20160802145014308/02/16 14:50:31  5-MIN KARA 022050Z AUTO 06004KT 10SM FEW040 SCT055 34/24 A3004 -80 55 2100 060/04 RMK AO2 LTG DSNT SE SLP171 T03390239 58005
53915KARA ARA20160802145511108/02/16 14:55:31  5-MIN KARA 022055Z AUTO 11003KT 10SM FEW040 34/24 A3004 -80 55 2100 110/03 RMK AO2 T03390239
53915KARA ARA20160802150011108/02/16 15:00:31  5-MIN KARA 022100Z AUTO 10003KT 10SM FEW040 34/24 A3004 -80 57 2100 100/03 RMK AO2 T03390244
53915KARA ARA20160802150511108/02/16 15:05:31  5-MIN KARA 022105Z AUTO 00000KT 10SM FEW040 34/24 A3004 -80 53 2200 000/00 RMK AO2 T03440239
53915KARA ARA20160802151011108/02/16 15:10:31  5-MIN KARA 022110Z AUTO 10003KT 10SM FEW042 34/24 A3003 -70 55 2200 100/03 RMK AO2 T03440244
53915KARA ARA20160802151510808/02/16 15:15:31  5-MIN KARA 022115Z AUTO 07004KT 10SM CLR 34/24 A3003 -70 55 2200 070/04 RMK AO2 T03440244
53915KARA ARA20160802152010808/02/16 15:20:31  5-MIN KARA 022120Z AUTO 08003KT 10SM CLR 34/24 A3003 -70 53 2200 070/03 RMK AO2 T03440239
53915KARA ARA20160802152511608/02/16 15:25:31  5-MIN KARA 022125Z AUTO VRB03KT 10SM VCTS SCT047 34/24 A3003 -70 55 2200 VRB/03 RMK AO2 T03440244
53915KARA ARA20160802153011608/02/16 15:30:31  5-MIN KARA 022130Z AUTO 13003KT 10SM VCTS BKN045 34/24 A3003 -70 57 2100 130/03 RMK AO2 T03390244
53915KARA ARA20160802153511608/02/16 15:35:31  5-MIN KARA 022135Z AUTO 00000KT 10SM VCTS BKN045 33/24 A3003 -70 57 2000 000/00 RMK AO2 T03330239
53915KARA ARA20160802154011808/02/16 15:40:31  5-MIN KARA 022140Z AUTO 23004KT 10SM BKN043 BKN050 33/25 A3003 -70 63 2000 220/04 RMK AO2 T03280250
53915KARA ARA20160802154512908/02/16 15:45:31  5-MIN KARA 022145Z AUTO 25003KT 10SM BKN041 BKN050 32/26 A3003 -70 67 1900 250/03 RMK AO2 LTG DSNT S T03220256
53915KARA ARA20160802155013608/02/16 15:50:31  5-MIN KARA 022150Z AUTO 28006KT 10SM BKN039 OVC050 32/26 A3003 -70 69 1900 280/06 RMK AO2 LTG DSNT S SLP169 T03220261
53915KARA ARA20160802155512908/02/16 15:55:31  5-MIN KARA 022155Z AUTO 28005KT 10SM SCT031 OVC041 32/26 A3004 -80 72 1800 280/05 RMK AO2 LTG DSNT S T03170261
53915KARA ARA20160802160012908/02/16 16:00:31  5-MIN KARA 022200Z AUTO 26004KT 10SM SCT031 OVC041 32/26 A3003 -70 67 1900 260/04 RMK AO2 LTG DSNT S T03220256
53915KARA ARA20160802160512908/02/16 16:05:31  5-MIN KARA 022205Z AUTO 23003KT 10SM FEW031 OVC041 33/26 A3003 -70 67 2000 230/03 RMK AO2 LTG DSNT S T03280261
53915KARA ARA20160802161013708/02/16 16:10:31  5-MIN KARA 022210Z AUTO VRB03KT 10SM FEW031 BKN040 OVC049 33/26 A3003 -70 65 2000 VRB/03 RMK AO2 LTG DSNT NW T03330261
53915KARA ARA20160802161514208/02/16 16:15:31  5-MIN KARA 022215Z AUTO VRB03KT 10SM VCTS FEW031 BKN049 OVC065 33/26 A3002 -60 65 2000 VRB/03 RMK AO2 LTG DSNT NW T03330261
53915KARA ARA20160802162014808/02/16 16:20:31  5-MIN KARA 022220Z AUTO 27004KT 10SM VCTS FEW031 SCT039 BKN049 33/26 A3002 -60 67 2000 270/04 RMK AO2 LTG DSNT W AND NW T03280261
53915KARA ARA20160802162514808/02/16 16:25:31  5-MIN KARA 022225Z AUTO 28006KT 10SM VCTS FEW039 SCT050 BKN090 32/27 A3002 -60 72 1900 270/06 RMK AO2 LTG DSNT W AND NW T03220267
53915KARA ARA20160802163015908/02/16 16:30:31  5-MIN KARA 022230Z AUTO 28006KT 10SM -RA FEW039 SCT065 SCT090 32/26 A3002 -70 69 1900 280/06 RMK AO2 LTG DSNT W AND NW RAB28 P0000 T03220261
53915KARA ARA20160802163515908/02/16 16:35:31  5-MIN KARA 022235Z AUTO 27006KT 10SM -RA FEW050 FEW065 SCT090 33/27 A3003 -70 70 2000 270/06 RMK AO2 LTG DSNT W AND NW RAB28 P0000 T03280267
53915KARA ARA20160802164014908/02/16 16:40:31  5-MIN KARA 022240Z AUTO 26007KT 10SM -RA FEW065 FEW090 33/26 A3003 -70 67 2000 250/07 RMK AO2 LTG DSNT SW-NW RAB28 P0000 T03280261
53915KARA ARA20160802164513808/02/16 16:45:31  5-MIN KARA 022245Z AUTO 24005KT 10SM CLR 32/26 A3003 -70 69 1900 240/05 RMK AO2 LTG DSNT SW-NW RAB28E44 P0000 T03220261
53915KARA ARA20160802165014508/02/16 16:50:31  5-MIN KARA 022250Z AUTO 23005KT 10SM CLR 32/26 A3003 -70 69 1900 230/05 RMK AO2 LTG DSNT SW-NW RAB28E44 SLP167 P0000 T03220261
53915KARA ARA20160802165513608/02/16 16:55:31  5-MIN KARA 022255Z AUTO 20008KT 10SM -RA CLR 32/26 A3002 -60 69 1900 200/08 RMK AO2 LTG DSNT SW AND W P0000 T03220261
53915KARA ARA20160802170013008/02/16 17:00:31  5-MIN KARA 022300Z AUTO 20006KT 10SM -RA CLR 32/26 A3002 -60 72 1900 200/06 RMK AO2 LTG DSNT SW P0000 T03170261
53915KARA ARA20160802170513008/02/16 17:05:31  5-MIN KARA 022305Z AUTO 21006KT 10SM -RA CLR 31/26 A3002 -60 74 1800 210/06 RMK AO2 LTG DSNT SW P0000 T03110261
53915KARA ARA20160802171013208/02/16 17:10:31  5-MIN KARA 022310Z AUTO 19006KT 10SM CLR 31/26 A3001 -50 74 1800 190/06 RMK AO2 LTG DSNT SW RAE07 P0000 T03110261
53915KARA ARA20160802171513208/02/16 17:15:31  5-MIN KARA 022315Z AUTO 19007KT 10SM CLR 31/25 A3001 -50 72 1800 190/07 RMK AO2 LTG DSNT SW RAE07 P0000 T03060250
53915KARA ARA20160802172013208/02/16 17:20:31  5-MIN KARA 022320Z AUTO 22005KT 10SM CLR 31/24 A3001 -50 69 1800 220/05 RMK AO2 LTG DSNT SW RAE07 P0000 T03060244
53915KARA ARA20160802172513208/02/16 17:25:31  5-MIN KARA 022325Z AUTO 27006KT 10SM CLR 31/24 A3001 -60 69 1700 270/06 RMK AO2 LTG DSNT SW RAE07 P0000 T03060244
53915KARA ARA20160802173012008/02/16 17:30:31  5-MIN KARA 022330Z AUTO 23005KT 10SM CLR 30/23 A3001 -50 67 1700 230/05 RMK AO2 RAE07 P0000 T03000233
53915KARA ARA20160802173512008/02/16 17:35:31  5-MIN KARA 022335Z AUTO 22003KT 10SM CLR 30/23 A3001 -50 67 1700 220/03 RMK AO2 RAE07 P0000 T03000233
53915KARA ARA20160802174012008/02/16 17:40:31  5-MIN KARA 022340Z AUTO 00000KT 10SM CLR 30/24 A3001 -50 69 1700 000/00 RMK AO2 RAE07 P0000 T03000239
53915KARA ARA20160802174512308/02/16 17:45:31  5-MIN KARA 022345Z AUTO 00000KT 10SM FEW036 30/24 A3001 -50 72 1700 000/00 RMK AO2 RAE07 P0000 T03000244
53915KARA ARA20160802175015408/02/16 17:50:31  5-MIN KARA 022350Z AUTO 00000KT 10SM FEW036 30/24 A3001 -50 72 1700 000/00 RMK AO2 RAE07 SLP160 P0000 60000 T03000244 10350 20300 56021
53915KARA ARA20160802175511108/02/16 17:55:31  5-MIN KARA 022355Z AUTO 00000KT 10SM FEW036 30/24 A3000 -50 72 1700 000/00 RMK AO2 T03000244
53915KARA ARA20160802180011108/02/16 18:00:31  5-MIN KARA 030000Z AUTO 00000KT 10SM FEW036 30/25 A3000 -40 74 1700 000/00 RMK AO2 T03000250
53915KARA ARA20160802180511108/02/16 18:05:31  5-MIN KARA 030005Z AUTO 28003KT 10SM FEW036 30/25 A3000 -40 74 1700 280/03 RMK AO2 T03000250
53915KARA ARA20160802181011108/02/16 18:10:31  5-MIN KARA 030010Z AUTO 00000KT 10SM FEW036 30/25 A3000 -40 74 1700 000/00 RMK AO2 T03000250
53915KARA ARA20160802181510808/02/16 18:15:31  5-MIN KARA 030015Z AUTO 25003KT 10SM CLR 30/26 A3000 -40 77 1700 250/03 RMK AO2 T03000256
53915KARA ARA20160802182010808/02/16 18:20:31  5-MIN KARA 030020Z AUTO 00000KT 10SM CLR 30/26 A3000 -40 77 1700 000/00 RMK AO2 T03000256
53915KARA ARA20160802182510808/02/16 18:25:31  5-MIN KARA 030025Z AUTO 25003KT 10SM CLR 30/26 A3000 -40 77 1700 240/03 RMK AO2 T03000256
53915KARA ARA20160802183010808/02/16 18:30:31  5-MIN KARA 030030Z AUTO 25003KT 10SM CLR 30/26 A3000 -40 77 1700 250/03 RMK AO2 T03000256
53915KARA ARA20160802183510808/02/16 18:35:31  5-MIN KARA 030035Z AUTO 24003KT 10SM CLR 30/26 A3000 -40 79 1700 240/03 RMK AO2 T03000261
53915KARA ARA20160802184010808/02/16 18:40:31  5-MIN KARA 030040Z AUTO 24003KT 10SM CLR 29/26 A3000 -40 82 1600 240/03 RMK AO2 T02940261
53915KARA ARA20160802184510808/02/16 18:45:31  5-MIN KARA 030045Z AUTO 25003KT 10SM CLR 29/26 A3000 -40 82 1600 250/03 RMK AO2 T02940261
53915KARA ARA20160802185011508/02/16 18:50:31  5-MIN KARA 030050Z AUTO 24003KT 10SM CLR 29/26 A3000 -40 82 1600 240/03 RMK AO2 SLP158 T02940261
53915KARA ARA20160802185510808/02/16 18:55:31  5-MIN KARA 030055Z AUTO 24003KT 10SM CLR 29/26 A3000 -40 85 1600 230/03 RMK AO2 T02890261
53915KARA ARA20160802190010808/02/16 19:00:31  5-MIN KARA 030100Z AUTO 00000KT 10SM CLR 29/26 A3000 -40 85 1600 000/00 RMK AO2 T02890261
53915KARA ARA20160802190510808/02/16 19:05:31  5-MIN KARA 030105Z AUTO 00000KT 10SM CLR 29/26 A3000 -50 85 1600 000/00 RMK AO2 T02890261
53915KARA ARA20160802191010808/02/16 19:10:31  5-MIN KARA 030110Z AUTO 00000KT 10SM CLR 29/26 A3001 -50 85 1600 000/00 RMK AO2 T02890261
53915KARA ARA20160802191510808/02/16 19:15:31  5-MIN KARA 030115Z AUTO 00000KT 10SM CLR 29/26 A3000 -50 85 1600 000/00 RMK AO2 T02890261
53915KARA ARA20160802192010308/02/16 19:20:31  5-MIN KARA 030120Z 00000KT 10SM CLR 29/26 A3001 -50 85 1600 000/00 RMK AO2 T02890261
53915KARA ARA20160802192510308/02/16 19:25:31  5-MIN KARA 030125Z 00000KT 10SM CLR 29/26 A3001 -50 85 1600 000/00 RMK AO2 T02890261
53915KARA ARA20160802193010308/02/16 19:30:31  5-MIN KARA 030130Z 00000KT 10SM CLR 29/26 A3001 -50 85 1600 000/00 RMK AO2 T02890261
53915KARA ARA20160802193510308/02/16 19:35:31  5-MIN KARA 030135Z 00000KT 10SM CLR 28/26 A3001 -50 87 1500 000/00 RMK AO2 T02830261
53915KARA ARA20160802194010308/02/16 19:40:31  5-MIN KARA 030140Z 25003KT 10SM CLR 29/26 A3001 -50 85 1600 240/03 RMK AO2 T02890261
53915KARA ARA20160802194510308/02/16 19:45:31  5-MIN KARA 030145Z 24003KT 10SM CLR 28/26 A3001 -60 87 1500 240/03 RMK AO2 T02830261
53915KARA ARA20160802195011508/02/16 19:50:31  5-MIN KARA 030150Z AUTO 25003KT 10SM CLR 28/26 A3002 -60 87 1500 240/03 RMK AO2 SLP164 T02830261
53915KARA ARA20160802195510808/02/16 19:55:31  5-MIN KARA 030155Z AUTO 24003KT 10SM CLR 28/26 A3002 -60 87 1500 240/03 RMK AO2 T02830261
53915KARA ARA20160802200010808/02/16 20:00:31  5-MIN KARA 030200Z AUTO 23003KT 10SM CLR 28/26 A3001 -50 87 1500 230/03 RMK AO2 T02830261
53915KARA ARA20160802200510808/02/16 20:05:31  5-MIN KARA 030205Z AUTO 23003KT 10SM CLR 28/26 A3002 -60 90 1400 230/03 RMK AO2 T02780261
53915KARA ARA20160802201010808/02/16 20:10:31  5-MIN KARA 030210Z AUTO 00000KT 10SM CLR 28/26 A3002 -60 87 1500 000/00 RMK AO2 T02830261
53915KARA ARA20160802201510808/02/16 20:15:31  5-MIN KARA 030215Z AUTO 00000KT 10SM CLR 28/26 A3002 -60 87 1500 000/00 RMK AO2 T02830261
53915KARA ARA20160802202010808/02/16 20:20:31  5-MIN KARA 030220Z AUTO 22003KT 10SM CLR 28/26 A3002 -60 87 1500 220/03 RMK AO2 T02830261
53915KARA ARA20160802202510808/02/16 20:25:31  5-MIN KARA 030225Z AUTO 00000KT 10SM CLR 28/26 A3002 -60 87 1500 000/00 RMK AO2 T02830261
53915KARA ARA20160802203010808/02/16 20:30:31  5-MIN KARA 030230Z AUTO 24003KT 10SM CLR 28/26 A3002 -60 87 1400 240/03 RMK AO2 T02780256
53915KARA ARA20160802203510808/02/16 20:35:31  5-MIN KARA 030235Z AUTO 22003KT 10SM CLR 28/26 A3003 -70 87 1400 220/03 RMK AO2 T02780256
53915KARA ARA20160802204010808/02/16 20:40:31  5-MIN KARA 030240Z AUTO 00000KT 10SM CLR 28/26 A3003 -70 87 1400 000/00 RMK AO2 T02780256
53915KARA ARA20160802204510808/02/16 20:45:31  5-MIN KARA 030245Z AUTO 00000KT 10SM CLR 28/26 A3003 -70 87 1400 000/00 RMK AO2 T02780256
53915KARA ARA20160802205012108/02/16 20:50:31  5-MIN KARA 030250Z AUTO 00000KT 10SM CLR 28/26 A3003 -70 87 1500 000/00 RMK AO2 SLP169 T02830261 58011
53915KARA ARA20160802205510808/02/16 20:55:31  5-MIN KARA 030255Z AUTO 20003KT 10SM CLR 28/26 A3003 -70 87 1400 190/03 RMK AO2 T02780256
53915KARA ARA20160802210010808/02/16 21:00:31  5-MIN KARA 030300Z AUTO 19003KT 10SM CLR 28/26 A3004 -80 87 1400 190/03 RMK AO2 T02780256
53915KARA ARA20160802210510808/02/16 21:05:31  5-MIN KARA 030305Z AUTO 19003KT 10SM CLR 28/26 A3004 -80 87 1400 180/03 RMK AO2 T02780256
53915KARA ARA20160802211010808/02/16 21:10:31  5-MIN KARA 030310Z AUTO 16003KT 10SM CLR 28/26 A3003 -70 87 1400 160/03 RMK AO2 T02780256
53915KARA ARA20160802211510808/02/16 21:15:31  5-MIN KARA 030315Z AUTO 19003KT 10SM CLR 27/26 A3003 -70 90 1400 180/03 RMK AO2 T02720256
53915KARA ARA20160802212010808/02/16 21:20:31  5-MIN KARA 030320Z AUTO 00000KT 10SM CLR 27/26 A3004 -80 90 1400 000/00 RMK AO2 T02720256
53915KARA ARA20160802212510808/02/16 21:25:31  5-MIN KARA 030325Z AUTO 00000KT 10SM CLR 27/26 A3003 -70 90 1400 000/00 RMK AO2 T02720256
53915KARA ARA20160802213010808/02/16 21:30:31  5-MIN KARA 030330Z AUTO 00000KT 10SM CLR 27/26 A3003 -70 90 1400 000/00 RMK AO2 T02720256
53915KARA ARA20160802213510808/02/16 21:35:31  5-MIN KARA 030335Z AUTO 00000KT 10SM CLR 27/26 A3004 -80 90 1400 000/00 RMK AO2 T02720256
53915KARA ARA20160802214010808/02/16 21:40:31  5-MIN KARA 030340Z AUTO 00000KT 10SM CLR 27/26 A3004 -80 90 1400 000/00 RMK AO2 T02720256
53915KARA ARA20160802214510808/02/16 21:45:31  5-MIN KARA 030345Z AUTO 00000KT 10SM CLR 27/26 A3003 -70 90 1400 000/00 RMK AO2 T02720256
53915KARA ARA20160802215011508/02/16 21:50:31  5-MIN KARA 030350Z AUTO 00000KT 10SM CLR 27/26 A3003 -70 90 1400 000/00 RMK AO2 SLP169 T02720256
53915KARA ARA20160802215510808/02/16 21:55:31  5-MIN KARA 030355Z AUTO 00000KT 10SM CLR 27/26 A3003 -70 90 1400 000/00 RMK AO2 T02720256
53915KARA ARA20160802220010808/02/16 22:00:31  5-MIN KARA 030400Z AUTO 00000KT 10SM CLR 27/26 A3003 -70 90 1400 000/00 RMK AO2 T02720256
53915KARA ARA20160802220510808/02/16 22:05:31  5-MIN KARA 030405Z AUTO 00000KT 10SM CLR 27/26 A3003 -70 90 1400 000/00 RMK AO2 T02720256
53915KARA ARA20160802221010808/02/16 22:10:31  5-MIN KARA 030410Z AUTO 00000KT 10SM CLR 27/26 A3003 -70 90 1400 000/00 RMK AO2 T02720256
53915KARA ARA20160802221510808/02/16 22:15:31  5-MIN KARA 030415Z AUTO 00000KT 10SM CLR 27/26 A3003 -70 90 1400 000/00 RMK AO2 T02720256
53915KARA ARA20160802222010808/02/16 22:20:31  5-MIN KARA 030420Z AUTO 00000KT 10SM CLR 27/26 A3003 -70 90 1400 000/00 RMK AO2 T02720256
53915KARA ARA20160802222510808/02/16 22:25:31  5-MIN KARA 030425Z AUTO 00000KT 10SM CLR 27/26 A3003 -70 90 1400 000/00 RMK AO2 T02720256
53915KARA ARA20160802223010808/02/16 22:30:31  5-MIN KARA 030430Z AUTO 00000KT 10SM CLR 27/26 A3003 -70 90 1400 000/00 RMK AO2 T02720256
53915KARA ARA20160802223510808/02/16 22:35:31  5-MIN KARA 030435Z AUTO 00000KT 10SM CLR 27/26 A3004 -80 90 1400 000/00 RMK AO2 T02720256
53915KARA ARA20160802224010808/02/16 22:40:31  5-MIN KARA 030440Z AUTO 00000KT 10SM CLR 27/26 A3004 -80 90 1400 000/00 RMK AO2 T02720256
53915KARA ARA20160802224510808/02/16 22:45:31  5-MIN KARA 030445Z AUTO 00000KT 10SM CLR 27/26 A3004 -80 90 1300 000/00 RMK AO2 T02720256
53915KARA ARA20160802225011508/02/16 22:50:31  5-MIN KARA 030450Z AUTO 00000KT 10SM CLR 27/26 A3004 -80 90 1300 000/00 RMK AO2 SLP171 T02720256
53915KARA ARA20160802225510808/02/16 22:55:31  5-MIN KARA 030455Z AUTO 00000KT 10SM CLR 27/26 A3004 -80 93 1300 000/00 RMK AO2 T02670256
53915KARA ARA20160802230010808/02/16 23:00:31  5-MIN KARA 030500Z AUTO 00000KT 10SM CLR 27/26 A3004 -80 90 1400 000/00 RMK AO2 T02720256
53915KARA ARA20160802230510808/02/16 23:05:31  5-MIN KARA 030505Z AUTO 17003KT 10SM CLR 27/26 A3004 -70 93 1300 170/03 RMK AO2 T02670256
53915KARA ARA20160802231010808/02/16 23:10:31  5-MIN KARA 030510Z AUTO 16003KT 10SM CLR 27/26 A3004 -80 93 1300 160/03 RMK AO2 T02670256
53915KARA ARA20160802231510808/02/16 23:15:31  5-MIN KARA 030515Z AUTO 16003KT 10SM CLR 27/26 A3004 -80 93 1300 160/03 RMK AO2 T02670256
53915KARA ARA20160802232010808/02/16 23:20:31  5-MIN KARA 030520Z AUTO 17003KT 10SM CLR 27/26 A3003 -70 93 1300 170/03 RMK AO2 T02670256
53915KARA ARA20160802232510808/02/16 23:25:31  5-MIN KARA 030525Z AUTO 19003KT 10SM CLR 27/26 A3003 -70 93 1300 190/03 RMK AO2 T02670256
53915KARA ARA20160802233010808/02/16 23:30:31  5-MIN KARA 030530Z AUTO 19004KT 10SM CLR 27/26 A3003 -70 93 1300 190/04 RMK AO2 T02670256
53915KARA ARA20160802233510808/02/16 23:35:31  5-MIN KARA 030535Z AUTO 20003KT 10SM CLR 27/26 A3003 -70 93 1300 200/03 RMK AO2 T02670256
53915KARA ARA20160802234010808/02/16 23:40:31  5-MIN KARA 030540Z AUTO 00000KT 10SM CLR 27/26 A3003 -70 93 1300 000/00 RMK AO2 T02670256
53915KARA ARA20160802234510808/02/16 23:45:31  5-MIN KARA 030545Z AUTO 00000KT 10SM CLR 27/26 A3003 -70 93 1300 000/00 RMK AO2 T02670256
53915KARA ARA20160802235014308/02/16 23:50:31  5-MIN KARA 030550Z AUTO 26003KT 10SM CLR 27/26 A3002 -60 93 1300 260/03 RMK AO2 SLP166 T02670256 10300 20267 403500244 53009
53915KARA ARA20160802235510808/02/16 23:55:31  5-MIN KARA 030555Z AUTO 26003KT 10SM CLR 27/26 A3002 -60 90 1400 260/03 RMK AO2 T02720256
53915KARA ARA20160803000010808/03/16 00:00:31  5-MIN KARA 030600Z AUTO 26003KT 10SM CLR 27/26 A3002 -60 90 1400 260/03 RMK AO2 T02720256
53915KARA ARA20160803000510808/03/16 00:05:31  5-MIN KARA 030605Z AUTO 27003KT 10SM CLR 27/26 A3002 -60 90 1400 270/03 RMK AO2 T02720256
53915KARA ARA20160803001010808/03/16 00:10:31  5-MIN KARA 030610Z AUTO 28003KT 10SM CLR 27/26 A3002 -60 90 1400 280/03 RMK AO2 T02720256
53915KARA ARA20160803001510808/03/16 00:15:31  5-MIN KARA 030615Z AUTO 30003KT 10SM CLR 27/26 A3002 -60 90 1400 300/03 RMK AO2 T02720256
53915KARA ARA20160803002010808/03/16 00:20:31  5-MIN KARA 030620Z AUTO 00000KT 10SM CLR 27/26 A3002 -60 93 1300 000/00 RMK AO2 T02670256
53915KARA ARA20160803002510808/03/16 00:25:31  5-MIN KARA 030625Z AUTO 00000KT 10SM CLR 27/26 A3002 -60 93 1300 000/00 RMK AO2 T02670256
53915KARA ARA20160803003010808/03/16 00:30:31  5-MIN KARA 030630Z AUTO 00000KT 10SM CLR 27/26 A3002 -60 93 1300 000/00 RMK AO2 T02670256
53915KARA ARA20160803003510808/03/16 00:35:31  5-MIN KARA 030635Z AUTO 00000KT 10SM CLR 27/26 A3002 -60 93 1300 000/00 RMK AO2 T02670256
53915KARA ARA20160803004010808/03/16 00:40:31  5-MIN KARA 030640Z AUTO 00000KT 10SM CLR 27/26 A3002 -60 93 1300 000/00 RMK AO2 T02670256
53915KARA ARA20160803004510808/03/16 00:45:31  5-MIN KARA 030645Z AUTO 00000KT 10SM CLR 27/26 A3002 -60 93 1300 000/00 RMK AO2 T02670256
53915KARA ARA20160803005011508/03/16 00:50:31  5-MIN KARA 030650Z AUTO 00000KT 10SM CLR 27/26 A3002 -60 93 1300 000/00 RMK AO2 SLP165 T02670256
53915KARA ARA20160803005510808/03/16 00:55:31  5-MIN KARA 030655Z AUTO 00000KT 10SM CLR 27/26 A3002 -60 93 1300 000/00 RMK AO2 T02670256
53915KARA ARA20160803010010808/03/16 01:00:31  5-MIN KARA 030700Z AUTO 00000KT 10SM CLR 27/26 A3002 -60 93 1300 000/00 RMK AO2 T02670256
53915KARA ARA20160803010510808/03/16 01:05:31  5-MIN KARA 030705Z AUTO 00000KT 10SM CLR 27/26 A3002 -60 93 1300 000/00 RMK AO2 T02670256
53915KARA ARA20160803011010808/03/16 01:10:31  5-MIN KARA 030710Z AUTO 00000KT 10SM CLR 26/25 A3002 -60 93 1200 000/00 RMK AO2 T02610250
53915KARA ARA20160803011510808/03/16 01:15:31  5-MIN KARA 030715Z AUTO 00000KT 10SM CLR 26/25 A3002 -60 93 1200 000/00 RMK AO2 T02610250
53915KARA ARA20160803012010808/03/16 01:20:31  5-MIN KARA 030720Z AUTO 25003KT 10SM CLR 26/25 A3002 -60 93 1200 240/03 RMK AO2 T02610250
53915KARA ARA20160803012510808/03/16 01:25:31  5-MIN KARA 030725Z AUTO 00000KT 10SM CLR 26/25 A3002 -60 93 1200 000/00 RMK AO2 T02610250
53915KARA ARA20160803013010808/03/16 01:30:31  5-MIN KARA 030730Z AUTO 25003KT 10SM CLR 26/25 A3001 -50 93 1300 240/03 RMK AO2 T02610250
53915KARA ARA20160803013510808/03/16 01:35:31  5-MIN KARA 030735Z AUTO 00000KT 10SM CLR 26/25 A3001 -60 93 1300 000/00 RMK AO2 T02610250
53915KARA ARA20160803014010808/03/16 01:40:31  5-MIN KARA 030740Z AUTO 00000KT 10SM CLR 27/25 A3002 -60 90 1300 000/00 RMK AO2 T02670250
53915KARA ARA20160803014510808/03/16 01:45:31  5-MIN KARA 030745Z AUTO 00000KT 10SM CLR 26/25 A3002 -60 93 1200 000/00 RMK AO2 T02610250
53915KARA ARA20160803015011508/03/16 01:50:31  5-MIN KARA 030750Z AUTO 00000KT 10SM CLR 26/25 A3002 -60 93 1200 000/00 RMK AO2 SLP163 T02610250
53915KARA ARA20160803015510808/03/16 01:55:31  5-MIN KARA 030755Z AUTO 00000KT 10SM CLR 26/25 A3002 -60 93 1200 000/00 RMK AO2 T02610250
53915KARA ARA20160803020010808/03/16 02:00:31  5-MIN KARA 030800Z AUTO 00000KT 10SM CLR 26/25 A3001 -60 93 1300 000/00 RMK AO2 T02610250
53915KARA ARA20160803020510808/03/16 02:05:31  5-MIN KARA 030805Z AUTO 00000KT 10SM CLR 26/25 A3002 -60 97 1200 000/00 RMK AO2 T02560250
53915KARA ARA20160803021010808/03/16 02:10:31  5-MIN KARA 030810Z AUTO 24003KT 10SM CLR 26/25 A3002 -60 93 1200 240/03 RMK AO2 T02610250
53915KARA ARA20160803021510808/03/16 02:15:31  5-MIN KARA 030815Z AUTO 25003KT 10SM CLR 26/25 A3002 -60 93 1200 250/03 RMK AO2 T02610250
53915KARA ARA20160803022010808/03/16 02:20:31  5-MIN KARA 030820Z AUTO 24003KT 10SM CLR 26/25 A3002 -60 93 1200 240/03 RMK AO2 T02610250
53915KARA ARA20160803022510808/03/16 02:25:31  5-MIN KARA 030825Z AUTO 00000KT 10SM CLR 26/25 A3002 -60 93 1200 000/00 RMK AO2 T02610250
53915KARA ARA20160803023010808/03/16 02:30:31  5-MIN KARA 030830Z AUTO 00000KT 10SM CLR 26/25 A3002 -60 93 1200 000/00 RMK AO2 T02610250
53915KARA ARA20160803023510808/03/16 02:35:31  5-MIN KARA 030835Z AUTO 00000KT 10SM CLR 26/25 A3002 -60 93 1200 000/00 RMK AO2 T02610250
53915KARA ARA20160803024010808/03/16 02:40:31  5-MIN KARA 030840Z AUTO 25003KT 10SM CLR 26/25 A3002 -60 93 1200 250/03 RMK AO2 T02610250
53915KARA ARA20160803024510808/03/16 02:45:31  5-MIN KARA 030845Z AUTO 27004KT 10SM CLR 26/25 A3002 -60 93 1200 270/04 RMK AO2 T02610250
53915KARA ARA20160803025012108/03/16 02:50:31  5-MIN KARA 030850Z AUTO 00000KT 10SM CLR 26/25 A3002 -60 93 1200 000/00 RMK AO2 SLP164 T02610250 58003
53915KARA ARA20160803025510808/03/16 02:55:31  5-MIN KARA 030855Z AUTO 00000KT 10SM CLR 26/25 A3002 -60 93 1200 000/00 RMK AO2 T02610250
53915KARA ARA20160803030010808/03/16 03:00:31  5-MIN KARA 030900Z AUTO 00000KT 10SM CLR 26/25 A3002 -60 93 1200 000/00 RMK AO2 T02610250
53915KARA ARA20160803030510808/03/16 03:05:31  5-MIN KARA 030905Z AUTO 00000KT 10SM CLR 26/25 A3002 -60 93 1200 000/00 RMK AO2 T02610250
53915KARA ARA20160803031010808/03/16 03:10:31  5-MIN KARA 030910Z AUTO 31003KT 10SM CLR 26/25 A3002 -60 93 1200 310/03 RMK AO2 T02610250
53915KARA ARA20160803031510808/03/16 03:15:31  5-MIN KARA 030915Z AUTO 31003KT 10SM CLR 26/25 A3002 -60 93 1200 310/03 RMK AO2 T02610250
53915KARA ARA20160803032010808/03/16 03:20:31  5-MIN KARA 030920Z AUTO 31003KT 10SM CLR 26/25 A3002 -60 93 1200 310/03 RMK AO2 T02610250
53915KARA ARA20160803032510808/03/16 03:25:31  5-MIN KARA 030925Z AUTO 31003KT 10SM CLR 26/25 A3002 -70 93 1200 310/03 RMK AO2 T02610250
53915KARA ARA20160803033010808/03/16 03:30:31  5-MIN KARA 030930Z AUTO 31003KT 10SM CLR 26/25 A3003 -70 93 1200 310/03 RMK AO2 T02610250
53915KARA ARA20160803033510808/03/16 03:35:31  5-MIN KARA 030935Z AUTO 00000KT 10SM CLR 26/25 A3003 -70 93 1200 000/00 RMK AO2 T02610250
53915KARA ARA20160803034010808/03/16 03:40:31  5-MIN KARA 030940Z AUTO 32003KT 10SM CLR 26/25 A3003 -70 93 1200 320/03 RMK AO2 T02610250
53915KARA ARA20160803034510808/03/16 03:45:31  5-MIN KARA 030945Z AUTO 00000KT 10SM CLR 26/25 A3003 -70 93 1200 000/00 RMK AO2 T02610250
53915KARA ARA20160803035011508/03/16 03:50:31  5-MIN KARA 030950Z AUTO 00000KT 10SM CLR 26/24 A3003 -70 90 1200 000/00 RMK AO2 SLP167 T02610244
53915KARA ARA20160803035510808/03/16 03:55:31  5-MIN KARA 030955Z AUTO 34003KT 10SM CLR 26/24 A3003 -70 93 1200 340/03 RMK AO2 T02560244
53915KARA ARA20160803040010808/03/16 04:00:31  5-MIN KARA 031000Z AUTO 33003KT 10SM CLR 26/25 A3003 -70 93 1200 330/03 RMK AO2 T02610250
53915KARA ARA20160803040510808/03/16 04:05:31  5-MIN KARA 031005Z AUTO 33003KT 10SM CLR 26/25 A3003 -70 93 1200 330/03 RMK AO2 T02610250
53915KARA ARA20160803041010808/03/16 04:10:31  5-MIN KARA 031010Z AUTO 32003KT 10SM CLR 26/25 A3003 -70 93 1200 320/03 RMK AO2 T02610250
53915KARA ARA20160803041510808/03/16 04:15:31  5-MIN KARA 031015Z AUTO 32003KT 10SM CLR 26/25 A3003 -70 93 1200 320/03 RMK AO2 T02610250
53915KARA ARA20160803042010808/03/16 04:20:31  5-MIN KARA 031020Z AUTO 32003KT 10SM CLR 26/25 A3002 -60 93 1200 320/03 RMK AO2 T02610250
53915KARA ARA20160803042510808/03/16 04:25:31  5-MIN KARA 031025Z AUTO 30003KT 10SM CLR 26/25 A3002 -70 93 1200 300/03 RMK AO2 T02610250
53915KARA ARA20160803043010808/03/16 04:30:31  5-MIN KARA 031030Z AUTO 30003KT 10SM CLR 26/25 A3003 -70 93 1200 300/03 RMK AO2 T02610250
53915KARA ARA20160803043510808/03/16 04:35:31  5-MIN KARA 031035Z AUTO 31003KT 10SM CLR 26/25 A3003 -70 93 1200 310/03 RMK AO2 T02610250
53915KARA ARA20160803044010308/03/16 04:40:31  5-MIN KARA 031040Z 30003KT 10SM CLR 26/25 A3003 -70 93 1200 300/03 RMK AO2 T02610250
53915KARA ARA20160803044510608/03/16 04:45:31  5-MIN KARA 031045Z 00000KT 10SM FEW041 26/25 A3003 -70 93 1200 000/00 RMK AO2 T02610250
53915KARA ARA20160803045011308/03/16 04:50:31  5-MIN KARA 031050Z 29003KT 10SM SCT041 26/25 A3003 -70 93 1200 290/03 RMK AO2 SLP168 T02610250
53915KARA ARA20160803045510608/03/16 04:55:31  5-MIN KARA 031055Z 30003KT 10SM BKN042 26/25 A3003 -70 93 1200 300/03 RMK AO2 T02610250
53915KARA ARA20160803050010608/03/16 05:00:31  5-MIN KARA 031100Z 31003KT 10SM BKN042 26/25 A3003 -70 93 1200 310/03 RMK AO2 T02610250
53915KARA ARA20160803050510608/03/16 05:05:31  5-MIN KARA 031105Z 32003KT 10SM BKN042 26/25 A3003 -70 93 1200 310/03 RMK AO2 T02610250
53915KARA ARA20160803051010608/03/16 05:10:31  5-MIN KARA 031110Z 32003KT 10SM BKN042 26/25 A3003 -70 93 1200 320/03 RMK AO2 T02610250
53915KARA ARA20160803051510608/03/16 05:15:31  5-MIN KARA 031115Z 33003KT 10SM BKN042 26/25 A3003 -70 93 1200 330/03 RMK AO2 T02610250
53915KARA ARA20160803052010608/03/16 05:20:31  5-MIN KARA 031120Z 32003KT 10SM BKN042 26/25 A3003 -70 93 1200 320/03 RMK AO2 T02610250
53915KARA ARA20160803052510608/03/16 05:25:31  5-MIN KARA 031125Z 33003KT 10SM SCT043 26/25 A3003 -70 93 1200 330/03 RMK AO2 T02610250
53915KARA ARA20160803053010608/03/16 05:30:31  5-MIN KARA 031130Z 32003KT 10SM FEW043 26/25 A3003 -70 93 1200 320/03 RMK AO2 T02610250
53915KARA ARA20160803053510608/03/16 05:35:31  5-MIN KARA 031135Z 00000KT 10SM FEW043 26/25 A3003 -70 93 1200 000/00 RMK AO2 T02610250
53915KARA ARA20160803054010608/03/16 05:40:31  5-MIN KARA 031140Z 00000KT 10SM FEW043 26/25 A3003 -70 93 1200 000/00 RMK AO2 T02610250
53915KARA ARA20160803054510608/03/16 05:45:31  5-MIN KARA 031145Z 00000KT 10SM FEW043 26/25 A3004 -80 93 1200 000/00 RMK AO2 T02610250
53915KARA ARA20160803055012808/03/16 05:50:31  5-MIN KARA 031150Z 31003KT 10SM CLR 26/25 A3003 -70 93 1200 310/03 RMK AO2 SLP170 T02610250 10272 20256 55002
53915KARA ARA20160803055510308/03/16 05:55:31  5-MIN KARA 031155Z 31003KT 10SM CLR 26/25 A3003 -70 93 1200 310/03 RMK AO2 T02610250
53915KARA ARA20160803060010308/03/16 06:00:31  5-MIN KARA 031200Z 30004KT 10SM CLR 26/25 A3003 -70 93 1200 300/04 RMK AO2 T02610250
53915KARA ARA20160803060511408/03/16 06:05:31  5-MIN KARA 031205Z 31003KT 10SM CLR 26/25 A3004 -80 93 1200 310/03 RMK AO2 LTG DSNT E T02610250
53915KARA ARA20160803061011408/03/16 06:10:31  5-MIN KARA 031210Z 33003KT 10SM CLR 26/25 A3004 -80 93 1200 330/03 RMK AO2 LTG DSNT E T02610250
53915KARA ARA20160803061511408/03/16 06:15:31  5-MIN KARA 031215Z 01003KT 10SM CLR 26/25 A3004 -80 93 1200 010/03 RMK AO2 LTG DSNT E T02610250
53915KARA ARA20160803062010308/03/16 06:20:31  5-MIN KARA 031220Z 36003KT 10SM CLR 26/25 A3005 -90 93 1200 360/03 RMK AO2 T02610250
53915KARA ARA20160803062510308/03/16 06:25:31  5-MIN KARA 031225Z 36003KT 10SM CLR 26/25 A3005 -90 93 1200 360/03 RMK AO2 T02610250
53915KARA ARA20160803063010308/03/16 06:30:31  5-MIN KARA 031230Z 01004KT 10SM CLR 26/25 A3005 -90 93 1200 360/04 RMK AO2 T02610250
53915KARA ARA20160803063510308/03/16 06:35:31  5-MIN KARA 031235Z 01004KT 10SM CLR 27/25 A3005 -90 90 1300 360/04 RMK AO2 T02670250
53915KARA ARA20160803064010208/03/16 06:40:31  5-MIN KARA 031240Z 35003KT 9SM CLR 27/25 A3005 -90 90 1300 350/03 RMK AO2 T02670250
53915KARA ARA20160803064510208/03/16 06:45:31  5-MIN KARA 031245Z 35003KT 9SM CLR 27/25 A3005 -90 90 1300 350/03 RMK AO2 T02670250
53915KARA ARA20160803065011008/03/16 06:50:31  5-MIN KARA 031250Z 35003KT 10SM CLR 27/26 A3006 -90 93 1300 350/03 RMK AO2 SLP177 T02670256
53915KARA ARA20160803065510308/03/16 06:55:31  5-MIN KARA 031255Z 35004KT 10SM CLR 27/25 A3005 -90 90 1300 350/04 RMK AO2 T02670250
53915KARA ARA20160803070010308/03/16 07:00:31  5-MIN KARA 031300Z 34004KT 10SM CLR 27/26 A3005 -90 90 1300 340/04 RMK AO2 T02720256
53915KARA ARA20160803070510308/03/16 07:05:31  5-MIN KARA 031305Z 33004KT 10SM CLR 27/26 A3005 -90 90 1300 330/04 RMK AO2 T02720256
53915KARA ARA20160803071010308/03/16 07:10:31  5-MIN KARA 031310Z 33003KT 10SM CLR 27/26 A3006 -90 93 1300 330/03 RMK AO2 T02670256
53915KARA ARA20160803071510408/03/16 07:15:31  5-MIN KARA 031315Z 34004KT 10SM CLR 27/26 A3006 -100 90 1300 340/04 RMK AO2 T02720256
53915KARA ARA20160803072010408/03/16 07:20:31  5-MIN KARA 031320Z 35003KT 10SM CLR 27/26 A3006 -100 90 1300 350/03 RMK AO2 T02720256
53915KARA ARA20160803072510408/03/16 07:25:31  5-MIN KARA 031325Z 35004KT 10SM CLR 27/26 A3006 -100 90 1300 350/04 RMK AO2 T02720256
53915KARA ARA20160803073010408/03/16 07:30:31  5-MIN KARA 031330Z 36003KT 10SM CLR 28/26 A3006 -100 87 1400 360/03 RMK AO2 T02780256
53915KARA ARA20160803073510408/03/16 07:35:31  5-MIN KARA 031335Z 01003KT 10SM CLR 28/26 A3006 -100 87 1400 360/03 RMK AO2 T02780256
53915KARA ARA20160803074010408/03/16 07:40:31  5-MIN KARA 031340Z 36003KT 10SM CLR 28/26 A3006 -100 87 1400 360/03 RMK AO2 T02780256
53915KARA ARA20160803074510408/03/16 07:45:31  5-MIN KARA 031345Z 36003KT 10SM CLR 28/26 A3006 -100 87 1400 360/03 RMK AO2 T02780256
53915KARA ARA20160803075011108/03/16 07:50:31  5-MIN KARA 031350Z 01004KT 10SM CLR 28/26 A3007 -100 87 1400 010/04 RMK AO2 SLP180 T02780256
53915KARA ARA20160803075510408/03/16 07:55:31  5-MIN KARA 031355Z 35004KT 10SM CLR 28/26 A3007 -100 87 1400 350/04 RMK AO2 T02780256
53915KARA ARA20160803080010408/03/16 08:00:31  5-MIN KARA 031400Z 35004KT 10SM CLR 28/26 A3007 -100 87 1400 350/04 RMK AO2 T02780256
53915KARA ARA20160803080510408/03/16 08:05:31  5-MIN KARA 031405Z 36004KT 10SM CLR 28/26 A3007 -100 85 1400 360/04 RMK AO2 T02830256
53915KARA ARA20160803081010408/03/16 08:10:31  5-MIN KARA 031410Z 35004KT 10SM CLR 28/26 A3007 -100 85 1400 350/04 RMK AO2 T02830256
53915KARA ARA20160803081510408/03/16 08:15:31  5-MIN KARA 031415Z 36004KT 10SM CLR 28/26 A3007 -110 85 1400 360/04 RMK AO2 T02830256
53915KARA ARA20160803082010408/03/16 08:20:31  5-MIN KARA 031420Z 35004KT 10SM CLR 28/26 A3007 -100 85 1400 350/04 RMK AO2 T02830256
53915KARA ARA20160803082510408/03/16 08:25:31  5-MIN KARA 031425Z 35005KT 10SM CLR 28/26 A3007 -110 85 1400 350/05 RMK AO2 T02830256
53915KARA ARA20160803083010408/03/16 08:30:31  5-MIN KARA 031430Z 36005KT 10SM CLR 28/26 A3007 -110 85 1400 350/05 RMK AO2 T02830256
53915KARA ARA20160803083510408/03/16 08:35:31  5-MIN KARA 031435Z 35004KT 10SM CLR 28/26 A3007 -110 85 1400 350/04 RMK AO2 T02830256
53915KARA ARA20160803084010408/03/16 08:40:31  5-MIN KARA 031440Z 36005KT 10SM CLR 28/26 A3007 -110 85 1400 360/05 RMK AO2 T02830256
53915KARA ARA20160803084510408/03/16 08:45:31  5-MIN KARA 031445Z 01005KT 10SM CLR 28/26 A3007 -110 85 1400 360/05 RMK AO2 T02830256
53915KARA ARA20160803085011708/03/16 08:50:31  5-MIN KARA 031450Z 01005KT 10SM CLR 28/26 A3007 -110 85 1400 010/05 RMK AO2 SLP183 T02830256 51004
53915KARA ARA20160803085510408/03/16 08:55:31  5-MIN KARA 031455Z 01005KT 10SM CLR 28/26 A3007 -110 85 1400 010/05 RMK AO2 T02830256
53915KARA ARA20160803090010408/03/16 09:00:31  5-MIN KARA 031500Z 01006KT 10SM CLR 28/26 A3008 -110 85 1400 010/06 RMK AO2 T02830256
53915KARA ARA20160803090510408/03/16 09:05:31  5-MIN KARA 031505Z 01005KT 10SM CLR 28/26 A3008 -120 85 1400 010/05 RMK AO2 T02830256
53915KARA ARA20160803091011508/03/16 09:10:31  5-MIN KARA 031510Z 02004KT 10SM CLR 28/26 A3008 -120 85 1400 020/04 RMK AO2 LTG DSNT E T02830256
53915KARA ARA20160803091511508/03/16 09:15:31  5-MIN KARA 031515Z 03006KT 10SM CLR 28/26 A3008 -120 85 1400 030/06 RMK AO2 LTG DSNT E T02830256
53915KARA ARA20160803092011508/03/16 09:20:31  5-MIN KARA 031520Z 03005KT 10SM CLR 28/26 A3008 -120 85 1400 030/05 RMK AO2 LTG DSNT E T02830256
53915KARA ARA20160803092510408/03/16 09:25:31  5-MIN KARA 031525Z 03005KT 10SM CLR 28/26 A3008 -110 85 1400 030/05 RMK AO2 T02830256
53915KARA ARA20160803093010408/03/16 09:30:31  5-MIN KARA 031530Z 03004KT 10SM CLR 29/26 A3008 -110 82 1500 030/04 RMK AO2 T02890256
53915KARA ARA20160803093510408/03/16 09:35:31  5-MIN KARA 031535Z 04004KT 10SM CLR 29/26 A3008 -110 82 1500 040/04 RMK AO2 T02890256
53915KARA ARA20160803094010408/03/16 09:40:31  5-MIN KARA 031540Z 04005KT 10SM CLR 29/26 A3008 -120 82 1500 040/05 RMK AO2 T02890256
53915KARA ARA20160803094510708/03/16 09:45:31  5-MIN KARA 031545Z 08008KT 10SM FEW047 29/26 A3009 -120 82 1500 080/08 RMK AO2 T02890256
53915KARA ARA20160803095012108/03/16 09:50:31  5-MIN KARA 031550Z 10010KT 10SM FEW011 SCT045 28/26 A3009 -130 85 1400 100/10 RMK AO2 SLP188 T02830256
53915KARA ARA20160803095512108/03/16 09:55:31  5-MIN KARA 031555Z 10008KT 10SM FEW011 SCT017 BKN043 28/26 A3009 -120 85 1400 100/08 RMK AO2 T02830256
53915KARA ARA20160803100012108/03/16 10:00:31  5-MIN KARA 031600Z 12008KT 10SM FEW011 SCT017 BKN060 28/26 A3009 -120 85 1400 120/08 RMK AO2 T02830256
53915KARA ARA20160803100512108/03/16 10:05:31  5-MIN KARA 031605Z 13005KT 10SM FEW011 SCT044 SCT060 28/26 A3009 -120 85 1400 130/05 RMK AO2 T02830256
53915KARA ARA20160803101012108/03/16 10:10:31  5-MIN KARA 031610Z 11004KT 10SM FEW011 FEW017 SCT044 28/25 A3008 -120 82 1400 110/04 RMK AO2 T02830250
53915KARA ARA20160803101511408/03/16 10:15:31  5-MIN KARA 031615Z 11007KT 10SM FEW011 FEW017 29/25 A3009 -120 79 1500 110/07 RMK AO2 T02890250
53915KARA ARA20160803102010708/03/16 10:20:31  5-MIN KARA 031620Z 11009KT 10SM FEW011 29/25 A3009 -130 79 1500 100/09 RMK AO2 T02890250
53915KARA ARA20160803102510408/03/16 10:25:31  5-MIN KARA 031625Z 11010KT 10SM CLR 29/24 A3009 -120 76 1500 110/10 RMK AO2 T02890244
53915KARA ARA20160803103010408/03/16 10:30:31  5-MIN KARA 031630Z 11007KT 10SM CLR 29/24 A3009 -130 74 1500 110/07 RMK AO2 T02890239
53915KARA ARA20160803103510408/03/16 10:35:31  5-MIN KARA 031635Z 11007KT 10SM CLR 29/23 A3009 -130 71 1500 110/07 RMK AO2 T02890233
53915KARA ARA20160803104010408/03/16 10:40:31  5-MIN KARA 031640Z 11006KT 10SM CLR 29/23 A3009 -130 71 1500 110/06 RMK AO2 T02890233
53915KARA ARA20160803104510408/03/16 10:45:31  5-MIN KARA 031645Z 14007KT 10SM CLR 29/23 A3009 -130 71 1500 140/07 RMK AO2 T02890233
53915KARA ARA20160803105011108/03/16 10:50:31  5-MIN KARA 031650Z 13006KT 10SM CLR 29/23 A3009 -130 71 1500 130/06 RMK AO2 SLP189 T02890233
53915KARA ARA20160803105510408/03/16 10:55:31  5-MIN KARA 031655Z 12007KT 10SM CLR 29/23 A3009 -130 71 1500 120/07 RMK AO2 T02890233
53915KARA ARA20160803110010408/03/16 11:00:31  5-MIN KARA 031700Z 15006KT 10SM CLR 29/24 A3009 -130 74 1500 150/06 RMK AO2 T02890239
53915KARA ARA20160803110510408/03/16 11:05:31  5-MIN KARA 031705Z 13005KT 10SM CLR 29/23 A3009 -130 71 1500 130/05 RMK AO2 T02890233
53915KARA ARA20160803111010408/03/16 11:10:31  5-MIN KARA 031710Z 13006KT 10SM CLR 29/24 A3009 -130 74 1500 130/06 RMK AO2 T02890239
53915KARA ARA20160803111510408/03/16 11:15:31  5-MIN KARA 031715Z 12006KT 10SM CLR 29/23 A3009 -130 71 1500 120/06 RMK AO2 T02890233
53915KARA ARA20160803112010408/03/16 11:20:31  5-MIN KARA 031720Z 13008KT 10SM CLR 29/23 A3009 -130 71 1500 130/08 RMK AO2 T02890233
53915KARA ARA20160803112510408/03/16 11:25:31  5-MIN KARA 031725Z 12007KT 10SM CLR 29/23 A3009 -120 71 1500 120/07 RMK AO2 T02890233
53915KARA ARA20160803113010408/03/16 11:30:31  5-MIN KARA 031730Z 11005KT 10SM CLR 29/23 A3008 -120 69 1500 110/05 RMK AO2 T02940233
53915KARA ARA20160803113510408/03/16 11:35:31  5-MIN KARA 031735Z 11006KT 10SM CLR 29/23 A3008 -110 69 1600 110/06 RMK AO2 T02940233
53915KARA ARA20160803114010408/03/16 11:40:31  5-MIN KARA 031740Z 14006KT 10SM CLR 29/23 A3007 -110 69 1600 140/06 RMK AO2 T02940233
53915KARA ARA20160803114510408/03/16 11:45:31  5-MIN KARA 031745Z 14007KT 10SM CLR 29/23 A3007 -100 67 1600 140/07 RMK AO2 T02940228
53915KARA ARA20160803115012908/03/16 11:50:31  5-MIN KARA 031750Z 15008KT 10SM CLR 29/23 A3006 -100 67 1600 150/08 RMK AO2 SLP179 T02940228 10294 20261 51015
53915KARA ARA20160803115510408/03/16 11:55:31  5-MIN KARA 031755Z 14007KT 10SM CLR 30/23 A3006 -100 65 1600 140/07 RMK AO2 T03000228
53915KARA ARA20160803120010308/03/16 12:00:31  5-MIN KARA 031800Z 13007KT 10SM CLR 30/23 A3005 -90 65 1600 130/07 RMK AO2 T03000228
53915KARA ARA20160803120510308/03/16 12:05:31  5-MIN KARA 031805Z 14008KT 10SM CLR 30/22 A3005 -90 62 1600 140/08 RMK AO2 T03000222
53915KARA ARA20160803121010308/03/16 12:10:31  5-MIN KARA 031810Z 12007KT 10SM CLR 30/22 A3005 -90 62 1600 120/07 RMK AO2 T03000222
53915KARA ARA20160803121510308/03/16 12:15:31  5-MIN KARA 031815Z 12007KT 10SM CLR 30/22 A3005 -90 62 1600 120/07 RMK AO2 T03000222
53915KARA ARA20160803122010308/03/16 12:20:31  5-MIN KARA 031820Z 12007KT 10SM CLR 30/22 A3004 -80 62 1700 120/07 RMK AO2 T03000222
53915KARA ARA20160803122510308/03/16 12:25:31  5-MIN KARA 031825Z 12005KT 10SM CLR 30/23 A3004 -80 65 1700 120/05 RMK AO2 T03000228
53915KARA ARA20160803123010308/03/16 12:30:31  5-MIN KARA 031830Z 11005KT 10SM CLR 30/22 A3004 -80 62 1700 110/05 RMK AO2 T03000222
53915KARA ARA20160803123510308/03/16 12:35:31  5-MIN KARA 031835Z 13005KT 10SM CLR 30/23 A3004 -80 65 1700 130/05 RMK AO2 T03000228
53915KARA ARA20160803124010308/03/16 12:40:31  5-MIN KARA 031840Z 12004KT 10SM CLR 30/22 A3004 -80 62 1700 120/04 RMK AO2 T03000222
53915KARA ARA20160803124510308/03/16 12:45:31  5-MIN KARA 031845Z 14004KT 10SM CLR 31/23 A3003 -70 62 1700 140/04 RMK AO2 T03060228
53915KARA ARA20160803125011008/03/16 12:50:31  5-MIN KARA 031850Z 18004KT 10SM CLR 30/23 A3003 -70 65 1700 180/04 RMK AO2 SLP169 T03000228
53915KARA ARA20160803125510308/03/16 12:55:31  5-MIN KARA 031855Z 13005KT 10SM CLR 30/23 A3003 -70 65 1700 130/05 RMK AO2 T03000228
53915KARA ARA20160803130010308/03/16 13:00:31  5-MIN KARA 031900Z 13004KT 10SM CLR 31/23 A3003 -70 62 1700 130/04 RMK AO2 T03060228
53915KARA ARA20160803130510308/03/16 13:05:31  5-MIN KARA 031905Z VRB03KT 10SM CLR 30/23 A3003 -70 67 1700 VRB/03 RMK AO2 T03000233
53915KARA ARA20160803131010308/03/16 13:10:31  5-MIN KARA 031910Z 00000KT 10SM CLR 30/23 A3002 -60 67 1700 000/00 RMK AO2 T03000233
53915KARA ARA20160803131510308/03/16 13:15:31  5-MIN KARA 031915Z 11004KT 10SM CLR 31/23 A3002 -60 63 1800 110/04 RMK AO2 T03110233
53915KARA ARA20160803132010308/03/16 13:20:31  5-MIN KARA 031920Z 00000KT 10SM CLR 31/23 A3002 -60 63 1800 000/00 RMK AO2 T03110233
53915KARA ARA20160803132510308/03/16 13:25:31  5-MIN KARA 031925Z 00000KT 10SM CLR 31/23 A3002 -60 60 1800 000/00 RMK AO2 T03110228
53915KARA ARA20160803133010308/03/16 13:30:31  5-MIN KARA 031930Z VRB03KT 10SM CLR 31/23 A3002 -60 63 1800 VRB/03 RMK AO2 T03110233
53915KARA ARA20160803133510808/03/16 13:35:31  5-MIN KARA 031935Z AUTO VRB03KT 10SM CLR 31/23 A3001 -50 63 1800 VRB/03 RMK AO2 T03110233
53915KARA ARA20160803134010808/03/16 13:40:31  5-MIN KARA 031940Z AUTO VRB03KT 10SM CLR 32/23 A3001 -50 58 1900 VRB/03 RMK AO2 T03170228
53915KARA ARA20160803134510808/03/16 13:45:31  5-MIN KARA 031945Z AUTO 08003KT 10SM CLR 32/23 A3001 -50 61 1900 080/03 RMK AO2 T03170233
53915KARA ARA20160803135011508/03/16 13:50:31  5-MIN KARA 031950Z AUTO 19004KT 10SM CLR 32/23 A3000 -50 61 1900 190/04 RMK AO2 SLP159 T03170233
53915KARA ARA20160803135510808/03/16 13:55:31  5-MIN KARA 031955Z AUTO 20003KT 10SM CLR 32/23 A3000 -40 61 1900 190/03 RMK AO2 T03170233
53915KARA ARA20160803140010808/03/16 14:00:31  5-MIN KARA 032000Z AUTO 00000KT 10SM CLR 32/23 A3000 -40 61 1900 000/00 RMK AO2 T03170233
53915KARA ARA20160803140510308/03/16 14:05:31  5-MIN KARA 032005Z 00000KT 10SM CLR 32/24 A3000 -40 61 2000 000/00 RMK AO2 T03220239
53915KARA ARA20160803141010308/03/16 14:10:31  5-MIN KARA 032010Z 22004KT 10SM CLR 32/23 A3000 -40 59 2000 220/04 RMK AO2 T03220233
53915KARA ARA20160803141510308/03/16 14:15:31  5-MIN KARA 032015Z 00000KT 10SM CLR 32/23 A2999 -30 59 2000 000/00 RMK AO2 T03220233
53915KARA ARA20160803142010308/03/16 14:20:31  5-MIN KARA 032020Z 00000KT 10SM CLR 32/23 A2999 -30 59 2000 000/00 RMK AO2 T03220233
53915KARA ARA20160803142510308/03/16 14:25:31  5-MIN KARA 032025Z 00000KT 10SM CLR 33/23 A2998 -30 57 2000 000/00 RMK AO2 T03280233
53915KARA ARA20160803143010308/03/16 14:30:31  5-MIN KARA 032030Z VRB03KT 10SM CLR 33/23 A2998 -30 57 2000 VRB/03 RMK AO2 T03280233
53915KARA ARA20160803143510308/03/16 14:35:31  5-MIN KARA 032035Z 17003KT 10SM CLR 32/24 A2998 -30 61 2000 160/03 RMK AO2 T03220239
53915KARA ARA20160803144010308/03/16 14:40:31  5-MIN KARA 032040Z 00000KT 10SM CLR 33/24 A2998 -20 59 2000 000/00 RMK AO2 T03280239
53915KARA ARA20160803144510308/03/16 14:45:31  5-MIN KARA 032045Z 15003KT 10SM CLR 33/24 A2998 -20 59 2000 150/03 RMK AO2 T03280239
53915KARA ARA20160803145011608/03/16 14:50:31  5-MIN KARA 032050Z VRB03KT 10SM CLR 32/23 A2997 -20 59 2000 VRB/03 RMK AO2 SLP149 T03220233 58005
53915KARA ARA20160803145510308/03/16 14:55:31  5-MIN KARA 032055Z 00000KT 10SM CLR 33/24 A2997 -20 59 2000 000/00 RMK AO2 T03280239
53915KARA ARA20160803150010308/03/16 15:00:31  5-MIN KARA 032100Z VRB03KT 10SM CLR 33/24 A2997 -20 59 2100 VRB/03 RMK AO2 T03330244
53915KARA ARA20160803150510308/03/16 15:05:31  5-MIN KARA 032105Z 00000KT 10SM CLR 33/24 A2997 -20 59 2000 000/00 RMK AO2 T03280239
53915KARA ARA20160803151010308/03/16 15:10:31  5-MIN KARA 032110Z 00000KT 10SM CLR 33/24 A2997 -20 57 2100 000/00 RMK AO2 T03330239
53915KARA ARA20160803151510308/03/16 15:15:31  5-MIN KARA 032115Z 00000KT 10SM CLR 33/23 A2997 -20 55 2100 000/00 RMK AO2 T03330233
53915KARA ARA20160803152010308/03/16 15:20:31  5-MIN KARA 032120Z 32003KT 10SM CLR 33/24 A2997 -10 57 2100 320/03 RMK AO2 T03330239
53915KARA ARA20160803152510308/03/16 15:25:31  5-MIN KARA 032125Z 15005KT 10SM CLR 33/24 A2997 -10 61 2000 150/05 RMK AO2 T03280244
53915KARA ARA20160803153010308/03/16 15:30:31  5-MIN KARA 032130Z 13003KT 10SM CLR 32/24 A2997 -10 61 2000 130/03 RMK AO2 T03220239
53915KARA ARA20160803153510308/03/16 15:35:31  5-MIN KARA 032135Z 11004KT 10SM CLR 33/24 A2997 -10 59 2000 110/04 RMK AO2 T03280239
53915KARA ARA20160803154010308/03/16 15:40:31  5-MIN KARA 032140Z 14004KT 10SM CLR 32/24 A2997 -10 61 2000 140/04 RMK AO2 T03220239
53915KARA ARA20160803154510308/03/16 15:45:31  5-MIN KARA 032145Z 14003KT 10SM CLR 32/24 A2997 -10 61 2000 140/03 RMK AO2 T03220239
53915KARA ARA20160803155011008/03/16 15:50:31  5-MIN KARA 032150Z 00000KT 10SM CLR 32/24 A2997 -10 61 2000 000/00 RMK AO2 SLP146 T03220239
53915KARA ARA20160803155510308/03/16 15:55:31  5-MIN KARA 032155Z 00000KT 10SM CLR 32/24 A2996 -10 61 2000 000/00 RMK AO2 T03220239
53915KARA ARA20160803160010308/03/16 16:00:31  5-MIN KARA 032200Z 00000KT 10SM CLR 33/23 A2996 -10 57 2100 000/00 RMK AO2 T03280233
53915KARA ARA20160803160510308/03/16 16:05:31  5-MIN KARA 032205Z 00000KT 10SM CLR 33/23 A2996 -10 55 2100 000/00 RMK AO2 T03330233
53915KARA ARA20160803161010308/03/16 16:10:31  5-MIN KARA 032210Z 00000KT 10SM CLR 33/23 A2996 -10 57 2100 000/00 RMK AO2 T03280233
53915KARA ARA20160803161510308/03/16 16:15:31  5-MIN KARA 032215Z 00000KT 10SM CLR 33/23 A2996 -10 57 2100 000/00 RMK AO2 T03280233
53915KARA ARA20160803162010308/03/16 16:20:31  5-MIN KARA 032220Z 00000KT 10SM CLR 32/24 A2996 -10 61 2000 000/00 RMK AO2 T03220239
53915KARA ARA20160803162510108/03/16 16:25:31  5-MIN KARA 032225Z 00000KT 10SM CLR 33/24 A2996 0 59 2100 000/00 RMK AO2 T03280239
53915KARA ARA20160803163010108/03/16 16:30:31  5-MIN KARA 032230Z 00000KT 10SM CLR 33/24 A2996 0 59 2100 000/00 RMK AO2 T03280239
53915KARA ARA20160803163510308/03/16 16:35:31  5-MIN KARA 032235Z 00000KT 10SM CLR 32/24 A2996 -10 61 2000 000/00 RMK AO2 T03220239
53915KARA ARA20160803164010108/03/16 16:40:31  5-MIN KARA 032240Z 00000KT 10SM CLR 32/24 A2996 0 61 2000 000/00 RMK AO2 T03220239
53915KARA ARA20160803164510108/03/16 16:45:31  5-MIN KARA 032245Z VRB03KT 10SM CLR 33/24 A2996 0 61 2100 VRB/03 RMK AO2 T03280244
53915KARA ARA20160803165010808/03/16 16:50:31  5-MIN KARA 032250Z 17003KT 10SM CLR 32/24 A2996 0 61 2000 170/03 RMK AO2 SLP143 T03220239
53915KARA ARA20160803165510108/03/16 16:55:31  5-MIN KARA 032255Z 00000KT 10SM CLR 32/24 A2996 0 61 2000 000/00 RMK AO2 T03220239
53915KARA ARA20160803170010108/03/16 17:00:31  5-MIN KARA 032300Z 00000KT 10SM CLR 32/24 A2996 0 61 2000 000/00 RMK AO2 T03220239
53915KARA ARA20160803170510108/03/16 17:05:31  5-MIN KARA 032305Z 00000KT 10SM CLR 32/24 A2995 0 61 2000 000/00 RMK AO2 T03220239
53915KARA ARA20160803171010108/03/16 17:10:31  5-MIN KARA 032310Z 00000KT 10SM CLR 32/24 A2995 0 61 2000 000/00 RMK AO2 T03220239
53915KARA ARA20160803171510108/03/16 17:15:31  5-MIN KARA 032315Z 17003KT 10SM CLR 32/24 A2995 0 61 2000 170/03 RMK AO2 T03220239
53915KARA ARA20160803172010108/03/16 17:20:31  5-MIN KARA 032320Z 19004KT 10SM CLR 32/25 A2995 0 65 2000 190/04 RMK AO2 T03220250
53915KARA ARA20160803172510108/03/16 17:25:31  5-MIN KARA 032325Z 20004KT 10SM CLR 32/25 A2995 0 67 1900 200/04 RMK AO2 T03170250
53915KARA ARA20160803173010108/03/16 17:30:31  5-MIN KARA 032330Z 19005KT 10SM CLR 32/25 A2995 0 65 2000 190/05 RMK AO2 T03220250
53915KARA ARA20160803173510108/03/16 17:35:31  5-MIN KARA 032335Z 18005KT 10SM CLR 32/24 A2996 0 65 1900 180/05 RMK AO2 T03170244
53915KARA ARA20160803174010108/03/16 17:40:31  5-MIN KARA 032340Z 18005KT 10SM CLR 32/24 A2996 0 65 1900 180/05 RMK AO2 T03170244
53915KARA ARA20160803174510108/03/16 17:45:31  5-MIN KARA 032345Z 18005KT 10SM CLR 32/24 A2995 0 65 1900 180/05 RMK AO2 T03170244
53915KARA ARA20160803175012608/03/16 17:50:31  5-MIN KARA 032350Z 18005KT 10SM CLR 31/25 A2995 0 69 1900 180/05 RMK AO2 SLP142 T03110250 10333 20294 58029
53915KARA ARA20160803175510108/03/16 17:55:31  5-MIN KARA 032355Z 18005KT 10SM CLR 31/24 A2995 0 67 1900 180/05 RMK AO2 T03110244
53915KARA ARA20160803180010108/03/16 18:00:31  5-MIN KARA 040000Z 19005KT 10SM CLR 31/24 A2995 0 67 1900 190/05 RMK AO2 T03110244
53915KARA ARA20160803180510108/03/16 18:05:31  5-MIN KARA 040005Z 20005KT 10SM CLR 31/24 A2995 0 67 1800 200/05 RMK AO2 T03060239
53915KARA ARA20160803181010108/03/16 18:10:31  5-MIN KARA 040010Z 20005KT 10SM CLR 31/24 A2995 0 67 1800 200/05 RMK AO2 T03060239
53915KARA ARA20160803181510108/03/16 18:15:31  5-MIN KARA 040015Z 20006KT 10SM CLR 31/24 A2995 0 67 1800 190/06 RMK AO2 T03060239
53915KARA ARA20160803182010108/03/16 18:20:31  5-MIN KARA 040020Z 19004KT 10SM CLR 30/24 A2995 0 69 1800 190/04 RMK AO2 T03000239
53915KARA ARA20160803182510108/03/16 18:25:31  5-MIN KARA 040025Z 18004KT 10SM CLR 30/24 A2995 0 69 1800 180/04 RMK AO2 T03000239
53915KARA ARA20160803183010108/03/16 18:30:31  5-MIN KARA 040030Z 19004KT 10SM CLR 30/24 A2996 0 72 1800 190/04 RMK AO2 T03000244
53915KARA ARA20160803183510108/03/16 18:35:31  5-MIN KARA 040035Z 19005KT 10SM CLR 29/24 A2996 0 71 1700 190/05 RMK AO2 T02940239
53915KARA ARA20160803184010108/03/16 18:40:31  5-MIN KARA 040040Z 20004KT 10SM CLR 29/24 A2996 0 71 1700 200/04 RMK AO2 T02940239
53915KARA ARA20160803184510108/03/16 18:45:31  5-MIN KARA 040045Z 19004KT 10SM CLR 29/24 A2996 0 71 1700 190/04 RMK AO2 T02940239
53915KARA ARA20160803185010808/03/16 18:50:31  5-MIN KARA 040050Z 20003KT 10SM CLR 29/24 A2996 0 74 1600 200/03 RMK AO2 SLP144 T02890239
53915KARA ARA20160803185510108/03/16 18:55:31  5-MIN KARA 040055Z 21003KT 10SM CLR 29/24 A2996 0 76 1600 210/03 RMK AO2 T02890244
53915KARA ARA20160803190010108/03/16 19:00:31  5-MIN KARA 040100Z 20003KT 10SM CLR 29/24 A2996 0 76 1600 200/03 RMK AO2 T02890244
53915KARA ARA20160803190510108/03/16 19:05:31  5-MIN KARA 040105Z 20004KT 10SM CLR 28/24 A2996 0 79 1600 190/04 RMK AO2 T02830244
53915KARA ARA20160803191010108/03/16 19:10:31  5-MIN KARA 040110Z 19004KT 10SM CLR 28/24 A2996 0 79 1600 190/04 RMK AO2 T02830244
53915KARA ARA20160803191510108/03/16 19:15:31  5-MIN KARA 040115Z 20003KT 10SM CLR 28/24 A2996 0 79 1600 200/03 RMK AO2 T02830244
53915KARA ARA20160803192010308/03/16 19:20:31  5-MIN KARA 040120Z 20003KT 10SM CLR 28/24 A2996 -10 79 1600 200/03 RMK AO2 T02830244
53915KARA ARA20160803192510308/03/16 19:25:31  5-MIN KARA 040125Z 20003KT 10SM CLR 28/24 A2996 -10 79 1600 200/03 RMK AO2 T02830244
53915KARA ARA20160803193010308/03/16 19:30:31  5-MIN KARA 040130Z 22003KT 10SM CLR 28/24 A2996 -10 79 1600 220/03 RMK AO2 T02830244
53915KARA ARA20160803193510308/03/16 19:35:31  5-MIN KARA 040135Z 25003KT 10SM CLR 28/24 A2996 -10 82 1500 250/03 RMK AO2 T02780244
53915KARA ARA20160803194010308/03/16 19:40:31  5-MIN KARA 040140Z 25003KT 10SM CLR 28/25 A2996 -10 82 1600 250/03 RMK AO2 T02830250
53915KARA ARA20160803194510308/03/16 19:45:31  5-MIN KARA 040145Z 24003KT 10SM CLR 28/25 A2996 -10 84 1500 240/03 RMK AO2 T02780250
53915KARA ARA20160803195011008/03/16 19:50:31  5-MIN KARA 040150Z 22003KT 10SM CLR 27/25 A2996 -10 87 1400 220/03 RMK AO2 SLP146 T02720250
53915KARA ARA20160803195510308/03/16 19:55:31  5-MIN KARA 040155Z 21003KT 10SM CLR 27/25 A2996 -10 87 1400 200/03 RMK AO2 T02720250
53915KARA ARA20160803200010308/03/16 20:00:31  5-MIN KARA 040200Z 22003KT 10SM CLR 28/25 A2996 -10 84 1500 220/03 RMK AO2 T02780250
53915KARA ARA20160803200510808/03/16 20:05:31  5-MIN KARA 040205Z AUTO 00000KT 10SM CLR 28/25 A2996 -10 84 1500 000/00 RMK AO2 T02780250
53915KARA ARA20160803201010808/03/16 20:10:31  5-MIN KARA 040210Z AUTO 00000KT 10SM CLR 28/25 A2996 -10 84 1500 000/00 RMK AO2 T02780250
53915KARA ARA20160803201510808/03/16 20:15:31  5-MIN KARA 040215Z AUTO 00000KT 10SM CLR 27/25 A2996 -10 87 1400 000/00 RMK AO2 T02720250
53915KARA ARA20160803202010808/03/16 20:20:31  5-MIN KARA 040220Z AUTO 00000KT 10SM CLR 28/25 A2996 -10 84 1500 000/00 RMK AO2 T02780250
53915KARA ARA20160803202510808/03/16 20:25:31  5-MIN KARA 040225Z AUTO 00000KT 10SM CLR 28/25 A2996 -10 84 1500 000/00 RMK AO2 T02780250
53915KARA ARA20160803203010808/03/16 20:30:31  5-MIN KARA 040230Z AUTO 19003KT 10SM CLR 28/25 A2997 -10 84 1500 190/03 RMK AO2 T02780250
53915KARA ARA20160803203510808/03/16 20:35:31  5-MIN KARA 040235Z AUTO 20004KT 10SM CLR 27/25 A2997 -10 87 1400 200/04 RMK AO2 T02720250
53915KARA ARA20160803204010808/03/16 20:40:31  5-MIN KARA 040240Z AUTO 18003KT 10SM CLR 27/25 A2997 -10 87 1400 180/03 RMK AO2 T02720250
53915KARA ARA20160803204510808/03/16 20:45:31  5-MIN KARA 040245Z AUTO 18003KT 10SM CLR 27/25 A2997 -10 87 1400 180/03 RMK AO2 T02720250
53915KARA ARA20160803205012108/03/16 20:50:31  5-MIN KARA 040250Z AUTO 19003KT 10SM CLR 27/25 A2997 -20 90 1400 190/03 RMK AO2 SLP149 T02670250 56007
53915KARA ARA20160803205510808/03/16 20:55:31  5-MIN KARA 040255Z AUTO 19004KT 10SM CLR 27/25 A2997 -20 90 1400 190/04 RMK AO2 T02670250
53915KARA ARA20160803210010808/03/16 21:00:31  5-MIN KARA 040300Z AUTO 20003KT 10SM CLR 27/25 A2997 -20 90 1400 200/03 RMK AO2 T02670250
53915KARA ARA20160803210510808/03/16 21:05:31  5-MIN KARA 040305Z AUTO 00000KT 10SM CLR 27/25 A2998 -20 87 1400 000/00 RMK AO2 T02720250
53915KARA ARA20160803211010808/03/16 21:10:31  5-MIN KARA 040310Z AUTO 00000KT 10SM CLR 27/25 A2998 -20 87 1400 000/00 RMK AO2 T02720250
53915KARA ARA20160803211510808/03/16 21:15:31  5-MIN KARA 040315Z AUTO 00000KT 10SM CLR 28/25 A2998 -20 84 1500 000/00 RMK AO2 T02780250
53915KARA ARA20160803212010808/03/16 21:20:31  5-MIN KARA 040320Z AUTO 00000KT 10SM CLR 27/25 A2998 -20 87 1400 000/00 RMK AO2 T02720250
53915KARA ARA20160803212510808/03/16 21:25:31  5-MIN KARA 040325Z AUTO 00000KT 10SM CLR 27/25 A2998 -20 87 1400 000/00 RMK AO2 T02720250
53915KARA ARA20160803213010808/03/16 21:30:31  5-MIN KARA 040330Z AUTO 00000KT 10SM CLR 27/25 A2998 -30 87 1400 000/00 RMK AO2 T02720250
53915KARA ARA20160803213510808/03/16 21:35:31  5-MIN KARA 040335Z AUTO 00000KT 10SM CLR 27/25 A2998 -20 87 1400 000/00 RMK AO2 T02720250
53915KARA ARA20160803214010808/03/16 21:40:31  5-MIN KARA 040340Z AUTO 00000KT 10SM CLR 27/25 A2998 -20 87 1400 000/00 RMK AO2 T02720250
53915KARA ARA20160803214510808/03/16 21:45:31  5-MIN KARA 040345Z AUTO 00000KT 10SM CLR 27/25 A2998 -30 87 1400 000/00 RMK AO2 T02720250
53915KARA ARA20160803215011508/03/16 21:50:31  5-MIN KARA 040350Z AUTO 00000KT 10SM CLR 27/25 A2998 -20 90 1400 000/00 RMK AO2 SLP151 T02670250
53915KARA ARA20160803215510808/03/16 21:55:31  5-MIN KARA 040355Z AUTO 00000KT 10SM CLR 27/25 A2998 -20 90 1400 000/00 RMK AO2 T02670250
53915KARA ARA20160803220010808/03/16 22:00:31  5-MIN KARA 040400Z AUTO 00000KT 10SM CLR 26/25 A2998 -20 93 1300 000/00 RMK AO2 T02610250
53915KARA ARA20160803220510808/03/16 22:05:31  5-MIN KARA 040405Z AUTO 00000KT 10SM CLR 26/25 A2998 -20 93 1300 000/00 RMK AO2 T02610250
53915KARA ARA20160803221010808/03/16 22:10:31  5-MIN KARA 040410Z AUTO 00000KT 10SM CLR 27/25 A2998 -20 90 1400 000/00 RMK AO2 T02670250
53915KARA ARA20160803221510808/03/16 22:15:31  5-MIN KARA 040415Z AUTO 00000KT 10SM CLR 27/25 A2998 -20 90 1400 000/00 RMK AO2 T02670250
53915KARA ARA20160803222010808/03/16 22:20:31  5-MIN KARA 040420Z AUTO 00000KT 10SM CLR 27/25 A2998 -20 90 1400 000/00 RMK AO2 T02670250
53915KARA ARA20160803222510808/03/16 22:25:31  5-MIN KARA 040425Z AUTO 00000KT 10SM CLR 27/25 A2998 -20 90 1400 000/00 RMK AO2 T02670250
53915KARA ARA20160803223010808/03/16 22:30:31  5-MIN KARA 040430Z AUTO 00000KT 10SM CLR 27/25 A2998 -20 90 1400 000/00 RMK AO2 T02670250
53915KARA ARA20160803223510808/03/16 22:35:31  5-MIN KARA 040435Z AUTO 00000KT 10SM CLR 27/25 A2998 -20 90 1400 000/00 RMK AO2 T02670250
53915KARA ARA20160803224010808/03/16 22:40:31  5-MIN KARA 040440Z AUTO 00000KT 10SM CLR 27/25 A2998 -20 90 1400 000/00 RMK AO2 T02670250
53915KARA ARA20160803224510808/03/16 22:45:31  5-MIN KARA 040445Z AUTO 00000KT 10SM CLR 27/25 A2998 -20 90 1400 000/00 RMK AO2 T02670250
53915KARA ARA20160803225011508/03/16 22:50:31  5-MIN KARA 040450Z AUTO 00000KT 10SM CLR 27/25 A2998 -20 90 1400 000/00 RMK AO2 SLP151 T02670250
53915KARA ARA20160803225510808/03/16 22:55:31  5-MIN KARA 040455Z AUTO 00000KT 10SM CLR 26/24 A2998 -20 90 1300 000/00 RMK AO2 T02610244
53915KARA ARA20160803230010808/03/16 23:00:31  5-MIN KARA 040500Z AUTO 00000KT 10SM CLR 27/25 A2998 -20 90 1400 000/00 RMK AO2 T02670250
53915KARA ARA20160803230510808/03/16 23:05:31  5-MIN KARA 040505Z AUTO 00000KT 10SM CLR 27/25 A2998 -20 90 1400 000/00 RMK AO2 T02670250
53915KARA ARA20160803231010708/03/16 23:10:31  5-MIN KARA 040510Z AUTO 00000KT 9SM CLR 27/25 A2997 -20 90 1400 000/00 RMK AO2 T02670250
53915KARA ARA20160803231510708/03/16 23:15:31  5-MIN KARA 040515Z AUTO 00000KT 9SM CLR 26/25 A2998 -20 93 1300 000/00 RMK AO2 T02610250
53915KARA ARA20160803232010708/03/16 23:20:31  5-MIN KARA 040520Z AUTO 00000KT 9SM CLR 26/25 A2998 -20 93 1300 000/00 RMK AO2 T02610250
53915KARA ARA20160803232510708/03/16 23:25:31  5-MIN KARA 040525Z AUTO 00000KT 9SM CLR 26/24 A2998 -20 90 1300 000/00 RMK AO2 T02610244
53915KARA ARA20160803233010708/03/16 23:30:31  5-MIN KARA 040530Z AUTO 00000KT 9SM CLR 26/25 A2998 -20 93 1300 000/00 RMK AO2 T02610250
53915KARA ARA20160803233510708/03/16 23:35:31  5-MIN KARA 040535Z AUTO 00000KT 9SM CLR 26/25 A2997 -20 97 1200 000/00 RMK AO2 T02560250
53915KARA ARA20160803234010708/03/16 23:40:31  5-MIN KARA 040540Z AUTO 00000KT 8SM CLR 26/24 A2997 -20 93 1200 000/00 RMK AO2 T02560244
53915KARA ARA20160803234510708/03/16 23:45:31  5-MIN KARA 040545Z AUTO 00000KT 9SM CLR 26/24 A2997 -20 93 1200 000/00 RMK AO2 T02560244
53915KARA ARA20160803235014208/03/16 23:50:31  5-MIN KARA 040550Z AUTO 00000KT 8SM CLR 26/24 A2998 -20 93 1200 000/00 RMK AO2 SLP150 T02560244 10311 20256 403330256 53007
53915KARA ARA20160803235510708/03/16 23:55:31  5-MIN KARA 040555Z AUTO 00000KT 8SM CLR 26/24 A2997 -20 93 1200 000/00 RMK AO2 T02560244
53915KARA ARA20160804000010708/04/16 00:00:31  5-MIN KARA 040600Z AUTO 00000KT 9SM CLR 26/24 A2997 -20 93 1200 000/00 RMK AO2 T02560244
53915KARA ARA20160804000510808/04/16 00:05:31  5-MIN KARA 040605Z AUTO 00000KT 10SM CLR 26/24 A2997 -20 93 1200 000/00 RMK AO2 T02560244
53915KARA ARA20160804001010808/04/16 00:10:31  5-MIN KARA 040610Z AUTO 00000KT 10SM CLR 26/24 A2997 -20 93 1200 000/00 RMK AO2 T02560244
53915KARA ARA20160804001510708/04/16 00:15:31  5-MIN KARA 040615Z AUTO 00000KT 9SM CLR 26/24 A2997 -20 93 1200 000/00 RMK AO2 T02560244
53915KARA ARA20160804002010708/04/16 00:20:31  5-MIN KARA 040620Z AUTO 00000KT 8SM CLR 26/24 A2997 -20 93 1200 000/00 RMK AO2 T02560244
53915KARA ARA20160804002510708/04/16 00:25:31  5-MIN KARA 040625Z AUTO 00000KT 8SM CLR 26/25 A2997 -20 93 1300 000/00 RMK AO2 T02610250
53915KARA ARA20160804003010708/04/16 00:30:31  5-MIN KARA 040630Z AUTO 00000KT 9SM CLR 26/24 A2997 -20 90 1300 000/00 RMK AO2 T02610244
53915KARA ARA20160804003510708/04/16 00:35:31  5-MIN KARA 040635Z AUTO 00000KT 9SM CLR 26/25 A2997 -20 93 1300 000/00 RMK AO2 T02610250
53915KARA ARA20160804004010708/04/16 00:40:31  5-MIN KARA 040640Z AUTO 00000KT 9SM CLR 26/24 A2997 -10 93 1200 000/00 RMK AO2 T02560244
53915KARA ARA20160804004510708/04/16 00:45:31  5-MIN KARA 040645Z AUTO 00000KT 9SM CLR 26/24 A2997 -10 93 1200 000/00 RMK AO2 T02560244
53915KARA ARA20160804005011408/04/16 00:50:31  5-MIN KARA 040650Z AUTO 00000KT 9SM CLR 26/24 A2997 -10 93 1200 000/00 RMK AO2 SLP147 T02560244
53915KARA ARA20160804005510708/04/16 00:55:31  5-MIN KARA 040655Z AUTO 00000KT 9SM CLR 26/24 A2997 -10 93 1200 000/00 RMK AO2 T02560244
53915KARA ARA20160804010010708/04/16 01:00:31  5-MIN KARA 040700Z AUTO 00000KT 9SM CLR 26/24 A2997 -10 93 1200 000/00 RMK AO2 T02560244
53915KARA ARA20160804010510708/04/16 01:05:31  5-MIN KARA 040705Z AUTO 00000KT 9SM CLR 26/24 A2997 -10 93 1200 000/00 RMK AO2 T02560244
53915KARA ARA20160804011010708/04/16 01:10:31  5-MIN KARA 040710Z AUTO 00000KT 9SM CLR 26/24 A2996 -10 93 1200 000/00 RMK AO2 T02560244
53915KARA ARA20160804011510708/04/16 01:15:31  5-MIN KARA 040715Z AUTO 00000KT 9SM CLR 26/24 A2996 -10 93 1200 000/00 RMK AO2 T02560244
53915KARA ARA20160804012010708/04/16 01:20:31  5-MIN KARA 040720Z AUTO 00000KT 9SM CLR 26/24 A2996 -10 93 1200 000/00 RMK AO2 T02560244
53915KARA ARA20160804012510708/04/16 01:25:31  5-MIN KARA 040725Z AUTO 00000KT 9SM CLR 26/24 A2996 -10 93 1200 000/00 RMK AO2 T02560244
53915KARA ARA20160804013010708/04/16 01:30:31  5-MIN KARA 040730Z AUTO 00000KT 9SM CLR 26/24 A2996 -10 93 1300 000/00 RMK AO2 T02560244
53915KARA ARA20160804013510508/04/16 01:35:31  5-MIN KARA 040735Z AUTO 00000KT 9SM CLR 26/24 A2996 0 93 1300 000/00 RMK AO2 T02560244
53915KARA ARA20160804014010508/04/16 01:40:31  5-MIN KARA 040740Z AUTO 00000KT 8SM CLR 26/24 A2996 0 93 1300 000/00 RMK AO2 T02560244
53915KARA ARA20160804014510508/04/16 01:45:31  5-MIN KARA 040745Z AUTO 00000KT 7SM CLR 26/24 A2996 0 93 1300 000/00 RMK AO2 T02560244
53915KARA ARA20160804015011208/04/16 01:50:31  5-MIN KARA 040750Z AUTO 00000KT 7SM CLR 26/24 A2996 0 93 1300 000/00 RMK AO2 SLP143 T02560244
53915KARA ARA20160804015510508/04/16 01:55:31  5-MIN KARA 040755Z AUTO 00000KT 7SM CLR 25/24 A2996 0 93 1200 000/00 RMK AO2 T02500239
53915KARA ARA20160804020010508/04/16 02:00:31  5-MIN KARA 040800Z AUTO 00000KT 7SM CLR 26/24 A2996 0 90 1300 000/00 RMK AO2 T02560239
53915KARA ARA20160804020510508/04/16 02:05:31  5-MIN KARA 040805Z AUTO 00000KT 7SM CLR 26/24 A2996 0 93 1300 000/00 RMK AO2 T02560244
53915KARA ARA20160804021010508/04/16 02:10:31  5-MIN KARA 040810Z AUTO 00000KT 7SM CLR 25/24 A2996 0 97 1200 000/00 RMK AO2 T02500244
53915KARA ARA20160804021510508/04/16 02:15:31  5-MIN KARA 040815Z AUTO 00000KT 7SM CLR 25/24 A2995 0 97 1200 000/00 RMK AO2 T02500244
53915KARA ARA20160804022010508/04/16 02:20:31  5-MIN KARA 040820Z AUTO 00000KT 7SM CLR 25/24 A2996 0 93 1200 000/00 RMK AO2 T02500239
53915KARA ARA20160804022510508/04/16 02:25:31  5-MIN KARA 040825Z AUTO 00000KT 8SM CLR 25/24 A2995 0 97 1200 000/00 RMK AO2 T02500244
53915KARA ARA20160804023010508/04/16 02:30:31  5-MIN KARA 040830Z AUTO 00000KT 7SM CLR 24/24 A2995 0 97 1100 000/00 RMK AO2 T02440239
53915KARA ARA20160804023510508/04/16 02:35:31  5-MIN KARA 040835Z AUTO 00000KT 7SM CLR 25/24 A2995 0 93 1200 000/00 RMK AO2 T02500239
53915KARA ARA20160804024010508/04/16 02:40:31  5-MIN KARA 040840Z AUTO 00000KT 8SM CLR 25/24 A2995 0 93 1200 000/00 RMK AO2 T02500239
53915KARA ARA20160804024510508/04/16 02:45:31  5-MIN KARA 040845Z AUTO 00000KT 7SM CLR 25/24 A2995 0 93 1200 000/00 RMK AO2 T02500239
53915KARA ARA20160804025011808/04/16 02:50:31  5-MIN KARA 040850Z AUTO 00000KT 7SM CLR 24/24 A2995 0 97 1100 000/00 RMK AO2 SLP142 T02440239 50000
53915KARA ARA20160804025510508/04/16 02:55:31  5-MIN KARA 040855Z AUTO 00000KT 7SM CLR 25/24 A2995 0 93 1200 000/00 RMK AO2 T02500239
53915KARA ARA20160804030010508/04/16 03:00:31  5-MIN KARA 040900Z AUTO 00000KT 7SM CLR 25/24 A2995 0 93 1200 000/00 RMK AO2 T02500239
53915KARA ARA20160804030510508/04/16 03:05:31  5-MIN KARA 040905Z AUTO 00000KT 7SM CLR 24/24 A2995 0 97 1100 000/00 RMK AO2 T02440239
53915KARA ARA20160804031010508/04/16 03:10:31  5-MIN KARA 040910Z AUTO 00000KT 7SM CLR 25/24 A2995 0 93 1200 000/00 RMK AO2 T02500239
53915KARA ARA20160804031510508/04/16 03:15:31  5-MIN KARA 040915Z AUTO 00000KT 7SM CLR 25/24 A2995 0 93 1200 000/00 RMK AO2 T02500239
53915KARA ARA20160804032010808/04/16 03:20:31  5-MIN KARA 040920Z AUTO 00000KT 6SM BR CLR 25/24 A2995 0 93 1200 000/00 RMK AO2 T02500239
53915KARA ARA20160804032510808/04/16 03:25:31  5-MIN KARA 040925Z AUTO 00000KT 5SM BR CLR 25/24 A2995 0 93 1200 000/00 RMK AO2 T02500239
53915KARA ARA20160804033010808/04/16 03:30:31  5-MIN KARA 040930Z AUTO 00000KT 6SM BR CLR 25/24 A2995 0 93 1200 000/00 RMK AO2 T02500239
53915KARA ARA20160804033510808/04/16 03:35:31  5-MIN KARA 040935Z AUTO 00000KT 6SM BR CLR 25/24 A2995 0 93 1200 000/00 RMK AO2 T02500239
53915KARA ARA20160804034010808/04/16 03:40:31  5-MIN KARA 040940Z AUTO 00000KT 5SM BR CLR 25/24 A2995 0 97 1200 000/00 RMK AO2 T02500244
53915KARA ARA20160804034510808/04/16 03:45:31  5-MIN KARA 040945Z AUTO 00000KT 6SM BR CLR 26/24 A2995 0 93 1300 000/00 RMK AO2 T02560244
53915KARA ARA20160804035011508/04/16 03:50:31  5-MIN KARA 040950Z AUTO 00000KT 6SM BR CLR 25/24 A2996 0 93 1200 000/00 RMK AO2 SLP143 T02500239
53915KARA ARA20160804035510808/04/16 03:55:31  5-MIN KARA 040955Z AUTO 00000KT 6SM BR CLR 25/24 A2995 0 93 1200 000/00 RMK AO2 T02500239
53915KARA ARA20160804040012608/04/16 04:00:31  5-MIN KARA 041000Z AUTO 00000KT 6SM -RA BR CLR 25/24 A2995 0 97 1200 000/00 RMK AO2 RAB0958 P0000 T02500244
53915KARA ARA20160804040512308/04/16 04:05:31  5-MIN KARA 041005Z AUTO 00000KT 7SM -RA CLR 25/24 A2995 0 97 1200 000/00 RMK AO2 RAB0958 P0000 T02500244
53915KARA ARA20160804041012308/04/16 04:10:31  5-MIN KARA 041010Z AUTO 00000KT 7SM -RA CLR 25/24 A2996 0 97 1200 000/00 RMK AO2 RAB0958 P0000 T02500244
53915KARA ARA20160804041512308/04/16 04:15:31  5-MIN KARA 041015Z AUTO 35003KT 8SM -RA CLR 25/24 A2996 0 93 1200 350/03 RMK AO2 RAB0958 P0000 T02500239
53915KARA ARA20160804042012308/04/16 04:20:31  5-MIN KARA 041020Z AUTO 00000KT 8SM -RA CLR 25/24 A2996 0 93 1200 000/00 RMK AO2 RAB0958 P0000 T02500239
53915KARA ARA20160804042512308/04/16 04:25:31  5-MIN KARA 041025Z AUTO 00000KT 8SM -RA CLR 25/24 A2996 0 97 1200 000/00 RMK AO2 RAB0958 P0000 T02500244
53915KARA ARA20160804043012508/04/16 04:30:31  5-MIN KARA 041030Z AUTO 00000KT 7SM -RA CLR 24/24 A2996 -10 97 1100 000/00 RMK AO2 RAB0958 P0000 T02440239
53915KARA ARA20160804043512508/04/16 04:35:31  5-MIN KARA 041035Z AUTO 00000KT 7SM -RA CLR 24/24 A2996 -10 97 1100 000/00 RMK AO2 RAB0958 P0000 T02440239
53915KARA ARA20160804044011908/04/16 04:40:31  5-MIN KARA 041040Z 00000KT 7SM CLR 24/24 A2996 -10 97 1100 000/00 RMK AO2 RAB0958E36 P0000 T02440239
53915KARA ARA20160804044511908/04/16 04:45:31  5-MIN KARA 041045Z 00000KT 7SM CLR 24/24 A2996 -10 97 1100 000/00 RMK AO2 RAB0958E36 P0000 T02440239
53915KARA ARA20160804045012608/04/16 04:50:31  5-MIN KARA 041050Z 00000KT 8SM CLR 24/24 A2997 -10 97 1100 000/00 RMK AO2 RAB0958E36 SLP146 P0000 T02440239
53915KARA ARA20160804045510208/04/16 04:55:31  5-MIN KARA 041055Z 00000KT 8SM CLR 24/24 A2997 -10 97 1100 000/00 RMK AO2 T02440239
53915KARA ARA20160804050010208/04/16 05:00:31  5-MIN KARA 041100Z 00000KT 8SM CLR 24/23 A2997 -10 93 1100 000/00 RMK AO2 T02440233
53915KARA ARA20160804050510208/04/16 05:05:31  5-MIN KARA 041105Z 00000KT 8SM CLR 24/24 A2997 -10 97 1100 000/00 RMK AO2 T02440239
53915KARA ARA20160804051010208/04/16 05:10:31  5-MIN KARA 041110Z 00000KT 7SM CLR 24/24 A2997 -20 97 1100 000/00 RMK AO2 T02440239
53915KARA ARA20160804051510208/04/16 05:15:31  5-MIN KARA 041115Z 00000KT 7SM CLR 24/24 A2997 -20 97 1100 000/00 RMK AO2 T02440239
53915KARA ARA20160804052010208/04/16 05:20:31  5-MIN KARA 041120Z 00000KT 8SM CLR 24/23 A2998 -20 93 1100 000/00 RMK AO2 T02440233
53915KARA ARA20160804052510208/04/16 05:25:31  5-MIN KARA 041125Z 00000KT 7SM CLR 24/23 A2998 -20 93 1100 000/00 RMK AO2 T02440233
53915KARA ARA20160804053010208/04/16 05:30:31  5-MIN KARA 041130Z 00000KT 7SM CLR 24/23 A2998 -30 93 1100 000/00 RMK AO2 T02440233
53915KARA ARA20160804053510508/04/16 05:35:31  5-MIN KARA 041135Z 00000KT 6SM BR CLR 24/24 A2998 -30 97 1100 000/00 RMK AO2 T02440239
53915KARA ARA20160804054010508/04/16 05:40:31  5-MIN KARA 041140Z 00000KT 6SM BR CLR 25/24 A2999 -30 93 1200 000/00 RMK AO2 T02500239
53915KARA ARA20160804054510508/04/16 05:45:31  5-MIN KARA 041145Z 00000KT 6SM BR CLR 25/24 A2999 -30 93 1200 000/00 RMK AO2 T02500239
53915KARA ARA20160804055013608/04/16 05:50:31  5-MIN KARA 041150Z 00000KT 6SM BR CLR 25/24 A2999 -40 93 1200 000/00 RMK AO2 SLP155 60000 T02500239 10261 20244 56008
53915KARA ARA20160804055512108/04/16 05:55:31  5-MIN KARA 041155Z 00000KT 6SM -RA BR CLR 25/24 A2999 -40 93 1100 000/00 RMK AO2 RAB55 P0000 T02500239
53915KARA ARA20160804060012308/04/16 06:00:31  5-MIN KARA 041200Z 00000KT 6SM -RA BR CLR 25/24 A2999 -40 97 1100 000/00 RMK AO2 RAB1155 P0000 T02500244
53915KARA ARA20160804060512308/04/16 06:05:31  5-MIN KARA 041205Z 00000KT 6SM -RA BR CLR 25/24 A2999 -40 97 1100 000/00 RMK AO2 RAB1155 P0000 T02500244
53915KARA ARA20160804061012208/04/16 06:10:31  5-MIN KARA 041210Z 00000KT 6SM BR CLR 25/24 A2999 -40 97 1100 000/00 RMK AO2 RAB1155E06 P0000 T02500244
53915KARA ARA20160804061512208/04/16 06:15:31  5-MIN KARA 041215Z 00000KT 6SM BR CLR 25/24 A3000 -40 97 1100 000/00 RMK AO2 RAB1155E06 P0000 T02500244
53915KARA ARA20160804062011908/04/16 06:20:31  5-MIN KARA 041220Z 00000KT 7SM CLR 26/24 A3000 -40 93 1200 000/00 RMK AO2 RAB1155E06 P0000 T02560244
53915KARA ARA20160804062511908/04/16 06:25:31  5-MIN KARA 041225Z 00000KT 7SM CLR 26/25 A3000 -40 93 1300 000/00 RMK AO2 RAB1155E06 P0000 T02610250
53915KARA ARA20160804063012608/04/16 06:30:31  5-MIN KARA 041230Z 00000KT 8SM -RA CLR 27/25 A3000 -40 90 1300 000/00 RMK AO2 RAB1155E06B27 P0000 T02670250
53915KARA ARA20160804063512608/04/16 06:35:31  5-MIN KARA 041235Z 00000KT 9SM -RA CLR 27/25 A3000 -50 90 1300 000/00 RMK AO2 RAB1155E06B27 P0000 T02670250
53915KARA ARA20160804064012508/04/16 06:40:31  5-MIN KARA 041240Z 00000KT 9SM CLR 27/25 A3000 -40 87 1400 000/00 RMK AO2 RAB1155E06B27E40 P0000 T02720250
53915KARA ARA20160804064512608/04/16 06:45:31  5-MIN KARA 041245Z 00000KT 10SM CLR 27/25 A3000 -50 87 1400 000/00 RMK AO2 RAB1155E06B27E40 P0000 T02720250
53915KARA ARA20160804065013308/04/16 06:50:31  5-MIN KARA 041250Z 00000KT 10SM CLR 27/25 A3000 -50 87 1400 000/00 RMK AO2 RAB1155E06B27E40 SLP159 P0000 T02720250
53915KARA ARA20160804065510308/04/16 06:55:31  5-MIN KARA 041255Z 00000KT 10SM CLR 28/25 A3000 -50 84 1500 000/00 RMK AO2 T02780250
53915KARA ARA20160804070010308/04/16 07:00:31  5-MIN KARA 041300Z 00000KT 10SM CLR 28/26 A3001 -50 87 1400 000/00 RMK AO2 T02780256
53915KARA ARA20160804070510308/04/16 07:05:31  5-MIN KARA 041305Z 00000KT 10SM CLR 28/25 A3000 -50 84 1400 000/00 RMK AO2 T02780250
53915KARA ARA20160804071010308/04/16 07:10:31  5-MIN KARA 041310Z 00000KT 10SM CLR 28/25 A3001 -50 84 1400 000/00 RMK AO2 T02780250
53915KARA ARA20160804071510308/04/16 07:15:31  5-MIN KARA 041315Z 00000KT 10SM CLR 28/25 A3001 -50 84 1400 000/00 RMK AO2 T02780250
53915KARA ARA20160804072010308/04/16 07:20:31  5-MIN KARA 041320Z 00000KT 10SM CLR 28/26 A3001 -50 87 1400 000/00 RMK AO2 T02780256
53915KARA ARA20160804072510308/04/16 07:25:31  5-MIN KARA 041325Z 34003KT 10SM CLR 28/26 A3001 -50 85 1500 340/03 RMK AO2 T02830256
53915KARA ARA20160804073010308/04/16 07:30:31  5-MIN KARA 041330Z 00000KT 10SM CLR 28/26 A3001 -50 85 1500 000/00 RMK AO2 T02830256
53915KARA ARA20160804073510308/04/16 07:35:31  5-MIN KARA 041335Z 34003KT 10SM CLR 29/26 A3001 -60 82 1600 340/03 RMK AO2 T02890256
53915KARA ARA20160804074010308/04/16 07:40:31  5-MIN KARA 041340Z 33003KT 10SM CLR 29/26 A3001 -50 85 1600 330/03 RMK AO2 T02890261
53915KARA ARA20160804074510308/04/16 07:45:31  5-MIN KARA 041345Z 34004KT 10SM CLR 29/26 A3001 -50 82 1600 340/04 RMK AO2 T02940261
53915KARA ARA20160804075011008/04/16 07:50:31  5-MIN KARA 041350Z 34004KT 10SM CLR 29/26 A3001 -50 82 1600 340/04 RMK AO2 SLP161 T02940261
53915KARA ARA20160804075510308/04/16 07:55:31  5-MIN KARA 041355Z 34003KT 10SM CLR 29/26 A3001 -50 82 1600 330/03 RMK AO2 T02940261
53915KARA ARA20160804080010308/04/16 08:00:31  5-MIN KARA 041400Z 32004KT 10SM CLR 30/26 A3001 -50 79 1700 320/04 RMK AO2 T03000261
53915KARA ARA20160804080510308/04/16 08:05:31  5-MIN KARA 041405Z 31005KT 10SM CLR 30/26 A3001 -50 79 1700 310/05 RMK AO2 T03000261
53915KARA ARA20160804081010308/04/16 08:10:31  5-MIN KARA 041410Z 31003KT 10SM CLR 30/26 A3001 -50 79 1700 310/03 RMK AO2 T03000261
53915KARA ARA20160804081510308/04/16 08:15:31  5-MIN KARA 041415Z 32005KT 10SM CLR 30/26 A3001 -50 77 1700 320/05 RMK AO2 T03000256
53915KARA ARA20160804082010308/04/16 08:20:31  5-MIN KARA 041420Z 32005KT 10SM CLR 30/26 A3001 -50 77 1700 310/05 RMK AO2 T03000256
53915KARA ARA20160804082510308/04/16 08:25:31  5-MIN KARA 041425Z 35004KT 10SM CLR 31/26 A3001 -50 74 1800 350/04 RMK AO2 T03060256
53915KARA ARA20160804083010308/04/16 08:30:31  5-MIN KARA 041430Z 33005KT 10SM CLR 31/26 A3001 -50 74 1800 330/05 RMK AO2 T03110261
53915KARA ARA20160804083510308/04/16 08:35:31  5-MIN KARA 041435Z 34003KT 10SM CLR 31/26 A3001 -50 74 1800 340/03 RMK AO2 T03060256
53915KARA ARA20160804084010308/04/16 08:40:31  5-MIN KARA 041440Z 34005KT 10SM CLR 31/26 A3001 -50 74 1800 340/05 RMK AO2 T03060256
53915KARA ARA20160804084510308/04/16 08:45:31  5-MIN KARA 041445Z 35003KT 10SM CLR 31/26 A3000 -50 72 1800 350/03 RMK AO2 T03110256
53915KARA ARA20160804085012208/04/16 08:50:31  5-MIN KARA 041450Z 00000KT 10SM CLR 31/26 A3000 -40 72 1800 000/00 RMK AO2 SLP159 60000 T03110256 53014
53915KARA ARA20160804085510308/04/16 08:55:31  5-MIN KARA 041455Z 00000KT 10SM CLR 32/26 A3000 -40 69 1900 000/00 RMK AO2 T03170256
53915KARA ARA20160804090010308/04/16 09:00:31  5-MIN KARA 041500Z 35004KT 10SM CLR 32/26 A3000 -40 67 1900 350/04 RMK AO2 T03220256
53915KARA ARA20160804090510308/04/16 09:05:31  5-MIN KARA 041505Z 33004KT 10SM CLR 32/26 A3000 -40 69 1900 330/04 RMK AO2 T03170256
53915KARA ARA20160804091010308/04/16 09:10:31  5-MIN KARA 041510Z 00000KT 10SM CLR 31/25 A3000 -40 69 1800 000/00 RMK AO2 T03110250
53915KARA ARA20160804091510308/04/16 09:15:31  5-MIN KARA 041515Z 00000KT 10SM CLR 31/25 A3000 -40 69 1800 000/00 RMK AO2 T03110250
53915KARA ARA20160804092010308/04/16 09:20:31  5-MIN KARA 041520Z 05003KT 10SM CLR 32/24 A3000 -40 63 1900 050/03 RMK AO2 T03220244
53915KARA ARA20160804092510308/04/16 09:25:31  5-MIN KARA 041525Z 36003KT 10SM CLR 32/24 A3000 -40 63 1900 360/03 RMK AO2 T03220244
53915KARA ARA20160804093010308/04/16 09:30:31  5-MIN KARA 041530Z 32004KT 10SM CLR 32/25 A3000 -40 65 1900 320/04 RMK AO2 T03220250
53915KARA ARA20160804093510308/04/16 09:35:31  5-MIN KARA 041535Z 28003KT 10SM CLR 32/24 A3000 -40 65 1900 280/03 RMK AO2 T03170244
53915KARA ARA20160804094010608/04/16 09:40:31  5-MIN KARA 041540Z 00000KT 10SM FEW026 32/24 A3000 -40 65 1900 000/00 RMK AO2 T03170244
53915KARA ARA20160804094510608/04/16 09:45:31  5-MIN KARA 041545Z 00000KT 10SM FEW026 32/24 A3000 -40 65 1900 000/00 RMK AO2 T03170244
53915KARA ARA20160804095011308/04/16 09:50:31  5-MIN KARA 041550Z 00000KT 10SM FEW027 32/24 A3000 -50 63 1900 000/00 RMK AO2 SLP159 T03170239
53915KARA ARA20160804095510608/04/16 09:55:31  5-MIN KARA 041555Z 34003KT 10SM FEW027 32/24 A3000 -40 63 1900 340/03 RMK AO2 T03220244
53915KARA ARA20160804100010608/04/16 10:00:31  5-MIN KARA 041600Z VRB04KT 10SM FEW027 33/24 A3000 -40 61 2000 VRB/04 RMK AO2 T03280244
53915KARA ARA20160804100510608/04/16 10:05:31  5-MIN KARA 041605Z 00000KT 10SM FEW027 32/24 A3000 -40 61 1900 000/00 RMK AO2 T03220239
53915KARA ARA20160804101010308/04/16 10:10:31  5-MIN KARA 041610Z 00000KT 10SM CLR 32/23 A3000 -40 59 1900 000/00 RMK AO2 T03220233
53915KARA ARA20160804101510308/04/16 10:15:31  5-MIN KARA 041615Z 00000KT 10SM CLR 33/24 A3000 -50 59 2000 000/00 RMK AO2 T03280239
53915KARA ARA20160804102010308/04/16 10:20:31  5-MIN KARA 041620Z 00000KT 10SM CLR 33/24 A3000 -50 57 2100 000/00 RMK AO2 T03330239
53915KARA ARA20160804102510608/04/16 10:25:31  5-MIN KARA 041625Z 00000KT 10SM FEW050 33/24 A3000 -50 59 2100 000/00 RMK AO2 T03330244
53915KARA ARA20160804103010608/04/16 10:30:31  5-MIN KARA 041630Z VRB03KT 10SM FEW050 33/24 A3000 -50 61 2000 VRB/03 RMK AO2 T03280244
53915KARA ARA20160804103510608/04/16 10:35:31  5-MIN KARA 041635Z 03004KT 10SM FEW055 33/24 A3000 -50 61 2000 030/04 RMK AO2 T03280244
53915KARA ARA20160804104010608/04/16 10:40:31  5-MIN KARA 041640Z 00000KT 10SM FEW050 33/24 A3000 -40 57 2100 000/00 RMK AO2 T03330239
53915KARA ARA20160804104510608/04/16 10:45:31  5-MIN KARA 041645Z 00000KT 10SM FEW050 33/24 A3000 -40 59 2000 000/00 RMK AO2 T03280239
53915KARA ARA20160804105011308/04/16 10:50:31  5-MIN KARA 041650Z 00000KT 10SM FEW050 33/24 A3000 -40 57 2100 000/00 RMK AO2 SLP158 T03330239
53915KARA ARA20160804105510308/04/16 10:55:31  5-MIN KARA 041655Z 32004KT 10SM CLR 34/24 A3000 -40 57 2100 320/04 RMK AO2 T03390244
53915KARA ARA20160804110010308/04/16 11:00:31  5-MIN KARA 041700Z 00000KT 10SM CLR 33/24 A3000 -40 59 2100 000/00 RMK AO2 T03330244
53915KARA ARA20160804110510308/04/16 11:05:31  5-MIN KARA 041705Z 00000KT 10SM CLR 33/23 A3000 -40 55 2100 000/00 RMK AO2 T03330233
53915KARA ARA20160804111010308/04/16 11:10:31  5-MIN KARA 041710Z 00000KT 10SM CLR 34/24 A2999 -40 53 2200 000/00 RMK AO2 T03440239
53915KARA ARA20160804111510308/04/16 11:15:31  5-MIN KARA 041715Z 00000KT 10SM CLR 33/23 A2999 -40 55 2100 000/00 RMK AO2 T03330233
53915KARA ARA20160804112010308/04/16 11:20:31  5-MIN KARA 041720Z 00000KT 10SM CLR 33/23 A2999 -30 55 2100 000/00 RMK AO2 T03330233
53915KARA ARA20160804112510308/04/16 11:25:31  5-MIN KARA 041725Z 00000KT 10SM CLR 33/23 A2999 -30 55 2100 000/00 RMK AO2 T03330233
53915KARA ARA20160804113010308/04/16 11:30:31  5-MIN KARA 041730Z 23003KT 10SM CLR 34/24 A2999 -40 55 2100 230/03 RMK AO2 T03390239
53915KARA ARA20160804113510308/04/16 11:35:31  5-MIN KARA 041735Z VRB03KT 10SM CLR 33/24 A2999 -40 57 2100 VRB/03 RMK AO2 T03330239
53915KARA ARA20160804114010308/04/16 11:40:31  5-MIN KARA 041740Z 31003KT 10SM CLR 33/24 A2999 -40 57 2100 310/03 RMK AO2 T03330239
53915KARA ARA20160804114510608/04/16 11:45:31  5-MIN KARA 041745Z 00000KT 10SM SCT038 34/24 A2999 -40 55 2100 000/00 RMK AO2 T03390239
53915KARA ARA20160804115013708/04/16 11:50:31  5-MIN KARA 041750Z 01003KT 10SM BKN038 34/24 A2999 -30 53 2200 010/03 RMK AO2 SLP155 60000 T03440239 10344 20250 50003
53915KARA ARA20160804115510608/04/16 11:55:31  5-MIN KARA 041755Z VRB04KT 10SM BKN038 34/24 A2999 -30 55 2100 VRB/04 RMK AO2 T03390239
53915KARA ARA20160804120011308/04/16 12:00:31  5-MIN KARA 041800Z VRB03KT 10SM BKN038 BKN065 33/24 A2999 -30 57 2100 VRB/03 RMK AO2 T03330239
53915KARA ARA20160804120511308/04/16 12:05:31  5-MIN KARA 041805Z 00000KT 10SM BKN039 BKN065 33/23 A2999 -30 55 2100 000/00 RMK AO2 T03330233
53915KARA ARA20160804121011308/04/16 12:10:31  5-MIN KARA 041810Z 00000KT 10SM BKN039 BKN065 34/23 A2999 -30 53 2100 000/00 RMK AO2 T03390233
53915KARA ARA20160804121511308/04/16 12:15:31  5-MIN KARA 041815Z VRB03KT 10SM BKN038 BKN065 34/24 A2998 -30 53 2200 VRB/03 RMK AO2 T03440239
53915KARA ARA20160804122011308/04/16 12:20:31  5-MIN KARA 041820Z 00000KT 10SM BKN038 BKN065 34/23 A2998 -30 53 2200 000/00 RMK AO2 T03390233
53915KARA ARA20160804122512908/04/16 12:25:31  5-MIN KARA 041825Z 09004KT 10SM -RA BKN038 BKN065 34/23 A2998 -30 53 2200 090/04 RMK AO2 RAB25 P0000 T03390233
53915KARA ARA20160804123012208/04/16 12:30:31  5-MIN KARA 041830Z 33003KT 10SM -RA BKN038 33/24 A2998 -30 59 2100 330/03 RMK AO2 RAB25 P0000 T03330244
53915KARA ARA20160804123512208/04/16 12:35:31  5-MIN KARA 041835Z 00000KT 10SM -RA BKN038 33/24 A2998 -20 57 2100 000/00 RMK AO2 RAB25 P0000 T03330239
53915KARA ARA20160804124012108/04/16 12:40:31  5-MIN KARA 041840Z 00000KT 10SM BKN038 34/24 A2998 -20 57 2200 000/00 RMK AO2 RAB25E38 P0000 T03390244
53915KARA ARA20160804124512108/04/16 12:45:31  5-MIN KARA 041845Z 00000KT 10SM BKN039 34/24 A2998 -20 53 2200 000/00 RMK AO2 RAB25E38 P0000 T03440239
53915KARA ARA20160804125012808/04/16 12:50:31  5-MIN KARA 041850Z 00000KT 10SM SCT039 34/24 A2998 -20 55 2200 000/00 RMK AO2 RAB25E38 SLP150 P0000 T03390239
53915KARA ARA20160804125511708/04/16 12:55:31  5-MIN KARA 041855Z 00000KT 10SM SCT039 34/24 A2998 -20 53 2200 000/00 RMK AO2 LTG DSNT S T03440239
53915KARA ARA20160804130011708/04/16 13:00:31  5-MIN KARA 041900Z 00000KT 10SM FEW039 34/23 A2998 -20 52 2200 000/00 RMK AO2 LTG DSNT S T03440233
53915KARA ARA20160804130511408/04/16 13:05:31  5-MIN KARA 041905Z 07004KT 10SM CLR 36/23 A2997 -20 47 2300 070/04 RMK AO2 LTG DSNT S T03560228
53915KARA ARA20160804131013008/04/16 13:10:31  5-MIN KARA 041910Z 09003KT 10SM -RA CLR 34/23 A2997 -20 50 2200 090/03 RMK AO2 LTG DSNT S RAB08 P0000 T03440228
53915KARA ARA20160804131511908/04/16 13:15:31  5-MIN KARA 041915Z 00000KT 10SM -RA CLR 34/22 A2997 -10 48 2200 000/00 RMK AO2 RAB08 P0000 T03440222
53915KARA ARA20160804132012108/04/16 13:20:31  5-MIN KARA 041920Z 00000KT 10SM FEW046 36/23 A2997 -10 48 2400 000/00 RMK AO2 RAB08E17 P0000 T03560233
53915KARA ARA20160804132512108/04/16 13:25:31  5-MIN KARA 041925Z VRB03KT 10SM FEW046 36/23 A2996 -10 47 2400 VRB/03 RMK AO2 RAB08E17 P0000 T03560228
53915KARA ARA20160804133011608/04/16 13:30:31  5-MIN KARA 041930Z 00000KT 10SM CLR 36/23 A2996 0 47 2400 000/00 RMK AO2 RAB08E17 P0000 T03560228
53915KARA ARA20160804133511608/04/16 13:35:31  5-MIN KARA 041935Z 19003KT 10SM CLR 36/23 A2996 0 48 2400 190/03 RMK AO2 RAB08E17 P0000 T03560233
53915KARA ARA20160804134011608/04/16 13:40:31  5-MIN KARA 041940Z VRB04KT 10SM CLR 35/23 A2995 0 50 2300 VRB/04 RMK AO2 RAB08E17 P0000 T03500233
53915KARA ARA20160804134511608/04/16 13:45:31  5-MIN KARA 041945Z 29003KT 10SM CLR 34/23 A2995 0 50 2200 290/03 RMK AO2 RAB08E17 P0000 T03440228
53915KARA ARA20160804135012308/04/16 13:50:31  5-MIN KARA 041950Z 28003KT 10SM CLR 35/23 A2995 0 48 2300 280/03 RMK AO2 RAB08E17 SLP142 P0000 T03500228
53915KARA ARA20160804135510108/04/16 13:55:31  5-MIN KARA 041955Z 29004KT 10SM CLR 34/23 A2995 0 50 2200 280/04 RMK AO2 T03440228
53915KARA ARA20160804140010108/04/16 14:00:31  5-MIN KARA 042000Z 00000KT 10SM CLR 35/23 A2995 0 48 2300 000/00 RMK AO2 T03500228
53915KARA ARA20160804140510108/04/16 14:05:31  5-MIN KARA 042005Z 21003KT 10SM CLR 35/23 A2995 0 50 2300 210/03 RMK AO2 T03500233
53915KARA ARA20160804141011708/04/16 14:10:31  5-MIN KARA 042010Z 22003KT 10SM -RA CLR 34/23 A2995 0 52 2300 220/03 RMK AO2 RAB08 P0000 T03440233
53915KARA ARA20160804141511808/04/16 14:15:31  5-MIN KARA 042015Z 29003KT 10SM -RA CLR 35/23 A2994 10 50 2300 290/03 RMK AO2 RAB08 P0000 T03500233
53915KARA ARA20160804142011708/04/16 14:20:31  5-MIN KARA 042020Z 28003KT 10SM CLR 34/23 A2994 10 52 2300 280/03 RMK AO2 RAB08E19 P0000 T03440233
53915KARA ARA20160804142512908/04/16 14:25:31  5-MIN KARA 042025Z 24004KT 10SM CLR 34/23 A2994 10 52 2300 240/04 RMK AO2 LTG DSNT SE RAB08E19 P0000 T03440233
53915KARA ARA20160804143013008/04/16 14:30:31  5-MIN KARA 042030Z 22006KT 10SM -RA CLR 35/24 A2994 10 53 2300 220/06 RMK AO2 LTG DSNT SE RAB08 P0000 T03500244
53915KARA ARA20160804143513008/04/16 14:35:31  5-MIN KARA 042035Z 23008KT 10SM -RA CLR 34/24 A2994 10 53 2300 230/08 RMK AO2 LTG DSNT SE RAB08 P0000 T03440239
53915KARA ARA20160804144011808/04/16 14:40:31  5-MIN KARA 042040Z 21010KT 10SM -RA CLR 34/25 A2994 10 57 2300 210/10 RMK AO2 RAB08 P0000 T03440250
53915KARA ARA20160804144511808/04/16 14:45:31  5-MIN KARA 042045Z 20008KT 10SM -RA CLR 34/26 A2994 10 63 2200 200/08 RMK AO2 RAB08 P0000 T03390261
53915KARA ARA20160804145013708/04/16 14:50:31  5-MIN KARA 042050Z 19009KT 10SM -RA CLR 34/26 A2993 10 61 2200 190/09 RMK AO2 RAB08 SLP136 P0000 60000 T03390256 58004
53915KARA ARA20160804145511208/04/16 14:55:31  5-MIN KARA 042055Z 21011KT 10SM -RA CLR 33/26 A2994 10 63 2100 210/11 RMK AO2 P0000 T03330256
53915KARA ARA20160804150011208/04/16 15:00:31  5-MIN KARA 042100Z 20009KT 10SM -RA CLR 32/25 A2993 10 65 2000 200/09 RMK AO2 P0000 T03220250
53915KARA ARA20160804150511208/04/16 15:05:31  5-MIN KARA 042105Z 19009KT 10SM -RA CLR 33/26 A2993 10 65 2100 190/09 RMK AO2 P0000 T03280256
53915KARA ARA20160804151011208/04/16 15:10:31  5-MIN KARA 042110Z 19007KT 10SM -RA CLR 33/26 A2993 10 65 2100 190/07 RMK AO2 P0000 T03280256
53915KARA ARA20160804151511208/04/16 15:15:31  5-MIN KARA 042115Z 19008KT 10SM -RA CLR 33/26 A2993 10 63 2100 190/08 RMK AO2 P0000 T03330256
53915KARA ARA20160804152011408/04/16 15:20:31  5-MIN KARA 042120Z 19007KT 10SM CLR 33/26 A2993 10 63 2100 190/07 RMK AO2 RAE18 P0000 T03330256
53915KARA ARA20160804152511408/04/16 15:25:31  5-MIN KARA 042125Z 20008KT 10SM CLR 34/26 A2993 10 61 2200 200/08 RMK AO2 RAE18 P0000 T03390256
53915KARA ARA20160804153011208/04/16 15:30:31  5-MIN KARA 042130Z 19006KT 10SM -RA CLR 34/25 A2993 10 59 2200 190/06 RMK AO2 P0000 T03390250
53915KARA ARA20160804153511208/04/16 15:35:31  5-MIN KARA 042135Z 19009KT 10SM -RA CLR 33/26 A2993 10 63 2100 190/09 RMK AO2 P0000 T03330256
53915KARA ARA20160804154011408/04/16 15:40:31  5-MIN KARA 042140Z 18007KT 10SM CLR 33/26 A2993 10 63 2100 180/07 RMK AO2 RAE36 P0000 T03330256
53915KARA ARA20160804154511408/04/16 15:45:31  5-MIN KARA 042145Z 18006KT 10SM CLR 34/26 A2993 10 61 2200 180/06 RMK AO2 RAE36 P0000 T03390256
53915KARA ARA20160804155012108/04/16 15:50:31  5-MIN KARA 042150Z 20006KT 10SM CLR 34/25 A2993 20 59 2200 190/06 RMK AO2 RAE36 SLP135 P0000 T03390250
53915KARA ARA20160804155510208/04/16 15:55:31  5-MIN KARA 042155Z 16007KT 10SM CLR 34/26 A2993 20 61 2200 160/07 RMK AO2 T03390256
53915KARA ARA20160804160010208/04/16 16:00:31  5-MIN KARA 042200Z 18011KT 10SM CLR 34/26 A2993 10 61 2200 170/11 RMK AO2 T03390256
53915KARA ARA20160804160510208/04/16 16:05:31  5-MIN KARA 042205Z 17009KT 10SM CLR 33/25 A2993 10 61 2100 170/09 RMK AO2 T03330250
53915KARA ARA20160804161010208/04/16 16:10:31  5-MIN KARA 042210Z 19010KT 10SM CLR 33/25 A2994 10 61 2100 180/10 RMK AO2 T03330250
53915KARA ARA20160804161511808/04/16 16:15:31  5-MIN KARA 042215Z 19009KT 10SM -RA CLR 33/24 A2993 10 59 2100 190/09 RMK AO2 RAB14 P0000 T03330244
53915KARA ARA20160804162011808/04/16 16:20:31  5-MIN KARA 042220Z 18009KT 10SM -RA CLR 33/24 A2993 10 59 2100 180/09 RMK AO2 RAB14 P0000 T03330244
53915KARA ARA20160804162511708/04/16 16:25:31  5-MIN KARA 042225Z 19008KT 10SM CLR 33/24 A2993 10 59 2100 190/08 RMK AO2 RAB14E24 P0000 T03330244
53915KARA ARA20160804163011708/04/16 16:30:31  5-MIN KARA 042230Z 18008KT 10SM CLR 33/24 A2994 10 59 2100 180/08 RMK AO2 RAB14E24 P0000 T03330244
53915KARA ARA20160804163511708/04/16 16:35:31  5-MIN KARA 042235Z 20009KT 10SM CLR 33/24 A2994 10 57 2100 200/09 RMK AO2 RAB14E24 P0000 T03330239
53915KARA ARA20160804164011708/04/16 16:40:31  5-MIN KARA 042240Z 20006KT 10SM CLR 33/24 A2994 10 57 2100 190/06 RMK AO2 RAB14E24 P0000 T03330239
53915KARA ARA20160804164512408/04/16 16:45:31  5-MIN KARA 042245Z 20009KT 10SM -RA CLR 33/24 A2993 10 57 2100 200/09 RMK AO2 RAB14E24B45 P0000 T03330239
53915KARA ARA20160804165013108/04/16 16:50:31  5-MIN KARA 042250Z 20008KT 10SM -RA CLR 33/24 A2993 10 59 2100 200/08 RMK AO2 RAB14E24B45 SLP135 P0000 T03280239
53915KARA ARA20160804165510208/04/16 16:55:31  5-MIN KARA 042255Z 21008KT 10SM CLR 33/23 A2993 10 57 2100 210/08 RMK AO2 T03280233
53915KARA ARA20160804170010208/04/16 17:00:31  5-MIN KARA 042300Z 21008KT 10SM CLR 32/23 A2993 10 59 2000 200/08 RMK AO2 T03220233
53915KARA ARA20160804170510208/04/16 17:05:31  5-MIN KARA 042305Z 19006KT 10SM CLR 32/24 A2993 20 63 2000 190/06 RMK AO2 T03220244
53915KARA ARA20160804171010208/04/16 17:10:31  5-MIN KARA 042310Z 20007KT 10SM CLR 32/24 A2993 20 63 2000 200/07 RMK AO2 T03220244
53915KARA ARA20160804171510208/04/16 17:15:31  5-MIN KARA 042315Z 20008KT 10SM CLR 33/25 A2993 20 63 2100 200/08 RMK AO2 T03280250
53915KARA ARA20160804172010208/04/16 17:20:31  5-MIN KARA 042320Z 20008KT 10SM CLR 32/25 A2993 20 65 2000 200/08 RMK AO2 T03220250
53915KARA ARA20160804172511308/04/16 17:25:31  5-MIN KARA 042325Z 20008KT 10SM CLR 32/25 A2993 20 65 2000 200/08 RMK AO2 LTG DSNT E T03220250
53915KARA ARA20160804173011308/04/16 17:30:31  5-MIN KARA 042330Z 19007KT 10SM CLR 32/25 A2993 20 65 2000 190/07 RMK AO2 LTG DSNT E T03220250
53915KARA ARA20160804173511308/04/16 17:35:31  5-MIN KARA 042335Z 20007KT 10SM CLR 32/25 A2993 20 65 2000 200/07 RMK AO2 LTG DSNT E T03220250
53915KARA ARA20160804174011308/04/16 17:40:31  5-MIN KARA 042340Z 19008KT 10SM CLR 32/25 A2993 20 65 2000 190/08 RMK AO2 LTG DSNT E T03220250
53915KARA ARA20160804174511308/04/16 17:45:31  5-MIN KARA 042345Z 20007KT 10SM CLR 32/25 A2993 20 67 2000 200/07 RMK AO2 LTG DSNT E T03170250
53915KARA ARA20160804175014408/04/16 17:50:31  5-MIN KARA 042350Z 20008KT 10SM CLR 32/25 A2993 10 67 2000 200/08 RMK AO2 LTG DSNT E SLP135 60000 T03170250 10356 20317 58019
53915KARA ARA20160804175510208/04/16 17:55:31  5-MIN KARA 042355Z 20006KT 10SM CLR 32/24 A2994 10 65 2000 200/06 RMK AO2 T03170244
53915KARA ARA20160804180011308/04/16 18:00:31  5-MIN KARA 050000Z 19007KT 10SM CLR 32/25 A2994 10 67 2000 190/07 RMK AO2 LTG DSNT E T03170250
53915KARA ARA20160804180511308/04/16 18:05:31  5-MIN KARA 050005Z 19005KT 10SM CLR 32/25 A2994 10 67 2000 180/05 RMK AO2 LTG DSNT E T03170250
53915KARA ARA20160804181011308/04/16 18:10:31  5-MIN KARA 050010Z 19007KT 10SM CLR 32/25 A2994 10 67 2000 190/07 RMK AO2 LTG DSNT E T03170250
53915KARA ARA20160804181511308/04/16 18:15:31  5-MIN KARA 050015Z 19006KT 10SM CLR 31/25 A2994 10 69 1900 190/06 RMK AO2 LTG DSNT E T03110250
53915KARA ARA20160804182012008/04/16 18:20:31  5-MIN KARA 050020Z 19006KT 10SM CLR 31/24 A2994 10 67 1900 190/06 RMK AO2 LTG DSNT NE AND E T03110244
53915KARA ARA20160804182512008/04/16 18:25:31  5-MIN KARA 050025Z 20007KT 10SM CLR 31/25 A2993 20 69 1900 200/07 RMK AO2 LTG DSNT NE AND E T03110250
53915KARA ARA20160804183012008/04/16 18:30:31  5-MIN KARA 050030Z 20007KT 10SM CLR 31/24 A2993 20 67 1900 200/07 RMK AO2 LTG DSNT NE AND E T03110244
53915KARA ARA20160804183511308/04/16 18:35:31  5-MIN KARA 050035Z 20005KT 10SM CLR 31/24 A2994 10 67 1900 200/05 RMK AO2 LTG DSNT E T03110244
53915KARA ARA20160804184011308/04/16 18:40:31  5-MIN KARA 050040Z 19005KT 10SM CLR 31/25 A2994 10 72 1800 190/05 RMK AO2 LTG DSNT E T03060250
53915KARA ARA20160804184511308/04/16 18:45:31  5-MIN KARA 050045Z 18005KT 10SM CLR 31/24 A2994 10 69 1800 180/05 RMK AO2 LTG DSNT E T03060244
53915KARA ARA20160804185012708/04/16 18:50:31  5-MIN KARA 050050Z 18004KT 10SM CLR 31/25 A2994 10 72 1800 180/04 RMK AO2 LTG DSNT NE AND E SLP138 T03060250
53915KARA ARA20160804185512008/04/16 18:55:31  5-MIN KARA 050055Z 17004KT 10SM CLR 30/25 A2994 10 74 1800 160/04 RMK AO2 LTG DSNT NE AND E T03000250
53915KARA ARA20160804190012008/04/16 19:00:31  5-MIN KARA 050100Z 14004KT 10SM CLR 29/25 A2994 10 76 1700 140/04 RMK AO2 LTG DSNT NE AND E T02940250
53915KARA ARA20160804190512008/04/16 19:05:31  5-MIN KARA 050105Z 16003KT 10SM CLR 29/26 A2994 10 79 1700 160/03 RMK AO2 LTG DSNT NE AND E T02940256
53915KARA ARA20160804191011908/04/16 19:10:31  5-MIN KARA 050110Z 15004KT 10SM CLR 29/26 A2994 0 79 1700 150/04 RMK AO2 LTG DSNT NE AND E T02940256
53915KARA ARA20160804191511908/04/16 19:15:31  5-MIN KARA 050115Z 15004KT 10SM CLR 29/26 A2994 0 79 1700 150/04 RMK AO2 LTG DSNT NE AND E T02940256
53915KARA ARA20160804192011308/04/16 19:20:31  5-MIN KARA 050120Z 15004KT 10SM CLR 29/26 A2995 0 82 1600 150/04 RMK AO2 LTG DSNT NE T02890256
53915KARA ARA20160804192511608/04/16 19:25:31  5-MIN KARA 050125Z 15004KT 10SM FEW050 29/26 A2995 0 82 1600 150/04 RMK AO2 LTG DSNT NE T02890256
53915KARA ARA20160804193011508/04/16 19:30:31  5-MIN KARA 050130Z 16004KT 10SM FEW050 29/26 A2995 0 82 1600 160/04 RMK AO2 LTG DSNT N T02890256
53915KARA ARA20160804193511508/04/16 19:35:31  5-MIN KARA 050135Z 16004KT 10SM FEW050 29/26 A2995 0 82 1600 160/04 RMK AO2 LTG DSNT N T02890256
53915KARA ARA20160804194011508/04/16 19:40:31  5-MIN KARA 050140Z 16005KT 10SM SCT050 29/26 A2995 0 82 1600 160/05 RMK AO2 LTG DSNT N T02890256
53915KARA ARA20160804194511508/04/16 19:45:31  5-MIN KARA 050145Z 14004KT 10SM BKN050 29/26 A2995 0 82 1600 140/04 RMK AO2 LTG DSNT N T02890256
53915KARA ARA20160804195011608/04/16 19:50:31  5-MIN KARA 050150Z AUTO 11006KT 10SM BKN050 28/26 A2996 0 85 1600 110/06 RMK AO2 SLP143 T02830256
53915KARA ARA20160804195510908/04/16 19:55:31  5-MIN KARA 050155Z AUTO 11007KT 10SM BKN050 29/26 A2996 0 82 1600 110/07 RMK AO2 T02890256
53915KARA ARA20160804200012008/04/16 20:00:31  5-MIN KARA 050200Z AUTO 10007KT 10SM BKN050 29/25 A2996 0 76 1700 100/07 RMK AO2 LTG DSNT N T02940250
53915KARA ARA20160804200512008/04/16 20:05:31  5-MIN KARA 050205Z AUTO 10008KT 10SM BKN050 29/24 A2996 0 74 1700 100/08 RMK AO2 LTG DSNT N T02940244
53915KARA ARA20160804201012908/04/16 20:10:31  5-MIN KARA 050210Z AUTO 09009KT 10SM FEW031 SCT050 29/24 A2996 -10 74 1700 090/09 RMK AO2 LTG DSNT N T02940244
53915KARA ARA20160804201513608/04/16 20:15:31  5-MIN KARA 050215Z AUTO 06013KT 10SM SCT031 BKN050 29/23 A2997 -10 71 1600 060/13 RMK AO2 LTG DSNT N AND NW T02890233
53915KARA ARA20160804202013608/04/16 20:20:31  5-MIN KARA 050220Z AUTO 06011KT 10SM SCT031 BKN050 28/22 A2997 -10 69 1600 060/11 RMK AO2 LTG DSNT N AND NW T02830222
53915KARA ARA20160804202512908/04/16 20:25:31  5-MIN KARA 050225Z AUTO 09006KT 10SM BKN033 28/22 A2997 -10 71 1500 090/06 RMK AO2 LTG DSNT N AND NW T02780222
53915KARA ARA20160804203012908/04/16 20:30:31  5-MIN KARA 050230Z AUTO 10007KT 10SM BKN033 28/22 A2996 -10 71 1500 100/07 RMK AO2 LTG DSNT N AND NW T02780222
53915KARA ARA20160804203512908/04/16 20:35:31  5-MIN KARA 050235Z AUTO 10005KT 10SM BKN033 27/22 A2996 -10 74 1400 100/05 RMK AO2 LTG DSNT N AND NW T02720222
53915KARA ARA20160804204012908/04/16 20:40:31  5-MIN KARA 050240Z AUTO 10006KT 10SM SCT033 27/22 A2996 -10 74 1400 100/06 RMK AO2 LTG DSNT N AND NW T02720222
53915KARA ARA20160804204512908/04/16 20:45:31  5-MIN KARA 050245Z AUTO 10007KT 10SM FEW033 27/22 A2997 -10 74 1400 100/07 RMK AO2 LTG DSNT N AND NW T02720222
53915KARA ARA20160804205014208/04/16 20:50:31  5-MIN KARA 050250Z AUTO 08007KT 10SM FEW033 27/22 A2997 -10 74 1400 080/07 RMK AO2 LTG DSNT N AND NW SLP148 T02720222 55000
53915KARA ARA20160804205512608/04/16 20:55:31  5-MIN KARA 050255Z AUTO 08007KT 10SM CLR 27/22 A2997 -10 74 1400 080/07 RMK AO2 LTG DSNT N AND NW T02720222
53915KARA ARA20160804210012608/04/16 21:00:31  5-MIN KARA 050300Z AUTO 09006KT 10SM CLR 28/22 A2997 -10 71 1500 090/06 RMK AO2 LTG DSNT N AND NW T02780222
53915KARA ARA20160804210512608/04/16 21:05:31  5-MIN KARA 050305Z AUTO 08006KT 10SM CLR 27/23 A2997 -10 79 1400 080/06 RMK AO2 LTG DSNT N AND NW T02670228
53915KARA ARA20160804211012608/04/16 21:10:31  5-MIN KARA 050310Z AUTO 10005KT 10SM CLR 27/23 A2997 -20 79 1400 100/05 RMK AO2 LTG DSNT N AND NW T02670228
53915KARA ARA20160804211512008/04/16 21:15:31  5-MIN KARA 050315Z AUTO 10004KT 10SM CLR 27/23 A2997 -20 79 1400 100/04 RMK AO2 LTG DSNT NW T02670228
53915KARA ARA20160804212012008/04/16 21:20:31  5-MIN KARA 050320Z AUTO 10004KT 10SM CLR 27/23 A2997 -20 79 1400 100/04 RMK AO2 LTG DSNT NW T02670228
53915KARA ARA20160804212512008/04/16 21:25:31  5-MIN KARA 050325Z AUTO 09005KT 10SM CLR 27/23 A2998 -20 79 1400 090/05 RMK AO2 LTG DSNT NW T02670228
53915KARA ARA20160804213011308/04/16 21:30:31  5-MIN KARA 050330Z AUTO 10005KT 10SM CLR 27/23 A2998 -20 79 1400 090/05 RMK AO2 T02670228 TSNO
53915KARA ARA20160804213511308/04/16 21:35:31  5-MIN KARA 050335Z AUTO 10005KT 10SM CLR 26/23 A2998 -20 81 1300 100/05 RMK AO2 T02610228 TSNO
53915KARA ARA20160804214011308/04/16 21:40:31  5-MIN KARA 050340Z AUTO 09003KT 10SM CLR 27/23 A2998 -20 79 1400 080/03 RMK AO2 T02670228 TSNO
53915KARA ARA20160804214511308/04/16 21:45:31  5-MIN KARA 050345Z AUTO 08005KT 10SM CLR 26/23 A2998 -20 81 1300 080/05 RMK AO2 T02610228 TSNO
53915KARA ARA20160804215012008/04/16 21:50:31  5-MIN KARA 050350Z AUTO 07005KT 10SM CLR 26/23 A2998 -20 84 1300 060/05 RMK AO2 SLP151 T02610233 TSNO
53915KARA ARA20160804215511308/04/16 21:55:31  5-MIN KARA 050355Z AUTO 06004KT 10SM CLR 27/23 A2998 -20 79 1400 060/04 RMK AO2 T02670228 TSNO
53915KARA ARA20160804220010808/04/16 22:00:31  5-MIN KARA 050400Z AUTO 06003KT 10SM CLR 27/23 A2997 -20 79 1400 060/03 RMK AO2 T02670228
53915KARA ARA20160804220510808/04/16 22:05:31  5-MIN KARA 050405Z AUTO 09004KT 10SM CLR 26/23 A2997 -20 81 1300 090/04 RMK AO2 T02610228
53915KARA ARA20160804221010808/04/16 22:10:31  5-MIN KARA 050410Z AUTO 13003KT 10SM CLR 26/23 A2997 -10 81 1300 130/03 RMK AO2 T02610228
53915KARA ARA20160804221510808/04/16 22:15:31  5-MIN KARA 050415Z AUTO 11003KT 10SM CLR 26/23 A2997 -10 87 1200 110/03 RMK AO2 T02560233
53915KARA ARA20160804222010808/04/16 22:20:31  5-MIN KARA 050420Z AUTO 00000KT 10SM CLR 26/23 A2996 -10 87 1200 000/00 RMK AO2 T02560233
53915KARA ARA20160804222510608/04/16 22:25:31  5-MIN KARA 050425Z AUTO 16003KT 10SM CLR 26/23 A2996 0 87 1300 160/03 RMK AO2 T02560233
53915KARA ARA20160804223010608/04/16 22:30:31  5-MIN KARA 050430Z AUTO 16004KT 10SM CLR 26/23 A2995 0 87 1300 160/04 RMK AO2 T02560233
53915KARA ARA20160804223510608/04/16 22:35:31  5-MIN KARA 050435Z AUTO 17003KT 10SM CLR 25/24 A2995 0 93 1200 170/03 RMK AO2 T02500239
53915KARA ARA20160804224010608/04/16 22:40:31  5-MIN KARA 050440Z AUTO 18003KT 10SM CLR 25/24 A2995 0 93 1200 180/03 RMK AO2 T02500239
53915KARA ARA20160804224510608/04/16 22:45:31  5-MIN KARA 050445Z AUTO 00000KT 10SM CLR 25/24 A2995 0 93 1200 000/00 RMK AO2 T02500239
53915KARA ARA20160804225011308/04/16 22:50:31  5-MIN KARA 050450Z AUTO 15003KT 10SM CLR 26/23 A2995 0 87 1300 150/03 RMK AO2 SLP141 T02560233
53915KARA ARA20160804225510608/04/16 22:55:31  5-MIN KARA 050455Z AUTO 00000KT 10SM CLR 26/23 A2995 0 87 1300 000/00 RMK AO2 T02560233
53915KARA ARA20160804230010608/04/16 23:00:31  5-MIN KARA 050500Z AUTO 00000KT 10SM CLR 26/24 A2995 0 90 1300 000/00 RMK AO2 T02560239
53915KARA ARA20160804230510608/04/16 23:05:31  5-MIN KARA 050505Z AUTO 13003KT 10SM CLR 26/23 A2995 0 87 1300 120/03 RMK AO2 T02560233
53915KARA ARA20160804231010608/04/16 23:10:31  5-MIN KARA 050510Z AUTO 14003KT 10SM CLR 26/23 A2995 0 87 1300 140/03 RMK AO2 T02560233
53915KARA ARA20160804231510608/04/16 23:15:31  5-MIN KARA 050515Z AUTO 00000KT 10SM CLR 26/23 A2995 0 87 1300 000/00 RMK AO2 T02560233
53915KARA ARA20160804232010608/04/16 23:20:31  5-MIN KARA 050520Z AUTO 00000KT 10SM CLR 26/24 A2995 0 90 1300 000/00 RMK AO2 T02560239
53915KARA ARA20160804232510608/04/16 23:25:31  5-MIN KARA 050525Z AUTO 00000KT 10SM CLR 25/23 A2995 0 90 1200 000/00 RMK AO2 T02500233
53915KARA ARA20160804233010608/04/16 23:30:31  5-MIN KARA 050530Z AUTO 00000KT 10SM CLR 26/23 A2995 0 87 1300 000/00 RMK AO2 T02560233
53915KARA ARA20160804233510608/04/16 23:35:31  5-MIN KARA 050535Z AUTO 00000KT 10SM CLR 26/23 A2995 0 87 1300 000/00 RMK AO2 T02560233
53915KARA ARA20160804234010608/04/16 23:40:31  5-MIN KARA 050540Z AUTO 00000KT 10SM CLR 25/23 A2995 0 90 1200 000/00 RMK AO2 T02500233
53915KARA ARA20160804234510608/04/16 23:45:31  5-MIN KARA 050545Z AUTO 14003KT 10SM CLR 25/23 A2995 0 90 1200 140/03 RMK AO2 T02500233
53915KARA ARA20160804235014108/04/16 23:50:31  5-MIN KARA 050550Z AUTO 15003KT 10SM CLR 26/23 A2995 0 87 1300 150/03 RMK AO2 SLP140 T02560233 10317 20250 403560244 53012
53915KARA ARA20160804235510608/04/16 23:55:31  5-MIN KARA 050555Z AUTO 14003KT 10SM CLR 25/23 A2995 0 90 1200 130/03 RMK AO2 T02500233
53915KARA ARA20160805000010608/05/16 00:00:31  5-MIN KARA 050600Z AUTO 00000KT 10SM CLR 25/23 A2995 0 90 1200 000/00 RMK AO2 T02500233
53915KARA ARA20160805000510608/05/16 00:05:31  5-MIN KARA 050605Z AUTO 16003KT 10SM CLR 25/23 A2995 0 90 1200 160/03 RMK AO2 T02500233
53915KARA ARA20160805001010608/05/16 00:10:31  5-MIN KARA 050610Z AUTO 16004KT 10SM CLR 25/23 A2995 0 90 1200 160/04 RMK AO2 T02500233
53915KARA ARA20160805001510608/05/16 00:15:31  5-MIN KARA 050615Z AUTO 16003KT 10SM CLR 25/23 A2995 0 90 1200 160/03 RMK AO2 T02500233
53915KARA ARA20160805002010608/05/16 00:20:31  5-MIN KARA 050620Z AUTO 14003KT 10SM CLR 25/23 A2995 0 90 1200 140/03 RMK AO2 T02500233
53915KARA ARA20160805002510608/05/16 00:25:31  5-MIN KARA 050625Z AUTO 00000KT 10SM CLR 25/23 A2995 0 90 1200 000/00 RMK AO2 T02500233
53915KARA ARA20160805003010608/05/16 00:30:31  5-MIN KARA 050630Z AUTO 10004KT 10SM CLR 25/23 A2995 0 90 1200 100/04 RMK AO2 T02500233
53915KARA ARA20160805003510608/05/16 00:35:31  5-MIN KARA 050635Z AUTO 11004KT 10SM CLR 25/23 A2995 0 90 1200 110/04 RMK AO2 T02500233
53915KARA ARA20160805004010608/05/16 00:40:31  5-MIN KARA 050640Z AUTO 13003KT 10SM CLR 25/23 A2995 0 90 1200 130/03 RMK AO2 T02500233
53915KARA ARA20160805004510608/05/16 00:45:31  5-MIN KARA 050645Z AUTO 00000KT 10SM CLR 25/23 A2995 0 90 1200 000/00 RMK AO2 T02500233
53915KARA ARA20160805005011308/05/16 00:50:31  5-MIN KARA 050650Z AUTO 00000KT 10SM CLR 25/23 A2996 0 90 1200 000/00 RMK AO2 SLP143 T02500233
53915KARA ARA20160805005510608/05/16 00:55:31  5-MIN KARA 050655Z AUTO 00000KT 10SM CLR 25/23 A2996 0 90 1200 000/00 RMK AO2 T02500233
53915KARA ARA20160805010010808/05/16 01:00:31  5-MIN KARA 050700Z AUTO 00000KT 10SM CLR 26/23 A2996 -10 87 1200 000/00 RMK AO2 T02560233
53915KARA ARA20160805010510608/05/16 01:05:31  5-MIN KARA 050705Z AUTO 00000KT 10SM CLR 26/23 A2996 0 87 1300 000/00 RMK AO2 T02560233
53915KARA ARA20160805011010608/05/16 01:10:31  5-MIN KARA 050710Z AUTO 00000KT 10SM CLR 26/23 A2996 0 87 1300 000/00 RMK AO2 T02560233
53915KARA ARA20160805011510608/05/16 01:15:31  5-MIN KARA 050715Z AUTO 00000KT 10SM CLR 25/23 A2996 0 90 1200 000/00 RMK AO2 T02500233
53915KARA ARA20160805012010808/05/16 01:20:31  5-MIN KARA 050720Z AUTO 00000KT 10SM CLR 25/23 A2996 -10 90 1200 000/00 RMK AO2 T02500233
53915KARA ARA20160805012510608/05/16 01:25:31  5-MIN KARA 050725Z AUTO 00000KT 10SM CLR 25/23 A2996 0 90 1200 000/00 RMK AO2 T02500233
53915KARA ARA20160805013010608/05/16 01:30:31  5-MIN KARA 050730Z AUTO 00000KT 10SM CLR 26/23 A2996 0 87 1300 000/00 RMK AO2 T02560233
53915KARA ARA20160805013510608/05/16 01:35:31  5-MIN KARA 050735Z AUTO 00000KT 10SM CLR 26/23 A2996 0 87 1300 000/00 RMK AO2 T02560233
53915KARA ARA20160805014010608/05/16 01:40:31  5-MIN KARA 050740Z AUTO 00000KT 10SM CLR 25/23 A2996 0 90 1200 000/00 RMK AO2 T02500233
53915KARA ARA20160805014510608/05/16 01:45:31  5-MIN KARA 050745Z AUTO 18003KT 10SM CLR 25/23 A2996 0 90 1200 180/03 RMK AO2 T02500233
53915KARA ARA20160805015011308/05/16 01:50:31  5-MIN KARA 050750Z AUTO 18004KT 10SM CLR 25/23 A2995 0 90 1200 180/04 RMK AO2 SLP143 T02500233
53915KARA ARA20160805015510608/05/16 01:55:31  5-MIN KARA 050755Z AUTO 19004KT 10SM CLR 24/23 A2995 0 93 1100 190/04 RMK AO2 T02440233
53915KARA ARA20160805020010508/05/16 02:00:31  5-MIN KARA 050800Z AUTO 18003KT 9SM CLR 24/23 A2996 0 93 1100 180/03 RMK AO2 T02440233
53915KARA ARA20160805020510508/05/16 02:05:31  5-MIN KARA 050805Z AUTO 18003KT 9SM CLR 24/23 A2996 0 93 1100 180/03 RMK AO2 T02440233
53915KARA ARA20160805021010508/05/16 02:10:31  5-MIN KARA 050810Z AUTO 00000KT 9SM CLR 24/23 A2996 0 93 1100 000/00 RMK AO2 T02440233
53915KARA ARA20160805021510508/05/16 02:15:31  5-MIN KARA 050815Z AUTO 00000KT 9SM CLR 25/23 A2996 0 90 1200 000/00 RMK AO2 T02500233
53915KARA ARA20160805022010708/05/16 02:20:31  5-MIN KARA 050820Z AUTO 00000KT 9SM CLR 25/23 A2996 -10 90 1200 000/00 RMK AO2 T02500233
53915KARA ARA20160805022510508/05/16 02:25:31  5-MIN KARA 050825Z AUTO 00000KT 9SM CLR 25/23 A2996 0 90 1200 000/00 RMK AO2 T02500233
53915KARA ARA20160805023010608/05/16 02:30:31  5-MIN KARA 050830Z AUTO 20004KT 10SM CLR 25/23 A2995 0 90 1200 200/04 RMK AO2 T02500233
53915KARA ARA20160805023510508/05/16 02:35:31  5-MIN KARA 050835Z AUTO 21003KT 9SM CLR 24/23 A2995 0 93 1100 200/03 RMK AO2 T02440233
53915KARA ARA20160805024010508/05/16 02:40:31  5-MIN KARA 050840Z AUTO 00000KT 9SM CLR 25/23 A2996 0 90 1200 000/00 RMK AO2 T02500233
53915KARA ARA20160805024510708/05/16 02:45:31  5-MIN KARA 050845Z AUTO 35005KT 9SM CLR 25/23 A2996 -10 90 1200 350/05 RMK AO2 T02500233
53915KARA ARA20160805025012008/05/16 02:50:31  5-MIN KARA 050850Z AUTO 34004KT 9SM CLR 25/23 A2996 -10 90 1200 340/04 RMK AO2 SLP145 T02500233 58008
53915KARA ARA20160805025510508/05/16 02:55:31  5-MIN KARA 050855Z AUTO 00000KT 8SM CLR 25/24 A2996 0 93 1200 000/00 RMK AO2 T02500239
53915KARA ARA20160805030010508/05/16 03:00:31  5-MIN KARA 050900Z AUTO 00000KT 8SM CLR 24/24 A2996 0 97 1100 000/00 RMK AO2 T02440239
53915KARA ARA20160805030510708/05/16 03:05:31  5-MIN KARA 050905Z AUTO 00000KT 8SM CLR 25/24 A2996 -10 93 1200 000/00 RMK AO2 T02500239
53915KARA ARA20160805031010708/05/16 03:10:31  5-MIN KARA 050910Z AUTO 07003KT 8SM CLR 25/23 A2996 -10 90 1200 070/03 RMK AO2 T02500233
53915KARA ARA20160805031510708/05/16 03:15:31  5-MIN KARA 050915Z AUTO 08003KT 9SM CLR 25/23 A2996 -10 90 1200 080/03 RMK AO2 T02500233
53915KARA ARA20160805032010808/05/16 03:20:31  5-MIN KARA 050920Z AUTO 00000KT 10SM CLR 25/23 A2996 -10 90 1200 000/00 RMK AO2 T02500233
53915KARA ARA20160805032511108/05/16 03:25:31  5-MIN KARA 050925Z AUTO 00000KT 10SM FEW026 25/24 A2996 -10 93 1200 000/00 RMK AO2 T02500239
53915KARA ARA20160805033011108/05/16 03:30:31  5-MIN KARA 050930Z AUTO 01003KT 10SM FEW026 26/23 A2997 -10 87 1200 010/03 RMK AO2 T02560233
53915KARA ARA20160805033511108/05/16 03:35:31  5-MIN KARA 050935Z AUTO 02004KT 10SM FEW026 25/23 A2997 -10 90 1200 020/04 RMK AO2 T02500233
53915KARA ARA20160805034011108/05/16 03:40:31  5-MIN KARA 050940Z AUTO 01003KT 10SM SCT026 25/23 A2997 -10 90 1200 010/03 RMK AO2 T02500233
53915KARA ARA20160805034511108/05/16 03:45:31  5-MIN KARA 050945Z AUTO 00000KT 10SM SCT026 25/24 A2997 -20 93 1200 000/00 RMK AO2 T02500239
53915KARA ARA20160805035012508/05/16 03:50:31  5-MIN KARA 050950Z AUTO 00000KT 10SM SCT024 BKN030 26/24 A2997 -10 90 1200 000/00 RMK AO2 SLP147 T02560239
53915KARA ARA20160805035511808/05/16 03:55:31  5-MIN KARA 050955Z AUTO 05003KT 10SM BKN024 BKN030 26/24 A2997 -10 90 1200 050/03 RMK AO2 T02560239
53915KARA ARA20160805040012508/05/16 04:00:31  5-MIN KARA 051000Z AUTO 05005KT 10SM BKN024 BKN031 BKN055 26/24 A2997 -20 90 1200 050/05 RMK AO2 T02560239
53915KARA ARA20160805040512508/05/16 04:05:31  5-MIN KARA 051005Z AUTO 05006KT 10SM BKN022 BKN031 BKN055 26/24 A2997 -20 90 1200 050/06 RMK AO2 T02560239
53915KARA ARA20160805041012508/05/16 04:10:31  5-MIN KARA 051010Z AUTO 05006KT 10SM SCT022 BKN031 BKN041 26/24 A2997 -20 90 1200 050/06 RMK AO2 T02560239
53915KARA ARA20160805041512508/05/16 04:15:31  5-MIN KARA 051015Z AUTO 05004KT 10SM FEW020 SCT025 BKN041 26/24 A2998 -20 90 1200 050/04 RMK AO2 T02560239
53915KARA ARA20160805042012508/05/16 04:20:31  5-MIN KARA 051020Z AUTO 07004KT 10SM FEW020 SCT025 BKN041 26/24 A2997 -20 90 1200 070/04 RMK AO2 T02560239
53915KARA ARA20160805042512508/05/16 04:25:31  5-MIN KARA 051025Z AUTO 09004KT 10SM FEW020 SCT025 SCT041 26/24 A2997 -10 90 1200 090/04 RMK AO2 T02560239
53915KARA ARA20160805043011808/05/16 04:30:31  5-MIN KARA 051030Z AUTO 00000KT 10SM FEW019 SCT025 26/24 A2997 -20 90 1200 000/00 RMK AO2 T02560239
53915KARA ARA20160805043511308/05/16 04:35:31  5-MIN KARA 051035Z 00000KT 10SM SCT028 SCT039 26/24 A2998 -20 90 1200 000/00 RMK AO2 T02560239
53915KARA ARA20160805044011808/05/16 04:40:31  5-MIN KARA 051040Z 00000KT 10SM VCTS SCT028 BKN034 26/24 A2998 -20 90 1200 000/00 RMK AO2 T02560239
53915KARA ARA20160805044511808/05/16 04:45:31  5-MIN KARA 051045Z 00000KT 10SM VCTS SCT028 BKN036 26/24 A2998 -30 90 1200 000/00 RMK AO2 T02560239
53915KARA ARA20160805045012508/05/16 04:50:31  5-MIN KARA 051050Z 00000KT 10SM VCTS SCT028 BKN036 26/24 A2998 -20 90 1200 000/00 RMK AO2 SLP151 T02560239
53915KARA ARA20160805045512408/05/16 04:55:31  5-MIN KARA 051055Z 35004KT 9SM VCTS FEW028 SCT032 SCT039 26/24 A2998 -30 90 1200 350/04 RMK AO2 T02560239
53915KARA ARA20160805050011908/05/16 05:00:31  5-MIN KARA 051100Z 00000KT 9SM SCT030 SCT038 BKN075 25/24 A2999 -30 93 1200 000/00 RMK AO2 T02500239
53915KARA ARA20160805050511908/05/16 05:05:31  5-MIN KARA 051105Z 03003KT 8SM FEW030 FEW038 SCT075 25/24 A2999 -30 93 1200 030/03 RMK AO2 T02500239
53915KARA ARA20160805051010208/05/16 05:10:31  5-MIN KARA 051110Z 02004KT 8SM CLR 25/24 A2999 -30 93 1200 020/04 RMK AO2 T02500239
53915KARA ARA20160805051510208/05/16 05:15:31  5-MIN KARA 051115Z 02004KT 8SM CLR 25/24 A2999 -30 93 1200 020/04 RMK AO2 T02500239
53915KARA ARA20160805052010208/05/16 05:20:31  5-MIN KARA 051120Z 02003KT 9SM CLR 25/24 A2999 -30 93 1200 020/03 RMK AO2 T02500239
53915KARA ARA20160805052510208/05/16 05:25:31  5-MIN KARA 051125Z 01003KT 9SM CLR 25/24 A2999 -40 93 1100 010/03 RMK AO2 T02500239
53915KARA ARA20160805053010208/05/16 05:30:31  5-MIN KARA 051130Z 01003KT 9SM CLR 25/24 A2999 -40 93 1200 010/03 RMK AO2 T02500239
53915KARA ARA20160805053510208/05/16 05:35:31  5-MIN KARA 051135Z 00000KT 9SM CLR 26/24 A2999 -30 90 1200 000/00 RMK AO2 T02560239
53915KARA ARA20160805054010208/05/16 05:40:31  5-MIN KARA 051140Z 00000KT 9SM CLR 26/24 A2999 -30 90 1200 000/00 RMK AO2 T02560239
53915KARA ARA20160805054510208/05/16 05:45:31  5-MIN KARA 051145Z 00000KT 9SM CLR 26/24 A2999 -30 90 1200 000/00 RMK AO2 T02560239
53915KARA ARA20160805055012808/05/16 05:50:31  5-MIN KARA 051150Z 00000KT 10SM CLR 26/24 A2999 -30 90 1200 000/00 RMK AO2 SLP154 T02560239 10256 20244 51004
53915KARA ARA20160805055510308/05/16 05:55:31  5-MIN KARA 051155Z 00000KT 10SM CLR 26/24 A2999 -30 90 1200 000/00 RMK AO2 T02560239
53915KARA ARA20160805060010208/05/16 06:00:31  5-MIN KARA 051200Z 00000KT 9SM CLR 26/24 A2998 -30 93 1200 000/00 RMK AO2 T02560244
53915KARA ARA20160805060510208/05/16 06:05:31  5-MIN KARA 051205Z 00000KT 8SM CLR 26/24 A2999 -30 93 1200 000/00 RMK AO2 T02560244
53915KARA ARA20160805061010208/05/16 06:10:31  5-MIN KARA 051210Z 00000KT 7SM CLR 26/24 A2999 -30 90 1300 000/00 RMK AO2 T02610244
53915KARA ARA20160805061510208/05/16 06:15:31  5-MIN KARA 051215Z 00000KT 7SM CLR 26/24 A2999 -30 90 1300 000/00 RMK AO2 T02610244
53915KARA ARA20160805062010208/05/16 06:20:31  5-MIN KARA 051220Z 00000KT 8SM CLR 26/24 A2998 -30 90 1300 000/00 RMK AO2 T02610244
53915KARA ARA20160805062510208/05/16 06:25:31  5-MIN KARA 051225Z 00000KT 9SM CLR 26/24 A2998 -30 90 1300 000/00 RMK AO2 T02610244
53915KARA ARA20160805063010208/05/16 06:30:31  5-MIN KARA 051230Z 00000KT 9SM CLR 27/24 A2999 -30 87 1300 000/00 RMK AO2 T02670244
53915KARA ARA20160805063510208/05/16 06:35:31  5-MIN KARA 051235Z 00000KT 9SM CLR 27/25 A2999 -30 90 1300 000/00 RMK AO2 T02670250
53915KARA ARA20160805064010208/05/16 06:40:31  5-MIN KARA 051240Z 00000KT 9SM CLR 27/25 A2999 -30 87 1400 000/00 RMK AO2 T02720250
53915KARA ARA20160805064510308/05/16 06:45:31  5-MIN KARA 051245Z 13003KT 10SM CLR 27/25 A2999 -30 87 1400 130/03 RMK AO2 T02720250
53915KARA ARA20160805065011008/05/16 06:50:31  5-MIN KARA 051250Z 00000KT 10SM CLR 27/25 A2999 -30 87 1400 000/00 RMK AO2 SLP155 T02720250
53915KARA ARA20160805065510308/05/16 06:55:31  5-MIN KARA 051255Z 00000KT 10SM CLR 28/25 A2999 -40 82 1500 000/00 RMK AO2 T02830250
53915KARA ARA20160805070010308/05/16 07:00:31  5-MIN KARA 051300Z 00000KT 10SM CLR 28/25 A3000 -40 84 1500 000/00 RMK AO2 T02780250
53915KARA ARA20160805070510308/05/16 07:05:31  5-MIN KARA 051305Z 00000KT 10SM CLR 28/25 A3000 -40 82 1500 000/00 RMK AO2 T02830250
53915KARA ARA20160805071010308/05/16 07:10:31  5-MIN KARA 051310Z 00000KT 10SM CLR 29/25 A3000 -40 79 1600 000/00 RMK AO2 T02890250
53915KARA ARA20160805071510308/05/16 07:15:31  5-MIN KARA 051315Z 00000KT 10SM CLR 28/25 A3000 -40 82 1500 000/00 RMK AO2 T02830250
53915KARA ARA20160805072010308/05/16 07:20:31  5-MIN KARA 051320Z 00000KT 10SM CLR 29/25 A2999 -40 79 1600 000/00 RMK AO2 T02890250
53915KARA ARA20160805072510308/05/16 07:25:31  5-MIN KARA 051325Z 00000KT 10SM CLR 29/26 A2999 -40 79 1700 000/00 RMK AO2 T02940256
53915KARA ARA20160805073010308/05/16 07:30:31  5-MIN KARA 051330Z 00000KT 10SM CLR 29/26 A2999 -40 79 1700 000/00 RMK AO2 T02940256
53915KARA ARA20160805073510308/05/16 07:35:31  5-MIN KARA 051335Z 00000KT 10SM CLR 29/26 A2999 -40 79 1600 000/00 RMK AO2 T02940256
53915KARA ARA20160805074010308/05/16 07:40:31  5-MIN KARA 051340Z 00000KT 10SM CLR 29/26 A2999 -40 79 1600 000/00 RMK AO2 T02940256
53915KARA ARA20160805074510308/05/16 07:45:31  5-MIN KARA 051345Z 00000KT 10SM CLR 29/26 A3000 -40 79 1600 000/00 RMK AO2 T02940256
53915KARA ARA20160805075011008/05/16 07:50:31  5-MIN KARA 051350Z 00000KT 10SM CLR 29/26 A2999 -40 79 1600 000/00 RMK AO2 SLP156 T02940256
53915KARA ARA20160805075510308/05/16 07:55:31  5-MIN KARA 051355Z 28003KT 10SM CLR 30/26 A2999 -40 77 1700 280/03 RMK AO2 T03000256
53915KARA ARA20160805080010308/05/16 08:00:31  5-MIN KARA 051400Z 00000KT 10SM CLR 30/26 A3000 -40 77 1700 000/00 RMK AO2 T03000256
53915KARA ARA20160805080510308/05/16 08:05:31  5-MIN KARA 051405Z 00000KT 10SM CLR 31/26 A3000 -40 74 1800 000/00 RMK AO2 T03060256
53915KARA ARA20160805081010308/05/16 08:10:31  5-MIN KARA 051410Z 00000KT 10SM CLR 31/26 A3000 -40 77 1800 000/00 RMK AO2 T03060261
53915KARA ARA20160805081510308/05/16 08:15:31  5-MIN KARA 051415Z 00000KT 10SM CLR 31/26 A3000 -40 74 1800 000/00 RMK AO2 T03060256
53915KARA ARA20160805082010308/05/16 08:20:31  5-MIN KARA 051420Z 00000KT 10SM CLR 31/26 A3000 -40 72 1800 000/00 RMK AO2 T03110256
53915KARA ARA20160805082510608/05/16 08:25:31  5-MIN KARA 051425Z 29004KT 10SM FEW020 31/26 A3000 -40 72 1800 290/04 RMK AO2 T03110256
53915KARA ARA20160805083010608/05/16 08:30:31  5-MIN KARA 051430Z 30006KT 10SM FEW020 31/26 A3000 -40 72 1800 300/06 RMK AO2 T03110256
53915KARA ARA20160805083510308/05/16 08:35:31  5-MIN KARA 051435Z 30006KT 10SM CLR 31/26 A3000 -40 74 1800 300/06 RMK AO2 T03060256
53915KARA ARA20160805084010308/05/16 08:40:31  5-MIN KARA 051440Z 31004KT 10SM CLR 31/26 A3000 -40 72 1800 310/04 RMK AO2 T03110256
53915KARA ARA20160805084510308/05/16 08:45:31  5-MIN KARA 051445Z 28003KT 10SM CLR 32/26 A3000 -40 69 1900 280/03 RMK AO2 T03170256
53915KARA ARA20160805085011908/05/16 08:50:31  5-MIN KARA 051450Z VRB05KT 10SM FEW023 32/26 A3000 -40 69 1900 VRB/05 RMK AO2 SLP158 T03170256 51010
53915KARA ARA20160805085510608/05/16 08:55:31  5-MIN KARA 051455Z 27005KT 10SM FEW025 32/26 A3000 -40 69 1900 270/05 RMK AO2 T03170256
53915KARA ARA20160805090010608/05/16 09:00:31  5-MIN KARA 051500Z VRB04KT 10SM SCT023 32/26 A3000 -40 69 1900 VRB/04 RMK AO2 T03170256
53915KARA ARA20160805090510608/05/16 09:05:31  5-MIN KARA 051505Z 28005KT 10SM SCT023 32/26 A3000 -40 69 1900 280/05 RMK AO2 T03170256
53915KARA ARA20160805091010608/05/16 09:10:31  5-MIN KARA 051510Z 27007KT 10SM SCT023 32/25 A3000 -40 67 1900 270/07 RMK AO2 T03170250
53915KARA ARA20160805091510608/05/16 09:15:31  5-MIN KARA 051515Z 26004KT 10SM FEW023 32/25 A3000 -40 67 1900 260/04 RMK AO2 T03170250
53915KARA ARA20160805092010608/05/16 09:20:31  5-MIN KARA 051520Z 27004KT 10SM FEW023 32/26 A3000 -40 67 1900 270/04 RMK AO2 T03220256
53915KARA ARA20160805092510608/05/16 09:25:31  5-MIN KARA 051525Z VRB04KT 10SM SCT025 32/25 A3000 -40 65 2000 VRB/04 RMK AO2 T03220250
53915KARA ARA20160805093010608/05/16 09:30:31  5-MIN KARA 051530Z 31005KT 10SM SCT025 32/25 A3000 -40 67 1900 310/05 RMK AO2 T03170250
53915KARA ARA20160805093510608/05/16 09:35:31  5-MIN KARA 051535Z 32004KT 10SM FEW025 32/24 A3000 -40 65 1900 320/04 RMK AO2 T03170244
53915KARA ARA20160805094011308/05/16 09:40:31  5-MIN KARA 051540Z 29006KT 10SM FEW025 SCT032 32/25 A3000 -40 65 2000 290/06 RMK AO2 T03220250
53915KARA ARA20160805094511308/05/16 09:45:31  5-MIN KARA 051545Z 27005KT 10SM FEW026 SCT032 32/25 A3000 -40 67 1900 270/05 RMK AO2 T03170250
53915KARA ARA20160805095012008/05/16 09:50:31  5-MIN KARA 051550Z 29005KT 10SM FEW026 SCT035 32/25 A3000 -40 67 1900 290/05 RMK AO2 SLP157 T03170250
53915KARA ARA20160805095511308/05/16 09:55:31  5-MIN KARA 051555Z 30005KT 10SM FEW026 FEW035 32/25 A3000 -40 65 2000 300/05 RMK AO2 T03220250
53915KARA ARA20160805100010608/05/16 10:00:31  5-MIN KARA 051600Z VRB04KT 10SM FEW035 32/24 A3000 -40 63 2000 VRB/04 RMK AO2 T03220244
53915KARA ARA20160805100510608/05/16 10:05:31  5-MIN KARA 051605Z 22004KT 10SM FEW035 33/24 A3000 -40 61 2000 220/04 RMK AO2 T03280244
53915KARA ARA20160805101010608/05/16 10:10:31  5-MIN KARA 051610Z VRB04KT 10SM FEW032 33/25 A3000 -40 63 2000 VRB/04 RMK AO2 T03280250
53915KARA ARA20160805101510608/05/16 10:15:31  5-MIN KARA 051615Z 30005KT 10SM FEW032 33/24 A3000 -40 59 2100 300/05 RMK AO2 T03330244
53915KARA ARA20160805102010608/05/16 10:20:31  5-MIN KARA 051620Z 30005KT 10SM FEW030 33/24 A3000 -40 61 2000 300/05 RMK AO2 T03280244
53915KARA ARA20160805102510608/05/16 10:25:31  5-MIN KARA 051625Z 23004KT 10SM FEW030 33/25 A3000 -50 63 2000 230/04 RMK AO2 T03280250
53915KARA ARA20160805103011308/05/16 10:30:31  5-MIN KARA 051630Z 21005KT 10SM FEW030 SCT043 33/25 A3000 -50 63 2000 210/05 RMK AO2 T03280250
53915KARA ARA20160805103511308/05/16 10:35:31  5-MIN KARA 051635Z 28005KT 10SM SCT032 BKN045 33/25 A3000 -50 63 2000 280/05 RMK AO2 T03280250
53915KARA ARA20160805104011308/05/16 10:40:31  5-MIN KARA 051640Z 28004KT 10SM FEW034 SCT047 32/24 A3000 -40 63 1900 280/04 RMK AO2 T03220244
53915KARA ARA20160805104512008/05/16 10:45:31  5-MIN KARA 051645Z 27004KT 10SM FEW034 SCT047 SCT055 33/24 A3000 -40 61 2000 270/04 RMK AO2 T03280244
53915KARA ARA20160805105012008/05/16 10:50:31  5-MIN KARA 051650Z 29004KT 10SM FEW034 FEW047 33/24 A3000 -40 59 2100 290/04 RMK AO2 SLP158 T03330244
53915KARA ARA20160805105511308/05/16 10:55:31  5-MIN KARA 051655Z 00000KT 10SM FEW034 FEW046 33/24 A3000 -40 59 2100 000/00 RMK AO2 T03330244
53915KARA ARA20160805110011308/05/16 11:00:31  5-MIN KARA 051700Z 00000KT 10SM FEW034 FEW046 34/24 A3000 -40 55 2100 000/00 RMK AO2 T03390239
53915KARA ARA20160805110510608/05/16 11:05:31  5-MIN KARA 051705Z 20005KT 10SM FEW034 33/24 A3000 -40 59 2100 200/05 RMK AO2 T03330244
53915KARA ARA20160805111010608/05/16 11:10:31  5-MIN KARA 051710Z VRB03KT 10SM FEW034 34/25 A3000 -40 59 2100 VRB/03 RMK AO2 T03390250
53915KARA ARA20160805111510308/05/16 11:15:31  5-MIN KARA 051715Z 10SM FEW034 FEW060 33/25 A3000 -40 61 2100 M /M RMK AO2 T03330250
53915KARA ARA20160805112011308/05/16 11:20:31  5-MIN KARA 051720Z 30006KT 10SM SCT034 SCT055 33/24 A3000 -40 59 2100 300/06 RMK AO2 T03330244
53915KARA ARA20160805112510608/05/16 11:25:31  5-MIN KARA 051725Z 31004KT 10SM SCT034 33/24 A3000 -40 59 2000 310/04 RMK AO2 T03280239
53915KARA ARA20160805113010608/05/16 11:30:31  5-MIN KARA 051730Z 33005KT 10SM FEW034 34/24 A3000 -40 57 2100 330/05 RMK AO2 T03390244
53915KARA ARA20160805113510608/05/16 11:35:31  5-MIN KARA 051735Z 26004KT 10SM FEW034 34/24 A2999 -40 57 2100 260/04 RMK AO2 T03390244
53915KARA ARA20160805114010608/05/16 11:40:31  5-MIN KARA 051740Z 00000KT 10SM FEW034 34/24 A2999 -30 53 2200 000/00 RMK AO2 T03440239
53915KARA ARA20160805114511308/05/16 11:45:31  5-MIN KARA 051745Z 27005KT 10SM FEW032 SCT039 33/24 A2999 -30 59 2100 270/05 RMK AO2 T03330244
53915KARA ARA20160805115013108/05/16 11:50:31  5-MIN KARA 051750Z 29004KT 10SM FEW039 33/24 A2999 -30 61 2000 290/04 RMK AO2 SLP154 T03280244 10344 20256 52004
53915KARA ARA20160805115510608/05/16 11:55:31  5-MIN KARA 051755Z 23004KT 10SM FEW039 33/24 A2999 -30 61 2000 230/04 RMK AO2 T03280244
53915KARA ARA20160805120010608/05/16 12:00:31  5-MIN KARA 051800Z 00000KT 10SM FEW039 33/24 A2999 -30 57 2100 000/00 RMK AO2 T03330239
53915KARA ARA20160805120510608/05/16 12:05:31  5-MIN KARA 051805Z 00000KT 10SM FEW039 34/23 A2998 -30 53 2200 000/00 RMK AO2 T03390233
53915KARA ARA20160805121010608/05/16 12:10:31  5-MIN KARA 051810Z 00000KT 10SM FEW039 34/24 A2998 -30 55 2200 000/00 RMK AO2 T03390239
53915KARA ARA20160805121510608/05/16 12:15:31  5-MIN KARA 051815Z VRB03KT 10SM FEW039 34/23 A2998 -30 53 2200 VRB/03 RMK AO2 T03390233
53915KARA ARA20160805122010308/05/16 12:20:31  5-MIN KARA 051820Z VRB03KT 10SM CLR 34/23 A2998 -20 52 2200 VRB/03 RMK AO2 T03440233
53915KARA ARA20160805122510308/05/16 12:25:31  5-MIN KARA 051825Z 34003KT 10SM CLR 36/24 A2998 -20 50 2300 340/03 RMK AO2 T03560239
53915KARA ARA20160805123011408/05/16 12:30:31  5-MIN KARA 051830Z 00000KT 10SM CLR 35/23 A2998 -20 50 2300 000/00 RMK AO2 LTG DSNT W T03500233
53915KARA ARA20160805123511708/05/16 12:35:31  5-MIN KARA 051835Z VRB05KT 10SM SCT040 34/24 A2998 -20 53 2200 VRB/05 RMK AO2 LTG DSNT W T03440239
53915KARA ARA20160805124011708/05/16 12:40:31  5-MIN KARA 051840Z 24005KT 10SM SCT042 33/24 A2997 -20 59 2100 240/05 RMK AO2 LTG DSNT W T03330244
53915KARA ARA20160805124510608/05/16 12:45:31  5-MIN KARA 051845Z 24005KT 10SM SCT042 33/24 A2997 -20 59 2100 240/05 RMK AO2 T03330244
53915KARA ARA20160805125012508/05/16 12:50:31  5-MIN KARA 051850Z 25005KT 10SM SCT043 33/24 A2997 -20 57 2100 240/05 RMK AO2 LTG DSNT SW SLP149 T03330239
53915KARA ARA20160805125512508/05/16 12:55:31  5-MIN KARA 051855Z 23006KT 10SM SCT043 BKN050 34/24 A2997 -20 57 2200 230/06 RMK AO2 LTG DSNT SW T03390244
53915KARA ARA20160805130013208/05/16 13:00:31  5-MIN KARA 051900Z 00000KT 10SM SCT042 BKN049 BKN060 34/24 A2997 -20 53 2200 000/00 RMK AO2 LTG DSNT SW T03440239
53915KARA ARA20160805130512508/05/16 13:05:31  5-MIN KARA 051905Z VRB03KT 10SM SCT047 BKN060 34/24 A2997 -20 55 2200 VRB/03 RMK AO2 LTG DSNT SW T03440244
53915KARA ARA20160805131013208/05/16 13:10:31  5-MIN KARA 051910Z 29003KT 10SM FEW047 BKN060 BKN085 34/24 A2997 -10 57 2200 290/03 RMK AO2 LTG DSNT SW T03390244
53915KARA ARA20160805131513408/05/16 13:15:31  5-MIN KARA 051915Z 32004KT 10SM FEW041 SCT049 BKN060 33/24 A2997 -10 59 2100 320/04 RMK AO2 LTG DSNT E-SW T03330244
53915KARA ARA20160805132015108/05/16 13:20:31  5-MIN KARA 051920Z 01009KT 10SM -RA FEW041 BKN050 OVC085 33/25 A2996 -10 63 2100 010/09 RMK AO2 LTG DSNT ALQDS RAB20 P0000 T03280250
53915KARA ARA20160805132515908/05/16 13:25:31  5-MIN KARA 051925Z 36007KT 10SM -TSRA SCT039 BKN050 OVC085 32/25 A2996 -10 67 1900 360/07 RMK AO2 LTG DSNT ALQDS RAB20 TSB24 P0000 T03170250
53915KARA ARA20160805133017508/05/16 13:30:31  5-MIN KARA 051930Z 09007KT 050V120 10SM -TSRA FEW034 BKN050 OVC085 32/25 A2997 -20 67 1900 080/07 050V120 RMK AO2 LTG DSNT ALQDS RAB20 TSB24 P0000 T03170250
53915KARA ARA20160805133518808/05/16 13:35:31  5-MIN KARA 051935Z AUTO 13018G27KT 10SM -TSRA SCT038 BKN060 OVC085 31/25 A2998 -20 72 1800 130/18G27 RMK AO2 PK WND 13027/1935 LTG DSNT ALQDS RAB20 TSB24 P0000 T03060250
53915KARA ARA20160805134018708/05/16 13:40:31  5-MIN KARA 051940Z AUTO 14022G29KT 8SM -TSRA SCT042 BKN065 BKN085 28/24 A2997 -10 79 1600 140/22G29 RMK AO2 PK WND 13029/1936 LTG DSNT ALQDS RAB20 TSB24 P0000 T02830244
53915KARA ARA20160805134519808/05/16 13:45:31  5-MIN KARA 051945Z AUTO 13020G29KT 6SM -TSRA FEW005 BKN044 BKN065 27/24 A2997 -10 84 1400 130/20G29 RMK AO2 PK WND 13029/1936 WSHFT 1931 LTG DSNT ALQDS RAB20 TSB24 P0000 T02720244
53915KARA ARA20160805135020908/05/16 13:50:31  5-MIN KARA 051950Z AUTO 16020G24KT 7SM -TSRA FEW005 SCT016 BKN040 27/24 A2997 -20 82 1400 160/20G24 RMK AO2 PK WND 13029/1936 WSHFT 1931 LTG DSNT SE AND SW RAB20 TSB24 SLP148 P0000 T02720239
53915KARA ARA20160805135514508/05/16 13:55:31  5-MIN KARA 051955Z 17016KT 9SM -TSRA FEW008 SCT040 BKN065 27/23 A2997 -10 82 1400 170/16 RMK AO2 LTG DSNT E-SW P0000 T02670233
53915KARA ARA20160805140015308/05/16 14:00:31  5-MIN KARA 052000Z 13010G23KT 10SM -TSRA FEW012 BKN085 OVC100 26/22 A2997 -20 79 1300 130/10G23 RMK AO2 LTG DSNT ALQDS P0000 T02610222
53915KARA ARA20160805140514608/05/16 14:05:31  5-MIN KARA 052005Z VRB05KT 6SM -TSRA FEW005 BKN070 OVC110 26/23 A2998 -20 84 1200 VRB/05 RMK AO2 LTG DSNT ALQDS P0002 T02560228
53915KARA ARA20160805141015008/05/16 14:10:31  5-MIN KARA 052010Z 21008KT 2 1/2SM +TSRA FEW005 BKN085 OVC110 26/23 A2997 -20 84 1200 210/08 RMK AO2 LTG DSNT ALQDS P0006 T02560228
53915KARA ARA20160805141515608/05/16 14:15:31  5-MIN KARA 052015Z 25010KT 2SM +TSRA BR FEW035 BKN090 OVC110 25/23 A2999 -30 87 1200 250/10 RMK AO2 LTG DSNT ALQDS PRESRR P0008 T02500228
53915KARA ARA20160805142015508/05/16 14:20:31  5-MIN KARA 052020Z 25013G19KT 3SM +TSRA BR FEW055 BKN090 OVC110 25/23 A2999 -30 87 1200 240/13G19 RMK AO2 LTG DSNT ALQDS P0011 T02500228
53915KARA ARA20160805142514908/05/16 14:25:31  5-MIN KARA 052025Z 25011KT 3SM +TSRA BR FEW055 FEW070 OVC100 26/23 A2997 -20 87 1200 250/11 RMK AO2 LTG DSNT ALQDS P0014 T02560233
53915KARA ARA20160805143015908/05/16 14:30:31  5-MIN KARA 052030Z 25013KT 4SM TSRA BR FEW055 SCT090 OVC110 26/24 A2998 -20 90 1200 250/13 RMK AO2 WSHFT 2013 LTG DSNT ALQDS P0015 T02560239
53915KARA ARA20160805143514908/05/16 14:35:31  5-MIN KARA 052035Z 24013G21KT 7SM -TSRA BKN110 25/23 A2998 -20 90 1200 240/13G21 RMK AO2 WSHFT 2013 LTG DSNT ALQDS P0016 T02500233
53915KARA ARA20160805144016408/05/16 14:40:31  5-MIN KARA 052040Z 23012G21KT 10SM -TSRA FEW070 FEW090 BKN110 25/23 A2997 -10 90 1200 220/12G21 RMK AO2 WSHFT 2013 LTG DSNT ALQDS P0016 T02500233
53915KARA ARA20160805144515808/05/16 14:45:31  5-MIN KARA 052045Z 25011KT 10SM -TSRA FEW070 FEW090 BKN110 25/23 A2997 -10 87 1200 250/11 RMK AO2 WSHFT 2013 LTG DSNT ALQDS P0016 T02500228
53915KARA ARA20160805145017008/05/16 14:50:31  5-MIN KARA 052050Z 25010KT 10SM -TSRA FEW090 BKN110 25/23 A2997 -10 87 1200 250/10 RMK AO2 WSHFT 2013 LTG DSNT ALQDS SLP148 P0016 60016 T02500228 58004
53915KARA ARA20160805145513308/05/16 14:55:31  5-MIN KARA 052055Z 25010KT 10SM -TSRA FEW110 24/22 A2997 -10 87 1100 250/10 RMK AO2 LTG DSNT ALQDS P0000 T02440222
53915KARA ARA20160805150014408/05/16 15:00:31  5-MIN KARA 052100Z 24008KT 10SM VCTS -RA FEW110 24/22 A2996 -10 87 1100 240/08 RMK AO2 LTG DSNT ALQDS TSE2058 P0000 T02440222
53915KARA ARA20160805150514308/05/16 15:05:31  5-MIN KARA 052105Z 25009KT 10SM VCTS FEW110 24/22 A2996 0 87 1100 250/09 RMK AO2 LTG DSNT E-SW RAE01 TSE2058 P0000 T02440222
53915KARA ARA20160805151014308/05/16 15:10:31  5-MIN KARA 052110Z 24007KT 10SM VCTS CLR 25/22 A2996 -10 84 1200 240/07 RMK AO2 LTG DSNT ALQDS RAE01 TSE2058 P0000 T02500222
53915KARA ARA20160805151513808/05/16 15:15:31  5-MIN KARA 052115Z 26006KT 10SM CLR 25/22 A2997 -10 84 1200 260/06 RMK AO2 LTG DSNT ALQDS RAE01 TSE2058 P0000 T02500222
53915KARA ARA20160805152013808/05/16 15:20:31  5-MIN KARA 052120Z 26004KT 10SM CLR 25/23 A2996 -10 87 1200 260/04 RMK AO2 LTG DSNT ALQDS RAE01 TSE2058 P0000 T02500228
53915KARA ARA20160805152513808/05/16 15:25:31  5-MIN KARA 052125Z 25004KT 10SM CLR 25/23 A2996 -10 87 1200 250/04 RMK AO2 LTG DSNT ALQDS RAE01 TSE2058 P0000 T02500228
53915KARA ARA20160805153013708/05/16 15:30:31  5-MIN KARA 052130Z 25003KT 10SM CLR 25/23 A2996 -10 87 1200 250/03 RMK AO2 LTG DSNT E-SW RAE01 TSE2058 P0000 T02500228
53915KARA ARA20160805153513708/05/16 15:35:31  5-MIN KARA 052135Z 00000KT 10SM CLR 25/23 A2996 -10 87 1200 000/00 RMK AO2 LTG DSNT E-SW RAE01 TSE2058 P0000 T02500228
53915KARA ARA20160805154013808/05/16 15:40:31  5-MIN KARA 052140Z 00000KT 10SM CLR 26/23 A2996 -10 84 1200 000/00 RMK AO2 LTG DSNT ALQDS RAE01 TSE2058 P0000 T02560228
53915KARA ARA20160805154513608/05/16 15:45:31  5-MIN KARA 052145Z 18003KT 10SM CLR 26/23 A2996 0 84 1300 180/03 RMK AO2 LTG DSNT ALQDS RAE01 TSE2058 P0000 T02560228
53915KARA ARA20160805155014308/05/16 15:50:31  5-MIN KARA 052150Z 00000KT 10SM CLR 26/23 A2995 0 84 1300 000/00 RMK AO2 LTG DSNT ALQDS RAE01 TSE2058 SLP142 P0000 T02610233
53915KARA ARA20160805155511608/05/16 15:55:31  5-MIN KARA 052155Z 00000KT 10SM CLR 26/23 A2995 0 84 1300 000/00 RMK AO2 LTG DSNT ALQDS T02610233
53915KARA ARA20160805160011608/05/16 16:00:31  5-MIN KARA 052200Z 15004KT 10SM CLR 26/23 A2995 0 84 1300 150/04 RMK AO2 LTG DSNT ALQDS T02610233
53915KARA ARA20160805160511608/05/16 16:05:31  5-MIN KARA 052205Z 16006KT 10SM CLR 26/23 A2995 0 84 1300 160/06 RMK AO2 LTG DSNT ALQDS T02610233
53915KARA ARA20160805161012708/05/16 16:10:31  5-MIN KARA 052210Z 13008KT 10SM CLR 26/24 A2996 0 87 1300 130/08 RMK AO2 LTG DSNT NE AND SE AND SW T02610239
53915KARA ARA20160805161512708/05/16 16:15:31  5-MIN KARA 052215Z 15006KT 10SM CLR 26/24 A2995 0 87 1300 140/06 RMK AO2 LTG DSNT NE AND SE AND SW T02610239
53915KARA ARA20160805162011308/05/16 16:20:31  5-MIN KARA 052220Z 15005KT 10SM CLR 27/24 A2996 0 84 1400 150/05 RMK AO2 LTG DSNT NE T02670239
53915KARA ARA20160805162512008/05/16 16:25:31  5-MIN KARA 052225Z 14004KT 10SM CLR 27/24 A2995 0 84 1400 140/04 RMK AO2 LTG DSNT NE AND SE T02670239
53915KARA ARA20160805163012008/05/16 16:30:31  5-MIN KARA 052230Z 16003KT 10SM CLR 27/24 A2995 0 84 1400 160/03 RMK AO2 LTG DSNT NE AND SE T02670239
53915KARA ARA20160805163512108/05/16 16:35:31  5-MIN KARA 052235Z 14003KT 10SM CLR 27/24 A2994 10 84 1500 140/03 RMK AO2 LTG DSNT NE AND SE T02720244
53915KARA ARA20160805164010208/05/16 16:40:31  5-MIN KARA 052240Z 00000KT 10SM CLR 27/24 A2994 10 84 1500 000/00 RMK AO2 T02720244
53915KARA ARA20160805164510208/05/16 16:45:31  5-MIN KARA 052245Z 00000KT 10SM CLR 27/24 A2993 20 84 1500 000/00 RMK AO2 T02720244
53915KARA ARA20160805165010908/05/16 16:50:31  5-MIN KARA 052250Z 00000KT 10SM CLR 27/24 A2993 20 84 1500 000/00 RMK AO2 SLP134 T02720244
53915KARA ARA20160805165510208/05/16 16:55:31  5-MIN KARA 052255Z 00000KT 10SM CLR 27/24 A2993 20 84 1500 000/00 RMK AO2 T02720244
53915KARA ARA20160805170010208/05/16 17:00:31  5-MIN KARA 052300Z 00000KT 10SM CLR 27/24 A2993 20 84 1500 000/00 RMK AO2 T02720244
53915KARA ARA20160805170510208/05/16 17:05:31  5-MIN KARA 052305Z 29003KT 10SM CLR 27/24 A2993 20 84 1500 290/03 RMK AO2 T02720244
53915KARA ARA20160805171010208/05/16 17:10:31  5-MIN KARA 052310Z 00000KT 10SM CLR 27/24 A2994 10 84 1500 000/00 RMK AO2 T02720244
53915KARA ARA20160805171510208/05/16 17:15:31  5-MIN KARA 052315Z 33003KT 10SM CLR 28/24 A2994 10 82 1500 320/03 RMK AO2 T02780244
53915KARA ARA20160805172010208/05/16 17:20:31  5-MIN KARA 052320Z 00000KT 10SM CLR 28/24 A2994 10 82 1500 000/00 RMK AO2 T02780244
53915KARA ARA20160805172510208/05/16 17:25:31  5-MIN KARA 052325Z 00000KT 10SM CLR 28/25 A2994 10 84 1500 000/00 RMK AO2 T02780250
53915KARA ARA20160805173010108/05/16 17:30:31  5-MIN KARA 052330Z 00000KT 10SM CLR 28/25 A2994 0 84 1500 000/00 RMK AO2 T02780250
53915KARA ARA20160805173510108/05/16 17:35:31  5-MIN KARA 052335Z 00000KT 10SM CLR 28/24 A2995 0 82 1500 000/00 RMK AO2 T02780244
53915KARA ARA20160805174010108/05/16 17:40:31  5-MIN KARA 052340Z 00000KT 10SM CLR 28/25 A2995 0 82 1600 000/00 RMK AO2 T02830250
53915KARA ARA20160805174510108/05/16 17:45:31  5-MIN KARA 052345Z 29006KT 10SM CLR 28/25 A2996 0 84 1500 290/06 RMK AO2 T02780250
53915KARA ARA20160805175013408/05/16 17:50:31  5-MIN KARA 052350Z 32006KT 10SM CLR 28/25 A2996 -10 84 1500 320/06 RMK AO2 SLP145 60016 T02780250 10356 20244 55005
53915KARA ARA20160805175510108/05/16 17:55:31  5-MIN KARA 052355Z 33003KT 10SM CLR 27/25 A2996 0 87 1400 330/03 RMK AO2 T02720250
53915KARA ARA20160805180010308/05/16 18:00:31  5-MIN KARA 060000Z 32004KT 10SM CLR 27/25 A2996 -10 87 1400 320/04 RMK AO2 T02720250
53915KARA ARA20160805180510308/05/16 18:05:31  5-MIN KARA 060005Z 35003KT 10SM CLR 27/25 A2997 -10 87 1400 350/03 RMK AO2 T02720250
53915KARA ARA20160805181010308/05/16 18:10:31  5-MIN KARA 060010Z 34003KT 10SM CLR 27/25 A2997 -10 87 1400 340/03 RMK AO2 T02720250
53915KARA ARA20160805181510308/05/16 18:15:31  5-MIN KARA 060015Z 01004KT 10SM CLR 27/25 A2996 -10 87 1400 010/04 RMK AO2 T02720250
53915KARA ARA20160805182010308/05/16 18:20:31  5-MIN KARA 060020Z 36005KT 10SM CLR 27/25 A2997 -10 87 1400 360/05 RMK AO2 T02720250
53915KARA ARA20160805182510308/05/16 18:25:31  5-MIN KARA 060025Z 36003KT 10SM CLR 27/25 A2997 -20 87 1400 360/03 RMK AO2 T02720250
53915KARA ARA20160805183010308/05/16 18:30:31  5-MIN KARA 060030Z 35003KT 10SM CLR 27/25 A2997 -10 87 1400 350/03 RMK AO2 T02720250
53915KARA ARA20160805183510308/05/16 18:35:31  5-MIN KARA 060035Z 34004KT 10SM CLR 27/25 A2997 -10 87 1400 340/04 RMK AO2 T02720250
53915KARA ARA20160805184010308/05/16 18:40:31  5-MIN KARA 060040Z 36003KT 10SM CLR 27/25 A2997 -20 87 1400 360/03 RMK AO2 T02720250
53915KARA ARA20160805184510308/05/16 18:45:31  5-MIN KARA 060045Z 04003KT 10SM CLR 27/25 A2997 -20 87 1400 040/03 RMK AO2 T02720250
53915KARA ARA20160805185011008/05/16 18:50:31  5-MIN KARA 060050Z 04003KT 10SM CLR 27/25 A2997 -10 87 1400 040/03 RMK AO2 SLP147 T02720250
53915KARA ARA20160805185510308/05/16 18:55:31  5-MIN KARA 060055Z 03005KT 10SM CLR 27/25 A2997 -10 87 1400 030/05 RMK AO2 T02720250
53915KARA ARA20160805190010308/05/16 19:00:31  5-MIN KARA 060100Z 02006KT 10SM CLR 27/24 A2997 -20 84 1400 010/06 RMK AO2 T02720244
53915KARA ARA20160805190510308/05/16 19:05:31  5-MIN KARA 060105Z 02008KT 10SM CLR 27/25 A2998 -20 87 1400 020/08 RMK AO2 T02720250
53915KARA ARA20160805191010308/05/16 19:10:31  5-MIN KARA 060110Z 03008KT 10SM CLR 27/24 A2998 -20 87 1400 030/08 RMK AO2 T02670244
53915KARA ARA20160805191510308/05/16 19:15:31  5-MIN KARA 060115Z 04007KT 10SM CLR 27/24 A2997 -20 87 1400 040/07 RMK AO2 T02670244
53915KARA ARA20160805192010308/05/16 19:20:31  5-MIN KARA 060120Z 03007KT 10SM CLR 27/24 A2997 -20 82 1400 030/07 RMK AO2 T02720239
53915KARA ARA20160805192510308/05/16 19:25:31  5-MIN KARA 060125Z 01007KT 10SM CLR 27/24 A2997 -20 84 1400 010/07 RMK AO2 T02670239
53915KARA ARA20160805193010308/05/16 19:30:31  5-MIN KARA 060130Z 02005KT 10SM CLR 27/24 A2997 -20 84 1400 020/05 RMK AO2 T02670239
53915KARA ARA20160805193510308/05/16 19:35:31  5-MIN KARA 060135Z 36003KT 10SM CLR 27/24 A2997 -20 84 1400 360/03 RMK AO2 T02670239
53915KARA ARA20160805194010308/05/16 19:40:31  5-MIN KARA 060140Z 00000KT 10SM CLR 27/24 A2997 -20 84 1400 000/00 RMK AO2 T02670239
53915KARA ARA20160805194510308/05/16 19:45:31  5-MIN KARA 060145Z 00000KT 10SM CLR 27/24 A2997 -10 84 1400 000/00 RMK AO2 T02670239
53915KARA ARA20160805195011008/05/16 19:50:31  5-MIN KARA 060150Z 00000KT 10SM CLR 27/24 A2996 -10 84 1400 000/00 RMK AO2 SLP146 T02670239
53915KARA ARA20160805195510308/05/16 19:55:31  5-MIN KARA 060155Z 13003KT 10SM CLR 26/24 A2996 -10 87 1300 130/03 RMK AO2 T02610239
53915KARA ARA20160805200010808/05/16 20:00:31  5-MIN KARA 060200Z AUTO 13004KT 10SM CLR 26/24 A2996 -10 87 1300 130/04 RMK AO2 T02610239
53915KARA ARA20160805200510808/05/16 20:05:31  5-MIN KARA 060205Z AUTO 14005KT 10SM CLR 26/24 A2996 -10 87 1300 140/05 RMK AO2 T02610239
53915KARA ARA20160805201010808/05/16 20:10:31  5-MIN KARA 060210Z AUTO 14005KT 10SM CLR 26/24 A2996 -10 90 1200 140/05 RMK AO2 T02560239
53915KARA ARA20160805201510808/05/16 20:15:31  5-MIN KARA 060215Z AUTO 16003KT 10SM CLR 26/24 A2996 -10 90 1200 160/03 RMK AO2 T02560239
53915KARA ARA20160805202010808/05/16 20:20:31  5-MIN KARA 060220Z AUTO 19003KT 10SM CLR 26/24 A2996 -10 93 1200 190/03 RMK AO2 T02560244
53915KARA ARA20160805202510808/05/16 20:25:31  5-MIN KARA 060225Z AUTO 20003KT 10SM CLR 26/24 A2997 -10 90 1200 200/03 RMK AO2 T02560239
53915KARA ARA20160805203010808/05/16 20:30:31  5-MIN KARA 060230Z AUTO 00000KT 10SM CLR 26/24 A2997 -20 93 1200 000/00 RMK AO2 T02560244
53915KARA ARA20160805203510808/05/16 20:35:31  5-MIN KARA 060235Z AUTO 00000KT 10SM CLR 26/24 A2997 -20 93 1200 000/00 RMK AO2 T02560244
53915KARA ARA20160805204010808/05/16 20:40:31  5-MIN KARA 060240Z AUTO 00000KT 10SM CLR 26/24 A2998 -20 90 1200 000/00 RMK AO2 T02560239
53915KARA ARA20160805204510808/05/16 20:45:31  5-MIN KARA 060245Z AUTO 00000KT 10SM CLR 26/24 A2998 -20 90 1200 000/00 RMK AO2 T02560239
53915KARA ARA20160805205012108/05/16 20:50:31  5-MIN KARA 060250Z AUTO 15003KT 10SM CLR 26/24 A2998 -20 90 1200 150/03 RMK AO2 SLP150 T02560239 55004
53915KARA ARA20160805205510808/05/16 20:55:31  5-MIN KARA 060255Z AUTO 00000KT 10SM CLR 26/24 A2998 -20 90 1200 000/00 RMK AO2 T02560239
53915KARA ARA20160805210010808/05/16 21:00:31  5-MIN KARA 060300Z AUTO 00000KT 10SM CLR 26/24 A2998 -20 90 1200 000/00 RMK AO2 T02560239
53915KARA ARA20160805210510808/05/16 21:05:31  5-MIN KARA 060305Z AUTO 00000KT 10SM CLR 26/24 A2998 -20 90 1200 000/00 RMK AO2 T02560239
53915KARA ARA20160805211010808/05/16 21:10:31  5-MIN KARA 060310Z AUTO 00000KT 10SM CLR 26/24 A2998 -20 90 1200 000/00 RMK AO2 T02560239
53915KARA ARA20160805211510808/05/16 21:15:31  5-MIN KARA 060315Z AUTO 00000KT 10SM CLR 26/24 A2998 -20 90 1200 000/00 RMK AO2 T02560239
53915KARA ARA20160805212010808/05/16 21:20:31  5-MIN KARA 060320Z AUTO 15003KT 10SM CLR 26/24 A2998 -20 90 1200 140/03 RMK AO2 T02560239
53915KARA ARA20160805212510808/05/16 21:25:31  5-MIN KARA 060325Z AUTO 00000KT 10SM CLR 26/24 A2997 -20 93 1200 000/00 RMK AO2 T02560244
53915KARA ARA20160805213010808/05/16 21:30:31  5-MIN KARA 060330Z AUTO 16003KT 10SM CLR 26/24 A2997 -20 93 1200 160/03 RMK AO2 T02560244
53915KARA ARA20160805213510808/05/16 21:35:31  5-MIN KARA 060335Z AUTO 16003KT 10SM CLR 26/24 A2997 -10 90 1200 160/03 RMK AO2 T02560239
53915KARA ARA20160805214010808/05/16 21:40:31  5-MIN KARA 060340Z AUTO 16003KT 10SM CLR 26/24 A2997 -20 90 1200 160/03 RMK AO2 T02560239
53915KARA ARA20160805214510808/05/16 21:45:31  5-MIN KARA 060345Z AUTO 00000KT 10SM CLR 26/24 A2997 -20 93 1200 000/00 RMK AO2 T02560244
53915KARA ARA20160805215011508/05/16 21:50:31  5-MIN KARA 060350Z AUTO 00000KT 10SM CLR 26/24 A2997 -20 93 1200 000/00 RMK AO2 SLP149 T02560244
53915KARA ARA20160805215510808/05/16 21:55:31  5-MIN KARA 060355Z AUTO 00000KT 10SM CLR 26/24 A2998 -20 90 1200 000/00 RMK AO2 T02560239
53915KARA ARA20160805220010808/05/16 22:00:31  5-MIN KARA 060400Z AUTO 00000KT 10SM CLR 26/24 A2998 -20 90 1200 000/00 RMK AO2 T02560239
53915KARA ARA20160805220510808/05/16 22:05:31  5-MIN KARA 060405Z AUTO 00000KT 10SM CLR 26/24 A2998 -20 90 1200 000/00 RMK AO2 T02560239
53915KARA ARA20160805221010808/05/16 22:10:31  5-MIN KARA 060410Z AUTO 00000KT 10SM CLR 26/24 A2997 -20 90 1200 000/00 RMK AO2 T02560239
53915KARA ARA20160805221510808/05/16 22:15:31  5-MIN KARA 060415Z AUTO 00000KT 10SM CLR 26/24 A2997 -20 90 1200 000/00 RMK AO2 T02560239
53915KARA ARA20160805222010808/05/16 22:20:31  5-MIN KARA 060420Z AUTO 00000KT 10SM CLR 26/24 A2998 -20 93 1200 000/00 RMK AO2 T02560244
53915KARA ARA20160805222510808/05/16 22:25:31  5-MIN KARA 060425Z AUTO 00000KT 10SM CLR 26/24 A2998 -20 90 1300 000/00 RMK AO2 T02610244
53915KARA ARA20160805223010808/05/16 22:30:31  5-MIN KARA 060430Z AUTO 01003KT 10SM CLR 26/24 A2998 -20 90 1200 010/03 RMK AO2 T02560239
53915KARA ARA20160805223510808/05/16 22:35:31  5-MIN KARA 060435Z AUTO 36003KT 10SM CLR 26/24 A2998 -20 90 1200 360/03 RMK AO2 T02560239
53915KARA ARA20160805224010808/05/16 22:40:31  5-MIN KARA 060440Z AUTO 00000KT 10SM CLR 26/24 A2998 -20 90 1200 000/00 RMK AO2 T02560239
53915KARA ARA20160805224510808/05/16 22:45:31  5-MIN KARA 060445Z AUTO 00000KT 10SM CLR 26/24 A2997 -20 90 1200 000/00 RMK AO2 T02560239
53915KARA ARA20160805225011508/05/16 22:50:31  5-MIN KARA 060450Z AUTO 00000KT 10SM CLR 26/24 A2998 -20 90 1200 000/00 RMK AO2 SLP150 T02560239
53915KARA ARA20160805225510808/05/16 22:55:31  5-MIN KARA 060455Z AUTO 00000KT 10SM CLR 26/24 A2997 -20 90 1200 000/00 RMK AO2 T02560239
53915KARA ARA20160805230010808/05/16 23:00:31  5-MIN KARA 060500Z AUTO 00000KT 10SM CLR 26/24 A2997 -20 90 1200 000/00 RMK AO2 T02560239
53915KARA ARA20160805230510808/05/16 23:05:31  5-MIN KARA 060505Z AUTO 00000KT 10SM CLR 25/24 A2997 -20 93 1200 000/00 RMK AO2 T02500239
53915KARA ARA20160805231010808/05/16 23:10:31  5-MIN KARA 060510Z AUTO 00000KT 10SM CLR 25/24 A2997 -20 93 1200 000/00 RMK AO2 T02500239
53915KARA ARA20160805231510808/05/16 23:15:31  5-MIN KARA 060515Z AUTO 00000KT 10SM CLR 25/24 A2997 -10 93 1200 000/00 RMK AO2 T02500239
53915KARA ARA20160805232010808/05/16 23:20:31  5-MIN KARA 060520Z AUTO 18004KT 10SM CLR 25/24 A2996 -10 93 1200 180/04 RMK AO2 T02500239
53915KARA ARA20160805232510808/05/16 23:25:31  5-MIN KARA 060525Z AUTO 19006KT 10SM CLR 25/24 A2996 -10 93 1200 190/06 RMK AO2 T02500239
53915KARA ARA20160805233010608/05/16 23:30:31  5-MIN KARA 060530Z AUTO 20004KT 10SM CLR 25/24 A2996 0 93 1200 200/04 RMK AO2 T02500239
53915KARA ARA20160805233510808/05/16 23:35:31  5-MIN KARA 060535Z AUTO 20003KT 10SM CLR 25/24 A2996 -10 93 1200 200/03 RMK AO2 T02500239
53915KARA ARA20160805234010808/05/16 23:40:31  5-MIN KARA 060540Z AUTO 00000KT 10SM CLR 25/24 A2996 -10 93 1200 000/00 RMK AO2 T02500239
53915KARA ARA20160805234510808/05/16 23:45:31  5-MIN KARA 060545Z AUTO 20003KT 10SM CLR 25/24 A2996 -10 93 1200 200/03 RMK AO2 T02500239
53915KARA ARA20160805235014108/05/16 23:50:31  5-MIN KARA 060550Z AUTO 20003KT 10SM CLR 25/24 A2996 0 93 1200 200/03 RMK AO2 SLP144 T02500239 10278 20250 403560244 53005
53915KARA ARA20160805235510608/05/16 23:55:31  5-MIN KARA 060555Z AUTO 19005KT 10SM CLR 25/24 A2996 0 93 1200 190/05 RMK AO2 T02500239
53915KARA ARA20160806000010608/06/16 00:00:31  5-MIN KARA 060600Z AUTO 18004KT 10SM CLR 25/24 A2996 0 93 1200 180/04 RMK AO2 T02500239
53915KARA ARA20160806000510608/06/16 00:05:31  5-MIN KARA 060605Z AUTO 17004KT 10SM CLR 25/24 A2996 0 93 1200 170/04 RMK AO2 T02500239
53915KARA ARA20160806001010808/06/16 00:10:31  5-MIN KARA 060610Z AUTO 15004KT 10SM CLR 25/24 A2996 -10 93 1200 150/04 RMK AO2 T02500239
53915KARA ARA20160806001510608/06/16 00:15:31  5-MIN KARA 060615Z AUTO 13004KT 10SM CLR 25/24 A2996 0 93 1200 130/04 RMK AO2 T02500239
53915KARA ARA20160806002010608/06/16 00:20:31  5-MIN KARA 060620Z AUTO 14004KT 10SM CLR 25/24 A2996 0 93 1200 140/04 RMK AO2 T02500239
53915KARA ARA20160806002510608/06/16 00:25:31  5-MIN KARA 060625Z AUTO 13004KT 10SM CLR 25/24 A2996 0 93 1200 130/04 RMK AO2 T02500239
53915KARA ARA20160806003010608/06/16 00:30:31  5-MIN KARA 060630Z AUTO 15003KT 10SM CLR 25/24 A2996 0 93 1200 150/03 RMK AO2 T02500239
53915KARA ARA20160806003510608/06/16 00:35:31  5-MIN KARA 060635Z AUTO 16003KT 10SM CLR 25/24 A2995 0 93 1200 160/03 RMK AO2 T02500239
53915KARA ARA20160806004010608/06/16 00:40:31  5-MIN KARA 060640Z AUTO 16003KT 10SM CLR 25/24 A2996 0 93 1200 160/03 RMK AO2 T02500239
53915KARA ARA20160806004510808/06/16 00:45:31  5-MIN KARA 060645Z AUTO 00000KT 10SM CLR 25/24 A2996 -10 93 1200 000/00 RMK AO2 T02500239
53915KARA ARA20160806005011508/06/16 00:50:31  5-MIN KARA 060650Z AUTO 00000KT 10SM CLR 25/24 A2996 -10 93 1200 000/00 RMK AO2 SLP145 T02500239
53915KARA ARA20160806005510808/06/16 00:55:31  5-MIN KARA 060655Z AUTO 00000KT 10SM CLR 25/24 A2996 -10 93 1200 000/00 RMK AO2 T02500239
53915KARA ARA20160806010010808/06/16 01:00:31  5-MIN KARA 060700Z AUTO 00000KT 10SM CLR 25/24 A2996 -10 93 1200 000/00 RMK AO2 T02500239
53915KARA ARA20160806010510808/06/16 01:05:31  5-MIN KARA 060705Z AUTO 00000KT 10SM CLR 25/24 A2996 -10 93 1200 000/00 RMK AO2 T02500239
53915KARA ARA20160806011010808/06/16 01:10:31  5-MIN KARA 060710Z AUTO 00000KT 10SM CLR 25/24 A2996 -10 93 1200 000/00 RMK AO2 T02500239
53915KARA ARA20160806011510808/06/16 01:15:31  5-MIN KARA 060715Z AUTO 00000KT 10SM CLR 25/24 A2996 -10 93 1200 000/00 RMK AO2 T02500239
53915KARA ARA20160806012010808/06/16 01:20:31  5-MIN KARA 060720Z AUTO 00000KT 10SM CLR 25/24 A2996 -10 93 1200 000/00 RMK AO2 T02500239
53915KARA ARA20160806012510808/06/16 01:25:31  5-MIN KARA 060725Z AUTO 00000KT 10SM CLR 25/24 A2996 -10 93 1200 000/00 RMK AO2 T02500239
53915KARA ARA20160806013010808/06/16 01:30:31  5-MIN KARA 060730Z AUTO 00000KT 10SM CLR 25/24 A2996 -10 93 1200 000/00 RMK AO2 T02500239
53915KARA ARA20160806013510808/06/16 01:35:31  5-MIN KARA 060735Z AUTO 00000KT 10SM CLR 26/24 A2996 -10 90 1200 000/00 RMK AO2 T02560239
53915KARA ARA20160806014010808/06/16 01:40:31  5-MIN KARA 060740Z AUTO 00000KT 10SM CLR 26/24 A2996 -10 90 1200 000/00 RMK AO2 T02560239
53915KARA ARA20160806014510608/06/16 01:45:31  5-MIN KARA 060745Z AUTO 00000KT 10SM CLR 25/24 A2996 0 93 1200 000/00 RMK AO2 T02500239
53915KARA ARA20160806015011208/06/16 01:50:31  5-MIN KARA 060750Z AUTO 00000KT 9SM CLR 25/24 A2996 0 93 1200 000/00 RMK AO2 SLP144 T02500239
53915KARA ARA20160806015510508/06/16 01:55:31  5-MIN KARA 060755Z AUTO 00000KT 8SM CLR 25/24 A2996 0 93 1200 000/00 RMK AO2 T02500239
53915KARA ARA20160806020010708/06/16 02:00:31  5-MIN KARA 060800Z AUTO 00000KT 9SM CLR 25/24 A2996 -10 93 1200 000/00 RMK AO2 T02500239
53915KARA ARA20160806020510708/06/16 02:05:31  5-MIN KARA 060805Z AUTO 00000KT 9SM CLR 25/24 A2996 -10 93 1200 000/00 RMK AO2 T02500239
53915KARA ARA20160806021010808/06/16 02:10:31  5-MIN KARA 060810Z AUTO 00000KT 10SM CLR 25/24 A2996 -10 93 1200 000/00 RMK AO2 T02500239
53915KARA ARA20160806021510808/06/16 02:15:31  5-MIN KARA 060815Z AUTO 00000KT 10SM CLR 25/24 A2996 -10 93 1200 000/00 RMK AO2 T02500239
53915KARA ARA20160806022010808/06/16 02:20:31  5-MIN KARA 060820Z AUTO 35003KT 10SM CLR 25/24 A2996 -10 93 1200 350/03 RMK AO2 T02500239
53915KARA ARA20160806022510808/06/16 02:25:31  5-MIN KARA 060825Z AUTO 00000KT 10SM CLR 25/24 A2996 -10 93 1200 000/00 RMK AO2 T02500239
53915KARA ARA20160806023010808/06/16 02:30:31  5-MIN KARA 060830Z AUTO 00000KT 10SM CLR 25/24 A2997 -10 93 1200 000/00 RMK AO2 T02500239
53915KARA ARA20160806023510708/06/16 02:35:31  5-MIN KARA 060835Z AUTO 00000KT 9SM CLR 25/24 A2997 -10 93 1200 000/00 RMK AO2 T02500239
53915KARA ARA20160806024010708/06/16 02:40:31  5-MIN KARA 060840Z AUTO 00000KT 9SM CLR 25/24 A2997 -10 93 1200 000/00 RMK AO2 T02500239
53915KARA ARA20160806024510708/06/16 02:45:31  5-MIN KARA 060845Z AUTO 00000KT 9SM CLR 25/24 A2997 -10 93 1200 000/00 RMK AO2 T02500239
53915KARA ARA20160806025012008/06/16 02:50:31  5-MIN KARA 060850Z AUTO 31003KT 9SM CLR 25/24 A2997 -10 93 1200 310/03 RMK AO2 SLP147 T02500239 58006
53915KARA ARA20160806025510708/06/16 02:55:31  5-MIN KARA 060855Z AUTO 31003KT 9SM CLR 25/24 A2997 -10 93 1200 310/03 RMK AO2 T02500239
53915KARA ARA20160806030010708/06/16 03:00:31  5-MIN KARA 060900Z AUTO 00000KT 9SM CLR 25/24 A2997 -20 93 1200 000/00 RMK AO2 T02500239
53915KARA ARA20160806030510708/06/16 03:05:31  5-MIN KARA 060905Z AUTO 00000KT 9SM CLR 25/24 A2998 -20 93 1200 000/00 RMK AO2 T02500239
53915KARA ARA20160806031010708/06/16 03:10:31  5-MIN KARA 060910Z AUTO 00000KT 9SM CLR 24/24 A2998 -20 97 1100 000/00 RMK AO2 T02440239
53915KARA ARA20160806031510808/06/16 03:15:31  5-MIN KARA 060915Z AUTO 00000KT 10SM CLR 25/24 A2998 -20 93 1200 000/00 RMK AO2 T02500239
53915KARA ARA20160806032010808/06/16 03:20:31  5-MIN KARA 060920Z AUTO 00000KT 10SM CLR 25/24 A2998 -20 93 1200 000/00 RMK AO2 T02500239
53915KARA ARA20160806032510808/06/16 03:25:31  5-MIN KARA 060925Z AUTO 00000KT 10SM CLR 25/24 A2998 -20 93 1200 000/00 RMK AO2 T02500239
53915KARA ARA20160806033010808/06/16 03:30:31  5-MIN KARA 060930Z AUTO 00000KT 10SM CLR 25/24 A2998 -20 93 1200 000/00 RMK AO2 T02500239
53915KARA ARA20160806033510808/06/16 03:35:31  5-MIN KARA 060935Z AUTO 00000KT 10SM CLR 25/24 A2998 -20 93 1200 000/00 RMK AO2 T02500239
53915KARA ARA20160806034010808/06/16 03:40:31  5-MIN KARA 060940Z AUTO 00000KT 10SM CLR 24/24 A2998 -20 97 1100 000/00 RMK AO2 T02440239
53915KARA ARA20160806034510808/06/16 03:45:31  5-MIN KARA 060945Z AUTO 00000KT 10SM CLR 25/24 A2998 -20 93 1200 000/00 RMK AO2 T02500239
53915KARA ARA20160806035011508/06/16 03:50:31  5-MIN KARA 060950Z AUTO 00000KT 10SM CLR 25/24 A2998 -30 93 1200 000/00 RMK AO2 SLP152 T02500239
53915KARA ARA20160806035510808/06/16 03:55:31  5-MIN KARA 060955Z AUTO 00000KT 10SM CLR 25/24 A2999 -30 93 1200 000/00 RMK AO2 T02500239
53915KARA ARA20160806040010808/06/16 04:00:31  5-MIN KARA 061000Z AUTO 00000KT 10SM CLR 25/24 A2998 -30 93 1200 000/00 RMK AO2 T02500239
53915KARA ARA20160806040510808/06/16 04:05:31  5-MIN KARA 061005Z AUTO 00000KT 10SM CLR 25/24 A2998 -30 93 1200 000/00 RMK AO2 T02500239
53915KARA ARA20160806041010808/06/16 04:10:31  5-MIN KARA 061010Z AUTO 00000KT 10SM CLR 25/24 A2998 -20 93 1200 000/00 RMK AO2 T02500239
53915KARA ARA20160806041510808/06/16 04:15:31  5-MIN KARA 061015Z AUTO 00000KT 10SM CLR 25/24 A2998 -20 93 1200 000/00 RMK AO2 T02500239
53915KARA ARA20160806042010708/06/16 04:20:31  5-MIN KARA 061020Z AUTO 00000KT 9SM CLR 24/24 A2998 -20 97 1100 000/00 RMK AO2 T02440239
53915KARA ARA20160806042511808/06/16 04:25:31  5-MIN KARA 061025Z AUTO 00000KT 9SM CLR 24/23 A2998 -20 93 1100 000/00 RMK AO2 LTG DSNT S T02440233
53915KARA ARA20160806043011808/06/16 04:30:31  5-MIN KARA 061030Z AUTO 00000KT 9SM CLR 24/23 A2998 -20 93 1100 000/00 RMK AO2 LTG DSNT S T02440233
53915KARA ARA20160806043511808/06/16 04:35:31  5-MIN KARA 061035Z AUTO 00000KT 9SM CLR 24/23 A2998 -20 93 1100 000/00 RMK AO2 LTG DSNT S T02440233
53915KARA ARA20160806044011308/06/16 04:40:31  5-MIN KARA 061040Z 00000KT 9SM CLR 24/24 A2998 -20 97 1100 000/00 RMK AO2 LTG DSNT S T02440239
53915KARA ARA20160806044511408/06/16 04:45:31  5-MIN KARA 061045Z 00000KT 10SM CLR 24/24 A2998 -20 97 1100 000/00 RMK AO2 LTG DSNT S T02440239
53915KARA ARA20160806045010908/06/16 04:50:31  5-MIN KARA 061050Z 00000KT 9SM CLR 24/23 A2998 -20 93 1100 000/00 RMK AO2 SLP151 T02440233
53915KARA ARA20160806045510208/06/16 04:55:31  5-MIN KARA 061055Z 00000KT 9SM CLR 24/23 A2998 -20 93 1100 000/00 RMK AO2 T02440233
53915KARA ARA20160806050010208/06/16 05:00:31  5-MIN KARA 061100Z 00000KT 9SM CLR 24/23 A2998 -30 93 1100 000/00 RMK AO2 T02440233
53915KARA ARA20160806050510208/06/16 05:05:31  5-MIN KARA 061105Z 00000KT 8SM CLR 24/23 A2998 -30 93 1100 000/00 RMK AO2 T02440233
53915KARA ARA20160806051010208/06/16 05:10:31  5-MIN KARA 061110Z 00000KT 8SM CLR 24/23 A2999 -30 93 1100 000/00 RMK AO2 T02440233
53915KARA ARA20160806051510208/06/16 05:15:31  5-MIN KARA 061115Z 00000KT 8SM CLR 24/24 A2998 -30 97 1100 000/00 RMK AO2 T02440239
53915KARA ARA20160806052010208/06/16 05:20:31  5-MIN KARA 061120Z 00000KT 9SM CLR 24/24 A2999 -30 97 1100 000/00 RMK AO2 T02440239
53915KARA ARA20160806052510208/06/16 05:25:31  5-MIN KARA 061125Z 00000KT 9SM CLR 24/24 A2999 -30 97 1100 000/00 RMK AO2 T02440239
53915KARA ARA20160806053010208/06/16 05:30:31  5-MIN KARA 061130Z 00000KT 8SM CLR 24/23 A2998 -30 93 1100 000/00 RMK AO2 T02440233
53915KARA ARA20160806053510208/06/16 05:35:31  5-MIN KARA 061135Z 00000KT 7SM CLR 24/23 A2998 -30 93 1100 000/00 RMK AO2 T02440233
53915KARA ARA20160806054010208/06/16 05:40:31  5-MIN KARA 061140Z 00000KT 7SM CLR 24/24 A2998 -30 97 1100 000/00 RMK AO2 T02440239
53915KARA ARA20160806054510208/06/16 05:45:31  5-MIN KARA 061145Z 00000KT 8SM CLR 24/23 A2998 -30 93 1100 000/00 RMK AO2 T02440233
53915KARA ARA20160806055013308/06/16 05:50:31  5-MIN KARA 061150Z 00000KT 8SM CLR 24/24 A2999 -30 97 1100 000/00 RMK AO2 SLP153 70016 T02440239 10256 20239 53004
53915KARA ARA20160806055510208/06/16 05:55:31  5-MIN KARA 061155Z 00000KT 9SM CLR 24/23 A2999 -30 93 1100 000/00 RMK AO2 T02440233
53915KARA ARA20160806060010208/06/16 06:00:31  5-MIN KARA 061200Z 00000KT 9SM CLR 24/24 A2999 -30 97 1100 000/00 RMK AO2 T02440239
53915KARA ARA20160806060510308/06/16 06:05:31  5-MIN KARA 061205Z 00000KT 10SM CLR 24/24 A2999 -30 97 1100 000/00 RMK AO2 T02440239
53915KARA ARA20160806061010308/06/16 06:10:31  5-MIN KARA 061210Z 00000KT 10SM CLR 25/24 A2999 -30 93 1200 000/00 RMK AO2 T02500239
53915KARA ARA20160806061510308/06/16 06:15:31  5-MIN KARA 061215Z 00000KT 10SM CLR 25/24 A2999 -40 97 1100 000/00 RMK AO2 T02500244
53915KARA ARA20160806062010308/06/16 06:20:31  5-MIN KARA 061220Z 00000KT 10SM CLR 26/24 A2999 -40 93 1200 000/00 RMK AO2 T02560244
53915KARA ARA20160806062510308/06/16 06:25:31  5-MIN KARA 061225Z 00000KT 10SM CLR 26/24 A2999 -40 93 1200 000/00 RMK AO2 T02560244
53915KARA ARA20160806063010308/06/16 06:30:31  5-MIN KARA 061230Z 00000KT 10SM CLR 26/24 A3000 -40 90 1300 000/00 RMK AO2 T02610244
53915KARA ARA20160806063510308/06/16 06:35:31  5-MIN KARA 061235Z 00000KT 10SM CLR 26/24 A2999 -40 90 1300 000/00 RMK AO2 T02610244
53915KARA ARA20160806064010308/06/16 06:40:31  5-MIN KARA 061240Z 00000KT 10SM CLR 26/25 A2999 -40 93 1300 000/00 RMK AO2 T02610250
53915KARA ARA20160806064510308/06/16 06:45:31  5-MIN KARA 061245Z 00000KT 10SM CLR 27/25 A2999 -40 90 1300 000/00 RMK AO2 T02670250
53915KARA ARA20160806065011008/06/16 06:50:31  5-MIN KARA 061250Z 00000KT 10SM CLR 27/25 A3000 -40 90 1300 000/00 RMK AO2 SLP157 T02670250
53915KARA ARA20160806065510308/06/16 06:55:31  5-MIN KARA 061255Z 00000KT 10SM CLR 27/25 A3000 -40 90 1300 000/00 RMK AO2 T02670250
53915KARA ARA20160806070010308/06/16 07:00:31  5-MIN KARA 061300Z 00000KT 10SM CLR 27/25 A3000 -40 90 1300 000/00 RMK AO2 T02670250
53915KARA ARA20160806070510308/06/16 07:05:31  5-MIN KARA 061305Z 00000KT 10SM CLR 27/25 A3000 -40 87 1400 000/00 RMK AO2 T02720250
53915KARA ARA20160806071010308/06/16 07:10:31  5-MIN KARA 061310Z 00000KT 10SM CLR 28/26 A3000 -40 87 1500 000/00 RMK AO2 T02780256
53915KARA ARA20160806071510308/06/16 07:15:31  5-MIN KARA 061315Z 00000KT 10SM CLR 28/26 A3000 -40 87 1500 000/00 RMK AO2 T02780256
53915KARA ARA20160806072010308/06/16 07:20:31  5-MIN KARA 061320Z 00000KT 10SM CLR 28/26 A3000 -40 87 1500 000/00 RMK AO2 T02780256
53915KARA ARA20160806072510308/06/16 07:25:31  5-MIN KARA 061325Z 00000KT 10SM CLR 28/26 A3000 -40 90 1500 000/00 RMK AO2 T02780261
53915KARA ARA20160806073010308/06/16 07:30:31  5-MIN KARA 061330Z 00000KT 10SM CLR 28/26 A3000 -40 87 1500 000/00 RMK AO2 T02780256
53915KARA ARA20160806073510308/06/16 07:35:31  5-MIN KARA 061335Z 00000KT 10SM CLR 28/26 A3000 -40 87 1500 000/00 RMK AO2 T02830261
53915KARA ARA20160806074010308/06/16 07:40:31  5-MIN KARA 061340Z 00000KT 10SM CLR 28/26 A3000 -40 85 1500 000/00 RMK AO2 T02830256
53915KARA ARA20160806074510308/06/16 07:45:31  5-MIN KARA 061345Z 30003KT 10SM CLR 29/26 A3000 -40 85 1600 290/03 RMK AO2 T02890261
53915KARA ARA20160806075011008/06/16 07:50:31  5-MIN KARA 061350Z VRB03KT 10SM CLR 29/26 A3000 -40 82 1600 VRB/03 RMK AO2 SLP158 T02940261
53915KARA ARA20160806075511408/06/16 07:55:31  5-MIN KARA 061355Z 30003KT 10SM CLR 29/26 A3000 -40 82 1600 290/03 RMK AO2 LTG DSNT S T02940261
53915KARA ARA20160806080011408/06/16 08:00:31  5-MIN KARA 061400Z 30003KT 10SM CLR 29/26 A3000 -40 82 1600 300/03 RMK AO2 LTG DSNT S T02940261
53915KARA ARA20160806080511408/06/16 08:05:31  5-MIN KARA 061405Z 31005KT 10SM CLR 29/26 A3000 -50 82 1600 310/05 RMK AO2 LTG DSNT S T02940261
53915KARA ARA20160806081011408/06/16 08:10:31  5-MIN KARA 061410Z VRB04KT 10SM CLR 30/26 A3000 -50 79 1700 VRB/04 RMK AO2 LTG DSNT S T03000261
53915KARA ARA20160806081511408/06/16 08:15:31  5-MIN KARA 061415Z 29005KT 10SM CLR 30/26 A3000 -50 79 1700 290/05 RMK AO2 LTG DSNT S T03000261
53915KARA ARA20160806082011408/06/16 08:20:31  5-MIN KARA 061420Z 29004KT 10SM CLR 30/26 A3000 -50 79 1700 290/04 RMK AO2 LTG DSNT S T03000261
53915KARA ARA20160806082511408/06/16 08:25:31  5-MIN KARA 061425Z 28005KT 10SM CLR 31/26 A3001 -50 77 1800 280/05 RMK AO2 LTG DSNT S T03060261
53915KARA ARA20160806083011408/06/16 08:30:31  5-MIN KARA 061430Z 27006KT 10SM CLR 31/26 A3001 -50 77 1800 270/06 RMK AO2 LTG DSNT S T03060261
53915KARA ARA20160806083510308/06/16 08:35:31  5-MIN KARA 061435Z 29006KT 10SM CLR 31/26 A3000 -50 77 1800 290/06 RMK AO2 T03060261
53915KARA ARA20160806084010308/06/16 08:40:31  5-MIN KARA 061440Z 30005KT 10SM CLR 31/26 A3000 -40 77 1800 300/05 RMK AO2 T03060261
53915KARA ARA20160806084510308/06/16 08:45:31  5-MIN KARA 061445Z 30007KT 10SM CLR 31/26 A3000 -40 74 1800 300/07 RMK AO2 T03110261
53915KARA ARA20160806085011908/06/16 08:50:31  5-MIN KARA 061450Z 28007KT 10SM FEW020 31/26 A3000 -40 74 1800 280/07 RMK AO2 SLP159 T03110261 51006
53915KARA ARA20160806085510608/06/16 08:55:31  5-MIN KARA 061455Z 29006KT 10SM FEW020 31/26 A3000 -50 77 1800 280/06 RMK AO2 T03060261
53915KARA ARA20160806090010608/06/16 09:00:31  5-MIN KARA 061500Z 27009KT 10SM FEW020 31/26 A3000 -50 74 1800 270/09 RMK AO2 T03060256
53915KARA ARA20160806090511308/06/16 09:05:31  5-MIN KARA 061505Z 30007KT 10SM FEW020 SCT028 31/26 A3000 -50 74 1800 300/07 RMK AO2 T03060256
53915KARA ARA20160806091011308/06/16 09:10:31  5-MIN KARA 061510Z 28008KT 10SM FEW020 SCT028 31/26 A3000 -40 74 1800 280/08 RMK AO2 T03110261
53915KARA ARA20160806091511308/06/16 09:15:31  5-MIN KARA 061515Z 27007KT 10SM FEW020 FEW028 31/26 A3000 -40 72 1800 270/07 RMK AO2 T03110256
53915KARA ARA20160806092011308/06/16 09:20:31  5-MIN KARA 061520Z 28007KT 10SM FEW020 SCT026 31/26 A3000 -40 72 1800 270/07 RMK AO2 T03110256
53915KARA ARA20160806092511308/06/16 09:25:31  5-MIN KARA 061525Z 27008KT 10SM FEW020 SCT028 31/26 A3000 -40 72 1800 270/08 RMK AO2 T03110256
53915KARA ARA20160806093011308/06/16 09:30:31  5-MIN KARA 061530Z 26005KT 10SM SCT023 SCT030 31/25 A3000 -40 72 1800 260/05 RMK AO2 T03060250
53915KARA ARA20160806093510608/06/16 09:35:31  5-MIN KARA 061535Z 28008KT 10SM SCT023 31/26 A3000 -40 72 1800 280/08 RMK AO2 T03110256
53915KARA ARA20160806094010608/06/16 09:40:31  5-MIN KARA 061540Z 28008KT 10SM FEW023 32/26 A3000 -40 69 1900 280/08 RMK AO2 T03170256
53915KARA ARA20160806094511308/06/16 09:45:31  5-MIN KARA 061545Z 30004KT 10SM FEW023 FEW030 32/26 A3000 -40 69 1900 300/04 RMK AO2 T03170256
53915KARA ARA20160806095012008/06/16 09:50:31  5-MIN KARA 061550Z 31007KT 10SM FEW023 SCT030 32/26 A3000 -40 69 1900 310/07 RMK AO2 SLP158 T03170256
53915KARA ARA20160806095510608/06/16 09:55:31  5-MIN KARA 061555Z 27005KT 10SM FEW026 31/26 A3000 -40 72 1800 270/05 RMK AO2 T03110256
53915KARA ARA20160806100010608/06/16 10:00:31  5-MIN KARA 061600Z 28008KT 10SM FEW029 31/26 A3000 -40 72 1800 280/08 RMK AO2 T03110256
53915KARA ARA20160806100510608/06/16 10:05:31  5-MIN KARA 061605Z 29007KT 10SM FEW029 32/25 A3000 -40 67 1900 290/07 RMK AO2 T03170250
53915KARA ARA20160806101010608/06/16 10:10:31  5-MIN KARA 061610Z 26008KT 10SM FEW029 32/26 A3000 -40 69 1900 260/08 RMK AO2 T03170256
53915KARA ARA20160806101510608/06/16 10:15:31  5-MIN KARA 061615Z 26006KT 10SM FEW027 32/26 A3000 -40 67 1900 260/06 RMK AO2 T03220256
53915KARA ARA20160806102010608/06/16 10:20:31  5-MIN KARA 061620Z 29006KT 10SM FEW025 32/26 A3000 -40 69 2000 290/06 RMK AO2 T03220261
53915KARA ARA20160806102510608/06/16 10:25:31  5-MIN KARA 061625Z 28006KT 10SM SCT023 32/26 A3000 -40 69 1900 280/06 RMK AO2 T03170256
53915KARA ARA20160806103010608/06/16 10:30:31  5-MIN KARA 061630Z 32006KT 10SM SCT025 32/26 A3000 -40 69 1900 320/06 RMK AO2 T03170256
53915KARA ARA20160806103512008/06/16 10:35:31  5-MIN KARA 061635Z 31007KT 10SM SCT025 SCT031 BKN050 32/26 A3000 -40 69 1900 310/07 RMK AO2 T03170256
53915KARA ARA20160806104011308/06/16 10:40:31  5-MIN KARA 061640Z 30005KT 10SM SCT025 BKN050 31/26 A3000 -40 72 1800 300/05 RMK AO2 T03110256
53915KARA ARA20160806104511308/06/16 10:45:31  5-MIN KARA 061645Z 28004KT 10SM SCT025 SCT050 32/26 A3000 -40 69 1900 280/04 RMK AO2 T03170256
53915KARA ARA20160806105012708/06/16 10:50:31  5-MIN KARA 061650Z 30006KT 10SM FEW025 FEW029 SCT050 32/26 A3000 -40 69 1900 300/06 RMK AO2 SLP158 T03170256
53915KARA ARA20160806105511308/06/16 10:55:31  5-MIN KARA 061655Z 29006KT 10SM FEW025 FEW049 32/25 A3000 -40 67 1900 290/06 RMK AO2 T03170250
53915KARA ARA20160806110011308/06/16 11:00:31  5-MIN KARA 061700Z 28004KT 10SM FEW027 FEW049 32/25 A3000 -40 67 1900 280/04 RMK AO2 T03170250
53915KARA ARA20160806110510308/06/16 11:05:31  5-MIN KARA 061705Z 27005KT 10SM CLR 32/26 A3000 -40 69 1900 270/05 RMK AO2 T03170256
53915KARA ARA20160806111010308/06/16 11:10:31  5-MIN KARA 061710Z 28006KT 10SM CLR 32/26 A3000 -40 67 2000 280/06 RMK AO2 T03220256
53915KARA ARA20160806111510308/06/16 11:15:31  5-MIN KARA 061715Z 29005KT 10SM CLR 32/26 A3000 -40 69 2000 280/05 RMK AO2 T03220261
53915KARA ARA20160806112011508/06/16 11:20:31  5-MIN KARA 061720Z 29008KT 10SM CLR 32/26 A3000 -40 67 2000 280/08 RMK AO2 LTG DSNT SW T03220256
53915KARA ARA20160806112511508/06/16 11:25:31  5-MIN KARA 061725Z 28007KT 10SM CLR 33/25 A2999 -40 63 2000 280/07 RMK AO2 LTG DSNT SW T03280250
53915KARA ARA20160806113011508/06/16 11:30:31  5-MIN KARA 061730Z 28007KT 10SM CLR 32/25 A2999 -30 65 2000 280/07 RMK AO2 LTG DSNT SW T03220250
53915KARA ARA20160806113512108/06/16 11:35:31  5-MIN KARA 061735Z 27008KT 10SM CLR 32/25 A2999 -30 65 2000 270/08 RMK AO2 LTG DSNT S AND SW T03220250
53915KARA ARA20160806114012108/06/16 11:40:31  5-MIN KARA 061740Z 30009KT 10SM CLR 33/25 A2999 -30 63 2000 300/09 RMK AO2 LTG DSNT S AND SW T03280250
53915KARA ARA20160806114512408/06/16 11:45:31  5-MIN KARA 061745Z 29007KT 10SM FEW031 33/24 A2999 -30 61 2000 290/07 RMK AO2 LTG DSNT S AND SW T03280244
53915KARA ARA20160806115014908/06/16 11:50:31  5-MIN KARA 061750Z 32005KT 10SM FEW031 33/24 A2999 -30 61 2000 320/05 RMK AO2 LTG DSNT S AND SW SLP154 T03280244 10328 20244 51006
53915KARA ARA20160806115512108/06/16 11:55:31  5-MIN KARA 061755Z 30005KT 10SM CLR 33/24 A2999 -30 59 2100 300/05 RMK AO2 LTG DSNT S AND SW T03330244
53915KARA ARA20160806120011508/06/16 12:00:31  5-MIN KARA 061800Z 29007KT 10SM CLR 34/24 A2999 -30 57 2100 290/07 RMK AO2 LTG DSNT SW T03390244
53915KARA ARA20160806120512108/06/16 12:05:31  5-MIN KARA 061805Z 30007KT 10SM CLR 33/24 A2999 -30 57 2100 300/07 RMK AO2 LTG DSNT S AND SW T03330239
53915KARA ARA20160806121012108/06/16 12:10:31  5-MIN KARA 061810Z 30005KT 10SM CLR 34/24 A2999 -30 57 2100 290/05 RMK AO2 LTG DSNT S AND SW T03390244
53915KARA ARA20160806121512108/06/16 12:15:31  5-MIN KARA 061815Z 30006KT 10SM CLR 34/24 A2999 -30 57 2100 300/06 RMK AO2 LTG DSNT S AND SW T03390244
53915KARA ARA20160806122011808/06/16 12:20:31  5-MIN KARA 061820Z 26008KT 10SM FEW034 34/24 A2998 -30 57 2200 260/08 RMK AO2 LTG DSNT SW T03390244
53915KARA ARA20160806122511808/06/16 12:25:31  5-MIN KARA 061825Z 25006KT 10SM FEW034 33/24 A2998 -20 57 2100 250/06 RMK AO2 LTG DSNT SW T03330239
53915KARA ARA20160806123011408/06/16 12:30:31  5-MIN KARA 061830Z VRB05KT 10SM CLR 33/25 A2997 -20 61 2100 VRB/05 RMK AO2 LTG DSNT S T03330250
53915KARA ARA20160806123512408/06/16 12:35:31  5-MIN KARA 061835Z 29007KT 10SM FEW034 33/25 A2997 -20 61 2100 290/07 RMK AO2 LTG DSNT S AND SW T03330250
53915KARA ARA20160806124012408/06/16 12:40:31  5-MIN KARA 061840Z 27005KT 10SM FEW034 33/24 A2997 -20 59 2100 270/05 RMK AO2 LTG DSNT S AND SW T03330244
53915KARA ARA20160806124512408/06/16 12:45:31  5-MIN KARA 061845Z 28006KT 10SM FEW034 33/25 A2997 -20 61 2100 280/06 RMK AO2 LTG DSNT S AND SW T03330250
53915KARA ARA20160806125012108/06/16 12:50:31  5-MIN KARA 061850Z 27007KT 10SM CLR 34/24 A2997 -20 57 2200 270/07 RMK AO2 LTG DSNT S SLP148 T03390244
53915KARA ARA20160806125510308/06/16 12:55:31  5-MIN KARA 061855Z 26005KT 10SM CLR 34/24 A2997 -10 57 2200 250/05 RMK AO2 T03390244
53915KARA ARA20160806130012108/06/16 13:00:31  5-MIN KARA 061900Z 27011G16KT 10SM CLR 33/24 A2997 -10 59 2100 270/11G16 RMK AO2 LTG DSNT SE T03330244
53915KARA ARA20160806130512108/06/16 13:05:31  5-MIN KARA 061905Z 24009G16KT 10SM CLR 33/26 A2997 -10 65 2000 240/09G16 RMK AO2 LTG DSNT SE T03280256
53915KARA ARA20160806131013408/06/16 13:10:31  5-MIN KARA 061910Z 25013KT 10SM -RA FEW100 33/25 A2997 -10 63 2000 250/13 RMK AO2 LTG DSNT SE RAB10 P0000 T03280250
53915KARA ARA20160806131514208/06/16 13:15:31  5-MIN KARA 061915Z 22013G18KT 10SM -RA FEW037 SCT050 SCT100 32/24 A2997 -10 65 1900 220/13G18 RMK AO2 RAB10 P0000 T03170244
53915KARA ARA20160806132014208/06/16 13:20:31  5-MIN KARA 061920Z 23014G20KT 10SM -RA FEW039 SCT050 BKN100 31/24 A2997 -10 65 1900 230/14G20 RMK AO2 RAB10 P0000 T03110239
53915KARA ARA20160806132513608/06/16 13:25:31  5-MIN KARA 061925Z 23011KT 10SM -RA FEW039 SCT050 BKN110 31/24 A2996 -10 67 1800 230/11 RMK AO2 RAB10 P0000 T03060239
53915KARA ARA20160806133013608/06/16 13:30:31  5-MIN KARA 061930Z 22012KT 10SM -RA FEW039 SCT050 BKN110 31/24 A2996 -10 65 1900 220/12 RMK AO2 RAB10 P0000 T03110239
53915KARA ARA20160806133513908/06/16 13:35:31  5-MIN KARA 061935Z AUTO 23012KT 10SM -RA FEW039 FEW050 SCT110 31/23 A2996 0 65 1800 230/12 RMK AO2 RAB10 P0000 T03060233
53915KARA ARA20160806134013908/06/16 13:40:31  5-MIN KARA 061940Z AUTO 22010KT 10SM -RA FEW039 FEW050 SCT100 31/23 A2996 0 65 1800 220/10 RMK AO2 RAB10 P0000 T03060233
53915KARA ARA20160806134513208/06/16 13:45:31  5-MIN KARA 061945Z AUTO 22011KT 10SM -RA FEW039 FEW110 31/24 A2996 0 67 1800 220/11 RMK AO2 RAB10 P0000 T03060239
53915KARA ARA20160806135013208/06/16 13:50:31  5-MIN KARA 061950Z AUTO 22009KT 10SM -RA FEW110 30/24 A2996 0 69 1800 220/09 RMK AO2 RAB10 SLP144 P0000 T03000239
53915KARA ARA20160806135511608/06/16 13:55:31  5-MIN KARA 061955Z AUTO 23008KT 10SM -RA CLR 30/24 A2995 0 69 1800 230/08 RMK AO2 P0000 T03000239
53915KARA ARA20160806140011608/06/16 14:00:31  5-MIN KARA 062000Z AUTO 25008KT 10SM -RA CLR 30/24 A2995 0 69 1800 250/08 RMK AO2 P0000 T03000239
53915KARA ARA20160806140511608/06/16 14:05:31  5-MIN KARA 062005Z AUTO 24008KT 10SM -RA CLR 30/24 A2995 0 69 1800 240/08 RMK AO2 P0000 T03000239
53915KARA ARA20160806141011808/06/16 14:10:31  5-MIN KARA 062010Z AUTO 23006KT 10SM CLR 30/24 A2995 0 72 1800 230/06 RMK AO2 RAE06 P0000 T03000244
53915KARA ARA20160806141511808/06/16 14:15:31  5-MIN KARA 062015Z AUTO 23006KT 10SM CLR 30/24 A2995 0 72 1800 230/06 RMK AO2 RAE06 P0000 T03000244
53915KARA ARA20160806142011808/06/16 14:20:31  5-MIN KARA 062020Z AUTO 25006KT 10SM CLR 30/24 A2994 0 72 1800 250/06 RMK AO2 RAE06 P0000 T03000244
53915KARA ARA20160806142511908/06/16 14:25:31  5-MIN KARA 062025Z AUTO 26004KT 10SM CLR 30/24 A2994 10 72 1800 260/04 RMK AO2 RAE06 P0000 T03000244
53915KARA ARA20160806143011908/06/16 14:30:31  5-MIN KARA 062030Z AUTO 25005KT 10SM CLR 30/25 A2994 10 74 1800 250/05 RMK AO2 RAE06 P0000 T03000250
53915KARA ARA20160806143511908/06/16 14:35:31  5-MIN KARA 062035Z AUTO 24005KT 10SM CLR 31/25 A2994 10 72 1800 240/05 RMK AO2 RAE06 P0000 T03060250
53915KARA ARA20160806144011908/06/16 14:40:31  5-MIN KARA 062040Z AUTO 25004KT 10SM CLR 31/25 A2994 10 72 1800 250/04 RMK AO2 RAE06 P0000 T03060250
53915KARA ARA20160806144511908/06/16 14:45:31  5-MIN KARA 062045Z AUTO 26006KT 10SM CLR 31/25 A2994 10 69 1900 260/06 RMK AO2 RAE06 P0000 T03110250
53915KARA ARA20160806145013808/06/16 14:50:31  5-MIN KARA 062050Z AUTO 25006KT 10SM CLR 31/25 A2994 10 69 1900 250/06 RMK AO2 RAE06 SLP136 P0000 60000 T03110250 58005
53915KARA ARA20160806145510708/06/16 14:55:31  5-MIN KARA 062055Z AUTO 24007KT 10SM CLR 31/25 A2993 10 69 1900 240/07 RMK AO2 T03110250
53915KARA ARA20160806150010708/06/16 15:00:31  5-MIN KARA 062100Z AUTO 25006KT 10SM CLR 32/25 A2993 20 67 2000 250/06 RMK AO2 T03170250
53915KARA ARA20160806150510708/06/16 15:05:31  5-MIN KARA 062105Z AUTO 26007KT 10SM CLR 32/25 A2992 20 67 2000 260/07 RMK AO2 T03170250
53915KARA ARA20160806151010708/06/16 15:10:31  5-MIN KARA 062110Z AUTO 26005KT 10SM CLR 32/25 A2992 20 67 2000 260/05 RMK AO2 T03170250
53915KARA ARA20160806151510708/06/16 15:15:31  5-MIN KARA 062115Z AUTO 25007KT 10SM CLR 32/26 A2992 30 67 2000 250/07 RMK AO2 T03220256
53915KARA ARA20160806152010708/06/16 15:20:31  5-MIN KARA 062120Z AUTO 25007KT 10SM CLR 33/26 A2992 30 65 2100 250/07 RMK AO2 T03280256
53915KARA ARA20160806152510708/06/16 15:25:31  5-MIN KARA 062125Z AUTO 25006KT 10SM CLR 33/26 A2992 30 65 2100 250/06 RMK AO2 T03280256
53915KARA ARA20160806153010708/06/16 15:30:31  5-MIN KARA 062130Z AUTO 25007KT 10SM CLR 33/25 A2992 30 63 2100 250/07 RMK AO2 T03280250
53915KARA ARA20160806153510208/06/16 15:35:31  5-MIN KARA 062135Z 24008KT 10SM CLR 33/25 A2992 30 63 2100 240/08 RMK AO2 T03280250
53915KARA ARA20160806154010208/06/16 15:40:31  5-MIN KARA 062140Z 25009KT 10SM CLR 33/25 A2991 30 61 2200 250/09 RMK AO2 T03330250
53915KARA ARA20160806154511408/06/16 15:45:31  5-MIN KARA 062145Z 26008KT 10SM CLR 33/24 A2991 30 59 2200 250/08 RMK AO2 LTG DSNT SW T03330244
53915KARA ARA20160806155012108/06/16 15:50:31  5-MIN KARA 062150Z 26007KT 10SM CLR 33/24 A2991 30 59 2200 260/07 RMK AO2 LTG DSNT SW SLP128 T03330244
53915KARA ARA20160806155511408/06/16 15:55:31  5-MIN KARA 062155Z 26005KT 10SM CLR 33/24 A2991 30 59 2200 260/05 RMK AO2 LTG DSNT SW T03330244
53915KARA ARA20160806160010208/06/16 16:00:31  5-MIN KARA 062200Z 28006KT 10SM CLR 33/25 A2991 30 61 2200 270/06 RMK AO2 T03330250
53915KARA ARA20160806160510208/06/16 16:05:31  5-MIN KARA 062205Z 25006KT 10SM CLR 33/24 A2991 30 59 2200 250/06 RMK AO2 T03330244
53915KARA ARA20160806161010208/06/16 16:10:31  5-MIN KARA 062210Z 25005KT 10SM CLR 33/24 A2991 30 57 2200 250/05 RMK AO2 T03330239
53915KARA ARA20160806161510208/06/16 16:15:31  5-MIN KARA 062215Z 25007KT 10SM CLR 33/24 A2991 30 59 2200 250/07 RMK AO2 T03330244
53915KARA ARA20160806162010208/06/16 16:20:31  5-MIN KARA 062220Z 26007KT 10SM CLR 33/24 A2991 30 57 2200 260/07 RMK AO2 T03330239
53915KARA ARA20160806162510208/06/16 16:25:31  5-MIN KARA 062225Z 25005KT 10SM CLR 33/24 A2991 30 57 2200 250/05 RMK AO2 T03330239
53915KARA ARA20160806163010208/06/16 16:30:31  5-MIN KARA 062230Z 26004KT 10SM CLR 33/24 A2991 40 57 2200 260/04 RMK AO2 T03330239
53915KARA ARA20160806163510208/06/16 16:35:31  5-MIN KARA 062235Z 26005KT 10SM CLR 33/24 A2991 30 57 2200 260/05 RMK AO2 T03330239
53915KARA ARA20160806164010508/06/16 16:40:31  5-MIN KARA 062240Z 24005KT 10SM FEW040 34/24 A2991 30 55 2200 240/05 RMK AO2 T03390239
53915KARA ARA20160806164510508/06/16 16:45:31  5-MIN KARA 062245Z 26004KT 10SM FEW040 34/24 A2991 30 55 2200 260/04 RMK AO2 T03390239
53915KARA ARA20160806165011208/06/16 16:50:31  5-MIN KARA 062250Z 27004KT 10SM FEW041 34/23 A2991 30 53 2200 270/04 RMK AO2 SLP128 T03390233
53915KARA ARA20160806165510508/06/16 16:55:31  5-MIN KARA 062255Z 25004KT 10SM FEW041 34/24 A2991 40 55 2200 250/04 RMK AO2 T03390239
53915KARA ARA20160806170010508/06/16 17:00:31  5-MIN KARA 062300Z 25006KT 10SM FEW041 33/23 A2991 40 55 2200 250/06 RMK AO2 T03330233
53915KARA ARA20160806170510508/06/16 17:05:31  5-MIN KARA 062305Z 25004KT 10SM FEW041 33/23 A2991 40 55 2200 240/04 RMK AO2 T03330233
53915KARA ARA20160806171010208/06/16 17:10:31  5-MIN KARA 062310Z 25004KT 10SM CLR 33/24 A2991 30 57 2200 240/04 RMK AO2 T03330239
53915KARA ARA20160806171510208/06/16 17:15:31  5-MIN KARA 062315Z 24004KT 10SM CLR 33/24 A2991 30 57 2200 240/04 RMK AO2 T03330239
53915KARA ARA20160806172010208/06/16 17:20:31  5-MIN KARA 062320Z 26004KT 10SM CLR 33/24 A2991 30 57 2200 260/04 RMK AO2 T03330239
53915KARA ARA20160806172511408/06/16 17:25:31  5-MIN KARA 062325Z 27004KT 10SM CLR 33/24 A2991 30 57 2200 270/04 RMK AO2 LTG DSNT NW T03330239
53915KARA ARA20160806173011408/06/16 17:30:31  5-MIN KARA 062330Z 26003KT 10SM CLR 33/24 A2992 30 57 2200 260/03 RMK AO2 LTG DSNT NW T03330239
53915KARA ARA20160806173511408/06/16 17:35:31  5-MIN KARA 062335Z 29004KT 10SM CLR 33/24 A2992 30 59 2200 290/04 RMK AO2 LTG DSNT NW T03330244
53915KARA ARA20160806174010208/06/16 17:40:31  5-MIN KARA 062340Z 28004KT 10SM CLR 33/24 A2992 20 59 2200 280/04 RMK AO2 T03330244
53915KARA ARA20160806174510208/06/16 17:45:31  5-MIN KARA 062345Z 28004KT 10SM CLR 33/24 A2992 20 61 2100 280/04 RMK AO2 T03280244
53915KARA ARA20160806175013308/06/16 17:50:31  5-MIN KARA 062350Z 27003KT 10SM CLR 33/24 A2992 20 61 2100 270/03 RMK AO2 SLP132 60000 T03280244 10339 20300 58018
53915KARA ARA20160806175510208/06/16 17:55:31  5-MIN KARA 062355Z 24004KT 10SM CLR 33/25 A2992 20 63 2100 240/04 RMK AO2 T03280250
53915KARA ARA20160806180010208/06/16 18:00:31  5-MIN KARA 070000Z 23003KT 10SM CLR 32/26 A2992 20 67 2000 230/03 RMK AO2 T03220256
53915KARA ARA20160806180510208/06/16 18:05:31  5-MIN KARA 070005Z 23003KT 10SM CLR 32/26 A2992 20 67 2000 230/03 RMK AO2 T03220256
53915KARA ARA20160806181010208/06/16 18:10:31  5-MIN KARA 070010Z 23004KT 10SM CLR 32/25 A2992 20 65 2000 230/04 RMK AO2 T03220250
53915KARA ARA20160806181510208/06/16 18:15:31  5-MIN KARA 070015Z 23004KT 10SM CLR 32/25 A2992 20 67 2000 230/04 RMK AO2 T03170250
53915KARA ARA20160806182010208/06/16 18:20:31  5-MIN KARA 070020Z 23004KT 10SM CLR 32/26 A2992 20 69 2000 230/04 RMK AO2 T03170256
53915KARA ARA20160806182510208/06/16 18:25:31  5-MIN KARA 070025Z 23004KT 10SM CLR 31/26 A2992 20 72 1900 230/04 RMK AO2 T03110256
53915KARA ARA20160806183010208/06/16 18:30:31  5-MIN KARA 070030Z 24004KT 10SM CLR 31/26 A2992 20 72 1900 240/04 RMK AO2 T03110256
53915KARA ARA20160806183510208/06/16 18:35:31  5-MIN KARA 070035Z 25004KT 10SM CLR 31/26 A2992 20 72 1900 250/04 RMK AO2 T03110256
53915KARA ARA20160806184010208/06/16 18:40:31  5-MIN KARA 070040Z 25005KT 10SM CLR 31/26 A2993 20 74 1800 250/05 RMK AO2 T03060256
53915KARA ARA20160806184510208/06/16 18:45:31  5-MIN KARA 070045Z 25005KT 10SM CLR 31/25 A2993 20 72 1800 240/05 RMK AO2 T03060250
53915KARA ARA20160806185012108/06/16 18:50:31  5-MIN KARA 070050Z 24005KT 10SM CLR 31/25 A2992 20 72 1900 240/05 RMK AO2 LTG DSNT NW SLP133 T03060250
53915KARA ARA20160806185511408/06/16 18:55:31  5-MIN KARA 070055Z 25004KT 10SM CLR 30/25 A2993 20 74 1800 250/04 RMK AO2 LTG DSNT NW T03000250
53915KARA ARA20160806190011408/06/16 19:00:31  5-MIN KARA 070100Z 24005KT 10SM CLR 30/25 A2993 20 74 1800 240/05 RMK AO2 LTG DSNT NW T03000250
53915KARA ARA20160806190511408/06/16 19:05:31  5-MIN KARA 070105Z 23003KT 10SM CLR 29/25 A2993 20 76 1700 230/03 RMK AO2 LTG DSNT NW T02940250
53915KARA ARA20160806191011408/06/16 19:10:31  5-MIN KARA 070110Z 22004KT 10SM CLR 29/25 A2993 20 76 1700 220/04 RMK AO2 LTG DSNT NW T02940250
53915KARA ARA20160806191511408/06/16 19:15:31  5-MIN KARA 070115Z 22004KT 10SM CLR 29/25 A2993 20 76 1700 220/04 RMK AO2 LTG DSNT NW T02940250
53915KARA ARA20160806192012008/06/16 19:20:31  5-MIN KARA 070120Z 23005KT 10SM CLR 29/25 A2993 10 76 1700 230/05 RMK AO2 LTG DSNT N AND NW T02940250
53915KARA ARA20160806192512008/06/16 19:25:31  5-MIN KARA 070125Z 24005KT 10SM CLR 29/25 A2994 10 76 1700 240/05 RMK AO2 LTG DSNT N AND NW T02940250
53915KARA ARA20160806193012008/06/16 19:30:31  5-MIN KARA 070130Z 23005KT 10SM CLR 29/25 A2994 10 79 1600 230/05 RMK AO2 LTG DSNT N AND NW T02890250
53915KARA ARA20160806193512008/06/16 19:35:31  5-MIN KARA 070135Z 22004KT 10SM CLR 29/25 A2994 10 79 1600 220/04 RMK AO2 LTG DSNT N AND NW T02890250
53915KARA ARA20160806194012008/06/16 19:40:31  5-MIN KARA 070140Z 22004KT 10SM CLR 29/25 A2994 10 79 1600 220/04 RMK AO2 LTG DSNT N AND NW T02890250
53915KARA ARA20160806194512008/06/16 19:45:31  5-MIN KARA 070145Z 22005KT 10SM CLR 29/25 A2994 10 79 1700 220/05 RMK AO2 LTG DSNT N AND NW T02890250
53915KARA ARA20160806195012108/06/16 19:50:31  5-MIN KARA 070150Z 22005KT 10SM CLR 29/25 A2993 10 79 1700 220/05 RMK AO2 LTG DSNT NW SLP136 T02890250
53915KARA ARA20160806195510208/06/16 19:55:31  5-MIN KARA 070155Z 23005KT 10SM CLR 29/25 A2994 10 79 1600 230/05 RMK AO2 T02890250
53915KARA ARA20160806200010708/06/16 20:00:31  5-MIN KARA 070200Z AUTO 23004KT 10SM CLR 28/25 A2994 10 82 1600 230/04 RMK AO2 T02830250
53915KARA ARA20160806200510608/06/16 20:05:31  5-MIN KARA 070205Z AUTO 22004KT 10SM CLR 28/25 A2994 0 82 1600 220/04 RMK AO2 T02830250
53915KARA ARA20160806201011808/06/16 20:10:31  5-MIN KARA 070210Z AUTO 22003KT 10SM CLR 28/25 A2995 0 82 1600 220/03 RMK AO2 LTG DSNT NE T02830250
53915KARA ARA20160806201512108/06/16 20:15:31  5-MIN KARA 070215Z AUTO 21003KT 10SM FEW046 28/25 A2995 0 82 1600 210/03 RMK AO2 LTG DSNT NE T02830250
53915KARA ARA20160806202012108/06/16 20:20:31  5-MIN KARA 070220Z AUTO 00000KT 10SM FEW046 28/25 A2995 0 82 1600 000/00 RMK AO2 LTG DSNT NE T02830250
53915KARA ARA20160806202512108/06/16 20:25:31  5-MIN KARA 070225Z AUTO 00000KT 10SM FEW045 28/25 A2996 0 82 1600 000/00 RMK AO2 LTG DSNT NE T02830250
53915KARA ARA20160806203012108/06/16 20:30:31  5-MIN KARA 070230Z AUTO 00000KT 10SM FEW045 28/26 A2996 0 85 1600 000/00 RMK AO2 LTG DSNT NE T02830256
53915KARA ARA20160806203512108/06/16 20:35:31  5-MIN KARA 070235Z AUTO 00000KT 10SM FEW045 28/25 A2995 0 82 1600 000/00 RMK AO2 LTG DSNT NE T02830250
53915KARA ARA20160806204012108/06/16 20:40:31  5-MIN KARA 070240Z AUTO 00000KT 10SM FEW045 28/25 A2995 0 84 1500 000/00 RMK AO2 LTG DSNT NE T02780250
53915KARA ARA20160806204511808/06/16 20:45:31  5-MIN KARA 070245Z AUTO 22003KT 10SM CLR 28/26 A2995 0 87 1500 220/03 RMK AO2 LTG DSNT NE T02780256
53915KARA ARA20160806205013108/06/16 20:50:31  5-MIN KARA 070250Z AUTO 22004KT 10SM CLR 28/26 A2995 0 87 1500 220/04 RMK AO2 LTG DSNT NE SLP141 T02780256 55004
53915KARA ARA20160806205511808/06/16 20:55:31  5-MIN KARA 070255Z AUTO 23003KT 10SM CLR 28/26 A2995 0 87 1500 230/03 RMK AO2 LTG DSNT NE T02780256
53915KARA ARA20160806210012608/06/16 21:00:31  5-MIN KARA 070300Z AUTO 00000KT 10SM CLR 28/26 A2996 -10 87 1500 000/00 RMK AO2 LTG DSNT NE AND E T02780256
53915KARA ARA20160806210512608/06/16 21:05:31  5-MIN KARA 070305Z AUTO 34003KT 10SM CLR 28/26 A2997 -10 87 1500 340/03 RMK AO2 LTG DSNT NE AND E T02780256
53915KARA ARA20160806211012608/06/16 21:10:31  5-MIN KARA 070310Z AUTO 01004KT 10SM CLR 28/26 A2997 -20 87 1500 360/04 RMK AO2 LTG DSNT NE AND E T02780256
53915KARA ARA20160806211512908/06/16 21:15:31  5-MIN KARA 070315Z AUTO 34004KT 10SM FEW045 28/26 A2998 -20 87 1500 340/04 RMK AO2 LTG DSNT NE AND E T02780256
53915KARA ARA20160806212012908/06/16 21:20:31  5-MIN KARA 070320Z AUTO 00000KT 10SM SCT045 28/26 A2997 -20 87 1500 000/00 RMK AO2 LTG DSNT NE AND E T02780256
53915KARA ARA20160806212512908/06/16 21:25:31  5-MIN KARA 070325Z AUTO 00000KT 10SM FEW046 28/26 A2998 -20 87 1500 000/00 RMK AO2 LTG DSNT NE AND E T02780256
53915KARA ARA20160806213012908/06/16 21:30:31  5-MIN KARA 070330Z AUTO 04005KT 10SM FEW046 28/26 A2998 -30 87 1500 040/05 RMK AO2 LTG DSNT NE AND E T02780256
53915KARA ARA20160806213512908/06/16 21:35:31  5-MIN KARA 070335Z AUTO 03003KT 10SM SCT046 28/26 A2998 -30 85 1500 030/03 RMK AO2 LTG DSNT NE AND E T02830256
53915KARA ARA20160806214012908/06/16 21:40:31  5-MIN KARA 070340Z AUTO 02005KT 10SM BKN046 28/26 A2999 -30 85 1500 020/05 RMK AO2 LTG DSNT NE AND E T02830256
53915KARA ARA20160806214512908/06/16 21:45:31  5-MIN KARA 070345Z AUTO 01004KT 10SM BKN045 28/25 A2999 -30 82 1500 010/04 RMK AO2 LTG DSNT NE AND E T02830250
53915KARA ARA20160806215013608/06/16 21:50:31  5-MIN KARA 070350Z AUTO 01004KT 10SM BKN045 28/24 A2999 -40 79 1500 010/04 RMK AO2 LTG DSNT NE AND E SLP156 T02830244
53915KARA ARA20160806215512208/06/16 21:55:31  5-MIN KARA 070355Z AUTO 03004KT 10SM BKN045 28/24 A2999 -30 79 1500 020/04 RMK AO2 LTG DSNT E T02830244
53915KARA ARA20160806220012208/06/16 22:00:31  5-MIN KARA 070400Z AUTO 00000KT 10SM BKN046 28/24 A2999 -30 76 1500 000/00 RMK AO2 LTG DSNT E T02830239
53915KARA ARA20160806220512208/06/16 22:05:31  5-MIN KARA 070405Z AUTO 00000KT 10SM BKN046 28/24 A2998 -30 76 1500 000/00 RMK AO2 LTG DSNT E T02830239
53915KARA ARA20160806221011108/06/16 22:10:31  5-MIN KARA 070410Z AUTO 08005KT 10SM SCT047 28/24 A2999 -30 76 1500 080/05 RMK AO2 T02830239
53915KARA ARA20160806221511808/06/16 22:15:31  5-MIN KARA 070415Z AUTO 09005KT 10SM FEW034 SCT049 28/24 A2999 -30 79 1500 090/05 RMK AO2 T02780239
53915KARA ARA20160806222011808/06/16 22:20:31  5-MIN KARA 070420Z AUTO 11009KT 10SM FEW034 BKN049 28/24 A2998 -30 82 1500 110/09 RMK AO2 T02780244
53915KARA ARA20160806222511808/06/16 22:25:31  5-MIN KARA 070425Z AUTO 13010KT 10SM FEW034 SCT049 28/24 A2998 -30 82 1500 130/10 RMK AO2 T02780244
53915KARA ARA20160806223011108/06/16 22:30:31  5-MIN KARA 070430Z AUTO 13009KT 10SM FEW034 27/23 A2998 -30 79 1400 120/09 RMK AO2 T02720233
53915KARA ARA20160806223511108/06/16 22:35:31  5-MIN KARA 070435Z AUTO 15006KT 10SM FEW034 27/23 A2998 -20 79 1400 150/06 RMK AO2 T02720233
53915KARA ARA20160806224011108/06/16 22:40:31  5-MIN KARA 070440Z AUTO 16004KT 10SM FEW034 27/23 A2998 -20 79 1400 160/04 RMK AO2 T02720233
53915KARA ARA20160806224512008/06/16 22:45:31  5-MIN KARA 070445Z AUTO 14007KT 10SM CLR 27/23 A2998 -20 82 1400 140/07 RMK AO2 LTG DSNT SE T02670233
53915KARA ARA20160806225012708/06/16 22:50:31  5-MIN KARA 070450Z AUTO 15007KT 10SM CLR 27/23 A2997 -20 79 1400 150/07 RMK AO2 LTG DSNT SE SLP149 T02670228
53915KARA ARA20160806225512008/06/16 22:55:31  5-MIN KARA 070455Z AUTO 15006KT 10SM CLR 27/23 A2997 -10 79 1400 150/06 RMK AO2 LTG DSNT SE T02670228
53915KARA ARA20160806230012008/06/16 23:00:31  5-MIN KARA 070500Z AUTO 16005KT 10SM CLR 27/23 A2997 -10 79 1400 160/05 RMK AO2 LTG DSNT SE T02670228
53915KARA ARA20160806230510808/06/16 23:05:31  5-MIN KARA 070505Z AUTO 16005KT 10SM CLR 27/23 A2997 -10 79 1400 160/05 RMK AO2 T02670228
53915KARA ARA20160806231010808/06/16 23:10:31  5-MIN KARA 070510Z AUTO 17005KT 10SM CLR 27/23 A2996 -10 79 1400 170/05 RMK AO2 T02670228
53915KARA ARA20160806231510808/06/16 23:15:31  5-MIN KARA 070515Z AUTO 18005KT 10SM CLR 26/23 A2996 -10 81 1300 180/05 RMK AO2 T02610228
53915KARA ARA20160806232010808/06/16 23:20:31  5-MIN KARA 070520Z AUTO 15007KT 10SM CLR 26/23 A2996 -10 84 1300 150/07 RMK AO2 T02610233
53915KARA ARA20160806232510808/06/16 23:25:31  5-MIN KARA 070525Z AUTO 14007KT 10SM CLR 26/23 A2996 -10 84 1300 140/07 RMK AO2 T02610233
53915KARA ARA20160806233010808/06/16 23:30:31  5-MIN KARA 070530Z AUTO 15007KT 10SM CLR 26/23 A2996 -10 84 1300 150/07 RMK AO2 T02610233
53915KARA ARA20160806233510808/06/16 23:35:31  5-MIN KARA 070535Z AUTO 13009KT 10SM CLR 26/23 A2996 -10 84 1300 130/09 RMK AO2 T02610233
53915KARA ARA20160806234010608/06/16 23:40:31  5-MIN KARA 070540Z AUTO 14011KT 10SM CLR 26/23 A2995 0 87 1300 140/11 RMK AO2 T02560233
53915KARA ARA20160806234510608/06/16 23:45:31  5-MIN KARA 070545Z AUTO 13011KT 10SM CLR 26/23 A2995 0 87 1300 130/11 RMK AO2 T02560233
53915KARA ARA20160806235014108/06/16 23:50:31  5-MIN KARA 070550Z AUTO 14011KT 10SM CLR 25/23 A2995 0 87 1200 140/11 RMK AO2 SLP141 T02500228 10328 20250 403390239 53009
53915KARA ARA20160806235510608/06/16 23:55:31  5-MIN KARA 070555Z AUTO 14008KT 10SM CLR 25/22 A2995 0 84 1200 140/08 RMK AO2 T02500222
53915KARA ARA20160807000010708/07/16 00:00:31  5-MIN KARA 070600Z AUTO 14007KT 10SM CLR 25/22 A2994 10 84 1200 140/07 RMK AO2 T02500222
53915KARA ARA20160807000510708/07/16 00:05:31  5-MIN KARA 070605Z AUTO 15007KT 10SM CLR 24/22 A2993 10 87 1200 150/07 RMK AO2 T02440222
53915KARA ARA20160807001010708/07/16 00:10:31  5-MIN KARA 070610Z AUTO 15006KT 10SM CLR 24/22 A2993 20 84 1200 150/06 RMK AO2 T02440217
53915KARA ARA20160807001510708/07/16 00:15:31  5-MIN KARA 070615Z AUTO 16006KT 10SM CLR 24/22 A2993 20 84 1200 160/06 RMK AO2 T02440217
53915KARA ARA20160807002010708/07/16 00:20:31  5-MIN KARA 070620Z AUTO 16004KT 10SM CLR 24/22 A2993 20 84 1200 160/04 RMK AO2 T02440217
53915KARA ARA20160807002510708/07/16 00:25:31  5-MIN KARA 070625Z AUTO 19003KT 10SM CLR 24/22 A2993 20 87 1200 190/03 RMK AO2 T02440222
53915KARA ARA20160807003010708/07/16 00:30:31  5-MIN KARA 070630Z AUTO 22003KT 10SM CLR 24/22 A2993 20 87 1200 220/03 RMK AO2 T02440222
53915KARA ARA20160807003510708/07/16 00:35:31  5-MIN KARA 070635Z AUTO 22003KT 10SM CLR 24/22 A2992 30 87 1200 220/03 RMK AO2 T02440222
53915KARA ARA20160807004010708/07/16 00:40:31  5-MIN KARA 070640Z AUTO 20003KT 10SM CLR 24/22 A2992 30 87 1200 190/03 RMK AO2 T02440222
53915KARA ARA20160807004510708/07/16 00:45:31  5-MIN KARA 070645Z AUTO 00000KT 10SM CLR 24/22 A2992 20 87 1200 000/00 RMK AO2 T02440222
53915KARA ARA20160807005011408/07/16 00:50:31  5-MIN KARA 070650Z AUTO 00000KT 10SM CLR 24/22 A2992 20 87 1200 000/00 RMK AO2 SLP132 T02440222
53915KARA ARA20160807005510708/07/16 00:55:31  5-MIN KARA 070655Z AUTO 19003KT 10SM CLR 24/22 A2992 20 84 1200 190/03 RMK AO2 T02440217
53915KARA ARA20160807010010708/07/16 01:00:31  5-MIN KARA 070700Z AUTO 00000KT 10SM CLR 24/22 A2993 20 87 1200 000/00 RMK AO2 T02440222
53915KARA ARA20160807010510708/07/16 01:05:31  5-MIN KARA 070705Z AUTO 00000KT 10SM CLR 24/22 A2993 20 87 1200 000/00 RMK AO2 T02440222
53915KARA ARA20160807011010708/07/16 01:10:31  5-MIN KARA 070710Z AUTO 00000KT 10SM CLR 24/22 A2993 10 87 1200 000/00 RMK AO2 T02440222
53915KARA ARA20160807011510708/07/16 01:15:31  5-MIN KARA 070715Z AUTO 00000KT 10SM CLR 24/22 A2993 10 87 1200 000/00 RMK AO2 T02440222
53915KARA ARA20160807012010708/07/16 01:20:31  5-MIN KARA 070720Z AUTO 00000KT 10SM CLR 24/22 A2993 20 87 1200 000/00 RMK AO2 T02440222
53915KARA ARA20160807012510708/07/16 01:25:31  5-MIN KARA 070725Z AUTO 29003KT 10SM CLR 24/23 A2993 20 90 1200 290/03 RMK AO2 T02440228
53915KARA ARA20160807013010708/07/16 01:30:31  5-MIN KARA 070730Z AUTO 28003KT 10SM CLR 24/23 A2993 20 90 1200 280/03 RMK AO2 T02440228
53915KARA ARA20160807013510708/07/16 01:35:31  5-MIN KARA 070735Z AUTO 00000KT 10SM CLR 24/23 A2993 20 90 1200 000/00 RMK AO2 T02440228
53915KARA ARA20160807014010708/07/16 01:40:31  5-MIN KARA 070740Z AUTO 00000KT 10SM CLR 24/23 A2993 20 90 1200 000/00 RMK AO2 T02440228
53915KARA ARA20160807014510708/07/16 01:45:31  5-MIN KARA 070745Z AUTO 00000KT 10SM CLR 24/22 A2993 20 87 1200 000/00 RMK AO2 T02440222
53915KARA ARA20160807015011408/07/16 01:50:31  5-MIN KARA 070750Z AUTO 19003KT 10SM CLR 24/23 A2993 20 93 1100 190/03 RMK AO2 SLP134 T02390228
53915KARA ARA20160807015510708/07/16 01:55:31  5-MIN KARA 070755Z AUTO 00000KT 10SM CLR 24/23 A2993 20 93 1100 000/00 RMK AO2 T02390228
53915KARA ARA20160807020010708/07/16 02:00:31  5-MIN KARA 070800Z AUTO 00000KT 10SM CLR 24/22 A2993 20 90 1100 000/00 RMK AO2 T02390222
53915KARA ARA20160807020510708/07/16 02:05:31  5-MIN KARA 070805Z AUTO 00000KT 10SM CLR 24/22 A2993 20 90 1100 000/00 RMK AO2 T02390222
53915KARA ARA20160807021010708/07/16 02:10:31  5-MIN KARA 070810Z AUTO 00000KT 10SM CLR 24/22 A2993 10 87 1200 000/00 RMK AO2 T02440222
53915KARA ARA20160807021510708/07/16 02:15:31  5-MIN KARA 070815Z AUTO 00000KT 10SM CLR 24/22 A2994 10 87 1200 000/00 RMK AO2 T02440222
53915KARA ARA20160807022011008/07/16 02:20:31  5-MIN KARA 070820Z AUTO 00000KT 10SM FEW032 24/23 A2994 10 90 1100 000/00 RMK AO2 T02440228
53915KARA ARA20160807022511008/07/16 02:25:31  5-MIN KARA 070825Z AUTO 00000KT 10SM FEW032 24/22 A2994 10 87 1100 000/00 RMK AO2 T02440222
53915KARA ARA20160807023011008/07/16 02:30:31  5-MIN KARA 070830Z AUTO 00000KT 10SM FEW032 25/23 A2994 10 87 1200 000/00 RMK AO2 T02500228
53915KARA ARA20160807023511008/07/16 02:35:31  5-MIN KARA 070835Z AUTO 00000KT 10SM FEW032 25/23 A2994 10 87 1200 000/00 RMK AO2 T02500228
53915KARA ARA20160807024011008/07/16 02:40:31  5-MIN KARA 070840Z AUTO 00000KT 10SM SCT032 25/23 A2994 10 87 1200 000/00 RMK AO2 T02500228
53915KARA ARA20160807024511008/07/16 02:45:31  5-MIN KARA 070845Z AUTO 00000KT 10SM BKN032 25/23 A2994 10 87 1200 000/00 RMK AO2 T02500228
53915KARA ARA20160807025012308/07/16 02:50:31  5-MIN KARA 070850Z AUTO 00000KT 10SM BKN033 24/23 A2994 10 90 1100 000/00 RMK AO2 SLP138 T02440228 58001
53915KARA ARA20160807025511008/07/16 02:55:31  5-MIN KARA 070855Z AUTO 00000KT 10SM BKN033 25/23 A2994 10 87 1200 000/00 RMK AO2 T02500228
53915KARA ARA20160807030011008/07/16 03:00:31  5-MIN KARA 070900Z AUTO 00000KT 10SM BKN033 25/23 A2994 10 87 1200 000/00 RMK AO2 T02500228
53915KARA ARA20160807030511008/07/16 03:05:31  5-MIN KARA 070905Z AUTO 00000KT 10SM BKN033 25/23 A2994 10 87 1200 000/00 RMK AO2 T02500228
53915KARA ARA20160807031011008/07/16 03:10:31  5-MIN KARA 070910Z AUTO 00000KT 10SM BKN033 24/23 A2994 10 90 1100 000/00 RMK AO2 T02440228
53915KARA ARA20160807031511008/07/16 03:15:31  5-MIN KARA 070915Z AUTO 00000KT 10SM BKN033 24/23 A2994 10 90 1100 000/00 RMK AO2 T02440228
53915KARA ARA20160807032011008/07/16 03:20:31  5-MIN KARA 070920Z AUTO 00000KT 10SM SCT033 24/23 A2994 10 90 1100 000/00 RMK AO2 T02440228
53915KARA ARA20160807032511008/07/16 03:25:31  5-MIN KARA 070925Z AUTO 00000KT 10SM FEW033 25/23 A2994 10 87 1200 000/00 RMK AO2 T02500228
53915KARA ARA20160807033011008/07/16 03:30:31  5-MIN KARA 070930Z AUTO 00000KT 10SM FEW033 25/23 A2994 10 87 1200 000/00 RMK AO2 T02500228
53915KARA ARA20160807033510708/07/16 03:35:31  5-MIN KARA 070935Z AUTO 00000KT 10SM CLR 25/23 A2994 10 87 1200 000/00 RMK AO2 T02500228
53915KARA ARA20160807034010708/07/16 03:40:31  5-MIN KARA 070940Z AUTO 31003KT 10SM CLR 24/23 A2994 10 90 1100 310/03 RMK AO2 T02440228
53915KARA ARA20160807034510708/07/16 03:45:31  5-MIN KARA 070945Z AUTO 00000KT 10SM CLR 25/23 A2994 10 87 1200 000/00 RMK AO2 T02500228
53915KARA ARA20160807035011408/07/16 03:50:31  5-MIN KARA 070950Z AUTO 00000KT 10SM CLR 25/23 A2994 10 87 1200 000/00 RMK AO2 SLP137 T02500228
53915KARA ARA20160807035510708/07/16 03:55:31  5-MIN KARA 070955Z AUTO 00000KT 10SM CLR 25/23 A2994 10 87 1200 000/00 RMK AO2 T02500228
53915KARA ARA20160807040010708/07/16 04:00:31  5-MIN KARA 071000Z AUTO 00000KT 10SM CLR 25/23 A2994 10 90 1200 000/00 RMK AO2 T02500233
53915KARA ARA20160807040510708/07/16 04:05:31  5-MIN KARA 071005Z AUTO 00000KT 10SM CLR 24/23 A2994 10 93 1100 000/00 RMK AO2 T02440233
53915KARA ARA20160807041010708/07/16 04:10:31  5-MIN KARA 071010Z AUTO 00000KT 10SM CLR 24/23 A2994 10 93 1100 000/00 RMK AO2 T02440233
53915KARA ARA20160807041510708/07/16 04:15:31  5-MIN KARA 071015Z AUTO 00000KT 10SM CLR 24/23 A2994 10 90 1100 000/00 RMK AO2 T02440228
53915KARA ARA20160807042010708/07/16 04:20:31  5-MIN KARA 071020Z AUTO 00000KT 10SM CLR 24/23 A2994 10 90 1100 000/00 RMK AO2 T02440228
53915KARA ARA20160807042510708/07/16 04:25:31  5-MIN KARA 071025Z AUTO 00000KT 10SM CLR 24/23 A2994 10 90 1100 000/00 RMK AO2 T02440228
53915KARA ARA20160807043010608/07/16 04:30:31  5-MIN KARA 071030Z AUTO 00000KT 10SM CLR 24/23 A2994 0 93 1100 000/00 RMK AO2 T02440233
53915KARA ARA20160807043510608/07/16 04:35:31  5-MIN KARA 071035Z AUTO 00000KT 10SM CLR 24/23 A2994 0 93 1100 000/00 RMK AO2 T02440233
53915KARA ARA20160807044010608/07/16 04:40:31  5-MIN KARA 071040Z AUTO 00000KT 10SM CLR 24/23 A2995 0 93 1100 000/00 RMK AO2 T02440233
53915KARA ARA20160807044510108/07/16 04:45:31  5-MIN KARA 071045Z 00000KT 10SM CLR 24/23 A2995 0 93 1100 000/00 RMK AO2 T02440233
53915KARA ARA20160807045010808/07/16 04:50:31  5-MIN KARA 071050Z 00000KT 10SM CLR 24/23 A2995 0 93 1100 000/00 RMK AO2 SLP139 T02440233
53915KARA ARA20160807045510108/07/16 04:55:31  5-MIN KARA 071055Z 00000KT 10SM CLR 24/23 A2995 0 93 1100 000/00 RMK AO2 T02440233
53915KARA ARA20160807050010108/07/16 05:00:31  5-MIN KARA 071100Z 00000KT 10SM CLR 24/23 A2995 0 93 1100 000/00 RMK AO2 T02440233
53915KARA ARA20160807050510108/07/16 05:05:31  5-MIN KARA 071105Z 00000KT 10SM CLR 24/23 A2995 0 93 1100 000/00 RMK AO2 T02440233
53915KARA ARA20160807051010108/07/16 05:10:31  5-MIN KARA 071110Z 00000KT 10SM CLR 24/23 A2995 0 93 1100 000/00 RMK AO2 T02440233
53915KARA ARA20160807051510108/07/16 05:15:31  5-MIN KARA 071115Z 00000KT 10SM CLR 24/23 A2995 0 93 1100 000/00 RMK AO2 T02440233
53915KARA ARA20160807052010108/07/16 05:20:31  5-MIN KARA 071120Z 00000KT 10SM CLR 24/23 A2995 0 93 1100 000/00 RMK AO2 T02440233
53915KARA ARA20160807052510108/07/16 05:25:31  5-MIN KARA 071125Z 00000KT 10SM CLR 24/23 A2995 0 93 1100 000/00 RMK AO2 T02440233
53915KARA ARA20160807053010108/07/16 05:30:31  5-MIN KARA 071130Z 00000KT 10SM CLR 24/23 A2995 0 93 1100 000/00 RMK AO2 T02440233
53915KARA ARA20160807053510108/07/16 05:35:31  5-MIN KARA 071135Z 00000KT 10SM CLR 24/23 A2995 0 93 1100 000/00 RMK AO2 T02440233
53915KARA ARA20160807054010108/07/16 05:40:31  5-MIN KARA 071140Z 00000KT 10SM CLR 24/23 A2995 0 93 1100 000/00 RMK AO2 T02440233
53915KARA ARA20160807054510108/07/16 05:45:31  5-MIN KARA 071145Z 00000KT 10SM CLR 24/23 A2995 0 93 1100 000/00 RMK AO2 T02440233
53915KARA ARA20160807055012608/07/16 05:50:31  5-MIN KARA 071150Z 00000KT 10SM CLR 24/23 A2995 0 93 1100 000/00 RMK AO2 SLP143 T02440233 10250 20239 55003
53915KARA ARA20160807055510108/07/16 05:55:31  5-MIN KARA 071155Z 00000KT 10SM CLR 24/23 A2996 0 93 1100 000/00 RMK AO2 T02440233
53915KARA ARA20160807060010108/07/16 06:00:31  5-MIN KARA 071200Z 00000KT 10SM CLR 24/23 A2995 0 93 1100 000/00 RMK AO2 T02440233
53915KARA ARA20160807060510108/07/16 06:05:31  5-MIN KARA 071205Z 00000KT 10SM CLR 24/23 A2996 0 93 1100 000/00 RMK AO2 T02440233
53915KARA ARA20160807061010108/07/16 06:10:31  5-MIN KARA 071210Z 20003KT 10SM CLR 24/23 A2996 0 93 1100 200/03 RMK AO2 T02440233
53915KARA ARA20160807061510108/07/16 06:15:31  5-MIN KARA 071215Z 00000KT 10SM CLR 25/24 A2996 0 93 1200 000/00 RMK AO2 T02500239
53915KARA ARA20160807062010108/07/16 06:20:31  5-MIN KARA 071220Z 00000KT 10SM CLR 25/24 A2996 0 93 1200 000/00 RMK AO2 T02500239
53915KARA ARA20160807062510108/07/16 06:25:31  5-MIN KARA 071225Z 00000KT 10SM CLR 26/24 A2996 0 90 1300 000/00 RMK AO2 T02560239
53915KARA ARA20160807063010108/07/16 06:30:31  5-MIN KARA 071230Z 00000KT 10SM CLR 26/24 A2996 0 93 1300 000/00 RMK AO2 T02560244
53915KARA ARA20160807063510308/07/16 06:35:31  5-MIN KARA 071235Z 00000KT 10SM CLR 26/24 A2996 -10 90 1300 000/00 RMK AO2 T02610244
53915KARA ARA20160807064010208/07/16 06:40:31  5-MIN KARA 071240Z 00000KT 9SM CLR 26/25 A2996 -10 93 1300 000/00 RMK AO2 T02610250
53915KARA ARA20160807064510208/07/16 06:45:31  5-MIN KARA 071245Z 00000KT 9SM CLR 27/25 A2996 -10 90 1400 000/00 RMK AO2 T02670250
53915KARA ARA20160807065011008/07/16 06:50:31  5-MIN KARA 071250Z 00000KT 10SM CLR 27/25 A2996 -10 90 1400 000/00 RMK AO2 SLP145 T02670250
53915KARA ARA20160807065510308/07/16 06:55:31  5-MIN KARA 071255Z 31003KT 10SM CLR 27/25 A2996 -10 87 1400 310/03 RMK AO2 T02720250
53915KARA ARA20160807070010308/07/16 07:00:31  5-MIN KARA 071300Z 29003KT 10SM CLR 27/25 A2996 -10 87 1400 290/03 RMK AO2 T02720250
53915KARA ARA20160807070510308/07/16 07:05:31  5-MIN KARA 071305Z 30004KT 10SM CLR 28/25 A2997 -10 84 1500 300/04 RMK AO2 T02780250
53915KARA ARA20160807071010308/07/16 07:10:31  5-MIN KARA 071310Z 31004KT 10SM CLR 28/25 A2997 -10 84 1500 310/04 RMK AO2 T02780250
53915KARA ARA20160807071510308/07/16 07:15:31  5-MIN KARA 071315Z 32003KT 10SM CLR 28/25 A2997 -10 82 1600 320/03 RMK AO2 T02830250
53915KARA ARA20160807072010308/07/16 07:20:31  5-MIN KARA 071320Z 34004KT 10SM CLR 28/25 A2997 -20 82 1500 340/04 RMK AO2 T02830250
53915KARA ARA20160807072510308/07/16 07:25:31  5-MIN KARA 071325Z 32005KT 10SM CLR 28/26 A2997 -20 85 1500 320/05 RMK AO2 T02830256
53915KARA ARA20160807073010308/07/16 07:30:31  5-MIN KARA 071330Z 31006KT 10SM CLR 29/26 A2997 -20 82 1600 310/06 RMK AO2 T02890256
53915KARA ARA20160807073510308/07/16 07:35:31  5-MIN KARA 071335Z 30005KT 10SM CLR 29/26 A2997 -20 82 1600 300/05 RMK AO2 T02890256
53915KARA ARA20160807074010308/07/16 07:40:31  5-MIN KARA 071340Z 30006KT 10SM CLR 29/26 A2997 -10 79 1700 300/06 RMK AO2 T02940256
53915KARA ARA20160807074510308/07/16 07:45:31  5-MIN KARA 071345Z 31006KT 10SM CLR 29/26 A2997 -10 79 1700 310/06 RMK AO2 T02940256
53915KARA ARA20160807075011008/07/16 07:50:31  5-MIN KARA 071350Z 30007KT 10SM CLR 29/26 A2997 -10 79 1700 300/07 RMK AO2 SLP147 T02940256
53915KARA ARA20160807075510308/07/16 07:55:31  5-MIN KARA 071355Z 31007KT 10SM CLR 29/26 A2997 -10 79 1700 310/07 RMK AO2 T02940256
53915KARA ARA20160807080010308/07/16 08:00:31  5-MIN KARA 071400Z 30006KT 10SM CLR 29/26 A2997 -10 79 1700 300/06 RMK AO2 T02940256
53915KARA ARA20160807080510308/07/16 08:05:31  5-MIN KARA 071405Z 29007KT 10SM CLR 29/26 A2997 -10 79 1700 290/07 RMK AO2 T02940256
53915KARA ARA20160807081010308/07/16 08:10:31  5-MIN KARA 071410Z 29008KT 10SM CLR 29/26 A2997 -10 82 1600 290/08 RMK AO2 T02890256
53915KARA ARA20160807081510308/07/16 08:15:31  5-MIN KARA 071415Z 29007KT 10SM CLR 29/26 A2997 -10 82 1600 290/07 RMK AO2 T02890256
53915KARA ARA20160807082010308/07/16 08:20:31  5-MIN KARA 071420Z 29007KT 10SM CLR 30/26 A2997 -10 77 1700 290/07 RMK AO2 T03000256
53915KARA ARA20160807082510308/07/16 08:25:31  5-MIN KARA 071425Z 30007KT 10SM CLR 30/26 A2997 -10 77 1700 300/07 RMK AO2 T03000256
53915KARA ARA20160807083010308/07/16 08:30:31  5-MIN KARA 071430Z 28009KT 10SM CLR 30/26 A2997 -20 77 1700 280/09 RMK AO2 T03000256
53915KARA ARA20160807083510308/07/16 08:35:31  5-MIN KARA 071435Z 29008KT 10SM CLR 31/26 A2997 -20 74 1800 280/08 RMK AO2 T03060256
53915KARA ARA20160807084010308/07/16 08:40:31  5-MIN KARA 071440Z 29007KT 10SM CLR 31/26 A2997 -20 74 1800 280/07 RMK AO2 T03060256
53915KARA ARA20160807084510308/07/16 08:45:31  5-MIN KARA 071445Z 30007KT 10SM CLR 31/26 A2997 -20 72 1900 300/07 RMK AO2 T03110256
53915KARA ARA20160807085011608/07/16 08:50:31  5-MIN KARA 071450Z 30009KT 10SM CLR 31/26 A2998 -20 72 1900 300/09 RMK AO2 SLP150 T03110256 53005
53915KARA ARA20160807085510308/07/16 08:55:31  5-MIN KARA 071455Z 30010KT 10SM CLR 31/25 A2998 -20 69 1900 300/10 RMK AO2 T03110250
53915KARA ARA20160807090010308/07/16 09:00:31  5-MIN KARA 071500Z 29008KT 10SM CLR 31/25 A2998 -20 69 1900 290/08 RMK AO2 T03110250
53915KARA ARA20160807090510308/07/16 09:05:31  5-MIN KARA 071505Z 30009KT 10SM CLR 31/25 A2998 -20 69 1900 300/09 RMK AO2 T03110250
53915KARA ARA20160807091010308/07/16 09:10:31  5-MIN KARA 071510Z 30009KT 10SM CLR 32/25 A2998 -20 67 1900 300/09 RMK AO2 T03170250
53915KARA ARA20160807091510308/07/16 09:15:31  5-MIN KARA 071515Z 31008KT 10SM CLR 32/25 A2998 -20 67 1900 310/08 RMK AO2 T03170250
53915KARA ARA20160807092010308/07/16 09:20:31  5-MIN KARA 071520Z 30008KT 10SM CLR 32/25 A2998 -20 67 1900 300/08 RMK AO2 T03170250
53915KARA ARA20160807092510308/07/16 09:25:31  5-MIN KARA 071525Z 29008KT 10SM CLR 32/25 A2998 -30 67 1900 290/08 RMK AO2 T03170250
53915KARA ARA20160807093010308/07/16 09:30:31  5-MIN KARA 071530Z 30009KT 10SM CLR 32/25 A2998 -30 67 1900 300/09 RMK AO2 T03170250
53915KARA ARA20160807093510308/07/16 09:35:31  5-MIN KARA 071535Z 32009KT 10SM CLR 32/24 A2999 -30 65 1900 320/09 RMK AO2 T03170244
53915KARA ARA20160807094010308/07/16 09:40:31  5-MIN KARA 071540Z 31007KT 10SM CLR 32/25 A2999 -30 65 2000 310/07 RMK AO2 T03220250
53915KARA ARA20160807094510308/07/16 09:45:31  5-MIN KARA 071545Z 30007KT 10SM CLR 32/24 A2999 -30 63 2000 300/07 RMK AO2 T03220244
53915KARA ARA20160807095011008/07/16 09:50:31  5-MIN KARA 071550Z 28008KT 10SM CLR 32/25 A2998 -30 65 2000 280/08 RMK AO2 SLP153 T03220250
53915KARA ARA20160807095510308/07/16 09:55:31  5-MIN KARA 071555Z 30006KT 10SM CLR 32/24 A2999 -30 63 2000 300/06 RMK AO2 T03220244
53915KARA ARA20160807100010308/07/16 10:00:31  5-MIN KARA 071600Z 32006KT 10SM CLR 32/25 A2998 -30 65 2000 320/06 RMK AO2 T03220250
53915KARA ARA20160807100510308/07/16 10:05:31  5-MIN KARA 071605Z 32006KT 10SM CLR 33/25 A2998 -30 63 2000 320/06 RMK AO2 T03280250
53915KARA ARA20160807101010608/07/16 10:10:31  5-MIN KARA 071610Z 33006KT 10SM FEW030 33/25 A2998 -30 63 2000 330/06 RMK AO2 T03280250
53915KARA ARA20160807101510608/07/16 10:15:31  5-MIN KARA 071615Z 33005KT 10SM FEW030 33/25 A2998 -30 63 2000 330/05 RMK AO2 T03280250
53915KARA ARA20160807102010608/07/16 10:20:31  5-MIN KARA 071620Z 30006KT 10SM FEW030 33/25 A2998 -30 63 2000 300/06 RMK AO2 T03280250
53915KARA ARA20160807102510608/07/16 10:25:31  5-MIN KARA 071625Z 29005KT 10SM FEW032 33/25 A2998 -20 63 2000 290/05 RMK AO2 T03280250
53915KARA ARA20160807103010608/07/16 10:30:31  5-MIN KARA 071630Z 32006KT 10SM SCT032 32/25 A2998 -20 65 2000 320/06 RMK AO2 T03220250
53915KARA ARA20160807103510608/07/16 10:35:31  5-MIN KARA 071635Z 31006KT 10SM SCT030 33/25 A2997 -20 61 2100 310/06 RMK AO2 T03330250
53915KARA ARA20160807104010608/07/16 10:40:31  5-MIN KARA 071640Z 29006KT 10SM SCT030 33/25 A2997 -20 63 2000 290/06 RMK AO2 T03280250
53915KARA ARA20160807104510608/07/16 10:45:31  5-MIN KARA 071645Z 32006KT 10SM SCT030 32/25 A2997 -20 65 2000 320/06 RMK AO2 T03220250
53915KARA ARA20160807105011308/07/16 10:50:31  5-MIN KARA 071650Z 30006KT 10SM SCT030 33/26 A2997 -20 63 2100 300/06 RMK AO2 SLP148 T03330256
53915KARA ARA20160807105510608/07/16 10:55:31  5-MIN KARA 071655Z 31008KT 10SM FEW032 33/25 A2997 -10 63 2000 300/08 RMK AO2 T03280250
53915KARA ARA20160807110010608/07/16 11:00:31  5-MIN KARA 071700Z 30006KT 10SM FEW030 33/25 A2997 -10 61 2100 300/06 RMK AO2 T03330250
53915KARA ARA20160807110510608/07/16 11:05:31  5-MIN KARA 071705Z 31006KT 10SM SCT030 33/25 A2997 -10 63 2000 310/06 RMK AO2 T03280250
53915KARA ARA20160807111011308/07/16 11:10:31  5-MIN KARA 071710Z 33005KT 10SM FEW032 SCT070 33/26 A2997 -10 65 2000 330/05 RMK AO2 T03280256
53915KARA ARA20160807111512008/07/16 11:15:31  5-MIN KARA 071715Z 33007KT 10SM FEW032 SCT045 BKN065 33/26 A2997 -10 63 2100 330/07 RMK AO2 T03330256
53915KARA ARA20160807112012008/07/16 11:20:31  5-MIN KARA 071720Z 35007KT 10SM FEW032 SCT050 BKN070 33/25 A2996 -10 61 2100 350/07 RMK AO2 T03330250
53915KARA ARA20160807112512008/07/16 11:25:31  5-MIN KARA 071725Z 34007KT 10SM FEW032 SCT070 BKN100 33/25 A2996 -10 63 2100 340/07 RMK AO2 T03280250
53915KARA ARA20160807113011808/07/16 11:30:31  5-MIN KARA 071730Z 33005KT 10SM FEW032 SCT070 SCT100 33/25 A2996 0 61 2100 330/05 RMK AO2 T03330250
53915KARA ARA20160807113511808/07/16 11:35:31  5-MIN KARA 071735Z 34004KT 10SM FEW049 FEW070 SCT100 34/26 A2996 0 61 2200 340/04 RMK AO2 T03390256
53915KARA ARA20160807114011108/07/16 11:40:31  5-MIN KARA 071740Z 30006KT 10SM FEW049 FEW100 34/25 A2995 0 59 2200 300/06 RMK AO2 T03390250
53915KARA ARA20160807114511108/07/16 11:45:31  5-MIN KARA 071745Z 30007KT 10SM FEW033 SCT100 33/25 A2995 0 61 2100 300/07 RMK AO2 T03330250
53915KARA ARA20160807115012908/07/16 11:50:31  5-MIN KARA 071750Z 31006KT 10SM SCT033 32/25 A2995 0 65 2000 310/06 RMK AO2 SLP142 T03220250 10339 20244 53007
53915KARA ARA20160807115510408/07/16 11:55:31  5-MIN KARA 071755Z 29004KT 10SM SCT033 32/25 A2995 0 65 2000 290/04 RMK AO2 T03220250
53915KARA ARA20160807120012708/07/16 12:00:31  5-MIN KARA 071800Z 27005KT 10SM VCTS FEW034 33/25 A2995 0 63 2100 270/05 RMK AO2 LTG DSNT N AND SE T03280250
53915KARA ARA20160807120513408/07/16 12:05:31  5-MIN KARA 071805Z 34005KT 10SM VCTS SCT034 SCT085 33/25 A2995 0 61 2100 340/05 RMK AO2 LTG DSNT N AND SE T03330250
53915KARA ARA20160807121014008/07/16 12:10:31  5-MIN KARA 071810Z 35007KT 7SM VCTS SCT034 SCT050 BKN085 32/25 A2995 0 65 2000 350/07 RMK AO2 LTG DSNT N AND SE T03220250
53915KARA ARA20160807121515208/07/16 12:15:31  5-MIN KARA 071815Z 00000KT 6SM TSRA FEW032 SCT040 BKN065 31/26 A2995 0 72 1900 000/00 RMK AO2 LTG DSNT SE RAB12 TSB15 P0001 T03110256
53915KARA ARA20160807122015308/07/16 12:20:31  5-MIN KARA 071820Z 36004KT 7SM -TSRA FEW034 SCT055 SCT085 32/26 A2995 0 72 1900 360/04 RMK AO2 LTG DSNT SE RAB12 TSB15 P0001 T03170261
53915KARA ARA20160807122515408/07/16 12:25:31  5-MIN KARA 071825Z 34008KT 10SM TS FEW033 SCT041 SCT065 33/26 A2995 0 67 2100 340/08 RMK AO2 LTG DSNT SE RAB12E25 TSB15 P0001 T03280261
53915KARA ARA20160807123016008/07/16 12:30:31  5-MIN KARA 071830Z 33018G22KT 10SM -TSRA SCT033 SCT041 BKN085 31/25 A2995 0 72 1800 330/18G22 RMK AO2 LTG DSNT SE RAB12 TSB15 P0001 T03060250
53915KARA ARA20160807123516708/07/16 12:35:31  5-MIN KARA 071835Z 35013G22KT 10SM -TSRA SCT034 SCT041 BKN080 28/24 A2996 0 76 1600 350/13G22 RMK AO2 LTG DSNT SE AND NW RAB12 TSB15 P0001 T02830239
53915KARA ARA20160807124016008/07/16 12:40:31  5-MIN KARA 071840Z 34014KT 7SM -TSRA SCT034 BKN043 BKN075 27/24 A2996 0 82 1400 340/14 RMK AO2 LTG DSNT SE AND NW RAB12 TSB15 P0003 T02720239
53915KARA ARA20160807124516208/07/16 12:45:31  5-MIN KARA 071845Z 35007KT 3SM +TSRA SCT038 SCT047 BKN060 26/23 A2996 -10 84 1300 350/07 RMK AO2 LTG DSNT SE AND NW RAB12 TSB15 P0009 T02610233
53915KARA ARA20160807125015308/07/16 12:50:31  5-MIN KARA 071850Z 04004KT 2 1/2SM +TSRA FEW038 SCT050 BKN060 27/24 A2995 0 84 1400 040/04 RMK AO2 LTG DSNT E AND SE RAB12 TSB15 P0011
53915KARA ARA20160807125514708/07/16 12:55:31  5-MIN KARA 071855Z 00000KT 5SM -TSRA FEW038 BKN070 OVC100 27/24 A2995 0 84 1500 000/00 RMK AO2 LTG DSNT E AND SE P0000 T02720244
53915KARA ARA20160807130014808/07/16 13:00:31  5-MIN KARA 071900Z 00000KT 10SM -TSRA SCT047 BKN070 OVC120 27/24 A2994 0 84 1500 000/00 RMK AO2 LTG DSNT E AND SE P0000 T02720244
53915KARA ARA20160807130514808/07/16 13:05:31  5-MIN KARA 071905Z 25003KT 10SM -TSRA FEW050 BKN090 OVC110 28/24 A2995 0 82 1500 250/03 RMK AO2 LTG DSNT E AND SE P0000 T02780244
53915KARA ARA20160807131014408/07/16 13:10:31  5-MIN KARA 071910Z 19004KT 10SM -TSRA FEW050 SCT065 OVC110 27/25 A2994 10 87 1500 190/04 RMK AO2 LTG DSNT E-S P0000 T02720250
53915KARA ARA20160807131514408/07/16 13:15:31  5-MIN KARA 071915Z 20005KT 10SM -TSRA FEW055 BKN075 OVC110 27/25 A2994 10 87 1500 190/05 RMK AO2 LTG DSNT E-S P0000 T02720250
53915KARA ARA20160807132014808/07/16 13:20:31  5-MIN KARA 071920Z 20005KT 10SM TS FEW055 SCT075 BKN090 27/24 A2995 0 84 1500 200/05 RMK AO2 LTG DSNT ALQDS RAE20 P0000 T02720244
53915KARA ARA20160807132515608/07/16 13:25:31  5-MIN KARA 071925Z 00000KT 10SM VCTS FEW055 SCT075 BKN110 28/24 A2995 0 82 1500 000/00 RMK AO2 LTG DSNT ALQDS RAE20 TSE21 P0000 T02780244
53915KARA ARA20160807133015008/07/16 13:30:31  5-MIN KARA 071930Z 26003KT 10SM VCTS FEW075 SCT110 28/25 A2994 10 84 1500 260/03 RMK AO2 LTG DSNT ALQDS RAE20 TSE21 P0000 T02780250
53915KARA ARA20160807133515008/07/16 13:35:31  5-MIN KARA 071935Z 00000KT 10SM VCTS FEW075 FEW110 28/25 A2994 10 84 1500 000/00 RMK AO2 LTG DSNT ALQDS RAE20 TSE21 P0000 T02780250
53915KARA ARA20160807134014208/07/16 13:40:31  5-MIN KARA 071940Z 22005KT 10SM VCTS FEW075 28/26 A2995 0 87 1500 220/05 RMK AO2 LTG DSNT ALQDS RAE20 TSE21 P0000 T02780256
53915KARA ARA20160807134514608/07/16 13:45:31  5-MIN KARA 071945Z AUTO 23005KT 10SM TS CLR 28/25 A2994 10 84 1500 220/05 RMK AO2 LTG DSNT ALQDS RAE20 TSE21B45 P0000 T02780250
53915KARA ARA20160807135013108/07/16 13:50:31  5-MIN KARA 071950Z 21004KT 10SM TS CLR 27/25 A2993 20 87 1500 210/04 RMK AO2 LTG DSNT ALQDS RAE20 TSE21B45 P0000
53915KARA ARA20160807135511008/07/16 13:55:31  5-MIN KARA 071955Z 10SM TS CLR 28/25 A2993 20 84 1500 M /M RMK AO2 LTG DSNT ALQDS T02780250
53915KARA ARA20160807140012808/07/16 14:00:31  5-MIN KARA 072000Z 17004KT 10SM VCTS CLR 28/25 A2993 20 84 1500 170/04 RMK AO2 LTG DSNT ALQDS TSE00 T02780250
53915KARA ARA20160807140512808/07/16 14:05:31  5-MIN KARA 072005Z 18004KT 10SM VCTS CLR 28/26 A2993 20 87 1500 180/04 RMK AO2 LTG DSNT ALQDS TSE00 T02780256
53915KARA ARA20160807141012308/07/16 14:10:31  5-MIN KARA 072010Z 16007KT 10SM CLR 28/25 A2994 10 84 1500 160/07 RMK AO2 LTG DSNT ALQDS TSE00 T02780250
53915KARA ARA20160807141512808/07/16 14:15:31  5-MIN KARA 072015Z 16008KT 10SM VCTS CLR 27/24 A2993 10 84 1500 160/08 RMK AO2 LTG DSNT ALQDS TSE00 T02720244
53915KARA ARA20160807142012808/07/16 14:20:31  5-MIN KARA 072020Z 16004KT 10SM VCTS CLR 27/24 A2993 20 84 1500 160/04 RMK AO2 LTG DSNT ALQDS TSE00 T02720244
53915KARA ARA20160807142512808/07/16 14:25:31  5-MIN KARA 072025Z 17004KT 10SM VCTS CLR 27/24 A2992 20 84 1500 170/04 RMK AO2 LTG DSNT ALQDS TSE00 T02720244
53915KARA ARA20160807143012808/07/16 14:30:31  5-MIN KARA 072030Z 16005KT 10SM VCTS CLR 27/24 A2993 20 87 1400 160/05 RMK AO2 LTG DSNT ALQDS TSE00 T02670244
53915KARA ARA20160807143512808/07/16 14:35:31  5-MIN KARA 072035Z 17006KT 10SM VCTS CLR 27/25 A2994 10 90 1400 170/06 RMK AO2 LTG DSNT ALQDS TSE00 T02670250
53915KARA ARA20160807144012808/07/16 14:40:31  5-MIN KARA 072040Z 17007KT 10SM VCTS CLR 27/24 A2994 10 87 1400 170/07 RMK AO2 LTG DSNT ALQDS TSE00 T02670244
53915KARA ARA20160807144512308/07/16 14:45:31  5-MIN KARA 072045Z 16008KT 10SM CLR 27/24 A2993 20 87 1400 160/08 RMK AO2 LTG DSNT ALQDS TSE00 T02670244
53915KARA ARA20160807145011308/07/16 14:50:31  5-MIN KARA 072050Z 17008KT 10SM CLR 27/24 A2993 20 87 1400 170/08 RMK AO2 LTG DSNT ALQDS TSE00
53915KARA ARA20160807145511708/07/16 14:55:31  5-MIN KARA 072055Z 19011KT 10SM CLR 26/24 A2993 20 87 1300 190/11 RMK AO2 LTG DSNT ALQDS T02610239
53915KARA ARA20160807150011708/07/16 15:00:31  5-MIN KARA 072100Z 20011KT 10SM CLR 26/23 A2993 20 84 1300 200/11 RMK AO2 LTG DSNT ALQDS T02610233
53915KARA ARA20160807150511708/07/16 15:05:31  5-MIN KARA 072105Z 17008KT 10SM CLR 26/24 A2993 20 87 1400 170/08 RMK AO2 LTG DSNT ALQDS T02610239
53915KARA ARA20160807151011708/07/16 15:10:31  5-MIN KARA 072110Z 18007KT 10SM CLR 26/24 A2993 20 87 1300 180/07 RMK AO2 LTG DSNT ALQDS T02610239
53915KARA ARA20160807151511708/07/16 15:15:31  5-MIN KARA 072115Z 17006KT 10SM CLR 26/24 A2993 20 87 1400 170/06 RMK AO2 LTG DSNT ALQDS T02610239
53915KARA ARA20160807152011708/07/16 15:20:31  5-MIN KARA 072120Z 15008KT 10SM CLR 26/24 A2992 20 87 1400 150/08 RMK AO2 LTG DSNT ALQDS T02610239
53915KARA ARA20160807152512208/07/16 15:25:31  5-MIN KARA 072125Z 16007KT 10SM VCTS CLR 26/24 A2993 20 87 1300 160/07 RMK AO2 LTG DSNT ALQDS T02610239
53915KARA ARA20160807153012208/07/16 15:30:31  5-MIN KARA 072130Z 15009KT 10SM VCTS CLR 26/23 A2993 10 87 1300 150/09 RMK AO2 LTG DSNT ALQDS T02560233
53915KARA ARA20160807153512208/07/16 15:35:31  5-MIN KARA 072135Z 16009KT 10SM VCTS CLR 26/23 A2994 10 87 1300 160/09 RMK AO2 LTG DSNT ALQDS T02560233
53915KARA ARA20160807154012608/07/16 15:40:31  5-MIN KARA 072140Z 16009KT 10SM TS CLR 26/23 A2994 10 87 1300 160/09 RMK AO2 LTG DSNT ALQDS TSB38 T02560233
53915KARA ARA20160807154512508/07/16 15:45:31  5-MIN KARA 072145Z 20007KT 10SM TS CLR 26/23 A2995 0 84 1300 200/07 RMK AO2 LTG DSNT ALQDS TSB38 T02610233
53915KARA ARA20160807155013208/07/16 15:50:31  5-MIN KARA 072150Z 19007KT 10SM TS CLR 26/23 A2994 0 84 1300 190/07 RMK AO2 LTG DSNT ALQDS TSB38 SLP139 T02610233
53915KARA ARA20160807155512008/07/16 15:55:31  5-MIN KARA 072155Z 18007KT 10SM TS CLR 26/23 A2993 20 84 1300 180/07 RMK AO2 LTG DSNT ALQDS T02610233
53915KARA ARA20160807160012008/07/16 16:00:31  5-MIN KARA 072200Z 18005KT 10SM TS CLR 26/23 A2992 30 84 1400 180/05 RMK AO2 LTG DSNT ALQDS T02610233
53915KARA ARA20160807160512308/07/16 16:05:31  5-MIN KARA 072205Z 19005KT 10SM TS FEW110 26/23 A2992 30 84 1400 190/05 RMK AO2 LTG DSNT SW-NW T02610233
53915KARA ARA20160807161014808/07/16 16:10:31  5-MIN KARA 072210Z 21006KT 10SM -TSRA FEW110 26/23 A2992 20 84 1400 210/06 RMK AO2 LTG DSNT SE AND W AND NW RAB09 P0000 T02610233
53915KARA ARA20160807161514808/07/16 16:15:31  5-MIN KARA 072215Z 22004KT 10SM -TSRA FEW100 26/23 A2992 20 84 1400 220/04 RMK AO2 LTG DSNT SE AND W AND NW RAB09 P0000 T02610233
53915KARA ARA20160807162015508/07/16 16:20:31  5-MIN KARA 072220Z 19004KT 10SM -TSRA FEW070 SCT095 26/23 A2992 30 87 1300 190/04 RMK AO2 LTG DSNT SE AND W AND NW RAB09 P0000 T02560233
53915KARA ARA20160807162515908/07/16 16:25:31  5-MIN KARA 072225Z 16005KT 10SM -RA FEW070 BKN090 BKN110 26/23 A2991 40 87 1300 160/05 RMK AO2 LTG DSNT W AND NW RAB09 TSE21 P0000 T02560233
53915KARA ARA20160807163015908/07/16 16:30:31  5-MIN KARA 072230Z 15004KT 10SM -RA FEW070 SCT080 BKN095 26/24 A2991 40 90 1300 150/04 RMK AO2 LTG DSNT W AND NW RAB09 TSE21 P0000 T02560239
53915KARA ARA20160807163515808/07/16 16:35:31  5-MIN KARA 072235Z 00000KT 10SM FEW065 SCT080 BKN090 26/24 A2991 40 90 1300 000/00 RMK AO2 LTG DSNT W AND NW RAB09E32 TSE21 P0000 T02560239
53915KARA ARA20160807164015908/07/16 16:40:31  5-MIN KARA 072240Z 25004KT 10SM -RA FEW060 BKN100 OVC120 26/24 A2990 40 90 1300 250/04 RMK AO2 LTG DSNT W AND NW RAB09 TSE21 P0001 T02560239
53915KARA ARA20160807164515608/07/16 16:45:31  5-MIN KARA 072245Z 26004KT 10SM -RA FEW009 BKN070 OVC110 26/24 A2990 40 90 1300 260/04 RMK AO2 LTG DSNT SW-NW RAB09 TSE21 P0001 T02560239
53915KARA ARA20160807165016308/07/16 16:50:31  5-MIN KARA 072250Z 27005KT 10SM -RA FEW009 SCT044 BKN070 26/24 A2990 40 90 1300 260/05 RMK AO2 LTG DSNT SW-NW RAB09 TSE21 SLP125 P0001 T02560239
53915KARA ARA20160807165514708/07/16 16:55:31  5-MIN KARA 072255Z 26004KT 10SM -RA FEW044 SCT070 BKN110 26/24 A2990 50 93 1300 260/04 RMK AO2 LTG DSNT SW AND W P0000 T02560244
53915KARA ARA20160807170014408/07/16 17:00:31  5-MIN KARA 072300Z 27007KT 10SM FEW044 FEW070 SCT110 26/24 A2989 50 90 1400 260/07 RMK AO2 LTG DSNT W RAE2257 P0000 T02610244
53915KARA ARA20160807170513008/07/16 17:05:31  5-MIN KARA 072305Z 26007KT 10SM FEW042 26/24 A2989 60 87 1400 260/07 RMK AO2 LTG DSNT W RAE2257 P0000 T02610239
53915KARA ARA20160807171011908/07/16 17:10:31  5-MIN KARA 072310Z 26005KT 10SM FEW042 26/24 A2989 60 87 1400 260/05 RMK AO2 RAE2257 P0000 T02610239
53915KARA ARA20160807171511908/07/16 17:15:31  5-MIN KARA 072315Z 26005KT 10SM FEW039 26/24 A2988 60 87 1400 260/05 RMK AO2 RAE2257 P0000 T02610239
53915KARA ARA20160807172011608/07/16 17:20:31  5-MIN KARA 072320Z 27004KT 10SM CLR 26/24 A2988 70 87 1400 270/04 RMK AO2 RAE2257 P0000 T02610239
53915KARA ARA20160807172511608/07/16 17:25:31  5-MIN KARA 072325Z 24004KT 10SM CLR 26/24 A2987 70 90 1400 240/04 RMK AO2 RAE2257 P0000 T02610244
53915KARA ARA20160807173011608/07/16 17:30:31  5-MIN KARA 072330Z 24003KT 10SM CLR 26/24 A2988 70 90 1300 240/03 RMK AO2 RAE2257 P0000 T02560239
53915KARA ARA20160807173511608/07/16 17:35:31  5-MIN KARA 072335Z 00000KT 10SM CLR 26/24 A2988 70 93 1300 000/00 RMK AO2 RAE2257 P0000 T02560244
53915KARA ARA20160807174011608/07/16 17:40:31  5-MIN KARA 072340Z 25003KT 10SM CLR 26/24 A2988 60 93 1300 250/03 RMK AO2 RAE2257 P0000 T02560244
53915KARA ARA20160807174511608/07/16 17:45:31  5-MIN KARA 072345Z 24003KT 10SM CLR 26/24 A2988 60 93 1300 240/03 RMK AO2 RAE2257 P0000 T02560244
53915KARA ARA20160807175014708/07/16 17:50:31  5-MIN KARA 072350Z 26004KT 10SM CLR 26/24 A2989 60 90 1300 260/04 RMK AO2 RAE2257 SLP120 P0000 60012 T02560239 10278 20256 55007
53915KARA ARA20160807175510208/07/16 17:55:31  5-MIN KARA 072355Z 26003KT 10SM CLR 26/24 A2989 60 90 1400 260/03 RMK AO2 T02610244
53915KARA ARA20160807180010208/07/16 18:00:31  5-MIN KARA 080000Z 29004KT 10SM CLR 26/24 A2989 60 87 1400 290/04 RMK AO2 T02610239
53915KARA ARA20160807180510208/07/16 18:05:31  5-MIN KARA 080005Z 29004KT 10SM CLR 26/24 A2989 60 87 1400 290/04 RMK AO2 T02610239
53915KARA ARA20160807181010208/07/16 18:10:31  5-MIN KARA 080010Z 29003KT 10SM CLR 26/24 A2989 60 87 1400 290/03 RMK AO2 T02610239
53915KARA ARA20160807181510208/07/16 18:15:31  5-MIN KARA 080015Z 00000KT 10SM CLR 26/24 A2989 60 90 1400 000/00 RMK AO2 T02610244
53915KARA ARA20160807182010208/07/16 18:20:31  5-MIN KARA 080020Z 00000KT 10SM CLR 26/24 A2989 60 87 1400 000/00 RMK AO2 T02610239
53915KARA ARA20160807182510208/07/16 18:25:31  5-MIN KARA 080025Z 00000KT 10SM CLR 26/24 A2989 60 87 1400 000/00 RMK AO2 T02610239
53915KARA ARA20160807183010208/07/16 18:30:31  5-MIN KARA 080030Z 00000KT 10SM CLR 26/24 A2989 60 87 1400 000/00 RMK AO2 T02610239
53915KARA ARA20160807183510208/07/16 18:35:31  5-MIN KARA 080035Z 16003KT 10SM CLR 26/24 A2989 60 87 1400 160/03 RMK AO2 T02610239
53915KARA ARA20160807184010208/07/16 18:40:31  5-MIN KARA 080040Z 17004KT 10SM CLR 26/24 A2989 60 93 1300 170/04 RMK AO2 T02560244
53915KARA ARA20160807184510708/07/16 18:45:31  5-MIN KARA 080045Z AUTO 16003KT 10SM CLR 26/24 A2989 60 93 1300 160/03 RMK AO2 T02560244
53915KARA ARA20160807185011408/07/16 18:50:31  5-MIN KARA 080050Z AUTO 17003KT 10SM CLR 26/24 A2989 50 93 1300 170/03 RMK AO2 SLP121 T02560244
53915KARA ARA20160807185510708/07/16 18:55:31  5-MIN KARA 080055Z AUTO 18003KT 10SM CLR 26/24 A2989 50 93 1300 180/03 RMK AO2 T02560244
53915KARA ARA20160807190010708/07/16 19:00:31  5-MIN KARA 080100Z AUTO 17003KT 10SM CLR 26/24 A2989 60 93 1300 170/03 RMK AO2 T02560244
53915KARA ARA20160807190510708/07/16 19:05:31  5-MIN KARA 080105Z AUTO 00000KT 10SM CLR 26/24 A2989 50 93 1300 000/00 RMK AO2 T02560244
53915KARA ARA20160807191010708/07/16 19:10:31  5-MIN KARA 080110Z AUTO 00000KT 10SM CLR 26/24 A2989 50 93 1300 000/00 RMK AO2 T02560244
53915KARA ARA20160807191510708/07/16 19:15:31  5-MIN KARA 080115Z AUTO 11003KT 10SM CLR 26/24 A2989 60 93 1300 110/03 RMK AO2 T02560244
53915KARA ARA20160807192010708/07/16 19:20:31  5-MIN KARA 080120Z AUTO 10003KT 10SM CLR 26/24 A2989 60 93 1300 100/03 RMK AO2 T02560244
53915KARA ARA20160807192510708/07/16 19:25:31  5-MIN KARA 080125Z AUTO 00000KT 10SM CLR 26/24 A2989 50 93 1300 000/00 RMK AO2 T02560244
53915KARA ARA20160807193010708/07/16 19:30:31  5-MIN KARA 080130Z AUTO 00000KT 10SM CLR 26/24 A2989 50 93 1300 000/00 RMK AO2 T02560244
53915KARA ARA20160807193510708/07/16 19:35:31  5-MIN KARA 080135Z AUTO 00000KT 10SM CLR 26/24 A2989 50 90 1400 000/00 RMK AO2 T02610244
53915KARA ARA20160807194010708/07/16 19:40:31  5-MIN KARA 080140Z AUTO 00000KT 10SM CLR 26/24 A2989 50 90 1400 000/00 RMK AO2 T02610244
53915KARA ARA20160807194510708/07/16 19:45:31  5-MIN KARA 080145Z AUTO 00000KT 10SM CLR 26/24 A2990 50 90 1300 000/00 RMK AO2 T02560239
53915KARA ARA20160807195011408/07/16 19:50:31  5-MIN KARA 080150Z AUTO 00000KT 10SM CLR 26/24 A2990 40 93 1300 000/00 RMK AO2 SLP125 T02560244
53915KARA ARA20160807195510708/07/16 19:55:31  5-MIN KARA 080155Z AUTO 00000KT 10SM CLR 26/24 A2990 50 93 1300 000/00 RMK AO2 T02560244
53915KARA ARA20160807200010708/07/16 20:00:31  5-MIN KARA 080200Z AUTO 00000KT 10SM CLR 26/24 A2990 40 93 1300 000/00 RMK AO2 T02560244
53915KARA ARA20160807200510708/07/16 20:05:31  5-MIN KARA 080205Z AUTO 00000KT 10SM CLR 26/24 A2990 40 93 1300 000/00 RMK AO2 T02560244
53915KARA ARA20160807201010708/07/16 20:10:31  5-MIN KARA 080210Z AUTO 11003KT 10SM CLR 26/24 A2990 40 90 1300 110/03 RMK AO2 T02560239
53915KARA ARA20160807201510708/07/16 20:15:31  5-MIN KARA 080215Z AUTO 13003KT 10SM CLR 25/24 A2990 40 93 1300 130/03 RMK AO2 T02500239
53915KARA ARA20160807202010708/07/16 20:20:31  5-MIN KARA 080220Z AUTO 12003KT 10SM CLR 25/24 A2990 40 93 1300 120/03 RMK AO2 T02500239
53915KARA ARA20160807202510608/07/16 20:25:31  5-MIN KARA 080225Z AUTO 00000KT 9SM CLR 25/24 A2991 40 93 1200 000/00 RMK AO2 T02500239
53915KARA ARA20160807203010708/07/16 20:30:31  5-MIN KARA 080230Z AUTO 00000KT 10SM CLR 25/24 A2991 40 97 1200 000/00 RMK AO2 T02500244
53915KARA ARA20160807203510708/07/16 20:35:31  5-MIN KARA 080235Z AUTO 00000KT 10SM CLR 26/24 A2991 40 90 1300 000/00 RMK AO2 T02560239
53915KARA ARA20160807204010708/07/16 20:40:31  5-MIN KARA 080240Z AUTO 00000KT 10SM CLR 26/24 A2991 40 90 1300 000/00 RMK AO2 T02560239
53915KARA ARA20160807204510708/07/16 20:45:31  5-MIN KARA 080245Z AUTO 00000KT 10SM CLR 26/24 A2990 40 90 1300 000/00 RMK AO2 T02560239
53915KARA ARA20160807205012008/07/16 20:50:31  5-MIN KARA 080250Z AUTO 00000KT 10SM CLR 26/24 A2991 40 90 1300 000/00 RMK AO2 SLP127 T02560239 56016
53915KARA ARA20160807205510708/07/16 20:55:31  5-MIN KARA 080255Z AUTO 00000KT 10SM CLR 25/24 A2991 40 93 1200 000/00 RMK AO2 T02500239
53915KARA ARA20160807210010708/07/16 21:00:31  5-MIN KARA 080300Z AUTO 00000KT 10SM CLR 25/24 A2991 40 93 1200 000/00 RMK AO2 T02500239
53915KARA ARA20160807210510608/07/16 21:05:31  5-MIN KARA 080305Z AUTO 20003KT 9SM CLR 25/24 A2990 50 93 1300 200/03 RMK AO2 T02500239
53915KARA ARA20160807211010608/07/16 21:10:31  5-MIN KARA 080310Z AUTO 23003KT 9SM CLR 25/24 A2990 40 93 1300 220/03 RMK AO2 T02500239
53915KARA ARA20160807211510608/07/16 21:15:31  5-MIN KARA 080315Z AUTO 00000KT 9SM CLR 25/24 A2990 40 93 1200 000/00 RMK AO2 T02500239
53915KARA ARA20160807212010608/07/16 21:20:31  5-MIN KARA 080320Z AUTO 00000KT 9SM CLR 25/24 A2991 40 93 1200 000/00 RMK AO2 T02500239
53915KARA ARA20160807212510608/07/16 21:25:31  5-MIN KARA 080325Z AUTO 00000KT 9SM CLR 25/24 A2991 40 93 1200 000/00 RMK AO2 T02500239
53915KARA ARA20160807213010708/07/16 21:30:31  5-MIN KARA 080330Z AUTO 00000KT 10SM CLR 25/24 A2990 40 93 1300 000/00 RMK AO2 T02500239
53915KARA ARA20160807213510708/07/16 21:35:31  5-MIN KARA 080335Z AUTO 32003KT 10SM CLR 25/24 A2991 40 93 1200 310/03 RMK AO2 T02500239
53915KARA ARA20160807214010708/07/16 21:40:31  5-MIN KARA 080340Z AUTO 00000KT 10SM CLR 25/24 A2991 30 93 1200 000/00 RMK AO2 T02500239
53915KARA ARA20160807214510608/07/16 21:45:31  5-MIN KARA 080345Z AUTO 00000KT 9SM CLR 25/24 A2991 40 93 1200 000/00 RMK AO2 T02500239
53915KARA ARA20160807215011308/07/16 21:50:31  5-MIN KARA 080350Z AUTO 00000KT 9SM CLR 25/24 A2991 30 93 1200 000/00 RMK AO2 SLP128 T02500239
53915KARA ARA20160807215510608/07/16 21:55:31  5-MIN KARA 080355Z AUTO 00000KT 9SM CLR 25/24 A2992 30 93 1200 000/00 RMK AO2 T02500239
53915KARA ARA20160807220010608/07/16 22:00:31  5-MIN KARA 080400Z AUTO 00000KT 9SM CLR 25/24 A2992 30 93 1200 000/00 RMK AO2 T02500239
53915KARA ARA20160807220510708/07/16 22:05:31  5-MIN KARA 080405Z AUTO 36003KT 10SM CLR 25/24 A2992 30 93 1200 360/03 RMK AO2 T02500239
53915KARA ARA20160807221010708/07/16 22:10:31  5-MIN KARA 080410Z AUTO 36003KT 10SM CLR 25/24 A2992 30 93 1200 350/03 RMK AO2 T02500239
53915KARA ARA20160807221510708/07/16 22:15:31  5-MIN KARA 080415Z AUTO 34003KT 10SM CLR 25/24 A2992 30 93 1200 340/03 RMK AO2 T02500239
53915KARA ARA20160807222010708/07/16 22:20:31  5-MIN KARA 080420Z AUTO 35003KT 10SM CLR 25/24 A2992 30 93 1200 350/03 RMK AO2 T02500239
53915KARA ARA20160807222510708/07/16 22:25:31  5-MIN KARA 080425Z AUTO 35003KT 10SM CLR 25/24 A2992 20 93 1200 350/03 RMK AO2 T02500239
53915KARA ARA20160807223010708/07/16 22:30:31  5-MIN KARA 080430Z AUTO 00000KT 10SM CLR 25/24 A2992 30 93 1200 000/00 RMK AO2 T02500239
53915KARA ARA20160807223510708/07/16 22:35:31  5-MIN KARA 080435Z AUTO 31003KT 10SM CLR 25/24 A2992 20 93 1200 310/03 RMK AO2 T02500239
53915KARA ARA20160807224010608/07/16 22:40:31  5-MIN KARA 080440Z AUTO 31003KT 9SM CLR 25/24 A2993 20 93 1200 310/03 RMK AO2 T02500239
53915KARA ARA20160807224510608/07/16 22:45:31  5-MIN KARA 080445Z AUTO 00000KT 9SM CLR 25/24 A2993 20 93 1200 000/00 RMK AO2 T02500239
53915KARA ARA20160807225011308/07/16 22:50:31  5-MIN KARA 080450Z AUTO 00000KT 9SM CLR 25/24 A2993 20 93 1200 000/00 RMK AO2 SLP134 T02500239
53915KARA ARA20160807225510908/07/16 22:55:31  5-MIN KARA 080455Z AUTO 00000KT 9SM SCT110 25/24 A2993 20 93 1200 000/00 RMK AO2 T02500239
53915KARA ARA20160807230010908/07/16 23:00:31  5-MIN KARA 080500Z AUTO 00000KT 9SM BKN110 25/24 A2993 20 93 1200 000/00 RMK AO2 T02500239
53915KARA ARA20160807230510908/07/16 23:05:31  5-MIN KARA 080505Z AUTO 00000KT 9SM BKN110 25/24 A2993 20 93 1200 000/00 RMK AO2 T02500239
53915KARA ARA20160807231010908/07/16 23:10:31  5-MIN KARA 080510Z AUTO 00000KT 9SM BKN110 25/24 A2993 20 93 1200 000/00 RMK AO2 T02500239
53915KARA ARA20160807231512708/07/16 23:15:31  5-MIN KARA 080515Z AUTO 00000KT 9SM OVC110 25/24 A2993 20 93 1200 000/00 RMK AO2 LTG DSNT N AND NE T02500239
53915KARA ARA20160807232012708/07/16 23:20:31  5-MIN KARA 080520Z AUTO 00000KT 8SM OVC110 25/24 A2993 20 93 1200 000/00 RMK AO2 LTG DSNT N AND NE T02500239
53915KARA ARA20160807232512708/07/16 23:25:31  5-MIN KARA 080525Z AUTO 00000KT 8SM OVC110 25/24 A2993 20 93 1200 000/00 RMK AO2 LTG DSNT N AND NE T02500239
53915KARA ARA20160807233012708/07/16 23:30:31  5-MIN KARA 080530Z AUTO 00000KT 8SM OVC110 25/24 A2993 10 93 1200 000/00 RMK AO2 LTG DSNT N AND NE T02500239
53915KARA ARA20160807233512708/07/16 23:35:31  5-MIN KARA 080535Z AUTO 00000KT 9SM OVC110 25/24 A2994 10 93 1200 000/00 RMK AO2 LTG DSNT N AND NE T02500239
53915KARA ARA20160807234012808/07/16 23:40:31  5-MIN KARA 080540Z AUTO 00000KT 10SM OVC110 25/24 A2994 10 97 1200 000/00 RMK AO2 LTG DSNT N AND NE T02500244
53915KARA ARA20160807234512808/07/16 23:45:31  5-MIN KARA 080545Z AUTO 00000KT 10SM OVC110 25/24 A2994 10 97 1200 000/00 RMK AO2 LTG DSNT N AND NE T02500244
53915KARA ARA20160807235016708/07/16 23:50:31  5-MIN KARA 080550Z AUTO 31003KT 10SM FEW050 OVC110 26/24 A2994 10 90 1300 310/03 RMK AO2 LTG DSNT NW-NE SLP137 T02560239 10261 20250 403390239 53007
53915KARA ARA20160807235514508/07/16 23:55:31  5-MIN KARA 080555Z AUTO 35011G15KT 10SM SCT048 OVC110 26/24 A2996 -10 90 1200 340/11G15 RMK AO2 LTG DSNT W-NE PRESRR T02560239
53915KARA ARA20160808000016308/08/16 00:00:31  5-MIN KARA 080600Z AUTO 35012G24KT 10SM -RA SCT022 BKN048 OVC110 26/23 A2996 -10 87 1200 350/12G24 RMK AO2 LTG DSNT W-NE RAB0559 P0000 T02560233
53915KARA ARA20160808000517008/08/16 00:05:31  5-MIN KARA 080605Z AUTO 35017G24KT 10SM -RA SCT022 BKN048 OVC110 25/22 A2997 -20 84 1200 350/17G24 RMK AO2 LTG DSNT W-NE RAB0559 PRESRR P0000 T02500222
53915KARA ARA20160808001016808/08/16 00:10:31  5-MIN KARA 080610Z AUTO 36012G23KT 10SM -RA FEW024 BKN033 OVC110 25/22 A2997 -20 81 1200 350/12G23 RMK AO2 LTG DSNT NE AND NW RAB0559 P0000 T02500217
53915KARA ARA20160808001516108/08/16 00:15:31  5-MIN KARA 080615Z AUTO 36015G21KT 10SM -RA FEW024 BKN035 OVC047 24/22 A2997 -20 84 1100 350/15G21 RMK AO2 LTG DSNT NE RAB0559 P0000 T02440217
53915KARA ARA20160808002015408/08/16 00:20:31  5-MIN KARA 080620Z AUTO 01012G21KT 10SM -RA FEW020 OVC035 24/21 A2997 -10 81 1100 010/12G21 RMK AO2 LTG DSNT NE RAB0559 P0000 T02440211
53915KARA ARA20160808002516008/08/16 00:25:31  5-MIN KARA 080625Z AUTO 36016G22KT 10SM -RA FEW020 OVC037 24/21 A2996 -10 84 1100 360/16G22 RMK AO2 LTG DSNT N AND NE RAB0559 P0000 T02390211
53915KARA ARA20160808003016608/08/16 00:30:31  5-MIN KARA 080630Z AUTO 36018G23KT 9SM -RA BKN037 BKN045 OVC050 23/21 A2996 -10 87 1000 360/18G23 RMK AO2 LTG DSNT N AND NE RAB0559 P0000 T02330211
53915KARA ARA20160808003516408/08/16 00:35:31  5-MIN KARA 080635Z AUTO 36016G23KT 8SM -RA BKN037 BKN048 OVC065 23/21 A2996 0 87 1000 360/16G23 RMK AO2 LTG DSNT N AND NE RAB0559 P0001 T02330211
53915KARA ARA20160808004015308/08/16 00:40:31  5-MIN KARA 080640Z AUTO 36012KT 10SM -RA SCT039 BKN050 OVC090 23/22 A2995 0 90 1000 350/12 RMK AO2 LTG DSNT NE RAB0559 P0001 T02330217
53915KARA ARA20160808004515308/08/16 00:45:31  5-MIN KARA 080645Z AUTO 34011KT 10SM -RA SCT041 BKN050 OVC095 23/22 A2996 0 90 1000 340/11 RMK AO2 LTG DSNT NE RAB0559 P0001 T02330217
53915KARA ARA20160808005014708/08/16 00:50:31  5-MIN KARA 080650Z AUTO 34011KT 10SM SCT044 BKN055 OVC100 23/22 A2995 0 90 1000 340/11 RMK AO2 RAB0559E50 SLP142 P0001 T02330217
53915KARA ARA20160808005512308/08/16 00:55:31  5-MIN KARA 080655Z AUTO 35010KT 10SM FEW046 BKN070 OVC100 23/22 A2995 0 90 1000 350/10 RMK AO2 T02330217
53915KARA ARA20160808010012308/08/16 01:00:31  5-MIN KARA 080700Z AUTO 36011KT 10SM FEW044 BKN070 OVC100 23/22 A2995 0 90 1000 360/11 RMK AO2 T02330217
53915KARA ARA20160808010512308/08/16 01:05:31  5-MIN KARA 080705Z AUTO 36009KT 10SM SCT044 SCT055 OVC100 23/22 A2995 0 90 1000 360/09 RMK AO2 T02330217
53915KARA ARA20160808011011708/08/16 01:10:31  5-MIN KARA 080710Z AUTO 01008KT 10SM SCT044 BKN100 23/22 A2994 10 90 1000 010/08 RMK AO2 T02330217
53915KARA ARA20160808011511608/08/16 01:15:31  5-MIN KARA 080715Z AUTO 36007KT 10SM SCT044 BKN100 23/22 A2994 0 90 1000 360/07 RMK AO2 T02330217
53915KARA ARA20160808012011608/08/16 01:20:31  5-MIN KARA 080720Z AUTO 35005KT 10SM SCT042 BKN100 23/22 A2994 0 90 1000 350/05 RMK AO2 T02330217
53915KARA ARA20160808012513308/08/16 01:25:31  5-MIN KARA 080725Z AUTO 35005KT 10SM -RA SCT035 BKN100 23/22 A2994 10 93 1000 350/05 RMK AO2 RAB24 P0000 T02280217
53915KARA ARA20160808013014008/08/16 01:30:31  5-MIN KARA 080730Z AUTO 35004KT 10SM -RA SCT033 SCT070 BKN100 23/22 A2994 10 93 1000 350/04 RMK AO2 RAB24 P0000 T02280217
53915KARA ARA20160808013513908/08/16 01:35:31  5-MIN KARA 080735Z AUTO 34005KT 10SM FEW030 FEW070 SCT100 23/22 A2994 10 93 1000 340/05 RMK AO2 RAB24E33 P0000 T02280217
53915KARA ARA20160808014012508/08/16 01:40:31  5-MIN KARA 080740Z AUTO 33004KT 10SM FEW028 23/22 A2993 20 93 1000 330/04 RMK AO2 RAB24E33 P0000 T02280217
53915KARA ARA20160808014512508/08/16 01:45:31  5-MIN KARA 080745Z AUTO 33005KT 10SM FEW023 23/22 A2992 20 93 1000 330/05 RMK AO2 RAB24E33 P0000 T02280217
53915KARA ARA20160808015013208/08/16 01:50:31  5-MIN KARA 080750Z AUTO 34005KT 10SM FEW023 23/22 A2992 20 93 1000 340/05 RMK AO2 RAB24E33 SLP132 P0000 T02280217
53915KARA ARA20160808015510708/08/16 01:55:31  5-MIN KARA 080755Z AUTO 35005KT 10SM CLR 23/22 A2992 20 93 1000 350/05 RMK AO2 T02280217
53915KARA ARA20160808020011008/08/16 02:00:31  5-MIN KARA 080800Z AUTO 32005KT 10SM FEW120 23/22 A2992 20 93 1000 320/05 RMK AO2 T02280217
53915KARA ARA20160808020511008/08/16 02:05:31  5-MIN KARA 080805Z AUTO 30004KT 10SM FEW120 23/22 A2992 20 93 1000 300/04 RMK AO2 T02280217
53915KARA ARA20160808021011008/08/16 02:10:31  5-MIN KARA 080810Z AUTO 31004KT 10SM SCT120 23/22 A2992 20 93 1000 310/04 RMK AO2 T02280217
53915KARA ARA20160808021511008/08/16 02:15:31  5-MIN KARA 080815Z AUTO 32003KT 10SM BKN120 23/22 A2992 20 93 1000 320/03 RMK AO2 T02280217
53915KARA ARA20160808022011008/08/16 02:20:31  5-MIN KARA 080820Z AUTO 00000KT 10SM SCT120 23/22 A2992 30 93 1000 000/00 RMK AO2 T02280217
53915KARA ARA20160808022511008/08/16 02:25:31  5-MIN KARA 080825Z AUTO 34003KT 10SM SCT120 23/22 A2992 30 93 1000 340/03 RMK AO2 T02280217
53915KARA ARA20160808023011008/08/16 02:30:31  5-MIN KARA 080830Z AUTO 00000KT 10SM SCT120 23/22 A2992 30 93 1000 000/00 RMK AO2 T02280217
53915KARA ARA20160808023511008/08/16 02:35:31  5-MIN KARA 080835Z AUTO 00000KT 10SM FEW120 23/22 A2991 40 93 1000 000/00 RMK AO2 T02280217
53915KARA ARA20160808024011008/08/16 02:40:31  5-MIN KARA 080840Z AUTO 00000KT 10SM FEW120 23/22 A2991 40 90 1100 000/00 RMK AO2 T02330217
53915KARA ARA20160808024510708/08/16 02:45:31  5-MIN KARA 080845Z AUTO 00000KT 10SM CLR 23/22 A2990 40 90 1100 000/00 RMK AO2 T02330217
53915KARA ARA20160808025012608/08/16 02:50:31  5-MIN KARA 080850Z AUTO 00000KT 10SM CLR 23/22 A2990 50 90 1100 000/00 RMK AO2 SLP124 60001 T02330217 53012
53915KARA ARA20160808025510708/08/16 02:55:31  5-MIN KARA 080855Z AUTO 00000KT 10SM CLR 23/22 A2990 50 90 1100 000/00 RMK AO2 T02330217
53915KARA ARA20160808030011408/08/16 03:00:31  5-MIN KARA 080900Z AUTO 00000KT 10SM CLR 23/22 A2989 60 90 1100 000/00 RMK AO2 PRESFR T02330217
53915KARA ARA20160808030511408/08/16 03:05:31  5-MIN KARA 080905Z AUTO 00000KT 10SM CLR 23/22 A2988 60 90 1100 000/00 RMK AO2 PRESFR T02330217
53915KARA ARA20160808031011408/08/16 03:10:31  5-MIN KARA 080910Z AUTO 18004KT 10SM CLR 23/22 A2987 70 93 1000 180/04 RMK AO2 PRESFR T02280217
53915KARA ARA20160808031510708/08/16 03:15:31  5-MIN KARA 080915Z AUTO 18004KT 10SM CLR 23/22 A2987 70 93 1000 180/04 RMK AO2 T02280217
53915KARA ARA20160808032010708/08/16 03:20:31  5-MIN KARA 080920Z AUTO 20004KT 10SM CLR 23/22 A2987 70 93 1000 200/04 RMK AO2 T02280217
53915KARA ARA20160808032510708/08/16 03:25:31  5-MIN KARA 080925Z AUTO 23004KT 10SM CLR 23/22 A2987 80 93 1000 230/04 RMK AO2 T02280217
53915KARA ARA20160808033010708/08/16 03:30:31  5-MIN KARA 080930Z AUTO 21004KT 10SM CLR 23/22 A2986 80 93 1000 210/04 RMK AO2 T02280217
53915KARA ARA20160808033510708/08/16 03:35:31  5-MIN KARA 080935Z AUTO 20004KT 10SM CLR 23/22 A2985 90 93 1100 200/04 RMK AO2 T02280217
53915KARA ARA20160808034010708/08/16 03:40:31  5-MIN KARA 080940Z AUTO 21004KT 10SM CLR 23/22 A2985 90 93 1100 210/04 RMK AO2 T02280217
53915KARA ARA20160808034510708/08/16 03:45:31  5-MIN KARA 080945Z AUTO 20006KT 10SM CLR 23/22 A2985 90 93 1100 190/06 RMK AO2 T02280217
53915KARA ARA20160808035011408/08/16 03:50:31  5-MIN KARA 080950Z AUTO 20005KT 10SM CLR 23/22 A2985 90 93 1100 200/05 RMK AO2 SLP106 T02280217
53915KARA ARA20160808035510708/08/16 03:55:31  5-MIN KARA 080955Z AUTO 21004KT 10SM CLR 23/22 A2985 90 93 1100 210/04 RMK AO2 T02280217
53915KARA ARA20160808040010708/08/16 04:00:31  5-MIN KARA 081000Z AUTO 20004KT 10SM CLR 23/22 A2985 90 93 1100 200/04 RMK AO2 T02280217
53915KARA ARA20160808040510708/08/16 04:05:31  5-MIN KARA 081005Z AUTO 18005KT 10SM CLR 23/22 A2985 90 93 1100 180/05 RMK AO2 T02280217
53915KARA ARA20160808041010708/08/16 04:10:31  5-MIN KARA 081010Z AUTO 18004KT 10SM CLR 23/22 A2985 90 93 1100 180/04 RMK AO2 T02280217
53915KARA ARA20160808041510708/08/16 04:15:31  5-MIN KARA 081015Z AUTO 22003KT 10SM CLR 23/22 A2986 80 93 1000 220/03 RMK AO2 T02280217
53915KARA ARA20160808042010708/08/16 04:20:31  5-MIN KARA 081020Z AUTO 00000KT 10SM CLR 23/22 A2986 80 93 1000 000/00 RMK AO2 T02280217
53915KARA ARA20160808042510708/08/16 04:25:31  5-MIN KARA 081025Z AUTO 23005KT 10SM CLR 23/22 A2986 80 93 1000 230/05 RMK AO2 T02280217
53915KARA ARA20160808043010708/08/16 04:30:31  5-MIN KARA 081030Z AUTO 25006KT 10SM CLR 23/22 A2987 70 93 1000 250/06 RMK AO2 T02280217
53915KARA ARA20160808043510708/08/16 04:35:31  5-MIN KARA 081035Z AUTO 27004KT 10SM CLR 23/22 A2987 70 93 1000 260/04 RMK AO2 T02280217
53915KARA ARA20160808044010208/08/16 04:40:31  5-MIN KARA 081040Z 25005KT 10SM CLR 23/22 A2987 70 93 1000 250/05 RMK AO2 T02280217
53915KARA ARA20160808044510208/08/16 04:45:31  5-MIN KARA 081045Z 25005KT 10SM CLR 23/22 A2988 70 93 1000 250/05 RMK AO2 T02280217
53915KARA ARA20160808045010908/08/16 04:50:31  5-MIN KARA 081050Z 26003KT 10SM CLR 23/22 A2988 70 93 1000 260/03 RMK AO2 SLP116 T02280217
53915KARA ARA20160808045510208/08/16 04:55:31  5-MIN KARA 081055Z 22003KT 10SM CLR 23/22 A2988 60 93 1000 220/03 RMK AO2 T02280217
53915KARA ARA20160808050010208/08/16 05:00:31  5-MIN KARA 081100Z 18003KT 10SM CLR 23/22 A2988 60 93 1000 180/03 RMK AO2 T02280217
53915KARA ARA20160808050510208/08/16 05:05:31  5-MIN KARA 081105Z 17003KT 10SM CLR 23/22 A2988 60 93 1000 170/03 RMK AO2 T02280217
53915KARA ARA20160808051010208/08/16 05:10:31  5-MIN KARA 081110Z 16003KT 10SM CLR 23/22 A2988 60 93 1000 160/03 RMK AO2 T02280217
53915KARA ARA20160808051510208/08/16 05:15:31  5-MIN KARA 081115Z 00000KT 10SM CLR 23/22 A2989 60 93 1000 000/00 RMK AO2 T02280217
53915KARA ARA20160808052010208/08/16 05:20:31  5-MIN KARA 081120Z 00000KT 10SM CLR 23/22 A2989 60 93 1000 000/00 RMK AO2 T02280217
53915KARA ARA20160808052510208/08/16 05:25:31  5-MIN KARA 081125Z 00000KT 10SM CLR 23/22 A2989 60 93 1000 000/00 RMK AO2 T02280217
53915KARA ARA20160808053010208/08/16 05:30:31  5-MIN KARA 081130Z 00000KT 10SM CLR 23/22 A2989 60 93 1000 000/00 RMK AO2 T02280217
53915KARA ARA20160808053510208/08/16 05:35:31  5-MIN KARA 081135Z 00000KT 10SM CLR 23/22 A2989 50 93 1000 000/00 RMK AO2 T02280217
53915KARA ARA20160808054010208/08/16 05:40:31  5-MIN KARA 081140Z 29003KT 10SM CLR 23/22 A2990 50 93 1000 290/03 RMK AO2 T02280217
53915KARA ARA20160808054510208/08/16 05:45:31  5-MIN KARA 081145Z 31003KT 10SM CLR 23/22 A2990 50 93 1000 310/03 RMK AO2 T02280217
53915KARA ARA20160808055013908/08/16 05:50:31  5-MIN KARA 081150Z 32004KT 10SM CLR 23/22 A2990 50 93 1000 320/04 RMK AO2 SLP124 60001 70013 T02280217 10256 20228 58016
53915KARA ARA20160808055510208/08/16 05:55:31  5-MIN KARA 081155Z 29003KT 10SM CLR 23/22 A2990 40 93 1000 280/03 RMK AO2 T02280217
53915KARA ARA20160808060010208/08/16 06:00:31  5-MIN KARA 081200Z 29004KT 10SM CLR 23/22 A2991 40 97 1000 290/04 RMK AO2 T02280222
53915KARA ARA20160808060510208/08/16 06:05:31  5-MIN KARA 081205Z 28004KT 10SM CLR 23/22 A2991 30 93 1000 280/04 RMK AO2 T02280217
53915KARA ARA20160808061010908/08/16 06:10:31  5-MIN KARA 081210Z 28004KT 10SM CLR 23/22 A2992 30 97 1000 280/04 RMK AO2 PRESRR T02280222
53915KARA ARA20160808061510208/08/16 06:15:31  5-MIN KARA 081215Z 27003KT 10SM CLR 23/22 A2992 30 97 1000 270/03 RMK AO2 T02280222
53915KARA ARA20160808062010208/08/16 06:20:31  5-MIN KARA 081220Z 32004KT 10SM CLR 23/22 A2992 30 93 1000 310/04 RMK AO2 T02330222
53915KARA ARA20160808062510508/08/16 06:25:31  5-MIN KARA 081225Z 32005KT 10SM FEW080 23/22 A2992 30 93 1000 320/05 RMK AO2 T02330222
53915KARA ARA20160808063010508/08/16 06:30:31  5-MIN KARA 081230Z 32005KT 10SM FEW080 23/22 A2992 20 93 1000 320/05 RMK AO2 T02330222
53915KARA ARA20160808063510508/08/16 06:35:31  5-MIN KARA 081235Z 30004KT 10SM FEW085 23/22 A2992 20 93 1000 300/04 RMK AO2 T02330222
53915KARA ARA20160808064010508/08/16 06:40:31  5-MIN KARA 081240Z 31006KT 10SM FEW090 23/22 A2992 20 93 1000 310/06 RMK AO2 T02330222
53915KARA ARA20160808064510508/08/16 06:45:31  5-MIN KARA 081245Z 30005KT 10SM FEW085 24/22 A2993 20 90 1100 300/05 RMK AO2 T02390222
53915KARA ARA20160808065011208/08/16 06:50:31  5-MIN KARA 081250Z 35007KT 10SM FEW085 24/22 A2993 20 90 1100 350/07 RMK AO2 SLP135 T02390222
53915KARA ARA20160808065510508/08/16 06:55:31  5-MIN KARA 081255Z 32007KT 10SM FEW090 24/22 A2993 20 87 1200 320/07 RMK AO2 T02440222
53915KARA ARA20160808070010508/08/16 07:00:31  5-MIN KARA 081300Z 35008KT 10SM FEW090 24/23 A2993 10 90 1200 350/08 RMK AO2 T02440228
53915KARA ARA20160808070510208/08/16 07:05:31  5-MIN KARA 081305Z 34008KT 10SM CLR 25/23 A2993 20 87 1200 330/08 RMK AO2 T02500228
53915KARA ARA20160808071010208/08/16 07:10:31  5-MIN KARA 081310Z 35008KT 10SM CLR 25/23 A2994 10 87 1200 350/08 RMK AO2 T02500228
53915KARA ARA20160808071510508/08/16 07:15:31  5-MIN KARA 081315Z 36008KT 10SM FEW009 25/22 A2994 10 84 1200 360/08 RMK AO2 T02500222
53915KARA ARA20160808072010508/08/16 07:20:31  5-MIN KARA 081320Z 36008KT 10SM SCT009 25/23 A2994 10 87 1200 360/08 RMK AO2 T02500228
53915KARA ARA20160808072510508/08/16 07:25:31  5-MIN KARA 081325Z 34008KT 10SM SCT009 25/22 A2994 10 84 1200 340/08 RMK AO2 T02500222
53915KARA ARA20160808073010508/08/16 07:30:31  5-MIN KARA 081330Z 35008KT 10SM SCT009 25/22 A2994 10 84 1200 350/08 RMK AO2 T02500222
53915KARA ARA20160808073510508/08/16 07:35:31  5-MIN KARA 081335Z 36008KT 10SM BKN009 25/22 A2994 10 84 1200 350/08 RMK AO2 T02500222
53915KARA ARA20160808074010508/08/16 07:40:31  5-MIN KARA 081340Z 36007KT 10SM BKN008 25/22 A2994 10 84 1200 360/07 RMK AO2 T02500222
53915KARA ARA20160808074510408/08/16 07:45:31  5-MIN KARA 081345Z 36007KT 10SM BKN008 26/22 A2995 0 81 1300 350/07 RMK AO2 T02560222
53915KARA ARA20160808075011108/08/16 07:50:31  5-MIN KARA 081350Z 01007KT 10SM BKN008 26/23 A2994 0 84 1300 010/07 RMK AO2 SLP139 T02560228
53915KARA ARA20160808075510408/08/16 07:55:31  5-MIN KARA 081355Z 36005KT 10SM OVC008 26/22 A2995 0 81 1300 360/05 RMK AO2 T02560222
53915KARA ARA20160808080010408/08/16 08:00:31  5-MIN KARA 081400Z 01006KT 10SM OVC008 26/23 A2995 0 81 1300 360/06 RMK AO2 T02610228
53915KARA ARA20160808080510408/08/16 08:05:31  5-MIN KARA 081405Z 02007KT 10SM OVC008 26/23 A2995 0 81 1300 020/07 RMK AO2 T02610228
53915KARA ARA20160808081010408/08/16 08:10:31  5-MIN KARA 081410Z 01006KT 10SM BKN009 26/23 A2995 0 81 1300 010/06 RMK AO2 T02610228
53915KARA ARA20160808081510408/08/16 08:15:31  5-MIN KARA 081415Z 34007KT 10SM BKN009 26/23 A2995 0 84 1300 340/07 RMK AO2 T02560228
53915KARA ARA20160808082010408/08/16 08:20:31  5-MIN KARA 081420Z 35006KT 10SM BKN009 26/23 A2995 0 84 1300 340/06 RMK AO2 T02560228
53915KARA ARA20160808082510408/08/16 08:25:31  5-MIN KARA 081425Z 36005KT 10SM BKN009 26/23 A2995 0 81 1300 360/05 RMK AO2 T02610228
53915KARA ARA20160808083010408/08/16 08:30:31  5-MIN KARA 081430Z 33004KT 10SM SCT010 27/23 A2994 0 79 1400 330/04 RMK AO2 T02670228
53915KARA ARA20160808083510408/08/16 08:35:31  5-MIN KARA 081435Z 32004KT 10SM FEW010 27/23 A2995 0 79 1400 320/04 RMK AO2 T02670228
53915KARA ARA20160808084010408/08/16 08:40:31  5-MIN KARA 081440Z 34003KT 10SM FEW010 27/23 A2995 0 79 1400 340/03 RMK AO2 T02670228
53915KARA ARA20160808084510408/08/16 08:45:31  5-MIN KARA 081445Z 34005KT 10SM FEW010 27/23 A2995 0 76 1500 340/05 RMK AO2 T02720228
53915KARA ARA20160808085011408/08/16 08:50:31  5-MIN KARA 081450Z 36005KT 10SM CLR 27/23 A2995 0 76 1500 360/05 RMK AO2 SLP140 T02720228 53001
53915KARA ARA20160808085510108/08/16 08:55:31  5-MIN KARA 081455Z 33004KT 10SM CLR 27/23 A2995 0 79 1400 330/04 RMK AO2 T02720233
53915KARA ARA20160808090010108/08/16 09:00:31  5-MIN KARA 081500Z 01007KT 10SM CLR 28/23 A2995 0 74 1500 010/07 RMK AO2 T02780228
53915KARA ARA20160808090510108/08/16 09:05:31  5-MIN KARA 081505Z 36005KT 10SM CLR 28/23 A2995 0 74 1500 350/05 RMK AO2 T02780228
53915KARA ARA20160808091010108/08/16 09:10:31  5-MIN KARA 081510Z VRB03KT 10SM CLR 28/23 A2995 0 76 1500 VRB/03 RMK AO2 T02780233
53915KARA ARA20160808091510108/08/16 09:15:31  5-MIN KARA 081515Z 03004KT 10SM CLR 28/23 A2995 0 74 1600 030/04 RMK AO2 T02830233
53915KARA ARA20160808092010108/08/16 09:20:31  5-MIN KARA 081520Z 32004KT 10SM CLR 28/23 A2995 0 71 1600 320/04 RMK AO2 T02830228
53915KARA ARA20160808092510108/08/16 09:25:31  5-MIN KARA 081525Z 36005KT 10SM CLR 28/23 A2995 0 74 1600 360/05 RMK AO2 T02830233
53915KARA ARA20160808093010108/08/16 09:30:31  5-MIN KARA 081530Z 34004KT 10SM CLR 29/23 A2995 0 71 1600 340/04 RMK AO2 T02890233
53915KARA ARA20160808093510108/08/16 09:35:31  5-MIN KARA 081535Z 00000KT 10SM CLR 29/23 A2995 0 71 1600 000/00 RMK AO2 T02890233
53915KARA ARA20160808094010108/08/16 09:40:31  5-MIN KARA 081540Z 02003KT 10SM CLR 29/23 A2995 0 71 1600 010/03 RMK AO2 T02890233
53915KARA ARA20160808094510108/08/16 09:45:31  5-MIN KARA 081545Z 00000KT 10SM CLR 29/23 A2995 0 69 1700 000/00 RMK AO2 T02940233
53915KARA ARA20160808095010808/08/16 09:50:31  5-MIN KARA 081550Z 35003KT 10SM CLR 29/23 A2995 0 71 1600 350/03 RMK AO2 SLP141 T02890233
53915KARA ARA20160808095510108/08/16 09:55:31  5-MIN KARA 081555Z 30003KT 10SM CLR 29/23 A2995 0 71 1600 290/03 RMK AO2 T02890233
53915KARA ARA20160808100010108/08/16 10:00:31  5-MIN KARA 081600Z 33006KT 10SM CLR 29/23 A2995 0 69 1700 330/06 RMK AO2 T02940233
53915KARA ARA20160808100510108/08/16 10:05:31  5-MIN KARA 081605Z 34004KT 10SM CLR 29/23 A2995 0 71 1600 340/04 RMK AO2 T02890233
53915KARA ARA20160808101010108/08/16 10:10:31  5-MIN KARA 081610Z 33005KT 10SM CLR 29/23 A2995 0 69 1700 330/05 RMK AO2 T02940233
53915KARA ARA20160808101510108/08/16 10:15:31  5-MIN KARA 081615Z 31007KT 10SM CLR 29/23 A2995 0 69 1700 310/07 RMK AO2 T02940233
53915KARA ARA20160808102010108/08/16 10:20:31  5-MIN KARA 081620Z 30005KT 10SM CLR 30/23 A2995 0 67 1800 300/05 RMK AO2 T03000233
53915KARA ARA20160808102510108/08/16 10:25:31  5-MIN KARA 081625Z 33005KT 10SM CLR 31/24 A2995 0 67 1800 330/05 RMK AO2 T03060239
53915KARA ARA20160808103010108/08/16 10:30:31  5-MIN KARA 081630Z 34005KT 10SM CLR 31/24 A2995 0 67 1800 340/05 RMK AO2 T03060239
53915KARA ARA20160808103511708/08/16 10:35:31  5-MIN KARA 081635Z 32007KT 290V360 10SM CLR 31/24 A2995 0 67 1800 320/07 290V360 RMK AO2 T03060239
53915KARA ARA20160808104010108/08/16 10:40:31  5-MIN KARA 081640Z VRB06KT 10SM CLR 31/24 A2995 0 67 1800 VRB/06 RMK AO2 T03060239
53915KARA ARA20160808104510108/08/16 10:45:31  5-MIN KARA 081645Z 34005KT 10SM CLR 31/24 A2995 0 65 1900 340/05 RMK AO2 T03110239
53915KARA ARA20160808105010808/08/16 10:50:31  5-MIN KARA 081650Z 34009KT 10SM CLR 31/24 A2995 0 65 1900 330/09 RMK AO2 SLP140 T03110239
53915KARA ARA20160808105510108/08/16 10:55:31  5-MIN KARA 081655Z 31007KT 10SM CLR 31/24 A2995 0 65 1900 310/07 RMK AO2 T03110239
53915KARA ARA20160808110010108/08/16 11:00:31  5-MIN KARA 081700Z 32008KT 10SM CLR 31/24 A2995 0 65 1900 320/08 RMK AO2 T03110239
53915KARA ARA20160808110510108/08/16 11:05:31  5-MIN KARA 081705Z 33006KT 10SM CLR 31/24 A2995 0 65 1900 330/06 RMK AO2 T03110239
53915KARA ARA20160808111010108/08/16 11:10:31  5-MIN KARA 081710Z 32006KT 10SM CLR 32/24 A2995 0 63 1900 320/06 RMK AO2 T03170239
53915KARA ARA20160808111510108/08/16 11:15:31  5-MIN KARA 081715Z 33006KT 10SM CLR 32/24 A2994 0 63 2000 330/06 RMK AO2 T03170239
53915KARA ARA20160808112010208/08/16 11:20:31  5-MIN KARA 081720Z 31006KT 10SM CLR 32/24 A2994 10 65 2000 310/06 RMK AO2 T03170244
53915KARA ARA20160808112510208/08/16 11:25:31  5-MIN KARA 081725Z 32010KT 10SM CLR 32/24 A2994 10 63 2000 320/10 RMK AO2 T03170239
53915KARA ARA20160808113010208/08/16 11:30:31  5-MIN KARA 081730Z VRB06KT 10SM CLR 32/24 A2994 10 63 2000 VRB/06 RMK AO2 T03170239
53915KARA ARA20160808113510208/08/16 11:35:31  5-MIN KARA 081735Z 31009KT 10SM CLR 32/24 A2994 10 61 2000 310/09 RMK AO2 T03220239
53915KARA ARA20160808114010208/08/16 11:40:31  5-MIN KARA 081740Z 32007KT 10SM CLR 32/24 A2994 10 61 2000 320/07 RMK AO2 T03220239
53915KARA ARA20160808114510508/08/16 11:45:31  5-MIN KARA 081745Z 33010KT 10SM FEW033 32/24 A2994 10 61 2000 330/10 RMK AO2 T03220239
53915KARA ARA20160808115013008/08/16 11:50:31  5-MIN KARA 081750Z VRB06KT 10SM FEW033 32/24 A2994 10 61 2000 VRB/06 RMK AO2 SLP137 T03220239 10322 20228 51016
53915KARA ARA20160808115510508/08/16 11:55:31  5-MIN KARA 081755Z 34010KT 10SM FEW034 32/23 A2994 10 59 2000 340/10 RMK AO2 T03220233
53915KARA ARA20160808120010508/08/16 12:00:31  5-MIN KARA 081800Z 33009KT 10SM SCT036 32/24 A2994 10 61 2000 330/09 RMK AO2 T03220239
53915KARA ARA20160808120510508/08/16 12:05:31  5-MIN KARA 081805Z 33012KT 10SM FEW036 32/23 A2993 10 59 2000 330/12 RMK AO2 T03220233
53915KARA ARA20160808121010508/08/16 12:10:31  5-MIN KARA 081810Z 33009KT 10SM FEW036 32/23 A2993 20 59 2000 330/09 RMK AO2 T03220233
53915KARA ARA20160808121510508/08/16 12:15:31  5-MIN KARA 081815Z 33008KT 10SM SCT036 32/23 A2993 20 59 2000 320/08 RMK AO2 T03220233
53915KARA ARA20160808122010508/08/16 12:20:31  5-MIN KARA 081820Z 33009KT 10SM SCT036 32/24 A2993 20 61 2000 330/09 RMK AO2 T03220239
53915KARA ARA20160808122510508/08/16 12:25:31  5-MIN KARA 081825Z 35008KT 10SM SCT038 33/24 A2993 20 59 2100 350/08 RMK AO2 T03280239
53915KARA ARA20160808123010508/08/16 12:30:31  5-MIN KARA 081830Z 33011KT 10SM SCT038 32/24 A2993 20 61 2000 330/11 RMK AO2 T03220239
53915KARA ARA20160808123510508/08/16 12:35:31  5-MIN KARA 081835Z 34010KT 10SM SCT038 32/24 A2992 20 61 2000 340/10 RMK AO2 T03220239
53915KARA ARA20160808124010508/08/16 12:40:31  5-MIN KARA 081840Z 33011KT 10SM SCT037 32/24 A2992 30 61 2000 330/11 RMK AO2 T03220239
53915KARA ARA20160808124510508/08/16 12:45:31  5-MIN KARA 081845Z 34011KT 10SM SCT037 33/24 A2992 30 59 2100 340/11 RMK AO2 T03280239
53915KARA ARA20160808125011208/08/16 12:50:31  5-MIN KARA 081850Z 33008KT 10SM SCT037 33/24 A2992 30 59 2100 330/08 RMK AO2 SLP130 T03280239
53915KARA ARA20160808125510508/08/16 12:55:31  5-MIN KARA 081855Z 35011KT 10SM FEW037 33/24 A2992 30 61 2100 350/11 RMK AO2 T03280244
53915KARA ARA20160808130010508/08/16 13:00:31  5-MIN KARA 081900Z 33009KT 10SM FEW037 33/24 A2991 30 57 2200 330/09 RMK AO2 T03330239
53915KARA ARA20160808130510508/08/16 13:05:31  5-MIN KARA 081905Z 33009KT 10SM SCT037 33/24 A2991 40 59 2200 330/09 RMK AO2 T03330244
53915KARA ARA20160808131010508/08/16 13:10:31  5-MIN KARA 081910Z 31010KT 10SM FEW037 33/24 A2991 40 59 2100 310/10 RMK AO2 T03280239
53915KARA ARA20160808131510508/08/16 13:15:31  5-MIN KARA 081915Z 33010KT 10SM FEW037 33/24 A2991 40 57 2200 330/10 RMK AO2 T03330239
53915KARA ARA20160808132010508/08/16 13:20:31  5-MIN KARA 081920Z 34008KT 10SM FEW037 33/24 A2991 40 57 2200 340/08 RMK AO2 T03330239
53915KARA ARA20160808132510508/08/16 13:25:31  5-MIN KARA 081925Z 35009KT 10SM FEW037 33/23 A2991 40 55 2200 350/09 RMK AO2 T03330233
53915KARA ARA20160808133010208/08/16 13:30:31  5-MIN KARA 081930Z 33011KT 10SM CLR 33/24 A2990 40 57 2200 330/11 RMK AO2 T03330239
53915KARA ARA20160808133510208/08/16 13:35:31  5-MIN KARA 081935Z 32010KT 10SM CLR 33/23 A2990 40 57 2100 320/10 RMK AO2 T03280233
53915KARA ARA20160808134011008/08/16 13:40:31  5-MIN KARA 081940Z AUTO 34010KT 10SM FEW042 33/24 A2990 40 57 2200 340/10 RMK AO2 T03330239
53915KARA ARA20160808134511008/08/16 13:45:31  5-MIN KARA 081945Z AUTO 31011KT 10SM FEW042 33/23 A2990 50 55 2200 310/11 RMK AO2 T03330233
53915KARA ARA20160808135011208/08/16 13:50:31  5-MIN KARA 081950Z 32010KT 10SM FEW042 33/24 A2990 50 57 2200 320/10 RMK AO2 SLP123 T03330239
53915KARA ARA20160808135510508/08/16 13:55:31  5-MIN KARA 081955Z 35008KT 10SM FEW041 33/24 A2990 50 57 2200 350/08 RMK AO2 T03330239
53915KARA ARA20160808140010208/08/16 14:00:31  5-MIN KARA 082000Z 35009KT 10SM CLR 33/24 A2990 50 57 2200 350/09 RMK AO2 T03330239
53915KARA ARA20160808140510208/08/16 14:05:31  5-MIN KARA 082005Z 35012KT 10SM CLR 34/23 A2990 50 53 2300 350/12 RMK AO2 T03390233
53915KARA ARA20160808141010208/08/16 14:10:31  5-MIN KARA 082010Z 35012KT 10SM CLR 34/23 A2989 50 53 2300 350/12 RMK AO2 T03390233
53915KARA ARA20160808141510208/08/16 14:15:31  5-MIN KARA 082015Z 35011KT 10SM CLR 33/23 A2989 50 53 2200 350/11 RMK AO2 T03330228
53915KARA ARA20160808142010208/08/16 14:20:31  5-MIN KARA 082020Z 34010KT 10SM CLR 34/23 A2989 50 51 2300 340/10 RMK AO2 T03390228
53915KARA ARA20160808142510208/08/16 14:25:31  5-MIN KARA 082025Z 34009KT 10SM CLR 33/23 A2989 60 53 2200 340/09 RMK AO2 T03330228
53915KARA ARA20160808143010208/08/16 14:30:31  5-MIN KARA 082030Z 35010KT 10SM CLR 33/23 A2988 60 55 2200 350/10 RMK AO2 T03330233
53915KARA ARA20160808143510208/08/16 14:35:31  5-MIN KARA 082035Z 35010KT 10SM CLR 33/23 A2988 60 55 2200 350/10 RMK AO2 T03330233
53915KARA ARA20160808144010208/08/16 14:40:31  5-MIN KARA 082040Z 35009KT 10SM CLR 33/23 A2988 60 55 2200 350/09 RMK AO2 T03330233
53915KARA ARA20160808144510208/08/16 14:45:31  5-MIN KARA 082045Z 35008KT 10SM CLR 33/23 A2988 70 55 2200 350/08 RMK AO2 T03330233
53915KARA ARA20160808145011508/08/16 14:50:31  5-MIN KARA 082050Z 36007KT 10SM CLR 33/23 A2988 70 55 2200 360/07 RMK AO2 SLP116 T03330233 58004
53915KARA ARA20160808145510208/08/16 14:55:31  5-MIN KARA 082055Z 02010KT 10SM CLR 34/23 A2988 70 53 2300 010/10 RMK AO2 T03390233
53915KARA ARA20160808150010208/08/16 15:00:31  5-MIN KARA 082100Z 01008KT 10SM CLR 34/23 A2987 70 51 2300 010/08 RMK AO2 T03390228
53915KARA ARA20160808150510208/08/16 15:05:31  5-MIN KARA 082105Z 01010KT 10SM CLR 34/23 A2987 70 53 2300 010/10 RMK AO2 T03390233
53915KARA ARA20160808151010208/08/16 15:10:31  5-MIN KARA 082110Z 36011KT 10SM CLR 34/23 A2987 70 53 2300 360/11 RMK AO2 T03390233
53915KARA ARA20160808151510208/08/16 15:15:31  5-MIN KARA 082115Z 34007KT 10SM CLR 33/23 A2987 70 53 2200 340/07 RMK AO2 T03330228
53915KARA ARA20160808152010208/08/16 15:20:31  5-MIN KARA 082120Z 36009KT 10SM CLR 34/23 A2987 70 51 2300 360/09 RMK AO2 T03390228
53915KARA ARA20160808152510208/08/16 15:25:31  5-MIN KARA 082125Z 36010KT 10SM CLR 34/23 A2987 70 51 2300 360/10 RMK AO2 T03390228
53915KARA ARA20160808153010208/08/16 15:30:31  5-MIN KARA 082130Z 02012KT 10SM CLR 34/22 A2987 70 50 2300 020/12 RMK AO2 T03390222
53915KARA ARA20160808153510208/08/16 15:35:31  5-MIN KARA 082135Z 01014KT 10SM CLR 34/22 A2987 80 48 2300 010/14 RMK AO2 T03390217
53915KARA ARA20160808154010208/08/16 15:40:31  5-MIN KARA 082140Z 36014KT 10SM CLR 33/22 A2987 80 50 2200 360/14 RMK AO2 T03330217
53915KARA ARA20160808154510208/08/16 15:45:31  5-MIN KARA 082145Z 36011KT 10SM CLR 33/22 A2987 80 50 2200 360/11 RMK AO2 T03330217
53915KARA ARA20160808155010908/08/16 15:50:31  5-MIN KARA 082150Z 36008KT 10SM CLR 33/22 A2987 80 51 2200 350/08 RMK AO2 SLP112 T03330222
53915KARA ARA20160808155510208/08/16 15:55:31  5-MIN KARA 082155Z 01011KT 10SM CLR 33/22 A2986 80 51 2200 010/11 RMK AO2 T03330222
53915KARA ARA20160808160010208/08/16 16:00:31  5-MIN KARA 082200Z 03009KT 10SM CLR 34/22 A2986 80 50 2300 030/09 RMK AO2 T03390222
53915KARA ARA20160808160510208/08/16 16:05:31  5-MIN KARA 082205Z 36011KT 10SM CLR 34/22 A2986 80 50 2300 360/11 RMK AO2 T03390222
53915KARA ARA20160808161010208/08/16 16:10:31  5-MIN KARA 082210Z 02009KT 10SM CLR 33/22 A2986 80 51 2200 020/09 RMK AO2 T03330222
53915KARA ARA20160808161510208/08/16 16:15:31  5-MIN KARA 082215Z 03009KT 10SM CLR 34/22 A2986 80 50 2300 030/09 RMK AO2 T03390222
53915KARA ARA20160808162010208/08/16 16:20:31  5-MIN KARA 082220Z 01008KT 10SM CLR 33/22 A2986 80 51 2200 360/08 RMK AO2 T03330222
53915KARA ARA20160808162510208/08/16 16:25:31  5-MIN KARA 082225Z 36009KT 10SM CLR 33/22 A2986 80 51 2200 350/09 RMK AO2 T03330222
53915KARA ARA20160808163010208/08/16 16:30:31  5-MIN KARA 082230Z 36009KT 10SM CLR 33/22 A2986 80 51 2200 360/09 RMK AO2 T03330222
53915KARA ARA20160808163510208/08/16 16:35:31  5-MIN KARA 082235Z 36008KT 10SM CLR 33/22 A2986 80 51 2200 360/08 RMK AO2 T03330222
53915KARA ARA20160808164010208/08/16 16:40:31  5-MIN KARA 082240Z 36008KT 10SM CLR 33/22 A2986 90 51 2200 360/08 RMK AO2 T03330222
53915KARA ARA20160808164510208/08/16 16:45:31  5-MIN KARA 082245Z 35007KT 10SM CLR 33/22 A2986 90 51 2200 350/07 RMK AO2 T03330222
53915KARA ARA20160808165010908/08/16 16:50:31  5-MIN KARA 082250Z 36009KT 10SM CLR 33/23 A2985 90 53 2200 360/09 RMK AO2 SLP109 T03330228
53915KARA ARA20160808165510208/08/16 16:55:31  5-MIN KARA 082255Z 01010KT 10SM CLR 33/22 A2985 90 51 2200 010/10 RMK AO2 T03330222
53915KARA ARA20160808170010208/08/16 17:00:31  5-MIN KARA 082300Z 36009KT 10SM CLR 33/22 A2985 90 50 2200 360/09 RMK AO2 T03330217
53915KARA ARA20160808170510208/08/16 17:05:31  5-MIN KARA 082305Z 01012KT 10SM CLR 33/22 A2985 90 51 2200 010/12 RMK AO2 T03330222
53915KARA ARA20160808171010208/08/16 17:10:31  5-MIN KARA 082310Z 36010KT 10SM CLR 33/22 A2986 90 51 2200 360/10 RMK AO2 T03280217
53915KARA ARA20160808171510208/08/16 17:15:31  5-MIN KARA 082315Z 01009KT 10SM CLR 33/22 A2986 90 51 2200 010/09 RMK AO2 T03280217
53915KARA ARA20160808172010208/08/16 17:20:31  5-MIN KARA 082320Z 35008KT 10SM CLR 33/22 A2986 80 53 2200 350/08 RMK AO2 T03280222
53915KARA ARA20160808172510208/08/16 17:25:31  5-MIN KARA 082325Z 36009KT 10SM CLR 33/22 A2986 80 53 2200 360/09 RMK AO2 T03280222
53915KARA ARA20160808173010208/08/16 17:30:31  5-MIN KARA 082330Z 35007KT 10SM CLR 33/23 A2986 80 55 2200 350/07 RMK AO2 T03280228
53915KARA ARA20160808173510208/08/16 17:35:31  5-MIN KARA 082335Z 35007KT 10SM CLR 32/23 A2987 80 57 2100 350/07 RMK AO2 T03220228
53915KARA ARA20160808174010208/08/16 17:40:31  5-MIN KARA 082340Z 36007KT 10SM CLR 32/23 A2987 80 57 2100 360/07 RMK AO2 T03220228
53915KARA ARA20160808174510208/08/16 17:45:31  5-MIN KARA 082345Z 36007KT 10SM CLR 32/23 A2987 80 57 2100 360/07 RMK AO2 T03220228
53915KARA ARA20160808175012708/08/16 17:50:31  5-MIN KARA 082350Z 01007KT 10SM CLR 32/23 A2986 80 57 2100 360/07 RMK AO2 SLP112 T03220228 10339 20322 58021
53915KARA ARA20160808175510208/08/16 17:55:31  5-MIN KARA 082355Z 02006KT 10SM CLR 32/23 A2986 80 57 2100 020/06 RMK AO2 T03220228
53915KARA ARA20160808180010208/08/16 18:00:31  5-MIN KARA 090000Z 02008KT 10SM CLR 32/23 A2986 80 58 2000 020/08 RMK AO2 T03170228
53915KARA ARA20160808180510208/08/16 18:05:31  5-MIN KARA 090005Z 01006KT 10SM CLR 32/23 A2986 80 58 2000 010/06 RMK AO2 T03170228
53915KARA ARA20160808181010208/08/16 18:10:31  5-MIN KARA 090010Z 01006KT 10SM CLR 32/23 A2986 90 58 2100 010/06 RMK AO2 T03170228
53915KARA ARA20160808181510208/08/16 18:15:31  5-MIN KARA 090015Z 01005KT 10SM CLR 32/23 A2986 90 58 2100 010/05 RMK AO2 T03170228
53915KARA ARA20160808182010208/08/16 18:20:31  5-MIN KARA 090020Z 01006KT 10SM CLR 32/23 A2986 80 58 2000 010/06 RMK AO2 T03170228
53915KARA ARA20160808182510208/08/16 18:25:31  5-MIN KARA 090025Z 02006KT 10SM CLR 31/23 A2986 80 60 2000 010/06 RMK AO2 T03110228
53915KARA ARA20160808183010208/08/16 18:30:31  5-MIN KARA 090030Z 02005KT 10SM CLR 31/23 A2986 80 62 1900 020/05 RMK AO2 T03060228
53915KARA ARA20160808183510208/08/16 18:35:31  5-MIN KARA 090035Z 01004KT 10SM CLR 31/23 A2986 80 65 1900 010/04 RMK AO2 T03060233
53915KARA ARA20160808184010708/08/16 18:40:31  5-MIN KARA 090040Z AUTO 35003KT 10SM CLR 30/23 A2986 80 67 1900 350/03 RMK AO2 T03000233
53915KARA ARA20160808184510708/08/16 18:45:31  5-MIN KARA 090045Z AUTO 36003KT 10SM CLR 30/23 A2986 80 67 1900 360/03 RMK AO2 T03000233
53915KARA ARA20160808185011408/08/16 18:50:31  5-MIN KARA 090050Z AUTO 36004KT 10SM CLR 30/23 A2986 80 67 1900 360/04 RMK AO2 SLP112 T03000233
53915KARA ARA20160808185510708/08/16 18:55:31  5-MIN KARA 090055Z AUTO 36004KT 10SM CLR 29/23 A2986 80 69 1800 360/04 RMK AO2 T02940233
53915KARA ARA20160808190010708/08/16 19:00:31  5-MIN KARA 090100Z AUTO 01004KT 10SM CLR 29/23 A2986 80 69 1800 010/04 RMK AO2 T02940233
53915KARA ARA20160808190510708/08/16 19:05:31  5-MIN KARA 090105Z AUTO 00000KT 10SM CLR 29/23 A2987 80 69 1800 000/00 RMK AO2 T02940233
53915KARA ARA20160808191010708/08/16 19:10:31  5-MIN KARA 090110Z AUTO 00000KT 10SM CLR 29/23 A2987 70 69 1800 000/00 RMK AO2 T02940233
53915KARA ARA20160808191510708/08/16 19:15:31  5-MIN KARA 090115Z AUTO 35003KT 10SM CLR 29/23 A2987 70 71 1700 350/03 RMK AO2 T02890233
53915KARA ARA20160808192010708/08/16 19:20:31  5-MIN KARA 090120Z AUTO 00000KT 10SM CLR 28/24 A2987 70 79 1700 000/00 RMK AO2 T02830244
53915KARA ARA20160808192510708/08/16 19:25:31  5-MIN KARA 090125Z AUTO 00000KT 10SM CLR 28/24 A2987 70 79 1700 000/00 RMK AO2 T02830244
53915KARA ARA20160808193010708/08/16 19:30:31  5-MIN KARA 090130Z AUTO 00000KT 10SM CLR 28/24 A2987 70 79 1700 000/00 RMK AO2 T02830244
53915KARA ARA20160808193510708/08/16 19:35:31  5-MIN KARA 090135Z AUTO 00000KT 10SM CLR 28/24 A2987 70 79 1700 000/00 RMK AO2 T02830244
53915KARA ARA20160808194010708/08/16 19:40:31  5-MIN KARA 090140Z AUTO 00000KT 10SM CLR 28/24 A2988 70 79 1700 000/00 RMK AO2 T02830244
53915KARA ARA20160808194510708/08/16 19:45:31  5-MIN KARA 090145Z AUTO 00000KT 10SM CLR 28/24 A2988 70 76 1700 000/00 RMK AO2 T02830239
53915KARA ARA20160808195011408/08/16 19:50:31  5-MIN KARA 090150Z AUTO 00000KT 10SM CLR 29/24 A2987 70 74 1700 000/00 RMK AO2 SLP115 T02890239
53915KARA ARA20160808195510708/08/16 19:55:31  5-MIN KARA 090155Z AUTO 00000KT 10SM CLR 28/24 A2988 70 79 1700 000/00 RMK AO2 T02830244
53915KARA ARA20160808200010708/08/16 20:00:31  5-MIN KARA 090200Z AUTO 00000KT 10SM CLR 28/23 A2988 70 74 1700 000/00 RMK AO2 T02830233
53915KARA ARA20160808200510708/08/16 20:05:31  5-MIN KARA 090205Z AUTO 00000KT 10SM CLR 28/24 A2988 70 76 1700 000/00 RMK AO2 T02830239
53915KARA ARA20160808201010708/08/16 20:10:31  5-MIN KARA 090210Z AUTO 00000KT 10SM CLR 28/24 A2988 60 79 1600 000/00 RMK AO2 T02780239
53915KARA ARA20160808201510708/08/16 20:15:31  5-MIN KARA 090215Z AUTO 00000KT 10SM CLR 28/24 A2988 70 82 1600 000/00 RMK AO2 T02780244
53915KARA ARA20160808202010708/08/16 20:20:31  5-MIN KARA 090220Z AUTO 00000KT 10SM CLR 28/24 A2988 60 82 1600 000/00 RMK AO2 T02780244
53915KARA ARA20160808202510708/08/16 20:25:31  5-MIN KARA 090225Z AUTO 00000KT 10SM CLR 28/24 A2989 60 82 1600 000/00 RMK AO2 T02780244
53915KARA ARA20160808203010708/08/16 20:30:31  5-MIN KARA 090230Z AUTO 00000KT 10SM CLR 27/24 A2989 60 84 1500 000/00 RMK AO2 T02720244
53915KARA ARA20160808203510708/08/16 20:35:31  5-MIN KARA 090235Z AUTO 00000KT 10SM CLR 27/25 A2989 60 87 1500 000/00 RMK AO2 T02720250
53915KARA ARA20160808204010708/08/16 20:40:31  5-MIN KARA 090240Z AUTO 28003KT 10SM CLR 27/25 A2989 50 87 1500 280/03 RMK AO2 T02720250
53915KARA ARA20160808204510708/08/16 20:45:31  5-MIN KARA 090245Z AUTO 00000KT 10SM CLR 27/25 A2989 50 90 1500 000/00 RMK AO2 T02670250
53915KARA ARA20160808205012008/08/16 20:50:31  5-MIN KARA 090250Z AUTO 00000KT 10SM CLR 27/24 A2989 50 87 1500 000/00 RMK AO2 SLP121 T02670244 55004
53915KARA ARA20160808205510708/08/16 20:55:31  5-MIN KARA 090255Z AUTO 00000KT 10SM CLR 27/24 A2989 50 87 1500 000/00 RMK AO2 T02670244
53915KARA ARA20160808210010708/08/16 21:00:31  5-MIN KARA 090300Z AUTO 00000KT 10SM CLR 27/24 A2989 50 84 1500 000/00 RMK AO2 T02720244
53915KARA ARA20160808210510708/08/16 21:05:31  5-MIN KARA 090305Z AUTO 00000KT 10SM CLR 27/24 A2990 50 87 1400 000/00 RMK AO2 T02670244
53915KARA ARA20160808211010708/08/16 21:10:31  5-MIN KARA 090310Z AUTO 00000KT 10SM CLR 27/24 A2990 50 87 1400 000/00 RMK AO2 T02670244
53915KARA ARA20160808211510708/08/16 21:15:31  5-MIN KARA 090315Z AUTO 00000KT 10SM CLR 27/24 A2990 50 87 1400 000/00 RMK AO2 T02670244
53915KARA ARA20160808212010708/08/16 21:20:31  5-MIN KARA 090320Z AUTO 00000KT 10SM CLR 27/24 A2990 40 87 1400 000/00 RMK AO2 T02670244
53915KARA ARA20160808212510708/08/16 21:25:31  5-MIN KARA 090325Z AUTO 00000KT 10SM CLR 27/24 A2990 40 87 1400 000/00 RMK AO2 T02670244
53915KARA ARA20160808213010708/08/16 21:30:31  5-MIN KARA 090330Z AUTO 00000KT 10SM CLR 26/24 A2990 40 90 1400 000/00 RMK AO2 T02610244
53915KARA ARA20160808213510708/08/16 21:35:31  5-MIN KARA 090335Z AUTO 00000KT 10SM CLR 26/24 A2990 40 90 1400 000/00 RMK AO2 T02610244
53915KARA ARA20160808214010708/08/16 21:40:31  5-MIN KARA 090340Z AUTO 00000KT 10SM CLR 26/24 A2990 40 90 1400 000/00 RMK AO2 T02610244
53915KARA ARA20160808214510708/08/16 21:45:31  5-MIN KARA 090345Z AUTO 00000KT 10SM CLR 27/24 A2991 40 87 1400 000/00 RMK AO2 T02670244
53915KARA ARA20160808215011408/08/16 21:50:31  5-MIN KARA 090350Z AUTO 00000KT 10SM CLR 27/24 A2991 40 87 1400 000/00 RMK AO2 SLP127 T02670244
53915KARA ARA20160808215510708/08/16 21:55:31  5-MIN KARA 090355Z AUTO 00000KT 10SM CLR 27/24 A2991 40 82 1500 000/00 RMK AO2 T02720239
53915KARA ARA20160808220010708/08/16 22:00:31  5-MIN KARA 090400Z AUTO 00000KT 10SM CLR 27/24 A2991 40 82 1500 000/00 RMK AO2 T02720239
53915KARA ARA20160808220510708/08/16 22:05:31  5-MIN KARA 090405Z AUTO 00000KT 10SM CLR 27/24 A2991 40 84 1400 000/00 RMK AO2 T02670239
53915KARA ARA20160808221010708/08/16 22:10:31  5-MIN KARA 090410Z AUTO 00000KT 10SM CLR 27/24 A2990 40 82 1500 000/00 RMK AO2 T02720239
53915KARA ARA20160808221510708/08/16 22:15:31  5-MIN KARA 090415Z AUTO 00000KT 10SM CLR 27/24 A2991 40 82 1500 000/00 RMK AO2 T02720239
53915KARA ARA20160808222010708/08/16 22:20:31  5-MIN KARA 090420Z AUTO 00000KT 10SM CLR 27/24 A2991 40 82 1500 000/00 RMK AO2 T02720239
53915KARA ARA20160808222510708/08/16 22:25:31  5-MIN KARA 090425Z AUTO 00000KT 10SM CLR 27/24 A2991 40 82 1500 000/00 RMK AO2 T02720239
53915KARA ARA20160808223010708/08/16 22:30:31  5-MIN KARA 090430Z AUTO 00000KT 10SM CLR 27/24 A2991 40 82 1500 000/00 RMK AO2 T02720239
53915KARA ARA20160808223510708/08/16 22:35:31  5-MIN KARA 090435Z AUTO 00000KT 10SM CLR 27/24 A2991 40 87 1400 000/00 RMK AO2 T02670244
53915KARA ARA20160808224010708/08/16 22:40:31  5-MIN KARA 090440Z AUTO 00000KT 10SM CLR 26/24 A2991 40 93 1300 000/00 RMK AO2 T02560244
53915KARA ARA20160808224510708/08/16 22:45:31  5-MIN KARA 090445Z AUTO 00000KT 10SM CLR 26/24 A2991 40 93 1300 000/00 RMK AO2 T02560244
53915KARA ARA20160808225011408/08/16 22:50:31  5-MIN KARA 090450Z AUTO 00000KT 10SM CLR 26/24 A2991 40 93 1300 000/00 RMK AO2 SLP126 T02560244
53915KARA ARA20160808225510708/08/16 22:55:31  5-MIN KARA 090455Z AUTO 00000KT 10SM CLR 26/24 A2990 40 93 1300 000/00 RMK AO2 T02560244
53915KARA ARA20160808230010708/08/16 23:00:31  5-MIN KARA 090500Z AUTO 00000KT 10SM CLR 26/24 A2991 40 90 1300 000/00 RMK AO2 T02560239
53915KARA ARA20160808230510708/08/16 23:05:31  5-MIN KARA 090505Z AUTO 00000KT 10SM CLR 26/24 A2991 40 90 1300 000/00 RMK AO2 T02560239
53915KARA ARA20160808231010708/08/16 23:10:31  5-MIN KARA 090510Z AUTO 00000KT 10SM CLR 26/24 A2991 40 93 1300 000/00 RMK AO2 T02560244
53915KARA ARA20160808231510708/08/16 23:15:31  5-MIN KARA 090515Z AUTO 00000KT 10SM CLR 26/24 A2991 40 93 1300 000/00 RMK AO2 T02560244
53915KARA ARA20160808232010708/08/16 23:20:31  5-MIN KARA 090520Z AUTO 00000KT 10SM CLR 26/24 A2991 40 93 1300 000/00 RMK AO2 T02560244
53915KARA ARA20160808232510708/08/16 23:25:31  5-MIN KARA 090525Z AUTO 00000KT 10SM CLR 26/24 A2991 40 90 1300 000/00 RMK AO2 T02560239
53915KARA ARA20160808233010708/08/16 23:30:31  5-MIN KARA 090530Z AUTO 00000KT 10SM CLR 26/24 A2991 40 93 1300 000/00 RMK AO2 T02560244
53915KARA ARA20160808233510708/08/16 23:35:31  5-MIN KARA 090535Z AUTO 00000KT 10SM CLR 26/24 A2991 40 90 1300 000/00 RMK AO2 T02560239
53915KARA ARA20160808234010708/08/16 23:40:31  5-MIN KARA 090540Z AUTO 26003KT 10SM CLR 25/24 A2991 40 93 1200 260/03 RMK AO2 T02500239
53915KARA ARA20160808234510708/08/16 23:45:31  5-MIN KARA 090545Z AUTO 26003KT 10SM CLR 25/24 A2990 40 93 1200 260/03 RMK AO2 T02500239
53915KARA ARA20160808235014208/08/16 23:50:31  5-MIN KARA 090550Z AUTO 00000KT 10SM CLR 25/24 A2990 40 93 1200 000/00 RMK AO2 SLP126 T02500239 10322 20250 403390228 53010
53915KARA ARA20160808235510708/08/16 23:55:31  5-MIN KARA 090555Z AUTO 26003KT 10SM CLR 25/24 A2991 40 93 1200 260/03 RMK AO2 T02500239
53915KARA ARA20160809000010708/09/16 00:00:31  5-MIN KARA 090600Z AUTO 00000KT 10SM CLR 26/24 A2991 40 90 1300 000/00 RMK AO2 T02560239
53915KARA ARA20160809000510708/09/16 00:05:31  5-MIN KARA 090605Z AUTO 00000KT 10SM CLR 26/24 A2991 40 90 1300 000/00 RMK AO2 T02560239
53915KARA ARA20160809001010708/09/16 00:10:31  5-MIN KARA 090610Z AUTO 00000KT 10SM CLR 26/24 A2990 40 90 1300 000/00 RMK AO2 T02560239
53915KARA ARA20160809001510708/09/16 00:15:31  5-MIN KARA 090615Z AUTO 00000KT 10SM CLR 26/24 A2991 40 90 1300 000/00 RMK AO2 T02560239
53915KARA ARA20160809002010708/09/16 00:20:31  5-MIN KARA 090620Z AUTO 00000KT 10SM CLR 26/24 A2990 40 90 1300 000/00 RMK AO2 T02560239
53915KARA ARA20160809002510708/09/16 00:25:31  5-MIN KARA 090625Z AUTO 00000KT 10SM CLR 26/24 A2990 40 90 1300 000/00 RMK AO2 T02560239
53915KARA ARA20160809003010708/09/16 00:30:31  5-MIN KARA 090630Z AUTO 00000KT 10SM CLR 26/24 A2990 40 90 1300 000/00 RMK AO2 T02560239
53915KARA ARA20160809003510708/09/16 00:35:31  5-MIN KARA 090635Z AUTO 00000KT 10SM CLR 25/24 A2990 40 93 1300 000/00 RMK AO2 T02500239
53915KARA ARA20160809004010708/09/16 00:40:31  5-MIN KARA 090640Z AUTO 00000KT 10SM CLR 26/24 A2990 50 93 1300 000/00 RMK AO2 T02560244
53915KARA ARA20160809004510708/09/16 00:45:31  5-MIN KARA 090645Z AUTO 00000KT 10SM CLR 26/24 A2989 50 90 1300 000/00 RMK AO2 T02560239
53915KARA ARA20160809005011408/09/16 00:50:31  5-MIN KARA 090650Z AUTO 00000KT 10SM CLR 26/24 A2989 50 90 1300 000/00 RMK AO2 SLP121 T02560239
53915KARA ARA20160809005510708/09/16 00:55:31  5-MIN KARA 090655Z AUTO 00000KT 10SM CLR 26/24 A2989 50 90 1300 000/00 RMK AO2 T02560239
53915KARA ARA20160809010010708/09/16 01:00:31  5-MIN KARA 090700Z AUTO 00000KT 10SM CLR 26/24 A2989 50 90 1300 000/00 RMK AO2 T02560239
53915KARA ARA20160809010510708/09/16 01:05:31  5-MIN KARA 090705Z AUTO 00000KT 10SM CLR 26/24 A2989 50 90 1300 000/00 RMK AO2 T02560239
53915KARA ARA20160809011010708/09/16 01:10:31  5-MIN KARA 090710Z AUTO 02003KT 10SM CLR 26/24 A2989 50 90 1300 010/03 RMK AO2 T02560239
53915KARA ARA20160809011510708/09/16 01:15:31  5-MIN KARA 090715Z AUTO 03003KT 10SM CLR 26/24 A2989 50 87 1400 030/03 RMK AO2 T02610239
53915KARA ARA20160809012010708/09/16 01:20:31  5-MIN KARA 090720Z AUTO 00000KT 10SM CLR 26/24 A2989 50 87 1400 000/00 RMK AO2 T02610239
53915KARA ARA20160809012510708/09/16 01:25:31  5-MIN KARA 090725Z AUTO 00000KT 10SM CLR 26/23 A2990 50 87 1300 000/00 RMK AO2 T02560233
53915KARA ARA20160809013010708/09/16 01:30:31  5-MIN KARA 090730Z AUTO 00000KT 10SM CLR 26/24 A2990 50 90 1300 000/00 RMK AO2 T02560239
53915KARA ARA20160809013510708/09/16 01:35:31  5-MIN KARA 090735Z AUTO 26005KT 10SM CLR 25/24 A2990 50 93 1300 260/05 RMK AO2 T02500239
53915KARA ARA20160809014010708/09/16 01:40:31  5-MIN KARA 090740Z AUTO 25004KT 10SM CLR 25/24 A2990 40 93 1300 250/04 RMK AO2 T02500239
53915KARA ARA20160809014510708/09/16 01:45:31  5-MIN KARA 090745Z AUTO 25003KT 10SM CLR 25/24 A2990 40 93 1300 250/03 RMK AO2 T02500239
53915KARA ARA20160809015011408/09/16 01:50:31  5-MIN KARA 090750Z AUTO 00000KT 10SM CLR 25/24 A2990 40 93 1300 000/00 RMK AO2 SLP125 T02500239
53915KARA ARA20160809015510708/09/16 01:55:31  5-MIN KARA 090755Z AUTO 00000KT 10SM CLR 25/24 A2990 40 93 1300 000/00 RMK AO2 T02500239
53915KARA ARA20160809020010708/09/16 02:00:31  5-MIN KARA 090800Z AUTO 00000KT 10SM CLR 25/24 A2990 40 93 1300 000/00 RMK AO2 T02500239
53915KARA ARA20160809020510708/09/16 02:05:31  5-MIN KARA 090805Z AUTO 00000KT 10SM CLR 25/24 A2990 40 93 1300 000/00 RMK AO2 T02500239
53915KARA ARA20160809021010708/09/16 02:10:31  5-MIN KARA 090810Z AUTO 26003KT 10SM CLR 25/24 A2991 40 93 1200 260/03 RMK AO2 T02500239
53915KARA ARA20160809021510708/09/16 02:15:31  5-MIN KARA 090815Z AUTO 26004KT 10SM CLR 24/23 A2991 40 93 1200 260/04 RMK AO2 T02440233
53915KARA ARA20160809022010708/09/16 02:20:31  5-MIN KARA 090820Z AUTO 25004KT 10SM CLR 24/23 A2991 40 93 1200 250/04 RMK AO2 T02440233
53915KARA ARA20160809022510708/09/16 02:25:31  5-MIN KARA 090825Z AUTO 24004KT 10SM CLR 24/23 A2991 40 93 1200 240/04 RMK AO2 T02440233
53915KARA ARA20160809023010708/09/16 02:30:31  5-MIN KARA 090830Z AUTO 25003KT 10SM CLR 24/23 A2990 40 93 1200 250/03 RMK AO2 T02440233
53915KARA ARA20160809023510708/09/16 02:35:31  5-MIN KARA 090835Z AUTO 00000KT 10SM CLR 24/24 A2990 50 97 1200 000/00 RMK AO2 T02440239
53915KARA ARA20160809024010708/09/16 02:40:31  5-MIN KARA 090840Z AUTO 00000KT 10SM CLR 24/23 A2990 50 93 1200 000/00 RMK AO2 T02440233
53915KARA ARA20160809024510708/09/16 02:45:31  5-MIN KARA 090845Z AUTO 00000KT 10SM CLR 24/23 A2990 50 93 1200 000/00 RMK AO2 T02440233
53915KARA ARA20160809025012008/09/16 02:50:31  5-MIN KARA 090850Z AUTO 00000KT 10SM CLR 25/23 A2990 40 90 1300 000/00 RMK AO2 SLP124 T02500233 51005
53915KARA ARA20160809025510708/09/16 02:55:31  5-MIN KARA 090855Z AUTO 00000KT 10SM CLR 25/23 A2990 40 90 1300 000/00 RMK AO2 T02500233
53915KARA ARA20160809030010708/09/16 03:00:31  5-MIN KARA 090900Z AUTO 00000KT 10SM CLR 25/23 A2990 40 90 1300 000/00 RMK AO2 T02500233
53915KARA ARA20160809030511008/09/16 03:05:31  5-MIN KARA 090905Z AUTO 00000KT 10SM FEW050 24/23 A2990 40 93 1200 000/00 RMK AO2 T02440233
53915KARA ARA20160809031011008/09/16 03:10:31  5-MIN KARA 090910Z AUTO 00000KT 10SM SCT050 24/23 A2990 40 93 1200 000/00 RMK AO2 T02440233
53915KARA ARA20160809031511008/09/16 03:15:31  5-MIN KARA 090915Z AUTO 00000KT 10SM BKN055 24/23 A2991 40 93 1200 000/00 RMK AO2 T02440233
53915KARA ARA20160809032011008/09/16 03:20:31  5-MIN KARA 090920Z AUTO 00000KT 10SM BKN055 24/23 A2991 40 93 1200 000/00 RMK AO2 T02440233
53915KARA ARA20160809032511008/09/16 03:25:31  5-MIN KARA 090925Z AUTO 00000KT 10SM BKN050 25/24 A2990 40 93 1300 000/00 RMK AO2 T02500239
53915KARA ARA20160809033011008/09/16 03:30:31  5-MIN KARA 090930Z AUTO 00000KT 10SM BKN050 25/24 A2990 40 93 1300 000/00 RMK AO2 T02500239
53915KARA ARA20160809033511008/09/16 03:35:31  5-MIN KARA 090935Z AUTO 00000KT 10SM BKN050 25/24 A2990 40 93 1300 000/00 RMK AO2 T02500239
53915KARA ARA20160809034011008/09/16 03:40:31  5-MIN KARA 090940Z AUTO 00000KT 10SM BKN050 25/24 A2990 40 93 1300 000/00 RMK AO2 T02500239
53915KARA ARA20160809034511008/09/16 03:45:31  5-MIN KARA 090945Z AUTO 00000KT 10SM BKN050 25/24 A2990 40 93 1200 000/00 RMK AO2 T02500239
53915KARA ARA20160809035011708/09/16 03:50:31  5-MIN KARA 090950Z AUTO 00000KT 10SM SCT050 25/23 A2990 40 90 1300 000/00 RMK AO2 SLP125 T02500233
53915KARA ARA20160809035511008/09/16 03:55:31  5-MIN KARA 090955Z AUTO 00000KT 10SM SCT050 25/24 A2990 40 93 1300 000/00 RMK AO2 T02500239
53915KARA ARA20160809040011008/09/16 04:00:31  5-MIN KARA 091000Z AUTO 00000KT 10SM FEW050 25/24 A2990 40 93 1300 000/00 RMK AO2 T02500239
53915KARA ARA20160809040510708/09/16 04:05:31  5-MIN KARA 091005Z AUTO 00000KT 10SM CLR 25/24 A2990 40 93 1300 000/00 RMK AO2 T02500239
53915KARA ARA20160809041011008/09/16 04:10:31  5-MIN KARA 091010Z AUTO 00000KT 10SM FEW055 25/24 A2991 40 93 1200 000/00 RMK AO2 T02500239
53915KARA ARA20160809041511008/09/16 04:15:31  5-MIN KARA 091015Z AUTO 00000KT 10SM SCT055 25/24 A2991 40 93 1200 000/00 RMK AO2 T02500239
53915KARA ARA20160809042011008/09/16 04:20:31  5-MIN KARA 091020Z AUTO 00000KT 10SM BKN060 25/24 A2991 40 93 1200 000/00 RMK AO2 T02500239
53915KARA ARA20160809042511008/09/16 04:25:31  5-MIN KARA 091025Z AUTO 00000KT 10SM BKN060 25/24 A2991 40 93 1200 000/00 RMK AO2 T02500239
53915KARA ARA20160809043011008/09/16 04:30:31  5-MIN KARA 091030Z AUTO 00000KT 10SM BKN060 25/24 A2991 40 93 1200 000/00 RMK AO2 T02500239
53915KARA ARA20160809043511008/09/16 04:35:31  5-MIN KARA 091035Z AUTO 00000KT 10SM SCT060 25/24 A2991 30 93 1200 000/00 RMK AO2 T02500239
53915KARA ARA20160809044011008/09/16 04:40:31  5-MIN KARA 091040Z AUTO 00000KT 10SM SCT060 25/24 A2991 30 93 1200 000/00 RMK AO2 T02500239
53915KARA ARA20160809044511008/09/16 04:45:31  5-MIN KARA 091045Z AUTO 00000KT 10SM FEW060 25/24 A2991 30 93 1200 000/00 RMK AO2 T02500239
53915KARA ARA20160809045011208/09/16 04:50:31  5-MIN KARA 091050Z 00000KT 10SM FEW060 25/24 A2991 30 93 1200 000/00 RMK AO2 SLP128 T02500239
53915KARA ARA20160809045510208/09/16 04:55:31  5-MIN KARA 091055Z 00000KT 10SM CLR 25/24 A2992 30 93 1200 000/00 RMK AO2 T02500239
53915KARA ARA20160809050010208/09/16 05:00:31  5-MIN KARA 091100Z 00000KT 10SM CLR 25/23 A2992 30 90 1200 000/00 RMK AO2 T02500233
53915KARA ARA20160809050510208/09/16 05:05:31  5-MIN KARA 091105Z 00000KT 10SM CLR 25/24 A2991 30 93 1200 000/00 RMK AO2 T02500239
53915KARA ARA20160809051010208/09/16 05:10:31  5-MIN KARA 091110Z 00000KT 10SM CLR 25/24 A2991 30 93 1200 000/00 RMK AO2 T02500239
53915KARA ARA20160809051510208/09/16 05:15:31  5-MIN KARA 091115Z 00000KT 10SM CLR 25/23 A2991 30 90 1200 000/00 RMK AO2 T02500233
53915KARA ARA20160809052010208/09/16 05:20:31  5-MIN KARA 091120Z 00000KT 10SM CLR 25/24 A2991 30 93 1200 000/00 RMK AO2 T02500239
53915KARA ARA20160809052510208/09/16 05:25:31  5-MIN KARA 091125Z 00000KT 10SM CLR 25/23 A2991 30 90 1200 000/00 RMK AO2 T02500233
53915KARA ARA20160809053010208/09/16 05:30:31  5-MIN KARA 091130Z 00000KT 10SM CLR 25/23 A2991 30 90 1200 000/00 RMK AO2 T02500233
53915KARA ARA20160809053510208/09/16 05:35:31  5-MIN KARA 091135Z 00000KT 10SM CLR 24/23 A2991 30 93 1200 000/00 RMK AO2 T02440233
53915KARA ARA20160809054010208/09/16 05:40:31  5-MIN KARA 091140Z 00000KT 10SM CLR 25/24 A2991 40 93 1200 000/00 RMK AO2 T02500239
53915KARA ARA20160809054510208/09/16 05:45:31  5-MIN KARA 091145Z 00000KT 10SM CLR 26/24 A2991 30 90 1300 000/00 RMK AO2 T02560239
53915KARA ARA20160809055012708/09/16 05:50:31  5-MIN KARA 091150Z 00000KT 10SM CLR 25/24 A2991 30 93 1200 000/00 RMK AO2 SLP129 T02500239 10261 20244 55002
53915KARA ARA20160809055510208/09/16 05:55:31  5-MIN KARA 091155Z 00000KT 10SM CLR 25/23 A2992 30 90 1200 000/00 RMK AO2 T02500233
53915KARA ARA20160809060010208/09/16 06:00:31  5-MIN KARA 091200Z 00000KT 10SM CLR 25/23 A2992 20 90 1200 000/00 RMK AO2 T02500233
53915KARA ARA20160809060510208/09/16 06:05:31  5-MIN KARA 091205Z 00000KT 10SM CLR 26/24 A2993 20 90 1300 000/00 RMK AO2 T02560239
53915KARA ARA20160809061010108/09/16 06:10:31  5-MIN KARA 091210Z 00000KT 9SM CLR 25/24 A2993 20 93 1200 000/00 RMK AO2 T02500239
53915KARA ARA20160809061510108/09/16 06:15:31  5-MIN KARA 091215Z 00000KT 9SM CLR 25/24 A2993 20 93 1200 000/00 RMK AO2 T02500239
53915KARA ARA20160809062010108/09/16 06:20:31  5-MIN KARA 091220Z 34003KT 9SM CLR 26/24 A2993 20 93 1300 340/03 RMK AO2 T02560244
53915KARA ARA20160809062510108/09/16 06:25:31  5-MIN KARA 091225Z 35003KT 9SM CLR 26/24 A2993 10 90 1300 340/03 RMK AO2 T02610244
53915KARA ARA20160809063010208/09/16 06:30:31  5-MIN KARA 091230Z 00000KT 10SM CLR 27/25 A2994 10 90 1400 000/00 RMK AO2 T02670250
53915KARA ARA20160809063510208/09/16 06:35:31  5-MIN KARA 091235Z 01003KT 10SM CLR 27/24 A2994 10 84 1500 010/03 RMK AO2 T02720244
53915KARA ARA20160809064010208/09/16 06:40:31  5-MIN KARA 091240Z 02003KT 10SM CLR 27/24 A2994 10 84 1500 020/03 RMK AO2 T02720244
53915KARA ARA20160809064510208/09/16 06:45:31  5-MIN KARA 091245Z 00000KT 10SM CLR 28/24 A2994 10 82 1500 000/00 RMK AO2 T02780244
53915KARA ARA20160809065010908/09/16 06:50:31  5-MIN KARA 091250Z 00000KT 10SM CLR 28/24 A2994 10 82 1500 000/00 RMK AO2 SLP138 T02780244
53915KARA ARA20160809065510208/09/16 06:55:31  5-MIN KARA 091255Z 35003KT 10SM CLR 28/24 A2994 10 79 1600 350/03 RMK AO2 T02830244
53915KARA ARA20160809070010208/09/16 07:00:31  5-MIN KARA 091300Z 30004KT 10SM CLR 28/24 A2994 10 82 1500 300/04 RMK AO2 T02780244
53915KARA ARA20160809070510208/09/16 07:05:31  5-MIN KARA 091305Z 29003KT 10SM CLR 28/25 A2994 10 84 1500 290/03 RMK AO2 T02780250
53915KARA ARA20160809071010108/09/16 07:10:31  5-MIN KARA 091310Z 28003KT 10SM CLR 27/24 A2995 0 84 1500 280/03 RMK AO2 T02720244
53915KARA ARA20160809071510408/09/16 07:15:31  5-MIN KARA 091315Z 28004KT 10SM SCT042 28/25 A2995 0 84 1500 280/04 RMK AO2 T02780250
53915KARA ARA20160809072010408/09/16 07:20:31  5-MIN KARA 091320Z 26003KT 10SM BKN040 28/25 A2995 0 84 1500 260/03 RMK AO2 T02780250
53915KARA ARA20160809072510408/09/16 07:25:31  5-MIN KARA 091325Z 30003KT 10SM BKN038 28/25 A2995 0 84 1500 300/03 RMK AO2 T02780250
53915KARA ARA20160809073010408/09/16 07:30:31  5-MIN KARA 091330Z 00000KT 10SM BKN038 28/25 A2995 0 84 1500 000/00 RMK AO2 T02780250
53915KARA ARA20160809073510408/09/16 07:35:31  5-MIN KARA 091335Z 00000KT 10SM BKN038 28/26 A2995 0 87 1500 000/00 RMK AO2 T02780256
53915KARA ARA20160809074011108/09/16 07:40:31  5-MIN KARA 091340Z 00000KT 10SM BKN038 BKN044 28/25 A2995 0 82 1600 000/00 RMK AO2 T02830250
53915KARA ARA20160809074511108/09/16 07:45:31  5-MIN KARA 091345Z 30003KT 10SM BKN037 BKN044 28/25 A2995 0 82 1600 300/03 RMK AO2 T02830250
53915KARA ARA20160809075011808/09/16 07:50:31  5-MIN KARA 091350Z 00000KT 10SM BKN035 BKN044 28/25 A2995 0 82 1600 000/00 RMK AO2 SLP142 T02830250
53915KARA ARA20160809075510408/09/16 07:55:31  5-MIN KARA 091355Z 00000KT 10SM BKN035 28/25 A2996 0 82 1600 000/00 RMK AO2 T02830250
53915KARA ARA20160809080010408/09/16 08:00:31  5-MIN KARA 091400Z 00000KT 10SM BKN035 28/25 A2995 0 82 1600 000/00 RMK AO2 T02830250
53915KARA ARA20160809080510408/09/16 08:05:31  5-MIN KARA 091405Z 00000KT 10SM SCT035 28/25 A2995 0 82 1600 000/00 RMK AO2 T02830250
53915KARA ARA20160809081011108/09/16 08:10:31  5-MIN KARA 091410Z 00000KT 10SM FEW032 SCT041 29/25 A2995 0 79 1600 000/00 RMK AO2 T02890250
53915KARA ARA20160809081510408/09/16 08:15:31  5-MIN KARA 091415Z 28003KT 10SM FEW032 29/25 A2995 0 76 1700 280/03 RMK AO2 T02940250
53915KARA ARA20160809082010408/09/16 08:20:31  5-MIN KARA 091420Z 00000KT 10SM FEW034 29/25 A2995 0 76 1700 000/00 RMK AO2 T02940250
53915KARA ARA20160809082510108/09/16 08:25:31  5-MIN KARA 091425Z 27004KT 10SM CLR 29/25 A2996 0 76 1700 270/04 RMK AO2 T02940250
53915KARA ARA20160809083010308/09/16 08:30:31  5-MIN KARA 091430Z 28003KT 10SM CLR 29/25 A2996 -10 76 1700 280/03 RMK AO2 T02940250
53915KARA ARA20160809083510308/09/16 08:35:31  5-MIN KARA 091435Z 30004KT 10SM CLR 30/25 A2996 -10 74 1700 300/04 RMK AO2 T03000250
53915KARA ARA20160809084010308/09/16 08:40:31  5-MIN KARA 091440Z 28003KT 10SM CLR 30/24 A2996 -10 72 1700 280/03 RMK AO2 T03000244
53915KARA ARA20160809084510308/09/16 08:45:31  5-MIN KARA 091445Z 31003KT 10SM CLR 31/25 A2996 -10 72 1800 300/03 RMK AO2 T03060250
53915KARA ARA20160809085011608/09/16 08:50:31  5-MIN KARA 091450Z 30003KT 10SM CLR 31/24 A2996 -10 69 1800 290/03 RMK AO2 SLP145 T03060244 53005
53915KARA ARA20160809085510308/09/16 08:55:31  5-MIN KARA 091455Z 30004KT 10SM CLR 31/24 A2996 -10 69 1800 300/04 RMK AO2 T03060244
53915KARA ARA20160809090010308/09/16 09:00:31  5-MIN KARA 091500Z 33004KT 10SM CLR 31/24 A2997 -10 67 1900 330/04 RMK AO2 T03110244
53915KARA ARA20160809090510308/09/16 09:05:31  5-MIN KARA 091505Z 32004KT 10SM CLR 31/24 A2997 -10 67 1900 320/04 RMK AO2 T03110244
53915KARA ARA20160809091010308/09/16 09:10:31  5-MIN KARA 091510Z 33004KT 10SM CLR 31/24 A2997 -10 67 1900 330/04 RMK AO2 T03110244
53915KARA ARA20160809091510308/09/16 09:15:31  5-MIN KARA 091515Z 35003KT 10SM CLR 32/24 A2997 -10 65 1900 340/03 RMK AO2 T03170244
53915KARA ARA20160809092010308/09/16 09:20:31  5-MIN KARA 091520Z 00000KT 10SM CLR 31/24 A2997 -10 67 1900 000/00 RMK AO2 T03110244
53915KARA ARA20160809092510308/09/16 09:25:31  5-MIN KARA 091525Z VRB03KT 10SM CLR 32/24 A2997 -10 65 1900 VRB/03 RMK AO2 T03170244
53915KARA ARA20160809093010308/09/16 09:30:31  5-MIN KARA 091530Z 32004KT 10SM CLR 32/24 A2997 -10 65 1900 320/04 RMK AO2 T03170244
53915KARA ARA20160809093510308/09/16 09:35:31  5-MIN KARA 091535Z VRB03KT 10SM CLR 32/25 A2997 -20 67 1900 VRB/03 RMK AO2 T03170250
53915KARA ARA20160809094011308/09/16 09:40:31  5-MIN KARA 091540Z 00000KT 10SM FEW025 FEW037 32/24 A2997 -10 65 1900 000/00 RMK AO2 T03170244
53915KARA ARA20160809094511308/09/16 09:45:31  5-MIN KARA 091545Z 34004KT 10SM FEW025 SCT065 32/24 A2997 -10 65 1900 340/04 RMK AO2 T03170244
53915KARA ARA20160809095012008/09/16 09:50:31  5-MIN KARA 091550Z 34003KT 10SM FEW025 SCT065 32/24 A2997 -10 65 1900 330/03 RMK AO2 SLP147 T03170244
53915KARA ARA20160809095511308/09/16 09:55:31  5-MIN KARA 091555Z 31004KT 10SM FEW025 FEW065 32/25 A2997 -10 67 1900 310/04 RMK AO2 T03170250
53915KARA ARA20160809100011308/09/16 10:00:31  5-MIN KARA 091600Z VRB03KT 10SM FEW025 SCT070 32/25 A2997 -10 65 2000 VRB/03 RMK AO2 T03220250
53915KARA ARA20160809100511308/09/16 10:05:31  5-MIN KARA 091605Z 00000KT 10SM FEW025 SCT070 32/25 A2996 -10 67 1900 000/00 RMK AO2 T03170250
53915KARA ARA20160809101010608/09/16 10:10:31  5-MIN KARA 091610Z VRB03KT 10SM FEW065 33/25 A2996 -10 63 2100 VRB/03 RMK AO2 T03280250
53915KARA ARA20160809101510608/09/16 10:15:31  5-MIN KARA 091615Z 35005KT 10SM FEW070 33/24 A2997 -10 61 2100 350/05 RMK AO2 T03280244
53915KARA ARA20160809102010608/09/16 10:20:31  5-MIN KARA 091620Z 34004KT 10SM FEW070 33/25 A2996 -10 61 2100 330/04 RMK AO2 T03330250
53915KARA ARA20160809102510608/09/16 10:25:31  5-MIN KARA 091625Z 33003KT 10SM FEW065 33/25 A2996 -10 63 2100 320/03 RMK AO2 T03280250
53915KARA ARA20160809103010408/09/16 10:30:31  5-MIN KARA 091630Z 32004KT 10SM FEW035 33/25 A2996 0 63 2100 320/04 RMK AO2 T03280250
53915KARA ARA20160809103511808/09/16 10:35:31  5-MIN KARA 091635Z 29004KT 10SM FEW029 SCT035 SCT042 32/24 A2996 0 63 2000 280/04 RMK AO2 T03220244
53915KARA ARA20160809104011808/09/16 10:40:31  5-MIN KARA 091640Z 27003KT 10SM FEW029 BKN038 BKN065 32/24 A2996 0 65 1900 270/03 RMK AO2 T03170244
53915KARA ARA20160809104511808/09/16 10:45:31  5-MIN KARA 091645Z 31003KT 10SM SCT031 BKN040 BKN065 31/24 A2996 0 67 1900 310/03 RMK AO2 T03110244
53915KARA ARA20160809105013608/09/16 10:50:31  5-MIN KARA 091650Z 32004KT 10SM FEW031 SCT035 BKN110 32/24 A2996 0 65 1900 320/04 RMK AO2 LTG DSNT S SLP143 T03170244
53915KARA ARA20160809105512908/09/16 10:55:31  5-MIN KARA 091655Z 35004KT 10SM FEW030 SCT040 BKN110 33/24 A2995 0 61 2100 340/04 RMK AO2 LTG DSNT S T03280244
53915KARA ARA20160809110012908/09/16 11:00:31  5-MIN KARA 091700Z 27006KT 10SM FEW030 BKN038 BKN110 33/25 A2995 0 61 2100 270/06 RMK AO2 LTG DSNT S T03330250
53915KARA ARA20160809110512208/09/16 11:05:31  5-MIN KARA 091705Z VRB05KT 10SM BKN036 BKN110 32/24 A2995 0 63 2000 VRB/05 RMK AO2 LTG DSNT S T03220244
53915KARA ARA20160809111012908/09/16 11:10:31  5-MIN KARA 091710Z 27005KT 10SM BKN036 BKN044 BKN110 33/24 A2995 0 59 2100 270/05 RMK AO2 LTG DSNT S T03280239
53915KARA ARA20160809111512208/09/16 11:15:31  5-MIN KARA 091715Z 29003KT 10SM SCT036 BKN045 33/24 A2995 0 59 2100 290/03 RMK AO2 LTG DSNT S T03280239
53915KARA ARA20160809112012208/09/16 11:20:31  5-MIN KARA 091720Z VRB05KT 10SM SCT036 BKN045 33/24 A2995 0 61 2100 VRB/05 RMK AO2 LTG DSNT S T03280244
53915KARA ARA20160809112512208/09/16 11:25:31  5-MIN KARA 091725Z VRB04KT 10SM BKN036 BKN045 33/24 A2995 0 59 2100 VRB/04 RMK AO2 LTG DSNT S T03330244
53915KARA ARA20160809113012208/09/16 11:30:31  5-MIN KARA 091730Z 31004KT 10SM BKN036 BKN047 32/25 A2995 0 65 2000 310/04 RMK AO2 LTG DSNT S T03220250
53915KARA ARA20160809113512908/09/16 11:35:31  5-MIN KARA 091735Z 33003KT 10SM BKN036 BKN045 BKN055 32/24 A2995 0 63 2000 330/03 RMK AO2 LTG DSNT S T03220244
53915KARA ARA20160809114012908/09/16 11:40:31  5-MIN KARA 091740Z 32006KT 10SM SCT036 BKN049 BKN060 32/24 A2995 0 61 2000 320/06 RMK AO2 LTG DSNT S T03220239
53915KARA ARA20160809114512908/09/16 11:45:31  5-MIN KARA 091745Z 29005KT 10SM SCT036 BKN045 BKN060 32/24 A2995 0 63 2000 290/05 RMK AO2 LTG DSNT S T03220244
53915KARA ARA20160809115014308/09/16 11:50:31  5-MIN KARA 091750Z VRB04KT 10SM SCT036 BKN045 BKN060 33/25 A2995 0 63 2100 VRB/04 RMK AO2 SLP140 T03280250 10333 20250 51016
53915KARA ARA20160809115511808/09/16 11:55:31  5-MIN KARA 091755Z 23007KT 10SM SCT036 SCT043 BKN055 33/26 A2994 0 65 2100 230/07 RMK AO2 T03280256
53915KARA ARA20160809120013008/09/16 12:00:31  5-MIN KARA 091800Z 22008KT 10SM SCT036 BKN043 BKN055 32/25 A2994 10 65 2000 220/08 RMK AO2 LTG DSNT N T03220250
53915KARA ARA20160809120512308/09/16 12:05:31  5-MIN KARA 091805Z 20011KT 10SM BKN036 BKN046 30/24 A2994 10 72 1800 200/11 RMK AO2 LTG DSNT N T03000244
53915KARA ARA20160809121012208/09/16 12:10:31  5-MIN KARA 091810Z 21007KT 10SM BKN036 30/24 A2994 10 72 1800 210/07 RMK AO2 LTG DSNT N AND S T03000244
53915KARA ARA20160809121512308/09/16 12:15:31  5-MIN KARA 091815Z 21006KT 10SM BKN036 BKN043 31/24 A2994 10 69 1800 210/06 RMK AO2 LTG DSNT S T03060244
53915KARA ARA20160809122011508/09/16 12:20:31  5-MIN KARA 091820Z 23006KT 10SM BKN036 31/24 A2994 0 69 1800 230/06 RMK AO2 LTG DSNT S T03060244
53915KARA ARA20160809122511108/09/16 12:25:31  5-MIN KARA 091825Z 23007KT 10SM BKN036 BKN046 31/24 A2995 0 69 1800 230/07 RMK AO2 T03060244
53915KARA ARA20160809123011108/09/16 12:30:31  5-MIN KARA 091830Z 23009KT 10SM BKN036 BKN048 29/25 A2995 0 76 1700 230/09 RMK AO2 T02940250
53915KARA ARA20160809123513208/09/16 12:35:31  5-MIN KARA 091835Z 22009KT 10SM TS BKN036 BKN065 29/23 A2994 10 69 1600 220/09 RMK AO2 LTG DSNT S TSB32 T02890228
53915KARA ARA20160809124014608/09/16 12:40:31  5-MIN KARA 091840Z 22009KT 10SM TS SCT036 SCT045 BKN065 29/22 A2994 10 67 1600 220/09 RMK AO2 LTG DSNT S AND SW TSB32 T02890222
53915KARA ARA20160809124513808/09/16 12:45:31  5-MIN KARA 091845Z 23007KT 10SM TS BKN036 BKN060 28/22 A2994 0 66 1600 220/07 RMK AO2 LTG DSNT S AND SW TSB32 T02830217
53915KARA ARA20160809125013508/09/16 12:50:31  5-MIN KARA 091850Z 26006G17KT 10SM BKN038 BKN044 BKN060 28/23 A2995 0 71 1600 260/06G17 RMK AO2 LTG DSNT SW TSB32E47
53915KARA ARA20160809125513308/09/16 12:55:31  5-MIN KARA 091855Z 29012G17KT 8SM -RA BKN038 BKN060 28/22 A2994 10 69 1600 290/12G17 RMK AO2 RAB54 P0001 T02830222
53915KARA ARA20160809130014108/09/16 13:00:31  5-MIN KARA 091900Z 29006G17KT 5SM RA SCT038 BKN046 BKN060 28/22 A2994 10 69 1600 290/06G17 RMK AO2 RAB1854 P0002 T02830222
53915KARA ARA20160809130514808/09/16 13:05:31  5-MIN KARA 091905Z 35004KT 6SM -RA SCT034 BKN048 BKN075 28/24 A2993 20 76 1600 350/04 RMK AO2 LTG DSNT SW RAB1854 P0002 T02830239
53915KARA ARA20160809131015508/09/16 13:10:31  5-MIN KARA 091910Z 00000KT 10SM -RA SCT033 SCT042 BKN055 29/24 A2993 20 74 1700 000/00 RMK AO2 LTG DSNT SW AND W RAB1854 P0002 T02940244
53915KARA ARA20160809131514308/09/16 13:15:31  5-MIN KARA 091915Z 24003KT 10SM FEW034 SCT043 30/24 A2993 20 72 1800 240/03 RMK AO2 LTG DSNT SE-W RAB1854E12 P0002 T03000244
53915KARA ARA20160809132014708/09/16 13:20:31  5-MIN KARA 091920Z VRB03KT 10SM FEW036 FEW049 31/24 A2993 20 69 1800 VRB/03 RMK AO2 LTG DSNT SE AND W RAB1854E12 P0002 T03060244
53915KARA ARA20160809132514408/09/16 13:25:31  5-MIN KARA 091925Z 28007KT 10SM FEW037 SCT110 31/25 A2993 20 69 1900 280/07 RMK AO2 LTG DSNT SE-SW RAB1854E12 P0002 T03110250
53915KARA ARA20160809133015108/09/16 13:30:31  5-MIN KARA 091930Z 31007KT 10SM -RA FEW040 FEW110 31/25 A2992 20 69 1900 310/07 RMK AO2 LTG DSNT SE-SW RAB1854E12B30 P0002 T03110250
53915KARA ARA20160809133514408/09/16 13:35:31  5-MIN KARA 091935Z 29009KT 10SM -RA FEW100 30/24 A2992 20 69 1800 290/09 RMK AO2 LTG DSNT SE-SW RAB1854E12B30 P0002 T03000239
53915KARA ARA20160809134014408/09/16 13:40:31  5-MIN KARA 091940Z 28009KT 10SM -RA FEW100 30/23 A2992 20 67 1800 280/09 RMK AO2 LTG DSNT SE-SW RAB1854E12B30 P0002 T03000233
53915KARA ARA20160809134515408/09/16 13:45:31  5-MIN KARA 091945Z 24004KT 10SM -RA FEW038 SCT110 29/24 A2992 30 71 1700 240/04 RMK AO2 LTG DSNT S AND SW RAB1854E12B30 P0002 T02940239
53915KARA ARA20160809135014808/09/16 13:50:31  5-MIN KARA 091950Z AUTO 25003KT 10SM VCTS -RA FEW040 BKN110 30/24 A2991 40 72 1800 250/03 RMK AO2 LTG DSNT SW RAB1854E12B30 P0002
53915KARA ARA20160809135514408/09/16 13:55:31  5-MIN KARA 091955Z AUTO 28004KT 10SM VCTS -RA FEW048 SCT110 31/24 A2991 30 67 1900 280/04 RMK AO2 LTG DSNT SW P0000 T03110244
53915KARA ARA20160809140016208/09/16 14:00:31  5-MIN KARA 092000Z AUTO 32006KT 10SM TS FEW050 FEW095 FEW110 32/24 A2992 30 63 2000 320/06 RMK AO2 LTG DSNT S-W RAE1958 TSB1958 P0000 T03220244
53915KARA ARA20160809140515508/09/16 14:05:31  5-MIN KARA 092005Z AUTO 30007KT 10SM TS FEW048 FEW110 32/24 A2991 30 65 2000 300/07 RMK AO2 LTG DSNT S-W RAE1958 TSB1958 P0000 T03170244
53915KARA ARA20160809141015508/09/16 14:10:31  5-MIN KARA 092010Z AUTO 28005KT 10SM TS FEW048 FEW110 31/24 A2991 30 67 1900 280/05 RMK AO2 LTG DSNT S-W RAE1958 TSB1958 P0000 T03110244
53915KARA ARA20160809141514808/09/16 14:15:31  5-MIN KARA 092015Z AUTO 26006KT 10SM TS FEW048 31/24 A2992 30 67 1900 260/06 RMK AO2 LTG DSNT S-W RAE1958 TSB1958 P0000 T03110244
53915KARA ARA20160809142015608/09/16 14:20:31  5-MIN KARA 092020Z AUTO 26012G17KT 10SM VCTS CLR 31/25 A2992 30 72 1900 260/12G17 RMK AO2 LTG DSNT S-W RAE1958 TSB1958E18 P0000 T03060250
53915KARA ARA20160809142515908/09/16 14:25:31  5-MIN KARA 092025Z AUTO 25011G17KT 10SM VCTS FEW060 30/24 A2992 30 72 1800 250/11G17 RMK AO2 LTG DSNT S-W RAE1958 TSB1958E18 P0000 T03000244
53915KARA ARA20160809143016508/09/16 14:30:31  5-MIN KARA 092030Z AUTO 24011KT 10SM VCTS FEW046 FEW060 29/24 A2992 20 74 1700 240/11 RMK AO2 LTG DSNT S AND SW RAE1958 TSB1958E18 P0000 T02940244
53915KARA ARA20160809143515208/09/16 14:35:31  5-MIN KARA 092035Z AUTO 25010KT 10SM VCTS SCT044 28/24 A2992 20 79 1600 250/10 RMK AO2 LTG DSNT SW RAE1958 TSB1958E18 P0000 T02830244
53915KARA ARA20160809144015208/09/16 14:40:31  5-MIN KARA 092040Z AUTO 26009KT 10SM VCTS BKN042 28/25 A2992 30 84 1500 260/09 RMK AO2 LTG DSNT SW RAE1958 TSB1958E18 P0000 T02780250
53915KARA ARA20160809144515908/09/16 14:45:31  5-MIN KARA 092045Z AUTO 27010KT 10SM VCTS SCT036 BKN044 28/24 A2991 30 82 1600 270/10 RMK AO2 LTG DSNT SW RAE1958 TSB1958E18 P0000 T02780244
53915KARA ARA20160809145019708/09/16 14:50:31  5-MIN KARA 092050Z AUTO 28006G14KT 10SM VCTS SCT036 BKN044 BKN055 28/24 A2991 40 82 1600 280/06G14 RMK AO2 LTG DSNT SW AND W RAE1958 TSB1958E18 SLP126 P0000 60002 T02780244 58006
53915KARA ARA20160809145515208/09/16 14:55:31  5-MIN KARA 092055Z AUTO 29010KT 9SM VCTS FEW036 BKN045 BKN055 27/24 A2991 40 82 1500 290/10 RMK AO2 LTG DSNT SW AND W P0001 T02720239
53915KARA ARA20160809150015608/09/16 15:00:31  5-MIN KARA 092100Z AUTO 28006KT 5SM RA SCT039 BKN055 OVC095 27/24 A2990 40 84 1400 280/06 RMK AO2 LTG DSNT SW AND W RAB00 P0001 T02670239
53915KARA ARA20160809150515908/09/16 15:05:31  5-MIN KARA 092105Z AUTO 24007KT 3SM RA BR FEW037 BKN070 OVC090 26/24 A2990 50 87 1400 240/07 RMK AO2 LTG DSNT SW AND W RAB00 P0003 T02610239
53915KARA ARA20160809151016008/09/16 15:10:31  5-MIN KARA 092110Z AUTO 00000KT 3SM +RA BR FEW035 BKN070 OVC090 26/24 A2991 40 90 1400 000/00 RMK AO2 LTG DSNT SW AND W RAB00 P0005 T02610244
53915KARA ARA20160809151515508/09/16 15:15:31  5-MIN KARA 092115Z AUTO 34005KT 5SM -RA BR SCT055 BKN070 OVC090 27/24 A2990 40 87 1400 340/05 RMK AO2 LTG DSNT S-W RAB00 P0005 T02670244
53915KARA ARA20160809152015208/09/16 15:20:31  5-MIN KARA 092120Z AUTO 33003KT 10SM FEW055 BKN065 BKN090 27/24 A2990 50 87 1400 330/03 RMK AO2 LTG DSNT S-W RAB00E20 P0005 T02670244
53915KARA ARA20160809152515208/09/16 15:25:31  5-MIN KARA 092125Z AUTO 28003KT 10SM SCT060 BKN075 BKN090 27/24 A2990 50 84 1500 280/03 RMK AO2 LTG DSNT S-W RAB00E20 P0005 T02720244
53915KARA ARA20160809153015708/09/16 15:30:31  5-MIN KARA 092130Z AUTO 23004KT 10SM FEW055 SCT065 BKN080 27/24 A2990 50 84 1500 230/04 RMK AO2 LTG DSNT SW AND W RAB00E20 P0005 T02720244
53915KARA ARA20160809153515708/09/16 15:35:31  5-MIN KARA 092135Z AUTO 21004KT 10SM FEW060 SCT075 BKN100 27/25 A2990 40 87 1500 210/04 RMK AO2 LTG DSNT SW AND W RAB00E20 P0005 T02720250
53915KARA ARA20160809154015708/09/16 15:40:31  5-MIN KARA 092140Z AUTO 19004KT 10SM SCT065 SCT075 BKN100 27/25 A2991 40 87 1500 190/04 RMK AO2 LTG DSNT SW AND W RAB00E20 P0005 T02720250
53915KARA ARA20160809154515708/09/16 15:45:31  5-MIN KARA 092145Z AUTO 19004KT 10SM FEW055 BKN070 BKN100 27/25 A2991 40 87 1500 190/04 RMK AO2 LTG DSNT SW AND W RAB00E20 P0005 T02720250
53915KARA ARA20160809155015708/09/16 15:50:31  5-MIN KARA 092150Z AUTO 19004KT 10SM BKN075 BKN100 27/25 A2991 40 87 1500 190/04 RMK AO2 LTG DSNT SW AND W RAB00E20 SLP127 P0005 T02720250
53915KARA ARA20160809155514208/09/16 15:55:31  5-MIN KARA 092155Z AUTO 19003KT 10SM FEW065 BKN080 OVC100 27/25 A2991 40 87 1500 190/03 RMK AO2 LTG DSNT SW AND W T02720250
53915KARA ARA20160809160014208/09/16 16:00:31  5-MIN KARA 092200Z AUTO 00000KT 10SM BKN080 BKN090 BKN110 28/25 A2991 40 84 1600 000/00 RMK AO2 LTG DSNT SW AND W T02780250
53915KARA ARA20160809160513508/09/16 16:05:31  5-MIN KARA 092205Z AUTO 00000KT 10SM SCT075 BKN085 28/25 A2991 40 84 1600 000/00 RMK AO2 LTG DSNT SW AND W T02780250
53915KARA ARA20160809161012908/09/16 16:10:31  5-MIN KARA 092210Z AUTO 00000KT 10SM FEW065 SCT080 28/25 A2991 40 84 1600 000/00 RMK AO2 LTG DSNT SW T02780250
53915KARA ARA20160809161512208/09/16 16:15:31  5-MIN KARA 092215Z AUTO 00000KT 10SM SCT080 28/24 A2991 40 82 1600 000/00 RMK AO2 LTG DSNT SW T02780244
53915KARA ARA20160809162012208/09/16 16:20:31  5-MIN KARA 092220Z AUTO 00000KT 10SM FEW085 28/24 A2990 40 82 1600 000/00 RMK AO2 LTG DSNT SW T02780244
53915KARA ARA20160809162511008/09/16 16:25:31  5-MIN KARA 092225Z AUTO 24004KT 10SM FEW085 28/25 A2990 40 84 1600 240/04 RMK AO2 T02780250
53915KARA ARA20160809163010708/09/16 16:30:31  5-MIN KARA 092230Z AUTO 25008KT 10SM CLR 28/25 A2990 40 84 1600 240/08 RMK AO2 T02780250
53915KARA ARA20160809163510708/09/16 16:35:31  5-MIN KARA 092235Z AUTO 25008KT 10SM CLR 27/25 A2990 50 87 1500 250/08 RMK AO2 T02720250
53915KARA ARA20160809164010708/09/16 16:40:31  5-MIN KARA 092240Z AUTO 26007KT 10SM CLR 27/25 A2990 50 87 1500 260/07 RMK AO2 T02720250
53915KARA ARA20160809164510708/09/16 16:45:31  5-MIN KARA 092245Z AUTO 27005KT 10SM CLR 27/25 A2990 50 87 1500 260/05 RMK AO2 T02720250
53915KARA ARA20160809165012608/09/16 16:50:31  5-MIN KARA 092250Z AUTO 25005KT 10SM CLR 27/24 A2990 50 87 1400 250/05 RMK AO2 LTG DSNT SW SLP124 T02670244
53915KARA ARA20160809165511908/09/16 16:55:31  5-MIN KARA 092255Z AUTO 24005KT 10SM CLR 27/24 A2990 50 87 1400 240/05 RMK AO2 LTG DSNT SW T02670244
53915KARA ARA20160809170011408/09/16 17:00:31  5-MIN KARA 092300Z 24006KT 10SM CLR 27/24 A2990 40 87 1400 240/06 RMK AO2 LTG DSNT SW T02670244
53915KARA ARA20160809170510208/09/16 17:05:31  5-MIN KARA 092305Z 23004KT 10SM CLR 27/24 A2991 40 87 1400 230/04 RMK AO2 T02670244
53915KARA ARA20160809171010208/09/16 17:10:31  5-MIN KARA 092310Z 24005KT 10SM CLR 27/24 A2991 40 87 1400 240/05 RMK AO2 T02670244
53915KARA ARA20160809171510208/09/16 17:15:31  5-MIN KARA 092315Z 26005KT 10SM CLR 27/24 A2990 40 87 1400 260/05 RMK AO2 T02670244
53915KARA ARA20160809172010208/09/16 17:20:31  5-MIN KARA 092320Z 25004KT 10SM CLR 27/24 A2991 40 87 1400 250/04 RMK AO2 T02670244
53915KARA ARA20160809172510208/09/16 17:25:31  5-MIN KARA 092325Z 20003KT 10SM CLR 27/24 A2991 40 87 1400 200/03 RMK AO2 T02670244
53915KARA ARA20160809173010208/09/16 17:30:31  5-MIN KARA 092330Z 23003KT 10SM CLR 27/24 A2990 40 87 1400 230/03 RMK AO2 T02670244
53915KARA ARA20160809173510208/09/16 17:35:31  5-MIN KARA 092335Z 00000KT 10SM CLR 27/24 A2990 50 84 1400 000/00 RMK AO2 T02670239
53915KARA ARA20160809174010208/09/16 17:40:31  5-MIN KARA 092340Z 00000KT 10SM CLR 27/24 A2990 40 87 1400 000/00 RMK AO2 T02670244
53915KARA ARA20160809174510208/09/16 17:45:31  5-MIN KARA 092345Z 00000KT 10SM CLR 27/24 A2990 40 87 1400 000/00 RMK AO2 T02670244
53915KARA ARA20160809175013308/09/16 17:50:31  5-MIN KARA 092350Z 00000KT 10SM CLR 27/24 A2990 40 84 1500 000/00 RMK AO2 SLP125 60007 T02720244 10328 20261 58013
53915KARA ARA20160809175510208/09/16 17:55:31  5-MIN KARA 092355Z 15003KT 10SM CLR 27/24 A2990 40 84 1500 150/03 RMK AO2 T02720244
53915KARA ARA20160809180010208/09/16 18:00:31  5-MIN KARA 100000Z 00000KT 10SM CLR 27/24 A2990 40 82 1500 000/00 RMK AO2 T02720239
53915KARA ARA20160809180510208/09/16 18:05:31  5-MIN KARA 100005Z 21003KT 10SM CLR 27/24 A2990 50 82 1500 210/03 RMK AO2 T02720239
53915KARA ARA20160809181010208/09/16 18:10:31  5-MIN KARA 100010Z 00000KT 10SM CLR 27/24 A2990 50 87 1400 000/00 RMK AO2 T02670244
53915KARA ARA20160809181511408/09/16 18:15:31  5-MIN KARA 100015Z 17003KT 10SM CLR 27/24 A2990 50 87 1400 170/03 RMK AO2 LTG DSNT NE T02670244
53915KARA ARA20160809182011408/09/16 18:20:31  5-MIN KARA 100020Z 00000KT 10SM CLR 27/24 A2990 40 87 1400 000/00 RMK AO2 LTG DSNT NE T02670244
53915KARA ARA20160809182511408/09/16 18:25:31  5-MIN KARA 100025Z 18003KT 10SM CLR 27/24 A2990 40 87 1400 180/03 RMK AO2 LTG DSNT NE T02670244
53915KARA ARA20160809183010208/09/16 18:30:31  5-MIN KARA 100030Z 16003KT 10SM CLR 27/24 A2990 40 87 1400 160/03 RMK AO2 T02670244
53915KARA ARA20160809183510208/09/16 18:35:31  5-MIN KARA 100035Z 00000KT 10SM CLR 27/24 A2990 40 87 1400 000/00 RMK AO2 T02670244
53915KARA ARA20160809184010208/09/16 18:40:31  5-MIN KARA 100040Z 00000KT 10SM CLR 27/24 A2991 40 87 1400 000/00 RMK AO2 T02670244
53915KARA ARA20160809184510208/09/16 18:45:31  5-MIN KARA 100045Z 00000KT 10SM CLR 27/24 A2991 40 84 1500 000/00 RMK AO2 T02720244
53915KARA ARA20160809185010908/09/16 18:50:31  5-MIN KARA 100050Z 00000KT 10SM CLR 27/24 A2990 40 84 1500 000/00 RMK AO2 SLP126 T02720244
53915KARA ARA20160809185510208/09/16 18:55:31  5-MIN KARA 100055Z 10003KT 10SM CLR 27/24 A2991 40 87 1400 090/03 RMK AO2 T02670244
53915KARA ARA20160809190010208/09/16 19:00:31  5-MIN KARA 100100Z 00000KT 10SM CLR 27/24 A2991 40 87 1400 000/00 RMK AO2 T02670244
53915KARA ARA20160809190510208/09/16 19:05:31  5-MIN KARA 100105Z 00000KT 10SM CLR 27/24 A2991 40 87 1400 000/00 RMK AO2 T02670244
53915KARA ARA20160809191010208/09/16 19:10:31  5-MIN KARA 100110Z 00000KT 10SM CLR 27/24 A2991 40 87 1400 000/00 RMK AO2 T02670244
53915KARA ARA20160809191510208/09/16 19:15:31  5-MIN KARA 100115Z 00000KT 10SM CLR 27/24 A2991 40 87 1400 000/00 RMK AO2 T02670244
53915KARA ARA20160809192010208/09/16 19:20:31  5-MIN KARA 100120Z 05005KT 10SM CLR 27/24 A2991 40 84 1400 050/05 RMK AO2 T02670239
53915KARA ARA20160809192510208/09/16 19:25:31  5-MIN KARA 100125Z 06007KT 10SM CLR 27/24 A2991 30 84 1400 050/07 RMK AO2 T02670239
53915KARA ARA20160809193010208/09/16 19:30:31  5-MIN KARA 100130Z 08007KT 10SM CLR 27/24 A2991 30 84 1400 080/07 RMK AO2 T02670239
53915KARA ARA20160809193511808/09/16 19:35:31  5-MIN KARA 100135Z 09004KT 10SM -RA CLR 27/24 A2991 30 87 1400 090/04 RMK AO2 RAB31 P0000 T02670244
53915KARA ARA20160809194011708/09/16 19:40:31  5-MIN KARA 100140Z 08005KT 10SM CLR 27/24 A2991 30 87 1400 080/05 RMK AO2 RAB31E38 P0000 T02670244
53915KARA ARA20160809194512208/09/16 19:45:31  5-MIN KARA 100145Z AUTO 09006KT 10SM CLR 27/24 A2992 30 87 1400 090/06 RMK AO2 RAB31E38 P0000 T02670244
53915KARA ARA20160809195012908/09/16 19:50:31  5-MIN KARA 100150Z AUTO 10004KT 10SM CLR 27/24 A2992 30 84 1400 100/04 RMK AO2 RAB31E38 SLP131 P0000 T02670239
53915KARA ARA20160809195510708/09/16 19:55:31  5-MIN KARA 100155Z AUTO 12003KT 10SM CLR 27/24 A2992 20 87 1400 120/03 RMK AO2 T02670244
53915KARA ARA20160809200010708/09/16 20:00:31  5-MIN KARA 100200Z AUTO 00000KT 10SM CLR 26/24 A2993 20 90 1400 000/00 RMK AO2 T02610244
53915KARA ARA20160809200510708/09/16 20:05:31  5-MIN KARA 100205Z AUTO 00000KT 10SM CLR 27/24 A2993 20 87 1400 000/00 RMK AO2 T02670244
53915KARA ARA20160809201010708/09/16 20:10:31  5-MIN KARA 100210Z AUTO 00000KT 10SM CLR 27/24 A2993 20 87 1400 000/00 RMK AO2 T02670244
53915KARA ARA20160809201510708/09/16 20:15:31  5-MIN KARA 100215Z AUTO 00000KT 10SM CLR 26/24 A2993 20 90 1300 000/00 RMK AO2 T02610244
53915KARA ARA20160809202010708/09/16 20:20:31  5-MIN KARA 100220Z AUTO 00000KT 10SM CLR 27/24 A2994 10 87 1400 000/00 RMK AO2 T02670244
53915KARA ARA20160809202510708/09/16 20:25:31  5-MIN KARA 100225Z AUTO 00000KT 10SM CLR 26/24 A2994 10 90 1300 000/00 RMK AO2 T02610244
53915KARA ARA20160809203010708/09/16 20:30:31  5-MIN KARA 100230Z AUTO 00000KT 10SM CLR 26/24 A2994 10 93 1300 000/00 RMK AO2 T02560244
53915KARA ARA20160809203510708/09/16 20:35:31  5-MIN KARA 100235Z AUTO 31003KT 10SM CLR 26/24 A2994 10 90 1300 310/03 RMK AO2 T02610244
53915KARA ARA20160809204010608/09/16 20:40:31  5-MIN KARA 100240Z AUTO 00000KT 10SM CLR 26/24 A2995 0 90 1300 000/00 RMK AO2 T02610244
53915KARA ARA20160809204510608/09/16 20:45:31  5-MIN KARA 100245Z AUTO 00000KT 10SM CLR 26/25 A2995 0 93 1300 000/00 RMK AO2 T02610250
53915KARA ARA20160809205012508/09/16 20:50:31  5-MIN KARA 100250Z AUTO 00000KT 10SM CLR 26/24 A2995 0 93 1300 000/00 RMK AO2 SLP140 60000 T02560244 57001
53915KARA ARA20160809205510608/09/16 20:55:31  5-MIN KARA 100255Z AUTO 00000KT 10SM CLR 26/24 A2995 0 93 1300 000/00 RMK AO2 T02560244
53915KARA ARA20160809210010608/09/16 21:00:31  5-MIN KARA 100300Z AUTO 00000KT 10SM CLR 27/24 A2995 0 87 1400 000/00 RMK AO2 T02670244
53915KARA ARA20160809210510608/09/16 21:05:31  5-MIN KARA 100305Z AUTO 00000KT 10SM CLR 26/24 A2995 0 90 1300 000/00 RMK AO2 T02610244
53915KARA ARA20160809211010608/09/16 21:10:31  5-MIN KARA 100310Z AUTO 26003KT 10SM CLR 26/24 A2995 0 90 1300 260/03 RMK AO2 T02610244
53915KARA ARA20160809211510608/09/16 21:15:31  5-MIN KARA 100315Z AUTO 27004KT 10SM CLR 26/24 A2996 0 90 1300 270/04 RMK AO2 T02610244
53915KARA ARA20160809212010608/09/16 21:20:31  5-MIN KARA 100320Z AUTO 29003KT 10SM CLR 26/24 A2996 0 90 1300 290/03 RMK AO2 T02610244
53915KARA ARA20160809212510608/09/16 21:25:31  5-MIN KARA 100325Z AUTO 29003KT 10SM CLR 26/24 A2995 0 93 1300 290/03 RMK AO2 T02560244
53915KARA ARA20160809213010508/09/16 21:30:31  5-MIN KARA 100330Z AUTO 28004KT 9SM CLR 26/24 A2995 0 90 1300 280/04 RMK AO2 T02610244
53915KARA ARA20160809213510508/09/16 21:35:31  5-MIN KARA 100335Z AUTO 29003KT 9SM CLR 26/25 A2995 0 93 1300 290/03 RMK AO2 T02610250
53915KARA ARA20160809214010508/09/16 21:40:31  5-MIN KARA 100340Z AUTO 30004KT 9SM CLR 26/25 A2996 0 97 1300 300/04 RMK AO2 T02560250
53915KARA ARA20160809214510708/09/16 21:45:31  5-MIN KARA 100345Z AUTO 30004KT 9SM CLR 26/24 A2996 -10 93 1200 300/04 RMK AO2 T02560244
53915KARA ARA20160809215011408/09/16 21:50:31  5-MIN KARA 100350Z AUTO 30003KT 8SM CLR 26/24 A2996 -10 93 1200 290/03 RMK AO2 SLP145 T02560244
53915KARA ARA20160809215510708/09/16 21:55:31  5-MIN KARA 100355Z AUTO 33003KT 8SM CLR 26/24 A2996 -10 93 1200 330/03 RMK AO2 T02560244
53915KARA ARA20160809220010708/09/16 22:00:31  5-MIN KARA 100400Z AUTO 34003KT 8SM CLR 26/24 A2996 -10 93 1200 330/03 RMK AO2 T02560244
53915KARA ARA20160809220510708/09/16 22:05:31  5-MIN KARA 100405Z AUTO 33003KT 8SM CLR 26/24 A2996 -10 93 1300 330/03 RMK AO2 T02560244
53915KARA ARA20160809221010508/09/16 22:10:31  5-MIN KARA 100410Z AUTO 00000KT 9SM CLR 26/25 A2996 0 97 1300 000/00 RMK AO2 T02560250
53915KARA ARA20160809221510508/09/16 22:15:31  5-MIN KARA 100415Z AUTO 00000KT 9SM CLR 26/25 A2996 0 97 1300 000/00 RMK AO2 T02560250
53915KARA ARA20160809222010508/09/16 22:20:31  5-MIN KARA 100420Z AUTO 00000KT 8SM CLR 26/24 A2996 0 93 1300 000/00 RMK AO2 T02560244
53915KARA ARA20160809222510508/09/16 22:25:31  5-MIN KARA 100425Z AUTO 00000KT 8SM CLR 26/24 A2995 0 93 1300 000/00 RMK AO2 T02560244
53915KARA ARA20160809223010508/09/16 22:30:31  5-MIN KARA 100430Z AUTO 00000KT 8SM CLR 26/24 A2996 0 93 1300 000/00 RMK AO2 T02560244
53915KARA ARA20160809223510508/09/16 22:35:31  5-MIN KARA 100435Z AUTO 00000KT 8SM CLR 26/24 A2996 0 93 1300 000/00 RMK AO2 T02560244
53915KARA ARA20160809224010508/09/16 22:40:31  5-MIN KARA 100440Z AUTO 00000KT 8SM CLR 26/24 A2996 0 93 1300 000/00 RMK AO2 T02560244
53915KARA ARA20160809224510508/09/16 22:45:31  5-MIN KARA 100445Z AUTO 00000KT 8SM CLR 26/24 A2995 0 93 1300 000/00 RMK AO2 T02560244
53915KARA ARA20160809225011208/09/16 22:50:31  5-MIN KARA 100450Z AUTO 00000KT 8SM CLR 26/24 A2995 0 93 1300 000/00 RMK AO2 SLP142 T02560244
53915KARA ARA20160809225510508/09/16 22:55:31  5-MIN KARA 100455Z AUTO 00000KT 8SM CLR 26/24 A2995 0 93 1300 000/00 RMK AO2 T02560244
53915KARA ARA20160809230010508/09/16 23:00:31  5-MIN KARA 100500Z AUTO 00000KT 8SM CLR 26/24 A2995 0 93 1300 000/00 RMK AO2 T02560244
53915KARA ARA20160809230510508/09/16 23:05:31  5-MIN KARA 100505Z AUTO 00000KT 9SM CLR 26/24 A2995 0 93 1300 000/00 RMK AO2 T02560244
53915KARA ARA20160809231010508/09/16 23:10:31  5-MIN KARA 100510Z AUTO 00000KT 8SM CLR 26/24 A2995 0 93 1300 000/00 RMK AO2 T02560244
53915KARA ARA20160809231510508/09/16 23:15:31  5-MIN KARA 100515Z AUTO 00000KT 7SM CLR 25/24 A2995 0 97 1200 000/00 RMK AO2 T02500244
53915KARA ARA20160809232010508/09/16 23:20:31  5-MIN KARA 100520Z AUTO 00000KT 7SM CLR 26/24 A2996 0 93 1300 000/00 RMK AO2 T02560244
53915KARA ARA20160809232510508/09/16 23:25:31  5-MIN KARA 100525Z AUTO 00000KT 8SM CLR 26/24 A2995 0 93 1300 000/00 RMK AO2 T02560244
53915KARA ARA20160809233010808/09/16 23:30:31  5-MIN KARA 100530Z AUTO 00000KT 8SM FEW070 26/24 A2996 0 93 1300 000/00 RMK AO2 T02560244
53915KARA ARA20160809233510808/09/16 23:35:31  5-MIN KARA 100535Z AUTO 00000KT 8SM FEW070 26/24 A2996 0 93 1300 000/00 RMK AO2 T02560244
53915KARA ARA20160809234010808/09/16 23:40:31  5-MIN KARA 100540Z AUTO 00000KT 8SM FEW070 26/24 A2996 0 93 1300 000/00 RMK AO2 T02560244
53915KARA ARA20160809234510808/09/16 23:45:31  5-MIN KARA 100545Z AUTO 00000KT 8SM FEW065 26/24 A2996 0 93 1300 000/00 RMK AO2 T02560244
53915KARA ARA20160809235014908/09/16 23:50:31  5-MIN KARA 100550Z AUTO 00000KT 9SM SCT065 26/24 A2996 0 93 1300 000/00 RMK AO2 SLP143 60000 T02560244 10272 20250 403330244 53016
53915KARA ARA20160809235510808/09/16 23:55:31  5-MIN KARA 100555Z AUTO 20003KT 9SM SCT065 25/24 A2996 0 97 1200 200/03 RMK AO2 T02500244
53915KARA ARA20160810000010808/10/16 00:00:31  5-MIN KARA 100600Z AUTO 00000KT 8SM FEW065 25/24 A2996 0 97 1200 000/00 RMK AO2 T02500244
53915KARA ARA20160810000510808/10/16 00:05:31  5-MIN KARA 100605Z AUTO 00000KT 7SM FEW065 25/24 A2995 0 97 1200 000/00 RMK AO2 T02500244
53915KARA ARA20160810001010808/10/16 00:10:31  5-MIN KARA 100610Z AUTO 00000KT 8SM FEW065 25/24 A2995 0 97 1200 000/00 RMK AO2 T02500244
53915KARA ARA20160810001510808/10/16 00:15:31  5-MIN KARA 100615Z AUTO 00000KT 7SM FEW065 25/24 A2996 0 97 1200 000/00 RMK AO2 T02500244
53915KARA ARA20160810002010508/10/16 00:20:31  5-MIN KARA 100620Z AUTO 00000KT 7SM CLR 25/24 A2996 0 97 1200 000/00 RMK AO2 T02500244
53915KARA ARA20160810002510508/10/16 00:25:31  5-MIN KARA 100625Z AUTO 00000KT 7SM CLR 25/24 A2995 0 97 1200 000/00 RMK AO2 T02500244
53915KARA ARA20160810003010508/10/16 00:30:31  5-MIN KARA 100630Z AUTO 24003KT 7SM CLR 25/24 A2996 0 97 1200 240/03 RMK AO2 T02500244
53915KARA ARA20160810003510708/10/16 00:35:31  5-MIN KARA 100635Z AUTO 00000KT 8SM CLR 26/24 A2996 -10 93 1300 000/00 RMK AO2 T02560244
53915KARA ARA20160810004010708/10/16 00:40:31  5-MIN KARA 100640Z AUTO 29003KT 8SM CLR 26/24 A2996 -10 93 1200 290/03 RMK AO2 T02560244
53915KARA ARA20160810004510808/10/16 00:45:31  5-MIN KARA 100645Z AUTO 00000KT 8SM FEW065 26/24 A2996 0 93 1300 000/00 RMK AO2 T02560244
53915KARA ARA20160810005011508/10/16 00:50:31  5-MIN KARA 100650Z AUTO 00000KT 8SM SCT065 26/24 A2996 0 93 1300 000/00 RMK AO2 SLP144 T02560244
53915KARA ARA20160810005510808/10/16 00:55:31  5-MIN KARA 100655Z AUTO 00000KT 8SM BKN065 25/24 A2996 0 97 1200 000/00 RMK AO2 T02500244
53915KARA ARA20160810010011508/10/16 01:00:31  5-MIN KARA 100700Z AUTO 26004KT 7SM BKN065 BKN080 26/24 A2995 0 93 1300 260/04 RMK AO2 T02560244
53915KARA ARA20160810010510808/10/16 01:05:31  5-MIN KARA 100705Z AUTO 26005KT 8SM BKN070 25/24 A2995 0 97 1200 260/05 RMK AO2 T02500244
53915KARA ARA20160810011010808/10/16 01:10:31  5-MIN KARA 100710Z AUTO 27004KT 8SM BKN070 26/24 A2995 0 93 1300 270/04 RMK AO2 T02560244
53915KARA ARA20160810011510808/10/16 01:15:31  5-MIN KARA 100715Z AUTO 00000KT 9SM OVC070 26/24 A2995 0 93 1300 000/00 RMK AO2 T02560244
53915KARA ARA20160810012010908/10/16 01:20:31  5-MIN KARA 100720Z AUTO 00000KT 10SM BKN070 26/24 A2995 0 93 1300 000/00 RMK AO2 T02560244
53915KARA ARA20160810012510908/10/16 01:25:31  5-MIN KARA 100725Z AUTO 00000KT 10SM BKN075 26/24 A2995 0 93 1300 000/00 RMK AO2 T02560244
53915KARA ARA20160810013010908/10/16 01:30:31  5-MIN KARA 100730Z AUTO 00000KT 10SM SCT075 26/24 A2994 0 93 1300 000/00 RMK AO2 T02560244
53915KARA ARA20160810013510908/10/16 01:35:31  5-MIN KARA 100735Z AUTO 00000KT 10SM FEW075 26/24 A2994 0 93 1300 000/00 RMK AO2 T02560244
53915KARA ARA20160810014010908/10/16 01:40:31  5-MIN KARA 100740Z AUTO 00000KT 9SM FEW075 26/24 A2994 10 93 1300 000/00 RMK AO2 T02560244
53915KARA ARA20160810014510608/10/16 01:45:31  5-MIN KARA 100745Z AUTO 00000KT 9SM CLR 26/24 A2994 10 93 1300 000/00 RMK AO2 T02560244
53915KARA ARA20160810015011308/10/16 01:50:31  5-MIN KARA 100750Z AUTO 00000KT 9SM CLR 26/24 A2994 10 93 1300 000/00 RMK AO2 SLP138 T02560244
53915KARA ARA20160810015510608/10/16 01:55:31  5-MIN KARA 100755Z AUTO 00000KT 8SM CLR 25/24 A2994 10 97 1200 000/00 RMK AO2 T02500244
53915KARA ARA20160810020010508/10/16 02:00:31  5-MIN KARA 100800Z AUTO 00000KT 8SM CLR 25/24 A2994 0 97 1200 000/00 RMK AO2 T02500244
53915KARA ARA20160810020510508/10/16 02:05:31  5-MIN KARA 100805Z AUTO 00000KT 8SM CLR 26/24 A2994 0 93 1300 000/00 RMK AO2 T02560244
53915KARA ARA20160810021010608/10/16 02:10:31  5-MIN KARA 100810Z AUTO 00000KT 8SM CLR 26/24 A2994 10 93 1300 000/00 RMK AO2 T02560244
53915KARA ARA20160810021510508/10/16 02:15:31  5-MIN KARA 100815Z AUTO 00000KT 8SM CLR 26/24 A2994 0 93 1300 000/00 RMK AO2 T02560244
53915KARA ARA20160810022010508/10/16 02:20:31  5-MIN KARA 100820Z AUTO 00000KT 8SM CLR 25/24 A2994 0 97 1200 000/00 RMK AO2 T02500244
53915KARA ARA20160810022510508/10/16 02:25:31  5-MIN KARA 100825Z AUTO 00000KT 9SM CLR 25/24 A2994 0 93 1200 000/00 RMK AO2 T02500239
53915KARA ARA20160810023010508/10/16 02:30:31  5-MIN KARA 100830Z AUTO 00000KT 9SM CLR 25/24 A2995 0 93 1200 000/00 RMK AO2 T02500239
53915KARA ARA20160810023510508/10/16 02:35:31  5-MIN KARA 100835Z AUTO 12003KT 8SM CLR 25/24 A2995 0 93 1200 120/03 RMK AO2 T02500239
53915KARA ARA20160810024010508/10/16 02:40:31  5-MIN KARA 100840Z AUTO 00000KT 9SM CLR 25/24 A2995 0 93 1200 000/00 RMK AO2 T02500239
53915KARA ARA20160810024510608/10/16 02:45:31  5-MIN KARA 100845Z AUTO 00000KT 10SM CLR 25/24 A2995 0 93 1200 000/00 RMK AO2 T02500239
53915KARA ARA20160810025011808/10/16 02:50:31  5-MIN KARA 100850Z AUTO 00000KT 9SM CLR 25/24 A2995 0 93 1200 000/00 RMK AO2 SLP140 T02500239 51001
53915KARA ARA20160810025510508/10/16 02:55:31  5-MIN KARA 100855Z AUTO 00000KT 9SM CLR 25/24 A2995 0 93 1200 000/00 RMK AO2 T02500239
53915KARA ARA20160810030010508/10/16 03:00:31  5-MIN KARA 100900Z AUTO 00000KT 9SM CLR 25/24 A2995 0 93 1200 000/00 RMK AO2 T02500239
53915KARA ARA20160810030510508/10/16 03:05:31  5-MIN KARA 100905Z AUTO 00000KT 9SM CLR 25/24 A2994 0 93 1200 000/00 RMK AO2 T02500239
53915KARA ARA20160810031010608/10/16 03:10:31  5-MIN KARA 100910Z AUTO 00000KT 10SM CLR 25/24 A2994 0 93 1200 000/00 RMK AO2 T02500239
53915KARA ARA20160810031510608/10/16 03:15:31  5-MIN KARA 100915Z AUTO 00000KT 10SM CLR 25/24 A2994 0 93 1200 000/00 RMK AO2 T02500239
53915KARA ARA20160810032010708/10/16 03:20:31  5-MIN KARA 100920Z AUTO 00000KT 10SM CLR 25/24 A2994 10 93 1200 000/00 RMK AO2 T02500239
53915KARA ARA20160810032510708/10/16 03:25:31  5-MIN KARA 100925Z AUTO 00000KT 10SM CLR 25/24 A2994 10 93 1200 000/00 RMK AO2 T02500239
53915KARA ARA20160810033010608/10/16 03:30:31  5-MIN KARA 100930Z AUTO 00000KT 9SM CLR 25/24 A2994 10 93 1200 000/00 RMK AO2 T02500239
53915KARA ARA20160810033510608/10/16 03:35:31  5-MIN KARA 100935Z AUTO 00000KT 10SM CLR 25/24 A2994 0 93 1200 000/00 RMK AO2 T02500239
53915KARA ARA20160810034010608/10/16 03:40:31  5-MIN KARA 100940Z AUTO 00000KT 10SM CLR 25/24 A2994 0 93 1200 000/00 RMK AO2 T02500239
53915KARA ARA20160810034510708/10/16 03:45:31  5-MIN KARA 100945Z AUTO 00000KT 10SM CLR 25/24 A2994 10 93 1200 000/00 RMK AO2 T02500239
53915KARA ARA20160810035011308/10/16 03:50:31  5-MIN KARA 100950Z AUTO 00000KT 10SM CLR 25/24 A2994 0 93 1200 000/00 RMK AO2 SLP139 T02500239
53915KARA ARA20160810035510508/10/16 03:55:31  5-MIN KARA 100955Z AUTO 00000KT 9SM CLR 26/24 A2995 0 90 1300 000/00 RMK AO2 T02560239
53915KARA ARA20160810040010508/10/16 04:00:31  5-MIN KARA 101000Z AUTO 00000KT 9SM CLR 25/24 A2995 0 93 1200 000/00 RMK AO2 T02500239
53915KARA ARA20160810040510808/10/16 04:05:31  5-MIN KARA 101005Z AUTO 00000KT 8SM FEW041 25/24 A2995 0 97 1200 000/00 RMK AO2 T02500244
53915KARA ARA20160810041010808/10/16 04:10:31  5-MIN KARA 101010Z AUTO 33003KT 7SM SCT041 25/24 A2995 0 93 1200 320/03 RMK AO2 T02500239
53915KARA ARA20160810041510808/10/16 04:15:31  5-MIN KARA 101015Z AUTO 00000KT 8SM SCT041 25/24 A2995 0 93 1200 000/00 RMK AO2 T02500239
53915KARA ARA20160810042010808/10/16 04:20:31  5-MIN KARA 101020Z AUTO 00000KT 7SM FEW041 24/24 A2995 0 97 1100 000/00 RMK AO2 T02440239
53915KARA ARA20160810042510808/10/16 04:25:31  5-MIN KARA 101025Z AUTO 00000KT 7SM FEW041 25/24 A2995 0 93 1200 000/00 RMK AO2 T02500239
53915KARA ARA20160810043010808/10/16 04:30:31  5-MIN KARA 101030Z AUTO 00000KT 7SM SCT041 25/24 A2995 0 93 1200 000/00 RMK AO2 T02500239
53915KARA ARA20160810043510808/10/16 04:35:31  5-MIN KARA 101035Z AUTO 00000KT 7SM SCT041 24/24 A2995 0 97 1100 000/00 RMK AO2 T02440239
53915KARA ARA20160810044010308/10/16 04:40:31  5-MIN KARA 101040Z 00000KT 8SM FEW041 25/24 A2995 0 93 1200 000/00 RMK AO2 T02500239
53915KARA ARA20160810044510308/10/16 04:45:31  5-MIN KARA 101045Z 00000KT 8SM FEW041 25/24 A2995 0 93 1200 000/00 RMK AO2 T02500239
53915KARA ARA20160810045011008/10/16 04:50:31  5-MIN KARA 101050Z 00000KT 8SM FEW042 25/24 A2995 0 93 1200 000/00 RMK AO2 SLP142 T02500239
53915KARA ARA20160810045510308/10/16 04:55:31  5-MIN KARA 101055Z 00000KT 8SM FEW042 25/24 A2995 0 93 1200 000/00 RMK AO2 T02500239
53915KARA ARA20160810050010308/10/16 05:00:31  5-MIN KARA 101100Z 00000KT 8SM FEW040 25/24 A2996 0 93 1200 000/00 RMK AO2 T02500239
53915KARA ARA20160810050510308/10/16 05:05:31  5-MIN KARA 101105Z 00000KT 8SM FEW040 25/24 A2996 0 97 1200 000/00 RMK AO2 T02500244
53915KARA ARA20160810051011008/10/16 05:10:31  5-MIN KARA 101110Z 33003KT 9SM FEW038 SCT050 25/24 A2996 0 93 1200 330/03 RMK AO2 T02500239
53915KARA ARA20160810051511208/10/16 05:15:31  5-MIN KARA 101115Z 33003KT 8SM FEW038 SCT050 25/24 A2996 -10 97 1200 330/03 RMK AO2 T02500244
53915KARA ARA20160810052011208/10/16 05:20:31  5-MIN KARA 101120Z 33004KT 8SM FEW038 BKN050 25/24 A2997 -10 97 1200 320/04 RMK AO2 T02500244
53915KARA ARA20160810052511208/10/16 05:25:31  5-MIN KARA 101125Z 33003KT 9SM SCT038 BKN050 25/24 A2997 -10 97 1200 330/03 RMK AO2 T02500244
53915KARA ARA20160810053011208/10/16 05:30:31  5-MIN KARA 101130Z 00000KT 9SM FEW037 BKN055 26/24 A2997 -10 93 1200 000/00 RMK AO2 T02560244
53915KARA ARA20160810053511208/10/16 05:35:31  5-MIN KARA 101135Z 00000KT 9SM FEW037 OVC055 25/24 A2997 -20 97 1200 000/00 RMK AO2 T02500244
53915KARA ARA20160810054011208/10/16 05:40:31  5-MIN KARA 101140Z 00000KT 8SM FEW037 BKN055 26/24 A2997 -20 93 1200 000/00 RMK AO2 T02560244
53915KARA ARA20160810054511208/10/16 05:45:31  5-MIN KARA 101145Z 00000KT 7SM FEW037 BKN060 26/24 A2997 -20 93 1200 000/00 RMK AO2 T02560244
53915KARA ARA20160810055013608/10/16 05:50:31  5-MIN KARA 101150Z 00000KT 7SM BKN055 25/24 A2997 -20 97 1200 000/00 RMK AO2 SLP149 70007 T02500244 10256 20244 55003
53915KARA ARA20160810055510508/10/16 05:55:31  5-MIN KARA 101155Z 00000KT 8SM BKN055 25/24 A2998 -20 97 1200 000/00 RMK AO2 T02500244
53915KARA ARA20160810060010508/10/16 06:00:31  5-MIN KARA 101200Z 00000KT 8SM BKN055 26/24 A2997 -20 93 1200 000/00 RMK AO2 T02560244
53915KARA ARA20160810060511208/10/16 06:05:31  5-MIN KARA 101205Z 00000KT 8SM BKN055 BKN065 26/24 A2997 -20 93 1200 000/00 RMK AO2 T02560244
53915KARA ARA20160810061011208/10/16 06:10:31  5-MIN KARA 101210Z 00000KT 9SM BKN050 BKN065 26/24 A2997 -20 93 1200 000/00 RMK AO2 T02560244
53915KARA ARA20160810061510508/10/16 06:15:31  5-MIN KARA 101215Z 00000KT 9SM OVC050 26/24 A2997 -20 93 1200 000/00 RMK AO2 T02560244
53915KARA ARA20160810062010508/10/16 06:20:31  5-MIN KARA 101220Z 00000KT 9SM OVC055 26/25 A2997 -20 93 1300 000/00 RMK AO2 T02610250
53915KARA ARA20160810062510508/10/16 06:25:31  5-MIN KARA 101225Z 00000KT 9SM OVC055 26/25 A2997 -20 93 1300 000/00 RMK AO2 T02610250
53915KARA ARA20160810063010508/10/16 06:30:31  5-MIN KARA 101230Z 00000KT 9SM BKN055 26/25 A2998 -20 93 1300 000/00 RMK AO2 T02610250
53915KARA ARA20160810063510508/10/16 06:35:31  5-MIN KARA 101235Z 00000KT 9SM SCT055 27/25 A2998 -20 90 1400 000/00 RMK AO2 T02670250
53915KARA ARA20160810064010608/10/16 06:40:31  5-MIN KARA 101240Z 00000KT 10SM SCT055 27/25 A2998 -20 87 1400 000/00 RMK AO2 T02720250
53915KARA ARA20160810064510608/10/16 06:45:31  5-MIN KARA 101245Z 00000KT 10SM FEW055 28/25 A2998 -20 84 1500 000/00 RMK AO2 T02780250
53915KARA ARA20160810065011308/10/16 06:50:31  5-MIN KARA 101250Z 00000KT 10SM FEW060 28/24 A2998 -20 82 1500 000/00 RMK AO2 SLP150 T02780244
53915KARA ARA20160810065510308/10/16 06:55:31  5-MIN KARA 101255Z 00000KT 10SM CLR 28/25 A2998 -20 84 1500 000/00 RMK AO2 T02780250
53915KARA ARA20160810070010308/10/16 07:00:31  5-MIN KARA 101300Z 00000KT 10SM CLR 28/25 A2998 -30 84 1500 000/00 RMK AO2 T02780250
53915KARA ARA20160810070510308/10/16 07:05:31  5-MIN KARA 101305Z 00000KT 10SM CLR 28/26 A2998 -30 87 1500 000/00 RMK AO2 T02780256
53915KARA ARA20160810071010308/10/16 07:10:31  5-MIN KARA 101310Z 00000KT 10SM CLR 28/25 A2999 -30 84 1500 000/00 RMK AO2 T02780250
53915KARA ARA20160810071510608/10/16 07:15:31  5-MIN KARA 101315Z 00000KT 10SM FEW055 28/25 A2999 -30 82 1500 000/00 RMK AO2 T02830250
53915KARA ARA20160810072010608/10/16 07:20:31  5-MIN KARA 101320Z 00000KT 10SM FEW055 28/25 A2999 -30 82 1500 000/00 RMK AO2 T02830250
53915KARA ARA20160810072510608/10/16 07:25:31  5-MIN KARA 101325Z 00000KT 10SM FEW055 29/24 A2999 -30 76 1600 000/00 RMK AO2 T02890244
53915KARA ARA20160810073010608/10/16 07:30:31  5-MIN KARA 101330Z 31003KT 10SM FEW055 28/24 A2999 -30 79 1500 300/03 RMK AO2 T02830244
53915KARA ARA20160810073511308/10/16 07:35:31  5-MIN KARA 101335Z 32004KT 10SM FEW044 FEW055 29/25 A2999 -30 79 1600 320/04 RMK AO2 T02890250
53915KARA ARA20160810074011308/10/16 07:40:31  5-MIN KARA 101340Z 33003KT 10SM FEW042 SCT050 29/26 A2999 -30 82 1600 330/03 RMK AO2 T02890256
53915KARA ARA20160810074511308/10/16 07:45:31  5-MIN KARA 101345Z 35003KT 10SM FEW042 BKN050 29/25 A2999 -40 79 1600 350/03 RMK AO2 T02890250
53915KARA ARA20160810075012008/10/16 07:50:31  5-MIN KARA 101350Z 35004KT 10SM FEW042 BKN050 29/26 A2999 -40 82 1600 350/04 RMK AO2 SLP156 T02890256
53915KARA ARA20160810075511308/10/16 07:55:31  5-MIN KARA 101355Z 32003KT 10SM FEW042 SCT050 29/26 A2999 -40 82 1600 320/03 RMK AO2 T02890256
53915KARA ARA20160810080011308/10/16 08:00:31  5-MIN KARA 101400Z 33004KT 10SM FEW042 SCT050 29/26 A2999 -40 79 1600 330/04 RMK AO2 T02940256
53915KARA ARA20160810080510608/10/16 08:05:31  5-MIN KARA 101405Z 31004KT 10SM FEW050 29/26 A2999 -40 82 1600 300/04 RMK AO2 T02940261
53915KARA ARA20160810081010608/10/16 08:10:31  5-MIN KARA 101410Z 30005KT 10SM FEW050 30/26 A2999 -40 79 1700 300/05 RMK AO2 T03000261
53915KARA ARA20160810081510608/10/16 08:15:31  5-MIN KARA 101415Z 29006KT 10SM SCT050 30/26 A3000 -40 79 1700 290/06 RMK AO2 T03000261
53915KARA ARA20160810082010608/10/16 08:20:31  5-MIN KARA 101420Z 30006KT 10SM BKN050 30/26 A3000 -40 79 1700 300/06 RMK AO2 T03000261
53915KARA ARA20160810082510608/10/16 08:25:31  5-MIN KARA 101425Z 29006KT 10SM BKN048 30/26 A3000 -40 79 1700 290/06 RMK AO2 T03000261
53915KARA ARA20160810083011308/10/16 08:30:31  5-MIN KARA 101430Z 29007KT 10SM BKN045 BKN050 30/26 A3000 -50 79 1700 290/07 RMK AO2 T03000261
53915KARA ARA20160810083511308/10/16 08:35:31  5-MIN KARA 101435Z 26009KT 10SM BKN045 BKN050 30/26 A3001 -50 79 1700 260/09 RMK AO2 T03000261
53915KARA ARA20160810084011308/10/16 08:40:31  5-MIN KARA 101440Z 26008KT 10SM FEW019 OVC047 29/26 A3001 -50 82 1600 260/08 RMK AO2 T02940261
53915KARA ARA20160810084512008/10/16 08:45:31  5-MIN KARA 101445Z 25007KT 10SM FEW019 BKN045 BKN055 29/26 A3001 -50 82 1600 250/07 RMK AO2 T02940261
53915KARA ARA20160810085013308/10/16 08:50:31  5-MIN KARA 101450Z 26009KT 10SM FEW024 BKN045 BKN060 29/26 A3001 -50 82 1600 260/09 RMK AO2 SLP160 T02940261 53010
53915KARA ARA20160810085512008/10/16 08:55:31  5-MIN KARA 101455Z 28007KT 10SM FEW024 SCT045 BKN060 29/26 A3001 -50 82 1600 280/07 RMK AO2 T02940261
53915KARA ARA20160810090012008/10/16 09:00:31  5-MIN KARA 101500Z 26008KT 10SM FEW023 BKN065 BKN075 29/26 A3001 -50 82 1600 260/08 RMK AO2 T02940261
53915KARA ARA20160810090511308/10/16 09:05:31  5-MIN KARA 101505Z 27007KT 10SM FEW050 BKN070 29/26 A3001 -50 82 1600 270/07 RMK AO2 T02940261
53915KARA ARA20160810091011308/10/16 09:10:31  5-MIN KARA 101510Z 28007KT 10SM FEW050 BKN070 29/26 A3001 -50 82 1600 280/07 RMK AO2 T02940261
53915KARA ARA20160810091510608/10/16 09:15:31  5-MIN KARA 101515Z 27007KT 10SM BKN070 29/26 A3001 -50 82 1600 270/07 RMK AO2 T02940261
53915KARA ARA20160810092010608/10/16 09:20:31  5-MIN KARA 101520Z 28008KT 10SM SCT070 29/26 A3001 -50 82 1600 280/08 RMK AO2 T02940261
53915KARA ARA20160810092510608/10/16 09:25:31  5-MIN KARA 101525Z 28007KT 10SM SCT070 31/27 A3001 -50 79 1800 280/07 RMK AO2 T03060267
53915KARA ARA20160810093010608/10/16 09:30:31  5-MIN KARA 101530Z 30009KT 10SM FEW070 31/27 A3001 -50 77 1800 300/09 RMK AO2 T03110267
53915KARA ARA20160810093510608/10/16 09:35:31  5-MIN KARA 101535Z 30009KT 10SM FEW070 32/27 A3001 -50 74 1900 300/09 RMK AO2 T03170267
53915KARA ARA20160810094010608/10/16 09:40:31  5-MIN KARA 101540Z 28009KT 10SM FEW017 31/27 A3001 -50 77 1800 280/09 RMK AO2 T03110267
53915KARA ARA20160810094510608/10/16 09:45:31  5-MIN KARA 101545Z 29009KT 10SM SCT017 31/26 A3001 -50 74 1800 290/09 RMK AO2 T03110261
53915KARA ARA20160810095011308/10/16 09:50:31  5-MIN KARA 101550Z 30008KT 10SM SCT017 31/26 A3001 -50 74 1800 300/08 RMK AO2 SLP161 T03110261
53915KARA ARA20160810095510608/10/16 09:55:31  5-MIN KARA 101555Z 31009KT 10SM FEW018 31/26 A3001 -50 74 1800 310/09 RMK AO2 T03110261
53915KARA ARA20160810100011308/10/16 10:00:31  5-MIN KARA 101600Z 28009KT 10SM FEW018 SCT100 31/26 A3001 -50 74 1800 280/09 RMK AO2 T03110261
53915KARA ARA20160810100511308/10/16 10:05:31  5-MIN KARA 101605Z 29008KT 10SM FEW018 BKN100 31/26 A3000 -50 74 1800 290/08 RMK AO2 T03110261
53915KARA ARA20160810101011308/10/16 10:10:31  5-MIN KARA 101610Z 30007KT 10SM SCT020 BKN100 32/26 A3000 -50 72 1900 300/07 RMK AO2 T03170261
53915KARA ARA20160810101511308/10/16 10:15:31  5-MIN KARA 101615Z 30007KT 10SM FEW020 BKN100 32/27 A3000 -40 72 1900 300/07 RMK AO2 T03220267
53915KARA ARA20160810102011308/10/16 10:20:31  5-MIN KARA 101620Z 30008KT 10SM FEW020 BKN100 32/26 A3000 -50 72 1900 300/08 RMK AO2 T03170261
53915KARA ARA20160810102512008/10/16 10:25:31  5-MIN KARA 101625Z 29009KT 10SM FEW020 SCT027 BKN100 32/26 A3000 -50 72 1900 290/09 RMK AO2 T03170261
53915KARA ARA20160810103012008/10/16 10:30:31  5-MIN KARA 101630Z 30008KT 10SM FEW020 SCT027 BKN100 32/26 A3000 -50 72 1900 300/08 RMK AO2 T03170261
53915KARA ARA20160810103512008/10/16 10:35:31  5-MIN KARA 101635Z 28008KT 10SM FEW020 FEW027 SCT100 32/26 A3000 -40 72 1900 280/08 RMK AO2 T03170261
53915KARA ARA20160810104012008/10/16 10:40:31  5-MIN KARA 101640Z 30008KT 10SM FEW020 FEW025 SCT060 32/26 A3000 -40 72 1900 300/08 RMK AO2 T03170261
53915KARA ARA20160810104511308/10/16 10:45:31  5-MIN KARA 101645Z 29007KT 10SM SCT025 BKN055 32/26 A3000 -40 72 1900 290/07 RMK AO2 T03170261
53915KARA ARA20160810105012008/10/16 10:50:31  5-MIN KARA 101650Z 30008KT 10SM SCT025 BKN055 32/26 A3000 -40 69 1900 300/08 RMK AO2 SLP159 T03170256
53915KARA ARA20160810105512008/10/16 10:55:31  5-MIN KARA 101655Z 29007KT 10SM SCT025 BKN055 BKN070 31/26 A3000 -40 72 1800 290/07 RMK AO2 T03110256
53915KARA ARA20160810110013608/10/16 11:00:31  5-MIN KARA 101700Z 34009KT 6SM RA SCT027 SCT037 BKN050 31/27 A3000 -40 77 1800 340/09 RMK AO2 RAB1657 P0001 T03110267
53915KARA ARA20160810110513608/10/16 11:05:31  5-MIN KARA 101705Z 35005KT 4SM RA FEW025 BKN055 OVC075 31/27 A3000 -40 79 1800 350/05 RMK AO2 RAB1657 P0002 T03060267
53915KARA ARA20160810111013708/10/16 11:10:31  5-MIN KARA 101710Z 35007KT 6SM -RA FEW025 BKN055 OVC090 31/27 A3000 -40 79 1800 350/07 RMK AO2 RAB1657 P0002 T03060267
53915KARA ARA20160810111513708/10/16 11:15:31  5-MIN KARA 101715Z 35012KT 4SM +RA FEW026 BKN050 OVC090 29/26 A3001 -50 85 1600 350/12 RMK AO2 RAB1657 P0006 T02890261
53915KARA ARA20160810112014908/10/16 11:20:31  5-MIN KARA 101720Z 03007KT 2SM +RA FEW029 BKN041 OVC070 28/25 A3001 -50 84 1400 030/07 RMK AO2 VIS 1 1/4V5 RAB1657 P0013 T02780250
53915KARA ARA20160810112513708/10/16 11:25:31  5-MIN KARA 101725Z 11004KT 2SM +RA SCT039 BKN050 OVC075 28/26 A3000 -40 85 1500 110/04 RMK AO2 RAB1657 P0014 T02830256
53915KARA ARA20160810113013708/10/16 11:30:31  5-MIN KARA 101730Z 00000KT 4SM -RA SCT044 BKN060 OVC090 29/25 A3000 -40 79 1600 000/00 RMK AO2 RAB1657 P0014 T02890250
53915KARA ARA20160810113513708/10/16 11:35:31  5-MIN KARA 101735Z 14004KT 8SM -RA SCT044 BKN075 OVC110 29/26 A2999 -40 82 1600 140/04 RMK AO2 RAB1657 P0014 T02890256
53915KARA ARA20160810114014508/10/16 11:40:31  5-MIN KARA 101740Z 15004KT 10SM -RA FEW037 BKN075 OVC110 29/26 A2999 -30 79 1700 150/04 RMK AO2 RAB1657 PRESFR P0014 T02940256
53915KARA ARA20160810114512708/10/16 11:45:31  5-MIN KARA 101745Z 10SM SCT034 BKN075 OVC110 29/26 A2999 -30 82 1700 M /M RMK AO2 RAB1657E43 P0014 T02940261
53915KARA ARA20160810115013108/10/16 11:50:31  5-MIN KARA 101750Z 23013KT 2 1/2SM +RA SCT029 BKN060 OVC110 27/23 A2999 -30 79 1400 230/13 RMK AO2 RAB1657 P0023
53915KARA ARA20160810115514508/10/16 11:55:31  5-MIN KARA 101755Z 22010KT 2 1/2SM -RA FEW025 BKN055 OVC110 27/23 A2999 -30 82 1300 220/10 RMK AO2 LTG DSNT SE P0000 T02670233
53915KARA ARA20160810120015708/10/16 12:00:31  5-MIN KARA 101800Z 21005KT 8SM -TSRA FEW025 BKN055 OVC110 27/24 A2998 -30 82 1400 210/05 RMK AO2 LTG DSNT SE AND W TSB1759 P0000 T02720239
53915KARA ARA20160810120516108/10/16 12:05:31  5-MIN KARA 101805Z 25004KT 10SM TS FEW025 BKN060 OVC110 27/24 A2998 -30 84 1400 250/04 RMK AO2 LTG DSNT SE AND W RAE01 TSB1759 P0001 T02720244
53915KARA ARA20160810121015308/10/16 12:10:31  5-MIN KARA 101810Z 22005KT 9SM -TSRA FEW023 BKN075 OVC110 28/25 A2999 -30 84 1500 220/05 RMK AO2 LTG DSNT SE-W TSB1759 P0001 T02780250
53915KARA ARA20160810121515508/10/16 12:15:31  5-MIN KARA 101815Z 00000KT 10SM -TSRA FEW023 BKN090 OVC110 28/26 A2998 -20 87 1500 000/00 RMK AO2 LTG DSNT SE-SW TSB1759 P0001 T02780256
53915KARA ARA20160810122016308/10/16 12:20:31  5-MIN KARA 101820Z 23003KT 10SM VCTS FEW055 SCT075 BKN110 28/26 A2998 -20 85 1500 230/03 RMK AO2 LTG DSNT SE-SW RAE16 TSB1759E18 P0001 T02830256
53915KARA ARA20160810122516008/10/16 12:25:31  5-MIN KARA 101825Z 26004KT 10SM VCTS FEW060 OVC110 29/26 A2998 -20 82 1600 260/04 RMK AO2 LTG DSNT SE AND SW RAE16 TSB1759E18 P0001 T02890256
53915KARA ARA20160810123015608/10/16 12:30:31  5-MIN KARA 101830Z 26004KT 10SM VCTS FEW090 OVC110 29/24 A2998 -30 74 1700 260/04 RMK AO2 LTG DSNT ALQDS RAE16 TSB1759E18 P0001 T02940244
53915KARA ARA20160810123514808/10/16 12:35:31  5-MIN KARA 101835Z 24003KT 10SM VCTS OVC110 29/25 A2998 -20 76 1700 240/03 RMK AO2 LTG DSNT NE-S RAE16 TSB1759E18 P0001 T02940250
53915KARA ARA20160810124014908/10/16 12:40:31  5-MIN KARA 101840Z 26003KT 10SM VCTS OVC110 29/26 A2998 -20 79 1700 260/03 RMK AO2 LTG DSNT ALQDS RAE16 TSB1759E18 P0001 T02940256
53915KARA ARA20160810124514908/10/16 12:45:31  5-MIN KARA 101845Z 26005KT 10SM VCTS OVC110 29/24 A2998 -20 74 1700 260/05 RMK AO2 LTG DSNT ALQDS RAE16 TSB1759E18 P0001 T02940244
53915KARA ARA20160810125016308/10/16 12:50:31  5-MIN KARA 101850Z 25004KT 10SM VCTS FEW095 BKN110 29/25 A2998 -20 76 1700 240/04 RMK AO2 LTG DSNT ALQDS RAE16 TSB1759E18 SLP152 P0001 T02940250
53915KARA ARA20160810125513308/10/16 12:55:31  5-MIN KARA 101855Z 24005KT 10SM VCTS FEW090 BKN110 29/25 A2998 -20 76 1700 240/05 RMK AO2 LTG DSNT ALQDS T02940250
53915KARA ARA20160810130013308/10/16 13:00:31  5-MIN KARA 101900Z 23006KT 10SM VCTS SCT095 BKN110 29/24 A2998 -30 74 1700 230/06 RMK AO2 LTG DSNT ALQDS T02940244
53915KARA ARA20160810130513508/10/16 13:05:31  5-MIN KARA 101905Z 21010KT 10SM FEW042 BKN095 BKN110 29/25 A2998 -30 79 1600 210/10 RMK AO2 LTG DSNT ALQDS T02890250
53915KARA ARA20160810131014108/10/16 13:10:31  5-MIN KARA 101910Z 23016G19KT 10SM FEW042 SCT065 BKN095 28/24 A2998 -20 79 1500 230/16G19 RMK AO2 LTG DSNT ALQDS T02830244
53915KARA ARA20160810131514608/10/16 13:15:31  5-MIN KARA 101915Z 23012G19KT 10SM VCTS FEW065 SCT095 BKN110 28/24 A2997 -10 79 1500 230/12G19 RMK AO2 LTG DSNT ALQDS T02780239
53915KARA ARA20160810132014008/10/16 13:20:31  5-MIN KARA 101920Z 23010KT 10SM VCTS FEW065 SCT095 SCT110 27/24 A2998 -20 82 1400 230/10 RMK AO2 LTG DSNT ALQDS T02720239
53915KARA ARA20160810132514408/10/16 13:25:31  5-MIN KARA 101925Z 24009KT 10SM TS FEW030 SCT065 BKN090 27/24 A2999 -30 82 1400 240/09 RMK AO2 LTG DSNT ALQDS TSB23 T02720239
53915KARA ARA20160810133015708/10/16 13:30:31  5-MIN KARA 101930Z 27010KT 5SM TSRA FEW027 SCT042 BKN060 27/24 A2999 -30 84 1400 270/10 RMK AO2 LTG DSNT ALQDS RAB28 TSB23 P0002 T02720244
53915KARA ARA20160810133517808/10/16 13:35:31  5-MIN KARA 101935Z 28008G18KT 1 1/4SM +TSRA FEW024 SCT042 BKN060 27/24 A2999 -30 84 1300 280/08G18 RMK AO2 VIS 1/4V5 LTG DSNT ALQDS RAB28 TSB23 P0005 T02670239
53915KARA ARA20160810134016408/10/16 13:40:31  5-MIN KARA 101940Z VRB03G18KT 1SM +TSRA SCT038 BKN048 BKN060 26/23 A2997 -20 84 1300 VRB/03G18 RMK AO2 LTG DSNT ALQDS RAB28 TSB23 P0010 T02610233
53915KARA ARA20160810134516208/10/16 13:45:31  5-MIN KARA 101945Z VRB03KT 1 1/2SM +TSRA BKN040 BKN060 OVC070 26/23 A2997 -10 84 1300 VRB/03 RMK AO2 LTG DSNT ALQDS RAB28 TSB23 P0014 T02610233
53915KARA ARA20160810135015108/10/16 13:50:31  5-MIN KARA 101950Z 18005KT 2SM +TSRA BR FEW037 BKN044 OVC070 26/24 A2997 -20 87 1300 180/05 RMK AO2 LTG DSNT ALQDS RAB28 TSB23 P0017
53915KARA ARA20160810135515308/10/16 13:55:31  5-MIN KARA 101955Z 18007KT 2 1/2SM +TSRA BR BKN046 BKN060 OVC075 26/24 A2997 -20 90 1300 180/07 RMK AO2 LTG DSNT ALQDS P0001 T02610244
53915KARA ARA20160810140015308/10/16 14:00:31  5-MIN KARA 102000Z 19006KT 2 1/2SM +TSRA BR BKN046 BKN055 OVC100 26/25 A2997 -20 93 1300 190/06 RMK AO2 LTG DSNT ALQDS P0004 T02610250
53915KARA ARA20160810140515708/10/16 14:05:31  5-MIN KARA 102005Z 18007KT 3SM VCTS RA BR SCT046 BKN070 BKN095 26/25 A2997 -20 93 1300 180/07 RMK AO2 LTG DSNT ALQDS TSE01 P0005 T02610250
53915KARA ARA20160810141015808/10/16 14:10:31  5-MIN KARA 102010Z 18009KT 5SM VCTS -RA BR SCT050 SCT095 BKN110 26/25 A2997 -10 93 1300 180/09 RMK AO2 LTG DSNT ALQDS TSE01 P0005 T02610250
53915KARA ARA20160810141515508/10/16 14:15:31  5-MIN KARA 102015Z 18006KT 7SM VCTS -RA SCT050 SCT095 BKN110 26/25 A2997 -10 93 1300 180/06 RMK AO2 LTG DSNT ALQDS TSE01 P0005 T02610250
53915KARA ARA20160810142015508/10/16 14:20:31  5-MIN KARA 102020Z 19006KT 8SM VCTS -RA SCT055 SCT075 BKN110 26/24 A2997 -10 90 1300 190/06 RMK AO2 LTG DSNT ALQDS TSE01 P0005 T02610244
53915KARA ARA20160810142515608/10/16 14:25:31  5-MIN KARA 102025Z 19007KT 10SM VCTS -RA FEW055 FEW100 SCT120 26/24 A2997 -10 90 1300 190/07 RMK AO2 LTG DSNT ALQDS TSE01 P0005 T02610244
53915KARA ARA20160810143015108/10/16 14:30:31  5-MIN KARA 102030Z 19006KT 10SM VCTS FEW055 SCT120 26/24 A2997 -10 90 1300 180/06 RMK AO2 LTG DSNT ALQDS RAE28 TSE01 P0005 T02610244
53915KARA ARA20160810143515808/10/16 14:35:31  5-MIN KARA 102035Z 18004KT 10SM VCTS FEW041 SCT055 BKN120 26/24 A2998 -20 90 1300 180/04 RMK AO2 LTG DSNT ALQDS RAE28 TSE01 P0005 T02610244
53915KARA ARA20160810144015908/10/16 14:40:31  5-MIN KARA 102040Z 00000KT 10SM TS SCT041 BKN055 BKN120 26/24 A2999 -30 90 1300 000/00 RMK AO2 LTG DSNT ALQDS RAE28 TSE01B38 P0005 T02610244
53915KARA ARA20160810144517808/10/16 14:45:31  5-MIN KARA 102045Z 03009G14KT 10SM -TSRA FEW012 BKN039 BKN120 26/24 A2999 -30 90 1300 030/09G14 RMK AO2 LTG DSNT ALQDS RAE28B44 TSE01B38 PRESRR P0005 T02610244
53915KARA ARA20160810145019008/10/16 14:50:31  5-MIN KARA 102050Z 09010G17KT 10SM -TSRA FEW012 SCT020 BKN037 26/24 A2999 -30 87 1300 090/10G17 RMK AO2 LTG DSNT ALQDS RAE28B44 TSE01B38 SLP154 P0005 60025 T02610239 58007
53915KARA ARA20160810145515308/10/16 14:55:31  5-MIN KARA 102055Z VRB03G17KT 10SM -TSRA FEW016 BKN037 OVC120 27/23 A2998 -30 79 1400 VRB/03G17 RMK AO2 LTG DSNT ALQDS P0000 T02720233
53915KARA ARA20160810150014608/10/16 15:00:31  5-MIN KARA 102100Z VRB03KT 2SM +TSRA FEW015 SCT021 OVC037 27/23 A2999 -30 79 1400 VRB/03 RMK AO2 LTG DSNT ALQDS P0006 T02720233
53915KARA ARA20160810150516208/10/16 15:05:31  5-MIN KARA 102105Z 00000KT 1 1/4SM VCTS +RA BR FEW015 SCT021 OVC038 26/24 A2998 -30 87 1300 000/00 RMK AO2 LTG DSNT ALQDS TSE05 P0009 T02610239
53915KARA ARA20160810151016108/10/16 15:10:31  5-MIN KARA 102110Z 19006KT 2 1/2SM VCTS RA BR SCT019 BKN038 OVC095 26/24 A2998 -20 93 1200 190/06 RMK AO2 LTG DSNT ALQDS TSE05 P0010 T02560244
53915KARA ARA20160810151515808/10/16 15:15:31  5-MIN KARA 102115Z 20008KT 4SM VCTS -RA BR FEW017 BKN055 OVC120 26/24 A2997 -20 90 1200 190/08 RMK AO2 LTG DSNT ALQDS TSE05 P0010 T02560239
53915KARA ARA20160810152016508/10/16 15:20:31  5-MIN KARA 102120Z 20008KT 6SM VCTS -RA BR FEW019 SCT039 BKN090 26/24 A2996 -10 93 1200 200/08 RMK AO2 LTG DSNT ALQDS TSE05 PRESFR P0011 T02560244
53915KARA ARA20160810152515808/10/16 15:25:31  5-MIN KARA 102125Z 20007KT 6SM -TSRA BR FEW019 SCT095 BKN110 26/24 A2997 -10 93 1200 200/07 RMK AO2 LTG DSNT ALQDS TSE05B22 P0011 T02560244
53915KARA ARA20160810153015708/10/16 15:30:31  5-MIN KARA 102130Z 21005KT 6SM TSRA BR FEW022 FEW095 SCT120 26/24 A2997 -10 93 1200 210/05 RMK AO2 LTG DSNT ALQDS TSE05B22 P0012 T02560244
53915KARA ARA20160810153515108/10/16 15:35:31  5-MIN KARA 102135Z 21006KT 6SM -TSRA BR FEW095 SCT120 26/24 A2997 -10 93 1200 210/06 RMK AO2 LTG DSNT ALQDS TSE05B22 P0012 T02560244
53915KARA ARA20160810154014708/10/16 15:40:31  5-MIN KARA 102140Z 20007KT 7SM VCTS -RA FEW110 26/24 A2996 -10 93 1200 200/07 RMK AO2 LTG DSNT ALQDS TSE05B22E37 P0013 T02560244
53915KARA ARA20160810154514708/10/16 15:45:31  5-MIN KARA 102145Z 21006KT 8SM VCTS -RA FEW110 26/24 A2996 -10 93 1200 210/06 RMK AO2 LTG DSNT ALQDS TSE05B22E37 P0013 T02560244
53915KARA ARA20160810155013008/10/16 15:50:31  5-MIN KARA 102150Z 20005KT 9SM -RA FEW110 26/24 A2996 -10 93 1200 200/05 RMK AO2 LTG DSNT S-W TSE05B22E37 P0013
53915KARA ARA20160810155511808/10/16 15:55:31  5-MIN KARA 102155Z 21006KT 8SM FEW120 26/24 A2996 0 93 1300 210/06 RMK AO2 LTG DSNT ALQDS T02560244
53915KARA ARA20160810160014108/10/16 16:00:31  5-MIN KARA 102200Z 21005KT 8SM -RA FEW090 SCT120 26/24 A2995 0 93 1300 210/05 RMK AO2 LTG DSNT ALQDS RAB00 P0000 T02560244
53915KARA ARA20160810160514108/10/16 16:05:31  5-MIN KARA 102205Z 22005KT 8SM -RA FEW050 SCT110 26/24 A2995 0 93 1300 220/05 RMK AO2 LTG DSNT ALQDS RAB00 P0000 T02560244
53915KARA ARA20160810161014808/10/16 16:10:31  5-MIN KARA 102210Z 22004KT 8SM -RA FEW050 FEW065 SCT120 26/24 A2995 0 93 1300 220/04 RMK AO2 LTG DSNT ALQDS RAB00 P0000 T02560244
53915KARA ARA20160810161514108/10/16 16:15:31  5-MIN KARA 102215Z 23005KT 9SM -RA FEW070 FEW120 26/24 A2995 0 93 1300 230/05 RMK AO2 LTG DSNT ALQDS RAB00 P0000 T02560244
53915KARA ARA20160810162014008/10/16 16:20:31  5-MIN KARA 102220Z 23004KT 9SM FEW070 FEW120 26/24 A2996 0 93 1300 230/04 RMK AO2 LTG DSNT ALQDS RAB00E16 P0000 T02560244
53915KARA ARA20160810162513908/10/16 16:25:31  5-MIN KARA 102225Z 25005KT 8SM CLR 26/24 A2997 -20 93 1200 250/05 RMK AO2 LTG DSNT ALQDS RAB00E16 PRESRR P0000 T02560244
53915KARA ARA20160810163013208/10/16 16:30:31  5-MIN KARA 102230Z 25007KT 8SM CLR 26/24 A2997 -20 93 1200 250/07 RMK AO2 LTG DSNT ALQDS RAB00E16 P0000 T02560244
53915KARA ARA20160810163513208/10/16 16:35:31  5-MIN KARA 102235Z 26005KT 9SM CLR 26/24 A2997 -20 93 1200 260/05 RMK AO2 LTG DSNT ALQDS RAB00E16 P0000 T02560244
53915KARA ARA20160810164014308/10/16 16:40:31  5-MIN KARA 102240Z 24006KT 10SM CLR 26/24 A2997 -10 93 1200 240/06 RMK AO2 LTG DSNT NE AND S AND SW RAB00E16 P0000 T02560244
53915KARA ARA20160810164514608/10/16 16:45:31  5-MIN KARA 102245Z 22005KT 10SM FEW120 26/24 A2997 -10 93 1200 220/05 RMK AO2 LTG DSNT NE AND S AND SW RAB00E16 P0000 T02560244
53915KARA ARA20160810165015308/10/16 16:50:31  5-MIN KARA 102250Z 21006KT 10SM FEW120 26/24 A2996 -10 93 1200 210/06 RMK AO2 LTG DSNT NE AND S AND SW RAB00E16 SLP146 P0000 T02560244
53915KARA ARA20160810165512408/10/16 16:55:31  5-MIN KARA 102255Z 23004KT 10SM FEW120 26/24 A2997 -10 93 1200 230/04 RMK AO2 LTG DSNT S AND SW T02560244
53915KARA ARA20160810170014908/10/16 17:00:31  5-MIN KARA 102300Z 26004KT 10SM -RA FEW070 SCT090 26/24 A2997 -20 93 1200 260/04 RMK AO2 LTG DSNT S AND SW RAB2259 P0000 T02560244
53915KARA ARA20160810170515608/10/16 17:05:31  5-MIN KARA 102305Z 26004KT 10SM -RA FEW060 SCT070 BKN090 26/24 A2998 -20 93 1200 260/04 RMK AO2 LTG DSNT S AND SW RAB2259 P0000 T02560244
53915KARA ARA20160810171013808/10/16 17:10:31  5-MIN KARA 102310Z 23004KT 10SM -RA FEW055 SCT070 BKN090 26/24 A2998 -20 90 1200 230/04 RMK AO2 RAB2259 P0000 T02560239
53915KARA ARA20160810171513708/10/16 17:15:31  5-MIN KARA 102315Z 23004KT 10SM FEW060 SCT075 BKN095 26/24 A2998 -20 90 1200 230/04 RMK AO2 RAB2259E15 P0000 T02560239
53915KARA ARA20160810172013708/10/16 17:20:31  5-MIN KARA 102320Z 28003KT 10SM SCT055 BKN075 OVC090 25/24 A2998 -20 93 1200 280/03 RMK AO2 RAB2259E15 P0000 T02500239
53915KARA ARA20160810172513708/10/16 17:25:31  5-MIN KARA 102325Z 28003KT 10SM BKN050 BKN070 OVC090 26/23 A2998 -20 87 1200 280/03 RMK AO2 RAB2259E15 P0000 T02560233
53915KARA ARA20160810173013708/10/16 17:30:31  5-MIN KARA 102330Z 26003KT 10SM SCT050 BKN070 BKN095 26/23 A2997 -20 87 1200 260/03 RMK AO2 RAB2259E15 P0000 T02560233
53915KARA ARA20160810173514908/10/16 17:35:31  5-MIN KARA 102335Z 26004KT 10SM SCT050 SCT070 SCT090 26/24 A2997 -10 90 1200 260/04 RMK AO2 LTG DSNT NE RAB2259E15 P0000 T02560239
53915KARA ARA20160810174014208/10/16 17:40:31  5-MIN KARA 102340Z 23004KT 10SM SCT050 SCT070 25/24 A2996 -10 93 1200 230/04 RMK AO2 LTG DSNT NE RAB2259E15 P0000 T02500239
53915KARA ARA20160810174513508/10/16 17:45:31  5-MIN KARA 102345Z 00000KT 10SM FEW050 25/24 A2996 -10 93 1200 000/00 RMK AO2 LTG DSNT NE RAB2259E15 P0000 T02500239
53915KARA ARA20160810175015408/10/16 17:50:31  5-MIN KARA 102350Z 29003KT 10SM FEW048 25/24 A2997 -10 93 1200 290/03 RMK AO2 RAB2259E15 SLP147 P0000 60038 T02500239 10294 20250 55001
53915KARA ARA20160810175510308/10/16 17:55:31  5-MIN KARA 102355Z 31003KT 10SM CLR 26/24 A2997 -10 90 1200 310/03 RMK AO2 T02560239
53915KARA ARA20160810180010308/10/16 18:00:31  5-MIN KARA 110000Z 27003KT 10SM CLR 25/24 A2997 -10 93 1200 270/03 RMK AO2 T02500239
53915KARA ARA20160810180510308/10/16 18:05:31  5-MIN KARA 110005Z 26003KT 10SM CLR 25/23 A2996 -10 90 1200 260/03 RMK AO2 T02500233
53915KARA ARA20160810181010308/10/16 18:10:31  5-MIN KARA 110010Z 25003KT 10SM CLR 25/24 A2997 -10 93 1200 250/03 RMK AO2 T02500239
53915KARA ARA20160810181510308/10/16 18:15:31  5-MIN KARA 110015Z 25003KT 10SM CLR 25/24 A2997 -10 93 1200 250/03 RMK AO2 T02500239
53915KARA ARA20160810182010308/10/16 18:20:31  5-MIN KARA 110020Z 25004KT 10SM CLR 25/23 A2997 -10 90 1200 250/04 RMK AO2 T02500233
53915KARA ARA20160810182510608/10/16 18:25:31  5-MIN KARA 110025Z 25003KT 10SM SCT100 25/23 A2997 -20 90 1200 250/03 RMK AO2 T02500233
53915KARA ARA20160810183010608/10/16 18:30:31  5-MIN KARA 110030Z 00000KT 10SM SCT100 25/23 A2997 -20 90 1200 000/00 RMK AO2 T02500233
53915KARA ARA20160810183510608/10/16 18:35:31  5-MIN KARA 110035Z 00000KT 10SM FEW100 25/23 A2997 -20 90 1200 000/00 RMK AO2 T02500233
53915KARA ARA20160810184010608/10/16 18:40:31  5-MIN KARA 110040Z 31003KT 10SM FEW100 25/23 A2997 -20 90 1200 310/03 RMK AO2 T02500233
53915KARA ARA20160810184510608/10/16 18:45:31  5-MIN KARA 110045Z 26003KT 10SM FEW100 25/23 A2997 -20 90 1200 260/03 RMK AO2 T02500233
53915KARA ARA20160810185011308/10/16 18:50:31  5-MIN KARA 110050Z 00000KT 10SM FEW100 25/23 A2997 -10 90 1200 000/00 RMK AO2 SLP148 T02500233
53915KARA ARA20160810185510308/10/16 18:55:31  5-MIN KARA 110055Z 00000KT 10SM CLR 25/23 A2997 -20 90 1200 000/00 RMK AO2 T02500233
53915KARA ARA20160810190010308/10/16 19:00:31  5-MIN KARA 110100Z 00000KT 10SM CLR 25/23 A2997 -10 90 1200 000/00 RMK AO2 T02500233
53915KARA ARA20160810190510308/10/16 19:05:31  5-MIN KARA 110105Z 21003KT 10SM CLR 25/23 A2997 -10 90 1200 210/03 RMK AO2 T02500233
53915KARA ARA20160810191010308/10/16 19:10:31  5-MIN KARA 110110Z 23003KT 10SM CLR 24/23 A2997 -10 93 1100 230/03 RMK AO2 T02440233
53915KARA ARA20160810191510308/10/16 19:15:31  5-MIN KARA 110115Z 00000KT 10SM CLR 24/23 A2996 -10 93 1100 000/00 RMK AO2 T02440233
53915KARA ARA20160810192010308/10/16 19:20:31  5-MIN KARA 110120Z 00000KT 10SM CLR 24/23 A2996 -10 93 1100 000/00 RMK AO2 T02440233
53915KARA ARA20160810192510308/10/16 19:25:31  5-MIN KARA 110125Z 00000KT 10SM CLR 24/23 A2996 -10 93 1100 000/00 RMK AO2 T02440233
53915KARA ARA20160810193010308/10/16 19:30:31  5-MIN KARA 110130Z 00000KT 10SM CLR 24/23 A2997 -10 93 1100 000/00 RMK AO2 T02440233
53915KARA ARA20160810193510308/10/16 19:35:31  5-MIN KARA 110135Z 00000KT 10SM CLR 25/23 A2997 -10 90 1200 000/00 RMK AO2 T02500233
53915KARA ARA20160810194010308/10/16 19:40:31  5-MIN KARA 110140Z 00000KT 10SM CLR 24/23 A2996 -10 93 1100 000/00 RMK AO2 T02440233
53915KARA ARA20160810194510308/10/16 19:45:31  5-MIN KARA 110145Z 00000KT 10SM CLR 24/23 A2996 -10 93 1100 000/00 RMK AO2 T02440233
53915KARA ARA20160810195011508/10/16 19:50:31  5-MIN KARA 110150Z AUTO 00000KT 10SM CLR 25/23 A2996 -10 90 1200 000/00 RMK AO2 SLP145 T02500233
53915KARA ARA20160810195510808/10/16 19:55:31  5-MIN KARA 110155Z AUTO 00000KT 10SM CLR 25/23 A2996 -10 90 1200 000/00 RMK AO2 T02500233
53915KARA ARA20160810200010808/10/16 20:00:31  5-MIN KARA 110200Z AUTO 00000KT 10SM CLR 24/23 A2996 -10 93 1100 000/00 RMK AO2 T02440233
53915KARA ARA20160810200510608/10/16 20:05:31  5-MIN KARA 110205Z AUTO 19003KT 10SM CLR 24/23 A2996 0 93 1100 190/03 RMK AO2 T02440233
53915KARA ARA20160810201010808/10/16 20:10:31  5-MIN KARA 110210Z AUTO 00000KT 10SM CLR 24/23 A2996 -10 93 1100 000/00 RMK AO2 T02440233
53915KARA ARA20160810201510808/10/16 20:15:31  5-MIN KARA 110215Z AUTO 00000KT 10SM CLR 24/23 A2996 -10 93 1100 000/00 RMK AO2 T02440233
53915KARA ARA20160810202010808/10/16 20:20:31  5-MIN KARA 110220Z AUTO 00000KT 10SM CLR 25/23 A2996 -10 90 1200 000/00 RMK AO2 T02500233
53915KARA ARA20160810202510808/10/16 20:25:31  5-MIN KARA 110225Z AUTO 00000KT 10SM CLR 25/23 A2996 -10 90 1200 000/00 RMK AO2 T02500233
53915KARA ARA20160810203010808/10/16 20:30:31  5-MIN KARA 110230Z AUTO 00000KT 10SM CLR 24/23 A2997 -10 93 1100 000/00 RMK AO2 T02440233
53915KARA ARA20160810203510808/10/16 20:35:31  5-MIN KARA 110235Z AUTO 00000KT 10SM CLR 25/23 A2997 -10 90 1200 000/00 RMK AO2 T02500233
53915KARA ARA20160810204010808/10/16 20:40:31  5-MIN KARA 110240Z AUTO 00000KT 10SM CLR 25/23 A2997 -20 90 1200 000/00 RMK AO2 T02500233
53915KARA ARA20160810204510808/10/16 20:45:31  5-MIN KARA 110245Z AUTO 00000KT 10SM CLR 25/23 A2997 -20 90 1200 000/00 RMK AO2 T02500233
53915KARA ARA20160810205012108/10/16 20:50:31  5-MIN KARA 110250Z AUTO 00000KT 10SM CLR 24/24 A2997 -20 97 1100 000/00 RMK AO2 SLP149 T02440239 55005
53915KARA ARA20160810205510808/10/16 20:55:31  5-MIN KARA 110255Z AUTO 00000KT 10SM CLR 25/24 A2998 -20 93 1200 000/00 RMK AO2 T02500239
53915KARA ARA20160810210010808/10/16 21:00:31  5-MIN KARA 110300Z AUTO 17003KT 10SM CLR 25/23 A2998 -20 90 1200 170/03 RMK AO2 T02500233
53915KARA ARA20160810210510808/10/16 21:05:31  5-MIN KARA 110305Z AUTO 00000KT 10SM CLR 25/24 A2997 -20 93 1200 000/00 RMK AO2 T02500239
53915KARA ARA20160810211010808/10/16 21:10:31  5-MIN KARA 110310Z AUTO 00000KT 10SM CLR 25/24 A2997 -20 93 1200 000/00 RMK AO2 T02500239
53915KARA ARA20160810211510808/10/16 21:15:31  5-MIN KARA 110315Z AUTO 00000KT 10SM CLR 25/24 A2997 -20 93 1200 000/00 RMK AO2 T02500239
53915KARA ARA20160810212010808/10/16 21:20:31  5-MIN KARA 110320Z AUTO 00000KT 10SM CLR 25/24 A2998 -20 93 1200 000/00 RMK AO2 T02500239
53915KARA ARA20160810212510808/10/16 21:25:31  5-MIN KARA 110325Z AUTO 00000KT 10SM CLR 25/24 A2998 -20 93 1200 000/00 RMK AO2 T02500239
53915KARA ARA20160810213010808/10/16 21:30:31  5-MIN KARA 110330Z AUTO 00000KT 10SM CLR 25/24 A2998 -20 93 1200 000/00 RMK AO2 T02500239
53915KARA ARA20160810213510808/10/16 21:35:31  5-MIN KARA 110335Z AUTO 00000KT 10SM CLR 25/24 A2998 -20 93 1200 000/00 RMK AO2 T02500239
53915KARA ARA20160810214010808/10/16 21:40:31  5-MIN KARA 110340Z AUTO 14003KT 10SM CLR 25/24 A2998 -20 93 1200 140/03 RMK AO2 T02500239
53915KARA ARA20160810214510808/10/16 21:45:31  5-MIN KARA 110345Z AUTO 00000KT 10SM CLR 25/24 A2997 -20 93 1200 000/00 RMK AO2 T02500239
53915KARA ARA20160810215011408/10/16 21:50:31  5-MIN KARA 110350Z AUTO 00000KT 9SM CLR 25/24 A2997 -20 93 1200 000/00 RMK AO2 SLP149 T02500239
53915KARA ARA20160810215510708/10/16 21:55:31  5-MIN KARA 110355Z AUTO 00000KT 9SM CLR 25/24 A2997 -20 93 1200 000/00 RMK AO2 T02500239
53915KARA ARA20160810220010808/10/16 22:00:31  5-MIN KARA 110400Z AUTO 00000KT 10SM CLR 25/24 A2997 -20 93 1200 000/00 RMK AO2 T02500239
53915KARA ARA20160810220510808/10/16 22:05:31  5-MIN KARA 110405Z AUTO 00000KT 10SM CLR 25/24 A2997 -20 93 1200 000/00 RMK AO2 T02500239
53915KARA ARA20160810221010808/10/16 22:10:31  5-MIN KARA 110410Z AUTO 26004KT 10SM CLR 25/24 A2997 -10 93 1200 260/04 RMK AO2 T02500239
53915KARA ARA20160810221510808/10/16 22:15:31  5-MIN KARA 110415Z AUTO 22005KT 10SM CLR 24/24 A2996 -10 97 1100 220/05 RMK AO2 T02440239
53915KARA ARA20160810222010708/10/16 22:20:31  5-MIN KARA 110420Z AUTO 22003KT 9SM CLR 24/24 A2997 -10 97 1100 220/03 RMK AO2 T02440239
53915KARA ARA20160810222510808/10/16 22:25:31  5-MIN KARA 110425Z AUTO 00000KT 10SM CLR 24/24 A2997 -10 97 1100 000/00 RMK AO2 T02440239
53915KARA ARA20160810223010808/10/16 22:30:31  5-MIN KARA 110430Z AUTO 00000KT 10SM CLR 24/24 A2997 -10 97 1100 000/00 RMK AO2 T02440239
53915KARA ARA20160810223510808/10/16 22:35:31  5-MIN KARA 110435Z AUTO 00000KT 10SM CLR 25/24 A2997 -10 93 1200 000/00 RMK AO2 T02500239
53915KARA ARA20160810224010808/10/16 22:40:31  5-MIN KARA 110440Z AUTO 29003KT 10SM CLR 25/24 A2996 -10 93 1200 290/03 RMK AO2 T02500239
53915KARA ARA20160810224510808/10/16 22:45:31  5-MIN KARA 110445Z AUTO 00000KT 10SM CLR 25/24 A2997 -10 93 1200 000/00 RMK AO2 T02500239
53915KARA ARA20160810225011508/10/16 22:50:31  5-MIN KARA 110450Z AUTO 11003KT 10SM CLR 25/24 A2997 -10 93 1200 110/03 RMK AO2 SLP148 T02500239
53915KARA ARA20160810225510808/10/16 22:55:31  5-MIN KARA 110455Z AUTO 00000KT 10SM CLR 25/24 A2997 -20 93 1200 000/00 RMK AO2 T02500239
53915KARA ARA20160810230010808/10/16 23:00:31  5-MIN KARA 110500Z AUTO 00000KT 10SM CLR 25/24 A2997 -10 93 1200 000/00 RMK AO2 T02500239
53915KARA ARA20160810230510808/10/16 23:05:31  5-MIN KARA 110505Z AUTO 00000KT 10SM CLR 25/24 A2997 -10 93 1200 000/00 RMK AO2 T02500239
53915KARA ARA20160810231010808/10/16 23:10:31  5-MIN KARA 110510Z AUTO 00000KT 10SM CLR 24/24 A2997 -10 97 1100 000/00 RMK AO2 T02440239
53915KARA ARA20160810231510708/10/16 23:15:31  5-MIN KARA 110515Z AUTO 15004KT 9SM CLR 24/24 A2997 -10 97 1100 140/04 RMK AO2 T02440239
53915KARA ARA20160810232010708/10/16 23:20:31  5-MIN KARA 110520Z AUTO 00000KT 9SM CLR 24/24 A2997 -10 97 1100 000/00 RMK AO2 T02440239
53915KARA ARA20160810232510708/10/16 23:25:31  5-MIN KARA 110525Z AUTO 00000KT 9SM CLR 24/24 A2997 -10 97 1100 000/00 RMK AO2 T02440239
53915KARA ARA20160810233010808/10/16 23:30:31  5-MIN KARA 110530Z AUTO 00000KT 10SM CLR 24/24 A2997 -20 97 1100 000/00 RMK AO2 T02440239
53915KARA ARA20160810233510808/10/16 23:35:31  5-MIN KARA 110535Z AUTO 00000KT 10SM CLR 24/24 A2998 -20 97 1100 000/00 RMK AO2 T02440239
53915KARA ARA20160810234010708/10/16 23:40:31  5-MIN KARA 110540Z AUTO 00000KT 9SM CLR 24/24 A2998 -20 97 1100 000/00 RMK AO2 T02440239
53915KARA ARA20160810234510808/10/16 23:45:31  5-MIN KARA 110545Z AUTO 00000KT 10SM CLR 24/24 A2998 -20 97 1100 000/00 RMK AO2 T02440239
53915KARA ARA20160810235014308/10/16 23:50:31  5-MIN KARA 110550Z AUTO 00000KT 10SM CLR 24/24 A2998 -20 97 1100 000/00 RMK AO2 SLP151 T02440239 10256 20244 403220244 53002
53915KARA ARA20160810235510808/10/16 23:55:31  5-MIN KARA 110555Z AUTO 00000KT 10SM CLR 24/24 A2998 -30 97 1100 000/00 RMK AO2 T02440239
53915KARA ARA20160811000010808/11/16 00:00:31  5-MIN KARA 110600Z AUTO 00000KT 10SM CLR 24/24 A2999 -30 97 1100 000/00 RMK AO2 T02440239
53915KARA ARA20160811000510808/11/16 00:05:31  5-MIN KARA 110605Z AUTO 08003KT 10SM CLR 24/24 A2999 -30 97 1100 080/03 RMK AO2 T02440239
53915KARA ARA20160811001010808/11/16 00:10:31  5-MIN KARA 110610Z AUTO 00000KT 10SM CLR 24/24 A2998 -30 97 1100 000/00 RMK AO2 T02440239
53915KARA ARA20160811001510808/11/16 00:15:31  5-MIN KARA 110615Z AUTO 00000KT 10SM CLR 25/24 A2998 -30 93 1200 000/00 RMK AO2 T02500239
53915KARA ARA20160811002010808/11/16 00:20:31  5-MIN KARA 110620Z AUTO 00000KT 10SM CLR 25/24 A2998 -30 93 1200 000/00 RMK AO2 T02500239
53915KARA ARA20160811002510808/11/16 00:25:31  5-MIN KARA 110625Z AUTO 00000KT 10SM CLR 25/24 A2998 -20 93 1200 000/00 RMK AO2 T02500239
53915KARA ARA20160811003010808/11/16 00:30:31  5-MIN KARA 110630Z AUTO 00000KT 10SM CLR 25/24 A2998 -20 93 1200 000/00 RMK AO2 T02500239
53915KARA ARA20160811003510808/11/16 00:35:31  5-MIN KARA 110635Z AUTO 00000KT 10SM CLR 24/24 A2998 -20 97 1100 000/00 RMK AO2 T02440239
53915KARA ARA20160811004010708/11/16 00:40:31  5-MIN KARA 110640Z AUTO 22004KT 9SM CLR 24/24 A2997 -20 97 1100 220/04 RMK AO2 T02440239
53915KARA ARA20160811004510708/11/16 00:45:31  5-MIN KARA 110645Z AUTO 23005KT 8SM CLR 24/24 A2997 -10 97 1100 220/05 RMK AO2 T02440239
53915KARA ARA20160811005011408/11/16 00:50:31  5-MIN KARA 110650Z AUTO 23004KT 8SM CLR 24/24 A2997 -10 97 1100 230/04 RMK AO2 SLP146 T02440239
53915KARA ARA20160811005510708/11/16 00:55:31  5-MIN KARA 110655Z AUTO 24004KT 8SM CLR 24/24 A2996 -10 97 1100 240/04 RMK AO2 T02440239
53915KARA ARA20160811010010708/11/16 01:00:31  5-MIN KARA 110700Z AUTO 00000KT 8SM CLR 24/24 A2997 -10 97 1100 000/00 RMK AO2 T02440239
53915KARA ARA20160811010510708/11/16 01:05:31  5-MIN KARA 110705Z AUTO 00000KT 9SM CLR 24/24 A2997 -10 97 1100 000/00 RMK AO2 T02440239
53915KARA ARA20160811011010708/11/16 01:10:31  5-MIN KARA 110710Z AUTO 00000KT 9SM CLR 24/24 A2997 -10 97 1100 000/00 RMK AO2 T02440239
53915KARA ARA20160811011510808/11/16 01:15:31  5-MIN KARA 110715Z AUTO 00000KT 10SM CLR 24/24 A2997 -10 97 1100 000/00 RMK AO2 T02440239
53915KARA ARA20160811012010808/11/16 01:20:31  5-MIN KARA 110720Z AUTO 00000KT 10SM CLR 24/24 A2997 -10 97 1100 000/00 RMK AO2 T02440239
53915KARA ARA20160811012510808/11/16 01:25:31  5-MIN KARA 110725Z AUTO 00000KT 10SM CLR 24/24 A2997 -10 97 1100 000/00 RMK AO2 T02440239
53915KARA ARA20160811013010808/11/16 01:30:31  5-MIN KARA 110730Z AUTO 00000KT 10SM CLR 24/24 A2997 -10 97 1100 000/00 RMK AO2 T02440239
53915KARA ARA20160811013510808/11/16 01:35:31  5-MIN KARA 110735Z AUTO 00000KT 10SM CLR 24/24 A2996 -10 97 1100 000/00 RMK AO2 T02440239
53915KARA ARA20160811014010808/11/16 01:40:31  5-MIN KARA 110740Z AUTO 00000KT 10SM CLR 24/24 A2996 -10 97 1100 000/00 RMK AO2 T02440239
53915KARA ARA20160811014510608/11/16 01:45:31  5-MIN KARA 110745Z AUTO 00000KT 10SM CLR 24/24 A2996 0 97 1100 000/00 RMK AO2 T02440239
53915KARA ARA20160811015011308/11/16 01:50:31  5-MIN KARA 110750Z AUTO 00000KT 10SM CLR 24/24 A2996 0 97 1100 000/00 RMK AO2 SLP144 T02440239
53915KARA ARA20160811015510608/11/16 01:55:31  5-MIN KARA 110755Z AUTO 00000KT 10SM CLR 25/24 A2996 0 93 1200 000/00 RMK AO2 T02500239
53915KARA ARA20160811020010608/11/16 02:00:31  5-MIN KARA 110800Z AUTO 00000KT 10SM CLR 25/24 A2996 0 93 1200 000/00 RMK AO2 T02500239
53915KARA ARA20160811020510608/11/16 02:05:31  5-MIN KARA 110805Z AUTO 00000KT 10SM CLR 25/24 A2995 0 93 1200 000/00 RMK AO2 T02500239
53915KARA ARA20160811021010608/11/16 02:10:31  5-MIN KARA 110810Z AUTO 00000KT 10SM CLR 25/24 A2995 0 93 1200 000/00 RMK AO2 T02500239
53915KARA ARA20160811021510608/11/16 02:15:31  5-MIN KARA 110815Z AUTO 00000KT 10SM CLR 25/24 A2995 0 93 1200 000/00 RMK AO2 T02500239
53915KARA ARA20160811022010608/11/16 02:20:31  5-MIN KARA 110820Z AUTO 00000KT 10SM CLR 25/24 A2995 0 93 1200 000/00 RMK AO2 T02500239
53915KARA ARA20160811022511708/11/16 02:25:31  5-MIN KARA 110825Z AUTO 00000KT 10SM CLR 25/24 A2995 0 93 1200 000/00 RMK AO2 LTG DSNT S T02500239
53915KARA ARA20160811023011708/11/16 02:30:31  5-MIN KARA 110830Z AUTO 00000KT 10SM CLR 25/24 A2995 0 93 1200 000/00 RMK AO2 LTG DSNT S T02500239
53915KARA ARA20160811023511708/11/16 02:35:31  5-MIN KARA 110835Z AUTO 00000KT 10SM CLR 25/24 A2995 0 93 1200 000/00 RMK AO2 LTG DSNT S T02500239
53915KARA ARA20160811024010608/11/16 02:40:31  5-MIN KARA 110840Z AUTO 00000KT 10SM CLR 25/24 A2996 0 93 1200 000/00 RMK AO2 T02500239
53915KARA ARA20160811024510608/11/16 02:45:31  5-MIN KARA 110845Z AUTO 00000KT 10SM CLR 25/24 A2996 0 93 1200 000/00 RMK AO2 T02500239
53915KARA ARA20160811025011908/11/16 02:50:31  5-MIN KARA 110850Z AUTO 00000KT 10SM CLR 25/24 A2996 0 93 1200 000/00 RMK AO2 SLP144 T02500239 53002
53915KARA ARA20160811025510808/11/16 02:55:31  5-MIN KARA 110855Z AUTO 00000KT 10SM CLR 25/24 A2996 -10 93 1200 000/00 RMK AO2 T02500239
53915KARA ARA20160811030010808/11/16 03:00:31  5-MIN KARA 110900Z AUTO 15003KT 10SM CLR 25/24 A2996 -10 93 1200 150/03 RMK AO2 T02500239
53915KARA ARA20160811030510808/11/16 03:05:31  5-MIN KARA 110905Z AUTO 00000KT 10SM CLR 25/24 A2996 -10 93 1200 000/00 RMK AO2 T02500239
53915KARA ARA20160811031010608/11/16 03:10:31  5-MIN KARA 110910Z AUTO 00000KT 10SM CLR 25/24 A2996 0 93 1200 000/00 RMK AO2 T02500239
53915KARA ARA20160811031510608/11/16 03:15:31  5-MIN KARA 110915Z AUTO 00000KT 10SM CLR 25/24 A2996 0 93 1200 000/00 RMK AO2 T02500239
53915KARA ARA20160811032010608/11/16 03:20:31  5-MIN KARA 110920Z AUTO 00000KT 10SM CLR 25/24 A2996 0 93 1200 000/00 RMK AO2 T02500239
53915KARA ARA20160811032510608/11/16 03:25:31  5-MIN KARA 110925Z AUTO 00000KT 10SM CLR 25/24 A2996 0 93 1200 000/00 RMK AO2 T02500239
53915KARA ARA20160811033010608/11/16 03:30:31  5-MIN KARA 110930Z AUTO 00000KT 10SM CLR 25/24 A2996 0 93 1200 000/00 RMK AO2 T02500239
53915KARA ARA20160811033511708/11/16 03:35:31  5-MIN KARA 110935Z AUTO 00000KT 10SM CLR 25/24 A2995 0 93 1200 000/00 RMK AO2 LTG DSNT S T02500239
53915KARA ARA20160811034011708/11/16 03:40:31  5-MIN KARA 110940Z AUTO 00000KT 10SM CLR 25/24 A2995 0 93 1200 000/00 RMK AO2 LTG DSNT S T02500239
53915KARA ARA20160811034511708/11/16 03:45:31  5-MIN KARA 110945Z AUTO 00000KT 10SM CLR 25/24 A2995 0 93 1200 000/00 RMK AO2 LTG DSNT S T02500239
53915KARA ARA20160811035012408/11/16 03:50:31  5-MIN KARA 110950Z AUTO 00000KT 10SM CLR 25/24 A2995 0 93 1200 000/00 RMK AO2 LTG DSNT S SLP139 T02500239
53915KARA ARA20160811035511708/11/16 03:55:31  5-MIN KARA 110955Z AUTO 00000KT 10SM CLR 25/24 A2994 0 93 1200 000/00 RMK AO2 LTG DSNT S T02500239
53915KARA ARA20160811040011708/11/16 04:00:31  5-MIN KARA 111000Z AUTO 00000KT 10SM CLR 25/24 A2994 0 93 1200 000/00 RMK AO2 LTG DSNT S T02500239
53915KARA ARA20160811040511808/11/16 04:05:31  5-MIN KARA 111005Z AUTO 00000KT 10SM CLR 25/24 A2994 10 93 1200 000/00 RMK AO2 LTG DSNT S T02500239
53915KARA ARA20160811041012008/11/16 04:10:31  5-MIN KARA 111010Z AUTO 00000KT 10SM FEW020 25/24 A2994 0 93 1200 000/00 RMK AO2 LTG DSNT S T02500239
53915KARA ARA20160811041512708/11/16 04:15:31  5-MIN KARA 111015Z AUTO 00000KT 10SM FEW020 FEW042 25/24 A2995 0 93 1200 000/00 RMK AO2 LTG DSNT S T02500239
53915KARA ARA20160811042012708/11/16 04:20:31  5-MIN KARA 111020Z AUTO 00000KT 10SM FEW020 SCT042 25/24 A2995 0 97 1200 000/00 RMK AO2 LTG DSNT S T02500244
53915KARA ARA20160811042512708/11/16 04:25:31  5-MIN KARA 111025Z AUTO 00000KT 10SM SCT020 BKN042 25/24 A2995 0 97 1200 000/00 RMK AO2 LTG DSNT S T02500244
53915KARA ARA20160811043013408/11/16 04:30:31  5-MIN KARA 111030Z AUTO 00000KT 10SM SCT022 SCT027 BKN042 26/24 A2995 0 93 1300 000/00 RMK AO2 LTG DSNT S T02560244
53915KARA ARA20160811043513008/11/16 04:35:31  5-MIN KARA 111035Z 00000KT 10SM SCT022 BKN027 BKN042 25/24 A2996 0 97 1200 000/00 RMK AO2 LTG DSNT SW T02500244
53915KARA ARA20160811044013008/11/16 04:40:31  5-MIN KARA 111040Z 00000KT 10SM SCT020 SCT025 OVC042 25/24 A2996 0 97 1200 000/00 RMK AO2 LTG DSNT SW T02500244
53915KARA ARA20160811044513008/11/16 04:45:31  5-MIN KARA 111045Z 00000KT 10SM SCT020 BKN025 OVC042 25/24 A2996 0 97 1200 000/00 RMK AO2 LTG DSNT SW T02500244
53915KARA ARA20160811045011908/11/16 04:50:31  5-MIN KARA 111050Z 00000KT 10SM SCT020 BKN030 OVC055 25/24 A2995 0 97 1200 000/00 RMK AO2 LTG DSNT S
53915KARA ARA20160811045512908/11/16 04:55:31  5-MIN KARA 111055Z 00000KT 10SM FEW020 SCT026 BKN055 26/24 A2995 0 93 1300 000/00 RMK AO2 LTG DSNT S T02560244
53915KARA ARA20160811050012908/11/16 05:00:31  5-MIN KARA 111100Z 00000KT 10SM FEW022 SCT042 SCT055 26/24 A2995 0 90 1300 000/00 RMK AO2 LTG DSNT S T02560239
53915KARA ARA20160811050511808/11/16 05:05:31  5-MIN KARA 111105Z 00000KT 10SM FEW022 FEW042 SCT055 26/24 A2995 0 90 1300 000/00 RMK AO2 T02560239
53915KARA ARA20160811051010408/11/16 05:10:31  5-MIN KARA 111110Z 00000KT 10SM FEW055 26/24 A2995 0 90 1300 000/00 RMK AO2 T02560239
53915KARA ARA20160811051510408/11/16 05:15:31  5-MIN KARA 111115Z 00000KT 10SM FEW055 26/24 A2995 0 90 1300 000/00 RMK AO2 T02560239
53915KARA ARA20160811052010108/11/16 05:20:31  5-MIN KARA 111120Z 19005KT 10SM CLR 25/24 A2995 0 93 1200 190/05 RMK AO2 T02500239
53915KARA ARA20160811052510408/11/16 05:25:31  5-MIN KARA 111125Z 20003KT 10SM FEW048 25/24 A2996 0 93 1200 200/03 RMK AO2 T02500239
53915KARA ARA20160811053011108/11/16 05:30:31  5-MIN KARA 111130Z 20003KT 10SM FEW019 FEW048 25/24 A2996 0 93 1200 200/03 RMK AO2 T02500239
53915KARA ARA20160811053511308/11/16 05:35:31  5-MIN KARA 111135Z 22003KT 10SM SCT019 SCT048 25/24 A2996 -10 97 1200 220/03 RMK AO2 T02500244
53915KARA ARA20160811054011308/11/16 05:40:31  5-MIN KARA 111140Z 22003KT 10SM BKN021 BKN048 25/24 A2996 -10 97 1200 220/03 RMK AO2 T02500244
53915KARA ARA20160811054511308/11/16 05:45:31  5-MIN KARA 111145Z 21003KT 10SM BKN021 BKN050 26/24 A2997 -10 93 1200 210/03 RMK AO2 T02560244
53915KARA ARA20160811055014408/11/16 05:50:31  5-MIN KARA 111150Z 22003KT 10SM BKN021 BKN050 26/24 A2997 -10 93 1200 220/03 RMK AO2 SLP148 70061 T02560244 10256 20244 55008
53915KARA ARA20160811055511308/11/16 05:55:31  5-MIN KARA 111155Z 23003KT 10SM FEW009 BKN021 26/24 A2997 -20 93 1200 230/03 RMK AO2 T02560244
53915KARA ARA20160811060011308/11/16 06:00:31  5-MIN KARA 111200Z 27004KT 10SM SCT009 BKN020 26/24 A2997 -20 93 1200 270/04 RMK AO2 T02560244
53915KARA ARA20160811060511308/11/16 06:05:31  5-MIN KARA 111205Z 28003KT 10SM BKN009 BKN020 26/24 A2997 -20 93 1200 280/03 RMK AO2 T02560244
53915KARA ARA20160811061011308/11/16 06:10:31  5-MIN KARA 111210Z 26003KT 10SM BKN010 BKN020 26/24 A2997 -20 93 1200 260/03 RMK AO2 T02560244
53915KARA ARA20160811061512508/11/16 06:15:31  5-MIN KARA 111215Z 00000KT 10SM BKN010 OVC020 26/24 A2997 -20 93 1200 000/00 RMK AO2 CIG 009V015 T02560244
53915KARA ARA20160811062011808/11/16 06:20:31  5-MIN KARA 111220Z 00000KT 10SM OVC010 26/24 A2997 -20 93 1200 000/00 RMK AO2 CIG 009V013 T02560244
53915KARA ARA20160811062510608/11/16 06:25:31  5-MIN KARA 111225Z 26004KT 10SM OVC010 26/24 A2997 -20 90 1300 260/04 RMK AO2 T02610244
53915KARA ARA20160811063010608/11/16 06:30:31  5-MIN KARA 111230Z 26003KT 10SM OVC010 26/24 A2997 -20 90 1300 260/03 RMK AO2 T02610244
53915KARA ARA20160811063510608/11/16 06:35:31  5-MIN KARA 111235Z 00000KT 10SM OVC010 26/24 A2998 -20 90 1300 000/00 RMK AO2 T02610244
53915KARA ARA20160811064010608/11/16 06:40:31  5-MIN KARA 111240Z 23003KT 10SM OVC010 26/25 A2998 -30 93 1300 230/03 RMK AO2 T02610250
53915KARA ARA20160811064510608/11/16 06:45:31  5-MIN KARA 111245Z 21004KT 10SM OVC010 26/25 A2999 -30 93 1300 210/04 RMK AO2 T02610250
53915KARA ARA20160811065011308/11/16 06:50:31  5-MIN KARA 111250Z 22003KT 10SM OVC012 26/24 A2999 -40 90 1300 220/03 RMK AO2 SLP156 T02610244
53915KARA ARA20160811065510608/11/16 06:55:31  5-MIN KARA 111255Z 20004KT 10SM OVC012 26/25 A3000 -40 93 1300 200/04 RMK AO2 T02610250
53915KARA ARA20160811070010608/11/16 07:00:31  5-MIN KARA 111300Z 20003KT 10SM OVC012 26/25 A3000 -40 93 1300 200/03 RMK AO2 T02610250
53915KARA ARA20160811070510608/11/16 07:05:31  5-MIN KARA 111305Z 21003KT 10SM OVC014 26/25 A3000 -40 93 1300 210/03 RMK AO2 T02610250
53915KARA ARA20160811071011308/11/16 07:10:31  5-MIN KARA 111310Z 23007KT 10SM BKN014 OVC020 26/24 A3000 -40 90 1300 230/07 RMK AO2 T02610244
53915KARA ARA20160811071510608/11/16 07:15:31  5-MIN KARA 111315Z 22006KT 10SM OVC018 26/24 A3000 -40 93 1200 220/06 RMK AO2 T02560244
53915KARA ARA20160811072011308/11/16 07:20:31  5-MIN KARA 111320Z 21007KT 10SM BKN018 OVC023 26/24 A3000 -50 93 1200 210/07 RMK AO2 T02560244
53915KARA ARA20160811072512908/11/16 07:25:31  5-MIN KARA 111325Z 22007KT 10SM -RA BKN018 OVC024 26/24 A3001 -50 93 1200 220/07 RMK AO2 RAB25 P0000 T02560244
53915KARA ARA20160811073013508/11/16 07:30:31  5-MIN KARA 111330Z 22006KT 8SM -RA FEW011 BKN018 OVC024 26/24 A3001 -50 90 1200 220/06 RMK AO2 RAB25 P0001 T02560239
53915KARA ARA20160811073512808/11/16 07:35:31  5-MIN KARA 111335Z 24008KT 7SM -RA SCT014 OVC021 26/24 A3001 -50 90 1200 240/08 RMK AO2 RAB25 P0001 T02560239
53915KARA ARA20160811074013308/11/16 07:40:31  5-MIN KARA 111340Z 25009KT 7SM VCTS -RA FEW013 OVC023 26/24 A3001 -50 90 1200 250/09 RMK AO2 RAB25 P0001 T02560239
53915KARA ARA20160811074513308/11/16 07:45:31  5-MIN KARA 111345Z 23008KT 7SM VCTS -RA FEW013 OVC025 26/24 A3001 -50 90 1200 230/08 RMK AO2 RAB25 P0002 T02560239
53915KARA ARA20160811075014708/11/16 07:50:31  5-MIN KARA 111350Z 24006KT 7SM VCTS -RA FEW013 BKN027 OVC031 26/24 A3001 -60 90 1200 230/06 RMK AO2 RAB25 SLP163 P0002 T02560239
53915KARA ARA20160811075514208/11/16 07:55:31  5-MIN KARA 111355Z 22008KT 5SM RA BR FEW012 BKN027 OVC031 26/24 A3001 -50 90 1200 220/08 RMK AO2 LTG DSNT W P0001 T02560239
53915KARA ARA20160811080014308/11/16 08:00:31  5-MIN KARA 111400Z 23006KT 5SM -RA BR FEW016 SCT026 OVC033 26/24 A3001 -50 93 1200 230/06 RMK AO2 LTG DSNT W P0001 T02560244
53915KARA ARA20160811080514008/11/16 08:05:31  5-MIN KARA 111405Z 25005KT 9SM -RA FEW026 OVC035 26/24 A3001 -60 93 1200 250/05 RMK AO2 LTG DSNT SW AND W P0001 T02560244
53915KARA ARA20160811081014808/11/16 08:10:31  5-MIN KARA 111410Z 26004KT 10SM VCTS -RA FEW013 BKN029 OVC037 26/25 A3002 -60 97 1200 260/04 RMK AO2 LTG DSNT S-W P0001 T02560250
53915KARA ARA20160811081514008/11/16 08:15:31  5-MIN KARA 111415Z 26005KT 9SM VCTS -RA SCT013 OVC033 26/25 A3002 -60 97 1200 260/05 RMK AO2 LTG DSNT S-W P0001 T02560250
53915KARA ARA20160811082014508/11/16 08:20:31  5-MIN KARA 111420Z 26005KT 9SM VCTS -RA BKN011 OVC035 26/25 A3002 -60 93 1200 260/05 RMK AO2 LTG DSNT S AND SW P0001 T02610250
53915KARA ARA20160811082514108/11/16 08:25:31  5-MIN KARA 111425Z 26005KT 9SM -RA BKN011 BKN030 OVC037 26/25 A3002 -60 93 1200 260/05 RMK AO2 LTG DSNT SW P0001 T02610250
53915KARA ARA20160811083014208/11/16 08:30:31  5-MIN KARA 111430Z 26007KT 10SM -RA BKN013 BKN030 OVC037 26/25 A3002 -60 93 1200 260/07 RMK AO2 LTG DSNT SW P0001 T02610250
53915KARA ARA20160811083512308/11/16 08:35:31  5-MIN KARA 111435Z 26010KT 10SM -RA BKN013 OVC030 26/25 A3002 -60 93 1200 260/10 RMK AO2 P0001 T02610250
53915KARA ARA20160811084012308/11/16 08:40:31  5-MIN KARA 111440Z 25009KT 10SM -RA BKN012 OVC030 26/25 A3001 -50 93 1300 250/09 RMK AO2 P0001 T02610250
53915KARA ARA20160811084513008/11/16 08:45:31  5-MIN KARA 111445Z 25009KT 10SM -RA BKN012 BKN033 OVC045 27/25 A3001 -60 90 1300 250/09 RMK AO2 P0001 T02670250
53915KARA ARA20160811085014908/11/16 08:50:31  5-MIN KARA 111450Z 24009KT 10SM -RA BKN012 BKN030 BKN041 27/25 A3002 -60 90 1300 240/09 RMK AO2 SLP163 P0001 60004 T02670250 53004
53915KARA ARA20160811085512008/11/16 08:55:31  5-MIN KARA 111455Z 25008KT 10SM FEW009 BKN013 OVC031 26/25 A3002 -60 93 1200 250/08 RMK AO2 T02610250
53915KARA ARA20160811090012008/11/16 09:00:31  5-MIN KARA 111500Z 26007KT 10SM SCT009 BKN013 OVC031 26/25 A3002 -60 93 1200 260/07 RMK AO2 T02610250
53915KARA ARA20160811090512008/11/16 09:05:31  5-MIN KARA 111505Z 25007KT 10SM BKN007 BKN011 OVC031 26/25 A3002 -60 93 1200 250/07 RMK AO2 T02610250
53915KARA ARA20160811091013208/11/16 09:10:31  5-MIN KARA 111510Z 24008KT 10SM BKN007 BKN011 OVC031 26/25 A3002 -60 93 1200 240/08 RMK AO2 CIG 006V009 T02610250
53915KARA ARA20160811091512008/11/16 09:15:31  5-MIN KARA 111515Z 26009KT 10SM BKN007 BKN012 OVC045 27/25 A3001 -60 90 1300 250/09 RMK AO2 T02670250
53915KARA ARA20160811092013608/11/16 09:20:31  5-MIN KARA 111520Z 24009KT 10SM -RA BKN007 BKN013 OVC027 27/24 A3001 -50 87 1300 240/09 RMK AO2 RAB18 P0000 T02670244
53915KARA ARA20160811092513608/11/16 09:25:31  5-MIN KARA 111525Z 25008KT 10SM -RA SCT007 BKN011 BKN023 27/24 A3001 -50 87 1300 250/08 RMK AO2 RAB18 P0000 T02670244
53915KARA ARA20160811093013508/11/16 09:30:31  5-MIN KARA 111530Z 26010KT 10SM FEW007 SCT011 BKN041 27/24 A3001 -50 87 1300 260/10 RMK AO2 RAB18E30 P0000 T02670244
53915KARA ARA20160811093513508/11/16 09:35:31  5-MIN KARA 111535Z 25009KT 10SM FEW007 SCT032 BKN043 27/24 A3001 -50 87 1300 250/09 RMK AO2 RAB18E30 P0000 T02670244
53915KARA ARA20160811094013508/11/16 09:40:31  5-MIN KARA 111540Z 26007KT 10SM FEW009 SCT037 BKN047 27/24 A3001 -50 87 1300 250/07 RMK AO2 RAB18E30 P0000 T02670244
53915KARA ARA20160811094513508/11/16 09:45:31  5-MIN KARA 111545Z 25007KT 10SM FEW011 BKN042 BKN049 27/24 A3001 -50 87 1300 250/07 RMK AO2 RAB18E30 P0000 T02670244
53915KARA ARA20160811095014208/11/16 09:50:31  5-MIN KARA 111550Z 26012KT 10SM -RA BKN044 BKN055 27/24 A3000 -50 84 1400 260/12 RMK AO2 RAB18E30B50 SLP159 P0000 T02720244
53915KARA ARA20160811095510608/11/16 09:55:31  5-MIN KARA 111555Z 25010KT 10SM BKN045 28/24 A3001 -50 82 1400 250/10 RMK AO2 T02780244
53915KARA ARA20160811100011308/11/16 10:00:31  5-MIN KARA 111600Z 26010KT 10SM FEW042 BKN050 28/25 A3001 -50 84 1400 260/10 RMK AO2 T02780250
53915KARA ARA20160811100512608/11/16 10:05:31  5-MIN KARA 111605Z 26010G17KT 10SM FEW040 BKN047 BKN060 28/24 A3001 -50 82 1400 260/10G17 RMK AO2 T02780244
53915KARA ARA20160811101012608/11/16 10:10:31  5-MIN KARA 111610Z 26011G17KT 10SM FEW014 SCT040 BKN047 28/25 A3001 -50 84 1400 260/11G17 RMK AO2 T02780250
53915KARA ARA20160811101512008/11/16 10:15:31  5-MIN KARA 111615Z 27014KT 10SM FEW014 BKN043 BKN055 28/25 A3001 -50 82 1500 270/14 RMK AO2 T02830250
53915KARA ARA20160811102013608/11/16 10:20:31  5-MIN KARA 111620Z 29013KT 10SM -RA FEW014 SCT040 BKN048 28/24 A3001 -50 82 1400 290/13 RMK AO2 RAB16 P0000 T02780244
53915KARA ARA20160811102513608/11/16 10:25:31  5-MIN KARA 111625Z 29009KT 10SM -RA FEW014 BKN038 OVC060 27/24 A3001 -50 84 1400 290/09 RMK AO2 RAB16 P0000 T02720244
53915KARA ARA20160811103013608/11/16 10:30:31  5-MIN KARA 111630Z 27007KT 10SM -RA FEW014 BKN037 OVC060 27/24 A3001 -50 84 1400 270/07 RMK AO2 RAB16 P0000 T02720244
53915KARA ARA20160811103513508/11/16 10:35:31  5-MIN KARA 111635Z 28012KT 9SM -RA FEW014 BKN035 OVC050 27/24 A3001 -50 84 1400 280/12 RMK AO2 RAB16 P0001 T02720244
53915KARA ARA20160811104012708/11/16 10:40:31  5-MIN KARA 111640Z 28010KT 7SM RA BKN035 OVC050 27/24 A3001 -50 87 1300 280/10 RMK AO2 RAB16 P0002 T02670244
53915KARA ARA20160811104513508/11/16 10:45:31  5-MIN KARA 111645Z 28010KT 8SM -RA SCT033 BKN042 OVC055 27/24 A3001 -50 87 1300 270/10 RMK AO2 RAB16 P0002 T02670244
53915KARA ARA20160811105015508/11/16 10:50:31  5-MIN KARA 111650Z 27009KT 10SM -RA SCT027 BKN035 OVC055 26/24 A3001 -50 90 1300 270/09 RMK AO2 LTG DSNT NE RAB16 SLP161 P0002 T02610244
53915KARA ARA20160811105514808/11/16 10:55:31  5-MIN KARA 111655Z 26009KT 10SM -RA SCT027 BKN033 OVC060 27/24 A3001 -50 87 1300 260/09 RMK AO2 LTG DSNT NE AND E P0000 T02670244
53915KARA ARA20160811110014808/11/16 11:00:31  5-MIN KARA 111700Z 25011KT 10SM -RA SCT029 BKN035 OVC060 26/24 A3000 -40 90 1300 240/11 RMK AO2 LTG DSNT NE AND E P0000 T02610244
53915KARA ARA20160811110515008/11/16 11:05:31  5-MIN KARA 111705Z 25009KT 10SM SCT029 BKN040 BKN050 26/24 A3000 -40 90 1300 250/09 RMK AO2 LTG DSNT NE AND E RAE01 P0000 T02610244
53915KARA ARA20160811111015008/11/16 11:10:31  5-MIN KARA 111710Z 25009KT 10SM SCT029 SCT040 BKN060 27/24 A3000 -40 84 1300 240/09 RMK AO2 LTG DSNT NE AND E RAE01 P0000 T02670239
53915KARA ARA20160811111515008/11/16 11:15:31  5-MIN KARA 111715Z 25009KT 10SM SCT029 SCT040 BKN095 27/24 A3000 -40 84 1300 250/09 RMK AO2 LTG DSNT NE AND E RAE01 P0000 T02670239
53915KARA ARA20160811112015008/11/16 11:20:31  5-MIN KARA 111720Z 25007KT 10SM FEW029 FEW040 BKN100 27/24 A3000 -40 84 1300 250/07 RMK AO2 LTG DSNT NE AND E RAE01 P0000 T02670239
53915KARA ARA20160811112513708/11/16 11:25:31  5-MIN KARA 111725Z 27006KT 10SM FEW029 BKN100 26/24 A3000 -50 87 1300 260/06 RMK AO2 LTG DSNT NE RAE01 P0000 T02610239
53915KARA ARA20160811113013008/11/16 11:30:31  5-MIN KARA 111730Z 25006KT 10SM SCT100 27/24 A3000 -50 84 1300 250/06 RMK AO2 LTG DSNT NE RAE01 P0000 T02670239
53915KARA ARA20160811113513608/11/16 11:35:31  5-MIN KARA 111735Z 25007KT 10SM SCT100 27/24 A3000 -40 84 1300 250/07 RMK AO2 LTG DSNT N AND NE RAE01 P0000 T02670239
53915KARA ARA20160811114013608/11/16 11:40:31  5-MIN KARA 111740Z 25006KT 10SM SCT100 27/24 A3000 -40 84 1300 250/06 RMK AO2 LTG DSNT N AND NE RAE01 P0000 T02670239
53915KARA ARA20160811114512908/11/16 11:45:31  5-MIN KARA 111745Z 24007KT 10SM SCT100 27/24 A3000 -40 87 1300 240/07 RMK AO2 LTG DSNT N RAE01 P0000 T02670244
53915KARA ARA20160811115016008/11/16 11:50:31  5-MIN KARA 111750Z 25005KT 10SM FEW100 27/24 A3000 -40 87 1300 250/05 RMK AO2 LTG DSNT N RAE01 SLP157 P0000 60006 T02670244 10283 20250 51015
53915KARA ARA20160811115512408/11/16 11:55:31  5-MIN KARA 111755Z 26005KT 10SM FEW100 27/24 A3000 -40 87 1300 250/05 RMK AO2 LTG DSNT N AND NE T02670244
53915KARA ARA20160811120012408/11/16 12:00:31  5-MIN KARA 111800Z 25006KT 10SM SCT100 27/24 A3000 -40 87 1300 250/06 RMK AO2 LTG DSNT N AND NE T02670244
53915KARA ARA20160811120512408/11/16 12:05:31  5-MIN KARA 111805Z 26004KT 10SM BKN100 27/24 A2999 -40 87 1300 260/04 RMK AO2 LTG DSNT N AND NE T02670244
53915KARA ARA20160811121011908/11/16 12:10:31  5-MIN KARA 111810Z 24004KT 10SM BKN100 27/24 A2999 -30 87 1300 240/04 RMK AO2 LTG DSNT N-E T02670244
53915KARA ARA20160811121511908/11/16 12:15:31  5-MIN KARA 111815Z 23005KT 10SM SCT110 27/24 A2999 -30 87 1300 230/05 RMK AO2 LTG DSNT N-E T02670244
53915KARA ARA20160811122011908/11/16 12:20:31  5-MIN KARA 111820Z 24004KT 10SM SCT100 27/24 A2999 -40 84 1400 240/04 RMK AO2 LTG DSNT N-E T02720244
53915KARA ARA20160811122512408/11/16 12:25:31  5-MIN KARA 111825Z 00000KT 10SM SCT100 27/25 A2999 -40 87 1400 000/00 RMK AO2 LTG DSNT N AND NE T02720250
53915KARA ARA20160811123011808/11/16 12:30:31  5-MIN KARA 111830Z 00000KT 10SM SCT110 27/24 A3000 -40 84 1400 000/00 RMK AO2 LTG DSNT NE T02720244
53915KARA ARA20160811123511808/11/16 12:35:31  5-MIN KARA 111835Z 00000KT 10SM FEW120 27/24 A3000 -40 84 1400 000/00 RMK AO2 LTG DSNT NE T02720244
53915KARA ARA20160811124010608/11/16 12:40:31  5-MIN KARA 111840Z 00000KT 10SM FEW075 28/24 A2999 -40 82 1500 000/00 RMK AO2 T02780244
53915KARA ARA20160811124510608/11/16 12:45:31  5-MIN KARA 111845Z 00000KT 10SM SCT075 28/24 A2999 -30 82 1500 000/00 RMK AO2 T02780244
53915KARA ARA20160811125011308/11/16 12:50:31  5-MIN KARA 111850Z 00000KT 10SM SCT075 27/25 A2999 -30 87 1400 000/00 RMK AO2 SLP153 T02720250
53915KARA ARA20160811125510608/11/16 12:55:31  5-MIN KARA 111855Z 00000KT 10SM SCT075 28/24 A2998 -30 82 1500 000/00 RMK AO2 T02780244
53915KARA ARA20160811130010608/11/16 13:00:31  5-MIN KARA 111900Z 00000KT 10SM SCT070 28/24 A2998 -20 82 1500 000/00 RMK AO2 T02780244
53915KARA ARA20160811130512408/11/16 13:05:31  5-MIN KARA 111905Z 19004KT 10SM SCT070 28/25 A2997 -10 84 1500 190/04 RMK AO2 LTG DSNT N PRESFR T02780250
53915KARA ARA20160811131012408/11/16 13:10:31  5-MIN KARA 111910Z 20004KT 10SM SCT070 28/25 A2997 -10 84 1500 200/04 RMK AO2 LTG DSNT N AND NW T02780250
53915KARA ARA20160811131512408/11/16 13:15:31  5-MIN KARA 111915Z 22004KT 10SM FEW070 28/25 A2996 -10 84 1500 220/04 RMK AO2 LTG DSNT N AND NW T02780250
53915KARA ARA20160811132012208/11/16 13:20:31  5-MIN KARA 111920Z 21004KT 10SM FEW070 28/25 A2996 0 84 1500 210/04 RMK AO2 LTG DSNT N AND NW T02780250
53915KARA ARA20160811132510408/11/16 13:25:31  5-MIN KARA 111925Z 23004KT 10SM FEW070 28/25 A2996 0 84 1500 230/04 RMK AO2 T02780250
53915KARA ARA20160811133010108/11/16 13:30:31  5-MIN KARA 111930Z 20005KT 10SM CLR 28/25 A2996 0 84 1500 200/05 RMK AO2 T02780250
53915KARA ARA20160811133510108/11/16 13:35:31  5-MIN KARA 111935Z 19004KT 10SM CLR 28/25 A2996 0 84 1500 190/04 RMK AO2 T02780250
53915KARA ARA20160811134010108/11/16 13:40:31  5-MIN KARA 111940Z 20004KT 10SM CLR 28/25 A2996 0 84 1500 200/04 RMK AO2 T02780250
53915KARA ARA20160811134510308/11/16 13:45:31  5-MIN KARA 111945Z 15003KT 10SM CLR 28/25 A2996 -10 84 1500 150/03 RMK AO2 T02780250
53915KARA ARA20160811135011008/11/16 13:50:31  5-MIN KARA 111950Z 17003KT 10SM CLR 28/25 A2996 -10 84 1500 170/03 RMK AO2 SLP145 T02780250
53915KARA ARA20160811135510308/11/16 13:55:31  5-MIN KARA 111955Z 15004KT 10SM CLR 28/25 A2996 -10 84 1500 150/04 RMK AO2 T02780250
53915KARA ARA20160811140010308/11/16 14:00:31  5-MIN KARA 112000Z 18004KT 10SM CLR 28/25 A2996 -10 84 1500 180/04 RMK AO2 T02780250
53915KARA ARA20160811140510308/11/16 14:05:31  5-MIN KARA 112005Z 17004KT 10SM CLR 28/25 A2996 -10 84 1500 170/04 RMK AO2 T02780250
53915KARA ARA20160811141010608/11/16 14:10:31  5-MIN KARA 112010Z 18005KT 10SM FEW065 28/25 A2996 -10 84 1500 180/05 RMK AO2 T02780250
53915KARA ARA20160811141510608/11/16 14:15:31  5-MIN KARA 112015Z 19005KT 10SM FEW065 28/25 A2996 -10 84 1500 180/05 RMK AO2 T02780250
53915KARA ARA20160811142011308/11/16 14:20:31  5-MIN KARA 112020Z 19005KT 10SM FEW065 FEW080 28/26 A2996 -10 87 1500 190/05 RMK AO2 T02780256
53915KARA ARA20160811142511308/11/16 14:25:31  5-MIN KARA 112025Z 20006KT 10SM FEW065 FEW080 28/25 A2996 -10 84 1500 190/06 RMK AO2 T02780250
53915KARA ARA20160811143011108/11/16 14:30:31  5-MIN KARA 112030Z 18006KT 10SM FEW065 SCT090 28/26 A2995 0 87 1500 180/06 RMK AO2 T02780256
53915KARA ARA20160811143511108/11/16 14:35:31  5-MIN KARA 112035Z 18007KT 10SM FEW065 SCT090 28/26 A2995 0 87 1500 180/07 RMK AO2 T02780256
53915KARA ARA20160811144010408/11/16 14:40:31  5-MIN KARA 112040Z 18007KT 10SM SCT090 28/26 A2995 0 87 1500 180/07 RMK AO2 T02780256
53915KARA ARA20160811144511808/11/16 14:45:31  5-MIN KARA 112045Z 20005KT 10SM FEW047 FEW080 BKN090 28/26 A2995 0 87 1500 190/05 RMK AO2 T02780256
53915KARA ARA20160811145013108/11/16 14:50:31  5-MIN KARA 112050Z 18006KT 10SM FEW049 SCT070 BKN080 28/26 A2994 0 87 1500 180/06 RMK AO2 SLP139 T02780256 56006
53915KARA ARA20160811145511808/11/16 14:55:31  5-MIN KARA 112055Z 19007KT 10SM SCT049 BKN065 BKN085 28/26 A2994 0 87 1500 190/07 RMK AO2 T02780256
53915KARA ARA20160811150011908/11/16 15:00:31  5-MIN KARA 112100Z 19006KT 10SM SCT049 BKN065 BKN090 28/25 A2994 10 84 1500 190/06 RMK AO2 T02780250
53915KARA ARA20160811150511908/11/16 15:05:31  5-MIN KARA 112105Z 19005KT 10SM FEW049 SCT065 BKN090 28/26 A2994 10 87 1500 190/05 RMK AO2 T02780256
53915KARA ARA20160811151011208/11/16 15:10:31  5-MIN KARA 112110Z 19007KT 10SM FEW049 SCT065 28/26 A2993 20 87 1500 190/07 RMK AO2 T02780256
53915KARA ARA20160811151511208/11/16 15:15:31  5-MIN KARA 112115Z 20006KT 10SM FEW049 SCT065 28/26 A2993 20 87 1500 200/06 RMK AO2 T02780256
53915KARA ARA20160811152010508/11/16 15:20:31  5-MIN KARA 112120Z 20006KT 10SM FEW049 28/26 A2993 20 87 1500 190/06 RMK AO2 T02780256
53915KARA ARA20160811152510208/11/16 15:25:31  5-MIN KARA 112125Z 20006KT 10SM CLR 28/26 A2993 20 85 1600 200/06 RMK AO2 T02830256
53915KARA ARA20160811153010208/11/16 15:30:31  5-MIN KARA 112130Z 19007KT 10SM CLR 28/26 A2993 20 85 1600 190/07 RMK AO2 T02830256
53915KARA ARA20160811153511808/11/16 15:35:31  5-MIN KARA 112135Z 19007KT 10SM -RA CLR 28/26 A2993 20 85 1600 190/07 RMK AO2 RAB34 P0000 T02830256
53915KARA ARA20160811154011808/11/16 15:40:31  5-MIN KARA 112140Z 20007KT 10SM -RA CLR 28/26 A2993 20 85 1600 190/07 RMK AO2 RAB34 P0000 T02830256
53915KARA ARA20160811154511708/11/16 15:45:31  5-MIN KARA 112145Z 19007KT 10SM CLR 28/26 A2992 20 85 1600 190/07 RMK AO2 RAB34E44 P0000 T02830256
53915KARA ARA20160811155012408/11/16 15:50:31  5-MIN KARA 112150Z 19008KT 10SM CLR 28/26 A2993 20 87 1600 190/08 RMK AO2 RAB34E44 SLP133 P0000 T02830261
53915KARA ARA20160811155510208/11/16 15:55:31  5-MIN KARA 112155Z 20008KT 10SM CLR 29/26 A2993 20 85 1700 200/08 RMK AO2 T02890261
53915KARA ARA20160811160010208/11/16 16:00:31  5-MIN KARA 112200Z 19009KT 10SM CLR 29/26 A2993 20 82 1700 190/09 RMK AO2 T02890256
53915KARA ARA20160811160510208/11/16 16:05:31  5-MIN KARA 112205Z 20009KT 10SM CLR 29/26 A2992 30 82 1700 200/09 RMK AO2 T02890256
53915KARA ARA20160811161010208/11/16 16:10:31  5-MIN KARA 112210Z 20009KT 10SM CLR 29/26 A2992 20 82 1700 200/09 RMK AO2 T02890256
53915KARA ARA20160811161510208/11/16 16:15:31  5-MIN KARA 112215Z 20010KT 10SM CLR 29/26 A2993 20 82 1700 200/10 RMK AO2 T02890256
53915KARA ARA20160811162010208/11/16 16:20:31  5-MIN KARA 112220Z 20011KT 10SM CLR 29/26 A2993 20 82 1700 200/11 RMK AO2 T02890256
53915KARA ARA20160811162510208/11/16 16:25:31  5-MIN KARA 112225Z 20009KT 10SM CLR 29/26 A2993 20 82 1700 200/09 RMK AO2 T02890256
53915KARA ARA20160811163010508/11/16 16:30:31  5-MIN KARA 112230Z 21009KT 10SM FEW021 29/26 A2993 20 82 1700 210/09 RMK AO2 T02890256
53915KARA ARA20160811163510508/11/16 16:35:31  5-MIN KARA 112235Z 21009KT 10SM SCT021 29/26 A2993 20 82 1700 210/09 RMK AO2 T02890256
53915KARA ARA20160811164010508/11/16 16:40:31  5-MIN KARA 112240Z 21011KT 10SM SCT023 29/26 A2993 20 82 1700 210/11 RMK AO2 T02890256
53915KARA ARA20160811164510508/11/16 16:45:31  5-MIN KARA 112245Z 21009KT 10SM BKN023 29/26 A2993 20 82 1700 210/09 RMK AO2 T02890256
53915KARA ARA20160811165012508/11/16 16:50:31  5-MIN KARA 112250Z 20012G17KT 10SM FEW013 BKN023 29/26 A2993 20 82 1700 200/12G17 RMK AO2 SLP134 T02890256
53915KARA ARA20160811165511208/11/16 16:55:31  5-MIN KARA 112255Z 20011KT 10SM FEW013 BKN023 28/26 A2993 20 85 1600 200/11 RMK AO2 T02830256
53915KARA ARA20160811170011208/11/16 17:00:31  5-MIN KARA 112300Z 21012KT 10SM FEW014 SCT023 28/26 A2993 20 85 1600 210/12 RMK AO2 T02830256
53915KARA ARA20160811170511208/11/16 17:05:31  5-MIN KARA 112305Z 21011KT 10SM FEW014 FEW023 28/26 A2993 10 85 1600 210/11 RMK AO2 T02830256
53915KARA ARA20160811171011208/11/16 17:10:31  5-MIN KARA 112310Z 21011KT 10SM FEW014 FEW023 28/26 A2993 20 85 1600 210/11 RMK AO2 T02830256
53915KARA ARA20160811171510508/11/16 17:15:31  5-MIN KARA 112315Z 21012KT 10SM FEW014 28/26 A2993 20 85 1600 210/12 RMK AO2 T02830256
53915KARA ARA20160811172010208/11/16 17:20:31  5-MIN KARA 112320Z 22009KT 10SM CLR 28/26 A2993 20 85 1600 220/09 RMK AO2 T02830256
53915KARA ARA20160811172510208/11/16 17:25:31  5-MIN KARA 112325Z 22007KT 10SM CLR 28/26 A2993 20 85 1600 220/07 RMK AO2 T02830256
53915KARA ARA20160811173010208/11/16 17:30:31  5-MIN KARA 112330Z 22006KT 10SM CLR 28/26 A2992 20 85 1600 220/06 RMK AO2 T02830256
53915KARA ARA20160811173510208/11/16 17:35:31  5-MIN KARA 112335Z 22008KT 10SM CLR 28/26 A2992 20 85 1600 220/08 RMK AO2 T02830256
53915KARA ARA20160811174010208/11/16 17:40:31  5-MIN KARA 112340Z 23009KT 10SM CLR 28/26 A2992 30 85 1600 220/09 RMK AO2 T02830256
53915KARA ARA20160811174510208/11/16 17:45:31  5-MIN KARA 112345Z 22009KT 10SM CLR 28/26 A2992 30 85 1600 220/09 RMK AO2 T02830256
53915KARA ARA20160811175013308/11/16 17:50:31  5-MIN KARA 112350Z 22007KT 10SM CLR 28/26 A2992 20 85 1600 220/07 RMK AO2 SLP132 60000 T02830256 10289 20267 58018
53915KARA ARA20160811175510208/11/16 17:55:31  5-MIN KARA 112355Z 23007KT 10SM CLR 28/26 A2992 20 85 1600 220/07 RMK AO2 T02830256
53915KARA ARA20160811180010208/11/16 18:00:31  5-MIN KARA 120000Z 23007KT 10SM CLR 28/26 A2992 20 87 1500 230/07 RMK AO2 T02780256
53915KARA ARA20160811180510208/11/16 18:05:31  5-MIN KARA 120005Z 23006KT 10SM CLR 28/26 A2992 20 87 1500 230/06 RMK AO2 T02780256
53915KARA ARA20160811181010208/11/16 18:10:31  5-MIN KARA 120010Z 23006KT 10SM CLR 28/26 A2992 20 87 1500 230/06 RMK AO2 T02780256
53915KARA ARA20160811181510208/11/16 18:15:31  5-MIN KARA 120015Z 23006KT 10SM CLR 28/25 A2992 30 84 1500 230/06 RMK AO2 T02780250
53915KARA ARA20160811182010208/11/16 18:20:31  5-MIN KARA 120020Z 23007KT 10SM CLR 28/25 A2992 30 84 1500 220/07 RMK AO2 T02780250
53915KARA ARA20160811182510208/11/16 18:25:31  5-MIN KARA 120025Z 24005KT 10SM CLR 28/25 A2992 30 84 1500 240/05 RMK AO2 T02780250
53915KARA ARA20160811183010208/11/16 18:30:31  5-MIN KARA 120030Z 24005KT 10SM CLR 28/25 A2992 30 84 1500 240/05 RMK AO2 T02780250
53915KARA ARA20160811183510208/11/16 18:35:31  5-MIN KARA 120035Z 24004KT 10SM CLR 28/25 A2992 20 84 1500 240/04 RMK AO2 T02780250
53915KARA ARA20160811184010208/11/16 18:40:31  5-MIN KARA 120040Z 24004KT 10SM CLR 28/25 A2992 30 84 1500 240/04 RMK AO2 T02780250
53915KARA ARA20160811184510208/11/16 18:45:31  5-MIN KARA 120045Z 24003KT 10SM CLR 28/25 A2992 30 84 1500 240/03 RMK AO2 T02780250
53915KARA ARA20160811185010908/11/16 18:50:31  5-MIN KARA 120050Z 24003KT 10SM CLR 27/25 A2991 30 87 1500 240/03 RMK AO2 SLP129 T02720250
53915KARA ARA20160811185510208/11/16 18:55:31  5-MIN KARA 120055Z 25004KT 10SM CLR 27/26 A2992 30 90 1500 250/04 RMK AO2 T02720256
53915KARA ARA20160811190010208/11/16 19:00:31  5-MIN KARA 120100Z 26004KT 10SM CLR 27/26 A2992 30 90 1500 250/04 RMK AO2 T02720256
53915KARA ARA20160811190510208/11/16 19:05:31  5-MIN KARA 120105Z 24003KT 10SM CLR 27/26 A2991 30 90 1500 240/03 RMK AO2 T02720256
53915KARA ARA20160811191010208/11/16 19:10:31  5-MIN KARA 120110Z 25004KT 10SM CLR 27/26 A2991 40 90 1500 250/04 RMK AO2 T02720256
53915KARA ARA20160811191510208/11/16 19:15:31  5-MIN KARA 120115Z 24003KT 10SM CLR 27/26 A2991 40 90 1500 240/03 RMK AO2 T02720256
53915KARA ARA20160811192010208/11/16 19:20:31  5-MIN KARA 120120Z 24004KT 10SM CLR 27/26 A2991 40 90 1500 240/04 RMK AO2 T02720256
53915KARA ARA20160811192510208/11/16 19:25:31  5-MIN KARA 120125Z 24004KT 10SM CLR 27/26 A2991 40 90 1500 240/04 RMK AO2 T02720256
53915KARA ARA20160811193010208/11/16 19:30:31  5-MIN KARA 120130Z 24003KT 10SM CLR 27/26 A2990 40 90 1500 240/03 RMK AO2 T02720256
53915KARA ARA20160811193510208/11/16 19:35:31  5-MIN KARA 120135Z 22004KT 10SM CLR 27/26 A2990 40 90 1500 220/04 RMK AO2 T02720256
53915KARA ARA20160811194010208/11/16 19:40:31  5-MIN KARA 120140Z 22004KT 10SM CLR 27/26 A2990 40 90 1500 220/04 RMK AO2 T02720256
53915KARA ARA20160811194510208/11/16 19:45:31  5-MIN KARA 120145Z 22003KT 10SM CLR 27/26 A2990 40 90 1500 220/03 RMK AO2 T02720256
53915KARA ARA20160811195010908/11/16 19:50:31  5-MIN KARA 120150Z 22004KT 10SM CLR 27/26 A2990 40 90 1500 220/04 RMK AO2 SLP125 T02720256
53915KARA ARA20160811195510208/11/16 19:55:31  5-MIN KARA 120155Z 22005KT 10SM CLR 27/26 A2990 50 90 1500 220/05 RMK AO2 T02720256
53915KARA ARA20160811200010208/11/16 20:00:31  5-MIN KARA 120200Z 22005KT 10SM CLR 27/26 A2990 50 90 1500 220/05 RMK AO2 T02720256
53915KARA ARA20160811200510208/11/16 20:05:31  5-MIN KARA 120205Z 22005KT 10SM CLR 27/26 A2989 50 90 1500 210/05 RMK AO2 T02720256
53915KARA ARA20160811201010208/11/16 20:10:31  5-MIN KARA 120210Z 21006KT 10SM CLR 27/26 A2989 60 90 1500 210/06 RMK AO2 T02720256
53915KARA ARA20160811201510208/11/16 20:15:31  5-MIN KARA 120215Z 22006KT 10SM CLR 27/26 A2989 50 90 1500 220/06 RMK AO2 T02720256
53915KARA ARA20160811202010208/11/16 20:20:31  5-MIN KARA 120220Z 22005KT 10SM CLR 27/26 A2989 60 90 1500 210/05 RMK AO2 T02720256
53915KARA ARA20160811202510208/11/16 20:25:31  5-MIN KARA 120225Z 22006KT 10SM CLR 27/26 A2989 60 90 1500 220/06 RMK AO2 T02720256
53915KARA ARA20160811203010508/11/16 20:30:31  5-MIN KARA 120230Z 23005KT 10SM FEW110 27/26 A2989 60 90 1500 220/05 RMK AO2 T02720256
53915KARA ARA20160811203510508/11/16 20:35:31  5-MIN KARA 120235Z 22006KT 10SM FEW110 27/26 A2989 60 90 1500 220/06 RMK AO2 T02720256
53915KARA ARA20160811204010208/11/16 20:40:31  5-MIN KARA 120240Z 21006KT 10SM CLR 27/26 A2989 60 90 1500 210/06 RMK AO2 T02720256
53915KARA ARA20160811204510208/11/16 20:45:31  5-MIN KARA 120245Z 22005KT 10SM CLR 27/26 A2989 60 90 1500 220/05 RMK AO2 T02720256
53915KARA ARA20160811205011508/11/16 20:50:31  5-MIN KARA 120250Z 21006KT 10SM CLR 27/26 A2989 50 90 1500 210/06 RMK AO2 SLP121 T02720256 58000
53915KARA ARA20160811205510208/11/16 20:55:31  5-MIN KARA 120255Z 20005KT 10SM CLR 27/26 A2989 50 90 1500 200/05 RMK AO2 T02720256
53915KARA ARA20160811210010208/11/16 21:00:31  5-MIN KARA 120300Z 19004KT 10SM CLR 27/25 A2990 40 87 1500 190/04 RMK AO2 T02720250
53915KARA ARA20160811210510208/11/16 21:05:31  5-MIN KARA 120305Z 19004KT 10SM CLR 27/25 A2991 40 90 1400 190/04 RMK AO2 T02670250
53915KARA ARA20160811211010208/11/16 21:10:31  5-MIN KARA 120310Z 18003KT 10SM CLR 27/25 A2991 40 90 1400 180/03 RMK AO2 T02670250
53915KARA ARA20160811211510508/11/16 21:15:31  5-MIN KARA 120315Z 18003KT 10SM FEW110 27/25 A2991 30 90 1400 180/03 RMK AO2 T02670250
53915KARA ARA20160811212012108/11/16 21:20:31  5-MIN KARA 120320Z 19003KT 10SM -RA SCT100 27/25 A2992 30 90 1400 190/03 RMK AO2 RAB19 P0000 T02670250
53915KARA ARA20160811212512108/11/16 21:25:31  5-MIN KARA 120325Z 17003KT 10SM -RA BKN110 27/25 A2992 30 90 1400 170/03 RMK AO2 RAB19 P0000 T02670250
53915KARA ARA20160811213012108/11/16 21:30:31  5-MIN KARA 120330Z 16003KT 10SM -RA BKN100 27/25 A2992 20 90 1400 160/03 RMK AO2 RAB19 P0000 T02670250
53915KARA ARA20160811213512108/11/16 21:35:31  5-MIN KARA 120335Z 13004KT 10SM -RA BKN100 27/25 A2992 20 90 1400 130/04 RMK AO2 RAB19 P0000 T02670250
53915KARA ARA20160811214012108/11/16 21:40:31  5-MIN KARA 120340Z 12004KT 10SM -RA OVC100 27/26 A2993 20 93 1400 120/04 RMK AO2 RAB19 P0000 T02670256
53915KARA ARA20160811214512108/11/16 21:45:31  5-MIN KARA 120345Z 13004KT 10SM -RA OVC100 27/26 A2992 20 93 1400 130/04 RMK AO2 RAB19 P0000 T02670256
53915KARA ARA20160811215014708/11/16 21:50:31  5-MIN KARA 120350Z 13004KT 10SM -RA FEW080 OVC100 27/26 A2992 20 93 1400 130/04 RMK AO2 LTG DSNT NE RAB19 SLP132 P0000 T02670256
53915KARA ARA20160811215514108/11/16 21:55:31  5-MIN KARA 120355Z 13004KT 10SM -RA FEW055 SCT070 OVC095 27/26 A2993 20 93 1400 130/04 RMK AO2 LTG DSNT NE P0000 T02670256
53915KARA ARA20160811220014108/11/16 22:00:31  5-MIN KARA 120400Z 12004KT 10SM -RA SCT055 BKN070 OVC095 27/26 A2993 20 93 1400 120/04 RMK AO2 LTG DSNT NE P0001 T02670256
53915KARA ARA20160811220512908/11/16 22:05:31  5-MIN KARA 120405Z 12005KT 10SM -RA BKN055 BKN070 OVC090 27/26 A2993 20 93 1400 120/05 RMK AO2 P0001 T02670256
53915KARA ARA20160811221012908/11/16 22:10:31  5-MIN KARA 120410Z 11005KT 10SM -RA BKN055 BKN070 OVC090 27/26 A2993 20 93 1400 110/05 RMK AO2 P0001 T02670256
53915KARA ARA20160811221514108/11/16 22:15:31  5-MIN KARA 120415Z 11005KT 10SM -RA BKN055 BKN075 OVC090 27/26 A2993 20 93 1400 110/05 RMK AO2 LTG DSNT NE P0001 T02670256
53915KARA ARA20160811222013408/11/16 22:20:31  5-MIN KARA 120420Z 10005KT 10SM -RA BKN055 OVC070 27/26 A2993 20 93 1400 100/05 RMK AO2 LTG DSNT NE P0001 T02670256
53915KARA ARA20160811222513408/11/16 22:25:31  5-MIN KARA 120425Z 12005KT 10SM -RA BKN055 BKN070 27/26 A2993 20 93 1400 120/05 RMK AO2 LTG DSNT NE P0001 T02670256
53915KARA ARA20160811223014708/11/16 22:30:31  5-MIN KARA 120430Z 13004KT 10SM -RA BKN055 BKN070 BKN095 27/26 A2993 20 93 1400 120/04 RMK AO2 LTG DSNT NE AND E P0001 T02670256
53915KARA ARA20160811223514708/11/16 22:35:31  5-MIN KARA 120435Z 15003KT 10SM -RA BKN055 BKN070 OVC100 27/26 A2993 20 93 1400 150/03 RMK AO2 LTG DSNT NE AND E P0001 T02670256
53915KARA ARA20160811224013308/11/16 22:40:31  5-MIN KARA 120440Z 15003KT 10SM -RA BKN060 OVC100 27/26 A2993 20 93 1400 150/03 RMK AO2 LTG DSNT E P0001 T02670256
53915KARA ARA20160811224514008/11/16 22:45:31  5-MIN KARA 120445Z 17003KT 10SM -RA BKN055 OVC070 27/26 A2992 20 93 1400 170/03 RMK AO2 LTG DSNT NE AND E P0002 T02670256
53915KARA ARA20160811225015408/11/16 22:50:31  5-MIN KARA 120450Z 20003KT 10SM -RA BKN055 BKN070 OVC100 27/26 A2992 20 93 1400 200/03 RMK AO2 LTG DSNT NE AND E SLP132 P0002 T02670256
53915KARA ARA20160811225514008/11/16 22:55:31  5-MIN KARA 120455Z 24003KT 10SM -RA BKN055 OVC100 27/26 A2992 20 93 1400 230/03 RMK AO2 LTG DSNT NE AND E P0000 T02670256
53915KARA ARA20160811230011408/11/16 23:00:31  5-MIN KARA 120500Z 26003KT 9SM -RA OVC055 27/26 A2992 20 93 1400 260/03 RMK AO2 P0000 T02670256
53915KARA ARA20160811230511408/11/16 23:05:31  5-MIN KARA 120505Z 25004KT 7SM -RA OVC055 27/26 A2992 30 93 1400 250/04 RMK AO2 P0001 T02670256
53915KARA ARA20160811231011408/11/16 23:10:31  5-MIN KARA 120510Z 23005KT 7SM -RA OVC055 27/26 A2991 30 93 1400 230/05 RMK AO2 P0001 T02670256
53915KARA ARA20160811231512308/11/16 23:15:31  5-MIN KARA 120515Z 24007KT 5SM RA BR BKN060 OVC070 27/26 A2991 40 93 1400 240/07 RMK AO2 P0004 T02670256
53915KARA ARA20160811232012308/11/16 23:20:31  5-MIN KARA 120520Z 25007KT 4SM RA BR BKN060 OVC080 27/26 A2990 40 93 1400 240/07 RMK AO2 P0008 T02670256
53915KARA ARA20160811232513108/11/16 23:25:31  5-MIN KARA 120525Z 23007KT 3SM +RA BR FEW041 BKN060 OVC075 27/26 A2990 50 93 1400 230/07 RMK AO2 P0011 T02670256
53915KARA ARA20160811233012408/11/16 23:30:31  5-MIN KARA 120530Z 23006KT 5SM -RA BR SCT055 OVC075 27/26 A2990 50 93 1400 230/06 RMK AO2 P0011 T02670256
53915KARA ARA20160811233513208/11/16 23:35:31  5-MIN KARA 120535Z 23006KT 9SM -RA BKN055 OVC075 27/26 A2990 50 93 1400 230/06 RMK AO2 LTG DSNT N P0011 T02670256
53915KARA ARA20160811234013308/11/16 23:40:31  5-MIN KARA 120540Z 22006KT 10SM -RA BKN055 BKN075 27/26 A2990 50 93 1400 220/06 RMK AO2 LTG DSNT N P0011 T02670256
53915KARA ARA20160811234513308/11/16 23:45:31  5-MIN KARA 120545Z 23006KT 10SM -RA SCT050 BKN075 27/26 A2990 50 93 1400 230/06 RMK AO2 LTG DSNT N P0011 T02670256
53915KARA ARA20160811235016308/11/16 23:50:31  5-MIN KARA 120550Z 23005KT 10SM -RA SCT050 SCT075 27/26 A2990 50 93 1400 220/05 RMK AO2 SLP123 P0011 60013 T02670256 10283 20267 402890244 56011
53915KARA ARA20160811235510508/11/16 23:55:31  5-MIN KARA 120555Z 22005KT 10SM FEW050 27/26 A2990 50 93 1400 220/05 RMK AO2 T02670256
53915KARA ARA20160812000011208/12/16 00:00:31  5-MIN KARA 120600Z 22006KT 10SM FEW050 SCT120 27/26 A2990 50 93 1400 220/06 RMK AO2 T02670256
53915KARA ARA20160812000510508/12/16 00:05:31  5-MIN KARA 120605Z 22005KT 10SM SCT120 27/26 A2989 50 93 1500 220/05 RMK AO2 T02670256
53915KARA ARA20160812001010508/12/16 00:10:31  5-MIN KARA 120610Z 23005KT 10SM SCT120 27/26 A2989 50 93 1500 220/05 RMK AO2 T02670256
53915KARA ARA20160812001511608/12/16 00:15:31  5-MIN KARA 120615Z 22005KT 10SM SCT120 27/26 A2989 50 93 1500 220/05 RMK AO2 LTG DSNT N T02670256
53915KARA ARA20160812002011608/12/16 00:20:31  5-MIN KARA 120620Z 22005KT 10SM SCT120 27/26 A2989 50 93 1500 220/05 RMK AO2 LTG DSNT N T02670256
53915KARA ARA20160812002511608/12/16 00:25:31  5-MIN KARA 120625Z 22005KT 10SM SCT120 27/26 A2989 60 97 1500 220/05 RMK AO2 LTG DSNT N T02670261
53915KARA ARA20160812003010508/12/16 00:30:31  5-MIN KARA 120630Z 22005KT 10SM SCT120 27/26 A2989 60 93 1500 220/05 RMK AO2 T02720261
53915KARA ARA20160812003510508/12/16 00:35:31  5-MIN KARA 120635Z 22005KT 10SM SCT120 27/26 A2989 60 93 1500 220/05 RMK AO2 T02720261
53915KARA ARA20160812004010508/12/16 00:40:31  5-MIN KARA 120640Z 22004KT 10SM FEW120 27/26 A2988 60 93 1500 220/04 RMK AO2 T02720261
53915KARA ARA20160812004510508/12/16 00:45:31  5-MIN KARA 120645Z 22005KT 10SM FEW120 27/26 A2988 60 93 1500 210/05 RMK AO2 T02720261
53915KARA ARA20160812005011208/12/16 00:50:31  5-MIN KARA 120650Z 21005KT 10SM FEW120 27/26 A2988 60 93 1500 210/05 RMK AO2 SLP117 T02720261
53915KARA ARA20160812005510508/12/16 00:55:31  5-MIN KARA 120655Z 21004KT 10SM FEW120 27/26 A2988 60 93 1500 210/04 RMK AO2 T02720261
53915KARA ARA20160812010010508/12/16 01:00:31  5-MIN KARA 120700Z 22004KT 10SM FEW120 27/26 A2988 60 93 1500 220/04 RMK AO2 T02720261
53915KARA ARA20160812010510508/12/16 01:05:31  5-MIN KARA 120705Z 22004KT 10SM FEW120 27/26 A2988 60 93 1500 220/04 RMK AO2 T02720261
53915KARA ARA20160812011010508/12/16 01:10:31  5-MIN KARA 120710Z 22004KT 10SM FEW120 27/26 A2988 60 93 1500 220/04 RMK AO2 T02720261
53915KARA ARA20160812011510508/12/16 01:15:31  5-MIN KARA 120715Z 21004KT 10SM FEW120 27/26 A2988 60 93 1500 210/04 RMK AO2 T02720261
53915KARA ARA20160812012010508/12/16 01:20:31  5-MIN KARA 120720Z 21004KT 10SM FEW120 27/26 A2987 70 93 1500 210/04 RMK AO2 T02720261
53915KARA ARA20160812012512108/12/16 01:25:31  5-MIN KARA 120725Z 21004KT 10SM -RA FEW120 27/26 A2987 70 93 1500 210/04 RMK AO2 RAB25 P0000 T02720261
53915KARA ARA20160812013012108/12/16 01:30:31  5-MIN KARA 120730Z 22004KT 10SM -RA FEW120 27/26 A2987 70 93 1500 220/04 RMK AO2 RAB25 P0000 T02720261
53915KARA ARA20160812013511808/12/16 01:35:31  5-MIN KARA 120735Z 22004KT 10SM -RA CLR 27/26 A2987 80 93 1500 220/04 RMK AO2 RAB25 P0000 T02720261
53915KARA ARA20160812014011808/12/16 01:40:31  5-MIN KARA 120740Z 22005KT 10SM -RA CLR 27/26 A2986 80 93 1500 220/05 RMK AO2 RAB25 P0000 T02720261
53915KARA ARA20160812014511808/12/16 01:45:31  5-MIN KARA 120745Z 21006KT 10SM -RA CLR 27/26 A2986 90 93 1600 210/06 RMK AO2 RAB25 P0000 T02720261
53915KARA ARA20160812015013508/12/16 01:50:31  5-MIN KARA 120750Z 22005KT 10SM -RA FEW065 FEW080 27/26 A2985 90 93 1600 220/05 RMK AO2 RAB25 SLP107 P0000 T02720261
53915KARA ARA20160812015513508/12/16 01:55:31  5-MIN KARA 120755Z 22006KT 10SM -RA FEW065 FEW090 27/26 A2985 100 93 1600 220/06 RMK AO2 LTG DSNT SE P0000 T02720261
53915KARA ARA20160812020012808/12/16 02:00:31  5-MIN KARA 120800Z 23007KT 10SM -RA SCT100 27/26 A2984 100 93 1600 230/07 RMK AO2 LTG DSNT SE P0001 T02720261
53915KARA ARA20160812020513508/12/16 02:05:31  5-MIN KARA 120805Z 22006KT 10SM -RA SCT095 BKN120 27/26 A2984 100 93 1600 220/06 RMK AO2 LTG DSNT SE P0001 T02720261
53915KARA ARA20160812021014908/12/16 02:10:31  5-MIN KARA 120810Z 22006KT 10SM -RA FEW065 BKN090 BKN110 27/26 A2984 100 93 1600 220/06 RMK AO2 LTG DSNT SE AND SW P0001 T02720261
53915KARA ARA20160812021515108/12/16 02:15:31  5-MIN KARA 120815Z 22006KT 10SM FEW070 SCT090 SCT110 27/26 A2984 100 93 1600 220/06 RMK AO2 LTG DSNT SE AND SW RAE13 P0001 T02720261
53915KARA ARA20160812022014908/12/16 02:20:31  5-MIN KARA 120820Z 22005KT 10SM -RA FEW020 SCT095 SCT120 27/26 A2984 100 93 1600 210/05 RMK AO2 LTG DSNT SE AND SW P0001 T02720261
53915KARA ARA20160812022514808/12/16 02:25:31  5-MIN KARA 120825Z 21005KT 10SM -RA FEW020 SCT095 BKN120 27/26 A2985 90 93 1600 210/05 RMK AO2 LTG DSNT SE AND SW P0001 T02720261
53915KARA ARA20160812023014308/12/16 02:30:31  5-MIN KARA 120830Z 22004KT 10SM FEW020 SCT095 27/26 A2985 90 93 1600 220/04 RMK AO2 LTG DSNT SE AND SW RAE30 P0001 T02720261
53915KARA ARA20160812023515008/12/16 02:35:31  5-MIN KARA 120835Z 21005KT 10SM FEW016 SCT021 SCT090 27/26 A2986 80 93 1600 210/05 RMK AO2 LTG DSNT SE AND SW RAE30 P0001 T02720261
53915KARA ARA20160812024014308/12/16 02:40:31  5-MIN KARA 120840Z 20005KT 10SM SCT019 SCT070 27/26 A2986 90 93 1600 200/05 RMK AO2 LTG DSNT SE AND SW RAE30 P0001 T02720261
53915KARA ARA20160812024515008/12/16 02:45:31  5-MIN KARA 120845Z 22007KT 10SM FEW016 FEW022 SCT070 27/26 A2985 90 93 1600 220/07 RMK AO2 LTG DSNT SE AND SW RAE30 P0001 T02720261
53915KARA ARA20160812025015608/12/16 02:50:31  5-MIN KARA 120850Z 22011G15KT 10SM FEW016 SCT026 BKN070 27/26 A2985 90 93 1500 220/11G15 RMK AO2 RAE30 SLP108 P0001 60001 T02670256 50002
53915KARA ARA20160812025511908/12/16 02:55:31  5-MIN KARA 120855Z 22010KT 10SM FEW019 BKN070 BKN085 27/24 A2985 90 87 1500 220/10 RMK AO2 T02670244
53915KARA ARA20160812030011908/12/16 03:00:31  5-MIN KARA 120900Z 22011KT 10SM SCT021 BKN070 BKN090 27/24 A2985 90 84 1500 220/11 RMK AO2 T02670239
53915KARA ARA20160812030511908/12/16 03:05:31  5-MIN KARA 120905Z 22010KT 10SM SCT021 SCT037 BKN065 27/24 A2986 90 84 1500 220/10 RMK AO2 T02670239
53915KARA ARA20160812031014708/12/16 03:10:31  5-MIN KARA 120910Z 21008KT 10SM -RA SCT026 BKN047 BKN070 26/24 A2985 90 87 1400 210/08 RMK AO2 LTG DSNT NW RAB08 P0000 T02610239
53915KARA ARA20160821061510208/21/16 06:15:31  5-MIN KARA 211215Z 00000KT 9SM CLR 25/24 A2998 -20 93 1200 000/00 RMK AO2 T02500239
53915KARA ARA20160821062010308/21/16 06:20:31  5-MIN KARA 211220Z 00000KT 10SM CLR 26/24 A2998 -30 93 1200 000/00 RMK AO2 T02560244
53915KARA ARA20160821062510308/21/16 06:25:31  5-MIN KARA 211225Z 00000KT 10SM CLR 26/25 A2998 -30 93 1300 000/00 RMK AO2 T02610250
53915KARA ARA20160821063010308/21/16 06:30:31  5-MIN KARA 211230Z 00000KT 10SM CLR 26/25 A2999 -30 93 1300 000/00 RMK AO2 T02610250
53915KARA ARA20160821063510308/21/16 06:35:31  5-MIN KARA 211235Z 00000KT 10SM CLR 27/25 A2999 -30 90 1300 000/00 RMK AO2 T02670250
53915KARA ARA20160821064010308/21/16 06:40:31  5-MIN KARA 211240Z 11003KT 10SM CLR 27/25 A2999 -30 90 1300 110/03 RMK AO2 T02670250
53915KARA ARA20160821064510308/21/16 06:45:31  5-MIN KARA 211245Z 00000KT 10SM CLR 27/25 A2999 -30 90 1300 000/00 RMK AO2 T02670250
53915KARA ARA20160821065011308/21/16 06:50:31  5-MIN KARA 211250Z 12003KT 10SM FEW022 27/25 A2999 -30 87 1400 120/03 RMK AO2 SLP155 T02720250
53915KARA ARA20160821065510608/21/16 06:55:31  5-MIN KARA 211255Z 13003KT 10SM FEW022 27/26 A2999 -40 90 1400 130/03 RMK AO2 T02720256
53915KARA ARA20160821070010308/21/16 07:00:31  5-MIN KARA 211300Z 00000KT 10SM CLR 27/26 A2999 -40 90 1400 000/00 RMK AO2 T02720256
53915KARA ARA20160821070510308/21/16 07:05:31  5-MIN KARA 211305Z 00000KT 10SM CLR 27/26 A2999 -40 90 1400 000/00 RMK AO2 T02720256
53915KARA ARA20160821071010308/21/16 07:10:31  5-MIN KARA 211310Z 00000KT 10SM CLR 28/26 A3000 -40 87 1500 000/00 RMK AO2 T02780256
53915KARA ARA20160821071510608/21/16 07:15:31  5-MIN KARA 211315Z 00000KT 10SM FEW021 28/26 A3000 -40 87 1500 000/00 RMK AO2 T02780256
53915KARA ARA20160821072010608/21/16 07:20:31  5-MIN KARA 211320Z 00000KT 10SM FEW023 28/26 A3000 -40 87 1500 000/00 RMK AO2 T02780256
53915KARA ARA20160821072510608/21/16 07:25:31  5-MIN KARA 211325Z 00000KT 10SM FEW023 28/26 A3000 -40 90 1500 000/00 RMK AO2 T02780261
53915KARA ARA20160821073010608/21/16 07:30:31  5-MIN KARA 211330Z 00000KT 10SM FEW023 28/26 A3000 -40 87 1500 000/00 RMK AO2 T02830261
53915KARA ARA20160821073510608/21/16 07:35:31  5-MIN KARA 211335Z 00000KT 10SM FEW023 28/26 A3000 -40 87 1500 000/00 RMK AO2 T02830261
53915KARA ARA20160821074010608/21/16 07:40:31  5-MIN KARA 211340Z 00000KT 10SM FEW023 28/26 A3000 -40 87 1500 000/00 RMK AO2 T02830261
53915KARA ARA20160821074510608/21/16 07:45:31  5-MIN KARA 211345Z 00000KT 10SM FEW023 29/26 A3000 -40 85 1600 000/00 RMK AO2 T02890261
53915KARA ARA20160821075011008/21/16 07:50:31  5-MIN KARA 211350Z 00000KT 10SM CLR 29/26 A3000 -40 85 1600 000/00 RMK AO2 SLP158 T02890261
53915KARA ARA20160821075510308/21/16 07:55:31  5-MIN KARA 211355Z 00000KT 10SM CLR 29/26 A3000 -40 85 1600 000/00 RMK AO2 T02890261
53915KARA ARA20160821080010308/21/16 08:00:31  5-MIN KARA 211400Z 00000KT 10SM CLR 29/26 A3000 -40 79 1600 000/00 RMK AO2 T02940256
53915KARA ARA20160821080510308/21/16 08:05:31  5-MIN KARA 211405Z 00000KT 10SM CLR 29/26 A3000 -40 79 1600 000/00 RMK AO2 T02940256
53915KARA ARA20160821081010308/21/16 08:10:31  5-MIN KARA 211410Z 00000KT 10SM CLR 29/26 A3000 -40 79 1600 000/00 RMK AO2 T02940256
53915KARA ARA20160821081510308/21/16 08:15:31  5-MIN KARA 211415Z 23004KT 10SM CLR 30/25 A3000 -40 74 1700 230/04 RMK AO2 T03000250
53915KARA ARA20160821082010308/21/16 08:20:31  5-MIN KARA 211420Z 00000KT 10SM CLR 30/25 A3000 -40 74 1700 000/00 RMK AO2 T03000250
53915KARA ARA20160821082510308/21/16 08:25:31  5-MIN KARA 211425Z 20003KT 10SM CLR 30/26 A3000 -40 77 1700 200/03 RMK AO2 T03000256
53915KARA ARA20160821083010308/21/16 08:30:31  5-MIN KARA 211430Z 21004KT 10SM CLR 30/25 A3000 -40 74 1700 210/04 RMK AO2 T03000250
53915KARA ARA20160821083510608/21/16 08:35:31  5-MIN KARA 211435Z VRB03KT 10SM FEW020 30/25 A3001 -50 74 1700 VRB/03 RMK AO2 T03000250
53915KARA ARA20160821084010608/21/16 08:40:31  5-MIN KARA 211440Z 00000KT 10SM SCT022 30/26 A3001 -50 77 1700 000/00 RMK AO2 T03000256
53915KARA ARA20160821084510608/21/16 08:45:31  5-MIN KARA 211445Z 26003KT 10SM SCT020 31/25 A3001 -50 72 1800 260/03 RMK AO2 T03060250
53915KARA ARA20160821085011908/21/16 08:50:31  5-MIN KARA 211450Z 24004KT 10SM SCT022 30/25 A3001 -50 74 1700 240/04 RMK AO2 SLP161 T03000250 53010
53915KARA ARA20160821085510608/21/16 08:55:31  5-MIN KARA 211455Z 22003KT 10SM SCT022 30/25 A3001 -50 74 1700 220/03 RMK AO2 T03000250
53915KARA ARA20160821090010608/21/16 09:00:31  5-MIN KARA 211500Z 23005KT 10SM SCT022 30/24 A3001 -60 72 1700 230/05 RMK AO2 T03000244
53915KARA ARA20160821090510608/21/16 09:05:31  5-MIN KARA 211505Z 22005KT 10SM SCT022 30/24 A3002 -60 72 1700 220/05 RMK AO2 T03000244
53915KARA ARA20160821091011308/21/16 09:10:31  5-MIN KARA 211510Z 23003KT 10SM FEW020 FEW026 30/25 A3002 -60 74 1700 230/03 RMK AO2 T03000250
53915KARA ARA20160821091510608/21/16 09:15:31  5-MIN KARA 211515Z 22003KT 10SM FEW026 30/25 A3002 -60 74 1700 220/03 RMK AO2 T03000250
53915KARA ARA20160821092010308/21/16 09:20:31  5-MIN KARA 211520Z 24003KT 10SM CLR 30/25 A3002 -60 74 1700 240/03 RMK AO2 T03000250
53915KARA ARA20160821092510308/21/16 09:25:31  5-MIN KARA 211525Z 23004KT 10SM CLR 31/25 A3002 -60 72 1700 230/04 RMK AO2 T03060250
53915KARA ARA20160821093010308/21/16 09:30:31  5-MIN KARA 211530Z 00000KT 10SM CLR 31/24 A3002 -60 67 1700 000/00 RMK AO2 T03060239
53915KARA ARA20160821093510308/21/16 09:35:31  5-MIN KARA 211535Z 26005KT 10SM CLR 30/24 A3002 -60 72 1700 260/05 RMK AO2 T03000244
53915KARA ARA20160821094011308/21/16 09:40:31  5-MIN KARA 211540Z 23003KT 10SM FEW027 FEW048 30/24 A3002 -60 69 1700 230/03 RMK AO2 T03000239
53915KARA ARA20160821094512008/21/16 09:45:31  5-MIN KARA 211545Z 20003KT 10SM FEW027 SCT038 SCT047 31/24 A3002 -60 69 1700 200/03 RMK AO2 T03060244
53915KARA ARA20160821095012708/21/16 09:50:31  5-MIN KARA 211550Z VRB03KT 10SM FEW025 SCT036 BKN047 31/24 A3002 -60 67 1800 VRB/03 RMK AO2 SLP164 T03110244
53915KARA ARA20160821095512008/21/16 09:55:31  5-MIN KARA 211555Z 25005KT 10SM FEW025 SCT033 BKN047 31/24 A3002 -60 67 1800 250/05 RMK AO2 T03110244
53915KARA ARA20160821100012008/21/16 10:00:31  5-MIN KARA 211600Z 00000KT 10SM FEW025 SCT038 SCT048 31/24 A3002 -60 69 1700 000/00 RMK AO2 T03060244
53915KARA ARA20160821100512008/21/16 10:05:31  5-MIN KARA 211605Z VRB04KT 10SM FEW025 FEW038 SCT048 31/24 A3002 -60 67 1700 VRB/04 RMK AO2 T03060239
53915KARA ARA20160821101011308/21/16 10:10:31  5-MIN KARA 211610Z VRB05KT 10SM FEW025 FEW036 32/24 A3002 -60 63 1900 VRB/05 RMK AO2 T03170239
53915KARA ARA20160821101510608/21/16 10:15:31  5-MIN KARA 211615Z 21005KT 10SM FEW025 32/24 A3002 -60 65 1900 210/05 RMK AO2 T03170244
53915KARA ARA20160821102010608/21/16 10:20:31  5-MIN KARA 211620Z 21005KT 10SM FEW025 32/24 A3002 -60 65 1900 210/05 RMK AO2 T03170244
53915KARA ARA20160821102510308/21/16 10:25:31  5-MIN KARA 211625Z 20005KT 10SM CLR 32/24 A3002 -60 65 1900 200/05 RMK AO2 T03170244
53915KARA ARA20160821103010308/21/16 10:30:31  5-MIN KARA 211630Z 17003KT 10SM CLR 32/23 A3002 -60 61 1900 170/03 RMK AO2 T03170233
53915KARA ARA20160821103510308/21/16 10:35:31  5-MIN KARA 211635Z VRB04KT 10SM CLR 32/23 A3002 -60 61 1900 VRB/04 RMK AO2 T03170233
53915KARA ARA20160821104011508/21/16 10:40:31  5-MIN KARA 211640Z VRB03KT 10SM CLR 32/24 A3002 -60 63 1900 VRB/03 RMK AO2 LTG DSNT SW T03170239
53915KARA ARA20160821104511508/21/16 10:45:31  5-MIN KARA 211645Z 17004KT 10SM CLR 32/23 A3002 -60 59 1900 170/04 RMK AO2 LTG DSNT SW T03220233
53915KARA ARA20160821105012808/21/16 10:50:31  5-MIN KARA 211650Z 18006KT 10SM CLR 32/23 A3002 -60 59 1900 180/06 RMK AO2 LTG DSNT SW AND W SLP165 T03220233
53915KARA ARA20160821105512408/21/16 10:55:31  5-MIN KARA 211655Z 20006KT 10SM FEW043 32/24 A3002 -60 61 1900 190/06 RMK AO2 LTG DSNT SW AND W T03220239
53915KARA ARA20160821110012408/21/16 11:00:31  5-MIN KARA 211700Z VRB04KT 10SM FEW043 32/24 A3002 -60 61 1900 VRB/04 RMK AO2 LTG DSNT SW AND W T03220239
53915KARA ARA20160821110511508/21/16 11:05:31  5-MIN KARA 211705Z 21007KT 10SM CLR 32/23 A3002 -60 57 1900 200/07 RMK AO2 LTG DSNT SW T03220228
53915KARA ARA20160821111011808/21/16 11:10:31  5-MIN KARA 211710Z 19007KT 10SM FEW042 33/23 A3002 -60 57 2000 190/07 RMK AO2 LTG DSNT SW T03280233
53915KARA ARA20160821111511808/21/16 11:15:31  5-MIN KARA 211715Z 19008KT 10SM SCT040 32/24 A3002 -60 61 1900 190/08 RMK AO2 LTG DSNT SW T03220239
53915KARA ARA20160821112011808/21/16 11:20:31  5-MIN KARA 211720Z 20009KT 10SM SCT038 32/24 A3002 -60 63 1900 190/09 RMK AO2 LTG DSNT SW T03170239
53915KARA ARA20160821112511208/21/16 11:25:31  5-MIN KARA 211725Z 26013G19KT 10SM BKN036 31/23 A3002 -60 62 1700 260/13G19 RMK AO2 T03060228
53915KARA ARA20160821113011208/21/16 11:30:31  5-MIN KARA 211730Z 27013G21KT 10SM BKN036 29/22 A3002 -60 64 1600 270/13G21 RMK AO2 T02890217
53915KARA ARA20160821113513008/21/16 11:35:31  5-MIN KARA 211735Z 27012G21KT 10SM SCT037 BKN070 29/22 A3002 -60 64 1600 270/12G21 RMK AO2 WSHFT 1721 T02940222
53915KARA ARA20160821114012408/21/16 11:40:31  5-MIN KARA 211740Z 27010KT 10SM SCT037 BKN070 29/23 A3002 -60 69 1600 270/10 RMK AO2 WSHFT 1721 T02940233
53915KARA ARA20160821114511708/21/16 11:45:31  5-MIN KARA 211745Z 28009KT 10SM SCT035 29/23 A3002 -60 69 1600 280/09 RMK AO2 WSHFT 1721 T02890228
53915KARA ARA20160821115014208/21/16 11:50:31  5-MIN KARA 211750Z 28007KT 10SM FEW033 29/23 A3002 -60 69 1600 270/07 RMK AO2 WSHFT 1721 SLP164 T02940233 10328 20239 51013
53915KARA ARA20160821115510608/21/16 11:55:31  5-MIN KARA 211755Z 26009KT 10SM FEW110 29/23 A3001 -60 69 1600 260/09 RMK AO2 T02940233
53915KARA ARA20160821120010608/21/16 12:00:31  5-MIN KARA 211800Z 24005KT 10SM FEW100 29/22 A3001 -50 67 1600 240/05 RMK AO2 T02890222
53915KARA ARA20160821120510608/21/16 12:05:31  5-MIN KARA 211805Z 25004KT 10SM FEW100 29/22 A3001 -50 67 1600 250/04 RMK AO2 T02890222
53915KARA ARA20160821121010608/21/16 12:10:31  5-MIN KARA 211810Z 24007KT 10SM SCT100 29/23 A3001 -50 67 1600 240/07 RMK AO2 T02940228
53915KARA ARA20160821121510608/21/16 12:15:31  5-MIN KARA 211815Z 24006KT 10SM SCT100 30/22 A3001 -50 62 1700 240/06 RMK AO2 T03000222
53915KARA ARA20160821122011708/21/16 12:20:31  5-MIN KARA 211820Z 23006KT 10SM FEW095 31/22 A3001 -50 60 1800 230/06 RMK AO2 LTG DSNT N T03060222
53915KARA ARA20160821122511708/21/16 12:25:31  5-MIN KARA 211825Z 25006KT 10SM FEW095 31/22 A3001 -50 60 1800 250/06 RMK AO2 LTG DSNT N T03060222
53915KARA ARA20160821123012008/21/16 12:30:31  5-MIN KARA 211830Z 23007KT 10SM FEW095 31/22 A3001 -50 58 1800 230/07 RMK AO2 LTG DSNT N-SE T03110222
53915KARA ARA20160821123512408/21/16 12:35:31  5-MIN KARA 211835Z 23005KT 10SM FEW090 32/23 A3001 -50 58 1900 230/05 RMK AO2 LTG DSNT E AND SE T03170228
53915KARA ARA20160821124011708/21/16 12:40:31  5-MIN KARA 211840Z 22008KT 10SM CLR 32/23 A3001 -50 58 1900 220/08 RMK AO2 LTG DSNT N-SE T03170228
53915KARA ARA20160821124511708/21/16 12:45:31  5-MIN KARA 211845Z 22006KT 10SM CLR 32/23 A3001 -50 59 1900 220/06 RMK AO2 LTG DSNT N-SE T03220233
53915KARA ARA20160821125014008/21/16 12:50:31  5-MIN KARA 211850Z 20007KT 170V240 10SM CLR 32/24 A3001 -50 63 1900 200/07 170V240 RMK AO2 LTG DSNT N-SE SLP160 T03170239
53915KARA ARA20160821125512008/21/16 12:55:31  5-MIN KARA 211855Z 20005KT 10SM CLR 32/24 A3000 -50 63 1900 200/05 RMK AO2 LTG DSNT N AND E T03220244
53915KARA ARA20160821130012008/21/16 13:00:31  5-MIN KARA 211900Z 23006KT 10SM CLR 32/24 A3000 -40 61 1900 230/06 RMK AO2 LTG DSNT N AND E T03220239
53915KARA ARA20160821130511408/21/16 13:05:31  5-MIN KARA 211905Z 24010KT 10SM CLR 33/25 A3000 -40 63 2000 240/10 RMK AO2 LTG DSNT N T03280250
53915KARA ARA20160821131012008/21/16 13:10:31  5-MIN KARA 211910Z 23012G15KT 10SM CLR 32/24 A3000 -40 63 2000 230/12G15 RMK AO2 LTG DSNT N T03220244
53915KARA ARA20160821131512108/21/16 13:15:31  5-MIN KARA 211915Z 25011KT 10SM CLR 32/24 A3001 -50 61 1900 250/11 RMK AO2 LTG DSNT N AND NE T03220239
53915KARA ARA20160821132012408/21/16 13:20:31  5-MIN KARA 211920Z 26010KT 10SM FEW100 32/23 A3001 -50 59 1900 260/10 RMK AO2 LTG DSNT N AND NE T03220233
53915KARA ARA20160821132512408/21/16 13:25:31  5-MIN KARA 211925Z 26009KT 10SM FEW100 32/23 A3001 -50 59 1900 250/09 RMK AO2 LTG DSNT N AND NE T03220233
53915KARA ARA20160821133012108/21/16 13:30:31  5-MIN KARA 211930Z 26008KT 10SM CLR 32/24 A3000 -50 61 1900 260/08 RMK AO2 LTG DSNT N AND NE T03220239
53915KARA ARA20160821133511508/21/16 13:35:31  5-MIN KARA 211935Z 25008KT 10SM CLR 32/23 A3000 -50 59 1900 250/08 RMK AO2 LTG DSNT NE T03220233
53915KARA ARA20160821134012508/21/16 13:40:31  5-MIN KARA 211940Z 27007KT 10SM FEW032 32/24 A3000 -40 63 1900 270/07 RMK AO2 LTG DSNT NE AND SE T03170239
53915KARA ARA20160821134513208/21/16 13:45:31  5-MIN KARA 211945Z 23013KT 10SM FEW032 SCT049 32/24 A2999 -40 63 2000 230/13 RMK AO2 LTG DSNT NE AND SE T03220244
53915KARA ARA20160821135014508/21/16 13:50:31  5-MIN KARA 211950Z 23012G19KT 10SM FEW030 SCT049 32/24 A3000 -40 65 1900 230/12G19 RMK AO2 LTG DSNT NE AND SE SLP157 T03170244
53915KARA ARA20160821135512408/21/16 13:55:31  5-MIN KARA 211955Z 23012KT 10SM FEW030 31/23 A3000 -40 60 1800 230/12 RMK AO2 LTG DSNT E AND SE T03110228
53915KARA ARA20160821140012408/21/16 14:00:31  5-MIN KARA 212000Z 22009KT 10SM FEW030 31/21 A3000 -40 54 1800 220/09 RMK AO2 LTG DSNT E AND SE T03110211
53915KARA ARA20160821140513108/21/16 14:05:31  5-MIN KARA 212005Z 22008KT 10SM FEW031 FEW110 31/21 A3000 -40 54 1800 220/08 RMK AO2 LTG DSNT E AND SE T03060206
53915KARA ARA20160821141011808/21/16 14:10:31  5-MIN KARA 212010Z 23006KT 10SM FEW110 31/21 A3000 -40 56 1800 230/06 RMK AO2 LTG DSNT SE T03060211
53915KARA ARA20160821141512308/21/16 14:15:31  5-MIN KARA 212015Z AUTO 24008KT 10SM FEW110 31/21 A3000 -40 56 1800 230/08 RMK AO2 LTG DSNT SE T03060211
53915KARA ARA20160821142012308/21/16 14:20:31  5-MIN KARA 212020Z AUTO 23006KT 10SM FEW110 31/21 A3000 -50 54 1800 230/06 RMK AO2 LTG DSNT SE T03110211
53915KARA ARA20160821142512808/21/16 14:25:31  5-MIN KARA 212025Z AUTO 24007KT 10SM FEW110 32/21 A3000 -40 51 1900 240/07 RMK AO2 LTG DSNT N AND W T03170206
53915KARA ARA20160821143012808/21/16 14:30:31  5-MIN KARA 212030Z AUTO 24008KT 10SM FEW110 32/21 A2999 -40 53 1900 240/08 RMK AO2 LTG DSNT N AND W T03170211
53915KARA ARA20160821143512508/21/16 14:35:31  5-MIN KARA 212035Z AUTO 24006KT 10SM CLR 32/22 A2999 -30 55 1900 240/06 RMK AO2 LTG DSNT N AND W T03170217
53915KARA ARA20160821144013108/21/16 14:40:31  5-MIN KARA 212040Z AUTO 24006KT 10SM CLR 32/22 A2999 -30 55 2000 240/06 RMK AO2 LTG DSNT N AND E AND W T03220222
53915KARA ARA20160821144513108/21/16 14:45:31  5-MIN KARA 212045Z AUTO 25005KT 10SM CLR 32/23 A2999 -40 57 2000 250/05 RMK AO2 LTG DSNT N AND E AND W T03220228
53915KARA ARA20160821145013108/21/16 14:50:31  5-MIN KARA 212050Z 26007KT 10SM CLR 33/23 A2999 -30 55 2000 260/07 RMK AO2 LTG DSNT ALQDS SLP155 T03280228 50001
53915KARA ARA20160821145511808/21/16 14:55:31  5-MIN KARA 212055Z 21005KT 10SM CLR 33/23 A2999 -40 57 2000 210/05 RMK AO2 LTG DSNT ALQDS T03280233
53915KARA ARA20160821150011808/21/16 15:00:31  5-MIN KARA 212100Z 25006KT 10SM CLR 33/23 A3000 -40 57 2000 240/06 RMK AO2 LTG DSNT ALQDS T03280233
53915KARA ARA20160821150511808/21/16 15:05:31  5-MIN KARA 212105Z 23008KT 10SM CLR 33/24 A3000 -40 59 2000 230/08 RMK AO2 LTG DSNT ALQDS T03280239
53915KARA ARA20160821151011808/21/16 15:10:31  5-MIN KARA 212110Z 23004KT 10SM CLR 33/24 A3000 -40 59 2000 230/04 RMK AO2 LTG DSNT ALQDS T03280239
53915KARA ARA20160821151513308/21/16 15:15:31  5-MIN KARA 212115Z 28007KT 220V320 10SM CLR 33/24 A3000 -50 59 2000 280/07 220V320 RMK AO2 LTG DSNT N-SE T03280239
53915KARA ARA20160821152012608/21/16 15:20:31  5-MIN KARA 212120Z 35016G21KT 10SM SCT036 31/24 A3001 -50 67 1800 350/16G21 RMK AO2 LTG DSNT N-SE T03060239
53915KARA ARA20160821152512608/21/16 15:25:31  5-MIN KARA 212125Z 34015KT 10SM SCT036 SCT044 29/23 A3001 -50 69 1600 340/15 RMK AO2 LTG DSNT N-E T02890228
53915KARA ARA20160821153016208/21/16 15:30:31  5-MIN KARA 212130Z 34016KT 10SM -RA SCT035 BKN044 BKN065 28/23 A3001 -50 71 1500 340/16 RMK AO2 WSHFT 2116 LTG DSNT ALQDS RAB29 P0000 T02830228
53915KARA ARA20160821153516808/21/16 15:35:31  5-MIN KARA 212135Z 32016G22KT 10SM -RA BKN035 BKN044 BKN065 28/22 A3001 -60 71 1400 310/16G22 RMK AO2 WSHFT 2116 LTG DSNT ALQDS RAB29 P0000 T02780222
53915KARA ARA20160821154016108/21/16 15:40:31  5-MIN KARA 212140Z 33015G22KT 10SM -RA BKN035 BKN044 28/22 A3002 -60 71 1400 330/15G22 RMK AO2 WSHFT 2116 LTG DSNT ALQDS RAB29 P0000 T02780222
53915KARA ARA20160821154517808/21/16 15:45:31  5-MIN KARA 212145Z 33014G22KT 10SM -RA BKN035 BKN044 OVC080 28/22 A3002 -60 71 1400 330/14G22 RMK AO2 WSHFT 2116 LTG DSNT NE AND E AND SW RAB29 P0000 T02780222
53915KARA ARA20160821155017208/21/16 15:50:31  5-MIN KARA 212150Z 36009G19KT 10SM -RA SCT035 BKN044 OVC080 27/23 A3002 -60 76 1400 360/09G19 RMK AO2 WSHFT 2116 LTG DSNT SW RAB29 SLP166 P0000 T02720228
53915KARA ARA20160821155514908/21/16 15:55:31  5-MIN KARA 212155Z 36011KT 10SM -RA SCT035 BKN047 OVC080 27/24 A3002 -60 82 1400 360/11 RMK AO2 LTG DSNT NE AND SW P0000 T02720239
53915KARA ARA20160821160014908/21/16 16:00:31  5-MIN KARA 212200Z 35010KT 10SM -RA SCT035 BKN049 BKN080 27/23 A3001 -50 82 1300 350/10 RMK AO2 LTG DSNT NE AND SW P0000 T02670233
53915KARA ARA20160821160510308/21/16 16:05:31  5-MIN KARA 212205Z 02011KT 10SM VCTS -RA FEW033 SCT047 BKN080 27/23 A3001 -50 79 14 
53915KARA ARA20160821181010308/21/16 18:10:31  5-MIN KARA 220010Z 00000KT 10SM CLR 27/24 A3003 -70 84 1300 000/00 RMK AO2 T02670239
53915KARA ARA20160821181510308/21/16 18:15:31  5-MIN KARA 220015Z 19003KT 10SM CLR 27/24 A3002 -60 84 1300 190/03 RMK AO2 T02670239
53915KARA ARA20160821182010308/21/16 18:20:31  5-MIN KARA 220020Z 00000KT 10SM CLR 27/24 A3003 -70 87 1300 000/00 RMK AO2 T02670244
53915KARA ARA20160821182510308/21/16 18:25:31  5-MIN KARA 220025Z 00000KT 10SM CLR 27/24 A3002 -60 87 1300 000/00 RMK AO2 T02670244
53915KARA ARA20160821183010308/21/16 18:30:31  5-MIN KARA 220030Z 00000KT 10SM CLR 27/24 A3002 -60 84 1300 000/00 RMK AO2 T02670239
53915KARA ARA20160821183510308/21/16 18:35:31  5-MIN KARA 220035Z 00000KT 10SM CLR 27/23 A3002 -60 82 1300 000/00 RMK AO2 T02670233
53915KARA ARA20160821184010308/21/16 18:40:31  5-MIN KARA 220040Z 00000KT 10SM CLR 27/23 A3002 -70 82 1300 000/00 RMK AO2 T02670233
53915KARA ARA20160821184510808/21/16 18:45:31  5-MIN KARA 220045Z AUTO 00000KT 10SM CLR 26/23 A3003 -70 84 1200 000/00 RMK AO2 T02610233
53915KARA ARA20160821185011508/21/16 18:50:31  5-MIN KARA 220050Z AUTO 14003KT 10SM CLR 26/23 A3003 -70 84 1200 140/03 RMK AO2 SLP167 T02610233
53915KARA ARA20160821185510808/21/16 18:55:31  5-MIN KARA 220055Z AUTO 00000KT 10SM CLR 26/23 A3003 -70 84 1200 000/00 RMK AO2 T02610233
53915KARA ARA20160821190010808/21/16 19:00:31  5-MIN KARA 220100Z AUTO 00000KT 10SM CLR 26/24 A3003 -70 87 1200 000/00 RMK AO2 T02610239
53915KARA ARA20160821190510808/21/16 19:05:31  5-MIN KARA 220105Z AUTO 00000KT 10SM CLR 26/24 A3004 -80 90 1200 000/00 RMK AO2 T02610244
53915KARA ARA20160821191010808/21/16 19:10:31  5-MIN KARA 220110Z AUTO 14003KT 10SM CLR 26/24 A3004 -80 93 1200 140/03 RMK AO2 T02560244
53915KARA ARA20160821191510808/21/16 19:15:31  5-MIN KARA 220115Z AUTO 00000KT 10SM CLR 26/24 A3004 -80 90 1200 000/00 RMK AO2 T02560239
53915KARA ARA20160821192010808/21/16 19:20:31  5-MIN KARA 220120Z AUTO 00000KT 10SM CLR 26/24 A3003 -70 87 1200 000/00 RMK AO2 T02610239
53915KARA ARA20160821192510808/21/16 19:25:31  5-MIN KARA 220125Z AUTO 00000KT 10SM CLR 26/24 A3004 -80 87 1200 000/00 RMK AO2 T02610239
53915KARA ARA20160821193010808/21/16 19:30:31  5-MIN KARA 220130Z AUTO 00000KT 10SM CLR 26/24 A3004 -80 87 1200 000/00 RMK AO2 T02610239
53915KARA ARA20160821193510808/21/16 19:35:31  5-MIN KARA 220135Z AUTO 00000KT 10SM CLR 26/24 A3004 -80 90 1200 000/00 RMK AO2 T02560239
53915KARA ARA20160821194010808/21/16 19:40:31  5-MIN KARA 220140Z AUTO 02003KT 10SM CLR 26/24 A3004 -80 87 1200 020/03 RMK AO2 T02610239
53915KARA ARA20160821194510808/21/16 19:45:31  5-MIN KARA 220145Z AUTO 04003KT 10SM CLR 26/24 A3003 -70 90 1200 040/03 RMK AO2 T02560239
53915KARA ARA20160821195011508/21/16 19:50:31  5-MIN KARA 220150Z AUTO 06003KT 10SM CLR 26/24 A3004 -80 90 1200 050/03 RMK AO2 SLP170 T02560239
53915KARA ARA20160821195510808/21/16 19:55:31  5-MIN KARA 220155Z AUTO 09003KT 10SM CLR 26/24 A3004 -80 87 1200 090/03 RMK AO2 T02610239
53915KARA ARA20160821200010808/21/16 20:00:31  5-MIN KARA 220200Z AUTO 00000KT 10SM CLR 26/24 A3004 -80 87 1200 000/00 RMK AO2 T02610239
53915KARA ARA20160821200510808/21/16 20:05:31  5-MIN KARA 220205Z AUTO 00000KT 10SM CLR 26/23 A3004 -80 84 1200 000/00 RMK AO2 T02610233
53915KARA ARA20160821201010808/21/16 20:10:31  5-MIN KARA 220210Z AUTO 00000KT 10SM CLR 26/23 A3004 -80 87 1200 000/00 RMK AO2 T02560233
53915KARA ARA20160821201510808/21/16 20:15:31  5-MIN KARA 220215Z AUTO 00000KT 10SM CLR 26/23 A3004 -80 87 1200 000/00 RMK AO2 T02560233
53915KARA ARA20160821202010808/21/16 20:20:31  5-MIN KARA 220220Z AUTO 00000KT 10SM CLR 26/24 A3004 -80 90 1200 000/00 RMK AO2 T02560239
53915KARA ARA20160821202510808/21/16 20:25:31  5-MIN KARA 220225Z AUTO 00000KT 10SM CLR 26/23 A3004 -80 87 1200 000/00 RMK AO2 T02560233
53915KARA ARA20160821203010808/21/16 20:30:31  5-MIN KARA 220230Z AUTO 00000KT 10SM CLR 26/23 A3004 -80 87 1200 000/00 RMK AO2 T02560233
53915KARA ARA20160821203510808/21/16 20:35:31  5-MIN KARA 220235Z AUTO 00000KT 10SM CLR 26/23 A3004 -80 87 1200 000/00 RMK AO2 T02560233
53915KARA ARA20160821204010808/21/16 20:40:31  5-MIN KARA 220240Z AUTO 00000KT 10SM CLR 26/23 A3005 -90 87 1200 000/00 RMK AO2 T02560233
53915KARA ARA20160821204510808/21/16 20:45:31  5-MIN KARA 220245Z AUTO 00000KT 10SM CLR 26/23 A3005 -90 87 1100 000/00 RMK AO2 T02560233
53915KARA ARA20160821205012108/21/16 20:50:31  5-MIN KARA 220250Z AUTO 00000KT 10SM CLR 26/23 A3005 -90 87 1100 000/00 RMK AO2 SLP175 T02560233 51010
53915KARA ARA20160821205510808/21/16 20:55:31  5-MIN KARA 220255Z AUTO 00000KT 10SM CLR 26/24 A3005 -90 90 1100 000/00 RMK AO2 T02560239
53915KARA ARA20160821210010808/21/16 21:00:31  5-MIN KARA 220300Z AUTO 20003KT 10SM CLR 25/24 A3005 -90 93 1100 200/03 RMK AO2 T02500239
53915KARA ARA20160821210510808/21/16 21:05:31  5-MIN KARA 220305Z AUTO 00000KT 10SM CLR 25/23 A3005 -90 90 1100 000/00 RMK AO2 T02500233
53915KARA ARA20160821211010808/21/16 21:10:31  5-MIN KARA 220310Z AUTO 00000KT 10SM CLR 25/24 A3005 -90 93 1100 000/00 RMK AO2 T02500239
53915KARA ARA20160821211510908/21/16 21:15:31  5-MIN KARA 220315Z AUTO 00000KT 10SM CLR 25/24 A3006 -100 93 1100 000/00 RMK AO2 T02500239
53915KARA ARA20160821212010908/21/16 21:20:31  5-MIN KARA 220320Z AUTO 00000KT 10SM CLR 25/24 A3006 -100 93 1100 000/00 RMK AO2 T02500239
53915KARA ARA20160821212510908/21/16 21:25:31  5-MIN KARA 220325Z AUTO 00000KT 10SM CLR 25/24 A3006 -100 93 1100 000/00 RMK AO2 T02500239
53915KARA ARA20160821213010908/21/16 21:30:31  5-MIN KARA 220330Z AUTO 00000KT 10SM CLR 25/24 A3006 -100 93 1100 000/00 RMK AO2 T02500239
53915KARA ARA20160821213510908/21/16 21:35:31  5-MIN KARA 220335Z AUTO 07003KT 10SM CLR 25/24 A3006 -100 93 1100 070/03 RMK AO2 T02500239
53915KARA ARA20160821214010908/21/16 21:40:31  5-MIN KARA 220340Z AUTO 00000KT 10SM CLR 25/23 A3006 -100 90 1100 000/00 RMK AO2 T02500233
53915KARA ARA20160821214510908/21/16 21:45:31  5-MIN KARA 220345Z AUTO 00000KT 10SM CLR 25/23 A3006 -100 90 1100 000/00 RMK AO2 T02500233
53915KARA ARA20160821215011508/21/16 21:50:31  5-MIN KARA 220350Z AUTO 09003KT 10SM CLR 26/23 A3006 -90 87 1100 090/03 RMK AO2 SLP177 T02560233
53915KARA ARA20160821215510808/21/16 21:55:31  5-MIN KARA 220355Z AUTO 08003KT 10SM CLR 25/23 A3005 -90 90 1100 080/03 RMK AO2 T02500233
53915KARA ARA20160821220010808/21/16 22:00:31  5-MIN KARA 220400Z AUTO 00000KT 10SM CLR 25/23 A3005 -90 90 1100 000/00 RMK AO2 T02500233
53915KARA ARA20160821220510808/21/16 22:05:31  5-MIN KARA 220405Z AUTO 11003KT 10SM CLR 25/23 A3005 -90 90 1100 100/03 RMK AO2 T02500233
53915KARA ARA20160821221010808/21/16 22:10:31  5-MIN KARA 220410Z AUTO 12003KT 10SM CLR 24/23 A3005 -90 93 1000 120/03 RMK AO2 T02440233
53915KARA ARA20160821221510808/21/16 22:15:31  5-MIN KARA 220415Z AUTO 00000KT 10SM CLR 24/23 A3005 -90 93 1000 000/00 RMK AO2 T02440233
53915KARA ARA20160821222010808/21/16 22:20:31  5-MIN KARA 220420Z AUTO 00000KT 10SM CLR 25/23 A3005 -90 90 1100 000/00 RMK AO2 T02500233
53915KARA ARA20160821222510808/21/16 22:25:31  5-MIN KARA 220425Z AUTO 00000KT 10SM CLR 25/23 A3005 -90 90 1100 000/00 RMK AO2 T02500233
53915KARA ARA20160821223010808/21/16 22:30:31  5-MIN KARA 220430Z AUTO 00000KT 10SM CLR 25/24 A3005 -90 93 1100 000/00 RMK AO2 T02500239
53915KARA ARA20160821223510808/21/16 22:35:31  5-MIN KARA 220435Z AUTO 00000KT 10SM CLR 25/23 A3005 -90 90 1100 000/00 RMK AO2 T02500233
53915KARA ARA20160821224010808/21/16 22:40:31  5-MIN KARA 220440Z AUTO 00000KT 10SM CLR 24/23 A3005 -90 93 1000 000/00 RMK AO2 T02440233
53915KARA ARA20160821224510808/21/16 22:45:31  5-MIN KARA 220445Z AUTO 00000KT 10SM CLR 24/23 A3005 -90 93 1000 000/00 RMK AO2 T02440233
53915KARA ARA20160821225011508/21/16 22:50:31  5-MIN KARA 220450Z AUTO 00000KT 10SM CLR 24/23 A3005 -90 93 1000 000/00 RMK AO2 SLP176 T02440233
53915KARA ARA20160821225510808/21/16 22:55:31  5-MIN KARA 220455Z AUTO 00000KT 10SM CLR 24/23 A3005 -90 93 1000 000/00 RMK AO2 T02440233
53915KARA ARA20160821230010808/21/16 23:00:31  5-MIN KARA 220500Z AUTO 00000KT 10SM CLR 24/23 A3005 -90 93 1000 000/00 RMK AO2 T02440233
53915KARA ARA20160821230510808/21/16 23:05:31  5-MIN KARA 220505Z AUTO 00000KT 10SM CLR 24/23 A3005 -90 93 1000 000/00 RMK AO2 T02440233
53915KARA ARA20160821231010808/21/16 23:10:31  5-MIN KARA 220510Z AUTO 00000KT 10SM CLR 24/23 A3005 -90 93 1000 000/00 RMK AO2 T02440233
53915KARA ARA20160821231510808/21/16 23:15:31  5-MIN KARA 220515Z AUTO 00000KT 10SM CLR 24/23 A3005 -90 93 1000 000/00 RMK AO2 T02440233
53915KARA ARA20160821232010808/21/16 23:20:31  5-MIN KARA 220520Z AUTO 00000KT 10SM CLR 24/23 A3005 -90 93 1000 000/00 RMK AO2 T02440233
53915KARA ARA20160821232510808/21/16 23:25:31  5-MIN KARA 220525Z AUTO 00000KT 10SM CLR 24/23 A3005 -90 93 1000 000/00 RMK AO2 T02440233
53915KARA ARA20160821233010808/21/16 23:30:31  5-MIN KARA 220530Z AUTO 00000KT 10SM CLR 24/23 A3005 -80 93 1000 000/00 RMK AO2 T02440233
53915KARA ARA20160821233510808/21/16 23:35:31  5-MIN KARA 220535Z AUTO 00000KT 10SM CLR 24/23 A3005 -80 93 1000 000/00 RMK AO2 T02440233
53915KARA ARA20160821234010808/21/16 23:40:31  5-MIN KARA 220540Z AUTO 00000KT 10SM CLR 24/23 A3005 -90 93 1000 000/00 RMK AO2 T02440233
53915KARA ARA20160821234510808/21/16 23:45:31  5-MIN KARA 220545Z AUTO 07003KT 10SM CLR 25/24 A3005 -90 93 1100 070/03 RMK AO2 T02500239
53915KARA ARA20160821235014308/21/16 23:50:31  5-MIN KARA 220550Z AUTO 00000KT 10SM CLR 25/24 A3005 -90 93 1100 000/00 RMK AO2 SLP174 T02500239 10267 20244 403280239 53009
53915KARA ARA20160821235510808/21/16 23:55:31  5-MIN KARA 220555Z AUTO 00000KT 10SM CLR 24/24 A3005 -80 97 1000 000/00 RMK AO2 T02440239
53915KARA ARA20160822000012608/22/16 00:00:31  5-MIN KARA 220600Z AUTO 00000KT 10SM -RA CLR 25/24 A3004 -80 93 1100 000/00 RMK AO2 RAB0557 P0000 T02500239
53915KARA ARA20160822000512608/22/16 00:05:31  5-MIN KARA 220605Z AUTO 00000KT 10SM -RA CLR 25/24 A3004 -80 93 1100 000/00 RMK AO2 RAB0557 P0000 T02500239
53915KARA ARA20160822001012608/22/16 00:10:31  5-MIN KARA 220610Z AUTO 00000KT 10SM -RA CLR 25/24 A3004 -80 93 1100 000/00 RMK AO2 RAB0557 P0000 T02500239
53915KARA ARA20160822001512508/22/16 00:15:31  5-MIN KARA 220615Z AUTO 00000KT 10SM CLR 25/24 A3004 -80 93 1100 000/00 RMK AO2 RAB0557E12 P0000 T02500239
53915KARA ARA20160822002012508/22/16 00:20:31  5-MIN KARA 220620Z AUTO 00000KT 10SM CLR 24/23 A3004 -80 93 1000 000/00 RMK AO2 RAB0557E12 P0000 T02440233
53915KARA ARA20160822002512508/22/16 00:25:31  5-MIN KARA 220625Z AUTO 00000KT 10SM CLR 24/23 A3004 -80 93 1000 000/00 RMK AO2 RAB0557E12 P0000 T02440233
53915KARA ARA20160822003012508/22/16 00:30:31  5-MIN KARA 220630Z AUTO 00000KT 10SM CLR 24/23 A3004 -80 93 1000 000/00 RMK AO2 RAB0557E12 P0000 T02440233
53915KARA ARA20160822003512508/22/16 00:35:31  5-MIN KARA 220635Z AUTO 10003KT 10SM CLR 24/23 A3004 -80 93 1000 100/03 RMK AO2 RAB0557E12 P0000 T02440233
53915KARA ARA20160822004012508/22/16 00:40:31  5-MIN KARA 220640Z AUTO 10004KT 10SM CLR 24/23 A3004 -80 93 1000 100/04 RMK AO2 RAB0557E12 P0000 T02440233
53915KARA ARA20160822004512508/22/16 00:45:31  5-MIN KARA 220645Z AUTO 10004KT 10SM CLR 24/23 A3004 -80 93 1000 100/04 RMK AO2 RAB0557E12 P0000 T02440233
53915KARA ARA20160822005013208/22/16 00:50:31  5-MIN KARA 220650Z AUTO 09004KT 10SM CLR 24/23 A3003 -70 93 1000 090/04 RMK AO2 RAB0557E12 SLP169 P0000 T02440233
53915KARA ARA20160822005510808/22/16 00:55:31  5-MIN KARA 220655Z AUTO 09003KT 10SM CLR 24/23 A3003 -70 93 1000 090/03 RMK AO2 T02440233
53915KARA ARA20160822010010808/22/16 01:00:31  5-MIN KARA 220700Z AUTO 08003KT 10SM CLR 24/23 A3004 -70 93 1000 080/03 RMK AO2 T02440233
53915KARA ARA20160822010510808/22/16 01:05:31  5-MIN KARA 220705Z AUTO 08003KT 10SM CLR 24/23 A3004 -80 93 1000 080/03 RMK AO2 T02440233
53915KARA ARA20160822011010808/22/16 01:10:31  5-MIN KARA 220710Z AUTO 00000KT 10SM CLR 24/24 A3004 -80 97 1000 000/00 RMK AO2 T02440239
53915KARA ARA20160822011510808/22/16 01:15:31  5-MIN KARA 220715Z AUTO 00000KT 10SM CLR 24/24 A3004 -80 97 1000 000/00 RMK AO2 T02440239
53915KARA ARA20160822012010808/22/16 01:20:31  5-MIN KARA 220720Z AUTO 08003KT 10SM CLR 24/24 A3004 -80 97 1000 080/03 RMK AO2 T02440239
53915KARA ARA20160822012512408/22/16 01:25:31  5-MIN KARA 220725Z AUTO 06003KT 10SM -RA CLR 24/24 A3004 -80 97 1000 060/03 RMK AO2 RAB22 P0000 T02440239
53915KARA ARA20160822013012408/22/16 01:30:31  5-MIN KARA 220730Z AUTO 04003KT 10SM -RA CLR 24/24 A3004 -80 97 1000 040/03 RMK AO2 RAB22 P0000 T02440239
53915KARA ARA20160822013512308/22/16 01:35:31  5-MIN KARA 220735Z AUTO 00000KT 10SM CLR 24/24 A3004 -80 97 1000 000/00 RMK AO2 RAB22E32 P0000 T02440239
53915KARA ARA20160822014012308/22/16 01:40:31  5-MIN KARA 220740Z AUTO 00000KT 10SM CLR 24/24 A3004 -80 97 1000 000/00 RMK AO2 RAB22E32 P0000 T02440239
53915KARA ARA20160822014512308/22/16 01:45:31  5-MIN KARA 220745Z AUTO 00000KT 10SM CLR 24/24 A3004 -80 97 1000 000/00 RMK AO2 RAB22E32 P0000 T02440239
53915KARA ARA20160822015013008/22/16 01:50:31  5-MIN KARA 220750Z AUTO 00000KT 10SM CLR 25/24 A3004 -80 93 1100 000/00 RMK AO2 RAB22E32 SLP172 P0000 T02500239
53915KARA ARA20160822015510808/22/16 01:55:31  5-MIN KARA 220755Z AUTO 00000KT 10SM CLR 24/24 A3004 -80 97 1000 000/00 RMK AO2 T02440239
53915KARA ARA20160822020010808/22/16 02:00:31  5-MIN KARA 220800Z AUTO 00000KT 10SM CLR 24/24 A3004 -80 97 1000 000/00 RMK AO2 T02440239
53915KARA ARA20160822020510808/22/16 02:05:31  5-MIN KARA 220805Z AUTO 00000KT 10SM CLR 24/24 A3004 -80 97 1000 000/00 RMK AO2 T02440239
53915KARA ARA20160822021010708/22/16 02:10:31  5-MIN KARA 220810Z AUTO 00000KT 9SM CLR 24/23 A3004 -80 93 1000 000/00 RMK AO2 T02440233
53915KARA ARA20160822021510708/22/16 02:15:31  5-MIN KARA 220815Z AUTO 00000KT 9SM CLR 24/23 A3005 -90 97 1000 000/00 RMK AO2 T02390233
53915KARA ARA20160822022010708/22/16 02:20:31  5-MIN KARA 220820Z AUTO 00000KT 9SM CLR 24/23 A3005 -80 97 1000 000/00 RMK AO2 T02390233
53915KARA ARA20160822022510708/22/16 02:25:31  5-MIN KARA 220825Z AUTO 00000KT 9SM CLR 24/23 A3005 -80 97 1000 000/00 RMK AO2 T02390233
53915KARA ARA20160822023010708/22/16 02:30:31  5-MIN KARA 220830Z AUTO 00000KT 9SM CLR 24/23 A3005 -80 97 1000 000/00 RMK AO2 T02390233
53915KARA ARA20160822023510708/22/16 02:35:31  5-MIN KARA 220835Z AUTO 00000KT 9SM CLR 24/23 A3005 -90 97 1000 000/00 RMK AO2 T02390233
53915KARA ARA20160822024010808/22/16 02:40:31  5-MIN KARA 220840Z AUTO 00000KT 10SM CLR 24/23 A3005 -80 97 1000 000/00 RMK AO2 T02390233
53915KARA ARA20160822024510808/22/16 02:45:31  5-MIN KARA 220845Z AUTO 00000KT 10SM CLR 24/23 A3005 -80 97 1000 000/00 RMK AO2 T02390233
53915KARA ARA20160822025012708/22/16 02:50:31  5-MIN KARA 220850Z AUTO 00000KT 10SM CLR 24/23 A3005 -80 97 1000 000/00 RMK AO2 SLP173 60000 T02390233 58001
53915KARA ARA20160822025510808/22/16 02:55:31  5-MIN KARA 220855Z AUTO 00000KT 10SM CLR 24/23 A3005 -80 97 1000 000/00 RMK AO2 T02390233
53915KARA ARA20160822030010808/22/16 03:00:31  5-MIN KARA 220900Z AUTO 00000KT 10SM CLR 24/23 A3005 -90 97 1000 000/00 RMK AO2 T02390233
53915KARA ARA20160822030510808/22/16 03:05:31  5-MIN KARA 220905Z AUTO 00000KT 10SM CLR 24/23 A3005 -90 93 1000 000/00 RMK AO2 T02390228
53915KARA ARA20160822031010808/22/16 03:10:31  5-MIN KARA 220910Z AUTO 00000KT 10SM CLR 24/23 A3005 -90 93 1000 000/00 RMK AO2 T02390228
53915KARA ARA20160822031510708/22/16 03:15:31  5-MIN KARA 220915Z AUTO 00000KT 9SM CLR 24/23 A3005 -90 93 1000 000/00 RMK AO2 T02390228
53915KARA ARA20160822032010608/22/16 03:20:31  5-MIN KARA 220920Z AUTO 10003KT 9SM CLR 23/23 A3005 -90 97 900 100/03 RMK AO2 T02330228
53915KARA ARA20160822032510708/22/16 03:25:31  5-MIN KARA 220925Z AUTO 10004KT 10SM CLR 23/23 A3005 -90 97 900 100/04 RMK AO2 T02330228
53915KARA ARA20160822033010808/22/16 03:30:31  5-MIN KARA 220930Z AUTO 10003KT 10SM CLR 24/23 A3005 -90 93 1000 100/03 RMK AO2 T02390228
53915KARA ARA20160822033510808/22/16 03:35:31  5-MIN KARA 220935Z AUTO 09003KT 10SM CLR 24/23 A3006 -90 97 1000 090/03 RMK AO2 T02390233
53915KARA ARA20160822034012408/22/16 03:40:31  5-MIN KARA 220940Z AUTO 07003KT 10SM -RA CLR 24/23 A3005 -90 97 1000 070/03 RMK AO2 RAB37 P0000 T02390233
53915KARA ARA20160822034512408/22/16 03:45:31  5-MIN KARA 220945Z AUTO 06004KT 10SM -RA CLR 24/23 A3006 -90 93 1000 060/04 RMK AO2 RAB37 P0000 T02440233
53915KARA ARA20160822035013108/22/16 03:50:31  5-MIN KARA 220950Z AUTO 05004KT 10SM -RA CLR 24/23 A3005 -90 93 1000 050/04 RMK AO2 RAB37 SLP176 P0000 T02440233
53915KARA ARA20160822035511808/22/16 03:55:31  5-MIN KARA 220955Z AUTO 06004KT 10SM -RA CLR 24/23 A3005 -90 93 1000 060/04 RMK AO2 P0000 T02440233
53915KARA ARA20160822040011908/22/16 04:00:31  5-MIN KARA 221000Z AUTO 06003KT 10SM -RA CLR 24/23 A3006 -100 93 1000 060/03 RMK AO2 P0000 T02440233
53915KARA ARA20160822040511908/22/16 04:05:31  5-MIN KARA 221005Z AUTO 05003KT 10SM -RA CLR 24/24 A3006 -100 97 1000 050/03 RMK AO2 P0000 T02440239
53915KARA ARA20160822041011908/22/16 04:10:31  5-MIN KARA 221010Z AUTO 00000KT 10SM -RA CLR 24/23 A3006 -100 93 1000 000/00 RMK AO2 P0000 T02440233
53915KARA ARA20160822041511908/22/16 04:15:31  5-MIN KARA 221015Z AUTO 00000KT 10SM -RA CLR 24/24 A3006 -100 97 1000 000/00 RMK AO2 P0000 T02440239
53915KARA ARA20160822042011908/22/16 04:20:31  5-MIN KARA 221020Z AUTO 00000KT 10SM -RA CLR 24/23 A3006 -100 93 1000 000/00 RMK AO2 P0000 T02440233
53915KARA ARA20160822042511908/22/16 04:25:31  5-MIN KARA 221025Z AUTO 00000KT 10SM -RA CLR 24/23 A3007 -100 93 1000 000/00 RMK AO2 P0000 T02440233
53915KARA ARA20160822043012108/22/16 04:30:31  5-MIN KARA 221030Z AUTO 00000KT 10SM CLR 24/23 A3007 -110 93 1000 000/00 RMK AO2 RAE28 P0000 T02440233
53915KARA ARA20160822043512108/22/16 04:35:31  5-MIN KARA 221035Z AUTO 00000KT 10SM CLR 24/23 A3007 -110 93 1000 000/00 RMK AO2 RAE28 P0000 T02440233
53915KARA ARA20160822044012008/22/16 04:40:31  5-MIN KARA 221040Z AUTO 00000KT 10SM CLR 24/23 A3007 -110 97 900 000/00 RMK AO2 RAE28 P0000 T02390233
53915KARA ARA20160822044512008/22/16 04:45:31  5-MIN KARA 221045Z AUTO 00000KT 10SM CLR 24/23 A3007 -110 97 900 000/00 RMK AO2 RAE28 P0000 T02390233
53915KARA ARA20160822045012208/22/16 04:50:31  5-MIN KARA 221050Z 10003KT 10SM CLR 24/23 A3007 -110 93 900 100/03 RMK AO2 RAE28 SLP182 P0000 T02390228
53915KARA ARA20160822045510308/22/16 04:55:31  5-MIN KARA 221055Z 08003KT 10SM CLR 24/23 A3007 -110 93 900 080/03 RMK AO2 T02390228
53915KARA ARA20160822050010308/22/16 05:00:31  5-MIN KARA 221100Z 00000KT 10SM CLR 23/23 A3007 -110 97 900 000/00 RMK AO2 T02330228
53915KARA ARA20160822050511908/22/16 05:05:31  5-MIN KARA 221105Z 00000KT 10SM -RA CLR 24/23 A3007 -110 93 900 000/00 RMK AO2 RAB04 P0000 T02390228
53915KARA ARA20160822051011908/22/16 05:10:31  5-MIN KARA 221110Z 08003KT 10SM -RA CLR 24/23 A3007 -110 93 900 080/03 RMK AO2 RAB04 P0000 T02390228
53915KARA ARA20160822051511908/22/16 05:15:31  5-MIN KARA 221115Z 00000KT 10SM -RA CLR 24/23 A3007 -110 97 900 000/00 RMK AO2 RAB04 P0000 T02390233
53915KARA ARA20160822052011908/22/16 05:20:31  5-MIN KARA 221120Z 07003KT 10SM -RA CLR 24/23 A3007 -110 97 900 070/03 RMK AO2 RAB04 P0000 T02390233
53915KARA ARA20160822052511908/22/16 05:25:31  5-MIN KARA 221125Z 08003KT 10SM -RA CLR 24/23 A3007 -110 97 900 080/03 RMK AO2 RAB04 P0000 T02390233
53915KARA ARA20160822053011908/22/16 05:30:31  5-MIN KARA 221130Z 08003KT 10SM -RA CLR 24/23 A3008 -110 93 900 080/03 RMK AO2 RAB04 P0000 T02390228
53915KARA ARA20160822053511908/22/16 05:35:31  5-MIN KARA 221135Z 10003KT 10SM -RA CLR 24/23 A3008 -110 97 900 090/03 RMK AO2 RAB04 P0000 T02390233
53915KARA ARA20160822054011908/22/16 05:40:31  5-MIN KARA 221140Z 11003KT 10SM -RA CLR 24/23 A3008 -120 93 900 110/03 RMK AO2 RAB04 P0000 T02390228
53915KARA ARA20160822054511808/22/16 05:45:31  5-MIN KARA 221145Z 12003KT 10SM CLR 24/23 A3009 -120 93 900 120/03 RMK AO2 RAB04E42 P0000 T02390228
53915KARA ARA20160822055014908/22/16 05:50:31  5-MIN KARA 221150Z 10003KT 10SM CLR 23/23 A3009 -120 97 900 100/03 RMK AO2 RAB04E42 SLP187 P0000 60000 T02330228 10250 20233 55000
53915KARA ARA20160822055510308/22/16 05:55:31  5-MIN KARA 221155Z 10003KT 10SM CLR 24/23 A3009 -120 93 900 100/03 RMK AO2 T02390228
53915KARA ARA20160822060011908/22/16 06:00:31  5-MIN KARA 221200Z 00000KT 10SM -RA CLR 24/23 A3009 -130 97 900 000/00 RMK AO2 RAB00 P0000 T02390233
53915KARA ARA20160822060512008/22/16 06:05:31  5-MIN KARA 221205Z 00000KT 10SM -RA CLR 24/23 A3009 -130 93 1000 000/00 RMK AO2 RAB00 P0000 T02440233
53915KARA ARA20160822161511808/22/16 16:15:31  5-MIN KARA 222215Z 20004KT 10SM SCT040 31/24 A3008 -110 65 1700 200/04 RMK AO2 LTG DSNT W T03110239
53915KARA ARA20160822162011808/22/16 16:20:31  5-MIN KARA 222220Z 18004KT 10SM SCT041 32/24 A3007 -110 65 1800 180/04 RMK AO2 LTG DSNT W T03170244
53915KARA ARA20160822162511808/22/16 16:25:31  5-MIN KARA 222225Z VRB03KT 10SM SCT041 32/24 A3008 -110 65 1800 VRB/03 RMK AO2 LTG DSNT W T03170244
53915KARA ARA20160822163010708/22/16 16:30:31  5-MIN KARA 222230Z 24007KT 10SM SCT041 32/24 A3008 -120 63 1800 240/07 RMK AO2 T03170239
53915KARA ARA20160822163510708/22/16 16:35:31  5-MIN KARA 222235Z 23006KT 10SM SCT041 31/23 A3009 -120 63 1700 230/06 RMK AO2 T03110233
53915KARA ARA20160822164010708/22/16 16:40:31  5-MIN KARA 222240Z 23007KT 10SM FEW041 31/24 A3009 -120 67 1700 230/07 RMK AO2 T03060239
53915KARA ARA20160822164510708/22/16 16:45:31  5-MIN KARA 222245Z 22009KT 10SM FEW041 30/24 A3009 -130 72 1600 220/09 RMK AO2 T03000244
53915KARA ARA20160822165011408/22/16 16:50:31  5-MIN KARA 222250Z 23006KT 10SM FEW041 29/24 A3009 -130 71 1500 230/06 RMK AO2 SLP190 T02940239
53915KARA ARA20160822165510408/22/16 16:55:31  5-MIN KARA 222255Z 24008KT 10SM CLR 29/24 A3010 -130 71 1500 240/08 RMK AO2 T02940239
53915KARA ARA20160822170010408/22/16 17:00:31  5-MIN KARA 222300Z 23006KT 10SM CLR 29/23 A3010 -130 71 1500 230/06 RMK AO2 T02890233
53915KARA ARA20160822170510408/22/16 17:05:31  5-MIN KARA 222305Z 21005KT 10SM CLR 29/23 A3010 -130 71 1500 210/05 RMK AO2 T02890233
53915KARA ARA20160822171010408/22/16 17:10:31  5-MIN KARA 222310Z 22007KT 10SM CLR 29/23 A3010 -130 71 1500 210/07 RMK AO2 T02890233
53915KARA ARA20160822171510908/22/16 17:15:31  5-MIN KARA 222315Z 23006KT 10SM VCTS CLR 29/23 A3010 -130 69 1500 230/06 RMK AO2 T02890228
53915KARA ARA20160822172010908/22/16 17:20:31  5-MIN KARA 222320Z 23004KT 10SM VCTS CLR 29/23 A3010 -130 69 1500 230/04 RMK AO2 T02890228
53915KARA ARA20160822172511308/22/16 17:25:31  5-MIN KARA 222325Z 00000KT 10SM TS CLR 29/23 A3010 -140 71 1500 000/00 RMK AO2 TSB22 T02890233
53915KARA ARA20160822173011308/22/16 17:30:31  5-MIN KARA 222330Z 00000KT 10SM TS CLR 29/23 A3010 -140 69 1500 000/00 RMK AO2 TSB22 T02940233
53915KARA ARA20160822173511308/22/16 17:35:31  5-MIN KARA 222335Z 07003KT 10SM TS CLR 29/23 A3010 -140 71 1500 070/03 RMK AO2 TSB22 T02890233
53915KARA ARA20160822174011308/22/16 17:40:31  5-MIN KARA 222340Z 08003KT 10SM CLR 29/23 A3010 -140 71 1500 080/03 RMK AO2 TSB22E37 T02890233
53915KARA ARA20160822174511308/22/16 17:45:31  5-MIN KARA 222345Z 08004KT 10SM CLR 29/24 A3010 -130 74 1500 080/04 RMK AO2 TSB22E37 T02890239
53915KARA ARA20160822175014408/22/16 17:50:31  5-MIN KARA 222350Z 08003KT 10SM CLR 29/24 A3010 -130 74 1500 080/03 RMK AO2 TSB22E37 SLP190 60071 T02890239 10333 20244 58004
53915KARA ARA20160822175510908/22/16 17:55:31  5-MIN KARA 222355Z AUTO 00000KT 10SM CLR 29/24 A3010 -130 74 1500 000/00 RMK AO2 T02890239
53915KARA ARA20160822180010908/22/16 18:00:31  5-MIN KARA 230000Z AUTO 00000KT 10SM CLR 29/24 A3010 -140 74 1500 000/00 RMK AO2 T02890239
53915KARA ARA20160822180510908/22/16 18:05:31  5-MIN KARA 230005Z AUTO 05005KT 10SM CLR 28/23 A3011 -140 74 1400 050/05 RMK AO2 T02830233
53915KARA ARA20160822181010908/22/16 18:10:31  5-MIN KARA 230010Z AUTO 00000KT 10SM CLR 28/23 A3011 -140 71 1400 000/00 RMK AO2 T02830228
53915KARA ARA20160822181510908/22/16 18:15:31  5-MIN KARA 230015Z AUTO 01003KT 10SM CLR 28/23 A3011 -140 76 1300 010/03 RMK AO2 T02780233
53915KARA ARA20160822182010908/22/16 18:20:31  5-MIN KARA 230020Z AUTO 32004KT 10SM CLR 28/23 A3011 -140 76 1300 320/04 RMK AO2 T02780233
53915KARA ARA20160822182510908/22/16 18:25:31  5-MIN KARA 230025Z AUTO 30004KT 10SM CLR 27/23 A3012 -150 79 1300 300/04 RMK AO2 T02720233
53915KARA ARA20160822183010908/22/16 18:30:31  5-MIN KARA 230030Z AUTO 32005KT 10SM CLR 27/23 A3012 -150 79 1300 320/05 RMK AO2 T02720233
53915KARA ARA20160822183510908/22/16 18:35:31  5-MIN KARA 230035Z AUTO 32004KT 10SM CLR 27/24 A3012 -150 82 1300 320/04 RMK AO2 T02720239
53915KARA ARA20160822184010908/22/16 18:40:31  5-MIN KARA 230040Z AUTO 33004KT 10SM CLR 27/24 A3012 -160 84 1300 330/04 RMK AO2 T02720244
53915KARA ARA20160822184510908/22/16 18:45:31  5-MIN KARA 230045Z AUTO 32003KT 10SM CLR 27/24 A3013 -160 84 1300 320/03 RMK AO2 T02720244
53915KARA ARA20160822185011608/22/16 18:50:31  5-MIN KARA 230050Z AUTO 31004KT 10SM CLR 27/25 A3013 -160 87 1200 310/04 RMK AO2 SLP201 T02720250
53915KARA ARA20160822185510908/22/16 18:55:31  5-MIN KARA 230055Z AUTO 31003KT 10SM CLR 27/24 A3013 -160 84 1200 310/03 RMK AO2 T02720244
53915KARA ARA20160822190010908/22/16 19:00:31  5-MIN KARA 230100Z AUTO 32003KT 10SM CLR 27/24 A3013 -160 82 1200 320/03 RMK AO2 T02720239
53915KARA ARA20160822190510908/22/16 19:05:31  5-MIN KARA 230105Z AUTO 00000KT 10SM CLR 27/24 A3013 -160 84 1200 000/00 RMK AO2 T02720244
53915KARA ARA20160822191010908/22/16 19:10:31  5-MIN KARA 230110Z AUTO 00000KT 10SM CLR 28/24 A3013 -160 79 1300 000/00 RMK AO2 T02780239
53915KARA ARA20160822191510908/22/16 19:15:31  5-MIN KARA 230115Z AUTO 00000KT 10SM CLR 27/24 A3014 -170 82 1200 000/00 RMK AO2 T02720239
53915KARA ARA20160822192010908/22/16 19:20:31  5-MIN KARA 230120Z AUTO 00000KT 10SM CLR 27/24 A3014 -170 84 1200 000/00 RMK AO2 T02720244
53915KARA ARA20160822192510908/22/16 19:25:31  5-MIN KARA 230125Z AUTO 00000KT 10SM CLR 27/24 A3014 -170 84 1200 000/00 RMK AO2 T02720244
53915KARA ARA20160822193010908/22/16 19:30:31  5-MIN KARA 230130Z AUTO 00000KT 10SM CLR 27/24 A3014 -170 82 1200 000/00 RMK AO2 T02720239
53915KARA ARA20160822193510908/22/16 19:35:31  5-MIN KARA 230135Z AUTO 00000KT 10SM CLR 28/24 A3014 -170 79 1300 000/00 RMK AO2 T02780239
53915KARA ARA20160822194010908/22/16 19:40:31  5-MIN KARA 230140Z AUTO 00000KT 10SM CLR 27/24 A3014 -180 82 1200 000/00 RMK AO2 T02720239
53915KARA ARA20160822194510908/22/16 19:45:31  5-MIN KARA 230145Z AUTO 00000KT 10SM CLR 27/24 A3014 -180 82 1200 000/00 RMK AO2 T02720239
53915KARA ARA20160822195011608/22/16 19:50:31  5-MIN KARA 230150Z AUTO 03003KT 10SM CLR 27/24 A3014 -170 82 1200 030/03 RMK AO2 SLP206 T02720239
53915KARA ARA20160822195510908/22/16 19:55:31  5-MIN KARA 230155Z AUTO 04003KT 10SM CLR 27/24 A3014 -170 84 1200 040/03 RMK AO2 T02720244
53915KARA ARA20160822200010908/22/16 20:00:31  5-MIN KARA 230200Z AUTO 05003KT 10SM CLR 27/24 A3014 -180 82 1200 050/03 RMK AO2 T02720239
53915KARA ARA20160822200510908/22/16 20:05:31  5-MIN KARA 230205Z AUTO 05005KT 10SM CLR 27/24 A3015 -180 82 1200 050/05 RMK AO2 T02720239
53915KARA ARA20160822201010908/22/16 20:10:31  5-MIN KARA 230210Z AUTO 05003KT 10SM CLR 27/24 A3015 -180 84 1200 050/03 RMK AO2 T02670239
53915KARA ARA20160822201510908/22/16 20:15:31  5-MIN KARA 230215Z AUTO 05003KT 10SM CLR 27/24 A3015 -180 84 1200 050/03 RMK AO2 T02670239
53915KARA ARA20160822202010908/22/16 20:20:31  5-MIN KARA 230220Z AUTO 00000KT 10SM CLR 27/24 A3015 -180 84 1200 000/00 RMK AO2 T02670239
53915KARA ARA20160822202510908/22/16 20:25:31  5-MIN KARA 230225Z AUTO 00000KT 10SM CLR 27/24 A3016 -190 84 1200 000/00 RMK AO2 T02670239
53915KARA ARA20160822203010908/22/16 20:30:31  5-MIN KARA 230230Z AUTO 04003KT 10SM CLR 27/24 A3016 -190 84 1200 040/03 RMK AO2 T02670239
53915KARA ARA20160822203510908/22/16 20:35:31  5-MIN KARA 230235Z AUTO 00000KT 10SM CLR 27/24 A3016 -190 84 1200 000/00 RMK AO2 T02670239
53915KARA ARA20160822204010908/22/16 20:40:31  5-MIN KARA 230240Z AUTO 00000KT 10SM CLR 26/24 A3016 -190 90 1100 000/00 RMK AO2 T02610244
53915KARA ARA20160822204510908/22/16 20:45:31  5-MIN KARA 230245Z AUTO 00000KT 10SM CLR 26/24 A3016 -190 90 1100 000/00 RMK AO2 T02610244
53915KARA ARA20160822205012208/22/16 20:50:31  5-MIN KARA 230250Z AUTO 11004KT 10SM CLR 26/24 A3016 -190 87 1100 110/04 RMK AO2 SLP211 T02610239 56002
53915KARA ARA20160822205510908/22/16 20:55:31  5-MIN KARA 230255Z AUTO 00000KT 10SM CLR 26/24 A3016 -190 90 1100 000/00 RMK AO2 T02610244
53915KARA ARA20160822210010908/22/16 21:00:31  5-MIN KARA 230300Z AUTO 00000KT 10SM CLR 26/24 A3016 -190 90 1100 000/00 RMK AO2 T02610244
53915KARA ARA20160822210510908/22/16 21:05:31  5-MIN KARA 230305Z AUTO 00000KT 10SM CLR 26/24 A3016 -190 90 1100 000/00 RMK AO2 T02610244
53915KARA ARA20160822211010908/22/16 21:10:31  5-MIN KARA 230310Z AUTO 07003KT 10SM CLR 26/24 A3016 -190 90 1100 070/03 RMK AO2 T02610244
53915KARA ARA20160822211510908/22/16 21:15:31  5-MIN KARA 230315Z AUTO 00000KT 10SM CLR 26/24 A3016 -190 90 1100 000/00 RMK AO2 T02610244
53915KARA ARA20160822212010908/22/16 21:20:31  5-MIN KARA 230320Z AUTO 00000KT 10SM CLR 26/24 A3016 -190 90 1100 000/00 RMK AO2 T02610244
53915KARA ARA20160822212510908/22/16 21:25:31  5-MIN KARA 230325Z AUTO 00000KT 10SM CLR 26/24 A3016 -190 90 1100 000/00 RMK AO2 T02610244
53915KARA ARA20160822213010908/22/16 21:30:31  5-MIN KARA 230330Z AUTO 00000KT 10SM CLR 26/24 A3016 -190 90 1100 000/00 RMK AO2 T02610244
53915KARA ARA20160822213510908/22/16 21:35:31  5-MIN KARA 230335Z AUTO 00000KT 10SM CLR 26/24 A3016 -190 90 1100 000/00 RMK AO2 T02610244
53915KARA ARA20160822214010908/22/16 21:40:31  5-MIN KARA 230340Z AUTO 35003KT 10SM CLR 26/24 A3016 -190 90 1100 350/03 RMK AO2 T02610244
53915KARA ARA20160822214510908/22/16 21:45:31  5-MIN KARA 230345Z AUTO 00000KT 10SM CLR 26/24 A3016 -190 90 1100 000/00 RMK AO2 T02610244
53915KARA ARA20160822215011608/22/16 21:50:31  5-MIN KARA 230350Z AUTO 00000KT 10SM CLR 26/24 A3016 -190 90 1100 000/00 RMK AO2 SLP211 T02610244
53915KARA ARA20160822215510908/22/16 21:55:31  5-MIN KARA 230355Z AUTO 00000KT 10SM CLR 26/24 A3016 -190 93 1000 000/00 RMK AO2 T02560244
53915KARA ARA20160822220010908/22/16 22:00:31  5-MIN KARA 230400Z AUTO 00000KT 10SM CLR 26/24 A3016 -190 93 1000 000/00 RMK AO2 T02560244
53915KARA ARA20160822220510908/22/16 22:05:31  5-MIN KARA 230405Z AUTO 00000KT 10SM CLR 25/24 A3016 -190 97 1000 000/00 RMK AO2 T02500244
53915KARA ARA20160822221010908/22/16 22:10:31  5-MIN KARA 230410Z AUTO 00000KT 10SM CLR 25/24 A3016 -190 97 1000 000/00 RMK AO2 T02500244
53915KARA ARA20160822221510908/22/16 22:15:31  5-MIN KARA 230415Z AUTO 00000KT 10SM CLR 25/24 A3016 -190 97 1000 000/00 RMK AO2 T02500244
53915KARA ARA20160822222010908/22/16 22:20:31  5-MIN KARA 230420Z AUTO 00000KT 10SM CLR 25/24 A3016 -190 97 1000 000/00 RMK AO2 T02500244
53915KARA ARA20160822222510908/22/16 22:25:31  5-MIN KARA 230425Z AUTO 00000KT 10SM CLR 25/24 A3016 -190 97 1000 000/00 RMK AO2 T02500244
53915KARA ARA20160822223010908/22/16 22:30:31  5-MIN KARA 230430Z AUTO 10004KT 10SM CLR 25/24 A3015 -180 93 1000 100/04 RMK AO2 T02500239
53915KARA ARA20160822223510908/22/16 22:35:31  5-MIN KARA 230435Z AUTO 09003KT 10SM CLR 26/24 A3015 -180 93 1000 090/03 RMK AO2 T02560244
53915KARA ARA20160822224010908/22/16 22:40:31  5-MIN KARA 230440Z AUTO 08004KT 10SM CLR 26/24 A3015 -180 93 1000 080/04 RMK AO2 T02560244
53915KARA ARA20160822224510908/22/16 22:45:31  5-MIN KARA 230445Z AUTO 07003KT 10SM CLR 26/24 A3015 -180 93 1000 060/03 RMK AO2 T02560244
53915KARA ARA20160822225011608/22/16 22:50:31  5-MIN KARA 230450Z AUTO 00000KT 10SM CLR 26/24 A3015 -180 93 1000 000/00 RMK AO2 SLP210 T02560244
53915KARA ARA20160822225510908/22/16 22:55:31  5-MIN KARA 230455Z AUTO 00000KT 10SM CLR 26/24 A3015 -180 93 1000 000/00 RMK AO2 T02560244
53915KARA ARA20160822230010908/22/16 23:00:31  5-MIN KARA 230500Z AUTO 00000KT 10SM CLR 26/24 A3015 -180 90 1100 000/00 RMK AO2 T02610244
53915KARA ARA20160822230510908/22/16 23:05:31  5-MIN KARA 230505Z AUTO 00000KT 10SM CLR 26/24 A3015 -180 90 1000 000/00 RMK AO2 T02560239
53915KARA ARA20160822231010908/22/16 23:10:31  5-MIN KARA 230510Z AUTO 00000KT 10SM CLR 26/24 A3015 -180 93 1000 000/00 RMK AO2 T02560244
53915KARA ARA20160822231510908/22/16 23:15:31  5-MIN KARA 230515Z AUTO 00000KT 10SM CLR 26/24 A3015 -180 90 1000 000/00 RMK AO2 T02560239
53915KARA ARA20160822232010908/22/16 23:20:31  5-MIN KARA 230520Z AUTO 00000KT 10SM CLR 26/24 A3015 -180 90 1000 000/00 RMK AO2 T02560239
53915KARA ARA20160822232510908/22/16 23:25:31  5-MIN KARA 230525Z AUTO 00000KT 10SM CLR 26/24 A3015 -180 90 1000 000/00 RMK AO2 T02560239
53915KARA ARA20160822233010908/22/16 23:30:31  5-MIN KARA 230530Z AUTO 00000KT 10SM CLR 26/24 A3015 -180 90 1000 000/00 RMK AO2 T02560239
53915KARA ARA20160822233510908/22/16 23:35:31  5-MIN KARA 230535Z AUTO 00000KT 10SM CLR 26/24 A3015 -180 87 1100 000/00 RMK AO2 T02610239
53915KARA ARA20160822234010908/22/16 23:40:31  5-MIN KARA 230540Z AUTO 00000KT 10SM CLR 26/24 A3015 -180 90 1000 000/00 RMK AO2 T02560239
53915KARA ARA20160822234510908/22/16 23:45:31  5-MIN KARA 230545Z AUTO 00000KT 10SM CLR 26/24 A3015 -180 90 1000 000/00 RMK AO2 T02560239
53915KARA ARA20160822235014408/22/16 23:50:31  5-MIN KARA 230550Z AUTO 00000KT 10SM CLR 26/24 A3014 -180 90 1000 000/00 RMK AO2 SLP207 T02560239 10289 20250 403330233 51022
53915KARA ARA20160822235510908/22/16 23:55:31  5-MIN KARA 230555Z AUTO 00000KT 10SM CLR 26/24 A3014 -180 90 1000 000/00 RMK AO2 T02560239
53915KARA ARA20160823000010908/23/16 00:00:31  5-MIN KARA 230600Z AUTO 00000KT 10SM CLR 26/24 A3014 -180 90 1000 000/00 RMK AO2 T02560239
53915KARA ARA20160823000510908/23/16 00:05:31  5-MIN KARA 230605Z AUTO 00000KT 10SM CLR 25/24 A3014 -170 93 1000 000/00 RMK AO2 T02500239
53915KARA ARA20160823001010908/23/16 00:10:31  5-MIN KARA 230610Z AUTO 00000KT 10SM CLR 25/24 A3014 -170 93 1000 000/00 RMK AO2 T02500239
53915KARA ARA20160823001510908/23/16 00:15:31  5-MIN KARA 230615Z AUTO 00000KT 10SM CLR 25/24 A3014 -170 93 1000 000/00 RMK AO2 T02500239
53915KARA ARA20160823002010908/23/16 00:20:31  5-MIN KARA 230620Z AUTO 00000KT 10SM CLR 25/24 A3014 -170 93 1000 000/00 RMK AO2 T02500239
53915KARA ARA20160823002510908/23/16 00:25:31  5-MIN KARA 230625Z AUTO 00000KT 10SM CLR 25/24 A3014 -170 93 1000 000/00 RMK AO2 T02500239
53915KARA ARA20160823003010908/23/16 00:30:31  5-MIN KARA 230630Z AUTO 00000KT 10SM CLR 25/24 A3015 -180 93 1000 000/00 RMK AO2 T02500239
53915KARA ARA20160823003510908/23/16 00:35:31  5-MIN KARA 230635Z AUTO 00000KT 10SM CLR 25/24 A3014 -180 93 1000 000/00 RMK AO2 T02500239
53915KARA ARA20160823004010808/23/16 00:40:31  5-MIN KARA 230640Z AUTO 00000KT 10SM CLR 24/24 A3014 -170 97 900 000/00 RMK AO2 T02440239
53915KARA ARA20160823004510808/23/16 00:45:31  5-MIN KARA 230645Z AUTO 00000KT 10SM CLR 24/24 A3014 -170 97 900 000/00 RMK AO2 T02440239
53915KARA ARA20160823005011508/23/16 00:50:31  5-MIN KARA 230650Z AUTO 00000KT 10SM CLR 24/23 A3014 -170 93 900 000/00 RMK AO2 SLP206 T02440233
53915KARA ARA20160823005510908/23/16 00:55:31  5-MIN KARA 230655Z AUTO 00000KT 10SM CLR 25/24 A3014 -170 93 1000 000/00 RMK AO2 T02500239
53915KARA ARA20160823010010908/23/16 01:00:31  5-MIN KARA 230700Z AUTO 00000KT 10SM CLR 25/24 A3014 -170 97 1000 000/00 RMK AO2 T02500244
53915KARA ARA20160823010510908/23/16 01:05:31  5-MIN KARA 230705Z AUTO 00000KT 10SM CLR 25/24 A3014 -170 97 1000 000/00 RMK AO2 T02500244
53915KARA ARA20160823011010908/23/16 01:10:31  5-MIN KARA 230710Z AUTO 00000KT 10SM CLR 25/24 A3013 -170 93 1000 000/00 RMK AO2 T02500239
53915KARA ARA20160823011510908/23/16 01:15:31  5-MIN KARA 230715Z AUTO 00000KT 10SM CLR 25/24 A3013 -160 93 1000 000/00 RMK AO2 T02500239
53915KARA ARA20160823012010808/23/16 01:20:31  5-MIN KARA 230720Z AUTO 00000KT 9SM CLR 25/24 A3013 -160 93 1000 000/00 RMK AO2 T02500239
53915KARA ARA20160823012510708/23/16 01:25:31  5-MIN KARA 230725Z AUTO 00000KT 9SM CLR 24/24 A3013 -160 97 900 000/00 RMK AO2 T02440239
53915KARA ARA20160823013010908/23/16 01:30:31  5-MIN KARA 230730Z AUTO 00000KT 10SM CLR 25/24 A3013 -160 93 1000 000/00 RMK AO2 T02500239
53915KARA ARA20160823013510908/23/16 01:35:31  5-MIN KARA 230735Z AUTO 31003KT 10SM CLR 25/24 A3013 -160 93 1000 310/03 RMK AO2 T02500239
53915KARA ARA20160823014010708/23/16 01:40:31  5-MIN KARA 230740Z AUTO 33004KT 9SM CLR 24/24 A3013 -160 97 900 330/04 RMK AO2 T02440239
53915KARA ARA20160823014510708/23/16 01:45:31  5-MIN KARA 230745Z AUTO 33003KT 9SM CLR 24/24 A3013 -160 97 900 330/03 RMK AO2 T02440239
53915KARA ARA20160823015011408/23/16 01:50:31  5-MIN KARA 230750Z AUTO 00000KT 9SM CLR 24/24 A3013 -170 97 900 000/00 RMK AO2 SLP203 T02440239
53915KARA ARA20160823015510808/23/16 01:55:31  5-MIN KARA 230755Z AUTO 00000KT 10SM CLR 24/24 A3013 -170 97 900 000/00 RMK AO2 T02440239
53915KARA ARA20160823020010708/23/16 02:00:31  5-MIN KARA 230800Z AUTO 00000KT 9SM CLR 24/24 A3013 -160 97 900 000/00 RMK AO2 T02440239
53915KARA ARA20160823020510808/23/16 02:05:31  5-MIN KARA 230805Z AUTO 00000KT 10SM CLR 24/24 A3013 -170 97 900 000/00 RMK AO2 T02440239
53915KARA ARA20160823021010808/23/16 02:10:31  5-MIN KARA 230810Z AUTO 00000KT 10SM CLR 24/24 A3013 -170 97 900 000/00 RMK AO2 T02440239
53915KARA ARA20160823021510808/23/16 02:15:31  5-MIN KARA 230815Z AUTO 00000KT 10SM CLR 24/24 A3013 -160 97 900 000/00 RMK AO2 T02440239
53915KARA ARA20160823022010908/23/16 02:20:31  5-MIN KARA 230820Z AUTO 00000KT 10SM CLR 25/24 A3013 -160 93 1000 000/00 RMK AO2 T02500239
53915KARA ARA20160823022510808/23/16 02:25:31  5-MIN KARA 230825Z AUTO 00000KT 10SM CLR 24/24 A3013 -160 97 900 000/00 RMK AO2 T02440239
53915KARA ARA20160823023010808/23/16 02:30:31  5-MIN KARA 230830Z AUTO 00000KT 10SM CLR 24/24 A3013 -160 97 900 000/00 RMK AO2 T02440239
53915KARA ARA20160823023510808/23/16 02:35:31  5-MIN KARA 230835Z AUTO 00000KT 10SM CLR 24/24 A3013 -160 97 900 000/00 RMK AO2 T02440239
53915KARA ARA20160823024010808/23/16 02:40:31  5-MIN KARA 230840Z AUTO 00000KT 10SM CLR 24/23 A3013 -170 93 900 000/00 RMK AO2 T02440233
53915KARA ARA20160823024510808/23/16 02:45:31  5-MIN KARA 230845Z AUTO 00000KT 10SM CLR 24/23 A3013 -170 93 900 000/00 RMK AO2 T02440233
53915KARA ARA20160823025012008/23/16 02:50:31  5-MIN KARA 230850Z AUTO 00000KT 9SM CLR 24/23 A3013 -170 93 900 000/00 RMK AO2 SLP203 T02440233 58005
53915KARA ARA20160823025510708/23/16 02:55:31  5-MIN KARA 230855Z AUTO 00000KT 9SM CLR 24/23 A3013 -170 93 900 000/00 RMK AO2 T02440233
53915KARA ARA20160823030010708/23/16 03:00:31  5-MIN KARA 230900Z AUTO 00000KT 9SM CLR 24/24 A3014 -170 97 900 000/00 RMK AO2 T02440239
53915KARA ARA20160823030510708/23/16 03:05:31  5-MIN KARA 230905Z AUTO 00000KT 9SM CLR 24/24 A3014 -170 97 900 000/00 RMK AO2 T02440239
53915KARA ARA20160823031010708/23/16 03:10:31  5-MIN KARA 230910Z AUTO 00000KT 8SM CLR 24/24 A3014 -170 97 900 000/00 RMK AO2 T02440239
53915KARA ARA20160823031510708/23/16 03:15:31  5-MIN KARA 230915Z AUTO 00000KT 8SM CLR 24/24 A3014 -170 97 900 000/00 RMK AO2 T02440239
53915KARA ARA20160823032010708/23/16 03:20:31  5-MIN KARA 230920Z AUTO 00000KT 8SM CLR 24/24 A3014 -170 97 900 000/00 RMK AO2 T02440239
53915KARA ARA20160823032510708/23/16 03:25:31  5-MIN KARA 230925Z AUTO 00000KT 8SM CLR 24/24 A3013 -170 97 900 000/00 RMK AO2 T02440239
53915KARA ARA20160823033010708/23/16 03:30:31  5-MIN KARA 230930Z AUTO 00000KT 8SM CLR 24/24 A3013 -170 97 900 000/00 RMK AO2 T02440239
53915KARA ARA20160823033510708/23/16 03:35:31  5-MIN KARA 230935Z AUTO 00000KT 8SM CLR 24/24 A3013 -170 97 900 000/00 RMK AO2 T02440239
53915KARA ARA20160823034010708/23/16 03:40:31  5-MIN KARA 230940Z AUTO 00000KT 9SM CLR 24/24 A3013 -170 97 900 000/00 RMK AO2 T02440239
53915KARA ARA20160823034510708/23/16 03:45:31  5-MIN KARA 230945Z AUTO 00000KT 9SM CLR 24/24 A3014 -170 97 900 000/00 RMK AO2 T02440239
53915KARA ARA20160823035011408/23/16 03:50:31  5-MIN KARA 230950Z AUTO 00000KT 8SM CLR 24/23 A3014 -170 93 900 000/00 RMK AO2 SLP205 T02440233
53915KARA ARA20160823035510708/23/16 03:55:31  5-MIN KARA 230955Z AUTO 00000KT 7SM CLR 24/24 A3014 -170 97 900 000/00 RMK AO2 T02440239
53915KARA ARA20160823040010708/23/16 04:00:31  5-MIN KARA 231000Z AUTO 00000KT 7SM CLR 24/24 A3014 -170 97 900 000/00 RMK AO2 T02440239
53915KARA ARA20160823040511008/23/16 04:05:31  5-MIN KARA 231005Z AUTO 00000KT 6SM BR CLR 24/23 A3014 -170 97 900 000/00 RMK AO2 T02390233
53915KARA ARA20160823041011008/23/16 04:10:31  5-MIN KARA 231010Z AUTO 00000KT 3SM BR CLR 24/23 A3014 -170 97 900 000/00 RMK AO2 T02390233
53915KARA ARA20160823041511008/23/16 04:15:31  5-MIN KARA 231015Z AUTO 00000KT 4SM BR CLR 24/23 A3014 -170 97 900 000/00 RMK AO2 T02390233
53915KARA ARA20160823042010708/23/16 04:20:31  5-MIN KARA 231020Z AUTO 00000KT 9SM CLR 24/23 A3014 -170 97 900 000/00 RMK AO2 T02390233
53915KARA ARA20160823042510808/23/16 04:25:31  5-MIN KARA 231025Z AUTO 00000KT 10SM CLR 24/23 A3014 -170 93 900 000/00 RMK AO2 T02440233
53915KARA ARA20160823043010808/23/16 04:30:31  5-MIN KARA 231030Z AUTO 00000KT 10SM CLR 24/23 A3014 -170 97 900 000/00 RMK AO2 T02390233
53915KARA ARA20160823043510808/23/16 04:35:31  5-MIN KARA 231035Z AUTO 00000KT 10SM CLR 24/23 A3015 -180 97 900 000/00 RMK AO2 T02390233
53915KARA ARA20160823044010808/23/16 04:40:31  5-MIN KARA 231040Z AUTO 00000KT 10SM CLR 24/23 A3015 -180 97 800 000/00 RMK AO2 T02390233
53915KARA ARA20160823044510308/23/16 04:45:31  5-MIN KARA 231045Z 00000KT 10SM CLR 24/23 A3015 -180 97 800 000/00 RMK AO2 T02390233
53915KARA ARA20160823045011008/23/16 04:50:31  5-MIN KARA 231050Z 00000KT 10SM CLR 24/23 A3015 -180 97 800 000/00 RMK AO2 SLP208 T02390233
53915KARA ARA20160823045510308/23/16 04:55:31  5-MIN KARA 231055Z 00000KT 10SM CLR 24/23 A3015 -180 97 800 000/00 RMK AO2 T02390233
53915KARA ARA20160823050010308/23/16 05:00:31  5-MIN KARA 231100Z 00000KT 10SM CLR 24/23 A3015 -180 97 800 000/00 RMK AO2 T02390233
53915KARA ARA20160823050510308/23/16 05:05:31  5-MIN KARA 231105Z 00000KT 10SM CLR 24/23 A3016 -190 97 800 000/00 RMK AO2 T02390233
53915KARA ARA20160823051010308/23/16 05:10:31  5-MIN KARA 231110Z 00000KT 10SM CLR 24/23 A3016 -190 93 900 000/00 RMK AO2 T02440233
53915KARA ARA20160823051510308/23/16 05:15:31  5-MIN KARA 231115Z 00000KT 10SM CLR 24/23 A3016 -190 97 800 000/00 RMK AO2 T02390233
53915KARA ARA20160823052010308/23/16 05:20:31  5-MIN KARA 231120Z 00000KT 10SM CLR 24/23 A3016 -190 93 900 000/00 RMK AO2 T02440233
53915KARA ARA20160823052510308/23/16 05:25:31  5-MIN KARA 231125Z 00000KT 10SM CLR 24/23 A3016 -190 93 900 000/00 RMK AO2 T02440233
53915KARA ARA20160823053010308/23/16 05:30:31  5-MIN KARA 231130Z 00000KT 10SM CLR 24/24 A3016 -190 97 900 000/00 RMK AO2 T02440239
53915KARA ARA20160823053510308/23/16 05:35:31  5-MIN KARA 231135Z 00000KT 10SM CLR 24/23 A3016 -190 97 800 000/00 RMK AO2 T02390233
53915KARA ARA20160823054010308/23/16 05:40:31  5-MIN KARA 231140Z 00000KT 10SM CLR 24/23 A3016 -190 97 800 000/00 RMK AO2 T02390233
53915KARA ARA20160823054510308/23/16 05:45:31  5-MIN KARA 231145Z 00000KT 10SM CLR 24/23 A3016 -190 97 800 000/00 RMK AO2 T02390233
53915KARA ARA20160823055013408/23/16 05:50:31  5-MIN KARA 231150Z 00000KT 10SM CLR 24/23 A3017 -200 97 800 000/00 RMK AO2 SLP214 70071 T02390233 10256 20239 55004
53915KARA ARA20160823055510308/23/16 05:55:31  5-MIN KARA 231155Z 00000KT 10SM CLR 24/23 A3017 -200 97 800 000/00 RMK AO2 T02390233
53915KARA ARA20160823060010308/23/16 06:00:31  5-MIN KARA 231200Z 00000KT 10SM CLR 24/23 A3017 -200 97 800 000/00 RMK AO2 T02390233
53915KARA ARA20160823060510308/23/16 06:05:31  5-MIN KARA 231205Z 00000KT 10SM CLR 24/23 A3017 -200 97 800 000/00 RMK AO2 T02390233
53915KARA ARA20160823061010308/23/16 06:10:31  5-MIN KARA 231210Z 00000KT 10SM CLR 24/23 A3017 -200 93 900 000/00 RMK AO2 T02440233
53915KARA ARA20160823061510308/23/16 06:15:31  5-MIN KARA 231215Z 00000KT 10SM CLR 24/24 A3017 -200 97 900 000/00 RMK AO2 T02440239
53915KARA ARA20160823062010308/23/16 06:20:31  5-MIN KARA 231220Z 00000KT 10SM CLR 25/24 A3018 -200 93 900 000/00 RMK AO2 T02500239
53915KARA ARA20160823062510408/23/16 06:25:31  5-MIN KARA 231225Z 00000KT 10SM CLR 26/24 A3018 -210 93 1000 000/00 RMK AO2 T02560244
53915KARA ARA20160823063010408/23/16 06:30:31  5-MIN KARA 231230Z 00000KT 10SM CLR 26/24 A3018 -210 93 1000 000/00 RMK AO2 T02560244
53915KARA ARA20160823063510408/23/16 06:35:31  5-MIN KARA 231235Z 00000KT 10SM CLR 26/24 A3018 -210 93 1000 000/00 RMK AO2 T02560244
53915KARA ARA20160823064010408/23/16 06:40:31  5-MIN KARA 231240Z 00000KT 10SM CLR 26/25 A3019 -210 97 1000 000/00 RMK AO2 T02560250
53915KARA ARA20160823064510408/23/16 06:45:31  5-MIN KARA 231245Z 00000KT 10SM CLR 26/25 A3019 -210 93 1100 000/00 RMK AO2 T02610250
53915KARA ARA20160823065011008/23/16 06:50:31  5-MIN KARA 231250Z 00000KT 9SM CLR 26/26 A3019 -210 97 1100 000/00 RMK AO2 SLP221 T02610256
53915KARA ARA20160823065510408/23/16 06:55:31  5-MIN KARA 231255Z 00000KT 10SM CLR 27/26 A3019 -210 93 1100 000/00 RMK AO2 T02670256
53915KARA ARA20160823070010408/23/16 07:00:31  5-MIN KARA 231300Z 00000KT 10SM CLR 27/26 A3019 -210 90 1200 000/00 RMK AO2 T02720256
53915KARA ARA20160823070510408/23/16 07:05:31  5-MIN KARA 231305Z 09003KT 10SM CLR 27/26 A3019 -210 90 1200 090/03 RMK AO2 T02720256
53915KARA ARA20160823071010408/23/16 07:10:31  5-MIN KARA 231310Z 00000KT 10SM CLR 27/26 A3019 -220 90 1200 000/00 RMK AO2 T02720256
53915KARA ARA20160823071510408/23/16 07:15:31  5-MIN KARA 231315Z 09003KT 10SM CLR 27/25 A3019 -220 87 1200 090/03 RMK AO2 T02720250
53915KARA ARA20160823072010408/23/16 07:20:31  5-MIN KARA 231320Z 10003KT 10SM CLR 27/26 A3019 -220 90 1200 100/03 RMK AO2 T02720256
53915KARA ARA20160823072510408/23/16 07:25:31  5-MIN KARA 231325Z 10003KT 10SM CLR 28/26 A3019 -220 87 1200 100/03 RMK AO2 T02780256
53915KARA ARA20160823073010408/23/16 07:30:31  5-MIN KARA 231330Z 10004KT 10SM CLR 28/25 A3020 -220 84 1200 100/04 RMK AO2 T02780250
53915KARA ARA20160823073510408/23/16 07:35:31  5-MIN KARA 231335Z 08004KT 10SM CLR 28/26 A3020 -220 87 1200 080/04 RMK AO2 T02780256
53915KARA ARA20160823074010408/23/16 07:40:31  5-MIN KARA 231340Z 11005KT 10SM CLR 28/26 A3020 -220 85 1300 110/05 RMK AO2 T02830256
53915KARA ARA20160823074510408/23/16 07:45:31  5-MIN KARA 231345Z 09004KT 10SM CLR 28/26 A3020 -220 85 1300 090/04 RMK AO2 T02830256
53915KARA ARA20160823075011108/23/16 07:50:31  5-MIN KARA 231350Z 09004KT 10SM CLR 28/25 A3020 -230 82 1300 090/04 RMK AO2 SLP225 T02830250
53915KARA ARA20160823075510408/23/16 07:55:31  5-MIN KARA 231355Z 08004KT 10SM CLR 29/25 A3020 -230 79 1400 080/04 RMK AO2 T02890250
53915KARA ARA20160823080010408/23/16 08:00:31  5-MIN KARA 231400Z 08003KT 10SM CLR 29/25 A3020 -230 79 1400 080/03 RMK AO2 T02890250
53915KARA ARA20160823080510408/23/16 08:05:31  5-MIN KARA 231405Z 09003KT 10SM CLR 29/25 A3020 -230 76 1400 090/03 RMK AO2 T02940250
53915KARA ARA20160823081010408/23/16 08:10:31  5-MIN KARA 231410Z VRB03KT 10SM CLR 29/26 A3020 -230 79 1400 VRB/03 RMK AO2 T02940256
53915KARA ARA20160823081510408/23/16 08:15:31  5-MIN KARA 231415Z 00000KT 10SM CLR 30/25 A3021 -230 74 1500 000/00 RMK AO2 T03000250
53915KARA ARA20160823082010408/23/16 08:20:31  5-MIN KARA 231420Z 04004KT 10SM CLR 30/26 A3020 -230 77 1500 040/04 RMK AO2 T03000256
53915KARA ARA20160823082510408/23/16 08:25:31  5-MIN KARA 231425Z VRB04KT 10SM CLR 30/26 A3021 -230 77 1500 VRB/04 RMK AO2 T03000256
53915KARA ARA20160823083010408/23/16 08:30:31  5-MIN KARA 231430Z 07004KT 10SM CLR 29/26 A3021 -230 79 1400 070/04 RMK AO2 T02940256
53915KARA ARA20160823083510408/23/16 08:35:31  5-MIN KARA 231435Z 03004KT 10SM CLR 30/26 A3021 -230 77 1500 030/04 RMK AO2 T03000256
53915KARA ARA20160823084010408/23/16 08:40:31  5-MIN KARA 231440Z 06004KT 10SM CLR 31/26 A3021 -230 74 1500 060/04 RMK AO2 T03060256
53915KARA ARA20160823084510408/23/16 08:45:31  5-MIN KARA 231445Z 06003KT 10SM CLR 31/26 A3021 -240 74 1500 060/03 RMK AO2 T03060256
53915KARA ARA20160823085011708/23/16 08:50:31  5-MIN KARA 231450Z 10003KT 10SM CLR 31/26 A3021 -240 74 1500 100/03 RMK AO2 SLP230 T03060256 53012
53915KARA ARA20160823085510708/23/16 08:55:31  5-MIN KARA 231455Z 07003KT 10SM FEW017 31/26 A3021 -240 74 1500 070/03 RMK AO2 T03060256
53915KARA ARA20160823090010708/23/16 09:00:31  5-MIN KARA 231500Z 00000KT 10SM FEW017 31/25 A3021 -240 72 1500 000/00 RMK AO2 T03060250
53915KARA ARA20160823090510708/23/16 09:05:31  5-MIN KARA 231505Z 08005KT 10SM SCT019 31/26 A3021 -240 72 1600 080/05 RMK AO2 T03110256
53915KARA ARA20160823091010708/23/16 09:10:31  5-MIN KARA 231510Z 16004KT 10SM SCT019 30/25 A3022 -240 74 1500 160/04 RMK AO2 T03000250
53915KARA ARA20160823091510708/23/16 09:15:31  5-MIN KARA 231515Z 09003KT 10SM BKN019 31/26 A3022 -240 74 1500 090/03 RMK AO2 T03060256
53915KARA ARA20160823092010708/23/16 09:20:31  5-MIN KARA 231520Z 17004KT 10SM BKN021 30/25 A3022 -240 74 1500 160/04 RMK AO2 T03000250
53915KARA ARA20160823092510708/23/16 09:25:31  5-MIN KARA 231525Z 14004KT 10SM BKN021 31/25 A3022 -240 72 1500 140/04 RMK AO2 T03060250
53915KARA ARA20160823093010708/23/16 09:30:31  5-MIN KARA 231530Z 13003KT 10SM BKN022 31/25 A3022 -240 72 1500 130/03 RMK AO2 T03060250
53915KARA ARA20160823093510708/23/16 09:35:31  5-MIN KARA 231535Z 00000KT 10SM SCT022 30/24 A3022 -240 72 1500 000/00 RMK AO2 T03000244
53915KARA ARA20160823094011408/23/16 09:40:31  5-MIN KARA 231540Z 14003KT 10SM SCT022 SCT029 31/24 A3022 -240 69 1500 140/03 RMK AO2 T03060244
53915KARA ARA20160823094511408/23/16 09:45:31  5-MIN KARA 231545Z 09006KT 10SM SCT024 SCT030 31/25 A3022 -240 69 1600 090/06 RMK AO2 T03110250
53915KARA ARA20160823095011408/23/16 09:50:31  5-MIN KARA 231550Z VRB04KT 10SM SCT027 32/25 A3022 -240 67 1600 VRB/04 RMK AO2 SLP231 T03170250
53915KARA ARA20160823095510708/23/16 09:55:31  5-MIN KARA 231555Z VRB03KT 10SM FEW027 32/25 A3022 -240 67 1600 VRB/03 RMK AO2 T03170250
53915KARA ARA20160823100010708/23/16 10:00:31  5-MIN KARA 231600Z 12005KT 10SM FEW027 32/24 A3022 -240 63 1600 120/05 RMK AO2 T03170239
53915KARA ARA20160823100510708/23/16 10:05:31  5-MIN KARA 231605Z 00000KT 10SM FEW027 32/24 A3022 -240 63 1600 000/00 RMK AO2 T03170239
53915KARA ARA20160823101010708/23/16 10:10:31  5-MIN KARA 231610Z 06004KT 10SM FEW028 32/24 A3021 -240 63 1600 060/04 RMK AO2 T03170239
53915KARA ARA20160823101510408/23/16 10:15:31  5-MIN KARA 231615Z 08005KT 10SM CLR 32/24 A3021 -240 63 1700 080/05 RMK AO2 T03220244
53915KARA ARA20160823102010408/23/16 10:20:31  5-MIN KARA 231620Z 00000KT 10SM CLR 32/24 A3021 -240 63 1700 000/00 RMK AO2 T03220244
53915KARA ARA20160823102510708/23/16 10:25:31  5-MIN KARA 231625Z VRB03KT 10SM FEW030 32/24 A3021 -240 61 1700 VRB/03 RMK AO2 T03220239
53915KARA ARA20160823103010708/23/16 10:30:31  5-MIN KARA 231630Z 00000KT 10SM FEW030 32/24 A3021 -240 61 1700 000/00 RMK AO2 T03220239
53915KARA ARA20160823103510708/23/16 10:35:31  5-MIN KARA 231635Z 15003KT 10SM FEW030 32/24 A3021 -240 61 1700 150/03 RMK AO2 T03220239
53915KARA ARA20160823104010708/23/16 10:40:31  5-MIN KARA 231640Z VRB03KT 10SM FEW030 32/24 A3021 -240 65 1600 VRB/03 RMK AO2 T03170244
53915KARA ARA20160823104510708/23/16 10:45:31  5-MIN KARA 231645Z 00000KT 10SM FEW030 32/24 A3021 -240 61 1700 000/00 RMK AO2 T03220239
53915KARA ARA20160823105012108/23/16 10:50:31  5-MIN KARA 231650Z 00000KT 10SM FEW030 FEW040 32/24 A3021 -240 61 1700 000/00 RMK AO2 SLP230 T03220239
53915KARA ARA20160823105511408/23/16 10:55:31  5-MIN KARA 231655Z 00000KT 10SM FEW034 SCT042 33/24 A3021 -240 59 1800 000/00 RMK AO2 T03330244
53915KARA ARA20160823110010708/23/16 11:00:31  5-MIN KARA 231700Z 00000KT 10SM SCT034 33/24 A3021 -240 59 1800 000/00 RMK AO2 T03280239
53915KARA ARA20160823110509708/23/16 11:05:31  5-MIN KARA 231705Z 10SM SCT034 33/24 A3021 -230 61 1800 M /M RMK AO2 T03280244
53915KARA ARA20160823111011408/23/16 11:10:31  5-MIN KARA 231710Z 11004KT 10SM FEW034 SCT042 32/23 A3021 -230 59 1700 110/04 RMK AO2 T03220233
53915KARA ARA20160823111511408/23/16 11:15:31  5-MIN KARA 231715Z VRB04KT 10SM SCT036 BKN042 33/23 A3020 -230 57 1800 VRB/04 RMK AO2 T03280233
53915KARA ARA20160823112011408/23/16 11:20:31  5-MIN KARA 231720Z 08004KT 10SM SCT037 BKN044 33/23 A3020 -230 55 1800 080/04 RMK AO2 T03330233
53915KARA ARA20160823112510708/23/16 11:25:31  5-MIN KARA 231725Z 08003KT 10SM SCT039 33/23 A3020 -230 57 1800 080/03 RMK AO2 T03280233
53915KARA ARA20160823113010708/23/16 11:30:31  5-MIN KARA 231730Z 10003KT 10SM FEW039 32/23 A3020 -230 59 1700 100/03 RMK AO2 T03220233
53915KARA ARA20160823113511408/23/16 11:35:31  5-MIN KARA 231735Z 00000KT 10SM FEW039 SCT055 33/23 A3020 -220 57 1800 000/00 RMK AO2 T03280233
53915KARA ARA20160823114011408/23/16 11:40:31  5-MIN KARA 231740Z 00000KT 10SM FEW041 SCT050 33/23 A3020 -220 57 1800 000/00 RMK AO2 T03280233
53915KARA ARA20160823114511408/23/16 11:45:31  5-MIN KARA 231745Z 00000KT 10SM FEW041 SCT050 33/23 A3020 -220 57 1800 000/00 RMK AO2 T03280233
53915KARA ARA20160823115013908/23/16 11:50:31  5-MIN KARA 231750Z 00000KT 10SM SCT041 BKN050 33/23 A3020 -220 57 1800 000/00 RMK AO2 SLP224 T03280233 10333 20239 51015
53915KARA ARA20160823115511408/23/16 11:55:31  5-MIN KARA 231755Z 00000KT 10SM BKN041 BKN050 33/23 A3019 -220 55 1800 000/00 RMK AO2 T03280228
53915KARA ARA20160823120010708/23/16 12:00:31  5-MIN KARA 231800Z 00000KT 10SM BKN041 33/24 A3019 -220 57 1900 000/00 RMK AO2 T03330239
53915KARA ARA20160823120510708/23/16 12:05:31  5-MIN KARA 231805Z 20003KT 10SM BKN043 33/24 A3019 -220 59 1800 200/03 RMK AO2 T03280239
53915KARA ARA20160823121011408/23/16 12:10:31  5-MIN KARA 231810Z 01004KT 10SM SCT043 BKN055 34/24 A3019 -220 55 1900 010/04 RMK AO2 T03390239
53915KARA ARA20160823121511408/23/16 12:15:31  5-MIN KARA 231815Z 00000KT 10SM BKN043 BKN055 33/24 A3019 -210 57 1900 000/00 RMK AO2 T03330239
53915KARA ARA20160823122011408/23/16 12:20:31  5-MIN KARA 231820Z VRB03KT 10SM SCT044 BKN055 33/24 A3019 -210 59 1900 VRB/03 RMK AO2 T03330244
53915KARA ARA20160823122511408/23/16 12:25:31  5-MIN KARA 231825Z VRB03KT 10SM FEW044 BKN055 33/23 A3018 -210 53 1900 VRB/03 RMK AO2 T03330228
53915KARA ARA20160823123011408/23/16 12:30:31  5-MIN KARA 231830Z 15004KT 10SM FEW044 BKN055 34/23 A3018 -210 53 1900 150/04 RMK AO2 T03390233
53915KARA ARA20160823123511408/23/16 12:35:31  5-MIN KARA 231835Z 15004KT 10SM FEW044 SCT055 33/23 A3018 -210 57 1800 150/04 RMK AO2 T03280233
53915KARA ARA20160823124011408/23/16 12:40:31  5-MIN KARA 231840Z 00000KT 10SM FEW042 SCT050 32/23 A3018 -210 59 1700 000/00 RMK AO2 T03220233
53915KARA ARA20160823124512108/23/16 12:45:31  5-MIN KARA 231845Z 00000KT 10SM FEW042 SCT055 SCT075 32/24 A3018 -210 61 1800 000/00 RMK AO2 T03220239
53915KARA ARA20160823125012808/23/16 12:50:31  5-MIN KARA 231850Z 00000KT 10SM FEW042 FEW055 FEW075 33/23 A3018 -200 55 1900 000/00 RMK AO2 SLP217 T03330233
53915KARA ARA20160823125510708/23/16 12:55:31  5-MIN KARA 231855Z 18004KT 10SM FEW042 33/24 A3017 -200 57 1900 170/04 RMK AO2 T03330239
53915KARA ARA20160823130010708/23/16 13:00:31  5-MIN KARA 231900Z 19005KT 10SM SCT042 32/24 A3017 -200 61 1800 180/05 RMK AO2 T03220239
53915KARA ARA20160823130512108/23/16 13:05:31  5-MIN KARA 231905Z 20003KT 10SM SCT042 SCT050 BKN055 32/24 A3017 -200 63 1700 200/03 RMK AO2 T03170239
53915KARA ARA20160823131012108/23/16 13:10:31  5-MIN KARA 231910Z 25003KT 10SM SCT044 BKN055 BKN070 32/24 A3017 -200 61 1800 250/03 RMK AO2 T03220239
53915KARA ARA20160823131511408/23/16 13:15:31  5-MIN KARA 231915Z 00000KT 10SM BKN041 BKN060 32/23 A3017 -200 59 1800 000/00 RMK AO2 T03220233
53915KARA ARA20160823132012108/23/16 13:20:31  5-MIN KARA 231920Z 00000KT 10SM BKN039 BKN045 BKN055 33/24 A3017 -200 59 1800 000/00 RMK AO2 T03280239
53915KARA ARA20160823132511408/23/16 13:25:31  5-MIN KARA 231925Z 00000KT 10SM BKN039 OVC060 33/24 A3016 -190 59 1800 000/00 RMK AO2 T03280239
53915KARA ARA20160823133012108/23/16 13:30:31  5-MIN KARA 231930Z VRB03KT 10SM BKN039 BKN046 OVC085 33/24 A3016 -190 59 1800 VRB/03 RMK AO2 T03280239
53915KARA ARA20160823133512108/23/16 13:35:31  5-MIN KARA 231935Z 00000KT 10SM BKN040 BKN055 OVC085 33/24 A3016 -190 59 1800 000/00 RMK AO2 T03280239
53915KARA ARA20160823134013708/23/16 13:40:31  5-MIN KARA 231940Z 33005KT 10SM -RA BKN040 BKN050 OVC085 32/24 A3016 -190 63 1800 330/05 RMK AO2 RAB37 P0000 T03220244
53915KARA ARA20160823134514108/23/16 13:45:31  5-MIN KARA 231945Z AUTO 31006KT 10SM BKN040 BKN050 OVC085 32/24 A3016 -190 65 1700 310/06 RMK AO2 RAB37E44 P0000 T03170244
53915KARA ARA20160823135014908/23/16 13:50:31  5-MIN KARA 231950Z AUTO 30003KT 10SM -RA BKN040 BKN050 OVC085 31/25 A3016 -190 69 1600 300/03 RMK AO2 RAB37 SLP212 P0000 T03110250
53915KARA ARA20160823135512908/23/16 13:55:31  5-MIN KARA 231955Z AUTO 33007KT 10SM -RA BKN042 OVC050 32/26 A3016 -190 69 1700 320/07 RMK AO2 P0000 T03170256
53915KARA ARA20160823140012208/23/16 14:00:31  5-MIN KARA 232000Z AUTO 33008KT 10SM -RA OVC042 32/25 A3016 -190 65 1800 330/08 RMK AO2 P0000 T03220250
53915KARA ARA20160823140512908/23/16 14:05:31  5-MIN KARA 232005Z AUTO 08006KT 10SM -RA BKN040 OVC055 31/25 A3016 -190 72 1600 080/06 RMK AO2 P0000 T03060250
53915KARA ARA20160823141014008/23/16 14:10:31  5-MIN KARA 232010Z AUTO 10009G15KT 7SM RA BKN042 BKN049 OVC055 29/24 A3016 -190 74 1500 100/09G15 RMK AO2 P0002 T02940244
53915KARA ARA20160823141513408/23/16 14:15:31  5-MIN KARA 232015Z AUTO 09011KT 5SM RA SCT039 BKN046 OVC080 29/24 A3016 -190 74 1400 090/11 RMK AO2 P0004 T02890239
53915KARA ARA20160823142014008/23/16 14:20:31  5-MIN KARA 232020Z AUTO 07014G17KT 4SM RA FEW039 BKN060 OVC075 28/23 A3016 -190 76 1300 070/14G17 RMK AO2 P0006 T02780233
53915KARA ARA20160823142514008/23/16 14:25:31  5-MIN KARA 232025Z AUTO 05008G17KT 4SM RA FEW042 BKN060 OVC075 28/24 A3016 -190 76 1300 050/08G17 RMK AO2 P0007 T02830239
53915KARA ARA20160823143013508/23/16 14:30:31  5-MIN KARA 232030Z AUTO 06005KT 6SM -RA FEW048 BKN060 OVC100 29/24 A3015 -180 76 1400 060/05 RMK AO2 P0007 T02890244
53915KARA ARA20160823143513508/23/16 14:35:31  5-MIN KARA 232035Z AUTO VRB04KT 9SM -RA FEW048 BKN070 OVC090 30/24 A3015 -180 72 1500 VRB/04 RMK AO2 P0007 T03000244
53915KARA ARA20160823144013408/23/16 14:40:31  5-MIN KARA 232040Z AUTO 32005KT 7SM RA FEW035 BKN049 OVC090 31/24 A3014 -180 69 1600 310/05 RMK AO2 P0008 T03060244
53915KARA ARA20160823144513508/23/16 14:45:31  5-MIN KARA 232045Z AUTO 33004KT 7SM -RA FEW035 BKN043 OVC090 31/25 A3014 -170 69 1700 330/04 RMK AO2 P0008 T03110250
53915KARA ARA20160823145015508/23/16 14:50:31  5-MIN KARA 232050Z AUTO 32004KT 10SM -RA FEW034 SCT041 BKN070 32/25 A3014 -170 67 1700 320/04 RMK AO2 SLP204 P0008 60008 T03170250 58006
53915KARA ARA20160823145512608/23/16 14:55:31  5-MIN KARA 232055Z AUTO 00000KT 10SM FEW038 SCT070 SCT090 33/24 A3014 -170 61 1900 000/00 RMK AO2 T03280244
53915KARA ARA20160823150011908/23/16 15:00:31  5-MIN KARA 232100Z AUTO 29003KT 10SM FEW038 SCT080 33/24 A3013 -170 59 1900 290/03 RMK AO2 T03280239
53915KARA ARA20160823150511208/23/16 15:05:31  5-MIN KARA 232105Z AUTO 00000KT 10SM FEW033 33/24 A3013 -160 59 1900 000/00 RMK AO2 T03280239
53915KARA ARA20160823151010908/23/16 15:10:31  5-MIN KARA 232110Z AUTO 24003KT 10SM CLR 33/23 A3013 -160 57 1900 240/03 RMK AO2 T03280233
53915KARA ARA20160823151510908/23/16 15:15:31  5-MIN KARA 232115Z AUTO 00000KT 10SM CLR 33/24 A3013 -160 59 1900 000/00 RMK AO2 T03280239
53915KARA ARA20160823152009908/23/16 15:20:31  5-MIN KARA 232120Z AUTO 10SM CLR 33/23 A3013 -160 57 1900 M /M RMK AO2 T03280233
53915KARA ARA20160823152510908/23/16 15:25:31  5-MIN KARA 232125Z AUTO 20006KT 10SM CLR 33/23 A3013 -160 55 1900 200/06 RMK AO2 T03280228
53915KARA ARA20160823153010908/23/16 15:30:31  5-MIN KARA 232130Z AUTO 00000KT 10SM CLR 33/23 A3013 -160 53 1900 000/00 RMK AO2 T03330228
53915KARA ARA20160823153510908/23/16 15:35:31  5-MIN KARA 232135Z AUTO 20005KT 10SM CLR 33/23 A3012 -160 53 1900 200/05 RMK AO2 T03330228
53915KARA ARA20160823154010908/23/16 15:40:31  5-MIN KARA 232140Z AUTO 17005KT 10SM CLR 33/23 A3012 -160 53 1900 170/05 RMK AO2 T03330228
53915KARA ARA20160823154510908/23/16 15:45:31  5-MIN KARA 232145Z AUTO 23003KT 10SM CLR 33/22 A3012 -160 51 1900 230/03 RMK AO2 T03330222
53915KARA ARA20160823155011608/23/16 15:50:31  5-MIN KARA 232150Z AUTO 18005KT 10SM CLR 33/22 A3012 -160 51 1900 180/05 RMK AO2 SLP199 T03330222
53915KARA ARA20160823155510908/23/16 15:55:31  5-MIN KARA 232155Z AUTO 20003KT 10SM CLR 33/22 A3012 -160 51 1900 200/03 RMK AO2 T03330222
53915KARA ARA20160823160010908/23/16 16:00:31  5-MIN KARA 232200Z AUTO 20004KT 10SM CLR 33/22 A3012 -160 50 1900 200/04 RMK AO2 T03330217
53915KARA ARA20160823160510908/23/16 16:05:31  5-MIN KARA 232205Z AUTO 21007KT 10SM CLR 33/22 A3012 -150 51 1900 210/07 RMK AO2 T03330222
53915KARA ARA20160823161010908/23/16 16:10:31  5-MIN KARA 232210Z AUTO 19005KT 10SM CLR 33/22 A3012 -160 50 1900 190/05 RMK AO2 T03330217
53915KARA ARA20160823161510908/23/16 16:15:31  5-MIN KARA 232215Z AUTO 22004KT 10SM CLR 33/22 A3012 -150 51 1900 220/04 RMK AO2 T03330222
53915KARA ARA20160823162010908/23/16 16:20:31  5-MIN KARA 232220Z AUTO 22006KT 10SM CLR 33/23 A3012 -150 53 1900 220/06 RMK AO2 T03330228
53915KARA ARA20160823162510908/23/16 16:25:31  5-MIN KARA 232225Z AUTO 19004KT 10SM CLR 33/22 A3012 -150 53 1900 190/04 RMK AO2 T03280222
53915KARA ARA20160823163010908/23/16 16:30:31  5-MIN KARA 232230Z AUTO 19006KT 10SM CLR 33/23 A3012 -150 55 1900 190/06 RMK AO2 T03280228
53915KARA ARA20160823163510908/23/16 16:35:31  5-MIN KARA 232235Z AUTO 21006KT 10SM CLR 33/23 A3012 -150 55 1900 210/06 RMK AO2 T03280228
53915KARA ARA20160823164010908/23/16 16:40:31  5-MIN KARA 232240Z AUTO 21006KT 10SM CLR 33/23 A3012 -150 57 1900 210/06 RMK AO2 T03280233
53915KARA ARA20160823164510908/23/16 16:45:31  5-MIN KARA 232245Z AUTO 21006KT 10SM CLR 33/23 A3012 -150 57 1900 210/06 RMK AO2 T03280233
53915KARA ARA20160823165011608/23/16 16:50:31  5-MIN KARA 232250Z AUTO 21004KT 10SM CLR 32/23 A3012 -150 59 1800 210/04 RMK AO2 SLP199 T03220233
53915KARA ARA20160823165510908/23/16 16:55:31  5-MIN KARA 232255Z AUTO 22006KT 10SM CLR 32/23 A3012 -150 59 1800 210/06 RMK AO2 T03220233
53915KARA ARA20160823170010908/23/16 17:00:31  5-MIN KARA 232300Z AUTO 21007KT 10SM CLR 32/23 A3012 -150 59 1800 210/07 RMK AO2 T03220233
53915KARA ARA20160823170510908/23/16 17:05:31  5-MIN KARA 232305Z AUTO 20008KT 10SM CLR 32/23 A3012 -150 59 1800 200/08 RMK AO2 T03220233
53915KARA ARA20160823171010908/23/16 17:10:31  5-MIN KARA 232310Z AUTO 19006KT 10SM CLR 32/23 A3012 -160 57 1800 190/06 RMK AO2 T03220228
53915KARA ARA20160823171510908/23/16 17:15:31  5-MIN KARA 232315Z AUTO 21007KT 10SM CLR 32/23 A3012 -150 61 1800 210/07 RMK AO2 T03170233
53915KARA ARA20160823172010908/23/16 17:20:31  5-MIN KARA 232320Z AUTO 21008KT 10SM CLR 32/23 A3012 -150 61 1800 210/08 RMK AO2 T03170233
53915KARA ARA20160823172510908/23/16 17:25:31  5-MIN KARA 232325Z AUTO 20007KT 10SM CLR 32/23 A3012 -150 61 1800 200/07 RMK AO2 T03170233
53915KARA ARA20160823173010908/23/16 17:30:31  5-MIN KARA 232330Z AUTO 20006KT 10SM CLR 32/23 A3012 -150 58 1800 200/06 RMK AO2 T03170228
53915KARA ARA20160823173510908/23/16 17:35:31  5-MIN KARA 232335Z AUTO 21005KT 10SM CLR 32/23 A3012 -150 61 1800 210/05 RMK AO2 T03170233
53915KARA ARA20160823174010908/23/16 17:40:31  5-MIN KARA 232340Z AUTO 21005KT 10SM CLR 32/23 A3012 -150 61 1800 210/05 RMK AO2 T03170233
53915KARA ARA20160823174510908/23/16 17:45:31  5-MIN KARA 232345Z AUTO 21005KT 10SM CLR 31/23 A3012 -150 63 1700 210/05 RMK AO2 T03110233
53915KARA ARA20160823175014008/23/16 17:50:31  5-MIN KARA 232350Z AUTO 19005KT 10SM CLR 31/24 A3012 -150 65 1700 190/05 RMK AO2 SLP199 60008 T03110239 10339 20278 58019
53915KARA ARA20160823175510908/23/16 17:55:31  5-MIN KARA 232355Z AUTO 20005KT 10SM CLR 31/24 A3012 -160 67 1600 200/05 RMK AO2 T03060239
53915KARA ARA20160823180010908/23/16 18:00:31  5-MIN KARA 240000Z AUTO 19005KT 10SM CLR 31/24 A3012 -160 67 1600 190/05 RMK AO2 T03060239
53915KARA ARA20160823180510908/23/16 18:05:31  5-MIN KARA 240005Z AUTO 20005KT 10SM CLR 31/24 A3012 -150 67 1600 200/05 RMK AO2 T03060239
53915KARA ARA20160823181012008/23/16 18:10:31  5-MIN KARA 240010Z AUTO 20003KT 10SM CLR 30/24 A3012 -160 69 1600 200/03 RMK AO2 LTG DSNT E T03000239
53915KARA ARA20160823181512008/23/16 18:15:31  5-MIN KARA 240015Z AUTO 21003KT 10SM CLR 30/24 A3012 -160 72 1600 210/03 RMK AO2 LTG DSNT E T03000244
53915KARA ARA20160823182012008/23/16 18:20:31  5-MIN KARA 240020Z AUTO 21003KT 10SM CLR 29/24 A3012 -160 74 1500 200/03 RMK AO2 LTG DSNT E T02940244
53915KARA ARA20160823182510908/23/16 18:25:31  5-MIN KARA 240025Z AUTO 20003KT 10SM CLR 29/24 A3013 -160 74 1500 200/03 RMK AO2 T02940244
53915KARA ARA20160823183010908/23/16 18:30:31  5-MIN KARA 240030Z AUTO 20003KT 10SM CLR 29/24 A3013 -160 76 1400 190/03 RMK AO2 T02890244
53915KARA ARA20160823183510908/23/16 18:35:31  5-MIN KARA 240035Z AUTO 20004KT 10SM CLR 29/24 A3013 -160 76 1400 200/04 RMK AO2 T02890244
53915KARA ARA20160823184010908/23/16 18:40:31  5-MIN KARA 240040Z AUTO 20003KT 10SM CLR 28/24 A3013 -160 79 1400 200/03 RMK AO2 T02830244
53915KARA ARA20160823184510908/23/16 18:45:31  5-MIN KARA 240045Z AUTO 20003KT 10SM CLR 28/24 A3013 -160 79 1400 200/03 RMK AO2 T02830244
53915KARA ARA20160823185011608/23/16 18:50:31  5-MIN KARA 240050Z AUTO 21004KT 10SM CLR 28/24 A3013 -160 79 1400 210/04 RMK AO2 SLP202 T02830244
53915KARA ARA20160823185510908/23/16 18:55:31  5-MIN KARA 240055Z AUTO 21003KT 10SM CLR 28/25 A3013 -160 82 1400 210/03 RMK AO2 T02830250
53915KARA ARA20160823190010908/23/16 19:00:31  5-MIN KARA 240100Z AUTO 20003KT 10SM CLR 28/25 A3013 -160 82 1400 200/03 RMK AO2 T02830250
53915KARA ARA20160823190510908/23/16 19:05:31  5-MIN KARA 240105Z AUTO 19004KT 10SM CLR 28/24 A3013 -160 79 1400 190/04 RMK AO2 T02830244
53915KARA ARA20160823191010908/23/16 19:10:31  5-MIN KARA 240110Z AUTO 19004KT 10SM CLR 28/24 A3013 -160 82 1300 190/04 RMK AO2 T02780244
53915KARA ARA20160823191510908/23/16 19:15:31  5-MIN KARA 240115Z AUTO 19004KT 10SM CLR 28/25 A3013 -160 84 1300 190/04 RMK AO2 T02780250
53915KARA ARA20160823192010908/23/16 19:20:31  5-MIN KARA 240120Z AUTO 19005KT 10SM CLR 28/24 A3014 -170 82 1300 190/05 RMK AO2 T02780244
53915KARA ARA20160823192510908/23/16 19:25:31  5-MIN KARA 240125Z AUTO 20005KT 10SM CLR 28/24 A3014 -170 82 1300 190/05 RMK AO2 T02780244
53915KARA ARA20160823193010408/23/16 19:30:31  5-MIN KARA 240130Z 20004KT 10SM CLR 28/24 A3014 -170 82 1300 200/04 RMK AO2 T02780244
53915KARA ARA20160823193510408/23/16 19:35:31  5-MIN KARA 240135Z 20004KT 10SM CLR 28/24 A3014 -170 82 1300 200/04 RMK AO2 T02780244
53915KARA ARA20160823194010408/23/16 19:40:31  5-MIN KARA 240140Z 20004KT 10SM CLR 28/24 A3014 -170 82 1300 190/04 RMK AO2 T02780244
53915KARA ARA20160823194510408/23/16 19:45:31  5-MIN KARA 240145Z 19004KT 10SM CLR 28/24 A3014 -170 82 1300 190/04 RMK AO2 T02780244
53915KARA ARA20160823195011608/23/16 19:50:31  5-MIN KARA 240150Z AUTO 19003KT 10SM CLR 28/24 A3014 -180 82 1300 190/03 RMK AO2 SLP207 T02780244
53915KARA ARA20160823195510908/23/16 19:55:31  5-MIN KARA 240155Z AUTO 00000KT 10SM CLR 27/24 A3015 -180 84 1200 000/00 RMK AO2 T02720244
53915KARA ARA20160823200010908/23/16 20:00:31  5-MIN KARA 240200Z AUTO 00000KT 10SM CLR 27/24 A3015 -180 84 1200 000/00 RMK AO2 T02720244
53915KARA ARA20160823200510908/23/16 20:05:31  5-MIN KARA 240205Z AUTO 19003KT 10SM CLR 27/24 A3015 -180 84 1200 190/03 RMK AO2 T02720244
53915KARA ARA20160823201010908/23/16 20:10:31  5-MIN KARA 240210Z AUTO 20003KT 10SM CLR 27/24 A3015 -180 84 1200 200/03 RMK AO2 T02720244
53915KARA ARA20160823201510908/23/16 20:15:31  5-MIN KARA 240215Z AUTO 20004KT 10SM CLR 27/24 A3015 -180 84 1200 200/04 RMK AO2 T02720244
53915KARA ARA20160823202010908/23/16 20:20:31  5-MIN KARA 240220Z AUTO 20004KT 10SM CLR 27/24 A3015 -180 84 1200 200/04 RMK AO2 T02720244
53915KARA ARA20160823202510908/23/16 20:25:31  5-MIN KARA 240225Z AUTO 20004KT 10SM CLR 27/24 A3015 -180 84 1200 200/04 RMK AO2 T02720244
53915KARA ARA20160823203010908/23/16 20:30:31  5-MIN KARA 240230Z AUTO 20004KT 10SM CLR 27/24 A3015 -180 84 1200 200/04 RMK AO2 T02720244
53915KARA ARA20160823203510908/23/16 20:35:31  5-MIN KARA 240235Z AUTO 00000KT 10SM CLR 27/24 A3015 -180 84 1200 000/00 RMK AO2 T02720244
53915KARA ARA20160823204010908/23/16 20:40:31  5-MIN KARA 240240Z AUTO 00000KT 10SM CLR 27/24 A3015 -180 84 1200 000/00 RMK AO2 T02720244
53915KARA ARA20160823204510908/23/16 20:45:31  5-MIN KARA 240245Z AUTO 00000KT 10SM CLR 27/24 A3015 -180 87 1200 000/00 RMK AO2 T02670244
53915KARA ARA20160823205012208/23/16 20:50:31  5-MIN KARA 240250Z AUTO 22003KT 10SM CLR 27/24 A3015 -180 87 1200 220/03 RMK AO2 SLP209 T02670244 56005
53915KARA ARA20160823205510908/23/16 20:55:31  5-MIN KARA 240255Z AUTO 24004KT 10SM CLR 27/24 A3016 -190 87 1200 240/04 RMK AO2 T02670244
53915KARA ARA20160823210010908/23/16 21:00:31  5-MIN KARA 240300Z AUTO 24003KT 10SM CLR 27/24 A3016 -190 87 1200 240/03 RMK AO2 T02670244
53915KARA ARA20160823210510908/23/16 21:05:31  5-MIN KARA 240305Z AUTO 24004KT 10SM CLR 27/24 A3016 -190 87 1200 240/04 RMK AO2 T02670244
53915KARA ARA20160823211010908/23/16 21:10:31  5-MIN KARA 240310Z AUTO 25003KT 10SM CLR 27/25 A3016 -190 90 1100 250/03 RMK AO2 T02670250
53915KARA ARA20160823211510908/23/16 21:15:31  5-MIN KARA 240315Z AUTO 00000KT 10SM CLR 27/25 A3016 -190 90 1100 000/00 RMK AO2 T02670250
53915KARA ARA20160823212010908/23/16 21:20:31  5-MIN KARA 240320Z AUTO 00000KT 10SM CLR 27/25 A3016 -190 90 1200 000/00 RMK AO2 T02670250
53915KARA ARA20160823212510908/23/16 21:25:31  5-MIN KARA 240325Z AUTO 00000KT 10SM CLR 27/24 A3016 -190 87 1200 000/00 RMK AO2 T02670244
53915KARA ARA20160823213010908/23/16 21:30:31  5-MIN KARA 240330Z AUTO 00000KT 10SM CLR 27/24 A3016 -190 87 1100 000/00 RMK AO2 T02670244
53915KARA ARA20160823213510908/23/16 21:35:31  5-MIN KARA 240335Z AUTO 00000KT 10SM CLR 27/24 A3016 -190 87 1100 000/00 RMK AO2 T02670244
53915KARA ARA20160823214010908/23/16 21:40:31  5-MIN KARA 240340Z AUTO 00000KT 10SM CLR 27/24 A3016 -190 84 1200 000/00 RMK AO2 T02720244
53915KARA ARA20160823214510908/23/16 21:45:31  5-MIN KARA 240345Z AUTO 00000KT 10SM CLR 27/24 A3016 -190 87 1100 000/00 RMK AO2 T02670244
53915KARA ARA20160823215011608/23/16 21:50:31  5-MIN KARA 240350Z AUTO 19003KT 10SM CLR 27/24 A3016 -190 87 1100 190/03 RMK AO2 SLP213 T02670244
53915KARA ARA20160823215510908/23/16 21:55:31  5-MIN KARA 240355Z AUTO 00000KT 10SM CLR 27/24 A3016 -190 87 1100 000/00 RMK AO2 T02670244
53915KARA ARA20160823220010908/23/16 22:00:31  5-MIN KARA 240400Z AUTO 21003KT 10SM CLR 26/25 A3016 -190 93 1100 210/03 RMK AO2 T02610250
53915KARA ARA20160823220510908/23/16 22:05:31  5-MIN KARA 240405Z AUTO 00000KT 10SM CLR 26/25 A3016 -190 93 1100 000/00 RMK AO2 T02610250
53915KARA ARA20160823221010908/23/16 22:10:31  5-MIN KARA 240410Z AUTO 00000KT 10SM CLR 26/25 A3016 -190 93 1100 000/00 RMK AO2 T02610250
53915KARA ARA20160823221510908/23/16 22:15:31  5-MIN KARA 240415Z AUTO 00000KT 10SM CLR 27/25 A3016 -190 90 1100 000/00 RMK AO2 T02670250
53915KARA ARA20160823222010908/23/16 22:20:31  5-MIN KARA 240420Z AUTO 00000KT 10SM CLR 27/24 A3016 -190 87 1100 000/00 RMK AO2 T02670244
53915KARA ARA20160823222510908/23/16 22:25:31  5-MIN KARA 240425Z AUTO 00000KT 10SM CLR 27/24 A3016 -190 87 1100 000/00 RMK AO2 T02670244
53915KARA ARA20160823223010908/23/16 22:30:31  5-MIN KARA 240430Z AUTO 00000KT 10SM CLR 27/24 A3016 -190 87 1100 000/00 RMK AO2 T02670244
53915KARA ARA20160823223510908/23/16 22:35:31  5-MIN KARA 240435Z AUTO 00000KT 10SM CLR 27/25 A3016 -190 90 1100 000/00 RMK AO2 T02670250
53915KARA ARA20160823224010908/23/16 22:40:31  5-MIN KARA 240440Z AUTO 00000KT 10SM CLR 27/25 A3016 -190 90 1100 000/00 RMK AO2 T02670250
53915KARA ARA20160823224510908/23/16 22:45:31  5-MIN KARA 240445Z AUTO 00000KT 10SM CLR 26/25 A3016 -190 93 1100 000/00 RMK AO2 T02610250
53915KARA ARA20160823225011608/23/16 22:50:31  5-MIN KARA 240450Z AUTO 00000KT 10SM CLR 26/25 A3016 -190 93 1100 000/00 RMK AO2 SLP212 T02610250
53915KARA ARA20160823225510908/23/16 22:55:31  5-MIN KARA 240455Z AUTO 00000KT 10SM CLR 26/25 A3016 -190 93 1100 000/00 RMK AO2 T02610250
53915KARA ARA20160823230010908/23/16 23:00:31  5-MIN KARA 240500Z AUTO 00000KT 10SM CLR 26/25 A3016 -190 93 1100 000/00 RMK AO2 T02610250
53915KARA ARA20160823230510908/23/16 23:05:31  5-MIN KARA 240505Z AUTO 00000KT 10SM CLR 26/24 A3016 -190 90 1100 000/00 RMK AO2 T02610244
53915KARA ARA20160823231010908/23/16 23:10:31  5-MIN KARA 240510Z AUTO 00000KT 10SM CLR 26/25 A3016 -190 93 1100 000/00 RMK AO2 T02610250
53915KARA ARA20160823231510908/23/16 23:15:31  5-MIN KARA 240515Z AUTO 00000KT 10SM CLR 26/25 A3016 -190 93 1100 000/00 RMK AO2 T02610250
53915KARA ARA20160823232010908/23/16 23:20:31  5-MIN KARA 240520Z AUTO 00000KT 10SM CLR 27/25 A3016 -190 90 1100 000/00 RMK AO2 T02670250
53915KARA ARA20160823232510908/23/16 23:25:31  5-MIN KARA 240525Z AUTO 00000KT 10SM CLR 27/25 A3016 -190 90 1100 000/00 RMK AO2 T02670250
53915KARA ARA20160823233010908/23/16 23:30:31  5-MIN KARA 240530Z AUTO 00000KT 10SM CLR 27/25 A3016 -190 90 1100 000/00 RMK AO2 T02670250
53915KARA ARA20160823233511208/23/16 23:35:31  5-MIN KARA 240535Z AUTO 00000KT 10SM FEW046 26/25 A3016 -190 93 1100 000/00 RMK AO2 T02610250
53915KARA ARA20160823234011208/23/16 23:40:31  5-MIN KARA 240540Z AUTO 00000KT 10SM SCT046 26/25 A3016 -190 93 1100 000/00 RMK AO2 T02610250
53915KARA ARA20160823234511208/23/16 23:45:31  5-MIN KARA 240545Z AUTO 00000KT 10SM SCT046 26/25 A3016 -190 93 1100 000/00 RMK AO2 T02610250
53915KARA ARA20160823235014708/23/16 23:50:31  5-MIN KARA 240550Z AUTO 00000KT 10SM SCT046 26/25 A3016 -190 93 1100 000/00 RMK AO2 SLP212 T02610250 10306 20261 403390239 51010
53915KARA ARA20160823235511208/23/16 23:55:31  5-MIN KARA 240555Z AUTO 00000KT 10SM FEW046 26/24 A3016 -190 90 1100 000/00 RMK AO2 T02610244
53915KARA ARA20160824000011208/24/16 00:00:31  5-MIN KARA 240600Z AUTO 00000KT 10SM FEW046 26/24 A3016 -190 90 1100 000/00 RMK AO2 T02610244
53915KARA ARA20160824000511208/24/16 00:05:31  5-MIN KARA 240605Z AUTO 00000KT 10SM FEW046 26/24 A3016 -190 90 1100 000/00 RMK AO2 T02610244
53915KARA ARA20160824001011208/24/16 00:10:31  5-MIN KARA 240610Z AUTO 00000KT 10SM FEW048 26/24 A3016 -190 90 1100 000/00 RMK AO2 T02610244
53915KARA ARA20160824001510908/24/16 00:15:31  5-MIN KARA 240615Z AUTO 00000KT 10SM CLR 26/24 A3016 -190 93 1000 000/00 RMK AO2 T02560244
53915KARA ARA20160824002010908/24/16 00:20:31  5-MIN KARA 240620Z AUTO 00000KT 10SM CLR 26/25 A3016 -190 93 1100 000/00 RMK AO2 T02610250
53915KARA ARA20160824002510908/24/16 00:25:31  5-MIN KARA 240625Z AUTO 00000KT 10SM CLR 26/24 A3016 -190 93 1000 000/00 RMK AO2 T02560244
53915KARA ARA20160824003010908/24/16 00:30:31  5-MIN KARA 240630Z AUTO 00000KT 10SM CLR 26/24 A3016 -190 93 1000 000/00 RMK AO2 T02560244
53915KARA ARA20160824003510908/24/16 00:35:31  5-MIN KARA 240635Z AUTO 00000KT 10SM CLR 26/25 A3016 -190 93 1100 000/00 RMK AO2 T02610250
53915KARA ARA20160824004010908/24/16 00:40:31  5-MIN KARA 240640Z AUTO 00000KT 10SM CLR 26/25 A3015 -180 93 1100 000/00 RMK AO2 T02610250
53915KARA ARA20160824004510908/24/16 00:45:31  5-MIN KARA 240645Z AUTO 00000KT 10SM CLR 26/24 A3015 -180 93 1000 000/00 RMK AO2 T02560244
53915KARA ARA20160824005011608/24/16 00:50:31  5-MIN KARA 240650Z AUTO 00000KT 10SM CLR 26/25 A3015 -180 93 1100 000/00 RMK AO2 SLP208 T02610250
53915KARA ARA20160824005510908/24/16 00:55:31  5-MIN KARA 240655Z AUTO 00000KT 10SM CLR 26/25 A3015 -180 93 1100 000/00 RMK AO2 T02610250
53915KARA ARA20160824010010908/24/16 01:00:31  5-MIN KARA 240700Z AUTO 00000KT 10SM CLR 26/24 A3015 -180 93 1000 000/00 RMK AO2 T02560244
53915KARA ARA20160824010510908/24/16 01:05:31  5-MIN KARA 240705Z AUTO 35003KT 10SM CLR 26/24 A3015 -180 93 1000 350/03 RMK AO2 T02560244
53915KARA ARA20160824011010908/24/16 01:10:31  5-MIN KARA 240710Z AUTO 34003KT 10SM CLR 26/24 A3015 -180 93 1000 340/03 RMK AO2 T02560244
53915KARA ARA20160824011510908/24/16 01:15:31  5-MIN KARA 240715Z AUTO 00000KT 10SM CLR 26/24 A3014 -180 93 1000 000/00 RMK AO2 T02560244
53915KARA ARA20160824012010908/24/16 01:20:31  5-MIN KARA 240720Z AUTO 00000KT 10SM CLR 26/24 A3014 -180 90 1100 000/00 RMK AO2 T02610244
53915KARA ARA20160824012510908/24/16 01:25:31  5-MIN KARA 240725Z AUTO 00000KT 10SM CLR 26/24 A3014 -170 90 1100 000/00 RMK AO2 T02610244
53915KARA ARA20160824013010908/24/16 01:30:31  5-MIN KARA 240730Z AUTO 00000KT 10SM CLR 26/24 A3014 -180 90 1100 000/00 RMK AO2 T02610244
53915KARA ARA20160824013510908/24/16 01:35:31  5-MIN KARA 240735Z AUTO 00000KT 10SM CLR 26/24 A3014 -170 90 1100 000/00 RMK AO2 T02610244
53915KARA ARA20160824014010908/24/16 01:40:31  5-MIN KARA 240740Z AUTO 00000KT 10SM CLR 26/24 A3014 -170 93 1000 000/00 RMK AO2 T02560244
53915KARA ARA20160824014510908/24/16 01:45:31  5-MIN KARA 240745Z AUTO 34003KT 10SM CLR 26/24 A3014 -170 93 1000 340/03 RMK AO2 T02560244
53915KARA ARA20160824015011608/24/16 01:50:31  5-MIN KARA 240750Z AUTO 34003KT 10SM CLR 26/24 A3014 -170 93 1000 340/03 RMK AO2 SLP206 T02560244
53915KARA ARA20160824015510908/24/16 01:55:31  5-MIN KARA 240755Z AUTO 00000KT 10SM CLR 26/24 A3014 -170 93 1000 000/00 RMK AO2 T02560244
53915KARA ARA20160824020010908/24/16 02:00:31  5-MIN KARA 240800Z AUTO 34003KT 10SM CLR 26/24 A3014 -170 93 1000 340/03 RMK AO2 T02560244
53915KARA ARA20160824020510908/24/16 02:05:31  5-MIN KARA 240805Z AUTO 34003KT 10SM CLR 26/24 A3014 -170 93 1000 340/03 RMK AO2 T02560244
53915KARA ARA20160824021010908/24/16 02:10:31  5-MIN KARA 240810Z AUTO 00000KT 10SM CLR 26/24 A3014 -170 93 1000 000/00 RMK AO2 T02560244
53915KARA ARA20160824021510908/24/16 02:15:31  5-MIN KARA 240815Z AUTO 00000KT 10SM CLR 26/24 A3014 -170 93 1000 000/00 RMK AO2 T02560244
53915KARA ARA20160824022010908/24/16 02:20:31  5-MIN KARA 240820Z AUTO 00000KT 10SM CLR 26/24 A3014 -170 93 1000 000/00 RMK AO2 T02560244
53915KARA ARA20160824022510908/24/16 02:25:31  5-MIN KARA 240825Z AUTO 00000KT 10SM CLR 26/24 A3014 -170 93 1000 000/00 RMK AO2 T02560244
53915KARA ARA20160824023010808/24/16 02:30:31  5-MIN KARA 240830Z AUTO 00000KT 9SM CLR 26/24 A3014 -170 93 1100 000/00 RMK AO2 T02560244
53915KARA ARA20160824023510808/24/16 02:35:31  5-MIN KARA 240835Z AUTO 00000KT 9SM CLR 26/24 A3014 -170 93 1100 000/00 RMK AO2 T02560244
53915KARA ARA20160824024010908/24/16 02:40:31  5-MIN KARA 240840Z AUTO 00000KT 10SM CLR 26/24 A3014 -170 93 1100 000/00 RMK AO2 T02560244
53915KARA ARA20160824024510908/24/16 02:45:31  5-MIN KARA 240845Z AUTO 00000KT 10SM CLR 25/24 A3014 -170 97 1000 000/00 RMK AO2 T02500244
53915KARA ARA20160824025012208/24/16 02:50:31  5-MIN KARA 240850Z AUTO 00000KT 10SM CLR 25/24 A3014 -170 97 1000 000/00 RMK AO2 SLP204 T02500244 51003
53915KARA ARA20160824025510908/24/16 02:55:31  5-MIN KARA 240855Z AUTO 00000KT 10SM CLR 25/24 A3014 -170 97 1000 000/00 RMK AO2 T02500244
53915KARA ARA20160824030010908/24/16 03:00:31  5-MIN KARA 240900Z AUTO 00000KT 10SM CLR 26/24 A3014 -170 93 1100 000/00 RMK AO2 T02560244
53915KARA ARA20160824030510908/24/16 03:05:31  5-MIN KARA 240905Z AUTO 00000KT 10SM CLR 26/24 A3014 -170 93 1100 000/00 RMK AO2 T02560244
53915KARA ARA20160824031010908/24/16 03:10:31  5-MIN KARA 240910Z AUTO 00000KT 10SM CLR 26/24 A3013 -160 93 1100 000/00 RMK AO2 T02560244
53915KARA ARA20160824031510908/24/16 03:15:31  5-MIN KARA 240915Z AUTO 00000KT 10SM CLR 26/24 A3013 -160 93 1100 000/00 RMK AO2 T02560244
53915KARA ARA20160824032010908/24/16 03:20:31  5-MIN KARA 240920Z AUTO 00000KT 10SM CLR 26/24 A3013 -160 93 1100 000/00 RMK AO2 T02560244
53915KARA ARA20160824032510908/24/16 03:25:31  5-MIN KARA 240925Z AUTO 00000KT 10SM CLR 26/24 A3013 -160 93 1100 000/00 RMK AO2 T02560244
53915KARA ARA20160824033010908/24/16 03:30:31  5-MIN KARA 240930Z AUTO 00000KT 10SM CLR 26/24 A3013 -160 93 1100 000/00 RMK AO2 T02560244
53915KARA ARA20160824033510808/24/16 03:35:31  5-MIN KARA 240935Z AUTO 00000KT 9SM CLR 26/24 A3013 -160 93 1100 000/00 RMK AO2 T02560244
53915KARA ARA20160824034010808/24/16 03:40:31  5-MIN KARA 240940Z AUTO 00000KT 9SM CLR 26/24 A3013 -160 93 1100 000/00 RMK AO2 T02560244
53915KARA ARA20160824034510808/24/16 03:45:31  5-MIN KARA 240945Z AUTO 00000KT 9SM CLR 26/24 A3013 -160 93 1100 000/00 RMK AO2 T02560244
53915KARA ARA20160824035011608/24/16 03:50:31  5-MIN KARA 240950Z AUTO 00000KT 10SM CLR 26/24 A3013 -160 93 1100 000/00 RMK AO2 SLP202 T02560244
53915KARA ARA20160824035510908/24/16 03:55:31  5-MIN KARA 240955Z AUTO 00000KT 10SM CLR 26/24 A3013 -160 93 1100 000/00 RMK AO2 T02560244
53915KARA ARA20160824040010908/24/16 04:00:31  5-MIN KARA 241000Z AUTO 00000KT 10SM CLR 26/24 A3013 -160 93 1100 000/00 RMK AO2 T02560244
53915KARA ARA20160824040510908/24/16 04:05:31  5-MIN KARA 241005Z AUTO 00000KT 10SM CLR 26/24 A3013 -160 93 1100 000/00 RMK AO2 T02560244
53915KARA ARA20160824041010908/24/16 04:10:31  5-MIN KARA 241010Z AUTO 00000KT 10SM CLR 25/24 A3013 -160 97 1000 000/00 RMK AO2 T02500244
53915KARA ARA20160824041510808/24/16 04:15:31  5-MIN KARA 241015Z AUTO 00000KT 9SM CLR 25/24 A3013 -170 97 1000 000/00 RMK AO2 T02500244
53915KARA ARA20160824042010808/24/16 04:20:31  5-MIN KARA 241020Z AUTO 00000KT 9SM CLR 25/24 A3013 -170 97 1000 000/00 RMK AO2 T02500244
53915KARA ARA20160824042510808/24/16 04:25:31  5-MIN KARA 241025Z AUTO 00000KT 9SM CLR 25/24 A3013 -160 97 1000 000/00 RMK AO2 T02500244
53915KARA ARA20160824043010808/24/16 04:30:31  5-MIN KARA 241030Z AUTO 00000KT 7SM CLR 25/24 A3013 -170 93 1000 000/00 RMK AO2 T02500239
53915KARA ARA20160824043511108/24/16 04:35:31  5-MIN KARA 241035Z AUTO 00000KT 5SM BR CLR 25/24 A3013 -160 93 1000 000/00 RMK AO2 T02500239
53915KARA ARA20160824044010608/24/16 04:40:31  5-MIN KARA 241040Z 00000KT 4SM BR CLR 25/24 A3013 -170 93 1000 000/00 RMK AO2 T02500239
53915KARA ARA20160824044510608/24/16 04:45:31  5-MIN KARA 241045Z 00000KT 3SM BR CLR 25/24 A3013 -170 93 1000 000/00 RMK AO2 T02500239
53915KARA ARA20160824045011308/24/16 04:50:31  5-MIN KARA 241050Z 00000KT 4SM BR CLR 25/24 A3013 -170 93 1000 000/00 RMK AO2 SLP203 T02500239
53915KARA ARA20160824045510308/24/16 04:55:31  5-MIN KARA 241055Z 00000KT 7SM CLR 25/24 A3014 -170 93 1000 000/00 RMK AO2 T02500239
53915KARA ARA20160824050010308/24/16 05:00:31  5-MIN KARA 241100Z 00000KT 7SM CLR 25/24 A3014 -170 93 1000 000/00 RMK AO2 T02500239
53915KARA ARA20160824050510208/24/16 05:05:31  5-MIN KARA 241105Z 00000KT 7SM CLR 24/24 A3014 -170 97 900 000/00 RMK AO2 T02440239
53915KARA ARA20160824051010208/24/16 05:10:31  5-MIN KARA 241110Z 00000KT 7SM CLR 24/24 A3014 -170 97 900 000/00 RMK AO2 T02440239
53915KARA ARA20160824051510308/24/16 05:15:31  5-MIN KARA 241115Z 00000KT 7SM CLR 25/24 A3013 -170 93 1000 000/00 RMK AO2 T02500239
53915KARA ARA20160824052010208/24/16 05:20:31  5-MIN KARA 241120Z 00000KT 7SM CLR 24/24 A3013 -160 97 900 000/00 RMK AO2 T02440239
53915KARA ARA20160824052510208/24/16 05:25:31  5-MIN KARA 241125Z 00000KT 7SM CLR 24/24 A3013 -160 97 900 000/00 RMK AO2 T02440239
53915KARA ARA20160824053010508/24/16 05:30:31  5-MIN KARA 241130Z 00000KT 6SM BR CLR 24/24 A3013 -170 97 900 000/00 RMK AO2 T02440239
53915KARA ARA20160824053510508/24/16 05:35:31  5-MIN KARA 241135Z 00000KT 6SM BR CLR 24/24 A3013 -170 97 900 000/00 RMK AO2 T02440239
53915KARA ARA20160824054010608/24/16 05:40:31  5-MIN KARA 241140Z 00000KT 6SM BR CLR 25/24 A3014 -170 93 1000 000/00 RMK AO2 T02500239
53915KARA ARA20160824054510608/24/16 05:45:31  5-MIN KARA 241145Z 00000KT 6SM BR CLR 25/24 A3014 -170 97 1000 000/00 RMK AO2 T02500244
53915KARA ARA20160824055013708/24/16 05:50:31  5-MIN KARA 241150Z 00000KT 6SM BR CLR 25/24 A3014 -170 97 1000 000/00 RMK AO2 SLP204 70008 T02500244 10261 20244 56008
53915KARA ARA20160824055510608/24/16 05:55:31  5-MIN KARA 241155Z 00000KT 5SM BR CLR 25/24 A3014 -170 97 1000 000/00 RMK AO2 T02500244
53915KARA ARA20160824060012208/24/16 06:00:31  5-MIN KARA 241200Z 01003KT 6SM -RA BR CLR 25/24 A3014 -170 97 1000 010/03 RMK AO2 RAB00 P0000 T02500244
53915KARA ARA20160824060512208/24/16 06:05:31  5-MIN KARA 241205Z 36003KT 6SM -RA BR CLR 25/24 A3014 -170 93 1000 360/03 RMK AO2 RAB00 P0000 T02500239
53915KARA ARA20160824061012208/24/16 06:10:31  5-MIN KARA 241210Z 36003KT 6SM -RA BR CLR 25/24 A3014 -170 97 1000 360/03 RMK AO2 RAB00 P0000 T02500244
53915KARA ARA20160824061511908/24/16 06:15:31  5-MIN KARA 241215Z 00000KT 8SM -RA CLR 25/24 A3014 -180 97 1000 000/00 RMK AO2 RAB00 P0000 T02500244
53915KARA ARA20160824062011908/24/16 06:20:31  5-MIN KARA 241220Z 00000KT 9SM -RA CLR 25/24 A3014 -170 97 1000 000/00 RMK AO2 RAB00 P0000 T02500244
53915KARA ARA20160824062511908/24/16 06:25:31  5-MIN KARA 241225Z 35003KT 10SM CLR 26/24 A3014 -170 93 1000 350/03 RMK AO2 RAB00E24 P0000 T02560244
53915KARA ARA20160824063011908/24/16 06:30:31  5-MIN KARA 241230Z 35003KT 10SM CLR 26/24 A3015 -180 93 1000 350/03 RMK AO2 RAB00E24 P0000 T02560244
53915KARA ARA20160824063511908/24/16 06:35:31  5-MIN KARA 241235Z 36003KT 10SM CLR 26/24 A3015 -180 93 1000 360/03 RMK AO2 RAB00E24 P0000 T02560244
53915KARA ARA20160824064011908/24/16 06:40:31  5-MIN KARA 241240Z 36003KT 10SM CLR 26/25 A3015 -180 93 1100 360/03 RMK AO2 RAB00E24 P0000 T02610250
53915KARA ARA20160824064511808/24/16 06:45:31  5-MIN KARA 241245Z 00000KT 9SM CLR 27/25 A3015 -180 90 1200 000/00 RMK AO2 RAB00E24 P0000 T02670250
53915KARA ARA20160824065012608/24/16 06:50:31  5-MIN KARA 241250Z 36003KT 10SM CLR 27/25 A3015 -180 90 1200 360/03 RMK AO2 RAB00E24 SLP209 P0000 T02670250
53915KARA ARA20160824065510408/24/16 06:55:31  5-MIN KARA 241255Z 36003KT 10SM CLR 27/25 A3015 -180 90 1200 360/03 RMK AO2 T02670250
53915KARA ARA20160824070010408/24/16 07:00:31  5-MIN KARA 241300Z 35003KT 10SM CLR 27/26 A3015 -180 90 1200 350/03 RMK AO2 T02720256
53915KARA ARA20160824070510408/24/16 07:05:31  5-MIN KARA 241305Z 00000KT 10SM CLR 27/26 A3016 -190 90 1200 000/00 RMK AO2 T02720256
53915KARA ARA20160824071010408/24/16 07:10:31  5-MIN KARA 241310Z 01003KT 10SM CLR 27/26 A3016 -190 90 1200 010/03 RMK AO2 T02720256
53915KARA ARA20160824071510408/24/16 07:15:31  5-MIN KARA 241315Z 01003KT 10SM CLR 28/26 A3016 -190 87 1300 010/03 RMK AO2 T02780256
53915KARA ARA20160824072010408/24/16 07:20:31  5-MIN KARA 241320Z 03003KT 10SM CLR 28/26 A3016 -190 85 1300 020/03 RMK AO2 T02830256
53915KARA ARA20160824072510408/24/16 07:25:31  5-MIN KARA 241325Z 01004KT 10SM CLR 28/26 A3016 -190 87 1300 010/04 RMK AO2 T02780256
53915KARA ARA20160824073010408/24/16 07:30:31  5-MIN KARA 241330Z 36003KT 10SM CLR 28/26 A3016 -190 85 1300 360/03 RMK AO2 T02830256
53915KARA ARA20160824073510408/24/16 07:35:31  5-MIN KARA 241335Z 36003KT 10SM CLR 28/26 A3016 -190 85 1300 360/03 RMK AO2 T02830256
53915KARA ARA20160824074010408/24/16 07:40:31  5-MIN KARA 241340Z 36004KT 10SM CLR 29/26 A3016 -190 85 1400 360/04 RMK AO2 T02890261
53915KARA ARA20160824074510408/24/16 07:45:31  5-MIN KARA 241345Z 36004KT 10SM CLR 29/26 A3016 -190 85 1400 360/04 RMK AO2 T02890261
53915KARA ARA20160824075011108/24/16 07:50:31  5-MIN KARA 241350Z 36005KT 10SM CLR 29/26 A3016 -190 85 1400 360/05 RMK AO2 SLP213 T02890261
53915KARA ARA20160824075510408/24/16 07:55:31  5-MIN KARA 241355Z 36005KT 10SM CLR 29/26 A3016 -190 82 1500 360/05 RMK AO2 T02940261
53915KARA ARA20160824080010408/24/16 08:00:31  5-MIN KARA 241400Z 36004KT 10SM CLR 29/26 A3016 -190 82 1500 360/04 RMK AO2 T02940261
53915KARA ARA20160824080510408/24/16 08:05:31  5-MIN KARA 241405Z 01005KT 10SM CLR 29/26 A3017 -200 85 1400 010/05 RMK AO2 T02890261
53915KARA ARA20160824081010408/24/16 08:10:31  5-MIN KARA 241410Z 02004KT 10SM CLR 29/26 A3017 -200 85 1400 020/04 RMK AO2 T02890261
53915KARA ARA20160824081510408/24/16 08:15:31  5-MIN KARA 241415Z 02004KT 10SM CLR 29/26 A3017 -200 82 1500 020/04 RMK AO2 T02940261
53915KARA ARA20160824082010408/24/16 08:20:31  5-MIN KARA 241420Z 03005KT 10SM CLR 30/26 A3017 -200 79 1500 030/05 RMK AO2 T03000261
53915KARA ARA20160824082510408/24/16 08:25:31  5-MIN KARA 241425Z 02003KT 10SM CLR 31/26 A3017 -200 77 1600 020/03 RMK AO2 T03060261
53915KARA ARA20160824083010408/24/16 08:30:31  5-MIN KARA 241430Z VRB05KT 10SM CLR 31/26 A3016 -190 77 1600 VRB/05 RMK AO2 T03060261
53915KARA ARA20160824083510408/24/16 08:35:31  5-MIN KARA 241435Z 02004KT 10SM CLR 31/26 A3016 -190 74 1600 010/04 RMK AO2 T03060256
53915KARA ARA20160824084010408/24/16 08:40:31  5-MIN KARA 241440Z 03004KT 10SM CLR 31/26 A3016 -190 74 1600 030/04 RMK AO2 T03060256
53915KARA ARA20160824084510708/24/16 08:45:31  5-MIN KARA 241445Z 36003KT 10SM FEW016 31/26 A3017 -200 74 1600 350/03 RMK AO2 T03060256
53915KARA ARA20160824085012608/24/16 08:50:31  5-MIN KARA 241450Z 02003KT 10SM FEW016 31/26 A3017 -200 74 1600 020/03 RMK AO2 SLP215 60000 T03060256 53001
53915KARA ARA20160824085510708/24/16 08:55:31  5-MIN KARA 241455Z 01003KT 10SM FEW016 31/26 A3017 -200 72 1600 360/03 RMK AO2 T03110256
53915KARA ARA20160824090010708/24/16 09:00:31  5-MIN KARA 241500Z VRB03KT 10SM SCT016 31/26 A3017 -200 74 1600 VRB/03 RMK AO2 T03110261
53915KARA ARA20160824090510708/24/16 09:05:31  5-MIN KARA 241505Z 07003KT 10SM BKN016 31/26 A3017 -200 74 1600 060/03 RMK AO2 T03060256
53915KARA ARA20160824091010708/24/16 09:10:31  5-MIN KARA 241510Z 05004KT 10SM BKN018 31/26 A3017 -200 74 1600 050/04 RMK AO2 T03060256
53915KARA ARA20160824091510708/24/16 09:15:31  5-MIN KARA 241515Z 05006KT 10SM SCT018 31/25 A3017 -200 69 1600 050/06 RMK AO2 T03110250
53915KARA ARA20160824092010708/24/16 09:20:31  5-MIN KARA 241520Z 03005KT 10SM FEW018 31/24 A3017 -200 67 1600 030/05 RMK AO2 T03110244
53915KARA ARA20160824092510708/24/16 09:25:31  5-MIN KARA 241525Z 03004KT 10SM FEW018 32/24 A3017 -200 65 1700 030/04 RMK AO2 T03170244
53915KARA ARA20160824093010708/24/16 09:30:31  5-MIN KARA 241530Z 03003KT 10SM FEW018 32/24 A3017 -200 65 1700 030/03 RMK AO2 T03170244
53915KARA ARA20160824093510408/24/16 09:35:31  5-MIN KARA 241535Z 08004KT 10SM CLR 31/25 A3017 -200 69 1600 080/04 RMK AO2 T03110250
53915KARA ARA20160824094010708/24/16 09:40:31  5-MIN KARA 241540Z 04005KT 10SM FEW023 32/24 A3017 -200 65 1700 040/05 RMK AO2 T03170244
53915KARA ARA20160824094510708/24/16 09:45:31  5-MIN KARA 241545Z 02004KT 10SM FEW023 32/25 A3017 -200 67 1700 020/04 RMK AO2 T03170250
53915KARA ARA20160824095011108/24/16 09:50:31  5-MIN KARA 241550Z 01004KT 10SM CLR 32/25 A3017 -200 67 1700 010/04 RMK AO2 SLP215 T03170250
53915KARA ARA20160824095510408/24/16 09:55:31  5-MIN KARA 241555Z 06005KT 10SM CLR 32/24 A3017 -200 65 1700 050/05 RMK AO2 T03170244
53915KARA ARA20160824100010408/24/16 10:00:31  5-MIN KARA 241600Z 05007KT 10SM CLR 32/24 A3016 -190 63 1800 050/07 RMK AO2 T03220244
53915KARA ARA20160824100510408/24/16 10:05:31  5-MIN KARA 241605Z 05005KT 10SM CLR 32/24 A3016 -190 65 1700 050/05 RMK AO2 T03170244
53915KARA ARA20160824101010408/24/16 10:10:31  5-MIN KARA 241610Z 06004KT 10SM CLR 32/24 A3016 -190 63 1800 060/04 RMK AO2 T03220244
53915KARA ARA20160824101510408/24/16 10:15:31  5-MIN KARA 241615Z 10005KT 10SM CLR 32/25 A3016 -190 65 1800 100/05 RMK AO2 T03220250
53915KARA ARA20160824102010408/24/16 10:20:31  5-MIN KARA 241620Z 04005KT 10SM CLR 32/25 A3016 -190 65 1800 040/05 RMK AO2 T03220250
53915KARA ARA20160824102510708/24/16 10:25:31  5-MIN KARA 241625Z 02007KT 10SM FEW029 33/24 A3016 -190 61 1800 020/07 RMK AO2 T03280244
53915KARA ARA20160824103010708/24/16 10:30:31  5-MIN KARA 241630Z 01007KT 10SM FEW029 32/25 A3016 -190 65 1800 010/07 RMK AO2 T03220250
53915KARA ARA20160824103510408/24/16 10:35:31  5-MIN KARA 241635Z 36005KT 10SM CLR 32/24 A3016 -190 63 1800 360/05 RMK AO2 T03220244
53915KARA ARA20160824104010408/24/16 10:40:31  5-MIN KARA 241640Z 05005KT 10SM CLR 33/24 A3016 -190 61 1800 050/05 RMK AO2 T03280244
53915KARA ARA20160824104510708/24/16 10:45:31  5-MIN KARA 241645Z 07005KT 10SM FEW031 32/24 A3016 -190 63 1800 070/05 RMK AO2 T03220244
53915KARA ARA20160824105011408/24/16 10:50:31  5-MIN KARA 241650Z 00000KT 10SM FEW031 32/24 A3016 -190 61 1800 000/00 RMK AO2 SLP212 T03220239
53915KARA ARA20160824105510708/24/16 10:55:31  5-MIN KARA 241655Z 03005KT 10SM FEW033 33/24 A3016 -190 61 1800 030/05 RMK AO2 T03280244
53915KARA ARA20160824110010708/24/16 11:00:31  5-MIN KARA 241700Z 00000KT 10SM FEW033 33/24 A3016 -190 61 1800 000/00 RMK AO2 T03280244
53915KARA ARA20160824110510708/24/16 11:05:31  5-MIN KARA 241705Z 03006KT 10SM FEW035 33/24 A3016 -190 59 1900 030/06 RMK AO2 T03330244
53915KARA ARA20160824111012308/24/16 11:10:31  5-MIN KARA 241710Z 05007KT 360V080 10SM FEW035 33/24 A3016 -190 61 1800 050/07 360V080 RMK AO2 T03280244
53915KARA ARA20160824111510708/24/16 11:15:31  5-MIN KARA 241715Z 08004KT 10SM FEW035 33/24 A3016 -190 61 1800 080/04 RMK AO2 T03280244
53915KARA ARA20160824112010708/24/16 11:20:31  5-MIN KARA 241720Z VRB03KT 10SM FEW035 33/24 A3016 -190 59 1800 VRB/03 RMK AO2 T03280239
53915KARA ARA20160824112510708/24/16 11:25:31  5-MIN KARA 241725Z 00000KT 10SM FEW034 33/24 A3016 -190 61 1800 000/00 RMK AO2 T03280244
53915KARA ARA20160824113009708/24/16 11:30:31  5-MIN KARA 241730Z 10SM FEW033 34/25 A3015 -180 59 2000 M /M RMK AO2 T03390250
53915KARA ARA20160824113510708/24/16 11:35:31  5-MIN KARA 241735Z 03005KT 10SM SCT035 33/24 A3015 -180 61 1800 030/05 RMK AO2 T03280244
53915KARA ARA20160824114010708/24/16 11:40:31  5-MIN KARA 241740Z 36005KT 10SM SCT035 33/24 A3015 -180 61 1800 360/05 RMK AO2 T03280244
53915KARA ARA20160824114510708/24/16 11:45:31  5-MIN KARA 241745Z VRB03KT 10SM SCT035 33/24 A3014 -180 59 1900 VRB/03 RMK AO2 T03330244
53915KARA ARA20160824115013808/24/16 11:50:31  5-MIN KARA 241750Z 36003KT 10SM FEW036 34/24 A3014 -170 57 2000 360/03 RMK AO2 SLP206 60000 T03390244 10339 20250 51009
53915KARA ARA20160824115510708/24/16 11:55:31  5-MIN KARA 241755Z 00000KT 10SM FEW036 33/23 A3014 -170 57 1900 000/00 RMK AO2 T03280233
53915KARA ARA20160824120010708/24/16 12:00:31  5-MIN KARA 241800Z 36003KT 10SM FEW036 33/24 A3014 -170 57 1900 360/03 RMK AO2 T03330239
53915KARA ARA20160824120510708/24/16 12:05:31  5-MIN KARA 241805Z 11004KT 10SM FEW038 34/24 A3014 -170 57 2000 110/04 RMK AO2 T03390244
53915KARA ARA20160824121010708/24/16 12:10:31  5-MIN KARA 241810Z VRB03KT 10SM FEW037 33/24 A3014 -170 57 1900 VRB/03 RMK AO2 T03330239
53915KARA ARA20160824121510708/24/16 12:15:31  5-MIN KARA 241815Z 05006KT 10SM FEW037 34/24 A3014 -170 55 2000 050/06 RMK AO2 T03440244
53915KARA ARA20160824122010708/24/16 12:20:31  5-MIN KARA 241820Z 00000KT 10SM FEW037 33/24 A3013 -170 57 1900 000/00 RMK AO2 T03330239
53915KARA ARA20160824122511408/24/16 12:25:31  5-MIN KARA 241825Z 08005KT 10SM FEW037 FEW080 34/24 A3013 -170 55 2000 080/05 RMK AO2 T03390239
53915KARA ARA20160824123010708/24/16 12:30:31  5-MIN KARA 241830Z 06005KT 10SM FEW080 34/24 A3013 -170 57 2000 060/05 RMK AO2 T03390244
53915KARA ARA20160824123510708/24/16 12:35:31  5-MIN KARA 241835Z 02003KT 10SM FEW080 34/24 A3013 -160 57 2000 020/03 RMK AO2 T03390244
53915KARA ARA20160824124010708/24/16 12:40:31  5-MIN KARA 241840Z 00000KT 10SM FEW080 34/24 A3013 -160 55 2000 000/00 RMK AO2 T03390239
53915KARA ARA20160824124510708/24/16 12:45:31  5-MIN KARA 241845Z VRB03KT 10SM FEW080 34/24 A3013 -160 55 2000 VRB/03 RMK AO2 T03390239
53915KARA ARA20160824125011408/24/16 12:50:31  5-MIN KARA 241850Z VRB03KT 10SM FEW080 34/24 A3013 -160 57 2000 VRB/03 RMK AO2 SLP202 T03390244
53915KARA ARA20160824125511408/24/16 12:55:31  5-MIN KARA 241855Z VRB05KT 10SM FEW039 FEW080 34/24 A3013 -160 53 2100 VRB/05 RMK AO2 T03440239
53915KARA ARA20160824130011408/24/16 13:00:31  5-MIN KARA 241900Z 02005KT 10SM FEW039 SCT080 33/24 A3013 -160 57 1900 020/05 RMK AO2 T03330239
53915KARA ARA20160824130509708/24/16 13:05:31  5-MIN KARA 241905Z 10SM FEW040 34/23 A3012 -150 53 2000 M /M RMK AO2 T03390233
53915KARA ARA20160824131010708/24/16 13:10:31  5-MIN KARA 241910Z 01004KT 10SM FEW040 34/24 A3012 -150 55 2000 360/04 RMK AO2 T03390239
53915KARA ARA20160826191510308/26/16 19:15:31  5-MIN KARA 270115Z 11004KT 10SM CLR 28/23 A2996 -10 74 1500 110/04 RMK AO2 T02780228
53915KARA ARA20160826192010308/26/16 19:20:31  5-MIN KARA 270120Z 11004KT 10SM CLR 28/23 A2997 -10 74 1500 110/04 RMK AO2 T02780228
53915KARA ARA20160826192510308/26/16 19:25:31  5-MIN KARA 270125Z 10004KT 10SM CLR 28/23 A2997 -10 76 1500 100/04 RMK AO2 T02780233
53915KARA ARA20160826193010308/26/16 19:30:31  5-MIN KARA 270130Z 10003KT 10SM CLR 28/23 A2997 -20 76 1500 100/03 RMK AO2 T02780233
53915KARA ARA20160826193510308/26/16 19:35:31  5-MIN KARA 270135Z 10004KT 10SM CLR 27/23 A2997 -20 79 1400 100/04 RMK AO2 T02720233
53915KARA ARA20160826194010308/26/16 19:40:31  5-MIN KARA 270140Z 10003KT 10SM CLR 27/23 A2998 -20 79 1400 090/03 RMK AO2 T02720233
53915KARA ARA20160826194510308/26/16 19:45:31  5-MIN KARA 270145Z 09004KT 10SM CLR 28/23 A2998 -20 76 1500 090/04 RMK AO2 T02780233
53915KARA ARA20160826195011008/26/16 19:50:31  5-MIN KARA 270150Z 09004KT 10SM CLR 28/23 A2998 -30 76 1500 090/04 RMK AO2 SLP152 T02780233
53915KARA ARA20160826195510808/26/16 19:55:31  5-MIN KARA 270155Z AUTO 08003KT 10SM CLR 28/23 A2998 -30 76 1500 080/03 RMK AO2 T02780233
53915KARA ARA20160826200010808/26/16 20:00:31  5-MIN KARA 270200Z AUTO 09003KT 10SM CLR 28/23 A2999 -30 76 1500 090/03 RMK AO2 T02780233
53915KARA ARA20160826200510808/26/16 20:05:31  5-MIN KARA 270205Z AUTO 08003KT 10SM CLR 28/23 A2999 -30 76 1500 080/03 RMK AO2 T02780233
53915KARA ARA20160826201010808/26/16 20:10:31  5-MIN KARA 270210Z AUTO 00000KT 10SM CLR 28/23 A2999 -30 76 1500 000/00 RMK AO2 T02780233
53915KARA ARA20160826201510808/26/16 20:15:31  5-MIN KARA 270215Z AUTO 00000KT 10SM CLR 28/23 A2999 -30 76 1500 000/00 RMK AO2 T02780233
53915KARA ARA20160826202010808/26/16 20:20:31  5-MIN KARA 270220Z AUTO 09003KT 10SM CLR 28/23 A2999 -30 74 1500 090/03 RMK AO2 T02780228
53915KARA ARA20160826202510808/26/16 20:25:31  5-MIN KARA 270225Z AUTO 00000KT 10SM CLR 28/23 A2999 -30 74 1500 000/00 RMK AO2 T02780228
53915KARA ARA20160826203010808/26/16 20:30:31  5-MIN KARA 270230Z AUTO 00000KT 10SM CLR 28/23 A2999 -40 74 1500 000/00 RMK AO2 T02780228
53915KARA ARA20160826203510808/26/16 20:35:31  5-MIN KARA 270235Z AUTO 00000KT 10SM CLR 28/23 A3000 -40 74 1500 000/00 RMK AO2 T02780228
53915KARA ARA20160826204010808/26/16 20:40:31  5-MIN KARA 270240Z AUTO 00000KT 10SM CLR 27/23 A3000 -40 79 1400 000/00 RMK AO2 T02720233
53915KARA ARA20160826204510808/26/16 20:45:31  5-MIN KARA 270245Z AUTO 00000KT 10SM CLR 27/23 A3000 -40 79 1400 000/00 RMK AO2 T02720233
53915KARA ARA20160826205012108/26/16 20:50:31  5-MIN KARA 270250Z AUTO 00000KT 10SM CLR 27/23 A3000 -40 82 1300 000/00 RMK AO2 SLP157 T02670233 53000
53915KARA ARA20160826205510808/26/16 20:55:31  5-MIN KARA 270255Z AUTO 00000KT 10SM CLR 27/24 A3000 -40 84 1300 000/00 RMK AO2 T02670239
53915KARA ARA20160826210010808/26/16 21:00:31  5-MIN KARA 270300Z AUTO 00000KT 10SM CLR 27/24 A3000 -40 84 1300 000/00 RMK AO2 T02670239
53915KARA ARA20160826210510808/26/16 21:05:31  5-MIN KARA 270305Z AUTO 00000KT 10SM CLR 27/24 A3000 -40 84 1300 000/00 RMK AO2 T02670239
53915KARA ARA20160826211010808/26/16 21:10:31  5-MIN KARA 270310Z AUTO 00000KT 10SM CLR 27/24 A3000 -50 87 1300 000/00 RMK AO2 T02670244
53915KARA ARA20160826211510808/26/16 21:15:31  5-MIN KARA 270315Z AUTO 35003KT 10SM CLR 26/24 A3000 -50 90 1300 350/03 RMK AO2 T02610244
53915KARA ARA20160826212010808/26/16 21:20:31  5-MIN KARA 270320Z AUTO 00000KT 10SM CLR 27/24 A3000 -50 84 1300 000/00 RMK AO2 T02670239
53915KARA ARA20160826212510808/26/16 21:25:31  5-MIN KARA 270325Z AUTO 36003KT 10SM CLR 27/24 A3000 -50 84 1300 360/03 RMK AO2 T02670239
53915KARA ARA20160826213010808/26/16 21:30:31  5-MIN KARA 270330Z AUTO 36003KT 10SM CLR 27/24 A3000 -50 84 1300 360/03 RMK AO2 T02670239
53915KARA ARA20160826213510808/26/16 21:35:31  5-MIN KARA 270335Z AUTO 36003KT 10SM CLR 27/23 A3000 -40 82 1300 360/03 RMK AO2 T02670233
53915KARA ARA20160826214010808/26/16 21:40:31  5-MIN KARA 270340Z AUTO 36003KT 10SM CLR 26/23 A3000 -40 84 1300 360/03 RMK AO2 T02610233
53915KARA ARA20160826214510808/26/16 21:45:31  5-MIN KARA 270345Z AUTO 01003KT 10SM CLR 26/23 A3000 -40 84 1300 010/03 RMK AO2 T02610233
53915KARA ARA20160826215011508/26/16 21:50:31  5-MIN KARA 270350Z AUTO 01003KT 10SM CLR 26/23 A3000 -40 84 1300 010/03 RMK AO2 SLP158 T02610233
53915KARA ARA20160826215510808/26/16 21:55:31  5-MIN KARA 270355Z AUTO 02003KT 10SM CLR 26/23 A3000 -40 84 1300 020/03 RMK AO2 T02610233
53915KARA ARA20160826220010808/26/16 22:00:31  5-MIN KARA 270400Z AUTO 04003KT 10SM CLR 26/23 A3000 -40 84 1300 040/03 RMK AO2 T02610233
53915KARA ARA20160826220510808/26/16 22:05:31  5-MIN KARA 270405Z AUTO 00000KT 10SM CLR 26/23 A3000 -40 84 1300 000/00 RMK AO2 T02610233
53915KARA ARA20160826221010808/26/16 22:10:31  5-MIN KARA 270410Z AUTO 08003KT 10SM CLR 26/23 A3000 -40 84 1300 080/03 RMK AO2 T02610233
53915KARA ARA20160826221510808/26/16 22:15:31  5-MIN KARA 270415Z AUTO 07004KT 10SM CLR 27/23 A3000 -40 82 1300 070/04 RMK AO2 T02670233
53915KARA ARA20160826222010808/26/16 22:20:31  5-MIN KARA 270420Z AUTO 07004KT 10SM CLR 27/23 A3000 -40 82 1300 070/04 RMK AO2 T02670233
53915KARA ARA20160826222510808/26/16 22:25:31  5-MIN KARA 270425Z AUTO 06004KT 10SM CLR 27/23 A3000 -40 82 1300 060/04 RMK AO2 T02670233
53915KARA ARA20160826223010808/26/16 22:30:31  5-MIN KARA 270430Z AUTO 06004KT 10SM CLR 27/23 A3000 -40 82 1300 060/04 RMK AO2 T02670233
53915KARA ARA20160826223510808/26/16 22:35:31  5-MIN KARA 270435Z AUTO 06005KT 10SM CLR 27/23 A3000 -40 82 1300 060/05 RMK AO2 T02670233
53915KARA ARA20160826224010808/26/16 22:40:31  5-MIN KARA 270440Z AUTO 06006KT 10SM CLR 27/23 A2999 -40 82 1300 060/06 RMK AO2 T02670233
53915KARA ARA20160826224510808/26/16 22:45:31  5-MIN KARA 270445Z AUTO 07005KT 10SM CLR 27/23 A2999 -30 82 1300 070/05 RMK AO2 T02670233
53915KARA ARA20160826225011508/26/16 22:50:31  5-MIN KARA 270450Z AUTO 05005KT 10SM CLR 27/23 A2999 -30 82 1300 050/05 RMK AO2 SLP154 T02670233
53915KARA ARA20160826225510808/26/16 22:55:31  5-MIN KARA 270455Z AUTO 05005KT 10SM CLR 27/23 A2999 -30 82 1300 040/05 RMK AO2 T02670233
53915KARA ARA20160826230010808/26/16 23:00:31  5-MIN KARA 270500Z AUTO 05005KT 10SM CLR 27/23 A2999 -30 82 1300 050/05 RMK AO2 T02670233
53915KARA ARA20160826230510808/26/16 23:05:31  5-MIN KARA 270505Z AUTO 05005KT 10SM CLR 27/23 A2999 -30 82 1300 050/05 RMK AO2 T02670233
53915KARA ARA20160826231010808/26/16 23:10:31  5-MIN KARA 270510Z AUTO 05005KT 10SM CLR 27/23 A2999 -30 82 1300 050/05 RMK AO2 T02670233
53915KARA ARA20160826231510808/26/16 23:15:31  5-MIN KARA 270515Z AUTO 04004KT 10SM CLR 27/23 A2998 -30 82 1300 040/04 RMK AO2 T02670233
53915KARA ARA20160826232010808/26/16 23:20:31  5-MIN KARA 270520Z AUTO 04004KT 10SM CLR 26/23 A2998 -30 84 1300 040/04 RMK AO2 T02610233
53915KARA ARA20160826232510808/26/16 23:25:31  5-MIN KARA 270525Z AUTO 04005KT 10SM CLR 26/23 A2998 -20 84 1300 040/05 RMK AO2 T02610233
53915KARA ARA20160826233011108/26/16 23:30:31  5-MIN KARA 270530Z AUTO 04004KT 10SM SCT060 26/23 A2998 -30 84 1300 040/04 RMK AO2 T02610233
53915KARA ARA20160826233511108/26/16 23:35:31  5-MIN KARA 270535Z AUTO 03004KT 10SM SCT060 26/23 A2998 -20 84 1300 030/04 RMK AO2 T02610233
53915KARA ARA20160826234011108/26/16 23:40:31  5-MIN KARA 270540Z AUTO 03004KT 10SM SCT065 26/23 A2998 -20 84 1300 030/04 RMK AO2 T02610233
53915KARA ARA20160826234511108/26/16 23:45:31  5-MIN KARA 270545Z AUTO 05004KT 10SM FEW060 26/23 A2998 -20 84 1300 050/04 RMK AO2 T02610233
53915KARA ARA20160826235014608/26/16 23:50:31  5-MIN KARA 270550Z AUTO 06005KT 10SM FEW060 26/23 A2998 -20 84 1300 060/05 RMK AO2 SLP151 T02610233 10300 20261 403280239 53014
53915KARA ARA20160826235511808/26/16 23:55:31  5-MIN KARA 270555Z AUTO 08005KT 10SM FEW060 SCT080 27/23 A2998 -20 82 1400 080/05 RMK AO2 T02670233
53915KARA ARA20160827000011808/27/16 00:00:31  5-MIN KARA 270600Z AUTO 08004KT 10SM FEW065 SCT080 27/23 A2998 -20 82 1400 080/04 RMK AO2 T02670233
53915KARA ARA20160827000511108/27/16 00:05:31  5-MIN KARA 270605Z AUTO 09004KT 10SM FEW080 26/23 A2998 -20 84 1300 080/04 RMK AO2 T02610233
53915KARA ARA20160827001011108/27/16 00:10:31  5-MIN KARA 270610Z AUTO 08004KT 10SM SCT080 26/23 A2997 -20 84 1300 080/04 RMK AO2 T02610233
53915KARA ARA20160827001511108/27/16 00:15:31  5-MIN KARA 270615Z AUTO 08004KT 10SM SCT080 26/23 A2997 -20 84 1300 080/04 RMK AO2 T02610233
53915KARA ARA20160827002011108/27/16 00:20:31  5-MIN KARA 270620Z AUTO 08004KT 10SM BKN080 26/23 A2997 -20 84 1300 080/04 RMK AO2 T02610233
53915KARA ARA20160827002511108/27/16 00:25:31  5-MIN KARA 270625Z AUTO 07005KT 10SM BKN080 26/23 A2997 -10 84 1300 070/05 RMK AO2 T02610233
53915KARA ARA20160827003011108/27/16 00:30:31  5-MIN KARA 270630Z AUTO 08004KT 10SM SCT080 26/23 A2997 -20 84 1300 080/04 RMK AO2 T02610233
53915KARA ARA20160827003511108/27/16 00:35:31  5-MIN KARA 270635Z AUTO 08003KT 10SM BKN080 26/23 A2997 -20 84 1300 080/03 RMK AO2 T02610233
53915KARA ARA20160827004012308/27/16 00:40:31  5-MIN KARA 270640Z AUTO 07004KT 10SM BKN080 26/23 A2997 -20 84 1300 070/04 RMK AO2 LTG DSNT SW T02610233
53915KARA ARA20160827004512308/27/16 00:45:31  5-MIN KARA 270645Z AUTO 07005KT 10SM BKN080 26/23 A2997 -20 84 1300 070/05 RMK AO2 LTG DSNT SW T02610233
53915KARA ARA20160827005013008/27/16 00:50:31  5-MIN KARA 270650Z AUTO 07005KT 10SM SCT080 26/23 A2997 -10 84 1300 070/05 RMK AO2 LTG DSNT SW SLP148 T02610233
53915KARA ARA20160827005511108/27/16 00:55:31  5-MIN KARA 270655Z AUTO 07006KT 10SM SCT080 26/23 A2997 -10 84 1300 070/06 RMK AO2 T02610233
53915KARA ARA20160827010011108/27/16 01:00:31  5-MIN KARA 270700Z AUTO 07005KT 10SM BKN080 26/23 A2997 -10 84 1300 070/05 RMK AO2 T02610233
53915KARA ARA20160827010511108/27/16 01:05:31  5-MIN KARA 270705Z AUTO 07006KT 10SM SCT080 26/23 A2997 -10 84 1300 060/06 RMK AO2 T02610233
53915KARA ARA20160827011011108/27/16 01:10:31  5-MIN KARA 270710Z AUTO 06006KT 10SM FEW080 26/23 A2997 -10 84 1300 060/06 RMK AO2 T02610233
53915KARA ARA20160827011511108/27/16 01:15:31  5-MIN KARA 270715Z AUTO 06005KT 10SM SCT080 26/23 A2997 -10 84 1300 060/05 RMK AO2 T02610233
53915KARA ARA20160827012011108/27/16 01:20:31  5-MIN KARA 270720Z AUTO 07006KT 10SM BKN080 26/23 A2997 -20 84 1300 070/06 RMK AO2 T02610233
53915KARA ARA20160827012511108/27/16 01:25:31  5-MIN KARA 270725Z AUTO 07006KT 10SM SCT080 26/23 A2997 -10 84 1300 070/06 RMK AO2 T02610233
53915KARA ARA20160827013011108/27/16 01:30:31  5-MIN KARA 270730Z AUTO 07005KT 10SM FEW080 26/23 A2997 -10 84 1300 070/05 RMK AO2 T02610233
53915KARA ARA20160827013511108/27/16 01:35:31  5-MIN KARA 270735Z AUTO 07005KT 10SM FEW080 26/23 A2997 -10 84 1300 070/05 RMK AO2 T02610233
53915KARA ARA20160827014011108/27/16 01:40:31  5-MIN KARA 270740Z AUTO 07005KT 10SM FEW080 26/23 A2997 -10 84 1300 070/05 RMK AO2 T02610233
53915KARA ARA20160827014511108/27/16 01:45:31  5-MIN KARA 270745Z AUTO 07005KT 10SM FEW080 26/23 A2997 -10 84 1300 070/05 RMK AO2 T02610233
53915KARA ARA20160827015011508/27/16 01:50:31  5-MIN KARA 270750Z AUTO 06005KT 10SM CLR 26/23 A2996 -10 84 1300 060/05 RMK AO2 SLP145 T02610233
53915KARA ARA20160827015510808/27/16 01:55:31  5-MIN KARA 270755Z AUTO 07005KT 10SM CLR 26/23 A2996 -10 84 1300 070/05 RMK AO2 T02610233
53915KARA ARA20160827020010808/27/16 02:00:31  5-MIN KARA 270800Z AUTO 07005KT 10SM CLR 26/24 A2996 -10 87 1300 070/05 RMK AO2 T02610239
53915KARA ARA20160827020510608/27/16 02:05:31  5-MIN KARA 270805Z AUTO 08005KT 10SM CLR 26/24 A2996 0 87 1300 080/05 RMK AO2 T02610239
53915KARA ARA20160827021010608/27/16 02:10:31  5-MIN KARA 270810Z AUTO 07004KT 10SM CLR 26/23 A2996 0 84 1300 070/04 RMK AO2 T02610233
53915KARA ARA20160827021510608/27/16 02:15:31  5-MIN KARA 270815Z AUTO 07004KT 10SM CLR 26/23 A2996 0 84 1300 070/04 RMK AO2 T02610233
53915KARA ARA20160827022010608/27/16 02:20:31  5-MIN KARA 270820Z AUTO 07004KT 10SM CLR 26/23 A2996 0 84 1300 070/04 RMK AO2 T02610233
53915KARA ARA20160827022510608/27/16 02:25:31  5-MIN KARA 270825Z AUTO 08004KT 10SM CLR 26/23 A2996 0 84 1300 080/04 RMK AO2 T02610233
53915KARA ARA20160827023010608/27/16 02:30:31  5-MIN KARA 270830Z AUTO 08005KT 10SM CLR 26/23 A2995 0 84 1300 080/05 RMK AO2 T02610233
53915KARA ARA20160827023510608/27/16 02:35:31  5-MIN KARA 270835Z AUTO 08005KT 10SM CLR 26/23 A2995 0 87 1300 080/05 RMK AO2 T02560233
53915KARA ARA20160827024010608/27/16 02:40:31  5-MIN KARA 270840Z AUTO 08006KT 10SM CLR 26/23 A2995 0 87 1300 080/06 RMK AO2 T02560233
53915KARA ARA20160827024510608/27/16 02:45:31  5-MIN KARA 270845Z AUTO 08005KT 10SM CLR 26/23 A2995 0 87 1300 080/05 RMK AO2 T02560233
53915KARA ARA20160827025011908/27/16 02:50:31  5-MIN KARA 270850Z AUTO 08005KT 10SM CLR 26/23 A2995 0 87 1300 080/05 RMK AO2 SLP142 T02560233 58007
53915KARA ARA20160827025510908/27/16 02:55:31  5-MIN KARA 270855Z AUTO 08005KT 10SM FEW100 26/23 A2995 0 87 1300 080/05 RMK AO2 T02560233
53915KARA ARA20160827030010908/27/16 03:00:31  5-MIN KARA 270900Z AUTO 08004KT 10SM FEW100 26/23 A2996 0 87 1300 080/04 RMK AO2 T02560233
53915KARA ARA20160827030510908/27/16 03:05:31  5-MIN KARA 270905Z AUTO 08005KT 10SM FEW100 26/23 A2996 0 87 1300 080/05 RMK AO2 T02560233
53915KARA ARA20160827031010608/27/16 03:10:31  5-MIN KARA 270910Z AUTO 09004KT 10SM CLR 26/23 A2995 0 87 1300 080/04 RMK AO2 T02560233
53915KARA ARA20160827031510508/27/16 03:15:31  5-MIN KARA 270915Z AUTO 08004KT 9SM CLR 26/23 A2995 0 87 1300 080/04 RMK AO2 T02560233
53915KARA ARA20160827032010508/27/16 03:20:31  5-MIN KARA 270920Z AUTO 08004KT 9SM CLR 26/24 A2995 0 90 1300 080/04 RMK AO2 T02560239
53915KARA ARA20160827032510508/27/16 03:25:31  5-MIN KARA 270925Z AUTO 08003KT 9SM CLR 26/24 A2995 0 90 1300 080/03 RMK AO2 T02560239
53915KARA ARA20160827033010508/27/16 03:30:31  5-MIN KARA 270930Z AUTO 07004KT 9SM CLR 26/24 A2995 0 90 1300 070/04 RMK AO2 T02560239
53915KARA ARA20160827033510508/27/16 03:35:31  5-MIN KARA 270935Z AUTO 06006KT 9SM CLR 26/24 A2995 0 90 1300 060/06 RMK AO2 T02560239
53915KARA ARA20160827034010508/27/16 03:40:31  5-MIN KARA 270940Z AUTO 06005KT 9SM CLR 26/24 A2995 0 90 1300 060/05 RMK AO2 T02560239
53915KARA ARA20160827034510508/27/16 03:45:31  5-MIN KARA 270945Z AUTO 06005KT 9SM CLR 26/24 A2995 0 90 1300 060/05 RMK AO2 T02560239
53915KARA ARA20160827035011208/27/16 03:50:31  5-MIN KARA 270950Z AUTO 05005KT 9SM CLR 26/24 A2995 0 90 1300 050/05 RMK AO2 SLP140 T02560239
53915KARA ARA20160827035510508/27/16 03:55:31  5-MIN KARA 270955Z AUTO 05007KT 9SM CLR 26/24 A2995 0 90 1300 050/07 RMK AO2 T02560239
53915KARA ARA20160827040010508/27/16 04:00:31  5-MIN KARA 271000Z AUTO 05006KT 9SM CLR 26/24 A2994 0 90 1300 050/06 RMK AO2 T02560239
53915KARA ARA20160827040510908/27/16 04:05:31  5-MIN KARA 271005Z AUTO 05006KT 9SM FEW075 26/24 A2994 10 90 1300 040/06 RMK AO2 T02560239
53915KARA ARA20160827041010908/27/16 04:10:31  5-MIN KARA 271010Z AUTO 04007KT 8SM SCT075 26/24 A2994 10 90 1300 040/07 RMK AO2 T02560239
53915KARA ARA20160827041510808/27/16 04:15:31  5-MIN KARA 271015Z AUTO 04006KT 8SM FEW075 26/24 A2994 0 90 1300 040/06 RMK AO2 T02560239
53915KARA ARA20160827042010808/27/16 04:20:31  5-MIN KARA 271020Z AUTO 05006KT 8SM FEW075 26/24 A2995 0 90 1300 050/06 RMK AO2 T02560239
53915KARA ARA20160827042510808/27/16 04:25:31  5-MIN KARA 271025Z AUTO 06004KT 8SM FEW075 26/24 A2995 0 90 1300 060/04 RMK AO2 T02560239
53915KARA ARA20160827043010808/27/16 04:30:31  5-MIN KARA 271030Z AUTO 08003KT 8SM FEW075 26/24 A2995 0 90 1300 080/03 RMK AO2 T02560239
53915KARA ARA20160827043510808/27/16 04:35:31  5-MIN KARA 271035Z AUTO 08004KT 8SM FEW080 26/24 A2996 0 90 1300 080/04 RMK AO2 T02560239
53915KARA ARA20160827044010508/27/16 04:40:31  5-MIN KARA 271040Z AUTO 09004KT 8SM CLR 26/24 A2996 0 90 1300 080/04 RMK AO2 T02560239
53915KARA ARA20160827044510508/27/16 04:45:31  5-MIN KARA 271045Z AUTO 08005KT 8SM CLR 26/23 A2995 0 87 1300 080/05 RMK AO2 T02560233
53915KARA ARA20160827045011208/27/16 04:50:31  5-MIN KARA 271050Z AUTO 08006KT 8SM CLR 26/23 A2995 0 87 1300 070/06 RMK AO2 SLP142 T02560233
53915KARA ARA20160827045510508/27/16 04:55:31  5-MIN KARA 271055Z AUTO 08005KT 8SM CLR 26/23 A2995 0 87 1300 080/05 RMK AO2 T02560233
53915KARA ARA20160827050010508/27/16 05:00:31  5-MIN KARA 271100Z AUTO 08005KT 8SM CLR 26/23 A2995 0 87 1300 080/05 RMK AO2 T02560233
53915KARA ARA20160827050510508/27/16 05:05:31  5-MIN KARA 271105Z AUTO 08003KT 8SM CLR 26/23 A2996 0 87 1300 080/03 RMK AO2 T02560233
53915KARA ARA20160827051010008/27/16 05:10:31  5-MIN KARA 271110Z 08004KT 8SM CLR 26/23 A2996 0 87 1300 080/04 RMK AO2 T02560233
53915KARA ARA20160827051510008/27/16 05:15:31  5-MIN KARA 271115Z 07003KT 8SM CLR 26/23 A2996 0 87 1300 070/03 RMK AO2 T02560233
53915KARA ARA20160827052010008/27/16 05:20:31  5-MIN KARA 271120Z 07004KT 8SM CLR 26/23 A2996 0 87 1300 070/04 RMK AO2 T02560233
53915KARA ARA20160827052510208/27/16 05:25:31  5-MIN KARA 271125Z 07004KT 8SM CLR 26/23 A2996 -10 87 1200 060/04 RMK AO2 T02560233
53915KARA ARA20160827053010208/27/16 05:30:31  5-MIN KARA 271130Z 06005KT 8SM CLR 26/23 A2996 -10 87 1200 060/05 RMK AO2 T02560233
53915KARA ARA20160827053510208/27/16 05:35:31  5-MIN KARA 271135Z 05006KT 8SM CLR 26/23 A2996 -10 87 1300 050/06 RMK AO2 T02560233
53915KARA ARA20160827054011308/27/16 05:40:31  5-MIN KARA 271140Z 05005KT 7SM CLR 26/23 A2996 -10 87 1200 050/05 RMK AO2 LTG DSNT S T02560233
53915KARA ARA20160827054511308/27/16 05:45:31  5-MIN KARA 271145Z 05005KT 7SM CLR 26/23 A2996 -10 87 1200 040/05 RMK AO2 LTG DSNT S T02560233
53915KARA ARA20160827055013808/27/16 05:50:31  5-MIN KARA 271150Z 05005KT 7SM CLR 26/24 A2997 -10 90 1200 050/05 RMK AO2 LTG DSNT S SLP147 T02560239 10267 20256 58008
53915KARA ARA20160827055510208/27/16 05:55:31  5-MIN KARA 271155Z 07003KT 8SM CLR 26/24 A2997 -10 90 1200 070/03 RMK AO2 T02560239
53915KARA ARA20160827060010208/27/16 06:00:31  5-MIN KARA 271200Z 07003KT 8SM CLR 26/24 A2997 -20 90 1200 070/03 RMK AO2 T02560239
53915KARA ARA20160827060510208/27/16 06:05:31  5-MIN KARA 271205Z 07003KT 8SM CLR 26/24 A2997 -20 90 1200 070/03 RMK AO2 T02560239
53915KARA ARA20160827061010208/27/16 06:10:31  5-MIN KARA 271210Z 08004KT 8SM CLR 26/24 A2997 -20 90 1200 080/04 RMK AO2 T02560239
53915KARA ARA20160827061510208/27/16 06:15:31  5-MIN KARA 271215Z 09004KT 8SM CLR 26/24 A2998 -20 90 1200 090/04 RMK AO2 T02560239
53915KARA ARA20160827062010208/27/16 06:20:31  5-MIN KARA 271220Z 09004KT 8SM CLR 26/24 A2998 -30 90 1200 090/04 RMK AO2 T02560239
53915KARA ARA20160827062510208/27/16 06:25:31  5-MIN KARA 271225Z 08004KT 8SM CLR 26/24 A2999 -30 90 1200 080/04 RMK AO2 T02560239
53915KARA ARA20160827063011408/27/16 06:30:31  5-MIN KARA 271230Z 07004KT 8SM CLR 26/24 A2999 -30 90 1200 070/04 RMK AO2 LTG DSNT SE T02560239
53915KARA ARA20160827063511708/27/16 06:35:31  5-MIN KARA 271235Z 08004KT 8SM FEW075 26/24 A2999 -30 90 1200 080/04 RMK AO2 LTG DSNT SE T02560239
53915KARA ARA20160827064012008/27/16 06:40:31  5-MIN KARA 271240Z 07005KT 8SM CLR 26/24 A2999 -30 90 1200 070/05 RMK AO2 LTG DSNT SE AND S T02560239
53915KARA ARA20160827064511308/27/16 06:45:31  5-MIN KARA 271245Z 07003KT 8SM CLR 26/24 A2998 -30 90 1200 070/03 RMK AO2 LTG DSNT S T02560239
53915KARA ARA20160827065012708/27/16 06:50:31  5-MIN KARA 271250Z 08004KT 8SM CLR 26/24 A2998 -30 90 1200 080/04 RMK AO2 LTG DSNT S AND SW SLP152 T02560239
53915KARA ARA20160827065512008/27/16 06:55:31  5-MIN KARA 271255Z 08003KT 8SM CLR 26/24 A2998 -20 90 1200 080/03 RMK AO2 LTG DSNT S AND SW T02560239
53915KARA ARA20160827070012008/27/16 07:00:31  5-MIN KARA 271300Z 08003KT 8SM CLR 26/24 A2998 -20 90 1200 080/03 RMK AO2 LTG DSNT S AND SW T02560239
53915KARA ARA20160827070511508/27/16 07:05:31  5-MIN KARA 271305Z 09003KT 7SM CLR 26/24 A2998 -30 90 1200 090/03 RMK AO2 LTG DSNT S-W T02560239
53915KARA ARA20160827071011508/27/16 07:10:31  5-MIN KARA 271310Z 08004KT 7SM CLR 26/24 A2999 -30 90 1200 080/04 RMK AO2 LTG DSNT S-W T02560239
53915KARA ARA20160827171511008/27/16 17:15:31  5-MIN KARA 272315Z AUTO 08010KT 10SM BKN100 26/23 A2992 20 81 1400 080/10 RMK AO2 T02610228
53915KARA ARA20160827172011008/27/16 17:20:31  5-MIN KARA 272320Z AUTO 07007KT 10SM BKN100 26/23 A2992 20 84 1300 070/07 RMK AO2 T02560228
53915KARA ARA20160827172511008/27/16 17:25:31  5-MIN KARA 272325Z AUTO 06006KT 10SM BKN100 26/23 A2992 30 84 1300 060/06 RMK AO2 T02560228
53915KARA ARA20160827173011008/27/16 17:30:31  5-MIN KARA 272330Z AUTO 07006KT 10SM SCT100 26/23 A2992 20 81 1400 070/06 RMK AO2 T02610228
53915KARA ARA20160827173511008/27/16 17:35:31  5-MIN KARA 272335Z AUTO 07006KT 10SM FEW100 26/23 A2992 20 81 1400 070/06 RMK AO2 T02610228
53915KARA ARA20160827174011008/27/16 17:40:31  5-MIN KARA 272340Z AUTO 06005KT 10SM FEW100 27/23 A2993 20 79 1400 060/05 RMK AO2 T02670228
53915KARA ARA20160827174511008/27/16 17:45:31  5-MIN KARA 272345Z AUTO 06006KT 10SM FEW100 27/22 A2992 20 76 1400 060/06 RMK AO2 T02670222
53915KARA ARA20160827175013808/27/16 17:50:31  5-MIN KARA 272350Z AUTO 06005KT 10SM CLR 27/22 A2992 20 76 1400 060/05 RMK AO2 SLP132 60023 T02670222 10311 20244 55015
53915KARA ARA20160827175510708/27/16 17:55:31  5-MIN KARA 272355Z AUTO 06004KT 10SM CLR 26/22 A2993 20 79 1300 060/04 RMK AO2 T02610222
53915KARA ARA20160827180010708/27/16 18:00:31  5-MIN KARA 280000Z AUTO 07004KT 10SM CLR 26/22 A2993 20 79 1300 070/04 RMK AO2 T02610222
53915KARA ARA20160827180510708/27/16 18:05:31  5-MIN KARA 280005Z AUTO 08006KT 10SM CLR 26/22 A2994 10 79 1300 080/06 RMK AO2 T02610222
53915KARA ARA20160827181011008/27/16 18:10:31  5-MIN KARA 280010Z AUTO 06005KT 10SM FEW110 26/22 A2994 10 79 1300 060/05 RMK AO2 T02560217
53915KARA ARA20160827181511008/27/16 18:15:31  5-MIN KARA 280015Z AUTO 08005KT 10SM FEW110 26/22 A2994 10 79 1300 080/05 RMK AO2 T02560217
53915KARA ARA20160827182010908/27/16 18:20:31  5-MIN KARA 280020Z AUTO 06005KT 10SM FEW110 26/22 A2995 0 79 1300 060/05 RMK AO2 T02560217
53915KARA ARA20160827182510908/27/16 18:25:31  5-MIN KARA 280025Z AUTO 05005KT 10SM FEW110 26/22 A2995 0 81 1300 050/05 RMK AO2 T02560222
53915KARA ARA20160827183010908/27/16 18:30:31  5-MIN KARA 280030Z AUTO 05004KT 10SM FEW110 26/22 A2995 0 81 1300 040/04 RMK AO2 T02560222
53915KARA ARA20160827183511108/27/16 18:35:31  5-MIN KARA 280035Z AUTO 03005KT 10SM FEW110 26/22 A2996 -10 81 1200 030/05 RMK AO2 T02560222
53915KARA ARA20160827184011808/27/16 18:40:31  5-MIN KARA 280040Z AUTO 04005KT 10SM FEW085 SCT110 26/22 A2996 -10 81 1200 040/05 RMK AO2 T02560222
53915KARA ARA20160827184511808/27/16 18:45:31  5-MIN KARA 280045Z AUTO 05007KT 10SM SCT085 SCT110 26/22 A2997 -10 81 1200 050/07 RMK AO2 T02560222
53915KARA ARA20160827185012008/27/16 18:50:31  5-MIN KARA 280050Z 04007KT 10SM SCT085 BKN110 26/22 A2997 -20 81 1200 040/07 RMK AO2 SLP148 T02560222
53915KARA ARA20160827185511308/27/16 18:55:31  5-MIN KARA 280055Z 05007KT 10SM BKN085 BKN110 26/22 A2997 -20 81 1200 050/07 RMK AO2 T02560222
53915KARA ARA20160827190011308/27/16 19:00:31  5-MIN KARA 280100Z 04008KT 10SM BKN085 BKN110 26/22 A2997 -20 81 1200 040/08 RMK AO2 T02560222
53915KARA ARA20160827190511308/27/16 19:05:31  5-MIN KARA 280105Z 04006KT 10SM BKN090 BKN110 26/22 A2997 -20 81 1200 040/06 RMK AO2 T02560222
53915KARA ARA20160827191011308/27/16 19:10:31  5-MIN KARA 280110Z 04008KT 10SM SCT085 BKN110 26/22 A2997 -20 81 1200 040/08 RMK AO2 T02560222
53915KARA ARA20160827191510608/27/16 19:15:31  5-MIN KARA 280115Z 04008KT 10SM SCT090 26/22 A2997 -20 81 1200 040/08 RMK AO2 T02560222
53915KARA ARA20160827192010608/27/16 19:20:31  5-MIN KARA 280120Z 04008KT 10SM FEW090 26/22 A2997 -20 81 1200 040/08 RMK AO2 T02560222
53915KARA ARA20160827192510608/27/16 19:25:31  5-MIN KARA 280125Z 05008KT 10SM FEW090 26/22 A2997 -20 81 1200 050/08 RMK AO2 T02560222
53915KARA ARA20160827193010308/27/16 19:30:31  5-MIN KARA 280130Z 04009KT 10SM CLR 26/23 A2998 -20 84 1200 040/09 RMK AO2 T02560228
53915KARA ARA20160827193510308/27/16 19:35:31  5-MIN KARA 280135Z 05009KT 10SM CLR 26/23 A2998 -20 84 1200 050/09 RMK AO2 T02560228
53915KARA ARA20160827194010308/27/16 19:40:31  5-MIN KARA 280140Z 05008KT 10SM CLR 26/23 A2998 -20 84 1200 050/08 RMK AO2 T02560228
53915KARA ARA20160827194510308/27/16 19:45:31  5-MIN KARA 280145Z 05007KT 10SM CLR 26/22 A2998 -20 81 1200 050/07 RMK AO2 T02560222
53915KARA ARA20160827195011008/27/16 19:50:31  5-MIN KARA 280150Z 06008KT 10SM CLR 25/22 A2998 -20 84 1200 060/08 RMK AO2 SLP150 T02500222
53915KARA ARA20160827195510308/27/16 19:55:31  5-MIN KARA 280155Z 06007KT 10SM CLR 25/22 A2998 -20 84 1200 060/07 RMK AO2 T02500222
53915KARA ARA20160827200010308/27/16 20:00:31  5-MIN KARA 280200Z 07008KT 10SM CLR 25/22 A2998 -20 84 1200 070/08 RMK AO2 T02500222
53915KARA ARA20160827200510808/27/16 20:05:31  5-MIN KARA 280205Z AUTO 06009KT 10SM CLR 25/22 A2998 -30 84 1200 060/09 RMK AO2 T02500222
53915KARA ARA20160827201010808/27/16 20:10:31  5-MIN KARA 280210Z AUTO 05009KT 10SM CLR 25/22 A2998 -30 84 1200 050/09 RMK AO2 T02500222
53915KARA ARA20160827201510808/27/16 20:15:31  5-MIN KARA 280215Z AUTO 04008KT 10SM CLR 25/22 A2998 -30 84 1200 040/08 RMK AO2 T02500222
53915KARA ARA20160827202010808/27/16 20:20:31  5-MIN KARA 280220Z AUTO 05007KT 10SM CLR 25/23 A2998 -20 87 1200 040/07 RMK AO2 T02500228
53915KARA ARA20160827202510808/27/16 20:25:31  5-MIN KARA 280225Z AUTO 04009KT 10SM CLR 24/23 A2998 -20 90 1100 040/09 RMK AO2 T02440228
53915KARA ARA20160827203010808/27/16 20:30:31  5-MIN KARA 280230Z AUTO 04007KT 10SM CLR 24/23 A2998 -20 90 1100 040/07 RMK AO2 T02440228
53915KARA ARA20160827203510808/27/16 20:35:31  5-MIN KARA 280235Z AUTO 03007KT 10SM CLR 24/23 A2998 -20 90 1100 030/07 RMK AO2 T02440228
53915KARA ARA20160827204010808/27/16 20:40:31  5-MIN KARA 280240Z AUTO 04006KT 10SM CLR 24/23 A2998 -20 90 1100 040/06 RMK AO2 T02440228
53915KARA ARA20160827204510808/27/16 20:45:31  5-MIN KARA 280245Z AUTO 04007KT 10SM CLR 24/23 A2997 -20 90 1100 030/07 RMK AO2 T02440228
53915KARA ARA20160827205012108/27/16 20:50:31  5-MIN KARA 280250Z AUTO 05006KT 10SM CLR 24/23 A2997 -20 90 1100 050/06 RMK AO2 SLP149 T02440228 58005
53915KARA ARA20160827205510808/27/16 20:55:31  5-MIN KARA 280255Z AUTO 05007KT 10SM CLR 24/23 A2997 -20 90 1100 050/07 RMK AO2 T02440228
53915KARA ARA20160827210010808/27/16 21:00:31  5-MIN KARA 280300Z AUTO 05008KT 10SM CLR 24/23 A2997 -20 90 1100 050/08 RMK AO2 T02440228
53915KARA ARA20160827210510808/27/16 21:05:31  5-MIN KARA 280305Z AUTO 05007KT 10SM CLR 24/23 A2997 -10 90 1100 050/07 RMK AO2 T02440228
53915KARA ARA20160827211010808/27/16 21:10:31  5-MIN KARA 280310Z AUTO 05008KT 10SM CLR 24/23 A2997 -20 90 1100 050/08 RMK AO2 T02440228
53915KARA ARA20160827211510808/27/16 21:15:31  5-MIN KARA 280315Z AUTO 06007KT 10SM CLR 25/23 A2998 -20 87 1200 060/07 RMK AO2 T02500228
53915KARA ARA20160827212010808/27/16 21:20:31  5-MIN KARA 280320Z AUTO 06006KT 10SM CLR 24/23 A2998 -20 90 1100 060/06 RMK AO2 T02440228
53915KARA ARA20160827212510808/27/16 21:25:31  5-MIN KARA 280325Z AUTO 06006KT 10SM CLR 24/23 A2998 -20 90 1100 060/06 RMK AO2 T02440228
53915KARA ARA20160827213010808/27/16 21:30:31  5-MIN KARA 280330Z AUTO 05007KT 10SM CLR 24/23 A2998 -20 90 1100 050/07 RMK AO2 T02440228
53915KARA ARA20160827213510808/27/16 21:35:31  5-MIN KARA 280335Z AUTO 06005KT 10SM CLR 24/23 A2998 -20 90 1100 060/05 RMK AO2 T02440228
53915KARA ARA20160827214010808/27/16 21:40:31  5-MIN KARA 280340Z AUTO 07004KT 10SM CLR 24/23 A2999 -30 90 1100 070/04 RMK AO2 T02440228
53915KARA ARA20160827214510808/27/16 21:45:31  5-MIN KARA 280345Z AUTO 07004KT 10SM CLR 24/23 A2999 -30 90 1100 070/04 RMK AO2 T02440228
53915KARA ARA20160827215011508/27/16 21:50:31  5-MIN KARA 280350Z AUTO 05004KT 10SM CLR 24/23 A2999 -30 90 1100 050/04 RMK AO2 SLP154 T02440228
53915KARA ARA20160827215510808/27/16 21:55:31  5-MIN KARA 280355Z AUTO 06006KT 10SM CLR 24/23 A2999 -30 90 1100 060/06 RMK AO2 T02440228
53915KARA ARA20160827220010808/27/16 22:00:31  5-MIN KARA 280400Z AUTO 05004KT 10SM CLR 24/23 A2999 -30 90 1100 050/04 RMK AO2 T02440228
53915KARA ARA20160827220510808/27/16 22:05:31  5-MIN KARA 280405Z AUTO 06003KT 10SM CLR 24/23 A2999 -30 90 1100 060/03 RMK AO2 T02440228
53915KARA ARA20160827221010808/27/16 22:10:31  5-MIN KARA 280410Z AUTO 05005KT 10SM CLR 24/23 A2999 -30 90 1100 050/05 RMK AO2 T02440228
53915KARA ARA20160827221510808/27/16 22:15:31  5-MIN KARA 280415Z AUTO 05006KT 10SM CLR 24/23 A2999 -30 90 1100 050/06 RMK AO2 T02440228
53915KARA ARA20160827222010808/27/16 22:20:31  5-MIN KARA 280420Z AUTO 05005KT 10SM CLR 24/23 A2999 -30 90 1100 050/05 RMK AO2 T02440228
53915KARA ARA20160827222510808/27/16 22:25:31  5-MIN KARA 280425Z AUTO 05006KT 10SM CLR 24/23 A2999 -30 90 1100 050/06 RMK AO2 T02440228
53915KARA ARA20160827223010808/27/16 22:30:31  5-MIN KARA 280430Z AUTO 05006KT 10SM CLR 24/23 A2999 -30 90 1100 050/06 RMK AO2 T02440228
53915KARA ARA20160827223510808/27/16 22:35:31  5-MIN KARA 280435Z AUTO 06006KT 10SM CLR 24/23 A2999 -30 90 1100 050/06 RMK AO2 T02440228
53915KARA ARA20160827224010808/27/16 22:40:31  5-MIN KARA 280440Z AUTO 07006KT 10SM CLR 24/23 A2999 -30 90 1100 060/06 RMK AO2 T02440228
53915KARA ARA20160827224510808/27/16 22:45:31  5-MIN KARA 280445Z AUTO 06007KT 10SM CLR 24/23 A2999 -30 90 1100 060/07 RMK AO2 T02440228
53915KARA ARA20160827225011508/27/16 22:50:31  5-MIN KARA 280450Z AUTO 07007KT 10SM CLR 24/23 A2998 -30 90 1100 060/07 RMK AO2 SLP152 T02440228
53915KARA ARA20160827225510808/27/16 22:55:31  5-MIN KARA 280455Z AUTO 07008KT 10SM CLR 24/23 A2998 -30 90 1100 070/08 RMK AO2 T02440228
53915KARA ARA20160827230010808/27/16 23:00:31  5-MIN KARA 280500Z AUTO 07006KT 10SM CLR 24/23 A2998 -30 90 1100 070/06 RMK AO2 T02440228
53915KARA ARA20160827230510808/27/16 23:05:31  5-MIN KARA 280505Z AUTO 07005KT 10SM CLR 24/23 A2999 -30 90 1100 070/05 RMK AO2 T02440228
53915KARA ARA20160827231010808/27/16 23:10:31  5-MIN KARA 280510Z AUTO 07006KT 10SM CLR 24/23 A2999 -30 90 1100 060/06 RMK AO2 T02440228
53915KARA ARA20160827231510808/27/16 23:15:31  5-MIN KARA 280515Z AUTO 06005KT 10SM CLR 24/23 A2999 -30 90 1100 060/05 RMK AO2 T02440228
53915KARA ARA20160827232010808/27/16 23:20:31  5-MIN KARA 280520Z AUTO 06005KT 10SM CLR 24/23 A2998 -30 90 1100 060/05 RMK AO2 T02440228
53915KARA ARA20160827232510808/27/16 23:25:31  5-MIN KARA 280525Z AUTO 06005KT 10SM CLR 24/23 A2998 -20 90 1100 050/05 RMK AO2 T02440228
53915KARA ARA20160827233010808/27/16 23:30:31  5-MIN KARA 280530Z AUTO 05005KT 10SM CLR 24/23 A2998 -20 90 1100 050/05 RMK AO2 T02440228
53915KARA ARA20160827233510808/27/16 23:35:31  5-MIN KARA 280535Z AUTO 06005KT 10SM CLR 24/23 A2997 -20 90 1100 050/05 RMK AO2 T02440228
53915KARA ARA20160827234010808/27/16 23:40:31  5-MIN KARA 280540Z AUTO 05006KT 10SM CLR 24/23 A2997 -20 90 1100 050/06 RMK AO2 T02440228
53915KARA ARA20160827234510808/27/16 23:45:31  5-MIN KARA 280545Z AUTO 05006KT 10SM CLR 24/23 A2997 -20 90 1100 050/06 RMK AO2 T02440228
53915KARA ARA20160827235014308/27/16 23:50:31  5-MIN KARA 280550Z AUTO 04006KT 10SM CLR 24/23 A2997 -20 90 1100 040/06 RMK AO2 SLP148 T02440228 10261 20244 403110244 50016
53915KARA ARA20160827235510808/27/16 23:55:31  5-MIN KARA 280555Z AUTO 04007KT 10SM CLR 24/23 A2997 -20 90 1100 040/07 RMK AO2 T02440228
53915KARA ARA20160828000010808/28/16 00:00:31  5-MIN KARA 280600Z AUTO 04006KT 10SM CLR 24/23 A2997 -20 90 1100 040/06 RMK AO2 T02440228
53915KARA ARA20160828000510808/28/16 00:05:31  5-MIN KARA 280605Z AUTO 05007KT 10SM CLR 24/23 A2997 -20 90 1100 050/07 RMK AO2 T02440228
53915KARA ARA20160828001010808/28/16 00:10:31  5-MIN KARA 280610Z AUTO 05006KT 10SM CLR 24/23 A2997 -10 90 1100 050/06 RMK AO2 T02440228
53915KARA ARA20160828001510808/28/16 00:15:31  5-MIN KARA 280615Z AUTO 06005KT 10SM CLR 24/23 A2997 -10 90 1100 060/05 RMK AO2 T02440228
53915KARA ARA20160828002010808/28/16 00:20:31  5-MIN KARA 280620Z AUTO 07004KT 10SM CLR 24/23 A2997 -10 90 1100 070/04 RMK AO2 T02440228
53915KARA ARA20160828002510808/28/16 00:25:31  5-MIN KARA 280625Z AUTO 06006KT 10SM CLR 24/23 A2997 -10 90 1100 060/06 RMK AO2 T02440228
53915KARA ARA20160828003010808/28/16 00:30:31  5-MIN KARA 280630Z AUTO 06004KT 10SM CLR 24/23 A2997 -10 90 1100 060/04 RMK AO2 T02440228
53915KARA ARA20160828003510808/28/16 00:35:31  5-MIN KARA 280635Z AUTO 06005KT 10SM CLR 24/23 A2997 -10 90 1100 060/05 RMK AO2 T02440228
53915KARA ARA20160828004010808/28/16 00:40:31  5-MIN KARA 280640Z AUTO 06004KT 10SM CLR 24/23 A2997 -10 90 1100 050/04 RMK AO2 T02440228
53915KARA ARA20160828004510808/28/16 00:45:31  5-MIN KARA 280645Z AUTO 07005KT 10SM CLR 24/23 A2997 -20 90 1100 060/05 RMK AO2 T02440228
53915KARA ARA20160828005011508/28/16 00:50:31  5-MIN KARA 280650Z AUTO 07003KT 10SM CLR 24/23 A2997 -20 90 1100 070/03 RMK AO2 SLP148 T02440228
53915KARA ARA20160828005510808/28/16 00:55:31  5-MIN KARA 280655Z AUTO 06003KT 10SM CLR 24/23 A2997 -20 90 1100 060/03 RMK AO2 T02440228
53915KARA ARA20160828010010808/28/16 01:00:31  5-MIN KARA 280700Z AUTO 05003KT 10SM CLR 24/23 A2997 -20 90 1100 050/03 RMK AO2 T02440228
53915KARA ARA20160828010510808/28/16 01:05:31  5-MIN KARA 280705Z AUTO 06003KT 10SM CLR 24/23 A2997 -20 90 1100 050/03 RMK AO2 T02440228
53915KARA ARA20160828011010808/28/16 01:10:31  5-MIN KARA 280710Z AUTO 07005KT 10SM CLR 24/23 A2997 -20 90 1100 070/05 RMK AO2 T02440228
53915KARA ARA20160828011510808/28/16 01:15:31  5-MIN KARA 280715Z AUTO 07005KT 10SM CLR 24/23 A2997 -10 90 1100 070/05 RMK AO2 T02440228
53915KARA ARA20160828012010808/28/16 01:20:31  5-MIN KARA 280720Z AUTO 07004KT 10SM CLR 24/23 A2997 -10 90 1100 070/04 RMK AO2 T02440228
53915KARA ARA20160828012510808/28/16 01:25:31  5-MIN KARA 280725Z AUTO 07004KT 10SM CLR 24/23 A2997 -10 90 1100 070/04 RMK AO2 T02440228
53915KARA ARA20160828013010808/28/16 01:30:31  5-MIN KARA 280730Z AUTO 08004KT 10SM CLR 24/23 A2997 -10 90 1100 080/04 RMK AO2 T02440228
53915KARA ARA20160828013510808/28/16 01:35:31  5-MIN KARA 280735Z AUTO 08005KT 10SM CLR 24/23 A2997 -10 93 1100 080/05 RMK AO2 T02390228
53915KARA ARA20160828014010808/28/16 01:40:31  5-MIN KARA 280740Z AUTO 08004KT 10SM CLR 24/23 A2997 -10 90 1100 080/04 RMK AO2 T02440228
53915KARA ARA20160828014510708/28/16 01:45:31  5-MIN KARA 280745Z AUTO 07004KT 9SM CLR 24/23 A2997 -10 93 1100 070/04 RMK AO2 T02390228
53915KARA ARA20160828015011408/28/16 01:50:31  5-MIN KARA 280750Z AUTO 07005KT 9SM CLR 24/23 A2997 -10 93 1100 070/05 RMK AO2 SLP147 T02390228
53915KARA ARA20160828015510708/28/16 01:55:31  5-MIN KARA 280755Z AUTO 06005KT 9SM CLR 24/23 A2996 -10 90 1100 060/05 RMK AO2 T02440228
53915KARA ARA20160828020010708/28/16 02:00:31  5-MIN KARA 280800Z AUTO 07005KT 9SM CLR 24/23 A2996 -10 90 1100 070/05 RMK AO2 T02440228
53915KARA ARA20160828020510708/28/16 02:05:31  5-MIN KARA 280805Z AUTO 07004KT 9SM CLR 24/23 A2996 -10 90 1100 070/04 RMK AO2 T02440228
53915KARA ARA20160828021010708/28/16 02:10:31  5-MIN KARA 280810Z AUTO 06006KT 9SM CLR 24/23 A2996 -10 90 1100 060/06 RMK AO2 T02440228
53915KARA ARA20160828021510508/28/16 02:15:31  5-MIN KARA 280815Z AUTO 07006KT 9SM CLR 24/23 A2996 0 90 1100 070/06 RMK AO2 T02440228
53915KARA ARA20160828022010508/28/16 02:20:31  5-MIN KARA 280820Z AUTO 07005KT 8SM CLR 24/23 A2996 0 90 1100 070/05 RMK AO2 T02440228
53915KARA ARA20160828022510508/28/16 02:25:31  5-MIN KARA 280825Z AUTO 07006KT 8SM CLR 24/23 A2996 0 90 1100 070/06 RMK AO2 T02440228
53915KARA ARA20160828023010508/28/16 02:30:31  5-MIN KARA 280830Z AUTO 08005KT 8SM CLR 24/23 A2996 0 90 1100 080/05 RMK AO2 T02440228
53915KARA ARA20160828023510508/28/16 02:35:31  5-MIN KARA 280835Z AUTO 07006KT 8SM CLR 24/23 A2996 0 90 1100 070/06 RMK AO2 T02440228
53915KARA ARA20160828024010508/28/16 02:40:31  5-MIN KARA 280840Z AUTO 07006KT 7SM CLR 24/23 A2996 0 90 1100 070/06 RMK AO2 T02440228
53915KARA ARA20160828024510508/28/16 02:45:31  5-MIN KARA 280845Z AUTO 08006KT 7SM CLR 24/23 A2996 0 90 1100 080/06 RMK AO2 T02440228
53915KARA ARA20160828025011808/28/16 02:50:31  5-MIN KARA 280850Z AUTO 08005KT 7SM CLR 24/23 A2996 0 90 1100 080/05 RMK AO2 SLP144 T02440228 58001
53915KARA ARA20160828025510708/28/16 02:55:31  5-MIN KARA 280855Z AUTO 08006KT 7SM CLR 24/23 A2996 -10 90 1100 080/06 RMK AO2 T02440228
53915KARA ARA20160828030010708/28/16 03:00:31  5-MIN KARA 280900Z AUTO 07005KT 7SM CLR 24/23 A2996 -10 90 1100 070/05 RMK AO2 T02440228
53915KARA ARA20160828030510708/28/16 03:05:31  5-MIN KARA 280905Z AUTO 06005KT 7SM CLR 24/23 A2996 -10 90 1100 060/05 RMK AO2 T02440228
53915KARA ARA20160828031010708/28/16 03:10:31  5-MIN KARA 280910Z AUTO 06005KT 7SM CLR 24/23 A2996 -10 90 1100 060/05 RMK AO2 T02440228
53915KARA ARA20160828031510708/28/16 03:15:31  5-MIN KARA 280915Z AUTO 06005KT 7SM CLR 24/23 A2996 -10 90 1100 060/05 RMK AO2 T02440228
53915KARA ARA20160828032010708/28/16 03:20:31  5-MIN KARA 280920Z AUTO 06005KT 7SM CLR 24/23 A2996 -10 90 1100 060/05 RMK AO2 T02440228
53915KARA ARA20160828032510708/28/16 03:25:31  5-MIN KARA 280925Z AUTO 06005KT 7SM CLR 24/23 A2996 -10 90 1100 060/05 RMK AO2 T02440228
53915KARA ARA20160828033010708/28/16 03:30:31  5-MIN KARA 280930Z AUTO 06006KT 7SM CLR 24/23 A2996 -10 90 1100 060/06 RMK AO2 T02440228
53915KARA ARA20160828033510708/28/16 03:35:31  5-MIN KARA 280935Z AUTO 06005KT 7SM CLR 24/23 A2996 -10 90 1100 060/05 RMK AO2 T02440228
53915KARA ARA20160828034010708/28/16 03:40:31  5-MIN KARA 280940Z AUTO 05005KT 7SM CLR 24/23 A2997 -10 90 1100 050/05 RMK AO2 T02440228
53915KARA ARA20160828034510708/28/16 03:45:31  5-MIN KARA 280945Z AUTO 05006KT 7SM CLR 24/23 A2997 -10 93 1100 050/06 RMK AO2 T02440233
53915KARA ARA20160828035011408/28/16 03:50:31  5-MIN KARA 280950Z AUTO 05005KT 7SM CLR 24/23 A2997 -10 93 1100 050/05 RMK AO2 SLP147 T02440233
53915KARA ARA20160828035510708/28/16 03:55:31  5-MIN KARA 280955Z AUTO 05005KT 7SM CLR 24/23 A2997 -10 93 1100 050/05 RMK AO2 T02440233
53915KARA ARA20160828040010708/28/16 04:00:31  5-MIN KARA 281000Z AUTO 05005KT 7SM CLR 24/23 A2996 -10 93 1100 050/05 RMK AO2 T02440233
53915KARA ARA20160828040510708/28/16 04:05:31  5-MIN KARA 281005Z AUTO 07005KT 7SM CLR 24/23 A2996 -10 93 1100 070/05 RMK AO2 T02440233
53915KARA ARA20160828041010708/28/16 04:10:31  5-MIN KARA 281010Z AUTO 06005KT 8SM CLR 24/23 A2996 -10 93 1100 060/05 RMK AO2 T02440233
53915KARA ARA20160828041510508/28/16 04:15:31  5-MIN KARA 281015Z AUTO 05007KT 8SM CLR 24/23 A2996 0 93 1100 050/07 RMK AO2 T02440233
53915KARA ARA20160828042010508/28/16 04:20:31  5-MIN KARA 281020Z AUTO 06006KT 8SM CLR 24/23 A2996 0 93 1100 060/06 RMK AO2 T02440233
53915KARA ARA20160828042510508/28/16 04:25:31  5-MIN KARA 281025Z AUTO 05006KT 8SM CLR 24/23 A2996 0 93 1100 050/06 RMK AO2 T02440233
53915KARA ARA20160828043010508/28/16 04:30:31  5-MIN KARA 281030Z AUTO 06005KT 8SM CLR 24/23 A2996 0 93 1100 060/05 RMK AO2 T02440233
53915KARA ARA20160828043510708/28/16 04:35:31  5-MIN KARA 281035Z AUTO 06007KT 9SM CLR 24/23 A2996 -10 93 1100 060/07 RMK AO2 T02440233
53915KARA ARA20160828044010708/28/16 04:40:31  5-MIN KARA 281040Z AUTO 05006KT 9SM CLR 24/23 A2997 -10 93 1100 050/06 RMK AO2 T02440233
53915KARA ARA20160828044510708/28/16 04:45:31  5-MIN KARA 281045Z AUTO 05007KT 9SM CLR 24/23 A2996 -10 93 1100 050/07 RMK AO2 T02440233
53915KARA ARA20160828045010908/28/16 04:50:31  5-MIN KARA 281050Z 06007KT 9SM CLR 24/23 A2997 -10 93 1100 060/07 RMK AO2 SLP147 T02440233
53915KARA ARA20160828045510208/28/16 04:55:31  5-MIN KARA 281055Z 06006KT 9SM CLR 24/23 A2997 -10 93 1100 060/06 RMK AO2 T02440233
53915KARA ARA20160828050010208/28/16 05:00:31  5-MIN KARA 281100Z 06007KT 9SM CLR 24/23 A2997 -10 93 1100 060/07 RMK AO2 T02440233
53915KARA ARA20160828050510208/28/16 05:05:31  5-MIN KARA 281105Z 06008KT 9SM CLR 24/23 A2997 -10 90 1100 060/08 RMK AO2 T02440228
53915KARA ARA20160828051010208/28/16 05:10:31  5-MIN KARA 281110Z 06007KT 9SM CLR 24/23 A2997 -20 90 1100 060/07 RMK AO2 T02440228
53915KARA ARA20160828152011308/28/16 15:20:31  5-MIN KARA 282120Z 10007KT 10SM CLR 30/22 A2995 0 62 1800 100/07 RMK AO2 LTG DSNT NE T03000222
53915KARA ARA20160828152511308/28/16 15:25:31  5-MIN KARA 282125Z 09008KT 10SM CLR 30/22 A2995 0 62 1800 090/08 RMK AO2 LTG DSNT NE T03000222
53915KARA ARA20160828153011908/28/16 15:30:31  5-MIN KARA 282130Z 09008KT 10SM CLR 29/22 A2995 0 64 1700 080/08 RMK AO2 LTG DSNT N AND NE T02940222
53915KARA ARA20160828153511208/28/16 15:35:31  5-MIN KARA 282135Z 09007KT 10SM CLR 29/22 A2995 0 64 1700 090/07 RMK AO2 LTG DSNT N T02940222
53915KARA ARA20160828154011208/28/16 15:40:31  5-MIN KARA 282140Z 09007KT 10SM CLR 29/22 A2995 0 64 1700 090/07 RMK AO2 LTG DSNT N T02940222
53915KARA ARA20160828154511208/28/16 15:45:31  5-MIN KARA 282145Z 09006KT 10SM CLR 30/22 A2995 0 62 1800 090/06 RMK AO2 LTG DSNT N T03000222
53915KARA ARA20160828155011908/28/16 15:50:31  5-MIN KARA 282150Z 09006KT 10SM CLR 30/23 A2994 0 65 1800 090/06 RMK AO2 LTG DSNT N SLP139 T03000228
53915KARA ARA20160828155511208/28/16 15:55:31  5-MIN KARA 282155Z 09006KT 10SM CLR 30/23 A2995 0 65 1800 090/06 RMK AO2 LTG DSNT N T03000228
53915KARA ARA20160828160011808/28/16 16:00:31  5-MIN KARA 282200Z 10005KT 10SM CLR 30/23 A2995 0 65 1800 100/05 RMK AO2 LTG DSNT N AND E T03000228
53915KARA ARA20160828160511808/28/16 16:05:31  5-MIN KARA 282205Z 10006KT 10SM CLR 30/23 A2995 0 65 1800 100/06 RMK AO2 LTG DSNT N AND E T03000228
53915KARA ARA20160828161011808/28/16 16:10:31  5-MIN KARA 282210Z 10006KT 10SM CLR 30/23 A2995 0 65 1800 090/06 RMK AO2 LTG DSNT N AND E T03000228
53915KARA ARA20160828161511808/28/16 16:15:31  5-MIN KARA 282215Z 10006KT 10SM CLR 30/23 A2995 0 65 1800 100/06 RMK AO2 LTG DSNT N AND E T03000228
53915KARA ARA20160828162011208/28/16 16:20:31  5-MIN KARA 282220Z 10005KT 10SM CLR 30/23 A2995 0 65 1800 090/05 RMK AO2 LTG DSNT N T03000228
53915KARA ARA20160828162510108/28/16 16:25:31  5-MIN KARA 282225Z 10006KT 10SM CLR 31/23 A2994 0 62 1800 100/06 RMK AO2 T03060228
53915KARA ARA20160828163011408/28/16 16:30:31  5-MIN KARA 282230Z 10006KT 10SM CLR 30/23 A2994 10 65 1800 100/06 RMK AO2 LTG DSNT NE T03000228
53915KARA ARA20160828163511308/28/16 16:35:31  5-MIN KARA 282235Z 10007KT 10SM CLR 30/23 A2994 0 65 1800 100/07 RMK AO2 LTG DSNT NE T03000228
53915KARA ARA20160828164011408/28/16 16:40:31  5-MIN KARA 282240Z 09006KT 10SM CLR 30/23 A2994 10 65 1800 090/06 RMK AO2 LTG DSNT NE T03000228
53915KARA ARA20160828164510208/28/16 16:45:31  5-MIN KARA 282245Z 09007KT 10SM CLR 30/23 A2994 10 65 1800 090/07 RMK AO2 T03000228
53915KARA ARA20160828165010908/28/16 16:50:31  5-MIN KARA 282250Z 10006KT 10SM CLR 29/23 A2994 10 67 1700 100/06 RMK AO2 SLP136 T02940228
53915KARA ARA20160828165510208/28/16 16:55:31  5-MIN KARA 282255Z 09006KT 10SM CLR 29/23 A2994 10 67 1700 090/06 RMK AO2 T02940228
53915KARA ARA20160828170010208/28/16 17:00:31  5-MIN KARA 282300Z 07004KT 10SM CLR 29/23 A2993 10 67 1700 070/04 RMK AO2 T02940228
53915KARA ARA20160828170510208/28/16 17:05:31  5-MIN KARA 282305Z 08006KT 10SM CLR 29/23 A2993 20 67 1700 080/06 RMK AO2 T02940228
53915KARA ARA20160828171010208/28/16 17:10:31  5-MIN KARA 282310Z 07005KT 10SM CLR 29/23 A2993 10 67 1700 070/05 RMK AO2 T02940228
53915KARA ARA20160828171510208/28/16 17:15:31  5-MIN KARA 282315Z 07006KT 10SM CLR 29/23 A2993 10 71 1700 070/06 RMK AO2 T02890233
53915KARA ARA20160828172010208/28/16 17:20:31  5-MIN KARA 282320Z 07007KT 10SM CLR 29/23 A2993 20 71 1700 070/07 RMK AO2 T02890233
53915KARA ARA20160828172510208/28/16 17:25:31  5-MIN KARA 282325Z 07006KT 10SM CLR 29/23 A2993 20 71 1700 070/06 RMK AO2 T02890233
53915KARA ARA20160828173010208/28/16 17:30:31  5-MIN KARA 282330Z 07007KT 10SM CLR 29/23 A2993 20 71 1700 070/07 RMK AO2 T02890233
53915KARA ARA20160828173510208/28/16 17:35:31  5-MIN KARA 282335Z 08007KT 10SM CLR 29/23 A2993 20 71 1700 080/07 RMK AO2 T02890233
53915KARA ARA20160828174010208/28/16 17:40:31  5-MIN KARA 282340Z 08005KT 10SM CLR 29/23 A2992 30 71 1700 080/05 RMK AO2 T02890233
53915KARA ARA20160828174510208/28/16 17:45:31  5-MIN KARA 282345Z 08006KT 10SM CLR 28/23 A2992 20 74 1600 080/06 RMK AO2 T02830233
53915KARA ARA20160828175013308/28/16 17:50:31  5-MIN KARA 282350Z 07006KT 10SM CLR 28/23 A2992 20 74 1600 070/06 RMK AO2 SLP131 60002 T02830233 10317 20267 56011
53915KARA ARA20160828175510208/28/16 17:55:31  5-MIN KARA 282355Z 07006KT 10SM CLR 28/23 A2992 30 74 1600 070/06 RMK AO2 T02830233
53915KARA ARA20160828180010208/28/16 18:00:31  5-MIN KARA 290000Z 07006KT 10SM CLR 29/23 A2992 20 71 1700 070/06 RMK AO2 T02890233
53915KARA ARA20160828180510208/28/16 18:05:31  5-MIN KARA 290005Z 08005KT 10SM CLR 29/23 A2993 20 71 1700 080/05 RMK AO2 T02890233
53915KARA ARA20160828181010208/28/16 18:10:31  5-MIN KARA 290010Z 07005KT 10SM CLR 28/23 A2993 20 74 1600 070/05 RMK AO2 T02830233
53915KARA ARA20160828181510208/28/16 18:15:31  5-MIN KARA 290015Z 07004KT 10SM CLR 28/23 A2993 20 74 1600 070/04 RMK AO2 T02830233
53915KARA ARA20160828182010208/28/16 18:20:31  5-MIN KARA 290020Z 07006KT 10SM CLR 28/23 A2992 20 71 1600 070/06 RMK AO2 T02830228
53915KARA ARA20160828182510208/28/16 18:25:31  5-MIN KARA 290025Z 08005KT 10SM CLR 28/23 A2993 20 74 1500 070/05 RMK AO2 T02780228
53915KARA ARA20160828183010208/28/16 18:30:31  5-MIN KARA 290030Z 06005KT 10SM CLR 28/23 A2993 20 74 1500 050/05 RMK AO2 T02780228
53915KARA ARA20160828183510208/28/16 18:35:31  5-MIN KARA 290035Z 07005KT 10SM CLR 27/23 A2993 20 76 1500 070/05 RMK AO2 T02720228
53915KARA ARA20160828184010208/28/16 18:40:31  5-MIN KARA 290040Z 06005KT 10SM CLR 27/23 A2993 20 76 1500 060/05 RMK AO2 T02720228
53915KARA ARA20160828184510708/28/16 18:45:31  5-MIN KARA 290045Z AUTO 06005KT 10SM CLR 27/22 A2993 20 74 1500 060/05 RMK AO2 T02720222
53915KARA ARA20160828185011408/28/16 18:50:31  5-MIN KARA 290050Z AUTO 06004KT 10SM CLR 27/22 A2993 20 74 1500 060/04 RMK AO2 SLP134 T02720222
53915KARA ARA20160828185510708/28/16 18:55:31  5-MIN KARA 290055Z AUTO 06004KT 10SM CLR 27/22 A2993 20 76 1400 050/04 RMK AO2 T02670222
53915KARA ARA20160828190010708/28/16 19:00:31  5-MIN KARA 290100Z AUTO 06006KT 10SM CLR 27/23 A2993 20 79 1400 060/06 RMK AO2 T02670228
53915KARA ARA20160828190510708/28/16 19:05:31  5-MIN KARA 290105Z AUTO 06006KT 10SM CLR 27/23 A2993 20 79 1400 060/06 RMK AO2 T02670228
53915KARA ARA20160828191010708/28/16 19:10:31  5-MIN KARA 290110Z AUTO 06005KT 10SM CLR 27/23 A2993 20 79 1400 060/05 RMK AO2 T02670228
53915KARA ARA20160828191510708/28/16 19:15:31  5-MIN KARA 290115Z AUTO 07007KT 10SM CLR 27/23 A2993 10 79 1400 070/07 RMK AO2 T02670228
53915KARA ARA20160828192010708/28/16 19:20:31  5-MIN KARA 290120Z AUTO 07006KT 10SM CLR 27/23 A2994 10 79 1400 070/06 RMK AO2 T02670228
53915KARA ARA20160828192510708/28/16 19:25:31  5-MIN KARA 290125Z AUTO 07006KT 10SM CLR 27/23 A2994 10 79 1400 070/06 RMK AO2 T02670228
53915KARA ARA20160828193010708/28/16 19:30:31  5-MIN KARA 290130Z AUTO 08007KT 10SM CLR 27/23 A2994 10 79 1400 080/07 RMK AO2 T02670228
53915KARA ARA20160828193510608/28/16 19:35:31  5-MIN KARA 290135Z AUTO 07006KT 10SM CLR 27/23 A2995 0 79 1400 070/06 RMK AO2 T02670228
53915KARA ARA20160828194010608/28/16 19:40:31  5-MIN KARA 290140Z AUTO 08007KT 10SM CLR 26/23 A2995 0 81 1300 080/07 RMK AO2 T02610228
53915KARA ARA20160828194510608/28/16 19:45:31  5-MIN KARA 290145Z AUTO 08008KT 10SM CLR 27/23 A2995 0 79 1400 080/08 RMK AO2 T02670228
53915KARA ARA20160828195011308/28/16 19:50:31  5-MIN KARA 290150Z AUTO 08008KT 10SM CLR 27/22 A2995 0 76 1400 080/08 RMK AO2 SLP142 T02670222
53915KARA ARA20160828195510608/28/16 19:55:31  5-MIN KARA 290155Z AUTO 08008KT 10SM CLR 27/22 A2995 0 76 1400 080/08 RMK AO2 T02670222
53915KARA ARA20160828200010608/28/16 20:00:31  5-MIN KARA 290200Z AUTO 08007KT 10SM CLR 27/22 A2995 0 76 1400 080/07 RMK AO2 T02670222
53915KARA ARA20160828200510608/28/16 20:05:31  5-MIN KARA 290205Z AUTO 08006KT 10SM CLR 26/22 A2996 0 79 1300 080/06 RMK AO2 T02610222
53915KARA ARA20160828201010808/28/16 20:10:31  5-MIN KARA 290210Z AUTO 07004KT 10SM CLR 26/22 A2996 -10 79 1300 070/04 RMK AO2 T02610222
53915KARA ARA20160828201510808/28/16 20:15:31  5-MIN KARA 290215Z AUTO 06006KT 10SM CLR 26/22 A2997 -10 81 1200 060/06 RMK AO2 T02560222
53915KARA ARA20160828202010808/28/16 20:20:31  5-MIN KARA 290220Z AUTO 06005KT 10SM CLR 26/22 A2997 -10 79 1300 060/05 RMK AO2 T02610222
53915KARA ARA20160828202510808/28/16 20:25:31  5-MIN KARA 290225Z AUTO 05006KT 10SM CLR 26/22 A2997 -10 81 1200 050/06 RMK AO2 T02560222
53915KARA ARA20160828203010808/28/16 20:30:31  5-MIN KARA 290230Z AUTO 06006KT 10SM CLR 26/22 A2997 -10 81 1200 060/06 RMK AO2 T02560222
53915KARA ARA20160828203510808/28/16 20:35:31  5-MIN KARA 290235Z AUTO 07007KT 10SM CLR 26/22 A2997 -20 81 1200 070/07 RMK AO2 T02560222
53915KARA ARA20160828204010808/28/16 20:40:31  5-MIN KARA 290240Z AUTO 06007KT 10SM CLR 26/22 A2997 -20 81 1200 060/07 RMK AO2 T02560222
53915KARA ARA20160828204510808/28/16 20:45:31  5-MIN KARA 290245Z AUTO 07008KT 10SM CLR 26/22 A2997 -20 81 1200 070/08 RMK AO2 T02560222
53915KARA ARA20160828205012108/28/16 20:50:31  5-MIN KARA 290250Z AUTO 07009KT 10SM CLR 26/22 A2997 -20 81 1200 070/09 RMK AO2 SLP149 T02560222 58010
53915KARA ARA20160828205510808/28/16 20:55:31  5-MIN KARA 290255Z AUTO 07008KT 10SM CLR 26/22 A2998 -20 81 1200 070/08 RMK AO2 T02560222
53915KARA ARA20160828210010808/28/16 21:00:31  5-MIN KARA 290300Z AUTO 07007KT 10SM CLR 26/22 A2998 -20 81 1200 070/07 RMK AO2 T02560222
53915KARA ARA20160828210510808/28/16 21:05:31  5-MIN KARA 290305Z AUTO 08006KT 10SM CLR 25/22 A2998 -20 84 1200 080/06 RMK AO2 T02500222
53915KARA ARA20160828211010808/28/16 21:10:31  5-MIN KARA 290310Z AUTO 06007KT 10SM CLR 25/22 A2998 -20 84 1200 060/07 RMK AO2 T02500222
53915KARA ARA20160828211510808/28/16 21:15:31  5-MIN KARA 290315Z AUTO 06005KT 10SM CLR 25/22 A2998 -30 84 1200 060/05 RMK AO2 T02500222
53915KARA ARA20160828212010808/28/16 21:20:31  5-MIN KARA 290320Z AUTO 06004KT 10SM CLR 25/22 A2998 -30 84 1200 060/04 RMK AO2 T02500222
53915KARA ARA20160828212510808/28/16 21:25:31  5-MIN KARA 290325Z AUTO 06003KT 10SM CLR 25/22 A2999 -30 84 1200 060/03 RMK AO2 T02500222
53915KARA ARA20160828213010808/28/16 21:30:31  5-MIN KARA 290330Z AUTO 08003KT 10SM CLR 25/22 A2998 -30 84 1200 070/03 RMK AO2 T02500222
53915KARA ARA20160828213510808/28/16 21:35:31  5-MIN KARA 290335Z AUTO 00000KT 10SM CLR 25/22 A2998 -30 84 1200 000/00 RMK AO2 T02500222
53915KARA ARA20160828214010808/28/16 21:40:31  5-MIN KARA 290340Z AUTO 08003KT 10SM CLR 24/22 A2999 -30 84 1100 080/03 RMK AO2 T02440217
53915KARA ARA20160828214510808/28/16 21:45:31  5-MIN KARA 290345Z AUTO 08004KT 10SM CLR 24/22 A2999 -30 87 1100 080/04 RMK AO2 T02440222
53915KARA ARA20160828215011508/28/16 21:50:31  5-MIN KARA 290350Z AUTO 08004KT 10SM CLR 24/22 A2999 -30 87 1100 080/04 RMK AO2 SLP154 T02440222
53915KARA ARA20160828215510808/28/16 21:55:31  5-MIN KARA 290355Z AUTO 07004KT 10SM CLR 24/22 A2999 -30 87 1100 070/04 RMK AO2 T02440222
53915KARA ARA20160828220010808/28/16 22:00:31  5-MIN KARA 290400Z AUTO 07005KT 10SM CLR 24/22 A2999 -40 87 1100 070/05 RMK AO2 T02440222
53915KARA ARA20160828220510808/28/16 22:05:31  5-MIN KARA 290405Z AUTO 07004KT 10SM CLR 24/22 A2999 -40 87 1100 070/04 RMK AO2 T02440222
53915KARA ARA20160828221010808/28/16 22:10:31  5-MIN KARA 290410Z AUTO 07005KT 10SM CLR 24/22 A2999 -40 87 1100 070/05 RMK AO2 T02440222
53915KARA ARA20160828221510808/28/16 22:15:31  5-MIN KARA 290415Z AUTO 07005KT 10SM CLR 24/22 A3000 -40 87 1100 070/05 RMK AO2 T02440222
53915KARA ARA20160828222010808/28/16 22:20:31  5-MIN KARA 290420Z AUTO 06006KT 10SM CLR 24/22 A2999 -40 87 1100 060/06 RMK AO2 T02440222
53915KARA ARA20160828222510808/28/16 22:25:31  5-MIN KARA 290425Z AUTO 06007KT 10SM CLR 24/22 A2999 -40 87 1100 060/07 RMK AO2 T02440222
53915KARA ARA20160828223010808/28/16 22:30:31  5-MIN KARA 290430Z AUTO 06006KT 10SM CLR 24/22 A2999 -40 87 1100 060/06 RMK AO2 T02440222
53915KARA ARA20160828223510808/28/16 22:35:31  5-MIN KARA 290435Z AUTO 06007KT 10SM CLR 24/23 A2999 -30 90 1100 060/07 RMK AO2 T02440228
53915KARA ARA20160828224010808/28/16 22:40:31  5-MIN KARA 290440Z AUTO 06007KT 10SM CLR 24/23 A2999 -30 90 1100 060/07 RMK AO2 T02440228
53915KARA ARA20160828224510808/28/16 22:45:31  5-MIN KARA 290445Z AUTO 05006KT 10SM CLR 24/23 A2999 -30 90 1100 050/06 RMK AO2 T02440228
53915KARA ARA20160828225011508/28/16 22:50:31  5-MIN KARA 290450Z AUTO 06005KT 10SM CLR 24/23 A2999 -30 90 1100 060/05 RMK AO2 SLP155 T02440228
53915KARA ARA20160828225510808/28/16 22:55:31  5-MIN KARA 290455Z AUTO 06005KT 10SM CLR 24/23 A2999 -40 90 1100 060/05 RMK AO2 T02440228
53915KARA ARA20160828230010808/28/16 23:00:31  5-MIN KARA 290500Z AUTO 05006KT 10SM CLR 24/23 A2999 -40 90 1100 050/06 RMK AO2 T02440228
53915KARA ARA20160828230510808/28/16 23:05:31  5-MIN KARA 290505Z AUTO 06006KT 10SM CLR 24/23 A2999 -40 90 1100 060/06 RMK AO2 T02440228
53915KARA ARA20160828231010808/28/16 23:10:31  5-MIN KARA 290510Z AUTO 06006KT 10SM CLR 24/23 A2999 -40 90 1100 060/06 RMK AO2 T02440228
53915KARA ARA20160828231510808/28/16 23:15:31  5-MIN KARA 290515Z AUTO 06007KT 10SM CLR 24/23 A2999 -40 90 1100 060/07 RMK AO2 T02440228
53915KARA ARA20160828232010808/28/16 23:20:31  5-MIN KARA 290520Z AUTO 06006KT 10SM CLR 24/23 A2999 -40 90 1100 060/06 RMK AO2 T02440228
53915KARA ARA20160828232510808/28/16 23:25:31  5-MIN KARA 290525Z AUTO 06005KT 10SM CLR 24/23 A2999 -30 90 1100 060/05 RMK AO2 T02440228
53915KARA ARA20160828233010808/28/16 23:30:31  5-MIN KARA 290530Z AUTO 06006KT 10SM CLR 24/23 A2998 -30 90 1100 060/06 RMK AO2 T02440228
53915KARA ARA20160828233510808/28/16 23:35:31  5-MIN KARA 290535Z AUTO 06005KT 10SM CLR 24/23 A2998 -30 90 1100 060/05 RMK AO2 T02440228
53915KARA ARA20160828234010808/28/16 23:40:31  5-MIN KARA 290540Z AUTO 06005KT 10SM CLR 24/23 A2998 -30 90 1100 050/05 RMK AO2 T02440228
53915KARA ARA20160828234510808/28/16 23:45:31  5-MIN KARA 290545Z AUTO 06005KT 10SM CLR 24/23 A2998 -20 90 1100 060/05 RMK AO2 T02440228
53915KARA ARA20160828235014308/28/16 23:50:31  5-MIN KARA 290550Z AUTO 05006KT 10SM CLR 24/23 A2998 -20 90 1100 050/06 RMK AO2 SLP150 T02440228 10289 20244 403280239 53019
53915KARA ARA20160828235510808/28/16 23:55:31  5-MIN KARA 290555Z AUTO 05007KT 10SM CLR 24/23 A2997 -20 90 1100 050/07 RMK AO2 T02440228
53915KARA ARA20160829000010808/29/16 00:00:31  5-MIN KARA 290600Z AUTO 05007KT 10SM CLR 24/23 A2997 -10 90 1100 050/07 RMK AO2 T02440228
53915KARA ARA20160829000510808/29/16 00:05:31  5-MIN KARA 290605Z AUTO 05007KT 10SM CLR 24/23 A2997 -10 90 1100 040/07 RMK AO2 T02440228
53915KARA ARA20160829001010808/29/16 00:10:31  5-MIN KARA 290610Z AUTO 05007KT 10SM CLR 24/23 A2997 -10 90 1100 050/07 RMK AO2 T02440228
53915KARA ARA20160829001510808/29/16 00:15:31  5-MIN KARA 290615Z AUTO 05007KT 10SM CLR 24/23 A2996 -10 90 1100 050/07 RMK AO2 T02440228
53915KARA ARA20160829002010808/29/16 00:20:31  5-MIN KARA 290620Z AUTO 05006KT 10SM CLR 24/23 A2996 -10 90 1100 050/06 RMK AO2 T02440228
53915KARA ARA20160829002510808/29/16 00:25:31  5-MIN KARA 290625Z AUTO 05006KT 10SM CLR 24/23 A2996 -10 90 1100 050/06 RMK AO2 T02440228
53915KARA ARA20160829003010808/29/16 00:30:31  5-MIN KARA 290630Z AUTO 05006KT 10SM CLR 24/23 A2996 -10 90 1100 050/06 RMK AO2 T02440228
53915KARA ARA20160829003510808/29/16 00:35:31  5-MIN KARA 290635Z AUTO 05006KT 10SM CLR 24/23 A2996 -10 90 1100 050/06 RMK AO2 T02440228
53915KARA ARA20160829004010608/29/16 00:40:31  5-MIN KARA 290640Z AUTO 06005KT 10SM CLR 24/23 A2996 0 90 1100 060/05 RMK AO2 T02440228
53915KARA ARA20160829004510608/29/16 00:45:31  5-MIN KARA 290645Z AUTO 06006KT 10SM CLR 24/23 A2996 0 90 1100 060/06 RMK AO2 T02440228
53915KARA ARA20160829005011308/29/16 00:50:31  5-MIN KARA 290650Z AUTO 07004KT 10SM CLR 24/23 A2996 0 90 1100 060/04 RMK AO2 SLP143 T02440228
53915KARA ARA20160829005510608/29/16 00:55:31  5-MIN KARA 290655Z AUTO 06005KT 10SM CLR 24/23 A2995 0 90 1100 060/05 RMK AO2 T02440228
53915KARA ARA20160829010010608/29/16 01:00:31  5-MIN KARA 290700Z AUTO 06005KT 10SM CLR 24/23 A2995 0 90 1100 060/05 RMK AO2 T02440228
53915KARA ARA20160829010510608/29/16 01:05:31  5-MIN KARA 290705Z AUTO 07006KT 10SM CLR 24/23 A2995 0 90 1100 070/06 RMK AO2 T02440228
53915KARA ARA20160829011010608/29/16 01:10:31  5-MIN KARA 290710Z AUTO 07005KT 10SM CLR 24/23 A2995 0 90 1100 070/05 RMK AO2 T02440228
53915KARA ARA20160829011510908/29/16 01:15:31  5-MIN KARA 290715Z AUTO 07005KT 10SM FEW120 24/23 A2995 0 90 1100 070/05 RMK AO2 T02440228
53915KARA ARA20160829012010908/29/16 01:20:31  5-MIN KARA 290720Z AUTO 06007KT 10SM FEW120 24/23 A2996 0 90 1100 060/07 RMK AO2 T02440228
53915KARA ARA20160829012510908/29/16 01:25:31  5-MIN KARA 290725Z AUTO 06007KT 10SM FEW120 24/23 A2996 0 90 1100 060/07 RMK AO2 T02440228
53915KARA ARA20160829013010908/29/16 01:30:31  5-MIN KARA 290730Z AUTO 06006KT 10SM FEW120 24/23 A2996 0 90 1100 060/06 RMK AO2 T02440228
53915KARA ARA20160829013510908/29/16 01:35:31  5-MIN KARA 290735Z AUTO 05005KT 10SM FEW120 24/23 A2996 0 90 1100 050/05 RMK AO2 T02440228
53915KARA ARA20160829014010908/29/16 01:40:31  5-MIN KARA 290740Z AUTO 06005KT 10SM FEW120 24/23 A2996 0 90 1100 060/05 RMK AO2 T02440228
53915KARA ARA20160829014510608/29/16 01:45:31  5-MIN KARA 290745Z AUTO 06006KT 10SM CLR 24/23 A2995 0 90 1100 060/06 RMK AO2 T02440228
53915KARA ARA20160829015011308/29/16 01:50:31  5-MIN KARA 290750Z AUTO 06007KT 10SM CLR 24/23 A2995 0 90 1100 060/07 RMK AO2 SLP140 T02440228
53915KARA ARA20160829015510608/29/16 01:55:31  5-MIN KARA 290755Z AUTO 06008KT 10SM CLR 24/23 A2995 0 90 1100 060/08 RMK AO2 T02440228
53915KARA ARA20160829020010608/29/16 02:00:31  5-MIN KARA 290800Z AUTO 06007KT 10SM CLR 24/23 A2995 0 90 1100 060/07 RMK AO2 T02440228
53915KARA ARA20160829020510608/29/16 02:05:31  5-MIN KARA 290805Z AUTO 06008KT 10SM CLR 24/23 A2995 0 90 1100 060/08 RMK AO2 T02440228
53915KARA ARA20160829021010608/29/16 02:10:31  5-MIN KARA 290810Z AUTO 06007KT 10SM CLR 24/23 A2995 0 90 1100 060/07 RMK AO2 T02440228
53915KARA ARA20160829021510608/29/16 02:15:31  5-MIN KARA 290815Z AUTO 07006KT 10SM CLR 24/23 A2995 0 90 1100 060/06 RMK AO2 T02440228
53915KARA ARA20160829022010608/29/16 02:20:31  5-MIN KARA 290820Z AUTO 06007KT 10SM CLR 24/23 A2995 0 90 1100 060/07 RMK AO2 T02440228
53915KARA ARA20160829022510608/29/16 02:25:31  5-MIN KARA 290825Z AUTO 06007KT 10SM CLR 24/23 A2995 0 90 1100 060/07 RMK AO2 T02440228
53915KARA ARA20160829023010608/29/16 02:30:31  5-MIN KARA 290830Z AUTO 06005KT 10SM CLR 24/23 A2995 0 90 1100 060/05 RMK AO2 T02440228
53915KARA ARA20160829023510708/29/16 02:35:31  5-MIN KARA 290835Z AUTO 07006KT 10SM CLR 24/23 A2994 10 90 1100 070/06 RMK AO2 T02440228
53915KARA ARA20160829024010708/29/16 02:40:31  5-MIN KARA 290840Z AUTO 06006KT 10SM CLR 24/23 A2994 10 90 1100 060/06 RMK AO2 T02440228
53915KARA ARA20160829024510708/29/16 02:45:31  5-MIN KARA 290845Z AUTO 06006KT 10SM CLR 24/23 A2994 10 90 1100 060/06 RMK AO2 T02440228
53915KARA ARA20160829025012008/29/16 02:50:31  5-MIN KARA 290850Z AUTO 06006KT 10SM CLR 24/23 A2994 10 90 1100 060/06 RMK AO2 SLP138 T02440228 58001
53915KARA ARA20160829025510608/29/16 02:55:31  5-MIN KARA 290855Z AUTO 05005KT 10SM CLR 24/23 A2994 0 90 1100 050/05 RMK AO2 T02440228
53915KARA ARA20160829030010708/29/16 03:00:31  5-MIN KARA 290900Z AUTO 06006KT 10SM CLR 24/23 A2994 10 90 1100 060/06 RMK AO2 T02440228
53915KARA ARA20160829030510608/29/16 03:05:31  5-MIN KARA 290905Z AUTO 05004KT 10SM CLR 24/23 A2995 0 90 1100 050/04 RMK AO2 T02440228
53915KARA ARA20160829031010608/29/16 03:10:31  5-MIN KARA 290910Z AUTO 05006KT 10SM CLR 24/23 A2995 0 90 1100 050/06 RMK AO2 T02440228
53915KARA ARA20160829031510608/29/16 03:15:31  5-MIN KARA 290915Z AUTO 05005KT 10SM CLR 24/23 A2995 0 90 1100 050/05 RMK AO2 T02440228
53915KARA ARA20160829131514508/29/16 13:15:31  5-MIN KARA 291915Z 11010KT 10SM -RA FEW055 BKN095 OVC110 27/22 A3000 -40 76 1300 110/10 RMK AO2 LTG DSNT ALQDS P0000 T02670222
53915KARA ARA20160829132014508/29/16 13:20:31  5-MIN KARA 291920Z 12010KT 10SM -RA FEW050 BKN100 OVC110 26/22 A3000 -40 79 1300 120/10 RMK AO2 LTG DSNT ALQDS P0001 T02610222
53915KARA ARA20160829132513808/29/16 13:25:31  5-MIN KARA 291925Z 11008KT 10SM -RA BKN090 OVC110 26/23 A2999 -40 81 1300 110/08 RMK AO2 LTG DSNT ALQDS P0001 T02610228
53915KARA ARA20160829133014408/29/16 13:30:31  5-MIN KARA 291930Z 12009KT 10SM RA BKN095 OVC110 26/23 A2998 -30 81 1300 120/09 RMK AO2 LTG DSNT NW-NE PRESFR P0001 T02610228
53915KARA ARA20160829133514808/29/16 13:35:31  5-MIN KARA 291935Z 11007KT 10SM -RA BKN095 BKN120 26/23 A2998 -20 81 1300 110/07 RMK AO2 LTG DSNT N AND NW PRESFR P0001 T02610228
53915KARA ARA20160829134014808/29/16 13:40:31  5-MIN KARA 291940Z 13006KT 10SM -RA FEW050 BKN090 OVC110 26/23 A2997 -20 84 1200 130/06 RMK AO2 LTG DSNT N AND NW P0002 T02560228
53915KARA ARA20160829134514808/29/16 13:45:31  5-MIN KARA 291945Z 11006KT 10SM -RA FEW050 BKN090 OVC110 26/23 A2997 -10 84 1200 110/06 RMK AO2 LTG DSNT N AND NW P0002 T02560228
53915KARA ARA20160829135016208/29/16 13:50:31  5-MIN KARA 291950Z 10005KT 10SM -RA SCT055 BKN070 OVC095 26/23 A2996 -10 84 1200 100/05 RMK AO2 LTG DSNT N AND NW PRESFR SLP145 P0002 T02560228
53915KARA ARA20160829135514608/29/16 13:55:31  5-MIN KARA 291955Z 09007KT 10SM -RA SCT055 BKN070 OVC110 26/23 A2996 0 81 1300 090/07 RMK AO2 LTG DSNT N AND NW P0000 T02610228
53915KARA ARA20160829140014608/29/16 14:00:31  5-MIN KARA 292000Z 08006KT 10SM -RA SCT055 BKN075 OVC110 26/23 A2995 0 81 1300 080/06 RMK AO2 LTG DSNT N AND NW P0000 T02610228
53915KARA ARA20160829140514608/29/16 14:05:31  5-MIN KARA 292005Z 09005KT 10SM -RA BKN060 BKN075 OVC085 26/23 A2995 0 81 1300 090/05 RMK AO2 LTG DSNT N AND NW P0000 T02610228
53915KARA ARA20160829141013908/29/16 14:10:31  5-MIN KARA 292010Z 08005KT 10SM -RA BKN055 OVC075 26/23 A2995 0 81 1300 080/05 RMK AO2 LTG DSNT N AND NW P0000 T02610228
53915KARA ARA20160829141513908/29/16 14:15:31  5-MIN KARA 292015Z 06006KT 10SM -RA BKN050 OVC075 26/22 A2995 0 81 1300 060/06 RMK AO2 LTG DSNT N AND NW P0000 T02560222
53915KARA ARA20160829142013308/29/16 14:20:31  5-MIN KARA 292020Z VRB04KT 10SM -RA BKN055 OVC075 26/22 A2995 0 81 1300 VRB/04 RMK AO2 LTG DSNT NW P0000 T02560222
53915KARA ARA20160829142512808/29/16 14:25:31  5-MIN KARA 292025Z 04006KT 10SM -RA BKN050 BKN065 OVC075 26/22 A2995 0 81 1300 040/06 RMK AO2 P0000 T02560222
53915KARA ARA20160829143013908/29/16 14:30:31  5-MIN KARA 292030Z 04006KT 10SM -RA FEW039 BKN050 OVC080 26/22 A2995 0 81 1300 040/06 RMK AO2 LTG DSNT N P0000 T02560222
53915KARA ARA20160829143514608/29/16 14:35:31  5-MIN KARA 292035Z 04005KT 10SM -RA FEW039 BKN050 OVC070 26/23 A2995 0 84 1300 040/05 RMK AO2 LTG DSNT N AND NW P0000 T02560228
53915KARA ARA20160829144014608/29/16 14:40:31  5-MIN KARA 292040Z 05004KT 10SM -RA FEW039 BKN048 OVC060 26/22 A2995 0 81 1300 050/04 RMK AO2 LTG DSNT N AND NW P0000 T02560222
53915KARA ARA20160829144514008/29/16 14:45:31  5-MIN KARA 292045Z 04006KT 10SM -RA FEW039 BKN048 OVC060 26/22 A2995 0 81 1300 040/06 RMK AO2 LTG DSNT NW P0000 T02560222
53915KARA ARA20160829145014008/29/16 14:50:31  5-MIN KARA 292050Z 04007KT 10SM -RA BKN046 BKN060 26/23 A2995 0 84 1300 040/07 RMK AO2 SLP142 P0000 60002 T02560228 50002
53915KARA ARA20160829145512808/29/16 14:55:31  5-MIN KARA 292055Z 03005KT 10SM -RA FEW040 BKN046 BKN060 26/22 A2995 0 81 1300 030/05 RMK AO2 P0000 T02560222
53915KARA ARA20160829150012808/29/16 15:00:31  5-MIN KARA 292100Z 03005KT 10SM -RA SCT046 SCT060 BKN110 26/22 A2995 0 81 1300 030/05 RMK AO2 P0000 T02560222
53915KARA ARA20160829150512308/29/16 15:05:31  5-MIN KARA 292105Z 02006KT 10SM SCT046 BKN110 26/23 A2996 0 81 1300 020/06 RMK AO2 RAE02 P0000 T02610228
53915KARA ARA20160829151012308/29/16 15:10:31  5-MIN KARA 292110Z 02006KT 10SM FEW046 SCT110 26/23 A2996 0 81 1300 020/06 RMK AO2 RAE02 P0000 T02610228
53915KARA ARA20160829151512508/29/16 15:15:31  5-MIN KARA 292115Z 02008KT 10SM FEW047 SCT120 26/23 A2996 -10 81 1300 020/08 RMK AO2 RAE02 P0000 T02610228
53915KARA ARA20160829152011608/29/16 15:20:31  5-MIN KARA 292120Z 04005KT 10SM FEW110 26/23 A2996 0 81 1300 040/05 RMK AO2 RAE02 P0000 T02610228
53915KARA ARA20160829152511608/29/16 15:25:31  5-MIN KARA 292125Z 03007KT 10SM FEW110 26/23 A2996 0 81 1300 030/07 RMK AO2 RAE02 P0000 T02610228
53915KARA ARA20160829153011608/29/16 15:30:31  5-MIN KARA 292130Z 02006KT 10SM FEW110 26/23 A2995 0 81 1300 020/06 RMK AO2 RAE02 P0000 T02610228
53915KARA ARA20160829153511608/29/16 15:35:31  5-MIN KARA 292135Z 03006KT 10SM FEW120 27/23 A2995 0 79 1400 020/06 RMK AO2 RAE02 P0000 T02670228
53915KARA ARA20160829154011308/29/16 15:40:31  5-MIN KARA 292140Z 02006KT 10SM CLR 26/23 A2995 0 81 1300 020/06 RMK AO2 RAE02 P0000 T02610228
53915KARA ARA20160829154511308/29/16 15:45:31  5-MIN KARA 292145Z 02007KT 10SM CLR 26/23 A2995 0 81 1300 020/07 RMK AO2 RAE02 P0000 T02610228
53915KARA ARA20160829155012008/29/16 15:50:31  5-MIN KARA 292150Z 02006KT 10SM CLR 27/23 A2995 0 79 1400 020/06 RMK AO2 RAE02 SLP140 P0000 T02670228
53915KARA ARA20160829155510108/29/16 15:55:31  5-MIN KARA 292155Z 02005KT 10SM CLR 27/23 A2994 0 79 1400 020/05 RMK AO2 T02670228
53915KARA ARA20160829160010108/29/16 16:00:31  5-MIN KARA 292200Z 04004KT 10SM CLR 27/23 A2994 0 79 1400 040/04 RMK AO2 T02670228
53915KARA ARA20160829160510108/29/16 16:05:31  5-MIN KARA 292205Z 04004KT 10SM CLR 27/23 A2994 0 79 1400 040/04 RMK AO2 T02670228
53915KARA ARA20160829161010108/29/16 16:10:31  5-MIN KARA 292210Z 04005KT 10SM CLR 27/23 A2994 0 79 1400 040/05 RMK AO2 T02670228
53915KARA ARA20160829161510108/29/16 16:15:31  5-MIN KARA 292215Z 04006KT 10SM CLR 27/23 A2994 0 79 1400 040/06 RMK AO2 T02670228
53915KARA ARA20160829162010108/29/16 16:20:31  5-MIN KARA 292220Z 04005KT 10SM CLR 27/23 A2995 0 79 1400 040/05 RMK AO2 T02670228
53915KARA ARA20160829162510108/29/16 16:25:31  5-MIN KARA 292225Z 04006KT 10SM CLR 27/23 A2995 0 79 1400 040/06 RMK AO2 T02670228
53915KARA ARA20160829163010108/29/16 16:30:31  5-MIN KARA 292230Z 03009KT 10SM CLR 27/23 A2995 0 79 1400 020/09 RMK AO2 T02670228
53915KARA ARA20160829163510108/29/16 16:35:31  5-MIN KARA 292235Z 03007KT 10SM CLR 26/23 A2995 0 81 1300 030/07 RMK AO2 T02610228
53915KARA ARA20160829164010108/29/16 16:40:31  5-MIN KARA 292240Z 04007KT 10SM CLR 26/23 A2995 0 81 1300 040/07 RMK AO2 T02610228
53915KARA ARA20160829164510108/29/16 16:45:31  5-MIN KARA 292245Z 02009KT 10SM CLR 26/23 A2995 0 81 1300 020/09 RMK AO2 T02610228
53915KARA ARA20160829165010808/29/16 16:50:31  5-MIN KARA 292250Z 04008KT 10SM CLR 26/22 A2995 0 81 1300 030/08 RMK AO2 SLP141 T02560222
53915KARA ARA20160829165510108/29/16 16:55:31  5-MIN KARA 292255Z 03008KT 10SM CLR 26/22 A2995 0 79 1300 030/08 RMK AO2 T02610222
53915KARA ARA20160829170010108/29/16 17:00:31  5-MIN KARA 292300Z 02005KT 10SM CLR 26/22 A2995 0 79 1300 020/05 RMK AO2 T02610222
53915KARA ARA20160829170510108/29/16 17:05:31  5-MIN KARA 292305Z 02004KT 10SM CLR 26/23 A2994 0 81 1300 020/04 RMK AO2 T02610228
53915KARA ARA20160829171010208/29/16 17:10:31  5-MIN KARA 292310Z 03005KT 10SM CLR 26/23 A2994 10 81 1300 030/05 RMK AO2 T02610228
53915KARA ARA20160829171510208/29/16 17:15:31  5-MIN KARA 292315Z 01005KT 10SM CLR 26/23 A2993 10 84 1300 010/05 RMK AO2 T02560228
53915KARA ARA20160829172010208/29/16 17:20:31  5-MIN KARA 292320Z 00000KT 10SM CLR 26/23 A2993 10 81 1300 000/00 RMK AO2 T02610228
53915KARA ARA20160829172510208/29/16 17:25:31  5-MIN KARA 292325Z 01004KT 10SM CLR 27/23 A2993 10 79 1400 010/04 RMK AO2 T02670228
53915KARA ARA20160829173010208/29/16 17:30:31  5-MIN KARA 292330Z 01005KT 10SM CLR 26/23 A2993 20 81 1300 010/05 RMK AO2 T02610228
53915KARA ARA20160829173510208/29/16 17:35:31  5-MIN KARA 292335Z 36005KT 10SM CLR 26/22 A2993 20 79 1300 360/05 RMK AO2 T02610222
53915KARA ARA20160829174010208/29/16 17:40:31  5-MIN KARA 292340Z 36005KT 10SM CLR 26/22 A2993 20 79 1300 360/05 RMK AO2 T02610222
53915KARA ARA20160829174510208/29/16 17:45:31  5-MIN KARA 292345Z 35004KT 10SM CLR 26/22 A2993 20 79 1300 350/04 RMK AO2 T02610222
53915KARA ARA20160829175013308/29/16 17:50:31  5-MIN KARA 292350Z 02003KT 10SM CLR 26/22 A2993 20 79 1300 020/03 RMK AO2 SLP134 60002 T02610222 10283 20256 58019
53915KARA ARA20160829175510208/29/16 17:55:31  5-MIN KARA 292355Z 36003KT 10SM CLR 26/22 A2993 20 79 1300 360/03 RMK AO2 T02610222
53915KARA ARA20160829180010208/29/16 18:00:31  5-MIN KARA 300000Z 01003KT 10SM CLR 26/22 A2993 10 79 1300 010/03 RMK AO2 T02610222
53915KARA ARA20160829180510208/29/16 18:05:31  5-MIN KARA 300005Z 01004KT 10SM CLR 26/22 A2994 10 79 1300 010/04 RMK AO2 T02610222
53915KARA ARA20160829181010208/29/16 18:10:31  5-MIN KARA 300010Z 35004KT 10SM CLR 26/22 A2994 10 81 1300 350/04 RMK AO2 T02560222
53915KARA ARA20160829181510208/29/16 18:15:31  5-MIN KARA 300015Z 35004KT 10SM CLR 26/22 A2994 10 81 1300 350/04 RMK AO2 T02560222
53915KARA ARA20160829182010208/29/16 18:20:31  5-MIN KARA 300020Z 36004KT 10SM CLR 25/22 A2994 10 84 1200 360/04 RMK AO2 T02500222
53915KARA ARA20160829182510208/29/16 18:25:31  5-MIN KARA 300025Z 35003KT 10SM CLR 25/22 A2994 10 84 1200 350/03 RMK AO2 T02500222
53915KARA ARA20160829183010108/29/16 18:30:31  5-MIN KARA 300030Z 33003KT 10SM CLR 25/22 A2994 0 84 1200 330/03 RMK AO2 T02500222
53915KARA ARA20160829183510108/29/16 18:35:31  5-MIN KARA 300035Z 33004KT 10SM CLR 25/22 A2994 0 84 1200 330/04 RMK AO2 T02500222
53915KARA ARA20160829184010608/29/16 18:40:31  5-MIN KARA 300040Z AUTO 33004KT 10SM CLR 25/23 A2995 0 87 1200 330/04 RMK AO2 T02500228
53915KARA ARA20160829184510608/29/16 18:45:31  5-MIN KARA 300045Z AUTO 31003KT 10SM CLR 24/23 A2995 0 90 1100 310/03 RMK AO2 T02440228
53915KARA ARA20160829185011308/29/16 18:50:31  5-MIN KARA 300050Z AUTO 32003KT 10SM CLR 24/23 A2995 0 90 1100 320/03 RMK AO2 SLP140 T02440228
53915KARA ARA20160829185510608/29/16 18:55:31  5-MIN KARA 300055Z AUTO 35003KT 10SM CLR 24/23 A2995 0 90 1100 340/03 RMK AO2 T02440228
53915KARA ARA20160829190010608/29/16 19:00:31  5-MIN KARA 300100Z AUTO 35003KT 10SM CLR 24/23 A2995 0 90 1100 350/03 RMK AO2 T02440228
53915KARA ARA20160829190510608/29/16 19:05:31  5-MIN KARA 300105Z AUTO 35004KT 10SM CLR 24/22 A2995 0 87 1100 350/04 RMK AO2 T02440222
53915KARA ARA20160829191010608/29/16 19:10:31  5-MIN KARA 300110Z AUTO 35005KT 10SM CLR 24/22 A2995 0 87 1100 350/05 RMK AO2 T02440222
53915KARA ARA20160829191510608/29/16 19:15:31  5-MIN KARA 300115Z AUTO 34003KT 10SM CLR 24/22 A2996 0 87 1100 340/03 RMK AO2 T02440222
53915KARA ARA20160829192010608/29/16 19:20:31  5-MIN KARA 300120Z AUTO 36004KT 10SM CLR 24/22 A2996 0 87 1100 360/04 RMK AO2 T02440222
53915KARA ARA20160829192510608/29/16 19:25:31  5-MIN KARA 300125Z AUTO 36004KT 10SM CLR 24/22 A2996 0 90 1100 360/04 RMK AO2 T02390222
53915KARA ARA20160829193010808/29/16 19:30:31  5-MIN KARA 300130Z AUTO 36005KT 10SM CLR 24/22 A2996 -10 90 1100 360/05 RMK AO2 T02390222
53915KARA ARA20160829193510808/29/16 19:35:31  5-MIN KARA 300135Z AUTO 36005KT 10SM CLR 24/22 A2996 -10 90 1100 350/05 RMK AO2 T02390222
53915KARA ARA20160829194010808/29/16 19:40:31  5-MIN KARA 300140Z AUTO 35006KT 10SM CLR 24/22 A2996 -10 90 1100 350/06 RMK AO2 T02390222
53915KARA ARA20160829194510808/29/16 19:45:31  5-MIN KARA 300145Z AUTO 35006KT 10SM CLR 24/22 A2996 -10 90 1100 350/06 RMK AO2 T02390222
53915KARA ARA20160829195011508/29/16 19:50:31  5-MIN KARA 300150Z AUTO 35005KT 10SM CLR 24/22 A2997 -10 90 1100 350/05 RMK AO2 SLP147 T02390222
53915KARA ARA20160829195510808/29/16 19:55:31  5-MIN KARA 300155Z AUTO 35005KT 10SM CLR 24/22 A2997 -10 90 1000 350/05 RMK AO2 T02390222
53915KARA ARA20160829200010808/29/16 20:00:31  5-MIN KARA 300200Z AUTO 35005KT 10SM CLR 24/22 A2997 -20 90 1000 350/05 RMK AO2 T02390222
53915KARA ARA20160829200510808/29/16 20:05:31  5-MIN KARA 300205Z AUTO 36004KT 10SM CLR 24/22 A2997 -20 90 1000 350/04 RMK AO2 T02390222
53915KARA ARA20160829201010808/29/16 20:10:31  5-MIN KARA 300210Z AUTO 35004KT 10SM CLR 24/22 A2997 -20 90 1000 350/04 RMK AO2 T02390222
53915KARA ARA20160829201510808/29/16 20:15:31  5-MIN KARA 300215Z AUTO 35004KT 10SM CLR 24/22 A2997 -20 90 1000 350/04 RMK AO2 T02390222
53915KARA ARA20160829202010808/29/16 20:20:31  5-MIN KARA 300220Z AUTO 35004KT 10SM CLR 24/23 A2998 -20 93 1000 350/04 RMK AO2 T02390228
53915KARA ARA20160829202510808/29/16 20:25:31  5-MIN KARA 300225Z AUTO 36004KT 10SM CLR 24/22 A2998 -20 90 1000 360/04 RMK AO2 T02390222
53915KARA ARA20160829203010808/29/16 20:30:31  5-MIN KARA 300230Z AUTO 01004KT 10SM CLR 24/22 A2997 -20 90 1000 010/04 RMK AO2 T02390222
53915KARA ARA20160829203510808/29/16 20:35:31  5-MIN KARA 300235Z AUTO 01004KT 10SM CLR 24/22 A2997 -20 90 1000 010/04 RMK AO2 T02390222
53915KARA ARA20160829204010808/29/16 20:40:31  5-MIN KARA 300240Z AUTO 01005KT 10SM CLR 24/22 A2998 -20 90 1000 010/05 RMK AO2 T02390222
53915KARA ARA20160829204510808/29/16 20:45:31  5-MIN KARA 300245Z AUTO 01004KT 10SM CLR 24/22 A2998 -20 90 1000 010/04 RMK AO2 T02390222
53915KARA ARA20160829205012108/29/16 20:50:31  5-MIN KARA 300250Z AUTO 01004KT 10SM CLR 24/22 A2998 -20 90 1000 010/04 RMK AO2 SLP150 T02390222 58009
53915KARA ARA20160829205510808/29/16 20:55:31  5-MIN KARA 300255Z AUTO 01005KT 10SM CLR 24/22 A2998 -20 90 1000 010/05 RMK AO2 T02390222
53915KARA ARA20160829210010808/29/16 21:00:31  5-MIN KARA 300300Z AUTO 01005KT 10SM CLR 24/22 A2998 -30 90 1000 010/05 RMK AO2 T02390222
53915KARA ARA20160829210510808/29/16 21:05:31  5-MIN KARA 300305Z AUTO 36005KT 10SM CLR 24/22 A2998 -20 90 1000 360/05 RMK AO2 T02390222
53915KARA ARA20160829211010808/29/16 21:10:31  5-MIN KARA 300310Z AUTO 36005KT 10SM CLR 24/22 A2998 -20 90 1000 360/05 RMK AO2 T02390222
53915KARA ARA20160829211510808/29/16 21:15:31  5-MIN KARA 300315Z AUTO 36005KT 10SM CLR 24/22 A2998 -20 87 1100 360/05 RMK AO2 T02440222
53915KARA ARA20160829212010808/29/16 21:20:31  5-MIN KARA 300320Z AUTO 01004KT 10SM CLR 24/22 A2998 -30 87 1100 010/04 RMK AO2 T02440222
53915KARA ARA20160829212510808/29/16 21:25:31  5-MIN KARA 300325Z AUTO 01004KT 10SM CLR 24/22 A2998 -30 87 1100 010/04 RMK AO2 T02440222
53915KARA ARA20160829213010808/29/16 21:30:31  5-MIN KARA 300330Z AUTO 01004KT 10SM CLR 24/22 A2999 -30 87 1100 010/04 RMK AO2 T02440222
53915KARA ARA20160829213510808/29/16 21:35:31  5-MIN KARA 300335Z AUTO 36004KT 10SM CLR 24/22 A2999 -30 87 1100 360/04 RMK AO2 T02440222
53915KARA ARA20160829214010808/29/16 21:40:31  5-MIN KARA 300340Z AUTO 36004KT 10SM CLR 24/22 A2999 -30 87 1100 360/04 RMK AO2 T02440222
53915KARA ARA20160829214510808/29/16 21:45:31  5-MIN KARA 300345Z AUTO 35004KT 10SM CLR 24/22 A2999 -30 87 1100 350/04 RMK AO2 T02440222
53915KARA ARA20160829215011508/29/16 21:50:31  5-MIN KARA 300350Z AUTO 33003KT 10SM CLR 24/22 A2999 -30 90 1000 330/03 RMK AO2 SLP154 T02390222
53915KARA ARA20160829215510808/29/16 21:55:31  5-MIN KARA 300355Z AUTO 00000KT 10SM CLR 24/23 A2999 -30 93 1000 000/00 RMK AO2 T02390228
53915KARA ARA20160829220010808/29/16 22:00:31  5-MIN KARA 300400Z AUTO 00000KT 10SM CLR 24/23 A2999 -30 93 1000 000/00 RMK AO2 T02390228
53915KARA ARA20160829220510808/29/16 22:05:31  5-MIN KARA 300405Z AUTO 34003KT 10SM CLR 24/22 A2999 -30 90 1000 340/03 RMK AO2 T02390222
53915KARA ARA20160829221010808/29/16 22:10:31  5-MIN KARA 300410Z AUTO 36003KT 10SM CLR 24/22 A2999 -30 90 1000 360/03 RMK AO2 T02390222
53915KARA ARA20160829221510808/29/16 22:15:31  5-MIN KARA 300415Z AUTO 01003KT 10SM CLR 24/22 A2999 -30 90 1000 010/03 RMK AO2 T02390222
53915KARA ARA20160829222010808/29/16 22:20:31  5-MIN KARA 300420Z AUTO 01003KT 10SM CLR 24/22 A2999 -30 90 1000 010/03 RMK AO2 T02390222
53915KARA ARA20160829222510808/29/16 22:25:31  5-MIN KARA 300425Z AUTO 36004KT 10SM CLR 24/22 A2999 -30 90 1000 360/04 RMK AO2 T02390222
53915KARA ARA20160829223010808/29/16 22:30:31  5-MIN KARA 300430Z AUTO 01003KT 10SM CLR 24/22 A2998 -30 90 1000 360/03 RMK AO2 T02390222
53915KARA ARA20160829223510808/29/16 22:35:31  5-MIN KARA 300435Z AUTO 01003KT 10SM CLR 24/22 A2998 -30 90 1000 010/03 RMK AO2 T02390222
53915KARA ARA20160829224010808/29/16 22:40:31  5-MIN KARA 300440Z AUTO 00000KT 10SM CLR 24/22 A2998 -20 90 1000 000/00 RMK AO2 T02390222
53915KARA ARA20160829224510808/29/16 22:45:31  5-MIN KARA 300445Z AUTO 00000KT 10SM CLR 24/23 A2998 -30 93 1000 000/00 RMK AO2 T02390228
53915KARA ARA20160829225011508/29/16 22:50:31  5-MIN KARA 300450Z AUTO 00000KT 10SM CLR 24/23 A2998 -30 93 1000 000/00 RMK AO2 SLP152 T02390228
53915KARA ARA20160829225510808/29/16 22:55:31  5-MIN KARA 300455Z AUTO 00000KT 10SM CLR 24/23 A2998 -30 93 1000 000/00 RMK AO2 T02390228
53915KARA ARA20160829230010808/29/16 23:00:31  5-MIN KARA 300500Z AUTO 33003KT 10SM CLR 24/22 A2998 -30 90 1000 330/03 RMK AO2 T02390222
53915KARA ARA20160829230510808/29/16 23:05:31  5-MIN KARA 300505Z AUTO 34003KT 10SM CLR 24/22 A2998 -30 90 1000 340/03 RMK AO2 T02390222
53915KARA ARA20160829231010808/29/16 23:10:31  5-MIN KARA 300510Z AUTO 35003KT 10SM CLR 24/22 A2998 -30 90 1000 350/03 RMK AO2 T02390222
53915KARA ARA20160829231510808/29/16 23:15:31  5-MIN KARA 300515Z AUTO 35003KT 10SM CLR 24/22 A2998 -30 90 1000 350/03 RMK AO2 T02390222
53915KARA ARA20160829232010808/29/16 23:20:31  5-MIN KARA 300520Z AUTO 34004KT 10SM CLR 24/22 A2998 -20 90 1000 340/04 RMK AO2 T02390222
53915KARA ARA20160829232510808/29/16 23:25:31  5-MIN KARA 300525Z AUTO 33004KT 10SM CLR 24/22 A2998 -20 90 1000 330/04 RMK AO2 T02390222
53915KARA ARA20160829233010808/29/16 23:30:31  5-MIN KARA 300530Z AUTO 34004KT 10SM CLR 24/23 A2998 -20 93 1000 340/04 RMK AO2 T02390228
53915KARA ARA20160829233511108/29/16 23:35:31  5-MIN KARA 300535Z AUTO 34005KT 10SM FEW004 24/23 A2998 -20 93 1000 340/05 RMK AO2 T02390228
53915KARA ARA20160829234011108/29/16 23:40:31  5-MIN KARA 300540Z AUTO 34005KT 10SM FEW004 24/23 A2998 -20 93 1000 340/05 RMK AO2 T02390228
53915KARA ARA20160829234510808/29/16 23:45:31  5-MIN KARA 300545Z AUTO 35005KT 10SM CLR 24/23 A2998 -20 93 1000 350/05 RMK AO2 T02390228
53915KARA ARA20160829235014308/29/16 23:50:31  5-MIN KARA 300550Z AUTO 36005KT 10SM CLR 24/22 A2998 -20 90 1000 360/05 RMK AO2 SLP150 T02390222 10261 20239 403060239 51017
53915KARA ARA20160829235510808/29/16 23:55:31  5-MIN KARA 300555Z AUTO 01005KT 10SM CLR 24/22 A2998 -20 90 1000 360/05 RMK AO2 T02390222
53915KARA ARA20160830000010808/30/16 00:00:31  5-MIN KARA 300600Z AUTO 01004KT 10SM CLR 24/22 A2998 -20 90 1000 360/04 RMK AO2 T02390222
53915KARA ARA20160830000510808/30/16 00:05:31  5-MIN KARA 300605Z AUTO 36004KT 10SM CLR 24/22 A2998 -20 90 1000 360/04 RMK AO2 T02390222
53915KARA ARA20160830001010808/30/16 00:10:31  5-MIN KARA 300610Z AUTO 36005KT 10SM CLR 24/22 A2998 -20 90 1000 360/05 RMK AO2 T02390222
53915KARA ARA20160830001511108/30/16 00:15:31  5-MIN KARA 300615Z AUTO 01004KT 10SM FEW055 24/22 A2998 -20 90 1000 360/04 RMK AO2 T02390222
53915KARA ARA20160830002011108/30/16 00:20:31  5-MIN KARA 300620Z AUTO 01004KT 10SM SCT055 24/22 A2998 -20 90 1000 360/04 RMK AO2 T02390222
53915KARA ARA20160830002506308/30/16 00:25:31  5-MIN KARA 300625Z AUTO 01004KT 10SM FEW055 
53915KARA ARA20160830002511108/30/16 00:25:31  5-MIN KARA 300625Z AUTO 01004KT 10SM FEW055 24/22 A2998 -20 90 1000 010/04 RMK AO2 T02390222
53915KARA ARA20160830003011108/30/16 00:30:31  5-MIN KARA 300630Z AUTO 36005KT 10SM SCT055 24/22 A2997 -20 90 1000 360/05 RMK AO2 T02390222
53915KARA ARA20160830003511108/30/16 00:35:31  5-MIN KARA 300635Z AUTO 01004KT 10SM BKN055 24/22 A2997 -20 90 1000 010/04 RMK AO2 T02390222
53915KARA ARA20160830004011108/30/16 00:40:31  5-MIN KARA 300640Z AUTO 01004KT 10SM BKN055 24/22 A2997 -10 90 1100 010/04 RMK AO2 T02390222
53915KARA ARA20160830004511108/30/16 00:45:31  5-MIN KARA 300645Z AUTO 01004KT 10SM SCT055 24/22 A2997 -10 90 1100 010/04 RMK AO2 T02390222
53915KARA ARA20160830005011808/30/16 00:50:31  5-MIN KARA 300650Z AUTO 01003KT 10SM SCT055 24/22 A2996 -10 90 1100 360/03 RMK AO2 SLP146 T02390222
53915KARA ARA20160830005511108/30/16 00:55:31  5-MIN KARA 300655Z AUTO 35004KT 10SM SCT055 24/22 A2996 -10 90 1100 350/04 RMK AO2 T02390222
53915KARA ARA20160830010011108/30/16 01:00:31  5-MIN KARA 300700Z AUTO 35003KT 10SM FEW055 24/22 A2996 -10 90 1100 350/03 RMK AO2 T02390222
53915KARA ARA20160830010511108/30/16 01:05:31  5-MIN KARA 300705Z AUTO 34003KT 10SM FEW060 23/22 A2996 -10 93 1000 340/03 RMK AO2 T02330222
53915KARA ARA20160830011010808/30/16 01:10:31  5-MIN KARA 300710Z AUTO 35005KT 10SM CLR 23/22 A2996 -10 93 1000 350/05 RMK AO2 T02330222
53915KARA ARA20160830011510808/30/16 01:15:31  5-MIN KARA 300715Z AUTO 35006KT 10SM CLR 23/22 A2996 -10 93 1000 350/06 RMK AO2 T02330222
53915KARA ARA20160830012010808/30/16 01:20:31  5-MIN KARA 300720Z AUTO 35005KT 10SM CLR 23/22 A2996 -10 93 1000 350/05 RMK AO2 T02330222
53915KARA ARA20160830012510808/30/16 01:25:31  5-MIN KARA 300725Z AUTO 35006KT 10SM CLR 23/22 A2996 -10 93 1000 350/06 RMK AO2 T02330222
53915KARA ARA20160830013010808/30/16 01:30:31  5-MIN KARA 300730Z AUTO 35005KT 10SM CLR 23/22 A2996 -10 93 1000 350/05 RMK AO2 T02330222
53915KARA ARA20160830013510808/30/16 01:35:31  5-MIN KARA 300735Z AUTO 35005KT 10SM CLR 23/22 A2996 -10 93 1000 350/05 RMK AO2 T02330222
53915KARA ARA20160830014010808/30/16 01:40:31  5-MIN KARA 300740Z AUTO 36005KT 10SM CLR 23/22 A2996 -10 93 1000 360/05 RMK AO2 T02330222
53915KARA ARA20160830014510808/30/16 01:45:31  5-MIN KARA 300745Z AUTO 36005KT 10SM CLR 23/22 A2996 -10 93 1000 360/05 RMK AO2 T02330222
53915KARA ARA20160830015011508/30/16 01:50:31  5-MIN KARA 300750Z AUTO 36004KT 10SM CLR 23/22 A2996 -10 93 1000 360/04 RMK AO2 SLP145 T02330222
53915KARA ARA20160830015510608/30/16 01:55:31  5-MIN KARA 300755Z AUTO 01004KT 10SM CLR 23/22 A2996 0 93 1000 360/04 RMK AO2 T02330222
53915KARA ARA20160830020010608/30/16 02:00:31  5-MIN KARA 300800Z AUTO 01004KT 10SM CLR 24/22 A2996 0 90 1100 010/04 RMK AO2 T02390222
53915KARA ARA20160830020510608/30/16 02:05:31  5-MIN KARA 300805Z AUTO 36005KT 10SM CLR 24/22 A2996 0 90 1100 360/05 RMK AO2 T02390222
53915KARA ARA20160830021010608/30/16 02:10:31  5-MIN KARA 300810Z AUTO 36005KT 10SM CLR 24/22 A2996 0 90 1100 350/05 RMK AO2 T02390222
53915KARA ARA20160830021510608/30/16 02:15:31  5-MIN KARA 300815Z AUTO 34004KT 10SM CLR 23/22 A2996 0 93 1000 340/04 RMK AO2 T02330222
53915KARA ARA20160830022010608/30/16 02:20:31  5-MIN KARA 300820Z AUTO 33004KT 10SM CLR 23/22 A2996 0 93 1000 330/04 RMK AO2 T02330222
53915KARA ARA20160830022510608/30/16 02:25:31  5-MIN KARA 300825Z AUTO 34004KT 10SM CLR 23/22 A2996 0 93 1000 340/04 RMK AO2 T02330222
53915KARA ARA20160830023010608/30/16 02:30:31  5-MIN KARA 300830Z AUTO 35003KT 10SM CLR 23/22 A2995 0 93 1000 350/03 RMK AO2 T02330222
53915KARA ARA20160830023510608/30/16 02:35:31  5-MIN KARA 300835Z AUTO 34004KT 10SM CLR 23/22 A2995 0 93 1000 340/04 RMK AO2 T02330222
53915KARA ARA20160830024010608/30/16 02:40:31  5-MIN KARA 300840Z AUTO 35004KT 10SM CLR 23/22 A2995 0 93 1000 350/04 RMK AO2 T02330222
53915KARA ARA20160830024510608/30/16 02:45:31  5-MIN KARA 300845Z AUTO 35005KT 10SM CLR 23/22 A2995 0 93 1000 350/05 RMK AO2 T02330222
53915KARA ARA20160830025011908/30/16 02:50:31  5-MIN KARA 300850Z AUTO 35006KT 10SM CLR 23/22 A2995 0 93 1000 350/06 RMK AO2 SLP142 T02330222 58001
53915KARA ARA20160830025510608/30/16 02:55:31  5-MIN KARA 300855Z AUTO 36006KT 10SM CLR 23/22 A2995 0 90 1000 360/06 RMK AO2 T02330217
53915KARA ARA20160830030010608/30/16 03:00:31  5-MIN KARA 300900Z AUTO 36006KT 10SM CLR 23/22 A2995 0 90 1000 360/06 RMK AO2 T02330217
53915KARA ARA20160830030510608/30/16 03:05:31  5-MIN KARA 300905Z AUTO 36006KT 10SM CLR 23/22 A2995 0 93 1000 360/06 RMK AO2 T02330222
53915KARA ARA20160830031010608/30/16 03:10:31  5-MIN KARA 300910Z AUTO 36006KT 10SM CLR 23/22 A2995 0 93 1000 360/06 RMK AO2 T02330222
53915KARA ARA20160830031510608/30/16 03:15:31  5-MIN KARA 300915Z AUTO 36005KT 10SM CLR 23/22 A2995 0 93 1000 360/05 RMK AO2 T02330222
53915KARA ARA20160830032010608/30/16 03:20:31  5-MIN KARA 300920Z AUTO 36005KT 10SM CLR 23/22 A2995 0 90 1000 360/05 RMK AO2 T02330217
53915KARA ARA20160830032510608/30/16 03:25:31  5-MIN KARA 300925Z AUTO 36005KT 10SM CLR 23/22 A2995 0 90 1000 360/05 RMK AO2 T02330217
53915KARA ARA20160830033010608/30/16 03:30:31  5-MIN KARA 300930Z AUTO 36005KT 10SM CLR 23/22 A2995 0 90 1000 360/05 RMK AO2 T02330217
53915KARA ARA20160830033510608/30/16 03:35:31  5-MIN KARA 300935Z AUTO 36006KT 10SM CLR 23/22 A2995 0 90 1000 360/06 RMK AO2 T02330217
53915KARA ARA20160830034010608/30/16 03:40:31  5-MIN KARA 300940Z AUTO 36006KT 10SM CLR 23/22 A2994 0 90 1000 360/06 RMK AO2 T02330217
53915KARA ARA20160830034510708/30/16 03:45:31  5-MIN KARA 300945Z AUTO 36006KT 10SM CLR 23/22 A2994 10 90 1000 360/06 RMK AO2 T02330217
53915KARA ARA20160830035011408/30/16 03:50:31  5-MIN KARA 300950Z AUTO 36006KT 10SM CLR 23/22 A2994 10 90 1000 360/06 RMK AO2 SLP139 T02330217
53915KARA ARA20160830035510708/30/16 03:55:31  5-MIN KARA 300955Z AUTO 36006KT 10SM CLR 23/22 A2994 10 90 1000 360/06 RMK AO2 T02330217
53915KARA ARA20160830040010708/30/16 04:00:31  5-MIN KARA 301000Z AUTO 36005KT 10SM CLR 23/22 A2994 10 90 1000 360/05 RMK AO2 T02330217
53915KARA ARA20160830040510708/30/16 04:05:31  5-MIN KARA 301005Z AUTO 01005KT 10SM CLR 23/22 A2994 10 90 1000 360/05 RMK AO2 T02330217
53915KARA ARA20160830041010708/30/16 04:10:31  5-MIN KARA 301010Z AUTO 36005KT 10SM CLR 23/22 A2994 10 90 1000 360/05 RMK AO2 T02330217
53915KARA ARA20160830041510708/30/16 04:15:31  5-MIN KARA 301015Z AUTO 36005KT 10SM CLR 23/22 A2994 10 90 1000 360/05 RMK AO2 T02330217
53915KARA ARA20160830042010708/30/16 04:20:31  5-MIN KARA 301020Z AUTO 01007KT 10SM CLR 23/22 A2994 10 90 1000 010/07 RMK AO2 T02330217
53915KARA ARA20160830042510708/30/16 04:25:31  5-MIN KARA 301025Z AUTO 36007KT 10SM CLR 23/22 A2994 10 90 1000 360/07 RMK AO2 T02330217
53915KARA ARA20160830043010708/30/16 04:30:31  5-MIN KARA 301030Z AUTO 36005KT 10SM CLR 23/22 A2994 10 90 1000 360/05 RMK AO2 T02330217
53915KARA ARA20160830043510708/30/16 04:35:31  5-MIN KARA 301035Z AUTO 36006KT 10SM CLR 23/22 A2994 10 90 1000 360/06 RMK AO2 T02330217
53915KARA ARA20160830044010208/30/16 04:40:31  5-MIN KARA 301040Z 36006KT 10SM CLR 23/22 A2994 10 90 1000 360/06 RMK AO2 T02330217
53915KARA ARA20160830044510108/30/16 04:45:31  5-MIN KARA 301045Z 01005KT 10SM CLR 23/22 A2994 0 90 1000 010/05 RMK AO2 T02330217
53915KARA ARA20160830045010808/30/16 04:50:31  5-MIN KARA 301050Z 01006KT 10SM CLR 23/22 A2994 0 90 1000 010/06 RMK AO2 SLP139 T02330217
53915KARA ARA20160830045510108/30/16 04:55:31  5-MIN KARA 301055Z 01005KT 10SM CLR 23/22 A2995 0 90 1000 010/05 RMK AO2 T02330217
53915KARA ARA20160830050010108/30/16 05:00:31  5-MIN KARA 301100Z 01006KT 10SM CLR 23/22 A2995 0 90 1000 010/06 RMK AO2 T02330217
53915KARA ARA20160830050510108/30/16 05:05:31  5-MIN KARA 301105Z 01006KT 10SM CLR 23/22 A2995 0 90 1000 010/06 RMK AO2 T02330217
53915KARA ARA20160830051010108/30/16 05:10:31  5-MIN KARA 301110Z 02007KT 10SM CLR 23/22 A2995 0 90 1000 010/07 RMK AO2 T02330217
53915KARA ARA20160830051510108/30/16 05:15:31  5-MIN KARA 301115Z 02007KT 10SM CLR 23/22 A2995 0 90 1000 020/07 RMK AO2 T02330217
53915KARA ARA20160830052010108/30/16 05:20:31  5-MIN KARA 301120Z 02007KT 10SM CLR 23/22 A2995 0 90 1000 020/07 RMK AO2 T02330217
53915KARA ARA20160830052510108/30/16 05:25:31  5-MIN KARA 301125Z 02007KT 10SM CLR 23/22 A2995 0 90 1000 020/07 RMK AO2 T02330217
53915KARA ARA20160830053010108/30/16 05:30:31  5-MIN KARA 301130Z 02006KT 10SM CLR 23/22 A2995 0 90 1000 020/06 RMK AO2 T02330217
53915KARA ARA20160830053510108/30/16 05:35:31  5-MIN KARA 301135Z 02005KT 10SM CLR 23/22 A2995 0 90 1000 010/05 RMK AO2 T02330217
53915KARA ARA20160830054010108/30/16 05:40:31  5-MIN KARA 301140Z 02005KT 10SM CLR 23/22 A2995 0 90 1000 020/05 RMK AO2 T02330217
53915KARA ARA20160830054510108/30/16 05:45:31  5-MIN KARA 301145Z 02005KT 10SM CLR 23/22 A2995 0 90 1000 020/05 RMK AO2 T02330217
53915KARA ARA20160830055013208/30/16 05:50:31  5-MIN KARA 301150Z 01005KT 10SM CLR 23/22 A2995 0 93 1000 010/05 RMK AO2 SLP142 70006 T02330222 10239 20233 56008
53915KARA ARA20160830055510108/30/16 05:55:31  5-MIN KARA 301155Z 01005KT 10SM CLR 23/22 A2995 0 93 1000 010/05 RMK AO2 T02330222
53915KARA ARA20160830060010108/30/16 06:00:31  5-MIN KARA 301200Z 01005KT 10SM CLR 23/22 A2995 0 93 1000 010/05 RMK AO2 T02330222
53915KARA ARA20160830060510108/30/16 06:05:31  5-MIN KARA 301205Z 01005KT 10SM CLR 24/22 A2996 0 90 1100 010/05 RMK AO2 T02390222
53915KARA ARA20160830061010308/30/16 06:10:31  5-MIN KARA 301210Z 01005KT 10SM CLR 24/22 A2996 -10 90 1100 010/05 RMK AO2 T02390222
53915KARA ARA20160830061510308/30/16 06:15:31  5-MIN KARA 301215Z 02004KT 10SM CLR 24/22 A2996 -10 90 1100 020/04 RMK AO2 T02390222
53915KARA ARA20160830062010308/30/16 06:20:31  5-MIN KARA 301220Z 03004KT 10SM CLR 24/22 A2996 -10 90 1100 020/04 RMK AO2 T02390222
53915KARA ARA20160830062510308/30/16 06:25:31  5-MIN KARA 301225Z 02004KT 10SM CLR 24/22 A2996 -10 87 1100 020/04 RMK AO2 T02440222
53915KARA ARA20160830063010308/30/16 06:30:31  5-MIN KARA 301230Z 02005KT 10SM CLR 24/23 A2997 -10 90 1100 020/05 RMK AO2 T02440228
53915KARA ARA20160830063510308/30/16 06:35:31  5-MIN KARA 301235Z 36005KT 10SM CLR 24/23 A2997 -10 90 1100 360/05 RMK AO2 T02440228
53915KARA ARA20160830064010308/30/16 06:40:31  5-MIN KARA 301240Z 01005KT 10SM CLR 24/23 A2997 -20 90 1100 360/05 RMK AO2 T02440228
53915KARA ARA20160830064510308/30/16 06:45:31  5-MIN KARA 301245Z 36005KT 10SM CLR 24/23 A2998 -20 90 1100 360/05 RMK AO2 T02440228
53915KARA ARA20160830065011008/30/16 06:50:31  5-MIN KARA 301250Z 01003KT 10SM CLR 25/23 A2997 -20 87 1200 010/03 RMK AO2 SLP149 T02500228
53915KARA ARA20160830065510308/30/16 06:55:31  5-MIN KARA 301255Z 01005KT 10SM CLR 25/23 A2997 -20 87 1200 010/05 RMK AO2 T02500228
53915KARA ARA20160830070010308/30/16 07:00:31  5-MIN KARA 301300Z 01006KT 10SM CLR 26/23 A2997 -20 84 1200 010/06 RMK AO2 T02560228
53915KARA ARA20160830070510308/30/16 07:05:31  5-MIN KARA 301305Z 01005KT 10SM CLR 26/23 A2997 -20 84 1200 010/05 RMK AO2 T02560228
53915KARA ARA20160830071010308/30/16 07:10:31  5-MIN KARA 301310Z 01005KT 10SM CLR 26/23 A2997 -20 87 1200 010/05 RMK AO2 T02560233
53915KARA ARA20160830071510308/30/16 07:15:31  5-MIN KARA 301315Z 01004KT 10SM CLR 26/23 A2997 -20 84 1300 010/04 RMK AO2 T02610233
53915KARA ARA20160830072010308/30/16 07:20:31  5-MIN KARA 301320Z 03006KT 10SM CLR 26/23 A2997 -20 84 1300 030/06 RMK AO2 T02610233
53915KARA ARA20160830072510308/30/16 07:25:31  5-MIN KARA 301325Z 02007KT 10SM CLR 26/23 A2997 -20 84 1300 020/07 RMK AO2 T02610233
53915KARA ARA20160830073010308/30/16 07:30:31  5-MIN KARA 301330Z 02006KT 10SM CLR 26/23 A2997 -20 81 1300 020/06 RMK AO2 T02610228
53915KARA ARA20160830073510308/30/16 07:35:31  5-MIN KARA 301335Z 03006KT 10SM CLR 26/23 A2998 -20 81 1300 030/06 RMK AO2 T02610228
53915KARA ARA20160830074010308/30/16 07:40:31  5-MIN KARA 301340Z 02007KT 10SM CLR 26/23 A2997 -20 84 1300 020/07 RMK AO2 T02610233
53915KARA ARA20160830074510308/30/16 07:45:31  5-MIN KARA 301345Z 03008KT 10SM CLR 27/23 A2998 -20 82 1400 030/08 RMK AO2 T02670233
53915KARA ARA20160830075011008/30/16 07:50:31  5-MIN KARA 301350Z 03007KT 10SM CLR 27/23 A2997 -20 82 1400 030/07 RMK AO2 SLP149 T02670233
53915KARA ARA20160830075510308/30/16 07:55:31  5-MIN KARA 301355Z 03007KT 10SM CLR 27/23 A2997 -10 82 1400 030/07 RMK AO2 T02670233
53915KARA ARA20160830080010308/30/16 08:00:31  5-MIN KARA 301400Z 02006KT 10SM CLR 27/23 A2997 -20 79 1400 020/06 RMK AO2 T02720233
53915KARA ARA20160830080510308/30/16 08:05:31  5-MIN KARA 301405Z 03010KT 10SM CLR 28/23 A2997 -20 76 1500 030/10 RMK AO2 T02780233
53915KARA ARA20160830081010308/30/16 08:10:31  5-MIN KARA 301410Z 03008KT 10SM CLR 28/23 A2997 -20 76 1500 030/08 RMK AO2 T02780233
53915KARA ARA20160830081510308/30/16 08:15:31  5-MIN KARA 301415Z 02009KT 10SM CLR 28/23 A2997 -10 74 1600 020/09 RMK AO2 T02830233
53915KARA ARA20160830082010308/30/16 08:20:31  5-MIN KARA 301420Z 02008KT 10SM CLR 28/23 A2997 -10 74 1600 020/08 RMK AO2 T02830233
53915KARA ARA20160830082510308/30/16 08:25:31  5-MIN KARA 301425Z 03007KT 10SM CLR 28/24 A2997 -10 76 1600 030/07 RMK AO2 T02830239
53915KARA ARA20160830083010308/30/16 08:30:31  5-MIN KARA 301430Z 03008KT 10SM CLR 28/24 A2997 -20 76 1600 030/08 RMK AO2 T02830239
53915KARA ARA20160830083510308/30/16 08:35:31  5-MIN KARA 301435Z 03007KT 10SM CLR 29/24 A2997 -20 74 1600 030/07 RMK AO2 T02890239
53915KARA ARA20160830084010308/30/16 08:40:31  5-MIN KARA 301440Z 05007KT 10SM CLR 29/24 A2997 -20 74 1700 050/07 RMK AO2 T02940244
53915KARA ARA20160830084510308/30/16 08:45:31  5-MIN KARA 301445Z 04009KT 10SM CLR 29/24 A2997 -20 71 1700 040/09 RMK AO2 T02940239
53915KARA ARA20160830085011608/30/16 08:50:31  5-MIN KARA 301450Z 05007KT 10SM CLR 29/24 A2997 -20 71 1700 050/07 RMK AO2 SLP149 T02940239 53000
53915KARA ARA20160830085510308/30/16 08:55:31  5-MIN KARA 301455Z 05009KT 10SM CLR 29/24 A2997 -20 71 1700 050/09 RMK AO2 T02940239
53915KARA ARA20160830090010308/30/16 09:00:31  5-MIN KARA 301500Z 05010KT 10SM CLR 30/23 A2997 -20 67 1700 050/10 RMK AO2 T03000233
53915KARA ARA20160830090510308/30/16 09:05:31  5-MIN KARA 301505Z 04011KT 10SM CLR 30/24 A2998 -20 69 1700 040/11 RMK AO2 T03000239
53915KARA ARA20160830091010308/30/16 09:10:31  5-MIN KARA 301510Z 03010KT 10SM CLR 30/24 A2998 -20 69 1700 030/10 RMK AO2 T03000239
53915KARA ARA20160830091510308/30/16 09:15:31  5-MIN KARA 301515Z 04009KT 10SM CLR 31/24 A2998 -20 67 1800 040/09 RMK AO2 T03060239
53915KARA ARA20160830092010308/30/16 09:20:31  5-MIN KARA 301520Z 04009KT 10SM CLR 31/24 A2997 -20 67 1800 040/09 RMK AO2 T03060239
53915KARA ARA20160830092510308/30/16 09:25:31  5-MIN KARA 301525Z 04008KT 10SM CLR 31/23 A2998 -20 65 1800 040/08 RMK AO2 T03060233
53915KARA ARA20160830093010308/30/16 09:30:31  5-MIN KARA 301530Z 05007KT 10SM CLR 31/23 A2998 -20 65 1800 050/07 RMK AO2 T03060233
53915KARA ARA20160830093510308/30/16 09:35:31  5-MIN KARA 301535Z 04008KT 10SM CLR 31/23 A2998 -20 63 1900 040/08 RMK AO2 T03110233
53915KARA ARA20160830094010308/30/16 09:40:31  5-MIN KARA 301540Z 04009KT 10SM CLR 31/23 A2998 -20 63 1900 040/09 RMK AO2 T03110233
53915KARA ARA20160830094510308/30/16 09:45:31  5-MIN KARA 301545Z 04009KT 10SM CLR 32/23 A2998 -20 58 1900 040/09 RMK AO2 T03170228
53915KARA ARA20160830095011008/30/16 09:50:31  5-MIN KARA 301550Z 04009KT 10SM CLR 32/23 A2998 -20 61 1900 040/09 RMK AO2 SLP150 T03170233
53915KARA ARA20160830095510308/30/16 09:55:31  5-MIN KARA 301555Z 03010KT 10SM CLR 32/23 A2998 -20 58 1900 030/10 RMK AO2 T03170228
53915KARA ARA20160830100010308/30/16 10:00:31  5-MIN KARA 301600Z 04009KT 10SM CLR 32/23 A2998 -20 58 1900 040/09 RMK AO2 T03170228
53915KARA ARA20160830100510308/30/16 10:05:31  5-MIN KARA 301605Z 04009KT 10SM CLR 32/23 A2998 -20 61 1900 040/09 RMK AO2 T03170233
53915KARA ARA20160830101010308/30/16 10:10:31  5-MIN KARA 301610Z 03010KT 10SM CLR 32/23 A2998 -20 57 2000 030/10 RMK AO2 T03220228
53915KARA ARA20160830101510308/30/16 10:15:31  5-MIN KARA 301615Z 04009KT 10SM CLR 32/23 A2998 -20 57 2000 040/09 RMK AO2 T03220228
53915KARA ARA20160830102010308/30/16 10:20:31  5-MIN KARA 301620Z 05009KT 10SM CLR 32/23 A2998 -20 57 2000 050/09 RMK AO2 T03220228
53915KARA ARA20160830102510308/30/16 10:25:31  5-MIN KARA 301625Z 05008KT 10SM CLR 32/23 A2998 -20 58 1900 050/08 RMK AO2 T03170228
53915KARA ARA20160830103010308/30/16 10:30:31  5-MIN KARA 301630Z 04008KT 10SM CLR 32/23 A2998 -20 57 2000 040/08 RMK AO2 T03220228
53915KARA ARA20160830103510308/30/16 10:35:31  5-MIN KARA 301635Z 06009KT 10SM CLR 33/23 A2997 -20 55 2000 060/09 RMK AO2 T03280228
53915KARA ARA20160830104010308/30/16 10:40:31  5-MIN KARA 301640Z 05007KT 10SM CLR 33/23 A2997 -20 57 2000 050/07 RMK AO2 T03280233
53915KARA ARA20160830104510308/30/16 10:45:31  5-MIN KARA 301645Z 05009KT 10SM CLR 33/23 A2997 -20 55 2000 050/09 RMK AO2 T03280228
53915KARA ARA20160830105011008/30/16 10:50:31  5-MIN KARA 301650Z 04010KT 10SM CLR 33/23 A2997 -10 55 2000 040/10 RMK AO2 SLP147 T03280228
53915KARA ARA20160830105510308/30/16 10:55:31  5-MIN KARA 301655Z 06008KT 10SM CLR 33/23 A2997 -10 55 2000 060/08 RMK AO2 T03280228
53915KARA ARA20160830110010308/30/16 11:00:31  5-MIN KARA 301700Z 03009KT 10SM CLR 33/23 A2996 -10 53 2100 030/09 RMK AO2 T03330228
53915KARA ARA20160830110510308/30/16 11:05:31  5-MIN KARA 301705Z 03009KT 10SM CLR 33/23 A2996 -10 53 2100 030/09 RMK AO2 T03330228
53915KARA ARA20160830111010308/30/16 11:10:31  5-MIN KARA 301710Z 05009KT 10SM CLR 33/23 A2996 -10 53 2100 050/09 RMK AO2 T03330228
53915KARA ARA20160830111510108/30/16 11:15:31  5-MIN KARA 301715Z 05010KT 10SM CLR 33/23 A2996 0 55 2100 050/10 RMK AO2 T03280228
53915KARA ARA20160830112010108/30/16 11:20:31  5-MIN KARA 301720Z 05009KT 10SM CLR 33/23 A2996 0 53 2100 050/09 RMK AO2 T03330228
53915KARA ARA20160830112510108/30/16 11:25:31  5-MIN KARA 301725Z 06009KT 10SM CLR 33/22 A2996 0 51 2100 060/09 RMK AO2 T03330222
53915KARA ARA20160830113010108/30/16 11:30:31  5-MIN KARA 301730Z 04010KT 10SM CLR 33/22 A2996 0 51 2100 040/10 RMK AO2 T03330222
53915KARA ARA20160830113510108/30/16 11:35:31  5-MIN KARA 301735Z 04010KT 10SM CLR 33/22 A2996 0 51 2100 040/10 RMK AO2 T03330222
53915KARA ARA20160830114010108/30/16 11:40:31  5-MIN KARA 301740Z 04010KT 10SM CLR 34/23 A2996 0 51 2200 040/10 RMK AO2 T03390228
53915KARA ARA20160830114510108/30/16 11:45:31  5-MIN KARA 301745Z 05010KT 10SM CLR 34/22 A2996 0 50 2200 050/10 RMK AO2 T03390222
53915KARA ARA20160830115012608/30/16 11:50:31  5-MIN KARA 301750Z 04012KT 10SM CLR 34/22 A2995 0 50 2200 040/12 RMK AO2 SLP143 T03390222 10339 20233 51007
53915KARA ARA20160830115510108/30/16 11:55:31  5-MIN KARA 301755Z 03010KT 10SM CLR 33/22 A2995 0 51 2100 030/10 RMK AO2 T03330222
53915KARA ARA20160830120010108/30/16 12:00:31  5-MIN KARA 301800Z 04008KT 10SM CLR 33/22 A2995 0 51 2100 040/08 RMK AO2 T03330222
53915KARA ARA20160830120510108/30/16 12:05:31  5-MIN KARA 301805Z 04010KT 10SM CLR 34/23 A2995 0 51 2200 040/10 RMK AO2 T03390228
53915KARA ARA20160830121010108/30/16 12:10:31  5-MIN KARA 301810Z 07009KT 10SM CLR 34/22 A2995 0 50 2200 060/09 RMK AO2 T03390222
53915KARA ARA20160830121510108/30/16 12:15:31  5-MIN KARA 301815Z 04009KT 10SM CLR 34/22 A2995 0 50 2200 040/09 RMK AO2 T03390222
53915KARA ARA20160830122010208/30/16 12:20:31  5-MIN KARA 301820Z 03011KT 10SM CLR 34/22 A2994 10 48 2300 030/11 RMK AO2 T03440222
53915KARA ARA20160830122510808/30/16 12:25:31  5-MIN KARA 301825Z 03010G17KT 10SM CLR 34/22 A2994 10 48 2300 030/10G17 RMK AO2 T03440222
53915KARA ARA20160830123010208/30/16 12:30:31  5-MIN KARA 301830Z 05011KT 10SM CLR 34/22 A2994 10 48 2300 050/11 RMK AO2 T03440222
53915KARA ARA20160830123510208/30/16 12:35:31  5-MIN KARA 301835Z 05008KT 10SM CLR 34/22 A2993 10 48 2200 040/08 RMK AO2 T03390217
53915KARA ARA20160830124010208/30/16 12:40:31  5-MIN KARA 301840Z 05010KT 10SM CLR 34/23 A2993 10 50 2300 050/10 RMK AO2 T03440228
53915KARA ARA20160830124510208/30/16 12:45:31  5-MIN KARA 301845Z 04009KT 10SM CLR 34/22 A2993 20 48 2300 030/09 RMK AO2 T03440222
53915KARA ARA20160830125010908/30/16 12:50:31  5-MIN KARA 301850Z 02009KT 10SM CLR 34/23 A2993 20 50 2300 020/09 RMK AO2 SLP135 T03440228
53915KARA ARA20160830125510208/30/16 12:55:31  5-MIN KARA 301855Z 05009KT 10SM CLR 34/22 A2993 20 48 2300 050/09 RMK AO2 T03440222
53915KARA ARA20160830130010208/30/16 13:00:31  5-MIN KARA 301900Z 04012KT 10SM CLR 34/22 A2993 20 46 2300 040/12 RMK AO2 T03440217
53915KARA ARA20160830130510508/30/16 13:05:31  5-MIN KARA 301905Z 03008KT 10SM FEW050 34/22 A2993 20 48 2300 030/08 RMK AO2 T03440222
53915KARA ARA20160830131010508/30/16 13:10:31  5-MIN KARA 301910Z 05008KT 10SM FEW050 34/22 A2992 20 46 2300 050/08 RMK AO2 T03440217
53915KARA ARA20160830131510208/30/16 13:15:31  5-MIN KARA 301915Z 05011KT 10SM CLR 34/22 A2992 20 46 2300 050/11 RMK AO2 T03440217
53915KARA ARA20160830132010208/30/16 13:20:31  5-MIN KARA 301920Z 05010KT 10SM CLR 34/22 A2992 30 46 2300 050/10 RMK AO2 T03440217
53915KARA ARA20160830132510508/30/16 13:25:31  5-MIN KARA 301925Z 08008KT 10SM FEW050 34/22 A2992 30 46 2300 080/08 RMK AO2 T03440217
53915KARA ARA20160830133010508/30/16 13:30:31  5-MIN KARA 301930Z 03010KT 10SM FEW048 34/22 A2992 30 48 2300 030/10 RMK AO2 T03440222
53915KARA ARA20160830133510508/30/16 13:35:31  5-MIN KARA 301935Z 04011KT 10SM FEW046 34/22 A2992 30 46 2300 040/11 RMK AO2 T03440217
53915KARA ARA20160830134011008/30/16 13:40:31  5-MIN KARA 301940Z AUTO 05011KT 10SM FEW046 34/22 A2992 30 46 2300 050/11 RMK AO2 T03440217
53915KARA ARA20160830134511008/30/16 13:45:31  5-MIN KARA 301945Z AUTO 05009KT 10SM FEW046 35/22 A2991 30 47 2400 040/09 RMK AO2 T03500222
53915KARA ARA20160830135011208/30/16 13:50:31  5-MIN KARA 301950Z 05009KT 10SM FEW046 35/22 A2991 30 45 2400 050/09 RMK AO2 SLP128 T03500217
53915KARA ARA20160830135510508/30/16 13:55:31  5-MIN KARA 301955Z 02008KT 10SM FEW046 35/22 A2991 40 47 2400 020/08 RMK AO2 T03500222
53915KARA ARA20160830140010208/30/16 14:00:31  5-MIN KARA 302000Z 02010KT 10SM CLR 35/22 A2991 40 47 2400 020/10 RMK AO2 T03500222
53915KARA ARA20160830140510508/30/16 14:05:31  5-MIN KARA 302005Z 02011KT 10SM FEW050 35/22 A2991 40 47 2400 020/11 RMK AO2 T03500222
53915KARA ARA20160830141010508/30/16 14:10:31  5-MIN KARA 302010Z 04010KT 10SM SCT050 34/22 A2991 40 48 2200 040/10 RMK AO2 T03390217
53915KARA ARA20160830141510508/30/16 14:15:31  5-MIN KARA 302015Z 06008KT 10SM FEW050 34/22 A2990 40 48 2200 060/08 RMK AO2 T03390217
53915KARA ARA20160830142011208/30/16 14:20:31  5-MIN KARA 302020Z 04008KT 10SM FEW050 FEW060 35/22 A2990 50 45 2400 040/08 RMK AO2 T03500217
53915KARA ARA20160830142511208/30/16 14:25:31  5-MIN KARA 302025Z 04012KT 10SM FEW050 FEW060 35/22 A2990 50 45 2400 040/12 RMK AO2 T03500217
53915KARA ARA20160830143010508/30/16 14:30:31  5-MIN KARA 302030Z 04010KT 10SM FEW049 35/22 A2990 50 47 2400 040/10 RMK AO2 T03500222
53915KARA ARA20160830143510208/30/16 14:35:31  5-MIN KARA 302035Z 04011KT 10SM CLR 35/22 A2990 50 45 2400 040/11 RMK AO2 T03500217
53915KARA ARA20160830144010208/30/16 14:40:31  5-MIN KARA 302040Z 05010KT 10SM CLR 34/22 A2989 50 46 2300 050/10 RMK AO2 T03440217
53915KARA ARA20160830144510208/30/16 14:45:31  5-MIN KARA 302045Z 04011KT 10SM CLR 35/22 A2989 50 45 2400 040/11 RMK AO2 T03500217
53915KARA ARA20160830145011508/30/16 14:50:31  5-MIN KARA 302050Z 04009KT 10SM CLR 34/22 A2989 50 46 2300 040/09 RMK AO2 SLP121 T03440217 58006
53915KARA ARA20160830145510208/30/16 14:55:31  5-MIN KARA 302055Z 02010KT 10SM CLR 35/22 A2989 60 45 2400 020/10 RMK AO2 T03500217
53915KARA ARA20160830150010208/30/16 15:00:31  5-MIN KARA 302100Z 03010KT 10SM CLR 35/22 A2989 60 47 2400 030/10 RMK AO2 T03500222
53915KARA ARA20160830150510208/30/16 15:05:31  5-MIN KARA 302105Z 03012KT 10SM CLR 35/22 A2989 60 47 2400 030/12 RMK AO2 T03500222
53915KARA ARA20160830151010208/30/16 15:10:31  5-MIN KARA 302110Z 04013KT 10SM CLR 34/22 A2988 60 48 2300 030/13 RMK AO2 T03440222
53915KARA ARA20160830151510208/30/16 15:15:31  5-MIN KARA 302115Z 03012KT 10SM CLR 34/22 A2988 60 48 2300 030/12 RMK AO2 T03440222
53915KARA ARA20160830152010208/30/16 15:20:31  5-MIN KARA 302120Z 03010KT 10SM CLR 34/22 A2988 60 46 2300 030/10 RMK AO2 T03440217
53915KARA ARA20160830152510508/30/16 15:25:31  5-MIN KARA 302125Z 04009KT 10SM FEW120 34/22 A2988 60 46 2300 040/09 RMK AO2 T03440217
53915KARA ARA20160830153010508/30/16 15:30:31  5-MIN KARA 302130Z 05010KT 10SM FEW120 34/22 A2988 60 48 2300 050/10 RMK AO2 T03440222
53915KARA ARA20160830153510508/30/16 15:35:31  5-MIN KARA 302135Z 04012KT 10SM FEW120 34/22 A2988 60 46 2300 040/12 RMK AO2 T03440217
53915KARA ARA20160830154010508/30/16 15:40:31  5-MIN KARA 302140Z 04011KT 10SM FEW120 34/22 A2988 70 46 2300 040/11 RMK AO2 T03440217
53915KARA ARA20160830154510508/30/16 15:45:31  5-MIN KARA 302145Z 05012KT 10SM FEW120 34/22 A2988 70 46 2300 050/12 RMK AO2 T03440217
53915KARA ARA20160830155011908/30/16 15:50:31  5-MIN KARA 302150Z 05010KT 10SM FEW090 SCT120 34/22 A2988 70 48 2300 050/10 RMK AO2 SLP116 T03390217
53915KARA ARA20160830155510508/30/16 15:55:31  5-MIN KARA 302155Z 05009KT 10SM SCT095 34/22 A2988 70 50 2300 040/09 RMK AO2 T03390222
53915KARA ARA20160830160011908/30/16 16:00:31  5-MIN KARA 302200Z 04012KT 10SM FEW049 FEW075 SCT095 34/22 A2988 60 48 2300 040/12 RMK AO2 T03440222
53915KARA ARA20160830160511908/30/16 16:05:31  5-MIN KARA 302205Z 05009KT 10SM FEW049 FEW075 SCT090 34/22 A2988 70 48 2300 040/09 RMK AO2 T03390217
53915KARA ARA20160830161011208/30/16 16:10:31  5-MIN KARA 302210Z 06008KT 10SM FEW048 FEW090 33/22 A2987 70 50 2200 060/08 RMK AO2 T03330217
53915KARA ARA20160830161511208/30/16 16:15:31  5-MIN KARA 302215Z 05006KT 10SM FEW048 FEW095 33/22 A2987 70 51 2200 050/06 RMK AO2 T03330222
53915KARA ARA20160830162010508/30/16 16:20:31  5-MIN KARA 302220Z 06007KT 10SM FEW048 34/22 A2987 70 48 2300 060/07 RMK AO2 T03390217
53915KARA ARA20160830162510508/30/16 16:25:31  5-MIN KARA 302225Z 07009KT 10SM FEW048 34/22 A2987 70 48 2300 070/09 RMK AO2 T03390217
53915KARA ARA20160830163010208/30/16 16:30:31  5-MIN KARA 302230Z 08009KT 10SM CLR 34/22 A2987 70 50 2300 070/09 RMK AO2 T03390222
53915KARA ARA20160830163510208/30/16 16:35:31  5-MIN KARA 302235Z 05009KT 10SM CLR 34/22 A2987 80 50 2300 050/09 RMK AO2 T03390222
53915KARA ARA20160830164010208/30/16 16:40:31  5-MIN KARA 302240Z 04007KT 10SM CLR 34/22 A2986 80 48 2300 040/07 RMK AO2 T03390217
53915KARA ARA20160830164511608/30/16 16:45:31  5-MIN KARA 302245Z 03007KT 10SM FEW047 34/22 A2986 80 50 2300 030/07 RMK AO2 LTG DSNT E T03390222
53915KARA ARA20160830165012308/30/16 16:50:31  5-MIN KARA 302250Z 03008KT 10SM FEW047 33/22 A2987 80 51 2200 030/08 RMK AO2 LTG DSNT E SLP113 T03330222
53915KARA ARA20160830165511608/30/16 16:55:31  5-MIN KARA 302255Z 05009KT 10SM FEW047 33/22 A2987 80 53 2200 050/09 RMK AO2 LTG DSNT E T03280222
53915KARA ARA20160830170010508/30/16 17:00:31  5-MIN KARA 302300Z 05008KT 10SM FEW047 33/22 A2987 80 53 2200 050/08 RMK AO2 T03280222
53915KARA ARA20160830170511208/30/16 17:05:31  5-MIN KARA 302305Z 06007KT 10SM FEW047 SCT080 33/22 A2987 80 53 2200 060/07 RMK AO2 T03280222
53915KARA ARA20160830171011208/30/16 17:10:31  5-MIN KARA 302310Z 04006KT 10SM FEW047 SCT080 33/22 A2987 80 53 2200 040/06 RMK AO2 T03280222
53915KARA ARA20160830171510508/30/16 17:15:31  5-MIN KARA 302315Z 04006KT 10SM FEW080 33/22 A2986 80 51 2200 040/06 RMK AO2 T03330222
53915KARA ARA20160830172010508/30/16 17:20:31  5-MIN KARA 302320Z 04007KT 10SM FEW080 33/23 A2986 80 53 2200 040/07 RMK AO2 T03330228
53915KARA ARA20160830172510508/30/16 17:25:31  5-MIN KARA 302325Z 05008KT 10SM FEW080 33/22 A2986 80 53 2200 040/08 RMK AO2 T03280222
53915KARA ARA20160830173010508/30/16 17:30:31  5-MIN KARA 302330Z 05008KT 10SM FEW080 33/22 A2986 80 53 2200 050/08 RMK AO2 T03280222
53915KARA ARA20160830173510208/30/16 17:35:31  5-MIN KARA 302335Z 06007KT 10SM CLR 33/22 A2986 80 53 2200 060/07 RMK AO2 T03280222
53915KARA ARA20160830174010208/30/16 17:40:31  5-MIN KARA 302340Z 05007KT 10SM CLR 33/23 A2986 80 55 2200 050/07 RMK AO2 T03280228
53915KARA ARA20160830174510208/30/16 17:45:31  5-MIN KARA 302345Z 05009KT 10SM CLR 32/22 A2986 80 55 2100 050/09 RMK AO2 T03220222
53915KARA ARA20160830175012708/30/16 17:50:31  5-MIN KARA 302350Z 04007KT 10SM CLR 32/23 A2986 80 57 2100 040/07 RMK AO2 SLP112 T03220228 10350 20322 57022
53915KARA ARA20160830175511308/30/16 17:55:31  5-MIN KARA 302355Z 04006KT 10SM CLR 32/22 A2986 80 55 2100 040/06 RMK AO2 LTG DSNT E T03220222
53915KARA ARA20160830180011308/30/16 18:00:31  5-MIN KARA 310000Z 04005KT 10SM CLR 32/23 A2986 80 58 2000 030/05 RMK AO2 LTG DSNT E T03170228
53915KARA ARA20160830180511308/30/16 18:05:31  5-MIN KARA 310005Z 03005KT 10SM CLR 31/23 A2986 80 60 2000 030/05 RMK AO2 LTG DSNT E T03110228
53915KARA ARA20160830181011308/30/16 18:10:31  5-MIN KARA 310010Z 03005KT 10SM CLR 31/23 A2987 80 60 2000 030/05 RMK AO2 LTG DSNT E T03110228
53915KARA ARA20160830181511308/30/16 18:15:31  5-MIN KARA 310015Z 03006KT 10SM CLR 31/23 A2987 70 62 1900 030/06 RMK AO2 LTG DSNT E T03060228
53915KARA ARA20160830182010208/30/16 18:20:31  5-MIN KARA 310020Z 04005KT 10SM CLR 31/23 A2987 70 62 1900 040/05 RMK AO2 T03060228
53915KARA ARA20160830182510208/30/16 18:25:31  5-MIN KARA 310025Z 04005KT 10SM CLR 31/23 A2987 70 62 1900 040/05 RMK AO2 T03060228
53915KARA ARA20160830183010708/30/16 18:30:31  5-MIN KARA 310030Z 05005KT 10SM VCTS CLR 31/23 A2987 70 62 1900 050/05 RMK AO2 T03060228
53915KARA ARA20160830183511908/30/16 18:35:31  5-MIN KARA 310035Z 10007KT 10SM VCTS CLR 31/23 A2988 70 62 1900 100/07 RMK AO2 LTG DSNT NE T03060228
53915KARA ARA20160830184012208/30/16 18:40:31  5-MIN KARA 310040Z 11006KT 10SM VCTS FEW065 30/23 A2988 70 67 1800 110/06 RMK AO2 LTG DSNT NE T03000233
53915KARA ARA20160830184512908/30/16 18:45:31  5-MIN KARA 310045Z 10009KT 10SM VCTS FEW050 BKN065 30/23 A2989 60 67 1800 100/09 RMK AO2 LTG DSNT NE T03000233
53915KARA ARA20160830185013008/30/16 18:50:31  5-MIN KARA 310050Z 08014G23KT 10SM VCTS FEW050 BKN065 29/23 A2989 50 69 1700 080/14G23 RMK AO2 SLP121 T02890228
53915KARA ARA20160830185512308/30/16 18:55:31  5-MIN KARA 310055Z 08014G23KT 10SM VCTS SCT050 BKN065 28/22 A2989 50 69 1600 080/14G23 RMK AO2 T02830222
53915KARA ARA20160830190013708/30/16 19:00:31  5-MIN KARA 310100Z 08013KT 10SM -RA SCT049 BKN070 BKN090 28/22 A2989 50 69 1600 080/13 RMK AO2 RAB0058 P0000 T02780217
53915KARA ARA20160830190514308/30/16 19:05:31  5-MIN KARA 310105Z 10011G20KT 10SM -RA FEW049 BKN070 OVC085 28/22 A2989 50 69 1600 100/11G20 RMK AO2 RAB0058 P0000 T02780217
53915KARA ARA20160830191013708/30/16 19:10:31  5-MIN KARA 310110Z 12010KT 10SM -RA FEW049 SCT060 OVC085 27/22 A2989 60 71 1500 120/10 RMK AO2 RAB0058 P0000 T02720217
53915KARA ARA20160830191513708/30/16 19:15:31  5-MIN KARA 310115Z 13007KT 10SM -RA FEW049 SCT070 OVC090 27/22 A2989 60 74 1500 130/07 RMK AO2 RAB0058 P0000 T02720222
53915KARA ARA20160830192013708/30/16 19:20:31  5-MIN KARA 310120Z 12006KT 10SM -RA FEW035 BKN080 OVC095 27/22 A2989 50 74 1500 120/06 RMK AO2 RAB0058 P0000 T02720222
53915KARA ARA20160830192513708/30/16 19:25:31  5-MIN KARA 310125Z 13004KT 10SM -RA FEW038 SCT060 OVC100 27/23 A2989 50 79 1500 120/04 RMK AO2 RAB0058 P0000 T02670228
53915KARA ARA20160830193013708/30/16 19:30:31  5-MIN KARA 310130Z 08003KT 10SM -RA FEW038 BKN090 OVC110 27/23 A2989 50 82 1500 080/03 RMK AO2 RAB0058 P0000 T02670233
53915KARA ARA20160830193513608/30/16 19:35:31  5-MIN KARA 310135Z 06004KT 10SM FEW036 SCT065 OVC100 27/24 A2989 50 84 1500 060/04 RMK AO2 RAB0058E35 P0000 T02670239
53915KARA ARA20160830194013608/30/16 19:40:31  5-MIN KARA 310140Z 02005KT 10SM FEW036 FEW065 OVC100 27/23 A2989 50 79 1500 020/05 RMK AO2 RAB0058E35 P0000 T02720233
53915KARA ARA20160830194514108/30/16 19:45:31  5-MIN KARA 310145Z AUTO 02005KT 10SM FEW036 FEW065 OVC100 27/23 A2990 50 79 1500 020/05 RMK AO2 RAB0058E35 P0000 T02720233
53915KARA ARA20160830195014808/30/16 19:50:31  5-MIN KARA 310150Z AUTO 03004KT 10SM FEW048 SCT065 OVC100 27/23 A2990 40 79 1500 030/04 RMK AO2 RAB0058E35 SLP124 P0000 T02720233
53915KARA ARA20160830195512408/30/16 19:55:31  5-MIN KARA 310155Z AUTO 04004KT 10SM FEW050 BKN095 OVC120 27/23 A2990 50 79 1500 040/04 RMK AO2 T02720233
53915KARA ARA20160830200012408/30/16 20:00:31  5-MIN KARA 310200Z AUTO 04004KT 10SM FEW050 BKN095 OVC120 28/23 A2990 40 76 1600 040/04 RMK AO2 T02780233
53915KARA ARA20160830200512408/30/16 20:05:31  5-MIN KARA 310205Z AUTO 03004KT 10SM FEW050 BKN100 OVC120 28/23 A2990 40 76 1600 030/04 RMK AO2 T02780233
53915KARA ARA20160830201012408/30/16 20:10:31  5-MIN KARA 310210Z AUTO 02005KT 10SM FEW049 BKN100 OVC120 28/24 A2990 40 79 1600 020/05 RMK AO2 T02780239
53915KARA ARA20160830201511708/30/16 20:15:31  5-MIN KARA 310215Z AUTO 03006KT 10SM BKN100 OVC120 28/24 A2990 40 79 1600 030/06 RMK AO2 T02780239
53915KARA ARA20160830202011008/30/16 20:20:31  5-MIN KARA 310220Z AUTO 03005KT 10SM OVC100 27/23 A2990 40 79 1500 030/05 RMK AO2 T02720233
53915KARA ARA20160830202511008/30/16 20:25:31  5-MIN KARA 310225Z AUTO 04005KT 10SM OVC100 27/23 A2991 40 79 1500 040/05 RMK AO2 T02720233
53915KARA ARA20160830203011008/30/16 20:30:31  5-MIN KARA 310230Z AUTO 05004KT 10SM OVC100 27/23 A2991 40 79 1500 050/04 RMK AO2 T02720233
53915KARA ARA20160830203511008/30/16 20:35:31  5-MIN KARA 310235Z AUTO 05005KT 10SM OVC100 27/23 A2991 40 79 1500 050/05 RMK AO2 T02720233
53915KARA ARA20160830204011008/30/16 20:40:31  5-MIN KARA 310240Z AUTO 05004KT 10SM OVC100 27/23 A2991 40 79 1500 050/04 RMK AO2 T02720233
53915KARA ARA20160830204511008/30/16 20:45:31  5-MIN KARA 310245Z AUTO 06004KT 10SM OVC110 27/23 A2991 30 79 1500 060/04 RMK AO2 T02720233
53915KARA ARA20160830205012908/30/16 20:50:31  5-MIN KARA 310250Z AUTO 08003KT 10SM BKN110 27/23 A2991 30 79 1500 070/03 RMK AO2 SLP129 60000 T02720233 56008
53915KARA ARA20160830205511008/30/16 20:55:31  5-MIN KARA 310255Z AUTO 07003KT 10SM BKN110 28/23 A2991 30 76 1600 070/03 RMK AO2 T02780233
53915KARA ARA20160830210011008/30/16 21:00:31  5-MIN KARA 310300Z AUTO 06003KT 10SM SCT110 27/23 A2991 30 79 1500 060/03 RMK AO2 T02720233
53915KARA ARA20160830210511008/30/16 21:05:31  5-MIN KARA 310305Z AUTO 05003KT 10SM SCT110 27/23 A2992 30 79 1500 050/03 RMK AO2 T02720233
53915KARA ARA20160830211011008/30/16 21:10:31  5-MIN KARA 310310Z AUTO 04004KT 10SM SCT110 27/23 A2992 30 79 1500 040/04 RMK AO2 T02720233
53915KARA ARA20160830211511008/30/16 21:15:31  5-MIN KARA 310315Z AUTO 00000KT 10SM SCT110 27/23 A2992 30 79 1500 000/00 RMK AO2 T02720233
53915KARA ARA20160830212011008/30/16 21:20:31  5-MIN KARA 310320Z AUTO 00000KT 10SM SCT110 27/23 A2992 30 79 1500 000/00 RMK AO2 T02720233
53915KARA ARA20160830212511008/30/16 21:25:31  5-MIN KARA 310325Z AUTO 06003KT 10SM FEW110 27/23 A2992 30 79 1500 060/03 RMK AO2 T02720233
53915KARA ARA20160830213011008/30/16 21:30:31  5-MIN KARA 310330Z AUTO 06003KT 10SM FEW110 27/23 A2992 30 79 1500 060/03 RMK AO2 T02720233
53915KARA ARA20160830213511008/30/16 21:35:31  5-MIN KARA 310335Z AUTO 06004KT 10SM FEW110 27/23 A2992 30 79 1500 060/04 RMK AO2 T02720233
53915KARA ARA20160830214010708/30/16 21:40:31  5-MIN KARA 310340Z AUTO 06004KT 10SM CLR 27/23 A2992 30 79 1500 060/04 RMK AO2 T02720233
53915KARA ARA20160830214510708/30/16 21:45:31  5-MIN KARA 310345Z AUTO 07003KT 10SM CLR 27/23 A2992 20 79 1500 070/03 RMK AO2 T02720233
53915KARA ARA20160830215011408/30/16 21:50:31  5-MIN KARA 310350Z AUTO 07003KT 10SM CLR 27/23 A2992 20 82 1400 070/03 RMK AO2 SLP132 T02670233
53915KARA ARA20160830215510708/30/16 21:55:31  5-MIN KARA 310355Z AUTO 06004KT 10SM CLR 27/23 A2992 20 82 1400 060/04 RMK AO2 T02670233
53915KARA ARA20160830220010708/30/16 22:00:31  5-MIN KARA 310400Z AUTO 06004KT 10SM CLR 27/23 A2992 30 79 1500 060/04 RMK AO2 T02720233
53915KARA ARA20160830220510708/30/16 22:05:31  5-MIN KARA 310405Z AUTO 06005KT 10SM CLR 27/23 A2992 30 79 1500 050/05 RMK AO2 T02720233
53915KARA ARA20160830221010708/30/16 22:10:31  5-MIN KARA 310410Z AUTO 05005KT 10SM CLR 27/23 A2992 30 79 1500 050/05 RMK AO2 T02720233
53915KARA ARA20160830221510708/30/16 22:15:31  5-MIN KARA 310415Z AUTO 05005KT 10SM CLR 27/23 A2992 30 79 1500 050/05 RMK AO2 T02720233
53915KARA ARA20160830222010708/30/16 22:20:31  5-MIN KARA 310420Z AUTO 05005KT 10SM CLR 27/23 A2992 30 79 1500 050/05 RMK AO2 T02720233
53915KARA ARA20160830222510708/30/16 22:25:31  5-MIN KARA 310425Z AUTO 05005KT 10SM CLR 27/23 A2992 20 82 1400 050/05 RMK AO2 T02670233
53915KARA ARA20160830223010708/30/16 22:30:31  5-MIN KARA 310430Z AUTO 04004KT 10SM CLR 27/23 A2992 30 82 1400 040/04 RMK AO2 T02670233
53915KARA ARA20160830223510708/30/16 22:35:31  5-MIN KARA 310435Z AUTO 04003KT 10SM CLR 27/23 A2992 20 82 1400 040/03 RMK AO2 T02670233
53915KARA ARA20160830224010708/30/16 22:40:31  5-MIN KARA 310440Z AUTO 03004KT 10SM CLR 27/23 A2992 20 82 1400 030/04 RMK AO2 T02670233
53915KARA ARA20160830224510708/30/16 22:45:31  5-MIN KARA 310445Z AUTO 00000KT 10SM CLR 27/23 A2993 20 82 1400 000/00 RMK AO2 T02670233
53915KARA ARA20160830225011408/30/16 22:50:31  5-MIN KARA 310450Z AUTO 00000KT 10SM CLR 26/23 A2992 20 87 1300 000/00 RMK AO2 SLP133 T02560233
53915KARA ARA20160830225510708/30/16 22:55:31  5-MIN KARA 310455Z AUTO 00000KT 10SM CLR 26/23 A2992 20 87 1300 000/00 RMK AO2 T02560233
53915KARA ARA20160830230010708/30/16 23:00:31  5-MIN KARA 310500Z AUTO 34003KT 10SM CLR 26/23 A2992 20 87 1300 340/03 RMK AO2 T02560233
53915KARA ARA20160830230510708/30/16 23:05:31  5-MIN KARA 310505Z AUTO 34004KT 10SM CLR 26/23 A2993 20 87 1300 340/04 RMK AO2 T02560233
53915KARA ARA20160830231010708/30/16 23:10:31  5-MIN KARA 310510Z AUTO 35003KT 10SM CLR 26/23 A2993 20 87 1300 350/03 RMK AO2 T02560233
53915KARA ARA20160830231510708/30/16 23:15:31  5-MIN KARA 310515Z AUTO 01003KT 10SM CLR 26/23 A2993 20 84 1400 010/03 RMK AO2 T02610233
53915KARA ARA20160830232010708/30/16 23:20:31  5-MIN KARA 310520Z AUTO 02003KT 10SM CLR 26/23 A2993 20 84 1400 020/03 RMK AO2 T02610233
53915KARA ARA20160830232510708/30/16 23:25:31  5-MIN KARA 310525Z AUTO 00000KT 10SM CLR 26/23 A2992 20 84 1400 000/00 RMK AO2 T02610233
53915KARA ARA20160830233010708/30/16 23:30:31  5-MIN KARA 310530Z AUTO 00000KT 10SM CLR 26/23 A2992 20 87 1300 000/00 RMK AO2 T02560233
53915KARA ARA20160830233510708/30/16 23:35:31  5-MIN KARA 310535Z AUTO 00000KT 10SM CLR 26/23 A2992 20 87 1300 000/00 RMK AO2 T02560233
53915KARA ARA20160830234010708/30/16 23:40:31  5-MIN KARA 310540Z AUTO 00000KT 10SM CLR 26/23 A2992 30 87 1300 000/00 RMK AO2 T02560233
53915KARA ARA20160830234510708/30/16 23:45:31  5-MIN KARA 310545Z AUTO 02003KT 10SM CLR 26/23 A2992 30 87 1300 010/03 RMK AO2 T02560233
53915KARA ARA20160830235014808/30/16 23:50:31  5-MIN KARA 310550Z AUTO 02003KT 10SM CLR 26/23 A2992 30 87 1300 020/03 RMK AO2 SLP131 60000 T02560233 10322 20256 403500233 51017
53915KARA ARA20160830235510708/30/16 23:55:31  5-MIN KARA 310555Z AUTO 03003KT 10SM CLR 26/23 A2992 30 84 1400 030/03 RMK AO2 T02610233
53915KARA ARA20160831000010708/31/16 00:00:31  5-MIN KARA 310600Z AUTO 00000KT 10SM CLR 26/23 A2992 30 87 1300 000/00 RMK AO2 T02560233
53915KARA ARA20160831000510708/31/16 00:05:31  5-MIN KARA 310605Z AUTO 00000KT 10SM CLR 26/23 A2992 30 87 1300 000/00 RMK AO2 T02560233
53915KARA ARA20160831001010708/31/16 00:10:31  5-MIN KARA 310610Z AUTO 00000KT 10SM CLR 25/23 A2992 30 90 1200 000/00 RMK AO2 T02500233
53915KARA ARA20160831001510708/31/16 00:15:31  5-MIN KARA 310615Z AUTO 00000KT 10SM CLR 25/23 A2992 30 90 1200 000/00 RMK AO2 T02500233
53915KARA ARA20160831002010708/31/16 00:20:31  5-MIN KARA 310620Z AUTO 00000KT 10SM CLR 24/23 A2992 30 90 1200 000/00 RMK AO2 T02440228
53915KARA ARA20160831002510708/31/16 00:25:31  5-MIN KARA 310625Z AUTO 00000KT 10SM CLR 24/23 A2992 30 90 1200 000/00 RMK AO2 T02440228
53915KARA ARA20160831003010708/31/16 00:30:31  5-MIN KARA 310630Z AUTO 00000KT 10SM CLR 24/23 A2992 30 90 1200 000/00 RMK AO2 T02440228
53915KARA ARA20160831003510708/31/16 00:35:31  5-MIN KARA 310635Z AUTO 00000KT 10SM CLR 24/23 A2992 30 90 1200 000/00 RMK AO2 T02440228
53915KARA ARA20160831004010608/31/16 00:40:31  5-MIN KARA 310640Z AUTO 30003KT 9SM CLR 24/23 A2992 30 93 1200 290/03 RMK AO2 T02440233
53915KARA ARA20160831004510608/31/16 00:45:31  5-MIN KARA 310645Z AUTO 30003KT 9SM CLR 24/23 A2992 30 93 1200 300/03 RMK AO2 T02440233
53915KARA ARA20160831005011308/31/16 00:50:31  5-MIN KARA 310650Z AUTO 32004KT 9SM CLR 24/23 A2992 30 90 1200 320/04 RMK AO2 SLP130 T02440228
53915KARA ARA20160831005510708/31/16 00:55:31  5-MIN KARA 310655Z AUTO 32004KT 10SM CLR 24/23 A2991 30 90 1200 320/04 RMK AO2 T02440228
53915KARA ARA20160831010010708/31/16 01:00:31  5-MIN KARA 310700Z AUTO 32004KT 10SM CLR 24/23 A2991 30 90 1200 320/04 RMK AO2 T02440228
53915KARA ARA20160831010510708/31/16 01:05:31  5-MIN KARA 310705Z AUTO 32003KT 10SM CLR 24/23 A2991 30 90 1200 320/03 RMK AO2 T02440228
53915KARA ARA20160831011010708/31/16 01:10:31  5-MIN KARA 310710Z AUTO 34003KT 10SM CLR 24/23 A2991 30 90 1200 330/03 RMK AO2 T02440228
53915KARA ARA20160831011510708/31/16 01:15:31  5-MIN KARA 310715Z AUTO 33004KT 10SM CLR 24/23 A2991 30 93 1200 330/04 RMK AO2 T02440233
53915KARA ARA20160831012010708/31/16 01:20:31  5-MIN KARA 310720Z AUTO 32004KT 10SM CLR 24/23 A2991 30 93 1200 320/04 RMK AO2 T02440233
53915KARA ARA20160831012510708/31/16 01:25:31  5-MIN KARA 310725Z AUTO 32003KT 10SM CLR 24/23 A2991 30 93 1200 320/03 RMK AO2 T02440233
53915KARA ARA20160831013010708/31/16 01:30:31  5-MIN KARA 310730Z AUTO 33003KT 10SM CLR 24/23 A2991 30 90 1200 330/03 RMK AO2 T02440228
53915KARA ARA20160831013510708/31/16 01:35:31  5-MIN KARA 310735Z AUTO 35003KT 10SM CLR 24/23 A2991 30 90 1200 350/03 RMK AO2 T02440228
53915KARA ARA20160831014010708/31/16 01:40:31  5-MIN KARA 310740Z AUTO 35004KT 10SM CLR 24/23 A2991 30 90 1200 350/04 RMK AO2 T02440228
53915KARA ARA20160831014510708/31/16 01:45:31  5-MIN KARA 310745Z AUTO 36004KT 10SM CLR 24/23 A2991 30 90 1200 360/04 RMK AO2 T02440228
53915KARA ARA20160831015011408/31/16 01:50:31  5-MIN KARA 310750Z AUTO 36004KT 10SM CLR 24/23 A2991 40 90 1200 360/04 RMK AO2 SLP127 T02440228
53915KARA ARA20160831015510708/31/16 01:55:31  5-MIN KARA 310755Z AUTO 36004KT 10SM CLR 24/23 A2991 40 90 1200 360/04 RMK AO2 T02440228
53915KARA ARA20160831020010708/31/16 02:00:31  5-MIN KARA 310800Z AUTO 35003KT 10SM CLR 24/23 A2991 30 90 1200 350/03 RMK AO2 T02440228
53915KARA ARA20160831020510708/31/16 02:05:31  5-MIN KARA 310805Z AUTO 35004KT 10SM CLR 24/23 A2991 30 90 1200 350/04 RMK AO2 T02440228
53915KARA ARA20160831021010708/31/16 02:10:31  5-MIN KARA 310810Z AUTO 36004KT 10SM CLR 24/23 A2991 30 90 1200 360/04 RMK AO2 T02440228
53915KARA ARA20160831021510708/31/16 02:15:31  5-MIN KARA 310815Z AUTO 36004KT 10SM CLR 24/23 A2991 30 90 1200 360/04 RMK AO2 T02440228
53915KARA ARA20160831022010708/31/16 02:20:31  5-MIN KARA 310820Z AUTO 36003KT 10SM CLR 24/23 A2991 30 90 1200 360/03 RMK AO2 T02440228
53915KARA ARA20160831022510708/31/16 02:25:31  5-MIN KARA 310825Z AUTO 36003KT 10SM CLR 24/23 A2991 30 90 1200 360/03 RMK AO2 T02440228
53915KARA ARA20160831023010708/31/16 02:30:31  5-MIN KARA 310830Z AUTO 35003KT 10SM CLR 24/23 A2991 30 90 1200 350/03 RMK AO2 T02440228
53915KARA ARA20160831023510708/31/16 02:35:31  5-MIN KARA 310835Z AUTO 36004KT 10SM CLR 24/23 A2991 30 90 1200 360/04 RMK AO2 T02440228
53915KARA ARA20160831024010708/31/16 02:40:31  5-MIN KARA 310840Z AUTO 36004KT 10SM CLR 24/23 A2991 30 90 1200 360/04 RMK AO2 T02440228
53915KARA ARA20160831024510708/31/16 02:45:31  5-MIN KARA 310845Z AUTO 36004KT 10SM CLR 25/23 A2991 30 87 1200 360/04 RMK AO2 T02500228
53915KARA ARA20160831025012008/31/16 02:50:31  5-MIN KARA 310850Z AUTO 01003KT 10SM CLR 25/23 A2991 40 87 1200 360/03 RMK AO2 SLP128 T02500228 50002
53915KARA ARA20160831025510708/31/16 02:55:31  5-MIN KARA 310855Z AUTO 36003KT 10SM CLR 25/23 A2991 40 87 1200 360/03 RMK AO2 T02500228
53915KARA ARA20160831030010708/31/16 03:00:31  5-MIN KARA 310900Z AUTO 36003KT 10SM CLR 25/23 A2991 30 87 1200 360/03 RMK AO2 T02500228
53915KARA ARA20160831030510708/31/16 03:05:31  5-MIN KARA 310905Z AUTO 00000KT 10SM CLR 25/23 A2991 30 87 1200 000/00 RMK AO2 T02500228
53915KARA ARA20160831031010708/31/16 03:10:31  5-MIN KARA 310910Z AUTO 34003KT 10SM CLR 24/23 A2991 30 90 1200 340/03 RMK AO2 T02440228
53915KARA ARA20160831031510708/31/16 03:15:31  5-MIN KARA 310915Z AUTO 00000KT 10SM CLR 24/23 A2991 30 90 1200 000/00 RMK AO2 T02440228
53915KARA ARA20160831032010708/31/16 03:20:31  5-MIN KARA 310920Z AUTO 35003KT 10SM CLR 25/23 A2991 30 87 1200 350/03 RMK AO2 T02500228
53915KARA ARA20160831032510708/31/16 03:25:31  5-MIN KARA 310925Z AUTO 00000KT 10SM CLR 25/23 A2991 40 87 1200 000/00 RMK AO2 T02500228
53915KARA ARA20160831033010708/31/16 03:30:31  5-MIN KARA 310930Z AUTO 34003KT 10SM CLR 24/23 A2991 40 90 1200 340/03 RMK AO2 T02440228
53915KARA ARA20160831033510708/31/16 03:35:31  5-MIN KARA 310935Z AUTO 34003KT 10SM CLR 24/23 A2991 40 90 1200 340/03 RMK AO2 T02440228
53915KARA ARA20160831034010708/31/16 03:40:31  5-MIN KARA 310940Z AUTO 34003KT 10SM CLR 24/23 A2991 40 93 1200 340/03 RMK AO2 T02440233
53915KARA ARA20160831034510708/31/16 03:45:31  5-MIN KARA 310945Z AUTO 35003KT 10SM CLR 24/23 A2991 40 93 1200 350/03 RMK AO2 T02440233
53915KARA ARA20160831035011408/31/16 03:50:31  5-MIN KARA 310950Z AUTO 34004KT 10SM CLR 24/23 A2991 40 93 1200 340/04 RMK AO2 SLP127 T02440233
53915KARA ARA20160831035510708/31/16 03:55:31  5-MIN KARA 310955Z AUTO 34003KT 10SM CLR 24/23 A2991 40 93 1200 340/03 RMK AO2 T02440233
53915KARA ARA20160831040010608/31/16 04:00:31  5-MIN KARA 311000Z AUTO 35003KT 9SM CLR 24/23 A2991 40 93 1200 350/03 RMK AO2 T02440233
53915KARA ARA20160831040510608/31/16 04:05:31  5-MIN KARA 311005Z AUTO 35003KT 9SM CLR 24/23 A2991 40 93 1200 340/03 RMK AO2 T02440233
53915KARA ARA20160831041010708/31/16 04:10:31  5-MIN KARA 311010Z AUTO 34004KT 10SM CLR 24/23 A2991 40 93 1200 340/04 RMK AO2 T02440233
53915KARA ARA20160831041510708/31/16 04:15:31  5-MIN KARA 311015Z AUTO 35004KT 10SM CLR 24/23 A2991 40 93 1200 350/04 RMK AO2 T02440233
53915KARA ARA20160831042010708/31/16 04:20:31  5-MIN KARA 311020Z AUTO 35004KT 10SM CLR 24/23 A2991 40 93 1200 350/04 RMK AO2 T02440233
53915KARA ARA20160831042510708/31/16 04:25:31  5-MIN KARA 311025Z AUTO 35004KT 10SM CLR 24/23 A2990 40 93 1200 350/04 RMK AO2 T02440233
53915KARA ARA20160831043010208/31/16 04:30:31  5-MIN KARA 311030Z 35003KT 10SM CLR 24/23 A2991 40 93 1200 350/03 RMK AO2 T02440233
53915KARA ARA20160831043510208/31/16 04:35:31  5-MIN KARA 311035Z 36004KT 10SM CLR 24/23 A2990 40 90 1200 350/04 RMK AO2 T02440228
53915KARA ARA20160831044010208/31/16 04:40:31  5-MIN KARA 311040Z 35003KT 10SM CLR 24/23 A2990 40 90 1200 340/03 RMK AO2 T02440228
53915KARA ARA20160831044510108/31/16 04:45:31  5-MIN KARA 311045Z 34003KT 9SM CLR 24/23 A2990 40 90 1200 340/03 RMK AO2 T02440228
53915KARA ARA20160831045010808/31/16 04:50:31  5-MIN KARA 311050Z 00000KT 8SM CLR 24/23 A2990 40 90 1200 000/00 RMK AO2 SLP125 T02440228
53915KARA ARA20160831045510108/31/16 04:55:31  5-MIN KARA 311055Z 00000KT 7SM CLR 24/23 A2990 40 93 1100 000/00 RMK AO2 T02390228
53915KARA ARA20160831050010108/31/16 05:00:31  5-MIN KARA 311100Z 00000KT 7SM CLR 24/23 A2990 40 93 1100 000/00 RMK AO2 T02390228
53915KARA ARA20160831050510108/31/16 05:05:31  5-MIN KARA 311105Z 34003KT 7SM CLR 24/23 A2990 40 93 1100 340/03 RMK AO2 T02390228
53915KARA ARA20160831051010108/31/16 05:10:31  5-MIN KARA 311110Z 34004KT 7SM CLR 24/23 A2990 40 93 1100 340/04 RMK AO2 T02390228
53915KARA ARA20160831051510108/31/16 05:15:31  5-MIN KARA 311115Z 34004KT 7SM CLR 24/23 A2990 40 93 1100 340/04 RMK AO2 T02390228
53915KARA ARA20160831052010108/31/16 05:20:31  5-MIN KARA 311120Z 35004KT 8SM CLR 24/23 A2990 40 90 1200 350/04 RMK AO2 T02440228
53915KARA ARA20160831052510108/31/16 05:25:31  5-MIN KARA 311125Z 35005KT 9SM CLR 24/23 A2990 40 90 1200 350/05 RMK AO2 T02440228
53915KARA ARA20160831053010108/31/16 05:30:31  5-MIN KARA 311130Z 35005KT 9SM CLR 24/23 A2990 40 90 1200 350/05 RMK AO2 T02440228
53915KARA ARA20160831053510108/31/16 05:35:31  5-MIN KARA 311135Z 35004KT 9SM CLR 24/23 A2991 40 90 1200 350/04 RMK AO2 T02440228
53915KARA ARA20160831054010108/31/16 05:40:31  5-MIN KARA 311140Z 35005KT 9SM CLR 24/23 A2990 40 90 1200 350/05 RMK AO2 T02440228
53915KARA ARA20160831054510108/31/16 05:45:31  5-MIN KARA 311145Z 36005KT 8SM CLR 24/23 A2990 40 90 1200 360/05 RMK AO2 T02440228
53915KARA ARA20160831055012608/31/16 05:50:31  5-MIN KARA 311150Z 35004KT 7SM CLR 24/23 A2990 40 90 1200 350/04 RMK AO2 SLP125 T02440228 10261 20239 55003
53915KARA ARA20160831055510108/31/16 05:55:31  5-MIN KARA 311155Z 36004KT 8SM CLR 24/23 A2991 40 90 1200 360/04 RMK AO2 T02440228
53915KARA ARA20160831060010108/31/16 06:00:31  5-MIN KARA 311200Z 36004KT 8SM CLR 24/23 A2991 40 90 1200 360/04 RMK AO2 T02440228
53915KARA ARA20160831060510108/31/16 06:05:31  5-MIN KARA 311205Z 36004KT 8SM CLR 24/23 A2991 40 90 1200 360/04 RMK AO2 T02440228
53915KARA ARA20160831061010108/31/16 06:10:31  5-MIN KARA 311210Z 36004KT 8SM CLR 24/23 A2991 40 90 1200 360/04 RMK AO2 T02440228
53915KARA ARA20160831061510108/31/16 06:15:31  5-MIN KARA 311215Z 01005KT 9SM CLR 25/23 A2990 40 90 1300 010/05 RMK AO2 T02500233
53915KARA ARA20160831062010108/31/16 06:20:31  5-MIN KARA 311220Z 01006KT 9SM CLR 25/23 A2990 40 90 1300 010/06 RMK AO2 T02500233
53915KARA ARA20160831062510108/31/16 06:25:31  5-MIN KARA 311225Z 01006KT 9SM CLR 25/23 A2990 40 90 1300 010/06 RMK AO2 T02500233
53915KARA ARA20160831063010108/31/16 06:30:31  5-MIN KARA 311230Z 01006KT 9SM CLR 26/23 A2990 50 87 1300 010/06 RMK AO2 T02560233
53915KARA ARA20160831063510108/31/16 06:35:31  5-MIN KARA 311235Z 02006KT 9SM CLR 26/23 A2990 50 87 1300 020/06 RMK AO2 T02560233
53915KARA ARA20160831064010108/31/16 06:40:31  5-MIN KARA 311240Z 02007KT 9SM CLR 26/24 A2990 40 90 1300 020/07 RMK AO2 T02560239
53915KARA ARA20160831064510108/31/16 06:45:31  5-MIN KARA 311245Z 02006KT 9SM CLR 26/24 A2990 40 87 1400 020/06 RMK AO2 T02610239
53915KARA ARA20160831065010808/31/16 06:50:31  5-MIN KARA 311250Z 02007KT 9SM CLR 26/24 A2990 40 87 1400 020/07 RMK AO2 SLP125 T02610239
53915KARA ARA20160831065510108/31/16 06:55:31  5-MIN KARA 311255Z 02006KT 9SM CLR 26/24 A2990 40 87 1400 020/06 RMK AO2 T02610239
53915KARA ARA20160831070010108/31/16 07:00:31  5-MIN KARA 311300Z 02006KT 9SM CLR 27/24 A2990 40 84 1400 010/06 RMK AO2 T02670239
53915KARA ARA20160831070510208/31/16 07:05:31  5-MIN KARA 311305Z 02006KT 10SM CLR 27/24 A2990 40 84 1400 020/06 RMK AO2 T02670239
53915KARA ARA20160831071010108/31/16 07:10:31  5-MIN KARA 311310Z 03007KT 9SM CLR 27/24 A2990 50 84 1400 030/07 RMK AO2 T02670239
53915KARA ARA20160831071510208/31/16 07:15:31  5-MIN KARA 311315Z 03007KT 10SM CLR 27/24 A2990 40 84 1400 030/07 RMK AO2 T02670239
53915KARA ARA20160831072010208/31/16 07:20:31  5-MIN KARA 311320Z 02007KT 10SM CLR 27/24 A2990 40 82 1500 020/07 RMK AO2 T02720239
53915KARA ARA20160831072510208/31/16 07:25:31  5-MIN KARA 311325Z 02007KT 10SM CLR 27/24 A2990 40 82 1500 020/07 RMK AO2 T02720239
53915KARA ARA20160831073010208/31/16 07:30:31  5-MIN KARA 311330Z 02007KT 10SM CLR 27/24 A2990 40 82 1500 020/07 RMK AO2 T02720239
53915KARA ARA20160831073510208/31/16 07:35:31  5-MIN KARA 311335Z 03006KT 10SM CLR 28/24 A2990 40 79 1600 030/06 RMK AO2 T02780239
53915KARA ARA20160831074010208/31/16 07:40:31  5-MIN KARA 311340Z 02007KT 10SM CLR 28/24 A2990 40 79 1600 020/07 RMK AO2 T02780239
53915KARA ARA20160831074510208/31/16 07:45:31  5-MIN KARA 311345Z 02007KT 10SM CLR 28/24 A2991 40 76 1600 020/07 RMK AO2 T02830239
53915KARA ARA20160831075010908/31/16 07:50:31  5-MIN KARA 311350Z 02008KT 10SM CLR 28/24 A2991 40 76 1600 020/08 RMK AO2 SLP126 T02830239
53915KARA ARA20160831075510208/31/16 07:55:31  5-MIN KARA 311355Z 02007KT 10SM CLR 28/23 A2991 40 74 1600 020/07 RMK AO2 T02830233
53915KARA ARA20160831080010208/31/16 08:00:31  5-MIN KARA 311400Z 03007KT 10SM CLR 29/23 A2991 40 71 1700 030/07 RMK AO2 T02890233
53915KARA ARA20160831080510208/31/16 08:05:31  5-MIN KARA 311405Z 02006KT 10SM CLR 29/24 A2991 40 74 1700 020/06 RMK AO2 T02890239
53915KARA ARA20160831081010208/31/16 08:10:31  5-MIN KARA 311410Z 03005KT 10SM CLR 29/24 A2991 40 71 1700 030/05 RMK AO2 T02940239
53915KARA ARA20160831081510208/31/16 08:15:31  5-MIN KARA 311415Z 05006KT 10SM CLR 29/23 A2991 40 69 1700 050/06 RMK AO2 T02940233
53915KARA ARA20160831082010208/31/16 08:20:31  5-MIN KARA 311420Z 04007KT 10SM CLR 29/23 A2991 40 69 1700 040/07 RMK AO2 T02940233
53915KARA ARA20160831082510208/31/16 08:25:31  5-MIN KARA 311425Z 03008KT 10SM CLR 29/23 A2991 40 69 1700 030/08 RMK AO2 T02940233
53915KARA ARA20160831083010208/31/16 08:30:31  5-MIN KARA 311430Z 03007KT 10SM CLR 30/23 A2991 30 67 1800 030/07 RMK AO2 T03000233
53915KARA ARA20160831083510208/31/16 08:35:31  5-MIN KARA 311435Z 03008KT 10SM CLR 30/23 A2991 40 67 1800 030/08 RMK AO2 T03000233
53915KARA ARA20160831084010208/31/16 08:40:31  5-MIN KARA 311440Z 04007KT 10SM CLR 30/23 A2991 30 65 1800 040/07 RMK AO2 T03000228
53915KARA ARA20160831084510208/31/16 08:45:31  5-MIN KARA 311445Z 03008KT 10SM CLR 31/23 A2991 30 65 1900 030/08 RMK AO2 T03060233
53915KARA ARA20160831085011508/31/16 08:50:31  5-MIN KARA 311450Z 04007KT 10SM CLR 31/23 A2991 40 65 1900 040/07 RMK AO2 SLP128 T03060233 55002
53915KARA ARA20160831085510208/31/16 08:55:31  5-MIN KARA 311455Z 04006KT 10SM CLR 31/23 A2991 30 65 1900 040/06 RMK AO2 T03060233
53915KARA ARA20160831090010208/31/16 09:00:31  5-MIN KARA 311500Z 04008KT 10SM CLR 31/23 A2991 30 63 1900 040/08 RMK AO2 T03110233
53915KARA ARA20160831090510208/31/16 09:05:31  5-MIN KARA 311505Z 04009KT 10SM CLR 31/23 A2991 30 60 1900 040/09 RMK AO2 T03110228
53915KARA ARA20160831091010208/31/16 09:10:31  5-MIN KARA 311510Z 05007KT 10SM CLR 31/23 A2991 30 60 1900 050/07 RMK AO2 T03110228
53915KARA ARA20160831091510208/31/16 09:15:31  5-MIN KARA 311515Z 04007KT 10SM CLR 31/23 A2991 30 63 1900 040/07 RMK AO2 T03110233
53915KARA ARA20160831092010208/31/16 09:20:31  5-MIN KARA 311520Z 05007KT 10SM CLR 31/23 A2991 30 60 1900 040/07 RMK AO2 T03110228
53915KARA ARA20160831092510208/31/16 09:25:31  5-MIN KARA 311525Z 04007KT 10SM CLR 32/23 A2992 30 61 2000 030/07 RMK AO2 T03170233
53915KARA ARA20160831093010208/31/16 09:30:31  5-MIN KARA 311530Z 04006KT 10SM CLR 32/23 A2992 30 61 2000 040/06 RMK AO2 T03170233
53915KARA ARA20160831093510208/31/16 09:35:31  5-MIN KARA 311535Z 06009KT 10SM CLR 32/23 A2992 30 61 2000 060/09 RMK AO2 T03170233
53915KARA ARA20160831094010208/31/16 09:40:31  5-MIN KARA 311540Z 05008KT 10SM CLR 32/23 A2992 30 58 2000 050/08 RMK AO2 T03170228
53915KARA ARA20160831094510208/31/16 09:45:31  5-MIN KARA 311545Z 05007KT 10SM CLR 32/23 A2992 30 59 2000 050/07 RMK AO2 T03220233
53915KARA ARA20160831095010908/31/16 09:50:31  5-MIN KARA 311550Z 05008KT 10SM CLR 32/23 A2992 30 57 2000 050/08 RMK AO2 SLP130 T03220228
53915KARA ARA20160831095510208/31/16 09:55:31  5-MIN KARA 311555Z 05008KT 10SM CLR 32/23 A2992 20 57 2000 050/08 RMK AO2 T03220228
53915KARA ARA20160831100010208/31/16 10:00:31  5-MIN KARA 311600Z 04011KT 10SM CLR 32/23 A2992 30 57 2000 040/11 RMK AO2 T03220228
53915KARA ARA20160831100510208/31/16 10:05:31  5-MIN KARA 311605Z 03008KT 10SM CLR 32/23 A2992 30 57 2000 030/08 RMK AO2 T03220228
53915KARA ARA20160831101010208/31/16 10:10:31  5-MIN KARA 311610Z 04010KT 10SM CLR 33/23 A2992 30 53 2200 040/10 RMK AO2 T03330228
53915KARA ARA20160831101510208/31/16 10:15:31  5-MIN KARA 311615Z 03010KT 10SM CLR 33/23 A2992 30 55 2100 030/10 RMK AO2 T03280228
53915KARA ARA20160831102010208/31/16 10:20:31  5-MIN KARA 311620Z 03009KT 10SM CLR 33/22 A2992 30 53 2100 030/09 RMK AO2 T03280222
53915KARA ARA20160831102510208/31/16 10:25:31  5-MIN KARA 311625Z 04010KT 10SM CLR 33/22 A2992 30 53 2100 040/10 RMK AO2 T03280222
53915KARA ARA20160831103010208/31/16 10:30:31  5-MIN KARA 311630Z 05010KT 10SM CLR 33/23 A2992 30 55 2100 050/10 RMK AO2 T03280228
53915KARA ARA20160831103510208/31/16 10:35:31  5-MIN KARA 311635Z 04010KT 10SM CLR 33/22 A2992 30 53 2100 040/10 RMK AO2 T03280222
53915KARA ARA20160831104010208/31/16 10:40:31  5-MIN KARA 311640Z 04009KT 10SM CLR 33/22 A2992 30 53 2100 040/09 RMK AO2 T03280222
53915KARA ARA20160831104510208/31/16 10:45:31  5-MIN KARA 311645Z 06009KT 10SM CLR 33/22 A2992 30 51 2200 060/09 RMK AO2 T03330222
53915KARA ARA20160831105010908/31/16 10:50:31  5-MIN KARA 311650Z 03010KT 10SM CLR 33/22 A2991 30 51 2200 030/10 RMK AO2 SLP129 T03330222
53915KARA ARA20160831105510208/31/16 10:55:31  5-MIN KARA 311655Z 04007KT 10SM CLR 33/22 A2991 30 51 2200 040/07 RMK AO2 T03330222
53915KARA ARA20160831110010208/31/16 11:00:31  5-MIN KARA 311700Z 03010KT 10SM CLR 34/22 A2991 40 50 2200 030/10 RMK AO2 T03390222
53915KARA ARA20160831110510208/31/16 11:05:31  5-MIN KARA 311705Z 03008KT 10SM CLR 33/22 A2991 40 51 2200 030/08 RMK AO2 T03330222
53915KARA ARA20160831111010208/31/16 11:10:31  5-MIN KARA 311710Z 02012KT 10SM CLR 34/22 A2991 40 50 2200 010/12 RMK AO2 T03390222
53915KARA ARA20160831111510208/31/16 11:15:31  5-MIN KARA 311715Z 02010KT 10SM CLR 34/22 A2991 40 50 2200 010/10 RMK AO2 T03390222
53915KARA ARA20160831112011108/31/16 11:20:31  5-MIN KARA 311720Z 03007G16KT 10SM FEW041 34/22 A2991 40 50 2200 030/07G16 RMK AO2 T03390222
53915KARA ARA20160831112510508/31/16 11:25:31  5-MIN KARA 311725Z 03010KT 10SM FEW041 34/22 A2990 40 50 2200 030/10 RMK AO2 T03390222
53915KARA ARA20160831113010208/31/16 11:30:31  5-MIN KARA 311730Z 06009KT 10SM CLR 34/22 A2990 40 50 2200 060/09 RMK AO2 T03390222
53915KARA ARA20160831113510208/31/16 11:35:31  5-MIN KARA 311735Z 05010KT 10SM CLR 34/22 A2990 40 48 2200 050/10 RMK AO2 T03390217
53915KARA ARA20160831114010208/31/16 11:40:31  5-MIN KARA 311740Z 02009KT 10SM CLR 34/22 A2990 50 46 2300 020/09 RMK AO2 T03440217
53915KARA ARA20160831114510208/31/16 11:45:31  5-MIN KARA 311745Z 03010KT 10SM CLR 34/22 A2990 50 48 2200 030/10 RMK AO2 T03390217
53915KARA ARA20160831115012708/31/16 11:50:31  5-MIN KARA 311750Z 04008KT 10SM CLR 34/22 A2990 50 48 2300 040/08 RMK AO2 SLP123 T03390217 10344 20244 53002
53915KARA ARA20160831115510208/31/16 11:55:31  5-MIN KARA 311755Z 06008KT 10SM CLR 34/22 A2989 50 48 2300 050/08 RMK AO2 T03390217
53915KARA ARA20160831120010208/31/16 12:00:31  5-MIN KARA 311800Z 03011KT 10SM CLR 34/22 A2989 50 46 2300 030/11 RMK AO2 T03440217
53915KARA ARA20160831120510208/31/16 12:05:31  5-MIN KARA 311805Z 04010KT 10SM CLR 34/22 A2989 50 48 2300 040/10 RMK AO2 T03390217
53915KARA ARA20160831121010208/31/16 12:10:31  5-MIN KARA 311810Z 05008KT 10SM CLR 34/22 A2989 60 46 2300 050/08 RMK AO2 T03440217
53915KARA ARA20160831121510208/31/16 12:15:31  5-MIN KARA 311815Z 03008KT 10SM CLR 34/21 A2989 60 45 2300 030/08 RMK AO2 T03440211
53915KARA ARA20160831122010208/31/16 12:20:31  5-MIN KARA 311820Z 03006KT 10SM CLR 34/22 A2989 60 46 2300 020/06 RMK AO2 T03440217
53915KARA ARA20160831122510208/31/16 12:25:31  5-MIN KARA 311825Z 03008KT 10SM CLR 34/22 A2988 60 48 2300 030/08 RMK AO2 T03440222
53915KARA ARA20160831123010508/31/16 12:30:31  5-MIN KARA 311830Z 04009KT 10SM FEW048 34/22 A2988 60 48 2300 040/09 RMK AO2 T03440222
53915KARA ARA20160831123510208/31/16 12:35:31  5-MIN KARA 311835Z 03006KT 10SM CLR 34/22 A2988 60 48 2300 030/06 RMK AO2 T03440222
53915KARA ARA20160831124010508/31/16 12:40:31  5-MIN KARA 311840Z 05008KT 10SM FEW048 35/22 A2988 60 45 2400 050/08 RMK AO2 T03500217
53915KARA ARA20160831124510508/31/16 12:45:31  5-MIN KARA 311845Z 02009KT 10SM FEW048 34/22 A2988 70 46 2300 020/09 RMK AO2 T03440217
53915KARA ARA20160831125010908/31/16 12:50:31  5-MIN KARA 311850Z 36009KT 10SM CLR 35/22 A2987 70 45 2400 360/09 RMK AO2 SLP115 T03500217
53915KARA ARA20160831125511808/31/16 12:55:31  5-MIN KARA 311855Z 02007KT 350V060 10SM CLR 35/22 A2987 70 45 2400 020/07 350V060 RMK AO2 T03500217
53915KARA ARA20160831130010208/31/16 13:00:31  5-MIN KARA 311900Z 02010KT 10SM CLR 35/21 A2987 70 43 2400 020/10 RMK AO2 T03500211
53915KARA ARA20160831130510208/31/16 13:05:31  5-MIN KARA 311905Z 03009KT 10SM CLR 34/21 A2987 70 45 2300 020/09 RMK AO2 T03440211
53915KARA ARA20160831131010208/31/16 13:10:31  5-MIN KARA 311910Z 04009KT 10SM CLR 35/21 A2987 70 43 2400 030/09 RMK AO2 T03500211
53915KARA ARA20160831131510208/31/16 13:15:31  5-MIN KARA 311915Z 03010KT 10SM CLR 35/21 A2987 80 43 2400 030/10 RMK AO2 T03500211
53915KARA ARA20160831132010208/31/16 13:20:31  5-MIN KARA 311920Z 04011KT 10SM CLR 35/21 A2986 80 43 2400 040/11 RMK AO2 T03500211
53915KARA ARA20160831132510508/31/16 13:25:31  5-MIN KARA 311925Z 02011KT 10SM FEW049 35/22 A2986 80 45 2400 010/11 RMK AO2 T03500217
53915KARA ARA20160831133010508/31/16 13:30:31  5-MIN KARA 311930Z 03009KT 10SM FEW049 34/22 A2986 80 46 2400 030/09 RMK AO2 T03440217
53915KARA ARA20160831133510508/31/16 13:35:31  5-MIN KARA 311935Z 02011KT 10SM FEW049 35/21 A2986 80 43 2400 020/11 RMK AO2 T03500211
53915KARA ARA20160831134010208/31/16 13:40:31  5-MIN KARA 311940Z 36009KT 10SM CLR 35/21 A2986 90 43 2400 360/09 RMK AO2 T03500211
53915KARA ARA20160831134510508/31/16 13:45:31  5-MIN KARA 311945Z 01012KT 10SM FEW049 34/22 A2985 90 46 2400 010/12 RMK AO2 T03440217
53915KARA ARA20160831135011208/31/16 13:50:31  5-MIN KARA 311950Z 01010KT 10SM FEW049 34/22 A2985 90 46 2400 010/10 RMK AO2 SLP108 T03440217
53915KARA ARA20160831135510508/31/16 13:55:31  5-MIN KARA 311955Z 02008KT 10SM FEW049 35/21 A2985 90 43 2400 010/08 RMK AO2 T03500211
53915KARA ARA20160831140010608/31/16 14:00:31  5-MIN KARA 312000Z 36009KT 10SM FEW049 35/22 A2985 100 45 2400 360/09 RMK AO2 T03500217
53915KARA ARA20160831140510608/31/16 14:05:31  5-MIN KARA 312005Z 02010KT 10SM FEW049 35/22 A2984 100 45 2400 020/10 RMK AO2 T03500217
53915KARA ARA20160831141010608/31/16 14:10:31  5-MIN KARA 312010Z 02009KT 10SM FEW049 34/21 A2984 100 45 2400 020/09 RMK AO2 T03440211
53915KARA ARA20160831141510608/31/16 14:15:31  5-MIN KARA 312015Z 03010KT 10SM FEW050 35/22 A2984 100 45 2400 020/10 RMK AO2 T03500217
53915KARA ARA20160831142010608/31/16 14:20:31  5-MIN KARA 312020Z 03011KT 10SM FEW050 34/21 A2984 100 45 2400 030/11 RMK AO2 T03440211
53915KARA ARA20160831142511208/31/16 14:25:31  5-MIN KARA 312025Z 02013G19KT 10SM FEW050 35/22 A2984 100 45 2400 020/13G19 RMK AO2 T03500217
53915KARA ARA20160831143011208/31/16 14:30:31  5-MIN KARA 312030Z 03009G19KT 10SM FEW050 35/22 A2983 110 45 2400 030/09G19 RMK AO2 T03500217
53915KARA ARA20160831143510608/31/16 14:35:31  5-MIN KARA 312035Z 04010KT 10SM FEW050 35/21 A2983 110 43 2400 040/10 RMK AO2 T03500211
53915KARA ARA20160831144010608/31/16 14:40:31  5-MIN KARA 312040Z 04010KT 10SM FEW050 35/21 A2983 110 43 2400 040/10 RMK AO2 T03500211
53915KARA ARA20160831144510608/31/16 14:45:31  5-MIN KARA 312045Z 02010KT 10SM FEW050 35/22 A2983 110 45 2400 020/10 RMK AO2 T03500217
53915KARA ARA20160831145011908/31/16 14:50:31  5-MIN KARA 312050Z 02011KT 10SM FEW050 34/21 A2983 110 45 2400 020/11 RMK AO2 SLP101 T03440211 58005
53915KARA ARA20160831145510608/31/16 14:55:31  5-MIN KARA 312055Z 03012KT 10SM FEW050 34/21 A2983 110 45 2400 030/12 RMK AO2 T03440211
53915KARA ARA20160831150010608/31/16 15:00:31  5-MIN KARA 312100Z 03010KT 10SM FEW050 35/21 A2983 110 43 2400 030/10 RMK AO2 T03500211
53915KARA ARA20160831150510608/31/16 15:05:31  5-MIN KARA 312105Z 03011KT 10SM FEW050 35/21 A2983 110 43 2400 030/11 RMK AO2 T03500211
53915KARA ARA20160831151010608/31/16 15:10:31  5-MIN KARA 312110Z 02013KT 10SM FEW049 35/22 A2983 110 45 2400 020/13 RMK AO2 T03500217
53915KARA ARA20160831151510608/31/16 15:15:31  5-MIN KARA 312115Z 02011KT 10SM FEW049 35/21 A2983 110 43 2400 020/11 RMK AO2 T03500211
53915KARA ARA20160831152010608/31/16 15:20:31  5-MIN KARA 312120Z 03012KT 10SM FEW049 35/22 A2983 110 45 2400 030/12 RMK AO2 T03500217
53915KARA ARA20160831152511208/31/16 15:25:31  5-MIN KARA 312125Z 04009G16KT 10SM FEW050 35/22 A2982 120 45 2500 040/09G16 RMK AO2 T03500217
53915KARA ARA20160831153010608/31/16 15:30:31  5-MIN KARA 312130Z 03012KT 10SM FEW050 34/21 A2982 120 45 2400 030/12 RMK AO2 T03440211
53915KARA ARA20160831153510608/31/16 15:35:31  5-MIN KARA 312135Z 02012KT 10SM FEW050 34/21 A2982 120 45 2400 020/12 RMK AO2 T03440211
53915KARA ARA20160831154010308/31/16 15:40:31  5-MIN KARA 312140Z 03011KT 10SM CLR 34/21 A2982 120 45 2400 030/11 RMK AO2 T03440211
53915KARA ARA20160831154510608/31/16 15:45:31  5-MIN KARA 312145Z 04011KT 10SM FEW050 34/21 A2982 120 45 2400 040/11 RMK AO2 T03440211
53915KARA ARA20160831155011308/31/16 15:50:31  5-MIN KARA 312150Z 01010KT 10SM FEW050 34/22 A2982 120 46 2400 010/10 RMK AO2 SLP097 T03440217
53915KARA ARA20160831155510608/31/16 15:55:31  5-MIN KARA 312155Z 03014KT 10SM FEW050 34/22 A2982 120 46 2400 020/14 RMK AO2 T03440217
53915KARA ARA20160831160010608/31/16 16:00:31  5-MIN KARA 312200Z 02010KT 10SM FEW050 34/22 A2982 120 46 2400 020/10 RMK AO2 T03440217
53915KARA ARA20160831160510608/31/16 16:05:31  5-MIN KARA 312205Z 02008KT 10SM FEW050 34/22 A2982 120 46 2400 020/08 RMK AO2 T03440217
53915KARA ARA20160831161010608/31/16 16:10:31  5-MIN KARA 312210Z 01011KT 10SM FEW050 34/22 A2982 120 46 2400 010/11 RMK AO2 T03440217
53915KARA ARA20160831161510608/31/16 16:15:31  5-MIN KARA 312215Z 01012KT 10SM FEW050 34/22 A2982 120 46 2400 010/12 RMK AO2 T03440217
53915KARA ARA20160831162010608/31/16 16:20:31  5-MIN KARA 312220Z 02012KT 10SM FEW050 34/22 A2982 120 48 2300 020/12 RMK AO2 T03390217
53915KARA ARA20160831162510608/31/16 16:25:31  5-MIN KARA 312225Z 02011KT 10SM FEW050 34/22 A2982 120 48 2300 020/11 RMK AO2 T03390217
53915KARA ARA20160831163010608/31/16 16:30:31  5-MIN KARA 312230Z 03010KT 10SM FEW050 34/22 A2982 120 48 2300 030/10 RMK AO2 T03390217
53915KARA ARA20160831163510608/31/16 16:35:31  5-MIN KARA 312235Z 02011KT 10SM FEW050 34/22 A2982 120 48 2300 020/11 RMK AO2 T03390217
53915KARA ARA20160831164010608/31/16 16:40:31  5-MIN KARA 312240Z 01009KT 10SM FEW050 34/22 A2981 120 48 2300 010/09 RMK AO2 T03390217
53915KARA ARA20160831164510608/31/16 16:45:31  5-MIN KARA 312245Z 01012KT 10SM FEW050 34/22 A2981 120 48 2300 010/12 RMK AO2 T03390217
53915KARA ARA20160831165011308/31/16 16:50:31  5-MIN KARA 312250Z 02013KT 10SM FEW050 34/21 A2981 120 46 2300 020/13 RMK AO2 SLP095 T03390211
53915KARA ARA20160831165510608/31/16 16:55:31  5-MIN KARA 312255Z 02009KT 10SM FEW050 34/22 A2982 120 48 2300 020/09 RMK AO2 T03390217
53915KARA ARA20160831170010608/31/16 17:00:31  5-MIN KARA 312300Z 03011KT 10SM FEW050 33/22 A2981 120 50 2300 030/11 RMK AO2 T03330217
53915KARA ARA20160831170510608/31/16 17:05:31  5-MIN KARA 312305Z 03010KT 10SM FEW050 33/22 A2981 130 50 2300 020/10 RMK AO2 T03330217
53915KARA ARA20160831171010608/31/16 17:10:31  5-MIN KARA 312310Z 03010KT 10SM FEW049 33/22 A2981 120 50 2300 030/10 RMK AO2 T03330217
53915KARA ARA20160831171510608/31/16 17:15:31  5-MIN KARA 312315Z 02008KT 10SM FEW047 33/22 A2981 130 50 2300 020/08 RMK AO2 T03330217
53915KARA ARA20160831172010608/31/16 17:20:31  5-MIN KARA 312320Z 01010KT 10SM FEW047 33/22 A2981 130 51 2300 010/10 RMK AO2 T03330222
53915KARA ARA20160831172510608/31/16 17:25:31  5-MIN KARA 312325Z 01010KT 10SM FEW047 33/23 A2981 120 55 2200 010/10 RMK AO2 T03280228
53915KARA ARA20160831173010308/31/16 17:30:31  5-MIN KARA 312330Z 01009KT 10SM CLR 33/22 A2982 120 53 2200 010/09 RMK AO2 T03280222
53915KARA ARA20160831173510308/31/16 17:35:31  5-MIN KARA 312335Z 01010KT 10SM CLR 32/22 A2982 120 55 2200 010/10 RMK AO2 T03220222
53915KARA ARA20160831174010308/31/16 17:40:31  5-MIN KARA 312340Z 01009KT 10SM CLR 32/22 A2982 120 55 2200 360/09 RMK AO2 T03220222
53915KARA ARA20160831174510308/31/16 17:45:31  5-MIN KARA 312345Z 01009KT 10SM CLR 32/23 A2982 120 57 2200 010/09 RMK AO2 T03220228
53915KARA ARA20160831175012808/31/16 17:50:31  5-MIN KARA 312350Z 01009KT 10SM CLR 32/22 A2982 120 56 2100 010/09 RMK AO2 SLP096 T03170222 10356 20317 56022
53915KARA ARA20160831175510308/31/16 17:55:31  5-MIN KARA 312355Z 01006KT 10SM CLR 32/23 A2982 120 58 2100 010/06 RMK AO2 T03170228
53915KARA ARA20160831180010308/31/16 18:00:31  5-MIN KARA 010000Z 01006KT 10SM CLR 32/23 A2982 120 58 2100 010/06 RMK AO2 T03170228
53915KARA ARA20160831180510308/31/16 18:05:31  5-MIN KARA 010005Z 01006KT 10SM CLR 31/23 A2982 120 60 2000 010/06 RMK AO2 T03110228
53915KARA ARA20160831181010308/31/16 18:10:31  5-MIN KARA 010010Z 01007KT 10SM CLR 31/23 A2982 120 60 2000 010/07 RMK AO2 T03110228
53915KARA ARA20160831181510308/31/16 18:15:31  5-MIN KARA 010015Z 36006KT 10SM CLR 31/23 A2982 120 62 2000 360/06 RMK AO2 T03060228
53915KARA ARA20160831182010308/31/16 18:20:31  5-MIN KARA 010020Z 36006KT 10SM CLR 31/23 A2982 120 62 2000 360/06 RMK AO2 T03060228
53915KARA ARA20160831182510308/31/16 18:25:31  5-MIN KARA 010025Z 01005KT 10SM CLR 30/23 A2982 120 65 1900 360/05 RMK AO2 T03000228
53915KARA ARA20160831183010308/31/16 18:30:31  5-MIN KARA 010030Z 36005KT 10SM CLR 29/23 A2982 120 67 1800 360/05 RMK AO2 T02940228
53915KARA ARA20160831183510308/31/16 18:35:31  5-MIN KARA 010035Z 36006KT 10SM CLR 29/23 A2982 120 67 1800 360/06 RMK AO2 T02940228
53915KARA ARA20160831184010308/31/16 18:40:31  5-MIN KARA 010040Z 35006KT 10SM CLR 29/23 A2983 110 67 1800 350/06 RMK AO2 T02940228
53915KARA ARA20160831184510308/31/16 18:45:31  5-MIN KARA 010045Z 36006KT 10SM CLR 29/23 A2983 110 69 1800 350/06 RMK AO2 T02890228
53915KARA ARA20160831185011008/31/16 18:50:31  5-MIN KARA 010050Z 36006KT 10SM CLR 29/23 A2983 110 69 1800 350/06 RMK AO2 SLP100 T02890228
53915KARA ARA20160831185510308/31/16 18:55:31  5-MIN KARA 010055Z 36006KT 10SM CLR 29/23 A2983 110 69 1800 360/06 RMK AO2 T02890228
53915KARA ARA20160831190010308/31/16 19:00:31  5-MIN KARA 010100Z 36005KT 10SM CLR 28/23 A2983 110 71 1700 360/05 RMK AO2 T02830228
53915KARA ARA20160831190510308/31/16 19:05:31  5-MIN KARA 010105Z 36005KT 10SM CLR 28/23 A2983 110 74 1700 360/05 RMK AO2 T02830233
53915KARA ARA20160831191010308/31/16 19:10:31  5-MIN KARA 010110Z 36005KT 10SM CLR 28/23 A2984 100 74 1700 360/05 RMK AO2 T02830233
53915KARA ARA20160831191510308/31/16 19:15:31  5-MIN KARA 010115Z 36004KT 10SM CLR 28/23 A2984 100 74 1700 360/04 RMK AO2 T02830233
53915KARA ARA20160831192010308/31/16 19:20:31  5-MIN KARA 010120Z 36004KT 10SM CLR 28/23 A2984 100 74 1700 360/04 RMK AO2 T02830233
53915KARA ARA20160831192510308/31/16 19:25:31  5-MIN KARA 010125Z 35004KT 10SM CLR 28/23 A2984 100 74 1700 350/04 RMK AO2 T02830233
53915KARA ARA20160831193010308/31/16 19:30:31  5-MIN KARA 010130Z 35004KT 10SM CLR 28/23 A2984 100 74 1700 350/04 RMK AO2 T02830233
53915KARA ARA20160831193510208/31/16 19:35:31  5-MIN KARA 010135Z 35004KT 10SM CLR 28/23 A2985 90 74 1700 350/04 RMK AO2 T02830233
53915KARA ARA20160831194010208/31/16 19:40:31  5-MIN KARA 010140Z 36004KT 10SM CLR 28/23 A2985 90 71 1700 360/04 RMK AO2 T02830228
53915KARA ARA20160831194510208/31/16 19:45:31  5-MIN KARA 010145Z 36004KT 10SM CLR 28/23 A2985 90 74 1700 360/04 RMK AO2 T02830233
53915KARA ARA20160831195010908/31/16 19:50:31  5-MIN KARA 010150Z 36004KT 10SM CLR 28/23 A2985 90 74 1700 360/04 RMK AO2 SLP107 T02830233
53915KARA ARA20160831195510208/31/16 19:55:31  5-MIN KARA 010155Z 36004KT 10SM CLR 28/23 A2985 90 74 1700 360/04 RMK AO2 T02830233
53915KARA ARA20160831200010708/31/16 20:00:31  5-MIN KARA 010200Z AUTO 01004KT 10SM CLR 28/23 A2985 90 74 1700 360/04 RMK AO2 T02830233
53915KARA ARA20160831200510708/31/16 20:05:31  5-MIN KARA 010205Z AUTO 36004KT 10SM CLR 28/23 A2986 90 74 1700 360/04 RMK AO2 T02830233
53915KARA ARA20160831201010708/31/16 20:10:31  5-MIN KARA 010210Z AUTO 36004KT 10SM CLR 28/23 A2986 80 74 1700 360/04 RMK AO2 T02830233
53915KARA ARA20160831201511008/31/16 20:15:31  5-MIN KARA 010215Z AUTO 36005KT 10SM FEW070 28/23 A2986 80 74 1700 360/05 RMK AO2 T02830233
53915KARA ARA20160831202010708/31/16 20:20:31  5-MIN KARA 010220Z AUTO 36005KT 10SM CLR 28/23 A2986 80 76 1600 360/05 RMK AO2 T02780233
53915KARA ARA20160831202510708/31/16 20:25:31  5-MIN KARA 010225Z AUTO 36005KT 10SM CLR 28/23 A2986 80 76 1600 360/05 RMK AO2 T02780233
53915KARA ARA20160831203010708/31/16 20:30:31  5-MIN KARA 010230Z AUTO 36005KT 10SM CLR 28/23 A2987 80 76 1600 360/05 RMK AO2 T02780233
53915KARA ARA20160831203510708/31/16 20:35:31  5-MIN KARA 010235Z AUTO 36006KT 10SM CLR 28/23 A2987 80 76 1600 360/06 RMK AO2 T02780233
53915KARA ARA20160831204010708/31/16 20:40:31  5-MIN KARA 010240Z AUTO 36006KT 10SM CLR 28/23 A2987 80 76 1600 360/06 RMK AO2 T02780233
53915KARA ARA20160831204510708/31/16 20:45:31  5-MIN KARA 010245Z AUTO 36005KT 10SM CLR 27/23 A2987 70 79 1500 360/05 RMK AO2 T02720233
53915KARA ARA20160831205012008/31/16 20:50:31  5-MIN KARA 010250Z AUTO 36005KT 10SM CLR 28/23 A2987 70 76 1600 360/05 RMK AO2 SLP115 T02780233 55005
53915KARA ARA20160831205510708/31/16 20:55:31  5-MIN KARA 010255Z AUTO 36005KT 10SM CLR 28/23 A2987 70 76 1600 360/05 RMK AO2 T02780233
53915KARA ARA20160831210010708/31/16 21:00:31  5-MIN KARA 010300Z AUTO 36005KT 10SM CLR 28/23 A2987 70 76 1600 360/05 RMK AO2 T02780233
53915KARA ARA20160831210510708/31/16 21:05:31  5-MIN KARA 010305Z AUTO 36005KT 10SM CLR 28/23 A2987 70 76 1600 360/05 RMK AO2 T02780233
53915KARA ARA20160831211010708/31/16 21:10:31  5-MIN KARA 010310Z AUTO 36005KT 10SM CLR 28/23 A2987 70 76 1600 360/05 RMK AO2 T02780233
53915KARA ARA20160831211510708/31/16 21:15:31  5-MIN KARA 010315Z AUTO 36005KT 10SM CLR 28/23 A2987 70 76 1600 360/05 RMK AO2 T02780233
